station_id,dh_utc,temperature,pression,pression_variation_3h,humidite,point_de_rosee,visibilite,vent_moyen,vent_rafales,vent_rafales_10min,vent_direction,temperature_min,temperature_max,pluie_1h,pluie_3h,pluie_6h,pluie_12h,pluie_24h,ensoleillement,temperature_sol,temps_omm,source,radiations,neige_au_sol,nebulosite,raw_msg
07240,1997-01-01 00:00:00,-8,1012.9,-0.5,79,-11,6000,22.224,,,50,,,,,,,,,,,wg-a,,,,AAXX 01004 07240 12456 80512 11080 21110 39986 40129 58005 60006 885// 90000=
07240,1997-01-01 03:00:00,-7,1013.1,0.1,86,-9,6000,22.224,,,50,,,,,,,,,,,wg-a,,,,AAXX 01034 07240 12356 80512 11070 21090 39988 40131 53001 60006 886// 90300=
07240,1997-01-01 06:00:00,-9,1013.8,0.6,85,-11,6000,22.224,,,60,-9.1,-6.6,,,,,,,,,wg-a,,,,AAXX 01064 07240 02/56 /0612 11090 21110 39994 40138 53006 60006 90600 333 11066 21091 61000=
07240,1997-01-01 09:00:00,-10,1015.8,1.8,79,-13,500,22.224,,,50,,,,,,,,,,70,wg-a,,,,AAXX 01094 07240 02400 70512 11100 21130 30013 40158 53018 61000 77072 875// 90900 333 ////=
07240,1997-01-01 12:00:00,-9,1016.3,0.6,79,-12,8000,18.52,,,70,,,,,,,,,,1,wg-a,,,,AAXX 01124 07240 02/58 70710 11090 21120 30019 40163 50006 61000 70172 84032 91200 333 6100=
07240,1997-01-01 15:00:00,-8,1016.9,0.6,73,-12,8000,14.816,,,60,,,,,,,,,,,wg-a,,,,AAXX 01154 07240 12/58 /0608 11080 21120 30025 40169 53006 60006 83032 91500=
07240,1997-01-01 18:00:00,-10,1018.8,1.7,79,-13,7000,11.112,,,50,-9.9,-7.1,,,,,,,,,wg-a,,,,AAXX 01184 07240 12/57 00506 11100 21130 30043 40188 51017 60006 80000 91800 333 11071 21099=
07240,1997-01-01 21:00:00,-11,1019.6,0.9,85,-13,7000,11.112,,,60,,,,,,,,,,,wg-a,,,,AAXX 01214 07240 12/57 00606 11110 21130 30050 40196 53009 60006 80000 92100=
07240,1997-01-02 00:00:00,-11,1020.1,0.4,92,-12,6000,11.112,,,70,,,,,,,,,,,wg-a,,,,AAXX 02004 07240 12/56 00706 11110 21120 30055 40201 51004 60006 80000 90000=
07240,1997-01-02 03:00:00,-8,1019.1,-0.8,85,-10,3000,18.52,,,50,,,,,,,,,,10,wg-a,,,,AAXX 02034 07240 12230 80510 11080 21100 30047 40191 58008 60006 71011 876// 90300=
07240,1997-01-02 06:00:00,-8,1018.2,-0.9,85,-10,2000,18.52,,,70,-10.7,-8.2,,,,,,,,10,wg-a,,,,AAXX 02064 07240 02220 80710 11080 21100 30038 40182 56009 60006 71011 886// 90600 333 11082 21107 61000=
07240,1997-01-02 09:00:00,-9,1017.8,-0.4,92,-10,2000,18.52,,,50,,,,,,,,,,,wg-a,,,,AAXX 02094 07240 12/20 /0510 11090 21100 30034 40178 55004 60006 90900=
07240,1997-01-02 12:00:00,-7,1016.3,-1.4,93,-8,1300,25.928,,,70,,,,,,,,,,,wg-a,,,,AAXX 02124 07240 12/13 /0714 11070 21080 30020 40163 58014 60006 91200=
07240,1997-01-02 15:00:00,-6,1014,-2.1,86,-8,2500,25.928,,,40,,,,,,,,,,,wg-a,,,,AAXX 02154 07240 12/25 /0414 11060 21080 39998 40140 56021 60006 91500=
07240,1997-01-02 18:00:00,-6,1013,-1.1,86,-8,3500,25.928,,,50,-9,-5.5,,,,,,,,10,wg-a,,,,AAXX 02184 07240 12235 80514 11060 21080 39987 40130 56011 60006 71022 886// 91800 333 11055 21090=
07240,1997-01-02 21:00:00,-6,1011.9,-1,93,-7,3500,22.224,,,50,,,,,,,,,,10,wg-a,,,,AAXX 02214 07240 12235 80512 11060 21070 39977 40119 57010 60006 71022 886// 92100=
07240,1997-01-03 00:00:00,-6,1010.9,-0.9,86,-8,500,22.224,,,60,,,,,,,,,,,wg-a,,,,AAXX 03004 07240 12/00 /0612 11060 21080 39967 40109 55009 60006 90000=
07240,1997-01-03 03:00:00,-6,1009.4,-1.5,86,-8,500,25.928,,,50,,,,,,,,,,,wg-a,,,,AAXX 03034 07240 12200 80514 11060 21080 39952 40094 58015 60006 886// 90300=
07240,1997-01-03 06:00:00,-6,1007.8,-1.6,86,-8,3000,25.928,,,50,-6.7,-5.9,,,,,,,,10,wg-a,,,,AAXX 03064 07240 02330 80514 11060 21080 39936 40078 55016 60006 71022 886// 90600 333 11059 21067 60004=
07240,1997-01-03 09:00:00,-6,1007.3,-0.5,86,-8,3000,18.52,,,60,,,,,,,,,,10,wg-a,,,,AAXX 03094 07240 12230 80610 11060 21080 39931 40073 55005 60006 71022 886// 90900=
07240,1997-01-03 12:00:00,-6,1005,-2.1,93,-7,1200,22.224,,,50,,,,,,,,,,10,wg-a,,,,AAXX 03124 07240 12212 80512 11060 21070 39909 40050 58021 60006 71022 886// 91200=
07240,1997-01-03 15:00:00,-6,1002.8,-2.2,93,-7,1200,29.632,,,50,,,,,,,,,,10,wg-a,,,,AAXX 03154 07240 12212 80516 11060 21070 39887 40028 56022 60006 71022 886// 91500=
07240,1997-01-03 18:00:00,-5,1001.1,-1.6,86,-7,1500,29.632,,,40,-6.5,-5,,,,,,,,10,wg-a,,,,AAXX 03184 07240 02415 80416 11050 21070 39871 40011 56016 61000 71062 887// 91800 333 11050 21065 6100=
07240,1997-01-03 21:00:00,-3,1000.7,-0.4,86,-5,1500,25.928,,,40,,,,,,,,,,10,wg-a,,,,AAXX 03214 07240 02315 80414 11030 21050 39868 40007 58004 61000 71062 887// 92100 333 ////=
07240,1997-01-04 00:00:00,-4,1000.6,0,93,-5,1500,22.224,,,40,,,,,,,,,,10,wg-a,,,,AAXX 04004 07240 02215 80412 11040 21050 39867 40006 50000 61000 71065 887// 90000 333 6100=
07240,1997-01-04 03:00:00,-4,1001,0.4,93,-5,1200,14.816,,,40,,,,,,,,,,10,wg-a,,,,AAXX 04034 07240 12212 80408 11040 21050 39871 40010 53004 60006 71022 887// 90300=
07240,1997-01-04 06:00:00,-3,1001.9,0.9,86,-5,1200,18.52,,,30,-5,-3.3,,,,,,,,10,wg-a,,,,AAXX 04064 07240 02212 80310 11030 21050 39880 40019 53009 60006 71022 887// 90600 333 11033 21050 61000=
07240,1997-01-04 09:00:00,-3,1003.7,1.8,93,-4,2500,7.408,,,10,,,,,,,,,,10,wg-a,,,,AAXX 04094 07240 02225 80104 11030 21040 39898 40037 51018 61000 71062 887// 90900 333 ////=
07240,1997-01-04 12:00:00,-3,1004.1,0.4,93,-4,3000,11.112,,,350,,,,,,,,,,10,wg-a,,,,AAXX 04124 07240 02230 83506 11030 21040 39902 40041 50004 61000 71076 887// 91200 333 6100=
07240,1997-01-04 15:00:00,-3,1004.7,0.5,93,-4,2000,14.816,,,330,,,,,,,,,,10,wg-a,,,,AAXX 04154 07240 02220 83308 11030 21040 39907 40047 53005 61000 71072 887// 91500 333 ////=
07240,1997-01-04 18:00:00,-3,1005.9,1.2,93,-4,3000,11.112,,,320,-3.5,-2.8,,,,,,,,10,wg-a,,1,,AAXX 04184 07240 02230 83206 11030 21040 39919 40059 51012 61000 71072 887// 91800 333 11028 21035 4/001 6100=
07240,1997-01-04 21:00:00,-2,1006.4,0.6,93,-3,2000,11.112,,,320,,,,,,,,,,10,wg-a,,,,AAXX 04214 07240 02120 83206 11020 21030 39925 40064 51006 61000 71072 887// 92100 333 ////=
07240,1997-01-05 00:00:00,-3,1007.4,0.9,93,-4,1500,7.408,,,40,,,,,,,,,,10,wg-a,,,,AAXX 05004 07240 02215 80404 11030 21040 39934 40074 52009 61000 71072 887// 90000 333 6100=
07240,1997-01-05 03:00:00,-4,1008.2,0.9,100,-4,1500,11.112,,,90,,,,,,,,,,10,wg-a,,,,AAXX 05034 07240 12115 80906 11040 21040 39942 40082 53009 60006 71022 887// 90300=
07240,1997-01-05 06:00:00,-4,1008.7,0.3,93,-5,1200,7.408,,,30,-3.9,-2,,,,,,,,10,wg-a,,1,,AAXX 05064 07240 02212 80304 11040 21050 39946 40087 53003 61000 71075 887// 90600 333 11020 21039 4/001 6002=
07240,1997-01-05 09:00:00,-4,1010.2,1.5,93,-5,1500,7.408,,,60,,,,,,,,,,10,wg-a,,,,AAXX 05094 07240 02215 80604 11040 21050 39961 40102 53015 61000 71052 887// 90900 333 ////=
07240,1997-01-05 12:00:00,-3,1010.5,0.4,93,-4,1500,7.408,,,70,,,,,,,,,,10,wg-a,,,,AAXX 05124 07240 02215 80704 11030 21040 39965 40105 50004 61000 71052 887// 91200 333 ////=
07240,1997-01-05 15:00:00,-3,1010.8,0.4,93,-4,1500,7.408,,,90,,,,,,,,,,,wg-a,,,,AAXX 05154 07240 12/15 /0904 11030 21040 39968 40108 53004 60006 91500=
07240,1997-01-05 18:00:00,-3,1011.8,1,93,-4,1500,7.408,,,100,-4,-2.5,,,,,,,,10,wg-a,,1,,AAXX 05184 07240 12315 81004 11030 21040 39978 40118 52010 60006 71022 885// 91800 333 11025 21040 4/001=
07240,1997-01-05 21:00:00,-3,1013.4,1.5,93,-4,2500,7.408,,,90,,,,,,,,,,10,wg-a,,,,AAXX 05214 07240 12225 80904 11030 21040 39993 40134 53015 60006 71022 887// 92100=
07240,1997-01-06 00:00:00,-3,1013.7,0.3,93,-4,2000,14.816,,,80,,,,,,,,,,10,wg-a,,,,AAXX 06004 07240 02220 80808 11030 21040 39996 40137 50003 61000 71052 885// 90000 333 6100=
07240,1997-01-06 03:00:00,-3,1014.3,0.6,93,-4,2000,7.408,,,60,,,,,,,,,,10,wg-a,,,,AAXX 06034 07240 02520 80604 11030 21040 30002 40143 53006 61000 71052 885// 90300 333 ////=
07240,1997-01-06 06:00:00,-3,1015,0.7,93,-4,0,7.408,,,60,-2.8,-2.6,,,,,,,,,wg-a,,,,AAXX 06064 07240 02/// /0604 11030 21040 30009 40150 53007 61000 90600 333 11026 21028 ////=
07240,1997-01-06 09:00:00,-2,1016.1,1,93,-3,2000,11.112,,,50,,,,,,,,,,10,wg-a,,,,AAXX 06094 07240 12220 80506 11020 21030 30020 40161 52010 60006 71022 885// 90900=
07240,1997-01-06 12:00:00,-1,1016.2,0.1,93,-2,2000,14.816,,,50,,,,,,,,,,10,wg-a,,,,AAXX 06124 07240 12220 80508 11010 21020 30022 40162 50001 60006 71022 877// 91200=
07240,1997-01-06 15:00:00,-1,1016.6,0.5,93,-2,3000,7.408,,,20,,,,,,,,,,10,wg-a,,,,AAXX 06154 07240 12330 70204 11010 21020 30026 40166 53005 60006 71022 877// 91500=
07240,1997-01-06 18:00:00,-2,1017.5,0.7,86,-4,3500,18.52,,,50,-2.6,-0.5,,,,,,,,10,wg-a,,1,,AAXX 06184 07240 12635 /0510 11020 21040 30034 40175 51007 60006 71022 84570 91800 333 11005 21026 4/001=
07240,1997-01-06 21:00:00,-2,1018.6,0.9,86,-4,3500,0,,,0,,,,,,,,,,10,wg-a,,,,AAXX 06214 07240 12635 7//// 11020 21040 30045 40186 51009 60006 71022 865// 92100=
07240,1997-01-07 00:00:00,-5,1018.9,0.2,93,-6,3000,0,,,0,,,,,,,,,,10,wg-a,,,,AAXX 07004 07240 12130 7//// 11050 21060 30047 40189 50002 60006 71022 866// 90000=
07240,1997-01-07 03:00:00,-5,1019.5,0.6,100,-5,2500,0,,,0,,,,,,,,,,10,wg-a,,,,AAXX 07034 07240 12125 8//// 11050 21050 30053 40195 52006 60006 71022 876// 90300=
07240,1997-01-07 06:00:00,-5,1019.1,-0.4,100,-5,0,0,,,0,-5,-1.9,,,,,,,,,wg-a,,,,AAXX 07064 07240 02/// ///// 11050 21050 30049 40191 55004 60006 90600 333 11019 21050 60004=
07240,1997-01-07 12:00:00,-4,1018.9,-0.8,93,-5,3000,14.816,,,70,,,,,,,,,,10,wg-a,,,,AAXX 07124 07240 12230 80708 11040 21050 30047 40189 58008 60006 71022 886// 91200=
07240,1997-01-07 15:00:00,-5,1017.2,-1.7,93,-6,3000,18.52,,,70,,,,,,,,,,10,wg-a,,,,AAXX 07154 07240 12230 80710 11050 21060 30030 40172 56017 60006 71022 886// 91500=
07240,1997-01-07 18:00:00,-5,1016.4,-0.8,93,-6,3000,18.52,,,90,-5.1,-4.2,,,,,,,,10,wg-a,,,,AAXX 07184 07240 12230 80910 11050 21060 30022 40164 58008 60006 71022 886// 91800 333 11042 21051=
07240,1997-01-07 21:00:00,-6,1015.3,-1.1,100,-6,3000,14.816,,,110,,,,,,,,,,,wg-a,,,,AAXX 07214 07240 12/30 /1108 11060 21060 30011 40153 55011 60006 92100=
07240,1997-01-08 00:00:00,-6,1013.2,-2.1,100,-6,4000,18.52,,,90,,,,,,,,,,,wg-a,,,,AAXX 08004 07240 12/40 /0910 11060 21060 39990 40132 56021 60006 90000=
07240,1997-01-08 03:00:00,-5,1010.2,-3,93,-6,3000,18.52,,,70,,,,,,,,,,,wg-a,,,,AAXX 08034 07240 12/30 /0710 11050 21060 39960 40102 56030 60006 90300=
07240,1997-01-08 06:00:00,-5,1008,-2.1,93,-6,1500,14.816,,,70,-6,-4.8,,,,,,,,10,wg-a,,,,AAXX 08064 07240 02115 80708 11050 21060 39939 40080 56021 60006 71022 886// 90600 333 11048 21060 60004=
07240,1997-01-08 09:00:00,-4,1007.1,-0.6,93,-5,1800,18.52,,,90,,,,,,,,,,10,wg-a,,,,AAXX 08094 07240 12118 80910 11040 21050 39931 40071 55006 60006 71022 886// 90900=
07240,1997-01-08 12:00:00,-4,1005.5,-1.7,100,-4,2500,14.816,,,80,,,,,,,,,,10,wg-a,,,,AAXX 08124 07240 02125 80808 11040 21040 39915 40055 58017 61000 71022 886// 91200 333 ////=
07240,1997-01-08 15:00:00,-3,1003.1,-2.3,100,-3,3000,18.52,,,90,,,,,,,,,,10,wg-a,,,,AAXX 08154 07240 02230 80910 11030 21030 39892 40031 56023 61000 71072 886// 91500 333 ////=
07240,1997-01-08 17:00:00,-2,1002.7,-0.3,93,-3,2500,14.816,,,80,-4.7,-1.9,,,,,,,,10,wg-a,,,,AAXX 08174 07240 32525 80808 11020 21030 39888 40027 57003 71072 875// 91700 333 11019 21047=
07240,1997-01-08 18:00:00,-2,1002.7,-0.3,93,-3,2500,14.816,,,80,-4.7,-1.9,,,,,,,,10,wg-a,,,,AAXX 08184 07240 12525 80808 11020 21030 39888 40027 57003 60006 71072 875// 91800 333 11019 21047=
07240,1997-01-08 21:00:00,-1,1001.9,-0.7,93,-2,2500,11.112,,,70,,,,,,,,,,66,wg-a,,,,AAXX 08214 07240 02425 80706 11010 21020 39881 40019 58007 61000 76662 875// 92100 333 ////=
07240,1997-01-09 00:00:00,-1,1001.7,-0.2,100,-1,2500,14.816,,,90,,,,,,,,,,24,wg-a,,,,AAXX 09004 07240 02525 80908 11010 21010 39879 40017 56002 61000 72462 875// 90000 333 6100=
07240,1997-01-09 03:00:00,0,1001.2,-0.5,93,-1,2000,18.52,,,90,,,,,,,,,,10,wg-a,,,,AAXX 09034 07240 12720 80910 10000 21010 39874 40012 58005 60006 71022 875// 90300=
07240,1997-01-09 06:00:00,0,1001.5,0.3,93,-1,2000,7.408,,,90,-1.9,-0.1,,,,,,,,10,wg-a,,,,AAXX 09064 07240 02720 70904 10000 21010 39877 40015 53003 60006 71022 875// 90600 333 11001 21019 61000=
07240,1997-01-09 09:00:00,0,1002.9,1.4,93,-1,1800,11.112,,,100,,,,,,,,,,10,wg-a,,,,AAXX 09094 07240 12718 /1006 10000 21010 39891 40029 53014 60006 71022 83501 90900=
07240,1997-01-09 12:00:00,1,1004,1.2,100,1,2500,7.408,,,60,,,,,,,,,,10,wg-a,,,,AAXX 09124 07240 12625 70604 10010 20010 39903 40040 51012 60006 71022 8553/ 91200=
07240,1997-01-09 15:00:00,2,1004.9,0.9,93,1,3000,11.112,,,90,,,,,,,,,,10,wg-a,,,,AAXX 09154 07240 12530 70906 10020 20010 39912 40049 53009 60006 71022 875// 91500=
07240,1997-01-09 18:00:00,1,1007.6,2.6,100,1,1500,11.112,,,320,-0.5,2.3,,,,,,,,10,wg-a,,,,AAXX 09184 07240 02215 73206 10010 20010 39938 40076 53026 61000 71065 875// 91800 333 10023 21005 6003=
07240,1997-01-09 21:00:00,1,1009.5,1.9,93,0,1500,11.112,,,330,,,,3,,,,,,10,wg-a,,,,AAXX 09214 07240 12215 73306 10010 20000 39957 40095 53019 60037 71066 875// 92100=
07240,1997-01-10 00:00:00,1,1011.7,2.1,93,0,1200,11.112,,,300,,,,0,,,,,,21,wg-a,,,,AAXX 10004 07240 02112 83006 10010 20000 39978 40117 51021 60046 72162 887// 90000 333 60007=
07240,1997-01-10 03:00:00,1,1014,2.2,93,0,500,11.112,,,330,,,,,,,,,,44,wg-a,,,,AAXX 10034 07240 12105 83306 10010 20000 30001 40140 53022 60006 74442 887// 90300=
07240,1997-01-10 06:00:00,1,1015.7,1.6,93,0,1200,7.408,,,310,0.4,1.2,,,,,6,,,10,wg-a,,,,AAXX 10064 07240 02712 73104 10010 20000 30018 40157 53016 60006 71042 875// 90600 333 10012 20004 60064=
07240,1997-01-10 09:00:00,1,1018.1,2.4,93,0,300,7.408,,,10,,,,,,,,,,44,wg-a,,,,AAXX 10094 07240 12/03 90104 10010 20000 30042 40181 53024 60006 74442 89/// 90900=
07240,1997-01-10 12:00:00,1,1019.9,1.6,93,0,600,7.408,,,330,,,,,,,,,,45,wg-a,,,,AAXX 10124 07240 12/06 93304 10010 20000 30059 40199 51016 60006 74542 89/// 91200=
07240,1997-01-10 15:00:00,1,1021,1,100,1,4000,7.408,,,330,,,,,,,,,,10,wg-a,,,,AAXX 10154 07240 12240 83304 10010 20010 30070 40210 51010 60006 71042 887// 91500=
07240,1997-01-10 18:00:00,1,1022.1,1.1,93,0,500,3.704,,,170,0.5,1,,,,,,,,1,wg-a,,,,AAXX 10184 07240 12400 81702 10010 20000 30081 40221 53011 60006 70142 887// 91800 333 10010 20005=
07240,1997-01-10 21:00:00,1,1023.2,1.1,93,0,4800,7.408,,,170,,,,,,,,,,10,wg-a,,,,AAXX 10214 07240 12348 81704 10010 20000 30092 40232 51011 60006 71022 886// 92100=
07240,1997-01-11 00:00:00,0,1024.1,0.9,100,0,2500,3.704,,,150,,,,,,,,,,10,wg-a,,,,AAXX 11004 07240 12125 81502 10000 20000 30101 40241 53009 60006 71022 886// 90000=
07240,1997-01-11 03:00:00,0,1024,0,100,0,300,7.408,,,150,,,,,,,,,,45,wg-a,,,,AAXX 11034 07240 12/03 91504 10000 20000 30100 40240 50000 60006 74542 89/// 90300=
07240,1997-01-11 06:00:00,0,1024.8,0.7,100,0,300,7.408,,,160,0.2,1,,,,,,,,45,wg-a,,,,AAXX 11064 07240 02/03 91604 10000 20000 30107 40248 52007 60006 74542 89/// 90600 333 10010 20002 60004=
07240,1997-01-11 09:00:00,0,1026,1.1,100,0,100,11.112,,,170,,,,,,,,,,45,wg-a,,,,AAXX 11094 07240 12/01 91706 10000 20000 30119 40260 50011 60006 74544 89/// 90900=
07240,1997-01-11 12:00:00,1,1026.9,1,93,0,600,11.112,,,130,,,,,,,,,,43,wg-a,,,,AAXX 11124 07240 12/06 91306 10010 20000 30128 40269 51010 60006 74344 89/// 91200=
07240,1997-01-11 15:00:00,2,1026.8,-0,93,1,500,11.112,,,130,,,,,,,,,,1,wg-a,,,,AAXX 11154 07240 12200 71306 10020 20010 30128 40268 55000 60006 70142 8557/ 91500=
07240,1997-01-11 18:00:00,2,1027.4,0.5,93,1,3500,7.408,,,140,-0.1,1.8,,,,,,,,10,wg-a,,,,AAXX 11184 07240 12235 81404 10020 20010 30134 40274 50005 60006 71042 875// 91800 333 10018 21001=
07240,1997-01-11 21:00:00,1,1027.9,0.4,100,1,4000,11.112,,,110,,,,,,,,,,10,wg-a,,,,AAXX 11214 07240 12740 81106 10010 20010 30138 40279 53004 60006 71022 875// 92100=
07240,1997-01-12 00:00:00,0,1028,0,100,0,4000,11.112,,,110,,,,,,,,,,10,wg-a,,,,AAXX 12004 07240 12/40 31106 10000 20000 30139 40280 50000 60006 71011 80001 90000=
07240,1997-01-12 03:00:00,0,1028.2,0.3,100,0,3000,11.112,,,80,,,,,,,,,,10,wg-a,,,,AAXX 12034 07240 12/30 40806 10000 20000 30141 40282 50003 60006 71000 80001 90300=
07240,1997-01-12 06:00:00,-1,1028.4,0.2,93,-2,200,14.816,,,70,-1.3,1.6,,,,,,,,,wg-a,,,,AAXX 12064 07240 02/02 /0708 11010 21020 30142 40284 53002 60006 90600 333 10016 21013 60004=
07240,1997-01-12 09:00:00,-1,1029,0.6,93,-2,200,11.112,,,80,,,,,,,,,,45,wg-a,,,,AAXX 12094 07240 12/02 90806 11010 21020 30148 40290 51006 60006 74544 89/// 90900=
07240,1997-01-12 12:00:00,1,1028.5,-0.3,100,1,9000,11.112,,,90,,,,,,,,,,10,wg-a,,,,AAXX 12124 07240 12259 /0906 10010 20010 30144 40285 58003 60006 71042 81602 91200=
07240,1997-01-12 15:00:00,5,1027,-1.2,75,1,12000,11.112,,,90,,,,,,,,,,,wg-a,,,,AAXX 12154 07240 12/62 10906 10050 20010 30132 40270 56012 60006 80002 91500=
07240,1997-01-12 18:00:00,1,1027.3,-0,86,-1,8000,11.112,,,80,-1.6,5.3,,,,,,,,,wg-a,,,,AAXX 12184 07240 12/58 /0806 10010 21010 30132 40273 55000 60006 80002 91800 333 10053 21016=
07240,1997-01-12 21:00:00,0,1027.3,0,93,-1,7000,11.112,,,70,,,,,,,,,,,wg-a,,,,AAXX 12214 07240 12/57 /0706 10000 21010 30132 40273 50000 60006 80002 92100=
07240,1997-01-13 00:00:00,0,1026.9,-0.4,86,-2,7000,14.816,,,80,,,,,,,,,,,wg-a,,,,AAXX 13004 07240 12/57 10808 10000 21020 30128 40269 58004 60006 80002 90000=
07240,1997-01-13 03:00:00,-1,1025.9,-1,86,-3,500,14.816,,,90,,,,,,,,,,,wg-a,,,,AAXX 13034 07240 12/00 /0908 11010 21030 30118 40259 56010 60006 80002 90300=
07240,1997-01-13 06:00:00,-2,1025.3,-0.7,86,-4,6000,14.816,,,80,-2.2,0.6,,,,,,,,,wg-a,,,,AAXX 13064 07240 02/56 /0808 11020 21040 30111 40253 56007 60006 80001 90600 333 10006 21022 60004=
07240,1997-01-13 09:00:00,-1,1025.3,-0,80,-4,10000,18.52,,,90,,,,,,,,,,,wg-a,,,,AAXX 13094 07240 12/60 10910 11010 21040 30111 40253 54000 60006 80001 90900=
07240,1997-01-13 12:00:00,2,1024.7,-0.5,75,-2,9000,18.52,,,80,,,,,,,,,,,wg-a,,,,AAXX 13124 07240 12/59 00810 10020 21020 30107 40247 58005 60006 80000 91200=
07240,1997-01-13 15:00:00,4,1023.5,-1,65,-2,10000,14.816,,,80,,,,,,,,,,,wg-a,,,,AAXX 13154 07240 12/60 10808 10040 21020 30096 40235 56010 60006 80001 91500=
07240,1997-01-13 18:00:00,1,1023.5,-0.1,86,-1,7000,14.816,,,80,-2.3,4.1,,,,,,,,,wg-a,,,,AAXX 13184 07240 12/57 00808 10010 21010 30095 40235 56001 60006 80000 91800 333 10041 21023=
07240,1997-01-13 21:00:00,0,1023.6,-0,80,-3,8000,11.112,,,90,,,,,,,,,,,wg-a,,,,AAXX 13214 07240 12/58 00906 10000 21030 30095 40236 55000 60006 80000 92100=
07240,1997-01-14 00:00:00,-1,1022.7,-0.9,86,-3,7000,14.816,,,90,,,,,,,,,,,wg-a,,,,AAXX 14004 07240 12/57 00908 11010 21030 30086 40227 56009 60006 80000 90000=
07240,1997-01-14 03:00:00,-2,1022.6,-0.2,86,-4,7000,11.112,,,100,,,,,,,,,,,wg-a,,,,AAXX 14034 07240 12/57 01006 11020 21040 30084 40226 56002 60006 80000 90300=
07240,1997-01-14 06:00:00,-3,1022.3,-0.3,86,-5,7000,11.112,,,100,-3.2,1,,,,,,,,,wg-a,,,,AAXX 14064 07240 02/57 01006 11030 21050 30081 40223 56003 60006 80000 90600 333 10010 21032 60004=
07240,1997-01-14 09:00:00,-2,1022.7,0.4,86,-4,9000,7.408,,,80,,,,,,,,,,,wg-a,,,,AAXX 14094 07240 12/59 00804 11020 21040 30085 40227 53004 60006 80000 90900=
07240,1997-01-14 12:00:00,3,1022.4,-0.1,75,-1,10000,7.408,,,90,,,,,,,,,,,wg-a,,,,AAXX 14124 07240 12/60 /0904 10030 21010 30085 40224 58001 60006 91200=
07240,1997-01-14 15:00:00,7,1021.2,-0.9,66,1,10000,11.112,,,90,,,,,,,,,,,wg-a,,,,AAXX 14154 07240 32/60 00906 10070 20010 30075 40212 56009 80000 91500=
07240,1997-01-14 18:00:00,2,1021.9,0.5,75,-2,8000,14.816,,,100,-3.6,7.8,,,,,,,,,wg-a,,,,AAXX 14184 07240 12/58 01008 10020 21020 30080 40219 51005 60006 80000 91800 333 10078 21036=
07240,1997-01-15 00:00:00,-1,1023.1,0.8,93,-2,10000,7.408,,,110,,,,,,,,,,,wg-a,,,,AAXX 15004 07240 12/60 01104 11010 21020 30091 40231 50008 60006 80000 90000=
07240,1997-01-15 06:00:00,-2,1023.7,0.4,93,-3,12000,11.112,,,110,-2.2,2.5,,,,,,,,,wg-a,,,,AAXX 15064 07240 02/62 01106 11020 21030 30095 40237 53004 60006 80000 90600 333 10025 21022 60004=
07240,1997-01-15 09:00:00,-1,1024.5,0.9,93,-2,10000,11.112,,,100,,,,,,,,,,,wg-a,,,,AAXX 15094 07240 12/60 01006 11010 21020 30104 40245 52009 60006 80000 90900=
07240,1997-01-15 12:00:00,8,1023.4,-0.6,61,1,15000,7.408,,,140,,,,,,,,,,,wg-a,,,,AAXX 15124 07240 12/65 01404 10080 20010 30098 40234 58006 60006 80000 91200=
07240,1997-01-15 15:00:00,10,1022.3,-1.1,57,2,20000,7.408,,,80,,,,,,,,,,,wg-a,,,,AAXX 15154 07240 12/70 00804 10100 20020 30087 40223 56011 60006 80000 91500=
07240,1997-01-15 18:00:00,3,1022.3,-0.3,75,-1,15000,11.112,,,100,-2.4,11.2,,,,,,,,,wg-a,,,,AAXX 15184 07240 12/65 01006 10030 21010 30084 40223 58003 60006 80000 91800 333 10112 21024=
07240,1997-01-15 21:00:00,2,1022.2,-0.2,80,-1,15000,14.816,,,80,,,,,,,,,,,wg-a,,,,AAXX 15214 07240 12/65 00808 10020 21010 30082 40222 58002 60006 80000 92100=
07240,1997-01-16 00:00:00,1,1021.7,-0.4,86,-1,10000,14.816,,,90,,,,,,,,,,,wg-a,,,,AAXX 16004 07240 12/60 00908 10010 21010 30077 40217 57004 60006 80000 90000=
07240,1997-01-16 03:00:00,1,1021,-0.8,80,-2,8000,11.112,,,160,,,,,,,,,,,wg-a,,,,AAXX 16034 07240 12/58 01606 10010 21020 30070 40210 56008 60006 80000 90300=
07240,1997-01-16 06:00:00,0,1020,-1,86,-2,9000,11.112,,,120,-0.4,4.3,,,,,,,,,wg-a,,,,AAXX 16064 07240 02/59 01206 10000 21020 30060 40200 57010 60006 80000 90600 333 10043 21004 60004=
07240,1997-01-16 09:00:00,2,1020.5,0.6,75,-2,10000,14.816,,,130,,,,,,,,,,,wg-a,,,,AAXX 16094 07240 12/60 01308 10020 21020 30066 40205 53006 60006 80000 90900=
07240,1997-01-16 12:00:00,9,1019,-1.2,57,1,10000,11.112,,,150,,,,,,,,,,,wg-a,,,,AAXX 16124 07240 12/60 /1506 10090 20010 30054 40190 58012 60006 91200=
07240,1997-01-16 15:00:00,10,1017,-1.8,62,3,20000,11.112,,,140,,,,,,,,,,,wg-a,,,,AAXX 16154 07240 12/70 01406 10100 20030 30035 40170 56018 60006 80000 91500=
07240,1997-01-16 18:00:00,5,1016.7,-0.5,65,-1,20000,14.816,,,120,-0.6,10.9,,,,,,,,,wg-a,,,,AAXX 16184 07240 12/70 11208 10050 21010 30030 40167 55005 60006 81030 91800 333 10109 21006=
07240,1997-01-16 21:00:00,3,1016.3,-0.5,75,-1,15000,11.112,,,120,,,,,,,,,,,wg-a,,,,AAXX 16214 07240 12/65 01206 10030 21010 30025 40163 58005 60006 80000 92100=
07240,1997-01-17 00:00:00,4,1014.8,-1.3,81,1,15000,14.816,,,130,,,,,,,,,,,wg-a,,,,AAXX 17004 07240 12/65 01308 10040 20010 30011 40148 57013 60006 80000 90000=
07240,1997-01-17 03:00:00,3,1014.1,-0.8,81,0,10000,14.816,,,120,,,,,,,,,,,wg-a,,,,AAXX 17034 07240 12/60 01208 10030 20000 30003 40141 57008 60006 80000 90300=
07240,1997-01-17 06:00:00,3,1013.3,-0.7,87,1,10000,18.52,,,130,0.8,5.1,,,,,,,,,wg-a,,,,AAXX 17064 07240 02/60 51310 10030 20010 39996 40133 56007 60006 83032 90600 333 10051 20008 60004=
07240,1997-01-17 09:00:00,4,1014.2,1,81,1,12000,14.816,,,140,,,,,,,,,,,wg-a,,,,AAXX 17094 07240 12662 71408 10040 20010 30005 40142 51010 60006 8553/ 90900=
07240,1997-01-17 12:00:00,8,1014.1,0.1,87,6,15000,18.52,,,190,,,,,,,,,,21,wg-a,,,,AAXX 17124 07240 02565 71910 10080 20060 30006 40141 50001 61000 72162 8653/ 91200 333 6100=
07240,1997-01-17 15:00:00,9,1014.7,0.6,87,7,12000,18.52,,,210,,,,1,,,,,,60,wg-a,,,,AAXX 17154 07240 12362 72110 10090 20070 30012 40147 53006 60017 76062 877// 91500=
07240,1997-01-17 18:00:00,6,1017,2.1,93,5,500,7.408,,,280,3.1,9.1,,0,,,,,,1,wg-a,,,,AAXX 17184 07240 02400 72804 10060 20050 30034 40170 53021 60006 70162 877// 91800 333 10091 20031 60007=
07240,1997-01-17 21:00:00,6,1018.8,1.7,93,5,200,7.408,,,210,,,,,,,,,,10,wg-a,,,,AAXX 17214 07240 12702 22104 10060 20050 30051 40188 52017 60006 71011 82500 92100=
07240,1997-01-18 00:00:00,4,1019.7,0.8,100,4,500,11.112,,,150,,,,,,,,,,45,wg-a,,,,AAXX 18004 07240 12/00 91506 10040 20040 30059 40197 50008 60006 74541 89/// 90000=
07240,1997-01-18 03:00:00,4,1019.9,0.1,93,3,500,7.408,,,170,,,,,,,,,,45,wg-a,,,,AAXX 18034 07240 12/00 91704 10040 20030 30061 40199 52001 60006 74544 89/// 90300=
07240,1997-01-18 06:00:00,3,1019.3,-0.6,100,3,500,7.408,,,150,3.3,6.6,,,,,1,,,45,wg-a,,,,AAXX 18064 07240 02/00 91504 10030 20030 30055 40193 56006 60006 74544 89/// 90600 333 10066 20033 60014=
07240,1997-01-18 09:00:00,4,1019.8,0.5,93,3,100,7.408,,,140,,,,,,,,,,45,wg-a,,,,AAXX 18094 07240 12/01 91404 10040 20030 30060 40198 50005 60006 74544 89/// 90900=
07240,1997-01-18 12:00:00,5,1016.7,-3,100,5,200,18.52,,,130,,,,,,,,,,,wg-a,,,,AAXX 18124 07240 12/02 /1310 10050 20050 30030 40167 58030 60006 91200=
07240,1997-01-18 15:00:00,6,1013.6,-3,100,6,15000,14.816,,,120,,,,,,,,,,1,wg-a,,,,AAXX 18154 07240 12465 71208 10060 20060 30000 40136 56030 60006 70142 875// 91500=
07240,1997-01-18 18:00:00,5,1011,-2.6,93,4,7000,18.52,,,110,3.3,6.4,,,,,,,,1,wg-a,,,,AAXX 18184 07240 12757 81110 10050 20040 39974 40110 56026 60006 70142 885// 91800 333 10064 20033=
07240,1997-01-18 21:00:00,5,1009.9,-1.1,93,4,6000,14.816,,,130,,,,1,,,,,,61,wg-a,,,,AAXX 18214 07240 12656 81308 10050 20040 39963 40099 58011 60017 76162 8152/ 92100=
07240,1997-01-19 00:00:00,6,1008.9,-0.8,100,6,10000,14.816,,,190,,,,0,,,,,,1,wg-a,,,,AAXX 19004 07240 02760 31908 10060 20060 39954 40089 55008 60016 70161 83500 90000 333 60007=
07240,1997-01-19 03:00:00,6,1008.6,-0.3,87,4,10000,14.816,,,180,,,,,,,,,,,wg-a,,,,AAXX 19034 07240 12/60 11808 10060 20040 39951 40086 56003 60006 81030 90300=
07240,1997-01-19 06:00:00,6,1008.4,-0.2,93,5,10000,18.52,,,180,4.7,7.4,,,,,1,,,,wg-a,,,,AAXX 19064 07240 02660 /1810 10060 20050 39949 40084 58002 60006 85500 90600 333 10074 20047 60014=
07240,1997-01-19 09:00:00,6,1009.7,1.2,93,5,10000,14.816,,,140,,,,2,,,,,,21,wg-a,,,,AAXX 19094 07240 12460 71408 10060 20050 39961 40097 51012 60027 72162 8253/ 90900=
07240,1997-01-19 12:00:00,7,1010.5,0.9,93,6,20000,14.816,,,170,,,,,,,,,,2,wg-a,,,,AAXX 19124 07240 12670 61708 10070 20060 39970 40105 50009 60026 70262 85870 91200=
07240,1997-01-19 15:00:00,10,1010.1,-0.2,82,7,500,11.112,,,190,,,,,,,,,,,wg-a,,,,AAXX 19154 07240 12600 41906 10100 20070 39968 40101 56002 60006 82382 91500=
07240,1997-01-19 18:00:00,7,1011.8,1.6,87,5,11000,11.112,,,170,5.5,10.5,,,,,,,,,wg-a,,,,AAXX 19184 07240 12/61 /1706 10070 20050 39983 40118 51016 60006 91800 333 10105 20055=
07240,1997-01-19 21:00:00,3,1013.4,1.4,100,3,10000,11.112,,,140,,,,,,,,,,,wg-a,,,,AAXX 19214 07240 12/60 31406 10030 20030 39997 40134 51014 60006 81032 92100=
07240,1997-01-20 00:00:00,2,1014.7,1.2,93,1,4000,7.408,,,70,,,,,,,,,,10,wg-a,,,,AAXX 20004 07240 12/40 60704 10020 20010 30009 40147 51012 60006 71011 81032 90000=
07240,1997-01-20 03:00:00,2,1014.8,0.1,93,1,4000,7.408,,,50,,,,,,,,,,10,wg-a,,,,AAXX 20034 07240 12/40 70504 10020 20010 30010 40148 51001 60006 71022 81032 90300=
07240,1997-01-20 06:00:00,1,1015.2,0.4,93,0,7000,7.408,,,60,0.6,7,,,,,3,,,,wg-a,,,,AAXX 20064 07240 02/57 /0604 10010 20000 30013 40152 51004 60006 80001 90600 333 10070 20006 60034=
07240,1997-01-20 09:00:00,1,1017.7,2.5,100,1,800,14.816,,,60,,,,,,,,,,42,wg-a,,,,AAXX 20094 07240 12108 90608 10010 20010 30038 40177 53025 60006 74242 896// 90900=
07240,1997-01-20 12:00:00,6,1019.6,2,93,5,12000,22.224,,,50,,,,,,,,,,1,wg-a,,,,AAXX 20124 07240 12662 /0512 10060 20050 30059 40196 50020 60006 70142 82502 91200=
07240,1997-01-20 15:00:00,6,1019.8,0.1,87,4,12000,29.632,,,50,,,,,,,,,,,wg-a,,,,AAXX 20154 07240 12362 70516 10060 20040 30061 40198 53001 60006 876// 91500=
07240,1997-01-20 18:00:00,5,1021.4,1.6,93,4,12000,25.928,,,60,0.3,7.1,,,,,,,,,wg-a,,,,AAXX 20184 07240 12362 70614 10050 20040 30077 40214 53016 60006 876// 91800 333 10071 20003=
07240,1997-01-20 21:00:00,4,1022.4,0.9,93,3,10000,29.632,,,50,,,,,,,,,,,wg-a,,,,AAXX 20214 07240 12460 70516 10040 20030 30086 40224 53009 60006 875// 92100=
07240,1997-01-21 00:00:00,3,1022.6,0.1,93,2,10000,25.928,,,60,,,,,,,,,,,wg-a,,,,AAXX 21004 07240 12260 70614 10030 20020 30087 40226 50001 60006 876// 90000=
07240,1997-01-21 03:00:00,3,1021.7,-0.9,93,2,10000,31.484,,,50,,,,,,,,,,,wg-a,,,,AAXX 21034 07240 12260 70517 10030 20020 30078 40217 58009 60006 876// 90300=
07240,1997-01-21 06:00:00,3,1020.9,-0.9,93,2,12000,29.632,,,60,2.8,5.3,,,,,,,,,wg-a,,,,AAXX 21064 07240 02262 70616 10030 20020 30070 40209 56009 60006 876// 90600 333 10053 20028 60004=
07240,1997-01-21 09:00:00,3,1020,-0.8,93,2,8000,29.632,,,70,,,,,,,,,,,wg-a,,,,AAXX 21094 07240 12358 70716 10030 20020 30062 40200 56008 60006 876// 90900=
07240,1997-01-21 12:00:00,5,1018.3,-1.6,87,3,8000,29.632,,,70,,,,,,,,,,,wg-a,,,,AAXX 21124 07240 12358 70716 10050 20030 30046 40183 57016 60006 876// 91200=
07240,1997-01-21 15:00:00,6,1016,-2.2,87,4,7000,18.52,,,70,,,,0,,,,,,60,wg-a,,,,AAXX 21154 07240 12457 70710 10060 20040 30024 40160 56022 60007 76062 8557/ 91500=
07240,1997-01-21 18:00:00,6,1015.3,-0.7,93,5,10000,18.52,,,80,2.9,6.4,,,,,,,,3,wg-a,,,,AAXX 21184 07240 02660 70810 10060 20050 30017 40153 56007 60006 70362 8557/ 91800 333 10064 20029 61000=
07240,1997-01-21 21:00:00,7,1014.6,-0.7,87,5,15000,18.52,,,100,,,,,,,,,,3,wg-a,,,,AAXX 21214 07240 02765 71010 10070 20050 30010 40146 56007 61000 70362 8353/ 92100 333 ////=
07240,1997-01-22 00:00:00,7,1014.9,0.3,93,6,12000,11.112,,,150,,,,,,,,,,1,wg-a,,,,AAXX 22004 07240 02662 81506 10070 20060 30013 40149 53003 61000 70162 875// 90000 333 6100=
07240,1997-01-22 03:00:00,7,1015.3,0.4,87,5,12000,11.112,,,150,,,,,,,,,,61,wg-a,,,,AAXX 22034 07240 02562 81506 10070 20050 30017 40153 53004 61000 76162 875// 90300 333 ////=
07240,1997-01-22 06:00:00,8,1015.5,0.3,93,7,12000,18.52,,,160,5.8,7.7,,,,,2,,,1,wg-a,,,,AAXX 22064 07240 02762 71610 10080 20070 30020 40155 53003 60006 70162 8551/ 90600 333 10077 20058 60024=
07240,1997-01-22 09:00:00,8,1016.6,1.1,93,7,14000,14.816,,,200,,,,0,,,,,,,wg-a,,,,AAXX 22094 07240 12564 42008 10080 20070 30031 40166 52011 60007 82242 90900=
07240,1997-01-22 12:00:00,11,1017.3,0.8,82,8,20000,14.816,,,170,,,,,,,,,,,wg-a,,,,AAXX 22124 07240 12670 61708 10110 20080 30039 40173 51008 60006 83531 91200=
07240,1997-01-22 15:00:00,13,1017,-0.2,67,7,500,18.52,,,190,,,,,,,,,,,wg-a,,,,AAXX 22154 07240 12500 51910 10130 20070 30037 40170 56002 60006 83832 91500=
07240,1997-01-22 18:00:00,10,1017.8,0.6,76,6,25000,7.408,,,210,7.2,13.6,,,,,,,,,wg-a,,,,AAXX 22184 07240 12/75 22104 10100 20060 30043 40178 53006 60006 80002 91800 333 10136 20072=
07240,1997-01-22 21:00:00,10,1017.8,0.6,76,6,25000,7.408,,,210,7.2,13.6,,,,,,,,,wg-a,,,,AAXX 22214 07240 32/75 22104 10100 20060 30043 40178 53006 80002 92100 333 10136 20072=
07240,1997-01-23 00:00:00,4,1020.1,0.6,93,3,1500,0,,,0,,,,,,,,,,10,wg-a,,,,AAXX 23004 07240 12615 30000 10040 20030 30063 40201 51006 60006 71000 83501 90000=
07240,1997-01-23 03:00:00,2,1020.6,0.3,93,1,600,0,,,0,,,,,,,,,,44,wg-a,,,,AAXX 23034 07240 12706 70000 10020 20010 30067 40206 50003 60006 74441 875// 90300=
07240,1997-01-23 06:00:00,2,1020.7,0.1,100,2,12000,3.704,,,110,1,9.8,,,,,,,,2,wg-a,,,,AAXX 23064 07240 02762 71102 10020 20020 30068 40207 53001 60006 70241 875// 90600 333 10098 20010 60004=
07240,1997-01-23 09:00:00,4,1021.4,0.8,100,4,3500,11.112,,,80,,,,0,,,,,,10,wg-a,,,,AAXX 23094 07240 12735 80806 10040 20040 30076 40214 51008 60007 71042 8452/ 90900=
07240,1997-01-23 12:00:00,7,1021,-0.3,100,7,4000,7.408,,,70,,,,0,,,,,,10,wg-a,,,,AAXX 23124 07240 02640 80704 10070 20070 30073 40210 58003 60016 71064 8557/ 91200 333 60007=
07240,1997-01-23 18:00:00,7,1021.1,0.8,100,7,600,11.112,,,80,1.1,8.4,,,,,,,,42,wg-a,,,,AAXX 23184 07240 02706 70806 10070 20070 30075 40211 51008 60006 74264 875// 91800 333 10084 20011 61000=
07240,1997-01-23 21:00:00,7,1022.4,1.2,100,7,2000,11.112,,,100,,,,0,,,,,,60,wg-a,,,,AAXX 23214 07240 12020 81006 10070 20070 30087 40224 51012 60007 76064 885// 92100=
07240,1997-01-24 00:00:00,8,1022.7,0.4,93,7,6000,7.408,,,120,,,,0,,,,,,21,wg-a,,,,AAXX 24004 07240 02756 71204 10080 20070 30091 40227 50004 60016 72164 875// 90000 333 60007=
07240,1997-01-24 03:00:00,8,1022.7,-0,100,8,8000,11.112,,,130,,,,,,,,,,,wg-a,,,,AAXX 24034 07240 12758 71306 10080 20080 30091 40227 54000 60006 875// 90300=
07240,1997-01-24 06:00:00,8,1023.3,0.6,93,7,8000,11.112,,,130,7,11.7,,,,,2,,,,wg-a,,,,AAXX 24064 07240 02658 71306 10080 20070 30097 40233 53006 60006 875// 90600 333 10117 20070 60024=
07240,1997-01-24 09:00:00,8,1025.3,2,93,7,15000,3.704,,,140,,,,0,,,,,,60,wg-a,,,,AAXX 24094 07240 12665 81402 10080 20070 30117 40253 51020 60007 76062 8457/ 90900=
07240,1997-01-24 12:00:00,10,1026.1,0.8,93,9,6000,7.408,,,110,,,,0,,,,,,60,wg-a,,,,AAXX 24124 07240 02656 81104 10100 20090 30125 40261 50008 60016 76062 8257/ 91200 333 60007=
07240,1997-01-24 15:00:00,10,1026.1,0.1,100,10,3000,7.408,,,110,,,,1,,,,,,10,wg-a,,,,AAXX 24154 07240 12630 81104 10100 20100 30126 40261 53001 60017 71066 8357/ 91500=
07240,1997-01-24 18:00:00,9,1027.3,1.1,93,8,3000,3.704,,,110,7.9,10.5,,,,,,,,10,wg-a,,,,AAXX 24184 07240 02730 81102 10090 20080 30137 40273 53011 61000 71066 8357/ 91800 333 10105 20079 6001=
07240,1997-01-25 00:00:00,8,1028.7,0.2,100,8,6000,11.112,,,70,,,,,,,,,,3,wg-a,,,,AAXX 25004 07240 02756 70706 10080 20080 30150 40287 52002 61000 70362 875// 90000 333 ////=
07240,1997-01-25 03:00:00,8,1028.3,-0.4,100,8,6000,14.816,,,80,,,,,,,,,,,wg-a,,,,AAXX 25034 07240 12656 70808 10080 20080 30146 40283 56004 60006 875// 90300=
07240,1997-01-25 06:00:00,7,1028.7,0.2,93,6,6000,11.112,,,80,7,9.1,,,,,3,,,,wg-a,,,,AAXX 25064 07240 02756 70806 10070 20060 30149 40287 53002 60006 875// 90600 333 10091 20070 60034=
07240,1997-01-25 09:00:00,7,1029.3,0.7,100,7,1300,11.112,,,50,,,,,,,,,,10,wg-a,,,,AAXX 25094 07240 12113 70506 10070 20070 30155 40293 53007 60006 71022 875// 90900=
07240,1997-01-25 12:00:00,7,1028.9,-0.3,100,7,1300,11.112,,,60,,,,,,,,,,45,wg-a,,,,AAXX 25124 07240 12113 90606 10070 20070 30152 40289 58003 60006 74542 896// 91200=
07240,1997-01-25 15:00:00,8,1028.1,-0.8,93,7,2500,18.52,,,70,,,,,,,,,,10,wg-a,,,,AAXX 25154 07240 12125 70710 10080 20070 30144 40281 55008 60006 71011 87600 91500=
07240,1997-01-25 18:00:00,6,1028.9,0.6,93,5,1000,18.52,,,50,5.6,9.5,,,,,,,,10,wg-a,,,,AAXX 25184 07240 12010 80510 10060 20050 30151 40289 51006 60006 71041 886// 91800 333 10095 20056=
07240,1997-01-25 21:00:00,5,1029.2,0.2,93,4,900,25.928,,,60,,,,,,,,,,45,wg-a,,,,AAXX 25214 07240 12/09 90614 10050 20040 30153 40292 51002 60006 74542 89/// 92100=
07240,1997-01-26 00:00:00,5,1029,-0.3,100,5,1000,14.816,,,70,,,,,,,,,,10,wg-a,,,,AAXX 26004 07240 12110 80708 10050 20050 30151 40290 58003 60006 71042 886// 90000=
07240,1997-01-26 03:00:00,5,1028.1,-0.8,100,5,600,14.816,,,80,,,,,,,,,,,wg-a,,,,AAXX 26034 07240 12/06 /0808 10050 20050 30143 40281 58008 60006 90300=
07240,1997-01-26 06:00:00,5,1027.4,-0.7,100,5,600,18.52,,,70,4.6,5.6,,,,,,,,,wg-a,,,,AAXX 26064 07240 02/06 /0710 10050 20050 30136 40274 56007 60006 90600 333 10056 20046 60004=
07240,1997-01-26 09:00:00,4,1028.4,0.8,100,4,700,11.112,,,70,,,,,,,,,,44,wg-a,,,,AAXX 26094 07240 12107 80706 10040 20040 30145 40284 53008 60006 74444 886// 90900=
07240,1997-01-26 12:00:00,5,1028.4,0.1,93,4,7000,14.816,,,90,,,,0,,,,,,1,wg-a,,,,AAXX 26124 07240 02357 70908 10050 20040 30146 40284 50001 60006 70142 876// 91200 333 60007=
07240,1997-01-26 15:00:00,2,1028.3,-0.3,93,1,2000,14.816,,,40,,,,,,,,,,,wg-a,,,,AAXX 26154 07240 12/20 /0408 10020 20010 30143 40283 56003 60006 91500=
07240,1997-01-26 18:00:00,2,1029,0.7,93,1,4000,18.52,,,80,1.3,5.6,,,,,,,,10,wg-a,,,,AAXX 26184 07240 12240 80810 10020 20010 30150 40290 53007 60006 71022 886// 91800 333 10056 20013=
07240,1997-01-26 21:00:00,2,1029.6,0.6,93,1,7000,14.816,,,90,,,,,,,,,,,wg-a,,,,AAXX 26214 07240 12357 80908 10020 20010 30156 40296 53006 60006 886// 92100=
07240,1997-01-27 00:00:00,2,1029.6,0.1,93,1,7000,11.112,,,60,,,,,,,,,,,wg-a,,,,AAXX 27004 07240 12357 80606 10020 20010 30156 40296 51001 60006 886// 90000=
07240,1997-01-27 03:00:00,1,1030.1,0.4,93,0,3000,14.816,,,40,,,,,,,,,,10,wg-a,,,,AAXX 27034 07240 12230 80408 10010 20000 30160 40301 50004 60006 71022 886// 90300=
07240,1997-01-27 06:00:00,2,1030.7,0.6,93,1,6000,7.408,,,30,1.3,2.2,,,,,,,,,wg-a,,,,AAXX 27064 07240 02256 80304 10020 20010 30166 40307 53006 60006 885// 90600 333 10022 20013 60004=
07240,1997-01-27 09:00:00,2,1032.4,1.7,87,0,8000,11.112,,,30,,,,,,,,,,,wg-a,,,,AAXX 27094 07240 12458 80306 10020 20000 30183 40324 53017 60006 885// 90900=
07240,1997-01-27 12:00:00,3,1033.4,0.9,81,0,10000,14.816,,,20,,,,,,,,,,,wg-a,,,,AAXX 27124 07240 12460 80208 10030 20000 30193 40334 51009 60006 885// 91200=
07240,1997-01-27 15:00:00,2,1033.8,0.5,87,0,18000,11.112,,,40,,,,,,,,,,,wg-a,,,,AAXX 27154 07240 12468 80406 10020 20000 30197 40338 53005 60006 885// 91500=
07240,1997-01-27 18:00:00,1,1035.5,1.6,86,-1,10000,14.816,,,30,1.2,2.7,,,,,,,,,wg-a,,,,AAXX 27184 07240 12460 80308 10010 21010 30213 40355 53016 60006 885// 91800 333 10027 20012=
07240,1997-01-27 21:00:00,1,1036.7,1.2,80,-2,10000,7.408,,,50,,,,,,,,,,,wg-a,,,,AAXX 27214 07240 12460 80504 10010 21020 30225 40367 51012 60006 885// 92100=
07240,1997-01-28 00:00:00,1,1036.9,0.2,86,-1,8000,3.704,,,50,,,,,,,,,,,wg-a,,,,AAXX 28004 07240 12458 80502 10010 21010 30227 40369 53002 60006 885// 90000=
07240,1997-01-28 03:00:00,1,1036.2,-0.7,93,0,3000,3.704,,,330,,,,,,,,,,,wg-a,,,,AAXX 28034 07240 12330 83302 10010 20000 30220 40362 58007 60006 886// 90300=
07240,1997-01-28 06:00:00,2,1035.6,-0.5,93,1,2000,7.408,,,340,0.5,1.5,,,,,,,,10,wg-a,,,,AAXX 28064 07240 02020 83404 10020 20010 30215 40356 58005 60006 71022 875// 90600 333 10015 20005 60004=
07240,1997-01-28 09:00:00,2,1036.5,1,80,-1,15000,18.52,,,60,,,,,,,,,,1,wg-a,,,,AAXX 28094 07240 12365 /0610 10020 21010 30224 40365 53010 60006 70141 86600 90900=
07240,1997-01-28 12:00:00,2,1036.5,0.1,75,-2,15000,29.632,,,70,,,,,,,,,,3,wg-a,,,,AAXX 28124 07240 12565 /0716 10020 21020 30224 40365 50001 60006 70341 86500 91200=
07240,1997-01-28 15:00:00,4,1035.8,-0.6,70,-1,15000,22.224,,,60,,,,,,,,,,,wg-a,,,,AAXX 28154 07240 12565 30612 10040 21010 30218 40358 56006 60006 83800 91500=
07240,1997-01-28 18:00:00,2,1036.5,0.6,80,-1,10000,22.224,,,60,1.4,3.6,,,,,,,,,wg-a,,,,AAXX 28184 07240 12/60 00612 10020 21010 30224 40365 53006 60006 80000 91800 333 10036 20014=
07240,1997-01-28 21:00:00,1,1037.3,0.7,86,-1,8000,22.224,,,70,,,,,,,,,,,wg-a,,,,AAXX 28214 07240 12458 /0712 10010 21010 30231 40373 51007 60006 82500 92100=
07240,1997-01-29 00:00:00,0,1037.2,-0.1,86,-2,8000,22.224,,,70,,,,,,,,,,,wg-a,,,,AAXX 29004 07240 12/58 00712 10000 21020 30230 40372 55001 60006 80000 90000=
07240,1997-01-29 03:00:00,0,1037.2,-0.1,86,-2,8000,18.52,,,70,,,,,,,,,,,wg-a,,,,AAXX 29034 07240 12/58 00710 10000 21020 30229 40372 58001 60006 80000 90300=
07240,1997-01-29 06:00:00,-1,1036.7,-0.3,93,-2,6000,18.52,,,70,-0.9,1.9,,,,,,,,,wg-a,,,,AAXX 29064 07240 02/56 00710 11010 21020 30224 40367 58003 60006 80000 90600 333 10019 21009 60004=
07240,1997-01-29 09:00:00,-1,1037.4,0.6,93,-2,4000,25.928,,,70,,,,,,,,,,10,wg-a,,,,AAXX 29094 07240 12240 /0714 11010 21020 30231 40374 51006 60006 71000 81600 90900=
07240,1997-01-29 12:00:00,0,1036.6,-0.7,93,-1,4500,25.928,,,70,,,,,,,,,,10,wg-a,,,,AAXX 29124 07240 12245 80714 10000 21010 30224 40366 58007 60006 71011 886// 91200=
07240,1997-01-29 15:00:00,1,1035.6,-1,86,-1,500,22.224,,,70,,,,,,,,,,,wg-a,,,,AAXX 29154 07240 12300 /0712 10010 21010 30214 40356 56010 60006 876// 91500=
07240,1997-01-29 18:00:00,0,1036.3,0.6,93,-1,4500,25.928,,,80,-1.1,0.7,,,,,,,,10,wg-a,,,,AAXX 29184 07240 12345 80814 10000 21010 30221 40363 53006 60006 71022 886// 91800 333 10007 21011=
07240,1997-01-29 21:00:00,0,1036.1,-0.3,93,-1,4000,18.52,,,70,,,,,,,,,,10,wg-a,,,,AAXX 29214 07240 12740 70710 10000 21010 30219 40361 58003 60006 71022 875// 92100=
07240,1997-01-30 00:00:00,-1,1035.2,-0.9,93,-2,4000,18.52,,,70,,,,,,,,,,10,wg-a,,,,AAXX 30004 07240 12740 70710 11010 21020 30209 40352 58009 60006 71022 875// 90000=
07240,1997-01-30 03:00:00,-1,1034.7,-0.5,93,-2,4000,18.52,,,70,,,,,,,,,,,wg-a,,,,AAXX 30034 07240 12/40 /0710 11010 21020 30204 40347 56005 60006 90300=
07240,1997-01-30 06:00:00,-2,1034.5,-0.1,93,-3,4000,14.816,,,80,-1.7,0.4,,,,,,,,10,wg-a,,,,AAXX 30064 07240 02740 30808 11020 21030 30202 40345 57001 60006 71011 83500 90600 333 10004 21017 60004=
07240,1997-01-30 09:00:00,-2,1035.5,1,93,-3,800,18.52,,,90,,,,,,,,,,10,wg-a,,,,AAXX 30094 07240 12/08 90910 11020 21030 30212 40355 53010 60006 71011 89/// 90900=
07240,1997-01-30 12:00:00,-1,1035.8,0.2,93,-2,2000,18.52,,,90,,,,,,,,,,10,wg-a,,,,AAXX 30124 07240 12120 70910 11010 21020 30215 40358 50002 60006 71041 876// 91200=
07240,1997-01-30 18:00:00,-1,1034.3,0,93,-2,2500,18.52,,,90,-2.1,-0.7,,,,,,,,10,wg-a,,,,AAXX 30184 07240 12225 80910 11010 21020 30200 40343 50000 60006 71022 886// 91800 333 11007 21021=
07240,1997-01-31 00:00:00,-2,1033.8,-0.4,100,-2,2500,22.224,,,80,,,,,,,,,,10,wg-a,,,,AAXX 31004 07240 12225 80812 11020 21020 30195 40338 58004 60006 71022 886// 90000=
07240,1997-01-31 03:00:00,-2,1033.2,-0.6,93,-3,2500,22.224,,,80,,,,,,,,,,10,wg-a,,,,AAXX 31034 07240 12125 80812 11020 21030 30189 40332 57006 60006 71022 886// 90300=
07240,1997-01-31 09:00:00,-1,1033,0.3,93,-2,2700,18.52,,,80,,,,,,,,,,10,wg-a,,,,AAXX 31094 07240 12227 80810 11010 21020 30187 40330 53003 60006 71022 886// 90900=
07240,1997-01-31 12:00:00,-1,1032.2,-0.7,93,-2,3300,18.52,,,100,,,,,,,,,,10,wg-a,,,,AAXX 31124 07240 12233 81010 11010 21020 30180 40322 58007 60006 71022 886// 91200=
07240,1997-01-31 15:00:00,0,1031.6,-0.8,86,-2,3200,14.816,,,60,,,,,,,,,,10,wg-a,,,,AAXX 31154 07240 12332 80608 10000 21020 30174 40316 56008 60006 71022 886// 91500=
07240,1997-01-31 18:00:00,-1,1031.4,-0.2,86,-3,2500,25.928,,,80,-1.7,0.2,,,,,,,,10,wg-a,,,,AAXX 31184 07240 12225 80814 11010 21030 30172 40314 55002 60006 71022 886// 91800 333 10002 21017=
07240,1997-01-31 21:00:00,-2,1031.5,0,93,-3,2000,18.52,,,80,,,,,,,,,,10,wg-a,,,,AAXX 31214 07240 12220 80810 11020 21030 30172 40315 50000 60006 71022 886// 92100=
07240,1997-02-01 00:00:00,-2,1031.3,-0.2,93,-3,2000,18.52,,,100,,,,,,,,,,10,wg-a,,,,AAXX 01004 07240 12220 81010 11020 21030 30170 40313 58002 60006 71022 886// 90000=
07240,1997-02-01 03:00:00,-2,1030.7,-0.5,93,-3,1800,18.52,,,80,,,,,,,,,,10,wg-a,,,,AAXX 01034 07240 12118 80810 11020 21030 30164 40307 56005 60006 71022 886// 90300=
07240,1997-02-01 06:00:00,-2,1030.4,-0.3,93,-3,1300,14.816,,,80,-2.4,-1.1,,,,,,,,10,wg-a,,,,AAXX 01064 07240 02113 80808 11020 21030 30161 40304 57003 60006 71022 886// 90600 333 11011 21024 60004=
07240,1997-02-01 09:00:00,-2,1030.4,-0,93,-3,1100,14.816,,,110,,,,,,,,,,10,wg-a,,,,AAXX 01094 07240 12111 81108 11020 21030 30161 40304 55000 60006 71022 886// 90900=
07240,1997-02-01 12:00:00,-1,1030.2,-0.1,93,-2,3000,7.408,,,80,,,,,,,,,,10,wg-a,,,,AAXX 01124 07240 12230 80804 11010 21020 30160 40302 58001 60006 71022 886// 91200=
07240,1997-02-01 15:00:00,1,1029.5,-0.6,80,-2,4000,3.704,,,180,,,,,,,,,,10,wg-a,,,,AAXX 01154 07240 12340 81802 10010 21020 30154 40295 55006 60006 71022 886// 91500=
07240,1997-02-01 18:00:00,0,1029.5,-0,93,-1,3000,3.704,,,70,-2.4,0.9,,,,,,,,10,wg-a,,,,AAXX 01184 07240 12/30 80702 10000 21010 30154 40295 55000 60006 71022 8807/ 91800 333 10009 21024=
07240,1997-02-01 21:00:00,0,1029.5,-0.1,86,-2,3000,3.704,,,20,,,,,,,,,,10,wg-a,,,,AAXX 01214 07240 12730 80202 10000 21020 30153 40295 57001 60006 71022 8/57/ 92100=
07240,1997-02-02 06:00:00,0,1027.3,-0.5,93,-1,3000,3.704,,,50,-0.5,0.4,,,,,,,,60,wg-a,,,,AAXX 02064 07240 02330 80502 10000 21010 30132 40273 58005 61000 76062 8657/ 90600 333 10004 21005 6000=
07240,1997-02-02 09:00:00,0,1027.6,0.3,100,0,500,3.704,,,140,,,,,,,,,,44,wg-a,,,,AAXX 02094 07240 02005 81402 10000 20000 30135 40276 51003 61000 74464 885// 90900 333 ////=
07240,1997-02-02 12:00:00,2,1028.1,0.5,93,1,1000,7.408,,,340,,,,,,,,,,10,wg-a,,,,AAXX 02124 07240 02110 83404 10020 20010 30141 40281 50005 61000 71064 877// 91200 333 ////=
07240,1997-02-02 15:00:00,3,1027.4,-0.6,93,2,2000,3.704,,,90,,,,,,,,,,10,wg-a,,,,AAXX 02154 07240 12120 80902 10030 20020 30135 40274 55006 60006 71022 875// 91500=
07240,1997-02-02 18:00:00,3,1028.2,0.7,87,1,2500,3.704,,,30,-0.1,3.4,,,,,,,,,wg-a,,,,AAXX 02184 07240 12/25 /0302 10030 20010 30142 40282 53007 60006 91800 333 10034 21001=
07240,1997-02-02 21:00:00,1,1029.6,1.3,93,0,3000,0,,,0,,,,,,,,,,10,wg-a,,,,AAXX 02214 07240 12/30 20000 10010 20000 30155 40296 53013 60006 71011 8203/ 92100=
07240,1997-02-03 00:00:00,-1,1029.3,-0.4,100,-1,1200,3.704,,,40,,,,,,,,,,10,wg-a,,,,AAXX 03004 07240 12/12 00402 11010 21010 30151 40293 58004 60006 71011 80000 90000=
07240,1997-02-03 03:00:00,-1,1029.4,0.2,93,-2,100,7.408,,,340,,,,,,,,,,45,wg-a,,,,AAXX 03034 07240 12/01 93404 11010 21020 30152 40294 53002 60006 74541 89/// 90300=
07240,1997-02-03 06:00:00,0,1029.6,0.2,93,-1,100,0,,,0,-2.6,2.6,,,,,,,,45,wg-a,,,,AAXX 03064 07240 02/01 90000 10000 21010 30155 40296 53002 60006 74541 89/// 90600 333 10026 21026 61000=
07240,1997-02-03 09:00:00,0,1030.7,1.1,100,0,500,3.704,,,290,,,,,,,,,,43,wg-a,,,,AAXX 03094 07240 32/00 92902 10000 20000 30166 40307 53011 74344 89/// 90900=
07240,1997-02-03 12:00:00,3,1030.4,-0.3,93,2,400,3.704,,,280,,,,,,,,,,,wg-a,,,,AAXX 03124 07240 12/04 /2802 10030 20020 30164 40304 58003 60006 91200=
07240,1997-02-03 15:00:00,4,1029.9,-0.4,100,4,1500,3.704,,,330,,,,0,,,,,,10,wg-a,,,,AAXX 03154 07240 12115 73302 10040 20040 30160 40299 55004 60007 71042 876// 91500=
07240,1997-02-03 18:00:00,4,1029.7,-0.2,93,3,4500,3.704,,,130,-0.4,4,,,,,,,,10,wg-a,,,,AAXX 03184 07240 12245 81302 10040 20030 30158 40297 56002 60006 71042 875// 91800 333 10040 21004=
07240,1997-02-03 21:00:00,4,1029.7,0,93,3,6000,7.408,,,160,,,,,,,,,,,wg-a,,,,AAXX 03214 07240 12256 81604 10040 20030 30158 40297 50000 60006 875// 92100=
07240,1997-02-04 00:00:00,3,1026.9,-1.1,93,2,4000,0,,,290,2.2,3.9,,,,,,,,10,wg-a,,,,AAXX 04004 07240 02140 829// 10030 20020 30129 40269 58011 60006 71022 876// 90000 333 10039 20022 60004=
07240,1997-02-04 06:00:00,3,1026.9,-1.1,93,2,4000,14.816,,,190,2.2,3.9,,,,,,,,10,wg-a,,,,AAXX 04064 07240 02140 81908 10030 20020 30129 40269 58011 60006 71022 876// 90600 333 10039 20022 60004=
07240,1997-02-04 09:00:00,2,1026.8,-0.1,100,2,200,14.816,,,180,,,,,,,,,,43,wg-a,,,,AAXX 04094 07240 12/02 91808 10020 20020 30128 40268 58001 60006 74342 89/// 90900=
07240,1997-02-04 12:00:00,5,1025.6,-1.1,87,3,10000,22.224,,,200,,,,,,,,,,1,wg-a,,,,AAXX 04124 07240 12260 72012 10050 20030 30118 40256 58011 60006 70142 83532 91200=
07240,1997-02-04 15:00:00,7,1022.9,-2.5,76,3,20000,22.224,,,220,,,,,,,,,,,wg-a,,,,AAXX 04154 07240 12670 72212 10070 20030 30092 40229 56025 60006 83532 91500=
07240,1997-02-04 18:00:00,4,1022.8,-0.2,87,2,10000,22.224,,,220,2,7.9,,,,,,,,,wg-a,,,,AAXX 04184 07240 12360 72212 10040 20020 30090 40228 56002 60006 876// 91800 333 10079 20020=
07240,1997-02-04 21:00:00,4,1022.1,-0.7,93,3,7000,22.224,,,200,,,,,,,,,,,wg-a,,,,AAXX 04214 07240 32/57 /2012 10040 20030 30083 40221 58007 92100=
07240,1997-02-05 00:00:00,5,1020.6,-1.5,93,4,7000,22.224,,,200,,,,0,,,,,,2,wg-a,,,,AAXX 05004 07240 02357 72012 10050 20040 30068 40206 58015 60016 70262 876// 90000 333 60007=
07240,1997-02-05 03:00:00,6,1018,-2.4,100,6,7000,31.484,,,210,,,,0,,,,,,60,wg-a,,,,AAXX 05034 07240 12257 72117 10060 20060 30044 40180 56024 60007 76062 877// 90300=
07240,1997-02-05 06:00:00,9,1016.7,-1.1,93,8,7000,29.632,,,230,3.4,8.7,,,,,,,,61,wg-a,,,,AAXX 05064 07240 02257 72316 10090 20080 30032 40167 55011 61000 76162 877// 90600 333 10087 20034 6005=
07240,1997-02-05 09:00:00,9,1019.8,3.1,87,7,25000,29.632,,,310,,,,1,,,,,,21,wg-a,,,,AAXX 05094 07240 12375 73116 10090 20070 30063 40198 53031 60017 72162 875// 90900=
07240,1997-02-05 12:00:00,10,1023.6,3.6,76,6,500,25.928,,,310,,,,,,,,,,3,wg-a,,,,AAXX 05124 07240 12500 73114 10100 20060 30100 40236 53036 60016 70361 86830 91200=
07240,1997-02-05 15:00:00,11,1025.5,2,58,3,500,29.632,,,330,,,,,,,,,,,wg-a,,,,AAXX 05154 07240 12500 63316 10110 20030 30120 40255 53020 60006 85830 91500=
07240,1997-02-05 18:00:00,6,1029.3,3.4,75,2,25000,7.408,,,310,6.4,11.5,,,,,,,,,wg-a,,,,AAXX 05184 07240 12775 13104 10060 20020 30155 40293 53034 60006 81401 91800 333 10115 20064=
07240,1997-02-05 21:00:00,3,1031.6,2.1,87,1,10000,3.704,,,340,,,,,,,,,,,wg-a,,,,AAXX 05214 07240 12/60 /3402 10030 20010 30176 40316 51021 60006 92100=
07240,1997-02-06 00:00:00,2,1032.9,1.2,93,1,15000,7.408,,,150,,,,,,,,,,,wg-a,,,,AAXX 06004 07240 12/65 21504 10020 20010 30188 40329 51012 60006 80001 90000=
07240,1997-02-06 03:00:00,1,1032.5,-0.3,93,0,10000,11.112,,,120,,,,,,,,,,,wg-a,,,,AAXX 06034 07240 12/60 21206 10010 20000 30184 40325 58003 60006 80001 90300=
07240,1997-02-06 06:00:00,1,1032.4,-0.2,93,0,15000,11.112,,,150,0.5,6.4,,,,,1,,,,wg-a,,,,AAXX 06064 07240 02/65 41506 10010 20000 30183 40324 56002 60006 82031 90600 333 10064 20005 60014=
07240,1997-02-06 09:00:00,3,1033,0.7,93,2,12000,11.112,,,150,,,,,,,,,,,wg-a,,,,AAXX 06094 07240 12/62 21506 10030 20020 30190 40330 51007 60006 82030 90900=
07240,1997-02-06 12:00:00,10,1032.1,-0.6,62,3,15000,11.112,,,160,,,,,,,,,,,wg-a,,,,AAXX 06124 07240 12/65 21606 10100 20030 30184 40321 58006 60006 81031 91200=
07240,1997-02-06 15:00:00,11,1030.5,-1.5,47,0,500,11.112,,,180,,,,,,,,,,,wg-a,,,,AAXX 06154 07240 12/00 11806 10110 20000 30169 40305 56015 60006 80001 91500=
07240,1997-02-06 18:00:00,7,1029.9,-0.8,57,-1,20000,7.408,,,150,1.3,11.7,,,,,,,,,wg-a,,,,AAXX 06184 07240 12/70 31504 10070 21010 30161 40299 56008 60006 82031 91800 333 10117 20013=
07240,1997-02-06 21:00:00,3,1029.6,-0.5,81,0,10000,7.408,,,100,,,,,,,,,,,wg-a,,,,AAXX 06214 07240 12/60 01004 10030 20000 30156 40296 58005 60006 80000 92100=
07240,1997-02-07 00:00:00,1,1029.7,-0.1,93,0,8000,11.112,,,90,,,,,,,,,,,wg-a,,,,AAXX 07004 07240 12/58 00906 10010 20000 30156 40297 58001 60006 80000 90000=
07240,1997-02-07 03:00:00,0,1029.4,-0.2,93,-1,7000,11.112,,,100,,,,,,,,,,,wg-a,,,,AAXX 07034 07240 12/57 01006 10000 21010 30153 40294 58002 60006 80000 90300=
07240,1997-02-07 06:00:00,-1,1029.6,0.1,100,-1,7000,11.112,,,100,-1,7.4,,,,,,,,,wg-a,,,,AAXX 07064 07240 02/57 /1006 11010 21010 30154 40296 52001 60006 80001 90600 333 10074 21010 60004=
07240,1997-02-07 09:00:00,1,1030.5,1,93,0,8000,11.112,,,150,,,,0,,,,,,,wg-a,,,,AAXX 07094 07240 12/58 /1506 10010 20000 30164 40305 53010 60007 85031 90900=
07240,1997-02-07 12:00:00,8,1031.1,1,66,2,15000,11.112,,,240,,,,,,,,,,,wg-a,,,,AAXX 07124 07240 12/65 42406 10080 20020 30173 40311 51010 60006 82031 91200=
07240,1997-02-07 15:00:00,12,1030.4,-0.4,50,2,18000,7.408,,,250,,,,,,,,,,,wg-a,,,,AAXX 07154 07240 12/68 22504 10120 20020 30169 40304 56004 60006 81031 91500=
07240,1997-02-07 18:00:00,8,1031.6,1,66,2,15000,7.408,,,120,-1,12.9,,,,,,,,,wg-a,,,,AAXX 07184 07240 12/65 61204 10080 20020 30179 40316 53010 60006 83034 91800 333 10129 21010=
07240,1997-02-07 21:00:00,5,1032.9,1.1,81,2,12000,7.408,,,350,,,,,,,,,,,wg-a,,,,AAXX 07214 07240 12/62 23504 10050 20020 30190 40329 51011 60006 80001 92100=
07240,1997-02-08 00:00:00,5,1033.3,0.3,81,2,10000,7.408,,,30,,,,,,,,,,,wg-a,,,,AAXX 08004 07240 12/60 20304 10050 20020 30193 40333 53003 60006 82031 90000=
07240,1997-02-08 03:00:00,3,1033.3,-0.1,87,1,10000,7.408,,,120,,,,,,,,,,,wg-a,,,,AAXX 08034 07240 12/60 11204 10030 20010 30192 40333 56001 60006 80001 90300=
07240,1997-02-08 06:00:00,0,1033.6,0.2,93,-1,10000,3.704,,,20,0.2,8.3,,,,,,,,,wg-a,,,,AAXX 08064 07240 02/60 30202 10000 21010 30194 40336 53002 60006 80004 90600 333 10083 20002 60004=
07240,1997-02-08 09:00:00,4,1033.5,0.1,81,1,8000,7.408,,,130,,,,,,,,,,,wg-a,,,,AAXX 08094 07240 12/58 31304 10040 20010 30195 40335 50001 60006 80001 90900=
07240,1997-02-08 12:00:00,11,1032.9,-0.2,54,2,9000,0,,,0,,,,,,,,,,,wg-a,,,,AAXX 08124 07240 12/59 20000 10110 20020 30193 40329 58002 60006 80001 91200=
07240,1997-02-08 15:00:00,14,1031.3,-1.5,44,2,10000,0,,,0,,,,,,,,,,,wg-a,,,,AAXX 08154 07240 12/60 30000 10140 20020 30178 40313 57015 60006 80001 91500=
07240,1997-02-08 18:00:00,9,1031.4,-0.1,57,1,10000,7.408,,,170,0.3,14.1,,,,,,,,,wg-a,,,,AAXX 08184 07240 12/60 21704 10090 20010 30177 40314 55001 60006 80001 91800 333 10141 20003=
07240,1997-02-08 21:00:00,6,1031.7,0.1,75,2,10000,3.704,,,170,,,,,,,,,,,wg-a,,,,AAXX 08214 07240 12/60 /1702 10060 20020 30178 40317 53001 60006 92100=
07240,1997-02-09 00:00:00,3,1031.6,-0.2,87,1,7000,7.408,,,160,,,,,,,,,,,wg-a,,,,AAXX 09004 07240 12/57 21604 10030 20010 30176 40316 58002 60006 80001 90000=
07240,1997-02-09 03:00:00,1,1031.2,-0.6,93,0,8000,3.704,,,120,,,,,,,,,,,wg-a,,,,AAXX 09034 07240 12/58 21202 10010 20000 30171 40312 58006 60006 80001 90300=
07240,1997-02-09 06:00:00,0,1030.4,-0.7,100,0,8000,11.112,,,150,0.4,9.2,,,,,,,,,wg-a,,,,AAXX 09064 07240 02/58 21506 10000 20000 30163 40304 56007 60006 80001 90600 333 10092 20004 60004=
07240,1997-02-09 09:00:00,2,1030.9,0.6,93,1,7000,7.408,,,150,,,,,,,,,,,wg-a,,,,AAXX 09094 07240 12/57 01504 10020 20010 30169 40309 51006 60006 80000 90900=
07240,1997-02-09 12:00:00,11,1030.4,-0.2,66,5,10000,11.112,,,180,,,,,,,,,,,wg-a,,,,AAXX 09124 07240 12/60 01806 10110 20050 30168 40304 58002 60006 80000 91200=
07240,1997-02-09 15:00:00,14,1027.9,-2.3,55,5,20000,14.816,,,180,,,,,,,,,,,wg-a,,,,AAXX 09154 07240 12/70 01808 10140 20050 30145 40279 56023 60006 80000 91500=
07240,1997-02-09 18:00:00,11,1028.6,0.5,66,5,20000,11.112,,,210,-0.1,14,,,,,,,,,wg-a,,,,AAXX 09184 07240 12/70 02106 10110 20050 30150 40286 51005 60006 80000 91800 333 10140 21001=
07240,1997-02-09 21:00:00,6,1029,0.2,87,4,12000,7.408,,,280,,,,,,,,,,,wg-a,,,,AAXX 09214 07240 12/62 32804 10060 20040 30152 40290 51002 60006 80004 92100=
07240,1997-02-10 00:00:00,8,1028,-0.9,87,6,8000,11.112,,,220,,,,,,,,,,,wg-a,,,,AAXX 10004 07240 12458 72206 10080 20060 30143 40280 58009 60006 875// 90000=
07240,1997-02-10 03:00:00,7,1026.9,-1.2,93,6,8000,7.408,,,210,,,,,,,,,,,wg-a,,,,AAXX 10034 07240 12458 82104 10070 20060 30132 40269 58012 60006 875// 90300=
07240,1997-02-10 06:00:00,6,1025,-1.8,93,5,7000,18.52,,,190,5.6,11,,,,,,,,,wg-a,,,,AAXX 10064 07240 02257 71910 10060 20050 30112 40250 56018 60006 876// 90600 333 10110 20056 60004=
07240,1997-02-10 09:00:00,6,1023.9,-1,93,5,6000,14.816,,,200,,,,,,,,,,1,wg-a,,,,AAXX 10094 07240 12256 72008 10060 20050 30102 40239 56010 60006 70142 82631 90900=
07240,1997-02-10 12:00:00,11,1021.7,-1.9,66,5,12000,29.632,,,200,,,,,,,,,,3,wg-a,,,,AAXX 10124 07240 12662 72016 10110 20050 30082 40217 57019 60006 70342 83551 91200=
07240,1997-02-10 15:00:00,12,1020.3,-1.2,67,6,13000,35.188,,,230,,,,,,,,,,,wg-a,,,,AAXX 10154 07240 12663 72319 10120 20060 30069 40203 55012 60006 8553/ 91500=
07240,1997-02-10 18:00:00,10,1020.7,0.2,93,9,2000,29.632,,,230,5.1,13,,2,,,,,,,wg-a,,,,AAXX 10184 07240 02/20 /2316 10100 20090 30072 40207 53002 60006 91800 333 10130 20051 60027=
07240,1997-02-10 21:00:00,9,1023,2.3,93,8,8000,18.52,,,280,,,,0,,,,,,1,wg-a,,,,AAXX 10214 07240 12258 82810 10090 20080 30094 40230 53023 60007 70162 875// 92100=
07240,1997-02-11 00:00:00,8,1025.4,2.3,81,5,10000,7.408,,,310,,,,0,,,,,,1,wg-a,,,,AAXX 11004 07240 02560 73104 10080 20050 30117 40254 51023 60016 70162 875// 90000 333 60007=
07240,1997-02-11 03:00:00,6,1026.3,0.6,87,4,10000,3.704,,,250,,,,,,,,,,,wg-a,,,,AAXX 11034 07240 12660 72502 10060 20040 30125 40263 52006 60006 875// 90300=
07240,1997-02-11 06:00:00,5,1026,-0.2,93,4,10000,7.408,,,210,4.9,10.6,,,,,2,,,,wg-a,,,,AAXX 11064 07240 02160 72104 10050 20040 30122 40260 58002 60006 85501 90600 333 10106 20049 60024=
07240,1997-02-11 09:00:00,6,1026.4,0.4,93,5,500,7.408,,,190,,,,,,,,,,,wg-a,,,,AAXX 11094 07240 12700 71904 10060 20050 30126 40264 53004 60006 875// 90900=
07240,1997-02-11 12:00:00,9,1025.5,-0.6,81,6,12000,18.52,,,210,,,,,,,,,,,wg-a,,,,AAXX 11124 07240 12662 72110 10090 20060 30119 40255 58006 60006 875// 91200=
07240,1997-02-11 15:00:00,10,1023.3,-2.3,82,7,12000,22.224,,,230,,,,,,,,,,60,wg-a,,,,AAXX 11154 07240 02562 72312 10100 20070 30097 40233 56023 61000 76062 8657/ 91500 333 ////=
07240,1997-02-11 18:00:00,9,1021.1,-2.1,100,9,3000,29.632,,46.3,220,4.1,10.4,,,,,,,,60,wg-a,,,,AAXX 11184 07240 02230 82216 10090 20090 30076 40211 56021 61000 76062 877// 91800 333 10104 20041 6002 91025=
07240,1997-02-11 21:00:00,11,1020.3,-0.9,94,10,3000,31.484,,,240,,,,0,,,,,,10,wg-a,,,,AAXX 11214 07240 12230 82417 10110 20100 30069 40203 55009 60007 71065 877// 92100=
07240,1997-02-12 00:00:00,11,1021,0.7,87,9,7000,29.632,,,240,,,,0,,,,,,1,wg-a,,,,AAXX 12004 07240 02457 82416 10110 20090 30076 40210 51007 60016 70165 877// 90000 333 60007=
07240,1997-02-12 03:00:00,11,1020.8,-0.2,87,9,7000,31.484,,,240,,,,0,,,,,,,wg-a,,,,AAXX 12034 07240 12457 82417 10110 20090 30074 40208 58002 60007 875// 90300=
07240,1997-02-12 06:00:00,11,1021,0.1,87,9,12000,29.632,,,240,9.3,11.2,,,,,3,,,,wg-a,,,,AAXX 12064 07240 02462 72416 10110 20090 30076 40210 52001 60006 875// 90600 333 10112 20093 60034=
07240,1997-02-12 09:00:00,11,1020.6,-0.5,87,9,15000,29.632,,,230,,,,,,,,,,,wg-a,,,,AAXX 12094 07240 12465 72316 10110 20090 30072 40206 58005 60006 875// 90900=
07240,1997-02-12 12:00:00,12,1019.1,-1.4,82,9,10000,31.484,,,230,,,,,,,,,,61,wg-a,,,,AAXX 12124 07240 02460 72317 10120 20090 30057 40191 58014 61000 76162 875// 91200 333 6100=
07240,1997-02-12 15:00:00,11,1016.1,-3,87,9,15000,35.188,,,240,,,,2,,,,,,21,wg-a,,,,AAXX 12154 07240 12365 72419 10110 20090 30027 40161 58030 60027 72162 875// 91500=
07240,1997-02-12 18:00:00,10,1013.9,-2.2,93,9,6000,25.928,,,220,10.2,12.9,,,,,,,,61,wg-a,,,,AAXX 12184 07240 02456 72214 10100 20090 30005 40139 58022 61000 76162 875// 91800 333 10129 20102 6002=
07240,1997-02-12 21:00:00,11,1011.4,-2.5,87,9,500,29.632,,,230,,,,3,,,,,,61,wg-a,,,,AAXX 12214 07240 12200 72316 10110 20090 39981 40114 57025 60037 76162 815// 92100=
07240,1997-02-13 00:00:00,10,1012.1,0.7,82,7,25000,42.596,,62.968,260,,,,0,,,,,,1,wg-a,,,,AAXX 13004 07240 02575 /2623 10100 20070 39987 40121 53007 60036 70162 83500 90000 333 60007 91034=
07240,1997-02-13 03:00:00,9,1011.2,-0.9,87,7,20000,31.484,,,250,,,,0,,,,,,60,wg-a,,,,AAXX 13034 07240 12370 72517 10090 20070 39978 40112 58009 60007 76062 833// 90300=
07240,1997-02-13 06:00:00,9,1008.1,-3.1,87,7,8000,50.004,,66.672,260,8.7,11.2,,,,,,,,61,wg-a,,,,AAXX 13064 07240 02358 82627 10090 20070 39947 40081 55031 61000 76161 845// 90600 333 10112 20087 6009 91036=
07240,1997-02-13 09:00:00,7,1012.4,4.4,66,1,500,38.892,,77.784,280,,,,,,,,,,1,wg-a,,,,AAXX 13094 07240 02400 52821 10070 20010 39989 40124 53044 61000 70162 84802 90900 333 //// 91042=
07240,1997-02-13 12:00:00,8,1015,2.8,53,-1,500,46.3,,,280,,,,,,,,,,3,wg-a,,,,AAXX 13124 07240 02500 /2825 10080 21010 30015 40150 51028 61000 70361 84202 91200 333 ////=
07240,1997-02-13 18:00:00,8,1017.1,0.5,66,2,20000,25.928,,,260,7.1,9.3,,,,,,,,,wg-a,,,,AAXX 13184 07240 12770 72614 10080 20020 30035 40171 51005 60006 875// 91800 333 10093 20071=
07240,1997-02-13 21:00:00,7,1015.9,-1.2,76,3,10000,18.52,,,230,,,,,,,,,,,wg-a,,,,AAXX 13214 07240 12760 72310 10070 20030 30023 40159 58012 60006 8357/ 92100=
07240,1997-02-14 00:00:00,6,1012.5,-3.4,87,4,10000,18.52,,,210,,,,2,,,,,,60,wg-a,,,,AAXX 14004 07240 02560 72110 10060 20040 39989 40125 56034 60026 76062 8357/ 90000 333 60027=
07240,1997-02-14 03:00:00,5,1006,-6.3,100,5,6000,18.52,,,140,,,,11,,,,,,60,wg-a,,,,AAXX 14034 07240 12156 71410 10050 20050 39925 40060 56063 60117 76066 877// 90300=
07240,1997-02-14 06:00:00,10,1003.4,-2.3,100,10,6000,25.928,,,250,5.2,10.5,,,,,,,,51,wg-a,,,,AAXX 14064 07240 02256 82514 10100 20100 39902 40034 56023 61000 75165 887// 90600 333 10105 20052 6015=
07240,1997-02-14 09:00:00,11,1004.7,1.1,100,11,10000,31.484,,,250,,,,1,,,,,,50,wg-a,,,,AAXX 14094 07240 12360 82517 10110 20110 39915 40047 53011 60017 75065 887// 90900=
07240,1997-02-14 12:00:00,12,1004.3,-0.4,82,9,15000,31.484,,,260,,,,,,,,,,60,wg-a,,,,AAXX 14124 07240 02565 72617 10120 20090 39911 40043 58004 60016 76065 878// 91200 333 61000=
07240,1997-02-14 15:00:00,12,1002.3,-2,88,10,15000,22.224,,,240,,,,2,,,,,,25,wg-a,,,,AAXX 14154 07240 12565 72412 10120 20100 39891 40023 58020 60027 72586 872// 91500=
07240,1997-02-14 18:00:00,11,1001.1,-1.1,82,8,15000,25.928,,,230,10.5,13.5,,0,,,,,,3,wg-a,,,,AAXX 14184 07240 02565 72314 10110 20080 39879 40011 56011 60006 70386 872// 91800 333 10135 20105 60007=
07240,1997-02-14 21:00:00,10,1001.1,0.1,93,9,7000,22.224,,,240,,,,2,,,,,,61,wg-a,,,,AAXX 14214 07240 12357 82412 10100 20090 39879 40011 53001 60027 76186 877// 92100=
07240,1997-02-15 00:00:00,10,1002.1,0.9,87,8,10000,14.816,,,270,,,,0,,,,,,3,wg-a,,,,AAXX 15004 07240 02360 82708 10100 20080 39888 40021 53009 60026 70386 878// 90000 333 60007=
07240,1997-02-15 03:00:00,6,1007,4.7,87,4,3000,38.892,,,20,,,,2,,,,,,61,wg-a,,,,AAXX 15034 07240 12330 80221 10060 20040 39935 40070 53047 60027 76162 877// 90300=
07240,1997-02-15 06:00:00,5,1015.1,7.8,81,2,10000,29.632,,,350,4.9,11,,,,,7,,,1,wg-a,,,,AAXX 15064 07240 02560 33516 10050 20020 30014 40151 51078 60006 70161 83200 90600 333 10110 20049 60074=
07240,1997-02-15 09:00:00,4,1021.7,6.4,87,2,20000,18.52,,,330,,,,,,,,,,,wg-a,,,,AAXX 15094 07240 12/70 03310 10040 20020 30079 40217 51064 60006 80000 90900=
07240,1997-02-15 12:00:00,8,1024.3,2.6,66,2,500,22.224,,,340,,,,,,,,,,,wg-a,,,,AAXX 15124 07240 12500 33412 10080 20020 30106 40243 51026 60006 83200 91200=
07240,1997-02-15 15:00:00,8,1025.1,0.9,61,1,500,14.816,,,330,,,,,,,,,,,wg-a,,,,AAXX 15154 07240 12600 43308 10080 20010 30114 40251 51009 60006 84200 91500=
07240,1997-02-15 21:00:00,3,1026.7,0.3,87,1,15000,0,,,0,,,,,,,,,,,wg-a,,,,AAXX 15214 07240 12/65 30000 10030 20010 30128 40267 51003 60006 80001 92100=
07240,1997-02-16 00:00:00,1,1026.2,-0.6,93,0,10000,11.112,,,140,,,,,,,,,,,wg-a,,,,AAXX 16004 07240 12/60 21406 10010 20000 30122 40262 58006 60006 80001 90000=
07240,1997-02-16 03:00:00,0,1025,-1.3,93,-1,10000,11.112,,,130,,,,,,,,,,,wg-a,,,,AAXX 16034 07240 12/60 71306 10000 21010 30109 40250 58013 60006 80001 90300=
07240,1997-02-16 06:00:00,-1,1023.6,-1.4,93,-2,10000,14.816,,,130,-0.7,5.7,,,,,,,,,wg-a,,,,AAXX 16064 07240 02/60 31308 11010 21020 30095 40236 58014 60006 80001 90600 333 10057 21007 60004=
07240,1997-02-16 09:00:00,3,1023,-0.4,81,0,10000,14.816,,,150,,,,,,,,,,,wg-a,,,,AAXX 16094 07240 32/60 /1508 10030 20000 30091 40230 55004 90900=
07240,1997-02-16 12:00:00,8,1021.6,-1.2,53,-1,10000,14.816,,,160,,,,,,,,,,,wg-a,,,,AAXX 16124 07240 12/60 71608 10080 21010 30079 40216 57012 60006 84032 91200=
07240,1997-02-16 15:00:00,9,1019.3,-2.2,46,-2,10000,18.52,,,170,,,,,,,,,,,wg-a,,,,AAXX 16154 07240 12760 71710 10090 21020 30057 40193 56022 60006 84572 91500=
07240,1997-02-16 18:00:00,6,1020,0.7,81,3,8000,14.816,,,270,-0.6,9.4,,,,,,,,61,wg-a,,,,AAXX 16184 07240 02558 82708 10060 20030 30063 40200 53007 61000 76162 8557/ 91800 333 10094 21006 6001=
07240,1997-02-16 21:00:00,6,1020.4,0.4,93,5,6000,14.816,,,200,,,,4,,,,,,2,wg-a,,,,AAXX 16214 07240 12356 82008 10060 20050 30067 40204 53004 60047 70262 8577/ 92100=
07240,1997-02-17 00:00:00,6,1020.9,0.4,100,6,6000,14.816,,,220,,,,1,,,,,,21,wg-a,,,,AAXX 17004 07240 02156 82208 10060 20060 30072 40209 53004 60046 72162 877// 90000 333 60017=
07240,1997-02-17 03:00:00,7,1020.8,-0.1,93,6,6000,18.52,,,220,,,,,,,,,,,wg-a,,,,AAXX 17034 07240 12156 82210 10070 20060 30071 40208 57001 60006 877// 90300=
07240,1997-02-17 06:00:00,7,1021.3,0.6,100,7,6000,18.52,,,210,4.9,7.3,,,,,5,,,,wg-a,,,,AAXX 17064 07240 02256 72110 10070 20070 30077 40213 53006 60006 877// 90600 333 10073 20049 60054=
07240,1997-02-17 09:00:00,7,1022.9,1.4,100,7,8000,14.816,,,210,,,,,,,,,,,wg-a,,,,AAXX 17094 07240 12258 72108 10070 20070 30092 40229 53014 60006 83731 90900=
07240,1997-02-17 12:00:00,12,1022.4,-0.2,76,8,25000,25.928,,,240,,,,,,,,,,,wg-a,,,,AAXX 17124 07240 12575 62414 10120 20080 30090 40224 58002 60006 84232 91200=
07240,1997-02-17 15:00:00,12,1021.4,-1,71,7,25000,22.224,,,220,,,,,,,,,,,wg-a,,,,AAXX 17154 07240 12575 72212 10120 20070 30080 40214 57010 60006 8387/ 91500=
07240,1997-02-17 18:00:00,10,1022,0.6,82,7,15000,22.224,,,220,6.7,11.9,,1,,,,,,2,wg-a,,,,AAXX 17184 07240 02765 72212 10100 20070 30085 40220 51006 60006 70286 8351/ 91800 333 10119 20067 60017=
07240,1997-02-17 21:00:00,9,1021.9,-0.1,93,8,10000,22.224,,,200,,,,,,,,,,21,wg-a,,,,AAXX 17214 07240 02460 82012 10090 20080 30084 40219 58001 61000 72162 875// 92100 333 ////=
07240,1997-02-18 00:00:00,10,1020.6,-1.3,87,8,10000,29.632,,,220,,,,1,,,,,,21,wg-a,,,,AAXX 18004 07240 02460 82216 10100 20080 30071 40206 57013 60016 72162 877// 90000 333 60017=
07240,1997-02-18 03:00:00,10,1018.5,-2.1,93,9,6000,25.928,,,220,,,,1,,,,,,61,wg-a,,,,AAXX 18034 07240 12356 82214 10100 20090 30050 40185 58021 60017 76162 877// 90300=
07240,1997-02-18 06:00:00,10,1017.1,-1.1,93,9,500,31.484,,51.856,220,9.1,10.4,,,,,,,,61,wg-a,,,,AAXX 18064 07240 02400 82217 10100 20090 30037 40171 56011 61000 76162 875// 90600 333 10104 20091 6004 91028=
07240,1997-02-18 09:00:00,11,1017.7,0.6,94,10,500,31.484,,57.412,240,,,,2,,,,,,16,wg-a,,,,AAXX 18094 07240 12300 72417 10110 20100 30043 40177 53006 60027 71662 877// 90900 333 91031=
07240,1997-02-18 12:00:00,10,1019.2,1.2,76,6,20000,38.892,,,270,,,,0,,,,,,25,wg-a,,,,AAXX 18124 07240 02570 72721 10100 20060 30057 40192 53012 60026 72586 878// 91200 333 60007=
07240,1997-02-18 15:00:00,10,1020.4,1.2,76,6,25000,25.928,,83.34,290,,,,,,,,,,25,wg-a,,,,AAXX 18154 07240 02575 /2914 10100 20060 30069 40204 53012 61000 72586 85900 91500 333 //// 91045=
07240,1997-02-18 18:00:00,8,1024.6,4.2,76,4,20000,31.484,,,250,7,12.2,,0,,,,,,1,wg-a,,,,AAXX 18184 07240 02670 62517 10080 20040 30110 40246 51042 60006 70186 86800 91800 333 10122 20070 60007=
07240,1997-02-18 21:00:00,5,1029.6,4.6,87,3,20000,14.816,,,270,,,,0,,,,,,,wg-a,,,,AAXX 18214 07240 12670 /2708 10050 20030 30157 40296 51046 60007 81500 92100=
07240,1997-02-19 00:00:00,5,1031.8,2.1,87,3,20000,14.816,,,240,,,,,,,,,,,wg-a,,,,AAXX 19004 07240 12/70 02408 10050 20030 30179 40318 51021 60006 80000 90000=
07240,1997-02-19 03:00:00,4,1032.7,0.8,93,3,10000,11.112,,,250,,,,,,,,,,,wg-a,,,,AAXX 19034 07240 12/60 /2506 10040 20030 30187 40327 50008 60006 90300=
07240,1997-02-19 06:00:00,4,1032.9,0.2,93,3,20000,11.112,,,150,3.5,8.5,,,,,3,,,,wg-a,,,,AAXX 19064 07240 02/70 71506 10040 20030 30189 40329 50002 60006 86026 90600 333 10085 20035 60034=
07240,1997-02-19 09:00:00,6,1031.6,-1.3,87,4,15000,11.112,,,180,,,,,,,,,,,wg-a,,,,AAXX 19094 07240 12/65 71806 10060 20040 30177 40316 56013 60006 86032 90900=
07240,1997-02-19 12:00:00,11,1028.6,-2.6,62,4,20000,25.928,,,190,,,,,,,,,,,wg-a,,,,AAXX 19124 07240 12570 51914 10110 20040 30150 40286 58026 60006 81132 91200=
07240,1997-02-19 18:00:00,11,1022.2,-3.2,71,6,15000,29.632,,,210,3.2,12.1,,,,,,,,,wg-a,,,,AAXX 19184 07240 12765 72116 10110 20060 30087 40222 58032 60006 845/2 91800 333 10121 20032=
07240,1997-02-19 21:00:00,10,1021.7,-0.5,93,9,8000,29.632,,,230,,,,,,,,,,51,wg-a,,,,AAXX 19214 07240 02358 82316 10100 20090 30082 40217 58005 61000 75165 875// 92100 333 ////=
07240,1997-02-20 00:00:00,11,1025,3.4,82,8,20000,29.632,,,270,,,,0,,,,,,1,wg-a,,,,AAXX 20004 07240 02570 42716 10110 20080 30115 40250 53034 60016 70165 84100 90000 333 60007=
07240,1997-02-20 03:00:00,9,1027,1.8,81,6,20000,22.224,,,260,,,,,,,,,,,wg-a,,,,AAXX 20034 07240 12/70 12612 10090 20060 30133 40270 51018 60006 80001 90300=
07240,1997-02-20 06:00:00,7,1029,1.8,87,5,12000,14.816,,,250,6.5,11.5,,,,,,,,,wg-a,,,,AAXX 20064 07240 02/62 22508 10070 20050 30152 40290 53018 60006 80001 90600 333 10115 20065 60004=
07240,1997-02-20 12:00:00,12,1030.3,-0.4,67,6,15000,25.928,,,240,,,,,,,,,,,wg-a,,,,AAXX 20124 07240 12565 52414 10120 20060 30168 40303 58004 60006 83201 91200=
07240,1997-02-20 15:00:00,12,1029.1,-1.2,62,5,15000,25.928,,,250,,,,,,,,,,,wg-a,,,,AAXX 20154 07240 12665 72514 10120 20050 30156 40291 56012 60006 86501 91500=
07240,1997-02-20 18:00:00,10,1028.4,-0.7,71,5,15000,11.112,,,220,5.6,12.3,,,,,,,,,wg-a,,,,AAXX 20184 07240 12665 /2206 10100 20050 30148 40284 56007 60006 84501 91800 333 10123 20056=
07240,1997-02-20 21:00:00,8,1028.8,0.3,81,5,15000,14.816,,,230,,,,,,,,,,,wg-a,,,,AAXX 20214 07240 12665 /2308 10080 20050 30151 40288 51003 60006 81501 92100=
07240,1997-02-21 00:00:00,7,1028.7,-0.2,93,6,10000,14.816,,,230,,,,,,,,,,,wg-a,,,,AAXX 21004 07240 12360 /2308 10070 20060 30149 40287 58002 60006 81600 90000=
07240,1997-02-21 03:00:00,7,1029.2,0.5,100,7,7000,11.112,,,240,,,,,,,,,,,wg-a,,,,AAXX 21034 07240 12357 /2406 10070 20070 30154 40292 51005 60006 86600 90300=
07240,1997-02-21 06:00:00,6,1029.8,0.6,93,5,4500,3.704,,,190,5.5,10,,,,,,,,10,wg-a,,,,AAXX 21064 07240 02245 31902 10060 20050 30160 40298 53006 60006 71011 8263/ 90600 333 10100 20055 60004=
07240,1997-02-21 12:00:00,12,1032.1,0.7,67,6,20000,22.224,,,280,,,,,,,,,,,wg-a,,,,AAXX 21124 07240 12570 62812 10120 20060 30185 40321 50007 60006 86800 91200=
07240,1997-02-21 15:00:00,13,1031.3,-0.7,62,6,11000,14.816,,,290,,,,,,,,,,,wg-a,,,,AAXX 21154 07240 12/61 /2908 10130 20060 30178 40313 55007 60006 91500=
07240,1997-02-21 18:00:00,11,1032.4,1,71,6,20000,7.408,,,280,5.4,13.5,,,,,,,,,wg-a,,,,AAXX 21184 07240 12670 /2804 10110 20060 30188 40324 53010 60006 86500 91800 333 10135 20054=
07240,1997-02-21 21:00:00,10,1033,0.5,71,5,20000,3.704,,,260,,,,,,,,,,,wg-a,,,,AAXX 21214 07240 12670 72602 10100 20050 30193 40330 50005 60006 875// 92100=
07240,1997-02-22 00:00:00,7,1032.7,-0.4,81,4,12000,11.112,,,140,,,,,,,,,,,wg-a,,,,AAXX 22004 07240 12/62 01406 10070 20040 30189 40327 58004 60006 80000 90000=
07240,1997-02-22 03:00:00,5,1031.7,-1.1,93,4,10000,11.112,,,140,,,,,,,,,,,wg-a,,,,AAXX 22034 07240 12/60 01406 10050 20040 30178 40317 58011 60006 80000 90300=
07240,1997-02-22 06:00:00,3,1030.6,-1.2,93,2,10000,7.408,,,110,3,10.7,,,,,,,,,wg-a,,,,AAXX 22064 07240 02/60 61104 10030 20020 30166 40306 58012 60006 80002 90600 333 10107 20030 60004=
07240,1997-02-22 09:00:00,9,1029.5,-0.8,87,7,20000,7.408,,,110,,,,,,,,,,,wg-a,,,,AAXX 22094 07240 12/70 31104 10090 20070 30158 40295 56008 60006 80001 90900=
07240,1997-02-22 12:00:00,15,1027.4,-1.8,59,7,25000,11.112,,,150,,,,,,,,,,,wg-a,,,,AAXX 22124 07240 12575 41506 10150 20070 30140 40274 58018 60006 81101 91200=
07240,1997-02-22 15:00:00,16,1024.3,-3.1,51,6,25000,3.704,,,160,,,,,,,,,,,wg-a,,,,AAXX 22154 07240 12/75 51602 10160 20060 30110 40243 56031 60006 80001 91500=
07240,1997-02-22 18:00:00,13,1022.9,-1.4,62,6,25000,7.408,,,130,2.7,16,,,,,,,,,wg-a,,,,AAXX 22184 07240 12775 71304 10130 20060 30095 40229 56014 60006 835/1 91800 333 10160 20027=
07240,1997-02-22 21:00:00,8,1022.5,-0.6,87,6,10000,7.408,,,260,,,,,,,,,,,wg-a,,,,AAXX 22214 07240 12/60 22604 10080 20060 30089 40225 58006 60006 80001 92100=
07240,1997-02-23 00:00:00,8,1021,-1.5,81,5,10000,11.112,,,200,,,,,,,,,,,wg-a,,,,AAXX 23004 07240 12/60 22006 10080 20050 30074 40210 56015 60006 80001 90000=
07240,1997-02-23 06:00:00,8,1018.3,-0.3,93,7,7000,18.52,,,220,4.9,12.5,,,,,,,,,wg-a,,,,AAXX 23064 07240 02357 82210 10080 20070 30048 40183 55003 60006 886// 90600 333 10125 20049 60004=
07240,1997-02-23 09:00:00,10,1018.9,0.7,87,8,10000,14.816,,,220,,,,,,,,,,,wg-a,,,,AAXX 23094 07240 12360 72208 10100 20080 30054 40189 50007 60006 85132 90900=
07240,1997-02-23 12:00:00,12,1017.7,-1.1,76,8,12000,22.224,,,210,,,,,,,,,,,wg-a,,,,AAXX 23124 07240 12462 72112 10120 20080 30043 40177 58011 60006 85132 91200=
07240,1997-02-23 15:00:00,12,1015.3,-2.3,76,8,12000,25.928,,,210,,,,,,,,,,21,wg-a,,,,AAXX 23154 07240 02562 72114 10120 20080 30020 40153 56023 61000 72162 878// 91500 333 ////=
07240,1997-02-23 18:00:00,10,1014.1,-1.3,93,9,7000,22.224,,,200,8.4,13.3,,,,,,,,21,wg-a,,,,AAXX 23184 07240 02457 82012 10100 20090 30007 40141 56013 61000 72162 8582/ 91800 333 10133 20084 6100=
07240,1997-02-23 21:00:00,10,1013,-1.1,87,8,7000,22.224,,,210,,,,,,,,,,,wg-a,,,,AAXX 23214 07240 12457 82112 10100 20080 39996 40130 57011 60006 875// 92100=
07240,1997-02-24 00:00:00,10,1011.2,-1.8,93,9,7000,25.928,,,210,,,,2,,,,,,61,wg-a,,,,AAXX 24004 07240 02157 82114 10100 20090 39978 40112 56018 60026 76162 877// 90000 333 60027=
07240,1997-02-24 06:00:00,10,1007.3,-1.6,93,9,9000,29.632,,,210,9.8,10.8,,,,,,,,21,wg-a,,,,AAXX 24064 07240 02459 82116 10100 20090 39940 40073 56016 61000 72162 875// 90600 333 10108 20098 6003=
07240,1997-02-24 09:00:00,11,1006.7,-0.4,94,10,6000,31.484,,,210,,,,1,,,,,,,wg-a,,,,AAXX 24094 07240 12/56 /2117 10110 20100 39934 40067 55004 60017 90900=
07240,1997-02-24 12:00:00,12,1006.3,-0.4,94,11,8000,31.484,,,220,,,,2,,,,,,60,wg-a,,,,AAXX 24124 07240 02458 82217 10120 20110 39931 40063 58004 60036 76065 877// 91200 333 60027=
07240,1997-02-24 15:00:00,12,1005.3,-0.9,88,10,4000,31.484,,,220,,,,1,,,,,,61,wg-a,,,,AAXX 24154 07240 12440 82217 10120 20100 39921 40053 57009 60017 76186 878// 91500=
07240,1997-02-24 18:00:00,12,1004.3,-1,94,11,10000,38.892,,61.116,220,10.2,12.7,,0,,,,,,3,wg-a,,,,AAXX 24184 07240 02360 82221 10120 20110 39911 40043 55010 60006 70386 875// 91800 333 10127 20102 60007 91033=
07240,1997-02-25 00:00:00,13,1003.9,1.2,94,12,6000,35.188,,57.412,230,,,,7,,,,,,61,wg-a,,,,AAXX 25004 07240 02356 82319 10130 20120 39908 40039 51012 60116 76162 877// 90000 333 60077 91031=
07240,1997-02-25 03:00:00,13,1004.6,0.6,94,12,10000,38.892,,62.968,240,,,,3,,,,,,61,wg-a,,,,AAXX 25034 07240 12460 82421 10130 20120 39915 40046 51006 60037 76166 875// 90300 333 91034=
07240,1997-02-25 06:00:00,13,1004.9,0.3,88,11,0,42.596,,,230,11.8,13.3,,7,,,25,,,,wg-a,,,,AAXX 25064 07240 02/// /2323 10130 20110 39917 40049 51003 60254 90600 333 10133 20118 60077=
07240,1997-02-25 09:00:00,12,1006.9,1.8,94,11,0,46.3,,,240,,,,4,,,,,,,wg-a,,,,AAXX 25094 07240 12/// /2425 10120 20110 39937 40069 53018 60047 90900=
07240,1997-02-25 12:00:00,12,1008.1,1.2,94,11,2000,46.3,,64.82,240,,,,3,,,,,,10,wg-a,,,,AAXX 25124 07240 02/20 /2425 10120 20110 39949 40081 53012 60076 710// 91200 333 60037 91035=
07240,1997-02-25 15:00:00,12,1007.7,-0.2,94,11,3000,31.484,,,230,,,,5,,,,,,10,wg-a,,,,AAXX 25154 07240 12330 82317 10120 20110 39945 40077 55002 60057 71066 877// 91500=
07240,1997-02-25 18:00:00,12,1009.4,1.6,94,11,3000,42.596,,,240,12,12.9,,,,,,,,10,wg-a,,,,AAXX 25184 07240 02330 82423 10120 20110 39962 40094 53016 61000 71066 877// 91800 333 10129 20120 6007=
07240,1997-02-26 00:00:00,12,1011.1,0.1,88,10,8000,31.484,,,240,,,,3,,,,,,3,wg-a,,,,AAXX 26004 07240 02358 82417 10120 20100 39978 40111 50001 60086 70362 875// 90000 333 60037=
07240,1997-02-26 03:00:00,10,1012.4,1.2,87,8,10000,25.928,,,260,,,,2,,,,,,,wg-a,,,,AAXX 26034 07240 12860 52614 10100 20080 39990 40124 53012 60027 85030 90300=
07240,1997-02-26 06:00:00,9,1015.2,2.7,87,7,15000,25.928,,,260,9.2,12.2,,,,,30.6,,,21,wg-a,,,,AAXX 26064 07240 02565 32614 10090 20070 30017 40152 53027 61000 72161 83500 90600 333 10122 20092 6031=
07240,1997-02-26 09:00:00,10,1018.3,3,82,7,15000,25.928,,,240,,,,,,,,,,,wg-a,,,,AAXX 26094 07240 12465 42414 10100 20070 30048 40183 53030 60006 84800 90900=
07240,1997-02-26 12:00:00,12,1018.3,0.2,71,7,15000,31.484,,50.004,250,,,,1,,,,,,25,wg-a,,,,AAXX 26124 07240 02565 32517 10120 20070 30049 40183 50002 60016 72586 83200 91200 333 60017 91027=
07240,1997-02-26 15:00:00,9,1019.2,0.6,76,5,500,42.596,,62.968,260,,,,2,,,,,,25,wg-a,,,,AAXX 26154 07240 12500 62623 10090 20050 30057 40192 51006 60027 72586 86900 91500 333 91034=
07240,1997-02-26 18:00:00,6,1023.9,4.6,87,4,500,22.224,,,280,6,12.3,,,,,,,,25,wg-a,,,,AAXX 26184 07240 02500 32812 10060 20040 30102 40239 51046 61000 72587 83900 91800 333 10123 20060 6002=
07240,1997-02-27 00:00:00,5,1031.4,2.7,93,4,20000,18.52,,,270,,,,,,,,,,,wg-a,,,,AAXX 27004 07240 12770 22710 10050 20040 30175 40314 51027 60006 82500 90000=
07240,1997-02-27 03:00:00,5,1034.7,3.2,87,3,15000,14.816,,,260,,,,,,,,,,,wg-a,,,,AAXX 27034 07240 12/65 02608 10050 20030 30207 40347 51032 60006 80000 90300=
07240,1997-02-27 06:00:00,3,1036.5,1.6,93,2,15000,3.704,,,200,2.6,6.3,,,,,5,,,,wg-a,,,,AAXX 27064 07240 02765 12002 10030 20020 30224 40365 53016 60006 81501 90600 333 10063 20026 60054=
07240,1997-02-27 09:00:00,7,1038.1,1.8,87,5,12000,11.112,,,250,,,,,,,,,,,wg-a,,,,AAXX 27094 07240 12762 42506 10070 20050 30242 40381 51018 60006 81530 90900=
07240,1997-02-27 12:00:00,11,1037.2,-0.7,66,5,11000,18.52,,,210,,,,,,,,,,,wg-a,,,,AAXX 27124 07240 12/61 /2110 10110 20050 30235 40372 56007 60006 91200=
07240,1997-02-27 18:00:00,10,1035.7,-0.3,66,4,500,7.408,,,180,2.5,13,,,,,,,,,wg-a,,,,AAXX 27184 07240 12/00 31804 10100 20040 30220 40357 55003 60006 81031 91800 333 10130 20025=
07240,1997-02-28 00:00:00,5,1033.8,-1.8,81,2,15000,7.408,,,140,,,,,,,,,,,wg-a,,,,AAXX 28004 07240 12/65 01404 10050 20020 30199 40338 56018 60006 80000 90000=
07240,1997-02-28 03:00:00,4,1031,-2.8,81,1,15000,14.816,,,130,,,,,,,,,,,wg-a,,,,AAXX 28034 07240 12/65 01308 10040 20010 30171 40310 56028 60006 80000 90300=
07240,1997-02-28 06:00:00,3,1030.7,-0.4,87,1,10000,7.408,,,140,2.6,10,,,,,,,,,wg-a,,,,AAXX 28064 07240 02/60 31404 10030 20010 30167 40307 55004 60006 80001 90600 333 10100 20026 60004=
07240,1997-02-28 09:00:00,7,1030.5,-0.1,66,1,500,11.112,,,160,,,,,,,,,,,wg-a,,,,AAXX 28094 07240 12/00 61606 10070 20010 30167 40305 58001 60006 80001 90900=
07240,1997-02-28 12:00:00,15,1028.7,-1.4,36,0,500,11.112,,,200,,,,,,,,,,,wg-a,,,,AAXX 28124 07240 12/00 72006 10150 20000 30153 40287 58014 60006 80001 91200=
07240,1997-02-28 18:00:00,14,1026.9,0.3,58,6,25000,11.112,,,230,2.4,16.7,,,,,,,,,wg-a,,,,AAXX 28184 07240 12/75 72306 10140 20060 30135 40269 53003 60006 84032 91800 333 10167 20024=
07240,1997-02-28 21:00:00,11,1028,0.9,76,7,20000,14.816,,,250,,,,,,,,,,,wg-a,,,,AAXX 28214 07240 12/70 62508 10110 20070 30144 40280 52009 60006 80001 92100=
07240,1997-03-01 00:00:00,9,1028.6,0.6,93,8,12000,14.816,,,240,,,,,,,,,,,wg-a,,,,AAXX 01004 07240 12/62 52408 10090 20080 30150 40286 51006 60006 80001 90000=
07240,1997-03-01 03:00:00,8,1028.4,-0.3,93,7,9000,7.408,,,190,,,,,,,,,,,wg-a,,,,AAXX 01034 07240 12/59 81904 10080 20070 30147 40284 58003 60006 8101/ 90300=
07240,1997-03-01 06:00:00,8,1029.2,0.8,100,8,300,7.408,,,190,7.4,14.1,,,,,,,,,wg-a,,,,AAXX 01064 07240 02/03 /1904 10080 20080 30155 40292 53008 60006 90600 333 10141 20074 60004=
07240,1997-03-01 09:00:00,9,1029.9,0.6,100,9,300,11.112,,,230,,,,,,,,,,43,wg-a,,,,AAXX 01094 07240 12/03 92306 10090 20090 30162 40299 53006 60006 74344 89/// 90900=
07240,1997-03-01 12:00:00,12,1028.6,-1.2,94,11,10000,7.408,,,230,,,,,,,,,,1,wg-a,,,,AAXX 01124 07240 12360 /2304 10120 20110 30151 40286 58012 60006 70142 85600 91200=
07240,1997-03-01 15:00:00,17,1026.3,-1.9,68,11,25000,11.112,,,250,,,,,,,,,,,wg-a,,,,AAXX 01154 07240 12475 /2506 10170 20110 30131 40263 56019 60006 81101 91500=
07240,1997-03-01 18:00:00,15,1026,-0.4,67,9,500,7.408,,,200,7.9,17.4,,,,,,,,,wg-a,,,,AAXX 01184 07240 12/00 12004 10150 20090 30127 40260 55004 60006 80001 91800 333 10174 20079=
07240,1997-03-01 21:00:00,11,1025.7,-0.5,87,9,500,7.408,,,190,,,,,,,,,,,wg-a,,,,AAXX 01214 07240 12/00 01904 10110 20090 30122 40257 58005 60006 80000 92100=
07240,1997-03-02 00:00:00,10,1024.7,-1.1,82,7,20000,11.112,,,200,,,,,,,,,,,wg-a,,,,AAXX 02004 07240 12/70 02006 10100 20070 30111 40247 58011 60006 80000 90000=
07240,1997-03-02 03:00:00,7,1024.3,-0.5,87,5,20000,7.408,,,230,,,,,,,,,,,wg-a,,,,AAXX 02034 07240 12/70 02304 10070 20050 30106 40243 56005 60006 80000 90300=
07240,1997-03-02 06:00:00,6,1025.2,0.8,93,5,15000,11.112,,,210,6.1,15,,,,,,,,,wg-a,,,,AAXX 02064 07240 02/65 52106 10060 20050 30114 40252 53008 60006 80002 90600 333 10150 20061 60004=
07240,1997-03-02 09:00:00,10,1026.6,1.7,93,9,7000,14.816,,,210,,,,,,,,,,,wg-a,,,,AAXX 02094 07240 12757 72108 10100 20090 30130 40266 51017 60006 81502 90900=
07240,1997-03-02 12:00:00,14,1027.1,0.7,72,9,500,29.632,,,240,,,,,,,,,,,wg-a,,,,AAXX 02124 07240 12500 82416 10140 20090 30137 40271 53007 60006 885// 91200=
07240,1997-03-02 15:00:00,14,1027.5,0.3,77,10,500,25.928,,,240,,,,,,,,,,,wg-a,,,,AAXX 02154 07240 12500 82414 10140 20100 30141 40275 53003 60006 881// 91500=
07240,1997-03-02 18:00:00,14,1028.6,1.1,77,10,500,18.52,,,230,6.1,14.6,,,,,,,,,wg-a,,,,AAXX 02184 07240 12600 82310 10140 20100 30152 40286 53011 60006 875// 91800 333 10146 20061=
07240,1997-03-02 21:00:00,13,1030.2,1.5,88,11,15000,14.816,,,230,,,,,,,,,,,wg-a,,,,AAXX 02214 07240 12465 82308 10130 20110 30167 40302 51015 60006 875// 92100=
07240,1997-03-03 00:00:00,12,1031.1,0.8,94,11,10000,14.816,,,230,,,,,,,,,,,wg-a,,,,AAXX 03004 07240 12360 82308 10120 20110 30176 40311 51008 60006 886// 90000=
07240,1997-03-03 03:00:00,12,1031.8,0.6,94,11,7000,14.816,,,230,,,,,,,,,,,wg-a,,,,AAXX 03034 07240 12257 82308 10120 20110 30182 40318 51006 60006 886// 90300=
07240,1997-03-03 06:00:00,12,1032.5,0.7,94,11,8000,14.816,,,220,11.5,14,,,,,,,,,wg-a,,,,AAXX 03064 07240 02358 82208 10120 20110 30189 40325 53007 60006 886// 90600 333 10140 20115 60004=
07240,1997-03-03 09:00:00,12,1033.6,1.1,88,10,10000,18.52,,,220,,,,,,,,,,,wg-a,,,,AAXX 03094 07240 12360 82210 10120 20100 30200 40336 53011 60006 886// 90900=
07240,1997-03-03 12:00:00,14,1033.3,-0.1,82,11,10000,14.816,,,200,,,,,,,,,,,wg-a,,,,AAXX 03124 07240 12460 62008 10140 20110 30199 40333 58001 60006 85801 91200=
07240,1997-03-03 15:00:00,16,1031.6,-1.6,68,10,10000,14.816,,,190,,,,,,,,,,,wg-a,,,,AAXX 03154 07240 12560 61908 10160 20100 30183 40316 56016 60006 85801 91500=
07240,1997-03-03 18:00:00,14,1031,-0.7,77,10,20000,14.816,,,180,11.4,16.5,,,,,,,,,wg-a,,,,AAXX 03184 07240 12/70 71808 10140 20100 30176 40310 56007 60006 84031 91800 333 10165 20114=
07240,1997-03-03 21:00:00,13,1030.3,-0.9,82,10,10000,11.112,,,170,,,,,,,,,,,wg-a,,,,AAXX 03214 07240 12/60 /1706 10130 20100 30168 40303 55009 60006 92100=
07240,1997-03-04 00:00:00,11,1029.3,-1,87,9,20000,11.112,,,150,,,,,,,,,,,wg-a,,,,AAXX 04004 07240 12770 71506 10110 20090 30157 40293 56010 60006 875// 90000=
07240,1997-03-04 03:00:00,10,1028.7,-0.6,93,9,20000,7.408,,,160,,,,,,,,,,,wg-a,,,,AAXX 04034 07240 12770 81604 10100 20090 30151 40287 58006 60006 875// 90300=
07240,1997-03-04 06:00:00,11,1027.7,-0.9,87,9,20000,11.112,,,160,10.2,14.3,,,,,,,,,wg-a,,,,AAXX 04064 07240 02770 71606 10110 20090 30142 40277 56009 60006 855/2 90600 333 10143 20102 60004=
07240,1997-03-04 09:00:00,13,1027.9,0.3,77,9,12000,7.408,,,150,,,,,,,,,,,wg-a,,,,AAXX 04094 07240 12762 81504 10130 20090 30144 40279 51003 60006 82572 90900=
07240,1997-03-04 12:00:00,15,1027.8,-0.2,72,10,12000,14.816,,,260,,,,,,,,,,,wg-a,,,,AAXX 04124 07240 12662 82608 10150 20100 30144 40278 57002 60006 8357/ 91200=
07240,1997-03-04 15:00:00,15,1026.3,-1.4,67,9,12000,7.408,,,180,,,,,,,,,,,wg-a,,,,AAXX 04154 07240 12662 81804 10150 20090 30130 40263 58014 60006 8352/ 91500=
07240,1997-03-04 18:00:00,14,1027.1,0.6,77,10,7000,14.816,,,240,10.9,15.4,,,,,,,,21,wg-a,,,,AAXX 04184 07240 02557 72408 10140 20100 30137 40271 51006 61000 72162 8552/ 91800 333 10154 20109 6000=
07240,1997-03-04 21:00:00,11,1027.4,0.2,87,9,10000,18.52,,,270,,,,0,,,,,,3,wg-a,,,,AAXX 04214 07240 12460 72710 10110 20090 30139 40274 50002 60007 70362 865// 92100=
07240,1997-03-05 00:00:00,8,1028.5,0.9,87,6,10000,14.816,,,250,,,,,,,,,,1,wg-a,,,,AAXX 05004 07240 12460 72508 10080 20060 30148 40285 51009 60016 70161 875// 90000=
07240,1997-03-05 03:00:00,9,1028.8,0.3,87,7,10000,18.52,,,260,,,,,,,,,,,wg-a,,,,AAXX 05034 07240 12460 72610 10090 20070 30151 40288 50003 60006 875// 90300=
07240,1997-03-05 06:00:00,8,1029.7,0.8,87,6,10000,14.816,,,270,7.7,13.8,,,,,1,,,,wg-a,,,,AAXX 05064 07240 02660 72708 10080 20060 30160 40297 51008 60006 875// 90600 333 10138 20077 60014=
07240,1997-03-05 09:00:00,9,1030.9,1.2,81,6,20000,14.816,,,260,,,,,,,,,,,wg-a,,,,AAXX 05094 07240 12570 72608 10090 20060 30172 40309 53012 60006 878// 90900=
07240,1997-03-05 12:00:00,10,1031.3,0.4,71,5,500,14.816,,,290,,,,,,,,,,,wg-a,,,,AAXX 05124 07240 12500 72908 10100 20050 30176 40313 52004 60006 878// 91200=
07240,1997-03-05 15:00:00,11,1030.7,-0.5,66,5,500,14.816,,,240,,,,,,,,,,,wg-a,,,,AAXX 05154 07240 12500 72408 10110 20050 30171 40307 57005 60006 878// 91500=
07240,1997-03-05 18:00:00,10,1030.4,-0.4,76,6,11000,14.816,,,230,8,10.8,,,,,,,,,wg-a,,,,AAXX 05184 07240 12/61 /2308 10100 20060 30168 40304 58004 60006 91800 333 10108 20080=
07240,1997-03-06 00:00:00,9,1030.2,-0.5,93,8,12000,11.112,,,220,,,,,,,,,,60,wg-a,,,,AAXX 06004 07240 12462 82206 10090 20080 30165 40302 57005 60016 76062 877// 90000=
07240,1997-03-06 03:00:00,9,1030.1,0,100,9,6000,11.112,,,240,,,,1,,,,,,21,wg-a,,,,AAXX 06034 07240 12156 82406 10090 20090 30165 40301 50000 60017 72162 877// 90300=
07240,1997-03-06 06:00:00,10,1030.6,0.5,93,9,4000,11.112,,,250,9.3,9.9,,,,,1,,,10,wg-a,,,,AAXX 06064 07240 02140 82506 10100 20090 30170 40306 52005 60006 71062 887// 90600 333 10099 20093 60014=
07240,1997-03-06 09:00:00,11,1031.6,1,94,10,6000,11.112,,,260,,,,,,,,,,,wg-a,,,,AAXX 06094 07240 12/56 /2606 10110 20100 30180 40316 53010 60006 90900=
07240,1997-03-06 12:00:00,12,1031.8,0.2,88,10,11000,3.704,,,260,,,,,,,,,,,wg-a,,,,AAXX 06124 07240 02/61 /2602 10120 20100 30183 40318 51002 61000 91200 333 ////=
07240,1997-03-06 15:00:00,12,1031.3,-0.5,88,10,10000,11.112,,,190,,,,,,,,,,,wg-a,,,,AAXX 06154 07240 12360 71906 10120 20100 30178 40313 58005 60006 878// 91500=
07240,1997-03-06 18:00:00,12,1031.4,0.1,82,9,10000,3.704,,,180,9.8,13.7,,,,,,,,,wg-a,,,,AAXX 06184 07240 12/60 /1802 10120 20090 30178 40314 53001 60006 91800 333 10137 20098=
07240,1997-03-07 00:00:00,8,1031.9,-0.4,100,8,15000,3.704,,,120,,,,,,,,,,,wg-a,,,,AAXX 07004 07240 12765 21202 10080 20080 30182 40319 58004 60006 82500 90000=
07240,1997-03-07 03:00:00,6,1031.3,-0.6,100,6,2000,3.704,,,20,,,,,,,,,,12,wg-a,,,,AAXX 07034 07240 12720 /0202 10060 20060 30175 40313 58006 60006 71211 85500 90300=
07240,1997-03-07 06:00:00,5,1031.1,-0.3,93,4,800,3.704,,,30,4.6,11.5,,,,,,,,41,wg-a,,,,AAXX 07064 07240 02408 20302 10050 20040 30172 40311 56003 60006 74141 82500 90600 333 10115 20046 60004=
07240,1997-03-07 09:00:00,11,1031.4,0.6,100,11,500,7.408,,,140,,,,,,,,,,40,wg-a,,,,AAXX 07094 07240 12400 41404 10110 20110 30178 40314 51006 60006 74041 83801 90900=
07240,1997-03-07 12:00:00,14,1030.5,-0.7,67,8,10000,7.408,,,90,,,,,,,,,,1,wg-a,,,,AAXX 07124 07240 12560 /0904 10140 20080 30171 40305 58007 60006 70141 81101 91200=
07240,1997-03-07 15:00:00,15,1028.8,-1.6,63,8,20000,11.112,,,60,,,,,,,,,,,wg-a,,,,AAXX 07154 07240 12670 40606 10150 20080 30154 40288 56016 60006 84101 91500=
07240,1997-03-07 18:00:00,13,1029.1,0.3,72,8,20000,11.112,,,50,4.4,15.8,,,,,,,,,wg-a,,,,AAXX 07184 07240 12770 10506 10130 20080 30156 40291 53003 60006 81501 91800 333 10158 20044=
07240,1997-03-07 21:00:00,10,1030.1,0.8,82,7,10000,11.112,,,60,,,,,,,,,,,wg-a,,,,AAXX 07214 07240 12/60 00606 10100 20070 30165 40301 52008 60006 80000 92100=
07240,1997-03-08 00:00:00,8,1030.6,0.4,87,6,10000,14.816,,,70,,,,,,,,,,,wg-a,,,,AAXX 08004 07240 12/60 00708 10080 20060 30169 40306 51004 60006 80000 90000=
07240,1997-03-08 06:00:00,5,1032.6,1.6,93,4,8000,7.408,,,30,3.8,13,,,,,,,,,wg-a,,,,AAXX 08064 07240 02/58 /0304 10050 20040 30187 40326 53016 60006 90600 333 10130 20038 60004=
07240,1997-03-08 09:00:00,10,1033.6,1.2,82,7,9000,11.112,,,70,,,,,,,,,,,wg-a,,,,AAXX 08094 07240 12/59 00706 10100 20070 30199 40336 51012 60006 80000 90900=
07240,1997-03-08 12:00:00,15,1033,-0.4,59,7,9000,14.816,,,70,,,,,,,,,,,wg-a,,,,AAXX 08124 07240 12/59 00708 10150 20070 30195 40330 58004 60006 80000 91200=
07240,1997-03-08 15:00:00,16,1031.9,-1,51,6,12000,11.112,,,70,,,,,,,,,,,wg-a,,,,AAXX 08154 07240 12/62 20706 10160 20060 30185 40319 57010 60006 80002 91500=
07240,1997-03-08 18:00:00,13,1032.2,0.2,67,7,15000,11.112,,,40,4.6,16.3,,,,,,,,,wg-a,,,,AAXX 08184 07240 12/65 60406 10130 20070 30187 40322 53002 60006 80002 91800 333 10163 20046=
07240,1997-03-08 21:00:00,9,1032.5,0.1,81,6,12000,11.112,,,70,,,,,,,,,,,wg-a,,,,AAXX 08214 07240 12/62 50706 10090 20060 30188 40325 50001 60006 80004 92100=
07240,1997-03-09 00:00:00,7,1032.5,-0.1,87,5,12000,11.112,,,50,,,,,,,,,,,wg-a,,,,AAXX 09004 07240 12/62 60506 10070 20050 30187 40325 58001 60006 80001 90000=
07240,1997-03-09 03:00:00,6,1031.8,-0.8,87,4,6000,11.112,,,50,,,,,,,,,,,wg-a,,,,AAXX 09034 07240 12/56 30506 10060 20040 30179 40318 58008 60006 80001 90300=
07240,1997-03-09 06:00:00,5,1031.6,-0.2,93,4,2500,18.52,,,70,4.9,13,,,,,,,,10,wg-a,,,,AAXX 09064 07240 02/25 /0710 10050 20040 30177 40316 56002 60006 71011 80001 90600 333 10130 20049 60004=
07240,1997-03-09 09:00:00,8,1032.2,0.7,87,6,7000,11.112,,,70,,,,,,,,,,,wg-a,,,,AAXX 09094 07240 12/57 20706 10080 20060 30184 40322 51007 60006 80001 90900=
07240,1997-03-09 12:00:00,14,1031.2,-0.5,72,9,10000,11.112,,,70,,,,,,,,,,,wg-a,,,,AAXX 09124 07240 12/60 20706 10140 20090 30178 40312 58005 60006 80001 91200=
07240,1997-03-09 18:00:00,15,1029.9,-0,55,6,12000,0,,,0,4.3,17.3,,,,,,,,,wg-a,,,,AAXX 09184 07240 12/62 10000 10150 20060 30165 40299 55000 60006 80002 91800 333 10173 20043=
07240,1997-03-09 21:00:00,9,1030.6,0.4,87,7,9000,7.408,,,70,,,,,,,,,,,wg-a,,,,AAXX 09214 07240 12/59 /0704 10090 20070 30169 40306 51004 60006 80002 92100=
07240,1997-03-10 00:00:00,8,1030.6,-0.1,81,5,8000,3.704,,,60,,,,,,,,,,,wg-a,,,,AAXX 10004 07240 12/58 00602 10080 20050 30168 40306 56001 60006 80000 90000=
07240,1997-03-10 03:00:00,6,1030.6,-0.1,93,5,6000,3.704,,,80,,,,,,,,,,,wg-a,,,,AAXX 10034 07240 12/56 00802 10060 20050 30167 40306 58001 60006 80000 90300=
07240,1997-03-10 06:00:00,4,1032,1.3,93,3,2800,7.408,,,90,3.5,14.4,,,,,,,,,wg-a,,,,AAXX 10064 07240 02/28 00904 10040 20030 30180 40320 51013 60006 80000 90600 333 10144 20035 60004=
07240,1997-03-10 09:00:00,11,1033.1,1.5,76,7,500,3.704,,,120,,,,,,,,,,,wg-a,,,,AAXX 10094 07240 12/00 01202 10110 20070 30195 40331 51015 60006 80000 90900=
07240,1997-03-10 12:00:00,17,1032.4,-0.4,52,7,10000,7.408,,,120,,,,,,,,,,,wg-a,,,,AAXX 10124 07240 12/60 01204 10170 20070 30191 40324 57004 60006 80000 91200=
07240,1997-03-10 15:00:00,19,1030.9,-1.4,46,7,15000,3.704,,,80,,,,,,,,,,,wg-a,,,,AAXX 10154 07240 12/65 00802 10190 20070 30177 40309 56014 60006 80000 91500=
07240,1997-03-10 18:00:00,14,1031.5,0.4,63,7,15000,11.112,,,50,3.3,19.8,,,,,,,,,wg-a,,,,AAXX 10184 07240 12/65 00506 10140 20070 30181 40315 53004 60006 80000 91800 333 10198 20033=
07240,1997-03-10 21:00:00,11,1032.1,0.4,71,6,12000,18.52,,,70,,,,,,,,,,,wg-a,,,,AAXX 10214 07240 12/62 00710 10110 20060 30185 40321 52004 60006 80000 92100=
07240,1997-03-11 00:00:00,9,1032,-0.2,76,5,10000,18.52,,,70,,,,,,,,,,,wg-a,,,,AAXX 11004 07240 12/60 00710 10090 20050 30183 40320 56002 60006 80000 90000=
07240,1997-03-11 03:00:00,7,1031.8,-0.3,81,4,10000,18.52,,,70,,,,,,,,,,,wg-a,,,,AAXX 11034 07240 12/60 00710 10070 20040 30180 40318 57003 60006 80000 90300=
07240,1997-03-11 06:00:00,5,1032.1,0.2,93,4,6000,14.816,,,70,5.2,14.4,,,,,,,,,wg-a,,,,AAXX 11064 07240 02/56 00708 10050 20040 30182 40321 52002 60006 80000 90600 333 10144 20052 60004=
07240,1997-03-11 09:00:00,10,1032.3,0.4,76,6,7000,14.816,,,70,,,,,,,,,,,wg-a,,,,AAXX 11094 07240 12/57 00708 10100 20060 30186 40323 53004 60006 80000 90900=
07240,1997-03-11 12:00:00,17,1031.4,-0.5,48,6,9000,18.52,,,80,,,,,,,,,,,wg-a,,,,AAXX 11124 07240 12/59 00810 10170 20060 30181 40314 58005 60006 80000 91200=
07240,1997-03-11 15:00:00,19,1029.7,-1.6,46,7,12000,11.112,,,60,,,,,,,,,,,wg-a,,,,AAXX 11154 07240 12/62 00606 10190 20070 30165 40297 56016 60006 80000 91500=
07240,1997-03-11 18:00:00,15,1029.4,-0.5,55,6,12000,11.112,,,40,5.2,18.7,,,,,,,,,wg-a,,,,AAXX 11184 07240 12/62 00406 10150 20060 30160 40294 55005 60006 80000 91800 333 10187 20052=
07240,1997-03-12 00:00:00,8,1030.2,-0.1,81,5,500,7.408,,,90,,,,,,,,,,,wg-a,,,,AAXX 12004 07240 12/00 00904 10080 20050 30165 40302 58001 60006 80000 90000=
07240,1997-03-12 03:00:00,6,1029.9,-0.3,87,4,500,3.704,,,30,,,,,,,,,,,wg-a,,,,AAXX 12034 07240 12/00 00302 10060 20040 30161 40299 55003 60006 80000 90300=
07240,1997-03-12 06:00:00,4,1030.5,0.3,87,2,3000,3.704,,,40,3.7,15.3,,,,,,,,,wg-a,,,,AAXX 12064 07240 02/30 00402 10040 20020 30165 40305 53003 60006 80000 90600 333 10153 20037 60004=
07240,1997-03-12 09:00:00,10,1031.3,1.2,82,7,3800,7.408,,,170,,,,,,,,,,10,wg-a,,,,AAXX 12094 07240 12/38 01704 10100 20070 30176 40313 51012 60006 71000 80000 90900=
07240,1997-03-12 12:00:00,18,1031.1,0.2,56,9,10000,3.704,,,240,,,,,,,,,,,wg-a,,,,AAXX 12124 07240 12/60 02402 10180 20090 30178 40311 50002 60006 80000 91200=
07240,1997-03-12 15:00:00,19,1030.1,-0.9,49,8,15000,18.52,,,320,,,,,,,,,,,wg-a,,,,AAXX 12154 07240 12/65 03210 10190 20080 30169 40301 56009 60006 80000 91500=
07240,1997-03-12 18:00:00,15,1030.6,0.3,59,7,12000,3.704,,,300,3.4,19.4,,,,,,,,,wg-a,,,,AAXX 12184 07240 12/62 53002 10150 20070 30172 40306 53003 60006 80001 91800 333 10194 20034=
07240,1997-03-12 21:00:00,11,1031.9,1.2,87,9,10000,18.52,,,320,,,,,,,,,,,wg-a,,,,AAXX 12214 07240 12/60 53210 10110 20090 30183 40319 52012 60006 80001 92100=
07240,1997-03-13 00:00:00,8,1032.7,0.6,93,7,8000,3.704,,,330,,,,,,,,,,,wg-a,,,,AAXX 13004 07240 12/58 33302 10080 20070 30189 40327 51006 60006 80001 90000=
07240,1997-03-13 03:00:00,5,1032.3,-0.5,93,4,4000,3.704,,,330,,,,,,,,,,,wg-a,,,,AAXX 13034 07240 12/40 /3302 10050 20040 30184 40323 58005 60006 90300=
07240,1997-03-13 06:00:00,2,1032.5,0.1,100,2,100,7.408,,,340,1.9,15.3,,,,,,,,,wg-a,,,,AAXX 13064 07240 02/01 /3404 10020 20020 30184 40325 53001 60006 90600 333 10153 20019 60004=
07240,1997-03-13 09:00:00,6,1032.8,0.5,93,5,2500,3.704,,,340,,,,0,,,,,,10,wg-a,,,,AAXX 13094 07240 12225 73402 10060 20050 30189 40328 52005 60007 71041 876// 90900=
07240,1997-03-13 12:00:00,7,1032.5,-0.2,100,7,500,7.408,,,50,,,,,,,,,,2,wg-a,,,,AAXX 13124 07240 12100 70504 10070 20070 30187 40325 58002 60006 70241 876// 91200=
07240,1997-03-13 15:00:00,9,1030.7,-1.7,87,7,7000,7.408,,,60,,,,,,,,,,,wg-a,,,,AAXX 13154 07240 12357 70604 10090 20070 30170 40307 58017 60006 876// 91500=
07240,1997-03-13 18:00:00,8,1029.9,-0.7,93,7,7000,3.704,,,60,1.9,8.8,,,,,,,,,wg-a,,,,AAXX 13184 07240 12357 70602 10080 20070 30162 40299 55007 60006 876// 91800 333 10088 20019=
07240,1997-03-13 21:00:00,7,1029.6,-0.4,93,6,2000,3.704,,,290,,,,,,,,,,10,wg-a,,,,AAXX 13214 07240 12220 82902 10070 20060 30158 40296 56004 60006 71022 886// 92100=
07240,1997-03-14 00:00:00,6,1028.6,-1,100,6,1500,3.704,,,270,,,,,,,,,,10,wg-a,,,,AAXX 14004 07240 12115 82702 10060 20060 30148 40286 58010 60006 71022 886// 90000=
07240,1997-03-14 06:00:00,7,1027.6,-0,93,6,2500,7.408,,,260,6.2,8.2,,,,,,,,10,wg-a,,,,AAXX 14064 07240 02125 82604 10070 20060 30139 40276 55000 60006 71022 886// 90600 333 10082 20062 60004=
07240,1997-03-14 09:00:00,8,1028,0.6,93,7,3000,11.112,,,250,,,,,,,,,,10,wg-a,,,,AAXX 14094 07240 12130 82506 10080 20070 30143 40280 50006 60006 71022 886// 90900=
07240,1997-03-14 12:00:00,11,1027,-0.8,87,9,6000,11.112,,,220,,,,,,,,,,,wg-a,,,,AAXX 14124 07240 12456 62206 10110 20090 30135 40270 58008 60006 85830 91200=
07240,1997-03-14 15:00:00,12,1026.2,-0.8,76,8,12000,18.52,,,290,,,,,,,,,,,wg-a,,,,AAXX 14154 07240 12562 72910 10120 20080 30127 40262 56008 60006 878// 91500=
07240,1997-03-14 18:00:00,12,1026.1,-0.2,82,9,15000,11.112,,,300,6.8,13.1,,,,,,,,,wg-a,,,,AAXX 14184 07240 12565 /3006 10120 20090 30126 40261 55002 60006 86800 91800 333 10131 20068=
07240,1997-03-14 21:00:00,8,1027.8,1.6,87,6,15000,11.112,,,290,,,,,,,,,,,wg-a,,,,AAXX 14214 07240 12/65 02906 10080 20060 30141 40278 51016 60006 80000 92100=
07240,1997-03-15 00:00:00,6,1028.3,0.3,87,4,12000,3.704,,,320,,,,,,,,,,,wg-a,,,,AAXX 15004 07240 12/62 03202 10060 20040 30145 40283 50003 60006 80000 90000=
07240,1997-03-15 06:00:00,7,1028.5,0.6,100,7,6000,3.704,,,240,3.9,11.9,,,,,,,,,wg-a,,,,AAXX 15064 07240 02156 82402 10070 20070 30147 40285 51006 60006 877// 90600 333 10119 20039 60004=
07240,1997-03-15 09:00:00,10,1029,0.7,93,9,2900,11.112,,,250,,,,,,,,,,10,wg-a,,,,AAXX 15094 07240 02129 82506 10100 20090 30154 40290 51007 61000 71052 887// 90900 333 ////=
07240,1997-03-15 12:00:00,12,1028.9,0,88,10,20000,14.816,,,320,,,,,,,,,,1,wg-a,,,,AAXX 15124 07240 02470 83208 10120 20100 30154 40289 50000 61000 70152 877// 91200 333 6100=
07240,1997-03-15 15:00:00,13,1028.7,-0.3,77,9,20000,18.52,,,310,,,,,,,,,,,wg-a,,,,AAXX 15154 07240 12570 83110 10130 20090 30152 40287 57003 60006 878// 91500=
07240,1997-03-15 18:00:00,12,1028.8,0.1,76,8,11000,14.816,,,290,6.8,13.2,,,,,,,,,wg-a,,,,AAXX 15184 07240 12/61 /2908 10120 20080 30153 40288 53001 60006 91800 333 10132 20068=
07240,1997-03-15 21:00:00,11,1030.3,1.5,71,6,15000,11.112,,,320,,,,,,,,,,,wg-a,,,,AAXX 15214 07240 12665 83206 10110 20060 30167 40303 51015 60006 875// 92100=
07240,1997-03-16 00:00:00,8,1030.7,0.2,87,6,15000,11.112,,,310,,,,,,,,,,,wg-a,,,,AAXX 16004 07240 12665 73106 10080 20060 30169 40307 50002 60006 855// 90000=
07240,1997-03-16 03:00:00,8,1030.1,-0.5,93,7,15000,7.408,,,290,,,,,,,,,,,wg-a,,,,AAXX 16034 07240 12665 72904 10080 20070 30164 40301 57005 60006 875// 90300=
07240,1997-03-16 06:00:00,8,1030.7,0.6,93,7,10000,3.704,,,270,7.4,11.9,,,,,,,,,wg-a,,,,AAXX 16064 07240 02660 72702 10080 20070 30170 40307 53006 60006 875// 90600 333 10119 20074 61000=
07240,1997-03-16 12:00:00,14,1030.4,-0.7,67,8,500,7.408,,,40,,,,,,,,,,,wg-a,,,,AAXX 16124 07240 12500 /0404 10140 20080 30170 40304 58007 60006 86800 91200=
07240,1997-03-16 18:00:00,14,1029,0.1,72,9,500,11.112,,,30,7.9,16.3,,,,,,,,,wg-a,,,,AAXX 16184 07240 12500 /0306 10140 20090 30156 40290 53001 60006 86600 91800 333 10163 20079=
07240,1997-03-16 21:00:00,10,1028.9,-0.3,82,7,10000,3.704,,,20,,,,,,,,,,,wg-a,,,,AAXX 16214 07240 12/60 /0202 10100 20070 30153 40289 58003 60006 92100=
07240,1997-03-17 00:00:00,7,1029.3,0.2,93,6,15000,7.408,,,10,,,,,,,,,,,wg-a,,,,AAXX 17004 07240 12/65 20104 10070 20060 30155 40293 53002 60006 80001 90000=
07240,1997-03-17 03:00:00,9,1028.7,-0.5,100,9,1300,11.112,,,30,,,,,,,,,,10,wg-a,,,,AAXX 17034 07240 12113 80306 10090 20090 30150 40287 58005 60006 71041 886// 90300=
07240,1997-03-17 06:00:00,8,1029.3,0.6,100,8,6000,14.816,,,70,5.3,13.8,,,,,,,,3,wg-a,,,,AAXX 17064 07240 02256 80708 10080 20080 30156 40293 53006 60006 70341 886// 90600 333 10138 20053 60004=
07240,1997-03-17 09:00:00,8,1029.7,0.4,93,7,7000,14.816,,,60,,,,,,,,,,,wg-a,,,,AAXX 17094 07240 12357 80608 10080 20070 30160 40297 50004 60006 886// 90900=
07240,1997-03-17 12:00:00,12,1028.8,-0.7,76,8,8000,11.112,,,100,,,,,,,,,,,wg-a,,,,AAXX 17124 07240 12458 /1006 10120 20080 30153 40288 56007 60006 86500 91200=
07240,1997-03-17 15:00:00,14,1026.6,-2.1,67,8,12000,7.408,,,60,,,,,,,,,,,wg-a,,,,AAXX 17154 07240 12/62 10604 10140 20080 30132 40266 56021 60006 80001 91500=
07240,1997-03-17 18:00:00,14,1025.4,-1.2,67,8,15000,0,,,0,8.1,15.1,,,,,,,,,wg-a,,,,AAXX 17184 07240 12/65 20000 10140 20080 30120 40254 56012 60006 80001 91800 333 10151 20081=
07240,1997-03-17 21:00:00,9,1024.9,-0.7,87,7,10000,3.704,,,10,,,,,,,,,,,wg-a,,,,AAXX 17214 07240 12/60 00102 10090 20070 30113 40249 56007 60006 80000 92100=
07240,1997-03-18 00:00:00,6,1023.8,-1.2,93,5,10000,3.704,,,340,,,,,,,,,,,wg-a,,,,AAXX 18004 07240 12/60 03402 10060 20050 30101 40238 57012 60006 80000 90000=
07240,1997-03-18 06:00:00,7,1021,-0.5,100,7,800,14.816,,,280,3.9,13.6,,,,,,,,45,wg-a,,,,AAXX 18064 07240 02/08 92808 10070 20070 30073 40210 55005 60006 74541 89/// 90600 333 10136 20039 60004=
07240,1997-03-18 09:00:00,7,1021.3,0.5,100,7,500,14.816,,,290,,,,,,,,,,3,wg-a,,,,AAXX 18094 07240 12200 82908 10070 20070 30077 40213 53005 60006 70342 886// 90900=
07240,1997-03-18 12:00:00,9,1020.8,-0.5,87,7,10000,18.52,,,270,,,,,,,,,,1,wg-a,,,,AAXX 18124 07240 12360 82710 10090 20070 30072 40208 55005 60006 70142 885// 91200=
07240,1997-03-18 15:00:00,12,1017.6,-3,82,9,10000,18.52,,,230,,,,,,,,,,,wg-a,,,,AAXX 18154 07240 12460 72310 10120 20090 30042 40176 56030 60006 875// 91500=
07240,1997-03-18 18:00:00,13,1015.3,-2.3,72,8,12000,31.484,,,240,6.9,13.8,,,,,,,,,wg-a,,,,AAXX 18184 07240 12662 82417 10130 20080 30020 40153 56023 60006 888// 91800 333 10138 20069=
07240,1997-03-18 21:00:00,8,1016.6,1.2,87,6,12000,14.816,,,290,,,,1,,,,,,1,wg-a,,,,AAXX 18214 07240 12762 22908 10080 20060 30031 40166 51012 60017 70186 82500 92100=
07240,1997-03-19 00:00:00,7,1016.6,-0.2,87,5,10000,18.52,,,290,,,,,,,,,,,wg-a,,,,AAXX 19004 07240 12/60 /2910 10070 20050 30030 40166 58002 60016 90000=
07240,1997-03-19 06:00:00,6,1014.7,-0.5,87,4,15000,22.224,,,260,5.7,12.4,,,,,1,,,,wg-a,,,,AAXX 19064 07240 02465 52612 10060 20040 30011 40147 56005 60006 85500 90600 333 10124 20057 60014=
07240,1997-03-19 09:00:00,8,1015.3,0.7,81,5,8000,25.928,,,280,,,,,,,,,,80,wg-a,,,,AAXX 19094 07240 02458 72814 10080 20050 30017 40153 51007 61000 78086 85830 90900 333 ////=
07240,1997-03-19 12:00:00,9,1015.2,-0,81,6,12000,31.484,,50.004,290,,,,0,,,,,,60,wg-a,,,,AAXX 19124 07240 02462 72917 10090 20060 30017 40152 55000 60016 76062 8557/ 91200 333 60007 91027=
07240,1997-03-19 15:00:00,9,1015.6,0.4,76,5,500,31.484,,,300,,,,0,,,,,,2,wg-a,,,,AAXX 19154 07240 12500 73017 10090 20050 30021 40156 52004 60007 70262 8587/ 91500=
07240,1997-03-19 18:00:00,9,1017.2,1.6,76,5,500,18.52,,,310,5.8,9.9,,,,,,,,1,wg-a,,,,AAXX 19184 07240 12600 53110 10090 20050 30037 40172 53016 60006 70162 84530 91800 333 10099 20058=
07240,1997-03-19 21:00:00,7,1019.3,2,87,5,500,14.816,,,300,,,,,,,,,,,wg-a,,,,AAXX 19214 07240 12700 73008 10070 20050 30057 40193 51020 60006 875// 92100=
07240,1997-03-20 00:00:00,5,1020.5,1,93,4,20000,11.112,,,300,,,,,,,,,,,wg-a,,,,AAXX 20004 07240 12770 73006 10050 20040 30067 40205 52010 60006 875// 90000=
07240,1997-03-20 03:00:00,3,1021.1,0.5,93,2,20000,11.112,,,310,,,,,,,,,,,wg-a,,,,AAXX 20034 07240 12/70 03106 10030 20020 30072 40211 53005 60006 80000 90300=
07240,1997-03-20 06:00:00,2,1021.3,0.3,93,1,500,7.408,,,320,1.7,8.6,,,,,1,,,11,wg-a,,,,AAXX 20064 07240 02700 23204 10020 20010 30074 40213 53003 60006 71111 82500 90600 333 10086 20017 60014=
07240,1997-03-20 09:00:00,7,1022.2,1,93,6,10000,3.704,,,350,,,,,,,,,,3,wg-a,,,,AAXX 20094 07240 12/60 13502 10070 20060 30085 40222 51010 60006 70340 81030 90900=
07240,1997-03-20 12:00:00,11,1021.9,-0.1,62,4,20000,11.112,,,340,,,,,,,,,,3,wg-a,,,,AAXX 20124 07240 12570 43406 10110 20040 30084 40219 58001 60006 70340 84200 91200=
07240,1997-03-20 15:00:00,13,1020.8,-1.1,47,2,11000,14.816,,,340,,,,,,,,,,,wg-a,,,,AAXX 20154 07240 32/61 /3408 10130 20020 30074 40208 56011 91500=
07240,1997-03-20 18:00:00,11,1021,0.1,58,3,500,7.408,,,330,1.4,13.2,,,,,,,,,wg-a,,,,AAXX 20184 07240 12600 23304 10110 20030 30075 40210 53001 60006 81401 91800 333 10132 20014=
07240,1997-03-20 21:00:00,7,1022,0.8,70,2,500,7.408,,,10,,,,,,,,,,,wg-a,,,,AAXX 20214 07240 12/00 10104 10070 20020 30083 40220 51008 60006 80001 92100=
07240,1997-03-21 00:00:00,5,1022.3,0.2,75,1,15000,3.704,,,50,,,,,,,,,,,wg-a,,,,AAXX 21004 07240 12/65 00502 10050 20010 30085 40223 50002 60006 80000 90000=
07240,1997-03-21 03:00:00,1,1022.2,-0.3,86,-1,12000,7.408,,,10,,,,,,,,,,,wg-a,,,,AAXX 21034 07240 12/62 00104 10010 21010 30082 40222 55003 60006 80000 90300=
07240,1997-03-21 06:00:00,1,1022.8,0.6,93,0,15000,7.408,,,10,0.2,10.6,,,,,,,,,wg-a,,,,AAXX 21064 07240 02/65 10104 10010 20000 30088 40228 52006 60006 81031 90600 333 10106 20002 60004=
07240,1997-03-21 09:00:00,7,1023.5,1,76,3,20000,3.704,,,310,,,,,,,,,,,wg-a,,,,AAXX 21094 07240 12/70 63102 10070 20030 30098 40235 53010 60006 85032 90900=
07240,1997-03-21 12:00:00,13,1023.1,-0.1,54,4,500,7.408,,,340,,,,,,,,,,,wg-a,,,,AAXX 21124 07240 12/00 43404 10130 20040 30097 40231 58001 60006 82032 91200=
07240,1997-03-21 15:00:00,14,1022.6,-0.4,55,5,500,14.816,,,20,,,,,,,,,,,wg-a,,,,AAXX 21154 07240 12600 /0208 10140 20050 30092 40226 56004 60006 85202 91500=
07240,1997-03-21 18:00:00,11,1023.4,0.7,76,7,10000,18.52,,,60,1,14.5,,,,,,,,,wg-a,,,,AAXX 21184 07240 12660 70610 10110 20070 30099 40234 53007 60006 875// 91800 333 10145 20010=
07240,1997-03-21 21:00:00,8,1025,1.3,87,6,8000,14.816,,,60,,,,,,,,,,,wg-a,,,,AAXX 21214 07240 12/58 30608 10080 20060 30113 40250 52013 60006 83030 92100=
07240,1997-03-22 00:00:00,5,1025.7,0.6,87,3,10000,14.816,,,70,,,,,,,,,,,wg-a,,,,AAXX 22004 07240 12/60 00708 10050 20030 30119 40257 51006 60006 80000 90000=
07240,1997-03-22 06:00:00,1,1026.5,0.4,93,0,10000,11.112,,,50,1.3,11.3,,,,,,,,,wg-a,,,,AAXX 22064 07240 02/60 20506 10010 20000 30125 40265 53004 60006 80001 90600 333 10113 20013 60004=
07240,1997-03-22 09:00:00,6,1027,0.6,75,2,10000,18.52,,,70,,,,,,,,,,,wg-a,,,,AAXX 22094 07240 12/60 50710 10060 20020 30132 40270 51006 60006 80001 90900=
07240,1997-03-22 12:00:00,11,1026.1,-0.8,50,1,12000,18.52,,,90,,,,,,,,,,,wg-a,,,,AAXX 22124 07240 12/62 60910 10110 20010 30125 40261 57008 60006 80002 91200=
07240,1997-03-22 15:00:00,12,1024.3,-1.7,54,3,15000,14.816,,,50,,,,,,,,,,,wg-a,,,,AAXX 22154 07240 12/65 60508 10120 20030 30108 40243 56017 60006 80002 91500=
07240,1997-03-22 18:00:00,10,1023.3,-1,53,1,15000,11.112,,,40,1.3,12.1,,,,,,,,,wg-a,,,,AAXX 22184 07240 12/65 30406 10100 20010 30098 40233 55010 60006 80002 91800 333 10121 20013=
07240,1997-03-22 21:00:00,6,1023.1,-0.4,70,1,15000,11.112,,,60,,,,,,,,,,,wg-a,,,,AAXX 22214 07240 12/65 00606 10060 20010 30094 40231 56004 60006 80000 92100=
07240,1997-03-23 00:00:00,3,1021.9,-1.4,81,0,15000,7.408,,,100,,,,,,,,,,,wg-a,,,,AAXX 23004 07240 12/65 01004 10030 20000 30080 40219 58014 60006 80000 90000=
07240,1997-03-23 03:00:00,2,1019.5,-2.4,87,0,0,7.408,,,140,,,,,,,,,,,wg-a,,,,AAXX 23034 07240 12/// /1404 10020 20000 30056 40195 58024 60006 90300=
07240,1997-03-23 06:00:00,1,1018.5,-1,93,0,10000,3.704,,,280,0.8,10,,,,,,,,,wg-a,,,,AAXX 23064 07240 02/60 82802 10010 20000 30046 40185 58010 60006 8707/ 90600 333 10100 20008 60004=
07240,1997-03-23 09:00:00,7,1017,-1.2,70,2,15000,18.52,,,240,,,,,,,,,,,wg-a,,,,AAXX 23094 07240 12/65 72410 10070 20020 30034 40170 55012 60006 8707/ 90900=
07240,1997-03-23 12:00:00,13,1015.4,-1.3,54,4,20000,25.928,,,280,,,,,,,,,,,wg-a,,,,AAXX 23124 07240 12/70 52814 10130 20040 30021 40154 58013 60006 85030 91200=
07240,1997-03-23 15:00:00,13,1013.8,-1.7,67,7,11000,25.928,,,280,,,,,,,,,,,wg-a,,,,AAXX 23154 07240 12/61 /2814 10130 20070 30005 40138 56017 60006 91500=
07240,1997-03-23 18:00:00,12,1013,-0.7,71,7,500,18.52,,,270,0.8,13.7,,,,,,,,,wg-a,,,,AAXX 23184 07240 12600 52710 10120 20070 39997 40130 55007 60006 84802 91800 333 10137 20008=
07240,1997-03-23 21:00:00,8,1014.3,1.1,76,4,15000,18.52,,,310,,,,,,,,,,,wg-a,,,,AAXX 23214 07240 12565 43110 10080 20040 30008 40143 51011 60006 84500 92100=
07240,1997-03-24 00:00:00,5,1014.3,-0.2,87,3,15000,11.112,,,290,,,,,,,,,,,wg-a,,,,AAXX 24004 07240 12/65 52906 10050 20030 30006 40143 58002 60006 80001 90000=
07240,1997-03-24 03:00:00,5,1013.9,-0.4,87,3,15000,11.112,,,300,,,,,,,,,,,wg-a,,,,AAXX 24034 07240 12665 73006 10050 20030 30002 40139 58004 60006 875// 90300=
07240,1997-03-24 06:00:00,4,1013.9,-0,93,3,15000,7.408,,,270,3.7,11.8,,,,,,,,,wg-a,,,,AAXX 24064 07240 02665 /2704 10040 20030 30002 40139 55000 60006 85530 90600 333 10118 20037 60004=
07240,1997-03-24 09:00:00,9,1013.8,0.1,81,6,15000,7.408,,,280,,,,,,,,,,,wg-a,,,,AAXX 24094 07240 12565 42804 10090 20060 30003 40138 53001 60006 83132 90900=
07240,1997-03-24 12:00:00,10,1013,-0.7,71,5,20000,14.816,,,240,,,,,,,,,,,wg-a,,,,AAXX 24124 07240 12570 72408 10100 20050 39996 40130 56007 60006 878// 91200=
07240,1997-03-24 15:00:00,9,1011.6,-1.4,87,7,12000,11.112,,,230,,,,0,,,,,,61,wg-a,,,,AAXX 24154 07240 12462 72306 10090 20070 39982 40116 56014 60007 76162 878// 91500=
07240,1997-03-24 18:00:00,8,1011.8,0.2,93,7,8000,3.704,,,300,3.8,10.3,,,,,,,,61,wg-a,,,,AAXX 24184 07240 02458 83002 10080 20070 39983 40118 53002 61000 76162 8457/ 91800 333 10103 20038 6000=
07240,1997-03-24 21:00:00,8,1013.2,1.4,93,7,7000,3.704,,,340,,,,1,,,,,,21,wg-a,,,,AAXX 24214 07240 12457 73402 10080 20070 39997 40132 51014 60017 72162 875// 92100=
07240,1997-03-25 00:00:00,7,1014,0.8,100,7,900,3.704,,,280,,,,,,,,,,,wg-a,,,,AAXX 25004 07240 12/09 /2802 10070 20070 30005 40140 53008 60016 90000=
07240,1997-03-25 03:00:00,8,1015.3,1.3,93,7,2000,3.704,,,300,,,,,,,,,,10,wg-a,,,,AAXX 25034 07240 12220 83002 10080 20070 30018 40153 52013 60006 71042 886// 90300=
07240,1997-03-25 06:00:00,8,1017.1,1.7,93,7,3500,7.408,,,290,6.8,8.4,,,,,1,,,10,wg-a,,,,AAXX 25064 07240 02635 72904 10080 20070 30035 40171 51017 60006 71042 875// 90600 333 10084 20068 60014=
07240,1997-03-25 09:00:00,10,1018.5,1.5,87,8,10000,11.112,,,350,,,,,,,,,,,wg-a,,,,AAXX 25094 07240 12560 /3506 10100 20080 30050 40185 51015 60006 85800 90900=
07240,1997-03-25 12:00:00,13,1018.9,0.5,67,7,15000,14.816,,,330,,,,,,,,,,,wg-a,,,,AAXX 25124 07240 12565 /3308 10130 20070 30055 40189 50005 60006 85200 91200=
07240,1997-03-25 15:00:00,14,1019,0.2,55,5,20000,22.224,,,340,,,,,,,,,,,wg-a,,,,AAXX 25154 07240 12670 63412 10140 20050 30057 40190 53002 60006 86830 91500=
07240,1997-03-25 18:00:00,12,1020.3,1.2,54,3,500,11.112,,,350,7.7,14.8,,,,,,,,,wg-a,,,,AAXX 25184 07240 12700 43506 10120 20030 30069 40203 53012 60006 84532 91800 333 10148 20077=
07240,1997-03-25 21:00:00,8,1021.9,1.4,71,3,15000,3.704,,,350,,,,,,,,,,,wg-a,,,,AAXX 25214 07240 12/65 43502 10080 20030 30083 40219 51014 60006 83031 92100=
07240,1997-03-26 00:00:00,5,1022.5,0.4,87,3,15000,3.704,,,320,,,,,,,,,,,wg-a,,,,AAXX 26004 07240 12/65 33202 10050 20030 30087 40225 50004 60006 80001 90000=
07240,1997-03-26 03:00:00,5,1021.8,-0.8,87,3,15000,7.408,,,180,,,,,,,,,,,wg-a,,,,AAXX 26034 07240 12/65 31804 10050 20030 30080 40218 58008 60006 80001 90300=
07240,1997-03-26 06:00:00,6,1022.4,0.7,87,4,15000,7.408,,,140,3.6,11.7,,,,,,,,,wg-a,,,,AAXX 26064 07240 02765 71404 10060 20040 30087 40224 50007 60006 8557/ 90600 333 10117 20036 60004=
07240,1997-03-26 12:00:00,14,1022.9,-0,63,7,20000,22.224,,,250,,,,,,,,,,,wg-a,,,,AAXX 26124 07240 12570 82512 10140 20070 30096 40229 55000 60006 8117/ 91200=
07240,1997-03-26 18:00:00,14,1022.5,0.3,63,7,25000,22.224,,,260,5.4,15.7,,,,,,,,,wg-a,,,,AAXX 26184 07240 12675 72612 10140 20070 30091 40225 53003 60006 8257/ 91800 333 10157 20054=
07240,1997-03-27 00:00:00,11,1024.1,0.5,82,8,20000,18.52,,,240,,,,,,,,,,,wg-a,,,,AAXX 27004 07240 12470 82410 10110 20080 30106 40241 50005 60006 875// 90000=
07240,1997-03-27 03:00:00,10,1024.1,-0.1,93,9,12000,11.112,,,250,,,,,,,,,,,wg-a,,,,AAXX 27034 07240 12262 82506 10100 20090 30106 40241 58001 60006 876// 90300=
07240,1997-03-27 06:00:00,10,1024.8,0.7,100,10,2500,7.408,,,230,10,13.6,,,,,,,,50,wg-a,,,,AAXX 27064 07240 02125 82304 10100 20100 30113 40248 52007 61000 75052 886// 90600 333 10136 20100 6100=
07240,1997-03-27 09:00:00,11,1025.5,0.7,100,11,500,11.112,,,250,,,,,,,,,,,wg-a,,,,AAXX 27094 07240 32/00 /2506 10110 20110 30120 40255 51007 90900=
07240,1997-03-27 12:00:00,14,1024.7,-0.7,88,12,11000,11.112,,,240,,,,,,,,,,,wg-a,,,,AAXX 27124 07240 02/61 /2406 10140 20120 30113 40247 58007 61000 91200 333 ////=
07240,1997-03-27 15:00:00,15,1023.5,-1.1,82,12,15000,18.52,,,240,,,,,,,,,,,wg-a,,,,AAXX 27154 07240 12465 72410 10150 20120 30102 40235 58011 60006 878// 91500=
07240,1997-03-27 18:00:00,15,1023,-0.5,82,12,25000,14.816,,,260,10.2,15.2,,,,,,,,,wg-a,,,,AAXX 27184 07240 12575 72608 10150 20120 30097 40230 56005 60006 875// 91800 333 10152 20102=
07240,1997-03-27 21:00:00,14,1022.9,-0.2,82,11,20000,18.52,,,280,,,,,,,,,,,wg-a,,,,AAXX 27214 07240 12470 82810 10140 20110 30096 40229 55002 60006 875// 92100=
07240,1997-03-28 00:00:00,12,1021.6,-1.3,94,11,12000,18.52,,,270,,,,,,,,,,,wg-a,,,,AAXX 28004 07240 12362 82710 10120 20110 30082 40216 57013 60006 875// 90000=
07240,1997-03-28 03:00:00,12,1020.2,-1.3,88,10,12000,18.52,,,270,,,,,,,,,,,wg-a,,,,AAXX 28034 07240 12462 82710 10120 20100 30068 40202 58013 60006 875// 90300=
07240,1997-03-28 06:00:00,10,1021.9,1.5,82,7,25000,22.224,,,330,10.2,14.7,,,,,,,,,wg-a,,,,AAXX 28064 07240 02475 /3312 10100 20070 30084 40219 53015 60006 84801 90600 333 10147 20102 61000=
07240,1997-03-28 09:00:00,10,1024,2.1,62,3,500,22.224,,,360,,,,,,,,,,,wg-a,,,,AAXX 28094 07240 12500 33612 10100 20030 30105 40240 52021 60006 82201 90900=
07240,1997-03-28 12:00:00,12,1024.8,0.8,47,1,35000,29.632,,,340,,,,,,,,,,,wg-a,,,,AAXX 28124 07240 12681 33416 10120 20010 30113 40248 51008 60006 83100 91200=
07240,1997-03-28 15:00:00,13,1024.9,-0.1,38,-1,35000,25.928,,,350,,,,,,,,,,,wg-a,,,,AAXX 28154 07240 12781 33514 10130 21010 30114 40249 56001 60006 83200 91500=
07240,1997-03-28 18:00:00,10,1025.4,0.6,43,-2,35000,22.224,,,350,9.2,12.9,,,,,,,,,wg-a,,,,AAXX 28184 07240 12781 13512 10100 21020 30118 40254 53006 60006 81100 91800 333 10129 20092=
07240,1997-03-28 21:00:00,6,1027.4,1.9,61,-1,20000,14.816,,,350,,,,,,,,,,,wg-a,,,,AAXX 28214 07240 12/70 13508 10060 21010 30136 40274 51019 60006 80001 92100=
07240,1997-03-29 00:00:00,2,1027.7,-0,87,0,10000,7.408,,,330,,,,,,,,,,,wg-a,,,,AAXX 29004 07240 12/60 /3304 10020 20000 30137 40277 54000 60006 90000=
07240,1997-03-29 03:00:00,1,1027.4,-0.3,86,-1,20000,11.112,,,310,,,,,,,,,,,wg-a,,,,AAXX 29034 07240 12/70 03106 10010 21010 30134 40274 55003 60006 80000 90300=
07240,1997-03-29 06:00:00,0,1028.2,0.6,93,-1,20000,11.112,,,330,0.3,9.9,,,,,,,,,wg-a,,,,AAXX 29064 07240 02/70 13306 10000 21010 30141 40282 53006 60006 81031 90600 333 10099 20003 60004=
07240,1997-03-29 09:00:00,8,1027.9,0.2,61,1,500,18.52,,,30,,,,,,,,,,,wg-a,,,,AAXX 29094 07240 12500 /0310 10080 20010 30142 40279 51002 60006 81100 90900=
07240,1997-03-29 12:00:00,11,1027.4,-0.4,54,2,500,18.52,,,350,,,,,,,,,,,wg-a,,,,AAXX 29124 07240 12600 43510 10110 20020 30138 40274 58004 60006 84100 91200=
07240,1997-03-29 15:00:00,11,1025.9,-1.4,50,1,11000,14.816,,,350,,,,,,,,,,,wg-a,,,,AAXX 29154 07240 12/61 /3508 10110 20010 30124 40259 58014 60006 91500=
07240,1997-03-29 18:00:00,10,1026,-0,57,2,500,11.112,,,40,0.3,11.7,,,,,,,,,wg-a,,,,AAXX 29184 07240 12600 /0406 10100 20020 30124 40260 55000 60006 85800 91800 333 10117 20003=
07240,1997-03-29 21:00:00,7,1026.8,0.7,70,2,25000,11.112,,,30,,,,,,,,,,,wg-a,,,,AAXX 29214 07240 12775 10306 10070 20020 30131 40268 53007 60006 81500 92100=
07240,1997-03-30 00:00:00,6,1027.1,0.2,70,1,25000,14.816,,,30,,,,,,,,,,,wg-a,,,,AAXX 30004 07240 12/75 00308 10060 20010 30133 40271 53002 60006 80000 90000=
07240,1997-03-30 03:00:00,4,1027.3,0.1,81,1,20000,14.816,,,60,,,,,,,,,,,wg-a,,,,AAXX 30034 07240 12/70 00608 10040 20010 30134 40273 50001 60006 80000 90300=
07240,1997-03-30 06:00:00,2,1027.9,0.5,93,1,15000,11.112,,,60,1.6,10.4,,,,,,,,,wg-a,,,,AAXX 30064 07240 02/65 10606 10020 20010 30139 40279 53005 60006 80001 90600 333 10104 20016 60004=
07240,1997-03-30 09:00:00,9,1028.3,0.8,71,4,20000,18.52,,,80,,,,,,,,,,,wg-a,,,,AAXX 30094 07240 12/70 20810 10090 20040 30146 40283 51008 60006 80001 90900=
07240,1997-03-30 12:00:00,13,1027.5,-0.6,54,4,500,18.52,,,70,,,,,,,,,,,wg-a,,,,AAXX 30124 07240 12600 20710 10130 20040 30140 40275 58006 60006 82101 91200=
07240,1997-03-30 15:00:00,14,1026,-1.5,47,3,500,22.224,,,60,,,,,,,,,,,wg-a,,,,AAXX 30154 07240 12700 20612 10140 20030 30126 40260 56015 60006 82400 91500=
07240,1997-03-30 18:00:00,12,1026,-0.1,54,3,500,14.816,,,50,2,14.2,,,,,,,,,wg-a,,,,AAXX 30184 07240 12700 10508 10120 20030 30125 40260 57001 60006 81400 91800 333 10142 20020=
07240,1997-03-30 21:00:00,7,1026.2,0.1,76,3,20000,11.112,,,60,,,,,,,,,,,wg-a,,,,AAXX 30214 07240 12/70 00606 10070 20030 30125 40262 53001 60006 80000 92100=
07240,1997-03-31 00:00:00,6,1026.5,0.1,75,2,20000,14.816,,,50,,,,,,,,,,,wg-a,,,,AAXX 31004 07240 12/70 00508 10060 20020 30127 40265 52001 60006 80000 90000=
07240,1997-03-31 06:00:00,3,1025.5,-0.1,87,1,12000,14.816,,,60,3,11.4,,,,,,,,,wg-a,,,,AAXX 31064 07240 02/62 00608 10030 20010 30116 40255 55001 60006 80000 90600 333 10114 20030 60004=
07240,1997-03-31 09:00:00,10,1025.9,0.7,62,3,15000,18.52,,,70,,,,,,,,,,,wg-a,,,,AAXX 31094 07240 12/65 00710 10100 20030 30123 40259 51007 60006 80000 90900=
07240,1997-03-31 12:00:00,14,1024.1,-1.5,51,4,10000,22.224,,,60,,,,,,,,,,,wg-a,,,,AAXX 31124 07240 12/60 /0612 10140 20040 30108 40241 58015 60006 91200=
07240,1997-03-31 15:00:00,16,1022.1,-1.9,42,3,500,18.52,,,60,,,,,,,,,,,wg-a,,,,AAXX 31154 07240 12/00 00610 10160 20030 30089 40221 56019 60006 80000 91500=
07240,1997-03-31 18:00:00,15,1021.7,-0.4,48,4,500,18.52,,,50,3.1,16.5,,,,,,,,,wg-a,,,,AAXX 31184 07240 12/00 00510 10150 20040 30084 40217 56004 60006 80000 91800 333 10165 20031=
07240,1997-03-31 21:00:00,9,1022.3,0.4,71,4,10000,14.816,,,60,,,,,,,,,,,wg-a,,,,AAXX 31214 07240 12/60 /0608 10090 20040 30087 40223 52004 60006 92100=
07240,1997-04-01 00:00:00,9,1022.2,-0.1,71,4,20000,14.816,,,40,,,,,,,,,,,wg-a,,,,AAXX 01004 07240 12/70 00408 10090 20040 30086 40222 56001 60006 80000 90000=
07240,1997-04-01 03:00:00,6,1021,-1.3,81,3,20000,7.408,,,70,,,,,,,,,,,wg-a,,,,AAXX 01034 07240 12/70 00704 10060 20030 30073 40210 56013 60006 80000 90300=
07240,1997-04-01 06:00:00,5,1021.8,0.8,87,3,15000,11.112,,,50,4.2,14.8,,,,,,,,,wg-a,,,,AAXX 01064 07240 02/65 00506 10050 20030 30080 40218 53008 60006 80000 90600 333 10148 20042 60004=
07240,1997-04-01 09:00:00,12,1022.2,0.7,71,7,18000,11.112,,,90,,,,,,,,,,,wg-a,,,,AAXX 01094 07240 12/68 00906 10120 20070 30088 40222 51007 60006 80000 90900=
07240,1997-04-01 12:00:00,18,1021.2,-0.7,49,7,25000,22.224,,,70,,,,,,,,,,,wg-a,,,,AAXX 01124 07240 12/75 00712 10180 20070 30081 40212 57007 60006 80000 91200=
07240,1997-04-01 15:00:00,20,1019.5,-1.7,37,5,500,18.52,,,50,,,,,,,,,,,wg-a,,,,AAXX 01154 07240 12/00 00510 10200 20050 30065 40195 57017 60006 80000 91500=
07240,1997-04-01 18:00:00,18,1019.3,-0.2,45,6,500,14.816,,,30,5.4,19.9,,,,,,,,,wg-a,,,,AAXX 01184 07240 12/00 00308 10180 20060 30062 40193 55002 60006 80000 91800 333 10199 20054=
07240,1997-04-01 21:00:00,14,1020.3,0.7,58,6,25000,14.816,,,30,,,,,,,,,,,wg-a,,,,AAXX 01214 07240 12/75 00308 10140 20060 30070 40203 51007 60006 80000 92100=
07240,1997-04-02 00:00:00,12,1020.2,-0.1,62,5,20000,14.816,,,40,,,,,,,,,,,wg-a,,,,AAXX 02004 07240 12/70 00408 10120 20050 30068 40202 58001 60006 80000 90000=
07240,1997-04-02 03:00:00,8,1019.8,-0.6,81,5,15000,7.408,,,20,,,,,,,,,,,wg-a,,,,AAXX 02034 07240 12/65 00204 10080 20050 30062 40198 57006 60006 80000 90300=
07240,1997-04-02 06:00:00,7,1020.4,0.5,87,5,8000,11.112,,,40,6.1,17.3,,,,,,,,,wg-a,,,,AAXX 02064 07240 02/58 00406 10070 20050 30071 40204 52005 60006 80000 90600 333 10173 20061 60004=
07240,1997-04-02 12:00:00,19,1019.3,-0.8,43,6,15000,7.408,,,100,,,,,,,,,,,wg-a,,,,AAXX 02124 07240 12/65 01004 10190 20060 30062 40193 58008 60006 80000 91200=
07240,1997-04-02 18:00:00,17,1017.7,-0.1,52,7,13000,11.112,,,340,6.6,20.6,,,,,,,,,wg-a,,,,AAXX 02184 07240 12/63 03406 10170 20070 30046 40177 55001 60006 80000 91800 333 10206 20066=
07240,1997-04-02 21:00:00,12,1018.9,0.9,62,5,12000,3.704,,,340,,,,,,,,,,,wg-a,,,,AAXX 02214 07240 12/62 03402 10120 20050 30055 40189 51009 60006 80000 92100=
07240,1997-04-03 00:00:00,9,1018.6,-0.4,76,5,10000,7.408,,,330,,,,,,,,,,,wg-a,,,,AAXX 03004 07240 12/60 /3304 10090 20050 30051 40186 58004 60006 90000=
07240,1997-04-03 03:00:00,6,1018.1,-0.7,87,4,10000,7.408,,,330,,,,,,,,,,,wg-a,,,,AAXX 03034 07240 12/60 03304 10060 20040 30044 40181 56007 60006 80000 90300=
07240,1997-04-03 06:00:00,5,1018.8,0.7,87,3,8000,7.408,,,290,4.1,17.5,,,,,,,,,wg-a,,,,AAXX 03064 07240 02/58 02904 10050 20030 30051 40188 52007 60006 80000 90600 333 10175 20041 60004=
07240,1997-04-03 09:00:00,11,1019.6,1.1,71,6,10000,11.112,,,310,,,,,,,,,,,wg-a,,,,AAXX 03094 07240 12/60 03106 10110 20060 30062 40196 51011 60006 80000 90900=
07240,1997-04-03 12:00:00,14,1019.6,0.1,58,6,12000,18.52,,,320,,,,,,,,,,,wg-a,,,,AAXX 03124 07240 12662 23210 10140 20060 30063 40196 51001 60006 82200 91200=
07240,1997-04-03 15:00:00,15,1019.2,-0.3,55,6,20000,22.224,,,310,,,,,,,,,,,wg-a,,,,AAXX 03154 07240 12670 /3112 10150 20060 30059 40192 57003 60006 86800 91500=
07240,1997-04-03 18:00:00,12,1020,0.7,62,5,18000,18.52,,,310,4.5,15.3,,,,,,,,,wg-a,,,,AAXX 03184 07240 12568 73110 10120 20050 30066 40200 53007 60006 82834 91800 333 10153 20045=
07240,1997-04-04 00:00:00,6,1023,0.7,93,5,15000,14.816,,,320,,,,,,,,,,,wg-a,,,,AAXX 04004 07240 12/65 03208 10060 20050 30093 40230 53007 60006 80000 90000=
07240,1997-04-04 03:00:00,5,1024,0.9,93,4,12000,11.112,,,320,,,,,,,,,,,wg-a,,,,AAXX 04034 07240 12/62 23206 10050 20040 30102 40240 53009 60006 80001 90300=
07240,1997-04-04 06:00:00,5,1026.7,2.6,87,3,12000,11.112,,,350,3.8,12.3,,,,,,,,,wg-a,,,,AAXX 04064 07240 02662 53506 10050 20030 30128 40267 53026 60006 83502 90600 333 10123 20038 60004=
07240,1997-04-04 09:00:00,9,1028.2,1.8,53,0,500,18.52,,,20,,,,,,,,,,,wg-a,,,,AAXX 04094 07240 12600 /0210 10090 20000 30146 40282 51018 60006 81100 90900=
07240,1997-04-04 12:00:00,12,1028.7,0.5,50,2,500,18.52,,,350,,,,,,,,,,,wg-a,,,,AAXX 04124 07240 12600 43510 10120 20020 30151 40287 50005 60006 84100 91200=
07240,1997-04-04 18:00:00,11,1028,-0.1,40,-2,35000,11.112,,,30,4.5,13.1,,,,,,,,,wg-a,,,,AAXX 04184 07240 12/81 20306 10110 21020 30144 40280 57001 60006 80001 91800 333 10131 20045=
07240,1997-04-04 21:00:00,7,1029.4,1.2,57,-1,20000,7.408,,,340,,,,,,,,,,,wg-a,,,,AAXX 04214 07240 12/70 03404 10070 21010 30156 40294 53012 60006 80000 92100=
07240,1997-04-05 00:00:00,5,1028.9,-0.6,65,-1,20000,3.704,,,50,,,,,,,,,,,wg-a,,,,AAXX 05004 07240 12/70 00502 10050 21010 30150 40289 58006 60006 80000 90000=
07240,1997-04-05 03:00:00,2,1028.1,-0.9,80,-1,15000,3.704,,,330,,,,,,,,,,,wg-a,,,,AAXX 05034 07240 12/65 33302 10020 21010 30141 40281 58009 60006 80001 90300=
07240,1997-04-05 06:00:00,0,1028.1,-0,86,-2,10000,7.408,,,300,0.2,11.1,,,,,,,,,wg-a,,,,AAXX 05064 07240 02/60 /3004 10000 21020 30140 40281 55000 60006 90600 333 10111 20002 60004=
07240,1997-04-05 09:00:00,10,1027.8,0,71,5,20000,14.816,,,280,,,,,,,,,,,wg-a,,,,AAXX 05094 07240 12770 62808 10100 20050 30142 40278 50000 60006 81531 90900=
07240,1997-04-05 12:00:00,14,1025.3,-2.1,58,6,11000,22.224,,,280,,,,,,,,,,,wg-a,,,,AAXX 05124 07240 12/61 /2812 10140 20060 30119 40253 57021 60006 91200=
07240,1997-04-05 18:00:00,14,1022.8,-0.3,58,6,25000,22.224,,,310,0.3,16.6,,,,,,,,,wg-a,,,,AAXX 05184 07240 12/75 13112 10140 20060 30094 40228 56003 60006 80001 91800 333 10166 20003=
07240,1997-04-05 21:00:00,9,1023.8,0.8,81,6,25000,18.52,,,310,,,,,,,,,,,wg-a,,,,AAXX 05214 07240 12/75 03110 10090 20060 30102 40238 51008 60006 80000 92100=
07240,1997-04-06 00:00:00,7,1024.2,0.3,93,6,25000,14.816,,,290,,,,,,,,,,,wg-a,,,,AAXX 06004 07240 12475 /2908 10070 20060 30105 40242 53003 60006 85500 90000=
07240,1997-04-06 03:00:00,5,1023.7,-0.5,93,4,20000,7.408,,,290,,,,,,,,,,,wg-a,,,,AAXX 06034 07240 12/70 02904 10050 20040 30099 40237 55005 60006 80000 90300=
07240,1997-04-06 06:00:00,6,1024.3,0.5,93,5,10000,3.704,,,300,4.5,13.7,,,,,,,,,wg-a,,,,AAXX 06064 07240 02/60 63002 10060 20050 30105 40243 53005 60006 86030 90600 333 10137 20045 60004=
07240,1997-04-06 09:00:00,11,1025,1,82,8,10000,11.112,,,50,,,,,,,,,,,wg-a,,,,AAXX 06094 07240 12460 70506 10110 20080 30115 40250 53010 60006 878// 90900=
07240,1997-04-06 12:00:00,14,1024.9,0,72,9,11000,18.52,,,80,,,,,,,,,,,wg-a,,,,AAXX 06124 07240 12/61 /0810 10140 20090 30116 40249 50000 60006 91200=
07240,1997-04-06 15:00:00,16,1023.7,-1.1,55,7,12000,22.224,,,60,,,,,,,,,,,wg-a,,,,AAXX 06154 07240 12562 50612 10160 20070 30104 40237 58011 60006 85800 91500=
07240,1997-04-06 18:00:00,14,1023.7,0.1,58,6,18000,22.224,,,50,5.4,16.9,,,,,,,,,wg-a,,,,AAXX 06184 07240 12768 10512 10140 20060 30104 40237 53001 60006 81500 91800 333 10169 20054=
07240,1997-04-06 21:00:00,10,1025.7,1.7,53,1,10000,22.224,,,60,,,,,,,,,,,wg-a,,,,AAXX 06214 07240 12/60 /0612 10100 20010 30121 40257 51017 60006 92100=
07240,1997-04-07 00:00:00,7,1026.4,0.5,57,-1,15000,25.928,,,70,,,,,,,,,,,wg-a,,,,AAXX 07004 07240 12/65 00714 10070 21010 30126 40264 50005 60006 80000 90000=
07240,1997-04-07 03:00:00,4,1026.3,-0.1,65,-2,15000,14.816,,,50,,,,,,,,,,,wg-a,,,,AAXX 07034 07240 12/65 00508 10040 21020 30124 40263 56001 60006 80000 90300=
07240,1997-04-07 06:00:00,3,1027.1,0.8,70,-2,20000,25.928,,,70,2.7,14.4,,,,,,,,,wg-a,,,,AAXX 07064 07240 02/70 40714 10030 21020 30132 40271 53008 60006 80001 90600 333 10144 20027 60004=
07240,1997-04-07 12:00:00,14,1025.4,-1.3,36,-1,500,29.632,,,60,,,,,,,,,,,wg-a,,,,AAXX 07124 07240 12/00 30616 10140 21010 30120 40254 58013 60006 80001 91200=
07240,1997-04-07 15:00:00,16,1023.8,-1.5,27,-3,500,31.484,,,60,,,,,,,,,,,wg-a,,,,AAXX 07154 07240 12/00 50617 10160 21030 30105 40238 58015 60006 80002 91500=
07240,1997-04-07 18:00:00,13,1024,0.1,35,-2,500,25.928,,,60,3.2,16.2,,,,,,,,,wg-a,,,,AAXX 07184 07240 12/00 60614 10130 21020 30106 40240 53001 60006 80002 91800 333 10162 20032=
07240,1997-04-07 21:00:00,8,1024.5,0.2,46,-3,500,25.928,,,70,,,,,,,,,,,wg-a,,,,AAXX 07214 07240 12/00 60714 10080 21030 30108 40245 50002 60006 80002 92100=
07240,1997-04-08 00:00:00,6,1024.4,-0.4,49,-4,10000,25.928,,,60,,,,,,,,,,,wg-a,,,,AAXX 08004 07240 12/60 /0614 10060 21040 30106 40244 58004 60006 90000=
07240,1997-04-08 03:00:00,3,1024.2,-0.1,65,-3,20000,18.52,,,70,,,,,,,,,,,wg-a,,,,AAXX 08034 07240 12/70 20710 10030 21030 30103 40242 58001 60006 80001 90300=
07240,1997-04-08 06:00:00,2,1025,0.7,64,-4,20000,18.52,,,70,1.7,12.7,,,,,,,,,wg-a,,,,AAXX 08064 07240 02/70 20710 10020 21040 30110 40250 53007 60006 80001 90600 333 10127 20017 60004=
07240,1997-04-08 09:00:00,9,1024.9,0.3,49,-1,500,14.816,,,90,,,,,,,,,,,wg-a,,,,AAXX 08094 07240 12/00 20908 10090 21010 30113 40249 51003 60006 80001 90900=
07240,1997-04-08 12:00:00,16,1023.3,-1.2,39,2,500,14.816,,,80,,,,,,,,,,,wg-a,,,,AAXX 08124 07240 12/00 10808 10160 20020 30100 40233 58012 60006 80001 91200=
07240,1997-04-08 15:00:00,19,1022.4,-0.7,34,3,500,14.816,,,50,,,,,,,,,,,wg-a,,,,AAXX 08154 07240 12/00 10508 10190 20030 30093 40224 56007 60006 80001 91500=
07240,1997-04-08 18:00:00,16,1022.8,0.2,39,2,500,11.112,,,50,2,18.9,,,,,,,,,wg-a,,,,AAXX 08184 07240 12/00 10506 10160 20020 30095 40228 53002 60006 80002 91800 333 10189 20020=
07240,1997-04-08 21:00:00,10,1024.1,0.9,53,1,20000,14.816,,,70,,,,,,,,,,,wg-a,,,,AAXX 08214 07240 12/70 20708 10100 20010 30105 40241 51009 60006 80002 92100=
07240,1997-04-09 00:00:00,7,1024.9,0.7,66,1,20000,3.704,,,50,,,,,,,,,,,wg-a,,,,AAXX 09004 07240 12/70 00502 10070 20010 30112 40249 52007 60006 80000 90000=
07240,1997-04-09 03:00:00,5,1025.6,0.6,75,1,20000,11.112,,,100,,,,,,,,,,,wg-a,,,,AAXX 09034 07240 12/70 11006 10050 20010 30118 40256 53006 60006 80001 90300=
07240,1997-04-09 06:00:00,5,1026.6,1,75,1,20000,7.408,,,100,4.2,15.7,,,,,,,,,wg-a,,,,AAXX 09064 07240 02/70 21004 10050 20010 30128 40266 53010 60006 80001 90600 333 10157 20042 60004=
07240,1997-04-09 09:00:00,14,1027.8,1.7,58,6,20000,14.816,,,240,,,,,,,,,,,wg-a,,,,AAXX 09094 07240 12/70 32408 10140 20060 30144 40278 51017 60006 80001 90900=
07240,1997-04-09 12:00:00,19,1027.6,-0.1,43,6,20000,3.704,,,290,,,,,,,,,,,wg-a,,,,AAXX 09124 07240 12/70 32902 10190 20060 30144 40276 58001 60006 80001 91200=
07240,1997-04-09 15:00:00,21,1026.7,-0.8,38,6,20000,3.704,,,250,,,,,,,,,,,wg-a,,,,AAXX 09154 07240 12/70 32502 10210 20060 30136 40267 57008 60006 80001 91500=
07240,1997-04-09 18:00:00,19,1027,0.2,46,7,20000,7.408,,,80,5,21.9,,,,,,,,,wg-a,,,,AAXX 09184 07240 12/70 40804 10190 20070 30138 40270 53002 60006 80001 91800 333 10219 20050=
07240,1997-04-09 21:00:00,12,1028.8,1.5,58,4,20000,3.704,,,350,,,,,,,,,,,wg-a,,,,AAXX 09214 07240 12/70 33502 10120 20040 30153 40288 51015 60006 80001 92100=
07240,1997-04-10 00:00:00,9,1029.9,0.9,71,4,20000,7.408,,,80,,,,,,,,,,,wg-a,,,,AAXX 10004 07240 12/70 30804 10090 20040 30162 40299 53009 60006 80001 90000=
07240,1997-04-10 06:00:00,7,1030.4,0.5,76,3,15000,3.704,,,50,4.8,18.5,,,,,,,,,wg-a,,,,AAXX 10064 07240 02/65 20502 10070 20030 30166 40304 53005 60006 80001 90600 333 10185 20048 60004=
07240,1997-04-10 09:00:00,14,1030.8,0.8,58,6,15000,7.408,,,70,,,,,,,,,,,wg-a,,,,AAXX 10094 07240 12/65 00704 10140 20060 30174 40308 51008 60006 80000 90900=
07240,1997-04-10 12:00:00,21,1029.9,-0.6,35,5,15000,18.52,,,80,,,,,,,,,,,wg-a,,,,AAXX 10124 07240 12/65 00810 10210 20050 30168 40299 58006 60006 80000 91200=
07240,1997-04-10 15:00:00,21,1028.5,-1.3,30,3,15000,14.816,,,40,,,,,,,,,,,wg-a,,,,AAXX 10154 07240 12/65 10408 10210 20030 30154 40285 57013 60006 80001 91500=
07240,1997-04-10 18:00:00,19,1028.4,-0.2,34,3,15000,11.112,,,40,6.6,21.7,,,,,,,,,wg-a,,,,AAXX 10184 07240 12/65 10406 10190 20030 30152 40284 58002 60006 80001 91800 333 10217 20066=
07240,1997-04-10 21:00:00,15,1029.5,0.9,41,2,12000,14.816,,,30,,,,,,,,,,,wg-a,,,,AAXX 10214 07240 12/62 00308 10150 20020 30161 40295 51009 60006 80000 92100=
07240,1997-04-11 00:00:00,10,1029.4,-0.3,57,2,12000,7.408,,,360,,,,,,,,,,,wg-a,,,,AAXX 11004 07240 12/62 03604 10100 20020 30158 40294 57003 60006 80000 90000=
07240,1997-04-11 03:00:00,7,1028.5,-1.1,66,1,12000,3.704,,,10,,,,,,,,,,,wg-a,,,,AAXX 11034 07240 12/62 00102 10070 20010 30147 40285 56011 60006 80000 90300=
07240,1997-04-11 06:00:00,6,1028,-0.5,70,1,15000,0,,,0,4.9,18.7,,,,,,,,,wg-a,,,,AAXX 11064 07240 02/65 20000 10060 20010 30142 40280 55005 60006 80001 90600 333 10187 20049 60004=
07240,1997-04-11 09:00:00,14,1027.5,-0.1,44,2,10000,0,,,0,,,,,,,,,,,wg-a,,,,AAXX 11094 07240 12/60 20000 10140 20020 30141 40275 57001 60006 80001 90900=
07240,1997-04-11 12:00:00,20,1025.4,-1.8,24,-1,12000,18.52,,,340,,,,,,,,,,,wg-a,,,,AAXX 11124 07240 12/62 23410 10200 21010 30123 40254 58018 60006 80001 91200=
07240,1997-04-11 18:00:00,19,1023.1,-0.1,37,4,15000,22.224,,,360,5.3,21.5,,,,,,,,,wg-a,,,,AAXX 11184 07240 12/65 03612 10190 20040 30099 40231 55001 60006 80000 91800 333 10215 20053=
07240,1997-04-11 21:00:00,10,1026.4,2.9,66,4,10000,29.632,,,50,,,,,,,,,,,wg-a,,,,AAXX 11214 07240 12660 40516 10100 20040 30128 40264 51029 60006 83501 92100=
07240,1997-04-12 00:00:00,7,1027.3,0.7,66,1,10000,29.632,,,40,,,,,,,,,,,wg-a,,,,AAXX 12004 07240 12/60 20416 10070 20010 30136 40273 53007 60006 80001 90000=
07240,1997-04-12 03:00:00,4,1027.5,-0,65,-2,10000,18.52,,,50,,,,,,,,,,,wg-a,,,,AAXX 12034 07240 12/60 00510 10040 21020 30136 40275 54000 60006 80000 90300=
07240,1997-04-12 06:00:00,2,1028.4,0.7,75,-2,15000,22.224,,,50,1.7,18.4,,,,,,,,,wg-a,,,,AAXX 12064 07240 02/65 70512 10020 21020 30144 40284 53007 60006 80001 90600 333 10184 20017 60004=
07240,1997-04-12 09:00:00,7,1028.5,0.4,57,-1,25000,25.928,,,70,,,,,,,,,,,wg-a,,,,AAXX 12094 07240 12/75 70714 10070 21010 30147 40285 51004 60006 80001 90900=
07240,1997-04-12 12:00:00,10,1027.2,-1.2,46,-1,500,22.224,,,60,,,,,,,,,,,wg-a,,,,AAXX 12124 07240 12/00 30612 10100 21010 30136 40272 58012 60006 80001 91200=
07240,1997-04-12 15:00:00,12,1026,-1.1,40,-1,10000,25.928,,,20,,,,,,,,,,,wg-a,,,,AAXX 12154 07240 12/60 /0214 10120 21010 30125 40260 58011 60006 91500=
07240,1997-04-12 18:00:00,11,1025.8,-0.2,40,-2,500,22.224,,,50,2.3,12.5,,,,,,,,,wg-a,,,,AAXX 12184 07240 12/00 00512 10110 21020 30123 40258 57002 60006 80000 91800 333 10125 20023=
07240,1997-04-12 21:00:00,6,1027.2,1.1,61,-1,25000,14.816,,,50,,,,,,,,,,,wg-a,,,,AAXX 12214 07240 12/75 00508 10060 21010 30134 40272 51011 60006 80000 92100=
07240,1997-04-13 00:00:00,4,1027.2,-0.1,70,-1,20000,14.816,,,50,,,,,,,,,,,wg-a,,,,AAXX 13004 07240 12/70 00508 10040 21010 30133 40272 58001 60006 80000 90000=
07240,1997-04-13 03:00:00,3,1026.4,-0.8,75,-1,20000,18.52,,,50,,,,,,,,,,,wg-a,,,,AAXX 13034 07240 12/70 00510 10030 21010 30125 40264 57008 60006 80000 90300=
07240,1997-04-13 06:00:00,2,1027.1,0.5,87,0,20000,25.928,,,50,2.1,10.9,,,,,,,,,wg-a,,,,AAXX 13064 07240 02/70 00514 10020 20000 30131 40271 53005 60006 80000 90600 333 10109 20021 60004=
07240,1997-04-13 09:00:00,8,1027.1,0.3,61,1,500,22.224,,,50,,,,,,,,,,,wg-a,,,,AAXX 13094 07240 12500 /0512 10080 20010 30134 40271 51003 60006 81100 90900=
07240,1997-04-13 12:00:00,11,1025.5,-1.4,47,0,500,25.928,,,50,,,,,,,,,,,wg-a,,,,AAXX 13124 07240 12600 /0514 10110 20000 30120 40255 58014 60006 81100 91200=
07240,1997-04-13 18:00:00,12,1023.4,-0.5,40,-1,10000,18.52,,,60,2.5,13.6,,,,,,,,,wg-a,,,,AAXX 13184 07240 12/60 /0610 10120 21010 30099 40234 55005 60006 91800 333 10136 20025=
07240,1997-04-13 21:00:00,8,1023.9,0.4,57,0,20000,11.112,,,60,,,,,,,,,,,wg-a,,,,AAXX 13214 07240 12/70 00606 10080 20000 30102 40239 53004 60006 80000 92100=
07240,1997-04-14 00:00:00,5,1023.9,-0.2,70,0,10000,14.816,,,50,,,,,,,,,,,wg-a,,,,AAXX 14004 07240 12/60 /0508 10050 20000 30101 40239 58002 60006 90000=
07240,1997-04-14 03:00:00,4,1023.8,-0.2,75,0,20000,14.816,,,60,,,,,,,,,,,wg-a,,,,AAXX 14034 07240 12/70 00608 10040 20000 30099 40238 56002 60006 80000 90300=
07240,1997-04-14 06:00:00,3,1024.1,0.4,81,0,15000,14.816,,,60,2.9,11.8,,,,,,,,,wg-a,,,,AAXX 14064 07240 02/65 00608 10030 20000 30102 40241 53004 60006 80000 90600 333 10118 20029 60004=
07240,1997-04-14 09:00:00,11,1024.3,0.6,54,2,15000,14.816,,,70,,,,,,,,,,,wg-a,,,,AAXX 14094 07240 12/65 00708 10110 20020 30108 40243 53006 60006 80000 90900=
07240,1997-04-14 12:00:00,15,1023.5,-0.5,44,3,20000,18.52,,,60,,,,,,,,,,,wg-a,,,,AAXX 14124 07240 12/70 00610 10150 20030 30102 40235 58005 60006 80000 91200=
07240,1997-04-14 15:00:00,17,1022,-1.3,39,3,20000,18.52,,,50,,,,,,,,,,,wg-a,,,,AAXX 14154 07240 12/70 00510 10170 20030 30088 40220 56013 60006 80000 91500=
07240,1997-04-14 18:00:00,16,1022.1,-0,39,2,20000,18.52,,,50,3.4,17.5,,,,,,,,,wg-a,,,,AAXX 14184 07240 12/70 00510 10160 20020 30088 40221 55000 60006 80000 91800 333 10175 20034=
07240,1997-04-14 21:00:00,11,1023.6,1.3,58,3,10000,14.816,,,50,,,,,,,,,,,wg-a,,,,AAXX 14214 07240 12/60 00508 10110 20030 30101 40236 51013 60006 80000 92100=
07240,1997-04-15 00:00:00,9,1024.6,0.9,71,4,10000,14.816,,,40,,,,,,,,,,,wg-a,,,,AAXX 15004 07240 12/60 00408 10090 20040 30110 40246 53009 60006 80000 90000=
07240,1997-04-15 03:00:00,7,1024.7,-0,87,5,10000,22.224,,,50,,,,,,,,,,,wg-a,,,,AAXX 15034 07240 12/60 00512 10070 20050 30110 40247 55000 60006 80000 90300=
07240,1997-04-15 06:00:00,6,1026.1,1.3,93,5,500,18.52,,,50,6,15.4,,,,,,,,,wg-a,,,,AAXX 15064 07240 02400 20510 10060 20050 30123 40261 53013 60006 82500 90600 333 10154 20060 60004=
07240,1997-04-15 09:00:00,10,1027.1,1.1,66,4,15000,25.928,,,50,,,,,,,,,,,wg-a,,,,AAXX 15094 07240 12565 50514 10100 20040 30135 40271 51011 60006 85500 90900=
07240,1997-04-15 12:00:00,13,1026.3,-0.6,47,2,20000,18.52,,,40,,,,,,,,,,,wg-a,,,,AAXX 15124 07240 12/70 00410 10130 20020 30128 40263 58006 60006 80000 91200=
07240,1997-04-15 15:00:00,14,1025,-1.1,44,2,20000,22.224,,,50,,,,,,,,,,,wg-a,,,,AAXX 15154 07240 12/70 00512 10140 20020 30116 40250 56011 60006 80000 91500=
07240,1997-04-15 18:00:00,13,1025.3,0.2,41,0,20000,22.224,,,50,6.1,14.5,,,,,,,,,wg-a,,,,AAXX 15184 07240 12/70 00512 10130 20000 30118 40253 53002 60006 80000 91800 333 10145 20061=
07240,1997-04-15 21:00:00,8,1026.6,1,57,0,15000,14.816,,,40,,,,,,,,,,,wg-a,,,,AAXX 15214 07240 12/65 00408 10080 20000 30129 40266 51010 60006 80000 92100=
07240,1997-04-16 00:00:00,6,1026.8,0.2,61,-1,15000,22.224,,,50,,,,,,,,,,,wg-a,,,,AAXX 16004 07240 12/65 00512 10060 21010 30130 40268 53002 60006 80000 90000=
07240,1997-04-16 03:00:00,4,1026.3,-0.6,70,-1,15000,18.52,,,60,,,,,,,,,,,wg-a,,,,AAXX 16034 07240 12/65 00610 10040 21010 30124 40263 58006 60006 80000 90300=
07240,1997-04-16 06:00:00,2,1026.4,-0.1,80,-1,15000,18.52,,,60,2.1,12.5,,,,,,,,,wg-a,,,,AAXX 16064 07240 02/65 00610 10020 21010 30124 40264 55001 60006 80000 90600 333 10125 20021 60004=
07240,1997-04-16 09:00:00,8,1026.1,0,57,0,15000,22.224,,,60,,,,,,,,,,,wg-a,,,,AAXX 16094 07240 12/65 00612 10080 20000 30124 40261 50000 60006 80000 90900=
07240,1997-04-16 12:00:00,12,1024.5,-1.5,40,-1,20000,22.224,,,50,,,,,,,,,,,wg-a,,,,AAXX 16124 07240 12/70 00512 10120 21010 30110 40245 58015 60006 80000 91200=
07240,1997-04-16 15:00:00,13,1022.5,-2,41,0,25000,29.632,,,40,,,,,,,,,,,wg-a,,,,AAXX 16154 07240 12/75 00416 10130 20000 30091 40225 58020 60006 80000 91500=
07240,1997-04-16 18:00:00,12,1021.1,-1.4,44,0,500,22.224,,,60,2.4,13.5,,,,,,,,,wg-a,,,,AAXX 16184 07240 12/00 00612 10120 20000 30077 40211 56014 60006 80000 91800 333 10135 20024=
07240,1997-04-16 21:00:00,8,1021.2,-0.1,53,-1,500,14.816,,,50,,,,,,,,,,,wg-a,,,,AAXX 16214 07240 12/00 00508 10080 21010 30076 40212 57001 60006 80000 92100=
07240,1997-04-17 00:00:00,6,1021,-0.3,70,1,500,22.224,,,50,,,,,,,,,,,wg-a,,,,AAXX 17004 07240 12/00 00512 10060 20010 30073 40210 58003 60006 80000 90000=
07240,1997-04-17 03:00:00,5,1019.8,-1.3,75,1,10000,22.224,,,50,,,,,,,,,,,wg-a,,,,AAXX 17034 07240 12/60 00512 10050 20010 30060 40198 56013 60006 80000 90300=
07240,1997-04-17 06:00:00,5,1019.7,-0.1,81,2,8000,22.224,,,50,3.6,11.7,,,,,,,,,wg-a,,,,AAXX 17064 07240 02/58 /0512 10050 20020 30060 40197 55001 60006 80001 90600 333 10117 20036 60004=
07240,1997-04-17 09:00:00,8,1019.9,0.4,61,1,10000,25.928,,,70,,,,,,,,,,,wg-a,,,,AAXX 17094 07240 12/60 00714 10080 20010 30063 40199 51004 60006 80000 90900=
07240,1997-04-17 12:00:00,13,1018.7,-1.1,33,-3,15000,29.632,,51.856,50,,,,,,,,,,,wg-a,,,,AAXX 17124 07240 12665 30516 10130 21030 30053 40187 58011 60006 82101 91200 333 91028=
07240,1997-04-17 15:00:00,12,1017.9,-0.8,28,-6,25000,31.484,,,60,,,,,,,,,,,wg-a,,,,AAXX 17154 07240 12775 30617 10120 21060 30045 40179 58008 60006 81131 91500=
07240,1997-04-17 18:00:00,12,1017.7,-0.1,28,-6,25000,31.484,,,70,5,13.4,,,,,,,,,wg-a,,,,AAXX 17184 07240 12/75 10717 10120 21060 30043 40177 55001 60006 80001 91800 333 10134 20050=
07240,1997-04-17 21:00:00,7,1019.7,1.8,42,-5,15000,18.52,,,60,,,,,,,,,,,wg-a,,,,AAXX 17214 07240 12/65 00610 10070 21050 30061 40197 51018 60006 80000 92100=
07240,1997-04-18 00:00:00,5,1020.3,0.4,52,-4,0,22.224,,,70,,,,,,,,,,,wg-a,,,,AAXX 18004 07240 12/// /0712 10050 21040 30065 40203 50004 60006 90000=
07240,1997-04-18 06:00:00,3,1020.3,0.2,65,-3,18000,18.52,,,60,1.9,11.4,,,,,,,,,wg-a,,,,AAXX 18064 07240 02/68 00610 10030 21030 30064 40203 53002 60006 80000 90600 333 10114 20019 60004=
07240,1997-04-18 12:00:00,14,1017.9,-1.6,36,-1,500,18.52,,,60,,,,,,,,,,,wg-a,,,,AAXX 18124 07240 12/00 00610 10140 21010 30046 40179 57016 60006 80000 91200=
07240,1997-04-18 15:00:00,16,1015.5,-2.3,29,-2,500,22.224,,,40,,,,,,,,,,,wg-a,,,,AAXX 18154 07240 12/00 00412 10160 21020 30023 40155 56023 60006 80000 91500=
07240,1997-04-18 18:00:00,15,1014.3,-1.2,29,-3,500,22.224,,,50,2.5,16.2,,,,,,,,,wg-a,,,,AAXX 18184 07240 12/00 00512 10150 21030 30011 40143 56012 60006 80000 91800 333 10162 20025=
07240,1997-04-18 21:00:00,8,1015.1,0.5,57,0,20000,11.112,,,50,,,,,,,,,,,wg-a,,,,AAXX 18214 07240 12/70 00506 10080 20000 30016 40151 50005 60006 80000 92100=
07240,1997-04-19 00:00:00,7,1014.6,-0.7,66,1,15000,22.224,,,50,,,,,,,,,,,wg-a,,,,AAXX 19004 07240 12/65 00512 10070 20010 30010 40146 56007 60006 80000 90000=
07240,1997-04-19 03:00:00,5,1013.6,-0.9,81,2,15000,25.928,,,50,,,,,,,,,,,wg-a,,,,AAXX 19034 07240 12/65 00514 10050 20020 39999 40136 57009 60006 80000 90300=
07240,1997-04-19 06:00:00,4,1013.5,-0.1,87,2,10000,18.52,,,60,3.9,14.5,,,,,,,,,wg-a,,,,AAXX 19064 07240 02/60 /0610 10040 20020 39998 40135 55001 60006 90600 333 10145 20039 60004=
07240,1997-04-19 12:00:00,13,1010.7,-1.9,54,4,15000,25.928,,,40,,,,,,,,,,,wg-a,,,,AAXX 19124 07240 12565 /0414 10130 20040 39975 40107 57019 60006 81101 91200=
07240,1997-04-19 18:00:00,11,1009.9,0.1,54,2,18000,25.928,,,40,4.3,14.4,,,,,,,,,wg-a,,,,AAXX 19184 07240 12/68 00414 10110 20020 39966 40099 53001 60006 80000 91800 333 10144 20043=
07240,1997-04-19 21:00:00,7,1011.8,1.7,61,0,20000,14.816,,,40,,,,,,,,,,,wg-a,,,,AAXX 19214 07240 12/70 00408 10070 20000 39983 40118 53017 60006 80000 92100=
07240,1997-04-20 00:00:00,5,1013.4,1.3,52,-4,20000,25.928,,,40,,,,,,,,,,,wg-a,,,,AAXX 20004 07240 12/70 00414 10050 21040 39997 40134 51013 60006 80000 90000=
07240,1997-04-20 06:00:00,2,1014.5,0.9,69,-3,500,18.52,,,40,1.1,10.6,,,,,,,,,wg-a,,,,AAXX 20064 07240 02/00 00410 10020 21030 30007 40145 53009 60006 80000 90600 333 10106 20011 60004=
07240,1997-04-20 09:00:00,7,1014.8,0.5,61,0,500,35.188,,,50,,,,,,,,,,,wg-a,,,,AAXX 20094 07240 12500 20519 10070 20000 30012 40148 51005 60006 82100 90900=
07240,1997-04-20 12:00:00,10,1014.4,-0.4,40,-3,11000,31.484,,,60,,,,,,,,,,,wg-a,,,,AAXX 20124 07240 12/61 /0617 10100 21030 30009 40144 58004 60006 91200=
07240,1997-04-20 15:00:00,11,1013.7,-0.7,35,-4,10000,31.484,,,50,,,,,,,,,,,wg-a,,,,AAXX 20154 07240 12/60 /0517 10110 21040 30003 40137 57007 60006 91500=
07240,1997-04-20 18:00:00,10,1013.5,-0.3,34,-5,500,29.632,,,50,1.9,11.5,,,,,,,,,wg-a,,,,AAXX 20184 07240 12/00 00516 10100 21050 30000 40135 56003 60006 80000 91800 333 10115 20019=
07240,1997-04-20 21:00:00,6,1015,1.3,45,-5,500,18.52,,,50,,,,,,,,,,,wg-a,,,,AAXX 20214 07240 12/00 00510 10060 21050 30013 40150 51013 60006 80000 92100=
07240,1997-04-21 00:00:00,4,1015.1,0,48,-6,25000,25.928,,,50,,,,,,,,,,,wg-a,,,,AAXX 21004 07240 12/75 00514 10040 21060 30014 40151 50000 60006 80000 90000=
07240,1997-04-21 03:00:00,2,1014.7,-0.6,64,-4,10000,18.52,,,50,,,,,,,,,,,wg-a,,,,AAXX 21034 07240 12/60 /0510 10020 21040 30008 40147 56006 60006 90300=
07240,1997-04-21 06:00:00,1,1014.9,0.2,75,-3,15000,18.52,,,50,0.5,9.6,,,,,,,,,wg-a,,,,AAXX 21064 07240 02/65 00510 10010 21030 30010 40149 53002 60006 80000 90600 333 10096 20005 60004=
07240,1997-04-21 09:00:00,8,1014.3,-0.2,46,-3,18000,22.224,,,50,,,,,,,,,,,wg-a,,,,AAXX 21094 07240 12/68 00512 10080 21030 30008 40143 57002 60006 80000 90900=
07240,1997-04-21 12:00:00,12,1012.8,-1.3,32,-4,20000,29.632,,,60,,,,,,,,,,,wg-a,,,,AAXX 21124 07240 12/70 00616 10120 21040 39995 40128 58013 60006 80000 91200=
07240,1997-04-21 15:00:00,13,1011.3,-1.5,28,-5,18000,25.928,,,40,,,,,,,,,,,wg-a,,,,AAXX 21154 07240 12/68 00414 10130 21050 39980 40113 58015 60006 80000 91500=
07240,1997-04-21 18:00:00,12,1011.2,-0.1,28,-6,18000,18.52,,,20,1.2,12.9,,,,,,,,,wg-a,,,,AAXX 21184 07240 12/68 00210 10120 21060 39979 40112 55001 60006 80000 91800 333 10129 20012=
07240,1997-04-21 21:00:00,7,1012.6,1.1,42,-5,18000,11.112,,,20,,,,,,,,,,,wg-a,,,,AAXX 21214 07240 12/68 00206 10070 21050 39990 40126 53011 60006 80000 92100=
07240,1997-04-22 00:00:00,5,1013.1,0.4,60,-2,12000,18.52,,,20,,,,,,,,,,,wg-a,,,,AAXX 22004 07240 12/62 00210 10050 21020 39994 40131 51004 60006 80000 90000=
07240,1997-04-22 03:00:00,2,1013.5,0.3,75,-2,12000,11.112,,,360,,,,,,,,,,,wg-a,,,,AAXX 22034 07240 12/62 03606 10020 21020 39997 40135 53003 60006 80000 90300=
07240,1997-04-22 06:00:00,2,1014.5,1,75,-2,12000,11.112,,,20,0.5,11.5,,,,,,,,,wg-a,,,,AAXX 22064 07240 02/62 00206 10020 21020 30007 40145 53010 60006 80000 90600 333 10115 20005 60004=
07240,1997-04-22 09:00:00,9,1015.5,1.3,53,0,15000,22.224,,,40,,,,,,,,,,,wg-a,,,,AAXX 22094 07240 12665 10412 10090 20000 30020 40155 51013 60006 81100 90900=
07240,1997-04-22 12:00:00,12,1015.4,0.1,47,1,20000,22.224,,,50,,,,,,,,,,,wg-a,,,,AAXX 22124 07240 12670 30512 10120 20010 30020 40154 50001 60006 83100 91200=
07240,1997-04-22 15:00:00,13,1015,-0.4,44,1,500,22.224,,,30,,,,,,,,,,,wg-a,,,,AAXX 22154 07240 12700 40312 10130 20010 30017 40150 58004 60006 83101 91500=
07240,1997-04-22 18:00:00,12,1015.5,0.4,38,-2,500,18.52,,,30,2.2,13.2,,,,,,,,,wg-a,,,,AAXX 22184 07240 12700 30310 10120 21020 30021 40155 53004 60006 83500 91800 333 10132 20022=
07240,1997-04-22 21:00:00,7,1017.6,1.8,53,-2,15000,11.112,,,30,,,,,,,,,,,wg-a,,,,AAXX 22214 07240 12765 20306 10070 21020 30040 40176 51018 60006 82500 92100=
07240,1997-04-23 00:00:00,4,1018.3,0.5,60,-3,15000,7.408,,,50,,,,,,,,,,,wg-a,,,,AAXX 23004 07240 12765 20504 10040 21030 30045 40183 51005 60006 82500 90000=
07240,1997-04-23 03:00:00,2,1018.5,0.1,69,-3,10000,7.408,,,50,,,,,,,,,,,wg-a,,,,AAXX 23034 07240 12/60 00504 10020 21030 30046 40185 53001 60006 80000 90300=
07240,1997-04-23 06:00:00,2,1019.7,1.2,75,-2,15000,7.408,,,70,0,11.6,,,,,,,,,wg-a,,,,AAXX 23064 07240 02765 20704 10020 21020 30058 40197 53012 60006 81501 90600 333 10116 20000 60004=
07240,1997-04-23 09:00:00,10,1020.1,0.8,46,-1,18000,11.112,,,90,,,,,,,,,,,wg-a,,,,AAXX 23094 07240 12668 20906 10100 21010 30066 40201 51008 60006 81101 90900=
07240,1997-04-23 12:00:00,13,1019.5,-0.5,33,-3,25000,11.112,,,40,,,,,,,,,,,wg-a,,,,AAXX 23124 07240 12775 10406 10130 21030 30061 40195 58005 60006 81100 91200=
07240,1997-04-23 15:00:00,14,1018.9,-0.5,36,-1,20000,7.408,,,40,,,,,,,,,,,wg-a,,,,AAXX 23154 07240 12770 20404 10140 21010 30056 40189 56005 60006 81101 91500=
07240,1997-04-23 18:00:00,13,1019.5,0.5,33,-3,25000,7.408,,,50,1.7,14.5,,,,,,,,,wg-a,,,,AAXX 23184 07240 12/75 20504 10130 21030 30061 40195 53005 60006 80001 91800 333 10145 20017=
07240,1997-04-23 21:00:00,7,1020.9,1.1,53,-2,25000,7.408,,,70,,,,,,,,,,,wg-a,,,,AAXX 23214 07240 12/75 30704 10070 21020 30072 40209 52011 60006 80001 92100=
07240,1997-04-24 00:00:00,4,1021.3,0.3,65,-2,20000,3.704,,,100,,,,,,,,,,,wg-a,,,,AAXX 24004 07240 12/70 01002 10040 21020 30075 40213 51003 60006 80000 90000=
07240,1997-04-24 03:00:00,1,1021.3,-0.2,75,-3,20000,3.704,,,60,,,,,,,,,,,wg-a,,,,AAXX 24034 07240 12/70 00602 10010 21030 30073 40213 56002 60006 80000 90300=
07240,1997-04-24 06:00:00,2,1021.9,0.7,75,-2,15000,3.704,,,110,0.7,13.1,,,,,,,,,wg-a,,,,AAXX 24064 07240 02/65 11102 10020 21020 30080 40219 53007 60006 80001 90600 333 10131 20007 60004=
07240,1997-04-24 12:00:00,17,1020.4,-1.1,23,-4,10000,7.408,,,160,,,,,,,,,,,wg-a,,,,AAXX 24124 07240 12/60 /1604 10170 21040 30072 40204 58011 60006 91200=
07240,1997-04-24 18:00:00,17,1017.8,-0.6,25,-3,25000,14.816,,,260,2.5,18.8,,,,,,,,,wg-a,,,,AAXX 24184 07240 12/75 52608 10170 21030 30046 40178 56006 60006 80001 91800 333 10188 20025=
07240,1997-04-24 21:00:00,11,1018.6,0.6,40,-2,25000,3.704,,,130,,,,,,,,,,,wg-a,,,,AAXX 24214 07240 12/75 41302 10110 21020 30052 40186 51006 60006 80001 92100=
07240,1997-04-25 00:00:00,7,1018.7,-0.1,57,-1,25000,7.408,,,270,,,,,,,,,,,wg-a,,,,AAXX 25004 07240 12/75 52704 10070 21010 30051 40187 56001 60006 80001 90000=
07240,1997-04-25 03:00:00,5,1018.3,-0.5,75,1,10000,3.704,,,210,,,,,,,,,,,wg-a,,,,AAXX 25034 07240 12/60 /2102 10050 20010 30046 40183 56005 60006 90300=
07240,1997-04-25 06:00:00,4,1018.7,0.3,81,1,25000,3.704,,,160,2.3,16.5,,,,,,,,,wg-a,,,,AAXX 25064 07240 02/75 61602 10040 20010 30049 40187 53003 60006 81031 90600 333 10165 20023 60004=
07240,1997-04-25 09:00:00,14,1018.2,0,51,4,15000,7.408,,,200,,,,,,,,,,,wg-a,,,,AAXX 25094 07240 12/65 62004 10140 20040 30049 40182 50000 60006 81031 90900=
07240,1997-04-25 12:00:00,18,1016.8,-1.2,39,4,15000,18.52,,,240,,,,,,,,,,,wg-a,,,,AAXX 25124 07240 12765 72410 10180 20040 30037 40168 58012 60006 84531 91200=
07240,1997-04-25 15:00:00,15,1016.7,-0.2,63,8,12000,22.224,,,250,,,,,,,,,,21,wg-a,,,,AAXX 25154 07240 02762 72512 10150 20080 30035 40167 58002 61000 72162 8553/ 91500 333 ////=
07240,1997-04-25 18:00:00,12,1017.1,0.2,88,10,10000,14.816,,,270,4.4,18.5,,1,,,,,,21,wg-a,,,,AAXX 25184 07240 12760 82708 10120 20100 30038 40171 51002 60017 72162 8552/ 91800 333 10185 20044=
07240,1997-04-25 21:00:00,11,1017.6,0.4,94,10,15000,3.704,,,270,,,,,,,,,,,wg-a,,,,AAXX 25214 07240 12/65 52702 10110 20100 30042 40176 53004 60006 83031 92100=
07240,1997-04-26 00:00:00,12,1017.5,-0.1,88,10,10000,11.112,,,240,,,,,,,,,,,wg-a,,,,AAXX 26004 07240 12460 82406 10120 20100 30041 40175 58001 60006 875// 90000=
07240,1997-04-26 06:00:00,11,1016,-0.3,82,8,12000,7.408,,,220,10,12.5,,,,,1,,,,wg-a,,,,AAXX 26064 07240 02462 82204 10110 20080 30026 40160 57003 60006 875// 90600 333 10125 20100 60014=
07240,1997-04-26 09:00:00,12,1015,-0.9,88,10,500,11.112,,,220,,,,,,,,,,60,wg-a,,,,AAXX 26094 07240 02200 82206 10120 20100 30017 40150 57009 61000 76062 875// 90900 333 ////=
07240,1997-04-26 12:00:00,13,1012.8,-2.1,88,11,8000,14.816,,,210,,,,1,,,,,,61,wg-a,,,,AAXX 26124 07240 02358 82108 10130 20110 39996 40128 58021 60016 76162 8552/ 91200 333 60017=
07240,1997-04-26 15:00:00,13,1009.5,-3.3,94,12,4000,18.52,,,220,,,,3,,,,,,61,wg-a,,,,AAXX 26154 07240 12340 82210 10130 20120 39963 40095 56033 60037 76162 877// 91500=
07240,1997-04-26 18:00:00,14,1008,-1.3,88,12,15000,22.224,,,240,10.7,15.1,,,,,,,,16,wg-a,,,,AAXX 26184 07240 12365 /2412 10140 20120 39949 40080 56013 60006 71696 86300 91800 333 10151 20107=
07240,1997-04-26 21:00:00,12,1009.3,1,88,10,25000,18.52,,,240,,,,5,,,,,,1,wg-a,,,,AAXX 26214 07240 12575 72410 10120 20100 39960 40093 51010 60057 70198 878// 92100=
07240,1997-04-27 00:00:00,10,1008.7,-0.6,93,9,15000,18.52,,,240,,,,1,,,,,,21,wg-a,,,,AAXX 27004 07240 02565 72410 10100 20090 39954 40087 56006 60056 72198 87531 90000 333 60017=
07240,1997-04-27 03:00:00,10,1008.7,-0,93,9,15000,14.816,,,270,,,,,,,,,,,wg-a,,,,AAXX 27034 07240 12665 72708 10100 20090 39954 40087 55000 60006 8757/ 90300=
07240,1997-04-27 06:00:00,10,1010.5,1.7,93,9,12000,14.816,,,270,9.4,13.8,,,,,9,,,,wg-a,,,,AAXX 27064 07240 02462 72708 10100 20090 39971 40105 53017 60006 8683/ 90600 333 10138 20094 60094=
07240,1997-04-27 09:00:00,12,1012.7,2.3,94,11,10000,18.52,,,280,,,,0,,,,,,25,wg-a,,,,AAXX 27094 07240 12460 72810 10120 20110 39994 40127 51023 60007 72586 878// 90900=
07240,1997-04-27 12:00:00,14,1013.4,0.8,72,9,15000,22.224,,,290,,,,0,,,,,,1,wg-a,,,,AAXX 27124 07240 02465 72912 10140 20090 30002 40134 51008 60016 70186 878// 91200 333 60007=
07240,1997-04-27 18:00:00,15,1015.5,1.6,72,10,25000,11.112,,,300,10.1,15.9,,,,,,,,,wg-a,,,,AAXX 27184 07240 12675 63006 10150 20100 30023 40155 53016 60006 85802 91800 333 10159 20101=
07240,1997-04-27 21:00:00,13,1017.1,1.4,82,10,20000,18.52,,,250,,,,,,,,,,,wg-a,,,,AAXX 27214 07240 12670 72510 10130 20100 30038 40171 51014 60006 8553/ 92100=
07240,1997-04-28 00:00:00,12,1016.8,-0.3,94,11,12000,14.816,,,220,,,,0,,,,,,60,wg-a,,,,AAXX 28004 07240 02362 82208 10120 20110 30034 40168 58003 60016 76062 877// 90000 333 60007=
07240,1997-04-28 03:00:00,12,1015.7,-1.2,100,12,6000,18.52,,,230,,,,2,,,,,,61,wg-a,,,,AAXX 28034 07240 12256 82310 10120 20120 30024 40157 56012 60027 76166 877// 90300=
07240,1997-04-28 06:00:00,13,1016.1,0.5,100,13,12000,18.52,,,260,11.5,14.6,,,,,,,,20,wg-a,,,,AAXX 28064 07240 02362 72610 10130 20130 30028 40161 53005 61000 72065 8557/ 90600 333 10146 20115 6004=
07240,1997-04-28 12:00:00,16,1016.2,-0.8,77,12,25000,25.928,,,270,,,,,,,,,,,wg-a,,,,AAXX 28124 07240 12575 72714 10160 20120 30031 40162 56008 60006 878// 91200=
07240,1997-04-28 15:00:00,16,1015.3,-0.8,68,10,20000,29.632,,,260,,,,,,,,,,,wg-a,,,,AAXX 28154 07240 12570 72616 10160 20100 30022 40153 56008 60006 8487/ 91500=
07240,1997-04-28 18:00:00,15,1014.9,-0.7,72,10,20000,25.928,,,260,13.2,17,,,,,,,,,wg-a,,,,AAXX 28184 07240 12670 72614 10150 20100 30017 40149 57007 60006 8387/ 91800 333 10170 20132=
07240,1997-04-28 21:00:00,12,1016.6,1.7,88,10,15000,25.928,,,250,,,,,,,,,,,wg-a,,,,AAXX 28214 07240 12465 22514 10120 20100 30033 40166 51017 60006 82100 92100=
07240,1997-04-29 03:00:00,10,1017,-0.1,93,9,15000,22.224,,,260,,,,,,,,,,,wg-a,,,,AAXX 29034 07240 12465 72612 10100 20090 30036 40170 55001 60006 875// 90300=
07240,1997-04-29 06:00:00,11,1018.3,1.1,82,8,12000,22.224,,,270,10.3,15.3,,,,,,,,51,wg-a,,,,AAXX 29064 07240 02462 72712 10110 20080 30049 40183 53011 61000 75151 878// 90600 333 10153 20103 6100=
07240,1997-04-29 12:00:00,13,1019.8,0.4,82,10,10000,22.224,,,280,,,,,,,,,,60,wg-a,,,,AAXX 29124 07240 02460 82812 10130 20100 30065 40198 50004 61000 76065 878// 91200 333 6100=
07240,1997-04-29 18:00:00,14,1020.1,0.3,58,6,500,22.224,,,320,10.6,14.8,,,,,,,,,wg-a,,,,AAXX 29184 07240 12600 /3212 10140 20060 30068 40201 53003 60006 86800 91800 333 10148 20106=
07240,1997-04-30 00:00:00,8,1022.8,0.7,87,6,10000,11.112,,,330,,,,,,,,,,,wg-a,,,,AAXX 30004 07240 12/60 03306 10080 20060 30092 40228 52007 60006 80000 90000=
07240,1997-04-30 03:00:00,5,1022.9,-0,100,5,10000,7.408,,,300,,,,,,,,,,,wg-a,,,,AAXX 30034 07240 12/60 03004 10050 20050 30091 40229 55000 60006 80000 90300=
07240,1997-04-30 06:00:00,6,1024.6,1.7,100,6,8000,7.408,,,330,4.7,14.3,,,,,,,,,wg-a,,,,AAXX 30064 07240 02/58 /3304 10060 20060 30109 40246 53017 60006 81030 90600 333 10143 20047 61000=
07240,1997-04-30 09:00:00,14,1025.3,1,67,8,25000,7.408,,,40,,,,,,,,,,,wg-a,,,,AAXX 30094 07240 32/75 00404 10140 20080 30119 40253 50010 80000 90900=
07240,1997-04-30 12:00:00,17,1025.5,0.3,48,6,25000,18.52,,,20,,,,,,,,,,,wg-a,,,,AAXX 30124 07240 12675 30210 10170 20060 30123 40255 53003 60006 83100 91200=
07240,1997-04-30 15:00:00,18,1025.1,-0.2,49,7,500,11.112,,,50,,,,,,,,,,,wg-a,,,,AAXX 30154 07240 12700 30506 10180 20070 30119 40251 58002 60006 83100 91500=
07240,1997-04-30 18:00:00,17,1025.5,0.4,55,8,500,14.816,,,70,6.3,19.1,,,,,,,,,wg-a,,,,AAXX 30184 07240 12700 10708 10170 20080 30123 40255 53004 60006 81401 91800 333 10191 20063=
07240,1997-04-30 21:00:00,11,1026.9,1.1,82,8,20000,11.112,,,60,,,,,,,,,,,wg-a,,,,AAXX 30214 07240 12/70 00606 10110 20080 30134 40269 51011 60006 80000 92100=
07240,1997-05-01 00:00:00,8,1027.8,0.7,87,6,10000,11.112,,,70,,,,,,,,,,,wg-a,,,,AAXX 01004 07240 12/60 00706 10080 20060 30141 40278 51007 60006 80000 90000=
07240,1997-05-01 06:00:00,8,1028.2,0.9,93,7,7000,18.52,,,70,6.5,16.8,,,,,,,,,wg-a,,,,AAXX 01064 07240 02/57 /0710 10080 20070 30145 40282 53009 60006 80001 90600 333 10168 20065 60004=
07240,1997-05-01 09:00:00,16,1028,0.2,55,7,12000,18.52,,,90,,,,,,,,,,,wg-a,,,,AAXX 01094 07240 12/62 10910 10160 20070 30147 40280 52002 60006 80001 90900=
07240,1997-05-01 12:00:00,19,1026.5,-1.3,46,7,15000,22.224,,,90,,,,,,,,,,,wg-a,,,,AAXX 01124 07240 12/65 10912 10190 20070 30134 40265 58013 60006 80001 91200=
07240,1997-05-01 15:00:00,21,1025,-1.4,40,7,18000,22.224,,,60,,,,,,,,,,,wg-a,,,,AAXX 01154 07240 12/68 10612 10210 20070 30120 40250 57014 60006 80001 91500=
07240,1997-05-01 18:00:00,19,1024.2,-0.9,46,7,20000,18.52,,,60,8.5,21.4,,,,,,,,,wg-a,,,,AAXX 01184 07240 12/70 00610 10190 20070 30111 40242 56009 60006 80000 91800 333 10214 20085=
07240,1997-05-01 21:00:00,14,1025.3,0.8,67,8,20000,14.816,,,70,,,,,,,,,,,wg-a,,,,AAXX 01214 07240 12/70 00708 10140 20080 30119 40253 53008 60006 80000 92100=
07240,1997-05-02 00:00:00,11,1025.1,-0.3,82,8,20000,18.52,,,70,,,,,,,,,,,wg-a,,,,AAXX 02004 07240 12/70 00710 10110 20080 30116 40251 58003 60006 80000 90000=
07240,1997-05-02 03:00:00,9,1025,-0.2,87,7,15000,7.408,,,80,,,,,,,,,,,wg-a,,,,AAXX 02034 07240 12/65 00804 10090 20070 30114 40250 56002 60006 80000 90300=
07240,1997-05-02 06:00:00,10,1024.8,-0.1,82,7,10000,14.816,,,80,8,19.1,,,,,,,,,wg-a,,,,AAXX 02064 07240 02/60 10808 10100 20070 30113 40248 56001 60006 80001 90600 333 10191 20080 60004=
07240,1997-05-02 09:00:00,18,1024.1,-0.4,49,7,10000,22.224,,,90,,,,,,,,,,,wg-a,,,,AAXX 02094 07240 12/60 10912 10180 20070 30109 40241 58004 60006 80001 90900=
07240,1997-05-02 12:00:00,22,1022.1,-1.9,41,8,25000,14.816,,,90,,,,,,,,,,,wg-a,,,,AAXX 02124 07240 12/75 20908 10220 20080 30091 40221 58019 60006 80001 91200=
07240,1997-05-02 15:00:00,24,1020.2,-1.9,31,6,25000,14.816,,,130,,,,,,,,,,,wg-a,,,,AAXX 02154 07240 12/75 21308 10240 20060 30073 40202 57019 60006 80001 91500=
07240,1997-05-02 18:00:00,23,1019.2,-0.9,38,8,500,33.336,,,20,10.4,24.6,,,,,,,,,wg-a,,,,AAXX 02184 07240 12/00 /0218 10230 20080 30063 40192 56009 60006 91800 333 10246 20104=
07240,1997-05-02 21:00:00,15,1019.9,0.3,63,8,500,11.112,,,90,,,,,,,,,,,wg-a,,,,AAXX 02214 07240 12/00 10906 10150 20080 30066 40199 52003 60006 80001 92100=
07240,1997-05-03 00:00:00,13,1019.6,-0.4,72,8,25000,7.408,,,110,,,,,,,,,,,wg-a,,,,AAXX 03004 07240 12/75 11104 10130 20080 30062 40196 56004 60006 80001 90000=
07240,1997-05-03 06:00:00,12,1018.6,-0.2,71,7,500,7.408,,,160,10.6,22.8,,,,,,,,,wg-a,,,,AAXX 03064 07240 02/00 31604 10120 20070 30052 40186 55002 60006 81031 90600 333 10228 20106 60004=
07240,1997-05-03 09:00:00,19,1018.2,-0.1,52,9,500,14.816,,,220,,,,,,,,,,,wg-a,,,,AAXX 03094 07240 12/00 62208 10190 20090 30051 40182 57001 60006 83035 90900=
07240,1997-05-03 12:00:00,20,1017.5,-0.6,60,12,500,18.52,,,260,,,,,,,,,,,wg-a,,,,AAXX 03124 07240 12/00 72610 10200 20120 30045 40175 56006 60006 85075 91200=
07240,1997-05-03 15:00:00,23,1016.3,-1,47,11,500,18.52,,,270,,,,,,,,,,,wg-a,,,,AAXX 03154 07240 12/00 62710 10230 20110 30035 40163 58010 60006 84075 91500=
07240,1997-05-03 18:00:00,22,1015.7,-0.6,57,13,500,11.112,,,280,12.5,23.7,,,,,,,,,wg-a,,,,AAXX 03184 07240 12/00 52806 10220 20130 30028 40157 56006 60006 82085 91800 333 10237 20125=
07240,1997-05-03 21:00:00,16,1016.9,0.9,72,11,20000,14.816,,,260,,,,,,,,,,,wg-a,,,,AAXX 03214 07240 12/70 42608 10160 20110 30038 40169 53009 60006 81035 92100=
07240,1997-05-04 00:00:00,13,1016.6,-0.5,94,12,10000,11.112,,,270,,,,,,,,,,,wg-a,,,,AAXX 04004 07240 12/60 /2706 10130 20120 30033 40166 58005 60006 90000=
07240,1997-05-04 06:00:00,13,1014.1,-0.9,94,12,15000,11.112,,,260,11.7,21.5,,,,,,,,,wg-a,,,,AAXX 04064 07240 02265 82606 10130 20120 30008 40141 56009 60006 886// 90600 333 10215 20117 60004=
07240,1997-05-04 09:00:00,14,1012.8,-1.1,88,12,12000,11.112,,,200,,,,,,,,,,,wg-a,,,,AAXX 04094 07240 12362 82006 10140 20120 39996 40128 58011 60006 886// 90900=
07240,1997-05-04 12:00:00,21,1009.7,-2.7,60,13,15000,14.816,,,190,,,,,,,,,,,wg-a,,,,AAXX 04124 07240 12665 /1908 10210 20130 39969 40097 57027 60006 86800 91200=
07240,1997-05-04 15:00:00,21,1007.1,-2.6,60,13,10000,22.224,,,240,,,,,,,,,,,wg-a,,,,AAXX 04154 07240 12/60 /2412 10210 20130 39943 40071 58026 60006 91500=
07240,1997-05-04 18:00:00,21,1004.3,-2.9,53,11,20000,22.224,,,220,12.4,21.8,,,,,,,,,wg-a,,,,AAXX 04184 07240 12770 62212 10210 20110 39915 40043 56029 60006 85580 91800 333 10218 20124=
07240,1997-05-05 00:00:00,13,1001.4,-2.9,94,12,10000,14.816,,,190,,,,4,,,,,,61,wg-a,,,,AAXX 05004 07240 02760 71908 10130 20120 39883 40014 58029 60056 76162 8558/ 90000 333 60047=
07240,1997-05-05 03:00:00,13,998.9,-2.6,94,12,10000,18.52,,,200,,,,1,,,,,,21,wg-a,,,,AAXX 05034 07240 12460 /2010 10130 20120 39858 49989 58026 60017 72162 86500 90300=
07240,1997-05-05 06:00:00,13,998.1,-0.7,94,12,11000,22.224,,,200,12.3,20.3,,,,,7,,,,wg-a,,,,AAXX 05064 07240 02/61 /2012 10130 20120 39850 49981 58007 60006 90600 333 10203 20123 60074=
07240,1997-05-05 09:00:00,15,997.5,-0.4,77,11,10000,31.484,,53.708,230,,,,0,,,,,,,wg-a,,,,AAXX 05094 07240 12560 /2317 10150 20110 39846 49975 56004 60007 86200 90900 333 91029=
07240,1997-05-05 12:00:00,16,996.5,-0.9,72,11,15000,25.928,,,220,,,,2,,,,,,25,wg-a,,,,AAXX 05124 07240 02465 /2214 10160 20110 39836 49965 58009 60026 72586 85300 91200 333 60027=
07240,1997-05-05 15:00:00,15,995.4,-1.2,77,11,11000,35.188,,57.412,220,,,,1,,,,,,,wg-a,,,,AAXX 05154 07240 12/61 /2219 10150 20110 39825 49954 58012 60017 91500 333 91031=
07240,1997-05-05 18:00:00,16,993.5,-1.8,68,10,15000,29.632,,,230,12.6,17.5,,,,,,,,3,wg-a,,,,AAXX 05184 07240 12665 62316 10160 20100 39806 49935 56018 60006 70386 85802 91800 333 10175 20126=
07240,1997-05-05 21:00:00,13,993.9,0.2,88,11,15000,22.224,,,210,,,,,,,,,,,wg-a,,,,AAXX 05214 07240 12665 42112 10130 20110 39809 49939 53002 60006 84500 92100=
07240,1997-05-06 00:00:00,12,992.6,-1.3,88,10,12000,18.52,,,230,,,,2,,,,,,60,wg-a,,,,AAXX 06004 07240 02/62 82310 10120 20100 39796 49926 58013 60026 76061 88/2/ 90000 333 60027=
07240,1997-05-06 03:00:00,11,990.2,-2.4,94,10,10000,22.224,,,200,,,,4,,,,,,61,wg-a,,,,AAXX 06034 07240 12360 82012 10110 20100 39771 49902 58024 60047 76162 8/72/ 90300=
07240,1997-05-06 06:00:00,8,991,0.7,93,7,8000,29.632,,55.56,260,7.8,15.4,,,,,,,,61,wg-a,,,,AAXX 06064 07240 02358 82616 10080 20070 39778 49910 53007 61000 76162 878// 90600 333 10154 20078 6013 91030=
07240,1997-05-06 09:00:00,9,991.7,1,93,8,11000,18.52,,,230,,,,,,,,,,,wg-a,,,,AAXX 06094 07240 32/61 /2310 10090 20080 39786 49917 51010 90900=
07240,1997-05-06 12:00:00,7,995.8,4,87,5,25000,29.632,,50.004,310,,,,,,,,,,3,wg-a,,,,AAXX 06124 07240 12475 73116 10070 20050 39825 49958 53040 60036 70362 878// 91200 333 91027=
07240,1997-05-06 15:00:00,9,999.5,3.6,76,5,25000,29.632,,50.004,320,,,,1,,,,,,1,wg-a,,,,AAXX 06154 07240 12575 73216 10090 20050 39862 49995 51036 60017 70162 8587/ 91500 333 91027=
07240,1997-05-06 18:00:00,7,1002.9,3.4,81,4,25000,18.52,,,300,5.5,10.7,,,,,,,,25,wg-a,,,,AAXX 06184 07240 02575 73010 10070 20040 39895 40029 51034 61000 72586 8583/ 91800 333 10107 20055 6001=
07240,1997-05-07 00:00:00,2,1005.2,-0.5,93,1,15000,0,,,0,,,,,,,,,,,wg-a,,,,AAXX 07004 07240 12/65 60000 10020 20010 39915 40052 58005 60006 84032 90000=
07240,1997-05-07 03:00:00,3,1003.2,-1.9,100,3,10000,3.704,,,190,,,,,,,,,,,wg-a,,,,AAXX 07034 07240 12660 81902 10030 20030 39896 40032 56019 60006 8457/ 90300=
07240,1997-05-07 06:00:00,1,1002.8,-0.5,93,0,500,7.408,,,40,1.3,7,,,,,,,,71,wg-a,,,,AAXX 07064 07240 02200 80404 10010 20000 39891 40028 56005 61000 77176 8377/ 90600 333 10070 20013 6009=
07240,1997-05-07 09:00:00,3,1002.3,-0.4,100,3,12000,11.112,,,20,,,,4,,,,,,23,wg-a,,,,AAXX 07094 07240 12262 /0206 10030 20030 39887 40023 55004 60047 72376 83772 90900=
07240,1997-05-07 12:00:00,7,1002.9,0.8,76,3,20000,14.816,,,320,,,,,,,,,,3,wg-a,,,,AAXX 07124 07240 12470 73208 10070 20030 39895 40029 51008 60066 70376 872// 91200=
07240,1997-05-07 15:00:00,8,1003.8,1,71,3,20000,18.52,,,20,,,,0,,,,,,15,wg-a,,,,AAXX 07154 07240 12470 70210 10080 20030 39904 40038 53010 60007 71586 8697/ 91500=
07240,1997-05-07 18:00:00,5,1006,1.9,87,3,12000,18.52,,,10,0.2,9,,0,,,,,,15,wg-a,,,,AAXX 07184 07240 02462 50110 10050 20030 39924 40060 53019 60006 71586 85900 91800 333 10090 20002 60007=
07240,1997-05-07 21:00:00,3,1008.5,2.4,93,2,20000,11.112,,,250,,,,,,,,,,,wg-a,,,,AAXX 07214 07240 12470 /2506 10030 20020 39948 40085 53024 60006 81300 92100=
07240,1997-05-08 00:00:00,3,1009.1,0.6,93,2,20000,14.816,,,240,,,,,,,,,,,wg-a,,,,AAXX 08004 07240 12/70 02408 10030 20020 39954 40091 50006 60006 80000 90000=
07240,1997-05-08 03:00:00,3,1008.3,-0.9,93,2,15000,14.816,,,220,,,,0,,,,,,,wg-a,,,,AAXX 08034 07240 12/65 12208 10030 20020 39946 40083 58009 60007 80001 90300=
07240,1997-05-08 06:00:00,4,1007.8,-0.4,87,2,18000,14.816,,,220,2.1,5.7,,,,,7,,,,wg-a,,,,AAXX 08064 07240 02/68 72208 10040 20020 39942 40078 56004 60006 81036 90600 333 10057 20021 60074=
07240,1997-05-08 09:00:00,9,1006.9,-0.7,76,5,20000,29.632,,,240,,,,,,,,,,,wg-a,,,,AAXX 08094 07240 12570 72416 10090 20050 39935 40069 58007 60006 8485/ 90900=
07240,1997-05-08 12:00:00,11,1005.7,-1,71,6,20000,22.224,,,220,,,,,,,,,,25,wg-a,,,,AAXX 08124 07240 02570 72212 10110 20060 39925 40057 58010 61000 72586 878// 91200 333 6100=
07240,1997-05-08 15:00:00,12,1004.3,-1.4,71,7,12000,25.928,,,230,,,,1,,,,,,25,wg-a,,,,AAXX 08154 07240 12562 72314 10120 20070 39911 40043 58014 60017 72586 85802 91500=
07240,1997-05-08 18:00:00,11,1003.1,-1.3,87,9,15000,25.928,,,220,3.8,13.1,,,,,,,,61,wg-a,,,,AAXX 08184 07240 02565 82214 10110 20090 39899 40031 58013 61000 76186 872// 91800 333 10131 20038 6000=
07240,1997-05-09 00:00:00,9,1002.3,-0.3,93,8,20000,22.224,,,240,,,,2,,,,,,1,wg-a,,,,AAXX 09004 07240 02670 /2412 10090 20080 39890 40023 57003 60136 70161 81501 90000 333 60027=
07240,1997-05-09 03:00:00,8,1002.3,0,93,7,20000,14.816,,,230,,,,,,,,,,,wg-a,,,,AAXX 09034 07240 12670 22308 10080 20070 39890 40023 50000 60006 81501 90300=
07240,1997-05-09 06:00:00,8,1003.3,1,93,7,20000,22.224,,,240,7.4,11.1,,,,,14,,,,wg-a,,,,AAXX 09064 07240 02770 42412 10080 20070 39900 40033 53010 60006 81532 90600 333 10111 20074 60144=
07240,1997-05-09 09:00:00,11,1004.7,1.5,82,8,15000,29.632,,61.116,250,,,,1,,,,,,25,wg-a,,,,AAXX 09094 07240 12565 /2516 10110 20080 39915 40047 51015 60017 72586 85800 90900 333 91033=
07240,1997-05-09 12:00:00,9,1006.4,1.6,87,7,12000,25.928,,48.152,270,,,,0,,,,,,80,wg-a,,,,AAXX 09124 07240 02662 /2714 10090 20070 39931 40064 53016 60016 78086 86200 91200 333 60007 91026=
07240,1997-05-09 15:00:00,15,1006.6,0.5,63,8,20000,25.928,,44.448,250,,,,1,,,,,,2,wg-a,,,,AAXX 09154 07240 12370 /2514 10150 20080 39935 40066 51005 60017 70286 85270 91500 333 91024=
07240,1997-05-09 18:00:00,13,1008.5,1.7,54,4,500,29.632,,,260,8.4,15.2,,,,,,,,1,wg-a,,,,AAXX 09184 07240 12600 52616 10130 20040 39953 40085 53017 60006 70186 84230 91800 333 10152 20084=
07240,1997-05-09 21:00:00,10,1010.9,2.2,76,6,25000,18.52,,,220,,,,,,,,,,,wg-a,,,,AAXX 09214 07240 12775 12210 10100 20060 39975 40109 51022 60006 81500 92100=
07240,1997-05-10 00:00:00,9,1011.7,0.8,87,7,20000,18.52,,,220,,,,,,,,,,,wg-a,,,,AAXX 10004 07240 12670 32210 10090 20070 39983 40117 51008 60006 83500 90000=
07240,1997-05-10 03:00:00,9,1011,-0.7,87,7,15000,14.816,,,190,,,,,,,,,,,wg-a,,,,AAXX 10034 07240 12565 71908 10090 20070 39976 40110 58007 60006 8485/ 90300=
07240,1997-05-10 06:00:00,10,1010.6,-0.3,93,9,15000,18.52,,,190,8.6,13.6,,,,,3,,,3,wg-a,,,,AAXX 10064 07240 02365 71910 10100 20090 39972 40106 56003 60006 70361 877// 90600 333 10136 20086 60034=
07240,1997-05-10 09:00:00,13,1010.4,-0.1,82,10,20000,29.632,,,200,,,,,,,,,,,wg-a,,,,AAXX 10094 07240 12470 72016 10130 20100 39972 40104 58001 60006 875// 90900=
07240,1997-05-10 12:00:00,15,1009.5,-0.8,77,11,20000,31.484,,,200,,,,0,,,,,,21,wg-a,,,,AAXX 10124 07240 02570 72017 10150 20110 39964 40095 58008 60006 72162 878// 91200 333 60007=
07240,1997-05-10 15:00:00,15,1009.4,0,77,11,20000,29.632,,,220,,,,1,,,,,,25,wg-a,,,,AAXX 10154 07240 12470 72216 10150 20110 39963 40094 50000 60017 72586 878// 91500=
07240,1997-05-10 18:00:00,16,1008.6,-0.8,63,9,20000,25.928,,,210,10,16.5,,,,,,,,1,wg-a,,,,AAXX 10184 07240 12670 /2114 10160 20090 39955 40086 56008 60006 70186 83870 91800 333 10165 20100=
07240,1997-05-11 00:00:00,11,1010.1,0.5,82,8,10000,11.112,,,190,,,,,,,,,,,wg-a,,,,AAXX 11004 07240 12/60 41906 10110 20080 39968 40101 51005 60006 84032 90000=
07240,1997-05-11 03:00:00,11,1009.5,-0.6,87,9,10000,18.52,,,190,,,,0,,,,,,21,wg-a,,,,AAXX 11034 07240 12660 71910 10110 20090 39962 40095 58006 60007 72111 8757/ 90300=
07240,1997-05-11 06:00:00,11,1009.7,0.2,87,9,12000,14.816,,,200,10.3,15.4,,,,,,,,21,wg-a,,,,AAXX 11064 07240 02462 72008 10110 20090 39964 40097 53002 61000 72161 8587/ 90600 333 10154 20103 6003=
07240,1997-05-11 09:00:00,11,1010.7,1,100,11,12000,14.816,,,210,,,,3,,,,,,60,wg-a,,,,AAXX 11094 07240 12262 82108 10110 20110 39974 40107 51010 60037 76062 8687/ 90900=
07240,1997-05-11 12:00:00,12,1011.8,1.1,88,10,10000,18.52,,,210,,,,2,,,,,,60,wg-a,,,,AAXX 11124 07240 02460 82110 10120 20100 39985 40118 53011 60056 76062 8687/ 91200 333 60027=
07240,1997-05-11 18:00:00,13,1013.4,0.8,72,8,20000,25.928,,,200,10.5,14,,,,,,,,1,wg-a,,,,AAXX 11184 07240 12570 42014 10130 20080 30002 40134 53008 60006 70161 83801 91800 333 10140 20105=
07240,1997-05-11 21:00:00,11,1016.3,2.7,82,8,20000,18.52,,,220,,,,,,,,,,,wg-a,,,,AAXX 11214 07240 12770 42210 10110 20080 30029 40163 53027 60006 82501 92100=
07240,1997-05-12 00:00:00,9,1017.8,1.4,87,7,15000,14.816,,,210,,,,,,,,,,,wg-a,,,,AAXX 12004 07240 12/65 22108 10090 20070 30043 40178 52014 60006 80001 90000=
07240,1997-05-12 03:00:00,8,1018.6,0.7,93,7,10000,14.816,,,200,,,,,,,,,,,wg-a,,,,AAXX 12034 07240 12/60 22008 10080 20070 30050 40186 52007 60006 80001 90300=
07240,1997-05-12 06:00:00,8,1020.2,1.6,100,8,12000,11.112,,,190,7,13.3,,,,,6,,,,wg-a,,,,AAXX 12064 07240 02/62 31906 10080 20080 30066 40202 53016 60006 80001 90600 333 10133 20070 60064=
07240,1997-05-12 09:00:00,14,1021.2,1.3,72,9,11000,14.816,,,180,,,,,,,,,,,wg-a,,,,AAXX 12094 07240 12/61 /1808 10140 20090 30079 40212 51013 60006 90900=
07240,1997-05-12 12:00:00,16,1021.3,0.2,51,6,25000,14.816,,,200,,,,,,,,,,,wg-a,,,,AAXX 12124 07240 12675 /2008 10160 20060 30081 40213 50002 60006 85102 91200=
07240,1997-05-12 15:00:00,16,1020.7,-0.6,55,7,25000,14.816,,,220,,,,,,,,,,80,wg-a,,,,AAXX 12154 07240 02675 /2208 10160 20070 30075 40207 56006 61000 78086 85202 91500 333 ////=
07240,1997-05-12 18:00:00,17,1020,-0.7,45,5,25000,14.816,,,240,8.5,17.7,,0,,,,,,1,wg-a,,,,AAXX 12184 07240 02775 22408 10170 20050 30068 40200 55007 60006 70186 82201 91800 333 10177 20085 60007=
07240,1997-05-12 21:00:00,12,1021.5,1.3,62,5,25000,3.704,,,260,,,,,,,,,,,wg-a,,,,AAXX 12214 07240 12775 22602 10120 20050 30081 40215 51013 60006 81530 92100=
07240,1997-05-13 00:00:00,8,1022,0.3,87,6,20000,0,,,0,,,,,,,,,,,wg-a,,,,AAXX 13004 07240 12670 /0000 10080 20060 30084 40220 51003 60006 85500 90000=
07240,1997-05-13 03:00:00,6,1021.6,-0.5,93,5,20000,3.704,,,330,,,,,,,,,,,wg-a,,,,AAXX 13034 07240 12/70 43302 10060 20050 30079 40216 56005 60006 84031 90300=
07240,1997-05-13 06:00:00,7,1021.5,-0,100,7,20000,3.704,,,30,5.3,16.7,,,,,,,,,wg-a,,,,AAXX 13064 07240 02770 30302 10070 20070 30079 40215 55000 60006 83531 90600 333 10167 20053 60004=
07240,1997-05-13 09:00:00,16,1020.8,-0.3,59,8,25000,7.408,,,60,,,,,,,,,,,wg-a,,,,AAXX 13094 07240 12/75 50604 10160 20080 30076 40208 58003 60006 81032 90900=
07240,1997-05-13 12:00:00,19,1019.6,-1.1,52,9,25000,3.704,,,40,,,,,,,,,,,wg-a,,,,AAXX 13124 07240 12675 60402 10190 20090 30065 40196 58011 60006 82132 91200=
07240,1997-05-13 15:00:00,17,1018.6,-1,63,10,25000,14.816,,,330,,,,,,,,,,60,wg-a,,,,AAXX 13154 07240 02675 83308 10170 20100 30055 40186 56010 61000 76062 82172 91500 333 ////=
07240,1997-05-13 18:00:00,15,1018.2,-0.5,88,13,20000,7.408,,,350,7.8,19,,2,,,,,,60,wg-a,,,,AAXX 13184 07240 12670 83504 10150 20130 30050 40182 55005 60027 76062 8357/ 91800 333 10190 20078=
07240,1997-05-13 21:00:00,13,1019.2,0.9,94,12,8000,0,,,0,,,,3,,,,,,60,wg-a,,,,AAXX 13214 07240 12658 80000 10130 20120 30059 40192 50009 60037 76066 8157/ 92100=
07240,1997-05-14 00:00:00,12,1019.9,0.6,94,11,8000,0,,,0,,,,2,,,,,,60,wg-a,,,,AAXX 14004 07240 02/58 80000 10120 20110 30065 40199 51006 60056 76066 8707/ 90000 333 60027=
07240,1997-05-14 03:00:00,12,1019.9,-0,94,11,8000,3.704,,,180,,,,1,,,,,,,wg-a,,,,AAXX 14034 07240 12558 81802 10120 20110 30065 40199 55000 60017 875// 90300=
07240,1997-05-14 06:00:00,12,1021,1.1,94,11,2300,7.408,,,170,10.9,14.6,,,,,8,,,10,wg-a,,,,AAXX 14064 07240 02123 71704 10120 20110 30076 40210 53011 60006 71064 8263/ 90600 333 10146 20109 60084=
07240,1997-05-14 09:00:00,16,1021.6,0.8,77,12,11000,7.408,,,110,,,,,,,,,,,wg-a,,,,AAXX 14094 07240 12/61 /1104 10160 20120 30084 40216 51008 60006 90900=
07240,1997-05-14 12:00:00,17,1021.1,-0.4,68,11,18000,14.816,,,100,,,,,,,,,,,wg-a,,,,AAXX 14124 07240 12568 /1008 10170 20110 30080 40211 58004 60006 83202 91200=
07240,1997-05-14 15:00:00,18,1019.7,-1.3,59,10,500,14.816,,,80,,,,,,,,,,,wg-a,,,,AAXX 14154 07240 12500 /0808 10180 20100 30066 40197 56013 60006 83202 91500=
07240,1997-05-14 18:00:00,17,1019.7,-0.1,68,11,500,11.112,,,110,11.6,18.6,,,,,,,,,wg-a,,,,AAXX 14184 07240 12600 51106 10170 20110 30065 40197 55001 60006 82232 91800 333 10186 20116=
07240,1997-05-14 21:00:00,13,1020,0.2,94,12,15000,7.408,,,80,,,,,,,,,,,wg-a,,,,AAXX 14214 07240 12/65 70804 10130 20120 30067 40200 51002 60006 8703/ 92100=
07240,1997-05-15 00:00:00,13,1018.9,-1.1,94,12,10000,14.816,,,90,,,,,,,,,,60,wg-a,,,,AAXX 15004 07240 02760 70908 10130 20120 30056 40189 58011 61000 76061 8757/ 90000 333 6100=
07240,1997-05-15 03:00:00,13,1017.1,-1.9,94,12,10000,14.816,,,60,,,,2,,,,,,60,wg-a,,,,AAXX 15034 07240 12660 70608 10130 20120 30038 40171 56019 60027 76066 8757/ 90300=
07240,1997-05-15 06:00:00,13,1016.3,-0.7,88,11,6000,11.112,,,30,12.4,16.9,,,,,2,,,3,wg-a,,,,AAXX 15064 07240 02356 70306 10130 20110 30030 40163 55007 60006 70362 875// 90600 333 10169 20124 60024=
07240,1997-05-15 09:00:00,15,1015.3,-0.9,88,13,15000,14.816,,,80,,,,0,,,,,,3,wg-a,,,,AAXX 15094 07240 12465 /0808 10150 20130 30021 40153 56009 60007 70362 84130 90900=
07240,1997-05-15 12:00:00,21,1014.3,-0.8,69,15,18000,7.408,,,170,,,,,,,,,,3,wg-a,,,,AAXX 15124 07240 12568 31704 10210 20150 30014 40143 58008 60006 70361 83200 91200=
07240,1997-05-15 15:00:00,22,1013.2,-0.9,60,14,20000,3.704,,,270,,,,,,,,,,,wg-a,,,,AAXX 15154 07240 12670 42702 10220 20140 30004 40132 56009 60006 83230 91500=
07240,1997-05-15 18:00:00,21,1013.2,-0.1,73,16,25000,7.408,,,310,12.5,22.5,,,,,,,,,wg-a,,,,AAXX 15184 07240 12675 /3104 10210 20160 30003 40132 55001 60006 81232 91800 333 10225 20125=
07240,1997-05-15 21:00:00,17,1013.3,-0.2,88,15,25000,7.408,,,350,,,,,,,,,,13,wg-a,,,,AAXX 15214 07240 12/75 73504 10170 20150 30002 40133 58002 60006 71322 85052 92100=
07240,1997-05-16 00:00:00,16,1013.2,0,94,15,15000,7.408,,,110,,,,0,,,,,,21,wg-a,,,,AAXX 16004 07240 02/65 81104 10160 20150 30001 40132 50000 60016 72162 8707/ 90000 333 60007=
07240,1997-05-16 03:00:00,14,1012.2,-1.1,100,14,12000,11.112,,,80,,,,,,,,,,21,wg-a,,,,AAXX 16034 07240 02/62 70806 10140 20140 39990 40122 58011 61000 7212/ 8707/ 90300 333 ////=
07240,1997-05-16 06:00:00,15,1012.2,0.1,94,14,7000,11.112,,,90,13.7,21.2,,,,,1,,,,wg-a,,,,AAXX 16064 07240 02757 70906 10150 20140 39991 40122 53001 60006 82532 90600 333 10212 20137 60014=
07240,1997-05-16 09:00:00,20,1011.8,-0.2,78,16,15000,14.816,,,140,,,,,,,,,,,wg-a,,,,AAXX 16094 07240 12765 51408 10200 20160 39989 40118 55002 60006 84530 90900=
07240,1997-05-16 12:00:00,23,1011.3,-0.3,50,12,20000,22.224,,,190,,,,,,,,,,,wg-a,,,,AAXX 16124 07240 12670 /1912 10230 20120 39985 40113 58003 60006 81101 91200=
07240,1997-05-16 18:00:00,22,1010.7,0.2,65,15,20000,7.408,,,120,14.8,24.5,,,,,,,,,wg-a,,,,AAXX 16184 07240 12670 71204 10220 20150 39979 40107 53002 60006 82232 91800 333 10245 20148=
07240,1997-05-16 21:00:00,17,1011.8,0.9,82,14,10000,7.408,,,350,,,,,,,,,,,wg-a,,,,AAXX 16214 07240 12/60 /3504 10170 20140 39988 40118 53009 60006 92100=
07240,1997-05-17 00:00:00,15,1011.5,-0.4,88,13,20000,11.112,,,110,,,,,,,,,,,wg-a,,,,AAXX 17004 07240 12770 21106 10150 20130 39984 40115 56004 60006 82500 90000=
07240,1997-05-17 06:00:00,15,1010.8,0.6,82,12,25000,11.112,,,160,13.1,21.6,,,,,,,,,wg-a,,,,AAXX 17064 07240 02/75 41606 10150 20120 39977 40108 53006 60006 82081 90600 333 10216 20131 60004=
07240,1997-05-17 09:00:00,19,1011.5,0.8,73,14,500,18.52,,,230,,,,,,,,,,,wg-a,,,,AAXX 17094 07240 12500 /2310 10190 20140 39985 40115 53008 60006 85281 90900=
07240,1997-05-17 12:00:00,20,1011.4,-0.1,73,15,500,14.816,,,190,,,,,,,,,,,wg-a,,,,AAXX 17124 07240 12500 71908 10200 20150 39985 40114 58001 60006 8528/ 91200=
07240,1997-05-17 15:00:00,16,1012.1,0.5,88,14,11000,14.816,,,210,,,,,,,,,,,wg-a,,,,AAXX 17154 07240 32/61 /2108 10160 20140 39990 40121 53005 91500=
07240,1997-05-17 18:00:00,16,1011.8,-0.3,82,13,500,11.112,,,170,15,20.5,,,,,,,,1,wg-a,,,,AAXX 17184 07240 12400 71706 10160 20130 39987 40118 56003 60006 70198 8687/ 91800 333 10205 20150=
07240,1997-05-17 21:00:00,14,1012.6,0.7,88,12,500,7.408,,,160,,,,,,,,,,,wg-a,,,,AAXX 17214 07240 12/00 51604 10140 20120 39994 40126 53007 60006 82032 92100=
07240,1997-05-18 00:00:00,13,1012.9,0.4,94,12,500,7.408,,,210,,,,,,,,,,,wg-a,,,,AAXX 18004 07240 12400 72104 10130 20120 39997 40129 53004 60006 878// 90000=
07240,1997-05-18 03:00:00,12,1012.3,-0.8,94,11,10000,18.52,,,190,,,,,,,,,,,wg-a,,,,AAXX 18034 07240 12/60 /1910 10120 20110 39990 40123 56008 60006 90300=
07240,1997-05-18 06:00:00,13,1012.3,0.1,88,11,500,18.52,,,190,12,15.8,,,,,24,,,,wg-a,,,,AAXX 18064 07240 02300 71910 10130 20110 39991 40123 53001 60006 875// 90600 333 10158 20120 60244=
07240,1997-05-18 09:00:00,15,1013,0.7,82,12,500,18.52,,,200,,,,,,,,,,,wg-a,,,,AAXX 18094 07240 12400 72010 10150 20120 39998 40130 50007 60006 878// 90900=
07240,1997-05-18 12:00:00,17,1012.4,-0.5,63,10,500,14.816,,,180,,,,,,,,,,,wg-a,,,,AAXX 18124 07240 12500 71808 10170 20100 39993 40124 58005 60006 868// 91200=
07240,1997-05-18 18:00:00,20,1010,-1.2,53,10,500,11.112,,,140,12.7,20.1,,,,,,,,,wg-a,,,,AAXX 18184 07240 12600 31406 10200 20100 39971 40100 56012 60006 81102 91800 333 10201 20127=
07240,1997-05-18 19:00:00,20,1010,-0,53,10,500,11.112,,,140,12.7,,,,,,,,,,wg-a,,,,AAXX 18194 07240 12600 31406 10200 20100 40100 54000 60006 81702 91900 333 20127=
07240,1997-05-18 21:00:00,15,1010.2,-0,82,12,20000,11.112,,,100,,,,,,,,,,,wg-a,,,,AAXX 18214 07240 12/70 71006 10150 20120 39971 40102 55000 60006 8708/ 92100=
07240,1997-05-19 00:00:00,15,1008.6,-1.6,77,11,15000,18.52,,,100,,,,,,,,,,,wg-a,,,,AAXX 19004 07240 12765 71010 10150 20110 39955 40086 58016 60006 875// 90000=
07240,1997-05-19 03:00:00,14,1006.8,-1.8,82,11,10000,11.112,,,110,,,,,,,,,,,wg-a,,,,AAXX 19034 07240 12/60 /1106 10140 20110 39937 40068 58018 60006 90300=
07240,1997-05-19 06:00:00,14,1007.3,0.6,88,12,10000,7.408,,,180,13.9,19.3,,,,,,,,60,wg-a,,,,AAXX 19064 07240 02560 71804 10140 20120 39942 40073 53006 61000 76062 8557/ 90600 333 10193 20139 6000=
07240,1997-05-19 12:00:00,16,1008,0.7,82,13,15000,22.224,,,180,,,,0,,,,,,3,wg-a,,,,AAXX 19124 07240 02465 71812 10160 20130 39950 40080 53007 60036 70362 8583/ 91200 333 60007=
07240,1997-05-19 15:00:00,19,1007.1,-0.9,68,13,11000,14.816,,,180,,,,,,,,,,,wg-a,,,,AAXX 19154 07240 12/61 /1808 10190 20130 39942 40071 58009 60006 91500=
07240,1997-05-19 18:00:00,19,1006.9,-0.1,64,12,25000,14.816,,,230,13.1,20.2,,,,,,,,1,wg-a,,,,AAXX 19184 07240 12575 42308 10190 20120 39940 40069 55001 60006 70191 82301 91800 333 10202 20131=
07240,1997-05-19 21:00:00,14,1007.9,0.8,82,11,25000,7.408,,,130,,,,,,,,,,,wg-a,,,,AAXX 19214 07240 12/75 11304 10140 20110 39948 40079 51008 60006 80001 92100=
07240,1997-05-20 00:00:00,12,1007,-1,94,11,20000,11.112,,,140,,,,,,,,,,,wg-a,,,,AAXX 20004 07240 12/70 71406 10120 20110 39938 40070 58010 60006 84032 90000=
07240,1997-05-20 03:00:00,13,1006.3,-0.6,94,12,10000,11.112,,,180,,,,2,,,,,,60,wg-a,,,,AAXX 20034 07240 12560 71806 10130 20120 39932 40063 55006 60027 76096 8487/ 90300=
07240,1997-05-20 06:00:00,12,1007.1,0.7,94,11,12000,14.816,,,200,11.6,19,,,,,,,,21,wg-a,,,,AAXX 20064 07240 02362 /2008 10120 20110 39939 40071 50007 61000 72196 84572 90600 333 10190 20116 6009=
07240,1997-05-20 09:00:00,15,1007.1,0.1,77,11,15000,25.928,,,210,,,,,,,,,,,wg-a,,,,AAXX 20094 07240 12565 72114 10150 20110 39940 40071 50001 60006 8527/ 90900=
07240,1997-05-20 12:00:00,11,1007.9,0.6,94,10,10000,22.224,,,240,,,,15,,,,,,81,wg-a,,,,AAXX 20124 07240 02260 72412 10110 20100 39946 40079 51006 60156 78198 879// 91200 333 60157=
07240,1997-05-20 15:00:00,15,1007.1,-0.4,77,11,20000,31.484,,,230,,,,1,,,,,,3,wg-a,,,,AAXX 20154 07240 12570 72317 10150 20110 39940 40071 55004 60017 70398 8527/ 91500=
07240,1997-05-20 18:00:00,14,1008.3,1.1,82,11,20000,25.928,,42.596,230,9.7,17,,,,,,,,1,wg-a,,,,AAXX 20184 07240 12570 72314 10140 20110 39952 40083 51011 60006 70198 8527/ 91800 333 10170 20097 91023=
07240,1997-05-20 21:00:00,13,1009.5,1.1,88,11,20000,18.52,,,220,,,,,,,,,,,wg-a,,,,AAXX 20214 07240 12670 /2210 10130 20110 39963 40095 52011 60006 85800 92100=
07240,1997-05-21 00:00:00,12,1009.5,0,88,10,20000,22.224,,,220,,,,,,,,,,,wg-a,,,,AAXX 21004 07240 12470 72212 10120 20100 39963 40095 50000 60006 875// 90000=
07240,1997-05-21 03:00:00,12,1009.3,-0.3,88,10,15000,22.224,,,230,,,,2,,,,,,,wg-a,,,,AAXX 21034 07240 12565 72312 10120 20100 39960 40093 58003 60027 875// 90300=
07240,1997-05-21 06:00:00,11,1009.9,0.7,94,10,8000,22.224,,,240,11.4,14.4,,,,,,,,60,wg-a,,,,AAXX 21064 07240 02358 82412 10110 20100 39966 40099 53007 61000 76086 888// 90600 333 10144 20114 6018=
07240,1997-05-21 12:00:00,16,1011.5,0.6,72,11,20000,25.928,,,250,,,,,,,,,,1,wg-a,,,,AAXX 21124 07240 02570 72514 10160 20110 39984 40115 51006 61000 70162 8683/ 91200 333 ////=
07240,1997-05-21 15:00:00,17,1011.6,0.1,72,12,15000,14.816,,,280,,,,2,,,,,,25,wg-a,,,,AAXX 21154 07240 12365 /2808 10170 20120 39985 40116 50001 60027 72586 84272 91500=
07240,1997-05-21 18:00:00,14,1013.2,1.5,88,12,15000,14.816,,,260,11.4,18.2,,3,,,,,,1,wg-a,,,,AAXX 21184 07240 02565 /2608 10140 20120 30000 40132 51015 60006 70198 84970 91800 333 10182 20114 60037=
07240,1997-05-22 00:00:00,12,1015.5,0.2,94,11,10000,11.112,,,260,,,,,,,,,,2,wg-a,,,,AAXX 22004 07240 12660 /2606 10120 20110 30022 40155 51002 60016 70286 83570 90000=
07240,1997-05-22 03:00:00,11,1015.6,-0,94,10,10000,14.816,,,250,,,,,,,,,,,wg-a,,,,AAXX 22034 07240 12260 72508 10110 20100 30022 40156 55000 60006 876// 90300=
07240,1997-05-22 06:00:00,12,1016,0.4,94,11,8000,7.408,,,240,11.2,13.6,,,,,5,,,,wg-a,,,,AAXX 22064 07240 02258 72404 10120 20110 30026 40160 53004 60006 876// 90600 333 10136 20112 60054=
07240,1997-05-22 09:00:00,13,1017,1.1,94,12,8000,7.408,,,260,,,,,,,,,,,wg-a,,,,AAXX 22094 07240 12358 /2604 10130 20120 30037 40170 51011 60006 876// 90900=
07240,1997-05-22 12:00:00,15,1016.9,-0.1,72,10,15000,11.112,,,250,,,,,,,,,,,wg-a,,,,AAXX 22124 07240 12565 72506 10150 20100 30037 40169 56001 60006 8727/ 91200=
07240,1997-05-22 18:00:00,18,1015.5,-0.4,59,10,25000,3.704,,,310,11.5,18.1,,,,,,,,,wg-a,,,,AAXX 22184 07240 12675 23102 10180 20100 30024 40155 55004 60006 82801 91800 333 10181 20115=
07240,1997-05-22 21:00:00,13,1016.3,0.5,82,10,15000,3.704,,,60,,,,,,,,,,,wg-a,,,,AAXX 22214 07240 12765 20602 10130 20100 30030 40163 51005 60006 82501 92100=
07240,1997-05-23 00:00:00,11,1015.9,-0.5,94,10,15000,7.408,,,90,,,,,,,,,,,wg-a,,,,AAXX 23004 07240 12/65 70904 10110 20100 30025 40159 56005 60006 83032 90000=
07240,1997-05-23 03:00:00,10,1015.5,-0.4,93,9,12000,3.704,,,80,,,,,,,,,,,wg-a,,,,AAXX 23034 07240 12/62 70802 10100 20090 30021 40155 56004 60006 83032 90300=
07240,1997-05-23 06:00:00,11,1016.2,0.7,100,11,15000,11.112,,,80,9.1,17.6,,,,,,,,,wg-a,,,,AAXX 23064 07240 02/65 40806 10110 20110 30028 40162 53007 60006 81032 90600 333 10176 20091 60004=
07240,1997-05-23 09:00:00,15,1016.1,0.1,82,12,15000,22.224,,,60,,,,,,,,,,,wg-a,,,,AAXX 23094 07240 12465 60612 10150 20120 30029 40161 51001 60006 84132 90900=
07240,1997-05-23 12:00:00,18,1015.9,-0,73,13,17000,18.52,,,80,,,,,,,,,,,wg-a,,,,AAXX 23124 07240 12667 /0810 10180 20130 30029 40159 55000 60006 85102 91200=
07240,1997-05-23 15:00:00,19,1015.3,-0.6,64,12,20000,25.928,,,50,,,,,,,,,,,wg-a,,,,AAXX 23154 07240 12670 /0514 10190 20120 30023 40153 56006 60006 85102 91500=
07240,1997-05-23 18:00:00,17,1015.3,-0.1,68,11,20000,25.928,,,50,11.6,19.9,,,,,,,,,wg-a,,,,AAXX 23184 07240 12670 /0514 10170 20110 30022 40153 55001 60006 84832 91800 333 10199 20116=
07240,1997-05-23 21:00:00,15,1016.4,1,72,10,20000,22.224,,,50,,,,,,,,,,,wg-a,,,,AAXX 23214 07240 12770 70512 10150 20100 30032 40164 53010 60006 84532 92100=
07240,1997-05-24 00:00:00,12,1017,0.5,76,8,20000,25.928,,,50,,,,,,,,,,,wg-a,,,,AAXX 24004 07240 12/70 50514 10120 20080 30037 40170 50005 60006 82032 90000=
07240,1997-05-24 03:00:00,10,1016.5,-0.6,82,7,10000,25.928,,,50,,,,,,,,,,,wg-a,,,,AAXX 24034 07240 12/60 /0514 10100 20070 30031 40165 58006 60006 90300=
07240,1997-05-24 06:00:00,10,1017.4,0.8,82,7,12000,25.928,,,60,9.4,17.1,,,,,,,,,wg-a,,,,AAXX 24064 07240 02/62 50614 10100 20070 30039 40174 51008 60006 81082 90600 333 10171 20094 60004=
07240,1997-05-24 09:00:00,15,1018.1,1,72,10,20000,29.632,,,60,,,,,,,,,,,wg-a,,,,AAXX 24094 07240 12/70 50616 10150 20100 30049 40181 53010 60006 82082 90900=
07240,1997-05-24 12:00:00,19,1018.3,0.6,56,10,20000,31.484,,,60,,,,,,,,,,,wg-a,,,,AAXX 24124 07240 12/70 70617 10190 20100 30053 40183 52006 60006 83082 91200=
07240,1997-05-24 15:00:00,18,1019.3,0.8,59,10,20000,25.928,,,60,,,,,,,,,,,wg-a,,,,AAXX 24154 07240 12770 70614 10180 20100 30062 40193 51008 60006 8342/ 91500=
07240,1997-05-24 18:00:00,17,1019.4,0.1,59,9,20000,22.224,,,60,10.1,19.4,,,,,,,,,wg-a,,,,AAXX 24184 07240 12770 70612 10170 20090 30062 40194 52001 60006 8151/ 91800 333 10194 20101=
07240,1997-05-25 00:00:00,12,1021.6,0.2,62,5,20000,25.928,,,50,,,,,,,,,,,wg-a,,,,AAXX 25004 07240 12/70 10514 10120 20050 30082 40216 51002 60006 80001 90000=
07240,1997-05-25 03:00:00,10,1021.6,-0,71,5,10000,25.928,,,60,,,,,,,,,,,wg-a,,,,AAXX 25034 07240 12/60 /0614 10100 20050 30081 40216 55000 60006 90300=
07240,1997-05-25 06:00:00,10,1022,0.5,71,5,20000,22.224,,,60,8.7,16.9,,,,,,,,,wg-a,,,,AAXX 25064 07240 02/70 50612 10100 20050 30085 40220 53005 60006 80002 90600 333 10169 20087 60004=
07240,1997-05-25 09:00:00,15,1022.2,0.3,67,9,25000,25.928,,,50,,,,,,,,,,,wg-a,,,,AAXX 25094 07240 12/75 60514 10150 20090 30089 40222 50003 60006 80002 90900=
07240,1997-05-25 12:00:00,19,1021.2,-0.8,60,11,500,31.484,,,50,,,,,,,,,,,wg-a,,,,AAXX 25124 07240 12/00 60517 10190 20110 30081 40212 58008 60006 80002 91200=
07240,1997-05-25 15:00:00,20,1020.7,-0.5,53,10,500,31.484,,51.856,50,,,,,,,,,,,wg-a,,,,AAXX 25154 07240 12/00 40517 10200 20100 30077 40207 58005 60006 80002 91500 333 91028=
07240,1997-05-25 18:00:00,19,1020.9,-0.1,49,8,500,25.928,,,50,10.1,20.9,,,,,,,,,wg-a,,,,AAXX 25184 07240 12/00 30514 10190 20080 30078 40209 55001 60006 81032 91800 333 10209 20101=
07240,1997-05-25 21:00:00,14,1022.2,1.2,58,6,500,18.52,,,60,,,,,,,,,,,wg-a,,,,AAXX 25214 07240 12/00 30610 10140 20060 30089 40222 53012 60006 81032 92100=
07240,1997-05-26 00:00:00,12,1022.6,0.3,62,5,500,18.52,,,60,,,,,,,,,,,wg-a,,,,AAXX 26004 07240 12/00 10610 10120 20050 30092 40226 51003 60006 80001 90000=
07240,1997-05-26 06:00:00,10,1022.8,0.9,76,6,20000,14.816,,,70,8.9,19.2,,,,,,,,,wg-a,,,,AAXX 26064 07240 02/70 30708 10100 20060 30093 40228 53009 60006 80001 90600 333 10192 20089 60004=
07240,1997-05-26 09:00:00,17,1022.6,0.2,48,6,500,29.632,,,70,,,,,,,,,,,wg-a,,,,AAXX 26094 07240 12/00 40716 10170 20060 30094 40226 51002 60006 80001 90900=
07240,1997-05-26 12:00:00,21,1021.8,-0.6,40,7,500,25.928,,,60,,,,,,,,,,,wg-a,,,,AAXX 26124 07240 12/00 40614 10210 20070 30088 40218 58006 60006 80001 91200=
07240,1997-05-26 15:00:00,22,1020.9,-0.8,38,7,40000,14.816,,,60,,,,,,,,,,,wg-a,,,,AAXX 26154 07240 12/82 40608 10220 20070 30080 40209 58008 60006 80001 91500=
07240,1997-05-26 18:00:00,21,1020.2,-0.7,40,7,40000,22.224,,,50,10.6,22.6,,,,,,,,,wg-a,,,,AAXX 26184 07240 12/82 00512 10210 20070 30072 40202 55007 60006 80000 91800 333 10226 20106=
07240,1997-05-26 21:00:00,17,1020.5,0,52,7,25000,18.52,,,50,,,,,,,,,,,wg-a,,,,AAXX 26214 07240 12/75 00510 10170 20070 30073 40205 50000 60006 80000 92100=
07240,1997-05-27 00:00:00,12,1020.7,0.1,76,8,20000,11.112,,,70,,,,,,,,,,,wg-a,,,,AAXX 27004 07240 12/70 00706 10120 20080 30073 40207 53001 60006 80000 90000=
07240,1997-05-27 03:00:00,11,1020.1,-0.7,76,7,20000,22.224,,,70,,,,,,,,,,,wg-a,,,,AAXX 27034 07240 12/70 00712 10110 20070 30066 40201 56007 60006 80000 90300=
07240,1997-05-27 06:00:00,12,1020.2,0.2,71,7,20000,22.224,,,70,10,20.9,,,,,,,,,wg-a,,,,AAXX 27064 07240 02/70 00712 10120 20070 30068 40202 52002 60006 80000 90600 333 10209 20100 60004=
07240,1997-05-27 08:00:00,12,1020.2,0.2,71,7,20000,22.224,,,70,10,20.9,,,,,,,,,wg-a,,,,AAXX 27084 07240 02/70 00712 10120 20070 30068 40202 52002 60006 80000 90800 333 10209 20100 60004=
07240,1997-05-27 09:00:00,18,1020,0,56,9,20000,25.928,,,80,,,,,,,,,,,wg-a,,,,AAXX 27094 07240 12/70 00814 10180 20090 30069 40200 50000 60006 80000 90900=
07240,1997-05-27 12:00:00,21,1019.2,-0.7,56,12,500,29.632,,,60,,,,,,,,,,,wg-a,,,,AAXX 27124 07240 12/00 00616 10210 20120 30062 40192 58007 60006 80000 91200=
07240,1997-05-27 18:00:00,20,1018.3,0.2,49,9,500,29.632,,,50,12.2,21.6,,,,,,,,,wg-a,,,,AAXX 27184 07240 12/00 10516 10200 20090 30053 40183 52002 60006 81030 91800 333 10216 20122=
07240,1997-05-28 00:00:00,12,1020.8,0.7,76,8,15000,29.632,,,60,,,,,,,,,,,wg-a,,,,AAXX 28004 07240 12/65 00616 10120 20080 30074 40208 50007 60006 80000 90000=
07240,1997-05-28 06:00:00,9,1022.6,0.8,81,6,10000,31.484,,,70,8.2,19.5,,,,,,,,,wg-a,,,,AAXX 28064 07240 02/60 00717 10090 20060 30090 40226 53008 60006 80000 90600 333 10195 20082 60004=
07240,1997-05-28 09:00:00,14,1022.9,0.6,58,6,20000,29.632,,,70,,,,,,,,,,,wg-a,,,,AAXX 28094 07240 12/70 10716 10140 20060 30096 40229 53006 60006 80002 90900=
07240,1997-05-28 12:00:00,17,1022.5,-0.4,52,7,25000,29.632,,,60,,,,,,,,,,,wg-a,,,,AAXX 28124 07240 12/75 00616 10170 20070 30093 40225 56004 60006 80000 91200=
07240,1997-05-28 18:00:00,17,1021.6,-0.3,42,4,500,29.632,,,70,9.1,18.6,,,,,,,,,wg-a,,,,AAXX 28184 07240 12/00 00716 10170 20040 30084 40216 55003 60006 80000 91800 333 10186 20091=
07240,1997-05-28 21:00:00,12,1023.1,1.3,67,6,500,18.52,,,60,,,,,,,,,,,wg-a,,,,AAXX 28214 07240 12/00 00610 10120 20060 30097 40231 53013 60006 80000 92100=
07240,1997-05-29 00:00:00,11,1023,-0.2,66,5,20000,18.52,,,60,,,,,,,,,,,wg-a,,,,AAXX 29004 07240 12/70 00610 10110 20050 30095 40230 56002 60006 80000 90000=
07240,1997-05-29 03:00:00,9,1022.9,-0.2,76,5,15000,18.52,,,60,,,,,,,,,,,wg-a,,,,AAXX 29034 07240 12/65 10610 10090 20050 30093 40229 56002 60006 80001 90300=
07240,1997-05-29 06:00:00,10,1023.1,0.1,76,6,18000,22.224,,,70,7.8,17.4,,,,,,,,,wg-a,,,,AAXX 29064 07240 02/68 20712 10100 20060 30095 40231 53001 60006 80001 90600 333 10174 20078 60004=
07240,1997-05-29 09:00:00,16,1022.8,0,55,7,25000,22.224,,,60,,,,,,,,,,,wg-a,,,,AAXX 29094 07240 12/75 10612 10160 20070 30095 40228 50000 60006 80001 90900=
07240,1997-05-29 12:00:00,21,1021.8,-0.6,38,6,500,29.632,,,60,,,,,,,,,,,wg-a,,,,AAXX 29124 07240 12/00 10616 10210 20060 30088 40218 58006 60006 80001 91200=
07240,1997-05-29 15:00:00,23,1021.2,-0.5,38,8,500,29.632,,,70,,,,,,,,,,,wg-a,,,,AAXX 29154 07240 12/00 10716 10230 20080 30083 40212 58005 60006 80001 91500=
07240,1997-05-29 18:00:00,22,1021,-0.3,38,7,500,25.928,,,60,9.9,22.9,,,,,,,,,wg-a,,,,AAXX 29184 07240 12/00 10614 10220 20070 30080 40210 55003 60006 80001 91800 333 10229 20099=
07240,1997-05-29 21:00:00,16,1022.9,1.6,59,8,10000,22.224,,,60,,,,,,,,,,,wg-a,,,,AAXX 29214 07240 12/60 /0612 10160 20080 30096 40229 53016 60006 92100=
07240,1997-05-30 00:00:00,13,1022.7,-0.3,67,7,500,22.224,,,70,,,,,,,,,,,wg-a,,,,AAXX 30004 07240 12/00 10712 10130 20070 30093 40227 58003 60006 80001 90000=
07240,1997-05-30 03:00:00,11,1022.9,0.1,76,7,500,14.816,,,60,,,,,,,,,,,wg-a,,,,AAXX 30034 07240 12/00 50608 10110 20070 30094 40229 50001 60006 80001 90300=
07240,1997-05-30 06:00:00,13,1023.4,0.6,72,8,500,18.52,,,70,10.3,21.7,,,,,,,,,wg-a,,,,AAXX 30064 07240 02/00 60710 10130 20080 30100 40234 53006 60006 80004 90600 333 10217 20103 60004=
07240,1997-05-30 09:00:00,20,1022.6,-0.5,49,9,500,25.928,,,80,,,,,,,,,,,wg-a,,,,AAXX 30094 07240 12/00 60814 10200 20090 30095 40226 57005 60006 80002 90900=
07240,1997-05-30 12:00:00,24,1021.7,-0.4,47,12,500,25.928,,,80,,,,,,,,,,,wg-a,,,,AAXX 30124 07240 12/00 60814 10240 20120 30088 40217 58004 60006 80002 91200=
07240,1997-05-30 15:00:00,25,1020.2,-1.4,41,11,500,25.928,,,60,,,,,,,,,,,wg-a,,,,AAXX 30154 07240 12/00 60614 10250 20110 30074 40202 56014 60006 80001 91500=
07240,1997-05-30 18:00:00,23,1019.2,-1.1,38,8,500,25.928,,,60,13,25.1,,,,,,,,,wg-a,,,,AAXX 30184 07240 12/00 60614 10230 20080 30063 40192 56011 60006 80002 91800 333 10251 20130=
07240,1997-05-30 21:00:00,17,1019.7,0.3,59,9,25000,22.224,,,70,,,,,,,,,,,wg-a,,,,AAXX 30214 07240 12/75 30712 10170 20090 30066 40197 53003 60006 80002 92100=
07240,1997-05-31 00:00:00,14,1018.9,-1,58,6,25000,22.224,,,70,,,,,,,,,,,wg-a,,,,AAXX 31004 07240 12/75 20712 10140 20060 30056 40189 57010 60006 80001 90000=
07240,1997-05-31 03:00:00,11,1018.1,-1,66,5,25000,18.52,,,60,,,,,,,,,,,wg-a,,,,AAXX 31034 07240 12/75 20610 10110 20050 30047 40181 56010 60006 80001 90300=
07240,1997-05-31 09:00:00,17,1015.9,-1.2,52,7,25000,31.484,,,50,,,,,,,,,,,wg-a,,,,AAXX 31094 07240 12/75 50517 10170 20070 30028 40159 57012 60006 80001 90900=
07240,1997-05-31 12:00:00,21,1014.7,-1.2,40,7,25000,31.484,,,60,,,,,,,,,,,wg-a,,,,AAXX 31124 07240 12/75 50617 10210 20070 30018 40147 58012 60006 80001 91200=
07240,1997-05-31 15:00:00,22,1013.4,-1.1,33,5,10000,31.484,,51.856,60,,,,,,,,,,,wg-a,,,,AAXX 31154 07240 12/60 /0617 10220 20050 30005 40134 56011 60006 91500 333 91028=
07240,1997-05-31 18:00:00,20,1012.9,-0.6,37,5,500,31.484,,,60,11.9,22.4,,,,,,,,,wg-a,,,,AAXX 31184 07240 12/00 30617 10200 20050 30000 40129 56006 60006 80001 91800 333 10224 20119=
07240,1997-06-01 00:00:00,12,1012.8,-1.2,44,0,500,25.928,,,60,,,,,,,,,,,wg-a,,,,AAXX 01004 07240 12/00 10614 10120 20000 39995 40128 58012 60006 80001 90000=
07240,1997-06-01 03:00:00,10,1011.8,-1.2,50,0,500,25.928,,,50,,,,,,,,,,,wg-a,,,,AAXX 01034 07240 12/00 10514 10100 20000 39984 40118 57012 60006 80001 90300=
07240,1997-06-01 06:00:00,10,1011.8,-0,53,1,35000,29.632,,,60,9,20.3,,,,,,,,,wg-a,,,,AAXX 01064 07240 02/81 10616 10100 20010 39984 40118 55000 60006 81082 90600 333 10203 20090 60004=
07240,1997-06-01 09:00:00,15,1011.1,-0.7,41,2,35000,38.892,,,60,,,,,,,,,,,wg-a,,,,AAXX 01094 07240 12/81 10621 10150 20020 39979 40111 58007 60006 80002 90900=
07240,1997-06-01 12:00:00,17,1010.3,-0.8,34,1,35000,42.596,,62.968,60,,,,,,,,,,,wg-a,,,,AAXX 01124 07240 12781 10623 10170 20010 39972 40103 56008 60006 81102 91200 333 91034=
07240,1997-06-01 15:00:00,17,1009.5,-0.3,36,2,35000,35.188,,55.56,50,,,,,,,,,,,wg-a,,,,AAXX 01154 07240 12781 10519 10170 20020 39965 40095 58003 60006 81102 91500 333 91030=
07240,1997-06-01 18:00:00,16,1009,-0.6,34,0,35000,25.928,,,50,10.1,17.6,,,,,,,,,wg-a,,,,AAXX 01184 07240 12781 20514 10160 20000 39959 40090 56006 60006 81102 91800 333 10176 20101=
07240,1997-06-01 21:00:00,10,1009.4,0.1,62,3,10000,11.112,,,360,,,,,,,,,,,wg-a,,,,AAXX 01214 07240 12/60 /3606 10100 20030 39960 40094 53001 60006 92100=
07240,1997-06-02 00:00:00,11,1008.3,-1,66,5,10000,14.816,,,30,,,,,,,,,,,wg-a,,,,AAXX 02004 07240 12/60 /0308 10110 20050 39950 40083 57010 60006 90000=
07240,1997-06-02 06:00:00,10,1008.7,0.7,87,8,25000,0,,,0,8.3,15.5,,,,,,,,,wg-a,,,,AAXX 02064 07240 02875 50000 10100 20080 39954 40087 53007 60006 83531 90600 333 10155 20083 60004=
07240,1997-06-02 09:00:00,14,1010.2,1.6,77,10,20000,3.704,,,70,,,,,,,,,,,wg-a,,,,AAXX 02094 07240 12470 70702 10140 20100 39970 40102 51016 60006 875// 90900=
07240,1997-06-02 12:00:00,16,1011.4,1.3,72,11,20000,3.704,,,330,,,,,,,,,,,wg-a,,,,AAXX 02124 07240 12570 73302 10160 20110 39983 40114 51013 60006 875// 91200=
07240,1997-06-02 18:00:00,19,1011.9,0.2,60,11,25000,11.112,,,80,10.6,19.5,,,,,,,,,wg-a,,,,AAXX 02184 07240 12775 10806 10190 20110 39989 40119 53002 60006 81100 91800 333 10195 20106=
07240,1997-06-02 21:00:00,14,1013.5,1.4,82,11,25000,3.704,,,80,,,,,,,,,,,wg-a,,,,AAXX 02214 07240 12675 20802 10140 20110 30003 40135 53014 60006 81201 92100=
07240,1997-06-03 00:00:00,12,1014.3,0.7,76,8,20000,7.408,,,340,,,,,,,,,,,wg-a,,,,AAXX 03004 07240 12/70 43404 10120 20080 30010 40143 51007 60006 80001 90000=
07240,1997-06-03 03:00:00,8,1014.8,0.3,93,7,20000,7.408,,,270,,,,,,,,,,,wg-a,,,,AAXX 03034 07240 12/70 42704 10080 20070 30013 40148 53003 60006 82031 90300=
07240,1997-06-03 06:00:00,10,1015.4,0.7,87,8,20000,7.408,,,300,7.3,18.9,,,,,,,,,wg-a,,,,AAXX 03064 07240 02770 63004 10100 20080 30020 40154 53007 60006 81532 90600 333 10189 20073 60004=
07240,1997-06-03 09:00:00,16,1016.2,1,55,7,25000,11.112,,,240,,,,,,,,,,,wg-a,,,,AAXX 03094 07240 12/75 52406 10160 20070 30030 40162 51010 60006 80002 90900=
07240,1997-06-03 12:00:00,20,1016.2,0.2,43,7,500,18.52,,,270,,,,,,,,,,,wg-a,,,,AAXX 03124 07240 12600 32710 10200 20070 30032 40162 52002 60006 81101 91200=
07240,1997-06-03 15:00:00,21,1015.8,-0.2,33,4,500,11.112,,,210,,,,,,,,,,,wg-a,,,,AAXX 03154 07240 12700 /2106 10210 20040 30029 40158 58002 60006 81101 91500=
07240,1997-06-03 18:00:00,22,1015.4,-0.4,38,7,500,3.704,,,270,10.5,21.8,,,,,,,,,wg-a,,,,AAXX 03184 07240 12/00 12702 10220 20070 30025 40154 56004 60006 80001 91800 333 10218 20105=
07240,1997-06-03 21:00:00,16,1016.6,0.9,59,8,500,3.704,,,350,,,,,,,,,,,wg-a,,,,AAXX 03214 07240 12/00 13502 10160 20080 30034 40166 53009 60006 80001 92100=
07240,1997-06-04 00:00:00,10,1016.9,0.1,82,7,25000,3.704,,,30,,,,,,,,,,,wg-a,,,,AAXX 04004 07240 12/75 30302 10100 20070 30035 40169 50001 60006 80001 90000=
07240,1997-06-04 03:00:00,10,1016,-0.9,82,7,25000,7.408,,,80,,,,,,,,,,,wg-a,,,,AAXX 04034 07240 12/75 60804 10100 20070 30026 40160 56009 60006 84031 90300=
07240,1997-06-04 06:00:00,13,1015.3,-0.7,72,8,500,3.704,,,110,9.4,21.7,,,,,,,,,wg-a,,,,AAXX 04064 07240 02/00 61102 10130 20080 30020 40153 56007 60006 81031 90600 333 10217 20094 60004=
07240,1997-06-04 09:00:00,20,1014,-0.9,49,9,500,14.816,,,80,,,,,,,,,,,wg-a,,,,AAXX 04094 07240 12/00 70808 10200 20090 30010 40140 58009 60006 82032 90900=
07240,1997-06-04 12:00:00,22,1012.6,-1.3,46,10,500,18.52,,,100,,,,,,,,,,,wg-a,,,,AAXX 04124 07240 12/00 71010 10220 20100 39998 40126 58013 60006 83032 91200=
07240,1997-06-04 15:00:00,25,1009.8,-2.6,39,10,500,22.224,,,70,,,,,,,,,,,wg-a,,,,AAXX 04154 07240 12700 60712 10250 20100 39971 40098 58026 60006 82132 91500=
07240,1997-06-04 18:00:00,24,1008,-1.8,47,12,500,14.816,,,80,13.2,25.3,,,,,,,,,wg-a,,,,AAXX 04184 07240 12/00 70808 10240 20120 39953 40080 56018 60006 81032 91800 333 10253 20132=
07240,1997-06-04 21:00:00,20,1007.3,-0.9,60,12,500,18.52,,,70,,,,,,,,,,,wg-a,,,,AAXX 04214 07240 12700 80710 10200 20120 39944 40073 56009 60006 8357/ 92100=
07240,1997-06-05 00:00:00,18,1005.3,-2,68,12,500,18.52,,,80,,,,,,,,,,,wg-a,,,,AAXX 05004 07240 12700 80810 10180 20120 39924 40053 57020 60006 875// 90000=
07240,1997-06-05 03:00:00,16,1004.2,-1.2,88,14,11000,14.816,,,80,,,,,,,,,,,wg-a,,,,AAXX 05034 07240 32/61 /0808 10160 20140 39912 40042 56012 90300=
07240,1997-06-05 06:00:00,17,1003.1,-1.1,88,15,15000,7.408,,,130,15.7,23.4,,,,,1,,,1,wg-a,,,,AAXX 05064 07240 02665 /1304 10170 20150 39902 40031 58011 60006 70162 8353/ 90600 333 10234 20157 60014=
07240,1997-06-05 12:00:00,20,1002.9,0.6,64,13,500,18.52,,,200,,,,,,,,,,,wg-a,,,,AAXX 05124 07240 12500 62010 10200 20130 39901 40029 53006 60006 84830 91200=
07240,1997-06-05 18:00:00,21,1003.1,0.7,60,13,25000,18.52,,,210,17.4,23,,,,,,,,,wg-a,,,,AAXX 05184 07240 12675 52110 10210 20130 39903 40031 53007 60006 84801 91800 333 10230 20174=
07240,1997-06-05 21:00:00,18,1004.9,1.7,77,14,25000,11.112,,,210,,,,,,,,,,,wg-a,,,,AAXX 05214 07240 12775 62106 10180 20140 39920 40049 52017 60006 84531 92100=
07240,1997-06-06 00:00:00,16,1005.7,0.7,88,14,15000,7.408,,,160,,,,,,,,,,,wg-a,,,,AAXX 06004 07240 12765 51604 10160 20140 39927 40057 53007 60006 84530 90000=
07240,1997-06-06 06:00:00,16,1006.7,0.9,88,14,15000,11.112,,,150,14.2,20.9,,,,,,,,,wg-a,,,,AAXX 06064 07240 02765 61506 10160 20140 39937 40067 53009 60006 82531 90600 333 10209 20142 60004=
07240,1997-06-06 09:00:00,22,1007.1,0.7,69,16,20000,18.52,,,180,,,,,,,,,,,wg-a,,,,AAXX 06094 07240 12/70 61810 10220 20160 39943 40071 52007 60006 85031 90900=
07240,1997-06-06 12:00:00,26,1007.2,0.3,48,14,500,25.928,,,160,,,,,,,,,,,wg-a,,,,AAXX 06124 07240 12600 /1614 10260 20140 39946 40072 51003 60006 81132 91200=
07240,1997-06-06 15:00:00,27,1006.3,-0.8,45,14,500,25.928,,,180,,,,,,,,,,,wg-a,,,,AAXX 06154 07240 12700 51814 10270 20140 39938 40063 56008 60006 83101 91500=
07240,1997-06-06 18:00:00,27,1006.2,-0.2,45,14,500,18.52,,,170,16.1,27.6,,,,,,,,,wg-a,,,,AAXX 06184 07240 12700 21710 10270 20140 39936 40062 56002 60006 81101 91800 333 10276 20161=
07240,1997-06-07 00:00:00,14,1,,100,14,10000,0,,,50,,,,,,,,,,,wg-a,,,,AAXX 07004 07240 12560 405// 10140 20140 60006 90000=
07240,1997-06-07 03:00:00,17,1007.6,0.9,88,15,10000,14.816,,,350,,,,,,,,,,,wg-a,,,,AAXX 07034 07240 12/60 /3508 10170 20150 39946 40076 50009 60006 90300=
07240,1997-06-07 06:00:00,17,1007.8,0.2,88,15,11000,3.704,,,70,15.6,26.7,,,,,,,,,wg-a,,,,AAXX 07064 07240 02/61 /0702 10170 20150 39948 40078 53002 60006 90600 333 10267 20156 61000=
07240,1997-06-07 12:00:00,24,1008.9,-0.2,61,16,500,3.704,,,190,,,,,,,,,,1,wg-a,,,,AAXX 07124 07240 12600 41902 10240 20160 39962 40089 58002 60056 70198 84100 91200=
07240,1997-06-07 15:00:00,24,1008.2,-0.7,61,16,500,7.408,,,180,,,,1,,,,,,29,wg-a,,,,AAXX 07154 07240 12500 /1804 10240 20160 39955 40082 57007 60017 72998 83902 91500=
07240,1997-06-07 18:00:00,25,1008.3,0.1,36,9,500,18.52,,,230,15.5,25.9,,,,,,,,3,wg-a,,,,AAXX 07184 07240 12600 /2310 10250 20090 39956 40083 53001 60006 70398 81303 91800 333 10259 20155=
07240,1997-06-07 21:00:00,17,1010.3,1.7,88,15,35000,11.112,,,300,,,,,,,,,,13,wg-a,,,,AAXX 07214 07240 12681 23006 10170 20150 39973 40103 53017 60006 71300 81932 92100=
07240,1997-06-08 00:00:00,15,1012.7,2.2,88,13,500,7.408,,,280,,,,,,,,,,,wg-a,,,,AAXX 08004 07240 12/00 12804 10150 20130 39996 40127 51022 60006 80001 90000=
07240,1997-06-08 06:00:00,15,1015.9,2.3,88,13,500,7.408,,,170,12.3,24.6,,,,,6,,,,wg-a,,,,AAXX 08064 07240 02600 31704 10150 20130 30027 40159 51023 60006 81550 90600 333 10246 20123 60064=
07240,1997-06-08 12:00:00,20,1017.6,0.8,60,12,500,18.52,,,270,,,,,,,,,,,wg-a,,,,AAXX 08124 07240 12600 72710 10200 20120 30046 40176 51008 60006 8423/ 91200=
07240,1997-06-08 15:00:00,21,1018.1,0.6,53,11,500,14.816,,,260,,,,,,,,,,,wg-a,,,,AAXX 08154 07240 12600 52608 10210 20110 30051 40181 53006 60006 82230 91500=
07240,1997-06-08 18:00:00,21,1019.3,1.1,49,10,500,25.928,,,250,14.9,22.2,,,,,,,,,wg-a,,,,AAXX 08184 07240 12600 22514 10210 20100 30063 40193 52011 60006 82800 91800 333 10222 20149=
07240,1997-06-09 00:00:00,14,1022,0.6,82,11,20000,3.704,,,290,,,,,,,,,,,wg-a,,,,AAXX 09004 07240 12/70 12902 10140 20110 30087 40220 50006 60006 80001 90000=
07240,1997-06-09 03:00:00,11,1022.3,0.2,94,10,20000,3.704,,,90,,,,,,,,,,,wg-a,,,,AAXX 09034 07240 12/70 10902 10110 20100 30088 40223 50002 60006 80001 90300=
07240,1997-06-09 06:00:00,14,1022.7,0.5,88,12,20000,3.704,,,20,10.3,20.6,,,,,,,,,wg-a,,,,AAXX 09064 07240 02/70 50202 10140 20120 30094 40227 50005 60006 80001 90600 333 10206 20103 60004=
07240,1997-06-09 09:00:00,20,1022.9,0.4,64,13,20000,7.408,,,100,,,,,,,,,,,wg-a,,,,AAXX 09094 07240 12570 61004 10200 20130 30098 40229 50004 60006 81131 90900=
07240,1997-06-09 12:00:00,24,1021.6,-1.1,44,11,20000,3.704,,,100,,,,,,,,,,,wg-a,,,,AAXX 09124 07240 12670 71002 10240 20110 30087 40216 58011 60006 81101 91200=
07240,1997-06-09 15:00:00,24,1020.4,-1.1,44,11,20000,7.408,,,40,,,,,,,,,,,wg-a,,,,AAXX 09154 07240 12670 70404 10240 20110 30076 40204 57011 60006 81131 91500=
07240,1997-06-09 18:00:00,23,1019.6,-1,50,12,20000,14.816,,,50,14.1,24.4,,,,,,,,,wg-a,,,,AAXX 09184 07240 12/70 50508 10230 20120 30067 40196 56010 60006 83031 91800 333 10244 20141=
07240,1997-06-09 21:00:00,17,1019.6,-0.2,82,14,20000,11.112,,,70,,,,,,,,,,,wg-a,,,,AAXX 09214 07240 12/70 50706 10170 20140 30065 40196 55002 60006 84031 92100=
07240,1997-06-10 00:00:00,16,1018.1,-1.6,82,13,15000,14.816,,,70,,,,,,,,,,,wg-a,,,,AAXX 10004 07240 12/65 00708 10160 20130 30049 40181 56016 60006 80000 90000=
07240,1997-06-10 06:00:00,17,1015.2,-0.7,82,14,500,18.52,,,90,15.2,23.2,,,,,,,,,wg-a,,,,AAXX 10064 07240 02/00 60910 10170 20140 30021 40152 57007 60006 86070 90600 333 10232 20152 60004=
07240,1997-06-10 09:00:00,23,1013.1,-1.7,57,14,500,25.928,,,100,,,,,,,,,,,wg-a,,,,AAXX 10094 07240 12/00 71014 10230 20140 30003 40131 58017 60006 85032 90900=
07240,1997-06-10 12:00:00,25,1013.1,0.1,61,17,500,7.408,,,300,,,,,,,,,,,wg-a,,,,AAXX 10124 07240 12/00 73004 10250 20170 30004 40131 50001 60006 8708/ 91200=
07240,1997-06-10 15:00:00,24,1010.9,-2.2,69,18,20000,0,,,0,,,,,,,,,,,wg-a,,,,AAXX 10154 07240 12/70 70000 10240 20180 39982 40109 58022 60006 8708/ 91500=
07240,1997-06-10 18:00:00,24,1009.3,-1.7,74,19,20000,7.408,,,110,17.4,26.2,,,,,,,,,wg-a,,,,AAXX 10184 07240 12/70 71104 10240 20190 39966 40093 56017 60006 8707/ 91800 333 10262 20174=
07240,1997-06-11 00:00:00,19,1009.6,0.1,88,17,15000,7.408,,,230,,,,,,,,,,,wg-a,,,,AAXX 11004 07240 12665 72304 10190 20170 39967 40096 53001 60006 8457/ 90000=
07240,1997-06-11 03:00:00,18,1008.4,-1.3,94,17,9000,7.408,,,160,,,,4,,,,,,61,wg-a,,,,AAXX 11034 07240 12659 71604 10180 20170 39955 40084 58013 60047 76162 878// 90300=
07240,1997-06-11 06:00:00,18,1008.8,0.5,94,17,15000,7.408,,,160,17.1,24,,,,,4,,,1,wg-a,,,,AAXX 11064 07240 02665 /1604 10180 20170 39959 40088 50005 60006 70162 82282 90600 333 10240 20171 60044=
07240,1997-06-11 09:00:00,23,1008.5,-0.2,69,17,500,14.816,,,190,,,,,,,,,,,wg-a,,,,AAXX 11094 07240 12500 31908 10230 20170 39958 40085 58002 60006 81382 90900=
07240,1997-06-11 12:00:00,20,1008,-0.7,78,16,10000,22.224,,,270,,,,0,,,,,,95,wg-a,,,,AAXX 11124 07240 02660 72712 10200 20160 39951 40080 55007 60016 79596 8598/ 91200 333 60007=
07240,1997-06-11 15:00:00,23,1009.3,1.4,69,17,500,25.928,,,270,,,,4,,,,,,1,wg-a,,,,AAXX 11154 07240 12500 42714 10230 20170 39966 40093 51014 60047 70196 83983 91500=
07240,1997-06-11 18:00:00,21,1009.8,0.5,56,12,500,31.484,,,270,17.5,25.4,,,,,,,,1,wg-a,,,,AAXX 11184 07240 12700 22717 10210 20120 39970 40098 53005 60006 70196 82203 91800 333 10254 20175=
07240,1997-06-11 21:00:00,19,1011.4,1.4,68,13,500,14.816,,,230,,,,,,,,,,,wg-a,,,,AAXX 11214 07240 12800 22308 10190 20130 39984 40114 51014 60006 81502 92100=
07240,1997-06-12 00:00:00,16,1012,0.5,82,13,500,14.816,,,220,,,,,,,,,,,wg-a,,,,AAXX 12004 07240 12/00 22208 10160 20130 39989 40120 51005 60006 80002 90000=
07240,1997-06-12 03:00:00,14,1011.6,-0.5,94,13,500,11.112,,,220,,,,,,,,,,,wg-a,,,,AAXX 12034 07240 12/00 12206 10140 20130 39984 40116 58005 60006 81072 90300=
07240,1997-06-12 06:00:00,15,1011.9,0.4,94,14,500,14.816,,,210,13.5,21.1,,,,,4,,,,wg-a,,,,AAXX 12064 07240 02400 62108 10150 20140 39988 40119 51004 60006 81181 90600 333 10211 20135 60044=
07240,1997-06-12 09:00:00,20,1011.5,-0.1,73,15,500,18.52,,,240,,,,,,,,,,,wg-a,,,,AAXX 12094 07240 12500 /2410 10200 20150 39986 40115 58001 60006 83181 90900=
07240,1997-06-12 12:00:00,20,1011.5,0.1,68,14,20000,14.816,,,220,,,,,,,,,,80,wg-a,,,,AAXX 12124 07240 02570 72208 10200 20140 39986 40115 50001 61000 78086 8427/ 91200 333 6100=
07240,1997-06-12 15:00:00,18,1011.5,-0.1,83,15,15000,11.112,,,220,,,,1,,,,,,61,wg-a,,,,AAXX 12154 07240 12565 72206 10180 20150 39985 40115 58001 60017 76186 8527/ 91500=
07240,1997-06-12 18:00:00,17,1010.6,-1,88,15,15000,11.112,,,220,15.4,20.9,,2,,,,,,2,wg-a,,,,AAXX 12184 07240 02665 72206 10170 20150 39976 40106 56010 60006 70286 8587/ 91800 333 10209 20154 60027=
07240,1997-06-13 00:00:00,15,1010.7,0,94,14,10000,11.112,,,240,,,,,,,,,,,wg-a,,,,AAXX 13004 07240 12/60 32406 10150 20140 39976 40107 50000 60006 83030 90000=
07240,1997-06-13 06:00:00,15,1009.1,-0.6,94,14,8000,7.408,,,230,13.4,17.4,,,,,3,,,3,wg-a,,,,AAXX 13064 07240 02758 72304 10150 20140 39960 40091 56006 60006 70361 82574 90600 333 10174 20134 60034=
07240,1997-06-13 09:00:00,18,1008.7,-0.4,77,14,15000,7.408,,,190,,,,,,,,,,,wg-a,,,,AAXX 13094 07240 12465 /1904 10180 20140 39957 40087 58004 60006 83174 90900=
07240,1997-06-13 12:00:00,20,1008.2,-0.3,68,14,17000,11.112,,,210,,,,,,,,,,,wg-a,,,,AAXX 13124 07240 12667 72106 10200 20140 39953 40082 58003 60006 85104 91200=
07240,1997-06-13 15:00:00,18,1007.5,-0.7,88,16,10000,3.704,,,290,,,,0,,,,,,60,wg-a,,,,AAXX 13154 07240 12560 72902 10180 20160 39946 40075 56007 60007 76062 8412/ 91500=
07240,1997-06-13 18:00:00,18,1007.2,-0.3,88,16,10000,11.112,,,270,14.6,20.4,,,,,,,,21,wg-a,,,,AAXX 13184 07240 02260 72706 10180 20160 39943 40072 57003 61000 72162 878// 91800 333 10204 20146 6000=
07240,1997-06-14 00:00:00,16,1008,-0.1,94,15,10000,7.408,,,200,,,,1,,,,,,25,wg-a,,,,AAXX 14004 07240 02460 82004 10160 20150 39950 40080 58001 60016 72586 875// 90000 333 60017=
07240,1997-06-14 03:00:00,16,1008.3,0.3,94,15,8000,14.816,,,230,,,,,,,,,,,wg-a,,,,AAXX 14034 07240 32/58 /2308 10160 20150 39953 40083 53003 90300=
07240,1997-06-14 06:00:00,14,1010.5,2.2,94,13,15000,18.52,,,300,14.4,17.7,,,,,,,,61,wg-a,,,,AAXX 14064 07240 02365 73010 10140 20130 39974 40105 53022 61000 76162 878// 90600 333 10177 20144 6005=
07240,1997-06-14 09:00:00,16,1012.9,2.2,77,12,25000,18.52,,,270,,,,,,,,,,,wg-a,,,,AAXX 14094 07240 12475 72710 10160 20120 39998 40129 51022 60006 878// 90900=
07240,1997-06-14 12:00:00,17,1014.2,1.3,72,12,25000,22.224,,,260,,,,,,,,,,,wg-a,,,,AAXX 14124 07240 12575 72612 10170 20120 30011 40142 52013 60006 878// 91200=
07240,1997-06-14 15:00:00,18,1015,0.9,68,12,25000,22.224,,,270,,,,,,,,,,,wg-a,,,,AAXX 14154 07240 12675 72712 10180 20120 30020 40150 52009 60006 878// 91500=
07240,1997-06-14 18:00:00,19,1016,1,64,12,25000,22.224,,,260,14.3,19.7,,,,,,,,,wg-a,,,,AAXX 14184 07240 12575 /2612 10190 20120 30030 40160 51010 60006 86800 91800 333 10197 20143=
07240,1997-06-14 21:00:00,15,1018.1,2,88,13,25000,7.408,,,300,,,,,,,,,,,wg-a,,,,AAXX 14214 07240 12675 /3004 10150 20130 30049 40181 53020 60006 86500 92100=
07240,1997-06-15 00:00:00,13,1018.8,0.5,94,12,15000,3.704,,,280,,,,,,,,,,,wg-a,,,,AAXX 15004 07240 12665 /2802 10130 20120 30055 40188 51005 60006 85500 90000=
07240,1997-06-15 06:00:00,13,1019.1,0.6,94,12,10000,7.408,,,260,10.3,18.7,,,,,,,,,wg-a,,,,AAXX 15064 07240 02760 22604 10130 20120 30058 40191 53006 60006 81501 90600 333 10187 20103 60004=
07240,1997-06-15 09:00:00,17,1019,0.1,72,12,15000,7.408,,,260,,,,,,,,,,,wg-a,,,,AAXX 15094 07240 12565 /2604 10170 20120 30059 40190 50001 60006 85100 90900=
07240,1997-06-15 12:00:00,19,1018.7,-0.2,56,10,25000,7.408,,,210,,,,,,,,,,,wg-a,,,,AAXX 15124 07240 12675 /2104 10190 20100 30057 40187 58002 60006 85200 91200=
07240,1997-06-15 18:00:00,20,1017.7,-0.2,53,10,10000,7.408,,,360,12.6,21.6,,,,,,,,,wg-a,,,,AAXX 15184 07240 12/60 /3604 10200 20100 30047 40177 55002 60006 91800 333 10216 20126=
07240,1997-06-15 21:00:00,16,1018.6,0.7,72,11,500,3.704,,,10,,,,,,,,,,,wg-a,,,,AAXX 15214 07240 12700 20102 10160 20110 30054 40186 53007 60006 81401 92100=
07240,1997-06-16 00:00:00,12,1018.2,-0.6,88,10,500,3.704,,,10,,,,,,,,,,,wg-a,,,,AAXX 16004 07240 12/00 00102 10120 20100 30048 40182 56006 60006 80000 90000=
07240,1997-06-16 03:00:00,10,1017.5,-0.7,93,9,10000,0,,,0,,,,,,,,,,,wg-a,,,,AAXX 16034 07240 12/60 /0000 10100 20090 30041 40175 57007 60006 90300=
07240,1997-06-16 06:00:00,12,1017.1,-0.2,94,11,20000,0,,,0,9.7,20.1,,,,,,,,,wg-a,,,,AAXX 16064 07240 02770 50000 10120 20110 30038 40171 57002 60006 81531 90600 333 10201 20097 60004=
07240,1997-06-16 09:00:00,20,1016.4,-0.4,56,11,20000,7.408,,,110,,,,,,,,,,,wg-a,,,,AAXX 16094 07240 12770 61104 10200 20110 30034 40164 58004 60006 81131 90900=
07240,1997-06-16 12:00:00,21,1016.2,-0.1,46,9,20000,11.112,,,210,,,,,,,,,,,wg-a,,,,AAXX 16124 07240 12670 /2106 10210 20090 30033 40162 58001 60006 8213/ 91200=
07240,1997-06-16 18:00:00,18,1015,-0.5,64,11,20000,11.112,,,230,11.9,22,,,,,,,,3,wg-a,,,,AAXX 16184 07240 02670 72306 10180 20110 30020 40150 56005 60006 70362 8337/ 91800 333 10220 20119 61000=
07240,1997-06-16 21:00:00,14,1016.8,1.6,94,13,12000,3.704,,,50,,,,7,,,,,,60,wg-a,,,,AAXX 16214 07240 12762 70502 10140 20130 30036 40168 51016 60077 76098 8657/ 92100=
07240,1997-06-17 00:00:00,14,1016.6,-0.3,94,13,12000,7.408,,,250,,,,0,,,,,,1,wg-a,,,,AAXX 17004 07240 02862 72504 10140 20130 30034 40166 58003 60076 70198 8703/ 90000 333 60007=
07240,1997-06-17 03:00:00,12,1017.1,0.3,94,11,7000,7.408,,,270,,,,,,,,,,,wg-a,,,,AAXX 17034 07240 12/57 /2704 10120 20110 30037 40171 53003 60006 81030 90300=
07240,1997-06-17 06:00:00,13,1017.7,0.7,94,12,1500,11.112,,,240,11.2,19.1,,,,,8,,,,wg-a,,,,AAXX 17064 07240 02/15 /2406 10130 20120 30044 40177 53007 60006 90600 333 10191 20112 60084=
07240,1997-06-17 12:00:00,18,1018.2,-0.2,73,13,20000,14.816,,,290,,,,,,,,,,1,wg-a,,,,AAXX 17124 07240 12570 /2908 10180 20130 30051 40182 58002 60006 70141 85200 91200=
07240,1997-06-17 15:00:00,20,1017.7,-0.4,64,13,20000,14.816,,,340,,,,,,,,,,,wg-a,,,,AAXX 17154 07240 12670 63408 10200 20130 30047 40177 56004 60006 84201 91500=
07240,1997-06-17 18:00:00,18,1018.3,0.5,68,12,20000,18.52,,,350,13,20.8,,,,,,,,,wg-a,,,,AAXX 17184 07240 12670 43510 10180 20120 30052 40183 53005 60006 82231 91800 333 10208 20130=
07240,1997-06-17 21:00:00,16,1019.5,1,82,13,10000,11.112,,,40,,,,,,,,,,,wg-a,,,,AAXX 17214 07240 12560 /0406 10160 20130 30063 40195 53010 60006 84530 92100=
07240,1997-06-18 00:00:00,14,1020.4,0.8,88,12,0,11.112,,,350,,,,,,,,,,,wg-a,,,,AAXX 18004 07240 12/// /3506 10140 20120 30071 40204 51008 60006 90000=
07240,1997-06-18 06:00:00,13,1019.9,0.1,94,12,8000,3.704,,,50,10.5,17.8,,,,,,,,,wg-a,,,,AAXX 18064 07240 02/58 20502 10130 20120 30066 40199 53001 60006 82030 90600 333 10178 20105 60004=
07240,1997-06-18 09:00:00,18,1019.6,-0.1,73,13,10000,7.408,,,100,,,,,,,,,,,wg-a,,,,AAXX 18094 07240 12560 /1004 10180 20130 30065 40196 58001 60006 85200 90900=
07240,1997-06-18 12:00:00,19,1018.9,-0.6,60,11,25000,7.408,,,100,,,,,,,,,,,wg-a,,,,AAXX 18124 07240 12675 /1004 10190 20110 30059 40189 58006 60006 85200 91200=
07240,1997-06-18 18:00:00,21,1015.6,-1.4,53,11,500,7.408,,,140,12.9,22.3,,,,,,,,,wg-a,,,,AAXX 18184 07240 12700 61404 10210 20110 30027 40156 56014 60006 85831 91800 333 10223 20129=
07240,1997-06-18 21:00:00,16,1015.1,-0.7,82,13,20000,7.408,,,100,,,,,,,,,,,wg-a,,,,AAXX 18214 07240 12670 /1004 10160 20130 30020 40151 56007 60006 84532 92100=
07240,1997-06-19 00:00:00,15,1013.9,-1.2,88,13,15000,3.704,,,350,,,,,,,,,,,wg-a,,,,AAXX 19004 07240 12765 73502 10150 20130 30008 40139 56012 60006 8657/ 90000=
07240,1997-06-19 03:00:00,15,1011.7,-2.3,88,13,15000,3.704,,,280,,,,,,,,,,,wg-a,,,,AAXX 19034 07240 12/65 72802 10150 20130 39985 40117 56023 60006 8707/ 90300=
07240,1997-06-19 06:00:00,14,1011.2,-0.5,88,12,8000,11.112,,,280,13.8,21.4,,,,,,,,,wg-a,,,,AAXX 19064 07240 02/58 72806 10140 20120 39980 40112 56005 60006 8708/ 90600 333 10214 20138 60004=
07240,1997-06-19 12:00:00,15,1010,-0.2,88,13,8000,22.224,,,260,,,,1,,,,,,80,wg-a,,,,AAXX 19124 07240 02458 72612 10150 20130 39969 40100 55002 60016 78086 857// 91200 333 60017=
07240,1997-06-19 15:00:00,16,1009.1,-0.9,82,13,10000,22.224,,,250,,,,1,,,,,,60,wg-a,,,,AAXX 19154 07240 12660 72512 10160 20130 39960 40091 55009 60017 76086 8427/ 91500=
07240,1997-06-19 18:00:00,13,1009.6,0.4,88,11,500,11.112,,,260,12.9,19.7,,,,,,,,21,wg-a,,,,AAXX 19184 07240 02500 72606 10130 20110 39964 40096 50004 61000 72186 8583/ 91800 333 10197 20129 6002=
07240,1997-06-19 21:00:00,13,1010.1,0.5,88,11,20000,11.112,,,220,,,,,,,,,,,wg-a,,,,AAXX 19214 07240 12670 72206 10130 20110 39969 40101 53005 60006 875// 92100=
07240,1997-06-20 00:00:00,13,1009.6,-0.5,88,11,15000,11.112,,,220,,,,,,,,,,,wg-a,,,,AAXX 20004 07240 12465 82206 10130 20110 39964 40096 58005 60006 878// 90000=
07240,1997-06-20 03:00:00,13,1008.8,-0.8,88,11,11000,11.112,,,220,,,,,,,,,,,wg-a,,,,AAXX 20034 07240 12/61 /2206 10130 20110 39956 40088 56008 60006 90300=
07240,1997-06-20 06:00:00,13,1009,0.3,88,11,12000,11.112,,,230,11.9,13.7,,,,,4,,,,wg-a,,,,AAXX 20064 07240 02462 /2306 10130 20110 39958 40090 50003 60006 83832 90600 333 10137 20119 60044=
07240,1997-06-20 09:00:00,14,1008.3,-0.7,88,12,8000,14.816,,,200,,,,0,,,,,,50,wg-a,,,,AAXX 20094 07240 12358 82008 10140 20120 39952 40083 58007 60007 75052 878// 90900=
07240,1997-06-20 12:00:00,14,1007,-1.3,94,13,10000,18.52,,,210,,,,2,,,,,,60,wg-a,,,,AAXX 20124 07240 02260 72110 10140 20130 39939 40070 57013 60026 76065 8687/ 91200 333 60027=
07240,1997-06-20 15:00:00,15,1005.6,-1.4,88,13,10000,22.224,,,220,,,,2,,,,,,60,wg-a,,,,AAXX 20154 07240 12360 82212 10150 20130 39925 40056 56014 60027 76062 878// 91500=
07240,1997-06-20 18:00:00,16,1003.4,-2.1,82,13,12000,25.928,,,200,13.2,16.5,,,,,,,,21,wg-a,,,,AAXX 20184 07240 02462 /2014 10160 20130 39904 40034 56021 61000 72162 8557/ 91800 333 10165 20132 6000=
07240,1997-06-20 21:00:00,14,1002.3,-1.1,94,13,6000,29.632,,,200,,,,0,,,,,,61,wg-a,,,,AAXX 20214 07240 12356 82016 10140 20130 39893 40023 56011 60007 76162 857// 92100=
07240,1997-06-21 00:00:00,14,1002.3,0,88,12,8000,22.224,,,220,,,,2,,,,,,2,wg-a,,,,AAXX 21004 07240 02558 72212 10140 20120 39892 40023 50000 60036 70262 8357/ 90000 333 60027=
07240,1997-06-21 03:00:00,14,1001.7,-0.7,88,12,10000,18.52,,,220,,,,,,,,,,,wg-a,,,,AAXX 21034 07240 12560 72210 10140 20120 39886 40017 58007 60006 8557/ 90300=
07240,1997-06-21 06:00:00,13,1002.1,0.4,94,12,10000,18.52,,,230,13.3,15.7,,,,,,,,25,wg-a,,,,AAXX 21064 07240 02560 72310 10130 20120 39890 40021 51004 61000 72586 8587/ 90600 333 10157 20133 6007=
07240,1997-06-21 12:00:00,15,1002.1,-0.1,82,12,20000,18.52,,,230,,,,2,,,,,,1,wg-a,,,,AAXX 21124 07240 02470 72310 10150 20120 39891 40021 57001 60026 70186 8587/ 91200 333 60027=
07240,1997-06-21 15:00:00,17,1000.8,-1.3,77,13,15000,31.484,,53.708,230,,,,5,,,,,,25,wg-a,,,,AAXX 21154 07240 12565 /2317 10170 20130 39879 40008 57013 60057 72586 85870 91500 333 91029=
07240,1997-06-21 18:00:00,16,1001.2,0.3,77,12,500,22.224,,,220,11.7,17.4,,0,,,,,,15,wg-a,,,,AAXX 21184 07240 02400 32212 10160 20120 39882 40012 53003 60006 71598 83302 91800 333 10174 20117 60007=
07240,1997-06-21 21:00:00,13,1003.4,2.1,72,8,500,22.224,,,240,,,,,,,,,,1,wg-a,,,,AAXX 21214 07240 02400 /2412 10130 20080 39902 40034 53021 61000 70186 81900 92100 333 ////=
07240,1997-06-22 00:00:00,11,1004,0.4,94,10,500,14.816,,,210,,,,,,,,,,2,wg-a,,,,AAXX 22004 07240 02/00 02108 10110 20100 39908 40040 51004 61000 70286 80000 90000 333 ////=
07240,1997-06-22 03:00:00,11,1003.6,-0.3,87,9,500,18.52,,,210,,,,,,,,,,,wg-a,,,,AAXX 22034 07240 12500 /2110 10110 20090 39904 40036 58003 60006 81250 90300=
07240,1997-06-22 06:00:00,12,1003.8,0.3,88,10,12000,22.224,,,210,10.5,15.6,,,,,,,,80,wg-a,,,,AAXX 22064 07240 02562 72112 10120 20100 39906 40038 53003 61000 78086 85370 90600 333 10156 20105 6008=
07240,1997-06-22 09:00:00,15,1004.9,1.2,72,10,500,25.928,,,240,,,,1,,,,,,3,wg-a,,,,AAXX 22094 07240 12500 /2414 10150 20100 39918 40049 53012 60017 70386 86100 90900=
07240,1997-06-22 12:00:00,14,1005.9,1,82,11,7000,31.484,,57.412,250,,,,,,,,,,80,wg-a,,,,AAXX 22124 07240 02357 72517 10140 20110 39928 40059 53010 60016 78086 873// 91200 333 61000 91031=
07240,1997-06-22 15:00:00,17,1005.6,-0.2,68,11,20000,29.632,,,260,,,,4,,,,,,80,wg-a,,,,AAXX 22154 07240 12570 72616 10170 20110 39926 40056 55002 60047 78086 878// 91500=
07240,1997-06-22 18:00:00,15,1006.9,1.3,88,13,500,11.112,,,280,11.5,18.7,,0,,,,,,2,wg-a,,,,AAXX 22184 07240 02500 72806 10150 20130 39938 40069 51013 60006 70286 878// 91800 333 10187 20115 60007=
07240,1997-06-22 21:00:00,13,1009.1,2.1,88,11,10000,14.816,,,240,,,,2,,,,,,1,wg-a,,,,AAXX 22214 07240 12460 62408 10130 20110 39959 40091 53021 60027 70186 8483/ 92100=
07240,1997-06-23 00:00:00,13,1010.1,0.9,88,11,11000,18.52,,,250,,,,,,,,,,,wg-a,,,,AAXX 23004 07240 12/61 /2510 10130 20110 39969 40101 51009 60026 90000=
07240,1997-06-23 03:00:00,12,1010.5,0.3,94,11,10000,14.816,,,260,,,,,,,,,,,wg-a,,,,AAXX 23034 07240 12360 72608 10120 20110 39972 40105 53003 60006 868// 90300=
07240,1997-06-23 06:00:00,12,1011.5,1,94,11,9000,14.816,,,260,10.8,15.4,,,,,6,,,,wg-a,,,,AAXX 23064 07240 02259 72608 10120 20110 39982 40115 52010 60006 875// 90600 333 10154 20108 60064=
07240,1997-06-23 09:00:00,15,1012.8,1.5,82,12,12000,18.52,,,270,,,,,,,,,,,wg-a,,,,AAXX 23094 07240 12462 72710 10150 20120 39997 40128 53015 60006 878// 90900=
07240,1997-06-23 12:00:00,19,1013.1,0.4,64,12,20000,22.224,,,260,,,,,,,,,,,wg-a,,,,AAXX 23124 07240 12570 72612 10190 20120 30001 40131 50004 60006 8583/ 91200=
07240,1997-06-23 15:00:00,19,1013.5,0.4,73,14,20000,18.52,,,270,,,,1,,,,,,25,wg-a,,,,AAXX 23154 07240 12670 72710 10190 20140 30005 40135 53004 60017 72586 8583/ 91500=
07240,1997-06-23 18:00:00,18,1014.1,0.5,68,12,11000,22.224,,,300,12.1,19.9,,,,,,,,,wg-a,,,,AAXX 23184 07240 12/61 /3012 10180 20120 30011 40141 53005 60006 91800 333 10199 20121=
07240,1997-06-24 00:00:00,10,1017.8,1,93,9,20000,14.816,,,280,,,,,,,,,,,wg-a,,,,AAXX 24004 07240 12670 72808 10100 20090 30044 40178 52010 60006 8453/ 90000=
07240,1997-06-24 03:00:00,11,1017.8,-0,87,9,15000,11.112,,,270,,,,,,,,,,,wg-a,,,,AAXX 24034 07240 12665 72706 10110 20090 30044 40178 55000 60006 875// 90300=
07240,1997-06-24 06:00:00,12,1018.4,0.6,88,10,10000,11.112,,,270,9.6,17.5,,,,,2,,,,wg-a,,,,AAXX 24064 07240 02660 72706 10120 20100 30050 40184 51006 60006 875// 90600 333 10175 20096 60024=
07240,1997-06-24 09:00:00,15,1019.3,1,72,10,20000,18.52,,,300,,,,,,,,,,,wg-a,,,,AAXX 24094 07240 12470 73010 10150 20100 30060 40193 51010 60006 8683/ 90900=
07240,1997-06-24 12:00:00,17,1019,-0.2,63,10,20000,14.816,,,270,,,,,,,,,,,wg-a,,,,AAXX 24124 07240 12570 72708 10170 20100 30058 40190 58002 60006 8683/ 91200=
07240,1997-06-24 15:00:00,17,1018.5,-0.5,59,9,500,18.52,,,310,,,,,,,,,,,wg-a,,,,AAXX 24154 07240 12600 73110 10170 20090 30054 40185 56005 60006 878// 91500=
07240,1997-06-24 18:00:00,16,1017.6,-0.9,63,9,500,7.408,,,280,11.9,17.5,,,,,,,,,wg-a,,,,AAXX 24184 07240 12700 72804 10160 20090 30044 40176 56009 60006 875// 91800 333 10175 20119=
07240,1997-06-24 21:00:00,15,1017.2,-0.4,72,10,10000,3.704,,,230,,,,,,,,,,,wg-a,,,,AAXX 24214 07240 12/60 /2302 10150 20100 30040 40172 55004 60006 92100=
07240,1997-06-25 00:00:00,13,1016.1,-1.3,82,10,15000,11.112,,,230,,,,,,,,,,,wg-a,,,,AAXX 25004 07240 12765 72306 10130 20100 30028 40161 56013 60006 875// 90000=
07240,1997-06-25 06:00:00,12,1012.4,-1.4,88,10,15000,7.408,,,210,11.3,16.3,,,,,,,,,wg-a,,,,AAXX 25064 07240 02665 72104 10120 20100 39991 40124 56014 60006 8557/ 90600 333 10163 20113 60004=
07240,1997-06-25 09:00:00,13,1010.9,-1.4,88,11,12000,11.112,,,210,,,,0,,,,,,60,wg-a,,,,AAXX 25094 07240 12562 72106 10130 20110 39977 40109 58014 60007 76062 8557/ 90900=
07240,1997-06-25 12:00:00,14,1008.5,-2.3,88,12,15000,14.816,,,210,,,,1,,,,,,60,wg-a,,,,AAXX 25124 07240 02465 82108 10140 20120 39954 40085 58023 60016 76062 8687/ 91200 333 60017=
07240,1997-06-25 15:00:00,14,1005.4,-3.1,88,12,7000,25.928,,,200,,,,2,,,,,,61,wg-a,,,,AAXX 25154 07240 12357 82014 10140 20120 39923 40054 58031 60027 76166 878// 91500=
07240,1997-06-25 18:00:00,14,1002.3,-3.1,94,13,500,22.224,,,220,12.2,14.5,,,,,,,,51,wg-a,,,,AAXX 25184 07240 02200 82212 10140 20130 39892 40023 56031 61000 75165 877// 91800 333 10145 20122 6002=
07240,1997-06-25 21:00:00,14,1002.1,-0.2,94,13,10000,18.52,,,240,,,,1,,,,,,1,wg-a,,,,AAXX 25214 07240 12560 72410 10140 20130 39890 40021 55002 60017 70165 878// 92100=
07240,1997-06-26 00:00:00,13,1001.1,-1,94,12,8000,22.224,,,240,,,,,,,,,,,wg-a,,,,AAXX 26004 07240 12/58 /2412 10130 20120 39880 40011 58010 60026 90000=
07240,1997-06-26 03:00:00,13,999.4,-1.7,94,12,8000,18.52,,,230,,,,0,,,,,,20,wg-a,,,,AAXX 26034 07240 12358 72310 10130 20120 39863 49994 58017 60007 72052 878// 90300=
07240,1997-06-26 06:00:00,13,997.8,-1.6,94,12,500,22.224,,,220,12.5,14.2,,,,,,,,51,wg-a,,,,AAXX 26064 07240 02200 82212 10130 20120 39847 49978 56016 61000 75165 877// 90600 333 10142 20125 6008=
07240,1997-06-26 12:00:00,15,996.2,-0.3,88,13,12000,25.928,,,270,,,,1,,,,,,25,wg-a,,,,AAXX 26124 07240 02462 72714 10150 20130 39833 49962 56003 60026 72586 878// 91200 333 60017=
07240,1997-06-26 15:00:00,16,995.6,-0.6,77,12,15000,18.52,,,260,,,,0,,,,,,25,wg-a,,,,AAXX 26154 07240 12565 72610 10160 20120 39827 49956 58006 60007 72586 8583/ 91500=
07240,1997-06-26 18:00:00,16,995.1,-0.5,68,10,25000,22.224,,,240,12.6,18.1,,,,,,,,15,wg-a,,,,AAXX 26184 07240 12575 42412 10160 20100 39822 49951 56005 60006 71586 84300 91800 333 10181 20126=
07240,1997-06-26 21:00:00,13,995.8,0.6,88,11,9000,14.816,,,230,,,,,,,,,,16,wg-a,,,,AAXX 26214 07240 12459 62308 10130 20110 39828 49958 53006 60006 71611 86900 92100=
07240,1997-06-27 00:00:00,11,996.3,0.4,94,10,12000,14.816,,,230,,,,0,,,,,,60,wg-a,,,,AAXX 27004 07240 02262 82308 10110 20100 39832 49963 51004 60006 76086 877// 90000 333 60007=
07240,1997-06-27 03:00:00,10,995.3,-1,93,9,500,14.816,,,220,,,,0,,,,,,21,wg-a,,,,AAXX 27034 07240 12200 82208 10100 20090 39822 49953 57010 60007 72162 877// 90300=
07240,1997-06-27 06:00:00,11,995.3,-0,94,10,6000,11.112,,,200,10.2,16.3,,,,,3,,,3,wg-a,,,,AAXX 27064 07240 02256 72006 10110 20100 39822 49953 54000 60006 70365 877// 90600 333 10163 20102 60034=
07240,1997-06-27 09:00:00,13,996.2,1,88,11,15000,11.112,,,270,,,,,,,,,,1,wg-a,,,,AAXX 27094 07240 02465 82706 10130 20110 39832 49962 53010 61000 70152 878// 90900 333 ////=
07240,1997-06-27 12:00:00,14,997.5,1.3,88,12,15000,14.816,,,230,,,,,,,,,,25,wg-a,,,,AAXX 27124 07240 02465 72308 10140 20120 39845 49975 53013 61000 72586 878// 91200 333 6100=
07240,1997-06-27 18:00:00,16,999,1,72,11,20000,18.52,,,230,10.9,17.3,,,,,,,,1,wg-a,,,,AAXX 27184 07240 12570 72310 10160 20110 39861 49990 53010 60006 70186 878// 91800 333 10173 20109=
07240,1997-06-28 00:00:00,13,1002.4,0.9,94,12,12000,18.52,,,210,,,,,,,,,,,wg-a,,,,AAXX 28004 07240 12362 72110 10130 20120 39893 40024 51009 60006 877// 90000=
07240,1997-06-28 06:00:00,13,1004.2,1,88,11,15000,14.816,,,200,12.1,16.2,,,,,3,,,,wg-a,,,,AAXX 28064 07240 02365 82008 10130 20110 39911 40042 53010 60006 877// 90600 333 10162 20121 60034=
07240,1997-06-28 09:00:00,14,1005.9,1.7,82,11,25000,14.816,,,210,,,,,,,,,,,wg-a,,,,AAXX 28094 07240 12575 72108 10140 20110 39928 40059 53017 60006 878// 90900=
07240,1997-06-28 12:00:00,18,1006.2,0.4,59,10,20000,25.928,,,190,,,,,,,,,,,wg-a,,,,AAXX 28124 07240 12570 71914 10180 20100 39932 40062 50004 60006 878// 91200=
07240,1997-06-28 15:00:00,19,1006.4,0.3,60,11,20000,11.112,,,230,,,,,,,,,,,wg-a,,,,AAXX 28154 07240 12670 62306 10190 20110 39935 40064 52003 60006 85801 91500=
07240,1997-06-28 18:00:00,19,1006.4,-0,60,11,20000,11.112,,,270,12.8,20.3,,,,,,,,,wg-a,,,,AAXX 28184 07240 12670 72706 10190 20110 39935 40064 55000 60006 82801 91800 333 10203 20128=
07240,1997-06-28 21:00:00,16,1006.8,0.3,77,12,20000,3.704,,,10,,,,,,,,,,,wg-a,,,,AAXX 28214 07240 12770 70102 10160 20120 39938 40068 52003 60006 8287/ 92100=
07240,1997-06-29 00:00:00,15,1005.6,-1.3,82,12,20000,11.112,,,60,,,,,,,,,,60,wg-a,,,,AAXX 29004 07240 02770 80606 10150 20120 39925 40056 56013 61000 76062 8557/ 90000 333 6100=
07240,1997-06-29 03:00:00,13,1004.8,-0.8,94,12,10000,3.704,,,40,,,,2,,,,,,61,wg-a,,,,AAXX 29034 07240 12760 80402 10130 20120 39917 40048 58008 60027 76166 8557/ 90300=
07240,1997-06-29 06:00:00,13,1003.8,-1,94,12,15000,11.112,,,30,12.3,19.5,,,,,,,,61,wg-a,,,,AAXX 29064 07240 02765 80306 10130 20120 39907 40038 57010 61000 76166 8452/ 90600 333 10195 20123 6003=
07240,1997-06-29 09:00:00,14,1003.6,-0.2,88,12,15000,14.816,,,30,,,,0,,,,,,1,wg-a,,,,AAXX 29094 07240 12465 80308 10140 20120 39905 40036 56002 60007 70162 8522/ 90900=
07240,1997-06-29 12:00:00,13,1003,-0.6,94,12,8000,22.224,,,10,,,,,,,,,,51,wg-a,,,,AAXX 29124 07240 02358 80112 10130 20120 39899 40030 58006 60006 75165 8572/ 91200 333 61000=
07240,1997-06-29 15:00:00,14,1002.9,-0.1,88,12,15000,18.52,,,340,,,,,,,,,,1,wg-a,,,,AAXX 29154 07240 02465 83410 10140 20120 39898 40029 55001 61000 70165 8582/ 91500 333 ////=
07240,1997-06-29 18:00:00,14,1003.1,0.2,94,13,6000,7.408,,,320,12.5,14,,,,,,,,20,wg-a,,,,AAXX 29184 07240 02356 83204 10140 20130 39900 40031 53002 61000 72065 8582/ 91800 333 10140 20125 6000=
07240,1997-06-29 21:00:00,13,1003.7,0.6,94,12,3000,14.816,,,280,,,,1,,,,,,10,wg-a,,,,AAXX 29214 07240 12230 82808 10130 20120 39906 40037 53006 60017 71065 877// 92100=
07240,1997-06-30 00:00:00,13,1003.9,0.2,94,12,3000,14.816,,,290,,,,1,,,,,,10,wg-a,,,,AAXX 30004 07240 02230 82908 10130 20120 39908 40039 51002 60026 71065 877// 90000 333 60017=
07240,1997-06-30 03:00:00,12,1003.9,-0.1,94,11,8000,18.52,,,270,,,,2,,,,,,20,wg-a,,,,AAXX 30034 07240 12358 82710 10120 20110 39907 40039 55001 60027 72022 877// 90300=
07240,1997-06-30 06:00:00,12,1004.3,0.4,100,12,6000,18.52,,,260,12.2,13.5,,,,,,,,60,wg-a,,,,AAXX 30064 07240 02256 82610 10120 20120 39911 40043 53004 61000 76065 877// 90600 333 10135 20122 6005=
07240,1997-06-30 09:00:00,14,1005,0.8,94,13,7000,18.52,,,260,,,,,,,,,,21,wg-a,,,,AAXX 30094 07240 02457 82610 10140 20130 39919 40050 52008 61000 72162 875// 90900 333 ////=
07240,1997-06-30 12:00:00,14,1005.9,0.9,94,13,4000,25.928,,,260,,,,1,,,,,,61,wg-a,,,,AAXX 30124 07240 02240 82614 10140 20130 39928 40059 51009 60016 76162 877// 91200 333 60017=
07240,1997-06-30 15:00:00,15,1006.4,0.5,88,13,12000,11.112,,,270,,,,,,,,,,2,wg-a,,,,AAXX 30154 07240 02462 82706 10150 20130 39933 40064 52005 61000 70262 8789/ 91500 333 ////=
07240,1997-06-30 18:00:00,15,1007.3,0.9,88,13,10000,14.816,,,250,12.3,15,,3,,,,,,3,wg-a,,,,AAXX 30184 07240 02360 82508 10150 20130 39942 40073 53009 60006 70362 878// 91800 333 10150 20123 60037=
07240,1997-06-30 21:00:00,13,1008.8,1.4,94,12,6000,7.408,,,260,,,,4,,,,,,21,wg-a,,,,AAXX 30214 07240 12456 82604 10130 20120 39956 40088 53014 60047 72162 878// 92100=
07240,1997-07-01 00:00:00,12,1009.3,0.5,94,11,7000,11.112,,,230,,,,0,,,,,,21,wg-a,,,,AAXX 01004 07240 02557 82306 10120 20110 39961 40093 52005 60046 72162 878// 90000 333 60007=
07240,1997-07-01 06:00:00,13,1009.1,0.3,94,12,3000,11.112,,,210,12.1,14.6,,1,,,10,,,60,wg-a,,,,AAXX 01064 07240 02230 82106 10130 20120 39959 40091 51003 60104 76062 877// 90600 333 10146 20121 60017=
07240,1997-07-01 12:00:00,18,1009.5,0,59,10,25000,22.224,,,230,,,,,,,,,,1,wg-a,,,,AAXX 01124 07240 12575 72312 10180 20100 39965 40095 50000 60066 70162 84232 91200=
07240,1997-07-01 15:00:00,18,1009,-0.5,59,10,11000,14.816,,,230,,,,,,,,,,,wg-a,,,,AAXX 01154 07240 12/61 /2308 10180 20100 39960 40090 58005 60006 91500=
07240,1997-07-01 18:00:00,16,1009.1,-0,77,12,500,0,,,0,12.5,19.4,,,,,,,,25,wg-a,,,,AAXX 01184 07240 02500 60000 10160 20120 39960 40091 55000 61000 72586 85831 91800 333 10194 20125 6005=
07240,1997-07-01 21:00:00,13,1010.4,1.2,94,12,500,7.408,,,160,,,,2,,,,,,1,wg-a,,,,AAXX 01214 07240 12500 71604 10130 20120 39972 40104 51012 60027 70186 878// 92100=
07240,1997-07-02 00:00:00,12,1010.4,-0.1,94,11,20000,7.408,,,150,,,,,,,,,,1,wg-a,,,,AAXX 02004 07240 12570 /1504 10120 20110 39971 40104 57001 60026 70186 85500 90000=
07240,1997-07-02 03:00:00,12,1009.2,-1.2,94,11,20000,3.704,,,300,,,,0,,,,,,,wg-a,,,,AAXX 02034 07240 12470 73002 10120 20110 39959 40092 58012 60007 8355/ 90300=
07240,1997-07-02 06:00:00,12,1008.5,-0.6,100,12,8000,3.704,,,220,11.4,15.6,,,,,,,,60,wg-a,,,,AAXX 02064 07240 02558 72202 10120 20120 39953 40085 56006 61000 76062 875// 90600 333 10156 20114 6013=
07240,1997-07-02 09:00:00,12,1008.4,-0.1,94,11,3000,7.408,,,10,,,,4,,,,,,61,wg-a,,,,AAXX 02094 07240 12230 80104 10120 20110 39952 40084 56001 60047 76165 875// 90900=
07240,1997-07-02 12:00:00,15,1008.7,0.4,88,13,10000,11.112,,,230,,,,2,,,,,,21,wg-a,,,,AAXX 02124 07240 02460 72306 10150 20130 39956 40087 53004 60066 72165 878// 91200 333 60027=
07240,1997-07-02 15:00:00,18,1008.6,-0,59,10,25000,18.52,,,230,,,,,,,,,,,wg-a,,,,AAXX 02154 07240 12675 /2310 10180 20100 39956 40086 55000 60006 83800 91500=
07240,1997-07-02 18:00:00,17,1009.8,1.2,59,9,500,18.52,,,230,11.4,18.3,,0,,,,,,3,wg-a,,,,AAXX 02184 07240 12600 62310 10170 20090 39968 40098 53012 60007 70386 81202 91800 333 10183 20114=
07240,1997-07-02 21:00:00,14,1012.4,2.4,72,9,500,11.112,,,210,,,,,,,,,,,wg-a,,,,AAXX 02214 07240 12700 72106 10140 20090 39992 40124 53024 60006 865/2 92100=
07240,1997-07-03 00:00:00,11,1013.5,0.9,87,9,500,11.112,,,220,,,,,,,,,,,wg-a,,,,AAXX 03004 07240 12700 32206 10110 20090 30001 40135 51009 60006 83502 90000=
07240,1997-07-03 03:00:00,11,1013.2,-0.3,87,9,20000,14.816,,,190,,,,,,,,,,,wg-a,,,,AAXX 03034 07240 12570 71908 10110 20090 39998 40132 58003 60006 87502 90300=
07240,1997-07-03 06:00:00,12,1013.7,0.6,88,10,18000,14.816,,,210,10.3,16.6,,,,,6,,,,wg-a,,,,AAXX 03064 07240 02368 72108 10120 20100 30004 40137 53006 60006 876// 90600 333 10166 20103 60064=
07240,1997-07-03 09:00:00,16,1014.4,0.9,72,11,20000,18.52,,,240,,,,,,,,,,,wg-a,,,,AAXX 03094 07240 12570 62410 10160 20110 30013 40144 51009 60006 85802 90900=
07240,1997-07-03 12:00:00,18,1014.2,-0.1,52,8,500,22.224,,,210,,,,,,,,,,,wg-a,,,,AAXX 03124 07240 12600 62112 10180 20080 30012 40142 58001 60006 84232 91200=
07240,1997-07-03 15:00:00,19,1014.6,0.4,52,9,25000,22.224,,,250,,,,,,,,,,,wg-a,,,,AAXX 03154 07240 12675 62512 10190 20090 30016 40146 51004 60006 84232 91500=
07240,1997-07-03 18:00:00,17,1015.3,0.6,59,9,25000,29.632,,,250,11.7,19.5,,,,,,,,,wg-a,,,,AAXX 03184 07240 12675 72516 10170 20090 30022 40153 53006 60006 8483/ 91800 333 10195 20117=
07240,1997-07-03 21:00:00,14,1016.8,1.3,77,10,25000,11.112,,,230,,,,,,,,,,,wg-a,,,,AAXX 03214 07240 12775 32306 10140 20100 30035 40168 53013 60006 83501 92100=
07240,1997-07-04 00:00:00,14,1016.6,-0.2,77,10,25000,14.816,,,200,,,,,,,,,,,wg-a,,,,AAXX 04004 07240 12575 72008 10140 20100 30033 40166 58002 60006 8583/ 90000=
07240,1997-07-04 06:00:00,13,1017.2,0.6,88,11,20000,14.816,,,200,13,16.7,,,,,,,,,wg-a,,,,AAXX 04064 07240 02570 72008 10130 20110 30039 40172 51006 60006 8587/ 90600 333 10167 20130 60004=
07240,1997-07-04 09:00:00,16,1017.8,0.7,82,13,15000,14.816,,,210,,,,,,,,,,,wg-a,,,,AAXX 04094 07240 12465 72108 10160 20130 30046 40178 50007 60006 86202 90900=
07240,1997-07-04 12:00:00,14,1018.3,0.5,94,13,8000,0,,,0,,,,9,,,,,,25,wg-a,,,,AAXX 04124 07240 02158 70000 10140 20130 30051 40183 53005 60096 72586 8597/ 91200 333 60097=
07240,1997-07-04 15:00:00,15,1018.6,0.3,88,13,10000,11.112,,,190,,,,5,,,,,,80,wg-a,,,,AAXX 04154 07240 12460 81906 10150 20130 30054 40186 53003 60057 78086 879// 91500=
07240,1997-07-04 18:00:00,13,1019.9,1.1,94,12,4000,7.408,,,210,12.6,16.9,,,,,,,,81,wg-a,,,,AAXX 04184 07240 02240 82104 10130 20120 30065 40199 53011 61000 78198 879// 91800 333 10169 20126 6012=
07240,1997-07-04 21:00:00,12,1020.9,1,94,11,10000,11.112,,,270,,,,4,,,,,,1,wg-a,,,,AAXX 04214 07240 12160 42706 10120 20110 30075 40209 53010 60047 70196 84500 92100=
07240,1997-07-05 00:00:00,12,1021.9,1,94,11,8000,7.408,,,280,,,,,,,,,,1,wg-a,,,,AAXX 05004 07240 12158 /2804 10120 20110 30085 40219 51010 60046 70196 86500 90000=
07240,1997-07-05 06:00:00,12,1023.9,1.4,94,11,3000,11.112,,,290,10.4,12.6,,,,,29,,,10,wg-a,,,,AAXX 05064 07240 02130 82906 10120 20110 30104 40239 53014 60006 71011 886// 90600 333 10126 20104 60294=
07240,1997-07-05 09:00:00,14,1025.1,1.4,94,13,6000,11.112,,,300,,,,,,,,,,,wg-a,,,,AAXX 05094 07240 12356 83006 10140 20130 30118 40251 51014 60006 886// 90900=
07240,1997-07-05 12:00:00,16,1025.7,0.6,88,14,12000,14.816,,,290,,,,,,,,,,21,wg-a,,,,AAXX 05124 07240 02562 72908 10160 20140 30124 40257 51006 61000 72162 878// 91200 333 6100=
07240,1997-07-05 15:00:00,19,1025.5,-0,64,12,15000,22.224,,,290,,,,,,,,,,,wg-a,,,,AAXX 05154 07240 12565 /2912 10190 20120 30124 40255 55000 60006 86800 91500=
07240,1997-07-05 18:00:00,19,1026.2,0.6,68,13,15000,11.112,,,300,11.3,20,,,,,,,,25,wg-a,,,,AAXX 05184 07240 02665 23006 10190 20130 30130 40262 53006 61000 72586 82800 91800 333 10200 20113 6000=
07240,1997-07-05 21:00:00,13,1028.4,2,94,12,12000,7.408,,,310,,,,,,,,,,,wg-a,,,,AAXX 05214 07240 12762 13104 10130 20120 30150 40284 53020 60006 81501 92100=
07240,1997-07-06 00:00:00,11,1029.6,1.1,94,10,10000,7.408,,,10,,,,,,,,,,,wg-a,,,,AAXX 06004 07240 12/60 00104 10110 20100 30161 40296 51011 60006 80000 90000=
07240,1997-07-06 03:00:00,9,1029.8,-0,93,8,10000,7.408,,,300,,,,,,,,,,,wg-a,,,,AAXX 06034 07240 12/60 03004 10090 20080 30161 40298 55000 60006 80000 90300=
07240,1997-07-06 06:00:00,11,1030.4,0.7,100,11,2500,3.704,,,340,8.2,18.7,,,,,1,,,10,wg-a,,,,AAXX 06064 07240 02/25 03402 10110 20110 30168 40304 52007 60006 71000 80000 90600 333 10187 20082 60014=
07240,1997-07-06 09:00:00,18,1030.3,0.3,73,13,12000,3.704,,,300,,,,,,,,,,,wg-a,,,,AAXX 06094 07240 12562 23002 10180 20130 30171 40303 51003 60006 82100 90900=
07240,1997-07-06 12:00:00,21,1029.5,-0.7,53,11,15000,7.408,,,350,,,,,,,,,,,wg-a,,,,AAXX 06124 07240 12665 /3504 10210 20110 30164 40295 58007 60006 85100 91200=
07240,1997-07-06 18:00:00,22,1028.1,-0.5,57,13,20000,7.408,,,350,11,22.9,,,,,,,,,wg-a,,,,AAXX 06184 07240 12770 73504 10220 20130 30151 40281 58005 60006 875// 91800 333 10229 20110=
07240,1997-07-06 21:00:00,18,1028.7,0.4,83,15,20000,3.704,,,20,,,,,,,,,,,wg-a,,,,AAXX 06214 07240 12770 70202 10180 20150 30155 40287 53004 60006 875// 92100=
07240,1997-07-07 00:00:00,15,1028.8,-0.1,82,12,10000,7.408,,,10,,,,,,,,,,,wg-a,,,,AAXX 07004 07240 12/60 /0104 10150 20120 30154 40288 58001 60006 90000=
07240,1997-07-07 03:00:00,11,1028.3,-0.6,94,10,15000,7.408,,,350,,,,,,,,,,,wg-a,,,,AAXX 07034 07240 12/65 23504 10110 20100 30148 40283 58006 60006 80001 90300=
07240,1997-07-07 06:00:00,15,1028.4,0.2,82,12,15000,11.112,,,40,10.4,21.6,,,,,,,,,wg-a,,,,AAXX 07064 07240 02/65 10406 10150 20120 30150 40284 53002 60006 80001 90600 333 10216 20104 60004=
07240,1997-07-07 09:00:00,21,1027.5,-0.6,64,14,20000,11.112,,,80,,,,,,,,,,,wg-a,,,,AAXX 07094 07240 12/70 10806 10210 20140 30144 40275 58006 60006 80001 90900=
07240,1997-07-07 12:00:00,24,1026.4,-0.9,61,16,25000,18.52,,,70,,,,,,,,,,,wg-a,,,,AAXX 07124 07240 12675 50710 10240 20160 30135 40264 58009 60006 84230 91200=
07240,1997-07-07 15:00:00,23,1025.3,-1.1,53,13,25000,18.52,,,40,,,,,,,,,,,wg-a,,,,AAXX 07154 07240 12675 50410 10230 20130 30124 40253 58011 60006 83230 91500=
07240,1997-07-07 18:00:00,24,1024.4,-0.9,54,14,500,18.52,,,30,14.7,24.9,,,,,,,,,wg-a,,,,AAXX 07184 07240 12600 20310 10240 20140 30115 40244 56009 60006 82800 91800 333 10249 20147=
07240,1997-07-07 21:00:00,19,1024.3,-0.3,73,14,500,14.816,,,30,,,,,,,,,,,wg-a,,,,AAXX 07214 07240 12/00 10308 10190 20140 30112 40243 55003 60006 80002 92100=
07240,1997-07-08 00:00:00,17,1024.3,-0.1,77,13,20000,14.816,,,50,,,,,,,,,,,wg-a,,,,AAXX 08004 07240 12/70 00508 10170 20130 30111 40243 58001 60006 80000 90000=
07240,1997-07-08 06:00:00,16,1023.5,0.1,82,13,12000,14.816,,,60,14.4,23.7,,,,,,,,,wg-a,,,,AAXX 08064 07240 02/62 00608 10160 20130 30103 40235 53001 60006 80000 90600 333 10237 20144 60004=
07240,1997-07-08 09:00:00,21,1022.9,-0.4,64,14,25000,22.224,,,70,,,,,,,,,,,wg-a,,,,AAXX 08094 07240 12575 10712 10210 20140 30099 40229 58004 60006 81100 90900=
07240,1997-07-08 12:00:00,24,1021.4,-1.4,47,12,500,22.224,,40.744,80,,,,,,,,,,,wg-a,,,,AAXX 08124 07240 12600 /0812 10240 20120 30085 40214 58014 60006 81100 91200 333 91022=
07240,1997-07-08 15:00:00,25,1019.7,-1.6,50,14,500,25.928,,,90,,,,,,,,,,,wg-a,,,,AAXX 08154 07240 12700 30914 10250 20140 30069 40197 58016 60006 83200 91500=
07240,1997-07-08 18:00:00,24,1018.6,-1.1,50,13,500,18.52,,,70,16,25.7,,,,,,,,,wg-a,,,,AAXX 08184 07240 12700 10710 10240 20130 30058 40186 57011 60006 81200 91800 333 10257 20160=
07240,1997-07-08 21:00:00,20,1019,0.2,68,14,500,14.816,,,50,,,,,,,,,,,wg-a,,,,AAXX 08214 07240 12/00 00508 10200 20140 30060 40190 53002 60006 80000 92100=
07240,1997-07-09 00:00:00,17,1018.7,-0.4,82,14,25000,14.816,,,60,,,,,,,,,,,wg-a,,,,AAXX 09004 07240 12/75 00608 10170 20140 30056 40187 58004 60006 80000 90000=
07240,1997-07-09 03:00:00,15,1017.7,-1.1,88,13,20000,14.816,,,30,,,,,,,,,,,wg-a,,,,AAXX 09034 07240 12/70 00308 10150 20130 30045 40177 56011 60006 80000 90300=
07240,1997-07-09 06:00:00,16,1017.5,-0.2,82,13,12000,18.52,,,50,14.7,24.5,,,,,,,,,wg-a,,,,AAXX 09064 07240 02/62 00510 10160 20130 30043 40175 56002 60006 80000 90600 333 10245 20147 60004=
07240,1997-07-09 12:00:00,24,1015.5,-1.2,54,14,20000,22.224,,,50,,,,,,,,,,,wg-a,,,,AAXX 09124 07240 12670 30512 10240 20140 30027 40155 58012 60006 83100 91200=
07240,1997-07-09 15:00:00,25,1014.3,-1.1,47,13,20000,22.224,,,60,,,,,,,,,,,wg-a,,,,AAXX 09154 07240 12670 20612 10250 20130 30016 40143 57011 60006 82100 91500=
07240,1997-07-09 18:00:00,24,1013.7,-0.6,50,13,25000,22.224,,,40,15.7,25.8,,,,,,,,,wg-a,,,,AAXX 09184 07240 12775 20412 10240 20130 30010 40137 56006 60006 81102 91800 333 10258 20157=
07240,1997-07-10 00:00:00,17,1014.1,-0.4,82,14,20000,18.52,,,40,,,,,,,,,,,wg-a,,,,AAXX 10004 07240 12/70 00410 10170 20140 30011 40141 58004 60006 80000 90000=
07240,1997-07-10 03:00:00,16,1013.3,-0.9,88,14,10000,18.52,,,60,,,,,,,,,,,wg-a,,,,AAXX 10034 07240 12/60 00610 10160 20140 30002 40133 58009 60006 80000 90300=
07240,1997-07-10 06:00:00,16,1013.3,-0,88,14,4000,14.816,,,50,14.8,24.2,,,,,,,,10,wg-a,,,,AAXX 10064 07240 02740 /0508 10160 20140 30002 40133 55000 60006 71000 81102 90600 333 10242 20148 60004=
07240,1997-07-10 09:00:00,22,1012.8,-0.2,69,16,10000,11.112,,,40,,,,,,,,,,,wg-a,,,,AAXX 10094 07240 12/60 10406 10220 20160 30000 40128 58002 60006 81081 90900=
07240,1997-07-10 12:00:00,26,1011.9,-0.7,54,16,15000,11.112,,,40,,,,,,,,,,,wg-a,,,,AAXX 10124 07240 12665 30406 10260 20160 39993 40119 58007 60006 83201 91200=
07240,1997-07-10 15:00:00,27,1011.3,-0.6,48,15,25000,11.112,,,20,,,,,,,,,,,wg-a,,,,AAXX 10154 07240 12775 30206 10270 20150 39987 40113 58006 60006 83201 91500=
07240,1997-07-11 00:00:00,19,1013.4,0.2,83,16,20000,7.408,,,280,,,,,,,,,,,wg-a,,,,AAXX 11004 07240 12770 62804 10190 20160 30004 40134 50002 60006 86500 90000=
07240,1997-07-11 03:00:00,16,1013.3,-0.2,94,15,20000,3.704,,,350,,,,,,,,,,,wg-a,,,,AAXX 11034 07240 12/70 13502 10160 20150 30002 40133 58002 60006 81070 90300=
07240,1997-07-11 06:00:00,18,1014,0.8,94,17,15000,7.408,,,220,15.3,25.4,,,,,,,,,wg-a,,,,AAXX 11064 07240 02/65 22204 10180 20170 30010 40140 52008 60006 82030 90600 333 10254 20153 60004=
07240,1997-07-11 12:00:00,27,1014,-0.2,54,17,18000,14.816,,,270,,,,,,,,,,,wg-a,,,,AAXX 11124 07240 12668 32708 10270 20170 30014 40140 58002 60006 83200 91200=
07240,1997-07-11 15:00:00,27,1014.2,0.2,48,15,20000,18.52,,,280,,,,,,,,,,,wg-a,,,,AAXX 11154 07240 12670 32810 10270 20150 30016 40142 50002 60006 83201 91500=
07240,1997-07-11 18:00:00,24,1014.6,0.2,57,15,20000,25.928,,,260,18,27.7,,,,,,,,,wg-a,,,,AAXX 11184 07240 12670 /2614 10240 20150 30018 40146 53002 60006 83382 91800 333 10277 20180=
07240,1997-07-11 21:00:00,19,1017,2.2,78,15,12000,18.52,,,260,,,,,,,,,,,wg-a,,,,AAXX 11214 07240 12/62 32610 10190 20150 30040 40170 51022 60006 80002 92100=
07240,1997-07-12 00:00:00,16,1017.4,0.2,88,14,10000,14.816,,,270,,,,,,,,,,,wg-a,,,,AAXX 12004 07240 12/60 02708 10160 20140 30042 40174 53002 60006 80000 90000=
07240,1997-07-12 03:00:00,14,1016.9,-0.5,94,13,10000,7.408,,,260,,,,,,,,,,,wg-a,,,,AAXX 12034 07240 12/60 72604 10140 20130 30037 40169 56005 60006 80002 90300=
07240,1997-07-12 06:00:00,15,1017.5,0.6,94,14,8000,11.112,,,250,14,24,,,,,,,,,wg-a,,,,AAXX 12064 07240 02358 82506 10150 20140 30043 40175 51006 60006 876// 90600 333 10240 20140 60004=
07240,1997-07-12 09:00:00,18,1017.8,0.4,73,13,12000,11.112,,,230,,,,,,,,,,,wg-a,,,,AAXX 12094 07240 12462 72306 10180 20130 30047 40178 50004 60006 875// 90900=
07240,1997-07-12 12:00:00,21,1017.3,-0.3,60,13,25000,7.408,,,260,,,,,,,,,,,wg-a,,,,AAXX 12124 07240 12575 /2604 10210 20130 30044 40173 58003 60006 86100 91200=
07240,1997-07-12 15:00:00,24,1016.2,-1,47,12,500,11.112,,,210,,,,,,,,,,,wg-a,,,,AAXX 12154 07240 12600 42106 10240 20120 30034 40162 56010 60006 84101 91500=
07240,1997-07-12 18:00:00,24,1015.5,-0.7,44,11,500,3.704,,,220,15.1,25,,,,,,,,,wg-a,,,,AAXX 12184 07240 12700 32202 10240 20110 30027 40155 56007 60006 82401 91800 333 10250 20151=
07240,1997-07-12 21:00:00,17,1016.7,0.9,82,14,20000,3.704,,,90,,,,,,,,,,,wg-a,,,,AAXX 12214 07240 12/70 20902 10170 20140 30036 40167 53009 60006 80001 92100=
07240,1997-07-13 00:00:00,15,1017.1,0.3,88,13,20000,7.408,,,90,,,,,,,,,,,wg-a,,,,AAXX 13004 07240 12/70 20904 10150 20130 30039 40171 51003 60006 80001 90000=
07240,1997-07-13 03:00:00,14,1016.7,-0.5,88,12,20000,3.704,,,110,,,,,,,,,,,wg-a,,,,AAXX 13034 07240 12/70 71102 10140 20120 30034 40167 56005 60006 80001 90300=
07240,1997-07-13 06:00:00,15,1017.3,0.7,94,14,20000,0,,,0,12.3,24.3,,,,,,,,,wg-a,,,,AAXX 13064 07240 02/70 60000 10150 20140 30041 40173 51007 60006 80001 90600 333 10243 20123 60004=
07240,1997-07-13 09:00:00,23,1017.6,0.6,57,14,500,7.408,,,180,,,,,,,,,,,wg-a,,,,AAXX 13094 07240 12/00 71804 10230 20140 30047 40176 52006 60006 8707/ 90900=
07240,1997-07-13 12:00:00,25,1016.8,-0.6,54,15,500,7.408,,,190,,,,,,,,,,,wg-a,,,,AAXX 13124 07240 12600 71904 10250 20150 30041 40168 57006 60006 81172 91200=
07240,1997-07-13 15:00:00,26,1016.6,-0.2,51,15,500,3.704,,,230,,,,,,,,,,,wg-a,,,,AAXX 13154 07240 12700 82302 10260 20150 30039 40166 58002 60006 8187/ 91500=
07240,1997-07-13 18:00:00,24,1016.5,-0.2,61,16,25000,7.408,,,300,15.1,26.2,,,,,,,,,wg-a,,,,AAXX 13184 07240 12775 73004 10240 20160 30037 40165 58002 60006 85272 91800 333 10262 20151=
07240,1997-07-13 21:00:00,19,1017.9,1.2,83,16,25000,7.408,,,340,,,,,,,,,,,wg-a,,,,AAXX 13214 07240 12775 73404 10190 20160 30049 40179 53012 60006 84532 92100=
07240,1997-07-14 00:00:00,17,1018.4,0.4,88,15,20000,7.408,,,360,,,,,,,,,,,wg-a,,,,AAXX 14004 07240 12/70 73604 10170 20150 30053 40184 50004 60006 85032 90000=
07240,1997-07-14 03:00:00,16,1018.5,0,94,15,20000,3.704,,,270,,,,,,,,,,,wg-a,,,,AAXX 14034 07240 12/70 72702 10160 20150 30053 40185 50000 60006 82032 90300=
07240,1997-07-14 06:00:00,16,1019.9,1.4,94,15,15000,7.408,,,290,14.9,23.8,,,,,,,,,wg-a,,,,AAXX 14064 07240 02765 72904 10160 20150 30067 40199 53014 60006 8553/ 90600 333 10238 20149 60004=
07240,1997-07-14 09:00:00,21,1020.1,0.5,78,17,20000,7.408,,,290,,,,,,,,,,,wg-a,,,,AAXX 14094 07240 12/70 22904 10210 20170 30072 40201 51005 60006 81031 90900=
07240,1997-07-14 12:00:00,24,1020.1,0.1,61,16,20000,11.112,,,270,,,,,,,,,,,wg-a,,,,AAXX 14124 07240 12670 72706 10240 20160 30073 40201 53001 60006 83151 91200=
07240,1997-07-14 15:00:00,25,1020,-0.1,54,15,25000,18.52,,,290,,,,,,,,,,,wg-a,,,,AAXX 14154 07240 12775 42910 10250 20150 30072 40200 57001 60006 82231 91500=
07240,1997-07-14 18:00:00,23,1020.5,0.4,53,13,10000,18.52,,,320,15.9,26.1,,,,,,,,,wg-a,,,,AAXX 14184 07240 12/60 /3210 10230 20130 30076 40205 53004 60006 91800 333 10261 20159=
07240,1997-07-14 21:00:00,18,1022.3,1.6,73,13,500,14.816,,,350,,,,,,,,,,,wg-a,,,,AAXX 14214 07240 12/00 13508 10180 20130 30092 40223 53016 60006 81071 92100=
07240,1997-07-15 00:00:00,14,1023.5,1,88,12,20000,11.112,,,330,,,,,,,,,,,wg-a,,,,AAXX 15004 07240 12/70 13306 10140 20120 30102 40235 51010 60006 80001 90000=
07240,1997-07-15 03:00:00,12,1024,0.4,94,11,15000,7.408,,,350,,,,,,,,,,,wg-a,,,,AAXX 15034 07240 12/65 13504 10120 20110 30106 40240 50004 60006 80001 90300=
07240,1997-07-15 06:00:00,13,1024.1,0.1,94,12,20000,7.408,,,340,11.1,23.3,,,,,,,,,wg-a,,,,AAXX 15064 07240 02/70 13404 10130 20120 30107 40241 50001 60006 80001 90600 333 10233 20111 60004=
07240,1997-07-15 12:00:00,23,1023.7,-1.3,41,9,20000,7.408,,,10,,,,,,,,,,,wg-a,,,,AAXX 15124 07240 12/70 00104 10230 20090 30107 40237 58013 60006 80000 91200=
07240,1997-07-15 18:00:00,25,1021.1,-1.3,44,12,35000,11.112,,,350,13.1,25.4,,,,,,,,,wg-a,,,,AAXX 15184 07240 12/81 13506 10250 20120 30083 40211 58013 60006 80001 91800 333 10254 20131=
07240,1997-07-15 21:00:00,19,1021.8,0.4,68,13,25000,7.408,,,10,,,,,,,,,,,wg-a,,,,AAXX 15214 07240 12/75 10104 10190 20130 30087 40218 53004 60006 80001 92100=
07240,1997-07-16 00:00:00,15,1021.4,-0.5,88,13,20000,7.408,,,350,,,,,,,,,,,wg-a,,,,AAXX 16004 07240 12/70 23504 10150 20130 30082 40214 58005 60006 80001 90000=
07240,1997-07-16 03:00:00,15,1020.3,-1.2,82,12,20000,7.408,,,10,,,,,,,,,,,wg-a,,,,AAXX 16034 07240 12/70 10104 10150 20120 30070 40203 56012 60006 80001 90300=
07240,1997-07-16 06:00:00,17,1019.9,-0.2,88,15,25000,3.704,,,360,14.4,24.6,,,,,,,,,wg-a,,,,AAXX 16064 07240 02/75 23602 10170 20150 30068 40199 56002 60006 80002 90600 333 10246 20144 60004=
07240,1997-07-16 12:00:00,26,1017.1,-1.7,48,14,500,14.816,,,360,,,,,,,,,,,wg-a,,,,AAXX 16124 07240 12600 33608 10260 20140 30044 40171 58017 60006 82102 91200=
07240,1997-07-16 15:00:00,27,1015.8,-1.2,58,18,500,14.816,,,330,,,,,,,,,,,wg-a,,,,AAXX 16154 07240 12700 33308 10270 20180 30032 40158 57012 60006 82102 91500=
07240,1997-07-16 18:00:00,25,1015,-0.9,57,16,500,22.224,,,350,16.9,27.1,,,,,,,,,wg-a,,,,AAXX 16184 07240 12/00 23512 10250 20160 30023 40150 56009 60006 81082 91800 333 10271 20169=
07240,1997-07-16 21:00:00,19,1016.6,1.3,78,15,500,11.112,,,350,,,,,,,,,,,wg-a,,,,AAXX 16214 07240 12/00 23506 10190 20150 30036 40166 53013 60006 80002 92100=
07240,1997-07-17 00:00:00,16,1016.9,0.1,77,12,15000,14.816,,,20,,,,,,,,,,,wg-a,,,,AAXX 17004 07240 12/65 00208 10160 20120 30037 40169 52001 60006 80000 90000=
07240,1997-07-17 03:00:00,13,1015.8,-1.2,88,11,15000,18.52,,,350,,,,,,,,,,,wg-a,,,,AAXX 17034 07240 12/65 03510 10130 20110 30025 40158 58012 60006 80000 90300=
07240,1997-07-17 06:00:00,14,1015.9,0.2,88,12,10000,11.112,,,10,12.5,24.6,,,,,,,,,wg-a,,,,AAXX 17064 07240 02/60 30106 10140 20120 30027 40159 53002 60006 82082 90600 333 10246 20125 60004=
07240,1997-07-17 09:00:00,18,1015.6,-0.1,68,12,18000,14.816,,,340,,,,,,,,,,,wg-a,,,,AAXX 17094 07240 12568 53408 10180 20120 30026 40156 58001 60006 84102 90900=
07240,1997-07-17 12:00:00,22,1014.5,-0.9,57,13,11000,14.816,,,330,,,,,,,,,,,wg-a,,,,AAXX 17124 07240 12/61 /3308 10220 20130 30017 40145 58009 60006 91200=
07240,1997-07-17 15:00:00,24,1013.7,-0.8,57,15,20000,22.224,,,300,,,,,,,,,,,wg-a,,,,AAXX 17154 07240 12670 63012 10240 20150 30009 40137 56008 60006 84232 91500=
07240,1997-07-17 18:00:00,22,1014.2,0.4,60,14,500,22.224,,,300,13.6,24.5,,,,,,,,,wg-a,,,,AAXX 17184 07240 12600 33012 10220 20140 30013 40142 50004 60006 82802 91800 333 10245 20136=
07240,1997-07-18 00:00:00,16,1015.8,0.1,88,14,20000,18.52,,,300,,,,,,,,,,,wg-a,,,,AAXX 18004 07240 12570 73010 10160 20140 30027 40158 51001 60006 878// 90000=
07240,1997-07-18 06:00:00,15,1017.5,1.4,82,12,12000,11.112,,,290,14.1,21.5,,,,,,,,,wg-a,,,,AAXX 18064 07240 02462 52906 10150 20120 30043 40175 53014 60006 85500 90600 333 10215 20141 60004=
07240,1997-07-18 09:00:00,18,1018.3,0.9,68,12,15000,25.928,,,340,,,,,,,,,,,wg-a,,,,AAXX 18094 07240 12565 /3414 10180 20120 30052 40183 51009 60006 85200 90900=
07240,1997-07-18 12:00:00,20,1018.6,0.4,49,9,20000,18.52,,,10,,,,,,,,,,,wg-a,,,,AAXX 18124 07240 12670 /0110 10200 20090 30056 40186 51004 60006 85200 91200=
07240,1997-07-18 15:00:00,22,1018.5,-0,46,10,25000,18.52,,,340,,,,,,,,,,,wg-a,,,,AAXX 18154 07240 12775 53410 10220 20100 30056 40185 55000 60006 85200 91500=
07240,1997-07-18 18:00:00,20,1019.7,1.1,49,9,500,22.224,,,350,14.6,22.4,,,,,,,,,wg-a,,,,AAXX 18184 07240 12700 63512 10200 20090 30067 40197 53011 60006 86800 91800 333 10224 20146=
07240,1997-07-19 00:00:00,16,1021.6,0,72,11,500,11.112,,,330,,,,,,,,,,,wg-a,,,,AAXX 19004 07240 12800 73306 10160 20110 30084 40216 50000 60006 875// 90000=
07240,1997-07-19 03:00:00,15,1021.7,0.1,82,12,20000,11.112,,,320,,,,,,,,,,,wg-a,,,,AAXX 19034 07240 12670 73206 10150 20120 30085 40217 52001 60006 875// 90300=
07240,1997-07-19 06:00:00,15,1022.9,1.1,82,12,15000,14.816,,,330,14.8,20.4,,,,,,,,,wg-a,,,,AAXX 19064 07240 02465 73308 10150 20120 30096 40229 53011 60006 875// 90600 333 10204 20148 60004=
07240,1997-07-19 09:00:00,18,1023.8,1.1,77,14,20000,14.816,,,350,,,,,,,,,,,wg-a,,,,AAXX 19094 07240 12470 73508 10180 20140 30107 40238 51011 60006 872// 90900=
07240,1997-07-19 12:00:00,20,1024.3,0.5,64,13,20000,18.52,,,350,,,,,,,,,,,wg-a,,,,AAXX 19124 07240 12670 73510 10200 20130 30112 40243 51005 60006 878// 91200=
07240,1997-07-19 15:00:00,24,1023.3,-0.8,47,12,25000,18.52,,,340,,,,,,,,,,,wg-a,,,,AAXX 19154 07240 12675 43410 10240 20120 30104 40233 56008 60006 83201 91500=
07240,1997-07-19 18:00:00,23,1023.4,0.1,50,12,25000,22.224,,,350,15.2,24.1,,,,,,,,,wg-a,,,,AAXX 19184 07240 12775 23512 10230 20120 30105 40234 53001 60006 82200 91800 333 10241 20152=
07240,1997-07-19 21:00:00,17,1024.8,1.1,77,13,20000,11.112,,,340,,,,,,,,,,,wg-a,,,,AAXX 19214 07240 12770 13406 10170 20130 30116 40248 53011 60006 81501 92100=
07240,1997-07-20 00:00:00,14,1024.8,-0.1,82,11,20000,11.112,,,350,,,,,,,,,,,wg-a,,,,AAXX 20004 07240 12/70 13506 10140 20110 30115 40248 58001 60006 80001 90000=
07240,1997-07-20 03:00:00,13,1024.2,-0.7,88,11,20000,11.112,,,20,,,,,,,,,,,wg-a,,,,AAXX 20034 07240 12670 30206 10130 20110 30108 40242 57007 60006 83501 90300=
07240,1997-07-20 06:00:00,15,1024.5,0.4,88,13,20000,7.408,,,20,11.8,22.8,,,,,,,,,wg-a,,,,AAXX 20064 07240 02770 40204 10150 20130 30112 40245 53004 60006 81201 90600 333 10228 20118 60004=
07240,1997-07-20 09:00:00,20,1024.2,-0.1,60,12,500,14.816,,,60,,,,,,,,,,,wg-a,,,,AAXX 20094 07240 12/00 20608 10200 20120 30111 40242 58001 60006 80001 90900=
07240,1997-07-20 12:00:00,23,1022.9,-1.1,44,10,500,14.816,,,40,,,,,,,,,,,wg-a,,,,AAXX 20124 07240 12700 10408 10230 20100 30100 40229 58011 60006 81101 91200=
07240,1997-07-20 15:00:00,23,1021.9,-1,41,9,10000,14.816,,,30,,,,,,,,,,,wg-a,,,,AAXX 20154 07240 12/60 /0308 10230 20090 30090 40219 56010 60006 91500=
07240,1997-07-20 18:00:00,23,1021.2,-0.7,41,9,500,11.112,,,30,14.5,24.3,,,,,,,,,wg-a,,,,AAXX 20184 07240 12700 30306 10230 20090 30083 40212 55007 60006 814/2 91800 333 10243 20145=
07240,1997-07-20 21:00:00,18,1021.7,0.2,56,9,25000,11.112,,,30,,,,,,,,,,,wg-a,,,,AAXX 20214 07240 12775 30306 10180 20090 30085 40217 52002 60006 815/2 92100=
07240,1997-07-21 00:00:00,15,1021.9,0.1,72,10,25000,18.52,,,60,,,,,,,,,,,wg-a,,,,AAXX 21004 07240 12/75 20610 10150 20100 30086 40219 50001 60006 80001 90000=
07240,1997-07-21 06:00:00,14,1021.8,0.3,88,12,20000,14.816,,,60,12.9,22.8,,,,,,,,,wg-a,,,,AAXX 21064 07240 02/70 50608 10140 20120 30085 40218 52003 60006 80001 90600 333 10228 20129 60004=
07240,1997-07-21 09:00:00,20,1021.4,-0.1,64,13,20000,14.816,,,70,,,,,,,,,,,wg-a,,,,AAXX 21094 07240 12570 /0708 10200 20130 30084 40214 58001 60006 81102 90900=
07240,1997-07-21 12:00:00,24,1020.1,-1.2,47,12,25000,18.52,,,90,,,,,,,,,,,wg-a,,,,AAXX 21124 07240 12675 50910 10240 20120 30072 40201 56012 60006 83102 91200=
07240,1997-07-21 15:00:00,24,1019,-1,41,10,500,14.816,,,70,,,,,,,,,,,wg-a,,,,AAXX 21154 07240 12700 40708 10240 20100 30062 40190 56010 60006 83102 91500=
07240,1997-07-21 18:00:00,24,1018.1,-0.9,41,10,500,14.816,,,80,14,25.1,,,,,,,,,wg-a,,,,AAXX 21184 07240 12700 20808 10240 20100 30053 40181 56009 60006 81102 91800 333 10251 20140=
07240,1997-07-21 21:00:00,17,1019.2,0.7,68,11,10000,7.408,,,50,,,,,,,,,,,wg-a,,,,AAXX 21214 07240 12/60 /0504 10170 20110 30060 40192 53007 60006 92100=
07240,1997-07-22 00:00:00,17,1018.8,-0.3,68,11,10000,14.816,,,50,,,,,,,,,,,wg-a,,,,AAXX 22004 07240 12/60 /0508 10170 20110 30057 40188 58003 60006 90000=
07240,1997-07-22 03:00:00,15,1018.5,-0.4,77,11,20000,14.816,,,60,,,,,,,,,,,wg-a,,,,AAXX 22034 07240 12/70 10608 10150 20110 30053 40185 56004 60006 80002 90300=
07240,1997-07-22 06:00:00,16,1018.7,0.2,77,12,20000,18.52,,,70,14,23.6,,,,,,,,,wg-a,,,,AAXX 22064 07240 02/70 10710 10160 20120 30055 40187 53002 60006 80002 90600 333 10236 20140 60004=
07240,1997-07-22 09:00:00,22,1018.4,0,60,14,20000,18.52,,,70,,,,,,,,,,,wg-a,,,,AAXX 22094 07240 12/70 30710 10220 20140 30055 40184 50000 60006 80002 90900=
07240,1997-07-22 12:00:00,25,1017.5,-0.8,41,11,25000,22.224,,,80,,,,,,,,,,,wg-a,,,,AAXX 22124 07240 12675 30812 10250 20110 30047 40175 56008 60006 81102 91200=
07240,1997-07-22 15:00:00,26,1016.6,-0.8,42,12,500,14.816,,,90,,,,,,,,,,,wg-a,,,,AAXX 22154 07240 12700 60908 10260 20120 30039 40166 56008 60006 81102 91500=
07240,1997-07-22 18:00:00,26,1016.2,-0.4,42,12,500,14.816,,,70,15.8,26.4,,,,,,,,,wg-a,,,,AAXX 22184 07240 12700 60708 10260 20120 30035 40162 55004 60006 81132 91800 333 10264 20158=
07240,1997-07-22 21:00:00,21,1017.2,0.8,60,13,15000,7.408,,,60,,,,,,,,,,,wg-a,,,,AAXX 22214 07240 12/65 60604 10210 20130 30043 40172 53008 60006 86082 92100=
07240,1997-07-23 00:00:00,19,1017.1,-0.2,64,12,0,14.816,,,60,,,,,,,,,,,wg-a,,,,AAXX 23004 07240 12/// /0608 10190 20120 30041 40171 58002 60006 90000=
07240,1997-07-23 03:00:00,19,1016.7,-0.4,68,13,15000,11.112,,,60,,,,,,,,,,,wg-a,,,,AAXX 23034 07240 12/65 60606 10190 20130 30037 40167 56004 60006 86082 90300=
07240,1997-07-23 06:00:00,18,1017,0.3,77,14,15000,11.112,,,40,16.5,25.6,,,,,,,,,wg-a,,,,AAXX 23064 07240 02/65 40406 10180 20140 30040 40170 51003 60006 83082 90600 333 10256 20165 60004=
07240,1997-07-23 09:00:00,24,1017.3,0.5,57,15,20000,7.408,,,40,,,,,,,,,,,wg-a,,,,AAXX 23094 07240 12/70 40404 10240 20150 30045 40173 50005 60006 83032 90900=
07240,1997-07-23 12:00:00,28,1016.8,-0.3,40,13,500,11.112,,,100,,,,,,,,,,,wg-a,,,,AAXX 23124 07240 12700 41006 10280 20130 30042 40168 58003 60006 82132 91200=
07240,1997-07-23 18:00:00,28,1015.4,-0.7,40,13,500,11.112,,,340,18.2,29.7,,,,,,,,,wg-a,,,,AAXX 23184 07240 12700 43406 10280 20130 30028 40154 55007 60006 81201 91800 333 10297 20182=
07240,1997-07-24 00:00:00,18,1016.3,-0.2,77,14,25000,0,,,0,,,,,,,,,,,wg-a,,,,AAXX 24004 07240 12/75 10000 10180 20140 30033 40163 58002 60006 80001 90000=
07240,1997-07-24 03:00:00,15,1015.5,-1,94,14,25000,7.408,,,310,,,,,,,,,,,wg-a,,,,AAXX 24034 07240 12/75 13104 10150 20140 30023 40155 58010 60006 80001 90300=
07240,1997-07-24 06:00:00,16,1016.2,0.8,94,15,8000,7.408,,,330,14.1,28.1,,,,,,,,,wg-a,,,,AAXX 24064 07240 02/58 /3304 10160 20150 30031 40162 53008 60006 80001 90600 333 10281 20141 60004=
07240,1997-07-24 09:00:00,22,1016.3,0.3,69,16,20000,7.408,,,300,,,,,,,,,,,wg-a,,,,AAXX 24094 07240 12/70 43004 10220 20160 30034 40163 50003 60006 80002 90900=
07240,1997-07-24 12:00:00,26,1016,-0.1,51,15,20000,14.816,,,300,,,,,,,,,,,wg-a,,,,AAXX 24124 07240 12/70 53008 10260 20150 30033 40160 58001 60006 80002 91200=
07240,1997-07-24 15:00:00,27,1015.2,-0.7,37,11,25000,22.224,,,260,,,,,,,,,,,wg-a,,,,AAXX 24154 07240 12775 52612 10270 20110 30026 40152 57007 60006 81131 91500=
07240,1997-07-24 18:00:00,24,1015.2,-0.2,38,9,25000,25.928,,,280,16.2,27.9,,,,,,,,,wg-a,,,,AAXX 24184 07240 12875 72814 10240 20090 30024 40152 55002 60006 875// 91800 333 10279 20162=
07240,1997-07-25 00:00:00,18,1016.3,-0.2,83,15,20000,25.928,,,270,,,,,,,,,,1,wg-a,,,,AAXX 25004 07240 02470 /2714 10180 20150 30033 40163 58002 61000 70162 86500 90000 333 6100=
07240,1997-07-25 03:00:00,16,1016.8,0.3,77,12,20000,18.52,,,290,,,,,,,,,,,wg-a,,,,AAXX 25034 07240 12/70 72910 10160 20120 30036 40168 51003 60006 87032 90300=
07240,1997-07-25 06:00:00,15,1018.1,1.3,88,13,20000,14.816,,,290,14.1,24.2,,,,,,,,,wg-a,,,,AAXX 25064 07240 02370 72908 10150 20130 30049 40181 51013 60006 83832 90600 333 10242 20141 61000=
07240,1997-07-25 12:00:00,18,1017.5,-1.2,73,13,20000,22.224,,,240,,,,,,,,,,1,wg-a,,,,AAXX 25124 07240 02570 82412 10180 20130 30044 40175 58012 61000 70162 878// 91200 333 6100=
07240,1997-07-25 15:00:00,18,1015.9,-1.5,100,18,3000,14.816,,,220,,,,1,,,,,,51,wg-a,,,,AAXX 25154 07240 12330 82208 10180 20180 30029 40159 58015 60017 75152 877// 91500=
07240,1997-07-25 18:00:00,20,1015.3,-0.5,88,18,25000,25.928,,,250,14.6,20.6,,1,,,,,,2,wg-a,,,,AAXX 25184 07240 02475 82514 10200 20180 30024 40153 55005 60006 70252 887// 91800 333 10206 20146 60017=
07240,1997-07-25 21:00:00,19,1017.2,1.8,83,16,20000,18.52,,,260,,,,,,,,,,2,wg-a,,,,AAXX 25214 07240 02570 /2610 10190 20160 30042 40172 53018 61000 70262 86500 92100 333 ////=
07240,1997-07-26 00:00:00,18,1018.6,1.3,88,16,20000,18.52,,,260,,,,,,,,,,3,wg-a,,,,AAXX 26004 07240 02470 72610 10180 20160 30055 40186 52013 61000 70361 875// 90000 333 ////=
07240,1997-07-26 03:00:00,17,1019.3,0.7,94,16,12000,11.112,,,270,,,,,,,,,,,wg-a,,,,AAXX 26034 07240 12262 82706 10170 20160 30062 40193 51007 60006 886// 90300=
07240,1997-07-26 06:00:00,17,1020.5,1.2,94,16,15000,11.112,,,270,17,20.2,,,,,2,,,,wg-a,,,,AAXX 26064 07240 02365 72706 10170 20160 30074 40205 53012 60006 876// 90600 333 10202 20170 60024=
07240,1997-07-26 09:00:00,20,1021.2,0.8,78,16,20000,11.112,,,270,,,,,,,,,,,wg-a,,,,AAXX 26094 07240 12470 72706 10200 20160 30082 40212 51008 60006 875// 90900=
07240,1997-07-26 12:00:00,23,1021.1,0,61,15,0,14.816,,,240,,,,,,,,,,,wg-a,,,,AAXX 26124 07240 12/// /2408 10230 20150 30082 40211 50000 60006 91200=
07240,1997-07-26 18:00:00,24,1019.6,-0.3,61,16,25000,14.816,,,250,17.4,25.5,,,,,,,,,wg-a,,,,AAXX 26184 07240 12675 72508 10240 20160 30068 40196 55003 60006 878// 91800 333 10255 20174=
07240,1997-07-26 21:00:00,21,1020.5,0.7,78,17,25000,11.112,,,240,,,,,,,,,,,wg-a,,,,AAXX 26214 07240 12775 72406 10210 20170 30075 40205 53007 60006 875// 92100=
07240,1997-07-27 00:00:00,19,1020.5,0,83,16,25000,14.816,,,250,,,,,,,,,,,wg-a,,,,AAXX 27004 07240 12775 72508 10190 20160 30075 40205 50000 60006 875// 90000=
07240,1997-07-27 03:00:00,18,1020.6,-0,88,16,15000,11.112,,,250,,,,,,,,,,,wg-a,,,,AAXX 27034 07240 12465 82506 10180 20160 30075 40206 55000 60006 875// 90300=
07240,1997-07-27 06:00:00,19,1021,0.4,88,17,15000,14.816,,,250,18.1,23.5,,,,,,,,,wg-a,,,,AAXX 27064 07240 02365 82508 10190 20170 30079 40210 53004 60006 876// 90600 333 10235 20181 60004=
07240,1997-07-27 09:00:00,22,1021.2,0.4,78,18,25000,14.816,,,270,,,,,,,,,,,wg-a,,,,AAXX 27094 07240 12475 72708 10220 20180 30083 40212 51004 60006 8513/ 90900=
07240,1997-07-27 12:00:00,22,1021.4,0.2,78,18,20000,11.112,,,310,,,,,,,,,,25,wg-a,,,,AAXX 27124 07240 02270 73106 10220 20180 30085 40214 53002 61000 72586 878// 91200 333 6100=
07240,1997-07-27 15:00:00,22,1021.5,0.1,78,18,500,3.704,,,320,,,,2,,,,,,25,wg-a,,,,AAXX 27154 07240 12400 73202 10220 20180 30086 40215 50001 60027 72586 878// 91500=
07240,1997-07-27 18:00:00,23,1021.2,-0.3,73,18,500,7.408,,,260,18.8,24.7,,,,,,,,1,wg-a,,,,AAXX 27184 07240 12600 62604 10230 20180 30083 40212 56003 60006 70186 83830 91800 333 10247 20188=
07240,1997-07-27 21:00:00,19,1022.3,0.9,88,17,15000,3.704,,,260,,,,,,,,,,,wg-a,,,,AAXX 27214 07240 12/65 22602 10190 20170 30092 40223 53009 60006 81031 92100=
07240,1997-07-28 00:00:00,16,1023,0.6,82,13,0,7.408,,,40,,,,,,,,,,,wg-a,,,,AAXX 28004 07240 12/// /0404 10160 20130 30098 40230 51006 60006 90000=
07240,1997-07-28 03:00:00,14,1022.4,-0.7,82,11,10000,7.408,,,50,,,,,,,,,,,wg-a,,,,AAXX 28034 07240 12/60 00504 10140 20110 30091 40224 57007 60006 80000 90300=
07240,1997-07-28 06:00:00,15,1023,0.6,82,12,20000,7.408,,,40,12.3,22.9,,,,,2,,,,wg-a,,,,AAXX 28064 07240 02/70 20404 10150 20120 30097 40230 53006 60006 81031 90600 333 10229 20123 60024=
07240,1997-07-28 09:00:00,22,1022.8,0.1,57,13,10000,11.112,,,80,,,,,,,,,,,wg-a,,,,AAXX 28094 07240 12/60 /0806 10220 20130 30098 40228 51001 60006 90900=
07240,1997-07-28 12:00:00,25,1021.9,-0.7,44,12,11000,11.112,,,50,,,,,,,,,,,wg-a,,,,AAXX 28124 07240 12/61 /0506 10250 20120 30091 40219 57007 60006 91200=
07240,1997-07-28 15:00:00,27,1020.5,-1.3,42,13,500,7.408,,,80,,,,,,,,,,,wg-a,,,,AAXX 28154 07240 12700 30804 10270 20130 30078 40205 57013 60006 82101 91500=
07240,1997-07-28 18:00:00,27,1019.6,-0.9,42,13,500,7.408,,,10,15,27.6,,,,,,,,,wg-a,,,,AAXX 28184 07240 12700 40104 10270 20130 30069 40196 56009 60006 814/1 91800 333 10276 20150=
07240,1997-07-28 21:00:00,20,1021.1,1.2,60,12,25000,7.408,,,10,,,,,,,,,,,wg-a,,,,AAXX 28214 07240 12/75 20104 10200 20120 30081 40211 52012 60006 80002 92100=
07240,1997-07-29 00:00:00,19,1021.2,0,60,11,25000,11.112,,,30,,,,,,,,,,,wg-a,,,,AAXX 29004 07240 12/75 30306 10190 20110 30081 40212 50000 60006 80001 90000=
07240,1997-07-29 03:00:00,16,1020.8,-0.5,82,13,25000,11.112,,,50,,,,,,,,,,,wg-a,,,,AAXX 29034 07240 12/75 20506 10160 20130 30076 40208 56005 60006 80001 90300=
07240,1997-07-29 06:00:00,17,1021.2,0.4,77,13,20000,11.112,,,60,15.4,26.8,,,,,,,,,wg-a,,,,AAXX 29064 07240 02/70 50606 10170 20130 30080 40212 52004 60006 80001 90600 333 10268 20154 60004=
07240,1997-07-29 09:00:00,23,1021.1,0.2,61,15,500,7.408,,,80,,,,,,,,,,,wg-a,,,,AAXX 29094 07240 12/00 30804 10230 20150 30082 40211 51002 60006 80001 90900=
07240,1997-07-29 12:00:00,28,1020,-0.9,35,11,500,11.112,,,180,,,,,,,,,,,wg-a,,,,AAXX 29124 07240 12/00 31806 10280 20110 30073 40200 58009 60006 80001 91200=
07240,1997-07-29 15:00:00,29,1019,-0.9,37,13,500,11.112,,,290,,,,,,,,,,,wg-a,,,,AAXX 29154 07240 12700 32906 10290 20130 30064 40190 57009 60006 81101 91500=
07240,1997-07-29 18:00:00,28,1018.4,-0.7,37,12,500,11.112,,,330,16.6,29.8,,,,,,,,,wg-a,,,,AAXX 29184 07240 12700 23306 10280 20120 30057 40184 56007 60006 81101 91800 333 10298 20166=
07240,1997-07-29 21:00:00,21,1019.1,0.4,60,13,500,3.704,,,70,,,,,,,,,,,wg-a,,,,AAXX 29214 07240 12/00 20702 10210 20130 30061 40191 53004 60006 81031 92100=
07240,1997-07-30 00:00:00,18,1019.2,0,77,14,500,7.408,,,300,,,,,,,,,,,wg-a,,,,AAXX 30004 07240 12/00 13004 10180 20140 30061 40192 50000 60006 80001 90000=
07240,1997-07-30 03:00:00,16,1018.6,-0.7,82,13,500,7.408,,,270,,,,,,,,,,,wg-a,,,,AAXX 30034 07240 12/00 12704 10160 20130 30054 40186 58007 60006 80001 90300=
07240,1997-07-30 06:00:00,17,1018.8,0.3,94,16,25000,7.408,,,300,14.6,28,,,,,,,,,wg-a,,,,AAXX 30064 07240 02375 53004 10170 20160 30057 40188 53003 60006 82131 90600 333 10280 20146 60004=
07240,1997-07-30 09:00:00,24,1019.1,0.6,57,15,500,14.816,,,290,,,,,,,,,,,wg-a,,,,AAXX 30094 07240 12/00 52908 10240 20150 30063 40191 51006 60006 82032 90900=
07240,1997-07-30 12:00:00,26,1019,0,48,14,500,14.816,,,300,,,,,,,,,,,wg-a,,,,AAXX 30124 07240 12600 /3008 10260 20140 30063 40190 50000 60006 81132 91200=
07240,1997-07-30 15:00:00,26,1018.8,-0.2,54,16,35000,18.52,,,300,,,,,,,,,,,wg-a,,,,AAXX 30154 07240 12781 63010 10260 20160 30061 40188 58002 60006 82132 91500=
07240,1997-07-30 18:00:00,23,1019.1,0.2,69,17,35000,18.52,,,320,17.1,27.2,,,,,,,,,wg-a,,,,AAXX 30184 07240 12781 53210 10230 20170 30063 40191 53002 60006 82532 91800 333 10272 20171=
07240,1997-07-30 21:00:00,17,1021.1,1.6,72,12,15000,14.816,,,340,,,,,,,,,,,wg-a,,,,AAXX 30214 07240 12/65 23408 10170 20120 30079 40211 53016 60006 81032 92100=
07240,1997-07-31 00:00:00,13,1021.5,0.2,88,11,15000,7.408,,,340,,,,,,,,,,,wg-a,,,,AAXX 31004 07240 12/65 03404 10130 20110 30081 40215 51002 60006 80000 90000=
07240,1997-07-31 03:00:00,12,1021.7,0.2,88,10,15000,3.704,,,260,,,,,,,,,,,wg-a,,,,AAXX 31034 07240 12665 22602 10120 20100 30083 40217 51002 60006 82500 90300=
07240,1997-07-31 06:00:00,12,1022.3,0.6,94,11,20000,7.408,,,280,10.6,23.1,,,,,,,,,wg-a,,,,AAXX 31064 07240 02/70 72804 10120 20110 30089 40223 53006 60006 83032 90600 333 10231 20106 60004=
07240,1997-07-31 12:00:00,20,1021.1,-1,56,11,25000,14.816,,,290,,,,,,,,,,,wg-a,,,,AAXX 31124 07240 12675 /2908 10200 20110 30081 40211 58010 60006 81502 91200=
07240,1997-07-31 15:00:00,22,1020.2,-0.8,50,11,25000,18.52,,,290,,,,,,,,,,,wg-a,,,,AAXX 31154 07240 12675 62910 10220 20110 30073 40202 58008 60006 81102 91500=
07240,1997-07-31 18:00:00,21,1019.4,-0.9,49,10,500,14.816,,,300,11.7,22.6,,,,,,,,,wg-a,,,,AAXX 31184 07240 12/00 63008 10210 20100 30064 40194 56009 60006 83032 91800 333 10226 20117=
07240,1997-07-31 21:00:00,17,1019.9,0.4,68,11,500,11.112,,,350,,,,,,,,,,,wg-a,,,,AAXX 31214 07240 12/00 63506 10170 20110 30068 40199 53004 60006 84032 92100=
07240,1997-08-01 00:00:00,13,1019.6,-0.5,88,11,20000,7.408,,,310,,,,,,,,,,,wg-a,,,,AAXX 01004 07240 12/70 33104 10130 20110 30063 40196 58005 60006 80001 90000=
07240,1997-08-01 03:00:00,11,1018.8,-0.9,94,10,15000,7.408,,,300,,,,,,,,,,,wg-a,,,,AAXX 01034 07240 12/65 03004 10110 20100 30054 40188 57009 60006 80000 90300=
07240,1997-08-01 06:00:00,13,1018.6,-0.1,94,12,20000,7.408,,,270,10.1,21.2,,,,,,,,,wg-a,,,,AAXX 01064 07240 02/70 22704 10130 20120 30053 40186 56001 60006 81031 90600 333 10212 20101 60004=
07240,1997-08-01 09:00:00,17,1018.6,0.2,72,12,25000,18.52,,,290,,,,,,,,,,,wg-a,,,,AAXX 01094 07240 12575 /2910 10170 20120 30055 40186 51002 60006 86400 90900=
07240,1997-08-01 12:00:00,22,1017.3,-1.1,53,12,500,18.52,,,280,,,,,,,,,,,wg-a,,,,AAXX 01124 07240 12/00 /2810 10220 20120 30044 40173 58011 60006 81030 91200=
07240,1997-08-01 15:00:00,25,1016.8,-0.4,47,13,500,14.816,,,290,,,,,,,,,,,wg-a,,,,AAXX 01154 07240 12700 12908 10250 20130 30040 40168 56004 60006 81131 91500=
07240,1997-08-01 18:00:00,24,1016.6,-0.2,57,15,500,14.816,,,300,13.1,24.8,,,,,,,,,wg-a,,,,AAXX 01184 07240 12700 13008 10240 20150 30038 40166 55002 60006 81501 91800 333 10248 20131=
07240,1997-08-01 21:00:00,19,1017.8,1,78,15,20000,7.408,,,300,,,,,,,,,,,wg-a,,,,AAXX 01214 07240 12670 53004 10190 20150 30048 40178 51010 60006 84501 92100=
07240,1997-08-02 00:00:00,17,1018,0.1,82,14,20000,3.704,,,340,,,,,,,,,,,wg-a,,,,AAXX 02004 07240 12/70 03402 10170 20140 30049 40180 50001 60006 80000 90000=
07240,1997-08-02 03:00:00,16,1018,-0.1,88,14,20000,7.408,,,260,,,,,,,,,,,wg-a,,,,AAXX 02034 07240 12670 72604 10160 20140 30048 40180 56001 60006 875// 90300=
07240,1997-08-02 06:00:00,17,1018.1,0.2,82,14,25000,3.704,,,280,15.3,23.9,,,,,,,,,wg-a,,,,AAXX 02064 07240 02575 72802 10170 20140 30050 40181 52002 60006 875// 90600 333 10239 20153 60004=
07240,1997-08-02 09:00:00,20,1018.2,0.2,78,16,25000,3.704,,,50,,,,,,,,,,,wg-a,,,,AAXX 02094 07240 12575 70502 10200 20160 30052 40182 50002 60006 875// 90900=
07240,1997-08-02 12:00:00,23,1018,0,73,18,25000,11.112,,,320,,,,,,,,,,,wg-a,,,,AAXX 02124 07240 12575 73206 10230 20180 30052 40180 50000 60006 878// 91200=
07240,1997-08-02 15:00:00,25,1017.1,-0.8,69,19,25000,7.408,,,360,,,,,,,,,,,wg-a,,,,AAXX 02154 07240 12575 73604 10250 20190 30044 40171 57008 60006 8587/ 91500=
07240,1997-08-02 18:00:00,25,1016.5,-0.6,69,19,25000,7.408,,,330,16.6,25.3,,,,,,,,,wg-a,,,,AAXX 02184 07240 12775 73304 10250 20190 30038 40165 56006 60006 81570 91800 333 10253 20166=
07240,1997-08-02 21:00:00,22,1016.9,0.3,83,19,10000,7.408,,,20,,,,,,,,,,,wg-a,,,,AAXX 02214 07240 12/60 /0204 10220 20190 30041 40169 53003 60006 92100=
07240,1997-08-03 00:00:00,20,1016.7,-0.3,88,18,10000,14.816,,,70,,,,,,,,,,,wg-a,,,,AAXX 03004 07240 12/60 /0708 10200 20180 30038 40167 58003 60006 90000=
07240,1997-08-03 03:00:00,19,1016,-0.8,88,17,20000,11.112,,,60,,,,,,,,,,,wg-a,,,,AAXX 03034 07240 12/70 /0606 10190 20170 30030 40160 58008 60006 85070 90300=
07240,1997-08-03 06:00:00,19,1016,-0,94,18,3000,7.408,,,90,18,24.5,,,,,,,,10,wg-a,,,,AAXX 03064 07240 02630 /0904 10190 20180 30030 40160 55000 60006 71022 84570 90600 333 10245 20180 60004=
07240,1997-08-03 09:00:00,26,1015.7,-0,65,19,15000,7.408,,,140,,,,,,,,,,,wg-a,,,,AAXX 03094 07240 12565 31404 10260 20190 30030 40157 55000 60006 82230 90900=
07240,1997-08-03 12:00:00,30,1014.5,-1,49,18,500,3.704,,,170,,,,,,,,,,,wg-a,,,,AAXX 03124 07240 12600 51702 10300 20180 30020 40145 57010 60006 84230 91200=
07240,1997-08-03 15:00:00,31,1013.2,-1.2,43,17,500,11.112,,,190,,,,,,,,,,,wg-a,,,,AAXX 03154 07240 12700 41906 10310 20170 30008 40132 56012 60006 82230 91500=
07240,1997-08-03 18:00:00,30,1012.7,-0.6,46,17,10000,3.704,,,330,19.4,31.2,,,,,,,,,wg-a,,,,AAXX 03184 07240 12/60 /3302 10300 20170 30002 40127 56006 60006 91800 333 10312 20194=
07240,1997-08-04 00:00:00,23,1013.3,0,78,19,20000,11.112,,,70,,,,,,,,,,,wg-a,,,,AAXX 04004 07240 12870 70706 10230 20190 30005 40133 50000 60006 8653/ 90000=
07240,1997-08-04 06:00:00,21,1013.3,0.6,88,19,500,11.112,,,90,19.3,30.3,,,,,,,,,wg-a,,,,AAXX 04064 07240 02/00 40906 10210 20190 30005 40133 53006 60006 84080 90600 333 10303 20193 60004=
07240,1997-08-04 12:00:00,24,1014.3,0.4,74,19,10000,11.112,,,330,,,,,,,,,,,wg-a,,,,AAXX 04124 07240 12560 73306 10240 20190 30016 40143 50004 60006 8398/ 91200=
07240,1997-08-04 15:00:00,29,1013.7,-0.4,52,18,20000,3.704,,,10,,,,,,,,,,,wg-a,,,,AAXX 04154 07240 12/70 30102 10290 20180 30012 40137 58004 60006 83031 91500=
07240,1997-08-04 18:00:00,30,1013.2,-0.5,49,18,20000,0,,,0,21.2,30.5,,,,,,,,,wg-a,,,,AAXX 04184 07240 12/70 50000 10300 20180 30007 40132 58005 60006 83082 91800 333 10305 20212=
07240,1997-08-04 21:00:00,24,1014,0.6,78,20,10000,7.408,,,360,,,,0,,,,,,,wg-a,,,,AAXX 04214 07240 12/60 73604 10240 20200 30013 40140 50006 60007 8708/ 92100=
07240,1997-08-05 00:00:00,21,1014.7,0.6,94,20,10000,11.112,,,290,,,,0,,,,,,,wg-a,,,,AAXX 05004 07240 02/60 32906 10210 20200 30019 40147 51006 60016 8308/ 90000 333 60007=
07240,1997-08-05 03:00:00,20,1014.3,-0.5,88,18,10000,14.816,,,270,,,,,,,,,,,wg-a,,,,AAXX 05034 07240 12/60 42708 10200 20180 30014 40143 55005 60006 80001 90300=
07240,1997-08-05 06:00:00,20,1014,-0.3,94,19,7000,7.408,,,10,18.7,29.5,,,,,,,,,wg-a,,,,AAXX 05064 07240 02657 70104 10200 20190 30011 40140 56003 60006 8538/ 90600 333 10295 20187 60004=
07240,1997-08-05 09:00:00,19,1015,1,100,19,3000,11.112,,,270,,,,30,,,,,,29,wg-a,,,,AAXX 05094 07240 12130 72706 10190 20190 30021 40150 51010 60307 72996 8578/ 90900=
07240,1997-08-05 12:00:00,21,1015.1,0.1,94,20,500,7.408,,,260,,,,4,,,,,,21,wg-a,,,,AAXX 05124 07240 02200 72604 10210 20200 30022 40151 53001 60346 72196 875// 91200 333 60047=
07240,1997-08-05 15:00:00,20,1014.2,-0.9,94,19,10000,7.408,,,220,,,,12,,,,,,21,wg-a,,,,AAXX 05154 07240 12460 72204 10200 20190 30013 40142 58009 60127 72196 8487/ 91500=
07240,1997-08-05 18:00:00,21,1013.9,-0.3,94,20,15000,3.704,,,270,19.2,22.3,,,,,,,,1,wg-a,,,,AAXX 05184 07240 12765 82702 10210 20200 30010 40139 55003 60006 70196 8553/ 91800 333 10223 20192=
07240,1997-08-05 21:00:00,20,1014.3,0.4,94,19,8000,7.408,,,90,,,,3,,,,,,61,wg-a,,,,AAXX 05214 07240 12358 80904 10200 20190 30014 40143 50004 60037 76162 8377/ 92100=
07240,1997-08-06 00:00:00,19,1014.2,-0.1,94,18,8000,3.704,,,190,,,,12,,,,,,21,wg-a,,,,AAXX 06004 07240 02358 71902 10190 20180 30013 40142 58001 60156 72162 877// 90000 333 60127=
07240,1997-08-06 03:00:00,19,1013,-1.3,94,18,2000,11.112,,,290,,,,0,,,,,,10,wg-a,,,,AAXX 06034 07240 12120 82906 10190 20180 30000 40130 56013 60007 71022 877// 90300=
07240,1997-08-06 06:00:00,19,1013.2,0.2,94,18,2500,7.408,,,260,18.4,21,,,,,61.8,,,10,wg-a,,,,AAXX 06064 07240 02325 82604 10190 20180 30002 40132 53002 60006 71062 877// 90600 333 10210 20184 60624=
07240,1997-08-06 09:00:00,20,1013.6,0.5,88,18,12000,11.112,,,290,,,,,,,,,,,wg-a,,,,AAXX 06094 07240 12462 72906 10200 20180 30007 40136 53005 60006 877// 90900=
07240,1997-08-06 12:00:00,23,1013.7,0.2,73,18,20000,7.408,,,240,,,,,,,,,,,wg-a,,,,AAXX 06124 07240 12570 72404 10230 20180 30009 40137 51002 60006 878// 91200=
07240,1997-08-06 15:00:00,24,1012.9,-0.7,65,17,500,7.408,,,290,,,,,,,,,,,wg-a,,,,AAXX 06154 07240 12500 /2904 10240 20170 30002 40129 58007 60006 85202 91500=
07240,1997-08-06 18:00:00,24,1012.2,-0.7,61,16,500,7.408,,,350,18.5,25.3,0,0,0,0,0,,,,wg-a,,,,AAXX 06184 07240 12600 /3504 10240 20160 39995 40122 56007 60006 81502 91800 333 10253 20185=
07240,1997-08-06 21:00:00,22,1013.4,1.1,73,17,500,3.704,,,30,,,,,,,,,,,wg-a,,,,AAXX 06214 07240 12700 70302 10220 20170 30006 40134 51011 60006 875// 92100=
07240,1997-08-07 00:00:00,18,1013.4,-0.2,88,16,10000,3.704,,,320,,,,,,,,,,,wg-a,,,,AAXX 07004 07240 12/60 /3202 10180 20160 30004 40134 55002 60006 90000=
07240,1997-08-07 03:00:00,19,1012.9,-0.4,94,18,7000,11.112,,,70,,,,,,,,,,,wg-a,,,,AAXX 07034 07240 12757 70706 10190 20180 30000 40129 57004 60006 875// 90300=
07240,1997-08-07 06:00:00,19,1013.2,0.2,94,18,4000,7.408,,,80,18,24.3,,,,,,,,10,wg-a,,,,AAXX 07064 07240 02740 70804 10190 20180 30002 40132 53002 60006 71011 8755/ 90600 333 10243 20180 60004=
07240,1997-08-07 09:00:00,21,1012.9,-0.2,88,19,9000,7.408,,,70,,,,,,,,,,60,wg-a,,,,AAXX 07094 07240 02659 70704 10210 20190 30000 40129 55002 61000 76062 8485/ 90900 333 ////=
07240,1997-08-07 12:00:00,22,1013,0.2,83,19,12000,7.408,,,200,,,,0,,,,,,3,wg-a,,,,AAXX 07124 07240 02462 72004 10220 20190 30002 40130 51002 60016 70362 83272 91200 333 60007=
07240,1997-08-07 15:00:00,26,1012.2,-0.6,65,19,15000,7.408,,,110,,,,,,,,,,,wg-a,,,,AAXX 07154 07240 12565 /1104 10260 20190 39996 40122 58006 60006 82272 91500=
07240,1997-08-07 18:00:00,25,1012.3,-0,61,17,15000,7.408,,,90,18.7,26.1,,,,,,,,,wg-a,,,,AAXX 07184 07240 12665 /0904 10250 20170 39996 40123 55000 60006 82232 91800 333 10261 20187=
07240,1997-08-07 21:00:00,20,1014.3,1.8,88,18,15000,7.408,,,90,,,,,,,,,,,wg-a,,,,AAXX 07214 07240 12/65 60904 10200 20180 30014 40143 51018 60006 82032 92100=
07240,1997-08-08 00:00:00,17,1014.6,0.2,100,17,0,3.704,,,30,,,,,,,,,,,wg-a,,,,AAXX 08004 07240 12/// /0302 10170 20170 30016 40146 50002 60006 90000=
07240,1997-08-08 03:00:00,17,1015.4,0.7,100,17,15000,7.408,,,110,,,,,,,,,,,wg-a,,,,AAXX 08034 07240 12/65 41104 10170 20170 30023 40154 51007 60006 80002 90300=
07240,1997-08-08 06:00:00,18,1016.2,0.9,94,17,500,3.704,,,40,16.4,24.7,,,,,1,,,,wg-a,,,,AAXX 08064 07240 02/00 40402 10180 20170 30032 40162 53009 60006 80002 90600 333 10247 20164 60014=
07240,1997-08-08 09:00:00,25,1017.2,1.3,79,21,12000,3.704,,,150,,,,,,,,,,,wg-a,,,,AAXX 08094 07240 12462 31502 10250 20210 30045 40172 51013 60006 81102 90900=
07240,1997-08-08 12:00:00,28,1016.9,-0.2,55,18,20000,11.112,,,20,,,,,,,,,,,wg-a,,,,AAXX 08124 07240 12670 30206 10280 20180 30043 40169 58002 60006 82102 91200=
07240,1997-08-08 15:00:00,29,1015.9,-0.9,48,17,25000,11.112,,,70,,,,,,,,,,,wg-a,,,,AAXX 08154 07240 12775 /0706 10290 20170 30034 40159 56009 60006 81101 91500=
07240,1997-08-08 18:00:00,29,1016.1,0.1,48,17,25000,7.408,,,340,18,29.7,,,,,,,,,wg-a,,,,AAXX 08184 07240 12775 13404 10290 20170 30035 40161 53001 60006 81100 91800 333 10297 20180=
07240,1997-08-09 00:00:00,21,1018.3,0.8,73,16,20000,11.112,,,60,,,,,,,,,,,wg-a,,,,AAXX 09004 07240 12/70 30606 10210 20160 30054 40183 53008 60006 80001 90000=
07240,1997-08-09 06:00:00,19,1018.8,0.2,78,15,10000,14.816,,,70,18.6,28.5,,,,,,,,,wg-a,,,,AAXX 09064 07240 02/60 /0708 10190 20150 30058 40188 52002 60006 90600 333 10285 20186 60004=
07240,1997-08-09 09:00:00,26,1019,0.5,65,19,20000,14.816,,,90,,,,,,,,,,,wg-a,,,,AAXX 09094 07240 12/70 20908 10260 20190 30063 40190 50005 60006 80001 90900=
07240,1997-08-09 12:00:00,29,1018,-0.9,52,18,500,14.816,,,100,,,,,,,,,,,wg-a,,,,AAXX 09124 07240 12700 61008 10290 20180 30054 40180 58009 60006 81102 91200=
07240,1997-08-09 15:00:00,29,1017.1,-0.9,45,16,500,11.112,,,70,,,,,,,,,,,wg-a,,,,AAXX 09154 07240 12700 60706 10290 20160 30045 40171 58009 60006 81202 91500=
07240,1997-08-09 18:00:00,29,1016.1,-1,48,17,500,7.408,,,70,19.3,30.4,,,,,,,,,wg-a,,,,AAXX 09184 07240 12/00 40704 10290 20170 30035 40161 56010 60006 80002 91800 333 10304 20193=
07240,1997-08-09 21:00:00,23,1016.5,0.2,65,16,25000,11.112,,,40,,,,,,,,,,,wg-a,,,,AAXX 09214 07240 12/75 20406 10230 20160 30037 40165 52002 60006 80001 92100=
07240,1997-08-10 00:00:00,21,1016.6,0,69,15,25000,14.816,,,50,,,,,,,,,,,wg-a,,,,AAXX 10004 07240 12/75 00508 10210 20150 30037 40166 50000 60006 80000 90000=
07240,1997-08-10 03:00:00,19,1015.3,-1.4,83,16,15000,18.52,,,60,,,,,,,,,,,wg-a,,,,AAXX 10034 07240 12/65 00610 10190 20160 30023 40153 56014 60006 80000 90300=
07240,1997-08-10 06:00:00,19,1015.1,-0.2,88,17,15000,11.112,,,80,18.2,28.8,,,,,,,,,wg-a,,,,AAXX 10064 07240 02/65 20806 10190 20170 30021 40151 55002 60006 80002 90600 333 10288 20182 60004=
07240,1997-08-10 09:00:00,26,1014.1,-0.7,58,17,20000,22.224,,,100,,,,,,,,,,,wg-a,,,,AAXX 10094 07240 12/70 11012 10260 20170 30014 40141 58007 60006 80002 90900=
07240,1997-08-10 12:00:00,30,1012.6,-1.3,43,16,25000,22.224,,,100,,,,,,,,,,,wg-a,,,,AAXX 10124 07240 12/75 11012 10300 20160 30001 40126 56013 60006 80002 91200=
07240,1997-08-10 15:00:00,31,1010.6,-1.9,43,17,25000,22.224,,,110,,,,,,,,,,,wg-a,,,,AAXX 10154 07240 12/75 11112 10310 20170 39982 40106 58019 60006 81032 91500=
07240,1997-08-10 18:00:00,26,1010.5,-0.3,54,16,20000,25.928,,38.892,320,19.2,31.5,,,,,,,,,wg-a,,,,AAXX 10184 07240 12670 83214 10260 20160 39979 40105 55003 60006 8298/ 91800 333 10315 20192 91021=
07240,1997-08-10 21:00:00,20,1012.4,1.6,83,17,20000,18.52,,,50,,,,23,,,,,,29,wg-a,,,,AAXX 10214 07240 12670 /0510 10200 20170 39995 40124 50016 60237 72998 85900 92100=
07240,1997-08-11 00:00:00,21,1014.4,2,88,19,20000,22.224,,,150,,,,0,,,,,,81,wg-a,,,,AAXX 11004 07240 02670 81512 10210 20190 30015 40144 50020 60236 78198 8297/ 90000 333 60007=
07240,1997-08-11 03:00:00,21,1011.8,-2.5,88,19,10000,25.928,,,180,,,,,,,,,,,wg-a,,,,AAXX 11034 07240 32/60 /1814 10210 20190 39990 40118 55025 90300=
07240,1997-08-11 06:00:00,20,1013.7,1.8,94,19,15000,7.408,,,80,18.8,25.9,,,,,24,,,2,wg-a,,,,AAXX 11064 07240 02765 70804 10200 20190 30008 40137 51018 60006 70296 875// 90600 333 10259 20188 60244=
07240,1997-08-11 09:00:00,23,1014.2,0.6,83,20,12000,3.704,,,280,,,,,,,,,,,wg-a,,,,AAXX 11094 07240 12/62 72802 10230 20200 30014 40142 53006 60006 84082 90900=
07240,1997-08-11 12:00:00,26,1014.7,0.7,79,22,12000,3.704,,,290,,,,,,,,,,,wg-a,,,,AAXX 11124 07240 12462 82902 10260 20220 30021 40147 51007 60006 8318/ 91200=
07240,1997-08-11 15:00:00,28,1015.8,1.1,58,19,15000,7.408,,,40,,,,,,,,,,,wg-a,,,,AAXX 11154 07240 12665 70404 10280 20190 30032 40158 53011 60006 83132 91500=
07240,1997-08-11 18:00:00,26,1016.7,0.8,70,20,20000,18.52,,,310,19.8,28.1,,,,,,,,,wg-a,,,,AAXX 11184 07240 12/70 73110 10260 20200 30040 40167 53008 60006 8707/ 91800 333 10281 20198=
07240,1997-08-11 21:00:00,23,1018.5,1.7,83,20,15000,7.408,,,280,,,,,,,,,,,wg-a,,,,AAXX 11214 07240 12/65 52804 10230 20200 30057 40185 53017 60006 83032 92100=
07240,1997-08-12 00:00:00,21,1019.1,0.5,88,19,10000,11.112,,,330,,,,,,,,,,,wg-a,,,,AAXX 12004 07240 12660 /3306 10210 20190 30062 40191 52005 60006 81500 90000=
07240,1997-08-12 03:00:00,19,1019.9,0.7,94,18,8000,7.408,,,300,,,,,,,,,,,wg-a,,,,AAXX 12034 07240 12/58 03004 10190 20180 30069 40199 51007 60006 80000 90300=
07240,1997-08-12 06:00:00,19,1021,1.1,94,18,4500,7.408,,,360,18.5,25.9,,,,,,,,10,wg-a,,,,AAXX 12064 07240 02/45 33604 10190 20180 30080 40210 53011 60006 71000 82031 90600 333 10259 20185 60004=
07240,1997-08-12 09:00:00,25,1021.1,0.3,69,19,12000,3.704,,,310,,,,,,,,,,,wg-a,,,,AAXX 12094 07240 12/62 23102 10250 20190 30083 40211 50003 60006 80001 90900=
07240,1997-08-12 12:00:00,29,1020.5,-0.4,58,20,15000,7.408,,,280,,,,,,,,,,,wg-a,,,,AAXX 12124 07240 12665 32804 10290 20200 30079 40205 58004 60006 83100 91200=
07240,1997-08-12 15:00:00,30,1019.5,-1,49,18,20000,7.408,,,100,,,,,,,,,,,wg-a,,,,AAXX 12154 07240 12670 /1004 10300 20180 30069 40195 58010 60006 85200 91500=
07240,1997-08-12 18:00:00,28,1018.8,-0.7,66,21,20000,0,,,0,18.9,30.2,,,,,,,,,wg-a,,,,AAXX 12184 07240 12670 60000 10280 20210 30062 40188 56007 60006 84232 91800 333 10302 20189=
07240,1997-08-12 21:00:00,24,1019.9,0.9,78,20,10000,3.704,,,360,,,,,,,,,,,wg-a,,,,AAXX 12214 07240 12/60 33602 10240 20200 30071 40199 51009 60006 82032 92100=
07240,1997-08-13 00:00:00,21,1020.1,0.1,94,20,10000,3.704,,,280,,,,,,,,,,,wg-a,,,,AAXX 13004 07240 12/60 02802 10210 20200 30072 40201 53001 60006 80000 90000=
07240,1997-08-13 03:00:00,20,1020.7,0.5,88,18,10000,18.52,,,300,,,,,,,,,,,wg-a,,,,AAXX 13034 07240 12/60 03010 10200 20180 30077 40207 51005 60006 80000 90300=
07240,1997-08-13 06:00:00,19,1022.2,1.5,94,18,10000,7.408,,,330,18.4,28,,,,,,,,,wg-a,,,,AAXX 13064 07240 02/60 03304 10190 20180 30092 40222 53015 60006 80000 90600 333 10280 20184 60004=
07240,1997-08-13 09:00:00,25,1022.6,0.6,69,19,10000,7.408,,,320,,,,,,,,,,,wg-a,,,,AAXX 13094 07240 12/60 /3204 10250 20190 30098 40226 51006 60006 90900=
07240,1997-08-13 12:00:00,28,1022.9,0.4,48,16,20000,14.816,,,310,,,,,,,,,,,wg-a,,,,AAXX 13124 07240 12/70 33108 10280 20160 30102 40229 52004 60006 81031 91200=
07240,1997-08-13 18:00:00,26,1023.1,0,58,17,20000,11.112,,,290,19.2,28.3,,,,,,,,,wg-a,,,,AAXX 13184 07240 12/70 22906 10260 20170 30103 40231 50000 60006 80001 91800 333 10283 20192=
07240,1997-08-13 21:00:00,22,1024.1,0.8,73,17,20000,7.408,,,350,,,,,,,,,,,wg-a,,,,AAXX 13214 07240 12/70 33504 10220 20170 30111 40241 51008 60006 80001 92100=
07240,1997-08-14 00:00:00,20,1024.5,0.3,83,17,10000,11.112,,,60,,,,,,,,,,,wg-a,,,,AAXX 14004 07240 12/60 /0606 10200 20170 30114 40245 52003 60006 90000=
07240,1997-08-14 03:00:00,18,1024.3,-0.2,88,16,20000,7.408,,,50,,,,,,,,,,,wg-a,,,,AAXX 14034 07240 12/70 10504 10180 20160 30112 40243 58002 60006 80001 90300=
07240,1997-08-14 06:00:00,18,1024.6,0.3,88,16,13000,11.112,,,70,17.7,26.3,,,,,,,,,wg-a,,,,AAXX 14064 07240 02/63 30706 10180 20160 30115 40246 53003 60006 81031 90600 333 10263 20177 60004=
07240,1997-08-14 09:00:00,23,1024.3,-0.1,69,17,25000,14.816,,,80,,,,,,,,,,,wg-a,,,,AAXX 14094 07240 12/75 20808 10230 20170 30114 40243 58001 60006 80001 90900=
07240,1997-08-14 12:00:00,27,1022.4,-1.7,54,17,500,11.112,,,90,,,,,,,,,,,wg-a,,,,AAXX 14124 07240 12/00 20906 10270 20170 30097 40224 58017 60006 80001 91200=
07240,1997-08-14 15:00:00,29,1021,-1.3,45,16,500,7.408,,,140,,,,,,,,,,,wg-a,,,,AAXX 14154 07240 12600 31404 10290 20160 30084 40210 56013 60006 83101 91500=
07240,1997-08-14 18:00:00,27,1020.3,-0.8,51,16,500,11.112,,,350,18.4,29.1,,,,,,,,,wg-a,,,,AAXX 14184 07240 12700 13506 10270 20160 30076 40203 56008 60006 81100 91800 333 10291 20184=
07240,1997-08-14 21:00:00,23,1021.2,0.7,65,16,500,11.112,,,30,,,,,,,,,,,wg-a,,,,AAXX 14214 07240 12/00 00306 10230 20160 30083 40212 51007 60006 80000 92100=
07240,1997-08-15 00:00:00,21,1021.1,-0.2,69,15,25000,18.52,,,60,,,,,,,,,,,wg-a,,,,AAXX 15004 07240 12/75 30610 10210 20150 30081 40211 57002 60006 80001 90000=
07240,1997-08-15 06:00:00,19,1020.5,0.1,78,15,15000,11.112,,,70,18.1,27.2,,,,,,,,1,wg-a,,,,AAXX 15064 07240 02565 /0706 10190 20150 30074 40205 52001 60006 70191 82992 90600 333 10272 20181 60004=
07240,1997-08-15 09:00:00,22,1021,0.7,73,17,20000,11.112,,,80,,,,,,,,,,,wg-a,,,,AAXX 15094 07240 12670 70806 10220 20170 30081 40210 52007 60006 83992 90900=
07240,1997-08-15 12:00:00,25,1020.7,-0.2,69,19,20000,11.112,,,90,,,,,,,,,,,wg-a,,,,AAXX 15124 07240 12670 70906 10250 20190 30079 40207 58002 60006 8292/ 91200=
07240,1997-08-15 15:00:00,26,1019.1,-1.5,70,20,25000,14.816,,,80,,,,,,,,,,,wg-a,,,,AAXX 15154 07240 12775 70808 10260 20200 30064 40191 58015 60006 81222 91500=
07240,1997-08-15 18:00:00,24,1018.9,-0.3,74,19,25000,11.112,,,80,18.6,27.2,,,,,,,,,wg-a,,,,AAXX 15184 07240 12775 70806 10240 20190 30061 40189 58003 60006 82983 91800 333 10272 20186=
07240,1997-08-15 21:00:00,22,1018.9,-0.1,73,17,10000,11.112,,,80,,,,,,,,,,,wg-a,,,,AAXX 15214 07240 12/60 /0806 10220 20170 30060 40189 55001 60006 92100=
07240,1997-08-16 00:00:00,21,1018.8,-0.1,78,17,25000,11.112,,,100,,,,,,,,,,,wg-a,,,,AAXX 16004 07240 12775 71006 10210 20170 30059 40188 58001 60006 875// 90000=
07240,1997-08-16 03:00:00,19,1018.2,-0.7,83,16,15000,11.112,,,90,,,,,,,,,,,wg-a,,,,AAXX 16034 07240 12765 60906 10190 20160 30052 40182 56007 60006 86500 90300=
07240,1997-08-16 06:00:00,19,1017.7,-0.5,83,16,20000,11.112,,,80,18.4,24.3,,,,,,,,,wg-a,,,,AAXX 16064 07240 02/70 60806 10190 20160 30047 40177 55005 60006 86080 90600 333 10243 20184 60004=
07240,1997-08-16 09:00:00,24,1018,0.5,61,16,20000,11.112,,,100,,,,,,,,,,,wg-a,,,,AAXX 16094 07240 12/70 31006 10240 20160 30052 40180 50005 60006 83080 90900=
07240,1997-08-16 12:00:00,27,1017.7,-0.2,51,16,25000,14.816,,,120,,,,,,,,,,,wg-a,,,,AAXX 16124 07240 12/75 61208 10270 20160 30050 40177 58002 60006 86080 91200=
07240,1997-08-16 15:00:00,24,1017.4,-0.4,74,19,25000,7.408,,,250,,,,,,,,,,,wg-a,,,,AAXX 16154 07240 12775 /2504 10240 20190 30046 40174 58004 60006 82980 91500=
07240,1997-08-16 18:00:00,24,1016.9,-0.5,65,17,25000,11.112,,,230,19.4,27.9,,,,,,,,,wg-a,,,,AAXX 16184 07240 12775 32306 10240 20170 30041 40169 56005 60006 81982 91800 333 10279 20194=
07240,1997-08-16 21:00:00,21,1018,1,88,19,15000,11.112,,,210,,,,,,,,,,,wg-a,,,,AAXX 16214 07240 12/65 02106 10210 20190 30051 40180 52010 60006 80000 92100=
07240,1997-08-17 00:00:00,18,1018.3,0.2,94,17,10000,0,,,0,,,,,,,,,,,wg-a,,,,AAXX 17004 07240 12/60 00000 10180 20170 30053 40183 51002 60006 80000 90000=
07240,1997-08-17 03:00:00,17,1018,-0.4,100,17,500,0,,,0,,,,,,,,,,41,wg-a,,,,AAXX 17034 07240 12205 20000 10170 20170 30049 40180 57004 60006 74140 82600 90300=
07240,1997-08-17 06:00:00,18,1018.5,0.6,100,18,100,7.408,,,260,16.8,24.3,,,,,,,,45,wg-a,,,,AAXX 17064 07240 02/01 92604 10180 20180 30055 40185 53006 60006 74541 89/// 90600 333 10243 20168 60004=
07240,1997-08-17 09:00:00,19,1019.3,0.8,94,18,3500,7.408,,,220,,,,,,,,,,10,wg-a,,,,AAXX 17094 07240 12235 82204 10190 20180 30063 40193 52008 60006 71042 886// 90900=
07240,1997-08-17 12:00:00,24,1018.5,-0.6,74,19,8000,7.408,,,280,,,,,,,,,,,wg-a,,,,AAXX 17124 07240 12/58 /2804 10240 20190 30057 40185 58006 60006 91200=
07240,1997-08-17 15:00:00,26,1017.2,-1.2,58,17,15000,7.408,,,240,,,,,,,,,,,wg-a,,,,AAXX 17154 07240 12565 /2404 10260 20170 30045 40172 58012 60006 83132 91500=
07240,1997-08-17 18:00:00,25,1017.1,-0.1,69,19,15000,11.112,,,280,18.3,26.9,,,,,,,,,wg-a,,,,AAXX 17184 07240 12/65 42806 10250 20190 30044 40171 58001 60006 82032 91800 333 10269 20183=
07240,1997-08-17 21:00:00,21,1018.4,1.1,88,19,10000,3.704,,,350,,,,,,,,,,,wg-a,,,,AAXX 17214 07240 12/60 33502 10210 20190 30055 40184 51011 60006 82032 92100=
07240,1997-08-18 00:00:00,19,1018.2,-0.3,94,18,10000,3.704,,,310,,,,,,,,,,,wg-a,,,,AAXX 18004 07240 12/60 /3102 10190 20180 30052 40182 58003 60006 90000=
07240,1997-08-18 03:00:00,17,1018,-0.3,100,17,10000,0,,,0,,,,,,,,,,,wg-a,,,,AAXX 18034 07240 12/60 00000 10170 20170 30049 40180 57003 60006 80000 90300=
07240,1997-08-18 06:00:00,17,1017.9,-0.1,94,16,3000,3.704,,,120,16.1,24.7,,,,,,,,10,wg-a,,,,AAXX 18064 07240 02/30 /1202 10170 20160 30048 40179 55001 60006 71000 81012 90600 333 10247 20161 60004=
07240,1997-08-18 09:00:00,24,1018.1,0.5,74,19,12000,3.704,,,140,,,,,,,,,,,wg-a,,,,AAXX 18094 07240 12/62 11402 10240 20190 30053 40181 53005 60006 80001 90900=
07240,1997-08-18 12:00:00,28,1017.6,-0.3,51,17,20000,3.704,,,200,,,,,,,,,,,wg-a,,,,AAXX 18124 07240 12670 22002 10280 20170 30050 40176 58003 60006 82200 91200=
07240,1997-08-18 15:00:00,29,1016.4,-1.2,52,18,20000,7.408,,,300,,,,,,,,,,,wg-a,,,,AAXX 18154 07240 12670 23004 10290 20180 30038 40164 58012 60006 82200 91500=
07240,1997-08-18 18:00:00,26,1016.7,0.2,58,17,20000,11.112,,,10,17,29.5,,,,,,,,,wg-a,,,,AAXX 18184 07240 12670 /0106 10260 20170 30040 40167 53002 60006 84201 91800 333 10295 20170=
07240,1997-08-18 21:00:00,20,1017.3,0.4,83,17,20000,7.408,,,360,,,,,,,,,,,wg-a,,,,AAXX 18214 07240 12/70 43604 10200 20170 30044 40173 53004 60006 80001 92100=
07240,1997-08-19 00:00:00,18,1017.4,0,88,16,20000,3.704,,,40,,,,,,,,,,,wg-a,,,,AAXX 19004 07240 12/70 20402 10180 20160 30044 40174 50000 60006 80001 90000=
07240,1997-08-19 06:00:00,17,1016.8,-0,94,16,12000,0,,,0,16.5,26.1,,,,,,,,,wg-a,,,,AAXX 19064 07240 02762 70000 10170 20160 30037 40168 55000 60006 82532 90600 333 10261 20165 60004=
07240,1997-08-19 09:00:00,24,1017,0.5,65,17,15000,3.704,,,150,,,,,,,,,,,wg-a,,,,AAXX 19094 07240 12565 71502 10240 20170 30042 40170 53005 60006 858/1 90900=
07240,1997-08-19 12:00:00,28,1016.4,-0.4,45,15,20000,3.704,,,140,,,,,,,,,,,wg-a,,,,AAXX 19124 07240 12670 71402 10280 20150 30038 40164 57004 60006 85801 91200=
07240,1997-08-19 15:00:00,29,1015.2,-1.2,45,16,25000,7.408,,,70,,,,,,,,,,,wg-a,,,,AAXX 19154 07240 12675 /0704 10290 20160 30026 40152 57012 60006 82831 91500=
07240,1997-08-19 18:00:00,24,1016,0.6,61,16,25000,18.52,,,220,17.4,29.3,,,,,,,,,wg-a,,,,AAXX 19184 07240 12675 62210 10240 20160 30032 40160 53006 60006 83931 91800 333 10293 20174=
07240,1997-08-19 21:00:00,20,1016.7,0.6,83,17,10000,3.704,,,30,,,,,,,,,,,wg-a,,,,AAXX 19214 07240 12/60 /0302 10200 20170 30038 40167 51006 60006 92100=
07240,1997-08-20 00:00:00,19,1016.6,-0.2,88,17,15000,3.704,,,180,,,,,,,,,,,wg-a,,,,AAXX 20004 07240 12/65 31802 10190 20170 30036 40166 58002 60006 80001 90000=
07240,1997-08-20 03:00:00,17,1016.6,-0.1,94,16,15000,0,,,0,,,,,,,,,,,wg-a,,,,AAXX 20034 07240 12/65 70000 10170 20160 30035 40166 58001 60006 84031 90300=
07240,1997-08-20 06:00:00,18,1017.3,0.7,94,17,10000,0,,,0,16.9,24.3,,,,,,,,,wg-a,,,,AAXX 20064 07240 02/60 70000 10180 20170 30042 40173 53007 60006 85031 90600 333 10243 20169 60004=
07240,1997-08-20 09:00:00,22,1017.8,0.7,73,17,20000,0,,,0,,,,,,,,,,,wg-a,,,,AAXX 20094 07240 12/70 70000 10220 20170 30049 40178 53007 60006 8703/ 90900=
07240,1997-08-20 12:00:00,28,1017.2,-0.3,51,17,25000,7.408,,,150,,,,,,,,,,,wg-a,,,,AAXX 20124 07240 12/75 31504 10280 20170 30046 40172 58003 60006 83030 91200=
07240,1997-08-20 15:00:00,30,1016.3,-0.8,40,15,25000,7.408,,,120,,,,,,,,,,,wg-a,,,,AAXX 20154 07240 12/75 31204 10300 20150 30038 40163 56008 60006 83030 91500=
07240,1997-08-20 18:00:00,27,1016.2,-0.2,51,16,25000,7.408,,,110,17.8,29.9,,,,,,,,,wg-a,,,,AAXX 20184 07240 12/75 31104 10270 20160 30036 40162 55002 60006 82081 91800 333 10299 20178=
07240,1997-08-20 21:00:00,21,1017.3,0.8,78,17,25000,11.112,,,90,,,,,,,,,,,wg-a,,,,AAXX 20214 07240 12/75 20906 10210 20170 30044 40173 50008 60006 80001 92100=
07240,1997-08-21 00:00:00,20,1018,0.6,78,16,10000,0,,,0,,,,,,,,,,,wg-a,,,,AAXX 21004 07240 12/60 /0000 10200 20160 30050 40180 51006 60006 90000=
07240,1997-08-21 03:00:00,17,1018.4,0.3,88,15,10000,3.704,,,10,,,,,,,,,,,wg-a,,,,AAXX 21034 07240 12/60 /0102 10170 20150 30053 40184 53003 60006 90300=
07240,1997-08-21 06:00:00,18,1018.4,0,88,16,7000,11.112,,,100,16.2,27.4,,,,,,,,,wg-a,,,,AAXX 21064 07240 02/57 21006 10180 20160 30053 40184 50000 60006 80001 90600 333 10274 20162 60004=
07240,1997-08-21 07:00:00,18,1018.4,0,94,17,7000,11.112,,,100,16.2,27.4,,,,,,,,0,wg-a,,,,AAXX 21074 07240 32/57 21006 10180 20170 30053 40184 50000 700// 80001 90700 333 10274 20162=
07240,1997-08-21 08:00:00,18,1018.4,0,88,16,7000,11.112,,,100,16.2,27.4,,,,,,,,,wg-a,,,,AAXX 21084 07240 02/57 21006 10180 20160 30053 40184 50000 60006 80001 90800 333 10274 20162 60004=
07240,1997-08-21 09:00:00,25,1019.4,1.3,61,17,15000,11.112,,,170,,,,,,,,,,,wg-a,,,,AAXX 21094 07240 12/65 31706 10250 20170 30066 40194 52013 60006 80001 90900=
07240,1997-08-21 12:00:00,30,1018.2,-0.9,46,17,20000,3.704,,,130,,,,,,,,,,,wg-a,,,,AAXX 21124 07240 12/70 61302 10300 20170 30057 40182 58009 60006 80001 91200=
07240,1997-08-21 18:00:00,29,1017.8,0.1,52,18,20000,7.408,,,290,17.5,31.3,,,,,,,,,wg-a,,,,AAXX 21184 07240 12/70 32904 10290 20180 30052 40178 53001 60006 80002 91800 333 10313 20175=
07240,1997-08-22 00:00:00,21,1020.1,0.8,83,18,20000,7.408,,,350,,,,,,,,,,,wg-a,,,,AAXX 22004 07240 12/70 23504 10210 20180 30072 40201 52008 60006 80001 90000=
07240,1997-08-22 06:00:00,18,1021.2,0.9,94,17,8000,3.704,,,350,18.1,28.7,,,,,,,,,wg-a,,,,AAXX 22064 07240 02/58 33502 10180 20170 30081 40212 53009 60006 81031 90600 333 10287 20181 60004=
07240,1997-08-22 09:00:00,25,1021.3,0.4,69,19,12000,3.704,,,90,,,,,,,,,,,wg-a,,,,AAXX 22094 07240 12/62 20902 10250 20190 30085 40213 51004 60006 81031 90900=
07240,1997-08-22 12:00:00,30,1020.1,-1,55,20,25000,3.704,,,280,,,,,,,,,,,wg-a,,,,AAXX 22124 07240 12675 32802 10300 20200 30075 40201 58010 60006 82131 91200=
07240,1997-08-22 15:00:00,30,1018.9,-1.1,46,17,25000,3.704,,,150,,,,,,,,,,,wg-a,,,,AAXX 22154 07240 12775 31502 10300 20170 30064 40189 58011 60006 83130 91500=
07240,1997-08-22 18:00:00,29,1018.2,-0.8,52,18,25000,7.408,,,20,18.3,30.9,,,,,,,,,wg-a,,,,AAXX 22184 07240 12/75 10204 10290 20180 30056 40182 56008 60006 81030 91800 333 10309 20183=
07240,1997-08-22 21:00:00,24,1018.8,0.4,78,20,15000,3.704,,,350,,,,,,,,,,,wg-a,,,,AAXX 22214 07240 12/65 13502 10240 20200 30060 40188 51004 60006 81030 92100=
07240,1997-08-23 00:00:00,23,1017.9,-0.9,73,18,15000,7.408,,,40,,,,,,,,,,,wg-a,,,,AAXX 23004 07240 12/65 00404 10230 20180 30051 40179 58009 60006 80000 90000=
07240,1997-08-23 03:00:00,20,1017.3,-0.8,83,17,10000,3.704,,,70,,,,,,,,,,,wg-a,,,,AAXX 23034 07240 12/60 00702 10200 20170 30043 40173 56008 60006 80000 90300=
07240,1997-08-23 06:00:00,19,1017.3,-0,88,17,10000,3.704,,,100,18.4,29,,,,,,,,,wg-a,,,,AAXX 23064 07240 02/60 11002 10190 20170 30043 40173 55000 60006 81030 90600 333 10290 20184 60004=
07240,1997-08-23 09:00:00,27,1016.8,-0.1,66,20,10000,7.408,,,190,,,,,,,,,,,wg-a,,,,AAXX 23094 07240 12/60 /1904 10270 20200 30042 40168 56001 60006 90900=
07240,1997-08-23 12:00:00,31,1015.7,-1,46,18,15000,11.112,,,230,,,,,,,,,,,wg-a,,,,AAXX 23124 07240 12765 22306 10310 20180 30032 40157 58010 60006 82100 91200=
07240,1997-08-23 15:00:00,31,1014.2,-1.4,49,19,15000,11.112,,,280,,,,,,,,,,,wg-a,,,,AAXX 23154 07240 12765 22806 10310 20190 30018 40142 57014 60006 82100 91500=
07240,1997-08-23 18:00:00,29,1013.7,-0.6,55,19,20000,11.112,,,310,18.7,32.5,,,,,,,,,wg-a,,,,AAXX 23184 07240 12770 13106 10290 20190 30012 40137 57006 60006 81100 91800 333 10325 20187=
07240,1997-08-23 21:00:00,23,1014.5,0.5,78,19,20000,3.704,,,350,,,,,,,,,,,wg-a,,,,AAXX 23214 07240 12/70 03502 10230 20190 30017 40145 51005 60006 80000 92100=
07240,1997-08-24 00:00:00,20,1014.3,-0.3,88,18,20000,3.704,,,310,,,,,,,,,,,wg-a,,,,AAXX 24004 07240 12/70 03102 10200 20180 30014 40143 58003 60006 80000 90000=
07240,1997-08-24 03:00:00,19,1014,-0.3,94,18,15000,3.704,,,170,,,,,,,,,,,wg-a,,,,AAXX 24034 07240 12/65 01702 10190 20180 30011 40140 57003 60006 80000 90300=
07240,1997-08-24 06:00:00,18,1014.4,0.3,94,17,12000,3.704,,,50,17.7,29,,,,,,,,,wg-a,,,,AAXX 24064 07240 02/62 00502 10180 20170 30014 40144 52003 60006 80000 90600 333 10290 20177 60004=
07240,1997-08-24 12:00:00,31,1012.8,-0.9,49,19,18000,18.52,,,210,,,,,,,,,,,wg-a,,,,AAXX 24124 07240 12768 12110 10310 20190 30004 40128 58009 60006 81100 91200=
07240,1997-08-24 15:00:00,31,1011.4,-1.4,46,18,25000,14.816,,,190,,,,,,,,,,,wg-a,,,,AAXX 24154 07240 12775 41908 10310 20180 39990 40114 57014 60006 83250 91500=
07240,1997-08-24 18:00:00,22,1011.1,-0.7,78,18,15000,7.408,,,260,18.3,32.7,,,,,,,,17,wg-a,,,,AAXX 24184 07240 12765 62604 10220 20180 39983 40111 55007 60006 71791 83363 91800 333 10327 20183=
07240,1997-08-24 21:00:00,22,1010.3,-0.8,83,19,15000,7.408,,,100,,,,1,,,,,,1,wg-a,,,,AAXX 24214 07240 12765 51004 10220 20190 39975 40103 57008 60017 70196 85500 92100=
07240,1997-08-25 00:00:00,20,1010,-0.4,88,18,10000,7.408,,,40,,,,,,,,,,1,wg-a,,,,AAXX 25004 07240 12860 10404 10200 20180 39971 40100 58004 60016 70196 81500 90000=
07240,1997-08-25 06:00:00,21,1007.6,-0.6,78,17,20000,11.112,,,170,18.8,24.9,,,,,1,,,,wg-a,,,,AAXX 25064 07240 02/70 71706 10210 20170 39948 40076 58006 60006 84082 90600 333 10249 20188 60014=
07240,1997-08-25 09:00:00,24,1008.5,1,61,16,25000,14.816,,,230,,,,,,,,,,,wg-a,,,,AAXX 25094 07240 12/75 72308 10240 20160 39958 40085 53010 60006 82032 90900=
07240,1997-08-25 12:00:00,24,1009.4,0.9,74,19,25000,18.52,,,270,,,,,,,,,,,wg-a,,,,AAXX 25124 07240 12575 72710 10240 20190 39967 40094 53009 60006 878// 91200=
07240,1997-08-25 15:00:00,23,1009.9,0.5,69,17,25000,14.816,,,300,,,,,,,,,,,wg-a,,,,AAXX 25154 07240 12575 73008 10230 20170 39972 40099 50005 60006 8783/ 91500=
07240,1997-08-25 18:00:00,21,1011,1,78,17,500,14.816,,,290,20.3,25.6,,,,,,,,,wg-a,,,,AAXX 25184 07240 12500 82908 10210 20170 39982 40110 53010 60006 8387/ 91800 333 10256 20203=
07240,1997-08-26 00:00:00,18,1012.7,0.6,88,16,20000,11.112,,,340,,,,,,,,,,,wg-a,,,,AAXX 26004 07240 12/70 73406 10180 20160 39997 40127 51006 60006 8705/ 90000=
07240,1997-08-26 03:00:00,15,1012.7,-0.1,88,13,20000,7.408,,,340,,,,,,,,,,,wg-a,,,,AAXX 26034 07240 12770 63404 10150 20130 39996 40127 58001 60006 86500 90300=
07240,1997-08-26 06:00:00,15,1013.3,0.5,94,14,20000,7.408,,,340,14.4,20.8,,,,,,,,,wg-a,,,,AAXX 26064 07240 02470 73404 10150 20140 30001 40133 52005 60006 875// 90600 333 10208 20144 60004=
07240,1997-08-26 09:00:00,20,1013.3,0.3,68,14,20000,7.408,,,70,,,,,,,,,,,wg-a,,,,AAXX 26094 07240 12/70 40704 10200 20140 30004 40133 53003 60006 83032 90900=
07240,1997-08-26 12:00:00,23,1012,-1.2,47,11,20000,3.704,,,340,,,,,,,,,,,wg-a,,,,AAXX 26124 07240 12670 73402 10230 20110 39992 40120 58012 60006 81132 91200=
07240,1997-08-26 15:00:00,24,1010,-1.9,41,10,11000,7.408,,,90,,,,,,,,,,,wg-a,,,,AAXX 26154 07240 12/61 /0904 10240 20100 39973 40100 56019 60006 91500=
07240,1997-08-26 18:00:00,22,1008.5,-1.6,57,13,20000,11.112,,,100,14.7,24.9,,,,,,,,,wg-a,,,,AAXX 26184 07240 12770 71006 10220 20130 39957 40085 58016 60006 87831 91800 333 10249 20147=
07240,1997-08-26 21:00:00,20,1008.3,-0.3,68,14,20000,14.816,,,230,,,,,,,,,,,wg-a,,,,AAXX 26214 07240 12770 52308 10200 20140 39954 40083 58003 60006 85500 92100=
07240,1997-08-27 00:00:00,18,1007.3,-1,73,13,20000,7.408,,,190,,,,,,,,,,,wg-a,,,,AAXX 27004 07240 12770 71904 10180 20130 39944 40073 58010 60006 875// 90000=
07240,1997-08-27 06:00:00,17,1004.5,-1.2,82,14,20000,11.112,,,150,16.1,22,,,,,,,,,wg-a,,,,AAXX 27064 07240 02670 71506 10170 20140 39916 40045 57012 60006 8457/ 90600 333 10220 20161 60004=
07240,1997-08-27 09:00:00,20,1003.3,-1.1,83,17,11000,18.52,,,180,,,,,,,,,,,wg-a,,,,AAXX 27094 07240 32/61 /1810 10200 20170 39905 40033 56011 90900=
07240,1997-08-27 12:00:00,23,1003,-0.2,61,15,18000,29.632,,,220,,,,,,,,,,1,wg-a,,,,AAXX 27124 07240 12568 72216 10230 20150 39903 40030 57002 60006 70162 8487/ 91200=
07240,1997-08-27 15:00:00,21,1002.9,-0.1,73,16,20000,29.632,,,240,,,,,,,,,,1,wg-a,,,,AAXX 27154 07240 02570 72416 10210 20160 39902 40029 56001 61000 70186 8327/ 91500 333 ////=
07240,1997-08-27 18:00:00,18,1002.7,-0.4,88,16,15000,22.224,,,190,16.8,23.6,,,,,,,,25,wg-a,,,,AAXX 27184 07240 02665 71912 10180 20160 39898 40027 58004 61000 72598 8487/ 91800 333 10236 20168 6000=
07240,1997-08-27 21:00:00,18,1002.7,0,88,16,10000,18.52,,,200,,,,,,,,,,,wg-a,,,,AAXX 27214 07240 12760 62010 10180 20160 39898 40027 50000 60006 82570 92100=
07240,1997-08-28 00:00:00,16,1001.9,-0.8,94,15,10000,14.816,,,210,,,,4,,,,,,21,wg-a,,,,AAXX 28004 07240 02360 72108 10160 20150 39890 40019 57008 60046 72162 84770 90000 333 60047=
07240,1997-08-28 06:00:00,14,1002,-0.1,94,13,12000,22.224,,,200,14.3,18,,,,,,,,21,wg-a,,,,AAXX 28064 07240 02462 /2012 10140 20130 39890 40020 55001 61000 72162 84772 90600 333 10180 20143 6016=
07240,1997-08-28 09:00:00,18,1003.6,1.7,68,12,20000,25.928,,,240,,,,,,,,,,,wg-a,,,,AAXX 28094 07240 12570 /2414 10180 20120 39907 40036 51017 60006 86100 90900=
07240,1997-08-28 12:00:00,20,1004.3,0.8,53,10,20000,31.484,,,250,,,,,,,,,,,wg-a,,,,AAXX 28124 07240 12570 /2517 10200 20100 39915 40043 51008 60006 84902 91200=
07240,1997-08-28 18:00:00,17,1007.8,1.7,77,13,18000,18.52,,,240,14.2,21.3,,,,,,,,1,wg-a,,,,AAXX 28184 07240 12668 72410 10170 20130 39948 40078 51017 60006 70186 83232 91800 333 10213 20142=
07240,1997-08-28 21:00:00,15,1010.7,2.8,72,10,20000,25.928,,,240,,,,,,,,,,,wg-a,,,,AAXX 28214 07240 12/70 52414 10150 20100 39976 40107 51028 60006 80001 92100=
07240,1997-08-29 00:00:00,14,1013.1,2.3,82,11,20000,18.52,,,240,,,,,,,,,,25,wg-a,,,,AAXX 29004 07240 02670 42410 10140 20110 39999 40131 51023 61000 72586 81530 90000 333 6100=
07240,1997-08-29 03:00:00,14,1013.9,0.8,82,11,15000,18.52,,,230,,,,,,,,,,,wg-a,,,,AAXX 29034 07240 12765 72310 10140 20110 30007 40139 51008 60006 875// 90300=
07240,1997-08-29 06:00:00,14,1015.7,1.8,82,11,15000,18.52,,,220,13.2,17.4,,,,,,,,,wg-a,,,,AAXX 29064 07240 02665 /2210 10140 20110 30025 40157 53018 60006 85530 90600 333 10174 20132 61000=
07240,1997-08-29 09:00:00,18,1017.1,1.5,64,11,500,22.224,,,250,,,,,,,,,,,wg-a,,,,AAXX 29094 07240 12500 52512 10180 20110 30040 40171 52015 60006 84231 90900=
07240,1997-08-29 12:00:00,20,1017.1,0.1,64,13,500,18.52,,,240,,,,0,,,,,,1,wg-a,,,,AAXX 29124 07240 02500 /2410 10200 20130 30041 40171 50001 60006 70161 84234 91200 333 60007=
07240,1997-08-29 15:00:00,22,1016.6,-0.4,50,11,500,25.928,,,230,,,,,,,,,,,wg-a,,,,AAXX 29154 07240 12600 52314 10220 20110 30037 40166 55004 60006 84201 91500=
07240,1997-08-29 18:00:00,17,1017.4,0.6,82,14,500,14.816,,,260,13.7,23.1,,,,,,,,21,wg-a,,,,AAXX 29184 07240 02700 72608 10170 20140 30043 40174 53006 61000 72162 8523/ 91800 333 10231 20137 6000=
07240,1997-08-30 00:00:00,16,1016.1,-1.4,94,15,10000,22.224,,,180,,,,1,,,,,,61,wg-a,,,,AAXX 30004 07240 02760 71812 10160 20150 30030 40161 58014 60016 76162 8557/ 90000 333 60017=
07240,1997-08-30 03:00:00,16,1014.2,-1.9,100,16,500,29.632,,,220,,,,9,,,,,,51,wg-a,,,,AAXX 30034 07240 12200 82216 10160 20160 30011 40142 56019 60097 75166 885// 90300=
07240,1997-08-30 06:00:00,18,1014.7,0.6,94,17,20000,29.632,,,230,15.9,17.9,,,,,,,,20,wg-a,,,,AAXX 30064 07240 02370 82316 10180 20170 30017 40147 53006 61000 72065 877// 90600 333 10179 20159 6012=
07240,1997-08-30 09:00:00,19,1016.1,1.4,88,17,20000,29.632,,,230,,,,,,,,,,,wg-a,,,,AAXX 30094 07240 12470 82316 10190 20170 30031 40161 51014 60006 885// 90900=
07240,1997-08-30 12:00:00,21,1016.9,0.9,83,18,20000,25.928,,,240,,,,,,,,,,,wg-a,,,,AAXX 30124 07240 12470 82414 10210 20180 30040 40169 53009 60006 885// 91200=
07240,1997-08-30 15:00:00,22,1017.8,0.9,78,18,20000,22.224,,,240,,,,,,,,,,2,wg-a,,,,AAXX 30154 07240 02470 72412 10220 20180 30049 40178 51009 61000 70265 878// 91500 333 ////=
07240,1997-08-30 18:00:00,21,1017.5,-0.3,78,17,20000,11.112,,,220,17.9,22,,,,,,,,3,wg-a,,,,AAXX 30184 07240 12470 72206 10210 20170 30046 40175 58003 60006 70365 878// 91800 333 10220 20179=
07240,1997-08-30 21:00:00,18,1017.6,-0.1,88,16,15000,7.408,,,130,,,,,,,,,,,wg-a,,,,AAXX 30214 07240 12/65 51304 10180 20160 30045 40176 58001 60006 80001 92100=
07240,1997-08-31 00:00:00,16,1016.5,-1.1,94,15,15000,11.112,,,100,,,,,,,,,,,wg-a,,,,AAXX 31004 07240 12865 21006 10160 20150 30034 40165 58011 60006 81501 90000=
07240,1997-08-31 03:00:00,16,1015.2,-1.3,94,15,12000,11.112,,,100,,,,0,,,,,,,wg-a,,,,AAXX 31034 07240 12862 21006 10160 20150 30021 40152 58013 60007 815/1 90300=
07240,1997-08-31 06:00:00,16,1013.9,-1.3,94,15,15000,11.112,,,110,15.1,20.8,,,,,,,,,wg-a,,,,AAXX 31064 07240 02/65 51106 10160 20150 30008 40139 56013 60006 83031 90600 333 10208 20151 60004=
07240,1997-08-31 12:00:00,28,1012.3,-0.3,51,17,500,22.224,,,220,,,,,,,,,,,wg-a,,,,AAXX 31124 07240 12/00 22212 10280 20170 39997 40123 55003 60006 80001 91200=
07240,1997-08-31 15:00:00,28,1012.8,0.5,48,16,500,22.224,,,240,,,,,,,,,,,wg-a,,,,AAXX 31154 07240 12700 52412 10280 20160 30002 40128 53005 60006 82201 91500=
07240,1997-08-31 18:00:00,24,1014.2,1.2,57,15,500,22.224,,,250,15.7,28.7,,,,,,,,,wg-a,,,,AAXX 31184 07240 12/00 52512 10240 20150 30014 40142 53012 60006 80001 91800 333 10287 20157=
07240,1997-08-31 21:00:00,20,1016.6,2.2,73,15,500,14.816,,,230,,,,,,,,,,,wg-a,,,,AAXX 31214 07240 12/00 62308 10200 20150 30036 40166 51022 60006 85031 92100=
07240,1997-09-01 00:00:00,17,1017.6,0.9,82,14,20000,7.408,,,280,,,,,,,,,,,wg-a,,,,AAXX 01004 07240 12/70 32804 10170 20140 30045 40176 51009 60006 8303/ 90000=
07240,1997-09-01 03:00:00,14,1017.7,-0.1,94,13,20000,3.704,,,260,,,,,,,,,,,wg-a,,,,AAXX 01034 07240 12/70 12602 10140 20130 30044 40177 57001 60006 81030 90300=
07240,1997-09-01 06:00:00,14,1019.4,1.7,94,13,12000,7.408,,,230,13.3,23.7,,,,,,,,61,wg-a,,,,AAXX 01064 07240 02662 82304 10140 20130 30061 40194 52017 61000 76196 8398/ 90600 333 10237 20133 6001=
07240,1997-09-01 09:00:00,15,1018,-1.3,94,14,13000,11.112,,,350,,,,1,,,,,,21,wg-a,,,,AAXX 01094 07240 12263 73506 10150 20140 30048 40180 58013 60017 72162 875// 90900=
07240,1997-09-01 12:00:00,15,1019.2,1.2,94,14,18000,7.408,,,160,,,,1,,,,,,21,wg-a,,,,AAXX 01124 07240 02468 71604 10150 20140 30060 40192 50012 60026 72162 8683/ 91200 333 60017=
07240,1997-09-01 18:00:00,16,1019.1,0.5,88,14,15000,7.408,,,310,14.1,17,,,,,,,,,wg-a,,,,AAXX 01184 07240 12665 73104 10160 20140 30059 40191 51005 60006 8553/ 91800 333 10170 20141=
07240,1997-09-01 21:00:00,15,1019.9,0.8,88,13,10000,7.408,,,340,,,,,,,,,,,wg-a,,,,AAXX 01214 07240 12660 73404 10150 20130 30067 40199 51008 60006 8553/ 92100=
07240,1997-09-02 03:00:00,12,1020.8,0.5,94,11,10000,7.408,,,340,,,,,,,,,,,wg-a,,,,AAXX 02034 07240 12/60 03404 10120 20110 30074 40208 52005 60006 80000 90300=
07240,1997-09-02 06:00:00,11,1021.5,0.6,94,10,500,7.408,,,330,10.7,16,,,,,2,,,,wg-a,,,,AAXX 02064 07240 02/00 /3304 10110 20100 30080 40215 53006 60006 82032 90600 333 10160 20107 60024=
07240,1997-09-02 09:00:00,18,1022.4,1.3,73,13,20000,11.112,,,40,,,,0,,,,,,,wg-a,,,,AAXX 02094 07240 12570 30406 10180 20130 30093 40224 53013 60007 83130 90900=
07240,1997-09-02 12:00:00,20,1022.5,,53,10,500,7.408,,,320,,,,,,,,,,,wg-a,,,,AAXX 02124 07240 12500 43204 10200 20100 30095 40225 60006 84230 91200=
07240,1997-09-02 18:00:00,21,1021.7,-0.1,49,10,500,3.704,,,40,10.9,22.4,,,,,,,,,wg-a,,,,AAXX 02184 07240 12700 40402 10210 20100 30087 40217 58001 60006 81101 91800 333 10224 20109=
07240,1997-09-03 00:00:00,13,1023,-0.1,88,11,15000,7.408,,,140,,,,,,,,,,,wg-a,,,,AAXX 03004 07240 12/65 01404 10130 20110 30096 40230 58001 60006 80000 90000=
07240,1997-09-03 03:00:00,10,1022.2,-0.9,93,9,12000,0,,,0,,,,,,,,,,,wg-a,,,,AAXX 03034 07240 12/62 00000 10100 20090 30087 40222 56009 60006 80000 90300=
07240,1997-09-03 06:00:00,10,1022.1,-0.1,93,9,10000,7.408,,,100,9.5,20.6,,,,,,,,11,wg-a,,,,AAXX 03064 07240 02360 21004 10100 20090 30086 40221 55001 60006 71100 81502 90600 333 10206 20095 60004=
07240,1997-09-03 09:00:00,19,1021.8,0.1,68,13,15000,7.408,,,130,,,,,,,,,,,wg-a,,,,AAXX 03094 07240 12/65 41304 10190 20130 30087 40218 51001 60006 80001 90900=
07240,1997-09-03 12:00:00,23,1020.6,-1,47,11,20000,11.112,,,170,,,,,,,,,,,wg-a,,,,AAXX 03124 07240 12670 41706 10230 20110 30077 40206 56010 60006 82101 91200=
07240,1997-09-03 18:00:00,22,1019.3,-0.1,57,13,20000,7.408,,,170,10.1,23.8,,,,,,,,,wg-a,,,,AAXX 03184 07240 12/70 51704 10220 20130 30064 40193 57001 60006 80002 91800 333 10238 20101=
07240,1997-09-03 21:00:00,17,1019.8,0.3,77,13,20000,7.408,,,150,,,,,,,,,,,wg-a,,,,AAXX 03214 07240 12/70 41504 10170 20130 30067 40198 52003 60006 82032 92100=
07240,1997-09-04 00:00:00,16,1020.2,0.3,82,13,20000,7.408,,,240,,,,,,,,,,,wg-a,,,,AAXX 04004 07240 12770 42404 10160 20130 30070 40202 52003 60006 82532 90000=
07240,1997-09-04 03:00:00,15,1019.6,-0.6,88,13,20000,0,,,0,,,,,,,,,,,wg-a,,,,AAXX 04034 07240 12770 20000 10150 20130 30064 40196 56006 60006 81501 90300=
07240,1997-09-04 06:00:00,14,1019.8,0.1,94,13,20000,7.408,,,140,13.8,21.9,,,,,,,,,wg-a,,,,AAXX 04064 07240 02/70 31404 10140 20130 30065 40198 53001 60006 83081 90600 333 10219 20138 60004=
07240,1997-09-04 09:00:00,20,1020.3,0.8,60,12,20000,7.408,,,190,,,,,,,,,,,wg-a,,,,AAXX 04094 07240 12/70 51904 10200 20120 30073 40203 51008 60006 85081 90900=
07240,1997-09-04 15:00:00,26,1018.3,-1,37,10,25000,11.112,,,230,,,,,,,,,,,wg-a,,,,AAXX 04154 07240 12775 72306 10260 20100 30056 40183 58010 60006 83551 91500=
07240,1997-09-04 18:00:00,23,1018.8,0.3,61,15,25000,14.816,,,340,14,26.6,,,,,,,,,wg-a,,,,AAXX 04184 07240 12775 73408 10230 20150 30059 40188 53003 60006 83551 91800 333 10266 20140=
07240,1997-09-04 21:00:00,18,1020.1,1.1,88,16,15000,7.408,,,330,,,,,,,,,,,wg-a,,,,AAXX 04214 07240 12/65 43304 10180 20160 30070 40201 51011 60006 81031 92100=
07240,1997-09-05 00:00:00,16,1020.4,0.2,94,15,6000,7.408,,,340,,,,,,,,,,,wg-a,,,,AAXX 05004 07240 12/56 /3404 10160 20150 30072 40204 50002 60006 80002 90000=
07240,1997-09-05 03:00:00,15,1019.6,-0.8,94,14,6000,11.112,,,70,,,,,,,,,,,wg-a,,,,AAXX 05034 07240 12/56 /0706 10150 20140 30064 40196 58008 60006 90300=
07240,1997-09-05 06:00:00,14,1020.2,0.5,100,14,6000,7.408,,,360,13.8,22.5,,,,,,,,,wg-a,,,,AAXX 05064 07240 02/56 /3604 10140 20140 30069 40202 53005 60006 82021 90600 333 10225 20138 60004=
07240,1997-09-05 12:00:00,23,1019.3,-0.8,69,17,15000,7.408,,,330,,,,,,,,,,,wg-a,,,,AAXX 05124 07240 12565 73304 10230 20170 30064 40193 58008 60006 85821 91200=
07240,1997-09-05 15:00:00,23,1019.3,0,61,15,15000,14.816,,,10,,,,,,,,,,,wg-a,,,,AAXX 05154 07240 12565 70108 10230 20150 30064 40193 50000 60006 86831 91500=
07240,1997-09-05 18:00:00,19,1020.6,1.1,64,12,10000,14.816,,,350,14.1,23.4,,,,,,,,,wg-a,,,,AAXX 05184 07240 12/60 /3508 10190 20120 30075 40206 51011 60006 91800 333 10234 20141=
07240,1997-09-05 21:00:00,17,1021.9,1.2,68,11,500,14.816,,,10,,,,,,,,,,,wg-a,,,,AAXX 05214 07240 12600 70108 10170 20110 30087 40219 51012 60006 875// 92100=
07240,1997-09-06 00:00:00,14,1023.4,1.4,88,12,10000,11.112,,,10,,,,0,,,,,,61,wg-a,,,,AAXX 06004 07240 02760 80106 10140 20120 30101 40234 51014 60006 76162 8752/ 90000 333 60007=
07240,1997-09-06 03:00:00,14,1023.6,0.2,88,12,20000,7.408,,,350,,,,0,,,,,,21,wg-a,,,,AAXX 06034 07240 12770 73504 10140 20120 30103 40236 53002 60007 72162 875// 90300=
07240,1997-09-06 06:00:00,12,1024.6,0.9,94,11,20000,7.408,,,10,11.8,18.6,,,,,,,,3,wg-a,,,,AAXX 06064 07240 02770 60104 10120 20110 30112 40246 52009 60006 70362 84531 90600 333 10186 20118 60004=
07240,1997-09-06 09:00:00,16,1026,1.5,82,13,20000,11.112,,,30,,,,,,,,,,,wg-a,,,,AAXX 06094 07240 12470 40306 10160 20130 30127 40260 51015 60006 82131 90900=
07240,1997-09-06 12:00:00,20,1025.7,-0.1,46,8,500,11.112,,,20,,,,,,,,,,,wg-a,,,,AAXX 06124 07240 12600 30206 10200 20080 30126 40257 57001 60006 83100 91200=
07240,1997-09-06 15:00:00,22,1025,-0.6,41,8,500,14.816,,,340,,,,,,,,,,,wg-a,,,,AAXX 06154 07240 12600 33408 10220 20080 30120 40250 58006 60006 82131 91500=
07240,1997-09-06 18:00:00,20,1025,-0.1,49,9,35000,7.408,,,330,11.9,21.9,,,,,,,,,wg-a,,,,AAXX 06184 07240 12781 13304 10200 20090 30119 40250 56001 60006 81530 91800 333 10219 20119=
07240,1997-09-06 21:00:00,14,1026.4,1.1,72,9,500,7.408,,,340,,,,,,,,,,,wg-a,,,,AAXX 06214 07240 12/00 03404 10140 20090 30130 40264 51011 60006 80000 92100=
07240,1997-09-07 00:00:00,10,1026.8,0.2,87,8,25000,7.408,,,340,,,,,,,,,,,wg-a,,,,AAXX 07004 07240 12/75 03404 10100 20080 30132 40268 50002 60006 80000 90000=
07240,1997-09-07 03:00:00,9,1027,0.2,93,8,20000,3.704,,,330,,,,,,,,,,,wg-a,,,,AAXX 07034 07240 32/70 03302 10090 20080 30134 40270 52002 80000 90300=
07240,1997-09-07 06:00:00,8,1027.9,0.8,93,7,15000,3.704,,,320,8,19.6,,,,,,,,,wg-a,,,,AAXX 07064 07240 02/65 63202 10080 20070 30142 40279 53008 60006 84031 90600 333 10196 20080 60004=
07240,1997-09-07 09:00:00,17,1028.7,1.2,68,11,500,7.408,,,360,,,,,,,,,,,wg-a,,,,AAXX 07094 07240 12500 33604 10170 20110 30154 40287 53012 60006 81101 90900=
07240,1997-09-07 12:00:00,20,1027.9,-0.6,49,9,500,11.112,,,350,,,,,,,,,,,wg-a,,,,AAXX 07124 07240 12600 43506 10200 20090 30148 40279 57006 60006 82101 91200=
07240,1997-09-07 18:00:00,19,1027.5,0.2,64,12,500,14.816,,,10,8,21.4,,,,,,,,,wg-a,,,,AAXX 07184 07240 12600 30108 10190 20120 30143 40275 52002 60006 83101 91800 333 10214 20080=
07240,1997-09-07 21:00:00,14,1028.6,0.9,88,12,500,7.408,,,350,,,,,,,,,,,wg-a,,,,AAXX 07214 07240 12700 13504 10140 20120 30152 40286 51009 60006 81400 92100=
07240,1997-09-08 00:00:00,14,1028.8,0.2,88,12,500,7.408,,,10,,,,,,,,,,,wg-a,,,,AAXX 08004 07240 12/00 00104 10140 20120 30154 40288 51002 60006 80000 90000=
07240,1997-09-08 03:00:00,13,1028.1,-0.7,94,12,15000,7.408,,,20,,,,,,,,,,,wg-a,,,,AAXX 08034 07240 12765 10204 10130 20120 30147 40281 58007 60006 81500 90300=
07240,1997-09-08 06:00:00,12,1028.6,0.4,94,11,20000,7.408,,,360,11.9,18.9,,,,,,,,,wg-a,,,,AAXX 08064 07240 02/70 13604 10120 20110 30151 40286 53004 60006 80001 90600 333 10189 20119 60004=
07240,1997-09-08 09:00:00,18,1028.5,0.2,73,13,10000,7.408,,,70,,,,,,,,,,,wg-a,,,,AAXX 08094 07240 12/60 /0704 10180 20130 30153 40285 51002 60006 90900=
07240,1997-09-08 12:00:00,22,1027.3,-1,53,12,500,7.408,,,340,,,,,,,,,,,wg-a,,,,AAXX 08124 07240 12600 43404 10220 20120 30143 40273 57010 60006 83101 91200=
07240,1997-09-08 15:00:00,24,1025.8,-1.4,50,13,500,11.112,,,30,,,,,,,,,,,wg-a,,,,AAXX 08154 07240 12600 /0306 10240 20130 30129 40258 58014 60006 81100 91500=
07240,1997-09-08 18:00:00,22,1025,-0.9,57,13,500,7.408,,,340,12,23.9,,,,,,,,,wg-a,,,,AAXX 08184 07240 12/00 03404 10220 20130 30120 40250 56009 60006 80000 91800 333 10239 20120=
07240,1997-09-08 21:00:00,17,1025.5,0.3,77,13,25000,7.408,,,10,,,,,,,,,,,wg-a,,,,AAXX 08214 07240 12/75 10104 10170 20130 30123 40255 51003 60006 80001 92100=
07240,1997-09-09 03:00:00,13,1025.2,-0.4,88,11,10000,11.112,,,40,,,,,,,,,,,wg-a,,,,AAXX 09034 07240 12/60 /0406 10130 20110 30118 40252 56004 60006 90300=
07240,1997-09-09 06:00:00,11,1024.9,-0.4,94,10,10000,7.408,,,40,11.1,21.9,,0,,,,,,,wg-a,,,,AAXX 09064 07240 02/60 10404 10110 20100 30114 40249 55004 60004 81030 90600 333 10219 20111 60007=
07240,1997-09-09 09:00:00,14,1025.7,0.9,82,11,10000,11.112,,,40,,,,,,,,,,,wg-a,,,,AAXX 09094 07240 12260 70406 10140 20110 30123 40257 53009 60006 875// 90900=
07240,1997-09-09 12:00:00,20,1024.3,-1.1,56,11,20000,14.816,,,350,,,,,,,,,,,wg-a,,,,AAXX 09124 07240 12570 23508 10200 20110 30112 40243 58011 60006 82100 91200=
07240,1997-09-09 18:00:00,19,1022.5,-0.5,68,13,10000,7.408,,,350,11.3,22.5,,,,,,,,,wg-a,,,,AAXX 09184 07240 12/60 /3504 10190 20130 30094 40225 57005 60006 91800 333 10225 20113=
07240,1997-09-09 21:00:00,15,1024,1.3,77,11,15000,11.112,,,40,,,,,,,,,,,wg-a,,,,AAXX 09214 07240 12/65 10406 10150 20110 30107 40240 51013 60006 80001 92100=
07240,1997-09-10 00:00:00,13,1024.3,0.2,82,10,10000,14.816,,,50,,,,,,,,,,,wg-a,,,,AAXX 10004 07240 12/60 /0508 10130 20100 30109 40243 50002 60006 90000=
07240,1997-09-10 03:00:00,11,1023.9,-0.5,87,9,10000,14.816,,,70,,,,,,,,,,,wg-a,,,,AAXX 10034 07240 12/60 10708 10110 20090 30104 40239 58005 60006 80001 90300=
07240,1997-09-10 06:00:00,10,1024.1,0.1,87,8,15000,11.112,,,50,9.8,19.2,,,,,,,,,wg-a,,,,AAXX 10064 07240 02/65 00506 10100 20080 30105 40241 53001 60006 80000 90600 333 10192 20098 60004=
07240,1997-09-10 09:00:00,16,1023.2,-0.5,63,9,10000,22.224,,,80,,,,,,,,,,,wg-a,,,,AAXX 10094 07240 12/60 /0812 10160 20090 30100 40232 55005 60006 90900=
07240,1997-09-10 12:00:00,20,1021.8,-1.2,43,7,25000,22.224,,,80,,,,,,,,,,,wg-a,,,,AAXX 10124 07240 12/75 10812 10200 20070 30088 40218 58012 60006 80001 91200=
07240,1997-09-10 18:00:00,19,1018.6,-0.9,46,7,25000,14.816,,,90,9.9,22.7,,,,,,,,,wg-a,,,,AAXX 10184 07240 12/75 00908 10190 20070 30056 40186 56009 60006 80000 91800 333 10227 20099=
07240,1997-09-11 03:00:00,9,1015.2,-2.2,87,7,10000,14.816,,,80,,,,,,,,,,,wg-a,,,,AAXX 11034 07240 12/60 00808 10090 20070 30017 40152 58022 60006 80000 90300=
07240,1997-09-11 06:00:00,9,1014.4,-0.8,87,7,15000,11.112,,,100,8.3,19.3,,,,,,,,,wg-a,,,,AAXX 11064 07240 02/65 31006 10090 20070 30009 40144 58008 60006 80001 90600 333 10193 20083 60004=
07240,1997-09-11 09:00:00,15,1014,-0.1,72,10,25000,7.408,,,160,,,,,,,,,,,wg-a,,,,AAXX 11094 07240 12/75 31604 10150 20100 30008 40140 58001 60006 80001 90900=
07240,1997-09-11 12:00:00,23,1012.1,-1.5,47,11,25000,14.816,,,200,,,,,,,,,,,wg-a,,,,AAXX 11124 07240 12/75 42008 10230 20110 39993 40121 58015 60006 80001 91200=
07240,1997-09-11 15:00:00,29,1009.9,-1.9,33,11,25000,22.224,,,210,,,,,,,,,,,wg-a,,,,AAXX 11154 07240 12/75 22112 10290 20110 39974 40099 58019 60006 80001 91500=
07240,1997-09-11 18:00:00,24,1009.7,-0.4,50,13,25000,14.816,,,260,8.6,29,,,,,,,,,wg-a,,,,AAXX 11184 07240 12/75 32608 10240 20130 39970 40097 56004 60006 80001 91800 333 10290 20086=
07240,1997-09-11 21:00:00,18,1010.7,0.7,73,13,10000,11.112,,,260,,,,,,,,,,,wg-a,,,,AAXX 11214 07240 12/60 /2606 10180 20130 39977 40107 51007 60006 92100=
07240,1997-09-12 00:00:00,16,1011.8,1,88,14,12000,11.112,,,260,,,,,,,,,,,wg-a,,,,AAXX 12004 07240 12562 22606 10160 20140 39987 40118 51010 60006 81501 90000=
07240,1997-09-12 03:00:00,15,1011.8,0,94,14,12000,11.112,,,260,,,,,,,,,,,wg-a,,,,AAXX 12034 07240 12462 82606 10150 20140 39987 40118 50000 60006 877// 90300=
07240,1997-09-12 06:00:00,16,1012,0.2,94,15,6000,7.408,,,210,14.5,23.6,,,,,,,,,wg-a,,,,AAXX 12064 07240 02256 82104 10160 20150 39989 40120 53002 60006 875// 90600 333 10236 20145 60004=
07240,1997-09-12 09:00:00,17,1012.5,0.5,88,15,7000,11.112,,,250,,,,,,,,,,,wg-a,,,,AAXX 12094 07240 12357 82506 10170 20150 39994 40125 52005 60006 875// 90900=
07240,1997-09-12 12:00:00,17,1012.1,-0.3,94,16,6000,11.112,,,230,,,,1,,,,,,21,wg-a,,,,AAXX 12124 07240 02456 82306 10170 20160 39991 40121 55003 60016 72162 8587/ 91200 333 60017=
07240,1997-09-12 15:00:00,17,1011.9,-0.2,88,15,8000,14.816,,,230,,,,1,,,,,,1,wg-a,,,,AAXX 12154 07240 12358 82308 10170 20150 39989 40119 55002 60017 70162 8587/ 91500=
07240,1997-09-12 18:00:00,17,1011.1,-0.8,82,14,11000,18.52,,,210,15.7,18.3,,,,,,,,,wg-a,,,,AAXX 12184 07240 12/61 /2110 10170 20140 39981 40111 56008 60006 91800 333 10183 20157=
07240,1997-09-12 21:00:00,16,1012.6,1.4,88,14,15000,18.52,,,240,,,,,,,,,,,wg-a,,,,AAXX 12214 07240 12665 /2410 10160 20140 39995 40126 53014 60006 85501 92100=
07240,1997-09-13 00:00:00,14,1013.8,1.1,88,12,15000,14.816,,,310,,,,,,,,,,,wg-a,,,,AAXX 13004 07240 12665 53108 10140 20120 30006 40138 51011 60006 84501 90000=
07240,1997-09-13 03:00:00,12,1015.5,1.6,82,9,15000,11.112,,,280,,,,,,,,,,,wg-a,,,,AAXX 13034 07240 12/65 22806 10120 20090 30022 40155 52016 60006 80001 90300=
07240,1997-09-13 06:00:00,9,1016.9,1.2,93,8,500,11.112,,,280,8.8,16.9,,,,,2,,,,wg-a,,,,AAXX 13064 07240 02/00 22806 10090 20080 30034 40169 53012 60006 80002 90600 333 10169 20088 60024=
07240,1997-09-13 09:00:00,15,1019.1,2.4,63,8,500,18.52,,,300,,,,,,,,,,,wg-a,,,,AAXX 13094 07240 12/00 23010 10150 20080 30058 40191 52024 60006 80002 90900=
07240,1997-09-13 12:00:00,18,1020.1,1.2,49,7,500,22.224,,,290,,,,,,,,,,,wg-a,,,,AAXX 13124 07240 12600 32912 10180 20070 30070 40201 51012 60006 82202 91200=
07240,1997-09-13 15:00:00,19,1020.5,0.4,37,4,500,22.224,,,310,,,,,,,,,,,wg-a,,,,AAXX 13154 07240 12700 23112 10190 20040 30074 40205 51004 60006 82202 91500=
07240,1997-09-13 18:00:00,15,1022.1,1.4,51,5,500,11.112,,,300,8.7,19.2,,,,,,,,,wg-a,,,,AAXX 13184 07240 12700 23006 10150 20050 30088 40221 53014 60006 81802 91800 333 10192 20087=
07240,1997-09-14 00:00:00,8,1025.3,0.7,81,5,20000,7.408,,,10,,,,,,,,,,,wg-a,,,,AAXX 14004 07240 12/70 00104 10080 20050 30116 40253 51007 60006 80000 90000=
07240,1997-09-14 03:00:00,6,1025.7,0.3,87,4,20000,0,,,0,,,,,,,,,,,wg-a,,,,AAXX 14034 07240 12/70 30000 10060 20040 30119 40257 52003 60006 80001 90300=
07240,1997-09-14 06:00:00,5,1026.6,0.8,93,4,20000,0,,,0,4.2,15.1,,,,,,,,,wg-a,,,,AAXX 14064 07240 02/70 40000 10050 20040 30127 40266 53008 60006 81031 90600 333 10151 20042 60004=
07240,1997-09-14 12:00:00,18,1027,-0.2,45,6,25000,7.408,,,60,,,,,,,,,,,wg-a,,,,AAXX 14124 07240 12675 /0604 10180 20060 30138 40270 58002 60006 82231 91200=
07240,1997-09-14 18:00:00,16,1025.7,-0.1,51,6,25000,7.408,,,110,4.5,18.8,,,,,,,,,wg-a,,,,AAXX 14184 07240 12/75 11104 10160 20060 30124 40257 56001 60006 81031 91800 333 10188 20045=
07240,1997-09-14 21:00:00,10,1026.8,0.8,76,6,20000,11.112,,,70,,,,,,,,,,,wg-a,,,,AAXX 14214 07240 12/70 00706 10100 20060 30132 40268 51008 60006 80000 92100=
07240,1997-09-15 00:00:00,7,1026.5,-0.4,87,5,20000,11.112,,,80,,,,,,,,,,,wg-a,,,,AAXX 15004 07240 12/70 00806 10070 20050 30128 40265 58004 60006 80000 90000=
07240,1997-09-15 03:00:00,7,1025.5,-1,87,5,15000,14.816,,,70,,,,,,,,,,,wg-a,,,,AAXX 15034 07240 12/65 00708 10070 20050 30118 40255 56010 60006 80000 90300=
07240,1997-09-15 06:00:00,7,1025.7,0.2,87,5,20000,11.112,,,50,6.1,15.4,,,,,,,,,wg-a,,,,AAXX 15064 07240 02/70 10506 10070 20050 30120 40257 53002 60006 80001 90600 333 10154 20061 60004=
07240,1997-09-15 09:00:00,15,1025.6,0.3,55,6,25000,18.52,,,90,,,,,,,,,,,wg-a,,,,AAXX 15094 07240 12/75 10910 10150 20060 30123 40256 50003 60006 80001 90900=
07240,1997-09-15 12:00:00,20,1024.1,-1.3,35,4,25000,18.52,,,100,,,,,,,,,,,wg-a,,,,AAXX 15124 07240 12/75 31010 10200 20040 30110 40241 58013 60006 80001 91200=
07240,1997-09-15 18:00:00,18,1022.5,-0.3,45,6,25000,7.408,,,110,7,22.6,,,,,,,,,wg-a,,,,AAXX 15184 07240 12/75 61104 10180 20060 30094 40225 56003 60006 80001 91800 333 10226 20070=
07240,1997-09-15 21:00:00,13,1023.4,0.6,67,7,10000,11.112,,,80,,,,,,,,,,,wg-a,,,,AAXX 15214 07240 12/60 50806 10130 20070 30100 40234 51006 60006 80001 92100=
07240,1997-09-16 03:00:00,10,1022.3,-1.1,82,7,10000,11.112,,,90,,,,,,,,,,,wg-a,,,,AAXX 16034 07240 12/60 60906 10100 20070 30088 40223 58011 60006 80001 90300=
07240,1997-09-16 06:00:00,9,1022.5,0.1,87,7,13000,7.408,,,90,8.9,18.4,,,,,,,,,wg-a,,,,AAXX 16064 07240 02/63 50904 10090 20070 30089 40225 53001 60006 82032 90600 333 10184 20089 60004=
07240,1997-09-16 09:00:00,16,1022,-0.1,68,10,25000,11.112,,,140,,,,,,,,,,,wg-a,,,,AAXX 16094 07240 12/75 21406 10160 20100 30088 40220 58001 60006 81031 90900=
07240,1997-09-16 15:00:00,25,1018.7,-1.7,36,9,25000,11.112,,,200,,,,,,,,,,,wg-a,,,,AAXX 16154 07240 12/75 62006 10250 20090 30059 40187 56017 60006 81034 91500=
07240,1997-09-16 18:00:00,22,1018.6,-0.2,53,12,25000,7.408,,,170,8.6,25.2,,,,,,,,,wg-a,,,,AAXX 16184 07240 12/75 61704 10220 20120 30057 40186 56002 60006 80002 91800 333 10252 20086=
07240,1997-09-16 21:00:00,17,1019.6,0.8,77,13,25000,7.408,,,150,,,,,,,,,,,wg-a,,,,AAXX 16214 07240 12/75 51504 10170 20130 30065 40196 53008 60006 80002 92100=
07240,1997-09-17 00:00:00,14,1020,0.2,88,12,20000,7.408,,,130,,,,,,,,,,,wg-a,,,,AAXX 17004 07240 12/70 31304 10140 20120 30067 40200 50002 60006 80002 90000=
07240,1997-09-17 06:00:00,14,1021.2,0.9,88,12,12000,7.408,,,130,13.4,22,,,,,,,,,wg-a,,,,AAXX 17064 07240 02762 61304 10140 20120 30079 40212 53009 60006 835/2 90600 333 10220 20134 60004=
07240,1997-09-17 12:00:00,26,1021.6,-0.1,45,13,20000,11.112,,,170,,,,,,,,,,,wg-a,,,,AAXX 17124 07240 12/70 51706 10260 20130 30088 40216 58001 60006 80002 91200=
07240,1997-09-17 15:00:00,27,1020.9,-0.6,39,12,20000,7.408,,,170,,,,,,,,,,,wg-a,,,,AAXX 17154 07240 12/70 41704 10270 20120 30082 40209 56006 60006 80001 91500=
07240,1997-09-17 18:00:00,23,1021.3,0.2,53,13,20000,7.408,,,140,13.6,27.9,,,,,,,,,wg-a,,,,AAXX 17184 07240 12/70 51404 10230 20130 30084 40213 53002 60006 80001 91800 333 10279 20136=
07240,1997-09-18 00:00:00,15,1022.8,0.1,82,12,20000,3.704,,,80,,,,,,,,,,,wg-a,,,,AAXX 18004 07240 12/70 00802 10150 20120 30095 40228 53001 60006 80000 90000=
07240,1997-09-18 06:00:00,12,1023.4,0.9,94,11,13000,7.408,,,110,11.8,23.4,,,,,,,,,wg-a,,,,AAXX 18064 07240 02/63 11104 10120 20110 30100 40234 52009 60006 80001 90600 333 10234 20118 60004=
07240,1997-09-18 09:00:00,21,1023.8,0.8,60,13,20000,3.704,,,180,,,,,,,,,,,wg-a,,,,AAXX 18094 07240 12/70 11802 10210 20130 30108 40238 51008 60006 80001 90900=
07240,1997-09-18 12:00:00,27,1022.8,-0.8,39,12,25000,11.112,,,140,,,,,,,,,,,wg-a,,,,AAXX 18124 07240 12/75 01406 10270 20120 30100 40228 58008 60006 80000 91200=
07240,1997-09-18 15:00:00,28,1021.4,-1.3,35,11,25000,11.112,,,80,,,,,,,,,,,wg-a,,,,AAXX 18154 07240 12/75 00806 10280 20110 30087 40214 56013 60006 80000 91500=
07240,1997-09-18 18:00:00,24,1021.5,-0,47,12,25000,7.408,,,80,12.3,28.5,,,,,,,,,wg-a,,,,AAXX 18184 07240 12/75 00804 10240 20120 30087 40215 55000 60006 80000 91800 333 10285 20123=
07240,1997-09-19 00:00:00,16,1022.5,-0.1,82,13,20000,7.408,,,100,,,,,,,,,,,wg-a,,,,AAXX 19004 07240 12/70 01004 10160 20130 30093 40225 57001 60006 80000 90000=
07240,1997-09-19 03:00:00,15,1022.3,-0.3,82,12,20000,7.408,,,110,,,,,,,,,,,wg-a,,,,AAXX 19034 07240 12/70 01104 10150 20120 30090 40223 56003 60006 80000 90300=
07240,1997-09-19 06:00:00,13,1022.7,0.3,94,12,13000,7.408,,,70,13.3,24.2,,,,,,,,,wg-a,,,,AAXX 19064 07240 02/63 00704 10130 20120 30093 40227 53003 60006 80000 90600 333 10242 20133 60004=
07240,1997-09-19 09:00:00,23,1023,0.8,53,13,25000,7.408,,,120,,,,,,,,,,,wg-a,,,,AAXX 19094 07240 12/75 01204 10230 20130 30101 40230 51008 60006 80000 90900=
07240,1997-09-19 12:00:00,28,1022,-0.8,40,13,25000,14.816,,,90,,,,,,,,,,,wg-a,,,,AAXX 19124 07240 12775 10908 10280 20130 30093 40220 58008 60006 81100 91200=
07240,1997-09-19 15:00:00,28,1020.7,-1.3,40,13,25000,14.816,,,110,,,,,,,,,,,wg-a,,,,AAXX 19154 07240 12775 11108 10280 20130 30080 40207 57013 60006 81100 91500=
07240,1997-09-19 18:00:00,24,1020.7,-0.1,50,13,25000,7.408,,,70,13.3,28.6,,,,,,,,,wg-a,,,,AAXX 19184 07240 12775 10704 10240 20130 30079 40207 55001 60006 81200 91800 333 10286 20133=
07240,1997-09-20 00:00:00,19,1022.1,0.1,78,15,20000,18.52,,,60,,,,,,,,,,,wg-a,,,,AAXX 20004 07240 12/70 10610 10190 20150 30090 40221 50001 60006 81030 90000=
07240,1997-09-20 03:00:00,17,1021.9,-0.3,82,14,8000,18.52,,,60,,,,,,,,,,,wg-a,,,,AAXX 20034 07240 12/58 /0610 10170 20140 30087 40219 56003 60006 81030 90300=
07240,1997-09-20 06:00:00,15,1022.5,0.5,88,13,6000,18.52,,,60,14.6,23.9,,,,,,,,,wg-a,,,,AAXX 20064 07240 02/56 /0610 10150 20130 30092 40225 51005 60006 81030 90600 333 10239 20146 60004=
07240,1997-09-20 09:00:00,19,1022.8,0.5,73,14,7000,18.52,,,60,,,,,,,,,,,wg-a,,,,AAXX 20094 07240 12/57 /0610 10190 20140 30097 40228 51005 60006 81030 90900=
07240,1997-09-20 12:00:00,24,1022.4,-0.2,50,13,12000,22.224,,,70,,,,,,,,,,,wg-a,,,,AAXX 20124 07240 12/62 00712 10240 20130 30095 40224 58002 60006 80000 91200=
07240,1997-09-20 18:00:00,21,1021.5,-0,40,7,20000,14.816,,,50,14.6,25.1,,,,,,,,,wg-a,,,,AAXX 20184 07240 12/70 10508 10210 20070 30085 40215 55000 60006 81081 91800 333 10251 20146=
07240,1997-09-20 21:00:00,15,1022.8,1,59,7,15000,11.112,,,60,,,,,,,,,,,wg-a,,,,AAXX 20214 07240 12/65 10606 10150 20070 30095 40228 51010 60006 80001 92100=
07240,1997-09-21 00:00:00,13,1022.7,-0.2,62,6,15000,11.112,,,60,,,,,,,,,,,wg-a,,,,AAXX 21004 07240 12/65 10606 10130 20060 30093 40227 58002 60006 81030 90000=
07240,1997-09-21 03:00:00,11,1022.1,-0.7,71,6,15000,11.112,,,40,,,,,,,,,,,wg-a,,,,AAXX 21034 07240 12/65 00406 10110 20060 30086 40221 58007 60006 80000 90300=
07240,1997-09-21 06:00:00,9,1022.3,0.1,76,5,15000,11.112,,,60,9.2,20.6,,,,,,,,,wg-a,,,,AAXX 21064 07240 02/65 30606 10090 20050 30087 40223 53001 60006 81031 90600 333 10206 20092 60004=
07240,1997-09-21 09:00:00,16,1022.4,,55,7,15000,11.112,,,70,,,,,,,,,,,wg-a,,,,AAXX 21094 07240 12/65 10706 10160 20070 30091 40224 60006 90900=
07240,1997-09-21 12:00:00,21,1021.2,-0.8,40,7,25000,11.112,,,50,,,,,,,,,,,wg-a,,,,AAXX 21124 07240 12875 20506 10210 20070 30082 40212 58008 60006 81081 91200=
07240,1997-09-21 15:00:00,24,1020.3,-0.8,27,4,25000,11.112,,,20,,,,,,,,,,,wg-a,,,,AAXX 21154 07240 12875 30206 10240 20040 30074 40203 56008 60006 82081 91500=
07240,1997-09-21 18:00:00,20,1020.6,0.1,35,4,25000,7.408,,,50,9.1,23.9,,,,,,,,,wg-a,,,,AAXX 21184 07240 12675 20504 10200 20040 30075 40206 53001 60006 81281 91800 333 10239 20091=
07240,1997-09-21 21:00:00,16,1021.5,0.8,42,3,25000,11.112,,,60,,,,,,,,,,,wg-a,,,,AAXX 21214 07240 12875 20606 10160 20030 30083 40215 51008 60006 82030 92100=
07240,1997-09-22 00:00:00,13,1021.6,-0.1,62,6,25000,7.408,,,80,,,,,,,,,,,wg-a,,,,AAXX 22004 07240 12/75 40804 10130 20060 30082 40216 56001 60006 84030 90000=
07240,1997-09-22 03:00:00,12,1021.3,-0.3,76,8,20000,7.408,,,60,,,,,,,,,,,wg-a,,,,AAXX 22034 07240 12/70 20604 10120 20080 30079 40213 58003 60006 81031 90300=
07240,1997-09-22 09:00:00,17,1022.1,0.9,68,11,20000,11.112,,,80,,,,,,,,,,,wg-a,,,,AAXX 22094 07240 12/70 50806 10170 20110 30089 40221 51009 60006 83032 90900=
07240,1997-09-22 12:00:00,23,1021.4,-0.4,47,11,25000,7.408,,,80,,,,,,,,,,,wg-a,,,,AAXX 22124 07240 12/75 10804 10230 20110 30085 40214 57004 60006 81030 91200=
07240,1997-09-22 15:00:00,25,1020.1,-1.2,36,9,25000,3.704,,,50,,,,,,,,,,,wg-a,,,,AAXX 22154 07240 12/75 10502 10250 20090 30073 40201 58012 60006 81030 91500=
07240,1997-09-22 18:00:00,20,1020.5,0.2,49,9,25000,7.408,,,50,11.5,24.8,,,,,,,,,wg-a,,,,AAXX 22184 07240 12/75 50504 10200 20090 30075 40205 53002 60006 82032 91800 333 10248 20115=
07240,1997-09-22 21:00:00,16,1021.9,1.2,63,9,25000,14.816,,,70,,,,,,,,,,,wg-a,,,,AAXX 22214 07240 12/75 10708 10160 20090 30087 40219 52012 60006 80002 92100=
07240,1997-09-23 00:00:00,14,1021.7,-0.4,63,7,10000,11.112,,,70,,,,,,,,,,,wg-a,,,,AAXX 23004 07240 12/60 /0706 10140 20070 30083 40217 58004 60006 90000=
07240,1997-09-23 03:00:00,11,1021.4,-0.4,71,6,15000,11.112,,,70,,,,,,,,,,,wg-a,,,,AAXX 23034 07240 12/65 10706 10110 20060 30079 40214 58004 60006 80001 90300=
07240,1997-09-23 06:00:00,11,1021.8,0.4,76,7,12000,11.112,,,40,10.7,19.8,,,,,,,,,wg-a,,,,AAXX 23064 07240 02/62 10406 10110 20070 30083 40218 53004 60006 80001 90600 333 10198 20107 60004=
07240,1997-09-23 09:00:00,18,1021.7,0.3,56,9,20000,14.816,,,60,,,,,,,,,,,wg-a,,,,AAXX 23094 07240 12/70 10608 10180 20090 30086 40217 52003 60006 80001 90900=
07240,1997-09-23 12:00:00,22,1020.6,-0.9,46,10,20000,14.816,,,30,,,,,,,,,,,wg-a,,,,AAXX 23124 07240 12/70 00308 10220 20100 30077 40206 58009 60006 80000 91200=
07240,1997-09-23 15:00:00,24,1019.5,-1,34,7,20000,14.816,,,70,,,,,,,,,,,wg-a,,,,AAXX 23154 07240 12/70 00708 10240 20070 30067 40195 56010 60006 80000 91500=
07240,1997-09-23 18:00:00,20,1020.1,0.4,46,8,20000,11.112,,,70,10.9,24.5,,,,,,,,,wg-a,,,,AAXX 23184 07240 12/70 00706 10200 20080 30071 40201 53004 60006 80000 91800 333 10245 20109=
07240,1997-09-23 21:00:00,16,1021.4,1.1,63,9,10000,14.816,,,60,,,,,,,,,,,wg-a,,,,AAXX 23214 07240 12/60 00608 10160 20090 30082 40214 52011 60006 80000 92100=
07240,1997-09-24 00:00:00,14,1021.5,0,67,8,10000,14.816,,,70,,,,,,,,,,,wg-a,,,,AAXX 24004 07240 12/60 00708 10140 20080 30082 40215 50000 60006 80000 90000=
07240,1997-09-24 03:00:00,12,1021.3,-0.3,67,6,10000,18.52,,,70,,,,,,,,,,,wg-a,,,,AAXX 24034 07240 12/60 00710 10120 20060 30079 40213 56003 60006 80000 90300=
07240,1997-09-24 06:00:00,10,1022,0.6,82,7,15000,22.224,,,70,10.4,19.6,,,,,,,,,wg-a,,,,AAXX 24064 07240 02/65 10712 10100 20070 30085 40220 53006 60006 80001 90600 333 10196 20104 60004=
07240,1997-09-24 09:00:00,16,1022.2,0.5,59,8,15000,22.224,,,70,,,,,,,,,,,wg-a,,,,AAXX 24094 07240 12/65 00712 10160 20080 30090 40222 51005 60006 80000 90900=
07240,1997-09-24 12:00:00,23,1020.8,-1.1,47,11,20000,14.816,,,90,,,,,,,,,,,wg-a,,,,AAXX 24124 07240 12/70 20908 10230 20110 30079 40208 57011 60006 80001 91200=
07240,1997-09-24 15:00:00,25,1019.3,-1.4,39,10,20000,14.816,,,100,,,,,,,,,,,wg-a,,,,AAXX 24154 07240 12/70 31008 10250 20100 30065 40193 56014 60006 80001 91500=
07240,1997-09-24 18:00:00,21,1019.7,0.2,49,10,20000,14.816,,,70,10.3,25.3,,,,,,,,,wg-a,,,,AAXX 24184 07240 12/70 50708 10210 20100 30067 40197 53002 60006 80001 91800 333 10253 20103=
07240,1997-09-24 21:00:00,16,1021,1.1,59,8,15000,18.52,,,70,,,,,,,,,,,wg-a,,,,AAXX 24214 07240 12/65 00710 10160 20080 30078 40210 51011 60006 80000 92100=
07240,1997-09-25 00:00:00,14,1020.8,-0.3,67,8,15000,14.816,,,60,,,,,,,,,,,wg-a,,,,AAXX 25004 07240 12/65 00608 10140 20080 30075 40208 58003 60006 80000 90000=
07240,1997-09-25 03:00:00,11,1020.9,0,82,8,15000,18.52,,,70,,,,,,,,,,,wg-a,,,,AAXX 25034 07240 12/65 00710 10110 20080 30075 40209 50000 60006 80000 90300=
07240,1997-09-25 06:00:00,9,1021.8,0.8,93,8,15000,7.408,,,50,9.2,20.7,,,,,,,,,wg-a,,,,AAXX 25064 07240 02/65 00504 10090 20080 30083 40218 53008 60006 80000 90600 333 10207 20092 60004=
07240,1997-09-25 09:00:00,16,1022.5,1,68,10,20000,18.52,,,70,,,,,,,,,,,wg-a,,,,AAXX 25094 07240 12/70 00710 10160 20100 30093 40225 52010 60006 80000 90900=
07240,1997-09-25 12:00:00,23,1021.9,-0.3,44,10,20000,18.52,,,60,,,,,,,,,,,wg-a,,,,AAXX 25124 07240 12/70 00610 10230 20100 30090 40219 58003 60006 80000 91200=
07240,1997-09-25 15:00:00,26,1021,-0.8,34,9,25000,14.816,,,80,,,,,,,,,,,wg-a,,,,AAXX 25154 07240 12/75 00808 10260 20090 30082 40210 56008 60006 80000 91500=
07240,1997-09-26 00:00:00,13,1023.1,-0.2,77,9,10000,7.408,,,30,,,,,,,,,,,wg-a,,,,AAXX 26004 07240 12/60 /0304 10130 20090 30097 40231 58002 60006 90000=
07240,1997-09-26 06:00:00,10,1022.6,-0,87,8,10000,11.112,,,50,9.6,19.1,,,,,,,,,wg-a,,,,AAXX 26064 07240 02/60 00506 10100 20080 30091 40226 54000 60006 80000 90600 333 10191 20096 60004=
07240,1997-09-26 09:00:00,17,1022.8,0.5,68,11,15000,11.112,,,70,,,,,,,,,,,wg-a,,,,AAXX 26094 07240 12/65 00706 10170 20110 30096 40228 51005 60006 80000 90900=
07240,1997-09-26 12:00:00,24,1020.8,-1.6,47,12,20000,11.112,,,80,,,,,,,,,,,wg-a,,,,AAXX 26124 07240 12/70 00806 10240 20120 30080 40208 58016 60006 80000 91200=
07240,1997-09-26 15:00:00,26,1019.1,-1.7,37,10,20000,3.704,,,130,,,,,,,,,,,wg-a,,,,AAXX 26154 07240 12/70 01302 10260 20100 30063 40191 56017 60006 80000 91500=
07240,1997-09-26 18:00:00,21,1018.9,-0.4,49,10,20000,3.704,,,70,10.3,25.8,,,,,,,,,wg-a,,,,AAXX 26184 07240 12/70 10702 10210 20100 30059 40189 56004 60006 80001 91800 333 10258 20103=
07240,1997-09-26 21:00:00,15,1018.8,-0.3,67,9,20000,3.704,,,50,,,,,,,,,,,wg-a,,,,AAXX 26214 07240 12/70 10502 10150 20090 30056 40188 58003 60006 80001 92100=
07240,1997-09-27 00:00:00,12,1018.5,-0.5,76,8,20000,3.704,,,60,,,,,,,,,,,wg-a,,,,AAXX 27004 07240 12/70 10602 10120 20080 30051 40185 58005 60006 80001 90000=
07240,1997-09-27 03:00:00,11,1017.5,-1,82,8,20000,3.704,,,70,,,,,,,,,,,wg-a,,,,AAXX 27034 07240 12/70 10702 10110 20080 30041 40175 58010 60006 80001 90300=
07240,1997-09-27 06:00:00,9,1017.1,-0.5,93,8,10000,0,,,0,8.7,20.8,,,,,,,,,wg-a,,,,AAXX 27064 07240 02/60 10000 10090 20080 30036 40171 55005 60006 80001 90600 333 10208 20087 60004=
07240,1997-09-27 09:00:00,18,1016.8,0.1,68,12,15000,7.408,,,80,,,,,,,,,,,wg-a,,,,AAXX 27094 07240 12/65 10804 10180 20120 30037 40168 52001 60006 80001 90900=
07240,1997-09-27 12:00:00,25,1015.2,-1.3,41,11,20000,7.408,,,360,,,,,,,,,,,wg-a,,,,AAXX 27124 07240 12/70 23604 10250 20110 30024 40152 57013 60006 80001 91200=
07240,1997-09-27 15:00:00,26,1013.5,-1.6,34,9,25000,7.408,,,330,,,,,,,,,,,wg-a,,,,AAXX 27154 07240 12/75 43304 10260 20090 30008 40135 56016 60006 80001 91500=
07240,1997-09-27 18:00:00,21,1014.1,0.4,40,7,25000,3.704,,,10,8.8,26.7,,,,,,,,,wg-a,,,,AAXX 27184 07240 12/75 20102 10210 20070 30012 40141 53004 60006 80001 91800 333 10267 20088=
07240,1997-09-27 21:00:00,17,1014.5,0.2,59,9,15000,7.408,,,20,,,,,,,,,,,wg-a,,,,AAXX 27214 07240 12/65 00204 10170 20090 30014 40145 50002 60006 80000 92100=
07240,1997-09-28 00:00:00,12,1014.3,-0.4,76,8,15000,3.704,,,340,,,,,,,,,,,wg-a,,,,AAXX 28004 07240 12/65 03402 10120 20080 30010 40143 56004 60006 80000 90000=
07240,1997-09-28 03:00:00,11,1014.5,0.1,87,9,15000,3.704,,,350,,,,,,,,,,,wg-a,,,,AAXX 28034 07240 12/65 03502 10110 20090 30011 40145 52001 60006 80000 90300=
07240,1997-09-28 06:00:00,9,1014.6,0.1,93,8,12000,3.704,,,350,8.6,21,,,,,,,,,wg-a,,,,AAXX 28064 07240 02762 33502 10090 20080 30012 40146 53001 60006 81531 90600 333 10210 20086 60004=
07240,1997-09-28 09:00:00,18,1019.2,,68,12,18000,3.704,,,170,,,,,,,,,,,wg-a,,,,AAXX 28094 07240 12/68 11702 10180 20120 30022 40192 60006 81360 90900=
07240,1997-09-28 12:00:00,25,1014.6,-0.4,39,10,25000,3.704,,,310,,,,,,,,,,,wg-a,,,,AAXX 28124 07240 12/75 13102 10250 20100 30018 40146 58004 60006 81030 91200=
07240,1997-09-28 15:00:00,26,1013.9,-0.6,26,5,500,11.112,,,330,,,,,,,,,,,wg-a,,,,AAXX 28154 07240 12/00 03306 10260 20050 30012 40139 56006 60006 80000 91500=
07240,1997-09-28 18:00:00,21,1015.3,1.2,43,8,500,7.408,,,10,9.3,26.2,,,,,,,,,wg-a,,,,AAXX 28184 07240 12/00 10104 10210 20080 30024 40153 53012 60006 80001 91800 333 10262 20093=
07240,1997-09-28 21:00:00,14,1016.7,1,67,8,10000,3.704,,,20,,,,,,,,,,,wg-a,,,,AAXX 28214 07240 12/60 /0202 10140 20080 30034 40167 52010 60006 92100=
07240,1997-09-29 00:00:00,12,1017.6,0.8,76,8,20000,3.704,,,310,,,,,,,,,,,wg-a,,,,AAXX 29004 07240 12/70 13102 10120 20080 30042 40176 53008 60006 80001 90000=
07240,1997-09-29 03:00:00,11,1018.3,0.7,76,7,15000,3.704,,,340,,,,,,,,,,,wg-a,,,,AAXX 29034 07240 12/65 13402 10110 20070 30049 40183 51007 60006 80001 90300=
07240,1997-09-29 06:00:00,9,1019.7,1.3,87,7,12000,3.704,,,360,8.9,21.3,,,,,,,,,wg-a,,,,AAXX 29064 07240 02/62 53602 10090 20070 30062 40197 53013 60006 80004 90600 333 10213 20089 60004=
07240,1997-09-29 09:00:00,18,1021.2,1.9,64,11,18000,3.704,,,20,,,,,,,,,,,wg-a,,,,AAXX 29094 07240 12/68 60202 10180 20110 30081 40212 53019 60006 81034 90900=
07240,1997-09-29 12:00:00,25,1021.1,0.2,32,7,25000,11.112,,,340,,,,,,,,,,,wg-a,,,,AAXX 29124 07240 12/75 63406 10250 20070 30083 40211 53002 60006 81031 91200=
07240,1997-09-29 15:00:00,26,1020.8,-0.3,28,6,25000,7.408,,,10,,,,,,,,,,,wg-a,,,,AAXX 29154 07240 12/75 50104 10260 20060 30080 40208 56003 60006 80001 91500=
07240,1997-09-29 18:00:00,21,1021.7,0.7,35,5,10000,3.704,,,360,8.6,25.6,,,,,,,,,wg-a,,,,AAXX 29184 07240 12/60 /3602 10210 20050 30087 40217 52007 60006 91800 333 10256 20086=
07240,1997-09-29 21:00:00,14,1023.1,1.1,63,7,25000,3.704,,,350,,,,,,,,,,,wg-a,,,,AAXX 29214 07240 12/75 53502 10140 20070 30098 40231 52011 60006 80001 92100=
07240,1997-09-30 00:00:00,13,1023.6,0.4,72,8,20000,3.704,,,30,,,,,,,,,,,wg-a,,,,AAXX 30004 07240 12/70 30302 10130 20080 30102 40236 52004 60006 80001 90000=
07240,1997-09-30 03:00:00,11,1024,0.3,82,8,15000,3.704,,,60,,,,,,,,,,,wg-a,,,,AAXX 30034 07240 12/65 20602 10110 20080 30105 40240 53003 60006 80001 90300=
07240,1997-09-30 06:00:00,10,1024.8,0.7,82,7,10000,3.704,,,80,9.8,21.1,,,,,,,,,wg-a,,,,AAXX 30064 07240 02/60 30802 10100 20070 30112 40248 52007 60006 80001 90600 333 10211 20098 60004=
07240,1997-09-30 09:00:00,20,1024.9,0.6,56,11,15000,3.704,,,60,,,,,,,,,,,wg-a,,,,AAXX 30094 07240 12/65 30602 10200 20110 30118 40249 51006 60006 80001 90900=
07240,1997-09-30 12:00:00,26,1024.1,-0.5,34,9,20000,11.112,,,90,,,,,,,,,,,wg-a,,,,AAXX 30124 07240 12/70 10906 10260 20090 30113 40241 58005 60006 80001 91200=
07240,1997-09-30 15:00:00,27,1023.3,-0.8,30,8,25000,7.408,,,70,,,,,,,,,,,wg-a,,,,AAXX 30154 07240 12/75 10704 10270 20080 30105 40233 56008 60006 80001 91500=
07240,1997-09-30 18:00:00,22,1023.2,-0.3,46,10,25000,7.408,,,90,9.7,27.1,,,,,,,,,wg-a,,,,AAXX 30184 07240 12/75 10904 10220 20100 30102 40232 56003 60006 80001 91800 333 10271 20097=
07240,1997-10-01 00:00:00,15,1023.1,-0.5,67,9,20000,0,,,0,,,,,,,,,,,wg-a,,,,AAXX 01004 07240 12/70 10000 10150 20090 30098 40231 58005 60006 80001 90000=
07240,1997-10-01 03:00:00,13,1023,-0.2,67,7,20000,7.408,,,40,,,,,,,,,,,wg-a,,,,AAXX 01034 07240 12/70 10404 10130 20070 30096 40230 58002 60006 80001 90300=
07240,1997-10-01 06:00:00,12,1022.6,-0.4,76,8,15000,0,,,0,11.9,21.7,,,,,,,,,wg-a,,,,AAXX 01064 07240 02/65 30000 10120 20080 30092 40226 56004 60006 81031 90600 333 10217 20119 60004=
07240,1997-10-01 12:00:00,25,1021.5,-0.6,39,10,15000,7.408,,,70,,,,,,,,,,,wg-a,,,,AAXX 01124 07240 12/65 40704 10250 20100 30087 40215 58006 60006 80001 91200=
07240,1997-10-01 15:00:00,27,1019.5,-1.9,32,9,20000,7.408,,,30,,,,,,,,,,,wg-a,,,,AAXX 01154 07240 12/70 30304 10270 20090 30068 40195 56019 60006 80001 91500=
07240,1997-10-01 18:00:00,21,1019.3,-0.5,49,10,10000,3.704,,,280,11.6,27,,,,,,,,,wg-a,,,,AAXX 01184 07240 12/60 /2802 10210 20100 30063 40193 56005 60006 91800 333 10270 20116=
07240,1997-10-01 21:00:00,17,1019.7,0.2,63,10,20000,7.408,,,350,,,,,,,,,,,wg-a,,,,AAXX 01214 07240 12/70 23504 10170 20100 30065 40197 50002 60006 80001 92100=
07240,1997-10-02 00:00:00,14,1019.3,-0.5,88,12,20000,7.408,,,350,,,,,,,,,,,wg-a,,,,AAXX 02004 07240 12/70 23504 10140 20120 30060 40193 58005 60006 80001 90000=
07240,1997-10-02 03:00:00,12,1018.9,-0.5,94,11,10000,3.704,,,290,,,,,,,,,,,wg-a,,,,AAXX 02034 07240 12/60 /2902 10120 20110 30055 40189 57005 60006 90300=
07240,1997-10-02 06:00:00,13,1019.3,0.5,100,13,400,18.52,,,350,10.1,21.1,,,,,,,,42,wg-a,,,,AAXX 02064 07240 02104 83510 10130 20130 30060 40193 53005 60006 74241 886// 90600 333 10211 20101 60004=
07240,1997-10-02 12:00:00,18,1019.7,-0.2,77,14,25000,11.112,,,10,,,,,,,,,,1,wg-a,,,,AAXX 02124 07240 12475 70106 10180 20140 30066 40197 58002 60006 70142 875// 91200=
07240,1997-10-02 15:00:00,20,1018.4,-1.2,68,14,25000,11.112,,,330,,,,,,,,,,,wg-a,,,,AAXX 02154 07240 12575 /3306 10200 20140 30054 40184 58012 60006 85500 91500=
07240,1997-10-02 18:00:00,16,1018.9,0.3,82,13,25000,7.408,,,280,13.3,20,,,,,,,,,wg-a,,,,AAXX 02184 07240 12/75 12804 10160 20130 30057 40189 53003 60006 80001 91800 333 10200 20133=
07240,1997-10-02 21:00:00,14,1019.5,0.5,94,13,25000,7.408,,,360,,,,,,,,,,,wg-a,,,,AAXX 02214 07240 12/75 03604 10140 20130 30062 40195 53005 60006 80000 92100=
07240,1997-10-03 00:00:00,14,1019.6,0.1,82,11,10000,14.816,,,50,,,,,,,,,,,wg-a,,,,AAXX 03004 07240 12/60 /0508 10140 20110 30063 40196 50001 60006 90000=
07240,1997-10-03 03:00:00,12,1019.4,-0.3,82,9,15000,14.816,,,50,,,,,,,,,,,wg-a,,,,AAXX 03034 07240 12/65 00508 10120 20090 30060 40194 58003 60006 80000 90300=
07240,1997-10-03 06:00:00,10,1020.1,0.6,87,8,20000,3.704,,,40,10.1,15.6,,,,,,,,,wg-a,,,,AAXX 03064 07240 02/70 00402 10100 20080 30066 40201 53006 60006 80000 90600 333 10156 20101 60004=
07240,1997-10-03 09:00:00,15,1020.5,0.6,72,10,20000,14.816,,,60,,,,,,,,,,,wg-a,,,,AAXX 03094 07240 12/70 00608 10150 20100 30072 40205 51006 60006 80000 90900=
07240,1997-10-03 12:00:00,21,1020,-0.2,49,10,20000,14.816,,,50,,,,,,,,,,,wg-a,,,,AAXX 03124 07240 12/70 00508 10210 20100 30070 40200 58002 60006 80000 91200=
07240,1997-10-03 15:00:00,22,1019.4,-0.5,41,8,25000,18.52,,,30,,,,,,,,,,,wg-a,,,,AAXX 03154 07240 12/75 00310 10220 20080 30065 40194 55005 60006 80000 91500=
07240,1997-10-03 18:00:00,17,1020.6,0.9,52,7,15000,11.112,,,40,10.1,22.1,,,,,,,,,wg-a,,,,AAXX 03184 07240 12/65 00406 10170 20070 30074 40206 53009 60006 80000 91800 333 10221 20101=
07240,1997-10-03 21:00:00,13,1021.9,1.1,67,7,10000,14.816,,,70,,,,,,,,,,,wg-a,,,,AAXX 03214 07240 12/60 00708 10130 20070 30085 40219 52011 60006 80000 92100=
07240,1997-10-04 00:00:00,10,1022.1,0.1,82,7,0,11.112,,,80,,,,,,,,,,,wg-a,,,,AAXX 04004 07240 12/// /0806 10100 20070 30086 40221 50001 60006 90000=
07240,1997-10-04 03:00:00,8,1022.6,0.4,87,6,10000,3.704,,,20,,,,,,,,,,,wg-a,,,,AAXX 04034 07240 12/60 00202 10080 20060 30090 40226 51004 60006 80000 90300=
07240,1997-10-04 06:00:00,7,1023.3,0.6,87,5,10000,7.408,,,50,6.8,16.8,,,,,,,,,wg-a,,,,AAXX 04064 07240 02/60 00504 10070 20050 30096 40233 53006 60006 80000 90600 333 10168 20068 60004=
07240,1997-10-04 09:00:00,16,1023.7,0.8,59,8,20000,7.408,,,100,,,,,,,,,,,wg-a,,,,AAXX 04094 07240 12/70 01004 10160 20080 30104 40237 52008 60006 80000 90900=
07240,1997-10-04 12:00:00,19,1023,-0.5,49,8,25000,11.112,,,70,,,,,,,,,,,wg-a,,,,AAXX 04124 07240 12/75 00706 10190 20080 30099 40230 58005 60006 80000 91200=
07240,1997-10-04 18:00:00,16,1021.1,-0.3,55,7,20000,3.704,,,80,7,20.7,,,,,,,,,wg-a,,,,AAXX 04184 07240 12/70 00802 10160 20070 30079 40211 55003 60006 80000 91800 333 10207 20070=
07240,1997-10-04 21:00:00,11,1020.7,-0.6,76,7,15000,14.816,,,80,,,,,,,,,,,wg-a,,,,AAXX 04214 07240 12/65 00808 10110 20070 30073 40207 58006 60006 80000 92100=
07240,1997-10-05 00:00:00,9,1020.2,-0.6,87,7,15000,7.408,,,70,,,,,,,,,,,wg-a,,,,AAXX 05004 07240 12/65 00704 10090 20070 30067 40202 58006 60006 80000 90000=
07240,1997-10-05 03:00:00,7,1019,-1.3,93,6,12000,3.704,,,60,,,,,,,,,,,wg-a,,,,AAXX 05034 07240 12/62 00602 10070 20060 30054 40190 57013 60006 80000 90300=
07240,1997-10-05 06:00:00,7,1018,-1,93,6,9000,7.408,,,60,7.1,15.9,,,,,,,,,wg-a,,,,AAXX 05064 07240 02/59 /0604 10070 20060 30044 40180 56010 60006 90600 333 10159 20071 60004=
07240,1997-10-05 09:00:00,15,1017.3,-0.3,63,8,15000,14.816,,,70,,,,,,,,,,,wg-a,,,,AAXX 05094 07240 12/65 00708 10150 20080 30041 40173 58003 60006 80000 90900=
07240,1997-10-05 11:00:00,20,1015.8,-1.3,46,8,10000,11.112,,,90,,,,,,,,,,,wg-a,,,,AAXX 05114 07240 12/60 /0906 10200 20080 30028 40158 57013 60006 91100=
07240,1997-10-05 12:00:00,20,1015.8,-1.3,46,8,10000,11.112,,,90,,,,,,,,,,,wg-a,,,,AAXX 05124 07240 12/60 /0906 10200 20080 30028 40158 57013 60006 91200=
07240,1997-10-05 15:00:00,22,1012.6,-3,41,8,20000,7.408,,,70,,,,,,,,,,,wg-a,,,,AAXX 05154 07240 12/70 00704 10220 20080 39998 40126 56030 60006 80000 91500=
07240,1997-10-05 18:00:00,17,1011.7,-1.2,55,8,20000,3.704,,,60,6.9,22.4,,,,,,,,,wg-a,,,,AAXX 05184 07240 12/70 00602 10170 20080 39986 40117 55012 60006 80000 91800 333 10224 20069=
07240,1997-10-05 21:00:00,13,1010.9,-0.9,72,8,20000,14.816,,,90,,,,,,,,,,,wg-a,,,,AAXX 05214 07240 12/70 50908 10130 20080 39977 40109 56009 60006 80001 92100=
07240,1997-10-06 00:00:00,12,1009.5,-1.4,82,9,20000,14.816,,,100,,,,,,,,,,,wg-a,,,,AAXX 06004 07240 12/70 31008 10120 20090 39963 40095 57014 60006 81031 90000=
07240,1997-10-06 06:00:00,14,1006.3,-1.2,94,13,12000,11.112,,,140,11.7,17,,,,,,,,,wg-a,,,,AAXX 06064 07240 02/62 41406 10140 20130 39932 40063 56012 60006 80002 90600 333 10170 20117 60004=
07240,1997-10-06 09:00:00,18,1005.9,-0.2,77,14,15000,14.816,,,170,,,,,,,,,,,wg-a,,,,AAXX 06094 07240 12/65 61708 10180 20140 39930 40059 57002 60006 80002 90900=
07240,1997-10-06 12:00:00,25,1004.3,-1.3,54,15,20000,25.928,,,200,,,,,,,,,,,wg-a,,,,AAXX 06124 07240 12/70 72014 10250 20150 39917 40043 56013 60006 80002 91200=
07240,1997-10-06 15:00:00,23,1003.4,-0.9,65,16,15000,22.224,,,220,,,,,,,,,,,wg-a,,,,AAXX 06154 07240 12665 82212 10230 20160 39908 40034 56009 60006 83132 91500=
07240,1997-10-06 18:00:00,21,1003.4,-0.2,69,15,12000,11.112,,,220,14,25.8,,,,,,,,13,wg-a,,,,AAXX 06184 07240 12662 82206 10210 20150 39906 40034 55002 60006 71322 8218/ 91800 333 10258 20140=
07240,1997-10-06 21:00:00,18,1003.8,0.3,88,16,10000,14.816,,,220,,,,0,,,,,,,wg-a,,,,AAXX 06214 07240 12660 82208 10180 20160 39909 40038 51003 60007 8118/ 92100=
07240,1997-10-07 00:00:00,17,1003.4,-0.4,94,16,7000,18.52,,,200,,,,3,,,,,,60,wg-a,,,,AAXX 07004 07240 02357 82010 10170 20160 39905 40034 57004 60036 76062 8377/ 90000 333 60037=
07240,1997-10-07 06:00:00,16,1002.9,0.4,94,15,10000,14.816,,,220,15.6,21,,,,,5,,,1,wg-a,,,,AAXX 07064 07240 02360 72208 10160 20150 39899 40029 51004 60006 70162 875// 90600 333 10210 20156 60054=
07240,1997-10-07 12:00:00,19,1005.6,1.6,73,14,20000,31.484,,48.152,250,,,,4,,,,,,1,wg-a,,,,AAXX 07124 07240 02570 72517 10190 20140 39927 40056 51016 60076 70186 85202 91200 333 60047 91026=
07240,1997-10-07 15:00:00,19,1006.9,1.3,49,8,500,35.188,,,260,,,,,,,,,,,wg-a,,,,AAXX 07154 07240 12600 52619 10190 20080 39940 40069 52013 60006 83232 91500=
07240,1997-10-07 18:00:00,16,1009,2,72,11,20000,14.816,,,220,15.6,20.7,,,,,,,,,wg-a,,,,AAXX 07184 07240 12770 52208 10160 20110 39960 40090 51020 60006 838/2 91800 333 10207 20156=
07240,1997-10-07 21:00:00,15,1010.6,1.5,82,12,15000,14.816,,,220,,,,,,,,,,,wg-a,,,,AAXX 07214 07240 12/65 02208 10150 20120 39975 40106 51015 60006 80000 92100=
07240,1997-10-08 00:00:00,15,1011.4,0.8,88,13,15000,18.52,,,210,,,,,,,,,,,wg-a,,,,AAXX 08004 07240 12/65 62110 10150 20130 39983 40114 51008 60006 84032 90000=
07240,1997-10-08 03:00:00,16,1011.5,0.1,88,14,10000,18.52,,,190,,,,,,,,,,,wg-a,,,,AAXX 08034 07240 12660 71910 10160 20140 39984 40115 50001 60006 83532 90300=
07240,1997-10-08 06:00:00,16,1011.4,-0.1,88,14,12000,18.52,,,200,14.6,16.4,,,,,,,,60,wg-a,,,,AAXX 08064 07240 02462 /2010 10160 20140 39983 40114 57001 61000 76061 83572 90600 333 10164 20146 6007=
07240,1997-10-08 12:00:00,20,1010.8,-1.3,68,14,15000,35.188,,55.56,210,,,,,,,,,,1,wg-a,,,,AAXX 08124 07240 02565 72119 10200 20140 39979 40108 57013 61000 70162 84272 91200 333 //// 91030=
07240,1997-10-08 18:00:00,20,1010.9,0.7,64,13,20000,31.484,,53.708,220,15.8,20.8,,,,,,,,,wg-a,,,,AAXX 08184 07240 12670 72217 10200 20130 39980 40109 53007 60006 875// 91800 333 10208 20158 91029=
07240,1997-10-08 21:00:00,19,1011.4,0.5,73,14,20000,29.632,,,220,,,,,,,,,,,wg-a,,,,AAXX 08214 07240 12570 72216 10190 20140 39985 40114 53005 60006 875// 92100=
07240,1997-10-09 00:00:00,18,1011.4,-0.1,77,14,20000,22.224,,,210,,,,,,,,,,,wg-a,,,,AAXX 09004 07240 12370 72112 10180 20140 39984 40114 57001 60006 875// 90000=
07240,1997-10-09 03:00:00,17,1011.5,0.1,88,15,15000,22.224,,,220,,,,0,,,,,,61,wg-a,,,,AAXX 09034 07240 12265 82212 10170 20150 39985 40115 52001 60007 76162 8552/ 90300=
07240,1997-10-09 06:00:00,18,1011.9,0.4,83,15,10000,25.928,,,220,17,19.8,,,,,,,,3,wg-a,,,,AAXX 09064 07240 02460 82214 10180 20150 39989 40119 53004 60006 70362 8552/ 90600 333 10198 20170 60004=
07240,1997-10-09 09:00:00,19,1013.7,1.8,88,17,10000,22.224,,,230,,,,,,,,,,1,wg-a,,,,AAXX 09094 07240 02460 82312 10190 20170 30007 40137 51018 61000 70152 8672/ 90900 333 ////=
07240,1997-10-09 12:00:00,24,1013.6,0.2,57,15,15000,35.188,,,250,,,,,,,,,,1,wg-a,,,,AAXX 09124 07240 02665 /2519 10240 20150 30009 40136 50002 61000 70152 85800 91200 333 ////=
07240,1997-10-09 15:00:00,23,1014.3,0.6,53,13,15000,31.484,,50.004,250,,,,,,,,,,,wg-a,,,,AAXX 09154 07240 12665 /2517 10230 20130 30015 40143 53006 60006 84270 91500 333 91027=
07240,1997-10-09 18:00:00,20,1015.4,0.9,68,14,15000,22.224,,,240,16.9,24.6,,,,,,,,,wg-a,,,,AAXX 09184 07240 12665 /2412 10200 20140 30024 40154 53009 60006 85102 91800 333 10246 20169=
07240,1997-10-09 21:00:00,18,1015.5,0.1,83,15,15000,18.52,,,230,,,,,,,,,,,wg-a,,,,AAXX 09214 07240 12/65 62310 10180 20150 30025 40155 50001 60006 80002 92100=
07240,1997-10-10 00:00:00,18,1014,-1.5,88,16,15000,22.224,,,220,,,,,,,,,,,wg-a,,,,AAXX 10004 07240 12465 /2212 10180 20160 30010 40140 56015 60006 84102 90000=
07240,1997-10-10 03:00:00,18,1012.2,-1.8,88,16,10000,18.52,,,220,,,,,,,,,,61,wg-a,,,,AAXX 10034 07240 02460 82210 10180 20160 39992 40122 58018 61000 76162 865// 90300 333 ////=
07240,1997-10-10 06:00:00,16,1009.7,-2.5,100,16,6000,11.112,,,230,16.4,19.7,,,,,,,,61,wg-a,,,,AAXX 10064 07240 02356 82306 10160 20160 39967 40097 56025 61000 76162 845// 90600 333 10197 20164 6005=
07240,1997-10-10 09:00:00,18,1008.4,-1.2,100,18,4000,25.928,,,240,,,,9,,,,,,10,wg-a,,,,AAXX 10094 07240 12240 82414 10180 20180 39955 40084 55012 60097 71065 885// 90900=
07240,1997-10-10 12:00:00,20,1009.6,1.2,88,18,15000,22.224,,,280,,,,0,,,,,,20,wg-a,,,,AAXX 10124 07240 02465 72812 10200 20180 39967 40096 51012 60096 72065 875// 91200 333 60007=
07240,1997-10-10 15:00:00,20,1010.4,0.8,78,16,15000,29.632,,,300,,,,0,,,,,,1,wg-a,,,,AAXX 10154 07240 12465 53016 10200 20160 39975 40104 53008 60007 70162 8553/ 91500=
07240,1997-10-10 18:00:00,15,1013.6,2.9,77,11,20000,14.816,,,310,14.8,20.4,,,,,,,,1,wg-a,,,,AAXX 10184 07240 12/70 13108 10150 20110 30004 40136 53029 60006 70161 80002 91800 333 10204 20148=
07240,1997-10-10 21:00:00,11,1016,2.2,87,9,20000,11.112,,,320,,,,,,,,,,,wg-a,,,,AAXX 10214 07240 12/70 03206 10110 20090 30026 40160 51022 60006 80000 92100=
07240,1997-10-11 00:00:00,9,1016.6,0.5,93,8,15000,3.704,,,260,,,,,,,,,,,wg-a,,,,AAXX 11004 07240 12/65 12602 10090 20080 30031 40166 51005 60006 80002 90000=
07240,1997-10-11 03:00:00,8,1015.7,-0.9,93,7,15000,3.704,,,220,,,,0,,,,,,,wg-a,,,,AAXX 11034 07240 12665 22202 10080 20070 30022 40157 58009 60007 82502 90300=
07240,1997-10-11 06:00:00,10,1014.6,-1,93,9,15000,7.408,,,240,7.6,14.8,,,,,10,,,,wg-a,,,,AAXX 11064 07240 02565 /2404 10100 20090 30012 40146 56010 60006 85502 90600 333 10148 20076 60104=
07240,1997-10-11 12:00:00,15,1009.7,-2.9,82,12,11000,18.52,,,200,,,,,,,,,,,wg-a,,,,AAXX 11124 07240 12/61 /2010 10150 20120 39966 40097 58029 60006 91200=
07240,1997-10-11 15:00:00,16,1005.4,-4.2,94,15,8000,18.52,,,210,,,,1,,,,,,21,wg-a,,,,AAXX 11154 07240 12258 82110 10160 20150 39924 40054 57042 60017 72165 877// 91500=
07240,1997-10-11 18:00:00,18,1003.2,-2.1,94,17,10000,29.632,,,250,9.6,17.9,,,,,,,,20,wg-a,,,,AAXX 11184 07240 02360 82516 10180 20170 39903 40032 56021 61000 72065 875// 91800 333 10179 20096 6100=
07240,1997-10-11 21:00:00,16,1003.1,-0.2,94,15,10000,29.632,,,250,,,,,,,,,,,wg-a,,,,AAXX 11214 07240 12460 72516 10160 20150 39901 40031 58002 60006 875// 92100=
07240,1997-10-12 00:00:00,14,1003.7,0.5,82,11,10000,25.928,,,270,,,,1,,,,,,,wg-a,,,,AAXX 12004 07240 02660 72714 10140 20110 39906 40037 53005 60016 875// 90000 333 60017=
07240,1997-10-12 03:00:00,14,1002.3,-1.4,72,9,10000,31.484,,48.152,260,,,,,,,,,,,wg-a,,,,AAXX 12034 07240 12660 /2617 10140 20090 39892 40023 58014 60006 86500 90300 333 91026=
07240,1997-10-12 06:00:00,12,1002.3,-0,88,10,15000,31.484,,,270,12.3,17.9,,,,,,,,21,wg-a,,,,AAXX 12064 07240 02465 72717 10120 20100 39892 40023 54000 61000 72162 878// 90600 333 10179 20123 6002=
07240,1997-10-12 09:00:00,14,1006.9,4.6,82,11,25000,35.188,,,330,,,,0,,,,,,1,wg-a,,,,AAXX 12094 07240 12475 73319 10140 20110 39938 40069 53046 60007 70162 872// 90900=
07240,1997-10-12 12:00:00,16,1012.2,5.3,48,5,500,25.928,,,360,,,,,,,,,,3,wg-a,,,,AAXX 12124 07240 12600 33614 10160 20050 39991 40122 51053 60006 70361 83800 91200=
07240,1997-10-12 18:00:00,12,1016.8,1.8,76,8,15000,18.52,,,330,11.7,16.3,,,,,,,,1,wg-a,,,,AAXX 12184 07240 12765 53310 10120 20080 30034 40168 53018 60006 70186 84530 91800 333 10163 20117=
07240,1997-10-12 21:00:00,10,1018.9,2,82,7,15000,7.408,,,320,,,,,,,,,,,wg-a,,,,AAXX 12214 07240 12765 63204 10100 20070 30054 40189 52020 60006 86500 92100=
07240,1997-10-13 00:00:00,8,1019.4,0.4,93,7,15000,7.408,,,10,,,,,,,,,,,wg-a,,,,AAXX 13004 07240 12765 60104 10080 20070 30058 40194 50004 60006 86500 90000=
07240,1997-10-13 03:00:00,7,1019.4,-0,93,6,15000,7.408,,,310,,,,0,,,,,,,wg-a,,,,AAXX 13034 07240 12765 63104 10070 20060 30058 40194 55000 60007 86500 90300=
07240,1997-10-13 06:00:00,7,1019.4,-0,93,6,10000,11.112,,,290,5.8,11.7,,,,,,,,1,wg-a,,,,AAXX 13064 07240 02760 62906 10070 20060 30058 40194 55000 60006 70162 86500 90600 333 10117 20058 60004=
07240,1997-10-13 09:00:00,9,1020.2,0.9,93,8,10000,11.112,,,300,,,,,,,,,,21,wg-a,,,,AAXX 13094 07240 02460 73006 10090 20080 30067 40202 52009 61000 72162 878// 90900 333 ////=
07240,1997-10-13 12:00:00,13,1019.4,-0.6,58,5,20000,22.224,,,320,,,,,,,,,,3,wg-a,,,,AAXX 13124 07240 02570 73212 10130 20050 30061 40194 58006 61000 70362 84231 91200 333 ////=
07240,1997-10-13 15:00:00,12,1019.1,-0.4,67,6,20000,29.632,,,300,,,,,,,,,,25,wg-a,,,,AAXX 13154 07240 02570 73016 10120 20060 30057 40191 56004 61000 72586 878// 91500 333 ////=
07240,1997-10-13 18:00:00,11,1019.5,0.4,82,8,15000,14.816,,,270,7.1,13.7,,,,,,,,3,wg-a,,,,AAXX 13184 07240 02565 82708 10110 20080 30061 40195 53004 60006 70386 878// 91800 333 10137 20071 61000=
07240,1997-10-13 21:00:00,8,1022,2.3,93,7,20000,14.816,,,350,,,,0,,,,,,1,wg-a,,,,AAXX 13214 07240 12770 13508 10080 20070 30084 40220 51023 60007 70161 81500 92100=
07240,1997-10-14 00:00:00,6,1024,1.8,93,5,15000,14.816,,,340,,,,,,,,,,2,wg-a,,,,AAXX 14004 07240 12/65 03408 10060 20050 30102 40240 51018 60006 70261 80000 90000=
07240,1997-10-14 03:00:00,4,1024.5,0.5,100,4,15000,11.112,,,330,,,,,,,,,,,wg-a,,,,AAXX 14034 07240 32/65 03306 10040 20040 30107 40245 53005 80000 90300=
07240,1997-10-14 06:00:00,3,1025.9,1.3,93,2,10000,11.112,,,320,2.8,11.2,,,,,1,,,,wg-a,,,,AAXX 14064 07240 02/60 03206 10030 20020 30120 40259 53013 60006 80000 90600 333 10112 20028 60014=
07240,1997-10-14 09:00:00,8,1027.2,1.5,87,6,20000,14.816,,,350,,,,0,,,,,,,wg-a,,,,AAXX 14094 07240 12/70 13508 10080 20060 30135 40272 51015 60007 80001 90900=
07240,1997-10-14 12:00:00,12,1026.9,-0.1,62,5,25000,14.816,,,340,,,,,,,,,,,wg-a,,,,AAXX 14124 07240 12575 43408 10120 20050 30134 40269 58001 60006 84101 91200=
07240,1997-10-14 15:00:00,12,1025.5,-1.4,54,3,25000,14.816,,,310,,,,,,,,,,,wg-a,,,,AAXX 14154 07240 12675 43108 10120 20030 30120 40255 56014 60006 84801 91500=
07240,1997-10-14 18:00:00,9,1025.2,-0.4,71,4,25000,7.408,,,260,2.7,13.1,,,,,,,,,wg-a,,,,AAXX 14184 07240 12775 52604 10090 20040 30116 40252 55004 60006 81531 91800 333 10131 20027=
07240,1997-10-14 21:00:00,9,1025,-0.2,71,4,25000,11.112,,,270,,,,,,,,,,,wg-a,,,,AAXX 14214 07240 12775 72706 10090 20040 30114 40250 58002 60006 8257/ 92100=
07240,1997-10-15 00:00:00,9,1023.4,-1.6,76,5,20000,11.112,,,240,,,,,,,,,,,wg-a,,,,AAXX 15004 07240 12570 82406 10090 20050 30098 40234 58016 60006 8587/ 90000=
07240,1997-10-15 03:00:00,9,1020.5,-2.9,87,7,6000,18.52,,,240,,,,1,,,,,,61,wg-a,,,,AAXX 15034 07240 12656 82410 10090 20070 30069 40205 58029 60017 76162 8557/ 90300=
07240,1997-10-15 06:00:00,8,1018.4,-2,100,8,6000,14.816,,,210,8.2,9.3,,,,,,,,63,wg-a,,,,AAXX 15064 07240 02156 82108 10080 20080 30049 40184 58020 61000 76362 877// 90600 333 10093 20082 6005=
07240,1997-10-15 09:00:00,10,1015.5,-2.8,93,9,2000,25.928,,,230,,,,1,,,,,,51,wg-a,,,,AAXX 15094 07240 12220 82314 10100 20090 30021 40155 58028 60017 75165 887// 90900=
07240,1997-10-15 12:00:00,13,1013.3,-2,100,13,3000,22.224,,,250,,,,1,,,,,,51,wg-a,,,,AAXX 15124 07240 02130 82512 10130 20130 30001 40133 57020 60026 75165 887// 91200 333 60017=
07240,1997-10-15 15:00:00,16,1011.9,-1.3,94,15,10000,14.816,,,270,,,,1,,,,,,60,wg-a,,,,AAXX 15154 07240 12460 72708 10160 20150 39988 40119 57013 60017 76065 878// 91500=
07240,1997-10-15 18:00:00,13,1012.4,0.4,94,12,20000,14.816,,,290,8.3,16,,0,,,,,,1,wg-a,,,,AAXX 15184 07240 02770 12908 10130 20120 39992 40124 53004 60006 70165 81501 91800 333 10160 20083 60007=
07240,1997-10-15 21:00:00,12,1013.9,1.4,94,11,15000,14.816,,,290,,,,0,,,,,,,wg-a,,,,AAXX 15214 07240 12/65 22908 10120 20110 30006 40139 52014 60007 80001 92100=
07240,1997-10-16 00:00:00,11,1014.5,0.5,94,10,15000,11.112,,,290,,,,,,,,,,,wg-a,,,,AAXX 16004 07240 12765 32906 10110 20100 30011 40145 51005 60006 82531 90000=
07240,1997-10-16 03:00:00,10,1014.2,-0.3,93,9,500,11.112,,,270,,,,,,,,,,,wg-a,,,,AAXX 16034 07240 12/00 72706 10100 20090 30008 40142 58003 60006 80006 90300=
07240,1997-10-16 06:00:00,12,1015.4,1.3,94,11,500,7.408,,,280,9.5,13.2,,,,,3,,,,wg-a,,,,AAXX 16064 07240 02100 82804 10120 20110 30021 40154 53013 60006 886// 90600 333 10132 20095 60034=
07240,1997-10-16 12:00:00,17,1016,-0.3,72,12,20000,0,,,0,,,,0,,,,,,,wg-a,,,,AAXX 16124 07240 02570 60000 10170 20120 30029 40160 58003 60006 84232 91200 333 60007=
07240,1997-10-16 15:00:00,17,1015.3,-0.7,68,11,25000,7.408,,,230,,,,,,,,,,,wg-a,,,,AAXX 16154 07240 12575 /2304 10170 20110 30022 40153 56007 60006 85802 91500=
07240,1997-10-16 18:00:00,16,1015.9,0.6,72,11,20000,3.704,,,220,11.5,18.1,,,,,,,,,wg-a,,,,AAXX 16184 07240 12670 72202 10160 20110 30028 40159 53006 60006 875// 91800 333 10181 20115=
07240,1997-10-17 00:00:00,11,1015.5,-0.9,100,11,10000,7.408,,,150,,,,,,,,,,,wg-a,,,,AAXX 17004 07240 12/60 /1504 10110 20110 30021 40155 57009 60006 90000=
07240,1997-10-17 03:00:00,10,1014.8,-0.7,93,9,10000,7.408,,,140,,,,,,,,,,,wg-a,,,,AAXX 17034 07240 12/60 01404 10100 20090 30014 40148 58007 60006 80000 90300=
07240,1997-10-17 06:00:00,8,1014,-0.9,100,8,10000,11.112,,,100,8.1,16,,,,,,,,,wg-a,,,,AAXX 17064 07240 02/60 31006 10080 20080 30005 40140 58009 60006 80001 90600 333 10160 20081 60004=
07240,1997-10-17 09:00:00,13,1014.6,0.8,82,10,12000,11.112,,,130,,,,0,,,,,,,wg-a,,,,AAXX 17094 07240 12/62 51306 10130 20100 30013 40146 53008 60007 80001 90900=
07240,1997-10-17 12:00:00,18,1013.1,-1.2,68,12,20000,14.816,,,130,,,,,,,,,,,wg-a,,,,AAXX 17124 07240 12/70 61308 10180 20120 30001 40131 58012 60006 80002 91200=
07240,1997-10-17 15:00:00,19,1012.1,-1,64,12,500,18.52,,,130,,,,,,,,,,,wg-a,,,,AAXX 17154 07240 12/00 51310 10190 20120 39991 40121 56010 60006 80002 91500=
07240,1997-10-17 18:00:00,15,1013,0.8,82,12,20000,14.816,,,110,8.1,19.7,,,,,,,,,wg-a,,,,AAXX 17184 07240 12/70 11108 10150 20120 39999 40130 53008 60006 80001 91800 333 10197 20081=
07240,1997-10-17 21:00:00,13,1014.2,1.1,94,12,20000,11.112,,,120,,,,,,,,,,,wg-a,,,,AAXX 17214 07240 12/70 11206 10130 20120 30010 40142 51011 60006 80001 92100=
07240,1997-10-18 00:00:00,13,1015.2,0.9,88,11,20000,11.112,,,120,,,,,,,,,,,wg-a,,,,AAXX 18004 07240 12/70 11206 10130 20110 30019 40152 51009 60006 80001 90000=
07240,1997-10-18 03:00:00,11,1015.9,0.6,87,9,20000,14.816,,,110,,,,,,,,,,,wg-a,,,,AAXX 18034 07240 12/70 11108 10110 20090 30025 40159 52006 60006 80001 90300=
07240,1997-10-18 06:00:00,9,1017.2,1.2,93,8,15000,11.112,,,90,8.8,15.3,,,,,,,,,wg-a,,,,AAXX 18064 07240 02/65 20906 10090 20080 30037 40172 53012 60006 80001 90600 333 10153 20088 60004=
07240,1997-10-18 09:00:00,17,1018.2,1.4,72,12,25000,14.816,,,130,,,,,,,,,,,wg-a,,,,AAXX 18094 07240 12/75 11308 10170 20120 30051 40182 51014 60006 80001 90900=
07240,1997-10-18 12:00:00,22,1017.3,-0.7,57,13,500,14.816,,,150,,,,,,,,,,,wg-a,,,,AAXX 18124 07240 12/00 11508 10220 20130 30044 40173 58007 60006 80001 91200=
07240,1997-10-18 15:00:00,23,1016.9,-0.4,57,14,500,14.816,,,140,,,,,,,,,,,wg-a,,,,AAXX 18154 07240 12/00 11408 10230 20140 30040 40169 56004 60006 80001 91500=
07240,1997-10-18 18:00:00,16,1017.2,0.1,88,14,500,14.816,,,90,8.7,22.8,,,,,,,,,wg-a,,,,AAXX 18184 07240 12/00 00908 10160 20140 30041 40172 53001 60006 80000 91800 333 10228 20087=
07240,1997-10-18 21:00:00,14,1017.5,0.1,88,12,500,11.112,,,120,,,,,,,,,,,wg-a,,,,AAXX 18214 07240 12/00 01206 10140 20120 30042 40175 53001 60006 80000 92100=
07240,1997-10-19 00:00:00,14,1017,-0.5,88,12,20000,11.112,,,130,,,,,,,,,,,wg-a,,,,AAXX 19004 07240 12/70 01306 10140 20120 30037 40170 58005 60006 80000 90000=
07240,1997-10-19 03:00:00,10,1016.6,-0.5,100,10,15000,11.112,,,110,,,,,,,,,,,wg-a,,,,AAXX 19034 07240 32/65 01106 10100 20100 30032 40166 56005 80000 90300=
07240,1997-10-19 06:00:00,9,1016.2,-0.5,100,9,10000,11.112,,,90,9.2,16.8,,,,,,,,,wg-a,,,,AAXX 19064 07240 02/60 10906 10090 20090 30027 40162 57005 60006 81031 90600 333 10168 20092 60004=
07240,1997-10-19 09:00:00,15,1016.5,0.6,82,12,20000,11.112,,,110,,,,0,,,,,,,wg-a,,,,AAXX 19094 07240 12/70 71106 10150 20120 30033 40165 51006 60007 83032 90900=
07240,1997-10-19 12:00:00,20,1015.6,-0.7,56,11,25000,11.112,,,170,,,,,,,,,,,wg-a,,,,AAXX 19124 07240 12/75 71706 10200 20110 30026 40156 58007 60006 84082 91200=
07240,1997-10-19 15:00:00,19,1015,-0.6,64,12,25000,11.112,,,170,,,,,,,,,,,wg-a,,,,AAXX 19154 07240 12775 71706 10190 20120 30020 40150 56006 60006 8451/ 91500=
07240,1997-10-19 18:00:00,17,1014.6,-0.5,77,13,15000,7.408,,,130,9.1,20.2,,,,,,,,,wg-a,,,,AAXX 19184 07240 12765 71304 10170 20130 30015 40146 55005 60006 8551/ 91800 333 10202 20091=
07240,1997-10-20 00:00:00,14,1013.8,-0.7,88,12,0,3.704,,,110,,,,,,,,,,,wg-a,,,,AAXX 20004 07240 12/// /1102 10140 20120 30006 40138 56007 60006 90000=
07240,1997-10-20 06:00:00,14,1012.2,-0.3,94,13,15000,7.408,,,110,13.3,16.8,,,,,,,,,wg-a,,,,AAXX 20064 07240 02765 71104 10140 20130 39990 40122 58003 60006 8553/ 90600 333 10168 20133 60004=
07240,1997-10-20 09:00:00,15,1011.3,-0.8,94,14,12000,14.816,,,80,,,,1,,,,,,21,wg-a,,,,AAXX 20094 07240 12762 70808 10150 20140 39982 40113 58008 60017 72162 8457/ 90900=
07240,1997-10-20 12:00:00,18,1010.2,-1,83,15,15000,14.816,,,100,,,,,,,,,,2,wg-a,,,,AAXX 20124 07240 12765 71008 10180 20150 39972 40102 58010 60016 70262 8357/ 91200=
07240,1997-10-20 15:00:00,19,1008.9,-1.2,78,15,15000,18.52,,,70,,,,,,,,,,,wg-a,,,,AAXX 20154 07240 12/65 70710 10190 20150 39960 40089 56012 60006 85082 91500=
07240,1997-10-20 18:00:00,16,1009.5,0.5,88,14,15000,18.52,,,70,14.2,18.5,,,,,,,,,wg-a,,,,AAXX 20184 07240 12/65 70710 10160 20140 39965 40095 53005 60006 85072 91800 333 10185 20142=
07240,1997-10-20 21:00:00,15,1009.6,0,88,13,15000,18.52,,,80,,,,,,,,,,,wg-a,,,,AAXX 20214 07240 12765 70810 10150 20130 39965 40096 50000 60006 875// 92100=
07240,1997-10-21 00:00:00,14,1009.3,-0.3,94,13,8000,22.224,,,60,,,,,,,,,,21,wg-a,,,,AAXX 21004 07240 02758 80612 10140 20130 39962 40093 57003 61000 72162 875// 90000 333 6100=
07240,1997-10-21 03:00:00,14,1009.3,-0.1,88,12,8000,25.928,,,60,,,,,,,,,,,wg-a,,,,AAXX 21034 07240 12358 80614 10140 20120 39961 40093 55001 60006 877// 90300=
07240,1997-10-21 06:00:00,13,1009.2,-0.1,94,12,8000,25.928,,,70,12.8,16.3,,,,,1,,,,wg-a,,,,AAXX 21064 07240 02258 80714 10130 20120 39960 40092 57001 60006 877// 90600 333 10163 20128 60014=
07240,1997-10-21 09:00:00,12,1010.7,1.5,94,11,4500,22.224,,,70,,,,,,,,,,10,wg-a,,,,AAXX 21094 07240 12245 80712 10120 20110 39975 40107 51015 60006 71022 887// 90900=
07240,1997-10-21 12:00:00,14,1011.1,0.4,82,11,8000,18.52,,,60,,,,,,,,,,,wg-a,,,,AAXX 21124 07240 12458 80610 10140 20110 39979 40111 50004 60006 887// 91200=
07240,1997-10-21 15:00:00,13,1011.5,0.4,82,10,8000,22.224,,,60,,,,,,,,,,,wg-a,,,,AAXX 21154 07240 12458 70612 10130 20100 39983 40115 53004 60006 877// 91500=
07240,1997-10-21 18:00:00,12,1012.7,1.1,88,10,8000,18.52,,,80,12,14.5,,,,,,,,,wg-a,,,,AAXX 21184 07240 12/58 /0810 10120 20100 39994 40127 53011 60006 91800 333 10145 20120=
07240,1997-10-21 21:00:00,12,1012.9,0.2,88,10,8000,11.112,,,60,,,,,,,,,,,wg-a,,,,AAXX 21214 07240 12458 80606 10120 20100 39996 40129 53002 60006 877// 92100=
07240,1997-10-22 00:00:00,12,1012,-0.9,88,10,8000,11.112,,,60,,,,,,,,,,,wg-a,,,,AAXX 22004 07240 12458 80606 10120 20100 39987 40120 57009 60006 877// 90000=
07240,1997-10-22 03:00:00,11,1011.6,-0.4,87,9,8000,3.704,,,30,,,,,,,,,,,wg-a,,,,AAXX 22034 07240 12358 80302 10110 20090 39983 40116 57004 60006 887// 90300=
07240,1997-10-22 06:00:00,10,1010.6,-1.1,93,9,6000,11.112,,,70,9.7,12.1,,,,,,,,,wg-a,,,,AAXX 22064 07240 02156 80706 10100 20090 39972 40106 56011 60006 887// 90600 333 10121 20097 60004=
07240,1997-10-22 09:00:00,11,1011.5,1,87,9,500,11.112,,,80,,,,,,,,,,,wg-a,,,,AAXX 22094 07240 12/00 /0806 10110 20090 39982 40115 51010 60006 90900=
07240,1997-10-22 12:00:00,14,1010.7,-0.7,82,11,10000,7.408,,,100,,,,,,,,,,,wg-a,,,,AAXX 22124 07240 12460 81004 10140 20110 39975 40107 58007 60006 875// 91200=
07240,1997-10-22 15:00:00,15,1010.2,-0.4,77,11,12000,7.408,,,60,,,,,,,,,,,wg-a,,,,AAXX 22154 07240 12462 80604 10150 20110 39971 40102 58004 60006 875// 91500=
07240,1997-10-22 18:00:00,13,1011.4,1.1,88,11,10000,11.112,,,50,9.6,15.1,,,,,,,,,wg-a,,,,AAXX 22184 07240 12460 70506 10130 20110 39982 40114 52011 60006 875// 91800 333 10151 20096=
07240,1997-10-22 21:00:00,12,1011.6,0.1,94,11,8000,7.408,,,60,,,,1,,,,,,61,wg-a,,,,AAXX 22214 07240 12758 70604 10120 20110 39983 40116 53001 60017 76162 8557/ 92100=
07240,1997-10-23 00:00:00,12,1011.7,0.1,94,11,8000,7.408,,,40,,,,,,,,,,2,wg-a,,,,AAXX 23004 07240 02458 70404 10120 20110 39984 40117 51001 60016 70262 855// 90000 333 61000=
07240,1997-10-23 03:00:00,11,1011.4,-0.3,94,10,8000,7.408,,,50,,,,,,,,,,,wg-a,,,,AAXX 23034 07240 12458 70504 10110 20100 39981 40114 58003 60006 855// 90300=
07240,1997-10-23 06:00:00,10,1011.5,0,93,9,500,11.112,,,40,9.9,13.2,,,,,1,,,,wg-a,,,,AAXX 23064 07240 02400 80406 10100 20090 39981 40115 50000 60006 855// 90600 333 10132 20099 60014=
07240,1997-10-23 09:00:00,10,1012.7,1.2,93,9,4500,14.816,,,50,,,,,,,,,,10,wg-a,,,,AAXX 23094 07240 12545 80508 10100 20090 39993 40127 53012 60006 71022 875// 90900=
07240,1997-10-23 12:00:00,12,1013,0.4,82,9,4500,11.112,,,40,,,,,,,,,,,wg-a,,,,AAXX 23124 07240 12/45 /0406 10120 20090 39997 40130 52004 60006 91200=
07240,1997-10-23 18:00:00,9,1014.6,1.4,87,7,60000,11.112,,,40,9.3,12.3,,,,,,,,,wg-a,,,,AAXX 23184 07240 12586 80406 10090 20070 30011 40146 53014 60006 8657/ 91800 333 10123 20093=
07240,1997-10-24 00:00:00,4,1018.1,1.4,93,3,3000,11.112,,,70,,,,0,,,,,,10,wg-a,,,,AAXX 24004 07240 02730 70706 10040 20030 30043 40181 52014 60006 71022 875// 90000 333 60007=
07240,1997-10-24 03:00:00,4,1019,0.9,87,2,3000,11.112,,,60,,,,,,,,,,,wg-a,,,,AAXX 24034 07240 12/30 /0606 10040 20020 30052 40190 53009 60006 90300=
07240,1997-10-24 06:00:00,3,1021.3,2.2,93,2,10000,11.112,,,50,2.9,9.2,,,,,,,,,wg-a,,,,AAXX 24064 07240 02/60 00506 10030 20020 30074 40213 53022 60006 80000 90600 333 10092 20029 60004=
07240,1997-10-24 09:00:00,7,1023.1,2,81,4,12000,14.816,,,70,,,,,,,,,,,wg-a,,,,AAXX 24094 07240 32/62 00708 10070 20040 30094 40231 51020 80000 90900=
07240,1997-10-24 12:00:00,11,1023.5,0.6,58,3,12000,29.632,,,60,,,,,,,,,,,wg-a,,,,AAXX 24124 07240 12662 70616 10110 20030 30100 40235 51006 60006 875// 91200=
07240,1997-10-24 15:00:00,12,1023.6,0.1,54,3,20000,22.224,,,50,,,,,,,,,,,wg-a,,,,AAXX 24154 07240 12670 20512 10120 20030 30101 40236 53001 60006 82500 91500=
07240,1997-10-24 18:00:00,9,1025.2,1.5,71,4,15000,18.52,,,50,2.6,12.7,,,,,,,,,wg-a,,,,AAXX 24184 07240 12665 30510 10090 20040 30116 40252 53015 60006 83500 91800 333 10127 20026=
07240,1997-10-24 21:00:00,5,1026.4,1,87,3,15000,14.816,,,60,,,,,,,,,,,wg-a,,,,AAXX 24214 07240 12/65 00608 10050 20030 30126 40264 53010 60006 80000 92100=
07240,1997-10-25 00:00:00,4,1026.6,0.1,81,1,15000,14.816,,,70,,,,,,,,,,,wg-a,,,,AAXX 25004 07240 12/65 00708 10040 20010 30127 40266 53001 60006 80000 90000=
07240,1997-10-25 03:00:00,2,1027,0.3,87,0,10000,14.816,,,70,,,,,,,,,,,wg-a,,,,AAXX 25034 07240 12/60 00708 10020 20000 30130 40270 50003 60006 80000 90300=
07240,1997-10-25 06:00:00,1,1027.5,0.5,86,-1,10000,14.816,,,70,1.3,8.7,,,,,,,,,wg-a,,,,AAXX 25064 07240 02/60 00708 10010 21010 30135 40275 53005 60006 80000 90600 333 10087 20013 60004=
07240,1997-10-25 09:00:00,6,1028.1,0.8,70,1,20000,22.224,,,80,,,,,,,,,,,wg-a,,,,AAXX 25094 07240 12/70 00812 10060 20010 30143 40281 51008 60006 80000 90900=
07240,1997-10-25 12:00:00,11,1027.1,-0.8,47,0,500,25.928,,,90,,,,,,,,,,,wg-a,,,,AAXX 25124 07240 12/00 00914 10110 20000 30135 40271 58008 60006 80000 91200=
07240,1997-10-25 15:00:00,12,1025.8,-1.2,44,0,500,22.224,,,70,,,,,,,,,,,wg-a,,,,AAXX 25154 07240 12/00 00712 10120 20000 30123 40258 56012 60006 80000 91500=
07240,1997-10-25 18:00:00,7,1026.3,0.3,70,2,20000,14.816,,,60,1.1,12.6,,,,,,,,,wg-a,,,,AAXX 25184 07240 12/70 00608 10070 20020 30126 40263 53003 60006 80000 91800 333 10126 20011=
07240,1997-10-25 21:00:00,6,1026.5,0.1,75,2,20000,22.224,,,80,,,,,,,,,,,wg-a,,,,AAXX 25214 07240 12/70 00812 10060 20020 30127 40265 51001 60006 80000 92100=
07240,1997-10-26 00:00:00,5,1025.8,-0.8,81,2,20000,18.52,,,70,,,,,,,,,,,wg-a,,,,AAXX 26004 07240 12/70 00710 10050 20020 30119 40258 56008 60006 80000 90000=
07240,1997-10-26 03:00:00,3,1024.6,-1.2,87,1,15000,18.52,,,70,,,,,,,,,,,wg-a,,,,AAXX 26034 07240 12/65 00710 10030 20010 30107 40246 58012 60006 80000 90300=
07240,1997-10-26 06:00:00,2,1024,-0.6,93,1,15000,14.816,,,80,2.1,7,,,,,,,,,wg-a,,,,AAXX 26064 07240 02/65 10808 10020 20010 30101 40240 56006 60006 80001 90600 333 10070 20021 60004=
07240,1997-10-26 09:00:00,7,1024.1,0.3,70,2,20000,18.52,,,90,,,,,,,,,,,wg-a,,,,AAXX 26094 07240 12/70 00910 10070 20020 30104 40241 50003 60006 80000 90900=
07240,1997-10-26 12:00:00,12,1023.3,-0.5,54,3,500,22.224,,,80,,,,,,,,,,,wg-a,,,,AAXX 26124 07240 12/00 00812 10120 20030 30099 40233 58005 60006 80000 91200=
07240,1997-10-26 15:00:00,15,1021.3,-1.9,48,4,35000,18.52,,,80,,,,,,,,,,,wg-a,,,,AAXX 26154 07240 12/81 10810 10150 20040 30080 40213 56019 60006 80001 91500=
07240,1997-10-26 18:00:00,10,1021.7,0.2,66,4,500,22.224,,,70,2.3,15.1,,,,,,,,,wg-a,,,,AAXX 26184 07240 12/00 10712 10100 20040 30082 40217 53002 60006 80001 91800 333 10151 20023=
07240,1997-10-26 21:00:00,7,1021.9,0,81,4,20000,18.52,,,70,,,,,,,,,,,wg-a,,,,AAXX 26214 07240 12/70 10710 10070 20040 30082 40219 50000 60006 80001 92100=
07240,1997-10-27 00:00:00,5,1021.4,-0.6,93,4,15000,18.52,,,60,,,,,,,,,,,wg-a,,,,AAXX 27004 07240 12/65 10610 10050 20040 30076 40214 58006 60006 80001 90000=
07240,1997-10-27 03:00:00,4,1020.9,-0.5,93,3,4000,18.52,,,70,,,,,,,,,,10,wg-a,,,,AAXX 27034 07240 12/40 /0710 10040 20030 30071 40209 58005 60006 71000 80001 90300=
07240,1997-10-27 06:00:00,4,1020.9,0,93,3,8000,14.816,,,70,3.5,9.7,,,,,,,,,wg-a,,,,AAXX 27064 07240 02/58 /0708 10040 20030 30071 40209 50000 60006 80002 90600 333 10097 20035 60004=
07240,1997-10-27 09:00:00,7,1021.5,0.7,81,4,10000,22.224,,,80,,,,,,,,,,,wg-a,,,,AAXX 27094 07240 12/60 00812 10070 20040 30078 40215 51007 60006 80000 90900=
07240,1997-10-27 12:00:00,13,1020.3,-0.9,58,5,10000,25.928,,,80,,,,,,,,,,,wg-a,,,,AAXX 27124 07240 12/60 00814 10130 20050 30069 40203 58009 60006 80000 91200=
07240,1997-10-27 18:00:00,10,1020.5,8,66,4,20000,25.928,,,60,3.2,14.5,,,,,,,,,wg-a,,,,AAXX 27184 07240 12/70 20614 10100 20040 30070 40205 50080 60006 80002 91800 333 10145 20032=
07240,1997-10-27 21:00:00,7,1021.7,1,81,4,10000,31.484,,,60,,,,,,,,,,,wg-a,,,,AAXX 27214 07240 12/60 00617 10070 20040 30080 40217 52010 60006 80000 92100=
07240,1997-10-28 00:00:00,4,1022.1,0.3,81,1,10000,25.928,,,60,,,,,,,,,,,wg-a,,,,AAXX 28004 07240 12/60 00614 10040 20010 30083 40221 53003 60006 80000 90000=
07240,1997-10-28 09:00:00,2,1025.1,2,60,-5,10000,29.632,,,60,,,,,,,,,,,wg-a,,,,AAXX 28094 07240 12/60 /0616 10020 21050 30111 40251 53020 60006 90900=
07240,1997-10-28 12:00:00,6,1025.3,0.4,49,-4,20000,29.632,,,60,,,,,,,,,,,wg-a,,,,AAXX 28124 07240 12/70 00616 10060 21040 30115 40253 53004 60006 80000 91200=
07240,1997-10-28 15:00:00,7,1025.9,0.7,42,-5,20000,31.484,,48.152,60,,,,,,,,,,,wg-a,,,,AAXX 28154 07240 12/70 00617 10070 21050 30122 40259 53007 60006 80000 91500 333 91026=
07240,1997-10-28 18:00:00,4,1028.3,2.2,44,-7,20000,18.52,,,50,-1.2,7.3,,,,,,,,,wg-a,,,,AAXX 28184 07240 12/70 00510 10040 21070 30144 40283 53022 60006 80000 91800 333 10073 21012=
07240,1997-10-28 21:00:00,2,1030,1.6,47,-8,10000,18.52,,,60,,,,,,,,,,,wg-a,,,,AAXX 28214 07240 12/60 /0610 10020 21080 30160 40300 53016 60006 92100=
07240,1997-10-29 00:00:00,0,1030.8,0.6,55,-8,15000,18.52,,,60,,,,,,,,,,,wg-a,,,,AAXX 29004 07240 12/65 00610 10000 21080 30166 40308 51006 60006 80000 90000=
07240,1997-10-29 03:00:00,-1,1031.3,0.5,64,-7,10000,22.224,,,50,,,,,,,,,,,wg-a,,,,AAXX 29034 07240 12/60 /0512 11010 21070 30171 40313 51005 60006 90300=
07240,1997-10-29 06:00:00,-2,1032,0.6,69,-7,15000,14.816,,,50,-2.3,4.2,,,,,,,,,wg-a,,,,AAXX 29064 07240 02/65 00508 11020 21070 30177 40320 51006 60006 80000 90600 333 10042 21023 60004=
07240,1997-10-29 09:00:00,1,1032.4,0.6,59,-6,20000,22.224,,,70,,,,,,,,,,,wg-a,,,,AAXX 29094 07240 12/70 00712 10010 21060 30183 40324 50006 60006 80000 90900=
07240,1997-10-29 12:00:00,7,1031.6,-0.5,42,-5,20000,18.52,,,40,,,,,,,,,,,wg-a,,,,AAXX 29124 07240 12/70 00410 10070 21050 30178 40316 58005 60006 80000 91200=
07240,1997-10-29 15:00:00,9,1030.5,-1,34,-6,500,18.52,,,60,,,,,,,,,,,wg-a,,,,AAXX 29154 07240 12/00 10610 10090 21060 30168 40305 56010 60006 80002 91500=
07240,1997-10-29 18:00:00,5,1031.1,0.4,45,-6,20000,14.816,,,50,-2.2,9.2,,,,,,,,,wg-a,,,,AAXX 29184 07240 12/70 20508 10050 21060 30172 40311 51004 60006 80002 91800 333 10092 21022=
07240,1997-10-29 21:00:00,1,1031.7,0.4,59,-6,20000,3.704,,,360,,,,,,,,,,,wg-a,,,,AAXX 29214 07240 12/70 23602 10010 21060 30176 40317 50004 60006 80002 92100=
07240,1997-10-30 00:00:00,1,1031.3,-0.4,55,-7,20000,14.816,,,50,,,,,,,,,,,wg-a,,,,AAXX 30004 07240 12/70 00508 10010 21070 30172 40313 58004 60006 80000 90000=
07240,1997-10-30 03:00:00,0,1030.2,-1.2,59,-7,15000,14.816,,,50,,,,,,,,,,,wg-a,,,,AAXX 30034 07240 12/65 00508 10000 21070 30160 40302 58012 60006 80000 90300=
07240,1997-10-30 06:00:00,-1,1030.1,-0.1,64,-7,15000,14.816,,,30,-1.4,4.6,,,,,,,,,wg-a,,,,AAXX 30064 07240 02/65 00308 11010 21070 30159 40301 58001 60006 80000 90600 333 10046 21014 60004=
07240,1997-10-30 09:00:00,2,1030.1,0.2,51,-7,15000,18.52,,,40,,,,,,,,,,,wg-a,,,,AAXX 30094 07240 12/65 10410 10020 21070 30161 40301 50002 60006 80001 90900=
07240,1997-10-30 12:00:00,8,1028.6,-1.2,36,-6,15000,18.52,,,30,,,,,,,,,,,wg-a,,,,AAXX 30124 07240 12/65 20310 10080 21060 30149 40286 58012 60006 80002 91200=
07240,1997-10-30 18:00:00,5,1028,0.6,45,-6,15000,7.408,,,10,-1.7,10.6,,,,,,,,,wg-a,,,,AAXX 30184 07240 12/65 40104 10050 21060 30141 40280 53006 60006 80002 91800 333 10106 21017=
07240,1997-10-30 21:00:00,2,1028.7,0.6,55,-6,10000,7.408,,,350,,,,,,,,,,,wg-a,,,,AAXX 30214 07240 12/60 03504 10020 21060 30147 40287 51006 60006 80000 92100=
07240,1997-10-31 00:00:00,4,1028.2,-0.4,65,-2,0,14.816,,,40,,,,,,,,,,,wg-a,,,,AAXX 31004 07240 12/// /0408 10040 21020 30143 40282 55004 60006 90000=
07240,1997-10-31 03:00:00,2,1027.8,-0.5,80,-1,10000,11.112,,,30,,,,,,,,,,,wg-a,,,,AAXX 31034 07240 12/60 00306 10020 21010 30138 40278 58005 60006 80000 90300=
07240,1997-10-31 06:00:00,2,1028.2,0.4,80,-1,10000,11.112,,,30,0.7,5.3,,,,,,,,,wg-a,,,,AAXX 31064 07240 02/60 00306 10020 21010 30142 40282 53004 60006 80000 90600 333 10053 20007 60004=
07240,1997-10-31 09:00:00,5,1028.8,0.7,75,1,10000,14.816,,,60,,,,,,,,,,,wg-a,,,,AAXX 31094 07240 12/60 10608 10050 20010 30149 40288 51007 60006 80002 90900=
07240,1997-10-31 12:00:00,9,1027,-1.5,57,1,10000,18.52,,,30,,,,,,,,,,,wg-a,,,,AAXX 31124 07240 12/60 10310 10090 20010 30134 40270 58015 60006 80002 91200=
07240,1997-10-31 15:00:00,10,1026,-1,53,1,12000,14.816,,,50,,,,,,,,,,,wg-a,,,,AAXX 31154 07240 12/62 10508 10100 20010 30124 40260 56010 60006 80002 91500=
07240,1997-10-31 18:00:00,5,1026.6,0.4,70,0,10000,7.408,,,40,1.2,10.5,,,,,,,,,wg-a,,,,AAXX 31184 07240 12/60 10404 10050 20000 30128 40266 52004 60006 80002 91800 333 10105 20012=
07240,1997-10-31 21:00:00,3,1026.6,-0.2,75,-1,10000,7.408,,,30,,,,,,,,,,,wg-a,,,,AAXX 31214 07240 12/60 /0304 10030 21010 30126 40266 58002 60006 92100=
07240,1997-11-01 00:00:00,0,1025.8,-0.9,93,-1,0,3.704,,,340,,,,,,,,,,,wg-a,,,,AAXX 01004 07240 12/// /3402 10000 21010 30117 40258 57009 60006 90000=
07240,1997-11-01 03:00:00,0,1024.8,-1,93,-1,6000,7.408,,,10,,,,,,,,,,,wg-a,,,,AAXX 01034 07240 12/56 00104 10000 21010 30107 40248 58010 60006 80000 90300=
07240,1997-11-01 06:00:00,0,1024.4,-0.4,93,-1,6000,14.816,,,50,-0.7,5.1,,,,,,,,,wg-a,,,,AAXX 01064 07240 02/56 00508 10000 21010 30103 40244 58004 60006 80000 90600 333 10051 21007 60004=
07240,1997-11-01 09:00:00,2,1024.7,0.4,87,0,4000,14.816,,,70,,,,,,,,,,10,wg-a,,,,AAXX 01094 07240 12/40 00708 10020 20000 30107 40247 51004 60006 71000 80000 90900=
07240,1997-11-01 12:00:00,7,1023.2,-1.2,57,-1,10000,11.112,,,60,,,,,,,,,,,wg-a,,,,AAXX 01124 07240 12/60 00606 10070 21010 30095 40232 58012 60006 80000 91200=
07240,1997-11-01 15:00:00,8,1022.1,-1,49,-2,10000,11.112,,,40,,,,,,,,,,,wg-a,,,,AAXX 01154 07240 12/60 00406 10080 21020 30085 40221 56010 60006 80000 91500=
07240,1997-11-01 18:00:00,3,1022.3,-0.1,70,-2,10000,7.408,,,40,-0.2,8.5,,,,,,,,,wg-a,,,,AAXX 01184 07240 12/60 00404 10030 21020 30084 40223 55001 60006 80000 91800 333 10085 21002=
07240,1997-11-01 21:00:00,2,1022,-0.4,75,-2,10000,14.816,,,80,,,,,,,,,,,wg-a,,,,AAXX 01214 07240 12/60 00808 10020 21020 30080 40220 56004 60006 80000 92100=
07240,1997-11-02 00:00:00,0,1021.5,-0.5,86,-2,8000,7.408,,,100,,,,,,,,,,,wg-a,,,,AAXX 02004 07240 12/58 01004 10000 21020 30075 40215 58005 60006 80000 90000=
07240,1997-11-02 03:00:00,-1,1020.5,-1.1,86,-3,8000,11.112,,,60,,,,,,,,,,,wg-a,,,,AAXX 02034 07240 12/58 00606 11010 21030 30064 40205 56011 60006 80000 90300=
07240,1997-11-02 06:00:00,-3,1020.5,-0.1,93,-4,7000,0,,,0,-2.6,3.4,,,,,,,,,wg-a,,,,AAXX 02064 07240 02/57 20000 11030 21040 30063 40205 55001 60006 80002 90600 333 10034 21026 60004=
07240,1997-11-02 12:00:00,9,1018.3,-1.7,57,1,10000,14.816,,,70,,,,,,,,,,,wg-a,,,,AAXX 02124 07240 12/60 00708 10090 20010 30048 40183 58017 60006 80000 91200=
07240,1997-11-02 15:00:00,12,1016.3,-1.9,44,0,10000,14.816,,,60,,,,,,,,,,,wg-a,,,,AAXX 02154 07240 12/60 00608 10120 20000 30029 40163 56019 60006 80000 91500=
07240,1997-11-02 18:00:00,7,1015.9,-0.6,61,0,9000,18.52,,,60,-2.7,12,,,,,,,,,wg-a,,,,AAXX 02184 07240 12/59 /0610 10070 20000 30023 40159 56006 60006 91800 333 10120 21027=
07240,1997-11-02 21:00:00,4,1015.8,-0.3,75,0,7000,18.52,,,60,,,,,,,,,,,wg-a,,,,AAXX 02214 07240 12/57 /0610 10040 20000 30020 40158 58003 60006 92100=
07240,1997-11-03 00:00:00,2,1014.6,-1.2,87,0,6000,22.224,,,60,,,,,,,,,,,wg-a,,,,AAXX 03004 07240 12/56 00612 10020 20000 30008 40146 58012 60006 80000 90000=
07240,1997-11-03 06:00:00,0,1012.1,-1.4,93,-1,3500,14.816,,,80,-0.4,6.9,,,,,,,,10,wg-a,,,,AAXX 03064 07240 02/35 00808 10000 21010 39982 40121 56014 60006 71000 80000 90600 333 10069 21004 60004=
07240,1997-11-03 09:00:00,4,1011.3,-0.6,87,2,4000,25.928,,,80,,,,,,,,,,10,wg-a,,,,AAXX 03094 07240 12/40 00814 10040 20020 39976 40113 58006 60006 71000 80000 90900=
07240,1997-11-03 12:00:00,12,1009.2,-1.7,62,5,6000,22.224,,,80,,,,,,,,,,,wg-a,,,,AAXX 03124 07240 12/56 /0812 10120 20050 39959 40092 58017 60006 80001 91200=
07240,1997-11-03 15:00:00,16,1006.7,-2.3,51,6,12000,22.224,,,80,,,,1,,,,,,,wg-a,,,,AAXX 03154 07240 12/62 10812 10160 20060 39936 40067 56023 60017 80001 91500=
07240,1997-11-03 18:00:00,11,1006,-0.9,71,6,12000,22.224,,,70,-0.2,15.8,,0,,,,,,,wg-a,,,,AAXX 03184 07240 02/62 10712 10110 20060 39927 40060 56009 60006 80001 91800 333 10158 21002 60007=
07240,1997-11-03 21:00:00,8,1005.6,-0.5,87,6,10000,14.816,,,100,,,,,,,,,,,wg-a,,,,AAXX 03214 07240 12/60 01008 10080 20060 39922 40056 57005 60006 80000 92100=
07240,1997-11-04 00:00:00,7,1004.7,-0.9,93,6,10000,14.816,,,90,,,,,,,,,,,wg-a,,,,AAXX 04004 07240 12/60 20908 10070 20060 39913 40047 58009 60006 80002 90000=
07240,1997-11-04 03:00:00,9,1003.9,-0.7,87,7,10000,14.816,,,110,,,,,,,,,,,wg-a,,,,AAXX 04034 07240 12660 71108 10090 20070 39906 40039 58007 60006 8553/ 90300=
07240,1997-11-04 06:00:00,10,1003.1,-0.7,100,10,7000,14.816,,,110,6.9,10.9,,,,,,,,60,wg-a,,,,AAXX 04064 07240 02557 71108 10100 20100 39899 40031 56007 61000 76061 8457/ 90600 333 10109 20069 6001=
07240,1997-11-04 12:00:00,13,1004.2,0.3,94,12,7000,14.816,,,210,,,,1,,,,,,60,wg-a,,,,AAXX 04124 07240 02357 82108 10130 20120 39911 40042 53003 60026 76066 877// 91200 333 60017=
07240,1997-11-04 18:00:00,12,1005.1,0.5,94,11,8000,14.816,,,180,10.1,13.8,,,,,,,,1,wg-a,,,,AAXX 04184 07240 02258 71808 10120 20110 39919 40051 50005 60006 70162 8557/ 91800 333 10138 20101 61000=
07240,1997-11-04 21:00:00,12,1005.8,0.7,94,11,6000,18.52,,,180,,,,,,,,,,,wg-a,,,,AAXX 04214 07240 12256 81810 10120 20110 39926 40058 51007 60006 877// 92100=
07240,1997-11-05 00:00:00,12,1005.8,-0,94,11,6000,18.52,,,170,,,,0,,,,,,,wg-a,,,,AAXX 05004 07240 02356 81710 10120 20110 39926 40058 54000 60006 877// 90000 333 60007=
07240,1997-11-05 03:00:00,12,1004.9,-0.9,94,11,6000,18.52,,,190,,,,,,,,,,,wg-a,,,,AAXX 05034 07240 12256 81910 10120 20110 39917 40049 58009 60006 877// 90300=
07240,1997-11-05 06:00:00,11,1004.2,-0.7,94,10,6000,18.52,,,180,10.8,12.3,,,,,5,,,,wg-a,,,,AAXX 05064 07240 02256 81810 10110 20100 39910 40042 57007 60006 876// 90600 333 10123 20108 60054=
07240,1997-11-05 12:00:00,14,999.9,-2.9,82,11,10000,18.52,,,160,,,,,,,,,,,wg-a,,,,AAXX 05124 07240 12/60 71610 10140 20110 39869 49999 58029 60006 83017 91200=
07240,1997-11-05 15:00:00,14,997.3,-2.6,82,11,20000,14.816,,,170,,,,,,,,,,,wg-a,,,,AAXX 05154 07240 12/70 81708 10140 20110 39843 49973 58026 60006 85017 91500=
07240,1997-11-05 18:00:00,13,995.3,-2,88,11,10000,14.816,,,170,10.4,14.5,,,,,,,,60,wg-a,,,,AAXX 05184 07240 02560 81708 10130 20110 39823 49953 56020 61000 76062 8217/ 91800 333 10145 20104 6000=
07240,1997-11-05 21:00:00,12,993.6,-1.7,94,11,10000,18.52,,,180,,,,0,,,,,,21,wg-a,,,,AAXX 05214 07240 12560 81810 10120 20110 39806 49936 56017 60007 72162 8557/ 92100=
07240,1997-11-06 00:00:00,12,992.5,-1.1,94,11,10000,11.112,,,200,,,,,,,,,,3,wg-a,,,,AAXX 06004 07240 12360 72006 10120 20110 39795 49925 56011 60016 70362 877// 90000=
07240,1997-11-06 06:00:00,11,989.1,-1.6,100,11,500,11.112,,,210,11,12.8,,,,,,,,60,wg-a,,,,AAXX 06064 07240 02200 82106 10110 20110 39761 49891 55016 61000 76062 877// 90600 333 10128 20110 6001=
07240,1997-11-06 12:00:00,12,988.7,-2.4,88,10,12000,7.408,,,40,,,,1,,,,,,1,wg-a,,,,AAXX 06124 07240 02462 70404 10120 20100 39757 49887 58024 60026 70162 877// 91200 333 60017=
07240,1997-11-06 15:00:00,12,986.6,-2.1,94,11,500,11.112,,,10,,,,2,,,,,,61,wg-a,,,,AAXX 06154 07240 12300 80106 10120 20110 39736 49866 58021 60027 76162 8577/ 91500=
07240,1997-11-06 18:00:00,10,988.3,1.6,87,8,4000,22.224,,,320,9.8,12.5,,,,,,,,63,wg-a,,,,AAXX 06184 07240 02340 83212 10100 20080 39752 49883 53016 61000 76362 867// 91800 333 10125 20098 6020=
07240,1997-11-06 21:00:00,9,990,1.7,93,8,8000,11.112,,,230,,,,,,,,,,,wg-a,,,,AAXX 06214 07240 32/58 /2306 10090 20080 39769 49900 53017 92100=
07240,1997-11-07 00:00:00,9,991.3,1.2,93,8,8000,18.52,,,190,,,,6,,,,,,60,wg-a,,,,AAXX 07004 07240 02358 81910 10090 20080 39781 49913 51012 60146 76066 887// 90000 333 60067=
07240,1997-11-07 03:00:00,10,992.5,1.3,93,9,8000,18.52,,,220,,,,,,,,,,2,wg-a,,,,AAXX 07034 07240 02358 82210 10100 20090 39794 49925 51013 61000 70262 887// 90300 333 ////=
07240,1997-11-07 06:00:00,8,994.6,2,100,8,10000,18.52,,,210,8.3,10,,,,,38.6,,,2,wg-a,,,,AAXX 07064 07240 02760 32110 10080 20080 39814 49946 52020 60006 70261 83500 90600 333 10100 20083 60394=
07240,1997-11-07 09:00:00,10,996.7,2.1,93,9,20000,22.224,,,200,,,,,,,,,,,wg-a,,,,AAXX 07094 07240 12370 72012 10100 20090 39835 49967 51021 60006 877// 90900=
07240,1997-11-07 12:00:00,13,996.1,-0.4,82,10,20000,25.928,,,190,,,,0,,,,,,3,wg-a,,,,AAXX 07124 07240 02470 71914 10130 20100 39831 49961 58004 60006 70365 872// 91200 333 60007=
07240,1997-11-07 18:00:00,12,994.7,-0.1,82,9,25000,22.224,,,160,8.1,14.4,,,,,,,,,wg-a,,,,AAXX 07184 07240 12675 /1612 10120 20090 39816 49947 58001 60006 81132 91800 333 10144 20081=
07240,1997-11-08 00:00:00,10,993.1,-0.1,93,9,10000,11.112,,,200,,,,4,,,,,,21,wg-a,,,,AAXX 08004 07240 02360 72006 10100 20090 39800 49931 55001 60046 72162 875// 90000 333 60047=
07240,1997-11-08 06:00:00,9,998.5,2.3,87,7,20000,18.52,,,220,8.7,11.7,,,,,5,,,3,wg-a,,,,AAXX 08064 07240 12470 32210 10090 20070 39852 49985 51023 60054 70386 83901 90600 333 10117 20087=
07240,1997-11-08 09:00:00,10,1000.9,2.5,87,8,500,18.52,,,220,,,,,,,,,,15,wg-a,,,,AAXX 08094 07240 12500 32210 10100 20080 39877 40009 52025 60006 71511 81903 90900=
07240,1997-11-08 12:00:00,14,1000.5,-0.2,72,9,35000,31.484,,,210,,,,,,,,,,,wg-a,,,,AAXX 08124 07240 12581 /2117 10140 20090 39875 40005 58002 60006 85200 91200=
07240,1997-11-08 15:00:00,13,998.3,-2.3,77,9,35000,25.928,,,190,,,,,,,,,,,wg-a,,,,AAXX 08154 07240 12581 81914 10130 20090 39852 49983 58023 60006 8482/ 91500=
07240,1997-11-08 18:00:00,12,996,-2.3,88,10,15000,35.188,,,190,8.8,14.2,,,,,,,,60,wg-a,,,,AAXX 08184 07240 02465 81919 10120 20100 39829 49960 56023 61000 76062 8482/ 91800 333 10142 20088 6003=
07240,1997-11-08 21:00:00,12,994.8,-1.2,88,10,8000,29.632,,48.152,220,,,,5,,,,,,61,wg-a,,,,AAXX 08214 07240 12258 82216 10120 20100 39817 49948 55012 60057 76166 875// 92100 333 91026=
07240,1997-11-09 00:00:00,10,995.8,1,93,9,15000,18.52,,,220,,,,2,,,,,,21,wg-a,,,,AAXX 09004 07240 02665 82210 10100 20090 39827 49958 53010 60076 72162 8352/ 90000 333 60027=
07240,1997-11-09 03:00:00,10,996.1,0.2,87,8,15000,18.52,,,200,,,,,,,,,,,wg-a,,,,AAXX 09034 07240 12665 32010 10100 20080 39829 49961 50002 60006 81501 90300=
07240,1997-11-09 06:00:00,9,996.8,0.7,81,6,20000,29.632,,48.152,220,8.8,12.1,,,,,10,,,,wg-a,,,,AAXX 09064 07240 02670 /2216 10090 20060 39836 49968 50007 60006 84531 90600 333 10121 20088 60104 91026=
07240,1997-11-09 09:00:00,9,998.1,1.2,81,6,20000,25.928,,,210,,,,,,,,,,,wg-a,,,,AAXX 09094 07240 12670 /2114 10090 20060 39848 49981 51012 60006 84963 90900=
07240,1997-11-09 12:00:00,11,997.4,-0.6,71,6,20000,38.892,,,210,,,,,,,,,,2,wg-a,,,,AAXX 09124 07240 02470 /2121 10110 20060 39842 49974 58006 61000 70286 84963 91200 333 6100=
07240,1997-11-09 15:00:00,10,995.7,-1.7,82,7,20000,35.188,,55.56,210,,,,1,,,,,,25,wg-a,,,,AAXX 09154 07240 12470 /2119 10100 20070 39825 49957 55017 60017 72586 84903 91500 333 91030=
07240,1997-11-09 18:00:00,10,998.2,2.5,82,7,20000,25.928,,,220,7.9,11.1,,,,,,,,2,wg-a,,,,AAXX 09184 07240 12570 /2214 10100 20070 39850 49982 53025 60006 70286 84903 91800 333 10111 20079=
07240,1997-11-09 21:00:00,9,1000.5,2.2,87,7,20000,22.224,,,210,,,,,,,,,,,wg-a,,,,AAXX 09214 07240 12570 42112 10090 20070 39872 40005 51022 60006 82830 92100=
07240,1997-11-10 00:00:00,8,1000.8,0.3,87,6,20000,22.224,,,200,,,,,,,,,,,wg-a,,,,AAXX 10004 07240 12770 22012 10080 20060 39875 40008 53003 60006 82500 90000=
07240,1997-11-10 03:00:00,8,1000.5,-0.3,87,6,20000,22.224,,,200,,,,,,,,,,,wg-a,,,,AAXX 10034 07240 12770 22012 10080 20060 39872 40005 58003 60006 81502 90300=
07240,1997-11-10 06:00:00,8,999.1,-1.4,93,7,20000,22.224,,,190,7.8,10.2,,,,,,,,60,wg-a,,,,AAXX 10064 07240 02370 81912 10080 20070 39858 49991 58014 61000 76061 8277/ 90600 333 10102 20078 6001=
07240,1997-11-10 09:00:00,9,999,-0.1,93,8,15000,25.928,,,210,,,,1,,,,,,21,wg-a,,,,AAXX 10094 07240 12365 72114 10090 20080 39857 49990 55001 60017 72162 878// 90900=
07240,1997-11-10 12:00:00,11,999.1,0.2,82,8,15000,29.632,,,220,,,,1,,,,,,25,wg-a,,,,AAXX 10124 07240 02465 72216 10110 20080 39859 49991 50002 60026 72586 8783/ 91200 333 60017=
07240,1997-11-10 15:00:00,11,999.1,-0,76,7,25000,25.928,,,210,,,,0,,,,,,3,wg-a,,,,AAXX 10154 07240 12575 52114 10110 20070 39859 49991 55000 60007 70386 85802 91500=
07240,1997-11-10 18:00:00,9,1000,0.8,81,6,25000,18.52,,,200,8.2,11.4,,,,,,,,2,wg-a,,,,AAXX 10184 07240 12475 42010 10090 20060 39867 40000 53008 60006 70286 82802 91800 333 10114 20082=
07240,1997-11-11 00:00:00,8,998.3,-1.1,93,7,15000,18.52,,,190,,,,,,,,,,,wg-a,,,,AAXX 11004 07240 12365 71910 10080 20070 39850 49983 56011 60006 878// 90000=
07240,1997-11-11 03:00:00,8,996.9,-1.4,93,7,15000,29.632,,,200,,,,0,,,,,,,wg-a,,,,AAXX 11034 07240 12365 72016 10080 20070 39836 49969 56014 60007 878// 90300=
07240,1997-11-11 06:00:00,7,996.4,-0.5,93,6,15000,18.52,,,190,7.2,8.9,,,,,,,,25,wg-a,,,,AAXX 11064 07240 02365 71910 10070 20060 39831 49964 58005 61000 72586 878// 90600 333 10089 20072 6004=
07240,1997-11-11 12:00:00,10,997,0.1,87,8,25000,22.224,,,200,,,,,,,,,,80,wg-a,,,,AAXX 11124 07240 02575 72012 10100 20080 39838 49970 50001 61000 78086 8583/ 91200 333 6100=
07240,1997-11-11 15:00:00,10,996.3,-0.7,82,7,25000,18.52,,,190,,,,,,,,,,3,wg-a,,,,AAXX 11154 07240 02475 71910 10100 20070 39831 49963 57007 61000 70386 85902 91500 333 ////=
07240,1997-11-11 18:00:00,7,996.9,0.5,93,6,25000,3.704,,,150,7,11,,,,,,,,3,wg-a,,,,AAXX 11184 07240 12575 71502 10070 20060 39836 49969 53005 60006 70386 875// 91800 333 10110 20070=
07240,1997-11-11 21:00:00,7,997.6,0.7,93,6,12000,11.112,,,170,,,,,,,,,,,wg-a,,,,AAXX 11214 07240 12562 /1706 10070 20060 39843 49976 51007 60006 85501 92100=
07240,1997-11-12 00:00:00,6,998.1,0.4,93,5,6000,3.704,,,180,,,,,,,,,,28,wg-a,,,,AAXX 12004 07240 12256 71802 10060 20050 39847 49981 53004 60006 72842 875// 90000=
07240,1997-11-12 06:00:00,4,1000.1,1.1,100,4,100,0,,,0,4.2,7.5,,,,,,,,45,wg-a,,,,AAXX 12064 07240 02/01 90000 10040 20040 39866 40001 53011 60006 74542 89/// 90600 333 10075 20042 60004=
07240,1997-11-12 09:00:00,5,1001.9,1.8,100,5,300,0,,,0,,,,,,,,,,43,wg-a,,,,AAXX 12094 07240 32/03 90000 10050 20050 39884 40019 51018 74344 89/// 90900=
07240,1997-11-12 12:00:00,7,1003.2,1.4,93,6,500,3.704,,,240,,,,,,,,,,28,wg-a,,,,AAXX 12124 07240 12200 82402 10070 20060 39898 40032 51014 60006 72842 886// 91200=
07240,1997-11-12 18:00:00,8,1005.8,1.4,93,7,12000,3.704,,,270,4.2,8.4,,,,,,,,,wg-a,,,,AAXX 12184 07240 12462 72702 10080 20070 39924 40058 51014 60006 835// 91800 333 10084 20042=
07240,1997-11-12 21:00:00,7,1007.2,1.4,100,7,12000,0,,,0,,,,,,,,,,,wg-a,,,,AAXX 12214 07240 12462 70000 10070 20070 39938 40072 52014 60006 875// 92100=
07240,1997-11-13 00:00:00,6,1007.6,0.3,93,5,300,3.704,,,180,,,,,,,,,,44,wg-a,,,,AAXX 13004 07240 12303 71802 10060 20050 39941 40076 53003 60006 74441 876// 90000=
07240,1997-11-13 03:00:00,4,1007.3,-0.4,100,4,500,11.112,,,150,,,,,,,,,,45,wg-a,,,,AAXX 13034 07240 12/00 91506 10040 20040 39937 40073 57004 60006 74544 89/// 90300=
07240,1997-11-13 06:00:00,5,1006.9,-0.4,93,4,400,7.408,,,160,3.2,7.8,,,,,1,,,43,wg-a,,,,AAXX 13064 07240 02/04 91604 10050 20040 39933 40069 56004 60006 74344 89/// 90600 333 10078 20032 60014=
07240,1997-11-13 09:00:00,6,1007.3,0.5,100,6,800,7.408,,,190,,,,,,,,,,43,wg-a,,,,AAXX 13094 07240 12/08 91904 10060 20060 39938 40073 53005 60006 74344 89/// 90900=
07240,1997-11-13 12:00:00,7,1007.3,0,100,7,7000,11.112,,,200,,,,,,,,,,,wg-a,,,,AAXX 13124 07240 12/57 /2006 10070 20070 39938 40073 50000 60006 91200=
07240,1997-11-13 15:00:00,8,1007.1,-0.1,93,7,12000,3.704,,,210,,,,,,,,,,,wg-a,,,,AAXX 13154 07240 12362 82102 10080 20070 39937 40071 55001 60006 876// 91500=
07240,1997-11-13 18:00:00,7,1008.4,1.2,93,6,11000,7.408,,,180,4.5,8.6,,,,,,,,,wg-a,,,,AAXX 13184 07240 12/61 /1804 10070 20060 39949 40084 53012 60006 91800 333 10086 20045=
07240,1997-11-13 21:00:00,5,1009.8,1.3,93,4,10000,11.112,,,150,,,,,,,,,,,wg-a,,,,AAXX 13214 07240 12/60 01506 10050 20040 39962 40098 51013 60006 80000 92100=
07240,1997-11-14 00:00:00,3,1011,1.1,100,3,100,7.408,,,150,,,,,,,,,,44,wg-a,,,,AAXX 14004 07240 12/01 01504 10030 20030 39973 40110 52011 60006 74441 80000 90000=
07240,1997-11-14 03:00:00,3,1011.5,0.5,100,3,100,0,,,0,,,,,,,,,,45,wg-a,,,,AAXX 14034 07240 32/01 90000 10030 20030 39978 40115 53005 74544 89/// 90300=
07240,1997-11-14 06:00:00,3,1012.9,1.4,100,3,500,0,,,0,2,7.2,,,,,,,,45,wg-a,,,,AAXX 14064 07240 02/00 90000 10030 20030 39992 40129 51014 60006 74544 89/// 90600 333 10072 20020 60004=
07240,1997-11-14 09:00:00,3,1015.1,2.1,100,3,500,3.704,,,160,,,,,,,,,,45,wg-a,,,,AAXX 14094 07240 32/00 91602 10030 20030 30013 40151 52021 74544 89/// 90900=
07240,1997-11-14 12:00:00,5,1015.6,0.6,100,5,500,11.112,,,190,,,,,,,,,,43,wg-a,,,,AAXX 14124 07240 12/00 91906 10050 20050 30019 40156 50006 60006 74344 89/// 91200=
07240,1997-11-14 15:00:00,7,1015.8,0.3,100,7,500,14.816,,,140,,,,,,,,,,1,wg-a,,,,AAXX 14154 07240 12200 71408 10070 20070 30022 40158 51003 60006 70142 85602 91500=
07240,1997-11-14 18:00:00,7,1017,1.2,100,7,8000,14.816,,,140,2.8,7.3,,,,,,,,,wg-a,,,,AAXX 14184 07240 12/58 /1408 10070 20070 30034 40170 51012 60006 91800 333 10073 20028=
07240,1997-11-14 21:00:00,6,1017.4,0.4,100,6,6000,14.816,,,140,,,,,,,,,,,wg-a,,,,AAXX 14214 07240 12/56 71408 10060 20060 30038 40174 52004 60006 8703/ 92100=
07240,1997-11-15 00:00:00,7,1018.5,1.1,100,7,7000,11.112,,,150,,,,,,,,,,,wg-a,,,,AAXX 15004 07240 12557 71506 10070 20070 30049 40185 51011 60006 875// 90000=
07240,1997-11-15 03:00:00,9,1018.1,-0.3,93,8,8000,11.112,,,180,,,,,,,,,,,wg-a,,,,AAXX 15034 07240 12/58 /1806 10090 20080 30046 40181 55003 60006 90300=
07240,1997-11-15 06:00:00,10,1018.3,0.2,87,8,12000,18.52,,,190,5.9,9.8,,,,,,,,,wg-a,,,,AAXX 15064 07240 02462 71910 10100 20080 30048 40183 51002 60006 875// 90600 333 10098 20059 60004=
07240,1997-11-15 09:00:00,10,1019.1,0.8,100,10,6000,14.816,,,190,,,,,,,,,,20,wg-a,,,,AAXX 15094 07240 02356 81908 10100 20100 30056 40191 53008 61000 72052 875// 90900 333 ////=
07240,1997-11-15 12:00:00,12,1018.7,-0.3,94,11,7000,14.816,,,200,,,,,,,,,,3,wg-a,,,,AAXX 15124 07240 02357 82008 10120 20110 30053 40187 58003 61000 70352 877// 91200 333 ////=
07240,1997-11-15 15:00:00,13,1018.2,-0.4,94,12,9000,14.816,,,200,,,,,,,,,,,wg-a,,,,AAXX 15154 07240 12359 82008 10130 20120 30049 40182 55004 60006 877// 91500=
07240,1997-11-15 18:00:00,13,1018.5,0.3,94,12,6000,18.52,,,200,9.7,13.1,,,,,,,,20,wg-a,,,,AAXX 15184 07240 02256 82010 10130 20120 30052 40185 53003 61000 72052 877// 91800 333 10131 20097 6100=
07240,1997-11-15 21:00:00,13,1018.2,-0.3,94,12,6000,14.816,,,210,,,,,,,,,,,wg-a,,,,AAXX 15214 07240 12256 82108 10130 20120 30049 40182 56003 60006 887// 92100=
07240,1997-11-16 00:00:00,12,1018.2,0,100,12,6000,14.816,,,220,,,,,,,,,,20,wg-a,,,,AAXX 16004 07240 02156 72208 10120 20120 30049 40182 50000 61000 72052 877// 90000 333 6100=
07240,1997-11-16 03:00:00,12,1017.5,-0.7,94,11,8000,7.408,,,200,,,,,,,,,,,wg-a,,,,AAXX 16034 07240 12458 72004 10120 20110 30042 40175 58007 60006 875// 90300=
07240,1997-11-16 06:00:00,12,1017.3,-0.3,94,11,10000,7.408,,,150,11.5,12.7,,,,,,,,,wg-a,,,,AAXX 16064 07240 02460 71504 10120 20110 30039 40173 57003 60006 875// 90600 333 10127 20115 61000=
07240,1997-11-16 09:00:00,13,1017.5,0.3,88,11,11000,7.408,,,170,,,,,,,,,,,wg-a,,,,AAXX 16094 07240 12/61 /1704 10130 20110 30042 40175 53003 60006 90900=
07240,1997-11-16 12:00:00,17,1016.3,-1,72,12,10000,14.816,,,190,,,,,,,,,,,wg-a,,,,AAXX 16124 07240 12460 71908 10170 20120 30032 40163 58010 60006 84802 91200=
07240,1997-11-16 15:00:00,16,1015.8,-0.5,77,12,10000,7.408,,,170,,,,,,,,,,,wg-a,,,,AAXX 16154 07240 12860 71704 10160 20120 30027 40158 55005 60006 855/2 91500=
07240,1997-11-16 18:00:00,13,1015.9,-0.1,94,12,10000,11.112,,,130,11.4,16.7,,,,,,,,,wg-a,,,,AAXX 16184 07240 12860 71306 10130 20120 30026 40159 58001 60006 825/2 91800 333 10167 20114=
07240,1997-11-16 21:00:00,12,1016.5,0.6,94,11,10000,7.408,,,160,,,,,,,,,,,wg-a,,,,AAXX 16214 07240 12760 71604 10120 20110 30032 40165 52006 60006 83532 92100=
07240,1997-11-17 00:00:00,11,1016.1,-0.5,94,10,10000,7.408,,,150,,,,0,,,,,,,wg-a,,,,AAXX 17004 07240 02760 71504 10110 20100 30027 40161 58005 60006 83532 90000 333 60007=
07240,1997-11-17 03:00:00,10,1015.8,-0.3,93,9,100,7.408,,,140,,,,,,,,,,45,wg-a,,,,AAXX 17034 07240 12/01 91404 10100 20090 30024 40158 56003 60006 74542 89/// 90300=
07240,1997-11-17 06:00:00,10,1015.8,0,100,10,8000,7.408,,,150,9,13.1,,,,,,,,3,wg-a,,,,AAXX 17064 07240 02758 71504 10100 20100 30024 40158 50000 60006 70342 875// 90600 333 10131 20090 60004=
07240,1997-11-17 09:00:00,11,1015.2,-0.6,100,11,10000,11.112,,,140,,,,0,,,,,,28,wg-a,,,,AAXX 17094 07240 12760 /1406 10110 20110 30018 40152 58006 60007 72842 82502 90900=
07240,1997-11-17 12:00:00,17,1013.2,-1.7,72,12,20000,11.112,,,150,,,,,,,,,,2,wg-a,,,,AAXX 17124 07240 12/70 61506 10170 20120 30001 40132 56017 60006 70242 83032 91200=
07240,1997-11-17 15:00:00,16,1011.5,-1.7,82,13,25000,18.52,,,110,,,,,,,,,,,wg-a,,,,AAXX 17154 07240 12/75 71110 10160 20130 39984 40115 56017 60006 84032 91500=
07240,1997-11-17 18:00:00,13,1010.8,-0.8,94,12,10000,18.52,,,90,9.5,17.4,,,,,,,,,wg-a,,,,AAXX 17184 07240 12/60 /0910 10130 20120 39976 40108 58008 60006 91800 333 10174 20095=
07240,1997-11-17 21:00:00,12,1008.2,-2.6,88,10,15000,14.816,,,130,,,,,,,,,,,wg-a,,,,AAXX 17214 07240 12765 71308 10120 20100 39950 40082 56026 60006 85532 92100=
07240,1997-11-18 00:00:00,10,1006.7,-1.6,93,9,6000,14.816,,,120,,,,,,,,,,,wg-a,,,,AAXX 18004 07240 12756 71208 10100 20090 39934 40067 56016 60006 8653/ 90000=
07240,1997-11-18 06:00:00,9,1005.3,-0.2,93,8,6000,14.816,,,130,8.3,13,,,,,,,,,wg-a,,,,AAXX 18064 07240 02/56 /1308 10090 20080 39920 40053 57002 60006 80002 90600 333 10130 20083 60004=
07240,1997-11-18 09:00:00,10,1006.1,0.8,87,8,8000,14.816,,,130,,,,,,,,,,,wg-a,,,,AAXX 18094 07240 12758 71308 10100 20080 39928 40061 51008 60006 8357/ 90900=
07240,1997-11-18 12:00:00,12,1006.3,0.3,94,11,6000,11.112,,,160,,,,1,,,,,,61,wg-a,,,,AAXX 18124 07240 02556 81606 10120 20110 39931 40063 52003 60016 76162 875// 91200 333 60017=
07240,1997-11-18 15:00:00,12,1006.4,0.1,100,12,6000,14.816,,,190,,,,1,,,,,,21,wg-a,,,,AAXX 18154 07240 12256 81908 10120 20120 39932 40064 53001 60017 72162 877// 91500=
07240,1997-11-18 18:00:00,13,1006.2,-0.2,94,12,4000,11.112,,,200,8.7,12.5,,,,,,,,60,wg-a,,,,AAXX 18184 07240 02240 82006 10130 20120 39930 40062 58002 61000 76062 877// 91800 333 10125 20087 6000=
07240,1997-11-19 00:00:00,12,1004.7,-0.9,100,12,4000,11.112,,,220,,,,,,,,,,10,wg-a,,,,AAXX 19004 07240 02240 82206 10120 20120 39915 40047 58009 60016 71062 877// 90000 333 61000=
07240,1997-11-19 06:00:00,11,1001.8,-1.1,94,10,8000,7.408,,,190,10.9,12.5,,,,,4,,,,wg-a,,,,AAXX 19064 07240 02358 81904 10110 20100 39886 40018 57011 60006 876// 90600 333 10125 20109 60044=
07240,1997-11-19 09:00:00,10,1001.9,-0,100,10,2500,14.816,,,200,,,,,,,,,,10,wg-a,,,,AAXX 19094 07240 12125 82008 10100 20100 39886 40019 54000 60006 71022 886// 90900=
07240,1997-11-19 12:00:00,12,1000.7,-1,94,11,12000,14.816,,,180,,,,1,,,,,,21,wg-a,,,,AAXX 19124 07240 02462 71808 10120 20110 39876 40007 58010 60016 72162 878// 91200 333 60017=
07240,1997-11-19 15:00:00,13,999.5,-1.2,82,10,500,14.816,,,200,,,,,,,,,,,wg-a,,,,AAXX 19154 07240 12500 /2008 10130 20100 39864 49995 56012 60006 84800 91500=
07240,1997-11-19 18:00:00,11,1000.2,0.6,94,10,15000,14.816,,,190,10,13.7,,,,,,,,,wg-a,,,,AAXX 19184 07240 12565 21908 10110 20100 39870 40002 53006 60006 82900 91800 333 10137 20100=
07240,1997-11-19 21:00:00,11,999.7,-0.5,87,9,15000,18.52,,,200,,,,0,,,,,,,wg-a,,,,AAXX 19214 07240 12565 42010 10110 20090 39865 49997 58005 60007 84800 92100=
07240,1997-11-20 03:00:00,10,997.1,-2.2,93,9,10000,22.224,,,170,,,,0,,,,,,60,wg-a,,,,AAXX 20034 07240 12360 81712 10100 20090 39839 49971 58022 60007 76061 8557/ 90300=
07240,1997-11-20 06:00:00,11,995.5,-1.5,87,9,10000,35.188,,,200,9.2,11.6,,,,,,,,60,wg-a,,,,AAXX 20064 07240 02260 82019 10110 20090 39824 49955 56015 61000 76061 878// 90600 333 10116 20092 6002=
07240,1997-11-20 09:00:00,10,997.3,1.7,87,8,12000,22.224,,,220,,,,3,,,,,,1,wg-a,,,,AAXX 20094 07240 12562 72212 10100 20080 39841 49973 53017 60037 70186 878// 90900=
07240,1997-11-20 12:00:00,12,998.1,0.9,76,8,12000,22.224,,,210,,,,0,,,,,,25,wg-a,,,,AAXX 20124 07240 02562 72112 10120 20080 39850 49981 50009 60036 72586 858// 91200 333 60007=
07240,1997-11-20 15:00:00,10,999.7,1.5,87,8,15000,18.52,,,230,,,,1,,,,,,3,wg-a,,,,AAXX 20154 07240 12565 /2310 10100 20080 39865 49997 53015 60017 70386 85233 91500=
07240,1997-11-20 18:00:00,9,1002.1,2.3,87,7,15000,18.52,,,210,9,12.4,,,,,,,,2,wg-a,,,,AAXX 20184 07240 12665 62110 10090 20070 39888 40021 53023 60006 70286 86833 91800 333 10124 20090=
07240,1997-11-20 21:00:00,8,1004.2,2,87,6,15000,18.52,,,220,,,,,,,,,,,wg-a,,,,AAXX 20214 07240 12665 /2210 10080 20060 39908 40042 51020 60006 81500 92100=
07240,1997-11-21 00:00:00,7,1005.6,1.4,93,6,15000,14.816,,,210,,,,,,,,,,,wg-a,,,,AAXX 21004 07240 12/65 12108 10070 20060 39922 40056 51014 60006 80002 90000=
07240,1997-11-21 03:00:00,7,1006.5,0.8,93,6,15000,11.112,,,200,,,,,,,,,,,wg-a,,,,AAXX 21034 07240 12465 /2006 10070 20060 39930 40065 53008 60006 81500 90300=
07240,1997-11-21 06:00:00,5,1007.3,0.7,100,5,15000,7.408,,,150,5,9.3,,,,,4,,,,wg-a,,,,AAXX 21064 07240 02365 /1504 10050 20050 39937 40073 52007 60006 81630 90600 333 10093 20050 60044=
07240,1997-11-21 09:00:00,7,1008.1,0.9,100,7,8000,11.112,,,180,,,,0,,,,,,,wg-a,,,,AAXX 21094 07240 12258 71806 10070 20070 39946 40081 53009 60007 86802 90900=
07240,1997-11-21 12:00:00,10,1007.9,0,87,8,20000,11.112,,,200,,,,,,,,,,,wg-a,,,,AAXX 21124 07240 12470 72006 10100 20080 39946 40079 50000 60006 86822 91200=
07240,1997-11-21 15:00:00,11,1008.3,0.4,82,8,25000,7.408,,,200,,,,,,,,,,,wg-a,,,,AAXX 21154 07240 12475 72004 10110 20080 39950 40083 53004 60006 85832 91500=
07240,1997-11-21 18:00:00,10,1009.6,1.2,87,8,20000,7.408,,,180,5,11.7,,,,,,,,,wg-a,,,,AAXX 21184 07240 12470 81804 10100 20080 39962 40096 53012 60006 8583/ 91800 333 10117 20050=
07240,1997-11-21 21:00:00,8,1010.6,1,93,7,15000,7.408,,,160,,,,,,,,,,,wg-a,,,,AAXX 21214 07240 12765 81604 10080 20070 39972 40106 53010 60006 8553/ 92100=
07240,1997-11-22 00:00:00,8,1011,0.3,100,8,500,7.408,,,140,,,,2,,,,,,21,wg-a,,,,AAXX 22004 07240 02200 81404 10080 20080 39975 40110 50003 60026 72162 875// 90000 333 60027=
07240,1997-11-22 03:00:00,7,1011.4,0.4,100,7,500,7.408,,,150,,,,,,,,,,44,wg-a,,,,AAXX 22034 07240 12105 71504 10070 20070 39979 40114 53004 60006 74442 8753/ 90300=
07240,1997-11-22 06:00:00,4,1012.3,0.7,100,4,100,7.408,,,120,3.9,9.5,,,,,2,,,44,wg-a,,,,AAXX 22064 07240 02101 41204 10040 20040 39986 40123 53007 60006 74441 84600 90600 333 10095 20039 60024=
07240,1997-11-22 09:00:00,5,1013.6,1.3,93,4,400,3.704,,,80,,,,,,,,,,44,wg-a,,,,AAXX 22094 07240 12104 /0802 10050 20040 39999 40136 51013 60006 74444 83602 90900=
07240,1997-11-22 12:00:00,12,1014,0.8,76,8,20000,3.704,,,210,,,,,,,,,,3,wg-a,,,,AAXX 22124 07240 12470 72102 10120 20080 30007 40140 51008 60006 70341 82232 91200=
07240,1997-11-22 15:00:00,11,1014.1,-0,82,8,500,0,,,0,,,,,,,,,,,wg-a,,,,AAXX 22154 07240 12500 70000 10110 20080 30007 40141 55000 60006 81212 91500=
07240,1997-11-22 18:00:00,8,1015.6,1.4,93,7,20000,0,,,0,2.8,12.8,,,,,,,,,wg-a,,,,AAXX 22184 07240 12570 40000 10080 20070 30021 40156 53014 60006 83402 91800 333 10128 20028=
07240,1997-11-22 21:00:00,6,1017.1,1.4,100,6,10000,3.704,,,150,,,,,,,,,,,wg-a,,,,AAXX 22214 07240 12660 /1502 10060 20060 30035 40171 51014 60006 85500 92100=
07240,1997-11-23 00:00:00,5,1017.8,0.6,100,5,6000,3.704,,,170,,,,,,,,,,,wg-a,,,,AAXX 23004 07240 12656 21702 10050 20050 30041 40178 51006 60006 82500 90000=
07240,1997-11-23 03:00:00,4,1018.5,0.6,93,3,200,3.704,,,150,,,,,,,,,,47,wg-a,,,,AAXX 23034 07240 32/02 91502 10040 20030 30047 40185 53006 74741 89/// 90300=
07240,1997-11-23 06:00:00,5,1018.9,0.5,100,5,100,0,,,0,2.9,8.1,,,,,,,,45,wg-a,,,,AAXX 23064 07240 02/01 90000 10050 20050 30052 40189 53005 60006 74541 89/// 90600 333 10081 20029 60004=
07240,1997-11-23 12:00:00,4,1020,-0.5,100,4,100,11.112,,,130,,,,,,,,,,45,wg-a,,,,AAXX 23124 07240 12/01 91306 10040 20040 30062 40200 58005 60006 74544 89/// 91200=
07240,1997-11-23 15:00:00,5,1019.2,-0.7,100,5,500,14.816,,,130,,,,,,,,,,,wg-a,,,,AAXX 23154 07240 12/00 /1308 10050 20050 30055 40192 56007 60006 91500=
07240,1997-11-23 18:00:00,5,1018.7,-0.5,100,5,500,14.816,,,150,3.5,5.5,,,,,,,,,wg-a,,,,AAXX 23184 07240 12/05 /1508 10050 20050 30050 40187 55005 60006 91800 333 10055 20035=
07240,1997-11-23 21:00:00,6,1018,-0.7,100,6,2000,14.816,,,130,,,,,,,,,,10,wg-a,,,,AAXX 23214 07240 12120 81308 10060 20060 30043 40180 58007 60006 71042 887// 92100=
07240,1997-11-24 00:00:00,5,1016.5,-1.5,100,5,6000,14.816,,,100,,,,,,,,,,3,wg-a,,,,AAXX 24004 07240 12256 71008 10050 20050 30028 40165 58015 60006 70342 877// 90000=
07240,1997-11-24 03:00:00,5,1015,-1.5,100,5,6000,14.816,,,100,,,,,,,,,,61,wg-a,,,,AAXX 24034 07240 02756 81008 10050 20050 30013 40150 58015 61000 76162 875// 90300 333 ////=
07240,1997-11-24 06:00:00,5,1012.6,-2.3,93,4,6000,22.224,,,90,4.9,6.1,,,,,,,,61,wg-a,,,,AAXX 24064 07240 02256 80912 10050 20040 39990 40126 58023 61000 76162 877// 90600 333 10061 20049 6000=
07240,1997-11-24 12:00:00,7,1007.7,-3.1,87,5,13000,22.224,,,90,,,,,,,,,,1,wg-a,,,,AAXX 24124 07240 02/63 /0912 10070 20050 39942 40077 58031 61000 70162 85031 91200 333 ////=
07240,1997-11-24 15:00:00,7,1005,-2.6,81,4,15000,22.224,,,100,,,,,,,,,,,wg-a,,,,AAXX 24154 07240 12765 71012 10070 20040 39916 40050 58026 60006 8453/ 91500=
07240,1997-11-24 18:00:00,6,1004.8,-0.3,87,4,12000,14.816,,,110,5,7.8,,,,,,,,,wg-a,,,,AAXX 24184 07240 12762 71108 10060 20040 39913 40048 55003 60006 8553/ 91800 333 10078 20050=
07240,1997-11-24 21:00:00,5,1004.3,-0.5,87,3,10000,11.112,,,120,,,,,,,,,,,wg-a,,,,AAXX 24214 07240 12760 81206 10050 20030 39908 40043 56005 60006 875// 92100=
07240,1997-11-25 00:00:00,5,1004.3,-0,87,3,10000,11.112,,,140,,,,,,,,,,,wg-a,,,,AAXX 25004 07240 12760 81406 10050 20030 39908 40043 54000 60006 875// 90000=
07240,1997-11-25 03:00:00,7,1003.9,-0.3,87,5,10000,11.112,,,150,,,,,,,,,,,wg-a,,,,AAXX 25034 07240 12760 71506 10070 20050 39905 40039 57003 60006 875// 90300=
07240,1997-11-25 06:00:00,8,1003.7,-0.2,87,6,10000,11.112,,,150,5.1,8.2,,,,,,,,,wg-a,,,,AAXX 25064 07240 02660 71506 10080 20060 39903 40037 58002 60006 875// 90600 333 10082 20051 61000=
07240,1997-11-25 09:00:00,10,1004,0.4,82,7,15000,14.816,,,180,,,,,,,,,,,wg-a,,,,AAXX 25094 07240 12465 71808 10100 20070 39907 40040 53004 60006 878// 90900=
07240,1997-11-25 12:00:00,14,1002.9,-0.9,67,8,20000,18.52,,,170,,,,,,,,,,,wg-a,,,,AAXX 25124 07240 12770 31710 10140 20080 39898 40029 58009 60006 83500 91200=
07240,1997-11-25 18:00:00,9,1001.9,-0,87,7,15000,14.816,,,90,8.3,15.4,,,,,,,,,wg-a,,,,AAXX 25184 07240 12/65 40908 10090 20070 39886 40019 55000 60006 81031 91800 333 10154 20083=
07240,1997-11-25 21:00:00,8,1001.6,-0.3,93,7,15000,11.112,,,80,,,,,,,,,,,wg-a,,,,AAXX 25214 07240 12/65 70806 10080 20070 39883 40016 56003 60006 83032 92100=
07240,1997-11-26 00:00:00,7,1001.5,-0.2,93,6,10000,14.816,,,80,,,,,,,,,,,wg-a,,,,AAXX 26004 07240 12/60 80808 10070 20060 39881 40015 56002 60006 84032 90000=
07240,1997-11-26 03:00:00,7,1001.2,-0.3,93,6,10000,14.816,,,80,,,,,,,,,,,wg-a,,,,AAXX 26034 07240 12/60 80808 10070 20060 39878 40012 56003 60006 8703/ 90300=
07240,1997-11-26 06:00:00,6,1001.4,0.2,93,5,10000,11.112,,,90,6.2,9.3,,,,,,,,,wg-a,,,,AAXX 26064 07240 02/60 80906 10060 20050 39880 40014 53002 60006 8707/ 90600 333 10093 20062 60004=
07240,1997-11-26 09:00:00,8,1003.4,2,93,7,15000,7.408,,,120,,,,,,,,,,,wg-a,,,,AAXX 26094 07240 12/65 71204 10080 20070 39900 40034 52020 60006 8707/ 90900=
07240,1997-11-26 12:00:00,11,1003.7,0.5,82,8,20000,7.408,,,120,,,,,,,,,,,wg-a,,,,AAXX 26124 07240 12670 71204 10110 20080 39905 40037 51005 60006 8357/ 91200=
07240,1997-11-26 15:00:00,13,1004.4,0.8,77,9,20000,14.816,,,140,,,,,,,,,,,wg-a,,,,AAXX 26154 07240 12670 /1408 10130 20090 39913 40044 53008 60006 81570 91500=
07240,1997-11-26 18:00:00,12,1006.1,1.6,82,9,20000,11.112,,,140,6.2,13.2,,,,,,,,,wg-a,,,,AAXX 26184 07240 12470 71406 10120 20090 39929 40061 51016 60006 8157/ 91800 333 10132 20062=
07240,1997-11-26 21:00:00,12,1007.2,1.1,88,10,11000,14.816,,,150,,,,,,,,,,,wg-a,,,,AAXX 26214 07240 12/61 /1508 10120 20100 39940 40072 51011 60006 92100=
07240,1997-11-27 00:00:00,10,1008.3,1,93,9,15000,11.112,,,170,,,,,,,,,,,wg-a,,,,AAXX 27004 07240 12865 21706 10100 20090 39950 40083 51010 60006 82030 90000=
07240,1997-11-27 03:00:00,11,1008.7,0.4,87,9,15000,14.816,,,180,,,,,,,,,,,wg-a,,,,AAXX 27034 07240 12465 71808 10110 20090 39954 40087 52004 60006 876// 90300=
07240,1997-11-27 06:00:00,11,1009.3,0.6,94,10,10000,14.816,,,190,9.9,12.2,,,,,,,,,wg-a,,,,AAXX 27064 07240 02360 71908 10110 20100 39960 40093 53006 60006 876// 90600 333 10122 20099 60004=
07240,1997-11-27 09:00:00,11,1009.3,0.6,94,10,10000,14.816,,,190,,12.2,,,,,1,,,,wg-a,,,,AAXX 27094 07240 12360 71908 10110 20100 39960 40093 53006 61014 876// 90900 333 10122=
07240,1997-11-27 12:00:00,12,1013,1,88,10,10000,14.816,,,250,,,,,,,,,,,wg-a,,,,AAXX 27124 07240 12460 72508 10120 20100 39997 40130 51010 60006 8527/ 91200=
07240,1997-11-27 15:00:00,13,1013,-0,72,8,20000,14.816,,,230,,,,,,,,,,,wg-a,,,,AAXX 27154 07240 12570 /2308 10130 20080 39997 40130 55000 60006 85270 91500=
07240,1997-11-27 18:00:00,10,1014,0.9,87,8,15000,11.112,,,200,9.9,12.7,0,0,0,0,0,,,,wg-a,,,,AAXX 27184 07240 12/65 22006 10100 20080 30006 40140 52009 60006 82030 91800 333 10127 20099=
07240,1997-11-27 21:00:00,9,1013.5,-0.6,87,7,20000,11.112,,,150,,,,,,,,,,,wg-a,,,,AAXX 27214 07240 12770 71506 10090 20070 30000 40135 58006 60006 8555/ 92100=
07240,1997-11-28 00:00:00,8,1012,-1.5,93,7,15000,14.816,,,150,,,,,,,,,,,wg-a,,,,AAXX 28004 07240 12765 71508 10080 20070 39985 40120 58015 60006 83534 90000=
07240,1997-11-28 03:00:00,10,1011.1,-0.8,87,8,11000,18.52,,,180,,,,,,,,,,,wg-a,,,,AAXX 28034 07240 32/61 /1810 10100 20080 39977 40111 56008 90300=
07240,1997-11-28 06:00:00,9,1009.6,-1.5,93,8,12000,22.224,,,180,8.3,10.4,,,,,,,,61,wg-a,,,,AAXX 28064 07240 02362 81812 10090 20080 39962 40096 56015 61000 76162 8652/ 90600 333 10104 20083 6004=
07240,1997-11-28 12:00:00,11,1008.9,-0.3,94,10,11000,18.52,,,200,,,,,,,,,,,wg-a,,,,AAXX 28124 07240 12/61 /2010 10110 20100 39956 40089 58003 60036 91200=
07240,1997-11-28 15:00:00,12,1008,-0.8,94,11,15000,18.52,,,190,,,,,,,,,,,wg-a,,,,AAXX 28154 07240 12465 61910 10120 20110 39948 40080 56008 60006 86800 91500=
07240,1997-11-28 18:00:00,11,1008.2,0.1,94,10,10000,18.52,,,220,9.2,12.4,,2,,,,,,1,wg-a,,,,AAXX 28184 07240 02560 32210 10110 20100 39949 40082 53001 60006 70186 82202 91800 333 10124 20092 60027=
07240,1997-11-28 21:00:00,11,1007.2,-1,94,10,10000,25.928,,,190,,,,0,,,,,,60,wg-a,,,,AAXX 28214 07240 12560 71914 10110 20100 39939 40072 58010 60007 76061 8527/ 92100=
07240,1997-11-29 00:00:00,11,1007.1,-0.1,87,9,10000,25.928,,,230,,,,3,,,,,,61,wg-a,,,,AAXX 29004 07240 02560 72314 10110 20090 39938 40071 56001 60036 76161 8527/ 90000 333 60037=
07240,1997-11-29 06:00:00,9,1008.8,-0,93,8,15000,14.816,,,230,9.1,11.6,,,,,8,,,1,wg-a,,,,AAXX 29064 07240 02365 /2308 10090 20080 39954 40088 54000 60006 70162 83502 90600 333 10116 20091 60084=
07240,1997-11-29 09:00:00,9,1009.1,0.3,100,9,20000,14.816,,,210,,,,0,,,,,,80,wg-a,,,,AAXX 29094 07240 12470 72108 10090 20090 39957 40091 52003 60007 78086 872// 90900=
07240,1997-11-29 15:00:00,9,1007.6,-0.7,87,7,11000,14.816,,,240,,,,,,,,,,,wg-a,,,,AAXX 29154 07240 32/61 /2408 10090 20070 39942 40076 56007 91500=
07240,1997-11-29 18:00:00,7,1008.1,0.4,100,7,500,14.816,,,210,7.3,12.5,,,,,,,,2,wg-a,,,,AAXX 29184 07240 12700 22108 10070 20070 39946 40081 51004 60006 70298 82802 91800 333 10125 20073=
07240,1997-11-29 21:00:00,7,1009.5,1.4,100,7,20000,14.816,,,270,,,,,,,,,,,wg-a,,,,AAXX 29214 07240 12670 /2708 10070 20070 39960 40095 51014 60006 81500 92100=
07240,1997-11-30 00:00:00,7,1010.5,1,93,6,15000,18.52,,,270,,,,,,,,,,,wg-a,,,,AAXX 30004 07240 12265 72710 10070 20060 39970 40105 51010 60006 878// 90000=
07240,1997-11-30 03:00:00,7,1011.1,0.6,93,6,15000,18.52,,,270,,,,,,,,,,,wg-a,,,,AAXX 30034 07240 12265 72710 10070 20060 39976 40111 52006 60006 877// 90300=
07240,1997-11-30 06:00:00,7,1011.3,0.2,93,6,12000,22.224,,,270,6.5,8.2,,,,,4,,,,wg-a,,,,AAXX 30064 07240 02362 52712 10070 20060 39978 40113 51002 60006 85700 90600 333 10082 20065 60044=
07240,1997-11-30 09:00:00,7,1012.6,1.3,100,7,15000,22.224,,,280,,,,,,,,,,,wg-a,,,,AAXX 30094 07240 12365 72812 10070 20070 39991 40126 53013 60006 8/500 90900=
07240,1997-11-30 12:00:00,10,1013.1,0.6,87,8,20000,18.52,,,280,,,,,,,,,,3,wg-a,,,,AAXX 30124 07240 02470 72810 10100 20080 39997 40131 51006 61000 70386 8/800 91200 333 6100=
07240,1997-11-30 15:00:00,10,1013.6,0.5,93,9,20000,14.816,,,290,,,,0,,,,,,25,wg-a,,,,AAXX 30154 07240 12470 72908 10100 20090 30002 40136 53005 60007 72586 878// 91500=
07240,1997-11-30 18:00:00,9,1015.3,1.6,93,8,20000,14.816,,,300,6.8,10.8,,,,,,,,1,wg-a,,,,AAXX 30184 07240 12470 73008 10090 20080 30018 40153 53016 60006 70186 878// 91800 333 10108 20068=
07240,1997-11-30 21:00:00,8,1016.9,1.6,93,7,10000,14.816,,,310,,,,,,,,,,,wg-a,,,,AAXX 30214 07240 12/60 /3108 10080 20070 30034 40169 53016 60006 92100=
07240,1997-12-01 00:00:00,7,1018.2,1.2,93,6,15000,14.816,,,320,,,,,,,,,,,wg-a,,,,AAXX 01004 07240 12765 73208 10070 20060 30046 40182 52012 60006 875// 90000=
07240,1997-12-01 03:00:00,5,1018.7,0.4,93,4,6000,7.408,,,290,,,,,,,,,,11,wg-a,,,,AAXX 01034 07240 12756 82904 10050 20040 30050 40187 51004 60006 71122 875// 90300=
07240,1997-12-01 06:00:00,4,1018.6,-0.2,93,3,600,3.704,,,320,3.5,8.8,,,,,,,,45,wg-a,,,,AAXX 01064 07240 02/06 93202 10040 20030 30048 40186 56002 60006 74542 89/// 90600 333 10088 20035 60004=
07240,1997-12-01 09:00:00,4,1018.7,0.1,93,3,500,7.408,,,170,,,,,,,,,,45,wg-a,,,,AAXX 01094 07240 32/00 91704 10040 20030 30049 40187 52001 74544 89/// 90900=
07240,1997-12-01 12:00:00,7,1016,-2.5,100,7,7000,11.112,,,140,,,,,,,,,,28,wg-a,,,,AAXX 01124 07240 12157 61406 10070 20070 30024 40160 58025 60006 72842 82631 91200=
07240,1997-12-01 15:00:00,8,1013.2,-2.7,81,5,11000,14.816,,,140,,,,,,,,,,,wg-a,,,,AAXX 01154 07240 12461 71408 10080 20050 39997 40132 56027 60006 8587/ 91500=
07240,1997-12-01 18:00:00,7,1010.1,-3.1,87,5,8000,18.52,,,130,2.8,8.2,,,,,,,,61,wg-a,,,,AAXX 01184 07240 02558 81310 10070 20050 39966 40101 58031 61000 76162 8452/ 91800 333 10082 20028 6000=
07240,1997-12-01 21:00:00,6,1005.3,-4.8,93,5,6000,22.224,,,150,,,,1,,,,,,61,wg-a,,,,AAXX 01214 07240 12456 81512 10060 20050 39918 40053 58048 60017 76166 875// 92100=
07240,1997-12-02 00:00:00,8,999.3,-5.8,100,8,4000,18.52,,,190,,,,2,,,,,,50,wg-a,,,,AAXX 02004 07240 02240 81910 10080 20080 39860 49993 57058 60036 75065 877// 90000 333 60027=
07240,1997-12-02 03:00:00,9,996.7,-2.5,87,7,8000,35.188,,61.116,290,,,,1,,,,,,20,wg-a,,,,AAXX 02034 07240 12458 82919 10090 20070 39835 49967 55025 60017 72052 877// 90300 333 91033=
07240,1997-12-02 06:00:00,3,999.4,2.3,93,2,10000,35.188,,,320,3.2,9.9,,,,,4,,,3,wg-a,,,,AAXX 02064 07240 02460 83219 10030 20020 39858 49994 53023 60006 70352 875// 90600 333 10099 20032 60044=
07240,1997-12-02 09:00:00,3,1003.4,4,87,1,500,29.632,,,330,,,,,,,,,,,wg-a,,,,AAXX 02094 07240 12400 83316 10030 20010 39898 40034 52040 60006 875// 90900=
07240,1997-12-02 12:00:00,4,1005.4,2,81,1,11000,25.928,,,330,,,,,,,,,,,wg-a,,,,AAXX 02124 07240 12/61 /3314 10040 20010 39918 40054 51020 60006 91200=
07240,1997-12-02 15:00:00,4,1007.2,1.8,87,2,25000,22.224,,,320,,,,,,,,,,,wg-a,,,,AAXX 02154 07240 12475 73212 10040 20020 39936 40072 53018 60006 8623/ 91500=
07240,1997-12-02 18:00:00,3,1009.1,1.8,93,2,15000,22.224,,44.448,330,2.8,5.1,,,,,,,,21,wg-a,,,,AAXX 02184 07240 02465 73312 10030 20020 39954 40091 51018 61000 72162 872// 91800 333 10051 20028 6100 91024=
07240,1997-12-02 21:00:00,2,1010.2,1,80,-1,15000,22.224,,,290,,,,,,,,,,,wg-a,,,,AAXX 02214 07240 12/65 02912 10020 21010 39964 40102 53010 60006 80000 92100=
07240,1997-12-03 00:00:00,3,1010.7,0.6,81,0,11000,25.928,,,320,,,,,,,,,,,wg-a,,,,AAXX 03004 07240 12/61 /3214 10030 20000 39970 40107 51006 60006 90000=
07240,1997-12-03 03:00:00,0,1011.8,0.9,93,-1,10000,14.816,,,320,,,,,,,,,,,wg-a,,,,AAXX 03034 07240 12/60 03208 10000 21010 39979 40118 51009 60006 80000 90300=
07240,1997-12-03 06:00:00,0,1013.3,1.5,93,-1,10000,18.52,,,340,0.3,3.5,,,,,,,,,wg-a,,,,AAXX 03064 07240 02/60 13410 10000 21010 39994 40133 53015 60006 80002 90600 333 10035 20003 61000=
07240,1997-12-03 12:00:00,5,1016,0.8,56,-3,500,14.816,,,10,,,,,,,,,,,wg-a,,,,AAXX 03124 07240 12500 /0108 10050 21030 30023 40160 51008 60006 81130 91200=
07240,1997-12-03 15:00:00,5,1016.5,0.5,65,-1,40000,18.52,,,360,,,,,,,,,,,wg-a,,,,AAXX 03154 07240 12582 /3610 10050 21010 30028 40165 53005 60006 81130 91500=
07240,1997-12-03 18:00:00,1,1017.4,0.7,86,-1,500,7.408,,,350,-0.1,5.6,,,,,,,,,wg-a,,,,AAXX 03184 07240 12/00 13504 10010 21010 30035 40174 51007 60006 81030 91800 333 10056 21001=
07240,1997-12-04 00:00:00,-1,1018.6,0.1,93,-2,10000,7.408,,,340,,,,,,,,,,,wg-a,,,,AAXX 04004 07240 12/60 23404 11010 21020 30046 40186 53001 60006 82030 90000=
07240,1997-12-04 03:00:00,0,1018.5,-0.1,93,-1,10000,7.408,,,340,,,,,,,,,,,wg-a,,,,AAXX 04034 07240 12760 43404 10000 21010 30045 40185 55001 60006 82530 90300=
07240,1997-12-04 06:00:00,0,1017.5,-1,93,-1,8000,14.816,,,340,-1.3,1.3,,,,,,,,,wg-a,,,,AAXX 04064 07240 02558 73408 10000 21010 30035 40175 56010 60006 8553/ 90600 333 10013 21013 60004=
07240,1997-12-04 09:00:00,1,1017.7,0.3,93,0,4000,11.112,,,350,,,,,,,,,,10,wg-a,,,,AAXX 04094 07240 12240 73506 10010 20000 30038 40177 53003 60006 71022 83532 90900=
07240,1997-12-04 12:00:00,2,1017.8,0.1,80,-1,15000,22.224,,,50,,,,,,,,,,,wg-a,,,,AAXX 04124 07240 12565 80512 10020 21010 30039 40178 50001 60006 83537 91200=
07240,1997-12-04 15:00:00,2,1018.1,0.3,80,-1,12000,18.52,,,40,,,,,,,,,,,wg-a,,,,AAXX 04154 07240 12562 70410 10020 21010 30042 40181 53003 60006 83232 91500=
07240,1997-12-04 18:00:00,2,1019.2,1.1,87,0,10000,14.816,,,50,-0.4,2.7,,,,,,,,,wg-a,,,,AAXX 04184 07240 12460 80508 10020 20000 30053 40192 51011 60006 865// 91800 333 10027 21004=
07240,1997-12-04 21:00:00,2,1020.6,1.4,80,-1,9000,14.816,,,30,,,,,,,,,,,wg-a,,,,AAXX 04214 07240 12459 80308 10020 21010 30067 40206 52014 60006 875// 92100=
07240,1997-12-05 00:00:00,2,1021.2,0.6,87,0,4000,14.816,,,40,,,,,,,,,,10,wg-a,,,,AAXX 05004 07240 12340 80408 10020 20000 30073 40212 52006 60006 71022 886// 90000=
07240,1997-12-05 03:00:00,1,1022.1,0.8,86,-1,10000,11.112,,,50,,,,,,,,,,,wg-a,,,,AAXX 05034 07240 12360 80506 10010 21010 30081 40221 53008 60006 886// 90300=
07240,1997-12-05 06:00:00,0,1023,0.9,93,-1,8000,11.112,,,40,0.1,2.2,,,,,,,,,wg-a,,,,AAXX 05064 07240 02558 /0406 10000 21010 30090 40230 53009 60006 81500 90600 333 10022 20001 60004=
07240,1997-12-05 09:00:00,0,1024.9,1.8,93,-1,8000,11.112,,,40,,,,,,,,,,,wg-a,,,,AAXX 05094 07240 12/58 /0406 10000 21010 30108 40249 53018 60006 80001 90900=
07240,1997-12-05 12:00:00,1,1025.4,0.6,93,0,10000,14.816,,,40,,,,0,,,,,,,wg-a,,,,AAXX 05124 07240 02460 80408 10010 20000 30114 40254 51006 60006 885// 91200 333 60007=
07240,1997-12-05 15:00:00,1,1025.5,0.1,93,0,10000,11.112,,,50,,,,,,,,,,,wg-a,,,,AAXX 05154 07240 12460 70506 10010 20000 30115 40255 50001 60006 876// 91500=
07240,1997-12-05 18:00:00,1,1026.8,1.3,86,-1,10000,11.112,,,70,-0.2,1.6,,,,,,,,,wg-a,,,,AAXX 05184 07240 12460 80706 10010 21010 30128 40268 53013 60006 886// 91800 333 10016 21002=
07240,1997-12-05 21:00:00,1,1027.6,0.7,86,-1,10000,3.704,,,120,,,,,,,,,,,wg-a,,,,AAXX 05214 07240 12460 81202 10010 21010 30135 40276 52007 60006 886// 92100=
07240,1997-12-06 00:00:00,1,1027.4,-0.2,86,-1,8000,3.704,,,150,,,,,,,,,,,wg-a,,,,AAXX 06004 07240 12458 81502 10010 21010 30133 40274 58002 60006 876// 90000=
07240,1997-12-06 03:00:00,0,1027.3,-0.1,93,-1,6000,3.704,,,100,,,,,,,,,,,wg-a,,,,AAXX 06034 07240 12356 81002 10000 21010 30132 40273 58001 60006 876// 90300=
07240,1997-12-06 06:00:00,0,1027,-0.3,93,-1,6000,7.408,,,170,-0.2,1.3,,,,,,,,,wg-a,,,,AAXX 06064 07240 02356 81704 10000 21010 30129 40270 57003 60006 876// 90600 333 10013 21002 60004=
07240,1997-12-06 09:00:00,0,1027.2,0.2,93,-1,6000,11.112,,,190,,,,,,,,,,,wg-a,,,,AAXX 06094 07240 12356 81906 10000 21010 30131 40272 50002 60006 876// 90900=
07240,1997-12-06 12:00:00,4,1026.4,-0.6,75,0,8000,7.408,,,170,,,,,,,,,,,wg-a,,,,AAXX 06124 07240 12458 31704 10040 20000 30125 40264 58006 60006 83500 91200=
07240,1997-12-06 15:00:00,5,1025.3,-1,70,0,10000,3.704,,,150,,,,,,,,,,,wg-a,,,,AAXX 06154 07240 12/60 21502 10050 20000 30115 40253 56010 60006 82030 91500=
07240,1997-12-06 18:00:00,1,1025.2,-0.3,86,-1,10000,7.408,,,150,-0.2,5.4,,,,,,,,,wg-a,,,,AAXX 06184 07240 12/60 /1504 10010 21010 30112 40252 58003 60006 91800 333 10054 21002=
07240,1997-12-06 21:00:00,-1,1025.3,0,93,-2,10000,11.112,,,130,,,,,,,,,,,wg-a,,,,AAXX 06214 07240 12/60 01306 11010 21020 30112 40253 50000 60006 80000 92100=
07240,1997-12-07 00:00:00,-2,1024.1,-1.2,100,-2,7000,3.704,,,100,,,,,,,,,,,wg-a,,,,AAXX 07004 07240 12/57 /1002 11020 21020 30100 40241 56012 60006 80001 90000=
07240,1997-12-07 06:00:00,-3,1019.9,-2.4,93,-4,8000,7.408,,,120,-2.5,0.7,,,,,,,,,wg-a,,,,AAXX 07064 07240 02/58 01204 11030 21040 30058 40199 56024 60006 80000 90600 333 10007 21025 60004=
07240,1997-12-07 09:00:00,-1,1019.3,-0.6,86,-3,7000,14.816,,,140,,,,,,,,,,,wg-a,,,,AAXX 07094 07240 12/57 31408 11010 21030 30052 40193 56006 60006 80001 90900=
07240,1997-12-07 12:00:00,4,1017.5,-1.5,70,-1,8000,7.408,,,170,,,,,,,,,,,wg-a,,,,AAXX 07124 07240 12/58 31704 10040 21010 30037 40175 58015 60006 82031 91200=
07240,1997-12-07 15:00:00,5,1014.6,-2.8,70,0,8000,11.112,,,150,,,,,,,,,,,wg-a,,,,AAXX 07154 07240 12/58 51506 10050 20000 30009 40146 56028 60006 83032 91500=
07240,1997-12-07 18:00:00,2,1013.8,-0.9,80,-1,10000,14.816,,,160,-3.1,5.8,,,,,,,,,wg-a,,,,AAXX 07184 07240 12/60 21608 10020 21010 30000 40138 56009 60006 81031 91800 333 10058 21031=
07240,1997-12-07 21:00:00,3,1012.5,-1.2,75,-1,10000,11.112,,,170,,,,,,,,,,,wg-a,,,,AAXX 07214 07240 12660 71706 10030 21010 39988 40125 58012 60006 875// 92100=
07240,1997-12-08 00:00:00,5,1011.4,-1,65,-1,15000,14.816,,,180,,,,,,,,,,1,wg-a,,,,AAXX 08004 07240 02565 71808 10050 21010 39978 40114 58010 61000 70161 875// 90000 333 6100=
07240,1997-12-08 03:00:00,4,1011.3,-0.2,81,1,10000,14.816,,,210,,,,,,,,,,,wg-a,,,,AAXX 08034 07240 12/60 /2108 10040 20010 39976 40113 55002 60006 90300=
07240,1997-12-08 06:00:00,5,1011.2,-0,87,3,15000,14.816,,,190,1,5.5,,,,,,,,,wg-a,,,,AAXX 08064 07240 02265 71908 10050 20030 39976 40112 55000 60006 876// 90600 333 10055 20010 61000=
07240,1997-12-08 09:00:00,6,1011.6,0.4,87,4,9000,22.224,,,190,,,,,,,,,,,wg-a,,,,AAXX 08094 07240 12259 71912 10060 20040 39980 40116 53004 60006 876// 90900=
07240,1997-12-08 12:00:00,8,1010.1,-1.3,93,7,6000,25.928,,,190,,,,1,,,,,,50,wg-a,,,,AAXX 08124 07240 02256 71914 10080 20070 39967 40101 58013 60016 75052 877// 91200 333 60017=
07240,1997-12-08 15:00:00,10,1007.9,-2.1,87,8,10000,18.52,,,190,,,,0,,,,,,1,wg-a,,,,AAXX 08154 07240 12560 71910 10100 20080 39946 40079 56021 60007 70165 8523/ 91500=
07240,1997-12-08 17:00:00,10,1008,0.1,93,9,6000,14.816,,,220,5.1,10.1,,2,,,,,,,wg-a,,,,AAXX 08174 07240 12/56 /2208 10100 20090 39944 40080 53001 60027 91700 333 10101 20051=
07240,1997-12-08 18:00:00,10,1008,0.1,93,9,8000,14.816,,,220,5.1,10.1,,2,,,,,,,wg-a,,,,AAXX 08184 07240 02/58 /2208 10100 20090 39947 40080 53001 60006 91800 333 10101 20051 60027=
07240,1997-12-08 21:00:00,9,1009.5,1.4,93,8,10000,14.816,,,230,,,,0,,,,,,21,wg-a,,,,AAXX 08214 07240 12460 72308 10090 20080 39961 40095 53014 60007 72162 8253/ 92100=
07240,1997-12-09 00:00:00,7,1011.1,1.5,100,7,10000,18.52,,,250,,,,,,,,,,1,wg-a,,,,AAXX 09004 07240 12460 /2510 10070 20070 39976 40111 52015 60006 70161 81700 90000=
07240,1997-12-09 03:00:00,6,1012.3,1.1,100,6,10000,11.112,,,230,,,,,,,,,,,wg-a,,,,AAXX 09034 07240 12760 22306 10060 20060 39987 40123 53011 60006 82500 90300=
07240,1997-12-09 06:00:00,6,1014.2,1.9,93,5,8000,7.408,,,220,5.3,9.7,,,,,3,,,,wg-a,,,,AAXX 09064 07240 02158 72204 10060 20050 30006 40142 52019 60006 875// 90600 333 10097 20053 60034=
07240,1997-12-09 09:00:00,6,1015.5,1.3,100,6,6000,11.112,,,210,,,,,,,,,,,wg-a,,,,AAXX 09094 07240 12756 72106 10060 20060 30019 40155 53013 60006 84532 90900=
07240,1997-12-09 12:00:00,10,1015.6,0.3,87,8,9000,14.816,,,210,,,,,,,,,,,wg-a,,,,AAXX 09124 07240 12459 72108 10100 20080 30022 40156 50003 60006 85802 91200=
07240,1997-12-09 18:00:00,10,1016,0.1,93,9,10000,18.52,,,210,4.9,11,,,,,,,,,wg-a,,,,AAXX 09184 07240 12460 72110 10100 20090 30026 40160 50001 60006 878// 91800 333 10110 20049=
07240,1997-12-09 21:00:00,10,1016,0,93,9,10000,22.224,,,220,,,,,,,,,,,wg-a,,,,AAXX 09214 07240 12460 72212 10100 20090 30026 40160 50000 60006 875// 92100=
07240,1997-12-10 00:00:00,11,1015.6,-0.4,94,10,7000,22.224,,,220,,,,,,,,,,,wg-a,,,,AAXX 10004 07240 12/57 /2212 10110 20100 30022 40156 58004 60006 90000=
07240,1997-12-10 03:00:00,11,1014.3,-1.3,94,10,8000,25.928,,,210,,,,0,,,,,,20,wg-a,,,,AAXX 10034 07240 12258 72114 10110 20100 30009 40143 58013 60007 72022 877// 90300=
07240,1997-12-10 06:00:00,11,1012.5,-1.7,94,10,10000,29.632,,,200,10,11.4,,,,,,,,60,wg-a,,,,AAXX 10064 07240 02360 82016 10110 20100 39992 40125 57017 61000 76062 877// 90600 333 10114 20100 6000=
07240,1997-12-10 09:00:00,11,1011.8,-0.7,94,10,8000,31.484,,53.708,210,,,,3,,,,,,,wg-a,,,,AAXX 10094 07240 12/58 /2117 10110 20100 39985 40118 57007 60037 90900 333 91029=
07240,1997-12-10 12:00:00,11,1011.2,-0.6,94,10,10000,31.484,,,220,,,,3,,,,,,60,wg-a,,,,AAXX 10124 07240 02360 82217 10110 20100 39979 40112 58006 60076 76066 877// 91200 333 60037=
07240,1997-12-10 18:00:00,13,1013.4,1.7,100,13,6000,22.224,,,240,10.7,13,,,,,,,,51,wg-a,,,,AAXX 10184 07240 02256 82412 10130 20130 30002 40134 53017 61000 75165 887// 91800 333 10130 20107 6001=
07240,1997-12-10 21:00:00,12,1014.1,0.6,100,12,3500,18.52,,,220,,,,,,,,,,50,wg-a,,,,AAXX 10214 07240 02135 82210 10120 20120 30008 40141 50006 61000 75052 887// 92100 333 ////=
07240,1997-12-11 00:00:00,13,1013.1,-0.9,100,13,500,22.224,,,210,,,,0,,,,,,20,wg-a,,,,AAXX 11004 07240 02200 82112 10130 20130 39999 40131 58009 60006 72052 887// 90000 333 60007=
07240,1997-12-11 03:00:00,14,1011.7,-1.4,94,13,500,25.928,,,230,,,,4,,,,,,51,wg-a,,,,AAXX 11034 07240 12200 82314 10140 20130 39985 40117 56014 60047 75165 887// 90300=
07240,1997-12-11 06:00:00,14,1010.9,-0.8,94,13,3500,25.928,,,240,12.4,13.9,,,,,,,,61,wg-a,,,,AAXX 11064 07240 02235 82414 10140 20130 39977 40109 56008 61000 76165 887// 90600 333 10139 20124 6015=
07240,1997-12-11 09:00:00,14,1011.3,0.4,100,14,3000,22.224,,,240,,,,3,,,,,,61,wg-a,,,,AAXX 11094 07240 12230 82412 10140 20140 39981 40113 52004 60037 76166 877// 90900=
07240,1997-12-11 12:00:00,14,1010.1,-1.1,100,14,6000,22.224,,,230,,,,,,,,,,,wg-a,,,,AAXX 11124 07240 12/56 /2312 10140 20140 39970 40101 58011 60076 91200=
07240,1997-12-11 15:00:00,13,1009.8,-0.4,94,12,15000,29.632,,,250,,,,2,,,,,,21,wg-a,,,,AAXX 11154 07240 12465 72516 10130 20120 39966 40098 55004 60027 72162 84272 91500=
07240,1997-12-11 18:00:00,12,1010.1,0.2,88,10,15000,25.928,,,250,11.6,14.3,,,,,,,,1,wg-a,,,,AAXX 11184 07240 12665 /2514 10120 20100 39968 40101 50002 60006 70162 82172 91800 333 10143 20116=
07240,1997-12-11 21:00:00,11,1011.8,1.7,87,9,15000,0,,,0,,,,,,,,,,,wg-a,,,,AAXX 11214 07240 12565 ///// 10110 20090 39985 40118 52017 60006 84572 92100=
07240,1997-12-12 00:00:00,10,1014.3,2.4,87,8,15000,0,,,0,,,,,,,,,,,wg-a,,,,AAXX 12004 07240 12565 2//// 10100 20080 30009 40143 51024 60006 82500 90000=
07240,1997-12-12 03:00:00,,1016,1.6,,,15000,0,,,0,,,,,,,,,,,wg-a,,,,AAXX 12034 07240 12/65 0//// 1//// 2//// 40160 53016 60006 80000 90300=
07240,1997-12-12 06:00:00,7,1018,1.9,87,5,15000,29.632,,,280,6.6,11.8,,,,,9,,,,wg-a,,,,AAXX 12064 07240 02/65 02816 10070 20050 30044 40180 53019 60006 80000 90600 333 10118 20066 60094=
07240,1997-12-12 12:00:00,9,1022.8,1.8,81,6,500,29.632,,,330,,,,,,,,,,,wg-a,,,,AAXX 12124 07240 12500 33316 10090 20060 30092 40228 51018 60006 83200 91200=
07240,1997-12-12 18:00:00,6,1027.7,2.9,87,4,500,11.112,,,320,5.8,9.9,,,,,,,,,wg-a,,,,AAXX 12184 07240 12/00 13206 10060 20040 30139 40277 51029 60006 80001 91800 333 10099 20058=
07240,1997-12-12 21:00:00,4,1029.3,1.5,93,3,20000,11.112,,,290,,,,,,,,,,,wg-a,,,,AAXX 12214 07240 12/70 32906 10040 20030 30154 40293 53015 60006 80001 92100=
07240,1997-12-13 00:00:00,3,1030.4,1,93,2,15000,3.704,,,270,,,,0,,,,,,,wg-a,,,,AAXX 13004 07240 02/65 72702 10030 20020 30164 40304 51010 60006 81032 90000 333 60007=
07240,1997-12-13 06:00:00,1,1031.9,0.8,100,1,7000,11.112,,,340,0.5,5.9,,,,,,,,,wg-a,,,,AAXX 13064 07240 02557 73406 10010 20010 30178 40319 53008 60006 875// 90600 333 10059 20005 60004=
07240,1997-12-13 09:00:00,1,1033.5,1.6,100,1,3000,7.408,,,340,,,,,,,,,,28,wg-a,,,,AAXX 13094 07240 12730 /3404 10010 20010 30194 40335 52016 60006 72841 81500 90900=
07240,1997-12-13 12:00:00,7,1033.4,0.2,76,3,20000,11.112,,,30,,,,0,,,,,,3,wg-a,,,,AAXX 13124 07240 02470 /0306 10070 20030 30196 40334 50002 60006 70341 81101 91200 333 60007=
07240,1997-12-13 15:00:00,7,1033.5,0.1,66,1,500,11.112,,,50,,,,,,,,,,,wg-a,,,,AAXX 13154 07240 12600 30506 10070 20010 30197 40335 53001 60006 82101 91500=
07240,1997-12-13 18:00:00,3,1034.4,0.6,81,0,20000,7.408,,,10,0.3,7.6,,,,,,,,,wg-a,,,,AAXX 13184 07240 12/70 20104 10030 20000 30203 40344 53006 60006 80001 91800 333 10076 20003=
07240,1997-12-14 00:00:00,-1,1034.3,-0.2,93,-2,12000,3.704,,,20,,,,,,,,,,,wg-a,,,,AAXX 14004 07240 12/62 70202 11010 21020 30201 40343 58002 60006 81031 90000=
07240,1997-12-14 03:00:00,-1,1034,-0.4,93,-2,12000,7.408,,,30,,,,,,,,,,,wg-a,,,,AAXX 14034 07240 12/62 70304 11010 21020 30197 40340 56004 60006 81031 90300=
07240,1997-12-14 06:00:00,-1,1032.3,-1.6,93,-2,6000,7.408,,,110,-1.5,2.5,,,,,,,,12,wg-a,,,,AAXX 14064 07240 02/56 51104 11010 21020 30181 40323 56016 60006 71211 84031 90600 333 10025 21015 60004=
07240,1997-12-14 09:00:00,-1,1032.3,-0,100,-1,400,7.408,,,100,,,,,,,,,,44,wg-a,,,,AAXX 14094 07240 12004 81004 11010 21010 30181 40323 54000 60006 74442 886// 90900=
07240,1997-12-14 12:00:00,2,1030.8,-1.3,100,2,12000,7.408,,,80,,,,0,,,,,,2,wg-a,,,,AAXX 14124 07240 02/62 70804 10020 20020 30168 40308 58013 60006 70242 8707/ 91200 333 60007=
07240,1997-12-14 15:00:00,6,1028.3,-2.3,75,2,10000,11.112,,,90,,,,,,,,,,,wg-a,,,,AAXX 14154 07240 12/60 /0906 10060 20020 30145 40283 56023 60006 91500=
07240,1997-12-14 18:00:00,2,1027.6,-0.9,93,1,10000,3.704,,,80,-1.9,6.4,,,,,,,,,wg-a,,,,AAXX 14184 07240 12/60 /0802 10020 20010 30136 40276 58009 60006 91800 333 10064 21019=
07240,1997-12-14 21:00:00,0,1026.3,-1.4,93,-1,500,0,,,0,,,,,,,,,,,wg-a,,,,AAXX 14214 07240 12/00 /0000 10000 21010 30122 40263 58014 60006 92100=
07240,1997-12-15 00:00:00,5,1025,-1,93,4,7000,18.52,,,40,,,,0,,,,,,2,wg-a,,,,AAXX 15004 07240 02557 80410 10050 20040 30112 40250 56010 60006 70241 885// 90000 333 60007=
07240,1997-12-15 03:00:00,3,1024.3,-0.8,93,2,10000,14.816,,,40,,,,,,,,,,,wg-a,,,,AAXX 15034 07240 12/60 /0408 10030 20020 30104 40243 56008 60006 90300=
07240,1997-12-15 06:00:00,3,1023.7,-0.6,93,2,10000,25.928,,,40,-0.5,4.8,,,,,,,,,wg-a,,,,AAXX 15064 07240 02460 70414 10030 20020 30098 40237 56006 60006 878// 90600 333 10048 21005 60004=
07240,1997-12-15 09:00:00,2,1024.3,0.5,87,0,11000,25.928,,,50,,,,,,,,,,,wg-a,,,,AAXX 15094 07240 12/61 /0514 10020 20000 30103 40243 50005 60006 90900=
07240,1997-12-15 12:00:00,4,1023.3,-0.9,75,0,15000,31.484,,,60,,,,,,,,,,,wg-a,,,,AAXX 15124 07240 12465 70617 10040 20000 30094 40233 58009 60006 862// 91200=
07240,1997-12-15 15:00:00,3,1022.3,-1,75,-1,15000,29.632,,,50,,,,,,,,,,,wg-a,,,,AAXX 15154 07240 12565 70516 10030 21010 30084 40223 56010 60006 872// 91500=
07240,1997-12-15 18:00:00,3,1022.2,-0.1,70,-2,12000,25.928,,,60,1.6,4,,,,,,,,,wg-a,,,,AAXX 15184 07240 12662 70614 10030 21020 30083 40222 58001 60006 878// 91800 333 10040 20016=
07240,1997-12-16 00:00:00,2,1020.1,-1.4,75,-2,12000,25.928,,,50,,,,,,,,,,,wg-a,,,,AAXX 16004 07240 12662 70514 10020 21020 30062 40201 57014 60006 875// 90000=
07240,1997-12-16 03:00:00,1,1018.2,-1.9,75,-3,12000,29.632,,,60,,,,,,,,,,,wg-a,,,,AAXX 16034 07240 12662 70616 10010 21030 30043 40182 58019 60006 875// 90300=
07240,1997-12-16 06:00:00,0,1016.2,-2.1,80,-3,12000,35.188,,,70,0.1,3,,,,,,,,,wg-a,,,,AAXX 16064 07240 02662 70719 10000 21030 30022 40162 57021 60006 875// 90600 333 10030 20001 60004=
07240,1997-12-16 15:00:00,-1,1007.8,-3.7,93,-2,2500,35.188,,,70,,,,,,,,,,71,wg-a,,,,AAXX 16154 07240 02225 80719 11010 21020 39939 40078 56037 61000 77172 8477/ 91500 333 ////=
07240,1997-12-16 18:00:00,0,1005.4,-2.3,93,-1,500,38.892,,,80,-1.3,0.5,,,,,,,,71,wg-a,,2,,AAXX 16184 07240 02400 80821 10000 21010 39916 40054 56023 61000 77172 8577/ 91800 333 10005 21013 4/002 6100=
07240,1997-12-16 21:00:00,0,1002.3,-3,100,0,3000,46.3,,62.968,80,,,,0,,,,,,71,wg-a,,,,AAXX 16214 07240 12330 80825 10000 20000 39886 40023 57030 60007 77177 857// 92100 333 91034=
07240,1997-12-17 00:00:00,2,1001.1,-1.2,93,1,7000,25.928,,68.524,100,,,,3,,,,,,61,wg-a,,,,AAXX 17004 07240 02357 81014 10020 20010 39874 40011 58012 60036 76176 877// 90000 333 60037 91037=
07240,1997-12-17 03:00:00,3,999.4,-1.6,87,1,8000,25.928,,53.708,110,,,,2,,,,,,60,wg-a,,,,AAXX 17034 07240 12558 81114 10030 20010 39858 49994 56016 60027 76066 878// 90300 333 91029=
07240,1997-12-17 06:00:00,2,999,-0.4,93,1,8000,22.224,,,130,-0.2,2.6,,,,,6,,,2,wg-a,,,,AAXX 17064 07240 02458 81312 10020 20010 39854 49990 56004 60006 70262 878// 90600 333 10026 21002 60064=
07240,1997-12-17 09:00:00,3,999,-0,93,2,10000,11.112,,,90,,,,,,,,,,,wg-a,,,,AAXX 17094 07240 12460 80906 10030 20020 39854 49990 55000 60006 878// 90900=
07240,1997-12-17 12:00:00,5,997.3,-1.5,93,4,9000,18.52,,,100,,,,0,,,,,,21,wg-a,,,,AAXX 17124 07240 02259 81010 10050 20040 39839 49973 58015 60016 72162 878// 91200 333 60007=
07240,1997-12-17 15:00:00,6,996.6,-0.7,100,6,6000,18.52,,,100,,,,1,,,,,,60,wg-a,,,,AAXX 17154 07240 12256 81010 10060 20060 39832 49966 58007 60017 76062 878// 91500=
07240,1997-12-17 18:00:00,8,995.8,-0.7,93,7,11000,18.52,,,100,2.3,7.5,,,,,,,,,wg-a,,,,AAXX 17184 07240 12/61 /1010 10080 20070 39825 49958 55007 60006 91800 333 10075 20023=
07240,1997-12-17 21:00:00,10,995.3,-0.3,87,8,15000,18.52,,,110,,,,,,,,,,,wg-a,,,,AAXX 17214 07240 12665 71110 10100 20080 39822 49953 56003 60006 875// 92100=
07240,1997-12-18 00:00:00,11,994.1,-1.2,82,8,15000,22.224,,,120,,,,,,,,,,,wg-a,,,,AAXX 18004 07240 12765 81212 10110 20080 39810 49941 58012 60006 8257/ 90000=
07240,1997-12-18 03:00:00,12,994.6,0.5,76,8,20000,25.928,,,140,,,,,,,,,,,wg-a,,,,AAXX 18034 07240 12770 81414 10120 20080 39815 49946 53005 60006 8657/ 90300=
07240,1997-12-18 06:00:00,11,994.4,-0.2,94,10,15000,14.816,,,130,7.6,12.3,,,,,,,,61,wg-a,,,,AAXX 18064 07240 02565 81308 10110 20100 39813 49944 55002 61000 76162 8457/ 90600 333 10123 20076 6002=
07240,1997-12-18 09:00:00,11,996,1.6,94,10,12000,18.52,,,150,,,,8,,,,,,61,wg-a,,,,AAXX 18094 07240 12262 81510 10110 20100 39829 49960 51016 60087 76166 8557/ 90900=
07240,1997-12-18 12:00:00,12,995.8,-0.2,94,11,25000,14.816,,,150,,,,1,,,,,,21,wg-a,,,,AAXX 18124 07240 02375 81508 10120 20110 39827 49958 58002 60096 72162 8557/ 91200 333 60017=
07240,1997-12-18 15:00:00,12,995.4,-0.4,94,11,20000,11.112,,,130,,,,,,,,,,,wg-a,,,,AAXX 18154 07240 12370 81306 10120 20110 39823 49954 57004 60006 8753/ 91500=
07240,1997-12-18 18:00:00,11,995.8,0.4,94,10,8000,7.408,,,170,10.4,12,,,,,,,,61,wg-a,,,,AAXX 18184 07240 02258 81704 10110 20100 39827 49958 51004 61000 76162 875// 91800 333 10120 20104 6003=
07240,1997-12-18 21:00:00,10,996.4,0.5,93,9,8000,14.816,,,290,,,,3,,,,,,61,wg-a,,,,AAXX 18214 07240 12258 82908 10100 20090 39832 49964 53005 60037 76166 8575/ 92100=
07240,1997-12-19 00:00:00,9,996.9,0.5,100,9,4000,18.52,,,250,,,,0,,,,,,10,wg-a,,,,AAXX 19004 07240 02140 82510 10090 20090 39837 49969 53005 60046 71062 877// 90000 333 60007=
07240,1997-12-19 03:00:00,8,997.8,0.8,100,8,4000,7.408,,,260,,,,,,,,,,10,wg-a,,,,AAXX 19034 07240 12140 72604 10080 20080 39845 49978 51008 60006 71022 85502 90300=
07240,1997-12-19 06:00:00,8,998,0.2,100,8,300,11.112,,,130,7.8,10.9,,,,,15,,,45,wg-a,,,,AAXX 19064 07240 02/03 91306 10080 20080 39847 49980 53002 60006 74542 89/// 90600 333 10109 20078 60154=
07240,1997-12-19 09:00:00,8,998.8,0.8,93,7,10000,14.816,,,140,,,,,,,,,,2,wg-a,,,,AAXX 19094 07240 12760 71408 10080 20070 39855 49988 53008 60006 70242 85533 90900=
07240,1997-12-19 12:00:00,9,998.8,0.1,93,8,15000,14.816,,,160,,,,,,,,,,61,wg-a,,,,AAXX 19124 07240 02665 71608 10090 20080 39856 49988 51001 61000 76164 8583/ 91200 333 6100=
07240,1997-12-19 15:00:00,11,997.7,-1.1,87,9,15000,18.52,,,140,,,,0,,,,,,3,wg-a,,,,AAXX 19154 07240 12765 61410 10110 20090 39845 49977 55011 60007 70362 86533 91500=
07240,1997-12-19 18:00:00,10,998.1,0.4,82,7,15000,14.816,,,140,7.3,10.6,,,,,,,,2,wg-a,,,,AAXX 19184 07240 12665 71408 10100 20070 39849 49981 51004 60006 70262 875// 91800 333 10106 20073=
07240,1997-12-19 21:00:00,9,998.5,0.3,87,7,15000,11.112,,,150,,,,,,,,,,,wg-a,,,,AAXX 19214 07240 12665 71506 10090 20070 39852 49985 51003 60006 875// 92100=
07240,1997-12-20 00:00:00,9,998.7,0.2,87,7,15000,11.112,,,180,,,,,,,,,,,wg-a,,,,AAXX 20004 07240 12565 71806 10090 20070 39854 49987 50002 60006 875// 90000=
07240,1997-12-20 03:00:00,8,998.8,0.1,93,7,10000,11.112,,,210,,,,,,,,,,,wg-a,,,,AAXX 20034 07240 12/60 22106 10080 20070 39855 49988 53001 60006 80001 90300=
07240,1997-12-20 06:00:00,6,999.8,0.9,100,6,7000,11.112,,,170,6,9.6,,,,,,,,,wg-a,,,,AAXX 20064 07240 02/57 /1706 10060 20060 39864 49998 52009 60006 80001 90600 333 10096 20060 60004=
07240,1997-12-20 09:00:00,6,1001.6,1.7,93,5,7000,11.112,,,150,,,,,,,,,,1,wg-a,,,,AAXX 20094 07240 12/57 21506 10060 20050 39881 40016 51017 60006 70140 80001 90900=
07240,1997-12-20 15:00:00,11,1001.8,0.1,82,8,25000,14.816,,,180,,,,,,,,,,,wg-a,,,,AAXX 20154 07240 12575 71808 10110 20080 39886 40018 53001 60006 878// 91500=
07240,1997-12-20 18:00:00,10,1002.9,1,82,7,20000,14.816,,,140,4.8,11.9,,,,,,,,,wg-a,,,,AAXX 20184 07240 12570 71408 10100 20070 39896 40029 52010 60006 875// 91800 333 10119 20048=
07240,1997-12-20 21:00:00,9,1004.2,1.3,87,7,20000,11.112,,,80,,,,,,,,,,,wg-a,,,,AAXX 20214 07240 12470 70806 10090 20070 39909 40042 53013 60006 875// 92100=
07240,1997-12-21 00:00:00,8,1005.7,1.4,93,7,20000,11.112,,,60,,,,,,,,,,,wg-a,,,,AAXX 21004 07240 12670 70606 10080 20070 39923 40057 53014 60006 875// 90000=
07240,1997-12-21 03:00:00,8,1007.7,2,87,6,11000,11.112,,,30,,,,,,,,,,,wg-a,,,,AAXX 21034 07240 12/61 /0306 10080 20060 39943 40077 53020 60006 90300=
07240,1997-12-21 06:00:00,7,1009.8,2,93,6,10000,7.408,,,20,6.7,9.8,,,,,,,,,wg-a,,,,AAXX 21064 07240 02360 70204 10070 20060 39963 40098 51020 60006 876// 90600 333 10098 20067 60004=
07240,1997-12-21 09:00:00,5,1012.6,2.7,100,5,7000,11.112,,,360,,,,,,,,,,,wg-a,,,,AAXX 21094 07240 12157 73606 10050 20050 39990 40126 52027 60006 876// 90900=
07240,1997-12-21 12:00:00,5,1013.3,0.7,100,5,7000,3.704,,,350,,,,,,,,,,,wg-a,,,,AAXX 21124 07240 12157 83502 10050 20050 39997 40133 50007 60006 876// 91200=
07240,1997-12-21 15:00:00,7,1013.4,0.1,87,5,10000,7.408,,,290,,,,,,,,,,,wg-a,,,,AAXX 21154 07240 12360 82904 10070 20050 39998 40134 53001 60006 876// 91500=
07240,1997-12-21 18:00:00,6,1014.2,0.8,93,5,10000,0,,,0,5.1,6.7,,,,,,,,,wg-a,,,,AAXX 21184 07240 12360 80000 10060 20050 30006 40142 53008 60006 886// 91800 333 10067 20051=
07240,1997-12-21 21:00:00,6,1014.7,0.5,93,5,10000,0,,,0,,,,,,,,,,,wg-a,,,,AAXX 21214 07240 12360 80000 10060 20050 30011 40147 51005 60006 886// 92100=
07240,1997-12-22 00:00:00,6,1014.5,-0.2,93,5,10000,0,,,0,,,,,,,,,,,wg-a,,,,AAXX 22004 07240 12360 80000 10060 20050 30009 40145 56002 60006 886// 90000=
07240,1997-12-22 03:00:00,6,1013.7,-0.8,87,4,10000,14.816,,,100,,,,,,,,,,,wg-a,,,,AAXX 22034 07240 12360 81008 10060 20040 30001 40137 58008 60006 876// 90300=
07240,1997-12-22 06:00:00,5,1012.6,-1.1,93,4,11000,18.52,,,120,5.1,6.4,,,,,,,,,wg-a,,,,AAXX 22064 07240 02/61 /1210 10050 20040 39990 40126 58011 60006 90600 333 10064 20051 60004=
07240,1997-12-22 09:00:00,5,1013.5,0.8,93,4,15000,18.52,,,110,,,,,,,,,,,wg-a,,,,AAXX 22094 07240 12365 81110 10050 20040 39998 40135 50008 60006 876// 90900=
07240,1997-12-22 12:00:00,5,1012.9,-0.6,87,3,15000,14.816,,,110,,,,,,,,,,,wg-a,,,,AAXX 22124 07240 12265 81108 10050 20030 39992 40129 58006 60006 876// 91200=
07240,1997-12-22 15:00:00,5,1011.7,-1.1,93,4,15000,22.224,,,100,,,,,,,,,,,wg-a,,,,AAXX 22154 07240 12365 81012 10050 20040 39981 40117 55011 60006 8763/ 91500=
07240,1997-12-22 18:00:00,5,1012.7,0.9,87,3,15000,11.112,,,100,4.5,5.6,,,,,,,,,wg-a,,,,AAXX 22184 07240 12765 81006 10050 20030 39990 40127 51009 60006 875// 91800 333 10056 20045=
07240,1997-12-22 21:00:00,4,1013.7,1,93,3,15000,11.112,,,90,,,,,,,,,,,wg-a,,,,AAXX 22214 07240 12765 80906 10040 20030 30000 40137 51010 60006 875// 92100=
07240,1997-12-23 00:00:00,4,1014.9,1.2,93,3,12000,3.704,,,90,,,,,,,,,,60,wg-a,,,,AAXX 23004 07240 02762 80902 10040 20030 30012 40149 53012 61000 76062 875// 90000 333 6100=
07240,1997-12-23 03:00:00,4,1016.7,1.8,100,4,7000,0,,,0,,,,,,,,,,,wg-a,,,,AAXX 23034 07240 32/57 /0000 10040 20040 30030 40167 53018 90300=
07240,1997-12-23 06:00:00,5,1018.7,2,93,4,4000,11.112,,,250,4.1,4.8,,,,,1,,,3,wg-a,,,,AAXX 23064 07240 02140 82506 10050 20040 30050 40187 53020 60006 70365 877// 90600 333 10048 20041 60014=
07240,1997-12-23 12:00:00,10,1022.4,0.9,82,7,9000,7.408,,,210,,,,,,,,,,3,wg-a,,,,AAXX 23124 07240 12659 72104 10100 20070 30089 40224 50009 60006 70342 875// 91200=
07240,1997-12-23 15:00:00,11,1022.8,0.4,82,8,11000,14.816,,,190,,,,,,,,,,,wg-a,,,,AAXX 23154 07240 12/61 /1908 10110 20080 30093 40228 53004 60006 91500=
07240,1997-12-23 18:00:00,10,1023.2,0.4,93,9,6000,25.928,,,200,4.8,11.1,,,,,,,,61,wg-a,,,,AAXX 23184 07240 02356 82014 10100 20090 30097 40232 53004 61000 76162 875// 91800 333 10111 20048 6001=
07240,1997-12-23 21:00:00,11,1024.1,0.9,100,11,7000,18.52,,,220,,,,1,,,,,,20,wg-a,,,,AAXX 23214 07240 12257 82210 10110 20110 30106 40241 51009 60017 72065 877// 92100=
07240,1997-12-24 00:00:00,12,1025.1,1.1,94,11,7000,18.52,,,220,,,,,,,,,,2,wg-a,,,,AAXX 24004 07240 12357 82210 10120 20110 30117 40251 51011 60016 70265 877// 90000=
07240,1997-12-24 03:00:00,12,1025.1,-0.1,94,11,8000,18.52,,,220,,,,,,,,,,,wg-a,,,,AAXX 24034 07240 12458 82210 10120 20110 30116 40251 56001 60006 877// 90300=
07240,1997-12-24 06:00:00,12,1024.3,-0.8,82,9,10000,14.816,,,200,10,12.1,,,,,1,,,,wg-a,,,,AAXX 24064 07240 02560 82008 10120 20090 30108 40243 56008 60006 875// 90600 333 10121 20100 60014=
07240,1997-12-24 09:00:00,11,1025,0.7,87,9,18000,22.224,,,190,,,,,,,,,,,wg-a,,,,AAXX 24094 07240 12668 81912 10110 20090 30115 40250 50007 60006 875// 90900=
07240,1997-12-24 12:00:00,12,1023.4,-1.5,82,9,25000,25.928,,,200,,,,,,,,,,,wg-a,,,,AAXX 24124 07240 12775 72014 10120 20090 30100 40234 58015 60006 8557/ 91200=
07240,1997-12-24 15:00:00,11,1021.6,-1.9,87,9,12000,25.928,,,200,,,,1,,,,,,61,wg-a,,,,AAXX 24154 07240 12662 82014 10110 20090 30081 40216 56019 60017 76162 8257/ 91500=
07240,1997-12-24 18:00:00,10,1021.5,-0.1,93,9,4500,25.928,,,210,10,12.3,,,,,,,,51,wg-a,,,,AAXX 24184 07240 02345 82114 10100 20090 30080 40215 58001 61000 75165 886// 91800 333 10123 20100 6001=
07240,1997-12-24 21:00:00,12,1021.8,0.4,94,11,15000,22.224,,,230,,,,0,,,,,,1,wg-a,,,,AAXX 24214 07240 12465 82312 10120 20110 30084 40218 53004 60007 70152 875// 92100=
07240,1997-12-25 00:00:00,11,1021.9,0,94,10,18000,14.816,,,210,,,,,,,,,,1,wg-a,,,,AAXX 25004 07240 12468 /2108 10110 20100 30084 40219 50000 60016 70151 81500 90000=
07240,1997-12-25 06:00:00,13,1018.5,-2.2,94,12,10000,22.224,,,210,10,12.6,,,,,,,,60,wg-a,,,,AAXX 25064 07240 02260 82112 10130 20120 30052 40185 56022 61000 76061 886// 90600 333 10126 20100 6003=
07240,1997-12-25 09:00:00,12,1016.8,-1.7,94,11,12000,25.928,,,190,,,,1,,,,,,21,wg-a,,,,AAXX 25094 07240 12362 71914 10120 20110 30035 40168 56017 60017 72162 878// 90900=
07240,1997-12-25 12:00:00,13,1014.9,-1.9,77,9,20000,29.632,,,220,,,,1,,,,,,21,wg-a,,,,AAXX 25124 07240 02570 72216 10130 20090 30016 40149 58019 60026 72162 875// 91200 333 60017=
07240,1997-12-25 15:00:00,14,1012.4,-2.4,88,12,12000,38.892,,62.968,230,,,,1,,,,,,61,wg-a,,,,AAXX 25154 07240 12362 72321 10140 20120 39992 40124 55024 60017 76162 872// 91500 333 91034=
07240,1997-12-25 18:00:00,12,1013.6,1.1,76,8,20000,42.596,,59.264,250,11.6,14.1,,0,,,,,,1,wg-a,,,,AAXX 25184 07240 02570 /2523 10120 20080 30003 40136 53011 60006 70162 85200 91800 333 10141 20116 60007 91032=
07240,1997-12-25 21:00:00,11,1014.6,0.9,76,7,20000,29.632,,,230,,,,,,,,,,,wg-a,,,,AAXX 25214 07240 12570 22316 10110 20070 30012 40146 50009 60006 82200 92100=
07240,1997-12-26 00:00:00,10,1014.3,-0.3,82,7,20000,25.928,,,230,,,,,,,,,,,wg-a,,,,AAXX 26004 07240 12570 72314 10100 20070 30009 40143 58003 60006 8323/ 90000=
07240,1997-12-26 03:00:00,10,1013.5,-0.8,82,7,20000,25.928,,,230,,,,,,,,,,,wg-a,,,,AAXX 26034 07240 12/70 12314 10100 20070 30001 40135 58008 60006 81030 90300=
07240,1997-12-26 06:00:00,9,1012.3,-1.2,81,6,20000,22.224,,,230,8.7,12,,,,,3,,,,wg-a,,,,AAXX 26064 07240 02/70 22312 10090 20060 39989 40123 56012 60006 82070 90600 333 10120 20087 60034=
07240,1997-12-26 09:00:00,9,1011.5,-0.8,76,5,20000,25.928,,,230,,,,,,,,,,,wg-a,,,,AAXX 26094 07240 12470 32314 10090 20050 39981 40115 57008 60006 83933 90900=
07240,1997-12-26 12:00:00,9,1010.4,-1.1,87,7,20000,35.188,,,240,,,,1,,,,,,25,wg-a,,,,AAXX 26124 07240 02570 32419 10090 20070 39970 40104 58011 60016 72511 82203 91200 333 60017=
07240,1997-12-26 18:00:00,7,1011.8,2.1,93,6,20000,11.112,,,270,7.4,10.6,,1,,,,,,3,wg-a,,,,AAXX 26184 07240 02570 /2706 10070 20060 39983 40118 53021 60006 70398 85500 91800 333 10106 20074 60017=
07240,1997-12-26 21:00:00,6,1012.5,0.6,93,5,20000,14.816,,,240,,,,,,,,,,,wg-a,,,,AAXX 26214 07240 12/70 02408 10060 20050 39989 40125 52006 60006 80000 92100=
07240,1997-12-27 00:00:00,7,1012.5,0.1,93,6,11000,18.52,,,260,,,,,,,,,,,wg-a,,,,AAXX 27004 07240 12/61 /2610 10070 20060 39990 40125 51001 60006 90000=
07240,1997-12-27 03:00:00,6,1012.5,-0.1,93,5,10000,18.52,,,250,,,,,,,,,,,wg-a,,,,AAXX 27034 07240 12/60 /2510 10060 20050 39989 40125 56001 60006 90300=
07240,1997-12-27 06:00:00,6,1013.1,0.6,87,4,20000,14.816,,,260,5.5,7.4,,,,,3,,,,wg-a,,,,AAXX 27064 07240 02470 /2608 10060 20040 39995 40131 53006 60006 86800 90600 333 10074 20055 60034=
07240,1997-12-27 09:00:00,6,1014.8,1.7,93,5,20000,14.816,,,260,,,,,,,,,,,wg-a,,,,AAXX 27094 07240 12470 42608 10060 20050 30012 40148 52017 60006 83830 90900=
07240,1997-12-27 12:00:00,8,1014.9,0.2,81,5,35000,22.224,,,270,,,,,,,,,,,wg-a,,,,AAXX 27124 07240 12481 52712 10080 20050 30014 40149 50002 60006 84830 91200=
07240,1997-12-27 15:00:00,8,1014.9,-0,81,5,35000,22.224,,,290,,,,,,,,,,,wg-a,,,,AAXX 27154 07240 12581 52912 10080 20050 30014 40149 55000 60006 85800 91500=
07240,1997-12-27 18:00:00,6,1016.5,1.4,87,4,25000,14.816,,,270,5,9.1,,1,,,,,,1,wg-a,,,,AAXX 27184 07240 02475 32708 10060 20040 30028 40165 51014 60006 70186 83800 91800 333 10091 20050 60017=
07240,1997-12-27 21:00:00,5,1017.2,0.7,87,3,25000,14.816,,,240,,,,,,,,,,,wg-a,,,,AAXX 27214 07240 12775 12408 10050 20030 30035 40172 51007 60006 81500 92100=
07240,1997-12-28 00:00:00,3,1017.5,0.2,93,2,20000,11.112,,,260,,,,,,,,,,,wg-a,,,,AAXX 28004 07240 12770 32606 10030 20020 30037 40175 52002 60006 83500 90000=
07240,1997-12-28 03:00:00,2,1017.4,-0.2,93,1,20000,7.408,,,280,,,,0,,,,,,,wg-a,,,,AAXX 28034 07240 12770 32804 10020 20010 30035 40174 57002 60007 83500 90300=
07240,1997-12-28 06:00:00,1,1017.2,-0.2,100,1,300,7.408,,,190,0.8,5.6,,,,,1,,,41,wg-a,,,,AAXX 28064 07240 02703 41904 10010 20010 30033 40172 55002 60006 74140 84500 90600 333 10056 20008 60014=
07240,1997-12-28 09:00:00,1,1017.6,0.4,100,1,500,7.408,,,160,,,,0,,,,,,42,wg-a,,,,AAXX 28094 07240 12205 71604 10010 20010 30037 40176 53004 60007 74241 84601 90900=
07240,1997-12-28 12:00:00,5,1016.3,-1.1,100,5,500,7.408,,,170,,,,,,,,,,3,wg-a,,,,AAXX 28124 07240 12200 71704 10050 20050 30026 40163 58011 60006 70341 876// 91200=
07240,1997-12-28 15:00:00,6,1014.9,-1.3,93,5,8000,7.408,,,170,,,,,,,,,,,wg-a,,,,AAXX 28154 07240 12458 71704 10060 20050 30013 40149 56013 60006 851// 91500=
07240,1997-12-28 18:00:00,5,1015.1,0.1,93,4,6000,11.112,,,190,0.2,6.6,,,,,,,,,wg-a,,,,AAXX 28184 07240 12256 81906 10050 20040 30014 40151 53001 60006 886// 91800 333 10066 20002=
07240,1997-12-28 21:00:00,4,1014.1,-1,100,4,7000,11.112,,,180,,,,,,,,,,,wg-a,,,,AAXX 28214 07240 12257 81806 10040 20040 30004 40141 56010 60006 886// 92100=
07240,1997-12-29 00:00:00,4,1013.1,-1,100,4,4500,3.704,,,120,,,,,,,,,,10,wg-a,,,,AAXX 29004 07240 12145 81202 10040 20040 39994 40131 58010 60006 71022 886// 90000=
07240,1997-12-29 03:00:00,4,1013,-0.1,93,3,8000,7.408,,,110,,,,,,,,,,,wg-a,,,,AAXX 29034 07240 12558 71104 10040 20030 39993 40130 55001 60006 875// 90300=
07240,1997-12-29 06:00:00,4,1012.4,-0.6,100,4,10000,3.704,,,120,3.2,5.3,,,,,,,,,wg-a,,,,AAXX 29064 07240 02460 71202 10040 20040 39987 40124 55006 60006 875// 90600 333 10053 20032 60004=
07240,1997-12-29 09:00:00,5,1012.7,0.4,93,4,11000,7.408,,,140,,,,,,,,,,,wg-a,,,,AAXX 29094 07240 12/61 /1404 10050 20040 39991 40127 53004 60006 90900=
07240,1997-12-29 12:00:00,9,1011.4,-1.1,76,5,15000,11.112,,,150,,,,,,,,,,,wg-a,,,,AAXX 29124 07240 12565 31506 10090 20050 39980 40114 58011 60006 83801 91200=
07240,1997-12-29 15:00:00,9,1010.3,-1.1,71,4,10000,14.816,,,140,,,,,,,,,,,wg-a,,,,AAXX 29154 07240 12/60 /1408 10090 20040 39969 40103 56011 60006 91500=
07240,1997-12-29 18:00:00,7,1009.9,-0.5,81,4,25000,14.816,,,130,4.2,9.9,,,,,,,,,wg-a,,,,AAXX 29184 07240 12/75 71308 10070 20040 39964 40099 56005 60006 8703/ 91800 333 10099 20042=
07240,1997-12-30 00:00:00,6,1009.4,-0.2,81,3,15000,11.112,,,130,,,,,,,,,,,wg-a,,,,AAXX 30004 07240 12765 71306 10060 20030 39958 40094 56002 60006 8757/ 90000=
07240,1997-12-30 03:00:00,6,1009.5,0.1,87,4,15000,14.816,,,150,,,,,,,,,,,wg-a,,,,AAXX 30034 07240 12665 71508 10060 20040 39959 40095 53001 60006 8557/ 90300=
07240,1997-12-30 06:00:00,7,1009.4,-0,81,4,10000,18.52,,,170,5.2,6.9,,,,,,,,,wg-a,,,,AAXX 30064 07240 02660 81710 10070 20040 39959 40094 55000 60006 875// 90600 333 10069 20052 60004=
07240,1997-12-30 09:00:00,7,1009.9,0.5,81,4,15000,25.928,,,190,,,,,,,,,,60,wg-a,,,,AAXX 30094 07240 02665 71914 10070 20040 39964 40099 53005 61000 76062 8557/ 90900 333 ////=
07240,1997-12-30 12:00:00,9,1009.2,-0.6,81,6,20000,22.224,,,190,,,,0,,,,,,1,wg-a,,,,AAXX 30124 07240 02570 71912 10090 20060 39958 40092 58006 60016 70162 8557/ 91200 333 60007=
07240,1997-12-30 15:00:00,9,1008.3,-0.9,93,8,6000,22.224,,,200,,,,,,,,,,50,wg-a,,,,AAXX 30154 07240 02256 72012 10090 20080 39949 40083 56009 61000 75052 877// 91500 333 ////=
07240,1997-12-30 18:00:00,9,1008.1,-0.2,93,8,8000,22.224,,,190,6.6,9.2,,,,,,,,2,wg-a,,,,AAXX 30184 07240 02458 71912 10090 20080 39947 40081 57002 60006 70252 877// 91800 333 10092 20066 61000=
07240,1997-12-30 21:00:00,9,1007.8,-0.3,93,8,8000,22.224,,,200,,,,,,,,,,,wg-a,,,,AAXX 30214 07240 12458 72012 10090 20080 39944 40078 58003 60006 877// 92100=
07240,1997-12-31 00:00:00,9,1006.3,-1.4,93,8,0,25.928,,,190,,,,,,,,,,,wg-a,,,,AAXX 31004 07240 12/// /1914 10090 20080 39930 40063 58014 60016 90000=
07240,1997-12-31 06:00:00,9,1005,-0.4,93,8,8000,22.224,,,200,9,9.5,,,,,,,,60,wg-a,,,,AAXX 31064 07240 02458 72012 10090 20080 39917 40050 55004 61000 76062 875// 90600 333 10095 20090 6002=
07240,1997-12-31 09:00:00,9,1006.9,1.8,93,8,8000,22.224,,,220,,,,4,,,,,,60,wg-a,,,,AAXX 31094 07240 12258 72212 10090 20080 39935 40069 53018 60047 76066 877// 90900=
07240,1997-12-31 12:00:00,10,1008.7,1.9,93,9,11000,11.112,,,280,,,,,,,,,,,wg-a,,,,AAXX 31124 07240 12/61 /2806 10100 20090 39954 40087 51019 60056 91200=
07240,1997-12-31 15:00:00,9,1010.3,1.5,87,7,10000,11.112,,,260,,,,,,,,,,,wg-a,,,,AAXX 31154 07240 12460 72606 10090 20070 39969 40103 53015 60006 8287/ 91500=
07240,1997-12-31 18:00:00,8,1012.3,1.9,87,6,10000,7.408,,,200,7.2,9.9,,,,,,,,,wg-a,,,,AAXX 31184 07240 12/60 72004 10080 20060 39988 40123 51019 60006 8707/ 91800 333 10099 20072=
07240,1997-12-31 21:00:00,6,1013.2,0.8,93,5,10000,3.704,,,190,,,,,,,,,,,wg-a,,,,AAXX 31214 07240 12/60 61902 10060 20050 39996 40132 51008 60006 81032 92100=
