station_id,dh_utc,temperature,pression,pression_variation_3h,humidite,point_de_rosee,visibilite,vent_moyen,vent_rafales,vent_rafales_10min,vent_direction,temperature_min,temperature_max,pluie_1h,pluie_3h,pluie_6h,pluie_12h,pluie_24h,ensoleillement,temperature_sol,temps_omm,source,radiations,neige_au_sol,nebulosite,raw_msg
07240,1998-01-01 00:00:00,5,1014.6,1.3,100,5,10000,7.408,,,150,,,,,,,,,,,wg-a,,,,AAXX 01004 07240 12760 41504 10050 20050 30009 40146 51013 60006 82532 90000=
07240,1998-01-01 03:00:00,4,1015,0.4,100,4,6000,11.112,,,160,,,,0,,,,,,,wg-a,,,,AAXX 01034 07240 12/56 31606 10040 20040 30013 40150 53004 60007 82032 90300=
07240,1998-01-01 06:00:00,5,1015.7,0.7,100,5,6000,7.408,,,190,3.8,7.6,,,,,5,,,3,wg-a,,,,AAXX 01064 07240 02656 21904 10050 20050 30020 40157 53007 60006 70341 82531 90600 333 10076 20038 60054=
07240,1998-01-01 12:00:00,9,1015.8,-1.2,76,5,20000,11.112,,,210,,,,,,,,,,,wg-a,,,,AAXX 01124 07240 12470 22106 10090 20050 30023 40158 58012 60006 82101 91200=
07240,1998-01-01 18:00:00,7,1010.5,-2.6,87,5,20000,29.632,,,190,4,9.3,,,,,,,,,wg-a,,,,AAXX 01184 07240 12470 81916 10070 20050 39970 40105 56026 60006 8277/ 91800 333 10093 20040=
07240,1998-01-01 21:00:00,7,1005.7,-4.7,93,6,12000,35.188,,59.264,190,,,,1,,,,,,60,wg-a,,,,AAXX 01214 07240 12462 81919 10070 20060 39923 40057 58047 60017 76062 8277/ 92100 333 91032=
07240,1998-01-02 00:00:00,8,1002.7,-3,93,7,4500,42.596,,64.82,210,,,,4,,,,,,61,wg-a,,,,AAXX 02004 07240 02445 82123 10080 20070 39893 40027 58030 60046 76162 877// 90000 333 60047 91035=
07240,1998-01-02 06:00:00,10,998.3,-3.2,93,9,12000,38.892,,61.116,200,7.2,10,,,,,18,,,1,wg-a,,,,AAXX 02064 07240 02362 82021 10100 20090 39851 49983 58032 60006 70162 877// 90600 333 10100 20072 60184 91033=
07240,1998-01-02 09:00:00,5,994.4,-4.1,100,5,4500,46.3,115.2,115.2,260,,,,13,,,,,,80,wg-a,,,,AAXX 02094 07240 12345 82625 10050 20050 39810 49944 55041 60137 78098 879// 90900 333 91053=
07240,1998-01-02 12:00:00,11,996,1.9,71,6,500,35.188,,,250,,,,1,,,,,,3,wg-a,,,,AAXX 02124 07240 02400 32519 10110 20060 39829 49960 53019 60146 70398 83201 91200 333 60017=
07240,1998-01-02 15:00:00,10,1000.1,4,71,5,11000,35.188,,57.412,270,,,,,,,,,,,wg-a,,,,AAXX 02154 07240 02/61 /2719 10100 20050 39869 40001 53040 61000 91500 333 //// 91031=
07240,1998-01-02 18:00:00,8,1005.4,5.1,81,5,11000,25.928,,,250,3.4,10.8,,,,,,,,,wg-a,,,,AAXX 02184 07240 12/61 /2514 10080 20050 39920 40054 51051 60006 91800 333 10108 20034=
07240,1998-01-02 21:00:00,8,1008.6,3.1,81,5,10000,22.224,,,240,,,,,,,,,,,wg-a,,,,AAXX 02214 07240 12/60 /2412 10080 20050 39951 40086 51031 60006 92100=
07240,1998-01-03 00:00:00,8,1009.2,0.6,87,6,10000,18.52,,,220,,,,,,,,,,,wg-a,,,,AAXX 03004 07240 12/60 /2210 10080 20060 39957 40092 50006 60006 90000=
07240,1998-01-03 03:00:00,8,1008.4,-0.7,100,8,6000,22.224,,,210,,,,,,,,,,,wg-a,,,,AAXX 03034 07240 32/56 /2112 10080 20080 39950 40084 58007 90300=
07240,1998-01-03 06:00:00,9,1005.4,-2.9,100,9,6000,31.484,,,200,7,9.4,,,,,,,,61,wg-a,,,,AAXX 03064 07240 02256 82017 10090 20090 39921 40054 56029 61000 76162 887// 90600 333 10094 20070 6019=
07240,1998-01-03 09:00:00,13,1003.8,-1.4,94,12,20000,29.632,,,220,,,,2,,,,,,21,wg-a,,,,AAXX 03094 07240 12470 72216 10130 20120 39907 40038 56014 60027 72162 872// 90900=
07240,1998-01-03 12:00:00,13,1002.4,-1.4,94,12,3000,46.3,,,240,,,,1,,,,,,61,wg-a,,,,AAXX 03124 07240 02230 72425 10130 20120 39893 40024 56014 60036 76186 875// 91200 333 60017=
07240,1998-01-03 15:00:00,13,1004.8,2.3,77,9,500,38.892,,,260,,,,2,,,,,,1,wg-a,,,,AAXX 03154 07240 12400 42621 10130 20090 39916 40048 53023 60027 70161 83830 91500=
07240,1998-01-03 21:00:00,8,1014.4,3.6,76,4,20000,25.928,,,240,,,,,,,,,,,wg-a,,,,AAXX 03214 07240 12570 /2414 10080 20040 30009 40144 53036 60006 85200 92100=
07240,1998-01-04 00:00:00,7,1015.9,1.4,81,4,20000,18.52,,,220,,,,,,,,,,1,wg-a,,,,AAXX 04004 07240 12/70 02210 10070 20040 30023 40159 51014 60006 70186 80000 90000=
07240,1998-01-04 09:00:00,8,1008.8,-3.4,81,5,15000,29.632,,,190,,,,,,,,,,,wg-a,,,,AAXX 04094 07240 12665 71916 10080 20050 39953 40088 58034 60006 82832 90900=
07240,1998-01-04 12:00:00,7,1005.5,-3.3,87,5,500,38.892,,61.116,250,,,,5,,,,,,61,wg-a,,,,AAXX 04124 07240 02200 82521 10070 20050 39920 40055 55033 60056 76186 8387/ 91200 333 60057 91033=
07240,1998-01-04 15:00:00,9,1004.7,-0.7,71,4,15000,50.004,,,250,,,,1,,,,,,80,wg-a,,,,AAXX 04154 07240 12465 72527 10090 20040 39913 40047 55007 60017 78086 87300 91500=
07240,1998-01-05 00:00:00,6,1012.8,2.9,81,3,10000,31.484,,,240,,,,,,,,,,,wg-a,,,,AAXX 05004 07240 12/60 /2417 10060 20030 39992 40128 51029 60016 90000=
07240,1998-01-05 03:00:00,6,1013.6,0.8,75,2,15000,18.52,,,210,,,,,,,,,,,wg-a,,,,AAXX 05034 07240 12765 52110 10060 20020 30000 40136 50008 60006 855/0 90300=
07240,1998-01-05 06:00:00,7,1012.3,-1.3,81,4,15000,22.224,,,210,5.4,7.7,,,,,7,,,,wg-a,,,,AAXX 05064 07240 02765 32112 10070 20040 39987 40123 56013 60006 835/0 90600 333 10077 20054 60074=
07240,1998-01-05 09:00:00,8,1010.5,-1.7,81,5,12000,31.484,,,200,,,,,,,,,,80,wg-a,,,,AAXX 05094 07240 02662 62017 10080 20050 39970 40105 58017 61000 78086 85201 90900 333 ////=
07240,1998-01-05 12:00:00,10,1006.8,-3.5,87,8,15000,42.596,,68.524,210,,,,1,,,,,,25,wg-a,,,,AAXX 05124 07240 02465 72123 10100 20080 39935 40068 58035 60016 72586 878// 91200 333 60017 91037=
07240,1998-01-05 15:00:00,10,1004.5,-2.3,87,8,15000,35.188,,,240,,,,8,,,,,,25,wg-a,,,,AAXX 05154 07240 12465 72419 10100 20080 39912 40045 56023 60087 72586 878// 91500=
07240,1998-01-05 21:00:00,9,1009.4,2.6,76,5,11000,46.3,,,250,,,,,,,,,,,wg-a,,,,AAXX 05214 07240 12/61 /2525 10090 20050 39960 40094 53026 60006 92100=
07240,1998-01-06 00:00:00,7,1014.5,4.9,81,4,11000,25.928,,,250,,,,,,,,,,,wg-a,,,,AAXX 06004 07240 12/61 /2514 10070 20040 30009 40145 51049 60006 90000=
07240,1998-01-06 06:00:00,6,1016,-0.2,100,6,6000,11.112,,,170,6.3,9,,,,,,,,61,wg-a,,,,AAXX 06064 07240 02256 81706 10060 20060 30024 40160 56002 61000 76162 877// 90600 333 10090 20063 6010=
07240,1998-01-06 09:00:00,8,1015.6,-0.3,100,8,7000,11.112,,,210,,,,0,,,,,,1,wg-a,,,,AAXX 06094 07240 12457 72106 10080 20080 30021 40156 55003 60007 70165 875// 90900=
07240,1998-01-06 12:00:00,12,1015.5,0.1,88,10,15000,29.632,,,240,,,,0,,,,,,25,wg-a,,,,AAXX 06124 07240 02465 72416 10120 20100 30022 40155 50001 60016 72586 878// 91200 333 60007=
07240,1998-01-06 18:00:00,12,1016.7,0.6,88,10,15000,22.224,,,220,6.3,12.6,,,,,,,,3,wg-a,,,,AAXX 06184 07240 02465 72212 10120 20100 30033 40167 52006 60006 70362 875// 91800 333 10126 20063 61000=
07240,1998-01-07 06:00:00,10,1014.7,-0.9,87,8,8000,25.928,,,210,10.1,11.7,,,,,,,,61,wg-a,,,,AAXX 07064 07240 02458 72114 10100 20080 30013 40147 56009 61000 76162 875// 90600 333 10117 20101 6001=
07240,1998-01-07 09:00:00,10,1016.7,2,93,9,15000,25.928,,,220,,,,0,,,,,,3,wg-a,,,,AAXX 07094 07240 12465 62214 10100 20090 30033 40167 52020 60007 70362 85830 90900=
07240,1998-01-07 12:00:00,12,1017.5,0.9,82,9,15000,31.484,,,240,,,,,,,,,,25,wg-a,,,,AAXX 07124 07240 02465 72417 10120 20090 30042 40175 51009 60016 72586 8583/ 91200 333 61000=
07240,1998-01-07 15:00:00,12,1018.9,1.3,67,6,20000,31.484,,,240,,,,,,,,,,,wg-a,,,,AAXX 07154 07240 12670 32417 10120 20060 30055 40189 53013 60006 82202 91500=
07240,1998-01-07 18:00:00,10,1020.7,1.7,76,6,20000,18.52,,,220,9.8,13.1,,,,,,,,,wg-a,,,,AAXX 07184 07240 12/70 32210 10100 20060 30072 40207 51017 60006 80002 91800 333 10131 20098=
07240,1998-01-07 21:00:00,9,1022.1,1.3,87,7,15000,25.928,,,220,,,,,,,,,,,wg-a,,,,AAXX 07214 07240 12/65 12214 10090 20070 30085 40221 51013 60006 80002 92100=
07240,1998-01-08 00:00:00,9,1023.5,1.4,87,7,0,25.928,,,220,,,,,,,,,,,wg-a,,,,AAXX 08004 07240 12/// /2214 10090 20070 30099 40235 53014 60006 90000=
07240,1998-01-08 06:00:00,8,1025.1,0.4,93,7,15000,18.52,,,200,7.8,9.9,,,,,1,,,,wg-a,,,,AAXX 08064 07240 02/65 02010 10080 20070 30114 40251 53004 60006 80000 90600 333 10099 20078 60014=
07240,1998-01-08 09:00:00,9,1026.2,1.2,87,7,12000,18.52,,,200,,,,,,,,,,,wg-a,,,,AAXX 08094 07240 12/62 72010 10090 20070 30126 40262 53012 60006 85032 90900=
07240,1998-01-08 15:00:00,13,1025.8,-0.6,77,9,25000,22.224,,,200,,,,,,,,,,,wg-a,,,,AAXX 08154 07240 12/75 42012 10130 20090 30124 40258 56006 60006 83032 91500=
07240,1998-01-08 18:00:00,12,1027,1.1,82,9,25000,18.52,,,200,7.7,13.3,,,,,,,,,wg-a,,,,AAXX 08184 07240 12/75 52010 10120 20090 30135 40270 53011 60006 84052 91800 333 10133 20077=
07240,1998-01-09 00:00:00,9,1028.9,0.8,87,7,20000,14.816,,,200,,,,,,,,,,,wg-a,,,,AAXX 09004 07240 12/70 12008 10090 20070 30153 40289 50008 60006 81030 90000=
07240,1998-01-09 03:00:00,7,1029.2,0.1,93,6,20000,11.112,,,150,,,,,,,,,,,wg-a,,,,AAXX 09034 07240 12/70 11506 10070 20060 30154 40292 51001 60006 81030 90300=
07240,1998-01-09 06:00:00,5,1029.1,-0.1,93,4,15000,11.112,,,130,5.2,12,,,,,,,,,wg-a,,,,AAXX 09064 07240 02/65 01306 10050 20040 30153 40291 55001 60006 80000 90600 333 10120 20052 60004=
07240,1998-01-09 09:00:00,7,1029.7,0.6,87,5,15000,11.112,,,130,,,,,,,,,,,wg-a,,,,AAXX 09094 07240 12/65 11306 10070 20050 30159 40297 53006 60006 80001 90900=
07240,1998-01-09 12:00:00,13,1028.8,-0.6,67,7,20000,11.112,,,120,,,,,,,,,,,wg-a,,,,AAXX 09124 07240 12/70 31206 10130 20070 30153 40288 58006 60006 80001 91200=
07240,1998-01-09 18:00:00,9,1026.6,-0.3,81,6,10000,14.816,,,120,4.8,15.2,,,,,,,,,wg-a,,,,AAXX 09184 07240 12/60 /1208 10090 20060 30130 40266 56003 60006 91800 333 10152 20048=
07240,1998-01-09 21:00:00,7,1026.6,-0.1,87,5,20000,11.112,,,140,,,,,,,,,,,wg-a,,,,AAXX 09214 07240 12/70 21406 10070 20050 30129 40266 58001 60006 80001 92100=
07240,1998-01-10 00:00:00,5,1026.4,-0.3,93,4,10000,14.816,,,130,,,,,,,,,,,wg-a,,,,AAXX 10004 07240 12/60 /1308 10050 20040 30126 40264 58003 60006 90000=
07240,1998-01-10 03:00:00,4,1025.9,-0.6,93,3,20000,11.112,,,120,,,,0,,,,,,,wg-a,,,,AAXX 10034 07240 12/70 31206 10040 20030 30120 40259 58006 60007 80002 90300=
07240,1998-01-10 06:00:00,4,1025.8,-0.1,93,3,20000,14.816,,,130,3.9,9.4,,,,,,,,,wg-a,,,,AAXX 10064 07240 02/70 31308 10040 20030 30119 40258 55001 60006 80002 90600 333 10094 20039 60004=
07240,1998-01-10 09:00:00,5,1026.4,0.7,87,3,20000,11.112,,,130,,,,,,,,,,,wg-a,,,,AAXX 10094 07240 12/70 31306 10050 20030 30126 40264 52007 60006 82031 90900=
07240,1998-01-10 12:00:00,10,1024.9,-1.3,76,6,25000,7.408,,,150,,,,,,,,,,,wg-a,,,,AAXX 10124 07240 12/75 71504 10100 20060 30113 40249 58013 60006 86031 91200=
07240,1998-01-10 15:00:00,12,1023,-1.8,71,7,25000,11.112,,,120,,,,,,,,,,,wg-a,,,,AAXX 10154 07240 12/75 61206 10120 20070 30095 40230 56018 60006 86032 91500=
07240,1998-01-10 18:00:00,8,1022,-1.1,81,5,20000,11.112,,,100,3.9,11.6,,,,,,,,,wg-a,,,,AAXX 10184 07240 12/70 21006 10080 20050 30084 40220 56011 60006 81032 91800 333 10116 20039=
07240,1998-01-10 21:00:00,5,1021.2,-1,87,3,20000,11.112,,,80,,,,,,,,,,,wg-a,,,,AAXX 10214 07240 12/70 20806 10050 20030 30074 40212 57010 60006 81032 92100=
07240,1998-01-11 00:00:00,4,1020.3,-0.9,93,3,10000,11.112,,,140,,,,,,,,,,,wg-a,,,,AAXX 11004 07240 12/60 /1406 10040 20030 30065 40203 56009 60006 90000=
07240,1998-01-11 06:00:00,3,1019.6,-0.4,93,2,20000,14.816,,,150,2.9,7.5,,,,,,,,,wg-a,,,,AAXX 11064 07240 02/70 11508 10030 20020 30058 40196 55004 60006 80001 90600 333 10075 20029 60004=
07240,1998-01-11 09:00:00,5,1019.7,0.2,87,3,15000,11.112,,,120,,,,,,,,,,,wg-a,,,,AAXX 11094 07240 12/65 41206 10050 20030 30060 40197 53002 60006 84031 90900=
07240,1998-01-11 12:00:00,10,1019.6,0.1,76,6,500,7.408,,,160,,,,,,,,,,,wg-a,,,,AAXX 11124 07240 12/00 51604 10100 20060 30061 40196 50001 60006 83031 91200=
07240,1998-01-11 15:00:00,13,1018.3,-1.1,72,8,500,14.816,,,180,,,,,,,,,,,wg-a,,,,AAXX 11154 07240 12/00 51808 10130 20080 30050 40183 55011 60006 83031 91500=
07240,1998-01-11 18:00:00,9,1018.3,-0.2,87,7,20000,14.816,,,140,3.3,13.5,,,,,,,,,wg-a,,,,AAXX 11184 07240 12/70 61408 10090 20070 30048 40183 58002 60006 83031 91800 333 10135 20033=
07240,1998-01-12 00:00:00,9,1018.9,-0.1,81,6,20000,7.408,,,140,,,,,,,,,,,wg-a,,,,AAXX 12004 07240 12/70 81404 10090 20060 30054 40189 58001 60006 8703/ 90000=
07240,1998-01-12 03:00:00,8,1018.4,-0.6,87,6,20000,11.112,,,140,,,,,,,,,,,wg-a,,,,AAXX 12034 07240 12/70 81406 10080 20060 30048 40184 56006 60006 8707/ 90300=
07240,1998-01-12 06:00:00,8,1017.5,-0.9,87,6,20000,11.112,,,130,7.4,9.5,,,,,,,,,wg-a,,,,AAXX 12064 07240 02/70 81306 10080 20060 30039 40175 58009 60006 85072 90600 333 10095 20074 60004=
07240,1998-01-12 09:00:00,8,1017.6,0.1,87,6,20000,11.112,,,130,,,,,,,,,,,wg-a,,,,AAXX 12094 07240 12/70 71306 10080 20060 30040 40176 53001 60006 84072 90900=
07240,1998-01-12 12:00:00,11,1016.1,-1.3,82,8,10000,11.112,,,150,,,,,,,,,,,wg-a,,,,AAXX 12124 07240 12/60 /1506 10110 20080 30027 40161 58013 60006 91200=
07240,1998-01-12 15:00:00,13,1014.4,-1.6,77,9,15000,11.112,,,150,,,,,,,,,,,wg-a,,,,AAXX 12154 07240 12/65 61506 10130 20090 30011 40144 56016 60006 83012 91500=
07240,1998-01-12 18:00:00,11,1013.1,-1.4,82,8,15000,14.816,,,120,7.1,13.5,,,,,,,,,wg-a,,,,AAXX 12184 07240 12/65 41208 10110 20080 39997 40131 58014 60006 83032 91800 333 10135 20071=
07240,1998-01-12 21:00:00,9,1010.6,-2.5,81,6,10000,18.52,,,130,,,,,,,,,,,wg-a,,,,AAXX 12214 07240 12/60 41310 10090 20060 39972 40106 58025 60006 80002 92100=
07240,1998-01-13 00:00:00,9,1008,-2.6,81,6,10000,18.52,,,120,,,,,,,,,,,wg-a,,,,AAXX 13004 07240 12/60 71210 10090 20060 39946 40080 58026 60006 85032 90000=
07240,1998-01-13 12:00:00,15,1003,-0.4,59,7,20000,38.892,,55.56,200,,,,,,,,,,,wg-a,,,,AAXX 13124 07240 12670 62021 10150 20070 39900 40030 58004 60006 85202 91200 333 91030=
07240,1998-01-13 15:00:00,13,1002.8,-0.3,58,5,25000,35.188,,64.82,200,,,,,,,,,,,wg-a,,,,AAXX 13154 07240 12675 /2019 10130 20050 39897 40028 55003 60006 83242 91500 333 91035=
07240,1998-01-13 21:00:00,10,1003.3,0.8,76,6,25000,42.596,,,210,,,,,,,,,,,wg-a,,,,AAXX 13214 07240 12575 72123 10100 20060 39900 40033 53008 60006 875// 92100=
07240,1998-01-14 00:00:00,9,1004.3,1,87,7,15000,31.484,,,210,,,,0,,,,,,1,wg-a,,,,AAXX 14004 07240 02365 72117 10090 20070 39910 40043 52010 60006 70162 875// 90000 333 60007=
07240,1998-01-14 06:00:00,8,1010.1,3.4,81,5,8000,29.632,,,260,7.6,11.3,,1,,,1,,,60,wg-a,,,,AAXX 14064 07240 02558 82616 10080 20050 39966 40101 53034 60014 76062 875// 90600 333 10113 20076 60017=
07240,1998-01-14 09:00:00,8,1014.4,4.3,76,4,20000,22.224,,,260,,,,0,,,,,,1,wg-a,,,,AAXX 14094 07240 12770 52612 10080 20040 30009 40144 53043 60007 70162 84571 90900=
07240,1998-01-14 12:00:00,10,1017,2.6,71,5,500,25.928,,,280,,,,,,,,,,3,wg-a,,,,AAXX 14124 07240 12500 42814 10100 20050 30035 40170 51026 60006 70361 83130 91200=
07240,1998-01-14 18:00:00,6,1021.5,2,75,2,20000,11.112,,,230,6.1,10.9,,,,,,,,,wg-a,,,,AAXX 14184 07240 12/70 52306 10060 20020 30078 40215 51020 60006 83074 91800 333 10109 20061=
07240,1998-01-14 21:00:00,6,1022.7,1.1,75,2,20000,14.816,,,220,,,,,,,,,,,wg-a,,,,AAXX 14214 07240 12/70 52208 10060 20020 30089 40227 51011 60006 80002 92100=
07240,1998-01-15 00:00:00,6,1023,0.3,81,3,20000,14.816,,,200,,,,,,,,,,,wg-a,,,,AAXX 15004 07240 12/70 22008 10060 20030 30092 40230 51003 60006 80002 90000=
07240,1998-01-15 06:00:00,7,1020.1,-1.7,93,6,8000,25.928,,,200,5,6.9,,,,,,,,61,wg-a,,,,AAXX 15064 07240 02258 82014 10070 20060 30065 40201 56017 61000 76161 877// 90600 333 10069 20050 6001=
07240,1998-01-15 09:00:00,8,1019.7,-0.4,93,7,7000,29.632,,,200,,,,3,,,,,,61,wg-a,,,,AAXX 15094 07240 12257 82016 10080 20070 30061 40197 55004 60037 76166 877// 90900=
07240,1998-01-15 12:00:00,9,1018.5,-1.1,100,9,8000,31.484,,,200,,,,4,,,,,,61,wg-a,,,,AAXX 15124 07240 02258 82017 10090 20090 30050 40185 58011 60076 76166 877// 91200 333 60047=
07240,1998-01-15 15:00:00,11,1016.8,-1.6,94,10,500,22.224,,,210,,,,3,,,,,,61,wg-a,,,,AAXX 15154 07240 12200 82112 10110 20100 30034 40168 56016 60037 76166 877// 91500=
07240,1998-01-15 18:00:00,10,1016,-0.8,100,10,500,29.632,,,210,6.9,10.8,,,,,,,,61,wg-a,,,,AAXX 15184 07240 02300 82116 10100 20100 30026 40160 56008 61000 76166 877// 91800 333 10108 20069 6008=
07240,1998-01-16 00:00:00,10,1015,-0.3,93,9,10000,22.224,,,250,,,,0,,,,,,1,wg-a,,,,AAXX 16004 07240 02460 72512 10100 20090 30016 40150 55003 60076 70162 877// 90000 333 60007=
07240,1998-01-16 03:00:00,10,1012.3,-2.7,93,9,10000,18.52,,,210,,,,,,,,,,,wg-a,,,,AAXX 16034 07240 12360 72110 10100 20090 39989 40123 58027 60006 877// 90300=
07240,1998-01-16 06:00:00,10,1009.9,-2.4,93,9,12000,22.224,,,220,9.3,10.4,,,,,25,,,,wg-a,,,,AAXX 16064 07240 02362 /2212 10100 20090 39965 40099 58024 60006 86500 90600 333 10104 20093 60254=
07240,1998-01-16 09:00:00,9,1010.5,0.6,93,8,15000,22.224,,,260,,,,1,,,,,,60,wg-a,,,,AAXX 16094 07240 12465 72612 10090 20080 39971 40105 53006 60017 76062 875// 90900=
07240,1998-01-16 12:00:00,10,1013,2.5,82,7,20000,29.632,,46.3,280,,,,1,,,,,,1,wg-a,,,,AAXX 16124 07240 02470 72816 10100 20070 39996 40130 51025 60016 70162 878// 91200 333 60017 91025=
07240,1998-01-16 15:00:00,9,1016.5,3.4,81,6,500,29.632,,,300,,,,,,,,,,,wg-a,,,,AAXX 16154 07240 12500 43016 10090 20060 30030 40165 53034 60006 84900 91500=
07240,1998-01-16 21:00:00,6,1024.5,3.4,87,4,25000,18.52,,,280,,,,,,,,,,,wg-a,,,,AAXX 16214 07240 12575 52810 10060 20040 30108 40245 51034 60006 85800 92100=
07240,1998-01-17 00:00:00,5,1027.3,2.6,87,3,15000,11.112,,,290,,,,,,,,,,,wg-a,,,,AAXX 17004 07240 12/65 02906 10050 20030 30134 40273 51026 60006 80000 90000=
07240,1998-01-17 03:00:00,3,1029.2,1.8,93,2,15000,11.112,,,270,,,,,,,,,,,wg-a,,,,AAXX 17034 07240 32/65 02706 10030 20020 30152 40292 51018 80000 90300=
07240,1998-01-17 06:00:00,1,1030.1,0.8,100,1,7000,7.408,,,280,1.1,,,,,,2,,,11,wg-a,,,,AAXX 17064 07240 02/57 02804 10010 20010 30160 40301 53008 60006 71100 80000 90600 333 10072 20011 60024=
07240,1998-01-17 09:00:00,1,1031,0.9,93,0,200,0,,,0,,,,,,,,,,42,wg-a,,,,AAXX 17094 07240 12/02 00000 10010 20000 30169 40310 53009 60006 74240 80000 90900=
07240,1998-01-17 12:00:00,4,1030,-0.9,93,3,100,3.704,,,140,,,,,,,,,,45,wg-a,,,,AAXX 17124 07240 12/01 91402 10040 20030 30160 40300 58009 60006 74541 89/// 91200=
07240,1998-01-17 21:00:00,3,1023.2,-2.9,93,2,500,14.816,,,160,,,,,,,,,,,wg-a,,,,AAXX 17214 07240 12100 81608 10030 20020 30093 40232 58029 60006 886// 92100=
07240,1998-01-18 00:00:00,3,1020.6,-2.6,93,2,0,11.112,,,150,,,,,,,,,,,wg-a,,,,AAXX 18004 07240 12/// /1506 10030 20020 30067 40206 58026 60006 90000=
07240,1998-01-18 06:00:00,5,1010.6,-5.3,81,2,10000,25.928,,,180,2.7,5.1,,,,,,,,21,wg-a,,,,AAXX 18064 07240 02560 81814 10050 20020 39970 40106 58053 61000 72162 8157/ 90600 333 10051 20027 6000=
07240,1998-01-18 09:00:00,7,1007.1,-3.4,93,6,10000,35.188,,,190,,,,5,,,,,,61,wg-a,,,,AAXX 18094 07240 12360 81919 10070 20060 39936 40071 57034 60057 76162 877// 90900=
07240,1998-01-18 12:00:00,8,1006.6,-0.4,81,5,20000,46.3,,,270,,,,6,,,,,,61,wg-a,,,,AAXX 18124 07240 02270 82725 10080 20050 39932 40066 55004 60106 76162 885// 91200 333 60067=
07240,1998-01-18 15:00:00,9,1006.7,0.1,76,5,500,29.632,,,250,,,,,,,,,,3,wg-a,,,,AAXX 18154 07240 02600 62516 10090 20050 39933 40067 53001 61000 70362 84832 91500 333 ////=
07240,1998-01-18 18:00:00,8,1005.8,-0.9,81,5,500,22.224,,,210,5.1,9.2,,,,,,,,1,wg-a,,,,AAXX 18184 07240 02700 82112 10080 20050 39924 40058 58009 60006 70162 875// 91800 333 10092 20051 61000=
07240,1998-01-18 21:00:00,7,999.3,-6.5,93,6,8000,29.632,,,180,,,,4,,,,,,61,wg-a,,,,AAXX 18214 07240 12258 81816 10070 20060 39859 49993 58065 60047 76162 877// 92100=
07240,1998-01-19 00:00:00,8,998.7,-0.5,81,5,15000,46.3,,62.968,280,,,,8,,,,,,21,wg-a,,,,AAXX 19004 07240 02565 82825 10080 20050 39854 49987 55005 60136 72162 872// 90000 333 60087 91034=
07240,1998-01-19 06:00:00,5,1003.3,1.4,87,3,25000,22.224,,,240,5.2,10,,,,,23,,,,wg-a,,,,AAXX 19064 07240 02/75 32412 10050 20030 39898 40033 53014 60006 80001 90600 333 10100 20052 60234=
07240,1998-01-19 09:00:00,6,1005.4,2.1,81,3,20000,22.224,,,260,,,,,,,,,,,wg-a,,,,AAXX 19094 07240 12670 62612 10060 20030 39919 40054 53021 60006 85570 90900=
07240,1998-01-19 15:00:00,9,1009.6,1.9,76,5,15000,22.224,,,310,,,,,,,,,,80,wg-a,,,,AAXX 19154 07240 02565 73112 10090 20050 39962 40096 53019 61000 78086 878// 91500 333 ////=
07240,1998-01-19 18:00:00,8,1011.4,1.7,81,5,15000,18.52,,,250,5.2,10,,1,,,,,,1,wg-a,,,,AAXX 19184 07240 02565 42510 10080 20050 39979 40114 51017 60006 70186 83501 91800 333 10100 20052 60017=
07240,1998-01-20 00:00:00,4,1017.3,5,87,2,12000,14.816,,,350,,,,,,,,,,1,wg-a,,,,AAXX 20004 07240 12762 53508 10040 20020 30035 40173 51050 60016 70161 85500 90000=
07240,1998-01-20 03:00:00,1,1021.3,3.8,86,-1,12000,14.816,,,330,,,,,,,,,,,wg-a,,,,AAXX 20034 07240 12/62 03308 10010 21010 30073 40213 53038 60006 80000 90300=
07240,1998-01-20 06:00:00,0,1023.8,2.5,86,-2,12000,18.52,,,290,0.2,8.2,,,,,1,,,,wg-a,,,,AAXX 20064 07240 02/62 02910 10000 21020 30098 40238 51025 60006 80000 90600 333 10082 20002 60014=
07240,1998-01-20 09:00:00,1,1027.2,3.4,86,-1,15000,18.52,,,300,,,,,,,,,,,wg-a,,,,AAXX 20094 07240 12565 33010 10010 21010 30132 40272 53034 60006 83500 90900=
07240,1998-01-20 12:00:00,4,1029.2,2.1,75,0,20000,22.224,,,330,,,,,,,,,,,wg-a,,,,AAXX 20124 07240 12570 63312 10040 20000 30153 40292 51021 60006 86500 91200=
07240,1998-01-20 21:00:00,1,1033.2,1.6,86,-1,10000,14.816,,,330,,,,,,,,,,,wg-a,,,,AAXX 20214 07240 12/60 03308 10010 21010 30191 40332 52016 60006 80000 92100=
07240,1998-01-21 00:00:00,0,1034.1,0.8,93,-1,10000,11.112,,,340,,,,,,,,,,,wg-a,,,,AAXX 21004 07240 12/60 03406 10000 21010 30199 40341 51008 60006 80000 90000=
07240,1998-01-21 03:00:00,-1,1034.4,0.3,93,-2,10000,7.408,,,330,,,,,,,,,,,wg-a,,,,AAXX 21034 07240 12/60 03304 11010 21020 30202 40344 50003 60006 80000 90300=
07240,1998-01-21 06:00:00,-2,1035.2,0.7,100,-2,10000,7.408,,,340,-1.7,3.2,,,,,,,,,wg-a,,,,AAXX 21064 07240 02/60 03404 11020 21020 30209 40352 53007 60006 80000 90600 333 10032 21017 60004=
07240,1998-01-21 09:00:00,0,1036.2,1.1,100,0,10000,7.408,,,30,,,,,,,,,,,wg-a,,,,AAXX 21094 07240 12/60 10304 10000 20000 30220 40362 51011 60006 80001 90900=
07240,1998-01-21 12:00:00,4,1035.5,-0.5,70,-1,11000,14.816,,,20,,,,,,,,,,,wg-a,,,,AAXX 21124 07240 12/61 /0208 10040 21010 30215 40355 58005 60006 91200=
07240,1998-01-21 15:00:00,4,1035,-0.5,70,-1,20000,11.112,,,40,,,,,,,,,,,wg-a,,,,AAXX 21154 07240 12570 /0406 10040 21010 30210 40350 58005 60006 83202 91500=
07240,1998-01-22 00:00:00,-2,1034.2,-0.5,93,-3,12000,7.408,,,70,,,,,,,,,,,wg-a,,,,AAXX 22004 07240 12/62 00704 11020 21030 30199 40342 56005 60006 80000 90000=
07240,1998-01-22 03:00:00,-2,1033,-1.2,86,-4,12000,7.408,,,50,,,,,,,,,,,wg-a,,,,AAXX 22034 07240 12/62 00504 11020 21040 30187 40330 58012 60006 80000 90300=
07240,1998-01-22 06:00:00,-3,1032.1,-0.9,93,-4,10000,14.816,,,50,-2.7,0.7,,,,,,,,,wg-a,,,,AAXX 22064 07240 02/60 00508 11030 21040 30178 40321 56009 60006 80000 90600 333 10007 21027 60004=
07240,1998-01-22 09:00:00,-2,1031.3,-0.8,86,-4,10000,14.816,,,70,,,,,,,,,,,wg-a,,,,AAXX 22094 07240 12/60 00708 11020 21040 30170 40313 58008 60006 80000 90900=
07240,1998-01-22 12:00:00,1,1029.7,-1.4,75,-3,12000,18.52,,,80,,,,0,,,,,,,wg-a,,,,AAXX 22124 07240 02462 /0810 10010 21030 30156 40297 58014 60006 81100 91200 333 60007=
07240,1998-01-22 15:00:00,2,1027.6,-2,64,-4,15000,18.52,,,70,,,,,,,,,,,wg-a,,,,AAXX 22154 07240 12565 /0710 10020 21040 30136 40276 56020 60006 81100 91500=
07240,1998-01-22 18:00:00,0,1027.6,-0.1,74,-4,20000,14.816,,,50,-2.7,1.9,,,,,,,,,wg-a,,,,AAXX 22184 07240 12/70 00508 10000 21040 30135 40276 55001 60006 80000 91800 333 10019 21027=
07240,1998-01-22 21:00:00,-1,1026.7,-0.9,80,-4,20000,18.52,,,70,,,,,,,,,,,wg-a,,,,AAXX 22214 07240 12570 70710 11010 21040 30123 40267 58009 60006 875// 92100=
07240,1998-01-23 03:00:00,-2,1024.6,-1.1,86,-4,15000,22.224,,,70,,,,,,,,,,,wg-a,,,,AAXX 23034 07240 12/65 00712 11020 21040 30104 40246 56011 60006 80000 90300=
07240,1998-01-23 06:00:00,-2,1024.2,-0.4,86,-4,15000,18.52,,,50,-2.1,0.4,,,,,,,,,wg-a,,,,AAXX 23064 07240 02/65 00510 11020 21040 30100 40242 55004 60006 80000 90600 333 10004 21021 60004=
07240,1998-01-23 09:00:00,-1,1024.3,0.2,86,-3,10000,25.928,,,60,,,,,,,,,,,wg-a,,,,AAXX 23094 07240 12/60 00614 11010 21030 30102 40243 53002 60006 80000 90900=
07240,1998-01-23 12:00:00,2,1023.7,-0.5,80,-1,12000,22.224,,,70,,,,,,,,,,,wg-a,,,,AAXX 23124 07240 12462 /0712 10020 21010 30097 40237 58005 60006 81100 91200=
07240,1998-01-23 15:00:00,3,1023.1,-0.5,75,-1,15000,29.632,,,70,,,,,,,,,,,wg-a,,,,AAXX 23154 07240 12565 20716 10030 21010 30092 40231 55005 60006 82200 91500=
07240,1998-01-23 18:00:00,0,1024.1,0.9,93,-1,12000,18.52,,,60,-2.1,3,,,,,,,,,wg-a,,,,AAXX 23184 07240 12/62 00610 10000 21010 30101 40241 53009 60006 80000 91800 333 10030 21021=
07240,1998-01-23 21:00:00,0,1024.9,0.7,86,-2,10000,14.816,,,60,,,,,,,,,,,wg-a,,,,AAXX 23214 07240 12/60 /0608 10000 21020 30108 40249 51007 60006 92100=
07240,1998-01-24 00:00:00,0,1025.5,0.6,93,-1,10000,18.52,,,50,,,,,,,,,,,wg-a,,,,AAXX 24004 07240 12/60 00510 10000 21010 30114 40255 51006 60006 80000 90000=
07240,1998-01-24 03:00:00,1,1025.2,-0.2,86,-1,10000,14.816,,,60,,,,,,,,,,,wg-a,,,,AAXX 24034 07240 12460 80608 10010 21010 30112 40252 58002 60006 875// 90300=
07240,1998-01-24 06:00:00,1,1025.8,0.6,86,-1,10000,25.928,,,50,0,1.5,,,,,,,,,wg-a,,,,AAXX 24064 07240 02460 80514 10010 21010 30118 40258 53006 60006 875// 90600 333 10015 20000 60004=
07240,1998-01-24 09:00:00,1,1026.6,0.7,86,-1,500,18.52,,,50,,,,,,,,,,,wg-a,,,,AAXX 24094 07240 12300 80510 10010 21010 30125 40266 51007 60006 876// 90900=
07240,1998-01-24 12:00:00,1,1026.1,-0.4,80,-2,6000,22.224,,,60,,,,,,,,,,,wg-a,,,,AAXX 24124 07240 12456 80612 10010 21020 30121 40261 58004 60006 875// 91200=
07240,1998-01-24 15:00:00,2,1024.9,-1.1,87,0,8000,25.928,,,40,,,,,,,,,,,wg-a,,,,AAXX 24154 07240 12458 80414 10020 20000 30110 40249 56011 60006 875// 91500=
07240,1998-01-24 18:00:00,3,1025.4,0.5,70,-2,12000,29.632,,,40,0.4,2.8,,,,,,,,,wg-a,,,,AAXX 24184 07240 12662 80416 10030 21020 30115 40254 51005 60006 875// 91800 333 10028 20004=
07240,1998-01-24 21:00:00,2,1025.4,-0.1,69,-3,15000,22.224,,,40,,,,,,,,,,,wg-a,,,,AAXX 24214 07240 12665 80412 10020 21030 30114 40254 58001 60006 875// 92100=
07240,1998-01-25 00:00:00,2,1024.3,-1.1,69,-3,15000,22.224,,,20,,,,,,,,,,,wg-a,,,,AAXX 25004 07240 12665 80212 10020 21030 30103 40243 56011 60006 875// 90000=
07240,1998-01-25 03:00:00,1,1023.1,-1.2,75,-3,15000,18.52,,,30,,,,,,,,,,,wg-a,,,,AAXX 25034 07240 12565 80310 10010 21030 30091 40231 56012 60006 875// 90300=
07240,1998-01-25 06:00:00,1,1022.5,-0.6,80,-2,15000,22.224,,,20,0.7,2.6,,,,,,,,,wg-a,,,,AAXX 25064 07240 02565 70212 10010 21020 30085 40225 56006 60006 875// 90600 333 10026 20007 60004=
07240,1998-01-25 09:00:00,1,1023,0.5,80,-2,15000,22.224,,,40,,,,,,,,,,,wg-a,,,,AAXX 25094 07240 12565 80412 10010 21020 30090 40230 51005 60006 875// 90900=
07240,1998-01-25 12:00:00,2,1023.2,0.2,75,-2,12000,25.928,,,50,,,,,,,,,,1,wg-a,,,,AAXX 25124 07240 02462 80514 10020 21020 30092 40232 50002 61000 70172 875// 91200 333 6100=
07240,1998-01-25 15:00:00,1,1023.1,-0.1,86,-1,8000,25.928,,,50,,,,,,,,,,22,wg-a,,,,AAXX 25154 07240 02458 80514 10010 21010 30091 40231 55001 61000 72272 875// 91500 333 ////=
07240,1998-01-25 18:00:00,1,1024.2,1.1,80,-2,15000,22.224,,,60,0.1,1.9,,,,,,,,3,wg-a,,,,AAXX 25184 07240 12565 80612 10010 21020 30102 40242 53011 60006 70372 875// 91800 333 10019 20001=
07240,1998-01-25 21:00:00,1,1025.7,1.5,80,-2,15000,25.928,,,60,,,,,,,,,,,wg-a,,,,AAXX 25214 07240 12665 80614 10010 21020 30117 40257 51015 60006 885// 92100=
07240,1998-01-26 00:00:00,0,1026.4,0.6,80,-3,15000,22.224,,,70,,,,,,,,,,,wg-a,,,,AAXX 26004 07240 12565 40712 10000 21030 30123 40264 50006 60006 84500 90000=
07240,1998-01-26 03:00:00,0,1026.9,0.5,80,-3,12000,18.52,,,60,,,,,,,,,,,wg-a,,,,AAXX 26034 07240 12562 /0610 10000 21030 30128 40269 51005 60006 81500 90300=
07240,1998-01-26 06:00:00,-1,1027.4,0.4,80,-4,10000,14.816,,,50,-1,0.9,,,,,,,,,wg-a,,,,AAXX 26064 07240 02/60 /0508 11010 21040 30132 40274 53004 60006 90600 333 10009 21010 61000=
07240,1998-01-26 09:00:00,0,1027.7,0.4,80,-3,12000,14.816,,,60,,,,,,,,,,,wg-a,,,,AAXX 26094 07240 12/62 00608 10000 21030 30136 40277 51004 60006 80000 90900=
07240,1998-01-26 12:00:00,2,1027.2,-0.4,64,-4,12000,18.52,,,70,,,,,,,,,,,wg-a,,,,AAXX 26124 07240 12/62 00710 10020 21040 30132 40272 58004 60006 80000 91200=
07240,1998-01-26 15:00:00,1,1026.4,-0.9,69,-4,11000,18.52,,,50,,,,,,,,,,,wg-a,,,,AAXX 26154 07240 12/61 /0510 10010 21040 30123 40264 56009 60006 91500=
07240,1998-01-26 18:00:00,0,1025.9,-0.5,80,-3,8000,22.224,,,70,-1.3,2,,,,,,,,,wg-a,,,,AAXX 26184 07240 12558 80712 10000 21030 30118 40259 56005 60006 885// 91800 333 10020 21013=
07240,1998-01-26 21:00:00,-1,1025.5,-0.4,80,-4,10000,22.224,,,70,,,,,,,,,,,wg-a,,,,AAXX 26214 07240 12460 80712 11010 21040 30114 40255 58004 60006 875// 92100=
07240,1998-01-27 00:00:00,-1,1024.9,-0.6,74,-5,10000,18.52,,,80,,,,,,,,,,,wg-a,,,,AAXX 27004 07240 12460 80810 11010 21050 30108 40249 57006 60006 875// 90000=
07240,1998-01-27 03:00:00,-2,1023,-1.9,80,-5,10000,18.52,,,80,,,,,,,,,,,wg-a,,,,AAXX 27034 07240 12460 80810 11020 21050 30089 40230 56019 60006 875// 90300=
07240,1998-01-27 06:00:00,-2,1021.6,-1.4,74,-6,10000,18.52,,,80,-2.2,0.1,,,,,,,,,wg-a,,,,AAXX 27064 07240 02460 80810 11020 21060 30075 40216 56014 60006 875// 90600 333 10001 21022 60004=
07240,1998-01-27 09:00:00,-2,1021.7,0.1,74,-6,11000,22.224,,,70,,,,,,,,,,,wg-a,,,,AAXX 27094 07240 12/61 /0712 11020 21060 30076 40217 53001 60006 90900=
07240,1998-01-27 12:00:00,-1,1020.9,-0.8,74,-5,9000,18.52,,,90,,,,,,,,,,,wg-a,,,,AAXX 27124 07240 12459 80910 11010 21050 30068 40209 58008 60006 885// 91200=
07240,1998-01-27 18:00:00,-2,1019.3,-0.1,80,-5,7000,14.816,,,70,-2.4,-0.5,,,,,,,,,wg-a,,,,AAXX 27184 07240 12557 30708 11020 21050 30052 40193 55001 60006 83500 91800 333 11005 21024=
07240,1998-01-27 21:00:00,-3,1019.3,-0.1,86,-5,7000,14.816,,,70,,,,,,,,,,,wg-a,,,,AAXX 27214 07240 12/57 /0708 11030 21050 30051 40193 57001 60006 92100=
07240,1998-01-28 00:00:00,-3,1019.3,0,86,-5,6000,14.816,,,70,,,,,,,,,,,wg-a,,,,AAXX 28004 07240 12756 20708 11030 21050 30051 40193 50000 60006 82500 90000=
07240,1998-01-28 03:00:00,-2,1018.6,-0.6,86,-4,6000,14.816,,,70,,,,,,,,,,,wg-a,,,,AAXX 28034 07240 12756 70708 11020 21040 30045 40186 56006 60006 875// 90300=
07240,1998-01-28 06:00:00,-2,1018.3,-0.3,93,-3,6000,18.52,,,90,-3.3,-1.6,,,,,,,,,wg-a,,,,AAXX 28064 07240 02256 80910 11020 21030 30042 40183 56003 60006 876// 90600 333 11016 21033 60004=
07240,1998-01-28 12:00:00,0,1018.9,-0.2,80,-3,10000,14.816,,,80,,,,,,,,,,,wg-a,,,,AAXX 28124 07240 12460 /0808 10000 21030 30049 40189 58002 60006 86600 91200=
07240,1998-01-28 15:00:00,0,1018.3,-0.6,80,-3,12000,18.52,,,50,,,,,,,,,,,wg-a,,,,AAXX 28154 07240 12/62 /0510 10000 21030 30043 40183 55006 60006 80000 91500=
07240,1998-01-28 18:00:00,-2,1018.6,0.2,86,-4,6000,11.112,,,60,-2.3,1,,,,,,,,,wg-a,,,,AAXX 28184 07240 12/56 00606 11020 21040 30045 40186 53002 60006 80000 91800 333 10010 21023=
07240,1998-01-28 21:00:00,-2,1019,0.4,93,-3,6000,25.928,,,80,,,,,,,,,,,wg-a,,,,AAXX 28214 07240 12456 80814 11020 21030 30049 40190 53004 60006 886// 92100=
07240,1998-01-29 00:00:00,-2,1019.1,0.1,93,-3,6000,18.52,,,80,,,,,,,,,,,wg-a,,,,AAXX 29004 07240 12356 80810 11020 21030 30050 40191 53001 60006 886// 90000=
07240,1998-01-29 06:00:00,-1,1019.3,0.2,93,-2,4000,22.224,,,80,-2,-1,,,,,,,,10,wg-a,,,,AAXX 29064 07240 02340 80812 11010 21020 30052 40193 53002 60006 71022 876// 90600 333 11010 21020 60004=
07240,1998-01-29 12:00:00,1,1020.9,0.3,86,-1,6000,25.928,,,90,,,,,,,,,,,wg-a,,,,AAXX 29124 07240 12356 70914 10010 21010 30069 40209 50003 60006 876// 91200=
07240,1998-01-29 15:00:00,1,1020.2,-0.7,86,-1,7000,22.224,,,70,,,,,,,,,,,wg-a,,,,AAXX 29154 07240 12357 70712 10010 21010 30062 40202 56007 60006 876// 91500=
07240,1998-01-29 18:00:00,-1,1020.8,0.5,93,-2,6000,14.816,,,60,-1.1,0.8,,,,,,,,,wg-a,,,,AAXX 29184 07240 12/56 00608 11010 21020 30067 40208 51005 60006 80000 91800 333 10008 21011=
07240,1998-01-29 21:00:00,-1,1020.8,-0,93,-2,6000,11.112,,,100,,,,,,,,,,,wg-a,,,,AAXX 29214 07240 12/56 01006 11010 21020 30067 40208 55000 60006 80000 92100=
07240,1998-01-30 03:00:00,-1,1019.9,-0.6,93,-2,6000,18.52,,,80,,,,,,,,,,,wg-a,,,,AAXX 30034 07240 12056 80810 11010 21020 30058 40199 58006 60006 886// 90300=
07240,1998-01-30 06:00:00,-2,1019.4,-0.5,100,-2,1000,14.816,,,80,-2,-0.6,,,,,,,,10,wg-a,,,,AAXX 30064 07240 02010 80808 11020 21020 30053 40194 58005 60006 71022 886// 90600 333 11006 21020 60004=
07240,1998-01-30 09:00:00,-2,1020,0.6,93,-3,400,18.52,,,80,,,,,,,,,,44,wg-a,,,,AAXX 30094 07240 12004 70810 11020 21030 30059 40200 53006 60006 74442 876// 90900=
07240,1998-01-30 21:00:00,-2,1017.4,-0.1,93,-3,2000,14.816,,,70,,,,,,,,,,10,wg-a,,,,AAXX 30214 07240 12220 80708 11020 21030 30033 40174 58001 60006 71022 886// 92100=
07240,1998-01-31 03:00:00,-2,1015.7,-1,93,-3,500,22.224,,,80,,,,,,,,,,,wg-a,,,,AAXX 31034 07240 12300 80812 11020 21030 30017 40157 58010 60006 886// 90300=
07240,1998-01-31 06:00:00,-1,1015,-0.7,86,-3,6000,14.816,,,80,-2.2,-1.4,,,,,,,,,wg-a,,,,AAXX 31064 07240 02356 80808 11010 21030 30010 40150 55007 60006 886// 90600 333 11014 21022 60004=
07240,1998-01-31 12:00:00,-1,1015.5,-0.3,86,-3,4500,18.52,,,60,,,,,,,,,,10,wg-a,,,,AAXX 31124 07240 12345 80610 11010 21030 30015 40155 58003 60006 71022 886// 91200=
07240,1998-01-31 15:00:00,3,1013.9,-1.4,70,-2,10000,22.224,,,70,,,,,,,,,,,wg-a,,,,AAXX 31154 07240 12/60 /0712 10030 21020 30001 40139 56014 60006 91500=
07240,1998-01-31 18:00:00,1,1014.6,0.6,80,-2,8000,22.224,,,70,-2.2,2.6,,,,,,,,,wg-a,,,,AAXX 31184 07240 12/58 /0712 10010 21020 30007 40146 53006 60006 91800 333 10026 21022=
07240,1998-02-01 00:00:00,-1,1014.5,-0.4,93,-2,7000,22.224,,,60,,,,,,,,,,,wg-a,,,,AAXX 01004 07240 12/57 20612 11010 21020 30005 40145 58004 60006 80001 90000=
07240,1998-02-01 03:00:00,-2,1014.1,-0.4,100,-2,7000,18.52,,,60,,,,,,,,,,,wg-a,,,,AAXX 01034 07240 12/57 00610 11020 21020 30001 40141 58004 60006 80000 90300=
07240,1998-02-01 06:00:00,-2,1014,-0.1,93,-3,7000,14.816,,,60,-2.4,1,,,,,,,,,wg-a,,,,AAXX 01064 07240 02357 20608 11020 21030 30000 40140 58001 60006 82600 90600 333 10010 21024 60004=
07240,1998-02-01 09:00:00,-3,1015.2,1.1,93,-4,7000,18.52,,,50,,,,,,,,,,,wg-a,,,,AAXX 01094 07240 12/57 20510 11030 21040 30011 40152 53011 60006 80001 90900=
07240,1998-02-01 12:00:00,0,1014.9,-0.1,80,-3,10000,14.816,,,70,,,,,,,,,,,wg-a,,,,AAXX 01124 07240 12460 20708 10000 21030 30010 40149 58001 60006 81101 91200=
07240,1998-02-01 15:00:00,2,1013.9,-0.9,69,-3,12000,18.52,,,50,,,,,,,,,,,wg-a,,,,AAXX 01154 07240 12/62 10510 10020 21030 30001 40139 56009 60006 80001 91500=
07240,1998-02-01 18:00:00,-1,1014.5,0.4,86,-3,10000,11.112,,,50,-3.1,1.7,,,,,,,,,wg-a,,,,AAXX 01184 07240 12/60 /0506 11010 21030 30005 40145 52004 60006 91800 333 10017 21031=
07240,1998-02-01 21:00:00,-2,1014.5,-0,86,-4,10000,11.112,,,60,,,,,,,,,,,wg-a,,,,AAXX 01214 07240 12/60 /0606 11020 21040 30005 40145 54000 60006 92100=
07240,1998-02-02 03:00:00,-5,1013.8,-1,86,-7,10000,14.816,,,50,,,,,,,,,,,wg-a,,,,AAXX 02034 07240 12/60 00508 11050 21070 39996 40138 58010 60006 80000 90300=
07240,1998-02-02 06:00:00,-6,1013.2,-0.6,86,-8,10000,11.112,,,60,-5.6,-0.7,,,,,,,,,wg-a,,,,AAXX 02064 07240 02/60 00606 11060 21080 39990 40132 56006 60006 80000 90600 333 11007 21056 60004=
07240,1998-02-02 09:00:00,-5,1013.3,0.1,86,-7,10000,14.816,,,60,,,,,,,,,,,wg-a,,,,AAXX 02094 07240 12/60 10608 11050 21070 39991 40133 50001 60006 80001 90900=
07240,1998-02-02 12:00:00,-1,1013.1,0,74,-5,10000,14.816,,,60,,,,,,,,,,,wg-a,,,,AAXX 02124 07240 12/60 20608 11010 21050 39991 40131 50000 60006 80001 91200=
07240,1998-02-02 15:00:00,1,1011.7,-1.3,69,-4,12000,14.816,,,50,,,,,,,,,,,wg-a,,,,AAXX 02154 07240 12/62 00508 10010 21040 39978 40117 56013 60006 80000 91500=
07240,1998-02-02 18:00:00,-2,1012.7,0.9,80,-5,10000,11.112,,,40,-5.9,1,,,,,,,,,wg-a,,,,AAXX 02184 07240 12/60 10406 11020 21050 39987 40127 53009 60006 80001 91800 333 10010 21059=
07240,1998-02-02 21:00:00,-4,1013.2,0.4,86,-6,8000,11.112,,,90,,,,,,,,,,,wg-a,,,,AAXX 02214 07240 12/58 00906 11040 21060 39991 40132 53004 60006 80000 92100=
07240,1998-02-03 00:00:00,-5,1013.2,-0.1,93,-6,6000,11.112,,,70,,,,,,,,,,,wg-a,,,,AAXX 03004 07240 12/56 00706 11050 21060 39990 40132 55001 60006 80000 90000=
07240,1998-02-03 03:00:00,-6,1013.3,0.1,100,-6,4000,11.112,,,50,,,,,,,,,,10,wg-a,,,,AAXX 03034 07240 12/40 00506 11060 21060 39991 40133 50001 60006 71000 80000 90300=
07240,1998-02-03 06:00:00,-5,1012.5,-0.8,86,-7,500,14.816,,,70,-5.8,-1.5,,,,,,,,,wg-a,,,,AAXX 03064 07240 02/00 00708 11050 21070 39983 40125 57008 60006 80000 90600 333 11015 21058 60004=
07240,1998-02-03 09:00:00,-4,1013.3,0.9,86,-6,6000,18.52,,,80,,,,,,,,,,,wg-a,,,,AAXX 03094 07240 12/56 10810 11040 21060 39992 40133 50009 60006 80001 90900=
07240,1998-02-03 12:00:00,2,1012.6,-0.4,69,-3,9000,25.928,,,80,,,,,,,,,,,wg-a,,,,AAXX 03124 07240 12/59 /0814 10020 21030 39988 40126 58004 60006 80001 91200=
07240,1998-02-03 15:00:00,3,1011.9,-0.6,70,-2,10000,25.928,,,60,,,,,,,,,,,wg-a,,,,AAXX 03154 07240 12/60 00614 10030 21020 39982 40119 55006 60006 80000 91500=
07240,1998-02-03 18:00:00,1,1012.5,0.5,80,-2,7000,18.52,,,50,-5.6,3,,,,,,,,,wg-a,,,,AAXX 03184 07240 12/57 00510 10010 21020 39987 40125 53005 60006 80000 91800 333 10030 21056=
07240,1998-02-03 21:00:00,-1,1013,0.4,86,-3,6000,22.224,,,50,,,,,,,,,,,wg-a,,,,AAXX 03214 07240 12/56 00512 11010 21030 39991 40130 51004 60006 80000 92100=
07240,1998-02-04 00:00:00,-2,1012.9,-0.2,86,-4,7000,18.52,,,50,,,,,,,,,,,wg-a,,,,AAXX 04004 07240 12/57 00510 11020 21040 39989 40129 57002 60006 80000 90000=
07240,1998-02-04 06:00:00,-2,1013.1,0.4,86,-4,8000,22.224,,,40,-2.4,1.1,,,,,,,,,wg-a,,,,AAXX 04064 07240 02/58 00412 11020 21040 39991 40131 53004 60006 80000 90600 333 10011 21024 60004=
07240,1998-02-04 09:00:00,-1,1014.6,1.5,80,-4,8000,18.52,,,50,,,,,,,,,,,wg-a,,,,AAXX 04094 07240 12/58 00510 11010 21040 30006 40146 52015 60006 80000 90900=
07240,1998-02-04 12:00:00,3,1015.1,0.7,60,-4,12000,22.224,,,40,,,,,,,,,,,wg-a,,,,AAXX 04124 07240 12/62 00412 10030 21040 30013 40151 51007 60006 80000 91200=
07240,1998-02-04 15:00:00,5,1015.3,0.3,48,-5,12000,25.928,,,30,,,,,,,,,,,wg-a,,,,AAXX 04154 07240 12/62 00314 10050 21050 30016 40153 53003 60006 80000 91500=
07240,1998-02-04 18:00:00,1,1017.5,2,75,-3,10000,7.408,,,20,-2.3,4.9,,,,,,,,,wg-a,,,,AAXX 04184 07240 12/60 00204 10010 21030 30036 40175 53020 60006 80000 91800 333 10049 21023=
07240,1998-02-05 00:00:00,-3,1020.4,0.7,93,-4,10000,7.408,,,350,,,,,,,,,,,wg-a,,,,AAXX 05004 07240 12/60 03504 11030 21040 30063 40204 51007 60006 80000 90000=
07240,1998-02-05 06:00:00,-2,1021.6,0.8,93,-3,3500,7.408,,,20,-4,1.4,,,,,,,,10,wg-a,,,,AAXX 05064 07240 02535 70204 11020 21030 30075 40216 51008 60006 71011 875// 90600 333 10014 21040 60004=
07240,1998-02-05 09:00:00,-1,1023.5,1.9,93,-2,500,3.704,,,80,,,,,,,,,,49,wg-a,,,,AAXX 05094 07240 12/00 90802 11010 21020 30094 40235 51019 60006 74942 89/// 90900=
07240,1998-02-05 12:00:00,0,1023.6,0.2,100,0,500,7.408,,,10,,,,,,,,,,49,wg-a,,,,AAXX 05124 07240 12/00 90104 10000 20000 30096 40236 50002 60006 74942 89/// 91200=
07240,1998-02-05 15:00:00,5,1022.7,-0.7,87,3,7000,3.704,,,80,,,,,,,,,,1,wg-a,,,,AAXX 05154 07240 12/57 00802 10050 20030 30089 40227 55007 60006 70141 80000 91500=
07240,1998-02-05 18:00:00,2,1023.5,0.7,93,1,7000,3.704,,,50,-2,5.9,,,,,,,,2,wg-a,,,,AAXX 05184 07240 12/57 00502 10020 20010 30096 40235 53007 60006 70241 80000 91800 333 10059 21020=
07240,1998-02-06 00:00:00,1,1024.4,0.3,93,0,300,11.112,,,70,,,,,,,,,,44,wg-a,,,,AAXX 06004 07240 12/03 00706 10010 20000 30104 40244 51003 60006 74440 80000 90000=
07240,1998-02-06 03:00:00,-1,1024.4,-0.1,100,-1,200,0,,,0,,,,,,,,,,45,wg-a,,,,AAXX 06034 07240 12/02 90000 11010 21010 30103 40244 58001 60006 74544 89/// 90300=
07240,1998-02-06 06:00:00,-2,1024.5,-0,100,-2,100,0,,,0,-1.7,2.4,,,,,,,,49,wg-a,,,,AAXX 06064 07240 02/01 90000 11020 21020 30103 40245 55000 60006 74944 89/// 90600 333 10024 21017 60004=
07240,1998-02-06 12:00:00,6,1024.7,-0.4,75,2,9000,14.816,,,100,,,,,,,,,,2,wg-a,,,,AAXX 06124 07240 12/59 01008 10060 20020 30109 40247 58004 60016 70241 80000 91200=
07240,1998-02-06 15:00:00,7,1023.1,-1.5,61,0,10000,11.112,,,110,,,,,,,,,,,wg-a,,,,AAXX 06154 07240 12/60 01106 10070 20000 30094 40231 56015 60006 80000 91500=
07240,1998-02-06 18:00:00,3,1022.8,-0.5,81,0,9000,7.408,,,110,-2.7,7.6,,,,,,,,,wg-a,,,,AAXX 06184 07240 12/59 /1104 10030 20000 30089 40228 55005 60006 80001 91800 333 10076 21027=
07240,1998-02-06 21:00:00,1,1022.8,-0.1,86,-1,8000,7.408,,,130,,,,,,,,,,,wg-a,,,,AAXX 06214 07240 12/58 31304 10010 21010 30088 40228 58001 60006 80001 92100=
07240,1998-02-07 00:00:00,-1,1022.9,-0,93,-2,6000,3.704,,,150,,,,,,,,,,,wg-a,,,,AAXX 07004 07240 12/56 01502 11010 21020 30088 40229 54000 60006 80000 90000=
07240,1998-02-07 03:00:00,-2,1022.8,-0.2,93,-3,4000,3.704,,,170,,,,,,,,,,10,wg-a,,,,AAXX 07034 07240 12/40 01702 11020 21030 30086 40228 58002 60006 71000 80000 90300=
07240,1998-02-07 06:00:00,1,1022.3,-0.3,86,-1,4000,11.112,,,200,-2.3,3.6,,,,,,,,10,wg-a,,,,AAXX 07064 07240 02540 72006 10010 21010 30083 40223 55003 60006 71011 875// 90600 333 10036 21023 60004=
07240,1998-02-07 09:00:00,3,1023.4,1.2,87,1,3000,14.816,,,210,,,,,,,,,,10,wg-a,,,,AAXX 07094 07240 12630 72108 10030 20010 30095 40234 51012 60006 71022 82572 90900=
07240,1998-02-07 12:00:00,5,1024.3,1,93,4,800,11.112,,,200,,,,1,,,,,,61,wg-a,,,,AAXX 07124 07240 02308 82006 10050 20040 30105 40243 51010 60016 76165 877// 91200 333 60017=
07240,1998-02-07 15:00:00,6,1025.8,1.5,93,5,4000,11.112,,,310,,,,1,,,,,,10,wg-a,,,,AAXX 07154 07240 12240 73106 10060 20050 30120 40258 53015 60017 71064 877// 91500=
07240,1998-02-07 18:00:00,4,1028.2,2.3,93,3,12000,3.704,,,250,0.6,6.1,,,,,,,,1,wg-a,,,,AAXX 07184 07240 12462 /2502 10040 20030 30143 40282 51023 60006 70164 82502 91800 333 10061 20006=
07240,1998-02-07 21:00:00,1,1030.1,1.7,100,1,100,7.408,,,170,,,,,,,,,,44,wg-a,,,,AAXX 07214 07240 12/01 21704 10010 20010 30160 40301 51017 60006 74441 80001 92100=
07240,1998-02-08 00:00:00,-2,1031.2,0.9,100,-2,100,0,,,0,,,,,,,,,,48,wg-a,,,,AAXX 08004 07240 12/01 40000 11020 21020 30169 40312 51009 60006 74841 80001 90000=
07240,1998-02-08 06:00:00,1,1030.8,-0.2,93,0,500,3.704,,,210,-2,4,,,,,2,,,45,wg-a,,,,AAXX 08064 07240 02/00 92102 10010 20000 30167 40308 55002 60006 74544 89/// 90600 333 10040 21020 60024=
07240,1998-02-08 12:00:00,5,1029.9,-0.9,100,5,4500,11.112,,,70,,,,,,,,,,10,wg-a,,,,AAXX 08124 07240 12245 70706 10050 20050 30160 40299 58009 60006 71042 876// 91200=
07240,1998-02-08 15:00:00,8,1028.7,-1,87,6,10000,11.112,,,70,,,,,,,,,,,wg-a,,,,AAXX 08154 07240 12460 /0706 10080 20060 30150 40287 56010 60006 81101 91500=
07240,1998-02-08 18:00:00,3,1029.1,0.1,93,2,8000,7.408,,,60,0.6,8.8,,,,,,,,,wg-a,,,,AAXX 08184 07240 12/58 /0604 10030 20020 30151 40291 52001 60006 80001 91800 333 10088 20006=
07240,1998-02-08 21:00:00,2,1028.3,-0.8,93,1,8000,14.816,,,90,,,,0,,,,,,,wg-a,,,,AAXX 08214 07240 12/58 /0908 10020 20010 30143 40283 57008 60007 80001 92100=
07240,1998-02-09 00:00:00,1,1027.5,-0.9,86,-1,9000,11.112,,,100,,,,,,,,,,,wg-a,,,,AAXX 09004 07240 12/59 01006 10010 21010 30134 40275 58009 60006 80000 90000=
07240,1998-02-09 03:00:00,0,1026.6,-0.9,93,-1,9000,18.52,,,80,,,,,,,,,,,wg-a,,,,AAXX 09034 07240 12/59 /0810 10000 21010 30125 40266 58009 60006 90300=
07240,1998-02-09 06:00:00,-1,1026.6,-0.1,93,-2,9000,3.704,,,120,-1.2,3,,,,,,,,,wg-a,,,,AAXX 09064 07240 02/59 /1202 11010 21020 30124 40266 55001 60006 80001 90600 333 10030 21012 60004=
07240,1998-02-09 09:00:00,2,1027.6,1.2,87,0,12000,11.112,,,140,,,,,,,,,,,wg-a,,,,AAXX 09094 07240 12/62 61406 10020 20000 30136 40276 52012 60006 80001 90900=
07240,1998-02-09 12:00:00,10,1026.9,-0.3,53,1,13000,7.408,,,180,,,,0,,,,,,,wg-a,,,,AAXX 09124 07240 02/63 51804 10100 20010 30133 40269 58003 60006 80001 91200 333 60007=
07240,1998-02-09 15:00:00,14,1025.9,-0.8,41,1,15000,7.408,,,170,,,,,,,,,,,wg-a,,,,AAXX 09154 07240 12/65 51704 10140 20010 30125 40259 56008 60006 80001 91500=
07240,1998-02-09 17:00:00,9,1026.6,0.5,57,1,12000,3.704,,,120,,,,,,,,,,,wg-a,,,,AAXX 09174 07240 32/62 51202 10090 20010 30130 40266 53005 80001 91700=
07240,1998-02-09 18:00:00,9,1026.6,0.5,57,1,12000,3.704,,,120,-1.5,14.3,,,,,,,,,wg-a,,,,AAXX 09184 07240 12/62 51202 10090 20010 30130 40266 53005 60006 80001 91800 333 10143 21015=
07240,1998-02-09 21:00:00,6,1027.5,0.7,70,1,10000,11.112,,,150,,,,,,,,,,,wg-a,,,,AAXX 09214 07240 12/60 01506 10060 20010 30137 40275 52007 60006 80000 92100=
07240,1998-02-10 00:00:00,4,1028.5,0.9,81,1,10000,14.816,,,150,,,,,,,,,,,wg-a,,,,AAXX 10004 07240 12/60 /1508 10040 20010 30146 40285 53009 60006 90000=
07240,1998-02-10 03:00:00,3,1028.6,0.1,81,0,10000,11.112,,,170,,,,,,,,,,,wg-a,,,,AAXX 10034 07240 12/60 01706 10030 20000 30147 40286 50001 60006 80000 90300=
07240,1998-02-10 06:00:00,2,1029.5,0.8,80,-1,10000,7.408,,,130,1.8,9.2,,,,,,,,,wg-a,,,,AAXX 10064 07240 02/60 51304 10020 21010 30155 40295 53008 60006 80001 90600 333 10092 20018 60004=
07240,1998-02-10 12:00:00,12,1030.4,-0.5,58,4,10000,11.112,,,190,,,,,,,,,,,wg-a,,,,AAXX 10124 07240 12/60 /1906 10120 20040 30168 40304 58005 60006 91200=
07240,1998-02-10 15:00:00,14,1028.8,-1.4,55,5,15000,11.112,,,180,,,,,,,,,,,wg-a,,,,AAXX 10154 07240 12/65 61806 10140 20050 30154 40288 55014 60006 80001 91500=
07240,1998-02-10 18:00:00,10,1030.2,1.2,71,5,12000,3.704,,,130,1.3,13.9,,,,,,,,,wg-a,,,,AAXX 10184 07240 12/62 31302 10100 20050 30166 40302 53012 60006 80001 91800 333 10139 20013=
07240,1998-02-10 21:00:00,6,1031.2,0.7,87,4,15000,3.704,,,110,,,,,,,,,,,wg-a,,,,AAXX 10214 07240 12/65 01102 10060 20040 30173 40312 53007 60006 80000 92100=
07240,1998-02-11 00:00:00,4,1031.2,-0,93,3,12000,14.816,,,150,,,,,,,,,,,wg-a,,,,AAXX 11004 07240 12/62 11508 10040 20030 30173 40312 55000 60006 80001 90000=
07240,1998-02-11 06:00:00,1,1032,0.9,100,1,9000,11.112,,,140,1.2,9.9,,,,,,,,,wg-a,,,,AAXX 11064 07240 02/59 21406 10010 20010 30179 40320 53009 60006 80001 90600 333 10099 20012 60004=
07240,1998-02-11 12:00:00,13,1031.3,-0.9,58,5,12000,14.816,,,190,,,,,,,,,,,wg-a,,,,AAXX 11124 07240 12/62 31908 10130 20050 30178 40313 57009 60006 80002 91200=
07240,1998-02-11 15:00:00,15,1030,-1.2,55,6,15000,11.112,,,190,,,,,,,,,,,wg-a,,,,AAXX 11154 07240 12/65 41906 10150 20060 30166 40300 56012 60006 80002 91500=
07240,1998-02-11 18:00:00,12,1030.8,0.6,62,5,10000,7.408,,,180,0.6,15.1,,,,,,,,,wg-a,,,,AAXX 11184 07240 12/60 /1804 10120 20050 30172 40308 53006 60006 91800 333 10151 20006=
07240,1998-02-11 21:00:00,8,1031.6,0.6,81,5,12000,11.112,,,170,,,,,,,,,,,wg-a,,,,AAXX 11214 07240 12/62 21706 10080 20050 30178 40316 51006 60006 80002 92100=
07240,1998-02-12 00:00:00,6,1032.1,0.4,87,4,10000,7.408,,,150,,,,,,,,,,,wg-a,,,,AAXX 12004 07240 12/60 01504 10060 20040 30182 40321 51004 60006 80000 90000=
07240,1998-02-12 03:00:00,3,1032.5,0.3,100,3,10000,3.704,,,170,,,,,,,,,,,wg-a,,,,AAXX 12034 07240 12/60 01702 10030 20030 30185 40325 53003 60006 80000 90300=
07240,1998-02-12 06:00:00,2,1033.1,0.5,93,1,10000,7.408,,,120,1.4,11.9,,,,,,,,,wg-a,,,,AAXX 12064 07240 02/60 11204 10020 20010 30190 40331 53005 60006 80002 90600 333 10119 20014 60004=
07240,1998-02-12 09:00:00,6,1034,1.1,87,4,7000,3.704,,,150,,,,,,,,,,,wg-a,,,,AAXX 12094 07240 12/57 41502 10060 20040 30201 40340 53011 60006 80002 90900=
07240,1998-02-12 12:00:00,12,1033.9,0.2,67,6,10000,7.408,,,220,,,,,,,,,,,wg-a,,,,AAXX 12124 07240 12/60 62204 10120 20060 30203 40339 50002 60006 80002 91200=
07240,1998-02-12 15:00:00,16,1032.3,-1.4,51,6,15000,11.112,,,160,,,,,,,,,,,wg-a,,,,AAXX 12154 07240 12/65 41606 10160 20060 30189 40323 56014 60006 80001 91500=
07240,1998-02-12 18:00:00,12,1032.9,0.4,62,5,10000,3.704,,,120,1.5,16.1,,,,,,,,,wg-a,,,,AAXX 12184 07240 12/60 /1202 10120 20050 30193 40329 51004 60006 91800 333 10161 20015=
07240,1998-02-12 21:00:00,7,1033.5,0.4,81,4,15000,7.408,,,80,,,,,,,,,,,wg-a,,,,AAXX 12214 07240 12/65 10804 10070 20040 30197 40335 51004 60006 80001 92100=
07240,1998-02-13 00:00:00,5,1033.8,0.2,93,4,10000,3.704,,,70,,,,,,,,,,,wg-a,,,,AAXX 13004 07240 12/60 /0702 10050 20040 30199 40338 51002 60006 90000=
07240,1998-02-13 03:00:00,3,1033.5,-0.4,100,3,10000,7.408,,,60,,,,,,,,,,,wg-a,,,,AAXX 13034 07240 12/60 00604 10030 20030 30195 40335 58004 60006 80000 90300=
07240,1998-02-13 09:00:00,5,1034.7,0.8,93,4,7000,11.112,,,80,,,,,,,,,,,wg-a,,,,AAXX 13094 07240 12/57 /0806 10050 20040 30208 40347 51008 60006 80001 90900=
07240,1998-02-13 12:00:00,13,1034,-0.3,67,7,9000,7.408,,,50,,,,,,,,,,,wg-a,,,,AAXX 13124 07240 12/59 /0504 10130 20070 30205 40340 58003 60006 80001 91200=
07240,1998-02-13 15:00:00,16,1032.9,-1,51,6,12000,11.112,,,60,,,,,,,,,,,wg-a,,,,AAXX 13154 07240 12/62 10606 10160 20060 30195 40329 56010 60006 80001 91500=
07240,1998-02-13 18:00:00,11,1032.8,-0.3,66,5,10000,3.704,,,70,2,16.1,,,,,,,,,wg-a,,,,AAXX 13184 07240 12/60 00702 10110 20050 30192 40328 55003 60006 80000 91800 333 10161 20020=
07240,1998-02-13 21:00:00,7,1033.8,0.8,81,4,10000,11.112,,,70,,,,,,,,,,,wg-a,,,,AAXX 13214 07240 12/60 00706 10070 20040 30200 40338 51008 60006 80000 92100=
07240,1998-02-14 00:00:00,5,1033.6,-0.3,87,3,10000,14.816,,,80,,,,,,,,,,,wg-a,,,,AAXX 14004 07240 12/60 00808 10050 20030 30197 40336 55003 60006 80000 90000=
07240,1998-02-14 03:00:00,4,1033.6,-0.1,87,2,10000,7.408,,,60,,,,,,,,,,,wg-a,,,,AAXX 14034 07240 32/60 /0604 10040 20020 30196 40336 55001 90300=
07240,1998-02-14 06:00:00,3,1033.4,-0.2,87,1,10000,11.112,,,70,3.2,11.2,,,,,,,,,wg-a,,,,AAXX 14064 07240 02/60 00706 10030 20010 30194 40334 58002 60006 80000 90600 333 10112 20032 60004=
07240,1998-02-14 09:00:00,7,1033.8,0.6,81,4,8000,11.112,,,90,,,,,,,,,,,wg-a,,,,AAXX 14094 07240 12/58 00906 10070 20040 30200 40338 51006 60006 80000 90900=
07240,1998-02-14 12:00:00,16,1033.1,-0.3,48,5,10000,7.408,,,140,,,,,,,,,,,wg-a,,,,AAXX 14124 07240 12/60 01404 10160 20050 30197 40331 58003 60006 80000 91200=
07240,1998-02-14 15:00:00,19,1032.5,-0.5,43,6,12000,0,,,0,,,,,,,,,,,wg-a,,,,AAXX 14154 07240 12/62 00000 10190 20060 30192 40325 55005 60006 80000 91500=
07240,1998-02-14 18:00:00,13,1033.2,0.5,67,7,10000,3.704,,,30,2.9,18.9,,,,,,,,,wg-a,,,,AAXX 14184 07240 12/60 00302 10130 20070 30197 40332 53005 60006 80000 91800 333 10189 20029=
07240,1998-02-14 21:00:00,9,1033.7,0.3,87,7,10000,7.408,,,90,,,,,,,,,,,wg-a,,,,AAXX 14214 07240 12/60 00904 10090 20070 30200 40337 51003 60006 80000 92100=
07240,1998-02-15 00:00:00,6,1033.9,0,93,5,10000,7.408,,,90,,,,,,,,,,,wg-a,,,,AAXX 15004 07240 12/60 00904 10060 20050 30200 40339 50000 60006 80000 90000=
07240,1998-02-15 03:00:00,4,1033.4,-0.6,93,3,8000,3.704,,,330,,,,,,,,,,,wg-a,,,,AAXX 15034 07240 12/58 03302 10040 20030 30194 40334 55006 60006 80000 90300=
07240,1998-02-15 06:00:00,4,1033.3,-0.1,93,3,7000,7.408,,,80,2.5,12.5,,,,,,,,,wg-a,,,,AAXX 15064 07240 02/57 00804 10040 20030 30193 40333 55001 60006 80000 90600 333 10125 20025 60004=
07240,1998-02-15 09:00:00,6,1033.7,0.5,93,5,8000,11.112,,,90,,,,0,,,,,,,wg-a,,,,AAXX 15094 07240 12/58 30906 10060 20050 30198 40337 50005 60007 80002 90900=
07240,1998-02-15 12:00:00,16,1032.2,-1,59,8,12000,11.112,,,130,,,,,,,,,,,wg-a,,,,AAXX 15124 07240 12/62 31306 10160 20080 30188 40322 58010 60006 80002 91200=
07240,1998-02-15 15:00:00,20,1030.1,-1.9,46,8,15000,11.112,,,140,,,,,,,,,,,wg-a,,,,AAXX 15154 07240 12/65 41406 10200 20080 30169 40301 57019 60006 80002 91500=
07240,1998-02-15 18:00:00,14,1029.8,-0.5,58,6,15000,7.408,,,130,3.4,19.7,,,,,,,,,wg-a,,,,AAXX 15184 07240 12/65 51304 10140 20060 30164 40298 56005 60006 80002 91800 333 10197 20034=
07240,1998-02-15 21:00:00,11,1029,-1,76,7,10000,11.112,,,150,,,,,,,,,,,wg-a,,,,AAXX 15214 07240 12/60 51506 10110 20070 30154 40290 56010 60006 80002 92100=
07240,1998-02-16 00:00:00,9,1028.5,-0.6,87,7,0,3.704,,,210,,,,,,,,,,,wg-a,,,,AAXX 16004 07240 12/// /2102 10090 20070 30148 40285 55006 60006 90000=
07240,1998-02-16 03:00:00,8,1027.2,-1.3,87,6,10000,11.112,,,250,,,,,,,,,,,wg-a,,,,AAXX 16034 07240 12/60 72506 10080 20060 30135 40272 56013 60006 80002 90300=
07240,1998-02-16 06:00:00,9,1026.9,-0.2,81,6,8000,11.112,,,260,7.7,14.3,,,,,,,,,wg-a,,,,AAXX 16064 07240 02258 72606 10090 20060 30133 40269 56002 60006 875// 90600 333 10143 20077 60004=
07240,1998-02-16 09:00:00,10,1028.4,1.5,93,9,4000,11.112,,,270,,,,,,,,,,10,wg-a,,,,AAXX 16094 07240 12240 72706 10100 20090 30148 40284 51015 60006 71022 875// 90900=
07240,1998-02-16 12:00:00,12,1029,0.7,82,9,6000,22.224,,,290,,,,,,,,,,,wg-a,,,,AAXX 16124 07240 12/56 /2912 10120 20090 30155 40290 50007 60006 91200=
07240,1998-02-16 15:00:00,12,1029.2,0.2,71,7,20000,22.224,,,310,,,,,,,,,,,wg-a,,,,AAXX 16154 07240 12570 63112 10120 20070 30157 40292 53002 60006 84532 91500=
07240,1998-02-16 18:00:00,9,1030.7,1.3,71,4,20000,18.52,,,300,8.9,12.3,,,,,,,,,wg-a,,,,AAXX 16184 07240 12670 /3010 10090 20040 30170 40307 51013 60006 85502 91800 333 10123 20089=
07240,1998-02-16 21:00:00,7,1032.6,1.8,81,4,15000,14.816,,,310,,,,,,,,,,,wg-a,,,,AAXX 16214 07240 12665 23108 10070 20040 30188 40326 51018 60006 82500 92100=
07240,1998-02-17 00:00:00,7,1033.4,0.8,87,5,15000,11.112,,,290,,,,,,,,,,,wg-a,,,,AAXX 17004 07240 12665 72906 10070 20050 30196 40334 53008 60006 875// 90000=
07240,1998-02-17 03:00:00,4,1033.8,0.2,93,3,15000,7.408,,,280,,,,,,,,,,,wg-a,,,,AAXX 17034 07240 12/65 02804 10040 20030 30198 40338 50002 60006 80000 90300=
07240,1998-02-17 06:00:00,5,1034.7,1,100,5,10000,3.704,,,310,3.5,9.3,,,,,,,,,wg-a,,,,AAXX 17064 07240 02760 73102 10050 20050 30208 40347 53010 60006 875// 90600 333 10093 20035 60004=
07240,1998-02-17 09:00:00,7,1036.6,1.9,93,6,15000,7.408,,,10,,,,,,,,,,,wg-a,,,,AAXX 17094 07240 12765 40104 10070 20060 30227 40366 53019 60006 84500 90900=
07240,1998-02-17 12:00:00,11,1037.1,0.7,62,4,15000,14.816,,,40,,,,,,,,,,,wg-a,,,,AAXX 17124 07240 12565 /0408 10110 20040 30234 40371 50007 60006 81100 91200=
07240,1998-02-17 15:00:00,11,1035.8,-1.2,58,3,20000,14.816,,,60,,,,,,,,,,,wg-a,,,,AAXX 17154 07240 12/70 00608 10110 20030 30222 40358 56012 60006 80000 91500=
07240,1998-02-17 18:00:00,8,1036,-0,71,3,20000,11.112,,,50,5.1,11.9,,,,,,,,,wg-a,,,,AAXX 17184 07240 12/70 00506 10080 20030 30222 40360 55000 60006 80000 91800 333 10119 20051=
07240,1998-02-17 21:00:00,5,1037.1,0.9,81,2,15000,14.816,,,70,,,,,,,,,,,wg-a,,,,AAXX 17214 07240 12/65 00708 10050 20020 30231 40371 51009 60006 80000 92100=
07240,1998-02-18 00:00:00,3,1035.5,-1.7,87,1,10000,18.52,,,80,,,,,,,,,,,wg-a,,,,AAXX 18004 07240 12/60 00810 10030 20010 30214 40355 58017 60006 80000 90000=
07240,1998-02-18 06:00:00,1,1033.4,-1.1,86,-1,10000,14.816,,,80,0.6,7.5,,,,,,,,,wg-a,,,,AAXX 18064 07240 02/60 00808 10010 21010 30192 40334 56011 60006 80000 90600 333 10075 20006 60004=
07240,1998-02-18 09:00:00,5,1032,-1.1,81,2,12000,22.224,,,90,,,,,,,,,,,wg-a,,,,AAXX 18094 07240 12/62 20912 10050 20020 30181 40320 58011 60006 80001 90900=
07240,1998-02-18 12:00:00,10,1031.3,-0.4,66,4,15000,11.112,,,160,,,,,,,,,,,wg-a,,,,AAXX 18124 07240 12/65 31606 10100 20040 30177 40313 57004 60006 80001 91200=
07240,1998-02-18 15:00:00,14,1029,-2.1,51,4,15000,3.704,,,160,,,,,,,,,,,wg-a,,,,AAXX 18154 07240 12/65 21602 10140 20040 30156 40290 56021 60006 80001 91500=
07240,1998-02-18 18:00:00,10,1029.7,0.5,62,3,15000,3.704,,,250,0.4,14.6,,,,,,,,,wg-a,,,,AAXX 18184 07240 12/65 22502 10100 20030 30161 40297 53005 60006 82030 91800 333 10146 20004=
07240,1998-02-18 21:00:00,7,1030.4,0.5,76,3,10000,3.704,,,270,,,,,,,,,,,wg-a,,,,AAXX 18214 07240 12/60 02702 10070 20030 30166 40304 53005 60006 80000 92100=
07240,1998-02-19 00:00:00,5,1031.3,0.8,87,3,0,11.112,,,250,,,,,,,,,,,wg-a,,,,AAXX 19004 07240 12/// /2506 10050 20030 30174 40313 53008 60006 90000=
07240,1998-02-19 03:00:00,5,1031.9,0.6,93,4,6000,7.408,,,260,,,,,,,,,,,wg-a,,,,AAXX 19034 07240 12/56 32604 10050 20040 30180 40319 50006 60006 80002 90300=
07240,1998-02-19 06:00:00,6,1032.4,0.5,93,5,500,3.704,,,160,3.6,10.2,,,,,,,,10,wg-a,,,,AAXX 19064 07240 02/05 91602 10060 20050 30185 40324 51005 60006 71041 89/// 90600 333 10102 20036 60004=
07240,1998-02-19 09:00:00,7,1033.5,1.2,93,6,900,11.112,,,200,,,,,,,,,,44,wg-a,,,,AAXX 19094 07240 12109 82006 10070 20060 30197 40335 51012 60006 74444 885// 90900=
07240,1998-02-19 12:00:00,9,1032.7,-0.7,93,8,3500,11.112,,,150,,,,,,,,,,10,wg-a,,,,AAXX 19124 07240 12235 81506 10090 20080 30190 40327 58007 60006 71042 876// 91200=
07240,1998-02-19 15:00:00,11,1030.5,-2.1,82,8,8000,11.112,,,130,,,,,,,,,,,wg-a,,,,AAXX 19154 07240 12458 /1306 10110 20080 30169 40305 58021 60006 86100 91500=
07240,1998-02-19 18:00:00,8,1029.8,-0.8,93,7,800,14.816,,,100,5.8,11.7,,,,,,,,10,wg-a,,,,AAXX 19184 07240 12/08 91008 10080 20070 30161 40298 56008 60006 71041 89/// 91800 333 10117 20058=
07240,1998-02-19 21:00:00,7,1028.6,-1.3,93,6,400,14.816,,,90,,,,,,,,,,45,wg-a,,,,AAXX 19214 07240 12/04 90908 10070 20060 30148 40286 57013 60006 74542 89/// 92100=
07240,1998-02-20 00:00:00,5,1026.8,-1.8,100,5,300,7.408,,,70,,,,,,,,,,45,wg-a,,,,AAXX 20004 07240 12/03 90704 10050 20050 30130 40268 58018 60006 74542 89/// 90000=
07240,1998-02-20 03:00:00,4,1024.4,-2.5,93,3,1200,11.112,,,90,,,,,,,,,,10,wg-a,,,,AAXX 20034 07240 12/12 40906 10040 20030 30105 40244 56025 60006 71041 80004 90300=
07240,1998-02-20 06:00:00,3,1022.4,-2,100,3,3000,11.112,,,100,3.4,7.6,,,,,,,,10,wg-a,,,,AAXX 20064 07240 02/30 31006 10030 20030 30085 40224 56020 60006 71041 80001 90600 333 10076 20034 60004=
07240,1998-02-20 09:00:00,6,1021.1,-1.1,93,5,4500,11.112,,,120,,,,,,,,,,10,wg-a,,,,AAXX 20094 07240 12/45 31206 10060 20050 30074 40211 58011 60006 71000 80001 90900=
07240,1998-02-20 12:00:00,15,1019,-1.7,63,8,10000,11.112,,,140,,,,,,,,,,,wg-a,,,,AAXX 20124 07240 12/60 31406 10150 20080 30057 40190 58017 60006 80001 91200=
07240,1998-02-20 15:00:00,20,1015.9,-2.8,40,6,15000,18.52,,,200,,,,,,,,,,,wg-a,,,,AAXX 20154 07240 12/65 42010 10200 20060 30029 40159 56028 60006 80001 91500=
07240,1998-02-20 18:00:00,17,1016.5,0.4,42,4,15000,14.816,,,210,2.8,20.2,,,,,,,,,wg-a,,,,AAXX 20184 07240 12/65 72108 10170 20040 30033 40165 53004 60006 80001 91800 333 10202 20028=
07240,1998-02-21 00:00:00,8,1018.3,0,87,6,15000,7.408,,,160,,,,,,,,,,,wg-a,,,,AAXX 21004 07240 12/65 01604 10080 20060 30047 40183 50000 60006 80000 90000=
07240,1998-02-21 03:00:00,7,1017.8,-0.5,87,5,8000,7.408,,,160,,,,,,,,,,,wg-a,,,,AAXX 21034 07240 12/58 31604 10070 20050 30042 40178 56005 60006 80002 90300=
07240,1998-02-21 06:00:00,8,1016.4,-1.3,87,6,9000,11.112,,,160,6.5,16.5,,,,,,,,,wg-a,,,,AAXX 21064 07240 02/59 81606 10080 20060 30029 40164 58013 60006 8707/ 90600 333 10165 20065 60004=
07240,1998-02-21 12:00:00,11,1015.9,0.4,87,9,8000,25.928,,,230,,,,1,,,,,,61,wg-a,,,,AAXX 21124 07240 02558 82314 10110 20090 30025 40159 53004 60016 76162 8/52/ 91200 333 60017=
07240,1998-02-21 15:00:00,10,1017.6,1.6,93,9,11000,14.816,,,210,,,,,,,,,,,wg-a,,,,AAXX 21154 07240 32/61 /2108 10100 20090 30041 40176 53016 91500=
07240,1998-02-21 18:00:00,10,1018.4,0.8,87,8,12000,22.224,,,200,7.3,11.7,,0,,,,,,3,wg-a,,,,AAXX 21184 07240 02462 82012 10100 20080 30049 40184 51008 60006 70362 887// 91800 333 10117 20073 60007=
07240,1998-02-21 21:00:00,9,1019.1,0.7,93,8,12000,14.816,,,220,,,,1,,,,,,,wg-a,,,,AAXX 21214 07240 12762 72208 10090 20080 30056 40191 51007 60017 875// 92100=
07240,1998-02-22 00:00:00,8,1019.2,0,93,7,12000,11.112,,,200,,,,0,,,,,,,wg-a,,,,AAXX 22004 07240 02762 72006 10080 20070 30056 40192 50000 60016 875// 90000 333 60007=
07240,1998-02-22 03:00:00,8,1018.2,-1,93,7,10000,22.224,,,220,,,,4,,,,,,61,wg-a,,,,AAXX 22034 07240 12360 82212 10080 20070 30046 40182 56010 60047 76162 8472/ 90300=
07240,1998-02-22 06:00:00,6,1019.7,1.4,93,5,15000,14.816,,,240,5.9,9.5,,,,,7,,,3,wg-a,,,,AAXX 22064 07240 02465 82408 10060 20050 30060 40197 51014 60006 70362 878// 90600 333 10095 20059 60074=
07240,1998-02-22 09:00:00,6,1022.5,2.8,93,5,500,18.52,,,260,,,,,,,,,,,wg-a,,,,AAXX 22094 07240 12400 42610 10060 20050 30088 40225 53028 60006 82802 90900=
07240,1998-02-22 12:00:00,8,1024.3,1.9,81,5,500,18.52,,,290,,,,,,,,,,,wg-a,,,,AAXX 22124 07240 12400 42910 10080 20050 30107 40243 51019 60006 83202 91200=
07240,1998-02-22 15:00:00,6,1025.5,1,75,2,8000,35.188,,,310,,,,1,,,,,,80,wg-a,,,,AAXX 22154 07240 12258 73119 10060 20020 30117 40255 53010 60017 78087 879// 91500=
07240,1998-02-22 18:00:00,5,1029.1,3.5,75,1,500,14.816,,,320,5.3,9.5,,,,,,,,1,wg-a,,,,AAXX 22184 07240 02500 23208 10050 20010 30152 40291 53035 60006 70187 81902 91800 333 10095 20053 61000=
07240,1998-02-22 21:00:00,3,1032.7,3.5,87,1,20000,11.112,,,320,,,,,,,,,,,wg-a,,,,AAXX 22214 07240 12/70 03206 10030 20010 30187 40327 51035 60006 80000 92100=
07240,1998-02-23 00:00:00,1,1034.4,1.6,93,0,12000,11.112,,,310,,,,,,,,,,,wg-a,,,,AAXX 23004 07240 12/62 03106 10010 20000 30203 40344 51016 60006 80000 90000=
07240,1998-02-23 03:00:00,1,1035.3,0.8,93,0,12000,11.112,,,320,,,,,,,,,,,wg-a,,,,AAXX 23034 07240 12/62 03206 10010 20000 30211 40353 51008 60006 80000 90300=
07240,1998-02-23 06:00:00,0,1036.2,0.9,93,-1,12000,7.408,,,310,0,5.3,,,,,1,,,,wg-a,,,,AAXX 23064 07240 02662 /3104 10000 21010 30220 40362 51009 60006 81500 90600 333 10053 20000 60014=
07240,1998-02-23 09:00:00,3,1037.8,1.7,100,3,10000,11.112,,,330,,,,0,,,,,,,wg-a,,,,AAXX 23094 07240 12/60 23306 10030 20030 30237 40378 53017 60007 80001 90900=
07240,1998-02-23 12:00:00,9,1037.6,0.1,71,4,20000,18.52,,,340,,,,,,,,,,,wg-a,,,,AAXX 23124 07240 12570 43410 10090 20040 30238 40376 50001 60006 83101 91200=
07240,1998-02-23 15:00:00,11,1036.8,-0.7,58,3,20000,18.52,,,360,,,,,,,,,,,wg-a,,,,AAXX 23154 07240 12670 53610 10110 20030 30231 40368 56007 60006 84802 91500=
07240,1998-02-23 18:00:00,9,1037.2,0.3,71,4,500,11.112,,,330,-0.1,11.2,,,,,,,,,wg-a,,,,AAXX 23184 07240 12600 /3306 10090 20040 30234 40372 53003 60006 85532 91800 333 10112 21001=
07240,1998-02-23 21:00:00,7,1038.1,0.8,81,4,10000,3.704,,,280,,,,,,,,,,,wg-a,,,,AAXX 23214 07240 12660 72802 10070 20040 30242 40381 51008 60006 87500 92100=
07240,1998-02-24 00:00:00,7,1037.9,-0.2,93,6,0,11.112,,,330,,,,,,,,,,,wg-a,,,,AAXX 24004 07240 12/// /3306 10070 20060 30240 40379 58002 60006 90000=
07240,1998-02-24 03:00:00,7,1036.9,-0.9,100,7,8000,11.112,,,320,,,,,,,,,,,wg-a,,,,AAXX 24034 07240 12558 73206 10070 20070 30231 40369 58009 60006 87500 90300=
07240,1998-02-24 06:00:00,8,1037.2,0.3,93,7,500,11.112,,,330,6.9,8.9,,,,,,,,50,wg-a,,,,AAXX 24064 07240 02100 73306 10080 20070 30234 40372 52003 61000 75065 877// 90600 333 10089 20069 6000=
07240,1998-02-24 09:00:00,8,1038.5,1.3,100,8,500,11.112,,,340,,,,0,,,,,,60,wg-a,,,,AAXX 24094 07240 12400 73406 10080 20080 30247 40385 52013 60007 76066 875// 90900=
07240,1998-02-24 12:00:00,10,1038.5,0.1,87,8,9000,14.816,,,360,,,,,,,,,,,wg-a,,,,AAXX 24124 07240 12/59 /3608 10100 20080 30248 40385 50001 60006 91200=
07240,1998-02-24 15:00:00,12,1037.1,-1.3,71,7,15000,11.112,,,10,,,,,,,,,,,wg-a,,,,AAXX 24154 07240 12565 70106 10120 20070 30235 40371 56013 60006 875// 91500=
07240,1998-02-24 18:00:00,11,1037.7,0.5,76,7,12000,7.408,,,20,7.5,11.7,,,,,,,,,wg-a,,,,AAXX 24184 07240 12562 70204 10110 20070 30240 40377 53005 60006 875// 91800 333 10117 20075=
07240,1998-02-24 21:00:00,9,1038.6,0.8,87,7,12000,7.408,,,340,,,,,,,,,,,wg-a,,,,AAXX 24214 07240 12662 73404 10090 20070 30248 40386 51008 60006 875// 92100=
07240,1998-02-25 00:00:00,8,1038.4,-0.2,93,7,12000,7.408,,,350,,,,,,,,,,,wg-a,,,,AAXX 25004 07240 12662 83504 10080 20070 30246 40384 58002 60006 875// 90000=
07240,1998-02-25 03:00:00,9,1037.4,-1,87,7,9000,11.112,,,30,,,,,,,,,,,wg-a,,,,AAXX 25034 07240 12659 80306 10090 20070 30236 40374 58010 60006 885// 90300=
07240,1998-02-25 06:00:00,9,1037.4,-0,81,6,9000,11.112,,,30,8.2,10.7,,,,,,,,,wg-a,,,,AAXX 25064 07240 02559 80306 10090 20060 30236 40374 55000 60006 885// 90600 333 10107 20082 60004=
07240,1998-02-25 09:00:00,9,1038.2,0.8,87,7,6000,14.816,,,50,,,,,,,,,,,wg-a,,,,AAXX 25094 07240 12556 80508 10090 20070 30244 40382 53008 60006 885// 90900=
07240,1998-02-25 12:00:00,12,1037.1,-0.9,76,8,10000,14.816,,,40,,,,,,,,,,,wg-a,,,,AAXX 25124 07240 12460 70408 10120 20080 30235 40371 58009 60006 878// 91200=
07240,1998-02-25 18:00:00,9,1035.5,-0.3,87,7,3000,11.112,,,60,8.5,12,,,,,,,,10,wg-a,,,,AAXX 25184 07240 12430 80606 10090 20070 30218 40355 56003 60006 71022 876// 91800 333 10120 20085=
07240,1998-02-25 21:00:00,9,1035.6,0.1,87,7,3000,14.816,,,70,,,,,,,,,,10,wg-a,,,,AAXX 25214 07240 12330 80708 10090 20070 30219 40356 52001 60006 71022 876// 92100=
07240,1998-02-26 00:00:00,9,1035.1,-0.5,87,7,4500,7.408,,,20,,,,,,,,,,10,wg-a,,,,AAXX 26004 07240 12445 80204 10090 20070 30214 40351 56005 60006 71022 875// 90000=
07240,1998-02-26 03:00:00,9,1034.1,-1,87,7,3000,7.408,,,40,,,,,,,,,,10,wg-a,,,,AAXX 26034 07240 12530 80404 10090 20070 30204 40341 56010 60006 71022 875// 90300=
07240,1998-02-26 06:00:00,9,1033.9,-0.2,87,7,500,7.408,,,20,8.5,9.2,,,,,,,,,wg-a,,,,AAXX 26064 07240 02400 80204 10090 20070 30202 40339 58002 60006 885// 90600 333 10092 20085 60004=
07240,1998-02-26 09:00:00,10,1034.2,0.3,87,8,6000,7.408,,,40,,,,,,,,,,,wg-a,,,,AAXX 26094 07240 12456 80404 10100 20080 30205 40342 50003 60006 885// 90900=
07240,1998-02-26 12:00:00,11,1034,-0.1,82,8,7000,3.704,,,60,,,,,,,,,,,wg-a,,,,AAXX 26124 07240 12457 70602 10110 20080 30204 40340 58001 60006 875// 91200=
07240,1998-02-26 15:00:00,11,1032.5,-1.5,76,7,8000,3.704,,,10,,,,,,,,,,,wg-a,,,,AAXX 26154 07240 12458 70102 10110 20070 30189 40325 56015 60006 875// 91500=
07240,1998-02-27 00:00:00,9,1031.8,-0.8,87,7,8000,7.408,,,300,,,,,,,,,,,wg-a,,,,AAXX 27004 07240 12558 73004 10090 20070 30181 40318 56008 60006 875// 90000=
07240,1998-02-27 03:00:00,8,1030.8,-1,93,7,8000,3.704,,,300,,,,,,,,,,,wg-a,,,,AAXX 27034 07240 12558 73002 10080 20070 30171 40308 58010 60006 875// 90300=
07240,1998-02-27 06:00:00,8,1029.6,-1.2,93,7,7000,3.704,,,250,7.9,10.5,,,,,,,,,wg-a,,,,AAXX 27064 07240 02557 72502 10080 20070 30159 40296 58012 60006 875// 90600 333 10105 20079 60004=
07240,1998-02-27 09:00:00,9,1029.5,-0.1,87,7,500,11.112,,,250,,,,,,,,,,,wg-a,,,,AAXX 27094 07240 12500 72506 10090 20070 30158 40295 56001 60006 875// 90900=
07240,1998-02-27 12:00:00,9,1028.9,-0.6,87,7,7000,14.816,,,270,,,,,,,,,,,wg-a,,,,AAXX 27124 07240 12457 72708 10090 20070 30152 40289 58006 60006 876// 91200=
07240,1998-02-27 15:00:00,9,1026.4,-2.4,81,6,15000,14.816,,,220,,,,,,,,,,1,wg-a,,,,AAXX 27154 07240 02565 72208 10090 20060 30128 40264 57024 61000 70152 875// 91500 333 ////=
07240,1998-02-27 18:00:00,10,1025,-1.4,76,6,15000,18.52,,35.188,240,7.9,9.7,,,,,,,,1,wg-a,,,,AAXX 27184 07240 12565 72410 10100 20060 30114 40250 56014 60006 70152 875// 91800 333 10097 20079 91019=
07240,1998-02-27 21:00:00,9,1024.4,-0.6,81,6,12000,22.224,,,240,,,,,,,,,,,wg-a,,,,AAXX 27214 07240 12662 82412 10090 20060 30108 40244 58006 60006 875// 92100=
07240,1998-02-28 00:00:00,9,1022.5,-1.9,87,7,8000,22.224,,,230,,,,,,,,,,,wg-a,,,,AAXX 28004 07240 12658 82312 10090 20070 30089 40225 57019 60006 875// 90000=
07240,1998-02-28 03:00:00,9,1020.6,-1.9,87,7,8000,22.224,,,240,,,,,,,,,,60,wg-a,,,,AAXX 28034 07240 02458 82412 10090 20070 30070 40206 56019 61000 76062 875// 90300 333 ////=
07240,1998-02-28 06:00:00,7,1019.6,-1,93,6,15000,18.52,,,250,7.2,9.6,,,,,,,,21,wg-a,,,,AAXX 28064 07240 02665 72510 10070 20060 30060 40196 56010 61000 72162 875// 90600 333 10096 20072 6001=
07240,1998-02-28 09:00:00,9,1019.6,0,81,6,500,22.224,,,250,,,,,,,,,,,wg-a,,,,AAXX 28094 07240 12400 /2512 10090 20060 30060 40196 50000 60006 83532 90900=
07240,1998-02-28 12:00:00,10,1019.6,0.1,76,6,500,29.632,,,270,,,,,,,,,,,wg-a,,,,AAXX 28124 07240 12500 72716 10100 20060 30061 40196 50001 60006 878// 91200=
07240,1998-02-28 15:00:00,7,1018.7,-1,93,6,500,11.112,,,290,,,,1,,,,,,21,wg-a,,,,AAXX 28154 07240 12500 72906 10070 20060 30051 40187 56010 60017 72162 878// 91500=
07240,1998-02-28 18:00:00,7,1019,0.3,93,6,25000,11.112,,,270,7.2,10.5,,,,,,,,1,wg-a,,,,AAXX 28184 07240 12575 72706 10070 20060 30054 40190 53003 60006 70162 878// 91800 333 10105 20072=
07240,1998-02-28 21:00:00,7,1019.7,0.6,81,4,20000,11.112,,,300,,,,,,,,,,,wg-a,,,,AAXX 28214 07240 12770 83006 10070 20040 30060 40197 53006 60006 865/1 92100=
07240,1998-03-01 03:00:00,2,1020.6,-0,93,1,20000,7.408,,,270,,,,,,,,,,,wg-a,,,,AAXX 01034 07240 12/70 32704 10020 20010 30067 40206 55000 60006 80001 90300=
07240,1998-03-01 06:00:00,2,1021.1,0.5,93,1,20000,11.112,,,230,1.2,7.3,,,,,1,,,,wg-a,,,,AAXX 01064 07240 02/70 22306 10020 20010 30072 40211 53005 60006 81031 90600 333 10073 20012 60014=
07240,1998-03-01 09:00:00,5,1022.2,1.2,87,3,20000,7.408,,,220,,,,,,,,,,,wg-a,,,,AAXX 01094 07240 12770 62204 10050 20030 30084 40222 53012 60006 855/1 90900=
07240,1998-03-01 12:00:00,10,1021.6,-0.3,62,3,500,22.224,,,240,,,,,,,,,,,wg-a,,,,AAXX 01124 07240 12500 /2412 10100 20030 30081 40216 58003 60006 82801 91200=
07240,1998-03-01 15:00:00,11,1020.6,-1,62,4,500,22.224,,,240,,,,,,,,,,,wg-a,,,,AAXX 01154 07240 12600 72412 10110 20040 30071 40206 56010 60006 878// 91500=
07240,1998-03-01 18:00:00,9,1021.1,0.5,76,5,20000,11.112,,,260,1.6,11.5,,,,,,,,,wg-a,,,,AAXX 01184 07240 12770 72606 10090 20050 30076 40211 53005 60006 875// 91800 333 10115 20016=
07240,1998-03-01 21:00:00,8,1022.3,1.1,76,4,10000,22.224,,,240,,,,,,,,,,,wg-a,,,,AAXX 01214 07240 12760 32412 10080 20040 30087 40223 53011 60006 83500 92100=
07240,1998-03-02 03:00:00,6,1022.6,-0.8,93,5,10000,14.816,,,220,,,,,,,,,,,wg-a,,,,AAXX 02034 07240 12760 52208 10060 20050 30089 40226 58008 60006 85500 90300=
07240,1998-03-02 06:00:00,6,1023.1,0.5,93,5,10000,11.112,,,220,5.5,9.4,,,,,,,,,wg-a,,,,AAXX 02064 07240 02760 62206 10060 20050 30094 40231 52005 60006 86500 90600 333 10094 20055 60004=
07240,1998-03-02 09:00:00,8,1023.9,0.8,87,6,15000,14.816,,,230,,,,,,,,,,,wg-a,,,,AAXX 02094 07240 12665 72308 10080 20060 30102 40239 51008 60006 878// 90900=
07240,1998-03-02 15:00:00,12,1022.5,-1.1,62,5,500,18.52,,,230,,,,,,,,,,,wg-a,,,,AAXX 02154 07240 12600 72310 10120 20050 30091 40225 56011 60006 878// 91500=
07240,1998-03-02 18:00:00,11,1021.9,-0.7,71,6,25000,14.816,,,200,6.3,12.7,,,,,,,,,wg-a,,,,AAXX 02184 07240 12775 62008 10110 20060 30084 40219 56007 60006 825/2 91800 333 10127 20063=
07240,1998-03-02 21:00:00,8,1021.7,-0.3,81,5,15000,14.816,,,190,,,,,,,,,,,wg-a,,,,AAXX 02214 07240 12/65 61908 10080 20050 30081 40217 55003 60006 80002 92100=
07240,1998-03-03 00:00:00,8,1020.1,-1.6,81,5,10000,22.224,,,190,,,,,,,,,,,wg-a,,,,AAXX 03004 07240 12/60 71912 10080 20050 30065 40201 56016 60006 85032 90000=
07240,1998-03-03 06:00:00,10,1017.3,-0.6,62,3,15000,29.632,,,210,7.6,10.5,,,,,,,,,wg-a,,,,AAXX 03064 07240 02665 72116 10100 20030 30038 40173 56006 60006 83532 90600 333 10105 20076 60004=
07240,1998-03-03 09:00:00,10,1016.8,-0.4,66,4,15000,29.632,,42.596,200,,,,,,,,,,1,wg-a,,,,AAXX 03094 07240 02/65 72016 10100 20040 30034 40168 58004 61000 70162 8707/ 90900 333 //// 91023=
07240,1998-03-03 12:00:00,15,1016,-0.6,55,6,15000,29.632,,,210,,,,,,,,,,1,wg-a,,,,AAXX 03124 07240 02765 72116 10150 20060 30028 40160 58006 61000 70162 8357/ 91200 333 ////=
07240,1998-03-03 15:00:00,17,1015,-0.9,48,6,15000,31.484,,51.856,230,,,,,,,,,,,wg-a,,,,AAXX 03154 07240 12665 72317 10170 20060 30019 40150 56009 60006 84532 91500 333 91028=
07240,1998-03-03 18:00:00,16,1015.2,0.1,48,5,15000,25.928,,,220,9.4,17.8,,,,,,,,,wg-a,,,,AAXX 03184 07240 12665 62214 10160 20050 30020 40152 53001 60006 83532 91800 333 10178 20094=
07240,1998-03-03 21:00:00,15,1014.4,-0.8,55,6,15000,25.928,,,200,,,,,,,,,,,wg-a,,,,AAXX 03214 07240 12/65 72014 10150 20060 30012 40144 58008 60006 85012 92100=
07240,1998-03-04 00:00:00,15,1012.3,-2.1,48,4,15000,29.632,,,200,,,,,,,,,,,wg-a,,,,AAXX 04004 07240 12/65 32016 10150 20040 39991 40123 56021 60006 80002 90000=
07240,1998-03-04 03:00:00,15,1009.9,-2.3,41,2,15000,29.632,,,200,,,,,,,,,,,wg-a,,,,AAXX 04034 07240 12/65 82016 10150 20020 39968 40099 58023 60006 8701/ 90300=
07240,1998-03-04 06:00:00,14,1009.6,-0.4,55,5,0,31.484,,,230,13.9,16,,,,,,,,,wg-a,,,,AAXX 04064 07240 02/// /2317 10140 20050 39964 40096 55004 61000 90600 333 10160 20139 6100=
07240,1998-03-04 09:00:00,16,1008.3,-1.2,51,6,15000,35.188,,,210,,,,,,,,,,3,wg-a,,,,AAXX 04094 07240 02665 /2119 10160 20060 39952 40083 58012 61000 70362 81272 90900 333 ////=
07240,1998-03-04 12:00:00,18,1007.4,-0.7,59,10,20000,50.004,,68.524,240,,,,,,,,,,3,wg-a,,,,AAXX 04124 07240 02670 72427 10180 20100 39945 40074 56007 61000 70362 83254 91200 333 //// 91037=
07240,1998-03-04 15:00:00,15,1007.7,0.1,82,12,20000,35.188,,55.56,230,,,,1,,,,,,21,wg-a,,,,AAXX 04154 07240 12470 72319 10150 20120 39946 40077 53001 60017 72186 875// 91500 333 91030=
07240,1998-03-04 18:00:00,13,1008.6,0.8,88,11,8000,31.484,,,240,12.9,18.3,,,,,,,,60,wg-a,,,,AAXX 04184 07240 02458 72417 10130 20110 39954 40086 53008 61000 76086 878// 91800 333 10183 20129 6001=
07240,1998-03-04 21:00:00,10,1012.9,4.1,87,8,10000,18.52,,,260,,,,1,,,,,,1,wg-a,,,,AAXX 04214 07240 12460 82610 10100 20080 39995 40129 51041 60017 70162 878// 92100=
07240,1998-03-05 00:00:00,8,1016.1,3,76,4,20000,29.632,,,260,,,,,,,,,,1,wg-a,,,,AAXX 05004 07240 12770 42616 10080 20040 30025 40161 51030 60016 70161 815/1 90000=
07240,1998-03-05 03:00:00,7,1019,2.9,81,4,20000,29.632,,,260,,,,,,,,,,,wg-a,,,,AAXX 05034 07240 12670 22616 10070 20040 30054 40190 52029 60006 81501 90300=
07240,1998-03-05 06:00:00,6,1022.4,3.3,75,2,20000,25.928,,,270,6,12.8,,,,,3,,,,wg-a,,,,AAXX 05064 07240 02/70 02714 10060 20020 30087 40224 52033 60006 80000 90600 333 10128 20060 60034=
07240,1998-03-05 09:00:00,8,1026.2,3.8,71,3,20000,22.224,,,290,,,,,,,,,,,wg-a,,,,AAXX 05094 07240 12/70 02912 10080 20030 30125 40262 51038 60006 80000 90900=
07240,1998-03-05 12:00:00,11,1027.8,1.7,43,-1,20000,14.816,,,300,,,,,,,,,,,wg-a,,,,AAXX 05124 07240 12670 33008 10110 21010 30142 40278 53017 60006 81501 91200=
07240,1998-03-05 15:00:00,13,1026.8,-0.9,47,2,500,11.112,,,260,,,,,,,,,,,wg-a,,,,AAXX 05154 07240 12600 22606 10130 20020 30133 40268 57009 60006 81101 91500=
07240,1998-03-05 18:00:00,10,1026.9,-0,53,1,10000,11.112,,,230,5.8,12.8,,,,,,,,,wg-a,,,,AAXX 05184 07240 12/60 /2306 10100 20010 30133 40269 55000 60006 91800 333 10128 20058=
07240,1998-03-05 21:00:00,9,1027.5,0.6,57,1,15000,14.816,,,230,,,,,,,,,,,wg-a,,,,AAXX 05214 07240 12/65 72308 10090 20010 30139 40275 51006 60006 85032 92100=
07240,1998-03-06 00:00:00,8,1027.1,-0.5,61,1,10000,11.112,,,220,,,,,,,,,,,wg-a,,,,AAXX 06004 07240 12/60 72206 10080 20010 30134 40271 58005 60006 85032 90000=
07240,1998-03-06 03:00:00,8,1026,-1.1,66,2,10000,14.816,,,230,,,,,,,,,,,wg-a,,,,AAXX 06034 07240 12/60 62308 10080 20020 30123 40260 58011 60006 85032 90300=
07240,1998-03-06 06:00:00,6,1025.3,-0.8,87,4,10000,14.816,,,220,6.2,10.2,,,,,,,,,wg-a,,,,AAXX 06064 07240 02/60 32208 10060 20040 30115 40253 55008 60006 80002 90600 333 10102 20062 60004=
07240,1998-03-06 09:00:00,10,1025.2,0.1,76,6,11000,18.52,,,230,,,,,,,,,,,wg-a,,,,AAXX 06094 07240 12/61 /2310 10100 20060 30116 40252 53001 60006 90900=
07240,1998-03-06 12:00:00,13,1023.9,-1.1,67,7,20000,31.484,,,240,,,,,,,,,,,wg-a,,,,AAXX 06124 07240 12570 72417 10130 20070 30105 40239 58011 60006 82132 91200=
07240,1998-03-06 15:00:00,15,1022.2,-1.6,59,7,500,31.484,,,240,,,,,,,,,,,wg-a,,,,AAXX 06154 07240 12500 /2417 10150 20070 30089 40222 56016 60006 82132 91500=
07240,1998-03-06 18:00:00,12,1022,-0.3,71,7,10000,22.224,,,230,6.1,14.8,,,,,,,,,wg-a,,,,AAXX 06184 07240 12/60 /2312 10120 20070 30086 40220 56003 60006 91800 333 10148 20061=
07240,1998-03-06 21:00:00,9,1021.2,-0.9,87,7,20000,18.52,,,220,,,,,,,,,,,wg-a,,,,AAXX 06214 07240 12/70 62210 10090 20070 30077 40212 58009 60006 81032 92100=
07240,1998-03-07 00:00:00,9,1020.5,-0.7,87,7,15000,22.224,,,240,,,,,,,,,,,wg-a,,,,AAXX 07004 07240 12565 72412 10090 20070 30070 40205 58007 60006 875// 90000=
07240,1998-03-07 03:00:00,10,1018.7,-1.8,82,7,15000,14.816,,,200,,,,,,,,,,,wg-a,,,,AAXX 07034 07240 12465 72008 10100 20070 30052 40187 58018 60006 875// 90300=
07240,1998-03-07 06:00:00,10,1017.7,-0.9,87,8,15000,29.632,,,230,8.5,12.4,,,,,,,,,wg-a,,,,AAXX 07064 07240 02565 82316 10100 20080 30043 40177 56009 60006 875// 90600 333 10124 20085 60004=
07240,1998-03-07 12:00:00,14,1016.7,-0.6,82,11,20000,35.188,,,260,,,,3,,,,,,21,wg-a,,,,AAXX 07124 07240 02570 72619 10140 20110 30034 40167 58006 60036 72165 878// 91200 333 60037=
07240,1998-03-07 15:00:00,14,1015.2,-1.5,55,5,500,50.004,,66.672,270,,,,0,,,,,,3,wg-a,,,,AAXX 07154 07240 12600 42727 10140 20050 30019 40152 56015 60007 70386 83801 91500 333 91036=
07240,1998-03-07 18:00:00,12,1015.7,0.4,71,7,20000,38.892,,,260,10,14.8,,,,,,,,1,wg-a,,,,AAXX 07184 07240 12670 72621 10120 20070 30023 40157 53004 60006 70186 82802 91800 333 10148 20100=
07240,1998-03-07 21:00:00,10,1016.2,0.5,87,8,10000,29.632,,,260,,,,2,,,,,,80,wg-a,,,,AAXX 07214 07240 12560 72616 10100 20080 30028 40162 50005 60027 78086 878// 92100=
07240,1998-03-08 00:00:00,9,1015.8,-0.5,93,8,10000,18.52,,,250,,,,0,,,,,,3,wg-a,,,,AAXX 08004 07240 02460 72510 10090 20080 30023 40158 58005 60026 70386 875// 90000 333 60007=
07240,1998-03-08 03:00:00,10,1015,-0.7,82,7,10000,25.928,,,270,,,,,,,,,,,wg-a,,,,AAXX 08034 07240 12560 /2714 10100 20070 30016 40150 58007 60006 86500 90300=
07240,1998-03-08 06:00:00,9,1013.9,-1.2,87,7,10000,18.52,,,250,9,11.7,,,,,5,,,,wg-a,,,,AAXX 08064 07240 02460 72510 10090 20070 30004 40139 56012 60006 825// 90600 333 10117 20090 60054=
07240,1998-03-08 09:00:00,8,1012.2,-1.7,93,7,10000,14.816,,,240,,,,3,,,,,,60,wg-a,,,,AAXX 08094 07240 12460 72408 10080 20070 39987 40122 58017 60037 76062 825// 90900=
07240,1998-03-08 12:00:00,9,1010.3,-1.8,93,8,8000,7.408,,,300,,,,5,,,,,,61,wg-a,,,,AAXX 08124 07240 02358 73004 10090 20080 39969 40103 56018 60096 76162 845// 91200 333 60057=
07240,1998-03-08 15:00:00,10,1010.1,-0.2,82,7,20000,18.52,,,330,,,,2,,,,,,1,wg-a,,,,AAXX 08154 07240 12470 73310 10100 20070 39967 40101 55002 60027 70162 848// 91500=
07240,1998-03-08 18:00:00,9,1012,1.9,87,7,25000,14.816,,,300,7.9,9.9,,,,,,,,1,wg-a,,,,AAXX 08184 07240 12575 63008 10090 20070 39986 40120 53019 60006 70162 82830 91800 333 10099 20079=
07240,1998-03-08 21:00:00,8,1014.7,2.6,87,6,15000,14.816,,,300,,,,,,,,,,,wg-a,,,,AAXX 08214 07240 12765 73008 10080 20060 30012 40147 53026 60006 875// 92100=
07240,1998-03-09 03:00:00,6,1018.7,1.9,87,4,12000,14.816,,,30,,,,,,,,,,,wg-a,,,,AAXX 09034 07240 12662 80308 10060 20040 30050 40187 52019 60006 875// 90300=
07240,1998-03-09 06:00:00,4,1021,2.2,87,2,10000,11.112,,,40,4.4,8.7,,,,,11,,,,wg-a,,,,AAXX 09064 07240 02760 80406 10040 20020 30072 40210 53022 60006 8653/ 90600 333 10087 20044 60114=
07240,1998-03-09 09:00:00,3,1024.4,3.3,75,-1,15000,22.224,,,60,,,,,,,,,,,wg-a,,,,AAXX 09094 07240 12465 20612 10030 21010 30105 40244 51033 60006 8113/ 90900=
07240,1998-03-09 12:00:00,6,1026.7,2.4,61,-1,15000,25.928,,,60,,,,,,,,,,,wg-a,,,,AAXX 09124 07240 12565 /0614 10060 21010 30129 40267 51024 60006 811// 91200=
07240,1998-03-09 18:00:00,5,1030,2.3,41,-7,500,14.816,,,50,2.5,7.9,,,,,,,,,wg-a,,,,AAXX 09184 07240 12/00 10508 10050 21070 30161 40300 53023 60006 80001 91800 333 10079 20025=
07240,1998-03-09 21:00:00,0,1032.4,2.1,74,-4,15000,11.112,,,70,,,,,,,,,,,wg-a,,,,AAXX 09214 07240 12/65 00706 10000 21040 30182 40324 53021 60006 80000 92100=
07240,1998-03-10 00:00:00,-1,1032.9,0.5,74,-5,10000,7.408,,,100,,,,,,,,,,,wg-a,,,,AAXX 10004 07240 12/60 21004 11010 21050 30187 40329 51005 60006 80001 90000=
07240,1998-03-10 03:00:00,-2,1033.3,0.3,86,-4,10000,3.704,,,80,,,,,,,,,,,wg-a,,,,AAXX 10034 07240 12/60 20802 11020 21040 30190 40333 50003 60006 80001 90300=
07240,1998-03-10 06:00:00,-3,1033.1,-0.2,86,-5,15000,7.408,,,90,-2.6,4.8,,,,,,,,,wg-a,,,,AAXX 10064 07240 02/65 20904 11030 21050 30188 40331 57002 60006 80001 90600 333 10048 21026 60004=
07240,1998-03-10 09:00:00,3,1032.6,-0.2,70,-2,12000,14.816,,,150,,,,,,,,,,,wg-a,,,,AAXX 10094 07240 12/62 41508 10030 21020 30186 40326 56002 60006 80001 90900=
07240,1998-03-10 12:00:00,8,1031,-1.4,34,-7,15000,18.52,,,170,,,,,,,,,,,wg-a,,,,AAXX 10124 07240 12/65 71710 10080 21070 30172 40310 58014 60006 80002 91200=
07240,1998-03-10 15:00:00,10,1026.8,-4,34,-5,20000,14.816,,,180,,,,,,,,,,,wg-a,,,,AAXX 10154 07240 12/70 71808 10100 21050 30132 40268 56040 60006 82032 91500=
07240,1998-03-10 18:00:00,9,1024,-2.8,43,-3,25000,11.112,,,180,-2.7,10.4,,,,,,,,,wg-a,,,,AAXX 10184 07240 12/75 81806 10090 21030 30104 40240 56028 60006 8707/ 91800 333 10104 21027=
07240,1998-03-10 21:00:00,8,1020.9,-3.1,42,-4,25000,22.224,,,210,,,,,,,,,,,wg-a,,,,AAXX 10214 07240 12/75 82112 10080 21040 30073 40209 58031 60006 8707/ 92100=
07240,1998-03-11 00:00:00,5,1016.4,-4.6,87,3,7000,25.928,,,170,,,,2,,,,,,61,wg-a,,,,AAXX 11004 07240 02357 81714 10050 20030 30027 40164 58046 60026 76162 875// 90000 333 60027=
07240,1998-03-11 03:00:00,5,1012.2,-4.2,93,4,500,14.816,,,180,,,,2,,,,,,21,wg-a,,,,AAXX 11034 07240 12200 81808 10050 20040 39985 40122 58042 60027 72162 877// 90300=
07240,1998-03-11 06:00:00,7,1010.1,-1.9,93,6,500,11.112,,,250,4.3,9,,,,,4,,,2,wg-a,,,,AAXX 11064 07240 02200 82506 10070 20060 39966 40101 56019 60006 70262 877// 90600 333 10090 20043 60044=
07240,1998-03-11 09:00:00,9,1011,1,87,7,12000,22.224,,,310,,,,0,,,,,,21,wg-a,,,,AAXX 11094 07240 12362 73112 10090 20070 39976 40110 53010 60007 72165 872// 90900=
07240,1998-03-11 12:00:00,8,1013,1.9,87,6,15000,35.188,,50.004,340,,,,2,,,,,,25,wg-a,,,,AAXX 11124 07240 02265 73419 10080 20060 39995 40130 53019 60026 72586 878// 91200 333 60027 91027=
07240,1998-03-11 15:00:00,8,1014.3,1.3,81,5,20000,31.484,,,330,,,,,,,,,,,wg-a,,,,AAXX 11154 07240 12570 73317 10080 20050 30008 40143 53013 60006 878// 91500=
07240,1998-03-11 18:00:00,7,1017.4,3,87,5,12000,25.928,,,340,6.5,10,,,,,,,,21,wg-a,,,,AAXX 11184 07240 02462 83414 10070 20050 30038 40174 53030 61000 72162 878// 91800 333 10100 20065 6100=
07240,1998-03-11 21:00:00,6,1020.5,3,75,2,15000,22.224,,,350,,,,,,,,,,,wg-a,,,,AAXX 11214 07240 12765 73512 10060 20020 30068 40205 51030 60006 875// 92100=
07240,1998-03-12 00:00:00,5,1022,1.4,75,1,15000,18.52,,,350,,,,,,,,,,,wg-a,,,,AAXX 12004 07240 12765 33510 10050 20010 30082 40220 53014 60006 835/0 90000=
07240,1998-03-12 03:00:00,2,1023,0.9,80,-1,15000,14.816,,,330,,,,,,,,,,,wg-a,,,,AAXX 12034 07240 12/65 03308 10020 21010 30091 40230 51009 60006 80000 90300=
07240,1998-03-12 06:00:00,2,1024.5,1.4,87,0,15000,18.52,,,330,1.8,7.4,,,,,2,,,,wg-a,,,,AAXX 12064 07240 02765 53310 10020 20000 30105 40245 53014 60006 83530 90600 333 10074 20018 60024=
07240,1998-03-12 09:00:00,6,1026.2,1.9,75,2,20000,22.224,,,10,,,,,,,,,,,wg-a,,,,AAXX 12094 07240 12470 30112 10060 20020 30124 40262 51019 60006 83200 90900=
07240,1998-03-12 12:00:00,7,1027.1,1,61,0,500,22.224,,,10,,,,,,,,,,,wg-a,,,,AAXX 12124 07240 12600 30112 10070 20000 30134 40271 51010 60006 83200 91200=
07240,1998-03-12 15:00:00,8,1026.5,-0.6,49,-2,500,18.52,,,360,,,,,,,,,,,wg-a,,,,AAXX 12154 07240 12600 73610 10080 21020 30128 40265 56006 60006 84802 91500=
07240,1998-03-12 18:00:00,6,1028,1.4,56,-2,500,11.112,,,340,1.6,8.3,,,,,,,,,wg-a,,,,AAXX 12184 07240 12700 73406 10060 21020 30142 40280 53014 60006 8157/ 91800 333 10083 20016=
07240,1998-03-12 21:00:00,3,1029.5,1.3,81,0,10000,7.408,,,350,,,,,,,,,,,wg-a,,,,AAXX 12214 07240 12/60 /3504 10030 20000 30155 40295 53013 60006 92100=
07240,1998-03-13 00:00:00,1,1030.2,0.6,80,-2,20000,7.408,,,340,,,,,,,,,,,wg-a,,,,AAXX 13004 07240 12/70 03404 10010 21020 30161 40302 51006 60006 80000 90000=
07240,1998-03-13 03:00:00,-1,1029.9,-0.4,93,-2,10000,3.704,,,310,,,,,,,,,,,wg-a,,,,AAXX 13034 07240 12/60 63102 11010 21020 30157 40299 58004 60006 80001 90300=
07240,1998-03-13 06:00:00,-2,1030.2,0.3,93,-3,15000,3.704,,,340,-1.8,5.9,,,,,,,,,wg-a,,,,AAXX 13064 07240 02765 73402 11020 21030 30160 40302 53003 60006 815/2 90600 333 10059 21018 60004=
07240,1998-03-13 09:00:00,5,1030.2,0.3,70,0,15000,11.112,,,200,,,,,,,,,,,wg-a,,,,AAXX 13094 07240 12665 62006 10050 20000 30163 40302 50003 60006 86500 90900=
07240,1998-03-13 12:00:00,7,1030.4,0.3,61,0,15000,11.112,,,260,,,,,,,,,,,wg-a,,,,AAXX 13124 07240 12665 /2606 10070 20000 30166 40304 50003 60006 86500 91200=
07240,1998-03-13 15:00:00,8,1028.7,-1.6,61,1,15000,7.408,,,310,,,,,,,,,,,wg-a,,,,AAXX 13154 07240 12665 73104 10080 20010 30150 40287 56016 60006 875// 91500=
07240,1998-03-13 18:00:00,8,1028.8,0.1,76,4,15000,3.704,,,290,-2,8.4,,,,,,,,,wg-a,,,,AAXX 13184 07240 12565 82902 10080 20040 30151 40288 53001 60006 885// 91800 333 10084 21020=
07240,1998-03-13 21:00:00,6,1029.9,1,93,5,8000,3.704,,,330,,,,0,,,,,,21,wg-a,,,,AAXX 13214 07240 12458 83302 10060 20050 30161 40299 51010 60007 72165 887// 92100=
07240,1998-03-14 00:00:00,6,1030.3,0.4,93,5,8000,7.408,,,340,,,,,,,,,,1,wg-a,,,,AAXX 14004 07240 12658 83404 10060 20050 30165 40303 52004 60006 70165 885// 90000=
07240,1998-03-14 03:00:00,5,1030,-0.4,100,5,6000,3.704,,,290,,,,0,,,,,,60,wg-a,,,,AAXX 14034 07240 12656 82902 10050 20050 30161 40300 58004 60007 76062 885// 90300=
07240,1998-03-14 06:00:00,6,1030.7,0.7,93,5,2500,7.408,,,320,5.4,7.5,,,,,,,,10,wg-a,,,,AAXX 14064 07240 02525 83204 10060 20050 30168 40307 53007 60006 71062 875// 90600 333 10075 20054 60004=
07240,1998-03-14 09:00:00,7,1031.7,1.1,93,6,2500,7.408,,,340,,,,,,,,,,10,wg-a,,,,AAXX 14094 07240 12425 83404 10070 20060 30179 40317 51011 60006 71022 875// 90900=
07240,1998-03-14 12:00:00,10,1032.2,0.7,82,7,10000,11.112,,,30,,,,,,,,,,,wg-a,,,,AAXX 14124 07240 12460 70306 10100 20070 30186 40322 51007 60006 878// 91200=
07240,1998-03-14 15:00:00,11,1031.7,-0.5,71,6,10000,11.112,,,10,,,,,,,,,,,wg-a,,,,AAXX 14154 07240 12560 70106 10110 20060 30181 40317 56005 60006 878// 91500=
07240,1998-03-14 18:00:00,10,1032.2,0.5,76,6,10000,11.112,,,10,5.4,11.4,,,,,,,,,wg-a,,,,AAXX 14184 07240 12560 70106 10100 20060 30186 40322 53005 60006 878// 91800 333 10114 20054=
07240,1998-03-14 21:00:00,9,1033.1,0.8,81,6,10000,7.408,,,20,,,,,,,,,,,wg-a,,,,AAXX 14214 07240 12660 70204 10090 20060 30194 40331 51008 60006 875// 92100=
07240,1998-03-15 00:00:00,9,1033.7,0.6,81,6,8000,7.408,,,20,,,,,,,,,,,wg-a,,,,AAXX 15004 07240 12/58 /0204 10090 20060 30200 40337 51006 60006 90000=
07240,1998-03-15 03:00:00,8,1033.3,-0.5,87,6,6000,7.408,,,350,,,,,,,,,,,wg-a,,,,AAXX 15034 07240 12656 73504 10080 20060 30195 40333 56005 60006 875// 90300=
07240,1998-03-15 06:00:00,4,1033.6,0.1,93,3,2500,3.704,,,330,4.3,10.4,,,,,,,,10,wg-a,,,,AAXX 15064 07240 02725 23302 10040 20030 30196 40336 53001 60006 71011 82500 90600 333 10104 20043 60004=
07240,1998-03-15 09:00:00,8,1034.7,1.3,81,5,8000,7.408,,,30,,,,,,,,,,,wg-a,,,,AAXX 15094 07240 12/58 00304 10080 20050 30209 40347 53013 60006 80000 90900=
07240,1998-03-15 12:00:00,10,1034,-0.6,71,5,10000,14.816,,,30,,,,,,,,,,,wg-a,,,,AAXX 15124 07240 12560 70308 10100 20050 30203 40340 56006 60006 875// 91200=
07240,1998-03-15 15:00:00,10,1033.3,-0.7,76,6,10000,18.52,,,340,,,,,,,,,,,wg-a,,,,AAXX 15154 07240 12560 73410 10100 20060 30196 40333 56007 60006 875// 91500=
07240,1998-03-15 18:00:00,9,1033.2,-0.1,76,5,8000,11.112,,,10,3.8,10.7,,,,,,,,,wg-a,,,,AAXX 15184 07240 12558 80106 10090 20050 30195 40332 55001 60006 885// 91800 333 10107 20038=
07240,1998-03-15 21:00:00,8,1033.5,0.2,81,5,7000,14.816,,,20,,,,,,,,,,,wg-a,,,,AAXX 15214 07240 12557 80208 10080 20050 30197 40335 53002 60006 885// 92100=
07240,1998-03-16 00:00:00,8,1033.2,-0.3,81,5,7000,7.408,,,10,,,,,,,,,,,wg-a,,,,AAXX 16004 07240 12557 80104 10080 20050 30194 40332 58003 60006 885// 90000=
07240,1998-03-16 06:00:00,7,1032.8,0.3,87,5,500,7.408,,,360,7.4,8.9,,,,,,,,,wg-a,,,,AAXX 16064 07240 02500 83604 10070 20050 30190 40328 53003 60006 875// 90600 333 10089 20074 60004=
07240,1998-03-16 09:00:00,8,1033.3,0.5,81,5,6000,11.112,,,40,,,,,,,,,,,wg-a,,,,AAXX 16094 07240 12556 80406 10080 20050 30195 40333 51005 60006 875// 90900=
07240,1998-03-16 12:00:00,9,1032.9,-0.3,76,5,7000,7.408,,,60,,,,,,,,,,,wg-a,,,,AAXX 16124 07240 12557 80604 10090 20050 30192 40329 58003 60006 875// 91200=
07240,1998-03-16 15:00:00,10,1032.1,-0.8,71,5,7000,7.408,,,40,,,,,,,,,,,wg-a,,,,AAXX 16154 07240 12557 80404 10100 20050 30184 40321 58008 60006 875// 91500=
07240,1998-03-16 18:00:00,9,1032.1,-0,71,4,7000,7.408,,,20,7.3,9.7,,,,,,,,,wg-a,,,,AAXX 16184 07240 12557 80204 10090 20040 30184 40321 55000 60006 885// 91800 333 10097 20073=
07240,1998-03-17 00:00:00,8,1032.3,-0.4,76,4,7000,7.408,,,40,,,,,,,,,,,wg-a,,,,AAXX 17004 07240 12557 80404 10080 20040 30185 40323 58004 60006 885// 90000=
07240,1998-03-17 03:00:00,7,1032.1,-0.2,81,4,6000,0,,,0,,,,,,,,,,,wg-a,,,,AAXX 17034 07240 12556 70000 10070 20040 30183 40321 55002 60006 875// 90300=
07240,1998-03-17 06:00:00,7,1032.6,0.5,81,4,6000,3.704,,,360,7,8.8,,,,,,,,,wg-a,,,,AAXX 17064 07240 02556 83602 10070 20040 30188 40326 53005 60006 885// 90600 333 10088 20070 60004=
07240,1998-03-17 09:00:00,9,1033.6,1,71,4,7000,11.112,,,50,,,,,,,,,,,wg-a,,,,AAXX 17094 07240 12557 70506 10090 20040 30198 40336 53010 60006 875// 90900=
07240,1998-03-17 12:00:00,10,1033.3,-0.2,71,5,10000,14.816,,,10,,,,,,,,,,,wg-a,,,,AAXX 17124 07240 12560 /0108 10100 20050 30196 40333 58002 60006 86500 91200=
07240,1998-03-17 15:00:00,12,1032.4,-0.8,62,5,12000,11.112,,,40,,,,,,,,,,,wg-a,,,,AAXX 17154 07240 12/62 /0406 10120 20050 30188 40324 56008 60006 80000 91500=
07240,1998-03-17 18:00:00,10,1032.9,0.4,71,5,10000,11.112,,,20,7,11.9,,,,,,,,,wg-a,,,,AAXX 17184 07240 12560 30206 10100 20050 30192 40329 53004 60006 83500 91800 333 10119 20070=
07240,1998-03-17 21:00:00,9,1033.8,0.9,76,5,10000,11.112,,,60,,,,,,,,,,,wg-a,,,,AAXX 17214 07240 12560 70606 10090 20050 30201 40338 53009 60006 87500 92100=
07240,1998-03-18 00:00:00,9,1034.6,0.7,71,4,10000,14.816,,,50,,,,,,,,,,,wg-a,,,,AAXX 18004 07240 12560 70508 10090 20040 30208 40346 51007 60006 87500 90000=
07240,1998-03-18 03:00:00,8,1034.1,-0.5,76,4,10000,11.112,,,30,,,,,,,,,,,wg-a,,,,AAXX 18034 07240 12560 70306 10080 20040 30203 40341 58005 60006 87500 90300=
07240,1998-03-18 06:00:00,8,1034.8,0.7,76,4,8000,7.408,,,30,7.8,9.6,,,,,,,,,wg-a,,,,AAXX 18064 07240 02558 80304 10080 20040 30210 40348 53007 60006 88500 90600 333 10096 20078 60004=
07240,1998-03-18 09:00:00,9,1036.2,1.4,76,5,8000,14.816,,,60,,,,,,,,,,,wg-a,,,,AAXX 18094 07240 12558 80608 10090 20050 30224 40362 51014 60006 88500 90900=
07240,1998-03-18 12:00:00,10,1036.5,0.4,71,5,10000,22.224,,,70,,,,,,,,,,,wg-a,,,,AAXX 18124 07240 12560 80712 10100 20050 30228 40365 50004 60006 875// 91200=
07240,1998-03-18 15:00:00,11,1036.2,-0.3,66,5,10000,22.224,,,50,,,,,,,,,,,wg-a,,,,AAXX 18154 07240 12560 70512 10110 20050 30225 40362 56003 60006 875// 91500=
07240,1998-03-18 18:00:00,9,1036.5,0.2,76,5,10000,11.112,,,60,7.7,10.9,,,,,,,,,wg-a,,,,AAXX 18184 07240 12/60 00606 10090 20050 30227 40365 53002 60006 80000 91800 333 10109 20077=
07240,1998-03-18 21:00:00,5,1037.4,0.7,87,3,7000,7.408,,,40,,,,,,,,,,,wg-a,,,,AAXX 18214 07240 12/57 30404 10050 20030 30234 40374 51007 60006 80001 92100=
07240,1998-03-19 00:00:00,4,1038.2,0.8,93,3,75000,11.112,,,50,,,,,,,,,,,wg-a,,,,AAXX 19004 07240 12/89 00506 10040 20030 30242 40382 50008 60006 80000 90000=
07240,1998-03-19 03:00:00,4,1038.3,-0,87,2,6000,7.408,,,50,,,,,,,,,,,wg-a,,,,AAXX 19034 07240 32/56 00504 10040 20020 30242 40383 54000 80000 90300=
07240,1998-03-19 06:00:00,4,1038.9,0.7,93,3,7000,14.816,,,40,2.4,8.5,,,,,,,,,wg-a,,,,AAXX 19064 07240 02/57 /0408 10040 20030 30249 40389 53007 60006 80001 90600 333 10085 20024 60004=
07240,1998-03-19 09:00:00,9,1040.1,1.4,81,6,7000,18.52,,,70,,,,,,,,,,,wg-a,,,,AAXX 19094 07240 12/57 10710 10090 20060 30263 40401 51014 60006 80001 90900=
07240,1998-03-19 12:00:00,13,1039.5,-0.4,58,5,15000,25.928,,,70,,,,,,,,,,,wg-a,,,,AAXX 19124 07240 12665 30714 10130 20050 30259 40395 58004 60006 83100 91200=
07240,1998-03-19 15:00:00,13,1038.2,-1.3,51,3,15000,22.224,,,50,,,,,,,,,,,wg-a,,,,AAXX 19154 07240 12765 50512 10130 20030 30246 40382 56013 60006 81101 91500=
07240,1998-03-19 18:00:00,10,1038.4,-0,62,3,15000,11.112,,,50,4.3,13.6,,,,,,,,,wg-a,,,,AAXX 19184 07240 12/65 30506 10100 20030 30246 40384 55000 60006 80001 91800 333 10136 20043=
07240,1998-03-19 21:00:00,6,1038.8,0.2,75,2,15000,11.112,,,60,,,,,,,,,,,wg-a,,,,AAXX 19214 07240 12/65 30606 10060 20020 30248 40388 51002 60006 80001 92100=
07240,1998-03-20 00:00:00,5,1038.8,0,75,1,15000,11.112,,,50,,,,,,,,,,,wg-a,,,,AAXX 20004 07240 12/65 00506 10050 20010 30248 40388 50000 60006 80000 90000=
07240,1998-03-20 03:00:00,3,1038.5,-0.4,81,0,15000,11.112,,,50,,,,,,,,,,,wg-a,,,,AAXX 20034 07240 12/65 00506 10030 20000 30244 40385 58004 60006 80000 90300=
07240,1998-03-20 06:00:00,2,1038.6,0.1,80,-1,12000,11.112,,,50,1.9,9.7,,,,,,,,,wg-a,,,,AAXX 20064 07240 02/62 00506 10020 21010 30245 40386 50001 60006 80000 90600 333 10097 20019 60004=
07240,1998-03-20 09:00:00,7,1038.6,0.2,70,2,12000,18.52,,,50,,,,,,,,,,,wg-a,,,,AAXX 20094 07240 12/62 00510 10070 20020 30247 40386 53002 60006 80000 90900=
07240,1998-03-20 12:00:00,11,1037.8,-0.6,47,0,15000,25.928,,,60,,,,,,,,,,,wg-a,,,,AAXX 20124 07240 12/65 00614 10110 20000 30241 40378 58006 60006 80000 91200=
07240,1998-03-20 15:00:00,12,1035.7,-2,47,1,20000,22.224,,,60,,,,,,,,,,,wg-a,,,,AAXX 20154 07240 12/70 00612 10120 20010 30221 40357 56020 60006 80000 91500=
07240,1998-03-20 18:00:00,10,1035,-0.8,57,2,20000,14.816,,,50,2.5,12.5,,,,,,,,,wg-a,,,,AAXX 20184 07240 12/70 00508 10100 20020 30213 40350 55008 60006 80000 91800 333 10125 20025=
07240,1998-03-20 21:00:00,8,1035.6,0.5,66,2,10000,11.112,,,30,,,,,,,,,,,wg-a,,,,AAXX 20214 07240 12/60 00306 10080 20020 30218 40356 51005 60006 80000 92100=
07240,1998-03-21 00:00:00,7,1035.1,-0.6,76,3,8000,14.816,,,30,,,,,,,,,,,wg-a,,,,AAXX 21004 07240 12/58 00308 10070 20030 30212 40351 58006 60006 80000 90000=
07240,1998-03-21 03:00:00,6,1033.9,-1.2,87,4,8000,11.112,,,40,,,,,,,,,,,wg-a,,,,AAXX 21034 07240 12658 /0406 10060 20040 30200 40339 58012 60006 85500 90300=
07240,1998-03-21 06:00:00,5,1033.6,-0.3,93,4,7000,11.112,,,30,5.1,10.3,,,,,,,,,wg-a,,,,AAXX 21064 07240 02657 70306 10050 20040 30197 40336 56003 60006 875// 90600 333 10103 20051 60004=
07240,1998-03-21 09:00:00,9,1033.5,0.1,81,6,12000,22.224,,,50,,,,,,,,,,,wg-a,,,,AAXX 21094 07240 12462 80512 10090 20060 30198 40335 52001 60006 885// 90900=
07240,1998-03-21 12:00:00,9,1032.9,-0.6,81,6,15000,22.224,,,40,,,,,,,,,,,wg-a,,,,AAXX 21124 07240 12465 80412 10090 20060 30192 40329 57006 60006 885// 91200=
07240,1998-03-21 15:00:00,10,1031.8,-1.1,71,5,20000,22.224,,,50,,,,,,,,,,,wg-a,,,,AAXX 21154 07240 12570 80512 10100 20050 30181 40318 56011 60006 885// 91500=
07240,1998-03-21 18:00:00,9,1031.3,-0.5,81,6,20000,18.52,,,30,5.5,10.1,,,,,,,,,wg-a,,,,AAXX 21184 07240 12670 80310 10090 20060 30176 40313 55005 60006 875// 91800 333 10101 20055=
07240,1998-03-21 21:00:00,7,1031.7,0.3,87,5,15000,14.816,,,30,,,,,,,,,,,wg-a,,,,AAXX 21214 07240 12765 20308 10070 20050 30179 40317 53003 60006 82500 92100=
07240,1998-03-22 00:00:00,6,1031.8,-0,87,4,10000,18.52,,,50,,,,,,,,,,,wg-a,,,,AAXX 22004 07240 12/60 00510 10060 20040 30179 40318 54000 60006 80000 90000=
07240,1998-03-22 03:00:00,4,1031.5,-0.4,87,2,6000,18.52,,,50,,,,,,,,,,,wg-a,,,,AAXX 22034 07240 12/56 00510 10040 20020 30175 40315 58004 60006 80000 90300=
07240,1998-03-22 06:00:00,2,1031.9,0.4,93,1,7000,14.816,,,50,2.3,9.4,,,,,,,,,wg-a,,,,AAXX 22064 07240 02/57 00508 10020 20010 30179 40319 53004 60006 80000 90600 333 10094 20023 60004=
07240,1998-03-22 12:00:00,10,1031.8,-0.6,53,1,10000,22.224,,,50,,,,,,,,,,,wg-a,,,,AAXX 22124 07240 12/60 /0512 10100 20010 30181 40318 58006 60006 91200=
07240,1998-03-22 15:00:00,12,1030.2,-1.5,40,-1,500,25.928,,,70,,,,,,,,,,,wg-a,,,,AAXX 22154 07240 12/00 00714 10120 21010 30166 40302 57015 60006 80000 91500=
07240,1998-03-22 18:00:00,10,1030.2,-0.1,46,-1,500,22.224,,,50,2.3,11.8,,,,,,,,,wg-a,,,,AAXX 22184 07240 12/00 00512 10100 21010 30165 40302 55001 60006 80000 91800 333 10118 20023=
07240,1998-03-22 21:00:00,6,1030.8,0.5,65,0,25000,14.816,,,50,,,,,,,,,,,wg-a,,,,AAXX 22214 07240 12/75 00508 10060 20000 30170 40308 53005 60006 80000 92100=
07240,1998-03-23 00:00:00,5,1030.9,0,81,2,15000,18.52,,,50,,,,,,,,,,,wg-a,,,,AAXX 23004 07240 12/65 00510 10050 20020 30170 40309 50000 60006 80000 90000=
07240,1998-03-23 03:00:00,3,1030.4,-0.6,93,2,7000,11.112,,,50,,,,,,,,,,,wg-a,,,,AAXX 23034 07240 12/57 00506 10030 20020 30164 40304 58006 60006 80000 90300=
07240,1998-03-23 06:00:00,3,1030.4,-0,93,2,8000,14.816,,,50,2.8,9.7,,,,,,,,,wg-a,,,,AAXX 23064 07240 02/58 /0508 10030 20020 30164 40304 55000 60006 80001 90600 333 10097 20028 60004=
07240,1998-03-23 09:00:00,7,1030.2,-0,81,4,10000,18.52,,,50,,,,,,,,,,,wg-a,,,,AAXX 23094 07240 12660 70510 10070 20040 30164 40302 54000 60006 875// 90900=
07240,1998-03-23 12:00:00,10,1029.2,-0.8,66,4,10000,22.224,,,20,,,,,,,,,,,wg-a,,,,AAXX 23124 07240 12560 70212 10100 20040 30156 40292 58008 60006 878// 91200=
07240,1998-03-23 15:00:00,9,1027.7,-1.5,66,3,15000,18.52,,,350,,,,,,,,,,,wg-a,,,,AAXX 23154 07240 12565 83510 10090 20030 30141 40277 56015 60006 888// 91500=
07240,1998-03-23 18:00:00,8,1027.5,-0.3,76,4,15000,18.52,,,340,2.8,10,,,,,,,,,wg-a,,,,AAXX 23184 07240 12665 83410 10080 20040 30138 40275 55003 60006 888// 91800 333 10100 20028=
07240,1998-03-23 21:00:00,7,1027.8,0.3,70,2,15000,14.816,,,350,,,,,,,,,,,wg-a,,,,AAXX 23214 07240 12665 73508 10070 20020 30141 40278 51003 60006 875// 92100=
07240,1998-03-24 00:00:00,5,1027.9,-0,81,2,15000,18.52,,,20,,,,,,,,,,,wg-a,,,,AAXX 24004 07240 12765 60210 10050 20020 30141 40279 55000 60006 86500 90000=
07240,1998-03-24 06:00:00,-1,1030.3,1.2,93,-2,10000,11.112,,,40,-0.5,8.4,,,,,,,,,wg-a,,,,AAXX 24064 07240 02/60 00406 11010 21020 30161 40303 53012 60006 80000 90600 333 10084 21005 60004=
07240,1998-03-24 09:00:00,3,1031.9,1.8,70,-2,12000,18.52,,,70,,,,,,,,,,,wg-a,,,,AAXX 24094 07240 12/62 50710 10030 21020 30179 40319 52018 60006 80004 90900=
07240,1998-03-24 12:00:00,7,1031.6,-0.1,45,-4,15000,11.112,,,40,,,,,,,,,,,wg-a,,,,AAXX 24124 07240 12/65 30406 10070 21040 30178 40316 58001 60006 80001 91200=
07240,1998-03-24 15:00:00,9,1031,-0.5,40,-4,15000,14.816,,,40,,,,,,,,,,,wg-a,,,,AAXX 24154 07240 12/65 40408 10090 21040 30173 40310 56005 60006 80001 91500=
07240,1998-03-24 18:00:00,7,1031.6,0.5,49,-3,15000,0,,,0,-0.5,9.1,,,,,,,,,wg-a,,,,AAXX 24184 07240 12/65 30000 10070 21030 30178 40316 53005 60006 80001 91800 333 10091 21005=
07240,1998-03-24 21:00:00,3,1032.3,0.5,65,-3,15000,0,,,0,,,,,,,,,,,wg-a,,,,AAXX 24214 07240 12/65 40000 10030 21030 30183 40323 50005 60006 80001 92100=
07240,1998-03-25 00:00:00,0,1032.4,-0.1,80,-3,10000,0,,,0,,,,,,,,,,,wg-a,,,,AAXX 25004 07240 12/60 50000 10000 21030 30182 40324 58001 60006 80001 90000=
07240,1998-03-25 03:00:00,-2,1031.7,-0.7,86,-4,10000,0,,,0,,,,,,,,,,,wg-a,,,,AAXX 25034 07240 12/60 60000 11020 21040 30175 40317 56007 60006 80001 90300=
07240,1998-03-25 06:00:00,-1,1031.5,-0.2,86,-3,9000,0,,,0,-1.9,7,,,,,,,,,wg-a,,,,AAXX 25064 07240 02/59 /0000 11010 21030 30173 40315 55002 60006 83031 90600 333 10070 21019 60004=
07240,1998-03-25 09:00:00,6,1031.3,0.2,70,1,9000,0,,,0,,,,,,,,,,,wg-a,,,,AAXX 25094 07240 12/59 50000 10060 20010 30175 40313 50002 60006 82031 90900=
07240,1998-03-25 12:00:00,10,1029.6,-1.5,50,0,10000,0,,,0,,,,,,,,,,,wg-a,,,,AAXX 25124 07240 12/60 70000 10100 20000 30160 40296 58015 60006 80001 91200=
07240,1998-03-25 15:00:00,11,1027.4,-2.2,37,-3,12000,7.408,,,220,,,,,,,,,,,wg-a,,,,AAXX 25154 07240 12/62 82204 10110 21030 30138 40274 56022 60006 85011 91500=
07240,1998-03-25 18:00:00,10,1026.6,-0.8,46,-1,10000,3.704,,,30,-0.7,11.6,,,,,,,,,wg-a,,,,AAXX 25184 07240 12/60 /0302 10100 21010 30130 40266 56008 60006 91800 333 10116 21007=
07240,1998-03-25 21:00:00,7,1025.8,-0.9,70,2,10000,3.704,,,40,,,,,,,,,,,wg-a,,,,AAXX 25214 07240 12760 70402 10070 20020 30121 40258 56009 60006 8557/ 92100=
07240,1998-03-26 00:00:00,6,1024.6,-1.3,70,1,10000,0,,,0,,,,,,,,,,,wg-a,,,,AAXX 26004 07240 12/60 /0000 10060 20010 30108 40246 58013 60006 90000=
07240,1998-03-26 03:00:00,3,1023.6,-1.1,87,1,10000,7.408,,,70,,,,,,,,,,,wg-a,,,,AAXX 26034 07240 12/60 30704 10030 20010 30097 40236 56011 60006 83030 90300=
07240,1998-03-26 06:00:00,2,1023.3,-0.4,87,0,8000,3.704,,,130,1.2,9.8,,,,,,,,,wg-a,,,,AAXX 26064 07240 02/58 51302 10020 20000 30093 40233 57004 60006 82034 90600 333 10098 20012 60004=
07240,1998-03-26 09:00:00,10,1023.2,0.3,50,0,10000,7.408,,,220,,,,,,,,,,,wg-a,,,,AAXX 26094 07240 12/60 62204 10100 20000 30096 40232 51003 60006 85034 90900=
07240,1998-03-26 12:00:00,11,1021.9,-1.2,43,-1,10000,0,,,0,,,,,,,,,,,wg-a,,,,AAXX 26124 07240 12/60 /0000 10110 21010 30084 40219 58012 60006 91200=
07240,1998-03-26 15:00:00,13,1020.1,-1.7,41,0,15000,7.408,,,190,,,,,,,,,,,wg-a,,,,AAXX 26154 07240 12765 81904 10130 20000 30067 40201 58017 60006 8757/ 91500=
07240,1998-03-26 18:00:00,10,1020.6,0.4,82,7,12000,11.112,,,310,1.3,12.8,,,,,,,,60,wg-a,,,,AAXX 26184 07240 02762 83106 10100 20070 30071 40206 53004 61000 76062 8357/ 91800 333 10128 20013 6000=
07240,1998-03-26 21:00:00,8,1021.1,0.4,93,7,4000,3.704,,,280,,,,,,,,,,,wg-a,,,,AAXX 26214 07240 32/40 /2802 10080 20070 30075 40211 53004 92100=
07240,1998-03-27 00:00:00,9,1020.7,-0.4,87,7,6000,11.112,,,230,,,,0,,,,,,3,wg-a,,,,AAXX 27004 07240 02556 82306 10090 20070 30071 40207 56004 60016 70362 875// 90000 333 60007=
07240,1998-03-27 03:00:00,9,1020.1,-0.6,81,6,6000,11.112,,,230,,,,,,,,,,,wg-a,,,,AAXX 27034 07240 12556 82306 10090 20060 30065 40201 55006 60006 875// 90300=
07240,1998-03-27 06:00:00,9,1020.5,0.4,87,7,3000,14.816,,,240,8.2,10.2,,,,,1,,,10,wg-a,,,,AAXX 27064 07240 02430 82408 10090 20070 30069 40205 53004 60006 71022 877// 90600 333 10102 20082 60014=
07240,1998-03-27 09:00:00,10,1021.2,0.8,93,9,3000,7.408,,,230,,,,,,,,,,10,wg-a,,,,AAXX 27094 07240 12430 82304 10100 20090 30077 40212 53008 60006 71022 876// 90900=
07240,1998-03-27 12:00:00,12,1021.2,0.1,88,10,7000,7.408,,,250,,,,,,,,,,,wg-a,,,,AAXX 27124 07240 12357 82504 10120 20100 30078 40212 50001 60006 875// 91200=
07240,1998-03-27 15:00:00,14,1019.5,-1.6,72,9,12000,3.704,,,260,,,,,,,,,,,wg-a,,,,AAXX 27154 07240 12562 /2602 10140 20090 30062 40195 58016 60006 86500 91500=
07240,1998-03-27 18:00:00,12,1018.2,-1.4,82,9,20000,11.112,,,80,8.5,14.9,,,,,,,,,wg-a,,,,AAXX 27184 07240 12/70 30806 10120 20090 30048 40182 56014 60006 80001 91800 333 10149 20085=
07240,1998-03-27 21:00:00,9,1017.9,-0.4,93,8,12000,14.816,,,80,,,,,,,,,,,wg-a,,,,AAXX 27214 07240 12/62 10808 10090 20080 30044 40179 58004 60006 80001 92100=
07240,1998-03-28 00:00:00,7,1016.7,-1.3,93,6,12000,18.52,,,90,,,,,,,,,,,wg-a,,,,AAXX 28004 07240 12/62 30910 10070 20060 30031 40167 58013 60006 80001 90000=
07240,1998-03-28 06:00:00,7,1015,-0.5,93,6,7000,11.112,,,80,6.4,12.3,,,,,,,,,wg-a,,,,AAXX 28064 07240 02/57 70806 10070 20060 30014 40150 55005 60006 80001 90600 333 10123 20064 60004=
07240,1998-03-28 09:00:00,10,1015.1,0.3,87,8,7000,11.112,,,100,,,,0,,,,,,,wg-a,,,,AAXX 28094 07240 12/57 71006 10100 20080 30017 40151 51003 60007 85012 90900=
07240,1998-03-28 12:00:00,18,1013.4,-1.3,56,9,10000,11.112,,,140,,,,,,,,,,,wg-a,,,,AAXX 28124 07240 12/60 61406 10180 20090 30004 40134 58013 60006 85012 91200=
07240,1998-03-28 15:00:00,20,1011.6,-1.7,49,9,10000,14.816,,,150,,,,,,,,,,,wg-a,,,,AAXX 28154 07240 12/60 61508 10200 20090 39987 40116 56017 60006 86030 91500=
07240,1998-03-28 18:00:00,17,1011,-0.7,59,9,12000,11.112,,,120,6.5,20.4,,,,,,,,,wg-a,,,,AAXX 28184 07240 12/62 71206 10170 20090 39980 40110 56007 60006 8703/ 91800 333 10204 20065=
07240,1998-03-28 21:00:00,15,1010.8,-0.3,72,10,12000,7.408,,,130,,,,,,,,,,,wg-a,,,,AAXX 28214 07240 12/62 71304 10150 20100 39977 40108 57003 60006 8703/ 92100=
07240,1998-03-29 00:00:00,14,1010.8,-0.1,72,9,0,7.408,,,160,,,,,,,,,,,wg-a,,,,AAXX 29004 07240 12/// /1604 10140 20090 39976 40108 57001 60006 90000=
07240,1998-03-29 03:00:00,12,1009.5,-1.4,76,8,12000,11.112,,,160,,,,,,,,,,,wg-a,,,,AAXX 29034 07240 12/62 51606 10120 20080 39962 40095 57014 60006 80001 90300=
07240,1998-03-29 06:00:00,12,1008.8,-0.7,76,8,15000,11.112,,,130,11.5,17.1,,,,,,,,,wg-a,,,,AAXX 29064 07240 02/65 71306 10120 20080 39955 40088 55007 60006 86072 90600 333 10171 20115 60004=
07240,1998-03-29 09:00:00,15,1008.2,-0.4,67,9,15000,11.112,,,150,,,,,,,,,,,wg-a,,,,AAXX 29094 07240 12/65 71506 10150 20090 39951 40082 55004 60006 87072 90900=
07240,1998-03-29 12:00:00,19,1007,-1,56,10,15000,11.112,,,140,,,,,,,,,,,wg-a,,,,AAXX 29124 07240 12765 81406 10190 20100 39941 40070 56010 60006 875// 91200=
07240,1998-03-29 15:00:00,21,1005.7,-1.2,46,9,20000,14.816,,,180,,,,,,,,,,,wg-a,,,,AAXX 29154 07240 12/70 71808 10210 20090 39929 40057 56012 60006 82072 91500=
07240,1998-03-29 18:00:00,17,1006.9,1,59,9,20000,7.408,,,230,11.6,21.1,,,,,,,,,wg-a,,,,AAXX 29184 07240 12/70 72304 10170 20090 39939 40069 53010 60006 82072 91800 333 10211 20116=
07240,1998-03-29 21:00:00,15,1008.3,1.3,63,8,15000,11.112,,,220,,,,,,,,,,,wg-a,,,,AAXX 29214 07240 12/65 72206 10150 20080 39952 40083 51013 60006 82072 92100=
07240,1998-03-30 00:00:00,13,1009.9,1.5,77,9,15000,14.816,,,190,,,,,,,,,,,wg-a,,,,AAXX 30004 07240 12/65 51908 10130 20090 39967 40099 53015 60006 80001 90000=
07240,1998-03-30 12:00:00,13,1,,,,17000,7.408,,,270,,,,,,,,,,,wg-a,,,,AAXX 30124 07240 32467 82704 10130 2//// 91200=
07240,1998-03-30 15:00:00,14,1016.6,0.1,77,10,20000,11.112,,,260,,,,,,,,,,,wg-a,,,,AAXX 30154 07240 12570 82606 10140 20100 30034 40166 51001 60006 8657/ 91500=
07240,1998-03-30 18:00:00,13,1017.7,1,77,9,20000,3.704,,,210,11.1,14.2,,,,,,,,,wg-a,,,,AAXX 30184 07240 12670 72102 10130 20090 30044 40177 53010 60006 875// 91800 333 10142 20111=
07240,1998-03-30 21:00:00,12,1018.4,0.6,82,9,20000,0,,,0,,,,,,,,,,,wg-a,,,,AAXX 30214 07240 12670 70000 10120 20090 30050 40184 51006 60006 875// 92100=
07240,1998-03-31 00:00:00,10,1018.7,0.2,87,8,20000,3.704,,,360,,,,,,,,,,,wg-a,,,,AAXX 31004 07240 12770 73602 10100 20080 30052 40187 52002 60006 875// 90000=
07240,1998-03-31 03:00:00,10,1017.7,-1,93,9,20000,3.704,,,50,,,,,,,,,,,wg-a,,,,AAXX 31034 07240 12670 70502 10100 20090 30042 40177 58010 60006 875// 90300=
07240,1998-03-31 09:00:00,13,1015.7,-0.9,94,12,10000,18.52,,,90,,,,,,,,,,3,wg-a,,,,AAXX 31094 07240 12360 70910 10130 20120 30024 40157 58009 60006 70342 81186 90900=
07240,1998-03-31 12:00:00,15,1014.2,-1.4,63,8,12000,11.112,,,170,,,,,,,,,,3,wg-a,,,,AAXX 31124 07240 12762 81706 10150 20080 30010 40142 58014 60006 70342 81516 91200=
07240,1998-03-31 15:00:00,15,1012.8,-1.4,63,8,15000,14.816,,,120,,,,,,,,,,60,wg-a,,,,AAXX 31154 07240 02765 81208 10150 20080 39996 40128 58014 61000 76062 82516 91500 333 ////=
07240,1998-03-31 18:00:00,13,1012.4,-0.5,82,10,15000,11.112,,,70,8.7,16,,,,,,,,21,wg-a,,,,AAXX 31184 07240 02765 80706 10130 20100 39991 40124 55005 61000 72162 82516 91800 333 10160 20087 6100=
07240,1998-03-31 21:00:00,13,1012.4,-0,67,7,15000,11.112,,,110,,,,0,,,,,,60,wg-a,,,,AAXX 31214 07240 12465 81106 10130 20070 39991 40124 55000 60007 76062 8457/ 92100=
07240,1998-04-01 00:00:00,13,1012.3,-0,72,8,15000,14.816,,,200,,,,,,,,,,1,wg-a,,,,AAXX 01004 07240 02/65 52008 10130 20080 39991 40123 55000 60006 70162 84031 90000 333 61000=
07240,1998-04-01 03:00:00,12,1012.1,-0.3,88,10,15000,18.52,,,230,,,,,,,,,,,wg-a,,,,AAXX 01034 07240 12/65 62310 10120 20100 39988 40121 56003 60006 85031 90300=
07240,1998-04-01 06:00:00,11,1013.9,1.7,87,9,500,11.112,,,220,10.3,13.4,,,,,,,,,wg-a,,,,AAXX 01064 07240 02300 82206 10110 20090 30005 40139 53017 60006 876// 90600 333 10134 20103 60004=
07240,1998-04-01 09:00:00,13,1014.6,0.8,88,11,10000,18.52,,,250,,,,,,,,,,,wg-a,,,,AAXX 01094 07240 12460 72510 10130 20110 30013 40146 51008 60006 875// 90900=
07240,1998-04-01 12:00:00,15,1013.9,-0.5,77,11,15000,18.52,,,230,,,,,,,,,,,wg-a,,,,AAXX 01124 07240 12565 72310 10150 20110 30008 40139 58005 60006 85202 91200=
07240,1998-04-01 15:00:00,16,1012.4,-1.5,68,10,20000,25.928,,,210,,,,,,,,,,,wg-a,,,,AAXX 01154 07240 12670 /2114 10160 20100 39993 40124 56015 60006 84930 91500=
07240,1998-04-01 18:00:00,13,1012.9,0.3,82,10,20000,7.408,,,260,10.6,17.1,,,,,,,,25,wg-a,,,,AAXX 01184 07240 02570 72604 10130 20100 39996 40129 53003 61000 72586 8513/ 91800 333 10171 20106 6002=
07240,1998-04-01 21:00:00,12,1012.8,-0.1,88,10,20000,11.112,,,210,,,,,,,,,,,wg-a,,,,AAXX 01214 07240 12570 72106 10120 20100 39995 40128 58001 60006 878// 92100=
07240,1998-04-02 00:00:00,11,1011.4,-1.4,94,10,15000,11.112,,,180,,,,,,,,,,,wg-a,,,,AAXX 02004 07240 12565 81806 10110 20100 39981 40114 58014 60006 875// 90000=
07240,1998-04-02 03:00:00,10,1009.1,-2.3,93,9,10000,14.816,,,180,,,,0,,,,,,61,wg-a,,,,AAXX 02034 07240 12360 81808 10100 20090 39958 40091 58023 60007 76162 875// 90300=
07240,1998-04-02 06:00:00,10,1006.8,-2.3,93,9,2000,14.816,,,150,9.5,12.8,,,,,,,,63,wg-a,,,,AAXX 02064 07240 02220 81508 10100 20090 39935 40068 56023 61000 76362 875// 90600 333 10128 20095 6009=
07240,1998-04-02 09:00:00,12,1005.6,-1.1,88,10,12000,22.224,,,220,,,,5,,,,,,21,wg-a,,,,AAXX 02094 07240 12462 72212 10120 20100 39924 40056 55011 60057 72162 875// 90900=
07240,1998-04-02 12:00:00,15,1004.9,-0.6,72,10,20000,25.928,,,240,,,,1,,,,,,25,wg-a,,,,AAXX 02124 07240 02570 /2414 10150 20100 39918 40049 58006 60076 72586 84202 91200 333 60017=
07240,1998-04-02 15:00:00,16,1003.1,-1.7,63,9,25000,31.484,,,250,,,,,,,,,,1,wg-a,,,,AAXX 02154 07240 02575 /2517 10160 20090 39901 40031 58017 61000 70186 85202 91500 333 ////=
07240,1998-04-02 18:00:00,12,1002.7,-0.6,82,9,25000,25.928,,,210,9.5,16.1,,,,,,,,61,wg-a,,,,AAXX 02184 07240 02675 82114 10120 20090 39895 40027 58006 61000 76186 8182/ 91800 333 10161 20095 6000=
07240,1998-04-02 21:00:00,11,1000.8,-1.9,94,10,6000,25.928,,,200,,,,3,,,,,,61,wg-a,,,,AAXX 02214 07240 12256 82014 10110 20100 39876 40008 57019 60037 76162 877// 92100=
07240,1998-04-03 00:00:00,12,998.9,-1.8,94,11,6000,29.632,,,200,,,,3,,,,,,61,wg-a,,,,AAXX 03004 07240 02356 82016 10120 20110 39858 49989 57018 60066 76162 877// 90000 333 60037=
07240,1998-04-03 03:00:00,13,997.4,-1.4,94,12,15000,25.928,,,210,,,,4,,,,,,21,wg-a,,,,AAXX 03034 07240 12465 82114 10130 20120 39844 49974 57014 60047 72162 888// 90300=
07240,1998-04-03 06:00:00,10,997.4,-0.2,100,10,9000,25.928,,,210,10.4,12.9,,,,,,,,61,wg-a,,,,AAXX 03064 07240 02359 82114 10100 20100 39842 49974 56002 61000 76162 877// 90600 333 10129 20104 6021=
07240,1998-04-03 09:00:00,10,998.6,1.2,93,9,10000,25.928,,,220,,,,4,,,,,,61,wg-a,,,,AAXX 03094 07240 12460 82214 10100 20090 39854 49986 53012 60047 76166 887// 90900=
07240,1998-04-03 12:00:00,10,997.6,-1,93,9,8000,22.224,,,190,,,,6,,,,,,61,wg-a,,,,AAXX 03124 07240 02358 81912 10100 20090 39844 49976 58010 60106 76166 888// 91200 333 60067=
07240,1998-04-03 15:00:00,10,997,-0.6,87,8,10000,29.632,,,230,,,,4,,,,,,61,wg-a,,,,AAXX 03154 07240 12460 82316 10100 20080 39838 49970 56006 60047 76166 875// 91500=
07240,1998-04-03 18:00:00,8,996.9,-0.2,87,6,15000,25.928,,,220,8.2,10.8,,,,,,,,61,wg-a,,,,AAXX 03184 07240 02465 82214 10080 20060 39836 49969 55002 61000 76166 8352/ 91800 333 10108 20082 6002=
07240,1998-04-03 21:00:00,8,996.8,-0.1,87,6,15000,29.632,,,200,,,,2,,,,,,21,wg-a,,,,AAXX 03214 07240 12465 72016 10080 20060 39835 49968 58001 60027 72162 8681/ 92100=
07240,1998-04-04 00:00:00,8,996.8,-0,87,6,20000,29.632,,,200,,,,,,,,,,1,wg-a,,,,AAXX 04004 07240 12470 72016 10080 20060 39835 49968 55000 60026 70162 8481/ 90000=
07240,1998-04-04 03:00:00,9,996.5,-0.3,81,6,500,35.188,,,200,,,,,,,,,,,wg-a,,,,AAXX 04034 07240 12400 52019 10090 20060 39832 49965 56003 60006 85800 90300=
07240,1998-04-04 06:00:00,9,996.9,0.5,81,6,500,38.892,,57.412,210,7.4,9.4,,,,,18,,,,wg-a,,,,AAXX 04064 07240 02400 /2121 10090 20060 39837 49969 53005 60006 86800 90600 333 10094 20074 60184 91031=
07240,1998-04-04 09:00:00,11,998.8,1.9,82,8,15000,31.484,,55.56,220,,,,1,,,,,,21,wg-a,,,,AAXX 04094 07240 12465 /2217 10110 20080 39856 49988 51019 60017 72186 86200 90900 333 91030=
07240,1998-04-04 12:00:00,10,1000,1.2,87,8,4000,38.892,,,230,,,,4,,,,,,80,wg-a,,,,AAXX 04124 07240 02540 72321 10100 20080 39868 40000 53012 60056 78086 878// 91200 333 60047=
07240,1998-04-04 15:00:00,11,1000.8,0.8,87,9,12000,35.188,,55.56,240,,,,2,,,,,,80,wg-a,,,,AAXX 04154 07240 12562 /2419 10110 20090 39876 40008 53008 60027 78086 84830 91500 333 91030=
07240,1998-04-04 18:00:00,10,1001.7,0.8,76,6,15000,31.484,,53.708,220,8.8,13.6,,,,,,,,1,wg-a,,,,AAXX 04184 07240 12565 /2217 10100 20060 39884 40017 53008 60006 70186 84903 91800 333 10136 20088 91029=
07240,1998-04-04 21:00:00,8,1003.1,1.3,87,6,15000,22.224,,,210,,,,,,,,,,,wg-a,,,,AAXX 04214 07240 12565 32112 10080 20060 39897 40031 51013 60006 83800 92100=
07240,1998-04-05 00:00:00,8,1002.1,-1,87,6,15000,14.816,,,190,,,,,,,,,,,wg-a,,,,AAXX 05004 07240 12765 71908 10080 20060 39887 40021 58010 60006 855/2 90000=
07240,1998-04-05 03:00:00,8,1001.1,-1,93,7,15000,18.52,,,200,,,,2,,,,,,61,wg-a,,,,AAXX 05034 07240 12365 82010 10080 20070 39877 40011 58010 60027 76162 887// 90300=
07240,1998-04-05 06:00:00,8,1001.5,0.4,87,6,20000,18.52,,,210,7.4,9.9,,,,,8,,,3,wg-a,,,,AAXX 05064 07240 02470 72110 10080 20060 39881 40015 53004 60006 70362 878// 90600 333 10099 20074 60084=
07240,1998-04-05 09:00:00,9,1003.5,2.1,87,7,11000,22.224,,,210,,,,,,,,,,,wg-a,,,,AAXX 05094 07240 32/61 /2112 10090 20070 39902 40035 51021 90900=
07240,1998-04-05 12:00:00,12,1004.5,1.1,82,9,15000,25.928,,,230,,,,,,,,,,25,wg-a,,,,AAXX 05124 07240 02565 72314 10120 20090 39913 40045 53011 60056 72586 879// 91200 333 61000=
07240,1998-04-05 15:00:00,12,1005.1,0.6,76,8,20000,0,,,0,,,,3,,,,,,27,wg-a,,,,AAXX 05154 07240 12470 70000 10120 20080 39919 40051 50006 60037 72787 879// 91500=
07240,1998-04-05 18:00:00,12,1006.2,1.1,71,7,500,22.224,,,230,6.8,13.6,,0,,,,,,15,wg-a,,,,AAXX 05184 07240 02500 42312 10120 20070 39930 40062 53011 60006 71587 82901 91800 333 10136 20068 60007=
07240,1998-04-05 21:00:00,9,1008.3,1.9,93,8,12000,29.632,,,230,,,,2,,,,,,80,wg-a,,,,AAXX 05214 07240 12562 72316 10090 20080 39949 40083 51019 60027 78086 872// 92100=
07240,1998-04-06 00:00:00,9,1008.3,-0,87,7,20000,18.52,,,210,,,,1,,,,,,25,wg-a,,,,AAXX 06004 07240 02570 42110 10090 20070 39949 40083 55000 60036 72586 84200 90000 333 60017=
07240,1998-04-06 03:00:00,7,1008.3,-0.1,93,6,12000,18.52,,,210,,,,,,,,,,80,wg-a,,,,AAXX 06034 07240 02362 72110 10070 20060 39948 40083 55001 61000 78086 872// 90300 333 ////=
07240,1998-04-06 06:00:00,8,1008.1,-0.1,93,7,11000,18.52,,,220,7.2,11.8,,,,,12,,,,wg-a,,,,AAXX 06064 07240 02/61 /2210 10080 20070 39947 40081 55001 60006 90600 333 10118 20072 60124=
07240,1998-04-06 09:00:00,8,1008.2,0.1,93,7,12000,11.112,,,230,,,,1,,,,,,25,wg-a,,,,AAXX 06094 07240 12362 72306 10080 20070 39948 40082 53001 60017 72586 8597/ 90900=
07240,1998-04-06 12:00:00,10,1006.4,-1.7,87,8,20000,29.632,,,210,,,,3,,,,,,25,wg-a,,,,AAXX 06124 07240 02470 72116 10100 20080 39931 40064 58017 60046 72586 878// 91200 333 60037=
07240,1998-04-06 15:00:00,9,1005.7,-0.7,81,6,25000,18.52,,,220,,,,1,,,,,,1,wg-a,,,,AAXX 06154 07240 12575 72210 10090 20060 39924 40057 58007 60017 70186 87872 91500=
07240,1998-04-06 18:00:00,9,1005.5,-0.2,81,6,25000,18.52,,,220,7.3,10.4,,,,,,,,3,wg-a,,,,AAXX 06184 07240 12575 72210 10090 20060 39922 40055 55002 60006 70386 8687/ 91800 333 10104 20073=
07240,1998-04-06 21:00:00,8,1003.7,-1.9,87,6,15000,7.408,,,160,,,,,,,,,,60,wg-a,,,,AAXX 06214 07240 02565 81604 10080 20060 39903 40037 58019 61000 76062 878// 92100 333 ////=
07240,1998-04-07 00:00:00,7,1000.5,-3.2,100,7,500,11.112,,,100,,,,6,,,,,,61,wg-a,,,,AAXX 07004 07240 02200 81006 10070 20070 39871 40005 58032 60066 76162 877// 90000 333 60067=
07240,1998-04-07 06:00:00,5,998.5,1.9,100,5,12000,22.224,,,300,5.3,9.3,,,,,,,,60,wg-a,,,,AAXX 07064 07240 02362 83012 10050 20050 39851 49985 53019 61000 76066 875// 90600 333 10093 20053 6021=
07240,1998-04-07 12:00:00,11,1002.6,1.5,76,7,15000,22.224,,,270,,,,,,,,,,3,wg-a,,,,AAXX 07124 07240 12465 /2712 10110 20070 39894 40026 51015 60016 70362 86800 91200=
07240,1998-04-07 15:00:00,12,1003.3,0.7,67,6,20000,31.484,,,240,,,,,,,,,,,wg-a,,,,AAXX 07154 07240 12670 /2417 10120 20060 39901 40033 51007 60006 85203 91500=
07240,1998-04-07 18:00:00,9,1004.8,1.4,81,6,20000,25.928,,,250,5.3,13.3,,2,,,,,,2,wg-a,,,,AAXX 07184 07240 02570 /2514 10090 20060 39915 40048 53014 60006 70286 85903 91800 333 10133 20053 60027=
07240,1998-04-07 21:00:00,7,1006.7,1.8,100,7,15000,11.112,,,230,,,,1,,,,,,1,wg-a,,,,AAXX 07214 07240 12665 72306 10070 20070 39933 40067 52018 60017 70186 875// 92100=
07240,1998-04-08 00:00:00,7,1007.4,0.6,93,6,15000,14.816,,,230,,,,,,,,,,1,wg-a,,,,AAXX 08004 07240 12665 72308 10070 20060 39939 40074 51006 60016 70186 875// 90000=
07240,1998-04-08 06:00:00,6,1007,-0.1,93,5,12000,11.112,,,200,4.7,9.2,,,,,4,,,,wg-a,,,,AAXX 08064 07240 02462 72006 10060 20050 39935 40070 55001 60006 8553/ 90600 333 10092 20047 60044=
07240,1998-04-08 09:00:00,8,1006.6,-0.3,93,7,12000,11.112,,,210,,,,,,,,,,,wg-a,,,,AAXX 08094 07240 12462 82106 10080 20070 39932 40066 57003 60006 878// 90900=
07240,1998-04-08 12:00:00,10,1005.2,-1.3,87,8,12000,11.112,,,220,,,,2,,,,,,25,wg-a,,,,AAXX 08124 07240 02462 72206 10100 20080 39919 40052 58013 60026 72586 86902 91200 333 60027=
07240,1998-04-08 15:00:00,12,1002.9,-2.2,71,7,500,11.112,,,280,,,,3,,,,,,1,wg-a,,,,AAXX 08154 07240 12400 /2806 10120 20070 39897 40029 58022 60037 70186 83903 91500=
07240,1998-04-08 18:00:00,10,1001.4,-1.6,71,5,500,18.52,,,260,5.7,12.4,,,,,,,,3,wg-a,,,,AAXX 08184 07240 12500 52610 10100 20050 39881 40014 56016 60006 70386 85900 91800 333 10124 20057=
07240,1998-04-08 21:00:00,8,1001.3,-0.2,87,6,20000,14.816,,,220,,,,,,,,,,,wg-a,,,,AAXX 08214 07240 12/70 /2208 10080 20060 39879 40013 58002 60006 8//00 92100=
07240,1998-04-09 00:00:00,7,999.4,-1.9,87,5,15000,18.52,,,200,,,,,,,,,,,wg-a,,,,AAXX 09004 07240 12565 /2010 10070 20050 39860 49994 58019 60006 86800 90000=
07240,1998-04-09 03:00:00,7,996.6,-2.7,93,6,11000,18.52,,,190,,,,,,,,,,,wg-a,,,,AAXX 09034 07240 32/61 /1910 10070 20060 39833 49966 58027 90300=
07240,1998-04-09 06:00:00,5,995.6,-1.1,87,3,15000,14.816,,,180,5.3,10.1,,,,,5,,,3,wg-a,,,,AAXX 09064 07240 02365 71808 10050 20030 39822 49956 55011 60006 70362 878// 90600 333 10101 20053 60054=
07240,1998-04-09 09:00:00,8,994.9,-0.5,76,4,11000,22.224,,,200,,,,,,,,,,,wg-a,,,,AAXX 09094 07240 12/61 /2012 10080 20040 39817 49949 56005 60006 90900=
07240,1998-04-09 12:00:00,7,994.5,-0.5,81,4,15000,35.188,,,200,,,,1,,,,,,80,wg-a,,,,AAXX 09124 07240 02565 72019 10070 20040 39812 49945 58005 60016 78086 872// 91200 333 60017=
07240,1998-04-09 15:00:00,8,993.6,-0.8,81,5,15000,18.52,,,190,,,,2,,,,,,1,wg-a,,,,AAXX 09154 07240 12565 71910 10080 20050 39804 49936 58008 60027 70186 84911 91500=
07240,1998-04-09 18:00:00,6,993.6,-0.1,87,4,10000,22.224,,,190,5.1,10.5,,,,,,,,25,wg-a,,,,AAXX 09184 07240 02360 71912 10060 20040 39803 49936 55001 61000 72586 868// 91800 333 10105 20051 6002=
07240,1998-04-09 21:00:00,6,994.4,0.7,93,5,15000,14.816,,,210,,,,,,,,,,61,wg-a,,,,AAXX 09214 07240 02465 72108 10060 20050 39810 49944 53007 61000 76186 865// 92100 333 ////=
07240,1998-04-10 00:00:00,5,994.3,-0.1,93,4,15000,14.816,,,190,,,,1,,,,,,1,wg-a,,,,AAXX 10004 07240 02365 71908 10050 20040 39809 49943 58001 60016 70186 865// 90000 333 60017=
07240,1998-04-10 06:00:00,3,992.3,-1,100,3,20000,11.112,,,160,2.2,6.2,,,,,5,,,,wg-a,,,,AAXX 10064 07240 02270 41606 10030 20030 39788 49923 56010 60006 84231 90600 333 10062 20022 60054=
07240,1998-04-10 09:00:00,6,992,-0.1,87,4,500,18.52,,,170,,,,,,,,,,,wg-a,,,,AAXX 10094 07240 12400 71710 10060 20040 39787 49920 57001 60006 872// 90900=
07240,1998-04-10 12:00:00,8,991.4,-0.5,81,5,11000,14.816,,,190,,,,,,,,,,,wg-a,,,,AAXX 10124 07240 12/61 /1908 10080 20050 39782 49914 58005 60016 91200=
07240,1998-04-10 15:00:00,9,990.9,-0.5,76,5,15000,11.112,,,180,,,,1,,,,,,16,wg-a,,,,AAXX 10154 07240 12465 61806 10090 20050 39777 49909 58005 60017 71686 84903 91500=
07240,1998-04-10 18:00:00,6,992.3,1.3,93,5,18000,11.112,,,230,3.1,9.4,,,,,,,,25,wg-a,,,,AAXX 10184 07240 02468 72306 10060 20050 39790 49923 53013 61000 72587 8696/ 91800 333 10094 20031 6003=
07240,1998-04-10 21:00:00,5,995.2,2.8,93,4,12000,14.816,,,250,,,,0,,,,,,3,wg-a,,,,AAXX 10214 07240 12362 72508 10050 20040 39818 49952 53028 60007 70362 875// 92100=
07240,1998-04-11 03:00:00,4,997.1,0.4,93,3,12000,11.112,,,220,,,,,,,,,,,wg-a,,,,AAXX 11034 07240 12562 72206 10040 20030 39836 49971 52004 60006 875// 90300=
07240,1998-04-11 06:00:00,4,998.1,1,87,2,20000,18.52,,,190,3.6,6,,,,,6,,,,wg-a,,,,AAXX 11064 07240 02370 71910 10040 20020 39846 49981 53010 60006 878// 90600 333 10060 20036 60064=
07240,1998-04-11 09:00:00,5,998.9,0.8,87,3,11000,14.816,,,200,,,,,,,,,,,wg-a,,,,AAXX 11094 07240 32/61 /2008 10050 20030 39854 49989 52008 90900=
07240,1998-04-11 12:00:00,7,999.5,0.7,76,3,25000,14.816,,,210,,,,,,,,,,3,wg-a,,,,AAXX 11124 07240 12475 72108 10070 20030 39861 49995 51007 60006 70365 878// 91200=
07240,1998-04-11 18:00:00,7,1000.3,0.7,81,4,25000,3.704,,,320,3.3,8,,,,,,,,25,wg-a,,,,AAXX 11184 07240 02575 73202 10070 20040 39869 40003 53007 61000 72586 878// 91800 333 10080 20033 6000=
07240,1998-04-12 00:00:00,4,1003.1,0.8,93,3,25000,11.112,,,270,,,,,,,,,,,wg-a,,,,AAXX 12004 07240 12475 72706 10040 20030 39895 40031 51008 60006 878// 90000=
07240,1998-04-12 06:00:00,4,1005,1.5,93,3,15000,18.52,,,340,3.2,6.8,,,,,,,,21,wg-a,,,,AAXX 12064 07240 02465 83410 10040 20030 39914 40050 53015 61000 72165 875// 90600 333 10068 20032 6001=
07240,1998-04-12 09:00:00,4,1007.9,2.8,81,1,12000,31.484,,,350,,,,0,,,,,,60,wg-a,,,,AAXX 12094 07240 12462 83517 10040 20010 39942 40079 53028 60007 76066 8421/ 90900=
07240,1998-04-12 12:00:00,6,1008.7,0.9,70,1,20000,14.816,,,280,,,,0,,,,,,3,wg-a,,,,AAXX 12124 07240 02570 82808 10060 20010 39951 40087 50009 60016 70362 8622/ 91200 333 60007=
07240,1998-04-12 18:00:00,4,1009.4,0.7,81,1,15000,18.52,,,330,2.9,8.8,,1,,,,,,15,wg-a,,,,AAXX 12184 07240 02265 63310 10040 20010 39957 40094 51007 60006 71586 86300 91800 333 10088 20029 60017=
07240,1998-04-13 00:00:00,2,1010.4,0.1,93,1,15000,11.112,,,290,,,,0,,,,,,60,wg-a,,,,AAXX 13004 07240 02365 82906 10020 20010 39967 40104 52001 60006 76062 875// 90000 333 60007=
07240,1998-04-13 03:00:00,2,1010,-0.5,93,1,15000,7.408,,,290,,,,1,,,,,,60,wg-a,,,,AAXX 13034 07240 12365 82904 10020 20010 39962 40100 57005 60017 76066 875// 90300=
07240,1998-04-13 06:00:00,1,1010.7,0.7,100,1,10000,0,,,0,1.4,3.9,,,,,3,,,1,wg-a,,,,AAXX 13064 07240 02260 70000 10010 20010 39969 40107 53007 60006 70162 8687/ 90600 333 10039 20014 60034=
07240,1998-04-13 09:00:00,4,1011.9,1.3,87,2,20000,7.408,,,300,,,,,,,,,,,wg-a,,,,AAXX 13094 07240 12470 23004 10040 20020 39982 40119 52013 60006 82100 90900=
07240,1998-04-13 12:00:00,7,1011.6,-0.2,53,-2,500,18.52,,,310,,,,,,,,,,15,wg-a,,,,AAXX 13124 07240 12600 43110 10070 21020 39980 40116 58002 60006 71511 84200 91200=
07240,1998-04-13 15:00:00,7,1010.3,-1.2,57,-1,25000,22.224,,,260,,,,,,,,,,15,wg-a,,,,AAXX 13154 07240 12575 52612 10070 21010 39968 40103 58012 60006 71511 85900 91500=
07240,1998-04-13 18:00:00,4,1010.5,-0,87,2,20000,11.112,,,220,1.4,8.8,,,,,,,,26,wg-a,,,,AAXX 13184 07240 02370 32206 10040 20020 39968 40105 55000 61000 72687 83900 91800 333 10088 20014 6001=
07240,1998-04-13 21:00:00,3,1010.6,0.1,87,1,20000,14.816,,,220,,,,,,,,,,,wg-a,,,,AAXX 13214 07240 12670 62208 10030 20010 39969 40106 53001 60006 84402 92100=
07240,1998-04-14 00:00:00,2,1009.6,-1.1,93,1,20000,11.112,,,220,,,,,,,,,,,wg-a,,,,AAXX 14004 07240 12/70 42206 10020 20010 39958 40096 56011 60006 80002 90000=
07240,1998-04-14 03:00:00,1,1008.1,-1.5,93,0,20000,11.112,,,190,,,,,,,,,,,wg-a,,,,AAXX 14034 07240 12570 21906 10010 20000 39943 40081 56015 60006 82500 90300=
07240,1998-04-14 06:00:00,2,1007.4,-0.6,87,0,15000,11.112,,,170,0.8,3.7,,,,,,,,60,wg-a,,,,AAXX 14064 07240 02665 71706 10020 20000 39937 40074 55006 61000 76061 8553/ 90600 333 10037 20008 6001=
07240,1998-04-14 09:00:00,6,1006.4,-0.8,75,2,20000,18.52,,,200,,,,,,,,,,3,wg-a,,,,AAXX 14094 07240 02570 52010 10060 20020 39929 40064 58008 61000 70362 83832 90900 333 ////=
07240,1998-04-14 12:00:00,9,1004.5,-1.8,57,1,25000,22.224,,,190,,,,,,,,,,3,wg-a,,,,AAXX 14124 07240 02575 71912 10090 20010 39911 40045 58018 61000 70362 8623/ 91200 333 ////=
07240,1998-04-14 15:00:00,10,1002.8,-1.6,50,0,25000,22.224,,,170,,,,,,,,,,,wg-a,,,,AAXX 14154 07240 12675 71712 10100 20000 39895 40028 58016 60006 8683/ 91500=
07240,1998-04-14 18:00:00,9,1000.8,-2,57,1,500,18.52,,,170,1.6,10.4,,,,,,,,,wg-a,,,,AAXX 14184 07240 12600 71710 10090 20010 39875 40008 56020 60006 83532 91800 333 10104 20016=
07240,1998-04-14 21:00:00,8,999.9,-0.9,76,4,8000,14.816,,,160,,,,0,,,,,,61,wg-a,,,,AAXX 14214 07240 12358 81608 10080 20040 39866 49999 56009 60007 76162 875// 92100=
07240,1998-04-15 00:00:00,7,997.1,-2.9,93,6,10000,11.112,,,150,,,,2,,,,,,21,wg-a,,,,AAXX 15004 07240 02560 81506 10070 20060 39837 49971 58029 60026 72162 875// 90000 333 60027=
07240,1998-04-15 03:00:00,7,995.2,-1.8,93,6,4000,11.112,,,200,,,,,,,,,,,wg-a,,,,AAXX 15034 07240 32/40 /2006 10070 20060 39819 49952 56018 90300=
07240,1998-04-15 06:00:00,7,994.2,-1,93,6,8000,22.224,,,200,6.3,9.3,,,,,,,,61,wg-a,,,,AAXX 15064 07240 02358 82012 10070 20060 39809 49942 55010 61000 76162 877// 90600 333 10093 20063 6006=
07240,1998-04-15 09:00:00,6,994.7,0.5,93,5,7000,22.224,,,290,,,,0,,,,,,80,wg-a,,,,AAXX 15094 07240 12457 72912 10060 20050 39814 49947 53005 60007 78086 8527/ 90900=
07240,1998-04-15 12:00:00,6,996.4,1.6,75,2,25000,25.928,,,300,,,,2,,,,,,1,wg-a,,,,AAXX 15124 07240 02475 73014 10060 20020 39830 49964 51016 60026 70186 8627/ 91200 333 60027=
07240,1998-04-15 15:00:00,7,997.2,0.8,66,1,15000,29.632,,,270,,,,,,,,,,,wg-a,,,,AAXX 15154 07240 12465 72716 10070 20010 39838 49972 53008 60006 8597/ 91500=
07240,1998-04-15 18:00:00,8,998.4,1.3,57,0,25000,25.928,,,280,5,8.8,,,,,,,,,wg-a,,,,AAXX 15184 07240 12675 32814 10080 20000 39851 49984 53013 60006 83200 91800 333 10088 20050=
07240,1998-04-15 21:00:00,4,1001.5,2.9,81,1,15000,22.224,,,250,,,,,,,,,,,wg-a,,,,AAXX 15214 07240 12/65 02512 10040 20010 39880 40015 51029 60006 80000 92100=
07240,1998-04-16 00:00:00,4,1002.9,1.3,81,1,15000,22.224,,,240,,,,,,,,,,,wg-a,,,,AAXX 16004 07240 12765 32412 10040 20010 39893 40029 51013 60006 83500 90000=
07240,1998-04-16 03:00:00,2,1002.3,-0.6,87,0,10000,11.112,,,220,,,,,,,,,,,wg-a,,,,AAXX 16034 07240 12760 62206 10020 20000 39887 40023 57006 60006 835/2 90300=
07240,1998-04-16 06:00:00,2,1000.2,-2.1,93,1,15000,14.816,,,170,1.6,7.8,,,,,2,,,,wg-a,,,,AAXX 16064 07240 02765 71708 10020 20010 39866 40002 58021 60006 82572 90600 333 10078 20016 60024=
07240,1998-04-16 09:00:00,6,997.6,-2.4,81,3,15000,25.928,,,180,,,,,,,,,,,wg-a,,,,AAXX 16094 07240 12665 71814 10060 20030 39842 49976 57024 60006 8257/ 90900=
07240,1998-04-16 12:00:00,7,992.9,-4.6,81,4,10000,25.928,,53.708,160,,,,0,,,,,,60,wg-a,,,,AAXX 16124 07240 02560 81614 10070 20040 39796 49929 58046 60016 76062 8627/ 91200 333 60007 91029=
07240,1998-04-16 15:00:00,7,988.6,-4.2,93,6,9000,29.632,,,170,,,,4,,,,,,60,wg-a,,,,AAXX 16154 07240 12459 81716 10070 20060 39754 49886 58042 60047 76066 878// 91500=
07240,1998-04-16 18:00:00,9,985.6,-2.9,87,7,20000,25.928,,,190,2.3,8.8,,,,,,,,21,wg-a,,,,AAXX 16184 07240 02470 61914 10090 20070 39725 49856 56029 61000 72162 84830 91800 333 10088 20023 6003=
07240,1998-04-16 21:00:00,7,983.8,-1.8,93,6,10000,11.112,,,150,,,,1,,,,,,60,wg-a,,,,AAXX 16214 07240 12460 81506 10070 20060 39707 49838 56018 60017 76062 878// 92100=
07240,1998-04-17 00:00:00,7,982.3,-1.5,100,7,6000,7.408,,,30,,,,7,,,,,,61,wg-a,,,,AAXX 17004 07240 02356 80304 10070 20070 39692 49823 55015 60086 76162 872// 90000 333 60077=
07240,1998-04-17 03:00:00,7,984.1,1.7,93,6,11000,29.632,,53.708,270,,,,,,,,,,,wg-a,,,,AAXX 17034 07240 32/61 /2716 10070 20060 39709 49841 53017 90300 333 91029=
07240,1998-04-17 06:00:00,5,986.4,2.2,87,3,8000,38.892,,,260,4.6,8.8,,,,,,,,50,wg-a,,,,AAXX 17064 07240 02358 82621 10050 20030 39731 49864 53022 61000 75065 877// 90600 333 10088 20046 6016=
07240,1998-04-17 09:00:00,3,989.5,3,93,2,9000,38.892,,55.56,270,,,,4,,,,,,51,wg-a,,,,AAXX 17094 07240 12359 82721 10030 20020 39761 49895 53030 60047 75165 877// 90900 333 91030=
07240,1998-04-17 12:00:00,4,991.8,2.3,93,3,7000,31.484,,,270,,,,6,,,,,,61,wg-a,,,,AAXX 17124 07240 02357 82717 10040 20030 39784 49918 51023 60116 76176 877// 91200 333 60067=
07240,1998-04-17 15:00:00,5,994.4,2.6,100,5,10000,29.632,,,300,,,,2,,,,,,60,wg-a,,,,AAXX 17154 07240 12460 83016 10050 20050 39810 49944 52026 60027 76066 877// 91500=
07240,1998-04-17 18:00:00,6,998.4,4,93,5,15000,25.928,,,320,1.9,6.4,,2,,,,,,1,wg-a,,,,AAXX 17184 07240 02465 83214 10060 20050 39850 49984 51040 60006 70162 8622/ 91800 333 10064 20019 60027=
07240,1998-04-18 00:00:00,5,1003.5,1.5,93,4,15000,22.224,,,280,,,,,,,,,,,wg-a,,,,AAXX 18004 07240 12665 82812 10050 20040 39900 40035 51015 60006 875// 90000=
07240,1998-04-18 09:00:00,8,1007.1,1.1,76,4,20000,22.224,,,300,,,,,,,,,,,wg-a,,,,AAXX 18094 07240 12470 43012 10080 20040 39937 40071 51011 60006 84230 90900=
07240,1998-04-18 12:00:00,9,1007.3,0.2,61,2,500,22.224,,,270,,,,,,,,,,,wg-a,,,,AAXX 18124 07240 12600 /2712 10090 20020 39939 40073 50002 60006 86200 91200=
07240,1998-04-18 15:00:00,10,1007.3,0.1,66,4,500,14.816,,,280,,,,0,,,,,,1,wg-a,,,,AAXX 18154 07240 12600 62808 10100 20040 39940 40073 50001 60007 70186 84202 91500=
07240,1998-04-18 18:00:00,7,1008.4,0.9,81,4,500,22.224,,,250,3.2,11,,,,,,,,3,wg-a,,,,AAXX 18184 07240 12600 72512 10070 20040 39949 40084 53009 60006 70386 84202 91800 333 10110 20032=
07240,1998-04-18 21:00:00,6,1009.7,1.3,93,5,500,18.52,,,250,,,,,,,,,,,wg-a,,,,AAXX 18214 07240 12600 72510 10060 20050 39962 40097 51013 60006 8357/ 92100=
07240,1998-04-19 00:00:00,6,1010.3,0.5,93,5,20000,14.816,,,250,,,,,,,,,,,wg-a,,,,AAXX 19004 07240 12670 72508 10060 20050 39967 40103 51005 60006 8357/ 90000=
07240,1998-04-19 06:00:00,4,1010.6,0.6,100,4,12000,3.704,,,140,4.4,7.3,,,,,,,,,wg-a,,,,AAXX 19064 07240 02762 51402 10040 20040 39970 40106 53006 60006 855/4 90600 333 10073 20044 60004=
07240,1998-04-19 09:00:00,10,1010.8,0.4,82,7,500,11.112,,,190,,,,,,,,,,,wg-a,,,,AAXX 19094 07240 12400 81906 10100 20070 39974 40108 51004 60006 83351 90900=
07240,1998-04-19 12:00:00,11,1010.6,-0.1,82,8,15000,18.52,,,210,,,,0,,,,,,60,wg-a,,,,AAXX 19124 07240 02465 82110 10110 20080 39973 40106 58001 60006 76062 8582/ 91200 333 60007=
07240,1998-04-19 15:00:00,10,1010.5,-0.2,93,9,7000,18.52,,,180,,,,3,,,,,,61,wg-a,,,,AAXX 19154 07240 12357 81810 10100 20090 39971 40105 58002 60037 76166 877// 91500=
07240,1998-04-19 18:00:00,10,1010.2,-0.2,93,9,12000,14.816,,,180,4.5,11,,,,,,,,21,wg-a,,,,AAXX 19184 07240 02362 81808 10100 20090 39969 40102 56002 61000 72162 8557/ 91800 333 10110 20045 6001=
07240,1998-04-19 21:00:00,10,1010.9,0.6,93,9,12000,14.816,,,180,,,,1,,,,,,21,wg-a,,,,AAXX 19214 07240 12262 81808 10100 20090 39975 40109 51006 60017 72162 875// 92100=
07240,1998-04-20 00:00:00,10,1010.7,-0.2,87,8,15000,14.816,,,190,,,,0,,,,,,1,wg-a,,,,AAXX 20004 07240 02565 81908 10100 20080 39973 40107 58002 60016 70162 875// 90000 333 60007=
07240,1998-04-20 03:00:00,9,1010.2,-0.5,93,8,10000,14.816,,,200,,,,1,,,,,,61,wg-a,,,,AAXX 20034 07240 12360 82008 10090 20080 39968 40102 56005 60017 76162 875// 90300=
07240,1998-04-20 06:00:00,9,1011.2,1,93,8,500,11.112,,,230,9,10.3,,,,,,,,63,wg-a,,,,AAXX 20064 07240 02200 82306 10090 20080 39978 40112 53010 61000 76362 875// 90600 333 10103 20090 6012=
07240,1998-04-20 09:00:00,10,1012.7,1.5,100,10,15000,14.816,,,240,,,,2,,,,,,3,wg-a,,,,AAXX 20094 07240 12265 82408 10100 20100 39993 40127 51015 60027 70362 877// 90900=
07240,1998-04-20 12:00:00,13,1013.7,1.1,77,9,25000,14.816,,,260,,,,,,,,,,1,wg-a,,,,AAXX 20124 07240 12475 72608 10130 20090 30004 40137 51011 60026 70162 878// 91200=
07240,1998-04-20 15:00:00,13,1014.2,0.5,72,8,500,18.52,,,230,,,,0,,,,,,1,wg-a,,,,AAXX 20154 07240 12500 72310 10130 20080 30009 40142 51005 60007 70186 878// 91500=
07240,1998-04-20 18:00:00,11,1015.4,1.1,82,8,25000,7.408,,,210,8.9,13.4,,0,,,,,,1,wg-a,,,,AAXX 20184 07240 02675 /2104 10110 20080 30020 40154 51011 60006 70186 86802 91800 333 10134 20089 60007=
07240,1998-04-20 21:00:00,10,1017.1,1.6,87,8,15000,11.112,,,220,,,,,,,,,,,wg-a,,,,AAXX 20214 07240 12/65 42206 10100 20080 30036 40171 53016 60006 80002 92100=
07240,1998-04-21 00:00:00,9,1017.4,0.3,87,7,10000,7.408,,,220,,,,,,,,,,,wg-a,,,,AAXX 21004 07240 12760 52204 10090 20070 30039 40174 50003 60006 822/2 90000=
07240,1998-04-21 03:00:00,8,1017.2,-0.3,93,7,10000,7.408,,,210,,,,,,,,,,,wg-a,,,,AAXX 21034 07240 12760 62104 10080 20070 30036 40172 58003 60006 86500 90300=
07240,1998-04-21 06:00:00,6,1018,0.7,100,6,500,7.408,,,150,5.3,10.8,,,,,2,,,,wg-a,,,,AAXX 21064 07240 02700 61504 10060 20060 30043 40180 51007 60006 85530 90600 333 10108 20053 60024=
07240,1998-04-21 09:00:00,12,1017.9,0.2,71,7,25000,11.112,,,160,,,,,,,,,,,wg-a,,,,AAXX 21094 07240 12475 61606 10120 20070 30045 40179 51002 60006 82801 90900=
07240,1998-04-21 12:00:00,16,1016.2,-1.5,55,7,500,14.816,,,150,,,,,,,,,,,wg-a,,,,AAXX 21124 07240 12600 31508 10160 20070 30030 40162 58015 60006 81131 91200=
07240,1998-04-21 15:00:00,18,1014.4,-1.7,56,9,500,7.408,,,150,,,,,,,,,,,wg-a,,,,AAXX 21154 07240 12600 71504 10180 20090 30013 40144 58017 60006 878// 91500=
07240,1998-04-21 18:00:00,16,1013.1,-1.3,77,12,500,11.112,,,80,6.2,18.5,,,,,,,,,wg-a,,,,AAXX 21184 07240 12600 70806 10160 20120 30000 40131 56013 60006 85831 91800 333 10185 20062=
07240,1998-04-21 21:00:00,12,1013.2,-0.1,88,10,20000,14.816,,,90,,,,4,,,,,,1,wg-a,,,,AAXX 21214 07240 12770 30908 10120 20100 39999 40132 58001 60047 70186 815/1 92100=
07240,1998-04-22 00:00:00,13,1012.3,-0.9,82,10,20000,14.816,,,130,,,,,,,,,,3,wg-a,,,,AAXX 22004 07240 12770 51308 10130 20100 39990 40123 56009 60046 70386 835/1 90000=
07240,1998-04-22 03:00:00,12,1011.1,-1.2,82,9,15000,14.816,,,130,,,,,,,,,,,wg-a,,,,AAXX 22034 07240 12765 41308 10120 20090 39978 40111 56012 60006 825/1 90300=
07240,1998-04-22 06:00:00,12,1011.5,0.4,82,9,15000,7.408,,,130,10.8,16,,,,,4,,,,wg-a,,,,AAXX 22064 07240 02765 11304 10120 20090 39982 40115 53004 60006 81500 90600 333 10160 20108 60044=
07240,1998-04-22 09:00:00,18,1010.2,-1,56,9,20000,14.816,,,130,,,,,,,,,,,wg-a,,,,AAXX 22094 07240 12/70 21308 10180 20090 39972 40102 56010 60006 82030 90900=
07240,1998-04-22 12:00:00,22,1008.8,-1.2,46,10,25000,14.816,,,130,,,,,,,,,,,wg-a,,,,AAXX 22124 07240 12675 21308 10220 20100 39960 40088 58012 60006 81130 91200=
07240,1998-04-22 15:00:00,23,1008,-0.7,41,9,500,18.52,,,140,,,,,,,,,,,wg-a,,,,AAXX 22154 07240 12700 31410 10230 20090 39953 40080 56007 60006 83800 91500=
07240,1998-04-22 18:00:00,20,1008.9,0.7,56,11,500,18.52,,,230,11.6,23.5,,,,,,,,,wg-a,,,,AAXX 22184 07240 12700 52310 10200 20110 39960 40089 53007 60006 85500 91800 333 10235 20116=
07240,1998-04-22 21:00:00,16,1011.2,2.1,77,12,10000,11.112,,,250,,,,,,,,,,,wg-a,,,,AAXX 22214 07240 12760 52506 10160 20120 39981 40112 53021 60006 84520 92100=
07240,1998-04-23 00:00:00,13,1012.9,1.5,88,11,10000,11.112,,,270,,,,,,,,,,,wg-a,,,,AAXX 23004 07240 12760 62706 10130 20110 39996 40129 51015 60006 85520 90000=
07240,1998-04-23 03:00:00,11,1014.3,1.3,87,9,10000,11.112,,,260,,,,,,,,,,,wg-a,,,,AAXX 23034 07240 12/60 32606 10110 20090 30009 40143 51013 60006 83030 90300=
07240,1998-04-23 06:00:00,11,1015.6,1.3,87,9,15000,25.928,,,250,10.5,19.7,,,,,,,,,wg-a,,,,AAXX 23064 07240 02465 72514 10110 20090 30022 40156 53013 60006 875// 90600 333 10197 20105 60004=
07240,1998-04-23 09:00:00,13,1016.3,0.8,72,8,20000,25.928,,,230,,,,,,,,,,,wg-a,,,,AAXX 23094 07240 12570 /2314 10130 20080 30030 40163 53008 60006 86500 90900=
07240,1998-04-23 12:00:00,15,1015.2,-1,63,8,20000,29.632,,,220,,,,,,,,,,,wg-a,,,,AAXX 23124 07240 12670 72216 10150 20080 30020 40152 57010 60006 8417/ 91200=
07240,1998-04-23 15:00:00,14,1015.3,0.1,72,9,10000,31.484,,,220,,,,,,,,,,60,wg-a,,,,AAXX 23154 07240 02560 72217 10140 20090 30021 40153 53001 61000 76062 868// 91500 333 ////=
07240,1998-04-23 18:00:00,13,1016,0.6,88,11,20000,18.52,,,220,11.1,16.3,,0,,,,,,1,wg-a,,,,AAXX 23184 07240 02470 72210 10130 20110 30027 40160 53006 60006 70165 8783/ 91800 333 10163 20111 60007=
07240,1998-04-23 21:00:00,11,1017.9,1.8,94,10,15000,14.816,,,240,,,,,,,,,,,wg-a,,,,AAXX 23214 07240 12765 42408 10110 20100 30045 40179 52018 60006 84500 92100=
07240,1998-04-24 00:00:00,9,1019.5,1.5,93,8,15000,18.52,,,250,,,,,,,,,,,wg-a,,,,AAXX 24004 07240 12765 22510 10090 20080 30060 40195 53015 60006 82500 90000=
07240,1998-04-24 03:00:00,9,1020.1,0.6,93,8,10000,18.52,,,260,,,,0,,,,,,,wg-a,,,,AAXX 24034 07240 12660 72610 10090 20080 30066 40201 52006 60007 875// 90300=
07240,1998-04-24 06:00:00,9,1021.2,1.1,93,8,10000,14.816,,,240,8.8,12.6,,,,,,,,,wg-a,,,,AAXX 24064 07240 02360 82408 10090 20080 30077 40212 51011 60006 885// 90600 333 10126 20088 60004=
07240,1998-04-24 09:00:00,12,1022.2,1.1,88,10,10000,18.52,,,230,,,,,,,,,,,wg-a,,,,AAXX 24094 07240 12460 72310 10120 20100 30088 40222 50011 60006 8683/ 90900=
07240,1998-04-24 12:00:00,15,1021.8,-0.3,77,11,15000,25.928,,,230,,,,,,,,,,,wg-a,,,,AAXX 24124 07240 12465 72314 10150 20110 30085 40218 58003 60006 8683/ 91200=
07240,1998-04-24 18:00:00,15,1021.1,-0.1,82,12,25000,18.52,,,220,9.1,17.3,,,,,,,,,wg-a,,,,AAXX 24184 07240 12575 72210 10150 20120 30079 40211 56001 60006 878// 91800 333 10173 20091=
07240,1998-04-25 00:00:00,13,1020.6,-1.3,88,11,15000,18.52,,,200,,,,,,,,,,3,wg-a,,,,AAXX 25004 07240 02365 82010 10130 20110 30072 40206 58013 61000 70362 885// 90000 333 ////=
07240,1998-04-25 06:00:00,12,1017.9,-1.5,94,11,7000,22.224,,,200,11.8,15.1,,,,,1,,,,wg-a,,,,AAXX 25064 07240 02/57 /2012 10120 20110 30045 40179 56015 60006 90600 333 10151 20118 60014=
07240,1998-04-25 12:00:00,14,1016.2,-1.8,88,12,15000,22.224,,,210,,,,1,,,,,,60,wg-a,,,,AAXX 25124 07240 02365 82112 10140 20120 30030 40162 56018 60026 76065 8277/ 91200 333 60017=
07240,1998-04-25 18:00:00,14,1013.2,0,88,12,15000,7.408,,,190,11.8,15.1,,,,,,,,60,wg-a,,,,AAXX 25184 07240 02465 81904 10140 20120 30000 40132 50000 61000 76062 8257/ 91800 333 10151 20118 6100=
07240,1998-04-26 00:00:00,13,1011.2,,94,12,6000,7.408,,,270,,,,,,,,,,61,wg-a,,,,AAXX 26004 07240 02256 82704 10130 20120 39980 40112 61000 761// 877// 90000 333 6002=
07240,1998-04-26 06:00:00,9,1009.6,-0.4,93,8,20000,11.112,,,280,9,14.3,,,,,5,,,3,wg-a,,,,AAXX 26064 07240 02470 82806 10090 20080 39962 40096 55004 60006 70362 8682/ 90600 333 10143 20090 60054=
07240,1998-04-26 12:00:00,12,1008.5,-1.1,82,9,20000,11.112,,,250,,,,,,,,,,,wg-a,,,,AAXX 26124 07240 12470 82506 10120 20090 39953 40085 58011 60006 878// 91200=
07240,1998-04-26 18:00:00,12,1006.1,-0.8,82,9,20000,11.112,,,180,9,13.3,,,,,,,,3,wg-a,,,,AAXX 26184 07240 02670 /1806 10120 20090 39929 40061 56008 60006 70386 86800 91800 333 10133 20090 61000=
07240,1998-04-27 00:00:00,8,1005.3,-1.2,93,7,15000,7.408,,,290,,,,,,,,,,,wg-a,,,,AAXX 27004 07240 12565 32904 10080 20070 39919 40053 56012 60006 83500 90000=
07240,1998-04-27 06:00:00,7,1004.6,-0,93,6,12000,11.112,,,270,6.4,11.5,,,,,,,,,wg-a,,,,AAXX 27064 07240 02262 /2706 10070 20060 39912 40046 55000 60006 81602 90600 333 10115 20064 61000=
07240,1998-04-27 09:00:00,11,1005,0.6,82,8,18000,11.112,,,280,,,,0,,,,,,,wg-a,,,,AAXX 27094 07240 12468 /2806 10110 20080 39918 40050 53006 60007 84201 90900=
07240,1998-04-27 12:00:00,10,1005.1,0,87,8,25000,22.224,,,250,,,,0,,,,,,80,wg-a,,,,AAXX 27124 07240 02575 52512 10100 20080 39918 40051 50000 60016 78086 84901 91200 333 60007=
07240,1998-04-27 15:00:00,12,1005,-0,71,7,500,22.224,,,260,,,,0,,,,,,2,wg-a,,,,AAXX 27154 07240 12500 52612 10120 20070 39918 40050 55000 60007 70286 84901 91500=
07240,1998-04-27 18:00:00,11,1005.9,0.8,71,6,500,14.816,,,260,6.8,14.2,,,,,,,,15,wg-a,,,,AAXX 27184 07240 12700 62608 10110 20060 39926 40059 53008 60006 71586 85903 91800 333 10142 20068=
07240,1998-04-27 21:00:00,8,1007.7,1.7,81,5,500,14.816,,,250,,,,,,,,,,,wg-a,,,,AAXX 27214 07240 12700 12508 10080 20050 39943 40077 51017 60006 81500 92100=
07240,1998-04-28 00:00:00,7,1007.8,0,93,6,20000,14.816,,,250,,,,,,,,,,,wg-a,,,,AAXX 28004 07240 12770 22508 10070 20060 39943 40078 50000 60006 82500 90000=
07240,1998-04-28 06:00:00,6,1008.4,0.7,93,5,12000,7.408,,,200,5,11.7,,,,,1,,,,wg-a,,,,AAXX 28064 07240 02262 32004 10060 20050 39949 40084 53007 60006 83800 90600 333 10117 20050 60014=
07240,1998-04-28 09:00:00,10,1008.1,-0.1,82,7,15000,11.112,,,240,,,,0,,,,,,,wg-a,,,,AAXX 28094 07240 12565 52406 10100 20070 39948 40081 58001 60007 85800 90900=
07240,1998-04-28 12:00:00,14,1007.1,-0.8,55,5,500,18.52,,,210,,,,,,,,,,,wg-a,,,,AAXX 28124 07240 12600 52110 10140 20050 39940 40071 58008 60006 85800 91200=
07240,1998-04-28 15:00:00,14,1006,-1.1,55,5,500,14.816,,,210,,,,1,,,,,,15,wg-a,,,,AAXX 28154 07240 12600 42108 10140 20050 39929 40060 58011 60017 71586 84800 91500=
07240,1998-04-28 18:00:00,13,1005.3,-0.8,62,6,500,18.52,,,150,5.9,15.1,,,,,,,,1,wg-a,,,,AAXX 28184 07240 12500 41510 10130 20060 39921 40053 57008 60006 70186 83801 91800 333 10151 20059=
07240,1998-04-28 21:00:00,10,1005.1,-0.3,82,7,25000,11.112,,,120,,,,,,,,,,,wg-a,,,,AAXX 28214 07240 12575 61206 10100 20070 39918 40051 58003 60006 85801 92100=
07240,1998-04-29 00:00:00,9,1002.6,-2.5,87,7,25000,14.816,,,120,,,,,,,,,,,wg-a,,,,AAXX 29004 07240 12675 /1208 10090 20070 39893 40026 58025 60006 8453/ 90000=
07240,1998-04-29 06:00:00,9,999.1,-1.5,93,8,15000,22.224,,,130,8.3,12.9,,,,,,,,61,wg-a,,,,AAXX 29064 07240 02565 81312 10090 20080 39858 49991 56015 61000 76162 8687/ 90600 333 10129 20083 6005=
07240,1998-04-29 09:00:00,10,999.3,0.3,100,10,10000,18.52,,,150,,,,1,,,,,,61,wg-a,,,,AAXX 29094 07240 12360 81510 10100 20100 39861 49993 50003 60017 76166 875// 90900=
07240,1998-04-29 12:00:00,12,999.4,0.2,88,10,12000,11.112,,,150,,,,0,,,,,,20,wg-a,,,,AAXX 29124 07240 02462 81506 10120 20100 39863 49994 53002 60016 72065 878// 91200 333 60007=
07240,1998-04-29 18:00:00,13,1000.5,0.4,77,9,20000,3.704,,,100,9.1,14.5,,,,,,,,2,wg-a,,,,AAXX 29184 07240 12570 61002 10130 20090 39874 40005 51004 60006 70262 84860 91800 333 10145 20091=
07240,1998-04-29 21:00:00,10,1001.6,1,93,9,10000,11.112,,,80,,,,,,,,,,,wg-a,,,,AAXX 29214 07240 12/60 60806 10100 20090 39884 40016 50010 60006 86070 92100=
07240,1998-04-30 00:00:00,10,1002.2,0.5,93,9,10000,3.704,,,20,,,,,,,,,,50,wg-a,,,,AAXX 30004 07240 02460 80202 10100 20090 39889 40022 51005 61000 75052 8557/ 90000 333 6100=
07240,1998-04-30 03:00:00,10,1001.9,-0.3,93,9,10000,14.816,,,340,,,,6,,,,,,60,wg-a,,,,AAXX 30034 07240 12460 83408 10100 20090 39886 40019 58003 60067 76065 8567/ 90300=
07240,1998-04-30 06:00:00,10,1002,0.1,93,9,10000,11.112,,,40,9.5,12.7,,,,,,,,60,wg-a,,,,AAXX 30064 07240 02360 80406 10100 20090 39887 40020 53001 61000 76065 8677/ 90600 333 10127 20095 6010=
07240,1998-04-30 09:00:00,12,1003.1,1.2,88,10,15000,22.224,,,90,,,,,,,,,,2,wg-a,,,,AAXX 30094 07240 02465 70912 10120 20100 39899 40031 53012 61000 70262 8477/ 90900 333 ////=
07240,1998-04-30 12:00:00,14,1004.8,1.8,77,10,25000,18.52,,,110,,,,,,,,,,3,wg-a,,,,AAXX 30124 07240 02475 71110 10140 20100 39917 40048 51018 61000 70362 85232 91200 333 ////=
07240,1998-04-30 15:00:00,15,1005.8,1,77,11,25000,22.224,,,80,,,,,,,,,,,wg-a,,,,AAXX 30154 07240 12575 70812 10150 20110 39927 40058 51010 60006 8583/ 91500=
07240,1998-04-30 18:00:00,14,1007.4,1.6,82,11,7000,11.112,,,130,9.6,15.3,,,,,,,,80,wg-a,,,,AAXX 30184 07240 02557 71306 10140 20110 39943 40074 53016 61000 78086 878// 91800 333 10153 20096 6000=
07240,1998-04-30 21:00:00,12,1009.5,2,94,11,7000,11.112,,,340,,,,5,,,,,,21,wg-a,,,,AAXX 30214 07240 12457 73406 10120 20110 39963 40095 53020 60057 72198 879// 92100=
07240,1998-05-01 00:00:00,10,1012.1,2.4,87,8,7000,18.52,,,30,,,,0,,,,,,2,wg-a,,,,AAXX 01004 07240 02457 80310 10100 20080 39987 40121 51024 60066 70298 878// 90000 333 60007=
07240,1998-05-01 06:00:00,9,1012.9,1,87,7,10000,14.816,,,10,8.6,13.5,,,,,6,,,,wg-a,,,,AAXX 01064 07240 02560 70108 10090 20070 39995 40129 53010 60006 865// 90600 333 10135 20086 60064=
07240,1998-05-01 09:00:00,11,1013.6,0.7,82,8,10000,14.816,,,50,,,,,,,,,,,wg-a,,,,AAXX 01094 07240 12560 70508 10110 20080 30002 40136 51007 60006 871// 90900=
07240,1998-05-01 12:00:00,13,1013.3,-0.2,77,9,20000,7.408,,,50,,,,,,,,,,,wg-a,,,,AAXX 01124 07240 12570 70504 10130 20090 30000 40133 58002 60006 878// 91200=
07240,1998-05-01 15:00:00,13,1012.4,-0.8,77,9,25000,14.816,,,350,,,,,,,,,,,wg-a,,,,AAXX 01154 07240 12575 73508 10130 20090 39992 40124 58008 60006 878// 91500=
07240,1998-05-01 18:00:00,12,1012.5,-0,76,8,20000,18.52,,,360,8.9,13.7,,,,,,,,,wg-a,,,,AAXX 01184 07240 12670 73610 10120 20080 39992 40125 55000 60006 875// 91800 333 10137 20089=
07240,1998-05-02 00:00:00,9,1013.4,-0.1,93,8,6000,11.112,,,340,,,,,,,,,,,wg-a,,,,AAXX 02004 07240 12/56 /3406 10090 20080 30000 40134 58001 60006 90000=
07240,1998-05-02 03:00:00,9,1013.1,-0.4,93,8,6000,14.816,,,340,,,,,,,,,,,wg-a,,,,AAXX 02034 07240 12356 83408 10090 20080 39996 40131 56004 60006 876// 90300=
07240,1998-05-02 06:00:00,9,1013.7,0.6,93,8,3500,11.112,,,340,8.6,11.7,,,,,,,,10,wg-a,,,,AAXX 02064 07240 02235 83406 10090 20080 30002 40137 53006 60006 71022 886// 90600 333 10117 20086 60004=
07240,1998-05-02 09:00:00,10,1014.4,0.8,93,9,10000,11.112,,,330,,,,,,,,,,,wg-a,,,,AAXX 02094 07240 12460 83306 10100 20090 30010 40144 51008 60006 876// 90900=
07240,1998-05-02 12:00:00,11,1014.7,0.3,87,9,20000,11.112,,,340,,,,,,,,,,,wg-a,,,,AAXX 02124 07240 12570 83406 10110 20090 30013 40147 51003 60006 875// 91200=
07240,1998-05-02 15:00:00,12,1014,-0.6,82,9,20000,11.112,,,340,,,,,,,,,,,wg-a,,,,AAXX 02154 07240 12470 83406 10120 20090 30007 40140 58006 60006 878// 91500=
07240,1998-05-02 18:00:00,11,1014.3,0.2,87,9,12000,14.816,,,350,8.8,12.6,,,,,,,,,wg-a,,,,AAXX 02184 07240 12462 83508 10110 20090 30009 40143 53002 60006 871// 91800 333 10126 20088=
07240,1998-05-02 21:00:00,10,1014.7,0.4,93,9,8000,14.816,,,20,,,,,,,,,,,wg-a,,,,AAXX 02214 07240 12458 80208 10100 20090 30013 40147 52004 60006 875// 92100=
07240,1998-05-03 03:00:00,8,1013.7,-0.6,93,7,500,22.224,,,30,,,,3,,,,,,60,wg-a,,,,AAXX 03034 07240 12300 80312 10080 20070 30002 40137 55006 60037 76066 887// 90300=
07240,1998-05-03 06:00:00,7,1013.7,-0.1,93,6,9000,18.52,,,10,6.5,11,,,,,,,,61,wg-a,,,,AAXX 03064 07240 02359 80110 10070 20060 30001 40137 55001 61000 76166 887// 90600 333 10110 20065 6008=
07240,1998-05-03 09:00:00,8,1014.1,0.5,87,6,12000,22.224,,,40,,,,,,,,,,1,wg-a,,,,AAXX 03094 07240 02462 80412 10080 20060 30006 40141 51005 61000 70162 878// 90900 333 ////=
07240,1998-05-03 12:00:00,10,1013.9,-0.1,82,7,20000,22.224,,,30,,,,,,,,,,3,wg-a,,,,AAXX 03124 07240 02570 80312 10100 20070 30005 40139 58001 61000 70362 878// 91200 333 ////=
07240,1998-05-03 15:00:00,12,1013.4,-0.4,71,7,500,18.52,,,40,,,,,,,,,,,wg-a,,,,AAXX 03154 07240 12500 70410 10120 20070 30001 40134 58004 60006 875// 91500=
07240,1998-05-03 18:00:00,12,1013.6,0.2,67,6,500,22.224,,,20,6.4,11.9,,,,,,,,,wg-a,,,,AAXX 03184 07240 12600 70212 10120 20060 30003 40136 53002 60006 875// 91800 333 10119 20064=
07240,1998-05-03 21:00:00,10,1015,1.3,76,6,20000,22.224,,,20,,,,,,,,,,,wg-a,,,,AAXX 03214 07240 12670 80212 10100 20060 30016 40150 51013 60006 875// 92100=
07240,1998-05-04 00:00:00,9,1015.8,0.7,81,6,20000,14.816,,,10,,,,,,,,,,,wg-a,,,,AAXX 04004 07240 12670 80108 10090 20060 30023 40158 51007 60006 875// 90000=
07240,1998-05-04 06:00:00,7,1015.8,0.8,81,4,20000,18.52,,,10,7.3,11.5,,,,,,,,,wg-a,,,,AAXX 04064 07240 02570 80110 10070 20040 30022 40158 53008 60006 885// 90600 333 10115 20073 61000=
07240,1998-05-04 09:00:00,8,1016.4,0.7,76,4,20000,25.928,,,10,,,,,,,,,,,wg-a,,,,AAXX 04094 07240 12570 /0114 10080 20040 30029 40164 53007 60006 86500 90900=
07240,1998-05-04 12:00:00,12,1015.9,-0.4,58,4,25000,18.52,,,10,,,,,,,,,,,wg-a,,,,AAXX 04124 07240 12675 40110 10120 20040 30025 40159 58004 60006 83101 91200=
07240,1998-05-04 15:00:00,14,1015,-0.7,55,5,25000,22.224,,,10,,,,,,,,,,,wg-a,,,,AAXX 04154 07240 12675 20112 10140 20050 30018 40150 58007 60006 81101 91500=
07240,1998-05-04 18:00:00,14,1014.9,-0.1,58,6,25000,18.52,,,350,7.3,14.9,,,,,,,,,wg-a,,,,AAXX 04184 07240 12675 /3510 10140 20060 30017 40149 55001 60006 81401 91800 333 10149 20073=
07240,1998-05-04 21:00:00,8,1017.1,1.8,87,6,20000,11.112,,,330,,,,,,,,,,,wg-a,,,,AAXX 04214 07240 12/70 13306 10080 20060 30035 40171 53018 60006 80001 92100=
07240,1998-05-05 00:00:00,5,1017.5,0.3,93,4,20000,11.112,,,340,,,,,,,,,,,wg-a,,,,AAXX 05004 07240 12/70 53406 10050 20040 30038 40175 51003 60006 80001 90000=
07240,1998-05-05 03:00:00,4,1017,-0.6,93,3,12000,11.112,,,330,,,,0,,,,,,,wg-a,,,,AAXX 05034 07240 12/62 13306 10040 20030 30032 40170 56006 60007 80001 90300=
07240,1998-05-05 06:00:00,5,1016.9,-0,93,4,8000,3.704,,,300,3,13.9,,,,,,,,,wg-a,,,,AAXX 05064 07240 02558 43002 10050 20040 30032 40169 55000 60006 84500 90600 333 10139 20030 60004=
07240,1998-05-05 09:00:00,11,1016.9,0.3,82,8,15000,7.408,,,260,,,,,,,,,,,wg-a,,,,AAXX 05094 07240 12765 72604 10110 20080 30035 40169 51003 60006 875// 90900=
07240,1998-05-05 12:00:00,14,1016.1,-0.6,67,8,15000,18.52,,,290,,,,,,,,,,,wg-a,,,,AAXX 05124 07240 12565 72910 10140 20080 30029 40161 56006 60006 878// 91200=
07240,1998-05-05 15:00:00,16,1014.8,-1.3,51,6,20000,18.52,,,270,,,,,,,,,,,wg-a,,,,AAXX 05154 07240 12670 32710 10160 20060 30016 40148 58013 60006 83800 91500=
07240,1998-05-05 18:00:00,15,1014.2,-0.6,59,7,25000,18.52,,,300,4.5,16.7,,,,,,,,,wg-a,,,,AAXX 05184 07240 12675 53010 10150 20070 30010 40142 56006 60006 83801 91800 333 10167 20045=
07240,1998-05-05 21:00:00,12,1014.7,0.4,76,8,25000,22.224,,,250,,,,,,,,,,,wg-a,,,,AAXX 05214 07240 12/75 72512 10120 20080 30014 40147 53004 60006 84032 92100=
07240,1998-05-06 00:00:00,10,1014.5,-0.3,87,8,15000,18.52,,,260,,,,,,,,,,,wg-a,,,,AAXX 06004 07240 12465 82610 10100 20080 30011 40145 56003 60006 8657/ 90000=
07240,1998-05-06 03:00:00,9,1014.1,-0.5,93,8,10000,18.52,,,250,,,,,,,,,,,wg-a,,,,AAXX 06034 07240 12460 82510 10090 20080 30006 40141 56005 60006 877// 90300=
07240,1998-05-06 06:00:00,10,1014.6,0.6,87,8,12000,18.52,,,250,8.6,14.4,,,,,,,,,wg-a,,,,AAXX 06064 07240 02462 72510 10100 20080 30012 40146 53006 60006 875// 90600 333 10144 20086 60004=
07240,1998-05-06 09:00:00,11,1015,0.4,82,8,12000,22.224,,,230,,,,,,,,,,,wg-a,,,,AAXX 06094 07240 12462 72312 10110 20080 30016 40150 51004 60006 878// 90900=
07240,1998-05-06 12:00:00,14,1015.4,0.5,67,8,12000,18.52,,,250,,,,,,,,,,,wg-a,,,,AAXX 06124 07240 12562 72510 10140 20080 30021 40154 50005 60006 878// 91200=
07240,1998-05-06 15:00:00,14,1015.1,-0.2,77,10,15000,25.928,,,240,,,,,,,,,,,wg-a,,,,AAXX 06154 07240 12565 72414 10140 20100 30019 40151 58002 60006 8683/ 91500=
07240,1998-05-06 18:00:00,13,1015.8,0.6,77,9,25000,14.816,,,270,9.7,15.4,,,,,,,,,wg-a,,,,AAXX 06184 07240 12675 72708 10130 20090 30025 40158 53006 60006 8653/ 91800 333 10154 20097=
07240,1998-05-07 00:00:00,11,1017.8,0.3,87,9,10000,11.112,,,230,,,,,,,,,,,wg-a,,,,AAXX 07004 07240 12660 /2306 10110 20090 30044 40178 53003 60006 86500 90000=
07240,1998-05-07 03:00:00,11,1017.7,-0.1,87,9,10000,11.112,,,220,,,,,,,,,,,wg-a,,,,AAXX 07034 07240 12660 /2206 10110 20090 30043 40177 57001 60006 86500 90300=
07240,1998-05-07 06:00:00,11,1018.5,0.8,87,9,10000,11.112,,,200,10.2,13.5,,,,,,,,,wg-a,,,,AAXX 07064 07240 02660 /2006 10110 20090 30051 40185 53008 60006 86500 90600 333 10135 20102 60004=
07240,1998-05-07 09:00:00,13,1019.1,0.7,67,7,15000,14.816,,,190,,,,,,,,,,,wg-a,,,,AAXX 07094 07240 12565 51908 10130 20070 30058 40191 51007 60006 85800 90900=
07240,1998-05-07 12:00:00,17,1019,0,59,9,20000,14.816,,,200,,,,,,,,,,,wg-a,,,,AAXX 07124 07240 12570 52008 10170 20090 30058 40190 50000 60006 85800 91200=
07240,1998-05-07 15:00:00,20,1017.9,-0.9,53,10,25000,11.112,,,220,,,,,,,,,,,wg-a,,,,AAXX 07154 07240 12/75 02206 10200 20100 30049 40179 56009 60006 80000 91500=
07240,1998-05-07 18:00:00,19,1017.7,-0.2,56,10,25000,7.408,,,140,10.6,20,,,,,,,,,wg-a,,,,AAXX 07184 07240 12/75 01404 10190 20100 30047 40177 56002 60006 80000 91800 333 10200 20106=
07240,1998-05-07 21:00:00,13,1018.7,0.7,82,10,20000,11.112,,,110,,,,,,,,,,,wg-a,,,,AAXX 07214 07240 12/70 01106 10130 20100 30054 40187 52007 60006 80000 92100=
07240,1998-05-08 00:00:00,13,1018.9,0.2,77,9,20000,14.816,,,130,,,,,,,,,,,wg-a,,,,AAXX 08004 07240 12/70 01308 10130 20090 30056 40189 50002 60006 80000 90000=
07240,1998-05-08 03:00:00,12,1018.8,-0.2,76,8,20000,11.112,,,140,,,,,,,,,,,wg-a,,,,AAXX 08034 07240 12/70 01406 10120 20080 30054 40188 55002 60006 80000 90300=
07240,1998-05-08 06:00:00,12,1019.4,0.6,82,9,20000,11.112,,,130,10.3,19.4,,,,,,,,,wg-a,,,,AAXX 08064 07240 02/70 61306 10120 20090 30060 40194 53006 60006 80002 90600 333 10194 20103 60004=
07240,1998-05-08 09:00:00,18,1019.6,0.5,59,10,20000,11.112,,,160,,,,,,,,,,,wg-a,,,,AAXX 08094 07240 12/70 31606 10180 20100 30065 40196 51005 60006 80002 90900=
07240,1998-05-08 12:00:00,23,1018.3,-1.1,50,12,500,11.112,,,130,,,,,,,,,,,wg-a,,,,AAXX 08124 07240 12/00 41306 10230 20120 30054 40183 58011 60006 80002 91200=
07240,1998-05-08 15:00:00,25,1017.6,-0.6,41,11,500,22.224,,,150,,,,,,,,,,,wg-a,,,,AAXX 08154 07240 12/00 61512 10250 20110 30048 40176 57006 60006 80002 91500=
07240,1998-05-08 18:00:00,24,1017.3,-0.3,50,13,25000,14.816,,,170,12,25.1,,,,,,,,,wg-a,,,,AAXX 08184 07240 12/75 61708 10240 20130 30045 40173 56003 60006 80002 91800 333 10251 20120=
07240,1998-05-08 21:00:00,18,1018.9,1.3,64,11,20000,14.816,,,160,,,,,,,,,,,wg-a,,,,AAXX 08214 07240 12/70 31608 10180 20110 30058 40189 51013 60006 80002 92100=
07240,1998-05-09 00:00:00,16,1019.6,0.6,63,9,20000,11.112,,,170,,,,,,,,,,,wg-a,,,,AAXX 09004 07240 12/70 41706 10160 20090 30064 40196 51006 60006 80002 90000=
07240,1998-05-09 03:00:00,14,1019.8,0.1,72,9,10000,7.408,,,150,,,,,,,,,,,wg-a,,,,AAXX 09034 07240 12/60 /1504 10140 20090 30065 40198 52001 60006 90300=
07240,1998-05-09 06:00:00,13,1020.9,1.1,82,10,20000,7.408,,,150,12.3,23.8,,,,,,,,14,wg-a,,,,AAXX 09064 07240 02/70 71504 10130 20100 30076 40209 53011 60006 71411 85082 90600 333 10238 20123 60004=
07240,1998-05-09 09:00:00,17,1021.3,0.5,63,10,25000,11.112,,,180,,,,,,,,,,80,wg-a,,,,AAXX 09094 07240 02/75 /1806 10170 20100 30081 40213 53005 61000 78086 86092 90900 333 ////=
07240,1998-05-09 12:00:00,24,1020.3,-0.6,50,13,500,11.112,,,150,,,,,,,,,,1,wg-a,,,,AAXX 09124 07240 02/00 21506 10240 20130 30075 40203 58006 61000 70186 82030 91200 333 ////=
07240,1998-05-09 15:00:00,26,1019,-1.2,45,13,500,11.112,,,160,,,,,,,,,,,wg-a,,,,AAXX 09154 07240 12/00 11606 10260 20130 30063 40190 58012 60006 80001 91500=
07240,1998-05-09 18:00:00,25,1018,-1.1,41,11,500,14.816,,,140,13.2,26.3,,,,,,,,,wg-a,,,,AAXX 09184 07240 12700 31408 10250 20110 30052 40180 56011 60006 81231 91800 333 10263 20132=
07240,1998-05-10 00:00:00,15,1018.1,-0.7,77,11,10000,11.112,,,90,,,,,,,,,,,wg-a,,,,AAXX 10004 07240 12/60 /0906 10150 20110 30049 40181 57007 60006 90000=
07240,1998-05-10 03:00:00,13,1017.5,-0.7,88,11,500,7.408,,,120,,,,,,,,,,,wg-a,,,,AAXX 10034 07240 12/00 11204 10130 20110 30042 40175 56007 60006 80001 90300=
07240,1998-05-10 06:00:00,15,1017.4,-0,82,12,20000,11.112,,,130,11.5,25.2,,,,,,,,,wg-a,,,,AAXX 10064 07240 02/70 61306 10150 20120 30042 40174 55000 60006 80001 90600 333 10252 20115 61000=
07240,1998-05-10 09:00:00,21,1016.5,-0.6,56,12,500,7.408,,,150,,,,,,,,,,,wg-a,,,,AAXX 10094 07240 12/00 31504 10210 20120 30036 40165 58006 60006 80001 90900=
07240,1998-05-10 12:00:00,26,1015.4,-0.9,39,11,500,11.112,,,160,,,,,,,,,,,wg-a,,,,AAXX 10124 07240 12700 51606 10260 20110 30027 40154 57009 60006 81102 91200=
07240,1998-05-10 15:00:00,27,1013.3,-2,48,15,500,11.112,,,90,,,,,,,,,,,wg-a,,,,AAXX 10154 07240 12/00 70906 10270 20150 30007 40133 56020 60006 80002 91500=
07240,1998-05-10 18:00:00,24,1012.4,-1,57,15,500,7.408,,,80,14.5,27.3,,,,,,,,,wg-a,,,,AAXX 10184 07240 12/00 50804 10240 20150 39997 40124 56010 60006 80002 91800 333 10273 20145=
07240,1998-05-10 21:00:00,18,1012.8,0.1,83,15,15000,0,,,0,,,,,,,,,,,wg-a,,,,AAXX 10214 07240 12/65 40000 10180 20150 39998 40128 53001 60006 80002 92100=
07240,1998-05-11 00:00:00,16,1011.8,-1.1,77,12,15000,11.112,,,70,,,,,,,,,,,wg-a,,,,AAXX 11004 07240 12/65 40706 10160 20120 39987 40118 58011 60006 80002 90000=
07240,1998-05-11 03:00:00,14,1011.9,-0,88,12,15000,7.408,,,110,,,,,,,,,,,wg-a,,,,AAXX 11034 07240 12/65 41104 10140 20120 39987 40119 55000 60006 83032 90300=
07240,1998-05-11 06:00:00,16,1012.6,0.8,72,11,15000,11.112,,,150,13.3,24.4,,,,,,,,,wg-a,,,,AAXX 11064 07240 02/65 31506 10160 20110 39995 40126 53008 60006 81082 90600 333 10244 20133 60004=
07240,1998-05-11 09:00:00,22,1012.9,0.6,41,8,20000,18.52,,,200,,,,,,,,,,,wg-a,,,,AAXX 11094 07240 12/70 42010 10220 20080 30001 40129 53006 60006 80002 90900=
07240,1998-05-11 12:00:00,24,1012.7,-0.2,41,10,20000,14.816,,,180,,,,,,,,,,,wg-a,,,,AAXX 11124 07240 12/70 71808 10240 20100 39999 40127 56002 60006 80002 91200=
07240,1998-05-11 15:00:00,26,1012.3,-0.3,45,13,20000,14.816,,,150,,,,,,,,,,,wg-a,,,,AAXX 11154 07240 12/70 51508 10260 20130 39996 40123 58003 60006 80002 91500=
07240,1998-05-11 18:00:00,24,1012,-0.3,57,15,500,7.408,,,110,15.8,26.2,,,,,,,,,wg-a,,,,AAXX 11184 07240 12/00 31104 10240 20150 39993 40120 56003 60006 82072 91800 333 10262 20158=
07240,1998-05-11 21:00:00,18,1013.4,1.1,77,14,20000,3.704,,,60,,,,,,,,,,,wg-a,,,,AAXX 11214 07240 12/70 50602 10180 20140 30004 40134 52011 60006 82072 92100=
07240,1998-05-12 00:00:00,16,1014.4,0.9,82,13,20000,11.112,,,300,,,,,,,,,,,wg-a,,,,AAXX 12004 07240 12/70 73006 10160 20130 30013 40144 52009 60006 85072 90000=
07240,1998-05-12 03:00:00,14,1014.3,-0.2,82,11,20000,7.408,,,340,,,,,,,,,,,wg-a,,,,AAXX 12034 07240 12/70 73404 10140 20110 30011 40143 58002 60006 85072 90300=
07240,1998-05-12 06:00:00,15,1015.5,1.2,88,13,15000,7.408,,,270,13.4,24,,,,,,,,,wg-a,,,,AAXX 12064 07240 02/65 72704 10150 20130 30023 40155 51012 60006 84072 90600 333 10240 20134 60004=
07240,1998-05-12 09:00:00,21,1015.7,0.5,60,13,15000,3.704,,,240,,,,,,,,,,,wg-a,,,,AAXX 12094 07240 12/65 62402 10210 20130 30028 40157 51005 60006 83072 90900=
07240,1998-05-12 12:00:00,25,1015.7,0.2,47,13,20000,7.408,,,160,,,,,,,,,,,wg-a,,,,AAXX 12124 07240 12/70 51604 10250 20130 30030 40157 50002 60006 80002 91200=
07240,1998-05-12 15:00:00,26,1015.7,-0,39,11,20000,11.112,,,150,,,,,,,,,,,wg-a,,,,AAXX 12154 07240 12770 61506 10260 20110 30030 40157 55000 60006 81132 91500=
07240,1998-05-12 18:00:00,23,1015.9,0.1,50,12,25000,7.408,,,150,15.3,26.3,,,,,,,,,wg-a,,,,AAXX 12184 07240 12/75 71504 10230 20120 30031 40159 53001 60006 82082 91800 333 10263 20153=
07240,1998-05-12 21:00:00,17,1017.5,1.3,72,12,20000,0,,,0,,,,,,,,,,,wg-a,,,,AAXX 12214 07240 12/70 50000 10170 20120 30044 40175 52013 60006 81031 92100=
07240,1998-05-13 00:00:00,14,1017.6,-0,88,12,20000,14.816,,,70,,,,,,,,,,,wg-a,,,,AAXX 13004 07240 12/70 70708 10140 20120 30044 40176 54000 60006 81031 90000=
07240,1998-05-13 03:00:00,15,1017.7,0.1,88,13,10000,7.408,,,220,,,,,,,,,,,wg-a,,,,AAXX 13034 07240 12/60 /2204 10150 20130 30045 40177 52001 60006 90300=
07240,1998-05-13 06:00:00,16,1018.2,0.5,88,14,15000,0,,,0,13.5,23.3,,,,,,,,,wg-a,,,,AAXX 13064 07240 02/65 50000 10160 20140 30050 40182 53005 60006 83031 90600 333 10233 20135 60004=
07240,1998-05-13 09:00:00,23,1018,0.2,65,16,18000,7.408,,,300,,,,,,,,,,,wg-a,,,,AAXX 13094 07240 12/68 53004 10230 20160 30052 40180 51002 60006 83031 90900=
07240,1998-05-13 12:00:00,26,1017.7,-0.2,48,14,20000,11.112,,,250,,,,,,,,,,,wg-a,,,,AAXX 13124 07240 12/70 62506 10260 20140 30050 40177 56002 60006 82032 91200=
07240,1998-05-13 15:00:00,26,1016.9,-0.8,54,16,20000,7.408,,,310,,,,,,,,,,,wg-a,,,,AAXX 13154 07240 12770 73104 10260 20160 30042 40169 56008 60006 81182 91500=
07240,1998-05-13 18:00:00,26,1016.5,-0.4,51,15,20000,11.112,,,20,15.9,28,,,,,,,,,wg-a,,,,AAXX 13184 07240 12770 60206 10260 20150 30038 40165 55004 60006 81182 91800 333 10280 20159=
07240,1998-05-13 21:00:00,21,1017.7,1,73,16,20000,3.704,,,40,,,,,,,,,,,wg-a,,,,AAXX 13214 07240 12/70 60402 10210 20160 30048 40177 51010 60006 83082 92100=
07240,1998-05-14 00:00:00,17,1017.7,-0.2,82,14,0,3.704,,,60,,,,,,,,,,,wg-a,,,,AAXX 14004 07240 12/// /0602 10170 20140 30046 40177 58002 60006 90000=
07240,1998-05-14 03:00:00,16,1017.1,-0.7,88,14,20000,3.704,,,340,,,,,,,,,,,wg-a,,,,AAXX 14034 07240 12/70 53402 10160 20140 30039 40171 57007 60006 85080 90300=
07240,1998-05-14 06:00:00,18,1017.4,0.5,88,16,15000,7.408,,,170,14.8,25.5,,,,,,,,21,wg-a,,,,AAXX 14064 07240 02/65 61704 10180 20160 30044 40174 53005 61000 72161 86070 90600 333 10255 20148 6000=
07240,1998-05-14 09:00:00,23,1017.5,0.3,65,16,15000,7.408,,,340,,,,,,,,,,,wg-a,,,,AAXX 14094 07240 12865 23404 10230 20160 30047 40175 50003 60006 81530 90900=
07240,1998-05-14 12:00:00,26,1016.8,-0.6,54,16,25000,14.816,,,50,,,,,,,,,,,wg-a,,,,AAXX 14124 07240 12/75 20508 10260 20160 30041 40168 57006 60006 81031 91200=
07240,1998-05-14 15:00:00,27,1015.8,-0.9,51,16,25000,14.816,,,40,,,,,,,,,,,wg-a,,,,AAXX 14154 07240 12775 10408 10270 20160 30032 40158 56009 60006 81100 91500=
07240,1998-05-14 18:00:00,25,1015.2,-0.7,57,16,25000,14.816,,,30,18.3,27.1,,,,,,,,,wg-a,,,,AAXX 14184 07240 12/75 30308 10250 20160 30025 40152 56007 60006 81033 91800 333 10271 20183=
07240,1998-05-14 21:00:00,21,1016.2,0.8,73,16,25000,18.52,,,20,,,,,,,,,,,wg-a,,,,AAXX 14214 07240 12/75 50210 10210 20160 30033 40162 51008 60006 82032 92100=
07240,1998-05-15 00:00:00,17,1017.1,0.7,88,15,20000,7.408,,,350,,,,,,,,,,1,wg-a,,,,AAXX 15004 07240 12770 53504 10170 20150 30040 40171 51007 60006 70191 85500 90000=
07240,1998-05-15 06:00:00,18,1016.4,0.3,94,17,1500,14.816,,,40,15.4,24.7,,,,,,,,10,wg-a,,,,AAXX 15064 07240 02/15 /0408 10180 20170 30034 40164 53003 60006 71011 81030 90600 333 10247 20154 60004=
07240,1998-05-15 09:00:00,23,1016.5,0.3,69,17,15000,14.816,,,60,,,,,,,,,,,wg-a,,,,AAXX 15094 07240 12/65 10608 10230 20170 30037 40165 51003 60006 81030 90900=
07240,1998-05-15 12:00:00,25,1016,-0.4,50,14,25000,22.224,,,50,,,,,,,,,,,wg-a,,,,AAXX 15124 07240 12/75 00512 10250 20140 30033 40160 58004 60006 80000 91200=
07240,1998-05-15 15:00:00,25,1015.2,-0.9,39,10,25000,25.928,,,30,,,,,,,,,,,wg-a,,,,AAXX 15154 07240 12/75 10314 10250 20100 30024 40152 58009 60006 81030 91500=
07240,1998-05-15 18:00:00,23,1015.2,-0,38,8,25000,14.816,,,50,17.7,25.2,,,,,,,,,wg-a,,,,AAXX 15184 07240 12/75 20508 10230 20080 30024 40152 55000 60006 81031 91800 333 10252 20177=
07240,1998-05-15 21:00:00,17,1016.7,1.2,63,10,15000,11.112,,,20,,,,,,,,,,,wg-a,,,,AAXX 15214 07240 12/65 10206 10170 20100 30036 40167 53012 60006 80001 92100=
07240,1998-05-16 03:00:00,12,1016.6,-0.4,82,9,10000,7.408,,,10,,,,,,,,,,,wg-a,,,,AAXX 16034 07240 12/60 00104 10120 20090 30032 40166 56004 60006 80000 90300=
07240,1998-05-16 06:00:00,15,1017.2,0.8,67,9,20000,14.816,,,40,10.9,22.9,,,,,,,,,wg-a,,,,AAXX 16064 07240 02/70 00408 10150 20090 30040 40172 53008 60006 80000 90600 333 10229 20109 60004=
07240,1998-05-16 15:00:00,24,1017.2,-0.3,44,11,500,22.224,,,40,,,,,,,,,,,wg-a,,,,AAXX 16154 07240 12700 10412 10240 20110 30044 40172 57003 60006 81101 91500=
07240,1998-05-16 18:00:00,22,1017,-0.3,53,12,500,14.816,,,60,15.4,24,,,,,,,,,wg-a,,,,AAXX 16184 07240 12/00 30608 10220 20120 30041 40170 55003 60006 80001 91800 333 10240 20154=
07240,1998-05-16 21:00:00,16,1018.5,1.2,63,9,500,11.112,,,40,,,,,,,,,,,wg-a,,,,AAXX 16214 07240 12/00 30406 10160 20090 30053 40185 52012 60006 80001 92100=
07240,1998-05-17 00:00:00,12,1018.7,0,88,10,500,7.408,,,360,,,,,,,,,,,wg-a,,,,AAXX 17004 07240 12/00 33604 10120 20100 30053 40187 50000 60006 80001 90000=
07240,1998-05-17 03:00:00,12,1018.8,0.1,88,10,20000,11.112,,,40,,,,,,,,,,,wg-a,,,,AAXX 17034 07240 12/70 20406 10120 20100 30054 40188 50001 60006 80001 90300=
07240,1998-05-17 06:00:00,13,1019.9,1.1,82,10,15000,11.112,,,50,10.7,21.7,,,,,,,,,wg-a,,,,AAXX 17064 07240 02/65 00506 10130 20100 30065 40199 53011 60006 80000 90600 333 10217 20107 60004=
07240,1998-05-17 09:00:00,19,1020.6,1,52,9,25000,18.52,,,50,,,,,,,,,,,wg-a,,,,AAXX 17094 07240 12/75 00510 10190 20090 30075 40206 51010 60006 80000 90900=
07240,1998-05-17 12:00:00,22,1020.3,-0.2,41,8,500,18.52,,,80,,,,,,,,,,,wg-a,,,,AAXX 17124 07240 12/00 10810 10220 20080 30073 40203 58002 60006 80001 91200=
07240,1998-05-17 15:00:00,23,1019.6,-0.6,41,9,500,22.224,,,40,,,,,,,,,,,wg-a,,,,AAXX 17154 07240 12/00 10412 10230 20090 30067 40196 58006 60006 80001 91500=
07240,1998-05-17 18:00:00,21,1020,0.3,43,8,500,14.816,,,40,12.6,23.1,,,,,,,,,wg-a,,,,AAXX 17184 07240 12/00 00408 10210 20080 30070 40200 52003 60006 80000 91800 333 10231 20126=
07240,1998-05-17 21:00:00,16,1021.6,1.4,59,8,500,14.816,,,50,,,,,,,,,,,wg-a,,,,AAXX 17214 07240 12/00 00508 10160 20080 30084 40216 53014 60006 80000 92100=
07240,1998-05-18 00:00:00,13,1022.1,0.3,77,9,500,14.816,,,60,,,,,,,,,,,wg-a,,,,AAXX 18004 07240 12/00 00608 10130 20090 30087 40221 51003 60006 80000 90000=
07240,1998-05-18 06:00:00,13,1023.8,1.3,77,9,20000,14.816,,,70,9.9,21.3,,,,,,,,,wg-a,,,,AAXX 18064 07240 02/70 00708 10130 20090 30104 40238 53013 60006 80000 90600 333 10213 20099 60004=
07240,1998-05-18 09:00:00,19,1024.2,0.7,52,9,25000,18.52,,,80,,,,,,,,,,,wg-a,,,,AAXX 18094 07240 12/75 10810 10190 20090 30111 40242 51007 60006 80001 90900=
07240,1998-05-18 12:00:00,21,1023.4,-0.7,46,9,500,25.928,,,60,,,,,,,,,,,wg-a,,,,AAXX 18124 07240 12600 20614 10210 20090 30104 40234 58007 60006 81101 91200=
07240,1998-05-18 15:00:00,23,1022.7,-0.7,38,8,500,22.224,,,50,,,,,,,,,,,wg-a,,,,AAXX 18154 07240 12700 20512 10230 20080 30097 40227 57007 60006 81101 91500=
07240,1998-05-18 18:00:00,21,1022.7,-0,46,9,500,18.52,,,50,12.8,22.8,,,,,,,,,wg-a,,,,AAXX 18184 07240 12/00 20510 10210 20090 30097 40227 55000 60006 80001 91800 333 10228 20128=
07240,1998-05-18 21:00:00,15,1023.9,0.9,67,9,20000,11.112,,,50,,,,,,,,,,,wg-a,,,,AAXX 18214 07240 12/70 00506 10150 20090 30106 40239 53009 60006 80000 92100=
07240,1998-05-19 00:00:00,13,1024.1,0.1,72,8,20000,14.816,,,60,,,,,,,,,,,wg-a,,,,AAXX 19004 07240 12/70 00608 10130 20080 30107 40241 51001 60006 80000 90000=
07240,1998-05-19 03:00:00,11,1024.3,0.1,82,8,20000,14.816,,,60,,,,,,,,,,,wg-a,,,,AAXX 19034 07240 12/70 00608 10110 20080 30108 40243 53001 60006 80000 90300=
07240,1998-05-19 06:00:00,13,1024.7,0.5,77,9,20000,18.52,,,70,10.9,21,,,,,,,,,wg-a,,,,AAXX 19064 07240 02/70 00710 10130 20090 30113 40247 53005 60006 80000 90600 333 10210 20109 60004=
07240,1998-05-19 09:00:00,20,1024.3,-0.1,53,10,20000,22.224,,,80,,,,,,,,,,,wg-a,,,,AAXX 19094 07240 12/70 00812 10200 20100 30112 40243 58001 60006 80000 90900=
07240,1998-05-19 12:00:00,23,1022.9,-1.2,36,7,25000,25.928,,,90,,,,,,,,,,,wg-a,,,,AAXX 19124 07240 12775 10914 10230 20070 30100 40229 58012 60006 81100 91200=
07240,1998-05-19 15:00:00,24,1021.7,-1.2,38,9,25000,22.224,,,60,,,,,,,,,,,wg-a,,,,AAXX 19154 07240 12775 20612 10240 20090 30088 40217 56012 60006 82100 91500=
07240,1998-05-19 18:00:00,22,1020.8,-0.9,43,9,25000,14.816,,,40,12.9,23.9,,,,,,,,,wg-a,,,,AAXX 19184 07240 12775 10408 10220 20090 30079 40208 56009 60006 81100 91800 333 10239 20129=
07240,1998-05-19 21:00:00,15,1021.7,0.5,72,10,20000,11.112,,,50,,,,,,,,,,,wg-a,,,,AAXX 19214 07240 12/70 00506 10150 20100 30084 40217 53005 60006 80000 92100=
07240,1998-05-20 00:00:00,15,1021.4,-0.3,67,9,20000,14.816,,,40,,,,,,,,,,,wg-a,,,,AAXX 20004 07240 12/70 00408 10150 20090 30081 40214 58003 60006 80000 90000=
07240,1998-05-20 03:00:00,14,1020.9,-0.5,77,10,20000,22.224,,,50,,,,,,,,,,,wg-a,,,,AAXX 20034 07240 12/70 00512 10140 20100 30076 40209 58005 60006 80000 90300=
07240,1998-05-20 06:00:00,14,1021.1,0.2,77,10,10000,18.52,,,60,12.9,22.2,,,,,,,,,wg-a,,,,AAXX 20064 07240 02/60 00610 10140 20100 30078 40211 53002 60006 80000 90600 333 10222 20129 60004=
07240,1998-05-20 09:00:00,20,1020.9,0.1,60,12,10000,14.816,,,40,,,,,,,,,,,wg-a,,,,AAXX 20094 07240 12/60 00408 10200 20120 30079 40209 50001 60006 80000 90900=
07240,1998-05-20 12:00:00,23,1020.2,-0.6,38,8,12000,22.224,,,40,,,,,,,,,,,wg-a,,,,AAXX 20124 07240 12/62 00412 10230 20080 30073 40202 58006 60006 80000 91200=
07240,1998-05-20 15:00:00,24,1019.3,-0.9,38,9,15000,18.52,,,20,,,,,,,,,,,wg-a,,,,AAXX 20154 07240 12765 10210 10240 20090 30064 40193 58009 60006 81100 91500=
07240,1998-05-20 18:00:00,22,1018.8,-0.5,43,9,15000,14.816,,,30,14.2,24.1,,,,,,,,,wg-a,,,,AAXX 20184 07240 12/65 10308 10220 20090 30059 40188 55005 60006 80001 91800 333 10241 20142=
07240,1998-05-20 21:00:00,16,1020,1,68,10,15000,7.408,,,20,,,,,,,,,,,wg-a,,,,AAXX 20214 07240 12/65 10204 10160 20100 30068 40200 51010 60006 80001 92100=
07240,1998-05-21 00:00:00,15,1020.2,0.1,77,11,15000,14.816,,,20,,,,,,,,,,,wg-a,,,,AAXX 21004 07240 12/65 10208 10150 20110 30069 40202 50001 60006 80001 90000=
07240,1998-05-21 03:00:00,12,1020.1,-0.2,88,10,10000,7.408,,,360,,,,,,,,,,,wg-a,,,,AAXX 21034 07240 12/60 13604 10120 20100 30067 40201 56002 60006 80001 90300=
07240,1998-05-21 06:00:00,13,1020.9,0.8,88,11,10000,7.408,,,350,10.6,22,,,,,,,,,wg-a,,,,AAXX 21064 07240 02/60 13504 10130 20110 30075 40209 52008 60006 80001 90600 333 10220 20106 60004=
07240,1998-05-21 09:00:00,19,1020.6,0.1,68,13,10000,11.112,,,10,,,,,,,,,,,wg-a,,,,AAXX 21094 07240 12/60 20106 10190 20130 30076 40206 52001 60006 80001 90900=
07240,1998-05-21 12:00:00,23,1020.1,-0.4,47,11,20000,11.112,,,330,,,,,,,,,,,wg-a,,,,AAXX 21124 07240 12770 23306 10230 20110 30072 40201 58004 60006 82101 91200=
07240,1998-05-21 15:00:00,21,1019.5,-0.7,53,11,20000,7.408,,,20,,,,,,,,,,29,wg-a,,,,AAXX 21154 07240 02670 70204 10210 20110 30065 40195 56007 61000 72998 863// 91500 333 ////=
07240,1998-05-21 18:00:00,19,1019.4,-0.1,68,13,20000,18.52,,,100,12.7,24.2,,,,,,,,3,wg-a,,,,AAXX 21184 07240 12770 71010 10190 20130 30064 40194 55001 60006 70398 878// 91800 333 10242 20127=
07240,1998-05-21 21:00:00,16,1021.2,1.6,77,12,20000,14.816,,,20,,,,,,,,,,,wg-a,,,,AAXX 21214 07240 12/70 50208 10160 20120 30080 40212 53016 60006 80002 92100=
07240,1998-05-22 00:00:00,13,1022.3,0.9,88,11,15000,11.112,,,40,,,,,,,,,,,wg-a,,,,AAXX 22004 07240 12/65 40406 10130 20110 30089 40223 52009 60006 80002 90000=
07240,1998-05-22 03:00:00,10,1023.2,0.8,87,8,10000,18.52,,,40,,,,,,,,,,,wg-a,,,,AAXX 22034 07240 12/60 /0410 10100 20080 30097 40232 52008 60006 90300=
07240,1998-05-22 06:00:00,9,1024.2,0.9,87,7,18000,14.816,,,40,8.8,19.2,,,,,,,,,wg-a,,,,AAXX 22064 07240 02/68 40408 10090 20070 30106 40242 53009 60006 80002 90600 333 10192 20088 61000=
07240,1998-05-22 09:00:00,13,1024.5,0.5,62,6,20000,25.928,,,50,,,,,,,,,,,wg-a,,,,AAXX 22094 07240 12570 60514 10130 20060 30111 40245 50005 60006 83102 90900=
07240,1998-05-22 12:00:00,16,1023.9,-0.5,51,6,500,22.224,,,70,,,,,,,,,,,wg-a,,,,AAXX 22124 07240 12600 50712 10160 20060 30106 40239 57005 60006 82102 91200=
07240,1998-05-22 15:00:00,16,1023.4,-0.5,51,6,500,18.52,,,50,,,,,,,,,,,wg-a,,,,AAXX 22154 07240 12600 50510 10160 20060 30101 40234 58005 60006 83502 91500=
07240,1998-05-22 18:00:00,15,1022.9,-0.5,55,6,500,18.52,,,50,8.9,16.8,,,,,,,,,wg-a,,,,AAXX 22184 07240 12700 20510 10150 20060 30096 40229 56005 60006 82502 91800 333 10168 20089=
07240,1998-05-22 21:00:00,11,1023.8,0.7,71,6,15000,11.112,,,30,,,,,,,,,,,wg-a,,,,AAXX 22214 07240 12/65 10306 10110 20060 30103 40238 53007 60006 80002 92100=
07240,1998-05-23 00:00:00,9,1024.1,0.2,76,5,15000,11.112,,,40,,,,,,,,,,,wg-a,,,,AAXX 23004 07240 12/65 00406 10090 20050 30105 40241 50002 60006 80000 90000=
07240,1998-05-23 06:00:00,8,1023.3,-0.1,71,3,20000,18.52,,,30,6,15.2,,,,,,,,,wg-a,,,,AAXX 23064 07240 02/70 00310 10080 20030 30097 40233 56001 60006 80000 90600 333 10152 20060 60004=
07240,1998-05-23 09:00:00,13,1022.9,-0.2,62,6,20000,22.224,,,50,,,,,,,,,,,wg-a,,,,AAXX 23094 07240 12570 /0512 10130 20060 30095 40229 58002 60006 81100 90900=
07240,1998-05-23 12:00:00,16,1021.6,-1.2,45,4,500,25.928,,,20,,,,,,,,,,,wg-a,,,,AAXX 23124 07240 12/00 00214 10160 20040 30083 40216 58012 60006 80000 91200=
07240,1998-05-23 15:00:00,18,1019.9,-1.5,45,6,500,25.928,,,50,,,,,,,,,,,wg-a,,,,AAXX 23154 07240 12700 10514 10180 20060 30068 40199 56015 60006 81100 91500=
07240,1998-05-23 18:00:00,17,1018.8,-1.1,48,6,500,18.52,,,40,8,18.4,,,,,,,,,wg-a,,,,AAXX 23184 07240 12700 20410 10170 20060 30057 40188 56011 60006 82500 91800 333 10184 20080=
07240,1998-05-23 21:00:00,14,1019.1,0.1,67,8,10000,7.408,,,20,,,,,,,,,,,wg-a,,,,AAXX 23214 07240 12/60 /0204 10140 20080 30058 40191 53001 60006 92100=
07240,1998-05-24 00:00:00,11,1018.7,-0.5,82,8,10000,11.112,,,350,,,,,,,,,,,wg-a,,,,AAXX 24004 07240 12/60 /3506 10110 20080 30053 40187 57005 60006 90000=
07240,1998-05-24 03:00:00,10,1017.6,-1.2,87,8,8000,7.408,,,350,,,,,,,,,,,wg-a,,,,AAXX 24034 07240 12758 73504 10100 20080 30041 40176 58012 60006 875// 90300=
07240,1998-05-24 06:00:00,11,1017,-0.5,87,9,10000,3.704,,,350,8.9,17.6,,,,,,,,,wg-a,,,,AAXX 24064 07240 02660 73502 10110 20090 30036 40170 55005 60006 875// 90600 333 10176 20089 60004=
07240,1998-05-24 09:00:00,16,1016.6,-0.2,68,10,15000,11.112,,,330,,,,,,,,,,,wg-a,,,,AAXX 24094 07240 12565 53306 10160 20100 30034 40166 58002 60006 85800 90900=
07240,1998-05-24 12:00:00,17,1016.1,-0.4,59,9,15000,18.52,,,340,,,,,,,,,,,wg-a,,,,AAXX 24124 07240 12665 73410 10170 20090 30030 40161 56004 60006 87800 91200=
07240,1998-05-24 15:00:00,18,1014.9,-1.2,56,9,20000,14.816,,,350,,,,,,,,,,,wg-a,,,,AAXX 24154 07240 12670 73508 10180 20090 30018 40149 57012 60006 878// 91500=
07240,1998-05-24 18:00:00,18,1013.8,-1,56,9,20000,11.112,,,340,10.8,19.1,,,,,,,,,wg-a,,,,AAXX 24184 07240 12770 23406 10180 20090 30008 40138 56010 60006 81231 91800 333 10191 20108=
07240,1998-05-24 21:00:00,13,1015,0.9,82,10,20000,7.408,,,340,,,,,,,,,,,wg-a,,,,AAXX 24214 07240 12/70 33404 10130 20100 30017 40150 53009 60006 82031 92100=
07240,1998-05-25 00:00:00,10,1014.9,-0.2,93,9,10000,7.408,,,340,,,,,,,,,,,wg-a,,,,AAXX 25004 07240 12/60 /3404 10100 20090 30015 40149 58002 60006 90000=
07240,1998-05-25 03:00:00,8,1014.2,-0.8,100,8,7000,7.408,,,330,,,,,,,,,,,wg-a,,,,AAXX 25034 07240 12/57 03304 10080 20080 30007 40142 57008 60006 80000 90300=
07240,1998-05-25 06:00:00,10,1014.2,0.1,93,9,2300,7.408,,,320,7.9,18.2,,,,,,,,10,wg-a,,,,AAXX 25064 07240 02623 23204 10100 20090 30008 40142 53001 60006 71000 82500 90600 333 10182 20079 60004=
07240,1998-05-25 09:00:00,17,1013.6,-0.3,72,12,15000,0,,,0,,,,,,,,,,,wg-a,,,,AAXX 25094 07240 12565 30000 10170 20120 30005 40136 58003 60006 83800 90900=
07240,1998-05-25 12:00:00,19,1012.6,-0.9,60,11,18000,18.52,,,290,,,,,,,,,,,wg-a,,,,AAXX 25124 07240 12668 62910 10190 20110 39996 40126 57009 60006 86800 91200=
07240,1998-05-25 15:00:00,19,1011.5,-1.1,60,11,20000,22.224,,,320,,,,,,,,,,,wg-a,,,,AAXX 25154 07240 12670 43212 10190 20110 39985 40115 56011 60006 84800 91500=
07240,1998-05-25 18:00:00,16,1011,-0.6,63,9,20000,22.224,,,320,9.8,19.6,,,,,,,,,wg-a,,,,AAXX 25184 07240 12670 33212 10160 20090 39979 40110 57006 60006 82830 91800 333 10196 20098=
07240,1998-05-25 21:00:00,11,1011.2,-0,82,8,20000,11.112,,,270,,,,,,,,,,,wg-a,,,,AAXX 25214 07240 12/70 42706 10110 20080 39979 40112 55000 60006 82031 92100=
07240,1998-05-26 00:00:00,11,1010.3,-0.9,87,9,20000,14.816,,,250,,,,,,,,,,,wg-a,,,,AAXX 26004 07240 12/70 32508 10110 20090 39970 40103 58009 60006 80001 90000=
07240,1998-05-26 06:00:00,12,1009.3,0.1,94,11,6000,11.112,,,250,9.9,15.9,,,,,,,,21,wg-a,,,,AAXX 26064 07240 02356 82506 10120 20110 39961 40093 53001 61000 72161 875// 90600 333 10159 20099 6000=
07240,1998-05-26 09:00:00,13,1009.2,-0.1,94,12,10000,11.112,,,200,,,,2,,,,,,3,wg-a,,,,AAXX 26094 07240 12360 72006 10130 20120 39960 40092 56001 60027 70362 875// 90900=
07240,1998-05-26 12:00:00,14,1008.6,-0.5,88,12,10000,7.408,,,330,,,,1,,,,,,60,wg-a,,,,AAXX 26124 07240 02460 73304 10140 20120 39955 40086 58005 60026 76062 87800 91200 333 60017=
07240,1998-05-26 15:00:00,16,1007.6,-0.9,72,11,15000,22.224,,,260,,,,1,,,,,,3,wg-a,,,,AAXX 26154 07240 12565 72612 10160 20110 39946 40076 56009 60017 70362 878// 91500=
07240,1998-05-26 18:00:00,17,1006.9,-0.7,59,9,20000,14.816,,,260,11.6,18.6,,,,,,,,3,wg-a,,,,AAXX 26184 07240 12570 /2608 10170 20090 39939 40069 56007 60006 70362 86801 91800 333 10186 20116=
07240,1998-05-26 21:00:00,14,1007.8,0.8,77,10,10000,14.816,,,230,,,,,,,,,,,wg-a,,,,AAXX 26214 07240 12660 /2308 10140 20100 39947 40078 52008 60006 86500 92100=
07240,1998-05-27 00:00:00,13,1007.9,0,82,10,10000,11.112,,,230,,,,,,,,,,,wg-a,,,,AAXX 27004 07240 12760 62306 10130 20100 39947 40079 50000 60006 86500 90000=
07240,1998-05-27 03:00:00,11,1006.9,-1,94,10,10000,14.816,,,200,,,,,,,,,,,wg-a,,,,AAXX 27034 07240 12760 42008 10110 20100 39937 40069 58010 60006 84500 90300=
07240,1998-05-27 06:00:00,12,1007,0.1,88,10,10000,11.112,,,190,10.7,16.8,,,,,3,,,,wg-a,,,,AAXX 27064 07240 02260 71906 10120 20100 39938 40070 53001 60006 878// 90600 333 10168 20107 60034=
07240,1998-05-27 09:00:00,14,1006.7,-0.2,82,11,15000,18.52,,,190,,,,0,,,,,,3,wg-a,,,,AAXX 27094 07240 12465 71910 10140 20110 39936 40067 56002 60007 70362 875// 90900=
07240,1998-05-27 12:00:00,15,1005.8,-0.9,82,12,15000,11.112,,,200,,,,,,,,,,25,wg-a,,,,AAXX 27124 07240 02565 72006 10150 20120 39927 40058 58009 60006 72586 878// 91200 333 61000=
07240,1998-05-27 15:00:00,16,1005.2,-0.5,77,12,500,14.816,,,210,,,,5,,,,,,25,wg-a,,,,AAXX 27154 07240 12400 72108 10160 20120 39922 40052 58005 60057 72586 85804 91500=
07240,1998-05-27 18:00:00,14,1005.1,-0.2,88,12,15000,11.112,,,210,11.6,15.9,,1,,,,,,1,wg-a,,,,AAXX 27184 07240 02465 72106 10140 20120 39920 40051 56002 60006 70186 8537/ 91800 333 10159 20116 60017=
07240,1998-05-27 21:00:00,12,1006,0.8,88,10,20000,0,,,0,,,,0,,,,,,,wg-a,,,,AAXX 27214 07240 12570 70000 10120 20100 39928 40060 53008 60007 84332 92100=
07240,1998-05-28 00:00:00,11,1006,0,100,11,10000,7.408,,,140,,,,,,,,,,,wg-a,,,,AAXX 28004 07240 12760 21404 10110 20110 39928 40060 50000 60006 81502 90000=
07240,1998-05-28 03:00:00,11,1005.2,-0.8,94,10,8000,7.408,,,130,,,,0,,,,,,,wg-a,,,,AAXX 28034 07240 12/58 71304 10110 20100 39920 40052 57008 60007 80006 90300=
07240,1998-05-28 06:00:00,12,1005.4,0.2,100,12,8000,11.112,,,200,10.4,14.2,,,,,8,,,1,wg-a,,,,AAXX 28064 07240 02358 82006 10120 20120 39922 40054 53002 60006 70161 877// 90600 333 10142 20104 60084=
07240,1998-05-28 09:00:00,14,1005.8,0.5,88,12,11000,14.816,,,240,,,,,,,,,,,wg-a,,,,AAXX 28094 07240 12/61 /2408 10140 20120 39927 40058 51005 60006 90900=
07240,1998-05-28 12:00:00,18,1005.5,-0.1,59,10,20000,11.112,,,230,,,,,,,,,,,wg-a,,,,AAXX 28124 07240 12570 72306 10180 20100 39926 40055 58001 60006 85202 91200=
07240,1998-05-28 15:00:00,16,1006,0.4,68,10,12000,18.52,,,250,,,,,,,,,,80,wg-a,,,,AAXX 28154 07240 02562 72510 10160 20100 39930 40060 53004 61000 78086 86202 91500 333 ////=
07240,1998-05-28 18:00:00,18,1006.3,0.3,52,8,35000,22.224,,,270,12,19,,,,,,,,1,wg-a,,,,AAXX 28184 07240 02681 32712 10180 20080 39933 40063 53003 60006 70186 83801 91800 333 10190 20120 61000=
07240,1998-05-28 21:00:00,12,1008.8,2.3,76,8,500,11.112,,,240,,,,,,,,,,,wg-a,,,,AAXX 28214 07240 12/00 12406 10120 20080 39956 40088 53023 60006 80001 92100=
07240,1998-05-29 00:00:00,9,1010.1,1.1,87,7,20000,11.112,,,220,,,,,,,,,,,wg-a,,,,AAXX 29004 07240 12/70 02206 10090 20070 39967 40101 51011 60006 80000 90000=
07240,1998-05-29 03:00:00,7,1011.2,1,93,6,20000,11.112,,,160,,,,,,,,,,,wg-a,,,,AAXX 29034 07240 12/70 01606 10070 20060 39977 40112 53010 60006 80000 90300=
07240,1998-05-29 06:00:00,9,1012.3,1.2,93,8,18000,7.408,,,170,7.1,17.3,,,,,,,,,wg-a,,,,AAXX 29064 07240 02468 51704 10090 20080 39989 40123 53012 60006 83840 90600 333 10173 20071 61000=
07240,1998-05-29 09:00:00,15,1012.8,0.7,67,9,20000,11.112,,,190,,,,,,,,,,,wg-a,,,,AAXX 29094 07240 12570 51906 10150 20090 39996 40128 51007 60006 84201 90900=
07240,1998-05-29 12:00:00,18,1012.3,-0.3,45,6,25000,14.816,,,200,,,,,,,,,,,wg-a,,,,AAXX 29124 07240 12675 /2008 10180 20060 39993 40123 56003 60006 85201 91200=
07240,1998-05-29 15:00:00,20,1011.4,-0.8,43,7,25000,11.112,,,170,,,,,,,,,,,wg-a,,,,AAXX 29154 07240 12775 51706 10200 20070 39985 40114 58008 60006 84201 91500=
07240,1998-05-29 18:00:00,19,1010.7,-0.8,46,7,25000,14.816,,,100,9.2,20.1,,,,,,,,,wg-a,,,,AAXX 29184 07240 12775 51008 10190 20070 39977 40107 58008 60006 82231 91800 333 10201 20092=
07240,1998-05-29 21:00:00,12,1011.6,0.6,82,9,25000,14.816,,,70,,,,,,,,,,,wg-a,,,,AAXX 29214 07240 12/75 60708 10120 20090 39983 40116 52006 60006 81031 92100=
07240,1998-05-30 00:00:00,12,1010.7,-0.9,82,9,20000,18.52,,,90,,,,,,,,,,,wg-a,,,,AAXX 30004 07240 12/70 20910 10120 20090 39974 40107 58009 60006 80001 90000=
07240,1998-05-30 03:00:00,11,1009.4,-1.3,87,9,20000,18.52,,,80,,,,,,,,,,,wg-a,,,,AAXX 30034 07240 12/70 30810 10110 20090 39961 40094 58013 60006 81031 90300=
07240,1998-05-30 06:00:00,14,1008.3,-1,82,11,25000,22.224,,,110,10.8,18.7,,,,,,,,,wg-a,,,,AAXX 30064 07240 02/75 31112 10140 20110 39951 40083 56010 60006 82031 90600 333 10187 20108 60004=
07240,1998-05-30 09:00:00,20,1007.8,-0.2,53,10,25000,18.52,,,130,,,,,,,,,,,wg-a,,,,AAXX 30094 07240 12/75 61310 10200 20100 39949 40078 56002 60006 84032 90900=
07240,1998-05-30 12:00:00,19,1008.1,0.3,56,10,25000,14.816,,,180,,,,,,,,,,,wg-a,,,,AAXX 30124 07240 12675 71808 10190 20100 39952 40081 53003 60006 8543/ 91200=
07240,1998-05-30 18:00:00,15,1009.1,0.6,82,12,15000,14.816,,,180,13.7,20.4,,,,,,,,60,wg-a,,,,AAXX 30184 07240 02565 71808 10150 20120 39960 40091 51006 61000 76062 8487/ 91800 333 10204 20137 6001=
07240,1998-05-30 21:00:00,13,1011,1.8,88,11,15000,14.816,,,210,,,,0,,,,,,1,wg-a,,,,AAXX 30214 07240 12/65 52108 10130 20110 39978 40110 53018 60007 70186 83031 92100=
07240,1998-05-31 00:00:00,11,1012,0.9,94,10,15000,14.816,,,210,,,,,,,,,,2,wg-a,,,,AAXX 31004 07240 12/65 32108 10110 20100 39987 40120 53009 60016 70286 80001 90000=
07240,1998-05-31 03:00:00,9,1012.2,0.1,93,8,10000,7.408,,,130,,,,,,,,,,,wg-a,,,,AAXX 31034 07240 12/60 /1304 10090 20080 39988 40122 53001 60006 90300=
07240,1998-05-31 06:00:00,10,1012.6,0.4,93,9,15000,7.408,,,170,8,14.5,,,,,2,,,,wg-a,,,,AAXX 31064 07240 02/65 51704 10100 20090 39992 40126 50004 60006 81032 90600 333 10145 20080 60024=
07240,1998-05-31 09:00:00,16,1012.1,-0.2,72,11,20000,11.112,,,210,,,,,,,,,,,wg-a,,,,AAXX 31094 07240 12570 /2106 10160 20110 39990 40121 58002 60006 82202 90900=
07240,1998-05-31 12:00:00,15,1013.1,0.9,77,11,20000,18.52,,,240,,,,,,,,,,,wg-a,,,,AAXX 31124 07240 12670 72410 10150 20110 39999 40131 53009 60006 878// 91200=
07240,1998-05-31 18:00:00,17,1012.3,-0.2,55,8,500,18.52,,,250,9.6,17.6,,,,,,,,,wg-a,,,,AAXX 31184 07240 12700 32510 10170 20080 39992 40123 57002 60006 83801 91800 333 10176 20096=
07240,1998-05-31 21:00:00,14,1013.7,1.3,72,9,500,7.408,,,200,,,,,,,,,,,wg-a,,,,AAXX 31214 07240 12700 12004 10140 20090 30005 40137 52013 60006 81501 92100=
07240,1998-06-01 00:00:00,9,1013.7,-0.2,93,8,20000,7.408,,,110,,,,,,,,,,,wg-a,,,,AAXX 01004 07240 12/70 01104 10090 20080 30003 40137 58002 60006 80000 90000=
07240,1998-06-01 03:00:00,7,1013.1,-0.8,93,6,10000,7.408,,,100,,,,,,,,,,,wg-a,,,,AAXX 01034 07240 12/60 21004 10070 20060 39995 40131 58008 60006 80001 90300=
07240,1998-06-01 06:00:00,11,1012.2,-0.6,87,9,20000,11.112,,,120,6.7,17.2,,,,,,,,,wg-a,,,,AAXX 01064 07240 02/70 71206 10110 20090 39989 40122 55006 60006 8707/ 90600 333 10172 20067 60004=
07240,1998-06-01 09:00:00,15,1011.4,-0.6,77,11,500,14.816,,,110,,,,,,,,,,3,wg-a,,,,AAXX 01094 07240 02/00 81108 10150 20110 39983 40114 56006 61000 70362 8707/ 90900 333 ////=
07240,1998-06-01 12:00:00,19,1010.4,-0.9,64,12,35000,18.52,,,130,,,,,,,,,,3,wg-a,,,,AAXX 01124 07240 02781 71310 10190 20120 39974 40104 56009 61000 70362 8157/ 91200 333 ////=
07240,1998-06-01 15:00:00,22,1008.1,-2.1,57,13,35000,18.52,,,150,,,,,,,,,,,wg-a,,,,AAXX 01154 07240 12681 81510 10220 20130 39953 40081 58021 60006 83287 91500=
07240,1998-06-01 18:00:00,17,1007.5,-0.8,88,15,12000,11.112,,,330,11.1,21.9,,1,,,,,,1,wg-a,,,,AAXX 01184 07240 02662 83306 10170 20150 39945 40075 56008 60006 70186 8227/ 91800 333 10219 20111 60017=
07240,1998-06-01 21:00:00,16,1007.9,0.4,94,15,8000,11.112,,,90,,,,4,,,,,,1,wg-a,,,,AAXX 01214 07240 12658 80906 10160 20150 39949 40079 51004 60047 70162 8227/ 92100=
07240,1998-06-02 00:00:00,16,1007.5,-0.4,94,15,8000,11.112,,,150,,,,2,,,,,,21,wg-a,,,,AAXX 02004 07240 02/58 /1506 10160 20150 39945 40075 56004 60066 72162 86070 90000 333 60027=
07240,1998-06-02 03:00:00,16,1007,-0.5,94,15,10000,14.816,,,180,,,,,,,,,,,wg-a,,,,AAXX 02034 07240 12/60 61808 10160 20150 39940 40070 55005 60006 86070 90300=
07240,1998-06-02 06:00:00,16,1008.3,1.3,94,15,11000,18.52,,,210,15.3,17.1,,,,,8,,,,wg-a,,,,AAXX 02064 07240 02/61 /2110 10160 20150 39953 40083 53013 60006 90600 333 10171 20153 60084=
07240,1998-06-02 09:00:00,18,1010.3,2,83,15,11000,25.928,,,230,,,,,,,,,,,wg-a,,,,AAXX 02094 07240 32/61 /2314 10180 20150 39973 40103 51020 90900=
07240,1998-06-02 12:00:00,20,1010.6,0.4,68,14,500,25.928,,,250,,,,,,,,,,1,wg-a,,,,AAXX 02124 07240 02600 72514 10200 20140 39977 40106 51004 61000 70162 84802 91200 333 ////=
07240,1998-06-02 15:00:00,20,1010.9,0.3,60,12,500,25.928,,,250,,,,,,,,,,,wg-a,,,,AAXX 02154 07240 12600 72514 10200 20120 39980 40109 52003 60006 85802 91500=
07240,1998-06-02 18:00:00,19,1011.4,0.4,56,10,500,25.928,,,240,15.7,21.3,,,,,,,,,wg-a,,,,AAXX 02184 07240 12600 72414 10190 20100 39984 40114 53004 60006 85802 91800 333 10213 20157=
07240,1998-06-02 21:00:00,15,1013.9,2.3,72,10,500,18.52,,,240,,,,,,,,,,,wg-a,,,,AAXX 02214 07240 12/00 02410 10150 20100 30007 40139 53023 60006 80000 92100=
07240,1998-06-03 00:00:00,12,1015.3,1.3,88,10,500,11.112,,,230,,,,,,,,,,,wg-a,,,,AAXX 03004 07240 12/00 02306 10120 20100 30020 40153 51013 60006 80000 90000=
07240,1998-06-03 06:00:00,13,1016.5,1.1,88,11,20000,14.816,,,210,10.9,18.7,,,,,,,,,wg-a,,,,AAXX 03064 07240 02/70 02108 10130 20110 30032 40165 53011 60006 80000 90600 333 10187 20109 61000=
07240,1998-06-03 09:00:00,18,1016.9,0.6,73,13,20000,18.52,,,230,,,,,,,,,,,wg-a,,,,AAXX 03094 07240 12670 42310 10180 20130 30038 40169 51006 60006 84200 90900=
07240,1998-06-03 12:00:00,19,1016.4,-0.4,60,11,20000,18.52,,,250,,,,,,,,,,,wg-a,,,,AAXX 03124 07240 12670 52510 10190 20110 30034 40164 58004 60006 84201 91200=
07240,1998-06-03 18:00:00,20,1016.3,0.2,53,10,20000,18.52,,,270,12.8,22.4,,,,,,,,,wg-a,,,,AAXX 03184 07240 12770 42710 10200 20100 30033 40163 53002 60006 82802 91800 333 10224 20128=
07240,1998-06-03 21:00:00,14,1018.3,1.7,77,10,20000,11.112,,,300,,,,,,,,,,,wg-a,,,,AAXX 03214 07240 12/70 23006 10140 20100 30050 40183 53017 60006 80001 92100=
07240,1998-06-04 00:00:00,12,1019,0.6,82,9,20000,3.704,,,350,,,,,,,,,,,wg-a,,,,AAXX 04004 07240 12/70 53502 10120 20090 30056 40190 51006 60006 80002 90000=
07240,1998-06-04 03:00:00,9,1018.9,-0.2,93,8,20000,7.408,,,360,,,,,,,,,,,wg-a,,,,AAXX 04034 07240 12/70 53604 10090 20080 30054 40189 58002 60006 80002 90300=
07240,1998-06-04 06:00:00,12,1019.3,0.5,94,11,20000,7.408,,,70,8.9,19.8,,,,,,,,,wg-a,,,,AAXX 04064 07240 02/70 70704 10120 20110 30059 40193 50005 60006 82032 90600 333 10198 20089 60004=
07240,1998-06-04 09:00:00,19,1019.1,0.1,64,12,20000,14.816,,,80,,,,,,,,,,,wg-a,,,,AAXX 04094 07240 12/70 50808 10190 20120 30060 40191 50001 60006 82032 90900=
07240,1998-06-04 12:00:00,23,1017.8,-1.1,53,13,500,11.112,,,100,,,,,,,,,,,wg-a,,,,AAXX 04124 07240 12600 51006 10230 20130 30049 40178 58011 60006 81132 91200=
07240,1998-06-04 15:00:00,24,1015.6,-2.1,47,12,500,14.816,,,50,,,,,,,,,,,wg-a,,,,AAXX 04154 07240 12/00 50508 10240 20120 30028 40156 58021 60006 81032 91500=
07240,1998-06-04 18:00:00,23,1014.4,-1.2,53,13,500,18.52,,,50,12.1,24.1,,,,,,,,,wg-a,,,,AAXX 04184 07240 12/00 30510 10230 20130 30016 40144 57012 60006 80002 91800 333 10241 20121=
07240,1998-06-04 21:00:00,19,1014,-0.6,73,14,500,18.52,,,60,,,,,,,,,,,wg-a,,,,AAXX 04214 07240 12/00 70610 10190 20140 30010 40140 58006 60006 83072 92100=
07240,1998-06-05 00:00:00,17,1012.4,-1.6,82,14,500,22.224,,,70,,,,,,,,,,,wg-a,,,,AAXX 05004 07240 12/00 70712 10170 20140 39994 40124 56016 60006 8307/ 90000=
07240,1998-06-05 03:00:00,16,1010.9,-1.5,94,15,10000,18.52,,,50,,,,8,,,,,,29,wg-a,,,,AAXX 05034 07240 12/60 70510 10160 20150 39979 40109 58015 60087 72998 8708/ 90300=
07240,1998-06-05 06:00:00,16,1011.1,0.1,94,15,8000,7.408,,,90,15.3,22.7,,,,,8,,,1,wg-a,,,,AAXX 05064 07240 02758 /0904 10160 20150 39980 40111 53001 60006 70198 81582 90600 333 10227 20153 60084=
07240,1998-06-05 09:00:00,22,1011.2,0.4,78,18,12000,7.408,,,180,,,,,,,,,,,wg-a,,,,AAXX 05094 07240 12562 /1804 10220 20180 39984 40112 50004 60006 81182 90900=
07240,1998-06-05 12:00:00,25,1010.8,-0.2,65,18,20000,11.112,,,230,,,,,,,,,,,wg-a,,,,AAXX 05124 07240 12670 72306 10250 20180 39982 40108 56002 60006 81182 91200=
07240,1998-06-05 15:00:00,26,1010.7,-0.1,61,18,20000,0,,,0,,,,,,,,,,,wg-a,,,,AAXX 05154 07240 12670 70000 10260 20180 39981 40107 55001 60006 83282 91500=
07240,1998-06-05 18:00:00,26,1009.7,-1,61,18,20000,0,,,0,15.8,27.3,,,,,,,,,wg-a,,,,AAXX 05184 07240 12670 70000 10260 20180 39971 40097 56010 60006 82282 91800 333 10273 20158=
07240,1998-06-05 21:00:00,21,1010.6,0.7,88,19,10000,0,,,0,,,,,,,,,,,wg-a,,,,AAXX 05214 07240 12/60 70000 10210 20190 39978 40106 53007 60006 83082 92100=
07240,1998-06-06 00:00:00,20,1009.9,-0.8,94,19,10000,0,,,0,,,,,,,,,,,wg-a,,,,AAXX 06004 07240 12/60 50000 10200 20190 39970 40099 58008 60006 83082 90000=
07240,1998-06-06 03:00:00,18,1009.1,-0.8,100,18,10000,0,,,0,,,,,,,,,,,wg-a,,,,AAXX 06034 07240 12/60 50000 10180 20180 39962 40091 58008 60006 83082 90300=
07240,1998-06-06 06:00:00,19,1009.9,0.8,100,19,3000,0,,,0,18,25.8,,,,,,,,10,wg-a,,,,AAXX 06064 07240 02230 70000 10190 20190 39970 40099 53008 60006 71022 86682 90600 333 10258 20180 60004=
07240,1998-06-06 09:00:00,19,1011.4,1.5,94,18,7000,18.52,,,260,,,,14,,,,,,29,wg-a,,,,AAXX 06094 07240 12357 72610 10190 20180 39985 40114 52015 60147 72998 85963 90900=
07240,1998-06-06 12:00:00,20,1011.7,0.3,88,18,10000,11.112,,,240,,,,,,,,,,1,wg-a,,,,AAXX 06124 07240 12460 72406 10200 20180 39988 40117 50003 60146 70198 8583/ 91200=
07240,1998-06-06 15:00:00,19,1011.6,-0.1,94,18,10000,11.112,,,210,,,,2,,,,,,60,wg-a,,,,AAXX 06154 07240 12460 72106 10190 20180 39987 40116 56001 60027 76086 8396/ 91500=
07240,1998-06-06 18:00:00,21,1010.7,-0.8,83,18,10000,11.112,,,180,17.2,22.9,,,,,,,,1,wg-a,,,,AAXX 06184 07240 02760 61806 10210 20180 39979 40107 56008 60006 70186 85530 91800 333 10229 20172 61000=
07240,1998-06-06 21:00:00,18,1012.1,1.2,94,17,8000,11.112,,,210,,,,,,,,,,,wg-a,,,,AAXX 06214 07240 12/58 52106 10180 20170 39991 40121 51012 60006 82032 92100=
07240,1998-06-07 03:00:00,16,1012.1,-0.4,88,14,10000,14.816,,,230,,,,,,,,,,,wg-a,,,,AAXX 07034 07240 12460 /2308 10160 20140 39990 40121 56004 60006 86500 90300=
07240,1998-06-07 06:00:00,15,1013.8,1.6,82,12,18000,25.928,,,290,14.6,20.5,,,,,16,,,,wg-a,,,,AAXX 07064 07240 02468 72914 10150 20120 30006 40138 53016 60006 82802 90600 333 10205 20146 60164=
07240,1998-06-07 09:00:00,17,1015.6,1.9,59,9,11000,25.928,,,270,,,,,,,,,,,wg-a,,,,AAXX 07094 07240 12/61 /2714 10170 20090 30025 40156 51019 60006 90900=
07240,1998-06-07 12:00:00,18,1016.2,0.6,59,10,500,22.224,,,250,,,,,,,,,,,wg-a,,,,AAXX 07124 07240 12600 72512 10180 20100 30031 40162 53006 60006 868// 91200=
07240,1998-06-07 15:00:00,18,1016.5,0.3,68,12,500,31.484,,,250,,,,,,,,,,15,wg-a,,,,AAXX 07154 07240 12600 72517 10180 20120 30034 40165 52003 60006 71511 878// 91500=
07240,1998-06-07 18:00:00,18,1017.2,0.7,59,10,500,29.632,,,250,13.7,19.7,,,,,,,,3,wg-a,,,,AAXX 07184 07240 02600 32516 10180 20100 30041 40172 53007 60006 70386 83800 91800 333 10197 20137 61000=
07240,1998-06-07 21:00:00,15,1019.4,2,72,10,25000,18.52,,,250,,,,,,,,,,,wg-a,,,,AAXX 07214 07240 12775 12510 10150 20100 30061 40194 52020 60006 81500 92100=
07240,1998-06-08 00:00:00,12,1020.1,0.6,94,11,20000,14.816,,,230,,,,,,,,,,,wg-a,,,,AAXX 08004 07240 12/70 12308 10120 20110 30067 40201 51006 60006 81030 90000=
07240,1998-06-08 03:00:00,11,1020.3,0.2,94,10,20000,11.112,,,220,,,,,,,,,,,wg-a,,,,AAXX 08034 07240 12570 22206 10110 20100 30069 40203 50002 60006 82500 90300=
07240,1998-06-08 06:00:00,13,1020.7,0.5,94,12,12000,11.112,,,230,11,17.8,,,,,,,,,wg-a,,,,AAXX 08064 07240 02362 /2306 10130 20120 30074 40207 51005 60006 86800 90600 333 10178 20110 60004=
07240,1998-06-08 09:00:00,17,1021.7,1.1,68,11,25000,14.816,,,230,,,,,,,,,,,wg-a,,,,AAXX 08094 07240 12575 /2308 10170 20110 30085 40217 51011 60006 85800 90900=
07240,1998-06-08 12:00:00,19,1020.8,-0.8,56,10,500,18.52,,,220,,,,,,,,,,,wg-a,,,,AAXX 08124 07240 12600 52210 10190 20100 30077 40208 58008 60006 85800 91200=
07240,1998-06-08 15:00:00,19,1019.8,-0.9,64,12,500,22.224,,,210,,,,,,,,,,,wg-a,,,,AAXX 08154 07240 12600 72112 10190 20120 30068 40198 56009 60006 878// 91500=
07240,1998-06-08 18:00:00,19,1019.4,-0.5,60,11,500,22.224,,,250,13.2,20.3,,,,,,,,,wg-a,,,,AAXX 08184 07240 12700 72512 10190 20110 30063 40194 56005 60006 83572 91800 333 10203 20132=
07240,1998-06-08 21:00:00,17,1019.4,-0.1,68,11,11000,18.52,,,220,,,,,,,,,,,wg-a,,,,AAXX 08214 07240 12/61 /2210 10170 20110 30062 40194 58001 60006 92100=
07240,1998-06-09 03:00:00,15,1017.6,-1,82,12,20000,14.816,,,210,,,,,,,,,,,wg-a,,,,AAXX 09034 07240 12470 82108 10150 20120 30044 40176 56010 60006 875// 90300=
07240,1998-06-09 06:00:00,16,1016.9,-0.7,77,12,20000,22.224,,,210,15,18.6,,,,,,,,,wg-a,,,,AAXX 09064 07240 02470 82112 10160 20120 30037 40169 57007 60006 885// 90600 333 10186 20150 61000=
07240,1998-06-09 09:00:00,18,1015.8,-0.9,83,15,20000,22.224,,,220,,,,,,,,,,,wg-a,,,,AAXX 09094 07240 12470 72212 10180 20150 30028 40158 58009 60006 8553/ 90900=
07240,1998-06-09 12:00:00,22,1013.6,-2,69,16,25000,22.224,,,200,,,,,,,,,,,wg-a,,,,AAXX 09124 07240 12575 62012 10220 20160 30008 40136 58020 60006 83281 91200=
07240,1998-06-09 15:00:00,25,1011,-2.5,54,15,25000,25.928,,,230,,,,,,,,,,,wg-a,,,,AAXX 09154 07240 12675 52314 10250 20150 39983 40110 56025 60006 83231 91500=
07240,1998-06-09 18:00:00,22,1009.8,-1.3,60,14,500,25.928,,,230,15.5,25.4,,,,,,,,,wg-a,,,,AAXX 09184 07240 12700 32314 10220 20140 39970 40098 56013 60006 81831 91800 333 10254 20155=
07240,1998-06-09 21:00:00,17,1010.1,0.1,88,15,500,22.224,,,280,,,,,,,,,,,wg-a,,,,AAXX 09214 07240 12700 82812 10170 20150 39971 40101 53001 60006 8657/ 92100=
07240,1998-06-10 00:00:00,16,1009.8,-0.4,94,15,12000,18.52,,,230,,,,,,,,,,,wg-a,,,,AAXX 10004 07240 12462 72310 10160 20150 39967 40098 58004 60006 876// 90000=
07240,1998-06-10 03:00:00,15,1008.9,-0.9,88,13,20000,22.224,,,260,,,,,,,,,,,wg-a,,,,AAXX 10034 07240 12470 62612 10150 20130 39958 40089 55009 60006 81572 90300=
07240,1998-06-10 06:00:00,14,1009.9,1,88,12,25000,18.52,,,240,13.7,22.2,,,,,,,,25,wg-a,,,,AAXX 10064 07240 02475 52410 10140 20120 39968 40099 53010 61000 72586 85200 90600 333 10222 20137 6100=
07240,1998-06-10 09:00:00,17,1009.7,-0.1,72,12,25000,29.632,,,240,,,,,,,,,,,wg-a,,,,AAXX 10094 07240 12575 /2416 10170 20120 39967 40097 58001 60006 85200 90900=
07240,1998-06-10 12:00:00,20,1009,-0.6,53,10,500,31.484,,50.004,250,,,,0,,,,,,1,wg-a,,,,AAXX 10124 07240 02600 52517 10200 20100 39961 40090 56006 60016 70186 85800 91200 333 60007 91027=
07240,1998-06-10 15:00:00,18,1008.3,-0.7,68,12,500,14.816,,,260,,,,,,,,,,25,wg-a,,,,AAXX 10154 07240 02600 /2608 10180 20120 39954 40083 56007 61000 72586 85800 91500 333 ////=
07240,1998-06-10 18:00:00,16,1007.7,-0.7,68,10,15000,25.928,,,250,13.8,20.4,,3,,,,,,15,wg-a,,,,AAXX 10184 07240 02565 52514 10160 20100 39947 40077 56007 60006 71586 85900 91800 333 10204 20138 60037=
07240,1998-06-10 21:00:00,13,1008.4,0.5,88,11,20000,18.52,,,230,,,,,,,,,,1,wg-a,,,,AAXX 10214 07240 02570 /2310 10130 20110 39952 40084 52005 61000 70186 81800 92100 333 ////=
07240,1998-06-11 00:00:00,13,1007.7,-0.7,88,11,20000,22.224,,,250,,,,,,,,,,3,wg-a,,,,AAXX 11004 07240 02470 72512 10130 20110 39945 40077 56007 61000 70386 878// 90000 333 ////=
07240,1998-06-11 03:00:00,11,1008,0.2,87,9,20000,22.224,,,260,,,,,,,,,,,wg-a,,,,AAXX 11034 07240 12470 72612 10110 20090 39947 40080 51002 60006 878// 90300=
07240,1998-06-11 06:00:00,11,1008.8,0.8,82,8,11000,18.52,,,280,11.1,16,,,,,3,,,,wg-a,,,,AAXX 11064 07240 02/61 /2810 10110 20080 39955 40088 53008 60006 90600 333 10160 20111 60034=
07240,1998-06-11 09:00:00,13,1010.1,1.4,77,9,20000,18.52,,,300,,,,0,,,,,,,wg-a,,,,AAXX 11094 07240 12570 73010 10130 20090 39969 40101 51014 60007 878// 90900=
07240,1998-06-11 12:00:00,15,1011.2,1.1,59,7,20000,25.928,,,290,,,,1,,,,,,1,wg-a,,,,AAXX 11124 07240 02570 62914 10150 20070 39980 40112 51011 60016 70186 86800 91200 333 60017=
07240,1998-06-11 15:00:00,15,1011.8,0.6,51,5,20000,31.484,,50.004,310,,,,,,,,,,,wg-a,,,,AAXX 11154 07240 12570 43117 10150 20050 39986 40118 53006 60006 84800 91500 333 91027=
07240,1998-06-11 18:00:00,11,1013.8,1.9,76,7,20000,29.632,,,300,10.9,16.7,,,,,,,,,wg-a,,,,AAXX 11184 07240 12570 /3016 10110 20070 30005 40138 51019 60006 86900 91800 333 10167 20109=
07240,1998-06-11 21:00:00,9,1016.4,2.4,93,8,15000,25.928,,,300,,,,0,,,,,,61,wg-a,,,,AAXX 11214 07240 12465 83014 10090 20080 30029 40164 53024 60007 76162 875// 92100=
07240,1998-06-12 00:00:00,9,1018.4,2,87,7,15000,25.928,,,320,,,,1,,,,,,21,wg-a,,,,AAXX 12004 07240 02565 83214 10090 20070 30049 40184 53020 60016 72162 875// 90000 333 60017=
07240,1998-06-12 03:00:00,7,1020,1.5,93,6,11000,18.52,,,290,,,,,,,,,,,wg-a,,,,AAXX 12034 07240 12/61 /2910 10070 20060 30064 40200 51015 60006 90300=
07240,1998-06-12 06:00:00,9,1022.3,2.3,87,7,20000,18.52,,,300,6.8,11.4,,,,,2,,,,wg-a,,,,AAXX 12064 07240 02/70 13010 10090 20070 30087 40223 53023 60006 81030 90600 333 10114 20068 60024=
07240,1998-06-12 12:00:00,15,1023.3,0.3,59,7,15000,14.816,,,290,,,,0,,,,,,25,wg-a,,,,AAXX 12124 07240 02565 /2908 10150 20070 30100 40233 50003 60006 72586 86900 91200 333 60007=
07240,1998-06-12 15:00:00,16,1022.9,-0.4,59,8,20000,18.52,,,270,,,,,,,,,,,wg-a,,,,AAXX 12154 07240 12670 /2710 10160 20080 30096 40229 58004 60006 85802 91500=
07240,1998-06-12 18:00:00,15,1022.2,-0.7,59,7,25000,22.224,,,300,8.8,17.2,,,,,,,,,wg-a,,,,AAXX 12184 07240 12675 /3012 10150 20070 30089 40222 58007 60006 85832 91800 333 10172 20088=
07240,1998-06-12 21:00:00,12,1022.8,0.5,76,8,25000,11.112,,,270,,,,,,,,,,,wg-a,,,,AAXX 12214 07240 12775 72706 10120 20080 30094 40228 52005 60006 875// 92100=
07240,1998-06-13 00:00:00,11,1022.2,-0.7,82,8,20000,14.816,,,250,,,,,,,,,,1,wg-a,,,,AAXX 13004 07240 02770 62508 10110 20080 30087 40222 58007 61000 70186 85502 90000 333 6100=
07240,1998-06-13 03:00:00,10,1020.6,-1.6,87,8,20000,11.112,,,210,,,,,,,,,,,wg-a,,,,AAXX 13034 07240 12770 72106 10100 20080 30071 40206 57016 60006 8553/ 90300=
07240,1998-06-13 06:00:00,10,1019.2,-1.4,87,8,10000,11.112,,,180,8.5,15.2,,,,,,,,,wg-a,,,,AAXX 13064 07240 02/60 /1806 10100 20080 30057 40192 56014 60006 90600 333 10152 20085 60004=
07240,1998-06-13 12:00:00,12,1016.3,-1.7,88,10,10000,29.632,,,200,,,,3,,,,,,60,wg-a,,,,AAXX 13124 07240 02460 82016 10120 20100 30030 40163 56017 60036 76062 8257/ 91200 333 60037=
07240,1998-06-13 15:00:00,12,1013.9,-2.4,94,11,3500,31.484,,,190,,,,3,,,,,,50,wg-a,,,,AAXX 13154 07240 12335 81917 10120 20110 30006 40139 56024 60037 75065 877// 91500=
07240,1998-06-13 18:00:00,13,1012,-1.8,94,12,15000,18.52,,,190,10.4,13.2,,0,,,,,,1,wg-a,,,,AAXX 13184 07240 02365 71910 10130 20120 39988 40120 56018 60006 70165 875// 91800 333 10132 20104 60007=
07240,1998-06-13 21:00:00,13,1012.5,0.5,88,11,10000,22.224,,,250,,,,,,,,,,,wg-a,,,,AAXX 13214 07240 12660 /2512 10130 20110 39993 40125 53005 60006 85500 92100=
07240,1998-06-14 00:00:00,11,1013,0.4,94,10,10000,14.816,,,230,,,,,,,,,,,wg-a,,,,AAXX 14004 07240 12/60 12308 10110 20100 39997 40130 50004 60006 81030 90000=
07240,1998-06-14 03:00:00,12,1012.9,-0.1,94,11,10000,18.52,,,240,,,,,,,,,,,wg-a,,,,AAXX 14034 07240 12360 72410 10120 20110 39996 40129 57001 60006 877// 90300=
07240,1998-06-14 06:00:00,12,1013.1,0.2,94,11,10000,14.816,,,230,11.3,13.9,,,,,6,,,,wg-a,,,,AAXX 14064 07240 02360 72308 10120 20110 39998 40131 52002 60006 875// 90600 333 10139 20113 60064=
07240,1998-06-14 09:00:00,15,1012.7,-0.2,72,10,20000,18.52,,,260,,,,,,,,,,,wg-a,,,,AAXX 14094 07240 12470 72610 10150 20100 39996 40127 58002 60006 872// 90900=
07240,1998-06-14 12:00:00,16,1012.4,-0.3,82,13,11000,22.224,,,240,,,,,,,,,,,wg-a,,,,AAXX 14124 07240 02/61 /2412 10160 20130 39993 40124 56003 61000 91200 333 ////=
07240,1998-06-14 15:00:00,17,1011.8,-0.6,68,11,25000,22.224,,,220,,,,,,,,,,,wg-a,,,,AAXX 14154 07240 12575 /2212 10170 20110 39987 40118 56006 60006 86800 91500=
07240,1998-06-14 18:00:00,17,1011.6,-0.2,68,11,25000,25.928,,,250,12.3,19.2,,0,,,,,,1,wg-a,,,,AAXX 14184 07240 02575 52514 10170 20110 39985 40116 55002 60006 70186 85800 91800 333 10192 20123 60007=
07240,1998-06-15 00:00:00,12,1013.4,0.2,94,11,15000,14.816,,,230,,,,,,,,,,25,wg-a,,,,AAXX 15004 07240 02465 32308 10120 20110 30001 40134 51002 61000 72586 83800 90000 333 6100=
07240,1998-06-15 03:00:00,12,1012.7,-0.7,94,11,12000,14.816,,,220,,,,1,,,,,,,wg-a,,,,AAXX 15034 07240 12362 72208 10120 20110 39994 40127 57007 60017 875// 90300=
07240,1998-06-15 06:00:00,13,1013.7,1,94,12,15000,14.816,,,260,12,16.9,,,,,3,,,3,wg-a,,,,AAXX 15064 07240 02265 72608 10130 20120 30004 40137 53010 60006 70386 877// 90600 333 10169 20120 60034=
07240,1998-06-15 09:00:00,16,1014,0.5,77,12,15000,18.52,,,280,,,,,,,,,,,wg-a,,,,AAXX 15094 07240 12565 72810 10160 20120 30009 40140 51005 60006 878// 90900=
07240,1998-06-15 12:00:00,16,1014.8,0.8,72,11,20000,25.928,,,290,,,,,,,,,,1,wg-a,,,,AAXX 15124 07240 02570 72914 10160 20110 30017 40148 53008 61000 70186 878// 91200 333 6100=
07240,1998-06-15 15:00:00,18,1015.2,0.4,56,9,25000,25.928,,,290,,,,,,,,,,,wg-a,,,,AAXX 15154 07240 12675 42914 10180 20090 30021 40152 53004 60006 84800 91500=
07240,1998-06-15 18:00:00,16,1016.8,1.5,63,9,25000,22.224,,,300,12.5,19.6,,,,,,,,,wg-a,,,,AAXX 15184 07240 12675 43012 10160 20090 30036 40168 53015 60006 84800 91800 333 10196 20125=
07240,1998-06-15 21:00:00,12,1019.4,2.4,76,8,25000,14.816,,,290,,,,,,,,,,,wg-a,,,,AAXX 15214 07240 12775 12908 10120 20080 30060 40194 53024 60006 81500 92100=
07240,1998-06-16 00:00:00,9,1020.8,1.2,87,7,20000,11.112,,,290,,,,,,,,,,,wg-a,,,,AAXX 16004 07240 12/70 02906 10090 20070 30072 40208 51012 60006 80000 90000=
07240,1998-06-16 03:00:00,7,1021.1,0.3,93,6,15000,7.408,,,270,,,,,,,,,,,wg-a,,,,AAXX 16034 07240 12/65 02704 10070 20060 30075 40211 53003 60006 80000 90300=
07240,1998-06-16 06:00:00,10,1022.7,1.7,93,9,15000,11.112,,,270,6.6,16.6,,,,,,,,,wg-a,,,,AAXX 16064 07240 02765 22706 10100 20090 30092 40227 53017 60006 81501 90600 333 10166 20066 60004=
07240,1998-06-16 09:00:00,15,1023.4,0.9,63,8,20000,11.112,,,290,,,,,,,,,,,wg-a,,,,AAXX 16094 07240 12570 32906 10150 20080 30101 40234 51009 60006 82201 90900=
07240,1998-06-16 12:00:00,18,1023.8,0.5,49,7,500,18.52,,,290,,,,,,,,,,,wg-a,,,,AAXX 16124 07240 12700 42910 10180 20070 30106 40238 51005 60006 84200 91200=
07240,1998-06-16 15:00:00,19,1023.8,0.1,49,8,500,14.816,,,300,,,,,,,,,,,wg-a,,,,AAXX 16154 07240 12700 43008 10190 20080 30107 40238 53001 60006 84200 91500=
07240,1998-06-16 18:00:00,19,1024.2,0.3,46,7,500,14.816,,,300,9.9,20.1,,,,,,,,,wg-a,,,,AAXX 16184 07240 12700 23008 10190 20070 30110 40242 53003 60006 82200 91800 333 10201 20099=
07240,1998-06-16 21:00:00,13,1026,1.6,67,7,500,7.408,,,280,,,,,,,,,,,wg-a,,,,AAXX 16214 07240 12/00 12804 10130 20070 30126 40260 53016 60006 80001 92100=
07240,1998-06-17 00:00:00,9,1027.1,0.9,81,6,500,7.408,,,260,,,,,,,,,,,wg-a,,,,AAXX 17004 07240 12/00 02604 10090 20060 30135 40271 51009 60006 80000 90000=
07240,1998-06-17 06:00:00,11,1028,0.6,82,8,25000,3.704,,,100,7.1,18.6,,,,,,,,,wg-a,,,,AAXX 17064 07240 02/75 31002 10110 20080 30144 40280 53006 60006 80001 90600 333 10186 20071 60004=
07240,1998-06-17 09:00:00,17,1028,0.3,59,9,500,7.408,,,170,,,,,,,,,,,wg-a,,,,AAXX 17094 07240 12600 31704 10170 20090 30147 40280 50003 60006 81102 90900=
07240,1998-06-17 12:00:00,19,1027.7,-0.2,46,7,500,11.112,,,280,,,,,,,,,,,wg-a,,,,AAXX 17124 07240 12700 72806 10190 20070 30145 40277 56002 60006 84202 91200=
07240,1998-06-17 15:00:00,21,1026.8,-0.8,43,8,500,11.112,,,320,,,,,,,,,,,wg-a,,,,AAXX 17154 07240 12700 43206 10210 20080 30137 40268 56008 60006 83202 91500=
07240,1998-06-17 18:00:00,21,1026,-0.8,46,9,500,11.112,,,290,10.9,22.1,,,,,,,,,wg-a,,,,AAXX 17184 07240 12700 52906 10210 20090 30129 40260 56008 60006 82231 91800 333 10221 20109=
07240,1998-06-17 21:00:00,16,1026.7,0.5,68,10,15000,0,,,0,,,,,,,,,,,wg-a,,,,AAXX 17214 07240 12/65 20000 10160 20100 30134 40267 53005 60006 80001 92100=
07240,1998-06-18 00:00:00,13,1026.1,-0.7,77,9,15000,3.704,,,150,,,,,,,,,,,wg-a,,,,AAXX 18004 07240 12/65 01502 10130 20090 30127 40261 58007 60006 80000 90000=
07240,1998-06-18 03:00:00,11,1026,-0.2,87,9,15000,3.704,,,320,,,,,,,,,,,wg-a,,,,AAXX 18034 07240 12/65 33202 10110 20090 30125 40260 58002 60006 83030 90300=
07240,1998-06-18 06:00:00,13,1026.1,0.2,94,12,15000,3.704,,,210,9.7,21.1,,,,,,,,,wg-a,,,,AAXX 18064 07240 02765 72102 10130 20120 30127 40261 51002 60006 82530 90600 333 10211 20097 60004=
07240,1998-06-18 09:00:00,19,1025.9,0.1,60,11,15000,11.112,,,200,,,,,,,,,,,wg-a,,,,AAXX 18094 07240 12/65 72006 10190 20110 30128 40259 51001 60006 85032 90900=
07240,1998-06-18 12:00:00,23,1025.3,,44,10,20000,14.816,,,270,,,,,,,,,,,wg-a,,,,AAXX 18124 07240 12/70 32708 10230 20100 30123 40253 60006 91200=
07240,1998-06-18 15:00:00,25,1024.3,-0.9,39,10,25000,11.112,,,300,,,,,,,,,,,wg-a,,,,AAXX 18154 07240 12/75 33006 10250 20100 30114 40243 58009 60006 82031 91500=
07240,1998-06-18 18:00:00,24,1023.8,-0.5,44,11,500,11.112,,,310,13.2,25.4,,,,,,,,,wg-a,,,,AAXX 18184 07240 12/00 23106 10240 20110 30109 40238 56005 60006 81031 91800 333 10254 20132=
07240,1998-06-18 21:00:00,19,1024.5,0.5,56,10,25000,7.408,,,10,,,,,,,,,,,wg-a,,,,AAXX 18214 07240 12/75 30104 10190 20100 30114 40245 53005 60006 81031 92100=
07240,1998-06-19 00:00:00,15,1024.4,-0.3,63,8,20000,7.408,,,50,,,,,,,,,,,wg-a,,,,AAXX 19004 07240 12/70 00504 10150 20080 30111 40244 56003 60006 80000 90000=
07240,1998-06-19 03:00:00,12,1023.7,-0.8,76,8,20000,7.408,,,50,,,,,,,,,,,wg-a,,,,AAXX 19034 07240 12/70 20504 10120 20080 30103 40237 56008 60006 80001 90300=
07240,1998-06-19 06:00:00,16,1023.5,-0,77,12,20000,11.112,,,70,11.2,24.1,,,,,,,,,wg-a,,,,AAXX 19064 07240 02/70 20706 10160 20120 30103 40235 54000 60006 80001 90600 333 10241 20112 60004=
07240,1998-06-19 09:00:00,23,1023.2,0,57,14,20000,11.112,,,100,,,,,,,,,,,wg-a,,,,AAXX 19094 07240 12/70 41006 10230 20140 30103 40232 50000 60006 80001 90900=
07240,1998-06-19 12:00:00,27,1022,-1,42,13,20000,11.112,,,120,,,,,,,,,,,wg-a,,,,AAXX 19124 07240 12/70 31206 10270 20130 30093 40220 58010 60006 80001 91200=
07240,1998-06-19 15:00:00,30,1020.8,-1.1,33,12,500,11.112,,,150,,,,,,,,,,,wg-a,,,,AAXX 19154 07240 12/00 51506 10300 20120 30082 40208 58011 60006 80001 91500=
07240,1998-06-19 18:00:00,27,1020,-0.9,48,15,500,11.112,,,110,16.1,29.6,,,,,,,,,wg-a,,,,AAXX 19184 07240 12/00 71106 10270 20150 30073 40200 56009 60006 80002 91800 333 10296 20161=
07240,1998-06-19 21:00:00,21,1020.5,0.2,64,14,500,14.816,,,110,,,,,,,,,,,wg-a,,,,AAXX 19214 07240 12/00 51108 10210 20140 30075 40205 53002 60006 80002 92100=
07240,1998-06-20 03:00:00,15,1019.6,-0.8,88,13,500,11.112,,,70,,,,,,,,,,,wg-a,,,,AAXX 20034 07240 12/00 50706 10150 20130 30064 40196 56008 60006 80002 90300=
07240,1998-06-20 06:00:00,18,1019.5,-0,83,15,500,11.112,,,90,14.3,27.1,,,,,,,,,wg-a,,,,AAXX 20064 07240 02/00 20906 10180 20150 30064 40195 55000 60006 80002 90600 333 10271 20143 60004=
07240,1998-06-20 09:00:00,25,1018.9,-0.3,57,16,500,11.112,,,130,,,,,,,,,,,wg-a,,,,AAXX 20094 07240 12/00 51306 10250 20160 30061 40189 58003 60006 80002 90900=
07240,1998-06-20 12:00:00,32,1017.3,-1.3,32,13,500,18.52,,,150,,,,,,,,,,,wg-a,,,,AAXX 20124 07240 12/00 41510 10320 20130 30048 40173 58013 60006 80002 91200=
07240,1998-06-20 15:00:00,34,1016,-1.2,22,9,500,18.52,,,180,,,,,,,,,,,wg-a,,,,AAXX 20154 07240 12/00 41810 10340 20090 30036 40160 56012 60006 80001 91500=
07240,1998-06-20 18:00:00,33,1015.7,-0.3,24,10,500,14.816,,,160,17.7,34.7,,,,,,,,,wg-a,,,,AAXX 20184 07240 12/00 51608 10330 20100 30033 40157 58003 60006 80002 91800 333 10347 20177=
07240,1998-06-20 21:00:00,27,1017,1,42,13,500,14.816,,,180,,,,,,,,,,,wg-a,,,,AAXX 20214 07240 12/00 21808 10270 20130 30043 40170 53010 60006 80002 92100=
07240,1998-06-21 00:00:00,24,1017.4,0.3,57,15,500,18.52,,,190,,,,,,,,,,,wg-a,,,,AAXX 21004 07240 12/00 01910 10240 20150 30046 40174 51003 60006 80000 90000=
07240,1998-06-21 03:00:00,23,1017.6,0.2,61,15,500,18.52,,,200,,,,,,,,,,,wg-a,,,,AAXX 21034 07240 12/00 62010 10230 20150 30048 40176 50002 60006 80002 90300=
07240,1998-06-21 06:00:00,22,1018.5,0.8,60,14,25000,22.224,,,220,21.4,32.7,,,,,,,,,wg-a,,,,AAXX 21064 07240 02/75 72212 10220 20140 30056 40185 53008 60006 81082 90600 333 10327 20214 60004=
07240,1998-06-21 09:00:00,24,1019.4,1,65,17,500,14.816,,,240,,,,,,,,,,,wg-a,,,,AAXX 21094 07240 12/00 72408 10240 20170 30066 40194 51010 60006 82082 90900=
07240,1998-06-21 12:00:00,24,1020.3,0.9,65,17,20000,18.52,,,250,,,,,,,,,,,wg-a,,,,AAXX 21124 07240 12/70 72510 10240 20170 30075 40203 51009 60006 85082 91200=
07240,1998-06-21 15:00:00,27,1019.5,-0.7,54,17,20000,14.816,,,240,,,,,,,,,,,wg-a,,,,AAXX 21154 07240 12/70 72408 10270 20170 30068 40195 56007 60006 83082 91500=
07240,1998-06-21 18:00:00,23,1021.3,1.6,65,16,15000,22.224,,,280,21.3,27.4,,,,,,,,,wg-a,,,,AAXX 21184 07240 12665 52812 10230 20160 30084 40213 53016 60006 81231 91800 333 10274 20213=
07240,1998-06-21 21:00:00,18,1023.9,2.4,83,15,15000,11.112,,,280,,,,,,,,,,,wg-a,,,,AAXX 21214 07240 12565 52806 10180 20150 30108 40239 53024 60006 83102 92100=
07240,1998-06-22 00:00:00,15,1025.4,1.3,94,14,15000,11.112,,,270,,,,,,,,,,,wg-a,,,,AAXX 22004 07240 12565 52706 10150 20140 30121 40254 51013 60006 83102 90000=
07240,1998-06-22 03:00:00,14,1025.4,-0.1,94,13,11000,7.408,,,280,,,,,,,,,,,wg-a,,,,AAXX 22034 07240 12/61 /2804 10140 20130 30120 40254 57001 60006 90300=
07240,1998-06-22 06:00:00,15,1026.6,1.3,94,14,13000,3.704,,,300,12.8,22.8,,,,,,,,,wg-a,,,,AAXX 22064 07240 02663 43002 10150 20140 30133 40266 51013 60006 84501 90600 333 10228 20128 60004=
07240,1998-06-22 09:00:00,20,1026.4,0,56,11,20000,7.408,,,250,,,,,,,,,,,wg-a,,,,AAXX 22094 07240 12670 42504 10200 20110 30133 40264 50000 60006 84101 90900=
07240,1998-06-22 12:00:00,23,1025.5,-0.8,47,11,20000,18.52,,,270,,,,,,,,,,,wg-a,,,,AAXX 22124 07240 12670 /2710 10230 20110 30125 40255 58008 60006 85100 91200=
07240,1998-06-22 15:00:00,23,1024.7,-0.7,50,12,20000,11.112,,,320,,,,,,,,,,,wg-a,,,,AAXX 22154 07240 12770 53206 10230 20120 30118 40247 56007 60006 85100 91500=
07240,1998-06-22 18:00:00,22,1023.8,-1,50,11,500,11.112,,,300,15.1,24,,,,,,,,,wg-a,,,,AAXX 22184 07240 12700 23006 10220 20110 30108 40238 56010 60006 81801 91800 333 10240 20151=
07240,1998-06-22 21:00:00,18,1024.6,0.6,68,12,20000,3.704,,,330,,,,,,,,,,,wg-a,,,,AAXX 22214 07240 12770 33302 10180 20120 30114 40246 53006 60006 82501 92100=
07240,1998-06-23 00:00:00,14,1025.1,0.3,72,9,20000,11.112,,,300,,,,,,,,,,,wg-a,,,,AAXX 23004 07240 12770 13006 10140 20090 30117 40251 50003 60006 81500 90000=
07240,1998-06-23 03:00:00,12,1024.1,-1,88,10,20000,3.704,,,310,,,,,,,,,,,wg-a,,,,AAXX 23034 07240 12770 13102 10120 20100 30107 40241 56010 60006 81500 90300=
07240,1998-06-23 06:00:00,13,1024.3,0.2,88,11,20000,3.704,,,290,10.8,22.4,,,,,,,,,wg-a,,,,AAXX 23064 07240 02770 32902 10130 20110 30109 40243 53002 60006 82501 90600 333 10224 20108 60004=
07240,1998-06-23 09:00:00,20,1023.5,-0.5,64,13,500,7.408,,,260,,,,,,,,,,,wg-a,,,,AAXX 23094 07240 12600 32604 10200 20130 30104 40235 58005 60006 81101 90900=
07240,1998-06-23 12:00:00,23,1022.2,-1.1,38,8,500,7.408,,,230,,,,,,,,,,,wg-a,,,,AAXX 23124 07240 12700 32304 10230 20080 30093 40222 58011 60006 81131 91200=
07240,1998-06-23 15:00:00,25,1020.5,-1.6,39,10,500,11.112,,,300,,,,,,,,,,,wg-a,,,,AAXX 23154 07240 12/00 53006 10250 20100 30077 40205 58016 60006 81031 91500=
07240,1998-06-23 18:00:00,24,1019.6,-0.9,36,8,500,7.408,,,350,12.7,25.3,,,,,,,,,wg-a,,,,AAXX 23184 07240 12/00 53504 10240 20080 30068 40196 56009 60006 80001 91800 333 10253 20127=
07240,1998-06-24 03:00:00,14,1017,-1.4,88,12,10000,7.408,,,100,,,,,,,,,,,wg-a,,,,AAXX 24034 07240 12/60 31004 10140 20120 30038 40170 58014 60006 80001 90300=
07240,1998-06-24 06:00:00,16,1016.7,,88,14,15000,3.704,,,80,13.2,24.1,,,,,,,,,wg-a,,,,AAXX 24064 07240 02/65 30802 10160 20140 30036 40167 60006 80001 90600 333 10241 20132 60004=
07240,1998-06-24 09:00:00,24,1015.6,-0.8,44,11,25000,11.112,,,200,,,,,,,,,,,wg-a,,,,AAXX 24094 07240 12/75 22006 10240 20110 30028 40156 58008 60006 80001 90900=
07240,1998-06-24 12:00:00,27,1014,-1.5,37,11,500,14.816,,,210,,,,,,,,,,,wg-a,,,,AAXX 24124 07240 12700 22108 10270 20110 30013 40140 56015 60006 81101 91200=
07240,1998-06-24 15:00:00,28,1012.1,-1.8,37,12,500,11.112,,,220,,,,,,,,,,,wg-a,,,,AAXX 24154 07240 12700 22206 10280 20120 39995 40121 58018 60006 81101 91500=
07240,1998-06-24 18:00:00,26,1011.5,-0.7,42,12,500,18.52,,,270,16.1,28.6,,,,,,,,,wg-a,,,,AAXX 24184 07240 12700 32710 10260 20120 39988 40115 56007 60006 81131 91800 333 10286 20161=
07240,1998-06-24 21:00:00,20,1012.5,0.8,56,11,10000,11.112,,,280,,,,,,,,,,,wg-a,,,,AAXX 24214 07240 12/60 /2806 10200 20110 39996 40125 53008 60006 92100=
07240,1998-06-25 00:00:00,15,1013.2,0.4,77,11,500,11.112,,,260,,,,,,,,,,,wg-a,,,,AAXX 25004 07240 12/00 62606 10150 20110 30000 40132 52004 60006 82032 90000=
07240,1998-06-25 03:00:00,16,1013,-0.1,88,14,15000,14.816,,,250,,,,,,,,,,,wg-a,,,,AAXX 25034 07240 12365 72508 10160 20140 39999 40130 58001 60006 878// 90300=
07240,1998-06-25 06:00:00,15,1014.6,1.5,88,13,15000,14.816,,,270,14.7,25.6,,,,,,,,25,wg-a,,,,AAXX 25064 07240 02465 72708 10150 20130 30014 40146 53015 61000 72586 878// 90600 333 10256 20147 6100=
07240,1998-06-25 09:00:00,19,1015.6,1.2,60,11,25000,11.112,,,290,,,,,,,,,,,wg-a,,,,AAXX 25094 07240 12575 42906 10190 20110 30026 40156 51012 60006 81132 90900=
07240,1998-06-25 12:00:00,22,1015.6,0.1,50,11,500,14.816,,,270,,,,,,,,,,,wg-a,,,,AAXX 25124 07240 12600 62708 10220 20110 30027 40156 50001 60006 84802 91200=
07240,1998-06-25 15:00:00,22,1014.8,-0.8,43,9,500,18.52,,,220,,,,,,,,,,,wg-a,,,,AAXX 25154 07240 12600 62210 10220 20090 30019 40148 56008 60006 85802 91500=
07240,1998-06-25 18:00:00,21,1014.7,-0.1,49,10,500,14.816,,,280,14.3,23.5,,,,,,,,,wg-a,,,,AAXX 25184 07240 12700 72808 10210 20100 30018 40147 55001 60006 82802 91800 333 10235 20143=
07240,1998-06-25 21:00:00,17,1015.9,1,59,9,500,14.816,,,270,,,,,,,,,,,wg-a,,,,AAXX 25214 07240 12700 72708 10170 20090 30028 40159 53010 60006 825/2 92100=
07240,1998-06-26 00:00:00,14,1016.9,0.8,72,9,20000,11.112,,,290,,,,,,,,,,,wg-a,,,,AAXX 26004 07240 12770 72906 10140 20090 30036 40169 51008 60006 825/2 90000=
07240,1998-06-26 03:00:00,11,1016.5,-0.5,87,9,20000,7.408,,,260,,,,,,,,,,,wg-a,,,,AAXX 26034 07240 12/70 72604 10110 20090 30031 40165 57005 60006 84072 90300=
07240,1998-06-26 06:00:00,14,1016.6,0.3,82,11,20000,7.408,,,260,10.8,21.8,,,,,,,,,wg-a,,,,AAXX 26064 07240 02/70 62604 10140 20110 30034 40166 51003 60006 83072 90600 333 10218 20108 60004=
07240,1998-06-26 09:00:00,18,1016.4,-0.1,64,11,20000,11.112,,,210,,,,,,,,,,,wg-a,,,,AAXX 26094 07240 12570 62106 10180 20110 30033 40164 58001 60006 84282 90900=
07240,1998-06-26 12:00:00,22,1015.8,-0.4,43,9,20000,22.224,,,230,,,,,,,,,,,wg-a,,,,AAXX 26124 07240 12670 /2312 10220 20090 30029 40158 58004 60006 85202 91200=
07240,1998-06-26 15:00:00,22,1014.7,-1.1,43,9,20000,18.52,,,240,,,,,,,,,,,wg-a,,,,AAXX 26154 07240 12770 62410 10220 20090 30018 40147 56011 60006 83202 91500=
07240,1998-06-26 18:00:00,21,1014.5,-0.2,49,10,20000,14.816,,,270,14.1,23.5,,,,,,,,,wg-a,,,,AAXX 26184 07240 12770 72708 10210 20100 30016 40145 55002 60006 81532 91800 333 10235 20141=
07240,1998-06-26 21:00:00,16,1015.2,0.5,68,10,15000,11.112,,,230,,,,,,,,,,,wg-a,,,,AAXX 26214 07240 12665 /2306 10160 20100 30021 40152 53005 60006 82532 92100=
07240,1998-06-27 00:00:00,13,1015.6,0.2,82,10,15000,11.112,,,250,,,,,,,,,,,wg-a,,,,AAXX 27004 07240 12/65 02506 10130 20100 30023 40156 53002 60006 80000 90000=
07240,1998-06-27 03:00:00,13,1014.7,-0.9,82,10,10000,7.408,,,210,,,,,,,,,,,wg-a,,,,AAXX 27034 07240 12/60 52104 10130 20100 30014 40147 57009 60006 80002 90300=
07240,1998-06-27 06:00:00,14,1014.5,-0.1,82,11,15000,11.112,,,220,12.1,20.8,,,,,,,,,wg-a,,,,AAXX 27064 07240 02/65 72206 10140 20110 30013 40145 56001 60006 84072 90600 333 10208 20121 60004=
07240,1998-06-27 09:00:00,18,1014.1,-0.2,68,12,500,22.224,,,210,,,,,,,,,,,wg-a,,,,AAXX 27094 07240 12500 72112 10180 20120 30011 40141 57002 60006 82102 90900=
07240,1998-06-27 12:00:00,23,1012.7,-1.2,50,12,500,25.928,,,220,,,,,,,,,,,wg-a,,,,AAXX 27124 07240 12600 72214 10230 20120 39999 40127 56012 60006 82272 91200=
07240,1998-06-27 15:00:00,22,1012.7,-0.1,50,11,25000,31.484,,,240,,,,,,,,,,,wg-a,,,,AAXX 27154 07240 12675 72417 10220 20110 39998 40127 55001 60006 8551/ 91500=
07240,1998-06-27 18:00:00,17,1014.2,1.3,82,14,25000,22.224,,,260,13.6,23.5,,,,,,,,21,wg-a,,,,AAXX 27184 07240 02375 72612 10170 20140 30011 40142 53013 61000 72162 8587/ 91800 333 10235 20136 6000=
07240,1998-06-27 21:00:00,16,1016.1,1.8,77,12,25000,18.52,,,260,,,,,,,,,,,wg-a,,,,AAXX 27214 07240 12675 /2610 10160 20120 30029 40161 53018 60006 81500 92100=
07240,1998-06-28 00:00:00,12,1017.8,1.6,88,10,20000,14.816,,,250,,,,,,,,,,,wg-a,,,,AAXX 28004 07240 12/70 02508 10120 20100 30045 40178 53016 60006 80000 90000=
07240,1998-06-28 03:00:00,11,1018.8,0.9,94,10,20000,11.112,,,260,,,,,,,,,,,wg-a,,,,AAXX 28034 07240 12/70 02606 10110 20100 30054 40188 52009 60006 80000 90300=
07240,1998-06-28 06:00:00,12,1020.3,1.5,94,11,20000,11.112,,,260,9.7,16.8,,,,,,,,,wg-a,,,,AAXX 28064 07240 02/70 02606 10120 20110 30069 40203 51015 60006 80000 90600 333 10168 20097 60004=
07240,1998-06-28 09:00:00,17,1021,0.9,68,11,500,11.112,,,280,,,,,,,,,,,wg-a,,,,AAXX 28094 07240 12500 32806 10170 20110 30078 40210 51009 60006 83200 90900=
07240,1998-06-28 12:00:00,20,1020.7,-0.1,46,8,10000,14.816,,,260,,,,,,,,,,,wg-a,,,,AAXX 28124 07240 12/60 /2608 10200 20080 30077 40207 58001 60006 91200=
07240,1998-06-28 18:00:00,20,1020.5,-0.2,49,9,500,14.816,,,280,12.1,22,,,,,,,,,wg-a,,,,AAXX 28184 07240 12700 52808 10200 20090 30075 40205 56002 60006 85800 91800 333 10220 20121=
07240,1998-06-28 21:00:00,16,1021.4,0.7,68,10,500,3.704,,,300,,,,,,,,,,,wg-a,,,,AAXX 28214 07240 12800 43002 10160 20100 30082 40214 53007 60006 84500 92100=
07240,1998-06-29 00:00:00,12,1022,0.4,82,9,500,7.408,,,280,,,,,,,,,,,wg-a,,,,AAXX 29004 07240 12/00 02804 10120 20090 30086 40220 51004 60006 80000 90000=
07240,1998-06-29 06:00:00,12,1022.2,0.5,94,11,20000,7.408,,,340,9,20.7,,,,,,,,,wg-a,,,,AAXX 29064 07240 02/70 13404 10120 20110 30088 40222 53005 60006 80001 90600 333 10207 20090 60004=
07240,1998-06-29 09:00:00,19,1021.8,-0.1,60,11,25000,3.704,,,290,,,,,,,,,,,wg-a,,,,AAXX 29094 07240 12575 32902 10190 20110 30087 40218 58001 60006 83101 90900=
07240,1998-06-29 12:00:00,22,1020.7,-1,46,10,25000,11.112,,,270,,,,,,,,,,,wg-a,,,,AAXX 29124 07240 12675 42706 10220 20100 30077 40207 57010 60006 84101 91200=
07240,1998-06-29 15:00:00,23,1019.5,-1.1,47,11,500,11.112,,,340,,,,,,,,,,,wg-a,,,,AAXX 29154 07240 12700 53406 10230 20110 30066 40195 56011 60006 84131 91500=
07240,1998-06-29 18:00:00,20,1019,-0.6,56,11,500,18.52,,,320,12.3,23.4,,,,,,,,,wg-a,,,,AAXX 29184 07240 12/00 33210 10200 20110 30060 40190 56006 60006 80002 91800 333 10234 20123=
07240,1998-06-29 21:00:00,15,1020,0.7,72,10,500,7.408,,,330,,,,,,,,,,,wg-a,,,,AAXX 29214 07240 12/00 13304 10150 20100 30067 40200 53007 60006 80001 92100=
07240,1998-06-30 00:00:00,12,1019.6,-0.5,88,10,500,0,,,0,,,,,,,,,,,wg-a,,,,AAXX 30004 07240 12/00 10000 10120 20100 30062 40196 58005 60006 80001 90000=
07240,1998-06-30 03:00:00,10,1018.5,-1.2,93,9,500,0,,,0,,,,,,,,,,,wg-a,,,,AAXX 30034 07240 12/00 20000 10100 20090 30050 40185 56012 60006 80001 90300=
07240,1998-06-30 06:00:00,13,1017.7,-0.6,88,11,20000,7.408,,,270,9.7,19.8,,,,,,,,,wg-a,,,,AAXX 30064 07240 02/70 62704 10130 20110 30044 40177 57006 60006 84032 90600 333 10198 20097 60004=
07240,1998-06-30 09:00:00,17,1017.4,-0.1,72,12,18000,18.52,,,270,,,,,,,,,,,wg-a,,,,AAXX 30094 07240 12468 72710 10170 20120 30043 40174 58001 60006 81132 90900=
07240,1998-06-30 12:00:00,20,1016.9,-0.4,60,12,20000,22.224,,,250,,,,,,,,,,,wg-a,,,,AAXX 30124 07240 12570 72512 10200 20120 30039 40169 58004 60006 81132 91200=
07240,1998-06-30 15:00:00,20,1016.2,-0.7,68,14,20000,22.224,,,240,,,,,,,,,,,wg-a,,,,AAXX 30154 07240 12570 72412 10200 20140 30032 40162 58007 60006 8653/ 91500=
07240,1998-06-30 18:00:00,20,1014.6,-1.5,68,14,20000,18.52,,,230,12.5,21.2,,,,,,,,,wg-a,,,,AAXX 30184 07240 12670 62310 10200 20140 30017 40146 57015 60006 83532 91800 333 10212 20125=
07240,1998-06-30 21:00:00,17,1014.9,0.1,88,15,20000,7.408,,,340,,,,,,,,,,,wg-a,,,,AAXX 30214 07240 12570 73404 10170 20150 30018 40149 53001 60006 875// 92100=
07240,1998-07-01 00:00:00,16,1014.7,-0.2,94,15,20000,11.112,,,260,,,,,,,,,,,wg-a,,,,AAXX 01004 07240 12570 62606 10160 20150 30016 40147 58002 60006 81532 90000=
07240,1998-07-01 03:00:00,14,1012.7,-2.1,94,13,20000,3.704,,,40,,,,,,,,,,,wg-a,,,,AAXX 01034 07240 12/70 70402 10140 20130 39995 40127 58021 60006 85032 90300=
07240,1998-07-01 06:00:00,16,1012.4,-0.2,94,15,7000,7.408,,,110,13.7,20.9,,,,,,,,,wg-a,,,,AAXX 01064 07240 02257 71104 10160 20150 39993 40124 56002 60006 876// 90600 333 10209 20137 60004=
07240,1998-07-01 09:00:00,19,1011,-1.2,83,16,12000,11.112,,,80,,,,,,,,,,,wg-a,,,,AAXX 01094 07240 12462 70806 10190 20160 39981 40110 57012 60006 8653/ 90900=
07240,1998-07-01 12:00:00,23,1009.4,-1.5,61,15,25000,22.224,,,60,,,,,,,,,,,wg-a,,,,AAXX 01124 07240 12575 70612 10230 20150 39966 40094 58015 60006 83832 91200=
07240,1998-07-01 15:00:00,20,1008.7,-0.8,78,16,11000,22.224,,,30,,,,,,,,,,,wg-a,,,,AAXX 01154 07240 32/61 /0312 10200 20160 39958 40087 56008 91500=
07240,1998-07-01 18:00:00,19,1008.3,-0.4,68,13,20000,31.484,,,50,15.5,23.5,,,,,,,,1,wg-a,,,,AAXX 01184 07240 02770 70517 10190 20130 39954 40083 58004 60006 70162 81572 91800 333 10235 20155 61000=
07240,1998-07-01 21:00:00,18,1009.7,1.3,68,12,20000,22.224,,,50,,,,,,,,,,,wg-a,,,,AAXX 01214 07240 12/70 70512 10180 20120 39967 40097 53013 60006 87072 92100=
07240,1998-07-02 00:00:00,16,1010.1,0.3,77,12,15000,22.224,,,60,,,,0,,,,,,21,wg-a,,,,AAXX 02004 07240 02/65 80612 10160 20120 39970 40101 53003 60006 72162 85071 90000 333 60007=
07240,1998-07-02 03:00:00,16,1009.8,-0.3,77,12,11000,25.928,,,60,,,,,,,,,,,wg-a,,,,AAXX 02034 07240 12/61 /0614 10160 20120 39967 40098 58003 60006 90300=
07240,1998-07-02 06:00:00,14,1010,0.2,88,12,12000,22.224,,,70,14.1,19.2,,,,,,,,61,wg-a,,,,AAXX 02064 07240 02662 80712 10140 20120 39969 40100 53002 61000 76162 8557/ 90600 333 10192 20141 6001=
07240,1998-07-02 09:00:00,14,1011.5,1.4,94,13,8000,18.52,,,50,,,,14,,,,,,60,wg-a,,,,AAXX 02094 07240 12258 80510 10140 20130 39983 40115 53014 60147 76066 8557/ 90900=
07240,1998-07-02 12:00:00,16,1012.4,1,88,14,15000,31.484,,,70,,,,,,,,,,2,wg-a,,,,AAXX 02124 07240 02365 80717 10160 20140 39993 40124 51010 60146 70262 878// 91200 333 61000=
07240,1998-07-02 15:00:00,18,1012.6,0.3,77,14,20000,22.224,,,90,,,,,,,,,,,wg-a,,,,AAXX 02154 07240 12470 /0912 10180 20140 39996 40126 53003 60006 85830 91500=
07240,1998-07-02 18:00:00,18,1012.5,-0.1,83,15,20000,18.52,,,90,13.6,19.5,,,,,,,,,wg-a,,,,AAXX 02184 07240 12470 70910 10180 20150 39995 40125 56001 60006 875// 91800 333 10195 20136=
07240,1998-07-03 00:00:00,17,1014.3,0.5,82,14,10000,11.112,,,70,,,,,,,,,,,wg-a,,,,AAXX 03004 07240 12660 70706 10170 20140 30012 40143 52005 60006 875// 90000=
07240,1998-07-03 03:00:00,16,1014.4,0.1,82,13,10000,14.816,,,40,,,,,,,,,,,wg-a,,,,AAXX 03034 07240 12660 70408 10160 20130 30013 40144 52001 60006 875// 90300=
07240,1998-07-03 06:00:00,14,1016.4,1.9,88,12,10000,14.816,,,20,14.4,18.4,,,,,14,,,,wg-a,,,,AAXX 03064 07240 02460 70208 10140 20120 30032 40164 53019 60006 875// 90600 333 10184 20144 60144=
07240,1998-07-03 09:00:00,15,1018.2,1.8,94,14,6000,14.816,,,20,,,,1,,,,,,60,wg-a,,,,AAXX 03094 07240 12456 70208 10150 20140 30050 40182 52018 60017 76062 875// 90900=
07240,1998-07-03 12:00:00,18,1019.6,1.5,77,14,12000,11.112,,,360,,,,,,,,,,1,wg-a,,,,AAXX 03124 07240 02562 /3606 10180 20140 30065 40196 51015 60016 70162 86500 91200 333 61000=
07240,1998-07-03 15:00:00,21,1019.8,0.3,60,13,15000,14.816,,,350,,,,,,,,,,,wg-a,,,,AAXX 03154 07240 12665 /3508 10210 20130 30068 40198 53003 60006 86800 91500=
07240,1998-07-03 18:00:00,20,1021.3,1.5,60,12,15000,14.816,,,340,14.3,22.2,,,,,,,,,wg-a,,,,AAXX 03184 07240 12765 73408 10200 20120 30083 40213 52015 60006 875// 91800 333 10222 20143=
07240,1998-07-04 00:00:00,11,1024.9,1.3,94,10,20000,3.704,,,330,,,,,,,,,,,wg-a,,,,AAXX 04004 07240 12/70 13302 10110 20100 30114 40249 51013 60006 80001 90000=
07240,1998-07-04 06:00:00,11,1025.8,0.7,94,10,10000,3.704,,,360,8,20.4,,,,,1,,,,wg-a,,,,AAXX 04064 07240 02/60 13602 10110 20100 30123 40258 52007 60006 81030 90600 333 10204 20080 60014=
07240,1998-07-04 09:00:00,17,1025.9,0.4,63,10,20000,7.408,,,360,,,,,,,,,,,wg-a,,,,AAXX 04094 07240 12570 /3604 10170 20100 30127 40259 50004 60006 81101 90900=
07240,1998-07-04 12:00:00,21,1025.4,-0.4,49,10,20000,3.704,,,280,,,,,,,,,,,wg-a,,,,AAXX 04124 07240 12770 12802 10210 20100 30123 40254 58004 60006 81101 91200=
07240,1998-07-04 15:00:00,22,1024.3,-1,50,11,25000,11.112,,,350,,,,,,,,,,,wg-a,,,,AAXX 04154 07240 12775 13506 10220 20110 30113 40243 58010 60006 81101 91500=
07240,1998-07-04 18:00:00,22,1023.7,-0.6,50,11,25000,14.816,,,300,10.7,23.4,,,,,,,,,wg-a,,,,AAXX 04184 07240 12775 13008 10220 20110 30107 40237 55006 60006 81101 91800 333 10234 20107=
07240,1998-07-04 21:00:00,17,1024.5,0.6,77,13,15000,14.816,,,330,,,,,,,,,,,wg-a,,,,AAXX 04214 07240 12/65 03308 10170 20130 30113 40245 53006 60006 80000 92100=
07240,1998-07-05 00:00:00,13,1024.5,-0.2,88,11,10000,7.408,,,330,,,,,,,,,,,wg-a,,,,AAXX 05004 07240 12/60 03304 10130 20110 30111 40245 58002 60006 80000 90000=
07240,1998-07-05 03:00:00,11,1024.2,-0.4,94,10,10000,7.408,,,310,,,,,,,,,,,wg-a,,,,AAXX 05034 07240 12/60 03104 10110 20100 30107 40242 58004 60006 80000 90300=
07240,1998-07-05 06:00:00,12,1024.1,-0.1,94,11,12000,7.408,,,290,9.6,22,,,,,,,,,wg-a,,,,AAXX 05064 07240 02/62 02904 10120 20110 30106 40241 55001 60006 80000 90600 333 10220 20096 60004=
07240,1998-07-05 09:00:00,17,1023.8,-0,68,11,15000,11.112,,,310,,,,,,,,,,,wg-a,,,,AAXX 05094 07240 12565 /3106 10170 20110 30106 40238 55000 60006 85500 90900=
07240,1998-07-05 12:00:00,20,1022.8,-0.9,56,11,20000,18.52,,,300,,,,,,,,,,,wg-a,,,,AAXX 05124 07240 12670 23010 10200 20110 30097 40228 58009 60006 82500 91200=
07240,1998-07-05 15:00:00,22,1021.3,-1.3,57,13,20000,18.52,,,280,,,,,,,,,,,wg-a,,,,AAXX 05154 07240 12670 /2810 10220 20130 30084 40213 56013 60006 81500 91500=
07240,1998-07-05 18:00:00,19,1020.6,-0.9,64,12,20000,18.52,,,340,11.7,22.4,,,,,,,,,wg-a,,,,AAXX 05184 07240 12670 /3410 10190 20120 30075 40206 56009 60006 81500 91800 333 10224 20117=
07240,1998-07-05 21:00:00,14,1020.5,-0.3,88,12,20000,3.704,,,330,,,,,,,,,,,wg-a,,,,AAXX 05214 07240 12670 /3302 10140 20120 30072 40205 58003 60006 81500 92100=
07240,1998-07-06 00:00:00,14,1019.6,-0.9,88,12,20000,7.408,,,340,,,,,,,,,,,wg-a,,,,AAXX 06004 07240 12470 73404 10140 20120 30063 40196 58009 60006 875// 90000=
07240,1998-07-06 03:00:00,15,1018,-1.5,82,12,20000,7.408,,,320,,,,,,,,,,,wg-a,,,,AAXX 06034 07240 12470 73204 10150 20120 30048 40180 58015 60006 875// 90300=
07240,1998-07-06 06:00:00,15,1017.2,-0.8,82,12,25000,7.408,,,310,12.8,18.9,,,,,,,,,wg-a,,,,AAXX 06064 07240 02475 73104 10150 20120 30040 40172 56008 60006 875// 90600 333 10189 20128 60004=
07240,1998-07-06 12:00:00,18,1015.3,-1.2,68,12,500,7.408,,,270,,,,,,,,,,,wg-a,,,,AAXX 06124 07240 12500 72704 10180 20120 30023 40153 58012 60006 875// 91200=
07240,1998-07-06 15:00:00,21,1013.6,-1.6,64,14,500,14.816,,,290,,,,,,,,,,,wg-a,,,,AAXX 06154 07240 12500 52908 10210 20140 30007 40136 56016 60006 85800 91500=
07240,1998-07-06 18:00:00,20,1011.9,-1.7,60,12,35000,18.52,,,330,14.6,21.6,,,,,,,,,wg-a,,,,AAXX 06184 07240 12581 /3310 10200 20120 39990 40119 56017 60006 81800 91800 333 10216 20146=
07240,1998-07-06 21:00:00,15,1012,-0.1,82,12,500,3.704,,,20,,,,,,,,,,,wg-a,,,,AAXX 06214 07240 12500 /0202 10150 20120 39989 40120 55001 60006 81500 92100=
07240,1998-07-07 00:00:00,11,1011.9,-0.3,94,10,20000,7.408,,,320,,,,,,,,,,,wg-a,,,,AAXX 07004 07240 12/70 43204 10110 20100 39986 40119 58003 60006 80004 90000=
07240,1998-07-07 03:00:00,12,1010.9,-1,94,11,20000,7.408,,,350,,,,,,,,,,,wg-a,,,,AAXX 07034 07240 12670 73504 10120 20110 39976 40109 58010 60006 875// 90300=
07240,1998-07-07 06:00:00,14,1011.2,0.4,94,13,15000,7.408,,,340,11.1,19.6,,,,,,,,,wg-a,,,,AAXX 07064 07240 02565 73404 10140 20130 39980 40112 53004 60006 875// 90600 333 10196 20111 60004=
07240,1998-07-07 09:00:00,16,1012.9,1.8,82,13,15000,7.408,,,360,,,,,,,,,,,wg-a,,,,AAXX 07094 07240 12465 73604 10160 20130 39998 40129 53018 60006 878// 90900=
07240,1998-07-07 12:00:00,18,1013.5,0.7,68,12,18000,14.816,,,340,,,,,,,,,,,wg-a,,,,AAXX 07124 07240 12568 73408 10180 20120 30005 40135 53007 60006 878// 91200=
07240,1998-07-07 15:00:00,20,1014.1,0.6,60,12,25000,14.816,,,340,,,,,,,,,,,wg-a,,,,AAXX 07154 07240 12675 73408 10200 20120 30011 40141 53006 60006 878// 91500=
07240,1998-07-07 18:00:00,19,1014.3,0.2,68,13,20000,11.112,,,360,13.5,20.3,,,,,,,,,wg-a,,,,AAXX 07184 07240 12670 /3606 10190 20130 30013 40143 53002 60006 85832 91800 333 10203 20135=
07240,1998-07-07 21:00:00,17,1016.4,2,77,13,15000,3.704,,,360,,,,,,,,,,,wg-a,,,,AAXX 07214 07240 12665 73602 10170 20130 30033 40164 53020 60006 878// 92100=
07240,1998-07-08 00:00:00,15,1017,0.5,88,13,10000,3.704,,,280,,,,,,,,,,,wg-a,,,,AAXX 08004 07240 12660 /2802 10150 20130 30038 40170 50005 60006 85500 90000=
07240,1998-07-08 03:00:00,13,1017.1,-0,94,12,10000,7.408,,,340,,,,,,,,,,,wg-a,,,,AAXX 08034 07240 12660 73404 10130 20120 30038 40171 55000 60006 87500 90300=
07240,1998-07-08 06:00:00,13,1017.9,0.8,94,12,9000,11.112,,,330,12,19.5,,,,,,,,,wg-a,,,,AAXX 08064 07240 02759 73306 10130 20120 30046 40179 53008 60006 875// 90600 333 10195 20120 60004=
07240,1998-07-08 09:00:00,18,1018.1,0.4,68,12,12000,14.816,,,310,,,,,,,,,,,wg-a,,,,AAXX 08094 07240 12562 53108 10180 20120 30050 40181 50004 60006 82132 90900=
07240,1998-07-08 12:00:00,21,1018,0,53,11,15000,14.816,,,300,,,,,,,,,,,wg-a,,,,AAXX 08124 07240 12565 /3008 10210 20110 30050 40180 50000 60006 85102 91200=
07240,1998-07-08 18:00:00,21,1017.4,-0.4,46,9,25000,18.52,,,290,13,22.9,,,,,,,,,wg-a,,,,AAXX 08184 07240 12775 22910 10210 20090 30045 40174 56004 60006 81401 91800 333 10229 20130=
07240,1998-07-08 21:00:00,16,1019,1.3,72,11,10000,14.816,,,310,,,,,,,,,,,wg-a,,,,AAXX 08214 07240 12/60 /3108 10160 20110 30058 40190 53013 60006 92100=
07240,1998-07-09 00:00:00,12,1019.1,-0.1,88,10,20000,11.112,,,300,,,,,,,,,,,wg-a,,,,AAXX 09004 07240 12/70 03006 10120 20100 30057 40191 58001 60006 80000 90000=
07240,1998-07-09 03:00:00,10,1018.7,-0.4,93,9,10000,11.112,,,270,,,,,,,,,,,wg-a,,,,AAXX 09034 07240 12/60 /2706 10100 20090 30053 40187 57004 60006 90300=
07240,1998-07-09 06:00:00,13,1019,0.4,88,11,10000,11.112,,,260,10.2,21.3,,,,,,,,,wg-a,,,,AAXX 09064 07240 02560 82606 10130 20110 30057 40190 53004 60006 875// 90600 333 10213 20102 60004=
07240,1998-07-09 09:00:00,16,1019.1,0.2,77,12,12000,22.224,,,260,,,,,,,,,,,wg-a,,,,AAXX 09094 07240 12462 82612 10160 20120 30059 40191 50002 60006 875// 90900=
07240,1998-07-09 12:00:00,18,1019.1,0.1,64,11,20000,22.224,,,260,,,,,,,,,,,wg-a,,,,AAXX 09124 07240 12570 82612 10180 20110 30060 40191 53001 60006 878// 91200=
07240,1998-07-09 15:00:00,20,1018,-1,56,11,18000,22.224,,,270,,,,,,,,,,,wg-a,,,,AAXX 09154 07240 12668 72712 10200 20110 30050 40180 58010 60006 84532 91500=
07240,1998-07-09 18:00:00,20,1017.8,-0.2,60,12,18000,18.52,,,270,12.9,21.5,,,,,,,,,wg-a,,,,AAXX 09184 07240 12668 82710 10200 20120 30048 40178 56002 60006 875// 91800 333 10215 20129=
07240,1998-07-09 21:00:00,18,1018.4,0.5,68,12,15000,18.52,,,260,,,,,,,,,,,wg-a,,,,AAXX 09214 07240 12565 82610 10180 20120 30053 40184 53005 60006 875// 92100=
07240,1998-07-10 03:00:00,16,1017.3,-1.1,94,15,6000,14.816,,,240,,,,,,,,,,,wg-a,,,,AAXX 10034 07240 32/56 /2408 10160 20150 30041 40173 56011 90300=
07240,1998-07-10 06:00:00,16,1017.1,-0.1,100,16,7000,11.112,,,240,15.2,19.6,,,,,,,,50,wg-a,,,,AAXX 10064 07240 02257 82406 10160 20160 30040 40171 55001 61000 75052 877// 90600 333 10196 20152 6002=
07240,1998-07-10 09:00:00,19,1017.1,0.1,83,16,20000,18.52,,,270,,,,,,,,,,1,wg-a,,,,AAXX 10094 07240 02470 72710 10190 20160 30041 40171 50001 61000 70152 8687/ 90900 333 ////=
07240,1998-07-10 12:00:00,21,1017.6,0.6,60,13,500,22.224,,,270,,,,,,,,,,3,wg-a,,,,AAXX 10124 07240 02500 /2712 10210 20130 30047 40176 53006 61000 70352 86800 91200 333 ////=
07240,1998-07-10 15:00:00,21,1017,-0.6,53,11,500,22.224,,,260,,,,,,,,,,,wg-a,,,,AAXX 10154 07240 12600 72612 10210 20110 30041 40170 58006 60006 875// 91500=
07240,1998-07-10 18:00:00,20,1016.7,-0.4,64,13,35000,22.224,,,260,16,22.1,,,,,,,,,wg-a,,,,AAXX 10184 07240 12681 72612 10200 20130 30037 40167 58004 60006 875// 91800 333 10221 20160=
07240,1998-07-10 21:00:00,18,1017.3,0.5,73,13,500,18.52,,,260,,,,,,,,,,,wg-a,,,,AAXX 10214 07240 12500 /2610 10180 20130 30042 40173 53005 60006 86500 92100=
07240,1998-07-11 00:00:00,16,1017.4,0.1,88,14,20000,22.224,,,260,,,,,,,,,,,wg-a,,,,AAXX 11004 07240 12470 82612 10160 20140 30043 40174 50001 60006 875// 90000=
07240,1998-07-11 03:00:00,16,1017.1,-0.3,94,15,15000,18.52,,,260,,,,,,,,,,,wg-a,,,,AAXX 11034 07240 12365 82610 10160 20150 30040 40171 58003 60006 876// 90300=
07240,1998-07-11 06:00:00,16,1017.7,0.6,94,15,20000,18.52,,,280,15.5,19.8,,,,,,,,,wg-a,,,,AAXX 11064 07240 02470 72810 10160 20150 30046 40177 53006 60006 84801 90600 333 10198 20155 61000=
07240,1998-07-11 09:00:00,18,1018.7,1,68,12,500,18.52,,,280,,,,,,,,,,,wg-a,,,,AAXX 11094 07240 12500 72810 10180 20120 30056 40187 51010 60006 86801 90900=
07240,1998-07-11 12:00:00,21,1018.7,0.1,53,11,35000,18.52,,,260,,,,,,,,,,,wg-a,,,,AAXX 11124 07240 12681 72610 10210 20110 30057 40187 50001 60006 81402 91200=
07240,1998-07-11 15:00:00,24,1017.5,-1,44,11,35000,22.224,,,260,,,,,,,,,,,wg-a,,,,AAXX 11154 07240 12681 72612 10240 20110 30047 40175 56010 60006 81502 91500=
07240,1998-07-11 18:00:00,23,1016.5,-1.1,47,11,500,25.928,,,260,16.3,24.7,,,,,,,,,wg-a,,,,AAXX 11184 07240 12/00 62614 10230 20110 30036 40165 56011 60006 83032 91800 333 10247 20163=
07240,1998-07-11 21:00:00,18,1017.1,0.5,73,13,25000,18.52,,,260,,,,,,,,,,,wg-a,,,,AAXX 11214 07240 12/75 72610 10180 20130 30041 40171 53005 60006 85072 92100=
07240,1998-07-12 00:00:00,16,1016.5,-0.7,82,13,20000,25.928,,,240,,,,,,,,,,,wg-a,,,,AAXX 12004 07240 12470 72414 10160 20130 30034 40165 58007 60006 875// 90000=
07240,1998-07-12 03:00:00,15,1016.2,-0.4,94,14,4000,18.52,,,230,,,,,,,,,,50,wg-a,,,,AAXX 12034 07240 02240 82310 10150 20140 30030 40162 56004 61000 75052 887// 90300 333 ////=
07240,1998-07-12 06:00:00,16,1015.5,-0.6,94,15,10000,18.52,,,230,15,22.6,,,,,,,,20,wg-a,,,,AAXX 12064 07240 02260 72310 10160 20150 30024 40155 58006 61000 72052 875// 90600 333 10226 20150 6000=
07240,1998-07-12 09:00:00,19,1015.6,0.2,78,15,15000,25.928,,,240,,,,,,,,,,,wg-a,,,,AAXX 12094 07240 12465 82414 10190 20150 30026 40156 51002 60006 875// 90900=
07240,1998-07-12 12:00:00,24,1014.8,-0.6,61,16,11000,29.632,,,250,,,,,,,,,,,wg-a,,,,AAXX 12124 07240 12/61 /2516 10240 20160 30020 40148 58006 60006 91200=
07240,1998-07-12 15:00:00,26,1013.3,-1.4,51,15,500,29.632,,,240,,,,,,,,,,,wg-a,,,,AAXX 12154 07240 12600 22416 10260 20150 30006 40133 56014 60006 82100 91500=
07240,1998-07-12 18:00:00,23,1012.1,-1.3,57,14,35000,31.484,,,250,16.2,26,,,,,,,,,wg-a,,,,AAXX 12184 07240 12781 12517 10230 20140 39993 40121 56013 60006 814/2 91800 333 10260 20162=
07240,1998-07-12 21:00:00,19,1013,0.7,73,14,11000,18.52,,,240,,,,,,,,,,,wg-a,,,,AAXX 12214 07240 12/61 /2410 10190 20140 30000 40130 53007 60006 92100=
07240,1998-07-13 00:00:00,17,1011.6,-1.4,82,14,20000,14.816,,,230,,,,,,,,,,,wg-a,,,,AAXX 13004 07240 12470 72308 10170 20140 39986 40116 58014 60006 875// 90000=
07240,1998-07-13 06:00:00,18,1010.5,-0.2,83,15,500,18.52,,,220,16.7,23.4,,,,,,,,,wg-a,,,,AAXX 13064 07240 02400 82210 10180 20150 39975 40105 57002 60006 875// 90600 333 10234 20167 60004=
07240,1998-07-13 09:00:00,18,1010.1,-0.3,83,15,20000,22.224,,,230,,,,,,,,,,,wg-a,,,,AAXX 13094 07240 12470 82312 10180 20150 39972 40101 58003 60006 875// 90900=
07240,1998-07-13 12:00:00,14,1012.7,2.3,94,13,15000,22.224,,,330,,,,3,,,,,,60,wg-a,,,,AAXX 13124 07240 02465 73312 10140 20130 39995 40127 51023 60036 76062 875// 91200 333 60037=
07240,1998-07-13 15:00:00,21,1012.9,0.5,53,11,35000,25.928,,,300,,,,,,,,,,1,wg-a,,,,AAXX 13154 07240 02681 33014 10210 20110 30000 40129 53005 61000 70161 83200 91500 333 ////=
07240,1998-07-13 18:00:00,20,1014.2,1.2,46,8,35000,22.224,,,330,14.3,21.7,,,,,,,,1,wg-a,,,,AAXX 13184 07240 12781 13312 10200 20080 30012 40142 51012 60006 70161 81100 91800 333 10217 20143=
07240,1998-07-13 21:00:00,13,1016.5,2,77,9,20000,7.408,,,340,,,,,,,,,,,wg-a,,,,AAXX 13214 07240 12/70 13404 10130 20090 30032 40165 53020 60006 80001 92100=
07240,1998-07-14 00:00:00,10,1017.5,0.8,87,8,20000,11.112,,,320,,,,,,,,,,,wg-a,,,,AAXX 14004 07240 12/70 03206 10100 20080 30040 40175 52008 60006 80000 90000=
07240,1998-07-14 03:00:00,8,1018,0.4,93,7,15000,7.408,,,270,,,,,,,,,,,wg-a,,,,AAXX 14034 07240 12/65 02704 10080 20070 30044 40180 51004 60006 80000 90300=
07240,1998-07-14 06:00:00,11,1018.3,0.5,94,10,15000,11.112,,,280,7.3,19.7,,,,,3,,,,wg-a,,,,AAXX 14064 07240 02/65 12806 10110 20100 30049 40183 53005 60006 80001 90600 333 10197 20073 60034=
07240,1998-07-14 09:00:00,17,1018.6,0.5,63,10,25000,14.816,,,290,,,,,,,,,,,wg-a,,,,AAXX 14094 07240 12575 /2908 10170 20100 30054 40186 50005 60006 85100 90900=
07240,1998-07-14 12:00:00,19,1018.2,-0.3,49,8,500,18.52,,,280,,,,,,,,,,,wg-a,,,,AAXX 14124 07240 12600 /2810 10190 20080 30051 40182 58003 60006 85200 91200=
07240,1998-07-14 15:00:00,21,1017.5,-0.6,43,8,500,14.816,,,290,,,,,,,,,,,wg-a,,,,AAXX 14154 07240 12700 52908 10210 20080 30045 40175 58006 60006 85800 91500=
07240,1998-07-14 18:00:00,21,1017,-0.5,46,9,35000,14.816,,,290,10.5,21.8,,,,,,,,,wg-a,,,,AAXX 14184 07240 12781 22908 10210 20090 30040 40170 57005 60006 81801 91800 333 10218 20105=
07240,1998-07-14 21:00:00,14,1018.4,1.1,72,9,35000,7.408,,,330,,,,,,,,,,,wg-a,,,,AAXX 14214 07240 12781 13304 10140 20090 30051 40184 53011 60006 81500 92100=
07240,1998-07-15 00:00:00,12,1019.4,0.9,82,9,25000,11.112,,,330,,,,,,,,,,,wg-a,,,,AAXX 15004 07240 12775 33306 10120 20090 30060 40194 51009 60006 83500 90000=
07240,1998-07-15 03:00:00,10,1019.1,-0.4,87,8,15000,7.408,,,260,,,,,,,,,,,wg-a,,,,AAXX 15034 07240 12765 12604 10100 20080 30056 40191 58004 60006 81500 90300=
07240,1998-07-15 06:00:00,12,1019.6,0.6,88,10,15000,7.408,,,270,8.7,20.5,,,,,,,,,wg-a,,,,AAXX 15064 07240 02765 52704 10120 20100 30062 40196 51006 60006 815/4 90600 333 10205 20087 60004=
07240,1998-07-15 09:00:00,18,1019.6,0.3,59,10,20000,18.52,,,260,,,,,,,,,,,wg-a,,,,AAXX 15094 07240 12570 52610 10180 20100 30065 40196 50003 60006 83105 90900=
07240,1998-07-15 12:00:00,20,1019.4,-0.1,49,9,25000,22.224,,,280,,,,,,,,,,,wg-a,,,,AAXX 15124 07240 12675 72812 10200 20090 30064 40194 57001 60006 85206 91200=
07240,1998-07-15 15:00:00,20,1018.9,-0.5,46,8,25000,14.816,,,260,,,,,,,,,,,wg-a,,,,AAXX 15154 07240 12675 /2608 10200 20080 30059 40189 55005 60006 83502 91500=
07240,1998-07-15 18:00:00,20,1017.6,-1.3,49,9,25000,11.112,,,270,11.6,21.4,,,,,,,,,wg-a,,,,AAXX 15184 07240 12775 72706 10200 20090 30046 40176 58013 60006 8157/ 91800 333 10214 20116=
07240,1998-07-15 21:00:00,16,1017.8,-0,68,10,20000,3.704,,,290,,,,,,,,,,,wg-a,,,,AAXX 15214 07240 12/70 72902 10160 20100 30046 40178 55000 60006 8707/ 92100=
07240,1998-07-16 00:00:00,15,1017.4,-0.4,72,10,11000,11.112,,,270,,,,,,,,,,,wg-a,,,,AAXX 16004 07240 12/61 /2706 10150 20100 30042 40174 58004 60006 90000=
07240,1998-07-16 03:00:00,15,1015.8,-1.6,77,11,15000,11.112,,,230,,,,,,,,,,,wg-a,,,,AAXX 16034 07240 12/65 72306 10150 20110 30026 40158 56016 60006 8707/ 90300=
07240,1998-07-16 06:00:00,15,1014.9,-0.9,82,12,15000,18.52,,,200,14.5,19.7,,,,,,,,,wg-a,,,,AAXX 16064 07240 02365 82010 10150 20120 30017 40149 56009 60006 8357/ 90600 333 10197 20145 60004=
07240,1998-07-16 09:00:00,17,1014.2,-0.6,77,13,10000,22.224,,,220,,,,,,,,,,51,wg-a,,,,AAXX 16094 07240 02460 72212 10170 20130 30011 40142 56006 61000 75152 875// 90900 333 ////=
07240,1998-07-16 12:00:00,18,1014.4,0.3,94,17,500,22.224,,,240,,,,0,,,,,,61,wg-a,,,,AAXX 16124 07240 02200 82412 10180 20170 30014 40144 52003 60006 76165 875// 91200 333 60007=
07240,1998-07-16 15:00:00,22,1014.3,0.1,69,16,25000,29.632,,,270,,,,0,,,,,,3,wg-a,,,,AAXX 16154 07240 12575 72716 10220 20160 30015 40143 53001 60007 70362 8587/ 91500=
07240,1998-07-16 18:00:00,20,1014.6,0.2,73,15,500,22.224,,,250,14.9,23.6,,,,,,,,3,wg-a,,,,AAXX 16184 07240 12500 72512 10200 20150 30017 40146 53002 60006 70362 878// 91800 333 10236 20149=
07240,1998-07-16 21:00:00,18,1016.3,1.5,73,13,20000,25.928,,,260,,,,,,,,,,,wg-a,,,,AAXX 16214 07240 12570 72614 10180 20130 30032 40163 53015 60006 878// 92100=
07240,1998-07-17 00:00:00,16,1017,0.6,82,13,20000,22.224,,,250,,,,,,,,,,,wg-a,,,,AAXX 17004 07240 12370 72512 10160 20130 30038 40170 51006 60006 875// 90000=
07240,1998-07-17 03:00:00,15,1016.9,-0.1,88,13,20000,18.52,,,240,,,,,,,,,,,wg-a,,,,AAXX 17034 07240 12370 72410 10150 20130 30037 40169 57001 60006 877// 90300=
07240,1998-07-17 06:00:00,15,1017.3,0.4,88,13,25000,14.816,,,230,14.9,20.1,,,,,,,,,wg-a,,,,AAXX 17064 07240 02375 82308 10150 20130 30041 40173 53004 60006 885// 90600 333 10201 20149 60004=
07240,1998-07-17 09:00:00,17,1017.1,-0.1,82,14,20000,22.224,,,230,,,,,,,,,,,wg-a,,,,AAXX 17094 07240 12470 82312 10170 20140 30040 40171 58001 60006 885// 90900=
07240,1998-07-17 12:00:00,20,1016.6,-0.4,73,15,10000,22.224,,,230,,,,,,,,,,20,wg-a,,,,AAXX 17124 07240 02460 82312 10200 20150 30036 40166 56004 61000 72052 875// 91200 333 6100=
07240,1998-07-17 15:00:00,23,1016,-0.4,61,15,20000,29.632,,,260,,,,,,,,,,,wg-a,,,,AAXX 17154 07240 12470 72616 10230 20150 30032 40160 57004 60006 878// 91500=
07240,1998-07-17 18:00:00,20,1016.1,-0,78,16,500,22.224,,,250,15.2,22.9,,,,,,,,,wg-a,,,,AAXX 17184 07240 12500 72512 10200 20160 30032 40161 55000 60006 878// 91800 333 10229 20152=
07240,1998-07-17 21:00:00,17,1017.1,0.8,94,16,12000,11.112,,,260,,,,0,,,,,,25,wg-a,,,,AAXX 17214 07240 12362 72606 10170 20160 30040 40171 53008 60007 72586 878// 92100=
07240,1998-07-18 00:00:00,15,1017.1,-0.1,94,14,15000,14.816,,,270,,,,,,,,,,1,wg-a,,,,AAXX 18004 07240 12465 22708 10150 20140 30039 40171 56001 60006 70186 82800 90000=
07240,1998-07-18 03:00:00,14,1016.7,-0.4,94,13,15000,11.112,,,260,,,,0,,,,,,,wg-a,,,,AAXX 18034 07240 12565 72606 10140 20130 30035 40167 58004 60007 877// 90300=
07240,1998-07-18 06:00:00,13,1017.2,0.4,100,13,7000,11.112,,,270,12.5,20.3,,,,,,,,3,wg-a,,,,AAXX 18064 07240 02257 72706 10130 20130 30039 40172 51004 60006 70386 876// 90600 333 10203 20125 60004=
07240,1998-07-18 12:00:00,22,1016.6,-0.5,53,12,500,14.816,,,280,,,,,,,,,,,wg-a,,,,AAXX 18124 07240 12600 72808 10220 20120 30037 40166 58005 60006 878// 91200=
07240,1998-07-18 15:00:00,22,1016.1,-0.5,57,13,500,14.816,,,290,,,,,,,,,,,wg-a,,,,AAXX 18154 07240 12600 72908 10220 20130 30032 40161 56005 60006 875// 91500=
07240,1998-07-18 18:00:00,22,1015.6,-0.5,57,13,500,11.112,,,300,13.4,23.3,,,,,,,,,wg-a,,,,AAXX 18184 07240 12700 63006 10220 20130 30027 40156 56005 60006 815/2 91800 333 10233 20134=
07240,1998-07-18 21:00:00,17,1016.5,0.7,72,12,500,3.704,,,30,,,,,,,,,,,wg-a,,,,AAXX 18214 07240 12/00 10302 10170 20120 30034 40165 53007 60006 81032 92100=
07240,1998-07-19 00:00:00,13,1016.6,-0.1,88,11,20000,7.408,,,80,,,,,,,,,,,wg-a,,,,AAXX 19004 07240 12/70 00804 10130 20110 30033 40166 55001 60006 80000 90000=
07240,1998-07-19 03:00:00,12,1015.7,-0.9,88,10,20000,11.112,,,90,,,,,,,,,,,wg-a,,,,AAXX 19034 07240 12/70 20906 10120 20100 30024 40157 56009 60006 80002 90300=
07240,1998-07-19 06:00:00,15,1014.9,-0.7,82,12,25000,14.816,,,90,11.4,22.2,,,,,,,,,wg-a,,,,AAXX 19064 07240 02/75 10908 10150 20120 30017 40149 56007 60006 80002 90600 333 10222 20114 60004=
07240,1998-07-19 09:00:00,23,1013.9,-0.6,57,14,25000,18.52,,,110,,,,,,,,,,,wg-a,,,,AAXX 19094 07240 12/75 21110 10230 20140 30011 40139 58006 60006 80002 90900=
07240,1998-07-19 12:00:00,29,1012.2,-1.4,40,14,500,11.112,,,120,,,,,,,,,,,wg-a,,,,AAXX 19124 07240 12/00 51206 10290 20140 39997 40122 58014 60006 80002 91200=
07240,1998-07-19 15:00:00,32,1010.5,-1.6,34,14,500,18.52,,,200,,,,,,,,,,,wg-a,,,,AAXX 19154 07240 12700 72010 10320 20140 39981 40105 56016 60006 81202 91500=
07240,1998-07-19 18:00:00,31,1009.5,-1,43,17,500,11.112,,,280,14.9,32.5,,,,,,,,,wg-a,,,,AAXX 19184 07240 12/00 52806 10310 20170 39971 40095 56010 60006 80002 91800 333 10325 20149=
07240,1998-07-19 21:00:00,25,1010.4,0.6,57,16,25000,3.704,,,260,,,,,,,,,,,wg-a,,,,AAXX 19214 07240 12/75 12602 10250 20160 39977 40104 53006 60006 80002 92100=
07240,1998-07-20 00:00:00,19,1011,0.4,83,16,20000,7.408,,,300,,,,,,,,,,,wg-a,,,,AAXX 20004 07240 12/70 03004 10190 20160 39981 40110 51004 60006 80000 90000=
07240,1998-07-20 03:00:00,17,1011,-0.1,94,16,10000,7.408,,,290,,,,,,,,,,,wg-a,,,,AAXX 20034 07240 12/60 /2904 10170 20160 39980 40110 58001 60006 90300=
07240,1998-07-20 06:00:00,17,1010.4,-0.6,94,16,8000,0,,,0,15.7,31.2,,,,,,,,,wg-a,,,,AAXX 20064 07240 02/58 30000 10170 20160 39974 40104 56006 60006 82082 90600 333 10312 20157 60004=
07240,1998-07-20 09:00:00,25,1009.7,-0.3,69,19,15000,11.112,,,130,,,,,,,,,,29,wg-a,,,,AAXX 20094 07240 12/65 21306 10250 20190 39971 40097 58003 60006 72991 82030 90900=
07240,1998-07-20 12:00:00,30,1007.6,-1.9,43,16,18000,22.224,,,180,,,,,,,,,,2,wg-a,,,,AAXX 20124 07240 12/68 51812 10300 20160 39952 40076 56019 60006 70291 85080 91200=
07240,1998-07-20 15:00:00,34,1004.5,-2.9,25,11,18000,22.224,,,190,,,,,,,,,,,wg-a,,,,AAXX 20154 07240 12/68 31912 10340 20110 39923 40045 56029 60006 83080 91500=
07240,1998-07-20 18:00:00,33,1003.9,-0.7,28,12,20000,14.816,,,230,17.1,35.3,,,,,,,,,wg-a,,,,AAXX 20184 07240 12770 22308 10330 20120 39916 40039 56007 60006 81280 91800 333 10353 20171=
07240,1998-07-20 21:00:00,23,1006.6,2.3,65,16,10000,35.188,,72.228,270,,,,,,,,,,17,wg-a,,,,AAXX 20214 07240 02760 82719 10230 20160 39939 40066 53023 61000 71796 879// 92100 333 //// 91039=
07240,1998-07-21 00:00:00,18,1009.3,2.4,88,16,10000,14.816,,,230,,,,9,,,,,,61,wg-a,,,,AAXX 21004 07240 02560 82308 10180 20160 39963 40093 51024 60096 76196 8312/ 90000 333 60097=
07240,1998-07-21 03:00:00,17,1009.6,0.3,94,16,10000,18.52,,,220,,,,1,,,,,,1,wg-a,,,,AAXX 21034 07240 12360 72210 10170 20160 39966 40096 52003 60017 70162 8372/ 90300=
07240,1998-07-21 06:00:00,18,1010.8,1.2,88,16,15000,25.928,,,190,16.9,32.6,,,,,10,,,1,wg-a,,,,AAXX 21064 07240 02365 71914 10180 20160 39978 40108 51012 60006 70162 875// 90600 333 10326 20169 60104=
07240,1998-07-21 09:00:00,20,1013.6,2.9,68,14,20000,25.928,,,250,,,,,,,,,,,wg-a,,,,AAXX 21094 07240 12570 /2514 10200 20140 30007 40136 51029 60006 85200 90900=
07240,1998-07-21 12:00:00,23,1015.1,1.6,47,11,25000,22.224,,,230,,,,,,,,,,,wg-a,,,,AAXX 21124 07240 12675 42312 10230 20110 30023 40151 53016 60006 84800 91200=
07240,1998-07-21 15:00:00,23,1015.3,0.2,47,11,25000,22.224,,38.892,230,,,,,,,,,,,wg-a,,,,AAXX 21154 07240 12775 62312 10230 20110 30025 40153 51002 60006 85830 91500 333 91021=
07240,1998-07-21 18:00:00,22,1016.3,0.9,50,11,25000,25.928,,,280,17.7,25,,,,,,,,,wg-a,,,,AAXX 21184 07240 12675 42814 10220 20110 30034 40163 53009 60006 83830 91800 333 10250 20177=
07240,1998-07-22 00:00:00,13,1019.4,0.9,82,10,25000,7.408,,,260,,,,,,,,,,,wg-a,,,,AAXX 22004 07240 12/75 12604 10130 20100 30061 40194 51009 60006 80001 90000=
07240,1998-07-22 03:00:00,11,1019.8,0.3,94,10,25000,11.112,,,150,,,,,,,,,,,wg-a,,,,AAXX 22034 07240 12/75 11506 10110 20100 30064 40198 53003 60006 80001 90300=
07240,1998-07-22 06:00:00,13,1019.4,-0.3,94,12,15000,0,,,0,11,22.1,,,,,,,,,wg-a,,,,AAXX 22064 07240 02/65 10000 10130 20120 30061 40194 57003 60006 80001 90600 333 10221 20110 60004=
07240,1998-07-22 09:00:00,20,1019.3,0.2,60,12,20000,14.816,,,190,,,,,,,,,,,wg-a,,,,AAXX 22094 07240 12570 31908 10200 20120 30063 40193 50002 60006 83101 90900=
07240,1998-07-22 12:00:00,23,1017.8,-1.4,41,9,25000,14.816,,,190,,,,,,,,,,,wg-a,,,,AAXX 22124 07240 12675 71908 10230 20090 30049 40178 58014 60006 82154 91200=
07240,1998-07-22 15:00:00,26,1016.6,-1,39,11,25000,18.52,,,220,,,,,,,,,,,wg-a,,,,AAXX 22154 07240 12/75 72210 10260 20110 30039 40166 56010 60006 83032 91500=
07240,1998-07-22 18:00:00,25,1016,-0.7,41,11,25000,14.816,,,200,13.5,26.5,,,,,,,,,wg-a,,,,AAXX 22184 07240 12/75 72008 10250 20110 30032 40160 55007 60006 87072 91800 333 10265 20135=
07240,1998-07-22 21:00:00,22,1015.9,-0.2,53,12,25000,7.408,,,220,,,,,,,,,,,wg-a,,,,AAXX 22214 07240 12/75 72204 10220 20120 30030 40159 55002 60006 8707/ 92100=
07240,1998-07-23 00:00:00,19,1016.1,0.1,68,13,25000,14.816,,,270,,,,,,,,,,,wg-a,,,,AAXX 23004 07240 12775 62708 10190 20130 30031 40161 53001 60006 86500 90000=
07240,1998-07-23 03:00:00,17,1016,-0.2,88,15,20000,14.816,,,250,,,,,,,,,,,wg-a,,,,AAXX 23034 07240 12770 72508 10170 20150 30029 40160 58002 60006 875// 90300=
07240,1998-07-23 06:00:00,17,1017.1,1.1,88,15,10000,11.112,,,250,16.4,24.5,,,,,,,,21,wg-a,,,,AAXX 23064 07240 02360 72506 10170 20150 30040 40171 52011 61000 72162 875// 90600 333 10245 20164 6100=
07240,1998-07-23 09:00:00,20,1017.9,0.9,73,15,12000,11.112,,,250,,,,,,,,,,,wg-a,,,,AAXX 23094 07240 12562 72506 10200 20150 30049 40179 53009 60006 8587/ 90900=
07240,1998-07-23 12:00:00,24,1017.6,-0.1,50,13,15000,18.52,,,240,,,,,,,,,,,wg-a,,,,AAXX 23124 07240 12665 72410 10240 20130 30048 40176 57001 60006 85872 91200=
07240,1998-07-23 15:00:00,25,1017.5,-0,50,14,20000,14.816,,,290,,,,,,,,,,,wg-a,,,,AAXX 23154 07240 12670 /2908 10250 20140 30048 40175 55000 60006 83832 91500=
07240,1998-07-23 18:00:00,24,1017.9,0.3,57,15,20000,14.816,,,270,16.7,25.6,,,,,,,,,wg-a,,,,AAXX 23184 07240 12670 72708 10240 20150 30051 40179 53003 60006 878// 91800 333 10256 20167=
07240,1998-07-23 21:00:00,20,1019.4,1.3,73,15,20000,7.408,,,30,,,,,,,,,,,wg-a,,,,AAXX 23214 07240 12670 30304 10200 20150 30064 40194 53013 60006 82531 92100=
07240,1998-07-24 00:00:00,17,1019.9,0.4,88,15,20000,3.704,,,60,,,,,,,,,,,wg-a,,,,AAXX 24004 07240 12770 40602 10170 20150 30068 40199 51004 60006 84500 90000=
07240,1998-07-24 03:00:00,17,1020.1,0.2,88,15,15000,7.408,,,350,,,,,,,,,,,wg-a,,,,AAXX 24034 07240 12565 73504 10170 20150 30070 40201 53002 60006 878// 90300=
07240,1998-07-24 06:00:00,17,1020.8,0.6,82,14,10000,14.816,,,40,16.4,23.5,,,,,,,,,wg-a,,,,AAXX 24064 07240 02460 70408 10170 20140 30076 40208 53006 60006 875// 90600 333 10235 20164 60004=
07240,1998-07-24 09:00:00,19,1021.2,0.5,78,15,18000,14.816,,,60,,,,,,,,,,,wg-a,,,,AAXX 24094 07240 12568 70608 10190 20150 30081 40212 51005 60006 84572 90900=
07240,1998-07-24 12:00:00,22,1020.8,-0.2,69,16,20000,11.112,,,360,,,,,,,,,,,wg-a,,,,AAXX 24124 07240 12570 73606 10220 20160 30079 40208 58002 60006 8583/ 91200=
07240,1998-07-24 15:00:00,25,1019.8,-0.9,50,14,20000,14.816,,,340,,,,,,,,,,,wg-a,,,,AAXX 24154 07240 12670 43408 10250 20140 30070 40198 58009 60006 83202 91500=
07240,1998-07-24 18:00:00,23,1020,0.1,53,13,25000,14.816,,,350,16.5,25.1,,,,,,,,,wg-a,,,,AAXX 24184 07240 12775 53508 10230 20130 30071 40200 53001 60006 81202 91800 333 10251 20165=
07240,1998-07-24 21:00:00,20,1021.2,1.1,60,12,20000,14.816,,,350,,,,,,,,,,,wg-a,,,,AAXX 24214 07240 12770 73508 10200 20120 30082 40212 53011 60006 875// 92100=
07240,1998-07-25 00:00:00,17,1022.4,1,63,10,20000,14.816,,,10,,,,,,,,,,,wg-a,,,,AAXX 25004 07240 12770 20108 10170 20100 30092 40224 51010 60006 82500 90000=
07240,1998-07-25 03:00:00,14,1022.2,-0.3,72,9,20000,11.112,,,20,,,,,,,,,,,wg-a,,,,AAXX 25034 07240 12770 20206 10140 20090 30089 40222 56003 60006 82500 90300=
07240,1998-07-25 06:00:00,14,1022.6,0.4,72,9,20000,14.816,,,50,13.2,23.1,,,,,,,,,wg-a,,,,AAXX 25064 07240 02770 20508 10140 20090 30093 40226 52004 60006 82101 90600 333 10231 20132 60004=
07240,1998-07-25 12:00:00,24,1021.4,-1,41,10,500,14.816,,,20,,,,,,,,,,,wg-a,,,,AAXX 25124 07240 12700 20208 10240 20100 30085 40214 57010 60006 81101 91200=
07240,1998-07-25 15:00:00,26,1019.9,-1.4,30,7,10000,11.112,,,60,,,,,,,,,,,wg-a,,,,AAXX 25154 07240 12/60 /0606 10260 20070 30071 40199 56014 60006 91500=
07240,1998-07-25 18:00:00,24,1018.5,-1.4,29,5,500,7.408,,,40,13.8,26.2,,,,,,,,,wg-a,,,,AAXX 25184 07240 12700 50404 10240 20050 30057 40185 56014 60006 81102 91800 333 10262 20138=
07240,1998-07-25 21:00:00,19,1018.7,-0.1,40,5,500,11.112,,,50,,,,,,,,,,,wg-a,,,,AAXX 25214 07240 12/00 20506 10190 20050 30056 40187 56001 60006 80001 92100=
07240,1998-07-26 00:00:00,15,1018.3,-0.5,59,7,500,14.816,,,80,,,,,,,,,,,wg-a,,,,AAXX 26004 07240 12/00 00808 10150 20070 30051 40183 58005 60006 80000 90000=
07240,1998-07-26 03:00:00,12,1017.7,-0.8,71,7,500,14.816,,,80,,,,,,,,,,,wg-a,,,,AAXX 26034 07240 12/00 40808 10120 20070 30043 40177 57008 60006 80002 90300=
07240,1998-07-26 06:00:00,14,1016.7,-0.8,72,9,20000,11.112,,,100,11.9,24.7,,,,,,,,,wg-a,,,,AAXX 26064 07240 02/70 61006 10140 20090 30035 40167 56008 60006 81032 90600 333 10247 20119 60004=
07240,1998-07-26 09:00:00,23,1015.4,-0.9,47,11,500,11.112,,,100,,,,,,,,,,,wg-a,,,,AAXX 26094 07240 12/00 71006 10230 20110 30026 40154 58009 60006 81032 90900=
07240,1998-07-26 12:00:00,27,1014.3,-1,32,9,500,7.408,,,280,,,,,,,,,,,wg-a,,,,AAXX 26124 07240 12700 72804 10270 20090 30016 40143 58010 60006 81132 91200=
07240,1998-07-26 15:00:00,26,1013.5,-0.8,37,10,500,7.408,,,320,,,,,,,,,,,wg-a,,,,AAXX 26154 07240 12700 73204 10260 20100 30008 40135 56008 60006 8117/ 91500=
07240,1998-07-26 18:00:00,26,1012.3,-1.2,34,9,500,3.704,,,130,14.3,27,,,,,,,,,wg-a,,,,AAXX 26184 07240 12/00 21302 10260 20090 39996 40123 56012 60006 82030 91800 333 10270 20143=
07240,1998-07-26 21:00:00,20,1012.8,0.3,56,11,25000,7.408,,,120,,,,,,,,,,,wg-a,,,,AAXX 26214 07240 12/75 51204 10200 20110 39999 40128 53003 60006 83031 92100=
07240,1998-07-27 00:00:00,18,1012.4,-0.5,68,12,25000,3.704,,,130,,,,,,,,,,,wg-a,,,,AAXX 27004 07240 12/75 71302 10180 20120 39994 40124 58005 60006 86051 90000=
07240,1998-07-27 03:00:00,16,1011.4,-1.1,77,12,10000,7.408,,,110,,,,,,,,,,,wg-a,,,,AAXX 27034 07240 12/60 /1104 10160 20120 39983 40114 56011 60006 90300=
07240,1998-07-27 06:00:00,18,1011.6,0.3,77,14,20000,11.112,,,240,15.7,25.9,,,,,,,,,wg-a,,,,AAXX 27064 07240 02770 72406 10180 20140 39986 40116 53003 60006 8758/ 90600 333 10259 20157 60004=
07240,1998-07-27 09:00:00,19,1012.8,1.2,68,13,25000,22.224,,,280,,,,,,,,,,,wg-a,,,,AAXX 27094 07240 12775 72812 10190 20130 39998 40128 53012 60006 8558/ 90900=
07240,1998-07-27 12:00:00,23,1013.6,1,53,13,25000,25.928,,,260,,,,,,,,,,,wg-a,,,,AAXX 27124 07240 12775 62614 10230 20130 30008 40136 52010 60006 86530 91200=
07240,1998-07-27 15:00:00,23,1014.2,0.6,47,11,25000,22.224,,,280,,,,,,,,,,,wg-a,,,,AAXX 27154 07240 12675 72812 10230 20110 30014 40142 53006 60006 8583/ 91500=
07240,1998-07-27 18:00:00,20,1015.3,1,56,11,25000,18.52,,,310,16.3,23.6,,,,,,,,,wg-a,,,,AAXX 27184 07240 12675 73110 10200 20110 30024 40153 51010 60006 878// 91800 333 10236 20163=
07240,1998-07-27 21:00:00,18,1016.8,1.3,64,11,10000,7.408,,,280,,,,,,,,,,,wg-a,,,,AAXX 27214 07240 12/60 /2804 10180 20110 30037 40168 53013 60006 92100=
07240,1998-07-28 00:00:00,16,1017.5,0.6,77,12,20000,7.408,,,310,,,,,,,,,,,wg-a,,,,AAXX 28004 07240 12770 73104 10160 20120 30043 40175 52006 60006 875// 90000=
07240,1998-07-28 03:00:00,15,1017,-0.5,82,12,20000,3.704,,,300,,,,,,,,,,,wg-a,,,,AAXX 28034 07240 12670 73002 10150 20120 30038 40170 58005 60006 875// 90300=
07240,1998-07-28 06:00:00,16,1016.9,-0.1,77,12,20000,11.112,,,240,13.9,20.3,,,,,,,,,wg-a,,,,AAXX 28064 07240 02470 72406 10160 20120 30037 40169 58001 60006 878// 90600 333 10203 20139 60004=
07240,1998-07-28 09:00:00,17,1016.9,0.1,77,13,20000,18.52,,,220,,,,,,,,,,,wg-a,,,,AAXX 28094 07240 12470 72210 10170 20130 30038 40169 50001 60006 8587/ 90900=
07240,1998-07-28 12:00:00,19,1015.8,-1,64,12,20000,22.224,,,250,,,,,,,,,,,wg-a,,,,AAXX 28124 07240 12570 72512 10190 20120 30028 40158 56010 60006 8687/ 91200=
07240,1998-07-28 15:00:00,16,1014.1,-1.8,94,15,8000,25.928,,38.892,210,,,,1,,,,,,60,wg-a,,,,AAXX 28154 07240 12258 82114 10160 20150 30010 40141 58018 60017 76062 878// 91500 333 91021=
07240,1998-07-28 18:00:00,17,1013.2,-0.8,100,17,8000,18.52,,,230,15.4,19.7,,,,,,,,21,wg-a,,,,AAXX 28184 07240 02258 82310 10170 20170 30002 40132 57008 61000 72162 877// 91800 333 10197 20154 6001=
07240,1998-07-28 21:00:00,18,1013.7,0.5,94,17,10000,14.816,,,250,,,,,,,,,,1,wg-a,,,,AAXX 28214 07240 02360 82508 10180 20170 30007 40137 53005 61000 70152 877// 92100 333 ////=
07240,1998-07-29 00:00:00,17,1014.1,0.3,94,16,10000,18.52,,,260,,,,0,,,,,,2,wg-a,,,,AAXX 29004 07240 02360 82610 10170 20160 30010 40141 52003 60006 70252 875// 90000 333 60007=
07240,1998-07-29 03:00:00,16,1014.2,0.1,94,15,7000,14.816,,,290,,,,,,,,,,,wg-a,,,,AAXX 29034 07240 32/57 /2908 10160 20150 30011 40142 51001 90300=
07240,1998-07-29 06:00:00,15,1014.9,0.6,94,14,7000,11.112,,,270,15.1,18,,,,,3,,,3,wg-a,,,,AAXX 29064 07240 02257 82706 10150 20140 30017 40149 51006 60006 70352 876// 90600 333 10180 20151 60034=
07240,1998-07-29 09:00:00,16,1015.5,0.7,82,13,15000,25.928,,,260,,,,,,,,,,3,wg-a,,,,AAXX 29094 07240 02465 72614 10160 20130 30024 40155 51007 61000 70352 878// 90900 333 ////=
07240,1998-07-29 12:00:00,20,1014.8,-0.6,64,13,20000,22.224,,,260,,,,,,,,,,1,wg-a,,,,AAXX 29124 07240 02570 72612 10200 20130 30018 40148 58006 61000 70152 878// 91200 333 ////=
07240,1998-07-29 15:00:00,22,1013,-1.6,60,14,20000,31.484,,,240,,,,,,,,,,,wg-a,,,,AAXX 29154 07240 12570 72417 10220 20140 30002 40130 56016 60006 8653/ 91500=
07240,1998-07-29 18:00:00,20,1012.7,-0.4,73,15,20000,35.188,,,250,15.2,23.1,,,,,,,,,wg-a,,,,AAXX 29184 07240 12470 82519 10200 20150 39998 40127 55004 60006 888// 91800 333 10231 20152=
07240,1998-07-29 21:00:00,17,1013.4,0.6,94,16,4000,18.52,,,230,,,,,,,,,,50,wg-a,,,,AAXX 29214 07240 02240 82310 10170 20160 30004 40134 51006 61000 75052 888// 92100 333 ////=
07240,1998-07-30 00:00:00,17,1012.8,-0.6,94,16,8000,14.816,,,230,,,,0,,,,,,1,wg-a,,,,AAXX 30004 07240 02258 /2308 10170 20160 39998 40128 58006 60006 70165 86500 90000 333 60007=
07240,1998-07-30 03:00:00,16,1012.5,-0.4,94,15,9000,18.52,,,270,,,,,,,,,,,wg-a,,,,AAXX 30034 07240 12359 82710 10160 20150 39994 40125 57004 60006 887// 90300=
07240,1998-07-30 06:00:00,15,1013.3,0.7,88,13,15000,11.112,,,280,14.8,20.2,,,,,,,,,wg-a,,,,AAXX 30064 07240 02465 72806 10150 20130 30001 40133 53007 60006 875// 90600 333 10202 20148 60004=
07240,1998-07-30 09:00:00,18,1013.4,0.3,56,9,25000,18.52,,,290,,,,,,,,,,,wg-a,,,,AAXX 30094 07240 12575 /2910 10180 20090 30004 40134 50003 60006 86800 90900=
07240,1998-07-30 12:00:00,20,1013.9,0.6,46,8,500,18.52,,,310,,,,,,,,,,,wg-a,,,,AAXX 30124 07240 12600 /3110 10200 20080 30010 40139 50006 60006 85200 91200=
07240,1998-07-30 15:00:00,22,1013.8,-0.1,43,9,500,18.52,,,280,,,,,,,,,,,wg-a,,,,AAXX 30154 07240 12700 32810 10220 20090 30009 40138 57001 60006 83500 91500=
07240,1998-07-30 18:00:00,22,1013.5,-0.3,41,8,500,22.224,,,280,14.8,23.6,,,,,,,,,wg-a,,,,AAXX 30184 07240 12700 32812 10220 20080 30006 40135 55003 60006 83500 91800 333 10236 20148=
07240,1998-07-30 21:00:00,16,1015.1,1.4,68,10,15000,14.816,,,270,,,,,,,,,,,wg-a,,,,AAXX 30214 07240 12765 12708 10160 20100 30020 40151 53014 60006 81500 92100=
07240,1998-07-31 00:00:00,13,1016.2,0.9,82,10,15000,11.112,,,280,,,,,,,,,,,wg-a,,,,AAXX 31004 07240 12/65 02806 10130 20100 30029 40162 51009 60006 80000 90000=
07240,1998-07-31 03:00:00,11,1016.6,0.3,87,9,15000,7.408,,,270,,,,,,,,,,,wg-a,,,,AAXX 31034 07240 12/65 02704 10110 20090 30032 40166 51003 60006 80000 90300=
07240,1998-07-31 06:00:00,12,1017.4,0.9,94,11,15000,11.112,,,270,9.9,21.4,,,,,,,,,wg-a,,,,AAXX 31064 07240 02665 42706 10120 20110 30041 40174 53009 60006 83501 90600 333 10214 20099 60004=
07240,1998-07-31 09:00:00,17,1017.9,0.7,68,11,20000,14.816,,,270,,,,,,,,,,,wg-a,,,,AAXX 31094 07240 12570 42708 10170 20110 30048 40179 51007 60006 84100 90900=
07240,1998-07-31 12:00:00,22,1017.5,-0.2,43,9,20000,11.112,,,260,,,,,,,,,,,wg-a,,,,AAXX 31124 07240 12670 /2606 10220 20090 30046 40175 58002 60006 85200 91200=
07240,1998-07-31 15:00:00,23,1017.3,-0.2,41,9,500,11.112,,,270,,,,,,,,,,,wg-a,,,,AAXX 31154 07240 12600 /2706 10230 20090 30044 40173 58002 60006 85800 91500=
07240,1998-07-31 18:00:00,22,1016.9,-0.4,41,8,25000,11.112,,,270,12,23.3,,,,,,,,,wg-a,,,,AAXX 31184 07240 12775 32706 10220 20080 30040 40169 56004 60006 82802 91800 333 10233 20120=
07240,1998-07-31 21:00:00,16,1017.9,0.7,63,9,20000,7.408,,,260,,,,,,,,,,,wg-a,,,,AAXX 31214 07240 12/70 22604 10160 20090 30047 40179 53007 60006 80002 92100=
07240,1998-08-01 00:00:00,13,1017.3,-0.7,82,10,15000,7.408,,,30,,,,,,,,,,,wg-a,,,,AAXX 01004 07240 12/65 40304 10130 20100 30040 40173 58007 60006 80002 90000=
07240,1998-08-01 03:00:00,11,1016.8,-0.6,94,10,15000,3.704,,,340,,,,,,,,,,,wg-a,,,,AAXX 01034 07240 12/65 73402 10110 20100 30034 40168 58006 60006 80002 90300=
07240,1998-08-01 06:00:00,12,1016.5,-0.2,94,11,15000,7.408,,,360,10.7,21.9,,,,,,,,,wg-a,,,,AAXX 01064 07240 02/65 73604 10120 20110 30032 40165 56002 60006 85072 90600 333 10219 20107 60004=
07240,1998-08-01 09:00:00,19,1016.3,0.1,68,13,15000,11.112,,,60,,,,,,,,,,,wg-a,,,,AAXX 01094 07240 12665 70606 10190 20130 30033 40163 53001 60006 82212 90900=
07240,1998-08-01 12:00:00,21,1015.5,-0.7,53,11,20000,7.408,,,340,,,,,,,,,,,wg-a,,,,AAXX 01124 07240 12670 63404 10210 20110 30026 40155 58007 60006 85280 91200=
07240,1998-08-01 15:00:00,21,1015.4,-0.1,46,9,11000,18.52,,,360,,,,,,,,,,,wg-a,,,,AAXX 01154 07240 12/61 /3610 10210 20090 30025 40154 58001 60006 91500=
07240,1998-08-01 18:00:00,18,1017.1,1.5,73,13,20000,14.816,,,180,12.1,23.2,,,,,,,,29,wg-a,,,,AAXX 01184 07240 12570 71808 10180 20130 30040 40171 53015 60006 72992 8493/ 91800 333 10232 20121=
07240,1998-08-01 21:00:00,16,1017.8,0.6,77,12,20000,0,,,0,,,,,,,,,,1,wg-a,,,,AAXX 01214 07240 02770 70000 10160 20120 30046 40178 53006 61000 70162 8553/ 92100 333 ////=
07240,1998-08-02 00:00:00,13,1018,0.1,94,12,10000,11.112,,,340,,,,,,,,,,,wg-a,,,,AAXX 02004 07240 02/60 /3406 10130 20120 30047 40180 50001 61000 90000 333 ////=
07240,1998-08-02 03:00:00,12,1018.2,0.1,94,11,15000,7.408,,,60,,,,,,,,,,,wg-a,,,,AAXX 02034 07240 12765 10604 10120 20110 30048 40182 53001 60006 81500 90300=
07240,1998-08-02 06:00:00,14,1018.8,0.7,88,12,15000,7.408,,,20,11.4,17.5,,,,,,,,,wg-a,,,,AAXX 02064 07240 02765 60204 10140 20120 30055 40188 51007 60006 86500 90600 333 10175 20114 61000=
07240,1998-08-02 09:00:00,18,1019.7,1.1,73,13,20000,14.816,,,20,,,,,,,,,,,wg-a,,,,AAXX 02094 07240 12570 70208 10180 20130 30066 40197 51011 60006 878// 90900=
07240,1998-08-02 15:00:00,20,1019.8,0.4,68,14,15000,11.112,,,150,,,,,,,,,,80,wg-a,,,,AAXX 02154 07240 02565 71506 10200 20140 30068 40198 53004 61000 78098 87900 91500 333 ////=
07240,1998-08-02 18:00:00,16,1021.2,1.2,88,14,20000,3.704,,,150,13.6,22.9,,,,,,,,81,wg-a,,,,AAXX 02184 07240 02570 71502 10160 20140 30080 40212 53012 61000 78198 879// 91800 333 10229 20136 6010=
07240,1998-08-02 21:00:00,14,1022.6,1.3,94,13,25000,7.408,,,330,,,,1,,,,,,1,wg-a,,,,AAXX 02214 07240 12575 53304 10140 20130 30093 40226 53013 60017 70198 84801 92100=
07240,1998-08-03 00:00:00,13,1023.4,0.7,94,12,25000,3.704,,,360,,,,,,,,,,2,wg-a,,,,AAXX 03004 07240 12/75 23602 10130 20120 30100 40234 51007 60016 70298 80001 90000=
07240,1998-08-03 06:00:00,11,1025.3,1.2,100,11,2500,3.704,,,330,10.2,16.2,,,,,11,,,12,wg-a,,,,AAXX 03064 07240 02/25 23302 10110 20110 30118 40253 51012 60006 71240 80001 90600 333 10162 20102 60114=
07240,1998-08-03 09:00:00,18,1025.5,0.6,83,15,12000,7.408,,,280,,,,,,,,,,,wg-a,,,,AAXX 03094 07240 12462 32804 10180 20150 30124 40255 51006 60006 81101 90900=
07240,1998-08-03 12:00:00,23,1024.9,-0.4,47,11,20000,11.112,,,280,,,,,,,,,,,wg-a,,,,AAXX 03124 07240 12670 52806 10230 20110 30120 40249 58004 60006 83101 91200=
07240,1998-08-03 15:00:00,25,1024,-0.9,39,10,25000,14.816,,,310,,,,,,,,,,,wg-a,,,,AAXX 03154 07240 12775 43108 10250 20100 30111 40240 58009 60006 82131 91500=
07240,1998-08-03 18:00:00,24,1,-0,44,11,25000,3.704,,,90,,32.8,,,,,,,,,wg-a,,,,AAXX 03184 07240 12/75 00902 10240 20110 55000 60006 80000 91800 333 10328=
07240,1998-08-03 21:00:00,21,1024.9,1.1,49,10,15000,11.112,,,290,,,,,,,,,,,wg-a,,,,AAXX 03214 07240 12/65 72906 10210 20100 30118 40249 53011 60006 8707/ 92100=
07240,1998-08-04 00:00:00,17,1024.8,-0.2,77,13,15000,18.52,,,290,,,,,,,,,,,wg-a,,,,AAXX 04004 07240 12/65 62910 10170 20130 30116 40248 58002 60006 86070 90000=
07240,1998-08-04 03:00:00,16,1025.1,0.3,88,14,8000,11.112,,,250,,,,,,,,,,,wg-a,,,,AAXX 04034 07240 12458 72506 10160 20140 30119 40251 53003 60006 877// 90300=
07240,1998-08-04 06:00:00,16,1025.1,-0,94,15,15000,11.112,,,230,15.2,23.5,,,,,,,,1,wg-a,,,,AAXX 04064 07240 02365 72306 10160 20150 30119 40251 55000 60006 70152 877// 90600 333 10235 20152 61000=
07240,1998-08-04 09:00:00,17,1025.9,0.8,100,17,6000,14.816,,,260,,,,,,,,,,10,wg-a,,,,AAXX 04094 07240 02256 72608 10170 20170 30127 40259 52008 61000 71052 877// 90900 333 ////=
07240,1998-08-04 12:00:00,21,1026.8,1.1,78,17,12000,11.112,,,340,,,,,,,,,,1,wg-a,,,,AAXX 04124 07240 02562 73406 10210 20170 30138 40268 51011 61000 70152 878// 91200 333 ////=
07240,1998-08-04 15:00:00,22,1027,0.2,65,15,15000,11.112,,,340,,,,,,,,,,,wg-a,,,,AAXX 04154 07240 12565 /3406 10220 20150 30140 40270 50002 60006 86800 91500=
07240,1998-08-04 18:00:00,24,1026.5,-0.4,50,13,500,11.112,,,360,16.1,24.7,,,,,,,,,wg-a,,,,AAXX 04184 07240 12600 23606 10240 20130 30136 40265 55004 60006 82800 91800 333 10247 20161=
07240,1998-08-04 21:00:00,18,1029.3,2.5,64,11,500,14.816,,,350,,,,,,,,,,,wg-a,,,,AAXX 04214 07240 12/00 03508 10180 20110 30161 40293 53025 60006 80000 92100=
07240,1998-08-05 00:00:00,13,1030.4,0.8,82,10,10000,7.408,,,360,,,,,,,,,,,wg-a,,,,AAXX 05004 07240 12/60 /3604 10130 20100 30169 40304 51008 60006 90000=
07240,1998-08-05 03:00:00,10,1030.4,-0.1,93,9,15000,7.408,,,350,,,,,,,,,,,wg-a,,,,AAXX 05034 07240 12/65 03504 10100 20090 30168 40304 58001 60006 80000 90300=
07240,1998-08-05 06:00:00,12,1030.9,0.6,94,11,15000,3.704,,,340,9,24,,,,,,,,,wg-a,,,,AAXX 05064 07240 02/65 03402 10120 20110 30174 40309 53006 60006 80000 90600 333 10240 20090 60004=
07240,1998-08-05 09:00:00,21,1031.3,0.8,53,11,20000,14.816,,,70,,,,,,,,,,,wg-a,,,,AAXX 05094 07240 12/70 00708 10210 20110 30182 40313 50008 60006 80000 90900=
07240,1998-08-05 12:00:00,24,1030.5,-0.7,47,12,500,11.112,,,20,,,,,,,,,,,wg-a,,,,AAXX 05124 07240 12600 /0206 10240 20120 30175 40305 58007 60006 81100 91200=
07240,1998-08-05 15:00:00,26,1028.9,-1.5,37,10,500,14.816,,,40,,,,,,,,,,,wg-a,,,,AAXX 05154 07240 12/00 00408 10260 20100 30160 40289 58015 60006 80000 91500=
07240,1998-08-05 18:00:00,26,1027.7,-1.2,39,11,500,14.816,,,360,11.8,26.7,,,,,,,,,wg-a,,,,AAXX 05184 07240 12/00 03608 10260 20110 30148 40277 56012 60006 80000 91800 333 10267 20118=
07240,1998-08-05 21:00:00,20,1028.6,0.7,56,11,500,11.112,,,20,,,,,,,,,,,wg-a,,,,AAXX 05214 07240 12/00 00206 10200 20110 30155 40286 53007 60006 80000 92100=
07240,1998-08-06 00:00:00,17,1028.5,-0.3,59,9,500,11.112,,,40,,,,,,,,,,,wg-a,,,,AAXX 06004 07240 12/00 00406 10170 20090 30152 40285 56003 60006 80000 90000=
07240,1998-08-06 03:00:00,14,1028.1,-0.5,67,8,10000,7.408,,,10,,,,,,,,,,,wg-a,,,,AAXX 06034 07240 12/60 /0104 10140 20080 30147 40281 57005 60006 90300=
07240,1998-08-06 06:00:00,14,1027.9,-0.2,63,7,500,7.408,,,40,12.4,25.5,,,,,,,,,wg-a,,,,AAXX 06064 07240 02/00 00404 10140 20070 30145 40279 56002 60006 80000 90600 333 10255 20124 60004=
07240,1998-08-06 09:00:00,22,1027.3,-0.2,46,10,500,11.112,,,70,,,,,,,,,,,wg-a,,,,AAXX 06094 07240 12/00 00706 10220 20100 30143 40273 58002 60006 80000 90900=
07240,1998-08-06 12:00:00,27,1025.8,-1.3,34,10,500,11.112,,,30,,,,,,,,,,,wg-a,,,,AAXX 06124 07240 12/00 20306 10270 20100 30130 40258 58013 60006 80001 91200=
07240,1998-08-06 15:00:00,28,1023.9,-1.8,30,9,500,11.112,,,360,,,,,,,,,,,wg-a,,,,AAXX 06154 07240 12/00 43606 10280 20090 30112 40239 58018 60006 80002 91500=
07240,1998-08-06 18:00:00,27,1023.2,-0.8,32,9,500,14.816,,,360,14.3,28.6,,,,,,,,,wg-a,,,,AAXX 06184 07240 12/00 43608 10270 20090 30104 40232 57008 60006 80002 91800 333 10286 20143=
07240,1998-08-06 21:00:00,20,1024,0.5,43,7,500,7.408,,,10,,,,,,,,,,,wg-a,,,,AAXX 06214 07240 12/00 20104 10200 20070 30109 40240 51005 60006 80001 92100=
07240,1998-08-07 00:00:00,18,1023.6,-0.5,45,6,500,18.52,,,50,,,,,,,,,,,wg-a,,,,AAXX 07004 07240 12/00 00510 10180 20060 30104 40236 58005 60006 80000 90000=
07240,1998-08-07 03:00:00,16,1023.3,-0.4,59,8,500,18.52,,,60,,,,,,,,,,,wg-a,,,,AAXX 07034 07240 12/00 00610 10160 20080 30100 40233 56004 60006 80000 90300=
07240,1998-08-07 06:00:00,16,1023.2,-0,68,10,500,22.224,,,60,14.3,27.1,,,,,,,,,wg-a,,,,AAXX 07064 07240 02/00 00612 10160 20100 30100 40232 54000 60006 80000 90600 333 10271 20143 60004=
07240,1998-08-07 09:00:00,24,1023.2,0.3,44,11,500,14.816,,,50,,,,,,,,,,,wg-a,,,,AAXX 07094 07240 12/00 00508 10240 20110 30103 40232 51003 60006 80000 90900=
07240,1998-08-07 12:00:00,29,1021.7,-1.3,27,8,500,18.52,,,70,,,,,,,,,,,wg-a,,,,AAXX 07124 07240 12/00 00710 10290 20080 30090 40217 58013 60006 80000 91200=
07240,1998-08-07 15:00:00,32,1019.6,-1.9,23,8,500,14.816,,,90,,,,,,,,,,,wg-a,,,,AAXX 07154 07240 12/00 00908 10320 20080 30071 40196 56019 60006 80000 91500=
07240,1998-08-07 18:00:00,31,1018.7,-0.9,27,10,500,14.816,,,80,16.3,32.6,,,,,,,,,wg-a,,,,AAXX 07184 07240 12/00 00808 10310 20100 30062 40187 56009 60006 80000 91800 333 10326 20163=
07240,1998-08-07 21:00:00,22,1019.4,0.3,46,10,500,14.816,,,70,,,,,,,,,,,wg-a,,,,AAXX 07214 07240 12/00 00708 10220 20100 30065 40194 53003 60006 80000 92100=
07240,1998-08-08 00:00:00,19,1018.8,-0.7,52,9,500,14.816,,,70,,,,,,,,,,,wg-a,,,,AAXX 08004 07240 12/00 00708 10190 20090 30058 40188 58007 60006 80000 90000=
07240,1998-08-08 03:00:00,18,1017.9,-1,56,9,500,14.816,,,70,,,,,,,,,,,wg-a,,,,AAXX 08034 07240 12/00 00708 10180 20090 30048 40179 58010 60006 80000 90300=
07240,1998-08-08 09:00:00,27,1016.4,-0.4,45,14,500,14.816,,,90,,,,,,,,,,,wg-a,,,,AAXX 08094 07240 12/00 00908 10270 20140 30037 40164 58004 60006 80000 90900=
07240,1998-08-08 12:00:00,32,1015.5,-0.7,29,12,500,11.112,,,180,,,,,,,,,,,wg-a,,,,AAXX 08124 07240 12/00 01806 10320 20120 30030 40155 58007 60006 80000 91200=
07240,1998-08-08 15:00:00,34,1014.1,-1.3,23,10,500,11.112,,,190,,,,,,,,,,,wg-a,,,,AAXX 08154 07240 12/00 01906 10340 20100 30017 40141 57013 60006 80000 91500=
07240,1998-08-08 18:00:00,33,1013.7,-0.4,24,10,500,11.112,,,290,18.1,34.3,,,,,,,,,wg-a,,,,AAXX 08184 07240 12/00 02906 10330 20100 30013 40137 56004 60006 80000 91800 333 10343 20181=
07240,1998-08-08 21:00:00,24,1014.7,0.6,47,12,15000,0,,,0,,,,,,,,,,,wg-a,,,,AAXX 08214 07240 12/65 00000 10240 20120 30019 40147 53006 60006 80000 92100=
07240,1998-08-09 00:00:00,19,1014.9,-0,68,13,15000,7.408,,,360,,,,,,,,,,,wg-a,,,,AAXX 09004 07240 12/65 03604 10190 20130 30019 40149 55000 60006 80000 90000=
07240,1998-08-09 03:00:00,16,1014.8,-0.2,77,12,15000,3.704,,,140,,,,,,,,,,,wg-a,,,,AAXX 09034 07240 12/65 01402 10160 20120 30017 40148 56002 60006 80000 90300=
07240,1998-08-09 06:00:00,16,1015,0.2,88,14,20000,3.704,,,40,14.3,32.7,,,,,,,,,wg-a,,,,AAXX 09064 07240 02/70 00402 10160 20140 30019 40150 53002 60006 80000 90600 333 10327 20143 60004=
07240,1998-08-09 09:00:00,29,1014.9,0.4,40,14,500,7.408,,,150,,,,,,,,,,,wg-a,,,,AAXX 09094 07240 12/00 01504 10290 20140 30023 40149 52004 60006 80000 90900=
07240,1998-08-09 12:00:00,35,1014.1,-0.5,22,10,500,7.408,,,190,,,,,,,,,,,wg-a,,,,AAXX 09124 07240 12/00 01904 10350 20100 30018 40141 58005 60006 80000 91200=
07240,1998-08-09 18:00:00,35,1012.1,-0.9,23,11,500,7.408,,,210,16.6,36.5,,,,,,,,,wg-a,,,,AAXX 09184 07240 12/00 02104 10350 20110 39998 40121 56009 60006 80000 91800 333 10365 20166=
07240,1998-08-09 21:00:00,26,1013.4,0.9,45,13,20000,7.408,,,80,,,,,,,,,,,wg-a,,,,AAXX 09214 07240 12/70 00804 10260 20130 30007 40134 52009 60006 80000 92100=
07240,1998-08-10 00:00:00,22,1013.9,0.4,60,14,20000,7.408,,,360,,,,,,,,,,,wg-a,,,,AAXX 10004 07240 12/70 03604 10220 20140 30011 40139 51004 60006 80000 90000=
07240,1998-08-10 03:00:00,18,1013.9,-0.2,77,14,20000,7.408,,,60,,,,,,,,,,,wg-a,,,,AAXX 10034 07240 12/70 00604 10180 20140 30009 40139 56002 60006 80000 90300=
07240,1998-08-10 06:00:00,18,1015,1.1,77,14,20000,0,,,0,16.3,34.7,,,,,,,,,wg-a,,,,AAXX 10064 07240 02/70 00000 10180 20140 30020 40150 52011 60006 80000 90600 333 10347 20163 60004=
07240,1998-08-10 09:00:00,29,1015.5,0.9,43,15,25000,3.704,,,320,,,,,,,,,,,wg-a,,,,AAXX 10094 07240 12/75 03202 10290 20150 30029 40155 51009 60006 80000 90900=
07240,1998-08-10 12:00:00,35,1015.3,0.1,20,9,25000,7.408,,,170,,,,,,,,,,,wg-a,,,,AAXX 10124 07240 12/75 01704 10350 20090 30030 40153 51001 60006 80000 91200=
07240,1998-08-10 15:00:00,37,1014.7,-0.6,20,10,500,11.112,,,200,,,,,,,,,,,wg-a,,,,AAXX 10154 07240 12/00 02006 10370 20100 30024 40147 57006 60006 80000 91500=
07240,1998-08-10 21:00:00,26,1016.1,0.9,51,15,500,3.704,,,360,,,,,,,,,,,wg-a,,,,AAXX 10214 07240 12/00 23602 10260 20150 30034 40161 53009 60006 80002 92100=
07240,1998-08-11 00:00:00,21,1016.7,0.4,69,15,500,0,,,0,,,,,,,,,,,wg-a,,,,AAXX 11004 07240 12/00 20000 10210 20150 30038 40167 51004 60006 80002 90000=
07240,1998-08-11 03:00:00,19,1016.6,-0.2,78,15,10000,3.704,,,340,,,,,,,,,,,wg-a,,,,AAXX 11034 07240 12/60 /3402 10190 20150 30036 40166 55002 60006 90300=
07240,1998-08-11 06:00:00,19,1016.9,0.3,83,16,15000,3.704,,,160,17.3,34.7,,,,,,,,,wg-a,,,,AAXX 11064 07240 02/65 21602 10190 20160 30039 40169 53003 60006 80001 90600 333 10347 20173 60004=
07240,1998-08-11 09:00:00,28,1017.5,1,45,15,15000,11.112,,,220,,,,,,,,,,,wg-a,,,,AAXX 11094 07240 12/65 02206 10280 20150 30049 40175 51010 60006 80000 90900=
07240,1998-08-11 12:00:00,33,1016.9,-0.4,23,9,500,14.816,,,280,,,,,,,,,,,wg-a,,,,AAXX 11124 07240 12/00 02808 10330 20090 30045 40169 58004 60006 80000 91200=
07240,1998-08-11 15:00:00,35,1016.2,-0.6,30,15,500,14.816,,,270,,,,,,,,,,,wg-a,,,,AAXX 11154 07240 12/00 12708 10350 20150 30039 40162 56006 60006 80001 91500=
07240,1998-08-11 18:00:00,33,1016.1,-0.2,36,16,25000,11.112,,,260,19.4,35.1,,,,,,,,,wg-a,,,,AAXX 11184 07240 12/75 12606 10330 20160 30037 40161 55002 60006 81031 91800 333 10351 20194=
07240,1998-08-11 21:00:00,25,1017.3,0.8,57,16,20000,7.408,,,340,,,,,,,,,,,wg-a,,,,AAXX 11214 07240 12/70 13404 10250 20160 30045 40173 53008 60006 81030 92100=
07240,1998-08-12 00:00:00,21,1016.9,-0.5,78,17,20000,11.112,,,340,,,,,,,,,,,wg-a,,,,AAXX 12004 07240 12/70 53406 10210 20170 30040 40169 57005 60006 83031 90000=
07240,1998-08-12 03:00:00,20,1017.6,0.6,78,16,20000,11.112,,,300,,,,,,,,,,,wg-a,,,,AAXX 12034 07240 12/70 73006 10200 20160 30046 40176 53006 60006 85031 90300=
07240,1998-08-12 06:00:00,19,1017.6,-0,78,15,12000,11.112,,,330,19,32.5,,,,,,,,,wg-a,,,,AAXX 12064 07240 02762 73306 10190 20150 30046 40176 55000 60006 8453/ 90600 333 10325 20190 60004=
07240,1998-08-12 09:00:00,23,1018.1,0.6,53,13,15000,11.112,,,360,,,,,,,,,,,wg-a,,,,AAXX 12094 07240 12765 73606 10230 20130 30052 40181 53006 60006 8357/ 90900=
07240,1998-08-12 12:00:00,27,1017.8,-0.1,42,13,25000,14.816,,,330,,,,,,,,,,,wg-a,,,,AAXX 12124 07240 12/75 73308 10270 20130 30051 40178 55001 60006 81032 91200=
07240,1998-08-12 18:00:00,24,1017,-0.2,54,14,35000,11.112,,,330,19.1,28.6,,,,,,,,,wg-a,,,,AAXX 12184 07240 12/81 73306 10240 20140 30042 40170 58002 60006 83071 91800 333 10286 20191=
07240,1998-08-12 21:00:00,20,1019,1.8,64,13,500,22.224,,,320,,,,,,,,,,,wg-a,,,,AAXX 12214 07240 12/00 43212 10200 20130 30060 40190 51018 60006 81031 92100=
07240,1998-08-13 00:00:00,16,1020.2,1,77,12,25000,7.408,,,40,,,,,,,,,,,wg-a,,,,AAXX 13004 07240 12/75 00404 10160 20120 30070 40202 53010 60006 80000 90000=
07240,1998-08-13 03:00:00,13,1020.1,-0.2,88,11,20000,11.112,,,350,,,,,,,,,,,wg-a,,,,AAXX 13034 07240 12/70 13506 10130 20110 30068 40201 58002 60006 80001 90300=
07240,1998-08-13 06:00:00,12,1020.5,0.3,94,11,20000,7.408,,,340,11,24.4,,,,,,,,,wg-a,,,,AAXX 13064 07240 02/70 13404 10120 20110 30071 40205 53003 60006 80001 90600 333 10244 20110 60004=
07240,1998-08-13 09:00:00,20,1020.5,0.4,53,10,25000,11.112,,,360,,,,,,,,,,,wg-a,,,,AAXX 13094 07240 12675 /3606 10200 20100 30075 40205 51004 60006 81101 90900=
07240,1998-08-13 12:00:00,24,1019.6,-0.8,36,8,25000,11.112,,,320,,,,,,,,,,,wg-a,,,,AAXX 13124 07240 12/75 33206 10240 20080 30067 40196 58008 60006 80001 91200=
07240,1998-08-13 15:00:00,25,1018.6,-0.9,32,7,500,11.112,,,350,,,,,,,,,,,wg-a,,,,AAXX 13154 07240 12/00 53506 10250 20070 30058 40186 56009 60006 80004 91500=
07240,1998-08-13 18:00:00,23,1017.6,-1.1,36,7,500,11.112,,,350,11.8,25.5,,,,,,,,,wg-a,,,,AAXX 13184 07240 12/00 53506 10230 20070 30047 40176 56011 60006 80001 91800 333 10255 20118=
07240,1998-08-13 21:00:00,17,1018.7,0.9,55,8,15000,7.408,,,340,,,,,,,,,,,wg-a,,,,AAXX 13214 07240 12/65 33404 10170 20080 30056 40187 53009 60006 80001 92100=
07240,1998-08-14 00:00:00,14,1019,0.1,63,7,10000,3.704,,,10,,,,,,,,,,,wg-a,,,,AAXX 14004 07240 12/60 20102 10140 20070 30057 40190 50001 60006 80001 90000=
07240,1998-08-14 03:00:00,13,1018,-1,72,8,10000,7.408,,,30,,,,,,,,,,,wg-a,,,,AAXX 14034 07240 12/60 20304 10130 20080 30047 40180 56010 60006 80001 90300=
07240,1998-08-14 06:00:00,13,1017.6,-0.4,77,9,20000,7.408,,,50,11.6,23.4,,,,,,,,,wg-a,,,,AAXX 14064 07240 02/70 30504 10130 20090 30043 40176 56004 60006 80001 90600 333 10234 20116 60004=
07240,1998-08-14 09:00:00,21,1016.8,-0.4,46,9,500,7.408,,,110,,,,,,,,,,,wg-a,,,,AAXX 14094 07240 12/00 31104 10210 20090 30039 40168 58004 60006 80001 90900=
07240,1998-08-14 12:00:00,24,1015.7,-1,36,8,500,11.112,,,360,,,,,,,,,,,wg-a,,,,AAXX 14124 07240 12/00 43606 10240 20080 30029 40157 58010 60006 80001 91200=
07240,1998-08-14 15:00:00,27,1013.6,-1.9,32,9,500,7.408,,,310,,,,,,,,,,,wg-a,,,,AAXX 14154 07240 12/00 43104 10270 20090 30010 40136 56019 60006 80001 91500=
07240,1998-08-15 03:00:00,13,1013.8,-0.1,88,11,20000,3.704,,,320,,,,,,,,,,,wg-a,,,,AAXX 15034 07240 12/70 03202 10130 20110 30005 40138 55001 60006 80000 90300=
07240,1998-08-15 06:00:00,16,1014.1,0.5,77,12,20000,7.408,,,70,12.7,26.3,,,,,,,,,wg-a,,,,AAXX 15064 07240 02/70 30704 10160 20120 30010 40141 53005 60006 80001 90600 333 10263 20127 60004=
07240,1998-08-15 09:00:00,26,1014.7,1,34,9,20000,3.704,,,20,,,,,,,,,,,wg-a,,,,AAXX 15094 07240 12/70 30202 10260 20090 30020 40147 51010 60006 80001 90900=
07240,1998-08-15 12:00:00,30,1015.2,0.6,27,9,500,7.408,,,20,,,,,,,,,,,wg-a,,,,AAXX 15124 07240 12800 20204 10300 20090 30026 40152 51006 60006 81101 91200=
07240,1998-08-15 15:00:00,30,1015.1,-0,22,6,500,7.408,,,300,,,,,,,,,,,wg-a,,,,AAXX 15154 07240 12/00 53004 10300 20060 30026 40151 54000 60006 80002 91500=
07240,1998-08-15 18:00:00,28,1015.4,0.2,35,11,500,18.52,,,330,15.7,30.9,,,,,,,,,wg-a,,,,AAXX 15184 07240 12/00 53310 10280 20110 30028 40154 52002 60006 80002 91800 333 10309 20157=
07240,1998-08-16 15:00:00,30,1019,-1.2,38,14,500,7.408,,,330,,,,,,,,,,,wg-a,,,,AAXX 16154 07240 12/00 13304 10300 20140 30064 40190 56012 60006 80001 91500=
07240,1998-08-16 21:00:00,22,1019.8,1.2,57,13,500,7.408,,,340,,,,,,,,,,,wg-a,,,,AAXX 16214 07240 12/00 33404 10220 20130 30069 40198 51012 60006 80001 92100=
07240,1998-08-17 00:00:00,19,1019.6,-0.4,64,12,500,3.704,,,20,,,,,,,,,,,wg-a,,,,AAXX 17004 07240 12/00 00202 10190 20120 30065 40196 58004 60006 80000 90000=
07240,1998-08-17 03:00:00,16,1019.1,-0.6,72,11,10000,3.704,,,360,,,,,,,,,,,wg-a,,,,AAXX 17034 07240 12/60 /3602 10160 20110 30059 40191 56006 60006 90300=
07240,1998-08-17 06:00:00,15,1019.5,0.4,82,12,20000,3.704,,,340,14.1,28.5,,,,,,,,,wg-a,,,,AAXX 17064 07240 02/70 03402 10150 20120 30063 40195 53004 60006 80000 90600 333 10285 20141 60004=
07240,1998-08-17 09:00:00,22,1019.4,0.2,53,12,25000,7.408,,,70,,,,,,,,,,,wg-a,,,,AAXX 17094 07240 12/75 00704 10220 20120 30065 40194 50002 60006 80000 90900=
07240,1998-08-17 12:00:00,29,1018.1,-1,40,14,500,11.112,,,280,,,,,,,,,,,wg-a,,,,AAXX 17124 07240 12/00 02806 10290 20140 30055 40181 56010 60006 80000 91200=
07240,1998-08-17 15:00:00,30,1016.7,-1.4,38,14,500,14.816,,,290,,,,,,,,,,,wg-a,,,,AAXX 17154 07240 12700 12908 10300 20140 30041 40167 56014 60006 81100 91500=
07240,1998-08-17 18:00:00,26,1016.5,-0.3,37,10,500,18.52,,,340,14.9,30.1,,,,,,,,,wg-a,,,,AAXX 17184 07240 12/00 33410 10260 20100 30038 40165 55003 60006 80002 91800 333 10301 20149=
07240,1998-08-17 21:00:00,20,1017.8,1,46,8,25000,14.816,,,330,,,,,,,,,,,wg-a,,,,AAXX 17214 07240 12/75 33308 10200 20080 30048 40178 53010 60006 81032 92100=
07240,1998-08-18 00:00:00,16,1018.9,0.9,72,11,20000,3.704,,,350,,,,,,,,,,,wg-a,,,,AAXX 18004 07240 12/70 03502 10160 20110 30057 40189 53009 60006 80000 90000=
07240,1998-08-18 03:00:00,13,1018.3,-0.7,88,11,20000,7.408,,,350,,,,,,,,,,,wg-a,,,,AAXX 18034 07240 12/70 03504 10130 20110 30050 40183 58007 60006 80000 90300=
07240,1998-08-18 06:00:00,13,1019.3,1,94,12,15000,11.112,,,330,11.3,26,,,,,,,,,wg-a,,,,AAXX 18064 07240 02/65 23306 10130 20120 30060 40193 53010 60006 81031 90600 333 10260 20113 60004=
07240,1998-08-18 09:00:00,20,1019.5,0.5,68,14,25000,14.816,,,360,,,,,,,,,,,wg-a,,,,AAXX 18094 07240 12575 43608 10200 20140 30065 40195 50005 60006 83101 90900=
07240,1998-08-18 12:00:00,24,1018.5,-0.8,47,12,500,11.112,,,340,,,,,,,,,,,wg-a,,,,AAXX 18124 07240 12600 23406 10240 20120 30057 40185 58008 60006 81101 91200=
07240,1998-08-18 15:00:00,27,1017.5,-0.9,45,14,500,11.112,,,360,,,,,,,,,,,wg-a,,,,AAXX 18154 07240 12600 53606 10270 20140 30048 40175 58009 60006 84201 91500=
07240,1998-08-18 18:00:00,25,1017.6,-0,50,14,500,22.224,,,340,12.5,26.9,,,,,,,,,wg-a,,,,AAXX 18184 07240 12700 23412 10250 20140 30048 40176 55000 60006 81401 91800 333 10269 20125=
07240,1998-08-18 21:00:00,19,1019.4,1.6,73,14,25000,11.112,,,340,,,,,,,,,,,wg-a,,,,AAXX 18214 07240 12775 13406 10190 20140 30064 40194 52016 60006 81500 92100=
07240,1998-08-19 00:00:00,17,1020.4,0.8,77,13,20000,7.408,,,350,,,,,,,,,,,wg-a,,,,AAXX 19004 07240 12770 13504 10170 20130 30072 40204 51008 60006 81500 90000=
07240,1998-08-19 03:00:00,16,1020,-0.4,82,13,20000,7.408,,,350,,,,,,,,,,,wg-a,,,,AAXX 19034 07240 12670 23504 10160 20130 30068 40200 56004 60006 82500 90300=
07240,1998-08-19 06:00:00,16,1020.5,0.5,82,13,20000,7.408,,,340,14.4,24.9,,,,,,,,,wg-a,,,,AAXX 19064 07240 02670 /3404 10160 20130 30073 40205 53005 60006 85500 90600 333 10249 20144 60004=
07240,1998-08-19 09:00:00,23,1020.5,0.3,57,14,500,3.704,,,40,,,,,,,,,,,wg-a,,,,AAXX 19094 07240 12700 10402 10230 20140 30076 40205 50003 60006 81500 90900=
07240,1998-08-19 12:00:00,26,1019.8,-0.5,45,13,500,7.408,,,250,,,,,,,,,,,wg-a,,,,AAXX 19124 07240 12700 42504 10260 20130 30071 40198 58005 60006 84200 91200=
07240,1998-08-19 15:00:00,27,1018.8,-1,37,11,500,14.816,,,300,,,,,,,,,,,wg-a,,,,AAXX 19154 07240 12700 43008 10270 20110 30061 40188 56010 60006 84400 91500=
07240,1998-08-19 18:00:00,25,1018.4,-0.5,44,12,35000,14.816,,,310,15.6,27.2,,,,,,,,,wg-a,,,,AAXX 19184 07240 12/81 33108 10250 20120 30056 40184 55005 60006 80004 91800 333 10272 20156=
07240,1998-08-19 21:00:00,18,1019.5,0.8,64,11,500,7.408,,,310,,,,,,,,,,,wg-a,,,,AAXX 19214 07240 12/00 53104 10180 20110 30064 40195 53008 60006 80004 92100=
07240,1998-08-20 00:00:00,15,1019.5,-0.1,82,12,20000,7.408,,,330,,,,,,,,,,,wg-a,,,,AAXX 20004 07240 12/70 13304 10150 20120 30063 40195 58001 60006 80001 90000=
07240,1998-08-20 03:00:00,13,1019.2,-0.4,88,11,15000,7.408,,,300,,,,,,,,,,,wg-a,,,,AAXX 20034 07240 12/65 03004 10130 20110 30059 40192 56004 60006 80000 90300=
07240,1998-08-20 06:00:00,12,1019.8,0.5,94,11,6000,7.408,,,290,11.2,24.6,,,,,,,,,wg-a,,,,AAXX 20064 07240 02/56 /2904 10120 20110 30064 40198 53005 60006 80001 90600 333 10246 20112 60004=
07240,1998-08-20 09:00:00,21,1020.2,0.8,56,12,10000,14.816,,,300,,,,,,,,,,,wg-a,,,,AAXX 20094 07240 12/60 03008 10210 20120 30072 40202 52008 60006 80000 90900=
07240,1998-08-20 12:00:00,25,1019.3,-0.7,44,12,15000,18.52,,,260,,,,,,,,,,,wg-a,,,,AAXX 20124 07240 12765 22610 10250 20120 30065 40193 58007 60006 82100 91200=
07240,1998-08-20 15:00:00,25,1018.4,-0.9,41,11,20000,22.224,,,270,,,,,,,,,,,wg-a,,,,AAXX 20154 07240 12770 52712 10250 20110 30056 40184 58009 60006 814/1 91500=
07240,1998-08-20 18:00:00,23,1017.7,-0.8,44,10,20000,18.52,,,270,12.2,25.8,,,,,,,,,wg-a,,,,AAXX 20184 07240 12/70 72710 10230 20100 30048 40177 56008 60006 80002 91800 333 10258 20122=
07240,1998-08-20 21:00:00,19,1018.4,0.5,60,11,20000,7.408,,,290,,,,,,,,,,,wg-a,,,,AAXX 20214 07240 12/70 72904 10190 20110 30053 40184 52005 60006 85072 92100=
07240,1998-08-21 00:00:00,17,1017.5,-0.9,77,13,20000,18.52,,,250,,,,,,,,,,,wg-a,,,,AAXX 21004 07240 12/70 62510 10170 20130 30044 40175 58009 60006 83072 90000=
07240,1998-08-21 03:00:00,16,1016.5,-1.1,82,13,15000,22.224,,,250,,,,,,,,,,,wg-a,,,,AAXX 21034 07240 12765 72512 10160 20130 30033 40165 58011 60006 875// 90300=
07240,1998-08-21 06:00:00,16,1015.2,-1.2,82,13,20000,25.928,,,220,15.4,22.9,,,,,,,,21,wg-a,,,,AAXX 21064 07240 02470 82214 10160 20130 30021 40152 56012 61000 72162 878// 90600 333 10229 20154 6100=
07240,1998-08-21 09:00:00,16,1015.1,-0.1,94,15,4000,25.928,,,240,,,,,,,,,,,wg-a,,,,AAXX 21094 07240 32/40 /2414 10160 20150 30020 40151 55001 90900=
07240,1998-08-21 12:00:00,18,1014.2,-0.8,100,18,6000,25.928,,,240,,,,2,,,,,,51,wg-a,,,,AAXX 21124 07240 02256 82414 10180 20180 30012 40142 56008 60026 75152 875// 91200 333 60027=
07240,1998-08-21 15:00:00,20,1013.4,-0.7,94,19,10000,29.632,,,260,,,,1,,,,,,20,wg-a,,,,AAXX 21154 07240 12460 82616 10200 20190 30005 40134 58007 60017 72052 875// 91500=
07240,1998-08-21 18:00:00,21,1012.9,-0.5,83,18,12000,29.632,,,250,16,21.3,,,,,,,,1,wg-a,,,,AAXX 21184 07240 12462 52516 10210 20180 30000 40129 56005 60006 70152 85800 91800 333 10213 20160=
07240,1998-08-22 00:00:00,17,1016.3,1.2,82,14,20000,11.112,,,300,,,,,,,,,,,wg-a,,,,AAXX 22004 07240 12470 73006 10170 20140 30032 40163 50012 60006 875// 90000=
07240,1998-08-22 03:00:00,17,1016.3,-0,82,14,11000,7.408,,,280,,,,,,,,,,,wg-a,,,,AAXX 22034 07240 12/61 /2804 10170 20140 30032 40163 54000 60006 90300=
07240,1998-08-22 06:00:00,17,1015.8,-0.5,88,15,15000,11.112,,,220,16,20.6,,,,,3,,,,wg-a,,,,AAXX 22064 07240 02365 82206 10170 20150 30027 40158 57005 60006 875// 90600 333 10206 20160 60034=
07240,1998-08-22 09:00:00,17,1015.9,0.1,100,17,4000,11.112,,,270,,,,1,,,,,,51,wg-a,,,,AAXX 22094 07240 12240 82706 10170 20170 30028 40159 53001 60017 75165 877// 90900=
07240,1998-08-22 12:00:00,19,1014.7,-1.1,88,17,15000,22.224,,,240,,,,1,,,,,,20,wg-a,,,,AAXX 22124 07240 02365 82412 10190 20170 30017 40147 58011 60016 72065 875// 91200 333 60017=
07240,1998-08-22 15:00:00,20,1013.4,-1.2,88,18,10000,25.928,,,260,,,,1,,,,,,20,wg-a,,,,AAXX 22154 07240 12460 82614 10200 20180 30005 40134 58012 60017 72065 875// 91500=
07240,1998-08-22 18:00:00,20,1013.5,0.1,88,18,12000,22.224,,,260,16.6,20.6,,,,,,,,3,wg-a,,,,AAXX 22184 07240 12462 82612 10200 20180 30006 40135 53001 60006 70365 875// 91800 333 10206 20166=
07240,1998-08-22 21:00:00,18,1016,2.4,94,17,8000,11.112,,,310,,,,4,,,,,,21,wg-a,,,,AAXX 22214 07240 12358 73106 10180 20170 30030 40160 51024 60047 72165 875// 92100=
07240,1998-08-23 03:00:00,16,1018,0.2,94,15,12000,7.408,,,300,,,,,,,,,,,wg-a,,,,AAXX 23034 07240 12262 83004 10160 20150 30048 40180 50002 60006 875// 90300=
07240,1998-08-23 06:00:00,13,1019.2,1.1,100,13,12000,3.704,,,300,12.8,20.2,,,,,6,,,,wg-a,,,,AAXX 23064 07240 02462 53002 10130 20130 30059 40192 53011 60006 83801 90600 333 10202 20128 60064=
07240,1998-08-23 09:00:00,18,1020,1,73,13,25000,11.112,,,310,,,,,,,,,,,wg-a,,,,AAXX 23094 07240 12575 33106 10180 20130 30069 40200 51010 60006 82101 90900=
07240,1998-08-23 12:00:00,21,1019,-0.8,53,11,25000,14.816,,,280,,,,,,,,,,,wg-a,,,,AAXX 23124 07240 12675 32808 10210 20110 30061 40190 58008 60006 81102 91200=
07240,1998-08-23 15:00:00,25,1017.5,-1.4,44,12,25000,18.52,,,270,,,,,,,,,,,wg-a,,,,AAXX 23154 07240 12/75 42710 10250 20120 30047 40175 58014 60006 81032 91500=
07240,1998-08-23 18:00:00,23,1016,-1.5,50,12,25000,14.816,,,270,13.3,25.2,,,,,,,,,wg-a,,,,AAXX 23184 07240 12/75 62708 10230 20120 30032 40160 56015 60006 81032 91800 333 10252 20133=
07240,1998-08-23 21:00:00,19,1016.3,0.1,78,15,25000,29.632,,,270,,,,,,,,,,,wg-a,,,,AAXX 23214 07240 12/75 72716 10190 20150 30033 40163 53001 60006 84032 92100=
07240,1998-08-24 00:00:00,19,1014.6,-1.7,78,15,20000,29.632,,,250,,,,,,,,,,,wg-a,,,,AAXX 24004 07240 12570 82516 10190 20150 30016 40146 58017 60006 875// 90000=
07240,1998-08-24 03:00:00,18,1013.8,-0.8,88,16,15000,29.632,,,250,,,,0,,,,,,50,wg-a,,,,AAXX 24034 07240 12365 82516 10180 20160 30008 40138 58008 60007 75052 875// 90300=
07240,1998-08-24 06:00:00,15,1015.2,1.2,94,14,3500,22.224,,,310,14.8,23.3,,,,,,,,51,wg-a,,,,AAXX 24064 07240 02235 83112 10150 20140 30020 40152 53012 61000 75165 877// 90600 333 10233 20148 6003=
07240,1998-08-24 09:00:00,17,1016.8,1.7,88,15,20000,18.52,,,310,,,,0,,,,,,3,wg-a,,,,AAXX 24094 07240 12470 73110 10170 20150 30037 40168 53017 60007 70352 8787/ 90900=
07240,1998-08-24 12:00:00,20,1017.6,0.9,64,13,25000,18.52,,,300,,,,,,,,,,1,wg-a,,,,AAXX 24124 07240 12575 63010 10200 20130 30046 40176 51009 60016 70152 85830 91200=
07240,1998-08-24 15:00:00,22,1018.1,0.6,53,12,500,18.52,,,300,,,,,,,,,,,wg-a,,,,AAXX 24154 07240 12600 /3010 10220 20120 30052 40181 53006 60006 85800 91500=
07240,1998-08-24 18:00:00,21,1018.8,0.6,49,10,500,18.52,,,310,14.7,23.2,,,,,,,,,wg-a,,,,AAXX 24184 07240 12600 33110 10210 20100 30058 40188 53006 60006 83800 91800 333 10232 20147=
07240,1998-08-24 21:00:00,16,1020.5,1.5,77,12,500,7.408,,,360,,,,,,,,,,,wg-a,,,,AAXX 24214 07240 12700 43604 10160 20120 30073 40205 51015 60006 84500 92100=
07240,1998-08-25 00:00:00,13,1021.6,0.9,88,11,500,7.408,,,330,,,,,,,,,,,wg-a,,,,AAXX 25004 07240 12700 33304 10130 20110 30082 40216 51009 60006 83500 90000=
07240,1998-08-25 03:00:00,11,1021.5,-0.1,94,10,15000,3.704,,,280,,,,,,,,,,,wg-a,,,,AAXX 25034 07240 12765 22802 10110 20100 30081 40215 58001 60006 82500 90300=
07240,1998-08-25 06:00:00,11,1021.9,0.4,100,11,15000,3.704,,,10,10.2,20.7,,,,,,,,,wg-a,,,,AAXX 25064 07240 02665 30102 10110 20110 30085 40219 53004 60006 83500 90600 333 10207 20102 60004=
07240,1998-08-25 09:00:00,19,1022,0.4,60,11,25000,3.704,,,110,,,,,,,,,,,wg-a,,,,AAXX 25094 07240 12675 31102 10190 20110 30089 40220 52004 60006 83800 90900=
07240,1998-08-25 12:00:00,22,1021.2,-0.6,46,10,500,7.408,,,230,,,,,,,,,,,wg-a,,,,AAXX 25124 07240 12600 32304 10220 20100 30083 40212 58006 60006 83200 91200=
07240,1998-08-25 15:00:00,24,1020,-1.2,36,8,500,11.112,,,260,,,,,,,,,,,wg-a,,,,AAXX 25154 07240 12700 22606 10240 20080 30071 40200 58012 60006 82100 91500=
07240,1998-08-25 18:00:00,23,1019,-1,41,9,500,11.112,,,290,11.4,24.2,,,,,,,,,wg-a,,,,AAXX 25184 07240 12/00 02906 10230 20090 30061 40190 56010 60006 80000 91800 333 10242 20114=
07240,1998-08-25 21:00:00,16,1019.8,0.5,68,10,20000,3.704,,,310,,,,,,,,,,,wg-a,,,,AAXX 25214 07240 12/70 03102 10160 20100 30066 40198 53005 60006 80000 92100=
07240,1998-08-26 00:00:00,12,1019.5,-0.5,88,10,10000,3.704,,,330,,,,,,,,,,,wg-a,,,,AAXX 26004 07240 12/60 03302 10120 20100 30061 40195 58005 60006 80000 90000=
07240,1998-08-26 03:00:00,11,1018.7,-0.8,94,10,10000,0,,,0,,,,,,,,,,,wg-a,,,,AAXX 26034 07240 12/60 00000 10110 20100 30053 40187 56008 60006 80000 90300=
07240,1998-08-26 06:00:00,10,1018.4,-0.4,93,9,15000,3.704,,,350,8.9,22.5,,,,,,,,,wg-a,,,,AAXX 26064 07240 02/65 03502 10100 20090 30049 40184 56004 60006 80000 90600 333 10225 20089 60004=
07240,1998-08-26 09:00:00,20,1018,0.1,56,11,500,11.112,,,300,,,,,,,,,,,wg-a,,,,AAXX 26094 07240 12/00 03006 10200 20110 30050 40180 51001 60006 80000 90900=
07240,1998-08-26 12:00:00,25,1017,-0.8,44,12,500,11.112,,,260,,,,,,,,,,,wg-a,,,,AAXX 26124 07240 12700 32606 10250 20120 30042 40170 58008 60006 83200 91200=
07240,1998-08-26 15:00:00,24,1016.1,-0.9,47,12,500,22.224,,,280,,,,,,,,,,,wg-a,,,,AAXX 26154 07240 12600 32812 10240 20120 30033 40161 57009 60006 83100 91500=
07240,1998-08-26 21:00:00,16,1017.6,1.4,72,11,500,7.408,,,10,,,,,,,,,,,wg-a,,,,AAXX 26214 07240 12/00 00104 10160 20110 30044 40176 53014 60006 80000 92100=
07240,1998-08-27 00:00:00,13,1018.3,0.6,88,11,10000,7.408,,,350,,,,,,,,,,,wg-a,,,,AAXX 27004 07240 12/60 /3504 10130 20110 30050 40183 51006 60006 90000=
07240,1998-08-27 03:00:00,14,1018.7,0.4,88,12,500,11.112,,,40,,,,,,,,,,,wg-a,,,,AAXX 27034 07240 12/00 30406 10140 20120 30054 40187 53004 60006 80002 90300=
07240,1998-08-27 06:00:00,14,1019.8,1.1,77,10,20000,18.52,,,50,11.8,21.8,,,,,,,,,wg-a,,,,AAXX 27064 07240 02670 /0510 10140 20100 30065 40198 53011 60006 85500 90600 333 10218 20118 60004=
07240,1998-08-27 09:00:00,17,1021.1,1.4,68,11,25000,25.928,,,50,,,,,,,,,,,wg-a,,,,AAXX 27094 07240 12575 70514 10170 20110 30079 40211 53014 60006 878// 90900=
07240,1998-08-27 12:00:00,19,1020.9,-0.1,46,7,500,22.224,,,50,,,,,,,,,,,wg-a,,,,AAXX 27124 07240 12600 70512 10190 20070 30078 40209 58001 60006 878// 91200=
07240,1998-08-27 15:00:00,19,1020.8,-0.1,43,6,500,18.52,,,50,,,,,,,,,,,wg-a,,,,AAXX 27154 07240 12700 50510 10190 20060 30077 40208 58001 60006 84501 91500=
07240,1998-08-27 18:00:00,18,1021,0.1,42,5,500,18.52,,,20,13.7,20.4,,,,,,,,,wg-a,,,,AAXX 27184 07240 12700 30210 10180 20050 30078 40210 53001 60006 82501 91800 333 10204 20137=
07240,1998-08-27 21:00:00,13,1022.7,1.5,58,5,15000,14.816,,,10,,,,,,,,,,,wg-a,,,,AAXX 27214 07240 12/65 00108 10130 20050 30093 40227 53015 60006 80000 92100=
07240,1998-08-28 00:00:00,11,1023.5,0.7,66,5,15000,14.816,,,40,,,,,,,,,,,wg-a,,,,AAXX 28004 07240 12/65 00408 10110 20050 30100 40235 51007 60006 80000 90000=
07240,1998-08-28 03:00:00,9,1023.5,-0.1,76,5,15000,11.112,,,30,,,,,,,,,,,wg-a,,,,AAXX 28034 07240 12/65 00306 10090 20050 30099 40235 57001 60006 80000 90300=
07240,1998-08-28 06:00:00,7,1024.4,0.8,87,5,25000,3.704,,,320,6.4,17.8,,,,,,,,,wg-a,,,,AAXX 28064 07240 02/75 03202 10070 20050 30107 40244 53008 60006 80000 90600 333 10178 20064 60004=
07240,1998-08-28 09:00:00,16,1024.5,0.5,51,6,500,14.816,,,50,,,,,,,,,,,wg-a,,,,AAXX 28094 07240 12/00 00508 10160 20060 30112 40245 52005 60006 80000 90900=
07240,1998-08-28 12:00:00,20,1023.1,-1.2,37,5,500,18.52,,,330,,,,,,,,,,,wg-a,,,,AAXX 28124 07240 12700 53310 10200 20050 30100 40231 58012 60006 85800 91200=
07240,1998-08-28 15:00:00,20,1022.1,-1,40,6,500,22.224,,,30,,,,,,,,,,,wg-a,,,,AAXX 28154 07240 12700 60312 10200 20060 30090 40221 56010 60006 86800 91500=
07240,1998-08-28 18:00:00,19,1021.9,-0.2,40,5,500,14.816,,,30,6.7,21.4,,,,,,,,,wg-a,,,,AAXX 28184 07240 12700 40308 10190 20050 30088 40219 55002 60006 825/2 91800 333 10214 20067=
07240,1998-08-28 21:00:00,14,1022.8,0.6,55,5,25000,7.408,,,30,,,,,,,,,,,wg-a,,,,AAXX 28214 07240 12/75 30304 10140 20050 30094 40228 53006 60006 80001 92100=
07240,1998-08-29 00:00:00,12,1023,0.1,62,5,20000,11.112,,,50,,,,,,,,,,,wg-a,,,,AAXX 29004 07240 12/70 00506 10120 20050 30095 40230 50001 60006 80000 90000=
07240,1998-08-29 03:00:00,10,1022.4,-0.6,76,6,20000,14.816,,,60,,,,,,,,,,,wg-a,,,,AAXX 29034 07240 12/70 20608 10100 20060 30089 40224 55006 60006 80001 90300=
07240,1998-08-29 06:00:00,9,1023,0.5,81,6,20000,14.816,,,60,8.4,18.6,,,,,,,,,wg-a,,,,AAXX 29064 07240 02/70 10608 10090 20060 30094 40230 53005 60006 80002 90600 333 10186 20084 60004=
07240,1998-08-29 09:00:00,16,1023.2,0.6,51,6,25000,18.52,,,90,,,,,,,,,,,wg-a,,,,AAXX 29094 07240 12675 /0910 10160 20060 30100 40232 52006 60006 81102 90900=
07240,1998-08-29 12:00:00,20,1021.8,-1.3,35,4,25000,18.52,,,80,,,,,,,,,,,wg-a,,,,AAXX 29124 07240 12775 10810 10200 20040 30087 40218 58013 60006 81102 91200=
07240,1998-08-29 18:00:00,19,1020.3,-0.1,43,6,500,18.52,,,70,9.3,21.3,,,,,,,,,wg-a,,,,AAXX 29184 07240 12700 50710 10190 20060 30072 40203 56001 60006 815/4 91800 333 10213 20093=
07240,1998-08-29 21:00:00,12,1020.8,0.2,67,6,25000,11.112,,,70,,,,,,,,,,,wg-a,,,,AAXX 29214 07240 12/75 30706 10120 20060 30074 40208 50002 60006 80001 92100=
07240,1998-08-30 00:00:00,11,1020.3,-0.5,71,6,20000,7.408,,,30,,,,,,,,,,,wg-a,,,,AAXX 30004 07240 12/70 10304 10110 20060 30069 40203 56005 60006 80001 90000=
07240,1998-08-30 03:00:00,10,1020.1,-0.3,82,7,20000,14.816,,,60,,,,,,,,,,,wg-a,,,,AAXX 30034 07240 12/70 70608 10100 20070 30066 40201 55003 60006 80004 90300=
07240,1998-08-30 06:00:00,10,1020.2,0.1,76,6,20000,14.816,,,70,8.9,18.5,,,,,,,,,wg-a,,,,AAXX 30064 07240 02/70 60708 10100 20060 30067 40202 53001 60006 80001 90600 333 10185 20089 60004=
07240,1998-08-30 09:00:00,18,1019.9,0.1,45,6,20000,18.52,,,90,,,,,,,,,,,wg-a,,,,AAXX 30094 07240 12/70 40910 10180 20060 30068 40199 50001 60006 80001 90900=
07240,1998-08-30 12:00:00,22,1018.8,-0.9,35,6,20000,22.224,,42.596,110,,,,,,,,,,,wg-a,,,,AAXX 30124 07240 12/70 41112 10220 20060 30059 40188 58009 60006 80001 91200 333 91023=
07240,1998-08-30 15:00:00,24,1017,-1.7,29,5,500,18.52,,,110,,,,,,,,,,,wg-a,,,,AAXX 30154 07240 12/00 11110 10240 20050 30042 40170 56017 60006 80001 91500=
07240,1998-08-30 18:00:00,22,1016.2,-0.9,38,7,500,14.816,,,80,10,24.5,,,,,,,,,wg-a,,,,AAXX 30184 07240 12/00 10808 10220 20070 30033 40162 56009 60006 80001 91800 333 10245 20100=
07240,1998-08-30 21:00:00,15,1016.9,0.4,59,7,20000,11.112,,,80,,,,,,,,,,,wg-a,,,,AAXX 30214 07240 12/70 10806 10150 20070 30037 40169 53004 60006 80001 92100=
07240,1998-08-31 00:00:00,14,1016.2,-0.8,67,8,20000,14.816,,,80,,,,,,,,,,,wg-a,,,,AAXX 31004 07240 12/70 00808 10140 20080 30029 40162 58008 60006 80000 90000=
07240,1998-08-31 03:00:00,12,1015.1,-1.1,76,8,20000,14.816,,,80,,,,,,,,,,,wg-a,,,,AAXX 31034 07240 12/70 00808 10120 20080 30018 40151 56011 60006 80000 90300=
07240,1998-08-31 06:00:00,12,1014.6,-0.5,82,9,15000,18.52,,,80,10.3,22.2,,,,,,,,,wg-a,,,,AAXX 31064 07240 02/65 20810 10120 20090 30013 40146 57005 60006 81032 90600 333 10222 20103 60004=
07240,1998-08-31 09:00:00,21,1014,-0.2,46,9,15000,18.52,,,100,,,,,,,,,,,wg-a,,,,AAXX 31094 07240 12/65 61010 10210 20090 30011 40140 58002 60006 83032 90900=
07240,1998-08-31 12:00:00,25,1012.7,-1.1,36,9,15000,11.112,,,110,,,,,,,,,,,wg-a,,,,AAXX 31124 07240 12/65 71106 10250 20090 30000 40127 58011 60006 83032 91200=
07240,1998-08-31 15:00:00,27,1011,-1.6,32,9,15000,14.816,,,120,,,,,,,,,,,wg-a,,,,AAXX 31154 07240 12/65 61208 10270 20090 39984 40110 56016 60006 82032 91500=
07240,1998-08-31 18:00:00,25,1010.2,-0.9,36,9,15000,11.112,,,90,12.1,28.1,,,,,,,,,wg-a,,,,AAXX 31184 07240 12/65 70906 10250 20090 39975 40102 57009 60006 82082 91800 333 10281 20121=
07240,1998-08-31 21:00:00,21,1010.7,0.3,46,9,15000,14.816,,,80,,,,,,,,,,,wg-a,,,,AAXX 31214 07240 12/65 30808 10210 20090 39978 40107 52003 60006 82031 92100=
07240,1998-09-01 00:00:00,18,1010.4,-0.4,56,9,10000,14.816,,,90,,,,,,,,,,,wg-a,,,,AAXX 01004 07240 12/60 /0908 10180 20090 39974 40104 58004 60006 90000=
07240,1998-09-01 03:00:00,18,1009.6,-0.8,59,10,10000,11.112,,,120,,,,,,,,,,,wg-a,,,,AAXX 01034 07240 12/60 /1206 10180 20100 39966 40096 55008 60006 90300=
07240,1998-09-01 06:00:00,16,1011.1,1.4,94,15,8000,7.408,,,50,16,24.9,,,,,,,,80,wg-a,,,,AAXX 01064 07240 02458 80504 10160 20150 39980 40111 50014 61000 78098 8697/ 90600 333 10249 20160 6002=
07240,1998-09-01 09:00:00,19,1012,1.1,83,16,12000,11.112,,,210,,,,1,,,,,,2,wg-a,,,,AAXX 01094 07240 12762 72106 10190 20160 39991 40120 53011 60017 70296 83572 90900=
07240,1998-09-01 12:00:00,26,1012.5,0.8,58,17,15000,14.816,,,240,,,,,,,,,,1,wg-a,,,,AAXX 01124 07240 12/65 12408 10260 20170 39999 40125 51008 60016 70196 80001 91200=
07240,1998-09-01 15:00:00,27,1011.6,-0.9,54,17,20000,11.112,,,250,,,,,,,,,,,wg-a,,,,AAXX 01154 07240 12670 32506 10270 20170 39990 40116 57009 60006 81131 91500=
07240,1998-09-01 18:00:00,25,1011.8,0.1,65,18,15000,7.408,,,300,16,27.8,,,,,,,,,wg-a,,,,AAXX 01184 07240 12/65 53004 10250 20180 39991 40118 53001 60006 84032 91800 333 10278 20160=
07240,1998-09-01 21:00:00,23,1012.9,1.1,78,19,10000,3.704,,,130,,,,,,,,,,,wg-a,,,,AAXX 01214 07240 12/60 71302 10230 20190 30002 40129 51011 60006 87030 92100=
07240,1998-09-02 00:00:00,21,1012.3,-0.7,83,18,10000,3.704,,,120,,,,,,,,,,,wg-a,,,,AAXX 02004 07240 12/60 71202 10210 20180 39995 40123 58007 60006 87030 90000=
07240,1998-09-02 03:00:00,20,1011.3,-1.1,88,18,10000,11.112,,,120,,,,,,,,,,,wg-a,,,,AAXX 02034 07240 12/60 71206 10200 20180 39984 40113 58011 60006 87030 90300=
07240,1998-09-02 06:00:00,19,1012.6,1.3,94,18,1500,11.112,,,320,18.6,25.3,,,,,,,,80,wg-a,,,,AAXX 02064 07240 02215 73206 10190 20180 39997 40126 53013 61000 78098 8598/ 90600 333 10253 20186 6004=
07240,1998-09-02 09:00:00,20,1011.9,-0.7,94,19,10000,11.112,,,110,,,,2,,,,,,1,wg-a,,,,AAXX 02094 07240 12/60 71106 10200 20190 39990 40119 55007 60027 70198 85072 90900=
07240,1998-09-02 12:00:00,22,1011.6,-0.2,83,19,15000,11.112,,,140,,,,,,,,,,3,wg-a,,,,AAXX 02124 07240 12465 71406 10220 20190 39988 40116 58002 60026 70398 8587/ 91200=
07240,1998-09-02 15:00:00,24,1009.4,-2.1,74,19,18000,14.816,,,160,,,,,,,,,,1,wg-a,,,,AAXX 02154 07240 02768 71608 10240 20190 39967 40094 58021 61000 70162 82572 91500 333 ////=
07240,1998-09-02 18:00:00,24,1009.4,0,74,19,20000,18.52,,,220,18.4,25,,,,,,,,60,wg-a,,,,AAXX 02184 07240 02570 72210 10240 20190 39967 40094 50000 61000 76062 8557/ 91800 333 10250 20184 6100=
07240,1998-09-02 21:00:00,20,1010.5,0.9,83,17,20000,14.816,,,220,,,,,,,,,,1,wg-a,,,,AAXX 02214 07240 02/70 32208 10200 20170 39976 40105 51009 61000 70161 81031 92100 333 ////=
07240,1998-09-03 00:00:00,20,1010.2,-0.3,83,17,20000,25.928,,,200,,,,,,,,,,3,wg-a,,,,AAXX 03004 07240 02470 82014 10200 20170 39973 40102 58003 61000 70361 875// 90000 333 ////=
07240,1998-09-03 03:00:00,16,1011,0.6,94,15,7000,29.632,,,230,,,,0,,,,,,51,wg-a,,,,AAXX 03034 07240 12257 82316 10160 20150 39979 40110 53006 60007 75165 877// 90300=
07240,1998-09-03 06:00:00,15,1013.6,2.6,100,15,10000,22.224,,,260,15.2,23.6,,,,,,,,50,wg-a,,,,AAXX 03064 07240 02260 82612 10150 20150 30005 40136 53026 61000 75065 877// 90600 333 10236 20152 6005=
07240,1998-09-03 09:00:00,16,1016.4,2.8,94,15,15000,22.224,,,280,,,,,,,,,,1,wg-a,,,,AAXX 03094 07240 02465 82812 10160 20150 30033 40164 52028 61000 70152 877// 90900 333 ////=
07240,1998-09-03 12:00:00,21,1016.5,0.3,64,14,25000,25.928,,,260,,,,,,,,,,1,wg-a,,,,AAXX 03124 07240 02575 62614 10210 20140 30036 40165 52003 61000 70152 86800 91200 333 ////=
07240,1998-09-03 15:00:00,22,1015.8,-0.7,50,11,500,22.224,,,280,,,,,,,,,,,wg-a,,,,AAXX 03154 07240 12600 42812 10220 20110 30029 40158 58007 60006 83102 91500=
07240,1998-09-03 18:00:00,21,1015.3,-0.5,53,11,35000,11.112,,,260,15.4,23.6,,,,,,,,,wg-a,,,,AAXX 03184 07240 12781 22606 10210 20110 30024 40153 56005 60006 81131 91800 333 10236 20154=
07240,1998-09-04 00:00:00,12,1014.4,-1.5,94,11,20000,7.408,,,90,,,,,,,,,,,wg-a,,,,AAXX 04004 07240 12/70 50904 10120 20110 30011 40144 58015 60006 81031 90000=
07240,1998-09-04 03:00:00,12,1012.7,-1.7,94,11,20000,7.408,,,100,,,,,,,,,,,wg-a,,,,AAXX 04034 07240 12/70 81004 10120 20110 39994 40127 58017 60006 8707/ 90300=
07240,1998-09-04 06:00:00,13,1011.6,-1,94,12,15000,7.408,,,170,11.4,20.7,,,,,,,,60,wg-a,,,,AAXX 04064 07240 02765 /1704 10130 20120 39984 40116 57010 61000 76062 8157/ 90600 333 10207 20114 6000=
07240,1998-09-04 09:00:00,16,1009.7,-1.7,94,15,20000,14.816,,,130,,,,0,,,,,,3,wg-a,,,,AAXX 04094 07240 12770 71308 10160 20150 39967 40097 56017 60007 70362 8457/ 90900=
07240,1998-09-04 12:00:00,18,1007.1,-2.5,88,16,20000,11.112,,,130,,,,1,,,,,,1,wg-a,,,,AAXX 04124 07240 02670 71306 10180 20160 39942 40071 58025 60016 70162 8657/ 91200 333 60017=
07240,1998-09-04 15:00:00,20,1005.2,-1.8,83,17,12000,22.224,,,230,,,,2,,,,,,80,wg-a,,,,AAXX 04154 07240 12262 82312 10200 20170 39924 40052 55018 60027 78086 878// 91500=
07240,1998-09-04 18:00:00,18,1005.2,-0.1,94,17,25000,14.816,,,210,13.4,23.3,,,,,,,,21,wg-a,,,,AAXX 04184 07240 02375 82108 10180 20170 39923 40052 58001 61000 72186 878// 91800 333 10233 20134 6002=
07240,1998-09-04 21:00:00,16,1006.7,1.4,94,15,20000,14.816,,,240,,,,10,,,,,,1,wg-a,,,,AAXX 04214 07240 12570 /2408 10160 20150 39937 40067 51014 60107 70186 811// 92100=
07240,1998-09-05 00:00:00,15,1008.1,1.3,94,14,20000,18.52,,,240,,,,,,,,,,3,wg-a,,,,AAXX 05004 07240 12370 /2410 10150 20140 39950 40081 53013 60106 70386 81100 90000=
07240,1998-09-05 03:00:00,15,1008.4,0.3,94,14,10000,14.816,,,230,,,,0,,,,,,,wg-a,,,,AAXX 05034 07240 12260 32308 10150 20140 39953 40084 52003 60007 83600 90300=
07240,1998-09-05 06:00:00,15,1009.1,0.7,94,14,8000,14.816,,,220,14.4,17.7,,,,,14,,,,wg-a,,,,AAXX 05064 07240 02458 72208 10150 20140 39960 40091 53007 60006 876// 90600 333 10177 20144 60144=
07240,1998-09-05 09:00:00,18,1010.4,1.4,88,16,10000,22.224,,,260,,,,,,,,,,,wg-a,,,,AAXX 05094 07240 12460 /2612 10180 20160 39974 40104 51014 60006 86500 90900=
07240,1998-09-05 12:00:00,22,1010.1,-0.1,65,15,500,29.632,,,270,,,,,,,,,,,wg-a,,,,AAXX 05124 07240 12600 /2716 10220 20150 39973 40101 58001 60006 85202 91200=
07240,1998-09-05 15:00:00,22,1010.9,0.8,53,12,500,31.484,,,270,,,,,,,,,,,wg-a,,,,AAXX 05154 07240 12600 /2717 10220 20120 39981 40109 53008 60006 85202 91500=
07240,1998-09-05 18:00:00,19,1012.3,1.2,60,11,500,22.224,,,260,14.8,22.8,,,,,,,,,wg-a,,,,AAXX 05184 07240 12700 42612 10190 20110 39993 40123 52012 60006 815/2 91800 333 10228 20148=
07240,1998-09-05 21:00:00,16,1014.3,1.9,77,12,10000,14.816,,,250,,,,,,,,,,,wg-a,,,,AAXX 05214 07240 12/60 /2508 10160 20120 30012 40143 51019 60006 92100=
07240,1998-09-06 00:00:00,14,1014.1,-0.3,88,12,20000,11.112,,,240,,,,,,,,,,,wg-a,,,,AAXX 06004 07240 12/70 02406 10140 20120 30009 40141 57003 60006 80000 90000=
07240,1998-09-06 06:00:00,14,1013.6,0.1,100,14,800,7.408,,,220,11.3,18.8,,,,,,,,44,wg-a,,,,AAXX 06064 07240 02108 82204 10140 20140 30004 40136 53001 60006 74441 876// 90600 333 10188 20113 60004=
07240,1998-09-06 09:00:00,16,1013.1,-0.4,88,14,11000,11.112,,,190,,,,,,,,,,,wg-a,,,,AAXX 06094 07240 12/61 /1906 10160 20140 30000 40131 55004 60006 90900=
07240,1998-09-06 12:00:00,21,1010.8,-2.1,64,14,25000,14.816,,,170,,,,,,,,,,1,wg-a,,,,AAXX 06124 07240 12575 /1708 10210 20140 39979 40108 58021 60006 70142 82132 91200=
07240,1998-09-06 15:00:00,25,1008.9,-1.7,50,14,11000,18.52,,,200,,,,,,,,,,,wg-a,,,,AAXX 06154 07240 12/61 /2010 10250 20140 39962 40089 58017 60006 91500=
07240,1998-09-06 18:00:00,22,1007.2,-1.7,57,13,25000,11.112,,,170,14,24.9,,,,,,,,,wg-a,,,,AAXX 06184 07240 12/75 61706 10220 20130 39945 40072 56017 60006 82032 91800 333 10249 20140=
07240,1998-09-06 21:00:00,19,1008,0.6,78,15,20000,3.704,,,350,,,,0,,,,,,61,wg-a,,,,AAXX 06214 07240 12370 83502 10190 20150 39951 40080 52006 60007 76162 8757/ 92100=
07240,1998-09-07 00:00:00,17,1006,-2.1,88,15,11000,3.704,,,190,,,,,,,,,,,wg-a,,,,AAXX 07004 07240 12/61 /1902 10170 20150 39930 40060 56021 60026 90000=
07240,1998-09-07 03:00:00,17,1005.4,-0.6,88,15,11000,11.112,,,240,,,,,,,,,,,wg-a,,,,AAXX 07034 07240 12/61 /2406 10170 20150 39924 40054 58006 60006 90300=
07240,1998-09-07 06:00:00,16,1005.8,0.4,94,15,8000,7.408,,,170,16,22.4,,,,,,,,80,wg-a,,,,AAXX 07064 07240 02658 71704 10160 20150 39928 40058 51004 61000 78096 879// 90600 333 10224 20160 6004=
07240,1998-09-07 09:00:00,19,1006.4,0.7,88,17,15000,11.112,,,200,,,,0,,,,,,3,wg-a,,,,AAXX 07094 07240 12265 62006 10190 20170 39935 40064 51007 60007 70362 85280 90900=
07240,1998-09-07 12:00:00,23,1005.8,-0.4,65,16,25000,18.52,,,230,,,,,,,,,,3,wg-a,,,,AAXX 07124 07240 12575 52310 10230 20160 39931 40058 58004 60006 70362 84901 91200=
07240,1998-09-07 15:00:00,22,1005.7,-0.1,65,15,500,18.52,,,230,,,,5,,,,,,1,wg-a,,,,AAXX 07154 07240 12500 32310 10220 20150 39930 40057 58001 60057 70198 83900 91500=
07240,1998-09-07 18:00:00,20,1006.4,0.6,73,15,500,14.816,,,230,16.1,23,,,,,,,,2,wg-a,,,,AAXX 07184 07240 12500 42308 10200 20150 39936 40064 53006 60006 70298 83201 91800 333 10230 20161=
07240,1998-09-07 21:00:00,17,1009.3,2.7,77,13,15000,14.816,,,240,,,,,,,,,,,wg-a,,,,AAXX 07214 07240 12/65 22408 10170 20130 39963 40093 51027 60006 81032 92100=
07240,1998-09-08 00:00:00,16,1010.1,0.7,88,14,10000,14.816,,,220,,,,,,,,,,,wg-a,,,,AAXX 08004 07240 12/60 72208 10160 20140 39970 40101 50007 60006 8703/ 90000=
07240,1998-09-08 03:00:00,15,1010.3,0.2,94,14,10000,22.224,,,240,,,,,,,,,,,wg-a,,,,AAXX 08034 07240 12/60 52412 10150 20140 39972 40103 53002 60006 85030 90300=
07240,1998-09-08 06:00:00,15,1010.6,0.3,94,14,15000,18.52,,,210,14.2,20,,,,,6,,,,wg-a,,,,AAXX 08064 07240 02265 32110 10150 20140 39975 40106 53003 60006 83500 90600 333 10200 20142 60064=
07240,1998-09-08 09:00:00,17,1010.9,0.4,88,15,15000,18.52,,,210,,,,,,,,,,60,wg-a,,,,AAXX 08094 07240 02465 72110 10170 20150 39979 40109 52004 61000 76061 875// 90900 333 ////=
07240,1998-09-08 12:00:00,19,1010.5,-0.3,88,17,20000,25.928,,,220,,,,1,,,,,,1,wg-a,,,,AAXX 08124 07240 02470 72214 10190 20170 39976 40105 57003 60016 70165 875// 91200 333 60017=
07240,1998-09-08 15:00:00,19,1010.3,-0.2,94,18,10000,25.928,,,230,,,,2,,,,,,51,wg-a,,,,AAXX 08154 07240 12360 82314 10190 20180 39974 40103 56002 60027 75152 887// 91500=
07240,1998-09-08 18:00:00,19,1010.6,0.3,94,18,35000,22.224,,,220,14.6,20.2,,0,,,,,,3,wg-a,,,,AAXX 08184 07240 02381 72212 10190 20180 39977 40106 53003 60006 70352 872// 91800 333 10202 20146 60007=
07240,1998-09-08 21:00:00,18,1011.1,0.5,100,18,4000,22.224,,,210,,,,0,,,,,,51,wg-a,,,,AAXX 08214 07240 12240 82112 10180 20180 39982 40111 50005 60007 75165 886// 92100=
07240,1998-09-09 00:00:00,18,1010.5,-0.7,94,17,2500,22.224,,,220,,,,1,,,,,,53,wg-a,,,,AAXX 09004 07240 02225 82212 10180 20170 39975 40105 58007 60016 75365 886// 90000 333 60017=
07240,1998-09-09 03:00:00,18,1009,-1.5,88,16,15000,29.632,,,200,,,,0,,,,,,20,wg-a,,,,AAXX 09034 07240 12365 72016 10180 20160 39960 40090 57015 60007 72052 876// 90300=
07240,1998-09-09 06:00:00,17,1008.5,-0.5,94,16,15000,22.224,,,200,17,19.4,,,,,5,,,2,wg-a,,,,AAXX 09064 07240 02365 72012 10170 20160 39955 40085 56005 60006 70252 83631 90600 333 10194 20170 60054=
07240,1998-09-09 09:00:00,20,1008.2,-0.1,78,16,18000,29.632,,,210,,,,,,,,,,,wg-a,,,,AAXX 09094 07240 12568 /2116 10200 20160 39954 40082 58001 60006 84531 90900=
07240,1998-09-09 12:00:00,18,1007.8,-0.5,94,17,500,25.928,,,230,,,,1,,,,,,60,wg-a,,,,AAXX 09124 07240 02400 72314 10180 20170 39949 40078 55005 60016 76086 878// 91200 333 60017=
07240,1998-09-09 15:00:00,22,1006.9,-0.7,69,16,20000,29.632,,,220,,,,,,,,,,1,wg-a,,,,AAXX 09154 07240 02570 42216 10220 20160 39942 40069 58007 61000 70161 84200 91500 333 ////=
07240,1998-09-09 18:00:00,21,1007.2,0.2,69,15,20000,25.928,,,230,17,23.2,,,,,,,,2,wg-a,,,,AAXX 09184 07240 12670 22314 10210 20150 39944 40072 53002 60006 70261 82100 91800 333 10232 20170=
07240,1998-09-09 21:00:00,18,1008.3,1,83,15,20000,22.224,,,220,,,,,,,,,,,wg-a,,,,AAXX 09214 07240 12770 22212 10180 20150 39954 40083 51010 60006 82500 92100=
07240,1998-09-10 00:00:00,17,1008,-0.4,88,15,20000,18.52,,,200,,,,,,,,,,,wg-a,,,,AAXX 10004 07240 12670 52010 10170 20150 39950 40080 58004 60006 82530 90000=
07240,1998-09-10 06:00:00,16,1009.1,0.6,88,14,20000,18.52,,,220,15.5,20.5,,,,,1,,,,wg-a,,,,AAXX 10064 07240 02470 32210 10160 20140 39960 40091 53006 60006 81132 90600 333 10205 20155 60014=
07240,1998-09-10 09:00:00,19,1009.5,0.6,78,15,11000,25.928,,44.448,220,,,,,,,,,,,wg-a,,,,AAXX 10094 07240 32/61 /2214 10190 20150 39966 40095 51006 90900 333 91024=
07240,1998-09-10 12:00:00,22,1008.9,-0.5,57,13,20000,29.632,,,240,,,,,,,,,,1,wg-a,,,,AAXX 10124 07240 02670 /2416 10220 20130 39961 40089 58005 61000 70186 85200 91200 333 ////=
07240,1998-09-10 15:00:00,21,1008.7,-0.2,60,13,20000,31.484,,,250,,,,,,,,,,,wg-a,,,,AAXX 10154 07240 12670 42517 10210 20130 39959 40087 56002 60006 82232 91500=
07240,1998-09-10 18:00:00,19,1009.5,0.7,68,13,25000,25.928,,,250,15.6,24,,,,,,,,,wg-a,,,,AAXX 10184 07240 32675 32514 10190 20130 39966 40095 53007 81831 91800 333 10240 20156=
07240,1998-09-11 00:00:00,14,1010.9,-0.2,94,13,25000,18.52,,,250,,,,,,,,,,,wg-a,,,,AAXX 11004 07240 12/75 22510 10140 20130 39978 40109 58002 60006 82030 90000=
07240,1998-09-11 06:00:00,13,1008.4,-1.5,94,12,10000,11.112,,,220,12.7,19.2,,,,,,,,,wg-a,,,,AAXX 11064 07240 02460 62206 10130 20120 39952 40084 56015 60006 82672 90600 333 10192 20127 61000=
07240,1998-09-11 09:00:00,15,1006.9,-1.4,88,13,12000,14.816,,,220,,,,,,,,,,,wg-a,,,,AAXX 11094 07240 12462 72208 10150 20130 39938 40069 57014 60006 8567/ 90900=
07240,1998-09-11 12:00:00,14,1004.8,-2.1,94,13,12000,11.112,,,220,,,,3,,,,,,61,wg-a,,,,AAXX 11124 07240 02262 82206 10140 20130 39917 40048 58021 60036 76162 8557/ 91200 333 60037=
07240,1998-09-11 15:00:00,14,1002,-2.7,94,13,15000,14.816,,,230,,,,2,,,,,,21,wg-a,,,,AAXX 11154 07240 12365 82308 10140 20130 39890 40020 56027 60027 72162 8457/ 91500=
07240,1998-09-11 18:00:00,13,1001,-1.1,94,12,7000,11.112,,,270,12.9,16.9,,,,,,,,21,wg-a,,,,AAXX 11184 07240 02357 82706 10130 20120 39879 40010 56011 61000 72162 8577/ 91800 333 10169 20129 6005=
07240,1998-09-11 21:00:00,11,1003,1.9,94,10,10000,18.52,,,290,,,,1,,,,,,3,wg-a,,,,AAXX 11214 07240 12260 72910 10110 20100 39898 40030 53019 60017 70362 876// 92100=
07240,1998-09-12 00:00:00,11,1003.9,0.9,94,10,10000,18.52,,,280,,,,,,,,,,3,wg-a,,,,AAXX 12004 07240 12260 /2810 10110 20100 39907 40039 51009 60016 70362 86800 90000=
07240,1998-09-12 03:00:00,10,1004.7,0.7,93,9,10000,18.52,,,290,,,,,,,,,,,wg-a,,,,AAXX 12034 07240 12760 32910 10100 20090 39914 40047 51007 60006 81530 90300=
07240,1998-09-12 06:00:00,9,1005.9,1.2,93,8,20000,18.52,,,270,9.1,13.2,,,,,11,,,,wg-a,,,,AAXX 12064 07240 02370 32710 10090 20080 39926 40059 53012 60006 81130 90600 333 10132 20091 60114=
07240,1998-09-12 09:00:00,13,1006.2,0.5,88,11,25000,22.224,,,280,,,,,,,,,,,wg-a,,,,AAXX 12094 07240 12475 62812 10130 20110 39931 40062 51005 60006 84132 90900=
07240,1998-09-12 12:00:00,15,1004.5,-1.6,72,10,11000,29.632,,,270,,,,,,,,,,,wg-a,,,,AAXX 12124 07240 12/61 /2716 10150 20100 39915 40045 58016 60006 91200=
07240,1998-09-12 15:00:00,12,1001.9,-2.7,94,11,7000,18.52,,,230,,,,4,,,,,,61,wg-a,,,,AAXX 12154 07240 12357 82310 10120 20110 39888 40019 57027 60047 76162 875// 91500=
07240,1998-09-12 18:00:00,12,1001.3,-0.7,82,9,500,18.52,,,280,9.1,15.9,,0,,,,,,1,wg-a,,,,AAXX 12184 07240 02500 32810 10120 20090 39881 40013 55007 60006 70161 82230 91800 333 10159 20091 60007=
07240,1998-09-12 21:00:00,8,1002.7,1.3,93,7,15000,11.112,,,270,,,,,,,,,,,wg-a,,,,AAXX 12214 07240 12/65 02706 10080 20070 39894 40027 51013 60006 80000 92100=
07240,1998-09-13 00:00:00,7,1002.5,-0.3,87,5,10000,14.816,,,270,,,,,,,,,,,wg-a,,,,AAXX 13004 07240 12/60 /2708 10070 20050 39891 40025 58003 60006 90000=
07240,1998-09-13 03:00:00,7,1001.4,-1.1,87,5,15000,22.224,,,250,,,,,,,,,,,wg-a,,,,AAXX 13034 07240 12/65 02512 10070 20050 39880 40014 58011 60006 80000 90300=
07240,1998-09-13 06:00:00,8,999.9,-1.4,87,6,12000,22.224,,,240,6.3,11.8,,0,,,4,,,,wg-a,,,,AAXX 13064 07240 02762 62412 10080 20060 39866 49999 58014 60044 865/0 90600 333 10118 20063 60007=
07240,1998-09-13 12:00:00,13,1001.2,2.3,77,9,500,31.484,,,320,,,,0,,,,,,25,wg-a,,,,AAXX 13124 07240 02500 33217 10130 20090 39881 40012 53023 60016 72586 83900 91200 333 60007=
07240,1998-09-13 15:00:00,15,1003.9,2.7,51,5,500,29.632,,,310,,,,,,,,,,,wg-a,,,,AAXX 13154 07240 12600 73116 10150 20050 39908 40039 51027 60006 878// 91500=
07240,1998-09-13 18:00:00,14,1005.8,1.9,58,6,500,22.224,,,300,8.1,15.9,,,,,,,,,wg-a,,,,AAXX 13184 07240 12700 63012 10140 20060 39927 40058 53019 60006 868/0 91800 333 10159 20081=
07240,1998-09-13 21:00:00,10,1006.8,0.8,82,7,500,14.816,,,270,,,,,,,,,,,wg-a,,,,AAXX 13214 07240 12700 52708 10100 20070 39935 40068 51008 60006 85500 92100=
07240,1998-09-14 00:00:00,10,1007,0.2,87,8,500,14.816,,,270,,,,,,,,,,,wg-a,,,,AAXX 14004 07240 12700 22708 10100 20080 39937 40070 53002 60006 82500 90000=
07240,1998-09-14 06:00:00,9,1007.4,0.3,93,8,20000,18.52,,,260,7.8,13.9,,,,,1,,,,wg-a,,,,AAXX 14064 07240 02670 62610 10090 20080 39940 40074 53003 60006 85530 90600 333 10139 20078 60014=
07240,1998-09-14 09:00:00,13,1008.2,1,77,9,20000,22.224,,,270,,,,,,,,,,,wg-a,,,,AAXX 14094 07240 12470 32712 10130 20090 39950 40082 51010 60006 83800 90900=
07240,1998-09-14 12:00:00,16,1008.5,0.4,68,10,500,25.928,,,270,,,,,,,,,,,wg-a,,,,AAXX 14124 07240 12600 /2714 10160 20100 39954 40085 53004 60006 86800 91200=
07240,1998-09-14 15:00:00,17,1008.6,0.2,68,11,500,31.484,,,280,,,,2,,,,,,1,wg-a,,,,AAXX 14154 07240 12600 52817 10170 20110 39956 40086 51002 60027 70186 85830 91500=
07240,1998-09-14 18:00:00,14,1010.8,2,67,8,500,22.224,,,290,8.8,17.1,,,,,,,,1,wg-a,,,,AAXX 14184 07240 12700 32912 10140 20080 39976 40108 52020 60006 70186 838/1 91800 333 10171 20088=
07240,1998-09-14 21:00:00,13,1013.2,2.3,77,9,20000,18.52,,,280,,,,,,,,,,,wg-a,,,,AAXX 14214 07240 12770 72810 10130 20090 39999 40132 51023 60006 875// 92100=
07240,1998-09-15 00:00:00,10,1014.1,0.8,82,7,20000,18.52,,,270,,,,,,,,,,,wg-a,,,,AAXX 15004 07240 12770 22710 10100 20070 30007 40141 51008 60006 82500 90000=
07240,1998-09-15 06:00:00,9,1015.6,0.8,93,8,20000,14.816,,,250,7.6,14,,,,,2,,,,wg-a,,,,AAXX 15064 07240 02/70 52508 10090 20080 30021 40156 53008 60006 85070 90600 333 10140 20076 60024=
07240,1998-09-15 09:00:00,11,1016.1,0.6,94,10,2500,14.816,,,210,,,,,,,,,,51,wg-a,,,,AAXX 15094 07240 02325 82108 10110 20100 30027 40161 53006 61000 75152 877// 90900 333 ////=
07240,1998-09-15 12:00:00,14,1014.1,-1.8,94,13,4000,22.224,,,210,,,,2,,,,,,51,wg-a,,,,AAXX 15124 07240 02240 82112 10140 20130 30009 40141 58018 60026 75152 877// 91200 333 60027=
07240,1998-09-15 18:00:00,17,1012,0.1,94,16,10000,22.224,,,260,9.3,16.9,,,,,,,,21,wg-a,,,,AAXX 15184 07240 02360 82612 10170 20160 39990 40120 53001 61000 72165 877// 91800 333 10169 20093 6001=
07240,1998-09-16 00:00:00,15,1014.1,0.8,94,14,10000,14.816,,,270,,,,,,,,,,,wg-a,,,,AAXX 16004 07240 12360 82708 10150 20140 30009 40141 53008 60006 88600 90000=
07240,1998-09-16 06:00:00,14,1014.4,0.7,88,12,15000,14.816,,,290,13.5,16.8,,,,,6,,,,wg-a,,,,AAXX 16064 07240 02465 72908 10140 20120 30012 40144 53007 60006 875// 90600 333 10168 20135 60064=
07240,1998-09-16 18:00:00,16,1015.6,-0.1,63,9,500,14.816,,,300,13.5,19.4,,,,,,,,,wg-a,,,,AAXX 16184 07240 12600 73008 10160 20090 30024 40156 56001 60006 82502 91800 333 10194 20135=
07240,1998-09-17 00:00:00,11,1017,0.4,87,9,20000,11.112,,,270,,,,,,,,,,,wg-a,,,,AAXX 17004 07240 12/70 02706 10110 20090 30036 40170 52004 60006 80000 90000=
07240,1998-09-17 03:00:00,10,1016.9,-0.1,93,9,10000,14.816,,,280,,,,,,,,,,,wg-a,,,,AAXX 17034 07240 12/60 32808 10100 20090 30035 40169 58001 60006 82032 90300=
07240,1998-09-17 06:00:00,11,1017.4,0.5,94,10,15000,11.112,,,270,9.7,15.5,,,,,,,,,wg-a,,,,AAXX 17064 07240 02265 /2706 10110 20100 30040 40174 53005 60006 85501 90600 333 10155 20097 60004=
07240,1998-09-17 09:00:00,15,1018.6,1.4,88,13,18000,14.816,,,320,,,,,,,,,,,wg-a,,,,AAXX 17094 07240 12468 73208 10150 20130 30054 40186 51014 60006 876// 90900=
07240,1998-09-17 12:00:00,19,1018.3,-0.1,60,11,500,14.816,,,290,,,,,,,,,,,wg-a,,,,AAXX 17124 07240 12500 52908 10190 20110 30053 40183 57001 60006 84201 91200=
07240,1998-09-17 18:00:00,16,1019.1,0.9,68,10,500,3.704,,,310,11.1,21.1,,,,,,,,,wg-a,,,,AAXX 17184 07240 12/00 33102 10160 20100 30059 40191 53009 60006 81032 91800 333 10211 20111=
07240,1998-09-18 00:00:00,9,1021.8,0.9,93,8,15000,3.704,,,40,,,,,,,,,,,wg-a,,,,AAXX 18004 07240 12/65 00402 10090 20080 30083 40218 51009 60006 80000 90000=
07240,1998-09-18 03:00:00,9,1021.9,-0,87,7,15000,3.704,,,70,,,,,,,,,,,wg-a,,,,AAXX 18034 07240 12/65 00702 10090 20070 30083 40219 55000 60006 80000 90300=
07240,1998-09-18 06:00:00,8,1022.9,1,87,6,18000,3.704,,,30,7.6,16.1,,,,,,,,,wg-a,,,,AAXX 18064 07240 02/68 20302 10080 20060 30093 40229 53010 60006 80001 90600 333 10161 20076 60004=
07240,1998-09-18 12:00:00,21,1024.5,0.5,49,10,500,7.408,,,90,,,,,,,,,,,wg-a,,,,AAXX 18124 07240 12/00 10904 10210 20100 30114 40245 50005 60006 80001 91200=
07240,1998-09-18 15:00:00,21,1023.8,-0.6,49,10,500,11.112,,,80,,,,,,,,,,,wg-a,,,,AAXX 18154 07240 12/00 10806 10210 20100 30108 40238 56006 60006 80001 91500=
07240,1998-09-18 18:00:00,18,1024.8,0.8,59,10,500,7.408,,,70,7.6,21.7,,,,,,,,,wg-a,,,,AAXX 18184 07240 12/00 20704 10180 20100 30116 40248 53008 60006 80001 91800 333 10217 20076=
07240,1998-09-18 21:00:00,13,1026.4,1.4,77,9,500,7.408,,,50,,,,,,,,,,,wg-a,,,,AAXX 18214 07240 12/00 20504 10130 20090 30130 40264 51014 60006 80001 92100=
07240,1998-09-19 00:00:00,11,1027.1,0.6,87,9,500,14.816,,,70,,,,,,,,,,,wg-a,,,,AAXX 19004 07240 12/00 00708 10110 20090 30136 40271 53006 60006 80000 90000=
07240,1998-09-19 06:00:00,10,1028.2,0.6,82,7,20000,14.816,,,70,9,17.5,,,,,,,,,wg-a,,,,AAXX 19064 07240 02/70 10708 10100 20070 30146 40282 53006 60006 80001 90600 333 10175 20090 60004=
07240,1998-09-19 09:00:00,17,1028.8,0.9,59,9,20000,22.224,,,80,,,,,,,,,,,wg-a,,,,AAXX 19094 07240 12/70 10812 10170 20090 30155 40288 51009 60006 80001 90900=
07240,1998-09-19 12:00:00,20,1028.8,0.1,43,7,500,22.224,,,70,,,,,,,,,,,wg-a,,,,AAXX 19124 07240 12/00 20712 10200 20070 30156 40288 50001 60006 80001 91200=
07240,1998-09-19 15:00:00,22,1027.4,-1.2,41,8,500,22.224,,,70,,,,,,,,,,,wg-a,,,,AAXX 19154 07240 12/00 10712 10220 20080 30144 40274 56012 60006 80001 91500=
07240,1998-09-19 18:00:00,18,1027.5,-0.1,52,8,20000,11.112,,,70,9.6,22.4,,,,,,,,,wg-a,,,,AAXX 19184 07240 12/70 10706 10180 20080 30143 40275 55001 60006 80001 91800 333 10224 20096=
07240,1998-09-19 21:00:00,15,1028.5,0.9,72,10,500,18.52,,,70,,,,,,,,,,,wg-a,,,,AAXX 19214 07240 12/00 00710 10150 20100 30152 40285 52009 60006 80000 92100=
07240,1998-09-20 00:00:00,13,1029,0.4,82,10,10000,14.816,,,70,,,,,,,,,,,wg-a,,,,AAXX 20004 07240 12/60 00708 10130 20100 30156 40290 51004 60006 80000 90000=
07240,1998-09-20 03:00:00,12,1028.9,-0.2,88,10,10000,18.52,,,70,,,,,,,,,,,wg-a,,,,AAXX 20034 07240 12/60 00710 10120 20100 30154 40289 58002 60006 80000 90300=
07240,1998-09-20 06:00:00,12,1029.4,0.5,82,9,10000,18.52,,,60,11.5,17.4,,,,,,,,,wg-a,,,,AAXX 20064 07240 02/60 10610 10120 20090 30159 40294 53005 60006 80001 90600 333 10174 20115 60004=
07240,1998-09-20 09:00:00,18,1029.9,0.7,64,11,10000,25.928,,,70,,,,,,,,,,,wg-a,,,,AAXX 20094 07240 12/60 00714 10180 20110 30166 40299 51007 60006 80000 90900=
07240,1998-09-20 12:00:00,22,1028.7,-0.9,50,11,25000,25.928,,,50,,,,,,,,,,,wg-a,,,,AAXX 20124 07240 12775 10514 10220 20110 30157 40287 58009 60006 81100 91200=
07240,1998-09-20 15:00:00,23,1026.9,-1.8,47,11,25000,25.928,,,60,,,,,,,,,,,wg-a,,,,AAXX 20154 07240 12775 30614 10230 20110 30139 40269 56018 60006 83400 91500=
07240,1998-09-20 18:00:00,19,1027,-0.1,56,10,20000,18.52,,,70,11.8,23.4,,,,,,,,,wg-a,,,,AAXX 20184 07240 12/70 00710 10190 20100 30138 40270 55001 60006 80000 91800 333 10234 20118=
07240,1998-09-20 21:00:00,16,1027.7,0.6,63,9,20000,22.224,,,70,,,,,,,,,,,wg-a,,,,AAXX 20214 07240 12/70 00712 10160 20090 30144 40277 51006 60006 80000 92100=
07240,1998-09-21 00:00:00,13,1027.5,-0.4,77,9,10000,14.816,,,70,,,,,,,,,,,wg-a,,,,AAXX 21004 07240 12/60 /0708 10130 20090 30140 40275 58004 60006 90000=
07240,1998-09-21 03:00:00,12,1027.5,0,82,9,20000,18.52,,,60,,,,,,,,,,,wg-a,,,,AAXX 21034 07240 12/70 00610 10120 20090 30140 40275 50000 60006 80000 90300=
07240,1998-09-21 06:00:00,10,1027.4,-0.2,93,9,15000,18.52,,,60,10,18.7,,,,,,,,,wg-a,,,,AAXX 21064 07240 02/65 10610 10100 20090 30138 40274 56002 60006 80001 90600 333 10187 20100 60004=
07240,1998-09-21 09:00:00,15,1027,-0.1,72,10,15000,22.224,,,70,,,,,,,,,,,wg-a,,,,AAXX 21094 07240 12/65 10712 10150 20100 30137 40270 58001 60006 80001 90900=
07240,1998-09-21 12:00:00,20,1024.9,-1.9,49,9,25000,25.928,,,80,,,,,,,,,,,wg-a,,,,AAXX 21124 07240 12675 20814 10200 20090 30118 40249 57019 60006 81101 91200=
07240,1998-09-21 15:00:00,21,1023,-1.8,46,9,25000,25.928,,,70,,,,,,,,,,,wg-a,,,,AAXX 21154 07240 12/75 10714 10210 20090 30100 40230 56018 60006 80001 91500=
07240,1998-09-21 18:00:00,18,1022.8,-0.4,59,10,20000,14.816,,,70,10.1,21.5,,,,,,,,,wg-a,,,,AAXX 21184 07240 12/70 10708 10180 20100 30096 40228 55004 60006 80001 91800 333 10215 20101=
07240,1998-09-21 21:00:00,16,1022.7,-0.2,63,9,20000,18.52,,,60,,,,,,,,,,,wg-a,,,,AAXX 21214 07240 12/70 10610 10160 20090 30094 40227 58002 60006 80001 92100=
07240,1998-09-22 00:00:00,13,1022.2,-0.6,72,8,20000,18.52,,,70,,,,,,,,,,,wg-a,,,,AAXX 22004 07240 12/70 00710 10130 20080 30088 40222 58006 60006 80000 90000=
07240,1998-09-22 03:00:00,11,1021,-1.3,82,8,20000,14.816,,,60,,,,,,,,,,,wg-a,,,,AAXX 22034 07240 12/70 00608 10110 20080 30075 40210 56013 60006 80000 90300=
07240,1998-09-22 06:00:00,10,1021,-0,87,8,15000,14.816,,,60,9.5,17.5,,,,,,,,,wg-a,,,,AAXX 22064 07240 02/65 10608 10100 20080 30075 40210 55000 60006 80001 90600 333 10175 20095 60004=
07240,1998-09-22 09:00:00,14,1020.3,-0.5,72,9,18000,18.52,,,60,,,,,,,,,,,wg-a,,,,AAXX 22094 07240 12/68 10610 10140 20090 30070 40203 58005 60006 80001 90900=
07240,1998-09-22 12:00:00,19,1018.2,-1.8,56,10,20000,22.224,,,70,,,,,,,,,,,wg-a,,,,AAXX 22124 07240 12/70 10712 10190 20100 30052 40182 58018 60006 80002 91200=
07240,1998-09-22 15:00:00,21,1016.5,-1.6,53,11,20000,14.816,,,90,,,,,,,,,,,wg-a,,,,AAXX 22154 07240 12/70 10908 10210 20110 30036 40165 56016 60006 80001 91500=
07240,1998-09-22 18:00:00,17,1016.3,-0.4,68,11,20000,11.112,,,60,9.6,21.7,,,,,,,,,wg-a,,,,AAXX 22184 07240 12/70 10606 10170 20110 30032 40163 56004 60006 80002 91800 333 10217 20096=
07240,1998-09-23 00:00:00,14,1015.9,-0.4,82,11,20000,18.52,,,80,,,,,,,,,,,wg-a,,,,AAXX 23004 07240 12/70 50810 10140 20110 30027 40159 57004 60006 85030 90000=
07240,1998-09-23 03:00:00,11,1016.8,0.7,94,10,20000,14.816,,,100,,,,,,,,,,,wg-a,,,,AAXX 23034 07240 12/70 21008 10110 20100 30034 40168 52007 60006 82030 90300=
07240,1998-09-23 06:00:00,10,1017.7,0.8,93,9,15000,11.112,,,100,10,16.7,,,,,,,,,wg-a,,,,AAXX 23064 07240 02/65 11006 10100 20090 30042 40177 53008 60006 80001 90600 333 10167 20100 60004=
07240,1998-09-23 09:00:00,19,1018.2,1,56,10,15000,14.816,,,130,,,,,,,,,,,wg-a,,,,AAXX 23094 07240 12/65 21308 10190 20100 30052 40182 51010 60006 81031 90900=
07240,1998-09-23 12:00:00,23,1016.8,-1.2,44,10,20000,18.52,,,110,,,,,,,,,,,wg-a,,,,AAXX 23124 07240 12/70 21110 10230 20100 30040 40168 58012 60006 80001 91200=
07240,1998-09-23 15:00:00,24,1015.6,-1.2,36,8,25000,18.52,,,140,,,,,,,,,,,wg-a,,,,AAXX 23154 07240 12/75 11410 10240 20080 30028 40156 56012 60006 80001 91500=
07240,1998-09-23 18:00:00,22,1015.5,-0.2,46,10,25000,14.816,,,210,10,24.8,,,,,,,,,wg-a,,,,AAXX 23184 07240 12775 52108 10220 20100 30026 40155 55002 60006 84531 91800 333 10248 20100=
07240,1998-09-23 21:00:00,17,1016.2,0.5,68,11,25000,3.704,,,220,,,,,,,,,,,wg-a,,,,AAXX 23214 07240 12775 62202 10170 20110 30031 40162 52005 60006 85530 92100=
07240,1998-09-24 00:00:00,14,1015.4,-0.9,88,12,25000,3.704,,,60,,,,,,,,,,,wg-a,,,,AAXX 24004 07240 12775 60602 10140 20120 30022 40154 58009 60006 84530 90000=
07240,1998-09-24 06:00:00,14,1014.7,-0,88,12,8000,11.112,,,150,13.1,21.4,,,,,,,,,wg-a,,,,AAXX 24064 07240 02758 71506 10140 20120 30015 40147 55000 60006 8553/ 90600 333 10214 20131 60004=
07240,1998-09-24 09:00:00,19,1014.6,0.1,68,13,20000,14.816,,,170,,,,,,,,,,,wg-a,,,,AAXX 24094 07240 12/70 31708 10190 20130 30016 40146 50001 60006 82071 90900=
07240,1998-09-24 15:00:00,21,1012.5,-1,64,14,20000,22.224,,,150,,,,,,,,,,,wg-a,,,,AAXX 24154 07240 12670 61512 10210 20140 39996 40125 58010 60006 84870 91500=
07240,1998-09-24 18:00:00,19,1011.9,-0.7,68,13,20000,18.52,,,130,13.6,21.8,,,,,,,,,wg-a,,,,AAXX 24184 07240 12670 /1310 10190 20130 39989 40119 55007 60006 86830 91800 333 10218 20136=
07240,1998-09-24 21:00:00,16,1012.3,0.3,82,13,15000,14.816,,,130,,,,,,,,,,,wg-a,,,,AAXX 24214 07240 12765 71308 10160 20130 39992 40123 51003 60006 875// 92100=
07240,1998-09-25 00:00:00,15,1011.7,-0.6,88,13,12000,14.816,,,120,,,,,,,,,,,wg-a,,,,AAXX 25004 07240 12/62 01208 10150 20130 39986 40117 58006 60006 80000 90000=
07240,1998-09-25 03:00:00,13,1010.7,-1.1,94,12,10000,7.408,,,110,,,,,,,,,,,wg-a,,,,AAXX 25034 07240 12/60 01104 10130 20120 39975 40107 56011 60006 80000 90300=
07240,1998-09-25 06:00:00,13,1009.7,-1,94,12,9000,14.816,,,100,11.7,18.8,,,,,,,,,wg-a,,,,AAXX 25064 07240 02759 71008 10130 20120 39965 40097 56010 60006 84571 90600 333 10188 20117 60004=
07240,1998-09-25 09:00:00,18,1009.5,-0,73,13,10000,14.816,,,140,,,,,,,,,,,wg-a,,,,AAXX 25094 07240 12/60 /1408 10180 20130 39965 40095 55000 60006 90900=
07240,1998-09-25 12:00:00,20,1007.9,-1.4,64,13,15000,22.224,,,190,,,,,,,,,,,wg-a,,,,AAXX 25124 07240 12665 71912 10200 20130 39951 40079 57014 60006 8617/ 91200=
07240,1998-09-25 15:00:00,20,1006.4,-1.5,73,15,20000,14.816,,,170,,,,,,,,,,,wg-a,,,,AAXX 25154 07240 12670 71708 10200 20150 39936 40064 56015 60006 8587/ 91500=
07240,1998-09-25 18:00:00,19,1005.6,-0.9,73,14,15000,11.112,,,120,12.6,21.3,,,,,,,,,wg-a,,,,AAXX 25184 07240 12665 71206 10190 20140 39927 40056 56009 60006 85802 91800 333 10213 20126=
07240,1998-09-25 21:00:00,17,1004.6,-1,88,15,15000,18.52,,,110,,,,1,,,,,,25,wg-a,,,,AAXX 25214 07240 12565 51110 10170 20150 39917 40046 56010 60017 72586 85800 92100=
07240,1998-09-26 00:00:00,16,1003.1,-1.6,94,15,15000,11.112,,,100,,,,,,,,,,3,wg-a,,,,AAXX 26004 07240 12/65 71006 10160 20150 39901 40031 58016 60016 70386 85022 90000=
07240,1998-09-26 03:00:00,16,1000.7,-2.3,88,14,15000,18.52,,,120,,,,,,,,,,,wg-a,,,,AAXX 26034 07240 12765 71210 10160 20140 39878 40007 58023 60006 8552/ 90300=
07240,1998-09-26 06:00:00,15,1000.3,-0.5,100,15,7000,11.112,,,120,15.1,18.5,,,,,8,,,,wg-a,,,,AAXX 26064 07240 02/57 /1206 10150 20150 39873 40003 56005 60006 90600 333 10185 20151 60084=
07240,1998-09-26 09:00:00,16,1000.4,0.2,94,15,12000,11.112,,,140,,,,4,,,,,,21,wg-a,,,,AAXX 26094 07240 12362 81406 10160 20150 39875 40004 51002 60047 72162 8657/ 90900=
07240,1998-09-26 12:00:00,19,1000,-0.3,78,15,11000,14.816,,,200,,,,,,,,,,,wg-a,,,,AAXX 26124 07240 12/61 /2008 10190 20150 39872 40000 56003 60046 91200=
07240,1998-09-26 15:00:00,21,998.4,-1.5,53,11,25000,14.816,,,160,,,,,,,,,,,wg-a,,,,AAXX 26154 07240 12575 41608 10210 20110 39857 49984 58015 60006 84802 91500=
07240,1998-09-26 18:00:00,18,998.5,-0,64,11,25000,14.816,,,180,15.1,21.3,,,,,,,,1,wg-a,,,,AAXX 26184 07240 02675 51808 10180 20110 39857 49985 55000 60006 70186 85800 91800 333 10213 20151 61000=
07240,1998-09-26 21:00:00,14,998.4,-0.3,82,11,20000,14.816,,,140,,,,,,,,,,,wg-a,,,,AAXX 26214 07240 12770 61408 10140 20110 39854 49984 58003 60006 825/1 92100=
07240,1998-09-27 00:00:00,14,996.8,-1.6,88,12,12000,29.632,,48.152,150,,,,0,,,,,,61,wg-a,,,,AAXX 27004 07240 02462 81516 10140 20120 39838 49968 58016 60016 76161 877// 90000 333 60007 91026=
07240,1998-09-27 03:00:00,14,993,-3.7,94,13,1000,29.632,,,140,,,,1,,,,,,61,wg-a,,,,AAXX 27034 07240 12410 81416 10140 20130 39801 49930 58037 60017 76166 877// 90300=
07240,1998-09-27 06:00:00,15,991.1,-1.9,94,14,8000,31.484,,48.152,210,13.5,18.3,,,,,,,,21,wg-a,,,,AAXX 27064 07240 02358 82117 10150 20140 39782 49911 55019 61000 72162 877// 90600 333 10183 20135 6007 91026=
07240,1998-09-27 09:00:00,13,995.5,4.3,100,13,6000,38.892,,61.116,240,,,,4,,,,,,61,wg-a,,,,AAXX 27094 07240 12356 82421 10130 20130 39825 49955 53043 60047 76162 877// 90900 333 91033=
07240,1998-09-27 12:00:00,14,999.8,4.3,94,13,6000,31.484,,,270,,,,9,,,,,,61,wg-a,,,,AAXX 27124 07240 02356 82717 10140 20130 39868 49998 51043 60136 76162 877// 91200 333 60097=
07240,1998-09-27 15:00:00,16,1002.8,3,94,15,10000,25.928,,,250,,,,2,,,,,,60,wg-a,,,,AAXX 27154 07240 12460 82514 10160 20150 39898 40028 51030 60027 76062 845// 91500=
07240,1998-09-27 18:00:00,15,1003.6,0.8,100,15,6000,11.112,,,160,13.2,15.8,,,,,,,,80,wg-a,,,,AAXX 27184 07240 02556 71606 10150 20150 39906 40036 50008 61000 78096 8497/ 91800 333 10158 20132 6002=
07240,1998-09-27 21:00:00,14,1005.9,2.2,94,13,10000,14.816,,,250,,,,,,,,,,3,wg-a,,,,AAXX 27214 07240 02760 72508 10140 20130 39928 40059 51022 61000 70396 8553/ 92100 333 ////=
07240,1998-09-28 00:00:00,14,1005.6,-0.3,94,13,9000,18.52,,,240,,,,,,,,,,,wg-a,,,,AAXX 28004 07240 02/59 /2410 10140 20130 39925 40056 58003 61000 90000 333 ////=
07240,1998-09-28 03:00:00,14,1005.4,-0.2,94,13,7000,14.816,,,250,,,,,,,,,,,wg-a,,,,AAXX 28034 07240 12457 82508 10140 20130 39923 40054 55002 60006 886// 90300=
07240,1998-09-28 09:00:00,15,1007.6,1.4,94,14,500,18.52,,,270,,,,,,,,,,,wg-a,,,,AAXX 28094 07240 12300 82710 10150 20140 39945 40076 51014 60006 875// 90900=
07240,1998-09-28 12:00:00,15,1008.4,0.8,94,14,500,14.816,,,280,,,,1,,,,,,60,wg-a,,,,AAXX 28124 07240 02300 82808 10150 20140 39953 40084 51008 60016 76062 876// 91200 333 60017=
07240,1998-09-28 15:00:00,17,1008,-0.3,88,15,10000,18.52,,,270,,,,,,,,,,1,wg-a,,,,AAXX 28154 07240 02460 72710 10170 20150 39950 40080 57003 61000 70162 8527/ 91500 333 ////=
07240,1998-09-28 18:00:00,16,1008.9,0.9,94,15,8000,7.408,,,250,14.2,17.7,,,,,,,,1,wg-a,,,,AAXX 28184 07240 12758 72504 10160 20150 39959 40089 53009 60006 70162 8557/ 91800 333 10177 20142=
07240,1998-09-28 21:00:00,15,1010.5,1.5,88,13,10000,7.408,,,270,,,,,,,,,,,wg-a,,,,AAXX 28214 07240 12/60 62704 10150 20130 39974 40105 52015 60006 86030 92100=
07240,1998-09-29 00:00:00,14,1010.7,0.1,94,13,10000,7.408,,,230,,,,,,,,,,,wg-a,,,,AAXX 29004 07240 12/60 62304 10140 20130 39975 40107 51001 60006 86030 90000=
07240,1998-09-29 03:00:00,13,1010,-0.7,100,13,100,7.408,,,230,,,,,,,,,,45,wg-a,,,,AAXX 29034 07240 12/01 92304 10130 20130 39968 40100 58007 60006 74542 89/// 90300=
07240,1998-09-29 06:00:00,13,1009.5,-0.5,100,13,100,7.408,,,210,12.8,16,,,,,1,,,45,wg-a,,,,AAXX 29064 07240 02/01 92104 10130 20130 39963 40095 57005 60006 74542 89/// 90600 333 10160 20128 60014=
07240,1998-09-29 09:00:00,13,1008.8,-0.7,100,13,3500,11.112,,,190,,,,0,,,,,,10,wg-a,,,,AAXX 29094 07240 12235 81906 10130 20130 39956 40088 57007 60007 71054 877// 90900=
07240,1998-09-29 12:00:00,15,1006.5,-2.1,88,13,12000,11.112,,,170,,,,,,,,,,1,wg-a,,,,AAXX 29124 07240 12462 81706 10150 20130 39935 40065 58021 60006 70154 8512/ 91200=
07240,1998-09-29 15:00:00,17,1003.8,-2.7,77,13,15000,14.816,,,130,,,,,,,,,,,wg-a,,,,AAXX 29154 07240 12465 81308 10170 20130 39908 40038 58027 60006 8582/ 91500=
07240,1998-09-29 18:00:00,15,1002.2,-1.6,88,13,15000,11.112,,,120,12.8,16.7,,,,,,,,,wg-a,,,,AAXX 29184 07240 12565 81206 10150 20130 39892 40022 56016 60006 8457/ 91800 333 10167 20128=
07240,1998-09-29 21:00:00,14,999.6,-2.6,100,14,4000,22.224,,,120,,,,6,,,,,,61,wg-a,,,,AAXX 29214 07240 12240 81212 10140 20140 39866 49996 58026 60067 76162 875// 92100=
07240,1998-09-30 00:00:00,15,999.4,-0.1,100,15,10000,25.928,,,240,,,,4,,,,,,21,wg-a,,,,AAXX 30004 07240 02360 82414 10150 20150 39865 49994 55001 60096 72162 875// 90000 333 60047=
07240,1998-09-30 06:00:00,13,1001.6,1.1,88,11,12000,22.224,,,220,12.8,15.5,,,,,10,,,,wg-a,,,,AAXX 30064 07240 02762 32212 10130 20110 39885 40016 51011 60006 815/1 90600 333 10155 20128 60104=
07240,1998-09-30 09:00:00,16,1001.9,0.4,82,13,15000,22.224,,,210,,,,,,,,,,,wg-a,,,,AAXX 30094 07240 12465 42112 10160 20130 39889 40019 50004 60006 84100 90900=
07240,1998-09-30 12:00:00,18,1001.2,-0.6,59,10,25000,31.484,,50.004,210,,,,,,,,,,,wg-a,,,,AAXX 30124 07240 12675 /2117 10180 20100 39883 40012 58006 60006 85200 91200 333 91027=
07240,1998-09-30 15:00:00,18,1000.7,-0.5,59,10,25000,38.892,,57.412,210,,,,,,,,,,,wg-a,,,,AAXX 30154 07240 12675 /2121 10180 20100 39878 40007 55005 60006 85202 91500 333 91031=
07240,1998-09-30 18:00:00,15,1001.7,0.9,77,11,25000,25.928,,,210,12.9,18.9,,,,,,,,,wg-a,,,,AAXX 30184 07240 12675 72114 10150 20110 39887 40017 53009 60006 878// 91800 333 10189 20129=
07240,1998-09-30 21:00:00,14,1002.2,0.4,77,10,15000,25.928,,,200,,,,,,,,,,,wg-a,,,,AAXX 30214 07240 12765 42014 10140 20100 39891 40022 52004 60006 84500 92100=
07240,1998-10-01 00:00:00,13,1001.8,-0.4,88,11,15000,25.928,,,190,,,,0,,,,,,61,wg-a,,,,AAXX 01004 07240 02365 81914 10130 20110 39887 40018 58004 60006 76161 875// 90000 333 60007=
07240,1998-10-01 03:00:00,12,1001.1,-0.7,88,10,15000,22.224,,,180,,,,1,,,,,,2,wg-a,,,,AAXX 01034 07240 12765 71812 10120 20100 39880 40011 58007 60017 70262 875// 90300=
07240,1998-10-01 06:00:00,12,1001,-0.1,88,10,12000,25.928,,,170,11.8,14.7,,,,,1,,,3,wg-a,,,,AAXX 01064 07240 02462 71714 10120 20100 39879 40010 55001 60006 70362 875// 90600 333 10147 20118 60014=
07240,1998-10-01 09:00:00,13,1001.2,0.2,88,11,12000,22.224,,,170,,,,0,,,,,,60,wg-a,,,,AAXX 01094 07240 12462 71712 10130 20110 39881 40012 52002 60007 76062 875// 90900=
07240,1998-10-01 12:00:00,15,1001,-0.1,77,11,15000,22.224,,,170,,,,0,,,,,,1,wg-a,,,,AAXX 01124 07240 02465 71712 10150 20110 39880 40010 58001 60016 70162 875// 91200 333 60007=
07240,1998-10-01 18:00:00,13,1001,0.3,94,12,12000,18.52,,,130,11.9,14.5,,0,,,,,,1,wg-a,,,,AAXX 01184 07240 02462 71310 10130 20120 39879 40010 53003 60006 70162 85572 91800 333 10145 20119 60007=
07240,1998-10-01 21:00:00,12,1001.2,0.2,94,11,500,14.816,,,100,,,,,,,,,,,wg-a,,,,AAXX 01214 07240 12400 71008 10120 20110 39881 40012 53002 60006 87800 92100=
07240,1998-10-02 00:00:00,12,1001.4,0.2,94,11,10000,14.816,,,80,,,,,,,,,,,wg-a,,,,AAXX 02004 07240 12460 70808 10120 20110 39883 40014 51002 60006 875// 90000=
07240,1998-10-02 03:00:00,12,1001.8,0.4,94,11,10000,14.816,,,60,,,,,,,,,,,wg-a,,,,AAXX 02034 07240 12260 70608 10120 20110 39887 40018 51004 60006 875// 90300=
07240,1998-10-02 09:00:00,14,1005.3,1.8,88,12,15000,22.224,,,50,,,,,,,,,,,wg-a,,,,AAXX 02094 07240 12465 /0512 10140 20120 39922 40053 51018 60006 86500 90900=
07240,1998-10-02 12:00:00,16,1006.6,1.4,77,12,18000,18.52,,,30,,,,,,,,,,,wg-a,,,,AAXX 02124 07240 12568 70310 10160 20120 39936 40066 51014 60006 878// 91200=
07240,1998-10-02 15:00:00,17,1007.6,1,68,11,18000,25.928,,,20,,,,0,,,,,,1,wg-a,,,,AAXX 02154 07240 12568 50214 10170 20110 39946 40076 52010 60007 70186 83830 91500=
07240,1998-10-02 18:00:00,14,1010.2,2.4,77,10,12000,14.816,,,10,11.9,16.7,,,,,,,,3,wg-a,,,,AAXX 02184 07240 12562 70108 10140 20100 39970 40102 53024 60006 70386 875// 91800 333 10167 20119=
07240,1998-10-02 21:00:00,11,1012.4,2.1,87,9,12000,11.112,,,10,,,,,,,,,,,wg-a,,,,AAXX 02214 07240 12/62 00106 10110 20090 39991 40124 51021 60006 80000 92100=
07240,1998-10-03 00:00:00,9,1013.1,0.6,100,9,6000,7.408,,,280,,,,,,,,,,,wg-a,,,,AAXX 03004 07240 12456 82804 10090 20090 39997 40131 53006 60006 875// 90000=
07240,1998-10-03 03:00:00,8,1013.4,0.2,93,7,3000,7.408,,,290,,,,,,,,,,10,wg-a,,,,AAXX 03034 07240 12430 42904 10080 20070 39999 40134 50002 60006 71011 84500 90300=
07240,1998-10-03 06:00:00,10,1013.8,0.5,93,9,3000,7.408,,,260,7.6,14.3,,,,,,,,10,wg-a,,,,AAXX 03064 07240 02430 72604 10100 20090 30004 40138 53005 60006 71011 875// 90600 333 10143 20076 60004=
07240,1998-10-03 09:00:00,11,1013.9,0.1,94,10,1500,7.408,,,280,,,,1,,,,,,10,wg-a,,,,AAXX 03094 07240 12215 82804 10110 20100 30005 40139 53001 60017 71065 875// 90900=
07240,1998-10-03 12:00:00,8,1013.9,-0.1,100,8,2500,18.52,,,80,,,,2,,,,,,10,wg-a,,,,AAXX 03124 07240 02225 80810 10080 20080 30004 40139 57001 60036 71065 877// 91200 333 60027=
07240,1998-10-03 15:00:00,9,1012.6,-1.2,93,8,10000,3.704,,,130,,,,1,,,,,,20,wg-a,,,,AAXX 03154 07240 12560 81302 10090 20080 39992 40126 57012 60017 72052 8457/ 91500=
07240,1998-10-03 18:00:00,9,1011.7,-0.9,93,8,10000,3.704,,,100,7.9,10.7,,,,,,,,2,wg-a,,,,AAXX 03184 07240 12760 71002 10090 20080 39983 40117 56009 60006 70252 875// 91800 333 10107 20079=
07240,1998-10-03 21:00:00,9,1011.5,-0.2,93,8,8000,3.704,,,130,,,,,,,,,,,wg-a,,,,AAXX 03214 07240 12558 71302 10090 20080 39981 40115 58002 60006 875// 92100=
07240,1998-10-04 00:00:00,8,1009.7,-1.8,93,7,6000,7.408,,,110,,,,,,,,,,,wg-a,,,,AAXX 04004 07240 12256 81104 10080 20070 39963 40097 58018 60006 875// 90000=
07240,1998-10-04 03:00:00,8,1007.8,-1.9,93,7,4000,7.408,,,100,,,,,,,,,,,wg-a,,,,AAXX 04034 07240 12/40 /1004 10080 20070 39944 40078 58019 60006 90300=
07240,1998-10-04 06:00:00,8,1006.3,-1.5,93,7,4000,3.704,,,110,7.8,8.9,,,,,4,,,10,wg-a,,,,AAXX 04064 07240 02240 81102 10080 20070 39929 40063 56015 60006 71022 886// 90600 333 10089 20078 60044=
07240,1998-10-04 09:00:00,9,1005.9,-0.3,93,8,4500,3.704,,,20,,,,,,,,,,10,wg-a,,,,AAXX 04094 07240 12345 80202 10090 20080 39926 40059 57003 60006 71022 876// 90900=
07240,1998-10-04 12:00:00,11,1005.3,-0.6,82,8,15000,0,,,0,,,,,,,,,,,wg-a,,,,AAXX 04124 07240 12465 80000 10110 20080 39920 40053 58006 60006 8617/ 91200=
07240,1998-10-04 15:00:00,13,1004.4,-0.7,58,5,25000,3.704,,,320,,,,,,,,,,,wg-a,,,,AAXX 04154 07240 12575 73202 10130 20050 39913 40044 56007 60006 81131 91500=
07240,1998-10-04 18:00:00,10,1004.7,0.1,82,7,15000,3.704,,,330,8.1,13.4,,,,,,,,,wg-a,,,,AAXX 04184 07240 12/65 73302 10100 20070 39914 40047 53001 60006 84032 91800 333 10134 20081=
07240,1998-10-04 21:00:00,9,1005.5,0.8,93,8,10000,0,,,0,,,,,,,,,,,wg-a,,,,AAXX 04214 07240 12/60 70000 10090 20080 39922 40055 51008 60006 85072 92100=
07240,1998-10-05 00:00:00,8,1005.5,-0.1,93,7,10000,3.704,,,110,,,,,,,,,,,wg-a,,,,AAXX 05004 07240 12/60 71102 10080 20070 39921 40055 58001 60006 85072 90000=
07240,1998-10-05 03:00:00,9,1005.2,-0.3,93,8,10000,0,,,0,,,,0,,,,,,1,wg-a,,,,AAXX 05034 07240 12760 70000 10090 20080 39918 40052 58003 60007 70162 875// 90300=
07240,1998-10-05 06:00:00,8,1006,0.8,100,8,9000,0,,,0,7.4,10.3,,,,,,,,1,wg-a,,,,AAXX 05064 07240 02559 70000 10080 20080 39926 40060 53008 60006 70162 875// 90600 333 10103 20074 60004=
07240,1998-10-05 09:00:00,12,1007,1.2,76,8,10000,7.408,,,90,,,,,,,,,,,wg-a,,,,AAXX 05094 07240 12660 60904 10120 20080 39938 40070 51012 60006 82532 90900=
07240,1998-10-05 12:00:00,13,1007.2,0.2,72,8,15000,7.408,,,70,,,,,,,,,,,wg-a,,,,AAXX 05124 07240 12665 70704 10130 20080 39940 40072 50002 60006 8523/ 91200=
07240,1998-10-05 15:00:00,13,1007.2,-0,77,9,15000,11.112,,,60,,,,,,,,,,,wg-a,,,,AAXX 05154 07240 12565 70606 10130 20090 39940 40072 55000 60006 8387/ 91500=
07240,1998-10-05 18:00:00,11,1008.4,1.1,82,8,10000,11.112,,,50,7.9,14.5,,,,,,,,,wg-a,,,,AAXX 05184 07240 12760 40506 10110 20080 39951 40084 53011 60006 82502 91800 333 10145 20079=
07240,1998-10-05 21:00:00,10,1009.2,0.8,87,8,10000,18.52,,,50,,,,,,,,,,,wg-a,,,,AAXX 05214 07240 12/60 50510 10100 20080 39959 40092 51008 60006 85030 92100=
07240,1998-10-06 00:00:00,9,1009.6,0.3,93,8,6000,14.816,,,40,,,,,,,,,,,wg-a,,,,AAXX 06004 07240 12/56 00408 10090 20080 39962 40096 53003 60006 80000 90000=
07240,1998-10-06 03:00:00,8,1009.5,-0.2,87,6,6000,11.112,,,50,,,,,,,,,,,wg-a,,,,AAXX 06034 07240 12/56 00506 10080 20060 39960 40095 58002 60006 80000 90300=
07240,1998-10-06 06:00:00,7,1009.6,0.1,93,6,6000,14.816,,,20,7.2,10.9,,,,,,,,,wg-a,,,,AAXX 06064 07240 02/56 30208 10070 20060 39961 40096 52001 60006 82031 90600 333 10109 20072 60004=
07240,1998-10-06 09:00:00,11,1011.2,1.8,82,8,10000,11.112,,,40,,,,,,,,,,,wg-a,,,,AAXX 06094 07240 12460 40406 10110 20080 39979 40112 53018 60006 81150 90900=
07240,1998-10-06 12:00:00,13,1011.3,0.2,77,9,12000,18.52,,,50,,,,,,,,,,,wg-a,,,,AAXX 06124 07240 12462 70510 10130 20090 39981 40113 53002 60006 8553/ 91200=
07240,1998-10-06 15:00:00,13,1012.1,0.8,77,9,12000,18.52,,,20,,,,,,,,,,,wg-a,,,,AAXX 06154 07240 12462 80210 10130 20090 39989 40121 53008 60006 878// 91500=
07240,1998-10-06 18:00:00,11,1014.1,1.9,87,9,10000,11.112,,,20,6.9,13.8,,,,,,,,,wg-a,,,,AAXX 06184 07240 12460 80206 10110 20090 30008 40141 53019 60006 878// 91800 333 10138 20069=
07240,1998-10-06 21:00:00,10,1014.9,0.7,87,8,6000,0,,,0,,,,,,,,,,50,wg-a,,,,AAXX 06214 07240 02356 80000 10100 20080 30015 40149 51007 61000 75052 8/51/ 92100 333 ////=
07240,1998-10-07 00:00:00,10,1015.5,0.6,93,9,6000,3.704,,,320,,,,,,,,,,1,wg-a,,,,AAXX 07004 07240 02456 83202 10100 20090 30021 40155 53006 61000 70152 876// 90000 333 6100=
07240,1998-10-07 03:00:00,10,1015.9,0.4,93,9,4000,3.704,,,280,,,,,,,,,,10,wg-a,,,,AAXX 07034 07240 12440 82802 10100 20090 30025 40159 53004 60006 71022 886// 90300=
07240,1998-10-07 06:00:00,9,1017.1,1.1,93,8,3500,7.408,,,40,9.1,11.3,,,,,,,,10,wg-a,,,,AAXX 07064 07240 02235 80404 10090 20080 30036 40171 53011 61000 71062 885// 90600 333 10113 20091 6000=
07240,1998-10-07 09:00:00,10,1018.6,1.5,87,8,8000,11.112,,,340,,,,,,,,,,1,wg-a,,,,AAXX 07094 07240 02658 /3406 10100 20080 30051 40186 51015 61000 70162 85502 90900 333 ////=
07240,1998-10-07 12:00:00,11,1018.7,0.2,76,7,9000,14.816,,,330,,,,,,,,,,3,wg-a,,,,AAXX 07124 07240 02459 73308 10110 20070 30053 40187 50002 61000 70362 8557/ 91200 333 ////=
07240,1998-10-07 15:00:00,12,1019.4,0.7,82,9,8000,11.112,,,300,,,,,,,,,,,wg-a,,,,AAXX 07154 07240 12558 73006 10120 20090 30060 40194 53007 60006 8557/ 91500=
07240,1998-10-07 18:00:00,11,1020.4,0.9,87,9,4500,11.112,,,320,8.8,12.1,,,,,,,,10,wg-a,,,,AAXX 07184 07240 12445 83206 10110 20090 30069 40204 53009 60006 71022 8557/ 91800 333 10121 20088=
07240,1998-10-07 21:00:00,10,1021.1,0.7,93,9,6000,11.112,,,300,,,,,,,,,,,wg-a,,,,AAXX 07214 07240 12756 83006 10100 20090 30076 40211 51007 60006 8657/ 92100=
07240,1998-10-08 00:00:00,10,1020.8,-0.3,93,9,7000,14.816,,,320,,,,,,,,,,,wg-a,,,,AAXX 08004 07240 12757 73208 10100 20090 30073 40208 57003 60006 875// 90000=
07240,1998-10-08 03:00:00,10,1019.9,-0.9,93,9,7000,18.52,,,320,,,,,,,,,,,wg-a,,,,AAXX 08034 07240 12657 83210 10100 20090 30064 40199 58009 60006 875// 90300=
07240,1998-10-08 06:00:00,10,1020,0.1,93,9,6000,18.52,,,310,9.7,10.4,,,,,,,,20,wg-a,,,,AAXX 08064 07240 02356 83110 10100 20090 30065 40200 51001 61000 72052 876// 90600 333 10104 20097 6000=
07240,1998-10-08 09:00:00,11,1020.9,1,94,10,15000,22.224,,,330,,,,,,,,,,,wg-a,,,,AAXX 08094 07240 12365 83312 10110 20100 30075 40209 51010 60006 875// 90900=
07240,1998-10-08 12:00:00,12,1021.1,0.2,94,11,10000,18.52,,,330,,,,1,,,,,,60,wg-a,,,,AAXX 08124 07240 02360 83310 10120 20110 30077 40211 50002 60016 76062 875// 91200 333 60017=
07240,1998-10-08 15:00:00,12,1020.3,-0.8,88,10,10000,22.224,,,330,,,,2,,,,,,61,wg-a,,,,AAXX 08154 07240 12260 83312 10120 20100 30069 40203 58008 60027 76166 875// 91500=
07240,1998-10-08 18:00:00,11,1020.2,-0.2,94,10,8000,22.224,,,310,9.9,11.9,,,,,,,,61,wg-a,,,,AAXX 08184 07240 02458 83112 10110 20100 30067 40202 57002 61000 76166 875// 91800 333 10119 20099 6003=
07240,1998-10-09 06:00:00,10,1021.3,1.4,93,9,8000,14.816,,,60,8.9,10.7,,,,,,,,50,wg-a,,,,AAXX 09064 07240 02258 80608 10100 20090 30078 40213 51014 61000 75065 877// 90600 333 10107 20089 6010=
07240,1998-10-09 09:00:00,10,1022.6,1.3,93,9,6000,14.816,,,40,,,,,,,,,,3,wg-a,,,,AAXX 09094 07240 02256 80408 10100 20090 30091 40226 51013 61000 70352 876// 90900 333 ////=
07240,1998-10-09 12:00:00,11,1022.2,-0.4,94,10,6000,7.408,,,30,,,,,,,,,,1,wg-a,,,,AAXX 09124 07240 02256 80304 10110 20100 30087 40222 58004 61000 70152 875// 91200 333 ////=
07240,1998-10-09 15:00:00,11,1020.7,-1.4,94,10,12000,7.408,,,310,,,,,,,,,,,wg-a,,,,AAXX 09154 07240 12362 83104 10110 20100 30073 40207 56014 60006 875// 91500=
07240,1998-10-09 18:00:00,11,1020.4,-0.4,94,10,10000,7.408,,,270,9.7,11.4,,,,,,,,,wg-a,,,,AAXX 09184 07240 12360 82704 10110 20100 30069 40204 55004 60006 875// 91800 333 10114 20097=
07240,1998-10-09 21:00:00,10,1020.2,-0.2,100,10,10000,7.408,,,220,,,,,,,,,,,wg-a,,,,AAXX 09214 07240 12660 82204 10100 20100 30067 40202 58002 60006 875// 92100=
07240,1998-10-10 00:00:00,10,1018.3,-1.9,93,9,7000,14.816,,,220,,,,,,,,,,,wg-a,,,,AAXX 10004 07240 12257 82208 10100 20090 30048 40183 56019 60006 875// 90000=
07240,1998-10-10 03:00:00,10,1016.5,-1.7,93,9,6000,18.52,,,220,,,,,,,,,,,wg-a,,,,AAXX 10034 07240 12356 82210 10100 20090 30031 40165 56017 60006 875// 90300=
07240,1998-10-10 06:00:00,10,1015,-1.5,100,10,4500,18.52,,,200,10,10.5,,,,,,,,58,wg-a,,,,AAXX 10064 07240 02245 82010 10100 20100 30016 40150 58015 61000 75865 876// 90600 333 10105 20100 6001=
07240,1998-10-10 09:00:00,11,1014.6,-0.3,100,11,3000,22.224,,,210,,,,3,,,,,,58,wg-a,,,,AAXX 10094 07240 12230 82112 10110 20110 30013 40146 56003 60037 75866 886// 90900=
07240,1998-10-10 12:00:00,14,1013.9,-0.6,94,13,7000,18.52,,,210,,,,1,,,,,,20,wg-a,,,,AAXX 10124 07240 02257 82110 10140 20130 30007 40139 58006 60046 72065 876// 91200 333 60017=
07240,1998-10-10 15:00:00,14,1014.6,0.7,94,13,15000,11.112,,,260,,,,,,,,,,,wg-a,,,,AAXX 10154 07240 12365 72606 10140 20130 30014 40146 53007 60006 878// 91500=
07240,1998-10-10 18:00:00,13,1016.6,1.9,88,11,15000,11.112,,,300,10.1,15.2,,,,,,,,,wg-a,,,,AAXX 10184 07240 12765 73006 10130 20110 30033 40166 53019 60006 875// 91800 333 10152 20101=
07240,1998-10-10 21:00:00,11,1018.7,2,94,10,15000,7.408,,,280,,,,0,,,,,,1,wg-a,,,,AAXX 10214 07240 12765 52804 10110 20100 30053 40187 51020 60007 70186 85500 92100=
07240,1998-10-11 00:00:00,9,1019.1,0.3,100,9,15000,11.112,,,250,,,,,,,,,,1,wg-a,,,,AAXX 11004 07240 12/65 02506 10090 20090 30056 40191 51003 60006 70186 80000 90000=
07240,1998-10-11 03:00:00,9,1019.4,0.3,100,9,6000,14.816,,,240,,,,,,,,,,,wg-a,,,,AAXX 11034 07240 12156 22408 10090 20090 30059 40194 51003 60006 82700 90300=
07240,1998-10-11 06:00:00,9,1019.4,-0,93,8,500,18.52,,,240,8.2,13,,,,,5,,,3,wg-a,,,,AAXX 11064 07240 02100 72410 10090 20080 30059 40194 55000 60006 70341 876// 90600 333 10130 20082 60054=
07240,1998-10-11 09:00:00,11,1019.2,-0.1,94,10,10000,22.224,,,220,,,,,,,,,,,wg-a,,,,AAXX 11094 07240 12560 72212 10110 20100 30058 40192 58001 60006 8557/ 90900=
07240,1998-10-11 12:00:00,12,1017.3,-1.8,100,12,2500,22.224,,,220,,,,,,,,,,,wg-a,,,,AAXX 11124 07240 12/25 /2212 10120 20120 30040 40173 58018 60016 91200=
07240,1998-10-11 15:00:00,15,1015.4,-1.8,94,14,2500,22.224,,,240,,,,4,,,,,,51,wg-a,,,,AAXX 11154 07240 12225 82412 10150 20140 30022 40154 56018 60047 75166 877// 91500=
07240,1998-10-11 18:00:00,15,1015.1,-0.3,100,15,4000,18.52,,,260,8.5,15.2,,,,,,,,20,wg-a,,,,AAXX 11184 07240 02240 82610 10150 20150 30019 40151 55003 61000 72065 877// 91800 333 10152 20085 6001=
07240,1998-10-11 21:00:00,13,1016.4,1.2,94,12,10000,14.816,,,300,,,,,,,,,,,wg-a,,,,AAXX 11214 07240 12460 63008 10130 20120 30031 40164 53012 60006 86500 92100=
07240,1998-10-12 00:00:00,11,1016.9,0.4,94,10,15000,11.112,,,270,,,,,,,,,,,wg-a,,,,AAXX 12004 07240 12465 72706 10110 20100 30035 40169 52004 60006 87500 90000=
07240,1998-10-12 06:00:00,10,1018,0.9,93,9,10000,14.816,,,270,9.2,15.3,,,,,7,,,,wg-a,,,,AAXX 12064 07240 02660 /2708 10100 20090 30045 40180 51009 60006 86500 90600 333 10153 20092 60074=
07240,1998-10-12 09:00:00,12,1019.6,1.7,88,10,15000,18.52,,,270,,,,,,,,,,,wg-a,,,,AAXX 12094 07240 12765 /2710 10120 20100 30062 40196 51017 60006 86500 90900=
07240,1998-10-12 12:00:00,14,1020.6,1.1,77,10,20000,18.52,,,290,,,,,,,,,,,wg-a,,,,AAXX 12124 07240 12470 72910 10140 20100 30073 40206 51011 60006 878// 91200=
07240,1998-10-12 15:00:00,15,1020.7,0.2,72,10,25000,14.816,,,290,,,,,,,,,,,wg-a,,,,AAXX 12154 07240 12575 42908 10150 20100 30075 40207 53002 60006 83802 91500=
07240,1998-10-12 18:00:00,11,1022.3,1.3,87,9,25000,11.112,,,280,9.5,15.8,,,,,,,,,wg-a,,,,AAXX 12184 07240 12/75 32806 10110 20090 30088 40223 52013 60006 80002 91800 333 10158 20095=
07240,1998-10-12 21:00:00,8,1024.4,1.9,87,6,25000,3.704,,,350,,,,,,,,,,,wg-a,,,,AAXX 12214 07240 12/75 03502 10080 20060 30107 40244 51019 60006 80000 92100=
07240,1998-10-13 00:00:00,5,1024.5,0,100,5,0,3.704,,,250,,,,,,,,,,,wg-a,,,,AAXX 13004 07240 12/// /2502 10050 20050 30107 40245 50000 60006 90000=
07240,1998-10-13 03:00:00,8,1024.2,-0.2,100,8,12000,7.408,,,280,,,,,,,,,,,wg-a,,,,AAXX 13034 07240 12662 72804 10080 20080 30105 40242 58002 60006 875// 90300=
07240,1998-10-13 06:00:00,9,1024.1,0,93,8,10000,3.704,,,190,5.1,11.1,,,,,,,,,wg-a,,,,AAXX 13064 07240 02660 71902 10090 20080 30105 40241 50000 60006 875// 90600 333 10111 20051 60004=
07240,1998-10-13 09:00:00,12,1024.9,0.9,88,10,15000,14.816,,,210,,,,,,,,,,,wg-a,,,,AAXX 13094 07240 12665 /2108 10120 20100 30114 40249 51009 60006 86501 90900=
07240,1998-10-13 12:00:00,15,1024.2,-0.5,72,10,20000,25.928,,,240,,,,,,,,,,,wg-a,,,,AAXX 13124 07240 12570 72414 10150 20100 30109 40242 58005 60006 8587/ 91200=
07240,1998-10-13 15:00:00,15,1023.4,-0.8,77,11,11000,25.928,,,250,,,,,,,,,,,wg-a,,,,AAXX 13154 07240 12/61 /2514 10150 20110 30101 40234 56008 60006 91500=
07240,1998-10-13 18:00:00,15,1023.1,-0.3,77,11,15000,14.816,,,230,8.6,15.8,,,,,,,,,wg-a,,,,AAXX 13184 07240 12565 82308 10150 20110 30098 40231 55003 60006 8657/ 91800 333 10158 20086=
07240,1998-10-13 21:00:00,13,1023.4,0.2,94,12,10000,18.52,,,230,,,,3,,,,,,61,wg-a,,,,AAXX 13214 07240 12260 82310 10130 20120 30100 40234 51002 60037 76162 8757/ 92100=
07240,1998-10-14 00:00:00,14,1023.2,-0.1,94,13,8000,18.52,,,230,,,,0,,,,,,21,wg-a,,,,AAXX 14004 07240 02158 82310 10140 20130 30099 40232 58001 60036 72162 877// 90000 333 60007=
07240,1998-10-14 03:00:00,14,1022.7,-0.5,100,14,8000,18.52,,,250,,,,,,,,,,,wg-a,,,,AAXX 14034 07240 12158 82510 10140 20140 30094 40227 58005 60006 877// 90300=
07240,1998-10-14 06:00:00,14,1023.1,0.4,100,14,8000,14.816,,,230,12.8,14.7,,,,,,,,50,wg-a,,,,AAXX 14064 07240 02258 72308 10140 20140 30098 40231 52004 61000 75052 877// 90600 333 10147 20128 6003=
07240,1998-10-14 09:00:00,15,1024.4,1.3,94,14,15000,18.52,,,250,,,,0,,,,,,1,wg-a,,,,AAXX 14094 07240 12365 72510 10150 20140 30111 40244 51013 60007 70152 875// 90900=
07240,1998-10-14 12:00:00,17,1024,-0.3,68,11,20000,22.224,,,230,,,,,,,,,,1,wg-a,,,,AAXX 14124 07240 12470 72312 10170 20110 30108 40240 58003 60006 70152 878// 91200=
07240,1998-10-14 15:00:00,18,1023.7,-0.3,68,12,11000,25.928,,,240,,,,,,,,,,,wg-a,,,,AAXX 14154 07240 12/61 /2414 10180 20120 30105 40237 56003 60006 91500=
07240,1998-10-14 18:00:00,15,1025.1,1.3,94,14,25000,14.816,,,230,14,18.2,,,,,,,,3,wg-a,,,,AAXX 14184 07240 02475 82308 10150 20140 30118 40251 52013 60006 70352 875// 91800 333 10182 20140 61000=
07240,1998-10-14 21:00:00,15,1025.3,0.2,94,14,25000,18.52,,,230,,,,,,,,,,,wg-a,,,,AAXX 14214 07240 12575 82310 10150 20140 30120 40253 52002 60006 875// 92100=
07240,1998-10-15 00:00:00,14,1025.3,0,100,14,25000,11.112,,,220,,,,,,,,,,,wg-a,,,,AAXX 15004 07240 12375 82206 10140 20140 30120 40253 50000 60006 875// 90000=
07240,1998-10-15 03:00:00,14,1024.3,-1,94,13,6000,11.112,,,220,,,,,,,,,,60,wg-a,,,,AAXX 15034 07240 02256 82206 10140 20130 30110 40243 58010 61000 76062 877// 90300 333 ////=
07240,1998-10-15 06:00:00,14,1024.1,-0.2,100,14,2000,14.816,,,220,13.6,15.2,,,,,,,,61,wg-a,,,,AAXX 15064 07240 02220 82208 10140 20140 30108 40241 56002 61000 76162 887// 90600 333 10152 20136 6005=
07240,1998-10-15 09:00:00,14,1024.6,0.5,100,14,3000,14.816,,,220,,,,5,,,,,,61,wg-a,,,,AAXX 15094 07240 12230 82208 10140 20140 30113 40246 51005 60057 76165 887// 90900=
07240,1998-10-15 12:00:00,15,1024.1,-0.5,100,15,7000,18.52,,,230,,,,0,,,,,,1,wg-a,,,,AAXX 15124 07240 02257 82310 10150 20150 30108 40241 58005 60056 70165 887// 91200 333 60007=
07240,1998-10-15 15:00:00,17,1022.7,-1.3,94,16,12000,11.112,,,230,,,,0,,,,,,1,wg-a,,,,AAXX 15154 07240 12362 82306 10170 20160 30095 40227 56013 60007 70152 885// 91500=
07240,1998-10-15 18:00:00,16,1022.7,-0,100,16,11000,11.112,,,220,13.8,16.9,,,,,,,,,wg-a,,,,AAXX 15184 07240 12/61 /2206 10160 20160 30095 40227 55000 60006 91800 333 10169 20138=
07240,1998-10-15 21:00:00,16,1022.7,0,94,15,12000,11.112,,,230,,,,,,,,,,,wg-a,,,,AAXX 15214 07240 12362 72306 10160 20150 30095 40227 50000 60006 875// 92100=
07240,1998-10-16 00:00:00,15,1022.1,-0.6,100,15,12000,7.408,,,230,,,,,,,,,,,wg-a,,,,AAXX 16004 07240 12362 72304 10150 20150 30089 40221 58006 60006 875// 90000=
07240,1998-10-16 06:00:00,14,1020.1,-0.8,100,14,7000,7.408,,,210,14.1,16.3,,,,,,,,20,wg-a,,,,AAXX 16064 07240 02257 72104 10140 20140 30068 40201 58008 61000 72052 875// 90600 333 10163 20141 6006=
07240,1998-10-16 09:00:00,15,1019.7,-0.3,100,15,8000,7.408,,,180,,,,,,,,,,,wg-a,,,,AAXX 16094 07240 12258 71804 10150 20150 30065 40197 56003 60006 875// 90900=
07240,1998-10-16 12:00:00,18,1017.3,-2.3,77,14,500,7.408,,,180,,,,,,,,,,,wg-a,,,,AAXX 16124 07240 12400 71804 10180 20140 30042 40173 58023 60006 878// 91200=
07240,1998-10-16 15:00:00,20,1014.4,-2.8,73,15,500,7.408,,,170,,,,,,,,,,,wg-a,,,,AAXX 16154 07240 12500 71704 10200 20150 30014 40144 57028 60006 85801 91500=
07240,1998-10-16 18:00:00,17,1013.2,-1.3,82,14,25000,7.408,,,190,14.2,19.7,,,,,,,,,wg-a,,,,AAXX 16184 07240 12575 21904 10170 20140 30001 40132 56013 60006 81501 91800 333 10197 20142=
07240,1998-10-16 21:00:00,14,1011.8,-1.5,94,13,20000,14.816,,,180,,,,,,,,,,,wg-a,,,,AAXX 16214 07240 12/70 21808 10140 20130 39986 40118 58015 60006 80004 92100=
07240,1998-10-17 00:00:00,15,1010.9,-0.8,94,14,1500,18.52,,,220,,,,0,,,,,,,wg-a,,,,AAXX 17004 07240 02415 82210 10150 20140 39978 40109 58008 60006 875// 90000 333 60007=
07240,1998-10-17 03:00:00,15,1009.6,-1.3,82,12,15000,25.928,,,210,,,,,,,,,,,wg-a,,,,AAXX 17034 07240 12565 82114 10150 20120 39965 40096 58013 60006 885// 90300=
07240,1998-10-17 06:00:00,15,1008.7,-0.9,88,13,9000,29.632,,,210,13.5,16.5,,,,,,,,,wg-a,,,,AAXX 17064 07240 02459 82116 10150 20130 39956 40087 58009 60006 875// 90600 333 10165 20135 60004=
07240,1998-10-17 09:00:00,16,1008.5,-0.1,88,14,7000,31.484,,,210,,,,,,,,,,,wg-a,,,,AAXX 17094 07240 12457 82117 10160 20140 39955 40085 56001 60006 875// 90900=
07240,1998-10-17 12:00:00,15,1009.8,1.2,94,14,7000,29.632,,,250,,,,3,,,,,,61,wg-a,,,,AAXX 17124 07240 02357 72516 10150 20140 39967 40098 53012 60036 76165 875// 91200 333 60037=
07240,1998-10-17 15:00:00,16,1011.7,1.9,68,10,25000,25.928,,,290,,,,,,,,,,1,wg-a,,,,AAXX 17154 07240 02575 /2914 10160 20100 39986 40117 51019 61000 70162 86800 91500 333 ////=
07240,1998-10-17 18:00:00,11,1014.3,2.4,82,8,25000,14.816,,,270,11.4,16.1,,,,,,,,1,wg-a,,,,AAXX 17184 07240 12675 /2708 10110 20080 30010 40143 53024 60006 70161 81500 91800 333 10161 20114=
07240,1998-10-17 21:00:00,10,1017.2,2.7,82,7,20000,14.816,,,260,,,,,,,,,,,wg-a,,,,AAXX 17214 07240 12670 /2608 10100 20070 30037 40172 51027 60006 81500 92100=
07240,1998-10-18 00:00:00,8,1018.8,1.5,93,7,15000,14.816,,,250,,,,,,,,,,,wg-a,,,,AAXX 18004 07240 12/65 02508 10080 20070 30052 40188 51015 60006 80000 90000=
07240,1998-10-18 03:00:00,7,1019.6,0.7,93,6,15000,3.704,,,240,,,,0,,,,,,,wg-a,,,,AAXX 18034 07240 12/65 52402 10070 20060 30059 40196 50007 60007 80001 90300=
07240,1998-10-18 06:00:00,6,1020.5,0.9,100,6,12000,7.408,,,220,6,11.4,,,,,3,,,,wg-a,,,,AAXX 18064 07240 02/62 32204 10060 20060 30068 40205 51009 60006 80001 90600 333 10114 20060 60034=
07240,1998-10-18 09:00:00,9,1021.5,1.1,93,8,15000,7.408,,,200,,,,,,,,,,,wg-a,,,,AAXX 18094 07240 12665 42004 10090 20080 30079 40215 51011 60006 81501 90900=
07240,1998-10-18 12:00:00,14,1020.6,-0.6,67,8,25000,11.112,,,250,,,,,,,,,,,wg-a,,,,AAXX 18124 07240 12575 42506 10140 20080 30073 40206 58006 60006 81102 91200=
07240,1998-10-18 15:00:00,13,1019,-1.6,72,8,500,7.408,,,270,,,,,,,,,,,wg-a,,,,AAXX 18154 07240 12600 32704 10130 20080 30057 40190 56016 60006 82802 91500=
07240,1998-10-18 18:00:00,12,1019,-0.1,82,9,20000,7.408,,,220,5.4,15,,,,,,,,,wg-a,,,,AAXX 18184 07240 12770 72204 10120 20090 30056 40190 55001 60006 875// 91800 333 10150 20054=
07240,1998-10-18 21:00:00,9,1019.2,0.1,93,8,15000,3.704,,,160,,,,,,,,,,,wg-a,,,,AAXX 18214 07240 12765 21602 10090 20080 30057 40192 52001 60006 82500 92100=
07240,1998-10-19 00:00:00,8,1018.5,-0.8,93,7,8000,3.704,,,340,,,,,,,,,,,wg-a,,,,AAXX 19004 07240 12/58 03402 10080 20070 30049 40185 58008 60006 80000 90000=
07240,1998-10-19 03:00:00,5,1018.4,-0.2,93,4,100,0,,,0,,,,,,,,,,44,wg-a,,,,AAXX 19034 07240 32/01 00000 10050 20040 30047 40184 58002 74440 80000 90300=
07240,1998-10-19 06:00:00,3,1019,0.5,100,3,800,3.704,,,330,3.4,11.7,,,,,,,,44,wg-a,,,,AAXX 19064 07240 02/08 03302 10030 20030 30052 40190 53005 60006 74440 80000 90600 333 10117 20034 60004=
07240,1998-10-19 09:00:00,9,1020.9,2.2,100,9,12000,7.408,,,290,,,,,,,,,,10,wg-a,,,,AAXX 19094 07240 12/62 12904 10090 20090 30074 40209 53022 60006 71041 81030 90900=
07240,1998-10-19 12:00:00,14,1020.9,0.2,67,8,500,18.52,,,310,,,,,,,,,,1,wg-a,,,,AAXX 19124 07240 12500 53110 10140 20080 30076 40209 50002 60006 70141 85800 91200=
07240,1998-10-19 15:00:00,13,1020.9,-0.1,72,8,500,14.816,,,300,,,,,,,,,,15,wg-a,,,,AAXX 19154 07240 12500 /3008 10130 20080 30075 40209 55001 60006 71522 86800 91500=
07240,1998-10-19 18:00:00,10,1022.5,1.5,82,7,20000,11.112,,,300,3.3,14.5,,,,,,,,,wg-a,,,,AAXX 19184 07240 12670 53006 10100 20070 30090 40225 53015 60006 83530 91800 333 10145 20033=
07240,1998-10-19 21:00:00,7,1024.1,1.4,93,6,10000,11.112,,,270,,,,,,,,,,,wg-a,,,,AAXX 19214 07240 12/60 22706 10070 20060 30104 40241 51014 60006 82030 92100=
07240,1998-10-20 00:00:00,6,1024.4,0.3,100,6,10000,7.408,,,270,,,,0,,,,,,,wg-a,,,,AAXX 20004 07240 02/60 52704 10060 20060 30107 40244 50003 60006 85030 90000 333 60007=
07240,1998-10-20 03:00:00,6,1024.5,-0,100,6,10000,3.704,,,290,,,,,,,,,,,wg-a,,,,AAXX 20034 07240 12/60 52902 10060 20060 30107 40245 55000 60006 85030 90300=
07240,1998-10-20 06:00:00,5,1024.9,0.4,100,5,10000,7.408,,,280,5,10.1,,,,,,,,,wg-a,,,,AAXX 20064 07240 02660 /2804 10050 20050 30111 40249 51004 60006 81500 90600 333 10101 20050 60004=
07240,1998-10-20 09:00:00,10,1025.7,1,87,8,12000,3.704,,,220,,,,,,,,,,,wg-a,,,,AAXX 20094 07240 12/62 22202 10100 20080 30121 40257 51010 60006 81031 90900=
07240,1998-10-20 12:00:00,14,1025.6,0.1,63,7,500,11.112,,,220,,,,,,,,,,,wg-a,,,,AAXX 20124 07240 12500 52206 10140 20070 30122 40256 51001 60006 83231 91200=
07240,1998-10-20 15:00:00,14,1024.3,-1.2,58,6,500,14.816,,,220,,,,,,,,,,,wg-a,,,,AAXX 20154 07240 12600 52208 10140 20060 30110 40243 56012 60006 83231 91500=
07240,1998-10-20 18:00:00,11,1024,-0.5,71,6,500,7.408,,,170,4.7,15.1,,,,,,,,,wg-a,,,,AAXX 20184 07240 12/00 21704 10110 20060 30105 40240 56005 60006 81031 91800 333 10151 20047=
07240,1998-10-20 21:00:00,8,1023.4,-0.7,87,6,10000,7.408,,,160,,,,,,,,,,,wg-a,,,,AAXX 20214 07240 12/60 /1604 10080 20060 30098 40234 58007 60006 92100=
07240,1998-10-21 00:00:00,7,1022.7,-0.8,87,5,20000,11.112,,,170,,,,,,,,,,,wg-a,,,,AAXX 21004 07240 12/70 21706 10070 20050 30090 40227 58008 60006 80001 90000=
07240,1998-10-21 03:00:00,8,1020.9,-1.7,87,6,20000,14.816,,,160,,,,,,,,,,,wg-a,,,,AAXX 21034 07240 12/70 71608 10080 20060 30073 40209 58017 60006 81032 90300=
07240,1998-10-21 06:00:00,8,1020.8,-0.1,87,6,20000,14.816,,,190,6.5,10.5,,,,,,,,,wg-a,,,,AAXX 21064 07240 02/70 61908 10080 20060 30072 40208 56001 60006 83032 90600 333 10105 20065 60004=
07240,1998-10-21 09:00:00,11,1021.6,0.9,76,7,25000,25.928,,,200,,,,,,,,,,,wg-a,,,,AAXX 21094 07240 12/75 52014 10110 20070 30081 40216 51009 60006 83032 90900=
07240,1998-10-21 12:00:00,17,1020.8,-0.5,63,10,500,25.928,,,220,,,,,,,,,,,wg-a,,,,AAXX 21124 07240 12/00 42214 10170 20100 30076 40208 58005 60006 81032 91200=
07240,1998-10-21 15:00:00,17,1020.1,-0.7,59,9,500,18.52,,,220,,,,,,,,,,,wg-a,,,,AAXX 21154 07240 12600 72210 10170 20090 30069 40201 56007 60006 85502 91500=
07240,1998-10-21 18:00:00,16,1021.5,1.4,68,10,20000,22.224,,,200,8.2,18.3,,,,,,,,,wg-a,,,,AAXX 21184 07240 12570 72012 10160 20100 30083 40215 53014 60006 875// 91800 333 10183 20082=
07240,1998-10-21 21:00:00,15,1022.8,1.2,77,11,20000,14.816,,35.188,220,,,,,,,,,,,wg-a,,,,AAXX 21214 07240 12470 72208 10150 20110 30095 40228 52012 60006 8557/ 92100 333 91019=
07240,1998-10-22 00:00:00,15,1023.2,0.4,67,9,20000,18.52,,,220,,,,,,,,,,,wg-a,,,,AAXX 22004 07240 12570 82210 10150 20090 30099 40232 51004 60006 875// 90000=
07240,1998-10-22 06:00:00,13,1023.8,0.7,77,9,12000,22.224,,,200,12.7,16,,,,,,,,,wg-a,,,,AAXX 22064 07240 02662 72012 10130 20090 30104 40238 50007 60006 875// 90600 333 10160 20127 60004=
07240,1998-10-22 09:00:00,14,1024.6,0.8,77,10,15000,22.224,,,200,,,,,,,,,,,wg-a,,,,AAXX 22094 07240 12665 72012 10140 20100 30112 40246 51008 60006 82532 90900=
07240,1998-10-22 12:00:00,16,1024.5,0.1,72,11,15000,18.52,,,230,,,,,,,,,,,wg-a,,,,AAXX 22124 07240 12/65 72310 10160 20110 30113 40245 50001 60006 86032 91200=
07240,1998-10-22 15:00:00,18,1023,-1.5,64,11,15000,14.816,,,200,,,,,,,,,,,wg-a,,,,AAXX 22154 07240 12/65 62008 10180 20110 30098 40230 56015 60006 85032 91500=
07240,1998-10-22 18:00:00,17,1023.6,0.6,63,10,15000,11.112,,,200,12.4,18.4,,,,,,,,,wg-a,,,,AAXX 22184 07240 12/65 62006 10170 20100 30104 40236 53006 60006 85032 91800 333 10184 20124=
07240,1998-10-22 21:00:00,16,1023,-0.6,77,12,15000,18.52,,,200,,,,,,,,,,,wg-a,,,,AAXX 22214 07240 12565 72010 10160 20120 30098 40230 58006 60006 875// 92100=
07240,1998-10-23 00:00:00,15,1022.2,-0.9,82,12,15000,22.224,,,200,,,,,,,,,,,wg-a,,,,AAXX 23004 07240 12665 72012 10150 20120 30089 40222 58009 60006 875// 90000=
07240,1998-10-23 03:00:00,16,1021.1,-1,68,10,15000,18.52,,,200,,,,,,,,,,,wg-a,,,,AAXX 23034 07240 12765 72010 10160 20100 30079 40211 58010 60006 8557/ 90300=
07240,1998-10-23 06:00:00,15,1019.5,-1.7,77,11,20000,29.632,,,200,14.5,16.6,,,,,,,,,wg-a,,,,AAXX 23064 07240 02770 82016 10150 20110 30062 40195 56017 60006 8557/ 90600 333 10166 20145 60004=
07240,1998-10-23 10:00:00,16,1021.7,,82,13,15000,22.224,,,200,,,,,,,,,,,wg-a,,,,AAXX 23104 07240 12665 72012 10160 20130 30085 40217 60006 91000=
07240,1998-10-23 12:00:00,17,1018.3,-1.1,88,15,12000,25.928,,,230,,,,,,,,,,,wg-a,,,,AAXX 23124 07240 12462 82314 10170 20150 30052 40183 56011 60006 875// 91200=
07240,1998-10-23 15:00:00,16,1017.3,-1,100,16,8000,22.224,,,230,,,,4,,,,,,60,wg-a,,,,AAXX 23154 07240 12358 82312 10160 20160 30042 40173 58010 60047 76062 875// 91500=
07240,1998-10-23 18:00:00,14,1018.3,0.8,94,13,15000,22.224,,,250,14.1,17.3,,,,,,,,21,wg-a,,,,AAXX 23184 07240 02465 72512 10140 20130 30050 40183 53008 61000 72162 875// 91800 333 10173 20141 6002=
07240,1998-10-23 21:00:00,13,1020.1,1.8,94,12,15000,22.224,,,280,,,,2,,,,,,25,wg-a,,,,AAXX 23214 07240 12365 72812 10130 20120 30068 40201 52018 60027 72586 875// 92100=
07240,1998-10-24 00:00:00,11,1022.1,1.8,100,11,12000,14.816,,,270,,,,0,,,,,,1,wg-a,,,,AAXX 24004 07240 02362 /2708 10110 20110 30086 40221 52018 60026 70186 81100 90000 333 60007=
07240,1998-10-24 03:00:00,9,1022,-0.2,100,9,10000,7.408,,,230,,,,,,,,,,,wg-a,,,,AAXX 24034 07240 12/60 12304 10090 20090 30084 40220 58002 60006 80002 90300=
07240,1998-10-24 06:00:00,10,1020.3,-1.6,100,10,6000,11.112,,,200,8,14,,,,,8,,,,wg-a,,,,AAXX 24064 07240 02156 82006 10100 20100 30068 40203 57016 60006 8275/ 90600 333 10140 20080 60084=
07240,1998-10-24 09:00:00,12,1017.3,-2.8,100,12,6000,22.224,,,190,,,,0,,,,,,61,wg-a,,,,AAXX 24094 07240 12356 81912 10120 20120 30040 40173 58028 60007 76162 877// 90900=
07240,1998-10-24 12:00:00,13,1012.2,-5,100,13,3000,29.632,,,200,,,,2,,,,,,61,wg-a,,,,AAXX 24124 07240 02330 82016 10130 20130 39990 40122 58050 60026 76162 877// 91200 333 60027=
07240,1998-10-24 15:00:00,15,1005.8,-6.3,94,14,500,35.188,,55.56,210,,,,1,,,,,,61,wg-a,,,,AAXX 24154 07240 12200 82119 10150 20140 39927 40058 58063 60017 76166 877// 91500 333 91030=
07240,1998-10-24 18:00:00,16,1000.7,-4.9,100,16,8000,42.596,,64.82,230,9.7,16.6,,,,,,,,63,wg-a,,,,AAXX 24184 07240 02258 82323 10160 20160 39878 40007 56049 61000 76366 877// 91800 333 10166 20097 6003 91035=
07240,1998-10-24 21:00:00,15,999.4,-1.4,94,14,10000,38.892,,,260,,,,12,,,,,,61,wg-a,,,,AAXX 24214 07240 12360 82621 10150 20140 39864 49994 55014 60127 76166 877// 92100=
07240,1998-10-25 00:00:00,13,1001.5,2,88,11,20000,35.188,,51.856,260,,,,2,,,,,,3,wg-a,,,,AAXX 25004 07240 02470 82619 10130 20110 39884 40015 51020 60146 70362 8257/ 90000 333 60027 91028=
07240,1998-10-25 03:00:00,13,1002.5,1,88,11,15000,35.188,,,250,,,,,,,,,,,wg-a,,,,AAXX 25034 07240 12465 82519 10130 20110 39894 40025 53010 60006 8457/ 90300=
07240,1998-10-25 06:00:00,13,1005.5,2.9,82,10,15000,25.928,,,270,12.4,16.5,,,,,21,,,,wg-a,,,,AAXX 25064 07240 12565 72714 10130 20100 39923 40055 53029 60214 8627/ 90600 333 10165 20124=
07240,1998-10-25 09:00:00,12,1008.1,2.6,88,10,11000,25.928,,,260,,,,,,,,,,,wg-a,,,,AAXX 25094 07240 12/61 /2614 10120 20100 39949 40081 52026 60006 90900=
07240,1998-10-25 12:00:00,14,1008.3,0.3,72,9,25000,25.928,,,270,,,,,,,,,,,wg-a,,,,AAXX 25124 07240 12575 /2714 10140 20090 39952 40083 51003 60006 85200 91200=
07240,1998-10-25 15:00:00,15,1008.6,0.3,59,7,25000,29.632,,,290,,,,,,,,,,1,wg-a,,,,AAXX 25154 07240 02575 22916 10150 20070 39955 40086 53003 61000 70186 82900 91500 333 ////=
07240,1998-10-25 18:00:00,11,1011.2,2.4,76,7,25000,14.816,,,270,11,15.9,,,,,,,,1,wg-a,,,,AAXX 25184 07240 12675 /2708 10110 20070 39979 40112 53024 60006 70186 81200 91800 333 10159 20110=
07240,1998-10-25 21:00:00,10,1012.7,1.4,87,8,20000,22.224,,,260,,,,,,,,,,,wg-a,,,,AAXX 25214 07240 12670 /2612 10100 20080 39993 40127 51014 60006 81500 92100=
07240,1998-10-26 00:00:00,8,1013.9,1.1,93,7,20000,14.816,,,270,,,,,,,,,,,wg-a,,,,AAXX 26004 07240 12/70 02708 10080 20070 30004 40139 52011 60006 80000 90000=
07240,1998-10-26 03:00:00,7,1014.7,0.7,93,6,15000,7.408,,,230,,,,,,,,,,,wg-a,,,,AAXX 26034 07240 12/65 02304 10070 20060 30011 40147 50007 60006 80000 90300=
07240,1998-10-26 06:00:00,7,1015.1,0.4,93,6,15000,11.112,,,210,6.1,10.9,,,,,,,,,wg-a,,,,AAXX 26064 07240 02/65 32106 10070 20060 30015 40151 50004 60006 83031 90600 333 10109 20061 60004=
07240,1998-10-26 09:00:00,10,1015.3,0.4,93,9,15000,18.52,,,230,,,,1,,,,,,25,wg-a,,,,AAXX 26094 07240 12465 72310 10100 20090 30019 40153 53004 60017 72586 86830 90900=
07240,1998-10-26 12:00:00,14,1015.5,0.3,67,8,20000,22.224,,,290,,,,,,,,,,1,wg-a,,,,AAXX 26124 07240 02570 52912 10140 20080 30022 40155 53003 60016 70186 84231 91200 333 61000=
07240,1998-10-26 15:00:00,14,1016.8,1.3,58,6,25000,29.632,,,280,,,,,,,,,,,wg-a,,,,AAXX 26154 07240 12675 42816 10140 20060 30035 40168 53013 60006 84800 91500=
07240,1998-10-26 18:00:00,9,1020.3,3.3,93,8,20000,11.112,,,260,6.4,14.6,,0,,,,,,1,wg-a,,,,AAXX 26184 07240 02670 22606 10090 20080 30068 40203 53033 60006 70186 8/800 91800 333 10146 20064 60007=
07240,1998-10-27 00:00:00,7,1023.9,1.1,93,6,15000,14.816,,,250,,,,,,,,,,,wg-a,,,,AAXX 27004 07240 12/65 02508 10070 20060 30102 40239 51011 60006 80000 90000=
07240,1998-10-27 06:00:00,8,1023.4,-0,93,7,10000,22.224,,,220,6.9,9.4,,,,,2,,,,wg-a,,,,AAXX 27064 07240 02/60 12212 10080 20070 30098 40234 55000 60006 81030 90600 333 10094 20069 60024=
07240,1998-10-27 09:00:00,10,1023.4,0.1,93,9,11000,22.224,,,210,,,,,,,,,,,wg-a,,,,AAXX 27094 07240 12/61 /2112 10100 20090 30099 40234 50001 60006 90900=
07240,1998-10-27 12:00:00,14,1021.6,-1.6,82,11,15000,25.928,,,220,,,,,,,,,,,wg-a,,,,AAXX 27124 07240 12465 72214 10140 20110 30083 40216 58016 60006 84231 91200=
07240,1998-10-27 15:00:00,15,1020,-1.6,72,10,20000,29.632,,,230,,,,,,,,,,,wg-a,,,,AAXX 27154 07240 12570 72316 10150 20100 30067 40200 56016 60006 8523/ 91500=
07240,1998-10-27 18:00:00,14,1019.5,-0.5,82,11,20000,25.928,,,220,8.1,15.4,,,,,,,,,wg-a,,,,AAXX 27184 07240 12570 72214 10140 20110 30062 40195 55005 60006 8523/ 91800 333 10154 20081=
07240,1998-10-27 21:00:00,14,1018.6,-0.9,82,11,20000,29.632,,,230,,,,,,,,,,,wg-a,,,,AAXX 27214 07240 12470 72316 10140 20110 30053 40186 58009 60006 878// 92100=
07240,1998-10-28 00:00:00,13,1016.1,-2.5,94,12,6000,31.484,,,210,,,,0,,,,,,61,wg-a,,,,AAXX 28004 07240 02356 82117 10130 20120 30028 40161 58025 60006 76162 877// 90000 333 60007=
07240,1998-10-28 03:00:00,14,1014.1,-1.9,100,14,6000,31.484,,50.004,220,,,,1,,,,,,51,wg-a,,,,AAXX 28034 07240 12256 82217 10140 20140 30009 40141 56019 60017 75165 877// 90300 333 91027=
07240,1998-10-28 06:00:00,16,1014.4,0.4,94,15,4000,35.188,,53.708,240,12.6,15.8,,,,,,,,50,wg-a,,,,AAXX 28064 07240 02240 82419 10160 20150 30013 40144 53004 61000 75065 887// 90600 333 10158 20126 6003 91029=
07240,1998-10-28 09:00:00,16,1015.8,1.4,94,15,12000,31.484,,,240,,,,0,,,,,,20,wg-a,,,,AAXX 28094 07240 12362 82417 10160 20150 30027 40158 53014 60007 72052 886// 90900=
07240,1998-10-28 12:00:00,16,1015.4,-0.4,100,16,500,35.188,,59.264,240,,,,,,,,,,60,wg-a,,,,AAXX 28124 07240 02300 72419 10160 20160 30023 40154 56004 60016 76065 875// 91200 333 61000 91032=
07240,1998-10-28 18:00:00,16,1014.9,0,100,16,8000,31.484,,,240,15.7,17.2,,,,,,,,50,wg-a,,,,AAXX 28184 07240 02258 72417 10160 20160 30018 40149 50000 61000 75065 877// 91800 333 10172 20157 6001=
07240,1998-10-28 21:00:00,16,1013.5,-1.4,100,16,8000,38.892,,57.412,230,,,,0,,,,,,50,wg-a,,,,AAXX 28214 07240 12358 72321 10160 20160 30004 40135 58014 60007 75052 877// 92100 333 91031=
07240,1998-10-29 00:00:00,16,1012.2,-1.3,94,15,8000,35.188,,,230,,,,1,,,,,,50,wg-a,,,,AAXX 29004 07240 02458 72319 10160 20150 39991 40122 58013 60016 75052 877// 90000 333 60017=
07240,1998-10-29 06:00:00,9,1015.4,2.2,93,8,10000,25.928,,,250,9.1,16.9,,,,,,,,21,wg-a,,,,AAXX 29064 07240 02460 72514 10090 20080 30019 40154 51022 61000 72165 875// 90600 333 10169 20091 6013=
07240,1998-10-29 09:00:00,11,1019.4,4.1,87,9,20000,31.484,,,280,,,,,,,,,,,wg-a,,,,AAXX 29094 07240 12470 62817 10110 20090 30060 40194 53041 60006 84830 90900=
07240,1998-10-29 12:00:00,13,1023,3.6,67,7,500,29.632,,,310,,,,0,,,,,,,wg-a,,,,AAXX 29124 07240 02600 /3116 10130 20070 30096 40230 51036 60006 85200 91200 333 60007=
07240,1998-10-29 18:00:00,9,1026.9,1.3,81,6,25000,11.112,,,280,9,13.5,,,,,,,,,wg-a,,,,AAXX 29184 07240 12/75 02806 10090 20060 30133 40269 53013 60006 80000 91800 333 10135 20090=
07240,1998-10-29 21:00:00,8,1027.2,0.2,81,5,25000,14.816,,,240,,,,,,,,,,,wg-a,,,,AAXX 29214 07240 12/75 02408 10080 20050 30135 40272 51002 60006 80000 92100=
07240,1998-10-30 00:00:00,7,1027.1,-0.1,87,5,25000,18.52,,,260,,,,,,,,,,,wg-a,,,,AAXX 30004 07240 12/75 22610 10070 20050 30134 40271 58001 60006 82030 90000=
07240,1998-10-30 06:00:00,7,1024.1,-1.8,93,6,20000,22.224,,,240,6.5,9.2,,,,,,,,,wg-a,,,,AAXX 30064 07240 02670 62412 10070 20060 30104 40241 56018 60006 84531 90600 333 10092 20065 60004=
07240,1998-10-30 12:00:00,13,1023.3,-0.6,72,8,25000,29.632,,,270,,,,,,,,,,,wg-a,,,,AAXX 30124 07240 12575 72716 10130 20080 30099 40233 58006 60006 878// 91200=
07240,1998-10-30 15:00:00,13,1022.5,-0.8,77,9,15000,22.224,,,280,,,,,,,,,,,wg-a,,,,AAXX 30154 07240 12565 72812 10130 20090 30091 40225 56008 60006 875// 91500=
07240,1998-10-30 18:00:00,12,1023.1,0.6,82,9,20000,11.112,,,310,7.4,13,,,,,,,,,wg-a,,,,AAXX 30184 07240 12570 73106 10120 20090 30097 40231 53006 60006 875// 91800 333 10130 20074=
07240,1998-10-30 21:00:00,11,1023.5,0.3,94,10,15000,14.816,,,260,,,,,,,,,,,wg-a,,,,AAXX 30214 07240 12665 72608 10110 20100 30100 40235 51003 60006 875// 92100=
07240,1998-10-31 00:00:00,9,1022.7,-0.8,100,9,15000,11.112,,,250,,,,,,,,,,,wg-a,,,,AAXX 31004 07240 12/65 52506 10090 20090 30092 40227 57008 60006 85030 90000=
07240,1998-10-31 06:00:00,9,1019.4,-1.4,93,8,10000,14.816,,,240,8.8,11.8,,,,,,,,,wg-a,,,,AAXX 31064 07240 02/60 72408 10090 20080 30059 40194 58014 60006 87030 90600 333 10118 20088 60004=
07240,1998-10-31 09:00:00,10,1017.8,-1.5,100,10,10000,14.816,,,220,,,,0,,,,,,21,wg-a,,,,AAXX 31094 07240 12260 82208 10100 20100 30044 40178 58015 60007 72162 8657/ 90900=
07240,1998-10-31 12:00:00,13,1015.3,-2.4,88,11,10000,22.224,,,230,,,,,,,,,,1,wg-a,,,,AAXX 31124 07240 02460 82312 10130 20110 30020 40153 58024 60006 70162 8657/ 91200 333 61000=
07240,1998-10-31 15:00:00,13,1011.8,-3.4,82,10,10000,22.224,,,220,,,,0,,,,,,21,wg-a,,,,AAXX 31154 07240 12560 82212 10130 20100 39986 40118 57034 60007 72162 8587/ 91500=
07240,1998-10-31 18:00:00,12,1009.1,-2.7,88,10,10000,29.632,,48.152,230,8.9,13.1,,,,,,,,21,wg-a,,,,AAXX 31184 07240 02260 82316 10120 20100 39959 40091 56027 61000 72162 878// 91800 333 10131 20089 6000 91026=
07240,1998-10-31 21:00:00,11,1005.7,-3.4,94,10,10000,25.928,,48.152,220,,,,2,,,,,,21,wg-a,,,,AAXX 31214 07240 12460 82214 10110 20100 39925 40057 58034 60027 72162 875// 92100 333 91026=
07240,1998-11-01 00:00:00,13,1001.4,-4.2,94,12,6000,35.188,,57.412,230,,,,2,,,,,,51,wg-a,,,,AAXX 01004 07240 02256 82319 10130 20120 39883 40014 56042 60046 75165 877// 90000 333 60027 91031=
07240,1998-11-01 03:00:00,14,1001.3,-0,94,13,12000,31.484,,,260,,,,1,,,,,,21,wg-a,,,,AAXX 01034 07240 12462 82617 10140 20130 39883 40013 55000 60017 72165 875// 90300=
07240,1998-11-01 06:00:00,12,1004.4,2.9,94,11,20000,22.224,,,310,11.1,14.5,,,,,7,,,1,wg-a,,,,AAXX 01064 07240 02470 23112 10120 20110 39912 40044 53029 60006 70165 82500 90600 333 10145 20111 60074=
07240,1998-11-01 09:00:00,11,1008.8,4.3,87,9,25000,22.224,,,310,,,,,,,,,,,wg-a,,,,AAXX 01094 07240 12475 73112 10110 20090 39955 40088 53043 60006 878// 90900=
07240,1998-11-01 12:00:00,13,1010.4,1.7,72,8,500,14.816,,,310,,,,,,,,,,,wg-a,,,,AAXX 01124 07240 12500 33108 10130 20080 39972 40104 51017 60006 83200 91200=
07240,1998-11-01 15:00:00,13,1011.7,1.2,67,7,500,11.112,,,310,,,,,,,,,,,wg-a,,,,AAXX 01154 07240 12600 23106 10130 20070 39984 40117 52012 60006 82801 91500=
07240,1998-11-02 00:00:00,4,1014.3,-0.5,93,3,0,3.704,,,110,,,,,,,,,,,wg-a,,,,AAXX 02004 07240 12/// /1102 10040 20030 30006 40143 58005 60006 90000=
07240,1998-11-02 03:00:00,4,1012.7,-1.6,100,4,15000,11.112,,,150,,,,,,,,,,,wg-a,,,,AAXX 02034 07240 12665 71506 10040 20040 39990 40127 58016 60006 875// 90300=
07240,1998-11-02 06:00:00,5,1010.7,-1.9,93,4,15000,7.408,,,150,3.3,,,,,,,,,,wg-a,,,,AAXX 02064 07240 02665 71504 10050 20040 39971 40107 56019 60006 875// 90600 333 10087 20033 60004=
07240,1998-11-02 09:00:00,8,1009.3,-1.3,81,5,15000,11.112,,,170,,,,,,,,,,,wg-a,,,,AAXX 02094 07240 12665 71706 10080 20050 39958 40093 56013 60006 875// 90900=
07240,1998-11-02 12:00:00,12,1005.3,-3.7,82,9,15000,18.52,,,180,,,,,,,,,,,wg-a,,,,AAXX 02124 07240 12465 71810 10120 20090 39921 40053 58037 60006 878// 91200=
07240,1998-11-02 15:00:00,12,1001.4,-3.9,94,11,15000,18.52,,,200,,,,,,,,,,20,wg-a,,,,AAXX 02154 07240 02265 82010 10120 20110 39882 40014 56039 61000 72065 887// 91500 333 ////=
07240,1998-11-02 18:00:00,12,999.3,-2,100,12,10000,18.52,,,220,5.4,12.3,,5,,,,,,2,wg-a,,,,AAXX 02184 07240 02260 72210 10120 20120 39862 49993 56020 60006 70265 875// 91800 333 10123 20054 60057=
07240,1998-11-02 21:00:00,12,999.7,0.4,94,11,15000,29.632,,,250,,,,0,,,,,,21,wg-a,,,,AAXX 02214 07240 12365 82516 10120 20110 39866 49997 53004 60007 72162 875// 92100=
07240,1998-11-03 00:00:00,10,1000.5,0.7,93,9,15000,25.928,,,230,,,,,,,,,,3,wg-a,,,,AAXX 03004 07240 12/65 72314 10100 20090 39873 40005 51007 60016 70361 8703/ 90000=
07240,1998-11-03 03:00:00,10,1000.9,0.3,87,8,15000,22.224,,,240,,,,1,,,,,,1,wg-a,,,,AAXX 03034 07240 12765 72412 10100 20080 39876 40009 50003 60017 70186 8553/ 90300=
07240,1998-11-03 06:00:00,9,1001.1,0.2,87,7,15000,14.816,,,230,8.9,12.6,,,,,6,,,1,wg-a,,,,AAXX 03064 07240 02665 /2308 10090 20070 39878 40011 51002 60006 70186 82570 90600 333 10126 20089 60064=
07240,1998-11-03 09:00:00,10,1002.1,1,87,8,15000,25.928,,,230,,,,,,,,,,,wg-a,,,,AAXX 03094 07240 12465 72314 10100 20080 39888 40021 51010 60006 8387/ 90900=
07240,1998-11-03 12:00:00,12,1001.3,-0.7,82,9,500,22.224,,,230,,,,,,,,,,15,wg-a,,,,AAXX 03124 07240 02500 62312 10120 20090 39881 40013 58007 61000 71562 83870 91200 333 6100=
07240,1998-11-03 15:00:00,10,1000.4,-0.9,87,8,25000,11.112,,,250,,,,2,,,,,,16,wg-a,,,,AAXX 03154 07240 12575 72506 10100 20080 39872 40004 56009 60027 71686 86930 91500=
07240,1998-11-03 18:00:00,9,1000.7,0.2,87,7,25000,14.816,,,220,8.3,13,,3,,,,,,2,wg-a,,,,AAXX 03184 07240 02575 72208 10090 20070 39874 40007 53002 60006 70287 8697/ 91800 333 10130 20083 60037=
07240,1998-11-03 21:00:00,8,1001.2,0.5,93,7,25000,18.52,,,220,,,,1,,,,,,1,wg-a,,,,AAXX 03214 07240 12575 62210 10080 20070 39879 40012 52005 60017 70186 8383/ 92100=
07240,1998-11-04 00:00:00,7,1001.8,0.5,93,6,25000,14.816,,,220,,,,,,,,,,3,wg-a,,,,AAXX 04004 07240 12575 52208 10070 20060 39884 40018 51005 60016 70386 85800 90000=
07240,1998-11-04 06:00:00,5,1002.8,0.7,93,4,15000,14.816,,,230,5,8.9,,,,,6,,,,wg-a,,,,AAXX 04064 07240 02765 22308 10050 20040 39893 40028 53007 60006 82500 90600 333 10089 20050 60064=
07240,1998-11-04 12:00:00,9,1007,1.7,81,6,18000,11.112,,,290,,,,,,,,,,,wg-a,,,,AAXX 04124 07240 12468 72906 10090 20060 39936 40070 51017 60006 875// 91200=
07240,1998-11-04 15:00:00,10,1007.8,0.9,87,8,15000,11.112,,,260,,,,,,,,,,,wg-a,,,,AAXX 04154 07240 12465 /2606 10100 20080 39945 40078 53009 60006 86800 91500=
07240,1998-11-04 18:00:00,6,1010.4,2.4,93,5,15000,3.704,,,270,5,10.7,,,,,,,,,wg-a,,,,AAXX 04184 07240 12765 12702 10060 20050 39969 40104 53024 60006 81500 91800 333 10107 20050=
07240,1998-11-04 21:00:00,5,1013.6,3,87,3,10000,11.112,,,310,,,,,,,,,,,wg-a,,,,AAXX 04214 07240 12/60 03106 10050 20030 39999 40136 51030 60006 80000 92100=
07240,1998-11-05 00:00:00,3,1016,2.3,100,3,0,7.408,,,290,,,,,,,,,,,wg-a,,,,AAXX 05004 07240 12/// /2904 10030 20030 30022 40160 53023 60006 90000=
07240,1998-11-05 03:00:00,2,1017.9,1.8,93,1,7000,7.408,,,300,,,,,,,,,,,wg-a,,,,AAXX 05034 07240 12/57 03004 10020 20010 30040 40179 52018 60006 80000 90300=
07240,1998-11-05 06:00:00,1,1019.9,1.9,100,1,6000,7.408,,,260,0.7,6.4,,,,,1,,,11,wg-a,,,,AAXX 05064 07240 02/56 02604 10010 20010 30059 40199 51019 60006 71100 80000 90600 333 10064 20007 60014=
07240,1998-11-05 09:00:00,2,1023.2,3.4,100,2,100,3.704,,,230,,,,,,,,,,44,wg-a,,,,AAXX 05094 07240 12/01 02302 10020 20020 30093 40232 51034 60006 74440 80000 90900=
07240,1998-11-05 12:00:00,9,1023.7,0.8,76,5,10000,11.112,,,240,,,,,,,,,,1,wg-a,,,,AAXX 05124 07240 12460 /2406 10090 20050 30101 40237 50008 60006 70140 81100 91200=
07240,1998-11-05 15:00:00,10,1023.7,-0,66,4,18000,11.112,,,260,,,,,,,,,,,wg-a,,,,AAXX 05154 07240 12668 42606 10100 20040 30101 40237 55000 60006 84101 91500=
07240,1998-11-05 18:00:00,6,1024.9,1,81,3,10000,7.408,,,230,-0.1,10.8,,,,,,,,,wg-a,,,,AAXX 05184 07240 12/60 /2304 10060 20030 30111 40249 53010 60006 91800 333 10108 21001=
07240,1998-11-05 21:00:00,5,1025.9,1,87,3,15000,11.112,,,240,,,,,,,,,,,wg-a,,,,AAXX 05214 07240 12/65 12406 10050 20030 30121 40259 51010 60006 80001 92100=
07240,1998-11-06 00:00:00,4,1026.6,0.6,87,2,15000,7.408,,,210,,,,,,,,,,,wg-a,,,,AAXX 06004 07240 12/65 12104 10040 20020 30127 40266 51006 60006 80001 90000=
07240,1998-11-06 03:00:00,5,1026.9,0.3,87,3,15000,7.408,,,250,,,,,,,,,,,wg-a,,,,AAXX 06034 07240 12765 72504 10050 20030 30130 40269 51003 60006 875// 90300=
07240,1998-11-06 06:00:00,6,1027.6,0.8,87,4,15000,7.408,,,230,3.3,6.2,,,,,,,,,wg-a,,,,AAXX 06064 07240 02765 72304 10060 20040 30138 40276 52008 60006 875// 90600 333 10062 20033 60004=
07240,1998-11-06 09:00:00,8,1028.5,1,81,5,15000,18.52,,,250,,,,,,,,,,,wg-a,,,,AAXX 06094 07240 12765 62510 10080 20050 30148 40285 51010 60006 86500 90900=
07240,1998-11-06 12:00:00,12,1028.7,0.4,76,8,20000,14.816,,,280,,,,,,,,,,,wg-a,,,,AAXX 06124 07240 12570 /2808 10120 20080 30152 40287 50004 60006 86800 91200=
07240,1998-11-06 15:00:00,13,1028.6,-0.1,77,9,20000,11.112,,,270,,,,,,,,,,,wg-a,,,,AAXX 06154 07240 12570 72706 10130 20090 30151 40286 55001 60006 878// 91500=
07240,1998-11-06 18:00:00,11,1029.7,1,82,8,20000,7.408,,,270,5.8,13,,,,,,,,,wg-a,,,,AAXX 06184 07240 12770 72704 10110 20080 30161 40297 52010 60006 875// 91800 333 10130 20058=
07240,1998-11-06 21:00:00,8,1030.7,0.9,93,7,10000,3.704,,,270,,,,,,,,,,,wg-a,,,,AAXX 06214 07240 12/60 /2702 10080 20070 30170 40307 53009 60006 92100=
07240,1998-11-07 00:00:00,6,1030.3,-0.5,100,6,7000,0,,,0,,,,,,,,,,,wg-a,,,,AAXX 07004 07240 12/57 00000 10060 20060 30165 40303 56005 60006 80000 90000=
07240,1998-11-07 03:00:00,3,1029.9,-0.6,100,3,500,0,,,0,,,,,,,,,,45,wg-a,,,,AAXX 07034 07240 32/00 90000 10030 20030 30159 40299 58006 74541 89/// 90300=
07240,1998-11-07 09:00:00,6,1029.4,-0,100,6,100,7.408,,,110,,,,,,,,,,42,wg-a,,,,AAXX 07094 07240 32/01 01104 10060 20060 30156 40294 55000 74244 80000 90900=
07240,1998-11-07 12:00:00,9,1027.7,-1.5,100,9,8000,7.408,,,140,,,,,,,,,,1,wg-a,,,,AAXX 07124 07240 12358 51404 10090 20090 30141 40277 58015 60006 70141 84101 91200=
07240,1998-11-07 15:00:00,12,1025.1,-2.5,67,6,10000,22.224,,,110,,,,,,,,,,,wg-a,,,,AAXX 07154 07240 12/60 /1112 10120 20060 30116 40251 56025 60006 91500=
07240,1998-11-07 18:00:00,8,1025.3,0,87,6,20000,14.816,,,120,3.3,12.6,,,,,,,,,wg-a,,,,AAXX 07184 07240 12/70 11208 10080 20060 30116 40253 50000 60006 80001 91800 333 10126 20033=
07240,1998-11-07 21:00:00,5,1024.2,-1.2,100,5,20000,11.112,,,120,,,,,,,,,,,wg-a,,,,AAXX 07214 07240 12/70 11206 10050 20050 30104 40242 56012 60006 80001 92100=
07240,1998-11-08 00:00:00,3,1024.2,-0.1,100,3,12000,14.816,,,140,,,,,,,,,,,wg-a,,,,AAXX 08004 07240 12/62 21408 10030 20030 30103 40242 57001 60006 80001 90000=
07240,1998-11-08 03:00:00,4,1022.9,-1.2,93,3,12000,18.52,,,170,,,,0,,,,,,,wg-a,,,,AAXX 08034 07240 12/62 41710 10040 20030 30091 40229 57012 60007 80001 90300=
07240,1998-11-08 06:00:00,5,1023.6,0.7,87,3,15000,11.112,,,190,2.6,7.5,,,,,,,,,wg-a,,,,AAXX 08064 07240 02/65 71906 10050 20030 30098 40236 52007 60006 80008 90600 333 10075 20026 60004=
07240,1998-11-08 09:00:00,8,1024.2,0.8,71,3,25000,25.928,,,200,,,,,,,,,,,wg-a,,,,AAXX 08094 07240 12675 72014 10080 20030 30106 40242 53008 60006 8457/ 90900=
07240,1998-11-08 12:00:00,12,1023.6,-0.4,71,7,25000,22.224,,,200,,,,,,,,,,,wg-a,,,,AAXX 08124 07240 12675 72012 10120 20070 30102 40236 58004 60006 875// 91200=
07240,1998-11-08 15:00:00,14,1022.8,-0.8,67,8,25000,22.224,,,200,,,,,,,,,,,wg-a,,,,AAXX 08154 07240 12675 82012 10140 20080 30094 40228 56008 60006 875// 91500=
07240,1998-11-08 18:00:00,13,1023.5,0.7,72,8,25000,14.816,,,190,4.7,13.6,,,,,,,,,wg-a,,,,AAXX 08184 07240 12575 81908 10130 20080 30101 40235 53007 60006 875// 91800 333 10136 20047=
07240,1998-11-08 21:00:00,14,1023.5,-0,67,8,20000,18.52,,,200,,,,,,,,,,,wg-a,,,,AAXX 08214 07240 12670 /2010 10140 20080 30101 40235 54000 60006 85500 92100=
07240,1998-11-09 00:00:00,13,1023,-0.5,72,8,15000,18.52,,,190,,,,,,,,,,,wg-a,,,,AAXX 09004 07240 12665 71910 10130 20080 30096 40230 57005 60006 875// 90000=
07240,1998-11-09 03:00:00,11,1022,-1.1,82,8,15000,14.816,,,190,,,,,,,,,,,wg-a,,,,AAXX 09034 07240 12765 71908 10110 20080 30085 40220 56011 60006 875// 90300=
07240,1998-11-09 06:00:00,12,1021.2,-0.7,71,7,15000,25.928,,,190,10.8,14.1,,,,,,,,,wg-a,,,,AAXX 09064 07240 02765 81914 10120 20070 30078 40212 58007 60006 875// 90600 333 10141 20108 60004=
07240,1998-11-09 09:00:00,11,1022.3,1.1,87,9,12000,22.224,,,200,,,,1,,,,,,2,wg-a,,,,AAXX 09094 07240 12762 72012 10110 20090 30089 40223 51011 60017 70262 8557/ 90900=
07240,1998-11-09 12:00:00,15,1021.2,-1,77,11,15000,18.52,,,200,,,,,,,,,,3,wg-a,,,,AAXX 09124 07240 12465 72010 10150 20110 30079 40212 58010 60016 70362 8557/ 91200=
07240,1998-11-09 15:00:00,15,1019.8,-1.3,88,13,12000,25.928,,,210,,,,,,,,,,21,wg-a,,,,AAXX 09154 07240 02462 72114 10150 20130 30066 40198 56013 61000 72162 8657/ 91500 333 ////=
07240,1998-11-09 18:00:00,15,1020.5,0.7,100,15,6000,18.52,,,240,10.6,15.4,,,,,,,,51,wg-a,,,,AAXX 09184 07240 02256 82410 10150 20150 30073 40205 53007 61000 75165 877// 91800 333 10154 20106 6001=
07240,1998-11-09 21:00:00,13,1020.7,0.1,100,13,10000,11.112,,,250,,,,0,,,,,,3,wg-a,,,,AAXX 09214 07240 12660 /2506 10130 20130 30074 40207 52001 60007 70352 86500 92100=
07240,1998-11-10 00:00:00,12,1019.9,-0.9,100,12,10000,11.112,,,270,,,,,,,,,,3,wg-a,,,,AAXX 10004 07240 12660 /2706 10120 20120 30065 40199 56009 60006 70352 85500 90000=
07240,1998-11-10 06:00:00,12,1018.8,0.2,100,12,7000,11.112,,,260,11,14.7,,,,,,,,50,wg-a,,,,AAXX 10064 07240 02157 82606 10120 20120 30054 40188 53002 61000 75052 875// 90600 333 10147 20110 6002=
07240,1998-11-10 09:00:00,13,1019.5,0.8,94,12,9000,22.224,,,240,,,,,,,,,,1,wg-a,,,,AAXX 10094 07240 02259 82412 10130 20120 30062 40195 50008 61000 70152 876// 90900 333 ////=
07240,1998-11-10 12:00:00,14,1020.9,1.4,67,8,11000,29.632,,,320,,,,,,,,,,,wg-a,,,,AAXX 10124 07240 12/61 /3216 10140 20080 30076 40209 51014 60006 91200=
07240,1998-11-10 15:00:00,12,1022.7,1.7,71,7,500,29.632,,,330,,,,,,,,,,,wg-a,,,,AAXX 10154 07240 12600 43316 10120 20070 30093 40227 53017 60006 84800 91500=
07240,1998-11-10 18:00:00,9,1025.4,2.5,81,6,500,14.816,,,350,9,13.9,,,,,,,,,wg-a,,,,AAXX 10184 07240 12700 33508 10090 20060 30118 40254 53025 60006 83500 91800 333 10139 20090=
07240,1998-11-10 21:00:00,5,1027.3,1.7,93,4,500,7.408,,,310,,,,,,,,,,,wg-a,,,,AAXX 10214 07240 12/00 03104 10050 20040 30135 40273 53017 60006 80000 92100=
07240,1998-11-11 00:00:00,4,1028.6,1.2,100,4,0,3.704,,,310,,,,,,,,,,,wg-a,,,,AAXX 11004 07240 12/// /3102 10040 20040 30147 40286 51012 60006 90000=
07240,1998-11-11 03:00:00,2,1029.4,0.7,100,2,10000,7.408,,,290,,,,,,,,,,,wg-a,,,,AAXX 11034 07240 32/60 02904 10020 20020 30154 40294 51007 80000 90300=
07240,1998-11-11 06:00:00,1,1029.5,-0,100,1,10000,7.408,,,320,1,9.3,,,,,1,,,,wg-a,,,,AAXX 11064 07240 02/60 03204 10010 20010 30154 40295 55000 60006 80000 90600 333 10093 20010 60014=
07240,1998-11-11 09:00:00,5,1029.2,-0.1,100,5,10000,3.704,,,160,,,,,,,,,,1,wg-a,,,,AAXX 11094 07240 12/60 01602 10050 20050 30153 40292 55001 60006 70141 80000 90900=
07240,1998-11-11 12:00:00,12,1027.6,-1.2,62,5,10000,7.408,,,160,,,,0,,,,,,2,wg-a,,,,AAXX 11124 07240 02560 41604 10120 20050 30141 40276 58012 60006 70241 82101 91200 333 60007=
07240,1998-11-11 15:00:00,10,1024.4,-3.2,66,4,10000,3.704,,,160,,,,,,,,,,,wg-a,,,,AAXX 11154 07240 12560 31602 10100 20040 30109 40244 58032 60006 82101 91500=
07240,1998-11-11 18:00:00,6,1022.5,-2.1,87,4,10000,7.408,,,130,0.8,12,,,,,,,,,wg-a,,,,AAXX 11184 07240 12760 71304 10060 20040 30088 40225 57021 60006 8143/ 91800 333 10120 20008=
07240,1998-11-11 21:00:00,4,1019.4,-3.2,93,3,10000,3.704,,,150,,,,,,,,,,,wg-a,,,,AAXX 11214 07240 12760 41502 10040 20030 30056 40194 56032 60006 84500 92100=
07240,1998-11-12 00:00:00,4,1016.3,-3.1,93,3,8000,11.112,,,140,,,,,,,,,,,wg-a,,,,AAXX 12004 07240 12/58 81406 10040 20030 30025 40163 58031 60006 8802/ 90000=
07240,1998-11-12 03:00:00,3,1012.8,-3.4,100,3,8000,11.112,,,150,,,,,,,,,,,wg-a,,,,AAXX 12034 07240 12/58 71506 10030 20030 39991 40128 56034 60006 8707/ 90300=
07240,1998-11-12 06:00:00,4,1011.9,-0.9,93,3,7000,7.408,,,160,2.6,6.4,,,,,,,,51,wg-a,,,,AAXX 12064 07240 02357 81604 10040 20030 39982 40119 56009 61000 75165 865// 90600 333 10064 20026 6001=
07240,1998-11-12 12:00:00,10,1013.5,0.6,82,7,15000,22.224,,,290,,,,,,,,,,1,wg-a,,,,AAXX 12124 07240 12465 /2912 10100 20070 30001 40135 51006 60016 70165 85230 91200=
07240,1998-11-12 15:00:00,11,1014,0.5,71,6,25000,25.928,,,290,,,,,,,,,,15,wg-a,,,,AAXX 12154 07240 12575 52914 10110 20060 30006 40140 53005 60006 71522 84930 91500=
07240,1998-11-12 18:00:00,8,1015.7,1.6,76,4,25000,18.52,,,260,3.6,11,,,,,,,,,wg-a,,,,AAXX 12184 07240 12775 22610 10080 20040 30022 40157 52016 60006 82501 91800 333 10110 20036=
07240,1998-11-12 21:00:00,6,1016.5,0.6,87,4,15000,18.52,,,250,,,,,,,,,,,wg-a,,,,AAXX 12214 07240 12/65 02510 10060 20040 30028 40165 50006 60006 80000 92100=
07240,1998-11-13 00:00:00,5,1016.2,-0.3,87,3,15000,11.112,,,240,,,,,,,,,,,wg-a,,,,AAXX 13004 07240 12/65 02406 10050 20030 30025 40162 58003 60006 80000 90000=
07240,1998-11-13 03:00:00,4,1014.1,-2.1,93,3,15000,7.408,,,190,,,,,,,,,,,wg-a,,,,AAXX 13034 07240 12765 81904 10040 20030 30004 40141 58021 60006 8657/ 90300=
07240,1998-11-13 06:00:00,5,1012.7,-1.3,93,4,15000,11.112,,,190,3.7,7.8,,,,,1,,,,wg-a,,,,AAXX 13064 07240 02665 81906 10050 20040 39991 40127 58013 60006 8657/ 90600 333 10078 20037 60014=
07240,1998-11-13 09:00:00,6,1010.7,-2,100,6,12000,11.112,,,150,,,,0,,,,,,60,wg-a,,,,AAXX 13094 07240 12562 71506 10060 20060 39971 40107 58020 60007 76062 8457/ 90900=
07240,1998-11-13 12:00:00,9,1008,-2.4,87,7,15000,14.816,,,160,,,,,,,,,,21,wg-a,,,,AAXX 13124 07240 02465 71608 10090 20070 39947 40080 56024 60006 72162 8317/ 91200 333 61000=
07240,1998-11-13 15:00:00,5,1004.9,-1.3,93,4,15000,11.112,,,190,3.7,7.8,,,,,1,,,,wg-a,,,,AAXX 13154 07240 02665 81906 10050 20040 39914 40049 58013 60006 8657/ 91500 333 10078 20037 60014=
07240,1998-11-13 18:00:00,8,1003.7,-1.4,93,7,12000,18.52,,,120,4.7,8.8,,,,,,,,60,wg-a,,,,AAXX 13184 07240 02462 71210 10080 20070 39903 40037 58014 61000 76062 8357/ 91800 333 10088 20047 6002=
07240,1998-11-13 21:00:00,7,1002,-1.7,100,7,6000,25.928,,,140,,,,4,,,,,,61,wg-a,,,,AAXX 13214 07240 12256 81414 10070 20070 39886 40020 56017 60047 76166 876// 92100=
07240,1998-11-14 00:00:00,7,1000.6,-1.4,,,4000,7.408,,,120,,,,2,,,,,,51,wg-a,,,,AAXX 14004 07240 02140 81204 10070 2//// 39872 40006 56014 60066 75166 886// 90000 333 60027=
07240,1998-11-14 03:00:00,8,1002.2,1.6,93,7,9000,31.484,,,300,,,,0,,,,,,21,wg-a,,,,AAXX 14034 07240 12259 83017 10080 20070 39888 40022 53016 60007 72165 886// 90300=
07240,1998-11-14 06:00:00,8,1005.3,3.1,93,7,25000,25.928,,,280,7,8.7,,,,,9,,,1,wg-a,,,,AAXX 14064 07240 02475 /2814 10080 20070 39919 40053 53031 60006 70165 86800 90600 333 10087 20070 60094=
07240,1998-11-14 09:00:00,7,1007.6,2.2,87,5,500,29.632,,,270,,,,,,,,,,,wg-a,,,,AAXX 14094 07240 12400 22716 10070 20050 39941 40076 51022 60006 81130 90900=
07240,1998-11-14 12:00:00,9,1007.8,0.3,76,5,500,35.188,,,270,,,,,,,,,,,wg-a,,,,AAXX 14124 07240 12500 /2719 10090 20050 39944 40078 50003 60006 86200 91200=
07240,1998-11-14 15:00:00,8,1008.8,1,87,6,6000,35.188,,55.56,290,,,,0,,,,,,80,wg-a,,,,AAXX 14154 07240 12556 72919 10080 20060 39954 40088 53010 60007 78086 879// 91500 333 91030=
07240,1998-11-14 18:00:00,6,1011.1,2.1,93,5,20000,18.52,,,270,6.3,10.1,,0,,,,,,1,wg-a,,,,AAXX 14184 07240 02670 /2710 10060 20050 39975 40111 53021 60006 70186 81500 91800 333 10101 20063 60007=
07240,1998-11-14 21:00:00,5,1013.1,2,93,4,15000,14.816,,,260,,,,,,,,,,,wg-a,,,,AAXX 14214 07240 12665 /2608 10050 20040 39995 40131 51020 60006 81500 92100=
07240,1998-11-15 00:00:00,5,1014.1,0.9,93,4,11000,18.52,,,260,,,,,,,,,,,wg-a,,,,AAXX 15004 07240 12/61 /2610 10050 20040 30004 40141 51009 60006 90000=
07240,1998-11-15 03:00:00,4,1014.4,0.3,93,3,15000,18.52,,,250,,,,0,,,,,,,wg-a,,,,AAXX 15034 07240 12665 /2510 10040 20030 30007 40144 52003 60007 85500 90300=
07240,1998-11-15 06:00:00,5,1015.4,1,93,4,15000,18.52,,,270,3.9,6.6,,,,,1,,,,wg-a,,,,AAXX 15064 07240 02565 72710 10050 20040 30017 40154 53010 60006 865// 90600 333 10066 20039 60014=
07240,1998-11-15 09:00:00,6,1017.8,2.4,93,5,500,14.816,,,300,,,,,,,,,,,wg-a,,,,AAXX 15094 07240 12500 /3008 10060 20050 30041 40178 53024 60006 86800 90900=
07240,1998-11-15 12:00:00,9,1018.9,1.3,76,5,11000,14.816,,,330,,,,,,,,,,,wg-a,,,,AAXX 15124 07240 12/61 /3308 10090 20050 30054 40189 51013 60006 91200=
07240,1998-11-15 15:00:00,9,1020.2,1.3,71,4,500,18.52,,,300,,,,,,,,,,,wg-a,,,,AAXX 15154 07240 12500 63010 10090 20040 30067 40202 53013 60006 86800 91500=
07240,1998-11-15 21:00:00,5,1023.6,1.2,93,4,500,11.112,,,290,,,,,,,,,,,wg-a,,,,AAXX 15214 07240 12600 22906 10050 20040 30098 40236 51012 60006 82500 92100=
07240,1998-11-16 00:00:00,3,1024.1,0.4,93,2,20000,11.112,,,290,,,,,,,,,,,wg-a,,,,AAXX 16004 07240 12/70 02906 10030 20020 30102 40241 51004 60006 80000 90000=
07240,1998-11-16 03:00:00,2,1024.4,0.2,93,1,15000,11.112,,,270,,,,,,,,,,,wg-a,,,,AAXX 16034 07240 12665 22706 10020 20010 30104 40244 50002 60006 82500 90300=
07240,1998-11-16 06:00:00,1,1025.2,0.8,100,1,15000,11.112,,,300,1.3,6.1,,,,,,,,,wg-a,,,,AAXX 16064 07240 02665 23006 10010 20010 30112 40252 53008 60006 81530 90600 333 10061 20013 60004=
07240,1998-11-16 09:00:00,4,1027.3,2.2,93,3,15000,14.816,,,330,,,,,,,,,,,wg-a,,,,AAXX 16094 07240 12765 13308 10040 20030 30134 40273 52022 60006 81501 90900=
07240,1998-11-16 12:00:00,7,1027.9,0.8,66,1,17000,22.224,,,350,,,,,,,,,,,wg-a,,,,AAXX 16124 07240 12567 33512 10070 20010 30142 40279 51008 60006 83101 91200=
07240,1998-11-16 15:00:00,7,1028.2,0.2,66,1,20000,14.816,,,360,,,,,,,,,,,wg-a,,,,AAXX 16154 07240 12670 43608 10070 20010 30144 40282 53002 60006 84100 91500=
07240,1998-11-16 18:00:00,3,1029.4,1,81,0,18000,7.408,,,330,1.3,8,,,,,,,,,wg-a,,,,AAXX 16184 07240 12/68 23304 10030 20000 30154 40294 53010 60006 80001 91800 333 10080 20013=
07240,1998-11-17 00:00:00,0,1030.8,0.5,93,-1,12000,3.704,,,330,,,,,,,,,,,wg-a,,,,AAXX 17004 07240 12762 63302 10000 21010 30166 40308 50005 60006 86500 90000=
07240,1998-11-17 03:00:00,0,1030.1,-0.6,100,0,12000,3.704,,,60,,,,,,,,,,,wg-a,,,,AAXX 17034 07240 12762 60602 10000 20000 30160 40301 56006 60006 86500 90300=
07240,1998-11-17 06:00:00,1,1029.7,-0.4,100,1,10000,11.112,,,100,-0.4,3.6,,,,,,,,,wg-a,,,,AAXX 17064 07240 02760 71006 10010 20010 30156 40297 55004 60006 875// 90600 333 10036 21004 60004=
07240,1998-11-17 09:00:00,2,1030.3,0.7,100,2,8000,14.816,,,80,,,,,,,,,,,wg-a,,,,AAXX 17094 07240 12758 /0808 10020 20020 30163 40303 51007 60006 85530 90900=
07240,1998-11-17 12:00:00,6,1029.1,-1,75,2,15000,14.816,,,80,,,,,,,,,,,wg-a,,,,AAXX 17124 07240 12465 /0808 10060 20020 30153 40291 58010 60006 82131 91200=
07240,1998-11-17 15:00:00,5,1027.7,-1.5,75,1,20000,18.52,,,110,,,,,,,,,,,wg-a,,,,AAXX 17154 07240 12870 51110 10050 20010 30138 40277 56015 60006 815/2 91500=
07240,1998-11-17 18:00:00,2,1027.7,-0.1,93,1,15000,14.816,,,60,1.4,6.7,,,,,,,,,wg-a,,,,AAXX 17184 07240 12/65 50608 10020 20010 30137 40277 55001 60006 80002 91800 333 10067 20014=
07240,1998-11-17 21:00:00,1,1027.6,-0.1,75,-3,15000,22.224,,,80,,,,,,,,,,,wg-a,,,,AAXX 17214 07240 12/65 50812 10010 21030 30136 40276 58001 60006 80001 92100=
07240,1998-11-18 00:00:00,0,1027.4,-0.3,80,-3,12000,18.52,,,80,,,,,,,,,,,wg-a,,,,AAXX 18004 07240 12/62 30810 10000 21030 30133 40274 58003 60006 80001 90000=
07240,1998-11-18 06:00:00,0,1026.6,-0.7,80,-3,12000,14.816,,,70,-1,2.5,,,,,,,,,wg-a,,,,AAXX 18064 07240 02/62 80708 10000 21030 30125 40266 57007 60006 80002 90600 333 10025 21010 60004=
07240,1998-11-18 09:00:00,0,1027.7,1.1,80,-3,15000,18.52,,,60,,,,,,,,,,,wg-a,,,,AAXX 18094 07240 12/65 70610 10000 21030 30136 40277 52011 60006 8707/ 90900=
07240,1998-11-18 12:00:00,2,1027.2,-0.4,69,-3,15000,25.928,,,60,,,,,,,,,,,wg-a,,,,AAXX 18124 07240 12/65 70614 10020 21030 30132 40272 58004 60006 85072 91200=
07240,1998-11-18 15:00:00,3,1026.1,-1,70,-2,15000,25.928,,,60,,,,,,,,,,,wg-a,,,,AAXX 18154 07240 12/65 60614 10030 21020 30122 40261 58010 60006 80002 91500=
07240,1998-11-18 18:00:00,1,1027.2,0.9,80,-2,15000,14.816,,,50,-0.4,3.2,,,,,,,,,wg-a,,,,AAXX 18184 07240 12/65 30508 10010 21020 30131 40272 53009 60006 80002 91800 333 10032 21004=
07240,1998-11-18 21:00:00,-1,1028.5,1.2,93,-2,10000,11.112,,,50,,,,,,,,,,,wg-a,,,,AAXX 18214 07240 12/60 00506 11010 21020 30143 40285 53012 60006 80000 92100=
07240,1998-11-19 00:00:00,-1,1028,-0.5,93,-2,6000,11.112,,,50,,,,,,,,,,,wg-a,,,,AAXX 19004 07240 12/56 00506 11010 21020 30138 40280 56005 60006 80000 90000=
07240,1998-11-19 03:00:00,-2,1027.4,-0.6,93,-3,500,3.704,,,30,,,,,,,,,,,wg-a,,,,AAXX 19034 07240 12/00 00302 11020 21030 30132 40274 58006 60006 80000 90300=
07240,1998-11-19 06:00:00,-3,1027.8,0.3,100,-3,7000,0,,,0,-2.6,0.6,,,,,,,,,wg-a,,,,AAXX 19064 07240 02/57 00000 11030 21030 30135 40278 50003 60006 80000 90600 333 10006 21026 60004=
07240,1998-11-19 09:00:00,-1,1028.7,1,100,-1,500,7.408,,,100,,,,,,,,,,,wg-a,,,,AAXX 19094 07240 12/00 /1004 11010 21010 30145 40287 52010 60006 80001 90900=
07240,1998-11-19 12:00:00,4,1028.3,-0.1,70,-1,10000,3.704,,,40,,,,0,,,,,,,wg-a,,,,AAXX 19124 07240 02/60 40402 10040 21010 30144 40283 58001 60006 82031 91200 333 60007=
07240,1998-11-19 15:00:00,6,1027.4,-0.8,56,-2,20000,3.704,,,90,,,,,,,,,,,wg-a,,,,AAXX 19154 07240 12/70 60902 10060 21020 30136 40274 57008 60006 84031 91500=
07240,1998-11-19 18:00:00,1,1028.4,0.7,80,-2,15000,3.704,,,70,-3.4,6,,,,,,,,,wg-a,,,,AAXX 19184 07240 12/65 30702 10010 21020 30143 40284 53007 60006 80001 91800 333 10060 21034=
07240,1998-11-19 21:00:00,-1,1029.5,1,93,-2,15000,3.704,,,360,,,,,,,,,,,wg-a,,,,AAXX 19214 07240 12/65 03602 11010 21020 30153 40295 53010 60006 80000 92100=
07240,1998-11-20 00:00:00,-2,1029.7,0.2,93,-3,10000,3.704,,,360,,,,,,,,,,,wg-a,,,,AAXX 20004 07240 12/60 03602 11020 21030 30155 40297 53002 60006 80000 90000=
07240,1998-11-20 03:00:00,0,1030.2,0.6,93,-1,8000,11.112,,,80,,,,,,,,,,,wg-a,,,,AAXX 20034 07240 12458 80806 10000 21010 30161 40302 53006 60006 885// 90300=
07240,1998-11-20 06:00:00,0,1031.4,1.2,93,-1,6000,18.52,,,70,-1.9,1,,,,,,,,,wg-a,,,,AAXX 20064 07240 02356 80710 10000 21010 30173 40314 51012 60006 886// 90600 333 10010 21019 60004=
07240,1998-11-20 09:00:00,0,1033.2,1.7,86,-2,8000,22.224,,,90,,,,,,,,,,,wg-a,,,,AAXX 20094 07240 12358 70912 10000 21020 30190 40332 53017 60006 876// 90900=
07240,1998-11-20 12:00:00,2,1033.4,0.3,80,-1,15000,11.112,,,60,,,,,,,,,,,wg-a,,,,AAXX 20124 07240 12465 30606 10020 21010 30193 40334 50003 60006 82101 91200=
07240,1998-11-20 15:00:00,2,1034,0.6,80,-1,15000,18.52,,,70,,,,,,,,,,,wg-a,,,,AAXX 20154 07240 12465 30710 10020 21010 30199 40340 53006 60006 82501 91500=
07240,1998-11-20 18:00:00,-1,1035.1,0.9,86,-3,10000,22.224,,,70,-0.8,3,,,,,,,,,wg-a,,,,AAXX 20184 07240 12360 30712 11010 21030 30208 40351 53009 60006 83600 91800 333 10030 21008=
07240,1998-11-21 00:00:00,-3,1036.4,0.6,93,-4,10000,14.816,,,70,,,,,,,,,,,wg-a,,,,AAXX 21004 07240 12/60 00708 11030 21040 30220 40364 51006 60006 80000 90000=
07240,1998-11-21 06:00:00,-4,1035.7,-0.4,86,-6,10000,18.52,,,80,-4.4,-0.8,,,,,,,,,wg-a,,,,AAXX 21064 07240 02/60 00810 11040 21060 30212 40357 58004 60006 80000 90600 333 11008 21044 60004=
07240,1998-11-21 09:00:00,-3,1036.6,1,80,-6,15000,18.52,,,80,,,,,,,,,,,wg-a,,,,AAXX 21094 07240 12/65 10810 11030 21060 30222 40366 53010 60006 80001 90900=
07240,1998-11-21 12:00:00,1,1035.1,-1.3,64,-5,20000,18.52,,,80,,,,,,,,,,,wg-a,,,,AAXX 21124 07240 12/70 00810 10010 21050 30209 40351 58013 60006 80000 91200=
07240,1998-11-21 15:00:00,2,1033.4,-1.6,64,-4,25000,18.52,,,40,,,,,,,,,,,wg-a,,,,AAXX 21154 07240 12/75 10410 10020 21040 30193 40334 56016 60006 80001 91500=
07240,1998-11-21 18:00:00,-1,1032.4,-1.1,80,-4,20000,14.816,,,60,-4.5,2.4,,,,,,,,,wg-a,,,,AAXX 21184 07240 12/70 20608 11010 21040 30182 40324 58011 60006 80001 91800 333 10024 21045=
07240,1998-11-21 21:00:00,-2,1031.7,-0.8,80,-5,20000,7.408,,,30,,,,0,,,,,,,wg-a,,,,AAXX 21214 07240 12/70 10304 11020 21050 30174 40317 56008 60007 80001 92100=
07240,1998-11-22 00:00:00,-4,1030.2,-1.6,86,-6,15000,11.112,,,70,,,,,,,,,,,wg-a,,,,AAXX 22004 07240 12/65 10706 11040 21060 30158 40302 56016 60006 80001 90000=
07240,1998-11-22 03:00:00,-5,1028.8,-1.4,93,-6,10000,18.52,,,70,,,,,,,,,,,wg-a,,,,AAXX 22034 07240 12/60 /0710 11050 21060 30144 40288 57014 60006 90300=
07240,1998-11-22 06:00:00,-6,1027.6,-1.2,93,-7,15000,14.816,,,70,-5.6,-0.7,,,,,,,,,wg-a,,,,AAXX 22064 07240 02/65 00708 11060 21070 30132 40276 58012 60006 80000 90600 333 11007 21056 60004=
07240,1998-11-22 09:00:00,-5,1027.1,-0.5,86,-7,12000,22.224,,,90,,,,,,,,,,,wg-a,,,,AAXX 22094 07240 12/62 00912 11050 21070 30127 40271 58005 60006 80000 90900=
07240,1998-11-22 12:00:00,-2,1025.9,-1,69,-7,10000,7.408,,,90,,,,,,,,,,,wg-a,,,,AAXX 22124 07240 12/60 /0904 11020 21070 30117 40259 58010 60006 91200=
07240,1998-11-22 15:00:00,0,1023.4,-2.4,64,-6,15000,14.816,,,100,,,,,,,,,,,wg-a,,,,AAXX 22154 07240 12/65 11008 10000 21060 30093 40234 56024 60006 80001 91500=
07240,1998-11-22 18:00:00,-3,1023.5,0,80,-6,15000,11.112,,,90,-6,-0.2,,,,,,,,,wg-a,,,,AAXX 22184 07240 12/65 10906 11030 21060 30093 40235 50000 60006 80001 91800 333 11002 21060=
07240,1998-11-23 00:00:00,-4,1022.4,-0.3,80,-7,10000,14.816,,,70,,,,,,,,,,,wg-a,,,,AAXX 23004 07240 12/60 40708 11040 21070 30081 40224 58003 60006 80001 90000=
07240,1998-11-23 06:00:00,-6,1022.5,0.5,93,-7,8000,7.408,,,60,-5.8,-3.2,,,,,,,,,wg-a,,,,AAXX 23064 07240 02/58 30604 11060 21070 30082 40225 53005 60006 80001 90600 333 11032 21058 60004=
07240,1998-11-23 09:00:00,-5,1023.5,1,86,-7,6000,14.816,,,70,,,,,,,,,,,wg-a,,,,AAXX 23094 07240 12/56 30708 11050 21070 30092 40235 53010 60006 81031 90900=
07240,1998-11-23 12:00:00,-1,1023.8,0.5,74,-5,10000,7.408,,,80,,,,,,,,,,,wg-a,,,,AAXX 23124 07240 12/60 20804 11010 21050 30097 40238 50005 60006 80001 91200=
07240,1998-11-23 15:00:00,1,1023.3,-0.4,69,-4,12000,3.704,,,30,,,,,,,,,,,wg-a,,,,AAXX 23154 07240 12/62 20302 10010 21040 30093 40233 55004 60006 81031 91500=
07240,1998-11-23 18:00:00,-2,1024.1,0.6,80,-5,7000,3.704,,,50,-5.9,1.1,,,,,,,,,wg-a,,,,AAXX 23184 07240 12/57 00502 11020 21050 30099 40241 51006 60006 80000 91800 333 10011 21059=
07240,1998-11-23 21:00:00,-4,1024.9,0.7,93,-5,500,7.408,,,20,,,,,,,,,,,wg-a,,,,AAXX 23214 07240 12/00 00204 11040 21050 30106 40249 51007 60006 80000 92100=
07240,1998-11-24 00:00:00,-6,1025.1,0.1,93,-7,4000,0,,,0,,,,,,,,,,10,wg-a,,,,AAXX 24004 07240 12/40 00000 11060 21070 30107 40251 50001 60006 71000 80000 90000=
07240,1998-11-24 03:00:00,-7,1024.6,-0.5,93,-8,2500,3.704,,,310,,,,,,,,,,10,wg-a,,,,AAXX 24034 07240 12/25 03102 11070 21080 30102 40246 56005 60006 71000 80000 90300=
07240,1998-11-24 06:00:00,-7,1025,0.4,93,-8,2500,0,,,0,-7.1,-2,,,,,,,,10,wg-a,,,,AAXX 24064 07240 02/25 00000 11070 21080 30106 40250 50004 60006 71000 80000 90600 333 11020 21071 60004=
07240,1998-11-24 09:00:00,-5,1025,0.1,93,-6,2000,7.408,,,130,,,,,,,,,,10,wg-a,,,,AAXX 24094 07240 12/20 /1304 11050 21060 30107 40250 53001 60006 71011 81032 90900=
07240,1998-11-24 12:00:00,1,1023.8,-0.9,80,-2,3000,11.112,,,170,,,,,,,,,,10,wg-a,,,,AAXX 24124 07240 12730 71706 10010 21020 30098 40238 58009 60006 71011 8653/ 91200=
07240,1998-11-24 15:00:00,3,1022.7,-1,65,-3,8000,7.408,,,170,,,,,,,,,,,wg-a,,,,AAXX 24154 07240 12558 71704 10030 21030 30088 40227 56010 60006 8457/ 91500=
07240,1998-11-24 18:00:00,2,1022.2,-0.5,75,-2,6000,11.112,,,160,-7.1,3,,,,,,,,60,wg-a,,,,AAXX 24184 07240 02456 71606 10020 21020 30083 40222 56005 61000 76062 875// 91800 333 10030 21071 6100=
07240,1998-11-24 21:00:00,2,1020.5,-1.7,87,0,6000,18.52,,,170,,,,,,,,,,,wg-a,,,,AAXX 24214 07240 32/56 /1710 10020 20000 30066 40205 58017 92100=
07240,1998-11-25 00:00:00,3,1018,-2.4,100,3,4000,14.816,,,170,,,,,,,,,,51,wg-a,,,,AAXX 25004 07240 02340 81708 10030 20030 30042 40180 58024 61000 75166 887// 90000 333 6100=
07240,1998-11-25 03:00:00,4,1016.2,-1.7,100,4,2000,0,,,0,,,,,,,,,,51,wg-a,,,,AAXX 25034 07240 02120 80000 10040 20040 30025 40162 56017 61000 75165 887// 90300 333 ////=
07240,1998-11-25 06:00:00,3,1014.7,-1.6,,,200,3.704,,,150,1.5,3.9,,,,,,,,45,wg-a,,,,AAXX 25064 07240 02/02 91502 10030 2//// 30009 40147 56016 60006 74565 89/// 90600 333 10039 20015 60004=
07240,1998-11-25 09:00:00,4,1014.9,0.3,100,4,200,14.816,,,270,,,,,,,,,,43,wg-a,,,,AAXX 25094 07240 12/02 92708 10040 20040 30012 40149 51003 60006 74344 89/// 90900=
07240,1998-11-25 12:00:00,6,1014.9,0.1,100,6,2500,18.52,,,300,,,,,,,,,,10,wg-a,,,,AAXX 25124 07240 02225 83010 10060 20060 30013 40149 53001 61000 71054 877// 91200 333 6100=
07240,1998-11-25 15:00:00,7,1016.5,1.6,93,6,7000,7.408,,,340,,,,,,,,,,,wg-a,,,,AAXX 25154 07240 12457 83404 10070 20060 30029 40165 53016 60006 875// 91500=
07240,1998-11-25 18:00:00,6,1019.1,2.5,87,4,10000,14.816,,,310,2.9,7.6,,,,,,,,,wg-a,,,,AAXX 25184 07240 12560 /3108 10060 20040 30054 40191 51025 60006 86500 91800 333 10076 20029=
07240,1998-11-25 21:00:00,3,1020.9,1.6,93,2,10000,7.408,,,270,,,,,,,,,,,wg-a,,,,AAXX 25214 07240 12/60 02704 10030 20020 30070 40209 51016 60006 80000 92100=
07240,1998-11-26 00:00:00,3,1021.8,0.9,93,2,10000,7.408,,,270,,,,,,,,,,,wg-a,,,,AAXX 26004 07240 12760 72704 10030 20020 30079 40218 51009 60006 8553/ 90000=
07240,1998-11-26 03:00:00,3,1022.2,0.4,100,3,800,3.704,,,290,,,,,,,,,,44,wg-a,,,,AAXX 26034 07240 12408 72902 10030 20030 30083 40222 53004 60006 74442 876// 90300=
07240,1998-11-26 06:00:00,4,1023.6,1.5,100,4,1500,7.408,,,310,2.1,5.8,,,,,,,,10,wg-a,,,,AAXX 26064 07240 02115 83104 10040 20040 30098 40236 53015 60006 71042 886// 90600 333 10058 20021 61000=
07240,1998-11-26 09:00:00,5,1025.6,2,100,5,100,14.816,,,310,,,,,,,,,,45,wg-a,,,,AAXX 26094 07240 12/01 93108 10050 20050 30118 40256 51020 60006 74542 89/// 90900=
07240,1998-11-26 12:00:00,7,1025.3,-0.2,100,7,8000,7.408,,,300,,,,,,,,,,1,wg-a,,,,AAXX 26124 07240 12258 83004 10070 20070 30116 40253 58002 60006 70142 886// 91200=
07240,1998-11-26 15:00:00,8,1025.4,0.1,93,7,8000,11.112,,,250,,,,,,,,,,,wg-a,,,,AAXX 26154 07240 12358 72506 10080 20070 30117 40254 53001 60006 856// 91500=
07240,1998-11-26 18:00:00,8,1024.8,-0.6,93,7,10000,14.816,,,250,3.9,8,,,,,,,,,wg-a,,,,AAXX 26184 07240 12460 72508 10080 20070 30111 40248 56006 60006 8657/ 91800 333 10080 20039=
07240,1998-11-26 21:00:00,8,1024.3,-0.5,93,7,8000,18.52,,,240,,,,,,,,,,,wg-a,,,,AAXX 26214 07240 12558 82410 10080 20070 30106 40243 58005 60006 875// 92100=
07240,1998-11-27 00:00:00,8,1022.8,-1.4,93,7,10000,22.224,,,270,,,,,,,,,,,wg-a,,,,AAXX 27004 07240 12460 82712 10080 20070 30092 40228 58014 60006 875// 90000=
07240,1998-11-27 03:00:00,8,1022.5,-0.3,93,7,8000,14.816,,,280,,,,,,,,,,,wg-a,,,,AAXX 27034 07240 12358 82808 10080 20070 30089 40225 58003 60006 877// 90300=
07240,1998-11-27 06:00:00,8,1022,-0.5,93,7,7000,18.52,,,290,7.4,8.4,,,,,,,,,wg-a,,,,AAXX 27064 07240 02357 82910 10080 20070 30084 40220 56005 60006 877// 90600 333 10084 20074 60004=
07240,1998-11-27 09:00:00,9,1023,1,93,8,7000,18.52,,,300,,,,,,,,,,,wg-a,,,,AAXX 27094 07240 12257 83010 10090 20080 30094 40230 53010 60006 876// 90900=
07240,1998-11-27 12:00:00,10,1022.5,-0.4,93,9,8000,14.816,,,300,,,,,,,,,,51,wg-a,,,,AAXX 27124 07240 02358 83008 10100 20090 30090 40225 58004 61000 75152 876// 91200 333 6100=
07240,1998-11-27 15:00:00,10,1021.7,-0.8,93,9,3000,11.112,,,280,,,,1,,,,,,60,wg-a,,,,AAXX 27154 07240 12230 82806 10100 20090 30082 40217 57008 60017 76065 877// 91500=
07240,1998-11-27 18:00:00,9,1021.8,0,100,9,4000,3.704,,,290,7.7,10,,,,,,,,51,wg-a,,,,AAXX 27184 07240 02140 82902 10090 20090 30082 40218 50000 61000 75165 877// 91800 333 10100 20077 6000=
07240,1998-11-27 21:00:00,8,1021.9,0.1,100,8,6000,7.408,,,130,,,,0,,,,,,20,wg-a,,,,AAXX 27214 07240 12156 81304 10080 20080 30083 40219 52001 60007 72065 877// 92100=
07240,1998-11-28 00:00:00,8,1021.3,-0.6,100,8,6000,3.704,,,160,,,,,,,,,,1,wg-a,,,,AAXX 28004 07240 12456 81602 10080 20080 30077 40213 56006 60006 70165 877// 90000=
07240,1998-11-28 06:00:00,7,1020.2,-0.6,100,7,6000,11.112,,,180,7.1,9,,,,,,,,51,wg-a,,,,AAXX 28064 07240 02156 81806 10070 20070 30066 40202 56006 61000 75152 877// 90600 333 10090 20071 6002=
07240,1998-11-28 12:00:00,10,1018.1,-1.2,93,9,6000,14.816,,,200,,,,,,,,,,,wg-a,,,,AAXX 28124 07240 12/56 /2008 10100 20090 30046 40181 58012 60016 91200=
07240,1998-11-28 15:00:00,11,1015.5,-2.5,94,10,3000,14.816,,,190,,,,,,,,,,60,wg-a,,,,AAXX 28154 07240 02330 81908 10110 20100 30021 40155 56025 61000 76062 885// 91500 333 ////=
07240,1998-11-28 18:00:00,9,1014.5,-1.1,93,8,4500,25.928,,,310,7.1,10.8,,,,,,,,,wg-a,,,,AAXX 28184 07240 12/45 /3114 10090 20080 30010 40145 55011 60006 91800 333 10108 20071=
07240,1998-11-28 21:00:00,8,1015.4,0.9,93,7,10000,18.52,,,300,,,,,,,,,,21,wg-a,,,,AAXX 28214 07240 02460 73010 10080 20070 30019 40154 50009 61000 72162 877// 92100 333 ////=
07240,1998-11-29 00:00:00,5,1016.6,1,100,5,10000,14.816,,,280,,,,,,,,,,1,wg-a,,,,AAXX 29004 07240 02760 22808 10050 20050 30029 40166 53010 61000 70161 825/0 90000 333 ////=
07240,1998-11-29 06:00:00,2,1017.6,0.6,100,2,15000,7.408,,,300,1.8,8.9,,,,,5,,,,wg-a,,,,AAXX 29064 07240 02565 /3004 10020 20020 30037 40176 53006 60006 81500 90600 333 10089 20018 60054=
07240,1998-11-29 09:00:00,3,1018.9,1.4,100,3,10000,11.112,,,310,,,,,,,,,,,wg-a,,,,AAXX 29094 07240 12460 33106 10030 20030 30051 40189 53014 60006 83802 90900=
07240,1998-11-29 12:00:00,7,1019,0.3,87,5,20000,14.816,,,320,,,,,,,,,,,wg-a,,,,AAXX 29124 07240 12470 /3208 10070 20050 30054 40190 52003 60006 81251 91200=
07240,1998-11-29 15:00:00,8,1019.1,0.1,76,4,35000,18.52,,,340,,,,,,,,,,,wg-a,,,,AAXX 29154 07240 12581 53410 10080 20040 30055 40191 53001 60006 81231 91500=
07240,1998-11-29 18:00:00,5,1020.8,1.5,87,3,500,14.816,,,330,1.2,8.5,,,,,,,,,wg-a,,,,AAXX 29184 07240 12/00 23308 10050 20030 30070 40208 51015 60006 82031 91800 333 10085 20012=
07240,1998-11-29 21:00:00,2,1022,1.1,93,1,20000,11.112,,,310,,,,,,,,,,,wg-a,,,,AAXX 29214 07240 12/70 13106 10020 20010 30081 40220 51011 60006 81030 92100=
07240,1998-11-30 00:00:00,2,1022.7,0.7,93,1,15000,11.112,,,330,,,,,,,,,,,wg-a,,,,AAXX 30004 07240 12/65 23306 10020 20010 30088 40227 52007 60006 80001 90000=
07240,1998-11-30 03:00:00,1,1022.6,-0.2,100,1,15000,11.112,,,290,,,,,,,,,,,wg-a,,,,AAXX 30034 07240 12/65 22906 10010 20010 30086 40226 56002 60006 80001 90300=
07240,1998-11-30 06:00:00,1,1022.4,-0.2,100,1,15000,14.816,,,330,0.2,4.7,,,,,,,,,wg-a,,,,AAXX 30064 07240 02665 23308 10010 20010 30084 40224 55002 60006 81501 90600 333 10047 20002 60004=
07240,1998-11-30 09:00:00,3,1023.3,1,93,2,12000,14.816,,,340,,,,,,,,,,,wg-a,,,,AAXX 30094 07240 12462 73408 10030 20020 30094 40233 51010 60006 875// 90900=
07240,1998-11-30 12:00:00,4,1024.2,0.9,75,0,15000,22.224,,,20,,,,,,,,,,,wg-a,,,,AAXX 30124 07240 12465 70212 10040 20000 30103 40242 51009 60006 875// 91200=
07240,1998-11-30 15:00:00,3,1025,0.8,81,0,10000,18.52,,,30,,,,,,,,,,50,wg-a,,,,AAXX 30154 07240 02360 80310 10030 20000 30111 40250 53008 61000 75052 875// 91500 333 ////=
07240,1998-11-30 18:00:00,2,1026.8,1.7,80,-1,8000,22.224,,,40,0.7,4.7,,,,,,,,3,wg-a,,,,AAXX 30184 07240 02458 80412 10020 21010 30128 40268 53017 60006 70352 875// 91800 333 10047 20007 61000=
07240,1998-11-30 21:00:00,2,1027.4,0.6,80,-1,10000,18.52,,,30,,,,,,,,,,,wg-a,,,,AAXX 30214 07240 12460 80310 10020 21010 30134 40274 51006 60006 875// 92100=
07240,1998-12-01 00:00:00,2,1027.6,0.2,87,0,6000,18.52,,,40,,,,,,,,,,20,wg-a,,,,AAXX 01004 07240 02456 80410 10020 20000 30136 40276 53002 61000 72052 876// 90000 333 6100=
07240,1998-12-01 03:00:00,1,1027.9,0.3,86,-1,10000,25.928,,,50,,,,,,,,,,,wg-a,,,,AAXX 01034 07240 12460 80514 10010 21010 30139 40279 53003 60006 875// 90300=
07240,1998-12-01 06:00:00,0,1028.7,0.7,86,-2,10000,18.52,,,50,0.1,2.3,,,,,,,,,wg-a,,,,AAXX 01064 07240 02560 /0510 10000 21020 30146 40287 53007 60006 81500 90600 333 10023 20001 61000=
07240,1998-12-01 09:00:00,2,1030,1.3,80,-1,10000,25.928,,,50,,,,,,,,,,,wg-a,,,,AAXX 01094 07240 12460 80514 10020 21010 30159 40300 51013 60006 875// 90900=
07240,1998-12-01 12:00:00,2,1029.8,-0.1,87,0,12000,22.224,,,50,,,,,,,,,,,wg-a,,,,AAXX 01124 07240 12462 80512 10020 20000 30158 40298 58001 60006 875// 91200=
07240,1998-12-01 15:00:00,2,1029.1,-0.7,80,-1,12000,22.224,,,60,,,,,,,,,,,wg-a,,,,AAXX 01154 07240 12462 80612 10020 21010 30151 40291 56007 60006 885// 91500=
07240,1998-12-01 18:00:00,2,1028.7,-0.4,80,-1,10000,25.928,,,40,0.1,2.7,,,,,,,,,wg-a,,,,AAXX 01184 07240 12460 80414 10020 21010 30147 40287 56004 60006 885// 91800 333 10027 20001=
07240,1998-12-01 21:00:00,2,1028.3,-0.4,75,-2,10000,29.632,,,70,,,,,,,,,,,wg-a,,,,AAXX 01214 07240 12460 80716 10020 21020 30143 40283 56004 60006 885// 92100=
07240,1998-12-02 00:00:00,1,1027.7,-0.7,80,-2,10000,22.224,,,70,,,,,,,,,,,wg-a,,,,AAXX 02004 07240 12460 80712 10010 21020 30136 40277 58007 60006 885// 90000=
07240,1998-12-02 03:00:00,0,1026.8,-0.9,86,-2,10000,22.224,,,70,,,,,,,,,,,wg-a,,,,AAXX 02034 07240 12460 80712 10000 21020 30127 40268 56009 60006 885// 90300=
07240,1998-12-02 06:00:00,0,1026.4,-0.4,80,-3,10000,22.224,,,70,-0.1,1.8,,,,,,,,,wg-a,,,,AAXX 02064 07240 02460 80712 10000 21030 30123 40264 56004 60006 885// 90600 333 10018 21001 60004=
07240,1998-12-02 09:00:00,-1,1026.4,0,86,-3,9000,18.52,,,60,,,,,,,,,,,wg-a,,,,AAXX 02094 07240 12459 80610 11010 21030 30123 40264 50000 60006 885// 90900=
07240,1998-12-02 12:00:00,-1,1025.7,-0.7,86,-3,9000,14.816,,,50,,,,,,,,,,,wg-a,,,,AAXX 02124 07240 12459 80508 11010 21030 30116 40257 58007 60006 885// 91200=
07240,1998-12-02 15:00:00,-1,1024,-1.7,86,-3,8000,14.816,,,60,,,,,,,,,,,wg-a,,,,AAXX 02154 07240 12458 80608 11010 21030 30099 40240 57017 60006 885// 91500=
07240,1998-12-02 18:00:00,-1,1023.8,-0.2,86,-3,9000,14.816,,,60,-0.8,-0.1,,,,,,,,,wg-a,,,,AAXX 02184 07240 12559 80608 11010 21030 30097 40238 58002 60006 885// 91800 333 11001 21008=
07240,1998-12-02 21:00:00,-1,1023.8,0,86,-3,7000,14.816,,,70,,,,,,,,,,,wg-a,,,,AAXX 02214 07240 12457 80708 11010 21030 30097 40238 50000 60006 885// 92100=
07240,1998-12-03 00:00:00,-1,1023.1,-0.7,86,-3,6000,11.112,,,60,,,,,,,,,,,wg-a,,,,AAXX 03004 07240 12456 80606 11010 21030 30090 40231 57007 60006 885// 90000=
07240,1998-12-03 03:00:00,-1,1021.9,-1.2,93,-2,6000,11.112,,,70,,,,,,,,,,,wg-a,,,,AAXX 03034 07240 12356 80706 11010 21020 30078 40219 56012 60006 885// 90300=
07240,1998-12-03 06:00:00,-1,1020.3,-1.5,93,-2,6000,14.816,,,50,-0.9,-0.7,,,,,,,,,wg-a,,,,AAXX 03064 07240 02456 80508 11010 21020 30063 40203 57015 60006 875// 90600 333 11007 21009 60004=
07240,1998-12-03 09:00:00,0,1020.1,-0.2,86,-2,7000,18.52,,,50,,,,,,,,,,,wg-a,,,,AAXX 03094 07240 12557 80510 10000 21020 30061 40201 58002 60006 875// 90900=
07240,1998-12-03 12:00:00,1,1019.1,-1,86,-1,8000,11.112,,,50,,,,,,,,,,,wg-a,,,,AAXX 03124 07240 12458 80506 10010 21010 30051 40191 58010 60006 875// 91200=
07240,1998-12-03 15:00:00,1,1016.9,-2.1,86,-1,7000,14.816,,,50,,,,,,,,,,,wg-a,,,,AAXX 03154 07240 12657 70508 10010 21010 30030 40169 56021 60006 875// 91500=
07240,1998-12-03 21:00:00,0,1016.2,-0.8,86,-2,8000,11.112,,,40,,,,,,,,,,,wg-a,,,,AAXX 03214 07240 12658 70406 10000 21020 30023 40162 58008 60006 875// 92100=
07240,1998-12-04 00:00:00,0,1015.2,-1,86,-2,8000,11.112,,,20,,,,,,,,,,,wg-a,,,,AAXX 04004 07240 12558 70206 10000 21020 30013 40152 58010 60006 875// 90000=
07240,1998-12-04 03:00:00,-1,1014.2,-1.1,93,-2,8000,3.704,,,70,,,,,,,,,,,wg-a,,,,AAXX 04034 07240 12558 70702 11010 21020 30002 40142 58011 60006 875// 90300=
07240,1998-12-04 06:00:00,0,1013.9,-0.2,86,-2,8000,11.112,,,330,-0.6,0.5,,,,,,,,,wg-a,,,,AAXX 04064 07240 02558 83306 10000 21020 30000 40139 55002 60006 875// 90600 333 10005 21006 60004=
07240,1998-12-04 12:00:00,2,1013.5,-0.6,87,0,10000,14.816,,,300,,,,,,,,,,,wg-a,,,,AAXX 04124 07240 12460 83008 10020 20000 39997 40135 58006 60006 875// 91200=
07240,1998-12-04 15:00:00,3,1013.3,-0.2,87,1,9000,11.112,,,270,,,,,,,,,,,wg-a,,,,AAXX 04154 07240 12459 82706 10030 20010 39995 40133 55002 60006 875// 91500=
07240,1998-12-04 18:00:00,2,1015.1,1.8,100,2,4000,11.112,,,310,-0.3,2.9,,,,,,,,10,wg-a,,,,AAXX 04184 07240 02240 83106 10020 20020 30013 40151 53018 61000 71052 877// 91800 333 10029 21003 6100=
07240,1998-12-04 21:00:00,1,1016.7,1.5,93,0,3500,11.112,,,320,,,,,,,,,,10,wg-a,,,,AAXX 04214 07240 32/35 03206 10010 20000 30028 40167 53015 71065 80000 92100=
07240,1998-12-05 00:00:00,-1,1017.7,0.9,100,-1,100,11.112,,,310,,,,,,,,,,46,wg-a,,,,AAXX 05004 07240 02/01 03106 11010 21010 30037 40177 51009 61000 74665 80000 90000 333 ////=
07240,1998-12-05 03:00:00,-1,1018,0.3,100,-1,400,7.408,,,290,,,,,,,,,,10,wg-a,,,,AAXX 05034 07240 12704 /2904 11010 21010 30040 40180 52003 60006 71044 85500 90300=
07240,1998-12-05 06:00:00,0,1018.4,0.4,93,-1,4000,14.816,,,280,-0.8,2.4,,,,,,,,10,wg-a,,,,AAXX 05064 07240 02740 32808 10000 21010 30044 40184 53004 60006 71041 83500 90600 333 10024 21008 61000=
07240,1998-12-05 09:00:00,-1,1020.1,1.7,100,-1,4500,7.408,,,280,,,,,,,,,,10,wg-a,,,,AAXX 05094 07240 12745 32804 11010 21010 30061 40201 53017 60006 71000 83500 90900=
07240,1998-12-05 12:00:00,5,1020.3,0.4,70,0,15000,18.52,,,290,,,,,,,,,,,wg-a,,,,AAXX 05124 07240 12565 32910 10050 20000 30065 40203 50004 60006 82801 91200=
07240,1998-12-05 15:00:00,6,1019.6,-0.6,70,1,15000,18.52,,,270,,,,,,,,,,,wg-a,,,,AAXX 05154 07240 12565 /2710 10060 20010 30059 40196 57006 60006 81101 91500=
07240,1998-12-05 18:00:00,4,1019.8,0.1,87,2,15000,22.224,,,260,-1.3,5.8,,,,,,,,,wg-a,,,,AAXX 05184 07240 12665 72612 10040 20020 30060 40198 51001 60006 875// 91800 333 10058 21013=
07240,1998-12-05 21:00:00,5,1020.1,0.3,81,2,15000,22.224,,,270,,,,,,,,,,,wg-a,,,,AAXX 05214 07240 12765 72712 10050 20020 30063 40201 51003 60006 875// 92100=
07240,1998-12-06 00:00:00,3,1020.3,0.2,93,2,15000,18.52,,,280,,,,,,,,,,,wg-a,,,,AAXX 06004 07240 12765 42810 10030 20020 30065 40203 53002 60006 84500 90000=
07240,1998-12-06 03:00:00,3,1021.3,0.9,93,2,15000,14.816,,,290,,,,,,,,,,50,wg-a,,,,AAXX 06034 07240 02465 82908 10030 20020 30074 40213 53009 61000 75051 887// 90300 333 ////=
07240,1998-12-06 06:00:00,3,1022.8,1.5,93,2,8000,11.112,,,340,2.5,4.5,,,,,,,,1,wg-a,,,,AAXX 06064 07240 02258 73406 10030 20020 30089 40228 53015 60006 70151 876// 90600 333 10045 20025 61000=
07240,1998-12-06 09:00:00,0,1025.6,2.6,100,0,500,7.408,,,330,,,,,,,,,,44,wg-a,,,,AAXX 06094 07240 12000 73304 10000 20000 30115 40256 51026 60006 74441 876// 90900=
07240,1998-12-06 12:00:00,4,1026.5,1.1,81,1,25000,11.112,,,320,,,,,,,,,,3,wg-a,,,,AAXX 06124 07240 12475 33206 10040 20010 30126 40265 51011 60006 70341 82101 91200=
07240,1998-12-06 15:00:00,5,1027.3,0.8,70,0,25000,11.112,,,340,,,,,,,,,,,wg-a,,,,AAXX 06154 07240 12575 23406 10050 20000 30134 40273 52008 60006 81101 91500=
07240,1998-12-06 18:00:00,0,1029,1.5,93,-1,10000,3.704,,,300,0,5.1,,,,,,,,,wg-a,,,,AAXX 06184 07240 12/60 03002 10000 21010 30149 40290 52015 60006 80000 91800 333 10051 20000=
07240,1998-12-06 21:00:00,-1,1029.9,0.8,93,-2,10000,3.704,,,330,,,,,,,,,,,wg-a,,,,AAXX 06214 07240 12/60 03302 11010 21020 30157 40299 52008 60006 80000 92100=
07240,1998-12-07 00:00:00,-2,1030.5,0.5,93,-3,6000,3.704,,,310,,,,,,,,,,,wg-a,,,,AAXX 07004 07240 12/56 03102 11020 21030 30162 40305 52005 60006 80000 90000=
07240,1998-12-07 03:00:00,-3,1031,0.5,93,-4,6000,3.704,,,240,,,,,,,,,,,wg-a,,,,AAXX 07034 07240 12/56 02402 11030 21040 30167 40310 53005 60006 80000 90300=
07240,1998-12-07 06:00:00,-4,1031.8,0.7,93,-5,8000,0,,,0,-4,0.3,,,,,,,,,wg-a,,,,AAXX 07064 07240 02/58 20000 11040 21050 30174 40318 53007 60006 82010 90600 333 10003 21040 60004=
07240,1998-12-07 09:00:00,-2,1032.8,1.1,93,-3,6000,0,,,0,,,,,,,,,,,wg-a,,,,AAXX 07094 07240 12/56 /0000 11020 21030 30185 40328 53011 60006 90900=
07240,1998-12-07 12:00:00,3,1032.5,0,81,0,10000,11.112,,,250,,,,,,,,,,,wg-a,,,,AAXX 07124 07240 12/60 /2506 10030 20000 30185 40325 50000 60006 91200=
07240,1998-12-07 15:00:00,5,1032.1,-0.3,75,1,20000,3.704,,,210,,,,,,,,,,,wg-a,,,,AAXX 07154 07240 12870 62102 10050 20010 30182 40321 55003 60006 85031 91500=
07240,1998-12-07 18:00:00,2,1032.7,0.4,80,-1,10000,3.704,,,250,-4,5.4,,,,,,,,,wg-a,,,,AAXX 07184 07240 12860 62502 10020 21010 30186 40327 53004 60006 82031 91800 333 10054 21040=
07240,1998-12-07 21:00:00,3,1033,0.3,81,0,11000,3.704,,,160,,,,,,,,,,,wg-a,,,,AAXX 07214 07240 12/61 /1602 10030 20000 30189 40330 51003 60006 92100=
07240,1998-12-08 00:00:00,3,1032.3,-0.6,87,1,8000,7.408,,,220,,,,0,,,,,,3,wg-a,,,,AAXX 08004 07240 02558 82204 10030 20010 30183 40323 58006 60006 70362 8552/ 90000 333 60007=
07240,1998-12-08 03:00:00,2,1031.9,-0.5,100,2,3000,11.112,,,180,,,,1,,,,,,10,wg-a,,,,AAXX 08034 07240 12130 81806 10020 20020 30178 40319 58005 60017 71052 877// 90300=
07240,1998-12-08 06:00:00,2,1031.4,-0.4,100,2,2500,7.408,,,180,2,3.3,,,,,,,,61,wg-a,,,,AAXX 08064 07240 02125 81804 10020 20020 30174 40314 58004 61000 76165 875// 90600 333 10033 20020 6002=
07240,1998-12-08 09:00:00,2,1031.5,0.1,100,2,6000,11.112,,,160,,,,,,,,,,1,wg-a,,,,AAXX 08094 07240 02256 81606 10020 20020 30175 40315 50001 61000 70165 875// 90900 333 ////=
07240,1998-12-08 12:00:00,4,1030.4,-1,87,2,9000,11.112,,,190,,,,,,,,,,1,wg-a,,,,AAXX 08124 07240 02459 81906 10040 20020 30165 40304 58010 61000 70165 8557/ 91200 333 ////=
07240,1998-12-08 18:00:00,5,1029.1,-0.4,87,3,12000,7.408,,,150,2.1,5.4,,,,,,,,,wg-a,,,,AAXX 08184 07240 12762 81504 10050 20030 30152 40291 56004 60006 8357/ 91800 333 10054 20021=
07240,1998-12-08 21:00:00,4,1028.2,-0.9,87,2,12000,11.112,,,160,,,,,,,,,,,wg-a,,,,AAXX 08214 07240 12762 81606 10040 20020 30143 40282 58009 60006 8257/ 92100=
07240,1998-12-09 00:00:00,5,1027,-1.2,87,3,12000,7.408,,,160,,,,,,,,,,60,wg-a,,,,AAXX 09004 07240 02762 81604 10050 20030 30131 40270 58012 61000 76062 8257/ 90000 333 6100=
07240,1998-12-09 03:00:00,5,1025.6,-1.3,87,3,12000,7.408,,,150,,,,,,,,,,60,wg-a,,,,AAXX 09034 07240 02762 81504 10050 20030 30118 40256 56013 61000 76066 8257/ 90300 333 ////=
07240,1998-12-09 06:00:00,4,1024.5,-1.2,87,2,12000,7.408,,,150,3.9,4.9,,,,,,,,2,wg-a,,,,AAXX 09064 07240 02762 81504 10040 20020 30106 40245 56012 60006 70262 8257/ 90600 333 10049 20039 61000=
07240,1998-12-09 09:00:00,5,1024.6,0.2,81,2,10000,11.112,,,170,,,,,,,,,,60,wg-a,,,,AAXX 09094 07240 02660 81706 10050 20020 30108 40246 53002 61000 76062 8357/ 90900 333 ////=
07240,1998-12-09 12:00:00,5,1024.2,-0.4,93,4,8000,11.112,,,210,,,,3,,,,,,60,wg-a,,,,AAXX 09124 07240 02358 82106 10050 20040 30104 40242 55004 60036 76062 8657/ 91200 333 60037=
07240,1998-12-09 18:00:00,6,1024.2,0.6,100,6,6000,14.816,,,190,3.8,6.2,,,,,,,,80,wg-a,,,,AAXX 09184 07240 02156 81908 10060 20060 30105 40242 51006 61000 78086 877// 91800 333 10062 20038 6006=
07240,1998-12-09 21:00:00,6,1024.1,-0.1,100,6,500,7.408,,,180,,,,0,,,,,,3,wg-a,,,,AAXX 09214 07240 12100 81804 10060 20060 30104 40241 55001 60007 70386 877// 92100=
07240,1998-12-10 00:00:00,7,1023.7,-0.4,100,7,100,7.408,,,190,,,,,,,,,,45,wg-a,,,,AAXX 10004 07240 12/01 91904 10070 20070 30100 40237 56004 60006 74586 89/// 90000=
07240,1998-12-10 03:00:00,7,1023.2,-0.5,100,7,100,7.408,,,210,,,,,,,,,,45,wg-a,,,,AAXX 10034 07240 12/01 92104 10070 20070 30095 40232 58005 60006 74544 89/// 90300=
07240,1998-12-10 06:00:00,7,1022.8,-0.4,,,400,7.408,,,190,6,7.1,,,,,9,,,45,wg-a,,,,AAXX 10064 07240 02/04 91904 10070 2//// 30091 40228 56004 60006 74544 89/// 90600 333 10071 20060 60094=
07240,1998-12-10 09:00:00,6,1023.4,0.5,100,6,200,11.112,,,200,,,,,,,,,,45,wg-a,,,,AAXX 10094 07240 12/02 92006 10060 20060 30096 40234 51005 60006 74544 89/// 90900=
07240,1998-12-10 12:00:00,8,1020.9,-2.3,100,8,1400,11.112,,,160,,,,,,,,,,28,wg-a,,,,AAXX 10124 07240 12114 91606 10080 20080 30073 40209 58023 60006 72842 896// 91200=
07240,1998-12-10 15:00:00,10,1017.8,-3,100,10,1600,14.816,,,170,,,,0,,,,,,10,wg-a,,,,AAXX 10154 07240 12116 81708 10100 20100 30043 40178 56030 60007 71065 887// 91500=
07240,1998-12-10 18:00:00,11,1016.2,-1.5,100,11,6000,11.112,,,210,5.7,11,,,,,,,,60,wg-a,,,,AAXX 10184 07240 02256 82106 10110 20110 30028 40162 56015 61000 76065 887// 91800 333 10110 20057 6007=
07240,1998-12-10 21:00:00,12,1016.4,0.2,94,11,15000,22.224,,,280,,,,,,,,,,1,wg-a,,,,AAXX 10214 07240 02465 72812 10120 20110 30030 40164 53002 61000 70162 875// 92100 333 ////=
07240,1998-12-11 00:00:00,10,1018.2,1.7,93,9,15000,22.224,,,300,,,,,,,,,,3,wg-a,,,,AAXX 11004 07240 02465 73012 10100 20090 30047 40182 53017 61000 70362 875// 90000 333 ////=
07240,1998-12-11 03:00:00,8,1019.6,1.3,93,7,15000,18.52,,,290,,,,,,,,,,,wg-a,,,,AAXX 11034 07240 12365 72910 10080 20070 30060 40196 53013 60006 875// 90300=
07240,1998-12-11 06:00:00,8,1021,1.4,93,7,8000,14.816,,,280,7.8,11.6,,,,,7,,,,wg-a,,,,AAXX 11064 07240 02158 82808 10080 20070 30074 40210 53014 60006 886// 90600 333 10116 20078 60074=
07240,1998-12-11 09:00:00,8,1022.8,1.8,93,7,2500,11.112,,,260,,,,,,,,,,10,wg-a,,,,AAXX 11094 07240 12125 82606 10080 20070 30092 40228 51018 60006 71022 886// 90900=
07240,1998-12-11 15:00:00,10,1022.5,-0.4,93,9,15000,7.408,,,190,,,,,,,,,,,wg-a,,,,AAXX 11154 07240 12365 71904 10100 20090 30090 40225 55004 60006 876// 91500=
07240,1998-12-11 18:00:00,9,1023.1,0.5,100,9,7000,11.112,,,170,7.6,9.5,,,,,,,,,wg-a,,,,AAXX 11184 07240 12257 71706 10090 20090 30095 40231 52005 60006 876// 91800 333 10095 20076=
07240,1998-12-11 21:00:00,9,1023.7,0.6,100,9,7000,11.112,,,180,,,,0,,,,,,50,wg-a,,,,AAXX 11214 07240 12357 71806 10090 20090 30101 40237 51006 60007 75052 875// 92100=
07240,1998-12-12 00:00:00,9,1023.1,-0.6,100,9,500,18.52,,,180,,,,,,,,,,51,wg-a,,,,AAXX 12004 07240 02100 81810 10090 20090 30095 40231 58006 60016 75165 877// 90000 333 61000=
07240,1998-12-12 03:00:00,10,1022.3,-0.7,93,9,500,22.224,,,200,,,,,,,,,,,wg-a,,,,AAXX 12034 07240 32/00 /2012 10100 20090 30088 40223 57007 90300=
07240,1998-12-12 06:00:00,11,1022.1,-0.2,94,10,1500,18.52,,,210,8.9,10.7,,,,,,,,51,wg-a,,,,AAXX 12064 07240 02115 82110 10110 20100 30086 40221 58002 61000 75165 887// 90600 333 10107 20089 6002=
07240,1998-12-12 09:00:00,13,1023.1,1,100,13,900,14.816,,,230,,,,,,,,,,,wg-a,,,,AAXX 12094 07240 32/09 /2308 10130 20130 30096 40231 52010 90900=
07240,1998-12-12 12:00:00,14,1023.4,0.5,94,13,6000,18.52,,,240,,,,,,,,,,1,wg-a,,,,AAXX 12124 07240 02356 82410 10140 20130 30101 40234 50005 61000 70154 876// 91200 333 ////=
07240,1998-12-12 15:00:00,15,1023.5,0.1,94,14,10000,22.224,,,230,,,,,,,,,,,wg-a,,,,AAXX 12154 07240 12460 82312 10150 20140 30102 40235 53001 60006 875// 91500=
07240,1998-12-12 18:00:00,14,1024.4,0.9,94,13,10000,25.928,,,230,10.7,15.1,,,,,,,,,wg-a,,,,AAXX 12184 07240 12260 82314 10140 20130 30111 40244 52009 60006 875// 91800 333 10151 20107=
07240,1998-12-12 21:00:00,14,1024.9,0.4,94,13,8000,31.484,,,240,,,,,,,,,,50,wg-a,,,,AAXX 12214 07240 02358 82417 10140 20130 30115 40249 53004 61000 75065 877// 92100 333 ////=
07240,1998-12-13 00:00:00,14,1026.6,1.7,94,13,10000,25.928,,,270,,,,,,,,,,20,wg-a,,,,AAXX 13004 07240 02360 /2714 10140 20130 30132 40266 53017 61000 72065 86600 90000 333 6100=
07240,1998-12-13 03:00:00,12,1029.6,2.9,94,11,10000,18.52,,,260,,,,,,,,,,,wg-a,,,,AAXX 13034 07240 12360 /2610 10120 20110 30161 40296 51029 60006 86600 90300=
07240,1998-12-13 06:00:00,10,1032.6,2.8,100,10,8000,14.816,,,280,9.2,14.2,,,,,,,,,wg-a,,,,AAXX 13064 07240 02258 /2808 10100 20100 30189 40326 53028 60006 85600 90600 333 10142 20092 61000=
07240,1998-12-13 09:00:00,10,1035,2.4,93,9,8000,14.816,,,270,,,,,,,,,,,wg-a,,,,AAXX 13094 07240 12258 /2708 10100 20090 30213 40350 51024 60006 86600 90900=
07240,1998-12-13 12:00:00,11,1035.3,0.4,94,10,15000,7.408,,,220,,,,,,,,,,,wg-a,,,,AAXX 13124 07240 12465 /2204 10110 20100 30217 40353 50004 60006 84601 91200=
07240,1998-12-13 15:00:00,10,1035.2,-0.2,87,8,20000,14.816,,,190,,,,,,,,,,,wg-a,,,,AAXX 13154 07240 12470 /1908 10100 20080 30215 40352 58002 60006 83501 91500=
07240,1998-12-13 18:00:00,7,1034.8,-0.5,100,7,15000,7.408,,,160,6.9,11.4,,,,,,,,,wg-a,,,,AAXX 13184 07240 12/65 01604 10070 20070 30210 40348 58005 60006 80000 91800 333 10114 20069=
07240,1998-12-14 00:00:00,8,1034.5,-0.8,100,8,8000,3.704,,,170,,,,,,,,,,,wg-a,,,,AAXX 14004 07240 12458 71702 10080 20080 30207 40345 58008 60006 875// 90000=
07240,1998-12-14 06:00:00,9,1033.4,-0.2,100,9,7000,7.408,,,170,5.8,9.4,,,,,,,,,wg-a,,,,AAXX 14064 07240 02257 81704 10090 20090 30197 40334 55002 60006 886// 90600 333 10094 20058 60004=
07240,1998-12-14 09:00:00,10,1034.2,0.9,100,10,3500,11.112,,,200,,,,,,,,,,10,wg-a,,,,AAXX 14094 07240 12135 82006 10100 20100 30206 40342 53009 60006 71022 886// 90900=
07240,1998-12-14 12:00:00,11,1033.7,-0.5,100,11,8000,14.816,,,200,,,,,,,,,,3,wg-a,,,,AAXX 14124 07240 02258 82008 10110 20110 30201 40337 58005 61000 70352 876// 91200 333 6100=
07240,1998-12-14 15:00:00,11,1032.4,-1.3,94,10,7000,14.816,,,190,,,,,,,,,,,wg-a,,,,AAXX 14154 07240 12257 81908 10110 20100 30188 40324 56013 60006 876// 91500=
07240,1998-12-14 18:00:00,10,1032.4,-0.1,100,10,500,11.112,,,180,9.3,11.3,,,,,,,,,wg-a,,,,AAXX 14184 07240 12100 81806 10100 20100 30187 40324 55001 60006 876// 91800 333 10113 20093=
07240,1998-12-15 00:00:00,9,1032,-0.5,100,9,200,7.408,,,190,,,,,,,,,,45,wg-a,,,,AAXX 15004 07240 12/02 91904 10090 20090 30183 40320 58005 60006 74542 89/// 90000=
07240,1998-12-15 06:00:00,7,1031,-0.1,100,7,500,3.704,,,220,6.9,9.5,,,,,,,,45,wg-a,,,,AAXX 15064 07240 02/00 92202 10070 20070 30172 40310 55001 60006 74544 89/// 90600 333 10095 20069 61000=
07240,1998-12-15 09:00:00,5,1031.4,0.3,100,5,500,7.408,,,170,,,,,,,,,,45,wg-a,,,,AAXX 15094 07240 12/00 91704 10050 20050 30175 40314 51003 60006 74544 89/// 90900=
07240,1998-12-15 12:00:00,7,1030.5,-0.8,100,7,500,0,,,0,,,,,,,,,,45,wg-a,,,,AAXX 15124 07240 12/00 90000 10070 20070 30167 40305 58008 60006 74544 89/// 91200=
07240,1998-12-15 15:00:00,8,1029.5,-0.9,100,8,100,0,,,0,,,,,,,,,,45,wg-a,,,,AAXX 15154 07240 12/01 90000 10080 20080 30158 40295 55009 60006 74544 89/// 91500=
07240,1998-12-15 18:00:00,7,1030.9,1.3,100,7,500,7.408,,,330,4.9,7.7,,,,,,,,45,wg-a,,,,AAXX 15184 07240 12/00 93304 10070 20070 30171 40309 53013 60006 74544 89/// 91800 333 10077 20049=
07240,1998-12-15 21:00:00,6,1032.5,1.5,100,6,100,7.408,,,330,,,,,,,,,,,wg-a,,,,AAXX 15214 07240 12/01 /3304 10060 20060 30186 40325 53015 60006 92100=
07240,1998-12-16 03:00:00,7,1034.2,1,100,7,100,3.704,,,350,,,,,,,,,,,wg-a,,,,AAXX 16034 07240 12/01 /3502 10070 20070 30203 40342 53010 60006 90300=
07240,1998-12-16 06:00:00,8,1034.8,0.7,100,8,600,11.112,,,80,5.6,7.6,,,,,,,,43,wg-a,,,,AAXX 16064 07240 02/06 90806 10080 20080 30210 40348 50007 60006 74344 89/// 90600 333 10076 20056 60004=
07240,1998-12-16 09:00:00,7,1035.3,0.5,100,7,300,14.816,,,80,,,,,,,,,,45,wg-a,,,,AAXX 16094 07240 12/03 90808 10070 20070 30215 40353 53005 60006 74542 89/// 90900=
07240,1998-12-16 12:00:00,8,1034,-1.3,,,12000,7.408,,,120,,,,,,,,,,1,wg-a,,,,AAXX 16124 07240 12262 81204 10080 2//// 30202 40340 58013 60006 70142 886// 91200=
07240,1998-12-16 15:00:00,8,1032.8,-1.2,100,8,15000,14.816,,,80,,,,,,,,,,,wg-a,,,,AAXX 16154 07240 12365 70808 10080 20080 30190 40328 56012 60006 876// 91500=
07240,1998-12-16 18:00:00,8,1032.9,0.1,93,7,15000,7.408,,,50,7.2,8.2,,,,,,,,,wg-a,,,,AAXX 16184 07240 12465 70504 10080 20070 30191 40329 53001 60006 875// 91800 333 10082 20072=
07240,1998-12-16 21:00:00,7,1032.1,-0.8,100,7,12000,22.224,,,100,,,,,,,,,,,wg-a,,,,AAXX 16214 07240 12362 81012 10070 20070 30183 40321 58008 60006 886// 92100=
07240,1998-12-17 00:00:00,6,1030,-2.1,100,6,500,14.816,,,110,,,,,,,,,,,wg-a,,,,AAXX 17004 07240 12200 81108 10060 20060 30162 40300 58021 60006 886// 90000=
07240,1998-12-17 03:00:00,5,1028.2,-1.8,100,5,500,18.52,,,100,,,,,,,,,,,wg-a,,,,AAXX 17034 07240 12100 81010 10050 20050 30144 40282 56018 60006 886// 90300=
07240,1998-12-17 06:00:00,4,1027.1,-1.2,93,3,8000,14.816,,,90,3.6,7.7,,,,,,,,,wg-a,,,,AAXX 17064 07240 02/58 00908 10040 20030 30132 40271 56012 60006 80000 90600 333 10077 20036 60004=
07240,1998-12-17 12:00:00,4,1025.7,-1.3,100,4,200,11.112,,,150,,,,,,,,,,45,wg-a,,,,AAXX 17124 07240 12/02 91506 10040 20040 30118 40257 58013 60006 74541 89/// 91200=
07240,1998-12-17 18:00:00,4,1025.3,0.1,100,4,200,7.408,,,310,2.1,6,,,,,,,,45,wg-a,,,,AAXX 17184 07240 12/02 93104 10040 20040 30114 40253 53001 60006 74541 89/// 91800 333 10060 20021=
07240,1998-12-17 21:00:00,5,1025.7,0.5,100,5,200,11.112,,,230,,,,,,,,,,45,wg-a,,,,AAXX 17214 07240 12/02 92306 10050 20050 30119 40257 52005 60006 74544 89/// 92100=
07240,1998-12-18 00:00:00,5,1025.7,0,100,5,4000,11.112,,,190,,,,,,,,,,10,wg-a,,,,AAXX 18004 07240 12240 81906 10050 20050 30119 40257 50000 60006 71042 887// 90000=
07240,1998-12-18 03:00:00,6,1025.7,-0,100,6,500,14.816,,,200,,,,,,,,,,,wg-a,,,,AAXX 18034 07240 12400 82008 10060 20060 30119 40257 55000 60006 875// 90300=
07240,1998-12-18 06:00:00,8,1024.6,-1,93,7,6000,18.52,,,190,4.1,7.5,,,,,,,,,wg-a,,,,AAXX 18064 07240 02556 71910 10080 20070 30109 40246 57010 60006 875// 90600 333 10075 20041 60004=
07240,1998-12-18 09:00:00,9,1024.3,-0.2,93,8,7000,18.52,,,190,,,,,,,,,,,wg-a,,,,AAXX 18094 07240 12357 71910 10090 20080 30107 40243 55002 60006 875// 90900=
07240,1998-12-18 12:00:00,9,1022.8,-1.5,100,9,4500,22.224,,,210,,,,,,,,,,,wg-a,,,,AAXX 18124 07240 12/45 /2112 10090 20090 30092 40228 58015 60016 91200=
07240,1998-12-18 15:00:00,9,1021.3,-1.5,93,8,3000,22.224,,,210,,,,1,,,,,,60,wg-a,,,,AAXX 18154 07240 12230 82112 10090 20080 30077 40213 58015 60017 76062 887// 91500=
07240,1998-12-18 18:00:00,9,1020.3,-0.9,100,9,4000,18.52,,,210,7.5,9.2,,,,,,,,50,wg-a,,,,AAXX 18184 07240 02240 82110 10090 20090 30068 40203 58009 61000 75065 887// 91800 333 10092 20075 6000=
07240,1998-12-18 21:00:00,10,1019.4,-0.9,93,9,6000,22.224,,,230,,,,,,,,,,20,wg-a,,,,AAXX 18214 07240 02256 82312 10100 20090 30059 40194 56009 61000 72052 887// 92100 333 ////=
07240,1998-12-19 00:00:00,10,1018.5,-0.9,93,9,7000,31.484,,,240,,,,0,,,,,,21,wg-a,,,,AAXX 19004 07240 02457 /2417 10100 20090 30050 40185 56009 60016 72165 86500 90000 333 60007=
07240,1998-12-19 03:00:00,9,1018.8,0.3,87,7,20000,29.632,,,250,,,,,,,,,,,wg-a,,,,AAXX 19034 07240 12670 32516 10090 20070 30053 40188 51003 60006 83501 90300=
07240,1998-12-19 06:00:00,8,1020.8,1.9,87,6,15000,25.928,,,270,7.7,10.2,,,,,2,,,,wg-a,,,,AAXX 19064 07240 02665 32714 10080 20060 30072 40208 53019 60006 83500 90600 333 10102 20077 60024=
07240,1998-12-19 09:00:00,7,1023.1,2.2,87,5,20000,18.52,,,250,,,,,,,,,,,wg-a,,,,AAXX 19094 07240 12470 /2510 10070 20050 30094 40231 51022 60006 81101 90900=
07240,1998-12-19 12:00:00,9,1023.5,0.5,71,4,500,25.928,,,260,,,,,,,,,,,wg-a,,,,AAXX 19124 07240 12500 32614 10090 20040 30099 40235 50005 60006 82101 91200=
07240,1998-12-19 15:00:00,9,1021.9,-1.6,71,4,25000,14.816,,,270,,,,,,,,,,,wg-a,,,,AAXX 19154 07240 12575 /2708 10090 20040 30083 40219 56016 60006 82132 91500=
07240,1998-12-19 18:00:00,7,1020.4,-1.6,81,4,20000,14.816,,,250,6.1,9.4,,,,,,,,,wg-a,,,,AAXX 19184 07240 12/70 72508 10070 20040 30067 40204 58016 60006 83032 91800 333 10094 20061=
07240,1998-12-19 21:00:00,6,1017.7,-2.7,87,4,15000,14.816,,,220,,,,,,,,,,,wg-a,,,,AAXX 19214 07240 12665 82208 10060 20040 30040 40177 58027 60006 8552/ 92100=
07240,1998-12-20 00:00:00,5,1012.9,-4.7,100,5,8000,7.408,,,150,,,,4,,,,,,61,wg-a,,,,AAXX 20004 07240 02358 81504 10050 20050 39993 40129 58047 60046 76162 8372/ 90000 333 60047=
07240,1998-12-20 03:00:00,6,1004.3,-8.5,93,5,8000,25.928,,,150,,,,5,,,,,,61,wg-a,,,,AAXX 20034 07240 12258 81514 10060 20050 39908 40043 58085 60057 76166 8572/ 90300=
07240,1998-12-20 06:00:00,6,995.6,-8.6,93,5,8000,29.632,,,130,5.2,6.5,,,,,,,,61,wg-a,,,,AAXX 20064 07240 02258 81316 10060 20050 39822 49956 56086 61000 76166 877// 90600 333 10065 20052 6014=
07240,1998-12-20 09:00:00,5,997.1,1.4,93,4,8000,31.484,,,50,,,,2,,,,,,61,wg-a,,,,AAXX 20094 07240 12358 80517 10050 20040 39836 49971 53014 60027 76166 877// 90900=
07240,1998-12-20 12:00:00,3,1003.8,6.6,93,2,8000,38.892,,59.264,40,,,,8,,,,,,23,wg-a,,,,AAXX 20124 07240 02358 80421 10030 20020 39902 40038 51066 60106 72376 877// 91200 333 60087 91032=
07240,1998-12-20 15:00:00,5,1008.3,4.5,87,3,15000,38.892,,61.116,30,,,,1,,,,,,1,wg-a,,,,AAXX 20154 07240 12365 80321 10050 20030 39947 40083 53045 60017 70162 875// 91500 333 91033=
07240,1998-12-20 18:00:00,4,1014.1,5.7,87,2,11000,31.484,,,20,0.8,6,,,,,,,,,wg-a,,,,AAXX 20184 07240 12/61 /0217 10040 20020 30004 40141 51057 60006 91800 333 10060 20008=
07240,1998-12-20 21:00:00,3,1018.1,3.9,87,1,10000,14.816,,,360,,,,,,,,,,,wg-a,,,,AAXX 20214 07240 12/60 /3608 10030 20010 30043 40181 51039 60006 92100=
07240,1998-12-21 00:00:00,1,1020.6,2.3,86,-1,15000,14.816,,,340,,,,,,,,,,,wg-a,,,,AAXX 21004 07240 12/65 03408 10010 21010 30066 40206 51023 60006 80000 90000=
07240,1998-12-21 06:00:00,0,1023.6,1,93,-1,15000,7.408,,,350,-0.5,4.1,,,,,10,,,,wg-a,,,,AAXX 21064 07240 02/65 03504 10000 21010 30095 40236 53010 60006 80000 90600 333 10041 21005 60104=
07240,1998-12-21 09:00:00,0,1025.9,2.3,93,-1,15000,7.408,,,340,,,,,,,,,,,wg-a,,,,AAXX 21094 07240 12865 33404 10000 21010 30118 40259 53023 60006 82031 90900=
07240,1998-12-21 12:00:00,3,1026.9,1.2,87,1,20000,7.408,,,320,,,,0,,,,,,,wg-a,,,,AAXX 21124 07240 02470 53204 10030 20010 30130 40269 51012 60006 83801 91200 333 60007=
07240,1998-12-21 15:00:00,5,1027.3,0.4,75,1,20000,7.408,,,280,,,,,,,,,,,wg-a,,,,AAXX 21154 07240 12470 42804 10050 20010 30134 40273 53004 60006 84200 91500=
07240,1998-12-21 18:00:00,2,1028.3,0.9,87,0,15000,7.408,,,210,-0.6,5.6,,,,,,,,,wg-a,,,,AAXX 21184 07240 12665 22104 10020 20000 30143 40283 50009 60006 82500 91800 333 10056 21006=
07240,1998-12-21 21:00:00,0,1029.2,0.8,93,-1,10000,3.704,,,230,,,,,,,,,,,wg-a,,,,AAXX 21214 07240 12660 32302 10000 21010 30151 40292 53008 60006 83500 92100=
07240,1998-12-22 00:00:00,-1,1029,-0.3,93,-2,400,3.704,,,200,,,,,,,,,,44,wg-a,,,,AAXX 22004 07240 12/04 02002 11010 21020 30148 40290 58003 60006 74440 80000 90000=
07240,1998-12-22 03:00:00,-3,1029,-0.1,100,-3,400,3.704,,,190,,,,,,,,,,44,wg-a,,,,AAXX 22034 07240 12/04 01902 11030 21030 30147 40290 58001 60006 74444 80000 90300=
07240,1998-12-22 06:00:00,-4,1028.8,-0.2,100,-4,300,7.408,,,150,-3.8,1.9,,,,,,,,48,wg-a,,,,AAXX 22064 07240 02/03 01504 11040 21040 30145 40288 58002 60006 74844 80000 90600 333 10019 21038 60004=
07240,1998-12-22 09:00:00,-2,1029.9,1.1,93,-3,4500,3.704,,,150,,,,,,,,,,10,wg-a,,,,AAXX 22094 07240 12/45 21502 11020 21030 30156 40299 51011 60006 71040 80001 90900=
07240,1998-12-22 12:00:00,3,1029,-0.6,87,1,8000,7.408,,,180,,,,0,,,,,,3,wg-a,,,,AAXX 22124 07240 02858 31804 10030 20010 30150 40290 58006 60006 70340 82502 91200 333 60007=
07240,1998-12-22 15:00:00,4,1028.1,-0.8,70,-1,15000,14.816,,,170,,,,,,,,,,,wg-a,,,,AAXX 22154 07240 12/65 51708 10040 21010 30142 40281 56008 60006 81032 91500=
07240,1998-12-22 18:00:00,-1,1028.2,-0.2,93,-2,200,11.112,,,130,-3.8,4.9,,,,,,,,44,wg-a,,,,AAXX 22184 07240 12/02 /1306 11010 21020 30140 40282 56002 60006 74441 83032 91800 333 10049 21038=
07240,1998-12-22 21:00:00,-1,1027.7,-0.5,93,-2,800,7.408,,,110,,,,,,,,,,43,wg-a,,,,AAXX 22214 07240 12/08 91104 11010 21020 30135 40277 55005 60006 74344 89/// 92100=
07240,1998-12-23 00:00:00,-2,1026.6,-1.1,100,-2,4000,11.112,,,70,,,,,,,,,,10,wg-a,,,,AAXX 23004 07240 12140 60706 11020 21020 30124 40266 58011 60006 71042 84501 90000=
07240,1998-12-23 03:00:00,-2,1024.6,-2,93,-3,500,14.816,,,100,,,,,,,,,,,wg-a,,,,AAXX 23034 07240 12700 61008 11020 21030 30104 40246 57020 60006 84501 90300=
07240,1998-12-23 06:00:00,-2,1023.6,-0.9,93,-3,10000,11.112,,,60,-2.1,-1,,,,,,,,,wg-a,,,,AAXX 23064 07240 02760 30606 11020 21030 30095 40236 56009 60006 815/1 90600 333 11010 21021 60004=
07240,1998-12-23 09:00:00,-1,1022.8,-0.8,86,-3,15000,18.52,,,100,,,,,,,,,,,wg-a,,,,AAXX 23094 07240 12/65 61010 11010 21030 30087 40228 57008 60006 82032 90900=
07240,1998-12-23 12:00:00,2,1020.8,-1.8,75,-2,15000,11.112,,,140,,,,,,,,,,,wg-a,,,,AAXX 23124 07240 12/65 61406 10020 21020 30069 40208 58018 60006 81032 91200=
07240,1998-12-23 15:00:00,1,1019.7,-1.1,80,-2,15000,7.408,,,230,,,,,,,,,,,wg-a,,,,AAXX 23154 07240 12/65 72304 10010 21020 30058 40197 55011 60006 83032 91500=
07240,1998-12-23 18:00:00,2,1020,0.3,80,-1,8000,11.112,,,210,-1.7,1.9,,,,,,,,,wg-a,,,,AAXX 23184 07240 12/58 72106 10020 21010 30061 40200 51003 60006 8707/ 91800 333 10019 21017=
07240,1998-12-23 21:00:00,3,1020,0,75,-1,12000,14.816,,,210,,,,0,,,,,,0,wg-a,,,,AAXX 23214 07240 12562 72108 10030 21010 30061 40200 50000 60007 700// 875// 92100=
07240,1998-12-24 00:00:00,2,1019.9,-0.1,93,1,500,11.112,,,210,,,,1,,,,,,61,wg-a,,,,AAXX 24004 07240 12400 82106 10020 20010 30060 40199 58001 60017 76162 877// 90000=
07240,1998-12-24 03:00:00,2,1021.2,1.3,100,2,3000,7.408,,,260,,,,3,,,,,,10,wg-a,,,,AAXX 24034 07240 12230 82604 10020 20020 30073 40212 53013 60037 71062 877// 90300=
07240,1998-12-24 06:00:00,2,1023.1,1.9,100,2,3500,11.112,,,320,1.4,2.9,,0,,,4,,,10,wg-a,,,,AAXX 24064 07240 02135 83206 10020 20020 30092 40231 53019 60044 71062 877// 90600 333 10029 20014 60007=
07240,1998-12-24 12:00:00,5,1027,1.1,93,4,9000,11.112,,,260,,,,,,,,,,1,wg-a,,,,AAXX 24124 07240 32259 42606 10050 20040 30131 40270 50011 70141 83602 91200=
07240,1998-12-24 15:00:00,6,1027.3,0.4,81,3,12000,11.112,,,230,,,,,,,,,,0,wg-a,,,,AAXX 24154 07240 32/62 52306 10060 20030 30135 40273 53004 700// 80002 91500=
07240,1998-12-24 18:00:00,3,1028.6,1.1,93,2,200,11.112,,,150,1.8,6.8,,,,,,,,43,wg-a,,,,AAXX 24184 07240 32/02 91506 10030 20020 30146 40286 51011 74341 89/// 91800 333 10068 20018=
07240,1998-12-24 21:00:00,4,1028.9,0.4,93,3,7000,11.112,,,200,,,,,,,,,,3,wg-a,,,,AAXX 24214 07240 32757 72006 10040 20030 30150 40289 50004 70342 875// 92100=
07240,1998-12-25 00:00:00,4,1028.7,-0.2,93,3,8000,14.816,,,200,,,,,,,,,,3,wg-a,,,,AAXX 25004 07240 32558 82008 10040 20030 30148 40287 58002 70342 885// 90000=
07240,1998-12-25 03:00:00,4,1028.1,-0.6,100,4,2500,18.52,,,190,,,,0,,,,,,61,wg-a,,,,AAXX 25034 07240 12225 81910 10040 20040 30142 40281 56006 60007 76162 887// 90300=
07240,1998-12-25 06:00:00,6,1027.7,-0.3,100,6,4000,18.52,,,210,2.5,5.8,,1,,,2,,,51,wg-a,,,,AAXX 25064 07240 02140 82110 10060 20060 30139 40277 55003 60024 75165 887// 90600 333 10058 20025 60017=
07240,1998-12-25 09:00:00,7,1028.8,1.1,93,6,4000,14.816,,,210,,,,0,,,,,,10,wg-a,,,,AAXX 25094 07240 12140 82108 10070 20060 30150 40288 53011 60007 71052 887// 90900=
07240,1998-12-25 12:00:00,8,1027.8,-0.9,93,7,7000,18.52,,,210,,,,,,,,,,1,wg-a,,,,AAXX 25124 07240 32257 82110 10080 20070 30141 40278 58009 70152 887// 91200=
07240,1998-12-25 15:00:00,9,1026.5,-1.2,87,7,10000,18.52,,,200,,,,,,,,,,20,wg-a,,,,AAXX 25154 07240 02360 82010 10090 20070 30129 40265 55012 61000 72052 877// 91500 333 ////=
07240,1998-12-25 18:00:00,9,1025.3,-1.2,87,7,12000,22.224,,,210,5.8,8.7,,,,,,,,1,wg-a,,,,AAXX 25184 07240 32462 72112 10090 20070 30117 40253 58012 70152 875// 91800 333 10087 20058=
07240,1998-12-25 21:00:00,9,1024.6,-0.7,87,7,10000,25.928,,,200,,,,,,,,,,0,wg-a,,,,AAXX 25214 07240 32360 82014 10090 20070 30110 40246 58007 700// 875// 92100=
07240,1998-12-26 00:00:00,7,1024.7,0,93,6,11000,25.928,,,210,,,,,,,,,,,wg-a,,,,AAXX 26004 07240 12/61 /2114 10070 20060 30110 40247 50000 60006 90000=
07240,1998-12-26 03:00:00,7,1025.4,0.7,93,6,10000,22.224,,,200,,,,0,,,,,,21,wg-a,,,,AAXX 26034 07240 12360 82012 10070 20060 30117 40254 53007 60007 72162 875// 90300=
07240,1998-12-26 06:00:00,6,1024.1,-1.3,93,5,10000,22.224,,,210,5.6,8.8,,,,,1,,,3,wg-a,,,,AAXX 26064 07240 02360 82112 10060 20050 30104 40241 56013 60006 70362 877// 90600 333 10088 20056 60014=
07240,1998-12-26 09:00:00,6,1023,-1.1,93,5,6000,22.224,,,200,,,,0,,,,,,51,wg-a,,,,AAXX 26094 07240 12356 82012 10060 20050 30093 40230 58011 60007 75165 877// 90900=
07240,1998-12-26 12:00:00,8,1020.9,-2,93,7,500,25.928,,,200,,,,2,,,,,,61,wg-a,,,,AAXX 26124 07240 02300 82014 10080 20070 30073 40209 58020 60026 76165 877// 91200 333 60027=
07240,1998-12-26 15:00:00,10,1018,-2.8,87,8,15000,29.632,,,220,,,,,,,,,,1,wg-a,,,,AAXX 26154 07240 02465 82216 10100 20080 30045 40180 56028 61000 70162 875// 91500 333 ////=
07240,1998-12-26 18:00:00,9,1016.3,-1.7,87,7,15000,38.892,,57.412,210,6,10.1,,,,,,,,3,wg-a,,,,AAXX 26184 07240 12465 82121 10090 20070 30028 40163 57017 60006 70362 875// 91800 333 10101 20060 91031=
07240,1998-12-26 21:00:00,8,1015,-1.3,93,7,8000,35.188,,,210,,,,1,,,,,,61,wg-a,,,,AAXX 26214 07240 12358 82119 10080 20070 30015 40150 56013 60017 76162 875// 92100=
07240,1998-12-27 00:00:00,9,1013.9,-1.1,93,8,8000,31.484,,53.708,210,,,,3,,,,,,61,wg-a,,,,AAXX 27004 07240 02358 82117 10090 20080 30004 40139 58011 60046 76162 877// 90000 333 60037 91029=
07240,1998-12-27 03:00:00,9,1012.6,-1.2,93,8,10000,31.484,,,210,,,,1,,,,,,21,wg-a,,,,AAXX 27034 07240 12360 82117 10090 20080 39992 40126 57012 60017 72162 877// 90300=
07240,1998-12-27 06:00:00,9,1011.2,-1.4,87,7,8000,29.632,,,200,8.2,9.7,,,,,,,,61,wg-a,,,,AAXX 27064 07240 02358 82016 10090 20070 39978 40112 56014 61000 76162 875// 90600 333 10097 20082 6008=
07240,1998-12-27 09:00:00,9,1010.3,-0.9,81,6,15000,31.484,,,200,,,,1,,,,,,61,wg-a,,,,AAXX 27094 07240 12665 82017 10090 20060 39969 40103 56009 60017 76162 8352/ 90900=
07240,1998-12-27 12:00:00,9,1009.4,-0.9,76,5,11000,25.928,,,200,,,,0,,,,,,,wg-a,,,,AAXX 27124 07240 02/61 /2014 10090 20050 39960 40094 58009 60016 91200 333 60007=
07240,1998-12-27 18:00:00,11,1008.8,0.4,66,5,15000,25.928,,,200,8.5,11.1,,,,,,,,21,wg-a,,,,AAXX 27184 07240 02465 82014 10110 20050 39955 40088 51004 61000 72165 875// 91800 333 10111 20085 6000=
07240,1998-12-27 21:00:00,11,1008.9,0.1,66,5,15000,25.928,,,200,,,,,,,,,,,wg-a,,,,AAXX 27214 07240 12565 82014 10110 20050 39956 40089 50001 60006 8457/ 92100=
07240,1998-12-28 00:00:00,10,1009.6,0.6,82,7,15000,25.928,,,190,,,,,,,,,,,wg-a,,,,AAXX 28004 07240 12465 81914 10100 20070 39962 40096 53006 60006 875// 90000=
07240,1998-12-28 06:00:00,8,1011,1.5,93,7,8000,18.52,,,250,7.6,10.8,,,,,,,,61,wg-a,,,,AAXX 28064 07240 02258 82510 10080 20070 39975 40110 53015 61000 76162 875// 90600 333 10108 20076 6002=
07240,1998-12-28 09:00:00,7,1013.2,2.1,93,6,6000,14.816,,,210,,,,3,,,,,,61,wg-a,,,,AAXX 28094 07240 12256 82108 10070 20060 39996 40132 53021 60037 76166 885// 90900=
07240,1998-12-28 12:00:00,7,1014.4,1.2,93,6,9000,11.112,,,180,,,,3,,,,,,61,wg-a,,,,AAXX 28124 07240 02359 81806 10070 20060 30008 40144 51012 60076 76166 885// 91200 333 60037=
07240,1998-12-28 18:00:00,5,1016.5,1.4,93,4,20000,14.816,,,180,4.9,7.6,,,,,,,,1,wg-a,,,,AAXX 28184 07240 02370 /1808 10050 20040 30028 40165 53014 60006 70161 81100 91800 333 10076 20049 61000=
07240,1998-12-28 21:00:00,5,1017.4,0.9,100,5,6000,14.816,,,190,,,,,,,,,,,wg-a,,,,AAXX 28214 07240 12256 81908 10050 20050 30037 40174 53009 60006 876// 92100=
07240,1998-12-29 00:00:00,5,1016.7,-0.7,93,4,6000,7.408,,,160,,,,,,,,,,,wg-a,,,,AAXX 29004 07240 12256 81604 10050 20040 30030 40167 58007 60006 876// 90000=
07240,1998-12-29 03:00:00,3,1014.5,-2.3,93,2,10000,11.112,,,120,,,,,,,,,,,wg-a,,,,AAXX 29034 07240 12/60 21206 10030 20020 30007 40145 57023 60006 80002 90300=
07240,1998-12-29 06:00:00,1,1012.2,-2.3,100,1,4000,14.816,,,100,0.8,5.2,,,,,10,,,10,wg-a,,,,AAXX 29064 07240 02/40 21008 10010 20010 39984 40122 56023 60006 71041 80002 90600 333 10052 20008 60104=
07240,1998-12-29 12:00:00,9,1008.2,-2.2,81,6,15000,18.52,,,130,,,,,,,,,,2,wg-a,,,,AAXX 29124 07240 12/65 51310 10090 20060 39948 40082 58022 60006 70241 80002 91200=
07240,1998-12-29 15:00:00,10,1006.2,-1.9,82,7,20000,18.52,,,130,,,,,,,,,,,wg-a,,,,AAXX 29154 07240 12/70 71310 10100 20070 39929 40062 56019 60006 84032 91500=
07240,1998-12-29 18:00:00,8,1005.9,-0.4,87,6,15000,18.52,,,140,1.2,10.9,,,,,,,,,wg-a,,,,AAXX 29184 07240 12/65 71410 10080 20060 39925 40059 57004 60006 83032 91800 333 10109 20012=
07240,1998-12-29 21:00:00,9,1005.9,-0,71,4,10000,18.52,,,150,,,,,,,,,,0,wg-a,,,,AAXX 29214 07240 32/60 61510 10090 20040 39925 40059 55000 700// 80002 92100=
07240,1998-12-30 00:00:00,8,1006.1,0.2,76,4,10000,18.52,,,150,,,,,,,,,,0,wg-a,,,,AAXX 30004 07240 32/60 71510 10080 20040 39927 40061 50002 700// 84032 90000=
07240,1998-12-30 06:00:00,10,1007.5,1,71,5,15000,14.816,,,170,7.8,10.2,,,,,,,,0,wg-a,,,,AAXX 30064 07240 12/65 81708 10100 20050 39942 40075 53010 60004 700// 8807/ 90600 333 10102 20078=
07240,1998-12-30 09:00:00,8,1009.2,1.6,93,7,15000,14.816,,,150,,,,1,,,,,,60,wg-a,,,,AAXX 30094 07240 12665 81508 10080 20070 39958 40092 53016 60017 76062 8357/ 90900=
07240,1998-12-30 12:00:00,9,1009.2,0,93,8,15000,14.816,,,140,,,,1,,,,,,60,wg-a,,,,AAXX 30124 07240 12665 81408 10090 20080 39958 40092 50000 60017 76062 8357/ 91200=
07240,1998-12-30 15:00:00,9,1008.8,-0.4,93,8,12000,14.816,,,140,,,,1,,,,,,60,wg-a,,,,AAXX 30154 07240 12762 81408 10090 20080 39954 40088 56004 60017 76066 8357/ 91500=
07240,1998-12-30 18:00:00,9,1008.2,-0.6,93,8,12000,14.816,,,140,8.3,10.2,,0,,,,,,60,wg-a,,,,AAXX 30184 07240 12662 81408 10090 20080 39948 40082 56006 60007 76066 8357/ 91800 333 10102 20083=
07240,1998-12-31 00:00:00,9,1006.9,-0.6,87,7,15000,18.52,,,160,,,,,,,,,,60,wg-a,,,,AAXX 31004 07240 02565 81610 10090 20070 39935 40069 58006 61000 76062 8757/ 90000 333 ////=
07240,1998-12-31 03:00:00,9,1005.2,-1.7,93,8,15000,18.52,,,160,,,,,,,,,,60,wg-a,,,,AAXX 31034 07240 02465 81610 10090 20080 39918 40052 58017 61000 76066 875// 90300 333 ////=
07240,1998-12-31 06:00:00,8,1004,-1.2,100,8,10000,18.52,,,140,8,9.1,,3,,,6,,,61,wg-a,,,,AAXX 31064 07240 02260 81410 10080 20080 39906 40040 56012 60064 76165 887// 90600 333 10091 20080 60037=
07240,1998-12-31 12:00:00,9,1002.3,-1.3,93,8,20000,14.816,,,130,,,,1,,,,,,3,wg-a,,,,AAXX 31124 07240 12470 71308 10090 20080 39890 40023 58013 60017 70362 878// 91200=
07240,1998-12-31 18:00:00,11,1000.8,0.1,76,7,20000,14.816,,,120,7.8,11.5,,,,,,,,0,wg-a,,,,AAXX 31184 07240 32670 71208 10110 20070 39876 40008 53001 700// 875// 91800 333 10115 20078=
07240,1998-12-31 21:00:00,9,1002.5,1.6,76,5,11000,14.816,,,150,,,,,,,,,,,wg-a,,,,AAXX 31214 07240 32/61 /1508 10090 20050 39892 40025 52016 92100=
