station_id,dh_utc,temperature,pression,pression_variation_3h,humidite,point_de_rosee,visibilite,vent_moyen,vent_rafales,vent_rafales_10min,vent_direction,temperature_min,temperature_max,pluie_1h,pluie_3h,pluie_6h,pluie_12h,pluie_24h,ensoleillement,temperature_sol,temps_omm,source,radiations,neige_au_sol,nebulosite,raw_msg
07643,1997-01-01 00:00:00,1,1005.6,1.8,93,0,8000,11.112,,,340,,,,,,,,,,1,wg-a,,,,AAXX 01004 07643 12558 83406 10010 20000 30046 40056 53018 60016 70172 875// 90000=
07643,1997-01-01 03:00:00,1,1007.3,1.7,86,-1,9000,11.112,,,10,,,,,,,,,,,wg-a,,,,AAXX 01034 07643 12559 80106 10010 21010 30063 40073 50017 60006 875// 90300=
07643,1997-01-01 06:00:00,-2,1009.7,2.4,93,-3,12000,7.408,,,340,-1.6,1.3,,,,,9,,,,wg-a,,8,,AAXX 01064 07643 02/62 23404 11020 21030 30087 40097 53024 60006 82030 90600 333 10013 21016 4/008 60094=
07643,1997-01-01 09:00:00,-1,1012.2,2.5,93,-2,9000,22.224,,,350,,,,,,,,,,,wg-a,,,,AAXX 01094 07643 12659 73512 11010 21020 30112 40122 51025 60006 875// 90900=
07643,1997-01-01 12:00:00,1,1013.7,1.5,86,-1,8000,11.112,,,70,,,,,,,,,,,wg-a,,,,AAXX 01124 07643 12558 70706 10010 21010 30127 40137 51015 60006 875// 91200=
07643,1997-01-01 15:00:00,2,1014.2,0.5,87,0,6000,11.112,,,330,,,,,,,,,,21,wg-a,,,,AAXX 01154 07643 02656 83306 10020 20000 30132 40142 53005 61000 72162 885// 91500 333 ////=
07643,1997-01-01 18:00:00,2,1014.6,0.4,93,1,6000,11.112,,,340,-2.6,2.1,,,,,,,,3,wg-a,,4,,AAXX 01184 07643 12556 83406 10020 20010 30136 40146 50004 60006 70362 885// 91800 333 10021 21026 4/004=
07643,1997-01-01 21:00:00,2,1015.1,0.5,87,0,8000,11.112,,,10,,,,,,,,,,,wg-a,,,,AAXX 01214 07643 12658 80106 10020 20000 30141 40151 52005 60006 885// 92100=
07643,1997-01-02 00:00:00,3,1013.8,-1.3,87,1,8000,22.224,,,360,,,,,,,,,,,wg-a,,,,AAXX 02004 07643 12/58 /3612 10030 20010 30128 40138 58013 60006 90000=
07643,1997-01-02 03:00:00,3,1012.2,-1.6,93,2,8000,18.52,,,10,,,,1,,,,,,61,wg-a,,,,AAXX 02034 07643 12458 80110 10030 20020 30112 40122 57016 60017 76162 885// 90300=
07643,1997-01-02 06:00:00,3,1009.7,-2.5,100,3,6000,25.928,,,10,1.9,3.2,,,,,,,,63,wg-a,,4,,AAXX 02064 07643 02456 80114 10030 20030 30087 40097 56025 61000 76362 885// 90600 333 10032 20019 4/004 6007=
07643,1997-01-02 09:00:00,3,1008.4,-1.3,100,3,2000,25.928,,,20,,,,5,,,,,,63,wg-a,,,,AAXX 02094 07643 12320 80214 10030 20030 30074 40084 56013 60057 76366 885// 90900=
07643,1997-01-02 12:00:00,4,1005.2,-3.2,93,3,4500,29.632,,,10,,,,5,,,,,,61,wg-a,,,,AAXX 02124 07643 02345 80116 10040 20030 30042 40052 58032 60106 76166 885// 91200 333 60057=
07643,1997-01-02 15:00:00,4,1003.4,-1.7,100,4,500,31.484,,,10,,,,3,,,,,,61,wg-a,,,,AAXX 02154 07643 12200 80117 10040 20040 30025 40034 56017 60037 76186 889// 91500=
07643,1997-01-02 18:00:00,5,1003.6,0.2,93,4,9000,25.928,,,360,2.7,5.1,,,,,,,,21,wg-a,,,,AAXX 02184 07643 02259 83614 10050 20040 30027 40036 53002 61000 72186 888// 91800 333 10051 20027 6003=
07643,1997-01-02 21:00:00,5,1005.1,1.5,93,4,15000,7.408,,,340,,,,,,,,,,,wg-a,,,,AAXX 02214 07643 12465 83404 10050 20040 30042 40051 51015 60006 885// 92100=
07643,1997-01-03 00:00:00,5,1005.6,0.5,93,4,15000,3.704,,,100,,,,,,,,,,,wg-a,,,,AAXX 03004 07643 12365 81002 10050 20040 30047 40056 50005 60006 886// 90000=
07643,1997-01-03 03:00:00,4,1005.1,-0.6,100,4,800,18.52,,,50,,,,,,,,,,45,wg-a,,,,AAXX 03034 07643 12/08 90510 10040 20040 30041 40051 58006 60006 74542 89/// 90300=
07643,1997-01-03 06:00:00,5,1003.1,-1.9,100,5,6000,18.52,,,20,3.4,5.4,,,,,17,,,,wg-a,,,,AAXX 03064 07643 02/56 /0210 10050 20050 30022 40031 56019 60006 90600 333 10054 20034 60174=
07643,1997-01-03 09:00:00,6,1001.8,-1.3,100,6,3000,14.816,,,40,,,,,,,,,,10,wg-a,,,,AAXX 03094 07643 12230 80408 10060 20060 30009 40018 56013 60006 71022 875// 90900=
07643,1997-01-03 12:00:00,8,997.4,-4.4,93,7,9000,29.632,,,60,,,,,,,,,,21,wg-a,,,,AAXX 03124 07643 02559 80616 10080 20070 39965 49974 58044 61000 72162 8657/ 91200 333 6100=
07643,1997-01-03 18:00:00,,1,,,,12000,0,,,0,,,,,,,,,,21,wg-a,,,,AAXX 03184 07643 02562 4//// 1//// 2//// 61000 72198 83230 91800 333 ////=
07643,1997-01-03 21:00:00,4,996,,87,2,10000,7.408,,,30,,,,,,,,,,,wg-a,,,,AAXX 03214 07643 32560 30304 10040 20020 39950 49960 82830 92100=
07643,1997-01-04 00:00:00,9,994.7,-1.3,61,2,10000,25.928,,,160,,,,,,,,,,,wg-a,,,,AAXX 04004 07643 12560 /1614 10090 20020 39937 49947 58013 60006 85800 90000=
07643,1997-01-04 03:00:00,9,993.9,-0.8,66,3,10000,18.52,,,160,,,,,,,,,,,wg-a,,,,AAXX 04034 07643 12560 41610 10090 20030 39929 49939 56008 60006 84800 90300=
07643,1997-01-04 06:00:00,5,994.2,0.3,87,3,12000,3.704,,,20,,,,,,,,,,,wg-a,,,,AAXX 04064 07643 12662 /0202 10050 20030 39932 49942 53003 60006 85500 90600=
07643,1997-01-04 09:00:00,5,996,1.8,100,5,15000,22.224,,,340,,,,,,,,,,,wg-a,,,,AAXX 04094 07643 12365 73412 10050 20050 39950 49960 53018 60006 85552 90900=
07643,1997-01-04 12:00:00,5,998.4,2.5,93,4,10000,18.52,,,260,,,,0,,,,,,61,wg-a,,,,AAXX 04124 07643 02460 82610 10050 20040 39975 49984 51025 60006 76162 885// 91200 333 60007=
07643,1997-01-04 15:00:00,6,1000.3,1.9,81,3,500,11.112,,,310,,,,0,,,,,,1,wg-a,,,,AAXX 04154 07643 12500 73106 10060 20030 39994 40003 53019 60007 70162 8657/ 91500=
07643,1997-01-04 18:00:00,4,1002.7,,75,0,10000,18.52,,,270,,,,,,,,,,,wg-a,,,,AAXX 04184 07643 12/60 /2710 10040 20000 30017 40027 60006 91800=
07643,1997-01-04 21:00:00,3,1004.8,,70,-2,25000,29.632,,,280,,,,,,,,,,,wg-a,,,,AAXX 04214 07643 12775 22816 10030 21020 30038 40048 60006 8153/ 92100=
07643,1997-01-05 00:00:00,3,1006.3,1.5,70,-2,25000,29.632,,,270,,,,,,,,,,,wg-a,,,,AAXX 05004 07643 12775 72716 10030 21020 30053 40063 53015 60006 8253/ 90000=
07643,1997-01-05 03:00:00,3,1008.7,2.4,70,-2,15000,22.224,,,220,,,,,,,,,,,wg-a,,,,AAXX 05034 07643 12665 82212 10030 21020 30077 40087 51024 60006 8553/ 90300=
07643,1997-01-05 06:00:00,3,1009.4,0.7,75,-1,15000,22.224,,,260,,,,,,,,,,,wg-a,,,,AAXX 05064 07643 12765 62612 10030 21010 30084 40094 53007 60006 83530 90600=
07643,1997-01-05 09:00:00,3,1011.7,2.3,81,0,15000,7.408,,,230,,,,,,,,,,,wg-a,,,,AAXX 05094 07643 12765 72304 10030 20000 30107 40117 53023 60006 83530 90900=
07643,1997-01-05 12:00:00,8,1011.3,-0.3,66,2,15000,7.408,,,160,,,,,,,,,,,wg-a,,,,AAXX 05124 07643 12665 /1604 10080 20020 30104 40113 58003 60006 82530 91200=
07643,1997-01-05 15:00:00,6,1010.9,-0.4,75,2,15000,14.816,,,40,,,,,,,,,,,wg-a,,,,AAXX 05154 07643 12565 /0408 10060 20020 30100 40109 57004 60006 81232 91500=
07643,1997-01-05 18:00:00,3,1011.9,0.9,93,2,15000,7.408,,,20,2.3,8.5,,,,,,,,,wg-a,,,,AAXX 05184 07643 12/65 30204 10030 20020 30109 40119 53009 60006 81032 91800 333 10085 20023=
07643,1997-01-05 21:00:00,2,1012.8,0.9,93,1,15000,7.408,,,10,,,,,,,,,,,wg-a,,,,AAXX 05214 07643 12/65 70104 10020 20010 30118 40128 51009 60006 85054 92100=
07643,1997-01-06 00:00:00,2,1012.5,-0.3,93,1,10000,7.408,,,10,,,,,,,,,,,wg-a,,,,AAXX 06004 07643 12760 80104 10020 20010 30115 40125 58003 60006 8/57/ 90000=
07643,1997-01-06 03:00:00,2,1011.2,-1.3,93,1,8000,14.816,,,350,,,,,,,,,,,wg-a,,,,AAXX 06034 07643 12758 83508 10020 20010 30102 40112 58013 60006 8/57/ 90300=
07643,1997-01-06 06:00:00,2,1011.4,0.2,93,1,8000,11.112,,,350,1.4,3,,,,,,,,,wg-a,,,,AAXX 06064 07643 02758 73506 10020 20010 30104 40114 51002 60006 8357/ 90600 333 10030 20014 60004=
07643,1997-01-06 09:00:00,3,1011.7,0.3,81,0,8000,22.224,,,10,,,,,,,,,,,wg-a,,,,AAXX 06094 07643 12758 70112 10030 20000 30107 40117 53003 60006 83532 90900=
07643,1997-01-06 12:00:00,6,1010.5,-1.1,65,0,15000,29.632,,,10,,,,,,,,,,,wg-a,,,,AAXX 06124 07643 12665 70116 10060 20000 30096 40105 58011 60006 8357/ 91200=
07643,1997-01-06 15:00:00,7,1009.7,-0.8,66,1,500,18.52,,,360,,,,,,,,,,,wg-a,,,,AAXX 06154 07643 12700 73610 10070 20010 30088 40097 56008 60006 8253/ 91500=
07643,1997-01-06 18:00:00,5,1010.2,0.4,70,0,8000,22.224,,,10,1.5,7.6,,,,,,,,,wg-a,,,,AAXX 06184 07643 12658 70112 10050 20000 30092 40102 53004 60006 8257/ 91800 333 10076 20015=
07643,1997-01-06 21:00:00,5,1011.5,1.3,65,-1,6000,18.52,,,350,,,,,,,,,,,wg-a,,,,AAXX 06214 07643 12656 73510 10050 21010 30105 40115 53013 60006 8357/ 92100=
07643,1997-01-07 00:00:00,4,1012.2,0.7,75,0,6000,7.408,,,320,,,,,,,,,,,wg-a,,,,AAXX 07004 07643 12656 73204 10040 20000 30112 40122 50007 60006 8557/ 90000=
07643,1997-01-07 03:00:00,4,1013,0.8,70,-1,6000,11.112,,,320,,,,,,,,,,,wg-a,,,,AAXX 07034 07643 12656 73206 10040 21010 30120 40130 53008 60006 8357/ 90300=
07643,1997-01-07 06:00:00,4,1013.3,0.3,65,-2,8000,11.112,,,300,3.5,5.1,,,,,,,,,wg-a,,,,AAXX 07064 07643 02658 73006 10040 21020 30123 40133 52003 60006 8557/ 90600 333 10051 20035 60004=
07643,1997-01-07 09:00:00,3,1014.8,1.5,65,-3,75000,14.816,,,300,,,,,,,,,,,wg-a,,,,AAXX 07094 07643 12689 /3008 10030 21030 30138 40148 51015 60006 82530 90900=
07643,1997-01-07 12:00:00,8,1014.4,-0.3,49,-2,75000,14.816,,,360,,,,,,,,,,,wg-a,,,,AAXX 07124 07643 12689 23608 10080 21020 30135 40144 58003 60006 81530 91200=
07643,1997-01-07 15:00:00,8,1013.8,-0.6,57,0,25000,11.112,,,30,,,,,,,,,,,wg-a,,,,AAXX 07154 07643 12/75 00306 10080 20000 30129 40138 55006 60006 80000 91500=
07643,1997-01-07 18:00:00,3,1014.2,0.3,81,0,8000,11.112,,,20,2.9,8.6,,,,,,,,,wg-a,,,,AAXX 07184 07643 12/58 30206 10030 20000 30132 40142 52003 60006 80002 91800 333 10086 20029=
07643,1997-01-07 21:00:00,1,1014.3,0.1,86,-1,8000,11.112,,,10,,,,,,,,,,,wg-a,,,,AAXX 07214 07643 12/58 20106 10010 21010 30133 40143 51001 60006 80002 92100=
07643,1997-01-08 00:00:00,0,1013.1,-1.2,86,-2,8000,18.52,,,20,,,,,,,,,,,wg-a,,,,AAXX 08004 07643 12558 30210 10000 21020 30121 40131 58012 60006 82502 90000=
07643,1997-01-08 06:00:00,4,1008.6,-2.4,93,3,500,14.816,,,20,-0.4,3.9,,,,,,,,21,wg-a,,,,AAXX 08064 07643 02400 70208 10040 20030 30076 40086 57024 61000 72161 875// 90600 333 10039 21004 6100=
07643,1997-01-08 09:00:00,9,1007.4,-1.1,93,8,3000,29.632,,,140,,,,10,,,,,,63,wg-a,,,,AAXX 08094 07643 12330 71416 10090 20080 30065 40074 56011 60107 76362 875// 90900=
07643,1997-01-08 12:00:00,9,1005.1,-2.3,100,9,2000,35.188,,,130,,,,9,,,,,,63,wg-a,,,,AAXX 08124 07643 02220 81319 10090 20090 30042 40051 58023 60206 76362 877// 91200 333 60097=
07643,1997-01-08 15:00:00,9,1002.2,-2.9,93,8,2000,50.004,,,110,,,,12,,,,,,63,wg-a,,,,AAXX 08154 07643 12320 81127 10090 20080 30013 40022 56029 60127 76366 877// 91500=
07643,1997-01-08 17:00:00,9,1000.9,-1.3,100,9,4000,38.892,,,100,3.9,9,,14,,,,,,63,wg-a,,,,AAXX 08174 07643 12340 81021 10090 20090 30000 40009 57013 60147 76366 8/7// 91700 333 10090 20039=
07643,1997-01-08 18:00:00,9,1000.9,-1.3,100,9,4000,38.892,,,100,3.9,9,,,,,,,,63,wg-a,,,,AAXX 08184 07643 02340 81021 10090 20090 30000 40009 57013 61000 76366 877// 91800 333 10090 20039 6014=
07643,1997-01-08 21:00:00,7,999.6,-1.3,100,7,6000,29.632,,,50,,,,9,,,,,,21,wg-a,,,,AAXX 08214 07643 12456 80516 10070 20070 39987 49996 58013 60097 72162 875// 92100=
07643,1997-01-09 00:00:00,7,999.5,-0.1,93,6,7000,29.632,,,50,,,,,,,,,,,wg-a,,,,AAXX 09004 07643 12/57 /0516 10070 20060 39986 49995 55001 60116 90000=
07643,1997-01-09 03:00:00,7,1000.1,0.6,93,6,6000,25.928,,,30,,,,3,,,,,,61,wg-a,,,,AAXX 09034 07643 12356 80314 10070 20060 39992 40001 51006 60037 76166 877// 90300=
07643,1997-01-09 06:00:00,7,1000.6,0.5,93,6,12000,18.52,,,350,6.6,8.9,,,,,60,,,1,wg-a,,,,AAXX 09064 07643 02562 83510 10070 20060 39997 40006 52005 60006 70162 875// 90600 333 10089 20066 60604=
07643,1997-01-09 09:00:00,7,1002.2,1.6,93,6,20000,14.816,,,330,,,,0,,,,,,2,wg-a,,,,AAXX 09094 07643 12570 83308 10070 20060 30013 40022 53016 60007 70262 875// 90900=
07643,1997-01-09 12:00:00,8,1002.4,0.2,93,7,20000,18.52,,,350,,,,,,,,,,2,wg-a,,,,AAXX 09124 07643 02570 73510 10080 20070 30015 40024 53002 60006 70262 875// 91200 333 61000=
07643,1997-01-09 15:00:00,8,1004,1.6,93,7,9000,14.816,,,330,,,,5,,,,,,60,wg-a,,,,AAXX 09154 07643 12359 73308 10080 20070 30031 40040 53016 60057 76062 877// 91500=
07643,1997-01-09 18:00:00,7,1005.9,1.9,100,7,12000,3.704,,,330,6.7,8.4,,1,,,,,,2,wg-a,,,,AAXX 09184 07643 02362 53302 10070 20070 30050 40059 51019 60006 70262 83730 91800 333 10084 20067 60017=
07643,1997-01-09 21:00:00,5,1007.9,2,100,5,10000,3.704,,,360,,,,0,,,,,,,wg-a,,,,AAXX 09214 07643 12760 63602 10050 20050 30070 40079 51020 60007 83530 92100=
07643,1997-01-10 00:00:00,4,1009.2,1.2,100,4,11000,11.112,,,280,,,,,,,,,,,wg-a,,,,AAXX 10004 07643 12761 52806 10040 20040 30082 40092 51012 60006 82530 90000=
07643,1997-01-10 03:00:00,5,1008.9,-0.2,87,3,15000,22.224,,,270,,,,,,,,,,,wg-a,,,,AAXX 10034 07643 12765 32712 10050 20030 30080 40089 58002 60006 81530 90300=
07643,1997-01-10 06:00:00,5,1009.4,0.4,65,-1,15000,25.928,,,290,3.7,6.8,,,,,6,,,,wg-a,,,,AAXX 10064 07643 02765 52914 10050 21010 30084 40094 53004 60006 81530 90600 333 10068 20037 60064=
07643,1997-01-10 09:00:00,6,1011.6,2.2,61,-1,500,35.188,,,290,,,,,,,,,,1,wg-a,,,,AAXX 10094 07643 02700 32919 10060 21010 30106 40116 53022 61000 70161 81532 90900 333 ////=
07643,1997-01-10 12:00:00,12,1011.5,0,47,1,50000,29.632,,,320,,,,,,,,,,1,wg-a,,,,AAXX 10124 07643 02784 13216 10120 20010 30106 40115 50000 61000 70161 81542 91200 333 ////=
07643,1997-01-10 15:00:00,12,1012.7,1.2,47,1,50000,18.52,,,320,,,,,,,,,,,wg-a,,,,AAXX 10154 07643 12784 13210 10120 20010 30118 40127 53012 60006 81500 91500=
07643,1997-01-10 18:00:00,6,1015.8,3,70,1,25000,14.816,,,280,4.8,12.6,,,,,,,,,wg-a,,,,AAXX 10184 07643 12/75 02808 10060 20010 30148 40158 52030 60006 80000 91800 333 10126 20048=
07643,1997-01-10 21:00:00,4,1017.2,1.4,81,1,10000,14.816,,,260,,,,,,,,,,,wg-a,,,,AAXX 10214 07643 12/60 /2608 10040 20010 30162 40172 51014 60006 92100=
07643,1997-01-11 00:00:00,2,1017.7,0.5,87,0,10000,7.408,,,280,,,,,,,,,,,wg-a,,,,AAXX 11004 07643 12/60 /2804 10020 20000 30167 40177 51005 60006 90000=
07643,1997-01-11 03:00:00,2,1019.2,1.5,87,0,25000,14.816,,,300,,,,,,,,,,,wg-a,,,,AAXX 11034 07643 12/75 03008 10020 20000 30182 40192 53015 60006 80000 90300=
07643,1997-01-11 06:00:00,3,1019.6,0.4,70,-2,25000,11.112,,,10,0.8,6.3,,,,,,,,,wg-a,,,,AAXX 11064 07643 02/75 00106 10030 21020 30186 40196 53004 60006 80000 90600 333 10063 20008 61000=
07643,1997-01-11 09:00:00,5,1021.2,1.6,65,-1,35000,14.816,,,340,,,,,,,,,,,wg-a,,,,AAXX 11094 07643 12/81 13408 10050 21010 30202 40212 53016 60006 81040 90900=
07643,1997-01-11 12:00:00,10,1020.4,-0.7,46,-1,50000,11.112,,,20,,,,,,,,,,,wg-a,,,,AAXX 11124 07643 12/84 10206 10100 21010 30195 40204 58007 60006 81040 91200=
07643,1997-01-11 15:00:00,11,1019.8,-0.6,50,1,50000,3.704,,,160,,,,,,,,,,,wg-a,,,,AAXX 11154 07643 12/84 31602 10110 20010 30189 40198 55006 60006 83030 91500=
07643,1997-01-11 18:00:00,6,1021,1.1,61,-1,35000,3.704,,,240,1.3,12,,,,,,,,,wg-a,,,,AAXX 11184 07643 12/81 12402 10060 21010 30200 40210 51011 60006 81030 91800 333 10120 20013=
07643,1997-01-11 21:00:00,4,1021.8,0.8,65,-2,20000,11.112,,,350,,,,,,,,,,,wg-a,,,,AAXX 11214 07643 12/70 13506 10040 21020 30208 40218 51008 60006 81030 92100=
07643,1997-01-12 00:00:00,2,1022.6,0.8,69,-3,20000,11.112,,,340,,,,,,,,,,,wg-a,,,,AAXX 12004 07643 12/70 13406 10020 21030 30216 40226 51008 60006 81030 90000=
07643,1997-01-12 03:00:00,0,1023.4,0.8,74,-4,20000,3.704,,,260,,,,,,,,,,,wg-a,,,,AAXX 12034 07643 12/70 02602 10000 21040 30224 40234 53008 60006 80000 90300=
07643,1997-01-12 06:00:00,-1,1023.5,0.1,80,-4,20000,3.704,,,310,-1.2,6.3,,,,,,,,,wg-a,,,,AAXX 12064 07643 02/70 03102 11010 21040 30225 40235 53001 60006 80000 90600 333 10063 21012 60004=
07643,1997-01-12 09:00:00,3,1024.6,1.1,65,-3,10000,3.704,,,320,,,,,,,,,,,wg-a,,,,AAXX 12094 07643 12/60 /3202 10030 21030 30236 40246 53011 60006 90900=
07643,1997-01-12 12:00:00,9,1023.8,-0.8,46,-2,20000,11.112,,,30,,,,,,,,,,,wg-a,,,,AAXX 12124 07643 12/70 00306 10090 21020 30228 40238 58008 60006 80000 91200=
07643,1997-01-12 15:00:00,11,1023.1,-0.6,47,0,20000,11.112,,,20,,,,,,,,,,,wg-a,,,,AAXX 12154 07643 12/70 00206 10110 20000 30222 40231 55006 60006 80000 91500=
07643,1997-01-12 18:00:00,5,1024.1,0.9,60,-2,10000,11.112,,,20,-1.4,11.7,,,,,,,,,wg-a,,,,AAXX 12184 07643 12/60 /0206 10050 21020 30231 40241 52009 60006 91800 333 10117 21014=
07643,1997-01-12 21:00:00,2,1025.1,1,69,-3,20000,11.112,,,10,,,,,,,,,,,wg-a,,,,AAXX 12214 07643 12/70 00106 10020 21030 30241 40251 53010 60006 80000 92100=
07643,1997-01-13 00:00:00,1,1025,-0.1,75,-3,20000,11.112,,,10,,,,,,,,,,,wg-a,,,,AAXX 13004 07643 12/70 00106 10010 21030 30240 40250 57001 60006 80000 90000=
07643,1997-01-13 03:00:00,0,1024.7,-0.3,74,-4,20000,7.408,,,20,,,,,,,,,,,wg-a,,,,AAXX 13034 07643 12/70 00204 10000 21040 30237 40247 57003 60006 80000 90300=
07643,1997-01-13 06:00:00,0,1024.9,0.2,74,-4,20000,14.816,,,30,-0.4,4.5,,,,,,,,,wg-a,,,,AAXX 13064 07643 02/70 00308 10000 21040 30239 40249 53002 60006 80000 90600 333 10045 21004 60004=
07643,1997-01-13 09:00:00,2,1025.6,0.7,69,-3,20000,11.112,,,20,,,,,,,,,,,wg-a,,,,AAXX 13094 07643 12/70 00206 10020 21030 30246 40256 53007 60006 80000 90900=
07643,1997-01-13 12:00:00,8,1025.2,-0.4,53,-1,8000,14.816,,,10,,,,,,,,,,,wg-a,,,,AAXX 13124 07643 12/58 00108 10080 21010 30242 40252 58004 60006 80000 91200=
07643,1997-01-13 15:00:00,10,1023.8,-1.3,57,2,500,7.408,,,70,,,,,,,,,,,wg-a,,,,AAXX 13154 07643 12/00 00704 10100 20020 30229 40238 56013 60006 80000 91500=
07643,1997-01-13 18:00:00,6,1024.3,0.4,70,1,12000,7.408,,,20,-1.3,11.6,,,,,,,,,wg-a,,,,AAXX 13184 07643 12/62 00204 10060 20010 30233 40243 53004 60006 80000 91800 333 10116 21013=
07643,1997-01-13 21:00:00,2,1024.9,0.6,80,-1,6000,7.408,,,360,,,,,,,,,,,wg-a,,,,AAXX 13214 07643 12/56 03604 10020 21010 30239 40249 51006 60006 80000 92100=
07643,1997-01-14 00:00:00,1,1024.8,-0.1,80,-2,6000,7.408,,,20,,,,,,,,,,,wg-a,,,,AAXX 14004 07643 12/56 /0204 10010 21020 30238 40248 58001 60006 90000=
07643,1997-01-14 03:00:00,1,1024.3,-0.5,80,-2,7000,11.112,,,20,,,,,,,,,,,wg-a,,,,AAXX 14034 07643 12257 /0206 10010 21020 30233 40243 56005 60006 81600 90300=
07643,1997-01-14 06:00:00,1,1024.3,-0,80,-2,8000,18.52,,,10,-0.2,5.8,,,,,,,,,wg-a,,,,AAXX 14064 07643 02/58 00110 10010 21020 30233 40243 55000 60006 80000 90600 333 10058 21002 60004=
07643,1997-01-14 09:00:00,4,1025,0.7,65,-2,20000,11.112,,,360,,,,,,,,,,,wg-a,,,,AAXX 14094 07643 12/70 03606 10040 21020 30240 40250 53007 60006 80000 90900=
07643,1997-01-14 12:00:00,11,1024.5,-0.4,47,0,50000,11.112,,,30,,,,,,,,,,,wg-a,,,,AAXX 14124 07643 12/84 00306 10110 20000 30237 40245 58004 60006 80000 91200=
07643,1997-01-14 15:00:00,12,1023.9,-0.6,47,1,10000,11.112,,,70,,,,,,,,,,,wg-a,,,,AAXX 14154 07643 12/60 /0706 10120 20010 30230 40239 55006 60006 91500=
07643,1997-01-14 18:00:00,7,1024.6,0.6,66,1,20000,7.408,,,40,0.4,12.5,,,,,,,,,wg-a,,,,AAXX 14184 07643 12/70 00404 10070 20010 30236 40246 53006 60006 80000 91800 333 10125 20004=
07643,1997-01-14 21:00:00,4,1025.5,0.9,75,0,11000,7.408,,,10,,,,,,,,,,,wg-a,,,,AAXX 14214 07643 12/61 00104 10040 20000 30245 40255 51009 60006 80000 92100=
07643,1997-01-15 00:00:00,2,1026.1,0.6,80,-1,11000,11.112,,,10,,,,,,,,,,,wg-a,,,,AAXX 15004 07643 12/61 00106 10020 21010 30251 40261 51006 60006 80000 90000=
07643,1997-01-15 06:00:00,2,1026.5,0.3,75,-2,12000,11.112,,,350,0.8,6.8,,,,,,,,,wg-a,,,,AAXX 15064 07643 02462 13506 10020 21020 30255 40265 53003 60006 81500 90600 333 10068 20008 60004=
07643,1997-01-15 09:00:00,4,1027.4,0.9,70,-1,500,11.112,,,10,,,,,,,,,,,wg-a,,,,AAXX 15094 07643 12500 70106 10040 21010 30264 40274 53009 60006 815// 90900=
07643,1997-01-15 12:00:00,11,1026.6,-0.7,54,2,500,7.408,,,80,,,,,,,,,,,wg-a,,,,AAXX 15124 07643 12500 40804 10110 20020 30257 40266 58007 60006 82530 91200=
07643,1997-01-15 15:00:00,12,1025.6,-1,67,6,50000,7.408,,,70,,,,,,,,,,,wg-a,,,,AAXX 15154 07643 12584 /0704 10120 20060 30247 40256 56010 60006 81530 91500=
07643,1997-01-15 18:00:00,8,1025.7,0,81,5,12000,7.408,,,10,1.3,13,,,,,,,,,wg-a,,,,AAXX 15184 07643 12562 /0104 10080 20050 30247 40257 50000 60006 81530 91800 333 10130 20013=
07643,1997-01-15 21:00:00,5,1026.4,0.7,93,4,9000,11.112,,,350,,,,,,,,,,,wg-a,,,,AAXX 15214 07643 12559 /3506 10050 20040 30254 40264 52007 60006 85500 92100=
07643,1997-01-16 00:00:00,3,1026.2,-0.2,93,2,9000,7.408,,,10,,,,,,,,,,,wg-a,,,,AAXX 16004 07643 12/59 /0104 10030 20020 30252 40262 56002 60006 90000=
07643,1997-01-16 03:00:00,3,1025,-1.2,93,2,8000,14.816,,,20,,,,,,,,,,,wg-a,,,,AAXX 16034 07643 12458 20208 10030 20020 30240 40250 58012 60006 82600 90300=
07643,1997-01-16 06:00:00,4,1024.7,-0.3,87,2,8000,7.408,,,350,2.1,7.5,,,,,,,,,wg-a,,,,AAXX 16064 07643 02458 73504 10040 20020 30237 40247 55003 60006 875// 90600 333 10075 20021 60004=
07643,1997-01-16 09:00:00,6,1025.2,0.5,87,4,12000,14.816,,,20,,,,,,,,,,,wg-a,,,,AAXX 16094 07643 12562 70208 10060 20040 30242 40252 51005 60006 875// 90900=
07643,1997-01-16 12:00:00,11,1024.2,-0.9,66,5,9000,14.816,,,60,,,,,,,,,,,wg-a,,,,AAXX 16124 07643 12459 70608 10110 20050 30233 40242 58009 60006 875// 91200=
07643,1997-01-16 15:00:00,12,1022.8,-1.4,76,8,15000,11.112,,,60,,,,,,,,,,,wg-a,,,,AAXX 16154 07643 12465 70606 10120 20080 30219 40228 56014 60006 875// 91500=
07643,1997-01-16 18:00:00,10,1022.7,-0.1,87,8,11000,7.408,,,30,3.6,11.7,,,,,,,,,wg-a,,,,AAXX 16184 07643 12461 70304 10100 20080 30218 40227 55001 60006 875// 91800 333 10117 20036=
07643,1997-01-16 21:00:00,8,1023,0.2,100,8,8000,11.112,,,30,,,,,,,,,,,wg-a,,,,AAXX 16214 07643 12458 70306 10080 20080 30220 40230 53002 60006 875// 92100=
07643,1997-01-17 00:00:00,8,1022.4,-0.6,93,7,6000,14.816,,,40,,,,,,,,,,,wg-a,,,,AAXX 17004 07643 12456 70408 10080 20070 30214 40224 58006 60006 875// 90000=
07643,1997-01-17 03:00:00,6,1021.5,-0.9,93,5,8000,18.52,,,50,,,,,,,,,,,wg-a,,,,AAXX 17034 07643 12558 70510 10060 20050 30205 40215 56009 60006 875// 90300=
07643,1997-01-17 06:00:00,7,1020.3,-1.2,87,5,8000,22.224,,,60,6.2,10.4,,,,,,,,60,wg-a,,,,AAXX 17064 07643 02458 70612 10070 20050 30193 40203 57012 61000 76062 875// 90600 333 10104 20062 6100=
07643,1997-01-17 09:00:00,7,1020.5,0.2,100,7,2000,18.52,,,90,,,,1,,,,,,61,wg-a,,,,AAXX 17094 07643 12320 80910 10070 20070 30195 40205 53002 60017 76162 877// 90900=
07643,1997-01-17 12:00:00,10,1019.4,-1,100,10,4500,29.632,,,110,,,,1,,,,,,21,wg-a,,,,AAXX 17124 07643 02345 81116 10100 20100 30185 40194 58010 60036 72162 885// 91200 333 60017=
07643,1997-01-17 15:00:00,11,1018.4,-1,94,10,500,31.484,,,100,,,,0,,,,,,60,wg-a,,,,AAXX 17154 07643 12500 81017 10110 20100 30175 40184 56010 60007 76062 885// 91500=
07643,1997-01-17 18:00:00,11,1018.9,0.5,94,10,6000,31.484,,,110,6.4,10.8,,,,,,,,60,wg-a,,,,AAXX 17184 07643 02756 81117 10110 20100 30180 40189 53005 61000 76062 885// 91800 333 10108 20064 6001=
07643,1997-01-17 21:00:00,10,1020.2,1.3,100,10,500,22.224,,,100,,,,1,,,,,,60,wg-a,,,,AAXX 17214 07643 12400 81012 10100 20100 30193 40202 51013 60017 76066 885// 92100=
07643,1997-01-18 00:00:00,9,1020.6,0.4,100,9,500,18.52,,,50,,,,3,,,,,,60,wg-a,,,,AAXX 18004 07643 02400 80510 10090 20090 30197 40206 50004 60036 76066 885// 90000 333 60037=
07643,1997-01-18 06:00:00,9,1020.4,-0.1,93,8,6000,14.816,,,10,8.7,10.7,,,,,7,,,3,wg-a,,,,AAXX 18064 07643 02556 80108 10090 20080 30195 40204 55001 60006 70362 885// 90600 333 10107 20087 60074=
07643,1997-01-18 09:00:00,9,1021.2,0.8,87,7,10000,11.112,,,20,,,,,,,,,,,wg-a,,,,AAXX 18094 07643 12560 70206 10090 20070 30203 40212 53008 60006 875// 90900=
07643,1997-01-18 12:00:00,10,1019.7,-1.5,82,7,8000,14.816,,,40,,,,,,,,,,,wg-a,,,,AAXX 18124 07643 12/58 /0408 10100 20070 30188 40197 58015 60006 91200=
07643,1997-01-18 15:00:00,11,1017.8,-1.9,87,9,8000,14.816,,,70,,,,,,,,,,,wg-a,,,,AAXX 18154 07643 12458 70708 10110 20090 30169 40178 56019 60006 875// 91500=
07643,1997-01-18 18:00:00,11,1016.7,-1.1,94,10,7000,31.484,,,120,8.4,11.3,,,,,,,,60,wg-a,,,,AAXX 18184 07643 02457 81217 10110 20100 30158 40167 55011 61000 76062 875// 91800 333 10113 20084 6100=
07643,1997-01-18 21:00:00,11,1016.3,-0.4,94,10,8000,18.52,,,110,,,,0,,,,,,1,wg-a,,,,AAXX 18214 07643 12558 81110 10110 20100 30154 40163 56004 60007 70162 885// 92100=
07643,1997-01-19 00:00:00,11,1014.6,-1.7,94,10,15000,22.224,,,120,,,,,,,,,,3,wg-a,,,,AAXX 19004 07643 12465 81212 10110 20100 30137 40146 58017 60016 70362 885// 90000=
07643,1997-01-19 03:00:00,11,1014.1,-0.5,94,10,15000,22.224,,,140,,,,,,,,,,,wg-a,,,,AAXX 19034 07643 12465 81412 10110 20100 30132 40141 56005 60006 8457/ 90300=
07643,1997-01-19 06:00:00,11,1013.4,-0.7,94,10,15000,18.52,,,140,10.4,11.4,,,,,,,,,wg-a,,,,AAXX 19064 07643 02465 71410 10110 20100 30125 40134 56007 60006 875// 90600 333 10114 20104 60004=
07643,1997-01-19 09:00:00,11,1013.7,0.3,94,10,9000,22.224,,,130,,,,,,,,,,,wg-a,,,,AAXX 19094 07643 12459 71312 10110 20100 30128 40137 53003 60006 878// 90900=
07643,1997-01-19 12:00:00,13,1012.4,-1.3,82,10,10000,22.224,,,140,,,,,,,,,,,wg-a,,,,AAXX 19124 07643 12460 71412 10130 20100 30115 40124 58013 60006 84802 91200=
07643,1997-01-19 15:00:00,12,1012.1,-0.3,82,9,7000,7.408,,,130,,,,,,,,,,,wg-a,,,,AAXX 19154 07643 12557 71304 10120 20090 30112 40121 56003 60006 8287/ 91500=
07643,1997-01-19 18:00:00,11,1012.4,0.3,94,10,7000,11.112,,,360,10.7,13.5,,,,,,,,,wg-a,,,,AAXX 19184 07643 12457 83606 10110 20100 30115 40124 52003 60006 8557/ 91800 333 10135 20107=
07643,1997-01-19 21:00:00,11,1013.3,0.9,100,11,7000,11.112,,,90,,,,,,,,,,,wg-a,,,,AAXX 19214 07643 32/57 /0906 10110 20110 30124 40133 53009 92100=
07643,1997-01-20 00:00:00,11,1011.8,-1.5,100,11,0,18.52,,,120,,,,,,,,,,,wg-a,,,,AAXX 20004 07643 12/// /1210 10110 20110 30109 40118 56015 60036 90000=
07643,1997-01-20 03:00:00,10,1010.4,-1.4,100,10,6000,11.112,,,20,,,,5,,,,,,61,wg-a,,,,AAXX 20034 07643 12156 80206 10100 20100 30095 40104 57014 60057 76166 887// 90300=
07643,1997-01-20 06:00:00,10,1010.2,-0.2,100,10,6000,18.52,,,10,9.4,11.6,,,,,,,,60,wg-a,,,,AAXX 20064 07643 02256 80110 10100 20100 30093 40102 56002 61000 76066 887// 90600 333 10116 20094 6010=
07643,1997-01-20 09:00:00,10,1012.4,2.2,93,9,10000,18.52,,,10,,,,,,,,,,2,wg-a,,,,AAXX 20094 07643 02360 80110 10100 20090 30115 40124 51022 61000 70262 887// 90900 333 ////=
07643,1997-01-20 12:00:00,13,1013.4,1,88,11,9000,29.632,,,90,,,,,,,,,,2,wg-a,,,,AAXX 20124 07643 02459 80916 10130 20110 30125 40134 50010 61000 70262 887// 91200 333 ////=
07643,1997-01-20 15:00:00,10,1014.4,1,93,9,6000,22.224,,,10,,,,1,,,,,,60,wg-a,,,,AAXX 20154 07643 12456 80112 10100 20090 30135 40144 53010 60017 76062 887// 91500=
07643,1997-01-20 18:00:00,9,1015.8,1.4,100,9,9000,18.52,,,10,9.2,12.6,,1,,,,,,2,wg-a,,,,AAXX 20184 07643 02559 80110 10090 20090 30149 40158 53014 60006 70262 885// 91800 333 10126 20092 60017=
07643,1997-01-20 21:00:00,10,1016.6,0.8,87,8,9000,18.52,,,10,,,,,,,,,,,wg-a,,,,AAXX 20214 07643 12559 80110 10100 20080 30157 40166 53008 60006 885// 92100=
07643,1997-01-21 00:00:00,10,1017.8,1.2,87,8,8000,14.816,,,20,,,,,,,,,,,wg-a,,,,AAXX 21004 07643 12558 80208 10100 20080 30169 40178 51012 60006 885// 90000=
07643,1997-01-21 03:00:00,10,1018.3,0.5,87,8,8000,14.816,,,20,,,,,,,,,,,wg-a,,,,AAXX 21034 07643 32/58 /0208 10100 20080 30174 40183 50005 90300=
07643,1997-01-21 06:00:00,9,1018.6,0.3,87,7,10000,14.816,,,20,9.2,10.2,,,,,2,,,3,wg-a,,,,AAXX 21064 07643 02560 70208 10090 20070 30177 40186 53003 60006 70362 875// 90600 333 10102 20092 60024=
07643,1997-01-21 09:00:00,10,1020.2,1.6,87,8,10000,14.816,,,10,,,,0,,,,,,25,wg-a,,,,AAXX 21094 07643 12460 70108 10100 20080 30193 40202 51016 60007 72586 878// 90900=
07643,1997-01-21 12:00:00,14,1020.4,0.2,82,11,12000,25.928,,,90,,,,,,,,,,1,wg-a,,,,AAXX 21124 07643 12762 40914 10140 20110 30195 40204 50002 60006 70186 82570 91200=
07643,1997-01-21 15:00:00,14,1020.5,0.1,82,11,12000,35.188,,,110,,,,,,,,,,,wg-a,,,,AAXX 21154 07643 12762 71119 10140 20110 30196 40205 53001 60006 81532 91500=
07643,1997-01-21 18:00:00,12,1021.6,1.1,94,11,11000,11.112,,,90,9.1,14.7,,,,,,,,,wg-a,,,,AAXX 21184 07643 12761 60906 10120 20110 30207 40216 53011 60006 81532 91800 333 10147 20091=
07643,1997-01-21 21:00:00,13,1021.7,0.1,88,11,9000,25.928,,,110,,,,,,,,,,,wg-a,,,,AAXX 21214 07643 12/59 /1114 10130 20110 30208 40217 53001 60006 82032 92100=
07643,1997-01-22 00:00:00,14,1021.2,-0.5,77,10,10000,42.596,,62.968,100,,,,,,,,,,,wg-a,,,,AAXX 22004 07643 12/60 61023 10140 20100 30203 40212 58005 60006 83032 90000 333 91034=
07643,1997-01-22 03:00:00,14,1021.4,0.2,77,10,12000,35.188,,,100,,,,,,,,,,,wg-a,,,,AAXX 22034 07643 12662 71019 10140 20100 30205 40214 53002 60006 81532 90300=
07643,1997-01-22 06:00:00,14,1022.6,1.2,77,10,12000,31.484,,,110,11.9,13.8,,,,,,,,,wg-a,,,,AAXX 22064 07643 02662 71117 10140 20100 30217 40226 53012 60006 85532 90600 333 10138 20119 60004=
07643,1997-01-22 09:00:00,14,1023,0.4,77,10,8000,31.484,,,100,,,,,,,,,,,wg-a,,,,AAXX 22094 07643 12658 81017 10140 20100 30221 40230 50004 60006 8357/ 90900=
07643,1997-01-22 12:00:00,14,1023,0,82,11,8000,46.3,,,110,,,,,,,,,,,wg-a,,,,AAXX 22124 07643 12/58 /1125 10140 20110 30221 40230 50000 60006 91200=
07643,1997-01-22 15:00:00,13,1022.9,-0.1,82,10,6000,46.3,,,120,,,,1,,,,,,60,wg-a,,,,AAXX 22154 07643 12656 81225 10130 20100 30220 40229 56001 60017 76062 8457/ 91500=
07643,1997-01-22 18:00:00,13,1023.4,0.5,82,10,8000,35.188,,,120,12.7,14,,,,,,,,1,wg-a,,,,AAXX 22184 07643 02658 81219 10130 20100 30225 40234 53005 60006 70162 8357/ 91800 333 10140 20127 61000=
07643,1997-01-22 21:00:00,13,1024.4,1,77,9,12000,7.408,,,50,,,,,,,,,,,wg-a,,,,AAXX 22214 07643 12662 80504 10130 20090 30235 40244 50010 60006 8357/ 92100=
07643,1997-01-23 00:00:00,12,1023.9,-0.5,82,9,12000,7.408,,,10,,,,,,,,,,,wg-a,,,,AAXX 23004 07643 12/62 70104 10120 20090 30230 40239 56005 60006 82037 90000=
07643,1997-01-23 03:00:00,11,1023.3,-0.6,82,8,12000,7.408,,,30,,,,,,,,,,,wg-a,,,,AAXX 23034 07643 12/62 70304 10110 20080 30224 40233 55006 60006 82037 90300=
07643,1997-01-23 06:00:00,9,1023.6,0.3,87,7,12000,14.816,,,350,9.3,13.5,,,,,1,,,,wg-a,,,,AAXX 23064 07643 02/62 83508 10090 20070 30227 40236 53003 60006 83037 90600 333 10135 20093 60014=
07643,1997-01-23 09:00:00,11,1024.6,1,82,8,12000,14.816,,,350,,,,,,,,,,,wg-a,,,,AAXX 23094 07643 12662 83508 10110 20080 30237 40246 53010 60006 8357/ 90900=
07643,1997-01-23 12:00:00,14,1024.1,-0.5,77,10,15000,11.112,,,10,,,,,,,,,,,wg-a,,,,AAXX 23124 07643 12665 80106 10140 20100 30232 40241 58005 60006 8557/ 91200=
07643,1997-01-23 18:00:00,13,1024,-0.1,82,10,8000,22.224,,,100,9.3,15.1,,,,,,,,,wg-a,,,,AAXX 23184 07643 12658 81012 10130 20100 30231 40240 57001 60006 8757/ 91800 333 10151 20093=
07643,1997-01-23 21:00:00,12,1024.9,0.9,88,10,8000,7.408,,,360,,,,,,,,,,,wg-a,,,,AAXX 23214 07643 12658 73604 10120 20100 30240 40249 51009 60006 8753/ 92100=
07643,1997-01-24 00:00:00,11,1024.8,-0.1,87,9,8000,11.112,,,20,,,,,,,,,,,wg-a,,,,AAXX 24004 07643 12658 70206 10110 20090 30239 40248 58001 60006 8753/ 90000=
07643,1997-01-24 03:00:00,11,1024.3,-0.5,82,8,9000,11.112,,,20,,,,,,,,,,,wg-a,,,,AAXX 24034 07643 12659 70206 10110 20080 30234 40243 56005 60006 8753/ 90300=
07643,1997-01-24 06:00:00,11,1024.6,0.3,82,8,9000,11.112,,,30,10.8,12.8,,,,,,,,,wg-a,,,,AAXX 24064 07643 02659 80306 10110 20080 30237 40246 53003 60006 8757/ 90600 333 10128 20108 60004=
07643,1997-01-24 12:00:00,15,1026,0.2,72,10,10000,11.112,,,20,,,,,,,,,,2,wg-a,,,,AAXX 24124 07643 02660 80206 10150 20100 30251 40260 50002 61000 70262 8757/ 91200 333 ////=
07643,1997-01-24 15:00:00,15,1025.7,-0.3,77,11,9000,11.112,,,80,,,,,,,,,,,wg-a,,,,AAXX 24154 07643 12659 70806 10150 20110 30248 40257 55003 60006 8457/ 91500=
07643,1997-01-24 18:00:00,14,1027,1.3,77,10,8000,7.408,,,50,10.9,15.8,,,,,,,,,wg-a,,,,AAXX 24184 07643 32658 70504 10140 20100 30261 40270 53013 8457/ 91800 333 10158 20109=
07643,1997-01-25 00:00:00,9,1027.5,-0.3,87,7,9000,11.112,,,40,,,,,,,,,,,wg-a,,,,AAXX 25004 07643 12/59 /0406 10090 20070 30265 40275 58003 60006 90000=
07643,1997-01-25 03:00:00,8,1027.1,-0.4,93,7,9000,14.816,,,350,,,,,,,,,,,wg-a,,,,AAXX 25034 07643 12/59 /3508 10080 20070 30261 40271 55004 60006 80001 90300=
07643,1997-01-25 06:00:00,8,1026.8,-0.3,93,7,9000,7.408,,,350,7.4,13.5,,,,,,,,,wg-a,,,,AAXX 25064 07643 02/59 73504 10080 20070 30258 40268 58003 60006 80001 90600 333 10135 20074 61000=
07643,1997-01-25 09:00:00,8,1027.8,1,93,7,9000,3.704,,,20,,,,,,,,,,,wg-a,,,,AAXX 25094 07643 12/59 /0202 10080 20070 30268 40278 53010 60006 90900=
07643,1997-01-25 12:00:00,13,1026.6,-1.1,72,8,9000,14.816,,,10,,,,,,,,,,,wg-a,,,,AAXX 25124 07643 12/59 /0108 10130 20080 30257 40266 57011 60006 91200=
07643,1997-01-25 15:00:00,15,1025.1,-1.5,63,8,10000,7.408,,,80,,,,,,,,,,,wg-a,,,,AAXX 25154 07643 12/60 /0804 10150 20080 30242 40251 56015 60006 91500=
07643,1997-01-25 18:00:00,10,1025.3,0.2,87,8,9000,7.408,,,300,6.6,15.3,,,,,,,,,wg-a,,,,AAXX 25184 07643 12/59 /3004 10100 20080 30244 40253 53002 60006 80002 91800 333 10153 20066=
07643,1997-01-25 21:00:00,8,1025.7,0.3,93,7,6000,3.704,,,270,,,,,,,,,,,wg-a,,,,AAXX 25214 07643 12/56 /2702 10080 20070 30247 40257 51003 60006 81034 92100=
07643,1997-01-26 00:00:00,7,1025.2,-0.5,93,6,8000,14.816,,,340,,,,,,,,,,,wg-a,,,,AAXX 26004 07643 12/58 33408 10070 20060 30242 40252 58005 60006 80002 90000=
07643,1997-01-26 03:00:00,6,1024.3,-0.9,93,5,10000,3.704,,,50,,,,,,,,,,,wg-a,,,,AAXX 26034 07643 32/60 00502 10060 20050 30233 40243 57009 80000 90300=
07643,1997-01-26 06:00:00,4,1024.5,0.2,93,3,9000,3.704,,,300,4.2,10.3,,,,,,,,,wg-a,,,,AAXX 26064 07643 02/59 /3002 10040 20030 30235 40245 53002 60006 80001 90600 333 10103 20042 60004=
07643,1997-01-26 09:00:00,7,1025.5,1,87,5,10000,11.112,,,360,,,,,,,,,,,wg-a,,,,AAXX 26094 07643 12/60 13606 10070 20050 30245 40255 53010 60006 80001 90900=
07643,1997-01-26 12:00:00,12,1025.2,-0.2,67,6,12000,14.816,,,10,,,,,,,,,,,wg-a,,,,AAXX 26124 07643 12/62 30108 10120 20060 30243 40252 58002 60006 80001 91200=
07643,1997-01-26 15:00:00,13,1024.5,-0.7,67,7,12000,3.704,,,90,,,,,,,,,,,wg-a,,,,AAXX 26154 07643 12/62 50902 10130 20070 30236 40245 55007 60006 84031 91500=
07643,1997-01-26 18:00:00,9,1025.3,0.7,87,7,8000,3.704,,,340,4,14,,,,,,,,,wg-a,,,,AAXX 26184 07643 12/58 /3402 10090 20070 30243 40253 53007 60006 83031 91800 333 10140 20040=
07643,1997-01-26 21:00:00,7,1026.5,1.2,87,5,8000,3.704,,,330,,,,,,,,,,,wg-a,,,,AAXX 26214 07643 12/58 /3302 10070 20050 30255 40265 51012 60006 92100=
07643,1997-01-27 00:00:00,6,1026.9,0.4,87,4,8000,14.816,,,10,,,,,,,,,,,wg-a,,,,AAXX 27004 07643 12458 70108 10060 20040 30259 40269 51004 60006 875// 90000=
07643,1997-01-27 03:00:00,6,1026.8,-0.1,93,5,9000,11.112,,,350,,,,,,,,,,,wg-a,,,,AAXX 27034 07643 12659 73506 10060 20050 30258 40268 58001 60006 875// 90300=
07643,1997-01-27 06:00:00,6,1027.4,0.6,93,5,9000,11.112,,,350,5.7,9.1,,,,,,,,,wg-a,,,,AAXX 27064 07643 02/59 /3506 10060 20050 30264 40274 51006 60006 90600 333 10091 20057 60004=
07643,1997-01-27 09:00:00,7,1028.8,1.4,87,5,9000,11.112,,,350,,,,,,,,,,,wg-a,,,,AAXX 27094 07643 12/59 73506 10070 20050 30278 40288 51014 60006 85031 90900=
07643,1997-01-27 12:00:00,12,1028.3,-0.4,71,7,10000,3.704,,,260,,,,,,,,,,,wg-a,,,,AAXX 27124 07643 12/60 22602 10120 20070 30274 40283 58004 60006 82031 91200=
07643,1997-01-27 15:00:00,11,1027.6,-0.7,71,6,10000,7.408,,,160,,,,,,,,,,,wg-a,,,,AAXX 27154 07643 12/60 11604 10110 20060 30267 40276 56007 60006 81031 91500=
07643,1997-01-27 18:00:00,8,1028.4,0.7,93,7,8000,7.408,,,170,6.2,12.4,,,,,,,,,wg-a,,,,AAXX 27184 07643 12/58 /1704 10080 20070 30274 40284 53007 60006 81030 91800 333 10124 20062=
07643,1997-01-27 21:00:00,7,1029.3,0.9,87,5,7000,7.408,,,20,,,,,,,,,,,wg-a,,,,AAXX 27214 07643 12457 40204 10070 20050 30283 40293 51009 60006 84500 92100=
07643,1997-01-28 00:00:00,7,1029.7,0.4,87,5,6000,3.704,,,340,,,,,,,,,,,wg-a,,,,AAXX 28004 07643 12656 /3402 10070 20050 30287 40297 51004 60006 86500 90000=
07643,1997-01-28 03:00:00,7,1029.3,-0.4,76,3,8000,7.408,,,340,,,,,,,,,,,wg-a,,,,AAXX 28034 07643 12558 73404 10070 20030 30283 40293 56004 60006 875// 90300=
07643,1997-01-28 06:00:00,6,1029.2,-0.1,70,1,9000,11.112,,,360,6.2,7.8,,,,,,,,,wg-a,,,,AAXX 28064 07643 02559 73606 10060 20010 30282 40292 55001 60006 875// 90600 333 10078 20062 60004=
07643,1997-01-28 09:00:00,6,1030,0.8,70,1,13000,11.112,,,340,,,,,,,,,,,wg-a,,,,AAXX 28094 07643 12663 73406 10060 20010 30290 40300 51008 60006 875// 90900=
07643,1997-01-28 12:00:00,8,1030.1,0.1,49,-2,15000,14.816,,,340,,,,,,,,,,,wg-a,,,,AAXX 28124 07643 12665 /3408 10080 21020 30291 40301 50001 60006 86500 91200=
07643,1997-01-28 15:00:00,9,1030.1,-0,49,-1,20000,18.52,,,20,,,,,,,,,,,wg-a,,,,AAXX 28154 07643 32670 20210 10090 21010 30291 40301 55000 82532 91500=
07643,1997-01-28 18:00:00,5,1032.4,2.3,75,1,10000,11.112,,,350,5.4,9.5,,,,,,,,,wg-a,,,,AAXX 28184 07643 12/60 73506 10050 20010 30314 40324 53023 60006 80004 91800 333 10095 20054=
07643,1997-01-28 21:00:00,4,1033.7,1.3,81,1,9000,11.112,,,350,,,,,,,,,,,wg-a,,,,AAXX 28214 07643 12559 /3506 10040 20010 30327 40337 51013 60006 83531 92100=
07643,1997-01-29 00:00:00,6,1033.6,-0.1,75,2,7000,18.52,,,30,,,,,,,,,,,wg-a,,,,AAXX 29004 07643 12/57 /0310 10060 20020 30326 40336 58001 60006 90000=
07643,1997-01-29 03:00:00,5,1033.7,0.1,81,2,7000,22.224,,,10,,,,,,,,,,,wg-a,,,,AAXX 29034 07643 02757 70112 10050 20020 30327 40337 50001 61000 8353/ 90300 333 ////=
07643,1997-01-29 06:00:00,5,1033.9,0.2,81,2,7000,14.816,,,20,3.6,5.5,,,,,,,,3,wg-a,,,,AAXX 29064 07643 02657 70208 10050 20020 30329 40339 53002 60006 70362 875// 90600 333 10055 20036 60004=
07643,1997-01-29 09:00:00,6,1034.1,0.2,75,2,8000,18.52,,,10,,,,,,,,,,,wg-a,,,,AAXX 29094 07643 12/58 /0110 10060 20020 30331 40341 53002 60006 90900=
07643,1997-01-29 12:00:00,11,1033.3,-0.8,62,4,8000,14.816,,,10,,,,,,,,,,,wg-a,,,,AAXX 29124 07643 12558 40108 10110 20040 30323 40333 58008 60006 84500 91200=
07643,1997-01-29 15:00:00,12,1031.8,-1.4,58,4,10000,7.408,,,110,,,,,,,,,,,wg-a,,,,AAXX 29154 07643 12/60 /1104 10120 20040 30309 40318 56014 60006 91500=
07643,1997-01-29 18:00:00,8,1032.2,0.3,81,5,12000,7.408,,,70,4.5,13.3,,,,,,,,,wg-a,,,,AAXX 29184 07643 12/62 30704 10080 20050 30312 40322 53003 60006 80001 91800 333 10133 20045=
07643,1997-01-29 21:00:00,5,1033.2,1,87,3,8000,3.704,,,350,,,,,,,,,,,wg-a,,,,AAXX 29214 07643 12/58 03502 10050 20030 30322 40332 53010 60006 80000 92100=
07643,1997-01-30 00:00:00,2,1033,-0.2,93,1,7000,7.408,,,10,,,,,,,,,,,wg-a,,,,AAXX 30004 07643 12/57 00104 10020 20010 30320 40330 58002 60006 80000 90000=
07643,1997-01-30 03:00:00,1,1032.9,-0.1,93,0,8000,11.112,,,10,,,,,,,,,,,wg-a,,,,AAXX 30034 07643 12/58 00106 10010 20000 30319 40329 58001 60006 80000 90300=
07643,1997-01-30 06:00:00,1,1032.9,-0,93,0,8000,11.112,,,20,0.9,8.3,,,,,,,,,wg-a,,,,AAXX 30064 07643 02/58 00206 10010 20000 30319 40329 55000 60006 80000 90600 333 10083 20009 60004=
07643,1997-01-30 09:00:00,4,1033.7,0.8,81,1,4500,7.408,,,340,,,,,,,,,,10,wg-a,,,,AAXX 30094 07643 12/45 /3404 10040 20010 30327 40337 53008 60006 71000 80002 90900=
07643,1997-01-30 12:00:00,10,1032.9,,57,2,8000,11.112,,,30,,,,,,,,,,,wg-a,,,,AAXX 30124 07643 12/58 00306 10100 20020 30319 40329 60006 80000 91200=
07643,1997-01-30 15:00:00,11,1031.2,-1.7,62,4,9000,11.112,,,100,,,,,,,,,,,wg-a,,,,AAXX 30154 07643 12/59 01006 10110 20040 30302 40312 58017 60006 80000 91500=
07643,1997-01-30 18:00:00,7,1031.2,-0,87,5,6000,7.408,,,250,0.5,11.6,,,,,,,,,wg-a,,,,AAXX 30184 07643 12/56 /2504 10070 20050 30302 40312 55000 60006 80002 91800 333 10116 20005=
07643,1997-01-31 00:00:00,3,1031.2,0.2,93,2,4000,3.704,,,20,,,,,,,,,,10,wg-a,,,,AAXX 31004 07643 12/40 00202 10030 20020 30302 40312 53002 60006 71000 80000 90000=
07643,1997-01-31 03:00:00,1,1030.6,-0.6,100,1,3000,7.408,,,10,,,,,,,,,,10,wg-a,,,,AAXX 31034 07643 12/30 00104 10010 20010 30296 40306 57006 60006 71000 80000 90300=
07643,1997-01-31 12:00:00,9,1029,-1.5,71,4,500,11.112,,,110,,,,,,,,,,,wg-a,,,,AAXX 31124 07643 12/00 01106 10090 20040 30280 40290 58015 60006 80000 91200=
07643,1997-01-31 15:00:00,11,1027.1,-1.9,62,4,0,7.408,,,90,,,,,,,,,,,wg-a,,,,AAXX 31154 07643 12/// 00904 10110 20040 30261 40271 56019 60006 80000 91500=
07643,1997-01-31 18:00:00,6,1027.3,0.2,93,5,3000,3.704,,,260,0.1,10.8,,,,,,,,10,wg-a,,,,AAXX 31184 07643 12/30 02602 10060 20050 30263 40273 53002 60006 71011 80000 91800 333 10108 20001=
07643,1997-01-31 21:00:00,4,1027.4,0.1,93,3,3000,7.408,,,30,,,,,,,,,,10,wg-a,,,,AAXX 31214 07643 12/30 00304 10040 20030 30264 40274 50001 60006 71000 80000 92100=
07643,1997-02-01 00:00:00,1,1027.4,0,93,0,2500,3.704,,,20,,,,,,,,,,10,wg-a,,,,AAXX 01004 07643 12425 /0202 10010 20000 30264 40274 50000 60006 71000 81600 90000=
07643,1997-02-01 03:00:00,1,1027.2,-0.2,93,0,4000,7.408,,,20,,,,,,,,,,,wg-a,,,,AAXX 01034 07643 12/40 /0204 10010 20000 30262 40272 58002 60006 90300=
07643,1997-02-01 06:00:00,0,1027,-0.2,93,-1,4000,7.408,,,340,-0.5,6,,,,,,,,10,wg-a,,,,AAXX 01064 07643 02440 /3404 10000 21010 30260 40270 56002 60006 71011 81600 90600 333 10060 21005 60004=
07643,1997-02-01 09:00:00,2,1027.5,0.5,80,-1,500,7.408,,,350,,,,,,,,,,,wg-a,,,,AAXX 01094 07643 12/00 /3504 10020 21010 30265 40275 50005 60006 90900=
07643,1997-02-01 12:00:00,8,1026.9,-0.6,61,1,8000,7.408,,,90,,,,,,,,,,,wg-a,,,,AAXX 01124 07643 12/58 /0904 10080 20010 30259 40269 58006 60006 91200=
07643,1997-02-01 15:00:00,10,1025.9,-1,62,3,8000,7.408,,,160,,,,,,,,,,,wg-a,,,,AAXX 01154 07643 12/58 /1604 10100 20030 30249 40259 56010 60006 80001 91500=
07643,1997-02-01 18:00:00,5,1026.5,0.6,87,3,6000,7.408,,,250,-1.3,10,,,,,,,,,wg-a,,,,AAXX 01184 07643 12/56 /2504 10050 20030 30255 40265 53006 60006 80001 91800 333 10100 21013=
07643,1997-02-01 21:00:00,3,1026.5,-0,87,1,4000,3.704,,,290,,,,,,,,,,10,wg-a,,,,AAXX 01214 07643 12/40 32902 10030 20010 30255 40265 54000 60006 71000 80001 92100=
07643,1997-02-02 06:00:00,0,1025.7,0.1,100,0,500,7.408,,,30,0.2,5.2,,,,,,,,,wg-a,,,,AAXX 02064 07643 02/00 20304 10000 20000 30247 40257 53001 60006 80001 90600 333 10052 20002 60004=
07643,1997-02-02 09:00:00,3,1027,1.3,81,0,4000,11.112,,,340,,,,,,,,,,10,wg-a,,,,AAXX 02094 07643 12/40 03406 10030 20000 30260 40270 51013 60006 71000 80000 90900=
07643,1997-02-02 12:00:00,10,1026.4,-0.6,50,0,8000,14.816,,,20,,,,,,,,,,,wg-a,,,,AAXX 02124 07643 12/58 00208 10100 20000 30254 40264 58006 60006 80000 91200=
07643,1997-02-02 15:00:00,12,1025.2,-1.2,58,4,9000,11.112,,,80,,,,,,,,,,,wg-a,,,,AAXX 02154 07643 12/59 20806 10120 20040 30242 40252 56012 60006 80002 91500=
07643,1997-02-02 18:00:00,8,1025.8,0.6,81,5,7000,3.704,,,350,-0.4,12.1,,,,,,,,,wg-a,,,,AAXX 02184 07643 12/57 33502 10080 20050 30248 40258 53006 60006 80002 91800 333 10121 21004=
07643,1997-02-02 21:00:00,5,1026.5,0.7,93,4,4000,3.704,,,360,,,,,,,,,,10,wg-a,,,,AAXX 02214 07643 12/40 /3602 10050 20040 30255 40265 52007 60006 71011 80001 92100=
07643,1997-02-03 00:00:00,5,1026.2,-0.3,87,3,4000,11.112,,,340,,,,,,,,,,,wg-a,,,,AAXX 03004 07643 12/40 /3406 10050 20030 30252 40262 58003 60006 90000=
07643,1997-02-03 03:00:00,5,1025.6,-0.6,87,3,4500,11.112,,,350,,,,,,,,,,10,wg-a,,,,AAXX 03034 07643 12/45 83506 10050 20030 30246 40256 57006 60006 71022 8802/ 90300=
07643,1997-02-03 06:00:00,6,1025.6,-0,81,3,4500,11.112,,,10,4.2,8,,,,,,,,10,wg-a,,,,AAXX 03064 07643 02545 80106 10060 20030 30246 40256 55000 60006 71062 885// 90600 333 10080 20042 60004=
07643,1997-02-03 09:00:00,6,1026.8,1.2,87,4,9000,3.704,,,350,,,,,,,,,,1,wg-a,,,,AAXX 03094 07643 02459 83502 10060 20040 30258 40268 53012 61000 70162 885// 90900 333 ////=
07643,1997-02-03 12:00:00,7,1027.1,0.3,81,4,7000,11.112,,,360,,,,,,,,,,3,wg-a,,,,AAXX 03124 07643 02557 83606 10070 20040 30261 40271 50003 61000 70362 885// 91200 333 ////=
07643,1997-02-03 15:00:00,9,1026.2,-0.9,66,3,9000,7.408,,,350,,,,,,,,,,,wg-a,,,,AAXX 03154 07643 12659 73504 10090 20030 30252 40262 56009 60006 875// 91500=
07643,1997-02-03 18:00:00,8,1026.7,0.5,81,5,6000,7.408,,,260,5.5,9,,,,,,,,,wg-a,,,,AAXX 03184 07643 12756 52604 10080 20050 30257 40267 53005 60006 83530 91800 333 10090 20055=
07643,1997-02-03 21:00:00,4,1028,1.3,87,2,6000,11.112,,,20,,,,,,,,,,,wg-a,,,,AAXX 03214 07643 12656 50206 10040 20020 30270 40280 53013 60006 83530 92100=
07643,1997-02-04 00:00:00,2,1028.4,0.4,93,1,6000,0,,,0,,,,,,,,,,,wg-a,,,,AAXX 04004 07643 12756 30000 10020 20010 30274 40284 51004 60006 83500 90000=
07643,1997-02-04 03:00:00,1,1028.1,-0.3,93,0,6000,11.112,,,350,,,,,,,,,,,wg-a,,,,AAXX 04034 07643 12756 33506 10010 20000 30271 40281 56003 60006 83500 90300=
07643,1997-02-04 06:00:00,1,1028.1,-0,93,0,6000,7.408,,,350,0.1,7.5,,,,,,,,,wg-a,,,,AAXX 04064 07643 02456 23504 10010 20000 30271 40281 55000 60006 82500 90600 333 10075 20001 61000=
07643,1997-02-04 09:00:00,4,1028.8,0.7,81,1,500,11.112,,,330,,,,0,,,,,,,wg-a,,,,AAXX 04094 07643 12/00 33306 10040 20010 30278 40288 53007 60007 80001 90900=
07643,1997-02-04 12:00:00,10,1027.9,-0.9,57,2,10000,3.704,,,60,,,,,,,,,,,wg-a,,,,AAXX 04124 07643 12/60 40602 10100 20020 30269 40279 58009 60006 80001 91200=
07643,1997-02-04 15:00:00,12,1026.1,-1.8,58,4,12000,11.112,,,200,,,,,,,,,,,wg-a,,,,AAXX 04154 07643 12/62 02006 10120 20040 30251 40261 56018 60006 80000 91500=
07643,1997-02-04 18:00:00,6,1026.5,0.4,87,4,6000,7.408,,,220,0.3,12.1,,,,,,,,,wg-a,,,,AAXX 04184 07643 12/56 /2204 10060 20040 30255 40265 53004 60006 80001 91800 333 10121 20003=
07643,1997-02-04 21:00:00,4,1027.1,0.6,93,3,6000,3.704,,,250,,,,,,,,,,,wg-a,,,,AAXX 04214 07643 12/56 02502 10040 20030 30261 40271 51006 60006 80000 92100=
07643,1997-02-05 00:00:00,2,1027.2,0.1,100,2,0,0,,,0,,,,,,,,,,,wg-a,,,,AAXX 05004 07643 12/// /0000 10020 20020 30262 40272 52001 60006 90000=
07643,1997-02-05 03:00:00,1,1026.5,-0.7,100,1,200,7.408,,,350,,,,,,,,,,43,wg-a,,,,AAXX 05034 07643 12/02 93504 10010 20010 30255 40265 58007 60006 74341 89/// 90300=
07643,1997-02-05 06:00:00,2,1026.1,-0.4,100,2,200,11.112,,,360,0.3,5.8,,,,,1,,,45,wg-a,,,,AAXX 05064 07643 02/02 93606 10020 20020 30251 40261 57004 60006 74541 89/// 90600 333 10058 20003 60014=
07643,1997-02-05 09:00:00,4,1026.6,0.5,100,4,3000,3.704,,,60,,,,,,,,,,10,wg-a,,,,AAXX 05094 07643 12/30 /0602 10040 20040 30256 40266 52005 60006 71042 81032 90900=
07643,1997-02-05 12:00:00,8,1025.7,-0.9,93,7,4500,7.408,,,110,,,,,,,,,,10,wg-a,,,,AAXX 05124 07643 02645 /1104 10080 20070 30247 40257 58009 61000 71064 82532 91200 333 6100=
07643,1997-02-05 15:00:00,14,1024.5,-1.2,58,6,15000,29.632,,,280,,,,,,,,,,,wg-a,,,,AAXX 05154 07643 12565 52816 10140 20060 30235 40245 55012 60006 83832 91500=
07643,1997-02-05 18:00:00,11,1025.2,0.7,71,6,20000,18.52,,,240,2.3,15.1,,,,,,,,,wg-a,,,,AAXX 05184 07643 12670 22410 10110 20060 30242 40252 51007 60006 82500 91800 333 10151 20023=
07643,1997-02-05 21:00:00,12,1026.8,1.6,54,3,20000,18.52,,,310,,,,,,,,,,,wg-a,,,,AAXX 05214 07643 12/70 03110 10120 20030 30258 40268 53016 60006 80000 92100=
07643,1997-02-06 00:00:00,10,1028.9,2.1,50,0,20000,18.52,,,300,,,,,,,,,,,wg-a,,,,AAXX 06004 07643 12/70 43010 10100 20000 30279 40289 51021 60006 80001 90000=
07643,1997-02-06 03:00:00,7,1028.6,-0.3,57,-1,20000,11.112,,,330,,,,,,,,,,,wg-a,,,,AAXX 06034 07643 12/70 23306 10070 21010 30276 40286 56003 60006 80001 90300=
07643,1997-02-06 06:00:00,3,1028.8,0.2,81,0,20000,11.112,,,290,3.1,12,,,,,,,,,wg-a,,,,AAXX 06064 07643 02/70 02906 10030 20000 30278 40288 53002 60006 80000 90600 333 10120 20031 61000=
07643,1997-02-06 09:00:00,7,1030.7,1.9,66,1,500,11.112,,,280,,,,,,,,,,,wg-a,,,,AAXX 06094 07643 12/00 32806 10070 20010 30297 40307 51019 60006 80001 90900=
07643,1997-02-06 12:00:00,14,1030.3,-0.4,28,-4,50000,14.816,,,20,,,,,,,,,,,wg-a,,,,AAXX 06124 07643 12/84 00208 10140 21040 30293 40303 58004 60006 80000 91200=
07643,1997-02-06 15:00:00,15,1030.3,-0,23,-6,75000,29.632,,,20,,,,,,,,,,,wg-a,,,,AAXX 06154 07643 12/89 00216 10150 21060 30293 40303 55000 60006 80000 91500=
07643,1997-02-06 18:00:00,10,1031.8,1.5,43,-2,50000,7.408,,,350,2.2,15.4,,,,,,,,,wg-a,,,,AAXX 06184 07643 12/84 03504 10100 21020 30308 40318 53015 60006 80000 91800 333 10154 20022=
07643,1997-02-06 21:00:00,5,1032.7,0.9,60,-2,500,3.704,,,30,,,,,,,,,,,wg-a,,,,AAXX 06214 07643 12/00 00302 10050 21020 30317 40327 53009 60006 80000 92100=
07643,1997-02-07 00:00:00,3,1033.4,0.7,75,-1,25000,11.112,,,350,,,,,,,,,,,wg-a,,,,AAXX 07004 07643 12/75 03506 10030 21010 30324 40334 51007 60006 80000 90000=
07643,1997-02-07 03:00:00,2,1033,-0.4,80,-1,25000,7.408,,,340,,,,,,,,,,,wg-a,,,,AAXX 07034 07643 12/75 03404 10020 21010 30320 40330 58004 60006 80000 90300=
07643,1997-02-07 06:00:00,2,1033.8,0.8,80,-1,12000,11.112,,,350,1.4,9.6,,,,,,,,,wg-a,,,,AAXX 07064 07643 02/62 03506 10020 21010 30328 40338 53008 60006 80000 90600 333 10096 20014 60004=
07643,1997-02-07 09:00:00,6,1035.3,1.5,70,1,20000,11.112,,,10,,,,,,,,,,,wg-a,,,,AAXX 07094 07643 12/70 00106 10060 20010 30343 40353 51015 60006 80000 90900=
07643,1997-02-07 12:00:00,13,1035.5,0.2,51,3,500,7.408,,,90,,,,,,,,,,,wg-a,,,,AAXX 07124 07643 12/00 00904 10130 20030 30345 40355 50002 60006 80000 91200=
07643,1997-02-07 15:00:00,14,1034.4,-1.1,58,6,75000,7.408,,,130,,,,,,,,,,,wg-a,,,,AAXX 07154 07643 12/89 01304 10140 20060 30334 40344 56011 60006 80000 91500=
07643,1997-02-07 18:00:00,9,1034.6,0.2,81,6,25000,0,,,0,0.8,14.2,,,,,,,,,wg-a,,,,AAXX 07184 07643 12/75 00000 10090 20060 30336 40346 53002 60006 80000 91800 333 10142 20008=
07643,1997-02-07 21:00:00,6,1035,0.4,87,4,8000,7.408,,,350,,,,,,,,,,,wg-a,,,,AAXX 07214 07643 12/58 03504 10060 20040 30340 40350 51004 60006 80000 92100=
07643,1997-02-08 00:00:00,3,1035.2,0.2,93,2,6000,3.704,,,10,,,,,,,,,,,wg-a,,,,AAXX 08004 07643 12/56 00102 10030 20020 30342 40352 50002 60006 80000 90000=
07643,1997-02-08 03:00:00,2,1034.8,-0.4,100,2,6000,7.408,,,10,,,,,,,,,,,wg-a,,,,AAXX 08034 07643 12/56 00104 10020 20020 30338 40348 56004 60006 80000 90300=
07643,1997-02-08 06:00:00,4,1034.9,0.1,87,2,7000,11.112,,,20,2,8.4,,,,,,,,,wg-a,,,,AAXX 08064 07643 02557 70206 10040 20020 30339 40349 53001 60006 875// 90600 333 10084 20020 60004=
07643,1997-02-08 09:00:00,6,1035.2,0.3,75,2,13000,11.112,,,20,,,,,,,,,,,wg-a,,,,AAXX 08094 07643 12563 40206 10060 20020 30342 40352 50003 60006 84500 90900=
07643,1997-02-08 12:00:00,12,1034.5,-0.7,67,6,13000,11.112,,,70,,,,,,,,,,,wg-a,,,,AAXX 08124 07643 12563 40706 10120 20060 30335 40345 58007 60006 84500 91200=
07643,1997-02-08 15:00:00,14,1032.8,-1.7,67,8,12000,11.112,,,150,,,,,,,,,,,wg-a,,,,AAXX 08154 07643 12562 /1506 10140 20080 30318 40328 56017 60006 81500 91500=
07643,1997-02-08 18:00:00,9,1032.9,0.1,87,7,8000,11.112,,,160,3.9,13.7,,,,,,,,,wg-a,,,,AAXX 08184 07643 12558 /1606 10090 20070 30319 40329 53001 60006 84500 91800 333 10137 20039=
07643,1997-02-08 21:00:00,6,1033.3,0.4,93,5,6000,7.408,,,350,,,,,,,,,,,wg-a,,,,AAXX 08214 07643 12556 23504 10060 20050 30323 40333 53004 60006 82500 92100=
07643,1997-02-09 00:00:00,4,1033.2,-0.1,93,3,800,3.704,,,20,,,,,,,,,,44,wg-a,,,,AAXX 09004 07643 12508 70202 10040 20030 30322 40332 57001 60006 74441 87500 90000=
07643,1997-02-09 03:00:00,6,1032.3,-0.9,100,6,6000,3.704,,,350,,,,,,,,,,28,wg-a,,,,AAXX 09034 07643 12556 73502 10060 20060 30313 40323 58009 60006 72842 87500 90300=
07643,1997-02-09 06:00:00,6,1032.1,-0.2,93,5,6000,7.408,,,20,3.5,8.8,,,,,,,,2,wg-a,,,,AAXX 09064 07643 02556 80204 10060 20050 30311 40321 56002 60006 70242 88500 90600 333 10088 20035 60004=
07643,1997-02-09 09:00:00,7,1032.9,0.8,93,6,9000,11.112,,,340,,,,,,,,,,,wg-a,,,,AAXX 09094 07643 12559 /3406 10070 20060 30319 40329 51008 60006 86500 90900=
07643,1997-02-09 12:00:00,12,1032.4,-0.5,71,7,20000,11.112,,,110,,,,,,,,,,,wg-a,,,,AAXX 09124 07643 12570 31106 10120 20070 30314 40324 58005 60006 83501 91200=
07643,1997-02-09 15:00:00,13,1030.6,-1.8,62,6,15000,11.112,,,180,,,,,,,,,,,wg-a,,,,AAXX 09154 07643 12/65 51806 10130 20060 30296 40306 56018 60006 80004 91500=
07643,1997-02-09 18:00:00,8,1030.9,0.3,93,7,10000,7.408,,,200,5.5,13.2,,,,,,,,,wg-a,,,,AAXX 09184 07643 12/60 62004 10080 20070 30299 40309 53003 60006 80001 91800 333 10132 20055=
07643,1997-02-09 21:00:00,5,1031.5,0.6,100,5,9000,3.704,,,280,,,,,,,,,,,wg-a,,,,AAXX 09214 07643 12/59 32802 10050 20050 30305 40315 51006 60006 80001 92100=
07643,1997-02-10 00:00:00,3,1031.4,-0.1,100,3,1200,7.408,,,30,,,,,,,,,,10,wg-a,,,,AAXX 10004 07643 12/12 20304 10030 20030 30304 40314 55001 60006 71041 80001 90000=
07643,1997-02-10 03:00:00,1,1030.6,-0.8,100,1,2000,3.704,,,350,,,,0,,,,,,10,wg-a,,,,AAXX 10034 07643 12320 43502 10010 20010 30296 40306 58008 60007 71000 84701 90300=
07643,1997-02-10 06:00:00,3,1030.3,-0.3,100,3,1200,7.408,,,340,1.1,8.2,,,,,,,,10,wg-a,,,,AAXX 10064 07643 02112 73404 10030 20030 30293 40303 56003 60006 71041 877// 90600 333 10082 20011 60004=
07643,1997-02-10 09:00:00,4,1031.2,0.9,100,4,200,11.112,,,340,,,,,,,,,,45,wg-a,,,,AAXX 10094 07643 12/02 93406 10040 20040 30302 40312 52009 60006 74542 89/// 90900=
07643,1997-02-10 12:00:00,6,1030.4,-0.8,100,6,1500,3.704,,,40,,,,,,,,,,10,wg-a,,,,AAXX 10124 07643 12115 80402 10060 20060 30294 40304 58008 60006 71042 886// 91200=
07643,1997-02-10 15:00:00,8,1028.9,-1.5,93,7,500,3.704,,,140,,,,,,,,,,,wg-a,,,,AAXX 10154 07643 12300 81402 10080 20070 30279 40289 56015 60006 886// 91500=
07643,1997-02-10 18:00:00,7,1029,0.1,93,6,4500,3.704,,,200,2.9,7.7,,,,,,,,10,wg-a,,,,AAXX 10184 07643 12345 82002 10070 20060 30280 40290 53001 60006 71022 886// 91800 333 10077 20029=
07643,1997-02-10 21:00:00,7,1029.6,0.6,87,5,4500,3.704,,,320,,,,,,,,,,10,wg-a,,,,AAXX 10214 07643 12445 83202 10070 20050 30286 40296 51006 60006 71022 886// 92100=
07643,1997-02-11 00:00:00,7,1029.7,0.1,87,5,0,7.408,,,360,,,,,,,,,,,wg-a,,,,AAXX 11004 07643 12/// /3604 10070 20050 30287 40297 51001 60006 90000=
07643,1997-02-11 03:00:00,6,1028.8,-0.9,93,5,3500,7.408,,,360,,,,,,,,,,10,wg-a,,,,AAXX 11034 07643 12235 83604 10060 20050 30278 40288 58009 60006 71022 886// 90300=
07643,1997-02-11 06:00:00,5,1028.6,-0.2,93,4,4000,3.704,,,310,4.8,7.4,,,,,,,,10,wg-a,,,,AAXX 11064 07643 02340 73102 10050 20040 30276 40286 55002 60006 71022 83632 90600 333 10074 20048 60004=
07643,1997-02-11 09:00:00,7,1028.7,0.1,93,6,4000,3.704,,,60,,,,,,,,,,10,wg-a,,,,AAXX 11094 07643 12640 70602 10070 20060 30277 40287 50001 60006 71022 8353/ 90900=
07643,1997-02-11 12:00:00,11,1028.1,-0.6,76,7,6000,7.408,,,110,,,,,,,,,,,wg-a,,,,AAXX 11124 07643 12656 /1104 10110 20070 30271 40281 58006 60006 82532 91200=
07643,1997-02-11 15:00:00,15,1027.1,-1,67,9,10000,11.112,,,270,,,,,,,,,,,wg-a,,,,AAXX 11154 07643 12660 72706 10150 20090 30261 40271 56010 60006 8253/ 91500=
07643,1997-02-11 18:00:00,13,1027.4,0.3,72,8,9000,22.224,,,260,4.5,17.1,,,,,,,,,wg-a,,,,AAXX 11184 07643 12659 72612 10130 20080 30264 40274 53003 60006 8353/ 91800 333 10171 20045=
07643,1997-02-11 21:00:00,12,1027.9,0.5,76,8,10000,11.112,,,220,,,,,,,,,,,wg-a,,,,AAXX 11214 07643 12660 72206 10120 20080 30269 40279 51005 60006 8253/ 92100=
07643,1997-02-12 00:00:00,11,1027.4,-0.5,87,9,10000,18.52,,,240,,,,,,,,,,,wg-a,,,,AAXX 12004 07643 12660 /2410 10110 20090 30264 40274 58005 60006 83530 90000=
07643,1997-02-12 03:00:00,12,1026.2,-1.2,88,10,10000,22.224,,,230,,,,,,,,,,,wg-a,,,,AAXX 12034 07643 12660 72312 10120 20100 30252 40262 58012 60006 8353/ 90300=
07643,1997-02-12 06:00:00,12,1026.4,0.2,76,8,15000,11.112,,,240,10.4,13.3,,,,,,,,,wg-a,,,,AAXX 12064 07643 02665 42406 10120 20080 30254 40264 50002 60006 82530 90600 333 10133 20104 60004=
07643,1997-02-12 09:00:00,16,1026.6,0.2,63,9,50000,14.816,,,260,,,,,,,,,,,wg-a,,,,AAXX 12094 07643 12784 52608 10160 20090 30256 40266 50002 60006 81542 90900=
07643,1997-02-12 12:00:00,19,1024.9,-1.7,49,8,50000,25.928,,,270,,,,,,,,,,,wg-a,,,,AAXX 12124 07643 12684 32714 10190 20080 30239 40249 58017 60006 81542 91200=
07643,1997-02-12 15:00:00,20,1022.2,-2.6,46,8,50000,22.224,,,260,,,,,,,,,,,wg-a,,,,AAXX 12154 07643 12684 42612 10200 20080 30213 40222 56026 60006 82542 91500=
07643,1997-02-12 18:00:00,14,1021.6,-0.7,67,8,15000,7.408,,,240,11.1,20.9,,,,,,,,,wg-a,,,,AAXX 12184 07643 12665 42404 10140 20080 30206 40216 55007 60006 81542 91800 333 10209 20111=
07643,1997-02-12 21:00:00,12,1023,1.4,76,8,15000,14.816,,,260,,,,,,,,,,,wg-a,,,,AAXX 12214 07643 12/65 12608 10120 20080 30220 40230 53014 60006 80001 92100=
07643,1997-02-13 00:00:00,9,1021.7,-1.3,87,7,15000,11.112,,,280,,,,,,,,,,,wg-a,,,,AAXX 13004 07643 12/65 02806 10090 20070 30207 40217 57013 60006 80000 90000=
07643,1997-02-13 03:00:00,12,1020.8,-0.9,71,7,15000,7.408,,,240,,,,,,,,,,,wg-a,,,,AAXX 13034 07643 12665 /2404 10120 20070 30198 40208 56009 60006 86500 90300=
07643,1997-02-13 06:00:00,12,1021,0.2,62,5,15000,22.224,,,270,7.9,13.6,,,,,,,,,wg-a,,,,AAXX 13064 07643 02665 /2712 10120 20050 30200 40210 53002 60006 86500 90600 333 10136 20079 60004=
07643,1997-02-13 09:00:00,14,1020.8,-0.2,58,6,40000,25.928,,,260,,,,,,,,,,,wg-a,,,,AAXX 13094 07643 12782 72614 10140 20060 30198 40208 56002 60006 83532 90900=
07643,1997-02-13 12:00:00,16,1019.1,-1.7,51,6,40000,22.224,,,260,,,,,,,,,,,wg-a,,,,AAXX 13124 07643 12682 72612 10160 20060 30181 40191 56017 60006 875// 91200=
07643,1997-02-13 18:00:00,12,1020.2,2,47,1,40000,31.484,,,280,12.4,16.9,,,,,,,,,wg-a,,,,AAXX 13184 07643 12/82 22817 10120 20010 30192 40202 53020 60006 81041 91800 333 10169 20124=
07643,1997-02-13 21:00:00,11,1021.1,0.9,50,1,12000,18.52,,,270,,,,,,,,,,,wg-a,,,,AAXX 13214 07643 12/62 52710 10110 20010 30201 40211 50009 60006 85030 92100=
07643,1997-02-14 00:00:00,9,1020.2,-0.9,61,2,12000,22.224,,,250,,,,,,,,,,,wg-a,,,,AAXX 14004 07643 12/62 52512 10090 20020 30192 40202 58009 60006 8503/ 90000=
07643,1997-02-14 03:00:00,8,1017,-3.2,71,3,12000,7.408,,,270,,,,,,,,,,,wg-a,,,,AAXX 14034 07643 12662 /2704 10080 20030 30160 40170 58032 60006 8353/ 90300=
07643,1997-02-14 06:00:00,8,1015.1,-1.9,81,5,12000,0,,,0,7.6,12.4,,,,,,,,,wg-a,,,,AAXX 14064 07643 02662 70000 10080 20050 30141 40151 58019 60006 8557/ 90600 333 10124 20076 60004=
07643,1997-02-14 09:00:00,12,1013.8,-1.3,82,9,15000,14.816,,,220,,,,,,,,,,,wg-a,,,,AAXX 14094 07643 12665 72208 10120 20090 30128 40138 56013 60006 8457/ 90900=
07643,1997-02-14 12:00:00,17,1012.9,-0.8,59,9,25000,31.484,,51.856,270,,,,,,,,,,,wg-a,,,,AAXX 14124 07643 12675 72717 10170 20090 30120 40129 58008 60006 8653/ 91200 333 91028=
07643,1997-02-14 15:00:00,18,1011.7,-1.2,59,10,25000,35.188,,,260,,,,,,,,,,,wg-a,,,,AAXX 14154 07643 12675 /2619 10180 20100 30108 40117 55012 60006 83540 91500=
07643,1997-02-14 18:00:00,14,1010.2,-1.6,72,9,25000,11.112,,,200,8,19.1,,,,,,,,,wg-a,,,,AAXX 14184 07643 12675 42006 10140 20090 30092 40102 55016 60006 82542 91800 333 10191 20080=
07643,1997-02-14 21:00:00,12,1009.1,-1.1,82,9,11000,3.704,,,210,,,,,,,,,,,wg-a,,,,AAXX 14214 07643 12/61 /2102 10120 20090 30081 40091 56011 60006 92100=
07643,1997-02-15 00:00:00,11,1008.5,-0.6,82,8,20000,22.224,,,220,,,,1,,,,,,1,wg-a,,,,AAXX 15004 07643 02670 82212 10110 20080 30075 40085 58006 60016 70161 8257/ 90000 333 60017=
07643,1997-02-15 03:00:00,10,1006.7,-1.8,93,9,20000,7.408,,,300,,,,,,,,,,,wg-a,,,,AAXX 15034 07643 12670 73004 10100 20090 30057 40067 56018 60006 8257/ 90300=
07643,1997-02-15 06:00:00,10,1007.4,0.7,82,7,10000,18.52,,,250,9.7,13.8,,,,,1,,,,wg-a,,,,AAXX 15064 07643 02/60 /2510 10100 20070 30064 40074 53007 60006 90600 333 10138 20097 60014=
07643,1997-02-15 09:00:00,13,1009.1,1.7,77,9,40000,22.224,,,240,,,,,,,,,,,wg-a,,,,AAXX 15094 07643 12682 42412 10130 20090 30081 40091 51017 60006 84500 90900=
07643,1997-02-15 12:00:00,17,1011.6,2.6,45,5,40000,31.484,,,310,,,,,,,,,,,wg-a,,,,AAXX 15124 07643 12782 73117 10170 20050 30107 40116 51026 60006 875/0 91200=
07643,1997-02-15 15:00:00,14,1015.3,3.6,31,-3,40000,38.892,,,310,,,,,,,,,,,wg-a,,,,AAXX 15154 07643 12782 13121 10140 21030 30143 40153 53036 60006 81500 91500=
07643,1997-02-15 18:00:00,11,1019,3.7,30,-6,500,42.596,,62.968,320,9.2,17.4,,,,,,,,,wg-a,,,,AAXX 15184 07643 12700 13223 10110 21060 30180 40190 51037 60006 815/0 91800 333 10174 20092 91034=
07643,1997-02-15 21:00:00,8,1021.2,2.2,36,-6,10000,25.928,,,300,,,,,,,,,,,wg-a,,,,AAXX 15214 07643 12/60 /3014 10080 21060 30202 40212 53022 60006 92100=
07643,1997-02-16 00:00:00,5,1020.7,-0.5,48,-5,10000,7.408,,,300,,,,,,,,,,,wg-a,,,,AAXX 16004 07643 12/60 /3004 10050 21050 30197 40207 57005 60006 90000=
07643,1997-02-16 03:00:00,2,1020.2,-0.5,64,-4,500,11.112,,,280,,,,,,,,,,,wg-a,,,,AAXX 16034 07643 12/00 02806 10020 21040 30192 40202 56005 60006 80000 90300=
07643,1997-02-16 06:00:00,4,1019.5,-0.7,48,-6,500,29.632,,,310,1.2,10.6,,,,,,,,,wg-a,,,,AAXX 16064 07643 02/00 03116 10040 21060 30185 40195 58007 60006 80000 90600 333 10106 20012 60004=
07643,1997-02-16 09:00:00,8,1022.1,2.6,36,-6,75000,3.704,,,50,,,,,,,,,,,wg-a,,,,AAXX 16094 07643 12/89 30502 10080 21060 30211 40221 51026 60006 81012 90900=
07643,1997-02-16 12:00:00,13,1021.5,-0.6,24,-7,75000,25.928,,,20,,,,,,,,,,,wg-a,,,,AAXX 16124 07643 12/89 20214 10130 21070 30205 40215 58006 60006 80002 91200=
07643,1997-02-16 15:00:00,13,1020.8,-0.7,41,0,75000,18.52,,,90,,,,,,,,,,,wg-a,,,,AAXX 16154 07643 12/89 10910 10130 20000 30198 40208 58007 60006 80002 91500=
07643,1997-02-16 18:00:00,9,1022.5,1.7,76,5,20000,7.408,,,60,3,14.2,,,,,,,,,wg-a,,,,AAXX 16184 07643 12/70 10604 10090 20050 30215 40225 53017 60006 80002 91800 333 10142 20030=
07643,1997-02-16 21:00:00,8,1023.8,1.3,66,2,10000,7.408,,,340,,,,,,,,,,,wg-a,,,,AAXX 16214 07643 12/60 /3404 10080 20020 30228 40238 51013 60006 92100=
07643,1997-02-17 00:00:00,5,1023.7,-0.1,81,2,10000,3.704,,,270,,,,,,,,,,,wg-a,,,,AAXX 17004 07643 12/60 /2702 10050 20020 30227 40237 57001 60006 90000=
07643,1997-02-17 03:00:00,3,1024.1,0.4,87,1,15000,7.408,,,360,,,,,,,,,,,wg-a,,,,AAXX 17034 07643 12/65 33604 10030 20010 30231 40241 50004 60006 80001 90300=
07643,1997-02-17 06:00:00,3,1024.7,0.6,81,0,18000,11.112,,,330,2.1,9.5,,,,,,,,,wg-a,,,,AAXX 17064 07643 02768 43306 10030 20000 30237 40247 51006 60006 82541 90600 333 10095 20021 60004=
07643,1997-02-17 09:00:00,8,1026.4,1.7,66,2,50000,3.704,,,40,,,,,,,,,,,wg-a,,,,AAXX 17094 07643 12784 50402 10080 20020 30254 40264 51017 60006 83540 90900=
07643,1997-02-17 12:00:00,17,1025.4,-1,42,4,50000,7.408,,,170,,,,,,,,,,,wg-a,,,,AAXX 17124 07643 12784 51704 10170 20040 30244 40254 58010 60006 81842 91200=
07643,1997-02-17 15:00:00,17,1024.6,-0.8,39,3,50000,29.632,,,290,,,,,,,,,,,wg-a,,,,AAXX 17154 07643 12784 52916 10170 20030 30236 40246 55008 60006 82102 91500=
07643,1997-02-17 18:00:00,13,1026.1,1.5,54,4,25000,18.52,,,270,2.6,17.3,,,,,,,,,wg-a,,,,AAXX 17184 07643 12775 62710 10130 20040 30251 40261 53015 60006 81532 91800 333 10173 20026=
07643,1997-02-17 21:00:00,11,1027.5,1.4,66,5,20000,18.52,,,280,,,,,,,,,,,wg-a,,,,AAXX 17214 07643 12770 42810 10110 20050 30265 40275 51014 60006 81531 92100=
07643,1997-02-18 00:00:00,11,1027.4,-0.1,66,5,20000,18.52,,,260,,,,,,,,,,,wg-a,,,,AAXX 18004 07643 12/70 72610 10110 20050 30264 40274 58001 60006 86031 90000=
07643,1997-02-18 03:00:00,10,1026.8,-0.6,76,6,20000,18.52,,,260,,,,,,,,,,,wg-a,,,,AAXX 18034 07643 12/70 72610 10100 20060 30258 40268 58006 60006 86072 90300=
07643,1997-02-18 06:00:00,9,1027.1,0.3,87,7,11000,7.408,,,250,9.1,12.6,,,,,1,,,,wg-a,,,,AAXX 18064 07643 02/61 /2504 10090 20070 30261 40271 53003 60006 90600 333 10126 20091 60014=
07643,1997-02-18 09:00:00,11,1028.1,1,71,6,20000,14.816,,,270,,,,,,,,,,21,wg-a,,,,AAXX 18094 07643 02/70 72708 10110 20060 30271 40281 53010 61000 72162 8707/ 90900 333 ////=
07643,1997-02-18 12:00:00,16,1027.4,-0.7,48,5,25000,22.224,,,260,,,,,,,,,,1,wg-a,,,,AAXX 18124 07643 02675 72612 10160 20050 30264 40274 58007 61000 70162 81542 91200 333 ////=
07643,1997-02-18 15:00:00,14,1027,-0.4,67,8,25000,11.112,,,210,,,,,,,,,,,wg-a,,,,AAXX 18154 07643 12675 72106 10140 20080 30260 40270 55004 60006 81542 91500=
07643,1997-02-18 18:00:00,14,1028.1,1.1,58,6,25000,18.52,,,270,9,17.8,,,,,,,,,wg-a,,,,AAXX 18184 07643 12675 82710 10140 20060 30271 40281 51011 60006 82572 91800 333 10178 20090=
07643,1997-02-18 21:00:00,14,1030.1,2,55,5,20000,35.188,,53.708,270,,,,,,,,,,,wg-a,,,,AAXX 18214 07643 12670 52719 10140 20050 30291 40301 53020 60006 84572 92100 333 91029=
07643,1997-02-19 03:00:00,11,1032.1,0.9,50,1,20000,22.224,,,300,,,,,,,,,,,wg-a,,,,AAXX 19034 07643 12670 33012 10110 20010 30311 40321 50009 60006 83502 90300=
07643,1997-02-19 06:00:00,8,1033.2,1.1,66,2,20000,18.52,,,290,8.2,14.1,,,,,,,,,wg-a,,,,AAXX 19064 07643 02/70 02910 10080 20020 30322 40332 53011 60006 80000 90600 333 10141 20082 61000=
07643,1997-02-19 09:00:00,11,1033.6,0.4,50,1,20000,14.816,,,340,,,,,,,,,,,wg-a,,,,AAXX 19094 07643 12/70 03408 10110 20010 30326 40336 53004 60006 80000 90900=
07643,1997-02-19 12:00:00,16,1031.6,-2,,,10000,7.408,,,150,,,,,,,,,,,wg-a,,,,AAXX 19124 07643 12/60 /1504 10160 2//// 30308 40316 58020 60006 91200=
07643,1997-02-19 15:00:00,16,1029.3,-2.3,45,4,40000,14.816,,,190,,,,,,,,,,,wg-a,,,,AAXX 19154 07643 12/82 71908 10160 20040 30283 40293 56023 60006 80001 91500=
07643,1997-02-19 18:00:00,10,1029.1,-0.2,71,5,10000,11.112,,,250,7.6,17.3,,,,,,,,,wg-a,,,,AAXX 19184 07643 12/60 /2506 10100 20050 30281 40291 57002 60006 91800 333 10173 20076=
07643,1997-02-19 21:00:00,8,1029.3,0.2,81,5,20000,11.112,,,230,,,,,,,,,,,wg-a,,,,AAXX 19214 07643 12/70 72306 10080 20050 30283 40293 50002 60006 82032 92100=
07643,1997-02-20 00:00:00,6,1029.2,-0.1,93,5,20000,3.704,,,320,,,,,,,,,,,wg-a,,,,AAXX 20004 07643 12/70 63202 10060 20050 30282 40292 56001 60006 82032 90000=
07643,1997-02-20 03:00:00,6,1029.7,0.5,87,4,15000,11.112,,,230,,,,,,,,,,,wg-a,,,,AAXX 20034 07643 12/65 42306 10060 20040 30287 40297 50005 60006 81032 90300=
07643,1997-02-20 06:00:00,11,1030.6,0.9,76,7,20000,14.816,,,270,5.7,11.4,,,,,,,,,wg-a,,,,AAXX 20064 07643 02/70 62708 10110 20070 30296 40306 52009 60006 84031 90600 333 10114 20057 60004=
07643,1997-02-20 12:00:00,18,1030.4,-1.3,37,3,40000,29.632,,,310,,,,,,,,,,,wg-a,,,,AAXX 20124 07643 12/82 63116 10180 20030 30294 40304 58013 60006 82031 91200=
07643,1997-02-20 18:00:00,15,1028.3,-0.1,48,4,500,14.816,,,270,11.2,20.3,,,,,,,,,wg-a,,,,AAXX 20184 07643 12/00 12708 10150 20040 30273 40283 55001 60006 80001 91800 333 10203 20112=
07643,1997-02-20 21:00:00,11,1029,0.7,58,3,18000,11.112,,,320,,,,,,,,,,,wg-a,,,,AAXX 20214 07643 12/68 03206 10110 20030 30280 40290 51007 60006 80000 92100=
07643,1997-02-21 00:00:00,8,1029.5,0.5,71,3,15000,7.408,,,340,,,,,,,,,,,wg-a,,,,AAXX 21004 07643 12/65 03404 10080 20030 30285 40295 51005 60006 80000 90000=
07643,1997-02-21 03:00:00,5,1029.5,0,81,2,15000,7.408,,,290,,,,,,,,,,,wg-a,,,,AAXX 21034 07643 12/65 02904 10050 20020 30285 40295 50000 60006 80000 90300=
07643,1997-02-21 06:00:00,4,1030.1,0.6,87,2,15000,11.112,,,280,3.8,14.8,,,,,,,,,wg-a,,,,AAXX 21064 07643 02/65 22806 10040 20020 30291 40301 52006 60006 80001 90600 333 10148 20038 60004=
07643,1997-02-21 12:00:00,17,1031.5,0,42,4,0,11.112,,,140,,,,,,,,,,,wg-a,,,,AAXX 21124 07643 12/// /1406 10170 20040 30305 40315 50000 60006 91200=
07643,1997-02-21 15:00:00,18,1030,-1.5,45,6,35000,11.112,,,190,,,,,,,,,,,wg-a,,,,AAXX 21154 07643 12/81 61906 10180 20060 30290 40300 56015 60006 80001 91500=
07643,1997-02-21 18:00:00,11,1030.3,0.3,76,7,20000,3.704,,,230,3.8,18.3,,,,,,,,,wg-a,,,,AAXX 21184 07643 12/70 42302 10110 20070 30293 40303 53003 60006 80001 91800 333 10183 20038=
07643,1997-02-21 21:00:00,8,1031.5,1.2,81,5,10000,7.408,,,10,,,,,,,,,,,wg-a,,,,AAXX 21214 07643 12/60 /0104 10080 20050 30305 40315 51012 60006 92100=
07643,1997-02-22 00:00:00,9,1031.2,-0.3,71,4,15000,11.112,,,340,,,,,,,,,,,wg-a,,,,AAXX 22004 07643 12/65 33406 10090 20040 30302 40312 58003 60006 80001 90000=
07643,1997-02-22 03:00:00,7,1030.8,-0.4,76,3,15000,7.408,,,320,,,,,,,,,,,wg-a,,,,AAXX 22034 07643 12/65 23204 10070 20030 30298 40308 57004 60006 80001 90300=
07643,1997-02-22 06:00:00,5,1030.7,-0.1,87,3,20000,3.704,,,340,4.1,11.1,,,,,,,,,wg-a,,,,AAXX 22064 07643 02/70 13402 10050 20030 30297 40307 55001 60006 80001 90600 333 10111 20041 60004=
07643,1997-02-22 09:00:00,9,1031.6,0.9,71,4,500,18.52,,,30,,,,,,,,,,,wg-a,,,,AAXX 22094 07643 12400 /0310 10090 20040 30306 40316 52009 60006 83502 90900=
07643,1997-02-22 12:00:00,13,1030.9,-0.7,77,9,20000,14.816,,,60,,,,,,,,,,,wg-a,,,,AAXX 22124 07643 12570 /0608 10130 20090 30299 40309 58007 60006 84502 91200=
07643,1997-02-22 15:00:00,14,1029.4,-1.5,77,10,500,22.224,,,120,,,,,,,,,,,wg-a,,,,AAXX 22154 07643 12500 /1212 10140 20100 30284 40294 56015 60006 83502 91500=
07643,1997-02-22 18:00:00,12,1029.1,-0.3,88,10,15000,18.52,,,120,4.2,14.4,,,,,,,,,wg-a,,,,AAXX 22184 07643 12565 71210 10120 20100 30281 40291 56003 60006 878// 91800 333 10144 20042=
07643,1997-02-22 21:00:00,11,1029.2,0.1,94,10,15000,7.408,,,60,,,,,,,,,,,wg-a,,,,AAXX 22214 07643 12465 70604 10110 20100 30282 40292 51001 60006 875// 92100=
07643,1997-02-23 00:00:00,10,1028.6,-0.6,93,9,0,11.112,,,20,,,,,,,,,,,wg-a,,,,AAXX 23004 07643 12/// /0206 10100 20090 30276 40286 58006 60006 90000=
07643,1997-02-23 03:00:00,9,1027.1,-1.5,87,7,12000,11.112,,,20,,,,,,,,,,,wg-a,,,,AAXX 23034 07643 12462 70206 10090 20070 30261 40271 58015 60006 875// 90300=
07643,1997-02-23 06:00:00,9,1026.3,-0.8,81,6,12000,11.112,,,30,8.3,12,,,,,,,,,wg-a,,,,AAXX 23064 07643 02462 70306 10090 20060 30253 40263 57008 60006 875// 90600 333 10120 20083 60004=
07643,1997-02-23 09:00:00,10,1026.3,0,82,7,12000,14.816,,,50,,,,,,,,,,,wg-a,,,,AAXX 23094 07643 12662 80508 10100 20070 30253 40263 50000 60006 875// 90900=
07643,1997-02-23 12:00:00,12,1024.8,-1.5,88,10,15000,11.112,,,90,,,,,,,,,,,wg-a,,,,AAXX 23124 07643 12465 80906 10120 20100 30238 40248 58015 60006 875// 91200=
07643,1997-02-23 15:00:00,13,1022.5,-2.3,82,10,15000,18.52,,,130,,,,,,,,,,,wg-a,,,,AAXX 23154 07643 12465 81310 10130 20100 30215 40225 56023 60006 875// 91500=
07643,1997-02-23 18:00:00,12,1021.7,-0.8,82,9,15000,18.52,,,140,8.8,13.7,,,,,,,,,wg-a,,,,AAXX 23184 07643 12665 81410 10120 20090 30207 40217 55008 60006 8357/ 91800 333 10137 20088=
07643,1997-02-23 21:00:00,12,1021.9,0.2,88,10,12000,11.112,,,140,,,,,,,,,,,wg-a,,,,AAXX 23214 07643 12462 81406 10120 20100 30209 40219 53002 60006 8557/ 92100=
07643,1997-02-24 00:00:00,12,1020.6,-1.3,88,10,10000,14.816,,,120,,,,,,,,,,,wg-a,,,,AAXX 24004 07643 12460 81208 10120 20100 30196 40206 58013 60006 875// 90000=
07643,1997-02-24 06:00:00,10,1018.8,-0.5,100,10,7000,11.112,,,20,10.1,12.1,,,,,,,,,wg-a,,,,AAXX 24064 07643 02357 80206 10100 20100 30178 40188 56005 60006 875// 90600 333 10121 20101 60004=
07643,1997-02-24 09:00:00,12,1019.2,0.4,88,10,500,14.816,,,50,,,,,,,,,,,wg-a,,,,AAXX 24094 07643 12300 80508 10120 20100 30182 40192 50004 60006 875// 90900=
07643,1997-02-24 12:00:00,15,1019.2,0,82,12,9000,14.816,,,130,,,,,,,,,,,wg-a,,,,AAXX 24124 07643 12459 71308 10150 20120 30182 40192 50000 60006 878// 91200=
07643,1997-02-24 15:00:00,14,1018.4,-0.8,88,12,9000,18.52,,,120,,,,,,,,,,,wg-a,,,,AAXX 24154 07643 12459 71210 10140 20120 30174 40184 56008 60006 875// 91500=
07643,1997-02-24 18:00:00,13,1018.8,0.4,88,11,6000,14.816,,,90,10.2,15.5,,,,,,,,,wg-a,,,,AAXX 24184 07643 12256 70908 10130 20110 30178 40188 53004 60006 876// 91800 333 10155 20102=
07643,1997-02-25 00:00:00,12,1020.1,-0.1,94,11,500,14.816,,,60,,,,,,,,,,,wg-a,,,,AAXX 25004 07643 12200 70608 10120 20110 30191 40201 58001 60006 875// 90000=
07643,1997-02-25 03:00:00,12,1019.9,-0.2,94,11,500,11.112,,,80,,,,,,,,,,60,wg-a,,,,AAXX 25034 07643 02200 80806 10120 20110 30189 40199 58002 61000 76062 885// 90300 333 ////=
07643,1997-02-25 06:00:00,11,1020.8,0.9,94,10,500,7.408,,,350,10.4,12.6,,,,,,,,45,wg-a,,,,AAXX 25064 07643 02/00 93504 10110 20100 30198 40208 53009 60006 74564 89/// 90600 333 10126 20104 61000=
07643,1997-02-25 09:00:00,12,1022.1,1.3,100,12,1500,7.408,,,350,,,,0,,,,,,28,wg-a,,,,AAXX 25094 07643 12215 83504 10120 20120 30211 40221 53013 60007 72842 886// 90900=
07643,1997-02-25 12:00:00,14,1021.8,-0.3,88,12,7000,3.704,,,130,,,,,,,,,,1,wg-a,,,,AAXX 25124 07643 12457 81302 10140 20120 30208 40218 56003 60006 70142 875// 91200=
07643,1997-02-25 15:00:00,15,1019.8,-2,82,12,8000,14.816,,,130,,,,,,,,,,,wg-a,,,,AAXX 25154 07643 12558 41308 10150 20120 30188 40198 56020 60006 84500 91500=
07643,1997-02-25 18:00:00,13,1020.2,0.4,94,12,4000,11.112,,,130,10.6,15.1,,,,,,,,10,wg-a,,,,AAXX 25184 07643 12440 81306 10130 20120 30192 40202 52004 60006 71011 885// 91800 333 10151 20106=
07643,1997-02-25 21:00:00,13,1021.5,1.3,88,11,4000,7.408,,,20,,,,,,,,,,10,wg-a,,,,AAXX 25214 07643 12440 80204 10130 20110 30205 40215 51013 60006 71022 885// 92100=
07643,1997-02-26 00:00:00,13,1021.8,0.3,88,11,4000,7.408,,,10,,,,,,,,,,10,wg-a,,,,AAXX 26004 07643 12440 80104 10130 20110 30208 40218 52003 60006 71022 885// 90000=
07643,1997-02-26 03:00:00,10,1021.5,-0.3,93,9,4000,3.704,,,280,,,,,,,,,,10,wg-a,,,,AAXX 26034 07643 12440 82802 10100 20090 30205 40215 57003 60006 71022 885// 90300=
07643,1997-02-26 06:00:00,9,1021.9,0.4,93,8,4000,3.704,,,280,8.7,13.3,,,,,,,,10,wg-a,,,,AAXX 26064 07643 02540 32802 10090 20080 30209 40219 50004 60006 71011 82530 90600 333 10133 20087 60004=
07643,1997-02-26 09:00:00,14,1023.6,1.7,82,11,4500,18.52,,,260,,,,,,,,,,10,wg-a,,,,AAXX 26094 07643 12545 /2610 10140 20110 30226 40236 51017 60006 71000 81800 90900=
07643,1997-02-26 12:00:00,18,1023.6,0,56,9,35000,35.188,,55.56,260,,,,,,,,,,,wg-a,,,,AAXX 26124 07643 12681 /2619 10180 20090 30226 40236 50000 60006 86840 91200 333 91030=
07643,1997-02-26 15:00:00,19,1023.4,-0.2,46,7,35000,38.892,,61.116,260,,,,,,,,,,,wg-a,,,,AAXX 26154 07643 12681 72621 10190 20070 30224 40234 58002 60006 86841 91500 333 91033=
07643,1997-02-26 18:00:00,15,1026,2.6,48,4,35000,35.188,,53.708,270,8.2,19.6,,,,,,,,,wg-a,,,,AAXX 26184 07643 12681 62719 10150 20040 30250 40260 53026 60006 85841 91800 333 10196 20082 91029=
07643,1997-02-27 00:00:00,11,1031.4,2.4,47,0,35000,29.632,,,290,,,,,,,,,,,wg-a,,,,AAXX 27004 07643 12781 22916 10110 20000 30304 40314 51024 60006 825/1 90000=
07643,1997-02-27 03:00:00,10,1032.2,0.8,53,1,10000,38.892,,,300,,,,,,,,,,,wg-a,,,,AAXX 27034 07643 12/60 /3021 10100 20010 30312 40322 53008 60006 90300=
07643,1997-02-27 06:00:00,8,1035.4,3.2,57,0,500,11.112,,,260,7.9,15.2,,,,,,,,,wg-a,,,,AAXX 27064 07643 02600 22606 10080 20000 30344 40354 53032 60006 81540 90600 333 10152 20079 60004=
07643,1997-02-27 09:00:00,12,1037.4,2,47,1,75000,18.52,,,280,,,,,,,,,,,wg-a,,,,AAXX 27094 07643 12689 /2810 10120 20010 30364 40374 51020 60006 81500 90900=
07643,1997-02-27 12:00:00,15,1036.5,-0.9,29,-3,75000,25.928,,,350,,,,,,,,,,,wg-a,,,,AAXX 27124 07643 12689 13514 10150 21030 30355 40365 58009 60006 81500 91200=
07643,1997-02-28 00:00:00,6,1035.1,-0.6,56,-2,18000,11.112,,,280,,,,,,,,,,,wg-a,,,,AAXX 28004 07643 12/68 02806 10060 21020 30341 40351 55006 60006 80000 90000=
07643,1997-02-28 03:00:00,6,1033.2,-1.9,65,0,18000,7.408,,,60,,,,,,,,,,,wg-a,,,,AAXX 28034 07643 12/68 00604 10060 20000 30322 40332 56019 60006 80000 90300=
07643,1997-02-28 06:00:00,5,1033.9,0.7,56,-3,18000,7.408,,,350,4.4,12,,,,,,,,,wg-a,,,,AAXX 28064 07643 02/68 03504 10050 21030 30329 40339 53007 60006 80000 90600 333 10120 20044 60004=
07643,1997-02-28 09:00:00,11,1035.3,1.4,43,-1,75000,14.816,,,20,,,,,,,,,,,wg-a,,,,AAXX 28094 07643 12/89 10208 10110 21010 30343 40353 53014 60006 80001 90900=
07643,1997-02-28 12:00:00,17,1034.9,-0.4,29,-1,75000,11.112,,,70,,,,,,,,,,,wg-a,,,,AAXX 28124 07643 12/89 10706 10170 21010 30339 40349 58004 60006 80001 91200=
07643,1997-02-28 15:00:00,16,1033.9,-1,45,4,75000,11.112,,,130,,,,,,,,,,,wg-a,,,,AAXX 28154 07643 12/89 11306 10160 20040 30329 40339 56010 60006 80001 91500=
07643,1997-02-28 18:00:00,11,1034.1,0.2,82,8,75000,3.704,,,220,4.2,17.2,,,,,,,,,wg-a,,,,AAXX 28184 07643 12/89 22202 10110 20080 30331 40341 53002 60006 80001 91800 333 10172 20042=
07643,1997-02-28 21:00:00,7,1034,-0.1,93,6,15000,3.704,,,300,,,,,,,,,,,wg-a,,,,AAXX 28214 07643 12/65 23002 10070 20060 30330 40340 56001 60006 80001 92100=
07643,1997-03-01 00:00:00,5,1033.3,-0.7,87,3,9000,7.408,,,30,,,,,,,,,,,wg-a,,,,AAXX 01004 07643 12/59 30304 10050 20030 30323 40333 58007 60006 80001 90000=
07643,1997-03-01 06:00:00,5,1032.9,0.7,87,3,6000,11.112,,,350,3,10.9,,,,,,,,,wg-a,,,,AAXX 01064 07643 02156 83506 10050 20030 30319 40329 52007 60006 886// 90600 333 10109 20030 60004=
07643,1997-03-01 09:00:00,8,1032.9,-0,57,0,11000,3.704,,,350,,,,,,,,,,,wg-a,,,,AAXX 01094 07643 12/61 /3502 10080 20000 30319 40329 55000 60006 90900=
07643,1997-03-01 12:00:00,13,1031.7,-1.2,62,6,25000,7.408,,,150,,,,,,,,,,2,wg-a,,,,AAXX 01124 07643 12/75 61504 10130 20060 30307 40317 58012 60006 70241 80002 91200=
07643,1997-03-01 15:00:00,14,1029.9,-1.8,72,9,25000,14.816,,,170,,,,,,,,,,,wg-a,,,,AAXX 01154 07643 12/75 61708 10140 20090 30289 40299 56018 60006 81032 91500=
07643,1997-03-01 18:00:00,11,1029.5,-0.4,87,9,20000,11.112,,,200,3.9,15.2,,,,,,,,,wg-a,,,,AAXX 01184 07643 12/70 72006 10110 20090 30285 40295 56004 60006 83032 91800 333 10152 20039=
07643,1997-03-01 21:00:00,9,1029.7,0.2,93,8,10000,3.704,,,300,,,,,,,,,,,wg-a,,,,AAXX 01214 07643 12460 73002 10090 20080 30287 40297 51002 60006 83532 92100=
07643,1997-03-02 00:00:00,8,1029.3,-0.4,100,8,500,7.408,,,20,,,,,,,,,,,wg-a,,,,AAXX 02004 07643 12400 70204 10080 20080 30283 40293 58004 60006 875// 90000=
07643,1997-03-02 03:00:00,9,1028.5,-0.8,100,9,4000,7.408,,,10,,,,,,,,,,10,wg-a,,,,AAXX 02034 07643 12440 80104 10090 20090 30275 40285 58008 60006 71022 885// 90300=
07643,1997-03-02 06:00:00,9,1029.3,0.8,93,8,3500,3.704,,,350,8.2,10.5,,,,,,,,10,wg-a,,,,AAXX 02064 07643 02435 83502 10090 20080 30283 40293 53008 60006 71022 885// 90600 333 10105 20082 60004=
07643,1997-03-02 09:00:00,11,1030.8,1.5,87,9,8000,7.408,,,20,,,,,,,,,,,wg-a,,,,AAXX 02094 07643 12558 70204 10110 20090 30298 40308 51015 60006 82532 90900=
07643,1997-03-02 12:00:00,14,1030.3,-0.5,72,9,12000,11.112,,,150,,,,,,,,,,,wg-a,,,,AAXX 02124 07643 12/62 01506 10140 20090 30293 40303 58005 60006 80000 91200=
07643,1997-03-02 15:00:00,15,1029.5,-0.8,67,9,25000,14.816,,,190,,,,,,,,,,,wg-a,,,,AAXX 02154 07643 12/75 01908 10150 20090 30285 40295 56008 60006 80000 91500=
07643,1997-03-02 18:00:00,11,1030,0.5,94,10,7000,11.112,,,210,8.9,15.8,,,,,,,,,wg-a,,,,AAXX 02184 07643 12/57 /2106 10110 20100 30290 40300 53005 60006 80002 91800 333 10158 20089=
07643,1997-03-02 21:00:00,9,1031.2,1.2,100,9,7000,7.408,,,260,,,,,,,,,,,wg-a,,,,AAXX 02214 07643 12/57 /2604 10090 20090 30302 40312 51012 60006 92100=
07643,1997-03-03 00:00:00,8,1031.2,0,93,7,3000,7.408,,,340,,,,,,,,,,10,wg-a,,,,AAXX 03004 07643 12/30 03404 10080 20070 30302 40312 50000 60006 71011 80000 90000=
07643,1997-03-03 03:00:00,6,1031.5,0.3,93,5,3000,7.408,,,10,,,,,,,,,,10,wg-a,,,,AAXX 03034 07643 12/30 00104 10060 20050 30305 40315 51003 60006 71000 80000 90300=
07643,1997-03-03 06:00:00,6,1032.6,1.1,100,6,500,7.408,,,310,5.5,11.2,,,,,,,,,wg-a,,,,AAXX 03064 07643 02/00 /3104 10060 20060 30316 40326 53011 60006 80002 90600 333 10112 20055 60004=
07643,1997-03-03 09:00:00,14,1033.3,0.7,72,9,9000,7.408,,,300,,,,,,,,,,,wg-a,,,,AAXX 03094 07643 12/59 /3004 10140 20090 30323 40333 51007 60006 80002 90900=
07643,1997-03-03 12:00:00,22,1032.4,-0.9,46,10,12000,11.112,,,170,,,,,,,,,,,wg-a,,,,AAXX 03124 07643 12/62 31706 10220 20100 30314 40324 58009 60006 80002 91200=
07643,1997-03-03 15:00:00,21,1030.8,-1.6,49,10,20000,18.52,,,200,,,,,,,,,,,wg-a,,,,AAXX 03154 07643 12/70 62010 10210 20100 30298 40308 56016 60006 81032 91500=
07643,1997-03-03 18:00:00,15,1030.9,0.1,77,11,10000,7.408,,,190,6,22.7,,,,,,,,,wg-a,,,,AAXX 03184 07643 12/60 71904 10150 20110 30299 40309 53001 60006 82032 91800 333 10227 20060=
07643,1997-03-03 21:00:00,12,1032.1,1.2,88,10,9000,11.112,,,20,,,,,,,,,,,wg-a,,,,AAXX 03214 07643 12/59 /0206 10120 20100 30311 40321 51012 60006 92100=
07643,1997-03-04 00:00:00,10,1031.5,-0.6,87,8,8000,7.408,,,310,,,,,,,,,,,wg-a,,,,AAXX 04004 07643 12/58 /3104 10100 20080 30305 40315 57006 60006 80001 90000=
07643,1997-03-04 03:00:00,8,1030.7,-0.8,93,7,8000,11.112,,,280,,,,,,,,,,,wg-a,,,,AAXX 04034 07643 12/58 32806 10080 20070 30297 40307 58008 60006 80001 90300=
07643,1997-03-04 06:00:00,7,1031.4,0.7,93,6,8000,0,,,0,6.8,14.8,,,,,,,,,wg-a,,,,AAXX 04064 07643 02/58 20000 10070 20060 30304 40314 53007 60006 80001 90600 333 10148 20068 60004=
07643,1997-03-04 09:00:00,14,1031.9,0.5,72,9,9000,3.704,,,30,,,,0,,,,,,,wg-a,,,,AAXX 04094 07643 12/59 /0302 10140 20090 30309 40319 51005 60007 80001 90900=
07643,1997-03-04 12:00:00,16,1031,-0.9,77,12,9000,14.816,,,150,,,,,,,,,,,wg-a,,,,AAXX 04124 07643 12/59 /1508 10160 20120 30300 40310 58009 60006 80001 91200=
07643,1997-03-04 15:00:00,15,1029.3,-1.7,82,12,6000,18.52,,,150,,,,,,,,,,,wg-a,,,,AAXX 04154 07643 12/56 /1510 10150 20120 30283 40293 56017 60006 80001 91500=
07643,1997-03-04 18:00:00,13,1030,0.7,94,12,3000,14.816,,,180,6.5,16.9,,,,,,,,10,wg-a,,,,AAXX 04184 07643 12230 81808 10130 20120 30290 40300 53007 60006 71011 886// 91800 333 10169 20065=
07643,1997-03-04 21:00:00,12,1030.5,0.5,94,11,4000,3.704,,,220,,,,,,,,,,10,wg-a,,,,AAXX 04214 07643 12240 82202 10120 20110 30295 40305 53005 60006 71022 886// 92100=
07643,1997-03-05 00:00:00,12,1030.1,-0.4,94,11,4000,3.704,,,150,,,,,,,,,,10,wg-a,,,,AAXX 05004 07643 12240 81502 10120 20110 30291 40301 57004 60006 71022 886// 90000=
07643,1997-03-05 03:00:00,12,1029.7,-0.4,94,11,4000,3.704,,,50,,,,,,,,,,10,wg-a,,,,AAXX 05034 07643 12340 80502 10120 20110 30287 40297 58004 60006 71022 886// 90300=
07643,1997-03-05 06:00:00,12,1029.9,0.2,88,10,4000,7.408,,,230,11.5,13,,,,,,,,10,wg-a,,,,AAXX 05064 07643 02340 72304 10120 20100 30289 40299 53002 60006 71022 876// 90600 333 10130 20115 60004=
07643,1997-03-05 09:00:00,12,1030,0.1,88,10,3000,7.408,,,190,,,,,,,,,,10,wg-a,,,,AAXX 05094 07643 12330 71904 10120 20100 30290 40300 50001 60006 71022 876// 90900=
07643,1997-03-05 12:00:00,16,1028.8,-1.2,72,11,4000,7.408,,,150,,,,,,,,,,10,wg-a,,,,AAXX 05124 07643 12340 31504 10160 20110 30278 40288 58012 60006 71011 82602 91200=
07643,1997-03-05 15:00:00,21,1027,-1.7,46,9,20000,25.928,,,290,,,,,,,,,,,wg-a,,,,AAXX 05154 07643 12370 42914 10210 20090 30261 40270 56017 60006 81632 91500=
07643,1997-03-05 18:00:00,17,1027.7,0.6,55,8,20000,25.928,,,280,11.4,21.6,,,,,,,,,wg-a,,,,AAXX 05184 07643 12/70 62814 10170 20080 30267 40277 53006 60006 81042 91800 333 10216 20114=
07643,1997-03-06 00:00:00,11,1029.3,0.5,66,5,500,7.408,,,10,,,,,,,,,,,wg-a,,,,AAXX 06004 07643 12/00 00104 10110 20050 30283 40293 53005 60006 80000 90000=
07643,1997-03-06 03:00:00,9,1029,-0.3,66,3,500,14.816,,,350,,,,,,,,,,,wg-a,,,,AAXX 06034 07643 12/00 03508 10090 20030 30280 40290 58003 60006 80000 90300=
07643,1997-03-06 06:00:00,10,1028.7,-0.3,66,4,25000,14.816,,,340,8.9,17.2,,,,,,,,,wg-a,,,,AAXX 06064 07643 02/75 73408 10100 20040 30277 40287 56003 60006 85056 90600 333 10172 20089 60004=
07643,1997-03-06 09:00:00,14,1029,0.3,55,5,50000,14.816,,,360,,,,,,,,,,,wg-a,,,,AAXX 06094 07643 12784 73608 10140 20050 30280 40290 52003 60006 82532 90900=
07643,1997-03-06 12:00:00,19,1027.4,-1.6,49,8,75000,14.816,,,200,,,,,,,,,,,wg-a,,,,AAXX 06124 07643 12789 12008 10190 20080 30264 40274 58016 60006 81532 91200=
07643,1997-03-06 15:00:00,20,1025.3,-2.1,40,6,75000,29.632,,,360,,,,,,,,,,,wg-a,,,,AAXX 06154 07643 12789 43616 10200 20060 30243 40253 56021 60006 84540 91500=
07643,1997-03-06 18:00:00,16,1026,0.7,48,5,40000,18.52,,,350,10.4,20.3,,,,,,,,,wg-a,,,,AAXX 06184 07643 12782 23510 10160 20050 30250 40260 53007 60006 82540 91800 333 10203 20104=
07643,1997-03-07 00:00:00,11,1028.2,0.3,62,4,20000,11.112,,,340,,,,,,,,,,,wg-a,,,,AAXX 07004 07643 12/70 03406 10110 20040 30272 40282 50003 60006 80000 90000=
07643,1997-03-07 06:00:00,6,1027.7,0.2,81,3,20000,7.408,,,320,5.5,16.5,,,,,,,,,wg-a,,,,AAXX 07064 07643 02/70 03204 10060 20030 30267 40277 52002 60006 80000 90600 333 10165 20055 60004=
07643,1997-03-07 09:00:00,13,1029,1.3,51,3,10000,18.52,,,20,,,,,,,,,,,wg-a,,,,AAXX 07094 07643 12/60 /0210 10130 20030 30280 40290 52013 60006 90900=
07643,1997-03-07 12:00:00,18,1028,-1,37,3,60000,14.816,,,20,,,,,,,,,,,wg-a,,,,AAXX 07124 07643 12/86 00208 10180 20030 30270 40280 58010 60006 80000 91200=
07643,1997-03-07 15:00:00,19,1026.8,-1.2,46,7,10000,11.112,,,170,,,,,,,,,,,wg-a,,,,AAXX 07154 07643 12/60 01706 10190 20070 30258 40268 56012 60006 80000 91500=
07643,1997-03-07 18:00:00,13,1027.3,0.5,67,7,20000,7.408,,,220,4.9,18.8,,,,,,,,,wg-a,,,,AAXX 07184 07643 12/70 02204 10130 20070 30263 40273 53005 60006 80000 91800 333 10188 20049=
07643,1997-03-07 21:00:00,10,1028.1,0.8,76,6,15000,7.408,,,270,,,,,,,,,,,wg-a,,,,AAXX 07214 07643 12/65 02704 10100 20060 30271 40281 52008 60006 80000 92100=
07643,1997-03-08 00:00:00,7,1029,0.9,81,4,12000,7.408,,,340,,,,,,,,,,,wg-a,,,,AAXX 08004 07643 12/62 03404 10070 20040 30280 40290 51009 60006 80000 90000=
07643,1997-03-08 03:00:00,7,1029.1,0.1,81,4,12000,7.408,,,330,,,,,,,,,,,wg-a,,,,AAXX 08034 07643 12/62 03304 10070 20040 30281 40291 50001 60006 80000 90300=
07643,1997-03-08 06:00:00,5,1029.8,0.7,87,3,15000,3.704,,,340,4.9,12.9,,,,,,,,,wg-a,,,,AAXX 08064 07643 02/65 03402 10050 20030 30288 40298 53007 60006 80000 90600 333 10129 20049 60004=
07643,1997-03-08 09:00:00,12,1030.6,0.8,62,5,15000,7.408,,,20,,,,,,,,,,,wg-a,,,,AAXX 08094 07643 12/65 00204 10120 20050 30296 40306 51008 60006 80000 90900=
07643,1997-03-08 12:00:00,19,1029.7,-0.9,43,6,15000,11.112,,,150,,,,,,,,,,,wg-a,,,,AAXX 08124 07643 12/65 01506 10190 20060 30287 40297 58009 60006 80000 91200=
07643,1997-03-08 15:00:00,19,1028.5,-1.2,46,7,12000,18.52,,,190,,,,,,,,,,,wg-a,,,,AAXX 08154 07643 12/62 01910 10190 20070 30275 40285 56012 60006 80000 91500=
07643,1997-03-08 18:00:00,13,1028.8,0.3,82,10,10000,11.112,,,220,4.9,19.9,,,,,,,,,wg-a,,,,AAXX 08184 07643 12/60 02206 10130 20100 30278 40288 53003 60006 80000 91800 333 10199 20049=
07643,1997-03-09 00:00:00,8,1030.1,0.7,93,7,8000,7.408,,,350,,,,,,,,,,,wg-a,,,,AAXX 09004 07643 12/58 03504 10080 20070 30291 40301 50007 60006 80000 90000=
07643,1997-03-09 03:00:00,7,1030.2,0.1,87,5,8000,14.816,,,350,,,,,,,,,,,wg-a,,,,AAXX 09034 07643 12/58 03508 10070 20050 30292 40302 50001 60006 80000 90300=
07643,1997-03-09 06:00:00,6,1031.2,1,87,4,8000,3.704,,,320,6.1,13.3,,,,,,,,,wg-a,,,,AAXX 09064 07643 02/58 03202 10060 20040 30302 40312 53010 60006 80000 90600 333 10133 20061 60004=
07643,1997-03-09 09:00:00,13,1032.9,1.7,62,6,8000,11.112,,,40,,,,,,,,,,,wg-a,,,,AAXX 09094 07643 12/58 /0406 10130 20060 30319 40329 51017 60006 90900=
07643,1997-03-09 12:00:00,17,1032.9,0,48,6,0,11.112,,,140,,,,,,,,,,,wg-a,,,,AAXX 09124 07643 12/// /1406 10170 20060 30319 40329 50000 60006 91200=
07643,1997-03-09 15:00:00,18,1032.2,-0.7,49,7,10000,14.816,,,180,,,,,,,,,,,wg-a,,,,AAXX 09154 07643 12/60 /1808 10180 20070 30312 40322 55007 60006 91500=
07643,1997-03-09 18:00:00,13,1032.3,0.1,62,6,12000,7.408,,,230,5.3,18.7,,,,,,,,,wg-a,,,,AAXX 09184 07643 12/62 02304 10130 20060 30313 40323 53001 60006 80000 91800 333 10187 20053=
07643,1997-03-10 00:00:00,7,1033,0.4,76,3,12000,7.408,,,20,,,,,,,,,,,wg-a,,,,AAXX 10004 07643 12/62 00204 10070 20030 30320 40330 53004 60006 80000 90000=
07643,1997-03-10 03:00:00,5,1032.6,-0.4,75,1,12000,7.408,,,20,,,,,,,,,,,wg-a,,,,AAXX 10034 07643 12/62 00204 10050 20010 30316 40326 58004 60006 80000 90300=
07643,1997-03-10 06:00:00,5,1033.3,0.7,75,1,10000,7.408,,,340,4,12.6,,,,,,,,,wg-a,,,,AAXX 10064 07643 02/60 /3404 10050 20010 30323 40333 51007 60006 90600 333 10126 20040 60004=
07643,1997-03-10 09:00:00,12,1034,0.7,62,5,15000,7.408,,,30,,,,,,,,,,,wg-a,,,,AAXX 10094 07643 12/65 00304 10120 20050 30330 40340 52007 60006 80000 90900=
07643,1997-03-10 12:00:00,18,1032.7,-1.3,49,7,20000,14.816,,,160,,,,,,,,,,,wg-a,,,,AAXX 10124 07643 12/70 01608 10180 20070 30317 40327 58013 60006 80000 91200=
07643,1997-03-10 15:00:00,19,1030.2,-2.5,40,5,500,18.52,,,200,,,,,,,,,,,wg-a,,,,AAXX 10154 07643 12/00 02010 10190 20050 30292 40302 58025 60006 80000 91500=
07643,1997-03-10 18:00:00,14,1029.7,-0.5,72,9,20000,11.112,,,210,4,19.7,,,,,,,,,wg-a,,,,AAXX 10184 07643 12/70 22106 10140 20090 30287 40297 55005 60006 80002 91800 333 10197 20040=
07643,1997-03-11 00:00:00,8,1028.8,-0.5,66,2,15000,3.704,,,330,,,,,,,,,,,wg-a,,,,AAXX 11004 07643 12/65 03302 10080 20020 30278 40288 58005 60006 80000 90000=
07643,1997-03-11 03:00:00,7,1027.8,-1,66,1,15000,3.704,,,330,,,,,,,,,,,wg-a,,,,AAXX 11034 07643 12/65 03302 10070 20010 30268 40278 58010 60006 80000 90300=
07643,1997-03-11 06:00:00,7,1028.4,0.6,70,2,15000,7.408,,,350,5.8,13.7,,,,,,,,,wg-a,,,,AAXX 11064 07643 02/65 03504 10070 20020 30274 40284 53006 60006 80000 90600 333 10137 20058 60004=
07643,1997-03-11 09:00:00,16,1029.1,0.7,48,5,10000,14.816,,,20,,,,,,,,,,,wg-a,,,,AAXX 11094 07643 12/60 /0208 10160 20050 30281 40291 51007 60006 90900=
07643,1997-03-11 12:00:00,20,1029.3,0.2,35,4,15000,14.816,,,160,,,,,,,,,,,wg-a,,,,AAXX 11124 07643 12/65 01608 10200 20040 30283 40293 51002 60006 80000 91200=
07643,1997-03-11 15:00:00,19,1028,-1.3,40,5,20000,18.52,,,180,,,,,,,,,,,wg-a,,,,AAXX 11154 07643 12/70 01810 10190 20050 30270 40280 56013 60006 80000 91500=
07643,1997-03-11 18:00:00,14,1028.9,0.9,55,5,20000,3.704,,,220,6.7,20.5,,,,,,,,,wg-a,,,,AAXX 11184 07643 12/70 02202 10140 20050 30279 40289 53009 60006 80000 91800 333 10205 20067=
07643,1997-03-12 00:00:00,8,1033.7,2.3,76,4,0,3.704,,,270,,,,,,,,,,,wg-a,,,,AAXX 12004 07643 12/// /2702 10080 20040 30327 40337 51023 60006 90000=
07643,1997-03-12 03:00:00,10,1034.7,1,87,8,15000,11.112,,,170,,,,,,,,,,,wg-a,,,,AAXX 12034 07643 12/65 01706 10100 20080 30337 40347 51010 60006 80000 90300=
07643,1997-03-12 06:00:00,7,1035.1,0.4,87,5,10000,3.704,,,310,6.5,13.8,,,,,,,,,wg-a,,,,AAXX 12064 07643 02/60 03102 10070 20050 30341 40351 53004 60006 80000 90600 333 10138 20065 60004=
07643,1997-03-12 09:00:00,14,1035.1,0,67,8,10000,3.704,,,90,,,,,,,,,,,wg-a,,,,AAXX 12094 07643 12/60 00902 10140 20080 30341 40351 50000 60006 80000 90900=
07643,1997-03-12 12:00:00,16,1034,-1.1,55,7,15000,14.816,,,140,,,,,,,,,,,wg-a,,,,AAXX 12124 07643 12/65 01408 10160 20070 30330 40340 58011 60006 80000 91200=
07643,1997-03-12 15:00:00,17,1030.9,-3.1,55,8,15000,25.928,,,170,,,,,,,,,,,wg-a,,,,AAXX 12154 07643 12/65 01714 10170 20080 30299 40309 56031 60006 80000 91500=
07643,1997-03-12 18:00:00,13,1029.9,-1,82,10,15000,18.52,,,200,6.2,17.3,,,,,,,,,wg-a,,,,AAXX 12184 07643 12/65 02010 10130 20100 30289 40299 55010 60006 80000 91800 333 10173 20062=
07643,1997-03-13 00:00:00,9,1028.7,-0.9,81,6,10000,7.408,,,280,,,,,,,,,,,wg-a,,,,AAXX 13004 07643 12/60 02804 10090 20060 30277 40287 58009 60006 80000 90000=
07643,1997-03-13 03:00:00,7,1027.3,-1.4,81,4,12000,7.408,,,280,,,,,,,,,,,wg-a,,,,AAXX 13034 07643 12/62 02804 10070 20040 30263 40273 58014 60006 80000 90300=
07643,1997-03-13 06:00:00,5,1026.9,-0.4,87,3,15000,3.704,,,290,5,12.8,,,,,,,,,wg-a,,,,AAXX 13064 07643 02/65 12902 10050 20030 30259 40269 57004 60006 80001 90600 333 10128 20050 60004=
07643,1997-03-13 12:00:00,23,1025.2,-1.9,33,6,25000,11.112,,,190,,,,,,,,,,,wg-a,,,,AAXX 13124 07643 12/75 01906 10230 20060 30243 40252 58019 60006 80000 91200=
07643,1997-03-13 18:00:00,19,1022.1,-0.2,37,4,20000,7.408,,,300,5.1,23.9,,,,,,,,,wg-a,,,,AAXX 13184 07643 12/70 03004 10190 20040 30211 40221 55002 60006 80000 91800 333 10239 20051=
07643,1997-03-13 21:00:00,17,1023.1,1,39,3,20000,14.816,,,330,,,,,,,,,,,wg-a,,,,AAXX 13214 07643 12/70 03308 10170 20030 30221 40231 51010 60006 80000 92100=
07643,1997-03-14 00:00:00,12,1022.7,-0.4,62,5,15000,11.112,,,320,,,,,,,,,,,wg-a,,,,AAXX 14004 07643 12/65 03206 10120 20050 30217 40227 56004 60006 80000 90000=
07643,1997-03-14 06:00:00,6,1022.5,0.3,75,2,15000,7.408,,,300,5.8,18.5,,,,,,,,,wg-a,,,,AAXX 14064 07643 02/65 03004 10060 20020 30215 40225 53003 60006 80000 90600 333 10185 20058 60004=
07643,1997-03-14 09:00:00,16,1023.1,0.6,51,6,12000,25.928,,,290,,,,,,,,,,,wg-a,,,,AAXX 14094 07643 12/62 02914 10160 20060 30221 40231 50006 60006 80000 90900=
07643,1997-03-14 12:00:00,20,1021.7,-1.3,35,4,10000,31.484,,,270,,,,,,,,,,,wg-a,,,,AAXX 14124 07643 12/60 /2717 10200 20040 30208 40217 58013 60006 91200=
07643,1997-03-14 18:00:00,14,1021.5,1.2,47,3,25000,46.3,,64.82,280,5.4,20.6,,,,,,,,,wg-a,,,,AAXX 14184 07643 12675 22825 10140 20030 30205 40215 53012 60006 81540 91800 333 10206 20054 91035=
07643,1997-03-14 21:00:00,13,1024,2.5,54,4,20000,29.632,,,290,,,,,,,,,,,wg-a,,,,AAXX 14214 07643 12670 52916 10130 20040 30230 40240 51025 60006 84540 92100=
07643,1997-03-15 00:00:00,12,1023.7,-0.3,58,4,20000,29.632,,,290,,,,,,,,,,,wg-a,,,,AAXX 15004 07643 12670 32916 10120 20040 30227 40237 58003 60006 82540 90000=
07643,1997-03-15 03:00:00,12,1022.4,-1.3,54,3,20000,22.224,,,290,,,,,,,,,,,wg-a,,,,AAXX 15034 07643 12/70 12912 10120 20030 30214 40224 56013 60006 81040 90300=
07643,1997-03-15 06:00:00,10,1024,1.6,66,4,25000,3.704,,,330,9.8,13.8,,,,,,,,,wg-a,,,,AAXX 15064 07643 02675 33302 10100 20040 30230 40240 53016 60006 82540 90600 333 10138 20098 60004=
07643,1997-03-15 09:00:00,16,1024.7,0.7,45,4,40000,22.224,,,330,,,,,,,,,,,wg-a,,,,AAXX 15094 07643 12582 /3312 10160 20040 30237 40247 50007 60006 81101 90900=
07643,1997-03-15 12:00:00,20,1023.7,-1,32,3,40000,25.928,,,10,,,,,,,,,,,wg-a,,,,AAXX 15124 07643 12/82 10114 10200 20030 30227 40237 58010 60006 81041 91200=
07643,1997-03-15 15:00:00,21,1022.2,-1.4,30,3,50000,25.928,,,10,,,,,,,,,,,wg-a,,,,AAXX 15154 07643 12/84 10114 10210 20030 30213 40222 56014 60006 81040 91500=
07643,1997-03-15 18:00:00,17,1023,0.7,39,3,50000,22.224,,,360,9.5,21.5,,,,,,,,,wg-a,,,,AAXX 15184 07643 12/84 13612 10170 20030 30220 40230 53007 60006 80001 91800 333 10215 20095=
07643,1997-03-15 21:00:00,12,1024.6,1.6,54,3,20000,0,,,0,,,,,,,,,,,wg-a,,,,AAXX 15214 07643 12/70 00000 10120 20030 30236 40246 51016 60006 80000 92100=
07643,1997-03-16 00:00:00,13,1024,-0.6,51,3,20000,18.52,,,340,,,,,,,,,,,wg-a,,,,AAXX 16004 07643 12/70 03410 10130 20030 30230 40240 58006 60006 80000 90000=
07643,1997-03-16 03:00:00,13,1024.6,0.6,58,5,20000,3.704,,,110,,,,,,,,,,,wg-a,,,,AAXX 16034 07643 12/70 01102 10130 20050 30236 40246 51006 60006 80000 90300=
07643,1997-03-16 06:00:00,9,1025,0.4,76,5,50000,7.408,,,260,8.9,17.3,,,,,,,,,wg-a,,,,AAXX 16064 07643 02/84 22604 10090 20050 30240 40250 52004 60006 80001 90600 333 10173 20089 60004=
07643,1997-03-16 12:00:00,21,1024.2,-1.3,38,6,50000,11.112,,,360,,,,,,,,,,,wg-a,,,,AAXX 16124 07643 12/84 13606 10210 20060 30233 40242 58013 60006 80001 91200=
07643,1997-03-16 18:00:00,19,1023.1,0.7,52,9,40000,3.704,,,40,8.9,23.3,,,,,,,,,wg-a,,,,AAXX 16184 07643 12/82 00402 10190 20090 30221 40231 53007 60006 80000 91800 333 10233 20089=
07643,1997-03-16 21:00:00,15,1024,0.9,51,5,25000,11.112,,,320,,,,,,,,,,,wg-a,,,,AAXX 16214 07643 12/75 03206 10150 20050 30230 40240 51009 60006 80000 92100=
07643,1997-03-17 00:00:00,11,1023.7,-0.3,71,6,25000,11.112,,,260,,,,,,,,,,,wg-a,,,,AAXX 17004 07643 12/75 02606 10110 20060 30227 40237 58003 60006 80000 90000=
07643,1997-03-17 03:00:00,9,1022.8,-0.9,81,6,25000,11.112,,,260,,,,,,,,,,,wg-a,,,,AAXX 17034 07643 12/75 02606 10090 20060 30218 40228 58009 60006 80000 90300=
07643,1997-03-17 06:00:00,8,1022.9,0.1,81,5,35000,11.112,,,300,7.2,18.5,,,,,,,,,wg-a,,,,AAXX 17064 07643 02/81 23006 10080 20050 30219 40229 53001 60006 80001 90600 333 10185 20072 60004=
07643,1997-03-17 09:00:00,19,1022.8,-0.1,40,5,50000,18.52,,,330,,,,,,,,,,,wg-a,,,,AAXX 17094 07643 12/84 13310 10190 20050 30218 40228 58001 60006 80001 90900=
07643,1997-03-17 12:00:00,25,1021.3,-1.4,24,3,50000,18.52,,,340,,,,,,,,,,,wg-a,,,,AAXX 17124 07643 12/84 13410 10250 20030 30204 40213 58014 60006 80001 91200=
07643,1997-03-17 15:00:00,27,1019.2,-2.1,21,3,50000,14.816,,,10,,,,,,,,,,,wg-a,,,,AAXX 17154 07643 12/84 10108 10270 20030 30183 40192 56021 60006 80001 91500=
07643,1997-03-17 18:00:00,23,1019.3,0.1,33,6,50000,11.112,,,330,7.5,27.1,,,,,,,,,wg-a,,,,AAXX 17184 07643 12/84 13306 10230 20060 30184 40193 53001 60006 80001 91800 333 10271 20075=
07643,1997-03-17 21:00:00,17,1020.2,0.8,45,5,500,14.816,,,10,,,,,,,,,,,wg-a,,,,AAXX 17214 07643 12/00 00108 10170 20050 30192 40202 51008 60006 80000 92100=
07643,1997-03-18 00:00:00,14,1020.2,0,47,3,500,11.112,,,310,,,,,,,,,,,wg-a,,,,AAXX 18004 07643 12/00 03106 10140 20030 30192 40202 50000 60006 80000 90000=
07643,1997-03-18 03:00:00,11,1019.3,-0.9,58,3,500,11.112,,,10,,,,,,,,,,,wg-a,,,,AAXX 18034 07643 12/00 00106 10110 20030 30183 40193 58009 60006 80000 90300=
07643,1997-03-18 06:00:00,9,1019.6,0.3,71,4,500,7.408,,,280,8.4,22.6,,,,,,,,,wg-a,,,,AAXX 18064 07643 02/00 02804 10090 20040 30186 40196 53003 60006 80000 90600 333 10226 20084 60004=
07643,1997-03-18 09:00:00,18,1019.3,-0.3,49,7,25000,7.408,,,170,,,,,,,,,,,wg-a,,,,AAXX 18094 07643 12/75 01704 10180 20070 30183 40193 58003 60006 80000 90900=
07643,1997-03-18 12:00:00,20,1017.8,-1.4,43,7,25000,14.816,,,150,,,,,,,,,,,wg-a,,,,AAXX 18124 07643 12/75 01508 10200 20070 30169 40178 58014 60006 80000 91200=
07643,1997-03-18 15:00:00,27,1014.6,-3.2,21,3,50000,29.632,,,260,,,,,,,,,,,wg-a,,,,AAXX 18154 07643 12/84 02616 10270 20030 30137 40146 56032 60006 80000 91500=
07643,1997-03-18 18:00:00,22,1014.5,-0.1,25,1,50000,25.928,,,280,8.7,27.4,,,,,,,,,wg-a,,,,AAXX 18184 07643 12/84 22814 10220 20010 30136 40145 55001 60006 80002 91800 333 10274 20087=
07643,1997-03-18 21:00:00,18,1015.5,1,30,0,10000,22.224,,,270,,,,,,,,,,,wg-a,,,,AAXX 18214 07643 12/60 /2712 10180 20000 30146 40155 51010 60006 92100=
07643,1997-03-19 00:00:00,15,1015.6,0,51,5,500,22.224,,,280,,,,,,,,,,,wg-a,,,,AAXX 19004 07643 12/00 02812 10150 20050 30146 40156 50000 60006 80000 90000=
07643,1997-03-19 03:00:00,13,1014.5,-1.1,54,4,500,38.892,,,280,,,,,,,,,,,wg-a,,,,AAXX 19034 07643 12/00 22821 10130 20040 30135 40145 57011 60006 80001 90300=
07643,1997-03-19 06:00:00,13,1014.4,-0.1,51,3,500,31.484,,,280,12.9,22.2,,,,,,,,,wg-a,,,,AAXX 19064 07643 02700 42817 10130 20030 30134 40144 58001 60006 845/0 90600 333 10222 20129 60004=
07643,1997-03-19 12:00:00,16,1013.7,-1.2,39,2,75000,42.596,,62.968,290,,,,,,,,,,,wg-a,,,,AAXX 19124 07643 12689 /2923 10160 20020 30127 40137 58012 60006 85840 91200 333 91034=
07643,1997-03-19 15:00:00,16,1012.2,-1.5,34,0,75000,46.3,,68.524,300,,,,,,,,,,,wg-a,,,,AAXX 19154 07643 12689 33025 10160 20000 30112 40122 55015 60006 83840 91500 333 91037=
07643,1997-03-19 18:00:00,14,1013.3,1.1,38,0,50000,35.188,,,290,12.8,17.4,,,,,,,,,wg-a,,,,AAXX 19184 07643 12784 52919 10140 20000 30123 40133 53011 60006 855/0 91800 333 10174 20128=
07643,1997-03-19 21:00:00,12,1015.1,1.8,47,1,25000,29.632,,,290,,,,,,,,,,,wg-a,,,,AAXX 19214 07643 12775 22916 10120 20010 30141 40151 52018 60006 825/0 92100=
07643,1997-03-20 00:00:00,11,1015.7,0.6,50,1,25000,29.632,,,280,,,,,,,,,,,wg-a,,,,AAXX 20004 07643 12775 22816 10110 20010 30147 40157 50006 60006 825/0 90000=
07643,1997-03-20 03:00:00,10,1015.9,0.2,53,1,25000,25.928,,,300,,,,,,,,,,,wg-a,,,,AAXX 20034 07643 12775 13014 10100 20010 30149 40159 50002 60006 81500 90300=
07643,1997-03-20 06:00:00,7,1016.9,1,66,1,10000,14.816,,,260,5.7,13.8,,,,,,,,,wg-a,,,,AAXX 20064 07643 02/60 /2608 10070 20010 30159 40169 53010 60006 90600 333 10138 20057 60004=
07643,1997-03-20 09:00:00,13,1017.6,0.7,38,-1,35000,18.52,,,320,,,,,,,,,,,wg-a,,,,AAXX 20094 07643 12/81 03210 10130 21010 30166 40176 51007 60006 80000 90900=
07643,1997-03-20 12:00:00,16,1016.4,-1.2,31,-1,60000,29.632,,,350,,,,,,,,,,,wg-a,,,,AAXX 20124 07643 12/86 03516 10160 21010 30154 40164 58012 60006 80000 91200=
07643,1997-03-20 15:00:00,18,1014.6,-1.8,26,-2,60000,29.632,,,10,,,,,,,,,,,wg-a,,,,AAXX 20154 07643 12/86 00116 10180 21020 30136 40146 56018 60006 80000 91500=
07643,1997-03-20 18:00:00,13,1016.2,1.6,35,-2,60000,29.632,,,360,6.6,17.9,,,,,,,,,wg-a,,,,AAXX 20184 07643 12/86 03616 10130 21020 30152 40162 53016 60006 80000 91800 333 10179 20066=
07643,1997-03-20 21:00:00,10,1017,0.8,43,-2,18000,18.52,,,280,,,,,,,,,,,wg-a,,,,AAXX 20214 07643 12/68 02810 10100 21020 30160 40170 50008 60006 80000 92100=
07643,1997-03-21 00:00:00,7,1016.6,-0.4,53,-2,18000,14.816,,,320,,,,,,,,,,,wg-a,,,,AAXX 21004 07643 12/68 03208 10070 21020 30156 40166 58004 60006 80000 90000=
07643,1997-03-21 03:00:00,5,1016.4,-0.2,56,-3,18000,11.112,,,330,,,,,,,,,,,wg-a,,,,AAXX 21034 07643 12/68 03306 10050 21030 30154 40164 58002 60006 80000 90300=
07643,1997-03-21 06:00:00,4,1016.9,0.5,60,-3,75000,11.112,,,320,3.2,12.9,,,,,,,,,wg-a,,,,AAXX 21064 07643 02/89 23206 10040 21030 30159 40169 53005 60006 81041 90600 333 10129 20032 60004=
07643,1997-03-21 09:00:00,14,1018,1.1,31,-3,75000,11.112,,,20,,,,,,,,,,,wg-a,,,,AAXX 21094 07643 12/89 30206 10140 21030 30170 40180 51011 60006 80001 90900=
07643,1997-03-21 12:00:00,18,1017.6,-0.4,22,-4,75000,31.484,,50.004,10,,,,,,,,,,,wg-a,,,,AAXX 21124 07643 12/89 70117 10180 21040 30166 40176 58004 60006 80001 91200 333 91027=
07643,1997-03-21 15:00:00,20,1016.1,-1.4,19,-4,75000,14.816,,,10,,,,,,,,,,,wg-a,,,,AAXX 21154 07643 12/89 70108 10200 21040 30152 40161 56014 60006 80006 91500=
07643,1997-03-21 18:00:00,16,1017.2,1,31,-1,50000,7.408,,,30,3.5,20.5,,,,,,,,,wg-a,,,,AAXX 21184 07643 12/84 70304 10160 21010 30162 40172 53010 60006 80002 91800 333 10205 20035=
07643,1997-03-21 21:00:00,13,1018.4,1.2,38,-1,50000,14.816,,,350,,,,,,,,,,,wg-a,,,,AAXX 21214 07643 12/84 43508 10130 21010 30174 40184 51012 60006 80002 92100=
07643,1997-03-22 00:00:00,12,1018.6,0.2,47,1,500,14.816,,,340,,,,,,,,,,,wg-a,,,,AAXX 22004 07643 12/00 03408 10120 20010 30176 40186 50002 60006 80000 90000=
07643,1997-03-22 06:00:00,7,1018.3,0.5,57,-1,500,11.112,,,20,6.8,15.9,,,,,,,,,wg-a,,,,AAXX 22064 07643 02/00 30206 10070 21010 30173 40183 53005 60006 80002 90600 333 10159 20068 60004=
07643,1997-03-22 09:00:00,14,1019.8,1.5,36,-1,500,22.224,,,20,,,,,,,,,,,wg-a,,,,AAXX 22094 07643 12/00 10212 10140 21010 30188 40198 51015 60006 80001 90900=
07643,1997-03-22 12:00:00,17,1019.6,-0.2,32,0,500,18.52,,,30,,,,,,,,,,,wg-a,,,,AAXX 22124 07643 12/00 30310 10170 20000 30186 40196 58002 60006 80001 91200=
07643,1997-03-22 15:00:00,18,1018.5,-1.1,22,-4,500,18.52,,,60,,,,,,,,,,,wg-a,,,,AAXX 22154 07643 12/00 20610 10180 21040 30175 40185 56011 60006 80001 91500=
07643,1997-03-22 18:00:00,13,1019,0.5,54,4,10000,3.704,,,220,6.1,18.8,,,,,,,,,wg-a,,,,AAXX 22184 07643 12/60 /2202 10130 20040 30180 40190 53005 60006 91800 333 10188 20061=
07643,1997-03-22 21:00:00,9,1020.2,1.2,49,-1,10000,3.704,,,280,,,,,,,,,,,wg-a,,,,AAXX 22214 07643 12/60 /2802 10090 21010 30192 40202 51012 60006 92100=
07643,1997-03-23 00:00:00,7,1020,-0.2,61,0,20000,7.408,,,280,,,,,,,,,,,wg-a,,,,AAXX 23004 07643 12/70 02804 10070 20000 30190 40200 58002 60006 80000 90000=
07643,1997-03-23 03:00:00,6,1018.9,-1.1,61,-1,20000,11.112,,,330,,,,,,,,,,,wg-a,,,,AAXX 23034 07643 12/70 03306 10060 21010 30179 40189 58011 60006 80000 90300=
07643,1997-03-23 06:00:00,4,1019.4,0.5,70,-1,20000,3.704,,,30,3.8,13.4,,,,,,,,,wg-a,,,,AAXX 23064 07643 02/70 00302 10040 21010 30184 40194 53005 60006 80000 90600 333 10134 20038 60004=
07643,1997-03-23 09:00:00,13,1019.8,0.4,47,2,20000,3.704,,,150,,,,,,,,,,,wg-a,,,,AAXX 23094 07643 12/70 01502 10130 20020 30188 40198 50004 60006 80000 90900=
07643,1997-03-23 12:00:00,15,1017.9,-1.9,63,8,10000,25.928,,,180,,,,,,,,,,,wg-a,,,,AAXX 23124 07643 12/60 /1814 10150 20080 30169 40179 58019 60006 91200=
07643,1997-03-23 15:00:00,15,1015.8,-2.1,67,9,12000,25.928,,,180,,,,,,,,,,,wg-a,,,,AAXX 23154 07643 12/62 71814 10150 20090 30148 40158 56021 60006 80002 91500=
07643,1997-03-23 18:00:00,13,1015.1,-0.7,77,9,15000,18.52,,,220,3.7,16.3,,,,,,,,,wg-a,,,,AAXX 23184 07643 12/65 72210 10130 20090 30141 40151 56007 60006 84032 91800 333 10163 20037=
07643,1997-03-23 21:00:00,13,1013.8,-1.3,77,9,15000,11.112,,,260,,,,,,,,,,,wg-a,,,,AAXX 23214 07643 12/65 72606 10130 20090 30128 40138 56013 60006 8703/ 92100=
07643,1997-03-24 00:00:00,15,1012.5,-1.3,41,2,15000,18.52,,,260,,,,,,,,,,,wg-a,,,,AAXX 24004 07643 12765 72610 10150 20020 30115 40125 58013 60006 8253/ 90000=
07643,1997-03-24 03:00:00,14,1010.7,-1.8,41,1,15000,14.816,,,270,,,,,,,,,,,wg-a,,,,AAXX 24034 07643 12765 72708 10140 20010 30097 40107 58018 60006 8353/ 90300=
07643,1997-03-24 06:00:00,11,1010.9,0.2,54,2,25000,22.224,,,290,10.8,15.1,,,,,,,,,wg-a,,,,AAXX 24064 07643 02/75 62912 10110 20020 30099 40109 53002 60006 82041 90600 333 10151 20108 60004=
07643,1997-03-24 09:00:00,15,1011.3,0.4,44,3,500,31.484,,,290,,,,,,,,,,,wg-a,,,,AAXX 24094 07643 12700 62917 10150 20030 30103 40113 50004 60006 845/1 90900=
07643,1997-03-24 12:00:00,19,1009.6,-1.6,32,2,40000,25.928,,,300,,,,,,,,,,,wg-a,,,,AAXX 24124 07643 12782 63014 10190 20020 30087 40096 57016 60006 84181 91200=
07643,1997-03-24 15:00:00,19,1007.8,-1.8,30,1,40000,14.816,,,10,,,,,,,,,,,wg-a,,,,AAXX 24154 07643 12782 50108 10190 20010 30069 40078 56018 60006 82130 91500=
07643,1997-03-24 18:00:00,16,1008.8,1,36,1,50000,7.408,,,20,10.7,20.9,,,,,,,,,wg-a,,,,AAXX 24184 07643 12784 60204 10160 20010 30079 40088 53010 60006 83530 91800 333 10209 20107=
07643,1997-03-24 21:00:00,11,1010.6,1.7,50,1,25000,11.112,,,320,,,,,,,,,,,wg-a,,,,AAXX 24214 07643 12/75 33206 10110 20010 30096 40106 52017 60006 83030 92100=
07643,1997-03-25 00:00:00,9,1011,0.4,57,1,25000,7.408,,,270,,,,,,,,,,,wg-a,,,,AAXX 25004 07643 12/75 02704 10090 20010 30100 40110 51004 60006 80000 90000=
07643,1997-03-25 03:00:00,7,1011.8,0.8,66,1,25000,7.408,,,290,,,,,,,,,,,wg-a,,,,AAXX 25034 07643 12/75 22904 10070 20010 30108 40118 51008 60006 82030 90300=
07643,1997-03-25 06:00:00,8,1013.3,1.5,71,3,35000,0,,,0,6.5,15.7,,,,,,,,,wg-a,,,,AAXX 25064 07643 02781 70000 10080 20030 30123 40133 53015 60006 875// 90600 333 10157 20065 60004=
07643,1997-03-25 09:00:00,16,1014.1,0.8,39,2,50000,25.928,,,340,,,,,,,,,,,wg-a,,,,AAXX 25094 07643 12784 13414 10160 20020 30131 40141 51008 60006 8150/ 90900=
07643,1997-03-25 12:00:00,20,1013.1,-0.9,32,3,75000,7.408,,,310,,,,,,,,,,,wg-a,,,,AAXX 25124 07643 12789 53104 10200 20030 30122 40131 58009 60006 8550/ 91200=
07643,1997-03-25 15:00:00,20,1012.6,-0.5,30,2,75000,29.632,,,330,,,,,,,,,,,wg-a,,,,AAXX 25154 07643 12789 53316 10200 20020 30117 40126 56005 60006 85800 91500=
07643,1997-03-25 18:00:00,16,1014.3,1.6,39,2,35000,25.928,,,10,7.6,20.3,,,,,,,,,wg-a,,,,AAXX 25184 07643 12781 60114 10160 20020 30133 40143 53016 60006 86800 91800 333 10203 20076=
07643,1997-03-25 21:00:00,12,1016.7,2.4,50,2,35000,14.816,,,340,,,,,,,,,,,wg-a,,,,AAXX 25214 07643 12/81 03408 10120 20020 30157 40167 52024 60006 80000 92100=
07643,1997-03-26 00:00:00,10,1018.5,1.8,53,1,35000,7.408,,,10,,,,,,,,,,,wg-a,,,,AAXX 26004 07643 12/81 00104 10100 20010 30175 40185 51018 60006 80000 90000=
07643,1997-03-26 06:00:00,7,1020.2,1.2,70,2,40000,7.408,,,320,6.3,16.3,,,,,,,,,wg-a,,,,AAXX 26064 07643 02/82 03204 10070 20020 30192 40202 53012 60006 80000 90600 333 10163 20063 60004=
07643,1997-03-26 09:00:00,15,1021.7,1.5,44,3,40000,7.408,,29.632,80,,,,,,,,,,,wg-a,,,,AAXX 26094 07643 12/82 00804 10150 20030 30207 40217 51015 60006 80000 90900 333 91016=
07643,1997-03-26 12:00:00,20,1020.8,-0.8,30,2,40000,11.112,,,270,,,,,,,,,,,wg-a,,,,AAXX 26124 07643 12/82 12706 10200 20020 30199 40208 58008 60006 80001 91200=
07643,1997-03-26 18:00:00,15,1021.3,0.8,51,5,500,7.408,,,230,7.3,20.3,,,,,,,,,wg-a,,,,AAXX 26184 07643 12/00 52304 10150 20050 30203 40213 53008 60006 80001 91800 333 10203 20073=
07643,1997-03-26 21:00:00,11,1023.3,2,62,4,15000,7.408,,,10,,,,,,,,,,,wg-a,,,,AAXX 26214 07643 12/65 00104 10110 20040 30223 40233 51020 60006 80000 92100=
07643,1997-03-27 00:00:00,9,1023.8,0.5,71,4,15000,3.704,,,310,,,,,,,,,,,wg-a,,,,AAXX 27004 07643 12/65 03102 10090 20040 30228 40238 53005 60006 80000 90000=
07643,1997-03-27 03:00:00,8,1023.3,-0.5,76,4,15000,7.408,,,290,,,,,,,,,,,wg-a,,,,AAXX 27034 07643 12/65 32904 10080 20040 30223 40233 58005 60006 80001 90300=
07643,1997-03-27 06:00:00,7,1023.7,0.4,81,4,500,11.112,,,290,6.1,14.6,,,,,,,,,wg-a,,,,AAXX 27064 07643 02/00 52906 10070 20040 30227 40237 53004 60006 81031 90600 333 10146 20061 60004=
07643,1997-03-27 09:00:00,17,1024.2,0.5,45,5,10000,3.704,,,130,,,,,,,,,,,wg-a,,,,AAXX 27094 07643 12/60 21302 10170 20050 30232 40242 51005 60006 80001 90900=
07643,1997-03-27 12:00:00,19,1022.3,-1.8,52,9,15000,14.816,,,140,,,,,,,,,,,wg-a,,,,AAXX 27124 07643 12/65 01408 10190 20090 30214 40223 58018 60006 80000 91200=
07643,1997-03-27 15:00:00,19,1020.4,-1.9,64,12,20000,22.224,,,130,,,,,,,,,,,wg-a,,,,AAXX 27154 07643 12/70 01312 10190 20120 30195 40204 56019 60006 80000 91500=
07643,1997-03-27 18:00:00,15,1020.5,-0,72,10,20000,14.816,,,210,7.1,20.7,,,,,,,,,wg-a,,,,AAXX 27184 07643 12/70 02108 10150 20100 30195 40205 55000 60006 80000 91800 333 10207 20071=
07643,1997-03-27 21:00:00,12,1020.8,0.3,82,9,15000,11.112,,,350,,,,,,,,,,,wg-a,,,,AAXX 27214 07643 12/65 03506 10120 20090 30198 40208 52003 60006 80000 92100=
07643,1997-03-28 00:00:00,11,1020.2,-0.6,87,9,10000,7.408,,,270,,,,,,,,,,,wg-a,,,,AAXX 28004 07643 12/60 /2704 10110 20090 30192 40202 56006 60006 90000=
07643,1997-03-28 03:00:00,10,1018.7,-1.5,87,8,15000,3.704,,,320,,,,,,,,,,,wg-a,,,,AAXX 28034 07643 12/65 03202 10100 20080 30177 40187 57015 60006 80000 90300=
07643,1997-03-28 06:00:00,10,1018,-0.7,87,8,15000,3.704,,,270,9.4,15.2,,,,,,,,,wg-a,,,,AAXX 28064 07643 02/65 02702 10100 20080 30170 40180 56007 60006 80000 90600 333 10152 20094 60004=
07643,1997-03-28 09:00:00,19,1016.9,-1,60,11,500,3.704,,,200,,,,,,,,,,,wg-a,,,,AAXX 28094 07643 12/00 12002 10190 20110 30160 40169 58010 60006 81040 90900=
07643,1997-03-28 12:00:00,26,1014.1,-2.8,30,7,75000,35.188,,,280,,,,,,,,,,,wg-a,,,,AAXX 28124 07643 12789 32819 10260 20070 30132 40141 58028 60006 82541 91200=
07643,1997-03-28 15:00:00,23,1012.4,-1.7,41,9,60000,42.596,,,260,,,,,,,,,,,wg-a,,,,AAXX 28154 07643 12786 42623 10230 20090 30115 40124 56017 60006 82241 91500=
07643,1997-03-28 18:00:00,18,1014.7,2.3,34,2,60000,35.188,,,350,9.7,26.7,,,,,,,,,wg-a,,,,AAXX 28184 07643 12686 /3519 10180 20020 30138 40147 53023 60006 85800 91800 333 10267 20097=
07643,1997-03-28 21:00:00,13,1017.9,3.1,33,-3,10000,25.928,,,330,,,,,,,,,,,wg-a,,,,AAXX 28214 07643 12/60 /3314 10130 21030 30169 40179 51031 60006 92100=
07643,1997-03-29 00:00:00,12,1018.5,0.6,30,-5,18000,31.484,,,340,,,,,,,,,,,wg-a,,,,AAXX 29004 07643 12/68 03417 10120 21050 30175 40185 50006 60006 80000 90000=
07643,1997-03-29 03:00:00,10,1019,0.5,32,-6,18000,31.484,,,340,,,,,,,,,,,wg-a,,,,AAXX 29034 07643 12/68 03417 10100 21060 30180 40190 50005 60006 80000 90300=
07643,1997-03-29 06:00:00,8,1020,1,39,-5,75000,14.816,,,290,7.8,18.4,,,,,,,,,wg-a,,,,AAXX 29064 07643 02/89 12908 10080 21050 30190 40200 53010 60006 80001 90600 333 10184 20078 60004=
07643,1997-03-29 09:00:00,13,1020.2,0.2,26,-6,50000,29.632,,,350,,,,,,,,,,,wg-a,,,,AAXX 29094 07643 12/84 13516 10130 21060 30192 40202 51002 60006 80001 90900=
07643,1997-03-29 12:00:00,16,1019,-1.2,25,-4,35000,29.632,,,350,,,,,,,,,,,wg-a,,,,AAXX 29124 07643 12/81 03516 10160 21040 30180 40190 58012 60006 80000 91200=
07643,1997-03-29 15:00:00,18,1017.3,-1.7,20,-5,35000,35.188,,,350,,,,,,,,,,,wg-a,,,,AAXX 29154 07643 12/81 03519 10180 21050 30163 40173 56017 60006 80000 91500=
07643,1997-03-29 18:00:00,14,1017.9,0.6,26,-5,35000,31.484,,,360,8,17.8,,,,,,,,,wg-a,,,,AAXX 29184 07643 12/81 03617 10140 21050 30169 40179 53006 60006 80000 91800 333 10178 20080=
07643,1997-03-29 21:00:00,11,1019.6,1.7,35,-4,35000,29.632,,,350,,,,,,,,,,,wg-a,,,,AAXX 29214 07643 12/81 03516 10110 21040 30186 40196 51017 60006 80000 92100=
07643,1997-03-30 00:00:00,10,1019.6,-0,40,-3,35000,25.928,,,330,,,,,,,,,,,wg-a,,,,AAXX 30004 07643 12/81 03314 10100 21030 30186 40196 54000 60006 80000 90000=
07643,1997-03-30 03:00:00,9,1019.3,-0.3,40,-4,25000,29.632,,,340,,,,,,,,,,,wg-a,,,,AAXX 30034 07643 12/75 03416 10090 21040 30183 40193 55003 60006 80000 90300=
07643,1997-03-30 06:00:00,8,1020,0.7,46,-3,10000,22.224,,,340,7.5,13.9,,,,,,,,,wg-a,,,,AAXX 30064 07643 02/60 /3412 10080 21030 30190 40200 51007 60006 90600 333 10139 20075 60004=
07643,1997-03-30 09:00:00,13,1020.4,0.4,35,-2,50000,29.632,,,340,,,,,,,,,,,wg-a,,,,AAXX 30094 07643 12/84 03416 10130 21020 30194 40204 50004 60006 80000 90900=
07643,1997-03-30 12:00:00,17,1018.3,-2.1,25,-3,50000,18.52,,,340,,,,,,,,,,,wg-a,,,,AAXX 30124 07643 12/84 13410 10170 21030 30173 40183 58021 60006 80001 91200=
07643,1997-03-30 15:00:00,19,1016.5,-1.7,22,-3,75000,25.928,,44.448,10,,,,,,,,,,,wg-a,,,,AAXX 30154 07643 12/89 00114 10190 21030 30156 40165 56017 60006 80000 91500 333 91024=
07643,1997-03-30 18:00:00,16,1017.5,0.9,29,-2,75000,31.484,,,20,8.1,19.4,,,,,,,,,wg-a,,,,AAXX 30184 07643 12/89 00217 10160 21020 30165 40175 53009 60006 80000 91800 333 10194 20081=
07643,1997-03-30 21:00:00,12,1019.6,2.1,38,-2,75000,7.408,,,320,,,,,,,,,,,wg-a,,,,AAXX 30214 07643 12/89 03204 10120 21020 30186 40196 51021 60006 80000 92100=
07643,1997-03-31 00:00:00,11,1020,0.4,40,-2,75000,14.816,,,340,,,,,,,,,,,wg-a,,,,AAXX 31004 07643 12/89 03408 10110 21020 30190 40200 52004 60006 80000 90000=
07643,1997-03-31 06:00:00,7,1021.1,1.2,57,-1,75000,11.112,,,10,6.7,15.7,,,,,,,,,wg-a,,,,AAXX 31064 07643 02/89 00106 10070 21010 30201 40211 53012 60006 80000 90600 333 10157 20067 60004=
07643,1997-03-31 09:00:00,13,1022.4,1.3,44,1,75000,18.52,,,50,,,,,,,,,,,wg-a,,,,AAXX 31094 07643 12/89 00510 10130 20010 30214 40224 51013 60006 80000 90900=
07643,1997-03-31 12:00:00,16,1022.4,0,63,9,25000,18.52,,,130,,,,,,,,,,,wg-a,,,,AAXX 31124 07643 12575 /1310 10160 20090 30214 40224 50000 60006 81100 91200=
07643,1997-03-31 15:00:00,15,1021.5,-0.9,63,8,25000,11.112,,,140,,,,,,,,,,,wg-a,,,,AAXX 31154 07643 12/75 01406 10150 20080 30205 40215 57009 60006 80000 91500=
07643,1997-03-31 18:00:00,13,1021.3,-0.2,72,8,25000,7.408,,,160,6.9,16.5,,,,,,,,,wg-a,,,,AAXX 31184 07643 12/75 01604 10130 20080 30203 40213 56002 60006 80000 91800 333 10165 20069=
07643,1997-03-31 21:00:00,9,1021.7,0.4,87,7,15000,3.704,,,250,,,,,,,,,,,wg-a,,,,AAXX 31214 07643 12/65 02502 10090 20070 30207 40217 50004 60006 80000 92100=
07643,1997-04-01 00:00:00,7,1021.3,-0.4,93,6,10000,11.112,,,350,,,,,,,,,,,wg-a,,,,AAXX 01004 07643 12/60 03506 10070 20060 30203 40213 58004 60006 80000 90000=
07643,1997-04-01 03:00:00,5,1020.3,-1,87,3,10000,11.112,,,10,,,,,,,,,,,wg-a,,,,AAXX 01034 07643 12/60 00106 10050 20030 30193 40203 57010 60006 80000 90300=
07643,1997-04-01 06:00:00,5,1020.7,0.4,87,3,10000,3.704,,,350,4.2,12.6,,,,,,,,,wg-a,,,,AAXX 01064 07643 02260 23502 10050 20030 30197 40207 53004 60006 82600 90600 333 10126 20042 60004=
07643,1997-04-01 09:00:00,12,1020.6,-0.1,67,6,8000,7.408,,,120,,,,,,,,,,,wg-a,,,,AAXX 01094 07643 12/58 /1204 10120 20060 30196 40206 58001 60006 90900=
07643,1997-04-01 12:00:00,17,1019.1,-1.5,55,8,12000,18.52,,,170,,,,,,,,,,,wg-a,,,,AAXX 01124 07643 12/62 01710 10170 20080 30181 40191 58015 60006 80000 91200=
07643,1997-04-01 15:00:00,17,1016.8,-2.3,59,9,15000,22.224,,,190,,,,,,,,,,,wg-a,,,,AAXX 01154 07643 12565 /1912 10170 20090 30158 40168 56023 60006 81100 91500=
07643,1997-04-01 18:00:00,14,1016.2,-0.6,77,10,15000,14.816,,,210,5.3,18.3,,,,,,,,,wg-a,,,,AAXX 01184 07643 12/65 12108 10140 20100 30152 40162 55006 60006 80001 91800 333 10183 20053=
07643,1997-04-01 21:00:00,11,1016.4,0.2,82,8,10000,3.704,,,300,,,,,,,,,,,wg-a,,,,AAXX 01214 07643 12/60 /3002 10110 20080 30154 40164 50002 60006 92100=
07643,1997-04-02 00:00:00,9,1015.7,-0.7,76,5,10000,7.408,,,260,,,,,,,,,,,wg-a,,,,AAXX 02004 07643 12/60 /2604 10090 20050 30147 40157 58007 60006 90000=
07643,1997-04-02 03:00:00,7,1014.9,-0.8,81,4,15000,3.704,,,320,,,,,,,,,,,wg-a,,,,AAXX 02034 07643 12/65 03202 10070 20040 30139 40149 56008 60006 80000 90300=
07643,1997-04-02 06:00:00,7,1015.8,0.9,76,3,500,11.112,,,20,6.1,14.1,,,,,,,,,wg-a,,,,AAXX 02064 07643 02/00 00206 10070 20030 30148 40158 53009 60006 80000 90600 333 10141 20061 60004=
07643,1997-04-02 09:00:00,16,1018.2,2.4,55,7,50000,14.816,,,80,,,,,,,,,,,wg-a,,,,AAXX 02094 07643 12/84 00808 10160 20070 30172 40182 51024 60006 80000 90900=
07643,1997-04-02 12:00:00,16,1019,0.8,77,12,25000,11.112,,,120,,,,,,,,,,,wg-a,,,,AAXX 02124 07643 12575 71206 10160 20120 30180 40190 51008 60006 87500 91200=
07643,1997-04-02 18:00:00,14,1017.4,-0.5,82,11,12000,7.408,,,160,7.1,16.8,,,,,,,,,wg-a,,,,AAXX 02184 07643 12562 /1604 10140 20110 30164 40174 56005 60006 81500 91800 333 10168 20071=
07643,1997-04-02 21:00:00,11,1018.1,0.7,94,10,8000,3.704,,,280,,,,,,,,,,,wg-a,,,,AAXX 02214 07643 12/58 02802 10110 20100 30171 40181 50007 60006 80000 92100=
07643,1997-04-03 00:00:00,9,1017.3,-0.8,100,9,500,7.408,,,320,,,,,,,,,,,wg-a,,,,AAXX 03004 07643 12100 73204 10090 20090 30163 40173 57008 60006 876// 90000=
07643,1997-04-03 03:00:00,8,1016.4,-0.9,100,8,100,7.408,,,360,,,,,,,,,,45,wg-a,,,,AAXX 03034 07643 12/01 93604 10080 20080 30154 40164 56009 60006 74542 89/// 90300=
07643,1997-04-03 06:00:00,7,1016.3,-0.1,100,7,2500,3.704,,,360,6.5,13.9,,,,,,,,10,wg-a,,,,AAXX 03064 07643 02125 33602 10070 20070 30153 40163 55001 60006 71041 82630 90600 333 10139 20065 60004=
07643,1997-04-03 09:00:00,15,1016.4,0.1,77,11,8000,7.408,,,140,,,,,,,,,,,wg-a,,,,AAXX 03094 07643 12/58 01404 10150 20110 30154 40164 51001 60006 80000 90900=
07643,1997-04-03 12:00:00,22,1014.8,-1.5,50,11,15000,14.816,,,170,,,,,,,,,,,wg-a,,,,AAXX 03124 07643 12765 11708 10220 20110 30139 40148 58015 60006 81100 91200=
07643,1997-04-03 15:00:00,22,1012.4,-2.4,43,9,500,18.52,,,140,,,,,,,,,,,wg-a,,,,AAXX 03154 07643 12700 31410 10220 20090 30115 40124 58024 60006 83100 91500=
07643,1997-04-03 18:00:00,23,1012.9,0.5,36,7,500,7.408,,,10,6.5,24.1,,,,,,,,,wg-a,,,,AAXX 03184 07643 12700 40104 10230 20070 30120 40129 53005 60006 8/800 91800 333 10241 20065=
07643,1997-04-04 00:00:00,15,1016.2,1.1,48,4,15000,11.112,,,300,,,,,,,,,,,wg-a,,,,AAXX 04004 07643 12/65 03006 10150 20040 30152 40162 53011 60006 80000 90000=
07643,1997-04-04 03:00:00,14,1016.3,0.1,51,4,15000,14.816,,,320,,,,,,,,,,,wg-a,,,,AAXX 04034 07643 12/65 03208 10140 20040 30153 40163 53001 60006 80000 90300=
07643,1997-04-04 06:00:00,12,1017.5,1.2,54,3,35000,7.408,,,250,11.4,22.6,,,,,,,,,wg-a,,,,AAXX 04064 07643 02781 72504 10120 20030 30165 40175 53012 60006 81534 90600 333 10226 20114 60004=
07643,1997-04-04 09:00:00,17,1018.5,1,39,3,35000,38.892,,,330,,,,,,,,,,,wg-a,,,,AAXX 04094 07643 12781 53321 10170 20030 30175 40185 51010 60006 83532 90900=
07643,1997-04-04 12:00:00,19,1017.4,-1,26,-1,35000,42.596,,,340,,,,,,,,,,,wg-a,,,,AAXX 04124 07643 12781 33423 10190 21010 30165 40174 58010 60006 81201 91200=
07643,1997-04-04 15:00:00,20,1016.7,-0.7,23,-2,35000,35.188,,,330,,,,,,,,,,,wg-a,,,,AAXX 04154 07643 12781 13319 10200 21020 30158 40167 55007 60006 81201 91500=
07643,1997-04-04 18:00:00,17,1018.2,1.4,23,-4,35000,29.632,,,330,11.8,20.2,,,,,,,,,wg-a,,,,AAXX 04184 07643 12/81 63316 10170 21040 30172 40182 53014 60006 82031 91800 333 10202 20118=
07643,1997-04-04 21:00:00,13,1020.3,2.1,33,-3,10000,22.224,,,320,,,,,,,,,,,wg-a,,,,AAXX 04214 07643 12/60 /3212 10130 21030 30193 40203 51021 60006 92100=
07643,1997-04-05 00:00:00,11,1020.7,0.4,35,-4,0,22.224,,,300,,,,,,,,,,,wg-a,,,,AAXX 05004 07643 12/// /3012 10110 21040 30197 40207 51004 60006 90000=
07643,1997-04-05 06:00:00,7,1021.8,1,49,-3,50000,3.704,,,50,6,16.8,,,,,,,,,wg-a,,,,AAXX 05064 07643 02/84 60502 10070 21030 30208 40218 51010 60006 80001 90600 333 10168 20060 60004=
07643,1997-04-05 09:00:00,15,1022.7,0.9,25,-5,10000,11.112,,,290,,,,,,,,,,,wg-a,,,,AAXX 05094 07643 12/60 /2906 10150 21050 30217 40227 51009 60006 90900=
07643,1997-04-05 12:00:00,20,1020.6,-2,19,-4,75000,18.52,,,350,,,,,,,,,,,wg-a,,,,AAXX 05124 07643 12/89 53510 10200 21040 30197 40206 56020 60006 80001 91200=
07643,1997-04-05 15:00:00,22,1018.5,-2.1,20,-2,75000,22.224,,,360,,,,,,,,,,,wg-a,,,,AAXX 05154 07643 12/89 53612 10220 21020 30176 40185 56021 60006 81034 91500=
07643,1997-04-05 18:00:00,19,1018.6,0.1,28,0,10000,11.112,,,350,6.7,22.3,,,,,,,,,wg-a,,,,AAXX 05184 07643 12/60 /3506 10190 20000 30177 40186 53001 60006 91800 333 10223 20067=
07643,1997-04-05 21:00:00,14,1019.9,1.2,41,1,18000,11.112,,,260,,,,,,,,,,,wg-a,,,,AAXX 05214 07643 12/68 02606 10140 20010 30189 40199 53012 60006 80000 92100=
07643,1997-04-06 00:00:00,14,1019,-0.9,44,2,18000,22.224,,,280,,,,,,,,,,,wg-a,,,,AAXX 06004 07643 12/68 02812 10140 20020 30180 40190 58009 60006 80000 90000=
07643,1997-04-06 03:00:00,13,1017.6,-1.4,44,1,18000,14.816,,,290,,,,,,,,,,,wg-a,,,,AAXX 06034 07643 12/68 02908 10130 20010 30166 40176 56014 60006 80000 90300=
07643,1997-04-06 06:00:00,9,1017.9,0.3,57,1,75000,14.816,,,300,8.4,19.3,,,,,,,,,wg-a,,,,AAXX 06064 07643 02/89 23008 10090 20010 30169 40179 53003 60006 80002 90600 333 10193 20084 60004=
07643,1997-04-06 09:00:00,19,1017.1,-0.7,34,3,75000,14.816,,,280,,,,,,,,,,,wg-a,,,,AAXX 06094 07643 12/89 12808 10190 20030 30162 40171 57007 60006 80002 90900=
07643,1997-04-06 12:00:00,24,1015.7,-1.4,31,6,75000,31.484,,,360,,,,,,,,,,,wg-a,,,,AAXX 06124 07643 12/89 03617 10240 20060 30145 40157 58014 60006 80000 91200=
07643,1997-04-06 15:00:00,23,1014.1,-1.6,31,5,75000,31.484,,,350,,,,,,,,,,,wg-a,,,,AAXX 06154 07643 12/89 03517 10230 20050 30132 40141 56016 60006 80000 91500=
07643,1997-04-06 18:00:00,20,1014.3,0.2,30,2,75000,35.188,,,330,9.5,23.9,,,,,,,,,wg-a,,,,AAXX 06184 07643 12/89 23319 10200 20020 30134 40143 52002 60006 80002 91800 333 10239 20095=
07643,1997-04-06 21:00:00,17,1015.1,0.7,36,2,50000,31.484,,,340,,,,,,,,,,,wg-a,,,,AAXX 06214 07643 12/84 03417 10170 20020 30141 40151 52007 60006 80000 92100=
07643,1997-04-07 00:00:00,16,1015.5,0.4,36,1,50000,35.188,,57.412,20,,,,,,,,,,,wg-a,,,,AAXX 07004 07643 12/84 00219 10160 20010 30145 40155 53004 60006 80000 90000 333 91031=
07643,1997-04-07 03:00:00,14,1017,1.5,28,-4,50000,35.188,,53.708,20,,,,,,,,,,,wg-a,,,,AAXX 07034 07643 12/84 00219 10140 21040 30160 40170 51015 60006 80000 90300 333 91029=
07643,1997-04-07 06:00:00,13,1018.8,1.8,33,-3,75000,25.928,,,10,12.3,19.8,,,,,,,,,wg-a,,,,AAXX 07064 07643 02/89 40114 10130 21030 30178 40188 53018 60006 80004 90600 333 10198 20123 60004=
07643,1997-04-07 12:00:00,20,1020.5,0.4,32,3,40000,11.112,,,90,,,,,,,,,,,wg-a,,,,AAXX 07124 07643 12/82 70906 10200 20030 30196 40205 51004 60006 80006 91200=
07643,1997-04-07 18:00:00,16,1020.7,0.2,55,7,40000,7.408,,,150,12.5,21.2,,,,,,,,,wg-a,,,,AAXX 07184 07643 12/82 71504 10160 20070 30197 40207 53002 60006 80008 91800 333 10212 20125=
07643,1997-04-07 21:00:00,12,1022.7,2,71,7,25000,7.408,,,30,,,,,,,,,,,wg-a,,,,AAXX 07214 07643 12/75 50304 10120 20070 30217 40227 53020 60006 80002 92100=
07643,1997-04-08 00:00:00,9,1023.7,1,81,6,25000,7.408,,,320,,,,,,,,,,,wg-a,,,,AAXX 08004 07643 12/75 33204 10090 20060 30227 40237 53010 60006 80002 90000=
07643,1997-04-08 03:00:00,7,1024.4,0.7,81,4,25000,11.112,,,20,,,,,,,,,,,wg-a,,,,AAXX 08034 07643 12/75 20206 10070 20040 30234 40244 53007 60006 80002 90300=
07643,1997-04-08 06:00:00,8,1026.5,2.1,71,3,15000,11.112,,,350,7,15.5,,,,,,,,,wg-a,,,,AAXX 08064 07643 02/65 63506 10080 20030 30255 40265 53021 60006 81032 90600 333 10155 20070 60004=
07643,1997-04-08 09:00:00,16,1028,1.5,72,11,12000,18.52,,,100,,,,,,,,,,,wg-a,,,,AAXX 08094 07643 12562 71010 10160 20110 30270 40280 51015 60006 82132 90900=
07643,1997-04-08 12:00:00,16,1028.5,0.5,63,9,15000,35.188,,,130,,,,,,,,,,,wg-a,,,,AAXX 08124 07643 12665 71319 10160 20090 30275 40285 51005 60006 83202 91200=
07643,1997-04-08 15:00:00,15,1027.7,-0.8,55,6,20000,31.484,,,140,,,,,,,,,,,wg-a,,,,AAXX 08154 07643 12670 71417 10150 20060 30267 40277 58008 60006 85802 91500=
07643,1997-04-08 18:00:00,13,1027.7,-0,67,7,11000,22.224,,,140,8,16.7,,,,,,,,,wg-a,,,,AAXX 08184 07643 12/61 /1412 10130 20070 30267 40277 55000 60006 91800 333 10167 20080=
07643,1997-04-08 21:00:00,12,1028.6,0.9,67,6,12000,25.928,,,130,,,,,,,,,,,wg-a,,,,AAXX 08214 07643 12/62 61314 10120 20060 30276 40286 51009 60006 82032 92100=
07643,1997-04-09 00:00:00,10,1029.1,0.5,71,5,10000,14.816,,,90,,,,,,,,,,,wg-a,,,,AAXX 09004 07643 12/60 /0908 10100 20050 30281 40291 53005 60006 90000=
07643,1997-04-09 03:00:00,7,1029,-0.1,87,5,12000,7.408,,,20,,,,,,,,,,,wg-a,,,,AAXX 09034 07643 12/62 60204 10070 20050 30280 40290 56001 60006 82032 90300=
07643,1997-04-09 06:00:00,9,1030.2,1.2,81,6,15000,11.112,,,30,6.8,13.1,,,,,,,,,wg-a,,,,AAXX 09064 07643 02/65 70306 10090 20060 30292 40302 53012 60006 8703/ 90600 333 10131 20068 60004=
07643,1997-04-09 09:00:00,14,1031.7,1.5,51,4,20000,14.816,,,70,,,,,,,,,,,wg-a,,,,AAXX 09094 07643 12770 10708 10140 20040 30307 40317 53015 60006 81130 90900=
07643,1997-04-09 12:00:00,16,1031.7,0,55,7,500,18.52,,,130,,,,,,,,,,,wg-a,,,,AAXX 09124 07643 12500 21310 10160 20070 30307 40317 50000 60006 82100 91200=
07643,1997-04-09 15:00:00,16,1030.7,-1,59,8,500,14.816,,,160,,,,,,,,,,,wg-a,,,,AAXX 09154 07643 12500 /1608 10160 20080 30297 40307 58010 60006 81100 91500=
07643,1997-04-09 18:00:00,13,1030.6,-0.1,72,8,40000,11.112,,,180,9.1,16.7,,,,,,,,,wg-a,,,,AAXX 09184 07643 12/82 01806 10130 20080 30296 40306 57001 60006 80000 91800 333 10167 20091=
07643,1997-04-09 21:00:00,10,1031.9,1.3,82,7,40000,3.704,,,290,,,,,,,,,,,wg-a,,,,AAXX 09214 07643 12/82 02902 10100 20070 30309 40319 52013 60006 80000 92100=
07643,1997-04-10 00:00:00,8,1032.2,0.3,87,6,0,7.408,,,340,,,,,,,,,,,wg-a,,,,AAXX 10004 07643 12/// /3404 10080 20060 30312 40322 53003 60006 90000=
07643,1997-04-10 03:00:00,5,1031,-1.2,93,4,15000,7.408,,,10,,,,,,,,,,,wg-a,,,,AAXX 10034 07643 12/65 00104 10050 20040 30300 40310 58012 60006 80000 90300=
07643,1997-04-10 06:00:00,5,1031.2,0.2,93,4,20000,3.704,,,340,4,13.4,,,,,,,,,wg-a,,,,AAXX 10064 07643 02/70 03402 10050 20040 30302 40312 53002 60006 80000 90600 333 10134 20040 60004=
07643,1997-04-10 09:00:00,15,1030.9,-0.3,59,7,15000,11.112,,,180,,,,,,,,,,,wg-a,,,,AAXX 10094 07643 12/65 01806 10150 20070 30299 40309 57003 60006 80000 90900=
07643,1997-04-10 12:00:00,17,1029.5,-1.4,48,6,25000,18.52,,,170,,,,,,,,,,,wg-a,,,,AAXX 10124 07643 12/75 11710 10170 20060 30285 40295 58014 60006 80001 91200=
07643,1997-04-10 18:00:00,13,1027.7,-0,72,8,25000,22.224,,,200,4.9,17.5,,,,,,,,,wg-a,,,,AAXX 10184 07643 12/75 12012 10130 20080 30267 40277 55000 60006 80001 91800 333 10175 20049=
07643,1997-04-10 21:00:00,11,1028.7,1,87,9,10000,7.408,,,230,,,,,,,,,,,wg-a,,,,AAXX 10214 07643 12/60 /2304 10110 20090 30277 40287 51010 60006 92100=
07643,1997-04-11 00:00:00,9,1028.4,-0.3,93,8,10000,7.408,,,350,,,,,,,,,,,wg-a,,,,AAXX 11004 07643 12/60 /3504 10090 20080 30274 40284 56003 60006 90000=
07643,1997-04-11 03:00:00,7,1026.8,-1.6,93,6,8000,11.112,,,350,,,,,,,,,,,wg-a,,,,AAXX 11034 07643 12/58 03506 10070 20060 30258 40268 56016 60006 80000 90300=
07643,1997-04-11 06:00:00,7,1025.8,-1,93,6,8000,7.408,,,330,6.1,13.3,,,,,,,,,wg-a,,,,AAXX 11064 07643 02/58 03304 10070 20060 30248 40258 56010 60006 80000 90600 333 10133 20061 60004=
07643,1997-04-11 09:00:00,15,1024.6,-1.2,72,10,9000,3.704,,,140,,,,,,,,,,,wg-a,,,,AAXX 11094 07643 12/59 01402 10150 20100 30236 40246 58012 60006 80000 90900=
07643,1997-04-11 12:00:00,19,1021.2,-3.3,60,11,12000,22.224,,,190,,,,,,,,,,,wg-a,,,,AAXX 11124 07643 12/62 01912 10190 20110 30203 40212 58033 60006 80000 91200=
07643,1997-04-11 18:00:00,17,1016,-2,68,11,20000,3.704,,,20,7,20.9,,,,,,,,,wg-a,,,,AAXX 11184 07643 12/70 00202 10170 20110 30150 40160 56020 60006 80000 91800 333 10209 20070=
07643,1997-04-11 21:00:00,15,1016.6,0.6,63,8,20000,11.112,,,320,,,,,,,,,,,wg-a,,,,AAXX 11214 07643 12/70 03206 10150 20080 30156 40166 50006 60006 80000 92100=
07643,1997-04-12 00:00:00,15,1015.9,-0.7,36,0,20000,14.816,,,290,,,,,,,,,,,wg-a,,,,AAXX 12004 07643 12/70 02908 10150 20000 30149 40159 58007 60006 80000 90000=
07643,1997-04-12 03:00:00,12,1014.7,-1.2,50,2,20000,11.112,,,240,,,,,,,,,,,wg-a,,,,AAXX 12034 07643 12/70 02406 10120 20020 30137 40147 57012 60006 80000 90300=
07643,1997-04-12 06:00:00,12,1015.4,0.7,58,4,15000,18.52,,,10,10.3,17.2,,,,,,,,,wg-a,,,,AAXX 12064 07643 02/65 70110 10120 20040 30144 40154 52007 60006 80004 90600 333 10172 20103 60004=
07643,1997-04-12 09:00:00,17,1015.7,0.3,39,3,25000,29.632,,,360,,,,,,,,,,,wg-a,,,,AAXX 12094 07643 12/75 13616 10170 20030 30147 40157 51003 60006 80001 90900=
07643,1997-04-12 12:00:00,21,1014.5,-1.1,16,-6,50000,22.224,,,20,,,,,,,,,,,wg-a,,,,AAXX 12124 07643 12/84 70212 10210 21060 30136 40145 58011 60006 80004 91200=
07643,1997-04-12 15:00:00,22,1013.9,-0.6,16,-5,50000,25.928,,,30,,,,,,,,,,,wg-a,,,,AAXX 12154 07643 12/84 60314 10220 21050 30130 40139 56006 60006 80001 91500=
07643,1997-04-12 18:00:00,19,1014.4,0.5,14,-9,50000,35.188,,,10,12.4,22.3,,,,,,,,,wg-a,,,,AAXX 12184 07643 12/84 20119 10190 21090 30135 40144 53005 60006 80001 91800 333 10223 20124=
07643,1997-04-13 00:00:00,12,1018.2,1,28,-6,500,11.112,,,350,,,,,,,,,,,wg-a,,,,AAXX 13004 07643 12/00 03506 10120 21060 30172 40182 51010 60006 80000 90000=
07643,1997-04-13 03:00:00,10,1018,-0.2,34,-5,500,14.816,,,350,,,,,,,,,,,wg-a,,,,AAXX 13034 07643 12/00 03508 10100 21050 30170 40180 55002 60006 80000 90300=
07643,1997-04-13 06:00:00,9,1018.5,0.5,40,-4,500,11.112,,,320,7.1,18.5,,,,,,,,,wg-a,,,,AAXX 13064 07643 02/00 13206 10090 21040 30175 40185 53005 60006 80001 90600 333 10185 20071 60004=
07643,1997-04-13 09:00:00,15,1018.9,0.4,31,-2,10000,29.632,,,360,,,,,,,,,,,wg-a,,,,AAXX 13094 07643 12/60 /3616 10150 21020 30179 40189 52004 60006 90900=
07643,1997-04-13 12:00:00,19,1018.1,-0.7,22,-3,0,7.408,,,10,,,,,,,,,,,wg-a,,,,AAXX 13124 07643 12/// /0104 10190 21030 30172 40181 58007 60006 91200=
07643,1997-04-13 18:00:00,16,1017.4,0.1,55,7,500,11.112,,,190,8.6,20.5,,,,,,,,,wg-a,,,,AAXX 13184 07643 12/00 01906 10160 20070 30164 40174 53001 60006 80000 91800 333 10205 20086=
07643,1997-04-13 21:00:00,12,1019.4,2,47,1,500,7.408,,,40,,,,,,,,,,,wg-a,,,,AAXX 13214 07643 12/00 00404 10120 20010 30184 40194 51020 60006 80000 92100=
07643,1997-04-14 00:00:00,9,1019.5,0.1,61,2,500,7.408,,,340,,,,,,,,,,,wg-a,,,,AAXX 14004 07643 12/00 03404 10090 20020 30185 40195 51001 60006 80000 90000=
07643,1997-04-14 03:00:00,8,1019.6,0.1,53,-1,500,7.408,,,340,,,,,,,,,,,wg-a,,,,AAXX 14034 07643 12/00 03404 10080 21010 30186 40196 53001 60006 80000 90300=
07643,1997-04-14 06:00:00,7,1020.7,1.1,66,1,40000,11.112,,,350,6.2,16,,,,,,,,,wg-a,,,,AAXX 14064 07643 02/82 03506 10070 20010 30197 40207 53011 60006 80000 90600 333 10160 20062 60004=
07643,1997-04-14 09:00:00,15,1020.9,0.2,41,2,50000,14.816,,,20,,,,,,,,,,,wg-a,,,,AAXX 14094 07643 12/84 00208 10150 20020 30199 40209 50002 60006 80000 90900=
07643,1997-04-14 12:00:00,19,1019.8,-1,43,6,50000,14.816,,,150,,,,,,,,,,,wg-a,,,,AAXX 14124 07643 12/84 01508 10190 20060 30189 40198 58010 60006 80000 91200=
07643,1997-04-14 15:00:00,18,1019,-0.9,56,9,35000,22.224,,,170,,,,,,,,,,,wg-a,,,,AAXX 14154 07643 12/81 01712 10180 20090 30180 40190 58009 60006 80000 91500=
07643,1997-04-14 18:00:00,15,1019.2,0.2,67,9,500,14.816,,,190,7.4,19.3,,,,,,,,,wg-a,,,,AAXX 14184 07643 12/00 01908 10150 20090 30182 40192 53002 60006 80000 91800 333 10193 20074=
07643,1997-04-15 00:00:00,9,1020.2,-0.4,87,7,500,3.704,,,290,,,,,,,,,,,wg-a,,,,AAXX 15004 07643 12/00 02902 10090 20070 30192 40202 58004 60006 80000 90000=
07643,1997-04-15 03:00:00,8,1019.6,-0.6,87,6,500,7.408,,,340,,,,,,,,,,,wg-a,,,,AAXX 15034 07643 12/00 03404 10080 20060 30186 40196 56006 60006 80000 90300=
07643,1997-04-15 06:00:00,8,1019.2,-0.4,81,5,500,7.408,,,270,6.7,14.8,,,,,,,,,wg-a,,,,AAXX 15064 07643 02/00 02704 10080 20050 30182 40192 56004 60006 80000 90600 333 10148 20067 60004=
07643,1997-04-15 09:00:00,19,1018.7,-0.4,37,4,500,11.112,,,350,,,,,,,,,,,wg-a,,,,AAXX 15094 07643 12/00 03506 10190 20040 30178 40187 58004 60006 80000 90900=
07643,1997-04-15 12:00:00,22,1016.8,-1.9,33,5,500,22.224,,,180,,,,,,,,,,,wg-a,,,,AAXX 15124 07643 12/00 01812 10220 20050 30159 40168 58019 60006 80000 91200=
07643,1997-04-15 15:00:00,23,1014.9,-1.9,38,8,35000,14.816,,,170,,,,,,,,,,,wg-a,,,,AAXX 15154 07643 12/81 01708 10230 20080 30140 40149 56019 60006 80000 91500=
07643,1997-04-15 18:00:00,21,1015.1,0.2,28,2,35000,22.224,,,10,8,23.8,,,,,,,,,wg-a,,,,AAXX 15184 07643 12/81 00112 10210 20020 30142 40151 53002 60006 80000 91800 333 10238 20080=
07643,1997-04-15 21:00:00,16,1016.8,1.6,34,0,35000,22.224,,,10,,,,,,,,,,,wg-a,,,,AAXX 15214 07643 12/81 00112 10160 20000 30158 40168 51016 60006 80000 92100=
07643,1997-04-16 00:00:00,13,1017,0.2,38,-1,35000,18.52,,,350,,,,,,,,,,,wg-a,,,,AAXX 16004 07643 12/81 03510 10130 21010 30160 40170 51002 60006 80000 90000=
07643,1997-04-16 03:00:00,10,1016.7,-0.3,40,-3,35000,11.112,,,20,,,,,,,,,,,wg-a,,,,AAXX 16034 07643 12/81 00206 10100 21030 30157 40167 55003 60006 80000 90300=
07643,1997-04-16 06:00:00,10,1016.7,-0,43,-2,60000,14.816,,,320,7.9,21.3,,,,,,,,,wg-a,,,,AAXX 16064 07643 02/86 03208 10100 21020 30157 40167 55000 60006 80000 90600 333 10213 20079 60004=
07643,1997-04-16 09:00:00,18,1016.1,-0.6,16,-8,60000,35.188,,,350,,,,,,,,,,,wg-a,,,,AAXX 16094 07643 12/86 13519 10180 21080 30151 40161 58006 60006 80001 90900=
07643,1997-04-16 12:00:00,22,1013.7,-2.3,13,-8,60000,25.928,,,20,,,,,,,,,,,wg-a,,,,AAXX 16124 07643 12/86 00214 10220 21080 30128 40137 58023 60006 80000 91200=
07643,1997-04-16 15:00:00,24,1011.3,-2.4,13,-6,60000,25.928,,,20,,,,,,,,,,,wg-a,,,,AAXX 16154 07643 12/86 00214 10240 21060 30104 40113 56024 60006 80000 91500=
07643,1997-04-16 18:00:00,20,1010.9,-0.4,17,-6,10000,22.224,,,10,10.1,23.9,,,,,,,,,wg-a,,,,AAXX 16184 07643 12/60 /0112 10200 21060 30100 40109 56004 60006 91800 333 10239 20101=
07643,1997-04-16 21:00:00,15,1012.6,1.6,21,-7,10000,22.224,,,10,,,,,,,,,,,wg-a,,,,AAXX 16214 07643 12/60 /0112 10150 21070 30116 40126 53016 60006 92100=
07643,1997-04-17 00:00:00,12,1012.7,0.1,26,-7,500,31.484,,,10,,,,,,,,,,,wg-a,,,,AAXX 17004 07643 12/00 00117 10120 21070 30117 40127 50001 60006 80000 90000=
07643,1997-04-17 06:00:00,10,1013,0.9,34,-5,500,14.816,,,20,9.1,19.8,,,,,,,,,wg-a,,,,AAXX 17064 07643 02600 70208 10100 21050 30120 40130 53009 60006 875// 90600 333 10198 20091 60004=
07643,1997-04-17 09:00:00,12,1014.1,1.1,40,-1,500,14.816,,,20,,,,,,,,,,,wg-a,,,,AAXX 17094 07643 12600 70208 10120 21010 30131 40141 52011 60006 875// 90900=
07643,1997-04-17 12:00:00,13,1014.3,0.2,47,2,25000,22.224,,,20,,,,,,,,,,,wg-a,,,,AAXX 17124 07643 12675 /0212 10130 20020 30133 40143 50002 60006 86500 91200=
07643,1997-04-17 15:00:00,13,1014.7,0.4,51,3,25000,22.224,,,40,,,,,,,,,,,wg-a,,,,AAXX 17154 07643 12675 70412 10130 20030 30137 40147 53004 60006 878// 91500=
07643,1997-04-17 18:00:00,11,1016.3,1.6,76,7,15000,14.816,,,40,10.2,13.6,,,,,,,,60,wg-a,,,,AAXX 17184 07643 02565 80408 10110 20070 30153 40163 51016 61000 76062 888// 91800 333 10136 20102 6100=
07643,1997-04-17 21:00:00,10,1017.6,1.3,71,5,8000,11.112,,,10,,,,,,,,,,1,wg-a,,,,AAXX 17214 07643 02558 /0106 10100 20050 30166 40176 51013 61000 70162 85800 92100 333 ////=
07643,1997-04-18 00:00:00,6,1018.3,0.7,81,3,8000,14.816,,,10,,,,,,,,,,1,wg-a,,,,AAXX 18004 07643 02/58 20108 10060 20030 30173 40183 52007 61000 70161 82030 90000 333 ////=
07643,1997-04-18 03:00:00,5,1017.6,-0.7,81,2,8000,18.52,,,350,,,,,,,,,,,wg-a,,,,AAXX 18034 07643 12/58 03510 10050 20020 30166 40176 55007 60006 80000 90300=
07643,1997-04-18 06:00:00,6,1017.9,0.3,81,3,12000,18.52,,,10,4.9,10.8,,,,,,,,,wg-a,,,,AAXX 18064 07643 02/62 20110 10060 20030 30169 40179 53003 60006 80002 90600 333 10108 20049 61000=
07643,1997-04-18 12:00:00,16,1017.3,-0.9,39,2,20000,22.224,,,130,,,,,,,,,,,wg-a,,,,AAXX 18124 07643 12770 21312 10160 20020 30163 40173 58009 60006 81102 91200=
07643,1997-04-18 15:00:00,16,1015.4,-1.9,45,4,20000,22.224,,,140,,,,,,,,,,,wg-a,,,,AAXX 18154 07643 12/70 11412 10160 20040 30144 40154 56019 60006 80002 91500=
07643,1997-04-18 18:00:00,13,1015.1,-0.3,62,6,20000,11.112,,,180,6.2,16.3,,,,,,,,,wg-a,,,,AAXX 18184 07643 12/70 31806 10130 20060 30141 40151 57003 60006 81032 91800 333 10163 20062=
07643,1997-04-18 21:00:00,10,1015.2,0.1,76,6,20000,3.704,,,330,,,,,,,,,,,wg-a,,,,AAXX 18214 07643 12/70 23302 10100 20060 30142 40152 53001 60006 80001 92100=
07643,1997-04-19 00:00:00,9,1014.5,-0.7,81,6,20000,7.408,,,350,,,,,,,,,,,wg-a,,,,AAXX 19004 07643 12/70 63504 10090 20060 30135 40145 57007 60006 85032 90000=
07643,1997-04-19 03:00:00,9,1012.2,-2.3,81,6,15000,11.112,,,30,,,,,,,,,,,wg-a,,,,AAXX 19034 07643 12765 70306 10090 20060 30112 40122 56023 60006 8557/ 90300=
07643,1997-04-19 06:00:00,9,1011.5,-0.7,71,4,500,11.112,,,350,8.3,12.9,,,,,,,,,wg-a,,,,AAXX 19064 07643 02700 83506 10090 20040 30105 40115 55007 60006 8657/ 90600 333 10129 20083 60004=
07643,1997-04-19 09:00:00,11,1011.7,0.2,62,4,500,11.112,,,20,,,,,,,,,,,wg-a,,,,AAXX 19094 07643 12700 80206 10110 20040 30107 40117 53002 60006 8657/ 90900=
07643,1997-04-19 12:00:00,13,1011,-0.7,58,5,15000,7.408,,,60,,,,,,,,,,60,wg-a,,,,AAXX 19124 07643 02465 80604 10130 20050 30100 40110 58007 61000 76062 8652/ 91200 333 6100=
07643,1997-04-19 15:00:00,12,1009,-2,71,7,8000,11.112,,,40,,,,1,,,,,,61,wg-a,,,,AAXX 19154 07643 12458 80406 10120 20070 30080 40090 58020 60017 76166 885// 91500=
07643,1997-04-19 18:00:00,10,1008.1,-0.9,87,8,500,18.52,,,20,9.3,12.9,,,,,,,,60,wg-a,,,,AAXX 19184 07643 02400 80210 10100 20080 30071 40081 56009 61000 76066 885// 91800 333 10129 20093 6002=
07643,1997-04-19 21:00:00,8,1008.4,0.3,93,7,9000,22.224,,,20,,,,0,,,,,,3,wg-a,,,,AAXX 19214 07643 12259 80212 10080 20070 30074 40084 50003 60007 70362 887// 92100=
07643,1997-04-20 00:00:00,8,1007.1,-1.3,100,8,0,18.52,,,10,,,,,,,,,,,wg-a,,,,AAXX 20004 07643 12/// /0110 10080 20080 30061 40071 58013 60036 90000=
07643,1997-04-20 06:00:00,9,1005,-0.1,93,8,12000,11.112,,,350,7.7,9.4,,,,,6,,,1,wg-a,,,,AAXX 20064 07643 02462 73506 10090 20080 30040 40050 55001 60006 70162 8453/ 90600 333 10094 20077 60064=
07643,1997-04-20 09:00:00,14,1005,-0,63,7,25000,14.816,,,350,,,,,,,,,,,wg-a,,,,AAXX 20094 07643 12575 /3508 10140 20070 30040 40050 55000 60006 81132 90900=
07643,1997-04-20 12:00:00,18,1003.5,-1.4,42,5,20000,29.632,,,10,,,,,,,,,,,wg-a,,,,AAXX 20124 07643 12670 50116 10180 20050 30026 40035 58014 60006 83102 91200=
07643,1997-04-20 15:00:00,17,1002.4,-1.1,34,1,20000,31.484,,,20,,,,,,,,,,,wg-a,,,,AAXX 20154 07643 12770 60217 10170 20010 30015 40024 58011 60006 835/1 91500=
07643,1997-04-20 18:00:00,14,1002.4,-0,26,-5,25000,31.484,,,20,9.4,18.3,,,,,,,,,wg-a,,,,AAXX 20184 07643 12/75 60217 10140 21050 30015 40024 55000 60006 81031 91800 333 10183 20094=
07643,1997-04-20 21:00:00,11,1003.5,1,37,-3,20000,29.632,,,360,,,,,,,,,,,wg-a,,,,AAXX 20214 07643 12/70 53616 10110 21030 30025 40035 50010 60006 80001 92100=
07643,1997-04-21 00:00:00,9,1003.8,0.3,40,-4,20000,14.816,,,350,,,,,,,,,,,wg-a,,,,AAXX 21004 07643 12/70 53508 10090 21040 30028 40038 50003 60006 80001 90000=
07643,1997-04-21 03:00:00,8,1002.4,-1.4,36,-6,20000,31.484,,,10,,,,,,,,,,,wg-a,,,,AAXX 21034 07643 12/70 40117 10080 21060 30014 40024 56014 60006 80001 90300=
07643,1997-04-21 06:00:00,7,1001.8,-0.6,39,-6,50000,31.484,,,350,6.3,14.4,,,,,,,,,wg-a,,,,AAXX 21064 07643 02/84 13517 10070 21060 30008 40018 56006 60006 81030 90600 333 10144 20063 60004=
07643,1997-04-21 09:00:00,12,1001.6,-0.2,28,-6,60000,29.632,,,350,,,,,,,,,,,wg-a,,,,AAXX 21094 07643 12/86 03516 10120 21060 30006 40016 58002 60006 80000 90900=
07643,1997-04-21 12:00:00,16,999.8,-1.7,20,-7,60000,29.632,,,350,,,,,,,,,,,wg-a,,,,AAXX 21124 07643 12/86 03516 10160 21070 39989 49998 58017 60006 80000 91200=
07643,1997-04-21 15:00:00,20,997.7,-2.1,14,-8,60000,29.632,,,10,,,,,,,,,,,wg-a,,,,AAXX 21154 07643 12/86 00116 10200 21080 39968 49977 56021 60006 80000 91500=
07643,1997-04-21 18:00:00,18,999.6,1.9,14,-10,50000,25.928,,,350,7.4,20.1,,,,,,,,,wg-a,,,,AAXX 21184 07643 12/84 03514 10180 21100 39987 49996 53019 60006 80000 91800 333 10201 20074=
07643,1997-04-21 21:00:00,13,1002.8,3.1,18,-11,50000,22.224,,,10,,,,,,,,,,,wg-a,,,,AAXX 21214 07643 12/84 00112 10130 21110 30018 40028 51031 60006 80000 92100=
07643,1997-04-22 00:00:00,8,1003.8,1,34,-7,35000,7.408,,,260,,,,,,,,,,,wg-a,,,,AAXX 22004 07643 12/81 02604 10080 21070 30028 40038 51010 60006 80000 90000=
07643,1997-04-22 03:00:00,5,1004,0.2,45,-6,35000,7.408,,,290,,,,,,,,,,,wg-a,,,,AAXX 22034 07643 12/81 02904 10050 21060 30030 40040 53002 60006 80000 90300=
07643,1997-04-22 06:00:00,6,1004.8,0.8,49,-4,40000,7.408,,,280,3.8,17.4,,,,,,,,,wg-a,,,,AAXX 22064 07643 02/82 02804 10060 21040 30038 40048 53008 60006 80000 90600 333 10174 20038 60004=
07643,1997-04-22 09:00:00,15,1005.1,0.4,20,-8,50000,22.224,,,320,,,,,,,,,,,wg-a,,,,AAXX 22094 07643 12/84 03212 10150 21080 30042 40051 50004 60006 80000 90900=
07643,1997-04-22 12:00:00,19,1004.6,-0.5,14,-9,10000,22.224,,,360,,,,,,,,,,,wg-a,,,,AAXX 22124 07643 12/60 /3612 10190 21090 30037 40046 58005 60006 91200=
07643,1997-04-22 15:00:00,21,1004.3,-0.3,11,-10,60000,35.188,,,350,,,,,,,,,,,wg-a,,,,AAXX 22154 07643 12786 13519 10210 21100 30034 40043 55003 60006 81100 91500=
07643,1997-04-22 18:00:00,17,1007.1,2.8,17,-8,0,31.484,,,350,6.2,20.9,,,,,,,,,wg-a,,,,AAXX 22184 07643 12/// /3517 10170 21080 30062 40071 53028 60006 91800 333 10209 20062=
07643,1997-04-22 21:00:00,14,1010.6,3.4,24,-6,50000,18.52,,,330,,,,,,,,,,,wg-a,,,,AAXX 22214 07643 12/84 13310 10140 21060 30096 40106 51034 60006 80002 92100=
07643,1997-04-23 00:00:00,11,1012.5,1.9,32,-5,40000,14.816,,,310,,,,,,,,,,,wg-a,,,,AAXX 23004 07643 12/82 03108 10110 21050 30115 40125 51019 60006 80000 90000=
07643,1997-04-23 03:00:00,9,1012.8,0.3,37,-5,500,14.816,,,290,,,,,,,,,,,wg-a,,,,AAXX 23034 07643 12/00 02908 10090 21050 30118 40128 53003 60006 80000 90300=
07643,1997-04-23 06:00:00,10,1014.5,1.7,34,-5,500,14.816,,,330,7.5,17,,,,,,,,,wg-a,,,,AAXX 23064 07643 02/00 13308 10100 21050 30135 40145 53017 60006 80001 90600 333 10170 20075 60004=
07643,1997-04-23 09:00:00,15,1016.3,1.8,23,-6,500,29.632,,,350,,,,,,,,,,,wg-a,,,,AAXX 23094 07643 12/00 13516 10150 21060 30153 40163 52018 60006 80001 90900=
07643,1997-04-23 12:00:00,18,1015.9,-0.3,22,-4,500,14.816,,,130,,,,,,,,,,,wg-a,,,,AAXX 23124 07643 12/00 01308 10180 21040 30150 40159 58003 60006 80000 91200=
07643,1997-04-23 15:00:00,17,1016.4,0.4,45,5,25000,25.928,,,180,,,,,,,,,,,wg-a,,,,AAXX 23154 07643 12/75 01814 10170 20050 30154 40164 53004 60006 80000 91500=
07643,1997-04-23 18:00:00,14,1017.6,1.2,72,9,25000,18.52,,,180,10.4,18.6,,,,,,,,,wg-a,,,,AAXX 23184 07643 12/75 01810 10140 20090 30166 40176 53012 60006 80000 91800 333 10186 20104=
07643,1997-04-23 21:00:00,11,1020.2,2.6,82,8,15000,3.704,,,240,,,,,,,,,,,wg-a,,,,AAXX 23214 07643 12/65 02402 10110 20080 30192 40202 51026 60006 80000 92100=
07643,1997-04-24 00:00:00,8,1020.5,0.3,93,7,12000,7.408,,,350,,,,,,,,,,,wg-a,,,,AAXX 24004 07643 12/62 03504 10080 20070 30195 40205 52003 60006 80000 90000=
07643,1997-04-24 03:00:00,7,1021,0.5,100,7,9000,7.408,,,350,,,,,,,,,,,wg-a,,,,AAXX 24034 07643 12159 53504 10070 20070 30200 40210 53005 60006 85600 90300=
07643,1997-04-24 06:00:00,8,1022.4,1.4,100,8,6000,11.112,,,350,6.2,14.2,,,,,,,,,wg-a,,,,AAXX 24064 07643 02256 73506 10080 20080 30214 40224 53014 60006 86501 90600 333 10142 20062 60004=
07643,1997-04-24 12:00:00,16,1023.6,0,72,11,20000,22.224,,,130,,,,,,,,,,,wg-a,,,,AAXX 24124 07643 12570 21312 10160 20110 30226 40236 50000 60006 82200 91200=
07643,1997-04-24 18:00:00,14,1022.7,-0.3,82,11,25000,18.52,,,150,8.2,17.1,,,,,,,,,wg-a,,,,AAXX 24184 07643 12475 21510 10140 20110 30217 40227 55003 60006 82500 91800 333 10171 20082=
07643,1997-04-24 21:00:00,13,1023.7,1,94,12,8000,11.112,,,110,,,,,,,,,,,wg-a,,,,AAXX 24214 07643 12458 41106 10130 20120 30227 40237 52010 60006 84530 92100=
07643,1997-04-25 00:00:00,12,1023.5,-0.2,88,10,8000,7.408,,,20,,,,,,,,,,,wg-a,,,,AAXX 25004 07643 12458 70204 10120 20100 30225 40235 58002 60006 875// 90000=
07643,1997-04-25 03:00:00,11,1022.5,-1,94,10,7000,14.816,,,30,,,,,,,,,,,wg-a,,,,AAXX 25034 07643 12457 /0308 10110 20100 30215 40225 56010 60006 86500 90300=
07643,1997-04-25 06:00:00,12,1023.3,0.8,88,10,500,11.112,,,40,10.5,14,,,,,,,,,wg-a,,,,AAXX 25064 07643 02/00 /0406 10120 20100 30223 40233 53008 60006 90600 333 10140 20105 60004=
07643,1997-04-25 09:00:00,14,1024,0.7,82,11,9000,11.112,,,60,,,,,,,,,,,wg-a,,,,AAXX 25094 07643 12559 70606 10140 20110 30230 40240 51007 60006 875// 90900=
07643,1997-04-25 12:00:00,17,1023.1,-0.9,72,12,12000,22.224,,,140,,,,,,,,,,,wg-a,,,,AAXX 25124 07643 12562 71412 10170 20120 30221 40231 58009 60006 878// 91200=
07643,1997-04-25 15:00:00,17,1021.2,-1.9,82,14,10000,18.52,,,150,,,,,,,,,,,wg-a,,,,AAXX 25154 07643 12260 71510 10170 20140 30202 40212 58019 60006 85801 91500=
07643,1997-04-25 18:00:00,15,1020.8,-0.4,88,13,10000,11.112,,,170,11.6,17.6,,,,,,,,,wg-a,,,,AAXX 25184 07643 12260 71706 10150 20130 30198 40208 56004 60006 85601 91800 333 10176 20116=
07643,1997-04-25 21:00:00,13,1021.5,0.7,94,12,10000,7.408,,,350,,,,,,,,,,,wg-a,,,,AAXX 25214 07643 12260 43504 10130 20120 30205 40215 50007 60006 84600 92100=
07643,1997-04-26 00:00:00,11,1021,-0.5,100,11,10000,11.112,,,350,,,,,,,,,,,wg-a,,,,AAXX 26004 07643 12460 33506 10110 20110 30200 40210 58005 60006 83600 90000=
07643,1997-04-26 03:00:00,13,1019.4,-1.6,94,12,8000,11.112,,,350,,,,,,,,,,,wg-a,,,,AAXX 26034 07643 12458 /3506 10130 20120 30184 40194 56016 60006 86600 90300=
07643,1997-04-26 06:00:00,12,1019.2,-0.2,94,11,4000,7.408,,,350,10.9,14.9,,,,,,,,,wg-a,,,,AAXX 26064 07643 02440 73504 10120 20110 30182 40192 55002 60006 84632 90600 333 10149 20109 60004=
07643,1997-04-26 09:00:00,17,1019.1,-0.1,77,13,7000,7.408,,,130,,,,,,,,,,,wg-a,,,,AAXX 26094 07643 12457 71304 10170 20130 30181 40191 58001 60006 876// 90900=
07643,1997-04-26 12:00:00,19,1017.1,-1.9,68,13,7000,18.52,,,180,14,20.1,,,,,,,,,wg-a,,0,,AAXX 26124 07643 12757 71810 10190 20130 30162 40171 58019 60006 8453/ 91200 333 10201 20140 4/9999=
07643,1997-04-26 15:00:00,19,1014.8,-2.3,73,14,10000,22.224,,,180,,,,,,,,,,,wg-a,,,,AAXX 26154 07643 12/60 71812 10190 20140 30139 40148 58023 60006 84032 91500=
07643,1997-04-26 18:00:00,15,1014.6,-0.3,94,14,6000,11.112,,,210,12,19.7,,,,,,,,,wg-a,,,,AAXX 26184 07643 12356 82106 10150 20140 30136 40146 55003 60006 82637 91800 333 10197 20120=
07643,1997-04-26 21:00:00,15,1014.8,0.2,94,14,4000,3.704,,,180,,,,0,,,,,,60,wg-a,,,,AAXX 26214 07643 12440 81802 10150 20140 30138 40148 50002 60007 76062 8457/ 92100=
07643,1997-04-27 00:00:00,15,1014.2,-0.6,100,15,4000,14.816,,,220,,,,1,,,,,,60,wg-a,,,,AAXX 27004 07643 02340 82208 10150 20150 30132 40142 58006 60016 76062 8557/ 90000 333 60017=
07643,1997-04-27 03:00:00,13,1014.1,-0.1,88,11,6000,11.112,,,260,,,,2,,,,,,60,wg-a,,,,AAXX 27034 07643 12356 82606 10130 20110 30131 40141 57001 60027 76066 8357/ 90300=
07643,1997-04-27 06:00:00,13,1013.5,-0.6,94,12,500,11.112,,,220,11.5,15.5,,,,,5,,,1,wg-a,,,,AAXX 27064 07643 02700 32206 10130 20120 30125 40135 55006 60006 70161 82532 90600 333 10155 20115 60054=
07643,1997-04-27 09:00:00,16,1013.7,0.2,82,13,500,14.816,,,190,,,,,,,,,,,wg-a,,,,AAXX 27094 07643 12500 71908 10160 20130 30127 40137 53002 60006 875// 90900=
07643,1997-04-27 12:00:00,21,1012.4,-1.2,43,8,40000,35.188,,,290,,,,,,,,,,,wg-a,,,,AAXX 27124 07643 12682 52919 10210 20080 30115 40124 56012 60006 83832 91200=
07643,1997-04-27 18:00:00,19,1014.1,2,46,7,50000,31.484,,,280,12.8,23.4,,,,,,,,,wg-a,,,,AAXX 27184 07643 12784 22817 10190 20070 30132 40141 51020 60006 825/1 91800 333 10234 20128=
07643,1997-04-27 21:00:00,17,1017.3,3.1,52,7,500,29.632,,,300,,,,,,,,,,,wg-a,,,,AAXX 27214 07643 12700 13016 10170 20070 30163 40173 51031 60006 815/0 92100=
07643,1997-04-28 00:00:00,15,1018.5,1.2,59,7,500,29.632,,,290,,,,,,,,,,,wg-a,,,,AAXX 28004 07643 12/00 02916 10150 20070 30175 40185 51012 60006 80000 90000=
07643,1997-04-28 03:00:00,15,1018.7,0.2,55,6,20000,29.632,,,290,,,,,,,,,,,wg-a,,,,AAXX 28034 07643 12770 32916 10150 20060 30177 40187 53002 60006 83500 90300=
07643,1997-04-28 06:00:00,15,1019.9,1.2,63,8,40000,11.112,,,260,13.8,18.9,,,,,,,,,wg-a,,,,AAXX 28064 07643 02782 52606 10150 20080 30189 40199 51012 60006 83531 90600 333 10189 20138 60004=
07643,1997-04-28 12:00:00,24,1018.2,-1.5,50,13,40000,29.632,,,280,,,,,,,,,,,wg-a,,,,AAXX 28124 07643 12682 62816 10240 20130 30173 40182 58015 60006 83582 91200=
07643,1997-04-28 15:00:00,24,1017.6,-0.6,54,14,40000,35.188,,,280,,,,,,,,,,,wg-a,,,,AAXX 28154 07643 12682 62819 10240 20140 30167 40176 57006 60006 83882 91500=
07643,1997-04-28 18:00:00,21,1017.5,-0.1,64,14,500,22.224,,,270,14.5,24.2,,,,,,,,,wg-a,,,,AAXX 28184 07643 12600 72712 10210 20140 30166 40175 58001 60006 8457/ 91800 333 10242 20145=
07643,1997-04-28 21:00:00,19,1017.8,0.3,52,9,20000,31.484,,,280,,,,,,,,,,,wg-a,,,,AAXX 28214 07643 12670 72817 10190 20090 30169 40178 53003 60006 8257/ 92100=
07643,1997-04-29 03:00:00,16,1016,0.5,51,6,15000,25.928,,,290,,,,,,,,,,,wg-a,,,,AAXX 29034 07643 12/65 52914 10160 20060 30150 40160 52005 60006 8503/ 90300=
07643,1997-04-29 06:00:00,16,1016.8,0.8,48,5,25000,25.928,,,290,14.8,20.8,,,,,,,,,wg-a,,,,AAXX 29064 07643 02675 42914 10160 20050 30158 40168 53008 60006 82541 90600 333 10208 20148 60004=
07643,1997-04-29 09:00:00,19,1017.4,0.7,40,5,25000,42.596,,,290,,,,,,,,,,,wg-a,,,,AAXX 29094 07643 12775 32923 10190 20050 30165 40174 51007 60006 835/0 90900=
07643,1997-04-29 12:00:00,22,1016,-1.4,31,4,35000,35.188,,57.412,300,,,,,,,,,,,wg-a,,,,AAXX 29124 07643 12681 23019 10220 20040 30151 40160 57014 60006 82800 91200 333 91031=
07643,1997-04-29 18:00:00,18,1016.8,1.4,42,5,10000,35.188,,,290,16.4,22.4,,,,,,,,,wg-a,,,,AAXX 29184 07643 12/60 /2919 10180 20050 30159 40168 53014 60006 91800 333 10224 20164=
07643,1997-04-29 21:00:00,16,1017.9,1,51,6,10000,22.224,,,280,,,,,,,,,,,wg-a,,,,AAXX 29214 07643 12/60 /2812 10160 20060 30169 40179 51010 60006 92100=
07643,1997-04-30 00:00:00,15,1017.3,-0.6,55,6,18000,25.928,,,300,,,,,,,,,,,wg-a,,,,AAXX 30004 07643 12/68 03014 10150 20060 30163 40173 57006 60006 80000 90000=
07643,1997-04-30 03:00:00,13,1017,-0.3,58,5,18000,14.816,,,290,,,,,,,,,,,wg-a,,,,AAXX 30034 07643 12/68 02908 10130 20050 30160 40170 58003 60006 80000 90300=
07643,1997-04-30 06:00:00,14,1018.2,1.2,55,5,40000,14.816,,,20,12.9,18.1,,,,,,,,,wg-a,,,,AAXX 30064 07643 02782 10208 10140 20050 30172 40182 53012 60006 81500 90600 333 10181 20129 60004=
07643,1997-04-30 09:00:00,19,1018,-0.1,34,3,40000,42.596,,,340,,,,,,,,,,,wg-a,,,,AAXX 30094 07643 12682 /3423 10190 20030 30171 40180 55001 60006 81800 90900=
07643,1997-04-30 15:00:00,23,1017.2,-0.4,25,2,50000,29.632,,,10,,,,,,,,,,,wg-a,,,,AAXX 30154 07643 12784 20116 10230 20020 30163 40172 58004 60006 82100 91500=
07643,1997-04-30 18:00:00,21,1018.2,1,33,4,50000,29.632,,,340,13.9,23.7,,,,,,,,,wg-a,,,,AAXX 30184 07643 12784 13416 10210 20040 30173 40182 53010 60006 81100 91800 333 10237 20139=
07643,1997-04-30 21:00:00,17,1020.4,2.1,42,4,10000,18.52,,,10,,,,,,,,,,,wg-a,,,,AAXX 30214 07643 12/60 /0110 10170 20040 30194 40204 53021 60006 92100=
07643,1997-05-01 00:00:00,15,1020.7,0.3,48,4,40000,14.816,,,330,,,,,,,,,,,wg-a,,,,AAXX 01004 07643 12/82 03308 10150 20040 30197 40207 51003 60006 80000 90000=
07643,1997-05-01 03:00:00,14,1020.2,-0.5,51,4,500,22.224,,,350,,,,,,,,,,,wg-a,,,,AAXX 01034 07643 12/00 03512 10140 20040 30192 40202 55005 60006 80000 90300=
07643,1997-05-01 06:00:00,15,1021.8,1.6,51,5,50000,11.112,,,340,13.4,20.9,,,,,,,,,wg-a,,,,AAXX 01064 07643 02/84 03406 10150 20050 30208 40218 53016 60006 80000 90600 333 10209 20134 60004=
07643,1997-05-01 12:00:00,24,1021.4,-0.6,31,6,50000,14.816,,,70,,,,,,,,,,,wg-a,,,,AAXX 01124 07643 12/84 00708 10240 20060 30205 40214 58006 60006 80000 91200=
07643,1997-05-01 15:00:00,22,1020.6,-0.8,33,5,40000,22.224,,,150,,,,,,,,,,,wg-a,,,,AAXX 01154 07643 12782 11512 10220 20050 30197 40206 58008 60006 81100 91500=
07643,1997-05-01 18:00:00,19,1021.7,1,56,10,10000,7.408,,,150,15.1,23.9,,,,,,,,,wg-a,,,,AAXX 01184 07643 12/60 /1504 10190 20100 30207 40217 53010 60006 91800 333 10239 20151=
07643,1997-05-01 21:00:00,16,1024.5,2.8,82,13,40000,25.928,,,130,,,,,,,,,,,wg-a,,,,AAXX 01214 07643 12782 11314 10160 20130 30235 40245 52028 60006 81100 92100=
07643,1997-05-02 00:00:00,13,1025,0.5,94,12,0,7.408,,,340,,,,,,,,,,,wg-a,,,,AAXX 02004 07643 12/// /3404 10130 20120 30240 40250 51005 60006 90000=
07643,1997-05-02 03:00:00,11,1025.7,0.7,94,10,500,3.704,,,320,,,,,,,,,,,wg-a,,,,AAXX 02034 07643 12/00 03202 10110 20100 30247 40257 53007 60006 80000 90300=
07643,1997-05-02 06:00:00,13,1026.3,0.6,82,10,10000,7.408,,,360,10.2,18.6,,,,,,,,,wg-a,,,,AAXX 02064 07643 02/60 03604 10130 20100 30253 40263 53006 60006 80000 90600 333 10186 20102 60004=
07643,1997-05-02 09:00:00,20,1026.7,0.4,49,9,25000,18.52,,,60,,,,,,,,,,,wg-a,,,,AAXX 02094 07643 12/75 00610 10200 20090 30257 40267 52004 60006 80000 90900=
07643,1997-05-02 12:00:00,21,1026.1,-0.5,46,9,75000,22.224,,,140,,,,,,,,,,,wg-a,,,,AAXX 02124 07643 12/89 01412 10210 20090 30252 40261 58005 60006 80000 91200=
07643,1997-05-02 15:00:00,21,1025,-1.1,56,12,75000,18.52,,,170,,,,,,,,,,,wg-a,,,,AAXX 02154 07643 12/89 01710 10210 20120 30241 40250 58011 60006 80000 91500=
07643,1997-05-02 18:00:00,18,1024.7,-0.4,59,10,50000,11.112,,,170,12.8,21.7,,,,,,,,,wg-a,,,,AAXX 02184 07643 12/84 01706 10180 20100 30237 40247 56004 60006 80000 91800 333 10217 20128=
07643,1997-05-02 21:00:00,14,1025.1,0.4,77,10,50000,3.704,,,20,,,,,,,,,,,wg-a,,,,AAXX 02214 07643 12/84 00202 10140 20100 30241 40251 51004 60006 80000 92100=
07643,1997-05-03 00:00:00,11,1024.7,-0.4,87,9,50000,11.112,,,20,,,,,,,,,,,wg-a,,,,AAXX 03004 07643 12/84 00206 10110 20090 30237 40247 58004 60006 80000 90000=
07643,1997-05-03 06:00:00,12,1023.8,0.2,76,8,25000,14.816,,,20,9.8,17.7,,,,,,,,,wg-a,,,,AAXX 03064 07643 02/75 00208 10120 20080 30228 40238 53002 60006 80000 90600 333 10177 20098 60004=
07643,1997-05-03 09:00:00,19,1023.4,-0.4,64,12,25000,11.112,,,80,,,,,,,,,,,wg-a,,,,AAXX 03094 07643 12575 40806 10190 20120 30224 40234 58004 60006 84500 90900=
07643,1997-05-03 12:00:00,19,1021.9,-1.4,73,14,20000,22.224,,,130,,,,,,,,,,,wg-a,,,,AAXX 03124 07643 12/70 01312 10190 20140 30210 40219 58014 60006 80000 91200=
07643,1997-05-03 18:00:00,17,1018.9,-0.8,82,14,10000,3.704,,,140,12.5,19.9,,,,,,,,,wg-a,,,,AAXX 03184 07643 12560 /1402 10170 20140 30179 40189 58008 60006 81532 91800 333 10199 20125=
07643,1997-05-03 21:00:00,16,1019,0.1,94,15,6000,7.408,,,100,,,,,,,,,,,wg-a,,,,AAXX 03214 07643 12356 71004 10160 20150 30180 40190 52001 60006 81632 92100=
07643,1997-05-04 00:00:00,15,1018.2,-0.8,94,14,6000,7.408,,,360,,,,,,,,,,,wg-a,,,,AAXX 04004 07643 12256 73604 10150 20140 30172 40182 58008 60006 875// 90000=
07643,1997-05-04 06:00:00,15,1015.8,-0.8,94,14,500,11.112,,,10,14.3,16.7,,,,,,,,60,wg-a,,,,AAXX 04064 07643 02200 80106 10150 20140 30148 40158 55008 61000 76062 86571 90600 333 10167 20143 6100=
07643,1997-05-04 09:00:00,18,1015.1,-0.6,77,14,8000,7.408,,,70,,,,,,,,,,1,wg-a,,,,AAXX 04094 07643 02358 60704 10180 20140 30142 40151 58006 61000 70162 83681 90900 333 ////=
07643,1997-05-04 12:00:00,20,1014,-1.1,73,15,8000,11.112,,,160,,,,,,,,,,3,wg-a,,,,AAXX 04124 07643 02758 /1606 10200 20150 30131 40140 58011 61000 70362 81983 91200 333 ////=
07643,1997-05-04 15:00:00,20,1012.1,-1.9,78,16,20000,14.816,,,140,,,,,,,,,,,wg-a,,,,AAXX 04154 07643 12770 /1408 10200 20160 30112 40121 58019 60006 81283 91500=
07643,1997-05-04 18:00:00,17,1011.5,-0.6,94,16,9000,11.112,,,130,14.9,21,,,,,,,,,wg-a,,,,AAXX 04184 07643 12259 /1306 10170 20160 30106 40115 55006 60006 84683 91800 333 10210 20149=
07643,1997-05-05 00:00:00,17,1009.5,-1.6,82,14,8000,29.632,,,110,,,,,,,,,,,wg-a,,,,AAXX 05004 07643 12458 71116 10170 20140 30086 40095 58016 60006 875// 90000=
07643,1997-05-05 03:00:00,16,1006.6,-2.9,94,15,8000,31.484,,,110,,,,0,,,,,,62,wg-a,,,,AAXX 05034 07643 12358 71117 10160 20150 30057 40066 56029 60007 76262 875// 90300=
07643,1997-05-05 06:00:00,16,1006.3,-0.3,94,15,1500,18.52,,,150,15.6,16.9,,,,,,,,61,wg-a,,,,AAXX 05064 07643 02315 81510 10160 20150 30054 40063 55003 61000 76162 887// 90600 333 10169 20156 6004=
07643,1997-05-05 09:00:00,18,1005.3,-1,94,17,9000,14.816,,,80,,,,6,,,,,,1,wg-a,,,,AAXX 05094 07643 12259 40808 10180 20170 30044 40053 55010 60067 70196 81863 90900=
07643,1997-05-05 12:00:00,18,1005.2,-0.1,88,16,8000,29.632,,,120,,,,,,,,,,3,wg-a,,,,AAXX 05124 07643 12258 71216 10180 20160 30043 40052 58001 60066 70396 86830 91200=
07643,1997-05-05 15:00:00,18,1003.6,-1.6,88,16,9000,31.484,,,120,,,,,,,,,,,wg-a,,,,AAXX 05154 07643 12259 51217 10180 20160 30027 40036 58016 60006 84830 91500=
07643,1997-05-05 18:00:00,16,1001.3,-2.3,94,15,7000,31.484,,,120,15.6,19.4,,,,,,,,,wg-a,,,,AAXX 05184 07643 12357 71217 10160 20150 30004 40013 58023 60006 8596/ 91800 333 10194 20156=
07643,1997-05-05 21:00:00,16,1001.5,0.2,94,15,7000,22.224,,,110,,,,2,,,,,,1,wg-a,,,,AAXX 05214 07643 12357 71112 10160 20150 30006 40015 50002 60027 70162 875// 92100=
07643,1997-05-06 00:00:00,16,999.1,-2.4,94,15,7000,35.188,,,110,,,,,,,,,,3,wg-a,,,,AAXX 06004 07643 12257 81119 10160 20150 39982 49991 58024 60026 70362 877// 90000=
07643,1997-05-06 06:00:00,13,998.6,1.5,58,5,25000,22.224,,,310,12.8,16.4,,,,,,,,61,wg-a,,,,AAXX 06064 07643 02575 73112 10130 20050 39977 49986 51015 61000 76164 8587/ 90600 333 10164 20128 6009=
07643,1997-05-06 09:00:00,16,999.5,0.9,55,7,35000,18.52,,,270,,,,0,,,,,,1,wg-a,,,,AAXX 06094 07643 12581 62710 10160 20070 39986 49995 50009 60007 70162 84870 90900=
07643,1997-05-06 12:00:00,20,999.5,-0,35,4,35000,38.892,,61.116,260,,,,,,,,,,15,wg-a,,,,AAXX 06124 07643 12581 62621 10200 20040 39986 49995 55000 60006 71562 85340 91200 333 91033=
07643,1997-05-06 15:00:00,18,1000.7,1.2,42,5,11000,42.596,,61.116,260,,,,,,,,,,,wg-a,,,,AAXX 06154 07643 12/61 /2623 10180 20050 39998 40007 53012 60006 91500 333 91033=
07643,1997-05-06 18:00:00,14,1004,3.3,51,4,11000,38.892,,57.412,270,12.5,20.5,,,,,,,,,wg-a,,,,AAXX 06184 07643 02/61 /2721 10140 20040 30031 40040 51033 60006 91800 333 10205 20125 61000 91031=
07643,1997-05-07 00:00:00,11,1008.6,1,50,1,500,22.224,,,290,,,,,,,,,,,wg-a,,,,AAXX 07004 07643 12600 72912 10110 20010 30076 40086 51010 60006 8257/ 90000=
07643,1997-05-07 03:00:00,9,1006.2,-2.4,57,1,500,22.224,,,300,,,,,,,,,,,wg-a,,,,AAXX 07034 07643 12700 73012 10090 20010 30052 40062 58024 60006 8157/ 90300=
07643,1997-05-07 06:00:00,9,1005.1,-1.1,61,2,40000,7.408,,,270,8,14.1,,,,,,,,,wg-a,,,,AAXX 07064 07643 02/82 72704 10090 20020 30041 40051 56011 60006 82032 90600 333 10141 20080 60004=
07643,1997-05-07 12:00:00,14,1003.3,-1.3,55,5,500,29.632,,,190,,,,,,,,,,,wg-a,,,,AAXX 07124 07643 12600 71916 10140 20050 30024 40033 58013 60006 8457/ 91200=
07643,1997-05-07 15:00:00,12,1002.3,-1.1,76,8,20000,22.224,,,280,,,,0,,,,,,61,wg-a,,,,AAXX 07154 07643 12370 72812 10120 20080 30013 40023 55011 60007 76162 8687/ 91500=
07643,1997-05-07 18:00:00,13,1001.8,-0.5,67,7,9000,18.52,,,220,8.8,15.6,,1,,,,,,16,wg-a,,,,AAXX 07184 07643 02559 82210 10130 20070 30008 40018 55005 60006 71662 8697/ 91800 333 10156 20088 60017=
07643,1997-05-07 21:00:00,9,1003.4,1.6,93,8,11000,14.816,,,240,,,,,,,,,,,wg-a,,,,AAXX 07214 07643 32/61 /2408 10090 20080 30024 40034 51016 92100=
07643,1997-05-08 00:00:00,9,1005.5,2.1,66,3,18000,25.928,,,290,,,,,,,,,,1,wg-a,,,,AAXX 08004 07643 12668 82914 10090 20030 30045 40055 53021 60016 70162 8357/ 90000=
07643,1997-05-08 03:00:00,8,1007.5,2,57,0,20000,22.224,,,290,,,,,,,,,,,wg-a,,,,AAXX 08034 07643 12/70 42912 10080 20000 30065 40075 51020 60006 80002 90300=
07643,1997-05-08 06:00:00,9,1009.9,2.4,49,-1,35000,25.928,,,290,7.5,12.9,,,,,2,,,,wg-a,,,,AAXX 08064 07643 02581 22914 10090 21010 30089 40099 53024 60006 82202 90600 333 10129 20075 60024=
07643,1997-05-08 09:00:00,13,1010.6,0.7,38,-1,11000,35.188,,,300,,,,,,,,,,,wg-a,,,,AAXX 08094 07643 12/61 /3019 10130 21010 30096 40106 51007 60006 90900=
07643,1997-05-08 12:00:00,16,1011.3,0.7,31,-1,11000,42.596,,,290,,,,,,,,,,,wg-a,,,,AAXX 08124 07643 12/61 /2923 10160 21010 30103 40113 50007 60006 91200=
07643,1997-05-08 15:00:00,18,1010.8,-0.4,37,3,40000,25.928,,,290,,,,,,,,,,,wg-a,,,,AAXX 08154 07643 12682 42914 10180 20030 30099 40108 58004 60006 84200 91500=
07643,1997-05-08 18:00:00,15,1012,1.1,51,5,40000,25.928,,,270,9.1,18.2,,,,,,,,,wg-a,,,,AAXX 08184 07643 12782 42714 10150 20050 30110 40120 53011 60006 82230 91800 333 10182 20091=
07643,1997-05-08 21:00:00,12,1013.7,1.7,71,7,500,18.52,,,250,,,,,,,,,,,wg-a,,,,AAXX 08214 07643 12700 22510 10120 20070 30127 40137 51017 60006 81530 92100=
07643,1997-05-09 00:00:00,11,1013.5,-0.2,71,6,500,14.816,,,250,,,,,,,,,,,wg-a,,,,AAXX 09004 07643 12700 32508 10110 20060 30125 40135 55002 60006 81530 90000=
07643,1997-05-09 03:00:00,11,1013.1,-0.4,76,7,500,14.816,,,240,,,,,,,,,,,wg-a,,,,AAXX 09034 07643 12/00 32408 10110 20070 30121 40131 58004 60006 81031 90300=
07643,1997-05-09 06:00:00,12,1013.8,0.7,67,6,35000,14.816,,,230,10.6,15.2,,,,,,,,,wg-a,,,,AAXX 09064 07643 02781 72308 10120 20060 30128 40138 53007 60006 875// 90600 333 10152 20106 60004=
07643,1997-05-09 12:00:00,17,1014.2,-0.1,77,13,10000,29.632,,,150,,,,,,,,,,,wg-a,,,,AAXX 09124 07643 12/60 /1516 10170 20130 30133 40142 58001 60006 91200=
07643,1997-05-09 15:00:00,19,1014.2,0,52,9,35000,22.224,,,160,,,,,,,,,,,wg-a,,,,AAXX 09154 07643 12781 41612 10190 20090 30133 40142 50000 60006 83502 91500=
07643,1997-05-09 18:00:00,15,1015.1,0.8,82,12,10000,14.816,,,220,11.9,19,,,,,,,,,wg-a,,,,AAXX 09184 07643 12/60 /2208 10150 20120 30141 40151 53008 60006 91800 333 10190 20119=
07643,1997-05-09 21:00:00,14,1016.7,1.6,88,12,35000,7.408,,,210,,,,,,,,,,,wg-a,,,,AAXX 09214 07643 12781 52104 10140 20120 30157 40167 51016 60006 85500 92100=
07643,1997-05-10 00:00:00,12,1017.4,0.7,94,11,0,3.704,,,270,,,,,,,,,,,wg-a,,,,AAXX 10004 07643 12/// /2702 10120 20110 30164 40174 51007 60006 90000=
07643,1997-05-10 03:00:00,9,1017.3,-0.1,87,7,20000,11.112,,,20,,,,,,,,,,,wg-a,,,,AAXX 10034 07643 12/70 00206 10090 20070 30163 40173 56001 60006 80000 90300=
07643,1997-05-10 06:00:00,10,1017.9,0.6,93,9,9000,11.112,,,350,8.4,15.3,,,,,,,,,wg-a,,,,AAXX 10064 07643 02/59 33506 10100 20090 30169 40179 53006 60006 82032 90600 333 10153 20084 60004=
07643,1997-05-10 09:00:00,18,1018.3,0.4,64,11,12000,11.112,,,70,,,,,,,,,,,wg-a,,,,AAXX 10094 07643 12562 30706 10180 20110 30173 40183 52004 60006 81102 90900=
07643,1997-05-10 12:00:00,18,1017.5,-0.7,68,12,40000,22.224,,,120,,,,,,,,,,,wg-a,,,,AAXX 10124 07643 12/82 61212 10180 20120 30166 40175 58007 60006 80002 91200=
07643,1997-05-10 15:00:00,17,1016.6,-1,82,14,40000,25.928,,,140,,,,,,,,,,,wg-a,,,,AAXX 10154 07643 12482 71414 10170 20140 30156 40166 56010 60006 82102 91500=
07643,1997-05-10 18:00:00,16,1016.2,-0.4,88,14,15000,22.224,,,110,10.4,19.2,,,,,,,,,wg-a,,,,AAXX 10184 07643 12365 71112 10160 20140 30152 40162 58004 60006 82602 91800 333 10192 20104=
07643,1997-05-11 00:00:00,15,1017.5,0.2,88,13,15000,31.484,,,110,,,,,,,,,,,wg-a,,,,AAXX 11004 07643 12365 71117 10150 20130 30165 40175 51002 60006 82602 90000=
07643,1997-05-11 03:00:00,13,1016.4,-1.1,88,11,15000,11.112,,,10,,,,,,,,,,,wg-a,,,,AAXX 11034 07643 12465 50106 10130 20110 30154 40164 57011 60006 82602 90300=
07643,1997-05-11 06:00:00,13,1016.2,-0.2,88,11,25000,7.408,,,360,10.8,15.8,,,,,,,,,wg-a,,,,AAXX 11064 07643 02/75 63604 10130 20110 30152 40162 56002 60006 83032 90600 333 10158 20108 60004=
07643,1997-05-11 09:00:00,17,1016.2,0,68,11,25000,3.704,,,120,,,,,,,,,,,wg-a,,,,AAXX 11094 07643 12775 71202 10170 20110 30152 40162 50000 60006 81532 90900=
07643,1997-05-11 12:00:00,17,1017,0.9,77,13,20000,35.188,,,120,,,,,,,,,,,wg-a,,,,AAXX 11124 07643 12770 81219 10170 20130 30161 40170 51009 60006 8253/ 91200=
07643,1997-05-11 18:00:00,16,1017.5,0.1,77,12,20000,25.928,,,130,12.9,17.4,,,,,,,,,wg-a,,,,AAXX 11184 07643 12670 71314 10160 20120 30165 40175 51001 60006 875// 91800 333 10174 20129=
07643,1997-05-11 21:00:00,15,1019.7,2.2,82,12,15000,11.112,,,160,,,,,,,,,,,wg-a,,,,AAXX 11214 07643 12665 81606 10150 20120 30187 40197 51022 60006 885// 92100=
07643,1997-05-12 00:00:00,16,1019.3,-0.4,77,12,15000,11.112,,,100,,,,,,,,,,,wg-a,,,,AAXX 12004 07643 12665 81006 10160 20120 30183 40193 58004 60006 885// 90000=
07643,1997-05-12 06:00:00,15,1020.7,1.4,88,13,9000,7.408,,,30,14.4,15.8,,,,,,,,50,wg-a,,,,AAXX 12064 07643 02359 80304 10150 20130 30197 40207 53014 61000 75052 885// 90600 333 10158 20144 6000=
07643,1997-05-12 09:00:00,14,1021.9,1.2,94,13,12000,25.928,,,10,,,,1,,,,,,2,wg-a,,,,AAXX 12094 07643 12462 80114 10140 20130 30209 40219 51012 60017 70265 878// 90900=
07643,1997-05-12 12:00:00,17,1022.2,0.3,77,13,20000,18.52,,,360,,,,,,,,,,2,wg-a,,,,AAXX 12124 07643 12470 83610 10170 20130 30212 40222 51003 60016 70265 878// 91200=
07643,1997-05-12 15:00:00,16,1022.2,-0,82,13,15000,14.816,,,170,,,,,,,,,,,wg-a,,,,AAXX 12154 07643 12565 81708 10160 20130 30212 40222 55000 60006 878// 91500=
07643,1997-05-12 18:00:00,15,1022.1,-0.1,94,14,11000,7.408,,,170,13.4,17.4,,,,,,,,,wg-a,,,,AAXX 12184 07643 12/61 /1704 10150 20140 30211 40221 55001 60006 91800 333 10174 20134=
07643,1997-05-12 21:00:00,15,1023.3,1.2,94,14,10000,3.704,,,220,,,,,,,,,,,wg-a,,,,AAXX 12214 07643 12360 82202 10150 20140 30223 40233 53012 60006 875// 92100=
07643,1997-05-13 00:00:00,15,1022.6,-0.7,94,14,10000,7.408,,,280,,,,,,,,,,,wg-a,,,,AAXX 13004 07643 12460 82804 10150 20140 30216 40226 56007 60006 875// 90000=
07643,1997-05-13 03:00:00,14,1021.2,-1.4,94,13,10000,11.112,,,20,,,,,,,,,,,wg-a,,,,AAXX 13034 07643 12460 80206 10140 20130 30202 40212 57014 60006 875// 90300=
07643,1997-05-13 06:00:00,14,1021.8,0.6,100,14,8000,11.112,,,340,13.6,15.1,,,,,,,,21,wg-a,,,,AAXX 13064 07643 02758 73406 10140 20140 30208 40218 53006 61000 72162 8657/ 90600 333 10151 20136 6001=
07643,1997-05-13 09:00:00,17,1021.9,0.1,88,15,10000,14.816,,,10,,,,0,,,,,,2,wg-a,,,,AAXX 13094 07643 12760 70108 10170 20150 30209 40219 53001 60007 70262 8457/ 90900=
07643,1997-05-13 12:00:00,20,1020.8,-1,73,15,15000,11.112,,,30,,,,,,,,,,21,wg-a,,,,AAXX 13124 07643 02465 70306 10200 20150 30199 40208 58010 60016 72162 8387/ 91200 333 61000=
07643,1997-05-13 15:00:00,23,1018.9,-1.9,53,13,20000,3.704,,,320,,,,,,,,,,,wg-a,,,,AAXX 13154 07643 12670 /3202 10230 20130 30180 40189 58019 60006 8283/ 91500=
07643,1997-05-13 18:00:00,20,1017.7,-1.2,60,12,25000,7.408,,,190,14.2,23.7,,,,,,,,,wg-a,,,,AAXX 13184 07643 12/75 71904 10200 20120 30168 40177 56012 60006 83082 91800 333 10237 20142=
07643,1997-05-13 21:00:00,17,1018.5,0.7,72,12,25000,7.408,,,320,,,,,,,,,,,wg-a,,,,AAXX 13214 07643 12/75 53204 10170 20120 30175 40185 53007 60006 81082 92100=
07643,1997-05-14 00:00:00,15,1019,0.5,82,12,13000,3.704,,,320,,,,,,,,,,,wg-a,,,,AAXX 14004 07643 12/63 53202 10150 20120 30180 40190 50005 60006 80002 90000=
07643,1997-05-14 03:00:00,13,1017.9,-1.1,94,12,15000,3.704,,,350,,,,,,,,,,,wg-a,,,,AAXX 14034 07643 12/65 53502 10130 20120 30169 40179 56011 60006 80002 90300=
07643,1997-05-14 06:00:00,14,1018.6,0.7,88,12,500,7.408,,,330,12.4,20,,,,,,,,,wg-a,,,,AAXX 14064 07643 02700 73304 10140 20120 30176 40186 53007 60006 83572 90600 333 10200 20124 60004=
07643,1997-05-14 09:00:00,20,1018.7,0.2,64,13,500,11.112,,,60,,,,,,,,,,1,wg-a,,,,AAXX 14094 07643 02700 60606 10200 20130 30178 40187 53002 61000 70186 82582 90900 333 ////=
07643,1997-05-14 12:00:00,21,1018.4,-0.3,53,11,500,11.112,,,130,,,,,,,,,,2,wg-a,,,,AAXX 14124 07643 02700 21306 10210 20110 30175 40184 58003 61000 70286 81101 91200 333 ////=
07643,1997-05-14 15:00:00,23,1017.1,-1.3,44,10,500,14.816,,,160,,,,,,,,,,,wg-a,,,,AAXX 14154 07643 12/00 61608 10230 20100 30162 40171 56013 60006 85081 91500=
07643,1997-05-14 18:00:00,21,1016.9,-0.2,56,12,10000,7.408,,,110,14.2,23.4,,,,,,,,,wg-a,,,,AAXX 14184 07643 12/60 /1104 10210 20120 30160 40169 55002 60006 91800 333 10234 20142=
07643,1997-05-14 21:00:00,17,1017.6,0.6,72,12,18000,0,,,0,,,,,,,,,,,wg-a,,,,AAXX 14214 07643 12/68 60000 10170 20120 30166 40176 53006 60006 85051 92100=
07643,1997-05-15 00:00:00,15,1016.6,-1,72,10,10000,11.112,,,340,,,,,,,,,,,wg-a,,,,AAXX 15004 07643 12/60 /3406 10150 20100 30156 40166 58010 60006 90000=
07643,1997-05-15 03:00:00,14,1015.3,-1.3,72,9,15000,11.112,,,350,,,,,,,,,,,wg-a,,,,AAXX 15034 07643 12/65 53506 10140 20090 30143 40153 56013 60006 80004 90300=
07643,1997-05-15 06:00:00,16,1015.5,0.2,68,10,500,11.112,,,20,12.9,20.8,,,,,,,,,wg-a,,,,AAXX 15064 07643 02/00 70206 10160 20100 30145 40155 53002 60006 81084 90600 333 10208 20129 61000=
07643,1997-05-15 09:00:00,22,1015.4,0,57,13,20000,11.112,,,50,,,,,,,,,,,wg-a,,,,AAXX 15094 07643 12/70 70506 10220 20130 30145 40154 50000 60006 80008 90900=
07643,1997-05-15 12:00:00,24,1015.2,-0.2,38,9,20000,11.112,,,150,,,,,,,,,,,wg-a,,,,AAXX 15124 07643 12/70 71506 10240 20090 30143 40152 58002 60006 83082 91200=
07643,1997-05-15 15:00:00,26,1013.4,-1.8,34,9,20000,7.408,,,150,,,,,,,,,,,wg-a,,,,AAXX 15154 07643 12770 71504 10260 20090 30125 40134 58018 60006 81182 91500=
07643,1997-05-15 18:00:00,21,1013.7,0.3,56,12,20000,7.408,,,100,16,26.2,,,,,,,,,wg-a,,,,AAXX 15184 07643 12770 71004 10210 20120 30128 40137 53003 60006 81183 91800 333 10262 20160=
07643,1997-05-15 21:00:00,19,1014.3,0.6,73,14,18000,14.816,,,80,,,,,,,,,,,wg-a,,,,AAXX 15214 07643 12768 70808 10190 20140 30134 40143 51006 60006 81583 92100=
07643,1997-05-16 00:00:00,18,1015,0.7,77,14,15000,7.408,,,80,,,,,,,,,,,wg-a,,,,AAXX 16004 07643 12765 70804 10180 20140 30141 40150 51007 60006 8357/ 90000=
07643,1997-05-16 03:00:00,17,1014.8,-0.3,82,14,15000,7.408,,,20,,,,,,,,,,,wg-a,,,,AAXX 16034 07643 12665 70204 10170 20140 30138 40148 56003 60006 8357/ 90300=
07643,1997-05-16 06:00:00,17,1015.3,0.6,77,13,12000,11.112,,,20,16.5,20.9,,,,,,,,,wg-a,,,,AAXX 16064 07643 02762 70206 10170 20130 30144 40153 52006 60006 82581 90600 333 10209 20165 60004=
07643,1997-05-16 09:00:00,21,1015.8,0.5,60,13,15000,7.408,,,70,,,,,,,,,,60,wg-a,,,,AAXX 16094 07643 02765 70704 10210 20130 30149 40158 51005 61000 76062 8158/ 90900 333 ////=
07643,1997-05-16 12:00:00,20,1016.2,0.4,60,12,20000,11.112,,,140,,,,,,,,,,21,wg-a,,,,AAXX 16124 07643 02770 71406 10200 20120 30153 40162 50004 61000 72162 8158/ 91200 333 6100=
07643,1997-05-16 18:00:00,19,1014.9,-0.3,78,15,10000,3.704,,,170,17.1,21.5,,,,,,,,,wg-a,,,,AAXX 16184 07643 12/60 /1702 10190 20150 30140 40149 55003 60006 91800 333 10215 20171=
07643,1997-05-16 21:00:00,16,1015.7,0.7,94,15,20000,11.112,,,130,,,,,,,,,,,wg-a,,,,AAXX 16214 07643 12/70 21306 10160 20150 30147 40157 51007 60006 82030 92100=
07643,1997-05-17 00:00:00,15,1016,0.3,94,14,20000,7.408,,,10,,,,,,,,,,,wg-a,,,,AAXX 17004 07643 12/70 20104 10150 20140 30150 40160 51003 60006 82030 90000=
07643,1997-05-17 03:00:00,13,1015.7,-0.3,94,12,15000,7.408,,,350,,,,,,,,,,,wg-a,,,,AAXX 17034 07643 12/65 23504 10130 20120 30147 40157 55003 60006 80002 90300=
07643,1997-05-17 06:00:00,15,1015.9,0.2,94,14,7000,11.112,,,20,12.6,18.6,,,,,,,,,wg-a,,,,AAXX 17064 07643 02357 70206 10150 20140 30149 40159 52002 60006 877// 90600 333 10186 20126 60004=
07643,1997-05-17 09:00:00,18,1016.4,0.6,83,15,9000,18.52,,,140,,,,,,,,,,,wg-a,,,,AAXX 17094 07643 12459 71410 10180 20150 30155 40164 51006 60006 877// 90900=
07643,1997-05-17 12:00:00,17,1016,-0.4,94,16,500,25.928,,,130,,,,2,,,,,,61,wg-a,,,,AAXX 17124 07643 02400 71314 10170 20160 30151 40160 58004 60026 76162 877// 91200 333 60027=
07643,1997-05-17 15:00:00,17,1015.1,-0.9,100,17,3000,25.928,,,120,,,,4,,,,,,61,wg-a,,,,AAXX 17154 07643 12230 71214 10170 20170 30142 40151 56009 60047 76166 877// 91500=
07643,1997-05-17 18:00:00,17,1015.6,0.5,94,16,2000,22.224,,,140,14.7,17.8,,0,,,,,,10,wg-a,,,,AAXX 17184 07643 02120 81412 10170 20160 30147 40156 53005 60006 71062 887// 91800 333 10178 20147 60007=
07643,1997-05-18 00:00:00,17,1015.3,-1,94,16,7000,22.224,,,110,,,,,,,,,,,wg-a,,,,AAXX 18004 07643 12357 71112 10170 20160 30144 40153 58010 60006 877// 90000=
07643,1997-05-18 03:00:00,16,1014.8,-0.6,94,15,7000,11.112,,,120,,,,,,,,,,,wg-a,,,,AAXX 18034 07643 12457 71206 10160 20150 30138 40148 56006 60006 877// 90300=
07643,1997-05-18 06:00:00,16,1015.2,0.4,94,15,7000,3.704,,,300,14.5,16.7,,,,,6,,,,wg-a,,,,AAXX 18064 07643 02457 /3002 10160 20150 30142 40152 52004 60006 81630 90600 333 10167 20145 60064=
07643,1997-05-18 09:00:00,19,1015.8,0.7,68,13,20000,11.112,,,140,,,,,,,,,,,wg-a,,,,AAXX 18094 07643 12470 21406 10190 20130 30149 40158 50007 60006 82200 90900=
07643,1997-05-18 12:00:00,19,1015.9,0.1,68,13,11000,22.224,,,150,,,,,,,,,,,wg-a,,,,AAXX 18124 07643 12/61 /1512 10190 20130 30150 40159 50001 60006 91200=
07643,1997-05-18 18:00:00,18,1014.1,-1.2,88,16,10000,25.928,,,110,15.7,19.7,,,,,,,,,wg-a,,,,AAXX 18184 07643 12360 /1114 10180 20160 30132 40141 56012 60006 86600 91800 333 10197 20157=
07643,1997-05-18 21:00:00,17,1014.6,0.5,94,16,11000,22.224,,,100,,,,,,,,,,,wg-a,,,,AAXX 18214 07643 12/61 /1012 10170 20160 30137 40146 50005 60006 92100=
07643,1997-05-19 00:00:00,17,1014,-0.6,88,15,10000,18.52,,,110,,,,,,,,,,,wg-a,,,,AAXX 19004 07643 12460 71110 10170 20150 30131 40140 58006 60006 876// 90000=
07643,1997-05-19 03:00:00,17,1013,-1,88,15,10000,22.224,,,100,,,,,,,,,,,wg-a,,,,AAXX 19034 07643 12460 41012 10170 20150 30121 40130 56010 60006 84600 90300=
07643,1997-05-19 06:00:00,17,1012.9,-0.1,94,16,12000,31.484,,,110,16.6,17.7,,,,,,,,,wg-a,,,,AAXX 19064 07643 02362 71117 10170 20160 30120 40129 56001 60006 876// 90600 333 10177 20166 60004=
07643,1997-05-19 09:00:00,18,1014,1.1,88,16,15000,35.188,,,120,,,,,,,,,,,wg-a,,,,AAXX 19094 07643 12/65 /1219 10180 20160 30131 40140 50011 60006 90900=
07643,1997-05-19 12:00:00,19,1014,0,83,16,15000,35.188,,,120,,,,,,,,,,,wg-a,,,,AAXX 19124 07643 12465 71219 10190 20160 30131 40140 50000 60006 877// 91200=
07643,1997-05-19 15:00:00,19,1012.9,-1.1,83,16,12000,31.484,,,110,,,,,,,,,,,wg-a,,,,AAXX 19154 07643 12462 71117 10190 20160 30120 40129 58011 60006 877// 91500=
07643,1997-05-19 18:00:00,18,1012.1,-0.8,88,16,12000,25.928,,,110,17,19.9,,,,,,,,,wg-a,,,,AAXX 19184 07643 12462 71114 10180 20160 30112 40121 56008 60006 875// 91800 333 10199 20170=
07643,1997-05-19 21:00:00,17,1012.4,0.3,94,16,7000,22.224,,,100,,,,,,,,,,,wg-a,,,,AAXX 19214 07643 12357 71012 10170 20160 30115 40124 53003 60006 875// 92100=
07643,1997-05-20 00:00:00,18,1011.2,-1.2,88,16,7000,29.632,,,100,,,,,,,,,,,wg-a,,,,AAXX 20004 07643 12357 71016 10180 20160 30103 40112 58012 60006 875// 90000=
07643,1997-05-20 03:00:00,17,1010.1,-1.1,94,16,8000,22.224,,,110,,,,,,,,,,,wg-a,,,,AAXX 20034 07643 12258 71112 10170 20160 30092 40101 56011 60006 875// 90300=
07643,1997-05-20 06:00:00,17,1010.8,0.7,94,16,6000,11.112,,,90,17,18.1,,,,,,,,,wg-a,,,,AAXX 20064 07643 02356 80906 10170 20160 30099 40108 52007 60006 887// 90600 333 10181 20170 60004=
07643,1997-05-20 09:00:00,19,1011.6,0.8,83,16,10000,14.816,,,330,,,,,,,,,,20,wg-a,,,,AAXX 20094 07643 02460 73308 10190 20160 30107 40116 51008 61000 72052 877// 90900 333 ////=
07643,1997-05-20 12:00:00,22,1011.2,-0.4,65,15,15000,11.112,,,20,,,,,,,,,,1,wg-a,,,,AAXX 20124 07643 02565 70206 10220 20150 30103 40112 58004 61000 70152 878// 91200 333 ////=
07643,1997-05-20 15:00:00,21,1011.1,-0.1,73,16,45000,22.224,,,170,,,,,,,,,,,wg-a,,,,AAXX 20154 07643 12783 /1712 10210 20160 30102 40111 56001 60006 85281 91500=
07643,1997-05-20 18:00:00,23,1011.8,0.7,38,8,45000,25.928,,,300,16.7,23.7,,,,,,,,3,wg-a,,,,AAXX 20184 07643 02783 33014 10230 20080 30109 40118 53007 60006 70386 81901 91800 333 10237 20167 61000=
07643,1997-05-20 21:00:00,17,1013.7,1.9,59,9,500,11.112,,,240,,,,,,,,,,,wg-a,,,,AAXX 20214 07643 12700 52406 10170 20090 30128 40137 51019 60006 814/1 92100=
07643,1997-05-21 00:00:00,15,1014.3,0.5,67,9,10000,11.112,,,280,,,,,,,,,,,wg-a,,,,AAXX 21004 07643 12/60 /2806 10150 20090 30133 40143 53005 60006 90000=
07643,1997-05-21 03:00:00,12,1013.4,-0.9,88,10,500,7.408,,,310,,,,,,,,,,,wg-a,,,,AAXX 21034 07643 12/00 63104 10120 20100 30124 40134 58009 60006 82031 90300=
07643,1997-05-21 06:00:00,17,1014.3,0.9,59,9,50000,18.52,,,260,12.3,23.1,,,,,,,,,wg-a,,,,AAXX 21064 07643 02/84 62610 10170 20090 30133 40143 51009 60006 82041 90600 333 10231 20123 61000=
07643,1997-05-21 09:00:00,21,1014.5,0.3,43,8,50000,25.928,,,270,,,,,,,,,,,wg-a,,,,AAXX 21094 07643 12784 62714 10210 20080 30136 40145 50003 60006 84541 90900=
07643,1997-05-21 12:00:00,23,1014,-0.5,41,9,25000,29.632,,,290,,,,,,,,,,,wg-a,,,,AAXX 21124 07643 12775 52916 10230 20090 30131 40140 58005 60006 83841 91200=
07643,1997-05-21 15:00:00,25,1012.5,-1.5,32,7,500,25.928,,,280,,,,,,,,,,,wg-a,,,,AAXX 21154 07643 12700 32814 10250 20070 30116 40125 56015 60006 83140 91500=
07643,1997-05-21 18:00:00,22,1013.7,1.2,41,8,10000,29.632,,,280,16.5,24.9,,,,,,,,,wg-a,,,,AAXX 21184 07643 12/60 /2816 10220 20080 30128 40137 53012 60006 91800 333 10249 20165=
07643,1997-05-21 21:00:00,17,1015.3,1.5,59,9,10000,18.52,,,250,,,,,,,,,,,wg-a,,,,AAXX 21214 07643 12/60 /2510 10170 20090 40153 53015 60006 92100=
07643,1997-05-22 06:00:00,16,1016,0.9,59,8,50000,11.112,,,340,12.5,21.8,,,,,,,,,wg-a,,,,AAXX 22064 07643 02/84 13406 10160 20080 30150 40160 53009 60006 81031 90600 333 10218 20125 60004=
07643,1997-05-22 09:00:00,21,1015.6,-0.3,38,6,50000,14.816,,,310,,,,,,,,,,,wg-a,,,,AAXX 22094 07643 12684 33108 10210 20060 30147 40156 58003 60006 81101 90900=
07643,1997-05-22 12:00:00,25,1014.8,-0.8,28,5,50000,7.408,,,320,,,,,,,,,,,wg-a,,,,AAXX 22124 07643 12784 43204 10250 20050 30139 40148 58008 60006 83101 91200=
07643,1997-05-22 15:00:00,24,1013.3,-1.5,41,10,50000,18.52,,,110,,,,,,,,,,,wg-a,,,,AAXX 22154 07643 12784 31110 10240 20100 30124 40133 56015 60006 82101 91500=
07643,1997-05-22 18:00:00,24,1012.9,-0.4,31,6,75000,14.816,,,270,16.1,26.1,,,,,,,,,wg-a,,,,AAXX 22184 07643 12789 52708 10240 20060 30120 40129 55004 60006 814/2 91800 333 10261 20161=
07643,1997-05-22 21:00:00,18,1014.5,1.6,49,7,18000,0,,,0,,,,,,,,,,,wg-a,,,,AAXX 22214 07643 12/68 30000 10180 20070 30136 40145 53016 60006 80001 92100=
07643,1997-05-23 00:00:00,16,1015,0.4,63,9,18000,14.816,,,350,,,,,,,,,,,wg-a,,,,AAXX 23004 07643 12/68 33508 10160 20090 30140 40150 52004 60006 80001 90000=
07643,1997-05-23 03:00:00,14,1014.4,-0.6,72,9,18000,7.408,,,300,,,,,,,,,,,wg-a,,,,AAXX 23034 07643 12/68 53004 10140 20090 30134 40144 58006 60006 80004 90300=
07643,1997-05-23 06:00:00,14,1014.9,0.5,77,10,75000,7.408,,,30,12.6,24,,,,,,,,,wg-a,,,,AAXX 23064 07643 02/89 70304 10140 20100 30139 40149 53005 60006 81082 90600 333 10240 20126 60004=
07643,1997-05-23 09:00:00,21,1015.3,0.5,53,11,25000,11.112,,,90,,,,,,,,,,,wg-a,,,,AAXX 23094 07643 12/75 70906 10210 20110 30144 40153 53005 60006 83032 90900=
07643,1997-05-23 12:00:00,20,1015.4,0.1,73,15,25000,18.52,,,140,,,,,,,,,,,wg-a,,,,AAXX 23124 07643 12/75 71410 10200 20150 30145 40154 51001 60006 81032 91200=
07643,1997-05-23 15:00:00,20,1015.3,-0.1,78,16,20000,25.928,,,130,,,,,,,,,,,wg-a,,,,AAXX 23154 07643 12570 /1314 10200 20160 30144 40153 58001 60006 81202 91500=
07643,1997-05-23 18:00:00,18,1015.3,-0,94,17,10000,18.52,,,130,14.2,21.6,,,,,,,,,wg-a,,,,AAXX 23184 07643 12260 71310 10180 20170 30144 40153 55000 60006 85202 91800 333 10216 20142=
07643,1997-05-24 00:00:00,18,1016.1,-0.1,88,16,0,11.112,,,100,,,,,,,,,,,wg-a,,,,AAXX 24004 07643 12/// /1006 10180 20160 30152 40161 58001 60006 90000=
07643,1997-05-24 03:00:00,16,1015.6,-0.6,94,15,10000,11.112,,,30,,,,,,,,,,,wg-a,,,,AAXX 24034 07643 12360 40306 10160 20150 30146 40156 56006 60006 84700 90300=
07643,1997-05-24 06:00:00,16,1016.7,1.1,94,15,8000,11.112,,,20,15.5,18.2,,,,,,,,,wg-a,,,,AAXX 24064 07643 02/58 /0206 10160 20150 30157 40167 53011 60006 82032 90600 333 10182 20155 60004=
07643,1997-05-24 09:00:00,20,1016.9,0.3,68,14,12000,18.52,,,100,,,,,,,,,,,wg-a,,,,AAXX 24094 07643 12462 71010 10200 20140 30160 40169 50003 60006 81132 90900=
07643,1997-05-24 12:00:00,20,1017.8,0.9,56,11,500,18.52,,,130,,,,,,,,,,,wg-a,,,,AAXX 24124 07643 12600 71310 10200 20110 30169 40178 51009 60006 81182 91200=
07643,1997-05-24 15:00:00,21,1017.5,-0.3,56,12,500,14.816,,,120,,,,,,,,,,,wg-a,,,,AAXX 24154 07643 12/00 71208 10210 20120 30166 40175 57003 60006 83082 91500=
07643,1997-05-24 18:00:00,19,1017,-0.5,64,12,10000,3.704,,,100,16.4,21.4,,,,,,,,,wg-a,,,,AAXX 24184 07643 12/60 /1002 10190 20120 30161 40170 56005 60006 91800 333 10214 20164=
07643,1997-05-24 21:00:00,17,1018,0.9,72,12,500,7.408,,,130,,,,,,,,,,,wg-a,,,,AAXX 24214 07643 12/00 61304 10170 20120 30170 40180 53009 60006 8603/ 92100=
07643,1997-05-25 00:00:00,15,1017.6,-0.4,77,11,0,3.704,,,30,,,,,,,,,,,wg-a,,,,AAXX 25004 07643 12/// /0302 10150 20110 30166 40176 58004 60006 90000=
07643,1997-05-25 03:00:00,15,1017.8,0.2,77,11,500,7.408,,,350,,,,,,,,,,,wg-a,,,,AAXX 25034 07643 12/00 73504 10150 20110 30168 40178 51002 60006 83032 90300=
07643,1997-05-25 06:00:00,16,1018.7,0.9,77,12,25000,7.408,,,20,14.5,19.2,,,,,,,,,wg-a,,,,AAXX 25064 07643 02/75 70204 10160 20120 30177 40187 53009 60006 86032 90600 333 10192 20145 60004=
07643,1997-05-25 09:00:00,19,1019.4,0.8,64,12,25000,3.704,,,10,,,,,,,,,,,wg-a,,,,AAXX 25094 07643 12/75 70102 10190 20120 30185 40194 51008 60006 86072 90900=
07643,1997-05-25 12:00:00,22,1019.3,-0.1,57,13,500,7.408,,,150,,,,,,,,,,,wg-a,,,,AAXX 25124 07643 12/00 81504 10220 20130 30184 40193 58001 60006 85032 91200=
07643,1997-05-25 15:00:00,21,1019.1,-0.2,64,14,20000,3.704,,,270,,,,0,,,,,,60,wg-a,,,,AAXX 25154 07643 12770 82702 10210 20140 30182 40191 58002 60007 76086 81572 91500=
07643,1997-05-25 18:00:00,21,1018.9,-0.2,69,15,20000,3.704,,,10,15.8,22.5,,,,,,,,1,wg-a,,,,AAXX 25184 07643 02770 70102 10210 20150 30180 40189 55002 60006 70186 8357/ 91800 333 10225 20158 61000=
07643,1997-05-25 21:00:00,20,1019.5,0.6,73,15,10000,3.704,,,10,,,,,,,,,,,wg-a,,,,AAXX 25214 07643 12/60 /0102 10200 20150 30186 40195 53006 60006 92100=
07643,1997-05-26 00:00:00,18,1019.2,-0.3,73,13,20000,14.816,,,350,,,,,,,,,,,wg-a,,,,AAXX 26004 07643 12770 53508 10180 20130 30183 40192 58003 60006 81532 90000=
07643,1997-05-26 06:00:00,19,1018.9,0.4,73,14,35000,11.112,,,360,16.1,21.2,,,,,,,,,wg-a,,,,AAXX 26064 07643 02/81 03606 10190 20140 30180 40189 50004 60006 80000 90600 333 10212 20161 60004=
07643,1997-05-26 09:00:00,25,1019.3,0.4,54,15,25000,7.408,,,90,,,,,,,,,,,wg-a,,,,AAXX 26094 07643 12/75 00904 10250 20150 30184 40193 51004 60006 80000 90900=
07643,1997-05-26 12:00:00,27,1018.7,-0.6,48,15,20000,22.224,,,180,,,,,,,,,,,wg-a,,,,AAXX 26124 07643 12/70 01812 10270 20150 30178 40187 58006 60006 80000 91200=
07643,1997-05-26 15:00:00,25,1017.5,-1.2,50,14,15000,31.484,,,190,,,,,,,,,,,wg-a,,,,AAXX 26154 07643 12/65 01917 10250 20140 30166 40175 58012 60006 80000 91500=
07643,1997-05-26 18:00:00,23,1016.7,-0.8,65,16,20000,22.224,,,210,18.9,27.3,,,,,,,,,wg-a,,,,AAXX 26184 07643 12/70 02112 10230 20160 30158 40167 56008 60006 80000 91800 333 10273 20189=
07643,1997-05-26 21:00:00,19,1017.2,0.5,78,15,20000,7.408,,,240,,,,,,,,,,,wg-a,,,,AAXX 26214 07643 12/70 12404 10190 20150 30163 40172 53005 60006 80001 92100=
07643,1997-05-27 00:00:00,17,1017.3,0.1,88,15,20000,3.704,,,20,,,,,,,,,,,wg-a,,,,AAXX 27004 07643 12/70 10202 10170 20150 30164 40173 50001 60006 80001 90000=
07643,1997-05-27 03:00:00,16,1016.3,-1.1,88,14,20000,7.408,,,350,,,,,,,,,,,wg-a,,,,AAXX 27034 07643 12/70 13504 10160 20140 30153 40163 57011 60006 80001 90300=
07643,1997-05-27 06:00:00,18,1016,-0.2,83,15,20000,0,,,0,15.1,22.9,,,,,,,,,wg-a,,,,AAXX 27064 07643 02/70 00000 10180 20150 30151 40160 57002 60006 80000 90600 333 10229 20151 60004=
07643,1997-05-27 09:00:00,23,1016.1,0.1,53,13,25000,0,,,0,,,,,,,,,,,wg-a,,,,AAXX 27094 07643 12/75 0//// 10230 20130 30152 40161 50001 60006 80000 90900=
07643,1997-05-27 12:00:00,28,1015,-1.1,40,13,10000,18.52,,,220,,,,,,,,,,,wg-a,,,,AAXX 27124 07643 12/60 /2210 10280 20130 30141 40150 57011 60006 91200=
07643,1997-05-27 15:00:00,27,1013.2,-1.8,39,12,500,22.224,,,230,,,,,,,,,,,wg-a,,,,AAXX 27154 07643 12700 12312 10270 20120 30123 40132 56018 60006 81200 91500=
07643,1997-05-27 18:00:00,24,1012.5,-0.7,47,12,500,18.52,,,220,18.3,28.2,,,,,,,,,wg-a,,,,AAXX 27184 07643 12/00 02210 10240 20120 30116 40125 55007 60006 80000 91800 333 10282 20183=
07643,1997-05-28 00:00:00,17,1013.9,-0,82,14,25000,3.704,,,310,,,,,,,,,,,wg-a,,,,AAXX 28004 07643 12/75 03102 10170 20140 30130 40139 54000 60006 80000 90000=
07643,1997-05-28 03:00:00,18,1013.4,-0.5,59,10,25000,7.408,,,360,,,,,,,,,,,wg-a,,,,AAXX 28034 07643 12/75 03604 10180 20100 30125 40134 58005 60006 80000 90300=
07643,1997-05-28 06:00:00,21,1013.4,-0,53,11,35000,14.816,,,10,17.2,24,,,,,,,,,wg-a,,,,AAXX 28064 07643 02/81 00108 10210 20110 30125 40134 54000 60006 80000 90600 333 10240 20172 60004=
07643,1997-05-28 09:00:00,27,1012.9,-0.5,30,8,35000,29.632,,,30,,,,,,,,,,,wg-a,,,,AAXX 28094 07643 12/81 10316 10270 20080 30120 40129 58005 60006 80001 90900=
07643,1997-05-28 12:00:00,31,1011.8,-1.1,16,2,40000,29.632,,,30,,,,,,,,,,,wg-a,,,,AAXX 28124 07643 12/82 10316 10310 20020 30109 40118 57011 60006 80001 91200=
07643,1997-05-28 18:00:00,30,1011.1,0.9,24,7,35000,18.52,,,20,21.4,33.3,,,,,,,,,wg-a,,,,AAXX 28184 07643 12/81 40210 10300 20070 30102 40111 53009 60006 80003 91800 333 10333 20214=
07643,1997-05-28 21:00:00,23,1013.8,2.7,31,5,500,22.224,,,30,,,,,,,,,,,wg-a,,,,AAXX 28214 07643 12/00 30312 10230 20050 30129 40138 53027 60006 80003 92100=
07643,1997-05-29 00:00:00,21,1016.1,2.3,33,4,500,31.484,,,30,,,,,,,,,,,wg-a,,,,AAXX 29004 07643 12/00 20317 10210 20040 30152 40161 51023 60006 80003 90000=
07643,1997-05-29 03:00:00,18,1018,1.8,42,5,500,14.816,,,30,,,,,,,,,,,wg-a,,,,AAXX 29034 07643 12/00 40308 10180 20050 30170 40180 53018 60006 80003 90300=
07643,1997-05-29 06:00:00,19,1019.6,1.6,43,6,10000,18.52,,,20,16.9,29.4,,,,,,,,,wg-a,,,,AAXX 29064 07643 02/60 /0210 10190 20060 30186 40196 53016 60006 90600 333 10294 20169 60004=
07643,1997-05-29 09:00:00,24,1021,1.5,38,9,20000,7.408,,,90,,,,,,,,,,,wg-a,,,,AAXX 29094 07643 12/70 10904 10240 20090 30201 40210 51015 60006 80001 90900=
07643,1997-05-29 12:00:00,24,1021.8,0.8,41,10,500,14.816,,,180,,,,,,,,,,,wg-a,,,,AAXX 29124 07643 12/00 11808 10240 20100 30209 40218 51008 60006 80001 91200=
07643,1997-05-29 15:00:00,24,1021.1,-0.7,44,11,500,18.52,,,200,,,,,,,,,,,wg-a,,,,AAXX 29154 07643 12/00 12010 10240 20110 30202 40211 58007 60006 80001 91500=
07643,1997-05-29 18:00:00,22,1021.2,0.1,50,11,500,14.816,,,230,18.7,25.3,,,,,,,,,wg-a,,,,AAXX 29184 07643 12/00 22308 10220 20110 30203 40212 53001 60006 80001 91800 333 10253 20187=
07643,1997-05-29 21:00:00,18,1021.7,0.4,59,10,25000,3.704,,,340,,,,,,,,,,,wg-a,,,,AAXX 29214 07643 12/75 13402 10180 20100 30207 40217 53004 60006 80001 92100=
07643,1997-05-30 00:00:00,15,1021.8,0.1,72,10,25000,3.704,,,320,,,,,,,,,,,wg-a,,,,AAXX 30004 07643 12/75 13202 10150 20100 30208 40218 50001 60006 80001 90000=
07643,1997-05-30 03:00:00,13,1021.1,-0.7,77,9,25000,0,,,0,,,,,,,,,,,wg-a,,,,AAXX 30034 07643 12/75 10000 10130 20090 30201 40211 55007 60006 80001 90300=
07643,1997-05-30 06:00:00,17,1020.9,-0.2,63,10,25000,3.704,,,10,13,21.6,,,,,,,,,wg-a,,,,AAXX 30064 07643 02/75 30102 10170 20100 30199 40209 56002 60006 80001 90600 333 10216 20130 60004=
07643,1997-05-30 09:00:00,24,1019.7,-1.1,50,13,25000,11.112,,,170,,,,,,,,,,,wg-a,,,,AAXX 30094 07643 12/75 51706 10240 20130 30188 40197 57011 60006 80001 90900=
07643,1997-05-30 12:00:00,25,1017.6,-2.1,39,10,500,22.224,,,200,,,,,,,,,,,wg-a,,,,AAXX 30124 07643 12/00 62012 10250 20100 30167 40176 58021 60006 80001 91200=
07643,1997-05-30 15:00:00,25,1015.3,-2.3,41,11,500,29.632,,,220,,,,,,,,,,,wg-a,,,,AAXX 30154 07643 12/00 52216 10250 20110 30144 40153 56023 60006 80002 91500=
07643,1997-05-30 18:00:00,23,1014.2,-1.1,53,13,500,14.816,,,220,17.3,26.8,,,,,,,,,wg-a,,,,AAXX 30184 07643 12/00 22208 10230 20130 30133 40142 56011 60006 81081 91800 333 10268 20173=
07643,1997-05-30 21:00:00,19,1015,0.8,52,9,18000,3.704,,,250,,,,,,,,,,,wg-a,,,,AAXX 30214 07643 12/68 32502 10190 20090 30141 40150 51008 60006 80002 92100=
07643,1997-05-31 00:00:00,18,1014.6,-0.4,59,10,10000,3.704,,,110,,,,,,,,,,,wg-a,,,,AAXX 31004 07643 12/60 /1102 10180 20100 30137 40146 58004 60006 90000=
07643,1997-05-31 03:00:00,15,1014.3,-0.4,82,12,18000,7.408,,,10,,,,,,,,,,,wg-a,,,,AAXX 31034 07643 12/68 70104 10150 20120 30133 40143 58004 60006 80004 90300=
07643,1997-05-31 06:00:00,17,1014.1,-0.1,72,12,25000,7.408,,,30,14.3,23.7,,,,,,,,,wg-a,,,,AAXX 31064 07643 02/75 50304 10170 20120 30132 40141 55001 60006 82039 90600 333 10237 20143 60004=
07643,1997-05-31 09:00:00,22,1013.9,-0.2,57,13,25000,11.112,,,140,,,,,,,,,,,wg-a,,,,AAXX 31094 07643 12475 51406 10220 20130 30130 40139 58002 60006 81682 90900=
07643,1997-05-31 12:00:00,23,1012.8,-1.1,47,11,500,18.52,,,160,,,,,,,,,,,wg-a,,,,AAXX 31124 07643 12/00 31610 10230 20110 30119 40128 58011 60006 83082 91200=
07643,1997-05-31 15:00:00,21,1011.7,-1.1,56,12,25000,18.52,,,160,,,,,,,,,,,wg-a,,,,AAXX 31154 07643 12/75 61610 10210 20120 30108 40117 58011 60006 83012 91500=
07643,1997-05-31 18:00:00,20,1011.1,-0.6,60,12,500,11.112,,,170,16.8,23.5,,,,,,,,,wg-a,,,,AAXX 31184 07643 12/00 71706 10200 20120 30102 40111 56006 60006 85072 91800 333 10235 20168=
07643,1997-06-01 00:00:00,19,1009.8,-1.5,83,16,500,11.112,,,130,,,,,,,,,,3,wg-a,,,,AAXX 01004 07643 02400 71306 10190 20160 30089 40098 56015 61000 70362 82232 90000 333 6100=
07643,1997-06-01 03:00:00,18,1007.5,-2.3,83,15,20000,11.112,,,50,,,,,,,,,,,wg-a,,,,AAXX 01034 07643 12470 70506 10180 20150 30066 40075 58023 60006 8523/ 90300=
07643,1997-06-01 06:00:00,18,1005.7,-1.8,94,17,6000,31.484,,,130,16.7,20.1,,,,,,,,81,wg-a,,,,AAXX 01064 07643 02456 71317 10180 20170 30048 40057 58018 61000 78186 862// 90600 333 10201 20167 6004=
07643,1997-06-01 09:00:00,16,1006.1,0.4,88,14,9000,42.596,,,120,,,,9,,,,,,60,wg-a,,,,AAXX 01094 07643 12359 71223 10160 20140 30052 40061 53004 60097 76098 8687/ 90900=
07643,1997-06-01 12:00:00,18,1004.6,-1.5,77,14,15000,22.224,,,90,,,,1,,,,,,3,wg-a,,,,AAXX 01124 07643 02465 70912 10180 20140 30037 40046 56015 60106 70398 8587/ 91200 333 60017=
07643,1997-06-01 15:00:00,16,1004.7,0.1,94,15,4500,22.224,,,100,,,,6,,,,,,61,wg-a,,,,AAXX 01154 07643 12245 81012 10160 20150 30038 40047 52001 60067 76162 8687/ 91500=
07643,1997-06-01 18:00:00,16,1004.8,0.1,100,16,2000,35.188,,,120,15.4,18.3,,,,,,,,63,wg-a,,,,AAXX 01184 07643 02220 81219 10160 20160 30039 40048 53001 61000 76362 888// 91800 333 10183 20154 6009=
07643,1997-06-01 21:00:00,16,1005.9,1.1,94,15,4000,50.004,,,130,,,,3,,,,,,61,wg-a,,,,AAXX 01214 07643 12240 81327 10160 20150 30050 40059 53011 60037 76162 878// 92100=
07643,1997-06-02 00:00:00,16,1006.6,0.7,94,15,0,46.3,,,130,,,,,,,,,,,wg-a,,,,AAXX 02004 07643 12/// /1325 10160 20150 30057 40066 51007 60086 90000=
07643,1997-06-02 06:00:00,14,1009.6,2,94,13,2000,14.816,,,40,13.5,17.1,,,,,,,,63,wg-a,,,,AAXX 02064 07643 02220 80408 10140 20130 30086 40096 53020 61000 76386 887// 90600 333 10171 20135 6051=
07643,1997-06-02 09:00:00,14,1011.8,2.2,100,14,3500,14.816,,,40,,,,,,,,,,,wg-a,,,,AAXX 02094 07643 32/35 /0408 10140 20140 30108 40118 51022 90900=
07643,1997-06-02 12:00:00,15,1013.7,1.9,100,15,6000,11.112,,,30,,,,5,,,,,,60,wg-a,,,,AAXX 02124 07643 02256 80306 10150 20150 30127 40137 51019 60236 76062 887// 91200 333 60057=
07643,1997-06-02 18:00:00,17,1014.8,0.5,94,16,12000,11.112,,,160,13.4,17.3,,,,,,,,3,wg-a,,,,AAXX 02184 07643 12462 81606 10170 20160 30139 40148 53005 60006 70362 878// 91800 333 10173 20134=
07643,1997-06-02 21:00:00,16,1015.7,0.8,100,16,11000,7.408,,,160,,,,,,,,,,,wg-a,,,,AAXX 02214 07643 12/61 /1604 10160 20160 30147 40157 53008 60006 92100=
07643,1997-06-03 00:00:00,15,1015.3,-0.4,100,15,10000,7.408,,,60,,,,,,,,,,,wg-a,,,,AAXX 03004 07643 12460 60604 10150 20150 30143 40153 58004 60006 86700 90000=
07643,1997-06-03 03:00:00,15,1015.3,0,100,15,10000,3.704,,,10,,,,,,,,,,,wg-a,,,,AAXX 03034 07643 12360 80102 10150 20150 30143 40153 50000 60006 877// 90300=
07643,1997-06-03 06:00:00,15,1015.8,0.5,100,15,6000,7.408,,,20,14.7,17.3,,,,,26,,,,wg-a,,,,AAXX 03064 07643 02356 80204 10150 20150 30148 40158 53005 60006 875// 90600 333 10173 20147 60264=
07643,1997-06-03 09:00:00,18,1016.6,0.9,88,16,9000,7.408,,,30,,,,,,,,,,,wg-a,,,,AAXX 03094 07643 12/59 /0304 10180 20160 30157 40166 53009 60006 90900=
07643,1997-06-03 12:00:00,21,1016.7,0.1,73,16,15000,14.816,,,160,,,,,,,,,,,wg-a,,,,AAXX 03124 07643 12565 /1608 10210 20160 30158 40167 50001 60006 85802 91200=
07643,1997-06-03 15:00:00,22,1015.8,-0.9,73,17,15000,11.112,,,180,,,,1,,,,,,25,wg-a,,,,AAXX 03154 07643 12565 41806 10220 20170 30149 40158 58009 60017 72586 82202 91500=
07643,1997-06-03 18:00:00,20,1014.9,-0.9,83,17,18000,18.52,,,200,15.2,22.4,,,,,,,,3,wg-a,,,,AAXX 03184 07643 12/68 52010 10200 20170 30140 40149 56009 60006 70386 80004 91800 333 10224 20152=
07643,1997-06-03 21:00:00,19,1015.8,0.9,94,18,10000,14.816,,,220,,,,,,,,,,,wg-a,,,,AAXX 03214 07643 12/60 72208 10190 20180 30149 40158 53009 60006 80004 92100=
07643,1997-06-04 00:00:00,17,1015.7,-0.1,94,16,10000,7.408,,,280,,,,,,,,,,,wg-a,,,,AAXX 04004 07643 12760 72804 10170 20160 30148 40157 56001 60006 855/2 90000=
07643,1997-06-04 03:00:00,16,1014.5,-1.3,94,15,10000,3.704,,,20,,,,,,,,,,,wg-a,,,,AAXX 04034 07643 12/60 /0202 10160 20150 30135 40145 56013 60006 90300=
07643,1997-06-04 06:00:00,18,1014.8,0.4,88,16,12000,3.704,,,40,15,20,,,,,1,,,,wg-a,,,,AAXX 04064 07643 02/62 70402 10180 20160 30139 40148 53004 60006 81031 90600 333 10200 20150 60014=
07643,1997-06-04 09:00:00,20,1014.2,-0.6,88,18,6000,18.52,,,100,,,,,,,,,,,wg-a,,,,AAXX 04094 07643 12/56 71010 10200 20180 30133 40142 58006 60006 81031 90900=
07643,1997-06-04 12:00:00,20,1014.8,0.6,88,18,8000,18.52,,,160,,,,,,,,,,,wg-a,,,,AAXX 04124 07643 12358 81610 10200 20180 30139 40148 50006 60006 8677/ 91200=
07643,1997-06-04 15:00:00,20,1013.2,-1.6,83,17,10000,14.816,,,140,,,,,,,,,,1,wg-a,,,,AAXX 04154 07643 02360 81408 10200 20170 30123 40132 58016 61000 70162 82771 91500 333 ////=
07643,1997-06-04 18:00:00,19,1012.8,-0.4,94,18,500,18.52,,,180,18.1,20.5,,,,,,,,61,wg-a,,,,AAXX 04184 07643 02300 81810 10190 20180 30119 40128 55004 61000 76162 83770 91800 333 10205 20181 6100=
07643,1997-06-04 21:00:00,18,1012.5,-0.3,94,17,500,18.52,,,150,,,,2,,,,,,21,wg-a,,,,AAXX 04214 07643 12400 81510 10180 20170 30116 40125 58003 60027 72162 8252/ 92100=
07643,1997-06-05 00:00:00,18,1009.5,-3,100,18,500,25.928,,,90,,,,1,,,,,,60,wg-a,,,,AAXX 05004 07643 02400 80914 10180 20180 30086 40095 58030 60036 76062 8172/ 90000 333 60017=
07643,1997-06-05 03:00:00,17,1007.6,-1.9,100,17,500,7.408,,,10,,,,0,,,,,,60,wg-a,,,,AAXX 05034 07643 12400 80104 10170 20170 30067 40076 56019 60007 76062 8152/ 90300=
07643,1997-06-05 06:00:00,17,1005.4,-2.2,94,16,3000,14.816,,,30,16.5,18.6,,,,,,,,61,wg-a,,,,AAXX 05064 07643 02230 80308 10170 20160 30045 40054 58022 61000 76162 875// 90600 333 10186 20165 6004=
07643,1997-06-05 09:00:00,17,1004.8,-0.6,100,17,6000,29.632,,,110,,,,13,,,,,,,wg-a,,,,AAXX 05094 07643 12/56 /1116 10170 20170 30039 40048 55006 60137 90900=
07643,1997-06-05 12:00:00,18,1005.4,0.6,94,17,13000,11.112,,,50,,,,9,,,,,,61,wg-a,,,,AAXX 05124 07643 02363 80506 10180 20170 30045 40054 50006 60226 76166 885// 91200 333 60097=
07643,1997-06-05 18:00:00,19,1006.3,1.2,83,16,20000,7.408,,,80,16,18.7,,2,,,,,,1,wg-a,,,,AAXX 05184 07643 02470 60804 10190 20160 30054 40063 53012 60006 70162 8483/ 91800 333 10187 20160 60027=
07643,1997-06-06 00:00:00,16,1009,0.8,100,16,10000,11.112,,,10,,,,,,,,,,,wg-a,,,,AAXX 06004 07643 12/60 /0106 10160 20160 30081 40090 50008 60006 90000=
07643,1997-06-06 06:00:00,18,1011.1,1.6,94,17,8000,11.112,,,40,15.7,18.7,,,,,25,,,,wg-a,,,,AAXX 06064 07643 02558 70406 10180 20170 30102 40111 53016 60006 86501 90600 333 10187 20157 60254=
07643,1997-06-06 09:00:00,21,1013,1.9,83,18,9000,11.112,,,90,,,,,,,,,,,wg-a,,,,AAXX 06094 07643 12/59 /0906 10210 20180 30121 40130 51019 60006 90900=
07643,1997-06-06 12:00:00,23,1013.4,0.4,78,19,13000,14.816,,,150,,,,,,,,,,,wg-a,,,,AAXX 06124 07643 12563 51508 10230 20190 30125 40134 50004 60006 82204 91200=
07643,1997-06-06 15:00:00,22,1012.8,-0.6,83,19,13000,22.224,,,160,,,,,,,,,,,wg-a,,,,AAXX 06154 07643 12663 /1612 10220 20190 30119 40128 56006 60006 81202 91500=
07643,1997-06-06 18:00:00,20,1012.7,-0.1,94,19,13000,11.112,,,160,17.7,22.7,,,,,,,,,wg-a,,,,AAXX 06184 07643 12263 /1606 10200 20190 30118 40127 58001 60006 85600 91800 333 10227 20177=
07643,1997-06-07 00:00:00,18,1013.4,-0.3,94,17,10000,7.408,,,40,,,,,,,,,,,wg-a,,,,AAXX 07004 07643 12360 /0404 10180 20170 30125 40134 58003 60006 86600 90000=
07643,1997-06-07 03:00:00,18,1013.2,-0.2,100,18,10000,3.704,,,60,,,,,,,,,,,wg-a,,,,AAXX 07034 07643 12460 /0602 10180 20180 30123 40132 57002 60006 86600 90300=
07643,1997-06-07 12:00:00,22,1014.5,0.1,88,20,9000,29.632,,,140,,,,,,,,,,,wg-a,,,,AAXX 07124 07643 12359 71416 10220 20200 30136 40145 50001 60006 8473/ 91200=
07643,1997-06-07 15:00:00,21,1014.2,-0.3,88,19,9000,29.632,,,130,,,,,,,,,,,wg-a,,,,AAXX 07154 07643 12359 71316 10210 20190 30133 40142 56003 60006 8477/ 91500=
07643,1997-06-07 18:00:00,20,1013.3,-0.9,94,19,9000,29.632,,,140,19.3,22,,,,,,,,,wg-a,,,,AAXX 07184 07643 12359 71416 10200 20190 30124 40133 56009 60006 82672 91800 333 10220 20193=
07643,1997-06-07 21:00:00,20,1013.7,0.4,94,19,8000,25.928,,,140,,,,,,,,,,,wg-a,,,,AAXX 07214 07643 12/58 /1414 10200 20190 30128 40137 53004 60006 92100=
07643,1997-06-08 00:00:00,20,1015.1,1.4,94,19,8000,11.112,,,40,,,,,,,,,,,wg-a,,,,AAXX 08004 07643 12/58 /0406 10200 20190 30142 40151 53014 60006 90000=
07643,1997-06-08 03:00:00,19,1014.9,-0.2,94,18,6000,11.112,,,10,,,,,,,,,,,wg-a,,,,AAXX 08034 07643 12456 80106 10190 20180 30140 40149 55002 60006 885// 90300=
07643,1997-06-08 06:00:00,19,1016.3,1.4,94,18,12000,11.112,,,10,18.6,20.4,,,,,,,,,wg-a,,,,AAXX 08064 07643 02462 70106 10190 20180 30154 40163 53014 60006 875// 90600 333 10204 20186 60004=
07643,1997-06-08 12:00:00,25,1016.8,-0.4,65,18,25000,14.816,,,170,,,,,,,,,,,wg-a,,,,AAXX 08124 07643 12775 21708 10250 20180 30159 40168 57004 60006 81201 91200=
07643,1997-06-08 15:00:00,25,1016.9,0.1,69,19,25000,18.52,,,190,,,,,,,,,,,wg-a,,,,AAXX 08154 07643 12775 31910 10250 20190 30160 40169 52001 60006 81201 91500=
07643,1997-06-08 18:00:00,23,1017.9,1,73,18,11000,14.816,,,220,19.4,26,,,,,,,,,wg-a,,,,AAXX 08184 07643 12/61 52208 10230 20180 30170 40179 51010 60006 81031 91800 333 10260 20194=
07643,1997-06-09 00:00:00,19,1019.6,0.3,94,18,11000,7.408,,,20,,,,,,,,,,,wg-a,,,,AAXX 09004 07643 12/61 30204 10190 20180 30187 40196 52003 60006 80001 90000=
07643,1997-06-09 03:00:00,18,1019.5,-0.1,94,17,11000,0,,,0,,,,,,,,,,,wg-a,,,,AAXX 09034 07643 12/61 30000 10180 20170 30186 40195 57001 60006 80001 90300=
07643,1997-06-09 06:00:00,20,1020.5,1,83,17,75000,3.704,,,310,17.4,23.3,,,,,,,,,wg-a,,,,AAXX 09064 07643 02/89 63102 10200 20170 30196 40205 51010 60006 80002 90600 333 10233 20174 60004=
07643,1997-06-09 09:00:00,23,1021.6,1.1,78,19,40000,22.224,,,150,,,,,,,,,,,wg-a,,,,AAXX 09094 07643 12/82 31512 10230 20190 30207 40216 51011 60006 81084 90900=
07643,1997-06-09 12:00:00,22,1021.7,0.1,83,19,3500,14.816,,,160,,,,,,,,,,10,wg-a,,,,AAXX 09124 07643 12235 71608 10220 20190 30208 40217 50001 60006 71011 85604 91200=
07643,1997-06-09 15:00:00,24,1020.4,-1.3,74,19,12000,11.112,,,170,,,,,,,,,,,wg-a,,,,AAXX 09154 07643 12/62 71706 10240 20190 30195 40204 58013 60006 81082 91500=
07643,1997-06-09 18:00:00,22,1020.2,-0.2,83,19,9000,11.112,,,200,19.6,25.2,,,,,,,,,wg-a,,,,AAXX 09184 07643 12/59 /2006 10220 20190 30193 40202 55002 60006 91800 333 10252 20196=
07643,1997-06-09 21:00:00,19,1020.1,-0.1,94,18,6000,3.704,,,110,,,,,,,,,,,wg-a,,,,AAXX 09214 07643 12/56 /1102 10190 20180 30192 40201 55001 60006 80002 92100=
07643,1997-06-10 00:00:00,18,1019.3,-0.8,94,17,500,11.112,,,30,,,,,,,,,,,wg-a,,,,AAXX 10004 07643 12/00 /0306 10180 20170 30184 40193 58008 60006 90000=
07643,1997-06-10 06:00:00,20,1017.8,-0.4,88,18,6000,7.408,,,30,16.9,21.6,,,,,,,,,wg-a,,,,AAXX 10064 07643 02/56 /0304 10200 20180 30169 40178 58004 60006 85082 90600 333 10216 20169 60004=
07643,1997-06-10 09:00:00,24,1017.1,-0.7,69,18,15000,11.112,,,110,,,,,,,,,,,wg-a,,,,AAXX 10094 07643 12/65 71106 10240 20180 30162 40171 58007 60006 80002 90900=
07643,1997-06-10 12:00:00,25,1016.5,-0.6,61,17,25000,11.112,,,160,,,,,,,,,,,wg-a,,,,AAXX 10124 07643 12/75 71606 10250 20170 30156 40165 58006 60006 80002 91200=
07643,1997-06-10 18:00:00,23,1014.2,-1.4,73,18,500,0,,,0,19.5,25.6,,,,,,,,,wg-a,,,,AAXX 10184 07643 12700 70000 10230 20180 30133 40142 56014 60006 82282 91800 333 10256 20195=
07643,1997-06-10 21:00:00,21,1013.7,-0.5,78,17,10000,7.408,,,30,,,,,,,,,,,wg-a,,,,AAXX 10214 07643 12/60 50304 10210 20170 30128 40137 55005 60006 83032 92100=
07643,1997-06-11 00:00:00,20,1013,-0.7,78,16,10000,7.408,,,60,,,,,,,,,,,wg-a,,,,AAXX 11004 07643 12760 60604 10200 20160 30121 40130 58007 60006 83532 90000=
07643,1997-06-11 03:00:00,20,1012.2,-0.8,73,15,10000,3.704,,,340,,,,,,,,,,,wg-a,,,,AAXX 11034 07643 12760 73402 10200 20150 30113 40122 55008 60006 81532 90300=
07643,1997-06-11 06:00:00,22,1011.6,-0.6,83,19,12000,11.112,,,110,18.8,23.4,,,,,,,,,wg-a,,,,AAXX 11064 07643 02462 71106 10220 20190 30107 40116 55006 60006 81532 90600 333 10234 20188 60004=
07643,1997-06-11 09:00:00,23,1011.6,0,83,20,12000,18.52,,,140,,,,,,,,,,,wg-a,,,,AAXX 11094 07643 12462 71410 10230 20200 30107 40116 50000 60006 875// 90900=
07643,1997-06-11 12:00:00,24,1011.6,0,83,21,11000,14.816,,,150,,,,,,,,,,,wg-a,,,,AAXX 11124 07643 12/61 /1508 10240 20210 30107 40116 50000 60006 91200=
07643,1997-06-11 18:00:00,23,1010.1,-0.5,89,21,9000,11.112,,,150,21.6,24.9,,,,,,,,,wg-a,,,,AAXX 11184 07643 12359 71506 10230 20210 30092 40101 55005 60006 82601 91800 333 10249 20216=
07643,1997-06-11 21:00:00,21,1011.6,1.5,94,20,6000,0,,,0,,,,,,,,,,,wg-a,,,,AAXX 11214 07643 12356 /0000 10210 20200 30107 40116 51015 60006 85601 92100=
07643,1997-06-12 00:00:00,20,1011.6,-0,94,19,8000,3.704,,,10,,,,,,,,,,,wg-a,,,,AAXX 12004 07643 12358 30102 10200 20190 30107 40116 54000 60006 81601 90000=
07643,1997-06-12 03:00:00,20,1011.1,-0.5,94,19,6000,7.408,,,340,,,,,,,,,,,wg-a,,,,AAXX 12034 07643 12356 23404 10200 20190 30102 40111 58005 60006 81571 90300=
07643,1997-06-12 06:00:00,21,1011.8,0.7,94,20,8000,11.112,,,10,19.1,22.7,,,,,,,,,wg-a,,,,AAXX 12064 07643 02/58 /0106 10210 20200 30109 40118 52007 60006 80001 90600 333 10227 20191 60004=
07643,1997-06-12 09:00:00,26,1010.9,-0.9,58,17,25000,3.704,,,70,,,,,,,,,,,wg-a,,,,AAXX 12094 07643 12/75 60702 10260 20170 30100 40109 56009 60006 81032 90900=
07643,1997-06-12 12:00:00,28,1010.2,-0.7,66,21,25000,22.224,,,200,,,,,,,,,,,wg-a,,,,AAXX 12124 07643 12675 52012 10280 20210 30093 40102 58007 60006 81209 91200=
07643,1997-06-12 15:00:00,26,1009.4,-0.8,74,21,25000,22.224,,,210,,,,,,,,,,,wg-a,,,,AAXX 12154 07643 12675 /2112 10260 20210 30085 40094 58008 60006 81202 91500=
07643,1997-06-12 18:00:00,23,1008.5,-0.9,83,20,20000,18.52,,,220,20.7,28.1,,,,,,,,,wg-a,,,,AAXX 12184 07643 12/70 72210 10230 20200 30076 40085 58009 60006 83082 91800 333 10281 20207=
07643,1997-06-12 21:00:00,22,1009.4,0.9,94,21,12000,11.112,,,210,,,,,,,,,,,wg-a,,,,AAXX 12214 07643 12/62 72106 10220 20210 30085 40094 50009 60006 81082 92100=
07643,1997-06-13 00:00:00,22,1009.7,0.3,94,21,15000,14.816,,,200,,,,,,,,,,,wg-a,,,,AAXX 13004 07643 12265 72008 10220 20210 30088 40097 53003 60006 81602 90000=
07643,1997-06-13 06:00:00,21,1008,-0.4,100,21,4000,7.408,,,30,20.6,23.4,,,,,,,,10,wg-a,,,,AAXX 13064 07643 02440 70304 10210 20210 30071 40080 58004 60006 71022 86502 90600 333 10234 20206 60004=
07643,1997-06-13 09:00:00,24,1008.4,0.4,78,20,8000,3.704,,,30,,,,,,,,,,,wg-a,,,,AAXX 13094 07643 12/58 /0302 10240 20200 30075 40084 51004 60006 90900=
07643,1997-06-13 12:00:00,26,1008.5,0.1,79,22,8000,14.816,,,190,,,,,,,,,,,wg-a,,,,AAXX 13124 07643 12758 71908 10260 20220 30076 40085 53001 60006 82582 91200=
07643,1997-06-13 15:00:00,25,1007.7,-0.8,79,21,10000,14.816,,,170,,,,,,,,,,,wg-a,,,,AAXX 13154 07643 12/60 61708 10250 20210 30068 40077 58008 60006 83082 91500=
07643,1997-06-13 18:00:00,23,1007.5,-0.2,89,21,8000,11.112,,,160,21.4,26.3,,,,,,,,,wg-a,,,,AAXX 13184 07643 12/58 71606 10230 20210 30066 40075 55002 60006 86082 91800 333 10263 20214=
07643,1997-06-14 00:00:00,22,1009.4,0.4,94,21,15000,3.704,,,290,,,,,,,,,,3,wg-a,,,,AAXX 14004 07643 02765 52902 10220 20210 30085 40094 53004 61000 70386 83531 90000 333 ////=
07643,1997-06-14 03:00:00,21,1009.5,0.1,94,20,8000,7.408,,,30,,,,,,,,,,,wg-a,,,,AAXX 14034 07643 12758 70304 10210 20200 30086 40095 53001 60006 8553/ 90300=
07643,1997-06-14 06:00:00,22,1011.1,1.6,94,21,3500,7.408,,,310,21,23,,,,,,,,,wg-a,,,,AAXX 14064 07643 02/35 /3104 10220 20210 30102 40111 53016 60006 90600 333 10230 20210 60004=
07643,1997-06-14 09:00:00,20,1014.2,3.1,88,18,15000,11.112,,,330,,,,0,,,,,,61,wg-a,,,,AAXX 14094 07643 12465 83306 10200 20180 30133 40142 51031 60007 76162 8487/ 90900=
07643,1997-06-14 12:00:00,22,1015,0.8,73,17,500,18.52,,,320,,,,,,,,,,1,wg-a,,,,AAXX 14124 07643 02500 83210 10220 20170 30141 40150 50008 60016 70162 8127/ 91200 333 61000=
07643,1997-06-14 15:00:00,27,1014.2,-0.8,48,15,40000,18.52,,,320,,,,,,,,,,,wg-a,,,,AAXX 14154 07643 12582 43210 10270 20150 30133 40142 58008 60006 81230 91500=
07643,1997-06-14 18:00:00,27,1014.2,-0,39,12,40000,25.928,,,330,19.5,28.1,,,,,,,,,wg-a,,,,AAXX 14184 07643 12/82 03314 10270 20120 30133 40142 55000 60006 80000 91800 333 10281 20195=
07643,1997-06-14 21:00:00,22,1016.5,2.3,53,12,40000,14.816,,,290,,,,,,,,,,,wg-a,,,,AAXX 14214 07643 12/82 02908 10220 20120 30156 40165 53023 60006 80000 92100=
07643,1997-06-15 00:00:00,18,1016.8,0.3,68,12,40000,3.704,,,270,,,,,,,,,,,wg-a,,,,AAXX 15004 07643 12/82 02702 10180 20120 30159 40168 53003 60006 80000 90000=
07643,1997-06-15 06:00:00,19,1017.5,0.8,64,12,75000,7.408,,,350,14.8,26.8,,,,,1,,,,wg-a,,,,AAXX 15064 07643 02/89 03504 10190 20120 30166 40175 53008 60006 80000 90600 333 10268 20148 60014=
07643,1997-06-15 09:00:00,24,1017.2,-0.3,36,8,75000,14.816,,,360,,,,,,,,,,,wg-a,,,,AAXX 15094 07643 12/89 03608 10240 20080 30163 40172 56003 60006 80000 90900=
07643,1997-06-15 12:00:00,27,1016.3,-0.9,39,12,75000,14.816,,,190,,,,,,,,,,,wg-a,,,,AAXX 15124 07643 12/89 01908 10270 20120 30154 40163 58009 60006 80000 91200=
07643,1997-06-15 18:00:00,25,1015.3,0.1,47,13,75000,18.52,,,230,18.5,27.6,,,,,,,,,wg-a,,,,AAXX 15184 07643 12/89 62310 10250 20130 30144 40153 53001 60006 81082 91800 333 10276 20185=
07643,1997-06-15 21:00:00,21,1016.6,1.3,64,14,50000,7.408,,,270,,,,,,,,,,,wg-a,,,,AAXX 15214 07643 12/84 62704 10210 20140 30157 40166 53013 60006 82084 92100=
07643,1997-06-16 00:00:00,18,1016.2,-0.4,77,14,40000,3.704,,,330,,,,,,,,,,,wg-a,,,,AAXX 16004 07643 12/82 43302 10180 20140 30153 40162 58004 60006 82084 90000=
07643,1997-06-16 03:00:00,17,1014.8,-1.4,77,13,40000,7.408,,,20,,,,,,,,,,,wg-a,,,,AAXX 16034 07643 12/82 70204 10170 20130 30139 40148 58014 60006 80004 90300=
07643,1997-06-16 06:00:00,19,1015.2,0.4,78,15,50000,7.408,,,20,16.4,24.8,,,,,,,,,wg-a,,,,AAXX 16064 07643 02/84 70204 10190 20150 30143 40152 53004 60006 85082 90600 333 10248 20164 60004=
07643,1997-06-16 09:00:00,24,1015,-0.2,57,15,50000,14.816,,,140,,,,,,,,,,,wg-a,,,,AAXX 16094 07643 12/84 61408 10240 20150 30141 40150 57002 60006 83031 90900=
07643,1997-06-16 12:00:00,24,1015,-0,74,19,50000,22.224,,,150,,,,,,,,,,,wg-a,,,,AAXX 16124 07643 12684 71512 10240 20190 30141 40150 55000 60006 83582 91200=
07643,1997-06-16 15:00:00,23,1014.1,-0.9,78,19,35000,11.112,,,170,,,,,,,,,,,wg-a,,,,AAXX 16154 07643 12481 61706 10230 20190 30132 40141 56009 60006 83282 91500=
07643,1997-06-16 18:00:00,22,1014,-0.1,88,20,15000,11.112,,,230,19.3,24.8,,,,,,,,,wg-a,,,,AAXX 16184 07643 12465 72306 10220 20200 30131 40140 55001 60006 878// 91800 333 10248 20193=
07643,1997-06-17 00:00:00,18,1016.3,0.5,88,16,15000,3.704,,,310,,,,,,,,,,,wg-a,,,,AAXX 17004 07643 12465 33102 10180 20160 30154 40163 50005 60006 83800 90000=
07643,1997-06-17 03:00:00,17,1015.6,-0.7,88,15,15000,7.408,,,20,,,,,,,,,,,wg-a,,,,AAXX 17034 07643 12765 20204 10170 20150 30147 40156 58007 60006 82500 90300=
07643,1997-06-17 06:00:00,20,1016.4,0.8,73,15,500,0,,,0,16,22.4,,,,,,,,,wg-a,,,,AAXX 17064 07643 02/00 60000 10200 20150 30155 40164 53008 60006 83032 90600 333 10224 20160 60004=
07643,1997-06-17 09:00:00,24,1016.3,-0.1,57,15,20000,3.704,,,110,,,,,,,,,,,wg-a,,,,AAXX 17094 07643 12/70 61102 10240 20150 30154 40163 55001 60006 83082 90900=
07643,1997-06-17 12:00:00,25,1016.1,-0.2,50,14,500,22.224,,,200,,,,,,,,,,,wg-a,,,,AAXX 17124 07643 12600 /2012 10250 20140 30152 40161 58002 60006 81182 91200=
07643,1997-06-17 15:00:00,27,1015.3,-0.8,48,15,500,22.224,,,190,,,,,,,,,,,wg-a,,,,AAXX 17154 07643 12700 71912 10270 20150 30144 40153 57008 60006 81102 91500=
07643,1997-06-17 18:00:00,27,1014.5,-0.8,39,12,500,14.816,,27.78,320,20,27.1,,,,,,,,,wg-a,,,,AAXX 17184 07643 12700 63208 10270 20120 30136 40145 55008 60006 815/2 91800 333 10271 20200 91015=
07643,1997-06-17 21:00:00,23,1016,1.5,44,10,20000,14.816,,,320,,,,,,,,,,,wg-a,,,,AAXX 17214 07643 12/70 73208 10230 20100 30151 40160 53015 60006 83082 92100=
07643,1997-06-18 00:00:00,20,1016.5,0.5,53,10,20000,7.408,,,310,,,,,,,,,,,wg-a,,,,AAXX 18004 07643 12/70 53104 10200 20100 30156 40165 51005 60006 82032 90000=
07643,1997-06-18 03:00:00,19,1015.7,-0.8,56,10,20000,14.816,,,310,,,,,,,,,,,wg-a,,,,AAXX 18034 07643 12/70 23108 10190 20100 30148 40157 58008 60006 80002 90300=
07643,1997-06-18 06:00:00,21,1016.2,0.5,53,11,10000,11.112,,,350,17.2,26.6,,,,,,,,,wg-a,,,,AAXX 18064 07643 02/60 /3506 10210 20110 30153 40162 51005 60006 90600 333 10266 20172 60004=
07643,1997-06-18 09:00:00,26,1015.3,-0.9,37,10,40000,18.52,,,20,,,,,,,,,,,wg-a,,,,AAXX 18094 07643 12/82 30210 10260 20100 30144 40153 57009 60006 81042 90900=
07643,1997-06-18 12:00:00,28,1014.4,-0.9,35,11,40000,11.112,,,50,,,,,,,,,,,wg-a,,,,AAXX 18124 07643 12682 30506 10280 20110 30135 40144 58009 60006 81232 91200=
07643,1997-06-18 15:00:00,28,1013.2,-1.2,40,13,40000,18.52,,,210,,,,,,,,,,,wg-a,,,,AAXX 18154 07643 12682 /2110 10280 20130 30123 40132 58012 60006 82202 91500=
07643,1997-06-18 18:00:00,25,1011.5,-1.7,44,12,25000,7.408,,,260,20.8,28.7,,,,,,,,,wg-a,,,,AAXX 18184 07643 12675 72604 10250 20120 30106 40115 56017 60006 82432 91800 333 10287 20208=
07643,1997-06-18 21:00:00,23,1012.4,0.9,47,11,25000,11.112,,,10,,,,,,,,,,,wg-a,,,,AAXX 18214 07643 12/75 70106 10230 20110 30115 40124 53009 60006 83032 92100=
07643,1997-06-19 00:00:00,22,1011.3,-1.1,50,11,25000,3.704,,,340,,,,,,,,,,,wg-a,,,,AAXX 19004 07643 12775 73402 10220 20110 30104 40113 58011 60006 83532 90000=
07643,1997-06-19 03:00:00,20,1009.1,-2.2,60,12,25000,11.112,,,320,,,,,,,,,,,wg-a,,,,AAXX 19034 07643 12775 73206 10200 20120 30082 40091 57022 60006 8353/ 90300=
07643,1997-06-19 06:00:00,20,1009,-0.1,60,12,50000,11.112,,,290,19.5,25.5,,,,,,,,,wg-a,,,,AAXX 19064 07643 02784 72906 10200 20120 30081 40090 55001 60006 81532 90600 333 10255 20195 60004=
07643,1997-06-19 12:00:00,26,1008,-0.5,45,13,25000,35.188,,,280,,,,,,,,,,,wg-a,,,,AAXX 19124 07643 12775 62819 10260 20130 30071 40080 56005 60006 82232 91200=
07643,1997-06-19 15:00:00,27,1008.2,0.2,37,11,25000,35.188,,,310,,,,,,,,,,,wg-a,,,,AAXX 19154 07643 12775 53119 10270 20110 30073 40082 53002 60006 83232 91500=
07643,1997-06-19 18:00:00,24,1008.8,0.6,38,9,25000,31.484,,,300,20,27.6,,,,,,,,,wg-a,,,,AAXX 19184 07643 12775 23017 10240 20090 30079 40088 51006 60006 81241 91800 333 10276 20200=
07643,1997-06-19 21:00:00,21,1010.9,2.1,46,9,20000,31.484,,,310,,,,,,,,,,,wg-a,,,,AAXX 19214 07643 12/70 23117 10210 20090 30100 40109 51021 60006 81041 92100=
07643,1997-06-20 00:00:00,19,1011.6,0.7,56,10,20000,14.816,,,280,,,,,,,,,,,wg-a,,,,AAXX 20004 07643 12/70 42808 10190 20100 30107 40116 51007 60006 81031 90000=
07643,1997-06-20 03:00:00,18,1011.5,-0.1,59,10,20000,18.52,,,300,,,,,,,,,,,wg-a,,,,AAXX 20034 07643 12/70 33010 10180 20100 30106 40115 58001 60006 81041 90300=
07643,1997-06-20 06:00:00,19,1011.6,0.1,56,10,500,25.928,,,300,17,24.3,,,,,,,,,wg-a,,,,AAXX 20064 07643 02600 33014 10190 20100 30107 40116 50001 60006 81541 90600 333 10243 20170 60004=
07643,1997-06-20 09:00:00,22,1012,0.4,46,10,500,14.816,,,290,,,,,,,,,,,wg-a,,,,AAXX 20094 07643 12600 /2908 10220 20100 30111 40120 51004 60006 82541 90900=
07643,1997-06-20 12:00:00,25,1010.9,-1.1,41,11,75000,14.816,,,230,,,,,,,,,,,wg-a,,,,AAXX 20124 07643 12789 32308 10250 20110 30100 40109 58011 60006 81102 91200=
07643,1997-06-20 15:00:00,23,1009.6,-1.3,47,11,75000,25.928,,,210,,,,,,,,,,,wg-a,,,,AAXX 20154 07643 12789 32114 10230 20110 30087 40096 56013 60006 81102 91500=
07643,1997-06-20 18:00:00,21,1009.2,-0.4,64,14,50000,29.632,,,230,18.5,25.4,,,,,,,,,wg-a,,,,AAXX 20184 07643 12/84 22316 10210 20140 30083 40092 56004 60006 80002 91800 333 10254 20185=
07643,1997-06-20 21:00:00,18,1009.8,0.6,88,16,35000,7.408,,,250,,,,,,,,,,,wg-a,,,,AAXX 20214 07643 12/81 22504 10180 20160 30089 40098 51006 60006 82030 92100=
07643,1997-06-21 00:00:00,17,1009.4,-0.4,88,15,20000,3.704,,,40,,,,,,,,,,,wg-a,,,,AAXX 21004 07643 12/70 00402 10170 20150 30085 40094 58004 60006 80000 90000=
07643,1997-06-21 03:00:00,17,1008.1,-1.3,100,17,12000,11.112,,,40,,,,,,,,,,,wg-a,,,,AAXX 21034 07643 12362 70406 10170 20170 30072 40081 57013 60006 876// 90300=
07643,1997-06-21 06:00:00,19,1008.3,0.2,88,17,8000,11.112,,,50,16,21,,,,,,,,,wg-a,,,,AAXX 21064 07643 02358 80506 10190 20170 30074 40083 52002 60006 886// 90600 333 10210 20160 60004=
07643,1997-06-21 09:00:00,22,1007.5,-0.8,88,20,10000,25.928,,,120,,,,,,,,,,1,wg-a,,,,AAXX 21094 07643 02260 81214 10220 20200 30066 40075 58008 61000 70162 8563/ 90900 333 ////=
07643,1997-06-21 12:00:00,23,1006.3,-1.2,83,20,9000,25.928,,,140,,,,,,,,,,1,wg-a,,,,AAXX 21124 07643 02459 61414 10230 20200 30054 40063 58012 61000 70162 86500 91200 333 ////=
07643,1997-06-21 18:00:00,21,1004.6,-0.6,94,20,12000,22.224,,,140,18.5,23.7,,,,,,,,,wg-a,,,,AAXX 21184 07643 12462 81412 10210 20200 30037 40046 55006 60006 885// 91800 333 10237 20185=
07643,1997-06-21 21:00:00,20,1005.8,1.2,68,14,8000,25.928,,,310,,,,,,,,,,60,wg-a,,,,AAXX 21214 07643 02558 83114 10200 20140 30049 40058 53012 61000 76062 885// 92100 333 ////=
07643,1997-06-22 00:00:00,19,1006.3,0.5,60,11,11000,25.928,,,310,,,,,,,,,,1,wg-a,,,,AAXX 22004 07643 02761 83114 10190 20110 30054 40063 50005 61000 70162 885// 90000 333 6100=
07643,1997-06-22 03:00:00,15,1008.2,1.9,88,13,8000,18.52,,,10,,,,2,,,,,,61,wg-a,,,,AAXX 22034 07643 12258 80110 10150 20130 30073 40082 53019 60027 76162 885// 90300=
07643,1997-06-22 06:00:00,15,1009.4,1.1,94,14,6000,7.408,,,310,14,21.1,,,,,,,,61,wg-a,,,,AAXX 22064 07643 02456 83104 10150 20140 30084 40094 51011 61000 76162 885// 90600 333 10211 20140 6004=
07643,1997-06-22 09:00:00,16,1010.2,0.9,88,14,500,11.112,,,240,,,,1,,,,,,1,wg-a,,,,AAXX 22094 07643 12400 72406 10160 20140 30093 40102 51009 60017 70162 8683/ 90900=
07643,1997-06-22 12:00:00,20,1009.9,-0.3,64,13,500,22.224,,,200,,,,,,,,,,1,wg-a,,,,AAXX 22124 07643 12500 62012 10200 20130 30090 40099 58003 60016 70162 85830 91200=
07643,1997-06-22 15:00:00,24,1009.4,-0.5,41,10,40000,29.632,,48.152,300,,,,,,,,,,,wg-a,,,,AAXX 22154 07643 12582 53016 10240 20100 30085 40094 55005 60006 84831 91500 333 91026=
07643,1997-06-22 18:00:00,21,1010.6,1.2,43,8,40000,29.632,,,290,14.5,24.3,,,,,,,,,wg-a,,,,AAXX 22184 07643 12582 32916 10210 20080 30097 40106 53012 60006 82230 91800 333 10243 20145=
07643,1997-06-22 21:00:00,17,1013.3,2.7,59,9,40000,22.224,,,280,,,,,,,,,,,wg-a,,,,AAXX 22214 07643 12682 22812 10170 20090 30124 40133 52027 60006 81530 92100=
07643,1997-06-23 00:00:00,16,1014.3,0.9,63,9,40000,14.816,,,300,,,,,,,,,,,wg-a,,,,AAXX 23004 07643 12682 /3008 10160 20090 30133 40143 51009 60006 81500 90000=
07643,1997-06-23 03:00:00,14,1014.1,-0.2,72,9,20000,11.112,,,280,,,,,,,,,,,wg-a,,,,AAXX 23034 07643 12/70 12806 10140 20090 30131 40141 56002 60006 81030 90300=
07643,1997-06-23 06:00:00,17,1014.4,0.4,63,10,500,22.224,,,300,14.3,21,,,,,1,,,,wg-a,,,,AAXX 23064 07643 02700 13012 10170 20100 30135 40144 53004 60006 81500 90600 333 10210 20143 60014=
07643,1997-06-23 09:00:00,21,1015.2,0.7,46,9,500,22.224,,,300,,,,,,,,,,,wg-a,,,,AAXX 23094 07643 12600 33012 10210 20090 30142 40152 53007 60006 83200 90900=
07643,1997-06-23 12:00:00,22,1014.8,-0.4,41,8,50000,25.928,,,300,,,,,,,,,,,wg-a,,,,AAXX 23124 07643 12784 43014 10220 20080 30138 40148 58004 60006 84230 91200=
07643,1997-06-23 15:00:00,24,1014.4,-0.3,38,9,40000,29.632,,,300,,,,0,,,,,,,wg-a,,,,AAXX 23154 07643 12782 33016 10240 20090 30135 40144 56003 60007 83230 91500=
07643,1997-06-23 18:00:00,22,1014.7,0.3,43,9,40000,29.632,,,300,,24.8,,,,,,,,,wg-a,,,,AAXX 23184 07643 12782 13016 10220 20090 30138 40147 53003 60006 81240 91800 333 10248=
07643,1997-06-24 00:00:00,18,1017.3,0.8,59,10,0,29.632,,,300,,,,,,,,,,,wg-a,,,,AAXX 24004 07643 12/// /3016 10180 20100 30164 40173 53008 60006 90000=
07643,1997-06-24 03:00:00,16,1017,-0.4,68,10,40000,22.224,,,290,,,,,,,,,,,wg-a,,,,AAXX 24034 07643 12/82 12912 10160 20100 30160 40170 56004 60006 81040 90300=
07643,1997-06-24 06:00:00,18,1017.5,0.5,59,10,40000,14.816,,,280,12.9,22,,,,,,,,,wg-a,,,,AAXX 24064 07643 02/82 12808 10180 20100 30165 40175 50005 60006 81040 90600 333 10220 20129 60004=
07643,1997-06-24 09:00:00,22,1017.2,-0.2,43,9,40000,14.816,,,320,,,,,,,,,,,wg-a,,,,AAXX 24094 07643 12782 23208 10220 20090 30163 40172 58002 60006 82100 90900=
07643,1997-06-24 12:00:00,24,1015.9,-1.3,38,9,10000,18.52,,,310,,,,,,,,,,,wg-a,,,,AAXX 24124 07643 12/60 /3110 10240 20090 30150 40159 58013 60006 91200=
07643,1997-06-24 15:00:00,27,1014.5,-1.4,30,8,40000,22.224,,,310,,,,,,,,,,,wg-a,,,,AAXX 24154 07643 12782 33112 10270 20080 30136 40145 58014 60006 83201 91500=
07643,1997-06-24 18:00:00,24,1014.2,-0.3,44,11,40000,18.52,,,20,17.7,26.7,,,,,,,,,wg-a,,,,AAXX 24184 07643 12782 20210 10240 20110 30133 40142 55003 60006 82231 91800 333 10267 20177=
07643,1997-06-24 21:00:00,19,1015.6,1.4,52,9,10000,7.408,,,50,,,,,,,,,,,wg-a,,,,AAXX 24214 07643 12/60 /0504 10190 20090 30147 40156 53014 60006 92100=
07643,1997-06-25 00:00:00,16,1015.5,-0.2,63,9,40000,11.112,,,10,,,,,,,,,,,wg-a,,,,AAXX 25004 07643 12/82 00106 10160 20090 30145 40155 58002 60006 80000 90000=
07643,1997-06-25 03:00:00,15,1014.8,-0.7,67,9,500,7.408,,,320,,,,,,,,,,,wg-a,,,,AAXX 25034 07643 12/00 03204 10150 20090 30138 40148 56007 60006 80000 90300=
07643,1997-06-25 06:00:00,17,1013.8,-0.9,63,10,500,3.704,,,290,12.4,23.7,,,,,,,,,wg-a,,,,AAXX 25064 07643 02/00 22902 10170 20100 30129 40138 56009 60006 80001 90600 333 10237 20124 60004=
07643,1997-06-25 09:00:00,21,1012.9,-0.9,46,9,500,7.408,,,170,,,,,,,,,,,wg-a,,,,AAXX 25094 07643 12/00 51704 10210 20090 30120 40129 56009 60006 81034 90900=
07643,1997-06-25 12:00:00,22,1011.8,-1.1,50,11,500,14.816,,,180,,,,,,,,,,,wg-a,,,,AAXX 25124 07643 12600 71808 10220 20110 30109 40118 58011 60006 81136 91200=
07643,1997-06-25 15:00:00,20,1009.7,-2.1,73,15,500,22.224,,,190,,,,,,,,,,,wg-a,,,,AAXX 25154 07643 12600 71912 10200 20150 30088 40097 58021 60006 82536 91500=
07643,1997-06-25 18:00:00,20,1009.1,-0.6,78,16,35000,14.816,,,240,16.9,24.8,,,,,,,,,wg-a,,,,AAXX 25184 07643 12/81 72408 10200 20160 30082 40091 56006 60006 84072 91800 333 10248 20169=
07643,1997-06-25 21:00:00,19,1008.9,-0.2,88,17,18000,3.704,,,200,,,,,,,,,,,wg-a,,,,AAXX 25214 07643 12668 72002 10190 20170 30080 40089 55002 60006 8357/ 92100=
07643,1997-06-26 00:00:00,18,1007.7,-1.2,94,17,18000,0,,,0,,,,,,,,,,,wg-a,,,,AAXX 26004 07643 12368 70000 10180 20170 30068 40077 57012 60006 875// 90000=
07643,1997-06-26 03:00:00,18,1005.6,-2.1,94,17,500,3.704,,,360,,,,,,,,,,,wg-a,,,,AAXX 26034 07643 12100 73602 10180 20170 30047 40056 56021 60006 875// 90300=
07643,1997-06-26 06:00:00,20,1004.7,-0.9,64,13,500,14.816,,,320,17.6,19.9,,,,,,,,,wg-a,,,,AAXX 26064 07643 02200 73208 10200 20130 30038 40047 56009 60006 81686 90600 333 10199 20176 60004=
07643,1997-06-26 12:00:00,21,1003.8,-0.7,53,11,40000,14.816,,,280,,,,,,,,,,,wg-a,,,,AAXX 26124 07643 12682 72808 10210 20110 30029 40038 58007 60006 8457/ 91200=
07643,1997-06-26 15:00:00,21,1002.2,-1.6,64,14,40000,14.816,,,210,,,,,,,,,,,wg-a,,,,AAXX 26154 07643 12482 72108 10210 20140 30013 40022 56016 60006 8657/ 91500=
07643,1997-06-26 18:00:00,19,1001.8,-0.4,78,15,10000,18.52,,,220,19,21.4,,,,,,,,,wg-a,,,,AAXX 26184 07643 12/60 /2210 10190 20150 30009 40018 55004 60006 91800 333 10214 20190=
07643,1997-06-26 21:00:00,18,1002.2,0.4,77,14,500,11.112,,,260,,,,,,,,,,,wg-a,,,,AAXX 26214 07643 12500 72606 10180 20140 30013 40022 53004 60006 875// 92100=
07643,1997-06-27 00:00:00,17,1002.4,0.2,72,12,0,18.52,,,280,,,,,,,,,,,wg-a,,,,AAXX 27004 07643 12/// /2810 10170 20120 30015 40024 50002 60006 90000=
07643,1997-06-27 06:00:00,14,1003.6,0.4,82,11,25000,14.816,,,290,13.6,19.3,,,,,,,,21,wg-a,,,,AAXX 27064 07643 02475 72908 10140 20110 30027 40036 50004 61000 72162 8357/ 90600 333 10193 20136 6001=
07643,1997-06-27 09:00:00,19,1003.5,-0.1,49,8,75000,18.52,,,300,,,,,,,,,,,wg-a,,,,AAXX 27094 07643 12689 /3010 10190 20080 30026 40035 58001 60006 83831 90900=
07643,1997-06-27 12:00:00,21,1003.9,0.4,38,6,75000,22.224,,,320,,,,,,,,,,,wg-a,,,,AAXX 27124 07643 12689 53212 10210 20060 30030 40039 51004 60006 84831 91200=
07643,1997-06-27 18:00:00,20,1004.2,0.6,64,13,50000,25.928,,,210,13.9,22.9,,,,,,,,,wg-a,,,,AAXX 27184 07643 12784 22114 10200 20130 30033 40042 52006 60006 82430 91800 333 10229 20139=
07643,1997-06-28 00:00:00,14,1007.1,0.7,67,8,500,11.112,,,280,,,,,,,,,,,wg-a,,,,AAXX 28004 07643 12/00 12806 10140 20080 30061 40071 50007 60006 81030 90000=
07643,1997-06-28 06:00:00,16,1007.7,0.9,63,9,60000,11.112,,,20,10.8,19.5,,,,,,,,,wg-a,,,,AAXX 28064 07643 02/86 60206 10160 20090 30068 40077 53009 60006 81034 90600 333 10195 20108 60004=
07643,1997-06-28 09:00:00,19,1008,0.3,52,9,10000,7.408,,,30,,,,,,,,,,,wg-a,,,,AAXX 28094 07643 12/60 /0304 10190 20090 30071 40080 53003 60006 90900=
07643,1997-06-28 12:00:00,21,1007.1,-0.9,49,10,40000,11.112,,,50,,,,,,,,,,,wg-a,,,,AAXX 28124 07643 12/82 70506 10210 20100 30062 40071 58009 60006 8707/ 91200=
07643,1997-06-28 15:00:00,19,1006.5,-0.6,78,15,25000,7.408,,,310,,,,0,,,,,,21,wg-a,,,,AAXX 28154 07643 12/75 73104 10190 20150 30056 40065 58006 60007 72162 8707/ 91500=
07643,1997-06-28 18:00:00,17,1004.7,-1.8,82,14,20000,11.112,,,60,15.4,21.7,,,,,,,,61,wg-a,,,,AAXX 28184 07643 02670 80606 10170 20140 30038 40047 56018 61000 76196 8297/ 91800 333 10217 20154 6001=
07643,1997-06-28 21:00:00,14,1003.8,-0.9,100,14,4500,25.928,,,20,,,,14,,,,,,81,wg-a,,,,AAXX 28214 07643 12145 80214 10140 20140 30029 40038 58009 60147 78196 879// 92100=
07643,1997-06-29 00:00:00,19,1002.6,-1.2,94,18,12000,35.188,,,140,,,,0,,,,,,3,wg-a,,,,AAXX 29004 07643 02462 71419 10190 20180 30017 40026 56012 60156 70398 875// 90000 333 60007=
07643,1997-06-29 03:00:00,16,1001.8,-0.8,94,15,9000,22.224,,,230,,,,,,,,,,,wg-a,,,,AAXX 29034 07643 12259 72312 10160 20150 30009 40018 56008 60006 8453/ 90300=
07643,1997-06-29 06:00:00,16,1003.4,1.6,88,14,20000,18.52,,,240,14.3,18.8,,,,,15,,,,wg-a,,,,AAXX 29064 07643 02270 72410 10160 20140 30025 40034 53016 60006 878// 90600 333 10188 20143 60154=
07643,1997-06-29 09:00:00,19,1004,0.6,73,14,50000,14.816,,,180,,,,,,,,,,,wg-a,,,,AAXX 29094 07643 12584 31808 10190 20140 30031 40040 53006 60006 83800 90900=
07643,1997-06-29 12:00:00,21,1004.8,0.8,53,11,50000,22.224,,,230,,,,,,,,,,,wg-a,,,,AAXX 29124 07643 12684 22312 10210 20110 30039 40048 51008 60006 82802 91200=
07643,1997-06-29 15:00:00,20,1006.2,1.4,49,9,50000,14.816,,,290,,,,,,,,,,,wg-a,,,,AAXX 29154 07643 12684 /2908 10200 20090 30053 40062 53014 60006 86802 91500=
07643,1997-06-29 18:00:00,19,1007.9,1.7,52,9,40000,11.112,,,280,15.4,21.4,,,,,,,,,wg-a,,,,AAXX 29184 07643 12682 72806 10190 20090 30070 40079 51017 60006 874// 91800 333 10214 20154=
07643,1997-06-29 21:00:00,15,1010,2.1,82,12,20000,14.816,,,260,,,,,,,,,,1,wg-a,,,,AAXX 29214 07643 02770 72608 10150 20120 30091 40100 51021 61000 70186 875// 92100 333 ////=
07643,1997-06-30 00:00:00,14,1010.4,0.3,82,11,20000,11.112,,,270,,,,,,,,,,1,wg-a,,,,AAXX 30004 07643 02770 52706 10140 20110 30094 40104 50003 61000 70186 83530 90000 333 ////=
07643,1997-06-30 03:00:00,12,1010.6,0.2,94,11,25000,3.704,,,260,,,,,,,,,,,wg-a,,,,AAXX 30034 07643 12775 62602 10120 20110 30096 40106 53002 60006 81532 90300=
07643,1997-06-30 06:00:00,15,1011,0.4,77,11,40000,11.112,,,250,11.8,18.6,,,,,,,,,wg-a,,,,AAXX 30064 07643 02682 22506 10150 20110 30100 40110 51004 60006 81532 90600 333 10186 20118 61000=
07643,1997-06-30 09:00:00,19,1011.8,0.9,68,13,40000,22.224,,,220,,,,,,,,,,,wg-a,,,,AAXX 30094 07643 12682 /2212 10190 20130 30109 40118 51009 60006 86802 90900=
07643,1997-06-30 12:00:00,20,1011.6,-0.2,64,13,40000,25.928,,,200,,,,,,,,,,,wg-a,,,,AAXX 30124 07643 12682 72014 10200 20130 30107 40116 58002 60006 878// 91200=
07643,1997-06-30 15:00:00,20,1011.6,0,68,14,40000,29.632,,,220,,,,0,,,,,,25,wg-a,,,,AAXX 30154 07643 12682 42216 10200 20140 30107 40116 50000 60007 72586 84802 91500=
07643,1997-06-30 18:00:00,19,1012,0.4,78,15,20000,22.224,,,210,14.8,20.5,,,,,,,,3,wg-a,,,,AAXX 30184 07643 12570 72112 10190 20150 30111 40120 53004 60006 70386 86803 91800 333 10205 20148=
07643,1997-06-30 21:00:00,17,1013.4,1.4,88,15,20000,7.408,,,270,,,,,,,,,,1,wg-a,,,,AAXX 30214 07643 02570 52704 10170 20150 30125 40134 51014 61000 70186 82843 92100 333 ////=
07643,1997-07-01 00:00:00,15,1013.9,0.4,82,12,20000,11.112,,,270,,,,,,,,,,1,wg-a,,,,AAXX 01004 07643 02/70 42706 10150 20120 30129 40139 51004 61000 70186 81032 90000 333 ////=
07643,1997-07-01 03:00:00,15,1013.8,-0.1,82,12,25000,7.408,,,260,,,,,,,,,,,wg-a,,,,AAXX 01034 07643 12775 72604 10150 20120 30128 40138 57001 60006 8453/ 90300=
07643,1997-07-01 06:00:00,17,1014.5,0.8,72,12,35000,3.704,,,240,13.6,18.5,,,,,,,,,wg-a,,,,AAXX 01064 07643 02781 42402 10170 20120 30136 40145 53008 60006 81530 90600 333 10185 20136 60004=
07643,1997-07-01 12:00:00,22,1014.8,-0.3,57,13,40000,25.928,,,190,,,,,,,,,,,wg-a,,,,AAXX 01124 07643 12682 /1914 10220 20130 30139 40148 58003 60006 82232 91200=
07643,1997-07-01 15:00:00,21,1014.5,-0.3,69,15,35000,25.928,,,180,,,,,,,,,,,wg-a,,,,AAXX 01154 07643 12781 31814 10210 20150 30136 40145 58003 60006 81532 91500=
07643,1997-07-01 18:00:00,20,1014,-0.5,73,15,500,14.816,,,170,17.1,22.3,,,,,,,,,wg-a,,,,AAXX 01184 07643 12700 61708 10200 20150 30131 40140 56005 60006 81532 91800 333 10223 20171=
07643,1997-07-01 21:00:00,19,1014.5,0.5,83,16,10000,18.52,,,140,,,,,,,,,,,wg-a,,,,AAXX 01214 07643 12/60 /1410 10190 20160 30136 40145 53005 60006 92100=
07643,1997-07-02 00:00:00,19,1013.4,-1.1,88,17,20000,25.928,,,120,,,,,,,,,,,wg-a,,,,AAXX 02004 07643 12670 71214 10190 20170 30125 40134 58011 60006 8453/ 90000=
07643,1997-07-02 03:00:00,19,1012.6,-0.8,94,18,10000,22.224,,,120,,,,0,,,,,,60,wg-a,,,,AAXX 02034 07643 12460 71212 10190 20180 30117 40126 58008 60007 76062 8472/ 90300=
07643,1997-07-02 06:00:00,19,1012.2,-0.4,94,18,10000,22.224,,,130,18.5,19.7,,,,,,,,3,wg-a,,,,AAXX 02064 07643 02460 71312 10190 20180 30113 40122 56004 60006 70362 8572/ 90600 333 10197 20185 60004=
07643,1997-07-02 12:00:00,20,1012.6,0,83,17,10000,42.596,,,140,,,,,,,,,,,wg-a,,,,AAXX 02124 07643 12460 71423 10200 20170 30117 40126 50000 60006 8587/ 91200=
07643,1997-07-02 15:00:00,20,1011.4,-1.2,83,17,9000,42.596,,,140,,,,,,,,,,,wg-a,,,,AAXX 02154 07643 12459 71423 10200 20170 30105 40114 56012 60006 8583/ 91500=
07643,1997-07-02 18:00:00,20,1011.6,0.2,83,17,9000,38.892,,,140,19.2,21.7,,,,,,,,,wg-a,,,,AAXX 02184 07643 12559 71421 10200 20170 30107 40116 53002 60006 8583/ 91800 333 10217 20192=
07643,1997-07-02 21:00:00,18,1013.8,2.2,94,17,12000,3.704,,,230,,,,2,,,,,,80,wg-a,,,,AAXX 02214 07643 12462 72302 10180 20170 30129 40138 53022 60027 78086 8593/ 92100=
07643,1997-07-03 00:00:00,17,1014,0.2,94,16,12000,11.112,,,340,,,,,,,,,,3,wg-a,,,,AAXX 03004 07643 02462 73406 10170 20160 30131 40140 50002 60026 70386 8483/ 90000 333 61000=
07643,1997-07-03 03:00:00,16,1013.5,-0.6,88,14,12000,7.408,,,300,,,,,,,,,,,wg-a,,,,AAXX 03034 07643 12562 73004 10160 20140 30125 40135 58006 60006 8583/ 90300=
07643,1997-07-03 06:00:00,16,1015.2,1.7,88,14,500,7.408,,,270,14.9,19.7,,,,,2,,,,wg-a,,,,AAXX 03064 07643 02500 /2704 10160 20140 30142 40152 51017 60006 85880 90600 333 10197 20149 60024=
07643,1997-07-03 12:00:00,20,1016.6,0.4,73,15,500,14.816,,,170,,,,,,,,,,,wg-a,,,,AAXX 03124 07643 12600 71708 10200 20150 30157 40166 50004 60006 8387/ 91200=
07643,1997-07-03 15:00:00,20,1016.9,0.3,73,15,500,22.224,,,190,,,,,,,,,,21,wg-a,,,,AAXX 03154 07643 02500 71912 10200 20150 30160 40169 52003 61000 72162 8587/ 91500 333 ////=
07643,1997-07-03 18:00:00,20,1016.5,-0.4,73,15,500,11.112,,,170,16,20.9,,,,,,,,1,wg-a,,,,AAXX 03184 07643 12700 61706 10200 20150 30156 40165 55004 60006 70162 81532 91800 333 10209 20160=
07643,1997-07-03 21:00:00,17,1018.4,1.8,88,15,15000,7.408,,,180,,,,,,,,,,,wg-a,,,,AAXX 03214 07643 12765 21804 10170 20150 30174 40184 53018 60006 81530 92100=
07643,1997-07-04 00:00:00,15,1018.4,0,94,14,15000,7.408,,,350,,,,,,,,,,,wg-a,,,,AAXX 04004 07643 12/65 13504 10150 20140 30174 40184 50000 60006 81030 90000=
07643,1997-07-04 06:00:00,17,1019.2,1.9,88,15,15000,3.704,,,260,14,19.8,,,,,,,,,wg-a,,,,AAXX 04064 07643 02665 72602 10170 20150 30182 40192 53019 60006 8357/ 90600 333 10198 20140 61000=
07643,1997-07-04 09:00:00,20,1019.2,0.1,73,15,15000,7.408,,,330,,,,,,,,,,1,wg-a,,,,AAXX 04094 07643 02365 53304 10200 20150 30183 40192 50001 61000 70162 83880 90900 333 ////=
07643,1997-07-04 12:00:00,22,1019.2,0,78,18,20000,18.52,,,180,,,,,,,,,,1,wg-a,,,,AAXX 04124 07643 02570 41810 10220 20180 30183 40192 50000 61000 70161 83232 91200 333 ////=
07643,1997-07-04 15:00:00,24,1017.8,-1.4,54,14,500,22.224,,,200,,,,,,,,,,,wg-a,,,,AAXX 04154 07643 12500 52012 10240 20140 30169 40178 58014 60006 83232 91500=
07643,1997-07-04 18:00:00,21,1018.1,0.3,69,15,500,29.632,,,230,16.5,23.7,,,,,,,,,wg-a,,,,AAXX 04184 07643 12500 /2316 10210 20150 30172 40181 53003 60006 83232 91800 333 10237 20165=
07643,1997-07-04 21:00:00,19,1020.2,2.1,68,13,11000,14.816,,,290,,,,,,,,,,,wg-a,,,,AAXX 04214 07643 32/61 /2908 10190 20130 30193 40202 53021 92100=
07643,1997-07-05 00:00:00,17,1020.8,0.5,72,12,20000,18.52,,,280,,,,,,,,,,1,wg-a,,,,AAXX 05004 07643 02670 52810 10170 20120 30198 40208 51005 60006 70162 83532 90000 333 61000=
07643,1997-07-05 06:00:00,17,1021.6,1,63,10,500,25.928,,,280,15.2,22,,,,,,,,,wg-a,,,,AAXX 05064 07643 02600 42814 10170 20100 30206 40216 51010 60006 83542 90600 333 10220 20152 60004=
07643,1997-07-05 09:00:00,21,1022.1,0.6,46,9,60000,31.484,,,300,,,,,,,,,,,wg-a,,,,AAXX 05094 07643 12686 43017 10210 20090 30212 40221 51006 60006 84830 90900=
07643,1997-07-05 12:00:00,23,1022.1,0,36,7,11000,29.632,,,310,,,,,,,,,,,wg-a,,,,AAXX 05124 07643 12/61 /3116 10230 20070 30212 40221 50000 60006 91200=
07643,1997-07-05 15:00:00,24,1021.6,-0.5,36,8,60000,31.484,,,320,,,,,,,,,,,wg-a,,,,AAXX 05154 07643 12686 43217 10240 20080 30207 40216 55005 60006 84230 91500=
07643,1997-07-05 18:00:00,22,1022.6,1,41,8,35000,35.188,,,310,17.2,25.4,,,,,,,,,wg-a,,,,AAXX 05184 07643 12781 33119 10220 20080 30217 40226 53010 60006 82440 91800 333 10254 20172=
07643,1997-07-05 21:00:00,19,1024.8,2.1,52,9,18000,22.224,,,320,,,,,,,,,,,wg-a,,,,AAXX 05214 07643 12/68 03212 10190 20090 30238 40248 53021 60006 80000 92100=
07643,1997-07-06 00:00:00,18,1025,0.2,59,10,18000,14.816,,,290,,,,,,,,,,,wg-a,,,,AAXX 06004 07643 12/68 02908 10180 20100 30240 40250 51002 60006 80000 90000=
07643,1997-07-06 03:00:00,17,1023.6,-1.4,59,9,18000,22.224,,,320,,,,,,,,,,,wg-a,,,,AAXX 06034 07643 12/68 03212 10170 20090 30226 40236 56014 60006 80000 90300=
07643,1997-07-06 06:00:00,19,1024,0.4,56,10,40000,14.816,,,280,16.8,22.4,,,,,,,,,wg-a,,,,AAXX 06064 07643 02/82 02808 10190 20100 30230 40240 53004 60006 80000 90600 333 10224 20168 60004=
07643,1997-07-06 09:00:00,24,1023.4,-0.5,38,9,40000,31.484,,,10,,,,,,,,,,,wg-a,,,,AAXX 06094 07643 12782 10117 10240 20090 30225 40234 56005 60006 81100 90900=
07643,1997-07-06 12:00:00,26,1022.7,-0.7,32,8,40000,31.484,,,10,,,,,,,,,,,wg-a,,,,AAXX 06124 07643 12782 10117 10260 20080 30218 40227 57007 60006 81100 91200=
07643,1997-07-06 18:00:00,25,1021.5,0.2,30,6,40000,29.632,,,20,18.6,28,,,,,,,,,wg-a,,,,AAXX 06184 07643 12782 10216 10250 20060 30206 40215 53002 60006 81100 91800 333 10280 20186=
07643,1997-07-06 21:00:00,21,1022.9,1.4,40,7,40000,14.816,,,350,,,,,,,,,,,wg-a,,,,AAXX 06214 07643 12/82 03508 10210 20070 30220 40229 52014 60006 80000 92100=
07643,1997-07-07 00:00:00,20,1022.3,-0.6,43,7,40000,22.224,,,330,,,,,,,,,,,wg-a,,,,AAXX 07004 07643 12/82 03312 10200 20070 30214 40223 56006 60006 80000 90000=
07643,1997-07-07 03:00:00,17,1021.2,-1.2,52,7,40000,14.816,,,310,,,,,,,,,,,wg-a,,,,AAXX 07034 07643 12/82 03108 10170 20070 30202 40212 56012 60006 80000 90300=
07643,1997-07-07 06:00:00,20,1020.8,-0.3,49,9,50000,14.816,,,320,15.4,25.3,,,,,,,,,wg-a,,,,AAXX 07064 07643 02/84 03208 10200 20090 30199 40208 56003 60006 80000 90600 333 10253 20154 60004=
07643,1997-07-07 09:00:00,25,1019.9,-0.9,41,11,40000,31.484,,,360,,,,,,,,,,,wg-a,,,,AAXX 07094 07643 12782 13617 10250 20110 30190 40199 58009 60006 81100 90900=
07643,1997-07-07 12:00:00,28,1018.7,-1.2,32,10,60000,35.188,,,20,,,,,,,,,,,wg-a,,,,AAXX 07124 07643 12786 10219 10280 20100 30178 40187 58012 60006 81100 91200=
07643,1997-07-07 15:00:00,29,1017.1,-1.6,27,8,60000,29.632,,,360,,,,,,,,,,,wg-a,,,,AAXX 07154 07643 12786 13616 10290 20080 30162 40171 56016 60006 81100 91500=
07643,1997-07-07 18:00:00,27,1017.1,-0,30,8,60000,31.484,,,30,19.8,29.3,,,,,,,,,wg-a,,,,AAXX 07184 07643 12/86 00317 10270 20080 30162 40171 55000 60006 80000 91800 333 10293 20198=
07643,1997-07-07 21:00:00,22,1018.5,1.4,41,8,60000,11.112,,,330,,,,,,,,,,,wg-a,,,,AAXX 07214 07643 12/86 03306 10220 20080 30176 40185 51014 60006 80000 92100=
07643,1997-07-08 00:00:00,21,1017.9,-0.6,40,7,50000,14.816,,,340,,,,,,,,,,,wg-a,,,,AAXX 08004 07643 12/84 03408 10210 20070 30170 40179 56006 60006 80000 90000=
07643,1997-07-08 06:00:00,21,1017.2,-0,43,8,75000,0,,,0,16.5,26.6,,,,,,,,,wg-a,,,,AAXX 08064 07643 02/89 00000 10210 20080 30163 40172 55000 60006 80000 90600 333 10266 20165 60004=
07643,1997-07-08 09:00:00,25,1016.7,-0.5,34,8,75000,29.632,,,20,,,,,,,,,,,wg-a,,,,AAXX 08094 07643 12/89 00216 10250 20080 30158 40167 57005 60006 80000 90900=
07643,1997-07-08 12:00:00,29,1015.8,-0.9,29,9,60000,18.52,,,50,,,,,,,,,,,wg-a,,,,AAXX 08124 07643 12/86 00510 10290 20090 30149 40158 58009 60006 80000 91200=
07643,1997-07-08 15:00:00,28,1014.5,-1.3,35,11,60000,11.112,,,220,,,,,,,,,,,wg-a,,,,AAXX 08154 07643 12786 12206 10280 20110 30136 40145 58013 60006 81100 91500=
07643,1997-07-08 18:00:00,24,1014.1,-0.4,54,14,40000,18.52,,,220,20.5,29.5,,,,,,,,,wg-a,,,,AAXX 08184 07643 12782 12210 10240 20140 30132 40141 55004 60006 81100 91800 333 10295 20205=
07643,1997-07-08 21:00:00,22,1014.9,0.8,53,12,40000,3.704,,,300,,,,,,,,,,,wg-a,,,,AAXX 08214 07643 12/82 03002 10220 20120 30140 40149 52008 60006 80000 92100=
07643,1997-07-09 00:00:00,19,1014.3,-0.6,64,12,500,7.408,,,310,,,,,,,,,,,wg-a,,,,AAXX 09004 07643 12/00 03104 10190 20120 30134 40143 58006 60006 80000 90000=
07643,1997-07-09 03:00:00,17,1013.4,-0.9,77,13,500,3.704,,,330,,,,,,,,,,,wg-a,,,,AAXX 09034 07643 12/00 03302 10170 20130 30125 40134 56009 60006 80000 90300=
07643,1997-07-09 06:00:00,19,1013.7,0.3,73,14,40000,11.112,,,50,15.8,24.1,,,,,,,,,wg-a,,,,AAXX 09064 07643 02/82 30506 10190 20140 30128 40137 50003 60006 80001 90600 333 10241 20158 60004=
07643,1997-07-09 12:00:00,23,1013.7,-0.3,69,17,12000,18.52,,,150,,,,,,,,,,,wg-a,,,,AAXX 09124 07643 12562 31510 10230 20170 30128 40137 58003 60006 81201 91200=
07643,1997-07-09 15:00:00,22,1013.6,-0.1,73,17,20000,18.52,,,190,,,,,,,,,,,wg-a,,,,AAXX 09154 07643 12570 /1910 10220 20170 30127 40136 55001 60006 81202 91500=
07643,1997-07-09 18:00:00,21,1012.9,-0.7,78,17,11000,14.816,,,170,19.5,25.9,,,,,,,,,wg-a,,,,AAXX 09184 07643 12/61 /1708 10210 20170 30120 40129 55007 60006 91800 333 10259 20195=
07643,1997-07-10 00:00:00,20,1012.6,-0.9,94,19,8000,7.408,,,50,,,,,,,,,,,wg-a,,,,AAXX 10004 07643 12258 70504 10200 20190 30117 40126 56009 60006 8453/ 90000=
07643,1997-07-10 03:00:00,19,1012.3,-0.3,94,18,6000,7.408,,,40,,,,,,,,,,,wg-a,,,,AAXX 10034 07643 12/56 /0404 10190 20180 30114 40123 57003 60006 90300=
07643,1997-07-10 06:00:00,20,1012.4,0.1,88,18,6000,7.408,,,40,18.9,21.2,,,,,,,,,wg-a,,,,AAXX 10064 07643 02456 70404 10200 20180 30115 40124 53001 60006 84630 90600 333 10212 20189 60004=
07643,1997-07-10 09:00:00,22,1013.2,0.8,73,17,9000,3.704,,,90,,,,,,,,,,,wg-a,,,,AAXX 10094 07643 12359 70902 10220 20170 30123 40132 51008 60006 8363/ 90900=
07643,1997-07-10 12:00:00,23,1012.9,-0.3,78,19,11000,14.816,,,160,,,,,,,,,,,wg-a,,,,AAXX 10124 07643 12/61 /1608 10230 20190 30120 40129 58003 60006 91200=
07643,1997-07-10 18:00:00,22,1012.4,-0,83,19,9000,18.52,,,210,20.2,23.5,,,,,,,,,wg-a,,,,AAXX 10184 07643 12/59 /2110 10220 20190 30115 40124 55000 60006 82032 91800 333 10235 20202=
07643,1997-07-11 00:00:00,20,1013.3,0,88,18,0,0,,,0,,,,,,,,,,,wg-a,,,,AAXX 11004 07643 12/// /0000 10200 20180 30124 40133 50000 60006 90000=
07643,1997-07-11 06:00:00,20,1014.2,0.9,88,18,3500,3.704,,,50,18.2,22.5,,,,,,,,10,wg-a,,,,AAXX 11064 07643 02/35 50502 10200 20180 30133 40142 53009 60006 71022 83032 90600 333 10225 20182 60004=
07643,1997-07-11 12:00:00,27,1013.6,-0.5,54,17,20000,14.816,,,170,,,,,,,,,,,wg-a,,,,AAXX 11124 07643 12670 41708 10270 20170 30127 40136 58005 60006 84232 91200=
07643,1997-07-11 15:00:00,30,1012.9,-0.7,40,15,20000,22.224,,,350,,,,,,,,,,,wg-a,,,,AAXX 11154 07643 12670 43512 10300 20150 30120 40129 55007 60006 84230 91500=
07643,1997-07-11 18:00:00,27,1013.4,0.5,45,14,35000,22.224,,,320,19.7,30,,,,,,,,,wg-a,,,,AAXX 11184 07643 12/81 33212 10270 20140 30125 40134 51005 60006 82062 91800 333 10300 20197=
07643,1997-07-11 21:00:00,24,1014.8,1.4,54,14,25000,14.816,,,310,,,,,,,,,,,wg-a,,,,AAXX 11214 07643 12/75 23108 10240 20140 30139 40148 51014 60006 82030 92100=
07643,1997-07-12 00:00:00,22,1015,0.2,65,15,25000,14.816,,,310,,,,,,,,,,,wg-a,,,,AAXX 12004 07643 12/75 03108 10220 20150 30141 40150 50002 60006 80000 90000=
07643,1997-07-12 03:00:00,20,1015,-0,68,14,25000,7.408,,,290,,,,,,,,,,,wg-a,,,,AAXX 12034 07643 12/75 02904 10200 20140 30141 40150 55000 60006 80000 90300=
07643,1997-07-12 06:00:00,21,1015.6,0.6,69,15,35000,7.408,,,290,19.1,27.5,,,,,,,,,wg-a,,,,AAXX 12064 07643 02/81 32904 10210 20150 30147 40156 51006 60006 80001 90600 333 10275 20191 60004=
07643,1997-07-12 09:00:00,27,1015.6,0,45,14,35000,11.112,,,10,,,,,,,,,,,wg-a,,,,AAXX 12094 07643 12781 50106 10270 20140 30147 40156 50000 60006 815/1 90900=
07643,1997-07-12 12:00:00,27,1015.4,-0.2,48,15,35000,25.928,,,200,,,,,,,,,,,wg-a,,,,AAXX 12124 07643 12781 62014 10270 20150 30145 40154 58002 60006 82101 91200=
07643,1997-07-12 15:00:00,27,1014.9,-0.5,48,15,35000,25.928,,,200,,,,,,,,,,,wg-a,,,,AAXX 12154 07643 12781 62014 10270 20150 30140 40149 58005 60006 82201 91500=
07643,1997-07-12 18:00:00,24,1014.6,-0.3,61,16,500,22.224,,,220,21.3,28.7,,,,,,,,,wg-a,,,,AAXX 12184 07643 12/00 32212 10240 20160 30137 40146 55003 60006 80001 91800 333 10287 20213=
07643,1997-07-12 21:00:00,22,1015.9,1.3,78,18,500,3.704,,,240,,,,,,,,,,,wg-a,,,,AAXX 12214 07643 12/00 32402 10220 20180 30150 40159 53013 60006 80001 92100=
07643,1997-07-13 00:00:00,19,1016.2,0.3,88,17,500,11.112,,,50,,,,,,,,,,,wg-a,,,,AAXX 13004 07643 12/00 30506 10190 20170 30153 40162 53003 60006 80001 90000=
07643,1997-07-13 03:00:00,17,1016,-0.2,94,16,20000,11.112,,,20,,,,,,,,,,,wg-a,,,,AAXX 13034 07643 12/70 10206 10170 20160 30151 40160 55002 60006 80001 90300=
07643,1997-07-13 06:00:00,19,1016.9,0.9,94,18,1700,7.408,,,30,17,23.9,,,,,,,,10,wg-a,,,,AAXX 13064 07643 02117 80304 10190 20180 30160 40169 53009 60006 71041 886// 90600 333 10239 20170 60004=
07643,1997-07-13 09:00:00,23,1017.8,0.9,78,19,3500,7.408,,,100,,,,,,,,,,10,wg-a,,,,AAXX 13094 07643 12235 /1004 10230 20190 30169 40178 50009 60006 71042 81602 90900=
07643,1997-07-13 12:00:00,24,1017.3,-0.5,69,18,4000,18.52,,,170,,,,,,,,,,10,wg-a,,,,AAXX 13124 07643 12/40 21710 10240 20180 30164 40173 57005 60006 71041 81032 91200=
07643,1997-07-13 15:00:00,23,1016.6,-0.7,83,20,4000,18.52,,,190,,,,,,,,,,10,wg-a,,,,AAXX 13154 07643 12240 21910 10230 20200 30157 40166 55007 60006 71000 81602 91500=
07643,1997-07-13 18:00:00,21,1016,-0.6,94,20,1500,11.112,,,210,18.5,25.4,,,,,,,,10,wg-a,,,,AAXX 13184 07643 12115 /2106 10210 20200 30151 40160 55006 60006 71011 85600 91800 333 10254 20185=
07643,1997-07-13 21:00:00,20,1017.2,1.2,100,20,500,7.408,,,230,,,,,,,,,,,wg-a,,,,AAXX 13214 07643 12200 32304 10200 20200 30163 40172 51012 60006 83600 92100=
07643,1997-07-14 00:00:00,19,1017.8,0.6,100,19,700,3.704,,,160,,,,,,,,,,44,wg-a,,,,AAXX 14004 07643 12007 /1602 10190 20190 30169 40178 53006 60006 74441 86600 90000=
07643,1997-07-14 03:00:00,19,1017.9,0.1,100,19,1500,3.704,,,60,,,,,,,,,,10,wg-a,,,,AAXX 14034 07643 12115 70602 10190 20190 30170 40179 53001 60006 71042 876// 90300=
07643,1997-07-14 06:00:00,20,1018.3,0.4,94,19,500,0,,,0,18.7,21.1,,,,,,,,1,wg-a,,,,AAXX 14064 07643 02200 /0000 10200 20190 30174 40183 50004 60006 70142 86600 90600 333 10211 20187 60004=
07643,1997-07-14 09:00:00,25,1018.9,0.6,74,20,9000,11.112,,,170,,,,,,,,,,,wg-a,,,,AAXX 14094 07643 12/59 /1706 10250 20200 30180 40189 51006 60006 81032 90900=
07643,1997-07-14 12:00:00,27,1018.4,-0.5,58,18,10000,14.816,,,190,,,,,,,,,,,wg-a,,,,AAXX 14124 07643 12660 /1908 10270 20180 30175 40184 58005 60006 81102 91200=
07643,1997-07-14 15:00:00,27,1017.7,-0.7,58,18,20000,22.224,,,210,,,,,,,,,,,wg-a,,,,AAXX 14154 07643 12670 /2112 10270 20180 30168 40177 58007 60006 81230 91500=
07643,1997-07-14 18:00:00,25,1017.7,-0,61,17,40000,14.816,,,210,20,27.5,,,,,,,,,wg-a,,,,AAXX 14184 07643 12/82 32108 10250 20170 30168 40177 55000 60006 83050 91800 333 10275 20200=
07643,1997-07-14 21:00:00,24,1019.6,1.9,69,18,18000,7.408,,,50,,,,,,,,,,,wg-a,,,,AAXX 14214 07643 12/68 20504 10240 20180 30187 40196 53019 60006 82030 92100=
07643,1997-07-15 00:00:00,23,1019.8,0.2,69,17,18000,7.408,,,280,,,,,,,,,,,wg-a,,,,AAXX 15004 07643 12768 12804 10230 20170 30189 40198 51002 60006 81500 90000=
07643,1997-07-15 06:00:00,23,1019.8,-0,69,17,25000,7.408,,,300,19.6,25.1,,,,,,,,,wg-a,,,,AAXX 15064 07643 02/75 43004 10230 20170 30189 40198 55000 60006 80001 90600 333 10251 20196 60004=
07643,1997-07-15 09:00:00,29,1020.1,0.3,45,16,25000,22.224,,,30,,,,,,,,,,,wg-a,,,,AAXX 15094 07643 12/75 40312 10290 20160 30192 40201 50003 60006 80001 90900=
07643,1997-07-15 12:00:00,32,1018.9,-1.2,38,16,25000,11.112,,,50,,,,,,,,,,,wg-a,,,,AAXX 15124 07643 12775 40506 10320 20160 30180 40189 58012 60006 81102 91200=
07643,1997-07-15 18:00:00,29,1017.2,-0.9,55,19,20000,3.704,,,170,23.2,32.4,,,,,,,,,wg-a,,,,AAXX 15184 07643 12/70 61702 10290 20190 30163 40172 56009 60006 80002 91800 333 10324 20232=
07643,1997-07-15 21:00:00,26,1017.1,-0.1,54,16,18000,11.112,,,20,,,,,,,,,,,wg-a,,,,AAXX 15214 07643 12/68 50206 10260 20160 30162 40171 56001 60006 80002 92100=
07643,1997-07-16 00:00:00,24,1017.4,0.3,54,14,10000,14.816,,,20,,,,,,,,,,,wg-a,,,,AAXX 16004 07643 12/60 /0208 10240 20140 30165 40174 51003 60006 90000=
07643,1997-07-16 03:00:00,22,1016.8,-0.6,57,13,18000,14.816,,,20,,,,,,,,,,,wg-a,,,,AAXX 16034 07643 12/68 30208 10220 20130 30159 40168 56006 60006 80001 90300=
07643,1997-07-16 06:00:00,24,1016,-0.8,47,12,75000,14.816,,,30,21.7,29.3,,,,,,,,,wg-a,,,,AAXX 16064 07643 02/89 70308 10240 20120 30151 40160 55008 60006 80002 90600 333 10293 20217 60004=
07643,1997-07-16 12:00:00,28,1014.5,-1.6,48,16,500,14.816,,,50,,,,,,,,,,,wg-a,,,,AAXX 16124 07643 12600 80508 10280 20160 30136 40145 58016 60006 8582/ 91200=
07643,1997-07-16 15:00:00,26,1015,0.5,58,17,500,14.816,,,180,,,,,,,,,,,wg-a,,,,AAXX 16154 07643 12700 81808 10260 20170 30141 40150 50005 60006 835/2 91500=
07643,1997-07-16 18:00:00,26,1012.9,-2.1,54,16,25000,18.52,,,100,23.7,30.6,,,,,,,,,wg-a,,,,AAXX 16184 07643 12/75 71010 10260 20160 30120 40129 58021 60006 83072 91800 333 10306 20237=
07643,1997-07-17 00:00:00,22,1012,-0.6,65,15,15000,7.408,,,330,,,,,,,,,,,wg-a,,,,AAXX 17004 07643 12/65 33304 10220 20150 30111 40120 58006 60006 80002 90000=
07643,1997-07-17 06:00:00,19,1010,-0.1,94,18,8000,14.816,,,20,19.2,25.8,,,,,,,,80,wg-a,,,,AAXX 17064 07643 02158 70208 10190 20180 30091 40100 57001 61000 78086 879// 90600 333 10258 20192 6003=
07643,1997-07-17 12:00:00,23,1010.4,0.4,83,20,12000,25.928,,,310,,,,10,,,,,,29,wg-a,,,,AAXX 17124 07643 02562 73114 10230 20200 30095 40104 50004 60106 72998 84983 91200 333 60107=
07643,1997-07-17 15:00:00,22,1010.3,-0.1,83,19,15000,14.816,,,280,,,,,,,,,,,wg-a,,,,AAXX 17154 07643 12565 72808 10220 20190 30094 40103 56001 60006 879// 91500=
07643,1997-07-17 18:00:00,24,1010.6,0.3,69,18,20000,18.52,,,290,19.4,24.4,,,,,,,,,wg-a,,,,AAXX 17184 07643 12570 72910 10240 20180 30097 40106 53003 60006 85983 91800 333 10244 20194=
07643,1997-07-17 21:00:00,22,1012.4,1.8,83,19,15000,14.816,,,280,,,,,,,,,,25,wg-a,,,,AAXX 17214 07643 02665 52808 10220 20190 30115 40124 51018 61000 72586 82233 92100 333 ////=
07643,1997-07-18 00:00:00,21,1013.4,1,73,16,20000,18.52,,,270,,,,,,,,,,1,wg-a,,,,AAXX 18004 07643 02/70 02710 10210 20160 30125 40134 52010 61000 70186 80000 90000 333 ////=
07643,1997-07-18 06:00:00,20,1014.5,0.8,68,14,25000,29.632,,,270,18.7,24.1,,,,,10,,,,wg-a,,,,AAXX 18064 07643 02675 52716 10200 20140 30136 40145 53008 60006 82542 90600 333 10241 20187 60104=
07643,1997-07-18 09:00:00,24,1014.5,-0,47,12,75000,31.484,,,290,,,,,,,,,,,wg-a,,,,AAXX 18094 07643 12689 42917 10240 20120 30136 40145 55000 60006 82242 90900=
07643,1997-07-18 12:00:00,28,1013.8,-0.7,30,9,75000,31.484,,,320,,,,,,,,,,,wg-a,,,,AAXX 18124 07643 12789 33217 10280 20090 30129 40138 56007 60006 83240 91200=
07643,1997-07-18 15:00:00,28,1013.9,0.1,27,7,75000,31.484,,,320,,,,,,,,,,,wg-a,,,,AAXX 18154 07643 12789 33217 10280 20070 30130 40139 53001 60006 83200 91500=
07643,1997-07-18 18:00:00,26,1014.6,0.7,32,8,75000,29.632,,,320,20,29.1,,,,,,,,,wg-a,,,,AAXX 18184 07643 12789 23216 10260 20080 30137 40146 53007 60006 82200 91800 333 10291 20200=
07643,1997-07-18 21:00:00,23,1017.5,2.9,41,9,18000,22.224,,,320,,,,,,,,,,,wg-a,,,,AAXX 18214 07643 12768 13212 10230 20090 30166 40175 51029 60006 81500 92100=
07643,1997-07-19 00:00:00,21,1018.6,1.1,49,10,18000,22.224,,,310,,,,,,,,,,,wg-a,,,,AAXX 19004 07643 12/68 03112 10210 20100 30177 40186 50011 60006 80000 90000=
07643,1997-07-19 03:00:00,17,1018.6,-0.1,63,10,18000,7.408,,,310,,,,,,,,,,,wg-a,,,,AAXX 19034 07643 12/68 03104 10170 20100 30176 40186 55001 60006 80000 90300=
07643,1997-07-19 06:00:00,19,1019.8,1.3,60,11,40000,18.52,,,310,16.2,26.2,,,,,,,,,wg-a,,,,AAXX 19064 07643 02/82 03110 10190 20110 30189 40198 53013 60006 80000 90600 333 10262 20162 60004=
07643,1997-07-19 09:00:00,24,1019.5,-0.3,38,9,500,29.632,,,320,,,,,,,,,,,wg-a,,,,AAXX 19094 07643 12700 33216 10240 20090 30186 40195 58003 60006 83100 90900=
07643,1997-07-19 12:00:00,27,1018.4,-1.1,30,8,500,22.224,,,350,,,,,,,,,,,wg-a,,,,AAXX 19124 07643 12700 33512 10270 20080 30175 40184 58011 60006 83100 91200=
07643,1997-07-19 15:00:00,27,1018,-0.4,32,9,500,25.928,,,340,,,,,,,,,,,wg-a,,,,AAXX 19154 07643 12700 33414 10270 20090 30171 40180 56004 60006 83100 91500=
07643,1997-07-19 18:00:00,26,1018.4,0.4,34,9,40000,31.484,,,350,18.8,28.1,,,,,,,,,wg-a,,,,AAXX 19184 07643 12782 13517 10260 20090 30175 40184 53004 60006 81400 91800 333 10281 20188=
07643,1997-07-19 21:00:00,22,1019.5,1.1,50,11,40000,18.52,,,330,,,,,,,,,,,wg-a,,,,AAXX 19214 07643 12/82 03310 10220 20110 30186 40195 52011 60006 80000 92100=
07643,1997-07-20 00:00:00,21,1018.7,-0.8,49,10,40000,22.224,,,320,,,,,,,,,,,wg-a,,,,AAXX 20004 07643 12/82 03212 10210 20100 30178 40187 58008 60006 80000 90000=
07643,1997-07-20 03:00:00,18,1018,-0.8,64,11,40000,11.112,,,280,,,,,,,,,,,wg-a,,,,AAXX 20034 07643 12/82 02806 10180 20110 30170 40180 58008 60006 80000 90300=
07643,1997-07-20 06:00:00,19,1018.4,0.5,60,11,60000,11.112,,,300,17.4,25.5,,,,,,,,,wg-a,,,,AAXX 20064 07643 02/86 33006 10190 20110 30175 40184 52005 60006 80001 90600 333 10255 20174 60004=
07643,1997-07-20 09:00:00,26,1018.2,-0.2,32,8,50000,31.484,,,360,,,,,,,,,,,wg-a,,,,AAXX 20094 07643 12/84 43617 10260 20080 30173 40182 58002 60006 80001 90900=
07643,1997-07-20 12:00:00,29,1017.1,-1.1,29,9,50000,25.928,,,20,,,,,,,,,,,wg-a,,,,AAXX 20124 07643 12784 60214 10290 20090 30162 40171 58011 60006 815/1 91200=
07643,1997-07-20 15:00:00,30,1015.7,-1.4,25,8,40000,14.816,,37.04,340,,,,,,,,,,,wg-a,,,,AAXX 20154 07643 12882 23408 10300 20080 30148 40157 56014 60006 82501 91500 333 91020=
07643,1997-07-20 18:00:00,29,1015.2,-0.5,31,10,40000,7.408,,,220,19.4,31.2,,,,,,,,,wg-a,,,,AAXX 20184 07643 12/82 02204 10290 20100 30143 40152 55005 60006 80000 91800 333 10312 20194=
07643,1997-07-20 21:00:00,23,1016.6,1.4,50,12,10000,7.408,,,350,,,,,,,,,,,wg-a,,,,AAXX 20214 07643 12/60 /3504 10230 20120 30157 40166 53014 60006 92100=
07643,1997-07-21 00:00:00,20,1016.8,0.2,60,12,0,0,,,0,,,,,,,,,,,wg-a,,,,AAXX 21004 07643 12/// /0000 10200 20120 30159 40168 51002 60006 90000=
07643,1997-07-21 06:00:00,21,1016.3,0.2,49,10,75000,14.816,,,350,18.4,28.8,,,,,,,,,wg-a,,,,AAXX 21064 07643 02/89 33508 10210 20100 30154 40163 53002 60006 80001 90600 333 10288 20184 60004=
07643,1997-07-21 09:00:00,25,1016.7,0.4,34,8,75000,22.224,,38.892,20,,,,,,,,,,,wg-a,,,,AAXX 21094 07643 12/89 60212 10250 20080 30158 40167 51004 60006 81082 90900 333 91021=
07643,1997-07-21 12:00:00,29,1015.8,-0.9,25,7,75000,7.408,,,350,,,,,,,,,,,wg-a,,,,AAXX 21124 07643 12/89 33504 10290 20070 30149 40158 58009 60006 81042 91200=
07643,1997-07-21 15:00:00,29,1014.9,-0.9,23,6,10000,14.816,,,210,,,,,,,,,,,wg-a,,,,AAXX 21154 07643 12/60 /2108 10290 20060 30140 40149 58009 60006 91500=
07643,1997-07-21 18:00:00,26,1014.5,-0.4,39,11,75000,18.52,,,240,21.4,29.3,,,,,,,,,wg-a,,,,AAXX 21184 07643 12/89 32410 10260 20110 30136 40145 55004 60006 80001 91800 333 10293 20214=
07643,1997-07-21 21:00:00,20,1016.2,1.7,73,15,60000,3.704,,,220,,,,,,,,,,,wg-a,,,,AAXX 21214 07643 12/86 32202 10200 20150 30153 40162 51017 60006 80001 92100=
07643,1997-07-22 00:00:00,19,1016.3,0.1,68,13,50000,7.408,,,350,,,,,,,,,,,wg-a,,,,AAXX 22004 07643 12/84 53504 10190 20130 30154 40163 50001 60006 80001 90000=
07643,1997-07-22 03:00:00,18,1015.8,-0.5,64,11,40000,0,,,0,,,,,,,,,,,wg-a,,,,AAXX 22034 07643 12/82 70000 10180 20110 30149 40158 58005 60006 80001 90300=
07643,1997-07-22 06:00:00,19,1017.2,1.4,64,12,40000,7.408,,,10,16.3,25.7,,,,,,,,,wg-a,,,,AAXX 22064 07643 02/82 60104 10190 20120 30163 40172 51014 60006 83031 90600 333 10257 20163 60004=
07643,1997-07-22 12:00:00,23,1017.3,0.7,73,18,15000,18.52,,,160,,,,,,,,,,,wg-a,,,,AAXX 22124 07643 12/65 61610 10230 20180 30164 40173 51007 60006 81032 91200=
07643,1997-07-22 15:00:00,25,1017.2,-0.1,54,15,25000,14.816,,,170,,,,,,,,,,,wg-a,,,,AAXX 22154 07643 12/75 21708 10250 20150 30163 40172 55001 60006 80002 91500=
07643,1997-07-22 18:00:00,22,1016.9,-0.3,78,18,25000,11.112,,,180,18.7,25.8,,,,,,,,,wg-a,,,,AAXX 22184 07643 12575 /1806 10220 20180 30160 40169 55003 60006 82263 91800 333 10258 20187=
07643,1997-07-22 21:00:00,20,1017.5,0.6,88,18,10000,7.408,,,160,,,,,,,,,,,wg-a,,,,AAXX 22214 07643 12/60 /1604 10200 20180 30166 40175 53006 60006 92100=
07643,1997-07-23 00:00:00,19,1017.5,0,88,17,12000,7.408,,,20,,,,,,,,,,,wg-a,,,,AAXX 23004 07643 12/62 20204 10190 20170 30166 40175 50000 60006 80001 90000=
07643,1997-07-23 06:00:00,19,1017.5,0.7,68,13,20000,3.704,,,310,16.3,22,,,,,,,,,wg-a,,,,AAXX 23064 07643 02/70 13102 10190 20130 30166 40175 53007 60006 81030 90600 333 10220 20163 60004=
07643,1997-07-23 09:00:00,27,1017.3,-0.2,48,15,20000,7.408,,,50,,,,,,,,,,,wg-a,,,,AAXX 23094 07643 12/70 10504 10270 20150 30164 40173 58002 60006 81032 90900=
07643,1997-07-23 12:00:00,29,1016.7,-0.6,37,13,20000,11.112,,,180,,,,,,,,,,,wg-a,,,,AAXX 23124 07643 12/70 11806 10290 20130 30158 40167 58006 60006 80002 91200=
07643,1997-07-23 18:00:00,27,1015,-0.2,39,12,25000,11.112,,,230,19.4,31.1,,,,,,,,,wg-a,,,,AAXX 23184 07643 12/75 72306 10270 20120 30141 40150 58002 60006 83082 91800 333 10311 20194=
07643,1997-07-24 00:00:00,22,1015,-0.1,65,15,20000,7.408,,,20,,,,,,,,,,,wg-a,,,,AAXX 24004 07643 12870 70204 10220 20150 30141 40150 58001 60006 81582 90000=
07643,1997-07-24 06:00:00,24,1015,0.9,61,16,20000,7.408,,,350,20.7,26.9,,,,,,,,,wg-a,,,,AAXX 24064 07643 02670 73504 10240 20160 30141 40150 53009 60006 8628/ 90600 333 10269 20207 60004=
07643,1997-07-24 09:00:00,27,1015.2,0.2,58,18,20000,3.704,,,50,,,,,,,,,,1,wg-a,,,,AAXX 24094 07643 02/70 50502 10270 20180 30143 40152 53002 61000 70162 83032 90900 333 ////=
07643,1997-07-24 12:00:00,28,1014.8,-0.4,55,18,25000,14.816,,,160,,,,,,,,,,3,wg-a,,,,AAXX 24124 07643 02675 /1608 10280 20180 30139 40148 58004 61000 70362 81202 91200 333 ////=
07643,1997-07-24 15:00:00,29,1014.2,-0.6,52,18,25000,7.408,,,320,,,,,,,,,,,wg-a,,,,AAXX 24154 07643 12675 73204 10290 20180 30133 40142 55006 60006 82982 91500=
07643,1997-07-24 18:00:00,27,1014.7,0.5,51,16,500,29.632,,,310,22.7,31,,,,,,,,,wg-a,,,,AAXX 24184 07643 12600 53116 10270 20160 30138 40147 53005 60006 81282 91800 333 10310 20227=
07643,1997-07-24 21:00:00,25,1016.2,1.5,57,16,15000,25.928,,,300,,,,,,,,,,,wg-a,,,,AAXX 24214 07643 12/65 33014 10250 20160 30153 40162 53015 60006 83042 92100=
07643,1997-07-25 00:00:00,24,1016.8,0.6,38,9,15000,31.484,,,310,,,,,,,,,,,wg-a,,,,AAXX 25004 07643 12/65 33117 10240 20090 30159 40168 52006 60006 83042 90000=
07643,1997-07-25 03:00:00,22,1016.6,-0.2,38,7,15000,25.928,,,300,,,,,,,,,,,wg-a,,,,AAXX 25034 07643 12765 43014 10220 20070 30157 40166 57002 60006 81542 90300=
07643,1997-07-25 06:00:00,22,1017.2,0.6,46,10,40000,38.892,,59.264,300,20.2,26.8,,,,,,,,,wg-a,,,,AAXX 25064 07643 02782 73021 10220 20100 30163 40172 53006 60006 82542 90600 333 10268 20202 61000 91032=
07643,1997-07-25 09:00:00,25,1018.2,1,50,14,40000,29.632,,,300,,,,,,,,,,,wg-a,,,,AAXX 25094 07643 12782 73016 10250 20140 30173 40182 52010 60006 83542 90900=
07643,1997-07-25 12:00:00,27,1017.6,-0.6,45,14,0,38.892,,,320,,,,,,,,,,,wg-a,,,,AAXX 25124 07643 12/// /3221 10270 20140 30167 40176 58006 60006 91200=
07643,1997-07-25 18:00:00,25,1017.2,0.4,54,15,40000,29.632,,,320,21.5,28.1,,,,,,,,,wg-a,,,,AAXX 25184 07643 12782 73216 10250 20150 30163 40172 53004 60006 84542 91800 333 10281 20215=
07643,1997-07-25 21:00:00,24,1018.3,1.1,57,15,18000,29.632,,,310,,,,,,,,,,,wg-a,,,,AAXX 25214 07643 12668 33116 10240 20150 30174 40183 52011 60006 81541 92100=
07643,1997-07-26 00:00:00,23,1018.4,0.1,65,16,18000,25.928,,,300,,,,,,,,,,,wg-a,,,,AAXX 26004 07643 12/68 13014 10230 20160 30175 40184 53001 60006 81040 90000=
07643,1997-07-26 03:00:00,21,1017.8,-0.6,73,16,18000,14.816,,,250,,,,,,,,,,,wg-a,,,,AAXX 26034 07643 12668 /2508 10210 20160 30169 40178 58006 60006 81540 90300=
07643,1997-07-26 06:00:00,24,1018.1,0.3,61,16,40000,14.816,,,300,20.8,24.9,,,,,,,,,wg-a,,,,AAXX 26064 07643 02682 33008 10240 20160 30172 40181 52003 60006 82501 90600 333 10249 20208 60004=
07643,1997-07-26 09:00:00,28,1017.8,-0.3,45,15,50000,11.112,,,340,,,,,,,,,,,wg-a,,,,AAXX 26094 07643 12684 33406 10280 20150 30169 40178 58003 60006 82101 90900=
07643,1997-07-26 12:00:00,32,1017.1,-0.7,34,14,75000,25.928,,,330,,,,,,,,,,,wg-a,,,,AAXX 26124 07643 12689 23314 10320 20140 30162 40171 58007 60006 81101 91200=
07643,1997-07-26 18:00:00,30,1016.3,0.2,40,15,50000,18.52,,,20,23.7,32.8,,,,,,,,,wg-a,,,,AAXX 26184 07643 12/84 50210 10300 20150 30154 40163 53002 60006 80001 91800 333 10328 20237=
07643,1997-07-26 21:00:00,26,1017.9,1.6,54,16,50000,18.52,,,330,,,,,,,,,,,wg-a,,,,AAXX 26214 07643 12/84 53310 10260 20160 30170 40179 52016 60006 80001 92100=
07643,1997-07-27 00:00:00,23,1017.8,-0.1,61,15,50000,11.112,,,300,,,,,,,,,,,wg-a,,,,AAXX 27004 07643 12/84 33006 10230 20150 30169 40178 58001 60006 80001 90000=
07643,1997-07-27 03:00:00,20,1017.8,-0,73,15,10000,7.408,,,340,,,,,,,,,,,wg-a,,,,AAXX 27034 07643 12/60 /3404 10200 20150 30169 40178 55000 60006 90300=
07643,1997-07-27 06:00:00,22,1018.7,0.9,69,16,75000,3.704,,,290,18.3,30.4,,,,,,,,,wg-a,,,,AAXX 27064 07643 02/89 42902 10220 20160 30178 40187 53009 60006 81081 90600 333 10304 20183 60004=
07643,1997-07-27 09:00:00,28,1018.9,0.2,45,15,50000,14.816,,,360,,,,,,,,,,,wg-a,,,,AAXX 27094 07643 12/84 53608 10280 20150 30180 40189 51002 60006 81081 90900=
07643,1997-07-27 12:00:00,30,1018.3,-0.6,43,16,11000,14.816,,,210,,,,,,,,,,,wg-a,,,,AAXX 27124 07643 12/61 /2108 10300 20160 30174 40183 58006 60006 91200=
07643,1997-07-27 15:00:00,30,1017.4,-0.9,43,16,50000,22.224,,,190,,,,,,,,,,,wg-a,,,,AAXX 27154 07643 12684 41912 10300 20160 30165 40174 56009 60006 81132 91500=
07643,1997-07-27 18:00:00,27,1016.9,-0.5,54,17,50000,14.816,,,240,21.9,31.4,,,,,,,,,wg-a,,,,AAXX 27184 07643 12784 72408 10270 20170 30160 40169 55005 60006 81132 91800 333 10314 20219=
07643,1997-07-27 21:00:00,24,1018.5,1.6,65,17,500,7.408,,,60,,,,,,,,,,,wg-a,,,,AAXX 27214 07643 12/00 40604 10240 20170 30176 40185 53016 60006 80002 92100=
07643,1997-07-28 00:00:00,24,1018.5,-0,61,16,500,7.408,,,340,,,,,,,,,,,wg-a,,,,AAXX 28004 07643 12/00 43404 10240 20160 30176 40185 54000 60006 80002 90000=
07643,1997-07-28 03:00:00,22,1018.1,-0.4,69,16,25000,7.408,,,310,,,,,,,,,,,wg-a,,,,AAXX 28034 07643 12/75 33104 10220 20160 30172 40181 56004 60006 80002 90300=
07643,1997-07-28 06:00:00,23,1018.7,0.6,69,17,75000,7.408,,,320,20.6,26.8,,,,,,,,,wg-a,,,,AAXX 28064 07643 02/89 23204 10230 20170 30178 40187 53006 60006 80002 90600 333 10268 20206 60004=
07643,1997-07-28 09:00:00,29,1019.2,0.5,43,15,75000,22.224,,,40,,,,,,,,,,,wg-a,,,,AAXX 28094 07643 12/89 20412 10290 20150 30183 40192 51005 60006 80001 90900=
07643,1997-07-28 12:00:00,32,1018.4,-0.8,38,16,75000,11.112,,,160,,,,,,,,,,,wg-a,,,,AAXX 28124 07643 12/89 31606 10320 20160 30175 40184 57008 60006 80001 91200=
07643,1997-07-28 15:00:00,29,1017.5,-0.9,45,16,60000,22.224,,,190,,,,,,,,,,,wg-a,,,,AAXX 28154 07643 12786 51912 10290 20160 30166 40175 57009 60006 82201 91500=
07643,1997-07-28 18:00:00,25,1017.8,0.3,61,17,40000,14.816,,,180,23,32.2,,,,,,,,,wg-a,,,,AAXX 28184 07643 12782 41808 10250 20170 30169 40178 53003 60006 81301 91800 333 10322 20230=
07643,1997-07-28 21:00:00,22,1019.2,1.4,88,20,40000,7.408,,,90,,,,,,,,,,,wg-a,,,,AAXX 28214 07643 12782 30904 10220 20200 30183 40192 51014 60006 812/1 92100=
07643,1997-07-29 00:00:00,21,1018.9,-0.3,88,19,10000,3.704,,,360,,,,,,,,,,,wg-a,,,,AAXX 29004 07643 12/60 /3602 10210 20190 30180 40189 58003 60006 90000=
07643,1997-07-29 03:00:00,20,1018.6,-0.3,88,18,40000,3.704,,,350,,,,,,,,,,,wg-a,,,,AAXX 29034 07643 12/82 13502 10200 20180 30177 40186 57003 60006 80001 90300=
07643,1997-07-29 06:00:00,22,1018.4,-0.2,78,18,50000,3.704,,,330,19.6,25.2,,,,,,,,,wg-a,,,,AAXX 29064 07643 02/84 33302 10220 20180 30175 40184 57002 60006 80009 90600 333 10252 20196 60004=
07643,1997-07-29 09:00:00,26,1018.9,0.5,70,20,40000,11.112,,,170,,,,,,,,,,,wg-a,,,,AAXX 29094 07643 12/82 61706 10260 20200 30180 40189 51005 60006 80001 90900=
07643,1997-07-29 12:00:00,30,1018.1,-0.8,46,17,10000,22.224,,,210,,,,,,,,,,,wg-a,,,,AAXX 29124 07643 12/60 /2112 10300 20170 30172 40181 58008 60006 91200=
07643,1997-07-29 18:00:00,29,1016.1,-0.5,52,18,11000,18.52,,,240,21.8,30.2,,,,,,,,,wg-a,,,,AAXX 29184 07643 12/61 /2410 10290 20180 30152 40161 58005 60006 91800 333 10302 20218=
07643,1997-07-29 21:00:00,26,1017.2,1.1,70,20,10000,7.408,,,40,,,,,,,,,,,wg-a,,,,AAXX 29214 07643 12/60 /0404 10260 20200 30163 40172 53011 60006 92100=
07643,1997-07-30 00:00:00,24,1017.7,0.5,69,18,18000,7.408,,,360,,,,,,,,,,,wg-a,,,,AAXX 30004 07643 12/68 43604 10240 20180 30168 40177 50005 60006 80001 90000=
07643,1997-07-30 06:00:00,25,1018,0.7,57,16,40000,7.408,,,330,21.7,28.7,,,,,,,,,wg-a,,,,AAXX 30064 07643 02/82 23304 10250 20160 30171 40180 52007 60006 80001 90600 333 10287 20217 60004=
07643,1997-07-30 12:00:00,31,1017.7,-0.7,40,16,50000,14.816,,,190,,,,,,,,,,,wg-a,,,,AAXX 30124 07643 12684 31908 10310 20160 30168 40177 58007 60006 81201 91200=
07643,1997-07-30 18:00:00,26,1015.4,-0.9,58,17,25000,14.816,,,210,24.5,31,,,,,,,,,wg-a,,,,AAXX 30184 07643 12675 /2108 10260 20170 30145 40154 58009 60006 81801 91800 333 10310 20245=
07643,1997-07-30 21:00:00,24,1016.7,1.3,69,18,25000,7.408,,,10,,,,,,,,,,,wg-a,,,,AAXX 30214 07643 12775 60104 10240 20180 30158 40167 51013 60006 815/1 92100=
07643,1997-07-31 00:00:00,24,1016.9,0.2,61,16,25000,7.408,,,290,,,,,,,,,,,wg-a,,,,AAXX 31004 07643 12/75 42904 10240 20160 30160 40169 50002 60006 80001 90000=
07643,1997-07-31 03:00:00,23,1016.1,-0.8,69,17,25000,3.704,,,320,,,,,,,,,,,wg-a,,,,AAXX 31034 07643 12/75 43202 10230 20170 30152 40161 56008 60006 80001 90300=
07643,1997-07-31 06:00:00,25,1016.8,0.7,61,17,25000,11.112,,,300,22.4,26.2,,,,,,,,,wg-a,,,,AAXX 31064 07643 02/75 43006 10250 20170 30159 40168 53007 60006 82031 90600 333 10262 20224 60004=
07643,1997-07-31 09:00:00,30,1016.7,-0.1,40,15,25000,11.112,,,360,,,,,,,,,,,wg-a,,,,AAXX 31094 07643 12775 23606 10300 20150 30158 40167 58001 60006 81131 90900=
07643,1997-07-31 12:00:00,31,1015.7,-1,43,17,35000,18.52,,,190,,,,,,,,,,,wg-a,,,,AAXX 31124 07643 12781 51910 10310 20170 30148 40157 58010 60006 82202 91200=
07643,1997-07-31 18:00:00,31,1013.7,-0.4,31,12,25000,25.928,,,330,25.2,33.2,,,,,,,,,wg-a,,,,AAXX 31184 07643 12775 73314 10310 20120 30128 40137 55004 60006 81102 91800 333 10332 20252=
07643,1997-08-01 00:00:00,23,1015.1,-0.4,57,14,20000,11.112,,,40,,,,,,,,,,,wg-a,,,,AAXX 01004 07643 12/70 40406 10230 20140 30142 40151 58004 60006 80002 90000=
07643,1997-08-01 03:00:00,20,1014.2,-0.9,64,13,20000,3.704,,,20,,,,,,,,,,,wg-a,,,,AAXX 01034 07643 12/70 40202 10200 20130 30133 40142 58009 60006 80002 90300=
07643,1997-08-01 06:00:00,22,1014.2,-0,53,12,45000,11.112,,,20,18.8,31,,,,,,,,,wg-a,,,,AAXX 01064 07643 02/83 40206 10220 20120 30133 40142 55000 60006 81041 90600 333 10310 20188 60004=
07643,1997-08-01 09:00:00,27,1013.9,-0.3,34,10,60000,3.704,,,50,,,,,,,,,,,wg-a,,,,AAXX 01094 07643 12/86 10502 10270 20100 30130 40139 58003 60006 81040 90900=
07643,1997-08-01 12:00:00,32,1012.1,-1.8,21,7,60000,14.816,,,310,,,,,,,,,,,wg-a,,,,AAXX 01124 07643 12/86 /3108 10320 20070 30112 40121 56018 60006 80001 91200=
07643,1997-08-01 18:00:00,30,1011.3,0.6,38,14,25000,14.816,,,40,21.6,34,,,,,,,,,wg-a,,,,AAXX 01184 07643 12/75 10408 10300 20140 30104 40113 53006 60006 81041 91800 333 10340 20216=
07643,1997-08-01 21:00:00,25,1013.6,2.3,47,13,25000,14.816,,,20,,,,,,,,,,,wg-a,,,,AAXX 01214 07643 12/75 10208 10250 20130 30127 40136 51023 60006 81041 92100=
07643,1997-08-02 00:00:00,23,1013.7,0.1,50,12,25000,22.224,,,20,,,,,,,,,,,wg-a,,,,AAXX 02004 07643 12/75 10212 10230 20120 30128 40137 50001 60006 81041 90000=
07643,1997-08-02 06:00:00,23,1014.3,0.8,57,14,75000,7.408,,,330,20.6,30.1,,,,,,,,,wg-a,,,,AAXX 02064 07643 02/89 13304 10230 20140 30134 40143 53008 60006 80002 90600 333 10301 20206 60004=
07643,1997-08-02 09:00:00,29,1014.5,0.2,43,15,75000,29.632,,,30,,,,,,,,,,,wg-a,,,,AAXX 02094 07643 12/89 10316 10290 20150 30136 40145 50002 60006 80002 90900=
07643,1997-08-02 12:00:00,32,1013.8,-0.7,38,16,75000,14.816,,,50,,,,,,,,,,,wg-a,,,,AAXX 02124 07643 12789 10508 10320 20160 30129 40138 58007 60006 81102 91200=
07643,1997-08-02 15:00:00,30,1013.3,-0.5,46,17,75000,25.928,,,220,,,,,,,,,,,wg-a,,,,AAXX 02154 07643 12789 12214 10300 20170 30124 40133 55005 60006 81102 91500=
07643,1997-08-02 18:00:00,27,1013,-0.3,51,16,75000,11.112,,,230,23.4,33.4,,,,,,,,,wg-a,,,,AAXX 02184 07643 12889 22306 10270 20160 30121 40130 55003 60006 81530 91800 333 10334 20234=
07643,1997-08-02 21:00:00,24,1014.5,1.5,74,19,75000,3.704,,,230,,,,,,,,,,,wg-a,,,,AAXX 02214 07643 12889 32302 10240 20190 30136 40145 51015 60006 82530 92100=
07643,1997-08-03 00:00:00,23,1014.9,0.4,78,19,50000,3.704,,,40,,,,,,,,,,,wg-a,,,,AAXX 03004 07643 12/84 10402 10230 20190 30140 40149 50004 60006 81030 90000=
07643,1997-08-03 03:00:00,21,1014.7,-0.2,83,18,50000,7.408,,,20,,,,,,,,,,,wg-a,,,,AAXX 03034 07643 12/84 00204 10210 20180 30138 40147 55002 60006 80000 90300=
07643,1997-08-03 06:00:00,24,1015.8,1.1,69,18,75000,0,,,0,20.4,27.3,,,,,,,,,wg-a,,,,AAXX 03064 07643 02/89 00000 10240 20180 30149 40158 53011 60006 80000 90600 333 10273 20204 60004=
07643,1997-08-03 09:00:00,27,1016.4,0.6,62,19,75000,7.408,,,150,,,,,,,,,,,wg-a,,,,AAXX 03094 07643 12589 /1504 10270 20190 30155 40164 51006 60006 81130 90900=
07643,1997-08-03 12:00:00,27,1016,-0.4,70,21,25000,22.224,,,180,,,,,,,,,,,wg-a,,,,AAXX 03124 07643 12575 /1812 10270 20210 30151 40160 57004 60006 81130 91200=
07643,1997-08-03 15:00:00,27,1015.6,-0.4,70,21,25000,22.224,,,200,,,,,,,,,,,wg-a,,,,AAXX 03154 07643 12575 /2012 10270 20210 30147 40156 56004 60006 81230 91500=
07643,1997-08-03 18:00:00,25,1015.2,-0.4,74,20,500,18.52,,,200,23.6,28.6,,,,,,,,,wg-a,,,,AAXX 03184 07643 12600 /2010 10250 20200 30143 40152 55004 60006 81480 91800 333 10286 20236=
07643,1997-08-03 21:00:00,22,1016.5,1.3,100,22,7000,11.112,,,200,,,,,,,,,,,wg-a,,,,AAXX 03214 07643 12157 /2006 10220 20220 30156 40165 53013 60006 86630 92100=
07643,1997-08-04 00:00:00,22,1016.6,0.1,94,21,600,3.704,,,90,,,,,,,,,,,wg-a,,,,AAXX 04004 07643 12206 70902 10220 20210 30157 40166 51001 60006 876// 90000=
07643,1997-08-04 03:00:00,22,1016.5,-0.1,94,21,7000,14.816,,,130,,,,,,,,,,,wg-a,,,,AAXX 04034 07643 12457 71308 10220 20210 30156 40165 57001 60006 876// 90300=
07643,1997-08-04 06:00:00,23,1017.2,0.7,83,20,10000,7.408,,,90,21.9,25.2,,,,,,,,,wg-a,,,,AAXX 04064 07643 02460 /0904 10230 20200 30163 40172 53007 60006 8663/ 90600 333 10252 20219 60004=
07643,1997-08-04 09:00:00,25,1017.5,0.3,74,20,9000,14.816,,,90,,,,,,,,,,,wg-a,,,,AAXX 04094 07643 12559 /0908 10250 20200 30166 40175 51003 60006 85600 90900=
07643,1997-08-04 12:00:00,26,1017.2,-0.3,74,21,15000,18.52,,,160,,,,,,,,,,,wg-a,,,,AAXX 04124 07643 12565 21610 10260 20210 30163 40172 58003 60006 81130 91200=
07643,1997-08-04 15:00:00,24,1016.9,-0.3,83,21,15000,11.112,,,190,,,,,,,,,,,wg-a,,,,AAXX 04154 07643 12/65 61906 10240 20210 30160 40169 58003 60006 84082 91500=
07643,1997-08-04 18:00:00,23,1016.2,-0.7,94,22,11000,18.52,,,150,22.7,27,,,,,,,,,wg-a,,,,AAXX 04184 07643 12261 71510 10230 20220 30153 40162 56007 60006 84682 91800 333 10270 20227=
07643,1997-08-04 21:00:00,23,1017.4,1.2,89,21,9000,7.408,,,140,,,,,,,,,,,wg-a,,,,AAXX 04214 07643 12359 71404 10230 20210 30165 40174 51012 60006 875// 92100=
07643,1997-08-05 00:00:00,23,1016.7,-0.7,89,21,9000,3.704,,,60,,,,,,,,,,,wg-a,,,,AAXX 05004 07643 12459 70602 10230 20210 30158 40167 58007 60006 875// 90000=
07643,1997-08-05 03:00:00,22,1015.8,-0.9,88,20,9000,7.408,,,20,,,,,,,,,,,wg-a,,,,AAXX 05034 07643 12459 70204 10220 20200 30149 40158 58009 60006 875// 90300=
07643,1997-08-05 06:00:00,23,1015.8,0,89,21,9000,11.112,,,30,22.4,23.3,,,,,,,,25,wg-a,,,,AAXX 05064 07643 02359 80306 10230 20210 30149 40158 50000 61000 72586 878// 90600 333 10233 20224 6100=
07643,1997-08-05 09:00:00,24,1016.4,0.6,89,22,10000,11.112,,,90,,,,,,,,,,3,wg-a,,,,AAXX 05094 07643 02360 80906 10240 20220 30155 40164 51006 61000 70386 888// 90900 333 ////=
07643,1997-08-05 12:00:00,24,1016.5,0.1,89,22,11000,18.52,,,160,,,,,,,,,,1,wg-a,,,,AAXX 05124 07643 02461 81610 10240 20220 30156 40165 53001 61000 70186 885// 91200 333 6100=
07643,1997-08-05 15:00:00,25,1014.6,-1.9,89,23,8000,11.112,,,90,,,,,,,,,,21,wg-a,,,,AAXX 05154 07643 02258 80906 10250 20230 30137 40146 58019 61000 72162 888// 91500 333 ////=
07643,1997-08-05 18:00:00,23,1014.3,-0.3,100,23,1500,18.52,,,150,22.6,25.9,,,,,,,,10,wg-a,,,,AAXX 05184 07643 12115 81510 10230 20230 30134 40143 55003 60006 71062 876// 91800 333 10259 20226=
07643,1997-08-05 21:00:00,23,1014.2,-0.1,100,23,1200,7.408,,,130,,,,,,,,,,10,wg-a,,,,AAXX 05214 07643 12112 81304 10230 20230 30133 40142 58001 60006 71042 886// 92100=
07643,1997-08-06 00:00:00,22,1014.2,0,100,22,500,7.408,,,140,,,,,,,,,,1,wg-a,,,,AAXX 06004 07643 12300 /1404 10220 20220 30133 40142 50000 60006 70142 85600 90000=
07643,1997-08-06 03:00:00,22,1013.2,-1,100,22,500,0,,,0,,,,,,,,,,,wg-a,,,,AAXX 06034 07643 12200 70000 10220 20220 30123 40132 56010 60006 875// 90300=
07643,1997-08-06 06:00:00,22,1012.8,-0.4,100,22,8000,7.408,,,330,22,23.2,,,,,,,,,wg-a,,,,AAXX 06064 07643 02458 73304 10220 20220 30119 40128 56004 60006 8663/ 90600 333 10232 20220 61000=
07643,1997-08-06 09:00:00,26,1012.8,0,74,21,10000,7.408,,,150,,,,,,,,,,,wg-a,,,,AAXX 06094 07643 12460 51504 10260 20210 30119 40128 50000 60006 84830 90900=
07643,1997-08-06 12:00:00,27,1012.4,-0.4,66,20,15000,14.816,,,170,,,,,,,,,,,wg-a,,,,AAXX 06124 07643 12565 51708 10270 20200 30115 40124 58004 60006 83232 91200=
07643,1997-08-06 15:00:00,27,1011.3,-1.1,70,21,15000,22.224,,,210,,,,,,,,,,,wg-a,,,,AAXX 06154 07643 12565 32112 10270 20210 30104 40113 56011 60006 82232 91500=
07643,1997-08-06 18:00:00,24,1011.8,0.5,83,21,15000,18.52,,,220,22.4,27.4,,,,,,,,,wg-a,,,,AAXX 06184 07643 12565 52210 10240 20210 30109 40118 53005 60006 83933 91800 333 10274 20224=
07643,1997-08-06 21:00:00,23,1012.8,1,89,21,11000,7.408,,,110,,,,,,,,,,,wg-a,,,,AAXX 06214 07643 12/61 /1104 10230 20210 30119 40128 50010 60006 92100=
07643,1997-08-07 00:00:00,23,1012.2,-0.6,89,21,10000,11.112,,,50,,,,,,,,,,,wg-a,,,,AAXX 07004 07643 12360 70506 10230 20210 30113 40122 58006 60006 875// 90000=
07643,1997-08-07 03:00:00,24,1012.1,-0.1,89,22,8000,18.52,,,110,,,,,,,,,,,wg-a,,,,AAXX 07034 07643 12/58 /1110 10240 20220 30112 40121 58001 60006 90300=
07643,1997-08-07 06:00:00,23,1012.8,0.7,94,22,7000,7.408,,,70,22.6,23.7,,,,,,,,,wg-a,,,,AAXX 07064 07643 02257 70704 10230 20220 30119 40128 51007 60006 876// 90600 333 10237 20226 60004=
07643,1997-08-07 09:00:00,25,1013.8,1,89,23,15000,25.928,,,150,,,,,,,,,,,wg-a,,,,AAXX 07094 07643 12365 71514 10250 20230 30129 40138 53010 60006 878// 90900=
07643,1997-08-07 12:00:00,26,1013.8,0,84,23,20000,29.632,,,160,,,,,,,,,,,wg-a,,,,AAXX 07124 07643 12470 61616 10260 20230 30129 40138 50000 60006 86800 91200=
07643,1997-08-07 15:00:00,26,1012.9,-0.9,84,23,20000,22.224,,,160,,,,,,,,,,,wg-a,,,,AAXX 07154 07643 12570 /1612 10260 20230 30120 40129 58009 60006 82201 91500=
07643,1997-08-07 18:00:00,24,1013.2,0.3,89,22,20000,18.52,,,170,22.7,26.7,,,,,,,,,wg-a,,,,AAXX 07184 07643 12370 71710 10240 20220 30123 40132 53003 60006 84601 91800 333 10267 20227=
07643,1997-08-07 21:00:00,24,1014.6,1.4,89,22,10000,11.112,,,120,,,,,,,,,,,wg-a,,,,AAXX 07214 07643 12360 71206 10240 20220 30137 40146 51014 60006 85601 92100=
07643,1997-08-08 00:00:00,22,1015.2,0.6,94,21,9000,7.408,,,50,,,,,,,,,,,wg-a,,,,AAXX 08004 07643 12359 /0504 10220 20210 30143 40152 52006 60006 85601 90000=
07643,1997-08-08 06:00:00,20,1016.4,1.1,100,20,500,14.816,,,20,19.3,23.7,,,,,,,,45,wg-a,,,,AAXX 08064 07643 02/05 90208 10200 20200 30155 40164 51011 60006 74541 89/// 90600 333 10237 20193 60004=
07643,1997-08-08 09:00:00,26,1017.2,0.8,65,19,25000,11.112,,,40,,,,,,,,,,1,wg-a,,,,AAXX 08094 07643 12575 20406 10260 20190 30163 40172 51008 60006 70141 81101 90900=
07643,1997-08-08 12:00:00,28,1016.9,-0.3,58,19,25000,11.112,,,170,,,,,,,,,,3,wg-a,,,,AAXX 08124 07643 12/75 41706 10280 20190 30160 40169 58003 60006 70341 81081 91200=
07643,1997-08-08 15:00:00,29,1015.5,-1.4,43,15,25000,7.408,,,190,,,,,,,,,,,wg-a,,,,AAXX 08154 07643 12/75 51904 10290 20150 30146 40155 58014 60006 81081 91500=
07643,1997-08-08 18:00:00,26,1015.3,-0.2,61,18,500,14.816,,,230,20,29,,,,,,,,,wg-a,,,,AAXX 08184 07643 12/00 42308 10260 20180 30144 40153 56002 60006 81081 91800 333 10290 20200=
07643,1997-08-09 00:00:00,22,1016.2,0.1,78,18,20000,7.408,,,330,,,,,,,,,,,wg-a,,,,AAXX 09004 07643 12/70 43304 10220 20180 30153 40162 50001 60006 80001 90000=
07643,1997-08-09 06:00:00,22,1016.6,0.7,78,18,15000,7.408,,,20,19,25.8,,,,,,,,,wg-a,,,,AAXX 09064 07643 02/65 20204 10220 20180 30157 40166 51007 60006 80001 90600 333 10258 20190 60004=
07643,1997-08-09 09:00:00,28,1016.9,0.3,55,18,10000,11.112,,,170,,,,,,,,,,,wg-a,,,,AAXX 09094 07643 12/60 01706 10280 20180 30160 40169 51003 60006 80000 90900=
07643,1997-08-09 12:00:00,30,1015.8,-1.1,52,19,12000,14.816,,,180,,,,,,,,,,,wg-a,,,,AAXX 09124 07643 12/62 01808 10300 20190 30149 40158 57011 60006 80000 91200=
07643,1997-08-09 15:00:00,30,1014.5,-1.3,52,19,17000,22.224,,,200,,,,,,,,,,,wg-a,,,,AAXX 09154 07643 12/67 02012 10300 20190 30136 40145 56013 60006 80000 91500=
07643,1997-08-09 18:00:00,28,1013.5,-1,51,17,25000,11.112,,,220,21.8,31,,,,,,,,,wg-a,,,,AAXX 09184 07643 12/75 12206 10280 20170 30126 40135 57010 60006 80001 91800 333 10310 20218=
07643,1997-08-09 21:00:00,25,1014.6,1.1,79,21,20000,7.408,,,240,,,,,,,,,,,wg-a,,,,AAXX 09214 07643 12/70 32404 10250 20210 30137 40146 51011 60006 80001 92100=
07643,1997-08-10 00:00:00,23,1015.2,0.6,73,18,10000,0,,,0,,,,,,,,,,,wg-a,,,,AAXX 10004 07643 12/60 /0000 10230 20180 30143 40152 53006 60006 90000=
07643,1997-08-10 03:00:00,21,1014.6,-0.6,78,17,20000,7.408,,,10,,,,,,,,,,,wg-a,,,,AAXX 10034 07643 12/70 20104 10210 20170 30137 40146 56006 60006 80001 90300=
07643,1997-08-10 06:00:00,22,1015.4,0.8,78,18,20000,3.704,,,10,20.1,27.8,,,,,,,,,wg-a,,,,AAXX 10064 07643 02/70 20102 10220 20180 30145 40154 53008 60006 80001 90600 333 10278 20201 60004=
07643,1997-08-10 09:00:00,28,1015.6,0.2,51,17,15000,7.408,,,100,,,,,,,,,,,wg-a,,,,AAXX 10094 07643 12/65 01004 10280 20170 30147 40156 51002 60006 80000 90900=
07643,1997-08-10 12:00:00,29,1015.2,-0.4,62,21,15000,11.112,,,170,,,,,,,,,,,wg-a,,,,AAXX 10124 07643 12/65 01706 10290 20210 30143 40152 58004 60006 80000 91200=
07643,1997-08-10 15:00:00,28,1014,-1.2,74,23,15000,11.112,,,180,,,,,,,,,,,wg-a,,,,AAXX 10154 07643 12/65 51806 10280 20230 30131 40140 56012 60006 80004 91500=
07643,1997-08-10 18:00:00,26,1013.3,-0.7,84,23,12000,7.408,,,140,21.8,29.5,,,,,,,,,wg-a,,,,AAXX 10184 07643 12/62 81404 10260 20230 30124 40133 58007 60006 81083 91800 333 10295 20218=
07643,1997-08-10 21:00:00,25,1013.7,0.4,89,23,11000,7.408,,,140,,,,,,,,,,,wg-a,,,,AAXX 10214 07643 12/61 71404 10250 20230 30128 40137 51004 60006 81083 92100=
07643,1997-08-11 00:00:00,25,1013.2,-0.5,89,23,11000,11.112,,,110,,,,,,,,,,,wg-a,,,,AAXX 11004 07643 12461 71106 10250 20230 30123 40132 58005 60006 81683 90000=
07643,1997-08-11 03:00:00,24,1011.3,-1.9,89,22,15000,14.816,,,50,,,,,,,,,,,wg-a,,,,AAXX 11034 07643 12/65 70508 10240 20220 30104 40113 58019 60006 82082 90300=
07643,1997-08-11 06:00:00,19,1012.6,1.3,100,19,4000,14.816,,,10,18.9,25.9,,,,,25,,,,wg-a,,,,AAXX 11064 07643 02/40 /0108 10190 20190 30117 40126 53013 60006 90600 333 10259 20189 60254=
07643,1997-08-11 09:00:00,20,1014.8,2.2,94,19,25000,14.816,,,70,,,,4,,,,,,29,wg-a,,,,AAXX 11094 07643 12575 70708 10200 20190 30139 40148 51022 60047 72998 879// 90900=
07643,1997-08-11 12:00:00,20,1015.8,1,94,19,15000,11.112,,,360,,,,0,,,,,,29,wg-a,,,,AAXX 11124 07643 02465 73606 10200 20190 30149 40158 53010 60046 72998 8493/ 91200 333 60007=
07643,1997-08-11 18:00:00,24,1018,1.4,74,19,11000,7.408,,,10,18.6,24.4,,,,,,,,,wg-a,,,,AAXX 11184 07643 12/61 /0104 10240 20190 30171 40180 53014 60006 91800 333 10244 20186=
07643,1997-08-11 21:00:00,21,1019.9,1.9,73,16,35000,11.112,,,120,,,,,,,,,,,wg-a,,,,AAXX 11214 07643 12681 51206 10210 20160 30190 40199 51019 60006 82534 92100=
07643,1997-08-12 00:00:00,19,1020.7,0.8,94,18,500,7.408,,,290,,,,,,,,,,,wg-a,,,,AAXX 12004 07643 12/00 12904 10190 20180 30198 40207 51008 60006 80002 90000=
07643,1997-08-12 03:00:00,18,1020.2,-0.5,94,17,500,3.704,,,20,,,,,,,,,,,wg-a,,,,AAXX 12034 07643 12/00 00202 10180 20170 30193 40202 57005 60006 80000 90300=
07643,1997-08-12 06:00:00,19,1021,0.8,88,17,35000,3.704,,,40,17.3,23.5,,,,,4,,,,wg-a,,,,AAXX 12064 07643 02/81 10402 10190 20170 30201 40210 53008 60006 80001 90600 333 10235 20173 60044=
07643,1997-08-12 09:00:00,26,1021.7,0.7,58,17,35000,7.408,,,50,,,,,,,,,,,wg-a,,,,AAXX 12094 07643 12/81 20504 10260 20170 30208 40217 51007 60006 80001 90900=
07643,1997-08-12 12:00:00,29,1021.3,-0.4,55,19,500,11.112,,,180,,,,,,,,,,,wg-a,,,,AAXX 12124 07643 12600 /1806 10290 20190 30204 40213 58004 60006 81101 91200=
07643,1997-08-12 15:00:00,29,1020.7,-0.6,48,17,500,14.816,,,210,,,,,,,,,,,wg-a,,,,AAXX 12154 07643 12600 /2108 10290 20170 30198 40207 57006 60006 81100 91500=
07643,1997-08-12 18:00:00,27,1020.5,-0.2,54,17,500,11.112,,,230,19.3,29.2,,,,,,,,,wg-a,,,,AAXX 12184 07643 12/00 02306 10270 20170 30196 40205 55002 60006 80000 91800 333 10292 20193=
07643,1997-08-12 21:00:00,23,1021.2,0.7,69,17,25000,3.704,,,290,,,,,,,,,,,wg-a,,,,AAXX 12214 07643 12/75 02902 10230 20170 30203 40212 53007 60006 80000 92100=
07643,1997-08-13 00:00:00,21,1021.4,0.2,78,17,0,3.704,,,310,,,,,,,,,,,wg-a,,,,AAXX 13004 07643 12/// /3102 10210 20170 30205 40214 50002 60006 90000=
07643,1997-08-13 03:00:00,19,1021.1,-0.3,88,17,25000,7.408,,,60,,,,,,,,,,,wg-a,,,,AAXX 13034 07643 12/75 00604 10190 20170 30202 40211 58003 60006 80000 90300=
07643,1997-08-13 06:00:00,20,1022.3,1.2,83,17,20000,7.408,,,20,18.5,26.5,,,,,,,,,wg-a,,,,AAXX 13064 07643 02/70 10204 10200 20170 30214 40223 53012 60006 80001 90600 333 10265 20185 60004=
07643,1997-08-13 09:00:00,26,1022.2,-0.1,65,19,20000,7.408,,,150,,,,,,,,,,,wg-a,,,,AAXX 13094 07643 12/70 01504 10260 20190 30213 40222 58001 60006 80000 90900=
07643,1997-08-13 12:00:00,28,1021.5,-0.7,58,19,25000,18.52,,,200,,,,,,,,,,,wg-a,,,,AAXX 13124 07643 12/75 12010 10280 20190 30206 40215 57007 60006 80001 91200=
07643,1997-08-13 18:00:00,26,1020.1,-0.6,84,23,10000,22.224,,,220,19.8,28.7,,,,,,,,,wg-a,,,,AAXX 13184 07643 12/60 /2212 10260 20230 30192 40201 55006 60006 91800 333 10287 20198=
07643,1997-08-13 21:00:00,25,1020.7,0.6,74,20,10000,3.704,,,300,,,,,,,,,,,wg-a,,,,AAXX 13214 07643 12/60 /3002 10250 20200 30198 40207 52006 60006 92100=
07643,1997-08-14 00:00:00,23,1020.4,-0.3,89,21,15000,0,,,0,,,,,,,,,,,wg-a,,,,AAXX 14004 07643 12/65 00000 10230 20210 30195 40204 58003 60006 80000 90000=
07643,1997-08-14 06:00:00,24,1021.2,0.6,83,21,500,7.408,,,70,21.5,26.1,,,,,,,,,wg-a,,,,AAXX 14064 07643 02/00 00704 10240 20210 30203 40212 53006 60006 80000 90600 333 10261 20215 60004=
07643,1997-08-14 09:00:00,30,1021.4,0.2,52,19,500,3.704,,,30,,,,,,,,,,,wg-a,,,,AAXX 14094 07643 12/00 00302 10300 20190 30205 40214 51002 60006 80000 90900=
07643,1997-08-14 12:00:00,29,1020.2,-1.2,62,21,500,22.224,,,160,,,,,,,,,,,wg-a,,,,AAXX 14124 07643 12600 /1612 10290 20210 30193 40202 58012 60006 81200 91200=
07643,1997-08-14 15:00:00,29,1019.5,-0.7,62,21,500,14.816,,,190,,,,,,,,,,,wg-a,,,,AAXX 14154 07643 12600 /1908 10290 20210 30186 40195 58007 60006 81203 91500=
07643,1997-08-14 18:00:00,27,1018.8,-0.7,70,21,20000,11.112,,,200,23.7,32.2,,,,,,,,,wg-a,,,,AAXX 14184 07643 12/70 12006 10270 20210 30179 40188 56007 60006 81031 91800 333 10322 20237=
07643,1997-08-14 21:00:00,24,1019.2,0.4,94,23,15000,11.112,,,210,,,,,,,,,,,wg-a,,,,AAXX 14214 07643 12/65 32106 10240 20230 30183 40192 51004 60006 81031 92100=
07643,1997-08-15 00:00:00,23,1019,-0.2,100,23,8000,3.704,,,220,,,,,,,,,,,wg-a,,,,AAXX 15004 07643 12/58 /2202 10230 20230 30181 40190 58002 60006 80001 90000=
07643,1997-08-15 03:00:00,22,1018.6,-0.4,100,22,500,7.408,,,20,,,,,,,,,,,wg-a,,,,AAXX 15034 07643 12/00 /0204 10220 20220 30177 40186 57004 60006 80001 90300=
07643,1997-08-15 06:00:00,22,1018.9,0.3,100,22,800,3.704,,,10,21.4,26.6,,,,,,,,42,wg-a,,,,AAXX 15064 07643 02/08 00102 10220 20220 30180 40189 53003 60006 74241 80000 90600 333 10266 20214 60004=
07643,1997-08-15 12:00:00,29,1018.8,-0.4,66,22,12000,18.52,,,190,,,,,,,,,,3,wg-a,,,,AAXX 15124 07643 12762 51910 10290 20220 30179 40188 58004 60006 70341 81102 91200=
07643,1997-08-15 15:00:00,28,1017.5,-1.3,79,24,12000,18.52,,,200,,,,,,,,,,,wg-a,,,,AAXX 15154 07643 12/62 72010 10280 20240 30166 40175 57013 60006 87042 91500=
07643,1997-08-15 18:00:00,29,1018,0.5,55,19,15000,3.704,,,50,21.7,30,,,,,,,,,wg-a,,,,AAXX 15184 07643 12665 /0502 10290 20190 30171 40180 53005 60006 82983 91800 333 10300 20217=
07643,1997-08-15 21:00:00,24,1018.1,0.1,74,19,18000,3.704,,,260,,,,,,,,,,,wg-a,,,,AAXX 15214 07643 12668 /2602 10240 20190 30172 40181 53001 60006 81383 92100=
07643,1997-08-16 00:00:00,23,1017.2,-0.9,78,19,20000,7.408,,,360,,,,,,,,,,,wg-a,,,,AAXX 16004 07643 12/70 53604 10230 20190 30163 40172 57009 60006 80001 90000=
07643,1997-08-16 03:00:00,22,1015.9,-1.3,78,18,20000,7.408,,,360,,,,,,,,,,,wg-a,,,,AAXX 16034 07643 12/70 63604 10220 20180 30150 40159 56013 60006 85031 90300=
07643,1997-08-16 06:00:00,24,1016.4,0.5,69,18,500,7.408,,,340,21.3,28.5,,,,,,,,,wg-a,,,,AAXX 16064 07643 02/00 63404 10240 20180 30155 40164 53005 60006 85082 90600 333 10285 20213 60004=
07643,1997-08-16 09:00:00,30,1016.9,0.5,49,18,500,3.704,,,150,,,,,,,,,,,wg-a,,,,AAXX 16094 07643 12/00 61502 10300 20180 30160 40169 51005 60006 81083 90900=
07643,1997-08-16 12:00:00,29,1016.3,-0.6,55,19,500,7.408,,,270,,,,,,,,,,61,wg-a,,,,AAXX 16124 07643 02600 72704 10290 20190 30154 40163 58006 61000 76161 81583 91200 333 6100=
07643,1997-08-16 15:00:00,27,1016.6,0.3,70,21,15000,14.816,,,320,,,,0,,,,,,61,wg-a,,,,AAXX 16154 07643 12665 73208 10270 20210 30157 40166 53003 60007 76162 8198/ 91500=
07643,1997-08-16 18:00:00,23,1016.5,-0.1,89,21,500,7.408,,,330,22.1,31.2,,,,,,,,21,wg-a,,,,AAXX 16184 07643 02600 73304 10230 20210 30156 40165 58001 61000 72196 81982 91800 333 10312 20221 6002=
07643,1997-08-16 21:00:00,22,1017.3,0.8,88,20,15000,0,,,0,,,,,,,,,,,wg-a,,,,AAXX 16214 07643 12/65 30000 10220 20200 30164 40173 53008 60006 80002 92100=
07643,1997-08-17 00:00:00,20,1017.5,0.2,100,20,20000,0,,,0,,,,,,,,,,,wg-a,,,,AAXX 17004 07643 12/70 20000 10200 20200 30166 40175 50002 60006 80001 90000=
07643,1997-08-17 03:00:00,19,1017.2,-0.3,100,19,15000,0,,,0,,,,0,,,,,,,wg-a,,,,AAXX 17034 07643 12/65 20000 10190 20190 30163 40172 56003 60007 80001 90300=
07643,1997-08-17 06:00:00,20,1017.6,0.4,94,19,500,7.408,,,310,17.5,23.1,,,,,3,,,,wg-a,,,,AAXX 17064 07643 02/00 13104 10200 20190 30167 40176 53004 60006 80001 90600 333 10231 20175 60034=
07643,1997-08-17 09:00:00,28,1017.8,0.2,45,15,40000,7.408,,,340,,,,,,,,,,,wg-a,,,,AAXX 17094 07643 12782 13404 10280 20150 30169 40178 53002 60006 81101 90900=
07643,1997-08-17 12:00:00,29,1016.9,-0.9,58,20,50000,14.816,,,200,,,,,,,,,,,wg-a,,,,AAXX 17124 07643 12684 22008 10290 20200 30160 40169 58009 60006 81201 91200=
07643,1997-08-17 15:00:00,29,1015.3,-1.6,52,18,35000,18.52,,,200,,,,,,,,,,,wg-a,,,,AAXX 17154 07643 12781 32010 10290 20180 30144 40153 58016 60006 82201 91500=
07643,1997-08-17 18:00:00,27,1015,-0.3,79,23,25000,18.52,,,200,19.5,30.2,,,,,,,,,wg-a,,,,AAXX 17184 07643 12675 /2010 10270 20230 30141 40150 55003 60006 81204 91800 333 10302 20195=
07643,1997-08-17 21:00:00,25,1016.5,1.5,79,21,20000,11.112,,,280,,,,,,,,,,,wg-a,,,,AAXX 17214 07643 12/70 42806 10250 20210 30156 40165 51015 60006 83033 92100=
07643,1997-08-18 00:00:00,23,1016.2,-0.3,89,21,20000,3.704,,,10,,,,,,,,,,,wg-a,,,,AAXX 18004 07643 12/70 50102 10230 20210 30153 40162 56003 60006 80004 90000=
07643,1997-08-18 03:00:00,21,1015.8,-0.4,88,19,15000,7.408,,,50,,,,,,,,,,,wg-a,,,,AAXX 18034 07643 12/65 70504 10210 20190 30149 40158 56004 60006 80004 90300=
07643,1997-08-18 06:00:00,21,1016.5,0.7,83,18,12000,7.408,,,340,19.5,27.2,,,,,,,,,wg-a,,,,AAXX 18064 07643 02662 43404 10210 20180 30156 40165 51007 60006 81202 90600 333 10272 20195 60004=
07643,1997-08-18 09:00:00,28,1017.4,0.9,48,16,11000,3.704,,,40,,,,,,,,,,,wg-a,,,,AAXX 18094 07643 12/61 30402 10280 20160 30165 40174 53009 60006 80002 90900=
07643,1997-08-18 12:00:00,29,1016.3,-1.1,55,19,15000,18.52,,,190,,,,,,,,,,,wg-a,,,,AAXX 18124 07643 12665 21910 10290 20190 30154 40163 57011 60006 82200 91200=
07643,1997-08-18 15:00:00,29,1015.1,-1.2,55,19,15000,25.928,,,210,,,,,,,,,,,wg-a,,,,AAXX 18154 07643 12665 32114 10290 20190 30142 40151 58012 60006 83902 91500=
07643,1997-08-18 18:00:00,23,1015.3,0.2,83,20,500,14.816,,,310,21.3,30,,1,,,,,,29,wg-a,,,,AAXX 18184 07643 02600 73108 10230 20200 30144 40153 51002 60006 72996 83902 91800 333 10300 20213 60017=
07643,1997-08-18 21:00:00,22,1016.1,0.8,78,18,25000,3.704,,,260,,,,,,,,,,,wg-a,,,,AAXX 18214 07643 12/75 32602 10220 20180 30152 40161 53008 60006 81032 92100=
07643,1997-08-19 00:00:00,21,1015.5,-0.6,83,18,25000,7.408,,,310,,,,,,,,,,,wg-a,,,,AAXX 19004 07643 12/75 33104 10210 20180 30146 40155 58006 60006 80002 90000=
07643,1997-08-19 03:00:00,19,1015.1,-0.4,88,17,25000,7.408,,,20,,,,,,,,,,,wg-a,,,,AAXX 19034 07643 12/75 50204 10190 20170 30142 40151 58004 60006 80002 90300=
07643,1997-08-19 06:00:00,20,1015.8,0.7,88,18,10000,7.408,,,10,19,23.3,,,,,1,,,,wg-a,,,,AAXX 19064 07643 02/60 /0104 10200 20180 30149 40158 52007 60006 90600 333 10233 20190 60014=
07643,1997-08-19 09:00:00,27,1016.3,0.5,51,16,25000,7.408,,,10,,,,,,,,,,,wg-a,,,,AAXX 19094 07643 12/75 30104 10270 20160 30154 40163 53005 60006 80002 90900=
07643,1997-08-19 12:00:00,30,1015.8,-0.5,46,17,25000,11.112,,,170,,,,,,,,,,,wg-a,,,,AAXX 19124 07643 12675 /1706 10300 20170 30149 40158 58005 60006 81102 91200=
07643,1997-08-19 15:00:00,29,1014.8,-1,48,17,25000,18.52,,,210,,,,,,,,,,,wg-a,,,,AAXX 19154 07643 12675 /2110 10290 20170 30139 40148 56010 60006 82902 91500=
07643,1997-08-19 18:00:00,27,1014.8,-0,54,17,25000,14.816,,,360,20.4,30.4,,,,,,,,15,wg-a,,,,AAXX 19184 07643 12675 73608 10270 20170 30139 40148 55000 60006 71522 82963 91800 333 10304 20204=
07643,1997-08-19 21:00:00,24,1015.8,1,69,18,18000,7.408,,,20,,,,,,,,,,,wg-a,,,,AAXX 19214 07643 12/68 40204 10240 20180 30149 40158 53010 60006 82061 92100=
07643,1997-08-20 00:00:00,21,1015.7,-0.1,83,18,18000,3.704,,,50,,,,,,,,,,,wg-a,,,,AAXX 20004 07643 12/68 20502 10210 20180 30148 40157 58001 60006 80001 90000=
07643,1997-08-20 03:00:00,20,1015.5,-0.2,88,18,15000,7.408,,,20,,,,,,,,,,,wg-a,,,,AAXX 20034 07643 12/65 50204 10200 20180 30146 40155 55002 60006 80009 90300=
07643,1997-08-20 06:00:00,20,1016.4,0.9,83,17,35000,7.408,,,20,18.9,27.2,,,,,,,,,wg-a,,,,AAXX 20064 07643 02/81 20204 10200 20170 30155 40164 53009 60006 82031 90600 333 10272 20189 60004=
07643,1997-08-20 09:00:00,27,1017.4,1,74,22,15000,11.112,,,100,,,,,,,,,,,wg-a,,,,AAXX 20094 07643 12765 11006 10270 20220 30165 40174 51010 60006 81100 90900=
07643,1997-08-20 12:00:00,28,1017,-0.4,66,21,12000,14.816,,,170,,,,,,,,,,,wg-a,,,,AAXX 20124 07643 12662 /1708 10280 20210 30161 40170 58004 60006 81200 91200=
07643,1997-08-20 15:00:00,28,1015.9,-1.1,70,22,12000,18.52,,,180,,,,,,,,,,,wg-a,,,,AAXX 20154 07643 12662 /1810 10280 20220 30150 40159 58011 60006 81200 91500=
07643,1997-08-20 18:00:00,25,1016.6,0.7,89,23,11000,18.52,,,170,19.7,28.6,,,,,,,,,wg-a,,,,AAXX 20184 07643 12/61 /1710 10250 20230 30157 40166 53007 60006 91800 333 10286 20197=
07643,1997-08-21 00:00:00,24,1017.5,-0,94,23,0,11.112,,,90,,,,,,,,,,,wg-a,,,,AAXX 21004 07643 12/// /0906 10240 20230 30166 40175 55000 60006 90000=
07643,1997-08-21 06:00:00,23,1019.1,0.7,94,22,3000,7.408,,,40,22.2,25.2,,,,,,,,10,wg-a,,,,AAXX 21064 07643 02230 70404 10230 20220 30176 40191 53007 60006 71011 877// 90600 333 10252 20222 60004=
07643,1997-08-21 07:00:00,23,1019.1,0.7,94,22,3000,7.408,,,40,22.2,25.2,,,,,,,,10,wg-a,,,,AAXX 21074 07643 02230 70404 10230 20220 30182 40191 53007 60006 71011 877// 90700 333 10252 20222 60004=
07643,1997-08-21 09:00:00,26,1019.8,0.7,84,23,500,3.704,,,80,,,,,,,,,,,wg-a,,,,AAXX 21094 07643 12200 70802 10260 20230 30189 40198 51007 60006 8374/ 90900=
07643,1997-08-21 12:00:00,28,1019,-0.8,70,22,11000,11.112,,,170,,,,,,,,,,,wg-a,,,,AAXX 21124 07643 12/61 /1706 10280 20220 30181 40190 58008 60006 91200=
07643,1997-08-21 18:00:00,25,1018.1,-0.2,89,23,10000,11.112,,,230,22.7,28.3,,,,,,,,80,wg-a,,,,AAXX 21184 07643 02560 82306 10250 20230 30172 40181 58002 61000 78086 83242 91800 333 10283 20227 6000=
07643,1997-08-22 00:00:00,21,1020.1,0.6,88,19,9000,7.408,,,350,,,,,,,,,,3,wg-a,,,,AAXX 22004 07643 02659 33504 10210 20190 30192 40201 51006 61000 70386 81532 90000 333 ////=
07643,1997-08-22 06:00:00,20,1020.6,0.8,83,17,25000,7.408,,,20,19,24.9,,,,,,,,,wg-a,,,,AAXX 22064 07643 02475 50204 10200 20170 30197 40206 53008 60006 83602 90600 333 10249 20190 60004=
07643,1997-08-22 09:00:00,26,1021.2,0.6,61,18,25000,7.408,,,340,,,,,,,,,,,wg-a,,,,AAXX 22094 07643 12/75 33404 10260 20180 30203 40212 51006 60006 80002 90900=
07643,1997-08-22 12:00:00,29,1020.4,-0.8,52,18,25000,11.112,,,150,,,,,,,,,,,wg-a,,,,AAXX 22124 07643 12675 /1506 10290 20180 30195 40204 58008 60006 81201 91200=
07643,1997-08-22 15:00:00,28,1018.8,-1.6,62,20,25000,18.52,,,180,,,,,,,,,,,wg-a,,,,AAXX 22154 07643 12675 41810 10280 20200 30179 40188 56016 60006 81201 91500=
07643,1997-08-22 18:00:00,26,1018.4,-0.4,79,22,20000,18.52,,,210,19.8,29.5,,,,,,,,,wg-a,,,,AAXX 22184 07643 12/70 32110 10260 20220 30175 40184 56004 60006 80001 91800 333 10295 20198=
07643,1997-08-22 21:00:00,24,1019.5,1.1,89,22,10000,11.112,,,240,,,,,,,,,,,wg-a,,,,AAXX 22214 07643 12460 /2406 10240 20220 30186 40195 51011 60006 85601 92100=
07643,1997-08-23 00:00:00,24,1019.5,-0,89,22,15000,3.704,,,310,,,,,,,,,,,wg-a,,,,AAXX 23004 07643 12465 33102 10240 20220 30186 40195 55000 60006 83601 90000=
07643,1997-08-23 03:00:00,21,1019.1,-0.4,100,21,6000,7.408,,,20,,,,,,,,,,,wg-a,,,,AAXX 23034 07643 12456 /0204 10210 20210 30182 40191 56004 60006 81601 90300=
07643,1997-08-23 06:00:00,22,1019.2,0.1,100,22,800,7.408,,,20,20.8,25.6,,,,,,,,42,wg-a,,,,AAXX 23064 07643 02308 70204 10220 20220 30183 40192 53001 60006 74241 876// 90600 333 10256 20208 60004=
07643,1997-08-23 09:00:00,27,1019.4,0.2,74,22,9000,7.408,,,120,,,,,,,,,,1,wg-a,,,,AAXX 23094 07643 12459 /1204 10270 20220 30185 40194 51002 60006 70141 83501 90900=
07643,1997-08-23 12:00:00,28,1018.9,-0.5,70,22,11000,14.816,,,190,,,,,,,,,,,wg-a,,,,AAXX 23124 07643 12/61 /1908 10280 20220 30180 40189 56005 60006 91200=
07643,1997-08-23 15:00:00,28,1017.7,-1.2,70,22,13000,18.52,,,190,,,,,,,,,,,wg-a,,,,AAXX 23154 07643 12663 /1910 10280 20220 30168 40177 58012 60006 81203 91500=
07643,1997-08-23 18:00:00,26,1017.2,-0.5,70,20,13000,14.816,,,210,22,28.3,,,,,,,,,wg-a,,,,AAXX 23184 07643 12/63 12108 10260 20200 30163 40172 55005 60006 81060 91800 333 10283 20220=
07643,1997-08-23 21:00:00,23,1017.2,-0,83,20,10000,7.408,,,280,,,,,,,,,,,wg-a,,,,AAXX 23214 07643 12/60 22804 10230 20200 30163 40172 55000 60006 82030 92100=
07643,1997-08-24 00:00:00,21,1017.3,0.1,88,19,8000,3.704,,,10,,,,,,,,,,,wg-a,,,,AAXX 24004 07643 12/58 00102 10210 20190 30164 40173 53001 60006 80000 90000=
07643,1997-08-24 03:00:00,20,1016.9,-0.4,88,18,8000,3.704,,,30,,,,,,,,,,,wg-a,,,,AAXX 24034 07643 12/58 00302 10200 20180 30160 40169 57004 60006 80000 90300=
07643,1997-08-24 06:00:00,20,1017.6,0.7,88,18,7000,7.408,,,20,18.5,25.5,,,,,,,,,wg-a,,,,AAXX 24064 07643 02/57 /0204 10200 20180 30167 40176 53007 60006 81030 90600 333 10255 20185 60004=
07643,1997-08-24 09:00:00,27,1017.8,0.2,74,22,9000,7.408,,,100,,,,,,,,,,,wg-a,,,,AAXX 24094 07643 12559 21004 10270 20220 30169 40178 52002 60006 82500 90900=
07643,1997-08-24 12:00:00,28,1017.1,-0.7,66,21,10000,14.816,,,180,,,,,,,,,,,wg-a,,,,AAXX 24124 07643 12660 /1808 10280 20210 30162 40171 58007 60006 81100 91200=
07643,1997-08-24 15:00:00,27,1015.9,-1.2,70,21,10000,18.52,,,190,,,,,,,,,,,wg-a,,,,AAXX 24154 07643 12/60 01910 10270 20210 30150 40159 58012 60006 80000 91500=
07643,1997-08-24 18:00:00,25,1014.5,-1.4,79,21,10000,14.816,,,190,19.5,28.3,,,,,,,,,wg-a,,,,AAXX 24184 07643 12/60 01908 10250 20210 30136 40145 56014 60006 80000 91800 333 10283 20195=
07643,1997-08-24 21:00:00,24,1014.5,0,83,21,9000,14.816,,,190,,,,,,,,,,,wg-a,,,,AAXX 24214 07643 12459 21908 10240 20210 30136 40145 50000 60006 82500 92100=
07643,1997-08-25 00:00:00,24,1014.4,-0.1,83,21,9000,11.112,,,190,,,,,,,,,,,wg-a,,,,AAXX 25004 07643 12/59 /1906 10240 20210 30135 40144 58001 60006 90000=
07643,1997-08-25 03:00:00,21,1013.7,-0.7,94,20,9000,7.408,,,20,,,,,,,,,,,wg-a,,,,AAXX 25034 07643 12459 30204 10210 20200 30128 40137 58007 60006 83500 90300=
07643,1997-08-25 06:00:00,21,1013.4,-0.3,94,20,9000,7.408,,,20,20.3,25.1,,,,,,,,16,wg-a,,,,AAXX 25064 07643 02459 /0204 10210 20200 30125 40134 56003 60006 71611 85200 90600 333 10251 20203 60004=
07643,1997-08-25 09:00:00,26,1013.3,-0.1,70,20,10000,29.632,,,170,,,,,,,,,,,wg-a,,,,AAXX 25094 07643 12560 61716 10260 20200 30124 40133 55001 60006 84230 90900=
07643,1997-08-25 12:00:00,28,1013.1,-0.2,66,21,15000,31.484,,,170,,,,,,,,,,,wg-a,,,,AAXX 25124 07643 12565 51717 10280 20210 30122 40131 58002 60006 84202 91200=
07643,1997-08-25 15:00:00,27,1012.4,-0.7,66,20,18000,25.928,,,170,,,,,,,,,,,wg-a,,,,AAXX 25154 07643 12568 41714 10270 20200 30115 40124 57007 60006 83230 91500=
07643,1997-08-25 18:00:00,25,1011.8,-0.6,69,19,11000,18.52,,,190,20.6,28.3,,,,,,,,,wg-a,,,,AAXX 25184 07643 12/61 /1910 10250 20190 30109 40118 56006 60006 91800 333 10283 20206=
07643,1997-08-26 00:00:00,22,1011.8,-0.4,65,15,15000,11.112,,,340,,,,,,,,,,61,wg-a,,,,AAXX 26004 07643 02565 83406 10220 20150 30109 40118 58004 61000 76162 8557/ 90000 333 6100=
07643,1997-08-26 03:00:00,20,1011.7,-0.1,94,19,15000,7.408,,,60,,,,12,,,,,,60,wg-a,,,,AAXX 26034 07643 12565 80604 10200 20190 30108 40117 58001 60127 76098 8257/ 90300=
07643,1997-08-26 06:00:00,20,1011.9,0.2,94,19,15000,7.408,,,350,19.6,25.1,,,,,,,,21,wg-a,,,,AAXX 26064 07643 02565 83504 10200 20190 30110 40119 52002 61000 72198 8157/ 90600 333 10251 20196 6012=
07643,1997-08-26 09:00:00,24,1012.4,0.5,65,17,15000,3.704,,,50,,,,,,,,,,,wg-a,,,,AAXX 26094 07643 12565 70502 10240 20170 30115 40124 53005 60006 8127/ 90900=
07643,1997-08-26 12:00:00,26,1011.8,-0.6,58,17,25000,14.816,,,170,,,,,,,,,,,wg-a,,,,AAXX 26124 07643 12575 51708 10260 20170 30109 40118 58006 60006 83832 91200=
07643,1997-08-26 18:00:00,24,1010.9,0.1,69,18,25000,11.112,,,210,19.8,26.4,,,,,,,,,wg-a,,,,AAXX 26184 07643 12/75 42106 10240 20180 30100 40109 53001 60006 83082 91800 333 10264 20198=
07643,1997-08-26 21:00:00,22,1011.1,0.2,83,19,20000,7.408,,,210,,,,,,,,,,,wg-a,,,,AAXX 26214 07643 12/70 32104 10220 20190 30102 40111 50002 60006 80002 92100=
07643,1997-08-27 00:00:00,20,1010.9,-0.2,88,18,20000,3.704,,,50,,,,,,,,,,,wg-a,,,,AAXX 27004 07643 12/70 20502 10200 20180 30100 40109 57002 60006 80002 90000=
07643,1997-08-27 06:00:00,20,1009.9,-0.2,94,19,9000,14.816,,,60,19.1,23.8,,,,,,,,,wg-a,,,,AAXX 27064 07643 02559 70608 10200 20190 30090 40099 56002 60006 8488/ 90600 333 10238 20191 60004=
07643,1997-08-27 09:00:00,26,1009.8,-0.1,74,21,12000,22.224,,,140,,,,,,,,,,,wg-a,,,,AAXX 27094 07643 12462 61412 10260 20210 30089 40098 56001 60006 8680/ 90900=
07643,1997-08-27 12:00:00,25,1008.5,-1.3,83,22,15000,38.892,,,140,,,,1,,,,,,25,wg-a,,,,AAXX 27124 07643 02265 81421 10250 20220 30076 40085 58013 60016 72586 878// 91200 333 60017=
07643,1997-08-27 15:00:00,26,1006.6,-1.9,79,22,15000,38.892,,,160,,,,,,,,,,,wg-a,,,,AAXX 27154 07643 12465 71621 10260 20220 30057 40066 58019 60006 878// 91500=
07643,1997-08-27 18:00:00,26,1005.6,-1,84,23,13000,35.188,,,150,20.3,26.9,,,,,,,,,wg-a,,,,AAXX 27184 07643 12463 71519 10260 20230 30047 40056 56010 60006 8686/ 91800 333 10269 20203=
07643,1997-08-27 21:00:00,25,1004.8,-0.8,89,23,10000,25.928,,,190,,,,,,,,,,,wg-a,,,,AAXX 27214 07643 12560 51914 10250 20230 30039 40048 56008 60006 84232 92100=
07643,1997-08-28 00:00:00,21,1005.9,1.1,78,17,15000,0,,,0,,,,,,,,,,,wg-a,,,,AAXX 28004 07643 12665 70000 10210 20170 30050 40059 50011 60006 85532 90000=
07643,1997-08-28 06:00:00,17,1008,2.1,94,16,3000,11.112,,,320,16.9,25.6,,,,,,,,61,wg-a,,,,AAXX 28064 07643 02630 83206 10170 20160 30071 40080 53021 61000 76162 8557/ 90600 333 10256 20169 6005=
07643,1997-08-28 09:00:00,17,1009.7,1.7,77,13,10000,11.112,,,310,,,,,,,,,,,wg-a,,,,AAXX 28094 07643 32/60 /3106 10170 20130 30088 40097 53017 90900=
07643,1997-08-28 12:00:00,21,1010.9,1.2,64,14,25000,11.112,,,160,,,,,,,,,,1,wg-a,,,,AAXX 28124 07643 12675 61606 10210 20140 30100 40109 51012 60026 70162 84830 91200=
07643,1997-08-28 15:00:00,22,1011.3,0.4,46,10,10000,38.892,,,310,,,,,,,,,,,wg-a,,,,AAXX 28154 07643 12/60 /3121 10220 20100 30104 40113 53004 60006 91500=
07643,1997-08-28 18:00:00,20,1013.8,2.5,53,10,50000,22.224,,,300,16.5,24.5,,,,,,,,,wg-a,,,,AAXX 28184 07643 12784 33012 10200 20100 30129 40138 53025 60006 82840 91800 333 10245 20165=
07643,1997-08-28 21:00:00,18,1016.7,2.9,64,11,50000,18.52,,,290,,,,,,,,,,,wg-a,,,,AAXX 28214 07643 12684 52910 10180 20110 30158 40167 51029 60006 83440 92100=
07643,1997-08-29 00:00:00,17,1017.8,1,68,11,50000,22.224,,,300,,,,,,,,,,,wg-a,,,,AAXX 29004 07643 12684 43012 10170 20110 30168 40178 50010 60006 82542 90000=
07643,1997-08-29 03:00:00,16,1018.3,0.5,72,11,40000,14.816,,,290,,,,,,,,,,,wg-a,,,,AAXX 29034 07643 12682 22908 10160 20110 30173 40183 51005 60006 81542 90300=
07643,1997-08-29 06:00:00,18,1019.5,1.2,64,11,40000,22.224,,,310,15.6,19.5,,,,,2,,,,wg-a,,,,AAXX 29064 07643 02582 23112 10180 20110 30185 40195 53012 60006 8153/ 90600 333 10195 20156 60024=
07643,1997-08-29 09:00:00,21,1020.5,1.1,56,12,40000,22.224,,,270,,,,,,,,,,,wg-a,,,,AAXX 29094 07643 12682 42712 10210 20120 30196 40205 53011 60006 83541 90900=
07643,1997-08-29 12:00:00,23,1020.4,-0.1,47,11,11000,22.224,,,310,,,,,,,,,,,wg-a,,,,AAXX 29124 07643 12/61 /3112 10230 20110 30195 40204 58001 60006 91200=
07643,1997-08-29 15:00:00,25,1019.5,-0.9,39,10,50000,22.224,,,300,,,,,,,,,,,wg-a,,,,AAXX 29154 07643 12684 43012 10250 20100 30186 40195 56009 60006 83441 91500=
07643,1997-08-29 18:00:00,24,1019.5,-0,41,10,10000,11.112,,,310,17.4,26.1,,,,,,,,,wg-a,,,,AAXX 29184 07643 12/60 /3106 10240 20100 30186 40195 55000 60006 91800 333 10261 20174=
07643,1997-08-30 00:00:00,18,1021.2,0.1,64,11,50000,3.704,,,350,,,,,,,,,,,wg-a,,,,AAXX 30004 07643 12/84 03502 10180 20110 30202 40212 51001 60006 80000 90000=
07643,1997-08-30 03:00:00,16,1020.8,-0.4,77,12,50000,11.112,,,310,,,,,,,,,,,wg-a,,,,AAXX 30034 07643 12/84 03106 10160 20120 30198 40208 58004 60006 80000 90300=
07643,1997-08-30 06:00:00,17,1020.7,-0.1,77,13,50000,7.408,,,20,14.8,24,,,,,,,,,wg-a,,,,AAXX 30064 07643 02/84 10204 10170 20130 30197 40207 55001 60006 81040 90600 333 10240 20148 60004=
07643,1997-08-30 09:00:00,24,1020.4,-0.2,50,13,50000,3.704,,,320,,,,,,,,,,,wg-a,,,,AAXX 30094 07643 12/84 13202 10240 20130 30195 40204 58002 60006 81040 90900=
07643,1997-08-30 12:00:00,26,1019.8,-0.6,54,16,60000,18.52,,,160,,,,,,,,,,,wg-a,,,,AAXX 30124 07643 12/86 01610 10260 20160 30189 40198 58006 60006 80000 91200=
07643,1997-08-30 15:00:00,27,1018.6,-1.2,51,16,50000,22.224,,,220,,,,,,,,,,,wg-a,,,,AAXX 30154 07643 12/84 02212 10270 20160 30177 40186 57012 60006 80000 91500=
07643,1997-08-30 18:00:00,24,1017.9,-0.7,65,17,40000,11.112,,,220,16.9,27.1,,,,,,,,,wg-a,,,,AAXX 30184 07643 12/82 02206 10240 20170 30170 40179 57007 60006 80000 91800 333 10271 20169=
07643,1997-08-30 21:00:00,21,1018.5,0.6,78,17,500,0,,,0,,,,,,,,,,,wg-a,,,,AAXX 30214 07643 12/00 00000 10210 20170 30176 40185 52006 60006 80000 92100=
07643,1997-08-31 00:00:00,19,1017.9,-0.6,83,16,0,11.112,,,360,,,,,,,,,,,wg-a,,,,AAXX 31004 07643 12/// /3606 10190 20160 30170 40179 58006 60006 90000=
07643,1997-08-31 03:00:00,17,1016.6,-1.3,88,15,500,0,,,0,,,,,,,,,,,wg-a,,,,AAXX 31034 07643 12/00 00000 10170 20150 30157 40166 58013 60006 80000 90300=
07643,1997-08-31 06:00:00,18,1017.1,0.5,88,16,75000,7.408,,,50,16.1,23.8,,,,,,,,,wg-a,,,,AAXX 31064 07643 02/89 00504 10180 20160 30162 40171 53005 60006 80000 90600 333 10238 20161 60004=
07643,1997-08-31 12:00:00,25,1017.9,0.1,83,22,20000,18.52,,,130,,,,,,,,,,,wg-a,,,,AAXX 31124 07643 12470 41310 10250 20220 30170 40179 50001 60006 84200 91200=
07643,1997-08-31 15:00:00,25,1017.1,-0.8,83,22,20000,25.928,,,140,,,,,,,,,,,wg-a,,,,AAXX 31154 07643 12470 41414 10250 20220 30162 40171 58008 60006 84200 91500=
07643,1997-08-31 18:00:00,24,1017.2,0.1,89,22,20000,14.816,,,150,18,26,,,,,,,,,wg-a,,,,AAXX 31184 07643 12470 21508 10240 20220 30163 40172 52001 60006 82401 91800 333 10260 20180=
07643,1997-08-31 21:00:00,21,1018.1,0.9,94,20,10000,7.408,,,100,,,,,,,,,,,wg-a,,,,AAXX 31214 07643 12360 21004 10210 20200 30172 40181 52009 60006 82600 92100=
07643,1997-09-01 00:00:00,21,1018.1,0,100,21,500,11.112,,,60,,,,,,,,,,42,wg-a,,,,AAXX 01004 07643 12005 70606 10210 20210 30172 40181 50000 60006 74241 876// 90000=
07643,1997-09-01 03:00:00,20,1017.9,-0.2,100,20,4000,7.408,,,60,,,,,,,,,,10,wg-a,,,,AAXX 01034 07643 12140 70604 10200 20200 30170 40179 55002 60006 71042 876// 90300=
07643,1997-09-01 06:00:00,20,1016.9,-1,100,20,8000,18.52,,,70,20.1,23.5,,,,,,,,1,wg-a,,,,AAXX 01064 07643 02258 70710 10200 20200 30160 40169 57010 60006 70142 84202 90600 333 10235 20201 60004=
07643,1997-09-01 09:00:00,23,1018.1,1.2,83,20,8000,11.112,,,70,,,,,,,,,,,wg-a,,,,AAXX 01094 07643 12458 70706 10230 20200 30172 40181 51012 60006 84232 90900=
07643,1997-09-01 12:00:00,25,1018.4,0.3,79,21,18000,18.52,,,140,,,,,,,,,,,wg-a,,,,AAXX 01124 07643 12468 /1410 10250 20210 30175 40184 53003 60006 84272 91200=
07643,1997-09-01 15:00:00,24,1017.4,-1,83,21,15000,14.816,,,140,,,,,,,,,,,wg-a,,,,AAXX 01154 07643 12465 81408 10240 20210 30165 40174 58010 60006 8487/ 91500=
07643,1997-09-01 18:00:00,23,1017.2,-0.2,78,19,15000,11.112,,,150,20.3,25.3,,,,,,,,,wg-a,,,,AAXX 01184 07643 12465 81506 10230 20190 30163 40172 57002 60006 8387/ 91800 333 10253 20203=
07643,1997-09-01 21:00:00,22,1016.3,-0.9,88,20,10000,7.408,,,100,,,,1,,,,,,21,wg-a,,,,AAXX 01214 07643 12460 81004 10220 20200 30154 40163 55009 60017 72162 8387/ 92100=
07643,1997-09-02 00:00:00,20,1017.3,1,94,19,10000,14.816,,,310,,,,0,,,,,,80,wg-a,,,,AAXX 02004 07643 02460 83108 10200 20190 30164 40173 50010 60016 78098 8497/ 90000 333 60007=
07643,1997-09-02 06:00:00,17,1018.7,0.1,100,17,25000,7.408,,,300,16.9,23.3,,,,,6,,,1,wg-a,,,,AAXX 02064 07643 02675 /3004 10170 20170 30177 40187 53001 60006 70198 82572 90600 333 10233 20169 60064=
07643,1997-09-02 09:00:00,21,1019.6,1,73,16,40000,14.816,,,310,,,,,,,,,,,wg-a,,,,AAXX 02094 07643 12682 73108 10210 20160 30187 40196 52010 60006 81282 90900=
07643,1997-09-02 12:00:00,25,1019.2,-0.4,57,16,75000,7.408,,,150,,,,,,,,,,,wg-a,,,,AAXX 02124 07643 12689 51504 10250 20160 30183 40192 58004 60006 82882 91200=
07643,1997-09-02 18:00:00,22,1018.1,0.5,60,14,40000,18.52,,,310,17.3,25.6,,,,,,,,,wg-a,,,,AAXX 02184 07643 12682 33110 10220 20140 30172 40181 53005 60006 82242 91800 333 10256 20173=
07643,1997-09-02 21:00:00,19,1019.5,1.4,73,14,40000,7.408,,,10,,,,,,,,,,,wg-a,,,,AAXX 02214 07643 12682 40104 10190 20140 30186 40195 51014 60006 82243 92100=
07643,1997-09-03 00:00:00,19,1019.3,-0.2,73,14,500,7.408,,,300,,,,,,,,,,,wg-a,,,,AAXX 03004 07643 12700 53004 10190 20140 30184 40193 58002 60006 84530 90000=
07643,1997-09-03 01:00:00,19,1018.5,-0.2,73,14,500,7.408,,,300,,,,,,,,,,,wg-a,,,,AAXX 03014 07643 12700 53004 10190 20140 30176 40185 58002 60006 84530 90100=
07643,1997-09-03 03:00:00,17,1018.4,-1,82,14,500,3.704,,,300,,,,,,,,,,,wg-a,,,,AAXX 03034 07643 12/00 23002 10170 20140 30174 40184 56010 60006 81031 90300=
07643,1997-09-03 06:00:00,17,1018.8,0.4,82,14,75000,3.704,,,340,16.4,22.2,,,,,,,,,wg-a,,,,AAXX 03064 07643 02/89 23402 10170 20140 30178 40188 53004 60006 81031 90600 333 10222 20164 60004=
07643,1997-09-03 09:00:00,24,1019.3,0.6,54,14,75000,29.632,,,20,,,,,,,,,,,wg-a,,,,AAXX 03094 07643 12689 20216 10240 20140 30184 40193 51006 60006 81131 90900=
07643,1997-09-03 12:00:00,26,1018.1,-1.2,51,15,75000,11.112,,,30,,,,,,,,,,,wg-a,,,,AAXX 03124 07643 12689 20306 10260 20150 30172 40181 58012 60006 82130 91200=
07643,1997-09-03 18:00:00,23,1018.1,0.6,73,18,50000,11.112,,,240,16.9,28.2,,,,,,,,,wg-a,,,,AAXX 03184 07643 12/84 12406 10230 20180 30172 40181 51006 60006 80001 91800 333 10282 20169=
07643,1997-09-03 21:00:00,21,1019.5,1.4,83,18,500,3.704,,,40,,,,,,,,,,,wg-a,,,,AAXX 03214 07643 12/00 00402 10210 20180 30186 40195 51014 60006 80000 92100=
07643,1997-09-04 00:00:00,20,1019.5,0,83,17,500,3.704,,,330,,,,,,,,,,,wg-a,,,,AAXX 04004 07643 12/00 03302 10200 20170 30186 40195 50000 60006 80000 90000=
07643,1997-09-04 03:00:00,18,1018.8,-0.7,88,16,500,3.704,,,340,,,,,,,,,,,wg-a,,,,AAXX 04034 07643 12/00 03402 10180 20160 30179 40188 56007 60006 80000 90300=
07643,1997-09-04 06:00:00,18,1019.5,0.7,88,16,40000,0,,,0,16.6,23.2,,,,,,,,,wg-a,,,,AAXX 04064 07643 02/82 40000 10180 20160 30186 40195 53007 60006 80001 90600 333 10232 20166 60004=
07643,1997-09-04 09:00:00,26,1019.8,0.3,54,16,40000,7.408,,,20,,,,,,,,,,,wg-a,,,,AAXX 04094 07643 12/82 50204 10260 20160 30189 40198 53003 60006 81031 90900=
07643,1997-09-04 15:00:00,28,1019,-0.8,58,19,40000,14.816,,,190,,,,,,,,,,,wg-a,,,,AAXX 04154 07643 12682 41908 10280 20190 30181 40190 58008 60006 81201 91500=
07643,1997-09-04 18:00:00,26,1017.7,0.1,61,18,40000,14.816,,,240,17.9,28.7,,,,,,,,,wg-a,,,,AAXX 04184 07643 12/82 42408 10260 20180 30168 40177 53001 60006 80001 91800 333 10287 20179=
07643,1997-09-04 21:00:00,23,1018.9,1.2,61,15,18000,7.408,,,280,,,,,,,,,,,wg-a,,,,AAXX 04214 07643 12/68 22804 10230 20150 30180 40189 51012 60006 80001 92100=
07643,1997-09-05 00:00:00,20,1018.6,-0.3,78,16,15000,3.704,,,340,,,,,,,,,,,wg-a,,,,AAXX 05004 07643 12/65 03402 10200 20160 30177 40186 58003 60006 80000 90000=
07643,1997-09-05 03:00:00,18,1018.3,-0.3,88,16,18000,7.408,,,10,,,,,,,,,,,wg-a,,,,AAXX 05034 07643 12/68 00104 10180 20160 30174 40183 56003 60006 80000 90300=
07643,1997-09-05 06:00:00,19,1019.1,0.8,83,16,25000,3.704,,,20,17.5,26.2,,,,,,,,,wg-a,,,,AAXX 05064 07643 02/75 10202 10190 20160 30182 40191 53008 60006 80001 90600 333 10262 20175 60004=
07643,1997-09-05 12:00:00,27,1019.7,-0.3,62,19,50000,14.816,,,160,,,,,,,,,,,wg-a,,,,AAXX 05124 07643 12684 /1608 10270 20190 30188 40197 57003 60006 81100 91200=
07643,1997-09-05 15:00:00,26,1019.1,-0.6,65,19,50000,11.112,,,160,,,,,,,,,,,wg-a,,,,AAXX 05154 07643 12/84 01606 10260 20190 30182 40191 58006 60006 80000 91500=
07643,1997-09-05 18:00:00,23,1019.2,0.1,89,21,15000,7.408,,,180,18.6,27.2,,,,,,,,,wg-a,,,,AAXX 05184 07643 12/65 11804 10230 20210 30183 40192 53001 60006 81040 91800 333 10272 20186=
07643,1997-09-05 21:00:00,21,1020.4,1.2,94,20,6000,3.704,,,100,,,,,,,,,,,wg-a,,,,AAXX 05214 07643 12456 31002 10210 20200 30195 40204 51012 60006 83600 92100=
07643,1997-09-06 00:00:00,18,1020.6,0.2,100,18,100,3.704,,,30,,,,,,,,,,44,wg-a,,,,AAXX 06004 07643 12101 /0302 10180 20180 30197 40206 53002 60006 74441 85600 90000=
07643,1997-09-06 03:00:00,20,1020.1,-0.5,100,20,200,7.408,,,30,,,,,,,,,,45,wg-a,,,,AAXX 06034 07643 12/02 90304 10200 20200 30192 40201 56005 60006 74544 89/// 90300=
07643,1997-09-06 06:00:00,19,1020.8,0.7,88,17,500,11.112,,,20,18,23.1,,,,,,,,1,wg-a,,,,AAXX 06064 07643 02200 70206 10190 20170 30199 40208 53007 60006 70142 876// 90600 333 10231 20180 60004=
07643,1997-09-06 09:00:00,23,1021.5,0.7,83,20,6000,7.408,,,30,,,,,,,,,,,wg-a,,,,AAXX 06094 07643 12/56 /0304 10230 20200 30206 40215 51007 60006 90900=
07643,1997-09-06 12:00:00,27,1021.1,-0.4,62,19,500,7.408,,,160,,,,,,,,,,,wg-a,,,,AAXX 06124 07643 12500 /1604 10270 20190 30202 40211 58004 60006 81100 91200=
07643,1997-09-06 18:00:00,23,1020,-0.2,89,21,20000,11.112,,,220,18.6,26.9,,,,,,,,,wg-a,,,,AAXX 06184 07643 12570 /2206 10230 20210 30191 40200 56002 60006 81200 91800 333 10269 20186=
07643,1997-09-06 21:00:00,22,1020.5,0.5,88,20,10000,3.704,,,270,,,,,,,,,,,wg-a,,,,AAXX 06214 07643 12460 /2702 10220 20200 30196 40205 50005 60006 81600 92100=
07643,1997-09-07 00:00:00,20,1021.3,0.8,94,19,9000,11.112,,,10,,,,,,,,,,,wg-a,,,,AAXX 07004 07643 12459 /0106 10200 20190 30204 40213 53008 60006 81600 90000=
07643,1997-09-07 03:00:00,19,1020.9,-0.4,94,18,9000,7.408,,,350,,,,,,,,,,,wg-a,,,,AAXX 07034 07643 12/59 03504 10190 20180 30200 40209 58004 60006 80000 90300=
07643,1997-09-07 06:00:00,20,1021.9,1,83,17,10000,3.704,,,360,18.7,22.8,,,,,,,,,wg-a,,,,AAXX 07064 07643 02/60 03602 10200 20170 30210 40219 53010 60006 80000 90600 333 10228 20187 60004=
07643,1997-09-07 09:00:00,26,1023,1.1,61,18,15000,3.704,,,300,,,,,,,,,,,wg-a,,,,AAXX 07094 07643 12/65 03002 10260 20180 30221 40230 51011 60006 80000 90900=
07643,1997-09-07 12:00:00,28,1021.6,-1.4,62,20,20000,14.816,,,210,,,,,,,,,,,wg-a,,,,AAXX 07124 07643 12670 22108 10280 20200 30207 40216 58014 60006 82200 91200=
07643,1997-09-07 18:00:00,26,1020.5,0.4,61,18,500,7.408,,,60,19.9,29,,,,,,,,,wg-a,,,,AAXX 07184 07643 12700 20604 10260 20180 30196 40205 53004 60006 82200 91800 333 10290 20199=
07643,1997-09-07 21:00:00,22,1022.3,1.8,57,13,500,14.816,,,20,,,,,,,,,,,wg-a,,,,AAXX 07214 07643 12/00 00208 10220 20130 30214 40223 51018 60006 80000 92100=
07643,1997-09-08 00:00:00,19,1022.9,0.6,64,12,500,7.408,,,350,,,,,,,,,,,wg-a,,,,AAXX 08004 07643 12/00 03504 10190 20120 30220 40229 51006 60006 80000 90000=
07643,1997-09-08 03:00:00,16,1022.2,-0.8,82,13,500,7.408,,,290,,,,,,,,,,,wg-a,,,,AAXX 08034 07643 12/00 02904 10160 20130 30212 40222 56008 60006 80000 90300=
07643,1997-09-08 06:00:00,16,1022.9,0.7,77,12,75000,7.408,,,50,15,26.3,,,,,,,,,wg-a,,,,AAXX 08064 07643 02/89 00504 10160 20120 30219 40229 53007 60006 80000 90600 333 10263 20150 60004=
07643,1997-09-08 09:00:00,24,1023.6,0.8,38,9,75000,22.224,,,20,,,,,,,,,,,wg-a,,,,AAXX 08094 07643 12789 10212 10240 20090 30227 40236 53008 60006 81130 90900=
07643,1997-09-08 12:00:00,27,1022.6,-1,39,12,50000,11.112,,,30,,,,,,,,,,,wg-a,,,,AAXX 08124 07643 12684 /0306 10270 20120 30217 40226 58010 60006 81131 91200=
07643,1997-09-08 15:00:00,27,1021.1,-1.5,51,16,500,14.816,,,200,,,,,,,,,,,wg-a,,,,AAXX 08154 07643 12/00 02008 10270 20160 30202 40211 56015 60006 80000 91500=
07643,1997-09-08 18:00:00,24,1020.9,-0.2,65,17,25000,7.408,,,240,15.8,28.3,,,,,,,,,wg-a,,,,AAXX 08184 07643 12/75 02404 10240 20170 30200 40209 56002 60006 80000 91800 333 10283 20158=
07643,1997-09-08 21:00:00,21,1022,1.1,69,15,25000,11.112,,,40,,,,,,,,,,,wg-a,,,,AAXX 08214 07643 12/75 00406 10210 20150 30211 40220 51011 60006 80000 92100=
07643,1997-09-09 03:00:00,17,1020.5,-1,77,13,25000,7.408,,,270,,,,,,,,,,,wg-a,,,,AAXX 09034 07643 12/75 02704 10170 20130 30195 40205 56010 60006 80000 90300=
07643,1997-09-09 06:00:00,17,1020.5,-0,82,14,500,7.408,,,320,15,24.2,,,,,,,,,wg-a,,,,AAXX 09064 07643 02/00 03204 10170 20140 30195 40205 55000 60006 80000 90600 333 10242 20150 60004=
07643,1997-09-09 09:00:00,25,1020.4,0,44,12,500,7.408,,,10,,,,,,,,,,,wg-a,,,,AAXX 09094 07643 12/00 00104 10250 20120 30195 40204 50000 60006 80000 90900=
07643,1997-09-09 12:00:00,28,1018.4,-2,45,15,50000,14.816,,,210,,,,,,,,,,,wg-a,,,,AAXX 09124 07643 12/84 02108 10280 20150 30175 40184 56020 60006 80000 91200=
07643,1997-09-09 18:00:00,27,1015.3,-0.9,58,18,500,3.704,,,300,16.5,28.6,,,,,,,,,wg-a,,,,AAXX 09184 07643 12/00 03002 10270 20180 30144 40153 55009 60006 80000 91800 333 10286 20165=
07643,1997-09-10 00:00:00,21,1015.8,-0.3,64,14,20000,7.408,,,360,,,,,,,,,,,wg-a,,,,AAXX 10004 07643 12/70 03604 10210 20140 30149 40158 58003 60006 80000 90000=
07643,1997-09-10 03:00:00,16,1014.8,-1.1,82,13,20000,7.408,,,340,,,,,,,,,,,wg-a,,,,AAXX 10034 07643 12/70 03404 10160 20130 30138 40148 56011 60006 80000 90300=
07643,1997-09-10 06:00:00,16,1014.9,0.1,77,12,35000,7.408,,,330,14.6,27,,,,,,,,,wg-a,,,,AAXX 10064 07643 02/81 03304 10160 20120 30139 40149 53001 60006 80000 90600 333 10270 20146 60004=
07643,1997-09-10 09:00:00,24,1015.3,0.5,44,11,35000,3.704,,,130,,,,,,,,,,,wg-a,,,,AAXX 10094 07643 12/81 01302 10240 20110 30144 40153 53005 60006 80000 90900=
07643,1997-09-10 12:00:00,29,1014.8,-0.5,22,5,35000,22.224,,,30,,,,,,,,,,,wg-a,,,,AAXX 10124 07643 12/81 00312 10290 20050 30139 40148 55005 60006 80000 91200=
07643,1997-09-10 18:00:00,25,1014.5,1.2,44,12,500,11.112,,,90,16.1,30.6,,,,,,,,,wg-a,,,,AAXX 10184 07643 12/00 00906 10250 20120 30136 40145 53012 60006 80000 91800 333 10306 20161=
07643,1997-09-11 00:00:00,18,1016.1,0.3,59,10,15000,7.408,,,20,,,,,,,,,,,wg-a,,,,AAXX 11004 07643 12/65 00204 10180 20100 30152 40161 51003 60006 80000 90000=
07643,1997-09-11 03:00:00,16,1016.2,-0,72,11,15000,7.408,,,30,,,,,,,,,,,wg-a,,,,AAXX 11034 07643 12/65 00304 10160 20110 30152 40162 54000 60006 80000 90300=
07643,1997-09-11 06:00:00,16,1016.7,0.5,72,11,15000,11.112,,,30,14.5,25,,,,,,,,,wg-a,,,,AAXX 11064 07643 02465 50306 10160 20110 30157 40167 53005 60006 85600 90600 333 10250 20145 60004=
07643,1997-09-11 09:00:00,24,1017.5,0.9,57,15,10000,11.112,,,60,,,,,,,,,,,wg-a,,,,AAXX 11094 07643 12/60 00606 10240 20150 30166 40175 53009 60006 80000 90900=
07643,1997-09-11 12:00:00,26,1016.6,-0.9,58,17,12000,14.816,,,160,,,,,,,,,,,wg-a,,,,AAXX 11124 07643 12562 /1608 10260 20170 30157 40166 58009 60006 81100 91200=
07643,1997-09-11 15:00:00,26,1015.6,-1,61,18,15000,7.408,,,190,,,,,,,,,,,wg-a,,,,AAXX 11154 07643 12665 /1904 10260 20180 30147 40156 56010 60006 81200 91500=
07643,1997-09-11 18:00:00,22,1015.3,-0.3,88,20,8000,14.816,,,150,16,26,,,,,,,,,wg-a,,,,AAXX 11184 07643 12458 /1508 10220 20200 30144 40153 56003 60006 81200 91800 333 10260 20160=
07643,1997-09-12 00:00:00,20,1016,0,94,19,500,11.112,,,30,,,,,,,,,,,wg-a,,,,AAXX 12004 07643 12100 30306 10200 20190 30151 40160 50000 60006 83600 90000=
07643,1997-09-12 03:00:00,21,1015.3,-0.7,94,20,6000,14.816,,,60,,,,,,,,,,,wg-a,,,,AAXX 12034 07643 12356 /0608 10210 20200 30144 40153 58007 60006 86600 90300=
07643,1997-09-12 06:00:00,20,1015.3,-0,88,18,7000,14.816,,,80,19.1,22.2,,,,,,,,,wg-a,,,,AAXX 12064 07643 02457 70808 10200 20180 30144 40153 55000 60006 876// 90600 333 10222 20191 60004=
07643,1997-09-12 09:00:00,23,1015.5,0.2,94,22,8000,22.224,,,140,,,,,,,,,,,wg-a,,,,AAXX 12094 07643 12358 71412 10230 20220 30146 40155 53002 60006 877// 90900=
07643,1997-09-12 12:00:00,25,1014.8,-0.7,83,22,8000,25.928,,,140,,,,,,,,,,,wg-a,,,,AAXX 12124 07643 12358 71414 10250 20220 30139 40148 58007 60006 86502 91200=
07643,1997-09-12 18:00:00,23,1012.4,-1,94,22,7000,25.928,,,130,19.7,25.6,,,,,,,,,wg-a,,,,AAXX 12184 07643 12357 71314 10230 20220 30115 40124 58010 60006 8463/ 91800 333 10256 20197=
07643,1997-09-12 21:00:00,23,1013.2,0.8,94,22,10000,22.224,,,120,,,,,,,,,,,wg-a,,,,AAXX 12214 07643 12560 /1212 10230 20220 30123 40132 51008 60006 85530 92100=
07643,1997-09-13 00:00:00,22,1013.2,0,94,21,10000,11.112,,,100,,,,,,,,,,60,wg-a,,,,AAXX 13004 07643 02360 81006 10220 20210 30123 40132 50000 61000 76062 875// 90000 333 6100=
07643,1997-09-13 03:00:00,22,1012.2,-1,94,21,10000,7.408,,,20,,,,,,,,,,21,wg-a,,,,AAXX 13034 07643 02360 80204 10220 20210 30113 40122 56010 61000 72162 876// 90300 333 ////=
07643,1997-09-13 06:00:00,22,1012.3,0.1,94,21,3000,3.704,,,350,21.5,23.4,,,,,,,,21,wg-a,,,,AAXX 13064 07643 02530 73502 10220 20210 30114 40123 53001 61000 72162 875// 90600 333 10234 20215 6001=
07643,1997-09-13 09:00:00,24,1014.3,2,65,17,10000,14.816,,,330,,,,,,,,,,,wg-a,,,,AAXX 13094 07643 12360 73308 10240 20170 30134 40143 52020 60006 8353/ 90900=
07643,1997-09-13 12:00:00,26,1015,0.7,54,16,50000,18.52,,,30,,,,,,,,,,,wg-a,,,,AAXX 13124 07643 12684 /0310 10260 20160 30141 40150 51007 60006 8383/ 91200=
07643,1997-09-13 15:00:00,25,1015,0,50,14,75000,22.224,,,350,,,,,,,,,,,wg-a,,,,AAXX 13154 07643 12689 73512 10250 20140 30141 40150 50000 60006 83870 91500=
07643,1997-09-13 18:00:00,22,1016.2,1.2,69,16,50000,11.112,,,20,21.5,26,,,,,,,,,wg-a,,,,AAXX 13184 07643 12684 60206 10220 20160 30153 40162 53012 60006 83230 91800 333 10260 20215=
07643,1997-09-13 21:00:00,19,1018.8,2.6,64,12,50000,14.816,,,20,,,,,,,,,,,wg-a,,,,AAXX 13214 07643 12684 70208 10190 20120 30179 40188 51026 60006 875// 92100=
07643,1997-09-14 00:00:00,16,1019,0.1,48,5,0,14.816,,,340,,,,,,,,,,,wg-a,,,,AAXX 14004 07643 12/// /3408 10160 20050 30180 40190 50001 60006 90000=
07643,1997-09-14 03:00:00,13,1018.9,-0.1,62,6,50000,14.816,,,290,,,,,,,,,,,wg-a,,,,AAXX 14034 07643 12/84 02908 10130 20060 30179 40189 58001 60006 80000 90300=
07643,1997-09-14 06:00:00,12,1019,0.1,62,5,75000,14.816,,,270,11.9,22,,,,,,,,,wg-a,,,,AAXX 14064 07643 02/89 52708 10120 20050 30180 40190 53001 60006 81042 90600 333 10220 20119 60004=
07643,1997-09-14 12:00:00,24,1018.9,-1,22,1,75000,18.52,,,350,,,,,,,,,,,wg-a,,,,AAXX 14124 07643 12/89 53510 10240 20010 30180 40189 58010 60006 80002 91200=
07643,1997-09-14 15:00:00,25,1017.5,-1.4,21,1,75000,22.224,,,20,,,,,,,,,,,wg-a,,,,AAXX 14154 07643 12/89 50212 10250 20010 30166 40175 56014 60006 80002 91500=
07643,1997-09-14 18:00:00,21,1018.7,1.2,33,4,75000,22.224,,,40,12.1,25.8,,,,,,,,,wg-a,,,,AAXX 14184 07643 12/89 70412 10210 20040 30178 40187 53012 60006 80002 91800 333 10258 20121=
07643,1997-09-14 21:00:00,18,1020.5,1.7,42,5,60000,11.112,,,10,,,,,,,,,,,wg-a,,,,AAXX 14214 07643 12/86 70106 10180 20050 30195 40205 51017 60006 80002 92100=
07643,1997-09-15 00:00:00,16,1020.7,0.2,48,5,50000,7.408,,,10,,,,,,,,,,,wg-a,,,,AAXX 15004 07643 12/84 50104 10160 20050 30197 40207 51002 60006 80002 90000=
07643,1997-09-15 03:00:00,14,1020.3,-0.4,55,5,50000,7.408,,,20,,,,,,,,,,,wg-a,,,,AAXX 15034 07643 12/84 30204 10140 20050 30193 40203 55004 60006 80002 90300=
07643,1997-09-15 06:00:00,16,1021,0.7,55,7,40000,14.816,,,20,13.6,20.8,,,,,,,,,wg-a,,,,AAXX 15064 07643 02682 60208 10160 20070 30200 40210 53007 60006 85532 90600 333 10208 20136 60004=
07643,1997-09-15 09:00:00,20,1022.3,1.4,49,9,40000,18.52,,,40,,,,,,,,,,,wg-a,,,,AAXX 15094 07643 12682 40410 10200 20090 30214 40223 53014 60006 82881 90900=
07643,1997-09-15 12:00:00,25,1022,-0.3,50,14,40000,11.112,,,90,,,,,,,,,,,wg-a,,,,AAXX 15124 07643 12682 50906 10250 20140 30211 40220 58003 60006 83241 91200=
07643,1997-09-15 18:00:00,21,1022.2,0.5,83,18,20000,7.408,,,180,16,25.3,,,,,,,,,wg-a,,,,AAXX 15184 07643 12770 11804 10210 20180 30213 40222 51005 60006 81400 91800 333 10253 20160=
07643,1997-09-15 21:00:00,19,1023.3,1.1,88,17,20000,0,,,0,,,,,,,,,,,wg-a,,,,AAXX 15214 07643 12470 /0000 10190 20170 30224 40233 52011 60006 81500 92100=
07643,1997-09-16 00:00:00,17,1023.4,0,94,16,20000,7.408,,,350,,,,,,,,,,,wg-a,,,,AAXX 16004 07643 12470 13504 10170 20160 30224 40234 50000 60006 81500 90000=
07643,1997-09-16 03:00:00,15,1023.1,-0.3,100,15,12000,7.408,,,30,,,,,,,,,,,wg-a,,,,AAXX 16034 07643 12662 30304 10150 20150 30221 40231 57003 60006 83500 90300=
07643,1997-09-16 06:00:00,16,1023.6,0.5,88,14,20000,7.408,,,20,15.1,20.8,,,,,,,,,wg-a,,,,AAXX 16064 07643 02770 30204 10160 20140 30226 40236 53005 60006 81530 90600 333 10208 20151 60004=
07643,1997-09-16 09:00:00,23,1024,0.5,65,16,500,7.408,,,90,,,,,,,,,,,wg-a,,,,AAXX 16094 07643 12700 10904 10230 20160 30231 40240 51005 60006 81530 90900=
07643,1997-09-16 15:00:00,23,1022,-1.6,57,14,40000,18.52,,,190,,,,,,,,,,,wg-a,,,,AAXX 16154 07643 12682 /1910 10230 20140 30211 40220 58016 60006 81201 91500=
07643,1997-09-16 18:00:00,19,1022,-0,73,14,40000,7.408,,,220,16,24.4,,,,,,,,,wg-a,,,,AAXX 16184 07643 12/82 32204 10190 20140 30211 40220 55000 60006 80002 91800 333 10244 20160=
07643,1997-09-16 21:00:00,17,1023.3,1.2,82,14,20000,3.704,,,310,,,,,,,,,,,wg-a,,,,AAXX 16214 07643 12/70 33102 10170 20140 30223 40233 52012 60006 80002 92100=
07643,1997-09-17 00:00:00,15,1023.4,0.1,88,13,20000,7.408,,,350,,,,,,,,,,,wg-a,,,,AAXX 17004 07643 12/70 33504 10150 20130 30224 40234 53001 60006 80002 90000=
07643,1997-09-17 06:00:00,13,1023.6,0.8,94,12,12000,3.704,,,60,12.7,19.3,,,,,,,,,wg-a,,,,AAXX 17064 07643 02/62 00602 10130 20120 30226 40236 52008 60006 80000 90600 333 10193 20127 60004=
07643,1997-09-17 12:00:00,25,1023.8,-0.4,41,11,40000,7.408,,,160,,,,,,,,,,,wg-a,,,,AAXX 17124 07643 12/82 01604 10250 20110 30229 40238 58004 60006 80000 91200=
07643,1997-09-17 15:00:00,25,1023.1,-0.7,36,9,50000,14.816,,,180,,,,,,,,,,,wg-a,,,,AAXX 17154 07643 12/84 11808 10250 20090 30222 40231 56007 60006 80001 91500=
07643,1997-09-17 18:00:00,20,1022.8,-0.3,73,15,500,7.408,,,230,12.9,25.3,,,,,,,,,wg-a,,,,AAXX 17184 07643 12/00 12304 10200 20150 30219 40228 55003 60006 80001 91800 333 10253 20129=
07643,1997-09-18 00:00:00,14,1024,0.3,82,11,18000,3.704,,,350,,,,,,,,,,,wg-a,,,,AAXX 18004 07643 12/68 03502 10140 20110 30230 40240 53003 60006 80000 90000=
07643,1997-09-18 06:00:00,12,1024.1,0.6,76,8,40000,11.112,,,10,11.3,19.5,,,,,,,,,wg-a,,,,AAXX 18064 07643 02/82 00106 10120 20080 30231 40241 53006 60006 80000 90600 333 10195 20113 60004=
07643,1997-09-18 09:00:00,21,1024.6,0.6,53,11,500,7.408,,,50,,,,,,,,,,,wg-a,,,,AAXX 18094 07643 12600 /0504 10210 20110 30237 40246 52006 60006 81500 90900=
07643,1997-09-18 12:00:00,24,1023.4,-1.2,50,13,500,14.816,,,170,,,,,,,,,,,wg-a,,,,AAXX 18124 07643 12/00 01708 10240 20130 30225 40234 58012 60006 80000 91200=
07643,1997-09-18 15:00:00,25,1021.9,-1.5,39,10,20000,18.52,,,200,,,,,,,,,,,wg-a,,,,AAXX 18154 07643 12/70 02010 10250 20100 30210 40219 56015 60006 80000 91500=
07643,1997-09-18 18:00:00,20,1021.5,-0.4,68,14,20000,11.112,,,230,11.5,25.1,,,,,,,,,wg-a,,,,AAXX 18184 07643 12/70 12306 10200 20140 30206 40215 55004 60006 80001 91800 333 10251 20115=
07643,1997-09-19 00:00:00,15,1021.9,-0.3,72,10,20000,7.408,,,330,,,,,,,,,,,wg-a,,,,AAXX 19004 07643 12/70 03304 10150 20100 30209 40219 57003 60006 80000 90000=
07643,1997-09-19 03:00:00,13,1021.6,-0.3,82,10,15000,3.704,,,350,,,,,,,,,,,wg-a,,,,AAXX 19034 07643 12/65 03502 10130 20100 30206 40216 55003 60006 80000 90300=
07643,1997-09-19 06:00:00,13,1021.9,0.3,82,10,12000,3.704,,,330,12.5,20.4,,,,,,,,,wg-a,,,,AAXX 19064 07643 02/62 03302 10130 20100 30209 40219 53003 60006 80000 90600 333 10204 20125 60004=
07643,1997-09-19 09:00:00,23,1022.3,0.5,50,12,20000,3.704,,,160,,,,,,,,,,,wg-a,,,,AAXX 19094 07643 12/70 01602 10230 20120 30214 40223 51005 60006 80000 90900=
07643,1997-09-19 12:00:00,24,1020.7,-1.6,57,15,500,14.816,,,180,,,,,,,,,,,wg-a,,,,AAXX 19124 07643 12/00 01808 10240 20150 30198 40207 58016 60006 80000 91200=
07643,1997-09-19 15:00:00,25,1018.9,-1.8,47,13,25000,22.224,,,220,,,,,,,,,,,wg-a,,,,AAXX 19154 07643 12/75 02212 10250 20130 30180 40189 58018 60006 80000 91500=
07643,1997-09-19 18:00:00,21,1018.7,-0.2,69,15,25000,14.816,,,230,12.8,26,,,,,,,,,wg-a,,,,AAXX 19184 07643 12/75 02308 10210 20150 30178 40187 55002 60006 80000 91800 333 10260 20128=
07643,1997-09-20 00:00:00,16,1019.2,-0.4,77,12,15000,7.408,,,330,,,,,,,,,,,wg-a,,,,AAXX 20004 07643 12/65 03304 10160 20120 30182 40192 58004 60006 80000 90000=
07643,1997-09-20 03:00:00,13,1018.5,-0.7,88,11,15000,0,,,0,,,,,,,,,,,wg-a,,,,AAXX 20034 07643 12/65 00000 10130 20110 30175 40185 57007 60006 80000 90300=
07643,1997-09-20 06:00:00,14,1019.5,1,82,11,15000,7.408,,,340,13.3,21.2,,,,,,,,,wg-a,,,,AAXX 20064 07643 02/65 13404 10140 20110 30185 40195 53010 60006 80002 90600 333 10212 20133 60004=
07643,1997-09-20 09:00:00,23,1020.1,0.7,61,15,25000,7.408,,,120,,,,,,,,,,,wg-a,,,,AAXX 20094 07643 12/75 11204 10230 20150 30192 40201 52007 60006 80002 90900=
07643,1997-09-20 12:00:00,25,1019.2,-0.9,54,15,20000,18.52,,,210,,,,,,,,,,,wg-a,,,,AAXX 20124 07643 12/70 42110 10250 20150 30183 40192 58009 60006 80004 91200=
07643,1997-09-20 18:00:00,21,1018.7,0.5,73,16,13000,3.704,,,190,14.1,25.8,,,,,,,,,wg-a,,,,AAXX 20184 07643 12663 31902 10210 20160 30178 40187 53005 60006 81943 91800 333 10258 20141=
07643,1997-09-20 21:00:00,18,1020.1,1.4,83,15,9000,0,,,0,,,,,,,,,,,wg-a,,,,AAXX 20214 07643 12659 /0000 10180 20150 30192 40201 51014 60006 81504 92100=
07643,1997-09-21 00:00:00,17,1020.8,0.6,82,14,6000,7.408,,,340,,,,,,,,,,,wg-a,,,,AAXX 21004 07643 12/56 23404 10170 20140 30198 40208 51006 60006 80001 90000=
07643,1997-09-21 06:00:00,14,1020.5,-0,94,13,10000,3.704,,,340,14.1,20.7,,,,,,,,,wg-a,,,,AAXX 21064 07643 02/60 23402 10140 20130 30195 40205 55000 60006 81031 90600 333 10207 20141 60004=
07643,1997-09-21 12:00:00,25,1020.1,-1.1,61,17,12000,11.112,,,160,,,,,,,,,,,wg-a,,,,AAXX 21124 07643 12662 41606 10250 20170 30192 40201 58011 60006 82202 91200=
07643,1997-09-21 15:00:00,24,1019.2,-0.9,65,17,10000,14.816,,,190,,,,,,,,,,,wg-a,,,,AAXX 21154 07643 12660 41908 10240 20170 30183 40192 56009 60006 82963 91500=
07643,1997-09-21 18:00:00,20,1019.7,0.5,88,18,6000,7.408,,,210,14.3,26.3,,,,,,,,,wg-a,,,,AAXX 21184 07643 12656 22104 10200 20180 30188 40197 53005 60006 81983 91800 333 10263 20143=
07643,1997-09-21 21:00:00,19,1020.7,1,94,18,4500,7.408,,,330,,,,,,,,,,10,wg-a,,,,AAXX 21214 07643 12/45 33304 10190 20180 30198 40207 51010 60006 71000 80002 92100=
07643,1997-09-22 00:00:00,17,1020.5,-0.3,88,15,4000,3.704,,,30,,,,,,,,,,10,wg-a,,,,AAXX 22004 07643 12/40 20302 10170 20150 30195 40205 58003 60006 71000 81032 90000=
07643,1997-09-22 03:00:00,15,1020.2,-0.3,88,13,8000,7.408,,,20,,,,,,,,,,,wg-a,,,,AAXX 22034 07643 12/58 20204 10150 20130 30192 40202 58003 60006 80002 90300=
07643,1997-09-22 09:00:00,22,1021.3,0.7,65,15,20000,7.408,,,70,,,,,,,,,,,wg-a,,,,AAXX 22094 07643 12/70 30704 10220 20150 30204 40213 51007 60006 82032 90900=
07643,1997-09-22 12:00:00,24,1020.3,-1,65,17,9000,14.816,,,160,,,,,,,,,,,wg-a,,,,AAXX 22124 07643 12659 21608 10240 20170 30194 40203 57010 60006 81903 91200=
07643,1997-09-22 15:00:00,25,1019.1,-1.2,54,15,12000,14.816,,,180,,,,,,,,,,,wg-a,,,,AAXX 22154 07643 12662 31808 10250 20150 30182 40191 56012 60006 82903 91500=
07643,1997-09-22 18:00:00,21,1019.4,0.3,78,17,8000,3.704,,,240,14.7,25.2,,,,,,,,,wg-a,,,,AAXX 22184 07643 12658 42402 10210 20170 30185 40194 53003 60006 82963 91800 333 10252 20147=
07643,1997-09-22 21:00:00,19,1020,0.6,88,17,10000,7.408,,,310,,,,,,,,,,,wg-a,,,,AAXX 22214 07643 12/60 03104 10190 20170 30191 40200 51006 60006 80000 92100=
07643,1997-09-23 00:00:00,17,1019.7,-0.4,88,15,8000,11.112,,,320,,,,,,,,,,,wg-a,,,,AAXX 23004 07643 12/58 03206 10170 20150 30187 40197 58004 60006 80000 90000=
07643,1997-09-23 06:00:00,15,1019.6,0.2,88,13,10000,14.816,,,10,14.7,20.7,,,,,,,,,wg-a,,,,AAXX 23064 07643 02/60 10108 10150 20130 30186 40196 53002 60006 80001 90600 333 10207 20147 60004=
07643,1997-09-23 09:00:00,22,1019.7,0.2,65,15,12000,7.408,,,90,,,,,,,,,,,wg-a,,,,AAXX 23094 07643 12/62 10904 10220 20150 30188 40197 50002 60006 80001 90900=
07643,1997-09-23 12:00:00,25,1018.5,-1.2,57,16,12000,14.816,,,190,,,,,,,,,,,wg-a,,,,AAXX 23124 07643 12662 /1908 10250 20160 30176 40185 58012 60006 81200 91200=
07643,1997-09-23 15:00:00,24,1017.1,-1.4,61,16,15000,18.52,,,220,,,,,,,,,,,wg-a,,,,AAXX 23154 07643 12665 /2210 10240 20160 30162 40171 56014 60006 81230 91500=
07643,1997-09-23 18:00:00,21,1017.3,0.2,88,19,12000,11.112,,,240,15,25.7,,,,,,,,,wg-a,,,,AAXX 23184 07643 12/62 12406 10210 20190 30164 40173 53002 60006 81030 91800 333 10257 20150=
07643,1997-09-24 00:00:00,16,1018.5,-0.1,94,15,10000,7.408,,,340,,,,,,,,,,,wg-a,,,,AAXX 24004 07643 12/60 03404 10160 20150 30175 40185 58001 60006 80000 90000=
07643,1997-09-24 06:00:00,14,1018.7,0.6,82,11,500,7.408,,,10,13.8,20.9,,,,,,,,,wg-a,,,,AAXX 24064 07643 02/00 00104 10140 20110 30177 40187 53006 60006 80000 90600 333 10209 20138 60004=
07643,1997-09-24 12:00:00,26,1017.7,-1.3,51,15,40000,14.816,,,170,,,,,,,,,,,wg-a,,,,AAXX 24124 07643 12782 11708 10260 20150 30168 40177 58013 60006 81100 91200=
07643,1997-09-24 15:00:00,25,1016.7,-1,54,15,500,18.52,,,210,,,,,,,,,,,wg-a,,,,AAXX 24154 07643 12700 12110 10250 20150 30158 40167 56010 60006 81100 91500=
07643,1997-09-24 18:00:00,20,1017.2,0.5,83,17,20000,7.408,,,240,13.8,27,,,,,,,,,wg-a,,,,AAXX 24184 07643 12770 12404 10200 20170 30163 40172 53005 60006 81100 91800 333 10270 20138=
07643,1997-09-24 21:00:00,18,1019,1.8,83,15,20000,3.704,,,360,,,,,,,,,,,wg-a,,,,AAXX 24214 07643 12/70 03602 10180 20150 30181 40190 51018 60006 80000 92100=
07643,1997-09-25 00:00:00,15,1019.6,0.5,94,14,20000,7.408,,,30,,,,,,,,,,,wg-a,,,,AAXX 25004 07643 12/70 00304 10150 20140 30186 40196 53005 60006 80000 90000=
07643,1997-09-25 03:00:00,15,1020,0.4,88,13,20000,3.704,,,60,,,,,,,,,,,wg-a,,,,AAXX 25034 07643 12/70 00602 10150 20130 30190 40200 50004 60006 80000 90300=
07643,1997-09-25 06:00:00,15,1020.9,0.9,82,12,8000,11.112,,,20,13.7,20.4,,,,,,,,,wg-a,,,,AAXX 25064 07643 02/58 20206 10150 20120 30199 40209 53009 60006 80002 90600 333 10204 20137 60004=
07643,1997-09-25 09:00:00,22,1022,1.2,65,15,10000,11.112,,,60,,,,,,,,,,,wg-a,,,,AAXX 25094 07643 12/60 20606 10220 20150 30211 40220 51012 60006 80001 90900=
07643,1997-09-25 12:00:00,25,1021.7,-0.3,54,15,15000,7.408,,,170,,,,,,,,,,,wg-a,,,,AAXX 25124 07643 12/65 11704 10250 20150 30208 40217 58003 60006 80001 91200=
07643,1997-09-25 15:00:00,25,1021.1,-0.6,61,17,20000,14.816,,,190,,,,,,,,,,,wg-a,,,,AAXX 25154 07643 12/70 11908 10250 20170 30202 40211 55006 60006 80001 91500=
07643,1997-09-26 00:00:00,14,1021.8,-0,88,12,8000,7.408,,,10,,,,,,,,,,,wg-a,,,,AAXX 26004 07643 12/58 00104 10140 20120 30208 40218 54000 60006 80000 90000=
07643,1997-09-26 06:00:00,12,1021.9,0.2,88,10,15000,7.408,,,20,11.4,19.9,,,,,,,,,wg-a,,,,AAXX 26064 07643 02/65 00204 10120 20100 30209 40219 53002 60006 80000 90600 333 10199 20114 60004=
07643,1997-09-26 09:00:00,20,1022.2,0.4,60,12,6000,7.408,,,50,,,,,,,,,,,wg-a,,,,AAXX 26094 07643 12256 /0504 10200 20120 30213 40222 50004 60006 81500 90900=
07643,1997-09-26 12:00:00,23,1020.8,-1.4,57,14,8000,11.112,,,160,,,,,,,,,,,wg-a,,,,AAXX 26124 07643 12/58 01606 10230 20140 30199 40208 58014 60006 80000 91200=
07643,1997-09-26 15:00:00,24,1019.1,-1.7,61,16,20000,22.224,,,210,,,,,,,,,,,wg-a,,,,AAXX 26154 07643 12/70 02112 10240 20160 30182 40191 56017 60006 80000 91500=
07643,1997-09-26 18:00:00,21,1018.6,-0.5,83,18,10000,11.112,,,230,12.2,24.9,,,,,,,,,wg-a,,,,AAXX 26184 07643 12/60 02306 10210 20180 30177 40186 56005 60006 80000 91800 333 10249 20122=
07643,1997-09-26 21:00:00,18,1018.5,-0.1,83,15,8000,3.704,,,290,,,,,,,,,,,wg-a,,,,AAXX 26214 07643 12/58 02902 10180 20150 30176 40185 58001 60006 80000 92100=
07643,1997-09-27 00:00:00,16,1018.1,-0.5,94,15,4000,0,,,0,,,,,,,,,,,wg-a,,,,AAXX 27004 07643 12/40 00000 10160 20150 30171 40181 57005 60006 80000 90000=
07643,1997-09-27 03:00:00,13,1017.3,-0.8,94,12,4000,3.704,,,30,,,,,,,,,,10,wg-a,,,,AAXX 27034 07643 12/40 00302 10130 20120 30163 40173 58008 60006 71000 80000 90300=
07643,1997-09-27 06:00:00,13,1017.1,-0.2,88,11,8000,3.704,,,30,12.6,20.5,,,,,,,,,wg-a,,,,AAXX 27064 07643 02458 60302 10130 20110 30161 40171 55002 60006 84602 90600 333 10205 20126 60004=
07643,1997-09-27 09:00:00,21,1016.7,-0.3,64,14,8000,11.112,,,50,,,,,,,,,,,wg-a,,,,AAXX 27094 07643 12/58 00506 10210 20140 30158 40167 58003 60006 80000 90900=
07643,1997-09-27 12:00:00,23,1015.5,-1.2,73,18,10000,14.816,,,170,,,,,,,,,,,wg-a,,,,AAXX 27124 07643 12/60 01708 10230 20180 30146 40155 56012 60006 80000 91200=
07643,1997-09-27 15:00:00,23,1014.2,-1.3,73,18,12000,18.52,,,210,,,,,,,,,,,wg-a,,,,AAXX 27154 07643 12/62 02110 10230 20180 30133 40142 56013 60006 80000 91500=
07643,1997-09-27 18:00:00,20,1014.2,-0,83,17,8000,11.112,,,230,13,23.7,,,,,,,,,wg-a,,,,AAXX 27184 07643 12/58 /2306 10200 20170 30133 40142 55000 60006 80001 91800 333 10237 20130=
07643,1997-09-27 21:00:00,18,1013.9,-0.3,88,16,8000,7.408,,,280,,,,,,,,,,,wg-a,,,,AAXX 27214 07643 12/58 02804 10180 20160 30130 40139 58003 60006 80000 92100=
07643,1997-09-28 00:00:00,15,1014.1,0.1,94,14,500,3.704,,,310,,,,,,,,,,,wg-a,,,,AAXX 28004 07643 12/00 03102 10150 20140 30131 40141 50001 60006 80000 90000=
07643,1997-09-28 03:00:00,13,1014.2,0.1,94,12,500,3.704,,,20,,,,,,,,,,,wg-a,,,,AAXX 28034 07643 12/00 00202 10130 20120 30132 40142 50001 60006 80000 90300=
07643,1997-09-28 06:00:00,13,1015.3,1.1,94,12,7000,7.408,,,10,12.6,20.2,,,,,,,,,wg-a,,,,AAXX 28064 07643 02457 /0104 10130 20120 30143 40153 53011 60006 83500 90600 333 10202 20126 60004=
07643,1997-09-28 09:00:00,19,1015.9,0.7,78,15,500,7.408,,,60,,,,,,,,,,,wg-a,,,,AAXX 28094 07643 12400 40604 10190 20150 30145 40159 52007 60006 84600 90900=
07643,1997-09-28 12:00:00,23,1015.3,-0.6,73,18,9000,11.112,,,150,,,,,,,,,,,wg-a,,,,AAXX 28124 07643 12/59 01506 10230 20180 30144 40153 58006 60006 80000 91200=
07643,1997-09-28 15:00:00,23,1014.4,-0.9,69,17,10000,14.816,,,210,,,,,,,,,,,wg-a,,,,AAXX 28154 07643 12/60 02108 10230 20170 30135 40144 58009 60006 80000 91500=
07643,1997-09-28 18:00:00,20,1015.2,0.8,88,18,13000,14.816,,,210,12.7,23.7,,,,,,,,,wg-a,,,,AAXX 28184 07643 12/63 32108 10200 20180 30143 40152 53008 60006 80001 91800 333 10237 20127=
07643,1997-09-28 21:00:00,18,1016.6,1.4,94,17,8000,3.704,,,290,,,,,,,,,,,wg-a,,,,AAXX 28214 07643 12/58 32902 10180 20170 30157 40166 51014 60006 80001 92100=
07643,1997-09-29 00:00:00,16,1017,0.3,94,15,500,3.704,,,30,,,,,,,,,,,wg-a,,,,AAXX 29004 07643 12/00 00302 10160 20150 30160 40170 53003 60006 80000 90000=
07643,1997-09-29 03:00:00,16,1017.7,0.7,94,15,4000,7.408,,,10,,,,,,,,,,10,wg-a,,,,AAXX 29034 07643 12440 70104 10160 20150 30167 40177 53007 60006 71011 876// 90300=
07643,1997-09-29 06:00:00,15,1019.3,1.6,100,15,3000,11.112,,,20,14.3,19.8,,,,,,,,,wg-a,,,,AAXX 29064 07643 02/30 /0206 10150 20150 30183 40193 53016 60006 90600 333 10198 20143 60004=
07643,1997-09-29 09:00:00,19,1020.5,1.3,94,18,1500,11.112,,,50,,,,,,,,,,,wg-a,,,,AAXX 29094 07643 12/15 /0506 10190 20180 30196 40205 53013 60006 90900=
07643,1997-09-29 12:00:00,25,1020.4,-0.1,61,17,10000,11.112,,,170,,,,,,,,,,3,wg-a,,,,AAXX 29124 07643 12560 21706 10250 20170 30195 40204 58001 60006 70341 81131 91200=
07643,1997-09-29 15:00:00,24,1019.7,-0.7,69,18,15000,14.816,,,210,,,,,,,,,,,wg-a,,,,AAXX 29154 07643 12/65 22108 10240 20180 30188 40197 58007 60006 80001 91500=
07643,1997-09-29 18:00:00,21,1019.9,0.2,88,19,10000,14.816,,,220,15.3,24.9,,,,,,,,,wg-a,,,,AAXX 29184 07643 12/60 22208 10210 20190 30190 40199 53002 60006 80001 91800 333 10249 20153=
07643,1997-09-29 21:00:00,19,1021.6,1.7,94,18,8000,7.408,,,270,,,,,,,,,,,wg-a,,,,AAXX 29214 07643 12/58 02704 10190 20180 30207 40216 53017 60006 80000 92100=
07643,1997-09-30 00:00:00,18,1022,0.4,100,18,500,7.408,,,310,,,,,,,,,,,wg-a,,,,AAXX 30004 07643 12/00 03104 10180 20180 30211 40220 50004 60006 80000 90000=
07643,1997-09-30 03:00:00,15,1022.5,0.4,100,15,500,3.704,,,10,,,,,,,,,,,wg-a,,,,AAXX 30034 07643 12/00 00102 10150 20150 30215 40225 51004 60006 80000 90300=
07643,1997-09-30 06:00:00,14,1023.1,0.6,94,13,8000,7.408,,,30,13.5,20.9,,,,,,,,,wg-a,,,,AAXX 30064 07643 02/58 20304 10140 20130 30221 40231 53006 60006 80002 90600 333 10209 20135 60004=
07643,1997-09-30 09:00:00,23,1023.3,0.3,50,12,12000,14.816,,,60,,,,,,,,,,,wg-a,,,,AAXX 30094 07643 12/62 10608 10230 20120 30224 40233 50003 60006 80002 90900=
07643,1997-09-30 12:00:00,25,1022.6,-0.7,54,15,12000,14.816,,,190,,,,,,,,,,,wg-a,,,,AAXX 30124 07643 12/62 11908 10250 20150 30217 40226 58007 60006 80002 91200=
07643,1997-09-30 15:00:00,25,1020.9,-1.7,54,15,12000,18.52,,,220,,,,,,,,,,,wg-a,,,,AAXX 30154 07643 12/62 12210 10250 20150 30200 40209 56017 60006 80002 91500=
07643,1997-09-30 18:00:00,21,1020.5,-0.4,83,18,9000,11.112,,,230,13.5,26.1,,,,,,,,,wg-a,,,,AAXX 30184 07643 12/59 32306 10210 20180 30196 40205 55004 60006 80001 91800 333 10261 20135=
07643,1997-10-01 00:00:00,17,1020.8,-0.5,77,13,10000,7.408,,,340,,,,,,,,,,,wg-a,,,,AAXX 01004 07643 12/60 03404 10170 20130 30198 40208 58005 60006 80000 90000=
07643,1997-10-01 03:00:00,14,1019.4,-1.4,88,12,10000,0,,,0,,,,,,,,,,,wg-a,,,,AAXX 01034 07643 12/60 00000 10140 20120 30184 40194 56014 60006 80000 90300=
07643,1997-10-01 06:00:00,13,1019.3,-0.1,94,12,12000,7.408,,,30,12.7,21.4,,,,,,,,,wg-a,,,,AAXX 01064 07643 02/62 20304 10130 20120 30183 40193 55001 60006 80001 90600 333 10214 20127 60004=
07643,1997-10-01 09:00:00,23,1018.9,-0.3,50,12,12000,3.704,,,230,,,,,,,,,,,wg-a,,,,AAXX 01094 07643 12/62 42302 10230 20120 30180 40189 58003 60006 80001 90900=
07643,1997-10-01 12:00:00,26,1017.2,-1.7,45,13,15000,18.52,,,210,,,,,,,,,,,wg-a,,,,AAXX 01124 07643 12/65 62110 10260 20130 30163 40172 58017 60006 80001 91200=
07643,1997-10-01 15:00:00,27,1014.8,-2.4,48,15,15000,11.112,,,190,,,,,,,,,,,wg-a,,,,AAXX 01154 07643 12/65 61906 10270 20150 30139 40148 56024 60006 80001 91500=
07643,1997-10-01 18:00:00,22,1014.7,-0.1,83,19,20000,7.408,,,280,13,27.3,,,,,,,,,wg-a,,,,AAXX 01184 07643 12/70 32804 10220 20190 30138 40147 55001 60006 80001 91800 333 10273 20130=
07643,1997-10-01 21:00:00,20,1014.7,-0,73,15,20000,7.408,,,320,,,,,,,,,,,wg-a,,,,AAXX 01214 07643 12/70 23204 10200 20150 30138 40147 55000 60006 80001 92100=
07643,1997-10-02 00:00:00,17,1014.2,-0.5,77,13,25000,7.408,,,60,,,,,,,,,,,wg-a,,,,AAXX 02004 07643 12/75 10604 10170 20130 30133 40142 56005 60006 80001 90000=
07643,1997-10-02 03:00:00,16,1014.1,-0.2,77,12,25000,7.408,,,320,,,,,,,,,,,wg-a,,,,AAXX 02034 07643 12/75 13204 10160 20120 30131 40141 58002 60006 80001 90300=
07643,1997-10-02 06:00:00,16,1013.9,-0.2,72,11,75000,7.408,,,320,14.4,21.9,,,,,,,,,wg-a,,,,AAXX 02064 07643 02/89 03204 10160 20110 30129 40139 58002 60006 80000 90600 333 10219 20144 60004=
07643,1997-10-02 12:00:00,32,1012.4,-1.4,28,11,75000,18.52,,,40,,,,,,,,,,,wg-a,,,,AAXX 02124 07643 12/89 00410 10320 20110 30115 40124 58014 60006 80000 91200=
07643,1997-10-02 15:00:00,30,1011.4,-1,38,14,75000,14.816,,,200,,,,,,,,,,,wg-a,,,,AAXX 02154 07643 12/89 02008 10300 20140 30105 40114 56010 60006 80000 91500=
07643,1997-10-02 18:00:00,26,1012.1,0.7,39,11,60000,11.112,,,10,15.4,31.8,,,,,,,,,wg-a,,,,AAXX 02184 07643 12/86 00106 10260 20110 30112 40121 53007 60006 80000 91800 333 10318 20154=
07643,1997-10-02 21:00:00,24,1012.9,0.8,41,10,60000,18.52,,,10,,,,,,,,,,,wg-a,,,,AAXX 02214 07643 12/86 00110 10240 20100 30120 40129 53008 60006 80000 92100=
07643,1997-10-03 00:00:00,21,1013.2,0.3,56,12,0,0,,,0,,,,,,,,,,,wg-a,,,,AAXX 03004 07643 12/// /0000 10210 20120 30123 40132 50003 60006 90000=
07643,1997-10-03 03:00:00,17,1012.9,-0.3,72,12,50000,7.408,,,350,,,,,,,,,,,wg-a,,,,AAXX 03034 07643 12/84 03504 10170 20120 30120 40129 57003 60006 80000 90300=
07643,1997-10-03 06:00:00,17,1013.4,0.5,68,11,50000,7.408,,,310,15.4,26.6,,,,,,,,,wg-a,,,,AAXX 03064 07643 02/84 13104 10170 20110 30125 40134 52005 60006 80001 90600 333 10266 20154 60004=
07643,1997-10-03 09:00:00,26,1014,0.6,24,4,75000,25.928,,,360,,,,,,,,,,,wg-a,,,,AAXX 03094 07643 12/89 03614 10260 20040 30131 40140 51006 60006 80000 90900=
07643,1997-10-03 12:00:00,30,1012.9,-1.1,22,6,75000,31.484,,,20,,,,,,,,,,,wg-a,,,,AAXX 03124 07643 12/89 00217 10300 20060 30120 40129 56011 60006 80000 91200=
07643,1997-10-03 15:00:00,31,1011.6,-1.3,21,6,75000,22.224,,,20,,,,,,,,,,,wg-a,,,,AAXX 03154 07643 12/89 00212 10310 20060 30107 40116 56013 60006 80000 91500=
07643,1997-10-03 18:00:00,25,1013.4,1.8,28,5,60000,14.816,,,40,17.1,31.7,,,,,,,,,wg-a,,,,AAXX 03184 07643 12/86 00408 10250 20050 30125 40134 53018 60006 80000 91800 333 10317 20171=
07643,1997-10-03 21:00:00,20,1016.3,2.9,40,6,60000,18.52,,,40,,,,,,,,,,,wg-a,,,,AAXX 03214 07643 12/86 00410 10200 20060 30154 40163 52029 60006 80000 92100=
07643,1997-10-04 00:00:00,19,1016.5,0.2,43,6,50000,25.928,,,20,,,,,,,,,,,wg-a,,,,AAXX 04004 07643 12/84 00214 10190 20060 30156 40165 50002 60006 80000 90000=
07643,1997-10-04 03:00:00,14,1017.4,0.8,58,6,50000,3.704,,,30,,,,,,,,,,,wg-a,,,,AAXX 04034 07643 12/84 00302 10140 20060 30164 40174 51008 60006 80000 90300=
07643,1997-10-04 06:00:00,14,1018.5,1.1,58,6,40000,7.408,,,330,12.3,25.4,,,,,,,,,wg-a,,,,AAXX 04064 07643 02/82 03304 10140 20060 30175 40185 52011 60006 80000 90600 333 10254 20123 60004=
07643,1997-10-04 09:00:00,22,1019.5,1.1,35,6,75000,25.928,,,20,,,,,,,,,,,wg-a,,,,AAXX 04094 07643 12/89 00214 10220 20060 30186 40195 52011 60006 80000 90900=
07643,1997-10-04 12:00:00,26,1019,-0.5,34,9,10000,14.816,,,110,,,,,,,,,,,wg-a,,,,AAXX 04124 07643 12/60 /1108 10260 20090 30181 40190 58005 60006 91200=
07643,1997-10-04 18:00:00,20,1019,0.5,94,19,7000,7.408,,,160,13,27.1,,,,,,,,,wg-a,,,,AAXX 04184 07643 12/57 01604 10200 20190 30181 40190 53005 60006 80000 91800 333 10271 20130=
07643,1997-10-04 21:00:00,19,1019.7,0.7,94,18,500,3.704,,,300,,,,,,,,,,,wg-a,,,,AAXX 04214 07643 12/00 03002 10190 20180 30188 40197 51007 60006 80000 92100=
07643,1997-10-05 00:00:00,17,1019.5,-0.3,94,16,500,7.408,,,350,,,,,,,,,,,wg-a,,,,AAXX 05004 07643 12400 43504 10170 20160 30185 40195 56003 60006 84600 90000=
07643,1997-10-05 03:00:00,16,1018.5,-1,82,13,7000,11.112,,,30,,,,,,,,,,,wg-a,,,,AAXX 05034 07643 12457 30306 10160 20130 30175 40185 58010 60006 83600 90300=
07643,1997-10-05 06:00:00,16,1018.4,-0.1,63,9,12000,7.408,,,30,15.4,20.4,,,,,,,,,wg-a,,,,AAXX 05064 07643 02462 70304 10160 20090 30174 40184 56001 60006 876// 90600 333 10204 20154 60004=
07643,1997-10-05 09:00:00,21,1018.8,0.5,64,14,10000,11.112,,,40,,,,,,,,,,,wg-a,,,,AAXX 05094 07643 12360 /0406 10210 20140 30179 40188 50005 60006 85500 90900=
07643,1997-10-05 12:00:00,24,1017.7,-1.1,78,20,10000,22.224,,,140,,,,,,,,,,,wg-a,,,,AAXX 05124 07643 12460 61412 10240 20200 30168 40177 58011 60006 86800 91200=
07643,1997-10-05 15:00:00,23,1015.8,-1.9,83,20,9000,18.52,,,150,,,,,,,,,,,wg-a,,,,AAXX 05154 07643 12459 61510 10230 20200 30149 40158 56019 60006 86800 91500=
07643,1997-10-05 18:00:00,22,1014.8,-1,88,20,7000,14.816,,,170,15.9,24.4,,,,,,,,,wg-a,,,,AAXX 05184 07643 12357 /1708 10220 20200 30139 40148 56010 60006 86800 91800 333 10244 20159=
07643,1997-10-05 21:00:00,22,1014.5,-0.3,88,20,7000,22.224,,,140,,,,,,,,,,,wg-a,,,,AAXX 05214 07643 12357 71412 10220 20200 30136 40145 58003 60006 875// 92100=
07643,1997-10-06 00:00:00,22,1013.8,-0.7,94,21,7000,22.224,,,130,,,,,,,,,,,wg-a,,,,AAXX 06004 07643 12457 /1312 10220 20210 30129 40138 58007 60006 86500 90000=
07643,1997-10-06 03:00:00,19,1012.6,-1.2,94,18,6000,11.112,,,80,,,,,,,,,,,wg-a,,,,AAXX 06034 07643 12356 /0806 10190 20180 30117 40126 56012 60006 86500 90300=
07643,1997-10-06 06:00:00,19,1011.6,-1,94,18,500,18.52,,,90,18.7,21.9,,,,,,,,21,wg-a,,,,AAXX 06064 07643 02400 70910 10190 20180 30107 40116 56010 61000 72162 875// 90600 333 10219 20187 6000=
07643,1997-10-06 09:00:00,21,1011.1,-0.5,88,19,6000,29.632,,,120,,,,,,,,,,60,wg-a,,,,AAXX 06094 07643 02256 81216 10210 20190 30102 40111 57005 61000 76062 885// 90900 333 ////=
07643,1997-10-06 12:00:00,21,1010,-1.1,88,19,8000,50.004,,68.524,140,,,,34,,,,,,29,wg-a,,,,AAXX 06124 07643 02458 81427 10210 20190 30091 40100 58011 60346 72996 889// 91200 333 60347 91037=
07643,1997-10-06 15:00:00,23,1008.5,-1.5,83,20,10000,29.632,,,140,,,,,,,,,,1,wg-a,,,,AAXX 06154 07643 02560 71416 10230 20200 30076 40085 58015 61000 70162 878// 91500 333 ////=
07643,1997-10-06 18:00:00,22,1007.3,-1.2,94,21,500,38.892,,,150,19.1,22.9,,,,,,,,3,wg-a,,,,AAXX 06184 07643 12300 71521 10220 20210 30064 40073 56012 60006 70362 872// 91800 333 10229 20191=
07643,1997-10-06 21:00:00,22,1007.5,0.2,94,21,6000,35.188,,,160,,,,,,,,,,,wg-a,,,,AAXX 06214 07643 12456 /1619 10220 20210 30066 40075 50002 60006 86500 92100=
07643,1997-10-07 00:00:00,22,1007.5,-0,94,21,7000,29.632,,,180,,,,,,,,,,13,wg-a,,,,AAXX 07004 07643 12357 51816 10220 20210 30066 40075 54000 60006 71322 85900 90000=
07643,1997-10-07 06:00:00,20,1007.6,0.8,94,19,9000,0,,,0,20.1,22.6,,,,,34,,,,wg-a,,,,AAXX 07064 07643 02359 50000 10200 20190 30067 40076 53008 60006 84903 90600 333 10226 20201 60344=
07643,1997-10-07 12:00:00,25,1010.6,1.1,74,20,15000,11.112,,,60,,,,,,,,,,,wg-a,,,,AAXX 07124 07643 12465 60606 10250 20200 30097 40106 51011 60006 83232 91200=
07643,1997-10-07 15:00:00,24,1010.8,0.2,78,20,20000,7.408,,,120,,,,0,,,,,,25,wg-a,,,,AAXX 07154 07643 12470 61204 10240 20200 30099 40108 53002 60007 72586 84953 91500=
07643,1997-10-07 18:00:00,22,1012.1,1.3,88,20,10000,3.704,,,110,19.2,24.9,,,,,,,,3,wg-a,,,,AAXX 07184 07643 12460 /1102 10220 20200 30112 40121 53013 60006 70386 84932 91800 333 10249 20192=
07643,1997-10-07 21:00:00,20,1014,1.9,94,19,10000,3.704,,,40,,,,,,,,,,,wg-a,,,,AAXX 07214 07643 12660 /0402 10200 20190 30131 40140 53019 60006 82432 92100=
07643,1997-10-08 00:00:00,19,1014.5,0.5,100,19,10000,11.112,,,10,,,,,,,,,,,wg-a,,,,AAXX 08004 07643 12460 /0106 10190 20190 30136 40145 53005 60006 84502 90000=
07643,1997-10-08 03:00:00,17,1014.9,0.4,100,17,11000,11.112,,,10,,,,,,,,,,,wg-a,,,,AAXX 08034 07643 12/61 /0106 10170 20170 30140 40149 53004 60006 90300=
07643,1997-10-08 06:00:00,16,1015.9,0.9,100,16,25000,3.704,,,350,16,21.6,,,,,,,,,wg-a,,,,AAXX 08064 07643 02/75 73502 10160 20160 30149 40159 53009 60006 81074 90600 333 10216 20160 60004=
07643,1997-10-08 12:00:00,24,1016.2,-0.2,69,18,20000,7.408,,,170,,,,,,,,,,,wg-a,,,,AAXX 08124 07643 12570 /1704 10240 20180 30153 40162 58002 60006 81132 91200=
07643,1997-10-08 18:00:00,20,1016.6,0.8,100,20,11000,7.408,,,190,16.4,24.8,,,,,,,,,wg-a,,,,AAXX 08184 07643 12/61 81904 10200 20200 30157 40166 53008 60006 80002 91800 333 10248 20164=
07643,1997-10-08 21:00:00,20,1017.5,0.9,94,19,7000,3.704,,,330,,,,,,,,,,,wg-a,,,,AAXX 08214 07643 12/57 33302 10200 20190 30166 40175 51009 60006 80002 92100=
07643,1997-10-09 00:00:00,19,1017.6,0.1,94,18,6000,3.704,,,30,,,,,,,,,,,wg-a,,,,AAXX 09004 07643 12/56 /0302 10190 20180 30167 40176 53001 60006 80002 90000=
07643,1997-10-09 03:00:00,18,1017.5,-0.1,100,18,3500,11.112,,,20,,,,0,,,,,,10,wg-a,,,,AAXX 09034 07643 12135 70206 10180 20180 30166 40175 58001 60007 71011 876// 90300=
07643,1997-10-09 06:00:00,18,1018.3,0.8,100,18,4000,11.112,,,30,18,20.4,,,,,,,,10,wg-a,,,,AAXX 09064 07643 02340 70306 10180 20180 30174 40183 53008 60006 71022 875// 90600 333 10204 20180 60004=
07643,1997-10-09 12:00:00,24,1019.1,-0.6,74,19,10000,11.112,,,180,,,,,,,,,,,wg-a,,,,AAXX 09124 07643 12560 31806 10240 20190 30182 40191 58006 60006 81201 91200=
07643,1997-10-09 15:00:00,24,1018.1,-1,78,20,10000,14.816,,,190,,,,,,,,,,,wg-a,,,,AAXX 09154 07643 12/60 11908 10240 20200 30172 40181 56010 60006 80001 91500=
07643,1997-10-09 18:00:00,21,1018.7,0.6,94,20,7000,11.112,,,230,18.2,25,,,,,,,,,wg-a,,,,AAXX 09184 07643 12/57 02306 10210 20200 30178 40187 53006 60006 80000 91800 333 10250 20182=
07643,1997-10-10 00:00:00,21,1017.9,-1,73,16,9000,11.112,,,310,,,,,,,,,,,wg-a,,,,AAXX 10004 07643 12/59 03106 10210 20160 30170 40179 58010 60006 80000 90000=
07643,1997-10-10 03:00:00,18,1016.6,-1.3,88,16,9000,3.704,,,50,,,,,,,,,,,wg-a,,,,AAXX 10034 07643 12/59 00502 10180 20160 30157 40166 58013 60006 80000 90300=
07643,1997-10-10 06:00:00,18,1016.1,-0.5,88,16,50000,7.408,,,310,16.7,21.6,,,,,,,,,wg-a,,,,AAXX 10064 07643 02/84 73104 10180 20160 30152 40161 56005 60006 82032 90600 333 10216 20167 60004=
07643,1997-10-10 09:00:00,24,1015.8,-0.3,69,18,50000,3.704,,,150,,,,,,,,,,,wg-a,,,,AAXX 10094 07643 12/84 71502 10240 20180 30149 40158 57003 60006 82032 90900=
07643,1997-10-10 12:00:00,24,1014.9,-0.9,74,19,10000,11.112,,,240,,,,,,,,,,,wg-a,,,,AAXX 10124 07643 12/60 /2406 10240 20190 30140 40149 58009 60006 91200=
07643,1997-10-10 15:00:00,24,1013.4,-1.5,61,16,40000,29.632,,,290,,,,,,,,,,,wg-a,,,,AAXX 10154 07643 12/82 62916 10240 20160 30125 40134 56015 60006 84032 91500=
07643,1997-10-10 18:00:00,23,1013.1,-0.3,73,18,500,22.224,,,280,17.3,25.3,,,,,,,,,wg-a,,,,AAXX 10184 07643 12600 52812 10230 20180 30122 40131 56003 60006 82532 91800 333 10253 20173=
07643,1997-10-10 21:00:00,23,1013.2,0.1,73,18,500,25.928,,,280,,,,,,,,,,,wg-a,,,,AAXX 10214 07643 12/00 32814 10230 20180 30123 40132 50001 60006 82031 92100=
07643,1997-10-11 00:00:00,23,1013.2,-0,69,17,20000,14.816,,,280,,,,,,,,,,,wg-a,,,,AAXX 11004 07643 12670 22808 10230 20170 30123 40132 54000 60006 81531 90000=
07643,1997-10-11 03:00:00,22,1012.6,-0.6,65,15,500,14.816,,,280,,,,,,,,,,,wg-a,,,,AAXX 11034 07643 12/00 02808 10220 20150 30117 40126 58006 60006 80000 90300=
07643,1997-10-11 06:00:00,21,1013.1,0.5,60,13,50000,11.112,,,10,20,23.2,,,,,,,,,wg-a,,,,AAXX 11064 07643 02584 30106 10210 20130 30122 40131 52005 60006 81549 90600 333 10232 20200 60004=
07643,1997-10-11 09:00:00,23,1013.7,0.6,57,14,75000,7.408,,,80,,,,,,,,,,,wg-a,,,,AAXX 11094 07643 12589 /0804 10230 20140 30128 40137 50006 60006 81544 90900=
07643,1997-10-11 12:00:00,27,1011.7,-2,42,13,75000,25.928,,,310,,,,,,,,,,,wg-a,,,,AAXX 11124 07643 12689 33114 10270 20130 30108 40117 58020 60006 81141 91200=
07643,1997-10-11 15:00:00,25,1010,-1.7,54,15,75000,25.928,,,300,,,,,,,,,,,wg-a,,,,AAXX 11154 07643 12689 23014 10250 20150 30091 40100 56017 60006 82141 91500=
07643,1997-10-11 18:00:00,23,1009.2,-0.8,69,17,40000,11.112,,,290,20.9,27.2,,,,,,,,,wg-a,,,,AAXX 11184 07643 12682 72906 10230 20170 30083 40092 55008 60006 85532 91800 333 10272 20209=
07643,1997-10-11 21:00:00,22,1008.3,-0.9,78,18,40000,18.52,,,250,,,,,,,,,,,wg-a,,,,AAXX 11214 07643 12682 22510 10220 20180 30074 40083 55009 60006 8250/ 92100=
07643,1997-10-12 00:00:00,21,1007.7,-0.6,78,17,40000,11.112,,,280,,,,,,,,,,,wg-a,,,,AAXX 12004 07643 12682 22806 10210 20170 30068 40077 56006 60006 8250/ 90000=
07643,1997-10-12 03:00:00,20,1007.3,-0.4,64,13,40000,25.928,,,300,,,,,,,,,,,wg-a,,,,AAXX 12034 07643 12682 23014 10200 20130 30064 40073 56004 60006 8250/ 90300=
07643,1997-10-12 06:00:00,20,1006.7,-0.6,60,12,40000,31.484,,,310,20,22.7,,,,,,,,,wg-a,,,,AAXX 12064 07643 02682 23117 10200 20120 30058 40067 55006 60006 82501 90600 333 10227 20200 60004=
07643,1997-10-12 09:00:00,21,1008.8,2.1,40,7,40000,38.892,,61.116,320,,,,,,,,,,,wg-a,,,,AAXX 12094 07643 12782 33221 10210 20070 30079 40088 51021 60006 835/1 90900 333 91033=
07643,1997-10-12 12:00:00,21,1007.8,-1,43,8,40000,46.3,,70.376,300,,,,,,,,,,,wg-a,,,,AAXX 12124 07643 12782 33025 10210 20080 30069 40078 58010 60006 835/1 91200 333 91038=
07643,1997-10-12 15:00:00,20,1009.2,1.4,49,9,40000,42.596,,74.08,310,,,,,,,,,,,wg-a,,,,AAXX 12154 07643 12682 33123 10200 20090 30083 40092 53014 60006 83800 91500 333 91040=
07643,1997-10-12 18:00:00,18,1010.1,0.9,52,8,500,29.632,,,320,18.3,21.9,,,,,,,,,wg-a,,,,AAXX 12184 07643 12600 33216 10180 20080 30092 40101 53009 60006 83500 91800 333 10219 20183=
07643,1997-10-12 21:00:00,16,1013.6,3.4,51,6,500,11.112,,,20,,,,,,,,,,,wg-a,,,,AAXX 12214 07643 12600 40206 10160 20060 30126 40136 52034 60006 84500 92100=
07643,1997-10-13 00:00:00,14,1014.2,0.6,55,5,500,14.816,,,320,,,,,,,,,,,wg-a,,,,AAXX 13004 07643 12600 33208 10140 20050 30132 40142 51006 60006 83500 90000=
07643,1997-10-13 03:00:00,13,1013.7,-0.5,62,6,500,14.816,,,290,,,,,,,,,,,wg-a,,,,AAXX 13034 07643 12600 22908 10130 20060 30127 40137 58005 60006 82500 90300=
07643,1997-10-13 06:00:00,13,1013,-0.7,62,6,500,18.52,,,290,12.5,18.3,,,,,,,,,wg-a,,,,AAXX 13064 07643 02600 /2910 10130 20060 30120 40130 56007 60006 81500 90600 333 10183 20125 60004=
07643,1997-10-13 09:00:00,17,1014.3,1.3,42,4,500,29.632,,,350,,,,,,,,,,,wg-a,,,,AAXX 13094 07643 12600 23516 10170 20040 30133 40143 51013 60006 82200 90900=
07643,1997-10-13 12:00:00,18,1014,-0.2,34,2,500,31.484,,,340,,,,,,,,,,,wg-a,,,,AAXX 13124 07643 12700 53417 10180 20020 30131 40140 58002 60006 85201 91200=
07643,1997-10-13 15:00:00,17,1014.3,0.2,29,-1,500,35.188,,,340,,,,,,,,,,,wg-a,,,,AAXX 13154 07643 12700 33419 10170 21010 30133 40143 51002 60006 83201 91500=
07643,1997-10-13 18:00:00,14,1015.9,1.6,47,3,20000,25.928,,,320,12.7,18,,,,,,,,,wg-a,,,,AAXX 13184 07643 12770 63214 10140 20030 30149 40159 53016 60006 855/1 91800 333 10180 20127=
07643,1997-10-13 21:00:00,12,1016.6,0.7,58,4,15000,18.52,,,320,,,,,,,,,,,wg-a,,,,AAXX 13214 07643 12/65 13210 10120 20040 30156 40166 51007 60006 81040 92100=
07643,1997-10-14 00:00:00,11,1016.6,0,58,3,15000,11.112,,,330,,,,,,,,,,,wg-a,,,,AAXX 14004 07643 12/65 13306 10110 20030 30156 40166 50000 60006 81040 90000=
07643,1997-10-14 03:00:00,12,1015.9,-0.7,58,4,15000,22.224,,,310,,,,,,,,,,,wg-a,,,,AAXX 14034 07643 12/65 53112 10120 20040 30149 40159 56007 60006 85030 90300=
07643,1997-10-14 06:00:00,11,1016.2,0.3,58,3,75000,11.112,,,330,10.6,14.2,,,,,,,,,wg-a,,,,AAXX 14064 07643 02589 /3306 10110 20030 30152 40162 53003 60006 81530 90600 333 10142 20106 60004=
07643,1997-10-14 09:00:00,14,1018.2,2,36,-1,75000,31.484,,,10,,,,,,,,,,,wg-a,,,,AAXX 14094 07643 12689 /0117 10140 21010 30172 40182 51020 60006 81130 90900=
07643,1997-10-14 12:00:00,17,1018.7,0.5,29,-1,75000,42.596,,,20,,,,,,,,,,,wg-a,,,,AAXX 14124 07643 12689 /0223 10170 21010 30177 40187 50005 60006 81100 91200=
07643,1997-10-14 15:00:00,17,1018.9,0.2,34,1,75000,31.484,,,20,,,,,,,,,,,wg-a,,,,AAXX 14154 07643 12689 30217 10170 20010 30179 40189 53002 60006 81101 91500=
07643,1997-10-14 18:00:00,14,1020.8,1.9,38,0,50000,25.928,,,330,10.4,17.7,,,,,,,,,wg-a,,,,AAXX 14184 07643 12784 23314 10140 20000 30198 40208 53019 60006 81431 91800 333 10177 20104=
07643,1997-10-14 21:00:00,12,1022,1.2,47,1,40000,14.816,,,320,,,,,,,,,,,wg-a,,,,AAXX 14214 07643 12/82 23208 10120 20010 30210 40220 53012 60006 81031 92100=
07643,1997-10-15 00:00:00,11,1021.6,-0.4,50,1,40000,14.816,,,300,,,,,,,,,,,wg-a,,,,AAXX 15004 07643 12/82 43008 10110 20010 30206 40216 58004 60006 80001 90000=
07643,1997-10-15 03:00:00,11,1020.8,-0.8,54,2,40000,22.224,,,320,,,,,,,,,,,wg-a,,,,AAXX 15034 07643 12/82 53212 10110 20020 30198 40208 58008 60006 80002 90300=
07643,1997-10-15 06:00:00,10,1020.4,-0.4,57,2,40000,14.816,,,300,10,13.7,,,,,,,,,wg-a,,,,AAXX 15064 07643 02/82 73008 10100 20020 30194 40204 57004 60006 83042 90600 333 10137 20100 60004=
07643,1997-10-15 09:00:00,14,1020,-0.4,44,2,40000,11.112,,,20,,,,,,,,,,,wg-a,,,,AAXX 15094 07643 12/82 70206 10140 20020 30190 40200 58004 60006 86072 90900=
07643,1997-10-15 12:00:00,13,1018.5,-1.5,67,7,40000,14.816,,,290,,,,,,,,,,20,wg-a,,,,AAXX 15124 07643 02582 72908 10130 20070 30175 40185 58015 61000 72052 8757/ 91200 333 6100=
07643,1997-10-15 18:00:00,14,1015.8,-0.9,63,7,500,22.224,,,300,10.3,15.7,,,,,,,,,wg-a,,,,AAXX 15184 07643 12600 53012 10140 20070 30148 40158 57009 60006 82542 91800 333 10157 20103=
07643,1997-10-15 21:00:00,14,1015.7,-0.1,72,9,25000,11.112,,,280,,,,,,,,,,,wg-a,,,,AAXX 15214 07643 12675 42806 10140 20090 30147 40157 58001 60006 83532 92100=
07643,1997-10-16 00:00:00,13,1014.9,-0.8,77,9,25000,11.112,,,260,,,,,,,,,,,wg-a,,,,AAXX 16004 07643 12775 22606 10130 20090 30139 40149 58008 60006 82500 90000=
07643,1997-10-16 03:00:00,14,1013.5,-1.4,77,10,25000,11.112,,,250,,,,,,,,,,,wg-a,,,,AAXX 16034 07643 12575 /2506 10140 20100 30125 40135 56014 60006 81500 90300=
07643,1997-10-16 06:00:00,13,1014.1,0.6,82,10,25000,11.112,,,290,12.1,14.4,,,,,,,,,wg-a,,,,AAXX 16064 07643 02575 52906 10130 20100 30131 40141 53006 60006 83841 90600 333 10144 20121 60004=
07643,1997-10-16 09:00:00,19,1015,1,60,11,25000,14.816,,,290,,,,,,,,,,,wg-a,,,,AAXX 16094 07643 12675 /2908 10190 20110 30141 40150 51010 60006 82531 90900=
07643,1997-10-16 12:00:00,21,1014.2,-0.8,49,10,50000,25.928,,,310,,,,,,,,,,,wg-a,,,,AAXX 16124 07643 12684 /3114 10210 20100 30133 40142 58008 60006 82841 91200=
07643,1997-10-16 15:00:00,20,1013.4,-0.8,56,11,50000,18.52,,,290,,,,,,,,,,,wg-a,,,,AAXX 16154 07643 12684 /2910 10200 20110 30125 40134 56008 60006 85241 91500=
07643,1997-10-16 18:00:00,18,1014.9,1.5,56,9,50000,11.112,,,310,12.9,22.2,,,,,,,,,wg-a,,,,AAXX 16184 07643 12684 43106 10180 20090 30140 40149 53015 60006 82541 91800 333 10222 20129=
07643,1997-10-17 00:00:00,11,1016.4,0.1,87,9,40000,0,,,0,,,,,,,,,,,wg-a,,,,AAXX 17004 07643 12/82 00000 10110 20090 30154 40164 52001 60006 80000 90000=
07643,1997-10-17 03:00:00,10,1016.3,-0.1,87,8,40000,11.112,,,10,,,,,,,,,,,wg-a,,,,AAXX 17034 07643 12/82 00106 10100 20080 30153 40163 58001 60006 80000 90300=
07643,1997-10-17 06:00:00,13,1016.9,0.6,82,10,25000,14.816,,,30,9.4,18.3,,,,,,,,,wg-a,,,,AAXX 17064 07643 02475 /0308 10130 20100 30159 40169 53006 60006 86600 90600 333 10183 20094 60004=
07643,1997-10-17 09:00:00,17,1018.4,1.5,72,12,500,14.816,,,70,,,,,,,,,,,wg-a,,,,AAXX 17094 07643 12600 30708 10170 20120 30174 40184 51015 60006 82501 90900=
07643,1997-10-17 12:00:00,20,1018.3,0,73,15,50000,18.52,,,140,,,,,,,,,,,wg-a,,,,AAXX 17124 07643 12684 71410 10200 20150 30174 40183 50000 60006 8253/ 91200=
07643,1997-10-17 15:00:00,19,1017.9,-0.4,78,15,50000,11.112,,,140,,,,,,,,,,,wg-a,,,,AAXX 17154 07643 12684 71406 10190 20150 30170 40179 57004 60006 8153/ 91500=
07643,1997-10-17 18:00:00,16,1019,1,88,14,25000,7.408,,,100,12.6,20.2,,,,,,,,,wg-a,,,,AAXX 17184 07643 12675 /1004 10160 20140 30180 40190 53010 60006 81532 91800 333 10202 20126=
07643,1997-10-17 21:00:00,16,1020.2,1.2,88,14,20000,7.408,,,50,,,,,,,,,,,wg-a,,,,AAXX 17214 07643 12670 60504 10160 20140 30192 40202 53012 60006 83532 92100=
07643,1997-10-18 00:00:00,16,1020.8,0.6,94,15,15000,14.816,,,90,,,,,,,,,,,wg-a,,,,AAXX 18004 07643 12565 80908 10160 20150 30198 40208 53006 60006 885// 90000=
07643,1997-10-18 03:00:00,17,1021.1,0.3,88,15,20000,22.224,,,120,,,,,,,,,,,wg-a,,,,AAXX 18034 07643 12570 71212 10170 20150 30201 40211 51003 60006 875// 90300=
07643,1997-10-18 06:00:00,17,1022.1,1,88,15,18000,14.816,,,70,15.9,17.5,,,,,,,,,wg-a,,,,AAXX 18064 07643 02568 70708 10170 20150 30211 40221 53010 60006 86501 90600 333 10175 20159 60004=
07643,1997-10-18 09:00:00,20,1023.8,1.8,83,17,15000,25.928,,,130,,,,,,,,,,,wg-a,,,,AAXX 18094 07643 12565 71314 10200 20170 30229 40238 51018 60006 86501 90900=
07643,1997-10-18 12:00:00,21,1023.8,0,78,17,25000,25.928,,,140,,,,,,,,,,,wg-a,,,,AAXX 18124 07643 12575 41414 10210 20170 30229 40238 50000 60006 84800 91200=
07643,1997-10-18 15:00:00,20,1023,-0.8,78,16,20000,18.52,,,150,,,,,,,,,,,wg-a,,,,AAXX 18154 07643 12570 /1510 10200 20160 30221 40230 56008 60006 81800 91500=
07643,1997-10-18 18:00:00,17,1023.4,0.3,88,15,10000,7.408,,,140,16.4,21.1,,,,,,,,,wg-a,,,,AAXX 18184 07643 12/60 /1404 10170 20150 30224 40234 53003 60006 91800 333 10211 20164=
07643,1997-10-18 21:00:00,14,1023.7,0.3,94,13,15000,7.408,,,20,,,,,,,,,,,wg-a,,,,AAXX 18214 07643 12/65 00204 10140 20130 30227 40237 51003 60006 80000 92100=
07643,1997-10-19 00:00:00,13,1023.2,-0.5,100,13,0,7.408,,,40,,,,,,,,,,,wg-a,,,,AAXX 19004 07643 12/// /0404 10130 20130 30222 40232 58005 60006 90000=
07643,1997-10-19 03:00:00,14,1022.4,-0.8,94,13,15000,7.408,,,40,,,,,,,,,,,wg-a,,,,AAXX 19034 07643 12565 40404 10140 20130 30214 40224 58008 60006 84500 90300=
07643,1997-10-19 06:00:00,14,1021.8,-0.6,94,13,8000,11.112,,,60,13.1,17.2,,,,,,,,,wg-a,,,,AAXX 19064 07643 02558 20606 10140 20130 30208 40218 56006 60006 82200 90600 333 10172 20131 60004=
07643,1997-10-19 09:00:00,18,1022.2,0.4,83,15,10000,14.816,,,70,,,,,,,,,,,wg-a,,,,AAXX 19094 07643 12360 50708 10180 20150 30212 40222 50004 60006 85200 90900=
07643,1997-10-19 12:00:00,20,1020.7,-1.4,88,18,500,22.224,,,130,,,,,,,,,,,wg-a,,,,AAXX 19124 07643 12500 51312 10200 20180 30198 40207 58014 60006 84231 91200=
07643,1997-10-19 15:00:00,19,1019.3,-1.4,94,18,12000,11.112,,,130,,,,,,,,,,,wg-a,,,,AAXX 19154 07643 12462 81306 10190 20180 30184 40193 56014 60006 888// 91500=
07643,1997-10-19 18:00:00,18,1018.2,-1.1,100,18,10000,14.816,,,120,13.8,21,,,,,,,,,wg-a,,,,AAXX 19184 07643 12360 81208 10180 20180 30173 40182 56011 60006 875// 91800 333 10210 20138=
07643,1997-10-19 21:00:00,18,1017.5,-0.7,100,18,10000,11.112,,,70,,,,,,,,,,,wg-a,,,,AAXX 19214 07643 12560 80706 10180 20180 30166 40175 57007 60006 875// 92100=
07643,1997-10-20 00:00:00,18,1016.2,-1.3,94,17,8000,18.52,,,80,,,,0,,,,,,50,wg-a,,,,AAXX 20004 07643 02258 80810 10180 20170 30153 40162 58013 60006 75052 875// 90000 333 60007=
07643,1997-10-20 03:00:00,17,1014.2,-2,100,17,12000,18.52,,,80,,,,,,,,,,20,wg-a,,,,AAXX 20034 07643 02462 70810 10170 20170 30133 40142 56020 61000 72052 875// 90300 333 ////=
07643,1997-10-20 06:00:00,17,1013.2,-1,88,15,12000,14.816,,,40,17,18.4,,,,,,,,2,wg-a,,,,AAXX 20064 07643 02462 70408 10170 20150 30123 40132 58010 60006 70252 875// 90600 333 10184 20170 60004=
07643,1997-10-20 09:00:00,18,1012.9,-0.3,83,15,15000,18.52,,,50,,,,,,,,,,,wg-a,,,,AAXX 20094 07643 12465 70510 10180 20150 30120 40129 58003 60006 875// 90900=
07643,1997-10-20 12:00:00,20,1010.9,-2,73,15,18000,14.816,,,40,,,,,,,,,,,wg-a,,,,AAXX 20124 07643 12468 70408 10200 20150 30100 40109 58020 60006 8557/ 91200=
07643,1997-10-20 15:00:00,21,1009.2,-1.7,73,16,15000,14.816,,,50,,,,,,,,,,,wg-a,,,,AAXX 20154 07643 12465 80508 10210 20160 30083 40092 56017 60006 8457/ 91500=
07643,1997-10-20 18:00:00,19,1009.2,-0,83,16,11000,7.408,,,20,17,21.6,,,,,,,,,wg-a,,,,AAXX 20184 07643 12461 80204 10190 20160 30083 40092 55000 60006 875// 91800 333 10216 20170=
07643,1997-10-20 21:00:00,18,1008.5,-0.7,83,15,11000,11.112,,,30,,,,,,,,,,,wg-a,,,,AAXX 20214 07643 12461 80306 10180 20150 30076 40085 58007 60006 8657/ 92100=
07643,1997-10-21 00:00:00,18,1007.9,-0.6,83,15,10000,7.408,,,10,,,,,,,,,,,wg-a,,,,AAXX 21004 07643 12460 70104 10180 20150 30070 40079 58006 60006 875// 90000=
07643,1997-10-21 03:00:00,18,1006.8,-1.1,88,16,12000,14.816,,,30,,,,0,,,,,,60,wg-a,,,,AAXX 21034 07643 12362 70308 10180 20160 30059 40068 58011 60007 76062 876// 90300=
07643,1997-10-21 06:00:00,18,1007,0.2,88,16,15000,11.112,,,10,17.2,19.4,,,,,,,,1,wg-a,,,,AAXX 21064 07643 02665 70106 10180 20160 30061 40070 51002 60006 70162 85530 90600 333 10194 20172 60004=
07643,1997-10-21 09:00:00,22,1007.7,0.7,73,17,13000,3.704,,,30,,,,,,,,,,,wg-a,,,,AAXX 21094 07643 12/63 10302 10220 20170 30068 40077 51007 60006 80001 90900=
07643,1997-10-21 12:00:00,24,1007.4,-0.3,69,18,15000,11.112,,,190,,,,,,,,,,,wg-a,,,,AAXX 21124 07643 12765 41906 10240 20180 30065 40074 58003 60006 82239 91200=
07643,1997-10-21 15:00:00,23,1007.5,0.1,73,18,15000,14.816,,,210,,,,,,,,,,,wg-a,,,,AAXX 21154 07643 12665 42108 10230 20180 30066 40075 53001 60006 81232 91500=
07643,1997-10-21 18:00:00,19,1008.6,1.1,88,17,9000,3.704,,,190,17.5,24.5,,,,,,,,,wg-a,,,,AAXX 21184 07643 12659 31902 10190 20170 30077 40086 53011 60006 81532 91800 333 10245 20175=
07643,1997-10-21 21:00:00,19,1009.8,1.2,94,18,9000,11.112,,,140,,,,,,,,,,,wg-a,,,,AAXX 21214 07643 12459 61406 10190 20180 30089 40098 53012 60006 86500 92100=
07643,1997-10-22 00:00:00,19,1010.1,0.3,94,18,8000,3.704,,,210,,,,,,,,,,,wg-a,,,,AAXX 22004 07643 12258 72102 10190 20180 30092 40101 51003 60006 875// 90000=
07643,1997-10-22 03:00:00,18,1010,-0.1,88,16,8000,7.408,,,20,,,,,,,,,,,wg-a,,,,AAXX 22034 07643 12358 70204 10180 20160 30091 40100 56001 60006 875// 90300=
07643,1997-10-22 06:00:00,17,1010.2,0.2,88,15,8000,7.408,,,50,16.9,19.3,,,,,,,,,wg-a,,,,AAXX 22064 07643 02458 80504 10170 20150 30093 40102 50002 60006 885// 90600 333 10193 20169 60004=
07643,1997-10-22 09:00:00,17,1011.5,1.3,82,14,8000,7.408,,,30,,,,,,,,,,21,wg-a,,,,AAXX 22094 07643 02458 /0304 10170 20140 30106 40115 51013 61000 72162 875// 90900 333 ////=
07643,1997-10-22 12:00:00,18,1010.9,-0.6,83,15,7000,11.112,,,40,,,,,,,,,,3,wg-a,,,,AAXX 22124 07643 02457 80406 10180 20150 30100 40109 58006 61000 70362 885// 91200 333 ////=
07643,1997-10-22 15:00:00,19,1010.4,-0.5,83,16,6000,7.408,,,50,,,,,,,,,,,wg-a,,,,AAXX 22154 07643 12456 80504 10190 20160 30095 40104 56005 60006 885// 91500=
07643,1997-10-22 18:00:00,17,1010.5,0.1,100,17,4000,3.704,,,20,16.7,18.8,,,,,,,,21,wg-a,,,,AAXX 22184 07643 02340 80202 10170 20170 30096 40105 53001 61000 72162 885// 91800 333 10188 20167 6004=
07643,1997-10-22 21:00:00,17,1010.7,0.2,100,17,4000,7.408,,,20,,,,,,,,,,10,wg-a,,,,AAXX 22214 07643 12340 80204 10170 20170 30098 40107 53002 60006 71022 885// 92100=
07643,1997-10-23 00:00:00,17,1010.1,-0.6,100,17,2000,7.408,,,30,,,,,,,,,,10,wg-a,,,,AAXX 23004 07643 12120 80304 10170 20170 30092 40101 58006 60006 71022 887// 90000=
07643,1997-10-23 03:00:00,17,1009.5,-0.6,100,17,3000,7.408,,,30,,,,0,,,,,,10,wg-a,,,,AAXX 23034 07643 12030 80304 10170 20170 30086 40095 58006 60007 71022 885// 90300=
07643,1997-10-23 06:00:00,17,1009.2,-0.3,100,17,4000,7.408,,,120,16.8,17.5,,,,,5,,,10,wg-a,,,,AAXX 23064 07643 02140 81204 10170 20170 30083 40092 55003 60006 71062 885// 90600 333 10175 20168 60054=
07643,1997-10-23 09:00:00,17,1009.7,0.5,100,17,2000,3.704,,,20,,,,,,,,,,10,wg-a,,,,AAXX 23094 07643 02220 80202 10170 20170 30088 40097 51005 61000 71062 887// 90900 333 ////=
07643,1997-10-23 12:00:00,18,1009,-0.7,94,17,3000,7.408,,,30,,,,6,,,,,,10,wg-a,,,,AAXX 23124 07643 02430 70304 10180 20170 30081 40090 58007 60066 71096 84973 91200 333 60067=
07643,1997-10-23 15:00:00,19,1008.8,-0.2,94,18,2000,3.704,,,170,,,,,,,,,,,wg-a,,,,AAXX 23154 07643 32020 81702 10190 20180 30079 40088 55002 8477/ 91500=
07643,1997-10-23 18:00:00,17,1009.3,0.5,100,17,2500,0,,,0,16.9,18.9,,,,,,,,10,wg-a,,,,AAXX 23184 07643 12625 80000 10170 20170 30084 40093 52005 60006 71022 8357/ 91800 333 10189 20169=
07643,1997-10-24 00:00:00,14,1010.3,0.4,100,14,6000,3.704,,,300,,,,,,,,,,,wg-a,,,,AAXX 24004 07643 12756 33002 10140 20140 30093 40103 51004 60006 835/0 90000=
07643,1997-10-24 03:00:00,14,1010.3,0,100,14,6000,7.408,,,350,,,,,,,,,,,wg-a,,,,AAXX 24034 07643 12756 73504 10140 20140 30093 40103 50000 60006 875// 90300=
07643,1997-10-24 06:00:00,13,1010.9,0.6,100,13,10000,11.112,,,280,13,17.3,,,,,7,,,,wg-a,,,,AAXX 24064 07643 02760 22806 10130 20130 30099 40109 51006 60006 82500 90600 333 10173 20130 60074=
07643,1997-10-24 09:00:00,19,1011.6,0.8,68,13,40000,14.816,,,310,,,,,,,,,,,wg-a,,,,AAXX 24094 07643 12782 13108 10190 20130 30107 40116 51008 60006 81500 90900=
07643,1997-10-24 12:00:00,23,1011.2,-0.4,22,0,75000,22.224,,,30,,,,,,,,,,,wg-a,,,,AAXX 24124 07643 12/89 00312 10230 20000 30103 40112 58004 60006 80000 91200=
07643,1997-10-24 15:00:00,23,1011.8,0.6,16,-4,75000,18.52,,,30,,,,,,,,,,,wg-a,,,,AAXX 24154 07643 12/89 00310 10230 21040 30109 40118 53006 60006 80000 91500=
07643,1997-10-24 18:00:00,13,1014.6,2.7,58,5,60000,11.112,,,40,13.3,23.7,,,,,,,,,wg-a,,,,AAXX 24184 07643 12/86 00406 10130 20050 30136 40146 53027 60006 80000 91800 333 10237 20133=
07643,1997-10-24 21:00:00,11,1017.3,2.7,54,2,50000,14.816,,,20,,,,,,,,,,,wg-a,,,,AAXX 24214 07643 12/84 00208 10110 20020 30163 40173 53027 60006 80000 92100=
07643,1997-10-25 00:00:00,9,1017.5,0.2,66,3,50000,18.52,,,10,,,,,,,,,,,wg-a,,,,AAXX 25004 07643 12/84 00110 10090 20030 30165 40175 52002 60006 80000 90000=
07643,1997-10-25 03:00:00,9,1018.7,1.2,61,2,50000,18.52,,,30,,,,,,,,,,,wg-a,,,,AAXX 25034 07643 12/84 00310 10090 20020 30177 40187 51012 60006 80000 90300=
07643,1997-10-25 06:00:00,8,1020,1.3,66,2,50000,14.816,,,10,7.4,13.8,,,,,,,,,wg-a,,,,AAXX 25064 07643 02784 20108 10080 20020 30190 40200 51013 60006 82500 90600 333 10138 20074 60004=
07643,1997-10-25 09:00:00,12,1021.2,1.2,47,1,50000,25.928,,,30,,,,,,,,,,,wg-a,,,,AAXX 25094 07643 12784 20314 10120 20010 30202 40212 51012 60006 81531 90900=
07643,1997-10-25 12:00:00,17,1021.1,-0.1,39,3,75000,25.928,,,40,,,,,,,,,,,wg-a,,,,AAXX 25124 07643 12689 20414 10170 20030 30201 40211 58001 60006 82230 91200=
07643,1997-10-25 15:00:00,18,1020.6,-0.5,42,5,75000,18.52,,,60,,,,,,,,,,,wg-a,,,,AAXX 25154 07643 12689 20610 10180 20050 30196 40206 55005 60006 82200 91500=
07643,1997-10-25 18:00:00,13,1021.6,1,51,3,500,11.112,,,40,7.2,18.7,,,,,,,,,wg-a,,,,AAXX 25184 07643 12/00 00406 10130 20030 30206 40216 53010 60006 80000 91800 333 10187 20072=
07643,1997-10-25 21:00:00,10,1022.4,0.8,66,4,25000,14.816,,,30,,,,,,,,,,,wg-a,,,,AAXX 25214 07643 12/75 00308 10100 20040 30214 40224 52008 60006 80000 92100=
07643,1997-10-26 00:00:00,9,1022.3,-0.1,66,3,0,7.408,,,20,,,,,,,,,,,wg-a,,,,AAXX 26004 07643 12/// /0204 10090 20030 30213 40223 55001 60006 90000=
07643,1997-10-26 06:00:00,9,1020.9,-0.3,66,3,500,14.816,,,20,7.6,12.5,,,,,,,,,wg-a,,,,AAXX 26064 07643 02/00 00208 10090 20030 30199 40209 58003 60006 80000 90600 333 10125 20076 60004=
07643,1997-10-26 09:00:00,13,1021.3,0.4,51,3,500,22.224,,,20,,,,,,,,,,,wg-a,,,,AAXX 26094 07643 12/00 00212 10130 20030 30203 40213 50004 60006 80000 90900=
07643,1997-10-26 12:00:00,17,1020.2,-1.1,45,5,500,7.408,,,10,,,,,,,,,,,wg-a,,,,AAXX 26124 07643 12/00 00104 10170 20050 30192 40202 58011 60006 80000 91200=
07643,1997-10-26 15:00:00,19,1018.4,-1.7,52,9,500,14.816,,,210,,,,,,,,,,,wg-a,,,,AAXX 26154 07643 12/00 02108 10190 20090 30175 40184 56017 60006 80000 91500=
07643,1997-10-26 18:00:00,13,1019,0.5,58,5,25000,11.112,,,50,8.2,20.3,,,,,,,,,wg-a,,,,AAXX 26184 07643 12/75 10506 10130 20050 30180 40190 53005 60006 81030 91800 333 10203 20082=
07643,1997-10-26 21:00:00,10,1019.3,0.3,71,5,9000,7.408,,,340,,,,,,,,,,,wg-a,,,,AAXX 26214 07643 12/59 03404 10100 20050 30183 40193 51003 60006 80000 92100=
07643,1997-10-27 00:00:00,7,1018.8,-0.5,87,5,9000,7.408,,,20,,,,,,,,,,,wg-a,,,,AAXX 27004 07643 12/59 00204 10070 20050 30178 40188 56005 60006 80000 90000=
07643,1997-10-27 03:00:00,6,1017.6,-1.2,93,5,9000,3.704,,,330,,,,,,,,,,,wg-a,,,,AAXX 27034 07643 12/59 03302 10060 20050 30166 40176 56012 60006 80000 90300=
07643,1997-10-27 06:00:00,6,1017.3,-0.3,87,4,12000,7.408,,,340,5.6,13.1,,,,,,,,,wg-a,,,,AAXX 27064 07643 02/62 03404 10060 20040 30163 40173 58003 60006 80000 90600 333 10131 20056 60004=
07643,1997-10-27 09:00:00,12,1017.6,0.3,62,5,25000,14.816,,,20,,,,,,,,,,,wg-a,,,,AAXX 27094 07643 12/75 10208 10120 20050 30166 40176 50003 60006 81030 90900=
07643,1997-10-27 12:00:00,18,1015.6,-1.9,39,4,25000,11.112,,,30,,,,,,,,,,,wg-a,,,,AAXX 27124 07643 12/75 10306 10180 20040 30147 40156 58019 60006 81031 91200=
07643,1997-10-27 18:00:00,14,1015.3,1,72,9,25000,7.408,,,40,4.5,20.3,,,,,,,,,wg-a,,,,AAXX 27184 07643 12/75 10404 10140 20090 30143 40153 53010 60006 80001 91800 333 10203 20045=
07643,1997-10-27 21:00:00,10,1016,0.7,66,4,25000,3.704,,,20,,,,,,,,,,,wg-a,,,,AAXX 27214 07643 12/75 10202 10100 20040 30150 40160 53007 60006 80001 92100=
07643,1997-10-28 00:00:00,9,1015.4,-0.6,76,5,25000,18.52,,,20,,,,,,,,,,,wg-a,,,,AAXX 28004 07643 12/75 10210 10090 20050 30144 40154 58006 60006 80001 90000=
07643,1997-10-28 03:00:00,10,1014.8,-0.6,71,5,18000,18.52,,,30,,,,,,,,,,,wg-a,,,,AAXX 28034 07643 12568 40310 10100 20050 30138 40148 57006 60006 84500 90300=
07643,1997-10-28 06:00:00,10,1014.8,-0,71,5,15000,22.224,,,30,8.3,13.4,,,,,,,,,wg-a,,,,AAXX 28064 07643 02565 /0312 10100 20050 30138 40148 55000 60006 85500 90600 333 10134 20083 60004=
07643,1997-10-28 12:00:00,11,1015.7,-0.1,71,6,9000,14.816,,,20,,,,,,,,,,25,wg-a,,,,AAXX 28124 07643 02559 80208 10110 20060 30147 40157 58001 61000 72586 8787/ 91200 333 6100=
07643,1997-10-28 15:00:00,9,1016.8,1.1,93,8,4500,25.928,,,20,,,,3,,,,,,80,wg-a,,,,AAXX 28154 07643 12545 80214 10090 20080 30158 40168 53011 60037 78086 8787/ 91500=
07643,1997-10-28 18:00:00,7,1020.2,3.4,100,7,6000,29.632,,,30,7.4,11.8,,,,,,,,61,wg-a,,,,AAXX 28184 07643 02456 80316 10070 20070 30192 40202 51034 61000 76186 8587/ 91800 333 10118 20074 6008=
07643,1997-10-28 21:00:00,7,1022.1,1.9,81,4,10000,25.928,,,30,,,,1,,,,,,25,wg-a,,,,AAXX 28214 07643 12560 80314 10070 20040 30211 40221 51019 60017 72586 878// 92100=
07643,1997-10-29 00:00:00,6,1022.8,0.7,75,2,12000,18.52,,,30,,,,,,,,,,1,wg-a,,,,AAXX 29004 07643 12762 30310 10060 20020 30218 40228 51007 60016 70186 83500 90000=
07643,1997-10-29 03:00:00,7,1023.4,0.6,66,1,12000,22.224,,,30,,,,,,,,,,,wg-a,,,,AAXX 29034 07643 12662 /0312 10070 20010 30224 40234 53006 60006 85500 90300=
07643,1997-10-29 06:00:00,7,1024,0.6,61,0,15000,22.224,,,30,6,7.4,,,,,12,,,,wg-a,,,,AAXX 29064 07643 02665 70312 10070 20000 30230 40240 53006 60006 87500 90600 333 10074 20060 60124=
07643,1997-10-29 09:00:00,8,1025.6,1.6,61,1,35000,22.224,,,30,,,,,,,,,,,wg-a,,,,AAXX 29094 07643 12681 70312 10080 20010 30246 40256 51016 60006 875// 90900=
07643,1997-10-29 12:00:00,12,1025.1,-0.5,47,1,500,18.52,,,40,,,,,,,,,,,wg-a,,,,AAXX 29124 07643 12/00 00410 10120 20010 30241 40251 58005 60006 80000 91200=
07643,1997-10-29 15:00:00,14,1024,-1.1,36,-1,500,18.52,,,10,,,,,,,,,,,wg-a,,,,AAXX 29154 07643 12/00 20110 10140 21010 30230 40240 56011 60006 82031 91500=
07643,1997-10-29 18:00:00,8,1024.7,0.7,66,2,500,7.408,,,30,6.4,14,,,,,,,,,wg-a,,,,AAXX 29184 07643 12/00 20304 10080 20020 30237 40247 53007 60006 80002 91800 333 10140 20064=
07643,1997-10-29 21:00:00,6,1025.2,0.5,65,0,500,18.52,,,20,,,,,,,,,,,wg-a,,,,AAXX 29214 07643 12/00 20210 10060 20000 30242 40252 51005 60006 80002 92100=
07643,1997-10-30 00:00:00,5,1024.8,-0.4,65,-1,500,11.112,,,10,,,,,,,,,,,wg-a,,,,AAXX 30004 07643 12/00 20106 10050 21010 30238 40248 56004 60006 80002 90000=
07643,1997-10-30 03:00:00,4,1024,-0.8,70,-1,500,7.408,,,300,,,,,,,,,,,wg-a,,,,AAXX 30034 07643 12/00 23004 10040 21010 30230 40240 57008 60006 80002 90300=
07643,1997-10-30 06:00:00,4,1023.1,-0.9,60,-3,500,11.112,,,350,2.9,8.2,,,,,,,,,wg-a,,,,AAXX 30064 07643 02/00 13506 10040 21030 30221 40231 57009 60006 80002 90600 333 10082 20029 60004=
07643,1997-10-30 09:00:00,9,1023.3,0.2,46,-2,500,7.408,,,360,,,,,,,,,,,wg-a,,,,AAXX 30094 07643 12/00 03604 10090 21020 30223 40233 50002 60006 80000 90900=
07643,1997-10-30 12:00:00,13,1021.3,-2,41,0,500,7.408,,,170,,,,,,,,,,,wg-a,,,,AAXX 30124 07643 12/00 01704 10130 20000 30203 40213 58020 60006 80000 91200=
07643,1997-10-30 18:00:00,8,1022.2,2,57,0,20000,14.816,,,70,2.3,15.4,,,,,,,,,wg-a,,,,AAXX 30184 07643 12/70 00708 10080 20000 30212 40222 53020 60006 80000 91800 333 10154 20023=
07643,1997-10-30 21:00:00,5,1023.5,1.3,70,0,15000,7.408,,,350,,,,,,,,,,,wg-a,,,,AAXX 30214 07643 12/65 03504 10050 20000 30225 40235 53013 60006 80000 92100=
07643,1997-10-31 00:00:00,3,1023.7,0.2,75,-1,10000,3.704,,,310,,,,,,,,,,,wg-a,,,,AAXX 31004 07643 12/60 03102 10030 21010 30227 40237 53002 60006 80000 90000=
07643,1997-10-31 03:00:00,2,1023.7,-0,80,-1,12000,7.408,,,310,,,,,,,,,,,wg-a,,,,AAXX 31034 07643 12/62 03104 10020 21010 30227 40237 54000 60006 80000 90300=
07643,1997-10-31 06:00:00,1,1023.4,-0.3,80,-2,12000,3.704,,,320,0.7,8.4,,,,,,,,,wg-a,,,,AAXX 31064 07643 02/62 03202 10010 21020 30224 40234 55003 60006 80000 90600 333 10084 20007 60004=
07643,1997-10-31 09:00:00,8,1023.7,0.4,71,3,15000,14.816,,,10,,,,,,,,,,,wg-a,,,,AAXX 31094 07643 12/65 /0108 10080 20030 30227 40237 51004 60006 90900=
07643,1997-10-31 12:00:00,12,1022.8,-1,35,-3,40000,14.816,,,20,,,,,,,,,,,wg-a,,,,AAXX 31124 07643 12/82 30208 10120 21030 30218 40228 58010 60006 80002 91200=
07643,1997-10-31 15:00:00,14,1021.4,-1.4,33,-2,50000,11.112,,,10,,,,,,,,,,,wg-a,,,,AAXX 31154 07643 12/84 70106 10140 21020 30204 40214 56014 60006 80002 91500=
07643,1997-10-31 18:00:00,9,1022.3,0.9,49,-1,15000,11.112,,,50,0.5,14.6,,,,,,,,,wg-a,,,,AAXX 31184 07643 12/65 50506 10090 21010 30213 40223 53009 60006 80002 91800 333 10146 20005=
07643,1997-10-31 21:00:00,7,1022.9,0.6,57,-1,10000,11.112,,,340,,,,,,,,,,,wg-a,,,,AAXX 31214 07643 12/60 23406 10070 21010 30219 40229 53006 60006 80002 92100=
07643,1997-11-01 00:00:00,5,1022.4,-0.5,65,-1,10000,18.52,,,20,,,,,,,,,,,wg-a,,,,AAXX 01004 07643 12/60 20210 10050 21010 30214 40224 58005 60006 80002 90000=
07643,1997-11-01 03:00:00,4,1021.6,-0.8,70,-1,10000,14.816,,,20,,,,,,,,,,,wg-a,,,,AAXX 01034 07643 12/60 20208 10040 21010 30206 40216 56008 60006 80002 90300=
07643,1997-11-01 06:00:00,2,1021.6,-0,80,-1,15000,3.704,,,20,1.4,8.9,,,,,,,,,wg-a,,,,AAXX 01064 07643 02/65 10202 10020 21010 30206 40216 54000 60006 80001 90600 333 10089 20014 60004=
07643,1997-11-01 09:00:00,9,1022.6,1,49,-1,15000,14.816,,,20,,,,,,,,,,,wg-a,,,,AAXX 01094 07643 12/65 30208 10090 21010 30216 40226 51010 60006 80001 90900=
07643,1997-11-01 12:00:00,14,1021.4,-1.2,38,0,15000,7.408,,,30,,,,,,,,,,,wg-a,,,,AAXX 01124 07643 12/65 50304 10140 20000 30204 40214 58012 60006 80001 91200=
07643,1997-11-01 15:00:00,14,1020.3,-1.1,51,4,20000,3.704,,,120,,,,,,,,,,,wg-a,,,,AAXX 01154 07643 12/70 71202 10140 20040 30193 40203 56011 60006 80002 91500=
07643,1997-11-01 18:00:00,10,1020.4,0.1,62,3,8000,7.408,,,290,2.3,15.6,,,,,,,,,wg-a,,,,AAXX 01184 07643 12/58 32904 10100 20030 30194 40204 53001 60006 80002 91800 333 10156 20023=
07643,1997-11-01 20:00:00,7,1020.6,-0.2,93,6,8000,7.408,,,20,,,,,,,,,,,wg-a,,,,AAXX 01204 07643 12/58 /0204 10070 20060 30196 40206 55002 60006 92000=
07643,1997-11-01 21:00:00,7,1020.2,-0.2,70,2,8000,7.408,,,320,,,,,,,,,,,wg-a,,,,AAXX 01214 07643 12/58 03204 10070 20020 30192 40202 55002 60006 80000 92100=
07643,1997-11-02 00:00:00,4,1019.9,-0.3,81,1,0,3.704,,,10,,,,,,,,,,,wg-a,,,,AAXX 02004 07643 12/// /0102 10040 20010 30189 40199 58003 60006 90000=
07643,1997-11-02 03:00:00,3,1018.9,-1,87,1,8000,0,,,0,,,,,,,,,,,wg-a,,,,AAXX 02034 07643 12658 30000 10030 20010 30179 40189 56010 60006 83500 90300=
07643,1997-11-02 06:00:00,5,1018.4,-0.5,75,1,8000,7.408,,,30,3.2,10.3,,,,,,,,,wg-a,,,,AAXX 02064 07643 02558 70304 10050 20010 30174 40184 58005 60006 875// 90600 333 10103 20032 60004=
07643,1997-11-02 12:00:00,12,1017,-1.8,58,4,9000,14.816,,,40,,,,,,,,,,,wg-a,,,,AAXX 02124 07643 12559 70408 10120 20040 30160 40170 58018 60006 875// 91200=
07643,1997-11-02 15:00:00,13,1015.3,-1.7,67,7,8000,11.112,,,40,,,,,,,,,,,wg-a,,,,AAXX 02154 07643 12558 80406 10130 20070 30143 40153 56017 60006 885// 91500=
07643,1997-11-02 18:00:00,13,1015.1,-0.2,72,8,8000,14.816,,,50,5.1,13.4,,,,,,,,,wg-a,,,,AAXX 02184 07643 12558 80508 10130 20080 30141 40151 55002 60006 885// 91800 333 10134 20051=
07643,1997-11-02 21:00:00,13,1014.7,-0.4,82,10,8000,14.816,,,60,,,,,,,,,,,wg-a,,,,AAXX 02214 07643 12558 80608 10130 20100 30137 40147 56004 60006 885// 92100=
07643,1997-11-03 00:00:00,13,1014.6,-0.1,88,11,8000,11.112,,,60,,,,,,,,,,,wg-a,,,,AAXX 03004 07643 12558 80606 10130 20110 30136 40146 58001 60006 885// 90000=
07643,1997-11-03 03:00:00,12,1013.5,-1.1,94,11,7000,11.112,,,50,,,,,,,,,,,wg-a,,,,AAXX 03034 07643 12557 80506 10120 20110 30125 40135 58011 60006 885// 90300=
07643,1997-11-03 06:00:00,12,1013.1,-0.4,94,11,7000,14.816,,,60,12.1,13.4,,,,,,,,,wg-a,,,,AAXX 03064 07643 02557 80608 10120 20110 30121 40131 56004 60006 885// 90600 333 10134 20121 60004=
07643,1997-11-03 09:00:00,13,1013.3,0.2,94,12,6000,14.816,,,70,,,,,,,,,,,wg-a,,,,AAXX 03094 07643 12556 80708 10130 20120 30123 40133 50002 60006 8587/ 90900=
07643,1997-11-03 12:00:00,16,1011.7,-1.5,82,13,6000,29.632,,,140,,,,,,,,,,,wg-a,,,,AAXX 03124 07643 12456 71416 10160 20130 30108 40117 58015 60006 8687/ 91200=
07643,1997-11-03 15:00:00,16,1010.5,-1.2,88,14,3000,25.928,,,140,,,,0,,,,,,10,wg-a,,,,AAXX 03154 07643 12430 81414 10160 20140 30096 40105 57012 60007 71062 878// 91500=
07643,1997-11-03 18:00:00,16,1010.2,-0.3,88,14,4000,25.928,,,140,12.1,16.6,,,,,,,,10,wg-a,,,,AAXX 03184 07643 02440 81414 10160 20140 30093 40102 56003 61000 71086 878// 91800 333 10166 20121 6001=
07643,1997-11-03 21:00:00,16,1009.5,-0.7,94,15,6000,29.632,,,140,,,,0,,,,,,3,wg-a,,,,AAXX 03214 07643 12356 81416 10160 20150 30086 40095 56007 60007 70362 878// 92100=
07643,1997-11-04 00:00:00,16,1008.7,-0.8,94,15,6000,29.632,,,140,,,,1,,,,,,2,wg-a,,,,AAXX 04004 07643 02356 81416 10160 20150 30078 40087 56008 60016 70262 878// 90000 333 60017=
07643,1997-11-04 03:00:00,15,1007.4,-1.3,94,14,500,29.632,,,110,,,,6,,,,,,61,wg-a,,,,AAXX 04034 07643 12300 81116 10150 20140 30065 40074 57013 60067 76162 878// 90300=
07643,1997-11-04 06:00:00,13,1007.8,0.3,100,13,500,22.224,,,80,13,16.7,,,,,,,,63,wg-a,,,,AAXX 04064 07643 02200 80812 10130 20130 30068 40078 53003 61000 76366 875// 90600 333 10167 20130 6021=
07643,1997-11-04 12:00:00,17,1009.5,0.4,82,14,10000,42.596,,,120,,,,3,,,,,,1,wg-a,,,,AAXX 04124 07643 02560 81223 10170 20140 30086 40095 50004 60096 70162 875// 91200 333 60037=
07643,1997-11-04 18:00:00,16,1010.1,0.5,88,14,500,42.596,,,130,13,17.1,,,,,,,,61,wg-a,,,,AAXX 04184 07643 02400 81323 10160 20140 30092 40101 53005 61000 76162 885// 91800 333 10171 20130 6003=
07643,1997-11-04 21:00:00,16,1010.2,0.1,88,14,500,50.004,,,140,,,,2,,,,,,61,wg-a,,,,AAXX 04214 07643 12300 81427 10160 20140 30093 40102 52001 60027 76162 885// 92100=
07643,1997-11-05 00:00:00,17,1009.5,-0.7,82,14,500,50.004,,,130,,,,0,,,,,,3,wg-a,,,,AAXX 05004 07643 02500 81327 10170 20140 30086 40095 56007 60026 70362 885// 90000 333 60007=
07643,1997-11-05 03:00:00,17,1008.4,-1.1,88,15,500,53.708,,72.228,140,,,,2,,,,,,21,wg-a,,,,AAXX 05034 07643 12100 81429 10170 20150 30075 40084 58011 60027 72162 885// 90300 333 91039=
07643,1997-11-05 06:00:00,16,1007.3,-1.1,94,15,500,53.708,,,140,15.6,17.1,,,,,,,,61,wg-a,,,,AAXX 05064 07643 02400 81429 10160 20150 30064 40073 57011 61000 76162 889// 90600 333 10171 20156 6017=
07643,1997-11-05 09:00:00,17,1007.5,0.2,88,15,7000,57.412,,,140,,,,1,,,,,,21,wg-a,,,,AAXX 05094 07643 12457 81431 10170 20150 30066 40075 50002 60017 72162 889// 90900=
07643,1997-11-05 12:00:00,17,1005.9,-1.6,94,16,7000,50.004,,,140,,,,0,,,,,,3,wg-a,,,,AAXX 05124 07643 02357 81427 10170 20160 30050 40059 58016 60026 70386 889// 91200 333 60007=
07643,1997-11-05 15:00:00,18,1003.1,-2.8,94,17,7000,42.596,,,140,,,,,,,,,,,wg-a,,,,AAXX 05154 07643 12357 71423 10180 20170 30022 40031 56028 60006 8427/ 91500=
07643,1997-11-05 18:00:00,17,1002.4,-0.7,94,16,7000,42.596,,,150,16.2,18.1,,,,,,,,25,wg-a,,,,AAXX 05184 07643 02557 71523 10170 20160 30015 40024 58007 61000 72522 8483/ 91800 333 10181 20162 6000=
07643,1997-11-05 21:00:00,18,1000.8,-1.6,94,17,500,42.596,,,150,,,,1,,,,,,61,wg-a,,,,AAXX 05214 07643 12400 81523 10180 20170 39999 40008 58016 60017 76162 875// 92100=
07643,1997-11-06 00:00:00,19,997.3,-3.5,94,18,6000,46.3,,,160,,,,,,,,,,21,wg-a,,,,AAXX 06004 07643 02356 81625 10190 20180 39964 49973 56035 60016 72162 877// 90000 333 61000=
07643,1997-11-06 06:00:00,19,994.1,-0.1,94,18,6000,31.484,,,170,17.3,19.3,,,,,,,,21,wg-a,,,,AAXX 06064 07643 02756 81717 10190 20180 39932 49941 55001 61000 72162 885// 90600 333 10193 20173 6003=
07643,1997-11-06 12:00:00,19,990.4,-2.3,88,17,7000,31.484,,,140,,,,,,,,,,1,wg-a,,,,AAXX 06124 07643 12557 81417 10190 20170 39895 49904 58023 60016 70186 8682/ 91200=
07643,1997-11-06 15:00:00,19,990.3,-0.1,83,16,8000,35.188,,,180,,,,0,,,,,,3,wg-a,,,,AAXX 06154 07643 12658 81819 10190 20160 39894 49903 55001 60007 70362 8687/ 91500=
07643,1997-11-06 18:00:00,18,991.7,1.4,73,13,7000,38.892,,,180,17.6,20.4,,,,,,,,1,wg-a,,,,AAXX 06184 07643 12757 61821 10180 20130 39908 49917 53014 60006 70162 84531 91800 333 10204 20176=
07643,1997-11-06 21:00:00,17,992.9,1.2,72,12,10000,46.3,,,200,,,,,,,,,,,wg-a,,,,AAXX 06214 07643 12460 82025 10170 20120 39920 49929 53012 60006 875// 92100=
07643,1997-11-07 00:00:00,13,996.7,3.8,88,11,10000,22.224,,,260,,,,0,,,,,,2,wg-a,,,,AAXX 07004 07643 02560 72612 10130 20110 39958 49967 51038 60006 70286 875// 90000 333 60007=
07643,1997-11-07 03:00:00,12,1000.1,3.3,88,10,11000,22.224,,,250,,,,,,,,,,,wg-a,,,,AAXX 07034 07643 12/61 /2512 10120 20100 39991 40001 51033 60006 90300=
07643,1997-11-07 06:00:00,10,1002.3,2.2,93,9,500,7.408,,,250,9.7,18.1,,,,,1,,,,wg-a,,,,AAXX 07064 07643 02700 42504 10100 20090 30013 40023 51022 60006 82542 90600 333 10181 20097 60014=
07643,1997-11-07 09:00:00,12,1004,1.7,88,10,500,3.704,,,250,,,,,,,,,,,wg-a,,,,AAXX 07094 07643 12600 52502 10120 20100 30030 40040 51017 60006 8283/ 90900=
07643,1997-11-07 12:00:00,16,1002.5,-1.4,63,9,35000,7.408,,,150,,,,,,,,,,,wg-a,,,,AAXX 07124 07643 12681 31504 10160 20090 30016 40025 57014 60006 8283/ 91200=
07643,1997-11-07 18:00:00,14,1001.4,-0.1,82,11,20000,7.408,,,50,9.6,16.7,,,,,,,,25,wg-a,,,,AAXX 07184 07643 02570 70504 10140 20110 30005 40014 56001 61000 72586 8483/ 91800 333 10167 20096 6100=
07643,1997-11-08 00:00:00,12,1002.7,0.9,94,11,10000,14.816,,,350,,,,,,,,,,,wg-a,,,,AAXX 08004 07643 12560 43508 10120 20110 30017 40027 53009 60006 84500 90000=
07643,1997-11-08 06:00:00,11,1005.5,2,94,10,15000,3.704,,,240,10,14.8,,,,,,,,,wg-a,,,,AAXX 08064 07643 02665 32402 10110 20100 30045 40055 53020 60006 83530 90600 333 10148 20100 61000=
07643,1997-11-08 09:00:00,16,1008.1,2.7,63,9,35000,14.816,,,270,,,,,,,,,,,wg-a,,,,AAXX 08094 07643 12681 32708 10160 20090 30072 40081 51027 60006 83530 90900=
07643,1997-11-08 12:00:00,18,1008,-0.1,49,7,50000,25.928,,,290,,,,,,,,,,,wg-a,,,,AAXX 08124 07643 12684 22914 10180 20070 30071 40080 58001 60006 81531 91200=
07643,1997-11-08 18:00:00,13,1008.1,-0.3,82,10,15000,7.408,,,190,10.8,18.8,,,,,,,,,wg-a,,,,AAXX 08184 07643 12/65 51904 10130 20100 30071 40081 56003 60006 81032 91800 333 10188 20108=
07643,1997-11-08 21:00:00,16,1007,-1,72,11,15000,25.928,,,160,,,,,,,,,,,wg-a,,,,AAXX 08214 07643 12/65 61614 10160 20110 30061 40070 58010 60006 83032 92100=
07643,1997-11-09 00:00:00,12,1003.6,-3.5,94,11,0,18.52,,,50,,,,,,,,,,,wg-a,,,,AAXX 09004 07643 12/// /0510 10120 20110 30026 40036 58035 60006 90000=
07643,1997-11-09 06:00:00,14,1004.3,2.4,63,7,20000,25.928,,,320,11.9,16.2,,,,,,,,,wg-a,,,,AAXX 09064 07643 02770 53214 10140 20070 30034 40043 53024 60006 83570 90600 333 10162 20119 60004=
07643,1997-11-09 12:00:00,18,1008.3,0.6,42,5,40000,29.632,,,290,,,,,,,,,,,wg-a,,,,AAXX 09124 07643 12582 32916 10180 20050 30074 40083 51006 60006 83800 91200=
07643,1997-11-09 18:00:00,13,1009.6,1.1,72,8,500,7.408,,,230,12.3,18.9,,,,,,,,,wg-a,,,,AAXX 09184 07643 12500 32304 10130 20080 30086 40096 53011 60006 81501 91800 333 10189 20123=
07643,1997-11-09 21:00:00,10,1010.1,0.5,76,6,20000,0,,,0,,,,,,,,,,,wg-a,,,,AAXX 09214 07643 12/70 30000 10100 20060 30091 40101 50005 60006 80001 92100=
07643,1997-11-10 00:00:00,7,1009.8,-0.3,93,6,15000,3.704,,,40,,,,,,,,,,,wg-a,,,,AAXX 10004 07643 12/65 10402 10070 20060 30088 40098 58003 60006 81030 90000=
07643,1997-11-10 03:00:00,7,1008.6,-1.2,87,5,15000,7.408,,,20,,,,,,,,,,,wg-a,,,,AAXX 10034 07643 12/65 10204 10070 20050 30076 40086 56012 60006 81030 90300=
07643,1997-11-10 06:00:00,8,1008.2,-0.4,87,6,25000,11.112,,,10,6.2,12.9,,,,,,,,,wg-a,,,,AAXX 10064 07643 02/75 50106 10080 20060 30072 40082 57004 60006 81082 90600 333 10129 20062 60004=
07643,1997-11-10 12:00:00,16,1005.6,-2,72,11,35000,11.112,,,70,,,,,,,,,,,wg-a,,,,AAXX 10124 07643 12581 70706 10160 20110 30047 40056 58020 60006 878// 91200=
07643,1997-11-10 15:00:00,13,1006.6,0.9,77,9,40000,7.408,,,10,,,,1,,,,,,1,wg-a,,,,AAXX 10154 07643 12682 50104 10130 20090 30056 40066 53009 60017 70198 84803 91500=
07643,1997-11-10 18:00:00,11,1008.2,1.6,76,7,40000,3.704,,,50,7.3,18.2,,,,,,,,3,wg-a,,,,AAXX 10184 07643 12682 60502 10110 20070 30072 40082 53016 60006 70398 84830 91800 333 10182 20073=
07643,1997-11-11 00:00:00,8,1007.9,-0.7,93,7,20000,11.112,,,20,,,,,,,,,,,wg-a,,,,AAXX 11004 07643 12/70 50206 10080 20070 30069 40079 56007 60006 85030 90000=
07643,1997-11-11 03:00:00,8,1005.8,-2.1,93,7,20000,11.112,,,30,,,,,,,,,,,wg-a,,,,AAXX 11034 07643 12670 70306 10080 20070 30048 40058 58021 60006 8557/ 90300=
07643,1997-11-11 06:00:00,8,1003.6,-2.2,87,6,15000,18.52,,,30,7.1,11,,,,,1,,,,wg-a,,,,AAXX 11064 07643 02665 70310 10080 20060 30026 40036 56022 60006 83532 90600 333 10110 20071 60014=
07643,1997-11-11 09:00:00,12,1002.5,-1.1,76,8,40000,18.52,,,20,,,,,,,,,,,wg-a,,,,AAXX 11094 07643 12682 /0210 10120 20080 30015 40025 56011 60006 83832 90900=
07643,1997-11-11 12:00:00,17,999.8,-2.6,63,10,40000,29.632,,,200,,,,,,,,,,,wg-a,,,,AAXX 11124 07643 12682 72016 10170 20100 39989 49998 58026 60006 85852 91200=
07643,1997-11-11 15:00:00,17,997.7,-2.1,77,13,15000,38.892,,,180,,,,,,,,,,,wg-a,,,,AAXX 11154 07643 12665 /1821 10170 20130 39968 49977 56021 60006 84832 91500=
07643,1997-11-11 18:00:00,17,997,-0.7,59,9,15000,25.928,,,210,7.5,18.8,,,,,,,,61,wg-a,,,,AAXX 11184 07643 02665 72114 10170 20090 39961 49970 56007 61000 76162 8583/ 91800 333 10188 20075 6100=
07643,1997-11-11 21:00:00,13,997.7,0.7,62,6,15000,29.632,,,310,,,,,,,,,,2,wg-a,,,,AAXX 11214 07643 02665 73116 10130 20060 39968 49977 53007 61000 70262 8583/ 92100 333 ////=
07643,1997-11-12 00:00:00,11,999.1,1.3,76,7,15000,7.408,,,230,,,,,,,,,,21,wg-a,,,,AAXX 12004 07643 02665 72304 10110 20070 39981 49991 53013 61000 72162 8683/ 90000 333 6100=
07643,1997-11-12 03:00:00,10,1000,0.9,71,5,15000,7.408,,,250,,,,,,,,,,,wg-a,,,,AAXX 12034 07643 12765 72504 10100 20050 39990 40000 53009 60006 8643/ 90300=
07643,1997-11-12 06:00:00,9,1000.8,0.8,71,4,15000,11.112,,,270,8.6,16.9,,,,,,,,,wg-a,,,,AAXX 12064 07643 02765 32706 10090 20040 39998 40008 52008 60006 81530 90600 333 10169 20086 61000=
07643,1997-11-12 09:00:00,11,1002.7,1.9,66,5,35000,18.52,,,300,,,,,,,,,,,wg-a,,,,AAXX 12094 07643 12781 43010 10110 20050 30017 40027 52019 60006 84530 90900=
07643,1997-11-12 12:00:00,14,1003.7,1,55,5,35000,25.928,,,290,,,,,,,,,,,wg-a,,,,AAXX 12124 07643 12681 42914 10140 20050 30027 40037 51010 60006 84530 91200=
07643,1997-11-12 15:00:00,14,1004.6,0.9,55,5,35000,22.224,,,290,,,,,,,,,,,wg-a,,,,AAXX 12154 07643 12781 32912 10140 20050 30036 40046 53009 60006 83531 91500=
07643,1997-11-12 18:00:00,11,1006.9,2.3,71,6,20000,22.224,,,280,8.3,14.3,,,,,,,,,wg-a,,,,AAXX 12184 07643 12770 42812 10110 20060 30059 40069 53023 60006 84501 91800 333 10143 20083=
07643,1997-11-12 21:00:00,11,1009.1,2.2,71,6,20000,18.52,,,260,,,,,,,,,,60,wg-a,,,,AAXX 12214 07643 02770 72610 10110 20060 30081 40091 51022 61000 76061 875// 92100 333 ////=
07643,1997-11-13 00:00:00,9,1009.1,-0,76,5,500,14.816,,,280,,,,,,,,,,1,wg-a,,,,AAXX 13004 07643 02700 12808 10090 20050 30081 40091 55000 61000 70161 81530 90000 333 6100=
07643,1997-11-13 03:00:00,8,1009,-0.1,76,4,25000,14.816,,,240,,,,,,,,,,,wg-a,,,,AAXX 13034 07643 12775 12408 10080 20040 30080 40090 57001 60006 81540 90300=
07643,1997-11-13 06:00:00,6,1008.7,-0.3,87,4,25000,7.408,,,280,6.2,10.9,,,,,,,,,wg-a,,,,AAXX 13064 07643 02775 12804 10060 20040 30077 40087 57003 60006 81540 90600 333 10109 20062 61000=
07643,1997-11-13 09:00:00,11,1008.9,0.2,71,6,50000,14.816,,,290,,,,,,,,,,,wg-a,,,,AAXX 13094 07643 12784 22908 10110 20060 30079 40089 50002 60006 81541 90900=
07643,1997-11-13 12:00:00,15,1006.9,-1.9,48,4,75000,3.704,,,230,,,,,,,,,,,wg-a,,,,AAXX 13124 07643 12689 22302 10150 20040 30060 40069 58019 60006 81131 91200=
07643,1997-11-13 15:00:00,15,1005.8,-1.1,48,4,75000,7.408,,,320,,,,,,,,,,,wg-a,,,,AAXX 13154 07643 12689 43204 10150 20040 30049 40058 58011 60006 83101 91500=
07643,1997-11-13 18:00:00,10,1006.9,1,71,5,75000,7.408,,,280,6.2,15.7,,,,,,,,,wg-a,,,,AAXX 13184 07643 12689 22804 10100 20050 30059 40069 53010 60006 81431 91800 333 10157 20062=
07643,1997-11-13 21:00:00,8,1008.4,1.5,76,4,25000,7.408,,,330,,,,,,,,,,,wg-a,,,,AAXX 13214 07643 12/75 03304 10080 20040 30074 40084 51015 60006 80000 92100=
07643,1997-11-14 00:00:00,7,1009.1,0.7,81,4,20000,11.112,,,310,,,,,,,,,,,wg-a,,,,AAXX 14004 07643 12/70 03106 10070 20040 30081 40091 53007 60006 80000 90000=
07643,1997-11-14 03:00:00,6,1009.6,0.5,81,3,25000,3.704,,,330,,,,,,,,,,,wg-a,,,,AAXX 14034 07643 12775 73302 10060 20030 30086 40096 52005 60006 875// 90300=
07643,1997-11-14 06:00:00,6,1010.6,1,81,3,500,11.112,,,290,4.8,10.4,,,,,,,,,wg-a,,,,AAXX 14064 07643 02700 12906 10060 20030 30096 40106 53010 60006 81500 90600 333 10104 20048 60004=
07643,1997-11-14 09:00:00,12,1013.2,2.6,58,4,75000,3.704,,,300,,,,,,,,,,,wg-a,,,,AAXX 14094 07643 12789 33002 10120 20040 30122 40132 51026 60006 81541 90900=
07643,1997-11-14 12:00:00,16,1013.4,0.2,39,2,75000,14.816,,,30,,,,,,,,,,,wg-a,,,,AAXX 14124 07643 12789 20308 10160 20020 30124 40134 50002 60006 81501 91200=
07643,1997-11-14 15:00:00,16,1013.5,0.1,42,3,75000,14.816,,,40,,,,,,,,,,,wg-a,,,,AAXX 14154 07643 12789 20408 10160 20030 30125 40135 53001 60006 81141 91500=
07643,1997-11-14 18:00:00,11,1016.1,2.6,58,3,25000,7.408,,,360,5.5,16.8,,,,,,,,,wg-a,,,,AAXX 14184 07643 12/75 03604 10110 20030 30151 40161 53026 60006 80000 91800 333 10168 20055=
07643,1997-11-14 21:00:00,8,1017.8,1.7,71,3,25000,11.112,,,10,,,,,,,,,,,wg-a,,,,AAXX 14214 07643 12/75 00106 10080 20030 30168 40178 51017 60006 80000 92100=
07643,1997-11-15 00:00:00,5,1018.5,0.7,87,3,25000,7.408,,,350,,,,,,,,,,,wg-a,,,,AAXX 15004 07643 12/75 03504 10050 20030 30175 40185 51007 60006 80000 90000=
07643,1997-11-15 03:00:00,5,1019.2,0.7,81,2,500,11.112,,,350,,,,,,,,,,,wg-a,,,,AAXX 15034 07643 12/00 03506 10050 20020 30182 40192 52007 60006 80000 90300=
07643,1997-11-15 06:00:00,3,1020.5,1.3,93,2,500,3.704,,,160,3,10.6,,,,,,,,,wg-a,,,,AAXX 15064 07643 02/00 01602 10030 20020 30195 40205 53013 60006 80000 90600 333 10106 20030 60004=
07643,1997-11-15 09:00:00,10,1021.7,1.2,66,4,50000,3.704,,,200,,,,,,,,,,,wg-a,,,,AAXX 15094 07643 12/84 32002 10100 20040 30207 40217 52012 60006 80001 90900=
07643,1997-11-15 12:00:00,14,1020.6,-1.1,55,5,50000,11.112,,,140,,,,,,,,,,,wg-a,,,,AAXX 15124 07643 12/84 21406 10140 20050 30196 40206 58011 60006 80001 91200=
07643,1997-11-15 15:00:00,16,1020.2,-0.4,45,4,50000,7.408,,,140,,,,,,,,,,,wg-a,,,,AAXX 15154 07643 12/84 51404 10160 20040 30192 40202 55004 60006 80001 91500=
07643,1997-11-15 18:00:00,10,1020.7,0.5,71,5,50000,0,,,0,3.3,16.7,,,,,,,,,wg-a,,,,AAXX 15184 07643 12/84 60000 10100 20050 30197 40207 53005 60006 80001 91800 333 10167 20033=
07643,1997-11-15 21:00:00,8,1021.1,0.4,81,5,20000,0,,,0,,,,,,,,,,,wg-a,,,,AAXX 15214 07643 12/70 60000 10080 20050 30201 40211 53004 60006 80001 92100=
07643,1997-11-16 00:00:00,6,1020.9,-0.2,87,4,20000,7.408,,,10,,,,,,,,,,,wg-a,,,,AAXX 16004 07643 12/70 60104 10060 20040 30199 40209 55002 60006 80001 90000=
07643,1997-11-16 03:00:00,4,1019.6,-1.3,93,3,20000,3.704,,,50,,,,,,,,,,,wg-a,,,,AAXX 16034 07643 12/70 40502 10040 20030 30186 40196 58013 60006 80001 90300=
07643,1997-11-16 06:00:00,4,1019,-0.6,87,2,40000,3.704,,,20,3.5,9.9,,,,,,,,,wg-a,,,,AAXX 16064 07643 02/82 20202 10040 20020 30180 40190 58006 60006 80001 90600 333 10099 20035 60004=
07643,1997-11-16 09:00:00,10,1018.8,-0.2,76,6,40000,7.408,,,30,,,,,,,,,,,wg-a,,,,AAXX 16094 07643 12/82 70304 10100 20060 30178 40188 58002 60006 80001 90900=
07643,1997-11-16 12:00:00,15,1016.4,-2.4,63,8,40000,7.408,,,10,,,,,,,,,,,wg-a,,,,AAXX 16124 07643 12/82 70104 10150 20080 30154 40164 58024 60006 80001 91200=
07643,1997-11-16 15:00:00,14,1014.6,-1.8,77,10,25000,7.408,,,210,,,,,,,,,,,wg-a,,,,AAXX 16154 07643 12/75 72104 10140 20100 30136 40146 56018 60006 80002 91500=
07643,1997-11-16 18:00:00,12,1014.7,0.1,82,9,10000,7.408,,,270,3.3,17.6,,,,,,,,,wg-a,,,,AAXX 16184 07643 12/60 /2704 10120 20090 30137 40147 53001 60006 91800 333 10176 20033=
07643,1997-11-16 21:00:00,10,1014.4,-0.3,93,9,8000,3.704,,,340,,,,,,,,,,,wg-a,,,,AAXX 16214 07643 12/58 73402 10100 20090 30134 40144 58003 60006 80002 92100=
07643,1997-11-17 00:00:00,10,1014.3,-0.1,87,8,10000,3.704,,,270,,,,,,,,,,,wg-a,,,,AAXX 17004 07643 12/60 52702 10100 20080 30133 40143 58001 60006 80002 90000=
07643,1997-11-17 03:00:00,10,1014.7,0.4,87,8,10000,7.408,,,90,,,,,,,,,,,wg-a,,,,AAXX 17034 07643 12760 70904 10100 20080 30137 40147 53004 60006 875// 90300=
07643,1997-11-17 06:00:00,9,1015.5,0.8,93,8,20000,11.112,,,10,8.2,11.6,,,,,,,,,wg-a,,,,AAXX 17064 07643 02770 10106 10090 20080 30145 40155 53008 60006 81501 90600 333 10116 20082 60004=
07643,1997-11-17 09:00:00,14,1016.1,0.6,77,10,35000,14.816,,,40,,,,,,,,,,,wg-a,,,,AAXX 17094 07643 12/81 30408 10140 20100 30151 40161 50006 60006 81031 90900=
07643,1997-11-17 12:00:00,17,1015.1,-1,63,10,35000,11.112,,,100,,,,,,,,,,,wg-a,,,,AAXX 17124 07643 12781 21006 10170 20100 30141 40151 58010 60006 81531 91200=
07643,1997-11-17 15:00:00,17,1013.9,-1.1,63,10,20000,11.112,,,170,,,,,,,,,,,wg-a,,,,AAXX 17154 07643 12670 /1706 10170 20100 30130 40139 56011 60006 81534 91500=
07643,1997-11-17 18:00:00,14,1014.2,0.2,77,10,20000,0,,,0,9,17.6,,,,,,,,,wg-a,,,,AAXX 17184 07643 12670 80000 10140 20100 30132 40142 53002 60006 875// 91800 333 10176 20090=
07643,1997-11-17 21:00:00,12,1014.4,0.2,88,10,20000,7.408,,,40,,,,,,,,,,,wg-a,,,,AAXX 17214 07643 12470 70404 10120 20100 30134 40144 53002 60006 86702 92100=
07643,1997-11-18 00:00:00,13,1014.1,-0.3,94,12,15000,18.52,,,80,,,,,,,,,,,wg-a,,,,AAXX 18004 07643 12465 70810 10130 20120 30131 40141 56003 60006 877// 90000=
07643,1997-11-18 06:00:00,11,1013.2,-0.1,94,10,15000,14.816,,,70,11,14,,,,,,,,2,wg-a,,,,AAXX 18064 07643 02565 70708 10110 20100 30122 40132 58001 60006 70286 877// 90600 333 10140 20110 61000=
07643,1997-11-18 09:00:00,11,1013.6,0.4,82,8,10000,14.816,,,60,,,,,,,,,,,wg-a,,,,AAXX 18094 07643 12560 80608 10110 20080 30126 40136 50004 60006 878// 90900=
07643,1997-11-18 12:00:00,11,1012.5,-1.1,94,10,3000,11.112,,,50,,,,1,,,,,,61,wg-a,,,,AAXX 18124 07643 02230 80506 10110 20100 30115 40125 58011 60016 76162 878// 91200 333 60017=
07643,1997-11-18 15:00:00,12,1010.5,-2,88,10,6000,11.112,,,30,,,,1,,,,,,3,wg-a,,,,AAXX 18154 07643 12356 80306 10120 20100 30095 40105 56020 60017 70362 877// 91500=
07643,1997-11-18 18:00:00,11,1009.7,-0.8,87,9,6000,14.816,,,30,10.8,11.8,,,,,,,,2,wg-a,,,,AAXX 18184 07643 12356 80308 10110 20090 30087 40097 56008 60006 70262 877// 91800 333 10118 20108=
07643,1997-11-19 00:00:00,10,1006.2,-2.1,100,10,6000,3.704,,,300,,,,0,,,,,,3,wg-a,,,,AAXX 19004 07643 02556 /3002 10100 20100 30052 40062 56021 60006 70362 83570 90000 333 60007=
07643,1997-11-19 06:00:00,10,1002.8,-1.3,100,10,500,0,,,0,9.7,11.6,,,,,,,,61,wg-a,,,,AAXX 19064 07643 02400 80000 10100 20100 30018 40028 56013 61000 76162 885// 90600 333 10116 20097 6002=
07643,1997-11-19 12:00:00,11,1003.2,0.1,100,11,3000,7.408,,,90,,,,2,,,,,,61,wg-a,,,,AAXX 19124 07643 02130 80904 10110 20110 30022 40032 51001 60046 76166 8/57/ 91200 333 60027=
07643,1997-11-19 15:00:00,11,1003.6,0.4,100,11,4000,7.408,,,60,,,,0,,,,,,60,wg-a,,,,AAXX 19154 07643 12340 80604 10110 20110 30026 40036 52004 60007 76066 8/57/ 91500=
07643,1997-11-19 18:00:00,12,1004.8,1.2,94,11,500,3.704,,,340,9.9,12.3,,,,,,,,1,wg-a,,,,AAXX 19184 07643 02400 83402 10120 20110 30038 40048 51012 60006 70162 8/57/ 91800 333 10123 20099 61000=
07643,1997-11-19 21:00:00,11,1005.7,0.9,100,11,4000,0,,,0,,,,1,,,,,,61,wg-a,,,,AAXX 19214 07643 12440 80000 10110 20110 30047 40057 51009 60017 76165 8557/ 92100=
07643,1997-11-20 00:00:00,9,1005.8,0.1,100,9,1500,3.704,,,40,,,,0,,,,,,28,wg-a,,,,AAXX 20004 07643 02415 30402 10090 20090 30048 40058 52001 60016 72865 8263/ 90000 333 60007=
07643,1997-11-20 03:00:00,7,1005.7,-0.1,100,7,200,3.704,,,350,,,,,,,,,,45,wg-a,,,,AAXX 20034 07643 32/02 93502 10070 20070 30047 40057 58001 74541 89/// 90300=
07643,1997-11-20 06:00:00,9,1006.2,0.5,100,9,200,7.408,,,320,6.7,11.5,,,,,5,,,43,wg-a,,,,AAXX 20064 07643 02/02 93204 10090 20090 30052 40062 53005 60006 74341 89/// 90600 333 10115 20067 60054=
07643,1997-11-20 09:00:00,11,1006.9,0.7,100,11,4000,11.112,,,20,,,,,,,,,,10,wg-a,,,,AAXX 20094 07643 12240 /0206 10110 20110 30059 40069 53007 60006 71041 83531 90900=
07643,1997-11-20 12:00:00,14,1006.4,-0.5,88,12,8000,11.112,,,40,,,,,,,,,,3,wg-a,,,,AAXX 20124 07643 12558 70406 10140 20120 30054 40064 58005 60006 70341 878// 91200=
07643,1997-11-20 15:00:00,12,1006.9,0.5,88,10,50000,7.408,,,320,,,,2,,,,,,25,wg-a,,,,AAXX 20154 07643 12484 73204 10120 20100 30059 40069 50005 60027 72598 879// 91500=
07643,1997-11-20 18:00:00,11,1008.6,1.7,76,7,500,11.112,,,260,8.9,13.8,,,,,,,,1,wg-a,,,,AAXX 20184 07643 12700 32606 10110 20070 30076 40086 52017 60006 70198 83500 91800 333 10138 20089=
07643,1997-11-20 21:00:00,10,1010.6,2,82,7,500,11.112,,,250,,,,,,,,,,,wg-a,,,,AAXX 20214 07643 12700 32506 10100 20070 30096 40106 51020 60006 83500 92100=
07643,1997-11-21 00:00:00,8,1010.8,0.2,87,6,500,14.816,,,280,,,,,,,,,,,wg-a,,,,AAXX 21004 07643 12700 32808 10080 20060 30098 40108 53002 60006 83500 90000=
07643,1997-11-21 06:00:00,7,1011,0.4,93,6,500,7.408,,,290,5.9,11.5,,,,,2,,,,wg-a,,,,AAXX 21064 07643 02700 22904 10070 20060 30100 40110 53004 60006 82501 90600 333 10115 20059 60024=
07643,1997-11-21 09:00:00,8,1011.8,0.8,100,8,500,3.704,,,30,,,,,,,,,,,wg-a,,,,AAXX 21094 07643 12700 70302 10080 20080 30108 40118 52008 60006 82552 90900=
07643,1997-11-21 12:00:00,11,1011.2,-0.6,87,9,25000,3.704,,,130,,,,,,,,,,,wg-a,,,,AAXX 21124 07643 12775 81302 10110 20090 30102 40112 58006 60006 8357/ 91200=
07643,1997-11-21 15:00:00,12,1009.9,-1.3,82,9,20000,7.408,,,80,,,,,,,,,,,wg-a,,,,AAXX 21154 07643 12770 80804 10120 20090 30089 40099 56013 60006 8357/ 91500=
07643,1997-11-21 18:00:00,10,1010.4,0.5,93,9,7000,7.408,,,30,4.6,11.9,,,,,,,,,wg-a,,,,AAXX 21184 07643 12757 50304 10100 20090 30094 40104 53005 60006 84530 91800 333 10119 20046=
07643,1997-11-21 21:00:00,9,1010.9,0.5,93,8,7000,3.704,,,350,,,,,,,,,,,wg-a,,,,AAXX 21214 07643 12657 73502 10090 20080 30099 40109 50005 60006 8353/ 92100=
07643,1997-11-22 00:00:00,6,1010.1,-0.8,100,6,8000,7.408,,,50,,,,,,,,,,,wg-a,,,,AAXX 22004 07643 12/58 30504 10060 20060 30091 40101 57008 60006 83030 90000=
07643,1997-11-22 03:00:00,6,1010.1,-0,100,6,8000,7.408,,,350,,,,,,,,,,,wg-a,,,,AAXX 22034 07643 12/58 /3504 10060 20060 30091 40101 55000 60006 86030 90300=
07643,1997-11-22 06:00:00,6,1009.6,-0.5,100,6,8000,14.816,,,10,5.4,9.6,,,,,,,,,wg-a,,,,AAXX 22064 07643 02/58 60108 10060 20060 30086 40096 56005 60006 84031 90600 333 10096 20054 60004=
07643,1997-11-22 09:00:00,8,1010.7,1.1,87,6,25000,18.52,,,10,,,,,,,,,,,wg-a,,,,AAXX 22094 07643 12/75 60110 10080 20060 30097 40107 53011 60006 83031 90900=
07643,1997-11-22 12:00:00,15,1009.8,-0.9,51,5,25000,14.816,,,20,,,,,,,,,,,wg-a,,,,AAXX 22124 07643 12/75 60208 10150 20050 30088 40098 58009 60006 81031 91200=
07643,1997-11-22 15:00:00,15,1009.3,-0.5,55,6,25000,3.704,,,20,,,,,,,,,,,wg-a,,,,AAXX 22154 07643 12775 60202 10150 20060 30083 40093 56005 60006 81531 91500=
07643,1997-11-22 18:00:00,11,1011.2,1.9,76,7,25000,14.816,,,320,5.5,15.4,,,,,,,,,wg-a,,,,AAXX 22184 07643 12/75 63208 10110 20070 30102 40112 53019 60006 81031 91800 333 10154 20055=
07643,1997-11-23 00:00:00,10,1013.2,1,71,5,20000,14.816,,,310,,,,,,,,,,,wg-a,,,,AAXX 23004 07643 12/70 03108 10100 20050 30122 40132 51010 60006 80000 90000=
07643,1997-11-23 03:00:00,8,1013.8,0.6,76,4,20000,7.408,,,300,,,,,,,,,,,wg-a,,,,AAXX 23034 07643 12/70 03004 10080 20040 30128 40138 53006 60006 80000 90300=
07643,1997-11-23 06:00:00,5,1015.1,1.3,87,3,20000,3.704,,,10,4.8,10.9,,,,,,,,,wg-a,,,,AAXX 23064 07643 02/70 10102 10050 20030 30141 40151 53013 60006 80001 90600 333 10109 20048 60004=
07643,1997-11-23 12:00:00,15,1016.2,-0.8,44,3,35000,14.816,,,340,,,,,,,,,,,wg-a,,,,AAXX 23124 07643 12/81 13408 10150 20030 30152 40162 58008 60006 80001 91200=
07643,1997-11-23 15:00:00,16,1015.7,-0.5,45,4,35000,11.112,,,20,,,,,,,,,,,wg-a,,,,AAXX 23154 07643 12/81 20206 10160 20040 30147 40157 56005 60006 80001 91500=
07643,1997-11-23 18:00:00,9,1016.7,1,66,3,35000,7.408,,,40,3.5,16.4,,,,,,,,,wg-a,,,,AAXX 23184 07643 12/81 30404 10090 20030 30157 40167 53010 60006 80001 91800 333 10164 20035=
07643,1997-11-23 21:00:00,5,1017.2,0.5,93,4,500,3.704,,,250,,,,,,,,,,,wg-a,,,,AAXX 23214 07643 12/00 02502 10050 20040 30162 40172 52005 60006 80000 92100=
07643,1997-11-24 00:00:00,3,1016.4,-0.8,93,2,15000,7.408,,,70,,,,,,,,,,,wg-a,,,,AAXX 24004 07643 12/65 00704 10030 20020 30154 40164 58008 60006 80000 90000=
07643,1997-11-24 03:00:00,3,1015.5,-0.9,93,2,15000,7.408,,,10,,,,,,,,,,,wg-a,,,,AAXX 24034 07643 12/65 30104 10030 20020 30145 40155 56009 60006 82072 90300=
07643,1997-11-24 06:00:00,4,1014.7,-0.8,87,2,15000,7.408,,,50,2.7,8.9,,,,,,,,,wg-a,,,,AAXX 24064 07643 02/65 30504 10040 20020 30137 40147 56008 60006 82072 90600 333 10089 20027 60004=
07643,1997-11-24 09:00:00,6,1014.1,-0.6,75,2,25000,22.224,,,30,,,,,,,,,,,wg-a,,,,AAXX 24094 07643 12/75 70312 10060 20020 30131 40141 58006 60006 83032 90900=
07643,1997-11-24 12:00:00,10,1013,-1.1,62,3,20000,14.816,,,50,,,,,,,,,,,wg-a,,,,AAXX 24124 07643 12/70 70508 10100 20030 30120 40130 58011 60006 8707/ 91200=
07643,1997-11-24 15:00:00,11,1011.4,-1.6,76,7,8000,14.816,,,40,,,,,,,,,,,wg-a,,,,AAXX 24154 07643 12558 70408 10110 20070 30104 40114 58016 60006 8557/ 91500=
07643,1997-11-24 18:00:00,11,1011,-0.4,82,8,7000,14.816,,,40,2.9,11.4,,,,,,,,,wg-a,,,,AAXX 24184 07643 12457 70408 10110 20080 30100 40110 56004 60006 875// 91800 333 10114 20029=
07643,1997-11-24 21:00:00,14,1010.3,-0.7,82,11,8000,31.484,,,150,,,,,,,,,,,wg-a,,,,AAXX 24214 07643 12558 71517 10140 20110 30093 40103 55007 60006 875// 92100=
07643,1997-11-25 00:00:00,14,1009.1,-1.2,82,11,10000,31.484,,,140,,,,,,,,,,,wg-a,,,,AAXX 25004 07643 12560 71417 10140 20110 30081 40091 58012 60006 877// 90000=
07643,1997-11-25 06:00:00,11,1006.2,-1.7,100,11,500,25.928,,,50,10.5,14.4,,11,,,14,,,95,wg-a,,,,AAXX 25064 07643 02400 70514 10110 20110 30052 40062 58017 60144 79598 879// 90600 333 10144 20105 60117=
07643,1997-11-25 09:00:00,14,1007.4,1.2,88,12,15000,31.484,,,140,,,,4,,,,,,29,wg-a,,,,AAXX 25094 07643 12465 71417 10140 20120 30064 40074 51012 60047 72998 86903 90900=
07643,1997-11-25 12:00:00,15,1006.5,-0.8,88,13,15000,38.892,,,130,,,,,,,,,,3,wg-a,,,,AAXX 25124 07643 12465 /1321 10150 20130 30056 40065 58008 60046 70398 86300 91200=
07643,1997-11-25 18:00:00,14,1005.2,-0.2,94,13,15000,35.188,,,130,10.9,16,,,,,,,,,wg-a,,,,AAXX 25184 07643 12465 71319 10140 20130 30043 40052 55002 60006 86802 91800 333 10160 20109=
07643,1997-11-25 21:00:00,15,1005.4,0.2,88,13,12000,29.632,,,150,,,,,,,,,,,wg-a,,,,AAXX 25214 07643 12462 31516 10150 20130 30045 40054 53002 60006 83500 92100=
07643,1997-11-26 00:00:00,16,1004.6,-0.8,82,13,12000,35.188,,,160,,,,0,,,,,,,wg-a,,,,AAXX 26004 07643 02462 /1619 10160 20130 30037 40046 56008 60006 83830 90000 333 60007=
07643,1997-11-26 03:00:00,14,1004.4,-0.2,94,13,12000,31.484,,,140,,,,7,,,,,,1,wg-a,,,,AAXX 26034 07643 12462 /1417 10140 20130 30035 40044 58002 60077 70186 83830 90300=
07643,1997-11-26 06:00:00,13,1004.3,-0.2,88,11,9000,22.224,,,80,12.6,15.6,,,,,,,,25,wg-a,,,,AAXX 26064 07643 02459 70812 10130 20110 30033 40043 58002 61000 72598 8497/ 90600 333 10156 20126 6014=
07643,1997-11-26 09:00:00,13,1005.7,1.4,88,11,8000,22.224,,,80,,,,3,,,,,,29,wg-a,,,,AAXX 26094 07643 12458 70812 10130 20110 30047 40057 53014 60037 72998 8597/ 90900=
07643,1997-11-26 12:00:00,13,1005.5,-0.2,88,11,10000,22.224,,,70,,,,1,,,,,,1,wg-a,,,,AAXX 26124 07643 02660 80712 10130 20110 30045 40055 58002 60046 70198 8487/ 91200 333 60017=
07643,1997-11-26 15:00:00,13,1006.2,0.7,88,11,10000,14.816,,,60,,,,2,,,,,,61,wg-a,,,,AAXX 26154 07643 12660 80608 10130 20110 30052 40062 53007 60027 76162 8427/ 91500=
07643,1997-11-26 18:00:00,13,1007.3,1.1,88,11,10000,18.52,,,40,12.3,13.4,,,,,,,,60,wg-a,,,,AAXX 26184 07643 02660 80410 10130 20110 30063 40073 53011 61000 76062 8427/ 91800 333 10134 20123 6000=
07643,1997-11-26 21:00:00,12,1009.2,1.9,94,11,10000,14.816,,,30,,,,2,,,,,,61,wg-a,,,,AAXX 26214 07643 12660 80308 10120 20110 30082 40092 52019 60027 76166 8427/ 92100=
07643,1997-11-27 00:00:00,12,1010,0.8,88,10,10000,11.112,,,20,,,,0,,,,,,1,wg-a,,,,AAXX 27004 07643 02660 80206 10120 20100 30090 40100 51008 60026 70162 8227/ 90000 333 60007=
07643,1997-11-27 03:00:00,13,1011.4,1.4,82,10,12000,11.112,,,20,,,,,,,,,,,wg-a,,,,AAXX 27034 07643 12662 80206 10130 20100 30104 40114 52014 60006 8127/ 90300=
07643,1997-11-27 06:00:00,13,1012.7,1.3,82,10,12000,7.408,,,310,11.9,12.6,,,,,8,,,,wg-a,,,,AAXX 27064 07643 02662 83104 10130 20100 30117 40127 53013 60006 8127/ 90600 333 10126 20119 60084=
07643,1997-11-27 12:00:00,15,1014.8,0.1,82,12,25000,7.408,,,200,,,,,,,,,,,wg-a,,,,AAXX 27124 07643 12/75 62004 10150 20120 30138 40148 50001 60006 86030 91200=
07643,1997-11-27 15:00:00,16,1014.5,-0.3,82,13,40000,7.408,,,220,,,,,,,,,,,wg-a,,,,AAXX 27154 07643 12/82 72204 10160 20130 30135 40145 56003 60006 85032 91500=
07643,1997-11-27 18:00:00,13,1015.4,0.9,94,12,15000,7.408,,,280,11.5,17.7,,,,,,,,,wg-a,,,,AAXX 27184 07643 12/65 72804 10130 20120 30144 40154 53009 60006 84032 91800 333 10177 20115=
07643,1997-11-27 21:00:00,12,1016.1,0.7,94,11,12000,0,,,0,,,,,,,,,,,wg-a,,,,AAXX 27214 07643 12/62 30000 10120 20110 30151 40161 51007 60006 82032 92100=
07643,1997-11-28 00:00:00,9,1015.9,-0.2,93,8,4000,0,,,0,,,,,,,,,,40,wg-a,,,,AAXX 28004 07643 12/40 00000 10090 20080 30149 40159 57002 60006 74011 80000 90000=
07643,1997-11-28 03:00:00,9,1015.9,-0,100,9,100,7.408,,,20,,,,,,,,,,45,wg-a,,,,AAXX 28034 07643 12/01 90204 10090 20090 30149 40159 54000 60006 74541 89/// 90300=
07643,1997-11-28 06:00:00,10,1015.7,-0.2,100,10,1800,7.408,,,40,7.6,13.1,,,,,,,,10,wg-a,,,,AAXX 28064 07643 02418 70404 10100 20100 30147 40157 57002 60006 71041 875// 90600 333 10131 20076 60004=
07643,1997-11-28 09:00:00,11,1016.5,0.8,100,11,2000,11.112,,,60,,,,0,,,,,,10,wg-a,,,,AAXX 28094 07643 12220 /0606 10110 20110 30155 40165 53008 60007 71022 86801 90900=
07643,1997-11-28 12:00:00,14,1015.5,-1,94,13,10000,18.52,,,150,,,,,,,,,,21,wg-a,,,,AAXX 28124 07643 02260 71510 10140 20130 30145 40155 58010 60006 72162 878// 91200 333 61000=
07643,1997-11-28 15:00:00,15,1014.4,-1.1,94,14,3000,18.52,,,160,,,,0,,,,,,10,wg-a,,,,AAXX 28154 07643 12230 81610 10150 20140 30134 40144 56011 60007 71062 878// 91500=
07643,1997-11-28 18:00:00,13,1015.3,0.9,100,13,6000,7.408,,,320,9.5,15.2,,,,,,,,61,wg-a,,,,AAXX 28184 07643 02256 83204 10130 20130 30143 40153 53009 61000 76162 877// 91800 333 10152 20095 6001=
07643,1997-11-28 21:00:00,13,1015.1,-0.2,94,12,9000,14.816,,,300,,,,0,,,,,,21,wg-a,,,,AAXX 28214 07643 12359 83008 10130 20120 30141 40151 57002 60007 72162 877// 92100=
07643,1997-11-29 00:00:00,10,1014.9,-0.2,93,9,15000,3.704,,,310,,,,,,,,,,1,wg-a,,,,AAXX 29004 07643 12/65 03102 10100 20090 30139 40149 56002 60006 70161 80000 90000=
07643,1997-11-29 03:00:00,7,1014.6,-0.3,100,7,9000,0,,,0,,,,,,,,,,,wg-a,,,,AAXX 29034 07643 12/59 30000 10070 20070 30136 40146 58003 60006 83030 90300=
07643,1997-11-29 06:00:00,7,1014.1,-0.5,93,6,10000,7.408,,,330,6.1,13.6,,,,,1,,,,wg-a,,,,AAXX 29064 07643 12/60 53304 10070 20060 30131 40141 56005 60014 83031 90600 333 10136 20061=
07643,1997-11-29 09:00:00,13,1013.7,-0.4,82,10,25000,11.112,,,290,,,,0,,,,,,,wg-a,,,,AAXX 29094 07643 12675 52906 10130 20100 30127 40137 58004 60007 81531 90900=
07643,1997-11-29 15:00:00,14,1010.4,-1.6,63,7,25000,22.224,,,300,,,,,,,,,,,wg-a,,,,AAXX 29154 07643 12675 43012 10140 20070 30094 40104 56016 60006 81542 91500=
07643,1997-11-29 18:00:00,12,1010.1,-0.3,71,7,20000,14.816,,,270,6.2,16.1,,,,,,,,,wg-a,,,,AAXX 29184 07643 12670 /2708 10120 20070 30091 40101 56003 60006 82542 91800 333 10161 20062=
07643,1997-11-29 21:00:00,11,1009.7,-0.4,76,7,20000,14.816,,,260,,,,,,,,,,,wg-a,,,,AAXX 29214 07643 12770 52608 10110 20070 30087 40097 58004 60006 82542 92100=
07643,1997-11-30 00:00:00,11,1009.6,-0.1,71,6,20000,14.816,,,290,,,,,,,,,,,wg-a,,,,AAXX 30004 07643 12/70 32908 10110 20060 30086 40096 56001 60006 83070 90000=
07643,1997-11-30 03:00:00,11,1010.4,0.8,62,4,500,18.52,,,320,,,,,,,,,,,wg-a,,,,AAXX 30034 07643 12/00 23210 10110 20040 30094 40104 53008 60006 80002 90300=
07643,1997-11-30 06:00:00,10,1011.4,1,66,4,500,11.112,,,300,8.9,12.1,,,,,,,,,wg-a,,,,AAXX 30064 07643 02/00 03006 10100 20040 30104 40114 52010 60006 80000 90600 333 10121 20089 60004=
07643,1997-11-30 09:00:00,13,1012.6,1.2,54,4,25000,25.928,,,310,,,,,,,,,,,wg-a,,,,AAXX 30094 07643 12675 /3114 10130 20040 30116 40126 52012 60006 81531 90900=
07643,1997-11-30 12:00:00,15,1011.9,-0.7,48,4,500,31.484,,,330,,,,,,,,,,,wg-a,,,,AAXX 30124 07643 12600 43317 10150 20040 30109 40119 58007 60006 82101 91200=
07643,1997-11-30 18:00:00,12,1012.4,0.5,58,4,500,29.632,,,310,9.7,15.4,,,,,,,,,wg-a,,,,AAXX 30184 07643 12600 23116 10120 20040 30114 40124 50005 60006 82530 91800 333 10154 20097=
07643,1997-11-30 21:00:00,12,1012.8,0.4,58,4,500,25.928,,,310,,,,,,,,,,,wg-a,,,,AAXX 30214 07643 12/00 23114 10120 20040 30118 40128 53004 60006 82030 92100=
07643,1997-12-01 00:00:00,11,1012.7,-0.1,66,5,500,14.816,,,290,,,,,,,,,,,wg-a,,,,AAXX 01004 07643 12600 42908 10110 20050 30117 40127 58001 60006 83530 90000=
07643,1997-12-01 03:00:00,11,1012.8,0.1,62,4,500,22.224,,,310,,,,,,,,,,,wg-a,,,,AAXX 01034 07643 12600 23112 10110 20040 30118 40128 53001 60006 81530 90300=
07643,1997-12-01 06:00:00,10,1013.4,0.6,66,4,500,14.816,,,300,9.8,12.5,,,,,,,,,wg-a,,,,AAXX 01064 07643 02700 13008 10100 20040 30124 40134 53006 60006 81530 90600 333 10125 20098 60004=
07643,1997-12-01 09:00:00,13,1014.5,1.1,47,2,500,14.816,,,330,,,,,,,,,,,wg-a,,,,AAXX 01094 07643 12600 /3308 10130 20020 30135 40145 51011 60006 81530 90900=
07643,1997-12-01 12:00:00,14,1013.3,-1.2,41,1,500,29.632,,,340,,,,,,,,,,,wg-a,,,,AAXX 01124 07643 12600 43416 10140 20010 30123 40133 58012 60006 81531 91200=
07643,1997-12-01 18:00:00,8,1012.5,0.1,66,2,500,3.704,,,20,8,14.8,,,,,,,,,wg-a,,,,AAXX 01184 07643 12700 40202 10080 20020 30115 40125 50001 60006 81542 91800 333 10148 20080=
07643,1997-12-01 21:00:00,7,1010.8,-1.7,76,3,500,0,,,0,,,,,,,,,,,wg-a,,,,AAXX 01214 07643 12/00 70000 10070 20030 30098 40108 58017 60006 85032 92100=
07643,1997-12-02 00:00:00,7,1008.9,-1.9,76,3,15000,0,,,0,,,,,,,,,,,wg-a,,,,AAXX 02004 07643 12665 70000 10070 20030 30079 40089 58019 60006 8557/ 90000=
07643,1997-12-02 06:00:00,7,1003.6,-3.2,87,5,12000,7.408,,,30,5.9,8.1,,,,,,,,1,wg-a,,,,AAXX 02064 07643 02462 70304 10070 20050 30026 40036 57032 60006 70186 878// 90600 333 10081 20059 60004=
07643,1997-12-02 12:00:00,14,1002.1,0.4,47,3,50000,25.928,,,300,,,,1,,,,,,2,wg-a,,,,AAXX 02124 07643 02584 23014 10140 20030 30012 40021 50004 60016 70261 82800 91200 333 60017=
07643,1997-12-02 15:00:00,13,1002.4,0.2,44,1,40000,35.188,,,310,,,,,,,,,,,wg-a,,,,AAXX 02154 07643 12582 43119 10130 20010 30014 40024 53002 60006 84800 91500=
07643,1997-12-02 18:00:00,9,1004.3,1.9,53,0,40000,35.188,,,310,5.7,14.7,,,,,,,,,wg-a,,,,AAXX 02184 07643 32582 23119 10090 20000 30033 40043 51019 82800 91800 333 10147 20057=
07643,1997-12-02 21:00:00,7,1005.5,1.2,57,-1,500,38.892,,59.264,300,,,,,,,,,,,wg-a,,,,AAXX 02214 07643 12700 23021 10070 21010 30045 40055 51012 60006 824/0 92100 333 91032=
07643,1997-12-03 00:00:00,7,1006.4,0.9,53,-2,500,42.596,,,310,,,,,,,,,,,wg-a,,,,AAXX 03004 07643 12/00 03123 10070 21020 30054 40064 52009 60006 80000 90000=
07643,1997-12-03 03:00:00,6,1005.9,-0.5,49,-4,500,18.52,,,340,,,,,,,,,,,wg-a,,,,AAXX 03034 07643 12/00 03410 10060 21040 30049 40059 58005 60006 80000 90300=
07643,1997-12-03 06:00:00,5,1006.2,0.3,52,-4,500,25.928,,,300,5,8.6,,,,,1,,,,wg-a,,,,AAXX 03064 07643 02600 /3014 10050 21040 30052 40062 53003 60006 85570 90600 333 10086 20050 60014=
07643,1997-12-03 12:00:00,8,1007.2,0.5,42,-4,50000,31.484,,,300,,,,,,,,,,,wg-a,,,,AAXX 03124 07643 12684 23017 10080 21040 30062 40072 50005 60006 82500 91200=
07643,1997-12-03 15:00:00,8,1008.5,1.3,42,-4,50000,29.632,,,310,,,,,,,,,,,wg-a,,,,AAXX 03154 07643 12684 43116 10080 21040 30075 40085 53013 60006 84500 91500=
07643,1997-12-03 18:00:00,5,1010.1,1.6,48,-5,20000,18.52,,,320,4.5,8.7,,,,,,,,,wg-a,,,,AAXX 03184 07643 12/70 03210 10050 21050 30091 40101 52016 60006 80000 91800 333 10087 20045=
07643,1997-12-03 21:00:00,2,1011,0.9,64,-4,18000,3.704,,,250,,,,,,,,,,,wg-a,,,,AAXX 03214 07643 12/68 02502 10020 21040 30100 40110 53009 60006 80000 92100=
07643,1997-12-04 00:00:00,2,1011.7,0.7,60,-5,18000,7.408,,,290,,,,,,,,,,,wg-a,,,,AAXX 04004 07643 12/68 02904 10020 21050 30107 40117 51007 60006 80000 90000=
07643,1997-12-04 03:00:00,0,1011.2,-0.5,69,-5,18000,11.112,,,330,,,,,,,,,,,wg-a,,,,AAXX 04034 07643 12/68 03306 10000 21050 30102 40112 58005 60006 80000 90300=
07643,1997-12-04 06:00:00,0,1011.2,-0,74,-4,18000,11.112,,,280,-0.3,5,,,,,,,,,wg-a,,,,AAXX 04064 07643 02/68 22806 10000 21040 30102 40112 55000 60006 81041 90600 333 10050 21003 60004=
07643,1997-12-04 09:00:00,3,1011.8,0.6,60,-4,25000,7.408,,,280,,,,,,,,,,,wg-a,,,,AAXX 04094 07643 12575 /2804 10030 21040 30108 40118 53006 60006 81141 90900=
07643,1997-12-04 12:00:00,7,1011,-0.8,45,-4,25000,11.112,,,30,,,,,,,,,,,wg-a,,,,AAXX 04124 07643 12675 70306 10070 21040 30100 40110 58008 60006 81144 91200=
07643,1997-12-04 15:00:00,7,1010.8,-0.2,49,-3,500,11.112,,,20,,,,,,,,,,,wg-a,,,,AAXX 04154 07643 12/00 60206 10070 21030 30098 40108 55002 60006 82044 91500=
07643,1997-12-04 18:00:00,4,1012.2,1.4,56,-4,500,14.816,,,20,-0.2,7.1,,,,,,,,,wg-a,,,,AAXX 04184 07643 12/00 40208 10040 21040 30112 40122 53014 60006 82041 91800 333 10071 21002=
07643,1997-12-04 21:00:00,4,1013.6,1.4,56,-4,500,22.224,,,350,,,,,,,,,,,wg-a,,,,AAXX 04214 07643 12/00 43512 10040 21040 30126 40136 51014 60006 82031 92100=
07643,1997-12-05 00:00:00,4,1014.2,0.6,56,-4,20000,18.52,,,350,,,,,,,,,,,wg-a,,,,AAXX 05004 07643 12670 73510 10040 21040 30132 40142 50006 60006 8453/ 90000=
07643,1997-12-05 03:00:00,4,1014.3,0.1,60,-3,20000,18.52,,,20,,,,,,,,,,,wg-a,,,,AAXX 05034 07643 12670 70210 10040 21030 30133 40143 52001 60006 8353/ 90300=
07643,1997-12-05 06:00:00,4,1014.6,0.3,60,-3,20000,25.928,,,20,2.9,4.4,,,,,,,,,wg-a,,,,AAXX 05064 07643 02670 70214 10040 21030 30136 40146 53003 60006 8253/ 90600 333 10044 20029 60004=
07643,1997-12-05 09:00:00,5,1016.5,1.9,56,-3,20000,25.928,,,30,,,,,,,,,,,wg-a,,,,AAXX 05094 07643 12670 /0314 10050 21030 30155 40165 51019 60006 82572 90900=
07643,1997-12-05 12:00:00,9,1016.7,0.2,46,-2,20000,25.928,,,20,,,,,,,,,,,wg-a,,,,AAXX 05124 07643 12/70 20214 10090 21020 30157 40167 51002 60006 81042 91200=
07643,1997-12-05 18:00:00,4,1019,2.1,60,-3,20000,18.52,,,10,3.1,9.6,,,,,,,,,wg-a,,,,AAXX 05184 07643 12/70 00110 10040 21030 30180 40190 53021 60006 80000 91800 333 10096 20031=
07643,1997-12-05 21:00:00,3,1020.7,1.7,65,-3,20000,18.52,,,10,,,,,,,,,,,wg-a,,,,AAXX 05214 07643 12/70 00110 10030 21030 30197 40207 53017 60006 80000 92100=
07643,1997-12-06 00:00:00,2,1021.1,0.4,69,-3,15000,18.52,,,350,,,,,,,,,,,wg-a,,,,AAXX 06004 07643 12/65 03510 10020 21030 30201 40211 51004 60006 80000 90000=
07643,1997-12-06 03:00:00,-1,1020.9,-0.2,80,-4,15000,7.408,,,290,,,,,,,,,,,wg-a,,,,AAXX 06034 07643 12/65 02904 11010 21040 30199 40209 58002 60006 80000 90300=
07643,1997-12-06 06:00:00,-1,1021,0.1,80,-4,15000,11.112,,,320,-1.4,3.8,,,,,,,,,wg-a,,,,AAXX 06064 07643 02/65 03206 11010 21040 30200 40210 53001 60006 80000 90600 333 10038 21014 60004=
07643,1997-12-06 12:00:00,8,1020.6,-0.9,42,-4,50000,3.704,,,10,,,,,,,,,,,wg-a,,,,AAXX 06124 07643 12/84 00102 10080 21040 30196 40206 58009 60006 80000 91200=
07643,1997-12-06 15:00:00,8,1019.8,-0.8,42,-4,35000,14.816,,,30,,,,,,,,,,,wg-a,,,,AAXX 06154 07643 12/81 00308 10080 21040 30188 40198 55008 60006 80000 91500=
07643,1997-12-06 18:00:00,3,1021,1.2,65,-3,18000,11.112,,,50,-1.7,9.1,,,,,,,,,wg-a,,,,AAXX 06184 07643 12/68 00506 10030 21030 30200 40210 53012 60006 80000 91800 333 10091 21017=
07643,1997-12-06 21:00:00,0,1022.2,1.2,69,-5,15000,3.704,,,360,,,,,,,,,,,wg-a,,,,AAXX 06214 07643 12/65 03602 10000 21050 30212 40222 51012 60006 80000 92100=
07643,1997-12-07 00:00:00,0,1021.6,-0.6,74,-4,12000,7.408,,,20,,,,,,,,,,,wg-a,,,,AAXX 07004 07643 12/62 00204 10000 21040 30206 40216 58006 60006 80000 90000=
07643,1997-12-07 06:00:00,0,1020.2,-0.5,69,-5,15000,11.112,,,320,-1,2.6,,,,,,,,,wg-a,,,,AAXX 07064 07643 02/65 03206 10000 21050 30192 40202 56005 60006 80000 90600 333 10026 21010 60004=
07643,1997-12-07 12:00:00,8,1019.6,-1.1,42,-4,15000,11.112,,,40,,,,,,,,,,,wg-a,,,,AAXX 07124 07643 12/65 00406 10080 21040 30186 40196 58011 60006 80000 91200=
07643,1997-12-07 15:00:00,10,1018,-1.6,34,-5,15000,7.408,,,40,,,,,,,,,,,wg-a,,,,AAXX 07154 07643 12/65 00404 10100 21050 30170 40180 56016 60006 80000 91500=
07643,1997-12-07 18:00:00,5,1018.1,0.1,65,-1,12000,3.704,,,50,-1.6,10.6,,,,,,,,,wg-a,,,,AAXX 07184 07643 12/62 00502 10050 21010 30171 40181 53001 60006 80000 91800 333 10106 21016=
07643,1997-12-07 21:00:00,2,1017.8,-0.3,75,-2,12000,0,,,0,,,,,,,,,,,wg-a,,,,AAXX 07214 07643 12/62 00000 10020 21020 30168 40178 57003 60006 80000 92100=
07643,1997-12-08 00:00:00,0,1017.3,-0.5,86,-2,12000,0,,,0,,,,,,,,,,,wg-a,,,,AAXX 08004 07643 12/62 10000 10000 21020 30163 40173 56005 60006 81030 90000=
07643,1997-12-08 03:00:00,-1,1016.6,-0.7,86,-3,12000,3.704,,,20,,,,,,,,,,,wg-a,,,,AAXX 08034 07643 12/62 10202 11010 21030 30156 40166 58007 60006 81030 90300=
07643,1997-12-08 06:00:00,-1,1016.4,-0.2,86,-3,12000,3.704,,,340,-2.2,4.7,,,,,,,,,wg-a,,,,AAXX 08064 07643 02/62 43402 11010 21030 30154 40164 55002 60006 83075 90600 333 10047 21022 60004=
07643,1997-12-08 09:00:00,1,1016.9,0.5,86,-1,15000,3.704,,,360,,,,,,,,,,,wg-a,,,,AAXX 08094 07643 12/65 63602 10010 21010 30159 40169 53005 60006 83076 90900=
07643,1997-12-08 12:00:00,8,1015.4,-1.5,61,1,15000,3.704,,,140,,,,0,,,,,,,wg-a,,,,AAXX 08124 07643 02/65 31402 10080 20010 30144 40154 58015 60006 81032 91200 333 60007=
07643,1997-12-08 15:00:00,10,1013.8,-1.6,66,4,15000,7.408,,,200,,,,,,,,,,,wg-a,,,,AAXX 08154 07643 12/65 12004 10100 20040 30128 40138 56016 60006 81032 91500=
07643,1997-12-08 18:00:00,7,1014.5,0.7,81,4,10000,3.704,,,300,-1.4,10.4,,,,,,,,,wg-a,,,,AAXX 08184 07643 12760 43002 10070 20040 30135 40145 53007 60006 81572 91800 333 10104 21014=
07643,1997-12-08 21:00:00,4,1014.3,-0.2,87,2,7000,3.704,,,20,,,,,,,,,,,wg-a,,,,AAXX 08214 07643 12/57 40202 10040 20020 30133 40143 58002 60006 83032 92100=
07643,1997-12-09 00:00:00,4,1014.9,0.6,93,3,6000,3.704,,,30,,,,,,,,,,,wg-a,,,,AAXX 09004 07643 12/56 70302 10040 20030 30139 40149 51006 60006 8707/ 90000=
07643,1997-12-09 06:00:00,4,1015.8,0.7,93,3,6000,3.704,,,20,2.4,7.1,,,,,,,,,wg-a,,,,AAXX 09064 07643 02756 80202 10040 20030 30148 40158 53007 60006 8457/ 90600 333 10071 20024 60004=
07643,1997-12-09 09:00:00,10,1017.3,1.5,76,6,8000,3.704,,,60,,,,,,,,,,,wg-a,,,,AAXX 09094 07643 12758 20602 10100 20060 30163 40173 53015 60006 8254/ 90900=
07643,1997-12-09 12:00:00,16,1017,-0.3,45,4,35000,3.704,,,130,,,,,,,,,,,wg-a,,,,AAXX 09124 07643 12781 21302 10160 20040 30160 40170 58003 60006 82202 91200=
07643,1997-12-09 18:00:00,11,1019.7,2,58,3,20000,14.816,,,310,3.7,16.3,,,,,,,,,wg-a,,,,AAXX 09184 07643 12/70 33108 10110 20030 30187 40197 51020 60006 82072 91800 333 10163 20037=
07643,1997-12-09 21:00:00,8,1020.2,0.5,81,5,20000,11.112,,,280,,,,,,,,,,,wg-a,,,,AAXX 09214 07643 12/70 32806 10080 20050 30192 40202 51005 60006 82072 92100=
07643,1997-12-10 00:00:00,5,1020.6,0.4,87,3,20000,3.704,,,40,,,,,,,,,,,wg-a,,,,AAXX 10004 07643 12/70 20402 10050 20030 30196 40206 52004 60006 81072 90000=
07643,1997-12-10 06:00:00,2,1020.4,-0,100,2,20000,0,,,0,1.4,11.5,,,,,,,,,wg-a,,,,AAXX 10064 07643 02/70 30000 10020 20020 30194 40204 54000 60006 82072 90600 333 10115 20014 60004=
07643,1997-12-10 09:00:00,5,1021.6,1.2,93,4,25000,7.408,,,90,,,,,,,,,,,wg-a,,,,AAXX 10094 07643 12/75 60904 10050 20040 30206 40216 51012 60006 82032 90900=
07643,1997-12-10 12:00:00,9,1021.1,-0.5,76,5,25000,7.408,,,70,,,,,,,,,,,wg-a,,,,AAXX 10124 07643 12/75 70704 10090 20050 30201 40211 58005 60006 82042 91200=
07643,1997-12-10 18:00:00,8,1021.5,0.3,93,7,6000,0,,,0,1.8,9.7,,,,,,,,21,wg-a,,,,AAXX 10184 07643 02656 80000 10080 20070 30205 40215 51003 61000 72162 8252/ 91800 333 10097 20018 6001=
07643,1997-12-10 21:00:00,7,1021.6,0.1,100,7,4000,0,,,0,,,,,,,,,,10,wg-a,,,,AAXX 10214 07643 12440 70000 10070 20070 30206 40216 50001 60006 71022 835// 92100=
07643,1997-12-11 00:00:00,6,1020.8,-0.8,100,6,2000,3.704,,,50,,,,,,,,,,40,wg-a,,,,AAXX 11004 07643 12/20 40502 10060 20060 30198 40208 58008 60006 74011 84030 90000=
07643,1997-12-11 06:00:00,6,1019.9,-0.3,93,5,4500,0,,,0,4.6,8.2,,,,,1,,,10,wg-a,,,,AAXX 11064 07643 02/45 70000 10060 20050 30189 40199 55003 60006 71011 87070 90600 333 10082 20046 60014=
07643,1997-12-11 12:00:00,10,1019.5,-1.3,87,8,500,3.704,,,40,,,,,,,,,,,wg-a,,,,AAXX 11124 07643 12/00 70402 10100 20080 30185 40195 58013 60006 84082 91200=
07643,1997-12-11 15:00:00,11,1018.2,-1.3,87,9,6000,3.704,,,90,,,,,,,,,,,wg-a,,,,AAXX 11154 07643 12656 50902 10110 20090 30172 40182 56013 60006 81582 91500=
07643,1997-12-11 18:00:00,8,1017.6,-0.6,100,8,6000,0,,,0,5.3,11.4,,,,,,,,,wg-a,,,,AAXX 11184 07643 12656 50000 10080 20080 30166 40176 55006 60006 81582 91800 333 10114 20053=
07643,1997-12-11 21:00:00,7,1016.9,-0.7,100,7,2500,3.704,,,20,,,,,,,,,,10,wg-a,,,,AAXX 11214 07643 12/25 20202 10070 20070 30159 40169 58007 60006 71041 82030 92100=
07643,1997-12-12 00:00:00,9,1016.2,-0.7,100,9,500,7.408,,,270,,,,,,,,,,3,wg-a,,,,AAXX 12004 07643 12/00 42704 10090 20090 30152 40162 55007 60006 70341 84030 90000=
07643,1997-12-12 06:00:00,14,1016,0.9,55,5,20000,25.928,,,310,6.1,15.2,,,,,,,,,wg-a,,,,AAXX 12064 07643 02/70 53114 10140 20050 30150 40160 52009 60006 85030 90600 333 10152 20061 60004=
07643,1997-12-12 12:00:00,16,1018.9,0.4,42,3,50000,31.484,,,320,,,,,,,,,,,wg-a,,,,AAXX 12124 07643 12684 73217 10160 20030 30179 40189 50004 60006 81142 91200=
07643,1997-12-12 18:00:00,11,1021.7,2.3,54,2,75000,22.224,,,330,10.6,15.9,,,,,,,,,wg-a,,,,AAXX 12184 07643 12789 73312 10110 20020 30207 40217 53023 60006 814/8 91800 333 10159 20106=
07643,1997-12-12 21:00:00,10,1023.4,1.7,53,1,18000,14.816,,,330,,,,,,,,,,,wg-a,,,,AAXX 12214 07643 12/68 33308 10100 20010 30224 40234 53017 60006 80002 92100=
07643,1997-12-13 00:00:00,9,1023.1,-0.3,53,0,18000,29.632,,,330,,,,,,,,,,,wg-a,,,,AAXX 13004 07643 12/68 03316 10090 20000 30221 40231 58003 60006 80000 90000=
07643,1997-12-13 06:00:00,8,1024.1,0.4,53,-1,18000,7.408,,,320,7.5,10.9,,,,,,,,,wg-a,,,,AAXX 13064 07643 02/68 53204 10080 21010 30231 40241 53004 60006 81042 90600 333 10109 20075 60004=
07643,1997-12-13 09:00:00,10,1025.5,1.4,46,-1,35000,14.816,,,330,,,,,,,,,,,wg-a,,,,AAXX 13094 07643 12781 13308 10100 21010 30245 40255 53014 60006 81542 90900=
07643,1997-12-13 12:00:00,13,1024.7,-0.8,35,-2,75000,35.188,,,350,,,,,,,,,,,wg-a,,,,AAXX 13124 07643 12789 23519 10130 21020 30237 40247 58008 60006 81542 91200=
07643,1997-12-13 15:00:00,12,1024.6,-0.1,38,-2,10000,38.892,,,10,,,,,,,,,,,wg-a,,,,AAXX 13154 07643 12/60 /0121 10120 21020 30236 40246 55001 60006 91500=
07643,1997-12-13 18:00:00,8,1025.6,1,42,-4,500,18.52,,,350,5.2,13.1,,,,,,,,,wg-a,,,,AAXX 13184 07643 12/00 03510 10080 21040 30246 40256 51010 60006 80000 91800 333 10131 20052=
07643,1997-12-14 00:00:00,5,1026.7,0.1,56,-3,500,14.816,,,340,,,,,,,,,,,wg-a,,,,AAXX 14004 07643 12/00 03408 10050 21030 30257 40267 50001 60006 80000 90000=
07643,1997-12-14 03:00:00,3,1026.3,-0.4,65,-3,500,7.408,,,300,,,,,,,,,,,wg-a,,,,AAXX 14034 07643 12/00 03004 10030 21030 30253 40263 58004 60006 80000 90300=
07643,1997-12-14 06:00:00,2,1025.9,-0.4,69,-3,500,7.408,,,330,0.5,8.1,,,,,,,,,wg-a,,,,AAXX 14064 07643 02/00 03304 10020 21030 30249 40259 55004 60006 80000 90600 333 10081 20005 60004=
07643,1997-12-14 09:00:00,7,1025.9,-0,45,-4,35000,18.52,,,340,,,,,,,,,,,wg-a,,,,AAXX 14094 07643 12/81 03410 10070 21040 30249 40259 55000 60006 80000 90900=
07643,1997-12-14 12:00:00,11,1023.5,-2.4,40,-2,35000,11.112,,,340,,,,,,,,,,,wg-a,,,,AAXX 14124 07643 12/81 13406 10110 21020 30225 40235 58024 60006 80001 91200=
07643,1997-12-14 15:00:00,13,1021.2,-2.3,35,-2,35000,14.816,,,20,,,,,,,,,,,wg-a,,,,AAXX 14154 07643 12/81 00208 10130 21020 30202 40212 56023 60006 80000 91500=
07643,1997-12-14 18:00:00,10,1020.2,-1,34,-5,60000,18.52,,,10,0.4,13.6,,,,,,,,,wg-a,,,,AAXX 14184 07643 12/86 00110 10100 21050 30192 40202 58010 60006 80000 91800 333 10136 20004=
07643,1997-12-14 21:00:00,5,1019.1,-1.1,60,-2,500,7.408,,,100,,,,,,,,,,,wg-a,,,,AAXX 14214 07643 12/00 21004 10050 21020 30181 40191 58011 60006 80002 92100=
07643,1997-12-15 00:00:00,4,1017.8,-1.3,65,-2,500,14.816,,,10,,,,,,,,,,,wg-a,,,,AAXX 15004 07643 12/00 50108 10040 21020 30168 40178 58013 60006 80002 90000=
07643,1997-12-15 03:00:00,3,1016.3,-1.5,70,-2,500,7.408,,,360,,,,,,,,,,,wg-a,,,,AAXX 15034 07643 12/00 63604 10030 21020 30153 40163 58015 60006 84032 90300=
07643,1997-12-15 06:00:00,3,1014.8,-1.5,65,-3,500,14.816,,,40,1.9,10.4,,,,,,,,,wg-a,,,,AAXX 15064 07643 02/00 00408 10030 21030 30138 40148 56015 60006 80000 90600 333 10104 20019 60004=
07643,1997-12-15 09:00:00,5,1014.1,-0.7,56,-3,75000,14.816,,,340,,,,,,,,,,,wg-a,,,,AAXX 15094 07643 12/89 03408 10050 21030 30131 40141 56007 60006 80000 90900=
07643,1997-12-15 12:00:00,9,1013.8,-0.3,40,-4,75000,29.632,,,30,,,,,,,,,,,wg-a,,,,AAXX 15124 07643 12789 20316 10090 21040 30128 40138 58003 60006 81530 91200=
07643,1997-12-15 15:00:00,8,1013.3,-0.5,49,-2,75000,18.52,,,20,,,,,,,,,,,wg-a,,,,AAXX 15154 07643 12689 30210 10080 21020 30123 40133 55005 60006 81830 91500=
07643,1997-12-15 18:00:00,4,1014.3,1,81,1,18000,25.928,,,30,1.5,9.5,,,,,,,,,wg-a,,,,AAXX 15184 07643 12668 /0314 10040 20010 30133 40143 51010 60006 84830 91800 333 10095 20015=
07643,1997-12-16 00:00:00,4,1014,-0.6,75,0,12000,22.224,,,30,,,,,,,,,,21,wg-a,,,,AAXX 16004 07643 02562 70312 10040 20000 30130 40140 58006 61000 72162 875// 90000 333 6100=
07643,1997-12-16 03:00:00,4,1012.2,-1.8,81,1,12000,14.816,,,20,,,,0,,,,,,17,wg-a,,,,AAXX 16034 07643 12562 80208 10040 20010 30112 40122 58018 60007 71796 879// 90300=
07643,1997-12-16 06:00:00,4,1011.3,-0.9,81,1,12000,7.408,,,20,3.3,4.8,,,,,2,,,17,wg-a,,,,AAXX 16064 07643 02462 80204 10040 20010 30103 40113 58009 60006 71796 879// 90600 333 10048 20033 60024=
07643,1997-12-16 15:00:00,9,1008.1,-2.1,71,4,7000,42.596,,62.968,110,,,,1,,,,,,61,wg-a,,,,AAXX 16154 07643 12557 81123 10090 20040 30071 40081 56021 60017 76166 888// 91500 333 91034=
07643,1997-12-16 18:00:00,7,1007.9,-0.2,76,3,8000,29.632,,,100,4.2,9.2,,,,,,,,61,wg-a,,,,AAXX 16184 07643 02658 81016 10070 20030 30069 40079 56002 61000 76166 885// 91800 333 10092 20042 6000=
07643,1997-12-16 21:00:00,9,1006.7,-1.2,81,6,8000,68.524,,88.896,120,,,,2,,,,,,61,wg-a,,,,AAXX 16214 07643 12558 81237 10090 20060 30057 40067 58012 60027 76166 885// 92100 333 91048=
07643,1997-12-17 00:00:00,8,1007.1,0.4,93,7,6000,61.116,,,120,,,,8,,,,,,65,wg-a,,,,AAXX 17004 07643 02256 81233 10080 20070 30061 40071 53004 60106 76566 885// 90000 333 60087=
07643,1997-12-17 03:00:00,9,1006.6,-0.5,93,8,7000,46.3,,70.376,120,,,,9,,,,,,63,wg-a,,,,AAXX 17034 07643 12357 81225 10090 20080 30056 40066 56005 60097 76366 885// 90300 333 91038=
07643,1997-12-17 06:00:00,10,1006,-0.6,87,8,6000,64.82,,83.34,130,6.6,10.2,,,,,,,,61,wg-a,,,,AAXX 17064 07643 02356 81335 10100 20080 30050 40060 55006 61000 76166 885// 90600 333 10102 20066 6025 91045=
07643,1997-12-17 09:00:00,11,1007.6,1.6,82,8,8000,72.228,,96.304,140,,,,1,,,,,,60,wg-a,,,,AAXX 17094 07643 12458 81439 10110 20080 30066 40076 53016 60017 76066 8557/ 90900 333 91052=
07643,1997-12-17 12:00:00,11,1007.7,0.1,87,9,500,64.82,,87.044,130,,,,1,,,,,,61,wg-a,,,,AAXX 17124 07643 02200 81335 10110 20090 30067 40077 50001 60026 76162 8557/ 91200 333 60017 91047=
07643,1997-12-17 18:00:00,12,1008.3,0.8,94,11,4000,72.228,,96.304,140,10,11.9,,,,,,,,61,wg-a,,,,AAXX 17184 07643 02440 81439 10120 20110 30073 40083 53008 61000 76166 8557/ 91800 333 10119 20100 6003 91052=
07643,1997-12-17 21:00:00,12,1009.6,1.3,94,11,3000,64.82,,83.34,140,,,,5,,,,,,63,wg-a,,,,AAXX 17214 07643 12330 81435 10120 20110 30086 40096 51013 60057 76366 877// 92100 333 91045=
07643,1997-12-18 00:00:00,12,1009.1,-0.5,94,11,4000,64.82,,85.192,130,,,,2,,,,,,60,wg-a,,,,AAXX 18004 07643 02240 81335 10120 20110 30081 40091 58005 60076 76066 877// 90000 333 60027 91046=
07643,1997-12-18 03:00:00,13,1008.2,-0.9,88,11,4500,61.116,,83.34,140,,,,1,,,,,,60,wg-a,,,,AAXX 18034 07643 12445 81433 10130 20110 30072 40082 58009 60017 76066 877// 90300 333 91045=
07643,1997-12-18 06:00:00,13,1007.5,-0.7,88,11,7000,61.116,,,130,11.5,13.2,,,,,17,,,3,wg-a,,,,AAXX 18064 07643 02457 81333 10130 20110 30065 40075 55007 60006 70362 8652/ 90600 333 10132 20115 60174=
07643,1997-12-18 09:00:00,13,1007.3,-0.2,94,12,7000,61.116,,83.34,140,,,,2,,,,,,61,wg-a,,,,AAXX 18094 07643 12457 81433 10130 20120 30063 40073 58002 60027 76162 8552/ 90900 333 91045=
07643,1997-12-18 12:00:00,13,1005,-2.3,94,12,500,53.708,,,140,,,,8,,,,,,63,wg-a,,,,AAXX 18124 07643 02100 81429 10130 20120 30040 40050 58023 60106 76362 8652/ 91200 333 60087=
07643,1997-12-18 15:00:00,14,1002.2,-2.7,82,11,6000,64.82,,85.192,130,,,,4,,,,,,61,wg-a,,,,AAXX 18154 07643 12556 81335 10140 20110 30013 40022 56027 60047 76166 8552/ 91500 333 91046=
07643,1997-12-18 18:00:00,14,1000.5,-1.7,88,12,4000,61.116,,94.452,140,12.6,13.9,,,,,,,,61,wg-a,,,,AAXX 18184 07643 02440 81433 10140 20120 39996 40005 57017 61000 76166 885// 91800 333 10139 20126 6006 91051=
07643,1997-12-18 21:00:00,15,1001.6,1.1,88,13,4500,50.004,,,150,,,,2,,,,,,21,wg-a,,,,AAXX 18214 07643 12345 81527 10150 20130 30007 40016 51011 60027 72162 885// 92100=
07643,1997-12-19 00:00:00,15,1001.3,-0.3,88,13,6000,35.188,,,150,,,,,,,,,,1,wg-a,,,,AAXX 19004 07643 12456 /1519 10150 20130 30004 40013 58003 60026 70162 86500 90000=
07643,1997-12-19 03:00:00,14,1000.4,-0.9,94,13,6000,29.632,,,160,,,,,,,,,,,wg-a,,,,AAXX 19034 07643 12456 /1616 10140 20130 39995 40004 56009 60006 83500 90300=
07643,1997-12-19 06:00:00,14,1000.5,0.1,88,12,10000,38.892,,,170,13.5,15,,,,,22,,,,wg-a,,,,AAXX 19064 07643 02460 51721 10140 20120 39996 40005 53001 60006 82532 90600 333 10150 20135 60224=
07643,1997-12-19 09:00:00,15,1001.7,1.2,82,12,7000,35.188,,,160,,,,,,,,,,,wg-a,,,,AAXX 19094 07643 12157 71619 10150 20120 30008 40017 52012 60006 8577/ 90900=
07643,1997-12-19 12:00:00,15,1001.1,-0.6,82,12,6000,46.3,,,160,,,,,,,,,,,wg-a,,,,AAXX 19124 07643 12156 81625 10150 20120 30002 40011 58006 60006 8577/ 91200=
07643,1997-12-19 15:00:00,15,1000.5,-0.6,82,12,6000,29.632,,,160,,,,,,,,,,,wg-a,,,,AAXX 19154 07643 12156 81616 10150 20120 39996 40005 56006 60006 877// 91500=
07643,1997-12-19 18:00:00,14,1000.6,0.1,82,11,3000,29.632,,,170,13.4,14.9,,,,,,,,,wg-a,,,,AAXX 19184 07643 12130 81716 10140 20110 39997 40006 50001 60006 877// 91800 333 10149 20134=
07643,1997-12-19 21:00:00,11,1000,-0.7,94,10,13000,11.112,,,60,,,,,,,,,,,wg-a,,,,AAXX 19214 07643 12463 70606 10110 20100 39990 40000 58007 60006 875// 92100=
07643,1997-12-20 00:00:00,11,1000.5,0.5,94,10,8000,7.408,,,10,,,,,,,,,,,wg-a,,,,AAXX 20004 07643 12/58 /0104 10110 20100 39995 40005 51005 60006 90000=
07643,1997-12-20 03:00:00,10,1001,0.5,100,10,8000,3.704,,,310,,,,,,,,,,,wg-a,,,,AAXX 20034 07643 12458 83102 10100 20100 30000 40010 53005 60006 885// 90300=
07643,1997-12-20 06:00:00,9,1001.8,0.8,100,9,7000,0,,,0,9,13.5,,,,,,,,,wg-a,,,,AAXX 20064 07643 02457 70000 10090 20090 30008 40018 53008 60006 875// 90600 333 10135 20090 60004=
07643,1997-12-20 09:00:00,12,1003.6,1.8,82,9,15000,7.408,,,310,,,,,,,,,,,wg-a,,,,AAXX 20094 07643 12665 53104 10120 20090 30026 40036 53018 60006 82531 90900=
07643,1997-12-20 15:00:00,14,1005.5,0.9,55,5,40000,18.52,,,310,,,,,,,,,,,wg-a,,,,AAXX 20154 07643 12582 63110 10140 20050 30045 40055 53009 60006 82831 91500=
07643,1997-12-20 18:00:00,10,1007.4,1.9,76,6,40000,18.52,,,270,8.1,15.1,,,,,,,,,wg-a,,,,AAXX 20184 07643 12682 /2710 10100 20060 30064 40074 53019 60006 81530 91800 333 10151 20081=
07643,1997-12-20 21:00:00,8,1009,1.6,87,6,18000,11.112,,,270,,,,,,,,,,,wg-a,,,,AAXX 20214 07643 12668 32706 10080 20060 30080 40090 51016 60006 81541 92100=
07643,1997-12-21 00:00:00,8,1008.9,-0.1,81,5,18000,11.112,,,270,,,,,,,,,,,wg-a,,,,AAXX 21004 07643 12/68 32706 10080 20050 30079 40089 58001 60006 82072 90000=
07643,1997-12-21 03:00:00,9,1009.3,0.4,87,7,18000,11.112,,,240,,,,,,,,,,,wg-a,,,,AAXX 21034 07643 12668 72406 10090 20070 30083 40093 53004 60006 875// 90300=
07643,1997-12-21 06:00:00,10,1009.7,0.4,82,7,18000,22.224,,,240,7.3,10.5,,,,,,,,,wg-a,,,,AAXX 21064 07643 02668 62412 10100 20070 30087 40097 53004 60006 82571 90600 333 10105 20073 60004=
07643,1997-12-21 09:00:00,12,1011,1.3,71,7,75000,18.52,,,250,,,,,,,,,,,wg-a,,,,AAXX 21094 07643 12689 72510 10120 20070 30100 40110 53013 60006 8554/ 90900=
07643,1997-12-21 12:00:00,14,1010.5,-0.5,63,7,75000,29.632,,,290,,,,,,,,,,,wg-a,,,,AAXX 21124 07643 12689 52916 10140 20070 30095 40105 58005 60006 84840 91200=
07643,1997-12-21 15:00:00,14,1011,0.5,58,6,75000,18.52,,,280,,,,,,,,,,,wg-a,,,,AAXX 21154 07643 12689 62810 10140 20060 30100 40110 53005 60006 84540 91500=
07643,1997-12-21 18:00:00,12,1012,1,62,5,40000,18.52,,,300,9.3,15.2,,,,,,,,,wg-a,,,,AAXX 21184 07643 12782 33010 10120 20050 30110 40120 51010 60006 83540 91800 333 10152 20093=
07643,1997-12-21 21:00:00,8,1013,1,76,4,40000,3.704,,,340,,,,,,,,,,,wg-a,,,,AAXX 21214 07643 12782 23402 10080 20040 30120 40130 51010 60006 81540 92100=
07643,1997-12-22 00:00:00,6,1013.1,0.1,87,4,40000,11.112,,,290,,,,,,,,,,,wg-a,,,,AAXX 22004 07643 12782 22906 10060 20040 30121 40131 50001 60006 81530 90000=
07643,1997-12-22 03:00:00,5,1012.9,-0.2,87,3,40000,7.408,,,310,,,,,,,,,,,wg-a,,,,AAXX 22034 07643 12/82 13104 10050 20030 30119 40129 58002 60006 81030 90300=
07643,1997-12-22 06:00:00,3,1012.8,-0.1,93,2,40000,3.704,,,280,2.3,12.2,,,,,,,,,wg-a,,,,AAXX 22064 07643 02/82 12802 10030 20020 30118 40128 55001 60006 81030 90600 333 10122 20023 60004=
07643,1997-12-22 09:00:00,7,1013.3,0.5,81,4,40000,0,,,0,,,,,,,,,,,wg-a,,,,AAXX 22094 07643 12/82 30000 10070 20040 30123 40133 52005 60006 81031 90900=
07643,1997-12-22 12:00:00,11,1012.3,-1,71,6,40000,3.704,,,110,,,,,,,,,,,wg-a,,,,AAXX 22124 07643 12/82 51102 10110 20060 30113 40123 58010 60006 81031 91200=
07643,1997-12-22 15:00:00,11,1012,-0.3,71,6,500,7.408,,,160,,,,,,,,,,,wg-a,,,,AAXX 22154 07643 12/00 61604 10110 20060 30110 40120 56003 60006 82076 91500=
07643,1997-12-22 18:00:00,9,1013,1,81,6,10000,7.408,,,60,1.5,11.6,,,,,,,,,wg-a,,,,AAXX 22184 07643 12/60 /0604 10090 20060 30120 40130 53010 60006 91800 333 10116 20015=
07643,1997-12-22 21:00:00,8,1014.6,1.6,87,6,15000,3.704,,,40,,,,,,,,,,50,wg-a,,,,AAXX 22214 07643 02765 70402 10080 20060 30136 40146 51016 61000 75052 8757/ 92100 333 ////=
07643,1997-12-23 00:00:00,7,1015.7,1.1,93,6,15000,7.408,,,20,,,,,,,,,,60,wg-a,,,,AAXX 23004 07643 02665 70204 10070 20060 30147 40157 51011 61000 76065 8757/ 90000 333 6100=
07643,1997-12-23 03:00:00,7,1016.4,0.7,93,6,8000,7.408,,,20,,,,2,,,,,,60,wg-a,,,,AAXX 23034 07643 12558 70204 10070 20060 30154 40164 53007 60027 76066 8757/ 90300=
07643,1997-12-23 06:00:00,7,1017.6,1.2,93,6,8000,3.704,,,340,7.1,8.7,,,,,,,,60,wg-a,,,,AAXX 23064 07643 02458 73402 10070 20060 30166 40176 53012 61000 76066 8757/ 90600 333 10087 20071 6002=
07643,1997-12-23 09:00:00,9,1020.5,2.9,93,8,11000,3.704,,,290,,,,,,,,,,,wg-a,,,,AAXX 23094 07643 32/61 /2902 10090 20080 30195 40205 53029 90900=
07643,1997-12-23 12:00:00,15,1021.1,0.6,59,7,25000,22.224,,,310,,,,,,,,,,1,wg-a,,,,AAXX 23124 07643 12675 63112 10150 20070 30201 40211 50006 60016 70162 81542 91200=
07643,1997-12-23 15:00:00,15,1022.7,1.6,55,6,11000,29.632,,,310,,,,,,,,,,,wg-a,,,,AAXX 23154 07643 32/61 /3116 10150 20060 30217 40227 53016 91500=
07643,1997-12-23 18:00:00,12,1025.7,3,58,4,40000,18.52,,,310,7.1,16,,,,,,,,,wg-a,,,,AAXX 23184 07643 12682 /3110 10120 20040 30247 40257 53030 60006 81500 91800 333 10160 20071=
07643,1997-12-23 21:00:00,9,1027.7,2,66,3,500,11.112,,,300,,,,,,,,,,,wg-a,,,,AAXX 23214 07643 12/00 03006 10090 20030 30267 40277 51020 60006 80000 92100=
07643,1997-12-24 00:00:00,9,1028.7,1,66,3,500,14.816,,,300,,,,,,,,,,,wg-a,,,,AAXX 24004 07643 12/00 03008 10090 20030 30277 40287 51010 60006 80000 90000=
07643,1997-12-24 03:00:00,7,1028.5,-0.2,76,3,20000,3.704,,,360,,,,,,,,,,,wg-a,,,,AAXX 24034 07643 12/70 03602 10070 20030 30275 40285 58002 60006 80000 90300=
07643,1997-12-24 06:00:00,8,1028.4,-0.1,81,5,20000,7.408,,,330,6.3,11.7,,,,,1,,,,wg-a,,,,AAXX 24064 07643 02/70 23304 10080 20050 30274 40284 55001 60006 80001 90600 333 10117 20063 60014=
07643,1997-12-24 09:00:00,10,1029.4,1,82,7,40000,11.112,,,320,,,,,,,,,,,wg-a,,,,AAXX 24094 07643 12/82 33206 10100 20070 30284 40294 51010 60006 80001 90900=
07643,1997-12-24 12:00:00,14,1028.3,-1.1,72,9,40000,11.112,,,160,,,,,,,,,,,wg-a,,,,AAXX 24124 07643 12/82 51606 10140 20090 30273 40283 58011 60006 80001 91200=
07643,1997-12-24 15:00:00,13,1027.8,-0.5,82,10,500,7.408,,,180,,,,,,,,,,,wg-a,,,,AAXX 24154 07643 12/00 71804 10130 20100 30268 40278 55005 60006 85032 91500=
07643,1997-12-24 18:00:00,10,1028,0.2,93,9,25000,0,,,0,5.5,15.9,,,,,,,,,wg-a,,,,AAXX 24184 07643 12/75 70000 10100 20090 30270 40280 53002 60006 8507/ 91800 333 10159 20055=
07643,1997-12-24 21:00:00,8,1028.5,0.5,93,7,15000,3.704,,,30,,,,,,,,,,,wg-a,,,,AAXX 24214 07643 12/65 70302 10080 20070 30275 40285 51005 60006 8707/ 92100=
07643,1997-12-25 00:00:00,8,1028.1,-0.4,87,6,15000,7.408,,,10,,,,,,,,,,,wg-a,,,,AAXX 25004 07643 12/65 70104 10080 20060 30271 40281 58004 60006 8703/ 90000=
07643,1997-12-25 06:00:00,8,1026,-0.6,93,7,15000,3.704,,,320,7.2,9.8,,,,,,,,3,wg-a,,,,AAXX 25064 07643 02/65 73202 10080 20070 30250 40260 58006 60006 70362 84032 90600 333 10098 20072 61000=
07643,1997-12-25 09:00:00,8,1026.5,0.5,100,8,20000,0,,,0,,,,,,,,,,,wg-a,,,,AAXX 25094 07643 12/70 70000 10080 20080 30255 40265 50005 60006 84032 90900=
07643,1997-12-25 12:00:00,13,1025,-1.5,77,9,500,3.704,,,130,,,,0,,,,,,,wg-a,,,,AAXX 25124 07643 02700 41302 10130 20090 30240 40250 58015 60006 81530 91200 333 60007=
07643,1997-12-25 18:00:00,10,1023.4,-0.3,93,9,3000,0,,,0,7.1,13.7,,,,,,,,10,wg-a,,,,AAXX 25184 07643 12330 70000 10100 20090 30224 40234 55003 60006 71011 84677 91800 333 10137 20071=
07643,1997-12-25 21:00:00,9,1023.2,-0.2,93,8,2500,3.704,,,360,,,,,,,,,,,wg-a,,,,AAXX 25214 07643 12/25 /3602 10090 20080 30222 40232 55002 60006 92100=
07643,1997-12-26 00:00:00,8,1021.8,-1.4,93,7,1500,7.408,,,340,,,,,,,,,,10,wg-a,,,,AAXX 26004 07643 12215 73404 10080 20070 30208 40218 58014 60006 71022 8667/ 90000=
07643,1997-12-26 03:00:00,8,1019.9,-1.9,93,7,4000,7.408,,,30,,,,,,,,,,10,wg-a,,,,AAXX 26034 07643 12440 70304 10080 20070 30189 40199 58019 60006 71022 8667/ 90300=
07643,1997-12-26 06:00:00,9,1018.5,-1.4,93,8,4000,7.408,,,310,7,9.9,,,,,,,,10,wg-a,,,,AAXX 26064 07643 02440 73104 10090 20080 30175 40185 56014 60006 71042 8667/ 90600 333 10099 20070 60004=
07643,1997-12-26 09:00:00,10,1018.8,0.3,82,7,25000,3.704,,,310,,,,,,,,,,,wg-a,,,,AAXX 26094 07643 12675 83102 10100 20070 30178 40188 52003 60006 8257/ 90900=
07643,1997-12-26 12:00:00,11,1017.8,-1,71,6,500,18.52,,,280,,,,,,,,,,,wg-a,,,,AAXX 26124 07643 12600 82810 10110 20060 30168 40178 58010 60006 8257/ 91200=
07643,1997-12-26 18:00:00,11,1016.8,0.2,62,4,20000,18.52,,,300,7.9,12.5,,,,,,,,,wg-a,,,,AAXX 26184 07643 12670 53010 10110 20040 30158 40168 53002 60006 81532 91800 333 10125 20079=
07643,1997-12-26 21:00:00,10,1015.9,-0.9,71,5,20000,22.224,,,290,,,,,,,,,,,wg-a,,,,AAXX 26214 07643 12670 22912 10100 20050 30149 40159 58009 60006 82500 92100=
07643,1997-12-27 00:00:00,9,1015.9,-0,71,4,20000,11.112,,,270,,,,,,,,,,,wg-a,,,,AAXX 27004 07643 12670 42706 10090 20040 30149 40159 54000 60006 82530 90000=
07643,1997-12-27 03:00:00,9,1014.6,-1.3,71,4,20000,31.484,,,290,,,,,,,,,,,wg-a,,,,AAXX 27034 07643 12670 42917 10090 20040 30136 40146 58013 60006 82530 90300=
07643,1997-12-27 06:00:00,9,1015,0.4,66,3,20000,14.816,,,280,8.4,10.9,,,,,,,,,wg-a,,,,AAXX 27064 07643 02670 /2808 10090 20030 30140 40150 53004 60006 8257/ 90600 333 10109 20084 60004=
07643,1997-12-27 09:00:00,10,1016.1,1.1,66,4,40000,18.52,,,280,,,,,,,,,,,wg-a,,,,AAXX 27094 07643 12582 /2810 10100 20040 30151 40161 53011 60006 84832 90900=
07643,1997-12-27 12:00:00,13,1015.5,-0.6,51,3,40000,29.632,,,320,,,,,,,,,,,wg-a,,,,AAXX 27124 07643 12582 43216 10130 20030 30145 40155 58006 60006 83132 91200=
07643,1997-12-27 15:00:00,12,1015.4,-0.1,54,3,40000,25.928,,,310,,,,,,,,,,,wg-a,,,,AAXX 27154 07643 12682 33114 10120 20030 30144 40154 55001 60006 82132 91500=
07643,1997-12-27 18:00:00,10,1016.2,0.8,62,3,500,31.484,,,300,8,13,,,,,,,,,wg-a,,,,AAXX 27184 07643 12/00 03017 10100 20030 30152 40162 53008 60006 80000 91800 333 10130 20080=
07643,1997-12-27 21:00:00,8,1017.8,1.6,61,1,18000,11.112,,,250,,,,,,,,,,,wg-a,,,,AAXX 27214 07643 12/68 12506 10080 20010 30168 40178 51016 60006 81030 92100=
07643,1997-12-28 00:00:00,7,1017.6,-0.2,66,1,15000,11.112,,,280,,,,,,,,,,,wg-a,,,,AAXX 28004 07643 12/65 02806 10070 20010 30166 40176 57002 60006 80000 90000=
07643,1997-12-28 03:00:00,7,1017.9,0.3,66,1,15000,11.112,,,270,,,,,,,,,,,wg-a,,,,AAXX 28034 07643 12/65 02706 10070 20010 30169 40179 52003 60006 80000 90300=
07643,1997-12-28 06:00:00,7,1017.6,-0.3,70,2,15000,18.52,,,310,5.2,9.8,,,,,,,,,wg-a,,,,AAXX 28064 07643 02/65 03110 10070 20020 30166 40176 56003 60006 80000 90600 333 10098 20052 60004=
07643,1997-12-28 09:00:00,8,1018.3,0.7,66,2,25000,3.704,,,260,,,,,,,,,,,wg-a,,,,AAXX 28094 07643 12675 42602 10080 20020 30173 40183 51007 60006 81540 90900=
07643,1997-12-28 12:00:00,12,1016.4,-1.9,50,2,75000,3.704,,,280,,,,,,,,,,,wg-a,,,,AAXX 28124 07643 12689 /2802 10120 20020 30154 40164 58019 60006 81142 91200=
07643,1997-12-28 15:00:00,12,1015,-1.4,47,1,500,14.816,,,310,,,,,,,,,,,wg-a,,,,AAXX 28154 07643 12600 /3108 10120 20010 30140 40150 56014 60006 81142 91500=
07643,1997-12-28 18:00:00,7,1015,-0,66,1,25000,11.112,,,320,5.3,12.5,,,,,,,,,wg-a,,,,AAXX 28184 07643 12675 53206 10070 20010 30140 40150 55000 60006 81142 91800 333 10125 20053=
07643,1997-12-28 21:00:00,4,1014.6,-0.4,81,1,18000,7.408,,,300,,,,,,,,,,,wg-a,,,,AAXX 28214 07643 12/68 03004 10040 20010 30136 40146 58004 60006 80000 92100=
07643,1997-12-29 00:00:00,2,1014.1,-0.5,87,0,15000,7.408,,,320,,,,,,,,,,,wg-a,,,,AAXX 29004 07643 12/65 03204 10020 20000 30131 40141 56005 60006 80000 90000=
07643,1997-12-29 03:00:00,2,1013.3,-0.8,87,0,15000,7.408,,,340,,,,,,,,,,,wg-a,,,,AAXX 29034 07643 12/65 03404 10020 20000 30123 40133 58008 60006 80000 90300=
07643,1997-12-29 06:00:00,-1,1013.3,-0,93,-2,15000,7.408,,,40,-0.8,7.6,,,,,,,,,wg-a,,,,AAXX 29064 07643 02/65 00404 11010 21020 30123 40133 55000 60006 80000 90600 333 10076 21008 60004=
07643,1997-12-29 09:00:00,3,1014.6,1.3,81,0,35000,7.408,,,40,,,,,,,,,,,wg-a,,,,AAXX 29094 07643 12/81 10404 10030 20000 30136 40146 53013 60006 80001 90900=
07643,1997-12-29 12:00:00,9,1013.5,-1.1,49,-1,35000,14.816,,,40,,,,,,,,,,,wg-a,,,,AAXX 29124 07643 12/81 00408 10090 21010 30125 40135 58011 60006 80000 91200=
07643,1997-12-29 15:00:00,10,1013,-0.5,53,1,35000,7.408,,,110,,,,,,,,,,,wg-a,,,,AAXX 29154 07643 12/81 01104 10100 20010 30120 40130 55005 60006 80000 91500=
07643,1997-12-29 18:00:00,5,1013.6,0.6,75,1,25000,3.704,,,20,-1.2,10.7,,,,,,,,,wg-a,,,,AAXX 29184 07643 12/75 10202 10050 20010 30126 40136 53006 60006 80001 91800 333 10107 21012=
07643,1997-12-30 00:00:00,5,1014.7,0.1,75,1,9000,14.816,,,30,,,,,,,,,,,wg-a,,,,AAXX 30004 07643 12659 70308 10050 20010 30137 40147 50001 60006 875// 90000=
07643,1997-12-30 03:00:00,6,1014.8,0.1,75,2,9000,18.52,,,40,,,,,,,,,,,wg-a,,,,AAXX 30034 07643 12259 70410 10060 20020 30138 40148 50001 60006 875// 90300=
07643,1997-12-30 06:00:00,5,1015.4,0.6,100,5,9000,22.224,,,30,2.3,5.8,,,,,,,,21,wg-a,,,,AAXX 30064 07643 02259 80312 10050 20050 30144 40154 53006 61000 72162 885// 90600 333 10058 20023 6001=
07643,1997-12-30 09:00:00,7,1017,1.6,93,6,9000,14.816,,,30,,,,,,,,,,,wg-a,,,,AAXX 30094 07643 12259 70308 10070 20060 30160 40170 53016 60006 8553/ 90900=
07643,1997-12-30 12:00:00,8,1016.3,-0.7,93,7,7000,18.52,,,30,,,,,,,,,,,wg-a,,,,AAXX 30124 07643 12257 80310 10080 20070 30153 40163 58007 60006 8557/ 91200=
07643,1997-12-30 15:00:00,8,1015.7,-0.6,93,7,6000,14.816,,,30,,,,1,,,,,,60,wg-a,,,,AAXX 30154 07643 12256 80308 10080 20070 30147 40157 56006 60017 76062 8557/ 91500=
07643,1997-12-30 18:00:00,8,1015.9,0.2,93,7,7000,14.816,,,20,5.2,8.3,,,,,,,,61,wg-a,,,,AAXX 30184 07643 02257 80208 10080 20070 30149 40159 53002 61000 76162 8557/ 91800 333 10083 20052 6002=
07643,1997-12-31 00:00:00,9,1014,-1.7,93,8,9000,14.816,,,80,,,,1,,,,,,21,wg-a,,,,AAXX 31004 07643 02259 80808 10090 20080 30130 40140 57017 60026 72162 875// 90000 333 60017=
07643,1997-12-31 06:00:00,13,1012.5,-1,94,12,12000,29.632,,,150,7.6,12.7,,,,,7,,,2,wg-a,,,,AAXX 31064 07643 02262 81516 10130 20120 30115 40125 56010 60006 70286 875// 90600 333 10127 20076 60074=
07643,1997-12-31 09:00:00,13,1014.3,1.8,88,11,12000,25.928,,,160,,,,0,,,,,,,wg-a,,,,AAXX 31094 07643 12462 81614 10130 20110 30133 40143 53018 60007 8657/ 90900=
07643,1997-12-31 12:00:00,13,1013.8,-0.5,88,11,14000,31.484,,,140,,,,,,,,,,,wg-a,,,,AAXX 31124 07643 12464 71417 10130 20110 30128 40138 58005 60006 8587/ 91200=
07643,1997-12-31 15:00:00,13,1013.3,-0.5,88,11,14000,29.632,,,140,,,,,,,,,,,wg-a,,,,AAXX 31154 07643 12464 71416 10130 20110 30123 40133 56005 60006 81242 91500=
07643,1997-12-31 18:00:00,13,1014.1,0.8,88,11,10000,25.928,,,150,12,14.2,,,,,,,,,wg-a,,,,AAXX 31184 07643 12460 71514 10130 20110 30131 40141 52008 60006 84502 91800 333 10142 20120=
07643,1997-12-31 21:00:00,13,1014.3,0.2,88,11,10000,25.928,,,140,,,,4,,,,,,21,wg-a,,,,AAXX 31214 07643 12460 71414 10130 20110 30133 40143 50002 60047 72186 878// 92100=
