station_id,dh_utc,temperature,pression,pression_variation_3h,humidite,point_de_rosee,visibilite,vent_moyen,vent_rafales,vent_rafales_10min,vent_direction,temperature_min,temperature_max,pluie_1h,pluie_3h,pluie_6h,pluie_12h,pluie_24h,ensoleillement,temperature_sol,temps_omm,source,radiations,neige_au_sol,nebulosite,raw_msg
07481,1996-01-01 00:00:00,8,1001.8,1.2,93,7,15000,7.408,,,190,,,,0,,,,,,60,wg-a,,,,AAXX 01004 07481 02265 81904 10080 20070 39732 40018 51012 60026 76062 875// 90000 333 60007=
07481,1996-01-01 03:00:00,8,1002,0.2,87,6,25000,7.408,,,170,,,,0,,,,,,21,wg-a,,,,AAXX 01034 07481 12575 /1704 10080 20060 39734 40020 50002 60007 72162 86500 90300=
07481,1996-01-01 06:00:00,5,1002.4,0.1,93,4,20000,11.112,,,110,5.3,8.9,,,,,3,,,1,wg-a,,,,AAXX 01064 07481 12570 /1106 10050 20040 39735 40024 50001 60034 70161 83500 90600 333 10089 20053=
07481,1996-01-01 09:00:00,8,1000.6,-1.5,87,6,20000,7.408,,,90,,,,,,,,,,,wg-a,,,,AAXX 01094 07481 12670 /0904 10080 20060 39720 40006 58015 60006 83502 90900=
07481,1996-01-01 12:00:00,10,998.6,-1.7,87,8,25000,11.112,,,110,,,,,,,,,,,wg-a,,,,AAXX 01124 07481 12475 71106 10100 20080 39703 49986 58017 60006 82832 91200=
07481,1996-01-01 15:00:00,9,998.5,-0.2,81,6,25000,11.112,,,130,,,,,,,,,,,wg-a,,,,AAXX 01154 07481 12475 71306 10090 20060 39701 49985 55002 60006 8187/ 91500=
07481,1996-01-01 18:00:00,7,999.5,0.8,87,5,25000,14.816,,,150,4.1,11.4,,,,,,,,,wg-a,,,,AAXX 01184 07481 12675 71508 10070 20050 39709 49995 52008 60006 81572 91800 333 10114 20041=
07481,1996-01-01 21:00:00,7,1000.9,1.3,87,5,25000,14.816,,,170,,,,,,,,,,,wg-a,,,,AAXX 01214 07481 12775 71708 10070 20050 39722 40009 53013 60006 81572 92100=
07481,1996-01-02 00:00:00,7,1001.4,0.5,93,6,12000,14.816,,,150,,,,1,,,,,,61,wg-a,,,,AAXX 02004 07481 02662 81508 10070 20060 39727 40014 53005 60016 76162 8557/ 90000 333 60017=
07481,1996-01-02 03:00:00,8,1001.8,0.5,93,7,500,14.816,,,130,,,,3,,,,,,21,wg-a,,,,AAXX 02034 07481 12600 71308 10080 20070 39732 40018 52005 60037 72162 8557/ 90300=
07481,1996-01-02 06:00:00,9,1002.2,0.5,87,7,500,18.52,,,170,6.6,9.2,,0,,,5,,,3,wg-a,,,,AAXX 02064 07481 02500 81710 10090 20070 39737 40022 53005 60054 70362 885// 90600 333 10092 20066 60007=
07481,1996-01-02 09:00:00,10,1003.9,1.7,82,7,500,14.816,,,170,,,,,,,,,,,wg-a,,,,AAXX 02094 07481 12200 71708 10100 20070 39754 40039 53017 60006 878// 90900=
07481,1996-01-02 12:00:00,10,1006.1,2.2,87,8,20000,11.112,,,190,,,,0,,,,,,61,wg-a,,,,AAXX 02124 07481 02470 71906 10100 20080 39776 40061 51022 60006 76162 878// 91200 333 60007=
07481,1996-01-02 15:00:00,10,1009.4,3.2,82,7,20000,18.52,,,290,,,,0,,,,,,3,wg-a,,,,AAXX 02154 07481 12470 82910 10100 20070 39808 40094 53032 60007 70362 885// 91500=
07481,1996-01-02 18:00:00,7,1014.5,4.6,81,4,35000,11.112,,,320,6.6,10.5,,,,,,,,21,wg-a,,,,AAXX 02184 07481 02581 73206 10070 20040 39854 40145 52046 61000 72162 875// 91800 333 10105 20066 ////=
07481,1996-01-02 21:00:00,5,1017.8,3,93,4,25000,18.52,,,360,,,,0,,,,,,60,wg-a,,,,AAXX 02214 07481 12575 73610 10050 20040 39884 40178 51030 60007 76062 8557/ 92100=
07481,1996-01-03 00:00:00,5,1019.5,1.6,93,4,7000,7.408,,,340,,,,0,,,,,,60,wg-a,,,,AAXX 03004 07481 02357 73404 10050 20040 39900 40195 51016 60016 76062 875// 90000 333 60007=
07481,1996-01-03 03:00:00,5,1020.5,1,93,4,15000,14.816,,,350,,,,0,,,,,,20,wg-a,,,,AAXX 03034 07481 12265 73508 10050 20040 39910 40205 51010 60007 72052 875// 90300=
07481,1996-01-03 06:00:00,4,1020.3,-0.2,93,3,18000,14.816,,,10,4.2,6.7,,,,,1,,,1,wg-a,,,,AAXX 03064 07481 12368 70108 10040 20030 39908 40203 58002 60014 70152 8557/ 90600 333 10067 20042=
07481,1996-01-03 09:00:00,5,1021.1,0.8,87,3,8000,11.112,,,350,,,,,,,,,,,wg-a,,,,AAXX 03094 07481 12358 73506 10050 20030 39916 40211 53008 60006 875// 90900=
07481,1996-01-03 12:00:00,5,1021.5,0.4,87,3,8000,14.816,,,340,,,,,,,,,,,wg-a,,,,AAXX 03124 07481 12358 83408 10050 20030 39920 40215 50004 60006 875// 91200=
07481,1996-01-03 15:00:00,5,1021.4,-0.1,81,2,10000,14.816,,,340,,,,,,,,,,,wg-a,,,,AAXX 03154 07481 12460 83408 10050 20020 39919 40214 55001 60006 875// 91500=
07481,1996-01-03 18:00:00,4,1021.8,0.2,87,2,12000,11.112,,,350,3.5,5.1,,,,,,,,,wg-a,,,,AAXX 03184 07481 12362 83506 10040 20020 39921 40218 51002 60006 885// 91800 333 10051 20035=
07481,1996-01-03 21:00:00,3,1023.1,1.2,87,1,12000,11.112,,,20,,,,,,,,,,,wg-a,,,,AAXX 03214 07481 12362 80206 10030 20010 39933 40231 51012 60006 885// 92100=
07481,1996-01-04 00:00:00,3,1022.1,-1,87,1,12000,11.112,,,320,,,,,,,,,,,wg-a,,,,AAXX 04004 07481 12162 83206 10030 20010 39923 40221 56010 60006 885// 90000=
07481,1996-01-04 03:00:00,2,1021.4,-0.7,93,1,10000,11.112,,,330,,,,,,,,,,,wg-a,,,,AAXX 04034 07481 12260 83306 10020 20010 39916 40214 56007 60006 876// 90300=
07481,1996-01-04 06:00:00,2,1019.8,-1.6,93,1,8000,0,,,0,1.5,3.5,,,,,,,,,wg-a,,,,AAXX 04064 07481 12358 80000 10020 20010 39900 40198 56016 60006 875// 90600 333 10035 20015=
07481,1996-01-04 09:00:00,3,1018,-1.6,87,1,6000,7.408,,,150,,,,,,,,,,,wg-a,,,,AAXX 04094 07481 12256 51504 10030 20010 39884 40180 56016 60006 81102 90900=
07481,1996-01-04 12:00:00,8,1015,-2.4,66,2,13000,18.52,,,150,,,,,,,,,,,wg-a,,,,AAXX 04124 07481 12463 /1510 10080 20020 39860 40150 58024 60006 84402 91200=
07481,1996-01-04 15:00:00,8,1012.6,-2.3,66,2,12000,22.224,,,130,,,,,,,,,,,wg-a,,,,AAXX 04154 07481 12/62 61312 10080 20020 39837 40126 56023 60006 80002 91500=
07481,1996-01-04 18:00:00,6,1012.2,-0.6,70,1,20000,22.224,,,130,1.7,8.4,,,,,,,,,wg-a,,,,AAXX 04184 07481 12/70 61312 10060 20010 39831 40122 58006 60006 80002 91800 333 10084 20017=
07481,1996-01-04 21:00:00,7,1011.1,-1,66,1,25000,22.224,,,140,,,,,,,,,,,wg-a,,,,AAXX 04214 07481 12/75 61412 10070 20010 39821 40111 56010 60006 82032 92100=
07481,1996-01-05 00:00:00,6,1010.1,-1.1,75,2,20000,11.112,,,130,,,,,,,,,,,wg-a,,,,AAXX 05004 07481 12/70 61306 10060 20020 39810 40101 56011 60006 82032 90000=
07481,1996-01-05 03:00:00,6,1007.7,-2.3,81,3,20000,22.224,,,140,,,,,,,,,,,wg-a,,,,AAXX 05034 07481 12/70 71412 10060 20030 39787 40077 56023 60006 8705/ 90300=
07481,1996-01-05 06:00:00,7,1005.4,-2.1,81,4,25000,22.224,,,140,5.4,8.1,,,,,,,,,wg-a,,,,AAXX 05064 07481 12/75 41412 10070 20040 39766 40054 58021 60006 82031 90600 333 10081 20054=
07481,1996-01-05 09:00:00,8,1004.7,-0.6,81,5,25000,14.816,,,130,,,,,,,,,,,wg-a,,,,AAXX 05094 07481 12475 71308 10080 20050 39760 40047 56006 60006 81132 90900=
07481,1996-01-05 12:00:00,11,1001.8,-2.6,58,3,40000,18.52,,,160,,,,,,,,,,,wg-a,,,,AAXX 05124 07481 12/82 71610 10110 20030 39734 40018 58026 60006 81042 91200=
07481,1996-01-05 15:00:00,8,999.7,-2.2,66,2,40000,11.112,,,100,,,,,,,,,,,wg-a,,,,AAXX 05154 07481 12582 81006 10080 20020 39712 49997 56022 60006 81176 91500=
07481,1996-01-05 18:00:00,6,1000.6,0.6,87,4,15000,18.52,,,100,5,11.8,,1,,,,,,61,wg-a,,,,AAXX 05184 07481 12465 81010 10060 20040 39718 40006 53006 60017 76162 8387/ 91800 333 10118 20050=
07481,1996-01-05 21:00:00,5,1000.3,-0.3,93,4,10000,7.408,,,70,,,,7,,,,,,61,wg-a,,,,AAXX 05214 07481 12460 80704 10050 20040 39715 40003 56003 60077 76166 8387/ 92100=
07481,1996-01-06 00:00:00,5,1000.6,0.3,100,5,1500,3.704,,,10,,,,0,,,,,,10,wg-a,,,,AAXX 06004 07481 02215 80102 10050 20050 39718 40006 50003 60076 71062 8382/ 90000 333 60007=
07481,1996-01-06 03:00:00,6,1000.6,-0,93,5,8000,3.704,,,70,,,,1,,,,,,60,wg-a,,,,AAXX 06034 07481 12258 80702 10060 20050 39718 40006 55000 60017 76062 8482/ 90300=
07481,1996-01-06 06:00:00,5,1001.2,0.5,100,5,1600,3.704,,,230,5.1,5.8,,0,,,10,,,10,wg-a,,,,AAXX 06064 07481 02216 82302 10050 20050 39723 40012 53005 60104 71065 877// 90600 333 10058 20051 60007=
07481,1996-01-06 09:00:00,6,1001.1,0,93,5,500,14.816,,,160,,,,0,,,,,,,wg-a,,,,AAXX 06094 07481 12200 71608 10060 20050 39723 40011 50000 60007 8557/ 90900=
07481,1996-01-06 12:00:00,8,999.4,-1.4,87,6,9000,14.816,,,140,,,,,,,,,,1,wg-a,,,,AAXX 06124 07481 12459 81408 10080 20060 39709 49994 58014 60016 70152 8657/ 91200=
07481,1996-01-06 15:00:00,10,997.4,-1.8,76,6,500,31.484,,57.412,180,,,,,,,,,,,wg-a,,,,AAXX 06154 07481 12400 71817 10100 20060 39691 49974 56018 60006 83142 91500 333 91031=
07481,1996-01-06 18:00:00,10,996.8,-0.6,71,5,20000,31.484,,57.412,180,5,10.5,,,,,,,,60,wg-a,,,,AAXX 06184 07481 02470 71817 10100 20050 39685 49968 58006 61000 76022 8177/ 91800 333 10105 20050 //// 91031=
07481,1996-01-06 21:00:00,10,996,-0.8,71,5,20000,46.3,,68.524,170,,,,0,,,,,,3,wg-a,,,,AAXX 06214 07481 12470 71725 10100 20050 39677 49960 58008 60007 70362 8387/ 92100 333 91037=
07481,1996-01-07 00:00:00,10,997.5,1.5,66,4,25000,25.928,,,180,,,,,,,,,,2,wg-a,,,,AAXX 07004 07481 02475 71814 10100 20040 39692 49975 53015 60006 70262 8487/ 90000 333 61000=
07481,1996-01-07 03:00:00,9,998.1,0.5,76,5,25000,11.112,,,180,,,,,,,,,,,wg-a,,,,AAXX 07034 07481 12475 71806 10090 20050 39697 49981 53005 60006 8487/ 90300=
07481,1996-01-07 06:00:00,8,999.5,1.3,93,7,12000,11.112,,,170,7.8,10.5,,5,,,6,,,61,wg-a,,,,AAXX 07064 07481 02462 81706 10080 20070 39710 49995 53013 60064 76162 878// 90600 333 10105 20078 60057=
07481,1996-01-07 09:00:00,8,1001.8,2.3,93,7,20000,3.704,,,180,,,,3,,,,,,2,wg-a,,,,AAXX 07094 07481 12470 71802 10080 20070 39733 40018 53023 60037 70262 8557/ 90900=
07481,1996-01-07 10:00:00,10,1,,82,7,25000,3.704,,,190,7.9,11.8,,,,,,,,2,wg-a,,,,AAXX 07104 07481 32675 /1902 10100 20070 70262 84530 91000 333 10118 20079=
07481,1996-01-07 12:00:00,11,1002.5,0.9,82,8,25000,11.112,,,140,,,,,,,,,,2,wg-a,,,,AAXX 07124 07481 12475 /1406 10110 20080 39742 40025 51009 60036 70262 84530 91200=
07481,1996-01-07 15:00:00,12,1003.9,1.4,76,8,25000,3.704,,,260,,,,,,,,,,21,wg-a,,,,AAXX 07154 07481 02475 72602 10120 20080 39756 40039 53014 61000 72162 8483/ 91500 333 ////=
07481,1996-01-07 18:00:00,10,1007,2.8,82,7,25000,3.704,,,190,7.9,11.8,,,,,,,,2,wg-a,,,,AAXX 07184 07481 32675 61902 10100 20070 39784 40070 53028 70262 84530 91800 333 10118 20079=
07481,1996-01-07 21:00:00,7,1009.7,2.4,93,6,25000,3.704,,,120,,,,,,,,,,,wg-a,,,,AAXX 07214 07481 12/75 61202 10070 20060 39808 40097 51024 60006 86030 92100=
07481,1996-01-08 00:00:00,7,1011.7,1.9,93,6,15000,7.408,,,170,,,,0,,,,,,21,wg-a,,,,AAXX 08004 07481 02665 71704 10070 20060 39827 40117 51019 60006 72162 8383/ 90000 333 60007=
07481,1996-01-08 03:00:00,6,1013.8,2,93,5,12000,7.408,,,140,,,,,,,,,,21,wg-a,,,,AAXX 08034 07481 02662 71404 10060 20050 39847 40138 51020 61000 72162 8383/ 90300 333 ////=
07481,1996-01-08 06:00:00,4,1014.6,0.5,93,3,12000,3.704,,,180,4,9.5,,,,,3,,,2,wg-a,,,,AAXX 08064 07481 12762 21802 10040 20030 39852 40146 53005 60034 70261 81530 90600 333 10095 20040=
07481,1996-01-08 09:00:00,6,1014.9,0.5,93,5,4500,3.704,,,180,,,,,,,,,,10,wg-a,,,,AAXX 08094 07481 12/45 /1802 10060 20050 39857 40149 51005 60006 71040 80001 90900=
07481,1996-01-08 12:00:00,11,1012.6,-1.7,71,6,15000,7.408,,,150,,,,,,,,,,1,wg-a,,,,AAXX 08124 07481 12465 21504 10110 20060 39840 40126 58017 60006 70140 81501 91200=
07481,1996-01-08 15:00:00,10,1011.5,-1.1,76,6,75000,14.816,,,100,,,,,,,,,,,wg-a,,,,AAXX 08154 07481 12589 21008 10100 20060 39829 40115 56011 60006 81501 91500=
07481,1996-01-08 18:00:00,6,1010.7,-1.2,87,4,40000,14.816,,,140,3.2,12.4,,,,,,,,,wg-a,,,,AAXX 08184 07481 12/82 51408 10060 20040 39817 40107 56012 60006 80001 91800 333 10124 20032=
07481,1996-01-08 21:00:00,7,1010,-0.7,81,4,500,25.928,,,130,,,,,,,,,,,wg-a,,,,AAXX 08214 07481 12/00 61314 10070 20040 39810 40100 58007 60006 80002 92100=
07481,1996-01-09 00:00:00,6,1008.7,-1.3,87,4,25000,18.52,,,140,,,,,,,,,,,wg-a,,,,AAXX 09004 07481 12/75 51410 10060 20040 39797 40087 58013 60006 83032 90000=
07481,1996-01-09 03:00:00,11,1007,-1.2,47,0,25000,11.112,,,180,,,,,,,,,,,wg-a,,,,AAXX 09034 07481 12/75 71806 10110 20000 39785 40070 56012 60006 85032 90300=
07481,1996-01-09 06:00:00,11,1006.8,-0.2,47,0,25000,14.816,,,170,5.6,12,,,,,,,,,wg-a,,,,AAXX 09064 07481 12775 71708 10110 20000 39783 40068 55002 60006 8257/ 90600 333 10120 20056=
07481,1996-01-09 09:00:00,12,1006.6,-0.1,47,1,60000,29.632,,57.412,170,,,,,,,,,,,wg-a,,,,AAXX 09094 07481 12786 71716 10120 20010 39782 40066 55001 60006 8157/ 90900 333 91031=
07481,1996-01-09 12:00:00,13,1006.7,0.2,54,4,60000,18.52,,,150,,,,1,,,,,,1,wg-a,,,,AAXX 09124 07481 02786 71510 10130 20040 39784 40067 50002 60016 70162 82572 91200 333 60017=
07481,1996-01-09 15:00:00,14,1007.1,0.5,41,1,60000,22.224,,46.3,200,,,,,,,,,,,wg-a,,,,AAXX 09154 07481 12786 72012 10140 20010 39789 40071 53005 60006 8157/ 91500 333 91025=
07481,1996-01-09 18:00:00,12,1007.5,0.2,50,2,40000,7.408,,,110,10.4,14.2,,,,,,,,,wg-a,,,,AAXX 09184 07481 32782 71104 10120 20020 39791 40075 53002 8357/ 91800 333 10142 20104=
07481,1996-01-09 21:00:00,10,1007.4,-0.2,57,2,25000,14.816,,,140,,,,,,,,,,,wg-a,,,,AAXX 09214 07481 12775 81408 10100 20020 39789 40074 56002 60006 8257/ 92100=
07481,1996-01-10 00:00:00,9,1006.7,-0.9,66,3,25000,11.112,,,160,,,,,,,,,,,wg-a,,,,AAXX 10004 07481 12/75 71606 10090 20030 39780 40067 58009 60006 8707/ 90000=
07481,1996-01-10 03:00:00,7,1006.8,-0,81,4,20000,0,,,0,,,,,,,,,,61,wg-a,,,,AAXX 10034 07481 02770 80000 10070 20040 39780 40068 55000 61000 76162 8257/ 90300 333 ////=
07481,1996-01-10 06:00:00,7,1005.2,-1.6,81,4,20000,11.112,,,80,6.4,11.4,,1,,,1,,,2,wg-a,,,,AAXX 10064 07481 02670 70806 10070 20040 39764 40052 58016 60014 70262 8257/ 90600 333 10114 20064 60017=
07481,1996-01-10 09:00:00,7,1007.6,2.3,87,5,12000,7.408,,,220,,,,0,,,,,,60,wg-a,,,,AAXX 10094 07481 12562 72204 10070 20050 39787 40076 53023 60007 76062 8287/ 90900=
07481,1996-01-10 12:00:00,9,1004.6,-2.7,81,6,10000,3.704,,,330,,,,0,,,,,,1,wg-a,,,,AAXX 10124 07481 02560 53302 10090 20060 39760 40046 56027 60016 70162 81832 91200 333 60007=
07481,1996-01-10 15:00:00,10,1004.1,-0.4,82,7,12000,3.704,,,340,,,,,,,,,,,wg-a,,,,AAXX 10154 07481 12/62 63402 10100 20070 39756 40041 55004 60006 84032 91500=
07481,1996-01-10 18:00:00,9,1007,2.8,87,7,10000,3.704,,,100,6,10.1,,,,,,,,60,wg-a,,,,AAXX 10184 07481 02660 81002 10090 20070 39784 40070 51028 61000 76062 8357/ 91800 333 10101 20060 ////=
07481,1996-01-10 21:00:00,11,1008.9,2,76,7,20000,25.928,,,210,,,,,,,,,,1,wg-a,,,,AAXX 10214 07481 02770 72114 10110 20070 39804 40089 53020 61000 70162 8257/ 92100 333 ////=
07481,1996-01-11 00:00:00,10,1010.1,1.1,76,6,25000,14.816,,,200,,,,,,,,,,21,wg-a,,,,AAXX 11004 07481 02675 72008 10100 20060 39815 40101 51011 61000 72162 8357/ 90000 333 6100=
07481,1996-01-11 03:00:00,8,1010.4,0.1,87,6,25000,7.408,,,160,,,,,,,,,,,wg-a,,,,AAXX 11034 07481 12575 /1604 10080 20060 39816 40104 50001 60006 85530 90300=
07481,1996-01-11 06:00:00,7,1008.7,-1.8,87,5,25000,18.52,,,150,6.6,11.3,,,,,,,,,wg-a,,,,AAXX 11064 07481 12575 /1510 10070 20050 39798 40087 58018 60004 81150 90600 333 10113 20066=
07481,1996-01-11 09:00:00,10,1007.6,-0.8,82,7,500,22.224,,,150,,,,,,,,,,,wg-a,,,,AAXX 11094 07481 12400 /1512 10100 20070 39790 40076 56008 60006 83832 90900=
07481,1996-01-11 12:00:00,13,1004.9,-2.3,77,9,35000,25.928,,,170,,,,,,,,,,,wg-a,,,,AAXX 11124 07481 12481 /1714 10130 20090 39767 40049 58023 60006 85102 91200=
07481,1996-01-11 15:00:00,12,1004.2,-0.7,82,9,500,25.928,,,190,,,,,,,,,,,wg-a,,,,AAXX 11154 07481 12400 71914 10120 20090 39760 40042 58007 60006 871// 91500=
07481,1996-01-11 18:00:00,12,1003.2,-1.1,67,6,25000,42.596,,61.116,190,7,13.1,,,,,,,,,wg-a,,,,AAXX 11184 07481 12475 71923 10120 20060 39749 40032 55011 60006 8387/ 91800 333 10131 20070 91033=
07481,1996-01-11 21:00:00,11,1004.5,1.2,62,4,25000,14.816,,42.596,170,,,,,,,,,,,wg-a,,,,AAXX 11214 07481 12475 71708 10110 20040 39761 40045 51012 60006 8287/ 92100 333 91023=
07481,1996-01-12 00:00:00,11,1003.5,-1,66,5,25000,18.52,,,180,,,,,,,,,,,wg-a,,,,AAXX 12004 07481 12775 71810 10110 20050 39751 40035 58010 60006 8257/ 90000=
07481,1996-01-12 03:00:00,11,1003.1,-0.3,62,4,25000,18.52,,,210,,,,,,,,,,,wg-a,,,,AAXX 12034 07481 12775 72110 10110 20040 39748 40031 58003 60006 8157/ 90300=
07481,1996-01-12 06:00:00,10,1003.1,-0.2,71,5,25000,7.408,,,140,9.4,11.6,,0,,,,,,2,wg-a,,,,AAXX 12064 07481 02675 71404 10100 20050 39746 40031 55002 60004 70262 8457/ 90600 333 10116 20094 60007=
07481,1996-01-12 09:00:00,10,1003.4,0.3,76,6,25000,7.408,,,190,,,,,,,,,,21,wg-a,,,,AAXX 12094 07481 02575 71904 10100 20060 39749 40034 53003 61000 72162 8387/ 90900 333 ////=
07481,1996-01-12 12:00:00,9,1003.6,0.2,87,7,20000,14.816,,,150,,,,3,,,,,,61,wg-a,,,,AAXX 12124 07481 02470 71508 10090 20070 39751 40036 50002 60036 76162 8487/ 91200 333 60037=
07481,1996-01-12 15:00:00,9,1005.9,2.2,93,8,10000,3.704,,,100,,,,3,,,,,,61,wg-a,,,,AAXX 12154 07481 12460 81002 10090 20080 39773 40059 53022 60037 76166 8687/ 91500=
07481,1996-01-13 00:00:00,7,1012.2,0.7,93,6,9000,7.408,,,150,,,,,,,,,,1,wg-a,,,,AAXX 13004 07481 02259 71504 10070 20060 39832 40122 53007 60036 70164 81632 90000 333 61000=
07481,1996-01-13 03:00:00,5,1013.7,1.3,100,5,300,0,,,0,,,,,,,,,,10,wg-a,,,,AAXX 13034 07481 12/03 20000 10050 20050 39845 40137 53013 60006 71040 80002 90300=
07481,1996-01-13 06:00:00,6,1015.8,2,93,5,600,3.704,,,120,,,,,,,13,,,43,wg-a,,,,AAXX 13064 07481 12/06 91202 10060 20050 39865 40158 53020 60134 74341 89/// 90600 333 10084 20048=
07481,1996-01-13 09:00:00,5,1018,2.2,100,5,200,0,,,0,,,,,,,,,,45,wg-a,,,,AAXX 13094 07481 12/02 90000 10050 20050 39887 40180 51022 60006 74544 89/// 90900=
07481,1996-01-13 12:00:00,7,1018.1,0.2,93,6,400,3.704,,,360,,,,,,,,,,45,wg-a,,,,AAXX 13124 07481 12/04 93602 10070 20060 39889 40181 50002 60006 74544 89/// 91200=
07481,1996-01-13 15:00:00,7,1017.6,-0.4,100,7,800,3.704,,,60,,,,,,,,,,10,wg-a,,,,AAXX 13154 07481 12108 80602 10070 20070 39885 40176 55004 60006 71042 886// 91500=
07481,1996-01-13 18:00:00,6,1018.8,1,93,5,300,3.704,,,110,5.2,7.2,,,,,,,,45,wg-a,,,,AAXX 13184 07481 12/03 91102 10060 20050 39895 40188 53010 60006 74542 89/// 91800 333 10072 20052=
07481,1996-01-13 21:00:00,5,1019.7,0.8,93,4,300,3.704,,,130,,,,,,,,,,43,wg-a,,,,AAXX 13214 07481 32/03 91302 10050 20040 39903 40197 53008 74344 89/// 92100=
07481,1996-01-14 00:00:00,4,1020,0.2,100,4,400,3.704,,,120,,,,,,,,,,45,wg-a,,,,AAXX 14004 07481 12/04 91202 10040 20040 39905 40200 50002 60006 74544 89/// 90000=
07481,1996-01-14 03:00:00,4,1019.4,-0.7,93,3,300,3.704,,,90,,,,,,,,,,45,wg-a,,,,AAXX 14034 07481 12/03 90902 10040 20030 39898 40194 58007 60006 74544 89/// 90300=
07481,1996-01-14 06:00:00,3,1019.6,0.2,100,3,300,0,,,0,3.4,6,,,,,,,,45,wg-a,,,,AAXX 14064 07481 12/03 90000 10030 20030 39900 40196 53002 60006 74544 89/// 90600 333 10060 20034=
07481,1996-01-14 09:00:00,3,1020.4,0.8,100,3,100,3.704,,,40,,,,,,,,,,45,wg-a,,,,AAXX 14094 07481 12/01 90402 10030 20030 39908 40204 52008 60006 74544 89/// 90900=
07481,1996-01-14 12:00:00,6,1019.7,-0.4,93,5,700,3.704,,,30,,,,,,,,,,44,wg-a,,,,AAXX 14124 07481 12107 80302 10060 20050 39904 40197 58004 60006 74444 8/777 91200=
07481,1996-01-14 15:00:00,9,1018.8,-0.6,87,7,4500,0,,,0,,,,,,,,,,10,wg-a,,,,AAXX 14154 07481 12745 40000 10090 20070 39898 40188 55006 60006 71000 83530 91500=
07481,1996-01-14 18:00:00,7,1020.6,1.5,93,6,1300,3.704,,,40,3,9.1,,,,,,,,10,wg-a,,,,AAXX 14184 07481 12713 20402 10070 20060 39913 40206 51015 60006 71011 82500 91800 333 10091 20030=
07481,1996-01-14 21:00:00,6,1022,1.3,87,4,4000,3.704,,,110,,,,,,,,,,10,wg-a,,,,AAXX 14214 07481 12740 /1102 10060 20040 39926 40220 53013 60006 71000 81500 92100=
07481,1996-01-15 00:00:00,3,1023.6,1.3,93,2,2000,0,,,0,,,,,,,,,,10,wg-a,,,,AAXX 15004 07481 12720 /0000 10030 20020 39939 40236 53013 60006 71000 81500 90000=
07481,1996-01-15 03:00:00,4,1024.3,0.7,87,2,8000,7.408,,,130,,,,,,,,,,,wg-a,,,,AAXX 15034 07481 12858 /1304 10040 20020 39946 40243 53007 60006 81500 90300=
07481,1996-01-15 06:00:00,2,1025.2,0.7,93,1,500,3.704,,,110,1.8,6.7,,,,,,,,,wg-a,,,,AAXX 15064 07481 12/00 /1102 10020 20010 39953 40252 51007 60006 80000 90600 333 10067 20018=
07481,1996-01-15 09:00:00,3,1026.5,1.4,93,2,6000,3.704,,,30,,,,,,,,,,,wg-a,,,,AAXX 15094 07481 12/56 /0302 10030 20020 39967 40265 51014 60006 81031 90900=
07481,1996-01-15 12:00:00,9,1025.7,-0.2,76,5,10000,3.704,,,40,,,,,,,,,,,wg-a,,,,AAXX 15124 07481 12/60 30402 10090 20050 39965 40257 58002 60006 80001 91200=
07481,1996-01-15 15:00:00,12,1025.1,-0.3,62,5,12000,7.408,,,90,,,,,,,,,,,wg-a,,,,AAXX 15154 07481 12/62 10904 10120 20050 39962 40251 56003 60006 80001 91500=
07481,1996-01-15 18:00:00,4,1027.2,1.2,93,3,400,7.408,,,350,0.8,12.1,,,,,,,,47,wg-a,,,,AAXX 15184 07481 12/04 93504 10040 20030 39974 40272 53012 60006 74741 89/// 91800 333 10121 20008=
07481,1996-01-15 21:00:00,3,1028.4,1.1,93,2,100,3.704,,,40,,,,,,,,,,45,wg-a,,,,AAXX 15214 07481 12/01 90402 10030 20020 39985 40284 51011 60006 74544 89/// 92100=
07481,1996-01-16 00:00:00,2,1029.1,0.5,93,1,200,3.704,,,40,,,,,,,,,,43,wg-a,,,,AAXX 16004 07481 12/02 90402 10020 20010 39990 40291 51005 60006 74344 89/// 90000=
07481,1996-01-16 03:00:00,1,1030.1,0.9,100,1,200,7.408,,,60,,,,,,,,,,45,wg-a,,,,AAXX 16034 07481 12/02 90604 10010 20010 39999 40301 53009 60006 74544 89/// 90300=
07481,1996-01-16 06:00:00,1,1030.3,0.2,100,1,400,3.704,,,30,0.8,4,,,,,,,,43,wg-a,,,,AAXX 16064 07481 12/04 90302 10010 20010 30001 40303 53002 60006 74344 89/// 90600 333 10040 20008=
07481,1996-01-16 09:00:00,1,1031.2,0.9,100,1,400,7.408,,,100,,,,,,,,,,43,wg-a,,,,AAXX 16094 07481 12/04 91004 10010 20010 30010 40312 52009 60006 74344 89/// 90900=
07481,1996-01-16 12:00:00,2,1030.6,-0.5,93,1,1200,7.408,,,60,,,,,,,,,,10,wg-a,,,,AAXX 16124 07481 12112 80604 10020 20010 30005 40306 58005 60006 71042 886// 91200=
07481,1996-01-16 15:00:00,3,1029.5,-1,93,2,2000,7.408,,,20,,,,,,,,,,10,wg-a,,,,AAXX 16154 07481 12120 80204 10030 20020 39995 40295 56010 60006 71042 886// 91500=
07481,1996-01-16 18:00:00,2,1030.1,0.6,100,2,1000,3.704,,,50,0.7,2.9,,,,,,,,10,wg-a,,,,AAXX 16184 07481 12110 80502 10020 20020 30001 40301 51006 60006 71022 886// 91800 333 10029 20007=
07481,1996-01-16 21:00:00,2,1030.8,0.6,93,1,4500,3.704,,,160,,,,,,,,,,10,wg-a,,,,AAXX 16214 07481 12145 81602 10020 20010 30007 40308 51006 60006 71022 886// 92100=
07481,1996-01-17 00:00:00,2,1030.6,-0.2,93,1,4000,11.112,,,110,,,,,,,,,,10,wg-a,,,,AAXX 17004 07481 12140 81106 10020 20010 30005 40306 58002 60006 71042 886// 90000=
07481,1996-01-17 03:00:00,2,1029.7,-0.8,93,1,500,3.704,,,110,,,,,,,,,,,wg-a,,,,AAXX 17034 07481 12100 81102 10020 20010 39997 40297 58008 60006 886// 90300=
07481,1996-01-17 06:00:00,2,1029.5,-0.2,93,1,9000,7.408,,,180,1.6,2.6,,,,,,,,,wg-a,,,,AAXX 17064 07481 12259 81804 10020 20010 39995 40295 56002 60006 886// 90600 333 10026 20016=
07481,1996-01-17 12:00:00,6,1028.4,-1.5,81,3,8000,3.704,,,180,,,,,,,,,,3,wg-a,,,,AAXX 17124 07481 12458 71802 10060 20030 39988 40284 58015 60006 70342 85502 91200=
07481,1996-01-17 15:00:00,6,1027,-1.3,87,4,7000,7.408,,,350,,,,,,,,,,,wg-a,,,,AAXX 17154 07481 12/57 /3504 10060 20040 39975 40270 56013 60006 80002 91500=
07481,1996-01-17 18:00:00,3,1027.2,-0.1,93,2,500,3.704,,,240,0.7,8,,,,,,,,,wg-a,,,,AAXX 17184 07481 12200 /2402 10030 20020 39974 40272 55001 60006 84602 91800 333 10080 20007=
07481,1996-01-17 21:00:00,3,1027.3,0,93,2,4000,7.408,,,190,,,,,,,,,,10,wg-a,,,,AAXX 17214 07481 12140 71904 10030 20020 39974 40273 50000 60006 71022 876// 92100=
07481,1996-01-18 00:00:00,1,1027.1,-0.4,93,0,2000,7.408,,,200,,,,,,,,,,10,wg-a,,,,AAXX 18004 07481 12120 22004 10010 20000 39970 40271 58004 60006 71041 82600 90000=
07481,1996-01-18 03:00:00,-2,1026.9,-0.6,93,-3,300,3.704,,,70,,,,,,,,,,48,wg-a,,,,AAXX 18034 07481 12103 20702 11020 21030 39964 40269 56006 60006 74842 82600 90300=
07481,1996-01-18 06:00:00,-2,1026.2,-0.6,93,-3,1600,3.704,,,120,-3.2,3.8,,,,,,,,28,wg-a,,,,AAXX 18064 07481 12/16 01202 11020 21030 39958 40262 56006 60006 72840 80000 90600 333 10038 21032=
07481,1996-01-18 09:00:00,-1,1026.3,0.2,100,-1,200,3.704,,,290,,,,,,,,,,10,wg-a,,,,AAXX 18094 07481 12/02 /2902 11010 21010 39960 40263 52002 60006 71000 80001 90900=
07481,1996-01-18 12:00:00,5,1023.7,-1.9,81,2,4500,3.704,,,280,,,,,,,,,,10,wg-a,,,,AAXX 18124 07481 12/45 /2802 10050 20020 39941 40237 58019 60006 71040 80001 91200=
07481,1996-01-18 15:00:00,10,1021.6,-1.5,50,0,15000,18.52,,,150,,,,,,,,,,,wg-a,,,,AAXX 18154 07481 12/65 11510 10100 20000 39926 40216 56015 60006 80001 91500=
07481,1996-01-18 18:00:00,3,1022.4,0.8,75,-1,10000,11.112,,,160,-2.9,10.7,,,,,,,,,wg-a,,,,AAXX 18184 07481 12/60 11606 10030 21010 39926 40224 53008 60006 80001 91800 333 10107 21029=
07481,1996-01-18 21:00:00,1,1022.7,0.2,86,-1,12000,11.112,,,170,,,,,,,,,,,wg-a,,,,AAXX 18214 07481 12/62 01706 10010 21010 39928 40227 51002 60006 80000 92100=
07481,1996-01-19 00:00:00,0,1022.4,-0.5,86,-2,15000,11.112,,,160,,,,,,,,,,,wg-a,,,,AAXX 19004 07481 12/65 01606 10000 21020 39923 40224 58005 60006 80000 90000=
07481,1996-01-19 03:00:00,-2,1021.5,-1,93,-3,7000,7.408,,,160,,,,,,,,,,,wg-a,,,,AAXX 19034 07481 12/57 01604 11020 21030 39913 40215 57010 60006 80000 90300=
07481,1996-01-19 06:00:00,-3,1020.8,-0.8,93,-4,500,3.704,,,120,-2.8,3.6,,,,,,,,,wg-a,,,,AAXX 19064 07481 12/00 01202 11030 21040 39905 40208 56008 60006 80000 90600 333 10036 21028=
07481,1996-01-19 09:00:00,-3,1020.5,-0.4,93,-4,500,0,,,0,,,,,,,,,,48,wg-a,,,,AAXX 19094 07481 12/00 20000 11030 21040 39901 40205 57004 60006 74844 80001 90900=
07481,1996-01-19 12:00:00,-2,1018.7,-1.5,100,-2,100,3.704,,,310,,,,,,,,,,45,wg-a,,,,AAXX 19124 07481 12/01 93102 11020 21020 39886 40187 58015 60006 74540 89/// 91200=
07481,1996-01-19 18:00:00,-2,1015.6,-0.9,93,-3,100,0,,,0,-4.5,2.4,,,,,,,,44,wg-a,,,,AAXX 19184 07481 12/01 /0000 11020 21030 39855 40156 55009 60006 74440 80000 91800 333 10024 21045=
07481,1996-01-19 21:00:00,-2,1015.2,-0.4,100,-2,100,3.704,,,260,,,,,,,,,,49,wg-a,,,,AAXX 19214 07481 12/01 92602 11020 21020 39851 40152 56004 60006 74941 89/// 92100=
07481,1996-01-20 00:00:00,-2,1014.2,-0.9,93,-3,300,3.704,,,40,,,,,,,,,,49,wg-a,,,,AAXX 20004 07481 12/03 90402 11020 21030 39842 40142 57009 60006 74941 89/// 90000=
07481,1996-01-20 03:00:00,-3,1013.6,-0.7,100,-3,200,0,,,0,,,,,,,,,,49,wg-a,,,,AAXX 20034 07481 12/02 90000 11030 21030 39835 40136 56007 60006 74944 89/// 90300=
07481,1996-01-20 06:00:00,-4,1012.4,-1.3,100,-4,200,3.704,,,20,-3.5,-1.7,,,,,,,,49,wg-a,,,,AAXX 20064 07481 12/02 90202 11040 21040 39822 40124 56013 60006 74944 89/// 90600 333 11017 21035=
07481,1996-01-20 09:00:00,-3,1013,0.7,100,-3,200,0,,,0,,,,,,,,,,49,wg-a,,,,AAXX 20094 07481 12/02 90000 11030 21030 39829 40130 53007 60006 74944 89/// 90900=
07481,1996-01-20 12:00:00,6,1010.1,-1.9,70,1,6000,11.112,,,130,,,,,,,,,,3,wg-a,,,,AAXX 20124 07481 12/56 41306 10060 20010 39810 40101 58019 60006 70341 84030 91200=
07481,1996-01-20 15:00:00,8,1009.1,-0.7,61,1,10000,7.408,,,120,,,,,,,,,,,wg-a,,,,AAXX 20154 07481 12760 71204 10080 20010 39803 40091 55007 60006 8453/ 91500=
07481,1996-01-20 18:00:00,4,1010.1,0.6,75,0,10000,11.112,,,140,-3.8,8.2,,,,,,,,,wg-a,,,,AAXX 20184 07481 12660 71406 10040 20000 39809 40101 53006 60006 8353/ 91800 333 10082 21038=
07481,1996-01-20 21:00:00,3,1011.8,1.5,75,-1,12000,11.112,,,120,,,,,,,,,,,wg-a,,,,AAXX 20214 07481 12662 51206 10030 21010 39824 40118 53015 60006 82530 92100=
07481,1996-01-21 00:00:00,2,1012.4,0.4,80,-1,12000,14.816,,,130,,,,,,,,,,,wg-a,,,,AAXX 21004 07481 12762 11308 10020 21010 39828 40124 51004 60006 81500 90000=
07481,1996-01-21 03:00:00,2,1013.3,0.9,80,-1,12000,3.704,,,110,,,,,,,,,,,wg-a,,,,AAXX 21034 07481 12762 11102 10020 21010 39837 40133 52009 60006 81500 90300=
07481,1996-01-21 06:00:00,2,1013.1,-0.2,80,-1,12000,14.816,,,150,1.3,4.4,,,,,,,,,wg-a,,,,AAXX 21064 07481 12762 51508 10020 21010 39835 40131 56002 60006 85500 90600 333 10044 20013=
07481,1996-01-21 09:00:00,3,1014.3,1.3,75,-1,12000,11.112,,,140,,,,,,,,,,,wg-a,,,,AAXX 21094 07481 12762 61406 10030 21010 39848 40143 53013 60006 82531 90900=
07481,1996-01-21 12:00:00,9,1013.3,-0.4,53,0,12000,14.816,,,150,,,,,,,,,,,wg-a,,,,AAXX 21124 07481 12762 41508 10090 20000 39844 40133 58004 60006 815/1 91200=
07481,1996-01-21 15:00:00,10,1012.1,-1,53,1,15000,14.816,,,140,,,,,,,,,,,wg-a,,,,AAXX 21154 07481 12765 41408 10100 20010 39834 40121 56010 60006 83501 91500=
07481,1996-01-21 18:00:00,6,1013.4,0.8,65,0,12000,14.816,,,150,0.9,10.2,,,,,,,,,wg-a,,,,AAXX 21184 07481 12762 51508 10060 20000 39842 40134 53008 60006 85500 91800 333 10102 20009=
07481,1996-01-21 21:00:00,4,1012.9,-0.7,70,-1,10000,18.52,,,140,,,,,,,,,,,wg-a,,,,AAXX 21214 07481 12760 11410 10040 21010 39835 40129 56007 60006 81530 92100=
07481,1996-01-22 00:00:00,4,1012.9,-0.7,70,-1,10000,18.52,,,140,,,,,,,,,,,wg-a,,,,AAXX 22004 07481 12760 11410 10040 21010 39835 40129 56007 60006 81530 90000=
07481,1996-01-22 03:00:00,3,1012.5,-0.5,75,-1,10000,14.816,,,130,,,,,,,,,,,wg-a,,,,AAXX 22034 07481 12760 71308 10030 21010 39830 40125 58005 60006 8257/ 90300=
07481,1996-01-22 06:00:00,2,1011.2,-1.3,80,-1,10000,3.704,,,290,2.2,5.9,,,,,,,,,wg-a,,,,AAXX 22064 07481 12760 72902 10020 21010 39817 40112 56013 60006 8257/ 90600 333 10059 20022=
07481,1996-01-22 09:00:00,1,1012.1,0.8,86,-1,6000,7.408,,,40,,,,,,,,,,,wg-a,,,,AAXX 22094 07481 12756 70404 10010 21010 39825 40121 50008 60006 81572 90900=
07481,1996-01-22 12:00:00,3,1010.7,-1.2,81,0,6000,7.408,,,340,,,,,,,,,,,wg-a,,,,AAXX 22124 07481 12756 73404 10030 20000 39813 40107 58012 60006 8257/ 91200=
07481,1996-01-22 15:00:00,6,1008.9,-1.4,70,1,7000,18.52,,,110,,,,,,,,,,21,wg-a,,,,AAXX 22154 07481 02457 /1110 10060 20010 39799 40089 58014 61000 72162 8387/ 91500 333 ////=
07481,1996-01-22 18:00:00,4,1009.3,0.2,87,2,7000,3.704,,,290,0.7,7.2,,,,,,,,1,wg-a,,,,AAXX 22184 07481 02757 72902 10040 20020 39801 40093 53002 61000 70162 82572 91800 333 10072 20007 ////=
07481,1996-01-22 21:00:00,2,1008.9,-0.6,93,1,7000,3.704,,,30,,,,,,,,,,2,wg-a,,,,AAXX 22214 07481 02757 70302 10020 20010 39795 40089 57006 61000 70262 8257/ 92100 333 ////=
07481,1996-01-23 00:00:00,3,1008.8,0,87,1,8000,7.408,,,10,,,,,,,,,,,wg-a,,,,AAXX 23004 07481 02758 70104 10030 20010 39795 40088 50000 61000 8357/ 90000 333 6100=
07481,1996-01-23 03:00:00,4,1006.8,-1.9,81,1,12000,3.704,,,160,,,,,,,,,,,wg-a,,,,AAXX 23034 07481 12/62 41602 10040 20010 39776 40068 56019 60006 81032 90300=
07481,1996-01-23 06:00:00,3,1005.4,-1.4,87,1,12000,11.112,,,280,2,6,,,,,,,,,wg-a,,,,AAXX 23064 07481 02762 72806 10030 20010 39762 40054 56014 61000 81532 90600 333 10060 20020 ////=
07481,1996-01-23 09:00:00,4,1005.3,0,87,2,9000,3.704,,,60,,,,,,,,,,,wg-a,,,,AAXX 23094 07481 12759 70602 10040 20020 39762 40053 50000 60006 8257/ 90900=
07481,1996-01-23 12:00:00,8,1004,-0.8,71,3,10000,11.112,,,150,,,,,,,,,,,wg-a,,,,AAXX 23124 07481 12760 71506 10080 20030 39754 40040 58008 60006 8257/ 91200=
07481,1996-01-23 15:00:00,7,1003.7,-0.4,87,5,12000,14.816,,,140,,,,0,,,,,,21,wg-a,,,,AAXX 23154 07481 12462 81408 10070 20050 39750 40037 57004 60007 72162 8287/ 91500=
07481,1996-01-23 18:00:00,8,1004.7,1,81,5,15000,7.408,,,330,2.9,8.8,,,,,,,,2,wg-a,,,,AAXX 23184 07481 32465 73304 10080 20050 39760 40047 53010 70262 8287/ 91800 333 10088 20029=
07481,1996-01-23 21:00:00,7,1005.3,0.5,81,4,25000,11.112,,,150,,,,,,,,,,,wg-a,,,,AAXX 23214 07481 12775 71506 10070 20040 39765 40053 50005 60006 8157/ 92100=
07481,1996-01-24 00:00:00,7,1005.2,-0.1,81,4,25000,11.112,,,110,,,,,,,,,,,wg-a,,,,AAXX 24004 07481 12775 81106 10070 20040 39764 40052 55001 60006 8257/ 90000=
07481,1996-01-24 03:00:00,6,1004.4,-0.9,87,4,25000,7.408,,,130,,,,,,,,,,2,wg-a,,,,AAXX 24034 07481 02775 81304 10060 20040 39755 40044 56009 61000 70262 8257/ 90300 333 ////=
07481,1996-01-24 06:00:00,6,1004.8,0.4,87,4,15000,11.112,,,130,5.6,8.2,,0,,,,,,60,wg-a,,,,AAXX 24064 07481 02765 81306 10060 20040 39759 40048 53004 60004 76062 8457/ 90600 333 10082 20056 60007=
07481,1996-01-24 09:00:00,6,1005.3,0.5,93,5,500,0,,,0,,,,0,,,,,,60,wg-a,,,,AAXX 24094 07481 12700 80000 10060 20050 39764 40053 53005 60007 76062 8557/ 90900=
07481,1996-01-24 12:00:00,9,1003.7,-1.2,81,6,7000,7.408,,,20,,,,,,,,,,2,wg-a,,,,AAXX 24124 07481 02757 /0204 10090 20060 39752 40037 58012 60016 70262 81542 91200 333 61000=
07481,1996-01-24 15:00:00,11,1002.6,-0.9,71,6,8000,7.408,,,30,,,,,,,,,,,wg-a,,,,AAXX 24154 07481 12758 60304 10110 20060 39743 40026 55009 60006 81531 91500=
07481,1996-01-24 18:00:00,6,1003.5,0.4,87,4,500,7.408,,,340,5.6,11.3,,,,,,,,,wg-a,,,,AAXX 24184 07481 32700 33404 10060 20040 39747 40035 53004 81501 91800 333 10113 20056=
07481,1996-01-24 21:00:00,4,1004,0.2,93,3,600,7.408,,,350,,,,,,,,,,45,wg-a,,,,AAXX 24214 07481 12/06 93504 10040 20030 39749 40040 51002 60006 74542 89/// 92100=
07481,1996-01-25 00:00:00,3,1004.3,0.2,93,2,4000,7.408,,,330,,,,,,,,,,10,wg-a,,,,AAXX 25004 07481 12240 83304 10030 20020 39751 40043 50002 60006 71042 886// 90000=
07481,1996-01-25 03:00:00,3,1003.7,-0.6,93,2,3500,3.704,,,30,,,,,,,,,,10,wg-a,,,,AAXX 25034 07481 02135 80302 10030 20020 39745 40037 58006 61000 71065 886// 90300 333 ////=
07481,1996-01-25 06:00:00,2,1003.8,-0,93,1,3000,11.112,,,340,1.7,6.1,,,,,,,,10,wg-a,,,,AAXX 25064 07481 12130 83406 10020 20010 39745 40038 55000 60004 71065 886// 90600 333 10061 20017=
07481,1996-01-25 09:00:00,2,1004.8,0.9,93,1,500,11.112,,,30,,,,,,,,,,44,wg-a,,,,AAXX 25094 07481 12/05 90306 10020 20010 39754 40048 53009 60006 74442 89/// 90900=
07481,1996-01-25 12:00:00,3,1005,0.3,87,1,1800,7.408,,,10,,,,,,,,,,10,wg-a,,,,AAXX 25124 07481 12118 80104 10030 20010 39757 40050 50003 60006 71042 886// 91200=
07481,1996-01-25 15:00:00,4,1004.5,-0.4,87,2,2500,3.704,,,340,,,,,,,,,,10,wg-a,,,,AAXX 25154 07481 12225 83402 10040 20020 39753 40045 55004 60006 71022 886// 91500=
07481,1996-01-25 18:00:00,3,1005.6,1,93,2,3000,7.408,,,40,1.5,3.6,,,,,,,,10,wg-a,,,,AAXX 25184 07481 02130 80404 10030 20020 39763 40056 53010 61000 71052 886// 91800 333 10036 20015 ////=
07481,1996-01-25 21:00:00,2,1006.9,1.2,93,1,3500,3.704,,,350,,,,,,,,,,10,wg-a,,,,AAXX 25214 07481 02135 83502 10020 20010 39775 40069 51012 61000 71022 886// 92100 333 ////=
07481,1996-01-26 00:00:00,2,1007,0.1,93,1,1700,3.704,,,50,,,,,,,,,,10,wg-a,,,,AAXX 26004 07481 02117 80502 10020 20010 39776 40070 52001 61000 71052 886// 90000 333 ////=
07481,1996-01-26 03:00:00,2,1007,0,100,2,1600,3.704,,,340,,,,0,,,,,,10,wg-a,,,,AAXX 26034 07481 12116 83402 10020 20020 39776 40070 50000 60007 71062 886// 90300=
07481,1996-01-26 06:00:00,2,1007.1,-0.1,100,2,1800,0,,,0,2,2.6,,,,,,,,10,wg-a,,,,AAXX 26064 07481 12118 80000 10020 20020 39777 40071 55001 60004 71064 886// 90600 333 10026 20020=
07481,1996-01-26 09:00:00,3,1008.2,1.2,100,3,500,0,,,0,,,,,,,,,,,wg-a,,,,AAXX 26094 07481 12300 70000 10030 20030 39789 40082 51012 60006 8553/ 90900=
07481,1996-01-26 12:00:00,9,1007.5,-0.1,81,6,7000,3.704,,,10,,,,,,,,,,,wg-a,,,,AAXX 26124 07481 12657 /0102 10090 20060 39788 40075 58001 60006 83841 91200=
07481,1996-01-26 15:00:00,10,1007.2,-0.1,71,5,17000,7.408,,,170,,,,,,,,,,,wg-a,,,,AAXX 26154 07481 12667 71704 10100 20050 39787 40072 55001 60006 878// 91500=
07481,1996-01-26 18:00:00,8,1008.7,1.2,81,5,20000,14.816,,,160,2.3,11.6,,3,,,,,,21,wg-a,,,,AAXX 26184 07481 12670 71608 10080 20050 39799 40087 51012 60037 72186 875// 91800 333 10116 20023=
07481,1996-01-27 03:00:00,6,1011.1,0.5,87,4,25000,0,,,0,,,,,,,,,,,wg-a,,,,AAXX 27034 07481 12775 70000 10060 20040 39820 40111 52005 60006 86530 90300=
07481,1996-01-27 06:00:00,6,1011.5,0.4,87,4,20000,11.112,,,140,5.5,7.6,,,,,3,,,,wg-a,,,,AAXX 27064 07481 02770 61406 10060 20040 39824 40115 53004 60006 83570 90600 333 10076 20055 60034=
07481,1996-01-27 09:00:00,6,1013.5,2,87,4,8000,11.112,,,180,,,,,,,,,,,wg-a,,,,AAXX 27094 07481 12/58 /1806 10060 20040 39844 40135 51020 60006 81031 90900=
07481,1996-01-27 12:00:00,12,1012.3,-0.6,58,4,12000,3.704,,,130,,,,,,,,,,,wg-a,,,,AAXX 27124 07481 12562 11302 10120 20040 39838 40123 58006 60006 81130 91200=
07481,1996-01-27 15:00:00,11,1012.1,-0.3,66,5,20000,7.408,,,150,,,,,,,,,,,wg-a,,,,AAXX 27154 07481 12670 41504 10110 20050 39835 40121 55003 60006 83101 91500=
07481,1996-01-27 18:00:00,6,1014.2,1.5,75,2,10000,14.816,,,130,4.4,12.9,,,,,,,,,wg-a,,,,AAXX 27184 07481 12760 31308 10060 20020 39850 40142 53015 60006 81501 91800 333 10129 20044=
07481,1996-01-27 21:00:00,4,1015.5,1.1,87,2,15000,3.704,,,90,,,,,,,,,,,wg-a,,,,AAXX 27214 07481 12/65 20902 10040 20020 39861 40155 51011 60006 81041 92100=
07481,1996-01-28 00:00:00,0,1015.8,-0.2,93,-1,100,3.704,,,320,,,,,,,,,,45,wg-a,,,,AAXX 28004 07481 12/01 93202 10000 21010 39859 40158 57002 60006 74541 89/// 90000=
07481,1996-01-28 03:00:00,1,1015.9,0.2,93,0,100,11.112,,,40,,,,,,,,,,45,wg-a,,,,AAXX 28034 07481 12/01 90406 10010 20000 39861 40159 50002 60006 74544 89/// 90300=
07481,1996-01-28 06:00:00,1,1014.8,-1,100,1,100,11.112,,,30,-0.1,6.4,,,,,,,,45,wg-a,,,,AAXX 28064 07481 12/01 90306 10010 20010 39851 40148 56010 60006 74544 89/// 90600 333 10064 21001=
07481,1996-01-28 09:00:00,2,1014.6,-0.1,100,2,1100,7.408,,,30,,,,,,,,,,40,wg-a,,,,AAXX 28094 07481 12111 80304 10020 20020 39850 40146 55001 60006 74042 886// 90900=
07481,1996-01-28 12:00:00,3,1013.9,-0.6,100,3,4500,7.408,,,50,,,,,,,,,,10,wg-a,,,,AAXX 28124 07481 02245 80504 10030 20030 39844 40139 58006 61000 71064 8577/ 91200 333 6100=
07481,1996-01-28 15:00:00,3,1012,-1.8,93,2,3000,11.112,,,20,,,,1,,,,,,10,wg-a,,,,AAXX 28154 07481 12230 80206 10030 20020 39826 40120 56018 60017 71066 8577/ 91500=
07481,1996-01-28 18:00:00,2,1011.5,-0.6,93,1,4500,11.112,,,350,1.1,3.3,,1,,,,,,10,wg-a,,,,AAXX 28184 07481 12245 83506 10020 20010 39820 40115 56006 60017 71062 877// 91800 333 10033 20011=
07481,1996-01-29 00:00:00,2,1011.9,0.2,93,1,500,3.704,,,340,,,,,,,,,,3,wg-a,,,,AAXX 29004 07481 02200 83402 10020 20010 39824 40119 53002 61000 70362 876// 90000 333 ////=
07481,1996-01-29 03:00:00,2,1011.8,-0.2,93,1,3000,7.408,,,60,,,,,,,,,,10,wg-a,,,,AAXX 29034 07481 12230 /0604 10020 20010 39822 40118 57002 60006 71022 84670 90300=
07481,1996-01-29 06:00:00,2,1011.9,0.2,100,2,3500,3.704,,,340,1.5,2.3,,,,,2,,,10,wg-a,,,,AAXX 29064 07481 02135 83402 10020 20020 39824 40119 53002 60024 71062 8357/ 90600 333 10023 20015 61000=
07481,1996-01-29 09:00:00,2,1013.2,1.3,100,2,1800,7.408,,,10,,,,,,,,,,10,wg-a,,,,AAXX 29094 07481 12218 80104 10020 20020 39837 40132 51013 60006 71022 875// 90900=
07481,1996-01-29 12:00:00,5,1012.8,-0.2,81,2,500,7.408,,,20,,,,,,,,,,,wg-a,,,,AAXX 29124 07481 12200 /0204 10050 20020 39835 40128 58002 60006 85630 91200=
07481,1996-01-29 15:00:00,6,1012.2,-0.4,75,2,8000,3.704,,,20,,,,,,,,,,,wg-a,,,,AAXX 29154 07481 12/58 30202 10060 20020 39831 40122 55004 60006 83030 91500=
07481,1996-01-29 18:00:00,3,1013.9,1.3,93,2,8000,7.408,,,40,2,6.6,,,,,,,,,wg-a,,,,AAXX 29184 07481 12/58 40404 10030 20020 39844 40139 53013 60006 81031 91800 333 10066 20020=
07481,1996-01-29 21:00:00,2,1015.3,1.2,93,1,500,0,,,0,,,,,,,,,,11,wg-a,,,,AAXX 29214 07481 12400 40000 10020 20010 39856 40153 51012 60006 71100 82501 92100=
07481,1996-01-30 00:00:00,0,1016.3,0.8,93,-1,3000,7.408,,,340,,,,,,,,,,10,wg-a,,,,AAXX 30004 07481 12/30 33404 10000 21010 39864 40163 51008 60006 71011 80001 90000=
07481,1996-01-30 03:00:00,-1,1017.1,0.7,93,-2,4000,3.704,,,340,,,,,,,,,,10,wg-a,,,,AAXX 30034 07481 12/40 33402 11010 21020 39871 40171 53007 60006 71000 80001 90300=
07481,1996-01-30 06:00:00,-1,1018,0.8,93,-2,200,7.408,,,330,-1.4,3.1,,,,,,,,45,wg-a,,,,AAXX 30064 07481 12/02 93304 11010 21020 39879 40180 53008 60006 74541 89/// 90600 333 10031 21014=
07481,1996-01-30 09:00:00,-1,1019.2,1.2,93,-2,1600,7.408,,,300,,,,,,,,,,10,wg-a,,,,AAXX 30094 07481 12116 73004 11010 21020 39891 40192 51012 60006 71022 876// 90900=
07481,1996-01-30 12:00:00,0,1019.5,0.4,93,-1,1600,3.704,,,340,,,,,,,,,,10,wg-a,,,,AAXX 30124 07481 12116 83402 10000 21010 39895 40195 50004 60006 71022 876// 91200=
07481,1996-01-30 15:00:00,0,1019.1,-0.4,93,-1,1800,11.112,,,340,,,,,,,,,,10,wg-a,,,,AAXX 30154 07481 12218 83406 10000 21010 39891 40191 56004 60006 71022 876// 91500=
07481,1996-01-30 18:00:00,-1,1019.8,0.6,93,-2,1600,14.816,,,330,-1.4,0.1,,,,,,,,10,wg-a,,,,AAXX 30184 07481 12116 83308 11010 21020 39897 40198 53006 60006 71022 876// 91800 333 10001 21014=
07481,1996-01-30 21:00:00,-1,1019.8,0,93,-2,3500,7.408,,,290,,,,,,,,,,10,wg-a,,,,AAXX 30214 07481 12235 82904 11010 21020 39897 40198 50000 60006 71022 886// 92100=
07481,1996-01-31 00:00:00,-1,1019.5,-0.2,93,-2,500,7.408,,,280,,,,,,,,,,,wg-a,,,,AAXX 31004 07481 12300 82804 11010 21020 39895 40195 57002 60006 886// 90000=
07481,1996-01-31 03:00:00,0,1019,-0.5,86,-2,6000,7.408,,,10,,,,,,,,,,,wg-a,,,,AAXX 31034 07481 12456 80104 10000 21020 39890 40190 57005 60006 886// 90300=
07481,1996-01-31 06:00:00,0,1018.4,-0.6,86,-2,8000,0,,,0,-1,-0.1,,,,,,,,,wg-a,,,,AAXX 31064 07481 12458 80000 10000 21020 39884 40184 58006 60006 886// 90600 333 11001 21010=
07481,1996-01-31 09:00:00,0,1018.7,0.4,86,-2,4500,7.408,,,40,,,,,,,,,,10,wg-a,,,,AAXX 31094 07481 12245 70404 10000 21020 39888 40187 50004 60006 71022 876// 90900=
07481,1996-01-31 12:00:00,2,1017.8,-0,80,-1,500,7.408,,,40,,,,,,,,,,,wg-a,,,,AAXX 31124 07481 12200 80404 10020 21010 39880 40178 54000 60006 886// 91200=
07481,1996-01-31 15:00:00,3,1016.8,-0.8,81,0,500,3.704,,,40,,,,,,,,,,,wg-a,,,,AAXX 31154 07481 12200 80402 10030 20000 39872 40168 55008 60006 885// 91500=
07481,1996-01-31 18:00:00,3,1017.6,,81,0,500,3.704,,,350,-0.3,2.8,,,,,,,,,wg-a,,,,AAXX 31184 07481 12300 83502 10030 20000 39880 40176 60006 885// 91800 333 10028 21003=
07481,1996-01-31 21:00:00,3,1018.5,0.9,87,1,500,0,,,0,,,,,,,,,,,wg-a,,,,AAXX 31214 07481 12400 80000 10030 20010 39889 40185 52009 60006 885// 92100=
07481,1996-02-01 00:00:00,1,1018.4,-0.3,93,0,500,7.408,,,90,,,,,,,,,,,wg-a,,,,AAXX 01004 07481 12400 20904 10010 20000 39886 40184 55003 60006 82500 90000=
07481,1996-02-01 03:00:00,1,1018.9,0.5,86,-1,6000,18.52,,,120,,,,,,,,,,,wg-a,,,,AAXX 01034 07481 12556 /1210 10010 21010 39891 40189 53005 60006 81500 90300=
07481,1996-02-01 06:00:00,-1,1018.9,-0.2,93,-2,6000,14.816,,,120,-0.7,3.5,,,,,,,,,wg-a,,,,AAXX 01064 07481 12/56 01208 11010 21020 39889 40189 55002 60006 80000 90600 333 10035 21007=
07481,1996-02-01 09:00:00,1,1019,0.2,80,-2,500,11.112,,,150,,,,,,,,,,,wg-a,,,,AAXX 01094 07481 12700 /1506 10010 21020 39891 40190 50002 60006 82530 90900=
07481,1996-02-01 12:00:00,6,1017.2,-1.2,56,-2,9000,7.408,,,80,,,,,,,,,,,wg-a,,,,AAXX 01124 07481 32/59 20804 10060 21020 39879 40172 58012 82030 91200=
07481,1996-02-01 15:00:00,6,1015.3,-1.8,61,-1,8000,7.408,,,130,,,,,,,,,,21,wg-a,,,,AAXX 01154 07481 02/58 71304 10060 21010 39861 40153 56018 61000 72161 8707/ 91500 333 ////=
07481,1996-02-01 18:00:00,5,1014.6,-0.8,70,0,10000,3.704,,,360,-0.6,7.8,,,,,,,,3,wg-a,,,,AAXX 01184 07481 32660 73602 10050 20000 39853 40146 56008 70361 875// 91800 333 10078 21006=
07481,1996-02-01 21:00:00,3,1014.4,-0.4,75,-1,10000,7.408,,,90,,,,,,,,,,,wg-a,,,,AAXX 01214 07481 12760 50904 10030 21010 39849 40144 58004 60006 84530 92100=
07481,1996-02-02 00:00:00,3,1013.5,-0.9,81,0,10000,0,,,0,,,,,,,,,,,wg-a,,,,AAXX 02004 07481 12760 70000 10030 20000 39840 40135 58009 60006 8457/ 90000=
07481,1996-02-02 03:00:00,3,1011.7,-1.7,81,0,12000,3.704,,,10,,,,,,,,,,60,wg-a,,,,AAXX 02034 07481 02762 80102 10030 20000 39823 40117 58017 61000 76062 8357/ 90300 333 ////=
07481,1996-02-02 06:00:00,3,1011.4,-0.3,87,1,7000,3.704,,,220,2.3,5.1,,0,,,,,,61,wg-a,,,,AAXX 02064 07481 02757 82202 10030 20010 39820 40114 58003 60004 76162 8557/ 90600 333 10051 20023 60007=
07481,1996-02-02 09:00:00,3,1012.1,0.7,93,2,1500,3.704,,,340,,,,4,,,,,,10,wg-a,,,,AAXX 02094 07481 12615 83402 10030 20020 39827 40121 53007 60047 71066 8357/ 90900=
07481,1996-02-02 12:00:00,3,1011.7,-0.4,93,2,1600,3.704,,,140,,,,9,,,,,,10,wg-a,,,,AAXX 02124 07481 02616 81402 10030 20020 39823 40117 58004 60136 71066 8352/ 91200 333 60097=
07481,1996-02-02 15:00:00,4,1010.5,-1.1,93,3,2500,0,,,0,,,,4,,,,,,10,wg-a,,,,AAXX 02154 07481 12425 80000 10040 20030 39812 40105 56011 60047 71066 8452/ 91500=
07481,1996-02-02 18:00:00,4,1010.8,0.3,93,3,1800,3.704,,,320,2.7,4.2,,2,,,,,,10,wg-a,,,,AAXX 02184 07481 12218 83202 10040 20030 39815 40108 53003 60027 71062 8572/ 91800 333 10042 20027=
07481,1996-02-02 21:00:00,5,1011.3,0.6,93,4,2000,3.704,,,90,,,,0,,,,,,10,wg-a,,,,AAXX 02214 07481 12520 80902 10050 20040 39821 40113 51006 60007 71062 875// 92100=
07481,1996-02-03 00:00:00,4,1011.8,0.4,100,4,1800,3.704,,,110,,,,,,,,,,10,wg-a,,,,AAXX 03004 07481 02618 81102 10040 20040 39825 40118 52004 60016 71062 875// 90000 333 61000=
07481,1996-02-03 03:00:00,4,1011.4,-0.4,100,4,700,0,,,0,,,,,,,,,,44,wg-a,,,,AAXX 03034 07481 12407 80000 10040 20040 39821 40114 58004 60006 74442 875// 90300=
07481,1996-02-03 06:00:00,5,1012,0.7,93,4,3000,7.408,,,340,4,4.6,,1,,,20,,,10,wg-a,,,,AAXX 03064 07481 02230 83404 10050 20040 39828 40120 51007 60204 71065 885// 90600 333 10046 20040 60017=
07481,1996-02-03 09:00:00,4,1013.5,1.3,93,3,4500,11.112,,,330,,,,0,,,,,,10,wg-a,,,,AAXX 03094 07481 12245 83306 10040 20030 39841 40135 52013 60007 71065 885// 90900=
07481,1996-02-03 12:00:00,4,1013.7,0.2,87,2,9000,11.112,,,350,,,,,,,,,,1,wg-a,,,,AAXX 03124 07481 02259 83506 10040 20020 39843 40137 50002 60016 70165 885// 91200 333 61000=
07481,1996-02-03 15:00:00,5,1012.4,-1.2,81,2,9000,11.112,,,340,,,,,,,,,,3,wg-a,,,,AAXX 03154 07481 02459 83406 10050 20020 39831 40124 56012 61000 70376 885// 91500 333 ////=
07481,1996-02-03 18:00:00,4,1013,0.5,75,0,15000,14.816,,,350,3.3,4.7,,,,,,,,1,wg-a,,,,AAXX 03184 07481 32565 83508 10040 20000 39836 40130 51005 70176 885// 91800 333 10047 20033=
07481,1996-02-03 21:00:00,3,1013.5,0.4,70,-2,13000,11.112,,,360,,,,,,,,,,,wg-a,,,,AAXX 03214 07481 12563 83606 10030 21020 39840 40135 50004 60006 885// 92100=
07481,1996-02-04 00:00:00,2,1013.5,-0.1,80,-1,20000,7.408,,,320,,,,,,,,,,,wg-a,,,,AAXX 04004 07481 12670 83204 10020 21010 39839 40135 58001 60006 885// 90000=
07481,1996-02-04 03:00:00,1,1012.5,-1,86,-1,15000,11.112,,,350,,,,,,,,,,,wg-a,,,,AAXX 04034 07481 12665 83506 10010 21010 39829 40125 57010 60006 875// 90300=
07481,1996-02-04 06:00:00,1,1012.6,-0,86,-1,8000,14.816,,,350,0.2,3.7,,,,,,,,,wg-a,,,,AAXX 04064 07481 02258 83508 10010 21010 39829 40126 54000 60006 876// 90600 333 10037 20002 60004=
07481,1996-02-04 09:00:00,1,1013,0.4,86,-1,500,11.112,,,350,,,,,,,,,,,wg-a,,,,AAXX 04094 07481 12300 83506 10010 21010 39833 40130 51004 60006 876// 90900=
07481,1996-02-04 12:00:00,2,1012.6,-0.3,80,-1,500,22.224,,,340,,,,,,,,,,,wg-a,,,,AAXX 04124 07481 12400 83412 10020 21010 39830 40126 58003 60006 885// 91200=
07481,1996-02-04 15:00:00,2,1012.6,-0,69,-3,15000,18.52,,,340,,,,,,,,,,,wg-a,,,,AAXX 04154 07481 12465 83410 10020 21030 39830 40126 55000 60006 875// 91500=
07481,1996-02-04 18:00:00,1,1013.6,0.8,69,-4,12000,18.52,,,350,0.2,1.9,,,,,,,,,wg-a,,,,AAXX 04184 07481 12662 83510 10010 21040 39838 40136 53008 60006 875// 91800 333 10019 20002=
07481,1996-02-04 21:00:00,-1,1014.8,1,69,-6,15000,25.928,,,340,,,,,,,,,,,wg-a,,,,AAXX 04214 07481 12765 63414 11010 21060 39848 40148 51010 60006 86500 92100=
07481,1996-02-05 00:00:00,-2,1014.6,-0.2,74,-6,15000,22.224,,,340,,,,,,,,,,,wg-a,,,,AAXX 05004 07481 12565 63412 11020 21060 39846 40146 58002 60006 8/500 90000=
07481,1996-02-05 03:00:00,-1,1014.1,-0.5,74,-5,12000,22.224,,,340,,,,,,,,,,,wg-a,,,,AAXX 05034 07481 12562 73412 11010 21050 39841 40141 58005 60006 8453/ 90300=
07481,1996-02-05 06:00:00,-2,1014.2,0.1,74,-6,12000,18.52,,,340,-2.2,0.6,,,,,,,,,wg-a,,,,AAXX 05064 07481 12462 73410 11020 21060 39842 40142 50001 60006 8553/ 90600 333 10006 21022=
07481,1996-02-05 09:00:00,-2,1014.2,-0,74,-6,10000,18.52,,,350,,,,,,,,,,,wg-a,,,,AAXX 05094 07481 12460 83510 11020 21060 39842 40142 55000 60006 8557/ 90900=
07481,1996-02-05 12:00:00,-1,1012.8,-1.3,69,-6,15000,22.224,,,340,,,,,,,,,,,wg-a,,,,AAXX 05124 07481 12465 /3412 11010 21060 39829 40128 58013 60006 84130 91200=
07481,1996-02-05 15:00:00,-1,1011.3,-1.4,64,-7,10000,18.52,,,340,,,,,,,,,,,wg-a,,,,AAXX 05154 07481 12560 83410 11010 21070 39815 40113 56014 60006 8587/ 91500=
07481,1996-02-05 18:00:00,-1,1009.7,-1.7,64,-7,15000,14.816,,,340,-1.7,-0.1,,,,,,,,,wg-a,,,,AAXX 05184 07481 12665 /3408 11010 21070 39798 40097 56017 60006 83530 91800 333 11001 21017=
07481,1996-02-05 21:00:00,-3,1006.7,-3,80,-6,12000,3.704,,,280,,,,,,,,,,,wg-a,,,,AAXX 05214 07481 12/62 52802 11030 21060 39768 40067 58030 60006 85030 92100=
07481,1996-02-06 00:00:00,-5,1002.5,-4.4,79,-8,10000,0,,,0,,,,,,,,,,,wg-a,,,,AAXX 06004 07481 12/60 00000 11050 21080 39724 40025 56044 60006 80000 90000=
07481,1996-02-06 03:00:00,-6,999.2,-3.2,93,-7,8000,11.112,,,140,,,,,,,,,,,wg-a,,,,AAXX 06034 07481 12/58 01406 11060 21070 39692 49992 56032 60006 80000 90300=
07481,1996-02-06 06:00:00,-3,994.8,-3.9,80,-6,7000,25.928,,,130,-5.9,-1.4,,,,,,,,,wg-a,,,,AAXX 06064 07481 12/57 /1314 11030 21060 39653 49948 56039 60006 81032 90600 333 11014 21059=
07481,1996-02-06 09:00:00,-1,994.1,-0.5,86,-3,7000,22.224,,,150,,,,,,,,,,,wg-a,,,,AAXX 06094 07481 12/57 /1512 11010 21030 39648 49941 55005 60006 90900=
07481,1996-02-06 12:00:00,0,993,-1,93,-1,1000,14.816,,,130,,,,1,,,,,,73,wg-a,,,,AAXX 06124 07481 02610 81308 10000 21010 39638 49930 58010 60016 77372 8357/ 91200 333 60017=
07481,1996-02-06 15:00:00,0,994,1,93,-1,3000,11.112,,,120,,,,2,,,,,,71,wg-a,,,,AAXX 06154 07481 12630 71206 10000 21010 39648 49940 53010 60027 77177 8357/ 91500=
07481,1996-02-06 18:00:00,0,997.1,3,100,0,3000,14.816,,,150,-2.7,0.6,,3,,,,,,71,wg-a,,4,,AAXX 06184 07481 12630 81508 10000 20000 39678 49971 53030 60037 77177 8357/ 91800 333 10006 21027 4/004=
07481,1996-02-06 21:00:00,1,1001,3.8,93,0,500,7.408,,,250,,,,2,,,,,,61,wg-a,,,,AAXX 06214 07481 12200 82504 10010 20000 39716 40010 51038 60027 76176 8467/ 92100=
07481,1996-02-07 00:00:00,1,1003.3,2.3,93,0,8000,7.408,,,200,,,,0,,,,,,23,wg-a,,,,AAXX 07004 07481 02258 82004 10010 20000 39739 40033 51023 60026 72376 8357/ 90000 333 60007=
07481,1996-02-07 03:00:00,1,1003.6,0.3,93,0,6000,11.112,,,150,,,,0,,,,,,61,wg-a,,,,AAXX 07034 07481 12456 81506 10010 20000 39742 40036 50003 60007 76176 875// 90300=
07481,1996-02-07 06:00:00,1,1003.5,-0.1,93,0,8000,11.112,,,200,0.3,1.2,,0,,,9,,,23,wg-a,,3,,AAXX 07064 07481 02558 82006 10010 20000 39741 40035 58001 60094 72376 8557/ 90600 333 10012 20003 4/003 60007=
07481,1996-02-07 09:00:00,2,1001.3,-2,80,-1,10000,11.112,,,180,,,,,,,,,,,wg-a,,,,AAXX 07094 07481 12660 81806 10020 21010 39721 40013 58020 60006 8257/ 90900=
07481,1996-02-07 12:00:00,3,997.3,-3.8,81,0,12000,14.816,,,170,,,,,,,,,,,wg-a,,,,AAXX 07124 07481 12662 71708 10030 20000 39683 49973 58038 60006 81532 91200=
07481,1996-02-07 15:00:00,1,993.8,-3.6,86,-1,1800,31.484,,50.004,200,,,,,,,,,,71,wg-a,,,,AAXX 07154 07481 02218 82017 10010 21010 39647 49938 55036 61000 77172 8457/ 91500 333 //// 91027=
07481,1996-02-07 18:00:00,2,992.8,-0.9,80,-1,12000,38.892,,68.524,200,0.4,3.6,,1,,,,,,70,wg-a,,3,,AAXX 07184 07481 12362 /2021 10020 21010 39638 49928 56009 60017 77072 8454/ 91800 333 10036 20004 4/003 91037=
07481,1996-02-07 21:00:00,2,991.5,-1.2,87,0,20000,31.484,,57.412,190,,,,,,,,,,2,wg-a,,,,AAXX 07214 07481 02670 71917 10020 20000 39626 49915 58012 61000 70272 8453/ 92100 333 //// 91031=
07481,1996-02-08 00:00:00,2,991.4,-0.1,87,0,9000,22.224,,,170,,,,,,,,,,70,wg-a,,,,AAXX 08004 07481 02459 81712 10020 20000 39625 49914 55001 61000 77072 8557/ 90000 333 6100=
07481,1996-02-08 03:00:00,1,995.4,3.8,93,0,7000,3.704,,,140,,,,1,,,,,,61,wg-a,,,,AAXX 08034 07481 12357 81402 10010 20000 39663 49954 53038 60017 76176 877// 90300=
07481,1996-02-08 06:00:00,1,1003.7,8,93,0,2000,29.632,,53.708,330,0.2,2.3,,3,,,5,,,73,wg-a,,1,,AAXX 08064 07481 02220 83316 10010 20000 39743 40037 53080 60054 77376 877// 90600 333 10023 20002 4/001 60037 91029=
07481,1996-02-08 09:00:00,1,1010.4,6.5,86,-1,12000,22.224,,,330,,,,0,,,,,,23,wg-a,,,,AAXX 08094 07481 12462 /3312 10010 21010 39808 40104 51065 60007 72376 8377/ 90900=
07481,1996-02-08 12:00:00,2,1013.3,2.9,80,-1,8000,14.816,,,340,,,,0,,,,,,22,wg-a,,,,AAXX 08124 07481 02458 83408 10020 21010 39837 40133 51029 60016 72272 8452/ 91200 333 60007=
07481,1996-02-08 15:00:00,2,1016.4,3,80,-1,6000,25.928,,,340,,,,,,,,,,1,wg-a,,,,AAXX 08154 07481 02556 /3414 10020 21010 39867 40164 52030 61000 70172 83530 91500 333 ////=
07481,1996-02-08 18:00:00,1,1020.4,3.8,80,-2,8000,7.408,,,20,0.6,2.4,,,,,,,,3,wg-a,,,,AAXX 08184 07481 32558 70204 10010 21020 39905 40204 52038 70371 875// 91800 333 10024 20006=
07481,1996-02-08 21:00:00,0,1023.2,2.6,80,-3,10000,7.408,,,30,,,,,,,,,,3,wg-a,,,,AAXX 08214 07481 02360 80304 10000 21030 39931 40232 52026 61000 70372 835// 92100 333 ////=
07481,1996-02-09 00:00:00,0,1023.6,0.4,80,-3,10000,3.704,,,80,,,,,,,,,,1,wg-a,,,,AAXX 09004 07481 02560 80802 10000 21030 39935 40236 51004 61000 70172 875// 90000 333 ////=
07481,1996-02-09 03:00:00,-1,1022.6,-1.1,86,-3,10000,7.408,,,360,,,,,,,,,,,wg-a,,,,AAXX 09034 07481 12760 73604 11010 21030 39924 40226 58011 60006 875// 90300=
07481,1996-02-09 06:00:00,-3,1021.2,-1.5,86,-5,10000,7.408,,,340,-2.7,0.7,,,,,,,,,wg-a,,,,AAXX 09064 07481 12760 13404 11030 21050 39909 40212 56015 60004 81500 90600 333 10007 21027=
07481,1996-02-09 09:00:00,-1,1021.9,0.8,86,-3,500,3.704,,,10,,,,,,,,,,,wg-a,,,,AAXX 09094 07481 12/00 /0102 11010 21030 39917 40219 51008 60006 80001 90900=
07481,1996-02-09 12:00:00,3,1019.1,-2.3,65,-3,10000,0,,,0,,,,,,,,,,,wg-a,,,,AAXX 09124 07481 12/60 /0000 10030 21030 39894 40191 58023 60006 80002 91200=
07481,1996-02-09 15:00:00,3,1016.7,-2.3,60,-4,12000,11.112,,,140,,,,,,,,,,,wg-a,,,,AAXX 09154 07481 12/62 61406 10030 21040 39871 40167 58023 60006 80002 91500=
07481,1996-02-09 18:00:00,0,1016.4,-0.6,74,-4,10000,11.112,,,140,-2.9,4.3,,,,,,,,,wg-a,,,,AAXX 09184 07481 12/60 61406 10000 21040 39865 40164 58006 60006 81032 91800 333 10043 21029=
07481,1996-02-09 21:00:00,1,1015.6,-0.7,69,-4,15000,11.112,,,160,,,,,,,,,,,wg-a,,,,AAXX 09214 07481 12/65 71606 10010 21040 39858 40156 55007 60006 84032 92100=
07481,1996-02-10 00:00:00,1,1016,0.4,75,-3,15000,3.704,,,180,,,,,,,,,,,wg-a,,,,AAXX 10004 07481 12/65 71802 10010 21030 39862 40160 53004 60006 83032 90000=
07481,1996-02-10 03:00:00,1,1016.4,0.4,80,-2,15000,3.704,,,30,,,,,,,,,,,wg-a,,,,AAXX 10034 07481 12765 80302 10010 21020 39866 40164 51004 60006 8357/ 90300=
07481,1996-02-10 06:00:00,2,1017.4,1.1,87,0,10000,7.408,,,120,0.1,2.1,,2,,,2,,,21,wg-a,,,,AAXX 10064 07481 02760 81204 10020 20000 39877 40174 51011 60024 72162 8557/ 90600 333 10021 20001 60027=
07481,1996-02-10 09:00:00,4,1018.1,0.9,87,2,12000,11.112,,,150,,,,,,,,,,,wg-a,,,,AAXX 10094 07481 12762 11506 10040 20020 39886 40181 51009 60006 81501 90900=
07481,1996-02-10 12:00:00,9,1016.6,-0.9,61,2,20000,14.816,,,180,,,,,,,,,,,wg-a,,,,AAXX 10124 07481 12670 /1808 10090 20020 39877 40166 58009 60006 81140 91200=
07481,1996-02-10 15:00:00,10,1015.7,-0.8,53,1,45000,14.816,,,160,,,,,,,,,,,wg-a,,,,AAXX 10154 07481 12683 21608 10100 20010 39869 40157 56008 60006 81102 91500=
07481,1996-02-10 18:00:00,6,1016.4,0.2,61,-1,500,14.816,,,150,1.2,10.6,,,,,,,,,wg-a,,,,AAXX 10184 07481 12700 21508 10060 21010 39871 40164 53002 60006 81460 91800 333 10106 20012=
07481,1996-02-10 21:00:00,5,1016.9,0.5,75,1,500,7.408,,,170,,,,,,,,,,,wg-a,,,,AAXX 10214 07481 12700 /1704 10050 20010 39876 40169 51005 60006 81540 92100=
07481,1996-02-11 00:00:00,4,1017.2,0.1,81,1,500,0,,,0,,,,,,,,,,,wg-a,,,,AAXX 11004 07481 12700 50000 10040 20010 39877 40172 52001 60006 81540 90000=
07481,1996-02-11 03:00:00,5,1016.5,-0.6,75,1,500,11.112,,,170,,,,,,,,,,,wg-a,,,,AAXX 11034 07481 12700 71706 10050 20010 39871 40165 56006 60006 8153/ 90300=
07481,1996-02-11 06:00:00,4,1017.4,0.9,81,1,500,7.408,,,190,3.8,5.9,,,,,,,,2,wg-a,,,,AAXX 11064 07481 02600 71904 10040 20010 39880 40174 53009 61000 70262 8353/ 90600 333 10059 20038 6100=
07481,1996-02-11 09:00:00,5,1018.8,1.4,75,1,50000,7.408,,,180,,,,,,,,,,,wg-a,,,,AAXX 11094 07481 12684 71804 10050 20010 39894 40188 51014 60006 86530 90900=
07481,1996-02-11 12:00:00,9,1017.6,-0.8,53,0,50000,18.52,,,220,,,,,,,,,,,wg-a,,,,AAXX 11124 07481 12784 72210 10090 20000 39886 40176 58008 60006 8357/ 91200=
07481,1996-02-11 15:00:00,8,1016.8,-0.8,61,1,20000,22.224,,,210,,,,,,,,,,1,wg-a,,,,AAXX 11154 07481 02570 /2112 10080 20010 39878 40168 56008 61000 70162 85280 91500 333 ////=
07481,1996-02-11 18:00:00,5,1018.2,1,81,2,500,11.112,,,150,3.6,9.4,,1,,,,,,3,wg-a,,,,AAXX 11184 07481 12500 71506 10050 20020 39888 40182 51010 60017 70386 8387/ 91800 333 10094 20036=
07481,1996-02-11 21:00:00,5,1019.7,1.4,87,3,15000,7.408,,,210,,,,1,,,,,,61,wg-a,,,,AAXX 11214 07481 12265 82104 10050 20030 39902 40197 51014 60017 76162 8457/ 92100=
07481,1996-02-12 00:00:00,2,1019.4,-0.5,93,1,20000,11.112,,,160,,,,0,,,,,,3,wg-a,,,,AAXX 12004 07481 02570 21606 10020 20010 39897 40194 56005 60016 70361 81530 90000 333 60007=
07481,1996-02-12 03:00:00,3,1017.9,-1.4,87,1,20000,14.816,,,160,,,,0,,,,,,21,wg-a,,,,AAXX 12034 07481 12770 /1608 10030 20010 39883 40179 58014 60007 72161 85530 90300=
07481,1996-02-12 06:00:00,5,1015.8,-1.9,75,1,18000,14.816,,,170,1.9,5.5,,,,,2,,,2,wg-a,,,,AAXX 12064 07481 12768 71708 10050 20010 39864 40158 58019 60024 70262 875// 90600 333 10055 20019=
07481,1996-02-12 09:00:00,5,1013.6,-2,75,1,15000,22.224,,,180,,,,0,,,,,,60,wg-a,,,,AAXX 12094 07481 12765 81812 10050 20010 39844 40136 56020 60007 76062 8457/ 90900=
07481,1996-02-12 12:00:00,7,1008.6,-4.7,66,1,25000,31.484,,50.004,190,,,,1,,,,,,2,wg-a,,,,AAXX 12124 07481 02675 71917 10070 20010 39797 40086 58047 60016 70262 8187/ 91200 333 60017 91027=
07481,1996-02-12 15:00:00,7,1002.9,-5.6,81,4,25000,57.412,,87.044,190,,,,0,,,,,,60,wg-a,,,,AAXX 12154 07481 12575 81931 10070 20040 39741 40029 56056 60007 76022 8287/ 91500 333 91047=
07481,1996-02-12 18:00:00,5,1003.6,0.5,87,3,8000,22.224,,,220,4.1,7.1,,8,,,,,,10,wg-a,,,,AAXX 12184 07481 12258 82212 10050 20030 39746 40036 53005 60087 71086 8487/ 91800 333 10071 20041=
07481,1996-02-12 21:00:00,6,1004,0.6,75,2,40000,14.816,,,180,,,,,,,,,,3,wg-a,,,,AAXX 12214 07481 02682 11808 10060 20020 39752 40040 53006 61000 70361 81500 92100 333 ////=
07481,1996-02-13 00:00:00,8,1002.5,-1.4,61,1,25000,25.928,,,230,,,,,,,,,,60,wg-a,,,,AAXX 13004 07481 02675 72314 10080 20010 39738 40025 55014 61000 76061 8487/ 90000 333 6100=
07481,1996-02-13 03:00:00,5,1004.1,1.3,87,3,20000,11.112,,,270,,,,2,,,,,,60,wg-a,,,,AAXX 13034 07481 12470 82706 10050 20030 39751 40041 53013 60027 76086 8587/ 90300=
07481,1996-02-13 06:00:00,4,1005.5,1.3,87,2,20000,11.112,,,170,3.7,7.6,,0,,,12,,,1,wg-a,,,,AAXX 13064 07481 02570 71706 10040 20020 39764 40055 50013 60124 70198 8457/ 90600 333 10076 20037 60007=
07481,1996-02-13 09:00:00,6,1006.5,1.1,70,1,500,11.112,,,250,,,,,,,,,,,wg-a,,,,AAXX 13094 07481 12500 72506 10060 20010 39775 40065 53011 60006 8487/ 90900=
07481,1996-02-13 12:00:00,6,1007.4,0.9,65,0,20000,14.816,,,280,,,,,,,,,,,wg-a,,,,AAXX 13124 07481 12570 82808 10060 20000 39784 40074 51009 60006 8587/ 91200=
07481,1996-02-13 15:00:00,6,1008.3,0.9,70,1,500,18.52,,,290,,,,1,,,,,,,wg-a,,,,AAXX 13154 07481 12300 /2910 10060 20010 39793 40083 51009 60017 84870 91500=
07481,1996-02-13 18:00:00,4,1010.3,1.7,87,2,20000,11.112,,,270,3,6.8,,1,,,,,,1,wg-a,,,,AAXX 13184 07481 12470 72706 10040 20020 39810 40103 51017 60017 70186 8387/ 91800 333 10068 20030=
07481,1996-02-13 21:00:00,3,1011.5,1.1,87,1,20000,11.112,,,270,,,,,,,,,,,wg-a,,,,AAXX 13214 07481 12570 72706 10030 20010 39821 40115 51011 60006 875// 92100=
07481,1996-02-14 00:00:00,2,1012.5,0.9,93,1,15000,14.816,,,320,,,,0,,,,,,61,wg-a,,,,AAXX 14004 07481 02465 83208 10020 20010 39830 40125 51009 60006 76162 885// 90000 333 60007=
07481,1996-02-14 03:00:00,1,1014,1.3,93,0,12000,22.224,,,340,,,,0,,,,,,21,wg-a,,,,AAXX 14034 07481 12362 83412 10010 20000 39843 40140 51013 60007 72162 888// 90300=
07481,1996-02-14 06:00:00,1,1015.9,1.9,93,0,7000,22.224,,,340,1.1,4,,,,,2,,,1,wg-a,,,,AAXX 14064 07481 02357 83412 10010 20000 39862 40159 53019 60024 70176 885// 90600 333 10040 20011 61000=
07481,1996-02-14 09:00:00,2,1018.6,2.6,80,-1,8000,29.632,,,350,,,,,,,,,,,wg-a,,,,AAXX 14094 07481 12358 83516 10020 21010 39888 40186 51026 60006 888// 90900=
07481,1996-02-14 12:00:00,2,1018.6,2.6,80,-1,8000,29.632,,,350,,,,,,,,,,,wg-a,,,,AAXX 14124 07481 12358 83516 10020 21010 39888 40186 51026 60006 888// 91200=
07481,1996-02-14 15:00:00,3,1022,1.4,75,-1,9000,31.484,,,360,,,,,,,,,,,wg-a,,,,AAXX 14154 07481 12559 73617 10030 21010 39923 40220 53014 60006 878// 91500=
07481,1996-02-14 18:00:00,2,1024.4,2.2,80,-1,10000,22.224,,,350,1.2,3.7,,,,,,,,,wg-a,,,,AAXX 14184 07481 12560 43512 10020 21010 39945 40244 53022 60006 84500 91800 333 10037 20012=
07481,1996-02-14 21:00:00,1,1026.7,2.1,80,-2,12000,22.224,,,350,,,,,,,,,,,wg-a,,,,AAXX 14214 07481 12462 53512 10010 21020 39966 40267 53021 60006 85500 92100=
07481,1996-02-15 00:00:00,1,1028.4,1.6,80,-2,12000,22.224,,,360,,,,,,,,,,,wg-a,,,,AAXX 15004 07481 12462 /3612 10010 21020 39982 40284 51016 60006 84500 90000=
07481,1996-02-15 03:00:00,0,1028.9,0.4,86,-2,15000,22.224,,,350,,,,,,,,,,,wg-a,,,,AAXX 15034 07481 12465 43512 10000 21020 39986 40289 50004 60006 84500 90300=
07481,1996-02-15 06:00:00,0,1030.6,1.7,80,-3,15000,25.928,,,360,-0.1,2.1,,,,,,,,,wg-a,,,,AAXX 15064 07481 12465 /3614 10000 21030 30003 40306 51017 60006 83540 90600 333 10021 21001=
07481,1996-02-15 09:00:00,1,1032.3,1.7,80,-2,10000,22.224,,,20,,,,,,,,,,,wg-a,,,,AAXX 15094 07481 12460 30212 10010 21020 30020 40323 52017 60006 83800 90900=
07481,1996-02-15 12:00:00,3,1031.5,-0.5,70,-2,15000,25.928,,,350,,,,,,,,,,,wg-a,,,,AAXX 15124 07481 12565 73514 10030 21020 30015 40315 57005 60006 8684/ 91200=
07481,1996-02-15 15:00:00,3,1031.4,-0.1,65,-3,12000,22.224,,,350,,,,,,,,,,,wg-a,,,,AAXX 15154 07481 12662 83512 10030 21030 30014 40314 55001 60006 8157/ 91500=
07481,1996-02-15 18:00:00,2,1031.9,0.4,75,-2,20000,14.816,,,340,-0.5,2.9,,,,,,,,,wg-a,,,,AAXX 15184 07481 12670 73408 10020 21020 30018 40319 53004 60006 8457/ 91800 333 10029 21005=
07481,1996-02-15 21:00:00,1,1032.2,0.2,69,-4,20000,18.52,,,350,,,,,,,,,,,wg-a,,,,AAXX 15214 07481 12670 83510 10010 21040 30020 40322 52002 60006 885// 92100=
07481,1996-02-16 00:00:00,1,1032.3,-0,75,-3,20000,11.112,,,340,,,,,,,,,,,wg-a,,,,AAXX 16004 07481 12670 63406 10010 21030 30020 40323 55000 60006 86500 90000=
07481,1996-02-16 03:00:00,0,1031.9,-0.5,80,-3,15000,14.816,,,350,,,,,,,,,,,wg-a,,,,AAXX 16034 07481 12565 83508 10000 21030 30015 40319 56005 60006 885// 90300=
07481,1996-02-16 06:00:00,0,1031.3,-0.6,80,-3,12000,7.408,,,10,-0.3,2.1,,,,,,,,,wg-a,,,,AAXX 16064 07481 12562 70104 10000 21030 30009 40313 58006 60006 875// 90600 333 10021 21003=
07481,1996-02-16 09:00:00,1,1031.5,0.4,75,-3,8000,18.52,,,350,,,,,,,,,,,wg-a,,,,AAXX 16094 07481 12558 73510 10010 21030 30013 40315 50004 60006 8453/ 90900=
07481,1996-02-16 12:00:00,3,1030.3,-1,70,-2,12000,22.224,,,340,,,,,,,,,,,wg-a,,,,AAXX 16124 07481 12562 73412 10030 21020 30003 40303 58010 60006 8383/ 91200=
07481,1996-02-16 15:00:00,4,1029.1,-1.1,65,-2,12000,18.52,,,340,,,,,,,,,,,wg-a,,,,AAXX 16154 07481 12562 83410 10040 21020 39992 40291 56011 60006 8457/ 91500=
07481,1996-02-16 18:00:00,3,1029.2,0,81,0,8000,7.408,,,40,-0.8,4.3,,,,,,,,,wg-a,,,,AAXX 16184 07481 12458 80404 10030 20000 39992 40292 50000 60006 875// 91800 333 10043 21008=
07481,1996-02-16 21:00:00,2,1029.6,0.4,87,0,9000,0,,,0,,,,,,,,,,,wg-a,,,,AAXX 16214 07481 12459 80000 10020 20000 39996 40296 50004 60006 875// 92100=
07481,1996-02-17 00:00:00,2,1029.4,-0.2,93,1,7000,7.408,,,140,,,,,,,,,,,wg-a,,,,AAXX 17004 07481 12457 81404 10020 20010 39994 40294 55002 60006 885// 90000=
07481,1996-02-17 03:00:00,3,1028.3,-1.1,93,2,500,3.704,,,160,,,,,,,,,,,wg-a,,,,AAXX 17034 07481 12300 81602 10030 20020 39983 40283 58011 60006 886// 90300=
07481,1996-02-17 06:00:00,3,1027.1,-1.1,93,2,500,3.704,,,120,2.1,2.8,,,,,,,,,wg-a,,,,AAXX 17064 07481 12400 /1202 10030 20020 39972 40271 58011 60006 856// 90600 333 10028 20021=
07481,1996-02-17 09:00:00,3,1027.1,0.1,93,2,4500,7.408,,,140,,,,,,,,,,10,wg-a,,,,AAXX 17094 07481 12645 71404 10030 20020 39973 40271 50001 60006 71022 875// 90900=
07481,1996-02-17 12:00:00,5,1026.5,-0.4,87,3,6000,0,,,0,,,,,,,,,,1,wg-a,,,,AAXX 17124 07481 02656 70000 10050 20030 39969 40265 58004 61000 70152 875// 91200 333 6100=
07481,1996-02-17 15:00:00,6,1025.8,-0.6,75,2,18000,11.112,,,320,,,,,,,,,,,wg-a,,,,AAXX 17154 07481 12468 /3206 10060 20020 39963 40258 55006 60006 86800 91500=
07481,1996-02-17 18:00:00,5,1027,1.1,81,2,20000,3.704,,,170,2.4,6.6,,,,,,,,,wg-a,,,,AAXX 17184 07481 32670 71702 10050 20020 39974 40270 53011 875// 91800 333 10066 20024=
07481,1996-02-17 21:00:00,5,1027.1,0,81,2,20000,7.408,,,220,,,,,,,,,,,wg-a,,,,AAXX 17214 07481 12670 72204 10050 20020 39974 40271 50000 60006 8453/ 92100=
07481,1996-02-18 00:00:00,4,1025.8,-1.3,87,2,15000,11.112,,,160,,,,,,,,,,,wg-a,,,,AAXX 18004 07481 12665 71606 10040 20020 39961 40258 58013 60006 8453/ 90000=
07481,1996-02-18 03:00:00,3,1023.3,-2.6,93,2,10000,14.816,,,160,,,,,,,,,,,wg-a,,,,AAXX 18034 07481 12860 61608 10030 20020 39935 40233 58026 60006 86030 90300=
07481,1996-02-18 06:00:00,2,1021.2,-2.1,93,1,12000,11.112,,,140,1.9,5.6,,,,,,,,21,wg-a,,,,AAXX 18064 07481 02562 71406 10020 20010 39914 40212 58021 61000 72162 8457/ 90600 333 10056 20019 6100=
07481,1996-02-18 09:00:00,3,1018.6,-2.4,87,1,10000,14.816,,,150,,,,,,,,,,,wg-a,,,,AAXX 18094 07481 12660 71508 10030 20010 39890 40186 58024 60006 8457/ 90900=
07481,1996-02-18 12:00:00,9,1012.9,-5,53,0,20000,25.928,,,180,,,,,,,,,,,wg-a,,,,AAXX 18124 07481 12670 71814 10090 20000 39840 40129 58050 60006 8557/ 91200=
07481,1996-02-18 15:00:00,10,1007,-5.6,50,0,45000,25.928,,,180,,,,,,,,,,,wg-a,,,,AAXX 18154 07481 12683 81814 10100 20000 39784 40070 56056 60006 8357/ 91500=
07481,1996-02-18 18:00:00,9,1005.1,-1.9,53,0,500,22.224,,,200,2,10.3,,,,,,,,3,wg-a,,,,AAXX 18184 07481 02600 82012 10090 20000 39765 40051 58019 61000 70362 8457/ 91800 333 10103 20020 ////=
07481,1996-02-18 21:00:00,5,1006.1,0.5,87,3,13000,11.112,,,260,,,,2,,,,,,61,wg-a,,,,AAXX 18214 07481 12563 82606 10050 20030 39770 40061 50005 60027 76162 8352/ 92100=
07481,1996-02-19 00:00:00,5,1003,-2.9,81,2,25000,14.816,,,210,,,,0,,,,,,2,wg-a,,,,AAXX 19004 07481 02775 82108 10050 20020 39741 40030 56029 60026 70262 8357/ 90000 333 60007=
07481,1996-02-19 03:00:00,5,1000.6,-2.4,75,1,20000,7.408,,,200,,,,,,,,,,,wg-a,,,,AAXX 19034 07481 12670 72004 10050 20010 39717 40006 56024 60006 8457/ 90300=
07481,1996-02-19 06:00:00,4,999.5,-1.1,81,1,20000,7.408,,,190,4.3,8.9,,,,,2,,,,wg-a,,,,AAXX 19064 07481 12670 81904 10040 20010 39706 49995 57011 60024 8357/ 90600 333 10089 20043=
07481,1996-02-19 09:00:00,5,999.6,0.1,75,1,18000,3.704,,,220,,,,1,,,,,,3,wg-a,,,,AAXX 19094 07481 12468 72202 10050 20010 39707 49996 50001 60017 70362 85832 90900=
07481,1996-02-19 12:00:00,8,997.8,-1.4,49,-2,500,7.408,,,200,,,,,,,,,,1,wg-a,,,,AAXX 19124 07481 12500 72004 10080 21020 39693 49978 58014 60016 70162 8587/ 91200=
07481,1996-02-19 15:00:00,5,997.1,-0.9,81,2,20000,11.112,,,230,,,,,,,,,,21,wg-a,,,,AAXX 19154 07481 02570 72306 10050 20020 39684 49971 58009 61000 72162 8587/ 91500 333 ////=
07481,1996-02-19 18:00:00,2,1000.5,2.9,80,-1,500,18.52,,,340,2.1,8.2,,2,,,,,,,wg-a,,,,AAXX 19184 07481 12400 83410 10020 21010 39713 40005 53029 60027 8587/ 91800 333 10082 20021=
07481,1996-02-19 21:00:00,1,1003.7,3,69,-4,500,22.224,,,330,,,,,,,,,,,wg-a,,,,AAXX 19214 07481 12500 /3312 10010 21040 39743 40037 53030 60006 82830 92100=
07481,1996-02-20 00:00:00,1,1005.9,2.1,69,-4,40000,18.52,,,340,,,,,,,,,,,wg-a,,,,AAXX 20004 07481 12582 73410 10010 21040 39764 40059 52021 60006 8483/ 90000=
07481,1996-02-20 03:00:00,-1,1007.2,1.1,74,-5,50000,22.224,,,340,,,,,,,,,,,wg-a,,,,AAXX 20034 07481 12684 /3412 11010 21050 39775 40072 51011 60006 82570 90300=
07481,1996-02-20 06:00:00,-2,1008.5,1.1,74,-6,40000,14.816,,,340,-2.1,2.3,,,,,3,,,,wg-a,,,,AAXX 20064 07481 02/82 /3408 11020 21060 39786 40085 52011 60006 81041 90600 333 10023 21021 60034=
07481,1996-02-20 12:00:00,0,1009.7,0.2,55,-8,50000,22.224,,,340,,,,,,,,,,,wg-a,,,,AAXX 20124 07481 12584 /3412 10000 21080 39800 40097 50002 60006 86800 91200=
07481,1996-02-20 15:00:00,0,1009.3,-0.3,59,-7,40000,22.224,,,350,,,,,,,,,,85,wg-a,,,,AAXX 20154 07481 02582 /3512 10000 21070 39796 40093 56003 61000 78587 86200 91500 333 ////=
07481,1996-02-20 18:00:00,-1,1010.5,1.1,80,-4,20000,18.52,,,330,-2.4,0.7,,,,,,,,1,wg-a,,,,AAXX 20184 07481 02670 73310 11010 21040 39807 40105 53011 61000 70187 82462 91800 333 10007 21024 ////=
07481,1996-02-20 21:00:00,-2,1010.6,0,93,-3,6000,18.52,,,350,,,,,,,,,,71,wg-a,,,,AAXX 20214 07481 02456 83510 11020 21030 39807 40106 50000 61000 77172 878// 92100 333 ////=
07481,1996-02-21 00:00:00,-1,1009.4,-1.1,80,-4,9000,18.52,,,350,,,,,,,,,,71,wg-a,,,,AAXX 21004 07481 02459 83510 11010 21040 39796 40094 58011 61000 77172 8487/ 90000 333 6100=
07481,1996-02-21 03:00:00,-1,1008.1,-1.2,86,-3,12000,22.224,,,350,,,,,,,,,,70,wg-a,,,,AAXX 21034 07481 02462 83512 11010 21030 39784 40081 58012 61000 77072 8687/ 90300 333 ////=
07481,1996-02-21 06:00:00,0,1006.9,-1.1,86,-2,10000,22.224,,,10,-1.8,0.3,,,,,,,,70,wg-a,,1,,AAXX 21064 07481 02460 80112 10000 21020 39773 40069 58011 61000 77072 882// 90600 333 10003 21018 4/001 6100=
07481,1996-02-21 09:00:00,0,1007.7,0.8,86,-2,8000,31.484,,,350,,,,,,,,,,70,wg-a,,,,AAXX 21094 07481 02458 83517 10000 21020 39781 40077 53008 61000 77072 885// 90900 333 ////=
07481,1996-02-21 12:00:00,0,1008.9,1.3,80,-3,15000,38.892,,61.116,350,,,,,,,,,,1,wg-a,,,,AAXX 21124 07481 02565 83521 10000 21030 39793 40089 51013 61000 70172 875// 91200 333 6100 91033=
07481,1996-02-21 15:00:00,0,1010.6,1.5,80,-3,8000,29.632,,61.116,350,,,,,,,,,,70,wg-a,,,,AAXX 21154 07481 02258 83516 10000 21030 39809 40106 53015 61000 77072 875// 91500 333 //// 91033=
07481,1996-02-21 21:00:00,-2,1016.2,2.5,74,-6,15000,29.632,,,340,,,,,,,,,,,wg-a,,,,AAXX 21214 07481 12565 /3416 11020 21060 39861 40162 51025 60006 86500 92100=
07481,1996-02-22 00:00:00,-3,1018.4,2,74,-7,15000,35.188,,48.152,330,,,,,,,,,,,wg-a,,,,AAXX 22004 07481 12565 73319 11030 21070 39881 40184 52020 60006 875// 90000 333 91026=
07481,1996-02-22 03:00:00,-3,1019.6,1.1,68,-8,15000,18.52,,,340,,,,,,,,,,70,wg-a,,,,AAXX 22034 07481 02565 83410 11030 21080 39892 40196 51011 61000 77072 875// 90300 333 ////=
07481,1996-02-22 06:00:00,-4,1020.6,1,80,-7,9000,18.52,,,340,-3.8,-0.8,,,,,,,,71,wg-a,,,,AAXX 22064 07481 02559 73410 11040 21070 39902 40206 53010 61000 77172 875// 90600 333 11008 21038 6100=
07481,1996-02-22 09:00:00,-4,1022.4,1.8,74,-8,9000,25.928,,,340,,,,,,,,,,70,wg-a,,,,AAXX 22094 07481 02459 73414 11040 21080 39919 40224 51018 61000 77077 875// 90900 333 ////=
07481,1996-02-22 12:00:00,-3,1023,0.6,63,-9,12000,29.632,,,340,,,,,,,,,,3,wg-a,,,,AAXX 22124 07481 02562 73416 11030 21090 39926 40230 50006 61000 70372 878// 91200 333 6100=
07481,1996-02-22 15:00:00,-3,1023.2,0.1,58,-10,20000,18.52,,,340,,,,,,,,,,22,wg-a,,,,AAXX 22154 07481 02570 33410 11030 21100 39928 40232 53001 61000 72271 83200 91500 333 ////=
07481,1996-02-22 18:00:00,-2,1023.6,0.6,59,-9,20000,3.704,,,110,-4.4,-1.7,,,,,,,,3,wg-a,,,,AAXX 22184 07481 32/70 /1102 11020 21090 39932 40236 53006 70371 80000 91800 333 11017 21044=
07481,1996-02-22 21:00:00,-5,1023.8,-0.1,79,-8,15000,3.704,,,40,,,,,,,,,,,wg-a,,,,AAXX 22214 07481 12/65 20402 11050 21080 39932 40238 58001 60006 81032 92100=
07481,1996-02-23 00:00:00,-6,1022.2,-1.6,86,-8,8000,7.408,,,150,,,,,,,,,,,wg-a,,,,AAXX 23004 07481 12/58 21504 11060 21080 39915 40222 58016 60006 82030 90000=
07481,1996-02-23 03:00:00,-6,1019.7,-2.5,79,-9,10000,11.112,,,160,,,,,,,,,,,wg-a,,,,AAXX 23034 07481 12660 71606 11060 21090 39890 40197 58025 60006 8457/ 90300=
07481,1996-02-23 06:00:00,-5,1018.6,-1,68,-10,10000,11.112,,,150,-6.4,-2.7,,,,,,,,,wg-a,,,,AAXX 23064 07481 02560 71506 11050 21100 39880 40186 56010 60006 8557/ 90600 333 11027 21064 61000=
07481,1996-02-23 09:00:00,-4,1018.9,0.5,63,-10,10000,7.408,,,130,,,,,,,,,,,wg-a,,,,AAXX 23094 07481 12660 71304 11040 21100 39885 40189 51005 60006 8357/ 90900=
07481,1996-02-23 12:00:00,-2,1018.1,-0.6,63,-8,9000,3.704,,,110,,,,,,,,,,70,wg-a,,,,AAXX 23124 07481 02559 81102 11020 21080 39879 40181 58006 61000 77072 8457/ 91200 333 6100=
07481,1996-02-23 15:00:00,-2,1017.6,-0.4,86,-4,7000,7.408,,,120,,,,0,,,,,,70,wg-a,,,,AAXX 23154 07481 12557 81204 11020 21040 39875 40176 58004 60007 77077 8557/ 91500=
07481,1996-02-23 18:00:00,-2,1018.8,1.2,86,-4,7000,3.704,,,80,-5.4,-1.5,,,,,,,,3,wg-a,,0,,AAXX 23184 07481 02457 80802 11020 21040 39887 40188 53012 61000 70372 875// 91800 333 11015 21054 4/9999 ////=
07481,1996-02-23 21:00:00,-2,1019.7,0.8,93,-3,6000,3.704,,,20,,,,,,,,,,70,wg-a,,,,AAXX 23214 07481 02356 80202 11020 21030 39895 40197 51008 61000 77072 887// 92100 333 ////=
07481,1996-02-24 00:00:00,-3,1019.9,0,86,-5,500,0,,,0,,,,,,,,,,11,wg-a,,,,AAXX 24004 07481 02/00 /0000 11030 21050 39895 40199 50000 61000 71171 80000 90000 333 6100=
07481,1996-02-24 06:00:00,-3,1019.6,0.2,93,-4,4500,11.112,,,150,-4.8,-1.4,,,,,,,,10,wg-a,,1,,AAXX 24064 07481 12145 81506 11030 21040 39893 40196 52002 60004 71041 885// 90600 333 11014 21048 4/001=
07481,1996-02-24 09:00:00,-3,1019.7,0.2,93,-4,6000,14.816,,,150,,,,,,,,,,,wg-a,,,,AAXX 24094 07481 12256 81508 11030 21040 39894 40197 51002 60006 886// 90900=
07481,1996-02-24 12:00:00,3,1018.1,-0.9,65,-3,12000,11.112,,,150,,,,,,,,,,,wg-a,,,,AAXX 24124 07481 12/62 21506 10030 21030 39885 40181 58009 60006 80001 91200=
07481,1996-02-24 15:00:00,6,1015.9,-1.8,52,-3,20000,14.816,,,140,,,,,,,,,,,wg-a,,,,AAXX 24154 07481 12/70 51408 10060 21030 39867 40159 56018 60006 80004 91500=
07481,1996-02-24 18:00:00,2,1015.9,-0.5,69,-3,12000,14.816,,,110,-3,6.4,,,,,,,,,wg-a,,,,AAXX 24184 07481 12/62 11108 10020 21030 39862 40159 56005 60006 81032 91800 333 10064 21030=
07481,1996-02-24 21:00:00,0,1016,-0.1,80,-3,12000,11.112,,,140,,,,,,,,,,,wg-a,,,,AAXX 24214 07481 12/62 01406 10000 21030 39861 40160 58001 60006 80000 92100=
07481,1996-02-25 00:00:00,4,1015.1,-0.4,56,-4,15000,29.632,,,150,,,,,,,,,,,wg-a,,,,AAXX 25004 07481 12/65 11516 10040 21040 39857 40151 58004 60006 80001 90000=
07481,1996-02-25 03:00:00,4,1015.1,-0.4,56,-4,15000,29.632,,,150,,,,,,,,,,,wg-a,,,,AAXX 25034 07481 12/65 11516 10040 21040 39857 40151 58004 60006 80001 90300=
07481,1996-02-25 06:00:00,4,1014.5,0,75,0,15000,22.224,,,160,-0.2,4.5,,,,,,,,,wg-a,,,,AAXX 25064 07481 02/65 21612 10040 20000 39851 40145 50000 60006 80001 90600 333 10045 21002 60004=
07481,1996-02-25 09:00:00,7,1014.8,0.5,57,-1,15000,22.224,,,170,,,,,,,,,,,wg-a,,,,AAXX 25094 07481 12/65 11712 10070 21010 39856 40148 50005 60006 81041 90900=
07481,1996-02-25 12:00:00,10,1013.7,-0.8,53,1,11000,31.484,,,180,,,,,,,,,,,wg-a,,,,AAXX 25124 07481 12/61 /1817 10100 20010 39850 40137 58008 60006 91200=
07481,1996-02-25 14:00:00,12,1012.1,-1.4,47,1,20000,31.484,,57.412,190,,,,,,,,,,,wg-a,,,,AAXX 25144 07481 12670 /1917 10120 20010 39836 40121 58014 60006 81101 91400 333 91031=
07481,1996-02-25 15:00:00,12,1012.1,-1.4,47,1,20000,31.484,,,190,,,,,,,,,,,wg-a,,,,AAXX 25154 07481 12670 /1917 10120 20010 39836 40121 58014 60006 81101 91500=
07481,1996-02-25 18:00:00,9,1012.7,0.4,57,1,20000,22.224,,38.892,170,3.5,12.2,,,,,,,,,wg-a,,,,AAXX 25184 07481 12770 11712 10090 20010 39839 40127 52004 60006 815/0 91800 333 10122 20035 91021=
07481,1996-02-25 21:00:00,8,1013.4,0.5,66,2,20000,14.816,,,170,,,,,,,,,,,wg-a,,,,AAXX 25214 07481 12/70 /1708 10080 20020 39844 40134 51005 60006 81030 92100=
07481,1996-02-26 00:00:00,7,1014,0.6,66,1,10000,25.928,,,180,,,,,,,,,,,wg-a,,,,AAXX 26004 07481 12/60 /1814 10070 20010 39850 40140 53006 60006 90000=
07481,1996-02-26 03:00:00,6,1013.7,-0.3,61,-1,500,18.52,,,190,,,,,,,,,,,wg-a,,,,AAXX 26034 07481 12/00 01910 10060 21010 39846 40137 58003 60006 80000 90300=
07481,1996-02-26 06:00:00,4,1014,-0,60,-3,50000,3.704,,,160,3.9,9.2,,,,,,,,,wg-a,,,,AAXX 26064 07481 02/84 01602 10040 21030 39846 40140 55000 60006 80000 90600 333 10092 20039 60004=
07481,1996-02-26 09:00:00,10,1013.7,0.5,43,-2,60000,18.52,,,150,,,,,,,,,,,wg-a,,,,AAXX 26094 07481 12786 41510 10100 21020 39850 40137 50005 60006 81540 90900=
07481,1996-02-26 12:00:00,13,1013,-0.5,41,0,50000,18.52,,,200,,,,,,,,,,,wg-a,,,,AAXX 26124 07481 12784 62010 10130 20000 39845 40130 58005 60006 81131 91200=
07481,1996-02-26 15:00:00,12,1012.3,-0.7,50,2,50000,11.112,,,200,,,,,,,,,,,wg-a,,,,AAXX 26154 07481 12784 62006 10120 20020 39838 40123 55007 60006 81572 91500=
07481,1996-02-26 18:00:00,10,1013.9,1.3,62,3,50000,7.408,,,180,4,13.1,,,,,,,,,wg-a,,,,AAXX 26184 07481 12784 71804 10100 20030 39851 40139 53013 60006 875// 91800 333 10131 20040=
07481,1996-02-26 21:00:00,9,1014.6,0.6,66,3,50000,7.408,,,160,,,,,,,,,,,wg-a,,,,AAXX 26214 07481 12784 71604 10090 20030 39857 40146 51006 60006 8253/ 92100=
07481,1996-02-27 00:00:00,6,1015.6,0.7,75,2,50000,7.408,,,120,,,,,,,,,,,wg-a,,,,AAXX 27004 07481 12784 61204 10060 20020 39864 40156 53007 60006 8253/ 90000=
07481,1996-02-27 03:00:00,5,1015.3,-0.4,87,3,35000,3.704,,,110,,,,,,,,,,,wg-a,,,,AAXX 27034 07481 12781 71102 10050 20030 39860 40153 58004 60006 8557/ 90300=
07481,1996-02-27 06:00:00,5,1016.1,0.8,87,3,13000,7.408,,,260,4.5,9.8,,,,,,,,,wg-a,,,,AAXX 27064 07481 02763 72604 10050 20030 39868 40161 53008 60006 8557/ 90600 333 10098 20045 60004=
07481,1996-02-27 09:00:00,6,1017.4,1.3,87,4,8000,11.112,,,290,,,,1,,,,,,61,wg-a,,,,AAXX 27094 07481 12558 82906 10060 20040 39881 40174 50013 60017 76162 8357/ 90900=
07481,1996-02-27 12:00:00,8,1017.9,0.7,81,5,10000,3.704,,,250,,,,,,,,,,2,wg-a,,,,AAXX 27124 07481 02460 82502 10080 20050 39888 40179 51007 60016 70262 8187/ 91200 333 61000=
07481,1996-02-27 15:00:00,9,1017.6,-0.2,76,5,15000,7.408,,,350,,,,,,,,,,,wg-a,,,,AAXX 27154 07481 12565 83504 10090 20050 39886 40176 57002 60006 81172 91500=
07481,1996-02-27 18:00:00,7,1018.9,1.1,87,5,15000,3.704,,,320,4.9,8.6,,,,,,,,60,wg-a,,,,AAXX 27184 07481 02765 83202 10070 20050 39897 40189 53011 61000 76062 8257/ 91800 333 10086 20049 ////=
07481,1996-02-27 21:00:00,6,1019.9,0.8,87,4,20000,3.704,,,290,,,,,,,,,,3,wg-a,,,,AAXX 27214 07481 02670 82902 10060 20040 39905 40199 52008 61000 70362 8557/ 92100 333 ////=
07481,1996-02-28 00:00:00,5,1020.1,0.2,93,4,12000,0,,,0,,,,,,,,,,1,wg-a,,,,AAXX 28004 07481 02762 80000 10050 20040 39907 40201 50002 61000 70162 8457/ 90000 333 ////=
07481,1996-02-28 03:00:00,5,1019.8,-0.4,93,4,4500,0,,,0,,,,,,,,,,10,wg-a,,,,AAXX 28034 07481 12245 80000 10050 20040 39903 40198 58004 60006 71022 8367/ 90300=
07481,1996-02-28 06:00:00,4,1020,0.2,100,4,2000,3.704,,,240,4.2,6.9,,,,,1,,,10,wg-a,,,,AAXX 28064 07481 12220 82402 10040 20040 39905 40200 53002 60014 71022 876// 90600 333 10069 20042=
07481,1996-02-28 09:00:00,6,1020.9,1,93,5,1500,0,,,0,,,,,,,,,,40,wg-a,,,,AAXX 28094 07481 12215 80000 10060 20050 39915 40209 51010 60006 74042 876// 90900=
07481,1996-02-28 12:00:00,7,1020.5,-0.3,87,5,4000,0,,,0,,,,,,,,,,10,wg-a,,,,AAXX 28124 07481 12240 80000 10070 20050 39913 40205 58003 60006 71042 876// 91200=
07481,1996-02-28 15:00:00,10,1019.4,-0.7,71,5,10000,7.408,,,40,,,,,,,,,,,wg-a,,,,AAXX 28154 07481 12560 /0404 10100 20050 39905 40194 58007 60006 81101 91500=
07481,1996-02-28 18:00:00,10,1020.2,0.8,76,6,18000,11.112,,,340,4,11.4,,,,,,,,,wg-a,,,,AAXX 28184 07481 12568 73406 10100 20060 39913 40202 53008 60006 875// 91800 333 10114 20040=
07481,1996-02-28 21:00:00,8,1021.1,0.7,81,5,15000,18.52,,,340,,,,,,,,,,,wg-a,,,,AAXX 28214 07481 12765 23410 10080 20050 39920 40211 53007 60006 82500 92100=
07481,1996-02-29 06:00:00,5,1023,0.9,87,3,500,7.408,,,10,4.7,10.4,,,,,,,,,wg-a,,,,AAXX 29064 07481 02200 80104 10050 20030 39934 40230 52009 60006 886// 90600 333 10104 20047 60004=
07481,1996-02-29 09:00:00,5,1024.4,1.4,81,2,4000,7.408,,,320,,,,,,,,,,10,wg-a,,,,AAXX 29094 07481 12440 83204 10050 20020 39948 40244 52014 60006 71022 886// 90900=
07481,1996-02-29 12:00:00,7,1024.5,0.2,70,2,4500,7.408,,,40,,,,,,,,,,10,wg-a,,,,AAXX 29124 07481 12445 /0404 10070 20020 39951 40245 50002 60006 71011 81100 91200=
07481,1996-02-29 15:00:00,9,1023.5,-0.7,61,2,6000,18.52,,,20,,,,,,,,,,,wg-a,,,,AAXX 29154 07481 12/56 00210 10090 20020 39944 40235 58007 60006 80000 91500=
07481,1996-02-29 18:00:00,7,1025,1.2,70,2,500,11.112,,,350,4.5,9.4,,,,,,,,,wg-a,,,,AAXX 29184 07481 12/00 03506 10070 20020 39956 40250 53012 60006 80000 91800 333 10094 20045=
07481,1996-02-29 21:00:00,4,1025.8,0.4,75,0,8000,3.704,,,360,,,,,,,,,,,wg-a,,,,AAXX 29214 07481 12/58 03602 10040 20000 39960 40258 51004 60006 80000 92100=
07481,1996-03-01 00:00:00,2,1026.1,0.2,80,-1,7000,3.704,,,300,,,,,,,,,,,wg-a,,,,AAXX 01004 07481 12/57 03002 10020 21010 39962 40261 52002 60006 80000 90000=
07481,1996-03-01 03:00:00,1,1025.4,-0.8,80,-2,6000,3.704,,,320,,,,,,,,,,,wg-a,,,,AAXX 01034 07481 12/56 03202 10010 21020 39954 40254 57008 60006 80000 90300=
07481,1996-03-01 06:00:00,-1,1025.7,0.1,93,-2,4500,3.704,,,10,-0.6,7,,,,,,,,10,wg-a,,,,AAXX 01064 07481 02/45 /0102 11010 21020 39955 40257 50001 60006 71000 81031 90600 333 10070 21006 60004=
07481,1996-03-01 09:00:00,5,1025.7,0.5,70,0,7000,29.632,,,350,,,,,,,,,,,wg-a,,,,AAXX 01094 07481 12657 /3516 10050 20000 39960 40257 50005 60006 82530 90900=
07481,1996-03-01 12:00:00,5,1025.6,-0.1,70,0,9000,38.892,,,360,,,,,,,,,,,wg-a,,,,AAXX 01124 07481 12459 73621 10050 20000 39960 40256 58001 60006 875// 91200=
07481,1996-03-01 15:00:00,5,1024.4,-1.1,75,1,12000,31.484,,,340,,,,,,,,,,,wg-a,,,,AAXX 01154 07481 12562 73417 10050 20010 39948 40244 56011 60006 875// 91500=
07481,1996-03-01 18:00:00,4,1023.8,-0.9,65,-2,20000,29.632,,,350,-0.5,5.5,,,,,,,,,wg-a,,,,AAXX 01184 07481 32570 73516 10040 21020 39941 40238 56009 878// 91800 333 10055 21005=
07481,1996-03-01 21:00:00,3,1023.6,-0.3,70,-2,20000,25.928,,,340,,,,,,,,,,,wg-a,,,,AAXX 01214 07481 12/70 73414 10030 21020 39938 40236 55003 60006 84032 92100=
07481,1996-03-02 00:00:00,3,1022.2,-1.4,75,-1,20000,25.928,,,340,,,,,,,,,,,wg-a,,,,AAXX 02004 07481 12670 73414 10030 21010 39924 40222 58014 60006 8253/ 90000=
07481,1996-03-02 03:00:00,0,1020.8,-1.6,86,-2,20000,7.408,,,40,,,,,,,,,,,wg-a,,,,AAXX 02034 07481 12770 70404 10000 21020 39908 40208 57016 60006 8153/ 90300=
07481,1996-03-02 06:00:00,1,1020.3,-0.4,86,-1,12000,11.112,,,350,-0.2,3.9,,,,,,,,,wg-a,,,,AAXX 02064 07481 12362 13506 10010 21010 39904 40203 56004 60006 81100 90600 333 10039 21002=
07481,1996-03-02 09:00:00,3,1020.5,0.4,75,-1,12000,25.928,,,350,,,,,,,,,,,wg-a,,,,AAXX 02094 07481 12462 53514 10030 21010 39908 40205 51004 60006 81142 90900=
07481,1996-03-02 12:00:00,5,1019.9,-0.4,60,-2,25000,29.632,,,340,,,,,,,,,,,wg-a,,,,AAXX 02124 07481 12575 /3416 10050 21020 39905 40199 58004 60006 83200 91200=
07481,1996-03-02 15:00:00,7,1018,-1.7,42,-5,25000,31.484,,,340,,,,,,,,,,,wg-a,,,,AAXX 02154 07481 12575 /3417 10070 21050 39888 40180 56017 60006 81200 91500=
07481,1996-03-02 18:00:00,5,1018.9,0.6,33,-10,500,31.484,,,350,0.5,7.5,,,,,,,,,wg-a,,,,AAXX 02184 07481 12/00 03517 10050 21100 39894 40189 53006 60006 80000 91800 333 10075 20005=
07481,1996-03-02 21:00:00,2,1019.9,0.7,47,-8,25000,11.112,,,350,,,,,,,,,,,wg-a,,,,AAXX 02214 07481 12/75 03506 10020 21080 39900 40199 52007 60006 80000 92100=
07481,1996-03-03 00:00:00,-1,1019.6,-0.6,64,-7,25000,11.112,,,340,,,,,,,,,,,wg-a,,,,AAXX 03004 07481 12/75 13406 11010 21070 39895 40196 56006 60006 80002 90000=
07481,1996-03-03 03:00:00,-2,1019.2,-0.5,74,-6,25000,3.704,,,330,,,,,,,,,,,wg-a,,,,AAXX 03034 07481 12/75 33302 11020 21060 39890 40192 58005 60006 80002 90300=
07481,1996-03-03 06:00:00,-2,1018.7,-0.4,74,-6,12000,7.408,,,20,-2.4,4.6,,,,,,,,,wg-a,,,,AAXX 03064 07481 02/62 70204 11020 21060 39885 40187 55004 60006 81032 90600 333 10046 21024 60004=
07481,1996-03-03 09:00:00,2,1018.8,0.4,60,-5,25000,18.52,,,10,,,,,,,,,,,wg-a,,,,AAXX 03094 07481 12/75 50110 10020 21050 39890 40188 52004 60006 80002 90900=
07481,1996-03-03 12:00:00,5,1017.3,-1,45,-6,500,18.52,,,340,,,,,,,,,,,wg-a,,,,AAXX 03124 07481 12400 43410 10050 21060 39879 40173 58010 60006 82202 91200=
07481,1996-03-03 15:00:00,5,1016.3,-0.9,45,-6,500,25.928,,,340,,,,,,,,,,,wg-a,,,,AAXX 03154 07481 12600 23414 10050 21060 39870 40163 55009 60006 82200 91500=
07481,1996-03-03 18:00:00,3,1017.6,0.9,60,-4,500,18.52,,,340,-2.4,5.9,,,,,,,,,wg-a,,,,AAXX 03184 07481 12600 33410 10030 21040 39879 40176 53009 60006 81201 91800 333 10059 21024=
07481,1996-03-03 21:00:00,0,1018.3,0.5,74,-4,500,18.52,,,340,,,,,,,,,,,wg-a,,,,AAXX 03214 07481 12/00 13410 10000 21040 39884 40183 51005 60006 80001 92100=
07481,1996-03-04 00:00:00,-2,1019,0.4,86,-4,500,7.408,,,340,,,,,,,,,,,wg-a,,,,AAXX 04004 07481 12/00 13404 11020 21040 39888 40190 51004 60006 80001 90000=
07481,1996-03-04 03:00:00,-2,1018.9,-0.1,80,-5,500,11.112,,,340,,,,,,,,,,,wg-a,,,,AAXX 04034 07481 12/00 13406 11020 21050 39887 40189 55001 60006 80001 90300=
07481,1996-03-04 06:00:00,-3,1020.1,1.1,80,-6,8000,11.112,,,340,-3.7,2.3,,,,,,,,,wg-a,,,,AAXX 04064 07481 02/58 03406 11030 21060 39897 40201 53011 60006 80000 90600 333 10023 21037 60004=
07481,1996-03-04 09:00:00,-1,1020.7,0.8,69,-6,10000,14.816,,,360,,,,,,,,,,,wg-a,,,,AAXX 04094 07481 12/60 03608 11010 21060 39906 40207 51008 60006 80000 90900=
07481,1996-03-04 12:00:00,4,1019.6,-0.6,48,-6,15000,18.52,,,340,,,,,,,,,,,wg-a,,,,AAXX 04124 07481 12/65 03410 10040 21060 39901 40196 58006 60006 80000 91200=
07481,1996-03-04 15:00:00,6,1018.9,-0.5,42,-6,20000,25.928,,,350,,,,,,,,,,,wg-a,,,,AAXX 04154 07481 12/70 03514 10060 21060 39895 40189 56005 60006 80000 91500=
07481,1996-03-04 18:00:00,3,1020.3,1.1,48,-7,20000,14.816,,,360,-3.5,5.8,,,,,,,,,wg-a,,,,AAXX 04184 07481 12/70 13608 10030 21070 39906 40203 53011 60006 81040 91800 333 10058 21035=
07481,1996-03-04 21:00:00,0,1022,1.3,59,-7,20000,11.112,,,290,,,,,,,,,,,wg-a,,,,AAXX 04214 07481 12/70 02906 10000 21070 39919 40220 52013 60006 80000 92100=
07481,1996-03-05 00:00:00,-2,1022.9,0.7,74,-6,12000,3.704,,,310,,,,,,,,,,,wg-a,,,,AAXX 05004 07481 12/62 03102 11020 21060 39926 40229 51007 60006 80000 90000=
07481,1996-03-05 03:00:00,-3,1023.5,0.5,80,-6,10000,0,,,0,,,,,,,,,,,wg-a,,,,AAXX 05034 07481 12/60 00000 11030 21060 39931 40235 51005 60006 80000 90300=
07481,1996-03-05 06:00:00,-2,1025.1,1.6,74,-6,8000,3.704,,,170,-3.4,2.9,,,,,,,,,wg-a,,,,AAXX 05064 07481 02/58 /1702 11020 21060 39947 40251 53016 60006 83032 90600 333 10029 21034 60004=
07481,1996-03-05 09:00:00,0,1026.8,1.9,69,-5,7000,0,,,0,,,,,,,,,,,wg-a,,,,AAXX 05094 07481 12657 /0000 10000 21050 39966 40268 51019 60006 8457/ 90900=
07481,1996-03-05 12:00:00,5,1026.1,-0.2,52,-4,10000,7.408,,,340,,,,,,,,,,,wg-a,,,,AAXX 05124 07481 12/60 43404 10050 21040 39964 40261 58002 60006 84030 91200=
07481,1996-03-05 15:00:00,6,1024.8,-1.1,52,-3,10000,11.112,,,360,,,,,,,,,,,wg-a,,,,AAXX 05154 07481 12/60 23606 10060 21030 39953 40248 57011 60006 82031 91500=
07481,1996-03-05 18:00:00,3,1026.1,0.9,70,-2,8000,11.112,,,340,-2.3,6.5,,,,,,,,,wg-a,,,,AAXX 05184 07481 12/58 /3406 10030 21020 39962 40261 53009 60006 81030 91800 333 10065 21023=
07481,1996-03-05 21:00:00,0,1026.4,0.1,86,-2,6000,3.704,,,300,,,,,,,,,,,wg-a,,,,AAXX 05214 07481 12/56 /3002 10000 21020 39963 40264 51001 60006 81030 92100=
07481,1996-03-06 00:00:00,-1,1026.3,-0.3,86,-3,500,0,,,0,,,,,,,,,,,wg-a,,,,AAXX 06004 07481 12/00 00000 11010 21030 39960 40263 58003 60006 80000 90000=
07481,1996-03-06 03:00:00,-2,1025.9,-0.5,86,-4,3500,0,,,0,,,,,,,,,,10,wg-a,,,,AAXX 06034 07481 12/35 00000 11020 21040 39955 40259 58005 60006 71000 80000 90300=
07481,1996-03-06 06:00:00,-3,1025.2,-0.8,93,-4,900,0,,,0,-3.7,2.9,,,,,,,,10,wg-a,,,,AAXX 06064 07481 02/09 00000 11030 21040 39947 40252 56008 60006 71040 80000 90600 333 10029 21037 60004=
07481,1996-03-06 09:00:00,0,1024.6,-0.2,86,-2,3000,7.408,,,30,,,,,,,,,,10,wg-a,,,,AAXX 06094 07481 12330 10304 10000 21020 39945 40246 56002 60006 71040 81100 90900=
07481,1996-03-06 12:00:00,5,1022.3,-1.7,65,-1,7000,7.408,,,60,,,,,,,,,,1,wg-a,,,,AAXX 06124 07481 12457 /0604 10050 21010 39928 40223 58017 60006 70140 81100 91200=
07481,1996-03-06 15:00:00,7,1020.1,-2,61,0,8000,18.52,,,340,,,,,,,,,,,wg-a,,,,AAXX 06154 07481 12558 /3410 10070 20000 39908 40201 56020 60006 85800 91500=
07481,1996-03-06 18:00:00,4,1020.1,-0.2,75,0,9000,14.816,,,340,-3.5,7.7,,,,,,,,,wg-a,,,,AAXX 06184 07481 12759 33408 10040 20000 39906 40201 56002 60006 83500 91800 333 10077 21035=
07481,1996-03-06 21:00:00,2,1020,-0.4,80,-1,10000,11.112,,,320,,,,,,,,,,,wg-a,,,,AAXX 06214 07481 12760 23206 10020 21010 39902 40200 58004 60006 82500 92100=
07481,1996-03-07 00:00:00,2,1019,-0.9,87,0,7000,11.112,,,350,,,,,,,,,,,wg-a,,,,AAXX 07004 07481 12457 73506 10020 20000 39893 40190 56009 60006 875// 90000=
07481,1996-03-07 06:00:00,2,1015.1,-1.4,80,-1,500,7.408,,,340,0.7,4.2,,,,,,,,,wg-a,,,,AAXX 07064 07481 02400 83404 10020 21010 39854 40151 56014 60006 885// 90600 333 10042 20007 60004=
07481,1996-03-07 09:00:00,2,1013.9,-1.1,80,-1,500,0,,,0,,,,,,,,,,,wg-a,,,,AAXX 07094 07481 12400 80000 10020 21010 39843 40139 56011 60006 885// 90900=
07481,1996-03-07 12:00:00,4,1013.5,-0.2,70,-1,7000,3.704,,,180,,,,,,,,,,,wg-a,,,,AAXX 07124 07481 12457 81802 10040 21010 39841 40135 58002 60006 885// 91200=
07481,1996-03-07 15:00:00,6,1012.7,-0.7,61,-1,8000,7.408,,,80,,,,,,,,,,,wg-a,,,,AAXX 07154 07481 12/58 /0804 10060 21010 39835 40127 55007 60006 91500=
07481,1996-03-07 18:00:00,5,1014.2,1.5,70,0,7000,7.408,,,70,1.6,5.8,,,,,,,,,wg-a,,,,AAXX 07184 07481 12557 70704 10050 20000 39849 40142 53015 60006 84502 91800 333 10058 20016=
07481,1996-03-07 21:00:00,5,1016.1,1.8,70,0,10000,7.408,,,150,,,,,,,,,,,wg-a,,,,AAXX 07214 07481 12660 71504 10050 20000 39867 40161 51018 60006 8753/ 92100=
07481,1996-03-08 00:00:00,3,1017.7,1.4,75,-1,9000,3.704,,,100,,,,,,,,,,,wg-a,,,,AAXX 08004 07481 12659 71002 10030 21010 39881 40177 51014 60006 83532 90000=
07481,1996-03-08 03:00:00,2,1018.2,0.4,80,-1,9000,7.408,,,100,,,,,,,,,,,wg-a,,,,AAXX 08034 07481 12759 71004 10020 21010 39885 40182 50004 60006 81532 90300=
07481,1996-03-08 06:00:00,1,1019.2,0.8,80,-2,4500,7.408,,,150,-0.2,5.4,,,,,,,,10,wg-a,,,,AAXX 08064 07481 02845 /1504 10010 21020 39893 40192 53008 60006 71011 81032 90600 333 10054 21002 60004=
07481,1996-03-08 09:00:00,6,1019.9,1.2,65,0,500,3.704,,,250,,,,,,,,,,,wg-a,,,,AAXX 08094 07481 12800 42502 10060 20000 39905 40199 51012 60006 81032 90900=
07481,1996-03-08 12:00:00,12,1018.4,-0.7,35,-3,10000,11.112,,,140,,,,,,,,,,,wg-a,,,,AAXX 08124 07481 12/60 31406 10120 21030 39897 40184 58007 60006 80002 91200=
07481,1996-03-08 15:00:00,15,1017.1,-1,31,-2,12000,0,,,0,,,,,,,,,,,wg-a,,,,AAXX 08154 07481 12/62 10000 10150 21020 39887 40171 56010 60006 80001 91500=
07481,1996-03-08 18:00:00,11,1017.9,0.4,35,-4,15000,7.408,,,180,0.9,15,,,,,,,,,wg-a,,,,AAXX 08184 07481 12/65 21804 10110 21040 39891 40179 53004 60006 80001 91800 333 10150 20009=
07481,1996-03-08 21:00:00,9,1019.1,0.9,43,-3,15000,11.112,,,180,,,,,,,,,,,wg-a,,,,AAXX 08214 07481 12/65 01806 10090 21030 39900 40191 53009 60006 80000 92100=
07481,1996-03-09 03:00:00,6,1020.6,0.2,70,1,15000,14.816,,,160,,,,,,,,,,,wg-a,,,,AAXX 09034 07481 12/65 21608 10060 20010 39912 40206 50002 60006 82030 90300=
07481,1996-03-09 06:00:00,5,1021,0.3,75,1,12000,7.408,,,150,5.2,10.8,,,,,,,,,wg-a,,,,AAXX 09064 07481 02/62 71504 10050 20010 39915 40210 51003 60006 8707/ 90600 333 10108 20052 60004=
07481,1996-03-09 09:00:00,8,1021.1,0.6,57,0,10000,11.112,,,150,,,,,,,,,,,wg-a,,,,AAXX 09094 07481 12/60 71506 10080 20000 39920 40211 51006 60006 8703/ 90900=
07481,1996-03-09 12:00:00,12,1019.4,-1.4,40,-1,18000,11.112,,,160,,,,,,,,,,,wg-a,,,,AAXX 09124 07481 12/68 51606 10120 21010 39907 40194 58014 60006 85030 91200=
07481,1996-03-09 15:00:00,14,1017.5,-1.7,38,0,25000,3.704,,,90,,,,,,,,,,,wg-a,,,,AAXX 09154 07481 12/75 20902 10140 20000 39890 40175 56017 60006 81031 91500=
07481,1996-03-09 21:00:00,8,1019,0.6,57,0,20000,3.704,,,120,,,,,,,,,,,wg-a,,,,AAXX 09214 07481 12/70 41202 10080 20000 39899 40190 51006 60006 84030 92100=
07481,1996-03-10 00:00:00,6,1019.2,0,65,0,15000,7.408,,,150,,,,,,,,,,,wg-a,,,,AAXX 10004 07481 12/65 71504 10060 20000 39899 40192 50000 60006 8703/ 90000=
07481,1996-03-10 03:00:00,3,1019.1,-0.5,81,0,15000,3.704,,,20,,,,,,,,,,,wg-a,,,,AAXX 10034 07481 12/65 70202 10030 20000 39895 40191 58005 60006 8703/ 90300=
07481,1996-03-10 06:00:00,1,1020,0.6,80,-2,500,7.408,,,350,1.1,11.2,,,,,,,,,wg-a,,,,AAXX 10064 07481 02/00 /3504 10010 21020 39901 40200 53006 60006 81030 90600 333 10112 20011 60004=
07481,1996-03-10 09:00:00,3,1019.7,0,75,-1,4000,7.408,,,340,,,,,,,,,,10,wg-a,,,,AAXX 10094 07481 12/40 03404 10030 21010 39901 40197 50000 60006 71000 80000 90900=
07481,1996-03-10 12:00:00,9,1017.5,-1.6,49,-1,8000,11.112,,,340,,,,,,,,,,,wg-a,,,,AAXX 10124 07481 12/58 03406 10090 21010 39885 40175 57016 60006 80000 91200=
07481,1996-03-10 15:00:00,11,1015.8,-1.4,40,-2,9000,22.224,,,10,,,,,,,,,,,wg-a,,,,AAXX 10154 07481 12/59 00112 10110 21020 39870 40158 56014 60006 80000 91500=
07481,1996-03-10 18:00:00,8,1016.5,0.4,49,-2,9000,18.52,,,340,0.5,11.1,,,,,,,,,wg-a,,,,AAXX 10184 07481 12/59 03410 10080 21020 39874 40165 53004 60006 80000 91800 333 10111 20005=
07481,1996-03-10 21:00:00,4,1017.1,0.3,65,-2,9000,11.112,,,330,,,,,,,,,,,wg-a,,,,AAXX 10214 07481 12/59 03306 10040 21020 39876 40171 53003 60006 80000 92100=
07481,1996-03-11 03:00:00,-1,1017.4,-0.3,80,-4,7000,3.704,,,310,,,,,,,,,,,wg-a,,,,AAXX 11034 07481 12/57 03102 11010 21040 39874 40174 56003 60006 80000 90300=
07481,1996-03-11 06:00:00,-2,1017.6,-0,86,-4,6000,0,,,0,-2.4,7.6,,,,,,,,,wg-a,,,,AAXX 11064 07481 02/56 00000 11020 21040 39874 40176 55000 60006 80000 90600 333 10076 21024 60004=
07481,1996-03-11 09:00:00,2,1018,0.8,60,-5,8000,11.112,,,330,,,,,,,,,,,wg-a,,,,AAXX 11094 07481 12/58 /3306 10020 21050 39882 40180 51008 60006 90900=
07481,1996-03-11 12:00:00,6,1017,-0.6,45,-5,10000,14.816,,,350,,,,,,,,,,,wg-a,,,,AAXX 11124 07481 12/60 /3508 10060 21050 39877 40170 58006 60006 91200=
07481,1996-03-11 21:00:00,3,1014.6,0,52,-6,15000,3.704,,,260,,,,,,,,,,,wg-a,,,,AAXX 11214 07481 12/65 12602 10030 21060 39850 40146 50000 60006 80001 92100=
07481,1996-03-12 00:00:00,2,1013.6,-1.1,55,-6,15000,11.112,,,230,,,,,,,,,,,wg-a,,,,AAXX 12004 07481 12/65 12306 10020 21060 39839 40136 58011 60006 80001 90000=
07481,1996-03-12 03:00:00,-1,1012.1,-1.7,69,-6,12000,0,,,0,,,,,,,,,,,wg-a,,,,AAXX 12034 07481 12/62 20000 11010 21060 39822 40121 57017 60006 80001 90300=
07481,1996-03-12 06:00:00,-1,1010.9,-1.1,74,-5,10000,3.704,,,10,-1.3,5.3,,,,,,,,,wg-a,,,,AAXX 12064 07481 02/60 50102 11010 21050 39811 40109 56011 60006 85031 90600 333 10053 21013 60004=
07481,1996-03-12 09:00:00,0,1010.5,-0.3,69,-5,7000,11.112,,,360,,,,,,,,,,,wg-a,,,,AAXX 12094 07481 12/57 33606 10000 21050 39808 40105 55003 60006 82031 90900=
07481,1996-03-12 12:00:00,5,1008.6,-1.4,48,-5,8000,18.52,,,10,,,,,,,,,,,wg-a,,,,AAXX 12124 07481 12/58 20110 10050 21050 39794 40086 57014 60006 80001 91200=
07481,1996-03-12 15:00:00,6,1006.3,-2.1,42,-6,9000,18.52,,,350,,,,,,,,,,,wg-a,,,,AAXX 12154 07481 12/59 23510 10060 21060 39773 40063 56021 60006 80001 91500=
07481,1996-03-12 18:00:00,3,1006.2,-0.4,44,-8,8000,11.112,,,350,-1.1,6.3,,,,,,,,,wg-a,,,,AAXX 12184 07481 12/58 23506 10030 21080 39769 40062 58004 60006 82030 91800 333 10063 21011=
07481,1996-03-12 21:00:00,2,1006.4,0.1,44,-9,10000,11.112,,,350,,,,,,,,,,,wg-a,,,,AAXX 12214 07481 12/60 /3506 10020 21090 39770 40064 51001 60006 92100=
07481,1996-03-13 00:00:00,0,1006.5,-0.1,47,-10,500,7.408,,,350,,,,,,,,,,,wg-a,,,,AAXX 13004 07481 12/00 73504 10000 21100 39769 40065 58001 60006 87030 90000=
07481,1996-03-13 03:00:00,-1,1006.2,-0.4,59,-8,18000,7.408,,,360,,,,,,,,,,,wg-a,,,,AAXX 13034 07481 12/68 73604 11010 21080 39765 40062 56004 60006 8703/ 90300=
07481,1996-03-13 06:00:00,-2,1006.2,-0.1,63,-8,8000,7.408,,,30,-2.1,3.1,,,,,,,,,wg-a,,,,AAXX 13064 07481 02/58 50304 11020 21080 39764 40062 56001 60006 82032 90600 333 10031 21021 60004=
07481,1996-03-13 09:00:00,1,1005.2,-0.6,51,-8,10000,3.704,,,360,,,,,,,,,,,wg-a,,,,AAXX 13094 07481 12/60 53602 10010 21080 39758 40052 58006 60006 81032 90900=
07481,1996-03-13 12:00:00,9,1003.1,-1.3,37,-5,10000,11.112,,,100,,,,,,,,,,,wg-a,,,,AAXX 13124 07481 12/60 41006 10090 21050 39745 40031 58013 60006 80002 91200=
07481,1996-03-13 15:00:00,14,1000.3,-2.2,41,1,10000,18.52,,,210,,,,,,,,,,,wg-a,,,,AAXX 13154 07481 12/60 32110 10140 20010 39723 40003 56022 60006 80002 91500=
07481,1996-03-13 18:00:00,12,1001.5,0.9,47,1,15000,14.816,,,210,-2.3,14.4,,,,,,,,,wg-a,,,,AAXX 13184 07481 12/65 42108 10120 20010 39732 40015 53009 60006 81032 91800 333 10144 21023=
07481,1996-03-13 21:00:00,8,1003.6,1.8,66,2,20000,14.816,,,160,,,,,,,,,,,wg-a,,,,AAXX 13214 07481 12/70 21608 10080 20020 39750 40036 51018 60006 81032 92100=
07481,1996-03-14 00:00:00,6,1004.6,0.7,56,-2,10000,14.816,,,150,,,,,,,,,,,wg-a,,,,AAXX 14004 07481 12/60 81508 10060 21020 39757 40046 51007 60006 8707/ 90000=
07481,1996-03-14 03:00:00,5,1004.3,-0.4,56,-3,10000,18.52,,,130,,,,,,,,,,,wg-a,,,,AAXX 14034 07481 12660 71310 10050 21030 39753 40043 58004 60006 875// 90300=
07481,1996-03-14 06:00:00,5,1004.6,0.3,65,-1,6000,18.52,,,160,4.9,11.6,,,,,,,,21,wg-a,,,,AAXX 14064 07481 02656 81610 10050 21010 39756 40046 52003 61000 72162 8557/ 90600 333 10116 20049 6100=
07481,1996-03-14 09:00:00,7,1004.6,0.2,49,-3,0,14.816,,,150,,,,,,,,,,,wg-a,,,,AAXX 14094 07481 126// 71508 10070 21030 39758 40046 53002 60006 8557/ 90900=
07481,1996-03-14 12:00:00,5,1005.9,0.9,87,3,2000,11.112,,,140,,,,5,,,,,,10,wg-a,,,,AAXX 14124 07481 02520 81406 10050 20030 39768 40059 51009 60056 71062 8557/ 91200 333 60057=
07481,1996-03-14 15:00:00,5,1005.7,-0.1,93,4,2000,7.408,,,100,,,,,,,,,,10,wg-a,,,,AAXX 14154 07481 32/20 /1004 10050 20040 39766 40057 58001 710// 91500=
07481,1996-03-14 18:00:00,5,1006.3,0.6,93,4,1600,3.704,,,60,4.3,7.3,,3,,,,,,10,wg-a,,,,AAXX 14184 07481 12216 80602 10050 20040 39772 40063 53006 60037 71066 8557/ 91800 333 10073 20043=
07481,1996-03-14 21:00:00,5,1007.2,0.9,93,4,1200,3.704,,,300,,,,1,,,,,,10,wg-a,,,,AAXX 14214 07481 12112 83002 10050 20040 39781 40072 52009 60017 71066 8557/ 92100=
07481,1996-03-15 00:00:00,5,1007,-0.2,93,4,900,0,,,0,,,,2,,,,,,44,wg-a,,,,AAXX 15004 07481 02109 80000 10050 20040 39779 40070 57002 60036 74466 8652/ 90000 333 60027=
07481,1996-03-15 03:00:00,5,1006.2,-0.8,93,4,900,3.704,,,110,,,,4,,,,,,44,wg-a,,,,AAXX 15034 07481 12109 81102 10050 20040 39771 40062 58008 60047 74466 8652/ 90300=
07481,1996-03-15 06:00:00,5,1005.9,-0.3,93,4,1500,3.704,,,120,4.6,4.9,,1,,,20,,,10,wg-a,,,,AAXX 15064 07481 02415 81202 10050 20040 39768 40059 55003 60204 71066 8652/ 90600 333 10049 20046 60017=
07481,1996-03-15 09:00:00,6,1005.9,,93,5,2500,3.704,,,30,,,,0,,,,,,10,wg-a,,,,AAXX 15094 07481 12325 80302 10060 20050 39770 40059 60007 71062 885// 90900=
07481,1996-03-15 12:00:00,8,1005.3,-0.4,87,6,4000,3.704,,,330,,,,,,,,,,10,wg-a,,,,AAXX 15124 07481 12340 83302 10080 20060 39766 40053 58004 60006 71062 885// 91200=
07481,1996-03-15 15:00:00,9,1004.1,-1.2,87,7,500,11.112,,,300,,,,,,,,,,,wg-a,,,,AAXX 15154 07481 12300 83006 10090 20070 39755 40041 56012 60006 875// 91500=
07481,1996-03-15 18:00:00,8,1004.3,0.3,87,6,500,7.408,,,320,4.6,8.9,,,,,,,,,wg-a,,,,AAXX 15184 07481 32400 83204 10080 20060 39757 40043 53003 875// 91800 333 10089 20046=
07481,1996-03-15 21:00:00,7,1004.8,0.3,93,6,6000,7.408,,,330,,,,,,,,,,40,wg-a,,,,AAXX 15214 07481 12456 /3304 10070 20060 39760 40048 50003 60006 74022 85500 92100=
07481,1996-03-16 00:00:00,5,1005.3,0.2,93,4,900,0,,,0,,,,,,,,,,40,wg-a,,,,AAXX 16004 07481 12/09 90000 10050 20040 39762 40053 52002 60006 74041 89/// 90000=
07481,1996-03-16 03:00:00,4,1005.3,0,100,4,2500,3.704,,,240,,,,,,,,,,40,wg-a,,,,AAXX 16034 07481 12425 /2402 10040 20040 39762 40053 50000 60006 74041 83500 90300=
07481,1996-03-16 06:00:00,5,1006.2,1,93,4,1500,3.704,,,120,3,8.3,,,,,,,,10,wg-a,,,,AAXX 16064 07481 02315 81202 10050 20040 39772 40062 53010 60006 71041 875// 90600 333 10083 20030 60004=
07481,1996-03-16 09:00:00,6,1007.6,1.4,93,5,1100,0,,,0,,,,,,,,,,28,wg-a,,,,AAXX 16094 07481 12111 80000 10060 20050 39786 40076 53014 60006 72842 875// 90900=
07481,1996-03-16 12:00:00,7,1008.6,1.1,93,6,2500,14.816,,,330,,,,0,,,,,,28,wg-a,,,,AAXX 16124 07481 02125 83308 10070 20060 39797 40086 53011 60016 72854 886// 91200 333 60007=
07481,1996-03-16 15:00:00,8,1009.4,0.8,81,5,12000,14.816,,,330,,,,,,,,,,,wg-a,,,,AAXX 16154 07481 12562 83308 10080 20050 39805 40094 53008 60006 875// 91500=
07481,1996-03-16 18:00:00,7,1011.7,2.2,87,5,10000,7.408,,,350,5,7.7,,0,,,,,,60,wg-a,,,,AAXX 16184 07481 12560 83504 10070 20050 39827 40117 52022 60007 76062 875// 91800 333 10077 20050=
07481,1996-03-16 21:00:00,6,1013.3,1.5,93,5,10000,3.704,,,340,,,,1,,,,,,60,wg-a,,,,AAXX 16214 07481 12460 83402 10060 20050 39842 40133 51015 60017 76066 875// 92100=
07481,1996-03-17 00:00:00,6,1014.2,0.8,87,4,12000,7.408,,,340,,,,1,,,,,,60,wg-a,,,,AAXX 17004 07481 02462 83404 10060 20040 39850 40142 53008 60016 76066 875// 90000 333 60017=
07481,1996-03-17 03:00:00,6,1014.4,0.2,87,4,20000,7.408,,,320,,,,,,,,,,3,wg-a,,,,AAXX 17034 07481 02470 83204 10060 20040 39852 40144 51002 61000 70362 885// 90300 333 ////=
07481,1996-03-17 06:00:00,5,1015.1,0.6,93,4,12000,11.112,,,350,5.4,6.6,,0,,,2,,,61,wg-a,,,,AAXX 17064 07481 02462 83506 10050 20040 39858 40151 53006 60024 76162 885// 90600 333 10066 20054 60007=
07481,1996-03-17 09:00:00,6,1016,1,93,5,11000,11.112,,,350,,,,1,,,,,,61,wg-a,,,,AAXX 17094 07481 12261 83506 10060 20050 39868 40160 53010 60017 76166 867// 90900=
07481,1996-03-17 12:00:00,7,1016.2,0.2,87,5,7000,18.52,,,340,,,,3,,,,,,61,wg-a,,,,AAXX 17124 07481 02357 83410 10070 20050 39870 40162 50002 60046 76166 877// 91200 333 60037=
07481,1996-03-17 15:00:00,7,1015.9,-0.2,87,5,3500,18.52,,,340,,,,1,,,,,,10,wg-a,,,,AAXX 17154 07481 12435 83410 10070 20050 39868 40159 56002 60017 71066 887// 91500=
07481,1996-03-17 18:00:00,6,1016.6,0.6,93,5,6000,18.52,,,340,5.4,7,,1,,,,,,60,wg-a,,,,AAXX 17184 07481 12456 83410 10060 20050 39874 40166 53006 60017 76062 885// 91800 333 10070 20054=
07481,1996-03-17 21:00:00,6,1017.2,0.4,87,4,10000,18.52,,,330,,,,0,,,,,,61,wg-a,,,,AAXX 17214 07481 12460 83310 10060 20040 39879 40172 51004 60007 76166 875// 92100=
07481,1996-03-18 00:00:00,6,1017.4,0.2,87,4,12000,11.112,,,330,,,,,,,,,,60,wg-a,,,,AAXX 18004 07481 02462 83306 10060 20040 39881 40174 52002 60016 76062 875// 90000 333 61000=
07481,1996-03-18 03:00:00,5,1016.8,-0.6,93,4,7000,3.704,,,320,,,,0,,,,,,50,wg-a,,,,AAXX 18034 07481 12157 83202 10050 20040 39875 40168 58006 60007 75065 8657/ 90300=
07481,1996-03-18 06:00:00,5,1017.3,0.4,93,4,3500,7.408,,,320,4.8,6.2,,,,,6,,,10,wg-a,,,,AAXX 18064 07481 02135 83204 10050 20040 39879 40173 53004 60064 71065 8457/ 90600 333 10062 20048 61000=
07481,1996-03-18 09:00:00,6,1017.8,0.7,87,4,4500,14.816,,,340,,,,,,,,,,,wg-a,,,,AAXX 18094 07481 12/45 /3408 10060 20040 39886 40178 53007 60006 90900=
07481,1996-03-18 12:00:00,7,1017.6,-0.2,76,3,500,18.52,,,340,,,,,,,,,,,wg-a,,,,AAXX 18124 07481 12700 83410 10070 20030 39884 40176 58002 60006 8457/ 91200=
07481,1996-03-18 15:00:00,8,1016.7,-0.8,76,4,500,14.816,,,360,,,,,,,,,,60,wg-a,,,,AAXX 18154 07481 02500 83608 10080 20040 39876 40167 56008 61000 76062 8457/ 91500 333 ////=
07481,1996-03-18 18:00:00,7,1017.1,0.4,81,4,500,7.408,,,310,4.8,7.7,,,,,,,,2,wg-a,,,,AAXX 18184 07481 02500 83104 10070 20040 39880 40171 53004 61000 70262 8257/ 91800 333 10077 20048 ////=
07481,1996-03-19 00:00:00,6,1017.1,-0.2,87,4,7000,0,,,0,,,,,,,,,,21,wg-a,,,,AAXX 19004 07481 02557 80000 10060 20040 39879 40171 55002 61000 72162 8557/ 90000 333 6100=
07481,1996-03-19 03:00:00,5,1016.3,-0.9,93,4,7000,3.704,,,130,,,,,,,,,,,wg-a,,,,AAXX 19034 07481 12657 71302 10050 20040 39870 40163 58009 60006 8357/ 90300=
07481,1996-03-19 06:00:00,5,1015.6,-0.7,93,4,4000,3.704,,,320,4.9,7.3,,,,,,,,10,wg-a,,,,AAXX 19064 07481 02640 83202 10050 20040 39863 40156 56007 61000 71022 8357/ 90600 333 10073 20049 ////=
07481,1996-03-19 09:00:00,7,1015.5,0.1,81,4,4500,3.704,,,30,,,,,,,,,,10,wg-a,,,,AAXX 19094 07481 12745 70302 10070 20040 39864 40155 50001 60006 71022 83502 90900=
07481,1996-03-19 12:00:00,11,1013.8,-1.3,62,4,500,0,,,0,,,,,,,,,,,wg-a,,,,AAXX 19124 07481 12500 70000 10110 20040 39851 40138 58013 60006 83502 91200=
07481,1996-03-19 18:00:00,10,1011,-0.7,62,3,6000,3.704,,,90,4.9,12.9,,,,,,,,,wg-a,,,,AAXX 19184 07481 12/56 70902 10100 20030 39823 40110 56007 60006 80002 91800 333 10129 20049=
07481,1996-03-19 21:00:00,7,1011.2,0,81,4,7000,11.112,,,150,,,,,,,,,,,wg-a,,,,AAXX 19214 07481 12/57 21506 10070 20040 39823 40112 50000 60006 80001 92100=
07481,1996-03-20 00:00:00,5,1011.3,-0.2,87,3,6000,0,,,0,,,,,,,,,,,wg-a,,,,AAXX 20004 07481 12/56 00000 10050 20030 39821 40113 55002 60006 80000 90000=
07481,1996-03-20 03:00:00,5,1010.5,-0.8,81,2,8000,14.816,,,140,,,,,,,,,,,wg-a,,,,AAXX 20034 07481 12/58 01408 10050 20020 39813 40105 57008 60006 80000 90300=
07481,1996-03-20 06:00:00,5,1010.3,-0.1,81,2,9000,18.52,,,140,4.5,9.8,,,,,,,,,wg-a,,,,AAXX 20064 07481 02/59 /1410 10050 20020 39812 40103 55001 60006 81031 90600 333 10098 20045 60004=
07481,1996-03-20 09:00:00,11,1010.6,0.8,58,3,15000,18.52,,,180,,,,,,,,,,,wg-a,,,,AAXX 20094 07481 12/65 61810 10110 20030 39820 40106 52008 60006 86030 90900=
07481,1996-03-20 12:00:00,12,1010.8,0.4,62,5,25000,31.484,,,210,,,,,,,,,,,wg-a,,,,AAXX 20124 07481 12675 72117 10120 20050 39824 40108 51004 60006 8387/ 91200=
07481,1996-03-20 15:00:00,11,1010.9,-0,66,5,15000,18.52,,,180,,,,,,,,,,60,wg-a,,,,AAXX 20154 07481 02765 81810 10110 20050 39823 40109 54000 61000 76062 8457/ 91500 333 ////=
07481,1996-03-20 18:00:00,10,1012.1,1.1,76,6,25000,7.408,,,230,5.2,12.7,,,,,,,,21,wg-a,,,,AAXX 20184 07481 02575 82304 10100 20060 39834 40121 53011 61000 72162 875// 91800 333 10127 20052 ////=
07481,1996-03-20 21:00:00,8,1013.1,0.8,81,5,500,7.408,,,160,,,,,,,,,,,wg-a,,,,AAXX 20214 07481 12/00 21604 10080 20050 39842 40131 51008 60006 8203/ 92100=
07481,1996-03-21 00:00:00,6,1013.8,0.4,87,4,500,7.408,,,120,,,,,,,,,,,wg-a,,,,AAXX 21004 07481 12/00 11204 10060 20040 39846 40138 51004 60006 81030 90000=
07481,1996-03-21 03:00:00,5,1013.4,-0.5,93,4,15000,7.408,,,150,,,,,,,,,,,wg-a,,,,AAXX 21034 07481 12/65 01504 10050 20040 39841 40134 56005 60006 80000 90300=
07481,1996-03-21 06:00:00,4,1013.8,0.3,87,2,7000,0,,,0,3.6,10.4,,,,,,,,,wg-a,,,,AAXX 21064 07481 02/57 40000 10040 20020 39844 40138 53003 60006 81031 90600 333 10104 20036 61000=
07481,1996-03-21 09:00:00,11,1013.4,0.4,71,6,12000,7.408,,,180,,,,,,,,,,,wg-a,,,,AAXX 21094 07481 12562 71804 10110 20060 39848 40134 53004 60006 81132 90900=
07481,1996-03-21 12:00:00,15,1013,0,55,6,20000,22.224,,,190,,,,,,,,,,,wg-a,,,,AAXX 21124 07481 12570 81912 10150 20060 39848 40130 50000 60006 8283/ 91200=
07481,1996-03-21 15:00:00,15,1013,-0,51,5,25000,22.224,,,200,,,,,,,,,,,wg-a,,,,AAXX 21154 07481 12675 82012 10150 20050 39848 40130 55000 60006 84832 91500=
07481,1996-03-21 18:00:00,13,1013.8,0.6,62,6,20000,14.816,,,190,3.6,15.8,,,,,,,,,wg-a,,,,AAXX 21184 07481 12770 81908 10130 20060 39854 40138 53006 60006 82532 91800 333 10158 20036=
07481,1996-03-21 21:00:00,13,1014.9,1,67,7,15000,14.816,,,200,,,,,,,,,,,wg-a,,,,AAXX 21214 07481 12765 72008 10130 20070 39864 40149 51010 60006 8353/ 92100=
07481,1996-03-22 00:00:00,11,1016.4,1.3,82,8,10000,7.408,,,150,,,,,,,,,,21,wg-a,,,,AAXX 22004 07481 02760 81504 10110 20080 39877 40164 53013 61000 72162 8357/ 90000 333 6100=
07481,1996-03-22 03:00:00,9,1017,0.4,93,8,13000,7.408,,,80,,,,0,,,,,,21,wg-a,,,,AAXX 22034 07481 12763 80804 10090 20080 39881 40170 50004 60007 72162 8557/ 90300=
07481,1996-03-22 06:00:00,9,1017.9,0.9,93,8,3000,7.408,,,120,8.7,13.3,,1,,,1,,,61,wg-a,,,,AAXX 22064 07481 02630 81204 10090 20080 39890 40179 51009 60014 76162 885// 90600 333 10133 20087 60017=
07481,1996-03-22 09:00:00,11,1018.4,0.6,87,9,8000,7.408,,,140,,,,0,,,,,,3,wg-a,,,,AAXX 22094 07481 12758 81404 10110 20090 39896 40184 51006 60007 70362 8657/ 90900=
07481,1996-03-22 12:00:00,14,1018.1,0,72,9,15000,7.408,,,100,,,,,,,,,,3,wg-a,,,,AAXX 22124 07481 12765 71004 10140 20090 39896 40181 50000 60006 70362 84530 91200=
07481,1996-03-22 15:00:00,17,1017.2,-0.6,55,8,500,11.112,,,80,,,,,,,,,,,wg-a,,,,AAXX 22154 07481 12600 /0806 10170 20080 39890 40172 58006 60006 81142 91500=
07481,1996-03-22 18:00:00,14,1017.4,-0.1,67,8,40000,11.112,,,110,9,17.3,,,,,,,,,wg-a,,,,AAXX 22184 07481 32/82 51106 10140 20080 39889 40174 56001 81061 91800 333 10173 20090=
07481,1996-03-22 21:00:00,11,1018.2,0.6,82,8,25000,14.816,,,140,,,,,,,,,,,wg-a,,,,AAXX 22214 07481 12/75 11408 10110 20080 39895 40182 51006 60006 80001 92100=
07481,1996-03-23 00:00:00,9,1018.7,0.3,87,7,20000,11.112,,,190,,,,,,,,,,,wg-a,,,,AAXX 23004 07481 12/70 01906 10090 20070 39898 40187 53003 60006 80000 90000=
07481,1996-03-23 03:00:00,8,1018,-0.8,87,6,18000,11.112,,,170,,,,,,,,,,,wg-a,,,,AAXX 23034 07481 12/68 01706 10080 20060 39890 40180 58008 60006 80000 90300=
07481,1996-03-23 06:00:00,6,1019,0.7,87,4,15000,3.704,,,160,5.7,13.5,,,,,,,,,wg-a,,,,AAXX 23064 07481 02/65 11602 10060 20040 39897 40190 53007 60006 80001 90600 333 10135 20057 60004=
07481,1996-03-23 09:00:00,13,1018.8,0.5,62,6,20000,3.704,,,180,,,,,,,,,,,wg-a,,,,AAXX 23094 07481 12/70 01802 10130 20060 39902 40188 50005 60006 80000 90900=
07481,1996-03-23 12:00:00,20,1016.7,-1.3,46,8,25000,7.408,,,130,,,,,,,,,,,wg-a,,,,AAXX 23124 07481 12/75 11304 10200 20080 39889 40167 56013 60006 80001 91200=
07481,1996-03-23 15:00:00,23,1014.7,-1.6,31,5,500,7.408,,,140,,,,,,,,,,,wg-a,,,,AAXX 23154 07481 12/00 11404 10230 20050 39872 40147 56016 60006 80001 91500=
07481,1996-03-23 18:00:00,19,1015.2,0.1,46,7,500,14.816,,,210,5.9,23.2,,,,,,,,,wg-a,,,,AAXX 23184 07481 12/00 52108 10190 20070 39873 40152 53001 60006 80002 91800 333 10232 20059=
07481,1996-03-23 21:00:00,13,1017.4,1.5,72,8,500,29.632,,,200,,,,,,,,,,,wg-a,,,,AAXX 23214 07481 12/00 32016 10130 20080 39889 40174 52015 60006 80001 92100=
07481,1996-03-24 00:00:00,12,1019,1.4,76,8,500,25.928,,,180,,,,,,,,,,,wg-a,,,,AAXX 24004 07481 12/00 61814 10120 20080 39903 40190 52014 60006 80005 90000=
07481,1996-03-24 03:00:00,11,1019,-0.1,76,7,25000,25.928,,,160,,,,,,,,,,,wg-a,,,,AAXX 24034 07481 12/75 41614 10110 20070 39902 40190 57001 60006 80002 90300=
07481,1996-03-24 06:00:00,11,1019.7,0.6,76,7,11000,22.224,,42.596,190,10.3,18.7,,,,,,,,,wg-a,,,,AAXX 24064 07481 02361 21912 10110 20070 39909 40197 53006 60006 81102 90600 333 10187 20103 60004 91023=
07481,1996-03-24 09:00:00,15,1019.8,0.5,59,7,13000,22.224,,,190,,,,,,,,,,,wg-a,,,,AAXX 24094 07481 12/63 21912 10150 20070 39914 40198 52005 60006 80002 90900=
07481,1996-03-24 12:00:00,18,1019.3,-0.3,49,7,18000,25.928,,,190,,,,,,,,,,,wg-a,,,,AAXX 24124 07481 12/68 41914 10180 20070 39912 40193 58003 60006 80002 91200=
07481,1996-03-24 15:00:00,20,1017.5,-1.5,43,7,500,22.224,,,190,,,,,,,,,,,wg-a,,,,AAXX 24154 07481 12/00 51912 10200 20070 39896 40175 56015 60006 80002 91500=
07481,1996-03-24 21:00:00,15,1017.1,-0.7,63,8,25000,18.52,,,130,,,,,,,,,,,wg-a,,,,AAXX 24214 07481 12/75 51310 10150 20080 39888 40171 58007 60006 80002 92100=
07481,1996-03-25 00:00:00,13,1016.2,-1.1,77,9,25000,18.52,,,130,,,,,,,,,,,wg-a,,,,AAXX 25004 07481 12/75 71310 10130 20090 39877 40162 58011 60006 80002 90000=
07481,1996-03-25 03:00:00,14,1015,-1.1,72,9,25000,25.928,,,160,,,,,,,,,,,wg-a,,,,AAXX 25034 07481 12/75 71614 10140 20090 39866 40150 55011 60006 85032 90300=
07481,1996-03-25 06:00:00,13,1016.5,1.4,62,6,15000,31.484,,50.004,190,12.5,16.3,,,,,,,,,wg-a,,,,AAXX 25064 07481 02665 71917 10130 20060 39880 40165 53014 60006 81282 90600 333 10163 20125 60004 91027=
07481,1996-03-25 09:00:00,16,1017,0.7,55,7,18000,29.632,,,180,,,,,,,,,,,wg-a,,,,AAXX 25094 07481 12/68 61816 10160 20070 39887 40170 53007 60006 84082 90900=
07481,1996-03-25 12:00:00,20,1015,-1.6,46,8,20000,18.52,,,210,,,,,,,,,,1,wg-a,,,,AAXX 25124 07481 02670 /2110 10200 20080 39872 40150 56016 61000 70161 81140 91200 333 6100=
07481,1996-03-25 15:00:00,22,1012.9,-1.7,41,8,40000,11.112,,,200,,,,,,,,,,,wg-a,,,,AAXX 25154 07481 12682 /2006 10220 20080 39854 40129 56017 60006 81101 91500=
07481,1996-03-25 18:00:00,20,1013,-0.2,49,9,35000,11.112,,,190,12.9,22.8,,,,,,,,,wg-a,,,,AAXX 25184 07481 32781 /1906 10200 20090 39852 40130 55002 81402 91800 333 10228 20129=
07481,1996-03-25 21:00:00,16,1013.5,0.1,63,9,35000,3.704,,,200,,,,,,,,,,,wg-a,,,,AAXX 25214 07481 12/81 22002 10160 20090 39853 40135 50001 60006 80002 92100=
07481,1996-03-26 00:00:00,13,1014,0.3,77,9,500,3.704,,,220,,,,,,,,,,,wg-a,,,,AAXX 26004 07481 12/00 42202 10130 20090 39856 40140 51003 60006 80002 90000=
07481,1996-03-26 03:00:00,12,1013,-1.1,76,8,15000,7.408,,,180,,,,,,,,,,,wg-a,,,,AAXX 26034 07481 12/65 21804 10120 20080 39845 40130 58011 60006 80001 90300=
07481,1996-03-26 06:00:00,11,1012.7,-0.4,87,9,500,11.112,,,180,10.2,19.5,,,,,,,,,wg-a,,,,AAXX 26064 07481 02/00 41806 10110 20090 39841 40127 57004 60006 83082 90600 333 10195 20102 61000=
07481,1996-03-26 09:00:00,12,1012.6,0.1,82,9,7000,14.816,,,190,,,,,,,,,,,wg-a,,,,AAXX 26094 07481 12457 71908 10120 20090 39842 40126 50001 60006 875// 90900=
07481,1996-03-26 12:00:00,17,1010.2,-2,63,10,11000,7.408,,,150,,,,,,,,,,,wg-a,,,,AAXX 26124 07481 12561 51504 10170 20100 39822 40102 58020 60006 83880 91200=
07481,1996-03-26 15:00:00,15,1008.5,-1.8,72,10,13000,22.224,,,200,,,,,,,,,,60,wg-a,,,,AAXX 26154 07481 02663 72012 10150 20100 39804 40085 56018 61000 76062 8497/ 91500 333 ////=
07481,1996-03-26 18:00:00,12,1009,0.3,94,11,7000,7.408,,,220,10.6,17.8,,3,,,,,,61,wg-a,,,,AAXX 26184 07481 12657 82204 10120 20110 39807 40090 51003 60037 76162 8657/ 91800 333 10178 20106=
07481,1996-03-26 21:00:00,12,1009.2,0.1,94,11,6000,7.408,,,230,,,,0,,,,,,3,wg-a,,,,AAXX 26214 07481 12356 82304 10120 20110 39808 40092 50001 60007 70362 876// 92100=
07481,1996-03-27 00:00:00,11,1008.8,-0.4,94,10,8000,3.704,,,320,,,,1,,,,,,60,wg-a,,,,AAXX 27004 07481 02258 83202 10110 20100 39804 40088 58004 60016 76062 8457/ 90000 333 60017=
07481,1996-03-27 03:00:00,11,1008.4,-0.5,87,9,8000,14.816,,,340,,,,1,,,,,,21,wg-a,,,,AAXX 27034 07481 12258 83408 10110 20090 39799 40084 57005 60017 72162 8457/ 90300=
07481,1996-03-27 06:00:00,9,1010,1.3,87,7,6000,25.928,,,340,8.5,12.3,,1,,,6,,,61,wg-a,,,,AAXX 27064 07481 02256 83414 10090 20070 39812 40100 53013 60064 76162 8457/ 90600 333 10123 20085 60017=
07481,1996-03-27 09:00:00,6,1012.6,2.3,87,4,4000,29.632,,,340,,,,2,,,,,,21,wg-a,,,,AAXX 27094 07481 12340 83416 10060 20040 39835 40126 51023 60027 72162 876// 90900=
07481,1996-03-27 12:00:00,5,1014.5,1.7,87,3,6000,29.632,,,340,,,,,,,,,,2,wg-a,,,,AAXX 27124 07481 12356 83416 10050 20030 39852 40145 51017 60026 70262 886// 91200=
07481,1996-03-27 15:00:00,5,1014.9,0.4,87,3,8000,22.224,,,340,,,,,,,,,,,wg-a,,,,AAXX 27154 07481 12358 83412 10050 20030 39856 40149 51004 60006 886// 91500=
07481,1996-03-27 18:00:00,4,1015.5,0.5,87,2,500,22.224,,,340,4.2,8.5,,,,,,,,,wg-a,,,,AAXX 27184 07481 32400 83412 10040 20020 39861 40155 53005 886// 91800 333 10085 20042=
07481,1996-03-27 21:00:00,5,1016.1,0.6,81,2,8000,18.52,,,340,,,,,,,,,,,wg-a,,,,AAXX 27214 07481 12458 83410 10050 20020 39867 40161 51006 60006 886// 92100=
07481,1996-03-28 00:00:00,4,1016.1,-0.1,75,0,8000,18.52,,,350,,,,,,,,,,1,wg-a,,,,AAXX 28004 07481 02458 83510 10040 20000 39866 40161 58001 61000 70162 885// 90000 333 6100=
07481,1996-03-28 03:00:00,3,1015.7,-0.5,75,-1,10000,22.224,,,340,,,,,,,,,,,wg-a,,,,AAXX 28034 07481 12460 83412 10030 21010 39861 40157 56005 60006 885// 90300=
07481,1996-03-28 06:00:00,3,1016.1,0.4,70,-2,9000,18.52,,,340,2.5,4.6,,,,,2,,,,wg-a,,,,AAXX 28064 07481 12559 /3410 10030 21020 39865 40161 53004 60024 875// 90600 333 10046 20025=
07481,1996-03-28 09:00:00,4,1017.1,1.2,65,-2,18000,22.224,,,330,,,,,,,,,,,wg-a,,,,AAXX 28094 07481 12668 /3312 10040 21020 39876 40171 51012 60006 86500 90900=
07481,1996-03-28 12:00:00,6,1017,-0.1,52,-3,25000,14.816,,,360,,,,,,,,,,,wg-a,,,,AAXX 28124 07481 12575 43608 10060 21030 39877 40170 58001 60006 84500 91200=
07481,1996-03-28 15:00:00,8,1015.8,-1,49,-2,25000,14.816,,,10,,,,,,,,,,,wg-a,,,,AAXX 28154 07481 12/75 50108 10080 21020 39867 40158 58010 60006 80001 91500=
07481,1996-03-28 18:00:00,7,1016.3,0.5,57,-1,20000,7.408,,,50,2.5,8.1,,,,,,,,,wg-a,,,,AAXX 28184 07481 12/70 60504 10070 21010 39871 40163 53005 60006 80002 91800 333 10081 20025=
07481,1996-03-29 00:00:00,3,1017.6,0.1,75,-1,15000,7.408,,,220,,,,,,,,,,,wg-a,,,,AAXX 29004 07481 12/65 22204 10030 21010 39880 40176 52001 60006 80001 90000=
07481,1996-03-29 03:00:00,1,1016.8,-1,80,-2,10000,3.704,,,170,,,,,,,,,,,wg-a,,,,AAXX 29034 07481 12/60 21702 10010 21020 39870 40168 57010 60006 80001 90300=
07481,1996-03-29 06:00:00,2,1017.1,0.4,80,-1,6000,3.704,,,170,0.6,6.5,,,,,,,,,wg-a,,,,AAXX 29064 07481 02756 /1702 10020 21010 39874 40171 53004 60006 85500 90600 333 10065 20006 60004=
07481,1996-03-29 09:00:00,5,1017.2,0.5,70,0,7000,11.112,,,20,,,,,,,,,,,wg-a,,,,AAXX 29094 07481 12757 /0206 10050 20000 39879 40172 51005 60006 85500 90900=
07481,1996-03-29 12:00:00,8,1016.4,-0.6,46,-3,12000,18.52,,,340,,,,,,,,,,,wg-a,,,,AAXX 29124 07481 12562 33410 10080 21030 39873 40164 58006 60006 83100 91200=
07481,1996-03-29 15:00:00,9,1015,-1.1,43,-3,25000,14.816,,,340,,,,,,,,,,,wg-a,,,,AAXX 29154 07481 12675 33408 10090 21030 39861 40150 57011 60006 83100 91500=
07481,1996-03-29 18:00:00,7,1014.7,-0.5,53,-2,18000,14.816,,,10,1.9,9.3,,,,,,,,,wg-a,,,,AAXX 29184 07481 12668 40108 10070 21020 39856 40147 55005 60006 84800 91800 333 10093 20019=
07481,1996-03-29 21:00:00,5,1014.8,-0.1,70,0,18000,11.112,,,360,,,,,,,,,,,wg-a,,,,AAXX 29214 07481 12768 /3606 10050 20000 39855 40148 58001 60006 81530 92100=
07481,1996-03-30 00:00:00,2,1013.9,-1.2,80,-1,12000,0,,,0,,,,,,,,,,,wg-a,,,,AAXX 30004 07481 12/62 00000 10020 21010 39843 40139 58012 60006 80000 90000=
07481,1996-03-30 03:00:00,2,1012.9,-1,87,0,7000,3.704,,,290,,,,,,,,,,,wg-a,,,,AAXX 30034 07481 12757 72902 10020 20000 39833 40129 57010 60006 875// 90300=
07481,1996-03-30 06:00:00,2,1012.7,-0.1,93,1,8000,3.704,,,30,0.6,6.8,,,,,,,,,wg-a,,,,AAXX 30064 07481 02/58 20302 10020 20010 39832 40127 56001 60006 82030 90600 333 10068 20006 60004=
07481,1996-03-30 09:00:00,7,1012.7,0.4,61,0,15000,14.816,,,350,,,,,,,,,,,wg-a,,,,AAXX 30094 07481 12565 43508 10070 20000 39836 40127 51004 60006 84200 90900=
07481,1996-03-30 12:00:00,9,1012.7,0.3,49,-1,15000,25.928,,,350,,,,,,,,,,,wg-a,,,,AAXX 30124 07481 12565 43514 10090 21010 39838 40127 53003 60006 84200 91200=
07481,1996-03-30 15:00:00,9,1013.1,0.3,37,-5,20000,25.928,,,350,,,,,,,,,,,wg-a,,,,AAXX 30154 07481 12670 23514 10090 21050 39842 40131 53003 60006 82200 91500=
07481,1996-03-30 18:00:00,6,1015.2,1.8,52,-3,12000,22.224,,,10,2.4,9.8,,,,,,,,,wg-a,,,,AAXX 30184 07481 12/62 10112 10060 21030 39860 40152 53018 60006 81030 91800 333 10098 20024=
07481,1996-03-30 21:00:00,3,1017.1,1.5,65,-3,15000,14.816,,,340,,,,,,,,,,,wg-a,,,,AAXX 30214 07481 12/65 03408 10030 21030 39875 40171 51015 60006 80000 92100=
07481,1996-03-31 00:00:00,1,1017.8,0.5,75,-3,25000,14.816,,,350,,,,,,,,,,,wg-a,,,,AAXX 31004 07481 12/75 03508 10010 21030 39880 40178 52005 60006 80000 90000=
07481,1996-03-31 03:00:00,-1,1017.6,-0.4,80,-4,25000,11.112,,,310,,,,,,,,,,,wg-a,,,,AAXX 31034 07481 12/75 03106 11010 21040 39876 40176 57004 60006 80000 90300=
07481,1996-03-31 06:00:00,-2,1018.1,0.4,86,-4,15000,3.704,,,330,-2.2,6,,,,,,,,,wg-a,,,,AAXX 31064 07481 02/65 03302 11020 21040 39880 40181 53004 60006 80000 90600 333 10060 21022 60004=
07481,1996-03-31 09:00:00,4,1017.4,-0.1,65,-2,25000,14.816,,,340,,,,,,,,,,,wg-a,,,,AAXX 31094 07481 12575 13408 10040 21020 39879 40174 58001 60006 81101 90900=
07481,1996-03-31 12:00:00,7,1015.3,-1.7,42,-5,10000,14.816,,,340,,,,,,,,,,,wg-a,,,,AAXX 31124 07481 12/60 /3408 10070 21050 39862 40153 58017 60006 91200=
07481,1996-03-31 15:00:00,9,1013.1,-2.1,34,-6,35000,11.112,,,20,,,,,,,,,,,wg-a,,,,AAXX 31154 07481 12/81 40206 10090 21060 39842 40131 56021 60006 80001 91500=
07481,1996-03-31 18:00:00,8,1012.3,-0.8,39,-5,35000,11.112,,,360,-1.6,9.6,,,,,,,,,wg-a,,,,AAXX 31184 07481 12/81 63606 10080 21050 39833 40123 56008 60006 80002 91800 333 10096 21016=
07481,1996-03-31 21:00:00,5,1011.7,-0.8,52,-4,20000,3.704,,,280,,,,,,,,,,,wg-a,,,,AAXX 31214 07481 12/70 22802 10050 21040 39824 40117 58008 60006 82032 92100=
07481,1996-04-01 00:00:00,3,1010.7,-1.3,65,-3,20000,3.704,,,80,,,,,,,,,,,wg-a,,,,AAXX 01004 07481 12/70 40802 10030 21030 39812 40107 56013 60006 82031 90000=
07481,1996-04-01 03:00:00,2,1008.7,-1.9,75,-2,15000,3.704,,,140,,,,,,,,,,,wg-a,,,,AAXX 01034 07481 12565 81402 10020 21020 39793 40087 58019 60006 8157/ 90300=
07481,1996-04-01 06:00:00,3,1007,-1.6,65,-3,8000,0,,,0,1.8,7.5,,,,,,,,,wg-a,,,,AAXX 01064 07481 02558 80000 10030 21030 39777 40070 56016 60006 8157/ 90600 333 10075 20018 60004=
07481,1996-04-01 09:00:00,4,1006,-0.9,70,-1,10000,7.408,,,20,,,,,,,,,,,wg-a,,,,AAXX 01094 07481 12560 80204 10040 21010 39768 40060 58009 60006 8157/ 90900=
07481,1996-04-01 12:00:00,3,1004.9,-1.1,87,1,500,11.112,,,340,,,,2,,,,,,61,wg-a,,,,AAXX 01124 07481 02500 83406 10030 20010 39757 40049 56011 60026 76162 8357/ 91200 333 60027=
07481,1996-04-01 15:00:00,3,1003.3,-1.6,93,2,3000,11.112,,,350,,,,10,,,,,,10,wg-a,,,,AAXX 01154 07481 12230 83506 10030 20020 39741 40033 58016 60107 71076 8577/ 91500=
07481,1996-04-01 21:00:00,3,1004.7,0.9,93,2,4000,7.408,,,250,,,,,,,,,,10,wg-a,,,,AAXX 01214 07481 12140 82504 10030 20020 39755 40047 51009 60006 71022 886// 92100=
07481,1996-04-02 00:00:00,3,1004.9,0.2,93,2,500,7.408,,,230,,,,,,,,,,,wg-a,,,,AAXX 02004 07481 12100 82304 10030 20020 39757 40049 52002 60006 886// 90000=
07481,1996-04-02 03:00:00,3,1005.4,0.5,93,2,500,11.112,,,340,,,,2,,,,,,61,wg-a,,,,AAXX 02034 07481 12200 83406 10030 20020 39762 40054 53005 60027 76162 885// 90300=
07481,1996-04-02 06:00:00,2,1007.4,1.8,75,-2,15000,14.816,,,340,2.1,3.7,,0,,,18,,,1,wg-a,,,,AAXX 02064 07481 02465 83408 10020 21020 39780 40074 53018 60184 70162 885// 90600 333 10037 20021 60007=
07481,1996-04-02 09:00:00,3,1009.5,2.1,70,-2,20000,25.928,,,340,,,,,,,,,,,wg-a,,,,AAXX 02094 07481 12570 73414 10030 21020 39801 40095 51021 60006 875// 90900=
07481,1996-04-02 12:00:00,7,1010.4,1.4,57,-1,20000,29.632,,,350,,,,,,,,,,,wg-a,,,,AAXX 02124 07481 12670 83516 10070 21010 39814 40104 51014 60006 875// 91200=
07481,1996-04-02 15:00:00,9,1010.5,0.2,43,-3,20000,38.892,,,340,,,,,,,,,,,wg-a,,,,AAXX 02154 07481 12670 /3421 10090 21030 39817 40105 51002 60006 81570 91500=
07481,1996-04-02 18:00:00,7,1012.7,1.9,39,-6,20000,29.632,,,350,1.7,8.8,,,,,,,,,wg-a,,,,AAXX 02184 07481 12/70 13516 10070 21060 39836 40127 53019 60006 81040 91800 333 10088 20017=
07481,1996-04-02 21:00:00,4,1015.3,2.2,56,-4,500,25.928,,,330,,,,,,,,,,,wg-a,,,,AAXX 02214 07481 12/00 23314 10040 21040 39858 40153 51022 60006 82020 92100=
07481,1996-04-03 00:00:00,2,1014.9,-0.5,55,-6,500,25.928,,,340,,,,,,,,,,,wg-a,,,,AAXX 03004 07481 12/00 03414 10020 21060 39853 40149 56005 60006 80000 90000=
07481,1996-04-03 03:00:00,1,1014.9,-0.2,64,-5,500,29.632,,,340,,,,,,,,,,,wg-a,,,,AAXX 03034 07481 12/00 03416 10010 21050 39851 40149 58002 60006 80000 90300=
07481,1996-04-03 06:00:00,0,1016,1,64,-6,15000,25.928,,,350,-0.4,7,,,,,,,,,wg-a,,,,AAXX 03064 07481 02/65 33514 10000 21060 39861 40160 53010 60006 80001 90600 333 10070 21004 60004=
07481,1996-04-03 09:00:00,2,1016.4,0.6,69,-3,10000,31.484,,48.152,340,,,,,,,,,,,wg-a,,,,AAXX 03094 07481 12560 63417 10020 21030 39867 40164 53006 60006 81132 90900 333 91026=
07481,1996-04-03 12:00:00,5,1016.2,-0,60,-2,12000,35.188,,57.412,350,,,,,,,,,,,wg-a,,,,AAXX 03124 07481 12562 73519 10050 21020 39868 40162 55000 60006 878// 91200 333 91031=
07481,1996-04-03 15:00:00,7,1017,1,49,-3,15000,38.892,,,350,,,,,,,,,,,wg-a,,,,AAXX 03154 07481 12665 73521 10070 21030 39878 40170 53010 60006 83532 91500=
07481,1996-04-03 18:00:00,6,1018.8,1.7,45,-5,18000,22.224,,,350,-0.4,7.1,,,,,,,,,wg-a,,,,AAXX 03184 07481 12668 73512 10060 21050 39895 40188 52017 60006 83532 91800 333 10071 21004=
07481,1996-04-03 21:00:00,4,1020.6,1.4,52,-5,15000,18.52,,,340,,,,,,,,,,,wg-a,,,,AAXX 03214 07481 12765 43410 10040 21050 39910 40206 51014 60006 81532 92100=
07481,1996-04-04 00:00:00,2,1021.4,0.6,64,-4,15000,18.52,,,350,,,,,,,,,,,wg-a,,,,AAXX 04004 07481 12/65 03510 10020 21040 39916 40214 53006 60006 80000 90000=
07481,1996-04-04 03:00:00,0,1022.3,0.7,74,-4,15000,14.816,,,340,,,,,,,,,,,wg-a,,,,AAXX 04034 07481 12/65 03408 10000 21040 39923 40223 53007 60006 80000 90300=
07481,1996-04-04 06:00:00,0,1022.8,0.4,74,-4,15000,18.52,,,350,-0.4,6.3,,,,,,,,,wg-a,,,,AAXX 04064 07481 02/65 13510 10000 21040 39927 40228 53004 60006 80001 90600 333 10063 21004 60004=
07481,1996-04-04 09:00:00,3,1022,-0.4,65,-3,15000,22.224,,,360,,,,,,,,,,,wg-a,,,,AAXX 04094 07481 12565 23612 10030 21030 39923 40220 56004 60006 82100 90900=
07481,1996-04-04 12:00:00,6,1020.6,-1.1,52,-3,15000,25.928,,,340,,,,,,,,,,,wg-a,,,,AAXX 04124 07481 12665 /3414 10060 21030 39912 40206 58011 60006 85100 91200=
07481,1996-04-04 15:00:00,6,1020.2,-0.3,56,-2,15000,22.224,,,340,,,,,,,,,,,wg-a,,,,AAXX 04154 07481 12665 73412 10060 21020 39909 40202 58003 60006 8487/ 91500=
07481,1996-04-04 18:00:00,5,1020.7,0.3,56,-3,15000,18.52,,,340,-0.2,6.6,,,,,,,,,wg-a,,,,AAXX 04184 07481 12765 73410 10050 21030 39912 40207 53003 60006 8457/ 91800 333 10066 21002=
07481,1996-04-04 21:00:00,4,1020.2,-0.6,65,-2,10000,14.816,,,340,,,,,,,,,,,wg-a,,,,AAXX 04214 07481 12760 73408 10040 21020 39906 40202 58006 60006 8357/ 92100=
07481,1996-04-05 00:00:00,1,1019.8,-0.7,80,-2,10000,3.704,,,240,,,,,,,,,,,wg-a,,,,AAXX 05004 07481 12/60 02402 10010 21020 39899 40198 58007 60006 80000 90000=
07481,1996-04-05 03:00:00,-1,1018.5,-1.5,86,-3,14000,0,,,0,,,,,,,,,,,wg-a,,,,AAXX 05034 07481 12/64 00000 11010 21030 39884 40185 56015 60006 80000 90300=
07481,1996-04-05 06:00:00,-1,1018.1,-0.3,93,-2,6000,3.704,,,220,-1.6,5.3,,,,,,,,11,wg-a,,,,AAXX 05064 07481 02/56 02202 11010 21020 39881 40181 55003 60006 71100 80000 90600 333 10053 21016 60004=
07481,1996-04-05 09:00:00,4,1017.2,-0.4,75,0,7000,3.704,,,270,,,,,,,,,,,wg-a,,,,AAXX 05094 07481 12/57 02702 10040 20000 39877 40172 58004 60006 80000 90900=
07481,1996-04-05 12:00:00,9,1015,-1.6,53,0,11000,3.704,,,300,,,,,,,,,,,wg-a,,,,AAXX 05124 07481 12/61 03002 10090 20000 39861 40150 58016 60006 80000 91200=
07481,1996-04-05 15:00:00,14,1012.5,-2,44,2,12000,3.704,,,90,,,,,,,,,,,wg-a,,,,AAXX 05154 07481 12/62 00902 10140 20020 39841 40125 56020 60006 80000 91500=
07481,1996-04-05 18:00:00,13,1012.5,-0,51,3,13000,11.112,,,100,-0.8,15.3,,,,,,,,,wg-a,,,,AAXX 05184 07481 12/63 01006 10130 20030 39841 40125 55000 60006 80000 91800 333 10153 21008=
07481,1996-04-05 21:00:00,11,1014,1.2,50,1,20000,14.816,,,180,,,,,,,,,,,wg-a,,,,AAXX 05214 07481 12/70 01808 10110 20010 39853 40140 51012 60006 80000 92100=
07481,1996-04-06 03:00:00,7,1016.3,0.6,61,0,20000,11.112,,,150,,,,,,,,,,,wg-a,,,,AAXX 06034 07481 12/70 31506 10070 20000 39872 40163 53006 60006 80001 90300=
07481,1996-04-06 06:00:00,7,1016.9,0.5,66,1,18000,7.408,,,160,5.2,12.8,,,,,,,,,wg-a,,,,AAXX 06064 07481 02/68 41604 10070 20010 39877 40169 53005 60006 80001 90600 333 10128 20052 60004=
07481,1996-04-06 09:00:00,12,1016.7,0.4,54,3,18000,14.816,,,150,,,,,,,,,,,wg-a,,,,AAXX 06094 07481 12/68 51508 10120 20030 39881 40167 51004 60006 80002 90900=
07481,1996-04-06 12:00:00,16,1015.6,-0.7,39,2,500,31.484,,,200,,,,,,,,,,,wg-a,,,,AAXX 06124 07481 12600 /2017 10160 20020 39874 40156 57007 60006 81202 91200=
07481,1996-04-06 15:00:00,18,1014.7,-0.6,30,0,40000,31.484,,,190,,,,,,,,,,,wg-a,,,,AAXX 06154 07481 12782 /1917 10180 20000 39867 40147 57006 60006 81202 91500=
07481,1996-04-06 18:00:00,15,1015.5,0.5,36,0,40000,18.52,,,190,6.9,18.3,,,,,,,,,wg-a,,,,AAXX 06184 07481 12782 51910 10150 20000 39872 40155 53005 60006 815/2 91800 333 10183 20069=
07481,1996-04-06 21:00:00,13,1017.1,1.3,44,1,35000,14.816,,,190,,,,,,,,,,,wg-a,,,,AAXX 06214 07481 12/81 41908 10130 20010 39885 40171 51013 60006 82032 92100=
07481,1996-04-07 00:00:00,10,1018,0.6,53,1,25000,7.408,,,160,,,,,,,,,,,wg-a,,,,AAXX 07004 07481 12/75 51604 10100 20010 39891 40180 51006 60006 82032 90000=
07481,1996-04-07 03:00:00,9,1018.3,0.2,53,0,20000,7.408,,,210,,,,,,,,,,,wg-a,,,,AAXX 07034 07481 12/70 72104 10090 20000 39893 40183 52002 60006 8703/ 90300=
07481,1996-04-07 06:00:00,7,1019.3,0.8,70,2,25000,7.408,,,170,6.4,15.4,,,,,,,,,wg-a,,,,AAXX 07064 07481 02/75 51704 10070 20020 39901 40193 53008 60006 85030 90600 333 10154 20064 60004=
07481,1996-04-07 09:00:00,13,1019.6,0.9,47,2,15000,0,,,0,,,,,,,,,,,wg-a,,,,AAXX 07094 07481 12/65 00000 10130 20020 39910 40196 52009 60006 80000 90900=
07481,1996-04-07 12:00:00,18,1018.4,-0.7,34,2,20000,11.112,,,340,,,,,,,,,,,wg-a,,,,AAXX 07124 07481 12670 /3406 10180 20020 39903 40184 58007 60006 81101 91200=
07481,1996-04-07 15:00:00,19,1017.8,-0.5,26,-1,500,11.112,,,350,,,,,,,,,,,wg-a,,,,AAXX 07154 07481 12700 /3506 10190 21010 39898 40178 56005 60006 81101 91500=
07481,1996-04-07 18:00:00,17,1018.9,0.8,39,3,500,14.816,,,340,7.1,19.5,,,,,,,,,wg-a,,,,AAXX 07184 07481 12/00 23408 10170 20030 39906 40189 53008 60006 81031 91800 333 10195 20071=
07481,1996-04-07 21:00:00,11,1021,1.5,58,3,20000,11.112,,,330,,,,,,,,,,,wg-a,,,,AAXX 07214 07481 12/70 33306 10110 20030 39921 40210 51015 60006 82031 92100=
07481,1996-04-08 00:00:00,9,1022.6,1.4,66,3,20000,7.408,,,310,,,,,,,,,,,wg-a,,,,AAXX 08004 07481 12/70 03104 10090 20030 39935 40226 51014 60006 80000 90000=
07481,1996-04-08 03:00:00,7,1023.2,0.4,76,3,12000,11.112,,,330,,,,,,,,,,,wg-a,,,,AAXX 08034 07481 12/62 03306 10070 20030 39939 40232 53004 60006 80000 90300=
07481,1996-04-08 06:00:00,6,1024.9,1.5,81,3,500,0,,,0,5.6,16.4,,,,,,,,,wg-a,,,,AAXX 08064 07481 02/00 20000 10060 20030 39954 40249 53015 60006 81031 90600 333 10164 20056 60004=
07481,1996-04-08 09:00:00,12,1025.5,1.2,62,5,500,18.52,,,340,,,,,,,,,,,wg-a,,,,AAXX 08094 07481 12/00 03410 10120 20050 39966 40255 51012 60006 80000 90900=
07481,1996-04-08 12:00:00,15,1024.6,-0.5,51,5,8000,25.928,,,350,,,,,,,,,,,wg-a,,,,AAXX 08124 07481 12/58 03514 10150 20050 39961 40246 58005 60006 80000 91200=
07481,1996-04-08 15:00:00,16,1023.7,-0.8,48,5,9000,29.632,,,350,,,,,,,,,,,wg-a,,,,AAXX 08154 07481 12/59 03516 10160 20050 39953 40237 57008 60006 80000 91500=
07481,1996-04-08 18:00:00,14,1024.6,0.6,51,4,8000,22.224,,,350,5.8,16.2,,,,,,,,,wg-a,,,,AAXX 08184 07481 12/58 03512 10140 20040 39959 40246 53006 60006 80000 91800 333 10162 20058=
07481,1996-04-08 21:00:00,9,1027,1.9,71,4,10000,22.224,,,340,,,,,,,,,,,wg-a,,,,AAXX 08214 07481 12/60 03412 10090 20040 39978 40270 51019 60006 80000 92100=
07481,1996-04-09 03:00:00,7,1026.6,-1,81,4,9000,14.816,,,310,,,,,,,,,,,wg-a,,,,AAXX 09034 07481 12459 73108 10070 20040 39972 40266 58010 60006 875// 90300=
07481,1996-04-09 06:00:00,7,1026.9,0.3,81,4,7000,14.816,,,330,5.9,13.8,,,,,,,,,wg-a,,,,AAXX 09064 07481 02557 73308 10070 20040 39975 40269 53003 60006 875// 90600 333 10138 20059 60004=
07481,1996-04-09 09:00:00,9,1026.6,-0.2,66,3,8000,18.52,,,350,,,,,,,,,,,wg-a,,,,AAXX 09094 07481 12558 73510 10090 20030 39973 40266 58002 60006 875// 90900=
07481,1996-04-09 12:00:00,11,1025.1,-1.3,66,5,8000,14.816,,,340,,,,,,,,,,,wg-a,,,,AAXX 09124 07481 12558 73408 10110 20050 39961 40251 58013 60006 875// 91200=
07481,1996-04-09 15:00:00,12,1023.3,-1.5,67,6,8000,14.816,,,10,,,,,,,,,,,wg-a,,,,AAXX 09154 07481 12558 /0108 10120 20060 39945 40233 58015 60006 85500 91500=
07481,1996-04-09 18:00:00,12,1022.3,-0.9,67,6,7000,7.408,,,330,7.3,13.4,,,,,,,,,wg-a,,,,AAXX 09184 07481 12/57 13304 10120 20060 39936 40223 56009 60006 80001 91800 333 10134 20073=
07481,1996-04-09 21:00:00,9,1022.4,-0.2,81,6,7000,7.408,,,270,,,,,,,,,,,wg-a,,,,AAXX 09214 07481 12/57 02704 10090 20060 39934 40224 58002 60006 80000 92100=
07481,1996-04-10 00:00:00,7,1022.3,-0.4,81,4,6000,3.704,,,160,,,,,,,,,,,wg-a,,,,AAXX 10004 07481 12/56 01602 10070 20040 39930 40223 58004 60006 80000 90000=
07481,1996-04-10 03:00:00,5,1021.4,-1,93,4,500,11.112,,,150,,,,,,,,,,,wg-a,,,,AAXX 10034 07481 12/00 01506 10050 20040 39920 40214 57010 60006 80000 90300=
07481,1996-04-10 06:00:00,6,1020.7,-0.7,87,4,2500,7.408,,,240,4.7,12.3,,,,,,,,,wg-a,,,,AAXX 10064 07481 02/25 /2404 10060 20040 39913 40207 56007 60006 90600 333 10123 20047 60004=
07481,1996-04-10 09:00:00,11,1020,-0.1,71,6,4000,3.704,,,330,,,,,,,,,,10,wg-a,,,,AAXX 10094 07481 12/40 73302 10110 20060 39912 40200 58001 60006 71011 80002 90900=
07481,1996-04-10 12:00:00,16,1017.9,-1.6,51,6,6000,3.704,,,40,,,,,,,,,,,wg-a,,,,AAXX 10124 07481 12/56 /0402 10160 20060 39896 40179 58016 60006 80002 91200=
07481,1996-04-10 15:00:00,17,1016.2,-1.5,39,3,8000,3.704,,,50,,,,,,,,,,,wg-a,,,,AAXX 10154 07481 12/58 70502 10170 20030 39881 40162 56015 60006 84032 91500=
07481,1996-04-10 18:00:00,16,1016.2,0,51,6,10000,7.408,,,10,5.7,,,,,,,,,,wg-a,,,,AAXX 10184 07481 12760 50104 10160 20060 39880 40162 50000 60006 83530 91800 333 20057=
07481,1996-04-10 21:00:00,12,1016.7,0.1,67,6,15000,3.704,,,310,,,,,,,,,,,wg-a,,,,AAXX 10214 07481 12765 73102 10120 20060 39881 40167 53001 60006 83532 92100=
07481,1996-04-11 00:00:00,12,1016.6,-0.1,71,7,15000,3.704,,,230,,,,,,,,,,,wg-a,,,,AAXX 11004 07481 12765 82302 10120 20070 39880 40166 58001 60006 8357/ 90000=
07481,1996-04-11 03:00:00,11,1016,-0.7,76,7,10000,3.704,,,340,,,,0,,,,,,60,wg-a,,,,AAXX 11034 07481 12760 83402 10110 20070 39873 40160 56007 60007 76062 8557/ 90300=
07481,1996-04-11 06:00:00,10,1016.2,0.1,87,8,500,3.704,,,100,9.3,15.8,,,,,,,,3,wg-a,,,,AAXX 11064 07481 02500 61002 10100 20080 39874 40162 53001 60004 70361 8453/ 90600 333 10158 20093 61000=
07481,1996-04-11 09:00:00,13,1015.8,-0.1,77,9,9000,3.704,,,330,,,,,,,,,,,wg-a,,,,AAXX 11094 07481 12459 /3302 10130 20090 39873 40158 57001 60006 86800 90900=
07481,1996-04-11 12:00:00,15,1014.4,-1.2,63,8,12000,18.52,,,340,,,,,,,,,,,wg-a,,,,AAXX 11124 07481 12562 63410 10150 20080 39861 40144 58012 60006 86800 91200=
07481,1996-04-11 15:00:00,16,1013.1,-1.1,45,4,12000,18.52,,,340,,,,,,,,,,,wg-a,,,,AAXX 11154 07481 12662 33410 10160 20040 39850 40131 56011 60006 83800 91500=
07481,1996-04-11 18:00:00,14,1012.9,-0.4,58,6,10000,11.112,,,340,9.8,16.9,,,,,,,,,wg-a,,,,AAXX 11184 07481 12760 33406 10140 20060 39846 40129 56004 60006 82532 91800 333 10169 20098=
07481,1996-04-11 21:00:00,11,1013.9,0.6,71,6,10000,7.408,,,100,,,,,,,,,,,wg-a,,,,AAXX 11214 07481 12760 51004 10110 20060 39852 40139 51006 60006 81532 92100=
07481,1996-04-12 00:00:00,8,1013.5,-0.6,81,5,10000,3.704,,,310,,,,,,,,,,,wg-a,,,,AAXX 12004 07481 12/60 23102 10080 20050 39846 40135 57006 60006 80002 90000=
07481,1996-04-12 03:00:00,7,1013.6,-0.1,87,5,10000,0,,,0,,,,,,,,,,,wg-a,,,,AAXX 12034 07481 12/60 20000 10070 20050 39845 40136 55001 60006 80002 90300=
07481,1996-04-12 06:00:00,7,1013.9,0.3,87,5,6000,3.704,,,340,5.4,13.9,,,,,,,,11,wg-a,,,,AAXX 12064 07481 02/56 /3402 10070 20050 39848 40139 53003 60006 71100 80001 90600 333 10139 20054 60004=
07481,1996-04-12 09:00:00,11,1013.5,-0,76,7,6000,7.408,,,320,,,,,,,,,,11,wg-a,,,,AAXX 12094 07481 32/56 43204 10110 20070 39849 40135 54000 71111 80001 90900=
07481,1996-04-12 12:00:00,16,1011.9,-1,42,3,20000,14.816,,,340,,,,,,,,,,,wg-a,,,,AAXX 12124 07481 32770 13408 10160 20030 39838 40119 56010 81201 91200=
07481,1996-04-12 15:00:00,17,1011,-0.8,36,2,25000,14.816,,,350,,,,,,,,,,,wg-a,,,,AAXX 12154 07481 12775 13508 10170 20020 39830 40110 58008 60006 81100 91500=
07481,1996-04-12 18:00:00,15,1011.6,0.4,41,2,20000,11.112,,,350,6.6,17.3,,,,,,,,,wg-a,,,,AAXX 12184 07481 32/70 33506 10150 20020 39834 40116 53004 80001 91800 333 10173 20066=
07481,1996-04-12 21:00:00,10,1012.9,0.8,62,3,20000,0,,,0,,,,,,,,,,,wg-a,,,,AAXX 12214 07481 12/70 00000 10100 20030 39842 40129 53008 60006 80000 92100=
07481,1996-04-13 03:00:00,7,1013.3,-0.1,76,3,15000,3.704,,,160,,,,,,,,,,,wg-a,,,,AAXX 13034 07481 12/65 31602 10070 20030 39843 40133 55001 60006 80002 90300=
07481,1996-04-13 06:00:00,7,1014.2,0.8,81,4,15000,0,,,0,6.3,15.2,,,,,,,,,wg-a,,,,AAXX 13064 07481 12/65 50000 10070 20040 39851 40142 53008 60006 85030 90600 333 10152 20063=
07481,1996-04-13 07:00:00,7,1014.2,0.8,81,4,15000,0,,,0,6.3,15.2,,,,,,,,,wg-a,,,,AAXX 13074 07481 12/65 50000 10070 20040 39851 40142 53008 60006 85030 90700 333 10152 20063=
07481,1996-04-13 09:00:00,12,1014.9,1.2,67,6,12000,11.112,,,340,,,,,,,,,,,wg-a,,,,AAXX 13094 07481 12/62 73406 10120 20060 39863 40149 52012 60006 83032 90900=
07481,1996-04-13 12:00:00,14,1015,0.3,63,7,10000,18.52,,,340,,,,,,,,,,,wg-a,,,,AAXX 13124 07481 12/60 73410 10140 20070 39866 40150 53003 60006 83032 91200=
07481,1996-04-13 15:00:00,14,1014.2,-0.8,63,7,9000,11.112,,,350,,,,,,,,,,60,wg-a,,,,AAXX 13154 07481 02559 73506 10140 20070 39858 40142 56008 61000 76062 8387/ 91500 333 ////=
07481,1996-04-13 18:00:00,13,1014.2,-0,77,9,7000,11.112,,,330,6.8,14.4,,,,,,,,3,wg-a,,,,AAXX 13184 07481 02757 73306 10130 20090 39858 40142 55000 61000 70362 8357/ 91800 333 10144 20068 ////=
07481,1996-04-13 21:00:00,10,1016.1,1.6,93,9,500,11.112,,,330,,,,0,,,,,,60,wg-a,,,,AAXX 13214 07481 12700 83306 10100 20090 39874 40161 51016 60007 76062 8457/ 92100=
07481,1996-04-14 00:00:00,9,1016.5,0.2,87,7,7000,11.112,,,350,,,,1,,,,,,1,wg-a,,,,AAXX 14004 07481 02757 /3506 10090 20070 39876 40165 51002 60016 70162 83570 90000 333 60017=
07481,1996-04-14 03:00:00,6,1017.8,0.9,87,4,8000,11.112,,,10,,,,,,,,,,,wg-a,,,,AAXX 14034 07481 12558 70106 10060 20040 39885 40178 52009 60006 875// 90300=
07481,1996-04-14 06:00:00,6,1019.3,1.5,93,5,500,7.408,,,340,5.9,13.2,,,,,1,,,60,wg-a,,,,AAXX 14064 07481 02500 73404 10060 20050 39900 40193 53015 60014 76061 875// 90600 333 10132 20059 61000=
07481,1996-04-14 09:00:00,8,1019.8,0.8,81,5,6000,7.408,,,30,,,,,,,,,,1,wg-a,,,,AAXX 14094 07481 02556 /0304 10080 20050 39907 40198 51008 61000 70162 86500 90900 333 ////=
07481,1996-04-14 12:00:00,14,1019,-0.3,55,5,11000,18.52,,,340,,,,,,,,,,,wg-a,,,,AAXX 14124 07481 02/61 /3410 10140 20050 39905 40190 58003 61000 91200 333 ////=
07481,1996-04-14 15:00:00,14,1018.3,-0.6,51,4,15000,22.224,,,350,,,,,,,,,,,wg-a,,,,AAXX 14154 07481 12665 83512 10140 20040 39899 40183 58006 60006 82207 91500=
07481,1996-04-14 18:00:00,13,1019.2,0.6,51,3,15000,14.816,,,350,6.1,14.9,,,,,,,,,wg-a,,,,AAXX 14184 07481 32/65 63508 10130 20030 39905 40192 53006 80002 91800 333 10149 20061=
07481,1996-04-14 21:00:00,8,1021.4,1.7,71,3,15000,3.704,,,330,,,,,,,,,,,wg-a,,,,AAXX 14214 07481 12/65 53302 10080 20030 39922 40214 51017 60006 80001 92100=
07481,1996-04-15 00:00:00,6,1022.2,0.6,75,2,15000,11.112,,,330,,,,,,,,,,,wg-a,,,,AAXX 15004 07481 12/65 43306 10060 20020 39928 40222 52006 60006 80001 90000=
07481,1996-04-15 03:00:00,4,1023.1,0.6,75,0,15000,3.704,,,40,,,,,,,,,,,wg-a,,,,AAXX 15034 07481 12/65 20402 10040 20000 39934 40231 53006 60006 80001 90300=
07481,1996-04-15 06:00:00,4,1024.3,1.2,81,1,20000,7.408,,,340,2.6,12.5,,,,,,,,,wg-a,,,,AAXX 15064 07481 02/70 03404 10040 20010 39946 40243 53012 60006 80000 90600 333 10125 20026 61000=
07481,1996-04-15 09:00:00,9,1024.8,1,57,1,25000,7.408,,,20,,,,,,,,,,,wg-a,,,,AAXX 15094 07481 12/75 00204 10090 20010 39956 40248 52010 60006 80000 90900=
07481,1996-04-15 12:00:00,14,1023.5,-0.8,33,-2,40000,14.816,,,360,,,,,,,,,,,wg-a,,,,AAXX 15124 07481 12/82 03608 10140 21020 39948 40235 58008 60006 80000 91200=
07481,1996-04-15 15:00:00,17,1021.9,-1.3,23,-4,50000,22.224,,,340,,,,,,,,,,,wg-a,,,,AAXX 15154 07481 12/84 13412 10170 21040 39935 40219 58013 60006 80001 91500=
07481,1996-04-15 21:00:00,10,1023.2,0.7,40,-3,25000,7.408,,,340,,,,,,,,,,,wg-a,,,,AAXX 15214 07481 12/75 03404 10100 21030 39941 40232 51007 60006 80000 92100=
07481,1996-04-16 00:00:00,6,1023.1,-0.4,52,-3,25000,3.704,,,250,,,,,,,,,,,wg-a,,,,AAXX 16004 07481 12/75 02502 10060 21030 39937 40231 58004 60006 80000 90000=
07481,1996-04-16 03:00:00,3,1021.7,-1.7,70,-2,18000,3.704,,,160,,,,,,,,,,,wg-a,,,,AAXX 16034 07481 12/68 01602 10030 21020 39920 40217 56017 60006 80000 90300=
07481,1996-04-16 06:00:00,3,1020.9,-0.8,75,-1,12000,7.408,,,260,3,14.5,,,,,,,,,wg-a,,,,AAXX 16064 07481 02/62 12604 10030 21010 39912 40209 56008 60006 80001 90600 333 10145 20030 60004=
07481,1996-04-16 09:00:00,11,1018.9,-1.1,43,-1,13000,3.704,,,160,,,,,,,,,,,wg-a,,,,AAXX 16094 07481 12/63 31602 10110 21010 39901 40189 58011 60006 80001 90900=
07481,1996-04-16 12:00:00,16,1015.7,-2.7,31,-1,15000,7.408,,,70,,,,,,,,,,,wg-a,,,,AAXX 16124 07481 12/65 40704 10160 21010 39874 40157 58027 60006 80002 91200=
07481,1996-04-16 15:00:00,19,1012.2,-2.9,24,-2,500,3.704,,,140,,,,,,,,,,,wg-a,,,,AAXX 16154 07481 12/00 41402 10190 21020 39844 40122 58029 60006 80002 91500=
07481,1996-04-16 18:00:00,18,1010.4,-1.9,24,-3,500,7.408,,,100,3.4,19.9,,,,,,,,,wg-a,,,,AAXX 16184 07481 12/00 41004 10180 21030 39825 40104 56019 60006 80002 91800 333 10199 20034=
07481,1996-04-16 21:00:00,14,1010.5,-0.3,38,0,500,22.224,,,160,,,,,,,,,,,wg-a,,,,AAXX 16214 07481 12/00 11612 10140 20000 39822 40105 58003 60006 80002 92100=
07481,1996-04-17 00:00:00,12,1010.6,-0,67,6,500,22.224,,,160,,,,,,,,,,,wg-a,,,,AAXX 17004 07481 12/00 41612 10120 20060 39822 40106 55000 60006 80002 90000=
07481,1996-04-17 03:00:00,12,1009.9,-0.7,76,8,500,22.224,,,170,,,,,,,,,,,wg-a,,,,AAXX 17034 07481 12600 /1712 10120 20080 39815 40099 56007 60006 81202 90300=
07481,1996-04-17 06:00:00,13,1010.1,0.2,62,6,20000,18.52,,,200,12,17.6,,,,,,,,,wg-a,,,,AAXX 17064 07481 02770 82010 10130 20060 39817 40101 53002 60006 82547 90600 333 10176 20120 60004=
07481,1996-04-17 09:00:00,15,1011.1,1.2,51,5,20000,14.816,,,240,,,,,,,,,,,wg-a,,,,AAXX 17094 07481 12670 82408 10150 20050 39829 40111 53012 60006 878// 90900=
07481,1996-04-17 12:00:00,12,1012.9,1.5,82,9,15000,11.112,,,300,,,,2,,,,,,60,wg-a,,,,AAXX 17124 07481 02565 83006 10120 20090 39844 40129 53015 60026 76086 878// 91200 333 60027=
07481,1996-04-17 15:00:00,11,1014.7,1.6,82,8,10000,14.816,,,290,,,,0,,,,,,60,wg-a,,,,AAXX 17154 07481 12560 82908 10110 20080 39860 40147 52016 60007 76062 8387/ 91500=
07481,1996-04-17 18:00:00,10,1016.4,1.6,82,7,15000,11.112,,,350,10,14.8,,0,,,,,,50,wg-a,,,,AAXX 17184 07481 12565 83506 10100 20070 39876 40164 53016 60007 75065 8487/ 91800 333 10148 20100=
07481,1996-04-17 21:00:00,10,1018.7,2.2,87,8,15000,3.704,,,40,,,,0,,,,,,21,wg-a,,,,AAXX 17214 07481 12465 80402 10100 20080 39898 40187 51022 60007 72165 8357/ 92100=
07481,1996-04-18 03:00:00,9,1020,0.3,93,8,20000,3.704,,,10,,,,,,,,,,,wg-a,,,,AAXX 18034 07481 12770 80102 10090 20080 39910 40200 53003 60006 8357/ 90300=
07481,1996-04-18 12:00:00,16,1019.9,-0.7,55,7,500,14.816,,,350,,,,,,,,,,,wg-a,,,,AAXX 18124 07481 12600 53508 10160 20070 39916 40199 58007 60006 85200 91200=
07481,1996-04-18 15:00:00,18,1018.5,-1.2,45,6,35000,7.408,,,360,,,,,,,,,,,wg-a,,,,AAXX 18154 07481 12681 33604 10180 20060 39904 40185 56012 60006 83800 91500=
07481,1996-04-18 18:00:00,16,1018.6,-0.1,48,5,35000,14.816,,,340,8.2,17.8,,,,,,,,,wg-a,,,,AAXX 18184 07481 12881 33408 10160 20050 39903 40186 55001 60006 81051 91800 333 10178 20082=
07481,1996-04-18 21:00:00,11,1020.1,1,71,6,40000,0,,,0,,,,,,,,,,,wg-a,,,,AAXX 18214 07481 12/82 20000 10110 20060 39913 40201 51010 60006 80001 92100=
07481,1996-04-19 00:00:00,10,1020.6,0.4,71,5,40000,7.408,,,190,,,,,,,,,,,wg-a,,,,AAXX 19004 07481 12/82 21904 10100 20050 39917 40206 50004 60006 80001 90000=
07481,1996-04-19 03:00:00,7,1020.7,-0.2,87,5,20000,3.704,,,150,,,,,,,,,,,wg-a,,,,AAXX 19034 07481 12/70 21502 10070 20050 39915 40207 56002 60006 80001 90300=
07481,1996-04-19 06:00:00,7,1021,0.3,87,5,12000,0,,,0,5.9,15.6,,,,,,,,,wg-a,,,,AAXX 19064 07481 02/62 30000 10070 20050 39918 40210 53003 60006 80001 90600 333 10156 20059 60004=
07481,1996-04-19 09:00:00,16,1020.3,0.2,63,9,14000,7.408,,,140,,,,,,,,,,,wg-a,,,,AAXX 19094 07481 12/64 21404 10160 20090 39920 40203 51002 60006 80001 90900=
07481,1996-04-19 12:00:00,22,1018.1,-1.7,29,3,500,22.224,,,190,,,,,,,,,,,wg-a,,,,AAXX 19124 07481 12/00 21912 10220 20030 39903 40181 58017 60006 80001 91200=
07481,1996-04-19 15:00:00,23,1016.2,-1.7,16,-4,40000,29.632,,,200,,,,,,,,,,,wg-a,,,,AAXX 19154 07481 12/82 42016 10230 21040 39886 40162 57017 60006 80001 91500=
07481,1996-04-19 18:00:00,20,1016.6,0.1,23,-2,40000,18.52,,,210,7.2,23.4,,,,,,,,,wg-a,,,,AAXX 19184 07481 12/82 42110 10200 21020 39887 40166 53001 60006 80001 91800 333 10234 20072=
07481,1996-04-19 21:00:00,16,1017.9,0.9,36,1,500,18.52,,,190,,,,,,,,,,,wg-a,,,,AAXX 19214 07481 12/00 41910 10160 20010 39896 40179 50009 60006 80001 92100=
07481,1996-04-20 00:00:00,13,1018.5,0.3,47,2,500,18.52,,,170,,,,,,,,,,,wg-a,,,,AAXX 20004 07481 12/00 21710 10130 20020 39899 40185 50003 60006 80001 90000=
07481,1996-04-20 03:00:00,8,1018.4,-0.5,71,3,40000,11.112,,,120,,,,,,,,,,,wg-a,,,,AAXX 20034 07481 12/82 01206 10080 20030 39894 40184 56005 60006 80000 90300=
07481,1996-04-20 06:00:00,11,1018.2,-0,62,4,40000,18.52,,,160,7.9,20.3,,,,,,,,,wg-a,,,,AAXX 20064 07481 02/82 51610 10110 20040 39894 40182 55000 60006 80002 90600 333 10203 20079 60004=
07481,1996-04-20 09:00:00,17,1017.1,-0.4,29,-1,40000,29.632,,,190,,,,,,,,,,,wg-a,,,,AAXX 20094 07481 12/82 61916 10170 21010 39890 40171 58004 60006 80002 90900=
07481,1996-04-20 12:00:00,21,1015.1,-1.6,20,-3,40000,31.484,,51.856,190,,,,,,,,,,,wg-a,,,,AAXX 20124 07481 12/82 61917 10210 21030 39874 40151 58016 60006 80002 91200 333 91028=
07481,1996-04-20 15:00:00,22,1013.4,-1.6,21,-1,40000,29.632,,,200,,,,,,,,,,,wg-a,,,,AAXX 20154 07481 12/82 62016 10220 21010 39858 40134 57016 60006 81042 91500=
07481,1996-04-20 18:00:00,19,1013.3,-0.4,30,1,40000,25.928,,,200,10.9,22.9,,,,,,,,,wg-a,,,,AAXX 20184 07481 12/82 72014 10190 20010 39854 40133 56004 60006 81042 91800 333 10229 20109=
07481,1996-04-20 21:00:00,16,1014.6,1,36,1,40000,18.52,,,190,,,,,,,,,,,wg-a,,,,AAXX 20214 07481 12/82 31910 10160 20010 39864 40146 51010 60006 80002 92100=
07481,1996-04-21 00:00:00,15,1014.6,-0.1,36,0,40000,22.224,,,160,,,,,,,,,,,wg-a,,,,AAXX 21004 07481 12/82 21612 10150 20000 39863 40146 57001 60006 80002 90000=
07481,1996-04-21 03:00:00,14,1013.7,-1,41,1,40000,14.816,,,180,,,,,,,,,,,wg-a,,,,AAXX 21034 07481 12/82 41808 10140 20010 39853 40137 56010 60006 83032 90300=
07481,1996-04-21 06:00:00,14,1013.5,-0.1,41,1,50000,14.816,,,160,13.8,18.9,,,,,,,,,wg-a,,,,AAXX 21064 07481 02/84 61608 10140 20010 39852 40135 55001 60006 85082 90600 333 10189 20138 60004=
07481,1996-04-21 09:00:00,18,1013.2,-0,32,1,50000,25.928,,,180,,,,,,,,,,,wg-a,,,,AAXX 21094 07481 12884 71814 10180 20010 39852 40132 55000 60006 86042 90900=
07481,1996-04-21 12:00:00,21,1012.6,-0.2,28,2,50000,31.484,,51.856,180,,,,,,,,,,,wg-a,,,,AAXX 21124 07481 12884 71817 10210 20020 39849 40126 58002 60006 8704/ 91200 333 91028=
07481,1996-04-21 15:00:00,23,1010.8,-1.6,27,3,50000,25.928,,,170,,,,,,,,,,,wg-a,,,,AAXX 21154 07481 12884 61714 10230 20030 39833 40108 58016 60006 86041 91500=
07481,1996-04-21 18:00:00,21,1011.2,0.2,23,-1,50000,18.52,,,200,14.2,23.1,,,,,,,,,wg-a,,,,AAXX 21184 07481 12884 72010 10210 21010 39835 40112 53002 60006 8708/ 91800 333 10231 20142=
07481,1996-04-21 21:00:00,19,1012.6,1.2,28,0,40000,18.52,,,190,,,,,,,,,,,wg-a,,,,AAXX 21214 07481 12882 71910 10190 20000 39847 40126 51012 60006 8708/ 92100=
07481,1996-04-22 03:00:00,16,1011.3,-1.4,34,0,40000,14.816,,,180,,,,,,,,,,,wg-a,,,,AAXX 22034 07481 12882 61808 10160 20000 39832 40113 58014 60006 85072 90300=
07481,1996-04-22 06:00:00,14,1011.6,0.1,47,3,500,14.816,,,130,11.5,20.8,,,,,,,,,wg-a,,,,AAXX 22064 07481 02800 71308 10140 20030 39833 40116 53001 60006 84042 90600 333 10208 20115 60004=
07481,1996-04-22 09:00:00,18,1010.2,-0.8,37,3,500,25.928,,,170,,,,,,,,,,,wg-a,,,,AAXX 22094 07481 12800 71714 10180 20030 39824 40102 56008 60006 86072 90900=
07481,1996-04-22 12:00:00,19,1010.1,-0.1,34,3,500,25.928,,,160,,,,,,,,,,,wg-a,,,,AAXX 22124 07481 12700 81614 10190 20030 39823 40101 58001 60006 8157/ 91200=
07481,1996-04-22 15:00:00,17,1009.2,-0.9,45,5,500,46.3,,66.672,200,,,,,,,,,,,wg-a,,,,AAXX 22154 07481 12700 82025 10170 20050 39813 40092 58009 60006 8287/ 91500 333 91036=
07481,1996-04-22 18:00:00,16,1009.3,-0,55,7,500,18.52,,,190,13.8,19.1,,,,,,,,2,wg-a,,,,AAXX 22184 07481 02700 71910 10160 20070 39813 40093 55000 61000 70262 8257/ 91800 333 10191 20138 ////=
07481,1996-04-22 21:00:00,15,1009.9,0.4,63,8,500,14.816,,,160,,,,,,,,,,,wg-a,,,,AAXX 22214 07481 12700 81608 10150 20080 39817 40099 50004 60006 8257/ 92100=
07481,1996-04-23 00:00:00,13,1009.8,-0.2,77,9,500,7.408,,,160,,,,,,,,,,,wg-a,,,,AAXX 23004 07481 12700 51604 10130 20090 39815 40098 58002 60006 81570 90000=
07481,1996-04-23 03:00:00,13,1009.6,-0.2,77,9,500,14.816,,,140,,,,,,,,,,,wg-a,,,,AAXX 23034 07481 12700 71408 10130 20090 39813 40096 58002 60006 8157/ 90300=
07481,1996-04-23 06:00:00,13,1010,0.4,82,10,20000,7.408,,,110,12.1,15.8,,,,,,,,,wg-a,,,,AAXX 23064 07481 02670 71104 10130 20100 39817 40100 51004 60006 8228/ 90600 333 10158 20121 61000=
07481,1996-04-23 09:00:00,14,1012.8,2.8,82,11,11000,14.816,,,250,,,,,,,,,,,wg-a,,,,AAXX 23094 07481 32/61 /2508 10140 20110 39845 40128 53028 90900=
07481,1996-04-23 12:00:00,12,1013.9,0.9,94,11,8000,11.112,,,80,,,,5,,,,,,61,wg-a,,,,AAXX 23124 07481 02358 80806 10120 20110 39854 40139 51009 60056 76162 8587/ 91200 333 60057=
07481,1996-04-23 15:00:00,11,1014.8,0.8,94,10,8000,3.704,,,150,,,,6,,,,,,61,wg-a,,,,AAXX 23154 07481 12258 81502 10110 20100 39862 40148 53008 60067 76166 8582/ 91500=
07481,1996-04-23 18:00:00,11,1016.8,1.9,87,9,8000,3.704,,,190,10.4,14.5,,3,,,,,,61,wg-a,,,,AAXX 23184 07481 12258 81902 10110 20090 39881 40168 51019 60037 76166 8582/ 91800 333 10145 20104=
07481,1996-04-23 21:00:00,9,1019.5,2.5,93,8,15000,7.408,,,230,,,,1,,,,,,2,wg-a,,,,AAXX 23214 07481 12265 72304 10090 20080 39906 40195 53025 60017 70262 8382/ 92100=
07481,1996-04-24 00:00:00,9,1020,0.4,93,8,15000,7.408,,,190,,,,,,,,,,1,wg-a,,,,AAXX 24004 07481 12765 71904 10090 20080 39910 40200 50004 60016 70162 8253/ 90000=
07481,1996-04-24 03:00:00,7,1020.4,0.2,93,6,3000,3.704,,,120,,,,,,,,,,12,wg-a,,,,AAXX 24034 07481 12430 /1202 10070 20060 39912 40204 53002 60006 71211 81600 90300=
07481,1996-04-24 06:00:00,7,1021.6,1.1,93,6,3500,3.704,,,210,4.8,10.5,,,,,16,,,10,wg-a,,,,AAXX 24064 07481 12435 32102 10070 20060 39923 40216 53011 60164 71041 83500 90600 333 10105 20048=
07481,1996-04-24 09:00:00,12,1021.9,0.9,76,8,18000,7.408,,,360,,,,,,,,,,,wg-a,,,,AAXX 24094 07481 12468 23604 10120 20080 39932 40219 51009 60006 82200 90900=
07481,1996-04-24 12:00:00,16,1021.7,0.1,45,4,50000,11.112,,,330,,,,,,,,,,,wg-a,,,,AAXX 24124 07481 12684 33306 10160 20040 39933 40217 51001 60006 83200 91200=
07481,1996-04-24 15:00:00,18,1020.6,-0.8,37,3,50000,11.112,,,330,,,,,,,,,,,wg-a,,,,AAXX 24154 07481 12684 43306 10180 20030 39924 40206 58008 60006 83801 91500=
07481,1996-04-24 18:00:00,16,1021.2,0.4,48,5,50000,14.816,,,350,6.7,17.8,,,,,,,,,wg-a,,,,AAXX 24184 07481 12784 33508 10160 20050 39928 40212 53004 60006 82801 91800 333 10178 20067=
07481,1996-04-24 21:00:00,11,1023.4,1.7,71,6,500,7.408,,,350,,,,,,,,,,,wg-a,,,,AAXX 24214 07481 12/00 13504 10110 20060 39945 40234 51017 60006 80001 92100=
07481,1996-04-25 00:00:00,9,1024.1,0.4,71,4,25000,11.112,,,310,,,,,,,,,,,wg-a,,,,AAXX 25004 07481 12/75 03106 10090 20040 39949 40241 50004 60006 80000 90000=
07481,1996-04-25 03:00:00,7,1023.8,-0.4,81,4,500,3.704,,,310,,,,,,,,,,,wg-a,,,,AAXX 25034 07481 12/00 03102 10070 20040 39945 40238 55004 60006 80000 90300=
07481,1996-04-25 06:00:00,7,1024.6,0.8,87,5,50000,3.704,,,20,6,15.5,,,,,,,,,wg-a,,,,AAXX 25064 07481 02/84 20202 10070 20050 39953 40246 53008 60006 81032 90600 333 10155 20060 60004=
07481,1996-04-25 09:00:00,13,1023.6,-0.3,62,6,50000,18.52,,,340,,,,,,,,,,,wg-a,,,,AAXX 25094 07481 12584 23410 10130 20060 39949 40236 58003 60006 81102 90900=
07481,1996-04-25 12:00:00,17,1022.1,-1.2,48,6,50000,25.928,,,340,,,,,,,,,,,wg-a,,,,AAXX 25124 07481 12684 /3414 10170 20060 39938 40221 58012 60006 81102 91200=
07481,1996-04-25 15:00:00,17,1021,-1,42,4,50000,25.928,,,360,,,,,,,,,,,wg-a,,,,AAXX 25154 07481 12684 /3614 10170 20040 39928 40210 58010 60006 82142 91500=
07481,1996-04-25 18:00:00,16,1020.6,-0.5,45,4,50000,22.224,,,350,7.3,17.8,,,,,,,,,wg-a,,,,AAXX 25184 07481 12684 /3512 10160 20040 39923 40206 55005 60006 85802 91800 333 10178 20073=
07481,1996-04-25 21:00:00,13,1021.4,0.4,58,5,50000,14.816,,,330,,,,,,,,,,,wg-a,,,,AAXX 25214 07481 12/84 23308 10130 20050 39927 40214 50004 60006 82040 92100=
07481,1996-04-26 00:00:00,10,1020.9,-0.7,71,5,50000,14.816,,,350,,,,,,,,,,,wg-a,,,,AAXX 26004 07481 12/84 13508 10100 20050 39920 40209 58007 60006 80001 90000=
07481,1996-04-26 03:00:00,8,1020.2,-0.9,81,5,40000,7.408,,,330,,,,,,,,,,,wg-a,,,,AAXX 26034 07481 12/82 03304 10080 20050 39911 40202 56009 60006 80000 90300=
07481,1996-04-26 06:00:00,8,1020,-0.2,81,5,25000,7.408,,,330,7,16.3,,,,,,,,,wg-a,,,,AAXX 26064 07481 02/75 43304 10080 20050 39909 40200 55002 60006 80001 90600 333 10163 20070 60004=
07481,1996-04-26 09:00:00,12,1019.2,-0.4,67,6,35000,0,,,0,,,,,,,,,,,wg-a,,,,AAXX 26094 07481 12/81 50000 10120 20060 39905 40192 58004 60006 80001 90900=
07481,1996-04-26 12:00:00,17,1016.8,-1.8,52,7,35000,11.112,,,10,,,,,,,,,,,wg-a,,,,AAXX 26124 07481 12/81 60106 10170 20070 39886 40168 58018 60006 80002 91200=
07481,1996-04-26 15:00:00,20,1014.1,-2.3,43,7,35000,14.816,,,350,,,,,,,,,,,wg-a,,,,AAXX 26154 07481 12881 73508 10200 20070 39863 40141 58023 60006 81042 91500=
07481,1996-04-26 18:00:00,19,1012.8,-1.4,46,7,35000,14.816,,,330,8.1,19.7,,,,,,,,,wg-a,,,,AAXX 26184 07481 12881 73308 10190 20070 39849 40128 56014 60006 84042 91800 333 10197 20081=
07481,1996-04-26 21:00:00,16,1013.1,-0,51,6,500,11.112,,,360,,,,,,,,,,,wg-a,,,,AAXX 26214 07481 12700 73606 10160 20060 39850 40131 54000 60006 82542 92100=
07481,1996-04-27 00:00:00,14,1012.9,-0.3,58,6,500,11.112,,,320,,,,,,,,,,,wg-a,,,,AAXX 27004 07481 12700 73206 10140 20060 39846 40129 58003 60006 82542 90000=
07481,1996-04-27 03:00:00,12,1012.5,-0.6,67,6,25000,3.704,,,280,,,,,,,,,,,wg-a,,,,AAXX 27034 07481 12775 72802 10120 20060 39840 40125 56006 60006 8257/ 90300=
07481,1996-04-27 06:00:00,12,1012.7,0.2,67,6,25000,3.704,,,330,11.3,18.7,,,,,,,,,wg-a,,,,AAXX 27064 07481 02775 73302 10120 20060 39842 40127 53002 60006 8257/ 90600 333 10187 20113 60004=
07481,1996-04-27 09:00:00,14,1012.5,0,58,6,25000,7.408,,,330,,,,,,,,,,,wg-a,,,,AAXX 27094 07481 12/75 73304 10140 20060 39842 40125 50000 60006 83032 90900=
07481,1996-04-27 12:00:00,19,1011.1,-0.9,46,7,25000,3.704,,,300,,,,,,,,,,,wg-a,,,,AAXX 27124 07481 12/75 73002 10190 20070 39833 40111 58009 60006 83082 91200=
07481,1996-04-27 15:00:00,19,1009.8,-1.2,46,7,25000,7.408,,,60,,,,,,,,,,,wg-a,,,,AAXX 27154 07481 12675 70604 10190 20070 39821 40098 56012 60006 82882 91500=
07481,1996-04-27 18:00:00,18,1009.9,-0,59,10,25000,11.112,,,230,11.6,19.5,,,,,,,,,wg-a,,,,AAXX 27184 07481 12/75 72306 10180 20100 39821 40099 55000 60006 82082 91800 333 10195 20116=
07481,1996-04-27 21:00:00,16,1010.9,0.8,68,10,500,11.112,,,190,,,,,,,,,,,wg-a,,,,AAXX 27214 07481 12/00 71906 10160 20100 39829 40109 50008 60006 8707/ 92100=
07481,1996-04-28 00:00:00,15,1010.5,-0.6,67,9,40000,7.408,,,180,,,,,,,,,,,wg-a,,,,AAXX 28004 07481 12/82 51804 10150 20090 39823 40105 58006 60006 85070 90000=
07481,1996-04-28 03:00:00,13,1009.7,-0.9,82,10,500,11.112,,,150,,,,,,,,,,,wg-a,,,,AAXX 28034 07481 12/00 61506 10130 20100 39814 40097 56009 60006 86070 90300=
07481,1996-04-28 06:00:00,13,1009.5,-0.2,88,11,12000,7.408,,,160,12.2,17.7,,,,,,,,,wg-a,,,,AAXX 28064 07481 02562 71604 10130 20110 39812 40095 57002 60006 8127/ 90600 333 10177 20122 60004=
07481,1996-04-28 09:00:00,15,1008.9,-0.3,82,12,10000,7.408,,,210,,,,,,,,,,1,wg-a,,,,AAXX 28094 07481 02660 72104 10150 20120 39809 40089 57003 61000 70162 8387/ 90900 333 ////=
07481,1996-04-28 12:00:00,19,1007.2,-1.4,60,11,18000,7.408,,,220,,,,,,,,,,1,wg-a,,,,AAXX 28124 07481 02668 /2204 10190 20110 39795 40072 58014 61000 70162 81230 91200 333 ////=
07481,1996-04-28 15:00:00,17,1006,-1.3,63,10,25000,22.224,,,220,,,,,,,,,,,wg-a,,,,AAXX 28154 07481 12675 72212 10170 20100 39782 40060 56013 60006 84232 91500=
07481,1996-04-28 18:00:00,15,1005.8,-0.3,72,10,500,14.816,,,230,13.3,20.2,,,,,,,,,wg-a,,,,AAXX 28184 07481 32600 72308 10150 20100 39778 40058 56003 8583/ 91800 333 10202 20133=
07481,1996-04-28 21:00:00,15,1006.9,0.8,72,10,20000,7.408,,,160,,,,,,,,,,,wg-a,,,,AAXX 28214 07481 12670 71604 10150 20100 39788 40069 51008 60006 8557/ 92100=
07481,1996-04-29 00:00:00,14,1006.7,-0.3,82,11,20000,3.704,,,120,,,,,,,,,,,wg-a,,,,AAXX 29004 07481 12670 71202 10140 20110 39785 40067 58003 60006 8457/ 90000=
07481,1996-04-29 03:00:00,12,1005.7,-1.1,94,11,15000,3.704,,,60,,,,1,,,,,,21,wg-a,,,,AAXX 29034 07481 12565 80602 10120 20110 39774 40057 56011 60017 72162 8357/ 90300=
07481,1996-04-29 06:00:00,12,1005.8,0.1,100,12,7000,0,,,0,11.5,15.3,,,,,1,,,1,wg-a,,,,AAXX 29064 07481 12457 70000 10120 20120 39775 40058 53001 60014 70162 8357/ 90600 333 10153 20115=
07481,1996-04-29 09:00:00,15,1005.6,0.1,82,12,8000,7.408,,,320,,,,,,,,,,,wg-a,,,,AAXX 29094 07481 12458 73204 10150 20120 39776 40056 51001 60006 865// 90900=
07481,1996-04-29 12:00:00,16,1004.1,-1.3,82,13,12000,11.112,,,350,,,,0,,,,,,21,wg-a,,,,AAXX 29124 07481 02562 73506 10160 20130 39763 40041 58013 60016 72162 8587/ 91200 333 60007=
07481,1996-04-29 15:00:00,18,1002.1,-1.8,68,12,8000,14.816,,,20,,,,,,,,,,,wg-a,,,,AAXX 29154 07481 12558 80208 10180 20120 39745 40021 56018 60006 85972 91500=
07481,1996-04-29 18:00:00,14,1003.5,1,94,13,3000,11.112,,,230,11.9,18.3,,4,,,,,,80,wg-a,,,,AAXX 29184 07481 12330 82306 10140 20130 39755 40035 51010 60047 78098 889// 91800 333 10183 20119=
07481,1996-04-29 21:00:00,12,1005.1,1.4,100,12,8000,7.408,,,180,,,,43,,,,,,81,wg-a,,,,AAXX 29214 07481 12458 81804 10120 20120 39769 40051 51014 60437 78199 8687/ 92100=
07481,1996-04-30 00:00:00,12,1005,-0.2,94,11,10000,7.408,,,200,,,,1,,,,,,61,wg-a,,,,AAXX 30004 07481 02460 82004 10120 20110 39767 40050 58002 60446 76196 8587/ 90000 333 60017=
07481,1996-04-30 03:00:00,12,1004,-0.9,94,11,8000,3.704,,,310,,,,1,,,,,,21,wg-a,,,,AAXX 30034 07481 12458 83102 10120 20110 39758 40040 56009 60017 72162 8587/ 90300=
07481,1996-04-30 04:00:00,11,1004.7,0.6,94,10,2700,7.408,,,310,11,14,,,,,49,,,10,wg-a,,,,AAXX 30044 07481 12327 73104 10110 20100 39764 40047 53006 60494 71062 8587/ 90400 333 10140 20110=
07481,1996-04-30 06:00:00,11,1004.7,0.6,94,10,2700,7.408,,,310,11,14,,,,,49,,,10,wg-a,,,,AAXX 30064 07481 12327 73104 10110 20100 39764 40047 53006 60494 71062 8587/ 90600 333 10140 20110=
07481,1996-04-30 09:00:00,14,1004.9,0.4,77,10,7000,14.816,,,360,,,,,,,,,,,wg-a,,,,AAXX 30094 07481 12457 /3608 10140 20100 39768 40049 51004 60006 85231 90900=
07481,1996-04-30 12:00:00,16,1003.5,-1.2,68,10,12000,11.112,,,320,,,,,,,,,,,wg-a,,,,AAXX 30124 07481 12562 73206 10160 20100 39757 40035 58012 60006 878// 91200=
07481,1996-04-30 15:00:00,18,1001.4,-1.9,56,9,18000,7.408,,,350,,,,,,,,,,,wg-a,,,,AAXX 30154 07481 12668 33504 10180 20090 39738 40014 57019 60006 81230 91500=
07481,1996-04-30 18:00:00,16,1001.1,-0.4,63,9,15000,7.408,,,360,11.1,18.4,,,,,,,,,wg-a,,,,AAXX 30184 07481 12765 63604 10160 20090 39734 40011 56004 60006 81530 91800 333 10184 20111=
07481,1996-04-30 21:00:00,13,1002,0.5,82,10,13000,0,,,0,,,,,,,,,,,wg-a,,,,AAXX 30214 07481 12/63 40000 10130 20100 39739 40020 50005 60006 84030 92100=
07481,1996-05-01 00:00:00,11,1002.2,-0,87,9,12000,7.408,,,230,,,,,,,,,,,wg-a,,,,AAXX 01004 07481 12/62 52304 10110 20090 39739 40022 55000 60006 83032 90000=
07481,1996-05-01 03:00:00,11,1001.4,-0.7,82,8,8000,7.408,,,180,,,,,,,,,,,wg-a,,,,AAXX 01034 07481 12/58 /1804 10110 20080 39732 40014 56007 60006 84032 90300=
07481,1996-05-01 06:00:00,11,1002.1,0.6,82,8,8000,7.408,,,240,10.5,16.3,,,,,,,,,wg-a,,,,AAXX 01064 07481 02658 72404 10110 20080 39738 40021 51006 60006 82282 90600 333 10163 20105 60004=
07481,1996-05-01 09:00:00,12,1002.6,0.6,88,10,6000,7.408,,,220,,,,0,,,,,,61,wg-a,,,,AAXX 01094 07481 12756 82204 10120 20100 39744 40026 53006 60007 76162 8557/ 90900=
07481,1996-05-01 12:00:00,14,1001.3,-1.1,77,10,8000,7.408,,,10,,,,1,,,,,,3,wg-a,,,,AAXX 01124 07481 02458 70104 10140 20100 39733 40013 57011 60016 70362 8587/ 91200 333 60017=
07481,1996-05-01 15:00:00,15,998.9,-2.2,72,10,12000,7.408,,,40,,,,,,,,,,,wg-a,,,,AAXX 01154 07481 12562 70404 10150 20100 39711 49989 58022 60006 8587/ 91500=
07481,1996-05-01 18:00:00,11,1000.5,1.2,94,10,15000,18.52,,,80,10.8,15.2,,1,,,,,,95,wg-a,,,,AAXX 01184 07481 12365 70810 10110 20100 39723 40005 51012 60017 79598 8697/ 91800 333 10152 20108=
07481,1996-05-01 21:00:00,10,1001.2,0.6,93,9,13000,18.52,,,140,,,,1,,,,,,60,wg-a,,,,AAXX 01214 07481 12363 81410 10100 20090 39729 40012 51006 60017 76098 8487/ 92100=
07481,1996-05-02 00:00:00,10,1000.5,-0.7,93,9,11000,7.408,,,150,,,,,,,,,,,wg-a,,,,AAXX 02004 07481 12/61 /1504 10100 20090 39722 40005 58007 60016 90000=
07481,1996-05-02 03:00:00,10,999.4,-1.1,87,8,15000,14.816,,,170,,,,,,,,,,,wg-a,,,,AAXX 02034 07481 12/65 11708 10100 20080 39711 49994 56011 60006 8103/ 90300=
07481,1996-05-02 06:00:00,11,998.7,-0.6,82,8,15000,18.52,,,170,9.2,11.1,,,,,2,,,,wg-a,,,,AAXX 02064 07481 12465 71710 10110 20080 39705 49987 56006 60024 8353/ 90600 333 10111 20092=
07481,1996-05-02 09:00:00,13,998.3,-0.2,67,7,15000,11.112,,,200,,,,,,,,,,,wg-a,,,,AAXX 02094 07481 12465 /2006 10130 20070 39703 49983 55002 60006 8323/ 90900=
07481,1996-05-02 12:00:00,7,1000.8,1.9,93,6,7000,22.224,,,250,,,,6,,,,,,81,wg-a,,,,AAXX 02124 07481 02257 82512 10070 20060 39722 40008 53019 60066 78198 8697/ 91200 333 60067=
07481,1996-05-02 15:00:00,9,1001.6,0.9,87,7,15000,22.224,,,130,,,,4,,,,,,25,wg-a,,,,AAXX 02154 07481 12365 71312 10090 20070 39731 40016 52009 60047 72598 8487/ 91500=
07481,1996-05-02 18:00:00,10,1001.5,-0,76,6,500,14.816,,,150,7.1,14.6,,,,,,,,1,wg-a,,,,AAXX 02184 07481 32400 /1508 10100 20060 39731 40015 55000 70198 82973 91800 333 10146 20071=
07481,1996-05-02 21:00:00,8,1002.2,0.5,87,6,500,11.112,,,160,,,,,,,,,,,wg-a,,,,AAXX 02214 07481 32/00 01606 10080 20060 39736 40022 52005 80000 92100=
07481,1996-05-03 00:00:00,7,1001.8,-0.5,87,5,500,14.816,,,160,,,,,,,,,,,wg-a,,,,AAXX 03004 07481 12800 11608 10070 20050 39731 40018 58005 60006 81040 90000=
07481,1996-05-03 03:00:00,7,1001.1,-0.7,81,4,500,11.112,,,140,,,,,,,,,,,wg-a,,,,AAXX 03034 07481 12800 41406 10070 20040 39724 40011 56007 60006 83041 90300=
07481,1996-05-03 06:00:00,8,1001.7,0.7,81,5,500,22.224,,,180,6,10.7,,,,,10,,,1,wg-a,,,,AAXX 03064 07481 02700 71812 10080 20050 39731 40017 53007 60104 70161 83572 90600 333 10107 20060 61000=
07481,1996-05-03 09:00:00,10,1002.3,0.8,76,6,500,25.928,,46.3,190,,,,0,,,,,,91,wg-a,,,,AAXX 03094 07481 12500 71914 10100 20060 39739 40023 53008 60007 79198 8587/ 90900 333 91025=
07481,1996-05-03 12:00:00,14,1002.1,0.3,58,6,25000,35.188,,57.412,190,,,,0,,,,,,3,wg-a,,,,AAXX 03124 07481 02575 71919 10140 20060 39741 40021 51003 60016 70398 879// 91200 333 60007 91031=
07481,1996-05-03 15:00:00,15,1002.2,0.1,59,7,50000,31.484,,50.004,190,,,,0,,,,,,3,wg-a,,,,AAXX 03154 07481 12684 51917 10150 20070 39743 40022 51001 60007 70386 85902 91500 333 91027=
07481,1996-05-03 18:00:00,10,1005.8,3,87,8,50000,11.112,,,60,8.2,15.7,,1,,,,,,3,wg-a,,,,AAXX 03184 07481 12684 70606 10100 20080 39773 40058 51030 60017 70398 879// 91800 333 10157 20082=
07481,1996-05-03 21:00:00,9,1009,3,87,7,40000,11.112,,,140,,,,,,,,,,,wg-a,,,,AAXX 03214 07481 12782 /1406 10090 20070 39803 40090 51030 60006 82460 92100=
07481,1996-05-04 00:00:00,9,1010.2,1.1,93,8,500,11.112,,,170,,,,0,,,,,,25,wg-a,,,,AAXX 04004 07481 02500 /1706 10090 20080 39814 40102 51011 60006 72586 878// 90000 333 60007=
07481,1996-05-04 03:00:00,8,1011,0.7,93,7,500,7.408,,,150,,,,,,,,,,,wg-a,,,,AAXX 04034 07481 12600 /1504 10080 20070 39821 40110 53007 60006 86800 90300=
07481,1996-05-04 06:00:00,8,1012.5,1.6,100,8,15000,3.704,,,340,7.5,10.6,,,,,2,,,,wg-a,,,,AAXX 04064 07481 12665 73402 10080 20080 39837 40125 53016 60024 878// 90600 333 10106 20075=
07481,1996-05-04 09:00:00,13,1013.1,1,82,10,11000,3.704,,,120,,,,,,,,,,,wg-a,,,,AAXX 04094 07481 12/61 /1202 10130 20100 39847 40131 52010 60006 90900=
07481,1996-05-04 12:00:00,16,1013.3,0.4,51,6,25000,7.408,,,20,,,,,,,,,,,wg-a,,,,AAXX 04124 07481 12575 /0204 10160 20060 39851 40133 51004 60006 83801 91200=
07481,1996-05-04 15:00:00,17,1012.6,-0.5,45,5,40000,7.408,,,50,,,,,,,,,,,wg-a,,,,AAXX 04154 07481 12582 /0504 10170 20050 39846 40126 58005 60006 82201 91500=
07481,1996-05-04 18:00:00,14,1013.5,0.6,67,8,40000,14.816,,,10,8.4,17.6,,,,,,,,,wg-a,,,,AAXX 04184 07481 12682 /0108 10140 20080 39852 40135 53006 60006 81401 91800 333 10176 20084=
07481,1996-05-04 21:00:00,11,1015,1.2,82,8,25000,3.704,,,300,,,,,,,,,,,wg-a,,,,AAXX 04214 07481 12675 /3002 10110 20080 39864 40150 53012 60006 82530 92100=
07481,1996-05-05 00:00:00,10,1015.4,0.2,82,7,25000,7.408,,,320,,,,,,,,,,,wg-a,,,,AAXX 05004 07481 12675 73204 10100 20070 39866 40154 53002 60006 8353/ 90000=
07481,1996-05-05 03:00:00,8,1015.4,-0.2,87,6,25000,3.704,,,340,,,,,,,,,,,wg-a,,,,AAXX 05034 07481 12/75 33402 10080 20060 39864 40154 56002 60006 83030 90300=
07481,1996-05-05 06:00:00,8,1015.8,0.4,87,6,15000,3.704,,,340,7.1,13.9,,,,,,,,,wg-a,,,,AAXX 05064 07481 02/65 33402 10080 20060 39868 40158 53004 60006 82081 90600 333 10139 20071 60004=
07481,1996-05-05 09:00:00,13,1015.1,-0.2,72,8,15000,3.704,,,170,,,,,,,,,,,wg-a,,,,AAXX 05094 07481 12665 /1702 10130 20080 39866 40151 58002 60006 81231 90900=
07481,1996-05-05 12:00:00,17,1013.3,-1.3,59,9,15000,3.704,,,290,,,,,,,,,,,wg-a,,,,AAXX 05124 07481 12665 72902 10170 20090 39853 40133 58013 60006 81202 91200=
07481,1996-05-05 15:00:00,20,1011.4,-1.6,43,7,25000,11.112,,,200,,,,,,,,,,,wg-a,,,,AAXX 05154 07481 12675 /2006 10200 20070 39837 40114 57016 60006 81202 91500=
07481,1996-05-05 18:00:00,19,1010.6,-0.8,52,9,25000,7.408,,,20,7.9,21.1,,,,,,,,,wg-a,,,,AAXX 05184 07481 12775 10204 10190 20090 39829 40106 56008 60006 81202 91800 333 10211 20079=
07481,1996-05-05 21:00:00,14,1011.6,0.4,67,8,25000,11.112,,,130,,,,,,,,,,,wg-a,,,,AAXX 05214 07481 12/75 01306 10140 20080 39833 40116 52004 60006 80000 92100=
07481,1996-05-06 00:00:00,14,1012.2,0.6,67,8,25000,7.408,,,190,,,,,,,,,,,wg-a,,,,AAXX 06004 07481 12/75 01904 10140 20080 39839 40122 50006 60006 80000 90000=
07481,1996-05-06 03:00:00,12,1011.9,-0.4,71,7,25000,11.112,,,150,,,,,,,,,,,wg-a,,,,AAXX 06034 07481 12/75 61506 10120 20070 39835 40119 56004 60006 83032 90300=
07481,1996-05-06 06:00:00,13,1011.9,-0,77,9,25000,7.408,,,120,10.6,19.2,,,,,,,,,wg-a,,,,AAXX 06064 07481 02/75 01204 10130 20090 39835 40119 55000 60006 80000 90600 333 10192 20106 60004=
07481,1996-05-06 09:00:00,18,1010.7,-0.7,59,10,500,14.816,,,170,,,,,,,,,,,wg-a,,,,AAXX 06094 07481 12600 11708 10180 20100 39828 40107 58007 60006 81100 90900=
07481,1996-05-06 12:00:00,21,1009,-1.3,46,9,45000,22.224,,,180,,,,,,,,,,,wg-a,,,,AAXX 06124 07481 12683 /1812 10210 20090 39815 40090 58013 60006 81100 91200=
07481,1996-05-06 15:00:00,23,1007.1,-1.7,44,10,45000,25.928,,,200,,,,,,,,,,,wg-a,,,,AAXX 06154 07481 12683 /2014 10230 20100 39798 40071 58017 60006 81100 91500=
07481,1996-05-06 18:00:00,21,1007,-0.3,46,9,45000,18.52,,,210,12.8,23,,,,,,,,,wg-a,,,,AAXX 06184 07481 12683 /2110 10210 20090 39795 40070 55003 60006 81101 91800 333 10230 20128=
07481,1996-05-06 21:00:00,17,1009.3,1.9,63,10,40000,18.52,,,170,,,,,,,,,,,wg-a,,,,AAXX 06214 07481 12/82 11710 10170 20100 39814 40093 53019 60006 80001 92100=
07481,1996-05-07 00:00:00,15,1009.2,-0.3,72,10,40000,11.112,,,160,,,,,,,,,,,wg-a,,,,AAXX 07004 07481 12/82 11606 10150 20100 39811 40092 58003 60006 80001 90000=
07481,1996-05-07 03:00:00,13,1008.6,-0.8,88,11,500,11.112,,,100,,,,,,,,,,,wg-a,,,,AAXX 07034 07481 12/00 51006 10130 20110 39803 40086 56008 60006 85030 90300=
07481,1996-05-07 06:00:00,14,1009.1,0.6,77,10,27000,11.112,,,140,12.1,20.7,,,,,,,,,wg-a,,,,AAXX 07064 07481 02777 71406 10140 20100 39809 40091 53006 60006 8257/ 90600 333 10207 20121 60004=
07481,1996-05-07 09:00:00,17,1008.7,-0.1,68,11,20000,18.52,,,160,,,,,,,,,,,wg-a,,,,AAXX 07094 07481 12570 71610 10170 20110 39808 40087 58001 60006 8187/ 90900=
07481,1996-05-07 12:00:00,20,1007.6,-0.6,53,10,500,7.408,,,220,,,,,,,,,,,wg-a,,,,AAXX 07124 07481 12600 72204 10200 20100 39801 40076 56006 60006 81282 91200=
07481,1996-05-07 15:00:00,18,1007.7,-0.2,68,12,40000,7.408,,,240,,,,,,,,,,25,wg-a,,,,AAXX 07154 07481 02682 72404 10180 20120 39800 40077 58002 61000 72562 81272 91500 333 ////=
07481,1996-05-07 18:00:00,18,1008.6,0.9,73,13,40000,7.408,,,80,14,21.1,,,,,,,,1,wg-a,,,,AAXX 07184 07481 32582 70804 10180 20130 39808 40086 52009 70186 84232 91800 333 10211 20140=
07481,1996-05-07 21:00:00,15,1010.1,1.2,88,13,25000,11.112,,,150,,,,,,,,,,,wg-a,,,,AAXX 07214 07481 12675 21506 10150 20130 39820 40101 51012 60006 81532 92100=
07481,1996-05-08 00:00:00,14,1010.8,0.6,82,11,20000,7.408,,,140,,,,,,,,,,,wg-a,,,,AAXX 08004 07481 12/70 31404 10140 20110 39826 40108 51006 60006 83030 90000=
07481,1996-05-08 03:00:00,12,1011.3,0.3,88,10,20000,7.408,,,90,,,,,,,,,,13,wg-a,,,,AAXX 08034 07481 12570 40904 10120 20100 39829 40113 52003 60006 71300 81130 90300=
07481,1996-05-08 06:00:00,13,1012,0.7,88,11,20000,7.408,,,140,11.2,17.6,,,,,,,,,wg-a,,,,AAXX 08064 07481 02570 41404 10130 20110 39836 40120 52007 60006 81131 90600 333 10176 20112 61000=
07481,1996-05-08 09:00:00,15,1012.3,0.5,82,12,10000,3.704,,,330,,,,,,,,,,,wg-a,,,,AAXX 08094 07481 12560 73302 10150 20120 39841 40123 51005 60006 8483/ 90900=
07481,1996-05-08 12:00:00,12,1012.9,0.4,94,11,12000,14.816,,,220,,,,1,,,,,,61,wg-a,,,,AAXX 08124 07481 02462 82208 10120 20110 39845 40129 53004 60016 76161 8587/ 91200 333 60017=
07481,1996-05-08 15:00:00,14,1011.6,-1.1,88,12,15000,3.704,,,70,,,,7,,,,,,21,wg-a,,,,AAXX 08154 07481 12365 70702 10140 20120 39834 40116 56011 60077 72162 8537/ 91500=
07481,1996-05-08 18:00:00,15,1010.8,-0.7,88,13,15000,7.408,,,90,11.8,16,,,,,,,,1,wg-a,,,,AAXX 08184 07481 32465 /0904 10150 20130 39827 40108 56007 70162 83831 91800 333 10160 20118=
07481,1996-05-08 21:00:00,14,1011.6,0.6,88,12,15000,3.704,,,90,,,,,,,,,,,wg-a,,,,AAXX 08214 07481 12665 70902 10140 20120 39833 40116 51006 60006 8153/ 92100=
07481,1996-05-09 03:00:00,12,1009.6,-1.3,100,12,8000,11.112,,,10,,,,,,,,,,60,wg-a,,,,AAXX 09034 07481 02258 80106 10120 20120 39813 40096 56013 61000 76062 8687/ 90300 333 ////=
07481,1996-05-09 06:00:00,12,1009,-0.6,100,12,2000,7.408,,,330,12.2,14.8,,1,,,10,,,61,wg-a,,,,AAXX 09064 07481 02220 83304 10120 20120 39807 40090 56006 60104 76162 877// 90600 333 10148 20122 60017=
07481,1996-05-09 09:00:00,11,1009.6,0.5,100,11,3500,22.224,,,350,,,,2,,,,,,10,wg-a,,,,AAXX 09094 07481 12135 83512 10110 20110 39812 40096 53005 60027 71066 877// 90900=
07481,1996-05-09 12:00:00,12,1009.3,-0.2,88,10,4500,22.224,,,350,,,,0,,,,,,10,wg-a,,,,AAXX 09124 07481 02245 83512 10120 20100 39809 40093 58002 60036 71066 877// 91200 333 60007=
07481,1996-05-09 15:00:00,11,1009,-0.4,87,9,6000,25.928,,,340,,,,0,,,,,,50,wg-a,,,,AAXX 09154 07481 12456 83414 10110 20090 39806 40090 58004 60007 75065 875// 91500=
07481,1996-05-09 18:00:00,10,1009.4,0.2,87,8,7000,22.224,,42.596,340,10.4,12.5,,,,,,,,2,wg-a,,,,AAXX 09184 07481 02457 83412 10100 20080 39808 40094 53002 61000 70265 875// 91800 333 10125 20104 //// 91023=
07481,1996-05-09 21:00:00,9,1009.9,0.4,87,7,8000,22.224,,,350,,,,,,,,,,,wg-a,,,,AAXX 09214 07481 12458 83512 10090 20070 39812 40099 51004 60006 885// 92100=
07481,1996-05-10 00:00:00,8,1009.4,-0.6,87,6,12000,18.52,,,330,,,,,,,,,,,wg-a,,,,AAXX 10004 07481 12462 83310 10080 20060 39806 40094 58006 60006 886// 90000=
07481,1996-05-10 03:00:00,8,1008.3,-1.1,87,6,10000,14.816,,,340,,,,,,,,,,,wg-a,,,,AAXX 10034 07481 12360 83408 10080 20060 39795 40083 56011 60006 886// 90300=
07481,1996-05-10 06:00:00,7,1008.3,-0.1,93,6,9000,11.112,,,340,7.1,10.4,,,,,3,,,,wg-a,,,,AAXX 10064 07481 02359 83406 10070 20060 39794 40083 55001 60006 886// 90600 333 10104 20071 60034=
07481,1996-05-10 09:00:00,7,1008.7,0.4,93,6,9000,14.816,,,330,,,,,,,,,,20,wg-a,,,,AAXX 10094 07481 02359 83308 10070 20060 39798 40087 52004 61000 72052 886// 90900 333 ////=
07481,1996-05-10 12:00:00,9,1008.4,-0.1,81,6,12000,11.112,,,340,,,,,,,,,,1,wg-a,,,,AAXX 10124 07481 02462 83406 10090 20060 39797 40084 58001 61000 70152 885// 91200 333 ////=
07481,1996-05-10 15:00:00,10,1007.9,-0.4,82,7,10000,14.816,,,330,,,,,,,,,,,wg-a,,,,AAXX 10154 07481 12460 83308 10100 20070 39793 40079 58004 60006 885// 91500=
07481,1996-05-10 18:00:00,10,1008.1,0.2,82,7,10000,11.112,,,330,6.9,10.2,,,,,,,,,wg-a,,,,AAXX 10184 07481 32460 83306 10100 20070 39795 40081 53002 875// 91800 333 10102 20069=
07481,1996-05-10 21:00:00,10,1009.1,1,82,7,10000,11.112,,,330,,,,,,,,,,,wg-a,,,,AAXX 10214 07481 12560 83306 10100 20070 39805 40091 52010 60006 875// 92100=
07481,1996-05-11 00:00:00,9,1009.2,-0,81,6,13000,7.408,,,340,,,,,,,,,,,wg-a,,,,AAXX 11004 07481 12463 83404 10090 20060 39805 40092 55000 60006 875// 90000=
07481,1996-05-11 03:00:00,8,1009.4,0.1,87,6,12000,7.408,,,340,,,,,,,,,,,wg-a,,,,AAXX 11034 07481 12462 83404 10080 20060 39806 40094 53001 60006 875// 90300=
07481,1996-05-11 06:00:00,8,1009.7,0.3,87,6,12000,11.112,,,340,8,10.1,,,,,,,,,wg-a,,,,AAXX 11064 07481 02462 83406 10080 20060 39809 40097 53003 60006 878// 90600 333 10101 20080 61000=
07481,1996-05-11 09:00:00,10,1009.4,-0.1,82,7,12000,7.408,,,10,,,,,,,,,,,wg-a,,,,AAXX 11094 07481 12462 70104 10100 20070 39808 40094 58001 60006 872// 90900=
07481,1996-05-11 12:00:00,14,1008.3,-0.7,72,9,12000,11.112,,,340,,,,,,,,,,,wg-a,,,,AAXX 11124 07481 12562 /3406 10140 20090 39802 40083 58007 60006 85201 91200=
07481,1996-05-11 15:00:00,16,1007.1,-0.9,59,8,18000,14.816,,,10,,,,,,,,,,,wg-a,,,,AAXX 11154 07481 12568 70108 10160 20080 39792 40071 58009 60006 878// 91500=
07481,1996-05-11 18:00:00,15,1008.3,1.1,63,8,20000,22.224,,,360,8.1,16.5,,,,,,,,,wg-a,,,,AAXX 11184 07481 12670 83612 10150 20080 39802 40083 53011 60006 8557/ 91800 333 10165 20081=
07481,1996-05-11 21:00:00,13,1009.8,1.2,72,8,15000,14.816,,,340,,,,,,,,,,,wg-a,,,,AAXX 11214 07481 12665 83408 10130 20080 39815 40098 51012 60006 875// 92100=
07481,1996-05-12 00:00:00,12,1009.7,-0.2,76,8,15000,14.816,,,340,,,,,,,,,,,wg-a,,,,AAXX 12004 07481 12665 83408 10120 20080 39813 40097 58002 60006 875// 90000=
07481,1996-05-12 03:00:00,11,1010.2,0.4,82,8,12000,14.816,,,340,,,,,,,,,,,wg-a,,,,AAXX 12034 07481 12662 83408 10110 20080 39817 40102 53004 60006 8357/ 90300=
07481,1996-05-12 06:00:00,11,1011,0.8,82,8,10000,18.52,,,330,10.5,14.5,,,,,,,,,wg-a,,,,AAXX 12064 07481 02460 83310 10110 20080 39825 40110 52008 60006 885// 90600 333 10145 20105 60004=
07481,1996-05-12 09:00:00,11,1012,1,82,8,10000,22.224,,,340,,,,,,,,,,,wg-a,,,,AAXX 12094 07481 12460 83412 10110 20080 39835 40120 52010 60006 885// 90900=
07481,1996-05-12 12:00:00,12,1013.1,1.1,76,8,10000,25.928,,,340,,,,,,,,,,60,wg-a,,,,AAXX 12124 07481 02460 83414 10120 20080 39846 40131 53011 61000 76062 885// 91200 333 6100=
07481,1996-05-12 15:00:00,11,1014.2,1,87,9,10000,22.224,,,330,,,,1,,,,,,21,wg-a,,,,AAXX 12154 07481 12460 83312 10110 20090 39856 40142 52010 60017 72162 885// 91500=
07481,1996-05-12 18:00:00,10,1016.2,1.8,93,9,7000,22.224,,,340,10,11.8,,1,,,,,,61,wg-a,,,,AAXX 12184 07481 12457 83412 10100 20090 39874 40162 53018 60017 76162 8657/ 91800 333 10118 20100=
07481,1996-05-12 21:00:00,10,1018.1,1.8,87,8,7000,29.632,,,340,,,,1,,,,,,21,wg-a,,,,AAXX 12214 07481 12557 83416 10100 20080 39892 40181 51018 60017 72162 8457/ 92100=
07481,1996-05-13 00:00:00,9,1018.4,0.3,93,8,7000,25.928,,,330,,,,1,,,,,,60,wg-a,,,,AAXX 13004 07481 02557 83314 10090 20080 39895 40184 51003 60026 76062 8457/ 90000 333 60017=
07481,1996-05-13 03:00:00,8,1018.7,0.2,93,7,8000,22.224,,,330,,,,1,,,,,,61,wg-a,,,,AAXX 13034 07481 12358 83312 10080 20070 39897 40187 50002 60017 76166 875// 90300=
07481,1996-05-13 06:00:00,9,1019.6,0.9,87,7,10000,25.928,,,340,8.3,10,,0,,,5,,,3,wg-a,,,,AAXX 13064 07481 02360 83414 10090 20070 39906 40196 53009 60054 70362 877// 90600 333 10100 20083 60007=
07481,1996-05-13 09:00:00,9,1019.8,0.1,87,7,10000,25.928,,,340,,,,,,,,,,,wg-a,,,,AAXX 13094 07481 12460 83414 10090 20070 39908 40198 50001 60006 875// 90900=
07481,1996-05-13 12:00:00,11,1019.3,-0.2,76,7,13000,25.928,,,340,,,,,,,,,,,wg-a,,,,AAXX 13124 07481 12463 73414 10110 20070 39905 40193 58002 60006 875// 91200=
07481,1996-05-13 15:00:00,11,1019.2,-0.1,82,8,7000,29.632,,,340,,,,,,,,,,,wg-a,,,,AAXX 13154 07481 12457 73416 10110 20080 39904 40192 55001 60006 878// 91500=
07481,1996-05-13 18:00:00,9,1019.8,0.4,93,8,7000,22.224,,,340,8.5,11.6,,,,,,,,,wg-a,,,,AAXX 13184 07481 12357 83412 10090 20080 39908 40198 52004 60006 876// 91800 333 10116 20085=
07481,1996-05-13 21:00:00,9,1019.8,0,87,7,6000,14.816,,,340,,,,,,,,,,,wg-a,,,,AAXX 13214 07481 12256 83408 10090 20070 39908 40198 50000 60006 886// 92100=
07481,1996-05-14 00:00:00,9,1018.5,-1.2,87,7,8000,11.112,,,340,,,,,,,,,,,wg-a,,,,AAXX 14004 07481 12458 83406 10090 20070 39896 40185 56012 60006 875// 90000=
07481,1996-05-14 03:00:00,9,1018.1,-0.5,87,7,8000,14.816,,,340,,,,,,,,,,,wg-a,,,,AAXX 14034 07481 12458 83408 10090 20070 39891 40181 58005 60006 875// 90300=
07481,1996-05-14 06:00:00,9,1016.6,-1.4,87,7,500,7.408,,,340,8.5,9.5,,,,,,,,,wg-a,,,,AAXX 14064 07481 02300 83404 10090 20070 39877 40166 58014 60006 886// 90600 333 10095 20085 60004=
07481,1996-05-14 09:00:00,10,1016.1,-0.4,87,8,500,14.816,,,330,,,,,,,,,,,wg-a,,,,AAXX 14094 07481 12/00 /3308 10100 20080 39873 40161 57004 60006 90900=
07481,1996-05-14 12:00:00,11,1015.2,-0.9,87,9,6000,11.112,,,320,,,,,,,,,,,wg-a,,,,AAXX 14124 07481 12356 83206 10110 20090 39865 40152 58009 60006 886// 91200=
07481,1996-05-14 15:00:00,14,1013.6,-1.1,72,9,9000,7.408,,,340,,,,,,,,,,,wg-a,,,,AAXX 14154 07481 12459 83404 10140 20090 39853 40136 58011 60006 875// 91500=
07481,1996-05-14 18:00:00,14,1013,-0.6,72,9,10000,11.112,,,360,8.7,14.8,,,,,,,,,wg-a,,,,AAXX 14184 07481 12560 /3606 10140 20090 39847 40130 56006 60006 875// 91800 333 10148 20087=
07481,1996-05-14 21:00:00,12,1013.1,-0,94,11,10000,3.704,,,330,,,,,,,,,,,wg-a,,,,AAXX 14214 07481 12460 73302 10120 20110 39847 40131 54000 60006 875// 92100=
07481,1996-05-15 00:00:00,11,1011.9,-1.4,94,10,10000,11.112,,,310,,,,,,,,,,,wg-a,,,,AAXX 15004 07481 12560 73106 10110 20100 39833 40119 58014 60006 875// 90000=
07481,1996-05-15 03:00:00,11,1011.3,-0.5,94,10,6000,3.704,,,330,,,,,,,,,,,wg-a,,,,AAXX 15034 07481 12/56 /3302 10110 20100 39828 40113 58005 60006 90300=
07481,1996-05-15 06:00:00,12,1011.5,0.2,88,10,7000,3.704,,,350,10.7,13.7,,,,,,,,,wg-a,,,,AAXX 15064 07481 02457 73502 10120 20100 39830 40115 53002 60006 875// 90600 333 10137 20107 60004=
07481,1996-05-15 09:00:00,14,1011.1,-0.1,72,9,12000,3.704,,,10,,,,,,,,,,,wg-a,,,,AAXX 15094 07481 12462 70102 10140 20090 39829 40111 58001 60006 875// 90900=
07481,1996-05-15 12:00:00,17,1010.3,-0.5,63,10,10000,3.704,,,10,,,,,,,,,,,wg-a,,,,AAXX 15124 07481 12560 80102 10170 20100 39824 40103 58005 60006 875// 91200=
07481,1996-05-15 15:00:00,19,1009.3,-0.9,60,11,15000,7.408,,,20,,,,,,,,,,,wg-a,,,,AAXX 15154 07481 12565 20204 10190 20110 39816 40093 58009 60006 82100 91500=
07481,1996-05-15 18:00:00,18,1008.9,-0.4,68,12,12000,7.408,,,360,11.8,18.9,,,,,,,,,wg-a,,,,AAXX 15184 07481 12/62 13604 10180 20120 39811 40089 55004 60006 81030 91800 333 10189 20118=
07481,1996-05-15 21:00:00,15,1010.3,1.1,82,12,12000,7.408,,,360,,,,,,,,,,,wg-a,,,,AAXX 15214 07481 12/62 33604 10150 20120 39822 40103 52011 60006 83032 92100=
07481,1996-05-16 00:00:00,12,1010.6,0,94,11,12000,3.704,,,270,,,,,,,,,,,wg-a,,,,AAXX 16004 07481 12/62 22702 10120 20110 39822 40106 50000 60006 80001 90000=
07481,1996-05-16 03:00:00,12,1010.7,0.1,94,11,6000,3.704,,,20,,,,,,,,,,,wg-a,,,,AAXX 16034 07481 12156 80202 10120 20110 39823 40107 53001 60006 886// 90300=
07481,1996-05-16 06:00:00,12,1010.9,0.2,94,11,1000,7.408,,,150,10.9,18.2,,,,,,,,10,wg-a,,,,AAXX 16064 07481 02110 81504 10120 20110 39825 40109 50002 60006 71011 886// 90600 333 10182 20109 60004=
07481,1996-05-16 09:00:00,19,1009.1,-1.2,64,12,15000,22.224,,,190,,,,,,,,,,3,wg-a,,,,AAXX 16094 07481 12465 /1912 10190 20120 39814 40091 58012 60006 70341 81100 90900=
07481,1996-05-16 12:00:00,23,1007.4,-1.3,36,7,40000,25.928,,44.448,200,,,,,,,,,,1,wg-a,,,,AAXX 16124 07481 12582 /2014 10230 20070 39800 40074 58013 60006 70141 81100 91200 333 91024=
07481,1996-05-16 15:00:00,23,1006.3,-1,44,10,35000,38.892,,59.264,200,,,,,,,,,,,wg-a,,,,AAXX 16154 07481 12681 /2021 10230 20100 39790 40063 56010 60006 81200 91500 333 91032=
07481,1996-05-16 18:00:00,21,1005.6,-0.9,35,5,40000,38.892,,,200,11.7,23.8,,,,,,,,,wg-a,,,,AAXX 16184 07481 12682 22021 10210 20050 39781 40056 55009 60006 81901 91800 333 10238 20117=
07481,1996-05-16 21:00:00,18,1010.2,4.2,42,5,25000,25.928,,,220,,,,,,,,,,,wg-a,,,,AAXX 16214 07481 12775 72214 10180 20050 39823 40102 53042 60006 83582 92100=
07481,1996-05-17 00:00:00,16,1010.4,0,63,9,25000,14.816,,,160,,,,,,,,,,,wg-a,,,,AAXX 17004 07481 12775 71608 10160 20090 39823 40104 50000 60006 8157/ 90000=
07481,1996-05-17 03:00:00,15,1010.5,-0,59,7,500,25.928,,,170,,,,,,,,,,,wg-a,,,,AAXX 17034 07481 12700 71714 10150 20070 39823 40105 55000 60006 8157/ 90300=
07481,1996-05-17 06:00:00,13,1010.1,-0.5,72,8,35000,22.224,,,160,11.9,20.7,,,,,,,,,wg-a,,,,AAXX 17064 07481 02681 41612 10130 20080 39818 40101 58005 60006 81182 90600 333 10207 20119 60004=
07481,1996-05-17 09:00:00,18,1008.6,-1.1,56,9,40000,29.632,,,180,,,,,,,,,,,wg-a,,,,AAXX 17094 07481 12682 21816 10180 20090 39808 40086 56011 60006 81180 90900=
07481,1996-05-17 12:00:00,19,1008,-0.5,52,9,40000,22.224,,,180,,,,,,,,,,,wg-a,,,,AAXX 17124 07481 12682 71812 10190 20090 39803 40080 58005 60006 8228/ 91200=
07481,1996-05-17 15:00:00,21,1006.3,-1.5,49,10,40000,29.632,,,200,,,,,,,,,,,wg-a,,,,AAXX 17154 07481 12682 72016 10210 20100 39789 40063 58015 60006 81282 91500=
07481,1996-05-17 18:00:00,20,1005.5,-0.9,53,10,35000,22.224,,,210,12.9,21.7,,,,,,,,,wg-a,,,,AAXX 17184 07481 12781 72112 10200 20100 39780 40055 56009 60006 81182 91800 333 10217 20129=
07481,1996-05-17 21:00:00,17,1006.7,0.9,72,12,500,7.408,,,60,,,,,,,,,,,wg-a,,,,AAXX 17214 07481 12/00 60604 10170 20120 39789 40067 53009 60006 84082 92100=
07481,1996-05-18 00:00:00,16,1005.8,-1,68,10,500,25.928,,,180,,,,,,,,,,,wg-a,,,,AAXX 18004 07481 12/00 71814 10160 20100 39779 40058 58010 60006 84082 90000=
07481,1996-05-18 03:00:00,15,1005.7,-0.2,63,8,20000,11.112,,,140,,,,,,,,,,,wg-a,,,,AAXX 18034 07481 12770 71406 10150 20080 39777 40057 58002 60006 8358/ 90300=
07481,1996-05-18 06:00:00,16,1005,-0.6,68,10,500,25.928,,,160,14,19.8,,,,,,,,,wg-a,,,,AAXX 18064 07481 02400 71614 10160 20100 39771 40050 55006 60006 8587/ 90600 333 10198 20140 60004=
07481,1996-05-18 09:00:00,19,1004.2,-0.3,60,11,35000,22.224,,,190,,,,,,,,,,,wg-a,,,,AAXX 18094 07481 12581 /1912 10190 20110 39767 40042 58003 60006 83880 90900=
07481,1996-05-18 12:00:00,24,1002.7,-1.3,44,11,40000,35.188,,50.004,190,,,,,,,,,,,wg-a,,,,AAXX 18124 07481 12682 41919 10240 20110 39756 40027 58013 60006 83883 91200 333 91027=
07481,1996-05-18 15:00:00,24,999.8,-2.8,38,9,40000,57.412,,68.524,200,,,,,,,,,,,wg-a,,,,AAXX 18154 07481 12782 32031 10240 20090 39728 49998 56028 60006 82202 91500 333 91037=
07481,1996-05-18 18:00:00,21,1002,2,49,10,500,31.484,,55.56,200,15.7,25,,,,,,,,,wg-a,,,,AAXX 18184 07481 12700 32017 10210 20100 39747 40020 53020 60006 81903 91800 333 10250 20157 91030=
07481,1996-05-18 21:00:00,14,1007.5,4.7,77,10,15000,25.928,,53.708,250,,,,2,,,,,,80,wg-a,,,,AAXX 18214 07481 12365 /2514 10140 20100 39794 40075 53047 60027 78098 84983 92100 333 91029=
07481,1996-05-19 00:00:00,13,1005.9,-1.7,88,11,20000,11.112,,,80,,,,1,,,,,,13,wg-a,,,,AAXX 19004 07481 02570 70806 10130 20110 39777 40059 58017 60036 71398 8398/ 90000 333 60017=
07481,1996-05-19 03:00:00,11,1004.9,-1.1,100,11,12000,14.816,,,80,,,,11,,,,,,61,wg-a,,,,AAXX 19034 07481 12262 80808 10110 20110 39766 40049 58011 60117 76198 8687/ 90300=
07481,1996-05-19 06:00:00,11,1006.9,1.9,100,11,6000,7.408,,,300,10.7,21.1,,8,,,22,,,80,wg-a,,,,AAXX 19064 07481 02356 83004 10110 20110 39785 40069 53019 60224 78098 879// 90600 333 10211 20107 60087=
07481,1996-05-19 09:00:00,10,1010,2.9,93,9,12000,11.112,,,50,,,,6,,,,,,80,wg-a,,,,AAXX 19094 07481 12362 80506 10100 20090 39814 40100 51029 60067 78096 8697/ 90900=
07481,1996-05-19 12:00:00,11,1010.4,0.5,94,10,25000,11.112,,,60,,,,1,,,,,,1,wg-a,,,,AAXX 19124 07481 02375 80606 10110 20100 39819 40104 51005 60086 70196 8487/ 91200 333 60017=
07481,1996-05-19 15:00:00,12,1010.7,0.4,82,9,25000,0,,,0,,,,0,,,,,,60,wg-a,,,,AAXX 19154 07481 12475 80000 10120 20090 39823 40107 51004 60007 76062 8487/ 91500=
07481,1996-05-19 17:00:00,12,1010.9,0.2,88,10,500,7.408,,,170,9.9,12.5,,,,,,,,1,wg-a,,,,AAXX 19174 07481 02500 /1704 10120 20100 39825 40109 53002 61000 70162 83871 91700 333 10125 20099 ////=
07481,1996-05-19 18:00:00,12,1010.9,0.2,88,10,500,7.408,,,170,9.9,12.5,,,,,,,,1,wg-a,,,,AAXX 19184 07481 02500 /1704 10120 20100 39825 40109 53002 61000 70162 83871 91800 333 10125 20099 ////=
07481,1996-05-19 21:00:00,10,1012.2,1,93,9,500,3.704,,,280,,,,,,,,,,,wg-a,,,,AAXX 19214 07481 12400 /2802 10100 20090 39835 40122 52010 60006 82870 92100=
07481,1996-05-20 00:00:00,8,1012.8,0.4,93,7,500,11.112,,,110,,,,,,,,,,,wg-a,,,,AAXX 20004 07481 12/00 51106 10080 20070 39839 40128 50004 60006 85030 90000=
07481,1996-05-20 03:00:00,7,1013.5,0.6,93,6,10000,3.704,,,150,,,,0,,,,,,,wg-a,,,,AAXX 20034 07481 12/60 31502 10070 20060 39845 40135 50006 60007 83030 90300=
07481,1996-05-20 06:00:00,9,1014.8,1.4,93,8,9000,0,,,0,6.9,12,,,,,8,,,,wg-a,,,,AAXX 20064 07481 12459 70000 10090 20080 39859 40148 53014 60084 81132 90600 333 10120 20069=
07481,1996-05-20 09:00:00,13,1016.4,2,82,10,6000,3.704,,,100,,,,,,,,,,,wg-a,,,,AAXX 20094 07481 12/56 /1002 10130 20100 39879 40164 51020 60006 90900=
07481,1996-05-20 12:00:00,13,1017.4,1,72,8,20000,22.224,,,240,,,,,,,,,,,wg-a,,,,AAXX 20124 07481 12570 /2412 10130 20080 39889 40174 53010 60006 85201 91200=
07481,1996-05-20 15:00:00,17,1016.8,-0.2,45,5,11000,3.704,,,60,,,,,,,,,,,wg-a,,,,AAXX 20154 07481 32/61 /0602 10170 20050 39887 40168 57002 91500=
07481,1996-05-20 18:00:00,17,1017.4,0.6,42,4,40000,7.408,,,80,8.7,18.7,,,,,,,,1,wg-a,,,,AAXX 20184 07481 32682 /0804 10170 20040 39893 40174 53006 70186 81801 91800 333 10187 20087=
07481,1996-05-20 21:00:00,13,1019.2,1.3,67,7,500,3.704,,,150,,,,,,,,,,,wg-a,,,,AAXX 20214 07481 12700 11502 10130 20070 39906 40192 52013 60006 81530 92100=
07481,1996-05-21 00:00:00,11,1020.9,1.4,82,8,25000,3.704,,,250,,,,,,,,,,,wg-a,,,,AAXX 21004 07481 12/75 42502 10110 20080 39920 40209 51014 60006 84030 90000=
07481,1996-05-21 03:00:00,10,1021.6,0.7,87,8,20000,0,,,0,,,,,,,,,,,wg-a,,,,AAXX 21034 07481 12/70 30000 10100 20080 39927 40216 51007 60006 83030 90300=
07481,1996-05-21 06:00:00,11,1023.1,1.5,87,9,10000,3.704,,,230,9.1,17.4,,,,,,,,,wg-a,,,,AAXX 21064 07481 02/60 32302 10110 20090 39942 40231 53015 60006 82082 90600 333 10174 20091 61000=
07481,1996-05-21 09:00:00,15,1023.3,0.6,63,8,35000,3.704,,,360,,,,,,,,,,,wg-a,,,,AAXX 21094 07481 12581 43602 10150 20080 39948 40233 51006 60006 84800 90900=
07481,1996-05-21 12:00:00,17,1022.7,-0.4,52,7,13000,7.408,,,10,,,,,,,,,,80,wg-a,,,,AAXX 21124 07481 02663 50104 10170 20070 39944 40227 58004 61000 78086 85800 91200 333 6100=
07481,1996-05-21 15:00:00,13,1023.6,0.5,72,8,10000,38.892,,62.968,300,,,,1,,,,,,80,wg-a,,,,AAXX 21154 07481 12660 63021 10130 20080 39949 40236 53005 60017 78086 85930 91500 333 91034=
07481,1996-05-21 18:00:00,12,1025.4,1.7,82,9,25000,7.408,,,20,10.8,18.7,,1,,,,,,29,wg-a,,,,AAXX 21184 07481 12475 /0204 10120 20090 39966 40254 53017 60017 72998 85900 91800 333 10187 20108=
07481,1996-05-21 21:00:00,11,1027.6,2,87,9,500,11.112,,,150,,,,,,,,,,,wg-a,,,,AAXX 21214 07481 12500 31506 10110 20090 39986 40276 51020 60006 82330 92100=
07481,1996-05-22 00:00:00,9,1028,0.2,100,9,500,3.704,,,350,,,,,,,,,,,wg-a,,,,AAXX 22004 07481 12500 53502 10090 20090 39988 40280 51002 60006 85800 90000=
07481,1996-05-22 03:00:00,7,1027.7,-0.5,100,7,400,7.408,,,130,,,,0,,,,,,12,wg-a,,,,AAXX 22034 07481 12104 71304 10070 20070 39983 40277 56005 60007 71241 876// 90300=
07481,1996-05-22 06:00:00,8,1028,0.4,100,8,900,3.704,,,330,6.9,12.5,,,,,2,,,41,wg-a,,,,AAXX 22064 07481 12109 93302 10080 20080 39987 40280 53004 60024 74141 896// 90600 333 10125 20069=
07481,1996-05-22 09:00:00,13,1027.5,0,77,9,500,7.408,,,20,,,,,,,,,,1,wg-a,,,,AAXX 22094 07481 12400 50204 10130 20090 39987 40275 50000 60006 70142 83101 90900=
07481,1996-05-22 12:00:00,17,1025.7,-1.4,42,4,500,3.704,,,360,,,,,,,,,,3,wg-a,,,,AAXX 22124 07481 12500 73602 10170 20040 39973 40257 58014 60006 70342 81102 91200=
07481,1996-05-22 18:00:00,17,1022.9,-1.2,45,5,500,7.408,,,130,7.8,19.1,,,,,,,,,wg-a,,,,AAXX 22184 07481 12600 41304 10170 20050 39946 40229 56012 60006 81141 91800 333 10191 20078=
07481,1996-05-22 21:00:00,16,1023.1,0.1,55,7,50000,7.408,,,150,,,,,,,,,,,wg-a,,,,AAXX 22214 07481 12/84 61504 10160 20070 39947 40231 53001 60006 85072 92100=
07481,1996-05-23 00:00:00,14,1023.4,0.1,67,8,40000,7.408,,,230,,,,,,,,,,,wg-a,,,,AAXX 23004 07481 12882 82304 10140 20080 39948 40234 51001 60006 8807/ 90000=
07481,1996-05-23 03:00:00,13,1022.9,-0.5,88,11,500,11.112,,,150,,,,1,,,,,,1,wg-a,,,,AAXX 23034 07481 12700 81506 10130 20110 39943 40229 58005 60017 70162 8557/ 90300=
07481,1996-05-23 06:00:00,14,1024.2,1.3,77,10,500,7.408,,,170,12.9,17.2,,,,,1,,,1,wg-a,,,,AAXX 23064 07481 12600 81704 10140 20100 39956 40242 52013 60014 70162 8557/ 90600 333 10172 20129=
07481,1996-05-23 09:00:00,18,1023.9,0.1,59,10,500,11.112,,,140,,,,0,,,,,,,wg-a,,,,AAXX 23094 07481 12700 71406 10180 20100 39957 40239 52001 60007 8557/ 90900=
07481,1996-05-23 12:00:00,21,1023.1,-0.5,49,10,40000,7.408,,,80,,,,,,,,,,,wg-a,,,,AAXX 23124 07481 12682 /0804 10210 20100 39952 40231 58005 60006 81130 91200=
07481,1996-05-23 15:00:00,22,1021.2,-1.7,50,11,40000,7.408,,,360,,,,,,,,,,,wg-a,,,,AAXX 23154 07481 12682 /3604 10220 20110 39935 40212 58017 60006 81102 91500=
07481,1996-05-23 18:00:00,21,1020.6,-1.4,56,12,45000,11.112,,,30,14,22.6,,,,,,,,,wg-a,,,,AAXX 23184 07481 32683 /0306 10210 20120 39927 40206 55014 81102 91800 333 10226 20140=
07481,1996-05-23 21:00:00,16,1020.6,-0.4,77,12,500,0,,,0,,,,,,,,,,,wg-a,,,,AAXX 23214 07481 12/00 00000 10160 20120 39923 40206 56004 60006 80000 92100=
07481,1996-05-24 00:00:00,14,1020.3,-0.5,94,13,25000,7.408,,,240,,,,,,,,,,,wg-a,,,,AAXX 24004 07481 12/75 02404 10140 20130 39918 40203 58005 60006 80000 90000=
07481,1996-05-24 03:00:00,13,1019.1,-1.2,88,11,10000,7.408,,,170,,,,,,,,,,,wg-a,,,,AAXX 24034 07481 12/60 01704 10130 20110 39906 40191 56012 60006 80000 90300=
07481,1996-05-24 06:00:00,15,1019,0,82,12,10000,11.112,,,150,11.9,20.4,,,,,1,,,,wg-a,,,,AAXX 24064 07481 02/60 21506 10150 20120 39906 40190 50000 60006 81011 90600 333 10204 20119 60014=
07481,1996-05-24 09:00:00,21,1017.6,-0.7,60,13,20000,14.816,,,190,,,,,,,,,,,wg-a,,,,AAXX 24094 07481 12/70 51908 10210 20130 39899 40176 58007 60006 81011 90900=
07481,1996-05-24 12:00:00,25,1015.5,-1.7,41,11,75000,22.224,,,200,,,,,,,,,,,wg-a,,,,AAXX 24124 07481 12689 /2012 10250 20110 39882 40155 58017 60006 81102 91200=
07481,1996-05-24 15:00:00,26,1013.2,-2.2,45,13,40000,29.632,,,190,,,,,,,,,,,wg-a,,,,AAXX 24154 07481 12682 31916 10260 20130 39860 40132 56022 60006 82930 91500=
07481,1996-05-24 18:00:00,20,1014.1,0.4,68,14,20000,18.52,,,210,14.8,27.1,,0,,,,,,80,wg-a,,,,AAXX 24184 07481 12670 72110 10200 20140 39864 40141 51004 60007 78096 83963 91800 333 10271 20148=
07481,1996-05-24 21:00:00,19,1015.1,0.9,68,13,20000,18.52,,,180,,,,1,,,,,,17,wg-a,,,,AAXX 24214 07481 12670 71810 10190 20130 39873 40151 53009 60017 71799 8396/ 92100=
07481,1996-05-25 00:00:00,17,1015.7,0.3,63,10,500,14.816,,,220,,,,,,,,,,60,wg-a,,,,AAXX 25004 07481 02500 72208 10170 20100 39876 40157 51003 60016 76096 8357/ 90000 333 61000=
07481,1996-05-25 03:00:00,17,1014.6,-1.1,52,7,25000,22.224,,,190,,,,,,,,,,21,wg-a,,,,AAXX 25034 07481 02275 81912 10170 20070 39865 40146 57011 61000 72162 8297/ 90300 333 ////=
07481,1996-05-25 06:00:00,17,1014.8,0.2,55,8,25000,11.112,,,160,15.6,20.7,,,,,1,,,2,wg-a,,,,AAXX 25064 07481 12675 71606 10170 20080 39867 40148 51002 60014 70262 82282 90600 333 10207 20156=
07481,1996-05-25 09:00:00,18,1014.2,-0.4,52,8,25000,18.52,,,210,,,,,,,,,,25,wg-a,,,,AAXX 25094 07481 02675 82110 10180 20080 39863 40142 57004 61000 72586 8228/ 90900 333 ////=
07481,1996-05-25 12:00:00,21,1013.6,-0.2,49,10,500,25.928,,,200,,,,,,,,,,2,wg-a,,,,AAXX 25124 07481 02600 72014 10210 20100 39860 40136 58002 61000 70286 8228/ 91200 333 ////=
07481,1996-05-25 15:00:00,21,1014,0.4,69,15,20000,11.112,,,220,,,,0,,,,,,25,wg-a,,,,AAXX 25154 07481 12670 82206 10210 20150 39864 40140 53004 60007 72586 8328/ 91500=
07481,1996-05-25 18:00:00,16,1016.7,2.1,94,15,15000,14.816,,,40,15.9,23,,1,,,,,,61,wg-a,,,,AAXX 25184 07481 12665 80408 10160 20150 39885 40167 53021 60017 76186 8328/ 91800 333 10230 20159=
07481,1996-05-25 21:00:00,15,1017.7,0.9,94,14,10000,11.112,,,160,,,,2,,,,,,60,wg-a,,,,AAXX 25214 07481 12760 81606 10150 20140 39894 40177 51009 60027 76062 8457/ 92100=
07481,1996-05-26 00:00:00,15,1017.4,-0.2,94,14,12000,14.816,,,160,,,,2,,,,,,61,wg-a,,,,AAXX 26004 07481 02662 81608 10150 20140 39891 40174 55002 60046 76162 8557/ 90000 333 60027=
07481,1996-05-26 03:00:00,15,1017.5,-0,94,14,8000,11.112,,,180,,,,,,,,,,1,wg-a,,,,AAXX 26034 07481 02658 71806 10150 20140 39892 40175 55000 61000 70162 8357/ 90300 333 ////=
07481,1996-05-26 06:00:00,15,1018.9,1.4,94,14,7000,3.704,,,150,13.4,15.9,,,,,5,,,1,wg-a,,,,AAXX 26064 07481 12557 /1502 10150 20140 39906 40189 53014 60054 70162 81832 90600 333 10159 20134=
07481,1996-05-26 09:00:00,18,1019.9,1.2,68,12,500,11.112,,,330,,,,,,,,,,,wg-a,,,,AAXX 26094 07481 12600 /3306 10180 20120 39918 40199 51012 60006 86800 90900=
07481,1996-05-26 12:00:00,20,1019.6,-0.2,56,11,35000,7.408,,,330,,,,,,,,,,,wg-a,,,,AAXX 26124 07481 12681 /3304 10200 20110 39917 40196 58002 60006 84801 91200=
07481,1996-05-26 15:00:00,22,1019.1,-0.3,46,10,60000,3.704,,,350,,,,,,,,,,,wg-a,,,,AAXX 26154 07481 12686 73502 10220 20100 39914 40191 55003 60006 83801 91500=
07481,1996-05-26 18:00:00,20,1018.3,-0.9,56,11,60000,7.408,,,110,15.4,22.5,,,,,,,,,wg-a,,,,AAXX 26184 07481 12/86 41104 10200 20110 39905 40183 57009 60006 82042 91800 333 10225 20154=
07481,1996-05-26 21:00:00,19,1018.6,0.1,64,12,500,7.408,,,200,,,,,,,,,,,wg-a,,,,AAXX 26214 07481 12/00 72004 10190 20120 39906 40186 53001 60006 85042 92100=
07481,1996-05-27 00:00:00,16,1017.9,-0.9,88,14,500,3.704,,,350,,,,1,,,,,,61,wg-a,,,,AAXX 27004 07481 02500 73502 10160 20140 39897 40179 57009 60016 76161 8557/ 90000 333 60017=
07481,1996-05-27 03:00:00,15,1016.8,-1.1,94,14,20000,11.112,,,150,,,,1,,,,,,1,wg-a,,,,AAXX 27034 07481 12670 71506 10150 20140 39886 40168 58011 60017 70162 8457/ 90300=
07481,1996-05-27 06:00:00,16,1016.7,-0,82,13,20000,7.408,,,170,15.1,20.3,,,,,1,,,1,wg-a,,,,AAXX 27064 07481 12570 71704 10160 20130 39886 40167 55000 60014 70162 8383/ 90600 333 10203 20151=
07481,1996-05-27 09:00:00,19,1016,-0.5,68,13,20000,11.112,,,220,,,,,,,,,,,wg-a,,,,AAXX 27094 07481 12670 72206 10190 20130 39881 40160 58005 60006 878// 90900=
07481,1996-05-27 12:00:00,18,1016.3,0.2,52,8,40000,22.224,,,340,,,,,,,,,,,wg-a,,,,AAXX 27124 07481 12682 63412 10180 20080 39883 40163 53002 60006 86800 91200=
07481,1996-05-27 15:00:00,17,1018.1,1.5,63,10,40000,18.52,,,330,,,,,,,,,,,wg-a,,,,AAXX 27154 07481 12682 73310 10170 20100 39899 40181 51015 60006 878// 91500=
07481,1996-05-27 18:00:00,14,1019.5,1.2,88,12,15000,7.408,,,30,13.9,19.9,,0,,,,,,21,wg-a,,,,AAXX 27184 07481 12665 70304 10140 20120 39910 40195 53012 60007 72186 878// 91800 333 10199 20139=
07481,1996-05-27 21:00:00,13,1020.8,1.2,94,12,20000,11.112,,,330,,,,1,,,,,,25,wg-a,,,,AAXX 27214 07481 12370 73306 10130 20120 39922 40208 53012 60017 72586 878// 92100=
07481,1996-05-28 00:00:00,13,1021.7,0.9,88,11,20000,3.704,,,330,,,,,,,,,,1,wg-a,,,,AAXX 28004 07481 02570 73302 10130 20110 39931 40217 53009 60016 70186 878// 90000 333 61000=
07481,1996-05-28 03:00:00,13,1022.1,0.3,88,11,15000,3.704,,,340,,,,,,,,,,,wg-a,,,,AAXX 28034 07481 12565 73402 10130 20110 39934 40221 51003 60006 875// 90300=
07481,1996-05-28 06:00:00,13,1023.3,1.2,82,10,15000,14.816,,,340,12.4,13.9,,0,,,2,,,3,wg-a,,,,AAXX 28064 07481 02565 73408 10130 20100 39946 40233 53012 60024 70386 878// 90600 333 10139 20124 60007=
07481,1996-05-28 09:00:00,13,1024.7,1.4,77,9,18000,25.928,,,10,,,,,,,,,,3,wg-a,,,,AAXX 28094 07481 02568 70114 10130 20090 39960 40247 53014 61000 70386 872// 90900 333 ////=
07481,1996-05-28 12:00:00,16,1024,-0.4,55,7,500,25.928,,,360,,,,,,,,,,3,wg-a,,,,AAXX 28124 07481 02500 33614 10160 20070 39956 40240 58004 61000 70386 83201 91200 333 ////=
07481,1996-05-28 15:00:00,17,1023.3,-0.6,45,5,500,29.632,,,340,,,,,,,,,,,wg-a,,,,AAXX 28154 07481 12600 /3416 10170 20050 39950 40233 58006 60006 81102 91500=
07481,1996-05-28 18:00:00,16,1023.3,-0.1,48,5,500,22.224,,,350,12.6,17.7,,,,,,,,,wg-a,,,,AAXX 28184 07481 32600 /3512 10160 20050 39949 40233 55001 81101 91800 333 10177 20126=
07481,1996-05-28 21:00:00,12,1024,0.3,67,6,500,11.112,,,350,,,,,,,,,,,wg-a,,,,AAXX 28214 07481 12/00 03506 10120 20060 39952 40240 52003 60006 80000 92100=
07481,1996-05-29 00:00:00,10,1024.4,0.1,76,6,500,7.408,,,340,,,,,,,,,,,wg-a,,,,AAXX 29004 07481 12/00 03404 10100 20060 39953 40244 50001 60006 80000 90000=
07481,1996-05-29 03:00:00,8,1024,-0.6,87,6,40000,3.704,,,320,,,,,,,,,,,wg-a,,,,AAXX 29034 07481 12/82 03202 10080 20060 39947 40240 56006 60006 80000 90300=
07481,1996-05-29 06:00:00,11,1024,0.3,76,7,50000,3.704,,,310,7.2,16.4,,,,,,,,,wg-a,,,,AAXX 29064 07481 02/84 13102 10110 20070 39950 40240 53003 60006 80001 90600 333 10164 20072 61000=
07481,1996-05-29 09:00:00,16,1023.2,-0.2,55,7,45000,14.816,,,10,,,,,,,,,,,wg-a,,,,AAXX 29094 07481 12/83 10108 10160 20070 39948 40232 58002 60006 80001 90900=
07481,1996-05-29 12:00:00,20,1021.6,-1.2,40,6,50000,11.112,,,10,,,,,,,,,,,wg-a,,,,AAXX 29124 07481 12/84 10106 10200 20060 39936 40216 57012 60006 80001 91200=
07481,1996-05-29 15:00:00,22,1020.2,-1.3,29,3,50000,18.52,,,350,,,,,,,,,,,wg-a,,,,AAXX 29154 07481 12/84 13510 10220 20030 39924 40202 58013 60006 80001 91500=
07481,1996-05-29 18:00:00,21,1019.8,-0.4,40,7,50000,11.112,,,340,10.6,22.5,,,,,,,,,wg-a,,,,AAXX 29184 07481 12/84 13406 10210 20070 39920 40198 56004 60006 80001 91800 333 10225 20106=
07481,1996-05-29 21:00:00,17,1020.6,0.3,52,7,40000,3.704,,,260,,,,,,,,,,,wg-a,,,,AAXX 29214 07481 12/82 12602 10170 20070 39923 40206 53003 60006 80001 92100=
07481,1996-05-30 00:00:00,15,1020.5,-0.3,55,6,40000,3.704,,,200,,,,,,,,,,,wg-a,,,,AAXX 30004 07481 12/82 02002 10150 20060 39920 40205 58003 60006 80000 90000=
07481,1996-05-30 03:00:00,13,1020.5,-0.2,72,8,40000,7.408,,,170,,,,,,,,,,,wg-a,,,,AAXX 30034 07481 12/82 01704 10130 20080 39918 40205 57002 60006 80000 90300=
07481,1996-05-30 06:00:00,14,1020.7,0.4,72,9,10000,7.408,,,160,11.3,20.9,,,,,,,,,wg-a,,,,AAXX 30064 07481 02/60 /1604 10140 20090 39922 40207 53004 60006 90600 333 10209 20113 60004=
07481,1996-05-30 09:00:00,22,1020,0,33,5,25000,18.52,,,170,,,,,,,,,,,wg-a,,,,AAXX 30094 07481 12/75 01710 10220 20050 39922 40200 50000 60006 80000 90900=
07481,1996-05-30 12:00:00,26,1018.5,-1,23,3,25000,25.928,,,180,,,,,,,,,,,wg-a,,,,AAXX 30124 07481 12/75 11814 10260 20030 39911 40185 58010 60006 80001 91200=
07481,1996-05-30 15:00:00,27,1017.4,-0.9,28,7,10000,22.224,,,180,,,,,,,,,,,wg-a,,,,AAXX 30154 07481 12/60 /1812 10270 20070 39902 40174 56009 60006 91500=
07481,1996-05-30 18:00:00,25,1016.8,-0.8,32,7,40000,29.632,,,190,14.3,27.5,,,,,,,,,wg-a,,,,AAXX 30184 07481 12/82 11916 10250 20070 39894 40168 55008 60006 80001 91800 333 10275 20143=
07481,1996-05-30 21:00:00,21,1018.9,1.6,38,6,40000,22.224,,,150,,,,,,,,,,,wg-a,,,,AAXX 30214 07481 12/82 11512 10210 20060 39910 40189 53016 60006 80001 92100=
07481,1996-05-31 00:00:00,19,1019.9,0.9,34,3,40000,14.816,,,160,,,,,,,,,,,wg-a,,,,AAXX 31004 07481 12/82 01608 10190 20030 39919 40199 51009 60006 80000 90000=
07481,1996-05-31 03:00:00,16,1020.6,0.3,42,3,40000,18.52,,,150,,,,,,,,,,,wg-a,,,,AAXX 31034 07481 12/82 01510 10160 20030 39922 40206 51003 60006 80000 90300=
07481,1996-05-31 06:00:00,17,1021.6,1.1,45,5,45000,11.112,,,130,13,24.9,,,,,,,,,wg-a,,,,AAXX 31064 07481 02/83 01306 10170 20050 39933 40216 52011 60006 80000 90600 333 10249 20130 60004=
07481,1996-05-31 09:00:00,23,1021.5,0.5,33,6,45000,11.112,,,200,,,,,,,,,,,wg-a,,,,AAXX 31094 07481 12/83 02006 10230 20060 39938 40215 50005 60006 80000 90900=
07481,1996-05-31 12:00:00,26,1020.3,-0.9,26,5,45000,3.704,,,350,,,,,,,,,,,wg-a,,,,AAXX 31124 07481 12/83 03502 10260 20050 39929 40203 58009 60006 80000 91200=
07481,1996-05-31 15:00:00,28,1019.1,-1,23,5,45000,3.704,,,320,,,,,,,,,,,wg-a,,,,AAXX 31154 07481 12/83 13202 10280 20050 39919 40191 57010 60006 81080 91500=
07481,1996-05-31 18:00:00,26,1018.2,-1,37,10,40000,7.408,,,10,17,28,,,,,,,,,wg-a,,,,AAXX 31184 07481 12/82 10104 10260 20100 39909 40182 56010 60006 80002 91800 333 10280 20170=
07481,1996-05-31 21:00:00,21,1020,1.3,60,13,500,11.112,,,350,,,,,,,,,,,wg-a,,,,AAXX 31214 07481 12/00 13506 10210 20130 39922 40200 53013 60006 81080 92100=
07481,1996-06-01 00:00:00,16,1022.4,1.8,77,12,500,7.408,,,320,,,,,,,,,,,wg-a,,,,AAXX 01004 07481 12/00 43204 10160 20120 39940 40224 51018 60006 81082 90000=
07481,1996-06-01 03:00:00,16,1022,-0.4,82,13,20000,3.704,,,100,,,,,,,,,,,wg-a,,,,AAXX 01034 07481 12470 71002 10160 20130 39936 40220 58004 60006 82282 90300=
07481,1996-06-01 06:00:00,17,1021.3,-0.5,77,13,15000,7.408,,,300,15.2,26.4,,,,,,,,,wg-a,,,,AAXX 01064 07481 02565 73004 10170 20130 39931 40213 58005 60006 82572 90600 333 10264 20152 60004=
07481,1996-06-01 09:00:00,19,1021.6,0.5,73,14,18000,11.112,,,330,,,,,,,,,,,wg-a,,,,AAXX 01094 07481 12568 83306 10190 20140 39936 40216 53005 60006 8257/ 90900=
07481,1996-06-01 12:00:00,17,1022.6,0.7,77,13,40000,18.52,,,10,,,,,,,,,,,wg-a,,,,AAXX 01124 07481 12582 80110 10170 20130 39943 40226 51007 60006 8457/ 91200=
07481,1996-06-01 15:00:00,16,1021.9,-0.6,77,12,500,18.52,,,350,,,,,,,,,,,wg-a,,,,AAXX 01154 07481 12500 83510 10160 20120 39936 40219 58006 60006 8487/ 91500=
07481,1996-06-01 18:00:00,15,1021.1,-0.9,88,13,7000,3.704,,,20,15,18.9,,2,,,,,,61,wg-a,,,,AAXX 01184 07481 12457 80202 10150 20130 39927 40211 56009 60027 76162 8487/ 91800 333 10189 20150=
07481,1996-06-01 21:00:00,14,1020.5,-0.6,100,14,8000,11.112,,,270,,,,2,,,,,,61,wg-a,,,,AAXX 01214 07481 12458 82706 10140 20140 39921 40205 55006 60027 76166 8497/ 92100=
07481,1996-06-02 00:00:00,12,1019.5,-1.2,100,12,15000,11.112,,,290,,,,9,,,,,,21,wg-a,,,,AAXX 02004 07481 02365 82906 10120 20120 39909 40195 58012 60116 72162 8577/ 90000 333 60097=
07481,1996-06-02 03:00:00,12,1017.8,-1.7,94,11,20000,3.704,,,360,,,,,,,,,,,wg-a,,,,AAXX 02034 07481 12470 83602 10120 20110 39892 40178 56017 60006 8557/ 90300=
07481,1996-06-02 06:00:00,12,1016.9,-0.9,94,11,18000,11.112,,,320,12,15,,,,,13,,,,wg-a,,,,AAXX 02064 07481 12368 83206 10120 20110 39883 40169 58009 60134 876// 90600 333 10150 20120=
07481,1996-06-02 09:00:00,13,1015.9,-0.9,94,12,9000,11.112,,,330,,,,1,,,,,,61,wg-a,,,,AAXX 02094 07481 12359 83306 10130 20120 39874 40159 58009 60017 76165 876// 90900=
07481,1996-06-02 12:00:00,14,1014.6,-1.2,94,13,8000,7.408,,,30,,,,5,,,,,,61,wg-a,,,,AAXX 02124 07481 02258 80304 10140 20130 39862 40146 58012 60066 76165 877// 91200 333 60057=
07481,1996-06-02 15:00:00,14,1013.4,-1.1,94,13,8000,11.112,,,30,,,,5,,,,,,61,wg-a,,,,AAXX 02154 07481 12258 80306 10140 20130 39851 40134 56011 60057 76166 875// 91500=
07481,1996-06-02 18:00:00,14,1014,0.6,94,13,6000,3.704,,,350,12.3,14.3,,3,,,,,,61,wg-a,,,,AAXX 02184 07481 12256 83502 10140 20130 39857 40140 53006 60037 76166 885// 91800 333 10143 20123=
07481,1996-06-02 21:00:00,13,1015.4,1.3,100,13,8000,3.704,,,310,,,,2,,,,,,61,wg-a,,,,AAXX 02214 07481 12258 83102 10130 20130 39870 40154 53013 60027 76166 885// 92100=
07481,1996-06-03 00:00:00,13,1015.7,0.3,100,13,10000,3.704,,,330,,,,0,,,,,,2,wg-a,,,,AAXX 03004 07481 02160 83302 10130 20130 39873 40157 51003 60026 70262 877// 90000 333 60007=
07481,1996-06-03 03:00:00,13,1016.6,0.8,94,12,9000,7.408,,,330,,,,0,,,,,,21,wg-a,,,,AAXX 03034 07481 12159 83304 10130 20120 39881 40166 53008 60007 72162 877// 90300=
07481,1996-06-03 06:00:00,13,1018.3,1.7,94,12,9000,7.408,,,340,12.5,13.5,,,,,16,,,1,wg-a,,,,AAXX 03064 07481 12259 83404 10130 20120 39898 40183 51017 60164 70162 876// 90600 333 10135 20125=
07481,1996-06-03 12:00:00,16,1019.8,0.4,82,13,15000,18.52,,,340,,,,,,,,,,,wg-a,,,,AAXX 03124 07481 12465 73410 10160 20130 39915 40198 53004 60006 872// 91200=
07481,1996-06-03 15:00:00,18,1019.7,0.1,68,12,20000,18.52,,,340,,,,,,,,,,,wg-a,,,,AAXX 03154 07481 12570 73410 10180 20120 39916 40197 51001 60006 878// 91500=
07481,1996-06-03 21:00:00,16,1022,1.4,82,13,500,14.816,,,330,,,,,,,,,,,wg-a,,,,AAXX 03214 07481 12600 73308 10160 20130 39937 40220 53014 60006 8357/ 92100=
07481,1996-06-04 00:00:00,15,1022.7,0.6,82,12,500,7.408,,,350,,,,,,,,,,,wg-a,,,,AAXX 04004 07481 12700 73504 10150 20120 39943 40227 51006 60006 8257/ 90000=
07481,1996-06-04 03:00:00,13,1023.2,0.2,88,11,20000,11.112,,,320,,,,,,,,,,,wg-a,,,,AAXX 04034 07481 12870 13206 10130 20110 39945 40232 52002 60006 81031 90300=
07481,1996-06-04 06:00:00,14,1024.5,1.4,88,12,9000,11.112,,,350,11.9,17.7,,,,,,,,,wg-a,,,,AAXX 04064 07481 02859 13506 10140 20120 39959 40245 51014 60006 81030 90600 333 10177 20119 60004=
07481,1996-06-04 09:00:00,18,1025,0.9,73,13,15000,7.408,,,330,,,,,,,,,,,wg-a,,,,AAXX 04094 07481 12465 33304 10180 20130 39968 40250 51009 60006 83200 90900=
07481,1996-06-04 12:00:00,21,1023.8,-0.9,64,14,500,14.816,,,360,,,,,,,,,,,wg-a,,,,AAXX 04124 07481 12500 73608 10210 20140 39959 40238 56009 60006 8383/ 91200=
07481,1996-06-04 15:00:00,23,1023.1,-0.5,61,15,500,14.816,,,340,,,,,,,,,,,wg-a,,,,AAXX 04154 07481 12500 /3408 10230 20150 39954 40231 58005 60006 85800 91500=
07481,1996-06-04 18:00:00,22,1022.5,-0.6,60,14,500,14.816,,,340,14,23.3,,,,,,,,,wg-a,,,,AAXX 04184 07481 12800 63408 10220 20140 39948 40225 56006 60006 86030 91800 333 10233 20140=
07481,1996-06-04 21:00:00,18,1023.5,0.6,77,14,10000,7.408,,,20,,,,,,,,,,,wg-a,,,,AAXX 04214 07481 12/60 /0204 10180 20140 39954 40235 53006 60006 92100=
07481,1996-06-05 00:00:00,15,1023.7,-0.1,88,13,500,3.704,,,290,,,,,,,,,,,wg-a,,,,AAXX 05004 07481 12/00 12902 10150 20130 39953 40237 58001 60006 81031 90000=
07481,1996-06-05 03:00:00,14,1023.4,-0.5,88,12,500,0,,,0,,,,,,,,,,,wg-a,,,,AAXX 05034 07481 12/00 00000 10140 20120 39948 40234 58005 60006 80000 90300=
07481,1996-06-05 06:00:00,16,1023.8,0.6,82,13,8000,7.408,,,250,13.6,22,,,,,,,,,wg-a,,,,AAXX 05064 07481 02/58 02504 10160 20130 39954 40238 51006 60006 80000 90600 333 10220 20136 60004=
07481,1996-06-05 09:00:00,21,1023.1,-0.2,69,15,8000,3.704,,,180,,,,,,,,,,,wg-a,,,,AAXX 05094 07481 12/58 01802 10210 20150 39952 40231 58002 60006 80000 90900=
07481,1996-06-05 12:00:00,25,1022,-0.7,57,16,10000,7.408,,,70,,,,,,,,,,,wg-a,,,,AAXX 05124 07481 12/60 00704 10250 20160 39945 40220 58007 60006 80000 91200=
07481,1996-06-05 15:00:00,27,1020.2,-1.5,51,16,15000,11.112,,,80,,,,,,,,,,,wg-a,,,,AAXX 05154 07481 12/65 00806 10270 20160 39930 40202 56015 60006 80000 91500=
07481,1996-06-05 18:00:00,27,1019.6,-0.6,51,16,18000,7.408,,,70,15.7,28,,,,,,,,,wg-a,,,,AAXX 05184 07481 12/68 00704 10270 20160 39924 40196 56006 60006 80000 91800 333 10280 20157=
07481,1996-06-05 21:00:00,22,1020.9,0.8,69,16,20000,3.704,,,60,,,,,,,,,,,wg-a,,,,AAXX 05214 07481 12/70 00602 10220 20160 39932 40209 52008 60006 80000 92100=
07481,1996-06-06 00:00:00,19,1021.4,0.2,88,17,15000,3.704,,,200,,,,,,,,,,,wg-a,,,,AAXX 06004 07481 12/65 02002 10190 20170 39934 40214 53002 60006 80000 90000=
07481,1996-06-06 03:00:00,18,1021.5,-0,83,15,10000,7.408,,,160,,,,,,,,,,,wg-a,,,,AAXX 06034 07481 12/60 /1604 10180 20150 39934 40215 55000 60006 90300=
07481,1996-06-06 06:00:00,19,1022,0.6,83,16,9000,7.408,,,180,16.4,27,,,,,,,,,wg-a,,,,AAXX 06064 07481 02/59 01804 10190 20160 39940 40220 53006 60006 80000 90600 333 10270 20164 60004=
07481,1996-06-06 09:00:00,25,1021.4,0,57,16,18000,7.408,,,220,,,,,,,,,,,wg-a,,,,AAXX 06094 07481 12/68 02204 10250 20160 39940 40214 50000 60006 80000 90900=
07481,1996-06-06 12:00:00,29,1020.1,-0.9,45,16,500,7.408,,,190,,,,,,,,,,,wg-a,,,,AAXX 06124 07481 12700 11904 10290 20160 39931 40201 58009 60006 81100 91200=
07481,1996-06-06 15:00:00,30,1019,-1,35,13,500,11.112,,,190,,,,,,,,,,,wg-a,,,,AAXX 06154 07481 12700 /1906 10300 20130 39921 40190 58010 60006 81200 91500=
07481,1996-06-06 18:00:00,29,1018.7,-0.4,43,15,500,14.816,,,180,18.6,30.4,,,,,,,,,wg-a,,,,AAXX 06184 07481 12700 /1808 10290 20150 39917 40187 55004 60006 81203 91800 333 10304 20186=
07481,1996-06-06 21:00:00,25,1019.6,0.5,54,15,20000,11.112,,,190,,,,,,,,,,,wg-a,,,,AAXX 06214 07481 12/70 11906 10250 20150 39922 40196 52005 60006 80003 92100=
07481,1996-06-07 00:00:00,20,1020.4,0.4,73,15,18000,3.704,,,220,,,,,,,,,,,wg-a,,,,AAXX 07004 07481 12/68 12202 10200 20150 39926 40204 51004 60006 80001 90000=
07481,1996-06-07 03:00:00,19,1020.6,-0,78,15,13000,7.408,,,140,,,,,,,,,,,wg-a,,,,AAXX 07034 07481 12/63 11404 10190 20150 39926 40206 54000 60006 80001 90300=
07481,1996-06-07 06:00:00,22,1020.9,0.6,65,15,15000,3.704,,,120,18,29,,,,,,,,,wg-a,,,,AAXX 07064 07481 02/65 01202 10220 20150 39932 40209 53006 60006 80000 90600 333 10290 20180 60004=
07481,1996-06-07 09:00:00,26,1020.5,-0.1,51,15,18000,14.816,,,180,,,,,,,,,,,wg-a,,,,AAXX 07094 07481 12/68 01808 10260 20150 39932 40205 58001 60006 80000 90900=
07481,1996-06-07 12:00:00,29,1019.2,-0.9,43,15,25000,25.928,,,190,,,,,,,,,,,wg-a,,,,AAXX 07124 07481 12/75 11914 10290 20150 39922 40192 58009 60006 80003 91200=
07481,1996-06-07 15:00:00,30,1017.9,-1.2,40,15,500,22.224,,,180,,,,,,,,,,,wg-a,,,,AAXX 07154 07481 12700 11812 10300 20150 39910 40179 56012 60006 81200 91500=
07481,1996-06-07 18:00:00,28,1017.7,-0.3,48,16,500,18.52,,,180,21.9,30.4,,,,,,,,,wg-a,,,,AAXX 07184 07481 12700 21810 10280 20160 39907 40177 55003 60006 81183 91800 333 10304 20219=
07481,1996-06-07 21:00:00,24,1019.3,1.1,57,15,18000,18.52,,,170,,,,,,,,,,,wg-a,,,,AAXX 07214 07481 12768 31710 10240 20150 39918 40193 52011 60006 82383 92100=
07481,1996-06-08 00:00:00,21,1019.9,0.3,64,14,20000,11.112,,,140,,,,,,,,,,,wg-a,,,,AAXX 08004 07481 12/70 11406 10210 20140 39921 40199 53003 60006 81030 90000=
07481,1996-06-08 03:00:00,19,1020.2,0.1,73,14,20000,14.816,,,150,,,,,,,,,,,wg-a,,,,AAXX 08034 07481 12/70 11508 10190 20140 39922 40202 53001 60006 80001 90300=
07481,1996-06-08 06:00:00,20,1021.1,1,68,14,20000,11.112,,,190,17.5,28.3,,,,,,,,,wg-a,,,,AAXX 08064 07481 02/70 61906 10200 20140 39932 40211 53010 60006 86030 90600 333 10283 20175 60004=
07481,1996-06-08 09:00:00,24,1021.2,0.4,57,15,20000,18.52,,,190,,,,,,,,,,,wg-a,,,,AAXX 08094 07481 12670 /1910 10240 20150 39936 40212 51004 60006 81130 90900=
07481,1996-06-08 12:00:00,28,1019.6,-1.2,37,12,40000,22.224,,,190,,,,,,,,,,,wg-a,,,,AAXX 08124 07481 12682 41912 10280 20120 39924 40196 57012 60006 81104 91200=
07481,1996-06-08 15:00:00,29,1018.1,-1.3,37,13,11000,25.928,,,220,,,,,,,,,,,wg-a,,,,AAXX 08154 07481 12/61 /2214 10290 20130 39911 40181 58013 60006 91500=
07481,1996-06-08 18:00:00,27,1018.7,0.4,45,14,12000,14.816,,,190,20.4,29.1,,,,,,,,,wg-a,,,,AAXX 08184 07481 12662 61908 10270 20140 39915 40187 53004 60006 83933 91800 333 10291 20204=
07481,1996-06-08 21:00:00,19,1021.8,2.3,83,16,25000,7.408,,,350,,,,,,,,,,,wg-a,,,,AAXX 08214 07481 12675 63504 10190 20160 39938 40218 51023 60006 81932 92100=
07481,1996-06-09 00:00:00,19,1022.1,0.3,83,16,500,3.704,,,80,,,,,,,,,,,wg-a,,,,AAXX 09004 07481 12/00 50802 10190 20160 39941 40221 53003 60006 82032 90000=
07481,1996-06-09 03:00:00,17,1021.8,-0.5,94,16,500,0,,,0,,,,,,,,,,,wg-a,,,,AAXX 09034 07481 12/00 10000 10170 20160 39936 40218 56005 60006 80001 90300=
07481,1996-06-09 06:00:00,19,1021.9,0.3,83,16,15000,3.704,,,150,16.3,26.6,,,,,,,,,wg-a,,,,AAXX 09064 07481 02/65 31502 10190 20160 39939 40219 52003 60006 80001 90600 333 10266 20163 60004=
07481,1996-06-09 09:00:00,23,1021.5,0,69,17,18000,3.704,,,80,,,,,,,,,,,wg-a,,,,AAXX 09094 07481 12568 /0802 10230 20170 39939 40215 50000 60006 81201 90900=
07481,1996-06-09 12:00:00,26,1020.5,-0.7,58,17,18000,7.408,,,360,,,,,,,,,,,wg-a,,,,AAXX 09124 07481 12568 33604 10260 20170 39932 40205 58007 60006 83200 91200=
07481,1996-06-09 15:00:00,28,1018.9,-1.4,48,16,18000,7.408,,,330,,,,,,,,,,,wg-a,,,,AAXX 09154 07481 12668 /3304 10280 20160 39918 40189 57014 60006 81281 91500=
07481,1996-06-09 18:00:00,26,1019.1,-0,54,16,20000,3.704,,,350,18.5,27.5,,,,,,,,,wg-a,,,,AAXX 09184 07481 12670 23502 10260 20160 39918 40191 55000 60006 81902 91800 333 10275 20185=
07481,1996-06-09 21:00:00,23,1020.2,0.8,69,17,20000,7.408,,,20,,,,,,,,,,,wg-a,,,,AAXX 09214 07481 12670 20204 10230 20170 39926 40202 51008 60006 81903 92100=
07481,1996-06-10 00:00:00,19,1020.6,0.1,88,17,20000,3.704,,,240,,,,,,,,,,,wg-a,,,,AAXX 10004 07481 12/70 02402 10190 20170 39927 40206 53001 60006 80000 90000=
07481,1996-06-10 03:00:00,19,1020.7,-0,83,16,10000,3.704,,,200,,,,,,,,,,,wg-a,,,,AAXX 10034 07481 12/60 02002 10190 20160 39927 40207 55000 60006 80000 90300=
07481,1996-06-10 06:00:00,20,1021.8,1.2,83,17,7000,3.704,,,200,18.2,26.3,,,,,,,,,wg-a,,,,AAXX 10064 07481 02/57 02002 10200 20170 39939 40218 52012 60006 80000 90600 333 10263 20182 60004=
07481,1996-06-10 09:00:00,25,1021.2,-0.1,57,16,10000,3.704,,,170,,,,,,,,,,,wg-a,,,,AAXX 10094 07481 12/60 01702 10250 20160 39938 40212 58001 60006 80000 90900=
07481,1996-06-10 12:00:00,28,1020,-0.9,45,15,18000,3.704,,,40,,,,,,,,,,,wg-a,,,,AAXX 10124 07481 12668 /0402 10280 20150 39929 40200 58009 60006 81900 91200=
07481,1996-06-10 15:00:00,30,1018.7,-1.1,40,15,25000,3.704,,,10,,,,,,,,,,,wg-a,,,,AAXX 10154 07481 12675 30102 10300 20150 39918 40187 57011 60006 81203 91500=
07481,1996-06-10 18:00:00,28,1019.2,0.3,51,17,25000,7.408,,,20,20.1,30.4,,,,,,,,,wg-a,,,,AAXX 10184 07481 12675 30204 10280 20170 39921 40192 53003 60006 81203 91800 333 10304 20201=
07481,1996-06-10 21:00:00,24,1021.2,1.6,69,18,500,3.704,,,230,,,,,,,,,,,wg-a,,,,AAXX 10214 07481 12/00 42302 10240 20180 39937 40212 53016 60006 80002 92100=
07481,1996-06-11 00:00:00,21,1021.6,0.1,78,17,25000,7.408,,,150,,,,,,,,,,,wg-a,,,,AAXX 11004 07481 12/75 11504 10210 20170 39938 40216 51001 60006 80001 90000=
07481,1996-06-11 03:00:00,20,1022.1,0.4,83,17,13000,7.408,,,170,,,,,,,,,,,wg-a,,,,AAXX 11034 07481 12/63 01704 10200 20170 39942 40221 50004 60006 80000 90300=
07481,1996-06-11 06:00:00,21,1023.3,1.3,78,17,8000,7.408,,,170,18.4,28.1,,,,,,,,,wg-a,,,,AAXX 11064 07481 02/58 21704 10210 20170 39955 40233 53013 60006 80002 90600 333 10281 20184 60004=
07481,1996-06-11 09:00:00,26,1023.4,0.5,58,17,13000,3.704,,,130,,,,,,,,,,,wg-a,,,,AAXX 11094 07481 12/63 21302 10260 20170 39960 40234 50005 60006 80001 90900=
07481,1996-06-11 12:00:00,29,1022.4,-0.7,45,16,15000,7.408,,,360,,,,,,,,,,,wg-a,,,,AAXX 11124 07481 12665 23604 10290 20160 39953 40224 58007 60006 82200 91200=
07481,1996-06-11 15:00:00,31,1021.4,-0.8,36,14,25000,7.408,,,340,,,,,,,,,,,wg-a,,,,AAXX 11154 07481 12775 33404 10310 20140 39945 40214 56008 60006 82903 91500=
07481,1996-06-11 18:00:00,29,1021.6,-0,48,17,25000,7.408,,,20,21,31.1,,,,,,,,,wg-a,,,,AAXX 11184 07481 12775 20204 10290 20170 39945 40216 55000 60006 81903 91800 333 10311 20210=
07481,1996-06-11 21:00:00,24,1023.3,1.3,69,18,25000,3.704,,,340,,,,,,,,,,,wg-a,,,,AAXX 11214 07481 12/75 13402 10240 20180 39958 40233 53013 60006 81083 92100=
07481,1996-06-12 00:00:00,21,1023.6,-0.1,83,18,500,0,,,0,,,,,,,,,,,wg-a,,,,AAXX 12004 07481 12/00 10000 10210 20180 39957 40236 58001 60006 81080 90000=
07481,1996-06-12 03:00:00,20,1023.5,-0.1,88,18,25000,3.704,,,210,,,,,,,,,,,wg-a,,,,AAXX 12034 07481 12/75 02102 10200 20180 39956 40235 58001 60006 80000 90300=
07481,1996-06-12 06:00:00,21,1024.6,1.1,78,17,6000,3.704,,,270,18.6,28.7,,,,,,,,,wg-a,,,,AAXX 12064 07481 02/56 02702 10210 20170 39967 40246 52011 60006 80000 90600 333 10287 20186 60004=
07481,1996-06-12 09:00:00,27,1024.6,0.6,58,18,18000,14.816,,,350,,,,,,,,,,,wg-a,,,,AAXX 12094 07481 12/68 03508 10270 20180 39973 40246 51006 60006 80000 90900=
07481,1996-06-12 12:00:00,29,1024,-0.4,55,19,25000,22.224,,,350,,,,,,,,,,,wg-a,,,,AAXX 12124 07481 12675 /3512 10290 20190 39969 40240 58004 60006 81200 91200=
07481,1996-06-12 15:00:00,29,1023.3,-0.7,55,19,25000,25.928,,,350,,,,,,,,,,,wg-a,,,,AAXX 12154 07481 12675 23514 10290 20190 39962 40233 56007 60006 82903 91500=
07481,1996-06-12 18:00:00,27,1023.4,-0.1,58,18,25000,22.224,,,340,20.8,29.8,,,,,,,,,wg-a,,,,AAXX 12184 07481 12675 /3412 10270 20180 39961 40234 55001 60006 81200 91800 333 10298 20208=
07481,1996-06-12 21:00:00,22,1026.7,2.7,69,16,20000,22.224,,46.3,350,,,,,,,,,,,wg-a,,,,AAXX 12214 07481 12670 /3512 10220 20160 39988 40267 53027 60006 81832 92100 333 91025=
07481,1996-06-13 00:00:00,19,1027.3,0.3,73,14,20000,22.224,,,350,,,,,,,,,,,wg-a,,,,AAXX 13004 07481 12/70 33512 10190 20140 39991 40273 50003 60006 81032 90000=
07481,1996-06-13 03:00:00,16,1027.1,-0.5,82,13,20000,14.816,,,340,,,,,,,,,,,wg-a,,,,AAXX 13034 07481 12/70 03408 10160 20130 39986 40271 56005 60006 80000 90300=
07481,1996-06-13 06:00:00,16,1027.2,0.2,82,13,18000,18.52,,,340,15.2,26.4,,,,,,,,,wg-a,,,,AAXX 13064 07481 02568 63410 10160 20130 39988 40272 51002 60006 84832 90600 333 10264 20152 60004=
07481,1996-06-13 09:00:00,18,1026.7,-0.2,77,14,15000,22.224,,,340,,,,,,,,,,,wg-a,,,,AAXX 13094 07481 12465 /3412 10180 20140 39985 40267 57002 60006 86100 90900=
07481,1996-06-13 12:00:00,21,1025.9,-0.6,69,15,13000,22.224,,,10,,,,,,,,,,,wg-a,,,,AAXX 13124 07481 12563 70112 10210 20150 39979 40259 58006 60006 875// 91200=
07481,1996-06-13 15:00:00,24,1023.5,-2,57,15,20000,25.928,,,350,,,,,,,,,,,wg-a,,,,AAXX 13154 07481 12570 53514 10240 20150 39959 40235 56020 60006 85800 91500=
07481,1996-06-13 18:00:00,23,1023,-0.6,50,12,500,25.928,,44.448,350,16.1,24.4,,,,,,,,,wg-a,,,,AAXX 13184 07481 12600 43514 10230 20120 39953 40230 55006 60006 81280 91800 333 10244 20161 91024=
07481,1996-06-13 21:00:00,19,1024.2,0.7,49,8,25000,22.224,,,350,,,,,,,,,,,wg-a,,,,AAXX 13214 07481 12/75 13512 10190 20080 39960 40242 51007 60006 80001 92100=
07481,1996-06-14 00:00:00,15,1024.2,-0.4,59,7,25000,11.112,,,330,,,,,,,,,,,wg-a,,,,AAXX 14004 07481 12/75 03306 10150 20070 39956 40242 58004 60006 80000 90000=
07481,1996-06-14 03:00:00,13,1024,-0.4,72,8,25000,11.112,,,320,,,,,,,,,,,wg-a,,,,AAXX 14034 07481 12/75 03206 10130 20080 39952 40240 58004 60006 80000 90300=
07481,1996-06-14 06:00:00,14,1024.3,0.5,72,9,25000,11.112,,,340,11.9,22.8,,,,,,,,,wg-a,,,,AAXX 14064 07481 02/75 03406 10140 20090 39957 40243 53005 60006 80000 90600 333 10228 20119 60004=
07481,1996-06-14 09:00:00,18,1024,0.1,59,10,25000,7.408,,,320,,,,,,,,,,,wg-a,,,,AAXX 14094 07481 12/75 03204 10180 20100 39958 40240 52001 60006 80000 90900=
07481,1996-06-14 12:00:00,22,1022.7,-0.8,53,12,25000,14.816,,,360,,,,,,,,,,,wg-a,,,,AAXX 14124 07481 12/75 03608 10220 20120 39950 40227 58008 60006 80000 91200=
07481,1996-06-14 15:00:00,25,1021.5,-1,41,11,25000,18.52,,,350,,,,,,,,,,,wg-a,,,,AAXX 14154 07481 12675 /3510 10250 20110 39940 40215 56010 60006 81101 91500=
07481,1996-06-14 18:00:00,24,1021.5,-0.1,38,9,25000,22.224,,,360,14,25,,,,,,,,,wg-a,,,,AAXX 14184 07481 12/75 13612 10240 20090 39939 40215 56001 60006 80001 91800 333 10250 20140=
07481,1996-06-14 21:00:00,18,1022.7,0.6,59,10,25000,7.408,,,340,,,,,,,,,,,wg-a,,,,AAXX 14214 07481 12/75 03404 10180 20100 39945 40227 51006 60006 80000 92100=
07481,1996-06-15 00:00:00,15,1022.7,-0.2,72,10,25000,3.704,,,280,,,,,,,,,,,wg-a,,,,AAXX 15004 07481 12/75 02802 10150 20100 39943 40227 58002 60006 80000 90000=
07481,1996-06-15 03:00:00,13,1022.6,-0.3,82,10,25000,7.408,,,320,,,,,,,,,,,wg-a,,,,AAXX 15034 07481 12/75 03204 10130 20100 39940 40226 58003 60006 80000 90300=
07481,1996-06-15 06:00:00,15,1022.9,0.4,72,10,25000,7.408,,,330,12.3,23.5,,,,,,,,,wg-a,,,,AAXX 15064 07481 02/75 03304 10150 20100 39944 40229 52004 60006 80000 90600 333 10235 20123 60004=
07481,1996-06-15 09:00:00,18,1022.4,-0.1,59,10,25000,7.408,,,320,,,,,,,,,,,wg-a,,,,AAXX 15094 07481 12/75 13204 10180 20100 39943 40224 58001 60006 80001 90900=
07481,1996-06-15 12:00:00,23,1020.9,-1,47,11,500,11.112,,,10,,,,,,,,,,,wg-a,,,,AAXX 15124 07481 12/00 10106 10230 20110 39933 40209 58010 60006 80001 91200=
07481,1996-06-15 15:00:00,25,1019.2,-1.5,47,13,40000,18.52,,,10,,,,,,,,,,,wg-a,,,,AAXX 15154 07481 12782 /0110 10250 20130 39918 40192 58015 60006 81201 91500=
07481,1996-06-15 18:00:00,25,1018.3,-0.9,47,13,40000,18.52,,,350,14.7,25.7,,,,,,,,,wg-a,,,,AAXX 15184 07481 12782 13510 10250 20130 39909 40183 55009 60006 81501 91800 333 10257 20147=
07481,1996-06-15 21:00:00,20,1020.1,1.3,56,11,40000,3.704,,,320,,,,,,,,,,,wg-a,,,,AAXX 15214 07481 12782 13202 10200 20110 39922 40201 51013 60006 81501 92100=
07481,1996-06-16 00:00:00,17,1020,-0.4,63,10,25000,7.408,,,270,,,,,,,,,,,wg-a,,,,AAXX 16004 07481 12/75 02704 10170 20100 39918 40200 58004 60006 80000 90000=
07481,1996-06-16 03:00:00,15,1019.6,-0.6,77,11,25000,0,,,0,,,,,,,,,,,wg-a,,,,AAXX 16034 07481 12/75 10000 10150 20110 39912 40196 57006 60006 80001 90300=
07481,1996-06-16 06:00:00,16,1020.1,0.6,72,11,500,3.704,,,300,13.6,24.7,,,,,,,,,wg-a,,,,AAXX 16064 07481 02/00 63002 10160 20110 39918 40201 51006 60006 80002 90600 333 10247 20136 60004=
07481,1996-06-16 09:00:00,20,1019.6,-0.1,56,11,500,7.408,,,330,,,,,,,,,,,wg-a,,,,AAXX 16094 07481 12/00 13304 10200 20110 39917 40196 58001 60006 80002 90900=
07481,1996-06-16 12:00:00,24,1018.3,-0.8,47,12,500,11.112,,,10,,,,,,,,,,,wg-a,,,,AAXX 16124 07481 12600 20106 10240 20120 39909 40183 57008 60006 81102 91200=
07481,1996-06-16 15:00:00,27,1016.7,-1.4,37,11,40000,18.52,,,360,,,,,,,,,,,wg-a,,,,AAXX 16154 07481 12782 /3610 10270 20110 39895 40167 58014 60006 81202 91500=
07481,1996-06-16 18:00:00,25,1016.1,-0.8,41,11,40000,18.52,,,350,16.1,26.8,,,,,,,,,wg-a,,,,AAXX 16184 07481 12782 /3510 10250 20110 39887 40161 56008 60006 81903 91800 333 10268 20161=
07481,1996-06-16 21:00:00,19,1017.6,1,56,10,500,11.112,,,340,,,,,,,,,,,wg-a,,,,AAXX 16214 07481 12700 13406 10190 20100 39897 40176 53010 60006 81202 92100=
07481,1996-06-17 00:00:00,17,1017.7,-0.1,63,10,500,3.704,,,220,,,,,,,,,,,wg-a,,,,AAXX 17004 07481 12/00 02202 10170 20100 39896 40177 57001 60006 80000 90000=
07481,1996-06-17 03:00:00,14,1018,-0,72,9,500,7.408,,,310,,,,,,,,,,,wg-a,,,,AAXX 17034 07481 12/00 03104 10140 20090 39896 40180 54000 60006 80000 90300=
07481,1996-06-17 06:00:00,17,1018.9,1.1,68,11,500,3.704,,,330,13.7,24.8,,,,,,,,,wg-a,,,,AAXX 17064 07481 02/00 03302 10170 20110 39907 40189 53011 60006 80000 90600 333 10248 20137 60004=
07481,1996-06-17 09:00:00,22,1018.7,0.3,50,11,500,3.704,,,110,,,,,,,,,,,wg-a,,,,AAXX 17094 07481 12/00 01102 10220 20110 39910 40187 50003 60006 80000 90900=
07481,1996-06-17 12:00:00,27,1017.4,-0.8,37,11,40000,7.408,,,190,,,,,,,,,,,wg-a,,,,AAXX 17124 07481 12782 /1904 10270 20110 39902 40174 57008 60006 81200 91200=
07481,1996-06-17 15:00:00,29,1015.8,-1.3,23,6,40000,3.704,,,250,,,,,,,,,,,wg-a,,,,AAXX 17154 07481 12782 /2502 10290 20060 39888 40158 56013 60006 81101 91500=
07481,1996-06-17 18:00:00,28,1015.4,-0.5,30,9,40000,11.112,,,180,16.7,28.8,,,,,,,,,wg-a,,,,AAXX 17184 07481 12782 11806 10280 20090 39883 40154 55005 60006 81101 91800 333 10288 20167=
07481,1996-06-17 21:00:00,23,1016.4,0.6,61,15,40000,18.52,,,180,,,,,,,,,,,wg-a,,,,AAXX 17214 07481 12/82 11810 10230 20150 39889 40164 53006 60006 80001 92100=
07481,1996-06-18 00:00:00,21,1016.7,0.1,73,16,500,14.816,,,190,,,,,,,,,,,wg-a,,,,AAXX 18004 07481 12/00 01908 10210 20160 39890 40167 50001 60006 80000 90000=
07481,1996-06-18 03:00:00,19,1016.7,-0.2,78,15,20000,18.52,,,190,,,,,,,,,,,wg-a,,,,AAXX 18034 07481 12/70 11910 10190 20150 39889 40167 57002 60006 80001 90300=
07481,1996-06-18 06:00:00,20,1016.6,-0.1,68,14,15000,14.816,,,180,19,27.5,,,,,,,,,wg-a,,,,AAXX 18064 07481 02/65 31808 10200 20140 39888 40166 57001 60006 80001 90600 333 10275 20190 60004=
07481,1996-06-18 09:00:00,24,1015.6,-0.6,57,15,15000,14.816,,,190,,,,,,,,,,,wg-a,,,,AAXX 18094 07481 12/65 71908 10240 20150 39882 40156 58006 60006 80002 90900=
07481,1996-06-18 12:00:00,28,1014.1,-1.1,45,15,20000,7.408,,,220,,,,,,,,,,,wg-a,,,,AAXX 18124 07481 12670 72204 10280 20150 39871 40141 58011 60006 81102 91200=
07481,1996-06-18 15:00:00,29,1012.7,-1.3,40,14,20000,14.816,,,200,,,,,,,,,,,wg-a,,,,AAXX 18154 07481 12670 /2008 10290 20140 39858 40127 57013 60006 81202 91500=
07481,1996-06-18 18:00:00,27,1012.1,-0.7,51,16,20000,18.52,,,190,20.1,29.3,,,,,,,,,wg-a,,,,AAXX 18184 07481 12670 21910 10270 20160 39851 40121 56007 60006 82300 91800 333 10293 20201=
07481,1996-06-18 21:00:00,23,1013.4,1,69,17,15000,7.408,,,190,,,,,,,,,,1,wg-a,,,,AAXX 18214 07481 12765 /1904 10230 20170 39861 40134 52010 60006 70190 81800 92100=
07481,1996-06-19 00:00:00,21,1013.5,-0.2,78,17,15000,11.112,,,160,,,,,,,,,,1,wg-a,,,,AAXX 19004 07481 12865 21606 10210 20170 39859 40135 58002 60006 70190 81502 90000=
07481,1996-06-19 03:00:00,18,1012.9,-0.9,88,16,12000,7.408,,,130,,,,,,,,,,,wg-a,,,,AAXX 19034 07481 12/62 01304 10180 20160 39850 40129 58009 60006 80000 90300=
07481,1996-06-19 15:00:00,29,1010.5,-1.2,37,13,35000,7.408,,,360,,,,,,,,,,,wg-a,,,,AAXX 19154 07481 12781 /3604 10290 20130 39837 40105 56012 60006 81101 91500=
07481,1996-06-19 18:00:00,27,1009.9,-0.8,34,10,35000,7.408,,,40,20,29.8,,,,,,,,,wg-a,,,,AAXX 19184 07481 12781 50404 10270 20100 39829 40099 56008 60006 81131 91800 333 10298 20200=
07481,1996-06-19 21:00:00,22,1010.9,0.5,53,12,35000,7.408,,,40,,,,,,,,,,,wg-a,,,,AAXX 19214 07481 12781 40404 10220 20120 39834 40109 52005 60006 81131 92100=
07481,1996-06-20 00:00:00,20,1010.6,-0.5,60,12,35000,7.408,,,260,,,,,,,,,,,wg-a,,,,AAXX 20004 07481 12/81 22604 10200 20120 39829 40106 58005 60006 81031 90000=
07481,1996-06-20 03:00:00,18,1009.4,-1.3,68,12,20000,3.704,,,220,,,,,,,,,,,wg-a,,,,AAXX 20034 07481 12/70 32202 10180 20120 39816 40094 57013 60006 82031 90300=
07481,1996-06-20 06:00:00,19,1009.8,0.5,60,11,13000,0,,,0,17,26.6,,,,,,,,,wg-a,,,,AAXX 20064 07481 02/63 40000 10190 20110 39821 40098 53005 60006 83082 90600 333 10266 20170 60004=
07481,1996-06-20 09:00:00,22,1010,0.5,60,14,13000,11.112,,,10,,,,,,,,,,,wg-a,,,,AAXX 20094 07481 12/63 30106 10220 20140 39826 40100 50005 60006 82082 90900=
07481,1996-06-20 12:00:00,24,1009.2,-0.6,61,16,10000,22.224,,,360,,,,,,,,,,,wg-a,,,,AAXX 20124 07481 12660 53612 10240 20160 39820 40092 57006 60006 83282 91200=
07481,1996-06-20 15:00:00,24,1009,,57,15,12000,18.52,,,10,,,,,,,,,,,wg-a,,,,AAXX 20154 07481 32662 20110 10240 20150 39818 40090 81282 91500=
07481,1996-06-20 18:00:00,23,1008.5,,53,13,500,11.112,,,30,19.1,24.9,,,,,,,,,wg-a,,,,AAXX 20184 07481 12600 /0306 10230 20130 39812 40085 60006 81200 91800 333 10249 20191=
07481,1996-06-20 21:00:00,19,1009.7,0.8,73,14,500,7.408,,,60,,,,,,,,,,,wg-a,,,,AAXX 20214 07481 12/00 10604 10190 20140 39820 40097 53008 60006 81080 92100=
07481,1996-06-21 00:00:00,19,1008.4,-1.3,68,13,500,0,,,0,,,,,,,,,,,wg-a,,,,AAXX 21004 07481 12700 50000 10190 20130 39807 40084 58013 60006 81582 90000=
07481,1996-06-21 03:00:00,17,1007.9,-0.6,88,15,20000,7.408,,,250,,,,0,,,,,,17,wg-a,,,,AAXX 21034 07481 12670 72504 10170 20150 39801 40079 56006 60007 71796 83982 90300=
07481,1996-06-21 06:00:00,17,1007.4,-0.5,82,14,8000,7.408,,,180,16.3,22.8,,,,,,,,60,wg-a,,,,AAXX 21064 07481 02658 81804 10170 20140 39796 40074 56005 60004 76096 8388/ 90600 333 10228 20163 61000=
07481,1996-06-21 09:00:00,17,1006.5,-0.8,88,15,8000,3.704,,,140,,,,1,,,,,,60,wg-a,,,,AAXX 21094 07481 12658 71402 10170 20150 39788 40065 58008 60017 76062 8188/ 90900=
07481,1996-06-21 12:00:00,22,1003.3,-2.7,69,16,11000,14.816,,,90,,,,,,,,,,,wg-a,,,,AAXX 21124 07481 12/61 /0908 10220 20160 39761 40033 58027 60016 91200=
07481,1996-06-21 18:00:00,19,1003.5,,83,16,10000,7.408,,,160,14.7,22.5,,0,,,,,,1,wg-a,,,,AAXX 21184 07481 12460 31604 10190 20160 39759 40035 60007 70196 81242 91800 333 10225 20147=
07481,1996-06-21 21:00:00,17,1004.5,0.9,94,16,11000,0,,,0,,,,,,,,,,,wg-a,,,,AAXX 21214 07481 12/61 /0000 10170 20160 39768 40045 53009 60006 92100=
07481,1996-06-22 00:00:00,14,1006.6,1.7,94,13,25000,25.928,,,340,,,,0,,,,,,3,wg-a,,,,AAXX 22004 07481 02375 83414 10140 20130 39785 40066 53017 60006 70361 886// 90000 333 60007=
07481,1996-06-22 03:00:00,11,1010.3,3.3,94,10,10000,22.224,,,340,,,,4,,,,,,61,wg-a,,,,AAXX 22034 07481 12460 83412 10110 20100 39818 40103 51033 60047 76186 888// 90300=
07481,1996-06-22 06:00:00,12,1013.4,3.1,82,9,10000,18.52,,,340,10.6,18.6,,5,,,14,,,1,wg-a,,,,AAXX 22064 07481 02/60 13410 10120 20090 39849 40134 51031 60144 70186 81030 90600 333 10186 20106 60057=
07481,1996-06-22 09:00:00,13,1015.2,1.9,67,7,20000,22.224,,,350,,,,5,,,,,,,wg-a,,,,AAXX 22094 07481 12570 63512 10130 20070 39867 40152 52019 60057 86800 90900=
07481,1996-06-22 12:00:00,14,1016.9,1.8,51,4,25000,22.224,,,340,,,,,,,,,,,wg-a,,,,AAXX 22124 07481 12675 73412 10140 20040 39885 40169 51018 60006 8323/ 91200=
07481,1996-06-22 15:00:00,13,1018.3,1.3,62,6,500,25.928,,,360,,,,,,,,,,25,wg-a,,,,AAXX 22154 07481 02600 73614 10130 20060 39898 40183 53013 61000 72586 8483/ 91500 333 ////=
07481,1996-06-22 18:00:00,13,1019.5,1.1,67,7,500,14.816,,,340,11.7,15.1,,,,,,,,3,wg-a,,,,AAXX 22184 07481 32600 53408 10130 20070 39909 40195 53011 70386 84830 91800 333 10151 20117=
07481,1996-06-22 21:00:00,11,1020.9,1.2,87,9,20000,3.704,,,280,,,,0,,,,,,25,wg-a,,,,AAXX 22214 07481 12670 72802 10110 20090 39921 40209 51012 60007 72522 8583/ 92100=
07481,1996-06-23 00:00:00,11,1021.3,0.3,87,9,20000,3.704,,,360,,,,,,,,,,,wg-a,,,,AAXX 23004 07481 12770 73602 10110 20090 39924 40213 50003 60006 875// 90000=
07481,1996-06-23 03:00:00,10,1020.5,-0.8,93,9,15000,3.704,,,330,,,,,,,,,,,wg-a,,,,AAXX 23034 07481 12665 /3302 10100 20090 39916 40205 56008 60006 82501 90300=
07481,1996-06-23 06:00:00,11,1020.7,0.3,87,9,20000,14.816,,,10,9.1,13.9,,,,,,,,,wg-a,,,,AAXX 23064 07481 12370 20108 10110 20090 39919 40207 53003 60004 81830 90600 333 10139 20091=
07481,1996-06-23 09:00:00,14,1020.8,0.4,63,7,25000,18.52,,,20,,,,,,,,,,,wg-a,,,,AAXX 23094 07481 12575 /0210 10140 20070 39923 40208 50004 60006 84801 90900=
07481,1996-06-23 12:00:00,14,1021,0.2,63,7,25000,25.928,,51.856,330,,,,,,,,,,,wg-a,,,,AAXX 23124 07481 12675 73314 10140 20070 39925 40210 53002 60006 83903 91200 333 91028=
07481,1996-06-23 15:00:00,16,1020.3,-0.5,51,6,20000,14.816,,,350,,,,3,,,,,,3,wg-a,,,,AAXX 23154 07481 12570 73508 10160 20060 39920 40203 58005 60037 70387 85903 91500=
07481,1996-06-23 18:00:00,14,1020.7,0.1,72,9,40000,18.52,,,340,11.2,17.5,,0,,,,,,25,wg-a,,,,AAXX 23184 07481 12682 /3410 10140 20090 39921 40207 53001 60007 72587 83930 91800 333 10175 20112=
07481,1996-06-23 21:00:00,12,1021.9,1.1,76,8,40000,11.112,,,340,,,,,,,,,,,wg-a,,,,AAXX 23214 07481 12882 33406 10120 20080 39932 40219 53011 60006 83060 92100=
07481,1996-06-24 00:00:00,10,1022.4,0.2,87,8,500,11.112,,,330,,,,,,,,,,,wg-a,,,,AAXX 24004 07481 12/00 03306 10100 20080 39934 40224 52002 60006 80000 90000=
07481,1996-06-24 03:00:00,10,1022.4,-0,87,8,500,14.816,,,350,,,,,,,,,,,wg-a,,,,AAXX 24034 07481 12/00 23508 10100 20080 39934 40224 55000 60006 80001 90300=
07481,1996-06-24 06:00:00,11,1023.4,1.1,87,9,20000,18.52,,,360,9.3,13.5,,,,,3,,,,wg-a,,,,AAXX 24064 07481 02470 63610 10110 20090 39945 40234 53011 60006 83501 90600 333 10135 20093 60034=
07481,1996-06-24 09:00:00,15,1023.3,0.3,67,9,25000,22.224,,,350,,,,,,,,,,,wg-a,,,,AAXX 24094 07481 12575 53512 10150 20090 39948 40233 50003 60006 85201 90900=
07481,1996-06-24 12:00:00,17,1022.5,-0.6,52,7,500,22.224,,,350,,,,,,,,,,,wg-a,,,,AAXX 24124 07481 12600 /3512 10170 20070 39942 40225 57006 60006 86800 91200=
07481,1996-06-24 21:00:00,13,1023.2,1,72,8,500,18.52,,,340,,,,,,,,,,,wg-a,,,,AAXX 24214 07481 12600 /3410 10130 20080 39945 40232 51010 60006 82582 92100=
07481,1996-06-25 00:00:00,11,1023.3,-0.1,82,8,18000,18.52,,,340,,,,,,,,,,,wg-a,,,,AAXX 25004 07481 12668 /3410 10110 20080 39944 40233 58001 60006 83532 90000=
07481,1996-06-25 03:00:00,11,1022.8,-0.5,82,8,15000,18.52,,,340,,,,,,,,,,,wg-a,,,,AAXX 25034 07481 12665 73410 10110 20080 39939 40228 56005 60006 8253/ 90300=
07481,1996-06-25 06:00:00,11,1023.2,0.4,82,8,15000,18.52,,,350,10.4,16.3,,,,,,,,,wg-a,,,,AAXX 25064 07481 02465 73510 10110 20080 39943 40232 51004 60006 875// 90600 333 10163 20104 60004=
07481,1996-06-25 09:00:00,13,1023.1,0.1,77,9,12000,22.224,,,360,,,,,,,,,,,wg-a,,,,AAXX 25094 07481 12462 73612 10130 20090 39944 40231 50001 60006 875// 90900=
07481,1996-06-25 12:00:00,17,1021.7,-1,63,10,15000,22.224,,,360,,,,,,,,,,,wg-a,,,,AAXX 25124 07481 12565 73612 10170 20100 39934 40217 58010 60006 878// 91200=
07481,1996-06-25 15:00:00,18,1020.4,-1.1,52,8,20000,18.52,,,360,,,,,,,,,,,wg-a,,,,AAXX 25154 07481 12670 73610 10180 20080 39923 40204 56011 60006 878// 91500=
07481,1996-06-25 18:00:00,17,1020.2,,55,8,500,25.928,,,340,10.7,18.3,,,,,,,,,wg-a,,,,AAXX 25184 07481 12600 73414 10170 20080 39920 40202 60006 878// 91800 333 10183 20107=
07481,1996-06-25 21:00:00,15,1021.1,0.7,63,8,25000,18.52,,,340,,,,,,,,,,,wg-a,,,,AAXX 25214 07481 12775 63410 10150 20080 39927 40211 53007 60006 8453/ 92100=
07481,1996-06-26 00:00:00,13,1021,-0.3,77,9,500,14.816,,,330,,,,,,,,,,,wg-a,,,,AAXX 26004 07481 12700 63308 10130 20090 39924 40210 58003 60006 8253/ 90000=
07481,1996-06-26 03:00:00,11,1020.7,-0.5,87,9,12000,7.408,,,340,,,,,,,,,,,wg-a,,,,AAXX 26034 07481 12/62 73404 10110 20090 39919 40207 57005 60006 8705/ 90300=
07481,1996-06-26 06:00:00,13,1021,0.4,82,10,12000,14.816,,,350,10.6,17.3,,,,,,,,,wg-a,,,,AAXX 26064 07481 02462 73508 10130 20100 39923 40210 52004 60006 8283/ 90600 333 10173 20106 60004=
07481,1996-06-26 09:00:00,17,1020.7,0.2,59,9,20000,25.928,,,10,,,,,,,,,,,wg-a,,,,AAXX 26094 07481 12470 /0114 10170 20090 39925 40207 51002 60006 81130 90900=
07481,1996-06-26 12:00:00,20,1020.2,-0.2,46,8,500,22.224,,,10,,,,,,,,,,,wg-a,,,,AAXX 26124 07481 12500 40112 10200 20080 39923 40202 57002 60006 84200 91200=
07481,1996-06-26 15:00:00,21,1019.8,-0.3,38,6,500,22.224,,,340,,,,,,,,,,,wg-a,,,,AAXX 26154 07481 12500 23412 10210 20060 39920 40198 58003 60006 82231 91500=
07481,1996-06-26 18:00:00,20,1020.5,0.6,46,8,500,22.224,,,340,12.5,21.7,,,,,,,,,wg-a,,,,AAXX 26184 07481 12600 /3412 10200 20080 39926 40205 53006 60006 81140 91800 333 10217 20125=
07481,1996-06-26 21:00:00,15,1022.5,1.4,72,10,500,11.112,,,330,,,,,,,,,,,wg-a,,,,AAXX 26214 07481 12700 33306 10150 20100 39940 40225 53014 60006 81401 92100=
07481,1996-06-27 00:00:00,13,1023,0.3,82,10,500,0,,,0,,,,,,,,,,,wg-a,,,,AAXX 27004 07481 12/00 00000 10130 20100 39943 40230 50003 60006 80000 90000=
07481,1996-06-27 03:00:00,11,1023.1,-0.1,87,9,500,3.704,,,110,,,,,,,,,,,wg-a,,,,AAXX 27034 07481 12/00 11102 10110 20090 39942 40231 55001 60006 80001 90300=
07481,1996-06-27 06:00:00,14,1023.9,1.1,77,10,27000,3.704,,,10,10.9,20.3,,,,,,,,,wg-a,,,,AAXX 27064 07481 02/77 10102 10140 20100 39953 40239 51011 60006 80001 90600 333 10203 20109 60004=
07481,1996-06-27 09:00:00,20,1023.9,0.6,56,11,25000,11.112,,,340,,,,,,,,,,,wg-a,,,,AAXX 27094 07481 12575 13406 10200 20110 39959 40239 50006 60006 81101 90900=
07481,1996-06-27 12:00:00,23,1023.3,-0.4,36,7,500,14.816,,,20,,,,,,,,,,,wg-a,,,,AAXX 27124 07481 12600 30208 10230 20070 39955 40233 58004 60006 81101 91200=
07481,1996-06-27 15:00:00,24,1022.3,-0.8,34,7,500,18.52,,,340,,,,,,,,,,,wg-a,,,,AAXX 27154 07481 12600 23410 10240 20070 39947 40223 58008 60006 81101 91500=
07481,1996-06-27 18:00:00,23,1022.1,-0.3,41,9,500,11.112,,,10,13.7,24.6,,,,,,,,,wg-a,,,,AAXX 27184 07481 12/00 10106 10230 20090 39944 40221 56003 60006 80001 91800 333 10246 20137=
07481,1996-06-27 21:00:00,19,1023,0.5,60,11,25000,3.704,,,20,,,,,,,,,,,wg-a,,,,AAXX 27214 07481 12/75 20202 10190 20110 39949 40230 53005 60006 80002 92100=
07481,1996-06-28 00:00:00,15,1023.2,-0.1,77,11,20000,3.704,,,260,,,,,,,,,,,wg-a,,,,AAXX 28004 07481 12/70 12602 10150 20110 39948 40232 58001 60006 80002 90000=
07481,1996-06-28 03:00:00,14,1022.7,-0.7,82,11,15000,3.704,,,160,,,,,,,,,,,wg-a,,,,AAXX 28034 07481 12/65 21602 10140 20110 39941 40227 56007 60006 80002 90300=
07481,1996-06-28 06:00:00,16,1022.9,0.4,72,11,12000,3.704,,,190,12.9,23.3,,,,,,,,,wg-a,,,,AAXX 28064 07481 02/62 41902 10160 20110 39945 40229 53004 60006 80001 90600 333 10233 20129 60004=
07481,1996-06-28 09:00:00,22,1022.1,-0.2,57,13,10000,3.704,,,230,,,,,,,,,,,wg-a,,,,AAXX 28094 07481 12/60 /2302 10220 20130 39943 40221 58002 60006 90900=
07481,1996-06-28 12:00:00,25,1020.2,-1.6,41,11,15000,7.408,,,30,,,,,,,,,,,wg-a,,,,AAXX 28124 07481 12665 20304 10250 20110 39927 40202 58016 60006 81101 91200=
07481,1996-06-28 15:00:00,27,1018.5,-1.5,34,10,18000,7.408,,,350,,,,,,,,,,,wg-a,,,,AAXX 28154 07481 12668 33504 10270 20100 39912 40185 57015 60006 81101 91500=
07481,1996-06-28 18:00:00,26,1017.1,-1.4,39,11,20000,7.408,,,110,15.7,27.4,,,,,,,,,wg-a,,,,AAXX 28184 07481 12/70 41104 10260 20110 39898 40171 56014 60006 80001 91800 333 10274 20157=
07481,1996-06-28 21:00:00,22,1017.5,0.1,57,13,25000,11.112,,,150,,,,,,,,,,,wg-a,,,,AAXX 28214 07481 12875 51506 10220 20130 39899 40175 53001 60006 8508/ 92100=
07481,1996-06-29 00:00:00,20,1017.5,-0.3,64,13,25000,11.112,,,210,,,,,,,,,,,wg-a,,,,AAXX 29004 07481 12875 22106 10200 20130 39896 40175 56003 60006 82080 90000=
07481,1996-06-29 03:00:00,18,1017.2,-0.4,73,13,25000,7.408,,,210,,,,,,,,,,,wg-a,,,,AAXX 29034 07481 12875 22104 10180 20130 39892 40172 58004 60006 81081 90300=
07481,1996-06-29 06:00:00,20,1018,0.9,68,14,500,7.408,,,310,16.9,25.9,,,,,,,,,wg-a,,,,AAXX 29064 07481 02/00 43104 10200 20140 39901 40180 51009 60006 84081 90600 333 10259 20169 60004=
07481,1996-06-29 09:00:00,22,1018.4,0.6,57,13,40000,11.112,,,320,,,,,,,,,,,wg-a,,,,AAXX 29094 07481 12682 63206 10220 20130 39907 40184 50006 60006 81181 90900=
07481,1996-06-29 12:00:00,24,1017.9,-0.3,50,13,60000,14.816,,,310,,,,,,,,,,,wg-a,,,,AAXX 29124 07481 12686 73108 10240 20130 39904 40179 58003 60006 87801 91200=
07481,1996-06-29 15:00:00,25,1016.7,-1.1,47,13,75000,18.52,,,330,,,,,,,,,,,wg-a,,,,AAXX 29154 07481 12789 /3310 10250 20130 39893 40167 56011 60006 84101 91500=
07481,1996-06-29 18:00:00,23,1016.8,-0,53,13,75000,14.816,,,340,,25.8,,,,,,,,,wg-a,,,,AAXX 29184 07481 12789 53408 10230 20130 39888 40168 55000 60006 84801 91800 333 10258=
07481,1996-06-29 21:00:00,18,1020.4,3,56,9,500,18.52,,,340,,,,,,,,,,,wg-a,,,,AAXX 29214 07481 12700 43410 10180 20090 39923 40204 53030 60006 84502 92100=
07481,1996-06-30 00:00:00,17,1021,0.4,59,9,500,3.704,,,30,,,,,,,,,,,wg-a,,,,AAXX 30004 07481 12700 60302 10170 20090 39927 40210 50004 60006 86500 90000=
07481,1996-06-30 03:00:00,15,1020.2,-0.9,82,12,500,0,,,0,,,,,,,,,,,wg-a,,,,AAXX 30034 07481 12700 50000 10150 20120 39918 40202 56009 60006 85500 90300=
07481,1996-06-30 06:00:00,15,1021,0.8,72,10,11000,11.112,,,340,13.9,23.3,,,,,,,,,wg-a,,,,AAXX 30064 07481 02/61 /3406 10150 20100 39926 40210 52008 60006 90600 333 10233 20139 60004=
07481,1996-06-30 09:00:00,18,1020.5,-0.2,52,8,35000,14.816,,,320,,,,,,,,,,,wg-a,,,,AAXX 30094 07481 12581 /3208 10180 20080 39924 40205 58002 60006 81102 90900=
07481,1996-06-30 12:00:00,20,1019,-1.3,49,9,40000,11.112,,,310,,,,,,,,,,,wg-a,,,,AAXX 30124 07481 12/82 /3106 10200 20090 39911 40190 58013 60006 81042 91200=
07481,1996-06-30 15:00:00,22,1016.9,-1.9,41,8,50000,14.816,,,30,,,,,,,,,,,wg-a,,,,AAXX 30154 07481 12/84 20308 10220 20080 39892 40169 56019 60006 81032 91500=
07481,1996-06-30 18:00:00,21,1015.8,-1.1,46,9,50000,11.112,,,60,14.9,22.3,,,,,,,,,wg-a,,,,AAXX 30184 07481 12/84 10606 10210 20090 39881 40158 58011 60006 81030 91800 333 10223 20149=
07481,1996-06-30 21:00:00,18,1015.9,-0.2,56,9,40000,7.408,,,110,,,,,,,,,,,wg-a,,,,AAXX 30214 07481 12/82 71104 10180 20090 39879 40159 58002 60006 87050 92100=
07481,1996-07-01 00:00:00,18,1014.5,-1.4,59,10,35000,3.704,,,220,,,,,,,,,,,wg-a,,,,AAXX 01004 07481 12/81 72202 10180 20100 39865 40145 58014 60006 86032 90000=
07481,1996-07-01 03:00:00,16,1013.4,-1.2,72,11,500,3.704,,,140,,,,,,,,,,,wg-a,,,,AAXX 01034 07481 12/00 71402 10160 20110 39853 40134 56012 60006 86032 90300=
07481,1996-07-01 06:00:00,16,1013,-0.4,77,12,500,7.408,,,10,15.7,21.1,,,,,,,,,wg-a,,,,AAXX 01064 07481 02600 80104 10160 20120 39849 40130 55004 60006 8357/ 90600 333 10211 20157 60004=
07481,1996-07-01 09:00:00,17,1013.5,0.7,72,12,500,14.816,,,20,,,,,,,,,,,wg-a,,,,AAXX 01094 07481 12600 80208 10170 20120 39855 40135 53007 60006 8257/ 90900=
07481,1996-07-01 12:00:00,19,1012.8,-0.7,64,12,500,7.408,,,10,,,,,,,,,,,wg-a,,,,AAXX 01124 07481 12700 80104 10190 20120 39850 40128 56007 60006 8257/ 91200=
07481,1996-07-01 15:00:00,21,1012.1,-0.4,60,13,500,7.408,,,90,,,,,,,,,,,wg-a,,,,AAXX 01154 07481 12600 80904 10210 20130 39845 40121 56004 60006 8387/ 91500=
07481,1996-07-01 18:00:00,20,1011.8,-0.3,64,13,40000,7.408,,,350,15.9,21.5,,,,,,,,21,wg-a,,,,AAXX 01184 07481 02682 63504 10200 20130 39841 40118 55003 61000 72162 84841 91800 333 10215 20159 ////=
07481,1996-07-02 00:00:00,16,1012.7,-0.4,82,13,25000,7.408,,,150,,,,,,,,,,,wg-a,,,,AAXX 02004 07481 12775 /1504 10160 20130 39846 40127 58004 60006 83500 90000=
07481,1996-07-02 03:00:00,14,1012.6,-0.3,82,11,11000,3.704,,,230,,,,,,,,,,,wg-a,,,,AAXX 02034 07481 12/61 /2302 10140 20110 39843 40126 56003 60006 90300=
07481,1996-07-02 06:00:00,14,1013.1,0.6,88,12,500,7.408,,,340,13.3,19.7,,,,,,,,,wg-a,,,,AAXX 02064 07481 02500 83404 10140 20120 39849 40131 51006 60006 8587/ 90600 333 10197 20133 61000=
07481,1996-07-02 09:00:00,16,1014.2,1,72,11,500,3.704,,,20,,,,,,,,,,21,wg-a,,,,AAXX 02094 07481 02500 80202 10160 20110 39860 40142 51010 61000 72162 8787/ 90900 333 ////=
07481,1996-07-02 12:00:00,17,1013.7,-0.1,72,12,40000,7.408,,,170,,,,,,,,,,3,wg-a,,,,AAXX 02124 07481 02582 71704 10170 20120 39857 40137 57001 61000 70362 878// 91200 333 ////=
07481,1996-07-02 15:00:00,20,1012.9,-0.6,43,7,40000,7.408,,,360,,,,,,,,,,,wg-a,,,,AAXX 02154 07481 12682 73604 10200 20070 39851 40129 56006 60006 85831 91500=
07481,1996-07-02 18:00:00,19,1013.6,0.6,46,7,40000,14.816,,,320,14.4,20,,,,,,,,,wg-a,,,,AAXX 02184 07481 32682 /3208 10190 20070 39857 40136 53006 85831 91800 333 10200 20144=
07481,1996-07-02 21:00:00,15,1014.9,1,67,9,40000,3.704,,,40,,,,,,,,,,,wg-a,,,,AAXX 02214 07481 12782 20402 10150 20090 39867 40149 51010 60006 81501 92100=
07481,1996-07-03 00:00:00,12,1015.5,0.2,82,9,500,7.408,,,240,,,,,,,,,,,wg-a,,,,AAXX 03004 07481 12/00 02404 10120 20090 39869 40155 51002 60006 80000 90000=
07481,1996-07-03 03:00:00,10,1015,-0.6,82,7,500,0,,,0,,,,,,,,,,,wg-a,,,,AAXX 03034 07481 12/00 00000 10100 20070 39863 40150 56006 60006 80000 90300=
07481,1996-07-03 06:00:00,12,1015.5,0.7,76,8,40000,7.408,,,210,9.6,18.8,,,,,,,,,wg-a,,,,AAXX 03064 07481 02/82 02104 10120 20080 39870 40155 51007 60006 80000 90600 333 10188 20096 61000=
07481,1996-07-03 09:00:00,19,1015.3,0.4,52,9,40000,3.704,,,260,,,,,,,,,,,wg-a,,,,AAXX 03094 07481 12582 /2602 10190 20090 39874 40153 51004 60006 81100 90900=
07481,1996-07-03 12:00:00,23,1013.9,-1,38,8,50000,11.112,,,280,,,,,,,,,,,wg-a,,,,AAXX 03124 07481 12684 /2806 10230 20080 39864 40139 58010 60006 81100 91200=
07481,1996-07-03 15:00:00,25,1012.7,-1,34,8,50000,11.112,,,150,,,,,,,,,,,wg-a,,,,AAXX 03154 07481 12784 /1506 10250 20080 39855 40127 58010 60006 81140 91500=
07481,1996-07-03 18:00:00,25,1012.9,0.2,39,10,50000,18.52,,,200,12.2,26,,,,,,,,,wg-a,,,,AAXX 03184 07481 12784 32010 10250 20100 39856 40129 53002 60006 82540 91800 333 10260 20122=
07481,1996-07-03 21:00:00,21,1014.1,0.9,53,11,50000,14.816,,,170,,,,,,,,,,,wg-a,,,,AAXX 03214 07481 12784 21708 10210 20110 39865 40141 52009 60006 82540 92100=
07481,1996-07-04 00:00:00,20,1015,0.8,60,12,10000,11.112,,,190,,,,,,,,,,,wg-a,,,,AAXX 04004 07481 12/60 /1906 10200 20120 39873 40150 52008 60006 90000=
07481,1996-07-04 03:00:00,20,1015.1,-0,64,13,20000,14.816,,,180,,,,,,,,,,,wg-a,,,,AAXX 04034 07481 12770 71808 10200 20130 39873 40151 54000 60006 8157/ 90300=
07481,1996-07-04 06:00:00,20,1015.3,0.2,64,13,25000,14.816,,,160,18.9,24.7,,,,,,,,,wg-a,,,,AAXX 04064 07481 02775 81608 10200 20130 39875 40153 50002 60006 8357/ 90600 333 10247 20189 60004=
07481,1996-07-04 09:00:00,19,1016.6,1.2,83,16,15000,11.112,,,140,,,,1,,,,,,25,wg-a,,,,AAXX 04094 07481 12665 81406 10190 20160 39887 40166 51012 60017 72586 8587/ 90900=
07481,1996-07-04 12:00:00,20,1016.5,0,83,17,25000,11.112,,,140,,,,0,,,,,,2,wg-a,,,,AAXX 04124 07481 02675 81406 10200 20170 39887 40165 50000 60026 70286 8487/ 91200 333 60007=
07481,1996-07-04 15:00:00,24,1015.4,-0.6,69,18,20000,3.704,,,190,,,,,,,,,,,wg-a,,,,AAXX 04154 07481 12770 71902 10240 20180 39881 40154 58006 60006 8523/ 91500=
07481,1996-07-04 18:00:00,22,1014.7,-0.9,78,18,20000,14.816,,,130,17.8,24.8,,,,,,,,,wg-a,,,,AAXX 04184 07481 32770 /1308 10220 20180 39872 40147 56009 85801 91800 333 10248 20178=
07481,1996-07-04 21:00:00,20,1014.8,-0.1,83,17,17000,14.816,,,160,,,,,,,,,,,wg-a,,,,AAXX 04214 07481 12767 51608 10200 20170 39871 40148 56001 60006 83462 92100=
07481,1996-07-05 00:00:00,21,1013.9,-0.8,78,17,20000,29.632,,,190,,,,,,,,,,,wg-a,,,,AAXX 05004 07481 12770 /1916 10210 20170 39863 40139 58008 60006 86500 90000=
07481,1996-07-05 03:00:00,19,1013,-1.2,83,16,20000,14.816,,,150,,,,,,,,,,,wg-a,,,,AAXX 05034 07481 12/70 41508 10190 20160 39852 40130 56012 60006 82042 90300=
07481,1996-07-05 06:00:00,18,1012.2,-0.8,94,17,6000,18.52,,,170,18.1,22.3,,3,,,5,,,61,wg-a,,,,AAXX 05064 07481 02556 81710 10180 20170 39844 40122 58008 60054 76161 8587/ 90600 333 10223 20181 60037=
07481,1996-07-05 09:00:00,20,1010,-2,83,17,18000,18.52,,,160,,,,2,,,,,,3,wg-a,,,,AAXX 05094 07481 12468 71610 10200 20170 39824 40100 56020 60027 70362 8587/ 90900=
07481,1996-07-05 12:00:00,16,1011.2,0.8,94,15,10000,18.52,,42.596,290,,,,6,,,,,,80,wg-a,,,,AAXX 05124 07481 02460 82910 10160 20150 39832 40112 53008 60086 78098 8697/ 91200 333 60067 91023=
07481,1996-07-05 15:00:00,15,1011.8,0.5,100,15,6000,18.52,,,150,,,,25,,,,,,82,wg-a,,,,AAXX 05154 07481 12356 81510 10150 20150 39837 40118 50005 60257 78296 8692/ 91500=
07481,1996-07-05 18:00:00,17,1010.6,-0.9,94,16,20000,14.816,,,160,15.2,20.9,,2,,,,,,1,wg-a,,,,AAXX 05184 07481 12370 71608 10170 20160 39828 40106 55009 60027 70198 8387/ 91800 333 10209 20152=
07481,1996-07-05 21:00:00,17,1009.8,-0.9,88,15,15000,11.112,,,180,,,,,,,,,,21,wg-a,,,,AAXX 05214 07481 02365 71806 10170 20150 39819 40098 56009 61000 72162 8387/ 92100 333 ////=
07481,1996-07-06 00:00:00,16,1009.4,-0.4,94,15,18000,7.408,,,190,,,,1,,,,,,1,wg-a,,,,AAXX 06004 07481 02368 71904 10160 20150 39815 40094 58004 60016 70186 8587/ 90000 333 60017=
07481,1996-07-06 03:00:00,16,1009.3,-0.1,94,15,12000,11.112,,,180,,,,,,,,,,,wg-a,,,,AAXX 06034 07481 12362 71806 10160 20150 39814 40093 55001 60006 8487/ 90300=
07481,1996-07-06 06:00:00,16,1011.6,2.1,82,13,20000,14.816,,,290,15.4,17.5,,0,,,36,,,3,wg-a,,,,AAXX 06064 07481 02470 72908 10160 20130 39835 40116 53021 60364 70362 878// 90600 333 10175 20154 60007=
07481,1996-07-06 09:00:00,15,1013.4,1.7,82,12,500,18.52,,,350,,,,0,,,,,,1,wg-a,,,,AAXX 06094 07481 12400 73510 10150 20120 39852 40134 51017 60007 70162 878// 90900=
07481,1996-07-06 12:00:00,17,1013.2,0,63,10,45000,14.816,,,30,,,,,,,,,,1,wg-a,,,,AAXX 06124 07481 12583 70308 10170 20100 39852 40132 50000 60006 70162 86802 91200=
07481,1996-07-06 15:00:00,19,1012.2,-0.7,49,8,50000,7.408,,,10,,,,,,,,,,,wg-a,,,,AAXX 06154 07481 12684 20104 10190 20080 39844 40122 58007 60006 82100 91500=
07481,1996-07-06 18:00:00,18,1011.2,-1.1,56,9,50000,11.112,,,50,14.2,19.8,,,,,,,,,wg-a,,,,AAXX 06184 07481 32684 /0506 10180 20090 39833 40112 56011 81102 91800 333 10198 20142=
07481,1996-07-06 21:00:00,14,1011.2,-0.3,88,12,40000,0,,,0,,,,,,,,,,,wg-a,,,,AAXX 06214 07481 12682 70000 10140 20120 39830 40112 57003 60006 81241 92100=
07481,1996-07-07 00:00:00,12,1010.8,-0.6,94,11,40000,3.704,,,290,,,,,,,,,,,wg-a,,,,AAXX 07004 07481 12882 32902 10120 20110 39824 40108 55006 60006 83041 90000=
07481,1996-07-07 03:00:00,12,1008.4,-2.3,94,11,25000,3.704,,,240,,,,,,,,,,,wg-a,,,,AAXX 07034 07481 12875 62402 10120 20110 39801 40084 56023 60006 83032 90300=
07481,1996-07-07 06:00:00,13,1006.2,-2.1,88,11,20000,0,,,0,11.5,18.1,,,,,,,,,wg-a,,,,AAXX 07064 07481 02870 80000 10130 20110 39780 40062 56021 60006 85072 90600 333 10181 20115 60004=
07481,1996-07-07 09:00:00,13,1004.7,-1.4,94,12,12000,7.408,,,30,,,,1,,,,,,61,wg-a,,,,AAXX 07094 07481 12462 80304 10130 20120 39766 40047 58014 60017 76162 8487/ 90900=
07481,1996-07-07 12:00:00,12,1003.5,-1.2,94,11,11000,11.112,,,350,,,,,,,,,,,wg-a,,,,AAXX 07124 07481 12/61 /3506 10120 20110 39753 40035 56012 60036 91200=
07481,1996-07-07 15:00:00,12,1002.7,-0.7,100,12,4000,7.408,,,20,,,,11,,,,,,61,wg-a,,,,AAXX 07154 07481 12140 80204 10120 20120 39746 40027 58007 60117 76166 8687/ 91500=
07481,1996-07-07 18:00:00,13,1001.6,-1.1,94,12,4500,3.704,,,290,11.7,13.4,,19,,,,,,63,wg-a,,,,AAXX 07184 07481 12245 82902 10130 20120 39735 40016 56011 60197 76366 8687/ 91800 333 10134 20117=
07481,1996-07-07 21:00:00,13,1003.3,1.7,94,12,4000,11.112,,,330,,,,14,,,,,,63,wg-a,,,,AAXX 07214 07481 12240 83306 10130 20120 39752 40033 51017 60147 76366 8687/ 92100=
07481,1996-07-08 00:00:00,12,1005.8,2.3,94,11,10000,22.224,,,330,,,,8,,,,,,61,wg-a,,,,AAXX 08004 07481 02360 83312 10120 20110 39775 40058 53023 60226 76166 8687/ 90000 333 60087=
07481,1996-07-08 03:00:00,11,1008.7,2.8,94,10,20000,25.928,,,320,,,,4,,,,,,60,wg-a,,,,AAXX 08034 07481 12570 83214 10110 20100 39803 40087 52028 60047 76066 8587/ 90300=
07481,1996-07-08 09:00:00,12,1015.2,3.1,88,10,8000,25.928,,48.152,320,,,,1,,,,,,61,wg-a,,,,AAXX 08094 07481 12258 83214 10120 20100 39866 40152 52031 60017 76165 8787/ 90900 333 91026=
07481,1996-07-08 12:00:00,16,1018,2.9,63,9,15000,25.928,,,340,,,,,,,,,,1,wg-a,,,,AAXX 08124 07481 02565 73414 10160 20090 39897 40180 51029 60016 70165 8587/ 91200 333 61000=
07481,1996-07-08 15:00:00,17,1019.2,1.4,59,9,25000,14.816,,,330,,,,1,,,,,,1,wg-a,,,,AAXX 08154 07481 12675 /3308 10170 20090 39911 40192 51014 60017 70186 85272 91500=
07481,1996-07-08 18:00:00,13,1021.3,1.5,82,10,8000,18.52,,,330,11.7,18.1,,3,,,,,,25,wg-a,,,,AAXX 08184 07481 12458 73310 10130 20100 39927 40213 51015 60037 72586 85270 91800 333 10181 20117=
07481,1996-07-08 21:00:00,13,1023.5,2.1,88,11,500,0,,,0,,,,,,,,,,,wg-a,,,,AAXX 08214 07481 12500 /0000 10130 20110 39948 40235 51021 60006 81270 92100=
07481,1996-07-09 00:00:00,12,1024.8,1.2,94,11,500,3.704,,,80,,,,,,,,,,,wg-a,,,,AAXX 09004 07481 12600 70802 10120 20110 39960 40248 51012 60006 8557/ 90000=
07481,1996-07-09 03:00:00,11,1025.6,0.7,94,10,15000,0,,,0,,,,,,,,,,,wg-a,,,,AAXX 09034 07481 12765 70000 10110 20100 39967 40256 53007 60006 875// 90300=
07481,1996-07-09 06:00:00,11,1026.4,0.8,100,11,10000,0,,,0,10.6,13.4,,,,,6,,,,wg-a,,,,AAXX 09064 07481 02760 70000 10110 20110 39975 40264 53008 60006 875// 90600 333 10134 20106 60064=
07481,1996-07-09 09:00:00,16,1026.5,0.6,72,11,18000,18.52,,,350,,,,,,,,,,,wg-a,,,,AAXX 09094 07481 12568 23510 10160 20110 39981 40265 51006 60006 82200 90900=
07481,1996-07-09 12:00:00,19,1026.1,-0.2,46,7,25000,18.52,,,10,,,,,,,,,,,wg-a,,,,AAXX 09124 07481 12675 50110 10190 20070 39979 40261 58002 60006 84801 91200=
07481,1996-07-09 15:00:00,21,1025.2,-0.8,40,7,500,14.816,,,340,,,,,,,,,,,wg-a,,,,AAXX 09154 07481 12600 33408 10210 20070 39972 40252 56008 60006 83201 91500=
07481,1996-07-09 18:00:00,20,1025.1,-0.1,46,8,45000,14.816,,,10,11.5,21.5,,,,,,,,,wg-a,,,,AAXX 09184 07481 12683 /0108 10200 20080 39970 40251 57001 60006 81400 91800 333 10215 20115=
07481,1996-07-09 21:00:00,15,1025.8,0.3,77,11,40000,0,,,0,,,,,,,,,,,wg-a,,,,AAXX 09214 07481 12/82 10000 10150 20110 39973 40258 50003 60006 81040 92100=
07481,1996-07-10 00:00:00,14,1025.6,-0.3,77,10,35000,3.704,,,230,,,,,,,,,,,wg-a,,,,AAXX 10004 07481 12/81 22302 10140 20100 39970 40256 57003 60006 80002 90000=
07481,1996-07-10 03:00:00,13,1025.2,-0.5,88,11,12000,3.704,,,150,,,,,,,,,,,wg-a,,,,AAXX 10034 07481 12662 71502 10130 20110 39965 40252 56005 60006 8253/ 90300=
07481,1996-07-10 06:00:00,14,1025.5,0.4,82,11,25000,0,,,0,12.9,19.9,,,,,,,,,wg-a,,,,AAXX 10064 07481 02675 80000 10140 20110 39969 40255 52004 60006 875// 90600 333 10199 20129 60004=
07481,1996-07-10 09:00:00,15,1025.7,0.2,88,13,9000,3.704,,,310,,,,0,,,,,,60,wg-a,,,,AAXX 10094 07481 12459 83102 10150 20130 39971 40257 50002 60007 76062 8687/ 90900=
07481,1996-07-10 12:00:00,18,1024.4,-0.9,77,14,20000,11.112,,,300,,,,,,,,,,3,wg-a,,,,AAXX 10124 07481 02570 73006 10180 20140 39962 40244 58009 60006 70362 8687/ 91200 333 61000=
07481,1996-07-10 15:00:00,20,1023,-1.1,64,13,40000,7.408,,,30,,,,,,,,,,,wg-a,,,,AAXX 10154 07481 12582 /0304 10200 20130 39951 40230 57011 60006 85800 91500=
07481,1996-07-10 18:00:00,19,1022.4,-0.7,73,14,50000,11.112,,,340,14.2,20.9,,,,,,,,,wg-a,,,,AAXX 10184 07481 32684 /3406 10190 20140 39944 40224 56007 86800 91800 333 10209 20142=
07481,1996-07-10 21:00:00,16,1023.3,0.5,88,14,50000,0,,,0,,,,,,,,,,,wg-a,,,,AAXX 10214 07481 12784 /0000 10160 20140 39949 40233 53005 60006 81230 92100=
07481,1996-07-11 00:00:00,16,1023.3,0,88,14,40000,7.408,,,340,,,,,,,,,,,wg-a,,,,AAXX 11004 07481 12782 /3404 10160 20140 39949 40233 50000 60006 81530 90000=
07481,1996-07-11 03:00:00,14,1022.6,-0.9,88,12,500,11.112,,,10,,,,,,,,,,,wg-a,,,,AAXX 11034 07481 12800 10106 10140 20120 39940 40226 56009 60006 81030 90300=
07481,1996-07-11 06:00:00,15,1022.8,0.3,88,13,7000,14.816,,,360,12.5,19.1,,,,,,,,,wg-a,,,,AAXX 11064 07481 02/57 /3608 10150 20130 39943 40228 50003 60006 80001 90600 333 10191 20125 60004=
07481,1996-07-11 09:00:00,19,1022.2,-0.2,60,11,11000,25.928,,,350,,,,,,,,,,,wg-a,,,,AAXX 11094 07481 12/61 /3514 10190 20110 39941 40222 58002 60006 90900=
07481,1996-07-11 12:00:00,21,1021.5,-0.6,49,10,25000,14.816,,,350,,,,,,,,,,,wg-a,,,,AAXX 11124 07481 12675 33508 10210 20100 39936 40215 58006 60006 83100 91200=
07481,1996-07-11 15:00:00,22,1020.3,-0.8,50,11,500,14.816,,,350,,,,,,,,,,,wg-a,,,,AAXX 11154 07481 12600 33508 10220 20110 39926 40203 56008 60006 83100 91500=
07481,1996-07-11 18:00:00,22,1020.1,-0.3,50,11,500,14.816,,,340,14.7,22.7,,,,,,,,,wg-a,,,,AAXX 11184 07481 12700 /3408 10220 20110 39923 40201 56003 60006 81400 91800 333 10227 20147=
07481,1996-07-11 21:00:00,17,1021.2,0.7,72,12,500,3.704,,,340,,,,,,,,,,,wg-a,,,,AAXX 11214 07481 12800 13402 10170 20120 39930 40212 51007 60006 81030 92100=
07481,1996-07-12 00:00:00,15,1020.9,-0.5,82,12,500,3.704,,,310,,,,,,,,,,,wg-a,,,,AAXX 12004 07481 12800 13102 10150 20120 39925 40209 58005 60006 81030 90000=
07481,1996-07-12 03:00:00,14,1020.5,-0.5,82,11,10000,3.704,,,200,,,,,,,,,,,wg-a,,,,AAXX 12034 07481 12/60 /2002 10140 20110 39920 40205 56005 60006 90300=
07481,1996-07-12 06:00:00,15,1020.3,-0,82,12,10000,3.704,,,310,12.4,21.5,,,,,,,,,wg-a,,,,AAXX 12064 07481 02/60 03102 10150 20120 39920 40203 55000 60006 80000 90600 333 10215 20124 60004=
07481,1996-07-12 09:00:00,21,1020.2,0.4,60,13,25000,7.408,,,20,,,,,,,,,,,wg-a,,,,AAXX 12094 07481 12675 /0204 10210 20130 39924 40202 51004 60006 81131 90900=
07481,1996-07-12 12:00:00,24,1019.2,-0.8,47,12,35000,7.408,,,40,,,,,,,,,,,wg-a,,,,AAXX 12124 07481 12681 /0404 10240 20120 39916 40192 58008 60006 81101 91200=
07481,1996-07-12 15:00:00,25,1018.1,-0.9,47,13,40000,11.112,,,20,,,,,,,,,,,wg-a,,,,AAXX 12154 07481 12682 /0206 10250 20130 39907 40181 58009 60006 81201 91500=
07481,1996-07-12 18:00:00,24,1018,-0.1,54,14,500,11.112,,,30,15.4,25.6,,,,,,,,,wg-a,,,,AAXX 12184 07481 12600 20306 10240 20140 39906 40180 55001 60006 81201 91800 333 10256 20154=
07481,1996-07-12 21:00:00,20,1019.7,1.2,68,14,35000,7.408,,,60,,,,,,,,,,,wg-a,,,,AAXX 12214 07481 12/81 20604 10200 20140 39918 40197 51012 60006 81062 92100=
07481,1996-07-13 00:00:00,17,1020.1,0.2,82,14,25000,3.704,,,240,,,,,,,,,,,wg-a,,,,AAXX 13004 07481 12/75 22402 10170 20140 39920 40201 50002 60006 82030 90000=
07481,1996-07-13 03:00:00,16,1020.5,0.2,88,14,20000,0,,,0,,,,,,,,,,,wg-a,,,,AAXX 13034 07481 12/70 10000 10160 20140 39922 40205 53002 60006 81032 90300=
07481,1996-07-13 06:00:00,17,1021.4,1,82,14,12000,3.704,,,260,14.6,24.3,,,,,,,,,wg-a,,,,AAXX 13064 07481 02/62 42602 10170 20140 39932 40214 53010 60006 81032 90600 333 10243 20146 60004=
07481,1996-07-13 09:00:00,22,1021.8,0.9,65,15,10000,7.408,,,30,,,,,,,,,,,wg-a,,,,AAXX 13094 07481 12/60 /0304 10220 20150 39941 40218 51009 60006 90900=
07481,1996-07-13 12:00:00,26,1021.4,-0.1,45,13,11000,11.112,,,330,,,,,,,,,,,wg-a,,,,AAXX 13124 07481 12/61 /3306 10260 20130 39940 40214 58001 60006 91200=
07481,1996-07-13 15:00:00,27,1020.8,-0.5,45,14,25000,11.112,,,340,,,,,,,,,,,wg-a,,,,AAXX 13154 07481 12575 /3406 10270 20140 39935 40208 58005 60006 81101 91500=
07481,1996-07-13 18:00:00,26,1021.5,0.7,51,15,25000,14.816,,,20,16.8,27.4,,,,,,,,,wg-a,,,,AAXX 13184 07481 12575 40208 10260 20150 39941 40215 53007 60006 81101 91800 333 10274 20168=
07481,1996-07-13 21:00:00,21,1023.1,1.1,73,16,500,7.408,,,20,,,,,,,,,,,wg-a,,,,AAXX 13214 07481 12/00 10204 10210 20160 39953 40231 52011 60006 80001 92100=
07481,1996-07-14 00:00:00,18,1024.3,0.8,83,15,25000,3.704,,,260,,,,,,,,,,,wg-a,,,,AAXX 14004 07481 12/75 12602 10180 20150 39961 40243 51008 60006 80001 90000=
07481,1996-07-14 06:00:00,18,1025.9,1,88,16,20000,3.704,,,300,15.6,25.6,,,,,,,,,wg-a,,,,AAXX 14064 07481 02/70 13002 10180 20160 39977 40259 53010 60006 80001 90600 333 10256 20156 60004=
07481,1996-07-14 09:00:00,23,1025.5,0.1,65,16,20000,7.408,,,320,,,,,,,,,,,wg-a,,,,AAXX 14094 07481 12/70 13204 10230 20160 39978 40255 50001 60006 80001 90900=
07481,1996-07-14 12:00:00,27,1024.4,-0.7,48,15,25000,14.816,,,360,,,,,,,,,,,wg-a,,,,AAXX 14124 07481 12775 13608 10270 20150 39971 40244 58007 60006 81101 91200=
07481,1996-07-14 15:00:00,28,1023,-1.3,48,16,25000,14.816,,,20,,,,,,,,,,,wg-a,,,,AAXX 14154 07481 12775 10208 10280 20160 39958 40230 57013 60006 81101 91500=
07481,1996-07-14 18:00:00,27,1022.3,-0.8,51,16,25000,14.816,,,20,18.2,28.7,,,,,,,,,wg-a,,,,AAXX 14184 07481 12/75 30208 10270 20160 39950 40223 56008 60006 80001 91800 333 10287 20182=
07481,1996-07-14 21:00:00,22,1023.2,0.4,69,16,500,3.704,,,340,,,,,,,,,,,wg-a,,,,AAXX 14214 07481 12/00 23402 10220 20160 39954 40232 53004 60006 80001 92100=
07481,1996-07-15 00:00:00,19,1023.1,-0.3,83,16,25000,3.704,,,330,,,,,,,,,,,wg-a,,,,AAXX 15004 07481 12/75 23302 10190 20160 39951 40231 58003 60006 80001 90000=
07481,1996-07-15 03:00:00,17,1022.7,-0.6,88,15,25000,0,,,0,,,,,,,,,,,wg-a,,,,AAXX 15034 07481 12/75 00000 10170 20150 39945 40227 57006 60006 80000 90300=
07481,1996-07-15 06:00:00,19,1023,0.4,83,16,25000,11.112,,,340,16.3,26.5,,,,,,,,,wg-a,,,,AAXX 15064 07481 02/75 23406 10190 20160 39949 40230 53004 60006 80002 90600 333 10265 20163 60004=
07481,1996-07-15 09:00:00,23,1022.5,0,69,17,25000,11.112,,,350,,,,,,,,,,,wg-a,,,,AAXX 15094 07481 12/75 13506 10230 20170 39949 40225 50000 60006 80002 90900=
07481,1996-07-15 12:00:00,27,1021.2,-0.9,51,16,35000,14.816,,,340,,,,,,,,,,,wg-a,,,,AAXX 15124 07481 12681 /3408 10270 20160 39940 40212 56009 60006 81100 91200=
07481,1996-07-15 15:00:00,29,1019.7,-1.3,48,17,40000,18.52,,,360,,,,,,,,,,,wg-a,,,,AAXX 15154 07481 12682 /3610 10290 20170 39927 40197 58013 60006 81200 91500=
07481,1996-07-15 18:00:00,28,1019.2,-0.5,55,18,35000,18.52,,,350,18.7,29.1,,,,,,,,,wg-a,,,,AAXX 15184 07481 12681 /3510 10280 20180 39921 40192 56005 60006 81200 91800 333 10291 20187=
07481,1996-07-15 21:00:00,23,1020.6,0.8,69,17,500,7.408,,,310,,,,,,,,,,,wg-a,,,,AAXX 15214 07481 12800 23104 10230 20170 39930 40206 51008 60006 8250/ 92100=
07481,1996-07-16 00:00:00,21,1020.5,-0.3,78,17,25000,11.112,,,330,,,,,,,,,,,wg-a,,,,AAXX 16004 07481 12/75 03306 10210 20170 39927 40205 58003 60006 80000 90000=
07481,1996-07-16 03:00:00,19,1020.8,0.1,88,17,20000,11.112,,,340,,,,,,,,,,,wg-a,,,,AAXX 16034 07481 12/70 23406 10190 20170 39928 40208 50001 60006 80001 90300=
07481,1996-07-16 06:00:00,19,1021.4,0.6,83,16,6000,14.816,,,350,18,27.6,,,,,,,,,wg-a,,,,AAXX 16064 07481 02356 73508 10190 20160 39934 40214 52006 60006 875// 90600 333 10276 20180 60004=
07481,1996-07-16 09:00:00,20,1021.8,0.5,78,16,7000,11.112,,,20,,,,,,,,,,,wg-a,,,,AAXX 16094 07481 12457 70206 10200 20160 39939 40218 51005 60006 871// 90900=
07481,1996-07-16 12:00:00,24,1020.9,-0.5,69,18,10000,7.408,,,60,,,,,,,,,,,wg-a,,,,AAXX 16124 07481 12560 20604 10240 20180 39934 40209 58005 60006 82100 91200=
07481,1996-07-16 15:00:00,27,1019.2,-1.5,62,19,12000,22.224,,,10,,,,,,,,,,,wg-a,,,,AAXX 16154 07481 12562 30112 10270 20190 39920 40192 58015 60006 83100 91500=
07481,1996-07-16 18:00:00,26,1018.6,-0.7,58,17,15000,22.224,,,360,18.7,27.3,,,,,,,,,wg-a,,,,AAXX 16184 07481 12665 /3612 10260 20170 39913 40186 56007 60006 81400 91800 333 10273 20187=
07481,1996-07-16 21:00:00,22,1019.9,0.9,69,16,15000,11.112,,,340,,,,,,,,,,,wg-a,,,,AAXX 16214 07481 12765 /3406 10220 20160 39922 40199 53009 60006 81500 92100=
07481,1996-07-17 00:00:00,19,1020.2,0,83,16,15000,7.408,,,330,,,,,,,,,,,wg-a,,,,AAXX 17004 07481 12/65 03304 10190 20160 39922 40202 50000 60006 80000 90000=
07481,1996-07-17 03:00:00,16,1020.3,-0.2,88,14,15000,7.408,,,330,,,,,,,,,,,wg-a,,,,AAXX 17034 07481 12/65 03304 10160 20140 39920 40203 56002 60006 80000 90300=
07481,1996-07-17 06:00:00,16,1020.5,0.2,77,12,20000,11.112,,,10,14.9,25.7,,,,,,,,,wg-a,,,,AAXX 17064 07481 02/70 40106 10160 20120 39922 40205 53002 60006 82032 90600 333 10257 20149 60004=
07481,1996-07-17 09:00:00,20,1019.8,-0.3,68,14,25000,7.408,,,360,,,,,,,,,,,wg-a,,,,AAXX 17094 07481 12/75 13604 10200 20140 39919 40198 57003 60006 80001 90900=
07481,1996-07-17 10:00:00,25,1017.1,-0.3,50,14,500,22.224,,,350,,26.2,,,,,,,,,wg-a,,,,AAXX 17104 07481 12600 13512 10250 20140 39898 40171 55003 60006 81200 91000 333 10262=
07481,1996-07-17 12:00:00,24,1018.8,-0.6,57,15,500,11.112,,,10,,,,,,,,,,,wg-a,,,,AAXX 17124 07481 12/00 00106 10240 20150 39913 40188 56006 60006 80000 91200=
07481,1996-07-17 15:00:00,26,1017.5,-1.2,58,17,500,18.52,,,360,,,,,,,,,,,wg-a,,,,AAXX 17154 07481 12600 /3610 10260 20170 39902 40175 57012 60006 81100 91500=
07481,1996-07-17 18:00:00,25,1017.1,-0.3,50,14,500,22.224,,,350,15.6,26.2,,,,,,,,,wg-a,,,,AAXX 17184 07481 12600 /3512 10250 20140 39898 40171 55003 60006 81200 91800 333 10262 20156=
07481,1996-07-17 21:00:00,20,1018.3,0.7,68,14,500,7.408,,,310,,,,,,,,,,,wg-a,,,,AAXX 17214 07481 12600 /3104 10200 20140 39905 40183 51007 60006 81400 92100=
07481,1996-07-18 00:00:00,17,1019.5,0.8,77,13,25000,7.408,,,290,,,,,,,,,,,wg-a,,,,AAXX 18004 07481 12/75 02904 10170 20130 39913 40195 53008 60006 80000 90000=
07481,1996-07-18 03:00:00,15,1019.8,0.1,82,12,20000,0,,,0,,,,,,,,,,,wg-a,,,,AAXX 18034 07481 12/70 00000 10150 20120 39914 40198 52001 60006 80000 90300=
07481,1996-07-18 06:00:00,16,1020.2,0.5,72,11,500,3.704,,,330,14.1,24.9,,,,,,,,,wg-a,,,,AAXX 18064 07481 02/00 23302 10160 20110 39919 40202 53005 60006 80002 90600 333 10249 20141 60004=
07481,1996-07-18 09:00:00,20,1019.9,0.1,60,12,500,7.408,,,330,,,,,,,,,,,wg-a,,,,AAXX 18094 07481 12/00 03304 10200 20120 39920 40199 51001 60006 80000 90900=
07481,1996-07-18 12:00:00,24,1019.3,-0.3,54,14,27000,11.112,,,340,,,,,,,,,,,wg-a,,,,AAXX 18124 07481 12677 13406 10240 20140 39918 40193 58003 60006 81100 91200=
07481,1996-07-18 15:00:00,26,1018.5,-0.6,48,14,27000,18.52,,,360,,,,,,,,,,,wg-a,,,,AAXX 18154 07481 12677 /3610 10260 20140 39912 40185 56006 60006 81100 91500=
07481,1996-07-18 18:00:00,25,1018.4,-0.2,41,11,500,18.52,,,360,15.9,26.7,,,,,,,,,wg-a,,,,AAXX 18184 07481 12600 23610 10250 20110 39910 40184 55002 60006 81101 91800 333 10267 20159=
07481,1996-07-18 21:00:00,19,1019.9,0.9,60,11,500,7.408,,,360,,,,,,,,,,,wg-a,,,,AAXX 18214 07481 12/00 13604 10190 20110 39919 40199 53009 60006 80001 92100=
07481,1996-07-19 00:00:00,16,1020.6,0.4,68,10,500,7.408,,,270,,,,,,,,,,,wg-a,,,,AAXX 19004 07481 12/00 02704 10160 20100 39923 40206 52004 60006 80000 90000=
07481,1996-07-19 03:00:00,14,1020.7,-0.2,67,8,500,3.704,,,310,,,,,,,,,,,wg-a,,,,AAXX 19034 07481 12/00 03102 10140 20080 39921 40207 56002 60006 80000 90300=
07481,1996-07-19 06:00:00,15,1021.2,0.7,67,9,50000,11.112,,,350,12.8,24.9,,,,,,,,,wg-a,,,,AAXX 19064 07481 02/84 13506 10150 20090 39928 40212 52007 60006 80001 90600 333 10249 20128 60004=
07481,1996-07-19 09:00:00,19,1020.7,-0.1,60,11,50000,7.408,,,10,,,,,,,,,,,wg-a,,,,AAXX 19094 07481 12/84 10104 10190 20110 39927 40207 57001 60006 80001 90900=
07481,1996-07-19 12:00:00,24,1019.9,-0.4,47,12,40000,22.224,,,350,,,,,,,,,,,wg-a,,,,AAXX 19124 07481 12682 33512 10240 20120 39923 40199 56004 60006 81101 91200=
07481,1996-07-20 06:00:00,15,1021.1,0.5,72,10,35000,7.408,,,10,12.6,24.4,,,,,,,,,wg-a,,,,AAXX 20064 07481 02/81 20104 10150 20100 39926 40211 53005 60006 80001 90600 333 10244 20126 60004=
07481,1996-07-20 12:00:00,23,1020.2,-0.3,44,10,40000,18.52,,,350,,,,,,,,,,,wg-a,,,,AAXX 20124 07481 12682 /3510 10230 20100 39925 40202 58003 60006 81102 91200=
07481,1996-07-20 15:00:00,25,1019.5,-0.4,34,8,50000,22.224,,,340,,,,,,,,,,,wg-a,,,,AAXX 20154 07481 12684 33412 10250 20080 39921 40195 57004 60006 81101 91500=
07481,1996-07-20 21:00:00,18,1021.4,1,52,8,500,3.704,,,330,,,,,,,,,,,wg-a,,,,AAXX 20214 07481 12/00 03302 10180 20080 39932 40214 51010 60006 80000 92100=
07481,1996-07-21 00:00:00,16,1021.5,-0.1,59,8,500,3.704,,,340,,,,,,,,,,,wg-a,,,,AAXX 21004 07481 12/00 03402 10160 20080 39931 40215 56001 60006 80000 90000=
07481,1996-07-21 03:00:00,13,1022,0.2,77,9,500,7.408,,,310,,,,,,,,,,,wg-a,,,,AAXX 21034 07481 12/00 03104 10130 20090 39933 40220 53002 60006 80000 90300=
07481,1996-07-21 06:00:00,13,1022.5,0.7,77,9,35000,3.704,,,320,,,,,,,,,,,wg-a,,,,AAXX 21064 07481 12/81 03202 10130 20090 39938 40225 53007 60006 80000 90600=
07481,1996-07-21 09:00:00,19,1022.3,0.1,56,10,40000,7.408,,,340,,,,,,,,,,,wg-a,,,,AAXX 21094 07481 12/82 03404 10190 20100 39943 40223 50001 60006 80000 90900=
07481,1996-07-21 12:00:00,24,1021.2,-0.7,41,10,40000,7.408,,,310,,,,,,,,,,,wg-a,,,,AAXX 21124 07481 12782 13104 10240 20100 39936 40212 58007 60006 81100 91200=
07481,1996-07-21 18:00:00,24,1019.4,-0.8,41,10,50000,11.112,,,340,14.3,25.9,,,,,,,,,wg-a,,,,AAXX 21184 07481 12784 43406 10240 20100 39919 40194 56008 60006 81101 91800 333 10259 20143=
07481,1996-07-21 21:00:00,18,1020.6,0.6,64,11,500,3.704,,,310,,,,,,,,,,,wg-a,,,,AAXX 21214 07481 12/00 23102 10180 20110 39925 40206 51006 60006 80001 92100=
07481,1996-07-22 03:00:00,15,1020.9,0.1,72,10,20000,3.704,,,190,,,,,,,,,,,wg-a,,,,AAXX 22034 07481 12/70 11902 10150 20100 39925 40209 53001 60006 80001 90300=
07481,1996-07-22 06:00:00,16,1021.6,0.7,72,11,27000,7.408,,,220,13.5,24.1,,,,,,,,,wg-a,,,,AAXX 22064 07481 02/77 02204 10160 20110 39932 40216 53007 60006 80000 90600 333 10241 20135 60004=
07481,1996-07-22 09:00:00,23,1020.2,-0.6,53,13,15000,14.816,,,150,,,,,,,,,,,wg-a,,,,AAXX 22094 07481 12/65 01508 10230 20130 39926 40202 58006 60006 80000 90900=
07481,1996-07-22 12:00:00,27,1019.1,-1.2,39,12,25000,22.224,,,180,,,,,,,,,,,wg-a,,,,AAXX 22124 07481 12/75 01812 10270 20120 39918 40191 58012 60006 80000 91200=
07481,1996-07-22 15:00:00,29,1017.4,-1.4,33,11,25000,25.928,,55.56,180,,,,,,,,,,,wg-a,,,,AAXX 22154 07481 12/75 01814 10290 20110 39904 40174 58014 60006 80000 91500 333 91030=
07481,1996-07-22 18:00:00,27,1016.3,-0.2,37,11,25000,29.632,,,200,15.5,29.5,,,,,,,,,wg-a,,,,AAXX 22184 07481 12/75 02016 10270 20110 39892 40163 55002 60006 80000 91800 333 10295 20155=
07481,1996-07-22 21:00:00,24,1018.1,1.4,47,12,25000,22.224,,,180,,,,,,,,,,,wg-a,,,,AAXX 22214 07481 12/75 01812 10240 20120 39906 40181 52014 60006 80000 92100=
07481,1996-07-23 00:00:00,22,1018.4,0.1,50,11,25000,25.928,,,160,,,,,,,,,,,wg-a,,,,AAXX 23004 07481 12/75 01614 10220 20110 39907 40184 51001 60006 80000 90000=
07481,1996-07-23 03:00:00,21,1018.4,-0,53,11,25000,22.224,,,170,,,,,,,,,,,wg-a,,,,AAXX 23034 07481 12/75 01712 10210 20110 39907 40184 55000 60006 80000 90300=
07481,1996-07-23 06:00:00,22,1018.2,-0.2,50,11,20000,25.928,,,170,19.1,27.3,,,,,,,,,wg-a,,,,AAXX 23064 07481 02/70 01714 10220 20110 39905 40182 55002 60006 80000 90600 333 10273 20191 60004=
07481,1996-07-23 09:00:00,26,1016.7,-1.1,42,12,11000,35.188,,55.56,180,,,,,,,,,,,wg-a,,,,AAXX 23094 07481 12/61 /1819 10260 20120 39894 40167 58011 60006 90900 333 91030=
07481,1996-07-23 12:00:00,28,1014.9,-1.5,37,12,20000,35.188,,61.116,180,,,,,,,,,,29,wg-a,,,,AAXX 23124 07481 12670 41819 10280 20120 39878 40149 58015 60006 72990 82933 91200 333 91033=
07481,1996-07-23 15:00:00,27,1015.6,0.7,42,13,15000,38.892,,,180,,,,,,,,,,1,wg-a,,,,AAXX 23154 07481 02665 71821 10270 20130 39885 40156 50007 61000 70198 8287/ 91500 333 ////=
07481,1996-07-23 18:00:00,26,1014.7,-1,48,14,25000,31.484,,48.152,200,21.8,28.1,,,,,,,,3,wg-a,,,,AAXX 23184 07481 32675 82017 10260 20140 39875 40147 55010 70398 8487/ 91800 333 10281 20218 91026=
07481,1996-07-23 21:00:00,24,1015.9,1,36,8,25000,35.188,,,210,,,,,,,,,,25,wg-a,,,,AAXX 23214 07481 02675 72119 10240 20080 39885 40159 53010 61000 72586 8598/ 92100 333 ////=
07481,1996-07-24 00:00:00,22,1016,-0.1,50,11,15000,22.224,,,200,,,,0,,,,,,17,wg-a,,,,AAXX 24004 07481 02665 72012 10220 20110 39884 40160 56001 60016 71798 8598/ 90000 333 60007=
07481,1996-07-24 06:00:00,19,1016.3,-1.8,83,16,12000,14.816,,,160,18,26.2,,5,,,14,,,17,wg-a,,,,AAXX 24064 07481 02662 /1608 10190 20160 39884 40163 56018 60144 71798 85880 90600 333 10262 20180 60057=
07481,1996-07-24 09:00:00,21,1016.5,0.5,88,19,10000,3.704,,,210,,,,0,,,,,,17,wg-a,,,,AAXX 24094 07481 12660 72102 10210 20190 39888 40165 51005 60007 71798 879// 90900=
07481,1996-07-24 12:00:00,24,1015.7,-0.7,74,19,10000,7.408,,,330,,,,2,,,,,,2,wg-a,,,,AAXX 24124 07481 02560 /3304 10240 20190 39884 40157 56007 60026 70298 86800 91200 333 60027=
07481,1996-07-24 15:00:00,22,1016,0.1,83,19,12000,3.704,,,30,,,,0,,,,,,25,wg-a,,,,AAXX 24154 07481 12562 70302 10220 20190 39885 40160 50001 60007 72586 878// 91500=
07481,1996-07-24 18:00:00,24,1015.7,-0.1,78,20,12000,3.704,,,90,18.9,24,,,,,,,,1,wg-a,,,,AAXX 24184 07481 32662 50902 10240 20200 39884 40157 55001 70186 83880 91800 333 10240 20189=
07481,1996-07-24 21:00:00,20,1017.7,1.5,83,17,20000,7.408,,,350,,,,,,,,,,,wg-a,,,,AAXX 24214 07481 12870 33504 10200 20170 39899 40177 52015 60006 81082 92100=
07481,1996-07-25 00:00:00,18,1018.9,1,88,16,20000,3.704,,,210,,,,,,,,,,,wg-a,,,,AAXX 25004 07481 12670 32102 10180 20160 39909 40189 51010 60006 81580 90000=
07481,1996-07-25 03:00:00,16,1018.9,-0.2,88,14,20000,3.704,,,80,,,,,,,,,,,wg-a,,,,AAXX 25034 07481 12/70 30802 10160 20140 39907 40189 58002 60006 83030 90300=
07481,1996-07-25 06:00:00,16,1019.9,1,82,13,20000,11.112,,,350,14.9,23.8,,,,,3,,,,wg-a,,,,AAXX 25064 07481 02/70 53506 10160 20130 39917 40199 51010 60006 83031 90600 333 10238 20149 60034=
07481,1996-07-25 09:00:00,21,1019.7,0.2,69,15,20000,11.112,,,330,,,,,,,,,,,wg-a,,,,AAXX 25094 07481 12570 63306 10210 20150 39919 40197 50002 60006 81101 90900=
07481,1996-07-25 12:00:00,25,1018.9,-0.4,47,13,20000,14.816,,,350,,,,0,,,,,,,wg-a,,,,AAXX 25124 07481 02570 43508 10250 20130 39915 40189 58004 60006 81101 91200 333 60007=
07481,1996-07-25 15:00:00,25,1018,-0.9,41,11,35000,18.52,,,10,,,,,,,,,,,wg-a,,,,AAXX 25154 07481 12581 /0110 10250 20110 39906 40180 58009 60006 81102 91500=
07481,1996-07-25 18:00:00,23,1016.8,-1.3,50,12,35000,18.52,,,350,16.5,25.6,,,,,,,,,wg-a,,,,AAXX 25184 07481 32/81 53510 10230 20120 39893 40168 56013 80002 91800 333 10256 20165=
07481,1996-07-25 21:00:00,18,1018,0.7,68,12,500,7.408,,,320,,,,,,,,,,,wg-a,,,,AAXX 25214 07481 12/00 43204 10180 20120 39900 40180 52007 60006 81032 92100=
07481,1996-07-26 00:00:00,16,1018.7,0.5,77,12,20000,7.408,,,320,,,,,,,,,,,wg-a,,,,AAXX 26004 07481 12/70 53204 10160 20120 39905 40187 51005 60006 80002 90000=
07481,1996-07-26 03:00:00,14,1018.2,-0.7,88,12,20000,3.704,,,350,,,,,,,,,,,wg-a,,,,AAXX 26034 07481 12/70 13502 10140 20120 39898 40182 58007 60006 80002 90300=
07481,1996-07-26 06:00:00,15,1018.3,0.2,88,13,7000,7.408,,,10,13.1,23.4,,,,,,,,,wg-a,,,,AAXX 26064 07481 02/57 20104 10150 20130 39900 40183 53002 60006 81032 90600 333 10234 20131 60004=
07481,1996-07-26 09:00:00,17,1018.7,0.6,82,14,10000,3.704,,,300,,,,,,,,,,,wg-a,,,,AAXX 26094 07481 12/60 63002 10170 20140 39906 40187 51006 60006 8603/ 90900=
07481,1996-07-26 12:00:00,24,1016.8,-1.2,57,15,12000,3.704,,,320,,,,,,,,,,,wg-a,,,,AAXX 26124 07481 12/62 43202 10240 20150 39894 40168 58012 60006 82082 91200=
07481,1996-07-26 15:00:00,26,1015.7,-0.8,51,15,20000,7.408,,,350,,,,,,,,,,,wg-a,,,,AAXX 26154 07481 12/70 23504 10260 20150 39885 40157 55008 60006 81081 91500=
07481,1996-07-26 18:00:00,24,1015.4,-0.4,61,16,20000,7.408,,,10,15,26.4,,,,,,,,,wg-a,,,,AAXX 26184 07481 12770 70104 10240 20160 39881 40154 57004 60006 81282 91800 333 10264 20150=
07481,1996-07-26 21:00:00,21,1015.5,-0.2,78,17,20000,3.704,,,300,,,,,,,,,,,wg-a,,,,AAXX 26214 07481 12/70 73002 10210 20170 39879 40155 57002 60006 82082 92100=
07481,1996-07-27 00:00:00,20,1016.2,0.5,78,16,20000,0,,,0,,,,,,,,,,,wg-a,,,,AAXX 27004 07481 12/70 30000 10200 20160 39884 40162 51005 60006 82032 90000=
07481,1996-07-27 03:00:00,17,1016.1,-0.3,94,16,15000,3.704,,,290,,,,,,,,,,,wg-a,,,,AAXX 27034 07481 12665 22902 10170 20160 39881 40161 57003 60006 81130 90300=
07481,1996-07-27 06:00:00,18,1017,0.9,83,15,8000,0,,,0,16.8,24.4,,,,,,,,25,wg-a,,,,AAXX 27064 07481 02658 60000 10180 20150 39890 40170 53009 61000 72586 81282 90600 333 10244 20168 6100=
07481,1996-07-27 09:00:00,21,1016.6,0,78,17,7000,7.408,,,320,,,,,,,,,,25,wg-a,,,,AAXX 27094 07481 02657 53204 10210 20170 39890 40166 50000 61000 72586 81282 90900 333 ////=
07481,1996-07-27 12:00:00,25,1017,0.7,65,18,8000,3.704,,,70,,,,,,,,,,3,wg-a,,,,AAXX 27124 07481 02758 /0702 10250 20180 39897 40170 53007 61000 70386 8258/ 91200 333 6100=
07481,1996-07-27 15:00:00,27,1015.3,-1.5,62,19,10000,7.408,,,120,,,,,,,,,,,wg-a,,,,AAXX 27154 07481 12560 71204 10270 20190 39882 40153 56015 60006 81182 91500=
07481,1996-07-27 18:00:00,26,1015.9,0.5,54,16,15000,14.816,,33.336,200,17.6,27.7,,,,,,,,,wg-a,,,,AAXX 27184 07481 32565 /2008 10260 20160 39887 40159 51005 81183 91800 333 10277 20176 91018=
07481,1996-07-27 21:00:00,22,1017.4,1.1,73,17,20000,7.408,,,130,,,,,,,,,,,wg-a,,,,AAXX 27214 07481 12/70 71304 10220 20170 39898 40174 51011 60006 83082 92100=
07481,1996-07-28 00:00:00,20,1017.2,-0.4,78,16,20000,3.704,,,110,,,,,,,,,,,wg-a,,,,AAXX 28004 07481 12/70 71102 10200 20160 39894 40172 56004 60006 84082 90000=
07481,1996-07-28 03:00:00,20,1016.4,-0.8,88,18,20000,3.704,,,120,,,,1,,,,,,21,wg-a,,,,AAXX 28034 07481 12670 71202 10200 20180 39886 40164 56008 60017 72162 878// 90300=
07481,1996-07-28 06:00:00,20,1017.2,0.8,88,18,11000,3.704,,,270,19.1,25.8,,,,,1,,,3,wg-a,,,,AAXX 28064 07481 12661 72702 10200 20180 39894 40172 53008 60014 70362 878// 90600 333 10258 20191=
07481,1996-07-28 09:00:00,20,1018,0.8,83,17,15000,3.704,,,120,,,,,,,,,,60,wg-a,,,,AAXX 28094 07481 02565 71202 10200 20170 39902 40180 53008 61000 76062 878// 90900 333 ////=
07481,1996-07-28 12:00:00,25,1017.5,0,57,16,17000,11.112,,,350,,,,,,,,,,1,wg-a,,,,AAXX 28124 07481 02667 /3506 10250 20160 39901 40175 50000 61000 70162 82830 91200 333 ////=
07481,1996-07-28 15:00:00,27,1016.6,-0.6,54,17,20000,11.112,,,360,,,,,,,,,,,wg-a,,,,AAXX 28154 07481 12670 33606 10270 20170 39895 40166 58006 60006 81102 91500=
07481,1996-07-28 18:00:00,26,1016.4,-0.3,58,17,22000,11.112,,,80,19.2,26.8,,,,,,,,,wg-a,,,,AAXX 28184 07481 32/72 10806 10260 20170 39892 40164 55003 81061 91800 333 10268 20192=
07481,1996-07-28 21:00:00,22,1017.8,1,69,16,20000,0,,,0,,,,,,,,,,,wg-a,,,,AAXX 28214 07481 12/70 10000 10220 20160 39902 40178 51010 60006 8103/ 92100=
07481,1996-07-29 00:00:00,20,1018.2,0.2,83,17,18000,3.704,,,180,,,,,,,,,,,wg-a,,,,AAXX 29004 07481 12/68 01802 10200 20170 39904 40182 51002 60006 80000 90000=
07481,1996-07-29 03:00:00,17,1017.7,-0.8,88,15,13000,7.408,,,150,,,,,,,,,,,wg-a,,,,AAXX 29034 07481 12/63 01504 10170 20150 39896 40177 56008 60006 80000 90300=
07481,1996-07-29 06:00:00,18,1017.7,0.1,88,16,12000,0,,,0,15.9,25.5,,,,,,,,,wg-a,,,,AAXX 29064 07481 02/62 00000 10180 20160 39897 40177 53001 60006 80000 90600 333 10255 20159 61000=
07481,1996-07-29 09:00:00,24,1017.2,0.1,61,16,10000,3.704,,,250,,,,,,,,,,,wg-a,,,,AAXX 29094 07481 12/60 /2502 10240 20160 39898 40172 52001 60006 90900=
07481,1996-07-29 12:00:00,27,1015.8,-1.2,42,13,11000,11.112,,,350,,,,,,,,,,,wg-a,,,,AAXX 29124 07481 12/61 /3506 10270 20130 39887 40158 58012 60006 91200=
07481,1996-07-29 15:00:00,29,1013.8,-1.7,37,13,25000,7.408,,,30,,,,,,,,,,,wg-a,,,,AAXX 29154 07481 12575 40304 10290 20130 39869 40138 56017 60006 81101 91500=
07481,1996-07-29 18:00:00,28,1012.5,-1.4,42,14,25000,11.112,,,70,18,29.4,,,,,,,,,wg-a,,,,AAXX 29184 07481 12675 /0706 10280 20140 39855 40125 56014 60006 81302 91800 333 10294 20180=
07481,1996-07-29 21:00:00,25,1013.8,1,54,15,25000,3.704,,,120,,,,,,,,,,17,wg-a,,,,AAXX 29214 07481 12675 51202 10250 20150 39865 40138 51010 60006 71792 83933 92100=
07481,1996-07-30 00:00:00,19,1016.3,1.9,78,15,15000,7.408,,,30,,,,4,,,,,,17,wg-a,,,,AAXX 30004 07481 02565 70304 10190 20150 39884 40163 51019 60046 71798 8693/ 90000 333 60047=
07481,1996-07-30 03:00:00,17,1016.5,0.1,94,16,15000,3.704,,,270,,,,1,,,,,,80,wg-a,,,,AAXX 30034 07481 12565 72702 10170 20160 39885 40165 53001 60017 78099 8397/ 90300=
07481,1996-07-30 06:00:00,18,1016.8,0.4,88,16,25000,7.408,,,290,17.4,27.9,,0,,,5,,,1,wg-a,,,,AAXX 30064 07481 02575 32904 10180 20160 39889 40168 51004 60054 70198 83830 90600 333 10279 20174 60007=
07481,1996-07-30 09:00:00,21,1017.2,0.6,73,16,500,7.408,,,350,,,,,,,,,,,wg-a,,,,AAXX 30094 07481 12500 53504 10210 20160 39895 40172 53006 60006 84880 90900=
07481,1996-07-30 12:00:00,24,1016.6,-0.3,57,15,35000,18.52,,,340,,,,,,,,,,,wg-a,,,,AAXX 30124 07481 12681 33410 10240 20150 39892 40166 57003 60006 83200 91200=
07481,1996-07-30 15:00:00,25,1016.4,-0.1,50,14,40000,18.52,,,360,,,,,,,,,,,wg-a,,,,AAXX 30154 07481 12682 /3610 10250 20140 39891 40164 58001 60006 81800 91500=
07481,1996-07-30 18:00:00,24,1017,0.5,54,14,50000,18.52,,,20,18.2,25.8,,,,,,,,,wg-a,,,,AAXX 30184 07481 12684 /0210 10240 20140 39896 40170 53005 60006 81101 91800 333 10258 20182=
07481,1996-07-30 21:00:00,19,1018.6,1.1,78,15,25000,7.408,,,350,,,,,,,,,,,wg-a,,,,AAXX 30214 07481 12775 23504 10190 20150 39907 40186 51011 60006 81401 92100=
07481,1996-07-31 00:00:00,17,1018.6,-0.2,88,15,25000,3.704,,,10,,,,,,,,,,,wg-a,,,,AAXX 31004 07481 12/75 00102 10170 20150 39905 40186 58002 60006 80000 90000=
07481,1996-07-31 03:00:00,16,1018.4,-0.3,88,14,20000,3.704,,,320,,,,,,,,,,,wg-a,,,,AAXX 31034 07481 12/70 03202 10160 20140 39902 40184 57003 60006 80000 90300=
07481,1996-07-31 06:00:00,18,1018.6,0.4,77,14,25000,0,,,0,15.4,23.6,,,,,,,,,wg-a,,,,AAXX 31064 07481 02/75 00000 10180 20140 39906 40186 52004 60006 80000 90600 333 10236 20154 60004=
07481,1996-07-31 09:00:00,22,1018.5,0.2,60,14,10000,11.112,,,350,,,,,,,,,,,wg-a,,,,AAXX 31094 07481 12/60 /3506 10220 20140 39909 40185 50002 60006 90900=
07481,1996-07-31 12:00:00,26,1017.2,-0.8,42,12,50000,11.112,,,340,,,,,,,,,,,wg-a,,,,AAXX 31124 07481 12584 /3406 10260 20120 39900 40172 58008 60006 81100 91200=
07481,1996-07-31 15:00:00,28,1016.2,-0.9,40,13,50000,7.408,,,20,,,,,,,,,,,wg-a,,,,AAXX 31154 07481 12684 /0204 10280 20130 39891 40162 56009 60006 81100 91500=
07481,1996-07-31 18:00:00,27,1015.5,-0.7,45,14,50000,7.408,,,20,17.9,27.9,,,,,,,,,wg-a,,,,AAXX 31184 07481 12/84 /0204 10270 20140 39884 40155 56007 60006 80000 91800 333 10279 20179=
07481,1996-07-31 21:00:00,22,1016.6,0.6,69,16,50000,3.704,,,30,,,,,,,,,,,wg-a,,,,AAXX 31214 07481 12/84 00302 10220 20160 39890 40166 51006 60006 80000 92100=
07481,1996-08-01 00:00:00,19,1016.9,0,83,16,500,3.704,,,220,,,,,,,,,,,wg-a,,,,AAXX 01004 07481 12/00 02202 10190 20160 39890 40169 50000 60006 80000 90000=
07481,1996-08-01 03:00:00,17,1017.1,0,82,14,500,3.704,,,130,,,,,,,,,,,wg-a,,,,AAXX 01034 07481 12/00 01302 10170 20140 39890 40171 50000 60006 80000 90300=
07481,1996-08-01 04:00:00,18,1017.4,0.5,83,15,500,3.704,,,160,16.5,26.6,,,,,,,,,wg-a,,,,AAXX 01044 07481 02/00 11602 10180 20150 39895 40174 52005 60006 80001 90400 333 10266 20165 60004=
07481,1996-08-01 06:00:00,18,1017.4,0.5,83,15,500,3.704,,,160,16.5,26.6,,,,,,,,,wg-a,,,,AAXX 01064 07481 02/00 11602 10180 20150 39895 40174 52005 60006 80001 90600 333 10266 20165 60004=
07481,1996-08-01 09:00:00,25,1017.1,0.2,57,16,25000,3.704,,,140,,,,,,,,,,,wg-a,,,,AAXX 01094 07481 12/75 11402 10250 20160 39897 40171 51002 60006 80001 90900=
07481,1996-08-01 12:00:00,29,1015.5,-1.1,43,15,40000,3.704,,,70,,,,,,,,,,,wg-a,,,,AAXX 01124 07481 12682 /0702 10290 20150 39886 40155 58011 60006 81100 91200=
07481,1996-08-01 15:00:00,32,1013.9,-1.4,34,14,11000,18.52,,,170,,,,,,,,,,,wg-a,,,,AAXX 01154 07481 12/61 /1710 10320 20140 39872 40139 57014 60006 91500=
07481,1996-08-01 18:00:00,29,1014,,45,16,25000,11.112,,,180,18.3,31.8,,,,,,,,17,wg-a,,,,AAXX 01184 07481 32675 71806 10290 20160 39871 40140 71798 84983 91800 333 10318 20183=
07481,1996-08-01 21:00:00,24,1016.7,2.2,69,18,11000,7.408,,,200,,,,,,,,,,,wg-a,,,,AAXX 01214 07481 32/61 /2004 10240 20180 39893 40167 51022 92100=
07481,1996-08-02 00:00:00,22,1017.7,0.8,69,16,18000,7.408,,,200,,,,,,,,,,1,wg-a,,,,AAXX 02004 07481 12768 12004 10220 20160 39901 40177 52008 60006 70191 81502 90000=
07481,1996-08-02 03:00:00,19,1018.3,0.3,83,16,15000,3.704,,,240,,,,,,,,,,,wg-a,,,,AAXX 02034 07481 12765 22402 10190 20160 39904 40183 52003 60006 81532 90300=
07481,1996-08-02 06:00:00,18,1019.8,1.4,88,16,18000,3.704,,,290,17.9,28.7,,,,,,,,,wg-a,,,,AAXX 02064 07481 02268 52902 10180 20160 39918 40198 53014 60006 84682 90600 333 10287 20179 61000=
07481,1996-08-02 09:00:00,23,1019.9,0.5,69,17,20000,7.408,,,330,,,,,,,,,,,wg-a,,,,AAXX 02094 07481 12570 33304 10230 20170 39923 40199 51005 60006 81182 90900=
07481,1996-08-02 12:00:00,25,1020.1,0.4,61,17,20000,22.224,,,330,,,,,,,,,,,wg-a,,,,AAXX 02124 07481 12570 83312 10250 20170 39927 40201 53004 60006 8687/ 91200=
07481,1996-08-02 15:00:00,21,1021,0.5,78,17,10000,14.816,,,330,,,,3,,,,,,17,wg-a,,,,AAXX 02154 07481 12460 /3308 10210 20170 39932 40210 50005 60037 71798 8383/ 91500=
07481,1996-08-02 18:00:00,21,1021.2,0.2,88,19,10000,7.408,,,240,18.1,25.5,,0,,,,,,21,wg-a,,,,AAXX 02184 07481 12760 72404 10210 20190 39934 40212 52002 60007 72198 81532 91800 333 10255 20181=
07481,1996-08-02 21:00:00,19,1022,0.6,94,18,6000,3.704,,,320,,,,,,,,,,11,wg-a,,,,AAXX 02214 07481 12456 /3202 10190 20180 39940 40220 52006 60006 71122 82230 92100=
07481,1996-08-03 00:00:00,17,1022.1,-0.1,100,17,9000,3.704,,,280,,,,0,,,,,,11,wg-a,,,,AAXX 03004 07481 02/59 /2802 10170 20170 39939 40221 56001 60006 71111 81030 90000 333 60007=
07481,1996-08-03 03:00:00,17,1021.5,-0.5,100,17,6000,0,,,0,,,,,,,,,,,wg-a,,,,AAXX 03034 07481 12256 70000 10170 20170 39934 40215 58005 60006 876// 90300=
07481,1996-08-03 06:00:00,18,1022.4,0.9,94,17,2500,11.112,,,320,16.9,20.7,,,,,3,,,10,wg-a,,,,AAXX 03064 07481 12125 73206 10180 20170 39943 40224 52009 60034 71011 876// 90600 333 10207 20169=
07481,1996-08-03 09:00:00,21,1022.3,0.2,73,16,500,18.52,,,350,,,,,,,,,,,wg-a,,,,AAXX 03094 07481 12500 63510 10210 20160 39945 40223 51002 60006 82231 90900=
07481,1996-08-03 12:00:00,25,1021.2,-0.8,50,14,40000,22.224,,,350,,,,,,,,,,,wg-a,,,,AAXX 03124 07481 12582 43512 10250 20140 39937 40212 56008 60006 83231 91200=
07481,1996-08-03 15:00:00,26,1020.3,-0.8,37,10,40000,25.928,,,360,,,,,,,,,,,wg-a,,,,AAXX 03154 07481 12682 33614 10260 20100 39929 40203 58008 60006 81231 91500=
07481,1996-08-03 18:00:00,24,1020.2,-0.3,41,10,40000,22.224,,,350,17.6,26.1,,,,,,,,,wg-a,,,,AAXX 03184 07481 12682 /3512 10240 20100 39926 40202 55003 60006 81200 91800 333 10261 20176=
07481,1996-08-03 21:00:00,18,1020.9,0.2,64,11,40000,11.112,,,10,,,,,,,,,,,wg-a,,,,AAXX 03214 07481 12/82 00106 10180 20110 39928 40209 50002 60006 80000 92100=
07481,1996-08-04 00:00:00,15,1020.8,-0.4,82,12,10000,3.704,,,90,,,,,,,,,,,wg-a,,,,AAXX 04004 07481 12/60 /0902 10150 20120 39924 40208 58004 60006 90000=
07481,1996-08-04 03:00:00,14,1020,-0.9,88,12,15000,3.704,,,310,,,,,,,,,,,wg-a,,,,AAXX 04034 07481 12/65 03102 10140 20120 39915 40200 56009 60006 80000 90300=
07481,1996-08-04 06:00:00,14,1020.3,0.3,88,12,15000,3.704,,,350,12.6,23.9,,,,,,,,,wg-a,,,,AAXX 04064 07481 02365 33502 10140 20120 39918 40203 52003 60006 83600 90600 333 10239 20126 60004=
07481,1996-08-04 09:00:00,17,1019.3,-0.6,77,13,25000,3.704,,,320,,,,,,,,,,,wg-a,,,,AAXX 04094 07481 12475 23202 10170 20130 39912 40193 58006 60006 82101 90900=
07481,1996-08-04 12:00:00,22,1017,-1.8,53,12,35000,7.408,,,10,,,,,,,,,,,wg-a,,,,AAXX 04124 07481 12681 20104 10220 20120 39894 40170 57018 60006 81101 91200=
07481,1996-08-04 15:00:00,25,1014.8,-1.9,47,13,40000,7.408,,,30,,,,,,,,,,,wg-a,,,,AAXX 04154 07481 12682 30304 10250 20130 39875 40148 58019 60006 81102 91500=
07481,1996-08-04 18:00:00,24,1014,-0.8,50,13,40000,3.704,,,340,13.8,25.3,,,,,,,,,wg-a,,,,AAXX 04184 07481 12782 53402 10240 20130 39867 40140 56008 60006 81102 91800 333 10253 20138=
07481,1996-08-04 21:00:00,19,1014.2,-0.3,73,14,40000,0,,,0,,,,,,,,,,,wg-a,,,,AAXX 04214 07481 12482 20000 10190 20140 39864 40142 56003 60006 81202 92100=
07481,1996-08-05 00:00:00,18,1014.2,-0.1,73,13,40000,11.112,,,160,,,,,,,,,,,wg-a,,,,AAXX 05004 07481 12/82 11606 10180 20130 39863 40142 58001 60006 80001 90000=
07481,1996-08-05 03:00:00,16,1014.1,-0.3,82,13,40000,7.408,,,150,,,,,,,,,,,wg-a,,,,AAXX 05034 07481 12/82 21504 10160 20130 39860 40141 55003 60006 80001 90300=
07481,1996-08-05 06:00:00,18,1013.7,-0.2,73,13,40000,7.408,,,160,15.2,24.3,,,,,,,,,wg-a,,,,AAXX 05064 07481 02782 61604 10180 20130 39858 40137 56002 60006 815/2 90600 333 10243 20152 60004=
07481,1996-08-05 09:00:00,21,1013.1,-0.2,64,14,10000,18.52,,,180,,,,,,,,,,,wg-a,,,,AAXX 05094 07481 12/60 /1810 10210 20140 39855 40131 55002 60006 90900=
07481,1996-08-05 12:00:00,21,1013,-0.2,69,15,500,22.224,,,150,,,,,,,,,,21,wg-a,,,,AAXX 05124 07481 02600 71512 10210 20150 39854 40130 58002 61000 72162 8128/ 91200 333 6100=
07481,1996-08-05 15:00:00,20,1012.6,-0.5,83,17,40000,29.632,,,130,,,,1,,,,,,21,wg-a,,,,AAXX 05154 07481 12682 71316 10200 20170 39849 40126 58005 60017 72162 8128/ 91500=
07481,1996-08-05 18:00:00,19,1012.5,-0.1,94,18,13000,11.112,,,200,17.5,22.9,,2,,,,,,21,wg-a,,,,AAXX 05184 07481 12563 72006 10190 20180 39848 40125 55001 60027 72162 8198/ 91800 333 10229 20175=
07481,1996-08-05 21:00:00,18,1014.1,1.5,94,17,10000,3.704,,,110,,,,0,,,,,,2,wg-a,,,,AAXX 05214 07481 12760 71102 10180 20170 39863 40141 53015 60007 70262 8357/ 92100=
07481,1996-08-06 00:00:00,17,1013.9,-0.3,100,17,10000,0,,,0,,,,,,,,,,3,wg-a,,,,AAXX 06004 07481 12260 20000 10170 20170 39860 40139 56003 60006 70361 82600 90000=
07481,1996-08-06 03:00:00,17,1013.7,-0.3,94,16,7000,0,,,0,,,,,,,,,,,wg-a,,,,AAXX 06034 07481 12757 40000 10170 20160 39857 40137 56003 60006 81531 90300=
07481,1996-08-06 06:00:00,18,1014.4,0.8,94,17,4500,7.408,,,160,16.2,19.3,,,,,3,,,10,wg-a,,,,AAXX 06064 07481 12445 71604 10180 20170 39865 40144 53008 60034 71011 875// 90600 333 10193 20162=
07481,1996-08-06 09:00:00,22,1013.9,0,83,19,10000,7.408,,,170,,,,,,,,,,,wg-a,,,,AAXX 06094 07481 12460 71704 10220 20190 39865 40139 50000 60006 84531 90900=
07481,1996-08-06 12:00:00,26,1013.3,-0.5,58,17,25000,22.224,,,200,,,,,,,,,,,wg-a,,,,AAXX 06124 07481 12675 72012 10260 20170 39862 40133 56005 60006 83231 91200=
07481,1996-08-06 15:00:00,26,1012.5,-0.8,58,17,20000,18.52,,,190,,,,,,,,,,,wg-a,,,,AAXX 06154 07481 12670 71910 10260 20170 39854 40125 58008 60006 8487/ 91500=
07481,1996-08-06 18:00:00,21,1014.6,1.6,88,19,500,18.52,,,330,17.6,26.5,,1,,,,,,60,wg-a,,,,AAXX 06184 07481 12400 83310 10210 20190 39870 40146 53016 60017 76062 8697/ 91800 333 10265 20176=
07481,1996-08-06 21:00:00,19,1016.6,1.8,94,18,8000,0,,,0,,,,1,,,,,,21,wg-a,,,,AAXX 06214 07481 12558 80000 10190 20180 39888 40166 51018 60017 72162 8587/ 92100=
07481,1996-08-07 00:00:00,19,1017,0.4,94,18,7000,0,,,0,,,,,,,,,,3,wg-a,,,,AAXX 07004 07481 12557 80000 10190 20180 39892 40170 51004 60016 70362 8587/ 90000=
07481,1996-08-07 03:00:00,19,1016.8,-0.3,94,18,4000,3.704,,,330,,,,0,,,,,,10,wg-a,,,,AAXX 07034 07481 12140 83302 10190 20180 39889 40168 56003 60007 71062 8657/ 90300=
07481,1996-08-07 06:00:00,18,1018.1,1.3,100,18,3500,7.408,,,10,18.4,21,,0,,,2,,,10,wg-a,,,,AAXX 07064 07481 02235 80104 10180 20180 39902 40181 53013 60024 71062 878// 90600 333 10210 20184 60007=
07481,1996-08-07 09:00:00,20,1018.8,0.8,83,17,10000,7.408,,,10,,,,,,,,,,1,wg-a,,,,AAXX 07094 07481 02460 70104 10200 20170 39910 40188 51008 61000 70162 878// 90900 333 ////=
07481,1996-08-07 12:00:00,23,1017.5,-1.7,65,16,500,7.408,,,60,,,,,,,,,,1,wg-a,,,,AAXX 07124 07481 02500 /0604 10230 20160 39900 40175 58017 61000 70162 8383/ 91200 333 ////=
07481,1996-08-07 15:00:00,25,1016.4,-0.9,57,16,500,7.408,,,20,,,,,,,,,,,wg-a,,,,AAXX 07154 07481 12500 60204 10250 20160 39891 40164 58009 60006 84832 91500=
07481,1996-08-07 18:00:00,22,1016.1,-0.5,73,17,500,18.52,,,10,18.1,24.8,,,,,,,,,wg-a,,,,AAXX 07184 07481 32600 40110 10220 20170 39886 40161 56005 82803 91800 333 10248 20181=
07481,1996-08-07 21:00:00,19,1017.5,1,83,16,500,7.408,,,280,,,,,,,,,,,wg-a,,,,AAXX 07214 07481 12700 52804 10190 20160 39896 40175 52010 60006 81202 92100=
07481,1996-08-08 00:00:00,17,1017,-0.6,94,16,500,3.704,,,290,,,,,,,,,,,wg-a,,,,AAXX 08004 07481 12/00 42902 10170 20160 39890 40170 58006 60006 81032 90000=
07481,1996-08-08 03:00:00,16,1015.8,-1.3,100,16,10000,0,,,0,,,,,,,,,,,wg-a,,,,AAXX 08034 07481 12/60 30000 10160 20160 39877 40158 56013 60006 80001 90300=
07481,1996-08-08 06:00:00,16,1015.5,-0.3,100,16,4500,3.704,,,340,15.2,22.1,,,,,,,,10,wg-a,,,,AAXX 08064 07481 02345 63402 10160 20160 39874 40155 55003 60006 71011 81632 90600 333 10221 20152 61000=
07481,1996-08-08 09:00:00,18,1015.3,0,88,16,8000,7.408,,,360,,,,,,,,,,,wg-a,,,,AAXX 08094 07481 12258 73604 10180 20160 39874 40153 50000 60006 84632 90900=
07481,1996-08-08 12:00:00,25,1014.1,-0.6,54,15,12000,11.112,,,350,,,,,,,,,,,wg-a,,,,AAXX 08124 07481 12462 53506 10250 20150 39868 40141 58006 60006 81232 91200=
07481,1996-08-08 15:00:00,26,1013.2,-0.7,42,12,25000,14.816,,,20,,,,,,,,,,,wg-a,,,,AAXX 08154 07481 12675 /0208 10260 20120 39861 40132 56007 60006 81202 91500=
07481,1996-08-08 18:00:00,26,1013.4,0.1,48,14,25000,7.408,,,340,16.5,27,,,,,,,,,wg-a,,,,AAXX 08184 07481 12675 /3404 10260 20140 39862 40134 53001 60006 81202 91800 333 10270 20165=
07481,1996-08-08 21:00:00,20,1014.8,0.9,73,15,25000,3.704,,,30,,,,,,,,,,,wg-a,,,,AAXX 08214 07481 12/75 10302 10200 20150 39871 40148 52009 60006 80001 92100=
07481,1996-08-09 00:00:00,18,1016,0.9,83,15,40000,3.704,,,120,,,,,,,,,,,wg-a,,,,AAXX 09004 07481 12/82 11202 10180 20150 39880 40160 52009 60006 80001 90000=
07481,1996-08-09 03:00:00,16,1015.6,-0.5,88,14,20000,7.408,,,160,,,,,,,,,,,wg-a,,,,AAXX 09034 07481 12/70 11604 10160 20140 39875 40156 56005 60006 81030 90300=
07481,1996-08-09 06:00:00,18,1015.5,0.1,83,15,25000,7.408,,,180,15.3,25.8,,,,,,,,,wg-a,,,,AAXX 09064 07481 02/75 51804 10180 20150 39876 40155 50001 60006 81032 90600 333 10258 20153 60004=
07481,1996-08-09 12:00:00,28,1013.9,-0.7,42,14,40000,7.408,,,300,,,,,,,,,,,wg-a,,,,AAXX 09124 07481 12782 23004 10280 20140 39869 40139 56007 60006 81202 91200=
07481,1996-08-09 18:00:00,29,1011.6,-0.8,37,13,60000,11.112,,,180,18,30.5,,,,,,,,,wg-a,,,,AAXX 09184 07481 12786 21806 10290 20130 39847 40116 56008 60006 81282 91800 333 10305 20180=
07481,1996-08-09 21:00:00,24,1012.7,0.7,61,16,40000,11.112,,,140,,,,,,,,,,,wg-a,,,,AAXX 09214 07481 12/82 21406 10240 20160 39854 40127 51007 60006 81082 92100=
07481,1996-08-10 00:00:00,23,1012.8,-0,69,17,40000,3.704,,,170,,,,,,,,,,,wg-a,,,,AAXX 10004 07481 12/82 01702 10230 20170 39854 40128 55000 60006 80000 90000=
07481,1996-08-10 03:00:00,21,1012.4,-0.6,73,16,25000,7.408,,,130,,,,,,,,,,,wg-a,,,,AAXX 10034 07481 12/75 11304 10210 20160 39848 40124 58006 60006 80001 90300=
07481,1996-08-10 06:00:00,21,1012.1,-0.2,73,16,35000,7.408,,,120,19.1,28.6,,,,,,,,,wg-a,,,,AAXX 10064 07481 02/81 51204 10210 20160 39846 40121 58002 60006 81082 90600 333 10286 20191 60004=
07481,1996-08-10 09:00:00,26,1011.3,-0.4,54,16,500,14.816,,,190,,,,,,,,,,,wg-a,,,,AAXX 10094 07481 12600 71908 10260 20160 39842 40113 57004 60006 81282 90900=
07481,1996-08-10 12:00:00,29,1009.2,-1.8,40,14,500,29.632,,,190,,,,,,,,,,,wg-a,,,,AAXX 10124 07481 12600 71916 10290 20140 39824 40092 58018 60006 81982 91200=
07481,1996-08-10 15:00:00,29,1006,-3.1,45,16,25000,31.484,,,190,,,,,,,,,,,wg-a,,,,AAXX 10154 07481 12675 71917 10290 20160 39793 40060 58031 60006 82982 91500=
07481,1996-08-10 18:00:00,19,1010,3,88,17,9000,11.112,,,270,18.6,29.4,,12,,,,,,80,wg-a,,,,AAXX 10184 07481 12459 82706 10190 20170 39823 40100 51030 60127 78098 8496/ 91800 333 10294 20186=
07481,1996-08-10 21:00:00,19,1013.2,3.1,88,17,15000,11.112,,,160,,,,3,,,,,,91,wg-a,,,,AAXX 10214 07481 12365 81606 10190 20170 39854 40132 51031 60037 79196 8597/ 92100=
07481,1996-08-11 00:00:00,18,1012.4,-0.8,94,17,20000,7.408,,,220,,,,1,,,,,,1,wg-a,,,,AAXX 11004 07481 02570 /2204 10180 20170 39846 40124 56008 60046 70196 85500 90000 333 60017=
07481,1996-08-11 03:00:00,17,1010.6,-1.8,94,16,20000,7.408,,,180,,,,,,,,,,,wg-a,,,,AAXX 11034 07481 12570 /1804 10170 20160 39828 40106 56018 60006 86500 90300=
07481,1996-08-11 06:00:00,18,1010.6,-0,88,16,12000,7.408,,,160,17,19.5,,,,,16,,,,wg-a,,,,AAXX 11064 07481 12562 71604 10180 20160 39828 40106 55000 60164 875// 90600 333 10195 20170=
07481,1996-08-11 09:00:00,19,1011,0.5,88,17,15000,11.112,,,190,,,,1,,,,,,3,wg-a,,,,AAXX 11094 07481 12465 71906 10190 20170 39833 40110 51005 60017 70362 878// 90900=
07481,1996-08-11 12:00:00,22,1009.5,-1.2,60,14,20000,18.52,,,200,,,,,,,,,,3,wg-a,,,,AAXX 11124 07481 12470 72010 10220 20140 39821 40095 58012 60016 70362 85801 91200=
07481,1996-08-11 15:00:00,23,1009,-0.4,53,13,20000,22.224,,,230,,,,,,,,,,,wg-a,,,,AAXX 11154 07481 12470 72312 10230 20130 39817 40090 55004 60006 85801 91500=
07481,1996-08-11 18:00:00,22,1008.8,-0.3,65,15,25000,22.224,,,190,17.6,23.9,,,,,,,,,wg-a,,,,AAXX 11184 07481 32575 51912 10220 20150 39814 40088 55003 82301 91800 333 10239 20176=
07481,1996-08-11 21:00:00,19,1010.1,1,88,17,25000,11.112,,,210,,,,,,,,,,,wg-a,,,,AAXX 11214 07481 12575 42106 10190 20170 39824 40101 51010 60006 83802 92100=
07481,1996-08-12 00:00:00,18,1010.5,0.3,77,14,20000,3.704,,,330,,,,,,,,,,,wg-a,,,,AAXX 12004 07481 12770 73302 10180 20140 39827 40105 53003 60006 8757/ 90000=
07481,1996-08-12 03:00:00,16,1011,0.3,72,11,500,7.408,,,270,,,,,,,,,,,wg-a,,,,AAXX 12034 07481 12700 72704 10160 20110 39830 40110 51003 60006 8157/ 90300=
07481,1996-08-12 06:00:00,16,1012.4,1.3,82,13,40000,3.704,,,110,15.4,21.6,,0,,,1,,,21,wg-a,,,,AAXX 12064 07481 02582 /1102 10160 20130 39843 40124 52013 60014 72162 85800 90600 333 10216 20154 60007=
07481,1996-08-12 09:00:00,20,1012.6,0.6,56,11,40000,3.704,,,260,,,,,,,,,,,wg-a,,,,AAXX 12094 07481 12582 42602 10200 20110 39849 40126 51006 60006 84200 90900=
07481,1996-08-12 12:00:00,23,1012.2,-0.2,44,10,50000,7.408,,,250,,,,,,,,,,,wg-a,,,,AAXX 12124 07481 12684 52504 10230 20100 39847 40122 56002 60006 85800 91200=
07481,1996-08-12 15:00:00,20,1013,0.6,53,10,50000,7.408,,,20,,,,,,,,,,,wg-a,,,,AAXX 12154 07481 12684 70204 10200 20100 39853 40130 50006 60006 878// 91500=
07481,1996-08-12 18:00:00,19,1013.4,0.3,64,12,50000,7.408,,,70,15.5,22.5,,,,,,,,,wg-a,,,,AAXX 12184 07481 12684 70704 10190 20120 39856 40134 53003 60006 878// 91800 333 10225 20155=
07481,1996-08-12 21:00:00,18,1014.5,1,68,12,40000,3.704,,,170,,,,,,,,,,,wg-a,,,,AAXX 12214 07481 12682 /1702 10180 20120 39866 40145 51010 60006 8113/ 92100=
07481,1996-08-13 00:00:00,16,1014.8,0,77,12,500,3.704,,,180,,,,,,,,,,,wg-a,,,,AAXX 13004 07481 12700 21802 10160 20120 39866 40148 50000 60006 81530 90000=
07481,1996-08-13 03:00:00,15,1014.4,-0.4,88,13,500,0,,,0,,,,,,,,,,,wg-a,,,,AAXX 13034 07481 12600 70000 10150 20130 39862 40144 57004 60006 8583/ 90300=
07481,1996-08-13 06:00:00,15,1015.1,0.7,88,13,40000,7.408,,,210,14.4,19.3,,,,,,,,,wg-a,,,,AAXX 13064 07481 02682 72104 10150 20130 39869 40151 52007 60006 8187/ 90600 333 10193 20144 60004=
07481,1996-08-13 09:00:00,19,1015.6,0.8,60,11,40000,3.704,,,340,,,,,,,,,,,wg-a,,,,AAXX 13094 07481 12682 /3402 10190 20110 39877 40156 51008 60006 82270 90900=
07481,1996-08-13 12:00:00,18,1015.5,-0.1,77,14,40000,3.704,,,30,,,,0,,,,,,21,wg-a,,,,AAXX 13124 07481 02582 /0302 10180 20140 39876 40155 55001 60016 72161 83840 91200 333 60007=
07481,1996-08-13 15:00:00,21,1015,-0.2,56,12,40000,3.704,,,40,,,,,,,,,,,wg-a,,,,AAXX 13154 07481 12682 /0402 10210 20120 39874 40150 56002 60006 8127/ 91500=
07481,1996-08-13 18:00:00,20,1015.3,0.1,68,14,40000,7.408,,,40,15.3,22,,,,,,,,,wg-a,,,,AAXX 13184 07481 32682 30404 10200 20140 39875 40153 53001 81270 91800 333 10220 20153=
07481,1996-08-13 21:00:00,18,1016.1,0.7,73,13,25000,7.408,,,150,,,,,,,,,,,wg-a,,,,AAXX 13214 07481 12/75 41504 10180 20130 39882 40161 50007 60006 83031 92100=
07481,1996-08-14 00:00:00,18,1016.4,0.2,73,13,20000,3.704,,,220,,,,,,,,,,,wg-a,,,,AAXX 14004 07481 12770 72202 10180 20130 39884 40164 50002 60006 8457/ 90000=
07481,1996-08-14 03:00:00,16,1015.9,-0.6,88,14,12000,0,,,0,,,,,,,,,,,wg-a,,,,AAXX 14034 07481 12762 /0000 10160 20140 39878 40159 57006 60006 83502 90300=
07481,1996-08-14 06:00:00,16,1016.5,0.6,88,14,8000,14.816,,,330,15.2,19.7,,,,,,,,,wg-a,,,,AAXX 14064 07481 02558 83308 10160 20140 39884 40165 53006 60006 875// 90600 333 10197 20152 60004=
07481,1996-08-14 09:00:00,17,1018,1.5,82,14,10000,11.112,,,330,,,,,,,,,,,wg-a,,,,AAXX 14094 07481 12560 83306 10170 20140 39899 40180 51015 60006 875// 90900=
07481,1996-08-14 12:00:00,19,1016.9,-0.9,68,13,10000,11.112,,,330,,,,,,,,,,,wg-a,,,,AAXX 14124 07481 12560 83306 10190 20130 39890 40169 55009 60006 878// 91200=
07481,1996-08-14 15:00:00,19,1016.4,-0.4,73,14,9000,18.52,,,360,,,,,,,,,,,wg-a,,,,AAXX 14154 07481 12559 73610 10190 20140 39886 40164 57004 60006 878// 91500=
07481,1996-08-14 18:00:00,18,1016.7,0.2,77,14,9000,14.816,,,350,16.1,19.6,,,,,,,,,wg-a,,,,AAXX 14184 07481 12559 73508 10180 20140 39888 40167 51002 60006 878// 91800 333 10196 20161=
07481,1996-08-14 21:00:00,17,1017.4,0.6,88,15,10000,7.408,,,320,,,,,,,,,,,wg-a,,,,AAXX 14214 07481 12660 83204 10170 20150 39894 40174 51006 60006 878// 92100=
07481,1996-08-15 00:00:00,17,1017.3,-0.2,88,15,10000,11.112,,,320,,,,,,,,,,,wg-a,,,,AAXX 15004 07481 12760 83206 10170 20150 39892 40173 55002 60006 875// 90000=
07481,1996-08-15 03:00:00,16,1017.2,-0.1,94,15,10000,11.112,,,340,,,,,,,,,,,wg-a,,,,AAXX 15034 07481 12660 83406 10160 20150 39891 40172 57001 60006 875// 90300=
07481,1996-08-15 06:00:00,16,1017.8,0.5,88,14,7000,18.52,,,360,15.4,18.2,,,,,,,,,wg-a,,,,AAXX 15064 07481 02257 73610 10160 20140 39896 40178 53005 60006 876// 90600 333 10182 20154 60004=
07481,1996-08-15 15:00:00,22,1017.5,-0.3,60,14,12000,25.928,,,10,,,,,,,,,,,wg-a,,,,AAXX 15154 07481 12562 20114 10220 20140 39899 40175 56003 60006 82100 91500=
07481,1996-08-15 18:00:00,21,1017.4,-0.2,64,14,10000,18.52,,,360,15.9,22.8,,,,,,,,,wg-a,,,,AAXX 15184 07481 12/60 03610 10210 20140 39897 40174 55002 60006 80000 91800 333 10228 20159=
07481,1996-08-15 21:00:00,17,1018.7,0.9,88,15,10000,11.112,,,340,,,,,,,,,,,wg-a,,,,AAXX 15214 07481 12/60 03406 10170 20150 39906 40187 51009 60006 80000 92100=
07481,1996-08-16 00:00:00,15,1019,0.1,94,14,10000,7.408,,,330,,,,,,,,,,,wg-a,,,,AAXX 16004 07481 12/60 03304 10150 20140 39907 40190 52001 60006 80000 90000=
07481,1996-08-16 03:00:00,14,1019,-0.1,94,13,7000,0,,,0,,,,,,,,,,,wg-a,,,,AAXX 16034 07481 12/57 00000 10140 20130 39906 40190 57001 60006 80000 90300=
07481,1996-08-16 06:00:00,14,1019.5,0.5,100,14,2700,11.112,,,360,13.4,21.1,,,,,,,,10,wg-a,,,,AAXX 16064 07481 02227 43606 10140 20140 39911 40195 52005 60006 71011 84600 90600 333 10211 20134 60004=
07481,1996-08-16 09:00:00,16,1020.3,0.9,88,14,4500,3.704,,,60,,,,,,,,,,10,wg-a,,,,AAXX 16094 07481 12245 70602 10160 20140 39920 40203 51009 60006 71041 876// 90900=
07481,1996-08-16 12:00:00,22,1018.8,-0.8,65,15,10000,7.408,,,20,,,,,,,,,,2,wg-a,,,,AAXX 16124 07481 12560 /0204 10220 20150 39912 40188 58008 60006 70241 81100 91200=
07481,1996-08-16 15:00:00,26,1017.6,-0.9,45,13,500,14.816,,,330,,,,,,,,,,,wg-a,,,,AAXX 16154 07481 12600 /3308 10260 20130 39903 40176 56009 60006 81100 91500=
07481,1996-08-16 18:00:00,24,1018,0.3,57,15,35000,11.112,,,350,13.8,25.9,,,,,,,,,wg-a,,,,AAXX 16184 07481 12681 /3506 10240 20150 39906 40180 53003 60006 81400 91800 333 10259 20138=
07481,1996-08-16 21:00:00,19,1019.2,0.7,78,15,15000,0,,,0,,,,,,,,,,,wg-a,,,,AAXX 16214 07481 12/65 10000 10190 20150 39913 40192 50007 60006 80002 92100=
07481,1996-08-17 06:00:00,15,1020.4,0.4,94,14,9000,0,,,0,13.8,24.2,,,,,,,,,wg-a,,,,AAXX 17064 07481 02/59 /0000 10150 20140 39920 40204 53004 60006 80001 90600 333 10242 20138 60004=
07481,1996-08-17 09:00:00,20,1020.2,0.3,73,15,15000,7.408,,,320,,,,,,,,,,,wg-a,,,,AAXX 17094 07481 12/65 03204 10200 20150 39923 40202 53003 60006 80000 90900=
07481,1996-08-17 12:00:00,25,1019,-0.7,50,14,20000,14.816,,,10,,,,,,,,,,,wg-a,,,,AAXX 17124 07481 12670 /0108 10250 20140 39916 40190 58007 60006 81100 91200=
07481,1996-08-17 15:00:00,27,1017.6,-1.2,39,12,500,11.112,,,330,,,,,,,,,,,wg-a,,,,AAXX 17154 07481 12600 /3306 10270 20120 39904 40176 56012 60006 81100 91500=
07481,1996-08-17 18:00:00,25,1017.5,-0.3,50,14,40000,11.112,,,360,15.1,27,,,,,,,,,wg-a,,,,AAXX 17184 07481 12782 /3606 10250 20140 39901 40175 55003 60006 81131 91800 333 10270 20151=
07481,1996-08-17 21:00:00,20,1018.2,0.3,73,15,10000,0,,,0,,,,,,,,,,,wg-a,,,,AAXX 17214 07481 12/60 /0000 10200 20150 39904 40182 51003 60006 92100=
07481,1996-08-18 00:00:00,18,1018.1,-0.3,83,15,40000,3.704,,,300,,,,,,,,,,,wg-a,,,,AAXX 18004 07481 12/82 13002 10180 20150 39901 40181 58003 60006 81031 90000=
07481,1996-08-18 03:00:00,16,1017.6,-0.7,88,14,40000,0,,,0,,,,,,,,,,,wg-a,,,,AAXX 18034 07481 12/82 10000 10160 20140 39894 40176 58007 60006 80001 90300=
07481,1996-08-18 06:00:00,16,1017.9,0.3,88,14,15000,3.704,,,300,14.6,24.7,,,,,,,,,wg-a,,,,AAXX 18064 07481 02/65 03002 10160 20140 39897 40179 53003 60006 80000 90600 333 10247 20146 60004=
07481,1996-08-18 09:00:00,21,1017.4,0,69,15,15000,3.704,,,300,,,,,,,,,,,wg-a,,,,AAXX 18094 07481 12/65 03002 10210 20150 39897 40174 50000 60006 80000 90900=
07481,1996-08-18 15:00:00,27,1014.5,-1.1,42,13,500,11.112,,,20,,,,,,,,,,,wg-a,,,,AAXX 18154 07481 12600 /0206 10270 20130 39874 40145 58011 60006 81100 91500=
07481,1996-08-18 18:00:00,26,1013.8,-0.7,48,14,500,7.408,,,10,15.7,27.9,,,,,,,,,wg-a,,,,AAXX 18184 07481 12700 10104 10260 20140 39867 40138 56007 60006 81100 91800 333 10279 20157=
07481,1996-08-19 00:00:00,19,1015,0.1,73,14,500,3.704,,,170,,,,,,,,,,,wg-a,,,,AAXX 19004 07481 12/00 01702 10190 20140 39872 40150 50001 60006 80000 90000=
07481,1996-08-19 03:00:00,17,1015.2,-0,82,14,15000,3.704,,,170,,,,,,,,,,,wg-a,,,,AAXX 19034 07481 12/65 01702 10170 20140 39872 40152 55000 60006 80000 90300=
07481,1996-08-19 06:00:00,18,1015.4,0.3,83,15,10000,7.408,,,150,15.8,26.1,,,,,,,,,wg-a,,,,AAXX 19064 07481 02/60 01504 10180 20150 39875 40154 53003 60006 80000 90600 333 10261 20158 60004=
07481,1996-08-19 09:00:00,25,1014.8,0,57,16,15000,7.408,,,180,,,,,,,,,,,wg-a,,,,AAXX 19094 07481 12/65 31804 10250 20160 39875 40148 50000 60006 83080 90900=
07481,1996-08-19 12:00:00,29,1013.8,,37,13,25000,25.928,,,190,,,,,,,,,,,wg-a,,,,AAXX 19124 07481 12/75 91914 10290 20130 39868 40138 60006 89/// 91200=
07481,1996-08-19 15:00:00,30,1011.9,-1.3,29,10,500,29.632,,,200,,,,,,,,,,,wg-a,,,,AAXX 19154 07481 12600 /2016 10300 20100 39851 40119 57013 60006 81200 91500=
07481,1996-08-19 18:00:00,28,1011.6,-0.5,35,11,500,18.52,,,170,17.9,30.4,,,,,,,,,wg-a,,,,AAXX 19184 07481 12600 /1710 10280 20110 39846 40116 55005 60006 81200 91800 333 10304 20179=
07481,1996-08-19 21:00:00,25,1013,1.1,50,14,25000,22.224,,,180,,,,,,,,,,13,wg-a,,,,AAXX 19214 07481 12/75 21812 10250 20140 39857 40130 51011 60006 71300 82080 92100=
07481,1996-08-20 00:00:00,22,1013.9,0.7,65,15,25000,18.52,,,160,,,,,,,,,,13,wg-a,,,,AAXX 20004 07481 12/75 31610 10220 20150 39864 40139 51007 60006 71300 83080 90000=
07481,1996-08-20 03:00:00,21,1014.2,0.2,60,13,25000,14.816,,,140,,,,,,,,,,,wg-a,,,,AAXX 20034 07481 12/75 31408 10210 20130 39866 40142 53002 60006 83031 90300=
07481,1996-08-20 06:00:00,19,1014.8,0.4,78,15,20000,14.816,,,150,19.2,27.7,,,,,,,,,wg-a,,,,AAXX 20064 07481 02/70 41508 10190 20150 39870 40148 53004 60006 84081 90600 333 10277 20192 60004=
07481,1996-08-20 09:00:00,24,1014.6,0.3,54,14,20000,18.52,,,190,,,,,,,,,,,wg-a,,,,AAXX 20094 07481 12/70 61910 10240 20140 39873 40146 50003 60006 86032 90900=
07481,1996-08-20 12:00:00,28,1012.9,-1.4,37,12,500,25.928,,,190,,,,,,,,,,,wg-a,,,,AAXX 20124 07481 12600 51914 10280 20120 39859 40129 58014 60006 81239 91200=
07481,1996-08-20 15:00:00,29,1011.5,-1.3,35,12,40000,25.928,,,200,,,,,,,,,,,wg-a,,,,AAXX 20154 07481 12682 42014 10290 20120 39846 40115 56013 60006 81282 91500=
07481,1996-08-20 18:00:00,19,1014,1.6,88,17,8000,22.224,,,280,19,29.7,,0,,,,,,95,wg-a,,,,AAXX 20184 07481 12658 82812 10190 20170 39862 40140 53016 60007 79598 8597/ 91800 333 10297 20190=
07481,1996-08-20 21:00:00,19,1014.4,0.4,83,16,25000,7.408,,,210,,,,,,,,,,1,wg-a,,,,AAXX 20214 07481 02675 /2104 10190 20160 39866 40144 53004 61000 70198 8127/ 92100 333 ////=
07481,1996-08-21 00:00:00,19,1014.8,0.4,83,16,500,7.408,,,150,,,,,,,,,,2,wg-a,,,,AAXX 21004 07481 02/00 61504 10190 20160 39870 40148 51004 61000 70298 8607/ 90000 333 ////=
07481,1996-08-21 03:00:00,18,1013.5,-1.4,88,16,500,0,,,0,,,,,,,,,,,wg-a,,,,AAXX 21034 07481 12/00 60000 10180 20160 39856 40135 58014 60006 8607/ 90300=
07481,1996-08-21 06:00:00,19,1013.5,0.1,83,16,12000,14.816,,,150,17.4,19.3,,,,,,,,21,wg-a,,,,AAXX 21064 07481 02562 71508 10190 20160 39857 40135 50001 60004 72162 8388/ 90600 333 10193 20174 61000=
07481,1996-08-21 09:00:00,20,1013.9,0.5,83,17,15000,18.52,,,140,,,,,,,,,,,wg-a,,,,AAXX 21094 07481 12765 71410 10200 20170 39862 40139 53005 60006 8388/ 90900=
07481,1996-08-21 12:00:00,21,1013.5,-0.3,78,17,12000,7.408,,,160,,,,0,,,,,,60,wg-a,,,,AAXX 21124 07481 02662 71604 10210 20170 39859 40135 58003 60016 76062 8588/ 91200 333 60007=
07481,1996-08-21 15:00:00,22,1011.5,-1.9,69,16,15000,3.704,,,340,,,,0,,,,,,2,wg-a,,,,AAXX 21154 07481 12565 73402 10220 20160 39840 40115 56019 60007 70262 8588/ 91500=
07481,1996-08-21 18:00:00,22,1012.8,1.3,69,16,8000,14.816,,,250,18.6,23.4,,,,,,,,17,wg-a,,,,AAXX 21184 07481 32458 82508 10220 20160 39853 40128 53013 71796 8698/ 91800 333 10234 20186=
07481,1996-08-21 21:00:00,16,1014.2,0.8,94,15,10000,11.112,,,120,,,,17,,,,,,80,wg-a,,,,AAXX 21214 07481 12360 81206 10160 20150 39861 40142 53008 60177 78099 8597/ 92100=
07481,1996-08-22 00:00:00,16,1013.5,-0.6,100,16,10000,3.704,,,160,,,,0,,,,,,1,wg-a,,,,AAXX 22004 07481 02560 81602 10160 20160 39855 40135 57006 60176 70198 8457/ 90000 333 60007=
07481,1996-08-22 03:00:00,16,1013.2,-0.4,94,15,9000,3.704,,,240,,,,1,,,,,,3,wg-a,,,,AAXX 22034 07481 12459 82402 10160 20150 39851 40132 57004 60017 70362 8457/ 90300=
07481,1996-08-22 06:00:00,16,1014.1,0.9,94,15,4500,0,,,0,15.6,20.7,,5,,,24,,,61,wg-a,,,,AAXX 22064 07481 02345 80000 10160 20150 39860 40141 53009 60244 76162 8657/ 90600 333 10207 20156 60057=
07481,1996-08-22 09:00:00,17,1015.3,1.3,88,15,9000,7.408,,,290,,,,1,,,,,,21,wg-a,,,,AAXX 22094 07481 12359 82904 10170 20150 39873 40153 53013 60017 72162 8487/ 90900=
07481,1996-08-22 12:00:00,19,1015.3,0.2,83,16,12000,3.704,,,50,,,,,,,,,,3,wg-a,,,,AAXX 22124 07481 12462 70502 10190 20160 39875 40153 53002 60016 70362 8387/ 91200=
07481,1996-08-22 15:00:00,20,1014.4,-0.8,78,16,15000,14.816,,,70,,,,,,,,,,,wg-a,,,,AAXX 22154 07481 12565 /0708 10200 20160 39867 40144 56008 60006 86200 91500=
07481,1996-08-22 18:00:00,20,1014.4,-0,78,16,500,7.408,,,90,15.7,21.2,,,,,,,,,wg-a,,,,AAXX 22184 07481 32700 /0904 10200 20160 39867 40144 55000 84500 91800 333 10212 20157=
07481,1996-08-22 21:00:00,16,1015.7,0.9,94,15,20000,3.704,,,330,,,,,,,,,,,wg-a,,,,AAXX 22214 07481 12/70 03302 10160 20150 39876 40157 51009 60006 80000 92100=
07481,1996-08-23 00:00:00,16,1015.5,-0.3,94,15,7000,3.704,,,210,,,,,,,,,,,wg-a,,,,AAXX 23004 07481 12/57 02102 10160 20150 39873 40155 58003 60006 80000 90000=
07481,1996-08-23 03:00:00,14,1014.6,-1,94,13,500,7.408,,,170,,,,,,,,,,,wg-a,,,,AAXX 23034 07481 12/00 01704 10140 20130 39863 40146 56010 60006 80000 90300=
07481,1996-08-23 06:00:00,14,1014.2,-0.4,94,13,8000,3.704,,,150,13.3,19.6,,0,,,1,,,,wg-a,,,,AAXX 23064 07481 02/58 01502 10140 20130 39859 40142 56004 60014 80000 90600 333 10196 20133 60007=
07481,1996-08-23 09:00:00,20,1013.2,-0.4,78,16,15000,7.408,,,120,,,,,,,,,,,wg-a,,,,AAXX 23094 07481 12465 21204 10200 20160 39855 40132 58004 60006 81101 90900=
07481,1996-08-23 12:00:00,26,1011.5,-1.1,54,16,40000,11.112,,,130,,,,,,,,,,,wg-a,,,,AAXX 23124 07481 12/82 11306 10260 20160 39844 40115 57011 60006 81081 91200=
07481,1996-08-23 15:00:00,27,1010.9,-0.5,39,12,50000,3.704,,,180,,,,,,,,,,,wg-a,,,,AAXX 23154 07481 12784 41802 10270 20120 39839 40109 57005 60006 82530 91500=
07481,1996-08-23 18:00:00,23,1012.3,1,61,15,40000,14.816,,,320,14.1,28.5,,,,,,,,,wg-a,,,,AAXX 23184 07481 12782 73208 10230 20150 39849 40123 53010 60006 875// 91800 333 10285 20141=
07481,1996-08-23 21:00:00,20,1014.3,1.7,78,16,40000,3.704,,,360,,,,,,,,,,,wg-a,,,,AAXX 23214 07481 12/82 73602 10200 20160 39866 40143 51017 60006 87030 92100=
07481,1996-08-24 00:00:00,18,1015.3,0.7,88,16,500,11.112,,,70,,,,3,,,,,,61,wg-a,,,,AAXX 24004 07481 02/00 80706 10180 20160 39873 40153 50007 60036 76162 88070 90000 333 60037=
07481,1996-08-24 03:00:00,16,1015.2,-0.2,94,15,20000,11.112,,,160,,,,1,,,,,,3,wg-a,,,,AAXX 24034 07481 12770 71606 10160 20150 39871 40152 58002 60017 70362 875// 90300=
07481,1996-08-24 06:00:00,16,1015,-0.2,94,15,15000,0,,,0,15,22.5,,,,,4,,,1,wg-a,,,,AAXX 24064 07481 02665 /0000 10160 20150 39869 40150 55002 60044 70161 83531 90600 333 10225 20150 61000=
07481,1996-08-24 09:00:00,20,1015.2,0.6,64,13,25000,3.704,,,200,,,,,,,,,,,wg-a,,,,AAXX 24094 07481 12675 /2002 10200 20130 39875 40152 53006 60006 85800 90900=
07481,1996-08-24 12:00:00,23,1013.4,-1.5,50,12,500,7.408,,,260,,,,,,,,,,,wg-a,,,,AAXX 24124 07481 12600 32604 10230 20120 39860 40134 58015 60006 83230 91200=
07481,1996-08-24 15:00:00,24,1011.8,-1.5,41,10,60000,3.704,,,350,,,,,,,,,,,wg-a,,,,AAXX 24154 07481 12786 23502 10240 20100 39845 40118 57015 60006 82200 91500=
07481,1996-08-24 18:00:00,23,1012.3,0.4,47,11,40000,3.704,,,110,16,25.4,,,,,,,,,wg-a,,,,AAXX 24184 07481 12782 41102 10230 20110 39849 40123 53004 60006 83202 91800 333 10254 20160=
07481,1996-08-24 21:00:00,19,1014.3,1.5,68,13,40000,7.408,,,340,,,,,,,,,,,wg-a,,,,AAXX 24214 07481 12782 43404 10190 20130 39864 40143 51015 60006 83501 92100=
07481,1996-08-25 00:00:00,17,1015.4,1,82,14,500,0,,,0,,,,,,,,,,,wg-a,,,,AAXX 25004 07481 12700 60000 10170 20140 39874 40154 51010 60006 84530 90000=
07481,1996-08-25 03:00:00,17,1015.7,0.2,77,13,20000,7.408,,,340,,,,,,,,,,,wg-a,,,,AAXX 25034 07481 12570 /3404 10170 20130 39876 40157 52002 60006 83830 90300=
07481,1996-08-25 06:00:00,16,1016.3,0.6,88,14,35000,7.408,,,50,15.8,22.6,,0,,,,,,60,wg-a,,,,AAXX 25064 07481 02581 /0504 10160 20140 39882 40163 52006 60004 76062 82830 90600 333 10226 20158 60007=
07481,1996-08-25 09:00:00,19,1016.8,0.7,68,13,40000,7.408,,,10,,,,,,,,,,3,wg-a,,,,AAXX 25094 07481 02582 40104 10190 20130 39889 40168 52007 61000 70361 82931 90900 333 ////=
07481,1996-08-25 12:00:00,21,1015.5,-1.1,53,11,40000,11.112,,,10,,,,,,,,,,3,wg-a,,,,AAXX 25124 07481 02582 60106 10210 20110 39878 40155 58011 61000 70361 84201 91200 333 ////=
07481,1996-08-25 15:00:00,22,1014.5,-0.9,50,11,50000,7.408,,,70,,,,,,,,,,,wg-a,,,,AAXX 25154 07481 12684 70704 10220 20110 39869 40145 56009 60006 81132 91500=
07481,1996-08-25 18:00:00,21,1014.2,-0.4,53,11,50000,7.408,,,120,16.2,22.1,,,,,,,,,wg-a,,,,AAXX 25184 07481 32684 31204 10210 20110 39865 40142 56004 81131 91800 333 10221 20162=
07481,1996-08-25 21:00:00,17,1015.4,0.9,77,13,50000,7.408,,,160,,,,,,,,,,,wg-a,,,,AAXX 25214 07481 12/84 11604 10170 20130 39874 40154 51009 60006 81030 92100=
07481,1996-08-26 00:00:00,14,1015.1,-0.6,88,12,50000,7.408,,,150,,,,,,,,,,,wg-a,,,,AAXX 26004 07481 12/84 11504 10140 20120 39868 40151 56006 60006 81030 90000=
07481,1996-08-26 03:00:00,13,1015.1,-0.1,94,12,500,7.408,,,130,,,,,,,,,,,wg-a,,,,AAXX 26034 07481 12/00 31304 10130 20120 39867 40151 58001 60006 80001 90300=
07481,1996-08-26 06:00:00,14,1015.3,0.3,82,11,500,3.704,,,180,12.5,20.8,,,,,,,,,wg-a,,,,AAXX 26064 07481 02/00 61802 10140 20110 39870 40153 53003 60006 83032 90600 333 10208 20125 61000=
07481,1996-08-26 09:00:00,16,1016.5,1.4,82,13,12000,0,,,0,,,,,,,,,,,wg-a,,,,AAXX 26094 07481 12/62 70000 10160 20130 39884 40165 51014 60006 8703/ 90900=
07481,1996-08-26 12:00:00,20,1016.1,-0.1,60,12,40000,3.704,,,20,,,,,,,,,,,wg-a,,,,AAXX 26124 07481 12582 70202 10200 20120 39883 40161 58001 60006 8123/ 91200=
07481,1996-08-26 15:00:00,20,1015.3,-0.7,68,14,40000,7.408,,,150,,,,,,,,,,,wg-a,,,,AAXX 26154 07481 12582 71504 10200 20140 39876 40153 58007 60006 8227/ 91500=
07481,1996-08-26 18:00:00,19,1015.5,0.1,73,14,40000,11.112,,,130,14.2,20.7,,,,,,,,,wg-a,,,,AAXX 26184 07481 12782 /1306 10190 20140 39877 40155 53001 60006 81530 91800 333 10207 20142=
07481,1996-08-26 21:00:00,17,1016.7,0.9,82,14,35000,7.408,,,150,,,,,,,,,,,wg-a,,,,AAXX 26214 07481 12881 71504 10170 20140 39886 40167 51009 60006 8703/ 92100=
07481,1996-08-27 00:00:00,15,1016.7,-0.1,88,13,500,3.704,,,140,,,,,,,,,,,wg-a,,,,AAXX 27004 07481 12/00 61402 10150 20130 39885 40167 58001 60006 86030 90000=
07481,1996-08-27 03:00:00,13,1016.6,-0.4,94,12,25000,0,,,0,,,,,,,,,,,wg-a,,,,AAXX 27034 07481 12/75 30000 10130 20120 39881 40166 58004 60006 83030 90300=
07481,1996-08-27 06:00:00,13,1016.4,-0.1,100,13,9000,3.704,,,20,12.7,19.1,,,,,,,,,wg-a,,,,AAXX 27064 07481 02/59 60202 10130 20130 39880 40164 56001 60006 86030 90600 333 10191 20127 60004=
07481,1996-08-27 12:00:00,18,1015.8,-0.4,83,15,15000,11.112,,,140,,,,,,,,,,,wg-a,,,,AAXX 27124 07481 12565 81406 10180 20150 39879 40158 55004 60006 8387/ 91200=
07481,1996-08-27 15:00:00,18,1015.3,-0.5,83,15,15000,18.52,,,170,,,,0,,,,,,21,wg-a,,,,AAXX 27154 07481 12565 /1710 10180 20150 39874 40153 56005 60007 72162 8282/ 91500=
07481,1996-08-27 21:00:00,15,1017.6,1.4,94,14,12000,7.408,,,170,,,,0,,,,,,1,wg-a,,,,AAXX 27214 07481 12462 81704 10150 20140 39893 40176 51014 60007 70162 8487/ 92100=
07481,1996-08-28 00:00:00,14,1018,0.3,94,13,12000,3.704,,,260,,,,,,,,,,3,wg-a,,,,AAXX 28004 07481 12762 /2602 10140 20130 39896 40180 50003 60006 70362 86500 90000=
07481,1996-08-28 03:00:00,13,1017.6,-0.5,94,12,12000,7.408,,,230,,,,,,,,,,,wg-a,,,,AAXX 28034 07481 12762 12304 10130 20120 39891 40176 58005 60006 81500 90300=
07481,1996-08-28 06:00:00,13,1018.4,0.8,100,13,500,3.704,,,330,12.2,16,,0,,,1,,,,wg-a,,,,AAXX 28064 07481 02600 63302 10130 20130 39899 40184 53008 60014 84870 90600 333 10160 20122 60007=
07481,1996-08-28 09:00:00,16,1018.7,0.5,77,12,40000,7.408,,,340,,,,,,,,,,,wg-a,,,,AAXX 28094 07481 12482 63404 10160 20120 39904 40187 51005 60006 83841 90900=
07481,1996-08-28 12:00:00,17,1018.1,-0.5,63,10,40000,11.112,,,320,,,,,,,,,,21,wg-a,,,,AAXX 28124 07481 02582 73206 10170 20100 39900 40181 57005 61000 72162 84830 91200 333 6100=
07481,1996-08-28 15:00:00,18,1017.5,-0.4,59,10,40000,25.928,,,10,,,,,,,,,,60,wg-a,,,,AAXX 28154 07481 02682 60114 10180 20100 39895 40175 56004 61000 76062 83830 91500 333 ////=
07481,1996-08-28 18:00:00,17,1017.7,0,63,10,50000,7.408,,,10,13.3,19.6,,,,,,,,2,wg-a,,,,AAXX 28184 07481 02684 50104 10170 20100 39895 40177 50000 61000 70262 82830 91800 333 10196 20133 ////=
07481,1996-08-28 21:00:00,14,1018.6,0.7,77,10,500,0,,,0,,,,,,,,,,,wg-a,,,,AAXX 28214 07481 12700 30000 10140 20100 39902 40186 51007 60006 81530 92100=
07481,1996-08-29 00:00:00,13,1018.8,-0,82,10,500,3.704,,,180,,,,,,,,,,,wg-a,,,,AAXX 29004 07481 12/00 21802 10130 20100 39902 40188 54000 60006 82030 90000=
07481,1996-08-29 03:00:00,10,1018,-1,93,9,12000,7.408,,,140,,,,,,,,,,,wg-a,,,,AAXX 29034 07481 12/62 11404 10100 20090 39892 40180 58010 60006 81030 90300=
07481,1996-08-29 06:00:00,11,1018,0.1,87,9,12000,7.408,,,160,9.7,16.6,,,,,,,,,wg-a,,,,AAXX 29064 07481 02562 71604 10110 20090 39893 40180 53001 60006 8453/ 90600 333 10166 20097 61000=
07481,1996-08-29 09:00:00,17,1017.9,0.4,63,10,20000,3.704,,,70,,,,,,,,,,,wg-a,,,,AAXX 29094 07481 12570 20702 10170 20100 39897 40179 51004 60006 81131 90900=
07481,1996-08-29 12:00:00,18,1017.4,-0.4,64,11,20000,3.704,,,240,,,,,,,,,,61,wg-a,,,,AAXX 29124 07481 02670 72402 10180 20110 39893 40174 58004 61000 76161 8423/ 91200 333 6100=
07481,1996-08-29 15:00:00,20,1016.1,-1,49,9,25000,3.704,,,70,,,,1,,,,,,1,wg-a,,,,AAXX 29154 07481 12675 30702 10200 20090 39883 40161 57010 60017 70161 81231 91500=
07481,1996-08-29 18:00:00,18,1016.9,0.6,59,10,500,7.408,,,360,11,21.5,,,,,,,,1,wg-a,,,,AAXX 29184 07481 32600 33604 10180 20100 39889 40169 53006 70161 81130 91800 333 10215 20110=
07481,1996-08-29 21:00:00,15,1018.7,1.4,77,11,500,3.704,,,170,,,,,,,,,,,wg-a,,,,AAXX 29214 07481 12/00 21702 10150 20110 39903 40187 51014 60006 81031 92100=
07481,1996-08-30 00:00:00,12,1019.4,0.4,88,10,500,0,,,0,,,,,,,,,,,wg-a,,,,AAXX 30004 07481 12/00 30000 10120 20100 39907 40194 51004 60006 83030 90000=
07481,1996-08-30 03:00:00,10,1019.8,0.2,93,9,500,7.408,,,150,,,,,,,,,,,wg-a,,,,AAXX 30034 07481 12/00 11504 10100 20090 39909 40198 52002 60006 81030 90300=
07481,1996-08-30 06:00:00,10,1020.5,0.7,93,9,10000,0,,,0,9.6,17.7,,,,,1,,,,wg-a,,,,AAXX 30064 07481 02/60 20000 10100 20090 39916 40205 53007 60006 81031 90600 333 10177 20096 60014=
07481,1996-08-30 09:00:00,16,1020.8,0.9,68,10,10000,11.112,,,10,,,,,,,,,,,wg-a,,,,AAXX 30094 07481 12560 20106 10160 20100 39925 40208 51009 60006 81231 90900=
07481,1996-08-30 12:00:00,20,1020,-0.4,49,9,40000,22.224,,,20,,,,,,,,,,,wg-a,,,,AAXX 30124 07481 12682 30212 10200 20090 39921 40200 56004 60006 81841 91200=
07481,1996-08-30 15:00:00,20,1020.1,0.1,53,10,40000,22.224,,,340,,,,,,,,,,,wg-a,,,,AAXX 30154 07481 12682 23412 10200 20100 39922 40201 53001 60006 81201 91500=
07481,1996-08-30 18:00:00,17,1020.8,0.4,68,11,40000,11.112,,,20,10.1,20.9,,,,,,,,,wg-a,,,,AAXX 30184 07481 12/82 /0206 10170 20110 39926 40208 53004 60006 81041 91800 333 10209 20101=
07481,1996-08-30 21:00:00,13,1022.3,1.1,88,11,25000,7.408,,,330,,,,,,,,,,,wg-a,,,,AAXX 30214 07481 12/75 03304 10130 20110 39937 40223 51011 60006 80000 92100=
07481,1996-08-31 00:00:00,12,1022.7,0.2,88,10,20000,11.112,,,340,,,,,,,,,,,wg-a,,,,AAXX 31004 07481 12/70 13406 10120 20100 39939 40227 53002 60006 81031 90000=
07481,1996-08-31 03:00:00,12,1022.6,-0.1,88,10,15000,7.408,,,350,,,,,,,,,,,wg-a,,,,AAXX 31034 07481 12/65 73504 10120 20100 39938 40226 56001 60006 85052 90300=
07481,1996-08-31 06:00:00,14,1023.1,0.7,82,11,18000,11.112,,,350,11.7,17.3,,,,,,,,,wg-a,,,,AAXX 31064 07481 02768 53506 10140 20110 39945 40231 53007 60006 84532 90600 333 10173 20117 60004=
07481,1996-08-31 09:00:00,17,1022.9,0.1,68,11,25000,22.224,,,10,,,,,,,,,,,wg-a,,,,AAXX 31094 07481 12575 /0112 10170 20110 39947 40229 53001 60006 81130 90900=
07481,1996-08-31 12:00:00,20,1022,-0.6,49,9,25000,25.928,,,340,,,,,,,,,,,wg-a,,,,AAXX 31124 07481 12675 23414 10200 20090 39940 40220 58006 60006 82200 91200=
07481,1996-08-31 15:00:00,20,1021.8,-0.1,56,11,25000,25.928,,,340,,,,,,,,,,,wg-a,,,,AAXX 31154 07481 12675 /3414 10200 20110 39938 40218 58001 60006 81802 91500=
07481,1996-08-31 18:00:00,17,1022.5,0.4,63,10,18000,18.52,,,350,13.5,21.1,,,,,,,,,wg-a,,,,AAXX 31184 07481 12768 43510 10170 20100 39943 40225 53004 60006 81532 91800 333 10211 20135=
07481,1996-08-31 21:00:00,14,1023.4,0.5,77,10,25000,11.112,,,340,,,,,,,,,,,wg-a,,,,AAXX 31214 07481 12/75 43406 10140 20100 39948 40234 51005 60006 80002 92100=
07481,1996-09-01 00:00:00,12,1023.7,0.1,82,9,20000,11.112,,,340,,,,,,,,,,,wg-a,,,,AAXX 01004 07481 12/70 23406 10120 20090 39949 40237 50001 60006 80001 90000=
07481,1996-09-01 03:00:00,11,1023.7,-0.1,87,9,20000,14.816,,,340,,,,,,,,,,,wg-a,,,,AAXX 01034 07481 12/70 33408 10110 20090 39948 40237 56001 60006 80001 90300=
07481,1996-09-01 06:00:00,10,1024.2,0.4,93,9,6000,11.112,,,340,10,17.2,,,,,,,,,wg-a,,,,AAXX 01064 07481 02356 53406 10100 20090 39952 40242 53004 60006 85601 90600 333 10172 20100 60004=
07481,1996-09-01 09:00:00,15,1023.8,0,72,10,20000,25.928,,,350,,,,,,,,,,,wg-a,,,,AAXX 01094 07481 12470 /3514 10150 20100 39953 40238 50000 60006 81100 90900=
07481,1996-09-01 12:00:00,19,1022.5,-0.8,52,9,500,29.632,,,360,,,,,,,,,,,wg-a,,,,AAXX 01124 07481 12600 33616 10190 20090 39944 40225 58008 60006 83100 91200=
07481,1996-09-01 15:00:00,19,1021.6,-0.9,49,8,40000,29.632,,,10,,,,,,,,,,,wg-a,,,,AAXX 01154 07481 12682 20116 10190 20080 39935 40216 58009 60006 82800 91500=
07481,1996-09-01 18:00:00,17,1021.5,-0.3,55,8,40000,22.224,,,360,10.3,19.8,,,,,,,,,wg-a,,,,AAXX 01184 07481 12782 23612 10170 20080 39932 40215 55003 60006 81501 91800 333 10198 20103=
07481,1996-09-01 21:00:00,13,1021.9,0.1,77,9,40000,11.112,,,360,,,,,,,,,,,wg-a,,,,AAXX 01214 07481 12782 13606 10130 20090 39933 40219 50001 60006 81500 92100=
07481,1996-09-02 00:00:00,11,1021.5,-0.6,87,9,10000,14.816,,,360,,,,,,,,,,,wg-a,,,,AAXX 02004 07481 12/60 /3608 10110 20090 39927 40215 58006 60006 90000=
07481,1996-09-02 03:00:00,9,1020.6,-1.1,93,8,500,11.112,,,340,,,,,,,,,,,wg-a,,,,AAXX 02034 07481 12/00 03406 10090 20080 39916 40206 58011 60006 80000 90300=
07481,1996-09-02 06:00:00,9,1020.4,-0.2,93,8,20000,11.112,,,340,8.8,17,,,,,,,,,wg-a,,,,AAXX 02064 07481 02370 /3406 10090 20080 39914 40204 57002 60006 84600 90600 333 10170 20088 60004=
07481,1996-09-02 09:00:00,14,1019.3,-0.6,72,9,500,14.816,,,350,,,,,,,,,,,wg-a,,,,AAXX 02094 07481 12400 /3508 10140 20090 39908 40193 57006 60006 85830 90900=
07481,1996-09-02 12:00:00,16,1017.8,-1.2,68,10,40000,22.224,,,360,,,,,,,,,,,wg-a,,,,AAXX 02124 07481 12582 /3612 10160 20100 39896 40178 58012 60006 8587/ 91200=
07481,1996-09-02 15:00:00,17,1017,-0.7,59,9,40000,29.632,,,10,,,,,,,,,,,wg-a,,,,AAXX 02154 07481 12582 70116 10170 20090 39889 40170 56007 60006 8487/ 91500=
07481,1996-09-02 18:00:00,16,1017,-0.1,68,10,25000,14.816,,,10,9.2,17.8,,,,,,,,,wg-a,,,,AAXX 02184 07481 12675 70108 10160 20100 39888 40170 55001 60006 82532 91800 333 10178 20092=
07481,1996-09-02 21:00:00,14,1017.2,0,77,10,40000,11.112,,,10,,,,,,,,,,,wg-a,,,,AAXX 02214 07481 12882 60106 10140 20100 39888 40172 50000 60006 8603/ 92100=
07481,1996-09-03 00:00:00,11,1017.1,-0.4,87,9,40000,3.704,,,290,,,,,,,,,,,wg-a,,,,AAXX 03004 07481 12882 12902 10110 20090 39884 40171 57004 60006 81030 90000=
07481,1996-09-03 03:00:00,10,1016.7,-0.5,87,8,25000,3.704,,,270,,,,,,,,,,,wg-a,,,,AAXX 03034 07481 12/75 32702 10100 20080 39879 40167 56005 60006 83030 90300=
07481,1996-09-03 06:00:00,9,1016.8,-0,93,8,20000,0,,,0,8.8,15.9,,0,,,,,,,wg-a,,,,AAXX 03064 07481 02/70 20000 10090 20080 39879 40168 55000 60004 82030 90600 333 10159 20088 60007=
07481,1996-09-03 09:00:00,15,1015.5,-0.7,67,9,25000,11.112,,,300,,,,,,,,,,,wg-a,,,,AAXX 03094 07481 12/75 13006 10150 20090 39872 40155 56007 60006 81031 90900=
07481,1996-09-03 12:00:00,19,1014.6,-0.5,52,9,40000,3.704,,,270,,,,,,,,,,,wg-a,,,,AAXX 03124 07481 12682 72702 10190 20090 39867 40146 57005 60006 8383/ 91200=
07481,1996-09-03 15:00:00,18,1014.2,-0.4,59,10,40000,11.112,,,20,,,,,,,,,,,wg-a,,,,AAXX 03154 07481 12682 70206 10180 20100 39863 40142 58004 60006 8323/ 91500=
07481,1996-09-03 18:00:00,17,1014.4,0.1,68,11,40000,11.112,,,340,9.1,19,,,,,,,,,wg-a,,,,AAXX 03184 07481 12682 83406 10170 20110 39864 40144 53001 60006 8353/ 91800 333 10190 20091=
07481,1996-09-03 21:00:00,16,1015,0.3,72,11,15000,7.408,,,340,,,,,,,,,,,wg-a,,,,AAXX 03214 07481 12665 83404 10160 20110 39868 40150 53003 60006 875// 92100=
07481,1996-09-04 00:00:00,14,1014.3,-0.8,88,12,10000,7.408,,,330,,,,,,,,,,,wg-a,,,,AAXX 04004 07481 12660 83304 10140 20120 39860 40143 58008 60006 875// 90000=
07481,1996-09-04 03:00:00,14,1013.5,-0.8,88,12,10000,3.704,,,310,,,,,,,,,,,wg-a,,,,AAXX 04034 07481 12660 83102 10140 20120 39852 40135 56008 60006 875// 90300=
07481,1996-09-04 09:00:00,17,1014.6,0.9,77,13,8000,3.704,,,320,,,,,,,,,,,wg-a,,,,AAXX 04094 07481 12458 73202 10170 20130 39866 40146 53009 60006 875// 90900=
07481,1996-09-04 12:00:00,20,1014.2,-0,64,13,11000,3.704,,,10,,,,,,,,,,,wg-a,,,,AAXX 04124 07481 12/61 /0102 10200 20130 39865 40142 54000 60006 91200=
07481,1996-09-04 15:00:00,21,1014.1,-0.2,56,12,12000,7.408,,,350,,,,,,,,,,,wg-a,,,,AAXX 04154 07481 12662 73504 10210 20120 39864 40141 58002 60006 878// 91500=
07481,1996-09-04 18:00:00,19,1014.4,0.2,68,13,12000,7.408,,,350,14.3,20.9,,,,,,,,,wg-a,,,,AAXX 04184 07481 12662 73504 10190 20130 39866 40144 53002 60006 83530 91800 333 10209 20143=
07481,1996-09-04 21:00:00,17,1014.7,0,77,13,12000,3.704,,,220,,,,,,,,,,,wg-a,,,,AAXX 04214 07481 12662 22202 10170 20130 39866 40147 50000 60006 81530 92100=
07481,1996-09-05 00:00:00,15,1015,0.2,88,13,12000,3.704,,,170,,,,,,,,,,,wg-a,,,,AAXX 05004 07481 12662 51702 10150 20130 39868 40150 51002 60006 84530 90000=
07481,1996-09-05 03:00:00,13,1014.9,-0.3,88,11,15000,0,,,0,,,,,,,,,,,wg-a,,,,AAXX 05034 07481 12/65 10000 10130 20110 39865 40149 56003 60006 81030 90300=
07481,1996-09-05 06:00:00,13,1015.1,0.1,88,11,9000,0,,,0,12,19.4,,,,,,,,,wg-a,,,,AAXX 05064 07481 02/59 /0000 10130 20110 39866 40151 53001 60006 81031 90600 333 10194 20120 60004=
07481,1996-09-05 09:00:00,17,1015.1,0.5,82,14,10000,7.408,,,340,,,,,,,,,,,wg-a,,,,AAXX 05094 07481 12/60 /3404 10170 20140 39871 40151 51005 60006 90900=
07481,1996-09-05 12:00:00,22,1013.9,-0.7,57,13,10000,3.704,,,360,,,,,,,,,,,wg-a,,,,AAXX 05124 07481 12560 43602 10220 20130 39864 40139 58007 60006 84100 91200=
07481,1996-09-05 15:00:00,23,1012.3,-1.5,53,13,11000,11.112,,,10,,,,,,,,,,,wg-a,,,,AAXX 05154 07481 12/61 /0106 10230 20130 39849 40123 56015 60006 91500=
07481,1996-09-05 18:00:00,22,1012.1,-0.3,60,14,11000,11.112,,,340,12.5,23.3,,,,,,,,,wg-a,,,,AAXX 05184 07481 12/61 /3406 10220 20140 39846 40121 55003 60006 91800 333 10233 20125=
07481,1996-09-05 21:00:00,18,1013.3,0.8,68,12,10000,7.408,,,10,,,,,,,,,,,wg-a,,,,AAXX 05214 07481 12/60 /0104 10180 20120 39854 40133 51008 60006 92100=
07481,1996-09-06 00:00:00,14,1014.5,0.8,88,12,25000,3.704,,,300,,,,,,,,,,,wg-a,,,,AAXX 06004 07481 12/75 13002 10140 20120 39862 40145 52008 60006 80001 90000=
07481,1996-09-06 03:00:00,12,1015.2,0.6,94,11,15000,3.704,,,300,,,,,,,,,,,wg-a,,,,AAXX 06034 07481 12/65 03002 10120 20110 39867 40152 53006 60006 80000 90300=
07481,1996-09-06 06:00:00,12,1016.6,1.2,94,11,10000,3.704,,,10,11.1,21.7,,,,,,,,,wg-a,,,,AAXX 06064 07481 02/60 00102 10120 20110 39880 40166 53012 60006 80000 90600 333 10217 20111 60004=
07481,1996-09-06 09:00:00,17,1016.9,0.8,68,11,12000,11.112,,,360,,,,,,,,,,,wg-a,,,,AAXX 06094 07481 12462 /3606 10170 20110 39888 40169 51008 60006 81100 90900=
07481,1996-09-06 12:00:00,22,1015.8,-0.7,38,7,25000,22.224,,,360,,,,,,,,,,,wg-a,,,,AAXX 06124 07481 12575 /3612 10220 20070 39881 40158 56007 60006 81100 91200=
07481,1996-09-06 15:00:00,23,1015.1,-0.7,29,4,500,25.928,,,20,,,,,,,,,,,wg-a,,,,AAXX 06154 07481 12500 /0214 10230 20040 39875 40151 56007 60006 81100 91500=
07481,1996-09-06 18:00:00,19,1015.4,0,43,6,40000,11.112,,,360,11.5,22.9,,,,,,,,,wg-a,,,,AAXX 06184 07481 12682 /3606 10190 20060 39875 40154 50000 60006 81100 91800 333 10229 20115=
07481,1996-09-06 21:00:00,15,1016.5,0.6,59,7,40000,7.408,,,350,,,,,,,,,,,wg-a,,,,AAXX 06214 07481 12/82 03504 10150 20070 39882 40165 53006 60006 80000 92100=
07481,1996-09-07 00:00:00,12,1017.3,0.5,71,7,40000,0,,,0,,,,,,,,,,,wg-a,,,,AAXX 07004 07481 12/82 00000 10120 20070 39887 40173 53005 60006 80000 90000=
07481,1996-09-07 03:00:00,10,1017.1,-0.3,76,6,35000,11.112,,,340,,,,,,,,,,,wg-a,,,,AAXX 07034 07481 12/81 03406 10100 20060 39883 40171 56003 60006 80000 90300=
07481,1996-09-07 06:00:00,8,1018.2,0.8,87,6,500,7.408,,,10,7.9,18.7,,,,,,,,,wg-a,,,,AAXX 07064 07481 02/00 00104 10080 20060 39892 40182 53008 60006 80000 90600 333 10187 20079 60004=
07481,1996-09-07 09:00:00,15,1018.4,0.8,59,7,35000,22.224,,,10,,,,,,,,,,,wg-a,,,,AAXX 07094 07481 12/81 00112 10150 20070 39900 40184 51008 60006 80000 90900=
07481,1996-09-07 12:00:00,20,1017.1,-0.8,35,4,50000,31.484,,,360,,,,,,,,,,,wg-a,,,,AAXX 07124 07481 12684 /3617 10200 20040 39892 40171 56008 60006 81100 91200=
07481,1996-09-07 15:00:00,20,1016.4,-0.6,40,6,60000,31.484,,,340,,,,,,,,,,,wg-a,,,,AAXX 07154 07481 12786 /3417 10200 20060 39886 40164 58006 60006 81100 91500=
07481,1996-09-07 18:00:00,17,1017.6,0.8,48,6,60000,25.928,,,350,8.5,20.4,,,,,,,,,wg-a,,,,AAXX 07184 07481 12/86 03514 10170 20060 39894 40176 53008 60006 80000 91800 333 10204 20085=
07481,1996-09-07 21:00:00,12,1019,0.9,67,6,500,14.816,,,350,,,,,,,,,,,wg-a,,,,AAXX 07214 07481 12/00 03508 10120 20060 39903 40190 50009 60006 80000 92100=
07481,1996-09-08 00:00:00,9,1019.9,0.6,76,5,500,7.408,,,300,,,,,,,,,,,wg-a,,,,AAXX 08004 07481 12/00 03004 10090 20050 39909 40199 51006 60006 80000 90000=
07481,1996-09-08 03:00:00,7,1020.2,-0,87,5,500,3.704,,,280,,,,,,,,,,,wg-a,,,,AAXX 08034 07481 12/00 02802 10070 20050 39909 40202 55000 60006 80000 90300=
07481,1996-09-08 06:00:00,6,1020,-0.2,93,5,50000,0,,,0,5.1,16.8,,,,,,,,,wg-a,,,,AAXX 08064 07481 02/84 10000 10060 20050 39907 40200 55002 60006 80001 90600 333 10168 20051 60004=
07481,1996-09-08 09:00:00,11,1018.9,-0.5,71,6,50000,11.112,,,330,,,,,,,,,,,wg-a,,,,AAXX 08094 07481 12/84 13306 10110 20060 39902 40189 58005 60006 80001 90900=
07481,1996-09-08 12:00:00,17,1016.8,-1.5,42,4,50000,14.816,,,10,,,,,,,,,,,wg-a,,,,AAXX 08124 07481 12/84 10108 10170 20040 39888 40168 56015 60006 80001 91200=
07481,1996-09-08 15:00:00,20,1015.2,-1.3,40,6,60000,22.224,,,10,,,,,,,,,,,wg-a,,,,AAXX 08154 07481 12786 10112 10200 20060 39874 40152 58013 60006 81101 91500=
07481,1996-09-08 18:00:00,17,1015.5,-0,45,5,50000,18.52,,,350,6.1,20,,,,,,,,,wg-a,,,,AAXX 08184 07481 12784 13510 10170 20050 39873 40155 55000 60006 81101 91800 333 10200 20061=
07481,1996-09-08 21:00:00,12,1016.1,0.1,62,5,50000,7.408,,,340,,,,,,,,,,,wg-a,,,,AAXX 08214 07481 12/84 03404 10120 20050 39875 40161 50001 60006 80000 92100=
07481,1996-09-09 03:00:00,7,1016.2,-0.3,81,4,40000,3.704,,,280,,,,,,,,,,,wg-a,,,,AAXX 09034 07481 12/82 12802 10070 20040 39871 40162 55003 60006 80001 90300=
07481,1996-09-09 06:00:00,8,1017.3,1.1,81,5,500,7.408,,,240,6.4,16.5,,,,,,,,,wg-a,,,,AAXX 09064 07481 02/00 72404 10080 20050 39882 40173 53011 60006 81032 90600 333 10165 20064 60004=
07481,1996-09-09 12:00:00,17,1016.9,-0.4,48,6,40000,11.112,,,340,,,,,,,,,,,wg-a,,,,AAXX 09124 07481 12782 13406 10170 20060 39888 40169 58004 60006 81501 91200=
07481,1996-09-09 15:00:00,19,1015.7,-1,46,7,40000,14.816,,,10,,,,,,,,,,,wg-a,,,,AAXX 09154 07481 12782 10108 10190 20070 39878 40157 57010 60006 81100 91500=
07481,1996-09-09 18:00:00,17,1016.7,0.7,48,6,40000,11.112,,,340,7.7,19.4,,,,,,,,,wg-a,,,,AAXX 09184 07481 12782 13406 10170 20060 39885 40167 53007 60006 81400 91800 333 10194 20077=
07481,1996-09-09 21:00:00,12,1018.3,1.2,67,6,500,3.704,,,260,,,,,,,,,,,wg-a,,,,AAXX 09214 07481 12700 12602 10120 20060 39897 40183 51012 60006 81400 92100=
07481,1996-09-10 00:00:00,10,1019.1,0.5,76,6,10000,3.704,,,250,,,,,,,,,,,wg-a,,,,AAXX 10004 07481 12/60 /2502 10100 20060 39902 40191 52005 60006 90000=
07481,1996-09-10 03:00:00,7,1019,-0.4,87,5,25000,0,,,0,,,,,,,,,,,wg-a,,,,AAXX 10034 07481 12/75 00000 10070 20050 39898 40190 57004 60006 80000 90300=
07481,1996-09-10 06:00:00,6,1019.6,0.5,93,5,500,3.704,,,310,5.8,16.5,,,,,,,,,wg-a,,,,AAXX 10064 07481 02/00 13102 10060 20050 39903 40196 53005 60006 80001 90600 333 10165 20058 60004=
07481,1996-09-10 09:00:00,12,1019.9,0.9,71,7,25000,11.112,,,350,,,,,,,,,,,wg-a,,,,AAXX 10094 07481 12/75 13506 10120 20070 39912 40199 51009 60006 80001 90900=
07481,1996-09-10 12:00:00,18,1017.9,-1.4,49,7,500,7.408,,,20,,,,,,,,,,,wg-a,,,,AAXX 10124 07481 12500 20204 10180 20070 39898 40179 58014 60006 81101 91200=
07481,1996-09-10 15:00:00,20,1016.5,-1.2,32,3,40000,11.112,,,320,,,,,,,,,,,wg-a,,,,AAXX 10154 07481 12682 23206 10200 20030 39886 40165 56012 60006 81101 91500=
07481,1996-09-10 18:00:00,17,1016.6,-0.1,48,6,40000,7.408,,,20,6.5,20.3,,,,,,,,,wg-a,,,,AAXX 10184 07481 12/82 20204 10170 20060 39885 40166 55001 60006 80001 91800 333 10203 20065=
07481,1996-09-10 21:00:00,12,1017.6,0.4,67,6,40000,0,,,0,,,,,,,,,,,wg-a,,,,AAXX 10214 07481 12/82 00000 10120 20060 39889 40176 50004 60006 80000 92100=
07481,1996-09-11 00:00:00,9,1017.6,-0.2,81,6,25000,0,,,0,,,,,,,,,,,wg-a,,,,AAXX 11004 07481 12/75 00000 10090 20060 39887 40176 56002 60006 80000 90000=
07481,1996-09-11 03:00:00,7,1017.7,-0.1,87,5,20000,3.704,,,260,,,,,,,,,,,wg-a,,,,AAXX 11034 07481 12/70 02602 10070 20050 39886 40177 58001 60006 80000 90300=
07481,1996-09-11 06:00:00,7,1017.6,-0.2,87,5,9000,0,,,0,6,17.2,,,,,,,,,wg-a,,,,AAXX 11064 07481 02/59 00000 10070 20050 39884 40176 55002 60006 80000 90600 333 10172 20060 60004=
07481,1996-09-11 09:00:00,12,1016.8,-0.2,76,8,8000,3.704,,,360,,,,,,,,,,,wg-a,,,,AAXX 11094 07481 12/58 /3602 10120 20080 39882 40168 58002 60006 80002 90900=
07481,1996-09-11 12:00:00,19,1014.1,-2,49,8,25000,11.112,,,20,,,,,,,,,,,wg-a,,,,AAXX 11124 07481 12575 10206 10190 20080 39862 40141 58020 60006 81100 91200=
07481,1996-09-11 15:00:00,21,1012.2,-1.6,38,6,25000,3.704,,,300,,,,,,,,,,,wg-a,,,,AAXX 11154 07481 12575 33002 10210 20060 39846 40122 56016 60006 81102 91500=
07481,1996-09-11 18:00:00,17,1011.7,-0.9,55,8,35000,7.408,,,310,6.7,21,,,,,,,,,wg-a,,,,AAXX 11184 07481 12/81 /3104 10170 20080 39837 40117 56009 60006 91800 333 10210 20067=
07481,1996-09-11 21:00:00,13,1012.5,0.4,72,8,500,3.704,,,10,,,,,,,,,,,wg-a,,,,AAXX 11214 07481 12/00 10102 10130 20080 39841 40125 51004 60006 80001 92100=
07481,1996-09-12 00:00:00,10,1012.2,-0.6,87,8,500,7.408,,,320,,,,,,,,,,,wg-a,,,,AAXX 12004 07481 12/00 13204 10100 20080 39835 40122 58006 60006 80001 90000=
07481,1996-09-12 03:00:00,8,1011.2,-1.1,93,7,500,3.704,,,340,,,,,,,,,,,wg-a,,,,AAXX 12034 07481 12/00 13402 10080 20070 39824 40112 58011 60006 80001 90300=
07481,1996-09-12 06:00:00,8,1010.9,-0.4,93,7,9000,7.408,,,340,6.8,17,,,,,,,,11,wg-a,,,,AAXX 12064 07481 02/59 23404 10080 20070 39820 40109 57004 60006 71100 80001 90600 333 10170 20068 60004=
07481,1996-09-12 12:00:00,19,1007.5,-1.8,43,6,500,22.224,,,340,,,,,,,,,,,wg-a,,,,AAXX 12124 07481 12600 /3412 10190 20060 39798 40075 57018 60006 81101 91200=
07481,1996-09-12 15:00:00,19,1006.1,-1.4,40,5,500,25.928,,,10,,,,,,,,,,,wg-a,,,,AAXX 12154 07481 12700 10114 10190 20050 39784 40061 57014 60006 81101 91500=
07481,1996-09-12 18:00:00,16,1006.8,0.5,55,7,40000,7.408,,,360,7.6,19.5,,,,,,,,,wg-a,,,,AAXX 12184 07481 12/82 73604 10160 20070 39789 40068 53005 60006 8703/ 91800 333 10195 20076=
07481,1996-09-12 21:00:00,15,1008.5,1.5,63,8,25000,11.112,,,350,,,,,,,,,,,wg-a,,,,AAXX 12214 07481 12875 /3506 10150 20080 39804 40085 51015 60006 86070 92100=
07481,1996-09-13 00:00:00,13,1010,1.3,77,9,25000,18.52,,,340,,,,,,,,,,,wg-a,,,,AAXX 13004 07481 12575 83410 10130 20090 39817 40100 53013 60006 875// 90000=
07481,1996-09-13 03:00:00,12,1011.3,1.1,82,9,20000,11.112,,,350,,,,,,,,,,2,wg-a,,,,AAXX 13034 07481 02570 73506 10120 20090 39828 40113 51011 61000 70262 875// 90300 333 ////=
07481,1996-09-13 06:00:00,11,1012.7,1.3,82,8,500,11.112,,,340,10.9,16.2,,,,,,,,1,wg-a,,,,AAXX 13064 07481 02500 73406 10110 20080 39841 40127 53013 61000 70162 875// 90600 333 10162 20109 ////=
07481,1996-09-13 09:00:00,13,1013.6,1.1,67,7,11000,14.816,,,350,,,,,,,,,,,wg-a,,,,AAXX 13094 07481 12/61 /3508 10130 20070 39852 40136 51011 60006 90900=
07481,1996-09-13 12:00:00,15,1013.4,-0,39,1,40000,22.224,,,330,,,,,,,,,,1,wg-a,,,,AAXX 13124 07481 02682 63312 10150 20010 39852 40134 55000 61000 70186 86800 91200 333 6100=
07481,1996-09-13 15:00:00,16,1013.6,0.2,39,2,40000,22.224,,,360,,,,,,,,,,,wg-a,,,,AAXX 13154 07481 12682 63612 10160 20020 39854 40136 53002 60006 86800 91500=
07481,1996-09-13 18:00:00,12,1015.7,1.7,58,4,50000,11.112,,,20,11,16.1,,,,,,,,,wg-a,,,,AAXX 13184 07481 32784 30206 10120 20040 39871 40157 51017 83800 91800 333 10161 20110=
07481,1996-09-13 21:00:00,8,1018.2,2.1,81,5,500,3.704,,,270,,,,,,,,,,,wg-a,,,,AAXX 13214 07481 12/00 22702 10080 20050 39892 40182 51021 60006 82030 92100=
07481,1996-09-14 00:00:00,8,1019,0.7,81,5,20000,3.704,,,340,,,,,,,,,,,wg-a,,,,AAXX 14004 07481 12670 /3402 10080 20050 39899 40190 51007 60006 81530 90000=
07481,1996-09-14 03:00:00,7,1019.6,0.5,93,6,20000,11.112,,,310,,,,,,,,,,,wg-a,,,,AAXX 14034 07481 12/70 13106 10070 20060 39904 40196 53005 60006 81031 90300=
07481,1996-09-14 06:00:00,6,1020.8,1.1,93,5,20000,7.408,,,320,6.1,12.2,,,,,,,,,wg-a,,,,AAXX 14064 07481 02670 /3204 10060 20050 39915 40208 53011 60006 81501 90600 333 10122 20061 61000=
07481,1996-09-14 09:00:00,13,1020.7,0.6,72,8,40000,22.224,,,340,,,,,,,,,,,wg-a,,,,AAXX 14094 07481 12582 23412 10130 20080 39921 40207 51006 60006 82100 90900=
07481,1996-09-14 12:00:00,16,1019.9,-0.5,55,7,40000,22.224,,,350,,,,,,,,,,,wg-a,,,,AAXX 14124 07481 12582 23512 10160 20070 39916 40199 58005 60006 82100 91200=
07481,1996-09-14 15:00:00,18,1019.1,-0.6,49,7,40000,25.928,,,350,,,,,,,,,,,wg-a,,,,AAXX 14154 07481 12682 /3514 10180 20070 39910 40191 56006 60006 81800 91500=
07481,1996-09-14 18:00:00,14,1019.4,-0,67,8,40000,14.816,,,350,6.4,17.7,,,,,,,,,wg-a,,,,AAXX 14184 07481 12782 /3508 10140 20080 39910 40194 55000 60006 81500 91800 333 10177 20064=
07481,1996-09-14 21:00:00,11,1020.4,0.6,82,8,40000,11.112,,,350,,,,,,,,,,,wg-a,,,,AAXX 14214 07481 12/82 13506 10110 20080 39916 40204 50006 60006 81030 92100=
07481,1996-09-15 00:00:00,10,1020.8,0.2,82,7,40000,7.408,,,350,,,,,,,,,,,wg-a,,,,AAXX 15004 07481 12/82 03504 10100 20070 39918 40208 53002 60006 80000 90000=
07481,1996-09-15 03:00:00,7,1021,-0,93,6,15000,3.704,,,330,,,,,,,,,,,wg-a,,,,AAXX 15034 07481 12/65 03302 10070 20060 39918 40210 55000 60006 80000 90300=
07481,1996-09-15 06:00:00,8,1021.4,0.5,93,7,7000,7.408,,,350,6.5,14.3,,,,,,,,,wg-a,,,,AAXX 15064 07481 02257 73504 10080 20070 39923 40214 53005 60006 876// 90600 333 10143 20065 60004=
07481,1996-09-15 09:00:00,10,1022.2,0.9,82,7,12000,3.704,,,330,,,,,,,,,,,wg-a,,,,AAXX 15094 07481 12362 73302 10100 20070 39932 40222 53009 60006 871// 90900=
07481,1996-09-15 12:00:00,16,1020.8,-0.7,63,9,500,18.52,,,10,,,,,,,,,,,wg-a,,,,AAXX 15124 07481 12500 /0110 10160 20090 39925 40208 58007 60006 81100 91200=
07481,1996-09-15 15:00:00,20,1019.4,-1,46,8,35000,18.52,,,20,,,,,,,,,,,wg-a,,,,AAXX 15154 07481 12581 /0210 10200 20080 39914 40194 56010 60006 81100 91500=
07481,1996-09-15 18:00:00,16,1019.9,0.2,59,8,35000,11.112,,,360,8,20,,,,,,,,,wg-a,,,,AAXX 15184 07481 12/81 13606 10160 20080 39916 40199 53002 60006 81030 91800 333 10200 20080=
07481,1996-09-15 21:00:00,12,1020.9,0.6,82,9,25000,11.112,,,340,,,,,,,,,,,wg-a,,,,AAXX 15214 07481 12/75 03406 10120 20090 39922 40209 51006 60006 80000 92100=
07481,1996-09-16 00:00:00,9,1021.2,0,87,7,20000,3.704,,,260,,,,,,,,,,,wg-a,,,,AAXX 16004 07481 12/70 02602 10090 20070 39922 40212 50000 60006 80000 90000=
07481,1996-09-16 03:00:00,8,1020.5,-0.9,93,7,20000,0,,,0,,,,,,,,,,,wg-a,,,,AAXX 16034 07481 32/70 00000 10080 20070 39913 40205 56009 80000 90300=
07481,1996-09-16 06:00:00,8,1020.2,-0.2,100,8,500,3.704,,,20,6.7,15.8,,,,,,,,,wg-a,,,,AAXX 16064 07481 12200 80202 10080 20080 39911 40202 55002 60004 886// 90600 333 10158 20067=
07481,1996-09-16 09:00:00,9,1020.3,0.3,93,8,2000,7.408,,,60,,,,,,,,,,,wg-a,,,,AAXX 16094 07481 12/20 /0604 10090 20080 39913 40203 53003 60006 90900=
07481,1996-09-16 12:00:00,15,1018.4,-1.2,67,9,10000,3.704,,,330,,,,,,,,,,,wg-a,,,,AAXX 16124 07481 12460 /3302 10150 20090 39901 40184 58012 60006 81100 91200=
07481,1996-09-16 15:00:00,18,1016.2,-1.9,56,9,500,7.408,,,70,,,,,,,,,,,wg-a,,,,AAXX 16154 07481 12/00 00704 10180 20090 39882 40162 56019 60006 80000 91500=
07481,1996-09-16 18:00:00,16,1015.9,-0.5,59,8,500,7.408,,,60,8.4,18.5,,,,,,,,,wg-a,,,,AAXX 16184 07481 12/00 00604 10160 20080 39877 40159 56005 60006 80000 91800 333 10185 20084=
07481,1996-09-16 21:00:00,13,1015.6,-0.6,77,9,15000,11.112,,,160,,,,,,,,,,,wg-a,,,,AAXX 16214 07481 12/65 01606 10130 20090 39871 40156 57006 60006 80000 92100=
07481,1996-09-17 00:00:00,10,1015.1,-0.8,87,8,11000,0,,,0,,,,,,,,,,,wg-a,,,,AAXX 17004 07481 12/61 00000 10100 20080 39863 40151 58008 60006 80000 90000=
07481,1996-09-17 03:00:00,8,1014.4,-0.8,93,7,10000,3.704,,,110,,,,,,,,,,,wg-a,,,,AAXX 17034 07481 12/60 01102 10080 20070 39855 40144 58008 60006 80000 90300=
07481,1996-09-17 06:00:00,10,1013.1,-1.1,87,8,9000,11.112,,,160,8.1,16,,,,,,,,,wg-a,,,,AAXX 17064 07481 02/59 11606 10100 20080 39844 40131 56011 60006 80001 90600 333 10160 20081 60004=
07481,1996-09-17 09:00:00,18,1011.5,-0.8,64,11,15000,18.52,,,140,,,,,,,,,,,wg-a,,,,AAXX 17094 07481 12/65 21410 10180 20110 39836 40115 56008 60006 80001 90900=
07481,1996-09-17 12:00:00,22,1009.6,-1.4,43,9,25000,18.52,,,180,,,,,,,,,,,wg-a,,,,AAXX 17124 07481 12175 41810 10220 20090 39822 40096 57014 60006 81101 91200=
07481,1996-09-17 15:00:00,23,1008.4,-1.2,44,10,500,18.52,,,170,,,,,,,,,,,wg-a,,,,AAXX 17154 07481 12700 /1710 10230 20100 39810 40084 57012 60006 81102 91500=
07481,1996-09-17 18:00:00,19,1008.7,-0,60,11,500,18.52,,,160,10.2,23.8,,,,,,,,,wg-a,,,,AAXX 17184 07481 12700 51610 10190 20110 39810 40087 55000 60006 81582 91800 333 10238 20102=
07481,1996-09-18 00:00:00,14,1009.5,-0,82,11,40000,7.408,,,140,,,,,,,,,,,wg-a,,,,AAXX 18004 07481 12/82 11404 10140 20110 39813 40095 54000 60006 81040 90000=
07481,1996-09-18 03:00:00,14,1008.7,-0.8,77,10,40000,11.112,,,160,,,,,,,,,,,wg-a,,,,AAXX 18034 07481 12/82 31606 10140 20100 39805 40087 57008 60006 83030 90300=
07481,1996-09-18 06:00:00,11,1008.7,-0.2,94,10,12000,3.704,,,30,11.3,18.5,,,,,,,,,wg-a,,,,AAXX 18064 07481 02862 60302 10110 20100 39803 40087 56002 60006 86080 90600 333 10185 20113 60004=
07481,1996-09-18 09:00:00,17,1007.8,-0.4,68,11,9000,3.704,,,160,,,,,,,,,,,wg-a,,,,AAXX 18094 07481 12/59 /1602 10170 20110 39799 40078 58004 60006 90900=
07481,1996-09-18 12:00:00,19,1006,-1.5,60,11,11000,7.408,,,140,,,,,,,,,,,wg-a,,,,AAXX 18124 07481 12/61 /1404 10190 20110 39784 40060 56015 60006 91200=
07481,1996-09-18 15:00:00,18,1005,-1.1,68,12,12000,11.112,,,150,,,,0,,,,,,2,wg-a,,,,AAXX 18154 07481 12662 71506 10180 20120 39773 40050 58011 60007 70262 8157/ 91500=
07481,1996-09-18 18:00:00,16,1004.3,-0.8,82,13,11000,18.52,,,130,11.2,19.3,,,,,,,,,wg-a,,,,AAXX 18184 07481 32/61 /1310 10160 20130 39765 40043 56008 91800 333 10193 20112=
07481,1996-09-18 20:00:00,16,1004.3,-0.8,82,13,11000,18.52,,,130,11.2,19.3,,,,,,,,,wg-a,,,,AAXX 18204 07481 32/61 /1310 10160 20130 39765 40043 56008 92000 333 10193 20112=
07481,1996-09-18 21:00:00,15,1005.1,0.6,88,13,10000,14.816,,,140,,,,1,,,,,,61,wg-a,,,,AAXX 18214 07481 12460 81408 10150 20130 39771 40051 51006 60017 76162 8657/ 92100=
07481,1996-09-19 00:00:00,14,1004.5,-0.6,94,13,12000,14.816,,,120,,,,2,,,,,,60,wg-a,,,,AAXX 19004 07481 02662 81208 10140 20130 39765 40045 58006 60036 76062 8657/ 90000 333 60027=
07481,1996-09-19 03:00:00,13,1003.4,-1.2,94,12,8000,18.52,,,140,,,,,,,,,,1,wg-a,,,,AAXX 19034 07481 02558 /1410 10130 20120 39753 40034 58012 61000 70162 83570 90300 333 ////=
07481,1996-09-19 06:00:00,12,1003.2,-0.3,94,11,8000,18.52,,,140,12,16.2,,,,,3,,,2,wg-a,,,,AAXX 19064 07481 12558 71410 10120 20110 39750 40032 55003 60034 70262 82531 90600 333 10162 20120=
07481,1996-09-19 09:00:00,15,1003,0.1,77,11,9000,18.52,,,140,,,,,,,,,,,wg-a,,,,AAXX 19094 07481 12659 71410 10150 20110 39751 40030 50001 60006 82532 90900=
07481,1996-09-19 12:00:00,18,1003.3,0.6,64,11,15000,11.112,,,190,,,,,,,,,,,wg-a,,,,AAXX 19124 07481 12665 71906 10180 20110 39752 40033 53006 60006 81172 91200=
07481,1996-09-19 15:00:00,17,1003.3,-0.2,77,13,12000,11.112,,,170,,,,0,,,,,,60,wg-a,,,,AAXX 19154 07481 12462 81706 10170 20130 39755 40033 56002 60007 76062 8387/ 91500=
07481,1996-09-19 18:00:00,15,1004.3,0.9,82,12,20000,7.408,,,180,12.2,18.3,,0,,,,,,60,wg-a,,,,AAXX 19184 07481 12570 81804 10150 20120 39764 40043 51009 60007 76062 91800 333 10183 20122=
07481,1996-09-19 21:00:00,14,1006,1.6,94,13,7000,14.816,,,140,,,,2,,,,,,61,wg-a,,,,AAXX 19214 07481 12157 81408 10140 20130 39780 40060 51016 60027 76166 8387/ 92100=
07481,1996-09-20 00:00:00,14,1006,-0.1,94,13,8000,11.112,,,190,,,,4,,,,,,61,wg-a,,,,AAXX 20004 07481 02458 81906 10140 20130 39779 40060 58001 60066 76166 8587/ 90000 333 60047=
07481,1996-09-20 03:00:00,11,1006.9,0.6,94,10,40000,7.408,,,90,,,,3,,,,,,21,wg-a,,,,AAXX 20034 07481 12682 80904 10110 20100 39785 40069 51006 60037 72162 8257/ 90300=
07481,1996-09-20 06:00:00,11,1007.2,0.3,94,10,9000,11.112,,,160,10.4,15,,,,,9,,,11,wg-a,,,,AAXX 20064 07481 12459 71606 10110 20100 39788 40072 53003 60094 71162 8117/ 90600 333 10150 20104=
07481,1996-09-20 09:00:00,14,1006.9,-0.1,63,7,15000,3.704,,,250,,,,0,,,,,,,wg-a,,,,AAXX 20094 07481 12465 72502 10140 20070 39787 40069 58001 60007 8127/ 90900=
07481,1996-09-20 12:00:00,18,1005.1,-1.3,45,6,40000,11.112,,,210,,,,,,,,,,,wg-a,,,,AAXX 20124 07481 12682 32106 10180 20060 39774 40051 56013 60006 82230 91200=
07481,1996-09-20 15:00:00,19,1003.6,-1.4,43,6,40000,14.816,,,210,,,,,,,,,,,wg-a,,,,AAXX 20154 07481 12782 72108 10190 20060 39760 40036 56014 60006 8125/ 91500=
07481,1996-09-20 18:00:00,16,1003.6,-0.3,59,8,40000,25.928,,,200,11.3,19.4,,,,,,,,,wg-a,,,,AAXX 20184 07481 32882 72014 10160 20080 39750 40036 56003 8707/ 91800 333 10194 20113=
07481,1996-09-20 21:00:00,14,1004.1,0.4,82,11,40000,14.816,,,180,,,,,,,,,,,wg-a,,,,AAXX 20214 07481 12782 81808 10140 20110 39761 40041 50004 60006 8357/ 92100=
07481,1996-09-21 00:00:00,13,1003.4,-0.9,88,11,500,11.112,,,120,,,,,,,,,,,wg-a,,,,AAXX 21004 07481 12700 /1206 10130 20110 39752 40034 58009 60006 82570 90000=
07481,1996-09-21 03:00:00,12,1001.8,-1.6,94,11,15000,11.112,,,140,,,,,,,,,,,wg-a,,,,AAXX 21034 07481 12/65 71406 10120 20110 39736 40018 58016 60006 8707/ 90300=
07481,1996-09-21 06:00:00,11,1002,0.1,94,10,4500,3.704,,,260,10.7,15.8,,,,,,,,10,wg-a,,,,AAXX 21064 07481 02645 /2602 10110 20100 39737 40020 52001 60006 71011 83532 90600 333 10158 20107 60004=
07481,1996-09-21 09:00:00,13,1002.4,0.6,88,11,500,0,,,0,,,,,,,,,,,wg-a,,,,AAXX 21094 07481 12200 70000 10130 20110 39743 40024 51006 60006 8457/ 90900=
07481,1996-09-21 12:00:00,18,1001.1,-0.8,64,11,13000,11.112,,,140,,,,,,,,,,,wg-a,,,,AAXX 21124 07481 12463 61406 10180 20110 39735 40011 58008 60006 84570 91200=
07481,1996-09-21 15:00:00,17,1001,-0.2,77,13,27000,7.408,,,210,,,,,,,,,,60,wg-a,,,,AAXX 21154 07481 02477 72104 10170 20130 39733 40010 55002 61000 76062 8587/ 91500 333 ////=
07481,1996-09-21 18:00:00,15,1001.5,0.3,88,13,10000,7.408,,,120,11.1,18.1,,0,,,,,,60,wg-a,,,,AAXX 21184 07481 12460 81204 10150 20130 39736 40015 53003 60007 76062 8557/ 91800 333 10181 20111=
07481,1996-09-21 21:00:00,14,1002.2,0.7,94,13,15000,3.704,,,340,,,,0,,,,,,60,wg-a,,,,AAXX 21214 07481 12565 83402 10140 20130 39743 40022 51007 60007 76062 8557/ 92100=
07481,1996-09-22 00:00:00,14,1002.2,-0.1,94,13,6000,0,,,0,,,,2,,,,,,61,wg-a,,,,AAXX 22004 07481 02156 80000 10140 20130 39742 40022 56001 60026 76162 8657/ 90000 333 60027=
07481,1996-09-22 03:00:00,13,1002,-0.3,94,12,3500,7.408,,,340,,,,2,,,,,,10,wg-a,,,,AAXX 22034 07481 12135 83404 10130 20120 39739 40020 57003 60027 71065 886// 90300=
07481,1996-09-22 06:00:00,11,1002.8,0.7,100,11,1700,18.52,,,330,11.3,14.7,,6,,,11,,,10,wg-a,,,,AAXX 22064 07481 02117 83310 10110 20110 39746 40028 53007 60114 71065 886// 90600 333 10147 20113 60067=
07481,1996-09-22 09:00:00,12,1004.1,1.2,94,11,3500,14.816,,,350,,,,1,,,,,,10,wg-a,,,,AAXX 22094 07481 12235 83508 10120 20110 39758 40041 52012 60017 71065 886// 90900=
07481,1996-09-22 12:00:00,12,1005.1,1,94,11,4500,18.52,,,340,,,,,,,,,,10,wg-a,,,,AAXX 22124 07481 12245 83410 10120 20110 39768 40051 51010 60016 71065 886// 91200=
07481,1996-09-22 15:00:00,13,1005.4,0.4,82,10,8000,14.816,,,360,,,,,,,,,,,wg-a,,,,AAXX 22154 07481 12458 83608 10130 20100 39772 40054 52004 60006 8257/ 91500=
07481,1996-09-22 18:00:00,12,1007.1,1.6,88,10,10000,14.816,,,330,11,12.9,,,,,,,,,wg-a,,,,AAXX 22184 07481 32660 83308 10120 20100 39788 40071 53016 8557/ 91800 333 10129 20110=
07481,1996-09-22 21:00:00,11,1008.7,1.4,82,8,15000,14.816,,,330,,,,,,,,,,,wg-a,,,,AAXX 22214 07481 12665 83308 10110 20080 39802 40087 51014 60006 885// 92100=
07481,1996-09-23 00:00:00,10,1008.7,-0.1,87,8,12000,7.408,,,320,,,,,,,,,,,wg-a,,,,AAXX 23004 07481 12662 83204 10100 20080 39801 40087 57001 60006 885// 90000=
07481,1996-09-23 03:00:00,10,1008.9,0.2,82,7,12000,11.112,,,330,,,,,,,,,,,wg-a,,,,AAXX 23034 07481 12562 83306 10100 20070 39803 40089 50002 60006 885// 90300=
07481,1996-09-23 06:00:00,9,1009.6,0.6,93,8,6000,3.704,,,330,9.2,12.1,,,,,1,,,,wg-a,,,,AAXX 23064 07481 02556 83302 10090 20080 39809 40096 53006 60006 885// 90600 333 10121 20092 60014=
07481,1996-09-23 09:00:00,12,1010.1,0.7,76,8,7000,22.224,,,360,,,,,,,,,,,wg-a,,,,AAXX 23094 07481 12457 83612 10120 20080 39816 40101 51007 60006 885// 90900=
07481,1996-09-23 12:00:00,13,1009.8,-0.2,62,6,10000,18.52,,,10,,,,,,,,,,,wg-a,,,,AAXX 23124 07481 12560 80110 10130 20060 39814 40098 58002 60006 8/87/ 91200=
07481,1996-09-23 15:00:00,13,1010,0.2,62,6,15000,18.52,,,320,,,,,,,,,,,wg-a,,,,AAXX 23154 07481 12565 73210 10130 20060 39817 40100 53002 60006 85802 91500=
07481,1996-09-23 18:00:00,12,1011.6,1.4,71,7,13000,3.704,,,350,9.3,13.4,,,,,,,,,wg-a,,,,AAXX 23184 07481 12663 83502 10120 20070 39831 40116 53014 60006 885// 91800 333 10134 20093=
07481,1996-09-23 21:00:00,8,1012.9,0.9,93,7,15000,3.704,,,340,,,,,,,,,,,wg-a,,,,AAXX 23214 07481 12/65 03402 10080 20070 39840 40129 51009 60006 80000 92100=
07481,1996-09-24 00:00:00,7,1013,-0,93,6,12000,7.408,,,150,,,,,,,,,,,wg-a,,,,AAXX 24004 07481 12862 11504 10070 20060 39840 40130 55000 60006 81030 90000=
07481,1996-09-24 03:00:00,7,1012.7,-0.3,93,6,8000,3.704,,,130,,,,,,,,,,,wg-a,,,,AAXX 24034 07481 12858 71302 10070 20060 39837 40127 56003 60006 8703/ 90300=
07481,1996-09-24 06:00:00,6,1013,0.2,93,5,6000,0,,,0,5.8,11.8,,,,,,,,11,wg-a,,,,AAXX 24064 07481 02856 /0000 10060 20050 39839 40130 53002 60006 71111 81030 90600 333 10118 20058 60004=
07481,1996-09-24 09:00:00,12,1013,0.6,76,8,7000,0,,,0,,,,,,,,,,,wg-a,,,,AAXX 24094 07481 12/57 00000 10120 20080 39845 40130 51006 60006 80000 90900=
07481,1996-09-24 12:00:00,16,1012.2,-0.4,55,7,18000,7.408,,,10,,,,,,,,,,,wg-a,,,,AAXX 24124 07481 12668 60104 10160 20070 39841 40122 57004 60006 86800 91200=
07481,1996-09-24 15:00:00,16,1012.1,-0.1,51,6,25000,7.408,,,10,,,,,,,,,,,wg-a,,,,AAXX 24154 07481 12775 70104 10160 20060 39840 40121 56001 60006 875// 91500=
07481,1996-09-24 18:00:00,15,1013,0.7,59,7,20000,3.704,,,90,6.3,16.3,,,,,,,,,wg-a,,,,AAXX 24184 07481 12770 70902 10150 20070 39847 40130 53007 60006 8453/ 91800 333 10163 20063=
07481,1996-09-24 21:00:00,11,1013.5,0.2,82,8,20000,11.112,,,160,,,,,,,,,,,wg-a,,,,AAXX 24214 07481 12/70 11606 10110 20080 39849 40135 50002 60006 81030 92100=
07481,1996-09-25 00:00:00,8,1013.3,-0.5,93,7,12000,3.704,,,220,,,,,,,,,,,wg-a,,,,AAXX 25004 07481 12/62 12202 10080 20070 39844 40133 56005 60006 80001 90000=
07481,1996-09-25 03:00:00,8,1012,-1.3,87,6,9000,7.408,,,170,,,,0,,,,,,,wg-a,,,,AAXX 25034 07481 12/59 41704 10080 20060 39831 40120 56013 60007 80002 90300=
07481,1996-09-25 06:00:00,8,1011.5,-0.5,87,6,6000,11.112,,,140,6.8,14.5,,,,,,,,,wg-a,,,,AAXX 25064 07481 12756 71406 10080 20060 39826 40115 55005 60004 85532 90600 333 10145 20068=
07481,1996-09-25 09:00:00,10,1012.4,1.1,87,8,6000,7.408,,,160,,,,0,,,,,,61,wg-a,,,,AAXX 25094 07481 12756 /1604 10100 20080 39837 40124 53011 60007 76162 8357/ 90900=
07481,1996-09-25 12:00:00,14,1011.6,-0.4,77,10,8000,11.112,,,140,,,,0,,,,,,60,wg-a,,,,AAXX 25124 07481 02758 81406 10140 20100 39833 40116 58004 60016 76062 8357/ 91200 333 60007=
07481,1996-09-25 15:00:00,15,1011.2,-0.2,67,9,12000,7.408,,,210,,,,,,,,,,3,wg-a,,,,AAXX 25154 07481 02562 72104 10150 20090 39831 40112 55002 61000 70362 8487/ 91500 333 ////=
07481,1996-09-25 18:00:00,13,1012.9,1.4,82,10,10000,7.408,,,110,7.8,15.5,,,,,,,,1,wg-a,,,,AAXX 25184 07481 02760 51104 10130 20100 39845 40129 53014 61000 70162 83530 91800 333 10155 20078 ////=
07481,1996-09-25 21:00:00,13,1014.9,1.9,82,10,15000,7.408,,,150,,,,,,,,,,,wg-a,,,,AAXX 25214 07481 12765 71504 10130 20100 39864 40149 51019 60006 875// 92100=
07481,1996-09-26 00:00:00,12,1016.6,1.6,88,10,15000,3.704,,,210,,,,,,,,,,,wg-a,,,,AAXX 26004 07481 12665 72102 10120 20100 39880 40166 51016 60006 875// 90000=
07481,1996-09-26 03:00:00,9,1017.9,1,100,9,3000,3.704,,,330,,,,,,,,,,10,wg-a,,,,AAXX 26034 07481 12530 53302 10090 20090 39890 40179 53010 60006 71011 85500 90300=
07481,1996-09-26 06:00:00,11,1019.4,1.6,94,10,4000,0,,,0,9.2,13.1,,,,,1,,,10,wg-a,,,,AAXX 26064 07481 02540 70000 10110 20100 39906 40194 53016 60006 71011 875// 90600 333 10131 20092 60014=
07481,1996-09-26 09:00:00,14,1020.3,1.2,82,11,7000,11.112,,,350,,,,,,,,,,,wg-a,,,,AAXX 26094 07481 12457 33506 10140 20110 39918 40203 51012 60006 83500 90900=
07481,1996-09-26 12:00:00,18,1019.2,-0.7,59,10,500,11.112,,,320,,,,,,,,,,,wg-a,,,,AAXX 26124 07481 12500 43206 10180 20100 39911 40192 58007 60006 84200 91200=
07481,1996-09-27 06:00:00,12,1019.3,-0,82,9,9000,3.704,,,190,10.3,15.1,,,,,,,,,wg-a,,,,AAXX 27064 07481 02759 71902 10120 20090 39906 40193 55000 60006 83532 90600 333 10151 20103 60004=
07481,1996-09-27 09:00:00,13,1020.1,0.9,88,11,6000,11.112,,,200,,,,0,,,,,,21,wg-a,,,,AAXX 27094 07481 12556 82006 10130 20110 39915 40201 53009 60007 72162 8457/ 90900=
07481,1996-09-27 12:00:00,19,1019.3,-0.2,60,11,15000,7.408,,,140,,,,,,,,,,1,wg-a,,,,AAXX 27124 07481 12565 /1404 10190 20110 39913 40193 58002 60016 70162 82531 91200=
07481,1996-09-27 15:00:00,19,1018.6,-0.6,64,12,25000,18.52,,,130,,,,,,,,,,,wg-a,,,,AAXX 27154 07481 12675 71310 10190 20120 39907 40186 58006 60006 8353/ 91500=
07481,1996-09-27 18:00:00,18,1018.7,-0.1,73,13,12000,7.408,,,240,11.5,19.9,,,,,,,,,wg-a,,,,AAXX 27184 07481 32662 72404 10180 20130 39906 40187 55001 8583/ 91800 333 10199 20115=
07481,1996-09-27 20:00:00,18,1018.7,-0.1,73,13,12000,7.408,,,240,11.5,19.9,,,,,,,,,wg-a,,,,AAXX 27204 07481 32662 72404 10180 20130 39906 40187 55001 8583/ 92000 333 10199 20115=
07481,1996-09-27 21:00:00,13,1022.3,3.1,100,13,15000,0,,,0,,,,4,,,,,,1,wg-a,,,,AAXX 27214 07481 12/65 10000 10130 20130 39937 40223 51031 60047 70186 81030 92100=
07481,1996-09-28 00:00:00,13,1024.2,1.8,94,12,25000,3.704,,,190,,,,,,,,,,3,wg-a,,,,AAXX 28004 07481 12/75 31902 10130 20120 39955 40242 51018 60046 70386 83030 90000=
07481,1996-09-28 03:00:00,11,1025,0.6,100,11,15000,3.704,,,60,,,,0,,,,,,11,wg-a,,,,AAXX 28034 07481 12665 /0602 10110 20110 39961 40250 53006 60007 71100 81230 90300=
07481,1996-09-28 06:00:00,11,1026.6,1.5,94,10,15000,11.112,,,20,10.6,17.4,,,,,4,,,,wg-a,,,,AAXX 28064 07481 12365 20206 10110 20100 39976 40266 51015 60044 82800 90600 333 10174 20106=
07481,1996-09-28 12:00:00,17,1027.3,0.3,59,9,40000,18.52,,,10,,,,,,,,,,,wg-a,,,,AAXX 28124 07481 12582 /0110 10170 20090 39989 40273 53003 60006 81102 91200=
07481,1996-09-28 15:00:00,17,1026.1,-1.1,52,7,40000,18.52,,,340,,,,,,,,,,,wg-a,,,,AAXX 28154 07481 12682 /3410 10170 20070 39977 40261 56011 60006 81132 91500=
07481,1996-09-28 18:00:00,14,1026.9,0.5,67,8,40000,7.408,,,10,10.9,18.3,,,,,,,,,wg-a,,,,AAXX 28184 07481 12/82 20104 10140 20080 39982 40269 50005 60006 80002 91800 333 10183 20109=
07481,1996-09-28 21:00:00,11,1027.7,0.4,82,8,500,3.704,,,250,,,,,,,,,,,wg-a,,,,AAXX 28214 07481 12/00 32502 10110 20080 39986 40277 53004 60006 80002 92100=
07481,1996-09-29 00:00:00,10,1027.2,-0.5,87,8,500,7.408,,,180,,,,,,,,,,,wg-a,,,,AAXX 29004 07481 12/00 21804 10100 20080 39981 40272 58005 60006 80002 90000=
07481,1996-09-29 03:00:00,8,1027.1,-0.3,93,7,25000,11.112,,,170,,,,,,,,,,,wg-a,,,,AAXX 29034 07481 12/75 01706 10080 20070 39978 40271 55003 60006 80000 90300=
07481,1996-09-29 06:00:00,8,1027.4,0.2,87,6,25000,3.704,,,200,6.9,14,,0,,,,,,,wg-a,,,,AAXX 29064 07481 02/75 72002 10080 20060 39980 40274 53002 60004 80002 90600 333 10140 20069 60007=
07481,1996-09-29 09:00:00,13,1027.5,0.7,72,8,40000,7.408,,,170,,,,,,,,,,,wg-a,,,,AAXX 29094 07481 12/82 71704 10130 20080 39987 40275 51007 60006 80002 90900=
07481,1996-09-29 12:00:00,20,1025.6,-1.2,53,10,50000,3.704,,,200,,,,,,,,,,,wg-a,,,,AAXX 29124 07481 12/84 52002 10200 20100 39975 40256 58012 60006 80001 91200=
07481,1996-09-29 15:00:00,22,1023.4,-1.9,43,9,60000,3.704,,,80,,,,,,,,,,,wg-a,,,,AAXX 29154 07481 12/86 20802 10220 20090 39956 40234 57019 60006 80001 91500=
07481,1996-09-29 18:00:00,18,1023.7,-0.1,52,8,75000,3.704,,,60,7.6,22.9,,,,,,,,,wg-a,,,,AAXX 29184 07481 12/89 10602 10180 20080 39955 40237 55001 60006 80001 91800 333 10229 20076=
07481,1996-09-29 21:00:00,15,1023.9,-0.2,82,12,50000,11.112,,,160,,,,,,,,,,,wg-a,,,,AAXX 29214 07481 12/84 11606 10150 20120 39954 40239 57002 60006 81030 92100=
07481,1996-09-30 00:00:00,12,1023.4,-0.7,88,10,50000,7.408,,,160,,,,,,,,,,,wg-a,,,,AAXX 30004 07481 12/84 01604 10120 20100 39947 40234 56007 60006 80000 90000=
07481,1996-09-30 03:00:00,11,1022.4,-1.1,87,9,500,14.816,,,160,,,,,,,,,,,wg-a,,,,AAXX 30034 07481 12/00 01608 10110 20090 39936 40224 58011 60006 80000 90300=
07481,1996-09-30 06:00:00,11,1021.9,-0.6,82,8,20000,14.816,,,160,10.5,18.3,,,,,,,,,wg-a,,,,AAXX 30064 07481 02/70 01608 10110 20080 39930 40219 56006 60006 80000 90600 333 10183 20105 60004=
07481,1996-09-30 09:00:00,18,1019.9,-1.3,59,10,18000,14.816,,,150,,,,,,,,,,,wg-a,,,,AAXX 30094 07481 12/68 21508 10180 20100 39918 40199 58013 60006 82030 90900=
07481,1996-09-30 12:00:00,24,1016.1,-3.1,38,9,35000,29.632,,,170,,,,,,,,,,,wg-a,,,,AAXX 30124 07481 12/81 31716 10240 20090 39886 40161 58031 60006 83080 91200=
07481,1996-09-30 15:00:00,24,1013.4,-2.6,31,6,35000,35.188,,46.3,200,,,,,,,,,,,wg-a,,,,AAXX 30154 07481 12/81 32019 10240 20060 39860 40134 56026 60006 83080 91500 333 91025=
07481,1996-09-30 18:00:00,20,1013.5,-0.3,56,11,35000,29.632,,,190,10.7,24.5,,,,,,,,,wg-a,,,,AAXX 30184 07481 12/81 21916 10200 20110 39857 40135 56003 60006 81042 91800 333 10245 20107=
07481,1996-09-30 21:00:00,18,1013.1,-0.5,73,13,20000,22.224,,50.004,170,,,,,,,,,,,wg-a,,,,AAXX 30214 07481 12/70 11712 10180 20130 39852 40131 58005 60006 80001 92100 333 91027=
07481,1996-10-01 00:00:00,18,1008.9,-4.1,68,12,20000,42.596,,74.08,190,,,,,,,,,,,wg-a,,,,AAXX 01004 07481 12/70 51923 10180 20120 39811 40089 58041 60006 80001 90000 333 91040=
07481,1996-10-01 03:00:00,17,1008.4,-0.6,59,9,15000,29.632,,55.56,190,,,,,,,,,,,wg-a,,,,AAXX 01034 07481 12/65 41916 10170 20090 39805 40084 56006 60006 81031 90300 333 91030=
07481,1996-10-01 06:00:00,18,1005.9,-2.3,52,8,15000,25.928,,55.56,190,17.2,19.7,,,,,,,,,wg-a,,,,AAXX 01064 07481 02665 61914 10180 20080 39782 40059 55023 60006 81882 90600 333 10197 20172 60004 91030=
07481,1996-10-01 09:00:00,20,1005.8,0,49,9,500,35.188,,51.856,190,,,,,,,,,,,wg-a,,,,AAXX 01094 07481 12600 41919 10200 20090 39782 40058 50000 60006 81881 90900 333 91028=
07481,1996-10-01 12:00:00,15,1009.5,3.2,82,12,12000,31.484,,,240,,,,3,,,,,,61,wg-a,,,,AAXX 01124 07481 02562 82417 10150 20120 39814 40095 53032 60036 76161 8587/ 91200 333 60037=
07481,1996-10-01 18:00:00,12,1014.6,3.1,88,10,20000,14.816,,,310,12.1,20,,1,,,,,,61,wg-a,,,,AAXX 01184 07481 12570 73108 10120 20100 39861 40146 53031 60017 76162 8487/ 91800 333 10200 20121=
07481,1996-10-01 21:00:00,11,1016.9,2.1,87,9,12000,14.816,,,310,,,,2,,,,,,60,wg-a,,,,AAXX 01214 07481 12462 83108 10110 20090 39882 40169 52021 60027 76062 8587/ 92100=
07481,1996-10-02 00:00:00,10,1017.2,0.2,93,9,20000,3.704,,,100,,,,0,,,,,,1,wg-a,,,,AAXX 02004 07481 02770 71002 10100 20090 39884 40172 53002 60026 70162 8357/ 90000 333 60007=
07481,1996-10-02 03:00:00,10,1016.5,-0.7,93,9,15000,3.704,,,150,,,,0,,,,,,3,wg-a,,,,AAXX 02034 07481 12565 81502 10100 20090 39877 40165 58007 60007 70362 885// 90300=
07481,1996-10-02 06:00:00,10,1016.2,-0.2,93,9,8000,3.704,,,300,9.7,12.1,,,,,9,,,3,wg-a,,,,AAXX 02064 07481 12458 73002 10100 20090 39874 40162 55002 60094 70362 878// 90600 333 10121 20097=
07481,1996-10-02 09:00:00,13,1015.9,-0,82,10,11000,3.704,,,360,,,,,,,,,,,wg-a,,,,AAXX 02094 07481 12/61 /3602 10130 20100 39874 40159 55000 60006 90900=
07481,1996-10-02 12:00:00,14,1015.4,-0.4,72,9,40000,14.816,,,350,,,,,,,,,,,wg-a,,,,AAXX 02124 07481 12582 53508 10140 20090 39870 40154 58004 60006 82201 91200=
07481,1996-10-02 18:00:00,12,1018.8,2.5,71,7,40000,18.52,,,350,9.7,16.1,,,,,,,,,wg-a,,,,AAXX 02184 07481 12682 33510 10120 20070 39901 40188 53025 60006 83461 91800 333 10161 20097=
07481,1996-10-02 21:00:00,10,1021.5,2.4,82,7,500,14.816,,,340,,,,,,,,,,,wg-a,,,,AAXX 02214 07481 12/00 03408 10100 20070 39925 40215 51024 60006 80000 92100=
07481,1996-10-03 00:00:00,8,1023,1.3,93,7,500,11.112,,,340,,,,,,,,,,,wg-a,,,,AAXX 03004 07481 12/00 03406 10080 20070 39938 40230 53013 60006 80000 90000=
07481,1996-10-03 03:00:00,7,1024.5,1.4,93,6,25000,14.816,,,350,,,,,,,,,,,wg-a,,,,AAXX 03034 07481 12375 33508 10070 20060 39952 40245 53014 60006 83600 90300=
07481,1996-10-03 06:00:00,6,1026.3,1.6,100,6,7000,14.816,,,340,6.1,12,,,,,,,,,wg-a,,,,AAXX 03064 07481 02357 33408 10060 20060 39968 40263 53016 60006 83600 90600 333 10120 20061 60004=
07481,1996-10-03 09:00:00,10,1027.1,1.2,82,7,15000,22.224,,,350,,,,,,,,,,,wg-a,,,,AAXX 03094 07481 12365 23512 10100 20070 39980 40271 51012 60006 82100 90900=
07481,1996-10-03 12:00:00,16,1025.5,-1,48,5,27000,22.224,,,340,,,,,,,,,,,wg-a,,,,AAXX 03124 07481 12577 /3412 10160 20050 39970 40255 57010 60006 81101 91200=
07481,1996-10-03 15:00:00,17,1025.1,-0.3,48,6,500,22.224,,,360,,,,,,,,,,,wg-a,,,,AAXX 03154 07481 12600 /3612 10170 20060 39967 40251 57003 60006 81101 91500=
07481,1996-10-03 18:00:00,12,1025.7,0.2,62,5,500,11.112,,,350,6.2,16.9,,,,,,,,,wg-a,,,,AAXX 03184 07481 12/00 33506 10120 20050 39969 40257 53002 60006 80001 91800 333 10169 20062=
07481,1996-10-03 21:00:00,9,1026.3,0.2,87,7,25000,0,,,0,,,,,,,,,,,wg-a,,,,AAXX 03214 07481 12/75 10000 10090 20070 39971 40263 50002 60006 80001 92100=
07481,1996-10-04 00:00:00,8,1026.9,0.5,87,6,25000,7.408,,,80,,,,,,,,,,,wg-a,,,,AAXX 04004 07481 12/75 10804 10080 20060 39976 40269 50005 60006 80001 90000=
07481,1996-10-04 03:00:00,7,1025.4,-1.6,87,5,20000,3.704,,,170,,,,,,,,,,,wg-a,,,,AAXX 04034 07481 12/70 11702 10070 20050 39960 40254 58016 60006 80001 90300=
07481,1996-10-04 06:00:00,6,1025.4,-0.1,93,5,7000,3.704,,,150,5.1,12.4,,,,,,,,,wg-a,,,,AAXX 04064 07481 02/57 31502 10060 20050 39959 40254 55001 60006 80001 90600 333 10124 20051 60004=
07481,1996-10-04 09:00:00,12,1024.5,-0.2,71,7,10000,0,,,0,,,,,,,,,,,wg-a,,,,AAXX 04094 07481 12/60 30000 10120 20070 39957 40245 58002 60006 81031 90900=
07481,1996-10-04 12:00:00,16,1021.8,-2.3,63,9,15000,7.408,,,20,,,,,,,,,,,wg-a,,,,AAXX 04124 07481 12665 30204 10160 20090 39934 40218 58023 60006 81231 91200=
07481,1996-10-04 15:00:00,17,1019.4,-2.2,55,8,25000,14.816,,,20,,,,,,,,,,,wg-a,,,,AAXX 04154 07481 12675 30208 10170 20080 39912 40194 56022 60006 82201 91500=
07481,1996-10-04 18:00:00,14,1018.9,-0.8,72,9,25000,7.408,,,10,5.4,17.8,,,,,,,,,wg-a,,,,AAXX 04184 07481 12775 70104 10140 20090 39904 40189 56008 60006 8253/ 91800 333 10178 20054=
07481,1996-10-04 21:00:00,13,1018.5,-0.5,82,10,500,3.704,,,250,,,,,,,,,,,wg-a,,,,AAXX 04214 07481 12500 72502 10130 20100 39899 40185 58005 60006 8557/ 92100=
07481,1996-10-05 00:00:00,13,1016.9,-1.5,82,10,25000,0,,,0,,,,,,,,,,,wg-a,,,,AAXX 05004 07481 12575 80000 10130 20100 39884 40169 57015 60006 8557/ 90000=
07481,1996-10-05 03:00:00,10,1016.7,-0.5,93,9,15000,11.112,,,360,,,,1,,,,,,60,wg-a,,,,AAXX 05034 07481 12565 83606 10100 20090 39879 40167 55005 60017 76062 8557/ 90300=
07481,1996-10-05 06:00:00,10,1016.3,-0.4,93,9,18000,3.704,,,290,9.7,13.7,,1,,,2,,,21,wg-a,,,,AAXX 05064 07481 02368 /2902 10100 20090 39875 40163 58004 60024 72162 8387/ 90600 333 10137 20097 60017=
07481,1996-10-05 09:00:00,12,1017.2,1.1,76,8,25000,7.408,,,350,,,,,,,,,,,wg-a,,,,AAXX 05094 07481 12475 /3504 10120 20080 39886 40172 51011 60006 81232 90900=
07481,1996-10-05 12:00:00,14,1016.4,-0.6,58,6,25000,18.52,,,340,,,,,,,,,,,wg-a,,,,AAXX 05124 07481 12575 63410 10140 20060 39880 40164 58006 60006 84231 91200=
07481,1996-10-05 15:00:00,13,1015.6,-0.9,62,6,500,22.224,,,350,,,,,,,,,,,wg-a,,,,AAXX 05154 07481 12600 43512 10130 20060 39871 40156 56009 60006 83802 91500=
07481,1996-10-05 18:00:00,10,1016.7,0.8,76,6,35000,11.112,,,340,9.5,15.1,,,,,,,,,wg-a,,,,AAXX 05184 07481 12681 23406 10100 20060 39879 40167 53008 60006 82800 91800 333 10151 20095=
07481,1996-10-05 21:00:00,8,1017.6,0.6,81,5,20000,7.408,,,340,,,,,,,,,,,wg-a,,,,AAXX 05214 07481 12770 33404 10080 20050 39885 40176 51006 60006 83500 92100=
07481,1996-10-06 00:00:00,7,1017.2,-0.5,87,5,20000,14.816,,,340,,,,,,,,,,,wg-a,,,,AAXX 06004 07481 12570 /3408 10070 20050 39880 40172 58005 60006 81500 90000=
07481,1996-10-06 03:00:00,6,1016.4,-0.7,93,5,500,7.408,,,340,,,,,,,,,,,wg-a,,,,AAXX 06034 07481 12300 73404 10060 20050 39872 40164 57007 60006 876// 90300=
07481,1996-10-06 06:00:00,7,1016.5,0.2,93,6,12000,22.224,,,340,5.9,10.2,,,,,,,,,wg-a,,,,AAXX 06064 07481 02362 83412 10070 20060 39874 40165 51002 60006 886// 90600 333 10102 20059 60004=
07481,1996-10-06 09:00:00,8,1017.5,1.1,87,6,15000,22.224,,,350,,,,,,,,,,,wg-a,,,,AAXX 06094 07481 12465 83512 10080 20060 39885 40175 50011 60006 885// 90900=
07481,1996-10-06 12:00:00,10,1017.7,0.4,82,7,17000,22.224,,,360,,,,,,,,,,,wg-a,,,,AAXX 06124 07481 12467 83612 10100 20070 39889 40177 50004 60006 885// 91200=
07481,1996-10-06 15:00:00,12,1017.3,-0.3,71,7,25000,18.52,,,360,,,,,,,,,,,wg-a,,,,AAXX 06154 07481 12575 73610 10120 20070 39886 40173 55003 60006 878// 91500=
07481,1996-10-06 18:00:00,11,1018.4,1.1,82,8,22000,14.816,,,340,7.2,11.7,,,,,,,,,wg-a,,,,AAXX 06184 07481 12572 83408 10110 20080 39897 40184 53011 60006 885// 91800 333 10117 20072=
07481,1996-10-06 21:00:00,11,1019,0.5,76,7,18000,11.112,,,350,,,,,,,,,,,wg-a,,,,AAXX 06214 07481 12568 83506 10110 20070 39902 40190 51005 60006 885// 92100=
07481,1996-10-07 00:00:00,10,1019,-0.1,82,7,15000,11.112,,,350,,,,,,,,,,,wg-a,,,,AAXX 07004 07481 12665 83506 10100 20070 39901 40190 55001 60006 875// 90000=
07481,1996-10-07 03:00:00,9,1018.4,-0.6,93,8,12000,7.408,,,340,,,,,,,,,,,wg-a,,,,AAXX 07034 07481 12662 83404 10090 20080 39895 40184 58006 60006 875// 90300=
07481,1996-10-07 06:00:00,9,1018.2,-0.2,93,8,8000,3.704,,,350,9,11.2,,,,,,,,,wg-a,,,,AAXX 07064 07481 02458 83502 10090 20080 39893 40182 58002 60006 875// 90600 333 10112 20090 60004=
07481,1996-10-07 09:00:00,11,1018.3,0.2,82,8,10000,7.408,,,10,,,,,,,,,,,wg-a,,,,AAXX 07094 07481 12460 80104 10110 20080 39895 40183 50002 60006 875// 90900=
07481,1996-10-07 12:00:00,13,1016.8,-1.3,67,7,25000,14.816,,,330,,,,,,,,,,,wg-a,,,,AAXX 07124 07481 12575 73308 10130 20070 39883 40168 57013 60006 878// 91200=
07481,1996-10-07 15:00:00,13,1016.7,-0,72,8,25000,18.52,,,340,,,,,,,,,,,wg-a,,,,AAXX 07154 07481 12575 73410 10130 20080 39882 40167 55000 60006 878// 91500=
07481,1996-10-07 18:00:00,12,1017.7,0.9,76,8,20000,18.52,,,350,9,13.5,,,,,,,,,wg-a,,,,AAXX 07184 07481 12570 /3510 10120 20080 39891 40177 52009 60006 878// 91800 333 10135 20090=
07481,1996-10-07 21:00:00,11,1018.1,0.3,82,8,18000,14.816,,,340,,,,,,,,,,,wg-a,,,,AAXX 07214 07481 12468 73408 10110 20080 39894 40181 52003 60006 875// 92100=
07481,1996-10-08 00:00:00,11,1017.4,-0.7,82,8,15000,14.816,,,340,,,,,,,,,,,wg-a,,,,AAXX 08004 07481 12465 83408 10110 20080 39887 40174 58007 60006 875// 90000=
07481,1996-10-08 03:00:00,11,1017.4,-0.1,87,9,8000,14.816,,,340,,,,,,,,,,61,wg-a,,,,AAXX 08034 07481 02458 83408 10110 20090 39886 40174 57001 61000 76162 875// 90300 333 ////=
07481,1996-10-08 06:00:00,10,1016.9,-0.5,93,9,6000,18.52,,,340,10.3,12,,,,,,,,60,wg-a,,,,AAXX 08064 07481 02356 83410 10100 20090 39881 40169 56005 61000 76062 875// 90600 333 10120 20103 6100=
07481,1996-10-08 09:00:00,11,1017.5,0.7,87,9,9000,22.224,,,340,,,,,,,,,,21,wg-a,,,,AAXX 08094 07481 02359 83412 10110 20090 39888 40175 51007 61000 72162 875// 90900 333 ////=
07481,1996-10-08 12:00:00,12,1017,-0.4,88,10,10000,22.224,,,340,,,,,,,,,,2,wg-a,,,,AAXX 08124 07481 02460 83412 10120 20100 39884 40170 58004 61000 70262 875// 91200 333 ////=
07481,1996-10-08 15:00:00,13,1016.9,-0,82,10,10000,18.52,,,350,,,,,,,,,,,wg-a,,,,AAXX 08154 07481 12460 83510 10130 20100 39884 40169 55000 60006 875// 91500=
07481,1996-10-08 18:00:00,13,1018.2,1.3,82,10,9000,11.112,,,340,10.3,13.1,,,,,,,,,wg-a,,,,AAXX 08184 07481 32459 83406 10130 20100 39897 40182 53013 875// 91800 333 10131 20103=
07481,1996-10-08 21:00:00,12,1018.6,0.3,94,11,9000,18.52,,,340,,,,,,,,,,,wg-a,,,,AAXX 08214 07481 12459 83410 10120 20110 39900 40186 53003 60006 875// 92100=
07481,1996-10-09 00:00:00,12,1018.5,-0.1,88,10,9000,14.816,,,340,,,,,,,,,,,wg-a,,,,AAXX 09004 07481 12459 83408 10120 20100 39899 40185 56001 60006 875// 90000=
07481,1996-10-09 03:00:00,12,1018.4,-0.1,88,10,8000,14.816,,,340,,,,,,,,,,,wg-a,,,,AAXX 09034 07481 12458 83408 10120 20100 39898 40184 57001 60006 885// 90300=
07481,1996-10-09 06:00:00,12,1019.1,0.6,88,10,6000,14.816,,,340,11.9,13,,,,,,,,,wg-a,,,,AAXX 09064 07481 02456 83408 10120 20100 39904 40191 51006 60006 885// 90600 333 10130 20119 61000=
07481,1996-10-09 09:00:00,13,1020.1,1.1,82,10,7000,14.816,,,340,,,,,,,,,,,wg-a,,,,AAXX 09094 07481 12457 83408 10130 20100 39915 40201 51011 60006 875// 90900=
07481,1996-10-09 12:00:00,14,1019.8,-0.2,77,10,8000,18.52,,,340,,,,,,,,,,,wg-a,,,,AAXX 09124 07481 12458 83410 10140 20100 39913 40198 58002 60006 875// 91200=
07481,1996-10-09 15:00:00,14,1019.7,-0.1,77,10,9000,14.816,,,340,,,,,,,,,,,wg-a,,,,AAXX 09154 07481 12559 83408 10140 20100 39912 40197 55001 60006 875// 91500=
07481,1996-10-09 18:00:00,13,1020.4,0.6,77,9,12000,11.112,,,330,11.9,14,,,,,,,,,wg-a,,,,AAXX 09184 07481 12762 83306 10130 20090 39918 40204 53006 60006 875// 91800 333 10140 20119=
07481,1996-10-09 21:00:00,12,1021.2,0.7,82,9,10000,11.112,,,340,,,,,,,,,,,wg-a,,,,AAXX 09214 07481 12760 83406 10120 20090 39925 40212 53007 60006 875// 92100=
07481,1996-10-10 00:00:00,9,1021.3,-0.2,93,8,9000,11.112,,,310,,,,,,,,,,,wg-a,,,,AAXX 10004 07481 12759 23106 10090 20080 39923 40213 58002 60006 82530 90000=
07481,1996-10-10 03:00:00,8,1021.2,-0.3,93,7,500,7.408,,,300,,,,,,,,,,,wg-a,,,,AAXX 10034 07481 12200 /3004 10080 20070 39920 40212 57003 60006 81630 90300=
07481,1996-10-10 06:00:00,9,1021.4,0.4,100,9,4000,7.408,,,340,6.6,12.8,,0,,,,,,10,wg-a,,,,AAXX 10064 07481 02440 73404 10090 20090 39924 40214 53004 60004 71011 875// 90600 333 10128 20066 60007=
07481,1996-10-10 09:00:00,13,1021.9,0.8,82,10,8000,18.52,,,350,,,,,,,,,,,wg-a,,,,AAXX 10094 07481 12458 73510 10130 20100 39932 40219 51008 60006 84230 90900=
07481,1996-10-10 12:00:00,15,1020.8,-0.8,72,10,15000,18.52,,,340,,,,,,,,,,,wg-a,,,,AAXX 10124 07481 12565 43410 10150 20100 39924 40208 57008 60006 84200 91200=
07481,1996-10-10 15:00:00,16,1019.8,-0.9,63,9,15000,22.224,,,350,,,,,,,,,,,wg-a,,,,AAXX 10154 07481 12565 53512 10160 20090 39915 40198 56009 60006 85800 91500=
07481,1996-10-10 18:00:00,14,1020.7,0.7,77,10,15000,14.816,,,330,9.2,16.8,,,,,,,,,wg-a,,,,AAXX 10184 07481 12665 73308 10140 20100 39922 40207 53007 60006 8283/ 91800 333 10168 20092=
07481,1996-10-10 21:00:00,13,1021.5,0.6,88,11,12000,11.112,,,340,,,,,,,,,,,wg-a,,,,AAXX 10214 07481 12462 83406 10130 20110 39928 40215 51006 60006 875// 92100=
07481,1996-10-11 00:00:00,11,1021,-0.6,94,10,8000,11.112,,,360,,,,,,,,,,,wg-a,,,,AAXX 11004 07481 12258 83606 10110 20100 39922 40210 55006 60006 886// 90000=
07481,1996-10-11 03:00:00,11,1021,0,87,9,7000,3.704,,,340,,,,,,,,,,,wg-a,,,,AAXX 11034 07481 12357 83402 10110 20090 39922 40210 50000 60006 886// 90300=
07481,1996-10-11 06:00:00,11,1021,-0.1,87,9,4000,3.704,,,310,10.6,13.8,,,,,,,,10,wg-a,,,,AAXX 11064 07481 02340 83102 10110 20090 39921 40210 58001 60006 71022 886// 90600 333 10138 20106 60004=
07481,1996-10-11 09:00:00,11,1021.8,0.9,87,9,7000,7.408,,,350,,,,,,,,,,,wg-a,,,,AAXX 11094 07481 12457 /3504 10110 20090 39930 40218 51009 60006 84601 90900=
07481,1996-10-11 12:00:00,15,1020.3,-1.1,67,9,9000,3.704,,,110,,,,,,,,,,,wg-a,,,,AAXX 11124 07481 12459 41102 10150 20090 39919 40203 58011 60006 84100 91200=
07481,1996-10-11 15:00:00,16,1019,-1.2,59,8,10000,3.704,,,10,,,,,,,,,,,wg-a,,,,AAXX 11154 07481 12560 50102 10160 20080 39907 40190 56012 60006 81101 91500=
07481,1996-10-11 18:00:00,13,1019.3,-0,77,9,12000,7.408,,,70,10.5,17.1,,,,,,,,,wg-a,,,,AAXX 11184 07481 12/62 /0704 10130 20090 39907 40193 55000 60006 80001 91800 333 10171 20105=
07481,1996-10-11 21:00:00,10,1019.8,0.2,93,9,8000,3.704,,,110,,,,,,,,,,11,wg-a,,,,AAXX 11214 07481 12/58 21102 10100 20090 39909 40198 52002 60006 71111 80001 92100=
07481,1996-10-12 00:00:00,10,1019.1,-0.7,87,8,8000,7.408,,,180,,,,,,,,,,11,wg-a,,,,AAXX 12004 07481 12/58 21804 10100 20080 39902 40191 58007 60006 71111 80001 90000=
07481,1996-10-12 03:00:00,9,1018.5,-0.7,93,8,7000,7.408,,,160,,,,,,,,,,11,wg-a,,,,AAXX 12034 07481 12/57 /1604 10090 20080 39895 40185 58007 60006 71100 80001 90300=
07481,1996-10-12 06:00:00,6,1018.7,-0.1,100,6,2500,0,,,0,6.1,12.7,,0,,,,,,10,wg-a,,,,AAXX 12064 07481 02/25 /0000 10060 20060 39894 40187 56001 60004 71000 80001 90600 333 10127 20061 60007=
07481,1996-10-12 09:00:00,15,1018,0.3,77,11,10000,18.52,,,140,,,,,,,,,,,wg-a,,,,AAXX 12094 07481 12/60 31410 10150 20110 39897 40180 50003 60006 80001 90900=
07481,1996-10-12 12:00:00,20,1015.7,-1.8,46,8,15000,25.928,,48.152,190,,,,,,,,,,,wg-a,,,,AAXX 12124 07481 12665 41914 10200 20080 39879 40157 58018 60006 81101 91200 333 91026=
07481,1996-10-12 15:00:00,19,1014.3,-1.4,49,8,15000,22.224,,,200,,,,,,,,,,,wg-a,,,,AAXX 12154 07481 12/65 42012 10190 20080 39865 40143 56014 60006 80001 91500=
07481,1996-10-12 18:00:00,16,1015,0.4,63,9,20000,14.816,,,190,6.1,20.8,,,,,,,,,wg-a,,,,AAXX 12184 07481 12/70 31908 10160 20090 39869 40150 53004 60006 80001 91800 333 10208 20061=
07481,1996-10-12 21:00:00,14,1015.3,0.1,77,10,12000,14.816,,,160,,,,,,,,,,,wg-a,,,,AAXX 12214 07481 12/62 01608 10140 20100 39870 40153 53001 60006 80000 92100=
07481,1996-10-13 00:00:00,14,1014.8,-0.5,72,9,12000,18.52,,,180,,,,,,,,,,,wg-a,,,,AAXX 13004 07481 12/62 01810 10140 20090 39865 40148 58005 60006 80000 90000=
07481,1996-10-13 03:00:00,13,1013.8,-1.1,72,8,12000,14.816,,,150,,,,,,,,,,,wg-a,,,,AAXX 13034 07481 12/62 01508 10130 20080 39854 40138 58011 60006 80000 90300=
07481,1996-10-13 06:00:00,10,1013.8,-0.3,87,8,8000,11.112,,,140,9.9,16.5,,,,,,,,,wg-a,,,,AAXX 13064 07481 02/58 21406 10100 20080 39851 40138 58003 60006 80002 90600 333 10165 20099 60004=
07481,1996-10-13 09:00:00,15,1013.1,-0.2,72,10,10000,18.52,,,130,,,,,,,,,,,wg-a,,,,AAXX 13094 07481 12/60 51310 10150 20100 39849 40131 58002 60006 80002 90900=
07481,1996-10-13 12:00:00,20,1010.2,-2.4,53,10,13000,3.704,,,250,,,,,,,,,,,wg-a,,,,AAXX 13124 07481 12/63 42502 10200 20100 39825 40102 58024 60006 80002 91200=
07481,1996-10-13 15:00:00,22,1008.4,-1.6,38,7,500,22.224,,,190,,,,,,,,,,,wg-a,,,,AAXX 13154 07481 12600 31912 10220 20070 39809 40084 56016 60006 81142 91500=
07481,1996-10-13 18:00:00,16,1009.7,0.8,59,8,500,14.816,,,120,9.5,22.5,,,,,,,,,wg-a,,,,AAXX 13184 07481 12/00 31208 10160 20080 39817 40097 51008 60006 82042 91800 333 10225 20095=
07481,1996-10-13 21:00:00,15,1009.4,-0.4,67,9,25000,14.816,,,150,,,,,,,,,,,wg-a,,,,AAXX 13214 07481 12/75 41508 10150 20090 39813 40094 55004 60006 81032 92100=
07481,1996-10-14 00:00:00,12,1008.4,-1.3,82,9,20000,11.112,,,140,,,,,,,,,,,wg-a,,,,AAXX 14004 07481 12/70 01406 10120 20090 39800 40084 56013 60006 80000 90000=
07481,1996-10-14 03:00:00,10,1008.2,-0.3,87,8,20000,3.704,,,140,,,,,,,,,,,wg-a,,,,AAXX 14034 07481 12870 11402 10100 20080 39797 40082 58003 60006 81040 90300=
07481,1996-10-14 06:00:00,10,1008.6,0.3,87,8,11000,3.704,,,320,9,16.6,,,,,,,,,wg-a,,,,AAXX 14064 07481 02861 63202 10100 20080 39800 40086 53003 60006 86040 90600 333 10166 20090 60004=
07481,1996-10-14 09:00:00,12,1009,0.6,82,9,10000,0,,,0,,,,,,,,,,,wg-a,,,,AAXX 14094 07481 12860 70000 10120 20090 39806 40090 50006 60006 87070 90900=
07481,1996-10-14 12:00:00,18,1007.7,-0.7,59,10,10000,7.408,,,90,,,,,,,,,,,wg-a,,,,AAXX 14124 07481 12860 70904 10180 20100 39799 40077 58007 60006 83042 91200=
07481,1996-10-14 15:00:00,19,1006.9,-0.7,56,10,15000,11.112,,,100,,,,,,,,,,,wg-a,,,,AAXX 14154 07481 12665 71006 10190 20100 39792 40069 56007 60006 81172 91500=
07481,1996-10-14 18:00:00,15,1007.8,0.6,82,12,25000,7.408,,,140,9.3,19.2,,0,,,,,,21,wg-a,,,,AAXX 14184 07481 12875 71404 10150 20120 39798 40078 51006 60007 72162 8707/ 91800 333 10192 20093=
07481,1996-10-14 21:00:00,14,1008.8,0.8,88,12,11000,7.408,,,40,,,,,,,,,,,wg-a,,,,AAXX 14214 07481 32/61 /0404 10140 20120 39806 40088 50008 92100=
07481,1996-10-15 00:00:00,13,1008.8,-0.1,94,12,8000,3.704,,,50,,,,1,,,,,,60,wg-a,,,,AAXX 15004 07481 02658 80502 10130 20120 39805 40088 58001 60026 76062 8157/ 90000 333 60017=
07481,1996-10-15 03:00:00,12,1008.2,-0.6,100,12,4500,3.704,,,350,,,,2,,,,,,10,wg-a,,,,AAXX 15034 07481 12545 83502 10120 20120 39799 40082 58006 60027 71066 8357/ 90300=
07481,1996-10-15 06:00:00,12,1007.8,-0.4,100,12,500,0,,,0,12.1,15.1,,1,,,5,,,10,wg-a,,,,AAXX 15064 07481 02200 80000 10120 20120 39795 40078 57004 60054 71066 888// 90600 333 10151 20121 60017=
07481,1996-10-15 09:00:00,13,1010.1,2.3,100,13,500,7.408,,,290,,,,1,,,,,,60,wg-a,,,,AAXX 15094 07481 12200 82904 10130 20130 39818 40101 53023 60017 76066 8587/ 90900=
07481,1996-10-15 12:00:00,14,1009.9,-0.1,94,13,6000,11.112,,,330,,,,4,,,,,,61,wg-a,,,,AAXX 15124 07481 02256 83306 10140 20130 39817 40099 55001 60046 76166 877// 91200 333 60047=
07481,1996-10-15 15:00:00,14,1009.9,-0.1,94,13,6000,11.112,,,330,,,,4,,,,,,61,wg-a,,,,AAXX 15154 07481 02256 83306 10140 20130 39817 40099 55001 60046 76166 877// 91500 333 60047=
07481,1996-10-15 18:00:00,11,1011.5,0.8,94,10,10000,11.112,,,330,10.8,13.6,,3,,,,,,61,wg-a,,,,AAXX 15184 07481 12560 83306 10110 20100 39829 40115 53008 60037 76162 8357/ 91800 333 10136 20108=
07481,1996-10-15 21:00:00,11,1011.9,0.4,94,10,12000,11.112,,,340,,,,4,,,,,,61,wg-a,,,,AAXX 15214 07481 12762 83406 10110 20100 39833 40119 53004 60047 76166 8252/ 92100=
07481,1996-10-16 00:00:00,11,1011.2,-0.7,94,10,8000,7.408,,,340,,,,5,,,,,,61,wg-a,,,,AAXX 16004 07481 02158 83404 10110 20100 39826 40112 56007 60096 76166 8272/ 90000 333 60057=
07481,1996-10-16 03:00:00,11,1010.4,-0.8,94,10,7000,7.408,,,350,,,,3,,,,,,61,wg-a,,,,AAXX 16034 07481 12257 83504 10110 20100 39818 40104 56008 60037 76166 8452/ 90300=
07481,1996-10-16 06:00:00,10,1010.4,0,93,9,7000,7.408,,,30,9.7,10.8,,5,,,27,,,61,wg-a,,,,AAXX 16064 07481 02457 80304 10100 20090 39818 40104 50000 60274 76166 8652/ 90600 333 10108 20097 60057=
07481,1996-10-16 09:00:00,9,1010.9,0.4,93,8,6000,14.816,,,40,,,,10,,,,,,63,wg-a,,,,AAXX 16094 07481 12256 80408 10090 20080 39822 40109 51004 60107 76366 8652/ 90900=
07481,1996-10-16 12:00:00,10,1011.2,0.3,93,9,15000,22.224,,,330,,,,4,,,,,,61,wg-a,,,,AAXX 16124 07481 02465 83312 10100 20090 39825 40112 53003 60136 76166 8652/ 91200 333 60047=
07481,1996-10-16 15:00:00,10,1011.9,0.7,93,9,25000,11.112,,,30,,,,2,,,,,,61,wg-a,,,,AAXX 16154 07481 12475 80306 10100 20090 39832 40119 53007 60027 76166 8582/ 91500=
07481,1996-10-16 18:00:00,9,1012.7,0.7,93,8,20000,3.704,,,20,8.5,10,,1,,,,,,21,wg-a,,,,AAXX 16184 07481 12470 80202 10090 20080 39839 40127 53007 60017 72162 8587/ 91800 333 10100 20085=
07481,1996-10-16 21:00:00,8,1012.7,-0.1,93,7,40000,0,,,0,,,,,,,,,,,wg-a,,,,AAXX 16214 07481 12/82 10000 10080 20070 39838 40127 55001 60006 81041 92100=
07481,1996-10-17 00:00:00,6,1012.5,-0.3,100,6,0,3.704,,,210,,,,,,,,,,,wg-a,,,,AAXX 17004 07481 12/// /2102 10060 20060 39834 40125 56003 60006 90000=
07481,1996-10-17 03:00:00,6,1012.1,-0.5,100,6,15000,7.408,,,150,,,,,,,,,,,wg-a,,,,AAXX 17034 07481 12565 /1504 10060 20060 39830 40121 58005 60006 8113/ 90300=
07481,1996-10-17 06:00:00,5,1011.5,-0.7,100,5,10000,11.112,,,150,5.2,8.5,,,,,17,,,,wg-a,,,,AAXX 17064 07481 02660 21506 10050 20050 39823 40115 58007 60006 81531 90600 333 10085 20052 60174=
07481,1996-10-17 09:00:00,10,1010.9,-0.1,82,7,10000,11.112,,,150,,,,,,,,,,,wg-a,,,,AAXX 17094 07481 12760 61506 10100 20070 39822 40109 58001 60006 82530 90900=
07481,1996-10-17 12:00:00,13,1010.8,0.2,77,9,20000,7.408,,,130,,,,0,,,,,,2,wg-a,,,,AAXX 17124 07481 02470 71304 10130 20090 39824 40108 50002 60006 70261 8387/ 91200 333 60007=
07481,1996-10-17 15:00:00,14,1010.4,-0.2,63,7,500,3.704,,,80,,,,,,,,,,,wg-a,,,,AAXX 17154 07481 12500 20802 10140 20070 39822 40104 55002 60006 82230 91500=
07481,1996-10-17 18:00:00,10,1012.8,1.9,82,7,40000,0,,,0,4.6,14.5,,,,,,,,,wg-a,,,,AAXX 17184 07481 32682 /0000 10100 20070 39841 40128 53019 81800 91800 333 10145 20046=
07481,1996-10-17 21:00:00,7,1014.9,1.6,81,4,500,3.704,,,100,,,,,,,,,,,wg-a,,,,AAXX 17214 07481 12/00 21002 10070 20040 39858 40149 52016 60006 82040 92100=
07481,1996-10-18 00:00:00,5,1015.2,0.1,93,4,500,7.408,,,230,,,,,,,,,,,wg-a,,,,AAXX 18004 07481 12/00 02304 10050 20040 39859 40152 51001 60006 80000 90000=
07481,1996-10-18 03:00:00,3,1016,0.6,100,3,12000,7.408,,,140,,,,,,,,,,,wg-a,,,,AAXX 18034 07481 12/62 01404 10030 20030 39865 40160 51006 60006 80000 90300=
07481,1996-10-18 06:00:00,3,1016.7,0.7,100,3,10000,3.704,,,200,2.7,9.4,,,,,,,,,wg-a,,,,AAXX 18064 07481 02/60 02002 10030 20030 39872 40167 52007 60006 80000 90600 333 10094 20027 60004=
07481,1996-10-18 09:00:00,8,1017.7,1.4,81,5,6000,3.704,,,160,,,,,,,,,,,wg-a,,,,AAXX 18094 07481 12/56 11602 10080 20050 39886 40177 51014 60006 80001 90900=
07481,1996-10-18 12:00:00,14,1016.6,-0.4,55,5,22000,7.408,,,150,,,,,,,,,,,wg-a,,,,AAXX 18124 07481 12572 /1504 10140 20050 39882 40166 58004 60006 81100 91200=
07481,1996-10-18 15:00:00,14,1015.8,-0.8,55,5,40000,7.408,,,130,,,,,,,,,,,wg-a,,,,AAXX 18154 07481 12882 61304 10140 20050 39874 40158 56008 60006 86050 91500=
07481,1996-10-18 18:00:00,13,1016.8,0.9,67,7,500,3.704,,,170,2.2,15.3,,,,,,,,3,wg-a,,,,AAXX 18184 07481 02600 71702 10130 20070 39883 40168 53009 61000 70361 875// 91800 333 10153 20022 ////=
07481,1996-10-18 21:00:00,12,1018.2,1.3,76,8,25000,3.704,,,50,,,,,,,,,,,wg-a,,,,AAXX 18214 07481 12575 70502 10120 20080 39895 40182 53013 60006 878// 92100=
07481,1996-10-19 00:00:00,10,1019.6,1.1,82,7,25000,11.112,,,160,,,,,,,,,,,wg-a,,,,AAXX 19004 07481 12/75 /1606 10100 20070 39907 40196 53011 60006 81040 90000=
07481,1996-10-19 03:00:00,9,1020,0.3,87,7,15000,7.408,,,120,,,,,,,,,,,wg-a,,,,AAXX 19034 07481 12/65 51204 10090 20070 39910 40200 50003 60006 85030 90300=
07481,1996-10-19 06:00:00,10,1020.5,0.6,87,8,18000,3.704,,,160,8.2,13,,1,,,1,,,60,wg-a,,,,AAXX 19064 07481 02568 81602 10100 20080 39916 40205 53006 60014 76061 8587/ 90600 333 10130 20082 60017=
07481,1996-10-19 09:00:00,11,1023.2,2.6,94,10,3500,7.408,,,240,,,,,,,,,,60,wg-a,,,,AAXX 19094 07481 02435 82404 10110 20100 39943 40232 53026 61000 76062 868// 90900 333 ////=
07481,1996-10-19 12:00:00,15,1023.9,1.2,72,10,27000,7.408,,,360,,,,0,,,,,,3,wg-a,,,,AAXX 19124 07481 02577 /3604 10150 20100 39954 40239 51012 60006 70362 85830 91200 333 60007=
07481,1996-10-19 15:00:00,16,1024.3,0.5,68,10,40000,11.112,,,330,,,,3,,,,,,3,wg-a,,,,AAXX 19154 07481 12582 53306 10160 20100 39959 40243 53005 60037 70386 85900 91500=
07481,1996-10-19 18:00:00,11,1027.6,2.7,82,8,500,7.408,,,350,9.6,16.7,,,,,,,,3,wg-a,,,,AAXX 19184 07481 32500 63504 10110 20080 39986 40276 53027 70386 85801 91800 333 10167 20096=
07481,1996-10-19 21:00:00,9,1029.1,1.3,87,7,500,0,,,0,,,,,,,,,,,wg-a,,,,AAXX 19214 07481 12700 20000 10090 20070 39999 40291 51013 60006 82501 92100=
07481,1996-10-20 00:00:00,7,1029.4,0,93,6,20000,0,,,0,,,,,,,,,,,wg-a,,,,AAXX 20004 07481 12/70 00000 10070 20060 39999 40294 50000 60006 80000 90000=
07481,1996-10-20 06:00:00,5,1029,0.3,100,5,20000,3.704,,,140,4.7,12,,,,,3,,,,wg-a,,,,AAXX 20064 07481 02770 21402 10050 20050 39993 40290 50003 60006 82500 90600 333 10120 20047 60034=
07481,1996-10-20 12:00:00,15,1027.7,-1.1,63,8,15000,3.704,,,80,,,,,,,,,,,wg-a,,,,AAXX 20124 07481 12765 70802 10150 20080 39991 40277 58011 60006 815/2 91200=
07481,1996-10-20 15:00:00,16,1026.3,-1.3,55,7,25000,3.704,,,40,,,,,,,,,,,wg-a,,,,AAXX 20154 07481 12/75 70402 10160 20070 39978 40263 56013 60006 80002 91500=
07481,1996-10-20 18:00:00,14,1026.2,-0.3,67,8,25000,3.704,,,170,4.8,16.3,,,,,,,,,wg-a,,,,AAXX 20184 07481 32/75 71702 10140 20080 39975 40262 56003 80002 91800 333 10163 20048=
07481,1996-10-20 21:00:00,12,1026,-0.4,82,9,25000,7.408,,,170,,,,,,,,,,,wg-a,,,,AAXX 20214 07481 12/75 71704 10120 20090 39971 40260 55004 60006 80002 92100=
07481,1996-10-21 00:00:00,11,1024.8,-1.2,87,9,25000,7.408,,,150,,,,,,,,,,,wg-a,,,,AAXX 21004 07481 12/75 71504 10110 20090 39959 40248 58012 60006 83032 90000=
07481,1996-10-21 03:00:00,11,1023.8,-1.1,87,9,25000,3.704,,,280,,,,,,,,,,3,wg-a,,,,AAXX 21034 07481 02675 82802 10110 20090 39949 40238 58011 61000 70362 8157/ 90300 333 ////=
07481,1996-10-21 06:00:00,10,1024.1,0.3,100,10,4500,18.52,,,130,10.3,13.4,,2,,,3,,,61,wg-a,,,,AAXX 21064 07481 02545 81310 10100 20100 39951 40241 50003 60034 76162 8357/ 90600 333 10134 20103 60027=
07481,1996-10-21 09:00:00,12,1023.9,-0.1,94,11,10000,14.816,,,150,,,,1,,,,,,3,wg-a,,,,AAXX 21094 07481 12460 81508 10120 20110 39951 40239 58001 60017 70362 8487/ 90900=
07481,1996-10-21 12:00:00,14,1023.4,-0.3,94,13,4000,3.704,,,110,,,,0,,,,,,10,wg-a,,,,AAXX 21124 07481 02240 81102 10140 20130 39948 40234 58003 60026 71062 8687/ 91200 333 60007=
07481,1996-10-21 15:00:00,15,1023,-0.2,94,14,12000,3.704,,,130,,,,,,,,,,21,wg-a,,,,AAXX 21154 07481 02262 81302 10150 20140 39946 40230 56002 61000 72162 8457/ 91500 333 ////=
07481,1996-10-21 18:00:00,13,1023.9,0.6,94,12,800,3.704,,,60,10.3,15.1,,,,,,,,12,wg-a,,,,AAXX 21184 07481 32108 /0602 10130 20120 39952 40239 53006 71264 86500 91800 333 10151 20103=
07481,1996-10-21 21:00:00,13,1024.4,0.5,94,12,200,3.704,,,230,,,,,,,,,,43,wg-a,,,,AAXX 21214 07481 12/02 92302 10130 20120 39957 40244 51005 60006 74344 89/// 92100=
07481,1996-10-22 00:00:00,12,1024.2,-0.3,100,12,700,0,,,0,,,,,,,,,,43,wg-a,,,,AAXX 22004 07481 12/07 90000 10120 20120 39954 40242 58003 60006 74344 89/// 90000=
07481,1996-10-22 03:00:00,12,1024,-0.2,100,12,6000,11.112,,,30,,,,,,,,,,1,wg-a,,,,AAXX 22034 07481 12256 80306 10120 20120 39952 40240 57002 60006 70142 886// 90300=
07481,1996-10-22 06:00:00,12,1024.5,0.5,100,12,3000,11.112,,,350,11.6,12.9,,,,,2,,,10,wg-a,,,,AAXX 22064 07481 12130 83506 10120 20120 39957 40245 53005 60024 71042 886// 90600 333 10129 20116=
07481,1996-10-22 09:00:00,12,1025.4,0.8,94,11,7000,11.112,,,50,,,,,,,,,,,wg-a,,,,AAXX 22094 07481 12157 80506 10120 20110 39965 40254 51008 60006 886// 90900=
07481,1996-10-22 12:00:00,14,1023.9,-1.2,82,11,15000,14.816,,,340,,,,,,,,,,,wg-a,,,,AAXX 22124 07481 12465 73408 10140 20110 39953 40239 58012 60006 878// 91200=
07481,1996-10-22 15:00:00,14,1022.9,-1,77,10,17000,11.112,,,340,,,,,,,,,,,wg-a,,,,AAXX 22154 07481 12467 73406 10140 20100 39943 40229 56010 60006 875// 91500=
07481,1996-10-22 18:00:00,11,1023.7,0.5,94,10,15000,7.408,,,350,11.1,14.5,,,,,,,,,wg-a,,,,AAXX 22184 07481 12365 23504 10110 20100 39948 40237 53005 60006 82600 91800 333 10145 20111=
07481,1996-10-22 21:00:00,11,1023.5,-0.2,100,11,10000,7.408,,,300,,,,,,,,,,,wg-a,,,,AAXX 22214 07481 12260 83004 10110 20110 39946 40235 57002 60006 886// 92100=
07481,1996-10-23 00:00:00,11,1022.8,-0.7,100,11,4500,3.704,,,250,,,,,,,,,,10,wg-a,,,,AAXX 23004 07481 02145 82502 10110 20110 39939 40228 58007 61000 71051 886// 90000 333 6100=
07481,1996-10-23 03:00:00,10,1022.6,-0.2,100,10,500,7.408,,,300,,,,,,,,,,1,wg-a,,,,AAXX 23034 07481 02400 73004 10100 20100 39937 40226 56002 61000 70152 876// 90300 333 ////=
07481,1996-10-23 06:00:00,10,1022.8,0.1,93,9,2500,3.704,,,340,9.6,11.1,,,,,,,,10,wg-a,,,,AAXX 23064 07481 02225 63402 10100 20090 39938 40228 52001 61000 71052 85601 90600 333 10111 20096 ////=
07481,1996-10-23 12:00:00,15,1020,-0.9,77,11,12000,7.408,,,330,,,,,,,,,,1,wg-a,,,,AAXX 23124 07481 12/62 33304 10150 20110 39932 40200 58009 60006 70141 80001 91200=
07481,1996-10-23 15:00:00,18,1020.1,-1.2,59,10,18000,7.408,,,90,,,,,,,,,,,wg-a,,,,AAXX 23154 07481 12/68 40904 10180 20100 39920 40201 56012 60006 80001 91500=
07481,1996-10-23 18:00:00,13,1021.3,0.8,82,10,18000,3.704,,,50,8.7,19.1,,0,,,,,,,wg-a,,,,AAXX 23184 07481 12/68 40502 10130 20100 39927 40213 53008 60007 80001 91800 333 10191 20087=
07481,1996-10-23 21:00:00,11,1022.1,0.5,87,9,10000,0,,,0,,,,,,,,,,,wg-a,,,,AAXX 23214 07481 12/60 30000 10110 20090 39932 40221 53005 60006 80002 92100=
07481,1996-10-24 00:00:00,10,1022.6,0.4,87,8,12000,11.112,,,160,,,,,,,,,,,wg-a,,,,AAXX 24004 07481 12/62 11606 10100 20080 39937 40226 51004 60006 80002 90000=
07481,1996-10-24 03:00:00,10,1022.5,-0.2,87,8,12000,14.816,,,140,,,,,,,,,,,wg-a,,,,AAXX 24034 07481 12462 31408 10100 20080 39935 40225 58002 60006 82502 90300=
07481,1996-10-24 06:00:00,11,1022.8,0.4,94,10,6000,11.112,,,110,8.9,13.2,,,,,,,,,wg-a,,,,AAXX 24064 07481 02456 21106 10110 20100 39939 40228 51004 60006 81502 90600 333 10132 20089 60004=
07481,1996-10-24 09:00:00,15,1022.8,0.5,77,11,8000,22.224,,,140,,,,,,,,,,,wg-a,,,,AAXX 24094 07481 12/58 51412 10150 20110 39944 40228 50005 60006 80002 90900=
07481,1996-10-24 12:00:00,19,1020.8,-1.6,60,11,18000,18.52,,,190,,,,,,,,,,,wg-a,,,,AAXX 24124 07481 12/68 31910 10190 20110 39928 40208 58016 60006 80001 91200=
07481,1996-10-24 15:00:00,19,1019.5,-1.2,56,10,18000,14.816,,,180,,,,,,,,,,,wg-a,,,,AAXX 24154 07481 12/68 31808 10190 20100 39915 40195 56012 60006 80001 91500=
07481,1996-10-24 18:00:00,15,1020.6,0.7,72,10,12000,14.816,,,150,10.2,20.2,,,,,,,,,wg-a,,,,AAXX 24184 07481 12/62 21508 10150 20100 39922 40206 53007 60006 80001 91800 333 10202 20102=
07481,1996-10-24 21:00:00,13,1021.1,0.3,82,10,10000,14.816,,,140,,,,,,,,,,,wg-a,,,,AAXX 24214 07481 12/60 21408 10130 20100 39925 40211 53003 60006 80001 92100=
07481,1996-10-25 00:00:00,12,1021.5,0.3,88,10,10000,14.816,,,130,,,,,,,,,,,wg-a,,,,AAXX 25004 07481 12/60 41308 10120 20100 39928 40215 51003 60006 80001 90000=
07481,1996-10-25 03:00:00,14,1021.7,0.3,72,9,13000,18.52,,,170,,,,,,,,,,,wg-a,,,,AAXX 25034 07481 12/63 31710 10140 20090 39931 40217 52003 60006 80001 90300=
07481,1996-10-25 06:00:00,14,1022.3,0.6,72,9,13000,14.816,,,170,11.5,15.1,,,,,,,,,wg-a,,,,AAXX 25064 07481 02/63 31708 10140 20090 39937 40223 53006 60006 80002 90600 333 10151 20115 60004=
07481,1996-10-25 09:00:00,17,1022.7,0.7,63,10,15000,22.224,,,170,,,,,,,,,,,wg-a,,,,AAXX 25094 07481 12/65 31712 10170 20100 39944 40227 50007 60006 81032 90900=
07481,1996-10-25 12:00:00,19,1022.2,-0.2,56,10,27000,18.52,,,200,,,,,,,,,,,wg-a,,,,AAXX 25124 07481 12/77 52010 10190 20100 39942 40222 58002 60006 83032 91200=
07481,1996-10-25 18:00:00,16,1024.2,1.5,72,11,15000,3.704,,,130,13.3,20.9,,,,,,,,,wg-a,,,,AAXX 25184 07481 12/65 41302 10160 20110 39958 40242 53015 60006 8403/ 91800 333 10209 20133=
07481,1996-10-26 00:00:00,11,1026.6,0.8,94,10,10000,3.704,,,260,,,,,,,,,,,wg-a,,,,AAXX 26004 07481 12/60 72602 10110 20100 39977 40266 53008 60006 8703/ 90000=
07481,1996-10-26 06:00:00,10,1027.6,0.2,100,10,6000,3.704,,,150,9.5,15.9,,,,,,,,,wg-a,,,,AAXX 26064 07481 02/56 31502 10100 20100 39985 40276 50002 60006 80001 90600 333 10159 20095 60004=
07481,1996-10-26 12:00:00,17,1027.4,-0.9,59,9,500,14.816,,,340,,,,,,,,,,,wg-a,,,,AAXX 26124 07481 12500 63408 10170 20090 39990 40274 58009 60006 83102 91200=
07481,1996-10-26 15:00:00,17,1026.2,-1.1,55,8,35000,11.112,,,10,,,,,,,,,,,wg-a,,,,AAXX 26154 07481 12681 /0106 10170 20080 39978 40262 56011 60006 81101 91500=
07481,1996-10-26 18:00:00,12,1027.3,0.6,76,8,35000,3.704,,,10,9.4,17.7,,,,,,,,,wg-a,,,,AAXX 26184 07481 12/81 /0102 10120 20080 39984 40273 53006 60006 82031 91800 333 10177 20094=
07481,1996-10-26 21:00:00,11,1027.5,0.2,82,8,500,7.408,,,250,,,,,,,,,,,wg-a,,,,AAXX 26214 07481 12/00 52504 10110 20080 39985 40275 53002 60006 83032 92100=
07481,1996-10-27 00:00:00,10,1027.3,-0.4,87,8,500,3.704,,,300,,,,,,,,,,,wg-a,,,,AAXX 27004 07481 12/00 53002 10100 20080 39982 40273 56004 60006 81032 90000=
07481,1996-10-27 03:00:00,8,1026.8,-0.7,93,7,25000,0,,,0,,,,,,,,,,,wg-a,,,,AAXX 27034 07481 12/75 60000 10080 20070 39975 40268 57007 60006 82032 90300=
07481,1996-10-27 06:00:00,8,1026.8,-0,93,7,11000,7.408,,,160,7,12.1,,0,,,,,,11,wg-a,,,,AAXX 27064 07481 02/61 51604 10080 20070 39975 40268 55000 60004 71111 80002 90600 333 10121 20070 60007=
07481,1996-10-27 09:00:00,12,1026.9,0.5,82,9,8000,3.704,,,200,,,,,,,,,,,wg-a,,,,AAXX 27094 07481 12/58 22002 10120 20090 39980 40269 51005 60006 80002 90900=
07481,1996-10-27 12:00:00,18,1024.2,-2,56,9,500,7.408,,,170,,,,,,,,,,,wg-a,,,,AAXX 27124 07481 12/00 31704 10180 20090 39960 40242 58020 60006 80002 91200=
07481,1996-10-27 15:00:00,18,1022.6,-1.6,52,8,40000,14.816,,,180,,,,,,,,,,,wg-a,,,,AAXX 27154 07481 12/82 61808 10180 20080 39944 40226 55016 60006 81042 91500=
07481,1996-10-27 18:00:00,15,1022.5,-0.4,67,9,40000,18.52,,,160,7.6,18.8,,,,,,,,,wg-a,,,,AAXX 27184 07481 12/82 41610 10150 20090 39941 40225 56004 60006 81042 91800 333 10188 20076=
07481,1996-10-27 21:00:00,15,1022.5,-0,77,11,25000,18.52,,,180,,,,,,,,,,,wg-a,,,,AAXX 27214 07481 12/75 51810 10150 20110 39940 40225 55000 60006 82032 92100=
07481,1996-10-28 00:00:00,14,1021.9,-0.6,82,11,15000,14.816,,,190,,,,,,,,,,,wg-a,,,,AAXX 28004 07481 12/65 41908 10140 20110 39934 40219 58006 60006 81032 90000=
07481,1996-10-28 03:00:00,14,1020.2,-1.7,77,10,12000,22.224,,,190,,,,,,,,,,,wg-a,,,,AAXX 28034 07481 12/62 11912 10140 20100 39917 40202 58017 60006 80001 90300=
07481,1996-10-28 06:00:00,13,1020.1,-0.2,88,11,8000,22.224,,,190,12.9,15.5,,,,,,,,,wg-a,,,,AAXX 28064 07481 02/58 21912 10130 20110 39915 40201 56002 60006 81031 90600 333 10155 20129 60004=
07481,1996-10-28 09:00:00,16,1019.4,-0.4,68,10,12000,25.928,,46.3,190,,,,,,,,,,,wg-a,,,,AAXX 28094 07481 12/62 /1914 10160 20100 39911 40194 58004 60006 81032 90900 333 91025=
07481,1996-10-28 12:00:00,17,1018,-1.2,59,9,15000,22.224,,,200,,,,,,,,,,,wg-a,,,,AAXX 28124 07481 12/65 72012 10170 20090 39899 40180 58012 60006 8705/ 91200=
07481,1996-10-28 15:00:00,18,1016.1,-1.8,59,10,10000,22.224,,,180,,,,,,,,,,,wg-a,,,,AAXX 28154 07481 12/60 71812 10180 20100 39881 40161 58018 60006 8707/ 91500=
07481,1996-10-28 18:00:00,17,1016.1,-0.1,63,10,10000,22.224,,,190,12.9,17.8,,,,,,,,,wg-a,,,,AAXX 28184 07481 12760 81912 10170 20100 39880 40161 56001 60006 8257/ 91800 333 10178 20129=
07481,1996-10-28 21:00:00,16,1016.2,0,77,12,15000,25.928,,,200,,,,,,,,,,2,wg-a,,,,AAXX 28214 07481 02665 82014 10160 20120 39881 40162 50000 61000 70262 8257/ 92100 333 ////=
07481,1996-10-29 03:00:00,16,1013.5,-0.9,77,12,18000,22.224,,,190,,,,,,,,,,,wg-a,,,,AAXX 29034 07481 12768 81912 10160 20120 39854 40135 58009 60006 8457/ 90300=
07481,1996-10-29 06:00:00,15,1013.9,0.3,88,13,12000,25.928,,,200,14.5,16.8,,,,,,,,60,wg-a,,,,AAXX 29064 07481 02662 82014 10150 20130 39857 40139 53003 61000 76062 8657/ 90600 333 10168 20145 6100=
07481,1996-10-29 09:00:00,15,1017.1,3,63,8,45000,0,,,0,,,,,,,,,,3,wg-a,,,,AAXX 29094 07481 02583 70000 10150 20080 39887 40171 51030 61000 70362 878// 90900 333 ////=
07481,1996-10-29 12:00:00,13,1018.4,1.1,72,8,25000,11.112,,,290,,,,1,,,,,,25,wg-a,,,,AAXX 29124 07481 02575 72906 10130 20080 39898 40184 53011 60016 72586 8683/ 91200 333 60017=
07481,1996-10-29 15:00:00,15,1017.4,-0.7,55,6,40000,7.408,,,320,,,,,,,,,,,wg-a,,,,AAXX 29154 07481 12582 73204 10150 20060 39891 40174 55007 60006 878// 91500=
07481,1996-10-29 18:00:00,13,1020.5,2.7,67,7,40000,11.112,,,330,,17,,,,,,,,,wg-a,,,,AAXX 29184 07481 32682 73306 10130 20070 39918 40205 53027 878// 91800 333 10170=
07481,1996-10-29 21:00:00,11,1022.6,2,82,8,40000,11.112,,,340,,,,,,,,,,,wg-a,,,,AAXX 29214 07481 12582 73406 10110 20080 39938 40226 53020 60006 878// 92100=
07481,1996-10-30 00:00:00,9,1025.3,2.2,87,7,40000,11.112,,,330,,,,,,,,,,,wg-a,,,,AAXX 30004 07481 12582 53306 10090 20070 39961 40253 53022 60006 81840 90000=
07481,1996-10-30 03:00:00,9,1026.8,1.5,87,7,25000,11.112,,,10,,,,,,,,,,,wg-a,,,,AAXX 30034 07481 12575 70106 10090 20070 39976 40268 51015 60006 875// 90300=
07481,1996-10-30 06:00:00,8,1028.1,1.2,87,6,18000,11.112,,,340,7.5,12.7,,,,,1,,,,wg-a,,,,AAXX 30064 07481 02468 73406 10080 20060 39988 40281 52012 60006 878// 90600 333 10127 20075 60014=
07481,1996-10-30 09:00:00,10,1029.5,1.6,76,6,25000,18.52,,,340,,,,,,,,,,,wg-a,,,,AAXX 30094 07481 12475 /3410 10100 20060 30003 40295 51016 60006 81800 90900=
07481,1996-10-30 12:00:00,11,1030,0.5,54,2,35000,22.224,,,350,,,,,,,,,,,wg-a,,,,AAXX 30124 07481 12681 /3512 10110 20020 30009 40300 50005 60006 86502 91200=
07481,1996-10-30 15:00:00,11,1030.3,0.4,50,1,35000,18.52,,,10,,,,,,,,,,,wg-a,,,,AAXX 30154 07481 12681 /0110 10110 20010 30012 40303 53004 60006 81502 91500=
07481,1996-10-30 18:00:00,7,1031.1,0.1,70,2,25000,7.408,,,20,6.8,12.2,,,,,,,,,wg-a,,,,AAXX 30184 07481 12/75 10204 10070 20020 30015 40311 50001 60006 80002 91800 333 10122 20068=
07481,1996-10-30 21:00:00,4,1031.1,-0.1,81,1,25000,3.704,,,330,,,,,,,,,,,wg-a,,,,AAXX 30214 07481 12/75 03302 10040 20010 30012 40311 56001 60006 80000 92100=
07481,1996-10-31 00:00:00,3,1030.6,-0.7,87,1,20000,3.704,,,260,,,,,,,,,,,wg-a,,,,AAXX 31004 07481 12/70 22602 10030 20010 30006 40306 58007 60006 80002 90000=
07481,1996-10-31 03:00:00,3,1029.8,-0.8,87,1,15000,7.408,,,140,,,,,,,,,,,wg-a,,,,AAXX 31034 07481 12/65 41404 10030 20010 39998 40298 56008 60006 80002 90300=
07481,1996-10-31 06:00:00,2,1029.7,-0.2,87,0,10000,7.408,,,130,1.7,6.7,,,,,,,,,wg-a,,,,AAXX 31064 07481 02/60 41304 10020 20000 39996 40297 58002 60006 80002 90600 333 10067 20017 60004=
07481,1996-10-31 09:00:00,7,1029.3,0.2,70,2,12000,3.704,,,200,,,,,,,,,,,wg-a,,,,AAXX 31094 07481 12/62 42002 10070 20020 39998 40293 50002 60006 80001 90900=
07481,1996-10-31 12:00:00,13,1026.4,-2.3,54,4,15000,14.816,,,130,,,,,,,,,,,wg-a,,,,AAXX 31124 07481 12/65 21308 10130 20040 39976 40264 58023 60006 80001 91200=
07481,1996-10-31 15:00:00,15,1024.7,-1.5,48,4,20000,0,,,0,,,,,,,,,,,wg-a,,,,AAXX 31154 07481 12/70 30000 10150 20040 39961 40247 56015 60006 81031 91500=
07481,1996-10-31 18:00:00,12,1025,-0,67,6,15000,3.704,,,170,1.1,16,,,,,,,,,wg-a,,,,AAXX 31184 07481 12/65 71702 10120 20060 39961 40250 55000 60006 86051 91800 333 10160 20011=
07481,1996-10-31 21:00:00,10,1025.9,0.8,76,6,500,0,,,0,,,,,,,,,,,wg-a,,,,AAXX 31214 07481 12/00 50000 10100 20060 39968 40259 53008 60006 85030 92100=
07481,1996-11-01 00:00:00,10,1026.6,0.6,76,6,20000,7.408,,,120,,,,,,,,,,,wg-a,,,,AAXX 01004 07481 12/70 /1204 10100 20060 39975 40266 50006 60006 86030 90000=
07481,1996-11-01 03:00:00,11,1027.2,0.6,66,5,25000,7.408,,,150,,,,,,,,,,,wg-a,,,,AAXX 01034 07481 12675 81504 10110 20050 39982 40272 52006 60006 8757/ 90300=
07481,1996-11-01 06:00:00,11,1028.3,1,76,7,15000,11.112,,,150,9,12.4,,,,,,,,21,wg-a,,,,AAXX 01064 07481 02665 81506 10110 20070 39992 40283 53010 61000 72162 885// 90600 333 10124 20090 6100=
07481,1996-11-01 09:00:00,11,1030.2,1.9,94,10,7000,7.408,,,130,,,,0,,,,,,10,wg-a,,,,AAXX 01094 07481 12557 71304 10110 20100 30011 40302 51019 60007 71062 83331 90900=
07481,1996-11-01 12:00:00,15,1029.6,-0.1,72,10,500,7.408,,,360,,,,,,,,,,1,wg-a,,,,AAXX 01124 07481 12500 43604 10150 20100 30010 40296 58001 60016 70162 81231 91200=
07481,1996-11-01 15:00:00,15,1029.8,0.1,72,10,500,14.816,,,310,,,,,,,,,,,wg-a,,,,AAXX 01154 07481 12500 73108 10150 20100 30011 40298 53001 60006 878// 91500=
07481,1996-11-01 18:00:00,12,1031.1,1,82,9,40000,3.704,,,280,10.2,15.5,,,,,,,,,wg-a,,,,AAXX 01184 07481 32782 /2802 10120 20090 30021 40311 53010 8253/ 91800 333 10155 20102=
07481,1996-11-01 21:00:00,9,1032.5,1.1,93,8,500,3.704,,,300,,,,,,,,,,,wg-a,,,,AAXX 01214 07481 12700 23002 10090 20080 30032 40325 52011 60006 8153/ 92100=
07481,1996-11-02 00:00:00,7,1032.3,-0.4,93,6,500,0,,,0,,,,,,,,,,,wg-a,,,,AAXX 02004 07481 12/00 10000 10070 20060 30028 40323 57004 60006 8103/ 90000=
07481,1996-11-02 03:00:00,6,1031.8,-0.6,100,6,25000,3.704,,,290,,,,,,,,,,,wg-a,,,,AAXX 02034 07481 12/75 02902 10060 20060 30022 40318 57006 60006 80000 90300=
07481,1996-11-02 06:00:00,5,1032.2,0.2,93,4,400,3.704,,,40,4.6,12,,0,,,1,,,46,wg-a,,,,AAXX 02064 07481 02/04 00402 10050 20040 30024 40322 51002 60014 74640 80000 90600 333 10120 20046 60007=
07481,1996-11-02 09:00:00,9,1032.6,0.8,100,9,700,3.704,,,10,,,,,,,,,,40,wg-a,,,,AAXX 02094 07481 12207 70102 10090 20090 30032 40326 51008 60006 74041 876// 90900=
07481,1996-11-02 12:00:00,13,1031.4,-0.7,82,10,15000,7.408,,,10,,,,,,,,,,1,wg-a,,,,AAXX 02124 07481 12465 /0104 10130 20100 30025 40314 58007 60006 70141 81100 91200=
07481,1996-11-02 15:00:00,15,1030.3,-0.9,67,9,500,14.816,,,340,,,,,,,,,,,wg-a,,,,AAXX 02154 07481 12500 53408 10150 20090 30016 40303 56009 60006 85400 91500=
07481,1996-11-02 18:00:00,11,1030.8,0.1,87,9,500,7.408,,,320,4.5,15.6,,,,,,,,,wg-a,,,,AAXX 02184 07481 12500 /3204 10110 20090 30017 40308 53001 60006 82500 91800 333 10156 20045=
07481,1996-11-02 21:00:00,10,1031,-0,87,8,20000,0,,,0,,,,,,,,,,,wg-a,,,,AAXX 02214 07481 12/70 /0000 10100 20080 30017 40310 55000 60006 81040 92100=
07481,1996-11-03 00:00:00,8,1030.3,-0.9,87,6,20000,3.704,,,170,,,,,,,,,,,wg-a,,,,AAXX 03004 07481 12/70 01702 10080 20060 30008 40303 56009 60006 80000 90000=
07481,1996-11-03 03:00:00,6,1029.4,-1,100,6,4500,7.408,,,180,,,,,,,,,,10,wg-a,,,,AAXX 03034 07481 12045 /1804 10060 20060 39998 40294 58010 60006 71000 81600 90300=
07481,1996-11-03 06:00:00,5,1029.5,-0.2,93,4,500,3.704,,,150,4.5,11,,,,,,,,11,wg-a,,,,AAXX 03064 07481 02/00 /1502 10050 20040 39997 40295 55002 60006 71100 80001 90600 333 10110 20045 60004=
07481,1996-11-03 09:00:00,8,1029.7,0.7,93,7,1200,7.408,,,140,,,,,,,,,,10,wg-a,,,,AAXX 03094 07481 12112 81404 10080 20070 30003 40297 51007 60006 71041 876// 90900=
07481,1996-11-03 12:00:00,15,1027.3,-1.6,72,10,9000,3.704,,,180,,,,,,,,,,3,wg-a,,,,AAXX 03124 07481 12/59 51802 10150 20100 39987 40273 58016 60006 70341 80001 91200=
07481,1996-11-03 15:00:00,16,1025.3,-1.7,68,10,12000,0,,,0,,,,,,,,,,,wg-a,,,,AAXX 03154 07481 12/62 50000 10160 20100 39969 40253 56017 60006 80002 91500=
07481,1996-11-03 18:00:00,11,1026.4,0.5,87,9,12000,3.704,,,30,3.6,16.9,,,,,,,,,wg-a,,,,AAXX 03184 07481 12/62 40302 10110 20090 39974 40264 53005 60006 80002 91800 333 10169 20036=
07481,1996-11-03 21:00:00,8,1026.8,0.1,93,7,10000,3.704,,,240,,,,,,,,,,,wg-a,,,,AAXX 03214 07481 12/60 12402 10080 20070 39975 40268 52001 60006 80001 92100=
07481,1996-11-04 00:00:00,6,1025.8,-1.2,100,6,6000,0,,,0,,,,,,,,,,11,wg-a,,,,AAXX 04004 07481 12/56 00000 10060 20060 39963 40258 58012 60006 71100 80000 90000=
07481,1996-11-04 03:00:00,5,1023.9,-1.9,100,5,500,11.112,,,160,,,,0,,,,,,3,wg-a,,,,AAXX 04034 07481 12400 41606 10050 20050 39944 40239 58019 60007 70340 84600 90300=
07481,1996-11-04 06:00:00,9,1022.4,-1.1,93,8,6000,14.816,,,150,5.3,10.5,,,,,,,,3,wg-a,,,,AAXX 04064 07481 12456 41508 10090 20080 39933 40224 56011 60004 70341 84600 90600 333 10105 20053=
07481,1996-11-04 09:00:00,13,1020.9,-1,77,9,12000,22.224,,,180,,,,,,,,,,,wg-a,,,,AAXX 04094 07481 12462 31812 10130 20090 39923 40209 58010 60006 82102 90900=
07481,1996-11-04 12:00:00,16,1018,-2.5,59,8,15000,38.892,,61.116,180,,,,,,,,,,,wg-a,,,,AAXX 04124 07481 12565 31821 10160 20080 39897 40180 58025 60006 81102 91200 333 91033=
07481,1996-11-04 15:00:00,16,1014.9,-3,68,10,25000,50.004,,64.82,200,,,,,,,,,,,wg-a,,,,AAXX 04154 07481 12575 32027 10160 20100 39867 40149 56030 60006 81102 91500 333 91035=
07481,1996-11-04 18:00:00,15,1014.1,-1,72,10,18000,38.892,,55.56,200,8.8,16.6,,,,,,,,,wg-a,,,,AAXX 04184 07481 12/68 32021 10150 20100 39859 40141 58010 60006 80002 91800 333 10166 20088 91030=
07481,1996-11-04 21:00:00,16,1014,-0,68,10,25000,29.632,,53.708,190,,,,,,,,,,,wg-a,,,,AAXX 04214 07481 12775 71916 10160 20100 39858 40140 55000 60006 82532 92100 333 91029=
07481,1996-11-05 00:00:00,16,1012,-1.8,68,10,20000,35.188,,,190,,,,,,,,,,,wg-a,,,,AAXX 05004 07481 12570 81919 10160 20100 39839 40120 58018 60006 8357/ 90000=
07481,1996-11-05 03:00:00,14,1011,-1.2,82,11,15000,22.224,,,210,,,,0,,,,,,60,wg-a,,,,AAXX 05034 07481 12665 82112 10140 20110 39827 40110 55012 60007 76062 8557/ 90300=
07481,1996-11-05 06:00:00,12,1014.1,2.9,100,12,18000,7.408,,,170,12.1,16,,13,,,13,,,61,wg-a,,,,AAXX 05064 07481 02568 81704 10120 20120 39856 40141 51029 60134 76162 8457/ 90600 333 10160 20121 60137=
07481,1996-11-05 09:00:00,11,1018.5,4.2,94,10,25000,7.408,,,320,,,,1,,,,,,60,wg-a,,,,AAXX 05094 07481 12475 /3204 10110 20100 39898 40185 51042 60017 76062 8687/ 90900=
07481,1996-11-05 12:00:00,14,1019.1,0.8,58,6,40000,3.704,,,300,,,,,,,,,,3,wg-a,,,,AAXX 05124 07481 02582 63002 10140 20060 39906 40191 50008 60016 70362 86200 91200 333 61000=
07481,1996-11-05 15:00:00,14,1020.1,0.9,58,6,40000,7.408,,,320,,,,,,,,,,,wg-a,,,,AAXX 05154 07481 12682 53204 10140 20060 39915 40201 53009 60006 85800 91500=
07481,1996-11-05 18:00:00,10,1023,2.5,71,5,500,7.408,,,340,9.6,14.6,,,,,,,,,wg-a,,,,AAXX 05184 07481 32700 33404 10100 20050 39940 40230 53025 83500 91800 333 10146 20096=
07481,1996-11-05 21:00:00,7,1025.2,1.7,81,4,25000,3.704,,,120,,,,,,,,,,,wg-a,,,,AAXX 05214 07481 12/75 01202 10070 20040 39958 40252 51017 60006 80000 92100=
07481,1996-11-06 00:00:00,5,1025.9,0.6,93,4,25000,3.704,,,220,,,,,,,,,,,wg-a,,,,AAXX 06004 07481 12/75 12202 10050 20040 39963 40259 52006 60006 80002 90000=
07481,1996-11-06 03:00:00,4,1026.1,-0,93,3,12000,7.408,,,130,,,,,,,,,,,wg-a,,,,AAXX 06034 07481 12/62 01304 10040 20030 39963 40261 54000 60006 80000 90300=
07481,1996-11-06 06:00:00,4,1026.3,0.3,93,3,10000,7.408,,,190,3.1,9.6,,,,,1,,,,wg-a,,,,AAXX 06064 07481 02/60 01904 10040 20030 39966 40263 53003 60006 80000 90600 333 10096 20031 60014=
07481,1996-11-06 09:00:00,8,1026.6,0.5,81,5,15000,11.112,,,150,,,,,,,,,,,wg-a,,,,AAXX 06094 07481 12/65 11506 10080 20050 39972 40266 50005 60006 81030 90900=
07481,1996-11-06 12:00:00,13,1024.7,-1.2,47,2,15000,14.816,,,140,,,,,,,,,,,wg-a,,,,AAXX 06124 07481 12765 61408 10130 20020 39959 40247 58012 60006 82530 91200=
07481,1996-11-06 15:00:00,14,1023.3,-1.2,55,5,20000,14.816,,,140,,,,,,,,,,,wg-a,,,,AAXX 06154 07481 12/70 /1408 10140 20050 39947 40233 56012 60006 84030 91500=
07481,1996-11-06 18:00:00,10,1023.9,0.2,76,6,15000,14.816,,,160,3.5,13.9,,,,,,,,,wg-a,,,,AAXX 06184 07481 12/65 31608 10100 20060 39949 40239 53002 60006 83030 91800 333 10139 20035=
07481,1996-11-06 21:00:00,10,1023.2,-0.7,76,6,25000,11.112,,,160,,,,,,,,,,,wg-a,,,,AAXX 06214 07481 12/75 71606 10100 20060 39942 40232 58007 60006 8707/ 92100=
07481,1996-11-07 00:00:00,10,1022.4,-0.8,76,6,25000,11.112,,,170,,,,,,,,,,,wg-a,,,,AAXX 07004 07481 12875 81706 10100 20060 39934 40224 57008 60006 8807/ 90000=
07481,1996-11-07 03:00:00,11,1021.1,-1.2,71,6,25000,14.816,,,160,,,,,,,,,,,wg-a,,,,AAXX 07034 07481 12775 81608 10110 20060 39922 40211 58012 60006 8357/ 90300=
07481,1996-11-07 06:00:00,12,1020,-1,71,7,25000,14.816,,,170,9.1,11.9,,0,,,,,,60,wg-a,,,,AAXX 07064 07481 02675 /1708 10120 20070 39912 40200 56010 60004 76062 8357/ 90600 333 10119 20091 60007=
07481,1996-11-07 09:00:00,15,1019.7,0.2,59,7,50000,22.224,,,170,,,,,,,,,,1,wg-a,,,,AAXX 07094 07481 02784 61712 10150 20070 39913 40197 51002 61000 70162 83542 90900 333 ////=
07481,1996-11-07 12:00:00,18,1018.6,-0.9,56,9,50000,25.928,,,190,,,,,,,,,,3,wg-a,,,,AAXX 07124 07481 02784 41914 10180 20090 39905 40186 58009 61000 70361 84540 91200 333 ////=
07481,1996-11-07 15:00:00,16,1018.4,-0.3,77,12,20000,18.52,,,200,,,,0,,,,,,60,wg-a,,,,AAXX 07154 07481 12670 72010 10160 20120 39902 40184 55003 60007 76086 878// 91500=
07481,1996-11-07 18:00:00,12,1022.8,3.8,88,10,500,0,,,0,10.9,19.4,,4,,,,,,61,wg-a,,,,AAXX 07184 07481 12600 70000 10120 20100 39940 40228 51038 60047 76186 875// 91800 333 10194 20109=
07481,1996-11-07 21:00:00,10,1025.1,2.1,100,10,11000,3.704,,,90,,,,,,,,,,,wg-a,,,,AAXX 07214 07481 32/61 /0902 10100 20100 39961 40251 53021 92100=
07481,1996-11-08 00:00:00,10,1026.3,1.1,87,8,20000,7.408,,,330,,,,,,,,,,1,wg-a,,,,AAXX 08004 07481 02670 /3304 10100 20080 39972 40263 53011 60016 70161 83570 90000 333 61000=
07481,1996-11-08 03:00:00,7,1027.5,0.9,93,6,18000,3.704,,,240,,,,,,,,,,,wg-a,,,,AAXX 08034 07481 32/68 02402 10070 20060 39981 40275 51009 80000 90300=
07481,1996-11-08 06:00:00,6,1028.4,0.8,100,6,20000,3.704,,,160,5.1,11.5,,,,,5,,,,wg-a,,,,AAXX 08064 07481 12470 41602 10060 20060 39989 40284 51008 60054 82830 90600 333 10115 20051=
07481,1996-11-08 09:00:00,11,1029.7,1.7,82,8,25000,0,,,0,,,,,,,,,,,wg-a,,,,AAXX 08094 07481 12575 20000 10110 20080 30006 40297 51017 60006 82800 90900=
07481,1996-11-08 12:00:00,13,1029.5,0,62,6,500,7.408,,,330,,,,,,,,,,,wg-a,,,,AAXX 08124 07481 12500 43304 10130 20060 30006 40295 50000 60006 84200 91200=
07481,1996-11-08 15:00:00,12,1029.6,-0,62,5,500,7.408,,,350,,,,,,,,,,,wg-a,,,,AAXX 08154 07481 12600 43504 10120 20050 30006 40296 55000 60006 84800 91500=
07481,1996-11-08 18:00:00,8,1030.5,0.5,76,4,25000,7.408,,,60,5.5,13.3,,,,,,,,,wg-a,,,,AAXX 08184 07481 12675 /0604 10080 20040 30011 40305 53005 60006 81500 91800 333 10133 20055=
07481,1996-11-08 21:00:00,5,1032,1.1,87,3,20000,0,,,0,,,,,,,,,,,wg-a,,,,AAXX 08214 07481 12/70 00000 10050 20030 30022 40320 52011 60006 80000 92100=
07481,1996-11-09 00:00:00,5,1032.7,0.6,87,3,12000,3.704,,,170,,,,,,,,,,,wg-a,,,,AAXX 09004 07481 12/62 01702 10050 20030 30028 40327 53006 60006 80000 90000=
07481,1996-11-09 01:00:00,4,1032.9,-0,93,3,10000,7.408,,,150,1.2,,,,,,,,,,wg-a,,,,AAXX 09014 07481 02/60 31504 10040 20030 30027 40329 54000 60006 8000/ 90100 333 20012 60004=
07481,1996-11-09 03:00:00,3,1032.7,-0.1,93,2,12000,3.704,,,160,,,,,,,,,,,wg-a,,,,AAXX 09034 07481 12/62 01602 10030 20020 30027 40327 58001 60006 80000 90300=
07481,1996-11-09 06:00:00,2,1032.9,-0,93,1,10000,7.408,,,150,1.2,7.9,,,,,,,,,wg-a,,,,AAXX 09064 07481 02/60 31504 10020 20010 30027 40329 54000 60006 80001 90600 333 10079 20012 60004=
07481,1996-11-09 09:00:00,5,1032.8,0.2,87,3,10000,3.704,,,300,,,,,,,,,,,wg-a,,,,AAXX 09094 07481 12560 /3002 10050 20030 30029 40328 50002 60006 81102 90900=
07481,1996-11-09 12:00:00,10,1030.8,-1.3,71,5,25000,3.704,,,30,,,,,,,,,,,wg-a,,,,AAXX 09124 07481 12575 /0302 10100 20050 30016 40308 58013 60006 81102 91200=
07481,1996-11-09 15:00:00,12,1029,-1.6,62,5,40000,7.408,,,340,,,,,,,,,,,wg-a,,,,AAXX 09154 07481 12582 /3404 10120 20050 30000 40290 56016 60006 81202 91500=
07481,1996-11-09 18:00:00,8,1028.5,-0.8,81,5,10000,3.704,,,60,1.4,12.7,,,,,,,,,wg-a,,,,AAXX 09184 07481 12/60 /0602 10080 20050 39992 40285 56008 60006 91800 333 10127 20014=
07481,1996-11-09 21:00:00,7,1027.5,-1.2,87,5,10000,7.408,,,140,,,,,,,,,,,wg-a,,,,AAXX 09214 07481 12/60 /1404 10070 20050 39980 40275 57012 60006 92100=
07481,1996-11-10 00:00:00,7,1025.4,-2,87,5,11000,7.408,,,180,,,,,,,,,,,wg-a,,,,AAXX 10004 07481 12/61 /1804 10070 20050 39960 40254 58020 60006 90000=
07481,1996-11-10 03:00:00,7,1022,-3.4,81,4,20000,14.816,,,150,,,,,,,,,,,wg-a,,,,AAXX 10034 07481 12570 71508 10070 20040 39927 40220 58034 60006 8357/ 90300=
07481,1996-11-10 06:00:00,11,1019.5,-1.9,76,7,15000,22.224,,,200,6.4,10.9,,,,,,,,,wg-a,,,,AAXX 10064 07481 02565 72012 10110 20070 39907 40195 58019 60006 875// 90600 333 10109 20064 60004=
07481,1996-11-10 09:00:00,12,1017.9,-1.5,71,7,15000,31.484,,,190,,,,,,,,,,,wg-a,,,,AAXX 10094 07481 12565 71917 10120 20070 39893 40179 57015 60006 875// 90900=
07481,1996-11-10 12:00:00,13,1014.9,-2.7,72,8,25000,29.632,,,190,,,,,,,,,,,wg-a,,,,AAXX 10124 07481 12675 71916 10130 20080 39865 40149 58027 60006 875// 91200=
07481,1996-11-10 15:00:00,12,1012.8,-2.2,82,9,25000,29.632,,55.56,180,,,,,,,,,,60,wg-a,,,,AAXX 10154 07481 02575 81816 10120 20090 39843 40128 56022 61000 76062 8487/ 91500 333 //// 91030=
07481,1996-11-10 18:00:00,11,1011.7,-1.1,94,10,25000,14.816,,,160,10.8,14.1,,,,,,,,3,wg-a,,,,AAXX 10184 07481 02475 71608 10110 20100 39831 40117 58011 61000 70362 8587/ 91800 333 10141 20108 ////=
07481,1996-11-10 21:00:00,11,1009.6,-2.1,94,10,20000,7.408,,,40,,,,0,,,,,,60,wg-a,,,,AAXX 10214 07481 12470 80404 10110 20100 39811 40096 57021 60007 76062 878// 92100=
07481,1996-11-11 00:00:00,12,1006.1,-3.3,82,9,20000,7.408,,,40,,,,1,,,,,,3,wg-a,,,,AAXX 11004 07481 02270 80404 10120 20090 39778 40061 58033 60016 70362 878// 90000 333 60017=
07481,1996-11-11 03:00:00,13,1001.8,-4,77,9,20000,11.112,,,180,,,,,,,,,,,wg-a,,,,AAXX 11034 07481 12470 /1806 10130 20090 39737 40018 56040 60006 8387/ 90300=
07481,1996-11-11 06:00:00,11,998.7,-3.2,82,8,20000,11.112,,,300,10.3,12.8,,,,,1,,,,wg-a,,,,AAXX 11064 07481 12470 73006 10110 20080 39705 49987 56032 60014 878// 90600 333 10128 20103=
07481,1996-11-11 09:00:00,17,996.2,-1.8,52,7,25000,29.632,,,170,,,,,,,,,,,wg-a,,,,AAXX 11094 07481 12575 71716 10170 20070 39687 49962 56018 60006 83932 90900=
07481,1996-11-11 12:00:00,18,994.8,-1.4,49,7,40000,22.224,,50.004,190,,,,,,,,,,,wg-a,,,,AAXX 11124 07481 12582 71912 10180 20070 39673 49948 58014 60006 8587/ 91200 333 91027=
07481,1996-11-11 15:00:00,14,994.1,-0.9,82,11,11000,29.632,,,200,,,,,,,,,,,wg-a,,,,AAXX 11154 07481 12/61 /2016 10140 20110 39664 49941 56009 60006 91500=
07481,1996-11-11 18:00:00,15,994.9,1.1,72,10,10000,25.928,,,190,10.5,18.2,,1,,,,,,60,wg-a,,,,AAXX 11184 07481 12560 81914 10150 20100 39672 49949 53011 60017 76062 8487/ 91800 333 10182 20105=
07481,1996-11-11 21:00:00,13,995.9,0.8,88,11,15000,31.484,,,160,,,,5,,,,,,61,wg-a,,,,AAXX 11214 07481 12565 81617 10130 20110 39680 49959 53008 60057 76162 8587/ 92100=
07481,1996-11-12 00:00:00,14,995.8,-0,88,12,15000,22.224,,51.856,140,,,,7,,,,,,61,wg-a,,,,AAXX 12004 07481 02565 81412 10140 20120 39680 49958 55000 60126 76162 8587/ 90000 333 60077 91028=
07481,1996-11-12 03:00:00,15,995.8,0.2,72,10,25000,22.224,,51.856,170,,,,1,,,,,,3,wg-a,,,,AAXX 12034 07481 12575 81712 10150 20100 39681 49958 53002 60017 70362 8457/ 90300 333 91028=
07481,1996-11-12 06:00:00,14,996.3,0.1,82,11,25000,18.52,,,130,12.5,15.7,,,,,14,,,1,wg-a,,,,AAXX 12064 07481 12675 81310 10140 20110 39684 49963 53001 60144 70162 8457/ 90600 333 10157 20125=
07481,1996-11-12 09:00:00,14,996.7,0.4,82,11,500,18.52,,,130,,,,1,,,,,,3,wg-a,,,,AAXX 12094 07481 12500 81310 10140 20110 39689 49967 50004 60017 70362 878// 90900=
07481,1996-11-12 12:00:00,18,996.2,-0,59,10,25000,50.004,,75.932,190,,,,0,,,,,,21,wg-a,,,,AAXX 12124 07481 02575 71927 10180 20100 39688 49962 55000 60016 72162 8587/ 91200 333 60007 91041=
07481,1996-11-12 15:00:00,17,997.8,1.5,59,9,20000,31.484,,53.708,180,,,,,,,,,,,wg-a,,,,AAXX 12154 07481 12570 81817 10170 20090 39702 49978 53015 60006 8587/ 91500 333 91029=
07481,1996-11-12 18:00:00,11,1002,3.6,94,10,18000,25.928,,,10,11,19.2,,,,,,,,60,wg-a,,,,AAXX 12184 07481 02568 80114 10110 20100 39737 40020 53036 61000 76062 8557/ 91800 333 10192 20110 ////=
07481,1996-11-12 21:00:00,9,1004.5,2.1,100,9,7000,11.112,,,20,,,,16,,,,,,65,wg-a,,,,AAXX 12214 07481 12257 80206 10090 20090 39760 40045 53021 60167 76566 8572/ 92100=
07481,1996-11-13 00:00:00,9,1005.4,0.8,100,9,7000,11.112,,,360,,,,20,,,,,,65,wg-a,,,,AAXX 13004 07481 02257 83606 10090 20090 39768 40054 50008 60366 76566 8472/ 90000 333 60207=
07481,1996-11-13 03:00:00,7,1006.6,1,100,7,8000,7.408,,,290,,,,18,,,,,,63,wg-a,,,,AAXX 13034 07481 12158 82904 10070 20070 39778 40066 50010 60187 76366 887// 90300=
07481,1996-11-13 06:00:00,7,1008.3,1.5,100,7,9000,7.408,,,200,6.9,10.9,,11,,,66,,,63,wg-a,,,,AAXX 13064 07481 02259 82004 10070 20070 39794 40083 51015 60664 76366 885// 90600 333 10109 20069 60117=
07481,1996-11-13 09:00:00,8,1011.3,3,93,7,18000,3.704,,,320,,,,2,,,,,,1,wg-a,,,,AAXX 13094 07481 12268 83202 10080 20070 39824 40113 51030 60027 70162 885// 90900=
07481,1996-11-13 12:00:00,10,1011.8,0.7,87,8,500,3.704,,,70,,,,,,,,,,1,wg-a,,,,AAXX 13124 07481 12400 70702 10100 20080 39831 40118 50007 60026 70162 8/800 91200=
07481,1996-11-14 06:00:00,6,1015.2,0.8,87,4,500,22.224,,,340,5.6,9.7,,,,,2,,,,wg-a,,,,AAXX 14064 07481 02300 83412 10060 20040 39860 40152 53008 60006 875// 90600 333 10097 20056 60024=
07481,1996-11-14 09:00:00,5,1016.2,0.8,87,3,12000,25.928,,,340,,,,,,,,,,,wg-a,,,,AAXX 14094 07481 12362 83414 10050 20030 39868 40162 51008 60006 875// 90900=
07481,1996-11-14 12:00:00,5,1016.1,0,87,3,12000,22.224,,,340,,,,,,,,,,,wg-a,,,,AAXX 14124 07481 12462 83412 10050 20030 39868 40161 50000 60006 875// 91200=
07481,1996-11-14 15:00:00,5,1015.9,-0,87,3,7000,18.52,,,340,,,,0,,,,,,60,wg-a,,,,AAXX 14154 07481 12457 83410 10050 20030 39866 40159 55000 60007 76062 875// 91500=
07481,1996-11-14 18:00:00,5,1016,-0.1,87,3,15000,18.52,,,350,4.7,5.6,,0,,,,,,60,wg-a,,,,AAXX 14184 07481 12465 83510 10050 20030 39867 40160 58001 60007 76062 875// 91800 333 10056 20047=
07481,1996-11-14 21:00:00,5,1015.4,-0.6,81,2,18000,14.816,,,350,,,,,,,,,,3,wg-a,,,,AAXX 14214 07481 02468 83508 10050 20020 39861 40154 58006 61000 70362 875// 92100 333 ////=
07481,1996-11-15 00:00:00,4,1015.7,0.3,87,2,18000,11.112,,,330,,,,,,,,,,1,wg-a,,,,AAXX 15004 07481 02568 83306 10040 20020 39863 40157 52003 61000 70162 875// 90000 333 ////=
07481,1996-11-15 03:00:00,4,1015.8,0,81,1,18000,7.408,,,310,,,,,,,,,,,wg-a,,,,AAXX 15034 07481 12468 83104 10040 20010 39864 40158 50000 60006 875// 90300=
07481,1996-11-15 06:00:00,4,1016.1,0.3,87,2,18000,7.408,,,330,4,5,,,,,1,,,,wg-a,,,,AAXX 15064 07481 12468 83304 10040 20020 39867 40161 53003 60014 875// 90600 333 10050 20040=
07481,1996-11-15 09:00:00,5,1017.5,1.5,81,2,15000,7.408,,,360,,,,,,,,,,,wg-a,,,,AAXX 15094 07481 12465 /3604 10050 20020 39881 40175 51015 60006 81802 90900=
07481,1996-11-15 12:00:00,6,1017.8,0.4,75,2,15000,3.704,,,340,,,,,,,,,,,wg-a,,,,AAXX 15124 07481 12465 73402 10060 20020 39886 40178 50004 60006 81102 91200=
07481,1996-11-15 15:00:00,7,1018.1,0.3,76,3,12000,7.408,,,340,,,,,,,,,,,wg-a,,,,AAXX 15154 07481 12/62 83404 10070 20030 39889 40181 53003 60006 85075 91500=
07481,1996-11-15 18:00:00,6,1019.4,1.1,87,4,10000,7.408,,,350,3.9,6.7,,0,,,,,,60,wg-a,,,,AAXX 15184 07481 12760 83504 10060 20040 39901 40194 51011 60007 76062 8257/ 91800 333 10067 20039=
07481,1996-11-15 20:00:00,6,1019.4,1.1,87,4,10000,7.408,,,350,3.9,6.7,,0,,,,,,60,wg-a,,,,AAXX 15204 07481 12760 83504 10060 20040 39901 40194 51011 60007 76062 8257/ 92000 333 10067 20039=
07481,1996-11-15 21:00:00,6,1020.2,0.8,87,4,13000,7.408,,,340,,,,,,,,,,3,wg-a,,,,AAXX 15214 07481 02763 83404 10060 20040 39908 40202 51008 61000 70362 875// 92100 333 ////=
07481,1996-11-16 00:00:00,5,1020.8,0.3,93,4,8000,3.704,,,330,,,,1,,,,,,60,wg-a,,,,AAXX 16004 07481 02658 83302 10050 20040 39913 40208 50003 60016 76062 855// 90000 333 60017=
07481,1996-11-16 03:00:00,4,1021,0.3,93,3,11000,3.704,,,320,,,,,,,,,,,wg-a,,,,AAXX 16034 07481 32/61 /3202 10040 20030 39915 40210 53003 90300=
07481,1996-11-16 06:00:00,4,1020.8,-0.4,93,3,7000,3.704,,,20,3.7,5.9,,,,,1,,,1,wg-a,,,,AAXX 16064 07481 12257 80202 10040 20030 39912 40208 57004 60014 70162 875// 90600 333 10059 20037=
07481,1996-11-16 09:00:00,4,1021.7,0.9,93,3,500,7.408,,,10,,,,,,,,,,,wg-a,,,,AAXX 16094 07481 12200 80104 10040 20030 39921 40217 50009 60006 876// 90900=
07481,1996-11-16 12:00:00,5,1021,-0.6,87,3,6000,3.704,,,320,,,,,,,,,,60,wg-a,,,,AAXX 16124 07481 02256 83202 10050 20030 39915 40210 58006 61000 76062 886// 91200 333 6100=
07481,1996-11-16 15:00:00,5,1020.2,-0.7,93,4,500,7.408,,,350,,,,0,,,,,,21,wg-a,,,,AAXX 16154 07481 12200 83504 10050 20040 39908 40202 56007 60007 72162 887// 91500=
07481,1996-11-16 18:00:00,5,1019.8,-0.5,93,4,7000,7.408,,,340,3.6,5.2,,,,,,,,2,wg-a,,,,AAXX 16184 07481 32257 83404 10050 20040 39903 40198 55005 70262 886// 91800 333 10052 20036=
07481,1996-11-16 21:00:00,5,1018.7,-1,93,4,8000,7.408,,,340,,,,,,,,,,,wg-a,,,,AAXX 16214 07481 12358 83404 10050 20040 39893 40187 57010 60006 886// 92100=
07481,1996-11-17 00:00:00,5,1017.7,-1,87,3,8000,7.408,,,20,,,,,,,,,,,wg-a,,,,AAXX 17004 07481 12258 80204 10050 20030 39883 40177 58010 60006 886// 90000=
07481,1996-11-17 03:00:00,4,1015.7,-1.9,93,3,7000,11.112,,,340,,,,,,,,,,,wg-a,,,,AAXX 17034 07481 12157 83406 10040 20030 39863 40157 58019 60006 886// 90300=
07481,1996-11-17 06:00:00,4,1014.6,-1,93,3,6000,7.408,,,10,3.7,5.1,,,,,,,,,wg-a,,,,AAXX 17064 07481 02256 80104 10040 20030 39852 40146 55010 60006 886// 90600 333 10051 20037 60004=
07481,1996-11-17 09:00:00,4,1013.2,-1.2,93,3,2500,7.408,,,20,,,,0,,,,,,10,wg-a,,,,AAXX 17094 07481 12125 80204 10040 20030 39839 40132 58012 60007 71062 886// 90900=
07481,1996-11-17 12:00:00,5,1010.8,-2.4,93,4,4500,3.704,,,310,,,,,,,,,,10,wg-a,,,,AAXX 17124 07481 02245 83102 10050 20040 39816 40108 58024 60006 71062 886// 91200 333 61000=
07481,1996-11-17 15:00:00,5,1009.3,-1.4,93,4,500,7.408,,,30,,,,,,,,,,,wg-a,,,,AAXX 17154 07481 12200 80304 10050 20040 39802 40093 58014 60006 886// 91500=
07481,1996-11-17 18:00:00,5,1008,-1.3,100,5,3000,3.704,,,10,3.7,5.5,,2,,,,,,10,wg-a,,,,AAXX 17184 07481 12230 80102 10050 20050 39789 40080 57013 60027 71062 885// 91800 333 10055 20037=
07481,1996-11-17 21:00:00,5,1005.5,-2.5,93,4,4000,3.704,,,10,,,,2,,,,,,10,wg-a,,,,AAXX 17214 07481 12140 80102 10050 20040 39765 40055 56025 60027 71062 887// 92100=
07481,1996-11-18 00:00:00,5,1004.3,-1,93,4,4000,7.408,,,360,,,,4,,,,,,10,wg-a,,,,AAXX 18004 07481 02140 83604 10050 20040 39753 40043 56010 60066 71062 887// 90000 333 60047=
07481,1996-11-18 03:00:00,4,1001.9,-2.4,100,4,10000,11.112,,,350,,,,6,,,,,,61,wg-a,,,,AAXX 18034 07481 12160 83506 10040 20040 39729 40019 56024 60067 76166 887// 90300=
07481,1996-11-18 06:00:00,3,1001.2,-0.8,93,2,15000,22.224,,,340,3.1,5.1,,5,,,19,,,63,wg-a,,,,AAXX 18064 07481 02365 83412 10030 20020 39721 40012 56008 60194 76366 8572/ 90600 333 10051 20031 60057=
07481,1996-11-18 09:00:00,0,1002.9,1.3,100,0,1100,7.408,,,280,,,,7,,,,,,71,wg-a,,,,AAXX 18094 07481 12111 82804 10000 20000 39734 40029 53013 60077 77176 887// 90900=
07481,1996-11-18 12:00:00,0,1004.1,1.2,100,0,1200,7.408,,,250,,,,5,,,,,,71,wg-a,,,,AAXX 18124 07481 02112 82504 10000 20000 39746 40041 51012 60136 77176 887// 91200 333 60057=
07481,1996-11-18 15:00:00,1,1006,1.9,93,0,2500,7.408,,,170,,,,10,,,,,,68,wg-a,,,,AAXX 18154 07481 12225 81704 10010 20000 39765 40060 53019 60107 76877 887// 91500=
07481,1996-11-18 18:00:00,2,1007.2,1.3,93,1,8000,11.112,,,190,0.2,3,,6,,,,,,61,wg-a,,4,,AAXX 18184 07481 12158 81906 10020 20010 39778 40072 51013 60067 76176 885// 91800 333 10030 20002 4/004=
07481,1996-11-18 21:00:00,3,1009,1.9,93,2,12000,7.408,,,260,,,,1,,,,,,61,wg-a,,,,AAXX 18214 07481 12462 82604 10030 20020 39797 40090 53019 60017 76166 885// 92100=
07481,1996-11-19 00:00:00,2,1010.7,1.5,93,1,15000,11.112,,,160,,,,1,,,,,,1,wg-a,,,,AAXX 19004 07481 02565 71606 10020 20010 39812 40107 52015 60026 70162 875// 90000 333 60017=
07481,1996-11-19 03:00:00,2,1011.5,0.8,87,0,20000,3.704,,,340,,,,,,,,,,,wg-a,,,,AAXX 19034 07481 12670 73402 10020 20000 39820 40115 51008 60006 8357/ 90300=
07481,1996-11-19 06:00:00,-1,1010.4,-1.4,93,-2,600,14.816,,,140,-0.9,3.2,,,,,31,,,48,wg-a,,3,,AAXX 19064 07481 12/06 11408 11010 21020 39806 40104 58014 60314 74841 81030 90600 333 10032 21009 4/003=
07481,1996-11-19 09:00:00,-1,1010.4,-1.4,93,-2,600,14.816,,,140,-0.9,3.2,,,,,31,,,48,wg-a,,3,,AAXX 19094 07481 12/06 11408 11010 21020 39806 40104 58014 60314 74841 81030 90900 333 10032 21009 4/003=
07481,1996-11-19 12:00:00,4,1001.7,-4.6,65,-2,35000,31.484,,,160,,,,,,,,,,3,wg-a,,,,AAXX 19124 07481 12/81 71617 10040 21020 39727 40017 58046 60006 70341 83045 91200=
07481,1996-11-19 15:00:00,5,996,-5.4,60,-2,35000,38.892,,,170,,,,0,,,,,,61,wg-a,,,,AAXX 19154 07481 12681 71721 10050 21020 39672 49960 58054 60007 76176 8357/ 91500=
07481,1996-11-19 18:00:00,6,996,-0,61,-1,500,38.892,,75.932,190,-1,6.1,,,,,,,,3,wg-a,,0,,AAXX 19184 07481 32500 81921 10060 21010 39673 49960 54000 70376 8487/ 91800 333 10061 21010 4/9999 91041=
07481,1996-11-19 21:00:00,6,995.4,-0.4,81,3,25000,38.892,,62.968,200,,,,,,,,,,21,wg-a,,,,AAXX 19214 07481 02475 82021 10060 20030 39668 49954 58004 61000 72162 8487/ 92100 333 //// 91034=
07481,1996-11-20 00:00:00,7,993.5,-1.8,81,4,11000,31.484,,53.708,190,,,,,,,,,,,wg-a,,,,AAXX 20004 07481 02/61 /1917 10070 20040 39650 49935 57018 61000 90000 333 //// 91029=
07481,1996-11-20 03:00:00,7,992.9,-0.5,81,4,25000,25.928,,,190,,,,,,,,,,,wg-a,,,,AAXX 20034 07481 12475 71914 10070 20040 39645 49929 58005 60006 8457/ 90300=
07481,1996-11-20 06:00:00,7,993.3,0.4,81,4,25000,31.484,,,200,4.9,7.5,,,,,,,,,wg-a,,,,AAXX 20064 07481 12675 82017 10070 20040 39648 49933 53004 60004 8457/ 90600 333 10075 20049=
07481,1996-11-20 09:00:00,7,995.6,2.3,76,3,500,18.52,,,190,,,,,,,,,,,wg-a,,,,AAXX 20094 07481 12500 71910 10070 20030 39671 49956 53023 60006 83832 90900=
07481,1996-11-20 12:00:00,10,996.7,1.3,53,1,40000,14.816,,,230,,,,,,,,,,,wg-a,,,,AAXX 20124 07481 12682 72308 10100 20010 39684 49967 51013 60006 872// 91200=
07481,1996-11-20 15:00:00,8,999.3,2.3,71,3,18000,22.224,,,250,,,,0,,,,,,3,wg-a,,,,AAXX 20154 07481 12668 /2512 10080 20030 39707 49993 53023 60007 70386 84242 91500=
07481,1996-11-20 18:00:00,7,1002.4,2.9,66,1,18000,18.52,,,250,6.6,10.1,,,,,,,,80,wg-a,,,,AAXX 20184 07481 02568 82510 10070 20010 39737 40024 52029 61000 78086 878// 91800 333 10101 20066 ////=
07481,1996-11-20 21:00:00,6,1004.9,2.5,70,1,40000,14.816,,,240,,,,,,,,,,1,wg-a,,,,AAXX 20214 07481 02582 72408 10060 20010 39760 40049 51025 61000 70186 8783/ 92100 333 ////=
07481,1996-11-21 00:00:00,5,1007.7,2.5,81,2,40000,14.816,,42.596,250,,,,0,,,,,,25,wg-a,,,,AAXX 21004 07481 02582 72508 10050 20020 39786 40077 51025 60016 72586 8486/ 90000 333 60007 91023=
07481,1996-11-21 03:00:00,4,1009.1,1.3,93,3,500,3.704,,,270,,,,0,,,,,,,wg-a,,,,AAXX 21034 07481 12500 72702 10040 20030 39799 40091 53013 60007 8387/ 90300=
07481,1996-11-21 06:00:00,3,1011.2,1.9,70,-2,500,11.112,,,220,3,7.3,,,,,1,,,1,wg-a,,,,AAXX 21064 07481 02600 /2206 10030 21020 39818 40112 52019 60014 70161 81530 90600 333 10073 20030 61000=
07481,1996-11-21 09:00:00,5,1012.7,1.6,70,0,40000,3.704,,,170,,,,,,,,,,,wg-a,,,,AAXX 21094 07481 12482 71702 10050 20000 39834 40127 51016 60006 81832 90900=
07481,1996-11-21 12:00:00,7,1012.8,0.4,53,-2,40000,14.816,,,240,,,,,,,,,,,wg-a,,,,AAXX 21124 07481 12582 72408 10070 21020 39838 40128 50004 60006 81842 91200=
07481,1996-11-21 15:00:00,7,1012,-0.9,45,-4,40000,7.408,,,160,,,,,,,,,,,wg-a,,,,AAXX 21154 07481 12582 61604 10070 21040 39830 40120 58009 60006 81842 91500=
07481,1996-11-21 18:00:00,4,1010.1,-2.1,70,-1,40000,11.112,,,140,2.9,8,,,,,,,,,wg-a,,,,AAXX 21184 07481 12/82 61406 10040 21010 39808 40101 58021 60006 80002 91800 333 10080 20029=
07481,1996-11-21 21:00:00,2,1009.1,-1,87,0,12000,14.816,,,150,,,,0,,,,,,61,wg-a,,,,AAXX 21214 07481 12162 81508 10020 20000 39797 40091 56010 60007 76176 887// 92100=
07481,1996-11-22 00:00:00,0,1005.3,-3.9,100,0,3000,11.112,,,90,,,,4,,,,,,71,wg-a,,,,AAXX 22004 07481 02230 80906 10000 20000 39758 40053 58039 60046 77176 887// 90000 333 60047=
07481,1996-11-22 03:00:00,0,1005.4,0.2,100,0,2000,7.408,,,340,,,,5,,,,,,73,wg-a,,,,AAXX 22034 07481 12220 83404 10000 20000 39759 40054 53002 60057 77377 887// 90300=
07481,1996-11-22 06:00:00,1,1011.4,5.9,93,0,15000,18.52,,,340,0.1,4.7,,4,,,13,,,3,wg-a,,6,,AAXX 22064 07481 02265 83410 10010 20000 39818 40114 51059 60134 70372 887// 90600 333 10047 20001 4/006 60047=
07481,1996-11-22 09:00:00,1,1015.9,4.3,93,0,18000,22.224,,,340,,,,,,,,,,,wg-a,,,,AAXX 22094 07481 12368 /3412 10010 20000 39862 40159 51043 60006 876// 90900=
07481,1996-11-22 12:00:00,3,1016.5,0.7,87,1,20000,11.112,,,30,,,,,,,,,,,wg-a,,,,AAXX 22124 07481 12470 70306 10030 20010 39869 40165 51007 60006 875// 91200=
07481,1996-11-22 15:00:00,4,1016.4,0,75,0,500,14.816,,,350,,,,,,,,,,,wg-a,,,,AAXX 22154 07481 12500 /3508 10040 20000 39869 40164 50000 60006 86500 91500=
07481,1996-11-22 18:00:00,2,1016.2,-0.4,87,0,3000,7.408,,,310,1,3.8,,,,,,,,,wg-a,,1,,AAXX 22184 07481 12530 43104 10020 20000 39865 40162 58004 60006 83501 91800 333 10038 20010 4/001=
07481,1996-11-22 21:00:00,0,1017.2,0.8,86,-2,25000,11.112,,,220,,,,,,,,,,,wg-a,,,,AAXX 22214 07481 12/75 32206 10000 21020 39873 40172 51008 60006 80001 92100=
07481,1996-11-23 00:00:00,-1,1015.5,-1.8,93,-2,25000,7.408,,,170,,,,,,,,,,,wg-a,,,,AAXX 23004 07481 12/75 61704 11010 21020 39855 40155 58018 60006 86030 90000=
07481,1996-11-23 03:00:00,-1,1014.4,-1.1,93,-2,9000,11.112,,,150,,,,,,,,,,,wg-a,,,,AAXX 23034 07481 12/59 71506 11010 21020 39844 40144 58011 60006 8703/ 90300=
07481,1996-11-23 06:00:00,-2,1015.4,1,93,-3,7000,7.408,,,210,-1.6,1.5,,,,,,,,,wg-a,,0,,AAXX 23064 07481 02/57 /2104 11020 21030 39854 40154 53010 60006 81030 90600 333 10015 21016 4/9999 60004=
07481,1996-11-23 09:00:00,1,1015.4,0.3,86,-1,10000,0,,,0,,,,,,,,,,,wg-a,,,,AAXX 23094 07481 12/60 30000 10010 21010 39857 40154 50003 60006 83030 90900=
07481,1996-11-23 12:00:00,4,1015,-0.1,87,2,10000,3.704,,,50,,,,,,,,,,,wg-a,,,,AAXX 23124 07481 12/60 70502 10040 20020 39856 40150 58001 60006 8707/ 91200=
07481,1996-11-23 15:00:00,4,1016.2,1.2,87,2,8000,7.408,,,50,,,,,,,,,,21,wg-a,,,,AAXX 23154 07481 02658 /0504 10040 20020 39868 40162 53012 61000 72162 8457/ 91500 333 ////=
07481,1996-11-23 18:00:00,3,1018.6,2.2,93,2,8000,7.408,,,110,-2.6,4.4,,1,,,,,,21,wg-a,,,,AAXX 23184 07481 12558 /1104 10030 20020 39890 40186 53022 60017 72162 8557/ 91800 333 10044 21026=
07481,1996-11-23 21:00:00,4,1021.3,2.7,87,2,20000,14.816,,,320,,,,1,,,,,,60,wg-a,,,,AAXX 23214 07481 12470 83208 10040 20020 39917 40213 51027 60017 76062 8387/ 92100=
07481,1996-11-24 00:00:00,3,1023.8,2.3,93,2,20000,7.408,,,300,,,,0,,,,,,1,wg-a,,,,AAXX 24004 07481 02470 73004 10030 20020 39940 40238 53023 60016 70162 8387/ 90000 333 60007=
07481,1996-11-24 03:00:00,1,1026.5,2.4,80,-2,20000,3.704,,,20,,,,,,,,,,,wg-a,,,,AAXX 24034 07481 12670 30202 10010 21020 39964 40265 51024 60006 82530 90300=
07481,1996-11-24 06:00:00,-1,1027.4,0.7,100,-1,20000,7.408,,,150,-1,3.8,,,,,2,,,,wg-a,,,,AAXX 24064 07481 12570 71504 11010 21010 39971 40274 53007 60024 8453/ 90600 333 10038 21010=
07481,1996-11-24 09:00:00,2,1029.3,2.1,87,0,12000,0,,,0,,,,,,,,,,,wg-a,,,,AAXX 24094 07481 12662 50000 10020 20000 39992 40293 51021 60006 82530 90900=
07481,1996-11-24 12:00:00,4,1028.2,-0.8,70,-1,500,3.704,,,360,,,,,,,,,,,wg-a,,,,AAXX 24124 07481 12500 /3602 10040 21010 39984 40282 58008 60006 83830 91200=
07481,1996-11-24 15:00:00,5,1025.8,-2.3,60,-2,40000,3.704,,,320,,,,,,,,,,,wg-a,,,,AAXX 24154 07481 12582 /3202 10050 21020 39961 40258 57023 60006 81104 91500=
07481,1996-11-24 18:00:00,1,1025.1,-1,80,-2,25000,3.704,,,130,-0.8,5,,,,,,,,,wg-a,,,,AAXX 24184 07481 12/75 41302 10010 21020 39951 40251 56010 60006 80001 91800 333 10050 21008=
07481,1996-11-24 21:00:00,2,1023.7,-1.3,80,-1,20000,14.816,,,150,,,,,,,,,,,wg-a,,,,AAXX 24214 07481 12/70 71508 10020 21010 39938 40237 58013 60006 83032 92100=
07481,1996-11-25 00:00:00,2,1020.6,-3,80,-1,20000,18.52,,,160,,,,,,,,,,,wg-a,,,,AAXX 25004 07481 12/70 81610 10020 21010 39908 40206 58030 60006 8707/ 90000=
07481,1996-11-25 03:00:00,3,1018.4,-2,70,-2,20000,11.112,,,140,,,,,,,,,,,wg-a,,,,AAXX 25034 07481 12770 81406 10030 21020 39887 40184 58020 60006 8757/ 90300=
07481,1996-11-25 06:00:00,2,1015.4,-2.9,93,1,10000,25.928,,,170,0.5,4.8,,1,,,1,,,61,wg-a,,,,AAXX 25064 07481 02260 81714 10020 20010 39858 40154 57029 60014 76176 8687/ 90600 333 10048 20005 60017=
07481,1996-11-25 09:00:00,3,1012.3,-2.9,93,2,9000,25.928,,,170,,,,6,,,,,,61,wg-a,,,,AAXX 25094 07481 12459 81714 10030 20020 39829 40123 58029 60067 76176 888// 90900=
07481,1996-11-25 12:00:00,5,1007.8,-4.3,93,4,15000,25.928,,,180,,,,2,,,,,,60,wg-a,,,,AAXX 25124 07481 02465 81814 10050 20040 39787 40078 58043 60076 76076 888// 91200 333 60027=
07481,1996-11-25 15:00:00,6,1004.5,-2.9,87,4,9000,29.632,,51.856,200,,,,4,,,,,,61,wg-a,,,,AAXX 25154 07481 12459 82016 10060 20040 39756 40045 56029 60047 76166 888// 91500 333 91028=
07481,1996-11-25 18:00:00,6,1004.7,0.1,93,5,15000,22.224,,,190,1.4,6,,4,,,,,,1,wg-a,,,,AAXX 25184 07481 12565 81912 10060 20050 39758 40047 53001 60047 70162 875// 91800 333 10060 20014=
07481,1996-11-25 21:00:00,6,1004.6,-0.2,93,5,20000,3.704,,,200,,,,1,,,,,,60,wg-a,,,,AAXX 25214 07481 12670 82002 10060 20050 39757 40046 55002 60017 76062 875// 92100=
07481,1996-11-26 00:00:00,5,1003.8,-0.7,93,4,20000,7.408,,,240,,,,2,,,,,,60,wg-a,,,,AAXX 26004 07481 02670 82404 10050 20040 39749 40038 55007 60036 76062 875// 90000 333 60027=
07481,1996-11-26 03:00:00,5,1005.6,1.7,100,5,12000,11.112,,,300,,,,1,,,,,,1,wg-a,,,,AAXX 26034 07481 12662 73006 10050 20050 39766 40056 51017 60017 70162 878// 90300=
07481,1996-11-26 06:00:00,6,1007.6,2,87,4,18000,3.704,,,240,4.8,6.3,,0,,,20,,,1,wg-a,,,,AAXX 26064 07481 02568 72402 10060 20040 39786 40076 52020 60204 70186 878// 90600 333 10063 20048 60007=
07481,1996-11-26 09:00:00,6,1009.7,2.1,87,4,10000,22.224,,,300,,,,0,,,,,,80,wg-a,,,,AAXX 26094 07481 12560 73012 10060 20040 39807 40097 53021 60007 78086 878// 90900=
07481,1996-11-26 12:00:00,7,1010.9,1.2,87,5,20000,11.112,,,330,,,,,,,,,,2,wg-a,,,,AAXX 26124 07481 02570 73306 10070 20050 39819 40109 51012 60006 70286 878// 91200 333 61000=
07481,1996-11-26 15:00:00,7,1012.1,1.1,81,4,25000,11.112,,,310,,,,,,,,,,25,wg-a,,,,AAXX 26154 07481 02575 73106 10070 20040 39830 40121 52011 61000 72586 878// 91500 333 ////=
07481,1996-11-26 18:00:00,6,1013.7,1.5,87,4,20000,3.704,,,300,5.5,7.1,,,,,,,,1,wg-a,,,,AAXX 26184 07481 32570 73002 10060 20040 39845 40137 53015 70186 878// 91800 333 10071 20055=
07481,1996-11-26 21:00:00,5,1014.9,1.1,87,3,25000,7.408,,,320,,,,0,,,,,,21,wg-a,,,,AAXX 26214 07481 12675 73204 10050 20030 39856 40149 51011 60007 72162 875// 92100=
07481,1996-11-27 00:00:00,2,1015.4,0.2,93,1,25000,3.704,,,160,,,,,,,,,,3,wg-a,,,,AAXX 27004 07481 12875 51602 10020 20010 39858 40154 50002 60006 70386 85030 90000=
07481,1996-11-27 03:00:00,2,1015,-0.4,93,1,15000,3.704,,,330,,,,,,,,,,,wg-a,,,,AAXX 27034 07481 12565 73302 10020 20010 39854 40150 56004 60006 875// 90300=
07481,1996-11-27 06:00:00,2,1013.7,-1.3,93,1,12000,3.704,,,120,1.3,5.7,,,,,,,,,wg-a,,,,AAXX 27064 07481 12662 61202 10020 20010 39841 40137 58013 60004 82530 90600 333 10057 20013=
07481,1996-11-27 09:00:00,3,1013.1,-0.6,93,2,12000,7.408,,,190,,,,,,,,,,,wg-a,,,,AAXX 27094 07481 12462 51904 10030 20020 39836 40131 58006 60006 81831 90900=
07481,1996-11-27 12:00:00,5,1008.8,-3.9,87,3,13000,11.112,,,150,,,,,,,,,,,wg-a,,,,AAXX 27124 07481 12463 71506 10050 20030 39797 40088 58039 60006 82836 91200=
07481,1996-11-27 15:00:00,5,1003.8,-4.8,87,3,500,14.816,,,150,,,,0,,,,,,21,wg-a,,,,AAXX 27154 07481 12600 /1508 10050 20030 39749 40038 56048 60007 72162 875// 91500=
07481,1996-11-27 18:00:00,6,1001.8,-2,75,2,20000,25.928,,,190,1.2,6.4,,1,,,,,,80,wg-a,,,,AAXX 27184 07481 12670 71914 10060 20020 39729 40018 56020 60017 78086 878// 91800 333 10064 20012=
07481,1996-11-28 00:00:00,5,1005.8,2.3,93,4,12000,14.816,,,300,,,,1,,,,,,61,wg-a,,,,AAXX 28004 07481 02262 83008 10050 20040 39768 40058 53023 60036 76186 878// 90000 333 60017=
07481,1996-11-28 03:00:00,3,1009,2.8,87,1,15000,14.816,,,340,,,,0,,,,,,61,wg-a,,,,AAXX 28034 07481 12465 83408 10030 20010 39796 40090 53028 60007 76162 8687/ 90300=
07481,1996-11-28 06:00:00,2,1011.9,2.7,93,1,12000,18.52,,,340,1.5,7.5,,1,,,5,,,21,wg-a,,,,AAXX 28064 07481 02262 83410 10020 20010 39823 40119 53027 60054 72162 877// 90600 333 10075 20015 60017=
07481,1996-11-28 09:00:00,2,1015.5,3.5,80,-1,12000,25.928,,,350,,,,,,,,,,68,wg-a,,,,AAXX 28094 07481 02262 83514 10020 21010 39858 40155 52035 61000 76876 8557/ 90900 333 ////=
07481,1996-11-28 12:00:00,2,1017.9,2.3,87,0,9000,25.928,,,340,,,,,,,,,,70,wg-a,,,,AAXX 28124 07481 02459 73414 10020 20000 39881 40179 51023 61000 77076 878// 91200 333 6100=
07481,1996-11-28 15:00:00,1,1019.7,1.7,86,-1,9000,22.224,,,330,,,,,,,,,,26,wg-a,,,,AAXX 28154 07481 02459 /3312 10010 21010 39898 40197 51017 61000 72687 86800 91500 333 ////=
07481,1996-11-28 18:00:00,0,1022.1,2.3,86,-2,12000,18.52,,,350,0.4,2.2,,,,,,,,3,wg-a,,,,AAXX 28184 07481 32462 73510 10000 21020 39921 40221 53023 70387 878// 91800 333 10022 20004=
07481,1996-11-28 21:00:00,0,1023.1,0.9,86,-2,12000,14.816,,,350,,,,,,,,,,,wg-a,,,,AAXX 28214 07481 12562 73508 10000 21020 39930 40231 51009 60006 877// 92100=
07481,1996-11-29 00:00:00,-1,1023.9,0.6,86,-3,9000,14.816,,,340,,,,,,,,,,,wg-a,,,,AAXX 29004 07481 12/59 03408 11010 21030 39936 40239 51006 60006 80000 90000=
07481,1996-11-29 03:00:00,-3,1023.7,-0.3,93,-4,8000,0,,,0,,,,,,,,,,,wg-a,,,,AAXX 29034 07481 12/58 00000 11030 21040 39933 40237 58003 60006 80000 90300=
07481,1996-11-29 06:00:00,-3,1023.6,-0.1,93,-4,9000,7.408,,,190,-3.7,0.6,,,,,,,,,wg-a,,,,AAXX 29064 07481 02/59 /1904 11030 21040 39932 40236 58001 60006 80000 90600 333 10006 21037 61000=
07481,1996-11-29 09:00:00,-2,1023.3,-0.2,93,-3,500,11.112,,,160,,,,,,,,,,,wg-a,,,,AAXX 29094 07481 12/00 81606 11020 21030 39930 40233 58002 60006 84037 90900=
07481,1996-11-29 12:00:00,0,1020.5,-2.5,93,-1,1800,14.816,,,150,,,,,,,,,,71,wg-a,,,,AAXX 29124 07481 02118 81508 10000 21010 39905 40205 58025 61000 77171 8457/ 91200 333 6100=
07481,1996-11-29 15:00:00,0,1016.1,-4.1,100,0,1600,14.816,,,160,,,,2,,,,,,71,wg-a,,,,AAXX 29154 07481 12116 81608 10000 20000 39863 40161 56041 60027 77177 885// 91500=
07481,1996-11-29 18:00:00,2,1013.2,-2.6,93,1,18000,14.816,,,180,-3.1,2.3,,5,,,,,,61,wg-a,,1,,AAXX 29184 07481 12568 81808 10020 20010 39837 40132 58026 60057 76176 8652/ 91800 333 10023 21031 4/001=
07481,1996-11-29 21:00:00,4,1010.5,-2.6,87,2,15000,18.52,,,170,,,,1,,,,,,21,wg-a,,,,AAXX 29214 07481 12565 81710 10040 20020 39812 40105 58026 60017 72162 885// 92100=
07481,1996-11-30 00:00:00,6,1008.2,-1.9,81,3,25000,14.816,,,170,,,,1,,,,,,21,wg-a,,,,AAXX 30004 07481 02675 81708 10060 20030 39792 40082 56019 60026 72162 885// 90000 333 60017=
07481,1996-11-30 03:00:00,8,1004.9,-3.2,81,5,20000,22.224,,,210,,,,,,,,,,60,wg-a,,,,AAXX 30034 07481 02670 82112 10080 20050 39762 40049 56032 61000 76062 885// 90300 333 ////=
07481,1996-11-30 06:00:00,6,1006.3,1.3,93,5,9000,14.816,,,20,2.3,8.6,,3,,,11,,,60,wg-a,,,,AAXX 30064 07481 02359 80208 10060 20050 39774 40063 53013 60114 76062 878// 90600 333 10086 20023 60037=
07481,1996-11-30 09:00:00,5,1007.1,0.7,100,5,8000,0,,,0,,,,2,,,,,,61,wg-a,,,,AAXX 30094 07481 12558 80000 10050 20050 39781 40071 53007 60027 76166 8657/ 90900=
07481,1996-11-30 12:00:00,6,1007.8,0.7,93,5,15000,3.704,,,160,,,,2,,,,,,61,wg-a,,,,AAXX 30124 07481 02265 81602 10060 20050 39788 40078 53007 60046 76166 8682/ 91200 333 60027=
07481,1996-11-30 15:00:00,7,1007.1,-0.7,87,5,12000,11.112,,,240,,,,0,,,,,,21,wg-a,,,,AAXX 30154 07481 12462 /2406 10070 20050 39782 40071 56007 60007 72161 82830 91500=
07481,1996-11-30 18:00:00,6,1008.8,1.8,87,4,15000,11.112,,,290,5.3,7.4,,0,,,,,,21,wg-a,,,,AAXX 30184 07481 12465 /2906 10060 20040 39798 40088 52018 60007 72161 83830 91800 333 10074 20053=
07481,1996-11-30 21:00:00,6,1012,2.9,87,4,18000,14.816,,,330,,,,0,,,,,,21,wg-a,,,,AAXX 30214 07481 12468 73308 10060 20040 39828 40120 53029 60007 72162 8487/ 92100=
07481,1996-12-01 00:00:00,5,1015.3,3.1,93,4,20000,14.816,,,320,,,,0,,,,,,1,wg-a,,,,AAXX 01004 07481 02470 73208 10050 20040 39860 40153 53031 60016 70162 8387/ 90000 333 60007=
07481,1996-12-01 03:00:00,5,1018.1,2.7,87,3,20000,18.52,,,330,,,,,,,,,,,wg-a,,,,AAXX 01034 07481 12570 73310 10050 20030 39887 40181 51027 60006 8387/ 90300=
07481,1996-12-01 06:00:00,4,1021.7,3.4,81,1,20000,18.52,,,340,4.1,6.2,,,,,5,,,,wg-a,,,,AAXX 01064 07481 12570 73410 10040 20010 39921 40217 53034 60054 8387/ 90600 333 10062 20041=
07481,1996-12-01 09:00:00,4,1024.3,2.5,81,1,500,7.408,,,20,,,,,,,,,,,wg-a,,,,AAXX 01094 07481 12500 /0204 10040 20010 39946 40243 51025 60006 81201 90900=
07481,1996-12-01 12:00:00,7,1023.8,-0.2,57,-1,50000,18.52,,,360,,,,,,,,,,,wg-a,,,,AAXX 01124 07481 12584 /3610 10070 21010 39944 40238 58002 60006 81231 91200=
07481,1996-12-01 15:00:00,6,1023,-0.8,61,-1,50000,14.816,,,360,,,,,,,,,,,wg-a,,,,AAXX 01154 07481 12/84 73608 10060 21010 39936 40230 58008 60006 85031 91500=
07481,1996-12-01 18:00:00,5,1023.7,0.4,70,0,40000,7.408,,,130,3.1,7.2,,,,,,,,,wg-a,,,,AAXX 01184 07481 12/82 71304 10050 20000 39941 40237 53004 60006 8707/ 91800 333 10072 20031=
07481,1996-12-01 21:00:00,5,1022.3,-1.4,75,1,20000,7.408,,,210,,,,,,,,,,,wg-a,,,,AAXX 01214 07481 12770 82104 10050 20010 39927 40223 58014 60006 8557/ 92100=
07481,1996-12-02 00:00:00,5,1021.2,-1,75,1,25000,7.408,,,140,,,,,,,,,,,wg-a,,,,AAXX 02004 07481 12575 81404 10050 20010 39917 40212 58010 60006 8652/ 90000=
07481,1996-12-02 03:00:00,5,1020.3,-0.8,70,0,25000,11.112,,,190,,,,,,,,,,,wg-a,,,,AAXX 02034 07481 12475 81906 10050 20000 39909 40203 56008 60006 885// 90300=
07481,1996-12-02 06:00:00,5,1021.2,0.8,81,2,20000,3.704,,,110,4,5.3,,,,,,,,,wg-a,,,,AAXX 02064 07481 02570 71102 10050 20020 39917 40212 53008 60006 8583/ 90600 333 10053 20040 60004=
07481,1996-12-02 09:00:00,5,1022.4,1.2,93,4,25000,0,,,0,,,,0,,,,,,21,wg-a,,,,AAXX 02094 07481 12475 70000 10050 20040 39929 40224 53012 60007 72162 8383/ 90900=
07481,1996-12-02 12:00:00,9,1022.2,0.2,71,4,25000,31.484,,,330,,,,,,,,,,2,wg-a,,,,AAXX 02124 07481 12575 73317 10090 20040 39931 40222 51002 60016 70262 83232 91200=
07481,1996-12-02 15:00:00,8,1022.1,-0.2,71,3,35000,11.112,,,330,,,,,,,,,,,wg-a,,,,AAXX 02154 07481 12681 /3306 10080 20030 39929 40221 55002 60006 82801 91500=
07481,1996-12-02 18:00:00,5,1023.6,1.1,81,2,15000,3.704,,,20,4.5,9.7,,,,,,,,,wg-a,,,,AAXX 02184 07481 32665 50202 10050 20020 39940 40236 53011 81131 91800 333 10097 20045=
07481,1996-12-02 21:00:00,5,1024.2,0.7,87,3,15000,11.112,,,160,,,,,,,,,,,wg-a,,,,AAXX 02214 07481 12665 71606 10050 20030 39947 40242 52007 60006 8123/ 92100=
07481,1996-12-03 00:00:00,3,1023.6,-0.7,93,2,15000,3.704,,,170,,,,,,,,,,,wg-a,,,,AAXX 03004 07481 12665 41702 10030 20020 39939 40236 56007 60006 81530 90000=
07481,1996-12-03 03:00:00,4,1022.2,-1.4,87,2,15000,11.112,,,170,,,,,,,,,,,wg-a,,,,AAXX 03034 07481 12565 71706 10040 20020 39925 40222 56014 60006 8553/ 90300=
07481,1996-12-03 06:00:00,4,1020.9,-1.2,87,2,12000,7.408,,,170,2.2,5.4,,,,,,,,,wg-a,,,,AAXX 03064 07481 02562 71704 10040 20020 39913 40209 57012 60006 8353/ 90600 333 10054 20022 60004=
07481,1996-12-03 09:00:00,4,1019.2,-1.8,87,2,9000,11.112,,,160,,,,,,,,,,,wg-a,,,,AAXX 03094 07481 12/59 71606 10040 20020 39897 40192 58018 60006 84032 90900=
07481,1996-12-03 12:00:00,8,1015.3,-3.3,76,4,15000,14.816,,,140,,,,,,,,,,,wg-a,,,,AAXX 03124 07481 12/65 71408 10080 20040 39863 40153 58033 60006 8703/ 91200=
07481,1996-12-03 15:00:00,8,1011.9,-3.3,76,4,500,14.816,,,130,,,,,,,,,,,wg-a,,,,AAXX 03154 07481 12/00 51308 10080 20040 39830 40119 56033 60006 85030 91500=
07481,1996-12-03 18:00:00,9,1009.9,-1.8,53,0,25000,25.928,,,180,2.9,9.8,,,,,,,,,wg-a,,,,AAXX 03184 07481 12775 51814 10090 20000 39811 40099 56018 60006 82530 91800 333 10098 20029=
07481,1996-12-03 21:00:00,9,1010.3,0.3,46,-2,25000,29.632,,50.004,180,,,,,,,,,,,wg-a,,,,AAXX 03214 07481 12/75 11816 10090 21020 39815 40103 53003 60006 81030 92100 333 91027=
07481,1996-12-04 00:00:00,8,1010.1,-0.4,66,2,25000,29.632,,,180,,,,,,,,,,,wg-a,,,,AAXX 04004 07481 12/75 11816 10080 20020 39812 40101 58004 60006 80002 90000=
07481,1996-12-04 03:00:00,7,1009.8,-0.2,66,1,25000,7.408,,,70,,,,,,,,,,,wg-a,,,,AAXX 04034 07481 12/75 10704 10070 20010 39809 40098 56002 60006 80002 90300=
07481,1996-12-04 06:00:00,7,1009.2,-0.6,66,1,20000,14.816,,,150,7.1,9.2,,,,,,,,,wg-a,,,,AAXX 04064 07481 02670 /1508 10070 20010 39803 40092 55006 60006 85500 90600 333 10092 20071 60004=
07481,1996-12-04 09:00:00,10,1009.8,0.8,71,5,35000,7.408,,,150,,,,,,,,,,,wg-a,,,,AAXX 04094 07481 12481 51504 10100 20050 39812 40098 53008 60006 84802 90900=
07481,1996-12-04 12:00:00,12,1009.7,0,67,6,40000,18.52,,,210,,,,,,,,,,,wg-a,,,,AAXX 04124 07481 12482 72110 10120 20060 39812 40097 50000 60006 878// 91200=
07481,1996-12-04 15:00:00,13,1009.1,-0.5,58,5,40000,25.928,,,210,,,,,,,,,,,wg-a,,,,AAXX 04154 07481 12482 62114 10130 20050 39807 40091 55005 60006 84802 91500=
07481,1996-12-04 18:00:00,11,1009,-0.2,66,5,35000,22.224,,,180,6.6,13.1,,,,,,,,,wg-a,,,,AAXX 04184 07481 12481 /1812 10110 20050 39805 40090 58002 60006 84802 91800 333 10131 20066=
07481,1996-12-04 21:00:00,9,1010.6,1.4,76,5,35000,14.816,,,160,,,,,,,,,,,wg-a,,,,AAXX 04214 07481 12781 /1608 10090 20050 39819 40106 51014 60006 83502 92100=
07481,1996-12-05 00:00:00,9,1011.3,0.6,71,4,35000,14.816,,,150,,,,,,,,,,,wg-a,,,,AAXX 05004 07481 12781 /1508 10090 20040 39825 40113 50006 60006 83502 90000=
07481,1996-12-05 03:00:00,8,1010.9,-0.5,71,3,40000,14.816,,,90,,,,,,,,,,,wg-a,,,,AAXX 05034 07481 12782 60908 10080 20030 39820 40109 56005 60006 835/2 90300=
07481,1996-12-05 06:00:00,8,1011,-0,71,3,500,29.632,,,150,6.9,11.4,,,,,,,,,wg-a,,,,AAXX 05064 07481 02700 71516 10080 20030 39821 40110 55000 60006 83532 90600 333 10114 20069 60004=
07481,1996-12-05 09:00:00,8,1012.1,1.1,71,3,25000,14.816,,,140,,,,,,,,,,,wg-a,,,,AAXX 05094 07481 12675 71408 10080 20030 39832 40121 51011 60006 8284/ 90900=
07481,1996-12-05 12:00:00,11,1011.5,-0.3,62,4,20000,11.112,,,130,,,,,,,,,,,wg-a,,,,AAXX 05124 07481 12770 71306 10110 20040 39829 40115 58003 60006 82542 91200=
07481,1996-12-05 15:00:00,12,1011.1,-0.3,58,4,40000,7.408,,,100,,,,,,,,,,,wg-a,,,,AAXX 05154 07481 12/82 71004 10120 20040 39826 40111 58003 60006 83042 91500=
07481,1996-12-05 18:00:00,8,1012.5,1,71,3,40000,7.408,,,130,7.6,13.6,,,,,,,,,wg-a,,,,AAXX 05184 07481 12/82 71304 10080 20030 39836 40125 51010 60006 84042 91800 333 10136 20076=
07481,1996-12-05 21:00:00,7,1013.2,0.4,70,2,500,3.704,,,140,,,,,,,,,,,wg-a,,,,AAXX 05214 07481 12/00 61402 10070 20020 39841 40132 51004 60006 84032 92100=
07481,1996-12-06 00:00:00,6,1013.7,0.4,81,3,25000,3.704,,,20,,,,,,,,,,,wg-a,,,,AAXX 06004 07481 12875 80202 10060 20030 39845 40137 52004 60006 8807/ 90000=
07481,1996-12-06 03:00:00,5,1014.6,0.8,87,3,10000,3.704,,,40,,,,,,,,,,,wg-a,,,,AAXX 06034 07481 12760 80402 10050 20030 39853 40146 51008 60006 8457/ 90300=
07481,1996-12-06 06:00:00,5,1015,0.3,81,2,10000,3.704,,,100,4.3,8.8,,,,,,,,,wg-a,,,,AAXX 06064 07481 02760 71002 10050 20020 39857 40150 53003 60006 83572 90600 333 10088 20043 60004=
07481,1996-12-06 09:00:00,6,1016,1.2,87,4,9000,3.704,,,200,,,,,,,,,,,wg-a,,,,AAXX 06094 07481 12759 72002 10060 20040 39868 40160 51012 60006 83572 90900=
07481,1996-12-06 12:00:00,8,1015.9,0.1,81,5,8000,3.704,,,70,,,,,,,,,,21,wg-a,,,,AAXX 06124 07481 02658 70702 10080 20050 39869 40159 51001 61000 72162 8657/ 91200 333 6100=
07481,1996-12-06 15:00:00,8,1016.1,0.2,81,5,8000,7.408,,,330,,,,,,,,,,,wg-a,,,,AAXX 06154 07481 12758 63304 10080 20050 39871 40161 53002 60006 84542 91500=
07481,1996-12-06 18:00:00,5,1018.1,1.6,93,4,10000,3.704,,,320,3.9,8.1,,,,,,,,,wg-a,,,,AAXX 06184 07481 32760 63202 10050 20040 39887 40181 52016 84542 91800 333 10081 20039=
07481,1996-12-06 21:00:00,5,1018.9,0.7,93,4,10000,0,,,0,,,,,,,,,,11,wg-a,,,,AAXX 06214 07481 12760 60000 10050 20040 39894 40189 51007 60006 71122 8254/ 92100=
07481,1996-12-07 00:00:00,3,1019.6,0.7,100,3,500,3.704,,,30,,,,,,,,,,40,wg-a,,,,AAXX 07004 07481 12700 50302 10030 20030 39900 40196 51007 60006 74011 81540 90000=
07481,1996-12-07 03:00:00,3,1020.1,0.5,100,3,1200,0,,,0,,,,,,,,,,40,wg-a,,,,AAXX 07034 07481 12712 70000 10030 20030 39905 40201 52005 60006 74042 81530 90300=
07481,1996-12-07 06:00:00,2,1021.5,1.2,100,2,500,3.704,,,180,1.1,5.5,,,,,,,,41,wg-a,,,,AAXX 07064 07481 02205 21802 10020 20020 39917 40215 53012 60006 74141 82600 90600 333 10055 20011 61000=
07481,1996-12-07 09:00:00,2,1023.3,1.8,100,2,100,3.704,,,150,,,,,,,,,,44,wg-a,,,,AAXX 07094 07481 12/01 /1502 10020 20020 39934 40233 51018 60006 74444 81031 90900=
07481,1996-12-07 12:00:00,4,1022.8,-0.3,100,4,900,3.704,,,350,,,,,,,,,,44,wg-a,,,,AAXX 07124 07481 12609 /3502 10040 20040 39932 40228 58003 60006 74444 83530 91200=
07481,1996-12-07 15:00:00,6,1022.1,-0.5,93,5,4000,3.704,,,150,,,,,,,,,,10,wg-a,,,,AAXX 07154 07481 12840 51502 10060 20050 39927 40221 55005 60006 71041 81031 91500=
07481,1996-12-07 18:00:00,3,1023.4,1,100,3,2000,3.704,,,290,1.4,6.1,,,,,,,,40,wg-a,,,,AAXX 07184 07481 12820 22902 10030 20030 39937 40234 53010 60006 74041 81031 91800 333 10061 20014=
07481,1996-12-07 21:00:00,1,1024.1,0.4,100,1,500,7.408,,,30,,,,,,,,,,44,wg-a,,,,AAXX 07214 07481 12/00 90304 10010 20010 39941 40241 50004 60006 74441 89/// 92100=
07481,1996-12-08 00:00:00,2,1024.3,0.3,93,1,200,3.704,,,350,,,,,,,,,,,wg-a,,,,AAXX 08004 07481 12/02 /3502 10020 20010 39944 40243 50003 60006 90000=
07481,1996-12-08 03:00:00,1,1023.3,-1,100,1,300,3.704,,,360,,,,,,,,,,45,wg-a,,,,AAXX 08034 07481 12/03 93602 10010 20010 39934 40233 58010 60006 74544 89/// 90300=
07481,1996-12-08 06:00:00,1,1023.8,0.4,93,0,800,3.704,,,320,0.4,3.4,,,,,,,,43,wg-a,,,,AAXX 08064 07481 02/08 93202 10010 20000 39938 40238 53004 60006 74344 89/// 90600 333 10034 20004 60004=
07481,1996-12-08 09:00:00,1,1024.1,0.2,93,0,1200,7.408,,,350,,,,,,,,,,40,wg-a,,,,AAXX 08094 07481 12112 83504 10010 20000 39940 40241 50002 60006 74042 886// 90900=
07481,1996-12-08 12:00:00,1,1023.5,-0.4,100,1,1600,7.408,,,340,,,,,,,,,,10,wg-a,,,,AAXX 08124 07481 12116 83404 10010 20010 39935 40235 58004 60006 71042 886// 91200=
07481,1996-12-08 15:00:00,1,1022.5,-1,100,1,2000,7.408,,,30,,,,,,,,,,10,wg-a,,,,AAXX 08154 07481 12120 80304 10010 20010 39925 40225 58010 60006 71022 886// 91500=
07481,1996-12-08 18:00:00,0,1022.9,0.4,100,0,4500,7.408,,,350,0.3,0.9,,,,,,,,,wg-a,,,,AAXX 08184 07481 12/45 /3504 10000 20000 39929 40229 51004 60006 91800 333 10009 20003=
07481,1996-12-08 21:00:00,0,1023,0.1,100,0,4000,7.408,,,360,,,,,,,,,,10,wg-a,,,,AAXX 08214 07481 12140 83604 10000 20000 39930 40230 53001 60006 71022 886// 92100=
07481,1996-12-09 00:00:00,0,1022.4,-0.6,100,0,4500,7.408,,,310,,,,,,,,,,10,wg-a,,,,AAXX 09004 07481 12145 83104 10000 20000 39924 40224 58006 60006 71022 886// 90000=
07481,1996-12-09 03:00:00,0,1021,-1.3,100,0,500,7.408,,,340,,,,,,,,,,,wg-a,,,,AAXX 09034 07481 12100 83404 10000 20000 39910 40210 58013 60006 886// 90300=
07481,1996-12-09 06:00:00,0,1019.6,-1.4,100,0,500,7.408,,,340,0.1,0.5,,,,,,,,,wg-a,,,,AAXX 09064 07481 02100 83404 10000 20000 39896 40196 58014 60006 886// 90600 333 10005 20001 60004=
07481,1996-12-09 09:00:00,0,1018.9,-0.5,100,0,2500,11.112,,,340,,,,,,,,,,10,wg-a,,,,AAXX 09094 07481 12125 83406 10000 20000 39890 40189 58005 60006 71022 886// 90900=
07481,1996-12-09 12:00:00,0,1017.9,-1.1,100,0,2500,7.408,,,310,,,,,,,,,,10,wg-a,,,,AAXX 09124 07481 12125 83104 10000 20000 39880 40179 58011 60006 71022 886// 91200=
07481,1996-12-09 15:00:00,0,1018.3,0.4,100,0,2200,3.704,,,310,,,,,,,,,,10,wg-a,,,,AAXX 09154 07481 12122 83102 10000 20000 39884 40183 53004 60006 71022 886// 91500=
07481,1996-12-09 18:00:00,0,1018.2,-0.1,100,0,3500,0,,,0,0,0.5,,,,,,,,10,wg-a,,,,AAXX 09184 07481 12135 80000 10000 20000 39883 40182 58001 60006 71022 886// 91800 333 10005 20000=
07481,1996-12-09 21:00:00,0,1018.5,0.2,93,-1,4500,7.408,,,50,,,,,,,,,,10,wg-a,,,,AAXX 09214 07481 12145 80504 10000 21010 39885 40185 50002 60006 71022 886// 92100=
07481,1996-12-10 00:00:00,0,1018.3,0,100,0,4500,3.704,,,340,,,,,,,,,,10,wg-a,,,,AAXX 10004 07481 12145 83402 10000 20000 39884 40183 50000 60006 71042 886// 90000=
07481,1996-12-10 03:00:00,0,1016,-2.4,100,0,1600,11.112,,,330,,,,,,,,,,10,wg-a,,,,AAXX 10034 07481 12016 83306 10000 20000 39861 40160 58024 60006 71022 886// 90300=
07481,1996-12-10 06:00:00,0,1014.4,-1.5,100,0,1600,11.112,,,340,-0.2,0.3,,,,,,,,10,wg-a,,,,AAXX 10064 07481 02016 83406 10000 20000 39846 40144 56015 60006 71022 886// 90600 333 10003 21002 60004=
07481,1996-12-10 09:00:00,0,1014.9,0.5,100,0,1600,11.112,,,350,,,,,,,,,,10,wg-a,,,,AAXX 10094 07481 12116 83506 10000 20000 39851 40149 53005 60006 71022 886// 90900=
07481,1996-12-10 12:00:00,0,1014.5,-0.4,100,0,2500,3.704,,,350,,,,,,,,,,10,wg-a,,,,AAXX 10124 07481 12125 83502 10000 20000 39847 40145 58004 60006 71022 886// 91200=
07481,1996-12-10 15:00:00,0,1014.1,-0.4,100,0,3000,7.408,,,350,,,,,,,,,,10,wg-a,,,,AAXX 10154 07481 12130 83504 10000 20000 39843 40141 56004 60006 71022 886// 91500=
07481,1996-12-10 18:00:00,0,1015.6,1.4,100,0,2500,7.408,,,10,-0.1,0.5,,,,,,,,10,wg-a,,,,AAXX 10184 07481 12125 80104 10000 20000 39858 40156 51014 60006 71022 886// 91800 333 10005 21001=
07481,1996-12-10 21:00:00,1,1016.7,1.1,93,0,4000,3.704,,,30,,,,,,,,,,10,wg-a,,,,AAXX 10214 07481 12240 80302 10010 20000 39869 40167 51011 60006 71022 886// 92100=
07481,1996-12-11 00:00:00,1,1016.7,-0,93,0,7000,7.408,,,150,,,,,,,,,,,wg-a,,,,AAXX 11004 07481 12257 81504 10010 20000 39869 40167 55000 60006 886// 90000=
07481,1996-12-11 03:00:00,0,1016.6,-0.2,93,-1,6000,3.704,,,200,,,,,,,,,,,wg-a,,,,AAXX 11034 07481 12156 82002 10000 21010 39867 40166 58002 60006 886// 90300=
07481,1996-12-11 06:00:00,0,1016.7,0.1,93,-1,1500,7.408,,,130,-0.1,0.6,,,,,,,,10,wg-a,,,,AAXX 11064 07481 02115 81304 10000 21010 39868 40167 53001 60006 71022 886// 90600 333 10006 21001 60004=
07481,1996-12-11 09:00:00,0,1017.5,0.9,100,0,700,3.704,,,250,,,,,,,,,,45,wg-a,,,,AAXX 11094 07481 12/07 92502 10000 20000 39876 40175 53009 60006 74542 89/// 90900=
07481,1996-12-11 12:00:00,2,1016.6,-0.8,100,2,1700,7.408,,,120,,,,,,,,,,,wg-a,,,,AAXX 11124 07481 12/17 /1204 10020 20020 39869 40166 58008 60006 91200=
07481,1996-12-11 15:00:00,3,1015.5,-0.9,93,2,3500,3.704,,,200,,,,,,,,,,10,wg-a,,,,AAXX 11154 07481 12235 /2002 10030 20020 39860 40155 56009 60006 71022 876// 91500=
07481,1996-12-11 18:00:00,3,1016.2,0.6,93,2,3500,7.408,,,140,-0.1,3.2,,,,,,,,10,wg-a,,,,AAXX 11184 07481 12135 81404 10030 20020 39866 40162 53006 60006 71022 886// 91800 333 10032 21001=
07481,1996-12-11 21:00:00,1,1016.6,0.3,100,1,300,7.408,,,120,,,,,,,,,,44,wg-a,,,,AAXX 11214 07481 12/03 91204 10010 20010 39869 40166 50003 60006 74442 89/// 92100=
07481,1996-12-12 00:00:00,1,1015.6,-1.1,93,0,500,7.408,,,260,,,,,,,,,,44,wg-a,,,,AAXX 12004 07481 12105 92604 10010 20000 39858 40156 56011 60006 74442 896// 90000=
07481,1996-12-12 03:00:00,-1,1015.4,-0.3,100,-1,300,7.408,,,110,,,,,,,,,,45,wg-a,,,,AAXX 12034 07481 12/03 91104 11010 21010 39855 40154 58003 60006 74544 89/// 90300=
07481,1996-12-12 06:00:00,-2,1014.9,-0.6,100,-2,500,0,,,0,-1.6,2.9,,,,,,,,44,wg-a,,,,AAXX 12064 07481 02/05 00000 11020 21020 39849 40149 56006 60006 74441 80000 90600 333 10029 21016 60004=
07481,1996-12-12 09:00:00,1,1015.2,0.6,100,1,4500,7.408,,,150,,,,,,,,,,10,wg-a,,,,AAXX 12094 07481 12/45 71504 10010 20010 39855 40152 51006 60006 71041 8707/ 90900=
07481,1996-12-12 12:00:00,6,1013.8,-1,87,4,12000,11.112,,,150,,,,,,,,,,2,wg-a,,,,AAXX 12124 07481 12662 71506 10060 20040 39846 40138 58010 60006 70241 8157/ 91200=
07481,1996-12-12 15:00:00,7,1012.3,-1.2,87,5,25000,14.816,,,110,,,,0,,,,,,21,wg-a,,,,AAXX 12154 07481 12675 71108 10070 20050 39833 40123 56012 60007 72162 8257/ 91500=
07481,1996-12-12 18:00:00,6,1011.6,-0.7,87,4,20000,18.52,,,120,-2.1,8.1,,,,,,,,1,wg-a,,,,AAXX 12184 07481 32/70 41210 10060 20040 39825 40116 58007 70161 84030 91800 333 10081 21021=
07481,1996-12-12 21:00:00,8,1010.5,-0.9,87,6,40000,18.52,,,160,,,,,,,,,,,wg-a,,,,AAXX 12214 07481 12582 /1610 10080 20060 39817 40105 58009 60006 81230 92100=
07481,1996-12-13 00:00:00,9,1009.2,-1.1,81,6,40000,11.112,,,180,,,,,,,,,,60,wg-a,,,,AAXX 13004 07481 02582 81806 10090 20060 39805 40092 58011 61000 76061 81230 90000 333 6100=
07481,1996-12-13 03:00:00,7,1006.8,-2.5,100,7,40000,11.112,,,140,,,,1,,,,,,60,wg-a,,,,AAXX 13034 07481 12582 81406 10070 20070 39780 40068 58025 60017 76066 81230 90300=
07481,1996-12-13 06:00:00,7,1004.9,-1.9,93,6,20000,11.112,,,110,5.4,9.4,,1,,,2,,,60,wg-a,,,,AAXX 13064 07481 02470 81106 10070 20060 39761 40049 56019 60024 76066 8323/ 90600 333 10094 20054 60017=
07481,1996-12-13 09:00:00,8,1003.6,-1.1,93,7,12000,11.112,,,130,,,,1,,,,,,2,wg-a,,,,AAXX 13094 07481 12462 81306 10080 20070 39750 40036 56011 60017 70262 875// 90900=
07481,1996-12-13 12:00:00,9,1001.5,-2,93,8,6000,14.816,,,100,,,,2,,,,,,2,wg-a,,,,AAXX 13124 07481 02456 81008 10090 20080 39730 40015 58020 60036 70262 875// 91200 333 60027=
07481,1996-12-13 15:00:00,9,999.6,-1.8,93,8,8000,7.408,,,140,,,,1,,,,,,1,wg-a,,,,AAXX 13154 07481 12458 81404 10090 20080 39712 49996 56018 60017 70162 8287/ 91500=
07481,1996-12-13 18:00:00,8,999.6,-0.1,93,7,10000,11.112,,,130,6.7,9.4,,,,,,,,3,wg-a,,,,AAXX 13184 07481 32560 71306 10080 20070 39711 49996 55001 70362 8287/ 91800 333 10094 20067=
07481,1996-12-13 21:00:00,8,999.6,-0,100,8,3500,3.704,,,170,,,,4,,,,,,61,wg-a,,,,AAXX 13214 07481 12235 81702 10080 20080 39711 49996 55000 60047 76162 888// 92100=
07481,1996-12-14 00:00:00,8,999.2,-0.4,93,7,7000,7.408,,,160,,,,1,,,,,,2,wg-a,,,,AAXX 14004 07481 02257 81604 10080 20070 39707 49992 57004 60056 70262 887// 90000 333 60017=
07481,1996-12-14 03:00:00,8,999.1,-0.1,93,7,700,3.704,,,110,,,,0,,,,,,41,wg-a,,,,AAXX 14034 07481 12107 81102 10080 20070 39706 49991 56001 60007 74164 886// 90300=
07481,1996-12-14 06:00:00,8,1000.1,0.9,100,8,1200,14.816,,,340,7.5,8.3,,1,,,9,,,45,wg-a,,,,AAXX 14064 07481 02112 93408 10080 20080 39715 40001 53009 60094 74564 897// 90600 333 10083 20075 60017=
07481,1996-12-14 09:00:00,7,1002.3,2,93,6,9000,18.52,,,340,,,,3,,,,,,60,wg-a,,,,AAXX 14094 07481 12259 83410 10070 20060 39735 40023 53020 60037 76066 877// 90900=
07481,1996-12-14 12:00:00,5,1004.1,1.6,100,5,8000,25.928,,,350,,,,,,,,,,3,wg-a,,,,AAXX 14124 07481 02158 83514 10050 20050 39751 40041 51016 60036 70362 886// 91200 333 61000=
07481,1996-12-14 15:00:00,4,1006.6,2.3,93,3,8000,25.928,,,350,,,,,,,,,,,wg-a,,,,AAXX 14154 07481 12258 83514 10040 20030 39774 40066 53023 60006 886// 91500=
07481,1996-12-14 18:00:00,4,1009.2,2.4,87,2,8000,25.928,,,340,3.5,7.7,,,,,,,,,wg-a,,,,AAXX 14184 07481 32258 83414 10040 20020 39799 40092 52024 886// 91800 333 10077 20035=
07481,1996-12-14 21:00:00,3,1011.3,1.9,93,2,10000,22.224,,,340,,,,,,,,,,,wg-a,,,,AAXX 14214 07481 12260 83412 10030 20020 39819 40113 51019 60006 886// 92100=
07481,1996-12-15 00:00:00,3,1012.9,1.6,87,1,10000,18.52,,,350,,,,,,,,,,,wg-a,,,,AAXX 15004 07481 12360 83510 10030 20010 39834 40129 51016 60006 886// 90000=
07481,1996-12-15 03:00:00,2,1015.1,2.1,93,1,15000,22.224,,,350,,,,,,,,,,,wg-a,,,,AAXX 15034 07481 12365 83512 10020 20010 39855 40151 52021 60006 886// 90300=
07481,1996-12-15 06:00:00,2,1016.2,1,93,1,15000,11.112,,,340,2,3.6,,,,,3,,,,wg-a,,,,AAXX 15064 07481 02365 83406 10020 20010 39866 40162 53010 60006 886// 90600 333 10036 20020 60034=
07481,1996-12-15 09:00:00,2,1018.2,1.9,93,1,12000,11.112,,,340,,,,,,,,,,,wg-a,,,,AAXX 15094 07481 12362 83406 10020 20010 39885 40182 51019 60006 885// 90900=
07481,1996-12-15 12:00:00,3,1018.3,0.2,87,1,12000,14.816,,,350,,,,,,,,,,,wg-a,,,,AAXX 15124 07481 12462 83508 10030 20010 39887 40183 50002 60006 886// 91200=
07481,1996-12-15 15:00:00,3,1018.3,-0,87,1,20000,11.112,,,340,,,,,,,,,,,wg-a,,,,AAXX 15154 07481 12470 73406 10030 20010 39887 40183 55000 60006 875// 91500=
07481,1996-12-15 18:00:00,3,1019.3,0.9,87,1,22000,7.408,,,330,2,3.4,,,,,,,,,wg-a,,,,AAXX 15184 07481 12472 83304 10030 20010 39896 40193 52009 60006 885// 91800 333 10034 20020=
07481,1996-12-15 21:00:00,2,1019.6,0.3,93,1,15000,7.408,,,310,,,,,,,,,,,wg-a,,,,AAXX 15214 07481 12465 83104 10020 20010 39899 40196 51003 60006 875// 92100=
07481,1996-12-16 00:00:00,2,1019,-0.6,93,1,12000,3.704,,,310,,,,,,,,,,,wg-a,,,,AAXX 16004 07481 12462 83102 10020 20010 39893 40190 58006 60006 885// 90000=
07481,1996-12-16 03:00:00,2,1018.5,-0.5,87,0,10000,3.704,,,320,,,,,,,,,,,wg-a,,,,AAXX 16034 07481 12460 83202 10020 20000 39888 40185 56005 60006 885// 90300=
07481,1996-12-16 06:00:00,0,1017.7,-0.9,93,-1,10000,3.704,,,160,0.2,2.7,,,,,,,,,wg-a,,,,AAXX 16064 07481 02/60 01602 10000 21010 39878 40177 56009 60006 80000 90600 333 10027 20002 60004=
07481,1996-12-16 09:00:00,1,1018.2,0.6,93,0,2500,3.704,,,60,,,,,,,,,,10,wg-a,,,,AAXX 16094 07481 12425 /0602 10010 20000 39884 40182 53006 60006 71000 81500 90900=
07481,1996-12-16 12:00:00,7,1016.2,-1.3,81,4,7000,7.408,,,280,,,,,,,,,,,wg-a,,,,AAXX 16124 07481 12557 /2804 10070 20040 39871 40162 58013 60006 81100 91200=
07481,1996-12-16 15:00:00,8,1015,-1.1,81,5,9000,7.408,,,50,,,,,,,,,,,wg-a,,,,AAXX 16154 07481 12459 /0504 10080 20050 39860 40150 56011 60006 81100 91500=
07481,1996-12-16 18:00:00,8,1016.1,1.1,76,4,15000,18.52,,,170,-0.7,10.1,,,,,,,,,wg-a,,,,AAXX 16184 07481 12/65 11710 10080 20040 39871 40161 53011 60006 80001 91800 333 10101 21007=
07481,1996-12-16 21:00:00,8,1016.7,0.4,76,4,20000,3.704,,,150,,,,,,,,,,,wg-a,,,,AAXX 16214 07481 12/70 01502 10080 20040 39876 40167 53004 60006 80000 92100=
07481,1996-12-17 00:00:00,8,1016.9,0.4,81,5,20000,22.224,,,180,,,,,,,,,,,wg-a,,,,AAXX 17004 07481 12/70 01812 10080 20050 39879 40169 50004 60006 80000 90000=
07481,1996-12-17 03:00:00,8,1016.9,-0,81,5,20000,18.52,,,180,,,,,,,,,,,wg-a,,,,AAXX 17034 07481 12/70 31810 10080 20050 39879 40169 55000 60006 80001 90300=
07481,1996-12-17 06:00:00,8,1016.2,-0.8,76,4,20000,22.224,,,170,7.2,8.5,,,,,,,,,wg-a,,,,AAXX 17064 07481 02/70 31712 10080 20040 39871 40162 57008 60006 80001 90600 333 10085 20072 60004=
07481,1996-12-17 09:00:00,9,1016.9,0.9,71,4,27000,18.52,,,170,,,,,,,,,,,wg-a,,,,AAXX 17094 07481 12/77 31710 10090 20040 39880 40169 51009 60006 81032 90900=
07481,1996-12-17 12:00:00,12,1016,-0.7,67,6,27000,35.188,,59.264,200,,,,,,,,,,,wg-a,,,,AAXX 17124 07481 12/77 52019 10120 20060 39874 40160 58007 60006 83042 91200 333 91032=
07481,1996-12-17 15:00:00,12,1014.9,-1,67,6,27000,31.484,,57.412,190,,,,,,,,,,,wg-a,,,,AAXX 17154 07481 12/77 71917 10120 20060 39863 40149 56010 60006 8707/ 91500 333 91031=
07481,1996-12-17 18:00:00,10,1015.6,0.5,76,6,27000,14.816,,,150,5.9,12.5,,,,,,,,,wg-a,,,,AAXX 17184 07481 12/77 61508 10100 20060 39868 40156 51005 60006 85071 91800 333 10125 20059=
07481,1996-12-17 21:00:00,9,1016,0.3,81,6,40000,18.52,,,170,,,,,,,,,,,wg-a,,,,AAXX 17214 07481 12/82 01710 10090 20060 39871 40160 51003 60006 80000 92100=
07481,1996-12-18 00:00:00,7,1015.6,-0.6,87,5,40000,11.112,,,150,,,,,,,,,,,wg-a,,,,AAXX 18004 07481 12/82 11506 10070 20050 39865 40156 56006 60006 80001 90000=
07481,1996-12-18 03:00:00,7,1013.7,-1.7,81,4,40000,14.816,,,150,,,,,,,,,,,wg-a,,,,AAXX 18034 07481 12/82 01508 10070 20040 39847 40137 56017 60006 80000 90300=
07481,1996-12-18 06:00:00,7,1012.5,-1.2,81,4,40000,18.52,,,140,5.3,9.9,,,,,,,,,wg-a,,,,AAXX 18064 07481 02/82 01410 10070 20040 39835 40125 58012 60006 80000 90600 333 10099 20053 60004=
07481,1996-12-18 09:00:00,9,1012.1,-0.2,76,5,40000,14.816,,,150,,,,,,,,,,,wg-a,,,,AAXX 18094 07481 12482 21508 10090 20050 39833 40121 55002 60006 81801 90900=
07481,1996-12-18 12:00:00,13,1009.8,-1.8,62,6,40000,31.484,,,190,,,,,,,,,,,wg-a,,,,AAXX 18124 07481 12582 51917 10130 20060 39815 40098 58018 60006 81141 91200=
07481,1996-12-18 15:00:00,12,1008.4,-1.5,71,7,11000,14.816,,,190,,,,,,,,,,,wg-a,,,,AAXX 18154 07481 12/61 /1908 10120 20070 39800 40084 56015 60006 91500=
07481,1996-12-18 18:00:00,10,1008,-0.6,76,6,40000,14.816,,,160,6.4,13.5,,,,,,,,,wg-a,,,,AAXX 18184 07481 12/82 01608 10100 20060 39794 40080 57006 60006 80000 91800 333 10135 20064=
07481,1996-12-18 21:00:00,10,1007.2,-0.7,82,7,40000,14.816,,,160,,,,,,,,,,,wg-a,,,,AAXX 18214 07481 12682 21608 10100 20070 39787 40072 58007 60006 81540 92100=
07481,1996-12-19 00:00:00,11,1006.3,-0.8,82,8,500,11.112,,,180,,,,,,,,,,,wg-a,,,,AAXX 19004 07481 12500 71806 10110 20080 39779 40063 58008 60006 8387/ 90000=
07481,1996-12-19 03:00:00,9,1005.8,-0.7,93,8,20000,7.408,,,90,,,,1,,,,,,21,wg-a,,,,AAXX 19034 07481 12570 80904 10090 20080 39772 40058 56007 60017 72162 8387/ 90300=
07481,1996-12-19 06:00:00,8,1004.7,-1.2,93,7,20000,18.52,,,130,8.2,11.1,,,,,,,,60,wg-a,,,,AAXX 19064 07481 02570 81310 10080 20070 39761 40047 58012 61000 76062 8487/ 90600 333 10111 20082 6002=
07481,1996-12-19 09:00:00,9,1004.5,-0.2,93,8,12000,18.52,,,130,,,,0,,,,,,61,wg-a,,,,AAXX 19094 07481 12562 81310 10090 20080 39759 40045 56002 60007 76166 8587/ 90900=
07481,1996-12-19 12:00:00,8,1003.9,-0.7,100,8,500,11.112,,,150,,,,,,,,,,,wg-a,,,,AAXX 19124 07481 12/00 /1506 10080 20080 39753 40039 58007 60116 91200=
07481,1996-12-19 15:00:00,8,1002.8,-1.1,93,7,2500,14.816,,,150,,,,16,,,,,,63,wg-a,,,,AAXX 19154 07481 12425 81508 10080 20070 39742 40028 56011 60167 76366 8682/ 91500=
07481,1996-12-19 18:00:00,8,1002.7,-0.1,100,8,500,14.816,,,150,7.6,9.1,,,,,,,,61,wg-a,,,,AAXX 19184 07481 02300 81508 10080 20080 39741 40027 57001 61000 76166 8682/ 91800 333 10091 20076 6013=
07481,1996-12-19 21:00:00,8,1002.5,-0.2,100,8,7000,7.408,,,150,,,,2,,,,,,61,wg-a,,,,AAXX 19214 07481 12557 81504 10080 20080 39739 40025 55002 60027 76166 875// 92100=
07481,1996-12-20 00:00:00,8,1002.3,-0.1,100,8,10000,7.408,,,220,,,,0,,,,,,3,wg-a,,,,AAXX 20004 07481 02660 82204 10080 20080 39737 40023 55001 60026 70362 875// 90000 333 60007=
07481,1996-12-20 03:00:00,8,1001.8,-0.5,93,7,12000,3.704,,,140,,,,0,,,,,,21,wg-a,,,,AAXX 20034 07481 12562 81402 10080 20070 39732 40018 56005 60007 72162 875// 90300=
07481,1996-12-20 06:00:00,7,1001,-0.8,100,7,10000,7.408,,,120,7.2,8.1,,,,,,,,21,wg-a,,,,AAXX 20064 07481 02460 81204 10070 20070 39724 40010 56008 61000 72162 878// 90600 333 10081 20072 6043=
07481,1996-12-20 09:00:00,8,1002.6,1.6,93,7,11000,7.408,,,160,,,,,,,,,,,wg-a,,,,AAXX 20094 07481 12/61 /1604 10080 20070 39740 40026 51016 60006 90900=
07481,1996-12-20 12:00:00,10,1002.3,-0.1,93,9,11000,11.112,,,80,,,,,,,,,,,wg-a,,,,AAXX 20124 07481 12/61 /0806 10100 20090 39739 40023 58001 60006 91200=
07481,1996-12-20 15:00:00,10,1002.1,-0.1,93,9,12000,3.704,,,280,,,,,,,,,,,wg-a,,,,AAXX 20154 07481 12462 72802 10100 20090 39738 40021 56001 60006 878// 91500=
07481,1996-12-20 18:00:00,8,1003.3,0.9,93,7,10000,7.408,,,160,7.1,10.6,,,,,,,,,wg-a,,,,AAXX 20184 07481 12460 71604 10080 20070 39747 40033 53009 60006 85101 91800 333 10106 20071=
07481,1996-12-20 21:00:00,7,1004,0.6,93,6,10000,14.816,,,160,,,,,,,,,,11,wg-a,,,,AAXX 20214 07481 12560 71608 10070 20060 39753 40040 50006 60006 71111 82502 92100=
07481,1996-12-21 00:00:00,6,1004.6,0.5,100,6,8000,0,,,0,,,,,,,,,,11,wg-a,,,,AAXX 21004 07481 12558 /0000 10060 20060 39758 40046 53005 60006 71111 85500 90000=
07481,1996-12-21 03:00:00,6,1004.8,0.1,100,6,10000,7.408,,,120,,,,,,,,,,,wg-a,,,,AAXX 21034 07481 12760 71204 10060 20060 39759 40048 53001 60006 86502 90300=
07481,1996-12-21 06:00:00,6,1004.5,-0.3,93,5,10000,7.408,,,130,4.8,8.6,,,,,,,,11,wg-a,,,,AAXX 21064 07481 02760 51304 10060 20050 39756 40045 55003 60006 71111 82502 90600 333 10086 20048 60004=
07481,1996-12-21 09:00:00,8,1005.1,0.8,87,6,500,14.816,,,150,,,,,,,,,,,wg-a,,,,AAXX 21094 07481 12300 71508 10080 20060 39764 40051 52008 60006 82832 90900=
07481,1996-12-21 12:00:00,10,1004.3,-0.6,82,7,500,7.408,,,110,,,,,,,,,,,wg-a,,,,AAXX 21124 07481 12400 71104 10100 20070 39758 40043 58006 60006 878// 91200=
07481,1996-12-21 15:00:00,8,1004.5,-0,93,7,7000,7.408,,,40,,,,1,,,,,,61,wg-a,,,,AAXX 21154 07481 12757 80404 10080 20070 39758 40045 55000 60017 76162 8557/ 91500=
07481,1996-12-21 18:00:00,7,1005,0.4,100,7,7000,3.704,,,20,5.6,10.2,,,,,,,,60,wg-a,,,,AAXX 21184 07481 02557 70202 10070 20070 39762 40050 51004 61000 76062 8457/ 91800 333 10102 20056 6001=
07481,1996-12-21 21:00:00,7,1005.9,0.9,100,7,8000,7.408,,,90,,,,2,,,,,,12,wg-a,,,,AAXX 21214 07481 12758 /0904 10070 20070 39771 40059 51009 60027 71262 8457/ 92100=
07481,1996-12-22 00:00:00,8,1006.7,0.8,93,7,20000,3.704,,,110,,,,,,,,,,3,wg-a,,,,AAXX 22004 07481 12770 81102 10080 20070 39779 40067 51008 60026 70362 8357/ 90000=
07481,1996-12-22 03:00:00,7,1007.2,0.2,87,5,20000,7.408,,,150,,,,0,,,,,,,wg-a,,,,AAXX 22034 07481 12770 31504 10070 20050 39783 40072 50002 60007 82501 90300=
07481,1996-12-22 06:00:00,6,1007.3,0.2,93,5,10000,14.816,,,140,5.7,8.1,,,,,4,,,,wg-a,,,,AAXX 22064 07481 02/60 /1408 10060 20050 39784 40073 53002 60006 90600 333 10081 20057 60044=
07481,1996-12-22 09:00:00,8,1007.8,0.6,87,6,15000,11.112,,,140,,,,,,,,,,21,wg-a,,,,AAXX 22094 07481 02765 81406 10080 20060 39790 40078 53006 61000 72162 8157/ 90900 333 ////=
07481,1996-12-22 12:00:00,9,1005.9,-1.8,81,6,15000,18.52,,,130,,,,,,,,,,2,wg-a,,,,AAXX 22124 07481 12565 81310 10090 20060 39772 40059 58018 60006 70262 8287/ 91200=
07481,1996-12-22 15:00:00,8,1005.1,-0.7,93,7,15000,7.408,,,30,,,,,,,,,,,wg-a,,,,AAXX 22154 07481 12565 80304 10080 20070 39765 40051 55007 60006 8287/ 91500=
07481,1996-12-22 18:00:00,6,1005,-0.4,100,6,9000,7.408,,,340,6.3,9.7,,,,,,,,,wg-a,,,,AAXX 22184 07481 12559 83404 10060 20060 39761 40050 57004 60006 8187/ 91800 333 10097 20063=
07481,1996-12-22 21:00:00,6,1003.3,-1.6,100,6,1800,7.408,,,360,,,,1,,,,,,10,wg-a,,,,AAXX 22214 07481 12118 83604 10060 20060 39745 40033 58016 60017 71062 8677/ 92100=
07481,1996-12-23 00:00:00,6,1002.7,-0.6,100,6,4500,3.704,,,90,,,,3,,,,,,10,wg-a,,,,AAXX 23004 07481 02145 80902 10060 20060 39739 40027 58006 60046 71062 8357/ 90000 333 60037=
07481,1996-12-23 03:00:00,7,999.9,-2.7,93,6,8000,3.704,,,290,,,,2,,,,,,61,wg-a,,,,AAXX 23034 07481 12558 82902 10070 20060 39712 49999 56027 60027 76162 8357/ 90300=
07481,1996-12-23 06:00:00,8,997.8,-1.9,93,7,8000,18.52,,,150,5.9,8,,,,,,,,61,wg-a,,,,AAXX 23064 07481 02458 81510 10080 20070 39693 49978 56019 61000 76162 8557/ 90600 333 10080 20059 6012=
07481,1996-12-23 09:00:00,11,997.3,-0.2,94,10,6000,14.816,,,190,,,,10,,,,,,61,wg-a,,,,AAXX 23094 07481 12456 71908 10110 20100 39691 49973 58002 60107 76166 8452/ 90900=
07481,1996-12-23 12:00:00,12,997,-0.3,82,9,15000,22.224,,,200,,,,,,,,,,3,wg-a,,,,AAXX 23124 07481 02565 82012 10120 20090 39689 49970 58003 60106 70362 8487/ 91200 333 61000=
07481,1996-12-23 15:00:00,11,997.1,0.2,94,10,8000,11.112,,,240,,,,2,,,,,,60,wg-a,,,,AAXX 23154 07481 12558 82406 10110 20100 39690 49971 53002 60027 76062 8587/ 91500=
07481,1996-12-23 18:00:00,10,998.1,0.8,93,9,9000,7.408,,,150,7.5,12.2,,,,,,,,61,wg-a,,,,AAXX 23184 07481 02259 81504 10100 20090 39698 49981 51008 61000 76162 8587/ 91800 333 10122 20075 6001=
07481,1996-12-23 21:00:00,9,997.9,-0.3,93,8,15000,7.408,,,100,,,,1,,,,,,1,wg-a,,,,AAXX 23214 07481 12665 /1004 10090 20080 39695 49979 58003 60017 70161 84500 92100=
07481,1996-12-24 00:00:00,8,997.4,-0.6,100,8,4000,0,,,0,,,,,,,,,,11,wg-a,,,,AAXX 24004 07481 12440 70000 10080 20080 39689 49974 58006 60016 71161 87800 90000=
07481,1996-12-24 03:00:00,8,996.7,-0.6,100,8,500,7.408,,,50,,,,5,,,,,,12,wg-a,,,,AAXX 24034 07481 12400 80504 10080 20080 39683 49967 56006 60057 71262 875// 90300=
07481,1996-12-24 06:00:00,7,997,-0,93,6,4000,11.112,,,10,6.4,9.9,,,,,20,,,10,wg-a,,,,AAXX 24064 07481 02140 80106 10070 20060 39684 49970 54000 60006 71062 876// 90600 333 10099 20064 60204=
07481,1996-12-24 09:00:00,5,998.7,1.5,100,5,400,7.408,,,10,,,,,,,,,,10,wg-a,,,,AAXX 24094 07481 12104 80104 10050 20050 39699 49987 51015 60006 71042 886// 90900=
07481,1996-12-24 12:00:00,5,998.7,-0,100,5,400,11.112,,,320,,,,,,,,,,42,wg-a,,,,AAXX 24124 07481 12104 83206 10050 20050 39699 49987 54000 60006 74242 886// 91200=
07481,1996-12-24 15:00:00,5,999,0.2,100,5,600,11.112,,,20,,,,,,,,,,42,wg-a,,,,AAXX 24154 07481 12106 80206 10050 20050 39701 49990 53002 60006 74244 886// 91500=
07481,1996-12-24 18:00:00,4,1000.1,1,100,4,6000,14.816,,,10,4,6.4,,,,,,,,11,wg-a,,,,AAXX 24184 07481 12156 80108 10040 20040 39711 40001 53010 60006 71142 886// 91800 333 10064 20040=
07481,1996-12-24 21:00:00,3,1001.3,1.1,100,3,4500,14.816,,,340,,,,,,,,,,10,wg-a,,,,AAXX 24214 07481 12145 83408 10030 20030 39722 40013 53011 60006 71042 886// 92100=
07481,1996-12-25 00:00:00,2,1002.6,1.2,100,2,1800,11.112,,,350,,,,,,,,,,10,wg-a,,,,AAXX 25004 07481 12118 83506 10020 20020 39733 40026 51012 60006 71042 886// 90000=
07481,1996-12-25 03:00:00,1,1004.1,1.4,100,1,2500,14.816,,,340,,,,,,,,,,10,wg-a,,,,AAXX 25034 07481 12125 83408 10010 20010 39747 40041 52014 60006 71022 886// 90300=
07481,1996-12-25 06:00:00,0,1005.8,1.5,100,0,3500,14.816,,,350,0.1,4,,,,,,,,10,wg-a,,,,AAXX 25064 07481 02135 83508 10000 20000 39762 40058 53015 60006 71022 886// 90600 333 10040 20001 60004=
07481,1996-12-25 09:00:00,0,1008,2.2,93,-1,3000,14.816,,,340,,,,,,,,,,10,wg-a,,,,AAXX 25094 07481 12230 83408 10000 21010 39784 40080 53022 60006 71022 886// 90900=
07481,1996-12-25 12:00:00,0,1009.6,1.5,93,-1,4000,22.224,,,350,,,,,,,,,,10,wg-a,,,,AAXX 25124 07481 12340 83512 10000 21010 39799 40096 51015 60006 71022 886// 91200=
07481,1996-12-25 15:00:00,0,1011.3,1.6,86,-2,500,22.224,,,350,,,,,,,,,,,wg-a,,,,AAXX 25154 07481 12300 83512 10000 21020 39815 40113 53016 60006 886// 91500=
07481,1996-12-25 18:00:00,-1,1014.9,3.4,86,-3,7000,25.928,,,340,-1,0.5,,,,,,,,,wg-a,,,,AAXX 25184 07481 12457 83414 11010 21030 39849 40149 53034 60006 886// 91800 333 10005 21010=
07481,1996-12-25 21:00:00,-2,1017.8,2.6,80,-5,9000,25.928,,,350,,,,,,,,,,,wg-a,,,,AAXX 25214 07481 12459 83514 11020 21050 39876 40178 51026 60006 886// 92100=
07481,1996-12-26 00:00:00,-3,1019.9,2,80,-6,10000,25.928,,,340,,,,,,,,,,,wg-a,,,,AAXX 26004 07481 12460 83414 11030 21060 39896 40199 52020 60006 886// 90000=
07481,1996-12-26 03:00:00,-4,1022.4,2.3,74,-8,10000,29.632,,,350,,,,,,,,,,,wg-a,,,,AAXX 26034 07481 12460 83516 11040 21080 39919 40224 53023 60006 886// 90300=
07481,1996-12-26 06:00:00,-4,1025.4,2.8,74,-8,10000,22.224,,,340,-4.4,-1.1,,,,,,,,,wg-a,,,,AAXX 26064 07481 02560 83412 11040 21080 39947 40254 51028 60006 885// 90600 333 11011 21044 60004=
07481,1996-12-26 09:00:00,-4,1028.3,2.9,74,-8,15000,22.224,,,350,,,,,,,,,,,wg-a,,,,AAXX 26094 07481 12465 /3512 11040 21080 39976 40283 51029 60006 86800 90900=
07481,1996-12-26 12:00:00,-3,1029.3,1.1,68,-8,15000,29.632,,,350,,,,,,,,,,,wg-a,,,,AAXX 26124 07481 12565 /3516 11030 21080 39987 40293 51011 60006 81100 91200=
07481,1996-12-26 15:00:00,-2,1031.2,1.9,59,-9,20000,25.928,,,350,,,,,,,,,,,wg-a,,,,AAXX 26154 07481 12570 /3514 11020 21090 30006 40312 53019 60006 81500 91500=
07481,1996-12-26 18:00:00,-4,1033.4,1.9,63,-10,20000,25.928,,,350,-4.4,-1.9,,,,,,,,,wg-a,,,,AAXX 26184 07481 12/70 /3514 11040 21100 30025 40334 53019 60006 80000 91800 333 11019 21044=
07481,1996-12-26 21:00:00,-6,1033,-0.5,79,-9,20000,11.112,,,350,,,,,,,,,,,wg-a,,,,AAXX 26214 07481 12/70 03506 11060 21090 30020 40330 58005 60006 80000 92100=
07481,1996-12-27 00:00:00,-7,1034.4,1.2,79,-10,20000,11.112,,,340,,,,,,,,,,,wg-a,,,,AAXX 27004 07481 12/70 03406 11070 21100 30032 40344 51012 60006 80000 90000=
07481,1996-12-27 03:00:00,-8,1033.5,-1,85,-10,18000,7.408,,,330,,,,,,,,,,,wg-a,,,,AAXX 27034 07481 12/68 03304 11080 21100 30022 40335 58010 60006 80000 90300=
07481,1996-12-27 06:00:00,-8,1033.1,-0.4,79,-11,18000,3.704,,,20,-8,-4,,,,,,,,,wg-a,,,,AAXX 27064 07481 02/68 00202 11080 21110 30018 40331 55004 60006 80000 90600 333 11040 21080 60004=
07481,1996-12-27 09:00:00,-7,1031.5,-1.5,73,-11,12000,3.704,,,10,,,,,,,,,,,wg-a,,,,AAXX 27094 07481 12/62 50102 11070 21110 30003 40315 58015 60006 80001 90900=
07481,1996-12-27 12:00:00,-3,1027.7,-3.1,58,-10,15000,0,,,0,,,,,,,,,,,wg-a,,,,AAXX 27124 07481 12/65 10000 11030 21100 39971 40277 58031 60006 81030 91200=
07481,1996-12-27 15:00:00,-2,1024.1,-3.3,63,-8,15000,3.704,,,110,,,,,,,,,,,wg-a,,,,AAXX 27154 07481 12/65 11102 11020 21080 39938 40241 56033 60006 81030 91500=
07481,1996-12-27 18:00:00,-4,1022.5,-1.8,74,-8,10000,3.704,,,70,-8,-1.1,,,,,,,,,wg-a,,,,AAXX 27184 07481 12760 70702 11040 21080 39920 40225 58018 60006 875// 91800 333 11011 21080=
07481,1996-12-27 21:00:00,-4,1020.3,-2.4,80,-7,10000,7.408,,,30,,,,,,,,,,,wg-a,,,,AAXX 27214 07481 12560 70304 11040 21070 39898 40203 56024 60006 875// 92100=
07481,1996-12-28 00:00:00,-5,1018.7,-1.5,86,-7,9000,7.408,,,310,,,,,,,,,,,wg-a,,,,AAXX 28004 07481 12559 73104 11050 21070 39882 40187 56015 60006 875// 90000=
07481,1996-12-28 03:00:00,-5,1017.5,-1.2,86,-7,12000,11.112,,,330,,,,,,,,,,,wg-a,,,,AAXX 28034 07481 12562 73306 11050 21070 39870 40175 56012 60006 8353/ 90300=
07481,1996-12-28 06:00:00,-6,1016.5,-1,79,-9,15000,11.112,,,330,-5.6,-4,,,,,,,,,wg-a,,,,AAXX 28064 07481 02665 73306 11060 21090 39860 40165 56010 60006 875// 90600 333 11040 21056 60004=
07481,1996-12-28 09:00:00,-6,1016.9,0.3,79,-9,8000,7.408,,,350,,,,,,,,,,11,wg-a,,,,AAXX 28094 07481 12658 43504 11060 21090 39863 40169 50003 60006 71111 82532 90900=
07481,1996-12-28 12:00:00,-4,1015.9,-0.8,68,-9,10000,11.112,,,360,,,,,,,,,,,wg-a,,,,AAXX 28124 07481 12560 23606 11040 21090 39855 40159 58008 60006 81102 91200=
07481,1996-12-28 15:00:00,-5,1015.6,-0.3,79,-8,8000,14.816,,,360,,,,,,,,,,,wg-a,,,,AAXX 28154 07481 12558 /3608 11050 21080 39852 40156 55003 60006 81100 91500=
07481,1996-12-28 18:00:00,-8,1017,1,92,-9,8000,11.112,,,350,-7.5,-3.8,,,,,,,,,wg-a,,,,AAXX 28184 07481 12/58 /3506 11080 21090 39862 40170 53010 60006 80000 91800 333 11038 21075=
07481,1996-12-28 21:00:00,-6,1016.9,0.1,86,-8,8000,7.408,,,330,,,,,,,,,,12,wg-a,,,,AAXX 28214 07481 02458 73304 11060 21080 39863 40169 53001 61000 71271 875// 92100 333 ////=
07481,1996-12-29 00:00:00,-6,1016.8,-0.1,86,-8,8000,11.112,,,330,,,,,,,,,,2,wg-a,,,,AAXX 29004 07481 02458 73306 11060 21080 39862 40168 58001 61000 70271 875// 90000 333 6100=
07481,1996-12-29 03:00:00,-6,1016.7,-0.2,73,-10,10000,11.112,,,340,,,,,,,,,,,wg-a,,,,AAXX 29034 07481 12460 73406 11060 21100 39861 40167 58002 60006 875// 90300=
07481,1996-12-29 06:00:00,-7,1015.9,-0.9,79,-10,10000,11.112,,,340,-7.6,-5.9,,,,,,,,,wg-a,,,,AAXX 29064 07481 02460 /3406 11070 21100 39852 40159 56009 60006 875// 90600 333 11059 21076 61000=
07481,1996-12-29 09:00:00,-7,1016.6,0.7,79,-10,7000,14.816,,,330,,,,,,,,,,,wg-a,,,,AAXX 29094 07481 12457 73308 11070 21100 39859 40166 51007 60006 875// 90900=
07481,1996-12-29 12:00:00,-6,1015.7,-0.8,73,-10,7000,14.816,,,340,,,,,,,,,,,wg-a,,,,AAXX 29124 07481 12557 73408 11060 21100 39851 40157 58008 60006 875// 91200=
07481,1996-12-29 15:00:00,-6,1015.5,-0.1,73,-10,8000,18.52,,,10,,,,,,,,,,,wg-a,,,,AAXX 29154 07481 12558 70110 11060 21100 39850 40155 55001 60006 875// 91500=
07481,1996-12-29 18:00:00,-8,1015.2,-0.5,79,-11,10000,7.408,,,340,-7.6,-5.3,,,,,,,,,wg-a,,,,AAXX 29184 07481 12560 23404 11080 21110 39845 40152 56005 60006 82500 91800 333 11053 21076=
07481,1996-12-29 21:00:00,-6,1014.4,-0.7,68,-11,12000,11.112,,,340,,,,,,,,,,,wg-a,,,,AAXX 29214 07481 12562 83406 11060 21110 39838 40144 58007 60006 885// 92100=
07481,1996-12-30 00:00:00,-7,1013,-1.4,73,-11,15000,11.112,,,340,,,,,,,,,,,wg-a,,,,AAXX 30004 07481 12565 83406 11070 21110 39824 40130 58014 60006 885// 90000=
07481,1996-12-30 03:00:00,-8,1011.4,-1.6,73,-12,12000,7.408,,,320,,,,,,,,,,,wg-a,,,,AAXX 30034 07481 12562 /3204 11080 21120 39808 40114 58016 60006 83500 90300=
07481,1996-12-30 06:00:00,-9,1008.7,-2.7,79,-12,10000,7.408,,,210,-9.4,-6.3,,,,,,,,,wg-a,,,,AAXX 30064 07481 02/60 52104 11090 21120 39780 40087 58027 60006 80002 90600 333 11063 21094 60004=
07481,1996-12-30 09:00:00,-7,1007.3,-1,73,-11,8000,7.408,,,130,,,,,,,,,,,wg-a,,,,AAXX 30094 07481 12558 71304 11070 21110 39769 40073 56010 60006 875// 90900=
07481,1996-12-30 12:00:00,-4,1005.6,-1.4,63,-10,9000,7.408,,,110,,,,,,,,,,70,wg-a,,,,AAXX 30124 07481 02559 81104 11040 21100 39756 40056 56014 61000 77071 885// 91200 333 6100=
07481,1996-12-30 15:00:00,-4,1005.4,-0.2,74,-8,500,3.704,,,30,,,,,,,,,,70,wg-a,,,,AAXX 30154 07481 02500 80302 11040 21080 39754 40054 55002 61000 77072 885// 91500 333 ////=
07481,1996-12-30 18:00:00,-5,1006.9,1.4,93,-6,500,3.704,,,30,-9.5,-3.2,,0,,,,,,70,wg-a,,1,,AAXX 30184 07481 12200 80302 11050 21060 39768 40069 52014 60007 77072 885// 91800 333 11032 21095 4/001=
07481,1996-12-30 21:00:00,-5,1008,1,93,-6,500,0,,,0,,,,,,,,,,22,wg-a,,,,AAXX 30214 07481 02400 80000 11050 21060 39778 40080 53010 61000 72272 885// 92100 333 ////=
07481,1996-12-31 00:00:00,-5,1008.8,0.8,93,-6,500,3.704,,,210,,,,,,,,,,22,wg-a,,,,AAXX 31004 07481 02400 82102 11050 21060 39786 40088 52008 61000 72272 885// 90000 333 6100=
07481,1996-12-31 03:00:00,-5,1009.2,0.4,93,-6,6000,0,,,0,,,,,,,,,,,wg-a,,,,AAXX 31034 07481 12556 80000 11050 21060 39790 40092 50004 60006 885// 90300=
07481,1996-12-31 06:00:00,-5,1009.6,0.3,93,-6,500,7.408,,,110,-5.4,-4.5,,,,,,,,70,wg-a,,1,,AAXX 31064 07481 02500 81104 11050 21060 39793 40096 52003 61000 77072 875// 90600 333 11045 21054 4/001 6000=
07481,1996-12-31 09:00:00,-4,1011.3,1.8,86,-6,4000,3.704,,,120,,,,,,,,,,10,wg-a,,,,AAXX 31094 07481 02540 71202 11040 21060 39811 40113 53018 61000 71072 875// 90900 333 ////=
07481,1996-12-31 12:00:00,-3,1011,-0.1,68,-8,8000,3.704,,,100,,,,,,,,,,3,wg-a,,,,AAXX 31124 07481 02558 /1002 11030 21080 39810 40110 58001 61000 70372 85500 91200 333 ////=
07481,1996-12-31 15:00:00,-3,1010.8,-0.2,68,-8,12000,7.408,,,360,,,,0,,,,,,,wg-a,,,,AAXX 31154 07481 12762 73604 11030 21080 39807 40108 55002 60007 8353/ 91500=
07481,1996-12-31 18:00:00,-4,1010.9,-0.1,74,-8,10000,14.816,,,360,-5.3,-2.4,,,,,,,,,wg-a,,1,,AAXX 31184 07481 12/60 83608 11040 21080 39807 40109 56001 60006 8707/ 91800 333 11024 21053 4/001=
07481,1996-12-31 21:00:00,-5,1010.1,-1,86,-7,3000,11.112,,,350,,,,,,,,,,71,wg-a,,,,AAXX 31214 07481 02430 83506 11050 21070 39798 40101 57010 61000 77172 887// 92100 333 ////=
