station_id,dh_utc,temperature,pression,pression_variation_3h,humidite,point_de_rosee,visibilite,vent_moyen,vent_rafales,vent_rafales_10min,vent_direction,temperature_min,temperature_max,pluie_1h,pluie_3h,pluie_6h,pluie_12h,pluie_24h,ensoleillement,temperature_sol,temps_omm,source,radiations,neige_au_sol,nebulosite,raw_msg
07481,1997-01-01 00:00:00,-6,1009.9,-0.3,86,-8,3500,11.112,,,340,,,,1,,,,,,71,wg-a,,,,AAXX 01004 07481 02135 83406 11060 21080 39795 40099 55003 60016 77172 887// 90000 333 60017=
07481,1997-01-01 03:00:00,-7,1011.4,1.4,93,-8,2000,3.704,,,320,,,,2,,,,,,73,wg-a,,,,AAXX 01034 07481 12120 83202 11070 21080 39809 40114 53014 60027 77377 887// 90300=
07481,1997-01-01 06:00:00,-9,1012.5,0.8,85,-11,1200,3.704,,,340,-9.3,-4,,,,,3,,,40,wg-a,,8,,AAXX 01064 07481 02512 /3402 11090 21110 39817 40125 51008 60006 74071 83500 90600 333 11040 21093 4/008 60034=
07481,1997-01-01 09:00:00,-8,1015.2,2.7,92,-9,2000,3.704,,,300,,,,1,,,,,,10,wg-a,,,,AAXX 01094 07481 12520 83002 11080 21090 39844 40152 53027 60017 71041 8357/ 90900=
07481,1997-01-01 12:00:00,-6,1015.9,1,86,-8,3500,3.704,,,70,,,,,,,,,,10,wg-a,,,,AAXX 01124 07481 02235 /0702 11060 21080 39854 40159 51010 60016 71074 8487/ 91200 333 61000=
07481,1997-01-01 15:00:00,-5,1016.8,0.9,86,-7,3500,7.408,,,10,,,,,,,,,,10,wg-a,,,,AAXX 01154 07481 02635 /0104 11050 21070 39864 40168 53009 61000 71072 81530 91500 333 ////=
07481,1997-01-01 18:00:00,-6,1018.5,1.4,86,-8,4500,3.704,,,10,-12.1,-4.1,,,,,,,,10,wg-a,,7,,AAXX 01184 07481 12445 70102 11060 21080 39879 40185 52014 60006 71071 875// 91800 333 11041 21121 4/007=
07481,1997-01-01 21:00:00,-6,1019.6,1.1,86,-8,6000,3.704,,,290,,,,,,,,,,,wg-a,,,,AAXX 01214 07481 12456 82902 11060 21080 39890 40196 51011 60006 885// 92100=
07481,1997-01-02 00:00:00,-5,1019.9,0.3,86,-7,500,7.408,,,350,,,,,,,,,,,wg-a,,,,AAXX 02004 07481 12400 83504 11050 21070 39893 40199 51003 60006 885// 90000=
07481,1997-01-02 03:00:00,-5,1018.3,-1.5,86,-7,3000,3.704,,,340,,,,,,,,,,10,wg-a,,,,AAXX 02034 07481 12430 83402 11050 21070 39878 40183 58015 60006 71022 885// 90300=
07481,1997-01-02 06:00:00,-6,1017.2,-1.1,93,-7,2000,7.408,,,350,-6,-5.1,,,,,,,,10,wg-a,,6,,AAXX 02064 07481 02220 83504 11060 21070 39867 40172 56011 61000 71072 887// 90600 333 11051 21060 4/006 6001=
07481,1997-01-02 09:00:00,-6,1016.7,-0.5,93,-7,1500,7.408,,,330,,,,0,,,,,,10,wg-a,,,,AAXX 02094 07481 12315 83304 11060 21070 39862 40167 57005 60007 71072 8/52/ 90900=
07481,1997-01-02 12:00:00,-6,1013.8,-2.8,93,-7,1000,7.408,,,20,,,,1,,,,,,10,wg-a,,,,AAXX 02124 07481 02210 80204 11060 21070 39834 40138 57028 60016 71072 8652/ 91200 333 60017=
07481,1997-01-02 15:00:00,-6,1011.3,-2.4,93,-7,1000,11.112,,,350,,,,3,,,,,,10,wg-a,,,,AAXX 02154 07481 12310 83506 11060 21070 39809 40113 56024 60037 71077 885// 91500=
07481,1997-01-02 18:00:00,-7,1010.2,-1.2,93,-8,1600,7.408,,,330,-7,-5.1,,,,,,,,71,wg-a,,16,,AAXX 02184 07481 02316 83304 11070 21080 39797 40102 56012 61000 77177 885// 91800 333 11051 21070 4/016 6004=
07481,1997-01-02 21:00:00,-6,1009.7,-0.5,93,-7,1200,7.408,,,230,,,,4,,,,,,73,wg-a,,,,AAXX 02214 07481 12312 82304 11060 21070 39793 40097 58005 60047 77377 885// 92100=
07481,1997-01-03 00:00:00,-5,1009.2,-0.3,93,-6,3000,0,,,0,,,,4,,,,,,66,wg-a,,,,AAXX 03004 07481 02230 80000 11050 21060 39790 40092 56003 60086 76676 887// 90000 333 60047=
07481,1997-01-03 03:00:00,-5,1008.7,-0.5,93,-6,3500,3.704,,,60,,,,3,,,,,,10,wg-a,,,,AAXX 03034 07481 12235 80602 11050 21060 39785 40087 58005 60037 71062 885// 90300=
07481,1997-01-03 06:00:00,-5,1007.2,-1.4,93,-6,4000,0,,,0,-6.9,-4.6,,,,,19,,,10,wg-a,,22,,AAXX 03064 07481 02140 80000 11050 21060 39771 40072 58014 60006 71062 885// 90600 333 11046 21069 4/022 60194=
07481,1997-01-03 09:00:00,-4,1006.6,-0.6,93,-5,1800,3.704,,,20,,,,0,,,,,,10,wg-a,,,,AAXX 03094 07481 12118 80202 11040 21050 39765 40066 58006 60007 71022 885// 90900=
07481,1997-01-03 12:00:00,-3,1005.1,-1.3,86,-5,2000,7.408,,,340,,,,,,,,,,10,wg-a,,,,AAXX 03124 07481 12220 83404 11030 21050 39752 40051 58013 60006 71022 885// 91200=
07481,1997-01-03 15:00:00,-3,1002.1,-3,86,-5,2500,3.704,,,320,,,,,,,,,,10,wg-a,,,,AAXX 03154 07481 12325 83202 11030 21050 39723 40021 56030 60006 71022 875// 91500=
07481,1997-01-03 18:00:00,-4,1000,-2,93,-5,4000,7.408,,,280,-4.6,-2.5,,,,,,,,10,wg-a,,20,,AAXX 03184 07481 12340 82804 11040 21050 39702 40000 56020 60006 71022 876// 91800 333 11025 21046 4/020=
07481,1997-01-03 21:00:00,-3,1001.1,1.3,93,-4,2500,11.112,,,110,,,,1,,,,,,10,wg-a,,,,AAXX 03214 07481 12225 81106 11030 21040 39714 40011 53013 60017 71076 885// 92100=
07481,1997-01-04 00:00:00,0,998.5,-2.1,100,0,4000,11.112,,,130,,,,4,,,,,,10,wg-a,,,,AAXX 04004 07481 02240 81306 10000 20000 39692 49985 56021 60066 71076 885// 90000 333 60047=
07481,1997-01-04 03:00:00,-1,998.3,-0.2,100,-1,1600,7.408,,,260,,,,,,,,,,10,wg-a,,,,AAXX 04034 07481 12216 82604 11010 21010 39689 49983 56002 60006 71022 885// 90300=
07481,1997-01-04 06:00:00,-1,999.2,0.6,93,-2,1400,0,,,0,-3.8,0.6,,,,,6,,,10,wg-a,,20,,AAXX 04064 07481 02114 80000 11010 21020 39697 49992 53006 60006 71022 886// 90600 333 10006 21038 4/020 60064=
07481,1997-01-04 09:00:00,-1,1000.4,1.2,100,-1,600,0,,,0,,,,,,,,,,44,wg-a,,,,AAXX 04094 07481 12106 80000 11010 21010 39709 40004 53012 60006 74442 886// 90900=
07481,1997-01-04 12:00:00,0,1000.3,0.1,100,0,300,0,,,0,,,,,,,,,,43,wg-a,,,,AAXX 04124 07481 12/03 90000 10000 20000 39709 40003 50001 60006 74342 89/// 91200=
07481,1997-01-04 15:00:00,0,1001.6,1.2,93,-1,100,3.704,,,340,,,,,,,,,,45,wg-a,,,,AAXX 04154 07481 12/01 93402 10000 21010 39721 40016 53012 60006 74544 89/// 91500=
07481,1997-01-04 18:00:00,-1,1002.9,1.2,100,-1,100,0,,,0,-1.7,0,,,,,,,,45,wg-a,,18,,AAXX 04184 07481 12/01 90000 11010 21010 39733 40029 53012 60006 74554 89/// 91800 333 10000 21017 4/018=
07481,1997-01-04 21:00:00,-1,1004.9,1.9,100,-1,200,0,,,0,,,,,,,,,,45,wg-a,,,,AAXX 04214 07481 12/02 90000 11010 21010 39753 40049 51019 60006 74544 89/// 92100=
07481,1997-01-05 00:00:00,-1,1006.6,1.6,100,-1,4500,0,,,0,,,,,,,,,,10,wg-a,,,,AAXX 05004 07481 12145 80000 11010 21010 39769 40066 51016 60006 71042 886// 90000=
07481,1997-01-05 03:00:00,-2,1008.7,1.9,93,-3,500,0,,,0,,,,,,,,,,77,wg-a,,,,AAXX 05034 07481 02300 80000 11020 21030 39788 40087 53019 61000 77772 875// 90300 333 ////=
07481,1997-01-05 06:00:00,-3,1009.7,0.9,100,-3,3000,0,,,0,-2.8,-0.5,,,,,1,,,10,wg-a,,18,,AAXX 05064 07481 02330 80000 11030 21030 39797 40097 51009 60006 710// 8652/ 90600 333 11005 21028 4/018 60014=
07481,1997-01-05 09:00:00,-2,1011.2,1.5,93,-3,3000,11.112,,,150,,,,0,,,,,,10,wg-a,,,,AAXX 05094 07481 12830 71506 11020 21030 39812 40112 53015 60007 71072 85032 90900=
07481,1997-01-05 12:00:00,0,1011.6,0.6,86,-2,4000,7.408,,,140,,,,,,,,,,10,wg-a,,,,AAXX 05124 07481 02840 71404 10000 21020 39818 40116 51006 60006 71072 85072 91200 333 61000=
07481,1997-01-05 15:00:00,0,1011.8,0.3,93,-1,500,7.408,,,150,,,,,,,,,,70,wg-a,,,,AAXX 05154 07481 02400 71504 10000 21010 39821 40118 53003 61000 77077 81572 91500 333 ////=
07481,1997-01-05 18:00:00,-1,1012.6,0.7,100,-1,500,7.408,,,80,-3,0.7,,,,,,,,70,wg-a,,18,,AAXX 05184 07481 02400 70804 11010 21010 39828 40126 51007 61000 77077 81572 91800 333 10007 21030 4/018 6000=
07481,1997-01-05 21:00:00,-1,1013.6,0.9,93,-2,500,3.704,,,110,,,,,,,,,,22,wg-a,,,,AAXX 05214 07481 02700 71102 11010 21020 39837 40136 51009 61000 72272 81572 92100 333 ////=
07481,1997-01-06 00:00:00,-1,1014.1,0.4,93,-2,500,0,,,0,,,,,,,,,,3,wg-a,,,,AAXX 06004 07481 02400 80000 11010 21020 39841 40141 51004 61000 70372 8457/ 90000 333 ////=
07481,1997-01-06 03:00:00,-1,1014.3,0.2,93,-2,4000,0,,,0,,,,,,,,,,10,wg-a,,,,AAXX 06034 07481 12440 80000 11010 21020 39843 40143 53002 60006 71022 8557/ 90300=
07481,1997-01-06 06:00:00,-1,1014.4,0.1,93,-2,3000,3.704,,,320,-1.5,-0.4,,,,,,,,10,wg-a,,18,,AAXX 06064 07481 02430 83202 11010 21020 39844 40144 53001 60006 71022 875// 90600 333 11004 21015 4/018 60004=
07481,1997-01-06 09:00:00,-1,1015.1,0.7,93,-2,3700,3.704,,,20,,,,,,,,,,10,wg-a,,,,AAXX 06094 07481 12437 70202 11010 21020 39851 40151 53007 60006 71022 875// 90900=
07481,1997-01-06 12:00:00,-1,1014.6,-0.5,86,-3,4000,7.408,,,320,,,,,,,,,,10,wg-a,,,,AAXX 06124 07481 12/40 /3204 11010 21030 39847 40146 58005 60006 71022 85070 91200=
07481,1997-01-06 15:00:00,-2,1014.4,-0.1,86,-4,4000,7.408,,,340,,,,,,,,,,10,wg-a,,,,AAXX 06154 07481 12/40 03404 11020 21040 39844 40144 55001 60006 71011 80000 91500=
07481,1997-01-06 18:00:00,-3,1015.3,0.6,86,-5,4000,7.408,,,320,-4,0.1,,,,,,,,10,wg-a,,18,,AAXX 06184 07481 12540 73204 11030 21050 39851 40153 51006 60006 71011 8153/ 91800 333 10001 21040 4/018=
07481,1997-01-06 21:00:00,-4,1016.3,0.8,93,-5,1800,0,,,0,,,,,,,,,,40,wg-a,,,,AAXX 06214 07481 12318 80000 11040 21050 39859 40163 51008 60006 74042 876// 92100=
07481,1997-01-07 00:00:00,-3,1016.3,0.2,93,-4,4000,11.112,,,10,,,,,,,,,,10,wg-a,,,,AAXX 07004 07481 12440 70106 11030 21040 39861 40163 50002 60006 71042 876// 90000=
07481,1997-01-07 03:00:00,-3,1017.3,0.9,93,-4,3500,11.112,,,10,,,,,,,,,,10,wg-a,,,,AAXX 07034 07481 12235 80106 11030 21040 39870 40173 52009 60006 71022 886// 90300=
07481,1997-01-07 06:00:00,-4,1017.8,0.5,100,-4,2000,11.112,,,20,-5,-2.8,,,,,,,,10,wg-a,,17,,AAXX 07064 07481 02120 80206 11040 21040 39875 40178 53005 60006 71022 886// 90600 333 11028 21050 4/017 60004=
07481,1997-01-07 09:00:00,-4,1018.9,1,100,-4,1600,7.408,,,10,,,,,,,,,,10,wg-a,,,,AAXX 07094 07481 12116 80104 11040 21040 39885 40189 53010 60006 71022 886// 90900=
07481,1997-01-07 12:00:00,-3,1018.7,-0.1,93,-4,1600,7.408,,,340,,,,,,,,,,10,wg-a,,,,AAXX 07124 07481 12116 83404 11030 21040 39884 40187 58001 60006 71022 886// 91200=
07481,1997-01-07 15:00:00,-3,1017.6,-1,93,-4,3500,3.704,,,30,,,,,,,,,,,wg-a,,,,AAXX 07154 07481 12/35 /0302 11030 21040 39874 40176 56010 60006 91500=
07481,1997-01-07 18:00:00,-3,1017.3,-0.3,93,-4,2500,3.704,,,70,-3.8,-2.5,,,,,,,,10,wg-a,,17,,AAXX 07184 07481 02225 80702 11030 21040 39871 40173 57003 60006 71072 886// 91800 333 11025 21038 4/017 61000=
07481,1997-01-07 21:00:00,-3,1016.3,-1.1,93,-4,3500,3.704,,,60,,,,,,,,,,10,wg-a,,,,AAXX 07214 07481 12135 80602 11030 21040 39861 40163 58011 60006 71022 886// 92100=
07481,1997-01-08 00:00:00,-4,1014.8,-1.5,93,-5,1500,3.704,,,90,,,,,,,,,,10,wg-a,,,,AAXX 08004 07481 12115 80902 11040 21050 39845 40148 58015 60006 71022 886// 90000=
07481,1997-01-08 03:00:00,-4,1012.8,-1.8,100,-4,100,0,,,0,,,,,,,,,,45,wg-a,,,,AAXX 08034 07481 12/01 90000 11040 21040 39826 40128 58018 60006 74542 89/// 90300=
07481,1997-01-08 06:00:00,-7,1010.7,-2.4,100,-7,500,0,,,0,-6.6,-2.9,,,,,,,,45,wg-a,,17,,AAXX 08064 07481 02/00 90000 11070 21070 39802 40107 57024 60006 74542 89/// 90600 333 11029 21066 4/017 61000=
07481,1997-01-08 09:00:00,-1,1008.8,-1.2,93,-2,6000,14.816,,,140,,,,,,,,,,10,wg-a,,,,AAXX 08094 07481 12556 71408 11010 21020 39790 40088 56012 60006 71042 82535 90900=
07481,1997-01-08 12:00:00,-2,1007.8,-1,93,-3,4000,11.112,,,20,,,,,,,,,,10,wg-a,,,,AAXX 08124 07481 12540 80206 11020 21030 39780 40078 58010 60006 71042 8157/ 91200=
07481,1997-01-08 15:00:00,0,1006.3,-1.3,100,0,2500,0,,,0,,,,3,,,,,,10,wg-a,,,,AAXX 08154 07481 12525 80000 10000 20000 39767 40063 58013 60037 71062 8257/ 91500=
07481,1997-01-08 17:00:00,1,1005.3,-0.9,93,0,4500,11.112,,,170,-7.1,1.1,,4,,,,,,10,wg-a,,15,,AAXX 08174 07481 12145 81706 10010 20000 39758 40053 55009 60047 71062 8452/ 91700 333 10011 21071 4/015=
07481,1997-01-08 18:00:00,1,1005.3,-0.9,93,0,4500,11.112,,,170,-7.1,1.1,,,,,,,,10,wg-a,,15,,AAXX 08184 07481 02145 81706 10010 20000 39758 40053 55009 61000 71062 8452/ 91800 333 10011 21071 4/015 6004=
07481,1997-01-08 21:00:00,1,1004.7,-0.7,93,0,1800,7.408,,,70,,,,3,,,,,,10,wg-a,,,,AAXX 08214 07481 12118 80704 10010 20000 39752 40047 58007 60037 71066 887// 92100=
07481,1997-01-09 00:00:00,0,1003.8,-0.8,100,0,1000,3.704,,,30,,,,1,,,,,,40,wg-a,,,,AAXX 09004 07481 02410 80302 10000 20000 39743 40038 57008 60046 74066 888// 90000 333 60017=
07481,1997-01-09 03:00:00,0,1003.6,-0.2,100,0,1200,3.704,,,10,,,,2,,,,,,10,wg-a,,,,AAXX 09034 07481 12312 80102 10000 20000 39741 40036 56002 60027 71066 8572/ 90300=
07481,1997-01-09 06:00:00,0,1003.6,-0,100,0,900,3.704,,,340,0.2,1,,,,,,,,41,wg-a,,14,,AAXX 09064 07481 02109 83402 10000 20000 39741 40036 55000 61000 74166 8672/ 90600 333 10010 20002 4/014 6015=
07481,1997-01-09 09:00:00,1,1004.4,0.8,100,1,1100,3.704,,,280,,,,2,,,,,,10,wg-a,,,,AAXX 09094 07481 12211 82802 10010 20010 39749 40044 53008 60027 71064 877// 90900=
07481,1997-01-09 12:00:00,2,1005,0.7,93,1,2000,0,,,0,,,,,,,,,,10,wg-a,,,,AAXX 09124 07481 02220 80000 10020 20010 39756 40050 50007 60026 71064 876// 91200 333 61000=
07481,1997-01-09 15:00:00,2,1005.7,0.8,93,1,1800,11.112,,,150,,,,0,,,,,,10,wg-a,,,,AAXX 09154 07481 12618 81506 10020 20010 39763 40057 53008 60007 71066 876// 91500=
07481,1997-01-09 18:00:00,1,1007.7,1.8,100,1,1300,3.704,,,80,0.2,2.1,,,,,,,,10,wg-a,,12,,AAXX 09184 07481 02513 80802 10010 20010 39782 40077 52018 61000 71062 8257/ 91800 333 10021 20002 4/012 6100=
07481,1997-01-09 21:00:00,1,1008.7,1.1,100,1,1200,3.704,,,130,,,,0,,,,,,40,wg-a,,,,AAXX 09214 07481 12512 81302 10010 20010 39792 40087 53011 60007 74064 855// 92100=
07481,1997-01-10 00:00:00,1,1009.8,0.9,100,1,600,3.704,,,70,,,,,,,,,,44,wg-a,,,,AAXX 10004 07481 02406 80702 10010 20010 39802 40098 50009 60006 74465 8257/ 90000 333 61000=
07481,1997-01-10 03:00:00,1,1010.6,0.7,93,0,200,0,,,0,,,,,,,,,,45,wg-a,,,,AAXX 10034 07481 12/02 90000 10010 20000 39809 40106 53007 60006 74544 89/// 90300=
07481,1997-01-10 06:00:00,1,1012,1.4,100,1,1000,7.408,,,340,0.4,1.5,,,,,,,,51,wg-a,,12,,AAXX 10064 07481 02110 93404 10010 20010 39823 40120 53014 61000 75165 897// 90600 333 10015 20004 4/012 6002=
07481,1997-01-10 09:00:00,2,1015,3,93,1,2700,11.112,,,340,,,,0,,,,,,10,wg-a,,,,AAXX 10094 07481 12227 83406 10020 20010 39853 40150 51030 60007 71065 887// 90900=
07481,1997-01-10 12:00:00,2,1016.5,1.4,93,1,1800,18.52,,,340,,,,,,,,,,10,wg-a,,,,AAXX 10124 07481 12118 83410 10020 20010 39868 40165 51014 60006 71065 886// 91200=
07481,1997-01-10 15:00:00,1,1018.7,2.1,100,1,1500,14.816,,,340,,,,,,,,,,10,wg-a,,,,AAXX 10154 07481 12115 83408 10010 20010 39889 40187 53021 60006 71022 886// 91500=
07481,1997-01-10 18:00:00,1,1021,2.2,100,1,2500,18.52,,,340,0.7,1.8,,,,,,,,10,wg-a,,10,,AAXX 10184 07481 12125 83410 10010 20010 39911 40210 53022 60006 71022 886// 91800 333 10018 20007 4/010=
07481,1997-01-10 21:00:00,1,1022.2,1.1,100,1,4500,11.112,,,340,,,,,,,,,,10,wg-a,,,,AAXX 10214 07481 12245 83406 10010 20010 39922 40222 53011 60006 71022 875// 92100=
07481,1997-01-11 00:00:00,1,1023.1,1,80,-2,10000,22.224,,,350,,,,,,,,,,,wg-a,,,,AAXX 11004 07481 12460 73512 10010 21020 39932 40231 51010 60006 875// 90000=
07481,1997-01-11 03:00:00,1,1024.5,1.3,80,-2,10000,14.816,,,350,,,,,,,,,,,wg-a,,,,AAXX 11034 07481 12560 73508 10010 21020 39945 40245 51013 60006 875// 90300=
07481,1997-01-11 06:00:00,0,1025.2,0.6,80,-3,10000,14.816,,,350,0.2,1.7,,,,,,,,,wg-a,,8,,AAXX 11064 07481 02460 73508 10000 21030 39951 40252 53006 60006 875// 90600 333 10017 20002 4/008 60004=
07481,1997-01-11 09:00:00,0,1027.1,1.8,80,-3,9000,18.52,,,340,,,,,,,,,,,wg-a,,,,AAXX 11094 07481 12459 73410 10000 21030 39969 40271 53018 60006 875// 90900=
07481,1997-01-11 12:00:00,0,1027.5,0.4,86,-2,9000,18.52,,,340,,,,,,,,,,,wg-a,,,,AAXX 11124 07481 12459 83410 10000 21020 39973 40275 51004 60006 885// 91200=
07481,1997-01-11 15:00:00,0,1027.8,0.2,80,-3,9000,18.52,,,340,,,,,,,,,,,wg-a,,,,AAXX 11154 07481 12459 83410 10000 21030 39975 40278 53002 60006 885// 91500=
07481,1997-01-11 18:00:00,-1,1028.5,0.6,86,-3,10000,11.112,,,350,-1.3,0.3,,,,,,,,,wg-a,,8,,AAXX 11184 07481 12360 83506 11010 21030 39981 40285 53006 60006 885// 91800 333 10003 21013 4/008=
07481,1997-01-11 21:00:00,-2,1029,0.4,86,-4,8000,18.52,,,340,,,,,,,,,,,wg-a,,,,AAXX 11214 07481 12358 83410 11020 21040 39985 40290 53004 60006 885// 92100=
07481,1997-01-12 00:00:00,-3,1029.9,0.8,100,-3,6000,14.816,,,330,,,,,,,,,,,wg-a,,,,AAXX 12004 07481 12256 83308 11030 21030 39993 40299 50008 60006 886// 90000=
07481,1997-01-12 03:00:00,-3,1030.2,0.3,93,-4,500,11.112,,,330,,,,,,,,,,,wg-a,,,,AAXX 12034 07481 12200 83306 11030 21040 39996 40302 53003 60006 886// 90300=
07481,1997-01-12 06:00:00,-3,1030,-0.2,93,-4,6000,11.112,,,340,-2.8,-1.3,,,,,,,,,wg-a,,7,,AAXX 12064 07481 02256 83406 11030 21040 39994 40300 55002 60006 886// 90600 333 11013 21028 4/007 60004=
07481,1997-01-12 09:00:00,-3,1030.8,0.8,93,-4,6000,11.112,,,340,,,,,,,,,,,wg-a,,,,AAXX 12094 07481 12256 83406 11030 21040 30002 40308 53008 60006 886// 90900=
07481,1997-01-12 12:00:00,-2,1029.8,-0.9,86,-4,6000,11.112,,,330,,,,,,,,,,,wg-a,,,,AAXX 12124 07481 12256 83306 11020 21040 39993 40298 58009 60006 886// 91200=
07481,1997-01-12 15:00:00,-2,1029.2,-0.6,86,-4,6000,7.408,,,320,,,,,,,,,,,wg-a,,,,AAXX 12154 07481 12356 83204 11020 21040 39987 40292 55006 60006 886// 91500=
07481,1997-01-12 18:00:00,-3,1029.6,0.3,93,-4,7000,7.408,,,360,-3,-1.9,,,,,,,,,wg-a,,7,,AAXX 12184 07481 12257 83604 11030 21040 39990 40296 51003 60006 886// 91800 333 11019 21030 4/007=
07481,1997-01-12 21:00:00,-3,1030.1,0.4,93,-4,7000,3.704,,,320,,,,,,,,,,,wg-a,,,,AAXX 12214 07481 12/57 /3202 11030 21040 39994 40301 53004 60006 92100=
07481,1997-01-13 00:00:00,-4,1029.6,-0.5,100,-4,500,3.704,,,330,,,,,,,,,,,wg-a,,,,AAXX 13004 07481 12200 83302 11040 21040 39989 40296 58005 60006 886// 90000=
07481,1997-01-13 03:00:00,-4,1028.7,-0.9,100,-4,6000,7.408,,,20,,,,,,,,,,,wg-a,,,,AAXX 13034 07481 12256 80204 11040 21040 39980 40287 56009 60006 886// 90300=
07481,1997-01-13 06:00:00,-4,1028.6,-0.1,93,-5,4000,7.408,,,50,-4.1,-2.7,,,,,,,,10,wg-a,,7,,AAXX 13064 07481 02240 80504 11040 21050 39979 40286 56001 60006 71022 886// 90600 333 11027 21041 4/007 60004=
07481,1997-01-13 09:00:00,-4,1029.3,0.7,93,-5,1500,7.408,,,30,,,,,,,,,,10,wg-a,,,,AAXX 13094 07481 12115 80304 11040 21050 39986 40293 53007 60006 71022 886// 90900=
07481,1997-01-13 12:00:00,-3,1028.5,-0.7,93,-4,3500,3.704,,,360,,,,,,,,,,10,wg-a,,,,AAXX 13124 07481 12235 83602 11030 21040 39979 40285 58007 60006 71022 886// 91200=
07481,1997-01-13 15:00:00,-3,1027.4,-1,93,-4,4500,3.704,,,340,,,,,,,,,,10,wg-a,,,,AAXX 13154 07481 12245 73402 11030 21040 39969 40274 56010 60006 71022 876// 91500=
07481,1997-01-13 18:00:00,-4,1027.9,0.3,93,-5,700,3.704,,,80,-4.4,-2.3,,,,,,,,41,wg-a,,7,,AAXX 13184 07481 12107 80802 11040 21050 39972 40279 53003 60006 74141 886// 91800 333 11023 21044 4/007=
07481,1997-01-13 21:00:00,-5,1028.5,0.5,93,-6,100,0,,,0,,,,,,,,,,49,wg-a,,,,AAXX 13214 07481 12/01 90000 11050 21060 39977 40285 51005 60006 74944 89/// 92100=
07481,1997-01-14 00:00:00,-6,1027.9,-0.7,100,-6,100,3.704,,,330,,,,,,,,,,49,wg-a,,,,AAXX 14004 07481 12/01 93302 11060 21060 39970 40279 57007 60006 74944 89/// 90000=
07481,1997-01-14 03:00:00,-7,1027.7,-0.3,100,-7,200,0,,,0,,,,,,,,,,49,wg-a,,,,AAXX 14034 07481 12/02 90000 11070 21070 39967 40277 58003 60006 74944 89/// 90300=
07481,1997-01-14 06:00:00,-6,1027.8,0.2,93,-7,300,0,,,0,-6.6,-4.1,,,,,,,,49,wg-a,,7,,AAXX 14064 07481 02/03 90000 11060 21070 39969 40278 52002 60006 74944 89/// 90600 333 11041 21066 4/007 60004=
07481,1997-01-14 09:00:00,-6,1028.2,0.3,93,-7,100,0,,,0,,,,,,,,,,49,wg-a,,,,AAXX 14094 07481 12/01 90000 11060 21070 39972 40282 53003 60006 74944 89/// 90900=
07481,1997-01-14 12:00:00,-5,1027.3,-0.8,100,-5,100,3.704,,,30,,,,,,,,,,49,wg-a,,,,AAXX 14124 07481 12/01 90302 11050 21050 39965 40273 58008 60006 74944 89/// 91200=
07481,1997-01-14 15:00:00,-3,1026.1,-0.9,100,-3,1200,3.704,,,310,,,,,,,,,,40,wg-a,,,,AAXX 14154 07481 12/12 03102 11030 21030 39956 40261 56009 60006 74041 80000 91500=
07481,1997-01-14 18:00:00,-4,1026.8,0.5,93,-5,3000,0,,,0,-6.7,-2,,,,,,,,10,wg-a,,7,,AAXX 14184 07481 12/30 00000 11040 21050 39961 40268 53005 60006 71041 80000 91800 333 11020 21067 4/007=
07481,1997-01-15 00:00:00,-5,1027.5,-0,93,-6,800,0,,,0,,,,,,,,,,10,wg-a,,,,AAXX 15004 07481 12/08 00000 11050 21060 39967 40275 55000 60006 71040 80000 90000=
07481,1997-01-15 03:00:00,-6,1028.1,0.4,93,-7,1100,0,,,0,,,,,,,,,,41,wg-a,,,,AAXX 15034 07481 12/11 00000 11060 21070 39971 40281 51004 60006 74144 80000 90300=
07481,1997-01-15 06:00:00,-7,1028.4,0.3,93,-8,1600,0,,,0,-7.5,-4.3,,,,,,,,10,wg-a,,7,,AAXX 15064 07481 02/16 00000 11070 21080 39974 40284 52003 60006 71040 80000 90600 333 11043 21075 4/007 60004=
07481,1997-01-15 09:00:00,-4,1029.1,0.9,93,-5,1200,0,,,0,,,,,,,,,,10,wg-a,,,,AAXX 15094 07481 12/12 00000 11040 21050 39983 40291 53009 60006 71000 80000 90900=
07481,1997-01-15 12:00:00,0,1027.8,-0.6,100,0,1400,0,,,0,,,,,,,,,,10,wg-a,,,,AAXX 15124 07481 12/14 00000 10000 20000 39976 40278 58006 60006 71000 80000 91200=
07481,1997-01-15 15:00:00,6,1025.8,-1.4,56,-2,3500,3.704,,,310,,,,,,,,,,10,wg-a,,,,AAXX 15154 07481 12/35 03102 10060 21020 39962 40258 56014 60006 71000 80000 91500=
07481,1997-01-15 18:00:00,0,1026.5,0.2,80,-3,6000,0,,,0,-7.1,6.7,,,,,,,,,wg-a,,7,,AAXX 15184 07481 12/56 00000 10000 21030 39963 40265 52002 60006 80000 91800 333 10067 21071 4/007=
07481,1997-01-15 21:00:00,1,1026.7,0.3,69,-4,10000,7.408,,,160,,,,,,,,,,,wg-a,,,,AAXX 15214 07481 12/60 01604 10010 21040 39966 40267 52003 60006 80000 92100=
07481,1997-01-16 00:00:00,0,1026.8,0,74,-4,10000,7.408,,,130,,,,,,,,,,,wg-a,,,,AAXX 16004 07481 12/60 01304 10000 21040 39966 40268 50000 60006 80000 90000=
07481,1997-01-16 03:00:00,-1,1026.2,-0.7,74,-5,10000,3.704,,,140,,,,,,,,,,,wg-a,,,,AAXX 16034 07481 12/60 01402 11010 21050 39959 40262 56007 60006 80000 90300=
07481,1997-01-16 06:00:00,-4,1025.7,-0.7,86,-6,8000,3.704,,,270,-4,3,,,,,,,,,wg-a,,7,,AAXX 16064 07481 02/58 12702 11040 21060 39951 40257 56007 60006 80001 90600 333 10030 21040 4/007 60004=
07481,1997-01-16 09:00:00,0,1025.5,0.2,69,-5,8000,0,,,0,,,,,,,,,,,wg-a,,,,AAXX 16094 07481 12/58 00000 10000 21050 39953 40255 50002 60006 80000 90900=
07481,1997-01-16 12:00:00,6,1023.8,-1,56,-2,8000,11.112,,,110,,,,,,,,,,,wg-a,,,,AAXX 16124 07481 12/58 01106 10060 21020 39943 40238 58010 60006 80000 91200=
07481,1997-01-16 15:00:00,8,1021.9,-1.7,53,-1,15000,14.816,,,140,,,,,,,,,,,wg-a,,,,AAXX 16154 07481 12/65 01408 10080 21010 39927 40219 56017 60006 80000 91500=
07481,1997-01-16 18:00:00,7,1021.8,-0.2,57,-1,15000,7.408,,,150,-4.2,9.4,,,,,,,,,wg-a,,7,,AAXX 16184 07481 12/65 01504 10070 21010 39925 40218 56002 60006 80000 91800 333 10094 21042 4/007=
07481,1997-01-16 21:00:00,5,1021.7,-0.3,75,1,15000,7.408,,,150,,,,,,,,,,,wg-a,,,,AAXX 16214 07481 12/65 01504 10050 20010 39922 40217 58003 60006 80000 92100=
07481,1997-01-17 00:00:00,3,1021.3,-0.5,87,1,10000,18.52,,,140,,,,,,,,,,,wg-a,,,,AAXX 17004 07481 12/60 /1410 10030 20010 39916 40213 57005 60006 90000=
07481,1997-01-17 03:00:00,3,1020.2,-1.1,87,1,15000,18.52,,,150,,,,,,,,,,,wg-a,,,,AAXX 17034 07481 12/65 01510 10030 20010 39905 40202 57011 60006 80000 90300=
07481,1997-01-17 06:00:00,3,1019.4,-0.6,93,2,15000,18.52,,,140,1.8,7.1,,,,,,,,,wg-a,,6,,AAXX 17064 07481 02/65 41410 10030 20020 39898 40194 58006 60006 81031 90600 333 10071 20018 4/006 60004=
07481,1997-01-17 09:00:00,4,1020,0.6,81,1,15000,11.112,,,120,,,,,,,,,,,wg-a,,,,AAXX 17094 07481 12/65 51206 10040 20010 39904 40200 52006 60006 81042 90900=
07481,1997-01-17 12:00:00,9,1019.3,-0.2,57,1,20000,11.112,,,130,,,,,,,,,,,wg-a,,,,AAXX 17124 07481 12/70 51306 10090 20010 39902 40193 58002 60006 81042 91200=
07481,1997-01-17 15:00:00,7,1019.3,-0.2,61,0,20000,11.112,,,140,,,,,,,,,,,wg-a,,,,AAXX 17154 07481 12770 61406 10070 20000 39900 40193 55002 60006 81542 91500=
07481,1997-01-17 18:00:00,5,1020.1,0.6,75,1,15000,11.112,,,140,3.2,9.6,,,,,,,,,wg-a,,5,,AAXX 17184 07481 12/65 61406 10050 20010 39906 40201 53006 60006 84031 91800 333 10096 20032 4/005=
07481,1997-01-17 21:00:00,5,1020.8,0.7,75,1,15000,14.816,,,150,,,,,,,,,,,wg-a,,,,AAXX 17214 07481 12/65 51508 10050 20010 39913 40208 51007 60006 85030 92100=
07481,1997-01-18 00:00:00,3,1021.8,0.8,81,0,15000,14.816,,,150,,,,,,,,,,,wg-a,,,,AAXX 18004 07481 12/65 71508 10030 20000 39921 40218 51008 60006 87070 90000=
07481,1997-01-18 03:00:00,3,1021.8,-0,81,0,10000,3.704,,,120,,,,,,,,,,60,wg-a,,,,AAXX 18034 07481 02460 81202 10030 20000 39921 40218 55000 61000 76062 8167/ 90300 333 ////=
07481,1997-01-18 06:00:00,2,1021.8,-0,93,1,9000,0,,,0,2.2,5.1,,,,,,,,21,wg-a,,4,,AAXX 18064 07481 02759 80000 10020 20010 39920 40218 55000 61000 72162 8357/ 90600 333 10051 20022 4/004 6100=
07481,1997-01-18 09:00:00,4,1022.2,0.4,75,0,8000,3.704,,,120,,,,,,,,,,,wg-a,,,,AAXX 18094 07481 12758 71202 10040 20000 39925 40222 53004 60006 8157/ 90900=
07481,1997-01-18 12:00:00,6,1020.1,-1.7,70,1,8000,7.408,,,100,,,,,,,,,,,wg-a,,,,AAXX 18124 07481 12/58 71004 10060 20010 39908 40201 58017 60006 8703/ 91200=
07481,1997-01-18 15:00:00,8,1017.5,-2.4,57,0,10000,3.704,,,80,,,,,,,,,,,wg-a,,,,AAXX 18154 07481 12/60 50802 10080 20000 39884 40175 56024 60006 85030 91500=
07481,1997-01-18 18:00:00,5,1016.4,-1.3,70,0,12000,14.816,,,140,2.3,8.6,,,,,,,,,wg-a,,0,,AAXX 18184 07481 12/62 61408 10050 20000 39871 40164 57013 60006 85042 91800 333 10086 20023 4/000=
07481,1997-01-18 21:00:00,4,1016.2,-0.3,81,1,12000,11.112,,,140,,,,,,,,,,,wg-a,,,,AAXX 18214 07481 12/62 71406 10040 20010 39868 40162 57003 60006 82046 92100=
07481,1997-01-19 00:00:00,4,1014.8,-1.4,75,0,15000,14.816,,,150,,,,,,,,,,,wg-a,,,,AAXX 19004 07481 12/65 81508 10040 20000 39854 40148 57014 60006 8707/ 90000=
07481,1997-01-19 03:00:00,4,1013.8,-1,81,1,15000,7.408,,,120,,,,0,,,,,,21,wg-a,,,,AAXX 19034 07481 12665 81204 10040 20010 39844 40138 56010 60007 72162 8257/ 90300=
07481,1997-01-19 06:00:00,4,1013.2,-0.4,81,1,15000,11.112,,,140,3.5,6.7,,,,,,,,60,wg-a,,0,,AAXX 19064 07481 02665 81406 10040 20010 39839 40132 58004 61000 76062 8457/ 90600 333 10067 20035 4/000 6000=
07481,1997-01-19 09:00:00,9,1013.9,1.2,76,5,20000,11.112,,,200,,,,,,,,,,2,wg-a,,,,AAXX 19094 07481 02470 82006 10090 20050 39850 40139 53012 61000 70262 878// 90900 333 ////=
07481,1997-01-19 12:00:00,8,1013.8,-0.1,87,6,12000,18.52,,,210,,,,1,,,,,,61,wg-a,,,,AAXX 19124 07481 02462 82110 10080 20060 39849 40138 58001 60016 76162 8687/ 91200 333 60017=
07481,1997-01-19 15:00:00,4,1013.8,-0.4,100,4,7000,25.928,,,140,,,,4,,,,,,61,wg-a,,,,AAXX 19154 07481 12357 81414 10040 20040 39845 40138 58004 60047 76166 878// 91500=
07481,1997-01-19 18:00:00,5,1015.4,1.7,93,4,6000,14.816,,,140,4,9,,,,,,,,61,wg-a,,,,AAXX 19184 07481 02456 81408 10050 20040 39861 40154 53017 61000 76166 8487/ 91800 333 10090 20040 6001=
07481,1997-01-19 21:00:00,5,1015.9,0.5,93,4,15000,7.408,,,170,,,,1,,,,,,2,wg-a,,,,AAXX 19214 07481 12565 71704 10050 20040 39866 40159 53005 60017 70262 8157/ 92100=
07481,1997-01-20 00:00:00,5,1016,0,93,4,12000,3.704,,,210,,,,0,,,,,,60,wg-a,,,,AAXX 20004 07481 02262 82102 10050 20040 39866 40160 50000 60016 76062 8177/ 90000 333 60007=
07481,1997-01-20 03:00:00,3,1015.5,-0.6,100,3,800,3.704,,,340,,,,5,,,,,,10,wg-a,,,,AAXX 20034 07481 12208 83402 10030 20030 39860 40155 56006 60057 71066 8357/ 90300=
07481,1997-01-20 06:00:00,4,1014.8,-0.6,93,3,1000,7.408,,,20,3.4,5.3,,,,,,,,10,wg-a,,,,AAXX 20064 07481 02110 80204 10040 20030 39854 40148 58006 61000 71066 8452/ 90600 333 10053 20034 6018=
07481,1997-01-20 09:00:00,4,1016.4,1.5,100,4,700,3.704,,,300,,,,5,,,,,,10,wg-a,,,,AAXX 20094 07481 12107 83002 10040 20040 39870 40164 53015 60057 71066 877// 90900=
07481,1997-01-20 12:00:00,5,1018.1,1.7,93,4,2500,3.704,,,340,,,,3,,,,,,10,wg-a,,,,AAXX 20124 07481 02125 83402 10050 20040 39887 40181 51017 60096 71066 886// 91200 333 60037=
07481,1997-01-20 15:00:00,4,1018.6,0.4,100,4,1800,7.408,,,330,,,,0,,,,,,10,wg-a,,,,AAXX 20154 07481 12118 83304 10040 20040 39891 40186 53004 60007 71065 886// 91500=
07481,1997-01-20 18:00:00,3,1019.7,0.9,100,3,1800,7.408,,,330,3.1,4.7,,,,,,,,10,wg-a,,,,AAXX 20184 07481 12/18 /3304 10030 20030 39901 40197 51009 60006 710// 91800 333 10047 20031=
07481,1997-01-20 21:00:00,3,1020.8,1,100,3,1800,0,,,0,,,,6,,,,,,10,wg-a,,,,AAXX 20214 07481 12118 80000 10030 20030 39911 40208 51010 60067 71066 886// 92100=
07481,1997-01-21 00:00:00,3,1021.5,0.7,100,3,3500,3.704,,,250,,,,5,,,,,,10,wg-a,,,,AAXX 21004 07481 02135 82502 10030 20030 39918 40215 51007 60116 71064 886// 90000 333 60057=
07481,1997-01-21 03:00:00,3,1021.4,-0.1,100,3,3500,0,,,0,,,,1,,,,,,10,wg-a,,,,AAXX 21034 07481 12235 80000 10030 20030 39917 40214 56001 60017 71062 886// 90300=
07481,1997-01-21 06:00:00,3,1022,0.6,100,3,1200,0,,,0,2.8,3.4,,,,,21,,,10,wg-a,,,,AAXX 21064 07481 02112 80000 10030 20030 39923 40220 53006 60006 71064 886// 90600 333 10034 20028 60214=
07481,1997-01-21 09:00:00,3,1023,0.9,100,3,2000,0,,,0,,,,,,,,,,10,wg-a,,,,AAXX 21094 07481 12420 70000 10030 20030 39933 40230 51009 60006 71022 875// 90900=
07481,1997-01-21 12:00:00,6,1022,-0.6,93,5,4500,7.408,,,40,,,,,,,,,,10,wg-a,,,,AAXX 21124 07481 12245 70404 10060 20050 39926 40220 58006 60006 71022 8383/ 91200=
07481,1997-01-21 15:00:00,8,1020.7,-1,87,6,12000,7.408,,,90,,,,,,,,,,,wg-a,,,,AAXX 21154 07481 12762 60904 10080 20060 39916 40207 56010 60006 81532 91500=
07481,1997-01-21 18:00:00,8,1020.8,0.1,81,5,12000,11.112,,,90,3,8.4,,,,,,,,,wg-a,,,,AAXX 21184 07481 12762 70906 10080 20050 39917 40208 53001 60006 82532 91800 333 10084 20030=
07481,1997-01-21 21:00:00,7,1021.3,0.3,81,4,12000,3.704,,,90,,,,,,,,,,,wg-a,,,,AAXX 21214 07481 12762 70902 10070 20040 39920 40213 51003 60006 8253/ 92100=
07481,1997-01-22 00:00:00,7,1020.9,-0.4,81,4,15000,14.816,,,110,,,,,,,,,,,wg-a,,,,AAXX 22004 07481 12/65 71108 10070 20040 39916 40209 56004 60006 84032 90000=
07481,1997-01-22 03:00:00,4,1020.6,-0.6,87,2,12000,3.704,,,110,,,,,,,,,,,wg-a,,,,AAXX 22034 07481 12/62 71102 10040 20020 39911 40206 56006 60006 82032 90300=
07481,1997-01-22 06:00:00,5,1020.5,0.1,87,3,12000,3.704,,,130,4.1,8.1,,,,,,,,,wg-a,,,,AAXX 22064 07481 02762 71302 10050 20030 39911 40205 53001 60006 83532 90600 333 10081 20041 60004=
07481,1997-01-22 09:00:00,6,1022.8,2.2,81,3,20000,0,,,0,,,,,,,,,,,wg-a,,,,AAXX 22094 07481 12670 80000 10060 20030 39933 40228 51022 60006 84532 90900=
07481,1997-01-22 12:00:00,9,1022.4,-0.1,81,6,500,14.816,,,150,,,,,,,,,,,wg-a,,,,AAXX 22124 07481 12600 81508 10090 20060 39934 40224 58001 60006 8453/ 91200=
07481,1997-01-22 15:00:00,12,1022.2,0.1,76,8,20000,3.704,,,270,,,,,,,,,,,wg-a,,,,AAXX 22154 07481 12670 82702 10120 20080 39934 40222 53001 60006 8653/ 91500=
07481,1997-01-22 18:00:00,11,1022.1,-0.1,87,9,18000,3.704,,,230,5.1,11.8,,,,,,,,60,wg-a,,,,AAXX 22184 07481 02668 82302 10110 20090 39932 40221 57001 61000 76062 8687/ 91800 333 10118 20051 6100=
07481,1997-01-22 21:00:00,11,1022.1,-0.1,87,9,18000,3.704,,,230,5.1,11.8,,,,,,,,60,wg-a,,,,AAXX 22214 07481 02668 82302 10110 20090 39932 40221 57001 61000 7606/ 8687/ 92100 333 10118 20051 ////=
07481,1997-01-23 00:00:00,12,1022.4,-0,76,8,15000,18.52,,,180,,,,,,,,,,1,wg-a,,,,AAXX 23004 07481 02665 81810 10120 20080 39936 40224 55000 61000 70162 8287/ 90000 333 ////=
07481,1997-01-23 03:00:00,9,1022.5,-0.2,81,6,15000,11.112,,,140,,,,,,,,,,,wg-a,,,,AAXX 23034 07481 12665 81406 10090 20060 39934 40225 56002 60006 8287/ 90300=
07481,1997-01-23 06:00:00,10,1022.9,0.5,76,6,15000,3.704,,,100,8.6,13.1,,,,,,,,,wg-a,,,,AAXX 23064 07481 02665 81002 10100 20060 39939 40229 53005 60006 8257/ 90600 333 10131 20086 61000=
07481,1997-01-23 09:00:00,10,1023.9,1,76,6,25000,14.816,,,130,,,,,,,,,,,wg-a,,,,AAXX 23094 07481 12775 81308 10100 20060 39949 40239 53010 60006 8257/ 90900=
07481,1997-01-23 12:00:00,13,1023.2,-0.5,62,6,500,14.816,,,120,,,,,,,,,,,wg-a,,,,AAXX 23124 07481 12700 81208 10130 20060 39945 40232 58005 60006 82572 91200=
07481,1997-01-23 18:00:00,9,1023.4,1.1,76,5,25000,3.704,,,90,8.7,13.1,,,,,,,,,wg-a,,,,AAXX 23184 07481 12775 70902 10090 20050 39943 40234 51011 60006 82572 91800 333 10131 20087=
07481,1997-01-23 21:00:00,11,1024.2,1,71,6,25000,14.816,,,160,,,,,,,,,,,wg-a,,,,AAXX 23214 07481 12/75 71608 10110 20060 39953 40242 51010 60006 83036 92100=
07481,1997-01-24 00:00:00,10,1025.1,0.8,76,6,20000,11.112,,,150,,,,,,,,,,,wg-a,,,,AAXX 24004 07481 12/70 71506 10100 20060 39961 40251 53008 60006 82036 90000=
07481,1997-01-24 03:00:00,9,1025.6,0.3,81,6,20000,11.112,,,150,,,,,,,,,,,wg-a,,,,AAXX 24034 07481 12/70 81506 10090 20060 39964 40256 53003 60006 80007 90300=
07481,1997-01-24 06:00:00,8,1025.9,0.2,81,5,20000,11.112,,,150,7.1,11.8,,,,,,,,,wg-a,,,,AAXX 24064 07481 02/70 81506 10080 20050 39966 40259 53002 60006 8802/ 90600 333 10118 20071 60004=
07481,1997-01-24 09:00:00,8,1027.2,1.3,81,5,17000,7.408,,,170,,,,,,,,,,,wg-a,,,,AAXX 24094 07481 12/67 61704 10080 20050 39979 40272 52013 60006 83032 90900=
07481,1997-01-24 12:00:00,14,1026.9,0.3,63,7,17000,3.704,,,160,,,,,,,,,,,wg-a,,,,AAXX 24124 07481 12/67 61602 10140 20070 39982 40269 50003 60006 83039 91200=
07481,1997-01-24 15:00:00,13,1026.6,-0.4,67,7,20000,7.408,,,150,,,,,,,,,,,wg-a,,,,AAXX 24154 07481 12870 71504 10130 20070 39978 40266 55004 60006 86052 91500=
07481,1997-01-24 18:00:00,9,1027.7,0.7,81,6,15000,3.704,,,330,7,15,,,,,,,,,wg-a,,,,AAXX 24184 07481 12/65 63302 10090 20060 39985 40277 53007 60006 84042 91800 333 10150 20070=
07481,1997-01-25 00:00:00,6,1029.4,0.3,87,4,10000,7.408,,,180,,,,,,,,,,,wg-a,,,,AAXX 25004 07481 12/60 01804 10060 20040 39998 40294 50003 60006 80000 90000=
07481,1997-01-25 03:00:00,3,1029.3,-0.4,100,3,6000,3.704,,,170,,,,,,,,,,,wg-a,,,,AAXX 25034 07481 12/56 01702 10030 20030 39994 40293 58004 60006 80000 90300=
07481,1997-01-25 06:00:00,2,1029.4,-0.1,93,1,100,0,,,0,1.5,9.1,,,,,,,,45,wg-a,,,,AAXX 25064 07481 02/01 90000 10020 20010 39993 40294 56001 60006 74541 89/// 90600 333 10091 20015 60004=
07481,1997-01-25 09:00:00,3,1030,0.7,100,3,200,0,,,0,,,,,,,,,,45,wg-a,,,,AAXX 25094 07481 12/02 90000 10030 20030 30000 40300 53007 60006 74544 89/// 90900=
07481,1997-01-25 12:00:00,4,1028.8,-1,100,4,900,3.704,,,270,,,,,,,,,,42,wg-a,,,,AAXX 25124 07481 12109 82702 10040 20040 39990 40288 58010 60006 74244 886// 91200=
07481,1997-01-25 15:00:00,5,1028,-0.7,93,4,400,7.408,,,40,,,,,,,,,,44,wg-a,,,,AAXX 25154 07481 12104 80404 10050 20040 39983 40280 56007 60006 74444 886// 91500=
07481,1997-01-25 18:00:00,4,1028.2,0.2,100,4,200,7.408,,,340,1.8,4.8,,,,,,,,45,wg-a,,,,AAXX 25184 07481 12/02 93404 10040 20040 39984 40282 53002 60006 74544 89/// 91800 333 10048 20018=
07481,1997-01-25 21:00:00,4,1028.5,0.3,100,4,300,3.704,,,250,,,,,,,,,,43,wg-a,,,,AAXX 25214 07481 12/03 92502 10040 20040 39987 40285 51003 60006 74344 89/// 92100=
07481,1997-01-26 00:00:00,3,1029,0.3,100,3,1800,3.704,,,20,,,,,,,,,,10,wg-a,,,,AAXX 26004 07481 12118 80202 10030 20030 39991 40290 50003 60006 71042 886// 90000=
07481,1997-01-26 03:00:00,3,1028.1,-0.9,100,3,2000,3.704,,,10,,,,,,,,,,10,wg-a,,,,AAXX 26034 07481 12220 80102 10030 20030 39982 40281 58009 60006 71022 886// 90300=
07481,1997-01-26 06:00:00,3,1027.3,-0.9,100,3,3000,7.408,,,70,2.8,3.9,,,,,,,,10,wg-a,,,,AAXX 26064 07481 02130 80704 10030 20030 39974 40273 56009 60006 71022 886// 90600 333 10039 20028 60004=
07481,1997-01-26 09:00:00,3,1028.2,1.1,100,3,500,0,,,0,,,,,,,,,,,wg-a,,,,AAXX 26094 07481 12200 80000 10030 20030 39984 40282 53011 60006 886// 90900=
07481,1997-01-26 12:00:00,4,1027.7,-0.4,100,4,500,3.704,,,340,,,,,,,,,,,wg-a,,,,AAXX 26124 07481 12100 83402 10040 20040 39980 40277 58004 60006 885// 91200=
07481,1997-01-26 15:00:00,5,1027.2,-0.5,87,3,6000,7.408,,,20,,,,,,,,,,,wg-a,,,,AAXX 26154 07481 12256 80204 10050 20030 39975 40272 56005 60006 885// 91500=
07481,1997-01-26 18:00:00,4,1027.6,0.4,93,3,8000,3.704,,,50,3,4.6,,,,,,,,,wg-a,,,,AAXX 26184 07481 12258 80502 10040 20030 39979 40276 53004 60006 886// 91800 333 10046 20030=
07481,1997-01-27 00:00:00,3,1028.5,0,100,3,6000,3.704,,,300,,,,,,,,,,2,wg-a,,,,AAXX 27004 07481 02156 83002 10030 20030 39986 40285 50000 61000 70252 886// 90000 333 ////=
07481,1997-01-27 03:00:00,3,1028.8,0.3,100,3,8000,3.704,,,70,,,,,,,,,,,wg-a,,,,AAXX 27034 07481 12458 80702 10030 20030 39989 40288 50003 60006 885// 90300=
07481,1997-01-27 06:00:00,3,1029,0.2,93,2,7000,3.704,,,20,3.3,4.3,,,,,,,,,wg-a,,,,AAXX 27064 07481 02257 80202 10030 20020 39991 40290 53002 60006 886// 90600 333 10043 20033 61000=
07481,1997-01-27 12:00:00,4,1030.7,0.3,87,2,15000,7.408,,,40,,,,,,,,,,,wg-a,,,,AAXX 27124 07481 12265 80404 10040 20020 30009 40307 50003 60006 886// 91200=
07481,1997-01-27 15:00:00,5,1030.6,-0.1,75,1,500,7.408,,,350,,,,,,,,,,,wg-a,,,,AAXX 27154 07481 12400 83504 10050 20010 30008 40306 55001 60006 875// 91500=
07481,1997-01-27 18:00:00,4,1031.9,1.2,87,2,25000,3.704,,,340,3.2,4.9,,,,,,,,,wg-a,,,,AAXX 27184 07481 12475 83402 10040 20020 30020 40319 53012 60006 875// 91800 333 10049 20032=
07481,1997-01-27 21:00:00,4,1032.5,0.6,81,1,25000,11.112,,,10,,,,,,,,,,,wg-a,,,,AAXX 27214 07481 12575 80106 10040 20010 30026 40325 52006 60006 885// 92100=
07481,1997-01-28 00:00:00,4,1032.3,-0.2,75,0,25000,11.112,,,350,,,,,,,,,,,wg-a,,,,AAXX 28004 07481 12575 83506 10040 20000 30024 40323 58002 60006 885// 90000=
07481,1997-01-28 03:00:00,2,1032.2,-0.4,80,-1,20000,18.52,,,20,,,,,,,,,,,wg-a,,,,AAXX 28034 07481 12570 80210 10020 21010 30020 40322 56004 60006 885// 90300=
07481,1997-01-28 06:00:00,0,1032.6,0.2,80,-3,15000,18.52,,,340,0,4.3,,,,,,,,,wg-a,,,,AAXX 28064 07481 02565 83410 10000 21030 30022 40326 53002 60006 885// 90600 333 10043 20000 60004=
07481,1997-01-28 09:00:00,0,1033.7,0.9,80,-3,8000,18.52,,,350,,,,,,,,,,,wg-a,,,,AAXX 28094 07481 12558 83510 10000 21030 30033 40337 51009 60006 885// 90900=
07481,1997-01-28 12:00:00,0,1034.1,0.5,86,-2,6000,14.816,,,350,,,,,,,,,,,wg-a,,,,AAXX 28124 07481 12456 83508 10000 21020 30037 40341 50005 60006 885// 91200=
07481,1997-01-28 15:00:00,1,1034.7,0.7,80,-2,6000,11.112,,,10,,,,,,,,,,,wg-a,,,,AAXX 28154 07481 12456 /0106 10010 21020 30044 40347 53007 60006 875// 91500=
07481,1997-01-28 18:00:00,1,1036.1,1.4,86,-1,6000,3.704,,,10,-0.4,1.4,,,,,,,,,wg-a,,,,AAXX 28184 07481 12456 80102 10010 21010 30058 40361 53014 60006 885// 91800 333 10014 21004=
07481,1997-01-28 21:00:00,1,1037.4,1.2,86,-1,6000,3.704,,,190,,,,,,,,,,,wg-a,,,,AAXX 28214 07481 12456 81902 10010 21010 30070 40374 51012 60006 885// 92100=
07481,1997-01-29 00:00:00,-1,1037.8,0.2,93,-2,500,7.408,,,150,,,,,,,,,,,wg-a,,,,AAXX 29004 07481 12400 31504 11010 21020 30072 40378 51002 60006 83500 90000=
07481,1997-01-29 03:00:00,0,1037.8,0.1,93,-1,500,3.704,,,150,,,,,,,,,,,wg-a,,,,AAXX 29034 07481 12400 71502 10000 21010 30073 40378 50001 60006 875// 90300=
07481,1997-01-29 06:00:00,0,1037.9,-0,93,-1,500,3.704,,,110,-1.3,1.5,,,,,,,,,wg-a,,,,AAXX 29064 07481 02400 71102 10000 21010 30074 40379 55000 60006 875// 90600 333 10015 21013 60004=
07481,1997-01-29 09:00:00,1,1038.4,0.6,93,0,3500,3.704,,,30,,,,,,,,,,10,wg-a,,,,AAXX 29094 07481 12235 80302 10010 20000 30080 40384 51006 60006 71022 886// 90900=
07481,1997-01-29 12:00:00,2,1037.3,,87,0,500,7.408,,,30,,,,,,,,,,,wg-a,,,,AAXX 29124 07481 12200 80304 10020 20000 30070 40373 60006 886// 91200=
07481,1997-01-29 15:00:00,2,1036.3,-1,87,0,4500,3.704,,,320,,,,,,,,,,10,wg-a,,,,AAXX 29154 07481 12345 83202 10020 20000 30060 40363 56010 60006 71022 886// 91500=
07481,1997-01-29 18:00:00,0,1036.8,,93,-1,4000,7.408,,,340,0,1.9,,,,,,,,10,wg-a,,,,AAXX 29184 07481 12140 83404 10000 21010 30064 40368 60006 71022 886// 91800 333 10019 20000=
07481,1997-01-29 21:00:00,0,1037.2,0.3,100,0,3500,7.408,,,330,,,,,,,,,,10,wg-a,,,,AAXX 29214 07481 12135 83304 10000 20000 30067 40372 51003 60006 71022 886// 92100=
07481,1997-01-30 00:00:00,0,1036.7,-0.5,93,-1,2500,7.408,,,340,,,,,,,,,,10,wg-a,,,,AAXX 30004 07481 12125 83404 10000 21010 30062 40367 56005 60006 71022 886// 90000=
07481,1997-01-30 03:00:00,0,1036.1,-0.6,93,-1,3500,7.408,,,30,,,,,,,,,,10,wg-a,,,,AAXX 30034 07481 12135 80304 10000 21010 30056 40361 57006 60006 71022 886// 90300=
07481,1997-01-30 06:00:00,-1,1035.8,-0.3,100,-1,4000,3.704,,,40,-0.5,0.4,,,,,,,,10,wg-a,,,,AAXX 30064 07481 02140 80402 11010 21010 30053 40358 55003 60006 71022 886// 90600 333 10004 21005 60004=
07481,1997-01-30 09:00:00,-1,1036.6,0.7,100,-1,1800,3.704,,,30,,,,,,,,,,10,wg-a,,,,AAXX 30094 07481 12118 80302 11010 21010 30061 40366 53007 60006 71022 886// 90900=
07481,1997-01-30 12:00:00,0,1036.1,-0.3,93,-1,2500,3.704,,,90,,,,,,,,,,10,wg-a,,,,AAXX 30124 07481 12225 80902 10000 21010 30057 40361 58003 60006 71022 886// 91200=
07481,1997-01-30 15:00:00,1,1034.5,-1.5,86,-1,3000,7.408,,,30,,,,,,,,,,10,wg-a,,,,AAXX 30154 07481 12230 80304 10010 21010 30042 40345 56015 60006 71022 886// 91500=
07481,1997-01-30 18:00:00,0,1034.9,0.2,93,-1,3000,11.112,,,40,-0.6,1,,,,,,,,10,wg-a,,,,AAXX 30184 07481 12130 80406 10000 21010 30044 40349 52002 60006 71022 886// 91800 333 10010 21006=
07481,1997-01-31 00:00:00,-1,1034.5,-0.2,93,-2,800,3.704,,,50,,,,,,,,,,45,wg-a,,,,AAXX 31004 07481 12/08 90502 11010 21020 30039 40345 55002 60006 74542 89/// 90000=
07481,1997-01-31 03:00:00,-2,1033.8,-0.7,100,-2,1500,3.704,,,40,,,,,,,,,,40,wg-a,,,,AAXX 31034 07481 12015 80402 11020 21020 30032 40338 58007 60006 74042 886// 90300=
07481,1997-01-31 12:00:00,-1,1032.7,-1.1,93,-2,3000,0,,,0,,,,,,,,,,10,wg-a,,,,AAXX 31124 07481 12130 80000 11010 21020 30022 40327 58011 60006 71022 886// 91200=
07481,1997-01-31 15:00:00,-1,1031.7,-1,93,-2,4000,3.704,,,360,,,,,,,,,,10,wg-a,,,,AAXX 31154 07481 12140 83602 11010 21020 30012 40317 56010 60006 71022 886// 91500=
07481,1997-01-31 18:00:00,-2,1032,0.3,100,-2,1500,11.112,,,10,-1.8,-0.9,,,,,,,,10,wg-a,,,,AAXX 31184 07481 12015 80106 11020 21020 30015 40320 53003 60006 71022 886// 91800 333 11009 21018=
07481,1997-01-31 21:00:00,-2,1031.9,-0.1,100,-2,3500,11.112,,,360,,,,,,,,,,10,wg-a,,,,AAXX 31214 07481 12035 83606 11020 21020 30014 40319 57001 60006 71022 886// 92100=
07481,1997-02-01 00:00:00,-2,1032.1,0.1,100,-2,4500,7.408,,,20,,,,,,,,,,10,wg-a,,,,AAXX 01004 07481 02045 80204 11020 21020 30015 40321 50001 61000 71072 886// 90000 333 6100=
07481,1997-02-01 03:00:00,-2,1031.4,-0.6,100,-2,4000,3.704,,,50,,,,,,,,,,10,wg-a,,,,AAXX 01034 07481 12140 80502 11020 21020 30009 40314 58006 60006 71022 886// 90300=
07481,1997-02-01 06:00:00,-2,1031.4,-0,100,-2,3500,3.704,,,10,-2.1,-1.5,,,,,,,,10,wg-a,,,,AAXX 01064 07481 02135 80102 11020 21020 30009 40314 55000 61000 71075 886// 90600 333 11015 21021 6100=
07481,1997-02-01 09:00:00,-2,1031.5,0.1,100,-2,3000,3.704,,,90,,,,,,,,,,10,wg-a,,,,AAXX 01094 07481 02230 80902 11020 21020 30010 40315 50001 61000 71052 886// 90900 333 ////=
07481,1997-02-01 15:00:00,-1,1030.6,-0.6,93,-2,3000,3.704,,,360,,,,,,,,,,10,wg-a,,,,AAXX 01154 07481 12230 83602 11010 21020 30002 40306 56006 60006 71022 886// 91500=
07481,1997-02-01 18:00:00,-1,1030.9,0.3,93,-2,4000,3.704,,,330,-1.6,-0.8,,,,,,,,10,wg-a,,,,AAXX 01184 07481 12240 83302 11010 21020 30005 40309 53003 60006 71022 886// 91800 333 11008 21016=
07481,1997-02-01 21:00:00,-1,1030.5,-0.4,93,-2,2500,3.704,,,300,,,,,,,,,,10,wg-a,,,,AAXX 01214 07481 12125 83002 11010 21020 30001 40305 58004 60006 71022 886// 92100=
07481,1997-02-02 06:00:00,-2,1029,-0.1,100,-2,800,3.704,,,130,-2,-0.9,,,,,,,,45,wg-a,,,,AAXX 02064 07481 02/08 91302 11020 21020 39985 40290 55001 60006 74542 89/// 90600 333 11009 21020 61000=
07481,1997-02-02 09:00:00,-1,1029.3,0.4,93,-2,1200,3.704,,,10,,,,,,,,,,10,wg-a,,,,AAXX 02094 07481 12112 80102 11010 21020 39989 40293 53004 60006 71042 886// 90900=
07481,1997-02-02 12:00:00,1,1028.6,-0.4,93,0,2700,0,,,0,,,,,,,,,,10,wg-a,,,,AAXX 02124 07481 12227 80000 10010 20000 39984 40286 58004 60006 71042 886// 91200=
07481,1997-02-02 15:00:00,2,1027.6,-0.8,93,1,4500,7.408,,,50,,,,,,,,,,10,wg-a,,,,AAXX 02154 07481 12245 80504 10020 20010 39976 40276 56008 60006 71022 886// 91500=
07481,1997-02-02 18:00:00,1,1028.4,0.7,93,0,4500,3.704,,,20,-2.1,2.1,,,,,,,,10,wg-a,,,,AAXX 02184 07481 12145 80202 10010 20000 39983 40284 53007 60006 71022 886// 91800 333 10021 21021=
07481,1997-02-02 21:00:00,1,1028.5,0.1,100,1,3000,3.704,,,30,,,,,,,,,,10,wg-a,,,,AAXX 02214 07481 12130 80302 10010 20010 39984 40285 51001 60006 71022 886// 92100=
07481,1997-02-03 00:00:00,1,1028.7,0.1,100,1,700,7.408,,,50,,,,,,,,,,44,wg-a,,,,AAXX 03004 07481 12107 80504 10010 20010 39985 40287 50001 60006 74442 886// 90000=
07481,1997-02-03 03:00:00,1,1028.1,-0.6,93,0,4000,3.704,,,80,,,,,,,,,,10,wg-a,,,,AAXX 03034 07481 02140 80802 10010 20000 39979 40281 58006 61000 71054 886// 90300 333 ////=
07481,1997-02-03 06:00:00,1,1028.3,0.2,93,0,1000,7.408,,,80,0.5,1.1,,,,,,,,10,wg-a,,,,AAXX 03064 07481 02010 80804 10010 20000 39981 40283 53002 60006 71054 886// 90600 333 10011 20005 61000=
07481,1997-02-03 09:00:00,1,1029.7,1.4,93,0,6000,11.112,,,30,,,,,,,,,,,wg-a,,,,AAXX 03094 07481 12256 80306 10010 20000 39995 40297 51014 60006 885// 90900=
07481,1997-02-03 12:00:00,2,1029.7,0.1,87,0,8000,7.408,,,20,,,,,,,,,,,wg-a,,,,AAXX 03124 07481 12358 80204 10020 20000 39996 40297 50001 60006 885// 91200=
07481,1997-02-03 15:00:00,2,1029.3,-0.4,80,-1,8000,11.112,,,30,,,,,,,,,,,wg-a,,,,AAXX 03154 07481 12458 80306 10020 21010 39992 40293 55004 60006 885// 91500=
07481,1997-02-03 18:00:00,0,1030.6,1.1,93,-1,8000,7.408,,,30,0.3,1.8,,,,,,,,,wg-a,,,,AAXX 03184 07481 12358 80304 10000 21010 30003 40306 51011 60006 886// 91800 333 10018 20003=
07481,1997-02-03 21:00:00,0,1031.2,0.6,93,-1,6000,7.408,,,30,,,,,,,,,,,wg-a,,,,AAXX 03214 07481 12/56 /0304 10000 21010 30009 40312 51006 60006 92100=
07481,1997-02-04 00:00:00,-1,1030.4,-0.5,93,-2,7000,3.704,,,130,-0.6,0.3,,,,,,,,,wg-a,,,,AAXX 04004 07481 02257 81302 11010 21020 30000 40304 56005 60006 886// 90000 333 10003 21006 60004=
07481,1997-02-04 03:00:00,0,1030.8,-0.6,93,-1,8000,7.408,,,100,,,,,,,,,,,wg-a,,,,AAXX 04034 07481 12258 81004 10000 21010 30005 40308 58006 60006 886// 90300=
07481,1997-02-04 06:00:00,-1,1030.4,-0.5,93,-2,7000,3.704,,,130,-0.6,0.3,,,,,,,,,wg-a,,,,AAXX 04064 07481 02257 81302 11010 21020 30000 40304 56005 60006 886// 90600 333 10003 21006 60004=
07481,1997-02-04 09:00:00,-1,1030.7,0.3,93,-2,500,11.112,,,160,,,,,,,,,,,wg-a,,,,AAXX 04094 07481 12200 81606 11010 21020 30003 40307 51003 60006 886// 90900=
07481,1997-02-04 12:00:00,1,1029.8,,86,-1,6000,3.704,,,150,,,,,,,,,,,wg-a,,,,AAXX 04124 07481 12356 81502 10010 21010 39997 40298 60006 8/200 91200=
07481,1997-02-04 15:00:00,5,1026.3,-2.6,70,0,7000,3.704,,,200,,,,,,,,,,,wg-a,,,,AAXX 04154 07481 12/57 22002 10050 20000 39966 40263 56026 60006 80002 91500=
07481,1997-02-04 18:00:00,2,1026,-0.6,87,0,6000,3.704,,,50,-0.9,5.3,,,,,,,,11,wg-a,,,,AAXX 04184 07481 12/56 /0502 10020 20000 39960 40260 55006 60006 71111 80004 91800 333 10053 21009=
07481,1997-02-04 21:00:00,1,1026,-0.1,86,-1,6000,7.408,,,160,,,,,,,,,,,wg-a,,,,AAXX 04214 07481 12/56 /1604 10010 21010 39959 40260 58001 60006 80002 92100=
07481,1997-02-05 00:00:00,-1,1025.5,-0.6,93,-2,500,3.704,,,70,,,,,,,,,,,wg-a,,,,AAXX 05004 07481 12/00 30702 11010 21020 39953 40255 58006 60006 80002 90000=
07481,1997-02-05 03:00:00,6,1023.7,-0.9,75,2,10000,18.52,,,200,,,,,,,,,,,wg-a,,,,AAXX 05034 07481 12760 52010 10060 20020 39943 40237 56009 60006 82532 90300=
07481,1997-02-05 06:00:00,6,1024.5,0.7,81,3,9000,11.112,,,230,-0.6,6.8,,,,,,,,60,wg-a,,,,AAXX 05064 07481 02759 72306 10060 20030 39951 40245 53007 61000 76061 82532 90600 333 10068 21006 6100=
07481,1997-02-05 09:00:00,5,1024.5,-0.2,93,4,9000,18.52,,,150,,,,1,,,,,,61,wg-a,,,,AAXX 05094 07481 12659 81510 10050 20040 39950 40245 57002 60017 76166 8357/ 90900=
07481,1997-02-05 12:00:00,7,1023.8,-0.5,81,4,12000,14.816,,,170,,,,,,,,,,1,wg-a,,,,AAXX 05124 07481 02562 71708 10070 20040 39944 40238 57005 60016 70162 858// 91200 333 61000=
07481,1997-02-05 15:00:00,7,1023,-0.7,87,5,9000,14.816,,,170,,,,1,,,,,,60,wg-a,,,,AAXX 05154 07481 12559 81708 10070 20050 39937 40230 56007 60017 76062 8587/ 91500=
07481,1997-02-05 18:00:00,6,1026.5,3.3,93,5,8000,11.112,,,330,5.4,7.5,,,,,,,,21,wg-a,,,,AAXX 05184 07481 02658 43306 10060 20050 39970 40265 53033 61000 72161 82530 91800 333 10075 20054 6001=
07481,1997-02-05 21:00:00,5,1029.8,3.1,93,4,10000,22.224,,,340,,,,0,,,,,,80,wg-a,,,,AAXX 05214 07481 12560 73412 10050 20040 30001 40298 53031 60007 78086 878// 92100=
07481,1997-02-06 00:00:00,4,1032.6,2.6,93,3,12000,11.112,,,340,,,,0,,,,,,3,wg-a,,,,AAXX 06004 07481 02562 73406 10040 20030 30027 40326 53026 60016 70386 878// 90000 333 60007=
07481,1997-02-06 03:00:00,1,1033.3,0.4,93,0,12000,11.112,,,330,,,,,,,,,,,wg-a,,,,AAXX 06034 07481 12/62 03306 10010 20000 30031 40333 52004 60006 80000 90300=
07481,1997-02-06 06:00:00,1,1033.7,0.4,100,1,7000,11.112,,,360,0.6,6,,,,,4,,,,wg-a,,,,AAXX 06064 07481 02157 83606 10010 20010 30035 40337 53004 60006 886// 90600 333 10060 20006 60044=
07481,1997-02-06 09:00:00,1,1034.8,1,100,1,3000,7.408,,,30,,,,,,,,,,10,wg-a,,,,AAXX 06094 07481 12130 80304 10010 20010 30045 40348 53010 60006 71022 886// 90900=
07481,1997-02-06 12:00:00,4,1035.2,0.7,81,1,10000,3.704,,,300,,,,,,,,,,,wg-a,,,,AAXX 06124 07481 12360 /3002 10040 20010 30052 40352 50007 60006 86600 91200=
07481,1997-02-06 15:00:00,5,1034.1,-1,81,2,10000,11.112,,,100,,,,,,,,,,,wg-a,,,,AAXX 06154 07481 12460 /1006 10050 20020 30042 40341 58010 60006 81600 91500=
07481,1997-02-06 18:00:00,3,1033.9,-0.4,81,0,10000,3.704,,,90,1.2,5.2,,,,,,,,,wg-a,,,,AAXX 06184 07481 12/60 00902 10030 20000 30038 40339 56004 60006 80000 91800 333 10052 20012=
07481,1997-02-06 21:00:00,1,1034,-0.1,93,0,9000,3.704,,,170,,,,,,,,,,,wg-a,,,,AAXX 06214 07481 12/59 01702 10010 20000 30037 40340 55001 60006 80000 92100=
07481,1997-02-07 00:00:00,2,1033.6,-0.3,87,0,10000,14.816,,,170,,,,,,,,,,,wg-a,,,,AAXX 07004 07481 12/60 01708 10020 20000 30034 40336 56003 60006 80000 90000=
07481,1997-02-07 03:00:00,1,1032.8,-0.9,86,-1,12000,14.816,,,150,,,,,,,,,,,wg-a,,,,AAXX 07034 07481 12/62 01508 10010 21010 30025 40328 58009 60006 80000 90300=
07481,1997-02-07 06:00:00,1,1033.1,0.2,86,-1,12000,11.112,,,160,0,2.4,,,,,,,,,wg-a,,,,AAXX 07064 07481 02/62 01606 10010 21010 30028 40331 53002 60006 80000 90600 333 10024 20000 60004=
07481,1997-02-07 09:00:00,4,1034.1,1.3,81,1,12000,3.704,,,240,,,,,,,,,,,wg-a,,,,AAXX 07094 07481 12/62 02402 10040 20010 30041 40341 51013 60006 80000 90900=
07481,1997-02-07 12:00:00,14,1032.6,-0.5,36,-1,500,18.52,,,180,,,,,,,,,,,wg-a,,,,AAXX 07124 07481 12/00 01810 10140 21010 30037 40326 58005 60006 80000 91200=
07481,1997-02-07 15:00:00,15,1031.2,-1.2,27,-4,40000,22.224,,,170,,,,,,,,,,,wg-a,,,,AAXX 07154 07481 12/82 01712 10150 21040 30024 40312 56012 60006 80000 91500=
07481,1997-02-07 18:00:00,11,1032.3,0.7,37,-3,40000,11.112,,,180,0.6,15.4,,,,,,,,,wg-a,,,,AAXX 07184 07481 12/82 01806 10110 21030 30031 40323 53007 60006 80000 91800 333 10154 20006=
07481,1997-02-07 21:00:00,7,1034,1.2,53,-2,25000,7.408,,,140,,,,,,,,,,,wg-a,,,,AAXX 07214 07481 12/75 01404 10070 21020 30043 40340 52012 60006 80000 92100=
07481,1997-02-08 00:00:00,5,1034.7,0.5,60,-2,20000,11.112,,,140,,,,,,,,,,,wg-a,,,,AAXX 08004 07481 12/70 01406 10050 21020 30048 40347 52005 60006 80000 90000=
07481,1997-02-08 03:00:00,3,1035.2,0.2,70,-2,20000,7.408,,,170,,,,,,,,,,,wg-a,,,,AAXX 08034 07481 12/70 01704 10030 21020 30050 40352 51002 60006 80000 90300=
07481,1997-02-08 06:00:00,2,1035.1,-0.1,75,-2,15000,11.112,,,160,1.7,11.1,,,,,,,,,wg-a,,,,AAXX 08064 07481 02/65 01606 10020 21020 30048 40351 58001 60006 80000 90600 333 10111 20017 60004=
07481,1997-02-08 09:00:00,5,1035.4,0.6,65,-1,15000,7.408,,,180,,,,,,,,,,,wg-a,,,,AAXX 08094 07481 12/65 11804 10050 21010 30054 40354 53006 60006 80001 90900=
07481,1997-02-08 12:00:00,11,1033.3,-1.4,54,2,18000,3.704,,,300,,,,,,,,,,,wg-a,,,,AAXX 08124 07481 12/68 13002 10110 20020 30041 40333 58014 60006 80001 91200=
07481,1997-02-08 15:00:00,12,1031.7,-1.4,50,2,20000,7.408,,,350,,,,,,,,,,,wg-a,,,,AAXX 08154 07481 12/70 13504 10120 20020 30026 40317 56014 60006 80001 91500=
07481,1997-02-08 18:00:00,8,1032.3,0.2,66,2,15000,3.704,,,190,0,12.5,,,,,,,,,wg-a,,,,AAXX 08184 07481 12/65 11902 10080 20020 30028 40323 53002 60006 80001 91800 333 10125 20000=
07481,1997-02-08 21:00:00,5,1032.8,0.2,75,1,15000,14.816,,,160,,,,,,,,,,,wg-a,,,,AAXX 08214 07481 12/65 01608 10050 20010 30030 40328 53002 60006 80000 92100=
07481,1997-02-09 00:00:00,2,1033.6,0.3,80,-1,15000,3.704,,,90,,,,,,,,,,,wg-a,,,,AAXX 09004 07481 12/65 00902 10020 21010 30034 40336 53003 60006 80000 90000=
07481,1997-02-09 03:00:00,2,1032.8,-0.7,80,-1,12000,7.408,,,180,,,,,,,,,,,wg-a,,,,AAXX 09034 07481 12/62 01804 10020 21010 30026 40328 58007 60006 80000 90300=
07481,1997-02-09 06:00:00,0,1032.9,-0.1,86,-2,9000,7.408,,,70,-1.1,7.3,,,,,,,,,wg-a,,,,AAXX 09064 07481 02/59 00704 10000 21020 30025 40329 56001 60006 80000 90600 333 10073 21011 60004=
07481,1997-02-09 09:00:00,3,1033.2,0.7,81,0,9000,7.408,,,180,,,,,,,,,,,wg-a,,,,AAXX 09094 07481 12/59 01804 10030 20000 30032 40332 50007 60006 80000 90900=
07481,1997-02-09 12:00:00,11,1031.6,-0.8,62,4,9000,3.704,,,130,,,,,,,,,,,wg-a,,,,AAXX 09124 07481 12/59 01302 10110 20040 30024 40316 58008 60006 80000 91200=
07481,1997-02-09 15:00:00,12,1030,-1.4,54,3,12000,3.704,,,50,,,,,,,,,,,wg-a,,,,AAXX 09154 07481 12/62 00502 10120 20030 30010 40300 56014 60006 80000 91500=
07481,1997-02-09 18:00:00,7,1030.9,0.4,76,3,12000,3.704,,,320,-1.8,12.8,,,,,,,,,wg-a,,,,AAXX 09184 07481 12/62 /3202 10070 20030 30014 40309 53004 60006 80001 91800 333 10128 21018=
07481,1997-02-09 21:00:00,4,1031.5,0.3,87,2,10000,7.408,,,170,,,,,,,,,,,wg-a,,,,AAXX 09214 07481 12/60 /1704 10040 20020 30017 40315 51003 60006 92100=
07481,1997-02-10 00:00:00,3,1031.4,-0.3,87,1,7000,11.112,,,150,,,,,,,,,,,wg-a,,,,AAXX 10004 07481 12/57 21506 10030 20010 30014 40314 55003 60006 80001 90000=
07481,1997-02-10 03:00:00,1,1030.8,-0.8,86,-1,500,7.408,,,160,,,,,,,,,,,wg-a,,,,AAXX 10034 07481 12/00 01604 10010 21010 30006 40308 58008 60006 80000 90300=
07481,1997-02-10 06:00:00,2,1029.6,-1.1,80,-1,9000,11.112,,,180,0.6,7.1,,,,,,,,,wg-a,,,,AAXX 10064 07481 02/59 01806 10020 21010 39995 40296 57011 60006 80000 90600 333 10071 20006 60004=
07481,1997-02-10 09:00:00,4,1029.6,0.3,75,0,8000,11.112,,,150,,,,,,,,,,,wg-a,,,,AAXX 10094 07481 12/58 21506 10040 20000 39998 40296 51003 60006 80001 90900=
07481,1997-02-10 12:00:00,13,1027.2,-1.5,51,3,10000,7.408,,,170,,,,,,,,,,,wg-a,,,,AAXX 10124 07481 12/60 21704 10130 20030 39983 40272 58015 60006 80001 91200=
07481,1997-02-10 15:00:00,15,1024.4,-2.5,41,2,10000,18.52,,,180,,,,,,,,,,,wg-a,,,,AAXX 10154 07481 12/60 11810 10150 20020 39958 40244 56025 60006 80001 91500=
07481,1997-02-10 18:00:00,10,1024.9,-0,53,1,10000,3.704,,,70,0.8,14.9,,,,,,,,,wg-a,,,,AAXX 10184 07481 12/60 20702 10100 20010 39958 40249 55000 60006 80001 91800 333 10149 20008=
07481,1997-02-10 21:00:00,10,1025.7,0.9,57,2,20000,18.52,,,180,,,,,,,,,,,wg-a,,,,AAXX 10214 07481 12/70 71810 10100 20020 39966 40257 53009 60006 8707/ 92100=
07481,1997-02-11 00:00:00,9,1027.2,1.3,71,4,20000,3.704,,,230,,,,,,,,,,60,wg-a,,,,AAXX 11004 07481 02770 72302 10090 20040 39980 40272 53013 61000 76061 8257/ 90000 333 6100=
07481,1997-02-11 03:00:00,7,1027.3,-0.1,87,5,15000,7.408,,,120,,,,0,,,,,,60,wg-a,,,,AAXX 11034 07481 12665 81204 10070 20050 39979 40273 56001 60007 76066 8557/ 90300=
07481,1997-02-11 06:00:00,7,1027.6,0.2,87,5,11000,3.704,,,230,6.6,11.3,,,,,,,,,wg-a,,,,AAXX 11064 07481 02/61 /2302 10070 20050 39981 40276 53002 60006 90600 333 10113 20066 60004=
07481,1997-02-11 09:00:00,8,1028.5,1.1,81,5,8000,3.704,,,170,,,,,,,,,,,wg-a,,,,AAXX 11094 07481 12558 71702 10080 20050 39991 40285 53011 60006 8383/ 90900=
07481,1997-02-11 12:00:00,13,1026.6,-1.4,62,6,9000,7.408,,,230,,,,,,,,,,,wg-a,,,,AAXX 11124 07481 12859 /2304 10130 20060 39978 40266 56014 60006 81031 91200=
07481,1997-02-11 15:00:00,12,1025.5,-1.1,71,7,8000,11.112,,,240,,,,,,,,,,,wg-a,,,,AAXX 11154 07481 12658 82406 10120 20070 39966 40255 55011 60006 8557/ 91500=
07481,1997-02-11 18:00:00,10,1025.9,0.2,76,6,8000,0,,,0,6.5,12.8,,,,,,,,,wg-a,,,,AAXX 11184 07481 12/58 /0000 10100 20060 39968 40259 53002 60006 91800 333 10128 20065=
07481,1997-02-11 21:00:00,9,1026.4,0.4,87,7,8000,11.112,,,180,,,,1,,,,,,60,wg-a,,,,AAXX 11214 07481 12658 81806 10090 20070 39972 40264 51004 60017 76062 8457/ 92100=
07481,1997-02-12 00:00:00,9,1025.7,-0.7,87,7,11000,11.112,,,160,,,,,,,,,,,wg-a,,,,AAXX 12004 07481 12/61 /1606 10090 20070 39965 40257 55007 60016 90000=
07481,1997-02-12 03:00:00,8,1026,0.2,93,7,12000,3.704,,,330,,,,,,,,,,,wg-a,,,,AAXX 12034 07481 12662 73302 10080 20070 39967 40260 53002 60006 8457/ 90300=
07481,1997-02-12 06:00:00,9,1026.2,0.2,87,7,10000,11.112,,,170,6.9,9.7,,,,,1,,,,wg-a,,,,AAXX 12064 07481 02660 71706 10090 20070 39970 40262 50002 60006 8257/ 90600 333 10097 20069 60014=
07481,1997-02-12 09:00:00,9,1026,-0.2,87,7,9000,3.704,,,320,,,,,,,,,,,wg-a,,,,AAXX 12094 07481 12659 73202 10090 20070 39968 40260 58002 60006 875// 90900=
07481,1997-02-12 12:00:00,13,1023.9,-1.5,72,8,9000,3.704,,,220,,,,,,,,,,,wg-a,,,,AAXX 12124 07481 12759 72202 10130 20080 39952 40239 58015 60006 875// 91200=
07481,1997-02-12 15:00:00,16,1021.3,-2.3,55,7,15000,7.408,,,220,,,,,,,,,,,wg-a,,,,AAXX 12154 07481 12665 /2204 10160 20070 39929 40213 58023 60006 85801 91500=
07481,1997-02-12 18:00:00,12,1020.2,-1.4,71,7,12000,7.408,,,250,8.3,16.4,,,,,,,,,wg-a,,,,AAXX 12184 07481 12762 72504 10120 20070 39914 40202 56014 60006 86502 91800 333 10164 20083=
07481,1997-02-12 21:00:00,12,1020.1,-0.1,62,5,12000,11.112,,,200,,,,,,,,,,,wg-a,,,,AAXX 12214 07481 12762 72006 10120 20050 39914 40201 58001 60006 8453/ 92100=
07481,1997-02-13 00:00:00,12,1018.1,-1.9,62,5,15000,18.52,,,200,,,,,,,,,,,wg-a,,,,AAXX 13004 07481 12765 /2010 10120 20050 39895 40181 56019 60006 81530 90000=
07481,1997-02-13 03:00:00,12,1016.6,-1.5,62,5,15000,18.52,,,190,,,,,,,,,,,wg-a,,,,AAXX 13034 07481 12665 71910 10120 20050 39879 40166 56015 60006 8253/ 90300=
07481,1997-02-13 06:00:00,11,1015.8,-1,66,5,15000,25.928,,,200,10.7,13,,,,,,,,1,wg-a,,,,AAXX 13064 07481 02665 /2014 10110 20050 39871 40158 58010 60006 70161 83530 90600 333 10130 20107 61000=
07481,1997-02-13 09:00:00,11,1014.8,-0.9,58,3,500,31.484,,,200,,,,,,,,,,,wg-a,,,,AAXX 13094 07481 12700 72017 10110 20030 39861 40148 58009 60006 8457/ 90900=
07481,1997-02-13 12:00:00,12,1014.5,-0.2,71,7,10000,18.52,,64.82,300,,,,0,,,,,,21,wg-a,,,,AAXX 13124 07481 02660 /3010 10120 20070 39859 40145 55002 60006 72162 8487/ 91200 333 60007 91035=
07481,1997-02-13 18:00:00,7,1020.2,1.8,53,-2,35000,7.408,,,340,7.1,13,,,,,,,,3,wg-a,,,,AAXX 13184 07481 12781 73404 10070 21020 39909 40202 52018 60006 70386 83532 91800 333 10130 20071=
07481,1997-02-13 21:00:00,8,1020.1,-0,49,-2,35000,7.408,,,200,,,,,,,,,,,wg-a,,,,AAXX 13214 07481 12781 82004 10080 21020 39909 40201 54000 60006 8357/ 92100=
07481,1997-02-14 00:00:00,7,1018.5,-1.7,61,0,40000,7.408,,,180,,,,,,,,,,,wg-a,,,,AAXX 14004 07481 12882 81804 10070 20000 39892 40185 58017 60006 8807/ 90000=
07481,1997-02-14 03:00:00,6,1015.2,-3.2,70,1,25000,18.52,,,190,,,,,,,,,,60,wg-a,,,,AAXX 14034 07481 02575 81910 10060 20010 39860 40152 56032 61000 76062 885// 90300 333 ////=
07481,1997-02-14 06:00:00,4,1012.2,-3.2,87,2,10000,18.52,,,150,3.6,8.2,,,,,,,,61,wg-a,,,,AAXX 14064 07481 02560 81510 10040 20020 39828 40122 58032 61000 76162 875// 90600 333 10082 20036 6004=
07481,1997-02-14 09:00:00,7,1010.8,-1,76,3,27000,22.224,,,190,,,,1,,,,,,1,wg-a,,,,AAXX 14094 07481 12577 71912 10070 20030 39818 40108 56010 60017 70162 8487/ 90900=
07481,1997-02-14 12:00:00,11,1008.7,-1.7,71,6,35000,31.484,,,180,,,,,,,,,,3,wg-a,,,,AAXX 14124 07481 12581 71817 10110 20060 39802 40087 58017 60016 70362 8684/ 91200=
07481,1997-02-14 15:00:00,12,1007.2,-1.3,76,8,25000,22.224,,,180,,,,0,,,,,,1,wg-a,,,,AAXX 14154 07481 12675 61812 10120 20080 39789 40072 58013 60007 70186 82202 91500=
07481,1997-02-14 18:00:00,10,1006.8,-0.6,87,8,20000,7.408,,,140,3.7,12.6,,,,,,,,25,wg-a,,,,AAXX 14184 07481 02570 71404 10100 20080 39783 40068 58006 61000 72586 878// 91800 333 10126 20037 6001=
07481,1997-02-14 21:00:00,10,1006,-0.9,87,8,18000,11.112,,,160,,,,2,,,,,,21,wg-a,,,,AAXX 14214 07481 12568 71606 10100 20080 39775 40060 58009 60027 72186 8487/ 92100=
07481,1997-02-15 00:00:00,11,1005.7,-0.1,71,6,25000,18.52,,,200,,,,,,,,,,1,wg-a,,,,AAXX 15004 07481 12575 72010 10110 20060 39773 40057 55001 60026 70186 8487/ 90000=
07481,1997-02-15 03:00:00,9,1004.3,-1.6,81,6,500,11.112,,,150,,,,,,,,,,,wg-a,,,,AAXX 15034 07481 12700 71506 10090 20060 39757 40043 58016 60006 8257/ 90300=
07481,1997-02-15 06:00:00,7,1006.1,1.6,100,7,15000,3.704,,,160,7.2,10.8,,,,,5,,,1,wg-a,,,,AAXX 15064 07481 02665 71602 10070 20070 39773 40061 51016 60006 70162 8257/ 90600 333 10108 20072 60054=
07481,1997-02-15 09:00:00,8,1010.3,4.3,93,7,11000,25.928,,,340,,,,,,,,,,,wg-a,,,,AAXX 15094 07481 32/61 /3414 10080 20070 39815 40103 53043 90900=
07481,1997-02-15 12:00:00,6,1017.5,6.6,70,1,15000,38.892,,,340,,,,1,,,,,,1,wg-a,,,,AAXX 15124 07481 02565 73421 10060 20010 39882 40175 51066 60016 70186 872// 91200 333 60017=
07481,1997-02-15 15:00:00,7,1020.6,3.1,53,-2,500,35.188,,55.56,10,,,,,,,,,,,wg-a,,,,AAXX 15154 07481 12600 /0119 10070 21020 39913 40206 51031 60006 84100 91500 333 91030=
07481,1997-02-15 18:00:00,5,1023.7,2.9,70,0,500,29.632,,46.3,340,4.4,8.2,,,,,,,,,wg-a,,,,AAXX 15184 07481 12600 43416 10050 20000 39941 40237 53029 60006 84400 91800 333 10082 20044 91025=
07481,1997-02-15 21:00:00,3,1026.2,2.2,75,-1,500,14.816,,,340,,,,,,,,,,,wg-a,,,,AAXX 15214 07481 12/00 03408 10030 21010 39963 40262 51022 60006 80000 92100=
07481,1997-02-16 00:00:00,2,1025.3,-1,80,-1,500,22.224,,,340,,,,,,,,,,,wg-a,,,,AAXX 16004 07481 12/00 03412 10020 21010 39953 40253 58010 60006 80000 90000=
07481,1997-02-16 03:00:00,1,1024.1,-1.2,86,-1,500,14.816,,,350,,,,,,,,,,,wg-a,,,,AAXX 16034 07481 12/00 03508 10010 21010 39941 40241 58012 60006 80000 90300=
07481,1997-02-16 06:00:00,-1,1024.8,0.5,93,-2,15000,7.408,,,60,-0.7,4.5,,,,,2,,,,wg-a,,,,AAXX 16064 07481 02/65 00604 11010 21020 39946 40248 51005 60006 80000 90600 333 10045 21007 60024=
07481,1997-02-16 09:00:00,1,1025.4,0.7,86,-1,12000,3.704,,,330,,,,,,,,,,,wg-a,,,,AAXX 16094 07481 12562 33302 10010 21010 39954 40254 53007 60006 81502 90900=
07481,1997-02-16 12:00:00,7,1024.1,-0.6,57,-1,25000,7.408,,,180,,,,,,,,,,,wg-a,,,,AAXX 16124 07481 12/75 41804 10070 21010 39947 40241 58006 60006 80002 91200=
07481,1997-02-16 15:00:00,9,1022,-1.7,46,-2,500,7.408,,,150,,,,,,,,,,,wg-a,,,,AAXX 16154 07481 12/00 31504 10090 21020 39929 40220 56017 60006 80002 91500=
07481,1997-02-16 18:00:00,5,1022.6,0.2,60,-2,500,7.408,,,110,-1.2,9.4,,,,,,,,,wg-a,,,,AAXX 16184 07481 12/00 41104 10050 21020 39931 40226 53002 60006 81032 91800 333 10094 21012=
07481,1997-02-16 21:00:00,4,1022.5,-0.3,75,0,18000,14.816,,,140,,,,,,,,,,,wg-a,,,,AAXX 16214 07481 12/68 61408 10040 20000 39929 40225 58003 60006 82032 92100=
07481,1997-02-17 00:00:00,2,1023.6,1,80,-1,18000,0,,,0,,,,,,,,,,,wg-a,,,,AAXX 17004 07481 12/68 60000 10020 21010 39938 40236 53010 60006 83032 90000=
07481,1997-02-17 03:00:00,2,1024.6,0.9,80,-1,18000,7.408,,,150,,,,,,,,,,,wg-a,,,,AAXX 17034 07481 12/68 61504 10020 21010 39947 40246 50009 60006 83032 90300=
07481,1997-02-17 06:00:00,3,1025.5,1,75,-1,15000,7.408,,,170,0.8,5.2,,,,,,,,,wg-a,,,,AAXX 17064 07481 02665 71704 10030 21010 39957 40255 51010 60006 8357/ 90600 333 10052 20008 60004=
07481,1997-02-17 09:00:00,5,1026.5,1.2,75,1,11000,3.704,,,160,,,,,,,,,,,wg-a,,,,AAXX 17094 07481 12/61 /1602 10050 20010 39969 40265 51012 60006 90900=
07481,1997-02-17 12:00:00,13,1025.6,-0.1,47,2,15000,3.704,,,250,,,,,,,,,,,wg-a,,,,AAXX 17124 07481 12665 62502 10130 20020 39968 40256 58001 60006 82801 91200=
07481,1997-02-17 15:00:00,13,1024.9,-0.7,44,1,500,3.704,,,40,,,,,,,,,,,wg-a,,,,AAXX 17154 07481 12600 30402 10130 20010 39961 40249 55007 60006 81801 91500=
07481,1997-02-17 18:00:00,10,1025.8,0.7,57,2,500,3.704,,,120,2.9,13.8,,,,,,,,,wg-a,,,,AAXX 17184 07481 12700 61202 10100 20020 39967 40258 53007 60006 85501 91800 333 10138 20029=
07481,1997-02-17 21:00:00,8,1027.2,1.2,66,2,500,7.408,,,160,,,,,,,,,,,wg-a,,,,AAXX 17214 07481 12/00 21604 10080 20020 39978 40272 53012 60006 80001 92100=
07481,1997-02-18 00:00:00,6,1026.9,-0.5,75,2,500,7.408,,,150,,,,,,,,,,,wg-a,,,,AAXX 18004 07481 12/00 71504 10060 20020 39974 40269 57005 60006 80002 90000=
07481,1997-02-18 03:00:00,6,1026,-0.9,75,2,25000,11.112,,,170,,,,,,,,,,,wg-a,,,,AAXX 18034 07481 12/75 71706 10060 20020 39965 40260 58009 60006 87070 90300=
07481,1997-02-18 06:00:00,6,1025.1,-0.9,70,1,15000,14.816,,,160,4.7,9.5,,,,,,,,,wg-a,,,,AAXX 18064 07481 02/65 71608 10060 20010 39956 40251 57009 60006 8707/ 90600 333 10095 20047 60004=
07481,1997-02-18 09:00:00,7,1026.4,1.4,81,4,25000,14.816,,,150,,,,,,,,,,21,wg-a,,,,AAXX 18094 07481 02575 81508 10070 20040 39970 40264 51014 61000 72162 8557/ 90900 333 ////=
07481,1997-02-18 12:00:00,11,1024.3,-1.6,58,3,25000,14.816,,,180,,,,,,,,,,3,wg-a,,,,AAXX 18124 07481 02575 71808 10110 20030 39953 40243 58016 61000 70362 875// 91200 333 ////=
07481,1997-02-18 15:00:00,12,1023.9,-0,58,4,35000,18.52,,,180,,,,,,,,,,,wg-a,,,,AAXX 18154 07481 32681 /1810 10120 20040 39950 40239 54000 85502 91500=
07481,1997-02-18 18:00:00,11,1024.9,1,62,4,25000,18.52,,,210,5.7,12.3,,,,,,,,,wg-a,,,,AAXX 18184 07481 12675 /2110 10110 20040 39959 40249 53010 60006 84802 91800 333 10123 20057=
07481,1997-02-18 21:00:00,10,1030,4.7,50,0,500,29.632,,61.116,310,,,,,,,,,,21,wg-a,,,,AAXX 18214 07481 02600 43116 10100 20000 30007 40300 53047 61000 72161 84800 92100 333 //// 91033=
07481,1997-02-19 00:00:00,6,1032.2,1.8,70,1,18000,7.408,,,330,,,,,,,,,,1,wg-a,,,,AAXX 19004 07481 02668 33304 10060 20010 30025 40322 52018 61000 70161 83502 90000 333 ////=
07481,1997-02-19 03:00:00,4,1033.9,1.5,81,1,500,3.704,,,310,,,,,,,,,,,wg-a,,,,AAXX 19034 07481 12700 /3102 10040 20010 30039 40339 51015 60006 81501 90300=
07481,1997-02-19 06:00:00,2,1035.5,1.3,87,0,25000,7.408,,,130,1.7,11.4,,,,,,,,,wg-a,,,,AAXX 19064 07481 02/75 61304 10020 20000 30053 40355 51013 60006 84035 90600 333 10114 20017 61000=
07481,1997-02-19 09:00:00,7,1035.6,0.6,70,2,20000,7.408,,,110,,,,,,,,,,,wg-a,,,,AAXX 19094 07481 12570 /1104 10070 20020 30059 40356 50006 60006 81101 90900=
07481,1997-02-19 12:00:00,10,1033.6,-1.5,46,-1,35000,3.704,,,130,,,,,,,,,,,wg-a,,,,AAXX 19124 07481 12581 51302 10100 21010 30043 40336 58015 60006 81104 91200=
07481,1997-02-19 15:00:00,10,1030.9,-2.7,37,-4,40000,3.704,,,240,,,,,,,,,,,wg-a,,,,AAXX 19154 07481 12/82 72402 10100 21040 30016 40309 56027 60006 80006 91500=
07481,1997-02-19 18:00:00,9,1029,-1.9,40,-4,40000,7.408,,,180,1.7,10.5,,,,,,,,,wg-a,,,,AAXX 19184 07481 12/82 71804 10090 21040 39997 40290 56019 60006 80006 91800 333 10105 20017=
07481,1997-02-19 21:00:00,7,1028,-1.2,53,-2,500,14.816,,,150,,,,,,,,,,,wg-a,,,,AAXX 19214 07481 12700 81508 10070 21020 39985 40280 58012 60006 81536 92100=
07481,1997-02-20 00:00:00,7,1027.7,-0.3,53,-2,25000,14.816,,,130,,,,,,,,,,,wg-a,,,,AAXX 20004 07481 12775 61308 10070 21020 39982 40277 55003 60006 81532 90000=
07481,1997-02-20 03:00:00,7,1029.4,1.8,61,0,25000,3.704,,,150,,,,,,,,,,,wg-a,,,,AAXX 20034 07481 12675 71502 10070 20000 39999 40294 51018 60006 8353/ 90300=
07481,1997-02-20 06:00:00,6,1031.1,1.5,70,1,25000,7.408,,,80,5.5,8.8,,,,,,,,,wg-a,,,,AAXX 20064 07481 02675 /0804 10060 20010 30014 40311 51015 60006 81530 90600 333 10088 20055 60004=
07481,1997-02-20 12:00:00,12,1031.7,-0.3,58,4,500,11.112,,,20,,,,,,,,,,,wg-a,,,,AAXX 20124 07481 12500 40206 10120 20040 30027 40317 58003 60006 81231 91200=
07481,1997-02-20 15:00:00,14,1029.6,-1.9,47,3,40000,3.704,,,120,,,,,,,,,,,wg-a,,,,AAXX 20154 07481 12682 31202 10140 20030 30008 40296 56019 60006 81241 91500=
07481,1997-02-20 18:00:00,10,1029.8,-0.2,62,3,40000,7.408,,,80,4.9,14.7,,,,,,,,,wg-a,,,,AAXX 20184 07481 12/82 40804 10100 20030 30006 40298 55002 60006 80001 91800 333 10147 20049=
07481,1997-02-20 21:00:00,7,1030.7,0.5,76,3,40000,0,,,0,,,,,,,,,,,wg-a,,,,AAXX 20214 07481 12/82 40000 10070 20030 30011 40307 51005 60006 80001 92100=
07481,1997-02-21 00:00:00,5,1031.7,0.8,81,2,500,3.704,,,200,,,,,,,,,,,wg-a,,,,AAXX 21004 07481 12600 /2002 10050 20020 30019 40317 51008 60006 85500 90000=
07481,1997-02-21 03:00:00,3,1032.2,0.2,93,2,10000,3.704,,,170,,,,,,,,,,,wg-a,,,,AAXX 21034 07481 12660 31702 10030 20020 30022 40322 51002 60006 82501 90300=
07481,1997-02-21 06:00:00,2,1033.2,0.9,93,1,8000,3.704,,,150,1.8,10.2,,,,,,,,,wg-a,,,,AAXX 21064 07481 02658 21502 10020 20010 30031 40332 53009 60006 81542 90600 333 10102 20018 60004=
07481,1997-02-21 12:00:00,13,1033.2,0.2,51,3,18000,3.704,,,10,,,,,,,,,,,wg-a,,,,AAXX 21124 07481 12568 20102 10130 20030 30042 40332 50002 60006 81802 91200=
07481,1997-02-21 15:00:00,14,1032.1,-1,47,3,500,11.112,,,10,,,,,,,,,,,wg-a,,,,AAXX 21154 07481 12600 /0106 10140 20030 30032 40321 56010 60006 81501 91500=
07481,1997-02-21 18:00:00,9,1033.1,0.5,71,4,500,7.408,,,40,2,13.8,,,,,,,,,wg-a,,,,AAXX 21184 07481 12/00 10404 10090 20040 30037 40331 53005 60006 80001 91800 333 10138 20020=
07481,1997-02-21 21:00:00,6,1033.9,0.5,81,3,25000,3.704,,,240,,,,,,,,,,,wg-a,,,,AAXX 21214 07481 12/75 02402 10060 20030 30042 40339 51005 60006 80000 92100=
07481,1997-02-22 00:00:00,4,1033.9,-0.2,87,2,20000,3.704,,,170,,,,,,,,,,,wg-a,,,,AAXX 22004 07481 12/70 01702 10040 20020 30040 40339 58002 60006 80000 90000=
07481,1997-02-22 03:00:00,3,1033,-1.1,87,1,15000,3.704,,,160,,,,,,,,,,,wg-a,,,,AAXX 22034 07481 12/65 01602 10030 20010 30029 40330 58011 60006 80000 90300=
07481,1997-02-22 06:00:00,2,1032.7,-0.4,87,0,12000,7.408,,,160,0.8,9.3,,,,,,,,,wg-a,,,,AAXX 22064 07481 02/62 01604 10020 20000 30025 40327 58004 60006 80000 90600 333 10093 20008 60004=
07481,1997-02-22 09:00:00,6,1032,-0.2,81,3,9000,7.408,,,250,,,,,,,,,,,wg-a,,,,AAXX 22094 07481 12/59 12504 10060 20030 30023 40320 58002 60006 80001 90900=
07481,1997-02-22 12:00:00,13,1029.5,-1.8,51,3,15000,11.112,,,200,,,,,,,,,,,wg-a,,,,AAXX 22124 07481 12/65 12006 10130 20030 30005 40295 58018 60006 80001 91200=
07481,1997-02-22 15:00:00,16,1026.9,-2.1,45,4,20000,7.408,,,170,,,,,,,,,,,wg-a,,,,AAXX 22154 07481 12/70 11704 10160 20040 39983 40269 56021 60006 80001 91500=
07481,1997-02-22 18:00:00,12,1026,-1.2,58,4,25000,22.224,,,150,1.7,16,,,,,,,,,wg-a,,,,AAXX 22184 07481 12/75 21512 10120 20040 39971 40260 56012 60006 80001 91800 333 10160 20017=
07481,1997-02-22 21:00:00,11,1025.8,-0.2,71,6,20000,22.224,,,170,,,,,,,,,,,wg-a,,,,AAXX 22214 07481 12/70 31712 10110 20060 39968 40258 58002 60006 80001 92100=
07481,1997-02-23 00:00:00,10,1025,-0.9,71,5,20000,25.928,,,180,,,,,,,,,,,wg-a,,,,AAXX 23004 07481 12/70 31814 10100 20050 39960 40250 58009 60006 80001 90000=
07481,1997-02-23 03:00:00,10,1024,-1,76,6,20000,25.928,,,190,,,,,,,,,,,wg-a,,,,AAXX 23034 07481 12/70 71914 10100 20060 39950 40240 58010 60006 83032 90300=
07481,1997-02-23 06:00:00,9,1023.1,-1,76,5,20000,18.52,,,180,9,11.5,,,,,,,,,wg-a,,,,AAXX 23064 07481 02/70 51810 10090 20050 39940 40231 56010 60006 81032 90600 333 10115 20090 60004=
07481,1997-02-23 09:00:00,10,1023.1,0.1,66,4,20000,29.632,,,180,,,,,,,,,,,wg-a,,,,AAXX 23094 07481 12/70 61816 10100 20040 39941 40231 50001 60006 80001 90900=
07481,1997-02-23 12:00:00,14,1021.4,-1.3,55,5,25000,25.928,,,190,,,,,,,,,,,wg-a,,,,AAXX 23124 07481 12/75 61914 10140 20050 39928 40214 58013 60006 81031 91200=
07481,1997-02-23 15:00:00,13,1019.5,-1.9,54,4,500,29.632,,,190,,,,,,,,,,,wg-a,,,,AAXX 23154 07481 12/00 71916 10130 20040 39909 40195 56019 60006 82031 91500=
07481,1997-02-23 18:00:00,11,1018.3,-1.4,66,5,25000,25.928,,,180,9,13.9,,,,,,,,,wg-a,,,,AAXX 23184 07481 12775 71814 10110 20050 39895 40183 56014 60006 81532 91800 333 10139 20090=
07481,1997-02-23 21:00:00,11,1018.2,-0.1,66,5,20000,29.632,,,190,,,,,,,,,,,wg-a,,,,AAXX 23214 07481 12/70 71916 10110 20050 39894 40182 55001 60006 85032 92100=
07481,1997-02-24 00:00:00,11,1018,-0.1,71,6,15000,29.632,,,190,,,,,,,,,,60,wg-a,,,,AAXX 24004 07481 02665 71916 10110 20060 39892 40180 58001 61000 76062 8257/ 90000 333 6100=
07481,1997-02-24 06:00:00,9,1016.3,-0.8,87,7,12000,25.928,,,180,8.8,11.1,,,,,1,,,3,wg-a,,,,AAXX 24064 07481 02362 41814 10090 20070 39874 40163 56008 60006 70361 81830 90600 333 10111 20088 60014=
07481,1997-02-24 09:00:00,10,1016.3,0.1,82,7,12000,35.188,,51.856,190,,,,,,,,,,21,wg-a,,,,AAXX 24094 07481 02362 71919 10100 20070 39875 40163 52001 61000 72161 8587/ 90900 333 //// 91028=
07481,1997-02-24 12:00:00,11,1015.6,-0.7,82,8,10000,38.892,,64.82,190,,,,,,,,,,60,wg-a,,,,AAXX 24124 07481 02760 81921 10110 20080 39870 40156 58007 61000 76061 8357/ 91200 333 6100 91035=
07481,1997-02-24 15:00:00,13,1014.6,-0.6,67,7,20000,35.188,,53.708,190,,,,,,,,,,1,wg-a,,,,AAXX 24154 07481 02770 /1919 10130 20070 39862 40146 55006 61000 70162 83570 91500 333 //// 91029=
07481,1997-02-24 18:00:00,12,1015.1,0.4,76,8,12000,31.484,,53.708,190,9,13.2,,,,,,,,1,wg-a,,,,AAXX 24184 07481 12/62 41917 10120 20080 39865 40151 53004 60006 70161 83032 91800 333 10132 20090 91029=
07481,1997-02-25 00:00:00,11,1015.5,-0.2,82,8,12000,38.892,,66.672,190,,,,0,,,,,,60,wg-a,,,,AAXX 25004 07481 02762 81921 10110 20080 39869 40155 56002 60006 76061 8357/ 90000 333 60007 91036=
07481,1997-02-25 03:00:00,12,1015.8,0.3,76,8,15000,35.188,,50.004,180,,,,1,,,,,,2,wg-a,,,,AAXX 25034 07481 12765 81819 10120 20080 39872 40158 51003 60017 70262 8357/ 90300 333 91027=
07481,1997-02-25 06:00:00,12,1015.9,0.2,71,7,15000,42.596,,62.968,190,10.9,12.3,,,,,1,,,2,wg-a,,,,AAXX 25064 07481 02765 81923 10120 20070 39873 40159 53002 60006 70262 8357/ 90600 333 10123 20109 60014 91034=
07481,1997-02-25 09:00:00,13,1017,1.2,72,8,15000,31.484,,61.116,190,,,,,,,,,,21,wg-a,,,,AAXX 25094 07481 02765 81917 10130 20080 39885 40170 51012 61000 72162 8757/ 90900 333 //// 91033=
07481,1997-02-25 12:00:00,14,1017.4,0.4,67,8,12000,35.188,,53.708,190,,,,,,,,,,2,wg-a,,,,AAXX 25124 07481 02662 81919 10140 20080 39889 40174 50004 61000 70262 8787/ 91200 333 //// 91029=
07481,1997-02-25 15:00:00,14,1015.9,-1.6,67,8,12000,35.188,,,190,,,,,,,,,,,wg-a,,,,AAXX 25154 07481 12762 71919 10140 20080 39875 40159 56016 60006 8257/ 91500=
07481,1997-02-25 18:00:00,14,1016.3,0.7,72,9,8000,31.484,,,190,12,14.4,,,,,,,,,wg-a,,,,AAXX 25184 07481 12758 81917 10140 20090 39879 40163 53007 60006 875// 91800 333 10144 20120=
07481,1997-02-25 21:00:00,14,1017.4,1,72,9,12000,29.632,,,190,,,,,,,,,,,wg-a,,,,AAXX 25214 07481 12762 71916 10140 20090 39890 40174 53010 60006 875// 92100=
07481,1997-02-26 00:00:00,13,1018.6,1,77,9,12000,25.928,,,170,,,,,,,,,,,wg-a,,,,AAXX 26004 07481 12762 81714 10130 20090 39900 40186 50010 60006 82532 90000=
07481,1997-02-26 03:00:00,12,1018,-0.6,82,9,10000,29.632,,,180,,,,,,,,,,,wg-a,,,,AAXX 26034 07481 12760 71816 10120 20090 39894 40180 58006 60006 81532 90300=
07481,1997-02-26 06:00:00,14,1018,0.1,67,8,12000,25.928,,,200,12,14.2,,,,,,,,,wg-a,,,,AAXX 26064 07481 02662 72014 10140 20080 39895 40180 50001 60006 8153/ 90600 333 10142 20120 61000=
07481,1997-02-26 09:00:00,12,1020.6,2.5,88,10,8000,7.408,,,250,,,,,,,,,,61,wg-a,,,,AAXX 26094 07481 02458 82504 10120 20100 39919 40206 53025 61000 76162 8557/ 90900 333 ////=
07481,1997-02-26 12:00:00,11,1022.3,1.3,76,7,15000,25.928,,42.596,310,,,,3,,,,,,63,wg-a,,,,AAXX 26124 07481 02565 73114 10110 20070 39934 40223 53013 60036 76386 878// 91200 333 60037 91023=
07481,1997-02-26 15:00:00,14,1020.6,-1.3,58,6,11000,11.112,,,160,,,,,,,,,,,wg-a,,,,AAXX 26154 07481 32/61 /1606 10140 20060 39920 40206 56013 91500=
07481,1997-02-26 18:00:00,10,1022.8,0.9,71,5,500,25.928,,,260,3.1,13.4,,,,,,,,61,wg-a,,,,AAXX 26184 07481 02500 /2614 10100 20050 39938 40228 51009 61000 761// 91800 333 10134 20031 ////=
07481,1997-02-27 00:00:00,6,1031,2.9,81,3,500,14.816,,,290,,,,0,,,,,,1,wg-a,,,,AAXX 27004 07481 02600 72908 10060 20030 30014 40310 51029 60016 70186 875// 90000 333 60007=
07481,1997-02-27 03:00:00,6,1033.4,2.3,81,3,25000,7.408,,,30,,,,,,,,,,3,wg-a,,,,AAXX 27034 07481 02475 70304 10060 20030 30037 40334 53023 61000 70362 878// 90300 333 ////=
07481,1997-02-27 06:00:00,5,1035.7,2.1,87,3,25000,7.408,,,310,4.8,10.3,,,,,4,,,1,wg-a,,,,AAXX 27064 07481 02675 43104 10050 20030 30058 40357 51021 60006 70161 84500 90600 333 10103 20048 60044=
07481,1997-02-27 09:00:00,7,1038.1,2.7,76,3,35000,18.52,,,340,,,,,,,,,,,wg-a,,,,AAXX 27094 07481 12581 43410 10070 20030 30084 40381 51027 60006 84800 90900=
07481,1997-02-27 12:00:00,9,1038.8,0.7,53,0,35000,11.112,,,30,,,,,,,,,,,wg-a,,,,AAXX 27124 07481 12681 30306 10090 20000 30092 40388 50007 60006 83200 91200=
07481,1997-02-28 00:00:00,3,1037.6,-0.7,81,0,10000,3.704,,,310,,,,,,,,,,,wg-a,,,,AAXX 28004 07481 12/60 /3102 10030 20000 30074 40376 56007 60006 90000=
07481,1997-02-28 03:00:00,2,1036.9,-0.8,80,-1,25000,11.112,,,150,,,,,,,,,,,wg-a,,,,AAXX 28034 07481 12/75 01506 10020 21010 30066 40369 58008 60006 80000 90300=
07481,1997-02-28 06:00:00,2,1036.3,-0.6,80,-1,20000,7.408,,,180,1,7.3,,,,,,,,,wg-a,,,,AAXX 28064 07481 02/70 01804 10020 21010 30060 40363 56006 60006 80000 90600 333 10073 20010 60004=
07481,1997-02-28 09:00:00,7,1036.8,1.1,66,1,500,3.704,,,140,,,,,,,,,,,wg-a,,,,AAXX 28094 07481 12/00 41402 10070 20010 30071 40368 53011 60006 80001 90900=
07481,1997-02-28 12:00:00,13,1034.1,-1.9,41,0,40000,11.112,,,150,,,,,,,,,,,wg-a,,,,AAXX 28124 07481 12/82 21506 10130 20000 30051 40341 57019 60006 80001 91200=
07481,1997-02-28 15:00:00,17,1031.4,-2.3,32,0,40000,7.408,,,130,,,,,,,,,,,wg-a,,,,AAXX 28154 07481 12/82 51304 10170 20000 30028 40314 56023 60006 80002 91500=
07481,1997-02-28 18:00:00,12,1031,-0.8,38,-2,40000,14.816,,,150,1.3,17,,,,,,,,,wg-a,,,,AAXX 28184 07481 12/82 71508 10120 21020 30020 40310 56008 60006 80002 91800 333 10170 20013=
07481,1997-02-28 21:00:00,12,1031.4,0.2,38,-2,500,18.52,,,140,,,,,,,,,,,wg-a,,,,AAXX 28214 07481 12/00 31410 10120 21020 30023 40314 50002 60006 81032 92100=
07481,1997-03-01 00:00:00,10,1030.9,-0.6,40,-3,25000,14.816,,,130,,,,,,,,,,,wg-a,,,,AAXX 01004 07481 12/75 71308 10100 21030 30017 40309 58006 60006 83032 90000=
07481,1997-03-01 03:00:00,8,1031.1,-0.1,46,-3,25000,11.112,,,150,,,,,,,,,,,wg-a,,,,AAXX 01034 07481 12/75 31506 10080 21030 30016 40311 58001 60006 80002 90300=
07481,1997-03-01 06:00:00,7,1031.9,0.8,57,-1,25000,11.112,,,160,6.4,12.5,,,,,,,,,wg-a,,,,AAXX 01064 07481 02/75 51606 10070 21010 30023 40319 52008 60006 80002 90600 333 10125 20064 60004=
07481,1997-03-01 09:00:00,10,1031.7,0.1,53,1,500,11.112,,,160,,,,,,,,,,,wg-a,,,,AAXX 01094 07481 12/00 51606 10100 20010 30024 40317 52001 60006 80002 90900=
07481,1997-03-01 12:00:00,16,1030.2,-1,23,-5,10000,7.408,,,190,,,,,,,,,,,wg-a,,,,AAXX 01124 07481 12/60 /1904 10160 21050 30015 40302 58010 60006 91200=
07481,1997-03-01 15:00:00,18,1028,-1.9,22,-4,500,3.704,,,190,,,,,,,,,,,wg-a,,,,AAXX 01154 07481 12/00 51902 10180 21040 39996 40280 56019 60006 82032 91500=
07481,1997-03-01 18:00:00,14,1027.5,-0.9,38,0,500,7.408,,,210,6.9,18.3,,,,,,,,,wg-a,,,,AAXX 01184 07481 12/00 72104 10140 20000 39987 40275 56009 60006 81036 91800 333 10183 20069=
07481,1997-03-01 21:00:00,10,1027.9,0.1,66,4,500,11.112,,,140,,,,,,,,,,,wg-a,,,,AAXX 01214 07481 12/00 51406 10100 20040 39988 40279 53001 60006 80002 92100=
07481,1997-03-02 00:00:00,9,1027.4,-0.6,53,0,500,7.408,,,130,,,,,,,,,,,wg-a,,,,AAXX 02004 07481 12/00 11304 10090 20000 39982 40274 57006 60006 80001 90000=
07481,1997-03-02 03:00:00,8,1026.8,-0.7,61,1,500,11.112,,,140,,,,,,,,,,,wg-a,,,,AAXX 02034 07481 12/00 51406 10080 20010 39975 40268 57007 60006 82032 90300=
07481,1997-03-02 06:00:00,9,1027.7,1,53,0,25000,7.408,,,170,6.5,14,,,,,,,,,wg-a,,,,AAXX 02064 07481 02/75 71704 10090 20000 39984 40277 53010 60006 82035 90600 333 10140 20065 60004=
07481,1997-03-02 09:00:00,12,1029.2,1.8,47,1,20000,7.408,,,170,,,,,,,,,,,wg-a,,,,AAXX 02094 07481 12/70 11704 10120 20010 30002 40292 52018 60006 80001 90900=
07481,1997-03-02 12:00:00,18,1028.3,-0.3,30,0,20000,7.408,,,190,,,,,,,,,,,wg-a,,,,AAXX 02124 07481 12/70 11904 10180 20000 39999 40283 58003 60006 80001 91200=
07481,1997-03-02 15:00:00,21,1027.5,-0.5,25,0,25000,3.704,,,130,,,,,,,,,,,wg-a,,,,AAXX 02154 07481 12/75 21302 10210 20000 39994 40275 55005 60006 80001 91500=
07481,1997-03-02 18:00:00,16,1028.9,0.9,42,3,25000,3.704,,,290,7,21.7,,,,,,,,,wg-a,,,,AAXX 02184 07481 12/75 52902 10160 20030 30003 40289 53009 60006 80001 91800 333 10217 20070=
07481,1997-03-02 21:00:00,12,1031.5,2.2,58,4,15000,3.704,,,340,,,,,,,,,,,wg-a,,,,AAXX 02214 07481 12/65 13402 10120 20040 30025 40315 53022 60006 80001 92100=
07481,1997-03-03 00:00:00,9,1032.8,0.9,81,6,15000,7.408,,,260,,,,,,,,,,,wg-a,,,,AAXX 03004 07481 12/65 02604 10090 20060 30034 40328 51009 60006 80000 90000=
07481,1997-03-03 03:00:00,7,1033.1,0.1,93,6,10000,3.704,,,230,,,,,,,,,,,wg-a,,,,AAXX 03034 07481 12/60 /2302 10070 20060 30035 40331 50001 60006 90300=
07481,1997-03-03 06:00:00,7,1034.6,1.3,87,5,8000,0,,,0,6.8,15.4,,,,,,,,,wg-a,,,,AAXX 03064 07481 02/58 30000 10070 20050 30049 40346 51013 60006 82032 90600 333 10154 20068 60004=
07481,1997-03-03 09:00:00,11,1035.2,1.1,76,7,8000,0,,,0,,,,,,,,,,,wg-a,,,,AAXX 03094 07481 12/58 30000 10110 20070 30060 40352 51011 60006 81032 90900=
07481,1997-03-03 12:00:00,16,1033.8,-0.9,59,8,15000,11.112,,,350,,,,,,,,,,,wg-a,,,,AAXX 03124 07481 12/65 53506 10160 20080 30051 40338 58009 60006 80002 91200=
07481,1997-03-03 15:00:00,17,1032.1,-1.5,55,8,18000,11.112,,,360,,,,,,,,,,,wg-a,,,,AAXX 03154 07481 12/68 73606 10170 20080 30036 40321 56015 60006 80002 91500=
07481,1997-03-03 18:00:00,13,1032.9,0.4,72,8,18000,3.704,,,30,6.4,17.3,,,,,,,,,wg-a,,,,AAXX 03184 07481 12/68 30302 10130 20080 30040 40329 53004 60006 80002 91800 333 10173 20064=
07481,1997-03-03 21:00:00,11,1033.7,0.5,82,8,18000,7.408,,,160,,,,,,,,,,,wg-a,,,,AAXX 03214 07481 12/68 11604 10110 20080 30045 40337 51005 60006 80002 92100=
07481,1997-03-04 00:00:00,9,1033.6,-0.3,87,7,18000,3.704,,,170,,,,,,,,,,,wg-a,,,,AAXX 04004 07481 12/68 01702 10090 20070 30042 40336 58003 60006 80000 90000=
07481,1997-03-04 03:00:00,7,1033.2,-0.6,93,6,18000,11.112,,,160,,,,,,,,,,,wg-a,,,,AAXX 04034 07481 12/68 21606 10070 20060 30036 40332 58006 60006 80001 90300=
07481,1997-03-04 06:00:00,6,1033,-0.2,93,5,7000,3.704,,,110,5.6,13.2,,,,,,,,,wg-a,,,,AAXX 04064 07481 02/57 71102 10060 20050 30033 40330 55002 60006 85031 90600 333 10132 20056 60004=
07481,1997-03-04 09:00:00,12,1032.6,0.2,71,7,8000,7.408,,,160,,,,,,,,,,,wg-a,,,,AAXX 04094 07481 12/58 /1604 10120 20070 30035 40326 52002 60006 81031 90900=
07481,1997-03-04 12:00:00,20,1029.8,-1.9,46,8,15000,3.704,,,140,,,,,,,,,,,wg-a,,,,AAXX 04124 07481 12/65 31402 10200 20080 30016 40298 58019 60006 80001 91200=
07481,1997-03-04 15:00:00,22,1027.5,-2.1,33,5,15000,3.704,,,80,,,,,,,,,,,wg-a,,,,AAXX 04154 07481 12/65 60802 10220 20050 39995 40275 56021 60006 80002 91500=
07481,1997-03-04 18:00:00,18,1027.3,-0.6,45,6,20000,7.408,,,90,6,22.8,,,,,,,,,wg-a,,,,AAXX 04184 07481 12/70 70904 10180 20060 39989 40273 56006 60006 83072 91800 333 10228 20060=
07481,1997-03-04 21:00:00,16,1026.7,-0.7,51,6,15000,14.816,,,160,,,,,,,,,,,wg-a,,,,AAXX 04214 07481 12/65 71608 10160 20060 39982 40267 57007 60006 84032 92100=
07481,1997-03-05 00:00:00,14,1028,1.1,63,7,12000,3.704,,,290,,,,,,,,,,,wg-a,,,,AAXX 05004 07481 12762 72902 10140 20070 39993 40280 53011 60006 81532 90000=
07481,1997-03-05 03:00:00,13,1027.1,-0.9,62,6,15000,7.408,,,170,,,,,,,,,,,wg-a,,,,AAXX 05034 07481 12765 31704 10130 20060 39983 40271 58009 60006 82532 90300=
07481,1997-03-05 06:00:00,9,1029,1.3,93,8,4000,3.704,,,100,9.1,18,,,,,,,,10,wg-a,,,,AAXX 05064 07481 02/40 51002 10090 20080 39998 40290 53013 60006 71011 81032 90600 333 10180 20091 60004=
07481,1997-03-05 09:00:00,12,1029.6,0.9,82,9,9000,7.408,,,20,,,,,,,,,,,wg-a,,,,AAXX 05094 07481 12/59 /0204 10120 20090 30007 40296 53009 60006 82032 90900=
07481,1997-03-05 12:00:00,13,1029.8,0.2,72,8,20000,18.52,,,20,,,,,,,,,,,wg-a,,,,AAXX 05124 07481 12670 40210 10130 20080 30009 40298 51002 60006 82831 91200=
07481,1997-03-05 15:00:00,12,1029.8,-0.1,58,4,40000,22.224,,,360,,,,,,,,,,,wg-a,,,,AAXX 05154 07481 12682 73612 10120 20040 30008 40298 58001 60006 83832 91500=
07481,1997-03-05 18:00:00,9,1030.5,0.5,66,3,40000,11.112,,,10,8.3,14,,,,,,,,,wg-a,,,,AAXX 05184 07481 12682 40106 10090 20030 30012 40305 53005 60006 81531 91800 333 10140 20083=
07481,1997-03-06 00:00:00,8,1031.6,-0.1,71,3,40000,3.704,,,240,,,,,,,,,,,wg-a,,,,AAXX 06004 07481 12682 72402 10080 20030 30021 40316 58001 60006 855// 90000=
07481,1997-03-06 06:00:00,7,1031.5,0.4,81,4,0,3.704,,,270,7,9.2,,,,,,,,,wg-a,,,,AAXX 06064 07481 02/// /2702 10070 20040 30019 40315 53004 61000 90600 333 10092 20070 ////=
07481,1997-03-06 09:00:00,8,1032.3,0.8,81,5,18000,7.408,,,350,,,,,,,,,,21,wg-a,,,,AAXX 06094 07481 02468 73504 10080 20050 30028 40323 51008 61000 72162 8583/ 90900 333 ////=
07481,1997-03-06 12:00:00,11,1031.2,-0.8,62,4,40000,11.112,,,350,,,,0,,,,,,1,wg-a,,,,AAXX 06124 07481 02582 33506 10110 20040 30020 40312 58008 60006 70161 83840 91200 333 60007=
07481,1997-03-06 15:00:00,13,1029.6,-1.3,58,5,45000,25.928,,,340,,,,,,,,,,,wg-a,,,,AAXX 06154 07481 12683 /3414 10130 20050 30007 40296 55013 60006 81100 91500=
07481,1997-03-06 18:00:00,10,1030.5,0.6,71,5,40000,18.52,,,350,7,13,,,,,,,,,wg-a,,,,AAXX 06184 07481 12682 /3510 10100 20050 30013 40305 53006 60006 81400 91800 333 10130 20070=
07481,1997-03-07 00:00:00,5,1030.7,-0.9,93,4,500,0,,,0,,,,,,,,,,,wg-a,,,,AAXX 07004 07481 12/00 00000 10050 20040 30010 40307 58009 60006 80000 90000=
07481,1997-03-07 06:00:00,2,1031,0.3,93,1,15000,0,,,0,2,9.9,,,,,,,,,wg-a,,,,AAXX 07064 07481 02/65 00000 10020 20010 30009 40310 52003 60006 80000 90600 333 10099 20020 60004=
07481,1997-03-07 09:00:00,6,1031.5,0.9,81,3,8000,3.704,,,310,,,,,,,,,,,wg-a,,,,AAXX 07094 07481 12/58 03102 10060 20030 30018 40315 51009 60006 80000 90900=
07481,1997-03-07 12:00:00,11,1030.1,-0.8,62,4,10000,3.704,,,20,,,,,,,,,,,wg-a,,,,AAXX 07124 07481 12/60 00202 10110 20040 30010 40301 58008 60006 80000 91200=
07481,1997-03-07 15:00:00,13,1028.4,-1.4,54,4,20000,7.408,,,20,,,,,,,,,,,wg-a,,,,AAXX 07154 07481 12/70 00204 10130 20040 39996 40284 56014 60006 80000 91500=
07481,1997-03-07 18:00:00,11,1028.8,0.1,62,4,15000,7.408,,,10,1.7,13.9,,,,,,,,,wg-a,,,,AAXX 07184 07481 12/65 10104 10110 20040 39997 40288 53001 60006 81031 91800 333 10139 20017=
07481,1997-03-07 21:00:00,8,1029.6,0.5,76,4,20000,3.704,,,220,,,,,,,,,,,wg-a,,,,AAXX 07214 07481 12/70 02202 10080 20040 30002 40296 51005 60006 80000 92100=
07481,1997-03-08 00:00:00,6,1030.6,0.8,81,3,20000,3.704,,,200,,,,,,,,,,,wg-a,,,,AAXX 08004 07481 12/70 02002 10060 20030 30010 40306 51008 60006 80000 90000=
07481,1997-03-08 03:00:00,4,1031.3,0.4,87,2,15000,7.408,,,180,,,,,,,,,,,wg-a,,,,AAXX 08034 07481 12/65 01804 10040 20020 30014 40313 50004 60006 80000 90300=
07481,1997-03-08 06:00:00,2,1032.4,0.8,93,1,6000,3.704,,,60,1.6,10.7,,,,,,,,11,wg-a,,,,AAXX 08064 07481 02/56 00602 10020 20010 30022 40324 52008 60006 71100 80000 90600 333 10107 20016 60004=
07481,1997-03-08 09:00:00,7,1033,1.3,81,4,8000,3.704,,,300,,,,,,,,,,11,wg-a,,,,AAXX 08094 07481 12/58 03002 10070 20040 30034 40330 51013 60006 71100 80000 90900=
07481,1997-03-08 12:00:00,13,1031.5,-1,58,5,9000,7.408,,,320,,,,,,,,,,,wg-a,,,,AAXX 08124 07481 12/59 03204 10130 20050 30025 40315 58010 60006 80000 91200=
07481,1997-03-08 15:00:00,16,1029.9,-1.2,45,4,10000,14.816,,,360,,,,,,,,,,,wg-a,,,,AAXX 08154 07481 12/60 03608 10160 20040 30013 40299 56012 60006 80000 91500=
07481,1997-03-08 18:00:00,12,1030.8,0.5,62,5,10000,7.408,,,350,1.8,15.7,,,,,,,,,wg-a,,,,AAXX 08184 07481 12/60 03504 10120 20050 30018 40308 53005 60006 80000 91800 333 10157 20018=
07481,1997-03-09 00:00:00,7,1031.7,0.1,81,4,8000,3.704,,,230,,,,,,,,,,,wg-a,,,,AAXX 09004 07481 12/58 02302 10070 20040 30021 40317 53001 60006 80000 90000=
07481,1997-03-09 03:00:00,5,1032,0.1,87,3,6000,0,,,0,,,,,,,,,,,wg-a,,,,AAXX 09034 07481 12/56 00000 10050 20030 30022 40320 51001 60006 80000 90300=
07481,1997-03-09 06:00:00,5,1032.5,0.5,87,3,4500,7.408,,,180,3.7,11.7,,,,,,,,10,wg-a,,,,AAXX 09064 07481 02/45 01804 10050 20030 30027 40325 53005 60006 71000 80000 90600 333 10117 20037 60004=
07481,1997-03-09 09:00:00,9,1032.8,0.7,76,5,500,3.704,,,120,,,,,,,,,,,wg-a,,,,AAXX 09094 07481 12/00 01202 10090 20050 30034 40328 51007 60006 80000 90900=
07481,1997-03-09 12:00:00,16,1031,-1,51,6,8000,3.704,,,130,,,,,,,,,,,wg-a,,,,AAXX 09124 07481 12/58 01302 10160 20060 30024 40310 58010 60006 80000 91200=
07481,1997-03-09 15:00:00,19,1029,-1.7,34,3,18000,14.816,,,200,,,,,,,,,,,wg-a,,,,AAXX 09154 07481 12/68 12008 10190 20030 30007 40290 56017 60006 80001 91500=
07481,1997-03-09 18:00:00,16,1029.4,0.1,45,4,18000,7.408,,,210,4.4,19.6,,,,,,,,,wg-a,,,,AAXX 09184 07481 12/68 12104 10160 20040 30008 40294 53001 60006 80001 91800 333 10196 20044=
07481,1997-03-09 21:00:00,13,1030.6,0.9,54,4,15000,14.816,,,160,,,,,,,,,,,wg-a,,,,AAXX 09214 07481 12/65 11608 10130 20040 30017 40306 51009 60006 80001 92100=
07481,1997-03-10 00:00:00,9,1031.9,0.9,66,3,15000,7.408,,,150,,,,,,,,,,,wg-a,,,,AAXX 10004 07481 12/65 11504 10090 20030 30026 40319 51009 60006 80001 90000=
07481,1997-03-10 03:00:00,7,1032.7,0.5,81,4,15000,14.816,,,150,,,,,,,,,,,wg-a,,,,AAXX 10034 07481 12/65 01508 10070 20040 30031 40327 51005 60006 80000 90300=
07481,1997-03-10 06:00:00,7,1033.5,0.9,81,4,7000,11.112,,,170,6.5,16.1,,,,,,,,,wg-a,,,,AAXX 10064 07481 02/57 01706 10070 20040 30039 40335 53009 60006 80000 90600 333 10161 20065 60004=
07481,1997-03-10 09:00:00,12,1033.9,0.8,67,6,9000,7.408,,,150,,,,,,,,,,,wg-a,,,,AAXX 10094 07481 12/59 01504 10120 20060 30048 40339 51008 60006 80000 90900=
07481,1997-03-10 12:00:00,19,1032.1,-1.1,37,4,10000,3.704,,,150,,,,,,,,,,,wg-a,,,,AAXX 10124 07481 12/60 /1502 10190 20040 30037 40321 58011 60006 91200=
07481,1997-03-10 15:00:00,20,1030.4,-1.6,35,4,15000,14.816,,,350,,,,,,,,,,,wg-a,,,,AAXX 10154 07481 12/65 03508 10200 20040 30021 40304 58016 60006 80000 91500=
07481,1997-03-10 18:00:00,15,1030.6,-0.2,55,6,15000,11.112,,,350,6.8,19.7,,,,,,,,,wg-a,,,,AAXX 10184 07481 12/65 13506 10150 20060 30019 40306 55002 60006 80001 91800 333 10197 20068=
07481,1997-03-10 21:00:00,11,1031.1,0.1,66,5,25000,7.408,,,340,,,,,,,,,,,wg-a,,,,AAXX 10214 07481 12/75 13404 10110 20050 30020 40311 51001 60006 80001 92100=
07481,1997-03-11 00:00:00,9,1031,-0.3,76,5,25000,3.704,,,230,,,,,,,,,,,wg-a,,,,AAXX 11004 07481 12/75 02302 10090 20050 30017 40310 58003 60006 80000 90000=
07481,1997-03-11 03:00:00,7,1031.2,-0.2,81,4,25000,7.408,,,270,,,,,,,,,,,wg-a,,,,AAXX 11034 07481 12/75 02704 10070 20040 30016 40312 58002 60006 80000 90300=
07481,1997-03-11 06:00:00,4,1031.6,0.3,87,2,10000,0,,,0,4.4,15.4,,,,,,,,,wg-a,,,,AAXX 11064 07481 02/60 00000 10040 20020 30018 40316 53003 60006 80000 90600 333 10154 20044 60004=
07481,1997-03-11 09:00:00,9,1031.5,0.4,76,5,8000,3.704,,,310,,,,,,,,,,,wg-a,,,,AAXX 11094 07481 12/58 03102 10090 20050 30022 40315 53004 60006 80000 90900=
07481,1997-03-11 12:00:00,15,1029.5,-1.4,55,6,10000,3.704,,,320,,,,,,,,,,,wg-a,,,,AAXX 11124 07481 12/60 03202 10150 20060 30008 40295 58014 60006 80000 91200=
07481,1997-03-11 15:00:00,18,1027.8,-1.4,37,3,15000,11.112,,,340,,,,,,,,,,,wg-a,,,,AAXX 11154 07481 12/65 03406 10180 20030 39994 40278 56014 60006 80000 91500=
07481,1997-03-11 18:00:00,15,1028.1,-0,55,6,12000,3.704,,,320,4.1,18.2,,,,,,,,,wg-a,,,,AAXX 11184 07481 12/62 03202 10150 20060 39994 40281 55000 60006 80000 91800 333 10182 20041=
07481,1997-03-12 00:00:00,11,1030.8,1.4,66,5,10000,14.816,,,170,,,,,,,,,,,wg-a,,,,AAXX 12004 07481 12/60 01708 10110 20050 30017 40308 53014 60006 80000 90000=
07481,1997-03-12 03:00:00,11,1031.7,0.8,54,2,15000,11.112,,,190,,,,,,,,,,,wg-a,,,,AAXX 12034 07481 12/65 01906 10110 20020 30025 40317 53008 60006 80000 90300=
07481,1997-03-12 06:00:00,11,1031.8,0.2,62,4,10000,29.632,,,190,9.8,14.6,,,,,,,,,wg-a,,,,AAXX 12064 07481 02/60 /1916 10110 20040 30027 40318 50002 60006 90600 333 10146 20098 60004=
07481,1997-03-12 09:00:00,13,1032.8,1.2,54,4,15000,22.224,,,180,,,,,,,,,,,wg-a,,,,AAXX 12094 07481 12/65 01812 10130 20040 30039 40328 51012 60006 80000 90900=
07481,1997-03-12 12:00:00,18,1031.7,-0.7,39,4,15000,11.112,,,210,,,,,,,,,,,wg-a,,,,AAXX 12124 07481 12/65 02106 10180 20040 30032 40317 58007 60006 80000 91200=
07481,1997-03-12 15:00:00,20,1029.3,-2.1,35,4,15000,3.704,,,110,,,,,,,,,,,wg-a,,,,AAXX 12154 07481 12/65 01102 10200 20040 30011 40293 56021 60006 80000 91500=
07481,1997-03-12 18:00:00,15,1029.9,0.1,51,5,20000,7.408,,,40,11.1,20.2,,,,,,,,,wg-a,,,,AAXX 12184 07481 12/70 10404 10150 20050 30012 40299 53001 60006 80001 91800 333 10202 20111=
07481,1997-03-13 00:00:00,8,1030.8,-0.4,81,5,15000,3.704,,,280,,,,,,,,,,,wg-a,,,,AAXX 13004 07481 12/65 02802 10080 20050 30014 40308 57004 60006 80000 90000=
07481,1997-03-13 03:00:00,8,1030.2,-0.7,76,4,12000,3.704,,,130,,,,,,,,,,,wg-a,,,,AAXX 13034 07481 12/62 11302 10080 20040 30007 40302 58007 60006 80001 90300=
07481,1997-03-13 06:00:00,6,1030.1,-0.2,87,4,8000,0,,,0,6,15.3,,,,,,,,,wg-a,,,,AAXX 13064 07481 02/58 /0000 10060 20040 30005 40301 57002 60006 80002 90600 333 10153 20060 60004=
07481,1997-03-13 09:00:00,11,1029.8,0.2,76,7,7000,7.408,,,360,,,,,,,,,,,wg-a,,,,AAXX 13094 07481 12/57 /3604 10110 20070 30007 40298 50002 60006 80002 90900=
07481,1997-03-13 12:00:00,16,1027.6,-1.7,55,7,7000,22.224,,,350,,,,,,,,,,,wg-a,,,,AAXX 13124 07481 12/57 03512 10160 20070 39991 40276 58017 60006 80000 91200=
07481,1997-03-13 15:00:00,17,1025.8,-1.6,52,7,8000,29.632,,,350,,,,,,,,,,,wg-a,,,,AAXX 13154 07481 12/58 /3516 10170 20070 39974 40258 56016 60006 80002 91500=
07481,1997-03-13 18:00:00,13,1026,-0.2,67,7,8000,14.816,,,350,5.3,17.1,,,,,,,,,wg-a,,,,AAXX 13184 07481 12/58 /3508 10130 20070 39972 40260 55002 60006 80002 91800 333 10171 20053=
07481,1997-03-13 21:00:00,9,1026.4,0,81,6,12000,11.112,,,320,,,,,,,,,,,wg-a,,,,AAXX 13214 07481 12/62 03206 10090 20060 39972 40264 50000 60006 80000 92100=
07481,1997-03-14 00:00:00,7,1026.1,-0.5,87,5,12000,7.408,,,350,,,,,,,,,,,wg-a,,,,AAXX 14004 07481 12/62 23504 10070 20050 39967 40261 56005 60006 80002 90000=
07481,1997-03-14 06:00:00,4,1026.2,0.2,100,4,3000,3.704,,,10,4.4,13.1,,,,,,,,10,wg-a,,,,AAXX 14064 07481 02/30 30102 10040 20040 39965 40262 50002 60006 71000 80001 90600 333 10131 20044 60004=
07481,1997-03-14 09:00:00,8,1026.4,0.6,87,6,2500,7.408,,,20,,,,,,,,,,10,wg-a,,,,AAXX 14094 07481 12425 70204 10080 20060 39971 40264 53006 60006 71011 85501 90900=
07481,1997-03-14 12:00:00,11,1025.3,-0.7,76,7,500,14.816,,,10,,,,,,,,,,,wg-a,,,,AAXX 14124 07481 12400 70108 10110 20070 39964 40253 58007 60006 84502 91200=
07481,1997-03-14 15:00:00,12,1024.3,-1,67,6,7000,14.816,,,20,,,,,,,,,,,wg-a,,,,AAXX 14154 07481 12557 70208 10120 20060 39954 40243 56010 60006 85502 91500=
07481,1997-03-14 18:00:00,10,1026.2,1.7,66,4,7000,22.224,,,340,4.3,11.8,,,,,,,,,wg-a,,,,AAXX 14184 07481 12657 73412 10100 20040 39971 40262 53017 60006 875// 91800 333 10118 20043=
07481,1997-03-14 21:00:00,8,1027.1,0.7,87,6,9000,3.704,,,30,,,,,,,,,,1,wg-a,,,,AAXX 14214 07481 02559 70302 10080 20060 39977 40271 51007 61000 70152 875// 92100 333 ////=
07481,1997-03-15 00:00:00,7,1027,-0.2,100,7,6000,7.408,,,20,,,,2,,,,,,61,wg-a,,,,AAXX 15004 07481 02256 80204 10070 20070 39976 40270 58002 60026 76165 885// 90000 333 60027=
07481,1997-03-15 06:00:00,5,1027.8,0.9,93,4,500,7.408,,,330,4.8,9.6,,,,,3,,,10,wg-a,,,,AAXX 15064 07481 02105 23304 10050 20040 39981 40278 53009 60006 71064 82600 90600 333 10096 20048 60034=
07481,1997-03-15 09:00:00,8,1028.5,1,93,7,4000,7.408,,,10,,,,,,,,,,10,wg-a,,,,AAXX 15094 07481 12240 50104 10080 20070 39991 40285 51010 60006 71041 85600 90900=
07481,1997-03-15 12:00:00,12,1027.7,-0.4,71,7,10000,22.224,,,360,,,,,,,,,,1,wg-a,,,,AAXX 15124 07481 12560 43612 10120 20070 39987 40277 58004 60006 70141 83230 91200=
07481,1997-03-15 15:00:00,13,1026.8,-0.7,54,4,25000,22.224,,,350,,,,,,,,,,,wg-a,,,,AAXX 15154 07481 12675 33512 10130 20040 39980 40268 56007 60006 81130 91500=
07481,1997-03-15 18:00:00,11,1027.6,0.6,66,5,27000,18.52,,,340,4.5,13.6,,,,,,,,,wg-a,,,,AAXX 15184 07481 12/77 23410 10110 20050 39986 40276 53006 60006 82030 91800 333 10136 20045=
07481,1997-03-15 21:00:00,10,1028.5,0.7,76,6,20000,14.816,,,340,,,,,,,,,,,wg-a,,,,AAXX 15214 07481 12670 43408 10100 20060 39993 40285 52007 60006 82530 92100=
07481,1997-03-16 00:00:00,9,1028.7,0.1,81,6,15000,7.408,,,10,,,,,,,,,,,wg-a,,,,AAXX 16004 07481 12665 70104 10090 20060 39994 40287 50001 60006 875// 90000=
07481,1997-03-16 03:00:00,9,1028.2,-0.4,87,7,25000,7.408,,,320,,,,,,,,,,,wg-a,,,,AAXX 16034 07481 12575 83204 10090 20070 39990 40282 56004 60006 885// 90300=
07481,1997-03-16 06:00:00,10,1029.1,0.9,82,7,12000,7.408,,,20,8,11,,,,,,,,,wg-a,,,,AAXX 16064 07481 02462 80204 10100 20070 39999 40291 53009 60006 885// 90600 333 10110 20080 60004=
07481,1997-03-16 12:00:00,15,1028.1,-1.3,55,6,500,22.224,,,10,,,,,,,,,,,wg-a,,,,AAXX 16124 07481 12500 30112 10150 20060 39994 40281 58013 60006 83100 91200=
07481,1997-03-16 18:00:00,13,1026.9,0.1,62,6,45000,14.816,,,340,9.1,15.8,,,,,,,,,wg-a,,,,AAXX 16184 07481 12/83 13408 10130 20060 39981 40269 53001 60006 80001 91800 333 10158 20091=
07481,1997-03-16 21:00:00,9,1027.8,0.4,76,5,500,7.408,,,310,,,,,,,,,,,wg-a,,,,AAXX 16214 07481 12/00 03104 10090 20050 39986 40278 51004 60006 80000 92100=
07481,1997-03-17 00:00:00,7,1027.8,-0.2,87,5,500,0,,,0,,,,,,,,,,,wg-a,,,,AAXX 17004 07481 12/00 00000 10070 20050 39984 40278 58002 60006 80000 90000=
07481,1997-03-17 03:00:00,6,1027.7,-0.3,87,4,25000,3.704,,,290,,,,,,,,,,,wg-a,,,,AAXX 17034 07481 12/75 02902 10060 20040 39981 40277 58003 60006 80000 90300=
07481,1997-03-17 06:00:00,6,1028.3,0.7,87,4,13000,3.704,,,30,5.6,12.6,,,,,,,,,wg-a,,,,AAXX 17064 07481 02/63 20302 10060 20040 39987 40283 53007 60006 80002 90600 333 10126 20056 60004=
07481,1997-03-17 09:00:00,10,1028.2,0.3,87,8,13000,11.112,,,20,,,,,,,,,,,wg-a,,,,AAXX 17094 07481 12463 30206 10100 20080 39991 40282 50003 60006 83100 90900=
07481,1997-03-17 12:00:00,14,1026.8,-1,63,7,15000,22.224,,,320,,,,,,,,,,,wg-a,,,,AAXX 17124 07481 12565 /3212 10140 20070 39981 40268 58010 60006 82800 91200=
07481,1997-03-17 15:00:00,16,1024.6,-1.8,59,8,15000,14.816,,,340,,,,,,,,,,,wg-a,,,,AAXX 17154 07481 12/65 13408 10160 20080 39962 40246 56018 60006 80001 91500=
07481,1997-03-17 18:00:00,14,1024.5,-0.3,67,8,12000,11.112,,,350,5.5,16.5,,,,,,,,,wg-a,,,,AAXX 17184 07481 12/62 13506 10140 20080 39959 40245 55003 60006 80001 91800 333 10165 20055=
07481,1997-03-17 21:00:00,11,1024.9,0,76,7,15000,7.408,,,300,,,,,,,,,,,wg-a,,,,AAXX 17214 07481 12/65 03004 10110 20070 39959 40249 50000 60006 80000 92100=
07481,1997-03-18 00:00:00,9,1024.2,-0.9,87,7,15000,3.704,,,320,,,,,,,,,,,wg-a,,,,AAXX 18004 07481 12/65 03202 10090 20070 39950 40242 58009 60006 80000 90000=
07481,1997-03-18 03:00:00,7,1022.9,-1.4,87,5,12000,0,,,0,,,,,,,,,,,wg-a,,,,AAXX 18034 07481 12/62 00000 10070 20050 39936 40229 58014 60006 80000 90300=
07481,1997-03-18 06:00:00,6,1022,-1,93,5,10000,7.408,,,150,6,14.2,,,,,,,,,wg-a,,,,AAXX 18064 07481 02/60 31504 10060 20050 39926 40220 56010 60006 80001 90600 333 10142 20060 60004=
07481,1997-03-18 09:00:00,13,1019.6,-1.6,72,8,10000,7.408,,,140,,,,,,,,,,,wg-a,,,,AAXX 18094 07481 12/60 21404 10130 20080 39910 40196 58016 60006 80001 90900=
07481,1997-03-18 12:00:00,19,1017.5,-2.1,49,8,15000,3.704,,,110,,,,,,,,,,,wg-a,,,,AAXX 18124 07481 12/65 11102 10190 20080 39896 40175 58021 60006 80001 91200=
07481,1997-03-18 15:00:00,21,1014.5,-2.7,35,5,500,7.408,,,70,,,,,,,,,,,wg-a,,,,AAXX 18154 07481 12/00 10704 10210 20050 39868 40145 56027 60006 80001 91500=
07481,1997-03-18 18:00:00,18,1013.9,-0.9,45,6,40000,11.112,,37.04,10,6,22.1,,,,,,,,,wg-a,,,,AAXX 18184 07481 12/82 60106 10180 20060 39859 40139 55009 60006 83084 91800 333 10221 20060 91020=
07481,1997-03-18 21:00:00,12,1015,0.5,71,7,40000,22.224,,,10,,,,,,,,,,,wg-a,,,,AAXX 18214 07481 12/82 20112 10120 20070 39864 40150 53005 60006 80001 92100=
07481,1997-03-19 00:00:00,9,1015.1,-0.2,81,6,40000,3.704,,,90,,,,,,,,,,,wg-a,,,,AAXX 19004 07481 12682 70902 10090 20060 39862 40151 58002 60006 8358/ 90000=
07481,1997-03-19 06:00:00,7,1014.5,-0.1,87,5,25000,7.408,,,250,7,17.8,,,,,1,,,3,wg-a,,,,AAXX 19064 07481 02575 72504 10070 20050 39855 40145 55001 60006 70362 8687/ 90600 333 10178 20070 60014=
07481,1997-03-19 12:00:00,9,1013.7,-1,61,2,20000,18.52,,,320,,,,0,,,,,,1,wg-a,,,,AAXX 19124 07481 02470 73210 10090 20020 39848 40137 56010 60016 70186 8286/ 91200 333 60007=
07481,1997-03-19 15:00:00,8,1012.7,-1,81,5,20000,18.52,,,320,,,,0,,,,,,80,wg-a,,,,AAXX 19154 07481 12570 73210 10080 20050 39838 40127 56010 60007 78086 878// 91500=
07481,1997-03-19 18:00:00,8,1012.8,0.1,81,5,20000,14.816,,,310,6.2,9.6,,,,,,,,25,wg-a,,,,AAXX 19184 07481 02570 73108 10080 20050 39839 40128 53001 61000 72586 8586/ 91800 333 10096 20062 6000=
07481,1997-03-19 21:00:00,7,1015,2,87,5,8000,22.224,,53.708,320,,,,2,,,,,,,wg-a,,,,AAXX 19214 07481 12/58 /3212 10070 20050 39859 40150 51020 60027 92100 333 91029=
07481,1997-03-20 00:00:00,6,1017.4,2.2,81,3,25000,22.224,,,330,,,,0,,,,,,1,wg-a,,,,AAXX 20004 07481 02675 83312 10060 20030 39882 40174 53022 60026 70186 878// 90000 333 60007=
07481,1997-03-20 03:00:00,6,1018.5,1,81,3,25000,3.704,,,10,,,,,,,,,,,wg-a,,,,AAXX 20034 07481 12775 80102 10060 20030 39892 40185 51010 60006 875// 90300=
07481,1997-03-20 06:00:00,5,1019.5,0.9,93,4,15000,3.704,,,350,5.3,7.9,,,,,4,,,,wg-a,,,,AAXX 20064 07481 02565 /3502 10050 20040 39901 40195 53009 60006 86500 90600 333 10079 20053 60044=
07481,1997-03-20 09:00:00,7,1020.4,0.9,66,1,25000,22.224,,,340,,,,,,,,,,,wg-a,,,,AAXX 20094 07481 12575 43412 10070 20010 39911 40204 52009 60006 84800 90900=
07481,1997-03-20 12:00:00,8,1020.5,0.2,57,0,500,18.52,,,20,,,,,,,,,,,wg-a,,,,AAXX 20124 07481 12500 70210 10080 20000 39913 40205 50002 60006 878// 91200=
07481,1997-03-20 15:00:00,9,1020.1,-0.2,49,-1,500,22.224,,,10,,,,,,,,,,,wg-a,,,,AAXX 20154 07481 12600 /0112 10090 21010 39911 40201 57002 60006 86800 91500=
07481,1997-03-20 18:00:00,7,1020.8,0.4,61,0,500,18.52,,,10,5,9.7,,,,,,,,,wg-a,,,,AAXX 20184 07481 12600 /0110 10070 20000 39915 40208 53004 60006 81500 91800 333 10097 20050=
07481,1997-03-20 21:00:00,4,1021.3,0.2,75,0,18000,11.112,,,360,,,,,,,,,,,wg-a,,,,AAXX 20214 07481 12/68 03606 10040 20000 39917 40213 50002 60006 80000 92100=
07481,1997-03-21 00:00:00,2,1021.5,-0.1,87,0,18000,7.408,,,350,,,,,,,,,,,wg-a,,,,AAXX 21004 07481 12/68 03504 10020 20000 39917 40215 55001 60006 80000 90000=
07481,1997-03-21 03:00:00,1,1021.2,-0.5,80,-2,18000,7.408,,,340,,,,,,,,,,,wg-a,,,,AAXX 21034 07481 12/68 03404 10010 21020 39912 40212 58005 60006 80000 90300=
07481,1997-03-21 06:00:00,0,1022.2,0.9,86,-2,10000,3.704,,,280,-0.2,6.9,,,,,,,,,wg-a,,,,AAXX 21064 07481 02/60 02802 10000 21020 39921 40222 51009 60006 80000 90600 333 10069 21002 60004=
07481,1997-03-21 09:00:00,6,1022.4,0.9,70,1,12000,7.408,,,50,,,,,,,,,,,wg-a,,,,AAXX 21094 07481 12/62 00504 10060 20010 39930 40224 52009 60006 80000 90900=
07481,1997-03-21 12:00:00,12,1021,-0.8,47,1,20000,25.928,,,10,,,,,,,,,,,wg-a,,,,AAXX 21124 07481 12/70 10114 10120 20010 39922 40210 58008 60006 80001 91200=
07481,1997-03-21 15:00:00,14,1019.8,-1,36,-1,20000,29.632,,,350,,,,,,,,,,,wg-a,,,,AAXX 21154 07481 12/70 23516 10140 21010 39912 40198 56010 60006 80001 91500=
07481,1997-03-21 18:00:00,11,1020.5,0.6,58,3,10000,22.224,,,360,0,14.2,,,,,,,,,wg-a,,,,AAXX 21184 07481 12/60 63612 10110 20030 39917 40205 53006 60006 82042 91800 333 10142 20000=
07481,1997-03-21 21:00:00,8,1021.9,1,71,3,20000,14.816,,,10,,,,,,,,,,,wg-a,,,,AAXX 21214 07481 12/70 40108 10080 20030 39927 40219 51010 60006 81042 92100=
07481,1997-03-22 00:00:00,6,1022.4,0.3,87,4,20000,11.112,,,350,,,,,,,,,,,wg-a,,,,AAXX 22004 07481 12/70 43506 10060 20040 39930 40224 51003 60006 80002 90000=
07481,1997-03-22 06:00:00,2,1023.5,0.7,93,1,500,7.408,,,340,1.5,11.3,,,,,,,,,wg-a,,,,AAXX 22064 07481 02300 /3404 10020 20010 39936 40235 51007 60006 85502 90600 333 10113 20015 60004=
07481,1997-03-22 09:00:00,5,1024.1,0.9,75,1,7000,7.408,,,360,,,,,,,,,,,wg-a,,,,AAXX 22094 07481 12457 33604 10050 20010 39945 40241 51009 60006 82501 90900=
07481,1997-03-22 12:00:00,10,1022.7,-0.8,57,2,20000,14.816,,,30,,,,,,,,,,,wg-a,,,,AAXX 22124 07481 12570 20308 10100 20020 39937 40227 57008 60006 81101 91200=
07481,1997-03-22 15:00:00,13,1021.4,-1,47,2,500,11.112,,,360,,,,,,,,,,,wg-a,,,,AAXX 22154 07481 12/00 43606 10130 20020 39927 40214 56010 60006 80002 91500=
07481,1997-03-22 18:00:00,11,1021.7,0.1,50,1,500,11.112,,,350,1.5,13.2,,,,,,,,,wg-a,,,,AAXX 22184 07481 12/00 13506 10110 20010 39928 40217 53001 60006 80001 91800 333 10132 20015=
07481,1997-03-22 21:00:00,7,1022.5,0.3,57,-1,500,7.408,,,310,,,,,,,,,,,wg-a,,,,AAXX 22214 07481 12/00 03104 10070 21010 39931 40225 51003 60006 80000 92100=
07481,1997-03-23 00:00:00,5,1022.3,-0.4,70,0,25000,0,,,0,,,,,,,,,,,wg-a,,,,AAXX 23004 07481 12/75 00000 10050 20000 39927 40223 58004 60006 80000 90000=
07481,1997-03-23 03:00:00,2,1021,-1.4,80,-1,10000,3.704,,,60,,,,,,,,,,,wg-a,,,,AAXX 23034 07481 12/60 /0602 10020 21010 39912 40210 56014 60006 90300=
07481,1997-03-23 06:00:00,2,1020.3,-0.7,80,-1,15000,11.112,,,160,1.1,10.6,,,,,,,,,wg-a,,,,AAXX 23064 07481 02/65 21606 10020 21010 39905 40203 58007 60006 80001 90600 333 10106 20011 60004=
07481,1997-03-23 09:00:00,9,1017.8,-1.7,53,0,15000,11.112,,,150,,,,,,,,,,,wg-a,,,,AAXX 23094 07481 12/65 51506 10090 20000 39888 40178 58017 60006 80001 90900=
07481,1997-03-23 12:00:00,15,1015.3,-1.8,41,2,25000,11.112,,,170,,,,,,,,,,,wg-a,,,,AAXX 23124 07481 12/75 71706 10150 20020 39870 40153 58018 60006 80001 91200=
07481,1997-03-23 15:00:00,17,1012.1,-2.9,29,-1,25000,11.112,,,190,,,,,,,,,,,wg-a,,,,AAXX 23154 07481 12/75 71906 10170 21010 39841 40121 56029 60006 80002 91500=
07481,1997-03-23 18:00:00,15,1012.1,-0.2,41,2,25000,14.816,,,270,1.6,17.6,,,,,,,,,wg-a,,,,AAXX 23184 07481 12775 72708 10150 20020 39839 40121 55002 60006 81582 91800 333 10176 20016=
07481,1997-03-23 21:00:00,12,1013.1,0.7,50,2,25000,11.112,,,10,,,,,,,,,,,wg-a,,,,AAXX 23214 07481 12/75 50106 10120 20020 39845 40131 53007 60006 85030 92100=
07481,1997-03-24 00:00:00,9,1012.1,-1.2,57,1,25000,3.704,,,230,,,,,,,,,,,wg-a,,,,AAXX 24004 07481 12/75 62302 10090 20010 39833 40121 58012 60006 86030 90000=
07481,1997-03-24 03:00:00,8,1011.3,-0.8,87,6,20000,0,,,0,,,,1,,,,,,21,wg-a,,,,AAXX 24034 07481 12570 70000 10080 20060 39824 40113 58008 60017 72162 878// 90300=
07481,1997-03-24 06:00:00,7,1011.6,0.2,93,6,15000,7.408,,,360,7.2,15,,,,,1,,,1,wg-a,,,,AAXX 24064 07481 02565 73604 10070 20060 39827 40116 53002 60006 70162 878// 90600 333 10150 20072 60014=
07481,1997-03-24 09:00:00,9,1011.9,0.4,76,5,11000,22.224,,,330,,,,,,,,,,,wg-a,,,,AAXX 24094 07481 12/61 /3312 10090 20050 39831 40119 51004 60006 90900=
07481,1997-03-24 12:00:00,10,1012.1,0.3,66,4,20000,18.52,,,350,,,,,,,,,,,wg-a,,,,AAXX 24124 07481 12570 73510 10100 20040 39834 40121 51003 60006 8383/ 91200=
07481,1997-03-24 15:00:00,11,1010.9,-1,58,3,500,18.52,,,350,,,,,,,,,,,wg-a,,,,AAXX 24154 07481 12500 23510 10110 20030 39824 40109 58010 60006 81230 91500=
07481,1997-03-24 18:00:00,10,1010.8,-0.3,62,3,500,11.112,,,320,7.3,12.4,,,,,,,,,wg-a,,,,AAXX 24184 07481 12500 /3206 10100 20030 39821 40108 55003 60006 81240 91800 333 10124 20073=
07481,1997-03-24 21:00:00,7,1012.2,1.1,76,3,25000,7.408,,,10,,,,,,,,,,,wg-a,,,,AAXX 24214 07481 12/75 40104 10070 20030 39832 40122 52011 60006 84030 92100=
07481,1997-03-25 00:00:00,7,1012.3,0.1,81,4,20000,3.704,,,270,,,,,,,,,,,wg-a,,,,AAXX 25004 07481 12770 72702 10070 20040 39833 40123 53001 60006 8253/ 90000=
07481,1997-03-25 03:00:00,5,1013.2,0.6,87,3,20000,0,,,0,,,,,,,,,,,wg-a,,,,AAXX 25034 07481 12770 30000 10050 20030 39839 40132 53006 60006 81530 90300=
07481,1997-03-25 06:00:00,3,1015.3,1.9,93,2,12000,0,,,0,3,9.7,,,,,,,,,wg-a,,,,AAXX 25064 07481 02/62 20000 10030 20020 39858 40153 52019 60006 82031 90600 333 10097 20030 60004=
07481,1997-03-25 09:00:00,8,1016.1,1.3,81,5,12000,3.704,,,10,,,,,,,,,,,wg-a,,,,AAXX 25094 07481 12/62 70102 10080 20050 39871 40161 52013 60006 83032 90900=
07481,1997-03-25 12:00:00,12,1015.8,0.1,62,5,15000,22.224,,,10,,,,,,,,,,,wg-a,,,,AAXX 25124 07481 12565 70112 10120 20050 39872 40158 51001 60006 83202 91200=
07481,1997-03-25 15:00:00,8,1017.1,0.9,93,7,15000,29.632,,,10,,,,1,,,,,,80,wg-a,,,,AAXX 25154 07481 12565 70116 10080 20070 39881 40171 53009 60017 78086 8387/ 91500=
07481,1997-03-25 18:00:00,9,1018,1.1,81,6,15000,14.816,,,340,3.3,12.3,,2,,,,,,1,wg-a,,,,AAXX 25184 07481 02665 /3408 10090 20060 39891 40180 53011 60006 70186 85502 91800 333 10123 20033 60027=
07481,1997-03-25 21:00:00,7,1020.1,1.7,93,6,15000,18.52,,,350,,,,,,,,,,,wg-a,,,,AAXX 25214 07481 12865 23510 10070 20060 39909 40201 52017 60006 81042 92100=
07481,1997-03-26 00:00:00,5,1020.8,0.5,100,5,7000,7.408,,,320,,,,,,,,,,,wg-a,,,,AAXX 26004 07481 12/57 03204 10050 20050 39914 40208 51005 60006 80000 90000=
07481,1997-03-26 03:00:00,6,1021.4,0.6,93,5,3500,7.408,,,350,,,,,,,,,,11,wg-a,,,,AAXX 26034 07481 12135 83504 10060 20050 39920 40214 52006 60006 71111 886// 90300=
07481,1997-03-26 06:00:00,6,1022.7,1.3,100,6,1800,14.816,,,350,4.6,9,,,,,2,,,10,wg-a,,,,AAXX 26064 07481 02118 83508 10060 20060 39933 40227 53013 60006 71011 886// 90600 333 10090 20046 60024=
07481,1997-03-26 12:00:00,12,1023.2,0.1,71,7,6000,11.112,,,10,,,,,,,,,,,wg-a,,,,AAXX 26124 07481 12556 30106 10120 20070 39944 40232 53001 60006 83201 91200=
07481,1997-03-26 18:00:00,13,1022.8,0.4,58,5,10000,7.408,,,20,6,14.9,,,,,,,,,wg-a,,,,AAXX 26184 07481 12/60 40204 10130 20050 39941 40228 53004 60006 80002 91800 333 10149 20060=
07481,1997-03-26 21:00:00,10,1024.4,1.3,66,4,10000,3.704,,,30,,,,,,,,,,,wg-a,,,,AAXX 26214 07481 12/60 50302 10100 20040 39954 40244 53013 60006 80002 92100=
07481,1997-03-27 00:00:00,7,1025.1,0.3,81,4,10000,7.408,,,260,,,,,,,,,,,wg-a,,,,AAXX 27004 07481 12/60 52604 10070 20040 39957 40251 52003 60006 80002 90000=
07481,1997-03-27 03:00:00,7,1024.8,-0.2,87,5,8000,0,,,0,,,,,,,,,,,wg-a,,,,AAXX 27034 07481 12758 70000 10070 20050 39955 40248 58002 60006 875// 90300=
07481,1997-03-27 06:00:00,7,1025.6,0.7,81,4,6000,0,,,0,6,12.6,,,,,,,,,wg-a,,,,AAXX 27064 07481 02756 /0000 10070 20040 39962 40256 53007 60006 85500 90600 333 10126 20060 60004=
07481,1997-03-27 09:00:00,12,1025.7,0.6,58,4,10000,7.408,,,360,,,,,,,,,,,wg-a,,,,AAXX 27094 07481 12760 23604 10120 20040 39968 40257 51006 60006 82500 90900=
07481,1997-03-27 12:00:00,16,1023.7,-1.5,55,7,25000,14.816,,,20,,,,,,,,,,,wg-a,,,,AAXX 27124 07481 12675 40208 10160 20070 39953 40237 57015 60006 83502 91200=
07481,1997-03-27 15:00:00,18,1021.9,-1.5,59,10,500,22.224,,,360,,,,,,,,,,,wg-a,,,,AAXX 27154 07481 12600 /3612 10180 20100 39938 40219 56015 60006 81502 91500=
07481,1997-03-27 18:00:00,16,1021.9,-0.2,68,10,500,11.112,,,10,6.5,18.7,,,,,,,,,wg-a,,,,AAXX 27184 07481 12700 20106 10160 20100 39936 40219 55002 60006 82802 91800 333 10187 20065=
07481,1997-03-27 21:00:00,13,1022.2,0,77,9,500,7.408,,,60,,,,,,,,,,,wg-a,,,,AAXX 27214 07481 12/00 00604 10130 20090 39935 40222 50000 60006 80000 92100=
07481,1997-03-28 00:00:00,12,1022,-0.4,82,9,25000,3.704,,,260,,,,,,,,,,,wg-a,,,,AAXX 28004 07481 12675 72602 10120 20090 39932 40220 58004 60006 875// 90000=
07481,1997-03-28 03:00:00,12,1019.8,-2.1,88,10,20000,3.704,,,220,,,,,,,,,,,wg-a,,,,AAXX 28034 07481 12670 72202 10120 20100 39911 40198 56021 60006 875// 90300=
07481,1997-03-28 06:00:00,11,1019.1,-0.8,87,9,20000,3.704,,,360,10.4,16,,,,,,,,,wg-a,,,,AAXX 28064 07481 02570 /3602 10110 20090 39903 40191 55008 60006 85830 90600 333 10160 20104 60004=
07481,1997-03-28 09:00:00,13,1019.1,0.1,82,10,20000,7.408,,,320,,,,,,,,,,21,wg-a,,,,AAXX 28094 07481 02470 83204 10130 20100 39905 40191 53001 61000 72162 878// 90900 333 ////=
07481,1997-03-28 12:00:00,12,1018.4,-0.6,88,10,9000,31.484,,,340,,,,0,,,,,,80,wg-a,,,,AAXX 28124 07481 02559 73417 10120 20100 39898 40184 55006 60006 78086 878// 91200 333 60007=
07481,1997-03-28 15:00:00,13,1018.7,0.2,47,2,40000,29.632,,,360,,,,,,,,,,3,wg-a,,,,AAXX 28154 07481 02582 53616 10130 20020 39901 40187 53002 61000 70361 85800 91500 333 ////=
07481,1997-03-28 18:00:00,11,1019.9,1,40,-2,40000,29.632,,,10,10.3,15.7,,,,,,,,1,wg-a,,,,AAXX 28184 07481 12582 20116 10110 21020 39910 40199 53010 60006 70161 82800 91800 333 10157 20103=
07481,1997-03-28 21:00:00,8,1021.9,1.7,53,-1,35000,18.52,,,360,,,,,,,,,,,wg-a,,,,AAXX 28214 07481 12/81 03610 10080 21010 39926 40219 51017 60006 80000 92100=
07481,1997-03-29 00:00:00,5,1023.2,0.9,60,-2,500,18.52,,,350,,,,,,,,,,,wg-a,,,,AAXX 29004 07481 12/00 03510 10050 21020 39936 40232 51009 60006 80000 90000=
07481,1997-03-29 03:00:00,3,1023.8,0.4,70,-2,20000,11.112,,,360,,,,,,,,,,,wg-a,,,,AAXX 29034 07481 12/70 03606 10030 21020 39940 40238 51004 60006 80000 90300=
07481,1997-03-29 06:00:00,3,1024.5,0.7,75,-1,20000,14.816,,,350,2.1,10.6,,,,,1,,,,wg-a,,,,AAXX 29064 07481 02/70 03508 10030 21010 39947 40245 53007 60006 80000 90600 333 10106 20021 60014=
07481,1997-03-29 09:00:00,8,1024.4,0.3,53,-1,25000,22.224,,,20,,,,,,,,,,,wg-a,,,,AAXX 29094 07481 12675 10212 10080 21010 39951 40244 51003 60006 81100 90900=
07481,1997-03-29 12:00:00,10,1023.2,-0.9,43,-2,500,25.928,,,20,,,,,,,,,,,wg-a,,,,AAXX 29124 07481 12600 40214 10100 21020 39942 40232 58009 60006 84200 91200=
07481,1997-03-29 15:00:00,10,1022.4,-0.8,43,-2,35000,25.928,,,20,,,,,,,,,,,wg-a,,,,AAXX 29154 07481 12681 40214 10100 21020 39934 40224 56008 60006 84800 91500=
07481,1997-03-29 18:00:00,9,1023,0.4,43,-3,500,25.928,,,10,2.7,11.5,,,,,,,,,wg-a,,,,AAXX 29184 07481 12600 /0114 10090 21030 39938 40230 53004 60006 81800 91800 333 10115 20027=
07481,1997-03-29 21:00:00,5,1023.8,0.6,65,-1,25000,14.816,,,10,,,,,,,,,,,wg-a,,,,AAXX 29214 07481 12/75 10108 10050 21010 39943 40238 51006 60006 81030 92100=
07481,1997-03-30 00:00:00,3,1023.9,-0.2,75,-1,25000,11.112,,,360,,,,,,,,,,,wg-a,,,,AAXX 30004 07481 12/75 03606 10030 21010 39941 40239 56002 60006 80000 90000=
07481,1997-03-30 03:00:00,4,1023.2,-0.6,75,0,20000,22.224,,,340,,,,,,,,,,,wg-a,,,,AAXX 30034 07481 12/70 03412 10040 20000 39935 40232 58006 60006 80000 90300=
07481,1997-03-30 06:00:00,3,1024,0.7,87,1,10000,14.816,,,350,2.6,8.6,,,,,,,,,wg-a,,,,AAXX 30064 07481 02/60 /3508 10030 20010 39942 40240 53007 60006 80000 90600 333 10086 20026 60004=
07481,1997-03-30 09:00:00,8,1023.3,-0.1,61,1,18000,22.224,,,340,,,,,,,,,,,wg-a,,,,AAXX 30094 07481 12568 13412 10080 20010 39941 40233 58001 60006 81100 90900=
07481,1997-03-30 12:00:00,12,1022,-0.8,47,1,40000,29.632,,48.152,350,,,,,,,,,,,wg-a,,,,AAXX 30124 07481 12682 /3516 10120 20010 39932 40220 58008 60006 81100 91200 333 91026=
07481,1997-03-31 06:00:00,2,1024.5,1.1,93,1,13000,3.704,,,220,1.4,11.3,,,,,,,,,wg-a,,,,AAXX 31064 07481 02/63 02202 10020 20010 39946 40245 53011 60006 80000 90600 333 10113 20014 60004=
07481,1997-03-31 09:00:00,8,1024.8,0.9,71,3,15000,3.704,,,330,,,,,,,,,,,wg-a,,,,AAXX 31094 07481 12/65 03302 10080 20030 39955 40248 51009 60006 80000 90900=
07481,1997-03-31 12:00:00,13,1023.1,-1.2,47,2,500,3.704,,,330,,,,,,,,,,,wg-a,,,,AAXX 31124 07481 12/00 03302 10130 20020 39943 40231 58012 60006 80000 91200=
07481,1997-03-31 15:00:00,16,1021.1,-1.6,36,1,40000,7.408,,,330,,,,,,,,,,,wg-a,,,,AAXX 31154 07481 12782 /3304 10160 20010 39927 40211 56016 60006 81100 91500=
07481,1997-03-31 18:00:00,14,1020.9,-0.4,44,2,40000,11.112,,,350,2.5,16.7,,,,,,,,,wg-a,,,,AAXX 31184 07481 12/82 03506 10140 20020 39923 40209 55004 60006 80000 91800 333 10167 20025=
07481,1997-03-31 21:00:00,10,1021.2,0.1,57,2,40000,3.704,,,240,,,,,,,,,,,wg-a,,,,AAXX 31214 07481 12/82 02402 10100 20020 39923 40212 50001 60006 80000 92100=
07481,1997-04-01 00:00:00,9,1021.2,-0.2,61,2,10000,7.408,,,190,,,,,,,,,,,wg-a,,,,AAXX 01004 07481 12/60 /1904 10090 20020 39921 40212 58002 60006 90000=
07481,1997-04-01 03:00:00,5,1021.1,-0.4,75,1,25000,0,,,0,,,,,,,,,,,wg-a,,,,AAXX 01034 07481 12/75 00000 10050 20010 39916 40211 57004 60006 80000 90300=
07481,1997-04-01 06:00:00,3,1022.1,0.7,81,0,15000,0,,,0,2.9,13.9,,,,,,,,,wg-a,,,,AAXX 01064 07481 02/65 00000 10030 20000 39924 40221 53007 60006 80000 90600 333 10139 20029 60004=
07481,1997-04-01 09:00:00,10,1021.2,-0.2,62,3,12000,3.704,,,330,,,,,,,,,,,wg-a,,,,AAXX 01094 07481 12/62 03302 10100 20030 39923 40212 58002 60006 80000 90900=
07481,1997-04-01 12:00:00,16,1019.4,-1.2,42,3,18000,7.408,,,310,,,,,,,,,,,wg-a,,,,AAXX 01124 07481 12668 /3104 10160 20030 39911 40194 57012 60006 81100 91200=
07481,1997-04-01 15:00:00,18,1017.2,-1.9,39,4,35000,11.112,,,360,,,,,,,,,,,wg-a,,,,AAXX 01154 07481 12781 13606 10180 20040 39891 40172 56019 60006 81101 91500=
07481,1997-04-01 18:00:00,17,1016.4,-0.9,48,6,40000,7.408,,,330,3.1,18.2,,,,,,,,,wg-a,,,,AAXX 01184 07481 12782 /3304 10170 20060 39882 40164 56009 60006 81401 91800 333 10182 20031=
07481,1997-04-01 21:00:00,12,1016.8,0,58,4,40000,7.408,,,350,,,,,,,,,,,wg-a,,,,AAXX 01214 07481 12/82 03504 10120 20040 39881 40168 50000 60006 80000 92100=
07481,1997-04-02 00:00:00,9,1017,-0.1,66,3,40000,3.704,,,300,,,,,,,,,,,wg-a,,,,AAXX 02004 07481 12/82 03002 10090 20030 39880 40170 57001 60006 80000 90000=
07481,1997-04-02 03:00:00,7,1016.8,-0.3,81,4,40000,7.408,,,350,,,,,,,,,,,wg-a,,,,AAXX 02034 07481 12/82 03504 10070 20040 39877 40168 56003 60006 80000 90300=
07481,1997-04-02 06:00:00,6,1017.9,0.9,87,4,40000,3.704,,,330,4.8,16.4,,,,,,,,,wg-a,,,,AAXX 02064 07481 02/82 03302 10060 20040 39886 40179 53009 60006 80000 90600 333 10164 20048 60004=
07481,1997-04-02 12:00:00,18,1016.9,-0.7,42,5,500,3.704,,,310,,,,,,,,,,,wg-a,,,,AAXX 02124 07481 12/00 03102 10180 20050 39889 40169 58007 60006 80000 91200=
07481,1997-04-02 18:00:00,17,1015.8,0.1,45,5,40000,7.408,,,340,5.9,20.9,,,,,,,,,wg-a,,,,AAXX 02184 07481 12/82 13404 10170 20050 39877 40158 53001 60006 80001 91800 333 10209 20059=
07481,1997-04-02 21:00:00,14,1017,0.9,55,5,35000,7.408,,,220,,,,,,,,,,,wg-a,,,,AAXX 02214 07481 12/81 02204 10140 20050 39886 40170 51009 60006 80000 92100=
07481,1997-04-03 00:00:00,9,1017.1,-0.4,71,4,500,0,,,0,,,,,,,,,,,wg-a,,,,AAXX 03004 07481 12/00 00000 10090 20040 39882 40171 57004 60006 80000 90000=
07481,1997-04-03 03:00:00,8,1017.1,-0.2,76,4,15000,3.704,,,220,,,,,,,,,,,wg-a,,,,AAXX 03034 07481 12/65 02202 10080 20040 39880 40171 57002 60006 80000 90300=
07481,1997-04-03 06:00:00,6,1017.5,0.3,87,4,10000,0,,,0,6.1,17.3,,,,,,,,,wg-a,,,,AAXX 03064 07481 02/60 00000 10060 20040 39883 40175 53003 60006 80000 90600 333 10173 20061 60004=
07481,1997-04-03 09:00:00,13,1017.6,0.7,67,7,12000,7.408,,,10,,,,,,,,,,,wg-a,,,,AAXX 03094 07481 12/62 00104 10130 20070 39890 40176 52007 60006 80000 90900=
07481,1997-04-03 12:00:00,18,1016,-1,37,3,15000,14.816,,,20,,,,,,,,,,,wg-a,,,,AAXX 03124 07481 12665 /0208 10180 20030 39880 40160 58010 60006 81100 91200=
07481,1997-04-03 15:00:00,20,1014.5,-1.2,35,4,25000,18.52,,,350,,,,,,,,,,,wg-a,,,,AAXX 03154 07481 12675 /3510 10200 20040 39867 40145 56012 60006 81100 91500=
07481,1997-04-03 18:00:00,17,1015,0.2,45,5,25000,11.112,,,350,6.2,19.8,,,,,,,,,wg-a,,,,AAXX 03184 07481 12775 43506 10170 20050 39869 40150 53002 60006 82401 91800 333 10198 20062=
07481,1997-04-04 00:00:00,11,1018.9,1.7,62,4,500,14.816,,,340,,,,,,,,,,,wg-a,,,,AAXX 04004 07481 12600 /3408 10110 20040 39901 40189 51017 60006 84542 90000=
07481,1997-04-04 03:00:00,9,1019.1,-0,71,4,25000,11.112,,,10,,,,,,,,,,,wg-a,,,,AAXX 04034 07481 12775 /0106 10090 20040 39901 40191 55000 60006 84532 90300=
07481,1997-04-04 06:00:00,9,1020.9,1.6,76,5,500,11.112,,,350,8.4,17,,,,,,,,,wg-a,,,,AAXX 04064 07481 02600 83506 10090 20050 39918 40209 53016 60006 8587/ 90600 333 10170 20084 60004=
07481,1997-04-04 09:00:00,10,1022.5,1.7,66,4,18000,29.632,,,360,,,,,,,,,,21,wg-a,,,,AAXX 04094 07481 02568 63616 10100 20040 39935 40225 51017 61000 72162 85801 90900 333 ////=
07481,1997-04-04 12:00:00,13,1022.5,0.2,44,1,500,31.484,,,360,,,,,,,,,,1,wg-a,,,,AAXX 04124 07481 02600 /3617 10130 20010 39937 40225 50002 61000 70162 85102 91200 333 ////=
07481,1997-04-04 18:00:00,10,1023.7,0.8,43,-2,45000,25.928,,,350,8.6,12.9,,,,,,,,,wg-a,,,,AAXX 04184 07481 12/83 63514 10100 21020 39946 40237 51008 60006 81062 91800 333 10129 20086=
07481,1997-04-04 21:00:00,7,1025,1.1,49,-3,25000,22.224,,,350,,,,,,,,,,,wg-a,,,,AAXX 04214 07481 12/75 03512 10070 21030 39956 40250 51011 60006 80000 92100=
07481,1997-04-05 00:00:00,5,1025.9,0.6,56,-3,25000,18.52,,,350,,,,,,,,,,,wg-a,,,,AAXX 05004 07481 12/75 03510 10050 21030 39963 40259 53006 60006 80000 90000=
07481,1997-04-05 03:00:00,3,1025.9,-0.2,65,-3,25000,11.112,,,340,,,,,,,,,,,wg-a,,,,AAXX 05034 07481 12/75 03406 10030 21030 39961 40259 58002 60006 80000 90300=
07481,1997-04-05 06:00:00,2,1026.9,0.8,75,-2,25000,11.112,,,330,1.2,9.8,,,,,,,,,wg-a,,,,AAXX 05064 07481 02/75 03306 10020 21020 39969 40269 53008 60006 80000 90600 333 10098 20012 61000=
07481,1997-04-05 09:00:00,8,1026.7,0.5,42,-4,500,18.52,,,10,,,,,,,,,,,wg-a,,,,AAXX 05094 07481 12/00 20110 10080 21040 39974 40267 51005 60006 81062 90900=
07481,1997-04-05 12:00:00,13,1024.8,-1.5,26,-6,35000,18.52,,,340,,,,,,,,,,,wg-a,,,,AAXX 05124 07481 12/81 73410 10130 21060 39959 40248 58015 60006 80002 91200=
07481,1997-04-05 15:00:00,14,1022.1,-2.4,31,-3,40000,14.816,,,360,,,,,,,,,,,wg-a,,,,AAXX 05154 07481 12/82 33608 10140 21030 39935 40221 56024 60006 80001 91500=
07481,1997-04-05 18:00:00,13,1021.1,-1,38,-1,40000,7.408,,,80,2,15,,,,,,,,,wg-a,,,,AAXX 05184 07481 12/82 10804 10130 21010 39925 40211 58010 60006 80001 91800 333 10150 20020=
07481,1997-04-05 21:00:00,9,1022,0.4,53,0,40000,0,,,0,,,,,,,,,,,wg-a,,,,AAXX 05214 07481 12/82 10000 10090 20000 39929 40220 50004 60006 80001 92100=
07481,1997-04-06 00:00:00,6,1022.3,0,65,0,40000,11.112,,,130,,,,,,,,,,,wg-a,,,,AAXX 06004 07481 12/82 31306 10060 20000 39929 40223 50000 60006 83040 90000=
07481,1997-04-06 03:00:00,7,1021.2,-1,70,2,500,0,,,0,,,,,,,,,,,wg-a,,,,AAXX 06034 07481 12600 40000 10070 20020 39919 40212 56010 60006 83540 90300=
07481,1997-04-06 06:00:00,6,1021.7,0.4,87,4,20000,0,,,0,5.5,13.4,,,,,,,,,wg-a,,,,AAXX 06064 07481 02670 /0000 10060 20040 39923 40217 53004 60006 81530 90600 333 10134 20055 60004=
07481,1997-04-06 09:00:00,11,1021.6,0.5,71,6,20000,25.928,,,350,,,,,,,,,,,wg-a,,,,AAXX 06094 07481 12470 73514 10110 20060 39928 40216 53005 60006 878// 90900=
07481,1997-04-06 12:00:00,15,1020.7,-0.6,63,8,25000,29.632,,,340,,,,,,,,,,,wg-a,,,,AAXX 06124 07481 12575 23416 10150 20080 39922 40207 58006 60006 82240 91200=
07481,1997-04-06 15:00:00,15,1019.9,-0.7,59,7,500,31.484,,,340,,,,,,,,,,,wg-a,,,,AAXX 06154 07481 12500 /3417 10150 20070 39915 40199 58007 60006 81200 91500=
07481,1997-04-06 18:00:00,14,1019.7,-0.3,58,6,500,31.484,,,360,6.1,15.5,,,,,,,,,wg-a,,,,AAXX 06184 07481 12/00 03617 10140 20060 39912 40197 58003 60006 80000 91800 333 10155 20061=
07481,1997-04-06 21:00:00,11,1021.6,1.5,47,0,25000,25.928,,,10,,,,,,,,,,,wg-a,,,,AAXX 06214 07481 12/75 00114 10110 20000 39927 40216 51015 60006 80000 92100=
07481,1997-04-07 00:00:00,7,1023.2,1.1,57,-1,25000,18.52,,,340,,,,,,,,,,,wg-a,,,,AAXX 07004 07481 12/75 03410 10070 21010 39938 40232 53011 60006 80000 90000=
07481,1997-04-07 03:00:00,3,1024.2,0.6,70,-2,25000,7.408,,,310,,,,,,,,,,,wg-a,,,,AAXX 07034 07481 12/75 03104 10030 21020 39944 40242 53006 60006 80000 90300=
07481,1997-04-07 06:00:00,2,1024.9,0.6,75,-2,25000,11.112,,,330,1.2,13.9,,,,,,,,,wg-a,,,,AAXX 07064 07481 02/75 03306 10020 21020 39950 40249 53006 60006 80000 90600 333 10139 20012 60004=
07481,1997-04-07 12:00:00,12,1023.7,-0.7,47,1,500,7.408,,,10,,,,,,,,,,,wg-a,,,,AAXX 07124 07481 12/00 10104 10120 20010 39949 40237 58007 60006 80002 91200=
07481,1997-04-07 18:00:00,15,1021.8,-0.4,36,0,500,18.52,,,340,2.4,17,,,,,,,,,wg-a,,,,AAXX 07184 07481 12/00 43410 10150 20000 39933 40218 56004 60006 80002 91800 333 10170 20024=
07481,1997-04-07 21:00:00,9,1023.3,1,49,-1,40000,0,,,0,,,,,,,,,,,wg-a,,,,AAXX 07214 07481 12/82 20000 10090 21010 39942 40233 51010 60006 80001 92100=
07481,1997-04-08 00:00:00,7,1024.2,0.6,57,-1,500,3.704,,,230,,,,,,,,,,,wg-a,,,,AAXX 08004 07481 12/00 02302 10070 21010 39948 40242 53006 60006 80000 90000=
07481,1997-04-08 03:00:00,4,1025.4,0.9,65,-2,500,3.704,,,260,,,,,,,,,,,wg-a,,,,AAXX 08034 07481 12/00 02602 10040 21020 39957 40254 53009 60006 80000 90300=
07481,1997-04-08 06:00:00,3,1027,1.4,75,-1,500,0,,,0,2.7,14.8,,,,,,,,,wg-a,,,,AAXX 08064 07481 02/00 10000 10030 21010 39971 40270 53014 60006 80001 90600 333 10148 20027 60004=
07481,1997-04-08 09:00:00,13,1026.3,0.4,44,1,500,14.816,,,140,,,,,,,,,,,wg-a,,,,AAXX 08094 07481 12/00 11408 10130 20010 39975 40263 51004 60006 80001 90900=
07481,1997-04-08 12:00:00,18,1024.5,-1.3,37,3,500,25.928,,,200,,,,,,,,,,,wg-a,,,,AAXX 08124 07481 12/00 02014 10180 20030 39962 40245 58013 60006 80000 91200=
07481,1997-04-08 15:00:00,19,1023,-1.3,34,3,40000,22.224,,,190,,,,,,,,,,,wg-a,,,,AAXX 08154 07481 12/82 01912 10190 20030 39949 40230 56013 60006 80000 91500=
07481,1997-04-08 18:00:00,16,1023.9,0.6,45,4,40000,18.52,,,190,3.1,19.6,,,,,,,,,wg-a,,,,AAXX 08184 07481 12/82 01910 10160 20040 39955 40239 53006 60006 80000 91800 333 10196 20031=
07481,1997-04-08 21:00:00,13,1025.5,1.2,51,3,35000,18.52,,,160,,,,,,,,,,,wg-a,,,,AAXX 08214 07481 12/81 01610 10130 20030 39967 40255 51012 60006 80000 92100=
07481,1997-04-09 00:00:00,10,1026.9,1,62,3,20000,22.224,,,180,,,,,,,,,,,wg-a,,,,AAXX 09004 07481 12/70 01812 10100 20030 39978 40269 52010 60006 80000 90000=
07481,1997-04-09 03:00:00,9,1028,0.9,71,4,10000,18.52,,,160,,,,,,,,,,,wg-a,,,,AAXX 09034 07481 12/60 /1610 10090 20040 39987 40280 53009 60006 90300=
07481,1997-04-09 06:00:00,9,1029.2,1.2,71,4,15000,14.816,,,170,8,16.4,,,,,,,,,wg-a,,,,AAXX 09064 07481 02/65 11708 10090 20040 39999 40292 53012 60006 80001 90600 333 10164 20080 60004=
07481,1997-04-09 09:00:00,14,1029.9,1.1,47,3,20000,22.224,,,190,,,,,,,,,,,wg-a,,,,AAXX 09094 07481 12/70 21912 10140 20030 30010 40299 53011 60006 80001 90900=
07481,1997-04-09 12:00:00,17,1028.9,-0.7,36,2,25000,22.224,,,190,,,,,,,,,,,wg-a,,,,AAXX 09124 07481 12/75 21912 10170 20020 30004 40289 58007 60006 80001 91200=
07481,1997-04-09 15:00:00,19,1027.4,-1.2,34,3,35000,14.816,,,180,,,,,,,,,,,wg-a,,,,AAXX 09154 07481 12/81 21808 10190 20030 39992 40274 56012 60006 80001 91500=
07481,1997-04-09 18:00:00,17,1027.5,-0.1,36,2,35000,14.816,,,160,8.9,19.6,,,,,,,,,wg-a,,,,AAXX 09184 07481 12/81 11608 10170 20020 39991 40275 55001 60006 80001 91800 333 10196 20089=
07481,1997-04-09 21:00:00,13,1028.9,0.9,51,3,20000,14.816,,,150,,,,,,,,,,,wg-a,,,,AAXX 09214 07481 12/70 01508 10130 20030 30000 40289 51009 60006 80000 92100=
07481,1997-04-10 00:00:00,11,1030.1,1,66,5,20000,11.112,,,150,,,,,,,,,,,wg-a,,,,AAXX 10004 07481 12/70 01506 10110 20050 30010 40301 51010 60006 80000 90000=
07481,1997-04-10 03:00:00,9,1030.3,-0.1,76,5,10000,7.408,,,170,,,,,,,,,,,wg-a,,,,AAXX 10034 07481 12/60 /1704 10090 20050 30010 40303 58001 60006 90300=
07481,1997-04-10 06:00:00,8,1030.9,0.4,76,4,15000,7.408,,,130,6.6,17.1,,,,,,,,,wg-a,,,,AAXX 10064 07481 02/65 21304 10080 20040 30014 40309 53004 60006 80001 90600 333 10171 20066 60004=
07481,1997-04-10 09:00:00,14,1030.3,0.1,55,5,15000,3.704,,,140,,,,,,,,,,,wg-a,,,,AAXX 10094 07481 12/65 21402 10140 20050 30015 40303 51001 60006 80001 90900=
07481,1997-04-10 12:00:00,19,1028,-1.8,40,5,15000,11.112,,,320,,,,,,,,,,,wg-a,,,,AAXX 10124 07481 12/65 03206 10190 20050 39997 40280 58018 60006 80000 91200=
07481,1997-04-10 15:00:00,22,1025.5,-2.2,33,5,35000,18.52,,,350,,,,,,,,,,,wg-a,,,,AAXX 10154 07481 12/81 13510 10220 20050 39975 40255 56022 60006 80001 91500=
07481,1997-04-10 18:00:00,20,1025.7,-0,35,4,35000,14.816,,,350,7.5,21.7,,,,,,,,,wg-a,,,,AAXX 10184 07481 12/81 23508 10200 20040 39975 40257 55000 60006 80001 91800 333 10217 20075=
07481,1997-04-10 21:00:00,13,1026.9,0.6,54,4,35000,3.704,,,330,,,,,,,,,,,wg-a,,,,AAXX 10214 07481 12/81 03302 10130 20040 39981 40269 51006 60006 80000 92100=
07481,1997-04-11 00:00:00,12,1027,0,54,3,35000,3.704,,,230,,,,,,,,,,,wg-a,,,,AAXX 11004 07481 12/81 02302 10120 20030 39981 40270 50000 60006 80000 90000=
07481,1997-04-11 03:00:00,9,1026.9,-0.4,66,3,10000,0,,,0,,,,,,,,,,,wg-a,,,,AAXX 11034 07481 12/60 /0000 10090 20030 39977 40269 56004 60006 90300=
07481,1997-04-11 06:00:00,8,1026.3,-0.7,71,3,20000,3.704,,,240,7.1,19.4,,,,,,,,,wg-a,,,,AAXX 11064 07481 02/70 32402 10080 20030 39970 40263 55007 60006 80001 90600 333 10194 20071 60004=
07481,1997-04-11 09:00:00,14,1025,-0.7,55,5,20000,7.408,,,10,,,,,,,,,,,wg-a,,,,AAXX 11094 07481 12/70 20104 10140 20050 39963 40250 58007 60006 80001 90900=
07481,1997-04-11 12:00:00,20,1022,-2.4,21,-3,500,22.224,,,350,,,,,,,,,,,wg-a,,,,AAXX 11124 07481 12/00 23512 10200 21030 39939 40220 58024 60006 80001 91200=
07481,1997-04-11 18:00:00,18,1018.6,-0.6,32,1,500,11.112,,,350,7.7,21.1,,,,,,,,,wg-a,,,,AAXX 11184 07481 12/00 23506 10180 20010 39905 40186 57006 60006 80001 91800 333 10211 20077=
07481,1997-04-11 21:00:00,15,1018.8,-0.1,44,3,20000,11.112,,,340,,,,,,,,,,,wg-a,,,,AAXX 11214 07481 12870 73406 10150 20030 39904 40188 58001 60006 8707/ 92100=
07481,1997-04-12 00:00:00,11,1019.9,0.7,71,6,17000,25.928,,,340,,,,,,,,,,,wg-a,,,,AAXX 12004 07481 12867 83414 10110 20060 39911 40199 51007 60006 8807/ 90000=
07481,1997-04-12 03:00:00,7,1020.5,0.1,66,1,20000,25.928,,,340,,,,,,,,,,,wg-a,,,,AAXX 12034 07481 12670 /3414 10070 20010 39912 40205 53001 60006 85502 90300=
07481,1997-04-12 06:00:00,4,1021.6,0.8,60,-3,20000,22.224,,,340,3.7,18.3,,,,,,,,,wg-a,,,,AAXX 12064 07481 02670 63412 10040 21030 39920 40216 51008 60006 85502 90600 333 10183 20037 60004=
07481,1997-04-12 09:00:00,8,1021.8,0.6,53,-1,25000,29.632,,,340,,,,,,,,,,,wg-a,,,,AAXX 12094 07481 12/75 43416 10080 21010 39926 40218 52006 60006 80002 90900=
07481,1997-04-12 12:00:00,12,1020.7,-0.7,32,-4,25000,31.484,,,340,,,,,,,,,,,wg-a,,,,AAXX 12124 07481 12/75 53417 10120 21040 39919 40207 58007 60006 80002 91200=
07481,1997-04-12 15:00:00,13,1020,-0.6,24,-7,35000,35.188,,,350,,,,,,,,,,,wg-a,,,,AAXX 12154 07481 12/81 23519 10130 21070 39913 40200 55006 60006 80002 91500=
07481,1997-04-12 18:00:00,11,1020.7,0.6,35,-4,35000,35.188,,,350,3.6,13.6,,,,,,,,,wg-a,,,,AAXX 12184 07481 12/81 03519 10110 21040 39918 40207 51006 60006 80000 91800 333 10136 20036=
07481,1997-04-12 21:00:00,7,1022.4,1.2,53,-2,35000,22.224,,,360,,,,,,,,,,,wg-a,,,,AAXX 12214 07481 12/81 03612 10070 21020 39931 40224 52012 60006 80000 92100=
07481,1997-04-13 00:00:00,4,1023,0.3,65,-2,35000,18.52,,,340,,,,,,,,,,,wg-a,,,,AAXX 13004 07481 12/81 03410 10040 21020 39934 40230 51003 60006 80000 90000=
07481,1997-04-13 03:00:00,2,1022.9,-0.4,75,-2,500,7.408,,,330,,,,,,,,,,,wg-a,,,,AAXX 13034 07481 12/00 03304 10020 21020 39930 40229 56004 60006 80000 90300=
07481,1997-04-13 06:00:00,2,1023.5,0.6,80,-1,25000,3.704,,,360,0.8,10.8,,,,,,,,,wg-a,,,,AAXX 13064 07481 02/75 13602 10020 21010 39936 40235 53006 60006 80001 90600 333 10108 20008 60004=
07481,1997-04-13 09:00:00,6,1023.4,0.3,61,-1,25000,7.408,,,340,,,,,,,,,,,wg-a,,,,AAXX 13094 07481 12/75 03404 10060 21010 39940 40234 51003 60006 80000 90900=
07481,1997-04-13 12:00:00,12,1021.8,-1,40,-1,500,11.112,,,20,,,,,,,,,,,wg-a,,,,AAXX 13124 07481 12/00 00206 10120 21010 39930 40218 58010 60006 80000 91200=
07481,1997-04-13 18:00:00,13,1020,-0.3,35,-2,35000,18.52,,,340,1.8,15,,,,,,,,,wg-a,,,,AAXX 13184 07481 12/81 03410 10130 21020 39914 40200 55003 60006 80000 91800 333 10150 20018=
07481,1997-04-13 21:00:00,9,1020.9,0.4,49,-1,35000,11.112,,,310,,,,,,,,,,,wg-a,,,,AAXX 13214 07481 12/81 03106 10090 21010 39918 40209 50004 60006 80000 92100=
07481,1997-04-14 00:00:00,6,1021.2,0,65,0,35000,3.704,,,280,,,,,,,,,,,wg-a,,,,AAXX 14004 07481 12/81 02802 10060 20000 39918 40212 50000 60006 80000 90000=
07481,1997-04-14 03:00:00,4,1022,0.5,75,0,500,3.704,,,290,,,,,,,,,,,wg-a,,,,AAXX 14034 07481 12/00 02902 10040 20000 39923 40220 53005 60006 80000 90300=
07481,1997-04-14 06:00:00,4,1022.7,0.7,75,0,22000,0,,,0,2.2,13.1,,,,,,,,,wg-a,,,,AAXX 14064 07481 02/72 00000 10040 20000 39930 40227 53007 60006 80000 90600 333 10131 20022 60004=
07481,1997-04-14 09:00:00,9,1022.7,0.6,57,1,20000,3.704,,,340,,,,,,,,,,,wg-a,,,,AAXX 14094 07481 12/70 03402 10090 20010 39936 40227 51006 60006 80000 90900=
07481,1997-04-14 12:00:00,15,1021,-1.1,36,0,27000,7.408,,,340,,,,,,,,,,,wg-a,,,,AAXX 14124 07481 12/77 03404 10150 20000 39925 40210 58011 60006 80000 91200=
07481,1997-04-14 15:00:00,17,1019.2,-1.5,27,-2,40000,14.816,,,330,,,,,,,,,,,wg-a,,,,AAXX 14154 07481 12/82 03308 10170 21020 39910 40192 58015 60006 80000 91500=
07481,1997-04-14 18:00:00,16,1019.4,0.1,36,1,40000,11.112,,,350,3.7,17.4,,,,,,,,,wg-a,,,,AAXX 14184 07481 12/82 03506 10160 20010 39911 40194 52001 60006 80000 91800 333 10174 20037=
07481,1997-04-14 21:00:00,11,1020.8,0.8,50,1,40000,11.112,,,350,,,,,,,,,,,wg-a,,,,AAXX 14214 07481 12/82 03506 10110 20010 39919 40208 51008 60006 80000 92100=
07481,1997-04-15 00:00:00,8,1021.3,0.2,61,1,40000,3.704,,,330,,,,,,,,,,,wg-a,,,,AAXX 15004 07481 12/82 03302 10080 20010 39921 40213 53002 60006 80000 90000=
07481,1997-04-15 03:00:00,6,1021.6,0.1,81,3,40000,3.704,,,10,,,,,,,,,,,wg-a,,,,AAXX 15034 07481 12/82 00102 10060 20030 39922 40216 53001 60006 80000 90300=
07481,1997-04-15 06:00:00,6,1022.1,0.5,87,4,40000,7.408,,,350,5,15.8,,,,,,,,,wg-a,,,,AAXX 15064 07481 02/82 03504 10060 20040 39927 40221 53005 60006 80000 90600 333 10158 20050 60004=
07481,1997-04-15 09:00:00,12,1022,0.4,62,5,10000,22.224,,,340,,,,,,,,,,,wg-a,,,,AAXX 15094 07481 12/60 03412 10120 20050 39932 40220 51004 60006 80000 90900=
07481,1997-04-15 12:00:00,14,1021,-0.6,51,4,15000,31.484,,,340,,,,,,,,,,,wg-a,,,,AAXX 15124 07481 12565 23417 10140 20040 39925 40210 58006 60006 82200 91200=
07481,1997-04-15 15:00:00,15,1020.2,-0.7,39,1,15000,31.484,,,350,,,,,,,,,,,wg-a,,,,AAXX 15154 07481 12/65 13517 10150 20010 39918 40202 56007 60006 80001 91500=
07481,1997-04-15 18:00:00,13,1021,0.6,38,-1,500,25.928,,,360,6.3,15.7,,,,,,,,,wg-a,,,,AAXX 15184 07481 12/00 03614 10130 21010 39923 40210 53006 60006 80000 91800 333 10157 20063=
07481,1997-04-15 21:00:00,9,1021.9,0.4,46,-2,25000,22.224,,,350,,,,,,,,,,,wg-a,,,,AAXX 15214 07481 12/75 03512 10090 21020 39928 40219 50004 60006 80000 92100=
07481,1997-04-16 00:00:00,7,1022.1,0,53,-2,25000,18.52,,,340,,,,,,,,,,,wg-a,,,,AAXX 16004 07481 12/75 03410 10070 21020 39928 40221 50000 60006 80000 90000=
07481,1997-04-16 03:00:00,4,1022.1,-0.3,65,-2,500,14.816,,,330,,,,,,,,,,,wg-a,,,,AAXX 16034 07481 12/00 03308 10040 21020 39925 40221 56003 60006 80000 90300=
07481,1997-04-16 06:00:00,3,1022.6,0.4,70,-2,500,14.816,,,350,2.9,12.9,,,,,,,,,wg-a,,,,AAXX 16064 07481 02/00 13508 10030 21020 39929 40226 53004 60006 80001 90600 333 10129 20029 60004=
07481,1997-04-16 09:00:00,9,1021.4,-0.6,49,-1,500,25.928,,,340,,,,,,,,,,,wg-a,,,,AAXX 16094 07481 12/00 13414 10090 21010 39923 40214 58006 60006 80001 90900=
07481,1997-04-16 12:00:00,13,1019.1,-1.8,35,-2,500,25.928,,,340,,,,,,,,,,,wg-a,,,,AAXX 16124 07481 12/00 13414 10130 21020 39905 40191 58018 60006 80001 91200=
07481,1997-04-16 15:00:00,14,1016.9,-2.1,31,-3,500,35.188,,,350,,,,,,,,,,,wg-a,,,,AAXX 16154 07481 12/00 13519 10140 21030 39884 40169 58021 60006 80001 91500=
07481,1997-04-16 18:00:00,12,1016,-1,26,-7,35000,31.484,,,350,3.4,14.4,,,,,,,,,wg-a,,,,AAXX 16184 07481 12/81 13517 10120 21070 39874 40160 57010 60006 80001 91800 333 10144 20034=
07481,1997-04-16 21:00:00,9,1016.6,0.2,31,-7,500,18.52,,,360,,,,,,,,,,,wg-a,,,,AAXX 16214 07481 12/00 23610 10090 21070 39876 40166 51002 60006 80001 92100=
07481,1997-04-17 00:00:00,5,1016.5,-0.6,56,-3,500,7.408,,,320,,,,,,,,,,,wg-a,,,,AAXX 17004 07481 12/00 13204 10050 21030 39871 40165 58006 60006 80001 90000=
07481,1997-04-17 03:00:00,2,1015.7,-1,64,-4,500,3.704,,,340,,,,,,,,,,,wg-a,,,,AAXX 17034 07481 12/00 03402 10020 21040 39860 40157 56010 60006 80000 90300=
07481,1997-04-17 06:00:00,2,1016.4,0.7,64,-4,500,3.704,,,330,0.4,12.1,,,,,,,,,wg-a,,,,AAXX 17064 07481 02/00 63302 10020 21040 39867 40164 53007 60006 80002 90600 333 10121 20004 60004=
07481,1997-04-17 09:00:00,6,1016.3,0.4,49,-4,500,3.704,,,20,,,,,,,,,,,wg-a,,,,AAXX 17094 07481 12/00 50202 10060 21040 39871 40163 51004 60006 80002 90900=
07481,1997-04-17 12:00:00,12,1014.8,-0.9,26,-7,500,7.408,,,350,,,,,,,,,,,wg-a,,,,AAXX 17124 07481 12500 23504 10120 21070 39862 40148 58009 60006 81102 91200=
07481,1997-04-17 15:00:00,14,1013.7,-0.9,23,-7,500,11.112,,,350,,,,,,,,,,,wg-a,,,,AAXX 17154 07481 12500 /3506 10140 21070 39853 40137 56009 60006 81101 91500=
07481,1997-04-17 18:00:00,13,1014.7,0.9,26,-6,500,14.816,,,340,1.6,14.3,,,,,,,,,wg-a,,,,AAXX 17184 07481 12/00 13408 10130 21060 39862 40147 53009 60006 80001 91800 333 10143 20016=
07481,1997-04-17 21:00:00,8,1017.2,2,39,-5,500,7.408,,,170,,,,,,,,,,,wg-a,,,,AAXX 17214 07481 12/00 11704 10080 21050 39881 40172 53020 60006 80001 92100=
07481,1997-04-18 00:00:00,5,1019,1.3,52,-4,25000,7.408,,,90,,,,,,,,,,,wg-a,,,,AAXX 18004 07481 12/75 00904 10050 21040 39895 40190 51013 60006 80000 90000=
07481,1997-04-18 03:00:00,5,1019,-0,70,0,20000,7.408,,,220,,,,,,,,,,,wg-a,,,,AAXX 18034 07481 12/70 02204 10050 20000 39895 40190 55000 60006 80000 90300=
07481,1997-04-18 06:00:00,4,1019.8,0.8,60,-3,500,3.704,,,200,1.7,12.7,,,,,,,,,wg-a,,,,AAXX 18064 07481 02/00 02002 10040 21030 39902 40198 53008 60006 80000 90600 333 10127 20017 60004=
07481,1997-04-18 12:00:00,15,1016.3,-2.1,33,-1,500,3.704,,,190,,,,,,,,,,,wg-a,,,,AAXX 18124 07481 12/00 01902 10150 21010 39880 40163 58021 60006 80000 91200=
07481,1997-04-18 15:00:00,17,1013.7,-2.4,23,-4,500,7.408,,,40,,,,,,,,,,,wg-a,,,,AAXX 18154 07481 12/00 00404 10170 21040 39856 40137 57024 60006 80000 91500=
07481,1997-04-18 18:00:00,16,1013,-0.8,25,-4,500,7.408,,,340,3.6,17.5,,,,,,,,,wg-a,,,,AAXX 18184 07481 12/00 03404 10160 21040 39848 40130 56008 60006 80000 91800 333 10175 20036=
07481,1997-04-18 21:00:00,10,1014.1,0.5,43,-2,25000,7.408,,,60,,,,,,,,,,,wg-a,,,,AAXX 18214 07481 12/75 00604 10100 21020 39853 40141 50005 60006 80000 92100=
07481,1997-04-19 00:00:00,8,1013.7,-0.6,46,-3,25000,7.408,,,220,,,,,,,,,,,wg-a,,,,AAXX 19004 07481 12/75 02204 10080 21030 39847 40137 58006 60006 80000 90000=
07481,1997-04-19 03:00:00,5,1012.9,-1.1,65,-1,10000,7.408,,,110,,,,,,,,,,,wg-a,,,,AAXX 19034 07481 12/60 /1104 10050 21010 39836 40129 56011 60006 90300=
07481,1997-04-19 06:00:00,6,1011.9,-0.8,61,-1,25000,11.112,,,160,4.1,15.6,,,,,,,,,wg-a,,,,AAXX 19064 07481 02/75 01606 10060 21010 39828 40119 56008 60006 80000 90600 333 10156 20041 60004=
07481,1997-04-19 12:00:00,17,1007.8,-2.4,29,-1,20000,7.408,,,330,,,,,,,,,,,wg-a,,,,AAXX 19124 07481 12/70 13304 10170 21010 39799 40078 58024 60006 80002 91200=
07481,1997-04-19 18:00:00,12,1006.4,0.3,54,3,25000,31.484,,50.004,200,5.6,19,,,,,,,,60,wg-a,,,,AAXX 19184 07481 02775 72017 10120 20030 39781 40064 53003 61000 76061 8357/ 91800 333 10190 20056 6100 91027=
07481,1997-04-19 21:00:00,9,1007.7,1,71,4,20000,11.112,,,180,,,,,,,,,,2,wg-a,,,,AAXX 19214 07481 02670 71806 10090 20040 39791 40077 53010 61000 70262 8257/ 92100 333 ////=
07481,1997-04-20 00:00:00,8,1007.4,-0.4,81,5,18000,11.112,,,230,,,,,,,,,,1,wg-a,,,,AAXX 20004 07481 02/68 /2306 10080 20050 39787 40074 58004 61000 70161 84030 90000 333 ////=
07481,1997-04-20 03:00:00,6,1006.6,-1,87,4,20000,7.408,,,290,,,,,,,,,,,wg-a,,,,AAXX 20034 07481 12/70 52904 10060 20040 39777 40066 58010 60006 85030 90300=
07481,1997-04-20 06:00:00,6,1008,1.3,81,3,15000,22.224,,,350,5.3,12.3,,,,,,,,,wg-a,,,,AAXX 20064 07481 02565 73512 10060 20030 39790 40080 53013 60006 82532 90600 333 10123 20053 61000=
07481,1997-04-20 09:00:00,8,1008.9,1,66,2,12000,25.928,,,340,,,,,,,,,,,wg-a,,,,AAXX 20094 07481 12562 73414 10080 20020 39800 40089 53010 60006 872// 90900=
07481,1997-04-20 12:00:00,11,1008.3,-0.3,43,-1,20000,29.632,,,350,,,,,,,,,,,wg-a,,,,AAXX 20124 07481 12570 /3516 10110 21010 39798 40083 58003 60006 851// 91200=
07481,1997-04-20 15:00:00,12,1007.4,-0.8,44,0,40000,35.188,,,360,,,,,,,,,,,wg-a,,,,AAXX 20154 07481 12682 33619 10120 20000 39790 40074 58008 60006 83800 91500=
07481,1997-04-20 18:00:00,10,1007.8,0.2,40,-3,40000,25.928,,,10,6,12.6,,,,,,,,,wg-a,,,,AAXX 20184 07481 12782 /0114 10100 21030 39792 40078 53002 60006 81400 91800 333 10126 20060=
07481,1997-04-20 21:00:00,6,1009.4,1.1,49,-4,500,22.224,,,10,,,,,,,,,,,wg-a,,,,AAXX 20214 07481 12/00 00112 10060 21040 39803 40094 51011 60006 80000 92100=
07481,1997-04-21 00:00:00,4,1009.1,-0.6,56,-4,500,22.224,,,350,,,,,,,,,,,wg-a,,,,AAXX 21004 07481 12/00 03512 10040 21040 39798 40091 58006 60006 80000 90000=
07481,1997-04-21 03:00:00,2,1008.4,-0.9,69,-3,500,14.816,,,350,,,,,,,,,,,wg-a,,,,AAXX 21034 07481 12/00 03508 10020 21030 39789 40084 56009 60006 80000 90300=
07481,1997-04-21 06:00:00,2,1008.1,-0.3,69,-3,25000,18.52,,,340,0.7,10.1,,,,,,,,,wg-a,,,,AAXX 21064 07481 02/75 03410 10020 21030 39786 40081 57003 60006 80000 90600 333 10101 20007 60004=
07481,1997-04-21 09:00:00,7,1006.7,-0.8,45,-4,500,22.224,,,350,,,,,,,,,,,wg-a,,,,AAXX 21094 07481 12/00 03512 10070 21040 39778 40067 58008 60006 80000 90900=
07481,1997-04-21 12:00:00,12,1003.9,-2.2,30,-5,500,38.892,,,340,,,,,,,,,,,wg-a,,,,AAXX 21124 07481 12600 /3421 10120 21050 39756 40039 58022 60006 81100 91200=
07481,1997-04-21 15:00:00,13,1002.7,-1,28,-5,35000,50.004,,,350,,,,,,,,,,,wg-a,,,,AAXX 21154 07481 12681 /3527 10130 21050 39745 40027 57010 60006 81100 91500=
07481,1997-04-21 18:00:00,11,1004,1,30,-6,35000,35.188,,55.56,350,1.9,13.7,,,,,,,,,wg-a,,,,AAXX 21184 07481 12/81 03519 10110 21060 39756 40040 53010 60006 80000 91800 333 10137 20019 91030=
07481,1997-04-21 21:00:00,8,1006.3,1.9,36,-6,35000,18.52,,,10,,,,,,,,,,,wg-a,,,,AAXX 21214 07481 12/81 00110 10080 21060 39775 40063 51019 60006 80000 92100=
07481,1997-04-22 00:00:00,5,1007.1,0.5,48,-5,35000,18.52,,,340,,,,,,,,,,,wg-a,,,,AAXX 22004 07481 12/81 03410 10050 21050 39780 40071 51005 60006 80000 90000=
07481,1997-04-22 03:00:00,2,1007.8,0.4,60,-5,10000,14.816,,,340,,,,,,,,,,,wg-a,,,,AAXX 22034 07481 12/60 /3408 10020 21050 39784 40078 53004 60006 90300=
07481,1997-04-22 06:00:00,2,1009.5,1.6,60,-5,500,18.52,,,350,1.4,11.2,,,,,,,,,wg-a,,,,AAXX 22064 07481 02/00 03510 10020 21050 39800 40095 53016 60006 80000 90600 333 10112 20014 60004=
07481,1997-04-22 09:00:00,7,1009.7,0.6,36,-7,500,29.632,,,10,,,,,,,,,,,wg-a,,,,AAXX 22094 07481 12/00 00116 10070 21070 39807 40097 51006 60006 80000 90900=
07481,1997-04-22 12:00:00,12,1008.9,-0.3,26,-7,40000,35.188,,,350,,,,,,,,,,,wg-a,,,,AAXX 22124 07481 12/82 03519 10120 21070 39804 40089 58003 60006 80000 91200=
07481,1997-04-22 15:00:00,13,1008.9,0.3,26,-6,40000,42.596,,61.116,360,,,,,,,,,,,wg-a,,,,AAXX 22154 07481 12782 /3623 10130 21060 39806 40089 52003 60006 81100 91500 333 91033=
07481,1997-04-22 18:00:00,12,1010.3,1.1,30,-5,40000,25.928,,,350,2.2,13.7,,,,,,,,,wg-a,,,,AAXX 22184 07481 12/82 03514 10120 21050 39818 40103 53011 60006 80000 91800 333 10137 20022=
07481,1997-04-22 21:00:00,8,1013.1,2.4,42,-4,40000,14.816,,,10,,,,,,,,,,,wg-a,,,,AAXX 22214 07481 12/82 00108 10080 21040 39842 40131 51024 60006 80000 92100=
07481,1997-04-23 00:00:00,5,1014.7,1.2,56,-3,500,14.816,,,350,,,,,,,,,,,wg-a,,,,AAXX 23004 07481 12/00 03508 10050 21030 39854 40147 53012 60006 80000 90000=
07481,1997-04-23 03:00:00,2,1015.6,0.6,69,-3,25000,3.704,,,30,,,,,,,,,,,wg-a,,,,AAXX 23034 07481 12/75 00302 10020 21030 39860 40156 53006 60006 80000 90300=
07481,1997-04-23 06:00:00,3,1017.2,1.6,70,-2,10000,0,,,0,0.9,12.2,,,,,,,,,wg-a,,,,AAXX 23064 07481 02/60 10000 10030 21020 39876 40172 53016 60006 80001 90600 333 10122 20009 60004=
07481,1997-04-23 09:00:00,9,1017.8,1.2,46,-2,12000,3.704,,,340,,,,,,,,,,,wg-a,,,,AAXX 23094 07481 12/62 03402 10090 21020 39888 40178 51012 60006 80000 90900=
07481,1997-04-23 12:00:00,14,1016.9,-0.3,26,-5,500,11.112,,,360,,,,,,,,,,,wg-a,,,,AAXX 23124 07481 12/00 03606 10140 21050 39884 40169 58003 60006 80000 91200=
07481,1997-04-23 15:00:00,16,1015.9,-0.7,27,-3,500,11.112,,,320,,,,,,,,,,,wg-a,,,,AAXX 23154 07481 12/00 03206 10160 21030 39877 40159 56007 60006 80000 91500=
07481,1997-04-23 18:00:00,15,1016.8,0.7,27,-4,25000,7.408,,,350,2.9,16.8,,,,,,,,,wg-a,,,,AAXX 23184 07481 12/75 13504 10150 21040 39884 40168 53007 60006 80001 91800 333 10168 20029=
07481,1997-04-23 21:00:00,8,1019.6,2.1,49,-2,25000,0,,,0,,,,,,,,,,,wg-a,,,,AAXX 23214 07481 12/75 00000 10080 21020 39905 40196 51021 60006 80000 92100=
07481,1997-04-24 00:00:00,6,1020.7,0.8,52,-3,25000,3.704,,,240,,,,,,,,,,,wg-a,,,,AAXX 24004 07481 12/75 02402 10060 21030 39913 40207 52008 60006 80000 90000=
07481,1997-04-24 03:00:00,5,1021.4,0.6,60,-2,20000,11.112,,,160,,,,,,,,,,,wg-a,,,,AAXX 24034 07481 12/70 21606 10050 21020 39919 40214 53006 60006 80001 90300=
07481,1997-04-24 06:00:00,5,1022.6,1.1,60,-2,10000,3.704,,,160,3.2,14.7,,,,,,,,,wg-a,,,,AAXX 24064 07481 02/60 41602 10050 21020 39930 40226 53011 60006 80001 90600 333 10147 20032 60004=
07481,1997-04-24 12:00:00,19,1020.2,-1.2,24,-2,25000,18.52,,33.336,190,,,,,,,,,,,wg-a,,,,AAXX 24124 07481 12/75 01910 10190 21020 39921 40202 58012 60006 80000 91200 333 91018=
07481,1997-04-24 18:00:00,18,1018.3,-0.4,24,-3,35000,18.52,,,190,4.6,20.8,,,,,,,,,wg-a,,,,AAXX 24184 07481 12/81 11910 10180 21030 39902 40183 56004 60006 80001 91800 333 10208 20046=
07481,1997-04-24 21:00:00,15,1019.7,1.1,51,5,35000,31.484,,,200,,,,,,,,,,,wg-a,,,,AAXX 24214 07481 12/81 12017 10150 20050 39913 40197 51011 60006 80001 92100=
07481,1997-04-25 00:00:00,12,1020.9,0.9,58,4,40000,22.224,,,170,,,,,,,,,,,wg-a,,,,AAXX 25004 07481 12/82 11712 10120 20040 39922 40209 53009 60006 80001 90000=
07481,1997-04-25 03:00:00,10,1021.1,-0.1,71,5,40000,11.112,,,180,,,,,,,,,,,wg-a,,,,AAXX 25034 07481 12/82 11806 10100 20050 39922 40211 58001 60006 80001 90300=
07481,1997-04-25 06:00:00,10,1022.1,1,76,6,20000,14.816,,,150,8.4,18,,,,,,,,,wg-a,,,,AAXX 25064 07481 02/70 31508 10100 20060 39931 40221 53010 60006 80001 90600 333 10180 20084 60004=
07481,1997-04-25 09:00:00,16,1021.1,-0.4,45,4,500,25.928,,,170,,,,,,,,,,,wg-a,,,,AAXX 25094 07481 12/00 31714 10160 20040 39927 40211 58004 60006 80001 90900=
07481,1997-04-25 12:00:00,21,1018.8,-1.8,26,1,40000,18.52,,,200,,,,,,,,,,,wg-a,,,,AAXX 25124 07481 12/82 62010 10210 20010 39909 40188 58018 60006 80002 91200=
07481,1997-04-25 15:00:00,21,1016.4,-2.4,25,0,40000,22.224,,,190,,,,,,,,,,,wg-a,,,,AAXX 25154 07481 12/82 71912 10210 20000 39886 40164 58024 60006 80002 91500=
07481,1997-04-25 18:00:00,19,1015.8,-0.6,46,7,25000,25.928,,,190,10.3,21.8,,,,,,,,,wg-a,,,,AAXX 25184 07481 12775 71914 10190 20070 39879 40158 58006 60006 81582 91800 333 10218 20103=
07481,1997-04-25 21:00:00,17,1016.9,0.8,55,8,15000,31.484,,,190,,,,,,,,,,,wg-a,,,,AAXX 25214 07481 12665 71917 10170 20080 39887 40169 51008 60006 8453/ 92100=
07481,1997-04-26 00:00:00,14,1018.6,1.4,82,11,12000,11.112,,,210,,,,1,,,,,,60,wg-a,,,,AAXX 26004 07481 02662 72106 10140 20110 39901 40186 50014 60016 76062 8453/ 90000 333 60017=
07481,1997-04-26 06:00:00,13,1018.1,0.6,88,11,7000,3.704,,,140,12.3,19,,,,,2,,,1,wg-a,,,,AAXX 26064 07481 02657 71402 10130 20110 39896 40181 53006 60006 70162 8453/ 90600 333 10190 20123 60024=
07481,1997-04-26 09:00:00,15,1017.6,-0.3,82,12,10000,11.112,,,150,,,,,,,,,,,wg-a,,,,AAXX 26094 07481 12660 71506 10150 20120 39893 40176 58003 60006 8453/ 90900=
07481,1997-04-26 12:00:00,20,1014.3,-2.7,53,10,12000,14.816,,,150,,,,,,,,,,,wg-a,,,,AAXX 26124 07481 12562 71508 10200 20100 39866 40143 58027 60006 81102 91200=
07481,1997-04-26 15:00:00,18,1011.6,-2.8,68,12,10000,11.112,,,140,,,,0,,,,,,21,wg-a,,,,AAXX 26154 07481 12660 71406 10180 20120 39838 40116 58028 60007 72162 83802 91500=
07481,1997-04-26 18:00:00,14,1012.2,0.3,94,13,10000,7.408,,,180,12.7,20.6,,,,,,,,63,wg-a,,,,AAXX 26184 07481 02460 71804 10140 20130 39840 40122 53003 61000 76398 84802 91800 333 10206 20127 6010=
07481,1997-04-26 21:00:00,15,1012.1,-0.1,88,13,15000,18.52,,,200,,,,,,,,,,,wg-a,,,,AAXX 26214 07481 12565 72010 10150 20130 39840 40121 58001 60006 8487/ 92100=
07481,1997-04-27 00:00:00,12,1013,0.5,82,9,12000,29.632,,,250,,,,2,,,,,,60,wg-a,,,,AAXX 27004 07481 02262 82516 10120 20090 39845 40130 53005 60026 76062 8487/ 90000 333 60027=
07481,1997-04-27 03:00:00,11,1011.4,-1.7,87,9,20000,14.816,,,160,,,,2,,,,,,1,wg-a,,,,AAXX 27034 07481 12770 81608 10110 20090 39828 40114 56017 60027 70162 8357/ 90300=
07481,1997-04-27 06:00:00,11,1011.3,-0.1,87,9,25000,14.816,,,160,10.2,15.4,,,,,,,,21,wg-a,,,,AAXX 27064 07481 02675 81608 10110 20090 39827 40113 55001 61000 72162 8557/ 90600 333 10154 20102 6016=
07481,1997-04-27 09:00:00,13,1012.7,1.6,77,9,40000,7.408,,,260,,,,1,,,,,,3,wg-a,,,,AAXX 27094 07481 12482 72604 10130 20090 39843 40127 51016 60017 70362 8587/ 90900=
07481,1997-04-27 12:00:00,16,1012.2,-0.1,55,7,11000,18.52,,,300,,,,,,,,,,,wg-a,,,,AAXX 27124 07481 12/61 /3010 10160 20070 39841 40122 58001 60016 91200=
07481,1997-04-27 18:00:00,14,1014.3,1.5,72,9,40000,11.112,,,320,10.6,16.5,,,,,,,,15,wg-a,,,,AAXX 27184 07481 02582 73206 10140 20090 39860 40143 53015 60006 71586 84382 91800 333 10165 20106 61000=
07481,1997-04-27 21:00:00,12,1017.6,3,94,11,40000,11.112,,,130,,,,2,,,,,,25,wg-a,,,,AAXX 27214 07481 12682 71306 10120 20110 39890 40176 51030 60027 72586 8438/ 92100=
07481,1997-04-28 00:00:00,10,1019.2,1.3,93,9,40000,14.816,,,120,,,,4,,,,,,3,wg-a,,,,AAXX 28004 07481 02582 /1208 10100 20090 39903 40192 51013 60066 70386 8228/ 90000 333 60047=
07481,1997-04-28 03:00:00,10,1019.4,0.2,93,9,40000,3.704,,,180,,,,,,,,,,,wg-a,,,,AAXX 28034 07481 12682 /1802 10100 20090 39905 40194 53002 60006 8128/ 90300=
07481,1997-04-28 06:00:00,11,1019.9,0.6,94,10,12000,11.112,,,160,9.3,14,,,,,7,,,,wg-a,,,,AAXX 28064 07481 02262 71606 10110 20100 39911 40199 50006 60006 81572 90600 333 10140 20093 60074=
07481,1997-04-28 12:00:00,16,1017.9,-1.2,77,12,500,14.816,,,130,,,,,,,,,,1,wg-a,,,,AAXX 28124 07481 12400 71308 10160 20120 39897 40179 58012 60016 70162 8183/ 91200=
07481,1997-04-28 15:00:00,17,1017,-0.8,72,12,500,11.112,,,140,,,,0,,,,,,21,wg-a,,,,AAXX 28154 07481 12400 81406 10170 20120 39889 40170 57008 60007 72162 8387/ 91500=
07481,1997-04-28 18:00:00,17,1015.7,-1.3,72,12,40000,11.112,,,160,10.5,17.5,,,,,,,,3,wg-a,,,,AAXX 28184 07481 12482 81606 10170 20120 39876 40157 57013 60006 70362 8357/ 91800 333 10175 20105=
07481,1997-04-28 21:00:00,14,1015.9,-0.1,88,12,500,14.816,,,280,,,,,,,,,,,wg-a,,,,AAXX 28214 07481 12400 82808 10140 20120 39876 40159 55001 60006 8557/ 92100=
07481,1997-04-29 03:00:00,12,1016.2,-0.6,71,7,500,11.112,,,310,,,,,,,,,,,wg-a,,,,AAXX 29034 07481 12600 /3106 10120 20070 39876 40162 56006 60006 83530 90300=
07481,1997-04-29 06:00:00,12,1017,0.9,67,6,500,11.112,,,280,11.3,16.7,,,,,1,,,,wg-a,,,,AAXX 29064 07481 02600 /2806 10120 20060 39884 40170 53009 60006 83830 90600 333 10167 20113 60014=
07481,1997-04-29 12:00:00,14,1018,-0.1,67,8,500,22.224,,,330,,,,0,,,,,,3,wg-a,,,,AAXX 29124 07481 02500 73312 10140 20080 39896 40180 56001 60016 70362 878// 91200 333 60007=
07481,1997-04-29 18:00:00,13,1017.9,-0,72,8,40000,22.224,,,300,11.4,15.2,,,,,,,,,wg-a,,,,AAXX 29184 07481 12682 73012 10130 20080 39894 40179 55000 60006 8587/ 91800 333 10152 20114=
07481,1997-04-29 21:00:00,12,1019.2,1.1,82,9,25000,7.408,,,50,,,,0,,,,,,60,wg-a,,,,AAXX 29214 07481 12575 80504 10120 20090 39905 40192 51011 60007 76086 8557/ 92100=
07481,1997-04-30 00:00:00,10,1019.8,0.4,87,8,20000,7.408,,,310,,,,3,,,,,,1,wg-a,,,,AAXX 30004 07481 02570 83104 10100 20080 39909 40198 50004 60036 70186 8487/ 90000 333 60037=
07481,1997-04-30 03:00:00,10,1019.8,-0,87,8,20000,11.112,,,340,,,,,,,,,,,wg-a,,,,AAXX 30034 07481 12470 83406 10100 20080 39909 40198 55000 60006 8687/ 90300=
07481,1997-04-30 06:00:00,9,1021.5,1.5,93,8,15000,18.52,,,350,8.7,13,,,,,,,,25,wg-a,,,,AAXX 30064 07481 02465 73510 10090 20080 39924 40215 53015 61000 72586 878// 90600 333 10130 20087 6005=
07481,1997-04-30 09:00:00,12,1022.1,1,76,8,20000,29.632,,,350,,,,,,,,,,,wg-a,,,,AAXX 30094 07481 12470 /3516 10120 20080 39934 40221 52010 60006 85200 90900=
07481,1997-04-30 12:00:00,16,1021.7,-0,55,7,25000,25.928,,,360,,,,,,,,,,,wg-a,,,,AAXX 30124 07481 12675 43614 10160 20070 39933 40217 54000 60006 84200 91200=
07481,1997-04-30 15:00:00,16,1021.9,0.2,55,7,27000,35.188,,,350,,,,,,,,,,,wg-a,,,,AAXX 30154 07481 12677 33519 10160 20070 39935 40219 53002 60006 83800 91500=
07481,1997-04-30 18:00:00,14,1022.7,0.5,63,7,25000,25.928,,,350,9,16.9,,,,,,,,,wg-a,,,,AAXX 30184 07481 12775 /3514 10140 20070 39941 40227 52005 60006 81500 91800 333 10169 20090=
07481,1997-04-30 21:00:00,12,1024.1,1.2,76,8,25000,18.52,,,360,,,,,,,,,,,wg-a,,,,AAXX 30214 07481 12/75 03610 10120 20080 39953 40241 51012 60006 80000 92100=
07481,1997-05-01 00:00:00,10,1024,-0.3,87,8,25000,22.224,,,350,,,,,,,,,,,wg-a,,,,AAXX 01004 07481 12/75 03512 10100 20080 39950 40240 58003 60006 80000 90000=
07481,1997-05-01 03:00:00,7,1024.7,0.4,93,6,10000,11.112,,,330,,,,,,,,,,,wg-a,,,,AAXX 01034 07481 12/60 /3306 10070 20060 39954 40247 53004 60006 90300=
07481,1997-05-01 06:00:00,8,1026.3,1.6,87,6,15000,7.408,,,340,6.4,13.9,,,,,,,,,wg-a,,,,AAXX 01064 07481 02/65 03404 10080 20060 39970 40263 52016 60006 80000 90600 333 10139 20064 60004=
07481,1997-05-01 09:00:00,12,1026,-0,71,7,15000,3.704,,,290,,,,,,,,,,,wg-a,,,,AAXX 01094 07481 12465 /2902 10120 20070 39971 40260 54000 60006 81100 90900=
07481,1997-05-01 12:00:00,16,1024.3,-1.2,55,7,25000,11.112,,,320,,,,,,,,,,,wg-a,,,,AAXX 01124 07481 12575 23206 10160 20070 39959 40243 58012 60006 82100 91200=
07481,1997-05-01 15:00:00,20,1022,-1.8,43,7,35000,22.224,,,340,,,,,,,,,,,wg-a,,,,AAXX 01154 07481 12681 23412 10200 20070 39940 40220 57018 60006 82100 91500=
07481,1997-05-01 18:00:00,18,1022.1,-0.1,52,8,35000,18.52,,,360,7.9,20,,,,,,,,,wg-a,,,,AAXX 01184 07481 12681 /3610 10180 20080 39939 40221 55001 60006 81201 91800 333 10200 20079=
07481,1997-05-01 21:00:00,13,1024.1,1.5,67,7,20000,0,,,0,,,,,,,,,,,wg-a,,,,AAXX 01214 07481 12/70 10000 10130 20070 39954 40241 51015 60006 80001 92100=
07481,1997-05-02 00:00:00,12,1025.5,1.2,71,7,20000,7.408,,,200,,,,,,,,,,,wg-a,,,,AAXX 02004 07481 12/70 02004 10120 20070 39966 40255 51012 60006 80000 90000=
07481,1997-05-02 03:00:00,11,1026.1,0.5,71,6,18000,3.704,,,190,,,,,,,,,,,wg-a,,,,AAXX 02034 07481 12/68 01902 10110 20060 39971 40261 51005 60006 80000 90300=
07481,1997-05-02 06:00:00,11,1027,1,76,7,13000,7.408,,,190,8.2,18,,,,,,,,,wg-a,,,,AAXX 02064 07481 02/63 01904 10110 20070 39980 40270 53010 60006 80000 90600 333 10180 20082 60004=
07481,1997-05-02 09:00:00,18,1026.4,0,56,9,15000,14.816,,,130,,,,,,,,,,,wg-a,,,,AAXX 02094 07481 12/65 01308 10180 20090 39981 40264 50000 60006 80000 90900=
07481,1997-05-02 12:00:00,23,1024,-1.9,27,3,35000,18.52,,,190,,,,,,,,,,,wg-a,,,,AAXX 02124 07481 12781 /1910 10230 20030 39962 40240 58019 60006 81100 91200=
07481,1997-05-02 15:00:00,24,1021.9,-0,22,1,40000,18.52,,,150,,,,,,,,,,,wg-a,,,,AAXX 02154 07481 12882 11510 10240 20010 39943 40219 54000 60006 81101 91500=
07481,1997-05-02 18:00:00,23,1021.6,-0.4,31,5,40000,14.816,,,150,10.9,24.6,,,,,,,,,wg-a,,,,AAXX 02184 07481 12/82 21508 10230 20050 39938 40216 56004 60006 80001 91800 333 10246 20109=
07481,1997-05-02 21:00:00,19,1022.7,0.7,34,3,50000,14.816,,,190,,,,,,,,,,,wg-a,,,,AAXX 02214 07481 12/84 01908 10190 20030 39945 40227 53007 60006 80000 92100=
07481,1997-05-03 00:00:00,16,1022.9,-0,42,3,40000,18.52,,,170,,,,,,,,,,,wg-a,,,,AAXX 03004 07481 12/82 01710 10160 20030 39945 40229 55000 60006 80000 90000=
07481,1997-05-03 06:00:00,14,1022.4,-0.3,55,5,50000,18.52,,,140,11.6,22.4,,,,,,,,,wg-a,,,,AAXX 03064 07481 02/84 11410 10140 20050 39938 40224 56003 60006 80001 90600 333 10224 20116 60004=
07481,1997-05-03 09:00:00,20,1020.6,-1.2,32,3,60000,25.928,,,180,,,,,,,,,,,wg-a,,,,AAXX 03094 07481 12/86 11814 10200 20030 39926 40206 57012 60006 80001 90900=
07481,1997-05-03 12:00:00,24,1018.1,-2,24,2,50000,25.928,,,200,,,,,,,,,,,wg-a,,,,AAXX 03124 07481 12/84 12014 10240 20020 39906 40181 57020 60006 80001 91200=
07481,1997-05-03 18:00:00,24,1014.9,-0.9,29,5,500,14.816,,,180,13.6,25.7,,,,,,,,,wg-a,,,,AAXX 03184 07481 12/00 61808 10240 20050 39874 40149 56009 60006 81083 91800 333 10257 20136=
07481,1997-05-03 21:00:00,20,1016.8,1.6,43,7,500,14.816,,,200,,,,,,,,,,,wg-a,,,,AAXX 03214 07481 12/00 72008 10200 20070 39890 40168 51016 60006 85083 92100=
07481,1997-05-04 00:00:00,17,1016.7,-0.3,72,12,500,11.112,,,180,,,,0,,,,,,60,wg-a,,,,AAXX 04004 07481 02/00 71806 10170 20120 39887 40167 58003 60006 76062 85083 90000 333 60007=
07481,1997-05-04 06:00:00,15,1015.3,,82,12,12000,7.408,,,200,14.1,23.5,,,,,,,,3,wg-a,,,,AAXX 04064 07481 12762 62004 10150 20120 39871 40153 60006 70361 81531 90600 333 10235 20141=
07481,1997-05-04 09:00:00,21,1013.8,-1,60,13,20000,3.704,,,80,,,,,,,,,,,wg-a,,,,AAXX 04094 07481 12/70 50802 10210 20130 39861 40138 58010 60006 80001 90900=
07481,1997-05-04 12:00:00,24,1010.9,-2.4,50,13,500,7.408,,,230,,,,,,,,,,,wg-a,,,,AAXX 04124 07481 02600 42304 10240 20130 39837 40109 58024 61000 81101 91200 333 ////=
07481,1997-05-04 15:00:00,26,1008.3,-2.5,37,10,35000,22.224,,,180,,,,,,,,,,,wg-a,,,,AAXX 04154 07481 12681 /1812 10260 20100 39812 40083 58025 60006 82201 91500=
07481,1997-05-04 18:00:00,24,1006.3,-2.1,50,13,25000,29.632,,,180,15.3,26.4,,,,,,,,,wg-a,,,,AAXX 04184 07481 12575 21816 10240 20130 39791 40063 56021 60006 81131 91800 333 10264 20153=
07481,1997-05-05 00:00:00,17,1005,-2.1,72,12,20000,42.596,,57.412,190,,,,,,,,,,,wg-a,,,,AAXX 05004 07481 12770 /1923 10170 20120 39772 40050 58021 60006 82540 90000 333 91031=
07481,1997-05-05 03:00:00,16,1001.7,-3.3,48,5,20000,50.004,,62.968,190,,,,,,,,,,,wg-a,,,,AAXX 05034 07481 12770 81927 10160 20050 39739 40017 56033 60006 8257/ 90300 333 91034=
07481,1997-05-05 06:00:00,12,1003.9,1.8,82,9,12000,35.188,,68.524,220,12.1,23.7,,,,,,,,61,wg-a,,,,AAXX 05064 07481 02562 82219 10120 20090 39757 40039 53018 61000 76161 8587/ 90600 333 10237 20121 6000 91037=
07481,1997-05-05 09:00:00,13,1005.8,2,77,9,20000,14.816,,,190,,,,3,,,,,,3,wg-a,,,,AAXX 05094 07481 12570 81908 10130 20090 39776 40058 51020 60037 70362 8587/ 90900=
07481,1997-05-05 12:00:00,15,1004,-1.5,77,11,27000,25.928,,,160,,,,0,,,,,,21,wg-a,,,,AAXX 05124 07481 02577 71614 10150 20110 39761 40040 58015 60036 72162 8487/ 91200 333 60007=
07481,1997-05-05 15:00:00,20,1000.5,-3.1,53,10,500,35.188,,51.856,180,,,,,,,,,,,wg-a,,,,AAXX 05154 07481 12600 51819 10200 20100 39731 40005 58031 60006 83802 91500 333 91028=
07481,1997-05-05 18:00:00,18,998.3,-2.3,64,11,20000,31.484,,,190,11.5,20.1,,,,,,,,,wg-a,,,,AAXX 05184 07481 12670 71917 10180 20110 39708 49983 57023 60006 8485/ 91800 333 10201 20115=
07481,1997-05-05 21:00:00,15,999.8,1.1,82,12,500,25.928,,,180,,,,5,,,,,,1,wg-a,,,,AAXX 05214 07481 12/00 /1814 10150 20120 39719 49998 50011 60057 70186 84030 92100=
07481,1997-05-06 00:00:00,14,997.6,-2.2,82,11,500,25.928,,,160,,,,,,,,,,2,wg-a,,,,AAXX 06004 07481 12600 /1614 10140 20110 39697 49976 58022 60056 70286 81230 90000=
07481,1997-05-06 06:00:00,11,995.7,2.3,87,9,9000,18.52,,,210,10.7,18.2,,,,,,,,80,wg-a,,,,AAXX 06064 07481 02459 82110 10110 20090 39676 49957 51023 61000 78098 8432/ 90600 333 10182 20107 6021=
07481,1997-05-06 09:00:00,10,997.3,1.3,82,7,20000,25.928,,,150,,,,1,,,,,,60,wg-a,,,,AAXX 06094 07481 12470 81514 10100 20070 39690 49973 50013 60017 76066 8582/ 90900=
07481,1997-05-06 12:00:00,13,996.1,-0.5,62,6,25000,29.632,,,180,,,,,,,,,,80,wg-a,,,,AAXX 06124 07481 02475 71816 10130 20060 39682 49961 57005 60016 78086 8487/ 91200 333 61000=
07481,1997-05-06 15:00:00,14,995.4,-0.7,67,8,25000,22.224,,,200,,,,1,,,,,,80,wg-a,,,,AAXX 06154 07481 12475 72012 10140 20080 39675 49954 55007 60017 78086 879// 91500=
07481,1997-05-06 18:00:00,9,1001.2,5.1,71,4,25000,29.632,,48.152,290,8.2,14.3,,,,,,,,25,wg-a,,,,AAXX 06184 07481 02475 72916 10090 20040 39727 40012 53051 61000 72598 8398/ 91800 333 10143 20082 6003 91026=
07481,1997-05-07 00:00:00,5,1007.3,0.8,87,3,500,3.704,,,300,,,,1,,,,,,21,wg-a,,,,AAXX 07004 07481 02400 73002 10050 20030 39783 40073 51008 60026 72162 82282 90000 333 60017=
07481,1997-05-07 03:00:00,5,1006.2,-1.2,87,3,25000,7.408,,,160,,,,1,,,,,,3,wg-a,,,,AAXX 07034 07481 12475 71604 10050 20030 39771 40062 58012 60017 70362 82872 90300=
07481,1997-05-07 06:00:00,5,1004.9,-1.2,93,4,500,14.816,,,130,3.5,9.1,,,,,7,,,1,wg-a,,,,AAXX 07064 07481 02800 41308 10050 20040 39759 40049 56012 60006 70161 81031 90600 333 10091 20035 60074=
07481,1997-05-07 09:00:00,10,1003,-1.4,50,0,40000,14.816,,,130,,,,,,,,,,,wg-a,,,,AAXX 07094 07481 12582 51308 10100 20000 39745 40030 56014 60006 82202 90900=
07481,1997-05-07 12:00:00,12,1001.2,-1.6,40,-1,40000,18.52,,,200,,,,,,,,,,,wg-a,,,,AAXX 07124 07481 12682 72010 10120 21010 39730 40012 56016 60006 83242 91200=
07481,1997-05-07 15:00:00,13,999.9,-1.1,51,3,500,14.816,,,210,,,,,,,,,,,wg-a,,,,AAXX 07154 07481 12500 72108 10130 20030 39718 49999 58011 60006 8428/ 91500=
07481,1997-05-07 18:00:00,11,1000.9,0.9,66,5,20000,11.112,,,260,5.3,13.2,,,,,,,,15,wg-a,,,,AAXX 07184 07481 12470 72606 10110 20050 39726 40009 53009 60006 71522 8498/ 91800 333 10132 20053=
07481,1997-05-07 21:00:00,6,1004.8,3.2,87,4,10000,14.816,,,350,,,,2,,,,,,61,wg-a,,,,AAXX 07214 07481 12260 83508 10060 20040 39759 40048 51032 60027 76186 878// 92100=
07481,1997-05-08 00:00:00,5,1007.6,2.6,81,2,25000,18.52,,,330,,,,0,,,,,,1,wg-a,,,,AAXX 08004 07481 02475 73310 10050 20020 39785 40076 52026 60026 70186 8287/ 90000 333 60007=
07481,1997-05-08 03:00:00,4,1009.6,1.9,81,1,500,11.112,,,350,,,,,,,,,,,wg-a,,,,AAXX 08034 07481 12600 73506 10040 20010 39804 40096 51019 60006 875// 90300=
07481,1997-05-08 06:00:00,5,1010.9,1.3,81,2,500,11.112,,,340,4,10.9,,,,,2,,,,wg-a,,,,AAXX 08064 07481 02500 73406 10050 20020 39817 40109 53013 60006 878// 90600 333 10109 20040 60024=
07481,1997-05-08 09:00:00,8,1011.4,0.8,61,1,35000,7.408,,,320,,,,,,,,,,,wg-a,,,,AAXX 08094 07481 12581 /3204 10080 20010 39825 40114 51008 60006 84801 90900=
07481,1997-05-08 12:00:00,11,1010.7,-0.4,40,-2,50000,7.408,,,310,,,,,,,,,,,wg-a,,,,AAXX 08124 07481 12684 53104 10110 21020 39821 40107 58004 60006 83201 91200=
07481,1997-05-08 15:00:00,12,1009.7,-0.8,40,-1,50000,11.112,,,150,,,,,,,,,,,wg-a,,,,AAXX 08154 07481 12684 71506 10120 21010 39813 40097 56008 60006 85801 91500=
07481,1997-05-08 18:00:00,12,1009.8,-0,47,1,40000,14.816,,,150,4.9,12.9,,,,,,,,,wg-a,,,,AAXX 08184 07481 12682 61508 10120 20010 39813 40098 55000 60006 84802 91800 333 10129 20049=
07481,1997-05-09 00:00:00,11,1010,-0.6,50,1,40000,22.224,,,190,,,,,,,,,,,wg-a,,,,AAXX 09004 07481 12682 71912 10110 20010 39814 40100 56006 60006 8184/ 90000=
07481,1997-05-09 03:00:00,11,1008.9,-1.1,62,4,40000,31.484,,,190,,,,,,,,,,,wg-a,,,,AAXX 09034 07481 12882 51917 10110 20040 39803 40089 56011 60006 85070 90300=
07481,1997-05-09 06:00:00,11,1008.5,-0.3,71,6,40000,29.632,,46.3,190,9.9,11.8,,,,,,,,,wg-a,,,,AAXX 09064 07481 02882 61916 10110 20060 39800 40085 56003 60006 86070 90600 333 10118 20099 60004 91025=
07481,1997-05-09 09:00:00,13,1008.2,-0.1,67,7,25000,35.188,,57.412,200,,,,,,,,,,,wg-a,,,,AAXX 09094 07481 12675 72019 10130 20070 39799 40082 58001 60006 875// 90900 333 91031=
07481,1997-05-09 12:00:00,12,1010,1.7,88,10,12000,29.632,,,200,,,,8,,,,,,60,wg-a,,,,AAXX 09124 07481 02562 72016 10120 20100 39816 40100 50017 60086 76062 878// 91200 333 60087=
07481,1997-05-09 15:00:00,15,1009.9,0.2,72,10,500,31.484,,,190,,,,3,,,,,,1,wg-a,,,,AAXX 09154 07481 12500 21917 10150 20100 39818 40099 50002 60037 70161 82200 91500=
07481,1997-05-09 18:00:00,15,1011.5,1.5,67,9,40000,18.52,,,210,9.4,15.4,,0,,,,,,1,wg-a,,,,AAXX 09184 07481 02682 32110 10150 20090 39833 40115 51015 60006 70186 82860 91800 333 10154 20094 60007=
07481,1997-05-09 21:00:00,11,1014.7,2.9,82,8,25000,14.816,,,210,,,,,,,,,,,wg-a,,,,AAXX 09214 07481 12775 /2108 10110 20080 39861 40147 53029 60006 81530 92100=
07481,1997-05-10 00:00:00,11,1016,1.2,82,8,25000,14.816,,,200,,,,,,,,,,,wg-a,,,,AAXX 10004 07481 12775 62008 10110 20080 39874 40160 51012 60006 81530 90000=
07481,1997-05-10 03:00:00,10,1016.3,-0,71,5,25000,11.112,,,190,,,,,,,,,,,wg-a,,,,AAXX 10034 07481 12/75 11906 10100 20050 39874 40163 55000 60006 81031 90300=
07481,1997-05-10 06:00:00,11,1016.7,0.5,66,5,25000,14.816,,,170,7.8,14.5,,,,,11,,,,wg-a,,,,AAXX 10064 07481 02775 71708 10110 20050 39879 40167 53005 60006 81572 90600 333 10145 20078 60114=
07481,1997-05-10 09:00:00,13,1016.5,0.1,67,7,25000,22.224,,,180,,,,,,,,,,21,wg-a,,,,AAXX 10094 07481 02675 81812 10130 20070 39880 40165 51001 61000 72162 8287/ 90900 333 ////=
07481,1997-05-10 12:00:00,17,1015.6,-0.6,52,7,25000,25.928,,,200,,,,,,,,,,3,wg-a,,,,AAXX 10124 07481 02675 72014 10170 20070 39875 40156 58006 61000 70362 8127/ 91200 333 ////=
07481,1997-05-10 15:00:00,20,1013.3,-2.1,40,6,25000,31.484,,55.56,190,,,,,,,,,,,wg-a,,,,AAXX 10154 07481 12675 51917 10200 20060 39855 40133 58021 60006 81242 91500 333 91030=
07481,1997-05-10 18:00:00,19,1012.5,-0.7,43,6,25000,22.224,,,190,10.5,20.5,,,,,,,,,wg-a,,,,AAXX 10184 07481 12675 71912 10190 20060 39847 40125 58007 60006 81232 91800 333 10205 20105=
07481,1997-05-10 21:00:00,17,1013,0.4,39,3,25000,31.484,,50.004,180,,,,,,,,,,,wg-a,,,,AAXX 10214 07481 32/75 71817 10170 20030 39852 40130 53004 85072 92100 333 91027=
07481,1997-05-11 00:00:00,15,1013.8,0.2,44,3,25000,31.484,,53.708,200,,,,,,,,,,,wg-a,,,,AAXX 11004 07481 12/75 52017 10150 20030 39855 40138 51002 60006 82032 90000 333 91029=
07481,1997-05-11 03:00:00,12,1014.3,0.2,62,5,25000,7.408,,,30,,,,,,,,,,,wg-a,,,,AAXX 11034 07481 12/75 60304 10120 20050 39857 40143 50002 60006 84032 90300=
07481,1997-05-11 06:00:00,15,1013.6,-0.4,51,5,40000,7.408,,,160,11.4,19.2,,,,,,,,,wg-a,,,,AAXX 11064 07481 02782 71604 10150 20050 39853 40136 55004 60006 81582 90600 333 10192 20114 61000=
07481,1997-05-11 09:00:00,17,1013.3,-0,45,5,50000,11.112,,,180,,,,,,,,,,,wg-a,,,,AAXX 11094 07481 12684 71806 10170 20050 39853 40133 55000 60006 8128/ 90900=
07481,1997-05-11 12:00:00,20,1012.7,-0.3,37,5,50000,29.632,,,190,,,,,,,,,,,wg-a,,,,AAXX 11124 07481 12684 71916 10200 20050 39850 40127 57003 60006 8128/ 91200=
07481,1997-05-11 18:00:00,18,1015,1.9,49,7,500,29.632,,51.856,210,14.5,20.8,,,,,,,,,wg-a,,,,AAXX 11184 07481 12600 72116 10180 20070 39870 40150 53019 60006 81182 91800 333 10208 20145 91028=
07481,1997-05-11 21:00:00,13,1018.9,3.4,88,11,25000,22.224,,,340,,,,0,,,,,,61,wg-a,,,,AAXX 11214 07481 12475 83412 10130 20110 39903 40189 53034 60007 76162 8327/ 92100=
07481,1997-05-12 00:00:00,11,1020.9,1.7,100,11,8000,11.112,,,110,,,,11,,,,,,61,wg-a,,,,AAXX 12004 07481 02358 81106 10110 20110 39921 40209 51017 60126 76162 878// 90000 333 60117=
07481,1997-05-12 06:00:00,11,1022.2,1.2,100,11,6000,11.112,,,150,10.5,18.2,,,,,,,,61,wg-a,,,,AAXX 12064 07481 02556 81506 10110 20110 39934 40222 53012 61000 76166 888// 90600 333 10182 20105 6025=
07481,1997-05-12 09:00:00,12,1022.9,0.8,94,11,9000,14.816,,,150,,,,5,,,,,,61,wg-a,,,,AAXX 12094 07481 12259 81508 10120 20110 39941 40229 50008 60057 76166 878// 90900=
07481,1997-05-12 12:00:00,15,1022.8,0.2,82,12,500,14.816,,,110,,,,1,,,,,,21,wg-a,,,,AAXX 12124 07481 02400 71108 10150 20120 39944 40228 50002 60066 72162 84871 91200 333 60017=
07481,1997-05-12 15:00:00,17,1021,-1.7,63,10,40000,14.816,,,100,,,,,,,,,,,wg-a,,,,AAXX 12154 07481 12582 71008 10170 20100 39927 40210 58017 60006 83842 91500=
07481,1997-05-12 18:00:00,16,1020.8,-0.2,72,11,500,7.408,,,50,10.8,17.5,,,,,,,,,wg-a,,,,AAXX 12184 07481 12500 80504 10160 20110 39925 40208 55002 60006 879// 91800 333 10175 20108=
07481,1997-05-12 21:00:00,14,1022.6,1.5,88,12,10000,11.112,,,110,,,,3,,,,,,61,wg-a,,,,AAXX 12214 07481 12360 81106 10140 20120 39940 40226 53015 60037 76186 878// 92100=
07481,1997-05-13 00:00:00,13,1022.3,-0.3,94,12,20000,0,,,0,,,,3,,,,,,1,wg-a,,,,AAXX 13004 07481 02670 70000 10130 20120 39937 40223 58003 60076 70186 8357/ 90000 333 60037=
07481,1997-05-13 03:00:00,13,1021.9,-0.4,94,12,20000,7.408,,,150,,,,,,,,,,,wg-a,,,,AAXX 13034 07481 12670 71504 10130 20120 39933 40219 56004 60006 8257/ 90300=
07481,1997-05-13 06:00:00,13,1022.2,0.3,94,12,9000,3.704,,,100,12.5,16.3,,,,,,,,60,wg-a,,,,AAXX 13064 07481 02559 81002 10130 20120 39936 40222 53003 61000 76062 8487/ 90600 333 10163 20125 6014=
07481,1997-05-13 09:00:00,14,1022.1,0,94,13,15000,11.112,,,120,,,,1,,,,,,21,wg-a,,,,AAXX 13094 07481 12465 71206 10140 20130 39936 40221 50000 60017 72162 84831 90900=
07481,1997-05-13 12:00:00,18,1020.6,-1,77,14,25000,18.52,,,140,,,,,,,,,,2,wg-a,,,,AAXX 13124 07481 12475 71410 10180 20140 39926 40206 58010 60016 70262 84831 91200=
07481,1997-05-13 15:00:00,20,1018.3,-2.1,73,15,11000,14.816,,,90,,,,,,,,,,,wg-a,,,,AAXX 13154 07481 12/61 /0908 10200 20150 39905 40183 58021 60006 91500=
07481,1997-05-13 18:00:00,19,1017.3,-1.1,68,13,500,11.112,,,120,12.9,20.6,,,,,,,,,wg-a,,,,AAXX 13184 07481 12500 /1206 10190 20130 39894 40173 58011 60006 81832 91800 333 10206 20129=
07481,1997-05-13 21:00:00,16,1017.9,0.3,82,13,500,11.112,,,140,,,,,,,,,,,wg-a,,,,AAXX 13214 07481 12/00 41406 10160 20130 39897 40179 53003 60006 83082 92100=
07481,1997-05-14 00:00:00,16,1018.9,1,82,13,25000,7.408,,,170,,,,,,,,,,,wg-a,,,,AAXX 14004 07481 12/75 51704 10160 20130 39907 40189 53010 60006 85080 90000=
07481,1997-05-14 03:00:00,15,1018.5,-0.5,88,13,25000,3.704,,,200,,,,,,,,,,,wg-a,,,,AAXX 14034 07481 12/75 62002 10150 20130 39902 40185 56005 60006 86080 90300=
07481,1997-05-14 06:00:00,15,1019.2,0.7,88,13,20000,0,,,0,13.7,18.6,,,,,1,,,,wg-a,,,,AAXX 14064 07481 02/70 70000 10150 20130 39909 40192 53007 60006 84082 90600 333 10186 20137 60014=
07481,1997-05-14 09:00:00,20,1019.4,0.6,68,14,20000,3.704,,,40,,,,,,,,,,,wg-a,,,,AAXX 14094 07481 12570 70402 10200 20140 39915 40194 50006 60006 81282 90900=
07481,1997-05-14 12:00:00,23,1017.7,-1.3,57,14,22000,11.112,,,340,,,,,,,,,,,wg-a,,,,AAXX 14124 07481 12672 /3406 10230 20140 39902 40177 58013 60006 82282 91200=
07481,1997-05-14 15:00:00,22,1016.8,-0.9,65,15,500,22.224,,,350,,,,,,,,,,,wg-a,,,,AAXX 14154 07481 12500 63512 10220 20150 39892 40168 56009 60006 82282 91500=
07481,1997-05-14 18:00:00,21,1016.6,-0.3,69,15,40000,11.112,,,10,15.2,23.2,,,,,,,,,wg-a,,,,AAXX 14184 07481 12582 60106 10210 20150 39889 40166 56003 60006 84881 91800 333 10232 20152=
07481,1997-05-14 21:00:00,17,1017.8,0.7,94,16,15000,18.52,,,20,,,,4,,,,,,80,wg-a,,,,AAXX 14214 07481 12565 80210 10170 20160 39897 40178 51007 60047 78096 879// 92100=
07481,1997-05-15 00:00:00,16,1017.8,-0.2,94,15,18000,7.408,,,260,,,,,,,,,,3,wg-a,,,,AAXX 15004 07481 02368 72604 10160 20150 39896 40178 58002 60046 70396 8587/ 90000 333 61000=
07481,1997-05-15 03:00:00,14,1016.9,-0.9,100,14,12000,3.704,,,310,,,,,,,,,,,wg-a,,,,AAXX 15034 07481 12362 73102 10140 20140 39886 40169 56009 60006 875// 90300=
07481,1997-05-15 06:00:00,13,1017.3,0.3,100,13,100,3.704,,,330,13.4,20.7,,,,,4,,,45,wg-a,,,,AAXX 15064 07481 02/01 93302 10130 20130 39889 40173 53003 60006 74542 89/// 90600 333 10207 20134 60044=
07481,1997-05-15 09:00:00,17,1016.9,-0.1,88,15,6000,3.704,,,50,,,,,,,,,,1,wg-a,,,,AAXX 15094 07481 12356 /0502 10170 20150 39888 40169 58001 60006 70142 86200 90900=
07481,1997-05-15 12:00:00,22,1015,-1.3,78,18,12000,7.408,,,40,,,,,,,,,,3,wg-a,,,,AAXX 15124 07481 12462 /0404 10220 20180 39875 40150 58013 60006 70341 81102 91200=
07481,1997-05-15 15:00:00,26,1012.9,-1.7,51,15,20000,7.408,,,120,,,,,,,,,,,wg-a,,,,AAXX 15154 07481 12570 71204 10260 20150 39857 40129 56017 60006 81282 91500=
07481,1997-05-15 18:00:00,20,1013.5,0.1,64,13,500,14.816,,,200,13.5,26.1,,,,,,,,29,wg-a,,,,AAXX 15184 07481 02500 82008 10200 20130 39858 40135 50001 61000 72998 83983 91800 333 10261 20135 6002=
07481,1997-05-15 21:00:00,17,1015,1.3,88,15,500,0,,,0,,,,,,,,,,,wg-a,,,,AAXX 15214 07481 12500 70000 10170 20150 39870 40150 51013 60006 81283 92100=
07481,1997-05-16 00:00:00,16,1014.5,-0.6,94,15,500,3.704,,,200,,,,,,,,,,,wg-a,,,,AAXX 16004 07481 12/00 72002 10160 20150 39864 40145 57006 60006 81032 90000=
07481,1997-05-16 03:00:00,15,1014.7,-0,88,13,10000,3.704,,,100,,,,0,,,,,,,wg-a,,,,AAXX 16034 07481 12/60 71002 10150 20130 39864 40147 54000 60007 81032 90300=
07481,1997-05-16 06:00:00,16,1015,0.5,88,14,10000,0,,,0,13.8,20.8,,,,,2,,,,wg-a,,,,AAXX 16064 07481 02/60 70000 10160 20140 39869 40150 53005 60006 81032 90600 333 10208 20138 60024=
07481,1997-05-16 09:00:00,20,1014.9,0.3,73,15,12000,7.408,,,120,,,,,,,,,,,wg-a,,,,AAXX 16094 07481 12/62 71204 10200 20150 39872 40149 50003 60006 83036 90900=
07481,1997-05-16 12:00:00,25,1013.8,-0.7,44,12,25000,14.816,,,200,,,,,,,,,,,wg-a,,,,AAXX 16124 07481 12675 52008 10250 20120 39865 40138 58007 60006 81202 91200=
07481,1997-05-16 18:00:00,24,1012.2,-0.2,47,12,25000,14.816,,,160,16.1,25.4,,,,,,,,,wg-a,,,,AAXX 16184 07481 12675 31608 10240 20120 39849 40122 55002 60006 81342 91800 333 10254 20161=
07481,1997-05-16 21:00:00,18,1015,2.2,77,14,11000,11.112,,,110,,,,,,,,,,,wg-a,,,,AAXX 16214 07481 32/61 /1106 10180 20140 39871 40150 51022 92100=
07481,1997-05-17 00:00:00,17,1015,-0.2,88,15,18000,7.408,,,150,,,,,,,,,,1,wg-a,,,,AAXX 17004 07481 12768 61504 10170 20150 39869 40150 57002 60006 70198 82570 90000=
07481,1997-05-17 03:00:00,17,1014.3,-0.6,72,12,20000,14.816,,,160,,,,,,,,,,,wg-a,,,,AAXX 17034 07481 12870 71608 10170 20120 39863 40143 58006 60006 84072 90300=
07481,1997-05-17 06:00:00,18,1014.7,0.4,59,10,20000,14.816,,,170,16,23.9,,,,,,,,,wg-a,,,,AAXX 17064 07481 02870 71708 10180 20100 39867 40147 53004 60006 8707/ 90600 333 10239 20160 60004=
07481,1997-05-17 09:00:00,20,1014.4,-0,60,12,500,14.816,,,150,,,,,,,,,,,wg-a,,,,AAXX 17094 07481 12800 51508 10200 20120 39867 40144 55000 60006 83041 90900=
07481,1997-05-17 12:00:00,24,1012.5,-1.5,50,13,500,22.224,,,170,,,,,,,,,,,wg-a,,,,AAXX 17124 07481 12600 31712 10240 20130 39852 40125 58015 60006 81241 91200=
07481,1997-05-17 15:00:00,25,1011.5,-1,44,12,500,31.484,,,190,,,,,,,,,,,wg-a,,,,AAXX 17154 07481 12600 51917 10250 20120 39843 40115 56010 60006 81242 91500=
07481,1997-05-17 18:00:00,20,1013,1,64,13,12000,18.52,,,200,17.3,25.5,,,,,,,,60,wg-a,,,,AAXX 17184 07481 02762 72010 10200 20130 39853 40130 53010 61000 76061 81242 91800 333 10255 20173 6100=
07481,1997-05-18 00:00:00,16,1014.5,-0.1,82,13,15000,11.112,,,170,,,,0,,,,,,21,wg-a,,,,AAXX 18004 07481 02665 /1706 10160 20130 39864 40145 58001 60006 72162 8257/ 90000 333 60007=
07481,1997-05-18 03:00:00,15,1014.2,-0.4,88,13,18000,14.816,,,180,,,,,,,,,,1,wg-a,,,,AAXX 18034 07481 02668 /1808 10150 20130 39860 40142 55004 61000 70186 82580 90300 333 ////=
07481,1997-05-18 06:00:00,16,1014.6,0.5,77,12,12000,14.816,,,180,14.4,20,,,,,,,,1,wg-a,,,,AAXX 18064 07481 02662 21808 10160 20120 39865 40146 52005 60006 70186 81580 90600 333 10200 20144 60004=
07481,1997-05-18 09:00:00,19,1014,-0.3,60,11,20000,22.224,,,220,,,,,,,,,,,wg-a,,,,AAXX 18094 07481 12570 42212 10190 20110 39862 40140 57003 60006 84100 90900=
07481,1997-05-18 12:00:00,22,1013.2,-0.6,50,11,25000,31.484,,,200,,,,,,,,,,,wg-a,,,,AAXX 18124 07481 12575 42017 10220 20110 39856 40132 58006 60006 83303 91200=
07481,1997-05-18 18:00:00,21,1011.1,-0.7,46,9,40000,25.928,,,200,15.7,23.6,,,,,,,,,wg-a,,,,AAXX 18184 07481 12782 22014 10210 20090 39836 40111 56007 60006 81402 91800 333 10236 20157=
07481,1997-05-18 21:00:00,18,1012.1,0.6,59,10,40000,18.52,,,180,,,,,,,,,,,wg-a,,,,AAXX 18214 07481 12782 11810 10180 20100 39842 40121 53006 60006 81541 92100=
07481,1997-05-19 00:00:00,15,1013.4,1,77,11,40000,7.408,,,120,,,,,,,,,,,wg-a,,,,AAXX 19004 07481 12/82 01204 10150 20110 39852 40134 51010 60006 80000 90000=
07481,1997-05-19 03:00:00,14,1012.7,-0.8,77,10,35000,14.816,,,170,,,,,,,,,,,wg-a,,,,AAXX 19034 07481 12/81 01708 10140 20100 39844 40127 56008 60006 80000 90300=
07481,1997-05-19 06:00:00,15,1012,-0.6,67,9,35000,22.224,,,160,12.2,21.4,,,,,,,,,wg-a,,,,AAXX 19064 07481 02/81 61612 10150 20090 39838 40120 57006 60006 80002 90600 333 10214 20122 60004=
07481,1997-05-19 09:00:00,19,1011.3,-0.3,49,8,45000,35.188,,44.448,190,,,,,,,,,,,wg-a,,,,AAXX 19094 07481 12/83 71919 10190 20080 39835 40113 58003 60006 80002 90900 333 91024=
07481,1997-05-19 12:00:00,22,1010,-1.2,41,8,50000,46.3,,72.228,190,,,,,,,,,,,wg-a,,,,AAXX 19124 07481 12684 /1925 10220 20080 39825 40100 56012 60006 81102 91200 333 91039=
07481,1997-05-19 15:00:00,23,1009.3,-0.4,44,10,40000,31.484,,,210,,,,,,,,,,,wg-a,,,,AAXX 19154 07481 12682 72117 10230 20100 39820 40093 56004 60006 81106 91500=
07481,1997-05-19 18:00:00,21,1008.5,-0.8,49,10,40000,22.224,,,200,14.7,23.3,,,,,,,,,wg-a,,,,AAXX 19184 07481 12/82 62012 10210 20100 39810 40085 58008 60006 81045 91800 333 10233 20147=
07481,1997-05-19 21:00:00,18,1010.4,1.5,59,10,500,22.224,,,210,,,,,,,,,,,wg-a,,,,AAXX 19214 07481 12700 72112 10180 20100 39826 40104 53015 60006 8228/ 92100=
07481,1997-05-20 00:00:00,17,1010.9,0.4,68,11,500,22.224,,,210,,,,,,,,,,60,wg-a,,,,AAXX 20004 07481 02600 72112 10170 20110 39830 40109 50004 61000 76062 8228/ 90000 333 6100=
07481,1997-05-20 03:00:00,14,1010.6,-0.6,94,13,12000,11.112,,,80,,,,1,,,,,,2,wg-a,,,,AAXX 20034 07481 12562 70806 10140 20130 39824 40106 58006 60017 70262 8387/ 90300=
07481,1997-05-20 06:00:00,15,1010.8,0.3,88,13,12000,7.408,,,190,12.8,21.1,,,,,1,,,3,wg-a,,,,AAXX 20064 07481 02662 61904 10150 20130 39827 40108 53003 60006 70361 83831 90600 333 10211 20128 60014=
07481,1997-05-20 09:00:00,16,1010.8,0.1,77,12,25000,11.112,,,230,,,,,,,,,,60,wg-a,,,,AAXX 20094 07481 02475 72306 10160 20120 39828 40108 51001 61000 76062 878// 90900 333 ////=
07481,1997-05-20 12:00:00,16,1010.9,0.1,82,13,12000,14.816,,,190,,,,0,,,,,,21,wg-a,,,,AAXX 20124 07481 02562 81908 10160 20130 39829 40109 53001 60006 72162 8487/ 91200 333 60007=
07481,1997-05-20 15:00:00,17,1010.1,-0.7,72,12,25000,18.52,,,140,,,,0,,,,,,3,wg-a,,,,AAXX 20154 07481 12675 61410 10170 20120 39822 40101 58007 60007 70362 82832 91500=
07481,1997-05-20 18:00:00,17,1010.9,0.8,77,13,35000,14.816,,,130,14.9,18,,,,,,,,1,wg-a,,,,AAXX 20184 07481 02681 41308 10170 20130 39830 40109 53008 60006 70186 83203 91800 333 10180 20149 61000=
07481,1997-05-20 21:00:00,15,1012.9,1.7,88,13,20000,11.112,,,170,,,,,,,,,,,wg-a,,,,AAXX 20214 07481 12770 21706 10150 20130 39847 40129 51017 60006 82500 92100=
07481,1997-05-21 00:00:00,13,1013.2,0.1,82,10,20000,7.408,,,170,,,,,,,,,,,wg-a,,,,AAXX 21004 07481 12770 11704 10130 20100 39848 40132 50001 60006 81500 90000=
07481,1997-05-21 03:00:00,11,1013.1,-0.3,87,9,20000,7.408,,,160,,,,,,,,,,,wg-a,,,,AAXX 21034 07481 12770 11604 10110 20090 39845 40131 56003 60006 81500 90300=
07481,1997-05-21 06:00:00,12,1014,0.9,76,8,500,7.408,,,160,10.3,16.8,,,,,,,,,wg-a,,,,AAXX 21064 07481 02700 21604 10120 20080 39855 40140 52009 60006 81530 90600 333 10168 20103 60004=
07481,1997-05-21 12:00:00,16,1013.5,-0.1,72,11,35000,11.112,,,300,,,,0,,,,,,,wg-a,,,,AAXX 21124 07481 02681 73006 10160 20110 39854 40135 58001 60006 878// 91200 333 60007=
07481,1997-05-21 15:00:00,19,1011.5,-1.6,56,10,35000,7.408,,,70,,,,0,,,,,,1,wg-a,,,,AAXX 21154 07481 12681 40704 10190 20100 39837 40115 58016 60007 70161 84830 91500=
07481,1997-05-21 18:00:00,16,1012.8,1,72,11,40000,18.52,,,20,12.2,19.8,,0,,,,,,3,wg-a,,,,AAXX 21184 07481 02682 70210 10160 20110 39847 40128 53010 60006 70386 81832 91800 333 10198 20122 60007=
07481,1997-05-21 21:00:00,14,1015.5,2.4,82,11,500,3.704,,,40,,,,,,,,,,,wg-a,,,,AAXX 21214 07481 12600 70402 10140 20110 39871 40155 51024 60006 8553/ 92100=
07481,1997-05-22 00:00:00,13,1015.6,0.1,88,11,25000,7.408,,,200,,,,1,,,,,,1,wg-a,,,,AAXX 22004 07481 02575 72004 10130 20110 39872 40156 50001 60016 70162 8487/ 90000 333 60017=
07481,1997-05-22 03:00:00,12,1015.3,-0.5,88,10,25000,3.704,,,310,,,,,,,,,,,wg-a,,,,AAXX 22034 07481 12675 /3102 10120 20100 39867 40153 56005 60006 82530 90300=
07481,1997-05-22 06:00:00,13,1016.1,0.9,88,11,25000,7.408,,,350,11.5,16,,,,,1,,,,wg-a,,,,AAXX 22064 07481 02475 73504 10130 20110 39876 40161 53009 60006 875// 90600 333 10160 20115 60014=
07481,1997-05-22 09:00:00,14,1016.8,0.8,82,11,25000,7.408,,,20,,,,,,,,,,3,wg-a,,,,AAXX 22094 07481 02575 80204 10140 20110 39884 40168 51008 61000 70362 878// 90900 333 ////=
07481,1997-05-22 12:00:00,16,1016.6,0,72,11,25000,11.112,,,330,,,,,,,,,,3,wg-a,,,,AAXX 22124 07481 02575 73306 10160 20110 39884 40166 50000 61000 70362 878// 91200 333 ////=
07481,1997-05-22 18:00:00,18,1014.4,-0.6,56,9,40000,14.816,,,360,13,19.4,,,,,,,,,wg-a,,,,AAXX 22184 07481 12682 /3608 10180 20090 39865 40144 56006 60006 81101 91800 333 10194 20130=
07481,1997-05-22 21:00:00,14,1016.1,1.2,77,10,40000,7.408,,,350,,,,,,,,,,,wg-a,,,,AAXX 22214 07481 12/82 /3504 10140 20100 39877 40161 51012 60006 81040 92100=
07481,1997-05-23 00:00:00,11,1016.2,-0.2,94,10,40000,3.704,,,300,,,,,,,,,,,wg-a,,,,AAXX 23004 07481 12/82 13002 10110 20100 39875 40162 58002 60006 81040 90000=
07481,1997-05-23 03:00:00,10,1015.7,-0.7,93,9,500,0,,,0,,,,,,,,,,,wg-a,,,,AAXX 23034 07481 12/00 30000 10100 20090 39869 40157 57007 60006 80001 90300=
07481,1997-05-23 06:00:00,12,1016.1,0.7,88,10,7000,3.704,,,20,9.2,18,,,,,,,,,wg-a,,,,AAXX 23064 07481 02257 /0202 10120 20100 39875 40161 52007 60006 82601 90600 333 10180 20092 61000=
07481,1997-05-23 09:00:00,16,1015.8,0.2,68,10,25000,11.112,,,10,,,,,,,,,,,wg-a,,,,AAXX 23094 07481 12575 50106 10160 20100 39877 40158 50002 60006 81101 90900=
07481,1997-05-23 12:00:00,20,1014.6,-0.8,53,10,500,7.408,,,50,,,,,,,,,,,wg-a,,,,AAXX 23124 07481 12600 /0504 10200 20100 39869 40146 58008 60006 82282 91200=
07481,1997-05-23 15:00:00,22,1013.6,-0.9,43,9,40000,7.408,,,20,,,,,,,,,,,wg-a,,,,AAXX 23154 07481 12682 70204 10220 20090 39860 40136 57009 60006 82202 91500=
07481,1997-05-23 18:00:00,19,1013.4,-0.3,60,11,40000,11.112,,,20,11.6,22.2,,,,,,,,,wg-a,,,,AAXX 23184 07481 12782 70206 10190 20110 39856 40134 55003 60006 81502 91800 333 10222 20116=
07481,1997-05-23 21:00:00,16,1014.6,0.8,72,11,500,3.704,,,60,,,,,,,,,,,wg-a,,,,AAXX 23214 07481 12/00 30602 10160 20110 39865 40146 51008 60006 80001 92100=
07481,1997-05-24 00:00:00,16,1015.1,0.5,77,12,500,11.112,,,170,,,,,,,,,,,wg-a,,,,AAXX 24004 07481 12/00 41706 10160 20120 39870 40151 50005 60006 80001 90000=
07481,1997-05-24 03:00:00,16,1015.3,0.1,82,13,500,18.52,,,170,,,,,,,,,,,wg-a,,,,AAXX 24034 07481 12/00 31710 10160 20130 39871 40153 51001 60006 80001 90300=
07481,1997-05-24 06:00:00,17,1015.8,0.6,77,13,13000,14.816,,,150,14.3,19.3,,,,,,,,,wg-a,,,,AAXX 24064 07481 02463 31508 10170 20130 39877 40158 51006 60006 81101 90600 333 10193 20143 60004=
07481,1997-05-24 09:00:00,21,1015.8,0.4,60,13,18000,14.816,,,180,,,,,,,,,,,wg-a,,,,AAXX 24094 07481 12568 41808 10210 20130 39881 40158 51004 60006 81182 90900=
07481,1997-05-24 12:00:00,23,1015.1,-0.5,38,8,500,29.632,,,190,,,,,,,,,,,wg-a,,,,AAXX 24124 07481 12600 61916 10230 20080 39876 40151 56005 60006 81182 91200=
07481,1997-05-24 15:00:00,23,1015.9,0.7,47,11,27000,11.112,,,180,,,,,,,,,,,wg-a,,,,AAXX 24154 07481 12677 81806 10230 20110 39883 40159 51007 60006 8127/ 91500=
07481,1997-05-24 18:00:00,21,1016.2,0.2,60,13,15000,18.52,,,20,16.5,24.3,,,,,,,,,wg-a,,,,AAXX 24184 07481 12665 50210 10210 20130 39885 40162 53002 60006 81182 91800 333 10243 20165=
07481,1997-05-25 00:00:00,15,1018.6,0.3,88,13,20000,0,,,0,,,,,,,,,,,wg-a,,,,AAXX 25004 07481 12/70 20000 10150 20130 39903 40186 52003 60006 82030 90000=
07481,1997-05-25 03:00:00,14,1019.2,0.5,94,13,10000,0,,,0,,,,,,,,,,,wg-a,,,,AAXX 25034 07481 12/60 /0000 10140 20130 39908 40192 53005 60006 90300=
07481,1997-05-25 06:00:00,15,1020.3,1.1,88,13,8000,7.408,,,310,13.1,21.3,,,,,,,,,wg-a,,,,AAXX 25064 07481 02/58 03104 10150 20130 39919 40203 53011 60006 80000 90600 333 10213 20131 60004=
07481,1997-05-25 09:00:00,19,1019.6,-0.3,73,14,15000,3.704,,,20,,,,,,,,,,,wg-a,,,,AAXX 25094 07481 12565 30202 10190 20140 39916 40196 58003 60006 81101 90900=
07481,1997-05-25 12:00:00,23,1018.7,-0.5,57,14,20000,7.408,,,20,,,,,,,,,,,wg-a,,,,AAXX 25124 07481 12670 /0204 10230 20140 39911 40187 58005 60006 81101 91200=
07481,1997-05-25 15:00:00,24,1017.5,-1.1,57,15,500,7.408,,,20,,,,,,,,,,,wg-a,,,,AAXX 25154 07481 12600 70204 10240 20150 39900 40175 56011 60006 8128/ 91500=
07481,1997-05-25 18:00:00,21,1018.5,0.7,53,11,500,11.112,,,180,14.8,24.1,,,,,,,,25,wg-a,,,,AAXX 25184 07481 02600 71806 10210 20110 39907 40185 53007 61000 72586 8328/ 91800 333 10241 20148 6001=
07481,1997-05-25 21:00:00,18,1019.8,1,68,12,500,3.704,,,80,,,,,,,,,,,wg-a,,,,AAXX 25214 07481 12700 80802 10180 20120 39917 40198 53010 60006 8127/ 92100=
07481,1997-05-26 00:00:00,17,1020.2,0.3,72,12,500,0,,,0,,,,,,,,,,,wg-a,,,,AAXX 26004 07481 12/00 40000 10170 20120 39920 40202 51003 60006 81032 90000=
07481,1997-05-26 06:00:00,14,1021.4,0.6,72,9,27000,11.112,,,360,11.9,21.1,,,,,1,,,,wg-a,,,,AAXX 26064 07481 02/77 13606 10140 20090 39928 40214 53006 60006 80002 90600 333 10211 20119 60014=
07481,1997-05-26 09:00:00,18,1021,0.1,64,11,500,7.408,,,330,,,,,,,,,,,wg-a,,,,AAXX 26094 07481 12/00 13304 10180 20110 39929 40210 51001 60006 80002 90900=
07481,1997-05-26 12:00:00,23,1019.7,-0.8,53,13,500,14.816,,,10,,,,,,,,,,,wg-a,,,,AAXX 26124 07481 12600 40108 10230 20130 39921 40197 58008 60006 81101 91200=
07481,1997-05-26 15:00:00,25,1018.2,-1.3,41,11,500,14.816,,,350,,,,,,,,,,,wg-a,,,,AAXX 26154 07481 12700 /3508 10250 20110 39908 40182 56013 60006 81101 91500=
07481,1997-05-26 18:00:00,23,1017.7,-0.6,38,8,500,14.816,,,10,13.4,25.1,,,,,,,,,wg-a,,,,AAXX 26184 07481 12/00 10108 10230 20080 39901 40177 56006 60006 80001 91800 333 10251 20134=
07481,1997-05-26 21:00:00,17,1019,0.7,59,9,50000,7.408,,,340,,,,,,,,,,,wg-a,,,,AAXX 26214 07481 12/84 03404 10170 20090 39909 40190 52007 60006 80000 92100=
07481,1997-05-27 00:00:00,14,1019,-0.3,63,7,40000,7.408,,,270,,,,,,,,,,,wg-a,,,,AAXX 27004 07481 12/82 02704 10140 20070 39905 40190 58003 60006 80000 90000=
07481,1997-05-27 03:00:00,11,1018.8,-0.4,76,7,500,3.704,,,320,,,,,,,,,,,wg-a,,,,AAXX 27034 07481 12/00 03202 10110 20070 39901 40188 58004 60006 80000 90300=
07481,1997-05-27 06:00:00,13,1019.1,0.4,72,8,40000,7.408,,,360,10.1,22.8,,,,,,,,,wg-a,,,,AAXX 27064 07481 02/82 03604 10130 20080 39905 40191 53004 60006 80000 90600 333 10228 20101 60004=
07481,1997-05-27 09:00:00,18,1018.3,-0.3,52,8,500,7.408,,,330,,,,,,,,,,,wg-a,,,,AAXX 27094 07481 12/00 03304 10180 20080 39902 40183 58003 60006 80000 90900=
07481,1997-05-27 12:00:00,23,1016.8,-1,41,9,40000,11.112,,,360,,,,,,,,,,,wg-a,,,,AAXX 27124 07481 12/82 03606 10230 20090 39892 40168 58010 60006 80000 91200=
07481,1997-05-27 18:00:00,23,1014.8,-0.2,47,11,50000,22.224,,,350,13,25.3,,,,,,,,,wg-a,,,,AAXX 27184 07481 12/84 13512 10230 20110 39873 40148 56002 60006 81041 91800 333 10253 20130=
07481,1997-05-28 00:00:00,16,1017,0.7,59,8,40000,11.112,,,340,,,,,,,,,,,wg-a,,,,AAXX 28004 07481 12/82 13406 10160 20080 39888 40170 51007 60006 80001 90000=
07481,1997-05-28 03:00:00,13,1018,0.5,72,8,10000,14.816,,,320,,,,,,,,,,,wg-a,,,,AAXX 28034 07481 12/60 /3208 10130 20080 39894 40180 53005 60006 90300=
07481,1997-05-28 06:00:00,12,1018.6,0.6,76,8,20000,14.816,,,340,11.2,23.1,,,,,,,,,wg-a,,,,AAXX 28064 07481 02770 13408 10120 20080 39900 40186 51006 60006 81501 90600 333 10231 20112 60004=
07481,1997-05-28 09:00:00,16,1018.4,0.1,59,8,10000,18.52,,,350,,,,,,,,,,,wg-a,,,,AAXX 28094 07481 12/60 /3510 10160 20080 39901 40184 51001 60006 90900=
07481,1997-05-28 12:00:00,20,1017.3,-0.5,46,8,25000,29.632,,,350,,,,,,,,,,,wg-a,,,,AAXX 28124 07481 12/75 03516 10200 20080 39895 40173 58005 60006 80000 91200=
07481,1997-05-28 18:00:00,20,1016.8,-0.1,37,5,25000,22.224,,,340,12.3,21.5,,,,,,,,,wg-a,,,,AAXX 28184 07481 12/75 03412 10200 20050 39889 40168 55001 60006 80000 91800 333 10215 20123=
07481,1997-05-28 21:00:00,15,1019,1.6,51,5,500,14.816,,,350,,,,,,,,,,,wg-a,,,,AAXX 28214 07481 12/00 13508 10150 20050 39906 40190 53016 60006 80001 92100=
07481,1997-05-29 00:00:00,11,1020.3,1,71,6,25000,7.408,,,270,,,,,,,,,,,wg-a,,,,AAXX 29004 07481 12/75 02704 10110 20060 39915 40203 53010 60006 80000 90000=
07481,1997-05-29 03:00:00,9,1022.1,1.4,76,5,25000,7.408,,,290,,,,,,,,,,,wg-a,,,,AAXX 29034 07481 12/75 12904 10090 20050 39930 40221 53014 60006 80002 90300=
07481,1997-05-29 06:00:00,11,1022.9,1,66,5,60000,3.704,,,350,8.1,19.6,,,,,,,,,wg-a,,,,AAXX 29064 07481 02/86 13502 10110 20050 39940 40229 53010 60006 80002 90600 333 10196 20081 60004=
07481,1997-05-29 09:00:00,16,1022.7,0.3,48,5,40000,3.704,,,160,,,,,,,,,,,wg-a,,,,AAXX 29094 07481 12/82 11602 10160 20050 39943 40227 50003 60006 80002 90900=
07481,1997-05-29 12:00:00,21,1021.4,-0.7,46,9,35000,7.408,,,60,,,,,,,,,,,wg-a,,,,AAXX 29124 07481 12/81 10604 10210 20090 39936 40214 58007 60006 80001 91200=
07481,1997-05-29 15:00:00,24,1019.8,-1.3,44,11,35000,7.408,,,40,,,,,,,,,,,wg-a,,,,AAXX 29154 07481 12/81 10404 10240 20110 39923 40198 56013 60006 80001 91500=
07481,1997-05-29 18:00:00,23,1019.4,-0.4,47,11,35000,14.816,,,350,11.2,24.9,,,,,,,,,wg-a,,,,AAXX 29184 07481 12/81 23508 10230 20110 39918 40194 55004 60006 80002 91800 333 10249 20112=
07481,1997-05-29 21:00:00,18,1021.1,1.2,59,10,500,3.704,,,300,,,,,,,,,,,wg-a,,,,AAXX 29214 07481 12/00 13002 10180 20100 39930 40211 52012 60006 80001 92100=
07481,1997-05-30 00:00:00,15,1021.8,0.3,67,9,500,3.704,,,360,,,,,,,,,,,wg-a,,,,AAXX 30004 07481 12/00 13602 10150 20090 39933 40218 52003 60006 80001 90000=
07481,1997-05-30 03:00:00,12,1022.3,0.3,71,7,500,0,,,0,,,,,,,,,,,wg-a,,,,AAXX 30034 07481 12/00 10000 10120 20070 39936 40223 51003 60006 80001 90300=
07481,1997-05-30 06:00:00,14,1022.1,-0.1,72,9,500,7.408,,,310,11.7,22.9,,,,,,,,,wg-a,,,,AAXX 30064 07481 02/00 23104 10140 20090 39935 40221 58001 60006 80001 90600 333 10229 20117 60004=
07481,1997-05-30 09:00:00,18,1021.2,-0.4,56,9,500,11.112,,,10,,,,,,,,,,,wg-a,,,,AAXX 30094 07481 12/00 20106 10180 20090 39931 40212 58004 60006 80001 90900=
07481,1997-05-30 12:00:00,23,1018.8,-1.9,47,11,40000,18.52,,,350,,,,,,,,,,,wg-a,,,,AAXX 30124 07481 12/82 33510 10230 20110 39912 40188 56019 60006 80001 91200=
07481,1997-05-30 15:00:00,26,1016.2,-2.4,37,10,40000,29.632,,,360,,,,,,,,,,,wg-a,,,,AAXX 30154 07481 12/82 53616 10260 20100 39889 40162 56024 60006 80002 91500=
07481,1997-05-30 18:00:00,23,1015.5,-0.8,36,7,40000,29.632,,,350,14,26,,,,,,,,,wg-a,,,,AAXX 30184 07481 12/82 53516 10230 20070 39880 40155 56008 60006 80002 91800 333 10260 20140=
07481,1997-05-30 21:00:00,18,1016.4,0.4,49,7,40000,7.408,,,300,,,,,,,,,,,wg-a,,,,AAXX 30214 07481 12/82 23004 10180 20070 39884 40164 52004 60006 80002 92100=
07481,1997-05-31 00:00:00,14,1016.1,-0.6,72,9,35000,3.704,,,330,,,,,,,,,,,wg-a,,,,AAXX 31004 07481 12/81 03302 10140 20090 39878 40161 57006 60006 80000 90000=
07481,1997-05-31 03:00:00,12,1016.2,-0.2,71,7,25000,3.704,,,290,,,,,,,,,,,wg-a,,,,AAXX 31034 07481 12/75 02902 10120 20070 39876 40162 56002 60006 80000 90300=
07481,1997-05-31 06:00:00,14,1016,0,58,6,10000,3.704,,,310,11.1,23.2,,,,,,,,,wg-a,,,,AAXX 31064 07481 02/60 /3102 10140 20060 39876 40160 50000 60006 90600 333 10232 20111 60004=
07481,1997-05-31 09:00:00,18,1014.5,-1.1,49,7,40000,3.704,,,20,,,,,,,,,,,wg-a,,,,AAXX 31094 07481 12/82 50202 10180 20070 39865 40145 58011 60006 81084 90900=
07481,1997-05-31 12:00:00,22,1012.6,-1.5,41,8,40000,3.704,,,50,,,,,,,,,,,wg-a,,,,AAXX 31124 07481 12/82 50502 10220 20080 39850 40126 58015 60006 81084 91200=
07481,1997-05-31 15:00:00,24,1010.4,-1.9,44,11,40000,7.408,,,20,,,,,,,,,,,wg-a,,,,AAXX 31154 07481 12/82 50204 10240 20110 39831 40104 56019 60006 81082 91500=
07481,1997-05-31 18:00:00,23,1009.4,-1.1,44,10,40000,14.816,,,360,13.5,24.6,,,,,,,,,wg-a,,,,AAXX 31184 07481 12782 63608 10230 20100 39820 40094 55011 60006 81182 91800 333 10246 20135=
07481,1997-06-01 00:00:00,16,1009.7,-0.9,55,7,25000,3.704,,,50,,,,,,,,,,,wg-a,,,,AAXX 01004 07481 12/75 30502 10160 20070 39816 40097 58009 60006 81031 90000=
07481,1997-06-01 03:00:00,13,1008.8,-1.1,62,6,25000,7.408,,,350,,,,,,,,,,,wg-a,,,,AAXX 01034 07481 12/75 73504 10130 20060 39805 40088 56011 60006 84052 90300=
07481,1997-06-01 06:00:00,11,1008.6,-0.4,66,5,40000,11.112,,,350,11.1,22.5,,,,,,,,,wg-a,,,,AAXX 01064 07481 02/82 83506 10110 20050 39801 40086 57004 60006 85036 90600 333 10225 20111 60004=
07481,1997-06-01 09:00:00,11,1009,0.4,82,8,25000,11.112,,,350,,,,,,,,,,60,wg-a,,,,AAXX 01094 07481 02675 83506 10110 20080 39805 40090 53004 61000 76062 8257/ 90900 333 ////=
07481,1997-06-01 12:00:00,11,1008.2,-0.8,94,10,11000,11.112,,,10,,,,,,,,,,,wg-a,,,,AAXX 01124 07481 12/61 /0106 10110 20100 39797 40082 58008 60026 91200=
07481,1997-06-01 15:00:00,11,1007.6,-0.5,94,10,8000,11.112,,,350,,,,3,,,,,,61,wg-a,,,,AAXX 01154 07481 12358 83506 10110 20100 39792 40076 57005 60037 76166 8672/ 91500=
07481,1997-06-01 18:00:00,11,1007.9,0.3,100,11,8000,3.704,,,20,9.9,12,,,,,,,,61,wg-a,,,,AAXX 01184 07481 02358 80202 10110 20110 39795 40079 52003 61000 76166 8672/ 91800 333 10120 20099 6003=
07481,1997-06-01 21:00:00,11,1009.1,1.1,94,10,8000,7.408,,,150,,,,3,,,,,,61,wg-a,,,,AAXX 01214 07481 12158 81504 10110 20100 39806 40091 51011 60037 76166 8677/ 92100=
07481,1997-06-02 00:00:00,11,1009.1,0,94,10,8000,7.408,,,100,,,,2,,,,,,60,wg-a,,,,AAXX 02004 07481 02458 81004 10110 20100 39806 40091 50000 60056 76066 8657/ 90000 333 60027=
07481,1997-06-02 06:00:00,12,1010,1.1,88,10,8000,3.704,,,70,10.8,11.9,,,,,12,,,1,wg-a,,,,AAXX 02064 07481 02558 80702 10120 20100 39816 40100 53011 60006 70162 8687/ 90600 333 10119 20108 60124=
07481,1997-06-02 09:00:00,15,1011.1,1.3,82,12,10000,14.816,,,130,,,,,,,,,,,wg-a,,,,AAXX 02094 07481 12460 71308 10150 20120 39830 40111 51013 60006 8187/ 90900=
07481,1997-06-02 12:00:00,18,1011.9,1,73,13,18000,14.816,,,180,,,,,,,,,,,wg-a,,,,AAXX 02124 07481 12568 71808 10180 20130 39840 40119 51010 60006 8587/ 91200=
07481,1997-06-02 18:00:00,18,1012.5,0.5,73,13,500,18.52,,,170,11.8,19.7,,,,,,,,3,wg-a,,,,AAXX 02184 07481 12500 71710 10180 20130 39846 40125 53005 60006 70386 8293/ 91800 333 10197 20118=
07481,1997-06-02 21:00:00,16,1013.9,1.2,77,12,500,11.112,,,180,,,,,,,,,,,wg-a,,,,AAXX 02214 07481 12/00 51806 10160 20120 39858 40139 52012 60006 85030 92100=
07481,1997-06-03 00:00:00,15,1014.4,0.4,82,12,500,11.112,,,160,,,,,,,,,,,wg-a,,,,AAXX 03004 07481 12/00 51606 10150 20120 39862 40144 51004 60006 85030 90000=
07481,1997-06-03 03:00:00,14,1014.7,0.2,88,12,25000,7.408,,,140,,,,,,,,,,,wg-a,,,,AAXX 03034 07481 12/75 61404 10140 20120 39863 40147 51002 60006 85032 90300=
07481,1997-06-03 06:00:00,15,1014.9,0.4,88,13,10000,3.704,,,140,13.1,18.1,,,,,,,,,wg-a,,,,AAXX 03064 07481 02/60 /1402 10150 20130 39867 40149 51004 60006 90600 333 10181 20131 61000=
07481,1997-06-03 09:00:00,17,1015.7,1,82,14,15000,11.112,,,260,,,,,,,,,,,wg-a,,,,AAXX 03094 07481 12465 72606 10170 20140 39877 40157 53010 60006 83182 90900=
07481,1997-06-03 12:00:00,21,1015.3,-0.2,64,14,18000,11.112,,,290,,,,,,,,,,,wg-a,,,,AAXX 03124 07481 12568 72906 10210 20140 39876 40153 58002 60006 8328/ 91200=
07481,1997-06-03 15:00:00,23,1014.8,-0.2,53,13,40000,3.704,,,330,,,,,,,,,,,wg-a,,,,AAXX 03154 07481 12682 63302 10230 20130 39873 40148 58002 60006 83230 91500=
07481,1997-06-03 18:00:00,20,1015.4,0.3,68,14,500,7.408,,,20,15,22.9,,,,,,,,,wg-a,,,,AAXX 03184 07481 12600 /0204 10200 20140 39876 40154 53003 60006 81830 91800 333 10229 20150=
07481,1997-06-03 21:00:00,16,1016.6,0.9,88,14,27000,0,,,0,,,,,,,,,,,wg-a,,,,AAXX 03214 07481 12/77 40000 10160 20140 39885 40166 53009 60006 84030 92100=
07481,1997-06-04 00:00:00,14,1016.6,-0.3,94,13,18000,3.704,,,60,,,,,,,,,,,wg-a,,,,AAXX 04004 07481 12/68 20602 10140 20130 39882 40166 57003 60006 80002 90000=
07481,1997-06-04 03:00:00,13,1016.1,-0.6,100,13,10000,3.704,,,220,,,,,,,,,,,wg-a,,,,AAXX 04034 07481 12/60 42202 10130 20130 39877 40161 58006 60006 81031 90300=
07481,1997-06-04 06:00:00,15,1015.9,-0,88,13,10000,7.408,,,170,12.3,20,,,,,,,,,wg-a,,,,AAXX 04064 07481 02/60 41704 10150 20130 39876 40159 55000 60006 80001 90600 333 10200 20123 60004=
07481,1997-06-04 09:00:00,20,1014.5,-1,68,14,15000,3.704,,,360,,,,,,,,,,,wg-a,,,,AAXX 04094 07481 12565 23602 10200 20140 39867 40145 56010 60006 81101 90900=
07481,1997-06-04 12:00:00,24,1012.7,-1.3,50,13,27000,7.408,,,90,,,,,,,,,,,wg-a,,,,AAXX 04124 07481 12677 30904 10240 20130 39854 40127 58013 60006 81102 91200=
07481,1997-06-04 15:00:00,26,1010.7,-1.9,45,13,35000,11.112,,,130,,,,,,,,,,,wg-a,,,,AAXX 04154 07481 12681 /1306 10260 20130 39836 40107 56019 60006 81102 91500=
07481,1997-06-04 18:00:00,24,1010,-0.8,50,13,500,18.52,,,180,14.6,26,,,,,,,,,wg-a,,,,AAXX 04184 07481 12800 71810 10240 20130 39827 40100 56008 60006 83576 91800 333 10260 20146=
07481,1997-06-04 21:00:00,21,1009.8,-0.4,73,16,20000,14.816,,,190,,,,,,,,,,,wg-a,,,,AAXX 04214 07481 12770 81908 10210 20160 39823 40098 56004 60006 8557/ 92100=
07481,1997-06-05 00:00:00,18,1009.8,-0.3,83,15,20000,14.816,,,190,,,,,,,,,,60,wg-a,,,,AAXX 05004 07481 02770 81908 10180 20150 39820 40098 58003 61000 76062 8757/ 90000 333 6100=
07481,1997-06-05 03:00:00,17,1008.7,-1.1,88,15,12000,11.112,,,170,,,,0,,,,,,60,wg-a,,,,AAXX 05034 07481 12462 81706 10170 20150 39809 40087 56011 60007 76062 8557/ 90300=
07481,1997-06-05 06:00:00,16,1007.1,-1.5,100,16,7000,3.704,,,330,16.2,23.5,,,,,,,,21,wg-a,,,,AAXX 05064 07481 02457 73302 10160 20160 39793 40071 58015 61000 72162 8257/ 90600 333 10235 20162 6002=
07481,1997-06-05 09:00:00,19,1005.6,-1.3,83,16,8000,3.704,,,360,,,,,,,,,,,wg-a,,,,AAXX 05094 07481 12458 83602 10190 20160 39780 40056 56013 60006 8587/ 90900=
07481,1997-06-05 12:00:00,21,1005.4,-0,73,16,10000,11.112,,,300,,,,,,,,,,,wg-a,,,,AAXX 05124 07481 12560 83006 10210 20160 39780 40054 55000 60006 8227/ 91200=
07481,1997-06-05 18:00:00,22,1004.7,-0.1,65,15,15000,3.704,,,250,16.4,22.3,,,,,,,,2,wg-a,,,,AAXX 05184 07481 12465 52502 10220 20150 39774 40047 55001 60006 70298 81132 91800 333 10223 20164=
07481,1997-06-06 00:00:00,16,1008.6,1.2,94,15,25000,11.112,,,140,,,,,,,,,,3,wg-a,,,,AAXX 06004 07481 12/75 41406 10160 20150 39807 40086 51012 60016 70386 84030 90000=
07481,1997-06-06 06:00:00,17,1010.2,1.1,88,15,25000,14.816,,,140,15.7,22.1,,,,,2,,,1,wg-a,,,,AAXX 06064 07481 02575 71408 10170 20150 39823 40102 52011 60006 70161 81131 90600 333 10221 20157 60024=
07481,1997-06-06 09:00:00,21,1010.9,1.2,64,14,20000,22.224,,,200,,,,,,,,,,,wg-a,,,,AAXX 06094 07481 12570 72012 10210 20140 39834 40109 52012 60006 81106 90900=
07481,1997-06-06 12:00:00,24,1010.8,0.1,50,13,25000,7.408,,,250,,,,,,,,,,,wg-a,,,,AAXX 06124 07481 12575 72504 10240 20130 39836 40108 50001 60006 81102 91200=
07481,1997-06-06 15:00:00,26,1010.1,-0.7,45,13,500,11.112,,,220,,,,,,,,,,,wg-a,,,,AAXX 06154 07481 12600 /2206 10260 20130 39830 40101 57007 60006 81102 91500=
07481,1997-06-06 18:00:00,26,1009.8,-0.3,39,11,40000,11.112,,,160,16.9,26.3,,,,,,,,,wg-a,,,,AAXX 06184 07481 12682 /1606 10260 20110 39827 40098 55003 60006 81102 91800 333 10263 20169=
07481,1997-06-07 00:00:00,20,1011,-0.1,78,16,500,18.52,,,170,,,,,,,,,,,wg-a,,,,AAXX 07004 07481 12/00 01710 10200 20160 39834 40110 58001 60006 80000 90000=
07481,1997-06-07 03:00:00,18,1011.3,0.1,88,16,15000,18.52,,,150,,,,,,,,,,,wg-a,,,,AAXX 07034 07481 12/65 11510 10180 20160 39835 40113 51001 60006 80001 90300=
07481,1997-06-07 06:00:00,19,1011.3,0.1,83,16,10000,25.928,,,160,17.5,25.7,,,,,,,,,wg-a,,,,AAXX 07064 07481 02860 61614 10190 20160 39836 40113 53001 60006 81082 90600 333 10257 20175 60004=
07481,1997-06-07 12:00:00,26,1010.3,-0.1,48,14,40000,35.188,,,170,,,,,,,,,,,wg-a,,,,AAXX 07124 07481 12882 51719 10260 20140 39832 40103 58001 60006 81082 91200=
07481,1997-06-07 15:00:00,27,1009.5,-0.8,45,14,40000,35.188,,57.412,200,,,,,,,,,,,wg-a,,,,AAXX 07154 07481 12682 /2019 10270 20140 39825 40095 56008 60006 81282 91500 333 91031=
07481,1997-06-07 18:00:00,24,1010,0.3,57,15,15000,18.52,,44.448,190,19.2,27.1,,,,,,,,,wg-a,,,,AAXX 07184 07481 12665 71910 10240 20150 39828 40100 53003 60006 8128/ 91800 333 10271 20192 91024=
07481,1997-06-07 21:00:00,23,1011.6,1.4,53,13,15000,14.816,,,170,,,,,,,,,,,wg-a,,,,AAXX 07214 07481 12665 71708 10230 20130 39842 40116 51014 60006 8298/ 92100=
07481,1997-06-08 00:00:00,19,1013.6,1.6,83,16,15000,3.704,,,250,,,,3,,,,,,29,wg-a,,,,AAXX 08004 07481 02665 /2502 10190 20160 39858 40136 52016 60036 72998 81980 90000 333 60037=
07481,1997-06-08 03:00:00,17,1014.3,0.5,82,14,15000,7.408,,,160,,,,,,,,,,,wg-a,,,,AAXX 08034 07481 12665 21604 10170 20140 39863 40143 53005 60006 8153/ 90300=
07481,1997-06-08 06:00:00,19,1015.8,1.7,78,15,500,7.408,,,90,15.6,23.9,,,,,3,,,,wg-a,,,,AAXX 08064 07481 02/00 20904 10190 20150 39880 40158 51017 60006 8208/ 90600 333 10239 20156 60034=
07481,1997-06-08 12:00:00,25,1016,-0.2,47,13,35000,7.408,,,20,,,,,,,,,,,wg-a,,,,AAXX 08124 07481 12681 30204 10250 20130 39887 40160 58002 60006 82232 91200=
07481,1997-06-08 15:00:00,28,1015.1,-0.6,37,12,35000,7.408,,,300,,,,,,,,,,,wg-a,,,,AAXX 08154 07481 12781 /3004 10280 20120 39881 40151 56006 60006 83232 91500=
07481,1997-06-08 18:00:00,20,1018.1,2.2,83,17,8000,18.52,,,20,19.3,28.4,,,,,,,,80,wg-a,,,,AAXX 08184 07481 02658 /0210 10200 20170 39903 40181 53022 61000 78098 84932 91800 333 10284 20193 6001=
07481,1997-06-09 00:00:00,16,1022,0.6,94,15,500,3.704,,,270,,,,,,,,,,1,wg-a,,,,AAXX 09004 07481 02/00 02702 10160 20150 39937 40220 51006 61000 70198 80000 90000 333 ////=
07481,1997-06-09 03:00:00,16,1022.1,-0,88,14,10000,0,,,0,,,,,,,,,,,wg-a,,,,AAXX 09034 07481 12/60 /0000 10160 20140 39937 40221 55000 60006 90300=
07481,1997-06-09 06:00:00,17,1022.3,0.3,88,15,500,3.704,,,330,14.8,20.6,,,,,1,,,,wg-a,,,,AAXX 09064 07481 02/00 53302 10170 20150 39941 40223 53003 60006 80004 90600 333 10206 20148 60014=
07481,1997-06-09 09:00:00,21,1022.4,0.5,64,14,35000,11.112,,,20,,,,,,,,,,,wg-a,,,,AAXX 09094 07481 12581 /0206 10210 20140 39945 40224 51005 60006 81104 90900=
07481,1997-06-09 12:00:00,25,1020.8,-1.1,47,13,40000,11.112,,,10,,,,,,,,,,,wg-a,,,,AAXX 09124 07481 12582 60106 10250 20130 39934 40208 56011 60006 81104 91200=
07481,1997-06-09 15:00:00,27,1019.5,-1.2,42,13,45000,11.112,,,20,,,,,,,,,,,wg-a,,,,AAXX 09154 07481 12683 70206 10270 20130 39922 40195 56012 60006 81106 91500=
07481,1997-06-09 18:00:00,25,1018.9,-0.7,54,15,40000,11.112,,,20,17.5,26.8,,,,,,,,,wg-a,,,,AAXX 09184 07481 12682 /0206 10250 20150 39915 40189 55007 60006 81102 91800 333 10268 20175=
07481,1997-06-09 21:00:00,21,1019.4,0.1,73,16,500,3.704,,,270,,,,,,,,,,,wg-a,,,,AAXX 09214 07481 12/00 62702 10210 20160 39916 40194 53001 60006 81032 92100=
07481,1997-06-10 00:00:00,19,1018.7,-0.8,83,16,25000,3.704,,,10,,,,,,,,,,,wg-a,,,,AAXX 10004 07481 12/75 50102 10190 20160 39908 40187 57008 60006 80002 90000=
07481,1997-06-10 06:00:00,19,1017.8,0.2,83,16,15000,3.704,,,200,17,24.6,,,,,,,,,wg-a,,,,AAXX 10064 07481 02/65 62002 10190 20160 39899 40178 53002 60006 80002 90600 333 10246 20170 60004=
07481,1997-06-10 09:00:00,26,1015.7,-1.4,61,18,15000,14.816,,,150,,,,,,,,,,,wg-a,,,,AAXX 10094 07481 12/65 41508 10260 20180 39885 40157 58014 60006 80002 90900=
07481,1997-06-10 12:00:00,29,1013.5,-1.9,45,16,20000,14.816,,,180,,,,,,,,,,,wg-a,,,,AAXX 10124 07481 12670 71808 10290 20160 39866 40135 58019 60006 81102 91200=
07481,1997-06-10 15:00:00,29,1012.3,-1.2,48,17,20000,22.224,,,180,,,,,,,,,,,wg-a,,,,AAXX 10154 07481 12/70 71812 10290 20170 39854 40123 56012 60006 80002 91500=
07481,1997-06-10 18:00:00,28,1011.5,-0.8,45,15,25000,25.928,,,180,18.8,29.1,,,,,,,,,wg-a,,,,AAXX 10184 07481 12/75 71814 10280 20150 39846 40115 56008 60006 82082 91800 333 10291 20188=
07481,1997-06-10 21:00:00,25,1011.8,-0,54,15,20000,22.224,,,170,,,,,,,,,,,wg-a,,,,AAXX 10214 07481 12/70 71712 10250 20150 39846 40118 55000 60006 85082 92100=
07481,1997-06-11 00:00:00,22,1011.4,-0.7,65,15,20000,14.816,,,140,,,,,,,,,,,wg-a,,,,AAXX 11004 07481 12/70 51408 10220 20150 39839 40114 57007 60006 83082 90000=
07481,1997-06-11 03:00:00,22,1011.1,-0.3,60,14,20000,14.816,,,150,,,,,,,,,,,wg-a,,,,AAXX 11034 07481 12770 71508 10220 20140 39836 40111 55003 60006 8357/ 90300=
07481,1997-06-11 06:00:00,21,1010.7,-0.4,64,14,500,11.112,,,110,20.9,27.7,,,,,,,,,wg-a,,,,AAXX 11064 07481 02700 71106 10210 20140 39832 40107 55004 60006 8157/ 90600 333 10277 20209 60004=
07481,1997-06-11 09:00:00,26,1010,-0.2,45,13,500,11.112,,,190,,,,,,,,,,,wg-a,,,,AAXX 11094 07481 12/00 41906 10260 20130 39830 40100 57002 60006 82082 90900=
07481,1997-06-11 12:00:00,30,1008.1,-1.6,38,14,500,22.224,,,180,,,,,,,,,,,wg-a,,,,AAXX 11124 07481 12700 /1812 10300 20140 39815 40081 58016 60006 81102 91200=
07481,1997-06-11 18:00:00,23,1008.1,1.2,73,18,25000,14.816,,,220,20.3,31.2,,,,,,,,80,wg-a,,,,AAXX 11184 07481 02675 72208 10230 20180 39809 40081 50012 61000 78096 8498/ 91800 333 10312 20203 6001=
07481,1997-06-11 21:00:00,21,1011.3,2.9,78,17,15000,14.816,,,330,,,,0,,,,,,17,wg-a,,,,AAXX 11214 07481 12465 73308 10210 20170 39838 40113 51029 60007 71798 8698/ 92100=
07481,1997-06-12 00:00:00,19,1012.8,1.1,88,17,15000,7.408,,,20,,,,9,,,,,,1,wg-a,,,,AAXX 12004 07481 02765 20204 10190 20170 39850 40128 51011 60106 70198 81530 90000 333 60097=
07481,1997-06-12 03:00:00,17,1012.8,-0.1,94,16,15000,3.704,,,280,,,,,,,,,,,wg-a,,,,AAXX 12034 07481 12/65 12802 10170 20160 39849 40128 58001 60006 81030 90300=
07481,1997-06-12 06:00:00,18,1012.6,-0.1,94,17,25000,3.704,,,320,16.8,23.7,,,,,10,,,,wg-a,,,,AAXX 12064 07481 02775 /3202 10180 20170 39848 40126 57001 60006 81182 90600 333 10237 20168 60104=
07481,1997-06-12 09:00:00,23,1011.4,-0.8,65,16,35000,7.408,,,360,,,,,,,,,,,wg-a,,,,AAXX 12094 07481 12881 53604 10230 20160 39840 40114 56008 60006 82082 90900=
07481,1997-06-12 12:00:00,25,1010.6,-0.5,54,15,40000,14.816,,,340,,,,,,,,,,,wg-a,,,,AAXX 12124 07481 12682 73408 10250 20150 39835 40106 57005 60006 81282 91200=
07481,1997-06-12 15:00:00,26,1009.1,-1.4,48,14,40000,11.112,,,40,,,,,,,,,,,wg-a,,,,AAXX 12154 07481 12682 /0406 10260 20140 39821 40091 56014 60006 82282 91500=
07481,1997-06-12 18:00:00,26,1008,-1.1,48,14,500,7.408,,,10,18.5,26.8,,,,,,,,,wg-a,,,,AAXX 12184 07481 12600 /0104 10260 20140 39810 40080 56011 60006 82282 91800 333 10268 20185=
07481,1997-06-12 21:00:00,20,1009.5,1,78,16,500,7.408,,,270,,,,0,,,,,,17,wg-a,,,,AAXX 12214 07481 12600 82704 10200 20160 39820 40095 53010 60007 71798 879// 92100=
07481,1997-06-13 00:00:00,18,1010.3,0.4,83,15,500,0,,,0,,,,,,,,,,1,wg-a,,,,AAXX 13004 07481 02/00 40000 10180 20150 39825 40103 50004 60016 70198 80002 90000 333 61000=
07481,1997-06-13 06:00:00,17,1009.1,-0.6,94,16,20000,3.704,,,110,16.2,25.5,,,,,,,,25,wg-a,,,,AAXX 13064 07481 02770 71102 10170 20160 39813 40091 58006 61000 72511 81582 90600 333 10255 20162 6001=
07481,1997-06-13 09:00:00,22,1008.4,-0.2,69,16,17000,3.704,,,350,,,,,,,,,,,wg-a,,,,AAXX 13094 07481 12767 73502 10220 20160 39810 40084 58002 60006 8115/ 90900=
07481,1997-06-13 12:00:00,20,1008.4,,88,18,12000,11.112,,,100,,,,,,,,,,29,wg-a,,,,AAXX 13124 07481 02662 71006 10200 20180 39809 40084 61000 72998 8597/ 91200 333 ////=
07481,1997-06-13 15:00:00,22,1008.8,0.6,83,19,8000,14.816,,,310,,,,0,,,,,,80,wg-a,,,,AAXX 13154 07481 12558 73108 10220 20190 39815 40088 53006 60007 78086 8587/ 91500=
07481,1997-06-13 18:00:00,21,1007.1,-1.8,83,18,500,7.408,,,30,17.5,23.4,,1,,,,,,3,wg-a,,,,AAXX 13184 07481 02600 70304 10210 20180 39797 40071 56018 60006 70386 8385/ 91800 333 10234 20175 60017=
07481,1997-06-14 00:00:00,18,1008.7,0.4,100,18,12000,3.704,,,300,,,,0,,,,,,1,wg-a,,,,AAXX 14004 07481 02762 /3002 10180 20180 39811 40087 51004 60006 70162 81530 90000 333 60007=
07481,1997-06-14 03:00:00,18,1009.6,0.9,94,17,6000,7.408,,,160,,,,,,,,,,,wg-a,,,,AAXX 14034 07481 12656 71604 10180 20170 39819 40096 51009 60006 8457/ 90300=
07481,1997-06-14 06:00:00,19,1010.8,1.1,94,18,6000,7.408,,,190,17.8,21.1,,,,,6,,,,wg-a,,,,AAXX 14064 07481 02456 /1904 10190 20180 39831 40108 53011 60006 82832 90600 333 10211 20178 60064=
07481,1997-06-14 09:00:00,19,1012.6,1.7,88,17,10000,11.112,,,290,,,,0,,,,,,60,wg-a,,,,AAXX 14094 07481 12560 82906 10190 20170 39849 40126 51017 60007 76062 8487/ 90900=
07481,1997-06-14 12:00:00,20,1013.7,1.1,88,18,20000,11.112,,,160,,,,0,,,,,,25,wg-a,,,,AAXX 14124 07481 02470 /1606 10200 20180 39861 40137 51011 60016 72586 82830 91200 333 60007=
07481,1997-06-14 15:00:00,22,1013.5,-0.1,69,16,25000,11.112,,,80,,,,,,,,,,3,wg-a,,,,AAXX 14154 07481 12675 30806 10220 20160 39860 40135 58001 60006 70391 83200 91500=
07481,1997-06-14 18:00:00,21,1014.7,1.1,78,17,20000,11.112,,,70,18.9,23.3,,1,,,,,,1,wg-a,,,,AAXX 14184 07481 02570 20706 10210 20170 39871 40147 53011 60006 70198 82230 91800 333 10233 20189 60017=
07481,1997-06-14 21:00:00,18,1017.7,2.5,77,14,40000,11.112,,,20,,,,,,,,,,,wg-a,,,,AAXX 14214 07481 12782 20206 10180 20140 39897 40177 51025 60006 81530 92100=
07481,1997-06-15 00:00:00,16,1018.3,0.4,82,13,40000,0,,,0,,,,,,,,,,,wg-a,,,,AAXX 15004 07481 12/82 50000 10160 20130 39901 40183 51004 60006 85030 90000=
07481,1997-06-15 06:00:00,16,1018.5,0.6,82,13,40000,3.704,,,360,13.4,20.9,,,,,2,,,,wg-a,,,,AAXX 15064 07481 02/82 03602 10160 20130 39903 40185 53006 60006 80000 90600 333 10209 20134 60024=
07481,1997-06-15 09:00:00,20,1017.9,-0.1,60,12,40000,18.52,,,360,,,,,,,,,,,wg-a,,,,AAXX 15094 07481 12582 23610 10200 20120 39901 40179 58001 60006 82100 90900=
07481,1997-06-15 12:00:00,22,1017.2,-0.6,46,10,40000,14.816,,,20,,,,,,,,,,,wg-a,,,,AAXX 15124 07481 12682 20208 10220 20100 39896 40172 58006 60006 82100 91200=
07481,1997-06-15 18:00:00,23,1016,-0.2,44,10,40000,7.408,,,350,15.8,24.2,,,,,,,,,wg-a,,,,AAXX 15184 07481 12682 /3504 10230 20100 39885 40160 55002 60006 81101 91800 333 10242 20158=
07481,1997-06-15 21:00:00,19,1017.4,1,64,12,40000,7.408,,,60,,,,,,,,,,,wg-a,,,,AAXX 15214 07481 12782 10604 10190 20120 39895 40174 53010 60006 81501 92100=
07481,1997-06-16 00:00:00,16,1017.2,-0.5,82,13,40000,0,,,0,,,,,,,,,,,wg-a,,,,AAXX 16004 07481 12/82 10000 10160 20130 39890 40172 56005 60006 80001 90000=
07481,1997-06-16 03:00:00,15,1016.4,-0.9,82,12,500,7.408,,,180,,,,,,,,,,,wg-a,,,,AAXX 16034 07481 12/00 11804 10150 20120 39881 40164 58009 60006 81031 90300=
07481,1997-06-16 06:00:00,16,1016.5,0.1,88,14,12000,0,,,0,14.3,23.3,,,,,,,,,wg-a,,,,AAXX 16064 07481 02762 70000 10160 20140 39883 40165 53001 60006 82531 90600 333 10233 20143 60004=
07481,1997-06-16 09:00:00,18,1017,0.7,83,15,9000,11.112,,,240,,,,,,,,,,60,wg-a,,,,AAXX 16094 07481 02759 82406 10180 20150 39890 40170 53007 61000 76062 8257/ 90900 333 ////=
07481,1997-06-16 12:00:00,17,1017.1,-0.1,88,15,9000,7.408,,,30,,,,0,,,,,,60,wg-a,,,,AAXX 16124 07481 02759 80304 10170 20150 39890 40171 55001 60016 76062 8257/ 91200 333 60007=
07481,1997-06-16 18:00:00,17,1015.4,-0.5,88,15,10000,3.704,,,100,16.2,19.3,,,,,,,,25,wg-a,,,,AAXX 16184 07481 02460 71002 10170 20150 39874 40154 58005 61000 72586 8228/ 91800 333 10193 20162 6001=
07481,1997-06-17 00:00:00,16,1016.9,0.5,94,15,10000,7.408,,,130,,,,0,,,,,,,wg-a,,,,AAXX 17004 07481 02/60 21304 10160 20150 39884 40169 50005 60006 82080 90000 333 60007=
07481,1997-06-17 03:00:00,14,1017.2,0.5,100,14,500,3.704,,,310,,,,,,,,,,,wg-a,,,,AAXX 17034 07481 12500 73102 10140 20140 39889 40172 53005 60006 875// 90300=
07481,1997-06-17 06:00:00,15,1017.8,0.6,94,14,15000,3.704,,,310,13.5,17.4,,,,,2,,,,wg-a,,,,AAXX 17064 07481 02665 /3102 10150 20140 39895 40178 51006 60006 83532 90600 333 10174 20135 60024=
07481,1997-06-17 12:00:00,21,1017.3,-0.2,53,11,11000,7.408,,,330,,,,,,,,,,,wg-a,,,,AAXX 17124 07481 12/61 /3304 10210 20110 39896 40173 58002 60006 91200=
07481,1997-06-17 15:00:00,22,1016.2,-1,46,10,500,11.112,,,40,,,,,,,,,,,wg-a,,,,AAXX 17154 07481 12600 50406 10220 20100 39886 40162 58010 60006 82201 91500=
07481,1997-06-17 18:00:00,21,1015.8,-0.5,56,12,500,11.112,,,20,15.1,23,,,,,,,,,wg-a,,,,AAXX 17184 07481 12700 /0206 10210 20120 39881 40158 56005 60006 81832 91800 333 10230 20151=
07481,1997-06-17 21:00:00,17,1017.9,1.7,77,13,500,11.112,,,10,,,,,,,,,,,wg-a,,,,AAXX 17214 07481 12/00 20106 10170 20130 39898 40179 53017 60006 81032 92100=
07481,1997-06-18 00:00:00,15,1018.4,0.2,88,13,500,3.704,,,320,,,,,,,,,,,wg-a,,,,AAXX 18004 07481 12/00 33202 10150 20130 39900 40184 50002 60006 83030 90000=
07481,1997-06-18 03:00:00,13,1018.4,-0.1,94,12,500,0,,,0,,,,,,,,,,,wg-a,,,,AAXX 18034 07481 12/00 10000 10130 20120 39899 40184 58001 60006 81010 90300=
07481,1997-06-18 06:00:00,15,1018.2,-0.1,88,13,500,3.704,,,340,12.2,21.2,,,,,,,,,wg-a,,,,AAXX 18064 07481 02/00 13402 10150 20130 39899 40182 56001 60006 81010 90600 333 10212 20122 60004=
07481,1997-06-18 09:00:00,19,1017.7,-0.1,64,12,40000,14.816,,,350,,,,,,,,,,,wg-a,,,,AAXX 18094 07481 12582 33508 10190 20120 39898 40177 58001 60006 83200 90900=
07481,1997-06-18 12:00:00,21,1017.2,-0.4,53,11,40000,18.52,,,10,,,,,,,,,,,wg-a,,,,AAXX 18124 07481 12682 40110 10210 20110 39894 40172 57004 60006 84230 91200=
07481,1997-06-18 15:00:00,22,1015.1,-1.9,50,11,40000,22.224,,,350,,,,,,,,,,,wg-a,,,,AAXX 18154 07481 12682 23512 10220 20110 39875 40151 58019 60006 82200 91500=
07481,1997-06-18 18:00:00,21,1014.3,-0.8,49,10,40000,22.224,,,360,15.3,22.6,,,,,,,,,wg-a,,,,AAXX 18184 07481 12/82 43612 10210 20100 39867 40143 57008 60006 80001 91800 333 10226 20153=
07481,1997-06-18 21:00:00,17,1014.2,-0.6,68,11,500,11.112,,,10,,,,,,,,,,,wg-a,,,,AAXX 18214 07481 12/00 40106 10170 20110 39862 40142 57006 60006 80001 92100=
07481,1997-06-19 00:00:00,14,1013.5,-0.9,77,10,10000,7.408,,,290,,,,,,,,,,,wg-a,,,,AAXX 19004 07481 12/60 /2904 10140 20100 39852 40135 58009 60006 90000=
07481,1997-06-19 03:00:00,13,1011.6,-2,82,10,20000,3.704,,,330,,,,,,,,,,,wg-a,,,,AAXX 19034 07481 12/70 33302 10130 20100 39832 40116 56020 60006 80001 90300=
07481,1997-06-19 06:00:00,14,1011.1,-0.5,77,10,20000,3.704,,,10,11.4,21.4,,,,,,,,,wg-a,,,,AAXX 19064 07481 02/70 50102 10140 20100 39828 40111 56005 60006 81082 90600 333 10214 20114 60004=
07481,1997-06-19 12:00:00,23,1008.2,-1.2,41,9,500,11.112,,,360,,,,,,,,,,,wg-a,,,,AAXX 19124 07481 12600 /3606 10230 20090 39808 40082 58012 60006 81102 91200=
07481,1997-06-19 15:00:00,22,1007.6,-0.6,43,9,20000,11.112,,,330,,,,,,,,,,,wg-a,,,,AAXX 19154 07481 12770 73306 10220 20090 39802 40076 55006 60006 82852 91500=
07481,1997-06-19 18:00:00,18,1009.2,1.2,59,10,20000,3.704,,,330,13.7,23.3,,,,,,,,,wg-a,,,,AAXX 19184 07481 12870 73302 10180 20100 39814 40092 53012 60006 82552 91800 333 10233 20137=
07481,1997-06-19 21:00:00,17,1009.8,0.5,72,12,20000,7.408,,,200,,,,,,,,,,,wg-a,,,,AAXX 19214 07481 12770 42004 10170 20120 39819 40098 53005 60006 81130 92100=
07481,1997-06-20 00:00:00,15,1010.7,0.7,88,13,20000,3.704,,,60,,,,,,,,,,,wg-a,,,,AAXX 20004 07481 12770 70602 10150 20130 39826 40107 53007 60006 8117/ 90000=
07481,1997-06-20 03:00:00,13,1011.9,0.9,88,11,15000,11.112,,,340,,,,1,,,,,,61,wg-a,,,,AAXX 20034 07481 12565 83406 10130 20110 39835 40119 51009 60017 76186 878// 90300=
07481,1997-06-20 06:00:00,13,1012.3,0.5,94,12,25000,7.408,,,100,12.2,18.5,,,,,1,,,1,wg-a,,,,AAXX 20064 07481 02475 /1004 10130 20120 39839 40123 51005 60006 70186 81832 90600 333 10185 20122 60014=
07481,1997-06-20 09:00:00,17,1012.1,0.1,59,9,500,3.704,,,40,,,,,,,,,,,wg-a,,,,AAXX 20094 07481 12500 70402 10170 20090 39841 40121 51001 60006 83201 90900=
07481,1997-06-20 12:00:00,20,1010.3,-1.4,46,8,35000,11.112,,,180,,,,,,,,,,,wg-a,,,,AAXX 20124 07481 12681 71806 10200 20080 39826 40103 58014 60006 82102 91200=
07481,1997-06-20 15:00:00,23,1008,-2,41,9,35000,7.408,,,170,,,,,,,,,,,wg-a,,,,AAXX 20154 07481 12781 /1704 10230 20090 39807 40080 56020 60006 84802 91500=
07481,1997-06-20 18:00:00,23,1006.5,-1.5,41,9,35000,11.112,,,200,12.9,23.3,,,,,,,,,wg-a,,,,AAXX 20184 07481 12781 62006 10230 20090 39792 40065 56015 60006 82132 91800 333 10233 20129=
07481,1997-06-20 21:00:00,20,1006.7,0.1,56,11,40000,14.816,,,160,,,,,,,,,,,wg-a,,,,AAXX 20214 07481 12782 61608 10200 20110 39792 40067 52001 60006 83541 92100=
07481,1997-06-21 00:00:00,19,1006.8,0,56,10,40000,18.52,,,200,,,,,,,,,,,wg-a,,,,AAXX 21004 07481 12882 72010 10190 20100 39792 40068 50000 60006 8707/ 90000=
07481,1997-06-21 03:00:00,17,1006.5,-0.5,77,13,15000,25.928,,,190,,,,0,,,,,,61,wg-a,,,,AAXX 21034 07481 12665 81914 10170 20130 39787 40065 56005 60007 76162 8357/ 90300=
07481,1997-06-21 06:00:00,16,1006.5,-0.1,88,14,15000,22.224,,,140,15.6,23.2,,,,,,,,21,wg-a,,,,AAXX 21064 07481 02665 81412 10160 20140 39786 40065 56001 61000 72162 8257/ 90600 333 10232 20156 6002=
07481,1997-06-21 12:00:00,21,1004.1,-1.7,69,15,15000,22.224,,,210,,,,,,,,,,1,wg-a,,,,AAXX 21124 07481 02565 72112 10210 20150 39768 40041 56017 61000 70162 8487/ 91200 333 6100=
07481,1997-06-21 18:00:00,13,1005.4,1.1,100,13,6000,14.816,,,30,13,22.2,,,,,,,,63,wg-a,,,,AAXX 21184 07481 02256 80308 10130 20130 39773 40054 51011 61000 76362 8582/ 91800 333 10222 20130 6016=
07481,1997-06-21 21:00:00,13,1007.4,1.8,100,13,8000,14.816,,,120,,,,12,,,,,,61,wg-a,,,,AAXX 21214 07481 12458 81208 10130 20130 39792 40074 51018 60127 76166 8582/ 92100=
07481,1997-06-22 00:00:00,13,1009.1,1.7,100,13,8000,14.816,,,90,,,,12,,,,,,61,wg-a,,,,AAXX 22004 07481 02458 80908 10130 20130 39808 40091 51017 60246 76166 8582/ 90000 333 60127=
07481,1997-06-22 03:00:00,12,1008.3,-0.9,100,12,8000,18.52,,,140,,,,15,,,,,,63,wg-a,,,,AAXX 22034 07481 12458 81410 10120 20120 39799 40083 56009 60157 76366 8582/ 90300=
07481,1997-06-22 06:00:00,12,1008.5,0.2,88,10,13000,11.112,,,130,11.3,13.6,,,,,,,,21,wg-a,,,,AAXX 22064 07481 02463 81306 10120 20100 39801 40085 53002 61000 72162 8582/ 90600 333 10136 20113 6056=
07481,1997-06-22 09:00:00,14,1008.6,0.4,88,12,500,7.408,,,120,,,,0,,,,,,1,wg-a,,,,AAXX 22094 07481 12400 51204 10140 20120 39805 40086 50004 60007 70162 84830 90900=
07481,1997-06-22 12:00:00,20,1007.5,-0.6,49,9,35000,14.816,,,210,,,,,,,,,,15,wg-a,,,,AAXX 22124 07481 12681 52108 10200 20090 39799 40075 58006 60016 71562 85800 91200=
07481,1997-06-22 15:00:00,17,1007.9,0.2,77,13,500,7.408,,,290,,,,1,,,,,,16,wg-a,,,,AAXX 22154 07481 12600 52904 10170 20130 39801 40079 53002 60017 71686 85800 91500=
07481,1997-06-22 18:00:00,16,1008.7,0.6,77,12,500,7.408,,,90,11.5,20.6,,7,,,,,,29,wg-a,,,,AAXX 22184 07481 02500 50904 10160 20120 39808 40087 53006 60006 72998 85900 91800 333 10206 20115 60077=
07481,1997-06-22 21:00:00,15,1011.3,2.5,72,10,500,7.408,,,270,,,,,,,,,,,wg-a,,,,AAXX 22214 07481 12500 72704 10150 20100 39832 40113 51025 60006 878// 92100=
07481,1997-06-23 00:00:00,15,1012.3,0.9,72,10,500,3.704,,,300,,,,,,,,,,,wg-a,,,,AAXX 23004 07481 12600 /3002 10150 20100 39841 40123 51009 60006 86800 90000=
07481,1997-06-23 03:00:00,13,1012.3,-0.1,77,9,500,7.408,,,240,,,,,,,,,,,wg-a,,,,AAXX 23034 07481 12600 72404 10130 20090 39840 40123 56001 60006 875// 90300=
07481,1997-06-23 06:00:00,14,1013.2,0.9,72,9,35000,7.408,,,200,12.7,16.9,,,,,8,,,,wg-a,,,,AAXX 23064 07481 02681 /2004 10140 20090 39849 40132 52009 60006 83850 90600 333 10169 20127 60084=
07481,1997-06-23 09:00:00,16,1013.9,0.9,59,8,45000,3.704,,,210,,,,,,,,,,,wg-a,,,,AAXX 23094 07481 12683 72102 10160 20080 39858 40139 51009 60006 8683/ 90900=
07481,1997-06-23 12:00:00,17,1014.4,0.6,63,10,35000,7.408,,,90,,,,1,,,,,,1,wg-a,,,,AAXX 23124 07481 02681 70904 10170 20100 39864 40144 50006 60016 70186 8683/ 91200 333 60017=
07481,1997-06-23 15:00:00,18,1014.5,0.2,59,10,40000,7.408,,,330,,,,,,,,,,25,wg-a,,,,AAXX 23154 07481 02682 73304 10180 20100 39866 40145 53002 61000 72586 878// 91500 333 ////=
07481,1997-06-23 18:00:00,16,1014.4,-0.3,82,13,500,7.408,,,120,13.7,19.8,,,,,,,,25,wg-a,,,,AAXX 23184 07481 02500 /1204 10160 20130 39863 40144 56003 61000 72586 81240 91800 333 10198 20137 6002=
07481,1997-06-24 00:00:00,13,1017.4,0.9,94,12,500,11.112,,,50,,,,1,,,,,,1,wg-a,,,,AAXX 24004 07481 02500 /0506 10130 20120 39889 40174 52009 60026 70196 82270 90000 333 60017=
07481,1997-06-24 03:00:00,13,1017,-0.4,94,12,500,7.408,,,170,,,,1,,,,,,21,wg-a,,,,AAXX 24034 07481 12500 71704 10130 20120 39885 40170 58004 60017 72162 8487/ 90300=
07481,1997-06-24 06:00:00,14,1017.4,0.5,88,12,8000,0,,,0,12.7,16.3,,,,,,,,60,wg-a,,,,AAXX 24064 07481 02558 70000 10140 20120 39890 40174 53005 61000 76062 8527/ 90600 333 10163 20127 6007=
07481,1997-06-24 09:00:00,14,1019.1,1.6,82,11,10000,14.816,,,300,,,,1,,,,,,25,wg-a,,,,AAXX 24094 07481 12460 83008 10140 20110 39906 40191 51016 60017 72586 8387/ 90900=
07481,1997-06-24 12:00:00,17,1018.3,-0.4,63,10,15000,7.408,,,330,,,,,,,,,,1,wg-a,,,,AAXX 24124 07481 02465 73304 10170 20100 39902 40183 58004 60016 70186 83270 91200 333 61000=
07481,1997-06-24 15:00:00,18,1017.5,-0.7,52,8,20000,14.816,,,340,,,,,,,,,,,wg-a,,,,AAXX 24154 07481 12470 73408 10180 20080 39895 40175 58007 60006 83270 91500=
07481,1997-06-24 18:00:00,17,1017.1,-0.5,59,9,20000,18.52,,,20,13.6,18.9,,,,,,,,,wg-a,,,,AAXX 24184 07481 12670 50210 10170 20090 39890 40171 55005 60006 81240 91800 333 10189 20136=
07481,1997-06-24 21:00:00,13,1017.5,-0,82,10,20000,7.408,,,40,,,,,,,,,,,wg-a,,,,AAXX 24214 07481 12/70 10404 10130 20100 39890 40175 54000 60006 81031 92100=
07481,1997-06-25 00:00:00,11,1016.9,-0.8,87,9,20000,0,,,0,,,,,,,,,,,wg-a,,,,AAXX 25004 07481 12/70 10000 10110 20090 39882 40169 58008 60006 81030 90000=
07481,1997-06-25 03:00:00,10,1015.8,-1.2,93,9,12000,3.704,,,140,,,,,,,,,,,wg-a,,,,AAXX 25034 07481 12/62 21402 10100 20090 39870 40158 56012 60006 80001 90300=
07481,1997-06-25 06:00:00,12,1014.5,-1.1,88,10,10000,3.704,,,150,9,17.3,,,,,1,,,,wg-a,,,,AAXX 25064 07481 02/60 41502 10120 20100 39859 40145 58011 60006 80001 90600 333 10173 20090 60014=
07481,1997-06-25 09:00:00,17,1012.2,-1.7,63,10,15000,3.704,,,200,,,,,,,,,,,wg-a,,,,AAXX 25094 07481 12565 /2002 10170 20100 39842 40122 58017 60006 81134 90900=
07481,1997-06-25 12:00:00,19,1010.5,-1.4,49,8,40000,3.704,,,140,,,,,,,,,,,wg-a,,,,AAXX 25124 07481 12682 71402 10190 20080 39828 40105 58014 60006 81132 91200=
07481,1997-06-25 15:00:00,19,1008.4,-2.1,52,9,50000,11.112,,,110,,,,,,,,,,,wg-a,,,,AAXX 25154 07481 12684 71106 10190 20090 39807 40084 58021 60006 8353/ 91500=
07481,1997-06-25 18:00:00,18,1006.6,-1.8,64,11,50000,11.112,,,140,11.7,20.3,,,,,,,,60,wg-a,,,,AAXX 25184 07481 02684 71406 10180 20110 39789 40066 58018 61000 76062 8387/ 91800 333 10203 20117 6100=
07481,1997-06-25 21:00:00,18,1006.4,-0.2,59,10,27000,25.928,,,200,,,,,,,,,,3,wg-a,,,,AAXX 25214 07481 02777 72014 10180 20100 39787 40064 55002 61000 70362 8557/ 92100 333 ////=
07481,1997-06-26 00:00:00,17,1004.4,-2,72,12,20000,25.928,,,190,,,,,,,,,,3,wg-a,,,,AAXX 26004 07481 02570 81914 10170 20120 39767 40044 58020 61000 70362 8557/ 90000 333 6100=
07481,1997-06-26 03:00:00,16,1002.8,-1.7,82,13,12000,29.632,,,200,,,,1,,,,,,80,wg-a,,,,AAXX 26034 07481 12562 82016 10160 20130 39750 40028 57017 60017 78086 8687/ 90300=
07481,1997-06-26 06:00:00,17,1002.2,-0.5,82,14,12000,18.52,,,200,15.9,18.3,,,,,1,,,2,wg-a,,,,AAXX 26064 07481 02562 82010 10170 20140 39745 40022 57005 60006 70286 84872 90600 333 10183 20159 60014=
07481,1997-06-26 12:00:00,18,1000.8,-0.9,68,12,20000,25.928,,,190,,,,,,,,,,,wg-a,,,,AAXX 26124 07481 12570 71914 10180 20120 39733 40008 56009 60006 83872 91200=
07481,1997-06-26 15:00:00,19,998.9,-1.8,64,12,20000,25.928,,,180,,,,,,,,,,,wg-a,,,,AAXX 26154 07481 12570 71814 10190 20120 39715 49989 58018 60006 83872 91500=
07481,1997-06-26 18:00:00,19,998.3,-0.6,64,12,20000,29.632,,,200,16.6,20.4,,,,,,,,,wg-a,,,,AAXX 26184 07481 12670 72016 10190 20120 39709 49983 56006 60006 84802 91800 333 10204 20166=
07481,1997-06-26 21:00:00,16,999.8,1.2,88,14,15000,22.224,,,210,,,,1,,,,,,80,wg-a,,,,AAXX 26214 07481 12665 72112 10160 20140 39721 49998 51012 60017 78086 8227/ 92100=
07481,1997-06-27 00:00:00,15,999.9,-0,88,13,25000,22.224,,,200,,,,,,,,,,3,wg-a,,,,AAXX 27004 07481 02875 52012 10150 20130 39721 49999 55000 60016 70386 8/040 90000 333 61000=
07481,1997-06-27 03:00:00,14,999.9,-0.2,88,12,25000,11.112,,,210,,,,,,,,,,1,wg-a,,,,AAXX 27034 07481 02675 32106 10140 20120 39719 49999 58002 61000 70161 82540 90300 333 ////=
07481,1997-06-27 06:00:00,14,1001.1,1.2,63,7,35000,14.816,,,210,12.6,19.2,,,,,1,,,1,wg-a,,,,AAXX 27064 07481 02581 22108 10140 20070 39731 40011 51012 60006 70161 81840 90600 333 10192 20126 60014=
07481,1997-06-27 09:00:00,17,1001,0.2,48,6,40000,18.52,,,180,,,,,,,,,,,wg-a,,,,AAXX 27094 07481 12582 31810 10170 20060 39733 40010 51002 60006 82840 90900=
07481,1997-06-27 12:00:00,19,1001.1,0.3,40,5,40000,22.224,,,230,,,,,,,,,,,wg-a,,,,AAXX 27124 07481 12782 62312 10190 20050 39736 40011 53003 60006 86200 91200=
07481,1997-06-27 18:00:00,19,1002.5,1.2,52,9,40000,11.112,,,250,13.9,19.9,,,,,,,,,wg-a,,,,AAXX 27184 07481 12782 52506 10190 20090 39749 40025 53012 60006 82240 91800 333 10199 20139=
07481,1997-06-28 00:00:00,13,1006.6,1.3,72,8,500,3.704,,,230,,,,,,,,,,,wg-a,,,,AAXX 28004 07481 12/00 32302 10130 20080 39784 40066 51013 60006 83030 90000=
07481,1997-06-28 06:00:00,13,1008.1,1,72,8,500,3.704,,,180,9.6,18.9,,,,,,,,,wg-a,,,,AAXX 28064 07481 02700 11802 10130 20080 39799 40081 53010 60006 81501 90600 333 10189 20096 60004=
07481,1997-06-28 09:00:00,18,1008.3,0.6,49,7,500,7.408,,,110,,,,,,,,,,,wg-a,,,,AAXX 28094 07481 12/00 71104 10180 20070 39805 40083 50006 60006 80002 90900=
07481,1997-06-28 12:00:00,20,1008,-0.1,53,10,500,3.704,,,70,,,,,,,,,,,wg-a,,,,AAXX 28124 07481 12/00 70702 10200 20100 39804 40080 58001 60006 81032 91200=
07481,1997-06-28 15:00:00,22,1006.3,-1.5,43,9,500,7.408,,,350,,,,,,,,,,,wg-a,,,,AAXX 28154 07481 12/00 73504 10220 20090 39789 40063 58015 60006 81082 91500=
07481,1997-06-28 18:00:00,20,1007.1,0.6,56,11,500,14.816,,,180,13.5,22.2,,,,,,,,60,wg-a,,,,AAXX 28184 07481 02/00 71808 10200 20110 39795 40071 53006 61000 76062 8707/ 91800 333 10222 20135 6100=
07481,1997-06-28 21:00:00,16,1005.9,-1.5,82,13,25000,3.704,,,290,,,,0,,,,,,21,wg-a,,,,AAXX 28214 07481 12675 82902 10160 20130 39780 40059 56015 60007 72162 875// 92100=
07481,1997-06-29 00:00:00,15,1005,-1,88,13,12000,11.112,,,230,,,,1,,,,,,61,wg-a,,,,AAXX 29004 07481 02462 82306 10150 20130 39770 40050 55010 60016 76162 885// 90000 333 60017=
07481,1997-06-29 03:00:00,13,1002.6,-2.4,100,13,4500,0,,,0,,,,3,,,,,,10,wg-a,,,,AAXX 29034 07481 12245 70000 10130 20130 39746 40026 56024 60037 71062 83572 90300=
07481,1997-06-29 06:00:00,14,1003.1,0.5,94,13,2000,3.704,,,290,12.7,19.8,,,,,4,,,10,wg-a,,,,AAXX 29064 07481 02120 72902 10140 20130 39751 40031 53005 60006 71062 83572 90600 333 10198 20127 60044=
07481,1997-06-29 09:00:00,18,1002.6,-0.1,77,14,20000,11.112,,,70,,,,,,,,,,,wg-a,,,,AAXX 29094 07481 12470 60706 10180 20140 39750 40026 58001 60006 83280 90900=
07481,1997-06-29 12:00:00,21,1001.7,-0.6,56,12,500,22.224,,,200,,,,0,,,,,,25,wg-a,,,,AAXX 29124 07481 02400 62012 10210 20120 39744 40017 58006 60016 72586 83280 91200 333 60007=
07481,1997-06-29 15:00:00,22,1000.8,-0.8,38,7,50000,29.632,,,200,,,,,,,,,,,wg-a,,,,AAXX 29154 07481 12684 42016 10220 20070 39736 40008 58008 60006 82230 91500=
07481,1997-06-29 18:00:00,19,1001.8,0.7,52,9,50000,46.3,,62.968,230,13.6,22.9,,,,,,,,,wg-a,,,,AAXX 29184 07481 12684 42325 10190 20090 39743 40018 50007 60006 81230 91800 333 10229 20136 91034=
07481,1997-06-29 21:00:00,16,1005.2,3,68,10,500,25.928,,,200,,,,,,,,,,,wg-a,,,,AAXX 29214 07481 12700 62014 10160 20100 39773 40052 51030 60006 81431 92100=
07481,1997-06-30 00:00:00,14,1006.6,1.2,82,11,20000,18.52,,,210,,,,0,,,,,,60,wg-a,,,,AAXX 30004 07481 02670 72110 10140 20110 39785 40066 53012 60006 76061 8257/ 90000 333 60007=
07481,1997-06-30 03:00:00,13,1006.9,0.2,88,11,20000,18.52,,,190,,,,1,,,,,,60,wg-a,,,,AAXX 30034 07481 12670 71910 10130 20110 39787 40069 51002 60017 76062 8457/ 90300=
07481,1997-06-30 06:00:00,13,1008,1.1,88,11,25000,18.52,,,190,13.2,18.7,,,,,1,,,3,wg-a,,,,AAXX 30064 07481 02575 81910 10130 20110 39798 40080 53011 60006 70362 8357/ 90600 333 10187 20132 60014=
07481,1997-06-30 09:00:00,14,1008.7,0.8,77,10,20000,22.224,,,190,,,,0,,,,,,3,wg-a,,,,AAXX 30094 07481 12570 71912 10140 20100 39806 40087 51008 60007 70362 8487/ 90900=
07481,1997-06-30 12:00:00,18,1008.3,-0.1,64,11,20000,29.632,,,190,,,,,,,,,,3,wg-a,,,,AAXX 30124 07481 12570 71916 10180 20110 39805 40083 57001 60006 70362 8497/ 91200=
07481,1997-06-30 15:00:00,17,1008,-0.4,68,11,18000,18.52,,,180,,,,0,,,,,,17,wg-a,,,,AAXX 30154 07481 12568 71810 10170 20110 39801 40080 55004 60007 71798 87902 91500=
07481,1997-06-30 18:00:00,16,1009.2,1,82,13,500,22.224,,,160,11.5,18.9,,37,,,,,,17,wg-a,,,,AAXX 30184 07481 02500 71612 10160 20130 39811 40092 50010 60006 71798 879// 91800 333 10189 20115 60377=
07481,1997-06-30 21:00:00,15,1011.1,1.9,82,12,11000,14.816,,,180,,,,,,,,,,,wg-a,,,,AAXX 30214 07481 32/61 /1808 10150 20120 39830 40111 51019 92100=
07481,1997-07-01 00:00:00,15,1011.3,0.1,88,13,35000,18.52,,,200,,,,0,,,,,,1,wg-a,,,,AAXX 01004 07481 02781 62010 10150 20130 39831 40113 50001 60016 70198 86500 90000 333 60007=
07481,1997-07-01 03:00:00,14,1011.6,0.3,88,12,20000,11.112,,,210,,,,,,,,,,21,wg-a,,,,AAXX 01034 07481 02770 72106 10140 20120 39834 40116 51003 61000 72162 875// 90300 333 ////=
07481,1997-07-01 06:00:00,15,1013.1,1.5,82,12,35000,11.112,,,200,13.8,15.7,,,,,39,,,1,wg-a,,,,AAXX 01064 07481 02581 32006 10150 20120 39849 40131 53015 60006 70161 83800 90600 333 10157 20138 60394=
07481,1997-07-01 12:00:00,21,1012.3,-0.9,40,7,40000,11.112,,,170,,,,,,,,,,,wg-a,,,,AAXX 01124 07481 12582 51706 10210 20070 39847 40123 58009 60006 85800 91200=
07481,1997-07-01 15:00:00,22,1011.5,-0.7,41,8,35000,25.928,,42.596,200,,,,,,,,,,,wg-a,,,,AAXX 01154 07481 12681 /2014 10220 20080 39840 40115 58007 60006 84801 91500 333 91023=
07481,1997-07-01 18:00:00,21,1011.2,-0.4,49,10,500,25.928,,,200,14.6,22.3,,,,,,,,,wg-a,,,,AAXX 01184 07481 12600 52014 10210 20100 39836 40112 55004 60006 82802 91800 333 10223 20146=
07481,1997-07-01 21:00:00,19,1012.9,1.5,64,12,20000,11.112,,33.336,190,,,,0,,,,,,25,wg-a,,,,AAXX 01214 07481 12670 61906 10190 20120 39851 40129 51015 60007 72586 83882 92100 333 91018=
07481,1997-07-02 00:00:00,17,1012.2,-0.8,72,12,15000,11.112,,,160,,,,,,,,,,1,wg-a,,,,AAXX 02004 07481 12765 61606 10170 20120 39843 40122 58008 60016 70186 835/2 90000=
07481,1997-07-02 03:00:00,17,1011.6,-0.7,63,10,15000,18.52,,,160,,,,,,,,,,,wg-a,,,,AAXX 02034 07481 12765 61610 10170 20100 39836 40116 57007 60006 835/2 90300=
07481,1997-07-02 06:00:00,16,1011.3,-0.4,72,11,11000,14.816,,,140,15.4,21.2,,,,,1,,,,wg-a,,,,AAXX 02064 07481 02/61 /1408 10160 20110 39832 40113 58004 60006 90600 333 10212 20154 60014=
07481,1997-07-02 09:00:00,18,1010.1,-0.9,68,12,60000,14.816,,,140,,,,0,,,,,,1,wg-a,,,,AAXX 02094 07481 12786 71408 10180 20120 39823 40101 58009 60007 70162 8357/ 90900=
07481,1997-07-02 12:00:00,22,1009.2,-0.5,41,8,75000,25.928,,55.56,190,,,,,,,,,,1,wg-a,,,,AAXX 02124 07481 12789 51914 10220 20080 39818 40092 55005 60006 70162 81540 91200 333 91030=
07481,1997-07-02 15:00:00,21,1009.8,0.4,43,8,75000,29.632,,,200,,,,,,,,,,60,wg-a,,,,AAXX 02154 07481 02389 72016 10210 20080 39822 40098 53004 61000 76062 8384/ 91500 333 ////=
07481,1997-07-02 18:00:00,17,1012.3,2.1,77,13,500,14.816,,,210,15.5,23.7,,,,,,,,60,wg-a,,,,AAXX 02184 07481 02500 72108 10170 20130 39843 40123 51021 61000 76062 8494/ 91800 333 10237 20155 6001=
07481,1997-07-02 21:00:00,15,1014.6,2.1,94,14,10000,11.112,,,120,,,,2,,,,,,60,wg-a,,,,AAXX 02214 07481 12460 71206 10150 20140 39864 40146 51021 60027 76062 8394/ 92100=
07481,1997-07-03 00:00:00,14,1015,0.3,100,14,13000,7.408,,,130,,,,1,,,,,,60,wg-a,,,,AAXX 03004 07481 02563 71304 10140 20140 39867 40150 51003 60046 76062 8587/ 90000 333 60017=
07481,1997-07-03 03:00:00,14,1014.9,-0.1,100,14,7000,7.408,,,330,,,,0,,,,,,60,wg-a,,,,AAXX 03034 07481 12257 83304 10140 20140 39866 40149 55001 60007 76062 875// 90300=
07481,1997-07-03 06:00:00,13,1015.5,0.5,100,13,13000,11.112,,,40,13.2,16.6,,,,,5,,,3,wg-a,,,,AAXX 03064 07481 02363 80406 10130 20130 39871 40155 53005 60006 70362 878// 90600 333 10166 20132 60054=
07481,1997-07-03 12:00:00,14,1017.8,0.3,88,12,15000,7.408,,,350,,,,1,,,,,,21,wg-a,,,,AAXX 03124 07481 02465 83504 10140 20120 39894 40178 53003 60056 72162 8687/ 91200 333 60017=
07481,1997-07-03 15:00:00,15,1017.9,0.2,94,14,25000,7.408,,,120,,,,1,,,,,,60,wg-a,,,,AAXX 03154 07481 12475 71204 10150 20140 39896 40179 53002 60017 76062 8487/ 91500=
07481,1997-07-03 18:00:00,14,1017.6,-0.4,94,13,15000,7.408,,,110,12.7,16,,,,,,,,60,wg-a,,,,AAXX 03184 07481 02465 81104 10140 20130 39892 40176 56004 61000 76062 8587/ 91800 333 10160 20127 6001=
07481,1997-07-03 21:00:00,14,1019.2,1.5,94,13,12000,7.408,,,300,,,,,,,,,,3,wg-a,,,,AAXX 03214 07481 02262 83004 10140 20130 39907 40192 53015 61000 70362 875// 92100 333 ////=
07481,1997-07-04 00:00:00,14,1019,-0.2,94,13,10000,3.704,,,290,,,,,,,,,,1,wg-a,,,,AAXX 04004 07481 02560 72902 10140 20130 39905 40190 58002 61000 70162 8353/ 90000 333 ////=
07481,1997-07-04 06:00:00,14,1018.9,0.7,100,14,3500,3.704,,,280,12.9,14.5,,,,,7,,,10,wg-a,,,,AAXX 04064 07481 02135 72802 10140 20140 39905 40189 53007 60006 71022 875// 90600 333 10145 20129 60074=
07481,1997-07-04 09:00:00,15,1019.7,0.9,94,14,6000,3.704,,,30,,,,0,,,,,,21,wg-a,,,,AAXX 04094 07481 12356 80302 10150 20140 39914 40197 51009 60007 72162 875// 90900=
07481,1997-07-04 12:00:00,19,1019.5,0.1,73,14,500,3.704,,,200,,,,,,,,,,3,wg-a,,,,AAXX 04124 07481 12400 72002 10190 20140 39915 40195 51001 60006 70362 85231 91200=
07481,1997-07-04 15:00:00,19,1018.7,-0.8,78,15,7000,7.408,,,250,,,,1,,,,,,80,wg-a,,,,AAXX 04154 07481 12557 82504 10190 20150 39907 40187 55008 60017 78086 8398/ 91500=
07481,1997-07-04 18:00:00,16,1019.2,0.3,94,15,15000,7.408,,,280,13.7,20.3,,,,,,,,25,wg-a,,,,AAXX 04184 07481 02565 82804 10160 20150 39910 40192 53003 61000 72586 8698/ 91800 333 10203 20137 6001=
07481,1997-07-04 21:00:00,15,1019.8,0.4,88,13,20000,3.704,,,120,,,,,,,,,,,wg-a,,,,AAXX 04214 07481 12570 71202 10150 20130 39914 40198 53004 60006 8187/ 92100=
07481,1997-07-05 00:00:00,14,1019.8,-0.1,94,13,25000,7.408,,,10,,,,0,,,,,,,wg-a,,,,AAXX 05004 07481 02475 70104 10140 20130 39913 40198 58001 60006 8187/ 90000 333 60007=
07481,1997-07-05 06:00:00,13,1020.9,0.8,94,12,20000,3.704,,,310,12.9,16,,,,,,,,21,wg-a,,,,AAXX 05064 07481 02470 83102 10130 20120 39923 40209 53008 61000 72162 8687/ 90600 333 10160 20129 6002=
07481,1997-07-05 09:00:00,15,1021.7,0.9,82,12,500,18.52,,,290,,,,1,,,,,,1,wg-a,,,,AAXX 05094 07481 12400 72910 10150 20120 39932 40217 51009 60017 70186 8687/ 90900=
07481,1997-07-05 12:00:00,17,1022.3,0.8,72,12,45000,14.816,,,320,,,,,,,,,,1,wg-a,,,,AAXX 05124 07481 12583 73208 10170 20120 39940 40223 50008 60016 70186 878// 91200=
07481,1997-07-05 15:00:00,17,1022.9,0.6,72,12,15000,25.928,,,30,,,,,,,,,,,wg-a,,,,AAXX 05154 07481 12565 70314 10170 20120 39946 40229 53006 60006 8587/ 91500=
07481,1997-07-05 18:00:00,14,1024.2,1.1,88,12,40000,7.408,,,350,12.9,17.6,,,,,,,,21,wg-a,,,,AAXX 05184 07481 02482 73504 10140 20120 39957 40242 51011 61000 72186 878// 91800 333 10176 20129 6000=
07481,1997-07-05 21:00:00,14,1026,1.7,94,13,25000,7.408,,,320,,,,,,,,,,,wg-a,,,,AAXX 05214 07481 12575 73204 10140 20130 39974 40260 53017 60006 878// 92100=
07481,1997-07-06 00:00:00,12,1026.6,0.4,94,11,25000,3.704,,,300,,,,,,,,,,,wg-a,,,,AAXX 06004 07481 12675 23002 10120 20110 39978 40266 51004 60006 82500 90000=
07481,1997-07-06 03:00:00,12,1026.7,-0,94,11,10000,7.408,,,70,,,,,,,,,,,wg-a,,,,AAXX 06034 07481 12560 70704 10120 20110 39978 40267 55000 60006 875// 90300=
07481,1997-07-06 06:00:00,13,1026.9,0.4,100,13,12000,11.112,,,360,11.3,14.5,,,,,1,,,,wg-a,,,,AAXX 06064 07481 02462 83606 10130 20130 39982 40269 53004 60006 885// 90600 333 10145 20113 60014=
07481,1997-07-06 09:00:00,16,1027.1,0.4,82,13,10000,18.52,,,360,,,,,,,,,,,wg-a,,,,AAXX 06094 07481 12360 73610 10160 20130 39986 40271 51004 60006 878// 90900=
07481,1997-07-06 12:00:00,18,1026.7,-0.2,68,12,20000,22.224,,,350,,,,,,,,,,,wg-a,,,,AAXX 06124 07481 12570 /3512 10180 20120 39984 40267 58002 60006 86800 91200=
07481,1997-07-06 18:00:00,20,1025.3,0,49,9,500,22.224,,,350,13.5,20.8,,,,,,,,,wg-a,,,,AAXX 06184 07481 12600 /3512 10200 20090 39972 40253 50000 60006 81100 91800 333 10208 20135=
07481,1997-07-06 21:00:00,15,1026.6,0.8,72,10,500,14.816,,,330,,,,,,,,,,,wg-a,,,,AAXX 06214 07481 12800 13308 10150 20100 39980 40266 51008 60006 81040 92100=
07481,1997-07-07 00:00:00,15,1026.2,-0.4,77,11,500,11.112,,,340,,,,,,,,,,,wg-a,,,,AAXX 07004 07481 12800 53406 10150 20110 39976 40262 58004 60006 85040 90000=
07481,1997-07-07 03:00:00,13,1025.5,-0.8,88,11,25000,11.112,,,350,,,,,,,,,,,wg-a,,,,AAXX 07034 07481 12875 63506 10130 20110 39968 40255 56008 60006 86050 90300=
07481,1997-07-07 06:00:00,15,1025.2,-0.1,82,12,13000,18.52,,,360,12.6,19.7,,,,,,,,,wg-a,,,,AAXX 07064 07481 02/63 13610 10150 20120 39967 40252 57001 60006 81041 90600 333 10197 20126 60004=
07481,1997-07-07 09:00:00,19,1023.7,-1.1,68,13,15000,29.632,,,360,,,,,,,,,,,wg-a,,,,AAXX 07094 07481 12565 23616 10190 20130 39956 40237 58011 60006 82101 90900=
07481,1997-07-07 12:00:00,21,1022.5,-1,56,12,500,29.632,,,350,,,,,,,,,,,wg-a,,,,AAXX 07124 07481 12500 23516 10210 20120 39946 40225 56010 60006 82101 91200=
07481,1997-07-07 15:00:00,23,1021.4,-0.9,44,10,500,31.484,,,360,,,,,,,,,,,wg-a,,,,AAXX 07154 07481 12600 23617 10230 20100 39937 40214 58009 60006 81101 91500=
07481,1997-07-07 18:00:00,22,1020.5,-1,46,10,500,29.632,,,350,14.8,22.7,,,,,,,,,wg-a,,,,AAXX 07184 07481 12600 /3516 10220 20100 39927 40205 56010 60006 81101 91800 333 10227 20148=
07481,1997-07-07 21:00:00,17,1021.1,0.2,68,11,500,14.816,,,350,,,,,,,,,,,wg-a,,,,AAXX 07214 07481 12/00 13508 10170 20110 39929 40211 53002 60006 80001 92100=
07481,1997-07-08 00:00:00,14,1020.8,-0.6,82,11,500,11.112,,,340,,,,,,,,,,,wg-a,,,,AAXX 08004 07481 12/00 03406 10140 20110 39923 40208 58006 60006 80000 90000=
07481,1997-07-08 06:00:00,14,1020.2,0.6,88,12,500,7.408,,,350,11.4,21.5,,,,,,,,,wg-a,,,,AAXX 08064 07481 02/00 13504 10140 20120 39917 40202 52006 60006 80001 90600 333 10215 20114 60004=
07481,1997-07-08 09:00:00,19,1019.5,-0.2,68,13,500,3.704,,,280,,,,,,,,,,,wg-a,,,,AAXX 08094 07481 12/00 12802 10190 20130 39915 40195 58002 60006 80001 90900=
07481,1997-07-08 12:00:00,23,1017.8,-1.3,53,13,500,14.816,,,360,,,,,,,,,,,wg-a,,,,AAXX 08124 07481 12500 43608 10230 20130 39902 40178 58013 60006 84101 91200=
07481,1997-07-08 15:00:00,25,1015.9,-1.6,50,14,500,22.224,,,340,,,,,,,,,,,wg-a,,,,AAXX 08154 07481 12600 43412 10250 20140 39886 40159 58016 60006 84101 91500=
07481,1997-07-08 18:00:00,24,1014.8,-1.2,50,13,500,22.224,,,350,13.8,25.4,,,,,,,,,wg-a,,,,AAXX 08184 07481 12700 23512 10240 20130 39874 40148 56012 60006 82400 91800 333 10254 20138=
07481,1997-07-08 21:00:00,19,1015.4,0.1,73,14,25000,7.408,,,10,,,,,,,,,,,wg-a,,,,AAXX 08214 07481 12/75 00104 10190 20140 39875 40154 53001 60006 80000 92100=
07481,1997-07-09 00:00:00,16,1015.3,-0.3,88,14,20000,7.408,,,300,,,,,,,,,,,wg-a,,,,AAXX 09004 07481 12/70 03004 10160 20140 39872 40153 57003 60006 80000 90000=
07481,1997-07-09 03:00:00,14,1014.9,-0.6,94,13,20000,3.704,,,280,,,,,,,,,,,wg-a,,,,AAXX 09034 07481 12/70 02802 10140 20130 39866 40149 56006 60006 80000 90300=
07481,1997-07-09 06:00:00,16,1015,0.3,88,14,15000,3.704,,,320,13.3,24.2,,,,,,,,,wg-a,,,,AAXX 09064 07481 02/65 03202 10160 20140 39869 40150 53003 60006 80000 90600 333 10242 20133 60004=
07481,1997-07-09 12:00:00,25,1013.1,-0.9,50,14,20000,3.704,,,10,,,,,,,,,,,wg-a,,,,AAXX 09124 07481 12670 /0102 10250 20140 39858 40131 58009 60006 81100 91200=
07481,1997-07-09 15:00:00,27,1011.4,-1.4,45,14,25000,0,,,0,,,,,,,,,,,wg-a,,,,AAXX 09154 07481 12675 /0000 10270 20140 39844 40114 56014 60006 81200 91500=
07481,1997-07-09 18:00:00,26,1011,-0.5,45,13,500,7.408,,,30,15.9,27.3,,,,,,,,,wg-a,,,,AAXX 09184 07481 12600 /0304 10260 20130 39839 40110 55005 60006 81903 91800 333 10273 20159=
07481,1997-07-10 00:00:00,20,1012.1,-0.1,73,15,500,7.408,,,160,,,,,,,,,,,wg-a,,,,AAXX 10004 07481 12/00 01604 10200 20150 39845 40121 55001 60006 80000 90000=
07481,1997-07-10 03:00:00,18,1011.6,-0.7,83,15,500,11.112,,,180,,,,,,,,,,,wg-a,,,,AAXX 10034 07481 12/00 01806 10180 20150 39838 40116 58007 60006 80000 90300=
07481,1997-07-10 06:00:00,19,1011.8,0.3,73,14,18000,7.408,,,180,17,26.2,,,,,,,,,wg-a,,,,AAXX 10064 07481 02/68 51804 10190 20140 39841 40118 53003 60006 85080 90600 333 10262 20170 60004=
07481,1997-07-10 09:00:00,24,1011.4,0,61,16,15000,3.704,,,160,,,,,,,,,,,wg-a,,,,AAXX 10094 07481 12/65 41602 10240 20160 39841 40114 50000 60006 84080 90900=
07481,1997-07-10 12:00:00,27,1010.2,-0.9,45,14,25000,18.52,,,200,,,,,,,,,,,wg-a,,,,AAXX 10124 07481 12675 22010 10270 20140 39832 40102 58009 60006 81980 91200=
07481,1997-07-10 15:00:00,23,1011,0.4,53,13,20000,14.816,,,250,,,,,,,,,,,wg-a,,,,AAXX 10154 07481 12670 /2508 10230 20130 39836 40110 53004 60006 82983 91500=
07481,1997-07-10 18:00:00,24,1011,0.1,47,12,25000,11.112,,,180,19.2,27.7,,,,,,,,,wg-a,,,,AAXX 10184 07481 12775 /1806 10240 20120 39837 40110 53001 60006 81283 91800 333 10277 20192=
07481,1997-07-11 00:00:00,18,1013.3,0.4,77,14,25000,0,,,0,,,,,,,,,,,wg-a,,,,AAXX 11004 07481 12/75 30000 10180 20140 39854 40133 50004 60006 81082 90000=
07481,1997-07-11 06:00:00,18,1014.1,0.8,83,15,12000,3.704,,,220,16.6,23.7,,,,,,,,,wg-a,,,,AAXX 11064 07481 02/62 12202 10180 20150 39862 40141 52008 60006 81081 90600 333 10237 20166 60004=
07481,1997-07-11 12:00:00,25,1013.3,-0.5,57,16,25000,11.112,,,10,,,,,,,,,,,wg-a,,,,AAXX 11124 07481 12675 20106 10250 20160 39861 40133 58005 60006 82200 91200=
07481,1997-07-11 15:00:00,25,1013.2,-0.1,57,16,500,14.816,,,310,,,,,,,,,,,wg-a,,,,AAXX 11154 07481 12600 73108 10250 20160 39860 40132 55001 60006 84906 91500=
07481,1997-07-11 18:00:00,22,1013.9,0.4,60,14,40000,11.112,,,330,18,26.3,,,,,,,,,wg-a,,,,AAXX 11184 07481 12682 /3306 10220 20140 39864 40139 53004 60006 81962 91800 333 10263 20180=
07481,1997-07-11 21:00:00,20,1015.9,1.7,68,14,500,0,,,0,,,,,,,,,,,wg-a,,,,AAXX 11214 07481 12700 50000 10200 20140 39881 40159 51017 60006 81532 92100=
07481,1997-07-12 00:00:00,17,1016,-0.1,94,16,500,3.704,,,300,,,,,,,,,,,wg-a,,,,AAXX 12004 07481 12/00 13002 10170 20160 39880 40160 58001 60006 80001 90000=
07481,1997-07-12 03:00:00,17,1016.3,0.3,94,16,20000,0,,,0,,,,,,,,,,,wg-a,,,,AAXX 12034 07481 12670 /0000 10170 20160 39883 40163 52003 60006 83501 90300=
07481,1997-07-12 06:00:00,18,1016.8,0.5,88,16,12000,3.704,,,330,16,21.9,,,,,,,,,wg-a,,,,AAXX 12064 07481 02562 73302 10180 20160 39888 40168 52005 60006 875// 90600 333 10219 20160 60004=
07481,1997-07-12 09:00:00,21,1016.7,0.2,78,17,15000,7.408,,,340,,,,,,,,,,,wg-a,,,,AAXX 12094 07481 12465 73404 10210 20170 39890 40167 50002 60006 878// 90900=
07481,1997-07-12 12:00:00,25,1015.4,-0.9,61,17,25000,11.112,,,320,,,,,,,,,,,wg-a,,,,AAXX 12124 07481 12575 53206 10250 20170 39881 40154 58009 60006 84201 91200=
07481,1997-07-12 15:00:00,26,1014.5,-0.7,51,15,500,11.112,,,340,,,,,,,,,,,wg-a,,,,AAXX 12154 07481 12600 33406 10260 20150 39874 40145 56007 60006 82201 91500=
07481,1997-07-12 18:00:00,26,1014.3,-0.3,54,16,500,11.112,,,20,18,26.9,,,,,,,,,wg-a,,,,AAXX 12184 07481 12700 /0206 10260 20160 39871 40143 55003 60006 81200 91800 333 10269 20180=
07481,1997-07-12 21:00:00,21,1015.6,0.9,78,17,20000,3.704,,,330,,,,,,,,,,,wg-a,,,,AAXX 12214 07481 12870 13302 10210 20170 39880 40156 53009 60006 81040 92100=
07481,1997-07-13 00:00:00,19,1016.2,0.3,83,16,20000,7.408,,,250,,,,,,,,,,,wg-a,,,,AAXX 13004 07481 12/70 02504 10190 20160 39883 40162 52003 60006 80000 90000=
07481,1997-07-13 03:00:00,17,1016.6,0.2,88,15,10000,7.408,,,150,,,,,,,,,,,wg-a,,,,AAXX 13034 07481 12/60 01504 10170 20150 39885 40166 52002 60006 80000 90300=
07481,1997-07-13 06:00:00,19,1016.9,0.5,83,16,12000,3.704,,,200,16.8,25.8,,,,,,,,,wg-a,,,,AAXX 13064 07481 02/62 12002 10190 20160 39890 40169 53005 60006 80001 90600 333 10258 20168 60004=
07481,1997-07-13 09:00:00,25,1016.8,0.5,61,17,15000,0,,,0,,,,,,,,,,,wg-a,,,,AAXX 13094 07481 12/65 40000 10250 20170 39895 40168 50005 60006 80001 90900=
07481,1997-07-13 12:00:00,29,1015.6,-0.8,48,17,20000,7.408,,,90,,,,,,,,,,,wg-a,,,,AAXX 13124 07481 12670 30904 10290 20170 39887 40156 58008 60006 82101 91200=
07481,1997-07-13 15:00:00,29,1015,-0.6,48,17,20000,3.704,,,350,,,,,,,,,,,wg-a,,,,AAXX 13154 07481 12670 73502 10290 20170 39881 40150 55006 60006 8233/ 91500=
07481,1997-07-13 18:00:00,24,1015.6,0.2,65,17,20000,7.408,,,160,19,29.8,,,,,,,,1,wg-a,,,,AAXX 13184 07481 12670 31604 10240 20170 39883 40156 51002 60006 70191 81931 91800 333 10298 20190=
07481,1997-07-13 21:00:00,22,1016.6,0.8,78,18,25000,3.704,,,210,,,,,,,,,,,wg-a,,,,AAXX 13214 07481 12775 42102 10220 20180 39891 40166 51008 60006 81531 92100=
07481,1997-07-14 00:00:00,19,1017.1,0.2,88,17,10000,0,,,0,,,,,,,,,,,wg-a,,,,AAXX 14004 07481 12/60 /0000 10190 20170 39893 40171 53002 60006 90000=
07481,1997-07-14 03:00:00,19,1017.2,0.1,88,17,20000,3.704,,,160,,,,,,,,,,,wg-a,,,,AAXX 14034 07481 12/70 31602 10190 20170 39894 40172 52001 60006 83030 90300=
07481,1997-07-14 06:00:00,20,1018.5,1.3,88,18,15000,0,,,0,18.6,24.4,,,,,,,,,wg-a,,,,AAXX 14064 07481 02/65 70000 10200 20180 39907 40185 53013 60006 87082 90600 333 10244 20186 60004=
07481,1997-07-14 09:00:00,24,1018.3,0.2,65,17,18000,7.408,,,280,,,,,,,,,,,wg-a,,,,AAXX 14094 07481 12668 62804 10240 20170 39909 40183 53002 60006 82281 90900=
07481,1997-07-14 12:00:00,20,1020.5,1.8,88,18,20000,22.224,,,340,,,,,,,,,,60,wg-a,,,,AAXX 14124 07481 02570 83412 10200 20180 39927 40205 53018 61000 76061 8497/ 91200 333 6100=
07481,1997-07-14 15:00:00,24,1020.1,-0.1,65,17,500,7.408,,,30,,,,0,,,,,,1,wg-a,,,,AAXX 14154 07481 12500 30304 10240 20170 39926 40201 58001 60007 70161 81281 91500=
07481,1997-07-14 18:00:00,24,1019.3,-0.8,65,17,40000,7.408,,,40,19.6,24.9,,,,,,,,3,wg-a,,,,AAXX 14184 07481 12582 50404 10240 20170 39918 40193 56008 60006 70361 81983 91800 333 10249 20196=
07481,1997-07-14 21:00:00,21,1020.5,0.9,83,18,40000,3.704,,,350,,,,,,,,,,,wg-a,,,,AAXX 14214 07481 12682 53502 10210 20180 39927 40205 53009 60006 81983 92100=
07481,1997-07-15 00:00:00,19,1021.4,0.7,88,17,40000,3.704,,,160,,,,,,,,,,,wg-a,,,,AAXX 15004 07481 12682 /1602 10190 20170 39934 40214 51007 60006 81181 90000=
07481,1997-07-15 03:00:00,17,1021.9,0.3,88,15,20000,3.704,,,130,,,,,,,,,,,wg-a,,,,AAXX 15034 07481 12/70 21302 10170 20150 39937 40219 51003 60006 80002 90300=
07481,1997-07-15 06:00:00,18,1021.9,0.1,88,16,15000,3.704,,,200,16.4,23.6,,,,,,,,,wg-a,,,,AAXX 15064 07481 02/65 12002 10180 20160 39938 40219 53001 60006 80001 90600 333 10236 20164 60004=
07481,1997-07-15 12:00:00,25,1021.7,-0.6,50,14,25000,18.52,,,360,,,,,,,,,,,wg-a,,,,AAXX 15124 07481 12675 43610 10250 20140 39942 40217 57006 60006 84100 91200=
07481,1997-07-15 18:00:00,25,1019.8,-0.7,50,14,35000,22.224,,,10,18.4,26.4,,,,,,,,,wg-a,,,,AAXX 15184 07481 12/81 10112 10250 20140 39924 40198 58007 60006 80002 91800 333 10264 20184=
07481,1997-07-15 21:00:00,20,1020.6,0.3,73,15,35000,7.408,,,350,,,,,,,,,,,wg-a,,,,AAXX 15214 07481 12/81 23504 10200 20150 39927 40206 51003 60006 80002 92100=
07481,1997-07-16 00:00:00,17,1020.2,-0.7,82,14,500,7.408,,,300,,,,,,,,,,,wg-a,,,,AAXX 16004 07481 12/00 23004 10170 20140 39920 40202 58007 60006 80002 90000=
07481,1997-07-16 03:00:00,15,1019,-1.3,94,14,25000,0,,,0,,,,,,,,,,,wg-a,,,,AAXX 16034 07481 12/75 50000 10150 20140 39907 40190 56013 60006 80002 90300=
07481,1997-07-16 06:00:00,17,1019.6,0.8,82,14,500,0,,,0,14.8,24.6,,,,,,,,,wg-a,,,,AAXX 16064 07481 02/00 40000 10170 20140 39915 40196 52008 60006 80001 90600 333 10246 20148 60004=
07481,1997-07-16 12:00:00,27,1016.5,-1.4,37,11,500,3.704,,,250,,,,,,,,,,,wg-a,,,,AAXX 16124 07481 12/00 52502 10270 20110 39893 40165 58014 60006 80001 91200=
07481,1997-07-16 15:00:00,29,1013.5,-2.7,40,14,35000,11.112,,,360,,,,,,,,,,,wg-a,,,,AAXX 16154 07481 12/81 53606 10290 20140 39866 40135 58027 60006 81082 91500=
07481,1997-07-16 18:00:00,28,1012.7,-0.9,42,14,500,7.408,,,70,17,29.1,,,,,,,,,wg-a,,,,AAXX 16184 07481 12/00 60704 10280 20140 39857 40127 56009 60006 81082 91800 333 10291 20170=
07481,1997-07-17 00:00:00,21,1012.6,-0.6,78,17,20000,3.704,,,330,,,,,,,,,,,wg-a,,,,AAXX 17004 07481 12/70 /3302 10210 20170 39851 40126 58006 60006 84030 90000=
07481,1997-07-17 03:00:00,20,1011.3,-1.4,83,17,20000,0,,,0,,,,,,,,,,,wg-a,,,,AAXX 17034 07481 12/70 50000 10200 20170 39837 40113 57014 60006 83032 90300=
07481,1997-07-17 06:00:00,19,1010.6,-0.7,88,17,15000,7.408,,,280,18.6,27.8,,,,,,,,,wg-a,,,,AAXX 17064 07481 02/65 52804 10190 20170 39830 40106 55007 60006 83082 90600 333 10278 20186 60004=
07481,1997-07-17 09:00:00,24,1010.2,-0,65,17,15000,3.704,,,20,,,,,,,,,,,wg-a,,,,AAXX 17094 07481 12/65 50202 10240 20170 39830 40102 55000 60006 85080 90900=
07481,1997-07-17 12:00:00,27,1009.1,-0.8,51,16,25000,14.816,,,340,,,,,,,,,,,wg-a,,,,AAXX 17124 07481 12575 /3408 10270 20160 39822 40091 58008 60006 81183 91200=
07481,1997-07-17 15:00:00,26,1008.8,-0.4,54,16,15000,22.224,,,10,,,,,,,,,,,wg-a,,,,AAXX 17154 07481 12665 70112 10260 20160 39818 40088 56004 60006 82283 91500=
07481,1997-07-17 18:00:00,21,1010,0.7,88,19,15000,7.408,,,220,19,27.9,,,,,,,,17,wg-a,,,,AAXX 17184 07481 02665 72204 10210 20190 39825 40100 51007 61000 71798 83373 91800 333 10279 20190 6014=
07481,1997-07-18 00:00:00,18,1012.7,0.2,88,16,18000,7.408,,,300,,,,,,,,,,3,wg-a,,,,AAXX 18004 07481 12768 63004 10180 20160 39849 40127 50002 60066 70398 85530 90000=
07481,1997-07-18 06:00:00,18,1013.9,1.2,77,14,40000,14.816,,,290,16.4,20.8,,,,,21,,,1,wg-a,,,,AAXX 18064 07481 02682 62908 10180 20140 39860 40139 53012 60006 70161 85830 90600 333 10208 20164 60214=
07481,1997-07-18 09:00:00,18,1014.2,0.3,83,15,25000,18.52,,,270,,,,,,,,,,25,wg-a,,,,AAXX 18094 07481 02675 /2710 10180 20150 39863 40142 50003 61000 72586 81230 90900 333 ////=
07481,1997-07-18 12:00:00,17,1015.9,1.5,82,14,25000,14.816,,,340,,,,0,,,,,,25,wg-a,,,,AAXX 18124 07481 02475 73408 10170 20140 39878 40159 53015 60016 72586 8287/ 91200 333 60007=
07481,1997-07-18 15:00:00,18,1015.7,-0.1,77,14,15000,7.408,,,150,,,,5,,,,,,29,wg-a,,,,AAXX 18154 07481 12565 71504 10180 20140 39877 40157 55001 60057 72998 873// 91500=
07481,1997-07-18 18:00:00,18,1017,1.3,73,13,25000,3.704,,,220,16.1,20.8,,,,,,,,29,wg-a,,,,AAXX 18184 07481 02475 22202 10180 20130 39890 40170 53013 61000 72998 81903 91800 333 10208 20161 6000=
07481,1997-07-18 21:00:00,14,1019.7,2.3,94,13,500,3.704,,,130,,,,0,,,,,,,wg-a,,,,AAXX 18214 07481 12600 51302 10140 20130 39913 40197 51023 60007 83260 92100=
07481,1997-07-19 00:00:00,13,1019.9,0,94,12,500,0,,,0,,,,,,,,,,1,wg-a,,,,AAXX 19004 07481 12/00 10000 10130 20120 39913 40199 50000 60006 70186 81042 90000=
07481,1997-07-19 03:00:00,12,1020.1,0.2,100,12,15000,3.704,,,200,,,,,,,,,,,wg-a,,,,AAXX 19034 07481 12/65 /2002 10120 20120 39915 40201 52002 60006 81030 90300=
07481,1997-07-19 06:00:00,13,1020.8,0.7,94,12,10000,0,,,0,11.4,17.8,,,,,6,,,,wg-a,,,,AAXX 19064 07481 02560 70000 10130 20120 39922 40208 51007 60006 8383/ 90600 333 10178 20114 60064=
07481,1997-07-19 09:00:00,17,1021.3,0.9,82,14,10000,7.408,,,340,,,,,,,,,,,wg-a,,,,AAXX 19094 07481 12460 73404 10170 20140 39931 40213 51009 60006 8387/ 90900=
07481,1997-07-19 12:00:00,19,1021,-0.1,68,13,20000,14.816,,,330,,,,,,,,,,,wg-a,,,,AAXX 19124 07481 12570 73308 10190 20130 39930 40210 58001 60006 8483/ 91200=
07481,1997-07-19 15:00:00,20,1021,-0,64,13,25000,18.52,,,10,,,,,,,,,,,wg-a,,,,AAXX 19154 07481 12675 70110 10200 20130 39930 40210 55000 60006 8583/ 91500=
07481,1997-07-19 18:00:00,19,1021.2,0.2,73,14,15000,11.112,,,360,13.2,20,,,,,,,,,wg-a,,,,AAXX 19184 07481 12565 43606 10190 20140 39932 40212 53002 60006 82832 91800 333 10200 20132=
07481,1997-07-19 21:00:00,17,1022.2,0.7,88,15,18000,7.408,,,340,,,,,,,,,,,wg-a,,,,AAXX 19214 07481 12768 /3404 10170 20150 39939 40222 52007 60006 81530 92100=
07481,1997-07-20 00:00:00,14,1022,-0.4,100,14,15000,0,,,0,,,,,,,,,,,wg-a,,,,AAXX 20004 07481 12/65 00000 10140 20140 39935 40220 58004 60006 80000 90000=
07481,1997-07-20 03:00:00,13,1021.3,-0.8,100,13,8000,3.704,,,330,,,,,,,,,,,wg-a,,,,AAXX 20034 07481 12/58 03302 10130 20130 39927 40213 58008 60006 80000 90300=
07481,1997-07-20 06:00:00,14,1021.6,0.4,100,14,700,7.408,,,360,12.8,19,,,,,,,,44,wg-a,,,,AAXX 20064 07481 02/07 93604 10140 20140 39931 40216 53004 60006 74441 89/// 90600 333 10190 20128 60004=
07481,1997-07-20 09:00:00,20,1020.5,-0.5,73,15,18000,11.112,,,360,,,,,,,,,,1,wg-a,,,,AAXX 20094 07481 12468 /3606 10200 20150 39926 40205 58005 60006 70141 81100 90900=
07481,1997-07-20 12:00:00,23,1019.2,-1,50,12,25000,22.224,,,20,,,,,,,,,,1,wg-a,,,,AAXX 20124 07481 12575 30212 10230 20120 39916 40192 58010 60006 70141 82201 91200=
07481,1997-07-20 15:00:00,23,1018.4,-0.8,57,14,25000,22.224,,,340,,,,,,,,,,,wg-a,,,,AAXX 20154 07481 12675 43412 10230 20140 39908 40184 56008 60006 81281 91500=
07481,1997-07-20 18:00:00,22,1018.1,-0.3,57,13,500,14.816,,,350,13.8,24.2,,,,,,,,,wg-a,,,,AAXX 20184 07481 12700 23508 10220 20130 39905 40181 55003 60006 81281 91800 333 10242 20138=
07481,1997-07-20 21:00:00,17,1019,0.4,77,13,35000,11.112,,,340,,,,,,,,,,,wg-a,,,,AAXX 20214 07481 12/81 23406 10170 20130 39909 40190 53004 60006 80001 92100=
07481,1997-07-21 00:00:00,14,1019.4,0.1,88,12,500,7.408,,,350,,,,,,,,,,,wg-a,,,,AAXX 21004 07481 12/00 03504 10140 20120 39910 40194 52001 60006 80000 90000=
07481,1997-07-21 06:00:00,14,1019.3,0.4,88,12,15000,11.112,,,360,12,22.3,,,,,,,,,wg-a,,,,AAXX 21064 07481 02365 23606 10140 20120 39908 40193 53004 60006 81601 90600 333 10223 20120 60004=
07481,1997-07-21 09:00:00,19,1018.8,0.1,64,12,35000,14.816,,,360,,,,,,,,,,,wg-a,,,,AAXX 21094 07481 12581 63608 10190 20120 39909 40188 51001 60006 81104 90900=
07481,1997-07-21 12:00:00,22,1017.7,-0.8,46,10,50000,18.52,,,350,,,,,,,,,,,wg-a,,,,AAXX 21124 07481 12584 /3510 10220 20100 39901 40177 56008 60006 81101 91200=
07481,1997-07-21 15:00:00,24,1016.8,-0.8,41,10,11000,14.816,,,350,,,,,,,,,,,wg-a,,,,AAXX 21154 07481 12/61 /3508 10240 20100 39893 40168 57008 60006 91500=
07481,1997-07-21 18:00:00,23,1016.2,-0.6,50,12,45000,14.816,,,350,13.8,24.3,,,,,,,,,wg-a,,,,AAXX 21184 07481 12683 53508 10230 20120 39887 40162 55006 60006 81104 91800 333 10243 20138=
07481,1997-07-21 21:00:00,18,1017.5,0.8,73,13,40000,3.704,,,300,,,,,,,,,,,wg-a,,,,AAXX 21214 07481 12/82 33002 10180 20130 39895 40175 53008 60006 81042 92100=
07481,1997-07-22 00:00:00,17,1017.5,-0.1,77,13,40000,3.704,,,260,,,,,,,,,,,wg-a,,,,AAXX 22004 07481 12/82 22602 10170 20130 39894 40175 57001 60006 80002 90000=
07481,1997-07-22 03:00:00,14,1017.8,-0,88,12,40000,7.408,,,260,,,,,,,,,,,wg-a,,,,AAXX 22034 07481 12/82 22604 10140 20120 39894 40178 55000 60006 80002 90300=
07481,1997-07-22 06:00:00,15,1018.5,0.8,88,13,20000,7.408,,,250,13.9,22.9,,,,,,,,,wg-a,,,,AAXX 22064 07481 02/70 42504 10150 20130 39902 40185 53008 60006 80002 90600 333 10229 20139 60004=
07481,1997-07-22 09:00:00,21,1018,0.1,64,14,25000,3.704,,,300,,,,,,,,,,,wg-a,,,,AAXX 22094 07481 12/75 33002 10210 20140 39903 40180 50001 60006 81042 90900=
07481,1997-07-22 12:00:00,25,1016.7,-0.9,50,14,25000,3.704,,,310,,,,,,,,,,,wg-a,,,,AAXX 22124 07481 12/75 43102 10250 20140 39894 40167 56009 60006 81042 91200=
07481,1997-07-22 15:00:00,27,1015.9,-0.7,34,10,500,3.704,,,10,,,,,,,,,,,wg-a,,,,AAXX 22154 07481 12/00 20102 10270 20100 39887 40159 56007 60006 81042 91500=
07481,1997-07-22 18:00:00,26,1015.3,-0.6,42,12,500,7.408,,,30,15.2,27.9,,,,,,,,,wg-a,,,,AAXX 22184 07481 12/00 20304 10260 20120 39881 40153 56006 60006 81042 91800 333 10279 20152=
07481,1997-07-22 21:00:00,22,1016.4,0.7,60,14,500,11.112,,,90,,,,,,,,,,,wg-a,,,,AAXX 22214 07481 12800 /0906 10220 20140 39888 40164 50007 60006 84082 92100=
07481,1997-07-23 00:00:00,21,1017,0.5,73,16,25000,3.704,,,70,,,,,,,,,,21,wg-a,,,,AAXX 23004 07481 02775 70702 10210 20160 39893 40170 50005 61000 72161 8458/ 90000 333 6100=
07481,1997-07-23 03:00:00,19,1017.2,-0,83,16,12000,3.704,,,120,,,,,,,,,,,wg-a,,,,AAXX 23034 07481 12762 71202 10190 20160 39893 40172 54000 60006 8357/ 90300=
07481,1997-07-23 06:00:00,19,1017.7,0.5,83,16,10000,7.408,,,50,18.2,26.3,,,,,,,,,wg-a,,,,AAXX 23064 07481 02660 70504 10190 20160 39898 40177 50005 60006 8337/ 90600 333 10263 20182 61000=
07481,1997-07-23 09:00:00,19,1018.8,1.1,88,17,8000,3.704,,,300,,,,0,,,,,,60,wg-a,,,,AAXX 23094 07481 12758 83002 10190 20170 39909 40188 51011 60007 76062 8357/ 90900=
07481,1997-07-23 12:00:00,23,1018.2,-0.2,73,18,8000,7.408,,,290,,,,0,,,,,,3,wg-a,,,,AAXX 23124 07481 02458 /2904 10230 20180 39907 40182 55002 60016 70362 83830 91200 333 60007=
07481,1997-07-23 18:00:00,26,1015.7,-0.7,54,16,18000,7.408,,,50,18.7,26.2,,,,,,,,,wg-a,,,,AAXX 23184 07481 12/68 30504 10260 20160 39885 40157 55007 60006 80002 91800 333 10262 20187=
07481,1997-07-24 00:00:00,19,1016.7,-0.3,88,17,20000,3.704,,,230,,,,,,,,,,,wg-a,,,,AAXX 24004 07481 12870 32302 10190 20170 39889 40167 57003 60006 81082 90000=
07481,1997-07-24 03:00:00,19,1015.6,-1.1,88,17,20000,3.704,,,100,,,,,,,,,,,wg-a,,,,AAXX 24034 07481 12/70 61002 10190 20170 39878 40156 56011 60006 81082 90300=
07481,1997-07-24 06:00:00,19,1016,0.3,94,18,9000,0,,,0,17.8,26,,,,,,,,,wg-a,,,,AAXX 24064 07481 02759 70000 10190 20180 39881 40160 53003 60006 82582 90600 333 10260 20178 60004=
07481,1997-07-24 09:00:00,20,1016.4,0.6,94,19,4500,3.704,,,110,,,,0,,,,,,10,wg-a,,,,AAXX 24094 07481 12645 71102 10200 20190 39887 40164 53006 60007 71062 8388/ 90900=
07481,1997-07-24 12:00:00,25,1015.2,-0.8,65,18,20000,7.408,,,120,,,,,,,,,,3,wg-a,,,,AAXX 24124 07481 02670 61204 10250 20180 39879 40152 57008 60006 70362 83980 91200 333 61000=
07481,1997-07-24 15:00:00,25,1014.5,-0.6,69,19,15000,14.816,,,290,,,,,,,,,,95,wg-a,,,,AAXX 24154 07481 02665 72908 10250 20190 39873 40145 55006 61000 79596 83982 91500 333 ////=
07481,1997-07-24 18:00:00,24,1014.1,-0.5,69,18,25000,7.408,,,250,18.5,27,,,,,,,,3,wg-a,,,,AAXX 24184 07481 02675 62504 10240 20180 39868 40141 55005 60006 70396 83981 91800 333 10270 20185 61000=
07481,1997-07-25 00:00:00,20,1016.5,0.8,88,18,15000,3.704,,,230,,,,,,,,,,2,wg-a,,,,AAXX 25004 07481 12665 72302 10200 20180 39888 40165 51008 60016 70286 8353/ 90000=
07481,1997-07-25 03:00:00,18,1016.8,0.1,88,16,15000,0,,,0,,,,,,,,,,,wg-a,,,,AAXX 25034 07481 12/65 60000 10180 20160 39889 40168 53001 60006 83032 90300=
07481,1997-07-25 06:00:00,16,1018.4,1.3,88,14,20000,7.408,,,70,15.6,23.6,,,,,,,,60,wg-a,,,,AAXX 25064 07481 02570 80704 10160 20140 39902 40184 51013 61000 76062 8457/ 90600 333 10236 20156 6002=
07481,1997-07-25 09:00:00,19,1018.3,0.2,78,15,20000,14.816,,,150,,,,,,,,,,1,wg-a,,,,AAXX 25094 07481 02470 71508 10190 20150 39904 40183 51002 61000 70162 8583/ 90900 333 ////=
07481,1997-07-25 12:00:00,21,1018,-0.1,69,15,500,3.704,,,250,,,,0,,,,,,1,wg-a,,,,AAXX 25124 07481 02500 72502 10210 20150 39903 40180 58001 60006 70186 878// 91200 333 60007=
07481,1997-07-25 15:00:00,22,1017.3,-0.7,60,14,500,7.408,,,40,,,,,,,,,,,wg-a,,,,AAXX 25154 07481 12600 70404 10220 20140 39896 40173 58007 60006 8487/ 91500=
07481,1997-07-25 18:00:00,19,1018.3,0.8,83,16,20000,7.408,,,90,15.2,21.9,,,,,,,,21,wg-a,,,,AAXX 25184 07481 02570 80904 10190 20160 39904 40183 53008 61000 72162 8527/ 91800 333 10219 20152 6100=
07481,1997-07-25 21:00:00,16,1019.4,0.8,100,16,6000,7.408,,,130,,,,3,,,,,,12,wg-a,,,,AAXX 25214 07481 12156 81304 10160 20160 39912 40194 51008 60037 71262 8527/ 92100=
07481,1997-07-26 00:00:00,16,1019.1,-0.3,100,16,10000,11.112,,,140,,,,1,,,,,,60,wg-a,,,,AAXX 26004 07481 02160 81406 10160 20160 39909 40191 58003 60036 76062 8527/ 90000 333 60017=
07481,1997-07-26 03:00:00,16,1018.8,-0.3,100,16,10000,7.408,,,160,,,,0,,,,,,1,wg-a,,,,AAXX 26034 07481 12560 71604 10160 20160 39906 40188 56003 60007 70162 8453/ 90300=
07481,1997-07-26 06:00:00,18,1019.4,0.7,88,16,20000,3.704,,,240,16.1,18.7,,,,,4,,,1,wg-a,,,,AAXX 26064 07481 02570 72402 10180 20160 39913 40194 53007 60006 70162 875// 90600 333 10187 20161 60044=
07481,1997-07-26 09:00:00,20,1020.7,1.5,83,17,25000,11.112,,,30,,,,,,,,,,,wg-a,,,,AAXX 26094 07481 12475 70306 10200 20170 39928 40207 51015 60006 8287/ 90900=
07481,1997-07-26 12:00:00,23,1020,-0.4,65,16,40000,11.112,,,340,,,,,,,,,,,wg-a,,,,AAXX 26124 07481 12582 /3406 10230 20160 39924 40200 57004 60006 8324/ 91200=
07481,1997-07-26 18:00:00,24,1019.2,-0.3,57,15,40000,11.112,,,360,17.6,24.9,,,,,,,,,wg-a,,,,AAXX 26184 07481 12682 /3606 10240 20150 39917 40192 55003 60006 81240 91800 333 10249 20176=
07481,1997-07-26 21:00:00,19,1020.4,0.8,83,16,500,3.704,,,340,,,,,,,,,,,wg-a,,,,AAXX 26214 07481 12/00 13402 10190 20160 39925 40204 53008 60006 80001 92100=
07481,1997-07-27 00:00:00,18,1020.9,0.3,88,16,500,3.704,,,330,,,,,,,,,,,wg-a,,,,AAXX 27004 07481 12/00 03302 10180 20160 39928 40209 50003 60006 80000 90000=
07481,1997-07-27 03:00:00,16,1021,-0.1,94,15,500,3.704,,,240,,,,,,,,,,,wg-a,,,,AAXX 27034 07481 12/00 02402 10160 20150 39927 40210 55001 60006 80000 90300=
07481,1997-07-27 06:00:00,17,1021.4,0.5,88,15,500,3.704,,,140,14.7,23.9,,,,,,,,,wg-a,,,,AAXX 27064 07481 02/00 41402 10170 20150 39932 40214 53005 60006 81031 90600 333 10239 20147 60004=
07481,1997-07-27 09:00:00,23,1020.6,-0.2,65,16,500,11.112,,,10,,,,,,,,,,,wg-a,,,,AAXX 27094 07481 12500 50106 10230 20160 39930 40206 57002 60006 81232 90900=
07481,1997-07-27 15:00:00,26,1019.6,-0.4,54,16,75000,14.816,,,360,,,,,,,,,,,wg-a,,,,AAXX 27154 07481 12689 73608 10260 20160 39923 40196 57004 60006 84802 91500=
07481,1997-07-27 18:00:00,25,1019.6,-0.1,57,16,75000,7.408,,,350,17.1,26.6,,,,,,,,,wg-a,,,,AAXX 27184 07481 12689 /3504 10250 20160 39922 40196 55001 60006 83802 91800 333 10266 20171=
07481,1997-07-28 00:00:00,19,1021.1,0.2,88,17,25000,11.112,,,320,,,,,,,,,,,wg-a,,,,AAXX 28004 07481 12/75 43206 10190 20170 39931 40211 51002 60006 80002 90000=
07481,1997-07-28 03:00:00,17,1020.9,-0.4,94,16,20000,3.704,,,300,,,,,,,,,,,wg-a,,,,AAXX 28034 07481 12/70 13002 10170 20160 39927 40209 56004 60006 80001 90300=
07481,1997-07-28 06:00:00,18,1021.1,0.4,94,17,35000,7.408,,,310,16.5,25,,,,,,,,,wg-a,,,,AAXX 28064 07481 02/81 33104 10180 20170 39931 40211 52004 60006 80002 90600 333 10250 20165 60004=
07481,1997-07-28 09:00:00,23,1020.7,0,69,17,45000,11.112,,,360,,,,,,,,,,,wg-a,,,,AAXX 28094 07481 12483 /3606 10230 20170 39931 40207 50000 60006 81102 90900=
07481,1997-07-28 12:00:00,26,1019.9,-0.5,58,17,45000,14.816,,,350,,,,,,,,,,,wg-a,,,,AAXX 28124 07481 12683 33508 10260 20170 39926 40199 58005 60006 81202 91200=
07481,1997-07-28 15:00:00,27,1018.8,-1,48,15,45000,14.816,,,360,,,,,,,,,,,wg-a,,,,AAXX 28154 07481 12683 23608 10270 20150 39916 40188 58010 60006 81202 91500=
07481,1997-07-28 18:00:00,26,1018.6,-0.3,51,15,45000,14.816,,,10,18.5,27.6,,,,,,,,,wg-a,,,,AAXX 28184 07481 12683 /0108 10260 20150 39913 40186 55003 60006 81202 91800 333 10276 20185=
07481,1997-07-28 21:00:00,21,1019.5,0.5,69,15,40000,7.408,,,340,,,,,,,,,,,wg-a,,,,AAXX 28214 07481 12782 23404 10210 20150 39918 40195 50005 60006 82230 92100=
07481,1997-07-29 00:00:00,20,1020.1,0.4,73,15,500,3.704,,,240,,,,,,,,,,,wg-a,,,,AAXX 29004 07481 12/00 02402 10200 20150 39922 40201 50004 60006 80000 90000=
07481,1997-07-29 03:00:00,17,1019.7,-0.6,88,15,18000,3.704,,,350,,,,,,,,,,,wg-a,,,,AAXX 29034 07481 12/68 03502 10170 20150 39916 40197 56006 60006 80000 90300=
07481,1997-07-29 06:00:00,18,1020.5,0.8,83,15,500,3.704,,,360,16.4,26,,,,,,,,,wg-a,,,,AAXX 29064 07481 02/00 63602 10180 20150 39924 40205 53008 60006 83082 90600 333 10260 20164 60004=
07481,1997-07-29 09:00:00,23,1020.2,0.2,69,17,500,3.704,,,340,,,,,,,,,,,wg-a,,,,AAXX 29094 07481 12/00 43402 10230 20170 39926 40202 51002 60006 81082 90900=
07481,1997-07-29 12:00:00,27,1019.2,-0.6,42,13,500,14.816,,,20,,,,,,,,,,,wg-a,,,,AAXX 29124 07481 12600 /0208 10270 20130 39920 40192 58006 60006 81102 91200=
07481,1997-07-29 15:00:00,28,1018.1,-1,40,13,35000,14.816,,,10,,,,,,,,,,,wg-a,,,,AAXX 29154 07481 12781 50108 10280 20130 39910 40181 57010 60006 81102 91500=
07481,1997-07-29 18:00:00,26,1017.6,-0.6,48,14,35000,18.52,,,20,17.8,28.7,,,,,,,,,wg-a,,,,AAXX 29184 07481 12781 30210 10260 20140 39904 40176 56006 60006 81102 91800 333 10287 20178=
07481,1997-07-29 21:00:00,21,1018.9,0.8,64,14,35000,7.408,,,10,,,,,,,,,,,wg-a,,,,AAXX 29214 07481 12/81 20104 10210 20140 39912 40189 51008 60006 80001 92100=
07481,1997-07-30 00:00:00,18,1019,-0.2,83,15,500,0,,,0,,,,,,,,,,,wg-a,,,,AAXX 30004 07481 12/00 00000 10180 20150 39910 40190 58002 60006 80000 90000=
07481,1997-07-30 03:00:00,17,1019,-0.2,82,14,20000,3.704,,,70,,,,,,,,,,,wg-a,,,,AAXX 30034 07481 12/70 00702 10170 20140 39908 40190 58002 60006 80000 90300=
07481,1997-07-30 06:00:00,18,1019.4,0.6,83,15,20000,0,,,0,15.3,26.3,,,,,,,,,wg-a,,,,AAXX 30064 07481 02/70 10000 10180 20150 39914 40194 51006 60006 80001 90600 333 10263 20153 60004=
07481,1997-07-30 09:00:00,24,1019.1,0.2,57,15,20000,7.408,,,330,,,,,,,,,,,wg-a,,,,AAXX 30094 07481 12670 33304 10240 20150 39916 40191 50002 60006 81101 90900=
07481,1997-07-30 12:00:00,28,1018.2,-0.5,37,12,500,11.112,,,20,,,,,,,,,,,wg-a,,,,AAXX 30124 07481 12600 40206 10280 20120 39911 40182 58005 60006 81104 91200=
07481,1997-07-31 00:00:00,21,1018.2,0.2,64,14,20000,3.704,,,200,,,,,,,,,,,wg-a,,,,AAXX 31004 07481 12/70 12002 10210 20140 39904 40182 50002 60006 81031 90000=
07481,1997-07-31 03:00:00,18,1017.8,-0.6,77,14,20000,7.408,,,140,,,,,,,,,,,wg-a,,,,AAXX 31034 07481 12/70 11404 10180 20140 39898 40178 56006 60006 81031 90300=
07481,1997-07-31 06:00:00,19,1019,1.3,83,16,25000,14.816,,,340,17,27.6,,,,,,,,,wg-a,,,,AAXX 31064 07481 02675 53408 10190 20160 39911 40190 51013 60006 81182 90600 333 10276 20170 60004=
07481,1997-07-31 09:00:00,24,1019,0.4,65,17,18000,14.816,,,340,,,,,,,,,,,wg-a,,,,AAXX 31094 07481 12568 73408 10240 20170 39915 40190 51004 60006 81182 90900=
07481,1997-07-31 12:00:00,24,1018.2,-0.7,61,16,25000,18.52,,,360,,,,,,,,,,,wg-a,,,,AAXX 31124 07481 12575 /3610 10240 20160 39908 40182 58007 60006 82282 91200=
07481,1997-07-31 15:00:00,25,1017.5,-0.7,50,14,25000,18.52,,,360,,,,,,,,,,,wg-a,,,,AAXX 31154 07481 12675 73610 10250 20140 39901 40175 56007 60006 81232 91500=
07481,1997-07-31 18:00:00,23,1017.2,-0.5,50,12,35000,14.816,,,20,19.4,25.2,,,,,,,,,wg-a,,,,AAXX 31184 07481 12/81 70208 10230 20120 39896 40172 56005 60006 82032 91800 333 10252 20194=
07481,1997-08-01 00:00:00,17,1017.7,-0.4,77,13,25000,3.704,,,280,,,,,,,,,,,wg-a,,,,AAXX 01004 07481 12/75 12802 10170 20130 39896 40177 58004 60006 81031 90000=
07481,1997-08-01 03:00:00,17,1016.2,-1.4,77,13,20000,11.112,,,310,,,,,,,,,,,wg-a,,,,AAXX 01034 07481 12/70 63106 10170 20130 39882 40162 56014 60006 82032 90300=
07481,1997-08-01 06:00:00,17,1016.5,0.2,72,12,25000,11.112,,,320,16.2,22.7,,,,,,,,,wg-a,,,,AAXX 01064 07481 02775 73206 10170 20120 39884 40165 53002 60006 8257/ 90600 333 10227 20162 60004=
07481,1997-08-01 09:00:00,20,1016.5,0.3,56,11,25000,14.816,,,330,,,,,,,,,,,wg-a,,,,AAXX 01094 07481 12575 /3308 10200 20110 39887 40165 51003 60006 81170 90900=
07481,1997-08-01 12:00:00,23,1015.3,-0.9,47,11,500,14.816,,,20,,,,,,,,,,,wg-a,,,,AAXX 01124 07481 12600 40208 10230 20110 39878 40153 58009 60006 82130 91200=
07481,1997-08-01 18:00:00,22,1015.4,0.6,53,12,500,18.52,,,20,17.1,24.9,,,,,,,,,wg-a,,,,AAXX 01184 07481 12/00 70210 10220 20120 39878 40154 53006 60006 84032 91800 333 10249 20171=
07481,1997-08-01 21:00:00,20,1017.2,1.6,68,14,500,11.112,,,20,,,,,,,,,,,wg-a,,,,AAXX 01214 07481 12600 80206 10200 20140 39894 40172 51016 60006 82532 92100=
07481,1997-08-02 00:00:00,19,1017.6,0.3,73,14,500,7.408,,,320,,,,,,,,,,,wg-a,,,,AAXX 02004 07481 12600 83204 10190 20140 39897 40176 50003 60006 875// 90000=
07481,1997-08-02 03:00:00,18,1016.8,-0.8,77,14,25000,7.408,,,10,,,,,,,,,,,wg-a,,,,AAXX 02034 07481 12675 80104 10180 20140 39889 40168 57008 60006 875// 90300=
07481,1997-08-02 06:00:00,19,1017.1,0.3,78,15,25000,7.408,,,330,17.5,21.9,,,,,,,,,wg-a,,,,AAXX 02064 07481 02675 /3304 10190 20150 39892 40171 50003 60006 86500 90600 333 10219 20175 60004=
07481,1997-08-02 09:00:00,23,1017,0.3,65,16,25000,14.816,,,350,,,,,,,,,,,wg-a,,,,AAXX 02094 07481 12575 33508 10230 20160 39895 40170 50003 60006 83800 90900=
07481,1997-08-02 12:00:00,26,1015.8,-0.9,61,18,35000,14.816,,,350,,,,,,,,,,,wg-a,,,,AAXX 02124 07481 12681 33508 10260 20180 39886 40158 58009 60006 82801 91200=
07481,1997-08-02 15:00:00,27,1014.6,-1,58,18,35000,18.52,,,350,,,,,,,,,,,wg-a,,,,AAXX 02154 07481 12681 43510 10270 20180 39876 40146 58010 60006 82801 91500=
07481,1997-08-02 18:00:00,25,1014.6,-0.2,69,19,35000,22.224,,,360,19,27.8,,,,,,,,,wg-a,,,,AAXX 02184 07481 12681 33612 10250 20190 39874 40146 56002 60006 82801 91800 333 10278 20190=
07481,1997-08-02 21:00:00,22,1015.7,0.8,78,18,500,14.816,,,360,,,,,,,,,,,wg-a,,,,AAXX 02214 07481 12/00 13608 10220 20180 39882 40157 50008 60006 81030 92100=
07481,1997-08-03 00:00:00,19,1016.4,0.4,94,18,25000,3.704,,,270,,,,,,,,,,,wg-a,,,,AAXX 03004 07481 12/75 12702 10190 20180 39886 40164 53004 60006 81030 90000=
07481,1997-08-03 03:00:00,18,1016.3,-0.2,100,18,15000,3.704,,,310,,,,,,,,,,,wg-a,,,,AAXX 03034 07481 12365 83102 10180 20180 39884 40163 55002 60006 886// 90300=
07481,1997-08-03 06:00:00,18,1016.6,0.3,100,18,1600,3.704,,,80,17.8,25.3,,,,,,,,10,wg-a,,,,AAXX 03064 07481 02116 80802 10180 20180 39887 40166 53003 60006 71011 886// 90600 333 10253 20178 60004=
07481,1997-08-03 09:00:00,21,1016.8,0.5,88,19,12000,3.704,,,80,,,,,,,,,,,wg-a,,,,AAXX 03094 07481 12462 /0802 10210 20190 39892 40168 51005 60006 86500 90900=
07481,1997-08-03 12:00:00,28,1014.9,-1.2,58,19,40000,3.704,,,70,,,,,,,,,,,wg-a,,,,AAXX 03124 07481 12682 50702 10280 20190 39880 40149 58012 60006 81204 91200=
07481,1997-08-03 15:00:00,32,1013.5,-1.2,34,14,60000,3.704,,,120,,,,,,,,,,,wg-a,,,,AAXX 03154 07481 12686 /1202 10320 20140 39868 40135 56012 60006 81201 91500=
07481,1997-08-03 18:00:00,30,1013.2,-0.4,43,16,75000,14.816,,,60,18.1,32.1,,,,,,,,,wg-a,,,,AAXX 03184 07481 12789 /0608 10300 20160 39864 40132 55004 60006 81101 91800 333 10321 20181=
07481,1997-08-03 21:00:00,25,1014.3,0.6,54,15,40000,7.408,,,110,,,,,,,,,,,wg-a,,,,AAXX 03214 07481 12/82 11104 10250 20150 39870 40143 51006 60006 80001 92100=
07481,1997-08-04 00:00:00,24,1014.7,0.4,69,18,40000,11.112,,,160,,,,,,,,,,,wg-a,,,,AAXX 04004 07481 12/82 11606 10240 20180 39874 40147 51004 60006 81031 90000=
07481,1997-08-04 03:00:00,23,1015,0.2,69,17,25000,11.112,,,160,,,,,,,,,,,wg-a,,,,AAXX 04034 07481 12/75 11606 10230 20170 39876 40150 51002 60006 81031 90300=
07481,1997-08-04 06:00:00,22,1015.5,0.4,69,16,500,11.112,,,170,21.5,30.1,,,,,,,,,wg-a,,,,AAXX 04064 07481 02/00 51706 10220 20160 39880 40155 51004 60006 85080 90600 333 10301 20215 60004=
07481,1997-08-04 12:00:00,30,1014.9,-0.6,43,16,500,18.52,,,200,,,,,,,,,,,wg-a,,,,AAXX 04124 07481 12600 52010 10300 20160 39881 40149 56006 60006 81282 91200=
07481,1997-08-04 15:00:00,32,1013.2,-1.5,34,14,10000,14.816,,,190,,,,,,,,,,,wg-a,,,,AAXX 04154 07481 12/60 /1908 10320 20140 39866 40132 56015 60006 91500=
07481,1997-08-04 18:00:00,31,1012.9,-0.4,36,14,500,11.112,,,180,22.4,33,,,,,,,,,wg-a,,,,AAXX 04184 07481 12/00 11806 10310 20140 39862 40129 56004 60006 81082 91800 333 10330 20224=
07481,1997-08-04 21:00:00,27,1015.2,1.9,51,16,25000,7.408,,,220,,,,,,,,,,,wg-a,,,,AAXX 04214 07481 12/75 32204 10270 20160 39881 40152 53019 60006 80002 92100=
07481,1997-08-05 00:00:00,24,1015.6,0.1,57,15,20000,11.112,,,150,,,,,,,,,,,wg-a,,,,AAXX 05004 07481 12/70 71506 10240 20150 39882 40156 50001 60006 85072 90000=
07481,1997-08-05 03:00:00,21,1015.3,-0.6,69,15,20000,7.408,,,120,,,,,,,,,,,wg-a,,,,AAXX 05034 07481 12/70 11204 10210 20150 39876 40153 57006 60006 80002 90300=
07481,1997-08-05 06:00:00,22,1014.9,-0.2,65,15,15000,7.408,,,200,20.3,31.1,,,,,,,,,wg-a,,,,AAXX 05064 07481 02/65 42004 10220 20150 39874 40149 56002 60006 80002 90600 333 10311 20203 60004=
07481,1997-08-05 09:00:00,27,1014.5,0,45,14,15000,22.224,,,190,,,,,,,,,,,wg-a,,,,AAXX 05094 07481 12/65 61912 10270 20140 39874 40145 50000 60006 80002 90900=
07481,1997-08-05 12:00:00,29,1013.4,-0.8,43,15,25000,25.928,,,180,,,,,,,,,,,wg-a,,,,AAXX 05124 07481 12/75 51814 10290 20150 39866 40134 56008 60006 81082 91200=
07481,1997-08-05 15:00:00,30,1011.6,-1.7,38,14,500,25.928,,,180,,,,,,,,,,,wg-a,,,,AAXX 05154 07481 12700 71814 10300 20140 39849 40116 56017 60006 81183 91500=
07481,1997-08-05 18:00:00,27,1012.6,0.6,45,14,20000,25.928,,,140,22,31,,,,,,,,,wg-a,,,,AAXX 05184 07481 12770 71414 10270 20140 39855 40126 53006 60006 81283 91800 333 10310 20220=
07481,1997-08-05 21:00:00,23,1013.5,0.6,69,17,12000,18.52,,,160,,,,,,,,,,21,wg-a,,,,AAXX 05214 07481 02662 61610 10230 20170 39861 40135 50006 61000 72162 81232 92100 333 ////=
07481,1997-08-06 00:00:00,21,1013.7,0,78,17,15000,3.704,,,110,,,,,,,,,,1,wg-a,,,,AAXX 06004 07481 02765 /1102 10210 20170 39861 40137 50000 61000 70161 81531 90000 333 ////=
07481,1997-08-06 03:00:00,20,1013.2,-0.6,78,16,12000,11.112,,,160,,,,,,,,,,,wg-a,,,,AAXX 06034 07481 12/62 21606 10200 20160 39855 40132 58006 60006 81031 90300=
07481,1997-08-06 06:00:00,20,1013.1,-0,83,17,12000,7.408,,,150,19.1,26.6,,,,,,,,,wg-a,,,,AAXX 06064 07481 02/62 71504 10200 20170 39855 40131 55000 60006 8705/ 90600 333 10266 20191 61000=
07481,1997-08-06 09:00:00,23,1013.2,0.3,78,19,8000,7.408,,,270,,,,,,,,,,,wg-a,,,,AAXX 06094 07481 12458 72704 10230 20190 39858 40132 53003 60006 8117/ 90900=
07481,1997-08-06 12:00:00,25,1012.7,-0.3,69,19,8000,7.408,,,330,,,,,,,,,,,wg-a,,,,AAXX 06124 07481 12558 73304 10250 20190 39855 40127 58003 60006 8117/ 91200=
07481,1997-08-06 15:00:00,27,1010.9,-1.5,58,18,25000,11.112,,,10,,,,,,,,,,,wg-a,,,,AAXX 06154 07481 12675 30106 10270 20180 39840 40109 56015 60006 82230 91500=
07481,1997-08-06 18:00:00,26,1010.8,-0.2,58,17,25000,14.816,,,20,20.2,27.5,,,,,,,,,wg-a,,,,AAXX 06184 07481 12675 60208 10260 20170 39838 40108 56002 60006 81980 91800 333 10275 20202=
07481,1997-08-06 21:00:00,23,1012,0.9,73,18,35000,3.704,,,310,,,,,,,,,,,wg-a,,,,AAXX 06214 07481 12/81 /3102 10230 20180 39847 40120 52009 60006 85072 92100=
07481,1997-08-07 00:00:00,21,1012.5,0.3,83,18,500,7.408,,,250,,,,,,,,,,,wg-a,,,,AAXX 07004 07481 12/00 22504 10210 20180 39850 40125 53003 60006 81042 90000=
07481,1997-08-07 03:00:00,19,1012.3,-0.4,88,17,500,3.704,,,230,,,,,,,,,,,wg-a,,,,AAXX 07034 07481 12/00 52302 10190 20170 39846 40123 56004 60006 83082 90300=
07481,1997-08-07 06:00:00,20,1013.3,1.1,88,18,15000,3.704,,,190,18.9,26.4,,,,,,,,,wg-a,,,,AAXX 07064 07481 02/65 31902 10200 20180 39857 40133 53011 60006 82082 90600 333 10264 20189 60004=
07481,1997-08-07 09:00:00,25,1012.8,-0.1,69,19,12000,11.112,,,200,,,,,,,,,,,wg-a,,,,AAXX 07094 07481 12562 52006 10250 20190 39856 40128 58001 60006 83182 90900=
07481,1997-08-07 12:00:00,28,1011.5,-0.9,51,17,20000,25.928,,,180,,,,,,,,,,,wg-a,,,,AAXX 07124 07481 12670 /1814 10280 20170 39847 40115 58009 60006 84903 91200=
07481,1997-08-07 15:00:00,30,1010.2,-1.2,43,16,20000,22.224,,,200,,,,,,,,,,,wg-a,,,,AAXX 07154 07481 12670 32012 10300 20160 39835 40102 58012 60006 81903 91500=
07481,1997-08-07 18:00:00,28,1011.4,1,45,15,17000,22.224,,,200,20.2,30.5,,,,,,,,,wg-a,,,,AAXX 07184 07481 12667 32012 10280 20150 39845 40114 53010 60006 81203 91800 333 10305 20202=
07481,1997-08-07 21:00:00,22,1013.8,1.8,78,18,25000,7.408,,,340,,,,,,,,,,,wg-a,,,,AAXX 07214 07481 12/75 23404 10220 20180 39863 40138 53018 60006 8//02 92100=
07481,1997-08-08 00:00:00,21,1014.7,0.8,78,17,15000,7.408,,,230,,,,,,,,,,,wg-a,,,,AAXX 08004 07481 12/65 02304 10210 20170 39871 40147 53008 60006 80000 90000=
07481,1997-08-08 03:00:00,20,1015.4,0.6,83,17,15000,3.704,,,120,,,,,,,,,,,wg-a,,,,AAXX 08034 07481 12/65 01202 10200 20170 39877 40154 53006 60006 80000 90300=
07481,1997-08-08 06:00:00,20,1016.6,1.2,83,17,15000,7.408,,,180,19.2,27.9,,,,,,,,,wg-a,,,,AAXX 08064 07481 02/65 31804 10200 20170 39889 40166 53012 60006 81032 90600 333 10279 20192 60004=
07481,1997-08-08 09:00:00,26,1016.4,0.3,58,17,18000,11.112,,,180,,,,,,,,,,,wg-a,,,,AAXX 08094 07481 12568 /1806 10260 20170 39892 40164 51003 60006 81100 90900=
07481,1997-08-08 12:00:00,30,1015.4,-0.6,43,16,20000,11.112,,,240,,,,,,,,,,,wg-a,,,,AAXX 08124 07481 12570 22406 10300 20160 39886 40154 58006 60006 81101 91200=
07481,1997-08-08 15:00:00,32,1013.9,-1.3,36,15,500,3.704,,,310,,,,,,,,,,,wg-a,,,,AAXX 08154 07481 12600 /3102 10320 20150 39873 40139 58013 60006 81101 91500=
07481,1997-08-08 18:00:00,29,1014.1,-0,48,17,500,14.816,,,20,20.3,32.4,,,,,,,,,wg-a,,,,AAXX 08184 07481 12/00 20208 10290 20170 39873 40141 55000 60006 80003 91800 333 10324 20203=
07481,1997-08-09 00:00:00,22,1016.8,0.6,78,18,500,3.704,,,280,,,,,,,,,,,wg-a,,,,AAXX 09004 07481 12/00 02802 10220 20180 39892 40168 52006 60006 80000 90000=
07481,1997-08-09 06:00:00,20,1018.3,1,88,18,10000,3.704,,,340,18.8,29.2,,,,,,,,,wg-a,,,,AAXX 09064 07481 02/60 23402 10200 20180 39905 40183 52010 60006 80001 90600 333 10292 20188 60004=
07481,1997-08-09 09:00:00,25,1017.9,0.1,69,19,13000,3.704,,,340,,,,,,,,,,,wg-a,,,,AAXX 09094 07481 12/63 13402 10250 20190 39906 40179 50001 60006 80001 90900=
07481,1997-08-09 12:00:00,30,1016.1,-1.3,52,19,20000,14.816,,,20,,,,,,,,,,,wg-a,,,,AAXX 09124 07481 12670 20208 10300 20190 39893 40161 56013 60006 81201 91200=
07481,1997-08-09 15:00:00,32,1014.8,-1.2,34,14,500,14.816,,,350,,,,,,,,,,,wg-a,,,,AAXX 09154 07481 12700 /3508 10320 20140 39881 40148 57012 60006 81200 91500=
07481,1997-08-09 18:00:00,30,1014.4,-0.5,40,15,500,14.816,,,350,19.6,31.8,,,,,,,,,wg-a,,,,AAXX 09184 07481 12/00 03508 10300 20150 39876 40144 55005 60006 80000 91800 333 10318 20196=
07481,1997-08-09 21:00:00,23,1015.5,0.5,65,16,35000,7.408,,,340,,,,,,,,,,,wg-a,,,,AAXX 09214 07481 12/81 13404 10230 20160 39881 40155 51005 60006 80002 92100=
07481,1997-08-10 00:00:00,21,1016.1,0.3,78,17,20000,7.408,,,270,,,,,,,,,,,wg-a,,,,AAXX 10004 07481 12/70 02704 10210 20170 39884 40161 52003 60006 80000 90000=
07481,1997-08-10 03:00:00,20,1015.7,-0.5,78,16,18000,7.408,,,140,,,,,,,,,,,wg-a,,,,AAXX 10034 07481 12/68 01404 10200 20160 39879 40157 58005 60006 80000 90300=
07481,1997-08-10 06:00:00,20,1016,0.4,78,16,15000,3.704,,,150,18.8,29.6,,,,,,,,,wg-a,,,,AAXX 10064 07481 02/65 01502 10200 20160 39883 40160 51004 60006 80000 90600 333 10296 20188 60004=
07481,1997-08-10 09:00:00,26,1015.6,0.1,58,17,15000,3.704,,,330,,,,,,,,,,,wg-a,,,,AAXX 10094 07481 12/65 13302 10260 20170 39884 40156 51001 60006 80001 90900=
07481,1997-08-10 12:00:00,32,1013.3,-1.7,38,16,25000,11.112,,,90,,,,,,,,,,,wg-a,,,,AAXX 10124 07481 12/75 00906 10320 20160 39867 40133 58017 60006 80000 91200=
07481,1997-08-10 15:00:00,34,1011.3,-1.8,34,16,500,11.112,,,70,,,,,,,,,,,wg-a,,,,AAXX 10154 07481 12/00 00706 10340 20160 39849 40113 57018 60006 80000 91500=
07481,1997-08-10 18:00:00,32,1011,-0.4,36,15,500,11.112,,,150,20.4,34.2,,,,,,,,,wg-a,,,,AAXX 10184 07481 12/00 21506 10320 20150 39845 40110 55004 60006 80003 91800 333 10342 20204=
07481,1997-08-10 21:00:00,28,1011.3,-0,55,18,25000,18.52,,,180,,,,,,,,,,,wg-a,,,,AAXX 10214 07481 12/75 11810 10280 20180 39845 40113 55000 60006 80002 92100=
07481,1997-08-11 00:00:00,27,1012.5,1,51,16,25000,22.224,,,200,,,,,,,,,,,wg-a,,,,AAXX 11004 07481 12/75 32012 10270 20160 39855 40125 51010 60006 82032 90000=
07481,1997-08-11 03:00:00,24,1012.6,-0.2,69,18,18000,3.704,,,10,,,,,,,,,,,wg-a,,,,AAXX 11034 07481 12/68 30102 10240 20180 39853 40126 58002 60006 81032 90300=
07481,1997-08-11 06:00:00,24,1012.5,-0,69,18,10000,7.408,,,170,22.6,32.3,,,,,,,,,wg-a,,,,AAXX 11064 07481 02/60 61704 10240 20180 39853 40125 55000 60006 85082 90600 333 10323 20226 60004=
07481,1997-08-11 09:00:00,26,1013.4,1,58,17,10000,7.408,,,230,,,,,,,,,,,wg-a,,,,AAXX 11094 07481 12660 72304 10260 20170 39863 40134 53010 60006 81282 90900=
07481,1997-08-11 12:00:00,23,1015.9,2.1,61,15,15000,18.52,,,210,,,,,,,,,,1,wg-a,,,,AAXX 11124 07481 02765 72110 10230 20150 39884 40159 51021 61000 70162 8228/ 91200 333 6100=
07481,1997-08-11 15:00:00,25,1015.9,0.2,61,17,25000,11.112,,,190,,,,,,,,,,,wg-a,,,,AAXX 11154 07481 12675 71906 10250 20170 39886 40159 51002 60006 8128/ 91500=
07481,1997-08-11 18:00:00,25,1017,1.1,61,17,25000,3.704,,,260,21.3,26.9,,,,,,,,,wg-a,,,,AAXX 11184 07481 12675 /2602 10250 20170 39897 40170 53011 60006 8128/ 91800 333 10269 20213=
07481,1997-08-11 21:00:00,23,1018.7,1.5,65,16,25000,7.408,,,140,,,,,,,,,,,wg-a,,,,AAXX 11214 07481 12775 /1404 10230 20160 39912 40187 51015 60006 81530 92100=
07481,1997-08-12 00:00:00,21,1019.4,0.5,73,16,25000,7.408,,,200,,,,,,,,,,,wg-a,,,,AAXX 12004 07481 12/75 12004 10210 20160 39917 40194 52005 60006 81031 90000=
07481,1997-08-12 03:00:00,19,1020.3,0.7,83,16,500,3.704,,,180,,,,,,,,,,,wg-a,,,,AAXX 12034 07481 12/00 11802 10190 20160 39924 40203 51007 60006 81030 90300=
07481,1997-08-12 06:00:00,19,1021.5,1.1,83,16,40000,7.408,,,180,17.4,25.2,,,,,,,,,wg-a,,,,AAXX 12064 07481 02/82 11804 10190 20160 39935 40215 53011 60006 81031 90600 333 10252 20174 61000=
07481,1997-08-12 09:00:00,25,1021.2,0.3,57,16,40000,7.408,,,260,,,,,,,,,,,wg-a,,,,AAXX 12094 07481 12/82 42604 10250 20160 39938 40212 51003 60006 80001 90900=
07481,1997-08-12 12:00:00,29,1019.9,-0.9,43,15,40000,3.704,,,330,,,,,,,,,,,wg-a,,,,AAXX 12124 07481 12682 23302 10290 20150 39929 40199 58009 60006 81101 91200=
07481,1997-08-12 15:00:00,31,1018.7,-1,38,15,40000,7.408,,,20,,,,,,,,,,,wg-a,,,,AAXX 12154 07481 12682 /0204 10310 20150 39919 40187 57010 60006 81201 91500=
07481,1997-08-12 18:00:00,29,1018.2,-0.6,52,18,35000,11.112,,,30,19,31.5,,,,,,,,,wg-a,,,,AAXX 12184 07481 12781 /0306 10290 20180 39913 40182 56006 60006 81201 91800 333 10315 20190=
07481,1997-08-12 21:00:00,26,1019.5,0.9,61,18,25000,3.704,,,140,,,,,,,,,,,wg-a,,,,AAXX 12214 07481 12/75 01402 10260 20180 39922 40195 52009 60006 80000 92100=
07481,1997-08-13 00:00:00,23,1020.1,0.4,69,17,20000,3.704,,,140,,,,,,,,,,,wg-a,,,,AAXX 13004 07481 12/70 01402 10230 20170 39926 40201 51004 60006 80000 90000=
07481,1997-08-13 03:00:00,22,1020.5,0.2,73,17,20000,3.704,,,150,,,,,,,,,,,wg-a,,,,AAXX 13034 07481 12/70 01502 10220 20170 39928 40205 50002 60006 80000 90300=
07481,1997-08-13 06:00:00,22,1021.6,1.1,73,17,20000,11.112,,,160,20.8,29.4,,,,,,,,,wg-a,,,,AAXX 13064 07481 02670 51606 10220 20170 39939 40216 53011 60006 81330 90600 333 10294 20208 60004=
07481,1997-08-13 09:00:00,27,1021.1,0,54,17,20000,7.408,,,190,,,,,,,,,,,wg-a,,,,AAXX 13094 07481 12670 41904 10270 20170 39939 40211 50000 60006 81130 90900=
07481,1997-08-13 12:00:00,31,1020.1,-0.7,43,17,20000,3.704,,,300,,,,,,,,,,,wg-a,,,,AAXX 13124 07481 12770 33002 10310 20170 39932 40201 58007 60006 81283 91200=
07481,1997-08-13 18:00:00,29,1020.4,0.9,55,19,20000,18.52,,,10,22.3,32.8,,,,,,,,,wg-a,,,,AAXX 13184 07481 12670 40110 10290 20190 39934 40204 53009 60006 81303 91800 333 10328 20223=
07481,1997-08-13 21:00:00,24,1021.9,1,78,20,18000,11.112,,,330,,,,,,,,,,,wg-a,,,,AAXX 13214 07481 12/68 13306 10240 20200 39944 40219 52010 60006 80001 92100=
07481,1997-08-14 00:00:00,22,1022.3,0.2,83,19,15000,7.408,,,290,,,,,,,,,,,wg-a,,,,AAXX 14004 07481 12/65 02904 10220 20190 39946 40223 50002 60006 80000 90000=
07481,1997-08-14 03:00:00,20,1022.2,-0.3,94,19,15000,0,,,0,,,,,,,,,,,wg-a,,,,AAXX 14034 07481 12/65 00000 10200 20190 39943 40222 58003 60006 80000 90300=
07481,1997-08-14 06:00:00,20,1022.5,0.4,94,19,15000,7.408,,,20,19.1,28.5,,,,,,,,,wg-a,,,,AAXX 14064 07481 02/65 00204 10200 20190 39947 40225 53004 60006 80000 90600 333 10285 20191 60004=
07481,1997-08-14 09:00:00,25,1022.1,0,65,18,12000,7.408,,,20,,,,,,,,,,,wg-a,,,,AAXX 14094 07481 12/62 00204 10250 20180 39947 40221 50000 60006 80000 90900=
07481,1997-08-14 12:00:00,30,1020,-1.6,49,18,20000,11.112,,,360,,,,,,,,,,,wg-a,,,,AAXX 14124 07481 12670 /3606 10300 20180 39931 40200 58016 60006 81200 91200=
07481,1997-08-14 15:00:00,32,1018.4,-1.4,41,17,500,11.112,,,330,,,,,,,,,,,wg-a,,,,AAXX 14154 07481 12600 /3306 10320 20170 39917 40184 56014 60006 81280 91500=
07481,1997-08-14 18:00:00,30,1017.8,-0.8,46,17,500,11.112,,,10,20.4,31.9,,,,,,,,,wg-a,,,,AAXX 14184 07481 12600 /0106 10300 20170 39909 40178 56008 60006 81202 91800 333 10319 20204=
07481,1997-08-14 21:00:00,25,1019,0.7,65,18,20000,7.408,,,20,,,,,,,,,,,wg-a,,,,AAXX 14214 07481 12/70 10204 10250 20180 39916 40190 51007 60006 80002 92100=
07481,1997-08-15 00:00:00,22,1019.8,0.5,78,18,20000,3.704,,,270,,,,,,,,,,,wg-a,,,,AAXX 15004 07481 12/70 02702 10220 20180 39921 40198 51005 60006 80000 90000=
07481,1997-08-15 03:00:00,20,1019.7,-0.2,88,18,15000,7.408,,,310,,,,,,,,,,,wg-a,,,,AAXX 15034 07481 12/65 03104 10200 20180 39919 40197 57002 60006 80000 90300=
07481,1997-08-15 06:00:00,20,1019.9,0.2,88,18,12000,3.704,,,340,19,29.7,,,,,,,,,wg-a,,,,AAXX 15064 07481 02362 /3402 10200 20180 39921 40199 53002 60006 81601 90600 333 10297 20190 60004=
07481,1997-08-15 12:00:00,29,1018.7,-0.8,48,17,15000,11.112,,,30,,,,,,,,,,,wg-a,,,,AAXX 15124 07481 12665 40306 10290 20170 39917 40187 58008 60006 82101 91200=
07481,1997-08-15 15:00:00,28,1018.2,-0.5,51,17,15000,7.408,,,330,,,,,,,,,,,wg-a,,,,AAXX 15154 07481 12665 73304 10280 20170 39912 40182 56005 60006 81131 91500=
07481,1997-08-15 18:00:00,27,1017.2,-1.1,48,15,25000,11.112,,,10,19.9,30.1,,,,,,,,,wg-a,,,,AAXX 15184 07481 12675 /0106 10270 20150 39901 40172 56011 60006 81182 91800 333 10301 20199=
07481,1997-08-15 21:00:00,23,1018.6,0.9,65,16,25000,3.704,,,20,,,,,,,,,,,wg-a,,,,AAXX 15214 07481 12/75 40202 10230 20160 39910 40186 51009 60006 80002 92100=
07481,1997-08-16 00:00:00,20,1018.1,-0.7,83,17,20000,3.704,,,250,,,,,,,,,,,wg-a,,,,AAXX 16004 07481 12/70 22502 10200 20170 39903 40181 58007 60006 80002 90000=
07481,1997-08-16 03:00:00,18,1017.8,-0.5,83,15,20000,0,,,0,,,,,,,,,,,wg-a,,,,AAXX 16034 07481 12/70 20000 10180 20150 39898 40178 55005 60006 80002 90300=
07481,1997-08-16 06:00:00,18,1018.3,0.5,88,16,25000,3.704,,,340,17.8,27,,,,,,,,,wg-a,,,,AAXX 16064 07481 02/75 43402 10180 20160 39903 40183 53005 60006 81032 90600 333 10270 20178 60004=
07481,1997-08-16 09:00:00,23,1018,0.2,65,16,25000,7.408,,,310,,,,,,,,,,,wg-a,,,,AAXX 16094 07481 12/75 53104 10230 20160 39905 40180 50002 60006 82032 90900=
07481,1997-08-16 12:00:00,26,1017.1,-0.6,51,15,25000,7.408,,,340,,,,,,,,,,,wg-a,,,,AAXX 16124 07481 12675 /3404 10260 20150 39899 40171 55006 60006 81132 91200=
07481,1997-08-16 15:00:00,25,1016.5,-0.7,61,17,15000,11.112,,,330,,,,,,,,,,,wg-a,,,,AAXX 16154 07481 12665 83306 10250 20170 39892 40165 58007 60006 81112 91500=
07481,1997-08-16 18:00:00,21,1017.1,0.3,83,18,15000,3.704,,,290,18.2,26.3,,,,,,,,,wg-a,,,,AAXX 16184 07481 12665 /2902 10210 20180 39895 40171 51003 60006 8117/ 91800 333 10263 20182=
07481,1997-08-16 21:00:00,21,1018,0.8,78,17,20000,11.112,,,240,,,,,,,,,,,wg-a,,,,AAXX 16214 07481 12670 82406 10210 20170 39903 40180 51008 60006 8127/ 92100=
07481,1997-08-17 00:00:00,20,1018,-0.1,83,17,20000,3.704,,,220,,,,,,,,,,,wg-a,,,,AAXX 17004 07481 12/70 72202 10200 20170 39902 40180 57001 60006 8707/ 90000=
07481,1997-08-17 03:00:00,19,1017.4,-0.7,83,16,20000,7.408,,,240,,,,,,,,,,,wg-a,,,,AAXX 17034 07481 12670 /2404 10190 20160 39895 40174 56007 60006 81570 90300=
07481,1997-08-17 06:00:00,20,1018.2,0.9,78,16,25000,3.704,,,180,18.3,21.3,,,,,,,,,wg-a,,,,AAXX 17064 07481 02675 /1802 10200 20160 39904 40182 51009 60006 81281 90600 333 10213 20183 60004=
07481,1997-08-17 09:00:00,24,1018.4,0.5,61,16,20000,7.408,,,10,,,,,,,,,,,wg-a,,,,AAXX 17094 07481 12670 /0104 10240 20160 39909 40184 51005 60006 81100 90900=
07481,1997-08-17 12:00:00,28,1016.7,-1.3,45,15,25000,14.816,,,330,,,,,,,,,,,wg-a,,,,AAXX 17124 07481 12675 33308 10280 20150 39896 40167 58013 60006 83900 91200=
07481,1997-08-17 15:00:00,29,1015.3,-1.3,40,14,35000,14.816,,,30,,,,,,,,,,,wg-a,,,,AAXX 17154 07481 12681 30308 10290 20140 39883 40153 58013 60006 82282 91500=
07481,1997-08-17 18:00:00,27,1015.6,0.2,48,15,35000,11.112,,,20,19.6,29.1,,,,,,,,,wg-a,,,,AAXX 17184 07481 12681 20206 10270 20150 39885 40156 53002 60006 81102 91800 333 10291 20196=
07481,1997-08-17 21:00:00,22,1017.2,1.1,73,17,15000,0,,,0,,,,,,,,,,,wg-a,,,,AAXX 17214 07481 12/65 20000 10220 20170 39896 40172 51011 60006 80002 92100=
07481,1997-08-18 00:00:00,20,1017.2,-0.2,73,15,15000,3.704,,,180,,,,,,,,,,,wg-a,,,,AAXX 18004 07481 12/65 21802 10200 20150 39894 40172 58002 60006 80002 90000=
07481,1997-08-18 03:00:00,18,1017.2,-0.2,83,15,15000,7.408,,,130,,,,,,,,,,,wg-a,,,,AAXX 18034 07481 12/65 11304 10180 20150 39892 40172 57002 60006 80002 90300=
07481,1997-08-18 06:00:00,17,1017.6,0.4,88,15,9000,0,,,0,17,27.2,,,,,,,,11,wg-a,,,,AAXX 18064 07481 02/59 20000 10170 20150 39896 40176 53004 60006 71100 80002 90600 333 10272 20170 60004=
07481,1997-08-18 09:00:00,23,1017.4,0.3,65,16,12000,3.704,,,360,,,,,,,,,,,wg-a,,,,AAXX 18094 07481 12/62 23602 10230 20160 39899 40174 53003 60006 80002 90900=
07481,1997-08-18 12:00:00,29,1016,-0.9,45,16,25000,11.112,,,20,,,,,,,,,,,wg-a,,,,AAXX 18124 07481 12675 30206 10290 20160 39890 40160 58009 60006 82902 91200=
07481,1997-08-18 15:00:00,30,1014.6,-1.3,35,13,500,18.52,,,10,,,,,,,,,,,wg-a,,,,AAXX 18154 07481 12700 30110 10300 20130 39877 40146 58013 60006 82203 91500=
07481,1997-08-18 18:00:00,28,1014.6,-0.1,37,12,500,11.112,,,10,17.4,30,,,,,,,,,wg-a,,,,AAXX 18184 07481 12700 20106 10280 20120 39876 40146 55001 60006 82102 91800 333 10300 20174=
07481,1997-08-18 21:00:00,22,1015.9,0.8,60,14,500,3.704,,,20,,,,,,,,,,,wg-a,,,,AAXX 18214 07481 12/00 20202 10220 20140 39884 40159 53008 60006 80002 92100=
07481,1997-08-19 00:00:00,20,1016.2,0,68,14,500,3.704,,,290,,,,,,,,,,,wg-a,,,,AAXX 19004 07481 12/00 22902 10200 20140 39884 40162 50000 60006 80002 90000=
07481,1997-08-19 06:00:00,18,1016.8,0.6,83,15,10000,0,,,0,16.3,27.7,,,,,,,,,wg-a,,,,AAXX 19064 07481 02/60 50000 10180 20150 39889 40168 53006 60006 80001 90600 333 10277 20163 60004=
07481,1997-08-19 09:00:00,24,1016.5,0.2,61,16,12000,3.704,,,310,,,,,,,,,,,wg-a,,,,AAXX 19094 07481 12/62 53102 10240 20160 39891 40165 50002 60006 80001 90900=
07481,1997-08-19 12:00:00,28,1015.3,-0.8,42,14,18000,11.112,,,10,,,,,,,,,,,wg-a,,,,AAXX 19124 07481 12668 /0106 10280 20140 39883 40153 58008 60006 81202 91200=
07481,1997-08-19 15:00:00,30,1013.8,-1.4,33,12,25000,11.112,,,40,,,,,,,,,,,wg-a,,,,AAXX 19154 07481 12675 30406 10300 20120 39869 40138 58014 60006 81282 91500=
07481,1997-08-19 18:00:00,27,1013.7,-0.2,42,13,20000,11.112,,,10,18.2,30.2,,,,,,,,,wg-a,,,,AAXX 19184 07481 12670 20106 10270 20130 39867 40137 55002 60006 81182 91800 333 10302 20182=
07481,1997-08-19 21:00:00,23,1015.2,1.1,61,15,15000,3.704,,,10,,,,,,,,,,,wg-a,,,,AAXX 19214 07481 12/65 70102 10230 20150 39878 40152 51011 60006 83032 92100=
07481,1997-08-20 00:00:00,22,1015.7,0.3,65,15,15000,3.704,,,220,,,,,,,,,,,wg-a,,,,AAXX 20004 07481 12/65 12202 10220 20150 39881 40157 52003 60006 81030 90000=
07481,1997-08-20 03:00:00,19,1016.2,0.3,78,15,15000,3.704,,,100,,,,,,,,,,,wg-a,,,,AAXX 20034 07481 12/65 01002 10190 20150 39884 40162 53003 60006 80000 90300=
07481,1997-08-20 06:00:00,18,1017.3,1,88,16,10000,3.704,,,10,16.9,27.2,,,,,,,,,wg-a,,,,AAXX 20064 07481 02/60 10102 10180 20160 39894 40173 53010 60006 80001 90600 333 10272 20169 60004=
07481,1997-08-20 09:00:00,24,1017.3,0.5,61,16,12000,7.408,,,30,,,,,,,,,,,wg-a,,,,AAXX 20094 07481 12/62 20304 10240 20160 39899 40173 51005 60006 80001 90900=
07481,1997-08-20 12:00:00,29,1016.2,-0.7,40,14,15000,7.408,,,350,,,,,,,,,,,wg-a,,,,AAXX 20124 07481 12665 43504 10290 20140 39892 40162 58007 60006 81231 91200=
07481,1997-08-20 15:00:00,29,1015.3,-0.8,35,12,25000,14.816,,,340,,,,,,,,,,,wg-a,,,,AAXX 20154 07481 12675 73408 10290 20120 39884 40153 56008 60006 81282 91500=
07481,1997-08-20 18:00:00,27,1015.3,-0.2,48,15,25000,7.408,,,340,18.4,30.2,,,,,,,,,wg-a,,,,AAXX 20184 07481 12775 /3404 10270 20150 39882 40153 58002 60006 81231 91800 333 10302 20184=
07481,1997-08-20 21:00:00,23,1016.9,1.2,65,16,20000,3.704,,,10,,,,,,,,,,,wg-a,,,,AAXX 20214 07481 12/70 40102 10230 20160 39894 40169 51012 60006 84030 92100=
07481,1997-08-21 00:00:00,21,1017.7,0.6,73,16,20000,0,,,0,,,,,,,,,,,wg-a,,,,AAXX 21004 07481 12/70 20000 10210 20160 39900 40177 52006 60006 81031 90000=
07481,1997-08-21 03:00:00,19,1018.2,0.3,78,15,13000,7.408,,,170,,,,,,,,,,,wg-a,,,,AAXX 21034 07481 12/63 31704 10190 20150 39903 40182 51003 60006 82031 90300=
07481,1997-08-21 06:00:00,20,1019.3,1.1,73,15,9000,7.408,,,140,18.1,26.7,,,,,,,,,wg-a,,,,AAXX 21064 07481 02/59 41404 10200 20150 39908 40193 53011 60006 82032 90600 333 10267 20181 60004=
07481,1997-08-21 07:00:00,20,1019.3,1.1,73,15,9000,7.408,,,140,18.1,26.7,,,,,,,,,wg-a,,,,AAXX 21074 07481 02/59 /1404 10200 20150 39914 40193 53011 60006 82032 90700 333 10267 20181 60004=
07481,1997-08-21 09:00:00,25,1019.3,0.5,57,16,11000,7.408,,,210,,,,,,,,,,,wg-a,,,,AAXX 21094 07481 12/61 52104 10250 20160 39919 40193 51005 60006 81032 90900=
07481,1997-08-21 12:00:00,30,1017.6,-1.2,38,14,13000,7.408,,,310,,,,,,,,,,,wg-a,,,,AAXX 21124 07481 12663 43104 10300 20140 39907 40176 58012 60006 81102 91200=
07481,1997-08-21 18:00:00,28,1017.3,0.6,40,13,25000,11.112,,,360,19.5,31.5,,,,,,,,,wg-a,,,,AAXX 21184 07481 12775 33606 10280 20130 39902 40173 53006 60006 81282 91800 333 10315 20195=
07481,1997-08-22 00:00:00,20,1020,0.8,73,15,25000,0,,,0,,,,,,,,,,,wg-a,,,,AAXX 22004 07481 12/75 10000 10200 20150 39921 40200 51008 60006 81081 90000=
07481,1997-08-22 06:00:00,19,1021.3,1.2,78,15,12000,3.704,,,160,17.8,28.2,,,,,,,,,wg-a,,,,AAXX 22064 07481 02/62 21602 10190 20150 39933 40213 53012 60006 80001 90600 333 10282 20178 60004=
07481,1997-08-22 09:00:00,25,1020.8,0.1,50,14,12000,3.704,,,270,,,,,,,,,,,wg-a,,,,AAXX 22094 07481 12/62 52702 10250 20140 39934 40208 50001 60006 80001 90900=
07481,1997-08-22 12:00:00,30,1019.5,-0.9,35,13,15000,7.408,,,360,,,,,,,,,,,wg-a,,,,AAXX 22124 07481 12/65 63604 10300 20130 39925 40195 58009 60006 80001 91200=
07481,1997-08-22 15:00:00,32,1017.7,-1.6,26,10,25000,14.816,,,340,,,,,,,,,,,wg-a,,,,AAXX 22154 07481 12875 63408 10320 20100 39909 40177 56016 60006 81101 91500=
07481,1997-08-22 18:00:00,29,1017.3,-0.6,35,12,25000,11.112,,,350,18.7,31.8,,,,,,,,,wg-a,,,,AAXX 22184 07481 12/75 53506 10290 20120 39903 40173 56006 60006 80001 91800 333 10318 20187=
07481,1997-08-22 21:00:00,24,1018.3,0.5,54,14,18000,3.704,,,10,,,,,,,,,,,wg-a,,,,AAXX 22214 07481 12/68 10102 10240 20140 39908 40183 51005 60006 80002 92100=
07481,1997-08-23 00:00:00,22,1018.3,-0.2,60,14,18000,0,,,0,,,,,,,,,,,wg-a,,,,AAXX 23004 07481 12/68 10000 10220 20140 39906 40183 58002 60006 81030 90000=
07481,1997-08-23 03:00:00,21,1018.7,0.3,64,14,10000,14.816,,,190,,,,,,,,,,,wg-a,,,,AAXX 23034 07481 12/60 /1908 10210 20140 39909 40187 53003 60006 90300=
07481,1997-08-23 06:00:00,20,1018.8,0.1,83,17,9000,7.408,,,120,19.3,29.1,,,,,,,,,wg-a,,,,AAXX 23064 07481 02/59 71204 10200 20170 39910 40188 50001 60006 8703/ 90600 333 10291 20193 60004=
07481,1997-08-23 09:00:00,25,1018.6,0.2,69,19,9000,3.704,,,170,,,,,,,,,,,wg-a,,,,AAXX 23094 07481 12/59 71702 10250 20190 39912 40186 53002 60006 8703/ 90900=
07481,1997-08-23 12:00:00,30,1016.7,-1.4,43,16,15000,7.408,,,250,,,,,,,,,,,wg-a,,,,AAXX 23124 07481 12665 72504 10300 20160 39898 40167 58014 60006 8113/ 91200=
07481,1997-08-23 15:00:00,32,1015,-1.5,32,13,25000,7.408,,,320,,,,,,,,,,,wg-a,,,,AAXX 23154 07481 12675 23204 10320 20130 39883 40150 57015 60006 81130 91500=
07481,1997-08-23 18:00:00,30,1014.5,-0.6,33,12,500,7.408,,,120,20.2,33,,,,,,,,,wg-a,,,,AAXX 23184 07481 12/00 31204 10300 20120 39877 40145 56006 60006 83030 91800 333 10330 20202=
07481,1997-08-23 21:00:00,27,1015,0.2,51,16,500,11.112,,,190,,,,,,,,,,,wg-a,,,,AAXX 23214 07481 12/00 11906 10270 20160 39879 40150 50002 60006 81030 92100=
07481,1997-08-24 00:00:00,24,1015.7,0.4,61,16,25000,3.704,,,220,,,,,,,,,,,wg-a,,,,AAXX 24004 07481 12/75 12202 10240 20160 39883 40157 53004 60006 81030 90000=
07481,1997-08-24 03:00:00,22,1015.8,-0.1,65,15,20000,11.112,,,150,,,,,,,,,,,wg-a,,,,AAXX 24034 07481 12/70 11506 10220 20150 39882 40158 58001 60006 81031 90300=
07481,1997-08-24 06:00:00,23,1016.4,0.7,61,15,20000,11.112,,,180,21.2,30.2,,,,,,,,,wg-a,,,,AAXX 24064 07481 02/70 31806 10230 20150 39889 40164 53007 60006 82031 90600 333 10302 20212 60004=
07481,1997-08-24 09:00:00,27,1016,-0.1,45,14,20000,14.816,,,200,,,,,,,,,,,wg-a,,,,AAXX 24094 07481 12/70 12008 10270 20140 39888 40160 58001 60006 81030 90900=
07481,1997-08-24 12:00:00,32,1014.1,-1.4,34,14,500,11.112,,,190,,,,,,,,,,,wg-a,,,,AAXX 24124 07481 12700 11906 10320 20140 39874 40141 58014 60006 81280 91200=
07481,1997-08-24 15:00:00,33,1012.1,-1.8,24,10,500,7.408,,,200,,,,,,,,,,,wg-a,,,,AAXX 24154 07481 12700 12004 10330 20100 39856 40121 58018 60006 81281 91500=
07481,1997-08-24 18:00:00,31,1011.4,-0.9,33,13,500,11.112,,,200,22.6,33.8,,,,,,,,,wg-a,,,,AAXX 24184 07481 12700 12006 10310 20130 39847 40114 56009 60006 81281 91800 333 10338 20226=
07481,1997-08-24 21:00:00,27,1011.9,0.1,45,14,500,14.816,,,190,,,,,,,,,,,wg-a,,,,AAXX 24214 07481 12/00 01908 10270 20140 39848 40119 50001 60006 80000 92100=
07481,1997-08-25 00:00:00,24,1012.2,0.1,54,14,500,14.816,,,160,,,,,,,,,,,wg-a,,,,AAXX 25004 07481 12/00 01608 10240 20140 39849 40122 50001 60006 80000 90000=
07481,1997-08-25 03:00:00,23,1012.4,0.1,53,13,25000,18.52,,,180,,,,,,,,,,,wg-a,,,,AAXX 25034 07481 12775 51810 10230 20130 39850 40124 53001 60006 83530 90300=
07481,1997-08-25 06:00:00,22,1012.4,-0.1,73,17,15000,22.224,,,190,21.8,30.7,,,,,,,,,wg-a,,,,AAXX 25064 07481 02/65 21912 10220 20170 39849 40124 58001 60006 82020 90600 333 10307 20218 60004=
07481,1997-08-25 09:00:00,26,1011.8,-0.2,54,16,15000,14.816,,,190,,,,,,,,,,,wg-a,,,,AAXX 25094 07481 12465 /1908 10260 20160 39847 40118 55002 60006 81100 90900=
07481,1997-08-25 12:00:00,30,1009.9,-1.6,31,11,15000,31.484,,,210,,,,,,,,,,,wg-a,,,,AAXX 25124 07481 12565 12117 10300 20110 39831 40099 56016 60006 81102 91200=
07481,1997-08-25 15:00:00,29,1008.8,-1.1,37,13,18000,35.188,,,220,,,,,,,,,,,wg-a,,,,AAXX 25154 07481 12668 52219 10290 20130 39820 40088 57011 60006 81232 91500=
07481,1997-08-25 18:00:00,26,1009.3,0.2,45,13,25000,18.52,,,200,22,31.3,,,,,,,,,wg-a,,,,AAXX 25184 07481 12675 52010 10260 20130 39822 40093 50002 60006 81132 91800 333 10313 20220=
07481,1997-08-26 00:00:00,22,1011.2,-0.1,65,15,20000,14.816,,,190,,,,,,,,,,,wg-a,,,,AAXX 26004 07481 12/70 71908 10220 20150 39837 40112 58001 60006 82032 90000=
07481,1997-08-26 03:00:00,21,1010.7,-0.5,73,16,18000,11.112,,,160,,,,,,,,,,,wg-a,,,,AAXX 26034 07481 12/68 71606 10210 20160 39832 40107 56005 60006 85032 90300=
07481,1997-08-26 06:00:00,19,1011.2,0.3,88,17,10000,3.704,,,280,19.1,26,,,,,,,,,wg-a,,,,AAXX 26064 07481 02/60 62802 10190 20170 39835 40112 53003 60006 83082 90600 333 10260 20191 60004=
07481,1997-08-26 09:00:00,24,1011.2,0.4,54,14,12000,14.816,,,220,,,,,,,,,,,wg-a,,,,AAXX 26094 07481 12562 /2208 10240 20140 39839 40112 52004 60006 81182 90900=
07481,1997-08-26 12:00:00,26,1010.5,-0.5,39,11,27000,11.112,,,250,,,,,,,,,,,wg-a,,,,AAXX 26124 07481 12677 72506 10260 20110 39834 40105 58005 60006 81182 91200=
07481,1997-08-26 18:00:00,25,1009.1,-0.2,44,12,500,18.52,,,130,19.1,27.6,,,,,,,,,wg-a,,,,AAXX 26184 07481 12/00 41310 10250 20120 39820 40091 55002 60006 83032 91800 333 10276 20191=
07481,1997-08-26 21:00:00,21,1009.6,0.1,60,13,500,11.112,,,140,,,,,,,,,,,wg-a,,,,AAXX 26214 07481 12/00 01406 10210 20130 39821 40096 50001 60006 80000 92100=
07481,1997-08-27 00:00:00,20,1009.6,-0.1,64,13,25000,3.704,,,180,,,,,,,,,,,wg-a,,,,AAXX 27004 07481 12/75 01802 10200 20130 39820 40096 58001 60006 80000 90000=
07481,1997-08-27 06:00:00,20,1008.8,-0.4,73,15,20000,18.52,,,150,17.1,25.2,,,,,,,,,wg-a,,,,AAXX 27064 07481 02/70 31510 10200 20150 39812 40088 58004 60006 83081 90600 333 10252 20171 60004=
07481,1997-08-27 09:00:00,24,1007.8,-0.5,61,16,20000,31.484,,,170,,,,,,,,,,,wg-a,,,,AAXX 27094 07481 12/70 31717 10240 20160 39807 40078 58005 60006 82081 90900=
07481,1997-08-27 12:00:00,27,1006.7,-0.9,45,14,25000,25.928,,,190,,,,,,,,,,,wg-a,,,,AAXX 27124 07481 12675 71914 10270 20140 39798 40067 56009 60006 8125/ 91200=
07481,1997-08-27 15:00:00,28,1004.7,-1.9,45,15,500,25.928,,,210,,,,,,,,,,,wg-a,,,,AAXX 27154 07481 12600 72114 10280 20150 39779 40047 58019 60006 8127/ 91500=
07481,1997-08-27 18:00:00,25,1004.1,-0.8,57,16,20000,22.224,,,200,19.8,28.2,,,,,,,,,wg-a,,,,AAXX 27184 07481 12770 72012 10250 20160 39771 40041 55008 60006 8157/ 91800 333 10282 20198=
07481,1997-08-27 21:00:00,21,1004.6,0.2,88,19,15000,11.112,,,160,,,,1,,,,,,60,wg-a,,,,AAXX 27214 07481 12665 81606 10210 20190 39773 40046 50002 60017 76062 8287/ 92100=
07481,1997-08-28 00:00:00,16,1007.1,1.9,94,15,9000,3.704,,,350,,,,11,,,,,,63,wg-a,,,,AAXX 28004 07481 02559 83502 10160 20150 39792 40071 50019 60126 76362 8487/ 90000 333 60117=
07481,1997-08-28 06:00:00,17,1006.4,1,94,16,500,14.816,,,180,15.5,24.7,,,,,,,,61,wg-a,,,,AAXX 28064 07481 02200 81808 10170 20160 39786 40064 53010 61000 76162 888// 90600 333 10247 20155 6020=
07481,1997-08-28 09:00:00,14,1010.2,3.4,100,14,500,11.112,,,210,,,,12,,,,,,63,wg-a,,,,AAXX 28094 07481 12200 82106 10140 20140 39820 40102 53034 60127 76366 8785/ 90900=
07481,1997-08-28 12:00:00,15,1010.5,0.4,88,13,500,18.52,,,140,,,,4,,,,,,1,wg-a,,,,AAXX 28124 07481 02400 71410 10150 20130 39824 40105 50004 60166 70162 84872 91200 333 60047=
07481,1997-08-28 18:00:00,17,1010.9,0.8,82,14,12000,14.816,,,180,14,19.9,,,,,,,,17,wg-a,,,,AAXX 28184 07481 02562 /1808 10170 20140 39829 40109 53008 61000 71798 83982 91800 333 10199 20140 6005=
07481,1997-08-28 21:00:00,16,1013.8,2.7,77,12,15000,11.112,,,190,,,,,,,,,,21,wg-a,,,,AAXX 28214 07481 02565 71906 10160 20120 39856 40138 51027 61000 72196 8383/ 92100 333 ////=
07481,1997-08-29 00:00:00,14,1015.6,1.7,88,12,20000,7.408,,,230,,,,,,,,,,1,wg-a,,,,AAXX 29004 07481 02770 22304 10140 20120 39873 40156 51017 61000 70196 81530 90000 333 ////=
07481,1997-08-29 03:00:00,15,1017.1,1.4,67,9,18000,7.408,,,180,,,,,,,,,,,wg-a,,,,AAXX 29034 07481 12768 61804 10150 20090 39887 40171 51014 60006 84531 90300=
07481,1997-08-29 06:00:00,14,1018.6,1.4,82,11,25000,11.112,,,160,12.9,16.6,,,,,21,,,,wg-a,,,,AAXX 29064 07481 02475 61606 10140 20110 39901 40186 52014 60006 84530 90600 333 10166 20129 60214=
07481,1997-08-29 09:00:00,17,1019.8,1.5,63,10,500,14.816,,,210,,,,,,,,,,,wg-a,,,,AAXX 29094 07481 12400 /2108 10170 20100 39916 40198 53015 60006 84830 90900=
07481,1997-08-29 12:00:00,19,1019.9,0.3,52,9,35000,11.112,,,190,,,,,,,,,,,wg-a,,,,AAXX 29124 07481 12581 71906 10190 20090 39919 40199 53003 60006 87800 91200=
07481,1997-08-29 15:00:00,19,1020.5,0.6,60,11,35000,11.112,,,250,,,,,,,,,,16,wg-a,,,,AAXX 29154 07481 02681 /2506 10190 20110 39925 40205 53006 61000 71686 86800 91500 333 ////=
07481,1997-08-29 18:00:00,19,1019.9,-0.7,56,10,35000,11.112,,,110,14.1,21.1,,,,,,,,2,wg-a,,,,AAXX 29184 07481 02681 31106 10190 20100 39918 40199 56007 60006 70286 82802 91800 333 10211 20141 61000=
07481,1997-08-30 00:00:00,15,1021.4,-0,77,11,500,7.408,,,150,,,,,,,,,,,wg-a,,,,AAXX 30004 07481 12/00 61504 10150 20110 39929 40214 55000 60006 86050 90000=
07481,1997-08-30 03:00:00,14,1020.7,-0.8,77,10,500,11.112,,,150,,,,,,,,,,,wg-a,,,,AAXX 30034 07481 12/00 41506 10140 20100 39921 40207 56008 60006 82031 90300=
07481,1997-08-30 06:00:00,14,1020.6,-0,77,10,500,11.112,,,180,13.1,18.6,,,,,,,,,wg-a,,,,AAXX 30064 07481 02/00 71806 10140 20100 39921 40206 55000 60006 90600 333 10186 20131 61000=
07481,1997-08-30 09:00:00,16,1021.5,1,77,12,40000,11.112,,,130,,,,0,,,,,,3,wg-a,,,,AAXX 30094 07481 12582 81306 10160 20120 39931 40215 51010 60007 70362 8487/ 90900=
07481,1997-08-30 12:00:00,21,1020.5,-0.4,56,12,60000,22.224,,,130,,,,,,,,,,1,wg-a,,,,AAXX 30124 07481 12686 71312 10210 20120 39927 40205 58004 60006 70162 83831 91200=
07481,1997-08-30 15:00:00,24,1019.5,-0.7,50,13,75000,7.408,,,140,,,,,,,,,,,wg-a,,,,AAXX 30154 07481 12689 41404 10240 20130 39920 40195 57007 60006 81532 91500=
07481,1997-08-30 18:00:00,22,1019.3,-0.4,60,14,75000,7.408,,,120,14.3,24.6,,,,,,,,,wg-a,,,,AAXX 30184 07481 12789 11204 10220 20140 39916 40193 56004 60006 81500 91800 333 10246 20143=
07481,1997-08-30 21:00:00,18,1020.2,0.5,77,14,25000,7.408,,,130,,,,,,,,,,,wg-a,,,,AAXX 30214 07481 12/75 01304 10180 20140 39921 40202 52005 60006 80000 92100=
07481,1997-08-31 00:00:00,17,1019.6,-0.7,77,13,25000,3.704,,,150,,,,,,,,,,,wg-a,,,,AAXX 31004 07481 12/75 01502 10170 20130 39914 40196 56007 60006 80000 90000=
07481,1997-08-31 03:00:00,15,1018.6,-1.1,88,13,25000,0,,,0,,,,,,,,,,,wg-a,,,,AAXX 31034 07481 12/75 00000 10150 20130 39903 40186 58011 60006 80000 90300=
07481,1997-08-31 06:00:00,15,1018.4,-0.2,94,14,500,0,,,0,13.7,21.9,,,,,,,,,wg-a,,,,AAXX 31064 07481 02/00 10000 10150 20140 39901 40184 55002 60006 80001 90600 333 10219 20137 60004=
07481,1997-08-31 12:00:00,28,1015.4,-1.2,42,14,60000,11.112,,,150,,,,,,,,,,,wg-a,,,,AAXX 31124 07481 12/86 11506 10280 20140 39883 40154 56012 60006 80002 91200=
07481,1997-08-31 15:00:00,30,1013.7,-1.4,35,13,60000,18.52,,,200,,,,,,,,,,,wg-a,,,,AAXX 31154 07481 12/86 12010 10300 20130 39869 40137 56014 60006 80002 91500=
07481,1997-08-31 18:00:00,27,1013.6,-0.4,48,15,60000,22.224,,,160,15.1,30.6,,,,,,,,,wg-a,,,,AAXX 31184 07481 12/86 11612 10270 20150 39865 40136 56004 60006 80002 91800 333 10306 20151=
07481,1997-08-31 21:00:00,24,1015.8,1.9,57,15,40000,11.112,,,180,,,,,,,,,,,wg-a,,,,AAXX 31214 07481 12/82 11806 10240 20150 39884 40158 51019 60006 80001 92100=
07481,1997-09-01 00:00:00,22,1017,0.9,57,13,500,11.112,,,160,,,,,,,,,,,wg-a,,,,AAXX 01004 07481 12/00 11606 10220 20130 39893 40170 51009 60006 80001 90000=
07481,1997-09-01 03:00:00,20,1017.2,0,68,14,500,3.704,,,190,,,,,,,,,,,wg-a,,,,AAXX 01034 07481 12/00 11902 10200 20140 39893 40172 50000 60006 80002 90300=
07481,1997-09-01 06:00:00,18,1017.8,0.5,77,14,35000,7.408,,,160,17.6,26.8,,,,,,,,,wg-a,,,,AAXX 01064 07481 02/81 51604 10180 20140 39898 40178 53005 60006 81041 90600 333 10268 20176 60004=
07481,1997-09-01 09:00:00,23,1016.3,-1,57,14,500,7.408,,,160,,,,,,,,,,,wg-a,,,,AAXX 01094 07481 12/00 61604 10230 20140 39888 40163 58010 60006 81042 90900=
07481,1997-09-01 12:00:00,27,1015.3,-0.6,39,12,40000,18.52,,,180,,,,,,,,,,,wg-a,,,,AAXX 01124 07481 12682 /1810 10270 20120 39882 40153 57006 60006 81182 91200=
07481,1997-09-01 15:00:00,26,1014.7,-0.7,45,13,50000,25.928,,,160,,,,,,,,,,,wg-a,,,,AAXX 01154 07481 12684 71614 10260 20130 39875 40147 58007 60006 8118/ 91500=
07481,1997-09-01 18:00:00,23,1016.2,1.2,65,16,500,14.816,,,200,18.4,27.5,,,,,,,,21,wg-a,,,,AAXX 01184 07481 02600 72008 10230 20160 39887 40162 51012 61000 72162 81172 91800 333 10275 20184 6100=
07481,1997-09-01 21:00:00,20,1016.8,0.3,88,18,25000,7.408,,,30,,,,,,,,,,60,wg-a,,,,AAXX 01214 07481 02675 70304 10200 20180 39890 40168 50003 61000 76062 8217/ 92100 333 ////=
07481,1997-09-02 00:00:00,18,1017.8,0.8,94,17,15000,7.408,,,10,,,,2,,,,,,61,wg-a,,,,AAXX 02004 07481 02565 80104 10180 20170 39898 40178 53008 60026 76162 8487/ 90000 333 60027=
07481,1997-09-02 03:00:00,17,1017.2,-0.7,94,16,20000,0,,,0,,,,1,,,,,,60,wg-a,,,,AAXX 02034 07481 12570 70000 10170 20160 39891 40172 56007 60017 76066 8487/ 90300=
07481,1997-09-02 06:00:00,17,1017.8,0.6,100,17,9000,0,,,0,16.7,23.3,,,,,,,,60,wg-a,,,,AAXX 02064 07481 02259 70000 10170 20170 39897 40178 53006 61000 76066 8387/ 90600 333 10233 20167 6004=
07481,1997-09-02 09:00:00,21,1018.1,0.7,73,16,20000,14.816,,,200,,,,,,,,,,3,wg-a,,,,AAXX 02094 07481 02470 72008 10210 20160 39904 40181 53007 61000 70362 82842 90900 333 ////=
07481,1997-09-02 12:00:00,24,1017.9,0.1,57,15,500,7.408,,,240,,,,,,,,,,2,wg-a,,,,AAXX 02124 07481 02400 72404 10240 20150 39905 40179 51001 61000 70262 83248 91200 333 ////=
07481,1997-09-02 18:00:00,18,1019.5,1.2,83,15,500,18.52,,,340,16.8,24.3,,,,,,,,,wg-a,,,,AAXX 02184 07481 12400 73410 10180 20150 39915 40195 53012 60006 82831 91800 333 10243 20168=
07481,1997-09-02 21:00:00,17,1021,1.3,88,15,25000,14.816,,,340,,,,,,,,,,,wg-a,,,,AAXX 02214 07481 12475 73408 10170 20150 39928 40210 51013 60006 875// 92100=
07481,1997-09-03 00:00:00,16,1021,-0.1,94,15,15000,14.816,,,330,,,,1,,,,,,21,wg-a,,,,AAXX 03004 07481 02365 83308 10160 20150 39927 40210 58001 60016 72162 885// 90000 333 60017=
07481,1997-09-03 03:00:00,16,1020.5,-0.5,94,15,15000,14.816,,,330,,,,,,,,,,,wg-a,,,,AAXX 03034 07481 12365 83308 10160 20150 39922 40205 58005 60006 886// 90300=
07481,1997-09-03 06:00:00,16,1020.8,0.3,94,15,12000,14.816,,,330,15.3,18.2,,,,,1,,,,wg-a,,,,AAXX 03064 07481 02362 83308 10160 20150 39925 40208 53003 60006 886// 90600 333 10182 20153 60014=
07481,1997-09-03 09:00:00,17,1021.3,0.6,88,15,18000,11.112,,,330,,,,,,,,,,,wg-a,,,,AAXX 03094 07481 12468 83306 10170 20150 39931 40213 51006 60006 885// 90900=
07481,1997-09-03 12:00:00,19,1020.6,-0.5,78,15,18000,11.112,,,330,,,,,,,,,,,wg-a,,,,AAXX 03124 07481 12468 83306 10190 20150 39926 40206 58005 60006 875// 91200=
07481,1997-09-03 18:00:00,20,1020.3,0.5,78,16,25000,3.704,,,60,15.6,20.2,,,,,,,,,wg-a,,,,AAXX 03184 07481 12475 70602 10200 20160 39924 40203 53005 60006 875// 91800 333 10202 20156=
07481,1997-09-03 21:00:00,17,1021,0.5,94,16,12000,0,,,0,,,,,,,,,,,wg-a,,,,AAXX 03214 07481 12562 10000 10170 20160 39929 40210 50005 60006 81500 92100=
07481,1997-09-04 00:00:00,16,1020.9,-0.3,94,15,10000,3.704,,,150,,,,,,,,,,,wg-a,,,,AAXX 04004 07481 12560 /1502 10160 20150 39926 40209 58003 60006 81500 90000=
07481,1997-09-04 03:00:00,16,1020.4,-0.5,94,15,10000,3.704,,,270,,,,,,,,,,,wg-a,,,,AAXX 04034 07481 12460 72702 10160 20150 39921 40204 56005 60006 875// 90300=
07481,1997-09-04 06:00:00,16,1021.2,0.8,94,15,8000,0,,,0,15.8,19.8,,,,,,,,,wg-a,,,,AAXX 04064 07481 02458 70000 10160 20150 39929 40212 53008 60006 875// 90600 333 10198 20158 60004=
07481,1997-09-04 09:00:00,19,1021.4,0.5,83,16,8000,3.704,,,310,,,,,,,,,,,wg-a,,,,AAXX 04094 07481 12458 73102 10190 20160 39934 40214 52005 60006 875// 90900=
07481,1997-09-04 15:00:00,26,1017.9,-1.6,51,15,20000,7.408,,,350,,,,,,,,,,,wg-a,,,,AAXX 04154 07481 12570 /3504 10260 20150 39907 40179 56016 60006 81101 91500=
07481,1997-09-04 18:00:00,24,1018,-0.1,65,17,25000,7.408,,,30,16.1,26.5,,,,,,,,,wg-a,,,,AAXX 04184 07481 12/75 60304 10240 20170 39906 40180 55001 60006 80005 91800 333 10265 20161=
07481,1997-09-04 21:00:00,20,1019.4,1,83,17,25000,0,,,0,,,,,,,,,,,wg-a,,,,AAXX 04214 07481 12/75 10000 10200 20170 39916 40194 51010 60006 80001 92100=
07481,1997-09-05 00:00:00,18,1019.6,0,94,17,20000,3.704,,,260,,,,,,,,,,,wg-a,,,,AAXX 05004 07481 12/70 12602 10180 20170 39916 40196 50000 60006 80001 90000=
07481,1997-09-05 03:00:00,16,1019.7,-0.1,94,15,9000,3.704,,,60,,,,,,,,,,,wg-a,,,,AAXX 05034 07481 12/59 00602 10160 20150 39915 40197 55001 60006 80000 90300=
07481,1997-09-05 06:00:00,17,1020,0.3,94,16,500,7.408,,,190,16,24.2,,,,,,,,,wg-a,,,,AAXX 05064 07481 02/00 21904 10170 20160 39918 40200 53003 60006 80001 90600 333 10242 20160 60004=
07481,1997-09-05 12:00:00,29,1017.5,-1.3,52,18,15000,3.704,,,240,,,,,,,,,,,wg-a,,,,AAXX 05124 07481 12665 32402 10290 20180 39905 40175 56013 60006 81101 91200=
07481,1997-09-05 15:00:00,31,1015.9,-1.5,26,9,35000,22.224,,,200,,,,,,,,,,,wg-a,,,,AAXX 05154 07481 12781 32012 10310 20090 39890 40159 58015 60006 81149 91500=
07481,1997-09-05 18:00:00,27,1016.2,0.1,48,15,500,11.112,,,150,17,31,,,,,,,,,wg-a,,,,AAXX 05184 07481 12700 31506 10270 20150 39891 40162 53001 60006 82249 91800 333 10310 20170=
07481,1997-09-05 21:00:00,25,1017.7,1.2,50,14,10000,22.224,,,200,,,,,,,,,,,wg-a,,,,AAXX 05214 07481 12/60 /2012 10250 20140 39903 40177 51012 60006 92100=
07481,1997-09-06 00:00:00,22,1019.2,1.3,65,15,20000,7.408,,,200,,,,,,,,,,,wg-a,,,,AAXX 06004 07481 12/70 62004 10220 20150 39916 40192 53013 60006 83032 90000=
07481,1997-09-06 03:00:00,22,1019.5,0.2,60,14,20000,0,,,0,,,,,,,,,,,wg-a,,,,AAXX 06034 07481 12770 60000 10220 20140 39918 40195 53002 60006 81530 90300=
07481,1997-09-06 06:00:00,18,1021.2,1.3,88,16,15000,3.704,,,350,18.1,27,,,,,,,,,wg-a,,,,AAXX 06064 07481 02665 /3502 10180 20160 39931 40212 53013 60006 81132 90600 333 10270 20181 60004=
07481,1997-09-06 09:00:00,23,1021.4,0.7,73,18,15000,3.704,,,70,,,,,,,,,,,wg-a,,,,AAXX 06094 07481 12465 30702 10230 20180 39938 40214 51007 60006 81132 90900=
07481,1997-09-06 12:00:00,25,1020.9,-0.4,65,18,20000,11.112,,,340,,,,,,,,,,,wg-a,,,,AAXX 06124 07481 12570 43406 10250 20180 39934 40209 56004 60006 83102 91200=
07481,1997-09-06 15:00:00,23,1021,-0,69,17,25000,18.52,,,20,,,,,,,,,,,wg-a,,,,AAXX 06154 07481 12575 40210 10230 20170 39934 40210 54000 60006 81132 91500=
07481,1997-09-06 18:00:00,18,1023,1.5,83,15,15000,14.816,,,340,18.4,25.1,,,,,,,,,wg-a,,,,AAXX 06184 07481 12565 23408 10180 20150 39949 40230 53015 60006 81931 91800 333 10251 20184=
07481,1997-09-06 21:00:00,17,1024.4,1.2,88,15,20000,11.112,,,340,,,,,,,,,,,wg-a,,,,AAXX 06214 07481 12470 73406 10170 20150 39961 40244 53012 60006 875// 92100=
07481,1997-09-07 00:00:00,17,1024.7,0.2,88,15,15000,7.408,,,330,,,,,,,,,,,wg-a,,,,AAXX 07004 07481 12465 83304 10170 20150 39963 40247 50002 60006 885// 90000=
07481,1997-09-07 03:00:00,16,1024,-0.7,88,14,20000,7.408,,,340,,,,,,,,,,,wg-a,,,,AAXX 07034 07481 12470 83404 10160 20140 39956 40240 58007 60006 885// 90300=
07481,1997-09-07 06:00:00,16,1024.9,0.9,88,14,20000,14.816,,,350,15.9,18.4,,,,,,,,,wg-a,,,,AAXX 07064 07481 02470 83508 10160 20140 39965 40249 53009 60006 8453/ 90600 333 10184 20159 60004=
07481,1997-09-07 09:00:00,19,1025.7,1,68,13,500,14.816,,,360,,,,,,,,,,,wg-a,,,,AAXX 07094 07481 12400 33608 10190 20130 39975 40257 51010 60006 82530 90900=
07481,1997-09-07 12:00:00,22,1024.9,-0.5,50,11,40000,18.52,,,340,,,,,,,,,,,wg-a,,,,AAXX 07124 07481 12582 /3410 10220 20110 39970 40249 58005 60006 81101 91200=
07481,1997-09-07 18:00:00,20,1024.7,0.3,49,9,60000,18.52,,,350,16.1,22.8,,,,,,,,,wg-a,,,,AAXX 07184 07481 12686 /3510 10200 20090 39966 40247 53003 60006 81102 91800 333 10228 20161=
07481,1997-09-07 21:00:00,16,1025.9,0.8,72,11,25000,11.112,,,340,,,,,,,,,,,wg-a,,,,AAXX 07214 07481 12/75 13406 10160 20110 39974 40259 51008 60006 80001 92100=
07481,1997-09-08 00:00:00,14,1026,-0.1,82,11,25000,7.408,,,310,,,,,,,,,,,wg-a,,,,AAXX 08004 07481 12/75 13104 10140 20110 39973 40260 56001 60006 81030 90000=
07481,1997-09-08 03:00:00,12,1025.9,-0.3,94,11,20000,0,,,0,,,,,,,,,,,wg-a,,,,AAXX 08034 07481 12/70 00000 10120 20110 39970 40259 55003 60006 80000 90300=
07481,1997-09-08 06:00:00,12,1026.4,0.5,94,11,20000,7.408,,,340,10.8,19.7,,,,,,,,,wg-a,,,,AAXX 08064 07481 02270 73404 10120 20110 39975 40264 53005 60006 875// 90600 333 10197 20108 60004=
07481,1997-09-08 09:00:00,13,1027.1,0.8,88,11,18000,7.408,,,30,,,,,,,,,,,wg-a,,,,AAXX 08094 07481 12368 /0304 10130 20110 39983 40271 53008 60006 86500 90900=
07481,1997-09-08 12:00:00,19,1025.7,-0.8,64,12,20000,7.408,,,20,,,,,,,,,,,wg-a,,,,AAXX 08124 07481 12/70 00204 10190 20120 39975 40257 58008 60006 80000 91200=
07481,1997-09-08 15:00:00,23,1023.5,-1.8,47,11,40000,11.112,,,10,,,,,,,,,,,wg-a,,,,AAXX 08154 07481 12/82 00106 10230 20110 39957 40235 57018 60006 80000 91500=
07481,1997-09-08 18:00:00,21,1023.6,-0,56,12,40000,11.112,,,350,11.8,23,,,,,,,,,wg-a,,,,AAXX 08184 07481 12/82 03506 10210 20120 39957 40236 55000 60006 80000 91800 333 10230 20118=
07481,1997-09-08 21:00:00,17,1024.3,0.2,77,13,40000,0,,,0,,,,,,,,,,,wg-a,,,,AAXX 08214 07481 12/82 00000 10170 20130 39959 40243 50002 60006 80000 92100=
07481,1997-09-09 03:00:00,12,1023.6,-0.6,94,11,40000,3.704,,,320,,,,,,,,,,,wg-a,,,,AAXX 09034 07481 12/82 03202 10120 20110 39948 40236 56006 60006 80000 90300=
07481,1997-09-09 06:00:00,13,1023.4,-0.1,94,12,500,3.704,,,350,11.9,20.9,,,,,,,,,wg-a,,,,AAXX 09064 07481 02/00 03502 10130 20120 39947 40234 55001 60006 80000 90600 333 10209 20119 60004=
07481,1997-09-09 09:00:00,18,1022.7,-0.1,77,14,500,7.408,,,340,,,,,,,,,,,wg-a,,,,AAXX 09094 07481 12/00 03404 10180 20140 39946 40227 57001 60006 80000 90900=
07481,1997-09-09 12:00:00,23,1020.5,-1.7,53,13,500,14.816,,,360,,,,,,,,,,,wg-a,,,,AAXX 09124 07481 12/00 13608 10230 20130 39929 40205 57017 60006 80001 91200=
07481,1997-09-09 18:00:00,22,1018.8,-0.4,60,14,10000,22.224,,,360,,,,,,,,,,,wg-a,,,,AAXX 09184 07481 12/60 /3612 10220 20140 39911 40188 56004 60006 91800=
07481,1997-09-10 00:00:00,14,1021.1,0.4,82,11,500,7.408,,,330,,,,,,,,,,,wg-a,,,,AAXX 10004 07481 12/00 03304 10140 20110 39925 40211 53004 60006 80000 90000=
07481,1997-09-10 03:00:00,12,1020.5,-0.7,94,11,12000,14.816,,,330,,,,,,,,,,,wg-a,,,,AAXX 10034 07481 12462 /3308 10120 20110 39918 40205 58007 60006 86500 90300=
07481,1997-09-10 06:00:00,12,1020.3,-0.2,94,11,6000,18.52,,,350,11.9,24.8,,,,,,,,,wg-a,,,,AAXX 10064 07481 02256 83510 10120 20110 39916 40203 55002 60006 885// 90600 333 10248 20119 60004=
07481,1997-09-10 09:00:00,12,1020.6,0.3,88,10,7000,14.816,,,10,,,,,,,,,,,wg-a,,,,AAXX 10094 07481 12457 80108 10120 20100 39919 40206 52003 60006 885// 90900=
07481,1997-09-10 12:00:00,16,1019.6,-0.6,72,11,12000,7.408,,,40,,,,,,,,,,,wg-a,,,,AAXX 10124 07481 12562 20404 10160 20110 39913 40196 58006 60006 82100 91200=
07481,1997-09-10 18:00:00,19,1017.7,0.3,60,11,40000,7.408,,,320,11.7,21.8,,,,,,,,,wg-a,,,,AAXX 10184 07481 12/82 23204 10190 20110 39897 40177 53003 60006 80001 91800 333 10218 20117=
07481,1997-09-11 00:00:00,12,1018.2,-0.4,82,9,25000,3.704,,,40,,,,,,,,,,,wg-a,,,,AAXX 11004 07481 12/75 00402 10120 20090 39896 40182 58004 60006 80000 90000=
07481,1997-09-11 03:00:00,11,1017.5,-0.8,87,9,25000,0,,,0,,,,,,,,,,,wg-a,,,,AAXX 11034 07481 12/75 00000 10110 20090 39888 40175 57008 60006 80000 90300=
07481,1997-09-11 06:00:00,11,1017.1,-0.4,87,9,7000,7.408,,,150,10.2,18.4,,,,,,,,,wg-a,,,,AAXX 11064 07481 02/57 31504 10110 20090 39884 40171 56004 60006 80001 90600 333 10184 20102 60004=
07481,1997-09-11 09:00:00,19,1016.5,0.2,68,13,10000,7.408,,,180,,,,,,,,,,,wg-a,,,,AAXX 11094 07481 12/60 31804 10190 20130 39886 40165 52002 60006 80001 90900=
07481,1997-09-11 12:00:00,27,1013.8,-1.9,39,12,15000,11.112,,,210,,,,,,,,,,,wg-a,,,,AAXX 11124 07481 12/65 52106 10270 20120 39867 40138 58019 60006 80001 91200=
07481,1997-09-11 15:00:00,29,1011.9,-1.7,35,12,20000,25.928,,,180,,,,,,,,,,,wg-a,,,,AAXX 11154 07481 12/70 51814 10290 20120 39850 40119 57017 60006 80001 91500=
07481,1997-09-11 18:00:00,25,1011.6,-0.6,54,15,500,25.928,,,190,11.3,29.5,,,,,,,,,wg-a,,,,AAXX 11184 07481 12/00 31914 10250 20150 39844 40116 56006 60006 80001 91800 333 10295 20113=
07481,1997-09-11 21:00:00,23,1013.1,1.3,61,15,500,22.224,,,180,,,,,,,,,,,wg-a,,,,AAXX 11214 07481 12/00 01812 10230 20150 39857 40131 53013 60006 80000 92100=
07481,1997-09-12 00:00:00,21,1014.1,0.8,69,15,25000,11.112,,,170,,,,,,,,,,,wg-a,,,,AAXX 12004 07481 12/75 01706 10210 20150 39865 40141 51008 60006 80000 90000=
07481,1997-09-12 03:00:00,20,1013.7,-0.5,73,15,20000,22.224,,,150,,,,,,,,,,,wg-a,,,,AAXX 12034 07481 12/70 01512 10200 20150 39860 40137 58005 60006 80000 90300=
07481,1997-09-12 06:00:00,19,1013.9,0.1,78,15,10000,14.816,,,160,18.8,25.3,,,,,,,,,wg-a,,,,AAXX 12064 07481 02/60 01608 10190 20150 39861 40139 53001 60006 80000 90600 333 10253 20188 60004=
07481,1997-09-12 09:00:00,24,1012.8,-0.6,54,14,20000,29.632,,,180,,,,,,,,,,,wg-a,,,,AAXX 12094 07481 12/70 01816 10240 20140 39855 40128 58006 60006 80000 90900=
07481,1997-09-12 12:00:00,26,1010.6,-2,51,15,500,38.892,,62.968,190,,,,,,,,,,,wg-a,,,,AAXX 12124 07481 12/00 11921 10260 20150 39835 40106 56020 60006 81080 91200 333 91034=
07481,1997-09-12 15:00:00,26,1009.1,-1.4,51,15,25000,31.484,,,210,,,,,,,,,,,wg-a,,,,AAXX 12154 07481 12675 72117 10260 20150 39821 40091 56014 60006 82282 91500=
07481,1997-09-12 18:00:00,25,1009.2,-0.1,57,16,12000,31.484,,,200,18.9,27.1,,,,,,,,13,wg-a,,,,AAXX 12184 07481 12562 72017 10250 20160 39820 40092 55001 60006 71311 8398/ 91800 333 10271 20189=
07481,1997-09-12 21:00:00,18,1013.5,3.7,100,18,7000,7.408,,,50,,,,13,,,,,,80,wg-a,,,,AAXX 12214 07481 12557 70504 10180 20180 39857 40135 51037 60137 78098 8598/ 92100=
07481,1997-09-13 00:00:00,16,1013.8,-0,100,16,12000,11.112,,,20,,,,19,,,,,,80,wg-a,,,,AAXX 13004 07481 02262 80206 10160 20160 39857 40138 55000 60336 78098 8598/ 90000 333 60197=
07481,1997-09-13 03:00:00,16,1013.8,0,100,16,8000,0,,,0,,,,,,,,,,1,wg-a,,,,AAXX 13034 07481 02258 70000 10160 20160 39857 40138 50000 61000 70196 8761/ 90300 333 ////=
07481,1997-09-13 06:00:00,15,1014.9,1,100,15,500,3.704,,,70,15.4,24.5,,,,,,,,60,wg-a,,,,AAXX 13064 07481 02400 80702 10150 20150 39867 40149 53010 61000 76096 886// 90600 333 10245 20154 6035=
07481,1997-09-13 09:00:00,16,1016.7,1.8,94,15,6000,3.704,,,160,,,,2,,,,,,60,wg-a,,,,AAXX 13094 07481 12556 81602 10160 20150 39885 40167 53018 60027 76066 888// 90900=
07481,1997-09-13 12:00:00,17,1017.8,1.2,82,14,6000,11.112,,29.632,310,,,,0,,,,,,61,wg-a,,,,AAXX 13124 07481 02456 83106 10170 20140 39897 40178 53012 60026 76162 888// 91200 333 60007 91016=
07481,1997-09-13 15:00:00,15,1019.6,1.5,88,13,20000,18.52,,,10,,,,1,,,,,,2,wg-a,,,,AAXX 13154 07481 12570 80110 10150 20130 39912 40196 51015 60017 70262 885// 91500=
07481,1997-09-13 18:00:00,14,1020.2,0.5,82,11,20000,11.112,,,350,13.9,18.3,,,,,,,,1,wg-a,,,,AAXX 13184 07481 12570 /3506 10140 20110 39917 40202 53005 60006 70162 8381/ 91800 333 10183 20139=
07481,1997-09-14 00:00:00,10,1022.5,0.2,93,9,20000,7.408,,,30,,,,,,,,,,,wg-a,,,,AAXX 14004 07481 12770 40304 10100 20090 39935 40225 53002 60006 81231 90000=
07481,1997-09-14 03:00:00,10,1022.1,-0.4,93,9,20000,14.816,,,350,,,,,,,,,,,wg-a,,,,AAXX 14034 07481 32/70 03508 10100 20090 39931 40221 55004 80000 90300=
07481,1997-09-14 06:00:00,9,1022.8,0.6,93,8,20000,14.816,,,10,8.6,13.9,,,,,3,,,,wg-a,,,,AAXX 14064 07481 02/70 30108 10090 20080 39937 40228 53006 60006 80002 90600 333 10139 20086 60034=
07481,1997-09-14 12:00:00,17,1022.2,-0.3,52,7,35000,31.484,,,350,,,,,,,,,,,wg-a,,,,AAXX 14124 07481 12581 73517 10170 20070 39939 40222 58003 60006 81102 91200=
07481,1997-09-14 15:00:00,17,1022,-0.2,55,8,35000,31.484,,,350,,,,,,,,,,,wg-a,,,,AAXX 14154 07481 12681 73517 10170 20080 39937 40220 55002 60006 81102 91500=
07481,1997-09-14 18:00:00,14,1023.3,1,67,8,35000,14.816,,,340,9,18,,,,,,,,,wg-a,,,,AAXX 14184 07481 12781 73408 10140 20080 39947 40233 52010 60006 815/2 91800 333 10180 20090=
07481,1997-09-14 21:00:00,12,1024.3,0.7,71,7,500,11.112,,,340,,,,,,,,,,,wg-a,,,,AAXX 14214 07481 12/00 33406 10120 20070 39954 40243 51007 60006 80002 92100=
07481,1997-09-15 00:00:00,9,1024.5,-0.1,87,7,500,7.408,,,300,,,,,,,,,,,wg-a,,,,AAXX 15004 07481 12/00 13004 10090 20070 39953 40245 57001 60006 80002 90000=
07481,1997-09-15 03:00:00,7,1024.6,0,100,7,500,3.704,,,330,,,,,,,,,,,wg-a,,,,AAXX 15034 07481 12/00 03302 10070 20070 39953 40246 50000 60006 80000 90300=
07481,1997-09-15 06:00:00,7,1024.8,0.1,100,7,500,3.704,,,250,6.5,14.3,,,,,,,,,wg-a,,,,AAXX 15064 07481 02/00 12502 10070 20070 39954 40248 53001 60006 80002 90600 333 10143 20065 60004=
07481,1997-09-15 09:00:00,12,1025.4,1.2,71,7,500,0,,,0,,,,,,,,,,,wg-a,,,,AAXX 15094 07481 12/00 00000 10120 20070 39966 40254 51012 60006 80000 90900=
07481,1997-09-15 12:00:00,18,1023.7,-1.1,64,11,500,3.704,,,220,,,,,,,,,,,wg-a,,,,AAXX 15124 07481 12/00 02202 10180 20110 39955 40237 58011 60006 80000 91200=
07481,1997-09-15 18:00:00,18,1022.2,-0.4,73,13,500,7.408,,,20,7,20.7,,,,,,,,,wg-a,,,,AAXX 15184 07481 12/00 10204 10180 20130 39940 40222 56004 60006 80002 91800 333 10207 20070=
07481,1997-09-15 21:00:00,15,1023.7,1.2,82,12,25000,3.704,,,110,,,,,,,,,,,wg-a,,,,AAXX 15214 07481 12/75 11102 10150 20120 39952 40237 51012 60006 80001 92100=
07481,1997-09-16 00:00:00,14,1024,0.2,88,12,25000,3.704,,,140,,,,,,,,,,,wg-a,,,,AAXX 16004 07481 12/75 01402 10140 20120 39954 40240 53002 60006 80000 90000=
07481,1997-09-16 03:00:00,11,1023.8,-0.5,100,11,15000,0,,,0,,,,,,,,,,,wg-a,,,,AAXX 16034 07481 12/65 30000 10110 20110 39949 40238 58005 60006 80001 90300=
07481,1997-09-16 06:00:00,10,1024.8,0.9,100,10,4000,0,,,0,10,17.9,,,,,,,,10,wg-a,,,,AAXX 16064 07481 02/40 30000 10100 20100 39958 40248 53009 60006 71000 80003 90600 333 10179 20100 60004=
07481,1997-09-16 09:00:00,18,1024,-0,73,13,9000,7.408,,,150,,,,0,,,,,,,wg-a,,,,AAXX 16094 07481 12/59 /1504 10180 20130 39958 40240 55000 60007 80001 90900=
07481,1997-09-16 15:00:00,24,1019.7,-2.1,50,13,25000,3.704,,,80,,,,,,,,,,,wg-a,,,,AAXX 16154 07481 12675 40802 10240 20130 39922 40197 56021 60006 81101 91500=
07481,1997-09-16 18:00:00,23,1020,0.2,53,13,25000,3.704,,,200,10.4,25.5,,,,,,,,,wg-a,,,,AAXX 16184 07481 12/75 42002 10230 20130 39924 40200 53002 60006 80002 91800 333 10255 20104=
07481,1997-09-16 21:00:00,19,1021.6,1.2,68,13,20000,11.112,,,150,,,,,,,,,,,wg-a,,,,AAXX 16214 07481 12/70 41506 10190 20130 39936 40216 52012 60006 80002 92100=
07481,1997-09-17 00:00:00,15,1022.5,0.4,88,13,18000,3.704,,,240,,,,,,,,,,,wg-a,,,,AAXX 17004 07481 12/68 42402 10150 20130 39940 40225 53004 60006 80002 90000=
07481,1997-09-17 06:00:00,14,1023.8,1,94,13,15000,7.408,,,180,13.7,22.9,,,,,,,,11,wg-a,,,,AAXX 17064 07481 02/65 21804 10140 20130 39952 40238 53010 60006 71100 80001 90600 333 10229 20137 60004=
07481,1997-09-17 12:00:00,25,1022.5,-0.8,44,12,10000,7.408,,,200,,,,,,,,,,,wg-a,,,,AAXX 17124 07481 12/60 12004 10250 20120 39950 40225 58008 60006 80001 91200=
07481,1997-09-17 15:00:00,26,1021.4,-1,39,11,10000,3.704,,,40,,,,,,,,,,,wg-a,,,,AAXX 17154 07481 12660 /0402 10260 20110 39940 40214 56010 60006 81102 91500=
07481,1997-09-17 18:00:00,22,1022.1,0.3,57,13,500,3.704,,,30,14.3,26.7,,,,,,,,,wg-a,,,,AAXX 17184 07481 12/00 30302 10220 20130 39943 40221 53003 60006 80002 91800 333 10267 20143=
07481,1997-09-18 00:00:00,16,1023.6,0,82,13,12000,3.704,,,210,,,,,,,,,,,wg-a,,,,AAXX 18004 07481 12/62 12102 10160 20130 39952 40236 50000 60006 80002 90000=
07481,1997-09-18 06:00:00,13,1024.8,1,94,12,10000,3.704,,,120,12.6,21.8,,,,,,,,,wg-a,,,,AAXX 18064 07481 02/60 01202 10130 20120 39961 40248 53010 60006 80000 90600 333 10218 20126 60004=
07481,1997-09-18 09:00:00,19,1024.8,0.5,73,14,8000,3.704,,,240,,,,,,,,,,,wg-a,,,,AAXX 18094 07481 12/58 02402 10190 20140 39966 40248 52005 60006 80000 90900=
07481,1997-09-18 12:00:00,24,1022.9,-1.3,50,13,12000,3.704,,,300,,,,,,,,,,,wg-a,,,,AAXX 18124 07481 12/62 03002 10240 20130 39953 40229 58013 60006 80000 91200=
07481,1997-09-18 15:00:00,26,1021.2,-1.5,37,10,12000,11.112,,,360,,,,,,,,,,,wg-a,,,,AAXX 18154 07481 12/62 03606 10260 20100 39938 40212 56015 60006 80000 91500=
07481,1997-09-18 18:00:00,22,1021.6,-0,53,12,20000,7.408,,,20,12.8,26,,,,,,,,,wg-a,,,,AAXX 18184 07481 12/70 00204 10220 20120 39938 40216 55000 60006 80000 91800 333 10260 20128=
07481,1997-09-19 00:00:00,14,1022.9,0,88,12,20000,3.704,,,260,,,,,,,,,,,wg-a,,,,AAXX 19004 07481 12/70 02602 10140 20120 39944 40229 50000 60006 80000 90000=
07481,1997-09-19 03:00:00,13,1023,-0.1,94,12,10000,0,,,0,,,,,,,,,,,wg-a,,,,AAXX 19034 07481 12/60 00000 10130 20120 39943 40230 55001 60006 80000 90300=
07481,1997-09-19 06:00:00,12,1023.4,0.3,94,11,6000,3.704,,,110,11.2,21.8,,,,,,,,11,wg-a,,,,AAXX 19064 07481 02/56 01102 10120 20110 39946 40234 53003 60006 71100 80000 90600 333 10218 20112 60004=
07481,1997-09-19 09:00:00,18,1023.2,0.4,77,14,7000,3.704,,,300,,,,,,,,,,,wg-a,,,,AAXX 19094 07481 12/57 03002 10180 20140 39950 40232 51004 60006 80000 90900=
07481,1997-09-19 12:00:00,23,1021.3,-1.4,57,14,13000,7.408,,,40,,,,,,,,,,,wg-a,,,,AAXX 19124 07481 12/63 00404 10230 20140 39936 40213 58014 60006 80000 91200=
07481,1997-09-19 15:00:00,25,1020,-1.1,41,11,25000,14.816,,,10,,,,,,,,,,,wg-a,,,,AAXX 19154 07481 12/75 00108 10250 20110 39925 40200 56011 60006 80000 91500=
07481,1997-09-19 18:00:00,22,1019.8,-0.4,65,15,27000,3.704,,,330,12,24.9,,,,,,,,,wg-a,,,,AAXX 19184 07481 12577 /3302 10220 20150 39921 40198 56004 60006 81100 91800 333 10249 20120=
07481,1997-09-20 00:00:00,16,1020.2,-0.5,88,14,20000,3.704,,,290,,,,,,,,,,,wg-a,,,,AAXX 20004 07481 12/70 02902 10160 20140 39919 40202 58005 60006 80000 90000=
07481,1997-09-20 03:00:00,14,1020,-0.4,94,13,10000,3.704,,,330,,,,,,,,,,,wg-a,,,,AAXX 20034 07481 12/60 03302 10140 20130 39915 40200 58004 60006 80000 90300=
07481,1997-09-20 06:00:00,14,1020.9,0.9,100,14,1500,7.408,,,10,13.4,22,,,,,,,,10,wg-a,,,,AAXX 20064 07481 02115 80104 10140 20140 39924 40209 52009 60006 71011 886// 90600 333 10220 20134 60004=
07481,1997-09-20 09:00:00,16,1021.7,1,94,15,4500,3.704,,,330,,,,,,,,,,10,wg-a,,,,AAXX 20094 07481 12345 /3302 10160 20150 39934 40217 51010 60006 71022 876// 90900=
07481,1997-09-20 12:00:00,17,1021.5,-0.1,82,14,6000,7.408,,,10,,,,,,,,,,,wg-a,,,,AAXX 20124 07481 12456 70104 10170 20140 39933 40215 56001 60006 876// 91200=
07481,1997-09-20 18:00:00,18,1020.3,-0.1,83,15,7000,3.704,,,140,14.2,19.2,,,,,,,,,wg-a,,,,AAXX 20184 07481 12/57 /1402 10180 20150 39922 40203 55001 60006 80001 91800 333 10192 20142=
07481,1997-09-20 21:00:00,17,1021.2,0.8,88,15,6000,3.704,,,190,,,,,,,,,,11,wg-a,,,,AAXX 20214 07481 12556 71902 10170 20150 39930 40212 51008 60006 71111 875// 92100=
07481,1997-09-21 00:00:00,16,1021.7,0.3,94,15,6000,3.704,,,220,,,,,,,,,,11,wg-a,,,,AAXX 21004 07481 12/56 /2202 10160 20150 39933 40217 52003 60006 71111 80001 90000=
07481,1997-09-21 03:00:00,13,1021.8,-0.1,100,13,3500,0,,,0,,,,,,,,,,10,wg-a,,,,AAXX 21034 07481 12/35 00000 10130 20130 39932 40218 57001 60006 71000 80000 90300=
07481,1997-09-21 06:00:00,11,1022,-0,100,11,900,0,,,0,11,18.3,,,,,,,,41,wg-a,,,,AAXX 21064 07481 02/09 /0000 10110 20110 39932 40220 55000 60006 74140 80001 90600 333 10183 20110 60004=
07481,1997-09-21 09:00:00,16,1021.8,0.3,88,14,500,3.704,,,20,,,,,,,,,,10,wg-a,,,,AAXX 21094 07481 12/00 50202 10160 20140 39935 40218 51003 60006 71041 80001 90900=
07481,1997-09-21 12:00:00,22,1020.2,-1,65,15,10000,7.408,,,10,,,,,,,,,,2,wg-a,,,,AAXX 21124 07481 12/60 50104 10220 20150 39925 40202 58010 60006 70241 80001 91200=
07481,1997-09-21 15:00:00,23,1019,-1.1,53,13,12000,3.704,,,30,,,,,,,,,,,wg-a,,,,AAXX 21154 07481 12562 /0302 10230 20130 39914 40190 56011 60006 81231 91500=
07481,1997-09-21 18:00:00,20,1019.8,0.5,73,15,10000,0,,,0,11.4,23,,,,,,,,,wg-a,,,,AAXX 21184 07481 12/60 /0000 10200 20150 39919 40198 53005 60006 80002 91800 333 10230 20114=
07481,1997-09-21 21:00:00,18,1021,1,83,15,15000,3.704,,,160,,,,,,,,,,,wg-a,,,,AAXX 21214 07481 12/65 /1602 10180 20150 39929 40210 51010 60006 83032 92100=
07481,1997-09-22 00:00:00,16,1021.2,-0.1,88,14,10000,3.704,,,210,,,,,,,,,,,wg-a,,,,AAXX 22004 07481 12/60 42102 10160 20140 39928 40212 58001 60006 80002 90000=
07481,1997-09-22 03:00:00,15,1021.4,0.1,88,13,7000,3.704,,,150,,,,,,,,,,,wg-a,,,,AAXX 22034 07481 12/57 51502 10150 20130 39929 40214 50001 60006 80002 90300=
07481,1997-09-22 09:00:00,18,1021.9,0.5,83,15,4000,3.704,,,30,,,,,,,,,,10,wg-a,,,,AAXX 22094 07481 12/40 /0302 10180 20150 39937 40219 51005 60006 71022 80001 90900=
07481,1997-09-22 12:00:00,23,1020.4,-1,57,14,12000,7.408,,,10,,,,,,,,,,,wg-a,,,,AAXX 22124 07481 12562 30104 10230 20140 39927 40204 58010 60006 81201 91200=
07481,1997-09-22 15:00:00,24,1019,-1.2,47,12,11000,11.112,,,10,,,,,,,,,,,wg-a,,,,AAXX 22154 07481 12/61 /0106 10240 20120 39915 40190 56012 60006 91500=
07481,1997-09-22 18:00:00,20,1019.5,0.1,64,13,500,7.408,,,10,13,24.3,,,,,,,,,wg-a,,,,AAXX 22184 07481 12600 /0104 10200 20130 39916 40195 53001 60006 81262 91800 333 10243 20130=
07481,1997-09-22 21:00:00,16,1020.8,0.9,82,13,500,7.408,,,300,,,,,,,,,,,wg-a,,,,AAXX 22214 07481 12/00 03004 10160 20130 39925 40208 51009 60006 80000 92100=
07481,1997-09-23 00:00:00,15,1020.9,-0,88,13,20000,0,,,0,,,,,,,,,,,wg-a,,,,AAXX 23004 07481 12/70 00000 10150 20130 39925 40209 54000 60006 80000 90000=
07481,1997-09-23 03:00:00,13,1020.7,-0.4,94,12,12000,0,,,0,,,,,,,,,,,wg-a,,,,AAXX 23034 07481 12/62 00000 10130 20120 39921 40207 58004 60006 80000 90300=
07481,1997-09-23 06:00:00,12,1021.2,0.4,100,12,4000,0,,,0,11.9,20.1,,,,,,,,10,wg-a,,,,AAXX 23064 07481 02240 /0000 10120 20120 39925 40212 53004 60006 71000 81600 90600 333 10201 20119 60004=
07481,1997-09-23 09:00:00,14,1021.6,0.6,100,14,600,7.408,,,320,,,,0,,,,,,42,wg-a,,,,AAXX 23094 07481 12106 83204 10140 20140 39931 40216 51006 60007 74241 886// 90900=
07481,1997-09-23 12:00:00,20,1019.7,-1.3,73,15,15000,7.408,,,340,,,,,,,,,,1,wg-a,,,,AAXX 23124 07481 12565 /3404 10200 20150 39918 40197 58013 60006 70141 81201 91200=
07481,1997-09-23 15:00:00,24,1017.7,-1.6,47,12,25000,18.52,,,350,,,,,,,,,,,wg-a,,,,AAXX 23154 07481 12675 /3510 10240 20120 39902 40177 56016 60006 81900 91500=
07481,1997-09-23 18:00:00,19,1018.5,0.4,68,13,20000,7.408,,,340,11.9,23.9,,,,,,,,,wg-a,,,,AAXX 23184 07481 12870 13404 10190 20130 39906 40185 53004 60006 81031 91800 333 10239 20119=
07481,1997-09-23 21:00:00,16,1019.8,0.9,82,13,20000,0,,,0,,,,,,,,,,,wg-a,,,,AAXX 23214 07481 12/70 10000 10160 20130 39915 40198 51009 60006 80001 92100=
07481,1997-09-24 00:00:00,14,1019.9,-0.1,88,12,20000,3.704,,,260,,,,,,,,,,,wg-a,,,,AAXX 24004 07481 12/70 02602 10140 20120 39914 40199 58001 60006 80000 90000=
07481,1997-09-24 03:00:00,13,1020.1,0.1,94,12,15000,3.704,,,240,,,,,,,,,,,wg-a,,,,AAXX 24034 07481 12/65 02402 10130 20120 39915 40201 53001 60006 80000 90300=
07481,1997-09-24 06:00:00,11,1021,0.7,94,10,2500,3.704,,,10,10.9,19.2,,,,,,,,11,wg-a,,,,AAXX 24064 07481 02/25 00102 10110 20100 39922 40210 53007 60006 71100 80000 90600 333 10192 20109 60004=
07481,1997-09-24 09:00:00,15,1021.4,0.8,82,12,500,7.408,,,20,,,,,,,,,,,wg-a,,,,AAXX 24094 07481 12/00 00204 10150 20120 39930 40214 53008 60006 80000 90900=
07481,1997-09-24 12:00:00,21,1019.3,-1.5,53,11,15000,7.408,,,320,,,,,,,,,,,wg-a,,,,AAXX 24124 07481 12/65 33204 10210 20110 39915 40193 58015 60006 80001 91200=
07481,1997-09-24 15:00:00,23,1018,-1.1,53,13,20000,11.112,,,20,,,,,,,,,,,wg-a,,,,AAXX 24154 07481 12/70 50206 10230 20130 39904 40180 56011 60006 80002 91500=
07481,1997-09-24 18:00:00,19,1018.9,0.5,73,14,20000,7.408,,,10,10.7,22.9,,,,,,,,,wg-a,,,,AAXX 24184 07481 12/70 60104 10190 20140 39909 40189 53005 60006 80002 91800 333 10229 20107=
07481,1997-09-24 21:00:00,16,1020.1,0.9,77,12,25000,3.704,,,220,,,,,,,,,,,wg-a,,,,AAXX 24214 07481 12/75 22202 10160 20120 39918 40201 51009 60006 80001 92100=
07481,1997-09-25 00:00:00,14,1020.7,0.4,88,12,15000,3.704,,,150,,,,,,,,,,,wg-a,,,,AAXX 25004 07481 12/65 01502 10140 20120 39922 40207 53004 60006 80000 90000=
07481,1997-09-25 03:00:00,12,1021.5,0.6,94,11,12000,7.408,,,160,,,,,,,,,,,wg-a,,,,AAXX 25034 07481 12/62 01604 10120 20110 39928 40215 50006 60006 80000 90300=
07481,1997-09-25 06:00:00,11,1022.4,0.7,94,10,6000,0,,,0,10.1,18.6,,,,,,,,11,wg-a,,,,AAXX 25064 07481 02/56 00000 10110 20100 39935 40224 51007 60006 71100 80000 90600 333 10186 20101 60004=
07481,1997-09-25 09:00:00,17,1022.9,1.1,77,13,8000,3.704,,,90,,,,,,,,,,,wg-a,,,,AAXX 25094 07481 12/58 00902 10170 20130 39946 40229 52011 60006 80000 90900=
07481,1997-09-25 12:00:00,24,1021.1,-1,54,14,12000,7.408,,,170,,,,,,,,,,,wg-a,,,,AAXX 25124 07481 12/62 01704 10240 20140 39936 40211 58010 60006 80000 91200=
07481,1997-09-25 15:00:00,25,1019.9,-1.1,47,13,10000,11.112,,,30,,,,,,,,,,,wg-a,,,,AAXX 25154 07481 12/60 /0306 10250 20130 39925 40199 56011 60006 91500=
07481,1997-09-26 00:00:00,14,1022.7,0.1,88,12,12000,3.704,,,220,,,,,,,,,,,wg-a,,,,AAXX 26004 07481 12/62 02202 10140 20120 39941 40227 53001 60006 80000 90000=
07481,1997-09-26 06:00:00,11,1023.3,0.5,100,11,3000,0,,,0,10.8,20.5,,,,,,,,11,wg-a,,,,AAXX 26064 07481 12/30 00000 10110 20110 39944 40233 53005 60006 71100 80000 90600 333 10205 20108=
07481,1997-09-26 09:00:00,17,1022.9,0.2,82,14,4500,3.704,,,10,,,,,,,,,,10,wg-a,,,,AAXX 26094 07481 32/45 00102 10170 20140 39946 40229 51002 71000 80000 90900=
07481,1997-09-26 12:00:00,22,1020.8,-1.5,57,13,8000,3.704,,,20,,,,,,,,,,,wg-a,,,,AAXX 26124 07481 12/58 00202 10220 20130 39931 40208 58015 60006 80000 91200=
07481,1997-09-26 15:00:00,24,1018.6,-2,47,12,12000,7.408,,,20,,,,,,,,,,,wg-a,,,,AAXX 26154 07481 32/62 00204 10240 20120 39911 40186 56020 80000 91500=
07481,1997-09-26 18:00:00,20,1018.4,-0.5,60,12,20000,7.408,,,10,10.9,24.5,,,,,,,,,wg-a,,,,AAXX 26184 07481 12/70 00104 10200 20120 39906 40184 56005 60006 80000 91800 333 10245 20109=
07481,1997-09-26 21:00:00,16,1018.7,-0.2,77,12,15000,0,,,0,,,,,,,,,,,wg-a,,,,AAXX 26214 07481 32/65 00000 10160 20120 39904 40187 58002 80000 92100=
07481,1997-09-27 00:00:00,14,1018.6,-0.3,82,11,12000,3.704,,,160,,,,,,,,,,,wg-a,,,,AAXX 27004 07481 12/62 01602 10140 20110 39901 40186 58003 60006 80000 90000=
07481,1997-09-27 03:00:00,12,1018.3,-0.5,94,11,12000,7.408,,,120,,,,,,,,,,,wg-a,,,,AAXX 27034 07481 32/62 01204 10120 20110 39896 40183 58005 80000 90300=
07481,1997-09-27 06:00:00,11,1017.9,-0.4,100,11,2000,3.704,,,210,10.2,20.4,,,,,,,,10,wg-a,,,,AAXX 27064 07481 12/20 /2102 10110 20110 39892 40179 56004 60006 71000 80001 90600 333 10204 20102=
07481,1997-09-27 09:00:00,18,1016.9,-0.3,73,13,6000,7.408,,,140,,,,,,,,,,,wg-a,,,,AAXX 27094 07481 12/56 01404 10180 20130 39889 40169 58003 60006 80000 90900=
07481,1997-09-27 12:00:00,23,1014.8,-1.6,50,12,10000,3.704,,,30,,,,,,,,,,,wg-a,,,,AAXX 27124 07481 12/60 00302 10230 20120 39873 40148 58016 60006 80000 91200=
07481,1997-09-27 15:00:00,24,1013.5,-1.2,41,10,23000,7.408,,,20,,,,,,,,,,,wg-a,,,,AAXX 27154 07481 32/73 00204 10240 20100 39861 40135 56012 80000 91500=
07481,1997-09-27 18:00:00,20,1013.9,-0,53,10,500,7.408,,,50,10.7,24.6,,,,,,,,,wg-a,,,,AAXX 27184 07481 12/00 00504 10200 20100 39861 40139 55000 60006 80000 91800 333 10246 20107=
07481,1997-09-27 21:00:00,16,1014.7,0.4,72,11,25000,0,,,0,,,,,,,,,,,wg-a,,,,AAXX 27214 07481 32/75 00000 10160 20110 39865 40147 53004 80000 92100=
07481,1997-09-28 00:00:00,13,1014.8,-0.2,88,11,12000,3.704,,,160,,,,,,,,,,,wg-a,,,,AAXX 28004 07481 12/62 01602 10130 20110 39863 40148 57002 60006 80000 90000=
07481,1997-09-28 03:00:00,12,1014.9,0.1,94,11,9000,3.704,,,180,,,,,,,,,,,wg-a,,,,AAXX 28034 07481 12/59 01802 10120 20110 39864 40149 51001 60006 80000 90300=
07481,1997-09-28 06:00:00,12,1015.9,0.9,88,10,7000,7.408,,,170,11.5,19.9,,,,,,,,,wg-a,,,,AAXX 28064 07481 02/57 /1704 10120 20100 39873 40159 53009 60006 80001 90600 333 10199 20115 60004=
07481,1997-09-28 12:00:00,23,1014.3,-1.2,53,13,15000,3.704,,,50,,,,,,,,,,,wg-a,,,,AAXX 28124 07481 12/65 10502 10230 20130 39868 40143 58012 60006 80001 91200=
07481,1997-09-28 15:00:00,24,1013.5,-0.7,41,10,25000,7.408,,,30,,,,,,,,,,,wg-a,,,,AAXX 28154 07481 12/75 30304 10240 20100 39861 40135 56007 60006 80001 91500=
07481,1997-09-28 18:00:00,20,1015,1.1,60,12,25000,3.704,,,40,12,25.4,,,,,,,,,wg-a,,,,AAXX 28184 07481 12/75 20402 10200 20120 39872 40150 53011 60006 80001 91800 333 10254 20120=
07481,1997-09-28 21:00:00,17,1016.7,1.4,77,13,25000,3.704,,,60,,,,,,,,,,,wg-a,,,,AAXX 28214 07481 12/75 10602 10170 20130 39886 40167 51014 60006 80001 92100=
07481,1997-09-29 00:00:00,15,1017.5,0.6,82,12,25000,0,,,0,,,,,,,,,,,wg-a,,,,AAXX 29004 07481 12/75 00000 10150 20120 39892 40175 53006 60006 80000 90000=
07481,1997-09-29 03:00:00,14,1018.5,0.8,88,12,10000,11.112,,,170,,,,,,,,,,,wg-a,,,,AAXX 29034 07481 12/60 01706 10140 20120 39900 40185 51008 60006 80000 90300=
07481,1997-09-29 06:00:00,12,1019.8,1.1,88,10,7000,7.408,,,140,11.6,20.1,,,,,,,,,wg-a,,,,AAXX 29064 07481 12/57 /1404 10120 20100 39911 40198 53011 60006 80002 90600 333 10201 20116=
07481,1997-09-29 09:00:00,19,1021.1,2,64,12,10000,3.704,,,130,,,,,,,,,,,wg-a,,,,AAXX 29094 07481 12/60 /1302 10190 20120 39931 40211 51020 60006 80001 90900=
07481,1997-09-29 12:00:00,23,1020.3,-0.4,53,13,15000,7.408,,,30,,,,,,,,,,,wg-a,,,,AAXX 29124 07481 12/65 30304 10230 20130 39927 40203 57004 60006 80001 91200=
07481,1997-09-29 15:00:00,25,1019.5,-0.7,39,10,500,11.112,,,10,,,,,,,,,,,wg-a,,,,AAXX 29154 07481 12/00 40106 10250 20100 39920 40195 56007 60006 80001 91500=
07481,1997-09-29 18:00:00,20,1020.8,0.8,60,12,500,3.704,,,20,11.6,25.1,,,,,,,,,wg-a,,,,AAXX 29184 07481 12/00 20202 10200 20120 39928 40208 52008 60006 80001 91800 333 10251 20116=
07481,1997-09-29 21:00:00,16,1022.6,1.5,72,11,25000,3.704,,,240,,,,,,,,,,,wg-a,,,,AAXX 29214 07481 12/75 22402 10160 20110 39943 40226 53015 60006 80001 92100=
07481,1997-09-30 00:00:00,14,1023.2,0.3,82,11,20000,3.704,,,140,,,,,,,,,,,wg-a,,,,AAXX 30004 07481 12/70 01402 10140 20110 39946 40232 50003 60006 80000 90000=
07481,1997-09-30 03:00:00,12,1024,0.6,94,11,12000,0,,,0,,,,,,,,,,,wg-a,,,,AAXX 30034 07481 12/62 00000 10120 20110 39952 40240 52006 60006 80000 90300=
07481,1997-09-30 06:00:00,12,1024.5,0.5,88,10,7000,3.704,,,200,11.3,19.5,,,,,,,,11,wg-a,,,,AAXX 30064 07481 02/57 42002 10120 20100 39957 40245 50005 60006 71100 80001 90600 333 10195 20113 60004=
07481,1997-09-30 09:00:00,17,1024.9,0.9,72,12,8000,3.704,,,170,,,,,,,,,,,wg-a,,,,AAXX 30094 07481 12/58 21702 10170 20120 39966 40249 51009 60006 80001 90900=
07481,1997-09-30 12:00:00,23,1023,-1.3,50,12,15000,14.816,,,20,,,,,,,,,,,wg-a,,,,AAXX 30124 07481 12/65 10208 10230 20120 39953 40230 58013 60006 80002 91200=
07481,1997-09-30 15:00:00,25,1021.7,-1.2,41,11,500,18.52,,,10,,,,,,,,,,,wg-a,,,,AAXX 30154 07481 12/00 30110 10250 20110 39941 40217 56012 60006 80002 91500=
07481,1997-09-30 18:00:00,20,1022.3,0.2,56,11,25000,11.112,,,350,11.8,24.8,,,,,,,,,wg-a,,,,AAXX 30184 07481 12/75 13506 10200 20110 39943 40223 53002 60006 80002 91800 333 10248 20118=
07481,1997-10-01 00:00:00,14,1022.1,-0.9,82,11,25000,0,,,0,,,,,,,,,,,wg-a,,,,AAXX 01004 07481 12/75 00000 10140 20110 39935 40221 58009 60006 80000 90000=
07481,1997-10-01 03:00:00,12,1021.9,-0.4,88,10,20000,3.704,,,50,,,,,,,,,,,wg-a,,,,AAXX 01034 07481 12/70 00502 10120 20100 39931 40219 57004 60006 80000 90300=
07481,1997-10-01 06:00:00,11,1021.9,-0.1,94,10,12000,3.704,,,310,10.6,20,,,,,,,,,wg-a,,,,AAXX 01064 07481 02/62 53102 10110 20100 39930 40219 58001 60006 80001 90600 333 10200 20106 60004=
07481,1997-10-01 12:00:00,23,1019.7,-1.3,47,11,15000,18.52,,,350,,,,,,,,,,,wg-a,,,,AAXX 01124 07481 12/65 53510 10230 20110 39921 40197 58013 60006 80001 91200=
07481,1997-10-01 15:00:00,25,1017.3,-2.2,39,10,500,22.224,,,360,,,,,,,,,,,wg-a,,,,AAXX 01154 07481 12/00 63612 10250 20100 39899 40173 56022 60006 80001 91500=
07481,1997-10-01 18:00:00,21,1017.4,-0.3,53,11,35000,11.112,,,340,10.6,25.5,,,,,,,,,wg-a,,,,AAXX 01184 07481 12/81 13406 10210 20110 39896 40174 56003 60006 80001 91800 333 10255 20106=
07481,1997-10-01 21:00:00,17,1017.8,0.1,68,11,25000,7.408,,,310,,,,,,,,,,,wg-a,,,,AAXX 01214 07481 12/75 03104 10170 20110 39897 40178 51001 60006 80000 92100=
07481,1997-10-02 00:00:00,16,1017.6,-0.3,77,12,20000,3.704,,,270,,,,,,,,,,,wg-a,,,,AAXX 02004 07481 12/70 02702 10160 20120 39894 40176 58003 60006 80000 90000=
07481,1997-10-02 03:00:00,14,1017.1,-0.7,88,12,15000,7.408,,,30,,,,,,,,,,,wg-a,,,,AAXX 02034 07481 12/65 00304 10140 20120 39887 40171 56007 60006 80000 90300=
07481,1997-10-02 06:00:00,12,1017.4,0.1,94,11,7000,0,,,0,12.2,20.7,,,,,,,,11,wg-a,,,,AAXX 02064 07481 02/57 /0000 10120 20110 39888 40174 53001 60006 71100 80002 90600 333 10207 20122 60004=
07481,1997-10-02 12:00:00,23,1015.7,-1.4,61,15,25000,22.224,,,10,,,,,,,,,,,wg-a,,,,AAXX 02124 07481 12675 20112 10230 20150 39882 40157 57014 60006 82100 91200=
07481,1997-10-02 15:00:00,24,1014.8,-0.8,50,13,500,22.224,,,350,,,,,,,,,,,wg-a,,,,AAXX 02154 07481 12600 23512 10240 20130 39874 40148 56008 60006 82100 91500=
07481,1997-10-02 18:00:00,20,1015.4,0.2,64,13,35000,11.112,,,350,12.1,24.5,,,,,,,,,wg-a,,,,AAXX 02184 07481 12681 /3506 10200 20130 39876 40154 53002 60006 81500 91800 333 10245 20121=
07481,1997-10-02 21:00:00,17,1016.9,1.2,77,13,25000,18.52,,,340,,,,,,,,,,,wg-a,,,,AAXX 02214 07481 12/75 03410 10170 20130 39888 40169 51012 60006 80000 92100=
07481,1997-10-03 00:00:00,14,1017.2,0,88,12,15000,3.704,,,340,,,,,,,,,,,wg-a,,,,AAXX 03004 07481 12/65 03402 10140 20120 39888 40172 50000 60006 80000 90000=
07481,1997-10-03 03:00:00,12,1017.3,-0.1,94,11,10000,11.112,,,330,,,,,,,,,,,wg-a,,,,AAXX 03034 07481 12/60 /3306 10120 20110 39887 40173 58001 60006 90300=
07481,1997-10-03 06:00:00,10,1018,0.5,100,10,7000,0,,,0,10.3,20.1,,,,,,,,,wg-a,,,,AAXX 03064 07481 02357 /0000 10100 20100 39892 40180 53005 60006 81601 90600 333 10201 20103 60004=
07481,1997-10-03 09:00:00,13,1018.6,0.8,88,11,500,11.112,,,30,,,,,,,,,,,wg-a,,,,AAXX 03094 07481 12200 /0306 10130 20110 39900 40186 50008 60006 83600 90900=
07481,1997-10-03 12:00:00,20,1017.2,-0.7,53,10,15000,14.816,,,360,,,,,,,,,,,wg-a,,,,AAXX 03124 07481 12/65 13608 10200 20100 39893 40172 58007 60006 80001 91200=
07481,1997-10-03 15:00:00,22,1016.4,-0.6,35,6,500,22.224,,,360,,,,,,,,,,,wg-a,,,,AAXX 03154 07481 12/00 03612 10220 20060 39887 40164 56006 60006 80000 91500=
07481,1997-10-03 18:00:00,17,1018.4,1.5,48,6,500,11.112,,,340,10.3,22.1,,,,,,,,,wg-a,,,,AAXX 03184 07481 12/00 03406 10170 20060 39902 40184 53015 60006 80000 91800 333 10221 20103=
07481,1997-10-03 21:00:00,13,1020,1.2,72,8,25000,3.704,,,180,,,,,,,,,,,wg-a,,,,AAXX 03214 07481 12/75 01802 10130 20080 39914 40200 53012 60006 80000 92100=
07481,1997-10-04 00:00:00,11,1021,0.7,76,7,20000,7.408,,,330,,,,,,,,,,,wg-a,,,,AAXX 04004 07481 12/70 03304 10110 20070 39921 40210 51007 60006 80000 90000=
07481,1997-10-04 03:00:00,9,1021.3,0.2,87,7,20000,7.408,,,10,,,,,,,,,,,wg-a,,,,AAXX 04034 07481 12/70 00104 10090 20070 39923 40213 52002 60006 80000 90300=
07481,1997-10-04 06:00:00,7,1022.4,0.8,100,7,20000,3.704,,,30,7.4,16.8,,,,,,,,,wg-a,,,,AAXX 04064 07481 02/70 00302 10070 20070 39931 40224 53008 60006 80000 90600 333 10168 20074 60004=
07481,1997-10-04 09:00:00,13,1022.8,1,77,9,20000,7.408,,,360,,,,,,,,,,,wg-a,,,,AAXX 04094 07481 12/70 03604 10130 20090 39941 40228 51010 60006 80000 90900=
07481,1997-10-04 12:00:00,19,1021.2,-1,49,8,500,3.704,,,330,,,,,,,,,,,wg-a,,,,AAXX 04124 07481 12/00 03302 10190 20080 39931 40212 58010 60006 80000 91200=
07481,1997-10-04 18:00:00,16,1020.3,-0.4,55,7,40000,3.704,,,60,7.4,20.8,,,,,,,,,wg-a,,,,AAXX 04184 07481 12/82 00602 10160 20070 39920 40203 55004 60006 80000 91800 333 10208 20074=
07481,1997-10-04 21:00:00,14,1020.8,0.2,63,7,500,3.704,,,160,,,,,,,,,,,wg-a,,,,AAXX 04214 07481 12/00 01602 10140 20070 39922 40208 51002 60006 80000 92100=
07481,1997-10-05 00:00:00,11,1020.4,-0.6,82,8,25000,7.408,,,180,,,,,,,,,,,wg-a,,,,AAXX 05004 07481 12/75 01804 10110 20080 39916 40204 58006 60006 80000 90000=
07481,1997-10-05 03:00:00,10,1019.7,-0.8,82,7,15000,3.704,,,140,,,,,,,,,,,wg-a,,,,AAXX 05034 07481 12/65 01402 10100 20070 39908 40197 58008 60006 80000 90300=
07481,1997-10-05 06:00:00,9,1019.1,-0.7,87,7,12000,3.704,,,160,7.8,16.1,,,,,,,,,wg-a,,,,AAXX 05064 07481 02/62 01602 10090 20070 39901 40191 57007 60006 80000 90600 333 10161 20078 60004=
07481,1997-10-05 09:00:00,16,1018.3,0,68,10,12000,0,,,0,,,,,,,,,,,wg-a,,,,AAXX 05094 07481 12/62 00000 10160 20100 39901 40183 50000 60006 80000 90900=
07481,1997-10-05 12:00:00,25,1015.6,-1.9,47,13,20000,18.52,,,200,,,,,,,,,,,wg-a,,,,AAXX 05124 07481 12/70 02010 10250 20130 39882 40156 58019 60006 80000 91200=
07481,1997-10-05 15:00:00,26,1012.9,-2.5,39,11,25000,29.632,,,190,,,,,,,,,,,wg-a,,,,AAXX 05154 07481 12/75 01916 10260 20110 39857 40129 56025 60006 80000 91500=
07481,1997-10-05 18:00:00,21,1013,-0.3,60,13,25000,11.112,,,140,8.2,26,,,,,,,,,wg-a,,,,AAXX 05184 07481 12/75 01406 10210 20130 39854 40130 55003 60006 80000 91800 333 10260 20082=
07481,1997-10-05 21:00:00,17,1013.5,0.1,77,13,18000,7.408,,,130,,,,,,,,,,,wg-a,,,,AAXX 05214 07481 12/68 01304 10170 20130 39855 40135 51001 60006 80000 92100=
07481,1997-10-06 00:00:00,19,1012.9,-0.4,78,15,13000,14.816,,,190,,,,,,,,,,,wg-a,,,,AAXX 06004 07481 12/63 01908 10190 20150 39851 40129 57004 60006 80000 90000=
07481,1997-10-06 03:00:00,17,1012.2,-0.9,88,15,10000,11.112,,,150,,,,,,,,,,,wg-a,,,,AAXX 06034 07481 12/60 01506 10170 20150 39842 40122 58009 60006 80000 90300=
07481,1997-10-06 06:00:00,15,1011.4,-0.9,94,14,8000,14.816,,,160,15,20.8,,,,,,,,,wg-a,,,,AAXX 06064 07481 02458 41608 10150 20140 39833 40114 57009 60006 81101 90600 333 10208 20150 60004=
07481,1997-10-06 09:00:00,20,1010.5,-0.4,64,13,15000,22.224,,,170,,,,,,,,,,,wg-a,,,,AAXX 06094 07481 12565 /1712 10200 20130 39829 40105 58004 60006 81134 90900=
07481,1997-10-06 12:00:00,25,1009,-1.1,41,11,500,25.928,,,200,,,,,,,,,,,wg-a,,,,AAXX 06124 07481 12600 /2014 10250 20110 39818 40090 58011 60006 82834 91200=
07481,1997-10-06 15:00:00,18,1009.6,0,88,16,10000,3.704,,,210,,,,1,,,,,,21,wg-a,,,,AAXX 06154 07481 12560 /2102 10180 20160 39818 40096 50000 60017 72162 8487/ 91500=
07481,1997-10-06 18:00:00,18,1007.6,-2,88,16,10000,14.816,,,130,14.8,25,,,,,,,,1,wg-a,,,,AAXX 06184 07481 12560 71308 10180 20160 39798 40076 56020 60006 70162 8387/ 91800 333 10250 20148=
07481,1997-10-06 21:00:00,17,1008.2,0.6,94,16,15000,22.224,,,180,,,,6,,,,,,61,wg-a,,,,AAXX 06214 07481 12665 71812 10170 20160 39804 40082 50006 60067 76162 8127/ 92100=
07481,1997-10-07 06:00:00,17,1007.4,-0,88,15,18000,22.224,,,160,16.6,18.1,,,,,8,,,1,wg-a,,,,AAXX 07064 07481 02468 /1612 10170 20150 39796 40074 55000 60006 70162 83531 90600 333 10181 20166 60084=
07481,1997-10-07 12:00:00,23,1008.5,0.4,65,16,35000,29.632,,,190,,,,,,,,,,,wg-a,,,,AAXX 07124 07481 12581 71916 10230 20160 39812 40085 51004 60006 8187/ 91200=
07481,1997-10-07 15:00:00,22,1008.4,-0.1,73,17,18000,29.632,,,190,,,,1,,,,,,29,wg-a,,,,AAXX 07154 07481 12668 21916 10220 20170 39811 40084 58001 60017 72998 81901 91500=
07481,1997-10-07 18:00:00,20,1011.3,2.5,78,16,18000,7.408,,,210,17,22.8,,1,,,,,,17,wg-a,,,,AAXX 07184 07481 02668 62104 10200 20160 39836 40113 53025 60006 71798 82381 91800 333 10228 20170 60017=
07481,1997-10-07 21:00:00,17,1013.9,2.3,88,15,20000,3.704,,,310,,,,,,,,,,1,wg-a,,,,AAXX 07214 07481 12/70 43102 10170 20150 39859 40139 51023 60006 70191 82081 92100=
07481,1997-10-08 00:00:00,16,1014.9,0.8,94,15,7000,7.408,,,150,,,,,,,,,,3,wg-a,,,,AAXX 08004 07481 12/57 41504 10160 20150 39867 40149 53008 60006 70391 82081 90000=
07481,1997-10-08 03:00:00,15,1015.4,0.5,100,15,6000,7.408,,,180,,,,,,,,,,,wg-a,,,,AAXX 08034 07481 12256 51804 10150 20150 39872 40154 53005 60006 83602 90300=
07481,1997-10-08 06:00:00,15,1015.8,0.3,100,15,1300,7.408,,,190,14.3,19.7,,,,,2,,,10,wg-a,,,,AAXX 08064 07481 02/13 41904 10150 20150 39875 40158 53003 60006 71041 83032 90600 333 10197 20143 60024=
07481,1997-10-08 12:00:00,24,1014.5,-1,54,14,15000,11.112,,,200,,,,,,,,,,,wg-a,,,,AAXX 08124 07481 12565 /2006 10240 20140 39871 40145 58010 60006 81132 91200=
07481,1997-10-08 18:00:00,23,1014.3,0.7,53,13,27000,22.224,,,190,14.7,25.3,,,,,,,,,wg-a,,,,AAXX 08184 07481 12777 /1912 10230 20130 39868 40143 53007 60006 81532 91800 333 10253 20147=
07481,1997-10-08 21:00:00,21,1015.4,0.9,64,14,25000,18.52,,,200,,,,,,,,,,,wg-a,,,,AAXX 08214 07481 12675 22010 10210 20140 39877 40154 53009 60006 81830 92100=
07481,1997-10-09 00:00:00,20,1016.1,0.6,68,14,20000,22.224,,,190,,,,,,,,,,,wg-a,,,,AAXX 09004 07481 12/70 11912 10200 20140 39883 40161 53006 60006 81031 90000=
07481,1997-10-09 03:00:00,19,1016.1,-0.1,78,15,20000,14.816,,,180,,,,,,,,,,,wg-a,,,,AAXX 09034 07481 12/70 11808 10190 20150 39882 40161 58001 60006 81031 90300=
07481,1997-10-09 06:00:00,17,1016.9,0.6,88,15,9000,11.112,,,150,15.6,22.5,,,,,,,,15,wg-a,,,,AAXX 09064 07481 02659 51506 10170 20150 39888 40169 51006 60006 71511 81532 90600 333 10225 20156 60004=
07481,1997-10-09 12:00:00,26,1016.6,-0.6,45,13,500,22.224,,,170,,,,,,,,,,,wg-a,,,,AAXX 09124 07481 12/00 61712 10260 20130 39893 40166 58006 60006 83082 91200=
07481,1997-10-09 15:00:00,26,1015.8,-0.7,45,13,40000,18.52,,,190,,,,,,,,,,,wg-a,,,,AAXX 09154 07481 12/82 71910 10260 20130 39886 40158 56007 60006 86082 91500=
07481,1997-10-09 18:00:00,22,1017.9,1.7,65,15,500,11.112,,,250,17.3,27.2,,,,,,,,,wg-a,,,,AAXX 09184 07481 12700 52506 10220 20150 39903 40179 53017 60006 82531 91800 333 10272 20173=
07481,1997-10-09 21:00:00,18,1019.2,0.9,77,14,500,7.408,,,130,,,,,,,,,,,wg-a,,,,AAXX 09214 07481 12/00 21304 10180 20140 39912 40192 51009 60006 80001 92100=
07481,1997-10-10 00:00:00,18,1017.8,-1.4,83,15,500,7.408,,,180,,,,,,,,,,,wg-a,,,,AAXX 10004 07481 12/00 41804 10180 20150 39898 40178 56014 60006 81032 90000=
07481,1997-10-10 03:00:00,16,1016.3,-1.7,88,14,500,7.408,,,160,,,,,,,,,,,wg-a,,,,AAXX 10034 07481 12/00 61604 10160 20140 39881 40163 58017 60006 82042 90300=
07481,1997-10-10 06:00:00,17,1015.3,-0.8,88,15,20000,11.112,,,160,16,22.1,,,,,,,,,wg-a,,,,AAXX 10064 07481 02670 71606 10170 20150 39873 40153 56008 60006 84572 90600 333 10221 20160 60004=
07481,1997-10-10 09:00:00,18,1014.2,-1,88,16,12000,3.704,,,150,,,,1,,,,,,61,wg-a,,,,AAXX 10094 07481 12662 81502 10180 20160 39863 40142 55010 60017 76162 8552/ 90900=
07481,1997-10-10 12:00:00,19,1012.6,-1.5,88,17,15000,18.52,,,180,,,,5,,,,,,60,wg-a,,,,AAXX 10124 07481 02665 71810 10190 20170 39848 40126 58015 60066 76062 8552/ 91200 333 60057=
07481,1997-10-10 15:00:00,19,1011.4,-1.1,88,17,13000,14.816,,,180,,,,1,,,,,,60,wg-a,,,,AAXX 10154 07481 12663 71808 10190 20170 39837 40114 56011 60017 76062 875// 91500=
07481,1997-10-10 18:00:00,19,1011.1,-0.3,88,17,20000,18.52,,,190,17.3,19.2,,0,,,,,,1,wg-a,,,,AAXX 10184 07481 02670 71910 10190 20170 39834 40111 55003 60006 70162 878// 91800 333 10192 20173 60007=
07481,1997-10-10 21:00:00,18,1013.2,1.9,94,17,18000,3.704,,,230,,,,5,,,,,,1,wg-a,,,,AAXX 10214 07481 12668 /2302 10180 20170 39853 40132 51019 60057 70162 85500 92100=
07481,1997-10-11 00:00:00,16,1014.8,1.4,100,16,12000,3.704,,,90,,,,2,,,,,,21,wg-a,,,,AAXX 11004 07481 02362 70902 10160 20160 39867 40148 51014 60076 72162 878// 90000 333 60027=
07481,1997-10-11 03:00:00,14,1015,0,88,12,20000,3.704,,,320,,,,,,,,,,,wg-a,,,,AAXX 11034 07481 12570 /3202 10140 20120 39867 40150 50000 60006 86800 90300=
07481,1997-10-11 06:00:00,12,1015.3,0.1,94,11,20000,3.704,,,100,12.1,18.9,,,,,13,,,,wg-a,,,,AAXX 11064 07481 02670 61002 10120 20110 39868 40153 53001 60006 84501 90600 333 10189 20121 60134=
07481,1997-10-11 12:00:00,18,1012.9,-2.1,56,9,20000,3.704,,,150,,,,,,,,,,,wg-a,,,,AAXX 11124 07481 12570 71502 10180 20090 39850 40129 57021 60006 8187/ 91200=
07481,1997-10-11 15:00:00,18,1009.8,-3,64,11,500,14.816,,,150,,,,,,,,,,,wg-a,,,,AAXX 11154 07481 12/00 81508 10180 20110 39820 40098 58030 60006 8707/ 91500=
07481,1997-10-11 18:00:00,17,1007.2,-2.6,72,12,500,14.816,,,160,12.2,19.3,,,,,,,,60,wg-a,,,,AAXX 11184 07481 02500 81608 10170 20120 39794 40072 56026 61000 76062 8587/ 91800 333 10193 20122 6100=
07481,1997-10-11 21:00:00,16,1006.2,-1.1,72,11,500,11.112,,,150,,,,0,,,,,,1,wg-a,,,,AAXX 11214 07481 12600 71506 10160 20110 39783 40062 56011 60007 70162 8453/ 92100=
07481,1997-10-12 00:00:00,17,1004.6,-1.5,77,13,500,18.52,,,190,,,,,,,,,,1,wg-a,,,,AAXX 12004 07481 12600 71910 10170 20130 39768 40046 56015 60006 70161 82570 90000=
07481,1997-10-12 03:00:00,18,1002.8,-1.7,68,12,25000,18.52,,,200,,,,,,,,,,,wg-a,,,,AAXX 12034 07481 12675 62010 10180 20120 39751 40028 58017 60006 83532 90300=
07481,1997-10-12 06:00:00,14,1005.1,1.9,67,8,25000,11.112,,,300,13.6,17.5,,,,,1,,,3,wg-a,,,,AAXX 12064 07481 02675 63006 10140 20080 39770 40051 51019 60006 70361 83531 90600 333 10175 20136 60014=
07481,1997-10-12 09:00:00,15,1005.8,0.8,63,8,40000,18.52,,,280,,,,,,,,,,3,wg-a,,,,AAXX 12094 07481 02582 /2810 10150 20080 39778 40058 52008 61000 70362 85840 90900 333 ////=
07481,1997-10-12 12:00:00,14,1006.3,0.4,77,10,20000,11.112,,,280,,,,2,,,,,,60,wg-a,,,,AAXX 12124 07481 02470 72806 10140 20100 39782 40063 53004 60026 76086 878// 91200 333 60027=
07481,1997-10-12 18:00:00,12,1013,5.2,88,10,20000,18.52,,,330,11.6,16.1,,2,,,,,,2,wg-a,,,,AAXX 12184 07481 02470 /3310 10120 20100 39845 40130 52052 60006 70286 8487/ 91800 333 10161 20116 60027=
07481,1997-10-12 21:00:00,9,1015,1.6,87,7,20000,7.408,,,20,,,,,,,,,,,wg-a,,,,AAXX 12214 07481 12470 30204 10090 20070 39861 40150 52016 60006 83800 92100=
07481,1997-10-13 00:00:00,9,1015.8,0.8,93,8,20000,7.408,,,10,,,,,,,,,,,wg-a,,,,AAXX 13004 07481 12670 60104 10090 20080 39869 40158 51008 60006 83530 90000=
07481,1997-10-13 03:00:00,9,1015.4,-0.4,93,8,20000,14.816,,,340,,,,,,,,,,,wg-a,,,,AAXX 13034 07481 12670 73408 10090 20080 39865 40154 55004 60006 8353/ 90300=
07481,1997-10-13 06:00:00,9,1016.1,0.7,93,8,25000,14.816,,,350,8.4,11.9,,,,,4,,,,wg-a,,,,AAXX 13064 07481 02475 73508 10090 20080 39872 40161 53007 60006 878// 90600 333 10119 20084 60044=
07481,1997-10-13 09:00:00,9,1017.7,1.6,76,5,500,22.224,,,340,,,,,,,,,,,wg-a,,,,AAXX 13094 07481 12400 73412 10090 20050 39888 40177 51016 60006 878// 90900=
07481,1997-10-13 11:00:00,10,1017.8,,66,4,25000,11.112,,,350,,,,,,,,,,,wg-a,,,,AAXX 13114 07481 12/75 73506 10100 20040 39889 40178 60006 91100=
07481,1997-10-13 12:00:00,11,1017.2,-0.4,58,3,500,18.52,,,350,,,,,,,,,,,wg-a,,,,AAXX 13124 07481 12500 73510 10110 20030 39884 40172 58004 60006 878// 91200=
07481,1997-10-13 15:00:00,11,1016.8,-0.4,54,2,500,18.52,,,350,,,,,,,,,,,wg-a,,,,AAXX 13154 07481 12600 73510 10110 20020 39880 40168 56004 60006 8587/ 91500=
07481,1997-10-13 18:00:00,9,1017.9,0.9,76,5,25000,11.112,,,350,8.4,11.3,,,,,,,,,wg-a,,,,AAXX 13184 07481 12675 73506 10090 20050 39889 40179 53009 60006 8483/ 91800 333 10113 20084=
07481,1997-10-13 21:00:00,7,1018.7,0.6,93,6,25000,3.704,,,360,,,,0,,,,,,1,wg-a,,,,AAXX 13214 07481 12575 73602 10070 20060 39895 40187 51006 60007 70186 8653/ 92100=
07481,1997-10-14 00:00:00,7,1018.4,-0.3,93,6,20000,3.704,,,20,,,,1,,,,,,60,wg-a,,,,AAXX 14004 07481 02570 80202 10070 20060 39892 40184 58003 60016 76086 885// 90000 333 60017=
07481,1997-10-14 03:00:00,7,1019.1,0.7,93,6,12000,14.816,,,350,,,,1,,,,,,61,wg-a,,,,AAXX 14034 07481 12262 83508 10070 20060 39899 40191 53007 60017 76166 888// 90300=
07481,1997-10-14 06:00:00,7,1020.8,1.6,87,5,25000,22.224,,,350,6.5,8.7,,,,,2,,,1,wg-a,,,,AAXX 14064 07481 02475 73512 10070 20050 39908 40208 53016 60006 70162 875// 90600 333 10087 20065 60024=
07481,1997-10-14 09:00:00,8,1022.5,1.8,87,6,20000,25.928,,,340,,,,,,,,,,,wg-a,,,,AAXX 14094 07481 12470 /3414 10080 20060 39933 40225 51018 60006 85870 90900=
07481,1997-10-14 12:00:00,10,1022.9,0.5,71,5,500,25.928,,,350,,,,,,,,,,,wg-a,,,,AAXX 14124 07481 12500 73514 10100 20050 39938 40229 53005 60006 878// 91200=
07481,1997-10-14 15:00:00,10,1022.1,-0.7,71,5,25000,22.224,,,340,,,,,,,,,,,wg-a,,,,AAXX 14154 07481 12675 33412 10100 20050 39931 40221 56007 60006 82201 91500=
07481,1997-10-14 18:00:00,7,1023.4,1,93,6,500,14.816,,,330,6.6,11.3,,,,,,,,,wg-a,,,,AAXX 14184 07481 12600 /3308 10070 20060 39941 40234 53010 60006 81460 91800 333 10113 20066=
07481,1997-10-14 21:00:00,8,1024.1,0.7,87,6,25000,11.112,,,340,,,,,,,,,,,wg-a,,,,AAXX 14214 07481 12/75 73406 10080 20060 39948 40241 50007 60006 8703/ 92100=
07481,1997-10-15 00:00:00,5,1023.4,-0.9,100,5,25000,3.704,,,30,,,,,,,,,,,wg-a,,,,AAXX 15004 07481 12/75 20302 10050 20050 39939 40234 58009 60006 81032 90000=
07481,1997-10-15 03:00:00,6,1022.4,-0.9,100,6,15000,3.704,,,330,,,,,,,,,,,wg-a,,,,AAXX 15034 07481 12465 73302 10060 20060 39930 40224 56009 60006 8453/ 90300=
07481,1997-10-15 06:00:00,7,1021.1,-1.2,93,6,8000,0,,,0,5.2,7.8,,,,,,,,,wg-a,,,,AAXX 15064 07481 02558 80000 10070 20060 39918 40211 56012 60006 878// 90600 333 10078 20052 60004=
07481,1997-10-15 09:00:00,8,1020.7,-0.2,87,6,10000,3.704,,,160,,,,,,,,,,,wg-a,,,,AAXX 15094 07481 12560 81602 10080 20060 39916 40207 56002 60006 8287/ 90900=
07481,1997-10-15 12:00:00,9,1018.8,-1.8,81,6,8000,14.816,,,170,,,,0,,,,,,60,wg-a,,,,AAXX 15124 07481 02558 81708 10090 20060 39898 40188 58018 60006 76062 8657/ 91200 333 60007=
07481,1997-10-15 18:00:00,8,1015.8,-1,100,8,3500,7.408,,,160,6.6,9.3,,,,,,,,10,wg-a,,,,AAXX 15184 07481 02335 81604 10080 20080 39868 40158 56010 61000 71062 885// 91800 333 10093 20066 6004=
07481,1997-10-15 21:00:00,8,1015.4,-0.4,100,8,8000,11.112,,,150,,,,,,,,,,,wg-a,,,,AAXX 15214 07481 32/58 /1506 10080 20080 39864 40154 56004 92100=
07481,1997-10-16 00:00:00,9,1014.9,-0.4,93,8,8000,7.408,,,160,,,,1,,,,,,21,wg-a,,,,AAXX 16004 07481 02258 81604 10090 20080 39860 40149 58004 60026 72165 877// 90000 333 60017=
07481,1997-10-16 03:00:00,9,1014.2,-0.7,100,9,4000,7.408,,,170,,,,1,,,,,,10,wg-a,,,,AAXX 16034 07481 12140 81704 10090 20090 39853 40142 57007 60017 71062 875// 90300=
07481,1997-10-16 06:00:00,9,1014.7,0.6,100,9,3000,0,,,0,8,9.2,,,,,,,,10,wg-a,,,,AAXX 16064 07481 02230 80000 10090 20090 39859 40147 53006 61000 71062 875// 90600 333 10092 20080 6010=
07481,1997-10-16 09:00:00,10,1016.5,1.8,100,10,500,3.704,,,120,,,,0,,,,,,3,wg-a,,,,AAXX 16094 07481 12200 81202 10100 20100 39877 40165 51018 60007 70365 887// 90900=
07481,1997-10-16 12:00:00,13,1016.3,0.1,88,11,7000,3.704,,,10,,,,,,,,,,1,wg-a,,,,AAXX 16124 07481 12357 70102 10130 20110 39878 40163 50001 60006 70165 878// 91200=
07481,1997-10-16 15:00:00,14,1015.8,-0.3,88,12,7000,7.408,,,320,,,,,,,,,,,wg-a,,,,AAXX 16154 07481 12457 73204 10140 20120 39875 40158 56003 60006 87800 91500=
07481,1997-10-16 18:00:00,12,1017,0.9,94,11,9000,3.704,,,340,9.2,14.4,,,,,,,,,wg-a,,,,AAXX 16184 07481 12759 43402 10120 20110 39884 40170 53009 60006 82532 91800 333 10144 20092=
07481,1997-10-17 00:00:00,9,1018.3,0.1,100,9,500,3.704,,,50,,,,,,,,,,43,wg-a,,,,AAXX 17004 07481 12/00 90502 10090 20090 39893 40183 53001 60006 74341 89/// 90000=
07481,1997-10-17 03:00:00,10,1017.8,-0.3,100,10,800,3.704,,,300,,,,,,,,,,10,wg-a,,,,AAXX 17034 07481 12108 83002 10100 20100 39890 40178 58003 60006 71042 886// 90300=
07481,1997-10-17 06:00:00,10,1018.2,0.3,100,10,3500,0,,,0,8.9,11.9,,,,,,,,10,wg-a,,,,AAXX 17064 07481 02235 80000 10100 20100 39893 40182 53003 60006 71042 886// 90600 333 10119 20089 60004=
07481,1997-10-17 09:00:00,12,1019.3,1.3,88,10,10000,14.816,,,160,,,,,,,,,,,wg-a,,,,AAXX 17094 07481 12460 /1608 10120 20100 39906 40193 51013 60006 86600 90900=
07481,1997-10-17 12:00:00,19,1017.4,-1.2,56,10,20000,18.52,,,180,,,,,,,,,,,wg-a,,,,AAXX 17124 07481 12570 21810 10190 20100 39894 40174 58012 60006 81101 91200=
07481,1997-10-17 15:00:00,20,1015.9,-1.3,53,10,500,18.52,,,170,,,,,,,,,,,wg-a,,,,AAXX 17154 07481 12/00 41710 10200 20100 39881 40159 56013 60006 80001 91500=
07481,1997-10-17 18:00:00,15,1017.6,1.1,77,11,500,14.816,,,130,9.8,20.4,,,,,,,,,wg-a,,,,AAXX 17184 07481 12/00 41308 10150 20110 39892 40176 53011 60006 80001 91800 333 10204 20098=
07481,1997-10-17 21:00:00,14,1018.8,1.1,82,11,500,14.816,,,150,,,,,,,,,,,wg-a,,,,AAXX 17214 07481 12/00 11508 10140 20110 39903 40188 53011 60006 80001 92100=
07481,1997-10-18 00:00:00,14,1020.1,1.3,88,12,25000,18.52,,,150,,,,,,,,,,,wg-a,,,,AAXX 18004 07481 12/75 11510 10140 20120 39916 40201 53013 60006 80001 90000=
07481,1997-10-18 03:00:00,13,1020.9,0.6,88,11,500,14.816,,,150,,,,,,,,,,,wg-a,,,,AAXX 18034 07481 12/00 31508 10130 20110 39922 40209 51006 60006 80001 90300=
07481,1997-10-18 06:00:00,11,1022.2,1.2,94,10,20000,14.816,,,150,10.8,15.1,,,,,,,,,wg-a,,,,AAXX 18064 07481 02/70 21508 10110 20100 39934 40222 51012 60006 80001 90600 333 10151 20108 60004=
07481,1997-10-18 09:00:00,17,1022.8,1.1,68,11,500,22.224,,,140,,,,,,,,,,,wg-a,,,,AAXX 18094 07481 12/00 11412 10170 20110 39945 40228 51011 60006 80001 90900=
07481,1997-10-18 12:00:00,22,1021.6,-0.7,43,9,50000,29.632,,,200,,,,,,,,,,,wg-a,,,,AAXX 18124 07481 12684 /2016 10220 20090 39938 40216 58007 60006 81101 91200=
07481,1997-10-18 15:00:00,22,1020.8,-0.8,50,11,60000,22.224,,,200,,,,,,,,,,,wg-a,,,,AAXX 18154 07481 12686 /2012 10220 20110 39930 40208 56008 60006 81101 91500=
07481,1997-10-18 18:00:00,17,1021.8,0.5,68,11,50000,11.112,,,150,10.8,22.6,,,,,,,,,wg-a,,,,AAXX 18184 07481 12/84 11506 10170 20110 39935 40218 53005 60006 80001 91800 333 10226 20108=
07481,1997-10-18 21:00:00,14,1022.1,0.1,82,11,500,18.52,,,130,,,,,,,,,,,wg-a,,,,AAXX 18214 07481 12/00 11310 10140 20110 39936 40221 53001 60006 80001 92100=
07481,1997-10-19 00:00:00,15,1021.7,-0.3,82,12,500,22.224,,,160,,,,,,,,,,,wg-a,,,,AAXX 19004 07481 12/00 11612 10150 20120 39933 40217 58003 60006 80001 90000=
07481,1997-10-19 03:00:00,14,1020.9,-0.9,88,12,25000,14.816,,,150,,,,,,,,,,,wg-a,,,,AAXX 19034 07481 12/75 21508 10140 20120 39924 40209 57009 60006 80001 90300=
07481,1997-10-19 06:00:00,12,1020.4,-0.7,94,11,15000,22.224,,,140,12.4,17,,,,,,,,,wg-a,,,,AAXX 19064 07481 02/65 21412 10120 20110 39917 40204 58007 60006 80001 90600 333 10170 20124 60004=
07481,1997-10-19 09:00:00,18,1019.8,0,68,12,500,31.484,,50.004,180,,,,,,,,,,,wg-a,,,,AAXX 19094 07481 12400 21817 10180 20120 39917 40198 50000 60006 81101 90900 333 91027=
07481,1997-10-19 12:00:00,21,1017.8,-1.7,56,12,35000,31.484,,55.56,190,,,,,,,,,,,wg-a,,,,AAXX 19124 07481 12681 31917 10210 20120 39900 40178 58017 60006 81102 91200 333 91030=
07481,1997-10-19 15:00:00,21,1016.6,-1.2,49,10,35000,35.188,,50.004,200,,,,,,,,,,,wg-a,,,,AAXX 19154 07481 12681 42019 10210 20100 39888 40166 56012 60006 81102 91500 333 91027=
07481,1997-10-19 18:00:00,18,1016.9,-0,68,12,25000,22.224,,,200,12.3,21.1,,,,,,,,,wg-a,,,,AAXX 19184 07481 12/75 32012 10180 20120 39888 40169 55000 60006 80002 91800 333 10211 20123=
07481,1997-10-20 00:00:00,15,1015.9,-0.8,88,13,20000,18.52,,,150,,,,,,,,,,,wg-a,,,,AAXX 20004 07481 12/70 61510 10150 20130 39876 40159 58008 60006 80002 90000=
07481,1997-10-20 03:00:00,14,1015.1,-0.9,88,12,15000,18.52,,,140,,,,,,,,,,,wg-a,,,,AAXX 20034 07481 12/65 61410 10140 20120 39867 40151 58009 60006 82032 90300=
07481,1997-10-20 06:00:00,12,1014.4,-0.8,94,11,10000,14.816,,,130,12.3,17.7,,,,,,,,,wg-a,,,,AAXX 20064 07481 02/60 31308 10120 20110 39859 40144 56008 60006 81031 90600 333 10177 20123 60004=
07481,1997-10-20 09:00:00,16,1013.7,-0.3,77,12,10000,11.112,,,140,,,,,,,,,,,wg-a,,,,AAXX 20094 07481 12/60 21406 10160 20120 39856 40137 58003 60006 81031 90900=
07481,1997-10-20 12:00:00,21,1010.7,-2.4,56,12,25000,18.52,,,180,,,,,,,,,,,wg-a,,,,AAXX 20124 07481 12675 41810 10210 20120 39832 40107 58024 60006 81131 91200=
07481,1997-10-20 15:00:00,20,1008.9,-1.9,64,13,25000,14.816,,,100,,,,,,,,,,,wg-a,,,,AAXX 20154 07481 12675 /1008 10200 20130 39813 40089 56019 60006 81132 91500=
07481,1997-10-20 18:00:00,17,1009.5,0.3,72,12,20000,11.112,,,140,12.3,22.1,,,,,,,,,wg-a,,,,AAXX 20184 07481 12770 71406 10170 20120 39816 40095 52003 60006 8253/ 91800 333 10221 20123=
07481,1997-10-20 21:00:00,16,1009.2,-0.4,77,12,15000,7.408,,,140,,,,,,,,,,,wg-a,,,,AAXX 20214 07481 12765 81404 10160 20120 39812 40092 56004 60006 8253/ 92100=
07481,1997-10-21 00:00:00,15,1009,-0.3,82,12,15000,3.704,,,210,,,,,,,,,,,wg-a,,,,AAXX 21004 07481 12565 82102 10150 20120 39809 40090 55003 60006 8557/ 90000=
07481,1997-10-21 03:00:00,14,1008.5,-0.5,88,12,15000,0,,,0,,,,,,,,,,,wg-a,,,,AAXX 21034 07481 12565 80000 10140 20120 39804 40085 55005 60006 8657/ 90300=
07481,1997-10-21 06:00:00,13,1008.6,-0.1,94,12,8000,0,,,0,13.1,17.3,,,,,,,,,wg-a,,,,AAXX 21064 07481 02558 80000 10130 20120 39803 40086 56001 60006 8657/ 90600 333 10173 20131 60004=
07481,1997-10-21 09:00:00,15,1009.5,1.1,94,14,4500,11.112,,,10,,,,,,,,,,10,wg-a,,,,AAXX 21094 07481 12245 70106 10150 20140 39814 40095 51011 60006 71022 855// 90900=
07481,1997-10-21 12:00:00,16,1009.3,0.2,82,13,6000,7.408,,,350,,,,,,,,,,,wg-a,,,,AAXX 21124 07481 12456 73504 10160 20130 39813 40093 50002 60006 8557/ 91200=
07481,1997-10-21 15:00:00,17,1009.4,0.2,77,13,8000,14.816,,,360,,,,,,,,,,,wg-a,,,,AAXX 21154 07481 12/58 /3608 10170 20130 39815 40094 52002 60006 85012 91500=
07481,1997-10-21 18:00:00,14,1011.3,1.5,88,12,6000,11.112,,,340,13,17.5,,,,,,,,,wg-a,,,,AAXX 21184 07481 12656 73406 10140 20120 39830 40113 53015 60006 8457/ 91800 333 10175 20130=
07481,1997-10-21 21:00:00,14,1011.9,0.6,88,12,8000,7.408,,,330,,,,,,,,,,,wg-a,,,,AAXX 21214 07481 12458 83304 10140 20120 39836 40119 53006 60006 885// 92100=
07481,1997-10-22 00:00:00,13,1011.9,-0.1,88,11,9000,3.704,,,20,,,,,,,,,,,wg-a,,,,AAXX 22004 07481 12559 80202 10130 20110 39835 40119 58001 60006 885// 90000=
07481,1997-10-22 03:00:00,12,1012,0,94,11,8000,7.408,,,20,,,,,,,,,,,wg-a,,,,AAXX 22034 07481 12458 80204 10120 20110 39835 40120 50000 60006 885// 90300=
07481,1997-10-22 06:00:00,11,1011.8,-0.2,100,11,6000,3.704,,,10,11.3,13.5,,,,,,,,,wg-a,,,,AAXX 22064 07481 02256 80102 10110 20110 39833 40118 58002 60006 885// 90600 333 10135 20113 60004=
07481,1997-10-22 09:00:00,15,1011.7,0.2,77,11,10000,3.704,,,120,,,,,,,,,,,wg-a,,,,AAXX 22094 07481 12560 41202 10150 20110 39835 40117 50002 60006 81101 90900=
07481,1997-10-22 12:00:00,19,1010,-1.3,64,12,18000,7.408,,,120,,,,,,,,,,,wg-a,,,,AAXX 22124 07481 12568 31204 10190 20120 39822 40100 58013 60006 81101 91200=
07481,1997-10-22 15:00:00,19,1009,-0.9,73,14,15000,7.408,,,200,,,,,,,,,,,wg-a,,,,AAXX 22154 07481 12565 82004 10190 20140 39813 40090 56009 60006 8653/ 91500=
07481,1997-10-22 18:00:00,17,1009.5,0.3,82,14,12000,7.408,,,190,11.3,19.1,,,,,,,,,wg-a,,,,AAXX 22184 07481 12462 81904 10170 20140 39816 40095 53003 60006 875// 91800 333 10191 20113=
07481,1997-10-22 21:00:00,16,1010.2,0.6,88,14,11000,7.408,,,270,,,,,,,,,,,wg-a,,,,AAXX 22214 07481 12/61 /2704 10160 20140 39822 40102 53006 60006 92100=
07481,1997-10-23 00:00:00,14,1010.4,-0,94,13,500,7.408,,,10,,,,0,,,,,,61,wg-a,,,,AAXX 23004 07481 02300 80104 10140 20130 39822 40104 54000 60006 76162 885// 90000 333 60007=
07481,1997-10-23 03:00:00,13,1010.2,-0.3,100,13,3500,3.704,,,330,,,,0,,,,,,10,wg-a,,,,AAXX 23034 07481 12135 83302 10130 20130 39819 40102 58003 60007 71062 886// 90300=
07481,1997-10-23 06:00:00,13,1010,-0.2,100,13,800,7.408,,,330,12.5,17.2,,,,,1,,,44,wg-a,,,,AAXX 23064 07481 02108 83304 10130 20130 39817 40100 56002 60006 74464 886// 90600 333 10172 20125 60014=
07481,1997-10-23 09:00:00,13,1011,0.9,100,13,1500,7.408,,,350,,,,,,,,,,10,wg-a,,,,AAXX 23094 07481 12115 83504 10130 20130 39826 40110 51009 60006 71042 886// 90900=
07481,1997-10-23 12:00:00,14,1010.3,-0.5,100,14,3500,7.408,,,360,,,,,,,,,,10,wg-a,,,,AAXX 23124 07481 12235 83604 10140 20140 39821 40103 58005 60006 71042 886// 91200=
07481,1997-10-23 18:00:00,14,1010.8,0.9,94,13,6000,7.408,,,320,12.3,15.1,,,,,,,,21,wg-a,,,,AAXX 23184 07481 02556 83204 10140 20130 39826 40108 51009 61000 72162 875// 91800 333 10151 20123 6000=
07481,1997-10-24 00:00:00,11,1012.9,0.6,87,9,8000,14.816,,,350,,,,,,,,,,,wg-a,,,,AAXX 24004 07481 12358 83508 10110 20090 39843 40129 53006 60006 886// 90000=
07481,1997-10-24 03:00:00,7,1014.5,1.1,93,6,500,18.52,,,340,,,,,,,,,,,wg-a,,,,AAXX 24034 07481 12100 83410 10070 20060 39854 40145 53011 60006 875// 90300=
07481,1997-10-24 06:00:00,4,1016.8,2,100,4,1600,22.224,,,340,4.4,13.9,,,,,,,,10,wg-a,,,,AAXX 24064 07481 02116 83412 10040 20040 39874 40168 53020 61000 71052 886// 90600 333 10139 20044 6000=
07481,1997-10-24 09:00:00,4,1019,2.1,93,3,7000,18.52,,,340,,,,,,,,,,1,wg-a,,,,AAXX 24094 07481 02357 83410 10040 20030 39895 40190 51021 61000 70152 886// 90900 333 ////=
07481,1997-10-24 12:00:00,6,1019.9,1,75,2,9000,18.52,,,360,,,,,,,,,,1,wg-a,,,,AAXX 24124 07481 02459 73610 10060 20020 39905 40199 51010 61000 70152 875// 91200 333 ////=
07481,1997-10-24 15:00:00,10,1019.7,0.2,66,4,12000,14.816,,,360,,,,,,,,,,,wg-a,,,,AAXX 24154 07481 12562 33608 10100 20040 39907 40197 53002 60006 83500 91500=
07481,1997-10-24 18:00:00,8,1021.2,1.4,76,4,25000,18.52,,,330,3.9,10.3,,,,,,,,,wg-a,,,,AAXX 24184 07481 12675 /3310 10080 20040 39921 40212 53014 60006 86500 91800 333 10103 20039=
07481,1997-10-24 21:00:00,5,1022.8,1.1,87,3,25000,11.112,,,330,,,,,,,,,,,wg-a,,,,AAXX 24214 07481 12/75 03306 10050 20030 39932 40228 53011 60006 80000 92100=
07481,1997-10-25 00:00:00,3,1023.9,0.9,93,2,20000,7.408,,,290,,,,,,,,,,,wg-a,,,,AAXX 25004 07481 12/70 02904 10030 20020 39941 40239 53009 60006 80000 90000=
07481,1997-10-25 03:00:00,2,1024.6,0.6,93,1,20000,7.408,,,320,,,,,,,,,,,wg-a,,,,AAXX 25034 07481 12/70 03204 10020 20010 39947 40246 53006 60006 80000 90300=
07481,1997-10-25 06:00:00,3,1025.9,1.3,93,2,12000,7.408,,,320,1.7,8.4,,,,,,,,,wg-a,,,,AAXX 25064 07481 02362 83204 10030 20020 39960 40259 52013 60006 886// 90600 333 10084 20017 61000=
07481,1997-10-25 09:00:00,3,1027.4,1.5,87,1,12000,11.112,,,10,,,,,,,,,,,wg-a,,,,AAXX 25094 07481 12262 80106 10030 20010 39975 40274 51015 60006 886// 90900=
07481,1997-10-25 12:00:00,6,1026.6,-0.5,81,3,10000,7.408,,,40,,,,,,,,,,,wg-a,,,,AAXX 25124 07481 12460 30404 10060 20030 39970 40266 58005 60006 83600 91200=
07481,1997-10-25 15:00:00,6,1025.8,-0.7,81,3,9000,11.112,,,50,,,,,,,,,,,wg-a,,,,AAXX 25154 07481 12/59 00506 10060 20030 39963 40258 56007 60006 80000 91500=
07481,1997-10-25 18:00:00,4,1026.5,0.4,93,3,6000,7.408,,,140,2.3,6.5,,,,,,,,,wg-a,,,,AAXX 25184 07481 12/56 01404 10040 20030 39967 40265 53004 60006 80000 91800 333 10065 20023=
07481,1997-10-25 21:00:00,2,1026.7,-0,100,2,500,7.408,,,150,,,,,,,,,,41,wg-a,,,,AAXX 25214 07481 12105 41504 10020 20020 39967 40267 54000 60006 74140 84600 92100=
07481,1997-10-26 00:00:00,2,1026.4,-0.3,100,2,200,7.408,,,140,,,,,,,,,,45,wg-a,,,,AAXX 26004 07481 12/02 91404 10020 20020 39964 40264 56003 60006 74541 89/// 90000=
07481,1997-10-26 03:00:00,1,1025.7,-0.8,100,1,200,0,,,0,,,,,,,,,,45,wg-a,,,,AAXX 26034 07481 12/02 90000 10010 20010 39956 40257 58008 60006 74544 89/// 90300=
07481,1997-10-26 06:00:00,0,1025.7,-0.1,100,0,200,0,,,0,0.2,3.8,,,,,,,,45,wg-a,,,,AAXX 26064 07481 02/02 90000 10000 20000 39955 40257 58001 60006 74544 89/// 90600 333 10038 20002 60004=
07481,1997-10-26 09:00:00,1,1025.7,0.2,100,1,700,3.704,,,50,,,,,,,,,,43,wg-a,,,,AAXX 26094 07481 12/07 90502 10010 20010 39957 40257 50002 60006 74344 89/// 90900=
07481,1997-10-26 12:00:00,6,1024.1,-1.1,93,5,10000,7.408,,,40,,,,,,,,,,1,wg-a,,,,AAXX 26124 07481 12360 /0404 10060 20050 39946 40241 58011 60006 70141 81600 91200=
07481,1997-10-26 15:00:00,10,1021.8,-1.8,66,4,15000,7.408,,,20,,,,,,,,,,,wg-a,,,,AAXX 26154 07481 12/65 00204 10100 20040 39928 40218 56018 60006 80000 91500=
07481,1997-10-26 18:00:00,6,1022.4,0.2,87,4,10000,3.704,,,350,0.2,10.4,,,,,,,,,wg-a,,,,AAXX 26184 07481 12/60 03502 10060 20040 39930 40224 53002 60006 80000 91800 333 10104 20002=
07481,1997-10-26 21:00:00,4,1022.6,0,93,3,8000,3.704,,,130,,,,,,,,,,,wg-a,,,,AAXX 26214 07481 12/58 01302 10040 20030 39930 40226 50000 60006 80000 92100=
07481,1997-10-27 00:00:00,2,1022.1,-0.8,100,2,500,0,,,0,,,,,,,,,,,wg-a,,,,AAXX 27004 07481 12/00 00000 10020 20020 39922 40221 56008 60006 80000 90000=
07481,1997-10-27 03:00:00,1,1021.3,-0.9,93,0,3500,0,,,0,,,,,,,,,,10,wg-a,,,,AAXX 27034 07481 12/35 00000 10010 20000 39913 40213 56009 60006 71000 80000 90300=
07481,1997-10-27 06:00:00,1,1021.3,0.1,100,1,200,3.704,,,40,-0.2,5.9,,,,,,,,45,wg-a,,,,AAXX 27064 07481 02/02 90402 10010 20010 39914 40213 53001 60006 74541 89/// 90600 333 10059 21002 60004=
07481,1997-10-27 09:00:00,3,1021.6,0.5,100,3,300,7.408,,,320,,,,,,,,,,45,wg-a,,,,AAXX 27094 07481 12/03 93204 10030 20030 39919 40216 50005 60006 74544 89/// 90900=
07481,1997-10-27 12:00:00,4,1020.7,-0.7,100,4,1700,7.408,,,350,,,,,,,,,,10,wg-a,,,,AAXX 27124 07481 12117 83504 10040 20040 39912 40207 58007 60006 71042 886// 91200=
07481,1997-10-27 18:00:00,4,1019.7,-0,100,4,3000,11.112,,,120,1.4,6,,,,,,,,10,wg-a,,,,AAXX 27184 07481 12130 71206 10040 20040 39902 40197 55000 60006 71011 876// 91800 333 10060 20014=
07481,1997-10-27 21:00:00,4,1020.1,0.3,100,4,200,3.704,,,160,,,,,,,,,,43,wg-a,,,,AAXX 27214 07481 12/02 91602 10040 20040 39905 40201 53003 60006 74342 89/// 92100=
07481,1997-10-28 00:00:00,4,1020,-0,100,4,3000,3.704,,,280,,,,,,,,,,10,wg-a,,,,AAXX 28004 07481 12130 82802 10040 20040 39905 40200 54000 60006 71042 886// 90000=
07481,1997-10-28 03:00:00,4,1019.9,-0.1,93,3,12000,7.408,,,310,,,,,,,,,,,wg-a,,,,AAXX 28034 07481 12362 83104 10040 20030 39904 40199 58001 60006 886// 90300=
07481,1997-10-28 06:00:00,3,1020.4,0.3,87,1,10000,11.112,,,340,2.9,4.4,,,,,,,,,wg-a,,,,AAXX 28064 07481 02360 83406 10030 20010 39907 40204 53003 60006 875// 90600 333 10044 20029 60004=
07481,1997-10-28 12:00:00,5,1022,0.6,75,1,10000,18.52,,,340,,,,,,,,,,,wg-a,,,,AAXX 28124 07481 12460 73410 10050 20010 39924 40220 51006 60006 875// 91200=
07481,1997-10-28 15:00:00,6,1022.6,0.7,65,0,20000,14.816,,,330,,,,,,,,,,,wg-a,,,,AAXX 28154 07481 12570 73308 10060 20000 39931 40226 53007 60006 875// 91500=
07481,1997-10-28 18:00:00,6,1024.2,1.6,61,-1,15000,7.408,,,310,2.4,6,,,,,,,,,wg-a,,,,AAXX 28184 07481 12665 83104 10060 21010 39947 40242 53016 60006 875// 91800 333 10060 20024=
07481,1997-10-28 21:00:00,4,1025.5,1.1,70,-1,15000,3.704,,,240,,,,,,,,,,,wg-a,,,,AAXX 28214 07481 12665 /2402 10040 21010 39958 40255 53011 60006 85500 92100=
07481,1997-10-29 00:00:00,1,1027.2,1.2,75,-3,15000,7.408,,,310,,,,,,,,,,,wg-a,,,,AAXX 29004 07481 12665 23104 10010 21030 39970 40272 51012 60006 82500 90000=
07481,1997-10-29 03:00:00,-2,1028.3,0.8,80,-5,10000,11.112,,,330,,,,,,,,,,,wg-a,,,,AAXX 29034 07481 12/60 03306 11020 21050 39978 40283 52008 60006 80000 90300=
07481,1997-10-29 06:00:00,-3,1029.3,0.9,86,-5,10000,7.408,,,330,-2.7,5.8,,,,,,,,,wg-a,,,,AAXX 29064 07481 02/60 13304 11030 21050 39987 40293 51009 60006 81030 90600 333 10058 21027 60004=
07481,1997-10-29 09:00:00,1,1030.1,1.1,69,-4,15000,7.408,,,320,,,,,,,,,,,wg-a,,,,AAXX 29094 07481 12/65 03204 10010 21040 39998 40301 51011 60006 80000 90900=
07481,1997-10-29 12:00:00,5,1029,-0.6,60,-2,20000,3.704,,,20,,,,,,,,,,,wg-a,,,,AAXX 29124 07481 12/70 00202 10050 21020 39992 40290 58006 60006 80000 91200=
07481,1997-10-29 15:00:00,7,1028.3,-0.5,53,-2,25000,14.816,,,350,,,,,,,,,,,wg-a,,,,AAXX 29154 07481 12/75 03508 10070 21020 39987 40283 55005 60006 80000 91500=
07481,1997-10-29 18:00:00,3,1029.1,0.4,70,-2,25000,0,,,0,-2.8,6.9,,,,,,,,,wg-a,,,,AAXX 29184 07481 12/75 00000 10030 21020 39991 40291 52004 60006 80000 91800 333 10069 21028=
07481,1997-10-29 21:00:00,2,1028.8,-0.4,69,-3,25000,3.704,,,180,,,,,,,,,,,wg-a,,,,AAXX 29214 07481 12/75 01802 10020 21030 39987 40288 56004 60006 80000 92100=
07481,1997-10-30 00:00:00,-1,1028.8,-0.3,86,-3,20000,7.408,,,240,,,,,,,,,,,wg-a,,,,AAXX 30004 07481 12/70 02404 11010 21030 39984 40288 56003 60006 80000 90000=
07481,1997-10-30 03:00:00,-2,1028,-0.8,86,-4,20000,0,,,0,,,,,,,,,,,wg-a,,,,AAXX 30034 07481 12/70 00000 11020 21040 39976 40280 56008 60006 80000 90300=
07481,1997-10-30 06:00:00,-3,1027.7,-0.4,86,-5,10000,0,,,0,-2.6,3.4,,,,,,,,,wg-a,,,,AAXX 30064 07481 02/60 00000 11030 21050 39972 40277 58004 60006 80000 90600 333 10034 21026 60004=
07481,1997-10-30 12:00:00,6,1025.2,-1.8,52,-3,15000,3.704,,,240,,,,,,,,,,,wg-a,,,,AAXX 30124 07481 12/65 02402 10060 21030 39957 40252 58018 60006 80000 91200=
07481,1997-10-30 18:00:00,2,1026.1,1.1,69,-3,15000,3.704,,,300,-3.2,6.8,,,,,,,,,wg-a,,,,AAXX 30184 07481 12/65 03002 10020 21030 39961 40261 53011 60006 80000 91800 333 10068 21032=
07481,1997-10-30 21:00:00,0,1026.3,0,80,-3,12000,3.704,,,230,,,,,,,,,,,wg-a,,,,AAXX 30214 07481 12/62 02302 10000 21030 39961 40263 50000 60006 80000 92100=
07481,1997-10-31 00:00:00,-1,1026.5,0.1,80,-4,12000,3.704,,,160,,,,,,,,,,,wg-a,,,,AAXX 31004 07481 12/62 01602 11010 21040 39962 40265 53001 60006 80000 90000=
07481,1997-10-31 03:00:00,-2,1026.5,-0.2,86,-4,8000,11.112,,,150,,,,,,,,,,,wg-a,,,,AAXX 31034 07481 12/58 01506 11020 21040 39960 40265 55002 60006 80000 90300=
07481,1997-10-31 06:00:00,-3,1026.7,0.2,93,-4,7000,3.704,,,160,-3.7,1.7,,,,,,,,,wg-a,,,,AAXX 31064 07481 02/57 01602 11030 21040 39962 40267 50002 60006 80000 90600 333 10017 21037 60004=
07481,1997-10-31 12:00:00,5,1025.7,-0.9,60,-2,10000,3.704,,,360,,,,,,,,,,,wg-a,,,,AAXX 31124 07481 12/60 /3602 10050 21020 39961 40257 58009 60006 91200=
07481,1997-10-31 15:00:00,7,1024.7,-0.8,49,-3,12000,7.408,,,30,,,,,,,,,,,wg-a,,,,AAXX 31154 07481 12/62 10304 10070 21030 39953 40247 55008 60006 80001 91500=
07481,1997-10-31 18:00:00,2,1025.8,0.5,69,-3,12000,0,,,0,-3.3,7.2,,,,,,,,,wg-a,,,,AAXX 31184 07481 12/62 /0000 10020 21030 39958 40258 53005 60006 80001 91800 333 10072 21033=
07481,1997-10-31 21:00:00,1,1025.9,-0,80,-2,9000,3.704,,,220,,,,,,,,,,,wg-a,,,,AAXX 31214 07481 12/59 02202 10010 21020 39958 40259 54000 60006 80000 92100=
07481,1997-11-01 00:00:00,-2,1025.6,-0.6,93,-3,6000,3.704,,,130,,,,,,,,,,,wg-a,,,,AAXX 01004 07481 12/56 01302 11020 21030 39952 40256 57006 60006 80000 90000=
07481,1997-11-01 03:00:00,-3,1024.9,-0.8,100,-3,6000,0,,,0,,,,,,,,,,,wg-a,,,,AAXX 01034 07481 12/56 00000 11030 21030 39944 40249 58008 60006 80000 90300=
07481,1997-11-01 06:00:00,-3,1024.8,-0.1,93,-4,4000,0,,,0,-3.4,2.1,,,,,,,,10,wg-a,,,,AAXX 01064 07481 02/40 00000 11030 21040 39943 40248 55001 60006 71000 80000 90600 333 10021 21034 60004=
07481,1997-11-01 09:00:00,0,1025.3,0.8,100,0,2000,0,,,0,,,,,,,,,,10,wg-a,,,,AAXX 01094 07481 12/20 /0000 10000 20000 39951 40253 51008 60006 71000 80001 90900=
07481,1997-11-01 12:00:00,5,1023.4,-1.2,70,0,4500,3.704,,,360,,,,,,,,,,10,wg-a,,,,AAXX 01124 07481 12/45 43602 10050 20000 39939 40234 58012 60006 71000 80001 91200=
07481,1997-11-01 15:00:00,9,1021.5,-1.5,57,1,9000,3.704,,,30,,,,,,,,,,,wg-a,,,,AAXX 01154 07481 12/59 40302 10090 20010 39924 40215 56015 60006 80001 91500=
07481,1997-11-01 18:00:00,4,1022.2,0.1,81,1,8000,0,,,0,-3.6,8.8,,,,,,,,,wg-a,,,,AAXX 01184 07481 12/58 40000 10040 20010 39925 40222 53001 60006 80001 91800 333 10088 21036=
07481,1997-11-01 21:00:00,2,1022.4,-0,87,0,6000,3.704,,,240,,,,,,,,,,,wg-a,,,,AAXX 01214 07481 12/56 42402 10020 20000 39925 40224 55000 60006 80002 92100=
07481,1997-11-02 00:00:00,1,1022.4,-0.1,93,0,4000,3.704,,,200,,,,,,,,,,10,wg-a,,,,AAXX 02004 07481 12/40 22002 10010 20000 39924 40224 58001 60006 71000 80001 90000=
07481,1997-11-02 03:00:00,-1,1021.6,-1,93,-2,3000,0,,,0,,,,,,,,,,10,wg-a,,,,AAXX 02034 07481 12/30 10000 11010 21020 39914 40216 58010 60006 71000 80001 90300=
07481,1997-11-02 06:00:00,-1,1021.2,-0.4,93,-2,800,0,,,0,-1.8,3.9,,,,,,,,44,wg-a,,,,AAXX 02064 07481 02/08 /0000 11010 21020 39910 40212 56004 60006 74440 80001 90600 333 10039 21018 60004=
07481,1997-11-02 12:00:00,8,1018.5,-2,57,0,500,7.408,,,30,,,,,,,,,,2,wg-a,,,,AAXX 02124 07481 12/00 00304 10080 20000 39894 40185 58020 60006 70240 80000 91200=
07481,1997-11-02 15:00:00,12,1016.6,-1.5,54,3,8000,3.704,,,20,,,,,,,,,,,wg-a,,,,AAXX 02154 07481 12/58 00202 10120 20030 39879 40166 56015 60006 80000 91500=
07481,1997-11-02 18:00:00,6,1017,-0.2,81,3,6000,0,,,0,-2,11.7,,,,,,,,,wg-a,,,,AAXX 02184 07481 12/56 00000 10060 20030 39877 40170 55002 60006 80000 91800 333 10117 21020=
07481,1997-11-02 21:00:00,4,1017.4,0.2,93,3,500,3.704,,,170,,,,,,,,,,,wg-a,,,,AAXX 02214 07481 12/00 01702 10040 20030 39879 40174 53002 60006 80000 92100=
07481,1997-11-03 00:00:00,2,1017.3,-0.3,93,1,2500,3.704,,,80,,,,,,,,,,10,wg-a,,,,AAXX 03004 07481 12/25 00802 10020 20010 39876 40173 58003 60006 71000 80000 90000=
07481,1997-11-03 06:00:00,0,1016.1,-0.6,93,-1,1200,3.704,,,290,-0.5,6,,,,,,,,10,wg-a,,,,AAXX 03064 07481 02612 42902 10000 21010 39862 40161 56006 60006 71000 84500 90600 333 10060 21005 60004=
07481,1997-11-03 09:00:00,5,1015.4,-0.2,87,3,2500,3.704,,,60,,,,,,,,,,10,wg-a,,,,AAXX 03094 07481 12625 20602 10050 20030 39860 40154 58002 60006 71040 82500 90900=
07481,1997-11-03 15:00:00,16,1010.7,-1.7,51,6,8000,7.408,,,80,,,,,,,,,,,wg-a,,,,AAXX 03154 07481 12558 20804 10160 20060 39826 40107 56017 60006 81130 91500=
07481,1997-11-03 18:00:00,11,1010.9,-0.3,71,6,10000,11.112,,,140,-0.2,16.3,,,,,,,,,wg-a,,,,AAXX 03184 07481 12/60 31406 10110 20060 39823 40109 55003 60006 83030 91800 333 10163 21002=
07481,1997-11-03 21:00:00,9,1010.9,-0.2,76,5,12000,11.112,,,150,,,,,,,,,,,wg-a,,,,AAXX 03214 07481 12/62 41506 10090 20050 39821 40109 55002 60006 81042 92100=
07481,1997-11-04 00:00:00,7,1010.4,-0.6,81,4,12000,11.112,,,130,,,,,,,,,,,wg-a,,,,AAXX 04004 07481 12/62 51306 10070 20040 39815 40104 58006 60006 81042 90000=
07481,1997-11-04 03:00:00,9,1009.2,-1,71,4,12000,14.816,,,110,,,,,,,,,,,wg-a,,,,AAXX 04034 07481 12/62 71108 10090 20040 39805 40092 56010 60006 8703/ 90300=
07481,1997-11-04 06:00:00,9,1009.2,-0.1,81,6,10000,14.816,,,140,6.9,12.4,,,,,,,,60,wg-a,,,,AAXX 04064 07481 02660 71408 10090 20060 39804 40092 55001 61000 76062 8157/ 90600 333 10124 20069 6000=
07481,1997-11-04 12:00:00,11,1009.9,-0.1,94,10,500,11.112,,,130,,,,1,,,,,,60,wg-a,,,,AAXX 04124 07481 02600 71306 10110 20100 39814 40099 58001 60016 76062 8357/ 91200 333 60017=
07481,1997-11-04 18:00:00,10,1010.5,-0.2,93,9,500,11.112,,,140,8.3,11.3,,,,,,,,10,wg-a,,,,AAXX 04184 07481 02600 71406 10100 20090 39818 40105 56002 61000 71062 8357/ 91800 333 10113 20083 6002=
07481,1997-11-04 21:00:00,10,1010.7,0.2,93,9,500,11.112,,,150,,,,2,,,,,,61,wg-a,,,,AAXX 04214 07481 12300 81506 10100 20090 39820 40107 53002 60027 76166 8457/ 92100=
07481,1997-11-05 00:00:00,10,1009.6,-1,93,9,7000,11.112,,,120,,,,1,,,,,,21,wg-a,,,,AAXX 05004 07481 02657 81206 10100 20090 39810 40096 58010 60026 72162 8257/ 90000 333 60017=
07481,1997-11-05 03:00:00,10,1008.9,-0.7,93,9,6000,14.816,,,100,,,,1,,,,,,21,wg-a,,,,AAXX 05034 07481 12256 81008 10100 20090 39803 40089 58007 60017 72162 8357/ 90300=
07481,1997-11-05 06:00:00,9,1009.5,0.5,100,9,0,3.704,,,60,9.2,10.6,,4,,,15,,,,wg-a,,,,AAXX 05064 07481 02/// /0602 10090 20090 39808 40095 53005 60154 90600 333 10106 20092 60047=
07481,1997-11-05 12:00:00,12,1005.5,-2.9,88,10,4500,3.704,,,140,,,,0,,,,,,10,wg-a,,,,AAXX 05124 07481 02545 81402 10120 20100 39772 40055 58029 60026 71062 875// 91200 333 60007=
07481,1997-11-05 15:00:00,12,1002.1,-3.3,94,11,500,3.704,,,70,,,,,,,,,,60,wg-a,,,,AAXX 05154 07481 02300 80702 10120 20110 39739 40021 56033 61000 76062 8557/ 91500 333 ////=
07481,1997-11-05 18:00:00,13,999.2,-2.8,88,11,8000,22.224,,,130,9.1,12.6,,0,,,,,,1,wg-a,,,,AAXX 05184 07481 02658 /1312 10130 20110 39711 49992 58028 60006 70162 82572 91800 333 10126 20091 60007=
07481,1997-11-05 21:00:00,17,997.4,-1.3,68,11,25000,46.3,,70.376,180,,,,,,,,,,,wg-a,,,,AAXX 05214 07481 12675 71825 10170 20110 39698 49974 56013 60006 82572 92100 333 91038=
07481,1997-11-06 00:00:00,15,995.4,-2.1,82,12,25000,31.484,,,170,,,,,,,,,,,wg-a,,,,AAXX 06004 07481 12675 71717 10150 20120 39677 49954 58021 60006 82572 90000=
07481,1997-11-06 03:00:00,14,992.6,-2.8,88,12,25000,3.704,,,320,,,,,,,,,,,wg-a,,,,AAXX 06034 07481 12475 /3202 10140 20120 39649 49926 58028 60006 81832 90300=
07481,1997-11-06 06:00:00,19,989.3,-2.8,68,13,25000,50.004,,66.672,180,12.4,19.8,,,,,2,,,,wg-a,,,,AAXX 06064 07481 02575 71827 10190 20130 39621 49893 56028 60006 83832 90600 333 10198 20124 60024 91036=
07481,1997-11-06 12:00:00,21,987.9,-2.3,60,13,50000,50.004,,74.08,160,,,,,,,,,,3,wg-a,,,,AAXX 06124 07481 02584 71627 10210 20130 39610 49879 58023 61000 70362 83832 91200 333 //// 91040=
07481,1997-11-06 15:00:00,20,987.2,-0.8,64,13,50000,18.52,,,150,,,,,,,,,,60,wg-a,,,,AAXX 06154 07481 02584 71510 10200 20130 39602 49872 58008 61000 76062 8587/ 91500 333 ////=
07481,1997-11-06 18:00:00,17,988.6,1,82,14,15000,38.892,,83.34,190,16.5,22.2,,,,,,,,60,wg-a,,,,AAXX 06184 07481 02565 81921 10170 20140 39612 49886 53010 61000 76062 8587/ 91800 333 10222 20165 6004 91045=
07481,1997-11-06 21:00:00,14,990.8,1.9,82,11,18000,42.596,,62.968,190,,,,0,,,,,,60,wg-a,,,,AAXX 06214 07481 12568 71923 10140 20110 39631 49908 51019 60007 76062 8387/ 92100 333 91034=
07481,1997-11-07 00:00:00,15,992.6,1.8,63,8,20000,35.188,,,190,,,,3,,,,,,3,wg-a,,,,AAXX 07004 07481 02670 51919 10150 20080 39649 49926 51018 60036 70361 82532 90000 333 60037=
07481,1997-11-07 03:00:00,11,996.5,3.5,94,10,9000,25.928,,48.152,210,,,,5,,,,,,63,wg-a,,,,AAXX 07034 07481 12559 82114 10110 20100 39684 49965 53035 60057 76362 8587/ 90300 333 91026=
07481,1997-11-07 06:00:00,11,1000.2,3.5,87,9,12000,11.112,,,190,9.9,16.6,,,,,,,,21,wg-a,,,,AAXX 07064 07481 02662 71906 10110 20090 39719 40002 51035 61000 72162 8553/ 90600 333 10166 20099 6014=
07481,1997-11-07 09:00:00,12,1001.9,1.8,82,9,15000,11.112,,,130,,,,,,,,,,,wg-a,,,,AAXX 07094 07481 12465 71306 10120 20090 39737 40019 51018 60006 82832 90900=
07481,1997-11-07 12:00:00,15,1000.3,-1.3,59,7,20000,22.224,,,170,,,,,,,,,,,wg-a,,,,AAXX 07124 07481 12470 /1712 10150 20070 39724 40003 58013 60006 82831 91200=
07481,1997-11-07 18:00:00,14,999.8,0.1,58,6,40000,22.224,,,190,10.5,15.5,,,,,,,,,wg-a,,,,AAXX 07184 07481 12882 61912 10140 20060 39718 49998 53001 60006 86030 91800 333 10155 20105=
07481,1997-11-08 00:00:00,12,1000.2,-0.1,82,9,40000,29.632,,,180,,,,,,,,,,,wg-a,,,,AAXX 08004 07481 12/82 51816 10120 20090 39721 40002 57001 60006 85030 90000=
07481,1997-11-08 06:00:00,11,1002.7,1.5,94,10,8000,18.52,,,210,11.2,13.5,,,,,,,,60,wg-a,,,,AAXX 08064 07481 02558 82110 10110 20100 39744 40027 53015 61000 76062 8557/ 90600 333 10135 20112 6001=
07481,1997-11-08 09:00:00,13,1005.2,2.6,82,10,500,11.112,,,210,,,,1,,,,,,1,wg-a,,,,AAXX 08094 07481 12600 /2106 10130 20100 39770 40052 51026 60017 70162 84540 90900=
07481,1997-11-08 12:00:00,15,1005.6,0.6,63,8,40000,14.816,,,220,,,,,,,,,,3,wg-a,,,,AAXX 08124 07481 12582 72208 10150 20080 39776 40056 50006 60016 70362 84842 91200=
07481,1997-11-08 15:00:00,16,1005.2,-0.3,51,6,75000,11.112,,,210,,,,0,,,,,,,wg-a,,,,AAXX 08154 07481 12589 52106 10160 20060 39773 40052 56003 60007 84840 91500=
07481,1997-11-08 18:00:00,12,1005.7,0.1,67,6,500,14.816,,,160,11.3,16.7,,,,,,,,,wg-a,,,,AAXX 08184 07481 12/00 41608 10120 20060 39774 40057 53001 60006 81032 91800 333 10167 20113=
07481,1997-11-08 21:00:00,12,1004.8,-0.9,62,5,500,18.52,,,190,,,,,,,,,,,wg-a,,,,AAXX 08214 07481 12/00 21910 10120 20050 39765 40048 56009 60006 81032 92100=
07481,1997-11-09 00:00:00,13,1002.9,-1.8,58,5,500,38.892,,,180,,,,,,,,,,,wg-a,,,,AAXX 09004 07481 12700 71821 10130 20050 39747 40029 58018 60006 8257/ 90000=
07481,1997-11-09 03:00:00,12,1001,-1.9,67,6,25000,7.408,,,180,,,,,,,,,,21,wg-a,,,,AAXX 09034 07481 02575 81804 10120 20060 39728 40010 58019 61000 72162 8487/ 90300 333 ////=
07481,1997-11-09 06:00:00,12,1001.7,0.7,88,10,15000,18.52,,,180,10.4,12.9,,,,,,,,21,wg-a,,,,AAXX 09064 07481 02565 81810 10120 20100 39735 40017 51007 61000 72162 8487/ 90600 333 10129 20104 6004=
07481,1997-11-09 09:00:00,12,1004.8,3,67,6,40000,25.928,,,220,,,,1,,,,,,21,wg-a,,,,AAXX 09094 07481 12482 72214 10120 20060 39765 40048 51030 60017 72162 8487/ 90900=
07481,1997-11-09 12:00:00,13,1005.4,0.7,51,3,75000,14.816,,,210,,,,,,,,,,3,wg-a,,,,AAXX 09124 07481 12689 72108 10130 20030 39772 40054 50007 60016 70362 872// 91200=
07481,1997-11-09 15:00:00,15,1005.1,-0.2,41,2,75000,22.224,,,210,,,,,,,,,,,wg-a,,,,AAXX 09154 07481 12789 72112 10150 20020 39770 40051 55002 60006 86202 91500=
07481,1997-11-09 18:00:00,12,1006.8,1.5,54,3,50000,18.52,,,210,11.3,15.7,,,,,,,,,wg-a,,,,AAXX 09184 07481 12784 72110 10120 20030 39785 40068 53015 60006 878// 91800 333 10157 20113=
07481,1997-11-09 21:00:00,12,1007.5,0.6,58,4,500,18.52,,,200,,,,,,,,,,,wg-a,,,,AAXX 09214 07481 12700 52010 10120 20040 39791 40075 51006 60006 85800 92100=
07481,1997-11-10 00:00:00,11,1007.6,0,62,4,25000,11.112,,,200,,,,,,,,,,,wg-a,,,,AAXX 10004 07481 12775 72006 10110 20040 39791 40076 50000 60006 8587/ 90000=
07481,1997-11-10 03:00:00,11,1007.2,-0.4,62,4,500,14.816,,,180,,,,,,,,,,,wg-a,,,,AAXX 10034 07481 12700 71808 10110 20040 39787 40072 56004 60006 8357/ 90300=
07481,1997-11-10 06:00:00,11,1006.6,-0.6,62,4,500,18.52,,,180,10.4,12.6,,,,,1,,,,wg-a,,,,AAXX 10064 07481 02700 71810 10110 20040 39781 40066 58006 60006 8257/ 90600 333 10126 20104 60014=
07481,1997-11-10 09:00:00,12,1006.7,0.2,67,6,50000,25.928,,,190,,,,,,,,,,,wg-a,,,,AAXX 10094 07481 12684 71914 10120 20060 39783 40067 51002 60006 8387/ 90900=
07481,1997-11-10 12:00:00,14,1004.1,-2.3,58,6,50000,29.632,,,170,,,,,,,,,,,wg-a,,,,AAXX 10124 07481 12584 71716 10140 20060 39760 40041 58023 60006 81872 91200=
07481,1997-11-10 15:00:00,8,1005.9,1.2,93,7,4000,35.188,,,230,,,,4,,,,,,61,wg-a,,,,AAXX 10154 07481 12540 82319 10080 20070 39772 40059 53012 60047 76186 879// 91500=
07481,1997-11-10 18:00:00,8,1006.5,0.6,87,6,500,14.816,,,150,8,14.2,,3,,,,,,1,wg-a,,,,AAXX 10184 07481 02500 71508 10080 20060 39778 40065 53006 60006 70186 82863 91800 333 10142 20080 60037=
07481,1997-11-11 00:00:00,7,1006.1,-1.1,81,4,500,14.816,,,170,,,,,,,,,,,wg-a,,,,AAXX 11004 07481 12/00 41708 10070 20040 39773 40061 58011 60006 83032 90000=
07481,1997-11-11 03:00:00,7,1004.5,-1.6,76,3,25000,14.816,,,150,,,,,,,,,,,wg-a,,,,AAXX 11034 07481 12/75 51508 10070 20030 39757 40045 58016 60006 85050 90300=
07481,1997-11-11 06:00:00,9,1002.8,-1.5,66,3,25000,29.632,,,170,6.1,9.6,,,,,,,,60,wg-a,,,,AAXX 11064 07481 02675 71716 10090 20030 39742 40028 56015 61000 76061 8257/ 90600 333 10096 20061 6007=
07481,1997-11-11 12:00:00,10,1001.2,-1.2,82,7,40000,3.704,,,170,,,,1,,,,,,21,wg-a,,,,AAXX 11124 07481 02582 81702 10100 20070 39728 40012 58012 60016 72186 8487/ 91200 333 60017=
07481,1997-11-11 15:00:00,10,998.1,-3,93,9,25000,11.112,,,150,,,,1,,,,,,21,wg-a,,,,AAXX 11154 07481 12575 81506 10100 20090 39698 49981 56030 60017 72162 8587/ 91500=
07481,1997-11-11 18:00:00,11,997.5,-0.5,94,10,12000,18.52,,38.892,170,8.1,11.7,,,,,,,,25,wg-a,,,,AAXX 11184 07481 02562 81710 10110 20100 39693 49975 58005 61000 72586 8697/ 91800 333 10117 20081 6003 91021=
07481,1997-11-11 21:00:00,9,997.7,-0,93,8,10000,22.224,,,160,,,,10,,,,,,80,wg-a,,,,AAXX 11214 07481 12260 81612 10090 20080 39693 49977 55000 60107 78098 8692/ 92100=
07481,1997-11-12 00:00:00,8,998.9,1.1,100,8,500,3.704,,,220,,,,20,,,,,,65,wg-a,,,,AAXX 12004 07481 02100 82202 10080 20080 39704 49989 53011 60306 76598 875// 90000 333 60207=
07481,1997-11-12 03:00:00,7,1000,0.9,93,6,8000,11.112,,,120,,,,9,,,,,,63,wg-a,,,,AAXX 12034 07481 12358 81206 10070 20060 39713 40000 50009 60097 76366 885// 90300=
07481,1997-11-12 06:00:00,6,1000.4,0.3,93,5,15000,11.112,,,130,5.4,11.4,,,,,,,,21,wg-a,,,,AAXX 12064 07481 02465 81306 10060 20050 39716 40004 53003 61000 72162 885// 90600 333 10114 20054 6044=
07481,1997-11-12 09:00:00,6,1002,1.6,93,5,10000,11.112,,,160,,,,,,,,,,,wg-a,,,,AAXX 12094 07481 12560 81606 10060 20050 39732 40020 51016 60006 885// 90900=
07481,1997-11-12 12:00:00,8,1002.9,1.1,93,7,20000,11.112,,,130,,,,0,,,,,,1,wg-a,,,,AAXX 12124 07481 02370 81306 10080 20070 39743 40029 51011 60006 70162 875// 91200 333 60007=
07481,1997-11-12 15:00:00,7,1004.8,1.7,93,6,500,7.408,,,110,,,,5,,,,,,80,wg-a,,,,AAXX 12154 07481 12200 81104 10070 20060 39760 40048 53017 60057 78098 879// 91500=
07481,1997-11-12 18:00:00,6,1006.6,1.7,93,5,25000,14.816,,,160,5.4,9.7,,,,,,,,1,wg-a,,,,AAXX 12184 07481 02675 61608 10060 20050 39777 40066 53017 60006 70198 84831 91800 333 10097 20054 61000=
07481,1997-11-12 21:00:00,6,1008.5,1.8,93,5,15000,7.408,,,180,,,,0,,,,,,21,wg-a,,,,AAXX 12214 07481 12565 71804 10060 20050 39795 40085 53018 60007 72162 878// 92100=
07481,1997-11-13 00:00:00,6,1008.9,0.4,100,6,12000,7.408,,,140,,,,0,,,,,,2,wg-a,,,,AAXX 13004 07481 02562 71404 10060 20060 39799 40089 52004 60016 70262 875// 90000 333 60007=
07481,1997-11-13 03:00:00,6,1008.7,-0.2,100,6,12000,11.112,,,180,,,,,,,,,,,wg-a,,,,AAXX 13034 07481 12562 71806 10060 20060 39797 40087 58002 60006 875// 90300=
07481,1997-11-13 06:00:00,5,1008.8,-0.1,100,5,4000,7.408,,,140,4,6.5,,,,,5,,,40,wg-a,,,,AAXX 13064 07481 02540 21404 10050 20050 39796 40088 58001 60006 74011 81530 90600 333 10065 20040 60054=
07481,1997-11-13 09:00:00,6,1009.1,0.5,100,6,4000,0,,,0,,,,,,,,,,28,wg-a,,,,AAXX 13094 07481 12140 70000 10060 20060 39801 40091 51005 60006 72841 875// 90900=
07481,1997-11-13 12:00:00,9,1008,-0.8,76,5,500,7.408,,,300,,,,,,,,,,2,wg-a,,,,AAXX 13124 07481 12500 53004 10090 20050 39793 40080 58008 60006 70241 85800 91200=
07481,1997-11-13 15:00:00,11,1007.4,-0.4,58,3,500,3.704,,,350,,,,,,,,,,,wg-a,,,,AAXX 13154 07481 12600 /3502 10110 20030 39789 40074 55004 60006 81400 91500=
07481,1997-11-13 18:00:00,6,1008.6,0.6,81,3,25000,0,,,0,3.7,10.7,,,,,,,,,wg-a,,,,AAXX 13184 07481 12775 10000 10060 20030 39795 40086 53006 60006 81400 91800 333 10107 20037=
07481,1997-11-13 21:00:00,4,1010.1,1.3,87,2,20000,7.408,,,270,,,,,,,,,,,wg-a,,,,AAXX 13214 07481 12/70 12704 10040 20020 39808 40101 53013 60006 80002 92100=
07481,1997-11-14 00:00:00,3,1011.2,0.9,93,2,10000,3.704,,,240,,,,,,,,,,,wg-a,,,,AAXX 14004 07481 12/60 02402 10030 20020 39817 40112 53009 60006 80000 90000=
07481,1997-11-14 03:00:00,1,1012.1,0.7,100,1,900,0,,,0,,,,,,,,,,10,wg-a,,,,AAXX 14034 07481 12/09 00000 10010 20010 39824 40121 51007 60006 71040 80000 90300=
07481,1997-11-14 06:00:00,0,1013.6,1.4,100,0,200,3.704,,,100,-0.3,5.7,,,,,,,,45,wg-a,,,,AAXX 14064 07481 02/02 91002 10000 20000 39838 40136 53014 60006 74541 89/// 90600 333 10057 21003 60004=
07481,1997-11-14 09:00:00,2,1015.8,2.4,100,2,1100,3.704,,,360,,,,,,,,,,10,wg-a,,,,AAXX 14094 07481 12111 43602 10020 20020 39862 40158 51024 60006 71041 83631 90900=
07481,1997-11-14 12:00:00,6,1016,0.6,93,5,6000,3.704,,,70,,,,,,,,,,3,wg-a,,,,AAXX 14124 07481 12356 30702 10060 20050 39868 40160 50006 60006 70341 82231 91200=
07481,1997-11-14 15:00:00,10,1016,0.3,71,5,500,7.408,,,330,,,,,,,,,,,wg-a,,,,AAXX 14154 07481 12500 33304 10100 20050 39871 40160 53003 60006 83800 91500=
07481,1997-11-14 18:00:00,5,1018.4,1.9,93,4,500,3.704,,,320,-0.2,10.1,,,,,,,,,wg-a,,,,AAXX 14184 07481 12700 13202 10050 20040 39890 40184 53019 60006 81500 91800 333 10101 21002=
07481,1997-11-14 21:00:00,4,1020.2,1.6,100,4,15000,0,,,0,,,,,,,,,,,wg-a,,,,AAXX 14214 07481 12/65 10000 10040 20040 39906 40202 53016 60006 80001 92100=
07481,1997-11-15 00:00:00,2,1021.1,0.7,100,2,3000,0,,,0,,,,,,,,,,10,wg-a,,,,AAXX 15004 07481 12/30 00000 10020 20020 39913 40211 53007 60006 71000 80000 90000=
07481,1997-11-15 03:00:00,1,1021.7,0.4,100,1,500,11.112,,,160,,,,,,,,,,42,wg-a,,,,AAXX 15034 07481 12005 91606 10010 20010 39917 40217 50004 60006 74241 89600 90300=
07481,1997-11-15 06:00:00,0,1023.1,1.3,100,0,400,7.408,,,140,-0.7,5.1,,,,,,,,,wg-a,,,,AAXX 15064 07481 02/04 /1404 10000 20000 39930 40231 51013 60006 90600 333 10051 21007 60004=
07481,1997-11-15 09:00:00,3,1024.1,1.2,100,3,500,3.704,,,120,,,,,,,,,,41,wg-a,,,,AAXX 15094 07481 12005 /1202 10030 20030 39942 40241 51012 60006 74144 82602 90900=
07481,1997-11-15 12:00:00,9,1022.5,-0.8,71,4,8000,0,,,0,,,,,,,,,,3,wg-a,,,,AAXX 15124 07481 12/58 30000 10090 20040 39934 40225 58008 60006 70341 81032 91200=
07481,1997-11-15 15:00:00,10,1021.5,-0.9,62,3,10000,0,,,0,,,,,,,,,,,wg-a,,,,AAXX 15154 07481 12/60 60000 10100 20030 39925 40215 56009 60006 81034 91500=
07481,1997-11-15 18:00:00,6,1022.1,0.2,87,4,12000,0,,,0,-0.3,11.2,,,,,,,,,wg-a,,,,AAXX 15184 07481 12/62 70000 10060 20040 39927 40221 53002 60006 80002 91800 333 10112 21003=
07481,1997-11-15 21:00:00,4,1021.8,-0.5,93,3,10000,7.408,,,240,,,,,,,,,,,wg-a,,,,AAXX 15214 07481 12/60 32404 10040 20030 39922 40218 58005 60006 80002 92100=
07481,1997-11-16 00:00:00,3,1021.7,-0.3,93,2,8000,7.408,,,130,,,,,,,,,,,wg-a,,,,AAXX 16004 07481 12/58 21304 10030 20020 39919 40217 58003 60006 80002 90000=
07481,1997-11-16 03:00:00,4,1020,-1.5,87,2,10000,11.112,,,180,,,,,,,,,,,wg-a,,,,AAXX 16034 07481 12/60 /1806 10040 20020 39904 40200 58015 60006 90300=
07481,1997-11-16 06:00:00,4,1020.2,0.3,93,3,10000,3.704,,,60,2.5,6,,,,,,,,,wg-a,,,,AAXX 16064 07481 02660 70602 10040 20030 39907 40202 53003 60006 8253/ 90600 333 10060 20025 60004=
07481,1997-11-16 09:00:00,6,1020.1,0,93,5,7000,3.704,,,240,,,,0,,,,,,21,wg-a,,,,AAXX 16094 07481 12557 72402 10060 20050 39907 40201 50000 60007 72162 8557/ 90900=
07481,1997-11-16 12:00:00,9,1018.1,-1.6,76,5,8000,0,,,0,,,,,,,,,,3,wg-a,,,,AAXX 16124 07481 12458 80000 10090 20050 39891 40181 58016 60006 70362 875// 91200=
07481,1997-11-16 15:00:00,10,1016.9,-1.1,82,7,9000,3.704,,,40,,,,,,,,,,,wg-a,,,,AAXX 16154 07481 12459 80402 10100 20070 39880 40169 56011 60006 875// 91500=
07481,1997-11-16 18:00:00,9,1017.7,0.7,93,8,7000,7.408,,,30,3.8,9.9,,,,,,,,60,wg-a,,,,AAXX 16184 07481 02457 80304 10090 20080 39887 40177 51007 61000 76062 875// 91800 333 10099 20038 6100=
07481,1997-11-16 21:00:00,8,1017.8,0,100,8,4500,3.704,,,300,,,,,,,,,,10,wg-a,,,,AAXX 16214 07481 02145 83002 10080 20080 39887 40178 50000 61000 71062 886// 92100 333 ////=
07481,1997-11-17 00:00:00,8,1017.3,-0.4,100,8,4500,3.704,,,280,,,,,,,,,,10,wg-a,,,,AAXX 17004 07481 02145 82802 10080 20080 39883 40173 58004 61000 71062 886// 90000 333 ////=
07481,1997-11-17 03:00:00,8,1017.4,0.1,100,8,200,3.704,,,360,,,,,,,,,,44,wg-a,,,,AAXX 17034 07481 32/02 93602 10080 20080 39884 40174 50001 74442 89/// 90300=
07481,1997-11-17 06:00:00,8,1017.8,0.3,100,8,100,3.704,,,20,7.9,8.5,,,,,1,,,45,wg-a,,,,AAXX 17064 07481 02/01 90202 10080 20080 39887 40178 52003 60006 74542 89/// 90600 333 10085 20079 60014=
07481,1997-11-17 09:00:00,8,1018.1,0.4,100,8,500,3.704,,,40,,,,,,,,,,43,wg-a,,,,AAXX 17094 07481 12/05 90402 10080 20080 39891 40181 50004 60006 74344 89/// 90900=
07481,1997-11-17 12:00:00,9,1016.7,-1.4,100,9,2500,3.704,,,70,,,,,,,,,,10,wg-a,,,,AAXX 17124 07481 02125 80702 10090 20090 39877 40167 58014 61000 71054 886// 91200 333 6100=
07481,1997-11-17 15:00:00,9,1015.4,-1.2,93,8,10000,7.408,,,50,,,,,,,,,,1,wg-a,,,,AAXX 17154 07481 02360 70504 10090 20080 39865 40154 56012 61000 70152 875// 91500 333 ////=
07481,1997-11-17 18:00:00,7,1015.3,-0.3,100,7,12000,11.112,,,90,6.3,9.2,,,,,,,,1,wg-a,,,,AAXX 17184 07481 12562 40906 10070 20070 39862 40153 58003 60006 70151 81501 91800 333 10092 20063=
07481,1997-11-17 21:00:00,5,1015.2,-0.3,100,5,1400,3.704,,,160,,,,0,,,,,,40,wg-a,,,,AAXX 17214 07481 12/14 21602 10050 20050 39859 40152 58003 60007 74040 80001 92100=
07481,1997-11-18 00:00:00,5,1013.8,-1.4,93,4,10000,11.112,,,150,,,,,,,,,,1,wg-a,,,,AAXX 18004 07481 12560 /1506 10050 20040 39845 40138 56014 60006 70141 81500 90000=
07481,1997-11-18 09:00:00,10,1012.2,0.3,76,6,15000,25.928,,,140,,,,,,,,,,,wg-a,,,,AAXX 18094 07481 12/65 01414 10100 20060 39834 40122 51003 60006 80000 90900=
07481,1997-11-18 12:00:00,14,1010.3,-1.4,51,4,20000,31.484,,,190,,,,,,,,,,,wg-a,,,,AAXX 18124 07481 12/70 01917 10140 20040 39820 40103 58014 60006 80000 91200=
07481,1997-11-18 15:00:00,14,1009.1,-1.2,58,6,25000,18.52,,,190,,,,,,,,,,,wg-a,,,,AAXX 18154 07481 12/75 11910 10140 20060 39808 40091 57012 60006 81030 91500=
07481,1997-11-18 18:00:00,10,1009.3,-0.2,76,6,10000,11.112,,,150,5.7,14.4,,,,,,,,0,wg-a,,,,AAXX 18184 07481 12660 21506 10100 20060 39806 40093 57002 60006 700// 81031 91800 333 10144 20057=
07481,1997-11-19 00:00:00,6,1007.5,-1.5,87,4,12000,7.408,,,170,,,,,,,,,,,wg-a,,,,AAXX 19004 07481 12/62 71704 10060 20040 39785 40075 58015 60006 82035 90000=
07481,1997-11-19 06:00:00,5,1004.1,-1.4,93,4,10000,3.704,,,80,4.7,9.6,,,,,,,,,wg-a,,,,AAXX 19064 07481 02660 70802 10050 20040 39751 40041 57014 60006 8553/ 90600 333 10096 20047 60004=
07481,1997-11-19 09:00:00,7,1004,0.1,87,5,7000,7.408,,,140,,,,,,,,,,,wg-a,,,,AAXX 19094 07481 12657 81404 10070 20050 39752 40040 53001 60006 8457/ 90900=
07481,1997-11-19 12:00:00,8,1003.2,-0.6,87,6,6000,3.704,,,100,,,,,,,,,,3,wg-a,,,,AAXX 19124 07481 02456 81002 10080 20060 39746 40032 58006 61000 70362 875// 91200 333 6100=
07481,1997-11-19 15:00:00,8,1003.6,0.3,93,7,4000,14.816,,,130,,,,0,,,,,,10,wg-a,,,,AAXX 19154 07481 12440 81308 10080 20070 39749 40036 52003 60007 71062 877// 91500=
07481,1997-11-19 18:00:00,7,1004.5,0.8,100,7,500,7.408,,,160,5.4,8.4,,,,,,,,10,wg-a,,,,AAXX 19184 07481 02200 81604 10070 20070 39757 40045 53008 61000 71062 877// 91800 333 10084 20054 6001=
07481,1997-11-19 21:00:00,7,1005.3,0.8,100,7,2500,7.408,,,170,,,,3,,,,,,10,wg-a,,,,AAXX 19214 07481 12225 81704 10070 20070 39765 40053 53008 60037 71062 875// 92100=
07481,1997-11-20 00:00:00,8,1004.8,-0.4,93,7,3000,7.408,,,140,,,,3,,,,,,10,wg-a,,,,AAXX 20004 07481 02230 81404 10080 20070 39761 40048 58004 60066 71062 875// 90000 333 60037=
07481,1997-11-20 03:00:00,7,1004.7,-0.2,100,7,500,7.408,,,130,,,,,,,,,,3,wg-a,,,,AAXX 20034 07481 02200 81304 10070 20070 39759 40047 58002 61000 70362 886// 90300 333 ////=
07481,1997-11-20 06:00:00,9,1003.7,-0.7,93,8,7000,18.52,,,190,7.1,9.1,,,,,7,,,1,wg-a,,,,AAXX 20064 07481 02357 81910 10090 20080 39752 40037 55007 60006 70162 886// 90600 333 10091 20071 60074=
07481,1997-11-20 09:00:00,10,1004.3,0.6,87,8,10000,25.928,,,180,,,,0,,,,,,60,wg-a,,,,AAXX 20094 07481 12460 71814 10100 20080 39758 40043 53006 60007 76062 8387/ 90900=
07481,1997-11-20 12:00:00,11,1004,,82,8,13000,35.188,,,190,,,,,,,,,,60,wg-a,,,,AAXX 20124 07481 02463 71919 10110 20080 39756 40040 60006 76062 8587/ 91200 333 61000=
07481,1997-11-20 15:00:00,11,1005.2,1.2,87,9,10000,14.816,,,180,,,,1,,,,,,61,wg-a,,,,AAXX 20154 07481 12460 /1808 10110 20090 39768 40052 53012 60017 76162 83870 91500=
07481,1997-11-20 18:00:00,10,1006.8,1.4,87,8,25000,14.816,,,160,9.1,10.9,,0,,,,,,3,wg-a,,,,AAXX 20184 07481 02675 71608 10100 20080 39782 40068 53014 60006 70361 8553/ 91800 333 10109 20091 60007=
07481,1997-11-20 21:00:00,10,1008.5,1.7,87,8,25000,14.816,,,190,,,,,,,,,,,wg-a,,,,AAXX 20214 07481 12775 71908 10100 20080 39799 40085 51017 60006 8253/ 92100=
07481,1997-11-21 00:00:00,10,1009.1,0.5,76,6,25000,11.112,,,210,,,,,,,,,,,wg-a,,,,AAXX 21004 07481 12775 72106 10100 20060 39804 40091 52005 60006 8253/ 90000=
07481,1997-11-21 03:00:00,8,1010.1,0.8,87,6,25000,7.408,,,160,,,,,,,,,,,wg-a,,,,AAXX 21034 07481 12/75 61604 10080 20060 39812 40101 52008 60006 86030 90300=
07481,1997-11-21 06:00:00,7,1010.8,0.6,93,6,25000,7.408,,,180,6,10.9,,,,,2,,,,wg-a,,,,AAXX 21064 07481 02/75 31804 10070 20060 39818 40108 53006 60006 83030 90600 333 10109 20060 60024=
07481,1997-11-21 09:00:00,8,1011.1,0.4,93,7,6000,11.112,,,170,,,,,,,,,,,wg-a,,,,AAXX 21094 07481 12356 51706 10080 20070 39822 40111 50004 60006 81131 90900=
07481,1997-11-21 12:00:00,13,1010.2,-0.4,62,6,15000,0,,,0,,,,,,,,,,,wg-a,,,,AAXX 21124 07481 12565 70000 10130 20060 39818 40102 58004 60006 82232 91200=
07481,1997-11-21 15:00:00,11,1010.2,-0.1,82,8,20000,3.704,,,340,,,,,,,,,,,wg-a,,,,AAXX 21154 07481 12770 73402 10110 20080 39817 40102 56001 60006 81532 91500=
07481,1997-11-21 18:00:00,9,1010.8,0.3,87,7,20000,7.408,,,220,5.4,13.1,,,,,,,,,wg-a,,,,AAXX 21184 07481 12870 82204 10090 20070 39820 40108 53003 60006 81032 91800 333 10131 20054=
07481,1997-11-21 21:00:00,7,1011.1,0.1,93,6,20000,0,,,0,,,,,,,,,,,wg-a,,,,AAXX 21214 07481 12870 70000 10070 20060 39821 40111 50001 60006 81032 92100=
07481,1997-11-22 00:00:00,5,1011.5,0.2,100,5,15000,0,,,0,,,,,,,,,,,wg-a,,,,AAXX 22004 07481 12/65 70000 10050 20050 39823 40115 51002 60006 82032 90000=
07481,1997-11-22 03:00:00,4,1011.6,-0.1,100,4,1400,0,,,0,,,,,,,,,,40,wg-a,,,,AAXX 22034 07481 12/14 /0000 10040 20040 39822 40116 58001 60006 74041 80000 90300=
07481,1997-11-22 06:00:00,3,1012.2,0.5,100,3,3000,3.704,,,220,1.7,8.5,,,,,,,,10,wg-a,,,,AAXX 22064 07481 02130 /2202 10030 20030 39827 40122 53005 60006 71041 82600 90600 333 10085 20017 60004=
07481,1997-11-22 09:00:00,4,1013.2,1.1,100,4,500,0,,,0,,,,,,,,,,45,wg-a,,,,AAXX 22094 07481 12/00 90000 10040 20040 39838 40132 51011 60006 74541 89/// 90900=
07481,1997-11-22 12:00:00,5,1012.9,-0.1,100,5,900,3.704,,,10,,,,,,,,,,42,wg-a,,,,AAXX 22124 07481 12109 90102 10050 20050 39837 40129 58001 60006 74241 896// 91200=
07481,1997-11-22 15:00:00,6,1013,0.1,100,6,3500,14.816,,,50,,,,,,,,,,10,wg-a,,,,AAXX 22154 07481 12135 80508 10060 20060 39838 40130 53001 60006 71042 886// 91500=
07481,1997-11-22 18:00:00,6,1014.2,1.2,93,5,6000,11.112,,,340,1.8,5.8,,,,,,,,1,wg-a,,,,AAXX 22184 07481 12256 83406 10060 20050 39850 40142 53012 60006 70142 886// 91800 333 10058 20018=
07481,1997-11-23 00:00:00,5,1016.3,1.1,100,5,2000,11.112,,,10,,,,,,,,,,,wg-a,,,,AAXX 23004 07481 12/20 /0106 10050 20050 39870 40163 52011 60006 90000=
07481,1997-11-23 03:00:00,5,1017.4,1,100,5,4500,7.408,,,50,,,,,,,,,,10,wg-a,,,,AAXX 23034 07481 12145 80504 10050 20050 39880 40174 51010 60006 71022 886// 90300=
07481,1997-11-23 06:00:00,4,1018.5,1,100,4,4500,7.408,,,30,4.2,5.8,,,,,,,,10,wg-a,,,,AAXX 23064 07481 02145 80304 10040 20040 39890 40185 53010 60006 71022 886// 90600 333 10058 20042 60004=
07481,1997-11-23 12:00:00,5,1020.3,0.2,93,4,8000,11.112,,,30,,,,,,,,,,,wg-a,,,,AAXX 23124 07481 12258 80306 10050 20040 39908 40203 50002 60006 886// 91200=
07481,1997-11-23 15:00:00,4,1020.6,0.3,93,3,10000,11.112,,,40,,,,,,,,,,,wg-a,,,,AAXX 23154 07481 12260 80406 10040 20030 39911 40206 53003 60006 886// 91500=
07481,1997-11-23 18:00:00,4,1021,0.3,93,3,10000,11.112,,,30,3.4,4.7,,,,,,,,,wg-a,,,,AAXX 23184 07481 12360 80306 10040 20030 39914 40210 51003 60006 886// 91800 333 10047 20034=
07481,1997-11-23 21:00:00,4,1020.7,-0.3,87,2,20000,11.112,,,10,,,,,,,,,,,wg-a,,,,AAXX 23214 07481 12370 80106 10040 20020 39911 40207 56003 60006 886// 92100=
07481,1997-11-24 00:00:00,3,1019.7,-1,93,2,15000,7.408,,,340,,,,,,,,,,,wg-a,,,,AAXX 24004 07481 12465 83404 10030 20020 39901 40197 56010 60006 885// 90000=
07481,1997-11-24 03:00:00,1,1018.3,-1.6,100,1,12000,3.704,,,40,,,,,,,,,,,wg-a,,,,AAXX 24034 07481 12/62 00402 10010 20010 39885 40183 58016 60006 80000 90300=
07481,1997-11-24 06:00:00,1,1016.8,-1.5,100,1,10000,7.408,,,50,1,4.1,,,,,,,,,wg-a,,,,AAXX 24064 07481 02460 /0504 10010 20010 39870 40168 58015 60006 86600 90600 333 10041 20010 60004=
07481,1997-11-24 12:00:00,5,1013.1,-2.5,87,3,7000,7.408,,,100,,,,,,,,,,,wg-a,,,,AAXX 24124 07481 12/57 71004 10050 20030 39839 40131 58025 60006 81032 91200=
07481,1997-11-24 15:00:00,8,1010,-2.7,71,3,10000,14.816,,,140,,,,,,,,,,,wg-a,,,,AAXX 24154 07481 12/60 71408 10080 20030 39812 40100 56027 60006 83036 91500=
07481,1997-11-24 18:00:00,8,1009.1,-1,71,3,15000,22.224,,,130,1.3,9.6,,,,,,,,,wg-a,,,,AAXX 24184 07481 12/65 71312 10080 20030 39802 40091 58010 60006 83036 91800 333 10096 20013=
07481,1997-11-24 21:00:00,8,1008.9,-0.2,76,4,15000,22.224,,,150,,,,,,,,,,,wg-a,,,,AAXX 24214 07481 12/65 71512 10080 20040 39800 40089 56002 60006 83032 92100=
07481,1997-11-25 00:00:00,11,1008.9,0.4,62,4,20000,14.816,,,180,,,,,,,,,,,wg-a,,,,AAXX 25004 07481 12/70 81808 10110 20040 39804 40089 53004 60006 8707/ 90000=
07481,1997-11-25 03:00:00,7,1009.4,0,81,4,15000,14.816,,,150,,,,,,,,,,,wg-a,,,,AAXX 25034 07481 12765 71508 10070 20040 39804 40094 50000 60006 8357/ 90300=
07481,1997-11-25 06:00:00,6,1009.1,-0.3,81,3,15000,11.112,,,150,5.5,11.2,,,,,,,,,wg-a,,,,AAXX 25064 07481 02665 71506 10060 20030 39801 40091 56003 60006 8257/ 90600 333 10112 20055 60004=
07481,1997-11-25 09:00:00,8,1009.2,0.3,76,4,10000,14.816,,,130,,,,,,,,,,,wg-a,,,,AAXX 25094 07481 12660 71308 10080 20040 39804 40092 53003 60006 8457/ 90900=
07481,1997-11-25 12:00:00,12,1007.6,-1,62,5,12000,18.52,,,130,,,,,,,,,,2,wg-a,,,,AAXX 25124 07481 02662 71310 10120 20050 39792 40076 58010 61000 70262 8357/ 91200 333 6100=
07481,1997-11-25 18:00:00,9,1006.1,-0.4,66,3,12000,14.816,,,150,6,14,,,,,,,,,wg-a,,,,AAXX 25184 07481 12762 41508 10090 20030 39774 40061 57004 60006 81530 91800 333 10140 20060=
07481,1997-11-25 21:00:00,9,1006.3,0.2,61,2,12000,14.816,,,170,,,,,,,,,,,wg-a,,,,AAXX 25214 07481 12/62 11708 10090 20020 39776 40063 53002 60006 81030 92100=
07481,1997-11-26 00:00:00,7,1005.9,-0.5,70,2,15000,7.408,,,170,,,,,,,,,,,wg-a,,,,AAXX 26004 07481 12765 21704 10070 20020 39771 40059 56005 60006 81531 90000=
07481,1997-11-26 03:00:00,7,1005.5,-0.5,70,2,25000,14.816,,,150,,,,,,,,,,,wg-a,,,,AAXX 26034 07481 12875 71508 10070 20020 39766 40055 58005 60006 8707/ 90300=
07481,1997-11-26 06:00:00,8,1006.1,0.7,66,2,20000,14.816,,,150,5.6,9.3,,,,,,,,,wg-a,,,,AAXX 26064 07481 02770 81508 10080 20020 39773 40061 53007 60006 8157/ 90600 333 10093 20056 61000=
07481,1997-11-26 09:00:00,9,1007.4,1.4,61,2,15000,14.816,,,160,,,,,,,,,,,wg-a,,,,AAXX 26094 07481 12765 /1608 10090 20020 39787 40074 53014 60006 8457/ 90900=
07481,1997-11-26 12:00:00,9,1007.8,0.4,76,5,12000,3.704,,,30,,,,,,,,,,,wg-a,,,,AAXX 26124 07481 12762 70302 10090 20050 39791 40078 51004 60006 8557/ 91200=
07481,1997-11-26 15:00:00,10,1008.2,0.5,76,6,8000,7.408,,,350,,,,,,,,,,,wg-a,,,,AAXX 26154 07481 12758 73504 10100 20060 39796 40082 53005 60006 8453/ 91500=
07481,1997-11-26 18:00:00,8,1009.9,1.4,87,6,8000,3.704,,,290,6.7,10.7,,,,,,,,,wg-a,,,,AAXX 26184 07481 12758 72902 10080 20060 39810 40099 52014 60006 8657/ 91800 333 10107 20067=
07481,1997-11-26 21:00:00,6,1011.3,1.2,93,5,7000,7.408,,,100,,,,,,,,,,,wg-a,,,,AAXX 26214 07481 12/57 /1004 10060 20050 39822 40113 51012 60006 83032 92100=
07481,1997-11-27 00:00:00,5,1012.1,0.7,93,4,7000,3.704,,,60,,,,,,,,,,,wg-a,,,,AAXX 27004 07481 12/57 70602 10050 20040 39829 40121 51007 60006 8705/ 90000=
07481,1997-11-27 03:00:00,4,1013.4,1.1,93,3,7000,3.704,,,120,,,,,,,,,,,wg-a,,,,AAXX 27034 07481 12/57 /1202 10040 20030 39840 40134 51011 60006 90300=
07481,1997-11-27 06:00:00,4,1014.2,0.8,93,3,6000,3.704,,,200,3.4,7.7,,,,,,,,,wg-a,,,,AAXX 27064 07481 02/56 /2002 10040 20030 39848 40142 53008 60006 85032 90600 333 10077 20034 60004=
07481,1997-11-27 09:00:00,7,1015.3,1.4,76,3,7000,7.408,,,150,,,,,,,,,,,wg-a,,,,AAXX 27094 07481 12/57 71504 10070 20030 39862 40153 52014 60006 8707/ 90900=
07481,1997-11-27 12:00:00,10,1014.9,-0.1,71,5,6000,7.408,,,100,,,,,,,,,,,wg-a,,,,AAXX 27124 07481 12656 71004 10100 20050 39861 40149 58001 60006 8157/ 91200=
07481,1997-11-27 15:00:00,11,1014.6,-0.1,76,7,8000,3.704,,,340,,,,,,,,,,21,wg-a,,,,AAXX 27154 07481 02658 73402 10110 20070 39860 40146 55001 61000 72162 8157/ 91500 333 ////=
07481,1997-11-27 18:00:00,9,1015.6,0.7,87,7,7000,0,,,0,3.7,11.6,,,,,,,,2,wg-a,,,,AAXX 27184 07481 12657 70000 10090 20070 39867 40156 53007 60006 70262 8157/ 91800 333 10116 20037=
07481,1997-11-27 21:00:00,9,1016.5,0.8,87,7,7000,7.408,,,120,,,,,,,,,,3,wg-a,,,,AAXX 27214 07481 02657 81204 10090 20070 39875 40165 50008 61000 70362 8157/ 92100 333 ////=
07481,1997-11-28 00:00:00,7,1015.7,-0.9,93,6,500,0,,,0,,,,0,,,,,,3,wg-a,,,,AAXX 28004 07481 02600 60000 10070 20060 39866 40157 56009 60006 70361 84531 90000 333 60007=
07481,1997-11-28 03:00:00,6,1015,-0.8,93,5,500,7.408,,,120,,,,,,,,,,,wg-a,,,,AAXX 28034 07481 12600 51204 10060 20050 39858 40150 56008 60006 82531 90300=
07481,1997-11-28 06:00:00,9,1014.3,-0.4,87,7,12000,18.52,,,160,5.3,9,,,,,,,,,wg-a,,,,AAXX 28064 07481 02662 51610 10090 20070 39854 40143 58004 60006 81531 90600 333 10090 20053 60004=
07481,1997-11-28 09:00:00,12,1013.7,-0.3,82,9,12000,25.928,,,160,,,,,,,,,,,wg-a,,,,AAXX 28094 07481 12562 71614 10120 20090 39851 40137 58003 60006 82132 90900=
07481,1997-11-28 12:00:00,14,1012.8,-0.6,72,9,500,38.892,,55.56,200,,,,,,,,,,,wg-a,,,,AAXX 28124 07481 12600 72021 10140 20090 39845 40128 58006 60006 82242 91200 333 91030=
07481,1997-11-28 15:00:00,12,1013.5,0.4,88,10,6000,22.224,,,190,,,,1,,,,,,60,wg-a,,,,AAXX 28154 07481 12456 81912 10120 20100 39849 40135 53004 60017 76062 8587/ 91500=
07481,1997-11-28 18:00:00,12,1013.4,-0.1,94,11,15000,25.928,,,190,8.2,13.9,,,,,,,,60,wg-a,,,,AAXX 28184 07481 02465 81914 10120 20110 39848 40134 55001 61000 76062 8587/ 91800 333 10139 20082 6001=
07481,1997-11-28 21:00:00,12,1013.7,0.4,88,10,20000,25.928,,,190,,,,1,,,,,,1,wg-a,,,,AAXX 28214 07481 12670 /1914 10120 20100 39852 40137 50004 60017 70161 84500 92100=
07481,1997-11-29 00:00:00,10,1013.5,-0.4,93,9,20000,14.816,,,170,,,,,,,,,,3,wg-a,,,,AAXX 29004 07481 12/70 51708 10100 20090 39848 40135 56004 60016 70361 85030 90000=
07481,1997-11-29 03:00:00,8,1013.4,-0.3,100,8,20000,11.112,,,150,,,,,,,,,,,wg-a,,,,AAXX 29034 07481 12/70 51506 10080 20080 39845 40134 58003 60006 80006 90300=
07481,1997-11-29 06:00:00,8,1012.8,-0.6,100,8,20000,11.112,,,160,7.7,12.2,,,,,4,,,,wg-a,,,,AAXX 29064 07481 02/70 71606 10080 20080 39839 40128 57006 60006 83032 90600 333 10122 20077 60044=
07481,1997-11-29 09:00:00,9,1012.8,0.1,93,8,15000,7.408,,,150,,,,,,,,,,,wg-a,,,,AAXX 29094 07481 12765 71504 10090 20080 39840 40128 52001 60006 8553/ 90900=
07481,1997-11-29 15:00:00,12,1008.7,-1.6,71,7,20000,7.408,,,190,,,,,,,,,,,wg-a,,,,AAXX 29154 07481 12670 71904 10120 20070 39803 40087 56016 60006 8483/ 91500=
07481,1997-11-29 18:00:00,10,1008.6,-0.3,93,9,9000,7.408,,,340,7.9,14,,,,,,,,61,wg-a,,,,AAXX 29184 07481 02559 83404 10100 20090 39800 40086 58003 61000 76162 8587/ 91800 333 10140 20079 6001=
07481,1997-11-29 21:00:00,9,1009.9,1.1,93,8,18000,7.408,,,40,,,,3,,,,,,61,wg-a,,,,AAXX 29214 07481 12468 80404 10090 20080 39811 40099 51011 60037 76162 8587/ 92100=
07481,1997-11-30 00:00:00,7,1010.7,0.7,100,7,10000,3.704,,,240,,,,,,,,,,10,wg-a,,,,AAXX 30004 07481 02660 62402 10070 20070 39818 40107 51007 60036 71064 83531 90000 333 61000=
07481,1997-11-30 03:00:00,7,1011.7,0.9,100,7,10000,3.704,,,330,,,,,,,,,,,wg-a,,,,AAXX 30034 07481 12560 73302 10070 20070 39827 40117 51009 60006 8553/ 90300=
07481,1997-11-30 06:00:00,7,1012.1,0.4,100,7,12000,3.704,,,240,6.5,9.7,,,,,3,,,,wg-a,,,,AAXX 30064 07481 02562 72402 10070 20070 39831 40121 53004 60006 8583/ 90600 333 10097 20065 60034=
07481,1997-11-30 09:00:00,8,1012.8,0.7,93,7,12000,3.704,,,190,,,,1,,,,,,,wg-a,,,,AAXX 30094 07481 12562 71902 10080 20070 39838 40128 53007 60017 878// 90900=
07481,1997-11-30 12:00:00,10,1012,-0.5,82,7,15000,11.112,,,300,,,,,,,,,,,wg-a,,,,AAXX 30124 07481 12465 73006 10100 20070 39833 40120 58005 60016 8587/ 91200=
07481,1997-11-30 15:00:00,10,1011.9,-0.1,82,7,20000,7.408,,,290,,,,,,,,,,3,wg-a,,,,AAXX 30154 07481 02470 72904 10100 20070 39832 40119 55001 61000 70362 8487/ 91500 333 ////=
07481,1997-11-30 18:00:00,8,1012.8,0.7,100,8,12000,3.704,,,310,6.5,10.7,,,,,,,,60,wg-a,,,,AAXX 30184 07481 02462 83102 10080 20080 39839 40128 51007 61000 76062 878// 91800 333 10107 20065 6002=
07481,1997-11-30 21:00:00,8,1013.3,0.4,93,7,12000,3.704,,,280,,,,,,,,,,1,wg-a,,,,AAXX 30214 07481 02462 82802 10080 20070 39843 40133 51004 61000 70162 8587/ 92100 333 ////=
07481,1997-12-01 00:00:00,8,1013.3,0,93,7,12000,7.408,,,320,,,,,,,,,,21,wg-a,,,,AAXX 01004 07481 02562 83204 10080 20070 39843 40133 50000 61000 72162 875// 90000 333 6100=
07481,1997-12-01 03:00:00,8,1014.2,0.9,87,6,12000,18.52,,,330,,,,1,,,,,,21,wg-a,,,,AAXX 01034 07481 12462 83310 10080 20060 39852 40142 51009 60017 72162 8587/ 90300=
07481,1997-12-01 06:00:00,7,1015.4,1,87,5,18000,18.52,,,330,6.6,8,,,,,3,,,1,wg-a,,,,AAXX 01064 07481 02568 83310 10070 20050 39862 40154 53010 60006 70162 8587/ 90600 333 10080 20066 60034=
07481,1997-12-01 09:00:00,7,1016.7,1.4,87,5,500,18.52,,,340,,,,,,,,,,,wg-a,,,,AAXX 01094 07481 12500 73410 10070 20050 39876 40167 53014 60006 8387/ 90900=
07481,1997-12-01 12:00:00,8,1015.6,-1.1,76,4,25000,18.52,,,340,,,,,,,,,,,wg-a,,,,AAXX 01124 07481 12475 73410 10080 20040 39865 40156 58011 60006 878// 91200=
07481,1997-12-01 15:00:00,7,1014.8,-0.8,76,3,25000,18.52,,,360,,,,,,,,,,,wg-a,,,,AAXX 01154 07481 12475 /3610 10070 20030 39857 40148 56008 60006 86800 91500=
07481,1997-12-01 18:00:00,4,1013.9,-1.2,87,2,18000,7.408,,,320,3.9,8.2,,,,,,,,,wg-a,,,,AAXX 01184 07481 12/68 23204 10040 20020 39845 40139 58012 60006 80001 91800 333 10082 20039=
07481,1997-12-01 21:00:00,3,1011.8,-2.2,93,2,15000,0,,,0,,,,,,,,,,,wg-a,,,,AAXX 01214 07481 12765 20000 10030 20020 39823 40118 58022 60006 81501 92100=
07481,1997-12-02 00:00:00,3,1008.4,-3.2,100,3,10000,7.408,,,170,,,,,,,,,,,wg-a,,,,AAXX 02004 07481 12660 71704 10030 20030 39791 40084 58032 60006 8155/ 90000=
07481,1997-12-02 03:00:00,3,1004.4,-3.9,93,2,10000,14.816,,,150,,,,,,,,,,,wg-a,,,,AAXX 02034 07481 12660 71508 10030 20020 39752 40044 58039 60006 8253/ 90300=
07481,1997-12-02 06:00:00,6,999.5,-4.5,75,2,12000,22.224,,,180,2.2,5.6,,,,,,,,21,wg-a,,,,AAXX 02064 07481 02462 81812 10060 20020 39707 49995 56045 61000 72162 855// 90600 333 10056 20022 6001=
07481,1997-12-02 09:00:00,6,998.3,-1.1,87,4,20000,31.484,,,200,,,,0,,,,,,21,wg-a,,,,AAXX 02094 07481 12570 72017 10060 20040 39696 49983 55011 60007 72162 8687/ 90900=
07481,1997-12-02 12:00:00,8,999.5,1.3,76,4,20000,14.816,,,270,,,,4,,,,,,3,wg-a,,,,AAXX 02124 07481 02570 72708 10080 20040 39709 49995 51013 60046 70387 879// 91200 333 60047=
07481,1997-12-02 15:00:00,5,1002.8,2.9,70,0,25000,22.224,,,300,,,,,,,,,,,wg-a,,,,AAXX 02154 07481 12475 83012 10050 20000 39738 40028 51029 60006 872// 91500=
07481,1997-12-02 18:00:00,3,1004.4,1.4,81,0,500,18.52,,,300,3.2,8,,0,,,,,,3,wg-a,,,,AAXX 02184 07481 02400 83010 10030 20000 39752 40044 51014 60006 70362 878// 91800 333 10080 20032 60007=
07481,1997-12-02 21:00:00,2,1005.7,1.2,87,0,15000,11.112,,,280,,,,,,,,,,3,wg-a,,,,AAXX 02214 07481 02465 82806 10020 20000 39764 40057 51012 61000 70362 878// 92100 333 ////=
07481,1997-12-03 00:00:00,2,1005.9,0.1,87,0,15000,3.704,,,300,,,,,,,,,,3,wg-a,,,,AAXX 03004 07481 02465 83002 10020 20000 39765 40059 50001 61000 70362 878// 90000 333 ////=
07481,1997-12-03 03:00:00,2,1006.9,0.9,69,-3,15000,29.632,,,330,,,,,,,,,,,wg-a,,,,AAXX 03034 07481 12565 83316 10020 21030 39774 40069 52009 60006 8453/ 90300=
07481,1997-12-03 06:00:00,0,1007.1,0.1,93,-1,7000,14.816,,,330,0.4,3.2,,,,,,,,71,wg-a,,,,AAXX 03064 07481 02457 83308 10000 21010 39775 40071 53001 61000 77172 875// 90600 333 10032 20004 6004=
07481,1997-12-03 12:00:00,1,1009.5,1,93,0,7000,18.52,,,340,,,,,,,,,,71,wg-a,,,,AAXX 03124 07481 02357 83410 10010 20000 39799 40095 51010 61000 77177 876// 91200 333 6100=
07481,1997-12-03 15:00:00,1,1011,1.5,93,0,7000,25.928,,,340,,,,,,,,,,70,wg-a,,,,AAXX 03154 07481 02457 83414 10010 20000 39814 40110 53015 61000 77077 875// 91500 333 ////=
07481,1997-12-03 18:00:00,0,1012.8,1.6,93,-1,6000,22.224,,,340,0.1,1.1,,,,,,,,,wg-a,,,,AAXX 03184 07481 12/56 /3412 10000 21010 39830 40128 51016 60006 91800 333 10011 20001=
07481,1997-12-04 00:00:00,0,1013.8,0.4,93,-1,8000,22.224,,,340,,,,,,,,,,22,wg-a,,,,AAXX 04004 07481 02358 83412 10000 21010 39840 40138 51004 61000 72272 877// 90000 333 6100=
07481,1997-12-04 03:00:00,0,1013.9,-0,93,-1,7000,18.52,,,340,,,,,,,,,,71,wg-a,,,,AAXX 04034 07481 02257 83410 10000 21010 39840 40139 55000 61000 77172 887// 90300 333 ////=
07481,1997-12-04 06:00:00,0,1013.9,0.1,93,-1,8000,14.816,,,340,-0.3,0.2,,,,,,,,3,wg-a,,0,,AAXX 04064 07481 02358 83408 10000 21010 39841 40139 51001 60006 70372 887// 90600 333 10002 21003 4/9999 61000=
07481,1997-12-04 09:00:00,0,1014.2,0.3,93,-1,10000,14.816,,,360,,,,,,,,,,,wg-a,,,,AAXX 04094 07481 12360 83608 10000 21010 39844 40142 53003 60006 876// 90900=
07481,1997-12-04 12:00:00,1,1014,-0.1,86,-1,10000,11.112,,,350,,,,,,,,,,,wg-a,,,,AAXX 04124 07481 12460 73506 10010 21010 39843 40140 58001 60006 876// 91200=
07481,1997-12-04 15:00:00,1,1014.5,0.5,86,-1,10000,14.816,,,360,,,,,,,,,,,wg-a,,,,AAXX 04154 07481 12460 73608 10010 21010 39848 40145 53005 60006 876// 91500=
07481,1997-12-04 18:00:00,1,1016.1,1.5,86,-1,9000,11.112,,,340,-0.2,1.4,,,,,,,,,wg-a,,,,AAXX 04184 07481 12459 83406 10010 21010 39863 40161 52015 60006 875// 91800 333 10014 21002=
07481,1997-12-04 21:00:00,0,1017.7,1.5,93,-1,8000,3.704,,,340,,,,,,,,,,,wg-a,,,,AAXX 04214 07481 12458 83402 10000 21010 39878 40177 53015 60006 875// 92100=
07481,1997-12-05 00:00:00,0,1018.9,1.2,93,-1,8000,3.704,,,30,,,,,,,,,,,wg-a,,,,AAXX 05004 07481 12458 80302 10000 21010 39890 40189 51012 60006 875// 90000=
07481,1997-12-05 03:00:00,1,1019.4,0.5,80,-2,8000,7.408,,,20,,,,,,,,,,,wg-a,,,,AAXX 05034 07481 12458 80204 10010 21020 39895 40194 50005 60006 875// 90300=
07481,1997-12-05 06:00:00,0,1020.3,0.8,93,-1,9000,3.704,,,310,-0.3,1,,,,,,,,,wg-a,,,,AAXX 05064 07481 02459 83102 10000 21010 39903 40203 53008 60006 875// 90600 333 10010 21003 60004=
07481,1997-12-05 09:00:00,0,1022,1.7,93,-1,7000,3.704,,,50,,,,,,,,,,,wg-a,,,,AAXX 05094 07481 12457 80502 10000 21010 39920 40220 53017 60006 885// 90900=
07481,1997-12-05 12:00:00,1,1022.3,0.3,86,-1,7000,14.816,,,350,,,,,,,,,,,wg-a,,,,AAXX 05124 07481 12357 83508 10010 21010 39923 40223 50003 60006 886// 91200=
07481,1997-12-05 15:00:00,1,1022.8,0.5,93,0,500,11.112,,,20,,,,,,,,,,,wg-a,,,,AAXX 05154 07481 12200 80206 10010 20000 39928 40228 53005 60006 876// 91500=
07481,1997-12-05 18:00:00,1,1023.7,0.9,93,0,500,7.408,,,340,0,1.2,,,,,,,,,wg-a,,,,AAXX 05184 07481 12400 83404 10010 20000 39937 40237 52009 60006 875// 91800 333 10012 20000=
07481,1997-12-05 21:00:00,1,1024.8,1.1,93,0,6000,11.112,,,350,,,,,,,,,,,wg-a,,,,AAXX 05214 07481 12356 83506 10010 20000 39948 40248 52011 60006 886// 92100=
07481,1997-12-06 00:00:00,1,1025.4,0.5,86,-1,6000,18.52,,,350,,,,,,,,,,,wg-a,,,,AAXX 06004 07481 12356 83510 10010 21010 39953 40254 52005 60006 886// 90000=
07481,1997-12-06 03:00:00,0,1025.2,-0.2,93,-1,6000,11.112,,,340,,,,,,,,,,,wg-a,,,,AAXX 06034 07481 12/56 /3406 10000 21010 39951 40252 57002 60006 90300=
07481,1997-12-06 06:00:00,0,1025.3,-0,93,-1,7000,14.816,,,340,0.1,1.5,,,,,,,,,wg-a,,,,AAXX 06064 07481 02357 83408 10000 21010 39951 40253 55000 60006 886// 90600 333 10015 20001 60004=
07481,1997-12-06 12:00:00,1,1025.6,-0.5,75,-3,12000,11.112,,,360,,,,,,,,,,,wg-a,,,,AAXX 06124 07481 12562 /3606 10010 21030 39956 40256 58005 60006 86800 91200=
07481,1997-12-06 15:00:00,1,1025.3,-0.3,75,-3,12000,14.816,,,360,,,,,,,,,,,wg-a,,,,AAXX 06154 07481 12562 43608 10010 21030 39953 40253 55003 60006 84500 91500=
07481,1997-12-06 18:00:00,-1,1025.9,0.3,86,-3,9000,7.408,,,340,-0.9,2,,,,,,,,,wg-a,,,,AAXX 06184 07481 12559 43404 11010 21030 39956 40259 51003 60006 84500 91800 333 10020 21009=
07481,1997-12-06 21:00:00,-2,1026.5,0.4,93,-3,8000,0,,,0,,,,,,,,,,,wg-a,,,,AAXX 06214 07481 12/58 /0000 11020 21030 39960 40265 50004 60006 80000 92100=
07481,1997-12-07 00:00:00,-2,1025.5,-1,93,-3,7000,7.408,,,70,,,,,,,,,,,wg-a,,,,AAXX 07004 07481 12/57 00704 11020 21030 39950 40255 58010 60006 80000 90000=
07481,1997-12-07 06:00:00,-4,1023.6,-1.4,93,-5,7000,0,,,0,-3.8,-0.9,,,,,,,,,wg-a,,,,AAXX 07064 07481 02/57 00000 11040 21050 39930 40236 57014 60006 80000 90600 333 11009 21038 60004=
07481,1997-12-07 09:00:00,-2,1022.8,-0.5,100,-2,3500,0,,,0,,,,,,,,,,10,wg-a,,,,AAXX 07094 07481 12335 /0000 11020 21020 39925 40228 56005 60006 71000 81601 90900=
07481,1997-12-07 12:00:00,4,1021,-1.2,70,-1,500,3.704,,,130,,,,,,,,,,,wg-a,,,,AAXX 07124 07481 12/00 01302 10040 21010 39913 40210 58012 60006 80000 91200=
07481,1997-12-07 15:00:00,5,1018.5,-2.3,65,-1,8000,7.408,,,120,,,,,,,,,,,wg-a,,,,AAXX 07154 07481 12/58 01204 10050 21010 39890 40185 56023 60006 80000 91500=
07481,1997-12-07 18:00:00,1,1018,-0.8,86,-1,10000,14.816,,,140,-4.1,5.1,,,,,,,,,wg-a,,,,AAXX 07184 07481 12/60 01408 10010 21010 39882 40180 56008 60006 80000 91800 333 10051 21041=
07481,1997-12-07 21:00:00,1,1017.7,-0.4,86,-1,10000,7.408,,,160,,,,,,,,,,,wg-a,,,,AAXX 07214 07481 12/60 01604 10010 21010 39878 40177 58004 60006 80000 92100=
07481,1997-12-08 00:00:00,0,1017.1,-0.7,93,-1,10000,7.408,,,150,,,,,,,,,,,wg-a,,,,AAXX 08004 07481 12/60 11504 10000 21010 39871 40171 56007 60006 80001 90000=
07481,1997-12-08 03:00:00,-1,1017,-0.1,93,-2,10000,0,,,0,,,,,,,,,,,wg-a,,,,AAXX 08034 07481 12/60 60000 11010 21020 39870 40170 58001 60006 81032 90300=
07481,1997-12-08 06:00:00,1,1016.5,-0.3,93,0,10000,7.408,,,170,-0.7,1.8,,,,,,,,,wg-a,,,,AAXX 08064 07481 02/60 71704 10010 20000 39867 40165 56003 60006 84032 90600 333 10018 21007 60004=
07481,1997-12-08 09:00:00,3,1017.2,0.8,81,0,7000,7.408,,,200,,,,,,,,,,,wg-a,,,,AAXX 08094 07481 12757 72004 10030 20000 39875 40172 53008 60006 8357/ 90900=
07481,1997-12-08 12:00:00,7,1015.1,-1.5,70,2,9000,7.408,,,170,,,,,,,,,,,wg-a,,,,AAXX 08124 07481 12/59 /1704 10070 20020 39860 40151 58015 60006 84030 91200=
07481,1997-12-08 15:00:00,8,1013.1,-1.8,71,3,15000,11.112,,,160,,,,,,,,,,,wg-a,,,,AAXX 08154 07481 12/65 71606 10080 20030 39842 40131 56018 60006 86031 91500=
07481,1997-12-08 17:00:00,6,1013.3,-0.9,75,2,15000,29.632,,,170,-0.4,11,,,,,,,,,wg-a,,,,AAXX 08174 07481 12/65 51716 10060 20020 39839 40133 55009 60006 85130 91700 333 10110 21004=
07481,1997-12-08 18:00:00,6,1013.3,-0.1,70,1,15000,11.112,,,170,0.4,10,,,,,,,,,wg-a,,,,AAXX 08184 07481 12/65 51706 10060 20010 39841 40133 55001 60006 85030 91800 333 10100 20004=
07481,1997-12-08 21:00:00,5,1013.6,0.2,81,2,20000,3.704,,,200,,,,,,,,,,,wg-a,,,,AAXX 08214 07481 12770 82002 10050 20020 39843 40136 52002 60006 8253/ 92100=
07481,1997-12-09 00:00:00,5,1014,0.4,87,3,20000,11.112,,,120,,,,,,,,,,,wg-a,,,,AAXX 09004 07481 12770 81206 10050 20030 39847 40140 51004 60006 8253/ 90000=
07481,1997-12-09 03:00:00,5,1014.3,0.3,87,3,15000,3.704,,,120,,,,,,,,,,,wg-a,,,,AAXX 09034 07481 12765 71202 10050 20030 39850 40143 53003 60006 8253/ 90300=
07481,1997-12-09 06:00:00,5,1016,1.7,93,4,8000,7.408,,,140,4.4,6.1,,,,,,,,61,wg-a,,,,AAXX 09064 07481 02558 81404 10050 20040 39867 40160 53017 61000 76162 8557/ 90600 333 10061 20044 6001=
07481,1997-12-09 09:00:00,5,1018.3,2.2,100,5,7000,7.408,,,150,,,,1,,,,,,3,wg-a,,,,AAXX 09094 07481 12457 71504 10050 20050 39889 40183 53022 60017 70362 878// 90900=
07481,1997-12-09 12:00:00,12,1017.7,0.1,71,7,8000,3.704,,,130,,,,,,,,,,1,wg-a,,,,AAXX 09124 07481 12558 31302 10120 20070 39890 40177 50001 60016 70161 82802 91200=
07481,1997-12-09 18:00:00,7,1020.4,1.2,93,6,10000,3.704,,,170,4.6,11.8,,,,,,,,,wg-a,,,,AAXX 09184 07481 12660 41702 10070 20060 39911 40204 51012 60006 84502 91800 333 10118 20046=
07481,1997-12-09 21:00:00,5,1020.9,0.3,100,5,900,7.408,,,150,,,,,,,,,,41,wg-a,,,,AAXX 09214 07481 12/09 31504 10050 20050 39914 40209 53003 60006 74141 80002 92100=
07481,1997-12-10 00:00:00,3,1021.3,0.2,100,3,500,7.408,,,220,,,,,,,,,,3,wg-a,,,,AAXX 10004 07481 12700 72204 10030 20030 39916 40213 50002 60006 70341 875// 90000=
07481,1997-12-10 06:00:00,1,1020.6,-0.4,100,1,9000,14.816,,,150,0.6,6.9,,,,,1,,,3,wg-a,,,,AAXX 10064 07481 02/59 21508 10010 20010 39907 40206 58004 60006 70341 80001 90600 333 10069 20006 60014=
07481,1997-12-10 09:00:00,3,1020.2,-0.2,100,3,8000,11.112,,,150,,,,,,,,,,,wg-a,,,,AAXX 10094 07481 12/58 81506 10030 20030 39905 40202 58002 60006 82037 90900=
07481,1997-12-10 12:00:00,7,1019.1,-0.6,87,5,12000,14.816,,,140,,,,,,,,,,,wg-a,,,,AAXX 10124 07481 12662 81408 10070 20050 39899 40191 58006 60006 8257/ 91200=
07481,1997-12-10 18:00:00,8,1019.5,0.9,87,6,10000,18.52,,,170,0.6,8.9,,,,,,,,60,wg-a,,,,AAXX 10184 07481 02560 81710 10080 20060 39903 40195 53009 61000 76062 875// 91800 333 10089 20006 6002=
07481,1997-12-10 21:00:00,8,1020,0.5,93,7,15000,11.112,,,150,,,,,,,,,,1,wg-a,,,,AAXX 10214 07481 02465 81506 10080 20070 39908 40200 50005 61000 70162 875// 92100 333 ////=
07481,1997-12-11 00:00:00,7,1020.1,0.1,100,7,15000,3.704,,,150,,,,,,,,,,3,wg-a,,,,AAXX 11004 07481 02665 81502 10070 20070 39909 40201 51001 61000 70362 875// 90000 333 ////=
07481,1997-12-11 03:00:00,8,1018.7,-1.3,93,7,15000,7.408,,,160,,,,,,,,,,,wg-a,,,,AAXX 11034 07481 12665 81604 10080 20070 39896 40187 56013 60006 885// 90300=
07481,1997-12-11 06:00:00,9,1018,-0.6,87,7,15000,7.408,,,170,7.1,8.6,,,,,,,,21,wg-a,,,,AAXX 11064 07481 02465 81704 10090 20070 39890 40180 56006 61000 72162 875// 90600 333 10086 20071 6003=
07481,1997-12-11 09:00:00,9,1018.3,0.3,93,8,18000,7.408,,,160,,,,,,,,,,,wg-a,,,,AAXX 11094 07481 12668 81604 10090 20080 39893 40183 50003 60006 885// 90900=
07481,1997-12-11 12:00:00,12,1016.9,-1.1,76,8,15000,3.704,,,200,,,,,,,,,,,wg-a,,,,AAXX 11124 07481 12665 82002 10120 20080 39882 40169 58011 60006 8457/ 91200=
07481,1997-12-11 15:00:00,12,1014.8,-2,82,9,15000,18.52,,,180,,,,,,,,,,60,wg-a,,,,AAXX 11154 07481 02665 81810 10120 20090 39862 40148 56020 61000 76062 8457/ 91500 333 ////=
07481,1997-12-11 18:00:00,13,1013.7,-0.9,77,9,20000,18.52,,,200,8.1,12.9,,,,,,,,21,wg-a,,,,AAXX 11184 07481 02670 82010 10130 20090 39853 40137 56009 61000 72162 875// 91800 333 10129 20081 6100=
07481,1997-12-11 21:00:00,13,1012.7,-1,82,10,15000,22.224,,,200,,,,0,,,,,,60,wg-a,,,,AAXX 11214 07481 12565 72012 10130 20100 39843 40127 58010 60007 76062 8357/ 92100=
07481,1997-12-12 00:00:00,11,1013.8,0.8,94,10,8000,3.704,,,250,,,,4,,,,,,61,wg-a,,,,AAXX 12004 07481 02558 82502 10110 20100 39851 40138 53008 60056 76162 8657/ 90000 333 60047=
07481,1997-12-12 03:00:00,9,1015.8,1.8,81,6,20000,14.816,,,340,,,,1,,,,,,1,wg-a,,,,AAXX 12034 07481 12670 73408 10090 20060 39869 40158 53018 60017 70162 8257/ 90300=
07481,1997-12-12 06:00:00,8,1016.9,0.9,87,6,20000,3.704,,,240,7.9,13,,,,,5,,,1,wg-a,,,,AAXX 12064 07481 02470 /2402 10080 20060 39878 40169 53009 60006 70162 84830 90600 333 10130 20079 60054=
07481,1997-12-12 12:00:00,9,1019.3,0.4,81,6,25000,18.52,,,310,,,,,,,,,,21,wg-a,,,,AAXX 12124 07481 02575 /3110 10090 20060 39903 40193 51004 61000 72161 83800 91200 333 6100=
07481,1997-12-12 18:00:00,7,1023.1,2.2,87,5,25000,18.52,,,340,7.3,9.9,,,,,,,,21,wg-a,,,,AAXX 12184 07481 02575 83410 10070 20050 39938 40231 51022 61000 72161 875// 91800 333 10099 20073 6100=
07481,1997-12-12 21:00:00,7,1025.1,1.9,87,5,15000,18.52,,,340,,,,,,,,,,,wg-a,,,,AAXX 12214 07481 12565 83410 10070 20050 39957 40251 51019 60006 875// 92100=
07481,1997-12-13 00:00:00,6,1025.7,0.5,87,4,20000,25.928,,,330,,,,,,,,,,,wg-a,,,,AAXX 13004 07481 12570 53314 10060 20040 39962 40257 50005 60006 85501 90000=
07481,1997-12-13 06:00:00,5,1027.9,0.5,87,3,20000,14.816,,,350,4.8,7.4,,,,,,,,,wg-a,,,,AAXX 13064 07481 02470 /3508 10050 20030 39982 40279 51005 60006 83500 90600 333 10074 20048 61000=
07481,1997-12-13 09:00:00,6,1029.5,1.6,87,4,20000,18.52,,,350,,,,,,,,,,,wg-a,,,,AAXX 13094 07481 12470 73510 10060 20040 39998 40295 53016 60006 8654/ 90900=
07481,1997-12-13 12:00:00,7,1029.8,0.4,81,4,25000,22.224,,,10,,,,0,,,,,,1,wg-a,,,,AAXX 13124 07481 02475 70112 10070 20040 30002 40298 50004 60016 70161 86840 91200 333 60007=
07481,1997-12-13 15:00:00,6,1030,0.2,75,2,500,22.224,,,350,,,,,,,,,,,wg-a,,,,AAXX 13154 07481 12500 53512 10060 20020 30004 40300 53002 60006 84830 91500=
07481,1997-12-13 18:00:00,4,1031.4,1.1,87,2,500,11.112,,,360,4,7.4,,,,,,,,,wg-a,,,,AAXX 13184 07481 12700 13606 10040 20020 30015 40314 53011 60006 81500 91800 333 10074 20040=
07481,1997-12-14 00:00:00,1,1032,0,100,1,20000,11.112,,,350,,,,,,,,,,,wg-a,,,,AAXX 14004 07481 12370 33506 10010 20010 30018 40320 50000 60006 83600 90000=
07481,1997-12-14 03:00:00,1,1032.1,0,93,0,6000,7.408,,,350,,,,,,,,,,,wg-a,,,,AAXX 14034 07481 12256 73504 10010 20000 30018 40321 50000 60006 87600 90300=
07481,1997-12-14 06:00:00,1,1031.1,-0.9,93,0,500,11.112,,,350,0.3,4.1,,,,,,,,,wg-a,,,,AAXX 14064 07481 02300 83506 10010 20000 30009 40311 56009 60006 886// 90600 333 10041 20003 60004=
07481,1997-12-14 09:00:00,1,1031.2,0,93,0,8000,7.408,,,30,,,,,,,,,,,wg-a,,,,AAXX 14094 07481 12258 80304 10010 20000 30009 40312 50000 60006 886// 90900=
07481,1997-12-14 12:00:00,2,1029.3,-1.7,87,0,8000,14.816,,,10,,,,,,,,,,,wg-a,,,,AAXX 14124 07481 12458 70108 10020 20000 39992 40293 58017 60006 876// 91200=
07481,1997-12-14 15:00:00,2,1026.9,-2.3,93,1,10000,18.52,,,340,,,,,,,,,,,wg-a,,,,AAXX 14154 07481 12360 83410 10020 20010 39969 40269 56023 60006 886// 91500=
07481,1997-12-14 18:00:00,2,1025.5,-1.3,100,2,12000,14.816,,,340,0.8,2.3,,,,,,,,,wg-a,,,,AAXX 14184 07481 12362 83408 10020 20020 39956 40255 56013 60006 886// 91800 333 10023 20008=
07481,1997-12-14 21:00:00,2,1023.5,-2,100,2,10000,7.408,,,340,,,,,,,,,,,wg-a,,,,AAXX 14214 07481 12260 73404 10020 20020 39936 40235 58020 60006 876// 92100=
07481,1997-12-15 00:00:00,2,1021.5,-1.9,100,2,10000,3.704,,,340,,,,0,,,,,,3,wg-a,,,,AAXX 15004 07481 02260 83402 10020 20020 39917 40215 57019 60006 70362 887// 90000 333 60007=
07481,1997-12-15 03:00:00,3,1019.5,-1.9,93,2,12000,22.224,,,10,,,,,,,,,,,wg-a,,,,AAXX 15034 07481 12262 80112 10030 20020 39898 40195 56019 60006 886// 90300=
07481,1997-12-15 06:00:00,2,1018.2,-1.3,93,1,15000,18.52,,,340,1.8,2.8,,,,,,,,,wg-a,,,,AAXX 15064 07481 02365 73410 10020 20010 39885 40182 56013 60006 876// 90600 333 10028 20018 60004=
07481,1997-12-15 09:00:00,2,1017.6,-0.6,93,1,12000,18.52,,,350,,,,,,,,,,21,wg-a,,,,AAXX 15094 07481 02362 73510 10020 20010 39879 40176 56006 61000 72162 876// 90900 333 ////=
07481,1997-12-15 12:00:00,3,1016.8,-0.7,81,0,20000,14.816,,,340,,,,,,,,,,1,wg-a,,,,AAXX 15124 07481 02470 73408 10030 20000 39872 40168 58007 61000 70162 875// 91200 333 ////=
07481,1997-12-15 15:00:00,4,1016.2,-0.5,81,1,11000,14.816,,,350,,,,,,,,,,,wg-a,,,,AAXX 15154 07481 12/61 /3508 10040 20010 39867 40162 56005 60006 91500=
07481,1997-12-15 18:00:00,1,1017.1,0.6,86,-1,20000,3.704,,,320,1.3,3.8,,,,,,,,,wg-a,,,,AAXX 15184 07481 12670 /3202 10010 21010 39873 40171 52006 60006 81532 91800 333 10038 20013=
07481,1997-12-16 00:00:00,-1,1017.9,-0.1,93,-2,15000,7.408,,,240,,,,,,,,,,,wg-a,,,,AAXX 16004 07481 12/65 02404 11010 21020 39878 40179 58001 60006 80000 90000=
07481,1997-12-16 03:00:00,-3,1017,-1,100,-3,10000,0,,,0,,,,,,,,,,,wg-a,,,,AAXX 16034 07481 12/60 30000 11030 21030 39868 40170 58010 60006 80001 90300=
07481,1997-12-16 06:00:00,-4,1015.7,-1.4,100,-4,10000,0,,,0,-3.6,1.2,,,,,,,,,wg-a,,,,AAXX 16064 07481 02/60 20000 11040 21040 39854 40157 56014 60006 80001 90600 333 10012 21036 61000=
07481,1997-12-16 15:00:00,0,1012,-1.5,86,-2,7000,7.408,,,20,,,,,,,,,,,wg-a,,,,AAXX 16154 07481 12357 70204 10000 21020 39822 40120 58015 60006 83632 91500=
07481,1997-12-16 18:00:00,-1,1009.9,-2.1,93,-2,6000,0,,,0,-3.7,0.2,,,,,,,,,wg-a,,,,AAXX 16184 07481 12756 70000 11010 21020 39801 40099 56021 60006 8253/ 91800 333 10002 21037=
07481,1997-12-16 21:00:00,0,1008.6,-1.2,93,-1,7000,0,,,0,,,,,,,,,,,wg-a,,,,AAXX 16214 07481 12557 70000 10000 21010 39789 40086 58012 60006 8457/ 92100=
07481,1997-12-17 00:00:00,1,1007.6,-0.9,86,-1,7000,11.112,,,140,,,,,,,,,,,wg-a,,,,AAXX 17004 07481 12757 81406 10010 21010 39780 40076 58009 60006 875// 90000=
07481,1997-12-17 03:00:00,4,1005.8,-1.4,87,2,15000,18.52,,,170,,,,,,,,,,,wg-a,,,,AAXX 17034 07481 12765 71710 10040 20020 39766 40058 58014 60006 875// 90300=
07481,1997-12-17 06:00:00,5,1004.7,-1,87,3,15000,14.816,,,150,-0.9,4.7,,,,,,,,,wg-a,,,,AAXX 17064 07481 02465 71508 10050 20030 39756 40047 58010 60006 875// 90600 333 10047 21009 60004=
07481,1997-12-17 09:00:00,7,1004.8,0.3,81,4,500,14.816,,,140,,,,,,,,,,,wg-a,,,,AAXX 17094 07481 12400 71408 10070 20040 39759 40048 50003 60006 8587/ 90900=
07481,1997-12-17 12:00:00,10,1003.7,-0.7,71,5,35000,18.52,,,160,,,,,,,,,,,wg-a,,,,AAXX 17124 07481 12681 81610 10100 20050 39752 40037 55007 60006 8487/ 91200=
07481,1997-12-17 18:00:00,11,1004.9,0.9,71,6,35000,18.52,,,160,4.5,11.3,,,,,,,,,wg-a,,,,AAXX 17184 07481 12581 71610 10110 20060 39765 40049 50009 60006 8483/ 91800 333 10113 20045=
07481,1997-12-17 21:00:00,13,1004.9,0.2,58,5,35000,18.52,,,160,,,,,,,,,,,wg-a,,,,AAXX 17214 07481 12581 /1610 10130 20050 39767 40049 50002 60006 83830 92100=
07481,1997-12-18 00:00:00,13,1005.6,0.7,62,6,35000,22.224,,,170,,,,,,,,,,,wg-a,,,,AAXX 18004 07481 12581 /1712 10130 20060 39774 40056 51007 60006 82830 90000=
07481,1997-12-18 03:00:00,12,1004.6,-1.1,76,8,25000,29.632,,,170,,,,,,,,,,60,wg-a,,,,AAXX 18034 07481 02575 81716 10120 20080 39763 40046 56011 61000 76061 8387/ 90300 333 ////=
07481,1997-12-18 06:00:00,13,1004.6,0.1,67,7,20000,18.52,,,200,11,14.2,,,,,,,,21,wg-a,,,,AAXX 18064 07481 02670 82010 10130 20070 39764 40046 53001 61000 72161 8357/ 90600 333 10142 20110 6000=
07481,1997-12-18 09:00:00,12,1004.8,0.1,71,7,40000,22.224,,,190,,,,,,,,,,,wg-a,,,,AAXX 18094 07481 12582 81912 10120 20070 39765 40048 50001 60006 8387/ 90900=
07481,1997-12-18 12:00:00,13,1003,-1.7,62,6,40000,22.224,,,170,,,,,,,,,,,wg-a,,,,AAXX 18124 07481 12582 81712 10130 20060 39748 40030 58017 60006 8388/ 91200=
07481,1997-12-18 15:00:00,12,1002.7,-0.4,71,7,500,11.112,,,190,,,,,,,,,,60,wg-a,,,,AAXX 18154 07481 02500 81906 10120 20070 39744 40027 55004 61000 76062 8387/ 91500 333 ////=
07481,1997-12-18 18:00:00,10,1001.8,-1,87,8,25000,0,,,0,9.6,14.3,,0,,,,,,1,wg-a,,,,AAXX 18184 07481 02775 80000 10100 20080 39734 40018 58010 60006 70162 8357/ 91800 333 10143 20096 60007=
07481,1997-12-18 21:00:00,9,1001,-0.9,93,8,25000,7.408,,,200,,,,1,,,,,,21,wg-a,,,,AAXX 18214 07481 12575 82004 10090 20080 39725 40010 58009 60017 72162 8487/ 92100=
07481,1997-12-19 00:00:00,10,1002.2,1.3,93,9,12000,11.112,,,250,,,,1,,,,,,80,wg-a,,,,AAXX 19004 07481 02462 82506 10100 20090 39738 40022 53013 60026 78086 889// 90000 333 60017=
07481,1997-12-19 03:00:00,8,1002.6,0.2,100,8,8000,11.112,,,110,,,,14,,,,,,63,wg-a,,,,AAXX 19034 07481 12458 81106 10080 20080 39740 40026 50002 60147 76396 8682/ 90300=
07481,1997-12-19 06:00:00,8,1001.5,-1.1,100,8,15000,7.408,,,160,7.6,10.4,,,,,17,,,3,wg-a,,,,AAXX 19064 07481 02465 71604 10080 20080 39729 40015 56011 60006 70398 8357/ 90600 333 10104 20076 60174=
07481,1997-12-19 09:00:00,8,1002.3,0.8,100,8,13000,7.408,,,100,,,,,,,,,,21,wg-a,,,,AAXX 19094 07481 02463 71004 10080 20080 39737 40023 53008 61000 72162 8687/ 90900 333 ////=
07481,1997-12-19 12:00:00,11,1002,0,94,10,20000,7.408,,,70,,,,,,,,,,3,wg-a,,,,AAXX 19124 07481 02470 70704 10110 20100 39737 40020 50000 61000 70362 8583/ 91200 333 ////=
07481,1997-12-19 15:00:00,13,1000.9,-0.9,72,8,25000,11.112,,,210,,,,,,,,,,,wg-a,,,,AAXX 19154 07481 12475 72106 10130 20080 39728 40009 56009 60006 8587/ 91500=
07481,1997-12-19 18:00:00,10,1001.9,0.7,87,8,15000,7.408,,,80,7.9,13,,,,,,,,61,wg-a,,,,AAXX 19184 07481 02465 70804 10100 20080 39735 40019 53007 61000 76162 8487/ 91800 333 10130 20079 6000=
07481,1997-12-19 21:00:00,9,1002.1,0.1,93,8,15000,7.408,,,140,,,,1,,,,,,61,wg-a,,,,AAXX 19214 07481 12465 81404 10090 20080 39736 40021 50001 60017 76166 8587/ 92100=
07481,1997-12-20 00:00:00,8,1000.9,-1.3,100,8,10000,18.52,,,140,,,,7,,,,,,61,wg-a,,,,AAXX 20004 07481 02560 81410 10080 20080 39723 40009 58013 60086 76166 885// 90000 333 60077=
07481,1997-12-20 03:00:00,7,1001,-0,100,7,12000,11.112,,,200,,,,3,,,,,,61,wg-a,,,,AAXX 20034 07481 12462 82006 10070 20070 39723 40010 54000 60037 76166 875// 90300=
07481,1997-12-20 06:00:00,7,1001.7,0.6,93,6,11000,7.408,,,20,6.5,9.9,,,,,18,,,,wg-a,,,,AAXX 20064 07481 02/61 /0204 10070 20060 39729 40017 53006 60006 90600 333 10099 20065 60184=
07481,1997-12-20 09:00:00,7,1003.6,1.9,93,6,9000,7.408,,,160,,,,4,,,,,,61,wg-a,,,,AAXX 20094 07481 12259 81604 10070 20060 39748 40036 53019 60047 76166 878// 90900=
07481,1997-12-20 15:00:00,7,1005.4,1,100,7,10000,11.112,,,150,,,,2,,,,,,21,wg-a,,,,AAXX 20154 07481 12360 81506 10070 20070 39766 40054 53010 60027 72162 8387/ 91500=
07481,1997-12-20 18:00:00,6,1007,1.4,100,6,9000,7.408,,,130,5.9,7.4,,,,,,,,3,wg-a,,,,AAXX 20184 07481 12259 71304 10060 20060 39780 40070 51014 60006 70362 8567/ 91800 333 10074 20059=
07481,1997-12-20 21:00:00,5,1007.7,0.6,100,5,1000,11.112,,,150,,,,,,,,,,40,wg-a,,,,AAXX 20214 07481 12610 /1506 10050 20050 39786 40077 51006 60006 74022 86500 92100=
07481,1997-12-21 00:00:00,4,1008.2,0.4,100,4,2000,11.112,,,150,,,,,,,,,,10,wg-a,,,,AAXX 21004 07481 12/20 01506 10040 20040 39790 40082 52004 60006 71041 80000 90000=
07481,1997-12-21 03:00:00,3,1008.4,0.1,100,3,800,3.704,,,210,,,,,,,,,,41,wg-a,,,,AAXX 21034 07481 12608 32102 10030 20030 39791 40084 50001 60006 74140 83500 90300=
07481,1997-12-21 06:00:00,3,1008.8,0.4,100,3,8000,7.408,,,140,2.3,6.5,,,,,12,,,3,wg-a,,,,AAXX 21064 07481 02658 71404 10030 20030 39795 40088 53004 60006 70341 86502 90600 333 10065 20023 60124=
07481,1997-12-21 09:00:00,4,1010.4,1.6,100,4,6000,3.704,,,160,,,,,,,,,,,wg-a,,,,AAXX 21094 07481 12656 /1602 10040 20040 39811 40104 53016 60006 81532 90900=
07481,1997-12-21 12:00:00,10,1010.1,0.3,76,6,8000,0,,,0,,,,,,,,,,,wg-a,,,,AAXX 21124 07481 12458 50000 10100 20060 39814 40101 50003 60006 84832 91200=
07481,1997-12-21 15:00:00,8,1011.5,1.2,87,6,8000,7.408,,,310,,,,,,,,,,,wg-a,,,,AAXX 21154 07481 12458 73104 10080 20060 39826 40115 53012 60006 83232 91500=
07481,1997-12-21 18:00:00,5,1012.8,1,100,5,4000,0,,,0,2.5,9.8,,,,,,,,10,wg-a,,,,AAXX 21184 07481 12740 40000 10050 20050 39836 40128 51010 60006 71011 84500 91800 333 10098 20025=
07481,1997-12-21 21:00:00,6,1013.8,1,93,5,4000,0,,,0,,,,,,,,,,11,wg-a,,,,AAXX 21214 07481 12540 70000 10060 20050 39846 40138 53010 60006 71111 875// 92100=
07481,1997-12-22 00:00:00,6,1014.4,0.6,100,6,4000,11.112,,,10,,,,,,,,,,11,wg-a,,,,AAXX 22004 07481 12440 70106 10060 20060 39852 40144 51006 60006 71111 875// 90000=
07481,1997-12-22 03:00:00,4,1014.8,0.2,100,4,12000,7.408,,,40,,,,,,,,,,,wg-a,,,,AAXX 22034 07481 12462 /0404 10040 20040 39854 40148 50002 60006 82500 90300=
07481,1997-12-22 06:00:00,4,1014.7,-0.1,100,4,10000,3.704,,,40,3.1,6.2,,,,,,,,,wg-a,,,,AAXX 22064 07481 02460 70402 10040 20040 39853 40147 57001 60006 875// 90600 333 10062 20031 60004=
07481,1997-12-22 09:00:00,5,1014.6,-0,93,4,12000,7.408,,,20,,,,,,,,,,,wg-a,,,,AAXX 22094 07481 12362 80204 10050 20040 39853 40146 55000 60006 885// 90900=
07481,1997-12-22 12:00:00,6,1014,-0.5,87,4,15000,7.408,,,10,,,,,,,,,,,wg-a,,,,AAXX 22124 07481 12465 80104 10060 20040 39848 40140 58005 60006 875// 91200=
07481,1997-12-22 15:00:00,5,1014.3,0.2,87,3,15000,3.704,,,80,,,,,,,,,,,wg-a,,,,AAXX 22154 07481 12465 80802 10050 20030 39850 40143 53002 60006 875// 91500=
07481,1997-12-22 18:00:00,5,1014.5,0.2,93,4,15000,3.704,,,300,3.9,5.6,,,,,,,,,wg-a,,,,AAXX 22184 07481 12465 83002 10050 20040 39852 40145 53002 60006 875// 91800 333 10056 20039=
07481,1997-12-22 21:00:00,5,1015.2,0.6,93,4,15000,0,,,0,,,,0,,,,,,,wg-a,,,,AAXX 22214 07481 12465 80000 10050 20040 39858 40152 53006 60007 885// 92100=
07481,1997-12-23 00:00:00,4,1015.8,0.6,100,4,10000,3.704,,,150,,,,,,,,,,,wg-a,,,,AAXX 23004 07481 12460 81502 10040 20040 39864 40158 51006 60006 875// 90000=
07481,1997-12-23 03:00:00,4,1017,1.1,93,3,9000,7.408,,,150,,,,,,,,,,,wg-a,,,,AAXX 23034 07481 12459 /1504 10040 20030 39875 40170 53011 60006 83501 90300=
07481,1997-12-23 06:00:00,3,1018.8,1.7,100,3,10000,0,,,0,3.1,5.1,,,,,,,,,wg-a,,,,AAXX 23064 07481 02760 /0000 10030 20030 39892 40188 53017 60006 82502 90600 333 10051 20031 60004=
07481,1997-12-23 09:00:00,5,1022.1,3.3,93,4,6000,7.408,,,150,,,,,,,,,,12,wg-a,,,,AAXX 23094 07481 12556 71504 10050 20040 39925 40221 52033 60006 71222 83532 90900=
07481,1997-12-23 12:00:00,7,1023.3,1.4,87,5,7000,0,,,0,,,,,,,,,,,wg-a,,,,AAXX 23124 07481 12557 80000 10070 20050 39939 40233 51014 60006 875// 91200=
07481,1997-12-23 15:00:00,7,1025.5,2.2,87,5,500,0,,,0,,,,0,,,,,,61,wg-a,,,,AAXX 23154 07481 12500 80000 10070 20050 39961 40255 53022 60007 76162 8657/ 91500=
07481,1997-12-23 18:00:00,7,1027.9,2.3,93,6,500,0,,,0,2.9,8,,,,,,,,21,wg-a,,,,AAXX 23184 07481 02400 80000 10070 20060 39984 40279 53023 61000 72162 875// 91800 333 10080 20029 6001=
07481,1997-12-23 21:00:00,6,1029.2,1.2,93,5,8000,3.704,,,230,,,,,,,,,,,wg-a,,,,AAXX 23214 07481 12658 /2302 10060 20050 39996 40292 51012 60006 84500 92100=
07481,1997-12-24 00:00:00,5,1030.1,0.8,100,5,4000,11.112,,,160,,,,,,,,,,12,wg-a,,,,AAXX 24004 07481 12740 31606 10050 20050 30004 40301 51008 60006 71211 83500 90000=
07481,1997-12-24 03:00:00,6,1030.5,0.4,93,5,6000,7.408,,,120,,,,,,,,,,,wg-a,,,,AAXX 24034 07481 12656 81204 10060 20050 30008 40305 50004 60006 875// 90300=
07481,1997-12-24 06:00:00,6,1030.3,-0.2,93,5,8000,14.816,,,160,4.7,6.8,,,,,1,,,,wg-a,,,,AAXX 24064 07481 02558 71608 10060 20050 30006 40303 56002 60006 875// 90600 333 10068 20047 60014=
07481,1997-12-24 09:00:00,6,1030.5,0.3,93,5,10000,7.408,,,230,,,,,,,,,,,wg-a,,,,AAXX 24094 07481 12560 72304 10060 20050 30009 40305 53003 60006 81536 90900=
07481,1997-12-24 12:00:00,10,1027.9,-2.2,76,6,8000,14.816,,,140,,,,,,,,,,,wg-a,,,,AAXX 24124 07481 12/58 71408 10100 20060 39987 40279 58022 60006 81032 91200=
07481,1997-12-24 15:00:00,9,1026.7,-1.2,87,7,15000,11.112,,,140,,,,,,,,,,,wg-a,,,,AAXX 24154 07481 12/65 71406 10090 20070 39975 40267 58012 60006 83032 91500=
07481,1997-12-24 18:00:00,8,1026.4,-0.4,81,5,10000,7.408,,,180,5,10.1,,,,,,,,,wg-a,,,,AAXX 24184 07481 12760 81804 10080 20050 39971 40264 55004 60006 8257/ 91800 333 10101 20050=
07481,1997-12-24 21:00:00,8,1026.9,0.5,81,5,15000,7.408,,,130,,,,,,,,,,,wg-a,,,,AAXX 24214 07481 12765 71304 10080 20050 39976 40269 52005 60006 8157/ 92100=
07481,1997-12-25 00:00:00,9,1026.7,-0.1,81,6,15000,11.112,,,150,,,,0,,,,,,21,wg-a,,,,AAXX 25004 07481 02665 71506 10090 20060 39975 40267 58001 60006 72162 8257/ 90000 333 60007=
07481,1997-12-25 06:00:00,8,1025,-1.3,93,7,15000,11.112,,,160,6.8,9.4,,,,,1,,,,wg-a,,,,AAXX 25064 07481 12665 71606 10080 20070 39958 40250 57013 60014 875// 90600 333 10094 20068=
07481,1997-12-25 09:00:00,9,1025.3,0.3,87,7,15000,7.408,,,170,,,,,,,,,,,wg-a,,,,AAXX 25094 07481 12765 71704 10090 20070 39961 40253 53003 60006 8557/ 90900=
07481,1997-12-25 12:00:00,13,1022.2,-2.6,67,7,25000,11.112,,,170,,,,,,,,,,,wg-a,,,,AAXX 25124 07481 12775 71706 10130 20070 39935 40222 58026 60006 8457/ 91200=
07481,1997-12-25 18:00:00,14,1018.4,-1.6,58,6,25000,31.484,,,190,7.6,13.5,,,,,,,,,wg-a,,,,AAXX 25184 07481 12775 71917 10140 20060 39899 40184 56016 60006 8457/ 91800 333 10135 20076=
07481,1997-12-25 21:00:00,12,1018.6,0,71,7,25000,25.928,,,190,,,,,,,,,,,wg-a,,,,AAXX 25214 07481 12775 51914 10120 20070 39899 40186 50000 60006 8257/ 92100=
07481,1997-12-26 00:00:00,11,1018.4,-0.3,82,8,25000,22.224,,,200,,,,,,,,,,21,wg-a,,,,AAXX 26004 07481 02675 72012 10110 20080 39896 40184 55003 61000 72162 8257/ 90000 333 6100=
07481,1997-12-26 03:00:00,9,1019.1,0.5,100,9,12000,14.816,,,150,,,,5,,,,,,21,wg-a,,,,AAXX 26034 07481 12462 81508 10090 20090 39901 40191 50005 60057 72162 8587/ 90300=
07481,1997-12-26 06:00:00,9,1016.8,-2.2,93,8,15000,18.52,,,150,8.6,13.5,,,,,,,,60,wg-a,,,,AAXX 26064 07481 02465 71510 10090 20080 39879 40168 56022 61000 76062 8487/ 90600 333 10135 20086 6006=
07481,1997-12-26 09:00:00,9,1017.4,0.5,87,7,12000,14.816,,,160,,,,,,,,,,21,wg-a,,,,AAXX 26094 07481 02462 71608 10090 20070 39884 40174 51005 61000 72162 8587/ 90900 333 ////=
07481,1997-12-26 12:00:00,10,1015.7,-1.5,76,6,25000,14.816,,,190,,,,,,,,,,3,wg-a,,,,AAXX 26124 07481 02575 71908 10100 20060 39869 40157 58015 61000 70362 8283/ 91200 333 ////=
07481,1997-12-26 18:00:00,9,1014.2,-0.1,71,4,20000,14.816,,,180,8.4,11.2,,,,,,,,,wg-a,,,,AAXX 26184 07481 12670 61808 10090 20040 39853 40142 57001 60006 82830 91800 333 10112 20084=
07481,1997-12-26 21:00:00,8,1014.4,0.1,71,3,20000,11.112,,,220,,,,,,,,,,,wg-a,,,,AAXX 26214 07481 12670 62206 10080 20030 39854 40144 50001 60006 83830 92100=
07481,1997-12-27 00:00:00,6,1014.3,-0.3,87,4,25000,0,,,0,,,,,,,,,,,wg-a,,,,AAXX 27004 07481 12575 70000 10060 20040 39851 40143 58003 60006 8387/ 90000=
07481,1997-12-27 03:00:00,6,1014.2,-0.1,87,4,25000,3.704,,,250,,,,,,,,,,,wg-a,,,,AAXX 27034 07481 12575 72502 10060 20040 39850 40142 58001 60006 878// 90300=
07481,1997-12-27 06:00:00,6,1014.1,-0.1,93,5,18000,7.408,,,180,5.3,8.8,,,,,,,,61,wg-a,,,,AAXX 27064 07481 02568 81804 10060 20050 39849 40141 55001 61000 76162 888// 90600 333 10088 20053 6000=
07481,1997-12-27 09:00:00,6,1015.3,1.2,93,5,25000,11.112,,,160,,,,0,,,,,,21,wg-a,,,,AAXX 27094 07481 12475 71606 10060 20050 39861 40153 53012 60007 72162 8683/ 90900=
07481,1997-12-27 12:00:00,8,1014.6,-0.5,81,5,20000,7.408,,,210,,,,,,,,,,3,wg-a,,,,AAXX 27124 07481 12470 72104 10080 20050 39856 40146 58005 60006 70362 868// 91200=
07481,1997-12-27 15:00:00,8,1014.7,0.1,81,5,25000,3.704,,,310,,,,0,,,,,,1,wg-a,,,,AAXX 27154 07481 12475 73102 10080 20050 39857 40147 53001 60007 70186 8683/ 91500=
07481,1997-12-27 18:00:00,6,1016,1.1,93,5,20000,7.408,,,210,5.5,8.4,,,,,,,,61,wg-a,,,,AAXX 27184 07481 02470 82104 10060 20050 39868 40160 51011 61000 76186 878// 91800 333 10084 20055 6002=
07481,1997-12-27 21:00:00,6,1016.6,0.6,87,4,20000,11.112,,,240,,,,1,,,,,,2,wg-a,,,,AAXX 27214 07481 12570 82406 10060 20040 39874 40166 51006 60017 70262 878// 92100=
07481,1997-12-28 00:00:00,5,1017.4,0.6,93,4,20000,3.704,,,270,,,,,,,,,,2,wg-a,,,,AAXX 28004 07481 02470 72702 10050 20040 39880 40174 53006 60016 70286 87800 90000 333 61000=
07481,1997-12-28 03:00:00,5,1017.7,0.3,93,4,18000,7.408,,,240,,,,,,,,,,,wg-a,,,,AAXX 28034 07481 12568 72404 10050 20040 39883 40177 50003 60006 878// 90300=
07481,1997-12-28 06:00:00,4,1017.7,-0.1,93,3,15000,11.112,,,170,3.4,6.5,,,,,5,,,,wg-a,,,,AAXX 28064 07481 02565 71706 10040 20030 39882 40177 55001 60006 8583/ 90600 333 10065 20034 60054=
07481,1997-12-28 09:00:00,4,1018.8,1.1,93,3,15000,7.408,,,90,,,,0,,,,,,3,wg-a,,,,AAXX 28094 07481 12465 70904 10040 20030 39893 40188 51011 60007 70386 878// 90900=
07481,1997-12-28 12:00:00,6,1017.1,-1.4,81,3,20000,7.408,,,120,,,,,,,,,,3,wg-a,,,,AAXX 28124 07481 12470 71204 10060 20030 39879 40171 58014 60006 70386 878// 91200=
07481,1997-12-28 15:00:00,6,1016.1,-1.1,75,2,25000,0,,,0,,,,,,,,,,,wg-a,,,,AAXX 28154 07481 12575 40000 10060 20020 39868 40161 56011 60006 83801 91500=
07481,1997-12-28 18:00:00,3,1016.4,-0,93,2,18000,0,,,0,2.8,7,,,,,,,,,wg-a,,,,AAXX 28184 07481 12668 30000 10030 20020 39868 40164 55000 60006 83500 91800 333 10070 20028=
07481,1997-12-28 21:00:00,1,1016.1,-0.5,93,0,18000,0,,,0,,,,,,,,,,,wg-a,,,,AAXX 28214 07481 12/68 00000 10010 20000 39863 40161 58005 60006 80000 92100=
07481,1997-12-29 00:00:00,1,1015.5,-0.6,93,0,10000,7.408,,,170,,,,,,,,,,,wg-a,,,,AAXX 29004 07481 12/60 01704 10010 20000 39857 40155 55006 60006 80000 90000=
07481,1997-12-29 03:00:00,0,1015.3,-0.3,93,-1,7000,7.408,,,170,,,,,,,,,,,wg-a,,,,AAXX 29034 07481 12/57 01704 10000 21010 39854 40153 57003 60006 80000 90300=
07481,1997-12-29 06:00:00,-3,1015.6,-0,100,-3,2500,0,,,0,-3.3,3,,,,,,,,40,wg-a,,,,AAXX 29064 07481 02/25 00000 11030 21030 39854 40156 55000 60006 74040 80000 90600 333 10030 21033 60004=
07481,1997-12-29 09:00:00,0,1015.9,0.6,100,0,4500,7.408,,,140,,,,,,,,,,10,wg-a,,,,AAXX 29094 07481 12/45 /1404 10000 20000 39860 40159 53006 60006 71040 80001 90900=
07481,1997-12-29 12:00:00,3,1014.8,-0.7,87,1,500,3.704,,,300,,,,,,,,,,2,wg-a,,,,AAXX 29124 07481 12/00 /3002 10030 20010 39853 40148 58007 60006 70240 80001 91200=
07481,1997-12-29 15:00:00,5,1013.5,-1.1,70,0,9000,7.408,,,90,,,,,,,,,,,wg-a,,,,AAXX 29154 07481 12/59 /0904 10050 20000 39842 40135 56011 60006 80001 91500=
07481,1997-12-29 18:00:00,2,1014.4,0.5,75,-2,12000,7.408,,,150,-4.1,4.9,,,,,,,,,wg-a,,,,AAXX 29184 07481 12/62 01504 10020 21020 39847 40144 53005 60006 80000 91800 333 10049 21041=
07481,1997-12-30 00:00:00,0,1014.7,0.3,86,-2,18000,0,,,0,,,,,,,,,,,wg-a,,,,AAXX 30004 07481 12/68 00000 10000 21020 39848 40147 53003 60006 80000 90000=
07481,1997-12-30 03:00:00,2,1014.9,0.4,80,-1,20000,14.816,,,130,,,,,,,,,,,wg-a,,,,AAXX 30034 07481 12/70 01308 10020 21010 39852 40149 51004 60006 80000 90300=
07481,1997-12-30 06:00:00,2,1015.4,0.5,75,-2,20000,14.816,,,150,-0.4,2.5,,,,,,,,,wg-a,,,,AAXX 30064 07481 02/70 01508 10020 21020 39857 40154 53005 60006 80000 90600 333 10025 21004 60004=
07481,1997-12-30 09:00:00,4,1016.1,0.9,75,0,25000,18.52,,,130,,,,,,,,,,,wg-a,,,,AAXX 30094 07481 12775 31310 10040 20000 39866 40161 53009 60006 82540 90900=
07481,1997-12-30 12:00:00,8,1015.4,-0.2,76,4,45000,14.816,,,170,,,,,,,,,,,wg-a,,,,AAXX 30124 07481 12683 71708 10080 20040 39864 40154 58002 60006 85540 91200=
07481,1997-12-30 15:00:00,7,1014.9,-0.6,81,4,50000,14.816,,,150,,,,,,,,,,,wg-a,,,,AAXX 30154 07481 12684 71508 10070 20040 39858 40149 56006 60006 875// 91500=
07481,1997-12-30 18:00:00,6,1014.7,-0.3,81,3,35000,22.224,,,140,0.9,8.4,,,,,,,,,wg-a,,,,AAXX 30184 07481 12781 71412 10060 20030 39855 40147 57003 60006 8553/ 91800 333 10084 20009=
07481,1997-12-30 21:00:00,7,1014.4,-0.2,81,4,25000,14.816,,,120,,,,,,,,,,,wg-a,,,,AAXX 30214 07481 12675 81208 10070 20040 39853 40144 58002 60006 875// 92100=
07481,1997-12-31 00:00:00,7,1013,-1.3,87,5,25000,18.52,,,130,,,,,,,,,,,wg-a,,,,AAXX 31004 07481 12675 81310 10070 20050 39840 40130 58013 60006 875// 90000=
07481,1997-12-31 06:00:00,6,1011.7,-0.9,87,4,25000,14.816,,,150,5.6,7.2,,,,,,,,,wg-a,,,,AAXX 31064 07481 02675 81508 10060 20040 39826 40117 56009 60006 8557/ 90600 333 10072 20056 60004=
07481,1997-12-31 09:00:00,8,1013,1.4,81,5,500,7.408,,,120,,,,,,,,,,,wg-a,,,,AAXX 31094 07481 12500 71204 10080 20050 39840 40130 53014 60006 875// 90900=
07481,1997-12-31 12:00:00,11,1012.3,-0.3,82,8,40000,11.112,,,170,,,,,,,,,,,wg-a,,,,AAXX 31124 07481 12482 71706 10110 20080 39837 40123 58003 60006 878// 91200=
07481,1997-12-31 15:00:00,12,1011.9,-0.3,71,7,500,22.224,,,190,,,,,,,,,,,wg-a,,,,AAXX 31154 07481 12500 71912 10120 20070 39834 40119 56003 60006 8583/ 91500=
07481,1997-12-31 18:00:00,11,1013,1,76,7,25000,7.408,,,190,6.1,12.8,,,,,,,,,wg-a,,,,AAXX 31184 07481 12575 71904 10110 20070 39844 40130 51010 60006 8383/ 91800 333 10128 20061=
07481,1997-12-31 21:00:00,8,1014.1,0.7,87,6,25000,11.112,,,150,,,,,,,,,,,wg-a,,,,AAXX 31214 07481 12675 41506 10080 20060 39851 40141 53007 60006 82530 92100=
