station_id,dh_utc,temperature,pression,pression_variation_3h,humidite,point_de_rosee,visibilite,vent_moyen,vent_rafales,vent_rafales_10min,vent_direction,temperature_min,temperature_max,pluie_1h,pluie_3h,pluie_6h,pluie_12h,pluie_24h,ensoleillement,temperature_sol,temps_omm,source,radiations,neige_au_sol,nebulosite,raw_msg
07481,1998-01-01 00:00:00,7,1014.7,0.5,87,5,20000,11.112,,,150,,,,,,,,,,21,wg-a,,,,AAXX 01004 07481 02770 71506 10070 20050 39856 40147 51005 61000 72161 8357/ 90000 333 6100=
07481,1998-01-01 03:00:00,7,1015.3,0.6,93,6,18000,14.816,,,140,,,,0,,,,,,1,wg-a,,,,AAXX 01034 07481 12768 /1408 10070 20060 39862 40153 50006 60007 70161 81531 90300=
07481,1998-01-01 06:00:00,7,1016.1,0.7,87,5,18000,11.112,,,150,5.6,11.2,,,,,,,,3,wg-a,,,,AAXX 01064 07481 02768 51506 10070 20050 39869 40161 53007 60006 70361 81531 90600 333 10112 20056 60004=
07481,1998-01-01 09:00:00,7,1017.8,1.7,87,5,12000,11.112,,,140,,,,,,,,,,,wg-a,,,,AAXX 01094 07481 12762 71406 10070 20050 39886 40178 53017 60006 82532 90900=
07481,1998-01-01 12:00:00,9,1017.2,-0.3,87,7,12000,7.408,,,250,,,,,,,,,,,wg-a,,,,AAXX 01124 07481 12762 72504 10090 20070 39883 40172 58003 60006 82572 91200=
07481,1998-01-01 18:00:00,9,1015.9,-1.4,93,8,15000,7.408,,,180,5.2,9.6,,0,,,,,,3,wg-a,,,,AAXX 01184 07481 02465 81804 10090 20080 39870 40159 56014 60006 70362 8687/ 91800 333 10096 20052 60007=
07481,1998-01-01 21:00:00,9,1014.6,-1.2,93,8,15000,7.408,,,170,,,,,,,,,,,wg-a,,,,AAXX 01214 07481 12465 81704 10090 20080 39858 40146 56012 60006 878// 92100=
07481,1998-01-02 00:00:00,11,1012.3,-2.1,82,8,15000,35.188,,,200,,,,,,,,,,60,wg-a,,,,AAXX 02004 07481 02465 82019 10110 20080 39837 40123 58021 61000 76062 878// 90000 333 6100=
07481,1998-01-02 06:00:00,10,1009.9,-1.4,87,8,40000,29.632,,,200,8.9,10.9,,,,,2,,,3,wg-a,,,,AAXX 02064 07481 02482 72016 10100 20080 39813 40099 55014 60006 70362 8387/ 90600 333 10109 20089 60024=
07481,1998-01-02 09:00:00,10,1006.9,-2.9,82,7,60000,38.892,,62.968,190,,,,,,,,,,,wg-a,,,,AAXX 02094 07481 12486 71921 10100 20070 39784 40069 58029 60006 878// 90900 333 91034=
07481,1998-01-02 12:00:00,10,1004.1,-2.8,82,7,15000,38.892,,,200,,,,1,,,,,,80,wg-a,,,,AAXX 02124 07481 02465 82021 10100 20070 39756 40041 58028 60016 78086 8582/ 91200 333 60017=
07481,1998-01-02 15:00:00,10,1004.1,-0,82,7,40000,25.928,,,220,,,,2,,,,,,25,wg-a,,,,AAXX 02154 07481 12482 72214 10100 20070 39756 40041 55000 60027 72586 8587/ 91500=
07481,1998-01-02 18:00:00,9,1009,4.7,66,3,40000,22.224,,,280,8.6,10.5,,,,,,,,1,wg-a,,,,AAXX 02184 07481 12682 /2812 10090 20030 39803 40090 53047 60006 70186 85570 91800 333 10105 20086=
07481,1998-01-02 21:00:00,8,1012.4,3.2,71,3,25000,11.112,,,250,,,,,,,,,,1,wg-a,,,,AAXX 02214 07481 02575 /2506 10080 20030 39835 40124 53032 61000 70162 86800 92100 333 ////=
07481,1998-01-03 00:00:00,7,1014.6,2,76,3,25000,7.408,,,250,,,,,,,,,,1,wg-a,,,,AAXX 03004 07481 02675 72504 10070 20030 39855 40146 51020 61000 70162 875// 90000 333 ////=
07481,1998-01-03 03:00:00,6,1015.6,0.8,87,4,25000,11.112,,,160,,,,,,,,,,,wg-a,,,,AAXX 03034 07481 12675 71606 10060 20040 39863 40156 50008 60006 875// 90300=
07481,1998-01-03 06:00:00,6,1015.6,0.1,87,4,25000,7.408,,,190,5.8,9.3,,,,,3,,,,wg-a,,,,AAXX 03064 07481 02675 71904 10060 20040 39864 40156 51001 60006 875// 90600 333 10093 20058 60034=
07481,1998-01-03 09:00:00,7,1015,-0.5,81,4,25000,14.816,,,160,,,,,,,,,,,wg-a,,,,AAXX 03094 07481 12575 71608 10070 20040 39859 40150 55005 60006 8487/ 90900=
07481,1998-01-03 12:00:00,10,1013.6,-1.1,66,4,12000,25.928,,,170,,,,,,,,,,21,wg-a,,,,AAXX 03124 07481 02562 71714 10100 20040 39848 40136 58011 61000 72162 8357/ 91200 333 6100=
07481,1998-01-03 15:00:00,12,1012.1,-1.3,58,4,25000,31.484,,,180,,,,,,,,,,,wg-a,,,,AAXX 03154 07481 12675 71817 10120 20040 39835 40121 56013 60006 875// 91500=
07481,1998-01-03 21:00:00,11,1016.9,4.6,87,9,15000,7.408,,,270,,,,4,,,,,,25,wg-a,,,,AAXX 03214 07481 12565 /2704 10110 20090 39881 40169 53046 60047 72586 878// 92100=
07481,1998-01-04 00:00:00,7,1020.9,3.5,76,3,40000,14.816,,,320,,,,,,,,,,2,wg-a,,,,AAXX 04004 07481 12/82 03208 10070 20030 39916 40209 53035 60046 70286 80000 90000=
07481,1998-01-04 09:00:00,4,1018.6,-0.5,87,2,50000,7.408,,,130,,,,,,,,,,,wg-a,,,,AAXX 04094 07481 12/84 61304 10040 20020 39890 40186 55005 60006 82032 90900=
07481,1998-01-04 12:00:00,9,1013.5,-4.3,57,1,60000,22.224,,,170,,,,,,,,,,,wg-a,,,,AAXX 04124 07481 12/86 71712 10090 20010 39847 40135 58043 60006 81045 91200=
07481,1998-01-05 00:00:00,9,1017.4,1,57,1,25000,14.816,,,200,,,,,,,,,,3,wg-a,,,,AAXX 05004 07481 02775 12008 10090 20010 39884 40174 51010 61000 70361 81500 90000 333 ////=
07481,1998-01-05 03:00:00,7,1019.8,2.2,61,0,25000,3.704,,,260,,,,,,,,,,,wg-a,,,,AAXX 05034 07481 12775 12602 10070 20000 39906 40198 51022 60006 81500 90300=
07481,1998-01-05 06:00:00,5,1019,-1.1,70,0,25000,14.816,,,150,4.2,11.3,,,,,,,,,wg-a,,,,AAXX 05064 07481 02/75 41508 10050 20000 39895 40190 57011 60006 80001 90600 333 10113 20042 61000=
07481,1998-01-05 09:00:00,6,1019.2,0.3,61,-1,25000,11.112,,,180,,,,,,,,,,,wg-a,,,,AAXX 05094 07481 12/75 51806 10060 21010 39898 40192 51003 60006 81031 90900=
07481,1998-01-05 12:00:00,9,1017.3,-1.5,49,-1,10000,14.816,,,190,,,,,,,,,,,wg-a,,,,AAXX 05124 07481 12/60 /1908 10090 21010 39883 40173 58015 60006 91200=
07481,1998-01-05 15:00:00,11,1015.8,-1.3,50,1,25000,22.224,,,190,,,,,,,,,,,wg-a,,,,AAXX 05154 07481 12875 61912 10110 20010 39870 40158 56013 60006 81582 91500=
07481,1998-01-05 21:00:00,10,1014.7,-0.4,62,3,10000,31.484,,,200,,,,,,,,,,,wg-a,,,,AAXX 05214 07481 12/60 /2017 10100 20030 39859 40147 55004 60006 92100=
07481,1998-01-06 00:00:00,9,1016.7,1.9,76,5,18000,22.224,,,200,,,,,,,,,,60,wg-a,,,,AAXX 06004 07481 02568 82012 10090 20050 39878 40167 53019 61000 76062 888// 90000 333 6100=
07481,1998-01-06 06:00:00,7,1020.6,1.8,81,4,20000,7.408,,,190,7.1,10.7,,,,,,,,60,wg-a,,,,AAXX 06064 07481 02470 81904 10070 20040 39913 40206 53018 61000 76066 878// 90600 333 10107 20071 6001=
07481,1998-01-06 09:00:00,6,1022.1,1.4,100,6,9000,11.112,,,180,,,,3,,,,,,61,wg-a,,,,AAXX 06094 07481 12459 81806 10060 20060 39927 40221 51014 60037 76166 878// 90900=
07481,1998-01-06 12:00:00,9,1021.3,-0.5,87,7,20000,11.112,,,150,,,,0,,,,,,21,wg-a,,,,AAXX 06124 07481 02570 71506 10090 20070 39922 40213 58005 60036 72162 8483/ 91200 333 60007=
07481,1998-01-07 06:00:00,6,1021.8,-0.1,93,5,10000,14.816,,,160,5.9,8.9,,,,,3,,,,wg-a,,,,AAXX 07064 07481 02/60 21608 10060 20050 39924 40218 55001 60006 82030 90600 333 10089 20059 60034=
07481,1998-01-07 09:00:00,7,1022.7,1,87,5,12000,14.816,,,150,,,,,,,,,,,wg-a,,,,AAXX 07094 07481 12462 /1508 10070 20050 39934 40227 51010 60006 81130 90900=
07481,1998-01-07 12:00:00,12,1022.9,0.7,71,7,18000,14.816,,,180,,,,,,,,,,,wg-a,,,,AAXX 07124 07481 12668 /1808 10120 20070 39941 40229 50007 60006 81530 91200=
07481,1998-01-07 15:00:00,13,1023.1,0.2,72,8,500,11.112,,,260,,,,,,,,,,,wg-a,,,,AAXX 07154 07481 12600 72606 10130 20080 39943 40231 53002 60006 8154/ 91500=
07481,1998-01-07 18:00:00,10,1025.3,1.9,82,7,25000,11.112,,,150,5,14.8,,,,,,,,,wg-a,,,,AAXX 07184 07481 12775 71506 10100 20070 39962 40253 51019 60006 875// 91800 333 10148 20050=
07481,1998-01-07 21:00:00,8,1026.5,1,87,6,20000,3.704,,,220,,,,,,,,,,,wg-a,,,,AAXX 07214 07481 12770 52202 10080 20060 39972 40265 53010 60006 815/2 92100=
07481,1998-01-08 00:00:00,7,1028.1,1.4,93,6,20000,3.704,,,120,,,,,,,,,,,wg-a,,,,AAXX 08004 07481 12770 71202 10070 20060 39986 40281 53014 60006 8157/ 90000=
07481,1998-01-08 03:00:00,8,1029.1,1.1,87,6,20000,7.408,,,170,,,,,,,,,,,wg-a,,,,AAXX 08034 07481 12/70 71704 10080 20060 39997 40291 53011 60006 8707/ 90300=
07481,1998-01-08 06:00:00,8,1029.6,0.5,87,6,18000,7.408,,,170,6.1,10.2,,,,,,,,,wg-a,,,,AAXX 08064 07481 02/68 71704 10080 20060 30002 40296 53005 60006 8707/ 90600 333 10102 20061 60004=
07481,1998-01-08 09:00:00,8,1030.6,1,87,6,25000,11.112,,,160,,,,,,,,,,,wg-a,,,,AAXX 08094 07481 12/75 51606 10080 20060 30012 40306 53010 60006 85030 90900=
07481,1998-01-08 15:00:00,13,1029,-0.9,67,7,25000,3.704,,,90,,,,,,,,,,,wg-a,,,,AAXX 08154 07481 12/75 60902 10130 20070 30002 40290 56009 60006 80002 91500=
07481,1998-01-08 18:00:00,9,1030.4,0.9,76,5,20000,11.112,,,160,7.3,15.7,,,,,,,,,wg-a,,,,AAXX 08184 07481 12/70 51606 10090 20050 30011 40304 53009 60006 81031 91800 333 10157 20073=
07481,1998-01-09 00:00:00,6,1033.1,0.9,87,4,12000,7.408,,,150,,,,,,,,,,,wg-a,,,,AAXX 09004 07481 12/62 01504 10060 20040 30033 40331 51009 60006 80000 90000=
07481,1998-01-09 03:00:00,4,1033.2,-0,93,3,20000,3.704,,,200,,,,,,,,,,,wg-a,,,,AAXX 09034 07481 12/70 02002 10040 20030 30033 40332 55000 60006 80000 90300=
07481,1998-01-09 06:00:00,3,1032.9,-0.5,93,2,15000,3.704,,,240,3,9.8,,,,,,,,,wg-a,,,,AAXX 09064 07481 02/65 02402 10030 20020 30028 40329 55005 60006 80000 90600 333 10098 20030 60004=
07481,1998-01-09 09:00:00,6,1033.6,1,81,3,15000,3.704,,,160,,,,,,,,,,,wg-a,,,,AAXX 09094 07481 12/65 01602 10060 20030 30038 40336 53010 60006 80000 90900=
07481,1998-01-09 12:00:00,11,1031.7,-1.2,66,5,17000,0,,,0,,,,,,,,,,,wg-a,,,,AAXX 09124 07481 12/67 10000 10110 20050 30026 40317 58012 60006 80001 91200=
07481,1998-01-09 18:00:00,9,1031,-0,71,4,35000,18.52,,,140,2.8,14.7,,,,,,,,,wg-a,,,,AAXX 09184 07481 12/81 01410 10090 20040 30016 40310 55000 60006 80000 91800 333 10147 20028=
07481,1998-01-10 00:00:00,8,1030.6,-0.6,81,5,25000,25.928,,,140,,,,,,,,,,,wg-a,,,,AAXX 10004 07481 12/75 01414 10080 20050 30012 40306 58006 60006 80000 90000=
07481,1998-01-10 03:00:00,6,1030.6,-0.3,87,4,10000,18.52,,,120,,,,,,,,,,,wg-a,,,,AAXX 10034 07481 12/60 /1210 10060 20040 30009 40306 58003 60006 90300=
07481,1998-01-10 06:00:00,7,1030.1,-0.4,81,4,10000,18.52,,,120,5.8,9.1,,,,,,,,,wg-a,,,,AAXX 10064 07481 02/60 /1210 10070 20040 30005 40301 55004 60006 90600 333 10091 20058 60004=
07481,1998-01-10 09:00:00,8,1030.1,0.2,81,5,25000,25.928,,,140,,,,,,,,,,,wg-a,,,,AAXX 10094 07481 12/75 31414 10080 20050 30007 40301 52002 60006 80001 90900=
07481,1998-01-10 12:00:00,12,1028.8,-0.9,62,5,25000,29.632,,,170,,,,,,,,,,,wg-a,,,,AAXX 10124 07481 12/75 31716 10120 20050 39998 40288 58009 60006 80001 91200=
07481,1998-01-10 15:00:00,12,1027.1,-1.7,62,5,25000,22.224,,,150,,,,,,,,,,,wg-a,,,,AAXX 10154 07481 12/75 41512 10120 20050 39981 40271 56017 60006 80001 91500=
07481,1998-01-10 18:00:00,9,1027.1,-0.3,76,5,25000,18.52,,,150,5.9,13.2,,,,,,,,,wg-a,,,,AAXX 10184 07481 12/75 21510 10090 20050 39978 40271 55003 60006 80001 91800 333 10132 20059=
07481,1998-01-10 21:00:00,8,1027.2,0.1,76,4,25000,18.52,,,140,,,,,,,,,,,wg-a,,,,AAXX 10214 07481 12/75 01410 10080 20040 39979 40272 53001 60006 80000 92100=
07481,1998-01-11 00:00:00,9,1025.6,-1.6,76,5,25000,31.484,,,160,,,,,,,,,,,wg-a,,,,AAXX 11004 07481 12/75 11617 10090 20050 39963 40256 58016 60006 80001 90000=
07481,1998-01-11 06:00:00,9,1024.3,-0.8,71,4,25000,29.632,,,170,7.5,9.4,,,,,,,,,wg-a,,,,AAXX 11064 07481 02/75 11716 10090 20040 39951 40243 56008 60006 80001 90600 333 10094 20075 60004=
07481,1998-01-11 09:00:00,10,1025,0.8,71,5,35000,25.928,,,170,,,,,,,,,,,wg-a,,,,AAXX 11094 07481 12481 /1714 10100 20050 39959 40250 52008 60006 81142 90900=
07481,1998-01-11 12:00:00,13,1024.2,-0.5,54,4,35000,29.632,,50.004,190,,,,,,,,,,,wg-a,,,,AAXX 11124 07481 12581 41916 10130 20040 39954 40242 58005 60006 81142 91200 333 91027=
07481,1998-01-11 15:00:00,13,1023.5,-0.7,58,5,35000,14.816,,,190,,,,,,,,,,,wg-a,,,,AAXX 11154 07481 12581 /1908 10130 20050 39947 40235 55007 60006 81142 91500=
07481,1998-01-11 18:00:00,10,1023.7,-0.1,71,5,35000,18.52,,,160,8.8,13.5,,,,,,,,,wg-a,,,,AAXX 11184 07481 12/81 41610 10100 20050 39946 40237 57001 60006 82042 91800 333 10135 20088=
07481,1998-01-12 00:00:00,9,1023.8,-0.5,71,4,20000,18.52,,,160,,,,,,,,,,,wg-a,,,,AAXX 12004 07481 12/70 51610 10090 20040 39946 40238 58005 60006 85030 90000=
07481,1998-01-12 03:00:00,9,1023.4,-0.4,76,5,20000,14.816,,,140,,,,,,,,,,,wg-a,,,,AAXX 12034 07481 12/70 51408 10090 20050 39942 40234 55004 60006 83042 90300=
07481,1998-01-12 06:00:00,10,1022,-1.2,71,5,20000,29.632,,,180,7.9,10.5,,,,,,,,,wg-a,,,,AAXX 12064 07481 02/70 71816 10100 20050 39930 40220 58012 60006 85032 90600 333 10105 20079 60004=
07481,1998-01-12 09:00:00,11,1021.9,-0,66,5,25000,25.928,,,190,,,,,,,,,,,wg-a,,,,AAXX 12094 07481 12775 71914 10110 20050 39930 40219 54000 60006 81532 90900=
07481,1998-01-12 12:00:00,11,1021.1,-0.7,66,5,35000,22.224,,,200,,,,,,,,,,,wg-a,,,,AAXX 12124 07481 12781 72012 10110 20050 39923 40211 58007 60006 83572 91200=
07481,1998-01-12 15:00:00,12,1020.4,-0.7,58,4,35000,22.224,,,200,,,,,,,,,,,wg-a,,,,AAXX 12154 07481 12781 72012 10120 20040 39916 40204 55007 60006 8157/ 91500=
07481,1998-01-12 18:00:00,11,1019.8,-0.6,66,5,25000,11.112,,,200,10,12.1,,,,,,,,,wg-a,,,,AAXX 12184 07481 12/75 72006 10110 20050 39910 40198 55006 60006 8707/ 91800 333 10121 20100=
07481,1998-01-12 21:00:00,11,1018.3,-1.5,62,4,20000,22.224,,,190,,,,,,,,,,,wg-a,,,,AAXX 12214 07481 12/70 51912 10110 20040 39895 40183 58015 60006 81034 92100=
07481,1998-01-13 00:00:00,11,1016.4,-1.8,62,4,20000,31.484,,,200,,,,,,,,,,,wg-a,,,,AAXX 13004 07481 12/70 42017 10110 20040 39877 40164 58018 60006 82042 90000=
07481,1998-01-13 12:00:00,13,1012.4,-0.3,58,5,35000,11.112,,,190,,,,0,,,,,,1,wg-a,,,,AAXX 13124 07481 02681 71906 10130 20050 39840 40124 58003 60006 70162 8383/ 91200 333 60007=
07481,1998-01-13 15:00:00,14,1011.3,-1,51,4,35000,22.224,,,210,,,,,,,,,,,wg-a,,,,AAXX 13154 07481 12681 52112 10140 20040 39830 40113 56010 60006 82831 91500=
07481,1998-01-13 21:00:00,11,1011.7,1,62,4,25000,7.408,,,210,,,,,,,,,,60,wg-a,,,,AAXX 13214 07481 02775 72104 10110 20040 39831 40117 51010 61000 76061 8453/ 92100 333 ////=
07481,1998-01-14 00:00:00,7,1013.2,1.1,93,6,25000,11.112,,,240,,,,0,,,,,,61,wg-a,,,,AAXX 14004 07481 02475 82406 10070 20060 39842 40132 51011 60016 76161 878// 90000 333 60007=
07481,1998-01-14 06:00:00,7,1014.6,0.9,87,5,20000,11.112,,,180,6.6,11.3,,,,,2,,,3,wg-a,,,,AAXX 14064 07481 02670 81806 10070 20050 39855 40146 53009 60006 70362 8557/ 90600 333 10113 20066 60024=
07481,1998-01-14 09:00:00,7,1016.8,2.1,87,5,20000,11.112,,,160,,,,0,,,,,,60,wg-a,,,,AAXX 14094 07481 12470 81606 10070 20050 39876 40168 51021 60007 76062 8387/ 90900=
07481,1998-01-14 12:00:00,8,1018.1,1.4,87,6,20000,11.112,,,160,,,,,,,,,,21,wg-a,,,,AAXX 14124 07481 02470 81606 10080 20060 39890 40181 51014 60006 72162 8587/ 91200 333 61000=
07481,1998-01-14 15:00:00,8,1020,1.8,87,6,20000,7.408,,,90,,,,,,,,,,,wg-a,,,,AAXX 14154 07481 12670 80904 10080 20060 39908 40200 53018 60006 8557/ 91500=
07481,1998-01-14 18:00:00,7,1022.5,2.4,93,6,20000,3.704,,,40,6.5,8.1,,,,,,,,25,wg-a,,,,AAXX 14184 07481 02570 80402 10070 20060 39932 40225 52024 61000 72586 8557/ 91800 333 10081 20065 6000=
07481,1998-01-14 21:00:00,4,1024.6,1.7,100,4,600,3.704,,,240,,,,,,,,,,46,wg-a,,,,AAXX 14214 07481 12106 /2402 10040 20040 39949 40246 51017 60006 74641 81500 92100=
07481,1998-01-15 00:00:00,2,1026,1.1,100,2,400,0,,,0,,,,,,,,,,44,wg-a,,,,AAXX 15004 07481 12604 20000 10020 20020 39960 40260 52011 60006 74441 82500 90000=
07481,1998-01-15 03:00:00,0,1027.1,0.9,100,0,1200,0,,,0,,,,,,,,,,40,wg-a,,,,AAXX 15034 07481 12/12 30000 10000 20000 39969 40271 53009 60006 74040 80001 90300=
07481,1998-01-15 06:00:00,-1,1026.6,-0.6,100,-1,1800,3.704,,,320,-0.8,6.8,,,,,1,,,10,wg-a,,,,AAXX 15064 07481 02/18 43202 11010 21010 39963 40266 56006 60006 71040 80001 90600 333 10068 21008 60014=
07481,1998-01-15 09:00:00,0,1027.3,0.8,100,0,300,14.816,,,120,,,,,,,,,,12,wg-a,,,,AAXX 15094 07481 12/03 21208 10000 20000 39971 40273 51008 60006 71240 80001 90900=
07481,1998-01-15 12:00:00,5,1026.2,-0.6,100,5,3000,7.408,,,130,,,,,,,,,,10,wg-a,,,,AAXX 15124 07481 12230 71304 10050 20050 39965 40262 58006 60006 71041 82604 91200=
07481,1998-01-15 15:00:00,6,1025.8,-0.2,100,6,7000,7.408,,,150,,,,0,,,,,,60,wg-a,,,,AAXX 15154 07481 12457 71504 10060 20060 39963 40258 56002 60007 76062 8487/ 91500=
07481,1998-01-15 18:00:00,5,1024.7,-1.1,100,5,6000,11.112,,,150,-1.2,6.4,,,,,,,,60,wg-a,,,,AAXX 15184 07481 02556 81506 10050 20050 39952 40247 58011 61000 76062 8587/ 91800 333 10064 21012 6001=
07481,1998-01-16 00:00:00,6,1022.1,-1.1,81,3,12000,14.816,,,160,,,,0,,,,,,60,wg-a,,,,AAXX 16004 07481 02662 81608 10060 20030 39927 40221 58011 60006 76062 8457/ 90000 333 60007=
07481,1998-01-16 03:00:00,7,1020.2,-1.8,81,4,12000,18.52,,,170,,,,5,,,,,,63,wg-a,,,,AAXX 16034 07481 12662 81710 10070 20040 39909 40202 58018 60057 76366 8352/ 90300=
07481,1998-01-16 06:00:00,6,1018,-2.2,93,5,12000,22.224,,,160,3.9,6.7,,,,,,,,61,wg-a,,,,AAXX 16064 07481 02662 81612 10060 20050 39887 40180 57022 61000 76166 8652/ 90600 333 10067 20039 6012=
07481,1998-01-16 09:00:00,7,1017.1,-0.8,87,5,15000,25.928,,,190,,,,6,,,,,,61,wg-a,,,,AAXX 16094 07481 12465 81914 10070 20050 39879 40171 56008 60067 76166 8652/ 90900=
07481,1998-01-16 12:00:00,7,1015.6,-1.4,87,5,500,35.188,,55.56,190,,,,1,,,,,,1,wg-a,,,,AAXX 16124 07481 02500 81919 10070 20050 39865 40156 58014 60066 70162 878// 91200 333 60017 91030=
07481,1998-01-16 15:00:00,8,1014.6,-0.8,87,6,13000,29.632,,,190,,,,0,,,,,,80,wg-a,,,,AAXX 16154 07481 12563 71916 10080 20060 39857 40146 56008 60007 78086 8687/ 91500=
07481,1998-01-16 21:00:00,7,1021.1,3.4,81,4,500,14.816,,,310,,,,0,,,,,,1,wg-a,,,,AAXX 16214 07481 12500 73108 10070 20040 39918 40211 53034 60007 70162 875// 92100=
07481,1998-01-17 00:00:00,7,1023.7,2.5,81,4,500,18.52,,,330,,,,,,,,,,3,wg-a,,,,AAXX 17004 07481 02500 73310 10070 20040 39943 40237 51025 60006 70362 875// 90000 333 61000=
07481,1998-01-17 03:00:00,5,1026.1,2.2,87,3,11000,14.816,,,340,,,,,,,,,,,wg-a,,,,AAXX 17034 07481 12/61 /3408 10050 20030 39965 40261 53022 60006 90300=
07481,1998-01-17 06:00:00,5,1027.5,1.3,87,3,20000,18.52,,,340,4.3,7.2,,,,,,,,60,wg-a,,,,AAXX 17064 07481 02570 73410 10050 20030 39978 40275 53013 61000 76061 8553/ 90600 333 10072 20043 6009=
07481,1998-01-17 09:00:00,5,1030.2,2.6,87,3,15000,11.112,,,340,,,,,,,,,,1,wg-a,,,,AAXX 17094 07481 02565 23406 10050 20030 30004 40302 51026 61000 70186 81830 90900 333 ////=
07481,1998-01-17 12:00:00,7,1029.3,-0.6,76,3,20000,22.224,,,350,,,,,,,,,,1,wg-a,,,,AAXX 17124 07481 02470 /3512 10070 20030 39998 40293 58006 61000 70186 81200 91200 333 ////=
07481,1998-01-17 21:00:00,2,1026.7,-1.5,87,0,20000,3.704,,,200,,,,,,,,,,,wg-a,,,,AAXX 17214 07481 12/70 02002 10020 20000 39967 40267 58015 60006 80000 92100=
07481,1998-01-18 00:00:00,1,1025.1,-1.6,93,0,10000,3.704,,,230,,,,,,,,,,,wg-a,,,,AAXX 18004 07481 12/60 62302 10010 20000 39951 40251 56016 60006 82032 90000=
07481,1998-01-18 03:00:00,0,1023.7,-1.5,100,0,10000,14.816,,,160,,,,,,,,,,,wg-a,,,,AAXX 18034 07481 12/60 51608 10000 20000 39936 40237 58015 60006 80002 90300=
07481,1998-01-18 06:00:00,2,1019.8,-3.6,80,-1,10000,22.224,,,130,,,,,,,,,,,wg-a,,,,AAXX 18064 07481 02/60 71312 10020 21010 39900 40198 56036 60006 85032 90600 333 10037 20000 61000=
07481,1998-01-18 09:00:00,8,1016.8,-2.3,49,-2,25000,31.484,,,170,,,,,,,,,,,wg-a,,,,AAXX 18094 07481 12/75 71717 10080 21020 39877 40168 58023 60006 85072 90900=
07481,1998-01-18 12:00:00,10,1015.6,-1,43,-2,500,42.596,,64.82,200,,,,,,,,,,,wg-a,,,,AAXX 18124 07481 12600 82023 10100 21020 39867 40156 55010 60006 8457/ 91200 333 91035=
07481,1998-01-18 15:00:00,9,1014.3,-1.3,61,2,25000,46.3,,68.524,190,,,,1,,,,,,21,wg-a,,,,AAXX 18154 07481 12575 81925 10090 20020 39854 40143 58013 60017 72162 875// 91500 333 91037=
07481,1998-01-18 18:00:00,7,1013.7,-0.7,81,4,25000,38.892,,66.672,200,1.8,10.1,,,,,,,,61,wg-a,,,,AAXX 18184 07481 02475 82021 10070 20040 39847 40137 55007 61000 76162 878// 91800 333 10101 20018 6000 91036=
07481,1998-01-18 21:00:00,7,1011.6,-2.1,87,5,20000,29.632,,,190,,,,1,,,,,,61,wg-a,,,,AAXX 18214 07481 12570 81916 10070 20050 39826 40116 58021 60017 76166 875// 92100=
07481,1998-01-19 00:00:00,8,1007.3,-4.1,87,6,20000,38.892,,57.412,200,,,,2,,,,,,61,wg-a,,,,AAXX 19004 07481 02470 82021 10080 20060 39785 40073 56041 60036 76166 8587/ 90000 333 60027 91031=
07481,1998-01-19 06:00:00,6,1005.4,2.6,87,4,18000,25.928,,,230,5.8,8.9,,,,,,,,21,wg-a,,,,AAXX 19064 07481 02468 82314 10060 20040 39765 40054 50026 61000 72186 8487/ 90600 333 10089 20058 6011=
07481,1998-01-19 09:00:00,6,1007.1,1.6,87,4,500,7.408,,,170,,,,,,,,,,,wg-a,,,,AAXX 19094 07481 12500 71704 10060 20040 39781 40071 51016 60006 8487/ 90900=
07481,1998-01-19 15:00:00,8,1008.8,0.9,76,4,35000,11.112,,,230,,,,,,,,,,,wg-a,,,,AAXX 19154 07481 12581 72306 10080 20040 39800 40088 53009 60006 8683/ 91500=
07481,1998-01-19 18:00:00,7,1011,2,76,3,20000,11.112,,,280,5.8,9,,,,,,,,,wg-a,,,,AAXX 19184 07481 12570 72806 10070 20030 39820 40110 53020 60006 8587/ 91800 333 10090 20058=
07481,1998-01-20 00:00:00,6,1011.5,-0.6,93,5,18000,7.408,,,170,,,,0,,,,,,2,wg-a,,,,AAXX 20004 07481 02468 81704 10060 20050 39824 40115 58006 60016 70262 8487/ 90000 333 60007=
07481,1998-01-20 03:00:00,6,1011.6,-0,87,4,20000,14.816,,,290,,,,1,,,,,,60,wg-a,,,,AAXX 20034 07481 12470 82908 10060 20040 39824 40116 55000 60017 76086 878// 90300=
07481,1998-01-20 06:00:00,2,1018.2,6,69,-3,25000,22.224,,,340,1.7,7.4,,,,,2,,,3,wg-a,,,,AAXX 20064 07481 02675 73412 10020 21030 39884 40182 51060 60006 70386 875// 90600 333 10074 20017 60024=
07481,1998-01-20 09:00:00,1,1021.6,3.3,86,-1,6000,29.632,,,340,,,,,,,,,,26,wg-a,,,,AAXX 20094 07481 02556 53416 10010 21010 39917 40216 51033 61000 72687 85830 90900 333 ////=
07481,1998-01-20 12:00:00,2,1022.8,1.3,80,-1,15000,38.892,,,340,,,,,,,,,,26,wg-a,,,,AAXX 20124 07481 02565 73421 10020 21010 39930 40228 52013 61000 72687 878// 91200 333 6100=
07481,1998-01-20 21:00:00,3,1026.1,0.7,87,1,15000,31.484,,,330,,,,,,,,,,,wg-a,,,,AAXX 20214 07481 12265 73317 10030 20010 39963 40261 51007 60006 875// 92100=
07481,1998-01-21 00:00:00,4,1027,0.9,81,1,15000,25.928,,,340,,,,,,,,,,3,wg-a,,,,AAXX 21004 07481 02465 83414 10040 20010 39972 40270 51009 61000 70386 872// 90000 333 6100=
07481,1998-01-21 03:00:00,4,1027.5,0.5,87,2,15000,29.632,,,340,,,,,,,,,,,wg-a,,,,AAXX 21034 07481 12465 83416 10040 20020 39977 40275 53005 60006 885// 90300=
07481,1998-01-21 06:00:00,4,1028.8,1.2,81,1,15000,31.484,,,350,2.9,3.7,,,,,,,,,wg-a,,,,AAXX 21064 07481 02465 83517 10040 20010 39989 40288 53012 60006 875// 90600 333 10037 20029 60004=
07481,1998-01-21 09:00:00,4,1029.7,0.9,81,1,15000,31.484,,,350,,,,,,,,,,,wg-a,,,,AAXX 21094 07481 12465 73517 10040 20010 39998 40297 51009 60006 872// 90900=
07481,1998-01-21 12:00:00,5,1029,-0.6,70,0,25000,31.484,,,350,,,,,,,,,,,wg-a,,,,AAXX 21124 07481 12575 /3517 10050 20000 39992 40290 58006 60006 86200 91200=
07481,1998-01-21 15:00:00,4,1029.2,0.2,75,0,25000,22.224,,,350,,,,,,,,,,,wg-a,,,,AAXX 21154 07481 12575 73512 10040 20000 39994 40292 53002 60006 878// 91500=
07481,1998-01-21 21:00:00,2,1028.9,-0.6,80,-1,20000,22.224,,,350,,,,,,,,,,,wg-a,,,,AAXX 21214 07481 12/70 03512 10020 21010 39988 40289 58006 60006 80000 92100=
07481,1998-01-22 00:00:00,1,1028.3,-0.7,86,-1,20000,22.224,,,350,,,,,,,,,,,wg-a,,,,AAXX 22004 07481 12/70 03512 10010 21010 39981 40283 56007 60006 80000 90000=
07481,1998-01-22 03:00:00,0,1027.6,-0.8,93,-1,15000,18.52,,,10,,,,,,,,,,,wg-a,,,,AAXX 22034 07481 12365 70110 10000 21010 39973 40276 57008 60006 876// 90300=
07481,1998-01-22 06:00:00,-1,1027.2,-0.4,93,-2,12000,18.52,,,350,,,,,,,,,,,wg-a,,,,AAXX 22064 07481 02462 73510 11010 21020 39969 40272 57004 60006 876// 90600 333 10026 21006 60004=
07481,1998-01-22 09:00:00,-1,1027.2,0,86,-3,12000,18.52,,,340,,,,,,,,,,,wg-a,,,,AAXX 22094 07481 12462 /3410 11010 21030 39969 40272 50000 60006 86600 90900=
07481,1998-01-22 12:00:00,1,1025.7,-1.3,75,-3,15000,14.816,,,310,,,,,,,,,,,wg-a,,,,AAXX 22124 07481 12465 73108 10010 21030 39956 40257 58013 60006 875// 91200=
07481,1998-01-22 18:00:00,1,1023.5,-0.9,69,-4,15000,18.52,,,340,-1.2,1.8,,,,,,,,,wg-a,,,,AAXX 22184 07481 12665 83410 10010 21040 39934 40235 56009 60006 885// 91800 333 10018 21012=
07481,1998-01-23 03:00:00,-2,1022.8,-0.1,93,-3,15000,3.704,,,300,,,,,,,,,,,wg-a,,,,AAXX 23034 07481 12/65 /3002 11020 21030 39925 40228 58001 60006 80000 90300=
07481,1998-01-23 06:00:00,-2,1023.7,0.8,93,-3,10000,3.704,,,270,-2.6,0.6,,,,,,,,,wg-a,,,,AAXX 23064 07481 02/60 02702 11020 21030 39933 40237 53008 60006 80000 90600 333 10006 21026 60004=
07481,1998-01-23 09:00:00,-1,1024.3,0.8,100,-1,500,0,,,0,,,,,,,,,,,wg-a,,,,AAXX 23094 07481 12/00 00000 11010 21010 39941 40243 51008 60006 80000 90900=
07481,1998-01-23 12:00:00,3,1023.3,-0.6,75,-1,8000,0,,,0,,,,,,,,,,,wg-a,,,,AAXX 23124 07481 12458 /0000 10030 21010 39935 40233 58006 60006 81100 91200=
07481,1998-01-23 15:00:00,3,1022.8,-0.4,70,-2,12000,7.408,,,340,,,,,,,,,,,wg-a,,,,AAXX 23154 07481 12/62 /3404 10030 21020 39931 40228 56004 60006 80000 91500=
07481,1998-01-23 18:00:00,1,1023.5,0.3,75,-3,10000,3.704,,,350,-3.1,3.8,,,,,,,,,wg-a,,,,AAXX 23184 07481 12/60 03502 10010 21030 39934 40235 53003 60006 80000 91800 333 10038 21031=
07481,1998-01-23 21:00:00,-1,1024,0.3,86,-3,10000,3.704,,,140,,,,,,,,,,,wg-a,,,,AAXX 23214 07481 12/60 01402 11010 21030 39937 40240 52003 60006 80000 92100=
07481,1998-01-24 00:00:00,-2,1024,-0.1,86,-4,8000,3.704,,,180,,,,,,,,,,,wg-a,,,,AAXX 24004 07481 12/58 01802 11020 21040 39936 40240 55001 60006 80000 90000=
07481,1998-01-24 03:00:00,-3,1023.5,-0.6,93,-4,4000,0,,,0,,,,,,,,,,10,wg-a,,,,AAXX 24034 07481 12/40 00000 11030 21040 39930 40235 58006 60006 71000 80000 90300=
07481,1998-01-24 06:00:00,-3,1023.1,,93,-4,3000,0,,,0,,,,,,,,,,10,wg-a,,,,AAXX 24064 07481 12/30 00000 11030 21040 39927 40231 60006 71000 80000 90600=
07481,1998-01-24 09:00:00,-3,1023.6,0.5,100,-3,4500,3.704,,,320,,,,,,,,,,10,wg-a,,,,AAXX 24094 07481 32545 83202 11030 21030 39932 40236 51005 71011 885// 90900=
07481,1998-01-24 12:00:00,-1,1021.9,,93,-2,500,7.408,,,330,,,,,,,,,,,wg-a,,,,AAXX 24124 07481 12300 83304 11010 21020 39918 40219 60006 885// 91200=
07481,1998-01-24 15:00:00,0,1020.8,-1.1,86,-2,6000,14.816,,,350,,,,,,,,,,,wg-a,,,,AAXX 24154 07481 12456 83508 10000 21020 39907 40208 56011 60006 885// 91500=
07481,1998-01-24 18:00:00,0,1020.4,-0.3,93,-1,10000,11.112,,,350,,,,,,,,,,,wg-a,,,,AAXX 24184 07481 12260 83506 10000 21010 39904 40204 58003 60006 885// 91800=
07481,1998-01-24 21:00:00,0,1019.4,-1,93,-1,7000,14.816,,,350,,,,,,,,,,24,wg-a,,,,AAXX 24214 07481 02357 83508 10000 21010 39894 40194 58010 61000 72452 886// 92100 333 ////=
07481,1998-01-25 00:00:00,0,1018,-1.3,93,-1,10000,14.816,,,350,,,,,,,,,,24,wg-a,,,,AAXX 25004 07481 02460 83508 10000 21010 39881 40180 58013 61000 72452 885// 90000 333 6100=
07481,1998-01-25 03:00:00,0,1017,-1,86,-2,10000,14.816,,,350,,,,,,,,,,70,wg-a,,,,AAXX 25034 07481 02460 83508 10000 21020 39871 40170 56010 61000 77072 875// 90300 333 ////=
07481,1998-01-25 06:00:00,0,1016.9,-0.1,93,-1,9000,11.112,,,360,,,,,,,,,,70,wg-a,,,,AAXX 25064 07481 02459 83606 10000 21010 39870 40169 55001 61000 77072 885// 90600 333 ////=
07481,1998-01-25 09:00:00,-1,1018,1,100,-1,800,3.704,,,10,,,,,,,,,,10,wg-a,,,,AAXX 25094 07481 32208 80102 11010 21010 39880 40180 53010 71077 885// 90900=
07481,1998-01-25 12:00:00,0,1019.4,1.4,100,0,1000,3.704,,,10,,,,,,,,,,71,wg-a,,,,AAXX 25124 07481 02210 80102 10000 20000 39894 40194 51014 61000 77177 877// 91200 333 6002=
07481,1998-01-25 15:00:00,0,1021.1,1.7,93,-1,7000,3.704,,,310,,,,,,,,,,1,wg-a,,,,AAXX 25154 07481 02257 83102 10000 21010 39911 40211 53017 61000 70172 876// 91500 333 ////=
07481,1998-01-25 18:00:00,-2,1022.9,1.5,100,-2,500,3.704,,,250,,,,,,,,,,2,wg-a,,6,,AAXX 25184 07481 12700 72502 11020 21020 39926 40229 52015 60006 70272 8357/ 91800 333 4/006=
07481,1998-01-25 21:00:00,-3,1025,1.9,100,-3,4500,0,,,0,,,,,,,,,,40,wg-a,,,,AAXX 25214 07481 12745 30000 11030 21030 39945 40250 51019 60006 74011 83530 92100=
07481,1998-01-26 00:00:00,-5,1026.1,0.8,100,-5,900,0,,,0,,,,,,,,,,41,wg-a,,,,AAXX 26004 07481 12109 20000 11050 21050 39953 40261 53008 60006 74141 82600 90000=
07481,1998-01-26 03:00:00,-6,1026.6,0.4,100,-6,400,0,,,0,,,,,,,,,,41,wg-a,,,,AAXX 26034 07481 12104 /0000 11060 21060 39957 40266 51004 60006 74144 81600 90300=
07481,1998-01-26 06:00:00,-7,1026.9,0.2,100,-7,500,0,,,0,-7.9,-1,,,,,4,,,44,wg-a,,6,,AAXX 26064 07481 02/00 90000 11070 21070 39959 40269 53002 60006 74444 89/// 90600 333 11010 21079 4/006 60044=
07481,1998-01-26 09:00:00,-6,1027.4,0.6,100,-6,500,3.704,,,120,,,,,,,,,,10,wg-a,,,,AAXX 26094 07481 12105 71202 11060 21060 39965 40274 52006 60006 71041 876// 90900=
07481,1998-01-26 12:00:00,-3,1026.5,-0.5,100,-3,100,0,,,0,,,,,,,,,,49,wg-a,,,,AAXX 26124 07481 12/01 90000 11030 21030 39960 40265 58005 60006 74941 89/// 91200=
07481,1998-01-26 15:00:00,-2,1025.3,-1.1,100,-2,4500,7.408,,,20,,,,,,,,,,10,wg-a,,,,AAXX 26154 07481 12145 80204 11020 21020 39949 40253 56011 60006 71041 886// 91500=
07481,1998-01-26 18:00:00,-2,1025.1,-0.1,100,-2,500,3.704,,,60,-9,-1.1,,,,,,,,1,wg-a,,3,,AAXX 26184 07481 12400 80602 11020 21020 39948 40251 57001 60006 70141 885// 91800 333 11011 21090 4/003=
07481,1998-01-26 21:00:00,-2,1024.8,-0.4,93,-3,500,3.704,,,20,,,,,,,,,,,wg-a,,,,AAXX 26214 07481 12400 80202 11020 21030 39944 40248 58004 60006 885// 92100=
07481,1998-01-27 00:00:00,-2,1024.6,-0.2,93,-3,500,0,,,0,,,,,,,,,,,wg-a,,,,AAXX 27004 07481 12400 80000 11020 21030 39942 40246 58002 60006 885// 90000=
07481,1998-01-27 03:00:00,-2,1023,-1.5,100,-2,4000,3.704,,,60,,,,,,,,,,10,wg-a,,,,AAXX 27034 07481 12440 80602 11020 21020 39927 40230 58015 60006 71022 885// 90300=
07481,1998-01-27 06:00:00,-3,1022.3,-0.8,100,-3,3000,3.704,,,70,-2.7,-1.5,,,,,,,,10,wg-a,,3,,AAXX 27064 07481 02130 80702 11030 21030 39919 40223 56008 60006 71022 886// 90600 333 11015 21027 4/003 60004=
07481,1998-01-27 09:00:00,-2,1022.4,0.1,93,-3,2000,3.704,,,60,,,,,,,,,,10,wg-a,,,,AAXX 27094 07481 12120 80602 11020 21030 39920 40224 53001 60006 71022 886// 90900=
07481,1998-01-27 12:00:00,0,1020.9,-1.1,86,-2,4000,3.704,,,300,,,,,,,,,,10,wg-a,,,,AAXX 27124 07481 12/40 03002 10000 21020 39909 40209 58011 60006 71011 80000 91200=
07481,1998-01-27 18:00:00,0,1019.3,-0.2,93,-1,500,3.704,,,220,-2.9,3.4,,,,,,,,,wg-a,,0,,AAXX 27184 07481 12/00 02202 10000 21010 39893 40193 55002 60006 80000 91800 333 10034 21029 4/000=
07481,1998-01-27 21:00:00,-2,1019.9,0.4,100,-2,4000,3.704,,,220,,,,,,,,,,10,wg-a,,,,AAXX 27214 07481 12/40 02202 11020 21020 39897 40199 52004 60006 71000 80000 92100=
07481,1998-01-28 00:00:00,-2,1020.1,0.1,100,-2,200,0,,,0,,,,,,,,,,45,wg-a,,,,AAXX 28004 07481 12/02 90000 11020 21020 39898 40201 50001 60006 74541 89/// 90000=
07481,1998-01-28 03:00:00,-3,1019.7,-0.5,100,-3,100,3.704,,,250,,,,,,,,,,45,wg-a,,,,AAXX 28034 07481 12/01 92502 11030 21030 39893 40197 58005 60006 74544 89/// 90300=
07481,1998-01-28 06:00:00,-3,1019.5,-0.2,100,-3,200,0,,,0,-3.4,-0.1,,,,,,,,49,wg-a,,0,,AAXX 28064 07481 02/02 90000 11030 21030 39891 40195 58002 60006 74944 89/// 90600 333 11001 21034 4/9999 60004=
07481,1998-01-28 15:00:00,-1,1018.3,-1.1,100,-1,300,3.704,,,20,,,,,,,,,,45,wg-a,,,,AAXX 28154 07481 12/03 90202 11010 21010 39883 40183 56011 60006 74544 89/// 91500=
07481,1998-01-28 18:00:00,-1,1019.1,0.7,100,-1,200,3.704,,,10,-3.3,-0.2,,,,,,,,45,wg-a,,0,,AAXX 28184 07481 12/02 90102 11010 21010 39890 40191 53007 60006 74544 89/// 91800 333 11002 21033 4/000=
07481,1998-01-28 21:00:00,-2,1019.5,0.3,100,-2,200,7.408,,,10,,,,,,,,,,45,wg-a,,,,AAXX 28214 07481 12/02 90104 11020 21020 39893 40195 51003 60006 74544 89/// 92100=
07481,1998-01-29 00:00:00,-2,1019.8,0.3,100,-2,1100,3.704,,,360,,,,,,,,,,10,wg-a,,,,AAXX 29004 07481 12011 83602 11020 21020 39896 40198 53003 60006 71042 886// 90000=
07481,1998-01-29 06:00:00,-2,1020.2,0.2,100,-2,2000,3.704,,,40,-2.2,-0.8,,,,,,,,10,wg-a,,,,AAXX 29064 07481 02120 80402 11020 21020 39900 40202 53002 60006 71042 886// 90600 333 11008 21022 60004=
07481,1998-01-29 12:00:00,-3,1021.7,0.2,100,-3,2000,11.112,,,30,,,,,,,,,,10,wg-a,,,,AAXX 29124 07481 02220 80306 11030 21030 39913 40217 50002 61000 71075 886// 91200 333 6100=
07481,1998-01-29 15:00:00,-3,1021.2,-0.5,100,-3,4000,7.408,,,360,,,,,,,,,,10,wg-a,,,,AAXX 29154 07481 02140 83604 11030 21030 39908 40212 55005 61000 71052 886// 91500 333 ////=
07481,1998-01-29 18:00:00,-3,1021.8,0.6,100,-3,3000,7.408,,,310,-3.1,-1.9,,,,,,,,10,wg-a,,,,AAXX 29184 07481 12230 83104 11030 21030 39914 40218 53006 60006 71052 886// 91800 333 11019 21031=
07481,1998-01-29 21:00:00,-3,1022,0.2,100,-3,4000,3.704,,,290,,,,,,,,,,10,wg-a,,,,AAXX 29214 07481 12240 82902 11030 21030 39916 40220 51002 60006 71022 886// 92100=
07481,1998-01-30 00:00:00,-2,1022,0.1,93,-3,500,3.704,,,340,,,,,,,,,,,wg-a,,,,AAXX 30004 07481 12400 83402 11020 21030 39917 40220 53001 60006 886// 90000=
07481,1998-01-30 03:00:00,-2,1021.7,-0.3,93,-3,7000,7.408,,,120,,,,,,,,,,,wg-a,,,,AAXX 30034 07481 12357 81204 11020 21030 39914 40217 58003 60006 886// 90300=
07481,1998-01-30 06:00:00,-3,1021,-0.8,93,-4,7000,3.704,,,170,-3,-1.8,,,,,,,,,wg-a,,,,AAXX 30064 07481 02357 21702 11030 21040 39906 40210 58008 60006 82601 90600 333 11018 21030 61000=
07481,1998-01-30 09:00:00,-2,1021.5,0.6,86,-4,3500,3.704,,,180,,,,,,,,,,10,wg-a,,,,AAXX 30094 07481 12/35 01802 11020 21040 39912 40215 51006 60006 71000 80000 90900=
07481,1998-01-30 21:00:00,-1,1017.2,0.1,100,-1,500,0,,,0,,,,,,,,,,,wg-a,,,,AAXX 30214 07481 12400 70000 11010 21010 39872 40172 50001 60006 875// 92100=
07481,1998-01-31 03:00:00,-1,1015.3,-1.1,93,-2,500,3.704,,,40,,,,,,,,,,,wg-a,,,,AAXX 31034 07481 12200 80402 11010 21020 39853 40153 57011 60006 875// 90300=
07481,1998-01-31 15:00:00,0,1013.1,-1.1,100,0,1700,7.408,,,10,,,,,,,,,,10,wg-a,,,,AAXX 31154 07481 12217 80104 10000 20000 39833 40131 56011 60006 71022 886// 91500=
07481,1998-01-31 18:00:00,0,1013.4,0.3,100,0,1500,3.704,,,340,-1.9,0.9,,,,,,,,10,wg-a,,,,AAXX 31184 07481 12115 83402 10000 20000 39836 40134 52003 60006 71022 886// 91800 333 10009 21019=
07481,1998-02-01 00:00:00,0,1014.1,0.2,93,-1,6000,3.704,,,220,,,,,,,,,,,wg-a,,,,AAXX 01004 07481 12356 82202 10000 21010 39843 40141 53002 60006 886// 90000=
07481,1998-02-01 03:00:00,-1,1013.8,-0.5,93,-2,6000,7.408,,,320,,,,,,,,,,,wg-a,,,,AAXX 01034 07481 12356 83204 11010 21020 39838 40138 57005 60006 886// 90300=
07481,1998-02-01 06:00:00,-2,1013.7,-0.2,93,-3,6000,3.704,,,50,-2.2,0.4,,,,,,,,,wg-a,,,,AAXX 01064 07481 02456 80502 11020 21030 39836 40137 58002 60006 85502 90600 333 10004 21022 60004=
07481,1998-02-01 09:00:00,-1,1015,1.4,93,-2,3000,3.704,,,140,,,,,,,,,,10,wg-a,,,,AAXX 01094 07481 12230 61402 11010 21020 39850 40150 52014 60006 71022 84502 90900=
07481,1998-02-01 12:00:00,1,1014.1,-0.6,80,-2,6000,3.704,,,50,,,,,,,,,,,wg-a,,,,AAXX 01124 07481 12456 30502 10010 21020 39844 40141 58006 60006 83100 91200=
07481,1998-02-01 15:00:00,3,1013.3,-0.6,75,-1,7000,7.408,,,30,,,,,,,,,,,wg-a,,,,AAXX 01154 07481 12/57 20304 10030 21010 39838 40133 56006 60006 80001 91500=
07481,1998-02-01 18:00:00,0,1014.2,0.5,93,-1,4000,7.408,,,10,-2.7,3.7,,,,,,,,10,wg-a,,,,AAXX 01184 07481 12/40 30104 10000 21010 39843 40142 53005 60006 71000 80002 91800 333 10037 21027=
07481,1998-02-01 21:00:00,-2,1014.9,0.5,100,-2,500,3.704,,,30,,,,,,,,,,11,wg-a,,,,AAXX 01214 07481 12/00 00302 11020 21020 39848 40149 51005 60006 71100 80000 92100=
07481,1998-02-02 00:00:00,-3,1014.8,-0.1,100,-3,200,3.704,,,20,,,,,,,,,,45,wg-a,,,,AAXX 02004 07481 12/02 90202 11030 21030 39847 40148 58001 60006 74541 89/// 90000=
07481,1998-02-02 03:00:00,-3,1013.7,-1.1,100,-3,200,3.704,,,20,,,,,,,,,,45,wg-a,,,,AAXX 02034 07481 12/02 90202 11030 21030 39836 40137 57011 60006 74544 89/// 90300=
07481,1998-02-02 06:00:00,-2,1012.8,-0.8,100,-2,400,0,,,0,-3,-0.1,,,,,,,,49,wg-a,,,,AAXX 02064 07481 02/04 90000 11020 21020 39828 40128 56008 60006 74944 89/// 90600 333 11001 21030 60004=
07481,1998-02-02 09:00:00,-2,1012.6,-0.2,100,-2,200,3.704,,,250,,,,,,,,,,49,wg-a,,,,AAXX 02094 07481 12/02 92502 11020 21020 39826 40126 58002 60006 74944 89/// 90900=
07481,1998-02-02 12:00:00,-1,1011.7,-0.8,100,-1,800,3.704,,,340,,,,,,,,,,42,wg-a,,,,AAXX 02124 07481 12108 83402 11010 21010 39818 40117 58008 60006 74244 886// 91200=
07481,1998-02-02 15:00:00,0,1010.4,-1.1,100,0,1800,7.408,,,40,,,,,,,,,,10,wg-a,,,,AAXX 02154 07481 12118 80404 10000 20000 39807 40104 56011 60006 71042 886// 91500=
07481,1998-02-02 18:00:00,1,1011.1,0.7,93,0,3000,7.408,,,20,-2.3,1,,,,,,,,10,wg-a,,,,AAXX 02184 07481 12230 80204 10010 20000 39814 40111 53007 60006 71042 886// 91800 333 10010 21023=
07481,1998-02-02 21:00:00,0,1011.6,0.5,100,0,2000,11.112,,,350,,,,,,,,,,10,wg-a,,,,AAXX 02214 07481 12120 83506 10000 20000 39819 40116 53005 60006 71022 886// 92100=
07481,1998-02-03 00:00:00,0,1011.4,-0.3,100,0,700,7.408,,,340,,,,,,,,,,44,wg-a,,,,AAXX 03004 07481 12107 83404 10000 20000 39816 40114 58003 60006 74442 886// 90000=
07481,1998-02-03 03:00:00,-1,1011.5,0.1,100,-1,2500,11.112,,,360,,,,,,,,,,10,wg-a,,,,AAXX 03034 07481 12125 83606 11010 21010 39817 40115 50001 60006 71042 886// 90300=
07481,1998-02-03 06:00:00,-1,1010.9,-0.6,100,-1,700,11.112,,,340,-0.8,0.6,,,,,,,,10,wg-a,,,,AAXX 03064 07481 02/07 93406 11010 21010 39811 40109 57006 60006 71042 89/// 90600 333 10006 21008 60004=
07481,1998-02-03 09:00:00,-2,1011.7,0.7,100,-2,500,14.816,,,340,,,,,,,,,,45,wg-a,,,,AAXX 03094 07481 12/05 93408 11020 21020 39818 40117 50007 60006 74544 89/// 90900=
07481,1998-02-03 12:00:00,-1,1011.5,-0.2,100,-1,1600,11.112,,,350,,,,,,,,,,10,wg-a,,,,AAXX 03124 07481 12116 83506 11010 21010 39816 40115 58002 60006 71042 886// 91200=
07481,1998-02-03 15:00:00,-2,1010.7,-0.9,100,-2,1800,14.816,,,350,,,,,,,,,,10,wg-a,,,,AAXX 03154 07481 12118 83508 11020 21020 39807 40107 55009 60006 71022 886// 91500=
07481,1998-02-03 18:00:00,-2,1011.3,0.6,100,-2,3500,7.408,,,300,-2,-0.8,,,,,,,,10,wg-a,,,,AAXX 03184 07481 12235 83004 11020 21020 39813 40113 52006 60006 71022 886// 91800 333 11008 21020=
07481,1998-02-03 21:00:00,-1,1010.7,-0.5,86,-3,500,3.704,,,220,,,,,,,,,,,wg-a,,,,AAXX 03214 07481 12400 82202 11010 21030 39808 40107 58005 60006 886// 92100=
07481,1998-02-04 00:00:00,-2,1010.4,-0.4,93,-3,500,7.408,,,220,,,,,,,,,,,wg-a,,,,AAXX 04004 07481 12400 62204 11020 21030 39804 40104 58004 60006 86600 90000=
07481,1998-02-04 06:00:00,-2,1011.1,0.5,93,-3,6000,11.112,,,340,-2.4,-1.2,,,,,,,,,wg-a,,,,AAXX 04064 07481 02356 83406 11020 21030 39811 40111 53005 60006 886// 90600 333 11012 21024 60004=
07481,1998-02-04 09:00:00,-2,1012.3,1.2,86,-4,500,7.408,,,340,,,,,,,,,,,wg-a,,,,AAXX 04094 07481 12300 83404 11020 21040 39823 40123 53012 60006 886// 90900=
07481,1998-02-04 12:00:00,-2,1012.9,0.6,86,-4,500,11.112,,,10,,,,,,,,,,,wg-a,,,,AAXX 04124 07481 12400 80106 11020 21040 39829 40129 51006 60006 886// 91200=
07481,1998-02-04 15:00:00,-1,1013.8,0.9,80,-4,500,14.816,,,30,,,,,,,,,,,wg-a,,,,AAXX 04154 07481 12400 80308 11010 21040 39838 40138 53009 60006 886// 91500=
07481,1998-02-04 18:00:00,-2,1016,2,86,-4,500,0,,,0,-2.3,-0.8,,,,,,,,,wg-a,,,,AAXX 04184 07481 12/00 /0000 11020 21040 39858 40160 53020 60006 80000 91800 333 11008 21023=
07481,1998-02-05 00:00:00,-4,1018.7,0.7,93,-5,6000,3.704,,,320,,,,,,,,,,,wg-a,,,,AAXX 05004 07481 12456 33202 11040 21050 39883 40187 51007 60006 83500 90000=
07481,1998-02-05 03:00:00,-5,1019.3,0.5,93,-6,4000,0,,,0,,,,,,,,,,10,wg-a,,,,AAXX 05034 07481 12/40 00000 11050 21060 39888 40193 52005 60006 71000 80000 90300=
07481,1998-02-05 06:00:00,-5,1020.3,0.9,93,-6,100,3.704,,,30,-5.9,-1.5,,,,,,,,49,wg-a,,,,AAXX 05064 07481 02/01 90302 11050 21060 39897 40203 53009 60006 74941 89/// 90600 333 11015 21059 60004=
07481,1998-02-05 09:00:00,-3,1022,1.9,100,-3,1500,7.408,,,340,,,,,,,,,,28,wg-a,,,,AAXX 05094 07481 12215 83404 11030 21030 39916 40220 51019 60006 72842 886// 90900=
07481,1998-02-05 12:00:00,-3,1022.1,0.1,93,-4,2500,7.408,,,50,,,,,,,,,,10,wg-a,,,,AAXX 05124 07481 02325 80504 11030 21040 39917 40221 50001 61000 71074 886// 91200 333 6100=
07481,1998-02-05 15:00:00,-1,1021.5,-0.4,86,-3,4500,7.408,,,60,,,,,,,,,,10,wg-a,,,,AAXX 05154 07481 12445 /0604 11010 21030 39913 40215 55004 60006 71022 82532 91500=
07481,1998-02-05 18:00:00,-2,1022.8,1.2,86,-4,4000,7.408,,,80,-5.4,-1.3,,,,,,,,10,wg-a,,,,AAXX 05184 07481 12340 80804 11020 21040 39925 40228 53012 60006 71022 886// 91800 333 11013 21054=
07481,1998-02-06 00:00:00,-4,1024.3,0.4,93,-5,3000,3.704,,,90,,,,,,,,,,10,wg-a,,,,AAXX 06004 07481 12230 /0902 11040 21050 39937 40243 51004 60006 71011 86600 90000=
07481,1998-02-06 03:00:00,-4,1025,0.6,100,-4,400,3.704,,,130,,,,,,,,,,49,wg-a,,,,AAXX 06034 07481 12/04 91302 11040 21040 39943 40250 51006 60006 74942 89/// 90300=
07481,1998-02-06 06:00:00,-5,1025.3,0.3,100,-5,100,3.704,,,70,-5.2,-1.9,,,,,,,,49,wg-a,,,,AAXX 06064 07481 02/01 90702 11050 21050 39946 40253 53003 60006 74942 89/// 90600 333 11019 21052 61000=
07481,1998-02-06 12:00:00,-3,1026.5,-0.1,100,-3,1200,0,,,0,,,,,,,,,,28,wg-a,,,,AAXX 06124 07481 02112 80000 11030 21030 39959 40265 58001 61000 72874 886// 91200 333 6100=
07481,1998-02-06 15:00:00,-3,1025.5,-0.9,100,-3,1500,3.704,,,40,,,,,,,,,,10,wg-a,,,,AAXX 06154 07481 12115 80402 11030 21030 39950 40255 56009 60006 71022 886// 91500=
07481,1998-02-06 18:00:00,-4,1026.4,0.8,100,-4,200,0,,,0,-4.5,-2.8,,,,,,,,49,wg-a,,,,AAXX 06184 07481 02/02 90000 11040 21040 39958 40264 53008 61000 74974 89/// 91800 333 11028 21045 ////=
07481,1998-02-06 21:00:00,-4,1026.7,0.3,100,-4,200,0,,,0,,,,,,,,,,49,wg-a,,,,AAXX 06214 07481 32/02 90000 11040 21040 39961 40267 51003 74974 89/// 92100=
07481,1998-02-07 00:00:00,-4,1026.9,0.2,100,-4,200,3.704,,,180,,,,,,,,,,49,wg-a,,,,AAXX 07004 07481 02/02 91802 11040 21040 39963 40269 53002 61000 74974 89/// 90000 333 6100=
07481,1998-02-07 03:00:00,-5,1027.1,0,100,-5,100,3.704,,,210,,,,,,,,,,49,wg-a,,,,AAXX 07034 07481 12/01 92102 11050 21050 39963 40271 50000 60006 74944 89/// 90300=
07481,1998-02-07 06:00:00,-6,1026.8,-0.4,100,-6,100,0,,,0,-5.9,-3.6,,,,,,,,49,wg-a,,0,,AAXX 07064 07481 02/01 90000 11060 21060 39959 40268 56004 60006 74944 89/// 90600 333 11036 21059 4/9999 61000=
07481,1998-02-07 09:00:00,-5,1027.8,1.1,100,-5,200,0,,,0,,,,,,,,,,49,wg-a,,,,AAXX 07094 07481 12/02 90000 11050 21050 39970 40278 51011 60006 74944 89/// 90900=
07481,1998-02-07 12:00:00,-1,1027.4,0.1,100,-1,2000,0,,,0,,,,,,,,,,10,wg-a,,,,AAXX 07124 07481 12/20 70000 11010 21010 39971 40274 50001 60006 71042 84032 91200=
07481,1998-02-07 15:00:00,1,1027,-0.2,93,0,2800,7.408,,,30,,,,,,,,,,10,wg-a,,,,AAXX 07154 07481 12728 /0304 10010 20000 39969 40270 55002 60006 71022 8551/ 91500=
07481,1998-02-07 18:00:00,1,1029,2,93,0,3500,7.408,,,270,-6.1,2.2,,,,,,,,10,wg-a,,,,AAXX 07184 07481 12735 72704 10010 20000 39989 40290 53020 60006 71011 84532 91800 333 10022 21061=
07481,1998-02-07 21:00:00,2,1030,1,93,1,4000,7.408,,,160,,,,0,,,,,,10,wg-a,,,,AAXX 07214 07481 12540 81604 10020 20010 39999 40300 51010 60007 71062 875// 92100=
07481,1998-02-08 00:00:00,2,1031,1,93,1,3500,3.704,,,30,,,,,,,,,,10,wg-a,,,,AAXX 08004 07481 12435 80302 10020 20010 30009 40310 51010 60006 71062 875// 90000=
07481,1998-02-08 03:00:00,1,1031.2,0.1,100,1,1600,3.704,,,310,,,,,,,,,,10,wg-a,,,,AAXX 08034 07481 12316 83102 10010 20010 30010 40312 50001 60006 71022 886// 90300=
07481,1998-02-08 06:00:00,2,1031.1,-0,100,2,2000,11.112,,,340,1.1,2.4,,,,,,,,10,wg-a,,,,AAXX 08064 07481 02120 83406 10020 20020 30010 40311 54000 60006 71022 886// 90600 333 10024 20011 60004=
07481,1998-02-08 12:00:00,3,1031.5,-0.7,93,2,7000,7.408,,,350,,,,,,,,,,,wg-a,,,,AAXX 08124 07481 12357 /3504 10030 20020 30015 40315 58007 60006 851// 91200=
07481,1998-02-08 15:00:00,5,1030.4,-0.9,81,2,10000,11.112,,,50,,,,,,,,,,,wg-a,,,,AAXX 08154 07481 12/60 50506 10050 20020 30006 40304 56009 60006 80001 91500=
07481,1998-02-08 18:00:00,1,1030.9,0.1,93,0,8000,3.704,,,110,0.9,5.1,,,,,,,,,wg-a,,,,AAXX 08184 07481 12/58 /1102 10010 20000 30007 40309 53001 60006 80001 91800 333 10051 20009=
07481,1998-02-08 21:00:00,-1,1031.8,0.7,100,-1,500,7.408,,,130,,,,,,,,,,,wg-a,,,,AAXX 08214 07481 12/00 01304 11010 21010 30014 40318 51007 60006 80000 92100=
07481,1998-02-09 00:00:00,-2,1032.5,0.4,100,-2,100,3.704,,,80,,,,,,,,,,48,wg-a,,,,AAXX 09004 07481 12/01 90802 11020 21020 30018 40325 51004 60006 74841 89/// 90000=
07481,1998-02-09 03:00:00,-2,1031.8,-0.6,100,-2,200,3.704,,,160,,,,,,,,,,49,wg-a,,,,AAXX 09034 07481 12/02 91602 11020 21020 30012 40318 58006 60006 74944 89/// 90300=
07481,1998-02-09 06:00:00,-4,1031.6,-0.4,100,-4,100,0,,,0,-3.7,1,,,,,,,,49,wg-a,,,,AAXX 09064 07481 02/01 90000 11040 21040 30008 40316 56004 60006 74944 89/// 90600 333 10010 21037 60004=
07481,1998-02-09 09:00:00,-3,1032.3,0.8,100,-3,200,3.704,,,320,,,,,,,,,,49,wg-a,,,,AAXX 09094 07481 12/02 93202 11030 21030 30016 40323 51008 60006 74944 89/// 90900=
07481,1998-02-09 12:00:00,12,1029.8,-0.9,40,-1,10000,25.928,,,180,,,,,,,,,,2,wg-a,,,,AAXX 09124 07481 12/60 01814 10120 21010 30007 40298 58009 60006 70241 80000 91200=
07481,1998-02-09 15:00:00,13,1028.9,-0.7,28,-5,20000,29.632,,,180,,,,,,,,,,,wg-a,,,,AAXX 09154 07481 12/70 11816 10130 21050 30000 40289 56007 60006 80001 91500=
07481,1998-02-09 17:00:00,12,1030.5,0.9,38,-2,20000,14.816,,,140,-3.8,13.3,,,,,,,,,wg-a,,,,AAXX 09174 07481 12/70 11408 10120 21020 30000 40305 53009 60006 800/1 91700 333 10133 21038=
07481,1998-02-09 18:00:00,7,1030.5,0.9,57,-1,20000,14.816,,,140,-3.8,13.3,,,,,,,,,wg-a,,,,AAXX 09184 07481 12/70 11408 10070 21010 30009 40305 53009 60006 80001 91800 333 10133 21038=
07481,1998-02-09 21:00:00,7,1031.1,0.6,61,0,20000,18.52,,,150,,,,,,,,,,,wg-a,,,,AAXX 09214 07481 12/70 01510 10070 20000 30015 40311 51006 60006 80000 92100=
07481,1998-02-10 00:00:00,5,1032.2,0.9,60,-2,20000,14.816,,,150,,,,,,,,,,,wg-a,,,,AAXX 10004 07481 12/70 01508 10050 21020 30024 40322 51009 60006 80000 90000=
07481,1998-02-10 03:00:00,4,1032.4,0,81,1,18000,14.816,,,150,,,,,,,,,,,wg-a,,,,AAXX 10034 07481 12/68 01508 10040 20010 30024 40324 50000 60006 80000 90300=
07481,1998-02-10 06:00:00,3,1032.6,0.2,87,1,15000,7.408,,,150,2.9,8.6,,,,,,,,,wg-a,,,,AAXX 10064 07481 02/65 01504 10030 20010 30026 40326 53002 60006 80000 90600 333 10086 20029 60004=
07481,1998-02-10 12:00:00,14,1032.1,-0.6,38,0,15000,25.928,,,170,,,,,,,,,,,wg-a,,,,AAXX 10124 07481 12/65 11714 10140 20000 30031 40321 58006 60006 80001 91200=
07481,1998-02-10 15:00:00,15,1030.7,-1.2,33,-1,35000,18.52,,,160,,,,,,,,,,,wg-a,,,,AAXX 10154 07481 12/81 11610 10150 21010 30019 40307 56012 60006 80001 91500=
07481,1998-02-10 18:00:00,9,1031.6,0.3,53,0,25000,18.52,,,150,3.3,14.8,,,,,,,,,wg-a,,,,AAXX 10184 07481 12/75 01510 10090 20000 30022 40316 53003 60006 80000 91800 333 10148 20033=
07481,1998-02-10 21:00:00,7,1033.1,1.2,57,-1,25000,11.112,,,160,,,,,,,,,,,wg-a,,,,AAXX 10214 07481 12/75 01606 10070 21010 30034 40331 51012 60006 80000 92100=
07481,1998-02-11 00:00:00,3,1034.8,1.3,81,0,25000,3.704,,,100,,,,,,,,,,,wg-a,,,,AAXX 11004 07481 12/75 01002 10030 20000 30047 40348 51013 60006 80000 90000=
07481,1998-02-11 06:00:00,4,1034.1,-0.1,70,-1,20000,7.408,,,160,2.8,9.7,,,,,,,,,wg-a,,,,AAXX 11064 07481 02/70 01604 10040 21010 30040 40341 56001 60006 80000 90600 333 10097 20028 60004=
07481,1998-02-11 12:00:00,16,1032.9,-0.9,25,-4,12000,11.112,,,200,,,,,,,,,,,wg-a,,,,AAXX 11124 07481 12/62 12006 10160 21040 30041 40329 58009 60006 80001 91200=
07481,1998-02-11 15:00:00,17,1031.1,-1.6,23,-4,500,22.224,,,170,,,,,,,,,,,wg-a,,,,AAXX 11154 07481 12/00 11712 10170 21040 30025 40311 56016 60006 80001 91500=
07481,1998-02-11 18:00:00,11,1032.4,0.7,35,-4,35000,18.52,,,150,1.1,17.5,,,,,,,,,wg-a,,,,AAXX 11184 07481 12/81 11510 10110 21040 30032 40324 53007 60006 80001 91800 333 10175 20011=
07481,1998-02-11 21:00:00,8,1033.6,0.8,42,-4,500,3.704,,,160,,,,,,,,,,,wg-a,,,,AAXX 11214 07481 12/00 11602 10080 21040 30040 40336 53008 60006 80001 92100=
07481,1998-02-12 00:00:00,5,1034.8,0.9,56,-3,500,3.704,,,190,,,,,,,,,,,wg-a,,,,AAXX 12004 07481 12/00 11902 10050 21030 30049 40348 51009 60006 80001 90000=
07481,1998-02-12 03:00:00,7,1034.4,-0.3,39,-6,20000,7.408,,,190,,,,,,,,,,,wg-a,,,,AAXX 12034 07481 12/70 11904 10070 21060 30046 40344 56003 60006 80001 90300=
07481,1998-02-12 06:00:00,2,1035.6,0.8,69,-3,20000,3.704,,,140,1.6,11.5,,,,,,,,,wg-a,,,,AAXX 12064 07481 02/70 11402 10020 21030 30054 40356 53008 60006 80001 90600 333 10115 20016 60004=
07481,1998-02-12 09:00:00,7,1035.7,0.6,57,-1,20000,3.704,,,210,,,,,,,,,,,wg-a,,,,AAXX 12094 07481 12/70 22102 10070 21010 30060 40357 52006 60006 80001 90900=
07481,1998-02-12 12:00:00,12,1034.3,-0.8,47,1,500,3.704,,,360,,,,,,,,,,,wg-a,,,,AAXX 12124 07481 12/00 13602 10120 20010 30052 40343 58008 60006 80001 91200=
07481,1998-02-12 15:00:00,16,1032.8,-1.2,39,2,25000,7.408,,,300,,,,,,,,,,,wg-a,,,,AAXX 12154 07481 12/75 13004 10160 20020 30040 40328 56012 60006 80001 91500=
07481,1998-02-12 18:00:00,11,1033.6,0.3,50,1,25000,3.704,,,140,2.2,16.2,,,,,,,,,wg-a,,,,AAXX 12184 07481 12/75 11402 10110 20010 30043 40336 53003 60006 80001 91800 333 10162 20022=
07481,1998-02-12 21:00:00,6,1034.6,0.5,70,1,25000,3.704,,,160,,,,,,,,,,,wg-a,,,,AAXX 12214 07481 12/75 11602 10060 20010 30048 40346 51005 60006 80001 92100=
07481,1998-02-13 00:00:00,4,1035.3,0.5,81,1,20000,3.704,,,180,,,,,,,,,,,wg-a,,,,AAXX 13004 07481 12/70 01802 10040 20010 30053 40353 52005 60006 80000 90000=
07481,1998-02-13 03:00:00,2,1035.3,-0.2,87,0,20000,7.408,,,140,,,,,,,,,,,wg-a,,,,AAXX 13034 07481 12/70 01404 10020 20000 30051 40353 58002 60006 80000 90300=
07481,1998-02-13 09:00:00,5,1036.1,0.7,81,2,6000,0,,,0,,,,,,,,,,,wg-a,,,,AAXX 13094 07481 12/56 10000 10050 20020 30061 40361 52007 60006 80001 90900=
07481,1998-02-13 12:00:00,14,1034.5,-0.6,44,2,8000,0,,,0,,,,,,,,,,,wg-a,,,,AAXX 13124 07481 12/58 00000 10140 20020 30055 40345 58006 60006 80000 91200=
07481,1998-02-13 15:00:00,15,1032.7,-1.6,44,3,9000,3.704,,,310,,,,,,,,,,,wg-a,,,,AAXX 13154 07481 12/59 /3102 10150 20030 30039 40327 56016 60006 80000 91500=
07481,1998-02-13 18:00:00,10,1033.3,-0,62,3,8000,3.704,,,330,0.9,16.2,,,,,,,,,wg-a,,,,AAXX 13184 07481 12/58 03302 10100 20030 30039 40333 55000 60006 80000 91800 333 10162 20009=
07481,1998-02-13 21:00:00,7,1034.2,0.6,70,2,8000,3.704,,,170,,,,,,,,,,,wg-a,,,,AAXX 13214 07481 12/58 01702 10070 20020 30045 40342 52006 60006 80000 92100=
07481,1998-02-14 00:00:00,5,1034.7,0.3,81,2,7000,11.112,,,150,,,,,,,,,,,wg-a,,,,AAXX 14004 07481 12/57 01506 10050 20020 30048 40347 52003 60006 80000 90000=
07481,1998-02-14 03:00:00,3,1034.4,-0.5,93,2,500,3.704,,,180,,,,,,,,,,,wg-a,,,,AAXX 14034 07481 12/00 01802 10030 20020 30043 40344 56005 60006 80000 90300=
07481,1998-02-14 06:00:00,1,1034.8,0.2,100,1,2000,3.704,,,140,0.9,9.6,,,,,,,,10,wg-a,,,,AAXX 14064 07481 02/20 01402 10010 20010 30045 40348 52002 60006 71000 80000 90600 333 10096 20009 60004=
07481,1998-02-14 09:00:00,6,1035,0.7,81,3,3500,0,,,0,,,,,,,,,,10,wg-a,,,,AAXX 14094 07481 12/35 00000 10060 20030 30052 40350 51007 60006 71000 80000 90900=
07481,1998-02-14 12:00:00,18,1032.7,-0.3,56,9,500,0,,,300,,,,,,,,,,,wg-a,,,,AAXX 14124 07481 12/00 030// 10180 20090 30044 40327 58003 60006 80000 91200=
07481,1998-02-14 15:00:00,15,1032.4,-1.3,51,5,10000,3.704,,,360,,,,,,,,,,,wg-a,,,,AAXX 14154 07481 12/60 03602 10150 20050 30036 40324 56013 60006 80000 91500=
07481,1998-02-14 18:00:00,10,1033.4,0.5,71,5,9000,7.408,,,360,0.7,15.4,,,,,,,,,wg-a,,,,AAXX 14184 07481 12/59 23604 10100 20050 30041 40334 53005 60006 80001 91800 333 10154 20007=
07481,1998-02-14 21:00:00,6,1035,1.1,81,3,9000,3.704,,,190,,,,,,,,,,,wg-a,,,,AAXX 14214 07481 12/59 /1902 10060 20030 30052 40350 51011 60006 80001 92100=
07481,1998-02-15 00:00:00,4,1034.8,-0.4,93,3,6000,0,,,0,,,,,,,,,,,wg-a,,,,AAXX 15004 07481 12/56 /0000 10040 20030 30048 40348 58004 60006 80001 90000=
07481,1998-02-15 03:00:00,3,1034.4,-0.5,93,2,500,3.704,,,140,,,,,,,,,,,wg-a,,,,AAXX 15034 07481 12/00 /1402 10030 20020 30043 40344 58005 60006 80000 90300=
07481,1998-02-15 06:00:00,1,1034.7,0.1,100,1,3500,7.408,,,210,1,9.9,,,,,,,,10,wg-a,,,,AAXX 15064 07481 02/35 02104 10010 20010 30044 40347 53001 60006 71000 80000 90600 333 10099 20010 60004=
07481,1998-02-15 09:00:00,4,1035,0.6,100,4,1000,3.704,,,90,,,,,,,,,,28,wg-a,,,,AAXX 15094 07481 12/10 00902 10040 20040 30050 40350 50006 60006 72840 80000 90900=
07481,1998-02-15 12:00:00,11,1033.3,-1,71,6,4500,7.408,,,360,,,,,,,,,,10,wg-a,,,,AAXX 15124 07481 12/45 03604 10110 20060 30040 40333 58010 60006 71040 80000 91200=
07481,1998-02-15 15:00:00,14,1031.1,-1.8,58,6,8000,7.408,,,10,,,,,,,,,,,wg-a,,,,AAXX 15154 07481 12/58 30104 10140 20060 30022 40311 56018 60006 80002 91500=
07481,1998-02-15 18:00:00,10,1031.5,-0,76,6,8000,3.704,,,40,1.2,13.9,,,,,,,,,wg-a,,,,AAXX 15184 07481 12/58 /0402 10100 20060 30022 40315 55000 60006 80002 91800 333 10139 20012=
07481,1998-02-15 21:00:00,7,1031.3,-0.5,87,5,8000,7.408,,,160,,,,,,,,,,,wg-a,,,,AAXX 15214 07481 12/58 /1604 10070 20050 30017 40313 56005 60006 80000 92100=
07481,1998-02-16 00:00:00,5,1031.2,-0.3,93,4,500,11.112,,,160,,,,,,,,,,,wg-a,,,,AAXX 16004 07481 12/00 01606 10050 20040 30014 40312 56003 60006 80000 90000=
07481,1998-02-16 03:00:00,5,1030.3,-0.9,93,4,3500,14.816,,,160,,,,,,,,,,10,wg-a,,,,AAXX 16034 07481 12/35 01608 10050 20040 30005 40303 58009 60006 71000 80000 90300=
07481,1998-02-16 06:00:00,4,1030.2,-0.2,93,3,4000,11.112,,,170,2.6,9.5,,,,,,,,10,wg-a,,,,AAXX 16064 07481 02/40 /1706 10040 20030 30003 40302 55002 60006 71000 80001 90600 333 10095 20026 60004=
07481,1998-02-16 09:00:00,7,1030,0.2,81,4,7000,11.112,,,160,,,,,,,,,,,wg-a,,,,AAXX 16094 07481 12/57 /1606 10070 20040 30005 40300 53002 60006 81032 90900=
07481,1998-02-16 12:00:00,15,1027.9,-1.3,55,6,8000,7.408,,,200,,,,,,,,,,,wg-a,,,,AAXX 16124 07481 12/58 72004 10150 20060 39992 40279 58013 60006 81032 91200=
07481,1998-02-16 15:00:00,17,1026.3,-1.3,48,6,9000,3.704,,,140,,,,,,,,,,,wg-a,,,,AAXX 16154 07481 12/59 71402 10170 20060 39979 40263 56013 60006 81032 91500=
07481,1998-02-16 18:00:00,12,1027.2,0.4,71,7,8000,7.408,,,330,2.6,17.2,,,,,,,,,wg-a,,,,AAXX 16184 07481 12/58 73304 10120 20070 39983 40272 53004 60006 82032 91800 333 10172 20026=
07481,1998-02-16 21:00:00,12,1029,1.7,82,9,10000,14.816,,,350,,,,,,,,,,,wg-a,,,,AAXX 16214 07481 12/60 83508 10120 20090 30000 40290 51017 60006 8703/ 92100=
07481,1998-02-17 00:00:00,8,1030.4,1,87,6,15000,11.112,,,340,,,,,,,,,,,wg-a,,,,AAXX 17004 07481 12665 43406 10080 20060 30010 40304 51010 60006 84500 90000=
07481,1998-02-17 03:00:00,9,1030.7,0.3,81,6,15000,14.816,,,340,,,,,,,,,,,wg-a,,,,AAXX 17034 07481 12565 73408 10090 20060 30013 40307 52003 60006 875// 90300=
07481,1998-02-17 06:00:00,7,1031.5,0.6,87,5,15000,18.52,,,340,6.7,12.1,,,,,,,,,wg-a,,,,AAXX 17064 07481 02665 /3410 10070 20050 30019 40315 52006 60006 85500 90600 333 10121 20067 60004=
07481,1998-02-17 09:00:00,9,1032.4,1.1,71,4,25000,25.928,,,350,,,,,,,,,,,wg-a,,,,AAXX 17094 07481 12475 /3514 10090 20040 30030 40324 51011 60006 81800 90900=
07481,1998-02-17 12:00:00,11,1033.1,0.9,66,5,20000,29.632,,,350,,,,,,,,,,,wg-a,,,,AAXX 17124 07481 12570 23516 10110 20050 30039 40331 52009 60006 82800 91200=
07481,1998-02-17 15:00:00,11,1032.7,-0.4,66,5,20000,29.632,,,340,,,,,,,,,,,wg-a,,,,AAXX 17154 07481 12470 /3416 10110 20050 30035 40327 55004 60006 81100 91500=
07481,1998-02-17 18:00:00,8,1034.8,1.7,76,4,20000,18.52,,,340,6.8,11.3,,,,,,,,,wg-a,,,,AAXX 17184 07481 12/70 /3410 10080 20040 30052 40348 51017 60006 80000 91800 333 10113 20068=
07481,1998-02-17 21:00:00,5,1036,0.8,81,2,500,7.408,,,290,,,,,,,,,,,wg-a,,,,AAXX 17214 07481 12/00 02904 10050 20020 30060 40360 53008 60006 80000 92100=
07481,1998-02-18 00:00:00,3,1036.3,0.2,100,3,500,3.704,,,260,,,,,,,,,,,wg-a,,,,AAXX 18004 07481 12/00 02602 10030 20030 30062 40363 52002 60006 80000 90000=
07481,1998-02-18 03:00:00,4,1036.2,-0.1,93,3,15000,0,,,0,,,,,,,,,,,wg-a,,,,AAXX 18034 07481 12265 70000 10040 20030 30061 40362 57001 60006 876// 90300=
07481,1998-02-18 06:00:00,4,1036.1,-0.1,93,3,500,3.704,,,60,2.5,7.9,,,,,,,,,wg-a,,,,AAXX 18064 07481 02100 80602 10040 20030 30060 40361 58001 60006 886// 90600 333 10079 20025 60004=
07481,1998-02-18 09:00:00,4,1036.2,0.2,100,4,3500,7.408,,,150,,,,,,,,,,10,wg-a,,,,AAXX 18094 07481 12235 81504 10040 20040 30062 40362 50002 60006 71042 886// 90900=
07481,1998-02-18 12:00:00,10,1034,-1.6,71,5,8000,3.704,,,20,,,,,,,,,,1,wg-a,,,,AAXX 18124 07481 12/58 00202 10100 20050 30046 40340 58016 60006 70141 80000 91200=
07481,1998-02-18 15:00:00,13,1031.4,-2.1,67,7,8000,7.408,,,10,,,,,,,,,,,wg-a,,,,AAXX 18154 07481 12/58 00104 10130 20070 30025 40314 56021 60006 80000 91500=
07481,1998-02-18 18:00:00,9,1031.8,-0.1,81,6,8000,0,,,0,3.2,13.5,,,,,,,,,wg-a,,,,AAXX 18184 07481 12/58 00000 10090 20060 30024 40318 55001 60006 80000 91800 333 10135 20032=
07481,1998-02-18 21:00:00,14,1031.7,0.4,41,1,10000,18.52,,,170,,,,,,,,,,,wg-a,,,,AAXX 18214 07481 12/60 01710 10140 20010 30028 40317 51004 60006 80000 92100=
07481,1998-02-19 00:00:00,13,1032.5,0.6,44,1,10000,18.52,,,170,,,,,,,,,,,wg-a,,,,AAXX 19004 07481 12/60 01710 10130 20010 30034 40325 53006 60006 80000 90000=
07481,1998-02-19 03:00:00,7,1032.6,-0.4,66,1,12000,11.112,,,120,,,,,,,,,,,wg-a,,,,AAXX 19034 07481 12/62 01206 10070 20010 30030 40326 58004 60006 80000 90300=
07481,1998-02-19 06:00:00,6,1032.7,-0,70,1,15000,7.408,,,160,5.7,14.5,,,,,,,,,wg-a,,,,AAXX 19064 07481 02/65 01604 10060 20010 30030 40327 55000 60006 80000 90600 333 10145 20057 60004=
07481,1998-02-19 09:00:00,9,1033.3,0.9,57,1,15000,7.408,,,190,,,,,,,,,,,wg-a,,,,AAXX 19094 07481 12/65 21904 10090 20010 30039 40333 51009 60006 80001 90900=
07481,1998-02-19 12:00:00,15,1031.8,-0.9,41,2,15000,3.704,,,330,,,,,,,,,,,wg-a,,,,AAXX 19124 07481 12/65 43302 10150 20020 30030 40318 58009 60006 80001 91200=
07481,1998-02-19 15:00:00,17,1029.5,-2,36,2,20000,7.408,,,360,,,,,,,,,,,wg-a,,,,AAXX 19154 07481 12/70 33604 10170 20020 30010 40295 56020 60006 80001 91500=
07481,1998-02-19 18:00:00,11,1029.9,-0.2,58,3,15000,3.704,,,320,4.4,17.3,,,,,,,,,wg-a,,,,AAXX 19184 07481 12/65 23202 10110 20030 30008 40299 55002 60006 80001 91800 333 10173 20044=
07481,1998-02-19 21:00:00,8,1029.7,-0.5,71,3,12000,3.704,,,240,,,,,,,,,,,wg-a,,,,AAXX 19214 07481 12/62 12402 10080 20030 30003 40297 55005 60006 80001 92100=
07481,1998-02-20 00:00:00,5,1029.1,-0.9,87,3,8000,3.704,,,160,,,,,,,,,,,wg-a,,,,AAXX 20004 07481 12/58 /1602 10050 20030 39994 40291 57009 60006 80001 90000=
07481,1998-02-20 03:00:00,5,1027.5,-1.6,87,3,7000,7.408,,,160,,,,,,,,,,,wg-a,,,,AAXX 20034 07481 12/57 /1604 10050 20030 39978 40275 58016 60006 80001 90300=
07481,1998-02-20 06:00:00,3,1026.7,-1,93,2,500,3.704,,,220,2.3,11.4,,,,,,,,,wg-a,,,,AAXX 20064 07481 02/00 22202 10030 20020 39968 40267 56010 60006 80001 90600 333 10114 20023 60004=
07481,1998-02-20 09:00:00,6,1026.1,-0.2,93,5,4500,0,,,0,,,,,,,,,,10,wg-a,,,,AAXX 20094 07481 12/45 30000 10060 20050 39966 40261 58002 60006 71000 80001 90900=
07481,1998-02-20 12:00:00,17,1023.2,-1.7,39,3,9000,11.112,,,150,,,,,,,,,,,wg-a,,,,AAXX 20124 07481 12/59 41506 10170 20030 39949 40232 58017 60006 80001 91200=
07481,1998-02-20 15:00:00,18,1021,-2.1,37,3,12000,29.632,,,170,,,,,,,,,,,wg-a,,,,AAXX 20154 07481 12/62 61716 10180 20030 39928 40210 56021 60006 80002 91500=
07481,1998-02-20 18:00:00,14,1022.1,0.7,58,6,12000,22.224,,,190,2.2,18.9,,,,,,,,,wg-a,,,,AAXX 20184 07481 12/62 61912 10140 20060 39935 40221 53007 60006 80002 91800 333 10189 20022=
07481,1998-02-20 21:00:00,12,1023.1,0.8,67,6,12000,25.928,,,180,,,,,,,,,,,wg-a,,,,AAXX 20214 07481 12/62 61814 10120 20060 39943 40231 52008 60006 80002 92100=
07481,1998-02-21 00:00:00,11,1023.8,0.5,71,6,15000,18.52,,,180,,,,,,,,,,,wg-a,,,,AAXX 21004 07481 12/65 61810 10110 20060 39948 40238 50005 60006 80002 90000=
07481,1998-02-21 03:00:00,10,1023.1,-0.7,71,5,15000,14.816,,,190,,,,,,,,,,,wg-a,,,,AAXX 21034 07481 12/65 51908 10100 20050 39941 40231 56007 60006 80002 90300=
07481,1998-02-21 06:00:00,9,1022.6,-0.6,66,3,15000,14.816,,,150,8.8,13.8,,,,,,,,,wg-a,,,,AAXX 21064 07481 02/65 51508 10090 20030 39935 40226 56006 60006 80002 90600 333 10138 20088 60004=
07481,1998-02-21 09:00:00,12,1022.5,0.2,54,3,15000,22.224,,,190,,,,,,,,,,,wg-a,,,,AAXX 21094 07481 12/65 51912 10120 20030 39937 40225 52002 60006 80002 90900=
07481,1998-02-21 12:00:00,16,1020.7,-1.3,39,2,20000,31.484,,48.152,200,,,,,,,,,,,wg-a,,,,AAXX 21124 07481 12/70 72017 10160 20020 39924 40207 58013 60006 80002 91200 333 91026=
07481,1998-02-21 15:00:00,16,1019.4,-1.3,42,3,20000,38.892,,,220,,,,,,,,,,,wg-a,,,,AAXX 21154 07481 12/70 72221 10160 20030 39911 40194 55013 60006 81048 91500=
07481,1998-02-21 18:00:00,14,1020.9,1.2,51,4,20000,29.632,,,220,8.2,17.9,,,,,,,,,wg-a,,,,AAXX 21184 07481 12870 72216 10140 20040 39923 40209 51012 60006 815/8 91800 333 10179 20082=
07481,1998-02-21 21:00:00,14,1021.5,0.6,51,4,20000,31.484,,,210,,,,,,,,,,60,wg-a,,,,AAXX 21214 07481 02870 82117 10140 20040 39929 40215 51006 61000 76062 8257/ 92100 333 ////=
07481,1998-02-22 00:00:00,12,1020.8,-0.9,58,4,20000,22.224,,,200,,,,0,,,,,,60,wg-a,,,,AAXX 22004 07481 02570 82012 10120 20040 39920 40208 58009 60006 76062 8587/ 90000 333 60007=
07481,1998-02-22 03:00:00,11,1019.7,-1.1,62,4,20000,11.112,,,230,,,,,,,,,,2,wg-a,,,,AAXX 22034 07481 02770 82306 10110 20040 39909 40197 58011 61000 70262 8457/ 90300 333 ////=
07481,1998-02-22 06:00:00,8,1020.7,0.7,100,8,6000,11.112,,,120,8.1,14.5,,,,,,,,63,wg-a,,,,AAXX 22064 07481 02556 81206 10080 20080 39916 40207 50007 61000 76362 8557/ 90600 333 10145 20081 6010=
07481,1998-02-22 09:00:00,8,1022.8,2,100,8,15000,18.52,,,200,,,,4,,,,,,60,wg-a,,,,AAXX 22094 07481 12665 82010 10080 20080 39936 40228 51020 60047 76066 878// 90900=
07481,1998-02-22 12:00:00,7,1024.2,1.3,93,6,25000,14.816,,,340,,,,5,,,,,,60,wg-a,,,,AAXX 22124 07481 02475 83408 10070 20060 39949 40242 50013 60086 76066 878// 91200 333 60057=
07481,1998-02-22 15:00:00,8,1024.3,0.1,87,6,12000,14.816,,,110,,,,,,,,,,15,wg-a,,,,AAXX 22154 07481 02462 81108 10080 20060 39950 40243 51001 61000 71562 83972 91500 333 ////=
07481,1998-02-22 18:00:00,6,1025.5,1,87,4,25000,14.816,,,190,5.8,8.7,,,,,,,,60,wg-a,,,,AAXX 22184 07481 02575 81908 10060 20040 39960 40255 53010 61000 76062 83942 91800 333 10087 20058 6001=
07481,1998-02-22 21:00:00,4,1027.6,1.8,100,4,15000,11.112,,,40,,,,5,,,,,,61,wg-a,,,,AAXX 22214 07481 12465 80406 10040 20040 39978 40276 51018 60057 76187 8637/ 92100=
07481,1998-02-23 00:00:00,5,1027.9,0.4,93,4,18000,22.224,,,340,,,,2,,,,,,1,wg-a,,,,AAXX 23004 07481 02468 83412 10050 20040 39982 40279 50004 60076 70187 878// 90000 333 60027=
07481,1998-02-23 03:00:00,5,1027.8,-0.1,87,3,18000,25.928,,,340,,,,,,,,,,,wg-a,,,,AAXX 23034 07481 12468 83414 10050 20030 39981 40278 58001 60006 878// 90300=
07481,1998-02-23 06:00:00,5,1028.4,0.6,81,2,18000,29.632,,50.004,340,3.9,6.1,,,,,16,,,,wg-a,,,,AAXX 23064 07481 02468 83416 10050 20020 39987 40284 53006 60006 878// 90600 333 10061 20039 60164 91027=
07481,1998-02-23 09:00:00,4,1030,1.4,87,2,12000,29.632,,48.152,340,,,,,,,,,,60,wg-a,,,,AAXX 23094 07481 02462 83416 10040 20020 30001 40300 53014 61000 76062 878// 90900 333 //// 91026=
07481,1998-02-23 12:00:00,5,1030.9,1,87,3,10000,29.632,,,340,,,,,,,,,,3,wg-a,,,,AAXX 23124 07481 02360 73416 10050 20030 30011 40309 50010 61000 70362 878// 91200 333 6100=
07481,1998-02-23 15:00:00,6,1031,0.2,81,3,9000,31.484,,46.3,350,,,,,,,,,,,wg-a,,,,AAXX 23154 07481 12359 73517 10060 20030 30013 40310 53002 60006 878// 91500 333 91025=
07481,1998-02-23 18:00:00,6,1032.2,1.2,81,3,10000,29.632,,,350,4,6.4,,,,,,,,,wg-a,,,,AAXX 23184 07481 12460 83516 10060 20030 30025 40322 53012 60006 878// 91800 333 10064 20040=
07481,1998-02-23 21:00:00,6,1032.8,0.6,81,3,10000,29.632,,,350,,,,,,,,,,,wg-a,,,,AAXX 23214 07481 12460 73516 10060 20030 30031 40328 51006 60006 875// 92100=
07481,1998-02-24 00:00:00,5,1032.7,-0.2,81,2,10000,22.224,,,350,,,,,,,,,,,wg-a,,,,AAXX 24004 07481 12560 /3512 10050 20020 30029 40327 56002 60006 83502 90000=
07481,1998-02-24 03:00:00,5,1032.6,-0.2,81,2,20000,22.224,,,350,,,,,,,,,,,wg-a,,,,AAXX 24034 07481 12670 73512 10050 20020 30027 40326 55002 60006 875// 90300=
07481,1998-02-24 06:00:00,4,1033.6,0.9,87,2,20000,14.816,,,340,3.4,6.4,,,,,,,,,wg-a,,,,AAXX 24064 07481 02470 73408 10040 20020 30036 40336 53009 60006 875// 90600 333 10064 20034 61000=
07481,1998-02-24 09:00:00,4,1035.3,1.7,87,2,10000,7.408,,,350,,,,,,,,,,,wg-a,,,,AAXX 24094 07481 12460 73504 10040 20020 30053 40353 51017 60006 875// 90900=
07481,1998-02-24 12:00:00,9,1034.2,-0.6,71,4,10000,11.112,,,360,,,,,,,,,,,wg-a,,,,AAXX 24124 07481 12460 63606 10090 20040 30047 40342 58006 60006 86600 91200=
07481,1998-02-24 15:00:00,9,1032.9,-1.2,81,6,20000,11.112,,,140,,,,,,,,,,,wg-a,,,,AAXX 24154 07481 12570 81406 10090 20060 30035 40329 56012 60006 875// 91500=
07481,1998-02-24 18:00:00,9,1033.7,0.7,61,2,20000,14.816,,,350,3.5,10.8,,,,,,,,,wg-a,,,,AAXX 24184 07481 12670 53508 10090 20020 30042 40337 53007 60006 82531 91800 333 10108 20035=
07481,1998-02-24 21:00:00,7,1034.2,0.4,93,6,18000,11.112,,,340,,,,,,,,,,,wg-a,,,,AAXX 24214 07481 12468 63406 10070 20060 30046 40342 52004 60006 86500 92100=
07481,1998-02-25 00:00:00,7,1034.4,0.1,93,6,10000,11.112,,,330,,,,,,,,,,,wg-a,,,,AAXX 25004 07481 12460 73306 10070 20060 30047 40344 50001 60006 875// 90000=
07481,1998-02-25 03:00:00,7,1034,-0.4,93,6,7000,7.408,,,340,,,,,,,,,,,wg-a,,,,AAXX 25034 07481 12457 83404 10070 20060 30043 40340 58004 60006 875// 90300=
07481,1998-02-25 06:00:00,6,1034.5,0.5,93,5,6000,7.408,,,340,6.2,8.8,,,,,,,,,wg-a,,,,AAXX 25064 07481 02456 83404 10060 20050 30048 40345 52005 60006 875// 90600 333 10088 20062 60004=
07481,1998-02-25 09:00:00,6,1035.1,0.5,93,5,6000,11.112,,,330,,,,,,,,,,,wg-a,,,,AAXX 25094 07481 12356 83306 10060 20050 30053 40351 53005 60006 876// 90900=
07481,1998-02-25 12:00:00,7,1034.3,-0.6,87,5,6000,11.112,,,330,,,,,,,,,,,wg-a,,,,AAXX 25124 07481 12356 83306 10070 20050 30047 40343 58006 60006 875// 91200=
07481,1998-02-25 18:00:00,8,1032.7,-0.1,87,6,6000,7.408,,,120,6,8.7,,,,,,,,,wg-a,,,,AAXX 25184 07481 12556 71204 10080 20060 30032 40327 55001 60006 875// 91800 333 10087 20060=
07481,1998-02-25 21:00:00,8,1033,0.3,87,6,6000,11.112,,,150,,,,,,,,,,,wg-a,,,,AAXX 25214 07481 12656 71506 10080 20060 30035 40330 53003 60006 875// 92100=
07481,1998-02-26 00:00:00,6,1033.3,-0,93,5,6000,7.408,,,140,,,,,,,,,,,wg-a,,,,AAXX 26004 07481 12/56 01404 10060 20050 30035 40333 55000 60006 80000 90000=
07481,1998-02-26 03:00:00,6,1033.3,0,93,5,6000,7.408,,,160,,,,,,,,,,,wg-a,,,,AAXX 26034 07481 12656 71604 10060 20050 30035 40333 50000 60006 875// 90300=
07481,1998-02-26 06:00:00,3,1033.8,0.2,100,3,3000,7.408,,,140,2.6,8.5,,,,,,,,10,wg-a,,,,AAXX 26064 07481 02/30 /1404 10030 20030 30037 40338 53002 60006 71011 80000 90600 333 10085 20026 60004=
07481,1998-02-26 09:00:00,6,1034.2,0.7,93,5,1200,7.408,,,120,,,,,,,,,,40,wg-a,,,,AAXX 26094 07481 12/12 01204 10060 20050 30044 40342 51007 60006 74040 80000 90900=
07481,1998-02-26 12:00:00,12,1032.8,-0.7,71,7,6000,3.704,,,320,,,,,,,,,,2,wg-a,,,,AAXX 26124 07481 12/56 03202 10120 20070 30037 40328 58007 60006 70240 80000 91200=
07481,1998-02-26 15:00:00,15,1030.9,-1.6,55,6,12000,3.704,,,340,,,,,,,,,,,wg-a,,,,AAXX 26154 07481 12662 /3402 10150 20060 30021 40309 56016 60006 81200 91500=
07481,1998-02-27 00:00:00,6,1031.8,-0.7,93,5,4000,3.704,,,210,,,,,,,,,,10,wg-a,,,,AAXX 27004 07481 12/40 02102 10060 20050 30021 40318 58007 60006 71000 80000 90000=
07481,1998-02-27 03:00:00,4,1031.3,-0.7,100,4,900,0,,,0,,,,,,,,,,41,wg-a,,,,AAXX 27034 07481 12609 50000 10040 20040 30014 40313 56007 60006 74141 85500 90300=
07481,1998-02-27 06:00:00,6,1030.4,-0.7,93,5,3500,7.408,,,160,4,9.8,,,,,,,,10,wg-a,,,,AAXX 27064 07481 02635 71604 10060 20050 30007 40304 58007 60006 71041 875// 90600 333 10098 20040 60004=
07481,1998-02-27 09:00:00,7,1030.6,0.4,93,6,3000,0,,,0,,,,,,,,,,10,wg-a,,,,AAXX 27094 07481 12530 70000 10070 20060 30011 40306 51004 60006 71022 875// 90900=
07481,1998-02-27 12:00:00,11,1028.9,-1.3,71,6,500,7.408,,,110,,,,,,,,,,,wg-a,,,,AAXX 27124 07481 12500 71104 10110 20060 39998 40289 58013 60006 875// 91200=
07481,1998-02-27 15:00:00,13,1026.1,-2.5,58,5,10000,3.704,,,60,,,,,,,,,,,wg-a,,,,AAXX 27154 07481 12660 20602 10130 20050 39973 40261 56025 60006 82500 91500=
07481,1998-02-27 18:00:00,9,1025.8,-0.7,76,5,10000,3.704,,,80,5.5,13.2,,,,,,,,,wg-a,,,,AAXX 27184 07481 12/60 00802 10090 20050 39966 40258 55007 60006 80000 91800 333 10132 20055=
07481,1998-02-27 21:00:00,7,1025.6,-0.4,87,5,12000,3.704,,,170,,,,,,,,,,,wg-a,,,,AAXX 27214 07481 12/62 01702 10070 20050 39962 40256 58004 60006 80000 92100=
07481,1998-02-28 00:00:00,5,1024.3,-1.5,87,3,9000,3.704,,,180,,,,,,,,,,,wg-a,,,,AAXX 28004 07481 12/59 01802 10050 20030 39947 40243 58015 60006 80000 90000=
07481,1998-02-28 03:00:00,6,1022.7,-1.5,93,5,6000,7.408,,,20,,,,,,,,,,11,wg-a,,,,AAXX 28034 07481 12556 70204 10060 20050 39932 40227 56015 60006 71111 875// 90300=
07481,1998-02-28 06:00:00,6,1022.6,-0,100,6,6000,3.704,,,50,3.9,9.6,,,,,,,,,wg-a,,,,AAXX 28064 07481 02456 80502 10060 20060 39932 40226 55000 60006 885// 90600 333 10096 20039 60004=
07481,1998-02-28 09:00:00,8,1022.4,0,87,6,6000,11.112,,,170,,,,,,,,,,,wg-a,,,,AAXX 28094 07481 12656 71706 10080 20060 39932 40224 50000 60006 875// 90900=
07481,1998-02-28 12:00:00,10,1021.1,-1,71,5,10000,7.408,,,220,,,,,,,,,,,wg-a,,,,AAXX 28124 07481 12460 72204 10100 20050 39922 40211 58010 60006 878// 91200=
07481,1998-02-28 15:00:00,11,1019.1,-1.9,58,3,15000,3.704,,,140,,,,,,,,,,,wg-a,,,,AAXX 28154 07481 12565 71402 10110 20030 39903 40191 56019 60006 878// 91500=
07481,1998-02-28 18:00:00,9,1019.7,0.4,87,7,20000,3.704,,,250,6.4,11.3,,0,,,,,,3,wg-a,,,,AAXX 28184 07481 02570 72502 10090 20070 39907 40197 53004 60006 70362 878// 91800 333 10113 20064 60007=
07481,1998-02-28 21:00:00,8,1019.8,-0,87,6,20000,3.704,,,220,,,,,,,,,,21,wg-a,,,,AAXX 28214 07481 02470 /2202 10080 20060 39907 40198 54000 61000 72162 83830 92100 333 ////=
07481,1998-03-01 00:00:00,6,1019.5,-0.5,87,4,25000,7.408,,,160,,,,,,,,,,1,wg-a,,,,AAXX 01004 07481 02675 41604 10060 20040 39902 40195 56005 61000 70161 81530 90000 333 ////=
07481,1998-03-01 03:00:00,6,1019.2,-0.3,93,5,25000,7.408,,,160,,,,,,,,,,,wg-a,,,,AAXX 01034 07481 12675 71604 10060 20050 39899 40192 58003 60006 8557/ 90300=
07481,1998-03-01 06:00:00,6,1020.8,1.5,93,5,20000,0,,,0,5.8,9.4,,,,,,,,21,wg-a,,,,AAXX 01064 07481 02570 70000 10060 20050 39914 40208 51015 61000 72161 875// 90600 333 10094 20058 6001=
07481,1998-03-01 09:00:00,7,1022.3,1.6,87,5,25000,3.704,,,200,,,,,,,,,,,wg-a,,,,AAXX 01094 07481 12475 72002 10070 20050 39930 40223 51016 60006 85831 90900=
07481,1998-03-01 12:00:00,9,1022.9,0.7,61,2,25000,11.112,,,290,,,,,,,,,,,wg-a,,,,AAXX 01124 07481 12575 72906 10090 20020 39937 40229 50007 60006 878// 91200=
07481,1998-03-01 15:00:00,10,1022.2,-0.6,50,0,40000,0,,,0,,,,,,,,,,,wg-a,,,,AAXX 01154 07481 12582 60000 10100 20000 39931 40222 58006 60006 85801 91500=
07481,1998-03-01 18:00:00,7,1023.4,1,66,1,35000,3.704,,,40,5.3,10,,,,,,,,,wg-a,,,,AAXX 01184 07481 12781 40402 10070 20010 39941 40234 53010 60006 83501 91800 333 10100 20053=
07481,1998-03-01 21:00:00,7,1024.3,0.8,66,1,500,7.408,,,160,,,,,,,,,,,wg-a,,,,AAXX 01214 07481 12700 41604 10070 20010 39949 40243 53008 60006 84500 92100=
07481,1998-03-02 00:00:00,6,1025.1,0.7,75,2,500,3.704,,,240,,,,,,,,,,,wg-a,,,,AAXX 02004 07481 12700 62402 10060 20020 39956 40251 53007 60006 81532 90000=
07481,1998-03-02 03:00:00,6,1025.1,-0.1,75,2,25000,7.408,,,180,,,,,,,,,,,wg-a,,,,AAXX 02034 07481 12675 71804 10060 20020 39955 40251 58001 60006 8453/ 90300=
07481,1998-03-02 06:00:00,5,1025.2,-0,81,2,18000,7.408,,,140,4.7,7.3,,,,,,,,,wg-a,,,,AAXX 02064 07481 02668 /1404 10050 20020 39955 40252 55000 60006 84530 90600 333 10073 20047 60004=
07481,1998-03-02 09:00:00,9,1026,1.3,57,1,13000,0,,,0,,,,,,,,,,,wg-a,,,,AAXX 02094 07481 12763 60000 10090 20010 39968 40260 53013 60006 81532 90900=
07481,1998-03-02 15:00:00,11,1024.5,-1.1,47,0,500,3.704,,,70,,,,,,,,,,,wg-a,,,,AAXX 02154 07481 12600 70702 10110 20000 39955 40245 58011 60006 878// 91500=
07481,1998-03-02 18:00:00,8,1025.1,0.3,61,1,500,7.408,,,40,4.4,12.3,,,,,,,,,wg-a,,,,AAXX 02184 07481 12700 10404 10080 20010 39958 40251 53003 60006 81501 91800 333 10123 20044=
07481,1998-03-02 21:00:00,6,1025.6,0.3,70,1,500,14.816,,,160,,,,,,,,,,,wg-a,,,,AAXX 02214 07481 12/00 01608 10060 20010 39961 40256 53003 60006 80000 92100=
07481,1998-03-03 00:00:00,4,1025.6,-0.2,75,0,500,7.408,,,160,,,,,,,,,,,wg-a,,,,AAXX 03004 07481 12/00 01604 10040 20000 39959 40256 58002 60006 80000 90000=
07481,1998-03-03 03:00:00,2,1024.4,-1.4,87,0,25000,14.816,,,150,,,,,,,,,,,wg-a,,,,AAXX 03034 07481 12/75 01508 10020 20000 39945 40244 58014 60006 80000 90300=
07481,1998-03-03 06:00:00,4,1023.7,-0.5,81,1,18000,14.816,,,150,2.1,8.3,,,,,,,,,wg-a,,,,AAXX 03064 07481 02/68 71508 10040 20010 39940 40237 55005 60006 87070 90600 333 10083 20021 60004=
07481,1998-03-03 09:00:00,10,1023.7,0.6,57,2,27000,14.816,,,150,,,,,,,,,,,wg-a,,,,AAXX 03094 07481 12/77 41508 10100 20020 39946 40237 51006 60006 82031 90900=
07481,1998-03-03 12:00:00,15,1022.2,-0.9,41,2,500,25.928,,,170,,,,,,,,,,,wg-a,,,,AAXX 03124 07481 12/00 61714 10150 20020 39937 40222 58009 60006 83032 91200=
07481,1998-03-03 15:00:00,16,1021.2,-1,34,0,40000,29.632,,,180,,,,,,,,,,,wg-a,,,,AAXX 03154 07481 12/82 71816 10160 20000 39927 40212 56010 60006 85032 91500=
07481,1998-03-03 18:00:00,14,1021.6,0.3,44,2,25000,29.632,,,190,3.7,16,,,,,,,,,wg-a,,,,AAXX 03184 07481 12/75 81916 10140 20020 39930 40216 53003 60006 8707/ 91800 333 10160 20037=
07481,1998-03-03 21:00:00,13,1022.7,0.9,58,5,25000,25.928,,,180,,,,,,,,,,21,wg-a,,,,AAXX 03214 07481 02675 81814 10130 20050 39939 40227 51009 61000 72162 8587/ 92100 333 ////=
07481,1998-03-04 00:00:00,11,1022.3,-0.5,71,6,25000,22.224,,,170,,,,,,,,,,2,wg-a,,,,AAXX 04004 07481 02775 51712 10110 20060 39934 40223 57005 61000 70262 82531 90000 333 ////=
07481,1998-03-04 03:00:00,10,1020.3,-2,76,6,20000,25.928,,,170,,,,,,,,,,,wg-a,,,,AAXX 04034 07481 12/70 61714 10100 20060 39914 40203 58020 60006 83031 90300=
07481,1998-03-04 06:00:00,11,1019.2,-1.1,76,7,15000,22.224,,,140,10.1,13.7,,,,,,,,,wg-a,,,,AAXX 04064 07481 02765 71412 10110 20070 39903 40192 55011 60006 8257/ 90600 333 10137 20101 61000=
07481,1998-03-04 09:00:00,12,1017.6,-1.3,71,7,12000,46.3,,66.672,190,,,,,,,,,,,wg-a,,,,AAXX 04094 07481 12/62 81925 10120 20070 39890 40176 57013 60006 8707/ 90900 333 91036=
07481,1998-03-04 12:00:00,14,1017.2,-0.2,58,6,12000,46.3,,77.784,200,,,,,,,,,,,wg-a,,,,AAXX 04124 07481 12762 82025 10140 20060 39888 40172 58002 60006 8157/ 91200 333 91042=
07481,1998-03-04 15:00:00,14,1016.2,-1,63,7,12000,42.596,,61.116,200,,,,,,,,,,,wg-a,,,,AAXX 04154 07481 12762 82023 10140 20070 39878 40162 56010 60006 8157/ 91500 333 91033=
07481,1998-03-04 18:00:00,14,1015.8,-0.4,63,7,12000,38.892,,,200,10.5,14.3,,,,,,,,,wg-a,,,,AAXX 04184 07481 12/62 72021 10140 20070 39874 40158 55004 60006 8707/ 91800 333 10143 20105=
07481,1998-03-04 21:00:00,13,1016.2,0.3,67,7,15000,42.596,,64.82,190,,,,,,,,,,,wg-a,,,,AAXX 04214 07481 12/65 71923 10130 20070 39877 40162 52003 60006 8707/ 92100 333 91035=
07481,1998-03-05 00:00:00,13,1016.1,-0.1,67,7,15000,38.892,,53.708,200,,,,,,,,,,,wg-a,,,,AAXX 05004 07481 12/65 72021 10130 20070 39876 40161 58001 60006 8707/ 90000 333 91029=
07481,1998-03-05 03:00:00,13,1016.7,0.5,72,8,15000,29.632,,,200,,,,,,,,,,21,wg-a,,,,AAXX 05034 07481 02/65 82016 10130 20080 39881 40167 50005 61000 72162 8807/ 90300 333 ////=
07481,1998-03-05 06:00:00,9,1023,5.7,76,5,20000,7.408,,,10,8.5,14,,,,,4,,,1,wg-a,,,,AAXX 05064 07481 02470 70104 10090 20050 39938 40230 51057 60006 70186 8383/ 90600 333 10140 20085 60044=
07481,1998-03-05 09:00:00,10,1027.2,4.2,57,2,500,22.224,,,330,,,,,,,,,,,wg-a,,,,AAXX 05094 07481 12500 53312 10100 20020 39980 40272 51042 60006 82202 90900=
07481,1998-03-05 12:00:00,12,1027.6,0.6,40,-1,500,7.408,,,310,,,,,,,,,,,wg-a,,,,AAXX 05124 07481 12600 33104 10120 21010 39986 40276 50006 60006 83200 91200=
07481,1998-03-05 15:00:00,13,1027,-0.5,35,-2,50000,11.112,,,340,,,,,,,,,,,wg-a,,,,AAXX 05154 07481 12784 /3406 10130 21020 39981 40270 56005 60006 81200 91500=
07481,1998-03-05 18:00:00,9,1028.5,1.1,53,0,40000,3.704,,,20,7.7,13,,,,,,,,,wg-a,,,,AAXX 05184 07481 12782 10202 10090 20000 39992 40285 53011 60006 81101 91800 333 10130 20077=
07481,1998-03-05 21:00:00,6,1029.7,0.9,65,0,500,7.408,,,230,,,,,,,,,,,wg-a,,,,AAXX 05214 07481 12/00 22304 10060 20000 30001 40297 51009 60006 80001 92100=
07481,1998-03-06 00:00:00,6,1029.8,-0,70,1,20000,7.408,,,220,,,,,,,,,,,wg-a,,,,AAXX 06004 07481 12/70 62204 10060 20010 30001 40298 55000 60006 80002 90000=
07481,1998-03-06 03:00:00,4,1028.6,-1.3,75,0,20000,11.112,,,150,,,,,,,,,,,wg-a,,,,AAXX 06034 07481 12/70 61506 10040 20000 39988 40286 58013 60006 85032 90300=
07481,1998-03-06 06:00:00,4,1029.2,0.6,70,-1,20000,7.408,,,110,3.2,9.2,,,,,,,,,wg-a,,,,AAXX 06064 07481 02/70 61104 10040 21010 39994 40292 52006 60006 85032 90600 333 10092 20032 60004=
07481,1998-03-06 09:00:00,8,1029.3,0.5,57,0,27000,11.112,,,140,,,,,,,,,,,wg-a,,,,AAXX 06094 07481 12/77 51406 10080 20000 39999 40293 53005 60006 81041 90900=
07481,1998-03-06 12:00:00,15,1026.7,-1.9,25,-5,500,11.112,,,200,,,,,,,,,,,wg-a,,,,AAXX 06124 07481 12/00 52006 10150 21050 39980 40267 56019 60006 81031 91200=
07481,1998-03-06 15:00:00,17,1024.3,-2.1,17,-8,40000,18.52,,,190,,,,,,,,,,,wg-a,,,,AAXX 06154 07481 12/82 61910 10170 21080 39959 40243 58021 60006 83031 91500=
07481,1998-03-06 18:00:00,14,1024.1,-0.5,28,-4,40000,7.408,,,160,3,17.6,,,,,,,,,wg-a,,,,AAXX 06184 07481 12/82 41604 10140 21040 39954 40241 56005 60006 83031 91800 333 10176 20030=
07481,1998-03-06 21:00:00,13,1023.7,-0.5,30,-4,40000,14.816,,,180,,,,,,,,,,,wg-a,,,,AAXX 06214 07481 12/82 01808 10130 21040 39949 40237 58005 60006 80000 92100=
07481,1998-03-07 00:00:00,8,1023.8,-0.4,53,-1,40000,0,,,0,,,,,,,,,,,wg-a,,,,AAXX 07004 07481 12/82 00000 10080 21010 39945 40238 55004 60006 80000 90000=
07481,1998-03-07 03:00:00,8,1021.9,-1.8,61,1,40000,7.408,,,120,,,,,,,,,,,wg-a,,,,AAXX 07034 07481 12/82 11204 10080 20010 39927 40219 58018 60006 80001 90300=
07481,1998-03-07 06:00:00,8,1022.3,0.3,61,1,500,14.816,,,140,6.2,14.5,,,,,,,,,wg-a,,,,AAXX 07064 07481 02/00 21408 10080 20010 39930 40223 53003 60006 81031 90600 333 10145 20062 60004=
07481,1998-03-07 12:00:00,14,1020.9,-0.8,58,6,500,18.52,,,220,,,,,,,,,,,wg-a,,,,AAXX 07124 07481 12600 82210 10140 20060 39924 40209 58008 60006 8587/ 91200=
07481,1998-03-07 15:00:00,15,1019.4,-1.4,55,6,500,14.816,,,190,,,,,,,,,,,wg-a,,,,AAXX 07154 07481 12500 81908 10150 20060 39910 40194 57014 60006 8587/ 91500=
07481,1998-03-07 18:00:00,14,1017.8,-1.6,55,5,500,14.816,,,190,7.3,15.8,,,,,,,,,wg-a,,,,AAXX 07184 07481 12600 81908 10140 20050 39894 40178 56016 60006 878// 91800 333 10158 20073=
07481,1998-03-07 21:00:00,12,1019.4,1.3,67,6,25000,11.112,,,200,,,,,,,,,,2,wg-a,,,,AAXX 07214 07481 02575 42006 10120 20060 39907 40194 53013 61000 70286 83802 92100 333 ////=
07481,1998-03-08 00:00:00,11,1018.9,-0.6,54,2,25000,11.112,,,290,,,,,,,,,,3,wg-a,,,,AAXX 08004 07481 02575 /2906 10110 20020 39901 40189 58006 61000 70386 85800 90000 333 ////=
07481,1998-03-08 03:00:00,11,1017.7,-1.2,54,2,25000,7.408,,,220,,,,,,,,,,,wg-a,,,,AAXX 08034 07481 12775 72204 10110 20020 39889 40177 58012 60006 875// 90300=
07481,1998-03-08 06:00:00,11,1015.8,-1.8,58,3,18000,11.112,,,210,10.4,14.4,,,,,,,,,wg-a,,,,AAXX 08064 07481 02668 72106 10110 20030 39871 40158 56018 60006 875// 90600 333 10144 20104 61000=
07481,1998-03-08 09:00:00,10,1016.3,0.4,76,6,18000,18.52,,,240,,,,,,,,,,60,wg-a,,,,AAXX 08094 07481 02568 72410 10100 20060 39875 40163 53004 61000 76062 878// 90900 333 ////=
07481,1998-03-08 12:00:00,9,1013,-3.3,87,7,10000,14.816,,,190,,,,2,,,,,,60,wg-a,,,,AAXX 08124 07481 02460 81908 10090 20070 39842 40130 56033 60026 76062 8587/ 91200 333 60027=
07481,1998-03-08 15:00:00,10,1007.5,-5.3,87,8,12000,18.52,,,150,,,,5,,,,,,21,wg-a,,,,AAXX 08154 07481 12462 81510 10100 20080 39789 40075 56053 60057 72162 878// 91500=
07481,1998-03-08 18:00:00,8,1008.4,0.7,100,8,12000,3.704,,,310,8.1,11,,1,,,,,,3,wg-a,,,,AAXX 08184 07481 02462 73102 10080 20080 39796 40084 53007 60006 70386 875// 91800 333 10110 20081 60017=
07481,1998-03-08 21:00:00,7,1011.8,3.2,93,6,18000,11.112,,,340,,,,1,,,,,,25,wg-a,,,,AAXX 08214 07481 12568 73406 10070 20060 39828 40118 53032 60017 72586 875// 92100=
07481,1998-03-09 03:00:00,6,1013.8,0.6,100,6,500,3.704,,,340,,,,1,,,,,,60,wg-a,,,,AAXX 09034 07481 12300 73402 10060 20060 39847 40138 51006 60017 76086 878// 90300=
07481,1998-03-09 06:00:00,6,1015.2,1.3,93,5,25000,18.52,,,330,5.7,8.1,,,,,,,,60,wg-a,,,,AAXX 09064 07481 02475 83310 10060 20050 39860 40152 52013 61000 76086 878// 90600 333 10081 20057 6010=
07481,1998-03-09 09:00:00,6,1017.6,2.3,93,5,15000,31.484,,,340,,,,,,,,,,3,wg-a,,,,AAXX 09094 07481 02465 83417 10060 20050 39883 40176 52023 61000 70362 878// 90900 333 ////=
07481,1998-03-09 12:00:00,4,1020.6,2.7,87,2,25000,29.632,,,340,,,,,,,,,,1,wg-a,,,,AAXX 09124 07481 02475 83416 10040 20020 39910 40206 51027 61000 70186 878// 91200 333 6100=
07481,1998-03-09 18:00:00,4,1024.7,2.5,56,-4,40000,25.928,,,350,3.8,6.8,,,,,,,,,wg-a,,,,AAXX 09184 07481 12582 33514 10040 21040 39949 40247 53025 60006 81830 91800 333 10068 20038=
07481,1998-03-09 21:00:00,2,1027.6,2.6,55,-6,40000,18.52,,,10,,,,,,,,,,,wg-a,,,,AAXX 09214 07481 12/82 00110 10020 21060 39975 40276 51026 60006 80000 92100=
07481,1998-03-10 00:00:00,1,1030.1,2.3,59,-6,40000,18.52,,,350,,,,,,,,,,,wg-a,,,,AAXX 10004 07481 12/82 03510 10010 21060 39998 40301 51023 60006 80000 90000=
07481,1998-03-10 03:00:00,-1,1029.9,-0.3,69,-6,500,18.52,,,340,,,,,,,,,,,wg-a,,,,AAXX 10034 07481 12/00 03410 11010 21060 39995 40299 58003 60006 80000 90300=
07481,1998-03-10 06:00:00,-1,1031.9,1.9,69,-6,35000,14.816,,,350,-1.2,3.9,,,,,,,,,wg-a,,,,AAXX 10064 07481 02/81 03508 11010 21060 30014 40319 51019 60006 80000 90600 333 10039 21012 61000=
07481,1998-03-10 09:00:00,2,1032.5,0.9,55,-6,45000,11.112,,,340,,,,,,,,,,,wg-a,,,,AAXX 10094 07481 12/83 03406 10020 21060 30023 40325 51009 60006 80000 90900=
07481,1998-03-10 12:00:00,6,1030.5,-1.5,39,-7,50000,14.816,,,350,,,,,,,,,,,wg-a,,,,AAXX 10124 07481 12/84 13508 10060 21070 30008 40305 58015 60006 80002 91200=
07481,1998-03-10 15:00:00,9,1028.1,-2,29,-8,60000,0,,,0,,,,,,,,,,,wg-a,,,,AAXX 10154 07481 12/86 5//// 10090 21080 39988 40281 56020 60006 80005 91500=
07481,1998-03-10 18:00:00,6,1027.3,-1.1,49,-4,500,3.704,,,50,-1.4,9.3,,,,,,,,,wg-a,,,,AAXX 10184 07481 12/00 70502 10060 21040 39977 40273 58011 60006 81036 91800 333 10093 21014=
07481,1998-03-10 21:00:00,4,1025,-2.4,56,-4,25000,11.112,,,150,,,,,,,,,,,wg-a,,,,AAXX 10214 07481 12/75 71506 10040 21040 39953 40250 58024 60006 83036 92100=
07481,1998-03-11 00:00:00,3,1022.3,-2.8,65,-3,20000,14.816,,,140,,,,,,,,,,,wg-a,,,,AAXX 11004 07481 12/70 81408 10030 21030 39925 40223 58028 60006 85036 90000=
07481,1998-03-11 03:00:00,3,1018.3,-3.9,65,-3,20000,11.112,,,130,,,,,,,,,,,wg-a,,,,AAXX 11034 07481 12/70 81306 10030 21030 39886 40183 58039 60006 84078 90300=
07481,1998-03-11 06:00:00,3,1016,-2.2,81,0,15000,25.928,,,200,2.5,6.6,,,,,,,,60,wg-a,,,,AAXX 11064 07481 02565 82014 10030 20000 39864 40160 56022 61000 76062 8457/ 90600 333 10066 20025 6100=
07481,1998-03-11 09:00:00,2,1014.1,-1.9,93,1,6000,18.52,,,170,,,,5,,,,,,60,wg-a,,,,AAXX 11094 07481 12456 81710 10020 20010 39845 40141 58019 60057 76076 875// 90900=
07481,1998-03-11 12:00:00,5,1012.7,-1.1,87,3,12000,14.816,,,180,,,,1,,,,,,21,wg-a,,,,AAXX 11124 07481 02462 81808 10050 20030 39834 40127 58011 60066 72176 878// 91200 333 60017=
07481,1998-03-11 15:00:00,8,1011.1,-1.2,76,4,15000,11.112,,,190,,,,,,,,,,,wg-a,,,,AAXX 11154 07481 12565 81906 10080 20040 39822 40111 56012 60006 875// 91500=
07481,1998-03-11 18:00:00,4,1012.7,1.2,100,4,9000,11.112,,,100,0.5,7.7,,,,,,,,61,wg-a,,,,AAXX 11184 07481 02559 81006 10040 20040 39834 40127 53012 61000 76162 875// 91800 333 10077 20005 6002=
07481,1998-03-11 21:00:00,4,1014.2,1.4,100,4,10000,7.408,,,160,,,,1,,,,,,21,wg-a,,,,AAXX 11214 07481 12460 81604 10040 20040 39848 40142 53014 60017 72162 885// 92100=
07481,1998-03-12 00:00:00,5,1014.9,0.8,100,5,1800,0,,,0,,,,1,,,,,,10,wg-a,,,,AAXX 12004 07481 02218 80000 10050 20050 39856 40149 52008 60026 71065 887// 90000 333 60017=
07481,1998-03-12 03:00:00,5,1015.7,0.8,93,4,15000,22.224,,,340,,,,1,,,,,,61,wg-a,,,,AAXX 12034 07481 12465 83412 10050 20040 39864 40157 51008 60017 76166 885// 90300=
07481,1998-03-12 06:00:00,4,1017.5,1.6,93,3,15000,14.816,,,340,4,5.1,,,,,,,,61,wg-a,,,,AAXX 12064 07481 02465 83408 10040 20030 39880 40175 53016 61000 76166 885// 90600 333 10051 20040 6012=
07481,1998-03-12 09:00:00,4,1019.8,2.2,87,2,20000,22.224,,,330,,,,0,,,,,,61,wg-a,,,,AAXX 12094 07481 12470 83312 10040 20020 39902 40198 52022 60007 76166 885// 90900=
07481,1998-03-12 12:00:00,4,1021.1,1.3,93,3,20000,18.52,,,340,,,,0,,,,,,61,wg-a,,,,AAXX 12124 07481 02370 83410 10040 20030 39915 40211 51013 60016 76166 885// 91200 333 60007=
07481,1998-03-12 15:00:00,4,1022.4,1.2,93,3,10000,22.224,,,340,,,,0,,,,,,61,wg-a,,,,AAXX 12154 07481 12460 83412 10040 20030 39927 40224 53012 60007 76166 885// 91500=
07481,1998-03-12 18:00:00,4,1023.4,1,87,2,15000,22.224,,,340,3.3,4,,,,,,,,2,wg-a,,,,AAXX 12184 07481 02465 83412 10040 20020 39937 40234 53010 60006 70262 885// 91800 333 10040 20033 61000=
07481,1998-03-12 21:00:00,4,1025.3,1.8,87,2,500,22.224,,,350,,,,,,,,,,,wg-a,,,,AAXX 12214 07481 12500 83512 10040 20020 39955 40253 51018 60006 875// 92100=
07481,1998-03-13 00:00:00,4,1025.7,0.4,87,2,500,18.52,,,350,,,,,,,,,,,wg-a,,,,AAXX 13004 07481 12800 83510 10040 20020 39959 40257 50004 60006 8703/ 90000=
07481,1998-03-13 03:00:00,3,1025.5,-0.3,87,1,15000,18.52,,,340,,,,,,,,,,,wg-a,,,,AAXX 13034 07481 12865 73410 10030 20010 39956 40255 58003 60006 8703/ 90300=
07481,1998-03-13 06:00:00,2,1026.5,0.9,93,1,8000,22.224,,,340,1.8,3.9,,,,,1,,,,wg-a,,,,AAXX 13064 07481 02458 83412 10020 20010 39965 40265 53009 60006 875// 90600 333 10039 20018 60014=
07481,1998-03-13 09:00:00,3,1028,1.6,87,1,12000,18.52,,,360,,,,,,,,,,,wg-a,,,,AAXX 13094 07481 12462 /3610 10030 20010 39981 40280 51016 60006 85200 90900=
07481,1998-03-13 12:00:00,7,1027.2,-0.4,57,-1,25000,29.632,,,350,,,,,,,,,,,wg-a,,,,AAXX 13124 07481 12575 23516 10070 21010 39977 40272 58004 60006 82200 91200=
07481,1998-03-13 15:00:00,8,1026.2,-0.8,53,-1,500,25.928,,,350,,,,,,,,,,,wg-a,,,,AAXX 13154 07481 12500 23514 10080 21010 39969 40262 57008 60006 81240 91500=
07481,1998-03-13 18:00:00,6,1027.1,0.6,61,-1,500,14.816,,,360,1.2,8.3,,,,,,,,,wg-a,,,,AAXX 13184 07481 12800 43608 10060 21010 39975 40271 53006 60006 81041 91800 333 10083 20012=
07481,1998-03-13 21:00:00,3,1028.6,1.1,75,-1,500,7.408,,,350,,,,,,,,,,,wg-a,,,,AAXX 13214 07481 12/00 03504 10030 21010 39986 40286 51011 60006 80000 92100=
07481,1998-03-14 00:00:00,1,1029,0.2,86,-1,20000,11.112,,,330,,,,,,,,,,,wg-a,,,,AAXX 14004 07481 12/70 23306 10010 21010 39988 40290 50002 60006 80002 90000=
07481,1998-03-14 03:00:00,0,1029,-0.1,86,-2,20000,3.704,,,300,,,,,,,,,,,wg-a,,,,AAXX 14034 07481 12/70 03002 10000 21020 39987 40290 58001 60006 80000 90300=
07481,1998-03-14 06:00:00,1,1029.5,0.6,86,-1,12000,3.704,,,60,-0.3,5.9,,,,,,,,,wg-a,,,,AAXX 14064 07481 02/62 60602 10010 21010 39993 40295 53006 60006 86030 90600 333 10059 21003 60004=
07481,1998-03-14 09:00:00,4,1030,0.8,81,1,9000,7.408,,,30,,,,,,,,,,,wg-a,,,,AAXX 14094 07481 12759 70304 10040 20010 30001 40300 51008 60006 8257/ 90900=
07481,1998-03-14 12:00:00,8,1029.1,-0.4,61,1,15000,25.928,,,360,,,,,,,,,,,wg-a,,,,AAXX 14124 07481 12565 83614 10080 20010 39997 40291 58004 60006 8457/ 91200=
07481,1998-03-14 15:00:00,9,1028.1,-0.9,66,3,15000,25.928,,,340,,,,,,,,,,,wg-a,,,,AAXX 14154 07481 12/65 63414 10090 20030 39988 40281 56009 60006 8603/ 91500=
07481,1998-03-14 18:00:00,8,1028.4,0.2,76,4,10000,29.632,,,350,0.7,9.2,,,,,,,,,wg-a,,,,AAXX 14184 07481 12560 73516 10080 20040 39990 40284 53002 60006 84832 91800 333 10092 20007=
07481,1998-03-14 21:00:00,6,1029.1,0.5,81,3,15000,18.52,,,350,,,,,,,,,,,wg-a,,,,AAXX 14214 07481 12665 /3510 10060 20030 39995 40291 52005 60006 81500 92100=
07481,1998-03-15 00:00:00,6,1029.3,0.1,87,4,15000,18.52,,,340,,,,,,,,,,,wg-a,,,,AAXX 15004 07481 12/65 03410 10060 20040 39996 40293 50001 60006 80000 90000=
07481,1998-03-15 03:00:00,6,1028.8,-0.4,87,4,10000,18.52,,,350,,,,,,,,,,,wg-a,,,,AAXX 15034 07481 12460 73510 10060 20040 39992 40288 56004 60006 875// 90300=
07481,1998-03-15 06:00:00,5,1029.5,0.6,93,4,9000,11.112,,,340,4.9,7.4,,,,,,,,,wg-a,,,,AAXX 15064 07481 02459 23406 10050 20040 39998 40295 51006 60006 81501 90600 333 10074 20049 60004=
07481,1998-03-15 09:00:00,8,1029.7,0.5,81,5,12000,29.632,,,340,,,,,,,,,,,wg-a,,,,AAXX 15094 07481 12462 33416 10080 20050 30003 40297 50005 60006 82801 90900=
07481,1998-03-15 12:00:00,10,1029.5,0,66,4,25000,31.484,,,360,,,,,,,,,,,wg-a,,,,AAXX 15124 07481 12575 73617 10100 20040 30003 40295 50000 60006 872// 91200=
07481,1998-03-15 15:00:00,10,1029,-0.5,62,3,25000,31.484,,,350,,,,,,,,,,,wg-a,,,,AAXX 15154 07481 12575 73517 10100 20030 39998 40290 55005 60006 875// 91500=
07481,1998-03-15 18:00:00,9,1028.8,-0.3,71,4,15000,22.224,,,340,5.2,11.2,,,,,,,,,wg-a,,,,AAXX 15184 07481 12465 73412 10090 20040 39995 40288 55003 60006 875// 91800 333 10112 20052=
07481,1998-03-15 21:00:00,8,1028.8,-0.1,76,4,12000,25.928,,,340,,,,,,,,,,,wg-a,,,,AAXX 15214 07481 12562 73414 10080 20040 39994 40288 58001 60006 875// 92100=
07481,1998-03-16 00:00:00,7,1028.8,-0.1,81,4,8000,18.52,,,330,,,,,,,,,,,wg-a,,,,AAXX 16004 07481 12658 73310 10070 20040 39993 40288 58001 60006 875// 90000=
07481,1998-03-16 06:00:00,6,1028.9,0.2,93,5,500,22.224,,,340,6,9.2,,,,,,,,,wg-a,,,,AAXX 16064 07481 02/00 43412 10060 20050 39993 40289 53002 60006 80002 90600 333 10092 20060 60004=
07481,1998-03-16 09:00:00,8,1030,1.2,87,6,500,22.224,,,340,,,,,,,,,,,wg-a,,,,AAXX 16094 07481 12300 83412 10080 20060 30005 40300 51012 60006 886// 90900=
07481,1998-03-16 12:00:00,11,1029.1,-0.5,82,8,7000,25.928,,,340,,,,,,,,,,,wg-a,,,,AAXX 16124 07481 12457 73414 10110 20080 30000 40291 58005 60006 875// 91200=
07481,1998-03-16 15:00:00,,1,-1.2,,,12000,31.484,,,360,,,,,,,,,,,wg-a,,,,AAXX 16154 07481 32562 53617 1//// 2//// 39988 55012 85800 91500=
07481,1998-03-16 18:00:00,10,1028.4,0.4,76,6,11000,22.224,,,350,6,11.7,,,,,,,,,wg-a,,,,AAXX 16184 07481 12561 /3512 10100 20060 39992 40284 53004 60006 81400 91800 333 10117 20060=
07481,1998-03-17 00:00:00,7,1028.9,-0.4,93,6,12000,14.816,,,340,,,,,,,,,,,wg-a,,,,AAXX 17004 07481 12462 43408 10070 20060 39994 40289 55004 60006 84500 90000=
07481,1998-03-17 03:00:00,7,1028.6,-0.3,93,6,8000,14.816,,,340,,,,,,,,,,,wg-a,,,,AAXX 17034 07481 12358 /3408 10070 20060 39991 40286 55003 60006 86500 90300=
07481,1998-03-17 06:00:00,7,1029.3,0.7,93,6,6000,11.112,,,340,6.5,9.6,,,,,,,,,wg-a,,,,AAXX 17064 07481 02456 73406 10070 20060 39998 40293 52007 60006 875// 90600 333 10096 20065 60004=
07481,1998-03-17 09:00:00,8,1030.5,1.2,87,6,6000,18.52,,,350,,,,,,,,,,,wg-a,,,,AAXX 17094 07481 12356 73510 10080 20060 30010 40305 51012 60006 875// 90900=
07481,1998-03-17 12:00:00,11,1029.6,-0.5,62,4,10000,25.928,,,350,,,,,,,,,,,wg-a,,,,AAXX 17124 07481 12560 73514 10110 20040 30005 40296 57005 60006 878// 91200=
07481,1998-03-17 15:00:00,13,1028.5,-0.9,54,4,12000,25.928,,,340,,,,,,,,,,,wg-a,,,,AAXX 17154 07481 12662 23414 10130 20040 39996 40285 56009 60006 82800 91500=
07481,1998-03-17 18:00:00,10,1029.6,0.8,66,4,10000,22.224,,,340,6.9,12.8,,,,,,,,,wg-a,,,,AAXX 17184 07481 12/60 23412 10100 20040 30004 40296 53008 60006 81031 91800 333 10128 20069=
07481,1998-03-17 21:00:00,7,1030.8,0.9,81,4,10000,22.224,,,340,,,,,,,,,,,wg-a,,,,AAXX 17214 07481 12/60 13412 10070 20040 30013 40308 53009 60006 80001 92100=
07481,1998-03-18 00:00:00,5,1031.8,0.7,87,3,10000,22.224,,,330,,,,,,,,,,,wg-a,,,,AAXX 18004 07481 12/60 03312 10050 20030 30020 40318 52007 60006 80000 90000=
07481,1998-03-18 06:00:00,3,1033,,93,2,500,0,,,0,,,,,,,,,,,wg-a,,,,AAXX 18064 07481 02/00 /0000 10030 20020 30029 40330 60006 80002 90600 333 60004=
07481,1998-03-18 09:00:00,6,1033.8,1.1,87,4,500,7.408,,,360,,,,,,,,,,,wg-a,,,,AAXX 18094 07481 12400 83604 10060 20040 30040 40338 52011 60006 886// 90900=
07481,1998-03-18 12:00:00,10,1033.7,0.3,71,5,6000,11.112,,,20,,,,,,,,,,,wg-a,,,,AAXX 18124 07481 12456 /0206 10100 20050 30043 40337 50003 60006 85100 91200=
07481,1998-03-18 15:00:00,13,1032.5,-0.8,58,5,7000,14.816,,,360,,,,,,,,,,,wg-a,,,,AAXX 18154 07481 12557 43608 10130 20050 30035 40325 56008 60006 81102 91500=
07481,1998-03-18 18:00:00,11,1033,0.3,66,5,8000,11.112,,,340,2.9,,,,,,,,,,wg-a,,,,AAXX 18184 07481 12/58 43406 10110 20050 30038 40330 53003 60006 80002 91800 333 20029=
07481,1998-03-18 21:00:00,9,1034,0.8,76,5,10000,14.816,,,340,,,,,,,,,,,wg-a,,,,AAXX 18214 07481 12/60 33408 10090 20050 30046 40340 51008 60006 80002 92100=
07481,1998-03-19 00:00:00,7,1034.9,0.6,81,4,10000,7.408,,,320,,,,,,,,,,,wg-a,,,,AAXX 19004 07481 12/60 33204 10070 20040 30052 40349 51006 60006 80002 90000=
07481,1998-03-19 03:00:00,4,1035.6,0.4,93,3,10000,7.408,,,340,,,,,,,,,,,wg-a,,,,AAXX 19034 07481 12/60 23404 10040 20030 30056 40356 51004 60006 80002 90300=
07481,1998-03-19 06:00:00,3,1036.3,0.6,100,3,6000,0,,,0,2.9,10,,,,,,,,,wg-a,,,,AAXX 19064 07481 02/56 30000 10030 20030 30062 40363 51006 60006 83032 90600 333 10100 20029 60004=
07481,1998-03-19 09:00:00,7,1036.6,0.7,81,4,6000,11.112,,,350,,,,,,,,,,,wg-a,,,,AAXX 19094 07481 12/56 /3506 10070 20040 30069 40366 51007 60006 86030 90900=
07481,1998-03-19 12:00:00,13,1035,-1,51,3,10000,29.632,,,350,,,,,,,,,,,wg-a,,,,AAXX 19124 07481 12560 43516 10130 20030 30059 40350 58010 60006 81101 91200=
07481,1998-03-19 15:00:00,12,1034,-1.1,38,-2,18000,35.188,,51.856,350,,,,,,,,,,,wg-a,,,,AAXX 19154 07481 12/68 03519 10120 21020 30048 40340 56011 60006 80000 91500 333 91028=
07481,1998-03-19 18:00:00,10,1034.2,-0,50,0,25000,14.816,,,350,3.1,13.1,,,,,,,,,wg-a,,,,AAXX 19184 07481 12/75 03508 10100 20000 30048 40342 55000 60006 80000 91800 333 10131 20031=
07481,1998-03-19 21:00:00,8,1034.2,-0.2,53,-1,25000,25.928,,,350,,,,,,,,,,,wg-a,,,,AAXX 19214 07481 12/75 03514 10080 21010 30046 40342 58002 60006 80000 92100=
07481,1998-03-20 00:00:00,4,1035,0.4,65,-2,25000,11.112,,,330,,,,,,,,,,,wg-a,,,,AAXX 20004 07481 12/75 03306 10040 21020 30050 40350 51004 60006 80000 90000=
07481,1998-03-20 03:00:00,2,1035.3,0.1,75,-2,20000,3.704,,,300,,,,,,,,,,,wg-a,,,,AAXX 20034 07481 12/70 03002 10020 21020 30051 40353 50001 60006 80000 90300=
07481,1998-03-20 06:00:00,1,1035.5,0,80,-2,500,7.408,,,330,0.6,9.9,,,,,,,,,wg-a,,,,AAXX 20064 07481 02/00 03304 10010 21020 30051 40355 50000 60006 80000 90600 333 10099 20006 60004=
07481,1998-03-20 09:00:00,6,1034.6,-0.4,61,-1,500,18.52,,,350,,,,,,,,,,,wg-a,,,,AAXX 20094 07481 12/00 23510 10060 21010 30047 40346 58004 60006 80001 90900=
07481,1998-03-20 12:00:00,10,1032.8,-1.2,43,-2,40000,29.632,,,350,,,,,,,,,,,wg-a,,,,AAXX 20124 07481 12/82 53516 10100 21020 30035 40328 56012 60006 80001 91200=
07481,1998-03-20 15:00:00,11,1030.7,-2,40,-2,40000,31.484,,51.856,340,,,,,,,,,,,wg-a,,,,AAXX 20154 07481 12/82 03417 10110 21020 30015 40307 56020 60006 80000 91500 333 91028=
07481,1998-03-20 18:00:00,9,1030.7,-0.2,43,-3,50000,29.632,,,350,0.6,11.3,,,,,,,,,wg-a,,,,AAXX 20184 07481 12/84 03516 10090 21030 30013 40307 55002 60006 80000 91800 333 10113 20006=
07481,1998-03-20 21:00:00,7,1030.5,-0.3,57,-1,500,35.188,,,360,,,,,,,,,,,wg-a,,,,AAXX 20214 07481 12/00 03619 10070 21010 30010 40305 57003 60006 80000 92100=
07481,1998-03-21 00:00:00,6,1030.5,-0.2,61,-1,25000,25.928,,,340,,,,,,,,,,,wg-a,,,,AAXX 21004 07481 12/75 03414 10060 21010 30008 40305 56002 60006 80000 90000=
07481,1998-03-21 03:00:00,4,1029.7,-0.9,81,1,20000,14.816,,,10,,,,,,,,,,,wg-a,,,,AAXX 21034 07481 12/70 00108 10040 20010 39999 40297 58009 60006 80000 90300=
07481,1998-03-21 06:00:00,5,1029,-0.6,87,3,7000,14.816,,,350,4.1,8.9,,,,,,,,,wg-a,,,,AAXX 21064 07481 02457 33508 10050 20030 39993 40290 56006 60006 82530 90600 333 10089 20041 60004=
07481,1998-03-21 09:00:00,8,1028,-0.7,81,5,6000,31.484,,,350,,,,,,,,,,,wg-a,,,,AAXX 21094 07481 12456 /3517 10080 20050 39986 40280 58007 60006 86800 90900=
07481,1998-03-21 12:00:00,11,1026.2,-1.4,58,3,15000,35.188,,,360,,,,,,,,,,,wg-a,,,,AAXX 21124 07481 12565 33619 10110 20030 39972 40262 58014 60006 83200 91200=
07481,1998-03-21 15:00:00,12,1024.8,-1.3,50,2,20000,38.892,,,350,,,,,,,,,,,wg-a,,,,AAXX 21154 07481 12670 23521 10120 20020 39959 40248 56013 60006 82200 91500=
07481,1998-03-21 18:00:00,10,1025.3,0.3,50,0,25000,29.632,,,360,5.3,12.8,,,,,,,,,wg-a,,,,AAXX 21184 07481 12/75 /3616 10100 20000 39962 40253 53003 60006 81031 91800 333 10128 20053=
07481,1998-03-21 21:00:00,7,1026.3,0.7,57,-1,500,22.224,,,350,,,,,,,,,,,wg-a,,,,AAXX 21214 07481 12/00 03512 10070 21010 39969 40263 51007 60006 80000 92100=
07481,1998-03-22 00:00:00,4,1027.4,0.7,70,-1,500,14.816,,,340,,,,,,,,,,,wg-a,,,,AAXX 22004 07481 12/00 03408 10040 21010 39976 40274 52007 60006 80000 90000=
07481,1998-03-22 03:00:00,1,1028.3,0.6,80,-2,500,7.408,,,330,,,,,,,,,,,wg-a,,,,AAXX 22034 07481 12/00 03304 10010 21020 39982 40283 51006 60006 80000 90300=
07481,1998-03-22 06:00:00,-1,1029.2,0.6,86,-3,20000,7.408,,,290,-0.9,10.2,,,,,,,,,wg-a,,,,AAXX 22064 07481 02/70 02904 11010 21030 39988 40292 52006 60006 80000 90600 333 10102 21009 60004=
07481,1998-03-22 12:00:00,8,1028.6,-0.9,46,-3,25000,11.112,,,330,,,,,,,,,,,wg-a,,,,AAXX 22124 07481 12/75 03306 10080 21030 39992 40286 58009 60006 80000 91200=
07481,1998-03-22 15:00:00,11,1026.9,-1.4,32,-5,25000,18.52,,,10,,,,,,,,,,,wg-a,,,,AAXX 22154 07481 12/75 00110 10110 21050 39978 40269 56014 60006 80000 91500=
07481,1998-03-22 18:00:00,9,1027.1,-0,34,-6,40000,14.816,,,340,-0.9,11.2,,,,,,,,,wg-a,,,,AAXX 22184 07481 12/82 03408 10090 21060 39978 40271 55000 60006 80000 91800 333 10112 21009=
07481,1998-03-22 21:00:00,5,1027.4,-0.1,41,-7,25000,11.112,,,10,,,,,,,,,,,wg-a,,,,AAXX 22214 07481 12/75 00106 10050 21070 39977 40274 57001 60006 80000 92100=
07481,1998-03-23 00:00:00,3,1027.8,0.2,56,-5,20000,7.408,,,300,,,,,,,,,,,wg-a,,,,AAXX 23004 07481 12/70 03004 10030 21050 39979 40278 53002 60006 80000 90000=
07481,1998-03-23 03:00:00,1,1027.6,-0.5,69,-4,20000,3.704,,,300,,,,,,,,,,,wg-a,,,,AAXX 23034 07481 12/70 03002 10010 21040 39974 40276 58005 60006 80000 90300=
07481,1998-03-23 06:00:00,-1,1028,0.3,80,-4,20000,3.704,,,320,-0.7,9.2,,,,,,,,,wg-a,,,,AAXX 23064 07481 02/70 03202 11010 21040 39977 40280 53003 60006 80000 90600 333 10092 21007 60004=
07481,1998-03-23 09:00:00,5,1027.5,0.1,56,-3,20000,11.112,,,10,,,,,,,,,,,wg-a,,,,AAXX 23094 07481 12/70 00106 10050 21030 39978 40275 50001 60006 80000 90900=
07481,1998-03-23 12:00:00,10,1025.5,-1.5,50,0,20000,18.52,,,340,,,,,,,,,,,wg-a,,,,AAXX 23124 07481 12670 53410 10100 20000 39963 40255 58015 60006 85800 91200=
07481,1998-03-23 15:00:00,7,1024.5,-1.2,66,1,15000,18.52,,,20,,,,,,,,,,,wg-a,,,,AAXX 23154 07481 12665 70210 10070 20010 39951 40245 57012 60006 878// 91500=
07481,1998-03-23 18:00:00,7,1024.2,-0.3,70,2,12000,14.816,,,340,-0.7,9.7,,,,,,,,,wg-a,,,,AAXX 23184 07481 12562 73408 10070 20020 39948 40242 56003 60006 875// 91800 333 10097 21007=
07481,1998-03-23 21:00:00,6,1023.9,-0.4,75,2,15000,3.704,,,320,,,,,,,,,,,wg-a,,,,AAXX 23214 07481 12665 73202 10060 20020 39944 40239 58004 60006 875// 92100=
07481,1998-03-24 00:00:00,5,1022.6,-1.4,87,3,15000,22.224,,,340,,,,0,,,,,,61,wg-a,,,,AAXX 24004 07481 02465 83412 10050 20030 39930 40226 56014 60016 76162 878// 90000 333 60007=
07481,1998-03-24 03:00:00,2,1022.7,-0.1,93,1,12000,25.928,,,350,,,,,,,,,,21,wg-a,,,,AAXX 24034 07481 02462 83514 10020 20010 39929 40227 55001 61000 72162 875// 90300 333 ////=
07481,1998-03-24 06:00:00,1,1024.3,1.3,80,-2,15000,22.224,,,340,0,6.6,,,,,,,,1,wg-a,,,,AAXX 24064 07481 02465 83412 10010 21020 39942 40243 51013 60006 70161 875// 90600 333 10066 20000 60004=
07481,1998-03-24 12:00:00,5,1027,1.1,60,-2,15000,22.224,,,350,,,,,,,,,,,wg-a,,,,AAXX 24124 07481 12565 /3512 10050 21020 39973 40270 51011 60006 85200 91200=
07481,1998-03-24 15:00:00,6,1027.8,0.9,56,-2,15000,25.928,,,340,,,,,,,,,,,wg-a,,,,AAXX 24154 07481 12565 /3414 10060 21020 39982 40278 51009 60006 84800 91500=
07481,1998-03-24 18:00:00,5,1029.4,1.4,60,-2,15000,22.224,,,340,0.5,6.5,,,,,,,,,wg-a,,,,AAXX 24184 07481 12565 /3412 10050 21020 39996 40294 53014 60006 86500 91800 333 10065 20005=
07481,1998-03-24 21:00:00,2,1030.5,0.8,75,-2,20000,11.112,,,340,,,,,,,,,,,wg-a,,,,AAXX 24214 07481 12/70 /3406 10020 21020 30004 40305 51008 60006 81040 92100=
07481,1998-03-25 00:00:00,-1,1030.3,-0.5,86,-3,15000,7.408,,,280,,,,,,,,,,,wg-a,,,,AAXX 25004 07481 12/65 02804 11010 21030 39999 40303 57005 60006 80000 90000=
07481,1998-03-25 03:00:00,-2,1030.5,0,93,-3,12000,0,,,0,,,,,,,,,,,wg-a,,,,AAXX 25034 07481 12/62 00000 11020 21030 39999 40305 50000 60006 80000 90300=
07481,1998-03-25 06:00:00,-3,1030.4,-0.1,93,-4,8000,7.408,,,290,-2.9,4.9,,,,,,,,,wg-a,,,,AAXX 25064 07481 02/58 22904 11030 21040 39998 40304 58001 60006 80001 90600 333 10049 21029 60004=
07481,1998-03-25 09:00:00,1,1029.8,-0.2,75,-3,10000,7.408,,,340,,,,0,,,,,,,wg-a,,,,AAXX 25094 07481 12/60 /3404 10010 21030 39996 40298 55002 60007 80001 90900=
07481,1998-03-25 12:00:00,6,1028.3,-0.9,42,-6,15000,11.112,,,360,,,,,,,,,,,wg-a,,,,AAXX 25124 07481 12/65 13606 10060 21060 39987 40283 56009 60006 80001 91200=
07481,1998-03-25 15:00:00,10,1025.7,-2.2,37,-4,20000,11.112,,,350,,,,,,,,,,,wg-a,,,,AAXX 25154 07481 12/70 53506 10100 21040 39965 40257 58022 60006 80001 91500=
07481,1998-03-25 18:00:00,8,1025.1,-0.8,39,-5,20000,7.408,,,330,-2.7,10,,,,,,,,,wg-a,,,,AAXX 25184 07481 12/70 63304 10080 21050 39957 40251 56008 60006 80002 91800 333 10100 21027=
07481,1998-03-25 21:00:00,5,1026,0.6,41,-7,18000,3.704,,,180,,,,,,,,,,,wg-a,,,,AAXX 25214 07481 12/68 51802 10050 21070 39963 40260 51006 60006 80002 92100=
07481,1998-03-26 03:00:00,1,1025.1,-0.5,69,-4,10000,11.112,,,160,,,,,,,,,,,wg-a,,,,AAXX 26034 07481 12/60 /1606 10010 21040 39951 40251 58005 60006 90300=
07481,1998-03-26 06:00:00,-1,1025.4,-0,80,-4,10000,3.704,,,120,-0.9,7.8,,,,,,,,,wg-a,,,,AAXX 26064 07481 02/60 21202 11010 21040 39951 40254 55000 60006 80001 90600 333 10078 21009 60004=
07481,1998-03-26 09:00:00,7,1024.6,0,45,-4,12000,3.704,,,180,,,,,,,,,,,wg-a,,,,AAXX 26094 07481 12/62 11802 10070 21040 39951 40246 50000 60006 80001 90900=
07481,1998-03-26 12:00:00,12,1022.7,-1.2,30,-5,15000,3.704,,,110,,,,,,,,,,,wg-a,,,,AAXX 26124 07481 12/65 11102 10120 21050 39939 40227 58012 60006 80001 91200=
07481,1998-03-26 18:00:00,12,1020.4,-0,30,-5,15000,7.408,,,60,-0.5,14.3,,,,,,,,,wg-a,,,,AAXX 26184 07481 12/65 70604 10120 21050 39915 40204 55000 60006 80002 91800 333 10143 21005=
07481,1998-03-26 21:00:00,8,1021.1,0.4,46,-3,15000,0,,,0,,,,,,,,,,,wg-a,,,,AAXX 26214 07481 12/65 40000 10080 21030 39919 40211 50004 60006 80002 92100=
07481,1998-03-27 00:00:00,7,1021.6,0.4,53,-2,15000,0,,,0,,,,,,,,,,,wg-a,,,,AAXX 27004 07481 12/65 70000 10070 21020 39923 40216 51004 60006 80002 90000=
07481,1998-03-27 03:00:00,7,1021.4,-0.2,57,-1,15000,3.704,,,230,,,,,,,,,,,wg-a,,,,AAXX 27034 07481 12/65 72302 10070 21010 39921 40214 58002 60006 84042 90300=
07481,1998-03-27 06:00:00,7,1021.6,0.2,53,-2,12000,7.408,,,180,6.2,11.5,,,,,,,,,wg-a,,,,AAXX 27064 07481 02/62 81804 10070 21020 39923 40216 52002 60006 8807/ 90600 333 10115 20062 60004=
07481,1998-03-27 09:00:00,10,1022.4,1.1,53,1,7000,3.704,,,50,,,,,,,,,,,wg-a,,,,AAXX 27094 07481 12657 70502 10100 20010 39934 40224 51011 60006 83512 90900=
07481,1998-03-27 12:00:00,14,1021.4,-0.6,47,3,20000,7.408,,,360,,,,,,,,,,,wg-a,,,,AAXX 27124 07481 12870 73604 10140 20030 39928 40214 58006 60006 8703/ 91200=
07481,1998-03-27 15:00:00,15,1019.5,-1.7,51,5,25000,7.408,,,10,,,,,,,,,,,wg-a,,,,AAXX 27154 07481 12/75 60104 10150 20050 39911 40195 56017 60006 80002 91500=
07481,1998-03-27 18:00:00,14,1019.3,-0.4,58,6,20000,7.408,,,10,7,15.6,,,,,,,,,wg-a,,,,AAXX 27184 07481 12/70 60104 10140 20060 39907 40193 55004 60006 80009 91800 333 10156 20070=
07481,1998-03-27 21:00:00,11,1020.5,0.9,71,6,20000,3.704,,,220,,,,,,,,,,,wg-a,,,,AAXX 27214 07481 12/70 12202 10110 20060 39916 40205 52009 60006 80001 92100=
07481,1998-03-28 00:00:00,9,1019.4,-1.3,76,5,15000,11.112,,,170,,,,,,,,,,,wg-a,,,,AAXX 28004 07481 12/65 01706 10090 20050 39903 40194 58013 60006 80000 90000=
07481,1998-03-28 03:00:00,6,1019.6,-0,87,4,10000,11.112,,,140,,,,,,,,,,,wg-a,,,,AAXX 28034 07481 12/60 01406 10060 20040 39903 40196 55000 60006 80000 90300=
07481,1998-03-28 06:00:00,8,1020.2,0.8,87,6,8000,11.112,,,150,5.9,13.6,,,,,,,,,wg-a,,,,AAXX 28064 07481 02/58 11506 10080 20060 39911 40202 51008 60006 80002 90600 333 10136 20059 60004=
07481,1998-03-28 09:00:00,13,1018.9,-0.8,67,7,10000,25.928,,,170,,,,,,,,,,,wg-a,,,,AAXX 28094 07481 12/60 41714 10130 20070 39903 40189 58008 60006 80002 90900=
07481,1998-03-28 12:00:00,18,1017.4,-1,39,4,15000,25.928,,,180,,,,,,,,,,,wg-a,,,,AAXX 28124 07481 12/65 51814 10180 20040 39893 40174 58010 60006 80002 91200=
07481,1998-03-28 15:00:00,18,1015.5,-1.9,37,3,25000,29.632,,,180,,,,,,,,,,,wg-a,,,,AAXX 28154 07481 12/75 71816 10180 20030 39874 40155 56019 60006 80006 91500=
07481,1998-03-28 18:00:00,16,1015.5,-0.2,39,2,25000,18.52,,,190,8.1,19,,,,,,,,,wg-a,,,,AAXX 28184 07481 12/75 81910 10160 20020 39872 40155 55002 60006 8707/ 91800 333 10190 20081=
07481,1998-03-28 21:00:00,14,1016.2,0.5,47,3,25000,25.928,,,170,,,,,,,,,,,wg-a,,,,AAXX 28214 07481 12/75 81714 10140 20030 39877 40162 50005 60006 8707/ 92100=
07481,1998-03-29 00:00:00,11,1015.6,-0.8,58,3,20000,18.52,,,160,,,,,,,,,,,wg-a,,,,AAXX 29004 07481 12/70 11610 10110 20030 39869 40156 56008 60006 80002 90000=
07481,1998-03-29 03:00:00,9,1014.1,-1.7,66,3,20000,22.224,,,140,,,,,,,,,,,wg-a,,,,AAXX 29034 07481 12/70 11412 10090 20030 39852 40141 56017 60006 80002 90300=
07481,1998-03-29 06:00:00,8,1013.8,-0.3,76,4,12000,14.816,,,140,8.3,15.8,,,,,,,,,wg-a,,,,AAXX 29064 07481 02/62 31408 10080 20040 39849 40138 57003 60006 80001 90600 333 10158 20083 60004=
07481,1998-03-29 09:00:00,14,1012.7,-0.5,51,4,25000,25.928,,,170,,,,,,,,,,,wg-a,,,,AAXX 29094 07481 12/75 21714 10140 20040 39844 40127 58005 60006 80001 90900=
07481,1998-03-29 12:00:00,19,1010.6,-1.6,34,3,25000,25.928,,,180,,,,,,,,,,,wg-a,,,,AAXX 29124 07481 12/75 31814 10190 20030 39828 40106 58016 60006 80001 91200=
07481,1998-03-29 15:00:00,21,1008.9,-1.5,33,4,25000,25.928,,,190,,,,,,,,,,,wg-a,,,,AAXX 29154 07481 12/75 11914 10210 20040 39813 40089 56015 60006 80001 91500=
07481,1998-03-29 18:00:00,18,1009.8,0.6,42,5,25000,14.816,,,190,8.3,21,,,,,,,,,wg-a,,,,AAXX 29184 07481 12/75 11908 10180 20050 39819 40098 53006 60006 80001 91800 333 10210 20083=
07481,1998-03-29 21:00:00,14,1012.4,2.1,51,4,18000,22.224,,,180,,,,,,,,,,,wg-a,,,,AAXX 29214 07481 12/68 11812 10140 20040 39840 40124 51021 60006 80001 92100=
07481,1998-03-30 00:00:00,11,1014.2,1.6,66,5,18000,14.816,,,160,,,,,,,,,,,wg-a,,,,AAXX 30004 07481 12/68 21608 10110 20050 39856 40142 51016 60006 80001 90000=
07481,1998-03-30 15:00:00,22,1014.7,-1.1,27,2,25000,7.408,,,240,,,,,,,,,,,wg-a,,,,AAXX 30154 07481 12/75 62404 10220 20020 39870 40147 56011 60006 81042 91500=
07481,1998-03-30 18:00:00,19,1015.7,0.7,32,2,25000,11.112,,,190,7.2,22.1,,,,,,,,,wg-a,,,,AAXX 30184 07481 12/75 51906 10190 20020 39877 40157 53007 60006 80002 91800 333 10221 20072=
07481,1998-03-30 21:00:00,15,1017.7,1.6,48,4,25000,3.704,,,250,,,,,,,,,,,wg-a,,,,AAXX 30214 07481 12875 62502 10150 20040 39893 40177 51016 60006 82072 92100=
07481,1998-03-31 00:00:00,12,1018.9,0.8,54,3,25000,11.112,,,130,,,,,,,,,,,wg-a,,,,AAXX 31004 07481 12875 51306 10120 20030 39901 40189 52008 60006 83032 90000=
07481,1998-03-31 03:00:00,9,1018.6,-0.5,71,4,25000,11.112,,,150,,,,,,,,,,,wg-a,,,,AAXX 31034 07481 12875 31506 10090 20040 39896 40186 56005 60006 81031 90300=
07481,1998-03-31 06:00:00,9,1018.9,0.2,66,3,12000,7.408,,,170,7.4,18.9,,,,,,,,,wg-a,,,,AAXX 31064 07481 02/62 11704 10090 20030 39898 40189 53002 60006 80001 90600 333 10189 20074 60004=
07481,1998-03-31 09:00:00,15,1018.1,-0.1,48,4,15000,7.408,,,160,,,,,,,,,,,wg-a,,,,AAXX 31094 07481 12/65 11604 10150 20040 39897 40181 58001 60006 80001 90900=
07481,1998-03-31 12:00:00,21,1016,-1.5,33,4,500,14.816,,,200,,,,,,,,,,,wg-a,,,,AAXX 31124 07481 12/00 02008 10210 20040 39882 40160 58015 60006 80000 91200=
07481,1998-03-31 15:00:00,22,1014.2,-1.7,29,3,40000,22.224,,,180,,,,,,,,,,,wg-a,,,,AAXX 31154 07481 12/82 11812 10220 20030 39865 40142 56017 60006 81040 91500=
07481,1998-03-31 18:00:00,17,1015.5,0.9,42,4,500,18.52,,,180,8.4,22,,,,,,,,,wg-a,,,,AAXX 31184 07481 12/00 71810 10170 20040 39874 40155 53009 60006 82042 91800 333 10220 20084=
07481,1998-03-31 21:00:00,14,1016.8,1,63,7,500,22.224,,,190,,,,,,,,,,,wg-a,,,,AAXX 31214 07481 12/00 71912 10140 20070 39884 40168 51010 60006 83042 92100=
07481,1998-04-01 00:00:00,14,1017,0.1,63,7,500,14.816,,,170,,,,,,,,,,,wg-a,,,,AAXX 01004 07481 12/00 71708 10140 20070 39885 40170 50001 60006 83042 90000=
07481,1998-04-01 03:00:00,13,1016.1,-0.9,67,7,20000,14.816,,,150,,,,,,,,,,,wg-a,,,,AAXX 01034 07481 12/70 71508 10130 20070 39876 40161 56009 60006 8707/ 90300=
07481,1998-04-01 06:00:00,13,1016.4,0.2,72,8,18000,11.112,,,150,12.3,16.8,,,,,,,,,wg-a,,,,AAXX 01064 07481 02768 81506 10130 20080 39878 40164 53002 60006 8257/ 90600 333 10168 20123 60004=
07481,1998-04-01 09:00:00,14,1016.5,0.2,72,9,18000,14.816,,,190,,,,,,,,,,,wg-a,,,,AAXX 01094 07481 12568 71908 10140 20090 39880 40165 53002 60006 8287/ 90900=
07481,1998-04-01 12:00:00,16,1015.3,,59,8,15000,25.928,,,180,,,,,,,,,,,wg-a,,,,AAXX 01124 07481 12565 71814 10160 20080 39871 40153 60006 8487/ 91200=
07481,1998-04-01 15:00:00,12,1015.5,-0.1,94,11,9000,14.816,,,250,,,,1,,,,,,60,wg-a,,,,AAXX 01154 07481 12459 82508 10120 20110 39870 40155 58001 60017 76086 8687/ 91500=
07481,1998-04-01 18:00:00,12,1015.8,0.2,88,10,10000,11.112,,,180,11.4,16.7,,,,,,,,1,wg-a,,,,AAXX 01184 07481 02460 71806 10120 20100 39872 40158 53002 60006 70186 8487/ 91800 333 10167 20114 61000=
07481,1998-04-01 21:00:00,10,1016.7,0.7,93,9,25000,11.112,,,190,,,,,,,,,,,wg-a,,,,AAXX 01214 07481 12/75 31906 10100 20090 39879 40167 51007 60006 81031 92100=
07481,1998-04-02 03:00:00,7,1014.3,-1.4,100,7,12000,3.704,,,100,,,,,,,,,,,wg-a,,,,AAXX 02034 07481 12762 51002 10070 20070 39852 40143 58014 60006 81530 90300=
07481,1998-04-02 06:00:00,9,1013.2,-0.8,93,8,12000,11.112,,,180,6.5,12.3,,,,,1,,,,wg-a,,,,AAXX 02064 07481 02462 /1806 10090 20080 39844 40132 55008 60006 85130 90600 333 10123 20065 60014=
07481,1998-04-02 09:00:00,13,1011.3,-1.4,72,8,20000,25.928,,,170,,,,,,,,,,,wg-a,,,,AAXX 02094 07481 12470 71714 10130 20080 39830 40113 58014 60006 81131 90900=
07481,1998-04-02 12:00:00,13,1010.9,-0.5,82,10,9000,18.52,,,220,,,,1,,,,,,60,wg-a,,,,AAXX 02124 07481 02459 82210 10130 20100 39825 40109 55005 60016 76062 8587/ 91200 333 60017=
07481,1998-04-02 15:00:00,14,1008.6,-2.1,72,9,10000,22.224,,,200,,,,3,,,,,,21,wg-a,,,,AAXX 02154 07481 12460 72012 10140 20090 39804 40086 58021 60037 72162 8587/ 91500=
07481,1998-04-02 18:00:00,14,1007.9,-0.7,72,9,15000,22.224,,,190,9.3,14.5,,,,,,,,3,wg-a,,,,AAXX 02184 07481 12465 71912 10140 20090 39797 40079 55007 60006 70362 83872 91800 333 10145 20093=
07481,1998-04-02 21:00:00,13,1008.6,0.6,82,10,12000,25.928,,,190,,,,,,,,,,21,wg-a,,,,AAXX 02214 07481 02462 71914 10130 20100 39803 40086 51006 61000 72162 8353/ 92100 333 ////=
07481,1998-04-03 00:00:00,13,1007.7,-0.9,88,11,10000,25.928,,,180,,,,0,,,,,,21,wg-a,,,,AAXX 03004 07481 02660 81814 10130 20110 39794 40077 58009 60016 72162 8357/ 90000 333 60007=
07481,1998-04-03 03:00:00,13,1006,-1.6,82,10,10000,29.632,,46.3,180,,,,,,,,,,,wg-a,,,,AAXX 03034 07481 12660 81816 10130 20100 39778 40060 58016 60006 875// 90300 333 91025=
07481,1998-04-03 06:00:00,13,1006.1,0.1,82,10,12000,29.632,,,180,12.7,13.9,,,,,5,,,,wg-a,,,,AAXX 03064 07481 02662 81816 10130 20100 39779 40061 51001 60006 8557/ 90600 333 10139 20127 60054=
07481,1998-04-03 09:00:00,16,1005.2,-0.6,63,9,20000,35.188,,,190,,,,,,,,,,,wg-a,,,,AAXX 03094 07481 12770 71919 10160 20090 39773 40052 58006 60006 81532 90900=
07481,1998-04-03 12:00:00,20,1001.9,-2.9,49,9,20000,29.632,,53.708,190,,,,,,,,,,,wg-a,,,,AAXX 03124 07481 12670 71916 10200 20090 39744 40019 58029 60006 81132 91200 333 91029=
07481,1998-04-03 15:00:00,22,999.1,-2.5,43,9,500,46.3,,59.264,200,,,,,,,,,,,wg-a,,,,AAXX 03154 07481 12700 72025 10220 20090 39719 49991 56025 60006 8157/ 91500 333 91032=
07481,1998-04-03 18:00:00,19,998.9,-0.4,49,8,20000,46.3,,74.08,200,13.1,22.1,,,,,,,,,wg-a,,,,AAXX 03184 07481 12770 72025 10190 20080 39715 49989 55004 60006 8157/ 91800 333 10221 20131 91040=
07481,1998-04-03 21:00:00,18,998.4,-0.7,56,9,11000,38.892,,64.82,190,,,,,,,,,,,wg-a,,,,AAXX 03214 07481 12/61 /1921 10180 20090 39708 49984 56007 60006 92100 333 91035=
07481,1998-04-04 00:00:00,17,1000.6,2.1,59,9,20000,31.484,,55.56,220,,,,,,,,,,,wg-a,,,,AAXX 04004 07481 12570 72217 10170 20090 39729 40006 51021 60006 8157/ 90000 333 91030=
07481,1998-04-04 03:00:00,8,1005.1,3.5,93,7,12000,22.224,,,10,,,,4,,,,,,61,wg-a,,,,AAXX 04034 07481 12562 80112 10080 20070 39764 40051 53035 60047 76162 875// 90300=
07481,1998-04-04 06:00:00,6,1007.2,1.8,93,5,10000,18.52,,,80,5.7,19.3,,,,,,,,61,wg-a,,,,AAXX 04064 07481 02360 80810 10060 20050 39782 40072 51018 61000 76162 875// 90600 333 10193 20057 6020=
07481,1998-04-04 09:00:00,7,1008.3,1.2,100,7,15000,14.816,,,150,,,,1,,,,,,60,wg-a,,,,AAXX 04094 07481 12265 81508 10070 20070 39794 40083 53012 60017 76066 8487/ 90900=
07481,1998-04-04 12:00:00,9,1008.2,0.1,87,7,15000,25.928,,,130,,,,1,,,,,,2,wg-a,,,,AAXX 04124 07481 02365 71314 10090 20070 39795 40082 50001 60026 70262 8387/ 91200 333 60017=
07481,1998-04-04 15:00:00,12,1007.1,-0.8,71,7,15000,18.52,,,120,,,,,,,,,,,wg-a,,,,AAXX 04154 07481 12565 /1210 10120 20070 39787 40071 58008 60006 82870 91500=
07481,1998-04-04 18:00:00,11,1006.9,-0.3,76,7,25000,7.408,,,120,5.4,12.9,,,,,,,,,wg-a,,,,AAXX 04184 07481 12675 51204 10110 20070 39784 40069 56003 60006 81132 91800 333 10129 20054=
07481,1998-04-04 21:00:00,10,1009.2,2.1,82,7,500,11.112,,,260,,,,,,,,,,,wg-a,,,,AAXX 04214 07481 12800 42606 10100 20070 39805 40092 51021 60006 84030 92100=
07481,1998-04-05 00:00:00,7,1008.8,-0.6,93,6,500,11.112,,,130,,,,,,,,,,,wg-a,,,,AAXX 05004 07481 12/00 11306 10070 20060 39799 40088 58006 60006 80001 90000=
07481,1998-04-05 03:00:00,8,1007.2,-1.5,87,6,500,11.112,,,150,,,,,,,,,,,wg-a,,,,AAXX 05034 07481 12/00 71506 10080 20060 39784 40072 56015 60006 80004 90300=
07481,1998-04-05 06:00:00,9,1006.5,-0.6,81,6,15000,18.52,,,160,6.4,11,,,,,2,,,,wg-a,,,,AAXX 05064 07481 02/65 71610 10090 20060 39778 40065 55006 60006 85077 90600 333 10110 20064 60024=
07481,1998-04-05 09:00:00,12,1007.5,1.3,67,6,22000,14.816,,,220,,,,,,,,,,,wg-a,,,,AAXX 05094 07481 12772 72208 10120 20060 39791 40075 53013 60006 83572 90900=
07481,1998-04-05 12:00:00,14,1008.1,0.8,63,7,500,18.52,,,250,,,,,,,,,,,wg-a,,,,AAXX 05124 07481 12600 72510 10140 20070 39799 40081 53008 60006 8583/ 91200=
07481,1998-04-05 15:00:00,13,1008.4,0.2,72,8,25000,14.816,,,160,,,,3,,,,,,25,wg-a,,,,AAXX 05154 07481 12675 /1608 10130 20080 39801 40084 50002 60037 72586 84830 91500=
07481,1998-04-05 18:00:00,12,1009.7,1.1,76,8,25000,11.112,,,90,8.7,14.7,,,,,,,,80,wg-a,,,,AAXX 05184 07481 02675 70906 10120 20080 39812 40097 53011 61000 78086 878// 91800 333 10147 20087 6100=
07481,1998-04-05 21:00:00,10,1011.6,1.8,87,8,25000,7.408,,,140,,,,0,,,,,,1,wg-a,,,,AAXX 05214 07481 12675 71404 10100 20080 39830 40116 51018 60007 70186 8487/ 92100=
07481,1998-04-06 06:00:00,7,1014.3,0.5,93,6,25000,14.816,,,150,5.8,11.5,,,,,3,,,,wg-a,,,,AAXX 06064 07481 02775 71508 10070 20060 39852 40143 53005 60006 84532 90600 333 10115 20058 60034=
07481,1998-04-06 09:00:00,12,1014.1,0.3,58,4,25000,14.816,,,190,,,,,,,,,,,wg-a,,,,AAXX 06094 07481 12575 61908 10120 20040 39855 40141 52003 60006 84801 90900=
07481,1998-04-06 12:00:00,15,1011.9,-1.8,41,2,25000,18.52,,,200,,,,,,,,,,,wg-a,,,,AAXX 06124 07481 12675 52010 10150 20020 39837 40119 58018 60006 84102 91200=
07481,1998-04-06 15:00:00,17,1008.8,-2.9,39,3,25000,31.484,,,180,,,,,,,,,,,wg-a,,,,AAXX 06154 07481 12675 51817 10170 20030 39808 40088 56029 60006 84802 91500=
07481,1998-04-06 17:00:00,15,1008.6,-0.4,48,4,25000,25.928,,44.448,190,,16.8,,,,,308,,,,wg-a,,,,AAXX 06174 07481 02875 71914 10150 20040 39804 40086 55004 60006 84502 91700 333 10168 63084 91024=
07481,1998-04-06 18:00:00,15,1008.6,-0.4,48,4,25000,25.928,,,190,7.3,16.8,,,,,,,,,wg-a,,,,AAXX 06184 07481 12875 71914 10150 20040 39804 40086 55004 60006 84502 91800 333 10168 20073=
07481,1998-04-06 21:00:00,13,1008.3,-0.4,54,4,18000,31.484,,,190,,,,,,,,,,,wg-a,,,,AAXX 06214 07481 12468 71917 10130 20040 39800 40083 58004 60006 8353/ 92100=
07481,1998-04-07 00:00:00,12,1005.1,-3.2,54,3,18000,22.224,,,170,,,,,,,,,,21,wg-a,,,,AAXX 07004 07481 02568 81712 10120 20030 39768 40051 58032 61000 72162 875// 90000 333 6100=
07481,1998-04-07 03:00:00,12,1003.1,-2,50,2,20000,18.52,,,190,,,,,,,,,,2,wg-a,,,,AAXX 07034 07481 02570 81910 10120 20020 39748 40031 56020 61000 70262 875// 90300 333 ////=
07481,1998-04-07 06:00:00,12,1000.6,-2.4,58,4,25000,31.484,,61.116,190,10.7,14.8,,,,,,,,21,wg-a,,,,AAXX 07064 07481 02575 71917 10120 20040 39724 40006 56024 61000 72162 8487/ 90600 333 10148 20107 6000 91033=
07481,1998-04-07 12:00:00,11,1005.4,1.7,71,6,500,22.224,,,200,,,,3,,,,,,1,wg-a,,,,AAXX 07124 07481 02500 72012 10110 20060 39770 40054 53017 60046 70186 8487/ 91200 333 60037=
07481,1998-04-07 15:00:00,15,1004.7,-0.4,51,5,40000,14.816,,,190,,,,,,,,,,,wg-a,,,,AAXX 07154 07481 12682 71908 10150 20050 39766 40047 57004 60006 878// 91500=
07481,1998-04-07 18:00:00,12,1006.7,1.8,62,5,500,3.704,,,300,8,15.4,,,,,,,,1,wg-a,,,,AAXX 07184 07481 02600 43002 10120 20050 39784 40067 51018 60006 70198 83803 91800 333 10154 20080 61000=
07481,1998-04-07 21:00:00,9,1009.2,2.1,71,4,500,3.704,,,190,,,,,,,,,,,wg-a,,,,AAXX 07214 07481 12/00 41902 10090 20040 39805 40092 51021 60006 84040 92100=
07481,1998-04-08 00:00:00,8,1010.2,0.9,76,4,500,11.112,,,240,,,,,,,,,,,wg-a,,,,AAXX 08004 07481 12/00 32406 10080 20040 39814 40102 51009 60006 83040 90000=
07481,1998-04-08 03:00:00,8,1009.8,-0.5,71,3,500,11.112,,,180,,,,,,,,,,,wg-a,,,,AAXX 08034 07481 12/00 61806 10080 20030 39809 40098 57005 60006 86040 90300=
07481,1998-04-08 06:00:00,7,1010,0.1,76,3,500,11.112,,,170,4.4,12.3,,,,,4,,,,wg-a,,,,AAXX 08064 07481 02700 51706 10070 20030 39810 40100 53001 60006 83530 90600 333 10123 20044 60044=
07481,1998-04-08 09:00:00,11,1009.5,0,58,3,40000,7.408,,,240,,,,,,,,,,,wg-a,,,,AAXX 08094 07481 12682 /2404 10110 20030 39810 40095 50000 60006 81230 90900=
07481,1998-04-08 12:00:00,15,1007.2,-1.8,41,2,40000,11.112,,,190,,,,,,,,,,,wg-a,,,,AAXX 08124 07481 12682 41906 10150 20020 39791 40072 58018 60006 83840 91200=
07481,1998-04-08 15:00:00,16,1004.2,,39,2,40000,14.816,,,230,,,,,,,,,,15,wg-a,,,,AAXX 08154 07481 12682 62308 10160 20020 39763 40042 60006 71511 84840 91500=
07481,1998-04-08 18:00:00,13,1003.5,-1,54,4,500,11.112,,,200,6.6,16.4,,,,,,,,16,wg-a,,,,AAXX 08184 07481 02400 52006 10130 20040 39753 40035 56010 61000 71686 8594/ 91800 333 10164 20066 6001=
07481,1998-04-08 21:00:00,10,1004.8,0.9,66,4,500,14.816,,,240,,,,,,,,,,,wg-a,,,,AAXX 08214 07481 12600 52408 10100 20040 39762 40048 50009 60006 82840 92100=
07481,1998-04-09 00:00:00,9,1004.2,-0.6,76,5,500,14.816,,,240,,,,,,,,,,60,wg-a,,,,AAXX 09004 07481 02500 72408 10090 20050 39756 40042 58006 61000 76061 8284/ 90000 333 6100=
07481,1998-04-09 03:00:00,9,1002.6,-1.6,71,4,25000,11.112,,,200,,,,,,,,,,3,wg-a,,,,AAXX 09034 07481 02675 /2006 10090 20040 39740 40026 57016 61000 70362 84530 90300 333 ////=
07481,1998-04-09 06:00:00,8,1001.5,-1.1,71,3,25000,14.816,,,170,7.1,12.6,,,,,1,,,3,wg-a,,,,AAXX 09064 07481 02675 41708 10080 20030 39729 40015 56011 60006 70361 83532 90600 333 10126 20071 60014=
07481,1998-04-09 09:00:00,11,1000.2,-1,54,2,500,29.632,,48.152,200,,,,,,,,,,,wg-a,,,,AAXX 09094 07481 12500 52016 10110 20020 39719 40002 56010 60006 82832 90900 333 91026=
07481,1998-04-09 12:00:00,14,998.4,-1.4,41,1,20000,29.632,,,190,,,,,,,,,,,wg-a,,,,AAXX 09124 07481 12570 /1916 10140 20010 39705 49984 58014 60006 82943 91200=
07481,1998-04-09 15:00:00,14,996.7,-1.7,51,4,20000,14.816,,,260,,,,,,,,,,,wg-a,,,,AAXX 09154 07481 12670 72608 10140 20040 39688 49967 58017 60006 83943 91500=
07481,1998-04-09 21:00:00,7,998.3,-0.3,93,6,8000,18.52,,,250,,,,15,,,,,,80,wg-a,,,,AAXX 09214 07481 12358 82510 10070 20060 39697 49983 58003 60157 78096 889// 92100=
07481,1998-04-10 00:00:00,6,998.2,-0.3,93,5,20000,14.816,,,140,,,,12,,,,,,21,wg-a,,,,AAXX 10004 07481 02270 71408 10060 20050 39694 49982 58003 60276 72198 878// 90000 333 60127=
07481,1998-04-10 03:00:00,5,995.9,-2.2,100,5,10000,3.704,,,320,,,,0,,,,,,61,wg-a,,,,AAXX 10034 07481 12160 83202 10050 20050 39672 49959 58022 60007 76162 875// 90300=
07481,1998-04-10 06:00:00,4,996.3,0.2,93,3,8000,0,,,0,3.5,8,,,,,,,,61,wg-a,,,,AAXX 10064 07481 02458 80000 10040 20030 39674 49963 51002 61000 76162 8557/ 90600 333 10080 20035 6038=
07481,1998-04-10 09:00:00,3,996.8,0.4,100,3,15000,18.52,,,140,,,,5,,,,,,21,wg-a,,,,AAXX 10094 07481 12265 71410 10030 20030 39678 49968 53004 60057 72162 8557/ 90900=
07481,1998-04-10 12:00:00,7,996.1,-0.3,81,4,25000,14.816,,,130,,,,,,,,,,3,wg-a,,,,AAXX 10124 07481 12475 71308 10070 20040 39675 49961 58003 60056 70362 8327/ 91200=
07481,1998-04-10 15:00:00,11,994.3,-1.3,66,5,25000,11.112,,,170,,,,,,,,,,,wg-a,,,,AAXX 10154 07481 12575 71706 10110 20050 39662 49943 57013 60006 82836 91500=
07481,1998-04-10 18:00:00,11,995.1,0.7,58,3,25000,18.52,,,180,3.1,11.5,,,,,,,,15,wg-a,,,,AAXX 10184 07481 12575 /1810 10110 20030 39669 49951 53007 60006 71522 8393/ 91800 333 10115 20031=
07481,1998-04-10 21:00:00,9,997.9,2.5,66,3,500,11.112,,,180,,,,,,,,,,1,wg-a,,,,AAXX 10214 07481 02500 31806 10090 20030 39694 49979 51025 61000 70186 82232 92100 333 ////=
07481,1998-04-11 00:00:00,7,1000,1.9,76,3,500,14.816,,,190,,,,,,,,,,3,wg-a,,,,AAXX 11004 07481 02500 51908 10070 20030 39713 40000 51019 61000 70386 81232 90000 333 ////=
07481,1998-04-11 03:00:00,7,999.9,-0.1,76,3,500,11.112,,,200,,,,,,,,,,,wg-a,,,,AAXX 11034 07481 12600 52006 10070 20030 39712 49999 58001 60006 81582 90300=
07481,1998-04-11 06:00:00,7,1000.3,0.4,81,4,20000,11.112,,,210,5.3,10.7,,,,,5,,,,wg-a,,,,AAXX 11064 07481 02670 72106 10070 20040 39716 40003 53004 60006 82532 90600 333 10107 20053 60054=
07481,1998-04-11 09:00:00,5,1001.8,1.3,93,4,15000,14.816,,,310,,,,1,,,,,,61,wg-a,,,,AAXX 11094 07481 12465 73108 10050 20040 39729 40018 53013 60017 76162 878// 90900=
07481,1998-04-11 12:00:00,4,1002.5,0.5,93,3,9000,14.816,,,360,,,,4,,,,,,61,wg-a,,,,AAXX 11124 07481 02459 83608 10040 20030 39734 40025 51005 60056 76162 878// 91200 333 60047=
07481,1998-04-11 18:00:00,4,1002.8,0.5,87,2,25000,14.816,,,140,3.7,6.6,,,,,,,,1,wg-a,,,,AAXX 11184 07481 12475 71408 10040 20020 39737 40028 53005 60006 70162 81842 91800 333 10066 20037=
07481,1998-04-12 00:00:00,3,1004.1,0.3,93,2,15000,3.704,,,140,,,,0,,,,,,3,wg-a,,,,AAXX 12004 07481 02465 71402 10030 20020 39749 40041 51003 60016 70361 875// 90000 333 60007=
07481,1998-04-12 03:00:00,4,1004.1,0.1,87,2,15000,7.408,,,190,,,,,,,,,,,wg-a,,,,AAXX 12034 07481 12665 81904 10040 20020 39750 40041 53001 60006 885// 90300=
07481,1998-04-12 06:00:00,4,1004.8,0.6,87,2,13000,7.408,,,160,2.7,4.2,,,,,7,,,,wg-a,,,,AAXX 12064 07481 02663 /1604 10040 20020 39756 40048 53006 60006 86500 90600 333 10042 20027 60074=
07481,1998-04-12 09:00:00,5,1006.4,1.7,87,3,15000,7.408,,,180,,,,1,,,,,,60,wg-a,,,,AAXX 12094 07481 12465 71804 10050 20030 39773 40064 52017 60017 76086 8587/ 90900=
07481,1998-04-12 12:00:00,5,1007,0.6,93,4,500,7.408,,,180,,,,1,,,,,,81,wg-a,,,,AAXX 12124 07481 02400 /1804 10050 20040 39779 40070 51006 60036 78198 86900 91200 333 60017=
07481,1998-04-12 15:00:00,6,1006.6,-0.2,87,4,25000,22.224,,,140,,,,2,,,,,,29,wg-a,,,,AAXX 12154 07481 12475 /1412 10060 20040 39777 40066 56002 60027 72998 85903 91500=
07481,1998-04-12 18:00:00,5,1008.1,1.2,87,3,15000,7.408,,,220,3.8,8.9,,3,,,,,,29,wg-a,,,,AAXX 12184 07481 02465 72204 10050 20030 39789 40081 53012 60006 72998 8597/ 91800 333 10089 20038 60037=
07481,1998-04-12 21:00:00,4,1010,1.8,87,2,15000,14.816,,,290,,,,0,,,,,,1,wg-a,,,,AAXX 12214 07481 12465 72908 10040 20020 39807 40100 52018 60007 70162 81872 92100=
07481,1998-04-13 00:00:00,4,1010.4,0.4,81,1,20000,7.408,,,290,,,,,,,,,,3,wg-a,,,,AAXX 13004 07481 12470 72904 10040 20010 39811 40104 51004 60016 70362 878// 90000=
07481,1998-04-13 03:00:00,3,1009.8,-0.7,81,0,20000,7.408,,,210,,,,,,,,,,,wg-a,,,,AAXX 13034 07481 12570 72104 10030 20000 39804 40098 56007 60006 878// 90300=
07481,1998-04-13 06:00:00,3,1009.8,-0,87,1,18000,11.112,,,220,2.3,4.9,,,,,8,,,,wg-a,,,,AAXX 13064 07481 02668 72206 10030 20010 39804 40098 55000 60006 8457/ 90600 333 10049 20023 60084=
07481,1998-04-13 09:00:00,3,1010.5,0.7,93,2,12000,14.816,,,240,,,,,,,,,,60,wg-a,,,,AAXX 13094 07481 02462 72408 10030 20020 39811 40105 53007 61000 76062 85802 90900 333 ////=
07481,1998-04-13 12:00:00,3,1010.6,0.1,93,2,10000,14.816,,,300,,,,1,,,,,,60,wg-a,,,,AAXX 13124 07481 02460 73008 10030 20020 39812 40106 50001 60016 76087 878// 91200 333 60017=
07481,1998-04-13 15:00:00,4,1009.6,-0.9,87,2,15000,25.928,,,30,,,,,,,,,,1,wg-a,,,,AAXX 13154 07481 02465 70314 10040 20020 39803 40096 55009 61000 70162 85302 91500 333 ////=
07481,1998-04-13 18:00:00,4,1009.9,0.3,81,1,12000,3.704,,,50,2,7.6,,0,,,,,,1,wg-a,,,,AAXX 13184 07481 02462 70502 10040 20010 39806 40099 50003 60006 70162 8538/ 91800 333 10076 20020 60007=
07481,1998-04-13 21:00:00,3,1011.5,1.4,93,2,20000,7.408,,,280,,,,,,,,,,3,wg-a,,,,AAXX 13214 07481 02170 72804 10030 20020 39820 40115 52014 61000 70386 878// 92100 333 ////=
07481,1998-04-14 00:00:00,2,1012.1,0.5,93,1,18000,3.704,,,220,,,,,,,,,,1,wg-a,,,,AAXX 14004 07481 02668 22202 10020 20010 39825 40121 51005 61000 70186 82500 90000 333 ////=
07481,1998-04-14 03:00:00,1,1011.3,-0.9,93,0,9000,7.408,,,150,,,,,,,,,,,wg-a,,,,AAXX 14034 07481 12459 71504 10010 20000 39816 40113 58009 60006 875// 90300=
07481,1998-04-14 06:00:00,1,1011.9,0.6,93,0,15000,7.408,,,220,-0.8,3.6,,,,,2,,,2,wg-a,,,,AAXX 14064 07481 02665 /2204 10010 20000 39822 40119 53006 60006 70241 81501 90600 333 10036 21008 60024=
07481,1998-04-14 09:00:00,5,1011.3,-0.1,70,0,18000,7.408,,,150,,,,,,,,,,,wg-a,,,,AAXX 14094 07481 12468 41504 10050 20000 39821 40113 58001 60006 82202 90900=
07481,1998-04-14 12:00:00,9,1008.9,-2,46,-2,500,11.112,,,170,,,,,,,,,,,wg-a,,,,AAXX 14124 07481 12600 31706 10090 21020 39801 40089 58020 60006 83201 91200=
07481,1998-04-14 15:00:00,11,1006.6,-2,22,-10,60000,29.632,,,170,,,,,,,,,,,wg-a,,,,AAXX 14154 07481 12786 21716 10110 21100 39781 40066 58020 60006 81101 91500=
07481,1998-04-14 18:00:00,10,1005.1,-1.6,34,-5,40000,25.928,,,190,0.6,12,,,,,,,,,wg-a,,,,AAXX 14184 07481 12/82 31914 10100 21050 39765 40051 58016 60006 80002 91800 333 10120 20006=
07481,1998-04-14 21:00:00,8,1006,0.7,57,0,500,22.224,,,180,,,,,,,,,,,wg-a,,,,AAXX 14214 07481 12/00 71812 10080 20000 39772 40060 51007 60006 81042 92100=
07481,1998-04-15 00:00:00,8,1005.3,-0.7,61,1,500,7.408,,,130,,,,,,,,,,,wg-a,,,,AAXX 15004 07481 12500 71304 10080 20010 39765 40053 56007 60006 8127/ 90000=
07481,1998-04-15 03:00:00,7,1002.9,-2.3,76,3,11000,11.112,,,240,,,,,,,,,,,wg-a,,,,AAXX 15034 07481 32/61 /2406 10070 20030 39742 40029 56023 90300=
07481,1998-04-15 06:00:00,9,1001.3,-1.4,76,5,20000,31.484,,,170,6.9,10.1,,,,,,,,3,wg-a,,,,AAXX 15064 07481 02570 81717 10090 20050 39728 40013 58014 60006 70362 8587/ 90600 333 10101 20069 60004=
07481,1998-04-15 09:00:00,11,1000.1,-1,62,4,20000,38.892,,64.82,170,,,,,,,,,,,wg-a,,,,AAXX 15094 07481 12570 81721 10110 20040 39718 40001 55010 60006 8487/ 90900 333 91035=
07481,1998-04-15 12:00:00,13,997.8,-2,41,0,20000,42.596,,74.08,180,,,,,,,,,,,wg-a,,,,AAXX 15124 07481 12570 81823 10130 20000 39698 49978 58020 60006 8587/ 91200 333 91040=
07481,1998-04-15 15:00:00,11,996.8,-1.2,66,5,20000,31.484,,57.412,230,,,,,,,,,,,wg-a,,,,AAXX 15154 07481 12670 82317 10110 20050 39686 49968 55012 60006 878// 91500 333 91031=
07481,1998-04-15 18:00:00,7,998.8,1.5,93,6,8000,14.816,,,220,6.5,13.3,,,,,,,,61,wg-a,,,,AAXX 15184 07481 02458 82208 10070 20060 39701 49988 51015 61000 76162 878// 91800 333 10133 20065 6003=
07481,1998-04-15 21:00:00,7,1002.8,3.9,93,6,9000,7.408,,,270,,,,7,,,,,,61,wg-a,,,,AAXX 15214 07481 12459 82704 10070 20060 39740 40028 53039 60077 76166 878// 92100=
07481,1998-04-16 00:00:00,4,1006.1,2.9,93,3,500,14.816,,,130,,,,2,,,,,,21,wg-a,,,,AAXX 16004 07481 02600 81308 10040 20030 39769 40061 51029 60096 72162 8487/ 90000 333 60027=
07481,1998-04-16 03:00:00,3,1006.2,0,93,2,500,11.112,,,140,,,,,,,,,,,wg-a,,,,AAXX 16034 07481 12600 21406 10030 20020 39769 40062 50000 60006 81530 90300=
07481,1998-04-16 06:00:00,3,1005.7,-0.4,93,2,25000,7.408,,,180,1.9,7,,,,,12,,,,wg-a,,,,AAXX 16064 07481 02675 41804 10030 20020 39765 40057 55004 60006 81542 90600 333 10070 20019 60124=
07481,1998-04-16 09:00:00,8,1003.7,-1.5,61,1,500,3.704,,,120,,,,,,,,,,,wg-a,,,,AAXX 16094 07481 12400 31202 10080 20010 39750 40037 58015 60006 82242 90900=
07481,1998-04-16 12:00:00,10,1000.2,,43,-2,40000,18.52,,,190,,,,,,,,,,,wg-a,,,,AAXX 16124 07481 12682 61910 10100 21020 39718 40002 60006 82202 91200=
07481,1998-04-16 15:00:00,12,996,-3.9,38,-2,40000,29.632,,,170,,,,,,,,,,,wg-a,,,,AAXX 16154 07481 12682 41716 10120 21020 39679 49960 58039 60006 81242 91500=
07481,1998-04-16 18:00:00,10,995.2,-0.9,50,0,40000,35.188,,53.708,190,3.1,12.8,,,,,,,,,wg-a,,,,AAXX 16184 07481 12682 81919 10100 20000 39670 49952 56009 60006 8127/ 91800 333 10128 20031 91029=
07481,1998-04-16 21:00:00,8,995.3,-0.1,76,4,20000,25.928,,,180,,,,,,,,,,60,wg-a,,,,AAXX 16214 07481 02470 81814 10080 20040 39669 49953 55001 61000 76062 8457/ 92100 333 ////=
07481,1998-04-17 00:00:00,8,991.9,-3.4,76,4,20000,29.632,,,160,,,,0,,,,,,2,wg-a,,,,AAXX 17004 07481 02470 71616 10080 20040 39635 49919 58034 60016 70262 8257/ 90000 333 60007=
07481,1998-04-17 03:00:00,7,990,-1.9,81,4,20000,25.928,,,180,,,,,,,,,,,wg-a,,,,AAXX 17034 07481 12670 71814 10070 20040 39616 49900 56019 60006 8257/ 90300=
07481,1998-04-17 06:00:00,9,990.3,0.5,76,5,20000,31.484,,,200,6.9,10.4,,,,,,,,,wg-a,,,,AAXX 17064 07481 02670 72017 10090 20050 39621 49903 53005 60006 8557/ 90600 333 10104 20069 60004=
07481,1998-04-17 09:00:00,12,994.3,4.1,44,0,40000,14.816,,,260,,,,,,,,,,,wg-a,,,,AAXX 17094 07481 12582 /2608 10120 20000 39662 49943 52041 60006 85830 90900=
07481,1998-04-17 12:00:00,13,994.8,0.7,38,-1,40000,29.632,,,230,,,,,,,,,,,wg-a,,,,AAXX 17124 07481 12682 /2316 10130 21010 39669 49948 50007 60006 84232 91200=
07481,1998-04-17 15:00:00,10,995.7,0.5,53,1,25000,31.484,,,210,,,,,,,,,,80,wg-a,,,,AAXX 17154 07481 02575 72117 10100 20010 39674 49957 53005 61000 78086 879// 91500 333 ////=
07481,1998-04-17 18:00:00,9,996.6,0.8,57,1,40000,22.224,,,220,8.3,14.4,,0,,,,,,1,wg-a,,,,AAXX 17184 07481 02682 72212 10090 20010 39682 49966 53008 60006 70186 83932 91800 333 10144 20083 60007=
07481,1998-04-18 00:00:00,5,1000.6,1.8,87,3,12000,14.816,,,230,,,,7,,,,,,63,wg-a,,,,AAXX 18004 07481 02462 82308 10050 20030 39716 40006 53018 60076 76386 885// 90000 333 60077=
07481,1998-04-18 03:00:00,6,1001.5,1.1,87,4,20000,18.52,,,290,,,,4,,,,,,1,wg-a,,,,AAXX 18034 07481 12470 82910 10060 20040 39727 40015 53011 60047 70162 888// 90300=
07481,1998-04-18 09:00:00,6,1006.3,2.3,87,4,10000,25.928,,,340,,,,,,,,,,80,wg-a,,,,AAXX 18094 07481 02560 83414 10060 20040 39773 40063 53023 61000 78086 878// 90900 333 ////=
07481,1998-04-18 12:00:00,9,1007.2,1.2,61,2,18000,25.928,,,300,,,,1,,,,,,25,wg-a,,,,AAXX 18124 07481 02568 73014 10090 20020 39785 40072 51012 60016 72586 8527/ 91200 333 60017=
07481,1998-04-18 15:00:00,8,1008.6,1.2,66,2,25000,11.112,,,340,,,,,,,,,,,wg-a,,,,AAXX 18154 07481 12575 73406 10080 20020 39797 40086 51012 60006 8487/ 91500=
07481,1998-04-18 18:00:00,8,1009.4,0.9,57,0,500,7.408,,,200,5.4,9,,,,,,,,,wg-a,,,,AAXX 18184 07481 12600 /2004 10080 20000 39806 40094 51009 60006 81830 91800 333 10090 20054=
07481,1998-04-18 21:00:00,5,1011.2,1.4,87,3,25000,14.816,,,170,,,,,,,,,,,wg-a,,,,AAXX 18214 07481 12775 31708 10050 20030 39820 40112 51014 60006 81830 92100=
07481,1998-04-19 00:00:00,5,1011.9,0.7,81,2,25000,3.704,,,180,,,,,,,,,,,wg-a,,,,AAXX 19004 07481 12675 61802 10050 20020 39827 40119 51007 60006 84831 90000=
07481,1998-04-19 03:00:00,4,1011.6,-0.4,100,4,20000,7.408,,,140,,,,1,,,,,,21,wg-a,,,,AAXX 19034 07481 12570 81404 10040 20040 39823 40116 56004 60017 72162 878// 90300=
07481,1998-04-19 06:00:00,4,1012.5,0.9,100,4,8000,7.408,,,160,4.1,8.2,,,,,,,,60,wg-a,,,,AAXX 19064 07481 02458 81604 10040 20040 39832 40125 53009 61000 76062 878// 90600 333 10082 20041 6002=
07481,1998-04-19 09:00:00,6,1014.2,1.8,87,4,12000,11.112,,,270,,,,1,,,,,,60,wg-a,,,,AAXX 19094 07481 12462 82706 10060 20040 39850 40142 53018 60017 76062 878// 90900=
07481,1998-04-19 12:00:00,10,1013.9,0.1,66,4,500,7.408,,,10,,,,0,,,,,,1,wg-a,,,,AAXX 19124 07481 02500 70104 10100 20040 39851 40139 50001 60016 70162 86802 91200 333 60007=
07481,1998-04-19 15:00:00,12,1013.3,-0.4,50,2,50000,11.112,,,70,,,,,,,,,,,wg-a,,,,AAXX 19154 07481 12684 60706 10120 20020 39847 40133 56004 60006 85801 91500=
07481,1998-04-19 18:00:00,11,1013.5,0.2,54,2,60000,7.408,,,100,4.4,12.7,,,,,,,,,wg-a,,,,AAXX 19184 07481 12686 /1004 10110 20020 39849 40135 53002 60006 81500 91800 333 10127 20044=
07481,1998-04-19 21:00:00,8,1015,1.1,66,2,40000,7.408,,,160,,,,,,,,,,,wg-a,,,,AAXX 19214 07481 12/82 01604 10080 20020 39860 40150 51011 60006 80000 92100=
07481,1998-04-20 00:00:00,6,1016,0.7,75,2,500,11.112,,,160,,,,,,,,,,,wg-a,,,,AAXX 20004 07481 12/00 01606 10060 20020 39867 40160 51007 60006 80000 90000=
07481,1998-04-20 03:00:00,3,1015.9,-0.3,87,1,25000,11.112,,,150,,,,,,,,,,,wg-a,,,,AAXX 20034 07481 12/75 01506 10030 20010 39864 40159 58003 60006 80000 90300=
07481,1998-04-20 06:00:00,5,1016.5,0.7,75,1,40000,7.408,,,170,3.2,11.3,,,,,1,,,,wg-a,,,,AAXX 20064 07481 02/82 21704 10050 20010 39871 40165 53007 60006 80002 90600 333 10113 20032 60014=
07481,1998-04-20 09:00:00,12,1016.4,0.6,58,4,500,11.112,,,150,,,,,,,,,,,wg-a,,,,AAXX 20094 07481 12/00 41506 10120 20040 39877 40164 51006 60006 80002 90900=
07481,1998-04-20 12:00:00,17,1015.2,-0.6,36,2,50000,22.224,,,180,,,,,,,,,,,wg-a,,,,AAXX 20124 07481 12684 /1812 10170 20020 39871 40152 57006 60006 81105 91200=
07481,1998-04-20 15:00:00,16,1015.9,0.6,51,6,35000,14.816,,,240,,,,,,,,,,21,wg-a,,,,AAXX 20154 07481 02681 72408 10160 20060 39877 40159 53006 61000 72162 8487/ 91500 333 ////=
07481,1998-04-20 18:00:00,12,1017.3,1,88,10,500,11.112,,,100,5.1,17.9,,,,,,,,1,wg-a,,,,AAXX 20184 07481 12600 71006 10120 20100 39887 40173 53010 60006 70162 875// 91800 333 10179 20051=
07481,1998-04-20 21:00:00,11,1019.1,1.6,94,10,12000,7.408,,,120,,,,2,,,,,,61,wg-a,,,,AAXX 20214 07481 12562 81204 10110 20100 39903 40191 51016 60027 76162 8757/ 92100=
07481,1998-04-21 00:00:00,11,1019.3,0.3,94,10,15000,7.408,,,180,,,,1,,,,,,1,wg-a,,,,AAXX 21004 07481 02565 71804 10110 20100 39906 40193 50003 60036 70162 8357/ 90000 333 60017=
07481,1998-04-21 03:00:00,11,1018.9,-0.5,76,7,18000,11.112,,,180,,,,,,,,,,,wg-a,,,,AAXX 21034 07481 12768 /1806 10110 20070 39901 40189 56005 60006 83530 90300=
07481,1998-04-21 06:00:00,10,1019.6,0.6,76,6,20000,7.408,,,150,9.4,12.2,,,,,3,,,,wg-a,,,,AAXX 21064 07481 02/70 31504 10100 20060 39907 40196 53006 60006 81032 90600 333 10122 20094 60034=
07481,1998-04-21 09:00:00,15,1019.5,0.4,48,4,20000,11.112,,,190,,,,,,,,,,,wg-a,,,,AAXX 21094 07481 12470 41906 10150 20040 39911 40195 51004 60006 81102 90900=
07481,1998-04-21 12:00:00,19,1017.5,-1.5,46,7,500,7.408,,,190,,,,,,,,,,,wg-a,,,,AAXX 21124 07481 12700 21904 10190 20070 39896 40175 56015 60006 81802 91200=
07481,1998-04-21 15:00:00,21,1015.6,-1.8,38,6,35000,11.112,,,190,,,,,,,,,,,wg-a,,,,AAXX 21154 07481 12781 31906 10210 20060 39878 40156 58018 60006 82842 91500=
07481,1998-04-21 18:00:00,20,1014.9,-0.7,37,5,35000,11.112,,,190,10.4,21.5,,,,,,,,,wg-a,,,,AAXX 21184 07481 12781 31906 10200 20050 39871 40149 56007 60006 82402 91800 333 10215 20104=
07481,1998-04-21 21:00:00,16,1016,0.7,63,9,25000,14.816,,,170,,,,,,,,,,,wg-a,,,,AAXX 21214 07481 12/75 11708 10160 20090 39878 40160 51007 60006 80002 92100=
07481,1998-04-22 00:00:00,13,1016.5,0.1,72,8,25000,11.112,,,150,,,,,,,,,,,wg-a,,,,AAXX 22004 07481 12/75 01506 10130 20080 39879 40165 53001 60006 80000 90000=
07481,1998-04-22 03:00:00,11,1015.7,-0.9,82,8,25000,11.112,,,140,,,,,,,,,,,wg-a,,,,AAXX 22034 07481 12/75 01406 10110 20080 39870 40157 56009 60006 80000 90300=
07481,1998-04-22 06:00:00,12,1015.7,0.1,82,9,25000,11.112,,,140,10.5,20,,,,,,,,,wg-a,,,,AAXX 22064 07481 02/75 01406 10120 20090 39871 40157 53001 60006 80000 90600 333 10200 20105 60004=
07481,1998-04-22 12:00:00,22,1011.7,-2.2,41,8,500,7.408,,,140,,,,,,,,,,,wg-a,,,,AAXX 22124 07481 12600 /1404 10220 20080 39841 40117 58022 60006 81100 91200=
07481,1998-04-22 15:00:00,23,1009.7,-1.8,31,5,500,14.816,,,190,,,,,,,,,,,wg-a,,,,AAXX 22154 07481 12600 21908 10230 20050 39823 40097 58018 60006 81102 91500=
07481,1998-04-22 18:00:00,21,1010.2,0.3,40,7,500,14.816,,,180,11.6,23,,,,,,,,,wg-a,,,,AAXX 22184 07481 12700 51808 10210 20070 39826 40102 53003 60006 814/2 91800 333 10230 20116=
07481,1998-04-22 21:00:00,17,1011.9,1.3,52,7,35000,14.816,,,200,,,,,,,,,,,wg-a,,,,AAXX 22214 07481 12/81 62008 10170 20070 39839 40119 51013 60006 83042 92100=
07481,1998-04-23 00:00:00,16,1013.1,1,55,7,10000,14.816,,,170,,,,,,,,,,,wg-a,,,,AAXX 23004 07481 12/60 /1708 10160 20070 39849 40131 51010 60006 90000=
07481,1998-04-23 03:00:00,14,1013.7,0.4,63,7,25000,7.408,,,140,,,,,,,,,,,wg-a,,,,AAXX 23034 07481 12/75 71404 10140 20070 39853 40137 53004 60006 85032 90300=
07481,1998-04-23 06:00:00,14,1014.8,1.1,67,8,35000,3.704,,,220,12.8,20.7,,,,,,,,,wg-a,,,,AAXX 23064 07481 02681 72202 10140 20080 39864 40148 53011 60006 8253/ 90600 333 10207 20128 60004=
07481,1998-04-23 09:00:00,17,1015.6,1.1,55,8,500,11.112,,,320,,,,,,,,,,,wg-a,,,,AAXX 23094 07481 12/00 63206 10170 20080 39875 40156 51011 60006 81042 90900=
07481,1998-04-23 12:00:00,20,1015,-0.3,53,10,500,11.112,,,320,,,,,,,,,,,wg-a,,,,AAXX 23124 07481 12600 73206 10200 20100 39872 40150 58003 60006 81182 91200=
07481,1998-04-23 15:00:00,21,1014.7,-0.2,49,10,35000,14.816,,,350,,,,,,,,,,,wg-a,,,,AAXX 23154 07481 12681 /3508 10210 20100 39870 40147 58002 60006 81202 91500=
07481,1998-04-23 18:00:00,19,1015.2,0.3,60,11,35000,3.704,,,30,13.5,21.2,,,,,,,,,wg-a,,,,AAXX 23184 07481 12681 40302 10190 20110 39873 40152 53003 60006 81102 91800 333 10212 20135=
07481,1998-04-23 21:00:00,17,1017.4,1.9,68,11,25000,3.704,,,320,,,,,,,,,,,wg-a,,,,AAXX 23214 07481 12775 53202 10170 20110 39892 40174 51019 60006 825/2 92100=
07481,1998-04-24 00:00:00,14,1019.9,2.1,67,8,25000,11.112,,,350,,,,,,,,,,,wg-a,,,,AAXX 24004 07481 12775 53506 10140 20080 39913 40199 51021 60006 825/2 90000=
07481,1998-04-24 03:00:00,13,1020.8,0.8,72,8,25000,3.704,,,320,,,,,,,,,,,wg-a,,,,AAXX 24034 07481 12775 73202 10130 20080 39921 40208 53008 60006 865/2 90300=
07481,1998-04-24 06:00:00,13,1021.9,1.1,72,8,25000,7.408,,,40,12.3,18.7,,,,,,,,,wg-a,,,,AAXX 24064 07481 02675 50404 10130 20080 39932 40219 53011 60006 83531 90600 333 10187 20123 60004=
07481,1998-04-24 09:00:00,14,1023.2,1.4,67,8,500,14.816,,,30,,,,,,,,,,,wg-a,,,,AAXX 24094 07481 12500 /0308 10140 20080 39946 40232 51014 60006 84801 90900=
07481,1998-04-24 12:00:00,16,1022.6,-0.4,55,7,500,11.112,,,10,,,,,,,,,,,wg-a,,,,AAXX 24124 07481 12600 60106 10160 20070 39942 40226 58004 60006 85801 91200=
07481,1998-04-24 18:00:00,15,1022.6,0.4,59,7,500,11.112,,,10,12.6,18.1,,,,,,,,,wg-a,,,,AAXX 24184 07481 12600 40106 10150 20070 39941 40226 52004 60006 83831 91800 333 10181 20126=
07481,1998-04-25 00:00:00,11,1023.3,-0.1,82,8,500,0,,,0,,,,,,,,,,,wg-a,,,,AAXX 25004 07481 12/00 50000 10110 20080 39944 40233 58001 60006 84031 90000=
07481,1998-04-25 12:00:00,20,1018.1,-2.4,49,9,500,3.704,,,80,,,,,,,,,,,wg-a,,,,AAXX 25124 07481 12/00 60802 10200 20090 39902 40181 56024 60006 84031 91200=
07481,1998-04-25 18:00:00,19,1015.4,-0.8,60,11,500,11.112,,,20,10.3,21.7,,,,,,,,,wg-a,,,,AAXX 25184 07481 12/00 70206 10190 20110 39875 40154 56008 60006 85072 91800 333 10217 20103=
07481,1998-04-26 00:00:00,17,1011.9,-2.7,52,7,40000,18.52,,,160,,,,,,,,,,,wg-a,,,,AAXX 26004 07481 12/82 71610 10170 20070 39839 40119 56027 60006 8707/ 90000=
07481,1998-04-26 06:00:00,14,1010.5,-1.4,72,9,25000,18.52,,,140,14.2,19.1,,,,,,,,25,wg-a,,,,AAXX 26064 07481 02775 71410 10140 20090 39823 40105 58014 61000 72522 8758/ 90600 333 10191 20142 6100=
07481,1998-04-26 12:00:00,19,1006.7,-1.5,49,8,40000,25.928,,,240,,,,,,,,,,,wg-a,,,,AAXX 26124 07481 12682 82414 10190 20080 39790 40067 58015 60006 81137 91200=
07481,1998-04-26 18:00:00,18,1003.8,-0.9,52,8,40000,14.816,,,180,14.3,19.4,,,,,,,,,wg-a,,,,AAXX 26184 07481 12782 81808 10180 20080 39761 40038 58009 60006 8352/ 91800 333 10194 20143=
07481,1998-04-27 00:00:00,11,1003.4,-1.1,94,10,20000,11.112,,,340,,,,,,,,,,,wg-a,,,,AAXX 27004 07481 12370 73406 10110 20100 39751 40034 58011 60006 8557/ 90000=
07481,1998-04-27 06:00:00,6,1003.7,1.1,93,5,7000,22.224,,,280,6.2,17.6,,,,,,,,81,wg-a,,,,AAXX 27064 07481 02257 82812 10060 20050 39748 40037 53011 61000 78196 889// 90600 333 10176 20062 6010=
07481,1998-04-27 09:00:00,4,1006.8,2.8,93,3,500,11.112,,,310,,,,22,,,,,,65,wg-a,,,,AAXX 27094 07481 12400 83106 10040 20030 39776 40068 50028 60227 76596 888// 90900=
07481,1998-04-27 12:00:00,5,1008.1,1.4,100,5,6000,7.408,,,120,,,,4,,,,,,60,wg-a,,,,AAXX 27124 07481 02456 81204 10050 20050 39790 40081 50014 60266 76096 888// 91200 333 60047=
07481,1998-04-27 18:00:00,10,1007.9,0.4,76,6,500,7.408,,,110,,,,,,,,,,,wg-a,,,,AAXX 27184 07481 12400 71104 10100 20060 39793 40079 53004 60006 84831 91800=
07481,1998-04-28 00:00:00,8,1009.1,0.1,93,7,18000,7.408,,,170,,,,,,,,,,2,wg-a,,,,AAXX 28004 07481 12668 71704 10080 20070 39802 40091 52001 60016 70262 84531 90000=
07481,1998-04-28 06:00:00,8,1009.3,0.4,93,7,18000,0,,,0,7.1,9.7,,,,,,,,2,wg-a,,,,AAXX 28064 07481 12568 70000 10080 20070 39805 40093 53004 60006 70286 878// 90600 333 10097 20071=
07481,1998-04-28 12:00:00,13,1008.3,-0.8,58,5,500,11.112,,,330,,,,,,,,,,,wg-a,,,,AAXX 28124 07481 12500 63306 10130 20050 39800 40083 58008 60006 86800 91200=
07481,1998-04-28 15:00:00,14,1007.5,-0.7,51,4,500,3.704,,,340,,,,,,,,,,,wg-a,,,,AAXX 28154 07481 12500 63402 10140 20040 39793 40075 58007 60006 85801 91500=
07481,1998-04-28 18:00:00,14,1007.2,-0.3,51,4,500,7.408,,,50,8,15.3,,,,,,,,,wg-a,,,,AAXX 28184 07481 12600 20504 10140 20040 39790 40072 57003 60006 82800 91800 333 10153 20080=
07481,1998-04-28 21:00:00,10,1008,0.4,71,5,500,11.112,,,160,,,,,,,,,,,wg-a,,,,AAXX 28214 07481 12/00 01606 10100 20050 39794 40080 51004 60006 80000 92100=
07481,1998-04-29 00:00:00,7,1007.6,-0.7,87,5,500,3.704,,,250,,,,,,,,,,,wg-a,,,,AAXX 29004 07481 12/00 02502 10070 20050 39787 40076 56007 60006 80000 90000=
07481,1998-04-29 03:00:00,5,1006,-1.7,93,4,25000,3.704,,,130,,,,,,,,,,,wg-a,,,,AAXX 29034 07481 12/75 01302 10050 20040 39770 40060 56017 60006 80000 90300=
07481,1998-04-29 06:00:00,8,1005,-0.8,81,5,10000,11.112,,,170,4.5,13.6,,,,,,,,,wg-a,,,,AAXX 29064 07481 02/60 /1706 10080 20050 39762 40050 56008 60006 90600 333 10136 20045 60004=
07481,1998-04-29 09:00:00,13,1003.6,-0.8,62,6,25000,11.112,,,150,,,,,,,,,,,wg-a,,,,AAXX 29094 07481 12575 31506 10130 20060 39754 40036 56008 60006 81134 90900=
07481,1998-04-29 12:00:00,15,1002.9,-0.5,44,3,40000,22.224,,,180,,,,,,,,,,,wg-a,,,,AAXX 29124 07481 12682 71812 10150 20030 39749 40029 58005 60006 8387/ 91200=
07481,1998-04-29 18:00:00,15,1001.3,-0.8,59,7,40000,7.408,,,180,7.7,16.9,,,,,,,,3,wg-a,,,,AAXX 29184 07481 12782 71804 10150 20070 39734 40013 57008 60006 70362 81836 91800 333 10169 20077=
07481,1998-04-29 21:00:00,12,1001.6,-0,82,9,25000,3.704,,,100,,,,,,,,,,,wg-a,,,,AAXX 29214 07481 12775 71002 10120 20090 39734 40016 55000 60006 8457/ 92100=
07481,1998-04-30 00:00:00,10,1002,0.2,93,9,20000,7.408,,,270,,,,0,,,,,,60,wg-a,,,,AAXX 30004 07481 02670 82704 10100 20090 39736 40020 50002 60016 76062 8457/ 90000 333 60007=
07481,1998-04-30 03:00:00,10,1002.4,0.4,93,9,20000,0,,,0,,,,0,,,,,,2,wg-a,,,,AAXX 30034 07481 12670 80000 10100 20090 39740 40024 51004 60007 70262 8457/ 90300=
07481,1998-04-30 06:00:00,10,1002.9,0.5,93,9,20000,0,,,0,9.7,15.3,,,,,1,,,2,wg-a,,,,AAXX 30064 07481 02670 70000 10100 20090 39745 40029 53005 60006 70262 8457/ 90600 333 10153 20097 60014=
07481,1998-04-30 09:00:00,13,1003.2,0.6,82,10,20000,14.816,,,320,,,,,,,,,,,wg-a,,,,AAXX 30094 07481 12470 73208 10130 20100 39751 40032 53006 60006 8487/ 90900=
07481,1998-04-30 12:00:00,15,1003.1,0.1,67,9,20000,11.112,,,320,,,,,,,,,,,wg-a,,,,AAXX 30124 07481 12570 73206 10150 20090 39752 40031 50001 60006 878// 91200=
07481,1998-04-30 15:00:00,16,1004.1,1,68,10,25000,11.112,,,250,,,,,,,,,,,wg-a,,,,AAXX 30154 07481 12575 82506 10160 20100 39762 40041 51010 60006 8481/ 91500=
07481,1998-04-30 18:00:00,15,1005,0.8,72,10,25000,7.408,,,350,10,16.1,,,,,,,,,wg-a,,,,AAXX 30184 07481 12675 83504 10150 20100 39770 40050 52008 60006 8381/ 91800 333 10161 20100=
07481,1998-04-30 21:00:00,12,1008.5,3.1,76,8,25000,18.52,,,220,,,,,,,,,,,wg-a,,,,AAXX 30214 07481 12675 72210 10120 20080 39801 40085 51031 60006 83372 92100=
07481,1998-05-01 00:00:00,11,1010.1,1.5,87,9,25000,11.112,,,160,,,,0,,,,,,21,wg-a,,,,AAXX 01004 07481 02575 71606 10110 20090 39816 40101 51015 60006 72162 85872 90000 333 60007=
07481,1998-05-01 03:00:00,11,1010.3,0.1,82,8,20000,11.112,,,180,,,,,,,,,,,wg-a,,,,AAXX 01034 07481 12570 71806 10110 20080 39817 40103 52001 60006 8387/ 90300=
07481,1998-05-01 06:00:00,10,1011.1,0.8,87,8,20000,3.704,,,190,9.3,14.7,,,,,,,,,wg-a,,,,AAXX 01064 07481 02770 71902 10100 20080 39825 40111 52008 60006 8257/ 90600 333 10147 20093 60004=
07481,1998-05-01 09:00:00,13,1011.4,0.5,72,8,20000,11.112,,,210,,,,,,,,,,,wg-a,,,,AAXX 01094 07481 12570 72106 10130 20080 39830 40114 53005 60006 8287/ 90900=
07481,1998-05-01 12:00:00,15,1010.5,-0.7,59,7,500,7.408,,,80,,,,,,,,,,,wg-a,,,,AAXX 01124 07481 12600 70804 10150 20070 39823 40105 58007 60006 84882 91200=
07481,1998-05-01 15:00:00,18,1008.9,-1.3,45,6,40000,3.704,,,150,,,,,,,,,,,wg-a,,,,AAXX 01154 07481 12682 71502 10180 20060 39810 40089 58013 60006 83282 91500=
07481,1998-05-01 18:00:00,15,1009,-0.1,59,7,500,11.112,,,160,10.3,18,,,,,,,,,wg-a,,,,AAXX 01184 07481 12500 71606 10150 20070 39809 40090 55001 60006 82982 91800 333 10180 20103=
07481,1998-05-01 21:00:00,12,1011.3,1.9,82,9,25000,7.408,,,260,,,,,,,,,,,wg-a,,,,AAXX 01214 07481 12675 72604 10120 20090 39828 40113 52019 60006 875// 92100=
07481,1998-05-02 00:00:00,11,1011.6,0.2,94,10,20000,11.112,,,200,,,,0,,,,,,60,wg-a,,,,AAXX 02004 07481 02570 82006 10110 20100 39830 40116 50002 60016 76062 888// 90000 333 60007=
07481,1998-05-02 03:00:00,11,1011.2,-0.4,87,9,20000,11.112,,,190,,,,0,,,,,,21,wg-a,,,,AAXX 02034 07481 12470 71906 10110 20090 39826 40112 55004 60007 72162 875// 90300=
07481,1998-05-02 06:00:00,11,1012,0.8,94,10,8000,7.408,,,200,9.9,14.9,,,,,,,,60,wg-a,,,,AAXX 02064 07481 02458 72004 10110 20100 39834 40120 53008 61000 76062 8557/ 90600 333 10149 20099 6001=
07481,1998-05-02 09:00:00,13,1012.7,0.9,77,9,13000,7.408,,,240,,,,,,,,,,3,wg-a,,,,AAXX 02094 07481 02463 72404 10130 20090 39843 40127 51009 61000 70362 878// 90900 333 ////=
07481,1998-05-02 12:00:00,16,1011.8,-0.6,63,9,500,7.408,,,10,,,,,,,,,,1,wg-a,,,,AAXX 02124 07481 02500 /0104 10160 20090 39837 40118 58006 61000 70162 85230 91200 333 ////=
07481,1998-05-02 15:00:00,17,1010.4,-1.3,55,8,500,11.112,,,360,,,,,,,,,,,wg-a,,,,AAXX 02154 07481 12600 /3606 10170 20080 39824 40104 56013 60006 83830 91500=
07481,1998-05-02 18:00:00,15,1010.4,-0.1,67,9,17000,14.816,,,350,10.5,17.4,,,,,,,,,wg-a,,,,AAXX 02184 07481 12667 /3508 10150 20090 39823 40104 55001 60006 81261 91800 333 10174 20105=
07481,1998-05-02 21:00:00,11,1011.9,1.1,94,10,17000,11.112,,,340,,,,,,,,,,,wg-a,,,,AAXX 02214 07481 12/67 53406 10110 20100 39834 40119 51011 60006 83081 92100=
07481,1998-05-03 03:00:00,9,1009.9,-1.7,100,9,10000,11.112,,,340,,,,,,,,,,,wg-a,,,,AAXX 03034 07481 12/60 53406 10090 20090 39812 40099 58017 60006 82032 90300=
07481,1998-05-03 06:00:00,10,1009.9,0.1,93,9,6000,11.112,,,340,8.2,15.1,,,,,,,,,wg-a,,,,AAXX 03064 07481 02356 73406 10100 20090 39813 40099 53001 60006 875// 90600 333 10151 20082 61000=
07481,1998-05-03 09:00:00,12,1008.8,-0.9,82,9,15000,18.52,,,350,,,,,,,,,,,wg-a,,,,AAXX 03094 07481 12465 73510 10120 20090 39804 40088 56009 60006 872// 90900=
07481,1998-05-03 12:00:00,15,1006.9,-1.5,63,8,25000,25.928,,,340,,,,,,,,,,,wg-a,,,,AAXX 03124 07481 12575 /3414 10150 20080 39789 40069 58015 60006 86800 91200=
07481,1998-05-03 15:00:00,15,1005.5,-1.4,67,9,500,29.632,,,350,,,,,,,,,,,wg-a,,,,AAXX 03154 07481 12500 73516 10150 20090 39775 40055 58014 60006 86801 91500=
07481,1998-05-03 18:00:00,15,1004.8,-0.7,72,10,500,29.632,,,340,10,16.5,,,,,,,,,wg-a,,,,AAXX 03184 07481 12500 73416 10150 20100 39768 40048 57007 60006 84532 91800 333 10165 20100=
07481,1998-05-03 21:00:00,13,1005.7,0.7,82,10,15000,25.928,,,340,,,,,,,,,,,wg-a,,,,AAXX 03214 07481 12465 73414 10130 20100 39775 40057 51007 60006 875// 92100=
07481,1998-05-04 00:00:00,11,1005.4,-0.5,87,9,15000,29.632,,,340,,,,,,,,,,,wg-a,,,,AAXX 04004 07481 12465 73416 10110 20090 39770 40054 58005 60006 875// 90000=
07481,1998-05-04 03:00:00,10,1005,-0.5,87,8,12000,25.928,,46.3,350,,,,,,,,,,,wg-a,,,,AAXX 04034 07481 12462 83514 10100 20080 39765 40050 58005 60006 885// 90300 333 91025=
07481,1998-05-04 06:00:00,10,1005.9,0.9,87,8,7000,25.928,,,350,9.8,14.8,,,,,,,,,wg-a,,,,AAXX 04064 07481 02457 83514 10100 20080 39774 40059 53009 60006 885// 90600 333 10148 20098 60004=
07481,1998-05-04 09:00:00,12,1006.4,0.7,76,8,9000,38.892,,,360,,,,,,,,,,,wg-a,,,,AAXX 04094 07481 12459 73621 10120 20080 39781 40064 51007 60006 875// 90900=
07481,1998-05-04 12:00:00,14,1006.3,0.1,67,8,10000,38.892,,59.264,350,,,,,,,,,,,wg-a,,,,AAXX 04124 07481 12560 /3521 10140 20080 39782 40063 53001 60006 86800 91200 333 91032=
07481,1998-05-04 15:00:00,13,1007.6,1.1,72,8,13000,31.484,,55.56,340,,,,,,,,,,,wg-a,,,,AAXX 04154 07481 12563 73417 10130 20080 39793 40076 53011 60006 878// 91500 333 91030=
07481,1998-05-04 18:00:00,12,1009.1,1.4,67,6,25000,29.632,,,340,10.1,14.3,,,,,,,,,wg-a,,,,AAXX 04184 07481 12675 43416 10120 20060 39807 40091 52014 60006 82502 91800 333 10143 20101=
07481,1998-05-04 21:00:00,10,1010.8,1.4,71,5,25000,22.224,,,340,,,,,,,,,,,wg-a,,,,AAXX 04214 07481 12875 33412 10100 20050 39821 40108 51014 60006 82042 92100=
07481,1998-05-05 00:00:00,9,1011.4,0.5,71,4,10000,25.928,,,340,,,,,,,,,,,wg-a,,,,AAXX 05004 07481 12/60 /3414 10090 20040 39826 40114 51005 60006 90000=
07481,1998-05-05 03:00:00,6,1012.2,0.5,87,4,20000,11.112,,,350,,,,,,,,,,,wg-a,,,,AAXX 05034 07481 12/70 13506 10060 20040 39831 40122 51005 60006 80001 90300=
07481,1998-05-05 06:00:00,7,1012.9,0.7,87,5,12000,18.52,,,350,5.8,12.4,,,,,,,,,wg-a,,,,AAXX 05064 07481 02/62 13510 10070 20050 39838 40129 53007 60006 80001 90600 333 10124 20058 60004=
07481,1998-05-05 09:00:00,12,1012.6,0.3,58,4,18000,22.224,,,350,,,,,,,,,,,wg-a,,,,AAXX 05094 07481 12568 23512 10120 20040 39841 40126 51003 60006 81101 90900=
07481,1998-05-05 12:00:00,15,1012.3,0,48,4,25000,25.928,,,340,,,,,,,,,,,wg-a,,,,AAXX 05124 07481 12675 43414 10150 20040 39841 40123 50000 60006 83101 91200=
07481,1998-05-05 15:00:00,15,1012.8,0.4,51,5,20000,25.928,,,330,,,,,,,,,,,wg-a,,,,AAXX 05154 07481 12670 73314 10150 20050 39845 40128 51004 60006 878// 91500=
07481,1998-05-05 18:00:00,14,1013,0.2,55,5,18000,14.816,,,350,6.9,16,,,,,,,,,wg-a,,,,AAXX 05184 07481 12668 73508 10140 20050 39847 40130 53002 60006 86501 91800 333 10160 20069=
07481,1998-05-05 21:00:00,12,1014.5,1.2,71,7,20000,11.112,,,330,,,,,,,,,,,wg-a,,,,AAXX 05214 07481 12770 63306 10120 20070 39859 40145 53012 60006 83530 92100=
07481,1998-05-06 00:00:00,9,1014.9,0.2,87,7,20000,0,,,0,,,,,,,,,,,wg-a,,,,AAXX 06004 07481 12/70 10000 10090 20070 39861 40149 50002 60006 81030 90000=
07481,1998-05-06 03:00:00,9,1014.6,-0.4,87,7,20000,3.704,,,100,,,,,,,,,,,wg-a,,,,AAXX 06034 07481 12/70 71002 10090 20070 39857 40146 58004 60006 8703/ 90300=
07481,1998-05-06 06:00:00,10,1015.7,1.2,87,8,11000,0,,,0,8.6,14.4,,,,,,,,,wg-a,,,,AAXX 06064 07481 02/61 /0000 10100 20080 39869 40157 53012 60006 90600 333 10144 20086 60004=
07481,1998-05-06 09:00:00,14,1016.3,0.9,67,8,12000,7.408,,,20,,,,,,,,,,,wg-a,,,,AAXX 06094 07481 12562 70204 10140 20080 39878 40163 51009 60006 81836 90900=
07481,1998-05-06 12:00:00,16,1015.7,-0.3,55,7,25000,14.816,,,350,,,,,,,,,,,wg-a,,,,AAXX 06124 07481 12675 33508 10160 20070 39875 40157 58003 60006 82231 91200=
07481,1998-05-06 15:00:00,18,1015.5,-0.1,45,6,500,14.816,,,10,,,,,,,,,,,wg-a,,,,AAXX 06154 07481 12600 40108 10180 20060 39874 40155 55001 60006 82831 91500=
07481,1998-05-06 18:00:00,15,1016.5,0.8,59,7,40000,18.52,,,20,10.5,17.9,,,,,,,,,wg-a,,,,AAXX 06184 07481 12682 /0210 10150 20070 39882 40165 53008 60006 81240 91800 333 10179 20105=
07481,1998-05-06 21:00:00,11,1019.1,2.1,76,7,18000,7.408,,,350,,,,,,,,,,,wg-a,,,,AAXX 06214 07481 12/68 /3504 10110 20070 39903 40191 51021 60006 80000 92100=
07481,1998-05-07 00:00:00,9,1019.7,0.4,81,6,15000,0,,,0,,,,,,,,,,,wg-a,,,,AAXX 07004 07481 12/65 00000 10090 20060 39907 40197 51004 60006 80000 90000=
07481,1998-05-07 03:00:00,8,1020,0.1,93,7,15000,3.704,,,220,,,,,,,,,,,wg-a,,,,AAXX 07034 07481 12/65 02202 10080 20070 39908 40200 51001 60006 80000 90300=
07481,1998-05-07 06:00:00,8,1020.7,0.8,87,6,15000,3.704,,,230,6.4,15.2,,,,,,,,,wg-a,,,,AAXX 07064 07481 02/65 02302 10080 20060 39916 40207 53008 60006 80000 90600 333 10152 20064 60004=
07481,1998-05-07 09:00:00,15,1021,0.9,59,7,20000,3.704,,,110,,,,,,,,,,,wg-a,,,,AAXX 07094 07481 12670 11102 10150 20070 39925 40210 51009 60006 81101 90900=
07481,1998-05-07 12:00:00,20,1019.6,-0.9,46,8,500,7.408,,,190,,,,,,,,,,,wg-a,,,,AAXX 07124 07481 12/00 01904 10200 20080 39916 40196 58009 60006 80000 91200=
07481,1998-05-07 15:00:00,23,1018.1,-1.1,33,6,40000,11.112,,,190,,,,,,,,,,,wg-a,,,,AAXX 07154 07481 12/82 01906 10230 20060 39905 40181 58011 60006 80000 91500=
07481,1998-05-07 18:00:00,22,1018.3,0.1,38,7,40000,11.112,,,190,8.4,23.7,,,,,,,,,wg-a,,,,AAXX 07184 07481 12/82 01906 10220 20070 39906 40183 53001 60006 80000 91800 333 10237 20084=
07481,1998-05-07 21:00:00,18,1020.6,1.9,52,8,40000,22.224,,,170,,,,,,,,,,,wg-a,,,,AAXX 07214 07481 12/82 01712 10180 20080 39925 40206 53019 60006 80000 92100=
07481,1998-05-08 00:00:00,16,1022.8,1.9,68,10,500,11.112,,,170,,,,,,,,,,,wg-a,,,,AAXX 08004 07481 12/00 01706 10160 20100 39944 40228 51019 60006 80000 90000=
07481,1998-05-08 03:00:00,13,1023.3,0.2,82,10,25000,14.816,,,130,,,,,,,,,,,wg-a,,,,AAXX 08034 07481 12/75 11308 10130 20100 39946 40233 53002 60006 80001 90300=
07481,1998-05-08 06:00:00,15,1024,0.8,77,11,15000,18.52,,,150,12,22.3,,,,,,,,,wg-a,,,,AAXX 08064 07481 02/65 01510 10150 20110 39954 40240 53008 60006 80000 90600 333 10223 20120 60004=
07481,1998-05-08 09:00:00,20,1024.2,0.7,49,9,25000,22.224,,,170,,,,,,,,,,,wg-a,,,,AAXX 08094 07481 12/75 21712 10200 20090 39961 40242 51007 60006 80002 90900=
07481,1998-05-08 12:00:00,23,1022.9,-1,36,7,40000,22.224,,,200,,,,,,,,,,,wg-a,,,,AAXX 08124 07481 12/82 62012 10230 20070 39951 40229 58010 60006 80002 91200=
07481,1998-05-08 15:00:00,24,1021.9,-0.9,34,7,45000,25.928,,,200,,,,,,,,,,,wg-a,,,,AAXX 08154 07481 12/83 72014 10240 20070 39942 40219 58009 60006 81042 91500=
07481,1998-05-08 18:00:00,21,1022.6,0.5,40,7,45000,14.816,,,200,14.7,24.6,,,,,,,,,wg-a,,,,AAXX 08184 07481 12/83 72008 10210 20070 39947 40226 53005 60006 83042 91800 333 10246 20147=
07481,1998-05-08 21:00:00,18,1025.2,2.2,45,6,40000,14.816,,,190,,,,,,,,,,,wg-a,,,,AAXX 08214 07481 12/82 51908 10180 20060 39969 40252 51022 60006 80002 92100=
07481,1998-05-09 00:00:00,16,1025.4,0,51,6,40000,18.52,,,160,,,,,,,,,,,wg-a,,,,AAXX 09004 07481 12/82 51610 10160 20060 39969 40254 50000 60006 80006 90000=
07481,1998-05-09 03:00:00,14,1024.8,-0.8,63,7,25000,11.112,,,150,,,,,,,,,,,wg-a,,,,AAXX 09034 07481 12/75 71506 10140 20070 39961 40248 55008 60006 80002 90300=
07481,1998-05-09 06:00:00,15,1025,0.3,63,8,500,14.816,,,150,12.9,20.9,,,,,,,,,wg-a,,,,AAXX 09064 07481 02/00 31508 10150 20080 39964 40250 53003 60006 81042 90600 333 10209 20129 60004=
07481,1998-05-09 09:00:00,21,1024.4,0,38,6,500,25.928,,,180,,,,,,,,,,,wg-a,,,,AAXX 09094 07481 12/00 41814 10210 20060 39964 40244 50000 60006 81042 90900=
07481,1998-05-09 12:00:00,24,1022.7,-1.3,34,7,10000,29.632,,50.004,180,,,,,,,,,,,wg-a,,,,AAXX 09124 07481 12/60 /1816 10240 20070 39951 40227 58013 60006 91200 333 91027=
07481,1998-05-09 15:00:00,26,1021,-1.6,21,2,10000,29.632,,,190,,,,,,,,,,,wg-a,,,,AAXX 09154 07481 12/60 /1916 10260 20020 39935 40210 58016 60006 91500=
07481,1998-05-09 18:00:00,23,1020.5,-0.6,38,8,40000,18.52,,,160,14.6,25.9,,,,,,,,,wg-a,,,,AAXX 09184 07481 12/82 01610 10230 20080 39929 40205 56006 60006 80000 91800 333 10259 20146=
07481,1998-05-10 00:00:00,18,1021.4,-0.2,52,8,500,18.52,,,180,,,,,,,,,,,wg-a,,,,AAXX 10004 07481 12/00 11810 10180 20080 39932 40214 56002 60006 80001 90000=
07481,1998-05-10 03:00:00,14,1021.2,-0.5,72,9,500,3.704,,,160,,,,,,,,,,,wg-a,,,,AAXX 10034 07481 12/00 01602 10140 20090 39927 40212 58005 60006 80000 90300=
07481,1998-05-10 06:00:00,16,1021,-0.1,68,10,40000,11.112,,,150,12.9,23.3,,,,,,,,,wg-a,,,,AAXX 10064 07481 02/82 01506 10160 20100 39926 40210 57001 60006 80000 90600 333 10233 20129 60004=
07481,1998-05-10 09:00:00,22,1019.4,-1,38,7,40000,18.52,,,180,,,,,,,,,,,wg-a,,,,AAXX 10094 07481 12/82 01810 10220 20070 39916 40194 56010 60006 80000 90900=
07481,1998-05-10 12:00:00,26,1017,-1.9,30,7,10000,22.224,,,190,,,,,,,,,,,wg-a,,,,AAXX 10124 07481 12/60 /1912 10260 20070 39897 40170 57019 60006 91200=
07481,1998-05-10 15:00:00,28,1014.9,-1.9,27,7,40000,29.632,,,170,,,,,,,,,,,wg-a,,,,AAXX 10154 07481 12/82 11716 10280 20070 39878 40149 58019 60006 80001 91500=
07481,1998-05-10 18:00:00,25,1014.4,-0.7,32,7,40000,22.224,,,160,16,28.1,,,,,,,,,wg-a,,,,AAXX 10184 07481 12/82 01612 10250 20070 39871 40144 56007 60006 80000 91800 333 10281 20160=
07481,1998-05-10 21:00:00,21,1015.2,0.3,40,7,35000,18.52,,,160,,,,,,,,,,,wg-a,,,,AAXX 10214 07481 12/81 11610 10210 20070 39874 40152 52003 60006 80001 92100=
07481,1998-05-11 00:00:00,20,1015.4,0.2,37,5,25000,18.52,,,180,,,,,,,,,,,wg-a,,,,AAXX 11004 07481 12/75 01810 10200 20050 39876 40154 50002 60006 80000 90000=
07481,1998-05-11 03:00:00,17,1016,0.2,45,5,25000,7.408,,,150,,,,,,,,,,,wg-a,,,,AAXX 11034 07481 12/75 01504 10170 20050 39878 40160 53002 60006 80000 90300=
07481,1998-05-11 06:00:00,18,1015.7,-0.1,52,8,27000,18.52,,,140,15.5,25.2,,,,,,,,,wg-a,,,,AAXX 11064 07481 02/77 01410 10180 20080 39877 40157 55001 60006 80000 90600 333 10252 20155 60004=
07481,1998-05-11 09:00:00,24,1015.7,0.5,34,7,27000,22.224,,,170,,,,,,,,,,,wg-a,,,,AAXX 11094 07481 12/77 01712 10240 20070 39882 40157 53005 60006 80000 90900=
07481,1998-05-11 12:00:00,28,1014.4,-0.9,27,7,27000,22.224,,,180,,,,,,,,,,,wg-a,,,,AAXX 11124 07481 12677 11812 10280 20070 39873 40144 58009 60006 81201 91200=
07481,1998-05-11 15:00:00,28,1013.3,-1,28,8,27000,18.52,,,180,,,,,,,,,,,wg-a,,,,AAXX 11154 07481 12777 41810 10280 20080 39863 40133 58010 60006 81201 91500=
07481,1998-05-11 18:00:00,26,1013.6,0.1,34,9,27000,11.112,,,170,18.1,28.6,,,,,,,,,wg-a,,,,AAXX 11184 07481 12/77 51706 10260 20090 39864 40136 53001 60006 80002 91800 333 10286 20181=
07481,1998-05-11 21:00:00,22,1015.4,1.4,43,9,25000,14.816,,,190,,,,,,,,,,,wg-a,,,,AAXX 11214 07481 12/75 61908 10220 20090 39878 40154 53014 60006 80002 92100=
07481,1998-05-12 00:00:00,21,1016.5,0.9,43,8,20000,14.816,,,190,,,,,,,,,,,wg-a,,,,AAXX 12004 07481 12/70 61908 10210 20080 39887 40165 52009 60006 81082 90000=
07481,1998-05-12 03:00:00,17,1017,0.2,59,9,20000,3.704,,,70,,,,,,,,,,,wg-a,,,,AAXX 12034 07481 12/70 60702 10170 20090 39889 40170 51002 60006 81032 90300=
07481,1998-05-12 06:00:00,18,1017.6,0.6,59,10,500,14.816,,,130,15.8,26,,,,,,,,,wg-a,,,,AAXX 12064 07481 02/00 31308 10180 20100 39895 40176 53006 60006 81082 90600 333 10260 20158 60004=
07481,1998-05-12 09:00:00,23,1017.4,0.3,44,10,20000,11.112,,,160,,,,,,,,,,,wg-a,,,,AAXX 12094 07481 12/70 51606 10230 20100 39898 40174 50003 60006 81082 90900=
07481,1998-05-12 12:00:00,27,1016.6,-0.5,28,7,500,14.816,,,200,,,,,,,,,,,wg-a,,,,AAXX 12124 07481 12/00 32008 10270 20070 39893 40166 57005 60006 80002 91200=
07481,1998-05-12 15:00:00,28,1015.7,-0.7,28,8,40000,14.816,,,180,,,,,,,,,,,wg-a,,,,AAXX 12154 07481 12/82 /1808 10280 20080 39886 40157 56007 60006 81082 91500=
07481,1998-05-12 18:00:00,26,1016,0.1,32,8,40000,11.112,,,200,17.8,27.9,,,,,,,,,wg-a,,,,AAXX 12184 07481 12/82 72006 10260 20080 39887 40160 53001 60006 81082 91800 333 10279 20178=
07481,1998-05-12 21:00:00,22,1017.9,1.5,38,7,40000,14.816,,,180,,,,,,,,,,,wg-a,,,,AAXX 12214 07481 12/82 31808 10220 20070 39902 40179 51015 60006 80002 92100=
07481,1998-05-13 00:00:00,19,1019,0.8,49,8,40000,7.408,,,160,,,,,,,,,,,wg-a,,,,AAXX 13004 07481 12/82 21604 10190 20080 39910 40190 51008 60006 80002 90000=
07481,1998-05-13 03:00:00,17,1019.1,-0.1,59,9,25000,7.408,,,150,,,,,,,,,,,wg-a,,,,AAXX 13034 07481 12675 51504 10170 20090 39909 40191 55001 60006 81381 90300=
07481,1998-05-13 06:00:00,18,1019.4,0.4,59,10,500,11.112,,,160,16,25.7,,,,,,,,,wg-a,,,,AAXX 13064 07481 02/00 61606 10180 20100 39913 40194 53004 60006 85082 90600 333 10257 20160 60004=
07481,1998-05-13 09:00:00,23,1018.9,0,47,11,15000,7.408,,,270,,,,,,,,,,,wg-a,,,,AAXX 13094 07481 12/65 62704 10230 20110 39913 40189 50000 60006 81032 90900=
07481,1998-05-13 12:00:00,26,1018,-0.7,37,10,20000,7.408,,,350,,,,,,,,,,,wg-a,,,,AAXX 13124 07481 12/70 73504 10260 20100 39906 40180 57007 60006 82032 91200=
07481,1998-05-13 15:00:00,27,1016.4,-1.4,37,11,25000,7.408,,,10,,,,,,,,,,,wg-a,,,,AAXX 13154 07481 12775 70104 10270 20110 39892 40164 57014 60006 82132 91500=
07481,1998-05-13 18:00:00,26,1016.4,-0.1,45,13,500,3.704,,,40,17.6,27.7,,,,,,,,,wg-a,,,,AAXX 13184 07481 12700 70402 10260 20130 39891 40164 55001 60006 81132 91800 333 10277 20176=
07481,1998-05-13 21:00:00,23,1017.6,0.9,44,10,22000,11.112,,,190,,,,,,,,,,,wg-a,,,,AAXX 13214 07481 12/72 71906 10230 20100 39900 40176 51009 60006 85032 92100=
07481,1998-05-14 00:00:00,18,1017.7,-0.4,68,12,20000,7.408,,,110,,,,,,,,,,,wg-a,,,,AAXX 14004 07481 12/70 41104 10180 20120 39896 40177 56004 60006 81042 90000=
07481,1998-05-14 03:00:00,16,1017.3,-0.6,72,11,20000,3.704,,,120,,,,,,,,,,,wg-a,,,,AAXX 14034 07481 12/70 51202 10160 20110 39890 40173 56006 60006 81042 90300=
07481,1998-05-14 06:00:00,17,1017.2,0.1,72,12,10000,0,,,0,15.3,25.6,,,,,,,,,wg-a,,,,AAXX 14064 07481 02/60 10000 10170 20120 39891 40172 53001 60006 80001 90600 333 10256 20153 60004=
07481,1998-05-14 09:00:00,22,1016.3,-0.4,57,13,12000,7.408,,,20,,,,,,,,,,,wg-a,,,,AAXX 14094 07481 12/62 00204 10220 20130 39887 40163 58004 60006 80000 90900=
07481,1998-05-14 12:00:00,27,1014.4,-1.4,48,15,17000,3.704,,,10,,,,,,,,,,,wg-a,,,,AAXX 14124 07481 12667 /0102 10270 20150 39873 40144 58014 60006 81202 91200=
07481,1998-05-14 15:00:00,29,1012.4,-1.8,40,14,20000,14.816,,,10,,,,,,,,,,,wg-a,,,,AAXX 14154 07481 12770 40108 10290 20140 39855 40124 56018 60006 81903 91500=
07481,1998-05-14 18:00:00,24,1012.5,-0.4,38,9,500,11.112,,,20,17,29.4,,,,,,,,,wg-a,,,,AAXX 14184 07481 12600 70206 10240 20090 39851 40125 55004 60006 82963 91800 333 10294 20170=
07481,1998-05-14 21:00:00,21,1014.1,1.3,49,10,500,3.704,,,360,,,,,,,,,,,wg-a,,,,AAXX 14214 07481 12600 73602 10210 20100 39864 40141 53013 60006 81263 92100=
07481,1998-05-15 00:00:00,19,1014.5,0.2,64,12,500,3.704,,,280,,,,,,,,,,,wg-a,,,,AAXX 15004 07481 12/00 62802 10190 20120 39866 40145 51002 60006 83082 90000=
07481,1998-05-15 03:00:00,16,1014.4,-0.3,82,13,500,7.408,,,340,,,,,,,,,,,wg-a,,,,AAXX 15034 07481 12/00 53404 10160 20130 39863 40144 56003 60006 81042 90300=
07481,1998-05-15 06:00:00,17,1014.5,0.2,82,14,15000,3.704,,,330,14.9,23.9,,,,,,,,,wg-a,,,,AAXX 15064 07481 02/65 23302 10170 20140 39865 40145 53002 60006 80002 90600 333 10239 20149 60004=
07481,1998-05-15 09:00:00,21,1013.7,-0.4,69,15,15000,7.408,,,300,,,,,,,,,,,wg-a,,,,AAXX 15094 07481 12/65 23004 10210 20150 39861 40137 58004 60006 80002 90900=
07481,1998-05-15 12:00:00,24,1012,-1.4,50,13,20000,7.408,,,340,,,,,,,,,,,wg-a,,,,AAXX 15124 07481 12670 23404 10240 20130 39847 40120 58014 60006 81102 91200=
07481,1998-05-15 15:00:00,25,1010.6,-1.3,34,8,25000,22.224,,,360,,,,,,,,,,,wg-a,,,,AAXX 15154 07481 12675 23612 10250 20080 39834 40106 57013 60006 81903 91500=
07481,1998-05-15 18:00:00,24,1010.5,-0.2,38,9,25000,14.816,,,340,17,25.8,,,,,,,,,wg-a,,,,AAXX 15184 07481 12675 23408 10240 20090 39832 40105 55002 60006 81282 91800 333 10258 20170=
07481,1998-05-15 21:00:00,19,1011.4,0.4,46,7,40000,11.112,,,10,,,,,,,,,,,wg-a,,,,AAXX 15214 07481 12/82 50106 10190 20070 39836 40114 53004 60006 84082 92100=
07481,1998-05-16 03:00:00,13,1013,0.3,72,8,20000,7.408,,,320,,,,,,,,,,,wg-a,,,,AAXX 16034 07481 12/70 03204 10130 20080 39845 40130 52003 60006 80000 90300=
07481,1998-05-16 06:00:00,14,1013.6,0.7,67,8,35000,7.408,,,10,11.7,23.8,,,,,,,,,wg-a,,,,AAXX 16064 07481 02/81 00104 10140 20080 39852 40136 51007 60006 80000 90600 333 10238 20117 60004=
07481,1998-05-16 09:00:00,18,1013.7,0.5,52,8,35000,11.112,,,350,,,,,,,,,,,wg-a,,,,AAXX 16094 07481 12/81 03506 10180 20080 39857 40137 51005 60006 80000 90900=
07481,1998-05-16 12:00:00,22,1013,-0.3,33,5,40000,25.928,,,340,,,,,,,,,,,wg-a,,,,AAXX 16124 07481 12682 /3414 10220 20050 39854 40130 58003 60006 81100 91200=
07481,1998-05-16 15:00:00,22,1013,0,31,4,40000,25.928,,,350,,,,,,,,,,,wg-a,,,,AAXX 16154 07481 12682 /3514 10220 20040 39854 40130 50000 60006 81200 91500=
07481,1998-05-16 18:00:00,21,1013.3,0.2,40,7,40000,18.52,,,350,13.8,23.1,,,,,,,,,wg-a,,,,AAXX 16184 07481 12682 /3510 10210 20070 39856 40133 53002 60006 81180 91800 333 10231 20138=
07481,1998-05-16 21:00:00,17,1014.6,0.9,52,7,40000,18.52,,,330,,,,,,,,,,,wg-a,,,,AAXX 16214 07481 12782 13310 10170 20070 39865 40146 51009 60006 81100 92100=
07481,1998-05-17 00:00:00,13,1014.7,-0.2,67,7,25000,3.704,,,330,,,,,,,,,,,wg-a,,,,AAXX 17004 07481 12/75 03302 10130 20070 39863 40147 57002 60006 80000 90000=
07481,1998-05-17 03:00:00,11,1015.4,0.4,76,7,20000,3.704,,,300,,,,,,,,,,,wg-a,,,,AAXX 17034 07481 12/70 03002 10110 20070 39867 40154 53004 60006 80000 90300=
07481,1998-05-17 06:00:00,11,1016.5,1.1,76,7,25000,11.112,,,360,9.7,21,,,,,,,,,wg-a,,,,AAXX 17064 07481 02/75 03606 10110 20070 39878 40165 53011 60006 80000 90600 333 10210 20097 60004=
07481,1998-05-17 09:00:00,16,1016.4,0.4,59,8,25000,11.112,,,360,,,,,,,,,,,wg-a,,,,AAXX 17094 07481 12/75 03606 10160 20080 39882 40164 50004 60006 80000 90900=
07481,1998-05-17 12:00:00,22,1015.2,-0.7,38,7,500,18.52,,,340,,,,,,,,,,,wg-a,,,,AAXX 17124 07481 12600 13410 10220 20070 39875 40152 58007 60006 81100 91200=
07481,1998-05-17 15:00:00,23,1014.3,-0.7,33,6,50000,38.892,,53.708,350,,,,,,,,,,,wg-a,,,,AAXX 17154 07481 12784 /3521 10230 20060 39868 40143 57007 60006 81100 91500 333 91029=
07481,1998-05-17 18:00:00,21,1015.4,0.8,38,6,50000,31.484,,,350,11.4,23.8,,,,,,,,,wg-a,,,,AAXX 17184 07481 12/84 /3517 10210 20060 39876 40154 53008 60006 80000 91800 333 10238 20114=
07481,1998-05-17 21:00:00,16,1018.2,2.3,48,5,40000,3.704,,,340,,,,,,,,,,,wg-a,,,,AAXX 17214 07481 12/82 03402 10160 20050 39899 40182 53023 60006 80000 92100=
07481,1998-05-18 00:00:00,13,1018.9,0.4,58,5,500,11.112,,,340,,,,,,,,,,,wg-a,,,,AAXX 18004 07481 12/00 03406 10130 20050 39903 40189 52004 60006 80000 90000=
07481,1998-05-18 03:00:00,10,1020.1,0.9,76,6,25000,7.408,,,290,,,,,,,,,,,wg-a,,,,AAXX 18034 07481 12/75 02904 10100 20060 39912 40201 53009 60006 80000 90300=
07481,1998-05-18 06:00:00,11,1021.9,1.9,76,7,500,3.704,,,340,8.8,20.8,,,,,,,,,wg-a,,,,AAXX 18064 07481 02/00 03402 10110 20070 39931 40219 51019 60006 80000 90600 333 10208 20088 60004=
07481,1998-05-18 18:00:00,22,1019.2,-0.2,33,5,35000,22.224,,,350,11.3,23.5,,,,,,,,,wg-a,,,,AAXX 18184 07481 12781 /3512 10220 20050 39914 40192 55002 60006 81100 91800 333 10235 20113=
07481,1998-05-18 21:00:00,16,1021,1.2,55,7,35000,7.408,,,350,,,,,,,,,,,wg-a,,,,AAXX 18214 07481 12/81 13504 10160 20070 39926 40210 53012 60006 80001 92100=
07481,1998-05-19 00:00:00,13,1021.2,-0.1,62,6,20000,3.704,,,360,,,,,,,,,,,wg-a,,,,AAXX 19004 07481 12/70 03602 10130 20060 39925 40212 56001 60006 80000 90000=
07481,1998-05-19 03:00:00,10,1022,0.5,76,6,18000,3.704,,,250,,,,,,,,,,,wg-a,,,,AAXX 19034 07481 12/68 02502 10100 20060 39930 40220 52005 60006 80000 90300=
07481,1998-05-19 06:00:00,12,1022.8,1,71,7,500,7.408,,,50,9.7,21.6,,,,,,,,,wg-a,,,,AAXX 19064 07481 02/00 00504 10120 20070 39940 40228 53010 60006 80000 90600 333 10216 20097 60004=
07481,1998-05-19 09:00:00,17,1022.1,-0.2,48,6,500,3.704,,,290,,,,,,,,,,,wg-a,,,,AAXX 19094 07481 12/00 02902 10170 20060 39938 40221 58002 60006 80000 90900=
07481,1998-05-19 12:00:00,21,1020.2,-1.4,38,6,500,11.112,,,330,,,,,,,,,,,wg-a,,,,AAXX 19124 07481 12/00 13306 10210 20060 39924 40202 58014 60006 81080 91200=
07481,1998-05-19 15:00:00,23,1018.4,-1.6,38,8,40000,14.816,,,20,,,,,,,,,,,wg-a,,,,AAXX 19154 07481 12782 10208 10230 20080 39908 40184 57016 60006 81100 91500=
07481,1998-05-19 18:00:00,23,1017.4,-1,38,8,40000,14.816,,,340,12.2,24.2,,,,,,,,,wg-a,,,,AAXX 19184 07481 12782 13408 10230 20080 39898 40174 56010 60006 81500 91800 333 10242 20122=
07481,1998-05-19 21:00:00,17,1018.2,0.3,63,10,500,11.112,,,10,,,,,,,,,,,wg-a,,,,AAXX 19214 07481 12/00 00106 10170 20100 39901 40182 53003 60006 80000 92100=
07481,1998-05-20 00:00:00,14,1018.9,0.3,72,9,500,3.704,,,280,,,,,,,,,,,wg-a,,,,AAXX 20004 07481 12/00 02802 10140 20090 39904 40189 51003 60006 80000 90000=
07481,1998-05-20 03:00:00,13,1018.8,-0.2,72,8,25000,3.704,,,230,,,,,,,,,,,wg-a,,,,AAXX 20034 07481 12/75 02302 10130 20080 39902 40188 57002 60006 80000 90300=
07481,1998-05-20 06:00:00,14,1019.1,0.4,67,8,20000,3.704,,,260,11.9,22.8,,,,,,,,,wg-a,,,,AAXX 20064 07481 02/70 02602 10140 20080 39906 40191 53004 60006 80000 90600 333 10228 20119 60004=
07481,1998-05-20 09:00:00,19,1018.3,-0.3,52,9,20000,7.408,,,290,,,,,,,,,,,wg-a,,,,AAXX 20094 07481 12/70 02904 10190 20090 39903 40183 58003 60006 80000 90900=
07481,1998-05-20 12:00:00,24,1016.8,-1,31,6,20000,3.704,,,300,,,,,,,,,,,wg-a,,,,AAXX 20124 07481 12/70 03002 10240 20060 39893 40168 58010 60006 80000 91200=
07481,1998-05-20 15:00:00,25,1015.5,-1.2,32,7,20000,11.112,,,20,,,,,,,,,,,wg-a,,,,AAXX 20154 07481 12770 10206 10250 20070 39881 40155 56012 60006 81200 91500=
07481,1998-05-20 18:00:00,24,1015,-0.6,38,9,27000,7.408,,,330,14.4,25.2,,,,,,,,,wg-a,,,,AAXX 20184 07481 12777 /3304 10240 20090 39875 40150 56006 60006 81201 91800 333 10252 20144=
07481,1998-05-20 21:00:00,19,1015.8,0.4,52,9,500,14.816,,,330,,,,,,,,,,,wg-a,,,,AAXX 20214 07481 12700 33308 10190 20090 39879 40158 52004 60006 83500 92100=
07481,1998-05-21 00:00:00,17,1016.3,0.3,59,9,25000,3.704,,,340,,,,,,,,,,,wg-a,,,,AAXX 21004 07481 12775 13402 10170 20090 39882 40163 53003 60006 81500 90000=
07481,1998-05-21 03:00:00,14,1016.7,0.1,77,10,25000,3.704,,,340,,,,,,,,,,,wg-a,,,,AAXX 21034 07481 12775 13402 10140 20100 39883 40167 53001 60006 81500 90300=
07481,1998-05-21 06:00:00,15,1017.3,0.7,72,10,18000,3.704,,,350,13.3,23.7,,,,,,,,,wg-a,,,,AAXX 21064 07481 02768 23502 10150 20100 39890 40173 52007 60006 82500 90600 333 10237 20133 60004=
07481,1998-05-21 09:00:00,19,1017.2,0.3,60,11,20000,7.408,,,360,,,,,,,,,,,wg-a,,,,AAXX 21094 07481 12/70 03604 10190 20110 39893 40172 51003 60006 80000 90900=
07481,1998-05-21 12:00:00,24,1015.9,-0.9,38,9,20000,22.224,,,10,,,,,,,,,,,wg-a,,,,AAXX 21124 07481 12770 /0112 10240 20090 39884 40159 58009 60006 81100 91200=
07481,1998-05-21 15:00:00,25,1014.9,-0.8,30,6,25000,18.52,,,360,,,,,,,,,,,wg-a,,,,AAXX 21154 07481 12775 /3610 10250 20060 39876 40149 56008 60006 81200 91500=
07481,1998-05-21 18:00:00,22,1015.2,-0,43,9,500,14.816,,,350,14.9,25.9,,,,,,,,,wg-a,,,,AAXX 21184 07481 12800 13508 10220 20090 39876 40152 55000 60006 81040 91800 333 10259 20149=
07481,1998-05-21 21:00:00,18,1017.1,1.4,59,10,500,11.112,,,330,,,,,,,,,,,wg-a,,,,AAXX 21214 07481 12800 23306 10180 20100 39890 40171 53014 60006 82040 92100=
07481,1998-05-22 00:00:00,16,1017.4,0.1,68,10,500,11.112,,,340,,,,,,,,,,,wg-a,,,,AAXX 22004 07481 12800 13406 10160 20100 39891 40174 50001 60006 81040 90000=
07481,1998-05-22 03:00:00,14,1017.8,0.3,82,11,25000,14.816,,,340,,,,,,,,,,,wg-a,,,,AAXX 22034 07481 12/75 23408 10140 20110 39894 40178 52003 60006 80001 90300=
07481,1998-05-22 06:00:00,14,1018.5,0.7,82,11,8000,18.52,,,350,13.6,22.4,,,,,,,,,wg-a,,,,AAXX 22064 07481 02458 33510 10140 20110 39901 40185 53007 60006 81130 90600 333 10224 20136 60004=
07481,1998-05-22 09:00:00,16,1019,0.7,72,11,10000,22.224,,,350,,,,,,,,,,,wg-a,,,,AAXX 22094 07481 12460 43512 10160 20110 39908 40190 51007 60006 82130 90900=
07481,1998-05-22 12:00:00,19,1018.4,-0.4,49,8,18000,25.928,,,340,,,,,,,,,,,wg-a,,,,AAXX 22124 07481 12668 43414 10190 20080 39904 40184 58004 60006 83201 91200=
07481,1998-05-22 15:00:00,20,1017.7,-0.6,35,4,500,25.928,,,340,,,,,,,,,,,wg-a,,,,AAXX 22154 07481 12/00 23414 10200 20040 39898 40177 58006 60006 80001 91500=
07481,1998-05-22 18:00:00,18,1018,-0,42,5,500,25.928,,,360,14.2,20,,,,,,,,,wg-a,,,,AAXX 22184 07481 12/00 03614 10180 20050 39898 40180 55000 60006 80000 91800 333 10200 20142=
07481,1998-05-22 21:00:00,14,1019.3,0.9,55,5,500,22.224,,,350,,,,,,,,,,,wg-a,,,,AAXX 22214 07481 12/00 03512 10140 20050 39907 40193 53009 60006 80000 92100=
07481,1998-05-23 00:00:00,11,1020,0.4,62,4,500,18.52,,,340,,,,,,,,,,,wg-a,,,,AAXX 23004 07481 12/00 03410 10110 20040 39911 40200 52004 60006 80000 90000=
07481,1998-05-23 06:00:00,9,1019.5,-0.2,66,3,25000,14.816,,,340,7,17.4,,,,,,,,,wg-a,,,,AAXX 23064 07481 02/75 03408 10090 20030 39904 40195 58002 60006 80000 90600 333 10174 20070 60004=
07481,1998-05-23 09:00:00,12,1018.5,-0.6,58,4,25000,14.816,,,350,,,,,,,,,,,wg-a,,,,AAXX 23094 07481 12/75 03508 10120 20040 39898 40185 58006 60006 80000 90900=
07481,1998-05-23 12:00:00,17,1016.8,-1.1,48,6,25000,18.52,,,350,,,,,,,,,,,wg-a,,,,AAXX 23124 07481 12/75 03510 10170 20060 39887 40168 58011 60006 80000 91200=
07481,1998-05-23 15:00:00,19,1015.5,-1.1,37,4,25000,22.224,,,350,,,,,,,,,,,wg-a,,,,AAXX 23154 07481 12/75 03512 10190 20040 39876 40155 56011 60006 80000 91500=
07481,1998-05-23 18:00:00,18,1015,-0.7,42,5,25000,18.52,,,350,8.8,19.7,,,,,,,,,wg-a,,,,AAXX 23184 07481 12/75 03510 10180 20050 39869 40150 56007 60006 80000 91800 333 10197 20088=
07481,1998-05-23 21:00:00,14,1015.7,0.4,55,5,25000,11.112,,,330,,,,,,,,,,,wg-a,,,,AAXX 23214 07481 12/75 03306 10140 20050 39873 40157 53004 60006 80000 92100=
07481,1998-05-24 00:00:00,11,1015.6,-0.4,66,5,25000,14.816,,,330,,,,,,,,,,,wg-a,,,,AAXX 24004 07481 12/75 03308 10110 20050 39869 40156 58004 60006 80000 90000=
07481,1998-05-24 03:00:00,9,1014.9,-0.9,76,5,20000,7.408,,,320,,,,,,,,,,,wg-a,,,,AAXX 24034 07481 12/70 03204 10090 20050 39860 40149 56009 60006 80000 90300=
07481,1998-05-24 06:00:00,11,1014.5,-0.2,66,5,25000,11.112,,,330,7.9,17.7,,,,,,,,,wg-a,,,,AAXX 24064 07481 02/75 03306 10110 20050 39858 40145 55002 60006 80000 90600 333 10177 20079 60004=
07481,1998-05-24 09:00:00,15,1013.6,-0.5,51,5,500,14.816,,,350,,,,,,,,,,,wg-a,,,,AAXX 24094 07481 12/00 03508 10150 20050 39853 40136 58005 60006 80000 90900=
07481,1998-05-24 12:00:00,18,1012.1,-1.1,42,5,500,18.52,,,350,,,,,,,,,,,wg-a,,,,AAXX 24124 07481 12700 23510 10180 20050 39842 40121 57011 60006 81101 91200=
07481,1998-05-24 15:00:00,20,1010.7,-1.3,35,4,500,18.52,,,350,,,,,,,,,,,wg-a,,,,AAXX 24154 07481 12700 23510 10200 20040 39829 40107 58013 60006 81141 91500=
07481,1998-05-24 18:00:00,19,1010.1,-0.6,40,5,500,25.928,,,360,10.6,20,,,,,,,,,wg-a,,,,AAXX 24184 07481 12700 13614 10190 20050 39823 40101 56006 60006 81180 91800 333 10200 20106=
07481,1998-05-24 21:00:00,15,1011.5,1,59,7,500,18.52,,,340,,,,,,,,,,,wg-a,,,,AAXX 24214 07481 12700 13410 10150 20070 39833 40115 52010 60006 81500 92100=
07481,1998-05-25 00:00:00,13,1011.5,-0.2,72,8,500,14.816,,,340,,,,,,,,,,,wg-a,,,,AAXX 25004 07481 12700 13408 10130 20080 39831 40115 58002 60006 81500 90000=
07481,1998-05-25 03:00:00,10,1011.7,-0.1,87,8,10000,11.112,,,340,,,,,,,,,,,wg-a,,,,AAXX 25034 07481 12/60 03406 10100 20080 39830 40117 55001 60006 80000 90300=
07481,1998-05-25 06:00:00,12,1012,0.5,82,9,8000,11.112,,,350,9.6,18.8,,,,,,,,,wg-a,,,,AAXX 25064 07481 02458 13506 10120 20090 39835 40120 53005 60006 81600 90600 333 10188 20096 60004=
07481,1998-05-25 09:00:00,16,1011.7,0.1,68,10,10000,22.224,,,350,,,,,,,,,,,wg-a,,,,AAXX 25094 07481 12560 43512 10160 20100 39836 40117 50001 60006 84100 90900=
07481,1998-05-25 12:00:00,19,1010.5,-0.9,46,7,500,22.224,,,350,,,,,,,,,,,wg-a,,,,AAXX 25124 07481 12600 43512 10190 20070 39827 40105 58009 60006 84200 91200=
07481,1998-05-25 18:00:00,19,1008.8,-0.3,49,8,40000,18.52,,,350,11.8,21.3,,,,,,,,,wg-a,,,,AAXX 25184 07481 12782 23510 10190 20080 39811 40088 56003 60006 81501 91800 333 10213 20118=
07481,1998-05-25 21:00:00,15,1010.1,0.8,63,8,40000,3.704,,,30,,,,,,,,,,,wg-a,,,,AAXX 25214 07481 12/82 00302 10150 20080 39819 40101 53008 60006 80000 92100=
07481,1998-05-26 00:00:00,13,1009.8,-0.4,72,8,500,3.704,,,240,,,,,,,,,,,wg-a,,,,AAXX 26004 07481 12/00 02402 10130 20080 39815 40098 58004 60006 80000 90000=
07481,1998-05-26 03:00:00,12,1009.7,-0.3,76,8,20000,0,,,0,,,,,,,,,,,wg-a,,,,AAXX 26034 07481 12870 10000 10120 20080 39812 40097 57003 60006 81041 90300=
07481,1998-05-26 06:00:00,13,1010,0.5,77,9,9000,3.704,,,250,11,19.2,,,,,,,,,wg-a,,,,AAXX 26064 07481 02859 /2502 10130 20090 39817 40100 53005 60006 86040 90600 333 10192 20110 60004=
07481,1998-05-26 09:00:00,16,1010.2,0.4,68,10,13000,11.112,,,30,,,,,,,,,,,wg-a,,,,AAXX 26094 07481 12563 70306 10160 20100 39821 40102 50004 60006 8387/ 90900=
07481,1998-05-26 12:00:00,20,1009,-0.7,53,10,20000,3.704,,,20,,,,,,,,,,,wg-a,,,,AAXX 26124 07481 12670 /0202 10200 20100 39814 40090 58007 60006 83830 91200=
07481,1998-05-26 15:00:00,20,1008.1,-0.9,56,11,20000,11.112,,,10,,,,,,,,,,1,wg-a,,,,AAXX 26154 07481 12670 20106 10200 20110 39805 40081 56009 60006 70191 81930 91500=
07481,1998-05-26 18:00:00,20,1007.8,-0.3,53,10,15000,3.704,,,340,13.3,21.8,,,,,,,,1,wg-a,,,,AAXX 26184 07481 12765 53402 10200 20100 39802 40078 55003 60006 70191 84830 91800 333 10218 20133=
07481,1998-05-26 21:00:00,17,1009.5,1.4,63,10,20000,18.52,,,320,,,,,,,,,,,wg-a,,,,AAXX 26214 07481 12770 73210 10170 20100 39816 40095 53014 60006 8498/ 92100=
07481,1998-05-27 00:00:00,16,1010.4,0.7,68,10,18000,0,,,0,,,,,,,,,,,wg-a,,,,AAXX 27004 07481 12768 70000 10160 20100 39823 40104 50007 60006 8353/ 90000=
07481,1998-05-27 03:00:00,15,1009.7,-0.7,77,11,18000,3.704,,,120,,,,,,,,,,,wg-a,,,,AAXX 27034 07481 12768 71202 10150 20110 39816 40097 55007 60006 8153/ 90300=
07481,1998-05-27 06:00:00,14,1009.9,0.1,82,11,20000,7.408,,,210,14.1,20.5,,,,,,,,80,wg-a,,,,AAXX 27064 07481 02570 72104 10140 20110 39817 40099 53001 61000 78086 8427/ 90600 333 10205 20141 6000=
07481,1998-05-27 09:00:00,17,1009.3,-0.3,77,13,15000,7.408,,,60,,,,0,,,,,,21,wg-a,,,,AAXX 27094 07481 12565 /0604 10170 20130 39814 40093 58003 60007 72186 8487/ 90900=
07481,1998-05-27 12:00:00,22,1006.7,-2.1,46,10,20000,25.928,,,180,,,,,,,,,,1,wg-a,,,,AAXX 27124 07481 12670 61814 10220 20100 39793 40067 58021 60016 70186 83830 91200=
07481,1998-05-27 15:00:00,18,1007.5,0.4,64,11,20000,31.484,,,190,,,,,,,,,,,wg-a,,,,AAXX 27154 07481 12570 71917 10180 20110 39797 40075 53004 60006 8497/ 91500=
07481,1998-05-27 18:00:00,14,1008.7,0.8,94,13,9000,3.704,,,270,13.8,22.3,,,,,,,,61,wg-a,,,,AAXX 27184 07481 02559 82702 10140 20130 39805 40087 50008 61000 76162 8487/ 91800 333 10223 20138 6005=
07481,1998-05-27 21:00:00,14,1008.9,0.2,94,13,9000,18.52,,,130,,,,6,,,,,,60,wg-a,,,,AAXX 27214 07481 12359 81310 10140 20130 39807 40089 50002 60067 76066 8488/ 92100=
07481,1998-05-28 00:00:00,13,1008.5,-0.4,100,13,8000,7.408,,,120,,,,7,,,,,,61,wg-a,,,,AAXX 28004 07481 02358 81204 10130 20130 39803 40085 58004 60146 76166 8582/ 90000 333 60077=
07481,1998-05-28 03:00:00,13,1007.3,-1.2,100,13,10000,14.816,,,160,,,,5,,,,,,21,wg-a,,,,AAXX 28034 07481 12460 81608 10130 20130 39791 40073 56012 60057 72162 8682/ 90300=
07481,1998-05-28 06:00:00,14,1007.2,-0.1,88,12,25000,3.704,,,110,13,13.8,,,,,24,,,1,wg-a,,,,AAXX 28064 07481 02475 81102 10140 20120 39790 40072 55001 60006 70162 8582/ 90600 333 10138 20130 60244=
07481,1998-05-28 09:00:00,17,1006.3,-0.5,77,13,25000,3.704,,,70,,,,,,,,,,,wg-a,,,,AAXX 28094 07481 12475 80702 10170 20130 39785 40063 58005 60006 8387/ 90900=
07481,1998-05-28 12:00:00,14,1007.8,1.1,94,13,3000,7.408,,,350,,,,14,,,,,,80,wg-a,,,,AAXX 28124 07481 02430 83504 10140 20130 39796 40078 53011 60146 78096 879// 91200 333 60147=
07481,1998-05-28 15:00:00,14,1007.9,0.2,94,13,6000,0,,,0,,,,13,,,,,,61,wg-a,,,,AAXX 28154 07481 12456 80000 10140 20130 39798 40079 51002 60137 76196 8527/ 91500=
07481,1998-05-28 18:00:00,14,1008.4,0.5,100,14,9000,3.704,,,20,13.5,17.6,,,,,,,,61,wg-a,,,,AAXX 28184 07481 02459 80202 10140 20140 39803 40084 53005 61000 76196 8627/ 91800 333 10176 20135 6002=
07481,1998-05-28 21:00:00,14,1009.9,1.4,94,13,15000,3.704,,,50,,,,,,,,,,1,wg-a,,,,AAXX 28214 07481 02365 70502 10140 20130 39817 40099 53014 61000 70162 8677/ 92100 333 ////=
07481,1998-05-29 00:00:00,13,1010.7,0.7,100,13,12000,3.704,,,260,,,,,,,,,,1,wg-a,,,,AAXX 29004 07481 02462 82602 10130 20130 39824 40107 51007 61000 70162 888// 90000 333 ////=
07481,1998-05-29 03:00:00,12,1012,1.1,100,12,9000,7.408,,,280,,,,5,,,,,,61,wg-a,,,,AAXX 29034 07481 12259 82804 10120 20120 39835 40120 50011 60057 76162 8687/ 90300=
07481,1998-05-29 06:00:00,12,1013.3,1.3,100,12,10000,3.704,,,20,11.9,14.1,,,,,34,,,3,wg-a,,,,AAXX 29064 07481 02260 70202 10120 20120 39848 40133 53013 60006 70362 8657/ 90600 333 10141 20119 60344=
07481,1998-05-29 09:00:00,14,1013.8,0.7,82,11,20000,11.112,,,350,,,,,,,,,,,wg-a,,,,AAXX 29094 07481 12470 73506 10140 20110 39855 40138 50007 60006 84270 90900=
07481,1998-05-29 12:00:00,17,1013.1,-0.4,68,11,20000,11.112,,,340,,,,,,,,,,,wg-a,,,,AAXX 29124 07481 12570 53406 10170 20110 39851 40131 57004 60006 84270 91200=
07481,1998-05-29 15:00:00,20,1012,-0.8,56,11,500,11.112,,,320,,,,,,,,,,,wg-a,,,,AAXX 29154 07481 12600 43206 10200 20110 39843 40120 56008 60006 83201 91500=
07481,1998-05-29 18:00:00,19,1012,-0.1,56,10,500,3.704,,,330,12.3,19.9,,,,,,,,,wg-a,,,,AAXX 29184 07481 12600 /3302 10190 20100 39842 40120 55001 60006 81141 91800 333 10199 20123=
07481,1998-05-29 21:00:00,15,1013,0.6,88,13,500,0,,,0,,,,,,,,,,,wg-a,,,,AAXX 29214 07481 12800 10000 10150 20130 39848 40130 53006 60006 81040 92100=
07481,1998-05-30 00:00:00,14,1013.2,0.1,88,12,500,3.704,,,170,,,,,,,,,,,wg-a,,,,AAXX 30004 07481 12/00 01702 10140 20120 39849 40132 50001 60006 80000 90000=
07481,1998-05-30 03:00:00,12,1012.8,-0.6,94,11,20000,7.408,,,140,,,,,,,,,,,wg-a,,,,AAXX 30034 07481 12/70 11404 10120 20110 39843 40128 58006 60006 81080 90300=
07481,1998-05-30 06:00:00,15,1012.6,0.1,82,12,15000,14.816,,,130,11.7,19.2,,,,,,,,,wg-a,,,,AAXX 30064 07481 02/65 11308 10150 20120 39844 40126 53001 60006 80002 90600 333 10192 20117 60004=
07481,1998-05-30 09:00:00,19,1011.8,-0.4,60,11,25000,14.816,,,170,,,,,,,,,,,wg-a,,,,AAXX 30094 07481 12575 21708 10190 20110 39840 40118 58004 60006 81102 90900=
07481,1998-05-30 12:00:00,22,1010.8,-0.7,41,8,500,29.632,,,180,,,,,,,,,,,wg-a,,,,AAXX 30124 07481 12600 51816 10220 20080 39833 40108 57007 60006 82282 91200=
07481,1998-05-30 15:00:00,22,1009.7,-1,50,11,500,25.928,,,210,,,,,,,,,,,wg-a,,,,AAXX 30154 07481 12600 72114 10220 20110 39823 40097 58010 60006 82882 91500=
07481,1998-05-30 18:00:00,21,1010.3,0.4,56,12,500,18.52,,,210,14.7,23.4,,,,,,,,,wg-a,,,,AAXX 30184 07481 12600 72110 10210 20120 39827 40103 53004 60006 8388/ 91800 333 10234 20147=
07481,1998-05-30 21:00:00,19,1012,1.5,56,10,500,18.52,,,190,,,,,,,,,,,wg-a,,,,AAXX 30214 07481 12600 71910 10190 20100 39842 40120 51015 60006 83880 92100=
07481,1998-05-31 00:00:00,16,1012.6,0.3,68,10,500,7.408,,,170,,,,,,,,,,,wg-a,,,,AAXX 31004 07481 12700 21704 10160 20100 39845 40126 51003 60006 81530 90000=
07481,1998-05-31 03:00:00,14,1012.3,-0.5,82,11,25000,7.408,,,140,,,,,,,,,,,wg-a,,,,AAXX 31034 07481 12775 /1404 10140 20110 39840 40123 58005 60006 81532 90300=
07481,1998-05-31 06:00:00,15,1012.3,0.1,82,12,25000,0,,,0,13.6,20.5,,,,,,,,,wg-a,,,,AAXX 31064 07481 02675 70000 10150 20120 39841 40123 52001 60006 81882 90600 333 10205 20136 60004=
07481,1998-05-31 09:00:00,16,1011.9,-0.3,82,13,17000,3.704,,,20,,,,,,,,,,,wg-a,,,,AAXX 31094 07481 12467 70202 10160 20130 39838 40119 58003 60006 878// 90900=
07481,1998-05-31 12:00:00,12,1015,2.7,100,12,8000,7.408,,,270,,,,8,,,,,,63,wg-a,,,,AAXX 31124 07481 02458 82704 10120 20120 39865 40150 51027 60086 76386 888// 91200 333 60087=
07481,1998-05-31 15:00:00,13,1015,0.1,94,12,500,3.704,,,170,,,,5,,,,,,21,wg-a,,,,AAXX 31154 07481 12200 71702 10130 20120 39866 40150 53001 60057 72162 878// 91500=
07481,1998-05-31 18:00:00,14,1016.9,1.9,88,12,12000,14.816,,,280,12,16.2,,,,,,,,81,wg-a,,,,AAXX 31184 07481 02462 72808 10140 20120 39885 40169 53019 61000 78186 8693/ 91800 333 10162 20120 6001=
07481,1998-05-31 21:00:00,11,1017.6,0.4,100,11,15000,7.408,,,220,,,,0,,,,,,1,wg-a,,,,AAXX 31214 07481 12/65 /2204 10110 20110 39889 40176 53004 60007 70186 81030 92100=
07481,1998-06-01 00:00:00,11,1016.9,-0.8,94,10,15000,7.408,,,150,,,,,,,,,,2,wg-a,,,,AAXX 01004 07481 12/65 01504 10110 20100 39881 40169 56008 60016 70286 80000 90000=
07481,1998-06-01 03:00:00,10,1016.5,-0.4,100,10,8000,3.704,,,170,,,,0,,,,,,11,wg-a,,,,AAXX 01034 07481 12/58 31702 10100 20100 39877 40165 58004 60007 71100 80001 90300=
07481,1998-06-01 06:00:00,10,1016.2,-0.3,100,10,2000,0,,,0,8.2,13.9,,,,,14,,,40,wg-a,,,,AAXX 01064 07481 02/20 /0000 10100 20100 39874 40162 56003 60006 74041 81031 90600 333 10139 20082 60144=
07481,1998-06-01 09:00:00,17,1014.9,-0.5,72,12,40000,11.112,,,160,,,,,,,,,,,wg-a,,,,AAXX 01094 07481 12582 /1606 10170 20120 39869 40149 58005 60006 81831 90900=
07481,1998-06-01 12:00:00,21,1013.4,-1.1,53,11,40000,22.224,,,180,,,,,,,,,,,wg-a,,,,AAXX 01124 07481 12682 61812 10210 20110 39858 40134 56011 60006 81831 91200=
07481,1998-06-01 15:00:00,24,1012.2,-1,36,8,50000,31.484,,44.448,200,,,,,,,,,,,wg-a,,,,AAXX 01154 07481 12684 62017 10240 20080 39848 40122 56010 60006 81831 91500 333 91024=
07481,1998-06-01 18:00:00,21,1011.7,-0.8,49,10,40000,25.928,,,200,9.8,23.7,,,,,,,,21,wg-a,,,,AAXX 01184 07481 02682 72014 10210 20100 39840 40117 57008 61000 72162 8587/ 91800 333 10237 20098 6100=
07481,1998-06-01 21:00:00,19,1012.3,0.5,49,8,40000,22.224,,,180,,,,,,,,,,,wg-a,,,,AAXX 01214 07481 12/82 71812 10190 20080 39845 40123 51005 60006 83036 92100=
07481,1998-06-02 00:00:00,18,1012.6,0.2,52,8,35000,22.224,,,170,,,,,,,,,,,wg-a,,,,AAXX 02004 07481 12781 81712 10180 20080 39847 40126 50002 60006 8357/ 90000=
07481,1998-06-02 03:00:00,17,1013,0.3,59,9,500,11.112,,,140,,,,,,,,,,,wg-a,,,,AAXX 02034 07481 12700 71406 10170 20090 39850 40130 51003 60006 8357/ 90300=
07481,1998-06-02 06:00:00,19,1013.5,0.6,52,9,60000,14.816,,,150,17,20.7,,,,,,,,,wg-a,,,,AAXX 02064 07481 02786 61508 10190 20090 39856 40135 51006 60006 81542 90600 333 10207 20170 61000=
07481,1998-06-02 09:00:00,22,1013.5,0.4,46,10,35000,14.816,,,180,,,,,,,,,,,wg-a,,,,AAXX 02094 07481 12/81 51808 10220 20100 39860 40135 53004 60006 81082 90900=
07481,1998-06-02 12:00:00,24,1012.6,-0.8,41,10,35000,35.188,,57.412,200,,,,,,,,,,,wg-a,,,,AAXX 02124 07481 12781 52019 10240 20100 39852 40126 56008 60006 81282 91200 333 91031=
07481,1998-06-02 15:00:00,24,1011.4,-1.1,44,11,35000,14.816,,,210,,,,,,,,,,,wg-a,,,,AAXX 02154 07481 12781 62108 10240 20110 39841 40114 56011 60006 81282 91500=
07481,1998-06-02 18:00:00,23,1011.9,0.4,57,14,15000,18.52,,,180,18.7,25,,,,,,,,25,wg-a,,,,AAXX 02184 07481 02665 71810 10230 20140 39845 40119 53004 61000 72586 82282 91800 333 10250 20187 6100=
07481,1998-06-02 21:00:00,17,1017.3,4.7,88,15,20000,14.816,,,340,,,,2,,,,,,61,wg-a,,,,AAXX 02214 07481 12570 83408 10170 20150 39892 40173 53047 60027 76186 8198/ 92100=
07481,1998-06-03 00:00:00,15,1018,0.5,94,14,25000,11.112,,,160,,,,4,,,,,,80,wg-a,,,,AAXX 03004 07481 02575 81606 10150 20140 39897 40180 53005 60056 78098 8388/ 90000 333 60047=
07481,1998-06-03 03:00:00,15,1017.2,-0.8,94,14,15000,3.704,,,330,,,,0,,,,,,60,wg-a,,,,AAXX 03034 07481 12465 83302 10150 20140 39889 40172 55008 60007 76096 8498/ 90300=
07481,1998-06-03 06:00:00,15,1018.2,0.9,94,14,25000,3.704,,,340,14.4,22.6,,,,,,,,21,wg-a,,,,AAXX 03064 07481 02375 73402 10150 20140 39898 40182 51009 61000 72198 8498/ 90600 333 10226 20144 6008=
07481,1998-06-03 09:00:00,18,1018,0.2,73,13,25000,7.408,,,30,,,,,,,,,,,wg-a,,,,AAXX 03094 07481 12375 /0304 10180 20130 39900 40180 52002 60006 81182 90900=
07481,1998-06-03 12:00:00,22,1016.5,-1.1,57,13,25000,7.408,,,20,,,,,,,,,,,wg-a,,,,AAXX 03124 07481 12475 /0204 10220 20130 39889 40165 56011 60006 81101 91200=
07481,1998-06-03 15:00:00,22,1015.4,-1.1,57,13,20000,11.112,,,20,,,,,,,,,,,wg-a,,,,AAXX 03154 07481 12570 70206 10220 20130 39878 40154 58011 60006 82983 91500=
07481,1998-06-03 18:00:00,20,1016.7,1.1,73,15,20000,11.112,,,190,14.4,23.6,,,,,,,,80,wg-a,,,,AAXX 03184 07481 02570 71906 10200 20150 39889 40167 53011 61000 78098 82983 91800 333 10236 20144 6000=
07481,1998-06-03 21:00:00,17,1017.1,0.1,94,16,20000,14.816,,,110,,,,2,,,,,,21,wg-a,,,,AAXX 03214 07481 12670 71108 10170 20160 39890 40171 50001 60027 72186 82283 92100=
07481,1998-06-04 00:00:00,16,1018,0.8,100,16,20000,0,,,0,,,,,,,,,,2,wg-a,,,,AAXX 04004 07481 12/70 60000 10160 20160 39898 40180 51008 60026 70286 83082 90000=
07481,1998-06-04 03:00:00,16,1018.4,0.4,94,15,10000,3.704,,,180,,,,,,,,,,,wg-a,,,,AAXX 04034 07481 12/60 71802 10160 20150 39902 40184 52004 60006 85082 90300=
07481,1998-06-04 06:00:00,17,1018.8,0.5,94,16,9000,0,,,0,15.2,20.3,,,,,,,,21,wg-a,,,,AAXX 04064 07481 02/59 30000 10170 20160 39907 40188 50005 61000 72161 82082 90600 333 10203 20152 6003=
07481,1998-06-04 09:00:00,22,1017.7,-0.6,73,17,15000,7.408,,,160,,,,,,,,,,,wg-a,,,,AAXX 04094 07481 12565 31604 10220 20170 39901 40177 58006 60006 81182 90900=
07481,1998-06-04 12:00:00,26,1015.4,-1.9,58,17,25000,3.704,,,20,,,,,,,,,,,wg-a,,,,AAXX 04124 07481 12675 40202 10260 20170 39882 40154 56019 60006 81182 91200=
07481,1998-06-04 15:00:00,28,1014,-1.2,51,17,500,11.112,,,360,,,,,,,,,,,wg-a,,,,AAXX 04154 07481 12600 43606 10280 20170 39870 40140 58012 60006 81281 91500=
07481,1998-06-04 18:00:00,25,1014.2,-0,69,19,500,7.408,,,350,17.3,27.8,,,,,,,,,wg-a,,,,AAXX 04184 07481 12700 /3504 10250 20190 39870 40142 55000 60006 81983 91800 333 10278 20173=
07481,1998-06-04 21:00:00,22,1014.3,-0.2,78,18,500,3.704,,,240,,,,,,,,,,,wg-a,,,,AAXX 04214 07481 12700 32402 10220 20180 39868 40143 58002 60006 81282 92100=
07481,1998-06-05 00:00:00,21,1013.3,-1.1,73,16,500,3.704,,,170,,,,,,,,,,,wg-a,,,,AAXX 05004 07481 12/00 11702 10210 20160 39857 40133 58011 60006 80001 90000=
07481,1998-06-05 03:00:00,18,1013.3,-0.3,83,15,500,11.112,,,140,,,,,,,,,,,wg-a,,,,AAXX 05034 07481 12/00 11406 10180 20150 39854 40133 58003 60006 80001 90300=
07481,1998-06-05 06:00:00,21,1013.7,0.6,69,15,500,11.112,,,140,18.3,24.9,,,,,,,,,wg-a,,,,AAXX 05064 07481 02/00 61406 10210 20150 39860 40137 53006 60006 81042 90600 333 10249 20183 60004=
07481,1998-06-05 09:00:00,27,1012.5,-0.5,51,16,500,11.112,,,140,,,,,,,,,,,wg-a,,,,AAXX 05094 07481 12/00 41406 10270 20160 39855 40125 58005 60006 81042 90900=
07481,1998-06-05 12:00:00,31,1011.5,-0.7,40,16,500,14.816,,,170,,,,,,,,,,,wg-a,,,,AAXX 05124 07481 12/00 61708 10310 20160 39848 40115 58007 60006 81042 91200=
07481,1998-06-05 15:00:00,30,1011,-0.6,40,15,25000,11.112,,,140,,,,,,,,,,,wg-a,,,,AAXX 05154 07481 12/75 71406 10300 20150 39842 40110 57006 60006 84042 91500=
07481,1998-06-05 18:00:00,28,1010.8,-0.3,58,19,25000,11.112,,,110,20.6,30.6,,,,,,,,,wg-a,,,,AAXX 05184 07481 12/75 71106 10280 20190 39839 40108 56003 60006 81042 91800 333 10306 20206=
07481,1998-06-05 21:00:00,25,1011.4,0.3,50,14,25000,11.112,,,130,,,,,,,,,,,wg-a,,,,AAXX 05214 07481 12/75 71306 10250 20140 39842 40114 53003 60006 84042 92100=
07481,1998-06-06 00:00:00,23,1011.6,0,61,15,20000,14.816,,,150,,,,,,,,,,,wg-a,,,,AAXX 06004 07481 12/70 51508 10230 20150 39842 40116 50000 60006 80002 90000=
07481,1998-06-06 03:00:00,22,1012.1,0.4,60,14,20000,11.112,,,160,,,,,,,,,,,wg-a,,,,AAXX 06034 07481 12/70 41606 10220 20140 39846 40121 53004 60006 80002 90300=
07481,1998-06-06 06:00:00,23,1012.9,0.8,53,13,25000,18.52,,,160,19.9,28.1,,,,,,,,,wg-a,,,,AAXX 06064 07481 02/75 51610 10230 20130 39854 40129 53008 60006 81082 90600 333 10281 20199 60004=
07481,1998-06-06 18:00:00,22,1012.8,-0.1,69,16,15000,11.112,,,200,22.1,24.7,,,,,,,,,wg-a,,,,AAXX 06184 07481 12665 72006 10220 20160 39853 40128 55001 60006 8127/ 91800 333 10247 20221=
07481,1998-06-06 21:00:00,20,1013.6,0.7,88,18,12000,11.112,,,150,,,,,,,,,,,wg-a,,,,AAXX 06214 07481 12/62 71506 10200 20180 39860 40136 53007 60006 8707/ 92100=
07481,1998-06-07 00:00:00,20,1013.3,-0.4,78,16,15000,18.52,,,160,,,,,,,,,,,wg-a,,,,AAXX 07004 07481 12/65 71610 10200 20160 39856 40133 58004 60006 84042 90000=
07481,1998-06-07 03:00:00,18,1012.8,-0.7,88,16,18000,11.112,,,170,,,,,,,,,,21,wg-a,,,,AAXX 07034 07481 02768 71706 10180 20160 39849 40128 57007 61000 72162 82581 90300 333 ////=
07481,1998-06-07 06:00:00,18,1013.5,0.8,88,16,18000,14.816,,,160,17.5,22.2,,,,,,,,1,wg-a,,,,AAXX 07064 07481 02568 71608 10180 20160 39857 40135 53008 60006 70162 8488/ 90600 333 10222 20175 60004=
07481,1998-06-07 09:00:00,17,1015.8,2,77,13,18000,11.112,,,300,,,,1,,,,,,21,wg-a,,,,AAXX 07094 07481 12468 73006 10170 20130 39877 40158 51020 60017 72186 878// 90900=
07481,1998-06-07 12:00:00,19,1016.4,0.8,73,14,18000,3.704,,,20,,,,,,,,,,1,wg-a,,,,AAXX 07124 07481 12568 70202 10190 20140 39885 40164 51008 60016 70186 82882 91200=
07481,1998-06-07 15:00:00,21,1015.5,-0.7,64,14,18000,14.816,,,130,,,,,,,,,,,wg-a,,,,AAXX 07154 07481 12568 71308 10210 20140 39878 40155 58007 60006 83882 91500=
07481,1998-06-07 18:00:00,18,1017.1,1.3,77,14,25000,14.816,,,50,16.2,21.2,,,,,,,,,wg-a,,,,AAXX 07184 07481 12575 /0508 10180 20140 39891 40171 52013 60006 81882 91800 333 10212 20162=
07481,1998-06-07 21:00:00,15,1019.8,2.4,94,14,500,3.704,,,330,,,,,,,,,,,wg-a,,,,AAXX 07214 07481 12500 33302 10150 20140 39915 40198 53024 60006 83800 92100=
07481,1998-06-08 00:00:00,14,1021,1,94,13,25000,3.704,,,240,,,,,,,,,,,wg-a,,,,AAXX 08004 07481 12775 22402 10140 20130 39925 40210 51010 60006 82500 90000=
07481,1998-06-08 03:00:00,13,1021.1,0,94,12,25000,3.704,,,20,,,,,,,,,,,wg-a,,,,AAXX 08034 07481 12775 50202 10130 20120 39925 40211 50000 60006 85500 90300=
07481,1998-06-08 06:00:00,15,1022,1,82,12,40000,11.112,,,360,12.8,18.2,,,,,1,,,,wg-a,,,,AAXX 08064 07481 02482 /3606 10150 20120 39935 40220 52010 60006 81530 90600 333 10182 20128 60014=
07481,1998-06-08 09:00:00,18,1021.6,-0.1,64,11,50000,18.52,,,20,,,,,,,,,,,wg-a,,,,AAXX 08094 07481 12584 40210 10180 20110 39934 40216 58001 60006 84101 90900=
07481,1998-06-08 12:00:00,20,1021.3,-0.1,40,6,50000,14.816,,,350,,,,,,,,,,,wg-a,,,,AAXX 08124 07481 12684 33508 10200 20060 39933 40213 58001 60006 83131 91200=
07481,1998-06-08 15:00:00,21,1020.1,-1.1,43,8,50000,14.816,,,360,,,,,,,,,,,wg-a,,,,AAXX 08154 07481 12784 /3608 10210 20080 39922 40201 56011 60006 81102 91500=
07481,1998-06-08 18:00:00,20,1019.6,-0.5,46,8,40000,11.112,,,340,14.5,21.6,,,,,,,,,wg-a,,,,AAXX 08184 07481 12782 43406 10200 20080 39917 40196 55005 60006 81101 91800 333 10216 20145=
07481,1998-06-08 21:00:00,16,1021.4,1.4,68,10,40000,7.408,,,360,,,,,,,,,,,wg-a,,,,AAXX 08214 07481 12/82 43604 10160 20100 39931 40214 53014 60006 80001 92100=
07481,1998-06-09 03:00:00,13,1020.3,-0.8,82,10,500,0,,,0,,,,,,,,,,,wg-a,,,,AAXX 09034 07481 12/00 30000 10130 20100 39917 40203 58008 60006 81031 90300=
07481,1998-06-09 06:00:00,15,1020.1,-0,77,11,50000,3.704,,,110,12.3,20.1,,,,,,,,,wg-a,,,,AAXX 09064 07481 02/84 51102 10150 20110 39917 40201 55000 60006 82032 90600 333 10201 20123 60004=
07481,1998-06-09 09:00:00,20,1019,-0.6,56,11,500,3.704,,,70,,,,,,,,,,,wg-a,,,,AAXX 09094 07481 12/00 70702 10200 20110 39911 40190 58006 60006 8703/ 90900=
07481,1998-06-09 12:00:00,22,1017,-1.7,50,11,10000,7.408,,,310,,,,,,,,,,,wg-a,,,,AAXX 09124 07481 12/60 /3104 10220 20110 39894 40170 58017 60006 91200=
07481,1998-06-09 15:00:00,26,1013.6,-3,48,14,40000,3.704,,,280,,,,,,,,,,,wg-a,,,,AAXX 09154 07481 12682 32802 10260 20140 39864 40136 56030 60006 81232 91500=
07481,1998-06-09 18:00:00,26,1011.8,-1.7,51,15,40000,7.408,,,160,14.8,26.4,,,,,,,,,wg-a,,,,AAXX 09184 07481 12/82 51604 10260 20150 39847 40118 56017 60006 80002 91800 333 10264 20148=
07481,1998-06-09 21:00:00,23,1011.8,-0.3,65,16,40000,11.112,,,150,,,,,,,,,,,wg-a,,,,AAXX 09214 07481 12/82 31506 10230 20160 39844 40118 55003 60006 82042 92100=
07481,1998-06-10 00:00:00,20,1010.8,-1.2,68,14,500,7.408,,,150,,,,,,,,,,,wg-a,,,,AAXX 10004 07481 12/00 51504 10200 20140 39832 40108 58012 60006 83032 90000=
07481,1998-06-10 03:00:00,19,1008.9,-1.9,78,15,500,3.704,,,210,,,,,,,,,,,wg-a,,,,AAXX 10034 07481 12/00 62102 10190 20150 39813 40089 56019 60006 83032 90300=
07481,1998-06-10 06:00:00,19,1009.9,0.9,73,14,15000,11.112,,,240,18.7,25.7,,,,,,,,,wg-a,,,,AAXX 10064 07481 02765 72406 10190 20140 39822 40099 51009 60006 8328/ 90600 333 10257 20187 60004=
07481,1998-06-10 09:00:00,17,1011.7,1.6,94,16,500,7.408,,,360,,,,12,,,,,,80,wg-a,,,,AAXX 10094 07481 12400 83604 10170 20160 39838 40117 53016 60127 78098 8598/ 90900=
07481,1998-06-10 12:00:00,17,1011.5,-0.2,88,15,10000,11.112,,,110,,,,6,,,,,,25,wg-a,,,,AAXX 10124 07481 02460 81106 10170 20150 39836 40115 58002 60186 72598 8487/ 91200 333 60067=
07481,1998-06-10 15:00:00,17,1010.9,-0.6,94,16,12000,14.816,,,110,,,,2,,,,,,21,wg-a,,,,AAXX 10154 07481 12462 71108 10170 20160 39830 40109 58006 60027 72162 8587/ 91500=
07481,1998-06-10 18:00:00,17,1010,-0.9,82,14,25000,11.112,,,150,15.9,19.7,,,,,,,,3,wg-a,,,,AAXX 10184 07481 12475 /1506 10170 20140 39821 40100 57009 60006 70362 84830 91800 333 10197 20159=
07481,1998-06-10 21:00:00,16,1010,-0.1,88,14,11000,11.112,,,170,,,,,,,,,,,wg-a,,,,AAXX 10214 07481 12/61 /1706 10160 20140 39820 40100 58001 60006 92100=
07481,1998-06-11 00:00:00,15,1009.7,-0.4,77,11,25000,11.112,,,290,,,,,,,,,,,wg-a,,,,AAXX 11004 07481 12475 /2906 10150 20110 39816 40097 56004 60006 81830 90000=
07481,1998-06-11 03:00:00,14,1009.2,-0.7,77,10,25000,0,,,0,,,,,,,,,,,wg-a,,,,AAXX 11034 07481 12775 50000 10140 20100 39809 40092 57007 60006 83530 90300=
07481,1998-06-11 06:00:00,13,1009.5,0.3,88,11,20000,7.408,,,250,13.3,17.3,,,,,,,,60,wg-a,,,,AAXX 11064 07481 02470 72504 10130 20110 39812 40095 53003 61000 76062 878// 90600 333 10173 20133 6020=
07481,1998-06-11 09:00:00,15,1009.6,0.3,67,9,20000,11.112,,,290,,,,,,,,,,61,wg-a,,,,AAXX 11094 07481 02470 72906 10150 20090 39815 40096 50003 61000 76186 878// 90900 333 ////=
07481,1998-06-11 12:00:00,17,1009.6,0.2,48,6,50000,14.816,,,290,,,,0,,,,,,3,wg-a,,,,AAXX 11124 07481 02684 /2908 10170 20060 39817 40096 50002 60006 70386 86800 91200 333 60007=
07481,1998-06-11 15:00:00,13,1010,-0,77,9,9000,31.484,,,310,,,,,,,,,,80,wg-a,,,,AAXX 11154 07481 02659 73117 10130 20090 39817 40100 55000 61000 78086 879// 91500 333 ////=
07481,1998-06-11 18:00:00,13,1011.4,1.3,67,7,40000,14.816,,,300,11.6,18.2,,3,,,,,,3,wg-a,,,,AAXX 11184 07481 02682 73008 10130 20070 39830 40114 53013 60006 70386 878// 91800 333 10182 20116 60037=
07481,1998-06-11 21:00:00,11,1012.9,1.3,82,8,20000,11.112,,,270,,,,1,,,,,,25,wg-a,,,,AAXX 11214 07481 12570 72706 10110 20080 39843 40129 51013 60017 72586 878// 92100=
07481,1998-06-12 00:00:00,11,1014,1,76,7,20000,22.224,,,310,,,,,,,,,,2,wg-a,,,,AAXX 12004 07481 12770 /3112 10110 20070 39853 40140 53010 60016 70286 8123/ 90000=
07481,1998-06-12 03:00:00,9,1015.1,0.9,81,6,500,3.704,,,240,,,,,,,,,,,wg-a,,,,AAXX 12034 07481 12/00 62402 10090 20060 39862 40151 51009 60006 83042 90300=
07481,1998-06-12 06:00:00,10,1016.3,1.3,82,7,20000,0,,,0,8.2,13.2,,,,,5,,,,wg-a,,,,AAXX 12064 07481 02570 70000 10100 20070 39875 40163 53013 60006 878// 90600 333 10132 20082 60054=
07481,1998-06-12 09:00:00,10,1018.5,2.2,100,10,9000,11.112,,,330,,,,1,,,,,,60,wg-a,,,,AAXX 12094 07481 12459 83306 10100 20100 39897 40185 51022 60017 76062 878// 90900=
07481,1998-06-12 12:00:00,10,1021,2.4,87,8,25000,22.224,,,330,,,,0,,,,,,25,wg-a,,,,AAXX 12124 07481 02575 83312 10100 20080 39921 40210 51024 60016 72586 878// 91200 333 60007=
07481,1998-06-12 15:00:00,14,1021.4,0.7,55,5,40000,22.224,,,360,,,,,,,,,,,wg-a,,,,AAXX 12154 07481 12582 /3612 10140 20050 39928 40214 50007 60006 86800 91500=
07481,1998-06-12 18:00:00,14,1021.9,0.5,58,6,40000,14.816,,,330,9.3,15.4,,,,,,,,1,wg-a,,,,AAXX 12184 07481 02682 53308 10140 20060 39933 40219 53005 60006 70186 85800 91800 333 10154 20093 61000=
07481,1998-06-12 21:00:00,11,1023.3,1,76,7,500,3.704,,,30,,,,,,,,,,,wg-a,,,,AAXX 12214 07481 12700 50302 10110 20070 39943 40233 53010 60006 81830 92100=
07481,1998-06-13 00:00:00,11,1022.6,-0.6,82,8,500,3.704,,,340,,,,,,,,,,,wg-a,,,,AAXX 13004 07481 12600 73402 10110 20080 39937 40226 58006 60006 81830 90000=
07481,1998-06-13 03:00:00,9,1021.3,-1.5,93,8,500,3.704,,,30,,,,,,,,,,,wg-a,,,,AAXX 13034 07481 12/00 10302 10090 20080 39922 40213 57015 60006 80001 90300=
07481,1998-06-13 12:00:00,17,1018.2,-1.4,45,5,40000,7.408,,,100,,,,,,,,,,,wg-a,,,,AAXX 13124 07481 12682 51004 10170 20050 39900 40182 58014 60006 83201 91200=
07481,1998-06-13 15:00:00,19,1015.8,-2.2,37,4,60000,7.408,,,80,,,,,,,,,,,wg-a,,,,AAXX 13154 07481 12786 50804 10190 20040 39878 40158 56022 60006 82282 91500=
07481,1998-06-13 18:00:00,18,1014.9,-0.9,42,5,75000,7.408,,,100,10.2,19,,,,,,,,,wg-a,,,,AAXX 13184 07481 12789 71004 10180 20050 39869 40149 56009 60006 81282 91800 333 10190 20102=
07481,1998-06-13 21:00:00,16,1015.4,0.3,63,9,500,7.408,,,160,,,,,,,,,,,wg-a,,,,AAXX 13214 07481 12700 71604 10160 20090 39872 40154 52003 60006 81570 92100=
07481,1998-06-14 00:00:00,14,1015.2,-0.3,72,9,15000,7.408,,,210,,,,,,,,,,,wg-a,,,,AAXX 14004 07481 12765 82104 10140 20090 39869 40152 55003 60006 8757/ 90000=
07481,1998-06-14 03:00:00,12,1015.2,-0.2,94,11,20000,7.408,,,120,,,,0,,,,,,3,wg-a,,,,AAXX 14034 07481 12470 71204 10120 20110 39867 40152 58002 60007 70362 878// 90300=
07481,1998-06-14 06:00:00,13,1015.7,0.6,94,12,20000,11.112,,,180,12.2,17.9,,,,,,,,21,wg-a,,,,AAXX 14064 07481 02570 71806 10130 20120 39873 40157 50006 61000 72162 878// 90600 333 10179 20122 6001=
07481,1998-06-14 09:00:00,17,1015.4,0,63,10,20000,7.408,,,200,,,,,,,,,,,wg-a,,,,AAXX 14094 07481 12570 62004 10170 20100 39873 40154 50000 60006 84230 90900=
07481,1998-06-14 12:00:00,17,1014.5,-0.8,72,12,10000,7.408,,,350,,,,1,,,,,,25,wg-a,,,,AAXX 14124 07481 02560 73504 10170 20120 39865 40145 56008 60016 72586 862// 91200 333 60017=
07481,1998-06-14 15:00:00,18,1013.8,-0.7,68,12,15000,7.408,,,30,,,,1,,,,,,25,wg-a,,,,AAXX 14154 07481 12565 /0304 10180 20120 39858 40138 55007 60017 72586 82270 91500=
07481,1998-06-14 18:00:00,18,1013.4,-0.3,73,13,8000,14.816,,,130,13.2,20,,,,,,,,15,wg-a,,,,AAXX 14184 07481 12458 71308 10180 20130 39855 40134 56003 60006 71586 8597/ 91800 333 10200 20132=
07481,1998-06-15 00:00:00,13,1016.5,0.1,94,12,25000,11.112,,,140,,,,,,,,,,1,wg-a,,,,AAXX 15004 07481 12675 81406 10130 20120 39880 40165 50001 60186 70198 878// 90000=
07481,1998-06-15 03:00:00,13,1016.1,-0.4,94,12,25000,7.408,,,140,,,,1,,,,,,,wg-a,,,,AAXX 15034 07481 12675 81404 10130 20120 39876 40161 56004 60017 878// 90300=
07481,1998-06-15 06:00:00,14,1016.1,0.1,82,11,25000,11.112,,,160,11.9,17.6,,,,,21,,,2,wg-a,,,,AAXX 15064 07481 02675 71606 10140 20110 39877 40161 50001 60006 70286 878// 90600 333 10176 20119 60214=
07481,1998-06-15 09:00:00,17,1015.8,0,59,9,500,7.408,,,240,,,,,,,,,,,wg-a,,,,AAXX 15094 07481 12500 62404 10170 20090 39877 40158 50000 60006 84241 90900=
07481,1998-06-15 12:00:00,19,1015.2,-0.4,49,8,50000,11.112,,,240,,,,,,,,,,,wg-a,,,,AAXX 15124 07481 12584 /2406 10190 20080 39873 40152 58004 60006 84241 91200=
07481,1998-06-15 15:00:00,19,1015.1,-0.1,52,9,25000,11.112,,,350,,,,0,,,,,,13,wg-a,,,,AAXX 15154 07481 12675 63506 10190 20090 39872 40151 55001 60007 71386 84381 91500=
07481,1998-06-15 18:00:00,15,1017,1.5,77,11,500,18.52,,,160,14,20.5,,1,,,,,,1,wg-a,,,,AAXX 15184 07481 02600 61610 10150 20110 39887 40170 51015 60006 70198 83383 91800 333 10205 20140 60017=
07481,1998-06-15 21:00:00,13,1019.1,1.8,94,12,500,7.408,,,180,,,,3,,,,,,21,wg-a,,,,AAXX 15214 07481 12600 /1804 10130 20120 39905 40191 51018 60037 72186 85860 92100=
07481,1998-06-16 00:00:00,12,1019.9,0.7,94,11,500,3.704,,,210,,,,,,,,,,3,wg-a,,,,AAXX 16004 07481 12/00 42102 10120 20110 39912 40199 51007 60036 70386 84040 90000=
07481,1998-06-16 03:00:00,12,1020.3,0.4,94,11,20000,3.704,,,220,,,,1,,,,,,60,wg-a,,,,AAXX 16034 07481 12470 72202 10120 20110 39916 40203 53004 60017 76061 8557/ 90300=
07481,1998-06-16 06:00:00,14,1021.9,1.7,88,12,20000,7.408,,,300,11.3,14.9,,,,,5,,,1,wg-a,,,,AAXX 16064 07481 02470 33004 10140 20120 39933 40219 52017 60006 70161 81131 90600 333 10149 20113 60054=
07481,1998-06-16 09:00:00,16,1023.3,1.5,51,6,50000,14.816,,,340,,,,,,,,,,,wg-a,,,,AAXX 16094 07481 12684 33408 10160 20060 39948 40233 51015 60006 82101 90900=
07481,1998-06-16 12:00:00,18,1023.3,0.2,39,4,60000,14.816,,,320,,,,,,,,,,,wg-a,,,,AAXX 16124 07481 12686 53208 10180 20040 39950 40233 51002 60006 83101 91200=
07481,1998-06-16 15:00:00,19,1023.5,0.3,37,4,50000,14.816,,,330,,,,,,,,,,,wg-a,,,,AAXX 16154 07481 12784 43308 10190 20040 39953 40235 53003 60006 83101 91500=
07481,1998-06-16 18:00:00,18,1024.1,0.5,42,5,45000,11.112,,,30,13.7,19.1,,,,,,,,,wg-a,,,,AAXX 16184 07481 12783 /0306 10180 20050 39958 40241 53005 60006 81101 91800 333 10191 20137=
07481,1998-06-16 21:00:00,14,1025.8,1.3,67,8,40000,3.704,,,60,,,,,,,,,,,wg-a,,,,AAXX 16214 07481 12882 10602 10140 20080 39971 40258 53013 60006 81040 92100=
07481,1998-06-17 00:00:00,11,1026.6,0.5,87,9,40000,3.704,,,240,,,,,,,,,,,wg-a,,,,AAXX 17004 07481 12882 12402 10110 20090 39976 40266 51005 60006 81040 90000=
07481,1998-06-17 03:00:00,10,1026.9,0.1,82,7,500,3.704,,,50,,,,,,,,,,,wg-a,,,,AAXX 17034 07481 12/00 00502 10100 20070 39977 40269 53001 60006 80000 90300=
07481,1998-06-17 06:00:00,12,1027.5,0.8,76,8,50000,3.704,,,50,8.7,17.9,,,,,,,,,wg-a,,,,AAXX 17064 07481 02/84 10502 10120 20080 39985 40275 53008 60006 80001 90600 333 10179 20087 60004=
07481,1998-06-17 09:00:00,17,1026.8,-0.1,59,9,60000,7.408,,,20,,,,,,,,,,,wg-a,,,,AAXX 17094 07481 12586 60204 10170 20090 39984 40268 58001 60006 81202 90900=
07481,1998-06-17 12:00:00,20,1026.7,0.1,37,5,60000,14.816,,,10,,,,,,,,,,,wg-a,,,,AAXX 17124 07481 12686 70108 10200 20050 39985 40267 50001 60006 82202 91200=
07481,1998-06-17 15:00:00,21,1025.9,-0.7,38,6,60000,14.816,,,340,,,,,,,,,,,wg-a,,,,AAXX 17154 07481 12786 73408 10210 20060 39978 40259 56007 60006 81405 91500=
07481,1998-06-17 18:00:00,19,1025.6,-0.4,46,7,60000,14.816,,,10,8.7,20.7,,,,,,,,,wg-a,,,,AAXX 17184 07481 12/86 70108 10190 20070 39974 40256 55004 60006 80002 91800 333 10207 20087=
07481,1998-06-17 21:00:00,15,1026.7,0.7,67,9,500,7.408,,,10,,,,,,,,,,,wg-a,,,,AAXX 17214 07481 12/00 50104 10150 20090 39981 40267 53007 60006 80001 92100=
07481,1998-06-18 00:00:00,12,1027.1,0.1,82,9,500,7.408,,,260,,,,,,,,,,,wg-a,,,,AAXX 18004 07481 12/00 42604 10120 20090 39982 40271 51001 60006 80001 90000=
07481,1998-06-18 03:00:00,11,1026.7,-0.5,87,9,25000,0,,,0,,,,,,,,,,,wg-a,,,,AAXX 18034 07481 12/75 20000 10110 20090 39977 40267 57005 60006 80001 90300=
07481,1998-06-18 06:00:00,14,1026.9,0.5,72,9,500,3.704,,,40,8.7,19.3,,,,,,,,,wg-a,,,,AAXX 18064 07481 02/00 20402 10140 20090 39982 40269 52005 60006 81031 90600 333 10193 20087 60004=
07481,1998-06-18 09:00:00,18,1026.9,0.4,64,11,500,7.408,,,340,,,,,,,,,,,wg-a,,,,AAXX 18094 07481 12/00 53404 10180 20110 39986 40269 51004 60006 81032 90900=
07481,1998-06-18 12:00:00,22,1026,-0.6,41,8,500,7.408,,,40,,,,,,,,,,,wg-a,,,,AAXX 18124 07481 12/00 70404 10220 20080 39980 40260 56006 60006 82032 91200=
07481,1998-06-18 15:00:00,24,1024.6,-1.1,41,10,500,7.408,,,350,,,,,,,,,,,wg-a,,,,AAXX 18154 07481 12700 63504 10240 20100 39969 40246 57011 60006 81132 91500=
07481,1998-06-18 18:00:00,23,1024,-0.7,41,9,500,11.112,,,10,13.7,23.9,,,,,,,,,wg-a,,,,AAXX 18184 07481 12700 20106 10230 20090 39962 40240 58007 60006 81131 91800 333 10239 20137=
07481,1998-06-18 21:00:00,19,1025,0.6,56,10,500,3.704,,,350,,,,,,,,,,,wg-a,,,,AAXX 18214 07481 12/00 13502 10190 20100 39968 40250 53006 60006 81041 92100=
07481,1998-06-19 00:00:00,16,1024.9,-0.4,68,10,500,3.704,,,260,,,,,,,,,,,wg-a,,,,AAXX 19004 07481 12/00 02602 10160 20100 39964 40249 56004 60006 80000 90000=
07481,1998-06-19 03:00:00,13,1024.5,-0.6,82,10,500,3.704,,,120,,,,,,,,,,,wg-a,,,,AAXX 19034 07481 12/00 01202 10130 20100 39958 40245 56006 60006 80000 90300=
07481,1998-06-19 06:00:00,15,1024.8,0.4,82,12,500,3.704,,,260,12.6,22.8,,,,,,,,,wg-a,,,,AAXX 19064 07481 02/00 12602 10150 20120 39962 40248 51004 60006 80001 90600 333 10228 20126 60004=
07481,1998-06-19 09:00:00,20,1024,-0.2,56,11,10000,7.408,,,310,,,,,,,,,,,wg-a,,,,AAXX 19094 07481 12/60 /3104 10200 20110 39960 40240 58002 60006 90900=
07481,1998-06-19 12:00:00,25,1022.9,-0.7,41,11,500,7.408,,,360,,,,,,,,,,,wg-a,,,,AAXX 19124 07481 12/00 33604 10250 20110 39953 40229 58007 60006 80001 91200=
07481,1998-06-19 15:00:00,26,1021.9,-0.8,37,10,40000,11.112,,,10,,,,,,,,,,,wg-a,,,,AAXX 19154 07481 12782 30106 10260 20100 39945 40219 58008 60006 81201 91500=
07481,1998-06-19 18:00:00,26,1021.2,-0.7,37,10,50000,7.408,,,350,14.6,26.9,,,,,,,,,wg-a,,,,AAXX 19184 07481 12/84 23504 10260 20100 39938 40212 56007 60006 80001 91800 333 10269 20146=
07481,1998-06-19 21:00:00,21,1022.1,0.4,56,12,500,3.704,,,300,,,,,,,,,,,wg-a,,,,AAXX 19214 07481 12/00 23002 10210 20120 39942 40221 53004 60006 80001 92100=
07481,1998-06-20 00:00:00,18,1022.1,-0.2,73,13,500,0,,,0,,,,,,,,,,,wg-a,,,,AAXX 20004 07481 12/00 20000 10180 20130 39940 40221 58002 60006 80001 90000=
07481,1998-06-20 03:00:00,17,1022.3,-0,77,13,40000,7.408,,,180,,,,,,,,,,,wg-a,,,,AAXX 20034 07481 12/82 01804 10170 20130 39940 40223 55000 60006 80000 90300=
07481,1998-06-20 06:00:00,18,1023.2,1,73,13,40000,3.704,,,170,16,26.2,,,,,,,,,wg-a,,,,AAXX 20064 07481 02/82 11702 10180 20130 39950 40232 52010 60006 80001 90600 333 10262 20160 60004=
07481,1998-06-20 09:00:00,24,1022.8,0.2,54,14,35000,11.112,,,170,,,,,,,,,,,wg-a,,,,AAXX 20094 07481 12/81 11706 10240 20140 39952 40228 52002 60006 80001 90900=
07481,1998-06-20 12:00:00,29,1021.3,-1.1,37,13,40000,22.224,,,190,,,,,,,,,,,wg-a,,,,AAXX 20124 07481 12/82 11912 10290 20130 39941 40213 58011 60006 80001 91200=
07481,1998-06-20 15:00:00,30,1020.1,-1,33,12,40000,25.928,,,190,,,,,,,,,,,wg-a,,,,AAXX 20154 07481 12/82 21914 10300 20120 39931 40201 57010 60006 80001 91500=
07481,1998-06-20 18:00:00,28,1020.5,0.2,32,10,40000,25.928,,,160,18.3,30.4,,,,,,,,,wg-a,,,,AAXX 20184 07481 12/82 11614 10280 20100 39933 40205 53002 60006 80001 91800 333 10304 20183=
07481,1998-06-20 21:00:00,24,1022.1,1.2,44,11,40000,14.816,,,170,,,,,,,,,,,wg-a,,,,AAXX 20214 07481 12/82 11708 10240 20110 39945 40221 53012 60006 80001 92100=
07481,1998-06-21 00:00:00,22,1022.6,0.3,41,8,35000,22.224,,,170,,,,,,,,,,,wg-a,,,,AAXX 21004 07481 12/81 01712 10220 20080 39948 40226 53003 60006 80000 90000=
07481,1998-06-21 03:00:00,21,1022,-0.7,40,7,35000,22.224,,,160,,,,,,,,,,,wg-a,,,,AAXX 21034 07481 12/81 11612 10210 20070 39941 40220 58007 60006 80001 90300=
07481,1998-06-21 06:00:00,22,1022.4,0.5,38,7,35000,14.816,,,180,19.6,28.4,,,,,,,,,wg-a,,,,AAXX 21064 07481 02/81 01808 10220 20070 39946 40224 53005 60006 80000 90600 333 10284 20196 60004=
07481,1998-06-21 09:00:00,26,1022,0,34,9,35000,25.928,,,190,,,,,,,,,,,wg-a,,,,AAXX 21094 07481 12/81 11914 10260 20090 39946 40220 50000 60006 81040 90900=
07481,1998-06-21 12:00:00,29,1020.8,-1,27,8,35000,29.632,,,200,,,,,,,,,,,wg-a,,,,AAXX 21124 07481 12/81 12016 10290 20080 39936 40208 58010 60006 80001 91200=
07481,1998-06-21 15:00:00,30,1019.7,-0.9,29,10,10000,25.928,,,190,,,,,,,,,,,wg-a,,,,AAXX 21154 07481 12/60 /1914 10300 20100 39927 40197 56009 60006 91500=
07481,1998-06-21 18:00:00,27,1019.8,-0.2,34,10,35000,18.52,,,160,21.9,30.4,,,,,,,,,wg-a,,,,AAXX 21184 07481 12/81 61610 10270 20100 39925 40198 58002 60006 83042 91800 333 10304 20219=
07481,1998-06-21 21:00:00,25,1021.4,1.4,34,8,500,25.928,,,200,,,,,,,,,,,wg-a,,,,AAXX 21214 07481 12/00 72014 10250 20080 39939 40214 53014 60006 85032 92100=
07481,1998-06-22 00:00:00,22,1023.5,1.7,43,9,500,3.704,,,110,,,,,,,,,,,wg-a,,,,AAXX 22004 07481 12/00 61102 10220 20090 39956 40235 51017 60006 85032 90000=
07481,1998-06-22 03:00:00,19,1023.7,0,68,13,20000,0,,,0,,,,,,,,,,3,wg-a,,,,AAXX 22034 07481 02770 60000 10190 20130 39956 40237 50000 61000 70361 82530 90300 333 ////=
07481,1998-06-22 06:00:00,21,1024.2,0.7,78,17,10000,7.408,,,340,18.7,27.4,,,,,,,,1,wg-a,,,,AAXX 22064 07481 02660 53404 10210 20170 39963 40242 51007 60006 70161 82532 90600 333 10274 20187 61000=
07481,1998-06-22 09:00:00,22,1024.1,-0,69,16,10000,18.52,,,330,,,,,,,,,,,wg-a,,,,AAXX 22094 07481 12560 73310 10220 20160 39963 40241 54000 60006 878// 90900=
07481,1998-06-22 12:00:00,24,1023.2,-0.7,61,16,10000,14.816,,,350,,,,,,,,,,,wg-a,,,,AAXX 22124 07481 12560 73508 10240 20160 39956 40232 58007 60006 878// 91200=
07481,1998-06-22 15:00:00,25,1022.1,-1,57,16,12000,14.816,,,20,,,,,,,,,,,wg-a,,,,AAXX 22154 07481 12662 60208 10250 20160 39946 40221 58010 60006 86800 91500=
07481,1998-06-22 18:00:00,23,1021.7,-0.5,61,15,12000,11.112,,,10,20.6,25,,,,,,,,,wg-a,,,,AAXX 22184 07481 12662 60106 10230 20150 39941 40217 56005 60006 84880 91800 333 10250 20206=
07481,1998-06-22 21:00:00,21,1022.5,0.5,73,16,12000,7.408,,,300,,,,,,,,,,,wg-a,,,,AAXX 22214 07481 12762 63004 10210 20160 39946 40225 53005 60006 85501 92100=
07481,1998-06-23 00:00:00,19,1022.7,0.1,78,15,15000,3.704,,,350,,,,,,,,,,,wg-a,,,,AAXX 23004 07481 12765 33502 10190 20150 39947 40227 52001 60006 83500 90000=
07481,1998-06-23 03:00:00,17,1021.7,-1.3,82,14,15000,7.408,,,310,,,,,,,,,,,wg-a,,,,AAXX 23034 07481 12765 23104 10170 20140 39934 40217 56013 60006 82500 90300=
07481,1998-06-23 06:00:00,18,1022.1,0.5,73,13,500,7.408,,,330,15.2,23.3,,,,,,,,,wg-a,,,,AAXX 23064 07481 02700 13304 10180 20130 39939 40221 51005 60006 81501 90600 333 10233 20152 60004=
07481,1998-06-23 09:00:00,23,1020.9,-0.7,47,11,40000,22.224,,,10,,,,,,,,,,,wg-a,,,,AAXX 23094 07481 12582 20112 10230 20110 39932 40209 58007 60006 81201 90900=
07481,1998-06-23 12:00:00,25,1019.6,-1.1,39,10,60000,18.52,,,340,,,,,,,,,,,wg-a,,,,AAXX 23124 07481 12786 33410 10250 20100 39921 40196 58011 60006 82401 91200=
07481,1998-06-23 15:00:00,25,1018.5,-1,39,10,60000,22.224,,,10,,,,,,,,,,,wg-a,,,,AAXX 23154 07481 12786 30112 10250 20100 39911 40185 56010 60006 81501 91500=
07481,1998-06-23 18:00:00,24,1017.8,-0.8,41,10,60000,22.224,,,360,17.9,25.6,,,,,,,,,wg-a,,,,AAXX 23184 07481 12/86 33612 10240 20100 39903 40178 58008 60006 80001 91800 333 10256 20179=
07481,1998-06-24 03:00:00,14,1017.1,-0.9,82,11,20000,3.704,,,300,,,,,,,,,,,wg-a,,,,AAXX 24034 07481 12/70 13002 10140 20110 39887 40171 56009 60006 80001 90300=
07481,1998-06-24 06:00:00,16,1016.6,-0.3,77,12,500,3.704,,,340,13.6,23.9,,,,,,,,,wg-a,,,,AAXX 24064 07481 02/00 33402 10160 20120 39884 40166 56003 60006 80001 90600 333 10239 20136 60004=
07481,1998-06-24 09:00:00,21,1015.5,-0.6,60,13,40000,11.112,,,360,,,,,,,,,,,wg-a,,,,AAXX 24094 07481 12/82 43606 10210 20130 39878 40155 58006 60006 80001 90900=
07481,1998-06-24 12:00:00,25,1013.8,-1.3,44,12,40000,11.112,,,350,,,,,,,,,,,wg-a,,,,AAXX 24124 07481 12/82 43506 10250 20120 39865 40138 58013 60006 81031 91200=
07481,1998-06-24 15:00:00,27,1012,-1.6,37,11,40000,11.112,,,20,,,,,,,,,,,wg-a,,,,AAXX 24154 07481 12682 40206 10270 20110 39849 40120 56016 60006 81131 91500=
07481,1998-06-24 18:00:00,27,1011.5,-0.5,39,12,40000,7.408,,,360,16.4,27.4,,,,,,,,,wg-a,,,,AAXX 24184 07481 12782 43604 10270 20120 39844 40115 55005 60006 81231 91800 333 10274 20164=
07481,1998-06-24 21:00:00,22,1012.4,0.5,65,15,40000,0,,,0,,,,,,,,,,,wg-a,,,,AAXX 24214 07481 12/82 10000 10220 20150 39849 40124 52005 60006 80001 92100=
07481,1998-06-25 00:00:00,20,1012.1,-0.4,73,15,40000,7.408,,,170,,,,,,,,,,,wg-a,,,,AAXX 25004 07481 12/82 01704 10200 20150 39845 40121 56004 60006 80000 90000=
07481,1998-06-25 03:00:00,18,1012.4,-0,83,15,35000,7.408,,,180,,,,,,,,,,,wg-a,,,,AAXX 25034 07481 12/81 01804 10180 20150 39845 40124 55000 60006 80000 90300=
07481,1998-06-25 06:00:00,19,1013.8,1.5,78,15,25000,7.408,,,290,16.7,26.5,,,,,,,,,wg-a,,,,AAXX 25064 07481 02/75 32904 10190 20150 39860 40138 53015 60006 80001 90600 333 10265 20167 60004=
07481,1998-06-25 09:00:00,24,1013.3,-0,57,15,20000,7.408,,,280,,,,,,,,,,,wg-a,,,,AAXX 25094 07481 12/70 32804 10240 20150 39860 40133 55000 60006 80001 90900=
07481,1998-06-25 12:00:00,25,1013.9,0.7,50,14,25000,14.816,,,340,,,,,,,,,,,wg-a,,,,AAXX 25124 07481 12/75 73408 10250 20140 39867 40139 51007 60006 82086 91200=
07481,1998-06-25 15:00:00,21,1014.8,0.4,73,16,20000,22.224,,,350,,,,,,,,,,3,wg-a,,,,AAXX 25154 07481 02770 73512 10210 20160 39871 40148 53004 61000 70362 8128/ 91500 333 ////=
07481,1998-06-26 00:00:00,17,1016.6,0.3,88,15,20000,0,,,0,,,,,,,,,,,wg-a,,,,AAXX 26004 07481 12670 70000 10170 20150 39885 40166 50003 60006 8253/ 90000=
07481,1998-06-26 03:00:00,16,1015.8,-0.8,94,15,18000,3.704,,,340,,,,,,,,,,,wg-a,,,,AAXX 26034 07481 12668 73402 10160 20150 39877 40158 56008 60006 85531 90300=
07481,1998-06-26 06:00:00,17,1016.6,0.8,82,14,15000,3.704,,,20,15.8,19.2,,,,,,,,,wg-a,,,,AAXX 26064 07481 02465 70202 10170 20140 39885 40166 53008 60006 82834 90600 333 10192 20158 61000=
07481,1998-06-26 09:00:00,18,1016.6,0.1,88,16,17000,3.704,,,300,,,,1,,,,,,3,wg-a,,,,AAXX 26094 07481 12467 73002 10180 20160 39886 40166 51001 60017 70386 8687/ 90900=
07481,1998-06-26 12:00:00,20,1015.9,-0.5,83,17,13000,3.704,,,310,,,,2,,,,,,29,wg-a,,,,AAXX 26124 07481 02363 73102 10200 20170 39881 40159 58005 60036 72998 8687/ 91200 333 60027=
07481,1998-06-26 15:00:00,20,1015.1,-0.7,88,18,15000,7.408,,,30,,,,1,,,,,,25,wg-a,,,,AAXX 26154 07481 12465 70304 10200 20180 39874 40151 56007 60017 72586 8683/ 91500=
07481,1998-06-26 18:00:00,20,1015.1,-0,94,19,8000,3.704,,,290,17.1,20.9,,,,,,,,95,wg-a,,,,AAXX 26184 07481 02658 82902 10200 20190 39874 40151 55000 61000 79598 8598/ 91800 333 10209 20171 6002=
07481,1998-06-26 21:00:00,19,1015.5,0.3,94,18,7000,3.704,,,40,,,,2,,,,,,29,wg-a,,,,AAXX 26214 07481 12457 70402 10190 20180 39877 40155 50003 60027 72998 86880 92100=
07481,1998-06-27 00:00:00,17,1016,0.3,100,17,4000,0,,,0,,,,0,,,,,,10,wg-a,,,,AAXX 27004 07481 02140 /0000 10170 20170 39880 40160 51003 60026 71098 85500 90000 333 60007=
07481,1998-06-27 03:00:00,17,1015.5,-0.6,100,17,400,3.704,,,170,,,,,,,,,,45,wg-a,,,,AAXX 27034 07481 12/04 91702 10170 20170 39874 40155 56006 60006 74541 89/// 90300=
07481,1998-06-27 06:00:00,17,1015.4,0,100,17,300,14.816,,,150,15.5,19.9,,,,,7,,,45,wg-a,,,,AAXX 27064 07481 02/03 91508 10170 20170 39874 40154 50000 60006 74541 89/// 90600 333 10199 20155 60074=
07481,1998-06-27 09:00:00,22,1014.9,0,83,19,6000,3.704,,,350,,,,,,,,,,1,wg-a,,,,AAXX 27094 07481 12456 43502 10220 20190 39874 40149 50000 60006 70141 83180 90900=
07481,1998-06-27 12:00:00,26,1013.5,-1.1,54,16,20000,7.408,,,190,,,,,,,,,,1,wg-a,,,,AAXX 27124 07481 12670 31904 10260 20160 39863 40135 58011 60006 70141 81281 91200=
07481,1998-06-27 15:00:00,26,1012.3,-1.1,54,16,18000,7.408,,,190,,,,,,,,,,80,wg-a,,,,AAXX 27154 07481 02668 71904 10260 20160 39852 40123 55011 61000 78098 8698/ 91500 333 ////=
07481,1998-06-27 18:00:00,24,1012.7,0.2,74,19,20000,7.408,,,250,16.6,28,,0,,,,,,17,wg-a,,,,AAXX 27184 07481 02670 /2504 10240 20190 39854 40127 53002 60006 71798 84980 91800 333 10280 20166 60007=
07481,1998-06-27 21:00:00,19,1015.5,2.3,94,18,25000,3.704,,,260,,,,8,,,,,,29,wg-a,,,,AAXX 27214 07481 12575 /2602 10190 20180 39877 40155 51023 60087 72998 84980 92100=
07481,1998-06-28 03:00:00,18,1018,0.7,94,17,10000,3.704,,,320,,,,,,,,,,,wg-a,,,,AAXX 28034 07481 12660 73202 10180 20170 39900 40180 52007 60006 875// 90300=
07481,1998-06-28 06:00:00,19,1019,1.1,78,15,25000,3.704,,,20,17.6,23.5,,,,,8,,,,wg-a,,,,AAXX 28064 07481 02675 20202 10190 20150 39911 40190 51011 60006 81530 90600 333 10235 20176 60084=
07481,1998-06-28 09:00:00,22,1019.5,0.7,57,13,25000,7.408,,,30,,,,,,,,,,,wg-a,,,,AAXX 28094 07481 12675 50304 10220 20130 39918 40195 51007 60006 84830 90900=
07481,1998-06-28 12:00:00,23,1019.1,-0.3,57,14,25000,11.112,,,30,,,,,,,,,,,wg-a,,,,AAXX 28124 07481 12675 50306 10230 20140 39915 40191 58003 60006 85200 91200=
07481,1998-06-28 18:00:00,23,1019,-0,57,14,25000,14.816,,,20,19.1,24,,,,,,,,,wg-a,,,,AAXX 28184 07481 12675 /0208 10230 20140 39914 40190 55000 60006 81500 91800 333 10240 20191=
07481,1998-06-28 21:00:00,18,1020.8,1.3,77,14,25000,3.704,,,20,,,,,,,,,,,wg-a,,,,AAXX 28214 07481 12875 20202 10180 20140 39927 40208 51013 60006 82041 92100=
07481,1998-06-29 00:00:00,16,1021,0,77,12,25000,3.704,,,80,,,,,,,,,,,wg-a,,,,AAXX 29004 07481 12875 20802 10160 20120 39927 40210 50000 60006 82040 90000=
07481,1998-06-29 06:00:00,18,1021.2,0.3,68,12,40000,3.704,,,60,13.6,22.5,,,,,,,,,wg-a,,,,AAXX 29064 07481 02/82 30602 10180 20120 39930 40212 53003 60006 83030 90600 333 10225 20136 60004=
07481,1998-06-29 09:00:00,21,1020.5,-0.3,49,10,45000,11.112,,,360,,,,,,,,,,,wg-a,,,,AAXX 29094 07481 12583 13606 10210 20100 39927 40205 58003 60006 81100 90900=
07481,1998-06-29 12:00:00,24,1019.1,-1.2,41,10,50000,11.112,,,340,,,,,,,,,,,wg-a,,,,AAXX 29124 07481 12684 /3406 10240 20100 39915 40191 58012 60006 81101 91200=
07481,1998-06-29 15:00:00,26,1017.6,-1.3,34,9,60000,3.704,,,340,,,,,,,,,,,wg-a,,,,AAXX 29154 07481 12786 23402 10260 20090 39902 40176 58013 60006 81101 91500=
07481,1998-06-29 18:00:00,25,1017,-0.6,39,10,50000,7.408,,,30,17.2,25.7,,,,,,,,,wg-a,,,,AAXX 29184 07481 12/84 10304 10250 20100 39896 40170 56006 60006 80001 91800 333 10257 20172=
07481,1998-06-29 21:00:00,20,1017.6,0.2,64,13,40000,3.704,,,50,,,,,,,,,,,wg-a,,,,AAXX 29214 07481 12/82 10502 10200 20130 39898 40176 53002 60006 80001 92100=
07481,1998-06-30 00:00:00,18,1017.5,-0.4,68,12,500,0,,,0,,,,,,,,,,,wg-a,,,,AAXX 30004 07481 12/00 00000 10180 20120 39894 40175 55004 60006 80000 90000=
07481,1998-06-30 03:00:00,17,1017.4,-0.1,77,13,12000,3.704,,,190,,,,,,,,,,,wg-a,,,,AAXX 30034 07481 12/62 71902 10170 20130 39893 40174 55001 60006 8705/ 90300=
07481,1998-06-30 06:00:00,16,1015.7,-1.7,88,14,25000,3.704,,,280,15.9,24.7,,,,,,,,,wg-a,,,,AAXX 30064 07481 02775 72802 10160 20140 39876 40157 56017 60006 81281 90600 333 10247 20159 60004=
07481,1998-06-30 09:00:00,22,1015.1,0,60,14,20000,3.704,,,80,,,,,,,,,,,wg-a,,,,AAXX 30094 07481 12/70 70802 10220 20140 39876 40151 50000 60006 85082 90900=
07481,1998-06-30 12:00:00,26,1014.7,-0.2,42,12,20000,7.408,,,320,,,,,,,,,,,wg-a,,,,AAXX 30124 07481 12670 53204 10260 20120 39874 40147 57002 60006 81281 91200=
07481,1998-06-30 15:00:00,27,1013.7,-0.8,42,13,20000,14.816,,,30,,,,,,,,,,,wg-a,,,,AAXX 30154 07481 12770 20308 10270 20130 39866 40137 57008 60006 82201 91500=
07481,1998-06-30 18:00:00,23,1013.8,-0.3,61,15,25000,18.52,,,10,16.3,27.2,,,,,,,,,wg-a,,,,AAXX 30184 07481 12875 30110 10230 20150 39863 40138 56003 60006 82081 91800 333 10272 20163=
07481,1998-06-30 21:00:00,19,1014.1,-0,78,15,25000,3.704,,,340,,,,,,,,,,,wg-a,,,,AAXX 30214 07481 12875 53402 10190 20150 39863 40141 55000 60006 82082 92100=
07481,1998-07-01 00:00:00,17,1013.8,-0.5,82,14,25000,7.408,,,300,,,,,,,,,,,wg-a,,,,AAXX 01004 07481 12/75 13004 10170 20140 39858 40138 58005 60006 80001 90000=
07481,1998-07-01 03:00:00,17,1013.9,0.1,82,14,25000,3.704,,,320,,,,,,,,,,,wg-a,,,,AAXX 01034 07481 12875 33202 10170 20140 39859 40139 50001 60006 82031 90300=
07481,1998-07-01 06:00:00,17,1012.6,-1.3,94,16,25000,3.704,,,310,16,22.7,,,,,,,,25,wg-a,,,,AAXX 01064 07481 02675 73102 10170 20160 39846 40126 58013 61000 72586 81982 90600 333 10227 20160 6100=
07481,1998-07-01 09:00:00,22,1009.7,-2.4,65,15,500,11.112,,,360,,,,,,,,,,,wg-a,,,,AAXX 01094 07481 12/00 43606 10220 20150 39822 40097 57024 60006 82082 90900=
07481,1998-07-01 12:00:00,25,1007.4,-1.9,50,14,500,14.816,,,20,,,,,,,,,,,wg-a,,,,AAXX 01124 07481 12/00 10208 10250 20140 39803 40074 58019 60006 81082 91200=
07481,1998-07-01 15:00:00,27,1004.7,-2.4,48,15,40000,18.52,,,350,,,,,,,,,,,wg-a,,,,AAXX 01154 07481 12782 53510 10270 20150 39779 40047 56024 60006 82282 91500=
07481,1998-07-01 18:00:00,24,1004,-1,57,15,500,14.816,,,350,16.9,27.1,,,,,,,,,wg-a,,,,AAXX 01184 07481 12700 83508 10240 20150 39769 40040 56010 60006 8157/ 91800 333 10271 20169=
07481,1998-07-01 21:00:00,19,1007.3,2.7,88,17,25000,29.632,,,340,,,,0,,,,,,80,wg-a,,,,AAXX 01214 07481 12575 83416 10190 20170 39796 40073 53027 60007 78096 879// 92100=
07481,1998-07-02 00:00:00,17,1007.9,0.5,100,17,20000,11.112,,,270,,,,5,,,,,,29,wg-a,,,,AAXX 02004 07481 02370 82706 10170 20170 39801 40079 50005 60056 72996 8198/ 90000 333 60057=
07481,1998-07-02 03:00:00,17,1008.7,0.8,100,17,12000,3.704,,,260,,,,1,,,,,,21,wg-a,,,,AAXX 02034 07481 12462 72602 10170 20170 39809 40087 53008 60017 72162 878// 90300=
07481,1998-07-02 06:00:00,18,1010.2,1.5,94,17,8000,7.408,,,80,16.9,24,,,,,6,,,1,wg-a,,,,AAXX 02064 07481 02358 70804 10180 20170 39824 40102 51015 60006 70162 875// 90600 333 10240 20169 60064=
07481,1998-07-02 09:00:00,21,1010.9,0.9,83,18,18000,3.704,,,10,,,,,,,,,,,wg-a,,,,AAXX 02094 07481 12468 70102 10210 20180 39833 40109 50009 60006 878// 90900=
07481,1998-07-02 12:00:00,25,1010.3,-0.2,61,17,500,7.408,,,10,,,,,,,,,,,wg-a,,,,AAXX 02124 07481 12600 60104 10250 20170 39831 40103 58002 60006 84201 91200=
07481,1998-07-02 18:00:00,19,1010.1,0.4,78,15,500,18.52,,,30,17.5,27,,,,,,,,3,wg-a,,,,AAXX 02184 07481 12500 80310 10190 20150 39824 40101 53004 60006 70392 8598/ 91800 333 10270 20175=
07481,1998-07-03 00:00:00,17,1013.4,-0.4,100,17,20000,7.408,,,190,,,,4,,,,,,61,wg-a,,,,AAXX 03004 07481 02370 81904 10170 20170 39854 40134 55004 60096 76198 888// 90000 333 60047=
07481,1998-07-03 03:00:00,17,1013,-0.4,100,17,8000,11.112,,,120,,,,0,,,,,,1,wg-a,,,,AAXX 03034 07481 12758 71206 10170 20170 39850 40130 56004 60007 70162 8257/ 90300=
07481,1998-07-03 09:00:00,20,1014.3,1.3,83,17,12000,11.112,,,310,,,,,,,,,,,wg-a,,,,AAXX 03094 07481 12462 73106 10200 20170 39866 40143 52013 60006 8527/ 90900=
07481,1998-07-03 12:00:00,23,1015,0.9,61,15,20000,14.816,,,310,,,,,,,,,,,wg-a,,,,AAXX 03124 07481 12670 63108 10230 20150 39875 40150 51009 60006 84272 91200=
07481,1998-07-03 15:00:00,22,1016.6,1.4,57,13,12000,14.816,,,290,,,,3,,,,,,17,wg-a,,,,AAXX 03154 07481 12562 72908 10220 20130 39889 40166 53014 60037 71798 83973 91500=
07481,1998-07-03 18:00:00,20,1018.7,2,68,14,25000,3.704,,,320,17.8,23.6,,,,,,,,3,wg-a,,,,AAXX 03184 07481 12575 73202 10200 20140 39909 40187 51020 60006 70398 82832 91800 333 10236 20178=
07481,1998-07-04 00:00:00,15,1021.5,0.6,100,15,25000,0,,,0,,,,,,,,,,,wg-a,,,,AAXX 04004 07481 12/75 10000 10150 20150 39931 40215 51006 60006 81030 90000=
07481,1998-07-04 03:00:00,15,1022,0.5,94,14,20000,7.408,,,320,,,,0,,,,,,,wg-a,,,,AAXX 04034 07481 12870 53204 10150 20140 39936 40220 51005 60007 82031 90300=
07481,1998-07-04 06:00:00,15,1023.3,1.2,94,14,4000,11.112,,,320,14.2,20.2,,,,,4,,,10,wg-a,,,,AAXX 04064 07481 02240 83206 10150 20140 39948 40233 53012 60006 71011 886// 90600 333 10202 20142 60044=
07481,1998-07-04 09:00:00,17,1024.1,1,82,14,8000,14.816,,,360,,,,,,,,,,,wg-a,,,,AAXX 04094 07481 12358 /3608 10170 20140 39958 40241 51010 60006 85200 90900=
07481,1998-07-04 12:00:00,22,1023,-0.6,57,13,25000,18.52,,,360,,,,,,,,,,,wg-a,,,,AAXX 04124 07481 12675 33610 10220 20130 39952 40230 58006 60006 83200 91200=
07481,1998-07-04 15:00:00,23,1022.3,-0.7,47,11,25000,18.52,,,350,,,,,,,,,,,wg-a,,,,AAXX 04154 07481 12675 /3510 10230 20110 39945 40223 58007 60006 81100 91500=
07481,1998-07-04 18:00:00,21,1021.6,-0.7,53,11,25000,14.816,,,20,14.5,22.6,,,,,,,,,wg-a,,,,AAXX 04184 07481 12/75 /0208 10210 20110 39938 40216 56007 60006 80002 91800 333 10226 20145=
07481,1998-07-04 21:00:00,17,1022.7,0.6,77,13,25000,3.704,,,320,,,,,,,,,,,wg-a,,,,AAXX 04214 07481 12/75 23202 10170 20130 39944 40227 53006 60006 80001 92100=
07481,1998-07-05 00:00:00,15,1022.2,-0.7,88,13,20000,0,,,0,,,,,,,,,,,wg-a,,,,AAXX 05004 07481 12/70 10000 10150 20130 39937 40222 58007 60006 80001 90000=
07481,1998-07-05 03:00:00,14,1021.6,-0.7,88,12,15000,3.704,,,350,,,,,,,,,,,wg-a,,,,AAXX 05034 07481 12/65 13502 10140 20120 39930 40216 56007 60006 80001 90300=
07481,1998-07-05 06:00:00,16,1021.6,0.3,88,14,25000,3.704,,,340,13.2,21.4,,,,,,,,,wg-a,,,,AAXX 05064 07481 02/75 03402 10160 20140 39933 40216 53003 60006 80000 90600 333 10214 20132 60004=
07481,1998-07-05 09:00:00,21,1021,-0.1,56,12,25000,11.112,,,360,,,,,,,,,,,wg-a,,,,AAXX 05094 07481 12575 /3606 10210 20120 39932 40210 58001 60006 81100 90900=
07481,1998-07-05 12:00:00,24,1020,-0.8,50,13,500,14.816,,,10,,,,,,,,,,,wg-a,,,,AAXX 05124 07481 12600 /0108 10240 20130 39924 40200 56008 60006 81100 91200=
07481,1998-07-05 15:00:00,25,1018.7,-1.1,44,12,500,14.816,,,340,,,,,,,,,,,wg-a,,,,AAXX 05154 07481 12600 /3408 10250 20120 39913 40187 56011 60006 81100 91500=
07481,1998-07-05 18:00:00,24,1017.9,-0.9,47,12,500,14.816,,,360,16.2,25.3,,,,,,,,,wg-a,,,,AAXX 05184 07481 12/00 /3608 10240 20120 39904 40179 56009 60006 80000 91800 333 10253 20162=
07481,1998-07-05 21:00:00,20,1018.4,0.1,68,14,500,3.704,,,360,,,,,,,,,,,wg-a,,,,AAXX 05214 07481 12/00 03602 10200 20140 39905 40184 53001 60006 80000 92100=
07481,1998-07-06 00:00:00,17,1017.7,-0.9,77,13,500,3.704,,,60,,,,,,,,,,,wg-a,,,,AAXX 06004 07481 12/00 00602 10170 20130 39896 40177 58009 60006 80000 90000=
07481,1998-07-06 03:00:00,16,1016.4,-1.4,82,13,15000,0,,,0,,,,,,,,,,,wg-a,,,,AAXX 06034 07481 12/65 00000 10160 20130 39882 40164 57014 60006 80000 90300=
07481,1998-07-06 06:00:00,18,1016,-0.2,73,13,25000,3.704,,,20,14.3,24.2,,,,,,,,,wg-a,,,,AAXX 06064 07481 02/75 00202 10180 20130 39880 40160 57002 60006 80000 90600 333 10242 20143 60004=
07481,1998-07-06 12:00:00,25,1013.1,-1.6,44,12,40000,7.408,,,360,,,,,,,,,,,wg-a,,,,AAXX 06124 07481 12/82 03604 10250 20120 39858 40131 58016 60006 80000 91200=
07481,1998-07-06 15:00:00,27,1011,-1.8,39,12,40000,7.408,,,40,,,,,,,,,,,wg-a,,,,AAXX 06154 07481 12/82 00404 10270 20120 39840 40110 56018 60006 80000 91500=
07481,1998-07-06 18:00:00,27,1009.1,-1.9,39,12,40000,7.408,,,40,17.5,27.5,,,,,,,,,wg-a,,,,AAXX 06184 07481 12/82 00404 10270 20120 39821 40091 56019 60006 80000 91800 333 10275 20175=
07481,1998-07-06 21:00:00,22,1009.2,-0.3,57,13,40000,3.704,,,100,,,,,,,,,,,wg-a,,,,AAXX 06214 07481 12/82 01002 10220 20130 39818 40092 55003 60006 80000 92100=
07481,1998-07-07 00:00:00,19,1008.5,-1,78,15,500,0,,,0,,,,,,,,,,,wg-a,,,,AAXX 07004 07481 12800 30000 10190 20150 39808 40085 58010 60006 81081 90000=
07481,1998-07-07 03:00:00,19,1008.4,-0.1,78,15,25000,7.408,,,110,,,,,,,,,,,wg-a,,,,AAXX 07034 07481 12875 71104 10190 20150 39807 40084 58001 60006 86082 90300=
07481,1998-07-07 06:00:00,19,1007.4,-0.9,83,16,12000,14.816,,,180,17.6,26.7,,,,,,,,21,wg-a,,,,AAXX 07064 07481 02562 81808 10190 20160 39798 40074 58009 61000 72161 8287/ 90600 333 10267 20176 6100=
07481,1998-07-07 09:00:00,20,1008,0.6,78,16,9000,3.704,,,220,,,,,,,,,,,wg-a,,,,AAXX 07094 07481 12459 82202 10200 20160 39804 40080 51006 60006 8227/ 90900=
07481,1998-07-07 12:00:00,21,1008.2,0.3,78,17,10000,3.704,,,210,,,,,,,,,,3,wg-a,,,,AAXX 07124 07481 02460 82102 10210 20170 39807 40082 50003 61000 70386 8527/ 91200 333 6100=
07481,1998-07-07 15:00:00,21,1008.3,0.1,73,16,10000,3.704,,,40,,,,5,,,,,,17,wg-a,,,,AAXX 07154 07481 12460 70402 10210 20160 39808 40083 50001 60057 71798 86901 91500=
07481,1998-07-07 18:00:00,21,1009.6,1.3,53,11,500,25.928,,44.448,310,17.8,23.1,,,,,,,,1,wg-a,,,,AAXX 07184 07481 12600 23114 10210 20110 39821 40096 53013 60006 70198 81230 91800 333 10231 20178 91024=
07481,1998-07-07 21:00:00,18,1013.3,3.2,68,12,15000,25.928,,,350,,,,,,,,,,,wg-a,,,,AAXX 07214 07481 12665 73514 10180 20120 39853 40133 52032 60006 875// 92100=
07481,1998-07-08 00:00:00,14,1015.4,1.7,72,9,15000,18.52,,,340,,,,,,,,,,,wg-a,,,,AAXX 08004 07481 12/65 /3410 10140 20090 39870 40154 52017 60006 81030 90000=
07481,1998-07-08 03:00:00,14,1015.5,0.1,77,10,15000,7.408,,,40,,,,,,,,,,,wg-a,,,,AAXX 08034 07481 12665 60404 10140 20100 39871 40155 51001 60006 81531 90300=
07481,1998-07-08 06:00:00,14,1016.4,0.9,82,11,20000,7.408,,,20,13,21.2,,,,,5,,,,wg-a,,,,AAXX 08064 07481 02670 /0204 10140 20110 39880 40164 53009 60006 81130 90600 333 10212 20130 60054=
07481,1998-07-08 09:00:00,18,1016.3,0.2,52,8,20000,18.52,,,20,,,,,,,,,,,wg-a,,,,AAXX 08094 07481 12570 /0210 10180 20080 39882 40163 53002 60006 81101 90900=
07481,1998-07-08 12:00:00,20,1016.5,0.4,46,8,500,18.52,,,360,,,,,,,,,,,wg-a,,,,AAXX 08124 07481 12600 33610 10200 20080 39886 40165 51004 60006 83101 91200=
07481,1998-07-08 15:00:00,22,1015.8,-0.5,41,8,500,14.816,,,360,,,,,,,,,,,wg-a,,,,AAXX 08154 07481 12700 43608 10220 20080 39881 40158 57005 60006 84800 91500=
07481,1998-07-08 18:00:00,20,1015.8,-0.1,49,9,500,14.816,,,20,14.3,21.9,,,,,,,,,wg-a,,,,AAXX 08184 07481 12800 30208 10200 20090 39880 40158 56001 60006 83500 91800 333 10219 20143=
07481,1998-07-08 21:00:00,16,1017.4,1.2,72,11,500,3.704,,,20,,,,,,,,,,,wg-a,,,,AAXX 08214 07481 12800 10202 10160 20110 39892 40174 53012 60006 81501 92100=
07481,1998-07-09 00:00:00,14,1017.6,-0.1,82,11,10000,0,,,0,,,,,,,,,,,wg-a,,,,AAXX 09004 07481 12/60 /0000 10140 20110 39891 40176 58001 60006 90000=
07481,1998-07-09 03:00:00,13,1017.4,-0.2,82,10,20000,3.704,,,210,,,,,,,,,,,wg-a,,,,AAXX 09034 07481 12/70 02102 10130 20100 39889 40174 56002 60006 80000 90300=
07481,1998-07-09 06:00:00,14,1018.2,0.9,82,11,10000,3.704,,,210,12.6,20.3,,,,,,,,,wg-a,,,,AAXX 09064 07481 02860 52102 10140 20110 39898 40182 53009 60006 85500 90600 333 10203 20126 60004=
07481,1998-07-09 09:00:00,20,1017.8,0.1,60,12,18000,7.408,,,330,,,,,,,,,,,wg-a,,,,AAXX 09094 07481 12568 33304 10200 20120 39899 40178 50001 60006 81181 90900=
07481,1998-07-09 12:00:00,23,1017,-0.5,44,10,500,11.112,,,340,,,,,,,,,,,wg-a,,,,AAXX 09124 07481 12600 43406 10230 20100 39894 40170 58005 60006 82181 91200=
07481,1998-07-09 15:00:00,24,1015.9,-0.9,44,11,500,11.112,,,340,,,,,,,,,,,wg-a,,,,AAXX 09154 07481 12700 /3406 10240 20110 39885 40159 58009 60006 81101 91500=
07481,1998-07-09 18:00:00,24,1015.6,-0.4,47,12,500,11.112,,,30,14.5,24.6,,,,,,,,,wg-a,,,,AAXX 09184 07481 12700 /0306 10240 20120 39881 40156 55004 60006 81101 91800 333 10246 20145=
07481,1998-07-09 21:00:00,19,1017.5,1.5,73,14,500,11.112,,,20,,,,,,,,,,,wg-a,,,,AAXX 09214 07481 12/00 10206 10190 20140 39896 40175 53015 60006 81031 92100=
07481,1998-07-10 00:00:00,18,1018.2,0.5,77,14,25000,7.408,,,350,,,,,,,,,,,wg-a,,,,AAXX 10004 07481 12675 /3504 10180 20140 39901 40182 53005 60006 83530 90000=
07481,1998-07-10 03:00:00,16,1018.2,-0.1,82,13,20000,7.408,,,340,,,,,,,,,,,wg-a,,,,AAXX 10034 07481 12670 73404 10160 20130 39900 40182 56001 60006 875// 90300=
07481,1998-07-10 06:00:00,17,1018.2,0.1,72,12,500,11.112,,,350,16.3,23.6,,,,,,,,,wg-a,,,,AAXX 10064 07481 02600 73506 10170 20120 39901 40182 50001 60006 875// 90600 333 10236 20163 60004=
07481,1998-07-10 09:00:00,20,1018,0,56,11,500,7.408,,,330,,,,,,,,,,,wg-a,,,,AAXX 10094 07481 12500 33304 10200 20110 39901 40180 50000 60006 81842 90900=
07481,1998-07-10 12:00:00,23,1016.9,-0.8,50,12,500,14.816,,,340,,,,,,,,,,,wg-a,,,,AAXX 10124 07481 12500 /3408 10230 20120 39893 40169 58008 60006 81240 91200=
07481,1998-07-10 15:00:00,24,1016.4,-0.4,50,13,500,14.816,,,350,,,,,,,,,,,wg-a,,,,AAXX 10154 07481 12600 53508 10240 20130 39889 40164 56004 60006 84840 91500=
07481,1998-07-10 18:00:00,23,1015.8,-0.6,57,14,500,18.52,,,20,17.1,24.6,,,,,,,,,wg-a,,,,AAXX 10184 07481 12600 /0210 10230 20140 39883 40158 56006 60006 81240 91800 333 10246 20171=
07481,1998-07-10 21:00:00,19,1017.3,1.1,73,14,40000,3.704,,,30,,,,,,,,,,,wg-a,,,,AAXX 10214 07481 12682 /0302 10190 20140 39894 40173 53011 60006 81800 92100=
07481,1998-07-11 00:00:00,18,1017.6,0.2,83,15,500,0,,,0,,,,,,,,,,,wg-a,,,,AAXX 11004 07481 12600 70000 10180 20150 39896 40176 50002 60006 875// 90000=
07481,1998-07-11 03:00:00,18,1017.8,0.2,83,15,20000,3.704,,,360,,,,,,,,,,,wg-a,,,,AAXX 11034 07481 12670 73602 10180 20150 39898 40178 52002 60006 875// 90300=
07481,1998-07-11 06:00:00,18,1018.6,0.8,83,15,35000,7.408,,,50,17.6,22.8,,,,,,,,,wg-a,,,,AAXX 11064 07481 02681 70504 10180 20150 39906 40186 53008 60006 875// 90600 333 10228 20176 60004=
07481,1998-07-11 09:00:00,21,1018.6,0.2,64,14,35000,11.112,,,330,,,,,,,,,,,wg-a,,,,AAXX 11094 07481 12581 73306 10210 20140 39908 40186 50002 60006 878// 90900=
07481,1998-07-11 12:00:00,23,1018,-0.4,57,14,35000,7.408,,,20,,,,,,,,,,,wg-a,,,,AAXX 11124 07481 12681 50204 10230 20140 39904 40180 58004 60006 84802 91200=
07481,1998-07-11 15:00:00,25,1016.5,-1.2,44,12,60000,7.408,,,340,,,,,,,,,,,wg-a,,,,AAXX 11154 07481 12686 23404 10250 20120 39892 40165 58012 60006 81202 91500=
07481,1998-07-11 18:00:00,24,1016.1,-0.5,50,13,75000,11.112,,,20,18,25.9,,,,,,,,,wg-a,,,,AAXX 11184 07481 12689 30206 10240 20130 39887 40161 56005 60006 81201 91800 333 10259 20180=
07481,1998-07-11 21:00:00,20,1017.7,1.2,73,15,40000,7.408,,,10,,,,,,,,,,,wg-a,,,,AAXX 11214 07481 12882 20104 10200 20150 39899 40177 53012 60006 81041 92100=
07481,1998-07-12 00:00:00,17,1018.1,0.1,77,13,40000,3.704,,,340,,,,,,,,,,,wg-a,,,,AAXX 12004 07481 12882 33402 10170 20130 39900 40181 53001 60006 81041 90000=
07481,1998-07-12 03:00:00,17,1017.5,-0.6,82,14,500,0,,,0,,,,,,,,,,,wg-a,,,,AAXX 12034 07481 12/00 20000 10170 20140 39894 40175 58006 60006 82030 90300=
07481,1998-07-12 06:00:00,18,1017.6,0.2,77,14,40000,7.408,,,180,14.9,24.4,,,,,,,,,wg-a,,,,AAXX 12064 07481 02/82 11804 10180 20140 39896 40176 50002 60006 81041 90600 333 10244 20149 60004=
07481,1998-07-12 09:00:00,24,1016.7,-0.4,41,10,50000,7.408,,,280,,,,,,,,,,,wg-a,,,,AAXX 12094 07481 12/84 12804 10240 20100 39892 40167 58004 60006 80002 90900=
07481,1998-07-12 12:00:00,27,1015.2,-1.2,37,11,60000,7.408,,,50,,,,,,,,,,,wg-a,,,,AAXX 12124 07481 12/86 10504 10270 20110 39880 40152 58012 60006 81081 91200=
07481,1998-07-12 15:00:00,30,1013.5,-1.4,31,11,75000,3.704,,,310,,,,,,,,,,,wg-a,,,,AAXX 12154 07481 12789 13102 10300 20110 39866 40135 57014 60006 81101 91500=
07481,1998-07-12 18:00:00,29,1012,-1.5,33,11,60000,7.408,,,100,18,29.9,,,,,,,,,wg-a,,,,AAXX 12184 07481 12786 11004 10290 20110 39851 40120 56015 60006 81101 91800 333 10299 20180=
07481,1998-07-12 21:00:00,24,1012.7,0.3,50,13,40000,7.408,,,160,,,,,,,,,,,wg-a,,,,AAXX 12214 07481 12/82 11604 10240 20130 39854 40127 53003 60006 80001 92100=
07481,1998-07-13 00:00:00,21,1013.1,0,64,14,500,7.408,,,150,,,,,,,,,,,wg-a,,,,AAXX 13004 07481 12/00 01504 10210 20140 39854 40131 50000 60006 80000 90000=
07481,1998-07-13 06:00:00,19,1011.5,-0.3,73,14,500,7.408,,,180,16.5,28.8,,,,,,,,,wg-a,,,,AAXX 13064 07481 02/00 31804 10190 20140 39838 40115 58003 60006 80002 90600 333 10288 20165 60004=
07481,1998-07-13 09:00:00,26,1010.7,-0.2,51,15,40000,3.704,,,240,,,,,,,,,,,wg-a,,,,AAXX 13094 07481 12/82 42402 10260 20150 39836 40107 58002 60006 81082 90900=
07481,1998-07-13 12:00:00,28,1009.2,-1.3,48,16,45000,7.408,,,290,,,,,,,,,,,wg-a,,,,AAXX 13124 07481 12683 72904 10280 20160 39823 40092 56013 60006 81182 91200=
07481,1998-07-13 15:00:00,25,1010.8,1.4,57,16,500,11.112,,,360,,,,,,,,,,29,wg-a,,,,AAXX 13154 07481 12600 73606 10250 20160 39837 40108 53014 60006 72992 8198/ 91500=
07481,1998-07-13 18:00:00,19,1011.9,0.5,73,14,25000,14.816,,,210,19.3,28.6,,,,,,,,21,wg-a,,,,AAXX 13184 07481 02575 72108 10190 20140 39842 40119 50005 61000 72198 8297/ 91800 333 10286 20193 6001=
07481,1998-07-13 21:00:00,18,1014.7,2.6,88,16,25000,3.704,,,330,,,,,,,,,,,wg-a,,,,AAXX 13214 07481 12575 73302 10180 20160 39868 40147 51026 60006 8287/ 92100=
07481,1998-07-14 00:00:00,15,1015.8,0.8,100,15,20000,3.704,,,360,,,,3,,,,,,1,wg-a,,,,AAXX 14004 07481 02470 83602 10150 20150 39876 40158 51008 60036 70162 8387/ 90000 333 60037=
07481,1998-07-14 03:00:00,13,1015.4,-0.6,100,13,10000,11.112,,,340,,,,,,,,,,,wg-a,,,,AAXX 14034 07481 12/60 /3406 10130 20130 39870 40154 56006 60006 90300=
07481,1998-07-14 06:00:00,15,1016.3,1,88,13,25000,7.408,,,340,12.6,19.7,,,,,3,,,,wg-a,,,,AAXX 14064 07481 02275 /3404 10150 20130 39880 40163 53010 60006 81140 90600 333 10197 20126 60034=
07481,1998-07-14 09:00:00,19,1016.3,0.3,56,10,500,18.52,,,340,,,,,,,,,,,wg-a,,,,AAXX 14094 07481 12500 33410 10190 20100 39883 40163 50003 60006 83100 90900=
07481,1998-07-14 12:00:00,21,1015.9,-0.2,38,6,500,18.52,,,350,,,,,,,,,,,wg-a,,,,AAXX 14124 07481 12600 23510 10210 20060 39881 40159 58002 60006 82100 91200=
07481,1998-07-14 15:00:00,21,1015.2,-0.6,38,6,500,22.224,,,350,,,,,,,,,,,wg-a,,,,AAXX 14154 07481 12700 23512 10210 20060 39875 40152 58006 60006 82400 91500=
07481,1998-07-14 18:00:00,21,1015.2,-0.1,35,5,500,18.52,,,340,14.5,22.1,,,,,,,,,wg-a,,,,AAXX 14184 07481 12700 23410 10210 20050 39874 40152 55001 60006 82400 91800 333 10221 20145=
07481,1998-07-14 21:00:00,15,1017,1.2,63,8,500,11.112,,,340,,,,,,,,,,,wg-a,,,,AAXX 14214 07481 12700 13406 10150 20080 39886 40170 52012 60006 81500 92100=
07481,1998-07-15 00:00:00,13,1017.7,0.5,72,8,500,3.704,,,340,,,,,,,,,,,wg-a,,,,AAXX 15004 07481 12700 13402 10130 20080 39891 40177 53005 60006 81530 90000=
07481,1998-07-15 03:00:00,11,1017.5,-0.3,82,8,25000,3.704,,,340,,,,,,,,,,,wg-a,,,,AAXX 15034 07481 12775 13402 10110 20080 39888 40175 58003 60006 81530 90300=
07481,1998-07-15 06:00:00,14,1018.2,0.9,72,9,40000,3.704,,,330,10.7,20.7,,,,,,,,,wg-a,,,,AAXX 15064 07481 02/82 13302 10140 20090 39897 40182 51009 60006 81030 90600 333 10207 20107 60004=
07481,1998-07-15 09:00:00,20,1018.5,0.8,49,9,40000,18.52,,,350,,,,,,,,,,,wg-a,,,,AAXX 15094 07481 12682 53510 10200 20090 39905 40185 51008 60006 82104 90900=
07481,1998-07-15 12:00:00,21,1018,-0.3,40,7,50000,14.816,,,360,,,,,,,,,,,wg-a,,,,AAXX 15124 07481 12684 43608 10210 20070 39902 40180 58003 60006 83101 91200=
07481,1998-07-15 15:00:00,22,1017.5,-0.4,38,7,40000,11.112,,,360,,,,,,,,,,,wg-a,,,,AAXX 15154 07481 12782 73606 10220 20070 39898 40175 57004 60006 82104 91500=
07481,1998-07-15 18:00:00,21,1017.4,-0.1,43,8,35000,11.112,,,20,14.1,22.8,,,,,,,,,wg-a,,,,AAXX 15184 07481 12681 /0206 10210 20080 39897 40174 58001 60006 81131 91800 333 10228 20141=
07481,1998-07-15 21:00:00,18,1018.4,0.6,59,10,35000,7.408,,,30,,,,,,,,,,,wg-a,,,,AAXX 15214 07481 12/81 60304 10180 20100 39903 40184 53006 60006 86080 92100=
07481,1998-07-16 00:00:00,14,1018.4,-0.3,82,11,25000,7.408,,,250,,,,,,,,,,,wg-a,,,,AAXX 16004 07481 12/75 22504 10140 20110 39900 40184 56003 60006 80001 90000=
07481,1998-07-16 03:00:00,14,1017.4,-1.1,72,9,25000,7.408,,,180,,,,,,,,,,,wg-a,,,,AAXX 16034 07481 12/75 21804 10140 20090 39889 40174 57011 60006 82030 90300=
07481,1998-07-16 06:00:00,15,1017.5,0.2,72,10,20000,11.112,,,160,13,21.4,,,,,,,,,wg-a,,,,AAXX 16064 07481 02770 71606 10150 20100 39891 40175 52002 60006 8157/ 90600 333 10214 20130 60004=
07481,1998-07-16 09:00:00,19,1016.8,-0.2,60,11,25000,11.112,,,140,,,,,,,,,,,wg-a,,,,AAXX 16094 07481 12775 71406 10190 20110 39889 40168 58002 60006 8157/ 90900=
07481,1998-07-16 12:00:00,26,1015.6,-0.6,32,8,25000,11.112,,,210,,,,,,,,,,,wg-a,,,,AAXX 16124 07481 12/75 42106 10260 20080 39883 40156 58006 60006 84030 91200=
07481,1998-07-16 15:00:00,27,1014.5,-0.9,32,9,25000,11.112,,,170,,,,,,,,,,,wg-a,,,,AAXX 16154 07481 12775 51706 10270 20090 39874 40145 56009 60006 84532 91500=
07481,1998-07-16 21:00:00,21,1017,1.8,60,13,500,11.112,,,20,,,,,,,,,,,wg-a,,,,AAXX 16214 07481 12800 /0206 10210 20130 39892 40170 53018 60006 86500 92100=
07481,1998-07-17 00:00:00,18,1017.5,0.2,77,14,500,0,,,0,,,,,,,,,,,wg-a,,,,AAXX 17004 07481 12800 30000 10180 20140 39894 40175 53002 60006 83500 90000=
07481,1998-07-17 03:00:00,16,1017.3,-0.3,82,13,500,3.704,,,140,,,,,,,,,,,wg-a,,,,AAXX 17034 07481 12/00 11402 10160 20130 39891 40173 58003 60006 81040 90300=
07481,1998-07-17 06:00:00,18,1017.8,0.7,77,14,40000,3.704,,,310,15.3,25.6,,,,,,,,,wg-a,,,,AAXX 17064 07481 02682 /3102 10180 20140 39898 40178 53007 60006 86500 90600 333 10256 20153 60004=
07481,1998-07-17 09:00:00,22,1018.2,0.7,60,14,45000,11.112,,,40,,,,,,,,,,,wg-a,,,,AAXX 17094 07481 12683 60406 10220 20140 39905 40182 51007 60006 86100 90900=
07481,1998-07-17 12:00:00,26,1017.1,-0.7,48,14,50000,3.704,,,340,,,,,,,,,,,wg-a,,,,AAXX 17124 07481 12684 33402 10260 20140 39898 40171 58007 60006 83100 91200=
07481,1998-07-17 15:00:00,27,1016,-1,39,12,45000,7.408,,,110,,,,,,,,,,,wg-a,,,,AAXX 17154 07481 12683 21104 10270 20120 39888 40160 57010 60006 82100 91500=
07481,1998-07-17 18:00:00,27,1015.3,-0.6,39,12,40000,7.408,,,60,17.9,28,,,,,,,,,wg-a,,,,AAXX 17184 07481 12682 /0604 10270 20120 39882 40153 56006 60006 81100 91800 333 10280 20179=
07481,1998-07-17 21:00:00,22,1017.4,1.6,65,15,40000,14.816,,,340,,,,,,,,,,,wg-a,,,,AAXX 17214 07481 12782 23408 10220 20150 39898 40174 53016 60006 82500 92100=
07481,1998-07-18 00:00:00,19,1018,0.3,78,15,500,3.704,,,330,,,,,,,,,,,wg-a,,,,AAXX 18004 07481 12600 /3302 10190 20150 39901 40180 50003 60006 81500 90000=
07481,1998-07-18 03:00:00,17,1017.6,-0.6,88,15,500,3.704,,,320,,,,,,,,,,,wg-a,,,,AAXX 18034 07481 12700 23202 10170 20150 39895 40176 57006 60006 81530 90300=
07481,1998-07-18 06:00:00,19,1017.6,0.2,78,15,500,3.704,,,220,16.6,27,,,,,,,,,wg-a,,,,AAXX 18064 07481 02700 12202 10190 20150 39897 40176 52002 60006 81541 90600 333 10270 20166 60004=
07481,1998-07-18 09:00:00,24,1016.8,-0.3,54,14,500,3.704,,,320,,,,,,,,,,,wg-a,,,,AAXX 18094 07481 12600 /3202 10240 20140 39894 40168 58003 60006 81101 90900=
07481,1998-07-18 12:00:00,28,1015.3,-1.1,40,13,500,3.704,,,130,,,,,,,,,,,wg-a,,,,AAXX 18124 07481 12600 /1302 10280 20130 39883 40153 57011 60006 81101 91200=
07481,1998-07-18 15:00:00,31,1013.3,-1.7,31,12,500,11.112,,,200,,,,,,,,,,,wg-a,,,,AAXX 18154 07481 12700 /2006 10310 20120 39866 40133 58017 60006 81101 91500=
07481,1998-07-18 18:00:00,31,1012.5,-0.8,31,12,500,7.408,,,140,19.3,31.6,,,,,,,,,wg-a,,,,AAXX 18184 07481 12700 /1404 10310 20120 39858 40125 56008 60006 81101 91800 333 10316 20193=
07481,1998-07-18 21:00:00,26,1013.5,0.5,48,14,500,7.408,,,140,,,,,,,,,,,wg-a,,,,AAXX 18214 07481 12700 31404 10260 20140 39863 40135 53005 60006 81131 92100=
07481,1998-07-19 00:00:00,22,1015.3,1.4,69,16,25000,3.704,,,360,,,,,,,,,,,wg-a,,,,AAXX 19004 07481 12775 23602 10220 20160 39877 40153 51014 60006 81530 90000=
07481,1998-07-19 03:00:00,19,1015.7,0.1,78,15,25000,3.704,,,260,,,,,,,,,,,wg-a,,,,AAXX 19034 07481 12/75 42602 10190 20150 39878 40157 53001 60006 84030 90300=
07481,1998-07-19 06:00:00,21,1016,0.5,69,15,50000,3.704,,,90,17.8,30.8,,,,,,,,,wg-a,,,,AAXX 19064 07481 02/84 10902 10210 20150 39883 40160 53005 60006 81081 90600 333 10308 20178 60004=
07481,1998-07-19 09:00:00,27,1015.1,-0.3,42,13,50000,14.816,,,170,,,,,,,,,,,wg-a,,,,AAXX 19094 07481 12/84 31708 10270 20130 39880 40151 58003 60006 80001 90900=
07481,1998-07-19 12:00:00,32,1013.4,-1.3,32,13,10000,22.224,,,200,,,,,,,,,,,wg-a,,,,AAXX 19124 07481 12/60 /2012 10320 20130 39867 40134 58013 60006 91200=
07481,1998-07-19 15:00:00,31,1012.6,-0.8,36,14,500,25.928,,42.596,190,,,,,,,,,,,wg-a,,,,AAXX 19154 07481 12600 61914 10310 20140 39859 40126 55008 60006 81983 91500 333 91023=
07481,1998-07-19 18:00:00,29,1013.4,0.6,40,14,25000,29.632,,,190,20.7,33.5,,,,,,,,29,wg-a,,,,AAXX 19184 07481 12575 71916 10290 20140 39865 40134 53006 60006 72991 82983 91800 333 10335 20207=
07481,1998-07-19 21:00:00,27,1015.3,1.6,39,12,25000,22.224,,,160,,,,,,,,,,13,wg-a,,,,AAXX 19214 07481 02675 71612 10270 20120 39881 40153 53016 61000 71398 82983 92100 333 ////=
07481,1998-07-20 00:00:00,25,1016,0.6,39,10,25000,22.224,,,160,,,,,,,,,,2,wg-a,,,,AAXX 20004 07481 02775 41612 10250 20100 39886 40160 50006 61000 70298 81280 90000 333 6100=
07481,1998-07-20 03:00:00,22,1015.1,-1.1,53,12,25000,18.52,,,150,,,,,,,,,,,wg-a,,,,AAXX 20034 07481 02/75 11510 10220 20120 39875 40151 56011 61000 81030 90300 333 ////=
07481,1998-07-20 06:00:00,25,1014.8,-0.1,41,11,35000,18.52,,,160,21.7,29.4,,,,,,,,,wg-a,,,,AAXX 20064 07481 02/81 51610 10250 20110 39874 40148 58001 60006 84081 90600 333 10294 20217 61000=
07481,1998-07-20 09:00:00,28,1014.7,0.3,32,10,35000,31.484,,,180,,,,,,,,,,,wg-a,,,,AAXX 20094 07481 02781 21817 10280 20100 39877 40147 53003 61000 81182 90900 333 ////=
07481,1998-07-20 12:00:00,32,1012.9,-1.5,24,9,35000,25.928,,38.892,200,,,,,,,,,,,wg-a,,,,AAXX 20124 07481 02/81 52014 10320 20090 39862 40129 58015 60006 81032 91200 333 61000 91021=
07481,1998-07-20 15:00:00,33,1010.3,-2.4,24,10,10000,31.484,,57.412,200,,,,,,,,,,,wg-a,,,,AAXX 20154 07481 02/60 /2017 10330 20100 39838 40103 58024 61000 91500 333 //// 91031=
07481,1998-07-20 18:00:00,32,1009,-1.4,28,11,35000,35.188,,,200,24.8,33.6,,,,,,,,,wg-a,,,,AAXX 20184 07481 02/81 12019 10320 20110 39824 40090 56014 60006 80001 91800 333 10336 20248 61000=
07481,1998-07-20 21:00:00,28,1009.7,0.4,30,9,500,38.892,,68.524,190,,,,,,,,,,,wg-a,,,,AAXX 20214 07481 12/00 21921 10280 20090 39828 40097 53004 60006 80001 92100 333 91037=
07481,1998-07-21 00:00:00,25,1010.6,0.6,44,12,500,25.928,,50.004,190,,,,,,,,,,,wg-a,,,,AAXX 21004 07481 12/00 21914 10250 20120 39834 40106 53006 60006 80001 90000 333 91027=
07481,1998-07-21 03:00:00,22,1012.6,1.7,60,14,20000,7.408,,,200,,,,,,,,,,,wg-a,,,,AAXX 21034 07481 12/70 12004 10220 20140 39851 40126 53017 60006 81081 90300=
07481,1998-07-21 06:00:00,23,1012.6,0.1,61,15,500,18.52,,,150,20,31.6,,,,,,,,,wg-a,,,,AAXX 21064 07481 02/00 31510 10230 20150 39852 40126 53001 60006 83080 90600 333 10316 20200 60004=
07481,1998-07-21 09:00:00,27,1012.5,0.2,39,12,10000,11.112,,,210,,,,,,,,,,,wg-a,,,,AAXX 21094 07481 12/60 /2106 10270 20120 39854 40125 51002 60006 90900=
07481,1998-07-21 12:00:00,29,1012.7,0.4,37,13,500,11.112,,,300,,,,,,,,,,,wg-a,,,,AAXX 21124 07481 12/00 63006 10290 20130 39858 40127 51004 60006 86080 91200=
07481,1998-07-21 15:00:00,28,1013.5,0.7,45,15,500,29.632,,,350,,,,,,,,,,,wg-a,,,,AAXX 21154 07481 12/00 53516 10280 20150 39865 40135 53007 60006 85080 91500=
07481,1998-07-21 18:00:00,25,1015.5,1.7,47,13,500,22.224,,,340,23.1,30.1,,,,,,,,,wg-a,,,,AAXX 21184 07481 12/00 53412 10250 20130 39882 40155 51017 60006 82082 91800 333 10301 20231=
07481,1998-07-21 21:00:00,21,1017.7,1.8,64,14,500,11.112,,,10,,,,,,,,,,,wg-a,,,,AAXX 21214 07481 12/00 40106 10210 20140 39900 40177 51018 60006 84082 92100=
07481,1998-07-22 00:00:00,19,1018.5,0.6,78,15,500,7.408,,,310,,,,,,,,,,,wg-a,,,,AAXX 22004 07481 12/00 63104 10190 20150 39906 40185 51006 60006 85032 90000=
07481,1998-07-22 03:00:00,19,1018.3,-0.3,78,15,25000,7.408,,,320,,,,,,,,,,,wg-a,,,,AAXX 22034 07481 12775 63204 10190 20150 39903 40183 57003 60006 8253/ 90300=
07481,1998-07-22 06:00:00,20,1018.2,0.1,73,15,25000,11.112,,,340,17.3,25.2,,,,,,,,,wg-a,,,,AAXX 22064 07481 02/75 33406 10200 20150 39904 40182 52001 60006 82082 90600 333 10252 20173 60004=
07481,1998-07-22 09:00:00,24,1017.9,0,57,15,35000,14.816,,,360,,,,,,,,,,,wg-a,,,,AAXX 22094 07481 12681 /3608 10240 20150 39904 40179 50000 60006 81102 90900=
07481,1998-07-22 12:00:00,27,1017,-0.6,42,13,35000,14.816,,,310,,,,,,,,,,,wg-a,,,,AAXX 22124 07481 12681 /3108 10270 20130 39898 40170 58006 60006 81100 91200=
07481,1998-07-22 15:00:00,29,1015.7,-1.1,37,13,35000,11.112,,,350,,,,,,,,,,,wg-a,,,,AAXX 22154 07481 12781 23506 10290 20130 39887 40157 58011 60006 81102 91500=
07481,1998-07-22 18:00:00,28,1015.7,-0.1,37,12,35000,7.408,,,30,19.9,29.5,,,,,,,,,wg-a,,,,AAXX 22184 07481 12781 60304 10280 20120 39886 40157 55001 60006 815/2 91800 333 10295 20199=
07481,1998-07-22 21:00:00,24,1016.5,0.5,50,13,500,3.704,,,70,,,,,,,,,,,wg-a,,,,AAXX 22214 07481 12/00 40702 10240 20130 39891 40165 52005 60006 81032 92100=
07481,1998-07-23 00:00:00,21,1016.9,0.1,64,14,500,3.704,,,150,,,,,,,,,,,wg-a,,,,AAXX 23004 07481 12/00 11502 10210 20140 39892 40169 50001 60006 81031 90000=
07481,1998-07-23 03:00:00,19,1016.8,-0.3,73,14,500,0,,,0,,,,,,,,,,,wg-a,,,,AAXX 23034 07481 12/00 30000 10190 20140 39889 40168 58003 60006 82031 90300=
07481,1998-07-23 06:00:00,20,1017.3,0.6,68,14,500,3.704,,,160,18.1,27.5,,,,,,,,,wg-a,,,,AAXX 23064 07481 02500 31602 10200 20140 39895 40173 52006 60006 81131 90600 333 10275 20181 60004=
07481,1998-07-23 09:00:00,28,1016.3,-0.3,42,14,500,3.704,,,190,,,,,,,,,,,wg-a,,,,AAXX 23094 07481 12/00 11902 10280 20140 39892 40163 58003 60006 80001 90900=
07481,1998-07-23 12:00:00,32,1014.9,-1,34,14,500,3.704,,,200,,,,,,,,,,,wg-a,,,,AAXX 23124 07481 12600 22002 10320 20140 39882 40149 58010 60006 81180 91200=
07481,1998-07-23 15:00:00,33,1014,-0.8,30,13,35000,14.816,,,20,,,,,,,,,,,wg-a,,,,AAXX 23154 07481 12781 30208 10330 20130 39874 40140 56008 60006 81280 91500=
07481,1998-07-23 18:00:00,29,1014.6,0.3,43,15,35000,18.52,,,340,19.9,34.1,,,,,,,,,wg-a,,,,AAXX 23184 07481 12781 23410 10290 20150 39877 40146 53003 60006 82800 91800 333 10341 20199=
07481,1998-07-23 21:00:00,25,1017.1,2.1,57,16,500,18.52,,,350,,,,,,,,,,,wg-a,,,,AAXX 23214 07481 12800 /3510 10250 20160 39898 40171 53021 60006 81500 92100=
07481,1998-07-24 00:00:00,22,1018.5,1,60,14,500,7.408,,,340,,,,,,,,,,,wg-a,,,,AAXX 24004 07481 12800 13404 10220 20140 39908 40185 51010 60006 81500 90000=
07481,1998-07-24 03:00:00,20,1018.4,-0.2,73,15,20000,7.408,,,310,,,,,,,,,,,wg-a,,,,AAXX 24034 07481 12/70 53104 10200 20150 39906 40184 56002 60006 83032 90300=
07481,1998-07-24 06:00:00,20,1018.9,0.5,68,14,25000,7.408,,,330,19.5,29.3,,,,,,,,,wg-a,,,,AAXX 24064 07481 02875 33304 10200 20140 39911 40189 52005 60006 82532 90600 333 10293 20195 60004=
07481,1998-07-24 09:00:00,25,1018.4,-0.1,54,15,10000,7.408,,,340,,,,,,,,,,,wg-a,,,,AAXX 24094 07481 12/60 /3404 10250 20150 39910 40184 58001 60006 90900=
07481,1998-07-24 12:00:00,29,1017,-1.1,37,13,500,14.816,,,310,,,,,,,,,,,wg-a,,,,AAXX 24124 07481 12600 23108 10290 20130 39899 40170 56011 60006 82102 91200=
07481,1998-07-24 15:00:00,29,1015.9,-1,35,12,500,14.816,,,10,,,,,,,,,,,wg-a,,,,AAXX 24154 07481 12700 50108 10290 20120 39889 40159 56010 60006 81180 91500=
07481,1998-07-24 18:00:00,28,1015.7,-0.2,40,13,500,14.816,,,20,20.5,30,,,,,,,,,wg-a,,,,AAXX 24184 07481 12800 10208 10280 20130 39887 40157 55002 60006 81100 91800 333 10300 20205=
07481,1998-07-24 21:00:00,23,1017,0.8,57,14,500,14.816,,,320,,,,,,,,,,,wg-a,,,,AAXX 24214 07481 12800 13208 10230 20140 39895 40170 51008 60006 81500 92100=
07481,1998-07-25 00:00:00,20,1018.1,0.8,73,15,10000,3.704,,,350,,,,,,,,,,,wg-a,,,,AAXX 25004 07481 12/60 /3502 10200 20150 39903 40181 53008 60006 90000=
07481,1998-07-25 03:00:00,19,1018.2,-0.1,78,15,10000,7.408,,,310,,,,,,,,,,,wg-a,,,,AAXX 25034 07481 12/60 /3104 10190 20150 39902 40182 57001 60006 90300=
07481,1998-07-25 06:00:00,19,1018.8,0.6,78,15,500,11.112,,,340,17.4,28.2,,,,,,,,,wg-a,,,,AAXX 25064 07481 02/00 53406 10190 20150 39908 40188 52006 60006 82031 90600 333 10282 20174 60004=
07481,1998-07-25 09:00:00,23,1018.4,0,65,16,500,18.52,,,350,,,,,,,,,,,wg-a,,,,AAXX 25094 07481 12/00 63510 10230 20160 39908 40184 50000 60006 81032 90900=
07481,1998-07-25 12:00:00,27,1017.1,-0.9,42,13,500,22.224,,,360,,,,,,,,,,,wg-a,,,,AAXX 25124 07481 12600 /3612 10270 20130 39899 40171 58009 60006 81132 91200=
07481,1998-07-25 15:00:00,29,1015.9,-1,35,12,500,22.224,,,340,,,,,,,,,,,wg-a,,,,AAXX 25154 07481 12600 /3412 10290 20120 39889 40159 57010 60006 81101 91500=
07481,1998-07-25 18:00:00,27,1015,-1,34,10,500,18.52,,,340,18.8,29,,,,,,,,,wg-a,,,,AAXX 25184 07481 12/00 13410 10270 20100 39879 40150 56010 60006 81081 91800 333 10290 20188=
07481,1998-07-25 21:00:00,22,1016.1,0.6,46,10,500,7.408,,,350,,,,,,,,,,,wg-a,,,,AAXX 25214 07481 12/00 23504 10220 20100 39885 40161 52006 60006 82080 92100=
07481,1998-07-26 00:00:00,19,1016.2,-0.2,60,11,500,3.704,,,260,,,,,,,,,,,wg-a,,,,AAXX 26004 07481 12/00 12602 10190 20110 39883 40162 55002 60006 81080 90000=
07481,1998-07-26 03:00:00,16,1016.6,0.1,72,11,25000,3.704,,,260,,,,,,,,,,,wg-a,,,,AAXX 26034 07481 12/75 02602 10160 20110 39884 40166 53001 60006 80000 90300=
07481,1998-07-26 06:00:00,18,1016.5,0.1,64,11,25000,3.704,,,340,15.6,27.2,,,,,,,,,wg-a,,,,AAXX 26064 07481 02/75 23402 10180 20110 39885 40165 52001 60006 81081 90600 333 10272 20156 60004=
07481,1998-07-26 09:00:00,24,1014.9,-1,47,12,500,3.704,,,30,,,,,,,,,,,wg-a,,,,AAXX 26094 07481 12/00 20302 10240 20120 39875 40149 58010 60006 80001 90900=
07481,1998-07-26 12:00:00,29,1012.6,-1.8,37,13,500,3.704,,,60,,,,,,,,,,,wg-a,,,,AAXX 26124 07481 12/00 30602 10290 20130 39857 40126 58018 60006 80002 91200=
07481,1998-07-26 15:00:00,34,1010,-2.1,28,13,500,3.704,,,80,,,,,,,,,,,wg-a,,,,AAXX 26154 07481 12800 40802 10340 20130 39836 40100 56021 60006 81162 91500=
07481,1998-07-26 18:00:00,31,1009.3,-0.9,33,13,27000,7.408,,,30,18.2,34.2,,,,,,,,,wg-a,,,,AAXX 26184 07481 12777 60304 10310 20130 39827 40093 55009 60006 82983 91800 333 10342 20182=
07481,1998-07-26 21:00:00,28,1010.3,0.7,48,16,25000,18.52,,,190,,,,,,,,,,,wg-a,,,,AAXX 26214 07481 12/75 51910 10280 20160 39834 40103 51007 60006 81083 92100=
07481,1998-07-27 00:00:00,24,1011.1,0.4,61,16,25000,14.816,,,250,,,,,,,,,,,wg-a,,,,AAXX 27004 07481 12/75 32508 10240 20160 39838 40111 51004 60006 81043 90000=
07481,1998-07-27 06:00:00,18,1013.8,2,83,15,20000,7.408,,,40,18.3,31,,,,,,,,25,wg-a,,,,AAXX 27064 07481 02570 70404 10180 20150 39859 40138 53020 61000 72586 83282 90600 333 10310 20183 6100=
07481,1998-07-27 09:00:00,20,1012.9,-0.7,94,19,8000,11.112,,,160,,,,3,,,,,,60,wg-a,,,,AAXX 27094 07481 12358 81606 10200 20190 39852 40129 56007 60037 76062 8357/ 90900=
07481,1998-07-27 12:00:00,20,1013.7,0.9,94,19,8000,11.112,,,210,,,,2,,,,,,60,wg-a,,,,AAXX 27124 07481 02358 82106 10200 20190 39861 40137 51009 60056 76062 8357/ 91200 333 60027=
07481,1998-07-27 15:00:00,20,1014.4,0.6,88,18,12000,18.52,,,200,,,,1,,,,,,25,wg-a,,,,AAXX 27154 07481 12462 82010 10200 20180 39867 40144 52006 60017 72586 872// 91500=
07481,1998-07-27 18:00:00,20,1014.6,0.2,88,18,20000,11.112,,,190,17.4,21.1,,,,,,,,80,wg-a,,,,AAXX 27184 07481 02470 71906 10200 20180 39869 40146 53002 61000 78086 85230 91800 333 10211 20174 6100=
07481,1998-07-27 21:00:00,18,1015.6,0.8,94,17,20000,7.408,,,140,,,,,,,,,,1,wg-a,,,,AAXX 27214 07481 32/70 /1404 10180 20170 39877 40156 51008 70186 80000 92100=
07481,1998-07-28 00:00:00,18,1016.2,0.5,94,17,15000,3.704,,,170,,,,,,,,,,3,wg-a,,,,AAXX 28004 07481 12465 /1702 10180 20170 39882 40162 50005 60006 70386 83530 90000=
07481,1998-07-28 03:00:00,18,1015.8,-0.4,94,17,12000,0,,,0,,,,,,,,,,,wg-a,,,,AAXX 28034 07481 12562 70000 10180 20170 39878 40158 58004 60006 875// 90300=
07481,1998-07-28 06:00:00,18,1016.1,0.3,88,16,35000,7.408,,,330,17.2,20.5,,,,,6,,,,wg-a,,,,AAXX 28064 07481 02581 73304 10180 20160 39881 40161 51003 60006 8653/ 90600 333 10205 20172 60064=
07481,1998-07-28 09:00:00,21,1015.9,0.1,64,14,500,14.816,,,340,,,,,,,,,,,wg-a,,,,AAXX 28094 07481 12500 53408 10210 20140 39882 40159 50001 60006 81131 90900=
07481,1998-07-28 12:00:00,22,1015.5,-0.3,53,12,35000,14.816,,,350,,,,,,,,,,,wg-a,,,,AAXX 28124 07481 12681 73508 10220 20120 39879 40155 58003 60006 82832 91200=
07481,1998-07-28 15:00:00,22,1014.9,-0.5,57,13,35000,11.112,,,350,,,,,,,,,,,wg-a,,,,AAXX 28154 07481 12681 73506 10220 20130 39874 40149 58005 60006 81832 91500=
07481,1998-07-28 18:00:00,22,1014.6,-0.4,53,12,35000,11.112,,,60,17.9,22.7,,,,,,,,,wg-a,,,,AAXX 28184 07481 12681 70606 10220 20120 39870 40146 56004 60006 81832 91800 333 10227 20179=
07481,1998-07-28 21:00:00,20,1015.5,0.7,64,13,500,3.704,,,90,,,,,,,,,,,wg-a,,,,AAXX 28214 07481 12700 70902 10200 20130 39877 40155 51007 60006 8257/ 92100=
07481,1998-07-29 00:00:00,19,1015.7,0.1,78,15,25000,3.704,,,330,,,,,,,,,,,wg-a,,,,AAXX 29004 07481 12675 83302 10190 20150 39878 40157 51001 60006 885// 90000=
07481,1998-07-29 03:00:00,18,1015,-0.8,83,15,500,0,,,0,,,,,,,,,,,wg-a,,,,AAXX 29034 07481 12500 60000 10180 20150 39870 40150 55008 60006 83841 90300=
07481,1998-07-29 06:00:00,18,1015.2,0.3,77,14,40000,7.408,,,140,17.6,21.5,,,,,,,,,wg-a,,,,AAXX 29064 07481 02582 /1404 10180 20140 39873 40152 53003 60006 82840 90600 333 10215 20176 60004=
07481,1998-07-29 09:00:00,21,1015.7,0.7,60,13,40000,3.704,,,330,,,,,,,,,,,wg-a,,,,AAXX 29094 07481 12582 43302 10210 20130 39880 40157 51007 60006 82840 90900=
07481,1998-07-29 12:00:00,24,1014.1,-1.3,44,11,40000,11.112,,,340,,,,,,,,,,,wg-a,,,,AAXX 29124 07481 12682 23406 10240 20110 39867 40141 58013 60006 82200 91200=
07481,1998-07-29 15:00:00,27,1012.7,-1.1,39,12,40000,11.112,,,60,,,,,,,,,,,wg-a,,,,AAXX 29154 07481 12782 10606 10270 20120 39856 40127 56011 60006 81100 91500=
07481,1998-07-29 18:00:00,26,1011.6,-1.1,45,13,40000,7.408,,,40,18.4,27.2,,,,,,,,,wg-a,,,,AAXX 29184 07481 12/82 10404 10260 20130 39845 40116 56011 60006 81040 91800 333 10272 20184=
07481,1998-07-29 21:00:00,22,1013.2,1.1,60,14,40000,3.704,,,90,,,,,,,,,,,wg-a,,,,AAXX 29214 07481 12/82 00902 10220 20140 39856 40132 53011 60006 80000 92100=
07481,1998-07-30 00:00:00,19,1013.9,0.5,73,14,500,7.408,,,70,,,,,,,,,,,wg-a,,,,AAXX 30004 07481 12/00 00704 10190 20140 39861 40139 50005 60006 80000 90000=
07481,1998-07-30 03:00:00,16,1013.9,-0.3,88,14,10000,3.704,,,320,,,,,,,,,,,wg-a,,,,AAXX 30034 07481 12/60 /3202 10160 20140 39858 40139 57003 60006 90300=
07481,1998-07-30 06:00:00,19,1013.9,0.2,73,14,500,0,,,0,15.5,26.2,,,,,,,,,wg-a,,,,AAXX 30064 07481 02/00 00000 10190 20140 39860 40139 51002 60006 80000 90600 333 10262 20155 60004=
07481,1998-07-30 09:00:00,23,1013.1,-0.3,57,14,500,7.408,,,330,,,,,,,,,,,wg-a,,,,AAXX 30094 07481 12/00 13304 10230 20140 39857 40131 58003 60006 80002 90900=
07481,1998-07-30 12:00:00,28,1011.4,-1.2,40,13,500,7.408,,,210,,,,,,,,,,,wg-a,,,,AAXX 30124 07481 12700 12104 10280 20130 39845 40114 56012 60006 81102 91200=
07481,1998-07-30 15:00:00,30,1010,-1.2,38,14,500,14.816,,,30,,,,,,,,,,,wg-a,,,,AAXX 30154 07481 12700 30308 10300 20140 39833 40100 56012 60006 82232 91500=
07481,1998-07-30 18:00:00,23,1011.6,1,65,16,500,25.928,,,360,18.7,30.7,,,,,,,,,wg-a,,,,AAXX 30184 07481 12700 33614 10230 20160 39843 40116 53010 60006 82202 91800 333 10307 20187=
07481,1998-07-30 21:00:00,20,1014.6,2.5,73,15,500,11.112,,,350,,,,,,,,,,,wg-a,,,,AAXX 30214 07481 12700 23506 10200 20150 39868 40146 51025 60006 81241 92100=
07481,1998-07-31 00:00:00,19,1015.9,1.2,83,16,500,11.112,,,20,,,,,,,,,,,wg-a,,,,AAXX 31004 07481 12400 /0206 10190 20160 39880 40159 51012 60006 85872 90000=
07481,1998-07-31 03:00:00,18,1015.9,-0,77,14,40000,11.112,,,10,,,,,,,,,,,wg-a,,,,AAXX 31034 07481 12682 80106 10180 20140 39880 40159 55000 60006 885// 90300=
07481,1998-07-31 06:00:00,18,1016.1,0.1,77,14,45000,11.112,,,360,17.8,23.3,,,,,,,,,wg-a,,,,AAXX 31064 07481 02683 73606 10180 20140 39881 40161 50001 60006 875// 90600 333 10233 20178 60004=
07481,1998-07-31 09:00:00,20,1016.2,0.3,64,13,40000,11.112,,,350,,,,,,,,,,,wg-a,,,,AAXX 31094 07481 12682 53506 10200 20130 39884 40162 50003 60006 81831 90900=
07481,1998-07-31 12:00:00,24,1015.4,-0.4,47,12,40000,11.112,,,340,,,,,,,,,,,wg-a,,,,AAXX 31124 07481 12682 63406 10240 20120 39880 40154 58004 60006 82131 91200=
07481,1998-07-31 15:00:00,25,1014.8,-0.5,39,10,40000,11.112,,,340,,,,,,,,,,,wg-a,,,,AAXX 31154 07481 12682 63406 10250 20100 39875 40148 58005 60006 81831 91500=
07481,1998-07-31 18:00:00,24,1014.9,-0.1,44,11,35000,14.816,,,20,18.1,25.1,,,,,,,,,wg-a,,,,AAXX 31184 07481 12681 70208 10240 20110 39874 40149 55001 60006 81882 91800 333 10251 20181=
07481,1998-07-31 21:00:00,19,1016.5,1.2,60,11,25000,7.408,,,340,,,,,,,,,,,wg-a,,,,AAXX 31214 07481 12775 73404 10190 20110 39886 40165 51012 60006 81532 92100=
07481,1998-08-01 00:00:00,18,1016.6,-0.1,64,11,25000,0,,,0,,,,,,,,,,60,wg-a,,,,AAXX 01004 07481 02575 70000 10180 20110 39885 40166 58001 61000 76062 82572 90000 333 6100=
07481,1998-08-01 03:00:00,16,1014.7,-2,82,13,15000,7.408,,,280,,,,,,,,,,2,wg-a,,,,AAXX 01034 07481 02865 32804 10160 20130 39865 40147 56020 61000 70261 81530 90300 333 ////=
07481,1998-08-01 06:00:00,16,1014.1,-0.6,82,13,25000,3.704,,,280,15.3,23.5,,,,,,,,17,wg-a,,,,AAXX 01064 07481 02675 72802 10160 20130 39859 40141 55006 60006 71796 8457/ 90600 333 10235 20153 60004=
07481,1998-08-01 09:00:00,15,1016,1.8,94,14,500,7.408,,,30,,,,11,,,,,,81,wg-a,,,,AAXX 01094 07481 12300 80304 10150 20140 39877 40160 50018 60117 78198 8597/ 90900=
07481,1998-08-01 12:00:00,15,1016.9,0.9,94,14,4000,7.408,,,300,,,,4,,,,,,81,wg-a,,,,AAXX 01124 07481 02340 83004 10150 20140 39886 40169 53009 60156 78198 8692/ 91200 333 60047=
07481,1998-08-01 15:00:00,16,1017,0.2,94,15,8000,3.704,,,340,,,,2,,,,,,21,wg-a,,,,AAXX 01154 07481 12358 83402 10160 20150 39888 40170 50002 60027 72196 877// 91500=
07481,1998-08-01 18:00:00,16,1016.5,-0.5,94,15,10000,11.112,,,340,14.5,16.6,,,,,,,,3,wg-a,,,,AAXX 01184 07481 12460 63406 10160 20150 39883 40165 55005 60006 70396 85880 91800 333 10166 20145=
07481,1998-08-01 21:00:00,15,1017.6,1,94,14,15000,3.704,,,330,,,,,,,,,,,wg-a,,,,AAXX 01214 07481 12465 /3302 10150 20140 39893 40176 52010 60006 8188/ 92100=
07481,1998-08-02 00:00:00,13,1017.8,0,100,13,15000,0,,,0,,,,,,,,,,,wg-a,,,,AAXX 02004 07481 12465 20000 10130 20130 39893 40178 50000 60006 81280 90000=
07481,1998-08-02 03:00:00,13,1017.7,-0.1,100,13,1200,3.704,,,10,,,,,,,,,,40,wg-a,,,,AAXX 02034 07481 12012 80102 10130 20130 39892 40177 55001 60006 74011 886// 90300=
07481,1998-08-02 06:00:00,14,1018.1,0.4,94,13,8000,11.112,,,20,12.9,16,,,,,17,,,,wg-a,,,,AAXX 02064 07481 02258 70206 10140 20130 39896 40181 53004 60006 876// 90600 333 10160 20129 60174=
07481,1998-08-02 09:00:00,14,1019.4,1.4,100,14,7000,7.408,,,310,,,,2,,,,,,21,wg-a,,,,AAXX 02094 07481 12257 73104 10140 20140 39910 40194 53014 60027 72162 878// 90900=
07481,1998-08-02 12:00:00,15,1020,0.6,94,14,8000,3.704,,,50,,,,3,,,,,,61,wg-a,,,,AAXX 02124 07481 02258 70502 10150 20140 39916 40200 51006 60056 76162 878// 91200 333 60037=
07481,1998-08-02 15:00:00,15,1020,0,100,15,12000,7.408,,,360,,,,3,,,,,,60,wg-a,,,,AAXX 02154 07481 12462 73604 10150 20150 39916 40200 50000 60037 76066 878// 91500=
07481,1998-08-02 18:00:00,15,1019.8,-0.1,100,15,15000,11.112,,,40,13.7,15.4,,,,,,,,1,wg-a,,,,AAXX 02184 07481 02365 70406 10150 20150 39915 40198 58001 60006 70162 878// 91800 333 10154 20137 61000=
07481,1998-08-02 21:00:00,15,1021.4,1.4,94,14,15000,3.704,,,10,,,,,,,,,,,wg-a,,,,AAXX 02214 07481 12365 70102 10150 20140 39929 40214 51014 60006 878// 92100=
07481,1998-08-03 00:00:00,13,1021.5,0,100,13,6000,7.408,,,300,,,,0,,,,,,10,wg-a,,,,AAXX 03004 07481 02756 /3004 10130 20130 39929 40215 50000 60006 71041 81500 90000 333 60007=
07481,1998-08-03 03:00:00,13,1022.8,1.2,100,13,1500,3.704,,,10,,,,,,,,,,28,wg-a,,,,AAXX 03034 07481 12115 80102 10130 20130 39941 40228 50012 60006 72841 886// 90300=
07481,1998-08-03 09:00:00,16,1023.4,0.2,88,14,15000,18.52,,,340,,,,0,,,,,,,wg-a,,,,AAXX 03094 07481 12365 73410 10160 20140 39950 40234 53002 60007 878// 90900=
07481,1998-08-03 12:00:00,20,1022.5,-0.5,68,14,500,22.224,,,10,,,,,,,,,,,wg-a,,,,AAXX 03124 07481 12500 50112 10200 20140 39945 40225 58005 60006 84842 91200=
07481,1998-08-03 15:00:00,22,1021.4,-0.8,57,13,40000,22.224,,,10,,,,,,,,,,,wg-a,,,,AAXX 03154 07481 12582 /0112 10220 20130 39937 40214 56008 60006 85832 91500=
07481,1998-08-03 18:00:00,21,1021.3,-0.2,60,13,500,14.816,,,10,13.3,22.8,,,,,,,,,wg-a,,,,AAXX 03184 07481 12500 70108 10210 20130 39935 40213 55002 60006 8583/ 91800 333 10228 20133=
07481,1998-08-03 21:00:00,19,1021.1,-0.4,73,14,25000,14.816,,,340,,,,,,,,,,,wg-a,,,,AAXX 03214 07481 12775 33408 10190 20140 39931 40211 58004 60006 81532 92100=
07481,1998-08-04 00:00:00,17,1023.4,2,82,14,10000,11.112,,,340,,,,,,,,,,,wg-a,,,,AAXX 04004 07481 12/60 /3406 10170 20140 39951 40234 51020 60006 90000=
07481,1998-08-04 03:00:00,16,1023.4,-0.1,82,13,25000,11.112,,,20,,,,,,,,,,,wg-a,,,,AAXX 04034 07481 12/75 20206 10160 20130 39950 40234 55001 60006 80002 90300=
07481,1998-08-04 09:00:00,21,1024.1,0.9,60,13,25000,22.224,,,350,,,,,,,,,,,wg-a,,,,AAXX 04094 07481 12/75 33512 10210 20130 39962 40241 51009 60006 81032 90900=
07481,1998-08-04 12:00:00,25,1023.6,-0.2,44,12,25000,22.224,,,20,,,,,,,,,,,wg-a,,,,AAXX 04124 07481 12775 /0212 10250 20120 39960 40236 56002 60006 81240 91200=
07481,1998-08-04 15:00:00,26,1022.3,-1.2,45,13,25000,22.224,,,340,,,,,,,,,,,wg-a,,,,AAXX 04154 07481 12775 33412 10260 20130 39948 40223 56012 60006 81240 91500=
07481,1998-08-04 18:00:00,25,1022.7,0.4,50,14,25000,18.52,,,350,15.9,26.2,,,,,,,,,wg-a,,,,AAXX 04184 07481 12775 53510 10250 20140 39952 40227 53004 60006 81140 91800 333 10262 20159=
07481,1998-08-05 00:00:00,20,1024.8,-0.7,78,16,25000,18.52,,,340,,,,,,,,,,,wg-a,,,,AAXX 05004 07481 12775 73410 10200 20160 39968 40248 56007 60006 81530 90000=
07481,1998-08-05 03:00:00,18,1024.6,-0.4,88,16,25000,25.928,,,350,,,,,,,,,,,wg-a,,,,AAXX 05034 07481 12775 53514 10180 20160 39964 40246 55004 60006 8153/ 90300=
07481,1998-08-05 06:00:00,17,1025.8,1.1,88,15,25000,22.224,,,350,16.8,24.8,,,,,,,,,wg-a,,,,AAXX 05064 07481 02475 /3512 10170 20150 39975 40258 53011 60006 81800 90600 333 10248 20168 60004=
07481,1998-08-05 09:00:00,21,1025.8,0.3,60,13,40000,31.484,,,360,,,,,,,,,,,wg-a,,,,AAXX 05094 07481 12582 /3617 10210 20130 39978 40258 53003 60006 81200 90900=
07481,1998-08-05 12:00:00,24,1025.1,-0.4,61,16,40000,31.484,,50.004,350,,,,,,,,,,,wg-a,,,,AAXX 05124 07481 12582 23517 10240 20160 39974 40251 58004 60006 82200 91200 333 91027=
07481,1998-08-05 15:00:00,25,1024.2,-0.8,50,14,40000,29.632,,,350,,,,,,,,,,,wg-a,,,,AAXX 05154 07481 12682 /3516 10250 20140 39966 40242 58008 60006 81500 91500=
07481,1998-08-05 18:00:00,24,1024.3,-0,47,12,40000,25.928,,,350,17.4,25.4,,,,,,,,,wg-a,,,,AAXX 05184 07481 12/82 03514 10240 20120 39966 40243 55000 60006 80000 91800 333 10254 20174=
07481,1998-08-05 21:00:00,20,1024.8,0.1,56,11,40000,11.112,,,340,,,,,,,,,,,wg-a,,,,AAXX 05214 07481 12/82 03406 10200 20110 39967 40248 52001 60006 80000 92100=
07481,1998-08-06 00:00:00,17,1024.8,-0.3,72,12,40000,3.704,,,300,,,,,,,,,,,wg-a,,,,AAXX 06004 07481 12/82 03002 10170 20120 39964 40248 56003 60006 80000 90000=
07481,1998-08-06 03:00:00,14,1024.9,-0.1,88,12,500,7.408,,,310,,,,,,,,,,,wg-a,,,,AAXX 06034 07481 12/00 03104 10140 20120 39963 40249 55001 60006 80000 90300=
07481,1998-08-06 06:00:00,15,1025.3,0.5,88,13,25000,7.408,,,340,13.1,23.6,,,,,,,,,wg-a,,,,AAXX 06064 07481 02/75 03404 10150 20130 39968 40253 52005 60006 80000 90600 333 10236 20131 60004=
07481,1998-08-06 09:00:00,19,1024.8,-0.1,68,13,10000,3.704,,,300,,,,,,,,,,,wg-a,,,,AAXX 06094 07481 12/60 /3002 10190 20130 39967 40248 58001 60006 90900=
07481,1998-08-06 12:00:00,24,1023.5,-0.8,54,14,10000,11.112,,,330,,,,,,,,,,,wg-a,,,,AAXX 06124 07481 12/60 /3306 10240 20140 39959 40235 56008 60006 91200=
07481,1998-08-06 15:00:00,27,1021.8,-1.4,42,13,25000,14.816,,,10,,,,,,,,,,,wg-a,,,,AAXX 06154 07481 12/75 00108 10270 20130 39945 40218 56014 60006 80000 91500=
07481,1998-08-06 18:00:00,27,1020.9,-0.9,39,12,25000,11.112,,,350,15.1,27.5,,,,,,,,,wg-a,,,,AAXX 06184 07481 12/75 03506 10270 20120 39936 40209 56009 60006 80000 91800 333 10275 20151=
07481,1998-08-06 21:00:00,20,1021.9,0.4,64,13,25000,7.408,,,330,,,,,,,,,,,wg-a,,,,AAXX 06214 07481 12/75 03304 10200 20130 39940 40219 52004 60006 80000 92100=
07481,1998-08-07 00:00:00,18,1021.4,-0.7,68,12,25000,3.704,,,340,,,,,,,,,,,wg-a,,,,AAXX 07004 07481 12/75 03402 10180 20120 39933 40214 58007 60006 80000 90000=
07481,1998-08-07 03:00:00,15,1021.4,-0.3,82,12,25000,3.704,,,300,,,,,,,,,,,wg-a,,,,AAXX 07034 07481 12/75 03002 10150 20120 39930 40214 55003 60006 80000 90300=
07481,1998-08-07 06:00:00,16,1022.1,0.8,82,13,25000,3.704,,,330,14.1,26.6,,,,,,,,,wg-a,,,,AAXX 07064 07481 02/75 03302 10160 20130 39938 40221 53008 60006 80000 90600 333 10266 20141 60004=
07481,1998-08-07 09:00:00,21,1021.4,-0.2,60,13,10000,3.704,,,10,,,,,,,,,,,wg-a,,,,AAXX 07094 07481 12/60 /0102 10210 20130 39936 40214 58002 60006 90900=
07481,1998-08-07 12:00:00,27,1020.2,-0.7,45,14,25000,3.704,,,320,,,,,,,,,,,wg-a,,,,AAXX 07124 07481 12/75 03202 10270 20140 39929 40202 58007 60006 80000 91200=
07481,1998-08-07 15:00:00,29,1018.9,-1.1,37,13,10000,7.408,,,20,,,,,,,,,,,wg-a,,,,AAXX 07154 07481 12/60 /0204 10290 20130 39918 40189 56011 60006 91500=
07481,1998-08-07 18:00:00,28,1018.4,-0.5,42,14,25000,7.408,,,360,16.1,29.4,,,,,,,,,wg-a,,,,AAXX 07184 07481 12/75 03604 10280 20140 39913 40184 56005 60006 80000 91800 333 10294 20161=
07481,1998-08-07 21:00:00,24,1019.3,0.5,57,15,25000,3.704,,,220,,,,,,,,,,,wg-a,,,,AAXX 07214 07481 12/75 02202 10240 20150 39918 40193 52005 60006 80000 92100=
07481,1998-08-08 00:00:00,21,1019.4,-0.2,69,15,25000,7.408,,,150,,,,,,,,,,,wg-a,,,,AAXX 08004 07481 12/75 01504 10210 20150 39916 40194 58002 60006 80000 90000=
07481,1998-08-08 03:00:00,19,1018.8,-0.8,83,16,20000,3.704,,,190,,,,,,,,,,,wg-a,,,,AAXX 08034 07481 12/70 01902 10190 20160 39908 40188 58008 60006 80000 90300=
07481,1998-08-08 09:00:00,26,1018.1,-0.3,48,14,25000,11.112,,,140,,,,,,,,,,,wg-a,,,,AAXX 08094 07481 12/75 01406 10260 20140 39908 40181 58003 60006 80000 90900=
07481,1998-08-08 18:00:00,33,1014.1,-0.6,28,12,35000,7.408,,,210,18.5,35,,,,,,,,,wg-a,,,,AAXX 08184 07481 12781 /2104 10330 20120 39875 40141 56006 60006 81102 91800 333 10350 20185=
07481,1998-08-08 21:00:00,29,1015.3,0.9,40,14,35000,14.816,,,170,,,,,,,,,,,wg-a,,,,AAXX 08214 07481 12/81 01708 10290 20140 39884 40153 52009 60006 80000 92100=
07481,1998-08-09 00:00:00,25,1016.1,0.3,50,14,25000,14.816,,,130,,,,,,,,,,,wg-a,,,,AAXX 09004 07481 12/75 01308 10250 20140 39887 40161 50003 60006 80000 90000=
07481,1998-08-09 03:00:00,24,1015.9,-0.3,47,12,25000,7.408,,,180,,,,,,,,,,,wg-a,,,,AAXX 09034 07481 12/75 01804 10240 20120 39884 40159 58003 60006 80000 90300=
07481,1998-08-09 06:00:00,22,1016.4,0.4,60,14,25000,7.408,,,160,20.9,33.2,,,,,,,,,wg-a,,,,AAXX 09064 07481 02/75 01604 10220 20140 39888 40164 53004 60006 80000 90600 333 10332 20209 60004=
07481,1998-08-09 09:00:00,29,1015.9,0.1,43,15,27000,11.112,,,150,,,,,,,,,,,wg-a,,,,AAXX 09094 07481 12/77 01506 10290 20150 39889 40159 50001 60006 80000 90900=
07481,1998-08-09 12:00:00,34,1014.6,-0.8,28,13,500,11.112,,,230,,,,,,,,,,,wg-a,,,,AAXX 09124 07481 12/00 02306 10340 20130 39881 40146 58008 60006 80000 91200=
07481,1998-08-09 15:00:00,36,1013.2,-1.3,19,9,500,7.408,,,230,,,,,,,,,,,wg-a,,,,AAXX 09154 07481 12700 12304 10360 20090 39868 40132 57013 60006 81201 91500=
07481,1998-08-09 18:00:00,34,1012.7,-0.6,19,7,500,7.408,,,210,22.5,36.5,,,,,,,,,wg-a,,,,AAXX 09184 07481 12/00 52104 10340 20070 39862 40127 55006 60006 80002 91800 333 10365 20225=
07481,1998-08-09 21:00:00,28,1014.2,1,42,14,500,11.112,,,150,,,,,,,,,,,wg-a,,,,AAXX 09214 07481 12/00 41506 10280 20140 39872 40142 53010 60006 80001 92100=
07481,1998-08-10 00:00:00,24,1015,0.4,54,14,500,3.704,,,140,,,,,,,,,,,wg-a,,,,AAXX 10004 07481 12/00 41402 10240 20140 39876 40150 50004 60006 80001 90000=
07481,1998-08-10 03:00:00,23,1015.5,0.4,69,17,25000,11.112,,,180,,,,,,,,,,,wg-a,,,,AAXX 10034 07481 12/75 21806 10230 20170 39880 40155 51004 60006 80001 90300=
07481,1998-08-10 06:00:00,22,1016.6,1,73,17,500,0,,,0,21.7,34.1,,,,,,,,,wg-a,,,,AAXX 10064 07481 02/00 20000 10220 20170 39890 40166 53010 60006 80001 90600 333 10341 20217 60004=
07481,1998-08-10 09:00:00,29,1016.7,0.7,48,17,500,3.704,,,300,,,,,,,,,,,wg-a,,,,AAXX 10094 07481 12/00 23002 10290 20170 39897 40167 52007 60006 80001 90900=
07481,1998-08-10 12:00:00,35,1015.7,-0.4,37,18,500,3.704,,,300,,,,,,,,,,,wg-a,,,,AAXX 10124 07481 12/00 43002 10350 20180 39893 40157 58004 60006 80001 91200=
07481,1998-08-10 15:00:00,35,1014.9,-0.8,20,9,25000,7.408,,,20,,,,,,,,,,,wg-a,,,,AAXX 10154 07481 12775 40204 10350 20090 39885 40149 56008 60006 81201 91500=
07481,1998-08-10 18:00:00,34,1015.1,-0,30,14,500,11.112,,,70,21.9,36.2,,,,,,,,,wg-a,,,,AAXX 10184 07481 12700 30706 10340 20140 39885 40151 55000 60006 81201 91800 333 10362 20219=
07481,1998-08-10 21:00:00,27,1016.9,1.2,54,17,500,0,,,0,,,,,,,,,,,wg-a,,,,AAXX 10214 07481 12/00 40000 10270 20170 39897 40169 51012 60006 80001 92100=
07481,1998-08-11 00:00:00,25,1017.6,0.6,50,14,25000,3.704,,,180,,,,,,,,,,,wg-a,,,,AAXX 11004 07481 12/75 31802 10250 20140 39903 40176 51006 60006 80001 90000=
07481,1998-08-11 03:00:00,22,1017.8,-0.2,65,15,18000,7.408,,,170,,,,,,,,,,,wg-a,,,,AAXX 11034 07481 12/68 01704 10220 20150 39901 40178 58002 60006 80000 90300=
07481,1998-08-11 09:00:00,30,1018.2,0.4,46,17,15000,3.704,,,180,,,,,,,,,,,wg-a,,,,AAXX 11094 07481 12/65 01802 10300 20170 39912 40182 51004 60006 80000 90900=
07481,1998-08-11 12:00:00,35,1016.8,-0.8,32,16,18000,3.704,,,200,,,,,,,,,,,wg-a,,,,AAXX 11124 07481 12/68 02002 10350 20160 39904 40168 58008 60006 80000 91200=
07481,1998-08-11 15:00:00,36,1015.5,-1.3,21,10,20000,7.408,,,30,,,,,,,,,,,wg-a,,,,AAXX 11154 07481 12/70 10304 10360 20100 39891 40155 57013 60006 80003 91500=
07481,1998-08-11 18:00:00,35,1015.4,-0.2,30,15,25000,7.408,,,50,21.6,37.1,,,,,,,,,wg-a,,,,AAXX 11184 07481 12/75 30504 10350 20150 39889 40154 56002 60006 81083 91800 333 10371 20216=
07481,1998-08-11 21:00:00,29,1016.3,0.4,45,16,500,3.704,,,150,,,,,,,,,,,wg-a,,,,AAXX 11214 07481 12/00 31502 10290 20160 39893 40163 51004 60006 80002 92100=
07481,1998-08-12 00:00:00,25,1016.6,0,57,16,500,7.408,,,140,,,,,,,,,,,wg-a,,,,AAXX 12004 07481 12/00 31404 10250 20160 39893 40166 50000 60006 80002 90000=
07481,1998-08-12 03:00:00,23,1016.6,-0.2,65,16,20000,7.408,,,150,,,,,,,,,,,wg-a,,,,AAXX 12034 07481 12/70 41504 10230 20160 39891 40166 58002 60006 80002 90300=
07481,1998-08-12 06:00:00,24,1016.1,-0.4,65,17,15000,11.112,,,180,22,34.6,,,,,,,,,wg-a,,,,AAXX 12064 07481 02/65 51806 10240 20170 39887 40161 56004 60006 80002 90600 333 10346 20220 60004=
07481,1998-08-12 09:00:00,30,1015.7,0.1,46,17,15000,7.408,,,230,,,,,,,,,,,wg-a,,,,AAXX 12094 07481 12/65 52304 10300 20170 39888 40157 50001 60006 80002 90900=
07481,1998-08-12 12:00:00,34,1014,-1.2,34,16,10000,3.704,,,290,,,,,,,,,,,wg-a,,,,AAXX 12124 07481 12/60 /2902 10340 20160 39876 40140 58012 60006 91200=
07481,1998-08-12 18:00:00,31,1012.8,0.6,49,19,15000,11.112,,,270,23.9,35.1,,,,,,,,,wg-a,,,,AAXX 12184 07481 12765 72706 10310 20190 39862 40128 53006 60006 81383 91800 333 10351 20239=
07481,1998-08-12 21:00:00,22,1018.8,5,78,18,12000,25.928,,50.004,110,,,,5,,,,,,80,wg-a,,,,AAXX 12214 07481 12762 81114 10220 20180 39912 40188 53050 60057 78098 8497/ 92100 333 91027=
07481,1998-08-13 00:00:00,20,1016.6,-2.4,83,17,20000,3.704,,,270,,,,0,,,,,,1,wg-a,,,,AAXX 13004 07481 02770 72702 10200 20170 39888 40166 56024 60056 70198 81531 90000 333 60007=
07481,1998-08-13 03:00:00,19,1015.7,-0.9,88,17,20000,3.704,,,130,,,,,,,,,,,wg-a,,,,AAXX 13034 07481 12/70 51302 10190 20170 39879 40157 56009 60006 83082 90300=
07481,1998-08-13 06:00:00,19,1016.2,0.4,94,18,25000,3.704,,,330,18.3,31.6,,,,,5,,,,wg-a,,,,AAXX 13064 07481 02/75 53302 10190 20180 39883 40162 53004 60006 83082 90600 333 10316 20183 60054=
07481,1998-08-13 09:00:00,23,1016.3,0.5,69,17,25000,11.112,,,360,,,,,,,,,,,wg-a,,,,AAXX 13094 07481 12/75 33606 10230 20170 39888 40163 51005 60006 81082 90900=
07481,1998-08-13 12:00:00,26,1015.7,-0.3,58,17,27000,14.816,,,350,,,,,,,,,,,wg-a,,,,AAXX 13124 07481 12677 43508 10260 20170 39885 40157 58003 60006 83181 91200=
07481,1998-08-13 15:00:00,26,1015,-0.7,58,17,27000,22.224,,,10,,,,,,,,,,,wg-a,,,,AAXX 13154 07481 12677 20112 10260 20170 39878 40150 57007 60006 81201 91500=
07481,1998-08-13 18:00:00,25,1014.3,-0.8,57,16,27000,11.112,,,20,18.6,26.6,,,,,,,,,wg-a,,,,AAXX 13184 07481 12/77 10206 10250 20160 39870 40143 56008 60006 80001 91800 333 10266 20186=
07481,1998-08-13 21:00:00,20,1015.9,1.2,78,16,25000,3.704,,,340,,,,,,,,,,,wg-a,,,,AAXX 13214 07481 12/75 13402 10200 20160 39882 40159 52012 60006 80001 92100=
07481,1998-08-14 00:00:00,18,1015.9,-0.3,68,12,25000,7.408,,,10,,,,,,,,,,,wg-a,,,,AAXX 14004 07481 12/75 00104 10180 20120 39879 40159 58003 60006 80000 90000=
07481,1998-08-14 03:00:00,15,1015.9,-0.3,77,11,25000,7.408,,,290,,,,,,,,,,,wg-a,,,,AAXX 14034 07481 12/75 02904 10150 20110 39876 40159 57003 60006 80000 90300=
07481,1998-08-14 06:00:00,15,1015.9,-0,77,11,25000,7.408,,,350,14.2,24.7,,,,,,,,,wg-a,,,,AAXX 14064 07481 02/75 23504 10150 20110 39876 40159 55000 60006 80001 90600 333 10247 20142 60004=
07481,1998-08-14 09:00:00,21,1014.9,-0.4,49,10,500,14.816,,,10,,,,,,,,,,,wg-a,,,,AAXX 14094 07481 12/00 20108 10210 20100 39872 40149 58004 60006 80002 90900=
07481,1998-08-14 12:00:00,25,1013.7,-0.8,39,10,35000,14.816,,,340,,,,,,,,,,,wg-a,,,,AAXX 14124 07481 12/81 23408 10250 20100 39864 40137 56008 60006 80002 91200=
07481,1998-08-14 15:00:00,26,1012.4,-1.2,34,9,10000,14.816,,,340,,,,,,,,,,,wg-a,,,,AAXX 14154 07481 12/60 /3408 10260 20090 39852 40124 57012 60006 91500=
07481,1998-08-15 03:00:00,15,1014.8,0.5,82,12,500,7.408,,,150,,,,,,,,,,,wg-a,,,,AAXX 15034 07481 12/00 11504 10150 20120 39866 40148 53005 60006 80002 90300=
07481,1998-08-15 06:00:00,16,1015.3,0.5,77,12,25000,0,,,0,14.3,24.6,,,,,,,,,wg-a,,,,AAXX 15064 07481 02/75 20000 10160 20120 39871 40153 53005 60006 80002 90600 333 10246 20143 60004=
07481,1998-08-15 09:00:00,24,1015.7,1.1,47,12,50000,7.408,,,190,,,,,,,,,,,wg-a,,,,AAXX 15094 07481 12/84 21904 10240 20120 39882 40157 51011 60006 80002 90900=
07481,1998-08-15 12:00:00,31,1014.3,-0.7,31,12,50000,3.704,,,270,,,,,,,,,,,wg-a,,,,AAXX 15124 07481 12/84 22702 10310 20120 39875 40143 56007 60006 80001 91200=
07481,1998-08-15 15:00:00,33,1013.4,-0.7,23,9,50000,3.704,,,300,,,,,,,,,,,wg-a,,,,AAXX 15154 07481 12784 33002 10330 20090 39868 40134 57007 60006 81201 91500=
07481,1998-08-15 18:00:00,30,1014,0.4,31,11,50000,7.408,,,50,15.9,33.2,,,,,,,,,wg-a,,,,AAXX 15184 07481 12784 60504 10300 20110 39872 40140 53004 60006 81202 91800 333 10332 20159=
07481,1998-08-16 15:00:00,31,1017.2,-1.6,36,14,25000,7.408,,,300,,,,,,,,,,,wg-a,,,,AAXX 16154 07481 12775 53004 10310 20140 39903 40172 58016 60006 81382 91500=
07481,1998-08-16 21:00:00,26,1018.4,1.3,54,16,25000,0,,,0,,,,,,,,,,,wg-a,,,,AAXX 16214 07481 12/75 60000 10260 20160 39911 40184 51013 60006 86080 92100=
07481,1998-08-17 00:00:00,24,1017.8,-0.7,61,16,25000,7.408,,,140,,,,,,,,,,13,wg-a,,,,AAXX 17004 07481 12675 11404 10240 20160 39904 40178 56007 60006 71311 81980 90000=
07481,1998-08-17 03:00:00,22,1017.5,-0.5,69,16,25000,7.408,,,180,,,,,,,,,,,wg-a,,,,AAXX 17034 07481 12/75 41804 10220 20160 39899 40175 56005 60006 84080 90300=
07481,1998-08-17 06:00:00,22,1018.2,0.6,73,17,500,0,,,0,21,29.7,,,,,,,,,wg-a,,,,AAXX 17064 07481 02700 60000 10220 20170 39905 40182 53006 60006 81280 90600 333 10297 20210 61000=
07481,1998-08-17 09:00:00,26,1018.1,0.3,54,16,20000,0,,,0,,,,,,,,,,,wg-a,,,,AAXX 17094 07481 12/70 40000 10260 20160 39908 40181 50003 60006 84080 90900=
07481,1998-08-17 12:00:00,30,1016.6,-1.1,38,14,25000,11.112,,,20,,,,,,,,,,,wg-a,,,,AAXX 17124 07481 12675 30206 10300 20140 39897 40166 58011 60006 81282 91200=
07481,1998-08-17 15:00:00,32,1014.3,-2.1,32,13,500,14.816,,,350,,,,,,,,,,,wg-a,,,,AAXX 17154 07481 12700 43508 10320 20130 39876 40143 56021 60006 81903 91500=
07481,1998-08-17 18:00:00,29,1014.3,-0.2,37,13,500,3.704,,,40,21.6,32.2,,,,,,,,,wg-a,,,,AAXX 17184 07481 12700 60402 10290 20130 39874 40143 55002 60006 81983 91800 333 10322 20216=
07481,1998-08-17 21:00:00,24,1016.4,1.6,57,15,25000,7.408,,,360,,,,,,,,,,,wg-a,,,,AAXX 17214 07481 12775 63604 10240 20150 39890 40164 53016 60006 81982 92100=
07481,1998-08-18 00:00:00,21,1016.4,-0.3,78,17,25000,3.704,,,330,,,,,,,,,,,wg-a,,,,AAXX 18004 07481 12/75 53302 10210 20170 39887 40164 57003 60006 83082 90000=
07481,1998-08-18 03:00:00,20,1016.5,-0,78,16,20000,3.704,,,290,,,,,,,,,,,wg-a,,,,AAXX 18034 07481 12770 22902 10200 20160 39887 40165 55000 60006 81532 90300=
07481,1998-08-18 06:00:00,19,1016.3,-0.2,88,17,25000,3.704,,,60,18.2,29.2,,,,,,,,,wg-a,,,,AAXX 18064 07481 02/75 20602 10190 20170 39885 40163 55002 60006 81082 90600 333 10292 20182 60004=
07481,1998-08-18 09:00:00,24,1016,0.1,65,17,500,11.112,,,40,,,,,,,,,,,wg-a,,,,AAXX 18094 07481 12/00 30406 10240 20170 39886 40160 50001 60006 81082 90900=
07481,1998-08-18 12:00:00,28,1014.8,-0.8,48,16,500,11.112,,,340,,,,,,,,,,,wg-a,,,,AAXX 18124 07481 12600 43406 10280 20160 39878 40148 58008 60006 81282 91200=
07481,1998-08-18 15:00:00,28,1013.6,-1.2,45,15,35000,18.52,,,360,,,,,,,,,,,wg-a,,,,AAXX 18154 07481 12681 23610 10280 20150 39866 40136 56012 60006 81203 91500=
07481,1998-08-18 18:00:00,26,1014.3,0.5,51,15,25000,14.816,,,350,19.4,28.8,,,,,,,,,wg-a,,,,AAXX 18184 07481 12675 43508 10260 20150 39871 40143 53005 60006 81203 91800 333 10288 20194=
07481,1998-08-18 21:00:00,22,1016.2,1.5,69,16,25000,11.112,,,340,,,,,,,,,,,wg-a,,,,AAXX 18214 07481 12/75 23406 10220 20160 39886 40162 52015 60006 80002 92100=
07481,1998-08-19 00:00:00,19,1016.9,0.4,83,16,25000,0,,,0,,,,,,,,,,,wg-a,,,,AAXX 19004 07481 12/75 20000 10190 20160 39890 40169 51004 60006 80002 90000=
07481,1998-08-19 03:00:00,17,1017.2,0.1,94,16,20000,7.408,,,330,,,,,,,,,,,wg-a,,,,AAXX 19034 07481 12/70 13304 10170 20160 39891 40172 50001 60006 80001 90300=
07481,1998-08-19 06:00:00,17,1018.2,1,94,16,10000,3.704,,,350,16.2,25.6,,,,,,,,,wg-a,,,,AAXX 19064 07481 02/60 33502 10170 20160 39901 40182 53010 60006 82081 90600 333 10256 20162 60004=
07481,1998-08-19 09:00:00,23,1018.1,0.4,65,16,12000,7.408,,,10,,,,,,,,,,,wg-a,,,,AAXX 19094 07481 12/62 /0104 10230 20160 39905 40181 50004 60006 81080 90900=
07481,1998-08-19 12:00:00,27,1016.9,-0.8,39,12,20000,25.928,,,10,,,,,,,,,,,wg-a,,,,AAXX 19124 07481 12770 /0114 10270 20120 39897 40169 58008 60006 81200 91200=
07481,1998-08-19 15:00:00,28,1015.8,-1,37,12,20000,22.224,,,360,,,,,,,,,,,wg-a,,,,AAXX 19154 07481 12770 13612 10280 20120 39887 40158 58010 60006 81200 91500=
07481,1998-08-19 18:00:00,26,1015.9,-0.1,39,11,20000,14.816,,,20,17.2,28.5,,,,,,,,,wg-a,,,,AAXX 19184 07481 12870 10208 10260 20110 39886 40159 55001 60006 81041 91800 333 10285 20172=
07481,1998-08-19 21:00:00,21,1017.3,1,64,14,20000,3.704,,,320,,,,,,,,,,,wg-a,,,,AAXX 19214 07481 12/70 13202 10210 20140 39896 40173 51010 60006 81030 92100=
07481,1998-08-20 00:00:00,19,1017.7,0.1,68,13,20000,0,,,0,,,,,,,,,,,wg-a,,,,AAXX 20004 07481 12/70 00000 10190 20130 39897 40177 51001 60006 80000 90000=
07481,1998-08-20 03:00:00,17,1017.4,-0.4,77,13,20000,0,,,0,,,,,,,,,,,wg-a,,,,AAXX 20034 07481 12/70 00000 10170 20130 39893 40174 56004 60006 80000 90300=
07481,1998-08-20 06:00:00,17,1018.2,0.8,77,13,20000,3.704,,,300,15.6,26,,,,,,,,,wg-a,,,,AAXX 20064 07481 02/70 13002 10170 20130 39901 40182 53008 60006 81081 90600 333 10260 20156 60004=
07481,1998-08-20 09:00:00,23,1018.5,0.8,57,14,25000,7.408,,,330,,,,,,,,,,,wg-a,,,,AAXX 20094 07481 12575 13304 10230 20140 39909 40185 51008 60006 81281 90900=
07481,1998-08-20 12:00:00,27,1017.1,-1,37,11,500,11.112,,,30,,,,,,,,,,,wg-a,,,,AAXX 20124 07481 12700 30306 10270 20110 39899 40171 58010 60006 83200 91200=
07481,1998-08-20 15:00:00,29,1016,-0.9,31,10,500,14.816,,,350,,,,,,,,,,,wg-a,,,,AAXX 20154 07481 12700 23508 10290 20100 39890 40160 57009 60006 82200 91500=
07481,1998-08-20 18:00:00,27,1015.3,-0.9,34,10,500,11.112,,,40,17,28.9,,,,,,,,,wg-a,,,,AAXX 20184 07481 12700 10406 10270 20100 39881 40153 56009 60006 81100 91800 333 10289 20170=
07481,1998-08-20 21:00:00,22,1016.9,1.1,57,13,500,7.408,,,20,,,,,,,,,,,wg-a,,,,AAXX 20214 07481 12800 10204 10220 20130 39892 40169 51011 60006 81040 92100=
07481,1998-08-21 00:00:00,20,1017.3,0.3,60,12,500,0,,,0,,,,,,,,,,,wg-a,,,,AAXX 21004 07481 12800 30000 10200 20120 39895 40173 51003 60006 83040 90000=
07481,1998-08-21 03:00:00,19,1016.5,-0.9,64,12,25000,3.704,,,250,,,,,,,,,,,wg-a,,,,AAXX 21034 07481 12/75 62502 10190 20120 39886 40165 56009 60006 83032 90300=
07481,1998-08-21 06:00:00,19,1016.9,0.4,68,13,25000,3.704,,,50,18,26.8,,,,,,,,,wg-a,,,,AAXX 21064 07481 02775 60502 10190 20130 39890 40169 53004 60006 81530 90600 333 10268 20180 60004=
07481,1998-08-21 09:00:00,21,1017.2,0.5,60,13,500,7.408,,,360,,,,,,,,,,,wg-a,,,,AAXX 21094 07481 12600 73604 10210 20130 39895 40172 51005 60006 8357/ 90900=
07481,1998-08-21 12:00:00,24,1016.1,-0.9,41,10,40000,7.408,,,200,,,,,,,,,,,wg-a,,,,AAXX 21124 07481 12682 72004 10240 20100 39886 40161 58009 60006 8287/ 91200=
07481,1998-08-21 15:00:00,27,1014.3,-1.4,32,9,40000,3.704,,,220,,,,,,,,,,,wg-a,,,,AAXX 21154 07481 12682 72202 10270 20090 39872 40143 56014 60006 81242 91500=
07481,1998-08-21 18:00:00,23,1014.9,0.2,53,13,40000,11.112,,,250,19,27.4,,,,,,,,,wg-a,,,,AAXX 21184 07481 12482 82506 10230 20130 39874 40149 53002 60006 8687/ 91800 333 10274 20190=
07481,1998-08-21 21:00:00,19,1016.7,1.4,88,17,500,7.408,,,330,,,,0,,,,,,1,wg-a,,,,AAXX 21214 07481 12400 83304 10190 20170 39888 40167 52014 60007 70162 8687/ 92100=
07481,1998-08-22 00:00:00,18,1016.9,0.2,94,17,25000,3.704,,,130,,,,0,,,,,,60,wg-a,,,,AAXX 22004 07481 02475 81302 10180 20170 39890 40169 53002 60016 76062 875// 90000 333 60007=
07481,1998-08-22 03:00:00,17,1016.4,-0.6,100,17,7000,11.112,,,160,,,,1,,,,,,20,wg-a,,,,AAXX 22034 07481 12357 81606 10170 20170 39884 40164 56006 60017 72065 878// 90300=
07481,1998-08-22 06:00:00,18,1016.6,0.2,94,17,20000,7.408,,,180,17.3,22.9,,,,,1,,,1,wg-a,,,,AAXX 22064 07481 02370 /1804 10180 20170 39886 40166 53002 60006 70165 85830 90600 333 10229 20173 60014=
07481,1998-08-22 09:00:00,19,1016.9,0.4,83,16,25000,7.408,,,20,,,,,,,,,,21,wg-a,,,,AAXX 22094 07481 02475 70204 10190 20160 39890 40169 51004 61000 72162 878// 90900 333 ////=
07481,1998-08-22 12:00:00,21,1016.1,-0.5,78,17,25000,3.704,,,80,,,,,,,,,,2,wg-a,,,,AAXX 22124 07481 02475 70802 10210 20170 39885 40161 58005 61000 70286 878// 91200 333 6100=
07481,1998-08-22 15:00:00,24,1013.9,-1.9,61,16,500,7.408,,,280,,,,,,,,,,,wg-a,,,,AAXX 22154 07481 12500 72804 10240 20160 39866 40139 56019 60006 878// 91500=
07481,1998-08-22 18:00:00,23,1014.6,0.5,73,18,500,11.112,,,330,17.9,25.3,,,,,,,,81,wg-a,,,,AAXX 22184 07481 02400 73306 10230 20180 39871 40146 53005 61000 78186 868// 91800 333 10253 20179 6000=
07481,1998-08-22 21:00:00,21,1015.4,0.7,88,19,15000,3.704,,,160,,,,1,,,,,,1,wg-a,,,,AAXX 22214 07481 12665 71602 10210 20190 39878 40154 51007 60017 70186 83570 92100=
07481,1998-08-23 00:00:00,20,1016,0.5,83,17,15000,11.112,,,310,,,,,,,,,,3,wg-a,,,,AAXX 23004 07481 12465 73106 10200 20170 39883 40160 51005 60016 70386 878// 90000=
07481,1998-08-23 03:00:00,17,1016.4,0.1,94,16,10000,18.52,,,20,,,,,,,,,,60,wg-a,,,,AAXX 23034 07481 02460 80210 10170 20160 39884 40164 53001 61000 76062 875// 90300 333 ////=
07481,1998-08-23 06:00:00,16,1017.8,1.2,94,15,15000,11.112,,,320,16,22.3,,,,,,,,80,wg-a,,,,AAXX 23064 07481 02265 73206 10160 20150 39896 40178 51012 61000 78086 878// 90600 333 10223 20160 6001=
07481,1998-08-23 09:00:00,18,1019.4,1.8,83,15,25000,11.112,,,10,,,,,,,,,,3,wg-a,,,,AAXX 23094 07481 02475 70106 10180 20150 39914 40194 53018 61000 70386 8683/ 90900 333 ////=
07481,1998-08-23 12:00:00,23,1018.6,-0.4,57,14,25000,11.112,,,350,,,,,,,,,,1,wg-a,,,,AAXX 23124 07481 02575 53506 10230 20140 39910 40186 58004 61000 70186 84830 91200 333 ////=
07481,1998-08-23 15:00:00,25,1017.1,-1.3,44,12,40000,11.112,,,310,,,,,,,,,,,wg-a,,,,AAXX 23154 07481 12682 23106 10250 20120 39897 40171 56013 60006 82500 91500=
07481,1998-08-23 18:00:00,23,1016.4,-0.8,50,12,50000,7.408,,,10,15.9,24.9,,,,,,,,,wg-a,,,,AAXX 23184 07481 12/84 10104 10230 20120 39889 40164 56008 60006 81031 91800 333 10249 20159=
07481,1998-08-23 21:00:00,19,1017.6,0.8,64,12,500,7.408,,,140,,,,,,,,,,,wg-a,,,,AAXX 23214 07481 12/00 01404 10190 20120 39897 40176 52008 60006 80000 92100=
07481,1998-08-24 00:00:00,17,1017.4,-0.4,72,12,25000,11.112,,,190,,,,,,,,,,,wg-a,,,,AAXX 24004 07481 12/75 01906 10170 20120 39893 40174 58004 60006 80000 90000=
07481,1998-08-24 03:00:00,15,1016.6,-1,82,12,25000,7.408,,,150,,,,,,,,,,,wg-a,,,,AAXX 24034 07481 12/75 21504 10150 20120 39883 40166 56010 60006 80002 90300=
07481,1998-08-24 06:00:00,15,1016.5,-0.1,82,12,40000,7.408,,,160,14.2,23.1,,,,,,,,,wg-a,,,,AAXX 24064 07481 02/82 61604 10150 20120 39882 40165 55001 60006 82042 90600 333 10231 20142 61000=
07481,1998-08-24 09:00:00,19,1016.8,0.7,68,13,500,11.112,,,180,,,,,,,,,,,wg-a,,,,AAXX 24094 07481 12700 71806 10190 20130 39889 40168 51007 60006 82542 90900=
07481,1998-08-24 12:00:00,23,1015.6,-0.8,53,13,500,14.816,,,240,,,,,,,,,,,wg-a,,,,AAXX 24124 07481 12600 72408 10230 20130 39881 40156 58008 60006 82542 91200=
07481,1998-08-24 15:00:00,16,1018.3,2,100,16,11000,14.816,,,20,,,,,,,,,,,wg-a,,,,AAXX 24154 07481 32/61 /0208 10160 20160 39901 40183 53020 91500=
07481,1998-08-24 18:00:00,17,1019.3,1,94,16,12000,3.704,,,90,15.3,23.4,,1,,,,,,3,wg-a,,,,AAXX 24184 07481 02362 60902 10170 20160 39911 40193 51010 60006 70362 86800 91800 333 10234 20153 60017=
07481,1998-08-24 21:00:00,14,1020.8,1.2,100,14,10000,3.704,,,290,,,,,,,,,,12,wg-a,,,,AAXX 24214 07481 12360 /2902 10140 20140 39923 40208 52012 60006 71211 81600 92100=
07481,1998-08-25 00:00:00,13,1020.7,-0.2,100,13,400,11.112,,,150,,,,0,,,,,,44,wg-a,,,,AAXX 25004 07481 02104 41506 10130 20130 39921 40207 55002 60006 74441 84600 90000 333 60007=
07481,1998-08-25 03:00:00,12,1020.7,-0.1,100,12,8000,3.704,,,30,,,,0,,,,,,1,wg-a,,,,AAXX 25034 07481 12758 10302 10120 20120 39920 40207 58001 60007 70141 81500 90300=
07481,1998-08-25 06:00:00,11,1021.2,0.4,100,11,200,0,,,0,10.5,16.5,,,,,1,,,41,wg-a,,,,AAXX 25064 07481 02102 /0000 10110 20110 39924 40212 53004 60006 74141 81500 90600 333 10165 20105 60014=
07481,1998-08-25 09:00:00,17,1021.1,0.5,88,15,500,11.112,,,10,,,,,,,,,,1,wg-a,,,,AAXX 25094 07481 12400 /0106 10170 20150 39929 40211 51005 60006 70141 84200 90900=
07481,1998-08-25 12:00:00,22,1019.9,-0.7,46,10,40000,14.816,,,10,,,,,,,,,,1,wg-a,,,,AAXX 25124 07481 12682 30108 10220 20100 39922 40199 58007 60006 70141 83200 91200=
07481,1998-08-25 15:00:00,23,1019,-0.8,41,9,50000,18.52,,35.188,320,,,,,,,,,,,wg-a,,,,AAXX 25154 07481 12784 /3210 10230 20090 39914 40190 56008 60006 81400 91500 333 91019=
07481,1998-08-25 18:00:00,21,1018.8,-0.4,49,10,50000,11.112,,,10,11.4,23.6,,,,,,,,,wg-a,,,,AAXX 25184 07481 12/84 00106 10210 20100 39910 40188 56004 60006 80000 91800 333 10236 20114=
07481,1998-08-25 21:00:00,16,1019.7,0.4,68,10,40000,7.408,,,40,,,,,,,,,,,wg-a,,,,AAXX 25214 07481 12/82 00404 10160 20100 39914 40197 50004 60006 80000 92100=
07481,1998-08-26 00:00:00,14,1020.1,0.1,82,11,40000,3.704,,,290,,,,,,,,,,,wg-a,,,,AAXX 26004 07481 12/82 02902 10140 20110 39915 40201 50001 60006 80000 90000=
07481,1998-08-26 03:00:00,13,1019.1,-1,82,10,20000,7.408,,,160,,,,,,,,,,,wg-a,,,,AAXX 26034 07481 12/70 01604 10130 20100 39905 40191 56010 60006 80000 90300=
07481,1998-08-26 06:00:00,13,1019.1,-0,82,10,12000,3.704,,,200,11.7,21,,,,,,,,,wg-a,,,,AAXX 26064 07481 02/62 02002 10130 20100 39905 40191 55000 60006 80000 90600 333 10210 20117 60004=
07481,1998-08-26 09:00:00,21,1018,-0.3,49,10,16000,3.704,,,200,,,,,,,,,,,wg-a,,,,AAXX 26094 07481 12/66 02002 10210 20100 39902 40180 58003 60006 80000 90900=
07481,1998-08-26 12:00:00,25,1016.4,-1.2,32,7,500,7.408,,,360,,,,,,,,,,,wg-a,,,,AAXX 26124 07481 12/00 03604 10250 20070 39890 40164 58012 60006 80000 91200=
07481,1998-08-26 15:00:00,26,1014.2,-2,34,9,500,7.408,,,30,,,,,,,,,,,wg-a,,,,AAXX 26154 07481 12/00 00304 10260 20090 39870 40142 57020 60006 80000 91500=
07481,1998-08-26 18:00:00,25,1013.5,-0.8,39,10,500,11.112,,,50,13.2,26.9,,,,,,,,,wg-a,,,,AAXX 26184 07481 12/00 10506 10250 20100 39862 40135 56008 60006 80001 91800 333 10269 20132=
07481,1998-08-26 21:00:00,18,1014.6,0.4,68,12,500,7.408,,,340,,,,,,,,,,,wg-a,,,,AAXX 26214 07481 12/00 03404 10180 20120 39866 40146 52004 60006 80000 92100=
07481,1998-08-27 00:00:00,17,1015,0.3,72,12,500,3.704,,,210,,,,,,,,,,,wg-a,,,,AAXX 27004 07481 12/00 02102 10170 20120 39869 40150 50003 60006 80000 90000=
07481,1998-08-27 03:00:00,15,1015.2,-0,77,11,500,3.704,,,270,,,,,,,,,,,wg-a,,,,AAXX 27034 07481 12/00 22702 10150 20110 39869 40152 54000 60006 82030 90300=
07481,1998-08-27 06:00:00,14,1015.8,0.5,88,12,25000,7.408,,,330,12.9,24.8,,,,,,,,,wg-a,,,,AAXX 27064 07481 02775 33304 10140 20120 39874 40158 53005 60006 83500 90600 333 10248 20129 60004=
07481,1998-08-27 09:00:00,18,1015.8,0.5,73,13,20000,18.52,,,10,,,,,,,,,,,wg-a,,,,AAXX 27094 07481 12570 30110 10180 20130 39879 40158 53005 60006 83800 90900=
07481,1998-08-27 12:00:00,20,1015.5,-0.2,64,13,20000,25.928,,,20,,,,,,,,,,,wg-a,,,,AAXX 27124 07481 12570 30214 10200 20130 39877 40155 56002 60006 83200 91200=
07481,1998-08-27 15:00:00,20,1015.5,-0,46,8,35000,31.484,,,10,,,,,,,,,,,wg-a,,,,AAXX 27154 07481 12681 20117 10200 20080 39877 40155 55000 60006 82100 91500=
07481,1998-08-27 18:00:00,17,1016.1,0.3,48,6,40000,25.928,,,10,13.9,21.2,,,,,,,,,wg-a,,,,AAXX 27184 07481 12682 /0114 10170 20060 39880 40161 53003 60006 81401 91800 333 10212 20139=
07481,1998-08-27 21:00:00,14,1017.7,1.2,58,6,25000,22.224,,,340,,,,,,,,,,,wg-a,,,,AAXX 27214 07481 12/75 13412 10140 20060 39892 40177 51012 60006 80001 92100=
07481,1998-08-28 00:00:00,12,1018,0.1,71,7,25000,22.224,,,350,,,,,,,,,,,wg-a,,,,AAXX 28004 07481 12/75 13512 10120 20070 39893 40180 50001 60006 80001 90000=
07481,1998-08-28 03:00:00,10,1017.7,-0.5,82,7,25000,22.224,,,350,,,,,,,,,,,wg-a,,,,AAXX 28034 07481 12775 23512 10100 20070 39888 40177 57005 60006 81501 90300=
07481,1998-08-28 06:00:00,9,1018.4,0.7,87,7,18000,25.928,,,350,9,17,,,,,,,,,wg-a,,,,AAXX 28064 07481 02368 23514 10090 20070 39895 40184 53007 60006 8210/ 90600 333 10170 20090 60004=
07481,1998-08-28 09:00:00,15,1017.9,-0,55,6,25000,31.484,,,10,,,,,,,,,,,wg-a,,,,AAXX 28094 07481 12475 /0117 10150 20060 39895 40179 55000 60006 81100 90900=
07481,1998-08-28 12:00:00,18,1017.4,-0.2,42,5,500,35.188,,,350,,,,,,,,,,,wg-a,,,,AAXX 28124 07481 12500 /3519 10180 20050 39893 40174 58002 60006 81100 91200=
07481,1998-08-28 15:00:00,20,1017.2,-0,35,4,500,35.188,,,350,,,,,,,,,,,wg-a,,,,AAXX 28154 07481 12500 /3519 10200 20040 39893 40172 54000 60006 81100 91500=
07481,1998-08-28 18:00:00,17,1018,0.5,45,5,500,25.928,,,10,9.4,19.7,,,,,,,,,wg-a,,,,AAXX 28184 07481 12700 /0114 10170 20050 39898 40180 53005 60006 81500 91800 333 10197 20094=
07481,1998-08-28 21:00:00,13,1019.5,1.1,62,6,500,11.112,,,340,,,,,,,,,,,wg-a,,,,AAXX 28214 07481 12/00 03406 10130 20060 39909 40195 51011 60006 80000 92100=
07481,1998-08-29 00:00:00,11,1019.6,-0.1,71,6,500,11.112,,,350,,,,,,,,,,,wg-a,,,,AAXX 29004 07481 12/00 03506 10110 20060 39908 40196 58001 60006 80000 90000=
07481,1998-08-29 03:00:00,9,1019.4,-0.4,81,6,500,7.408,,,340,,,,,,,,,,,wg-a,,,,AAXX 29034 07481 12/00 03404 10090 20060 39904 40194 56004 60006 80000 90300=
07481,1998-08-29 06:00:00,9,1020,0.5,81,6,500,7.408,,,10,7.8,17.2,,,,,,,,,wg-a,,,,AAXX 29064 07481 02/00 00104 10090 20060 39909 40200 53005 60006 80000 90600 333 10172 20078 60004=
07481,1998-08-29 09:00:00,14,1020,0.6,58,6,35000,18.52,,,20,,,,,,,,,,,wg-a,,,,AAXX 29094 07481 12681 10210 10140 20060 39915 40200 51006 60006 81100 90900=
07481,1998-08-29 12:00:00,18,1018.7,-0.9,39,4,40000,18.52,,,10,,,,,,,,,,,wg-a,,,,AAXX 29124 07481 12682 /0110 10180 20040 39906 40187 58009 60006 81100 91200=
07481,1998-08-29 15:00:00,20,1017.7,-0.8,37,5,40000,18.52,,,360,,,,,,,,,,,wg-a,,,,AAXX 29154 07481 12782 /3610 10200 20050 39898 40177 58008 60006 81101 91500=
07481,1998-08-29 18:00:00,18,1018.4,0.4,42,5,40000,14.816,,,340,8.7,20.1,,,,,,,,,wg-a,,,,AAXX 29184 07481 12/82 13408 10180 20050 39902 40184 53004 60006 80001 91800 333 10201 20087=
07481,1998-08-29 21:00:00,13,1019.6,0.7,62,6,25000,7.408,,,340,,,,,,,,,,,wg-a,,,,AAXX 29214 07481 12/75 13404 10130 20060 39909 40196 50007 60006 80001 92100=
07481,1998-08-30 00:00:00,10,1019.7,-0.1,76,6,25000,3.704,,,280,,,,,,,,,,,wg-a,,,,AAXX 30004 07481 12/75 02802 10100 20060 39908 40197 58001 60006 80000 90000=
07481,1998-08-30 03:00:00,9,1019.7,-0.2,81,6,18000,3.704,,,10,,,,,,,,,,,wg-a,,,,AAXX 30034 07481 12/68 00102 10090 20060 39906 40197 56002 60006 80000 90300=
07481,1998-08-30 06:00:00,9,1020.4,0.7,81,6,18000,3.704,,,360,7.1,17.5,,,,,,,,,wg-a,,,,AAXX 30064 07481 02/68 13602 10090 20060 39913 40204 51007 60006 80001 90600 333 10175 20071 60004=
07481,1998-08-30 09:00:00,14,1020.5,0.7,63,7,18000,7.408,,,360,,,,,,,,,,,wg-a,,,,AAXX 30094 07481 12/68 43604 10140 20070 39920 40205 53007 60006 80001 90900=
07481,1998-08-30 12:00:00,20,1018.8,-1.2,40,6,500,7.408,,,360,,,,,,,,,,,wg-a,,,,AAXX 30124 07481 12/00 43604 10200 20060 39908 40188 57012 60006 80002 91200=
07481,1998-08-30 15:00:00,23,1016.8,-1.6,29,4,500,3.704,,,180,,,,,,,,,,,wg-a,,,,AAXX 30154 07481 12/00 11802 10230 20040 39892 40168 56016 60006 80002 91500=
07481,1998-08-30 18:00:00,21,1016.4,-0.6,40,7,500,11.112,,,20,8.7,23.8,,,,,,,,,wg-a,,,,AAXX 30184 07481 12/00 00206 10210 20070 39886 40164 57006 60006 80000 91800 333 10238 20087=
07481,1998-08-30 21:00:00,16,1017.6,0.7,55,7,500,3.704,,,80,,,,,,,,,,,wg-a,,,,AAXX 30214 07481 12/00 00802 10160 20070 39893 40176 51007 60006 80000 92100=
07481,1998-08-31 00:00:00,13,1017.6,-0.2,72,8,500,3.704,,,230,,,,,,,,,,,wg-a,,,,AAXX 31004 07481 12/00 02302 10130 20080 39891 40176 58002 60006 80000 90000=
07481,1998-08-31 03:00:00,12,1017,-0.7,76,8,500,7.408,,,180,,,,,,,,,,,wg-a,,,,AAXX 31034 07481 12/00 01804 10120 20080 39884 40170 56007 60006 80000 90300=
07481,1998-08-31 06:00:00,10,1017,-0.2,87,8,500,0,,,0,9.8,20.7,,,,,,,,,wg-a,,,,AAXX 31064 07481 02/00 20000 10100 20080 39882 40170 55002 60006 80001 90600 333 10207 20098 60004=
07481,1998-08-31 09:00:00,20,1016,-0,49,9,15000,7.408,,,140,,,,,,,,,,,wg-a,,,,AAXX 31094 07481 12/65 11404 10200 20090 39882 40160 54000 60006 80001 90900=
07481,1998-08-31 12:00:00,26,1013.5,-1.9,37,10,35000,18.52,,,190,,,,,,,,,,,wg-a,,,,AAXX 31124 07481 12/81 21910 10260 20100 39863 40135 58019 60006 80001 91200=
07481,1998-08-31 15:00:00,28,1011.8,-1.5,40,13,35000,22.224,,,200,,,,,,,,,,,wg-a,,,,AAXX 31154 07481 12781 22012 10280 20130 39848 40118 56015 60006 81101 91500=
07481,1998-08-31 18:00:00,24,1012,-0.1,61,16,10000,22.224,,,200,10.3,28.5,,,,,,,,,wg-a,,,,AAXX 31184 07481 12/60 /2012 10240 20160 39847 40120 56001 60006 91800 333 10285 20103=
07481,1998-08-31 21:00:00,22,1012.8,0.6,78,18,25000,25.928,,,190,,,,,,,,,,,wg-a,,,,AAXX 31214 07481 12/75 01914 10220 20180 39853 40128 53006 60006 80000 92100=
07481,1998-09-01 00:00:00,21,1013.9,1,83,18,25000,18.52,,,170,,,,,,,,,,,wg-a,,,,AAXX 01004 07481 12/75 41710 10210 20180 39863 40139 51010 60006 84040 90000=
07481,1998-09-01 03:00:00,21,1013.3,-0.6,78,17,15000,18.52,,,160,,,,,,,,,,,wg-a,,,,AAXX 01034 07481 12/65 21610 10210 20170 39857 40133 56006 60006 81081 90300=
07481,1998-09-01 06:00:00,21,1014.4,1,73,16,15000,14.816,,,150,19.2,24.2,,,,,,,,,wg-a,,,,AAXX 01064 07481 02/65 71508 10210 20160 39867 40144 53010 60006 83082 90600 333 10242 20192 60004=
07481,1998-09-01 09:00:00,24,1013.9,-0.1,57,15,20000,31.484,,,180,,,,,,,,,,,wg-a,,,,AAXX 01094 07481 12/70 61817 10240 20150 39866 40139 57001 60006 82082 90900=
07481,1998-09-01 12:00:00,27,1013.9,0.2,48,15,25000,22.224,,46.3,200,,,,,,,,,,,wg-a,,,,AAXX 01124 07481 12/75 72012 10270 20150 39868 40139 50002 60006 83082 91200 333 91025=
07481,1998-09-01 15:00:00,29,1013.5,-0.2,43,15,25000,7.408,,,300,,,,,,,,,,,wg-a,,,,AAXX 01154 07481 12/75 73004 10290 20150 39866 40135 56002 60006 84082 91500=
07481,1998-09-01 18:00:00,26,1013.6,-0.2,58,17,25000,11.112,,,50,20.5,29.1,,,,,,,,,wg-a,,,,AAXX 01184 07481 12/75 50506 10260 20170 39864 40136 58002 60006 83082 91800 333 10291 20205=
07481,1998-09-01 21:00:00,25,1014.7,1,47,13,25000,22.224,,,160,,,,,,,,,,,wg-a,,,,AAXX 01214 07481 12/75 61612 10250 20130 39874 40147 51010 60006 85082 92100=
07481,1998-09-02 00:00:00,23,1015.2,0.2,33,6,25000,22.224,,,150,,,,,,,,,,,wg-a,,,,AAXX 02004 07481 12/75 41512 10230 20060 39876 40152 50002 60006 82032 90000=
07481,1998-09-02 03:00:00,21,1014.9,-0.4,53,11,20000,18.52,,,150,,,,,,,,,,,wg-a,,,,AAXX 02034 07481 12/70 51510 10210 20110 39872 40149 56004 60006 80002 90300=
07481,1998-09-02 06:00:00,21,1014.7,-0.2,60,13,25000,18.52,,,150,20.8,25.8,,,,,,,,,wg-a,,,,AAXX 02064 07481 02/75 51510 10210 20130 39870 40147 56002 60006 82082 90600 333 10258 20208 60004=
07481,1998-09-02 09:00:00,26,1014.4,0.2,42,12,25000,31.484,,,190,,,,,,,,,,,wg-a,,,,AAXX 02094 07481 12/75 21917 10260 20120 39872 40144 51002 60006 81082 90900=
07481,1998-09-02 12:00:00,29,1013.1,-1,37,13,500,25.928,,,190,,,,,,,,,,,wg-a,,,,AAXX 02124 07481 12/00 61914 10290 20130 39862 40131 58010 60006 83082 91200=
07481,1998-09-02 15:00:00,31,1011.4,-1.5,33,13,10000,25.928,,,190,,,,,,,,,,,wg-a,,,,AAXX 02154 07481 12/60 /1914 10310 20130 39847 40114 58015 60006 91500=
07481,1998-09-02 18:00:00,28,1011.5,-0.1,40,13,500,18.52,,,200,20.9,31.1,,,,,,,,,wg-a,,,,AAXX 02184 07481 12/00 62010 10280 20130 39846 40115 55001 60006 83082 91800 333 10311 20209=
07481,1998-09-02 21:00:00,27,1012.4,0.7,42,13,25000,25.928,,,180,,,,,,,,,,,wg-a,,,,AAXX 02214 07481 12/75 61814 10270 20130 39853 40124 51007 60006 81082 92100=
07481,1998-09-03 00:00:00,23,1013.7,1,61,15,25000,29.632,,,200,,,,,,,,,,13,wg-a,,,,AAXX 03004 07481 12575 72016 10230 20150 39863 40137 53010 60006 71322 82582 90000=
07481,1998-09-03 03:00:00,19,1015.6,1.5,94,18,15000,14.816,,,200,,,,2,,,,,,80,wg-a,,,,AAXX 03034 07481 12265 82008 10190 20180 39878 40156 53015 60027 78086 8598/ 90300=
07481,1998-09-03 06:00:00,19,1015.6,-0,94,18,20000,7.408,,,190,19,28.2,,,,,,,,21,wg-a,,,,AAXX 03064 07481 02570 81904 10190 20180 39878 40156 55000 61000 72186 8488/ 90600 333 10282 20190 6003=
07481,1998-09-03 09:00:00,23,1015.9,0.7,73,18,23000,18.52,,,200,,,,,,,,,,,wg-a,,,,AAXX 03094 07481 12673 22010 10230 20180 39885 40159 51007 60006 81240 90900=
07481,1998-09-03 12:00:00,26,1014.6,-1.1,51,15,45000,7.408,,,330,,,,,,,,,,,wg-a,,,,AAXX 03124 07481 12683 33304 10260 20150 39874 40146 56011 60006 83200 91200=
07481,1998-09-03 15:00:00,25,1014.7,-0,41,11,50000,22.224,,,340,,,,,,,,,,,wg-a,,,,AAXX 03154 07481 12684 33412 10250 20110 39874 40147 55000 60006 83800 91500=
07481,1998-09-03 18:00:00,21,1015.8,0.7,60,13,60000,18.52,,,30,19.3,27,,,,,,,,,wg-a,,,,AAXX 03184 07481 12686 30310 10210 20130 39881 40158 53007 60006 81161 91800 333 10270 20193=
07481,1998-09-04 00:00:00,15,1016.2,-0.8,88,13,10000,3.704,,,280,,,,,,,,,,,wg-a,,,,AAXX 04004 07481 12/60 /2802 10150 20130 39879 40162 56008 60006 90000=
07481,1998-09-04 03:00:00,14,1014.5,-1.7,88,12,25000,7.408,,,130,,,,,,,,,,,wg-a,,,,AAXX 04034 07481 12/75 31304 10140 20120 39862 40145 57017 60006 80001 90300=
07481,1998-09-04 06:00:00,14,1014.1,-0.5,88,12,20000,3.704,,,60,12.7,21,,,,,,,,,wg-a,,,,AAXX 04064 07481 02/70 60602 10140 20120 39857 40141 55005 60006 82082 90600 333 10210 20127 60004=
07481,1998-09-04 09:00:00,17,1012.5,-1.2,82,14,25000,3.704,,,40,,,,,,,,,,,wg-a,,,,AAXX 04094 07481 12775 70402 10170 20140 39845 40125 58012 60006 8257/ 90900=
07481,1998-09-04 12:00:00,19,1011,-1.3,73,14,25000,3.704,,,30,,,,,,,,,,,wg-a,,,,AAXX 04124 07481 12775 70302 10190 20140 39832 40110 58013 60006 8257/ 91200=
07481,1998-09-04 15:00:00,20,1008.5,-2.2,78,16,12000,7.408,,,40,,,,,,,,,,21,wg-a,,,,AAXX 04154 07481 02662 80404 10200 20160 39810 40085 58022 61000 72162 8387/ 91500 333 ////=
07481,1998-09-04 18:00:00,17,1008.1,-0.7,100,17,1500,14.816,,,50,13.7,21.5,,,,,,,,95,wg-a,,,,AAXX 04184 07481 02115 80508 10170 20170 39803 40081 58007 61000 79596 879// 91800 333 10215 20137 6030=
07481,1998-09-04 21:00:00,17,1008,-0.1,100,17,7000,11.112,,,80,,,,27,,,,,,81,wg-a,,,,AAXX 04214 07481 12357 80806 10170 20170 39802 40080 58001 60277 78196 879// 92100=
07481,1998-09-05 00:00:00,17,1009.8,1.7,100,17,7000,14.816,,,180,,,,2,,,,,,60,wg-a,,,,AAXX 05004 07481 02357 81808 10170 20170 39819 40098 51017 60286 76096 878// 90000 333 60027=
07481,1998-09-05 03:00:00,16,1010.3,0.4,100,16,10000,3.704,,,250,,,,10,,,,,,1,wg-a,,,,AAXX 05034 07481 12360 /2502 10160 20160 39823 40103 53004 60107 70162 8353/ 90300=
07481,1998-09-05 06:00:00,16,1011.7,1.3,94,15,25000,3.704,,,170,14.7,17.3,,,,,69,,,3,wg-a,,,,AAXX 05064 07481 02475 /1702 10160 20150 39836 40117 53013 60006 70361 81200 90600 333 10173 20147 60694=
07481,1998-09-05 09:00:00,19,1013.5,2.1,64,12,40000,3.704,,,270,,,,,,,,,,,wg-a,,,,AAXX 05094 07481 12582 62702 10190 20120 39857 40135 51021 60006 85801 90900=
07481,1998-09-05 12:00:00,22,1012.6,-0.7,50,11,50000,7.408,,,160,,,,,,,,,,,wg-a,,,,AAXX 05124 07481 12684 /1604 10220 20110 39850 40126 58007 60006 85880 91200=
07481,1998-09-05 15:00:00,22,1012,-0.5,53,12,40000,7.408,,,350,,,,,,,,,,25,wg-a,,,,AAXX 05154 07481 02582 63504 10220 20120 39845 40120 56005 61000 72586 85801 91500 333 ////=
07481,1998-09-05 18:00:00,17,1014.2,1.7,94,16,10000,3.704,,,40,15.5,23.4,,,,,,,,25,wg-a,,,,AAXX 05184 07481 02560 70402 10170 20160 39862 40142 53017 61000 72586 878// 91800 333 10234 20155 6004=
07481,1998-09-05 21:00:00,16,1015.7,1.4,94,15,20000,7.408,,,160,,,,,,,,,,,wg-a,,,,AAXX 05214 07481 12670 71604 10160 20150 39876 40157 51014 60006 82230 92100=
07481,1998-09-06 00:00:00,15,1016,0.2,100,15,20000,3.704,,,220,,,,,,,,,,,wg-a,,,,AAXX 06004 07481 12670 /2202 10150 20150 39878 40160 50002 60006 8223/ 90000=
07481,1998-09-06 03:00:00,13,1015.5,-0.7,100,13,20000,3.704,,,140,,,,0,,,,,,,wg-a,,,,AAXX 06034 07481 12870 11402 10130 20130 39871 40155 57007 60007 8103/ 90300=
07481,1998-09-06 06:00:00,12,1015.5,-0.1,100,12,100,0,,,0,12.1,16.8,,,,,4,,,41,wg-a,,,,AAXX 06064 07481 02201 20000 10120 20120 39870 40155 55001 60006 74141 82601 90600 333 10168 20121 60044=
07481,1998-09-06 09:00:00,18,1015.1,0.1,73,13,25000,3.704,,,360,,,,,,,,,,1,wg-a,,,,AAXX 06094 07481 12475 /3602 10180 20130 39871 40151 50001 60006 70140 81201 90900=
07481,1998-09-06 12:00:00,21,1013.4,-1.3,53,11,25000,7.408,,,280,,,,,,,,,,1,wg-a,,,,AAXX 06124 07481 12675 22804 10210 20110 39858 40134 56013 60006 70140 81201 91200=
07481,1998-09-06 15:00:00,23,1010.7,-2.5,44,10,500,7.408,,,40,,,,,,,,,,,wg-a,,,,AAXX 06154 07481 12/00 10404 10230 20100 39833 40107 56025 60006 80001 91500=
07481,1998-09-06 18:00:00,21,1009.8,-1,56,12,500,3.704,,,50,12.3,23.5,,,,,,,,,wg-a,,,,AAXX 06184 07481 12/00 50502 10210 20120 39823 40098 56010 60006 80002 91800 333 10235 20123=
07481,1998-09-06 21:00:00,18,1009.9,-0.2,73,13,40000,3.704,,,140,,,,,,,,,,,wg-a,,,,AAXX 06214 07481 12/82 41402 10180 20130 39821 40099 57002 60006 80002 92100=
07481,1998-09-07 00:00:00,15,1008.8,-1.3,88,13,500,7.408,,,230,,,,,,,,,,,wg-a,,,,AAXX 07004 07481 12/00 62304 10150 20130 39808 40088 56013 60006 81042 90000=
07481,1998-09-07 03:00:00,15,1007.6,-1.2,88,13,20000,3.704,,,160,,,,,,,,,,,wg-a,,,,AAXX 07034 07481 12/70 61602 10150 20130 39796 40076 56012 60006 83042 90300=
07481,1998-09-07 06:00:00,16,1007.6,0,82,13,15000,11.112,,,150,14.7,21,,,,,,,,,wg-a,,,,AAXX 07064 07481 02765 81506 10160 20130 39796 40076 50000 60006 8257/ 90600 333 10210 20147 60004=
07481,1998-09-07 09:00:00,17,1008.3,0.9,82,14,25000,3.704,,,220,,,,0,,,,,,1,wg-a,,,,AAXX 07094 07481 12675 72202 10170 20140 39805 40083 50009 60007 70162 8257/ 90900=
07481,1998-09-07 12:00:00,23,1006.3,-1.4,53,13,25000,7.408,,,320,,,,,,,,,,2,wg-a,,,,AAXX 07124 07481 12575 53204 10230 20130 39791 40063 58014 60006 70262 81182 91200=
07481,1998-09-07 15:00:00,23,1005.6,-0.7,53,13,40000,3.704,,,50,,,,,,,,,,,wg-a,,,,AAXX 07154 07481 12682 70502 10230 20130 39784 40056 58007 60006 8387/ 91500=
07481,1998-09-07 18:00:00,18,1008.4,2.3,94,17,10000,11.112,,,290,15.5,23.5,,,,,,,,61,wg-a,,,,AAXX 07184 07481 02660 82906 10180 20170 39807 40084 53023 61000 76162 8397/ 91800 333 10235 20155 6001=
07481,1998-09-07 21:00:00,16,1010.1,1.4,94,15,15000,3.704,,,150,,,,0,,,,,,1,wg-a,,,,AAXX 07214 07481 12665 71502 10160 20150 39821 40101 53014 60007 70162 82270 92100=
07481,1998-09-08 00:00:00,16,1011.3,1.2,94,15,15000,0,,,0,,,,,,,,,,1,wg-a,,,,AAXX 08004 07481 12665 70000 10160 20150 39833 40113 52012 60016 70162 82270 90000=
07481,1998-09-08 03:00:00,15,1012.2,0.8,100,15,15000,3.704,,,10,,,,,,,,,,,wg-a,,,,AAXX 08034 07481 12665 20102 10150 20150 39841 40122 53008 60006 81231 90300=
07481,1998-09-08 06:00:00,14,1014.1,1.7,100,14,500,3.704,,,340,13.8,18.1,,,,,2,,,,wg-a,,,,AAXX 08064 07481 02600 33402 10140 20140 39858 40141 53017 60006 81240 90600 333 10181 20138 60024=
07481,1998-09-08 09:00:00,19,1014.4,0.7,64,12,500,7.408,,,330,,,,,,,,,,,wg-a,,,,AAXX 08094 07481 12500 33304 10190 20120 39865 40144 52007 60006 82840 90900=
07481,1998-09-08 12:00:00,22,1013.9,-0.2,50,11,500,11.112,,,310,,,,,,,,,,,wg-a,,,,AAXX 08124 07481 12600 /3106 10220 20110 39863 40139 58002 60006 86200 91200=
07481,1998-09-08 15:00:00,22,1013.7,-0.1,50,11,500,7.408,,,360,,,,,,,,,,,wg-a,,,,AAXX 08154 07481 12600 63604 10220 20110 39862 40137 56001 60006 81240 91500=
07481,1998-09-08 18:00:00,22,1014.2,0.4,57,13,500,7.408,,,80,14.2,23.3,,,,,,,,,wg-a,,,,AAXX 08184 07481 12/00 60804 10220 20130 39866 40142 51004 60006 86040 91800 333 10233 20142=
07481,1998-09-08 21:00:00,19,1015.6,1.1,68,13,500,7.408,,,150,,,,,,,,,,,wg-a,,,,AAXX 08214 07481 12/00 21504 10190 20130 39877 40156 51011 60006 82030 92100=
07481,1998-09-09 00:00:00,17,1015.1,-0.7,77,13,500,11.112,,,160,,,,,,,,,,,wg-a,,,,AAXX 09004 07481 12/00 31606 10170 20130 39870 40151 58007 60006 83030 90000=
07481,1998-09-09 03:00:00,15,1014.4,-0.8,88,13,10000,7.408,,,160,,,,,,,,,,,wg-a,,,,AAXX 09034 07481 12/60 /1604 10150 20130 39862 40144 56008 60006 90300=
07481,1998-09-09 06:00:00,15,1013.6,-0.8,88,13,40000,3.704,,,120,14.2,21.5,,,,,,,,,wg-a,,,,AAXX 09064 07481 02/82 51202 10150 20130 39854 40136 55008 60006 81034 90600 333 10215 20142 60004=
07481,1998-09-09 09:00:00,22,1013.1,0.1,57,13,75000,7.408,,,190,,,,,,,,,,,wg-a,,,,AAXX 09094 07481 12/89 41904 10220 20130 39855 40131 52001 60006 81032 90900=
07481,1998-09-09 12:00:00,26,1010.9,-1.7,45,13,75000,22.224,,,200,,,,,,,,,,,wg-a,,,,AAXX 09124 07481 12/89 52012 10260 20130 39838 40109 56017 60006 84082 91200=
07481,1998-09-09 15:00:00,27,1009,-1.8,39,12,75000,35.188,,55.56,200,,,,,,,,,,,wg-a,,,,AAXX 09154 07481 12/89 52019 10270 20120 39820 40090 56018 60006 84082 91500 333 91030=
07481,1998-09-09 18:00:00,26,1009.7,0.6,42,12,75000,35.188,,,200,15.4,28.5,,,,,,,,,wg-a,,,,AAXX 09184 07481 12/89 52019 10260 20120 39826 40097 53006 60006 83042 91800 333 10285 20154=
07481,1998-09-09 21:00:00,24,1011.3,1.4,47,12,40000,31.484,,,200,,,,,,,,,,,wg-a,,,,AAXX 09214 07481 12/82 52017 10240 20120 39840 40113 51014 60006 85041 92100=
07481,1998-09-10 00:00:00,22,1011.1,-0.4,57,13,40000,18.52,,,150,,,,,,,,,,,wg-a,,,,AAXX 10004 07481 12/82 51510 10220 20130 39836 40111 55004 60006 85040 90000=
07481,1998-09-10 03:00:00,22,1010.6,-0.4,60,14,500,22.224,,,200,,,,,,,,,,,wg-a,,,,AAXX 10034 07481 12/00 72012 10220 20140 39832 40106 58004 60006 8707/ 90300=
07481,1998-09-10 06:00:00,22,1011.7,1,65,15,500,18.52,,,200,21.6,25.8,,,,,,,,,wg-a,,,,AAXX 10064 07481 02700 72010 10220 20150 39842 40117 53010 60006 8457/ 90600 333 10258 20216 60004=
07481,1998-09-10 09:00:00,23,1011.9,0.3,61,15,15000,18.52,,,200,,,,,,,,,,21,wg-a,,,,AAXX 10094 07481 02665 72010 10230 20150 39845 40119 53003 61000 72162 8357/ 90900 333 ////=
07481,1998-09-10 12:00:00,25,1010.9,-0.8,57,16,25000,29.632,,,200,,,,,,,,,,3,wg-a,,,,AAXX 10124 07481 02575 72016 10250 20160 39837 40109 58008 61000 70362 8488/ 91200 333 ////=
07481,1998-09-10 15:00:00,25,1009.8,-1,57,16,25000,22.224,,,200,,,,,,,,,,,wg-a,,,,AAXX 10154 07481 12775 72012 10250 20160 39827 40098 56010 60006 8588/ 91500=
07481,1998-09-10 18:00:00,18,1012.4,1.8,83,15,10000,25.928,,,350,17.7,26.3,,,,,,,,,wg-a,,,,AAXX 10184 07481 12660 73514 10180 20150 39845 40124 53018 60006 8598/ 91800 333 10263 20177=
07481,1998-09-10 21:00:00,16,1014.5,1.9,100,16,6000,14.816,,,60,,,,12,,,,,,82,wg-a,,,,AAXX 10214 07481 12256 80608 10160 20160 39864 40145 52019 60127 78298 879// 92100=
07481,1998-09-11 00:00:00,14,1013.8,-0.9,100,14,9000,14.816,,,120,,,,8,,,,,,61,wg-a,,,,AAXX 11004 07481 02259 81208 10140 20140 39855 40138 58009 60196 76198 8688/ 90000 333 60087=
07481,1998-09-11 03:00:00,15,1012.2,-1.5,94,14,15000,7.408,,,210,,,,1,,,,,,60,wg-a,,,,AAXX 11034 07481 12265 82104 10150 20140 39840 40122 58015 60017 76062 8387/ 90300=
07481,1998-09-11 06:00:00,14,1011.4,-0.8,100,14,15000,11.112,,,140,14.2,17.7,,,,,,,,60,wg-a,,,,AAXX 11064 07481 02265 81406 10140 20140 39832 40114 58008 61000 76062 8582/ 90600 333 10177 20142 6025=
07481,1998-09-11 09:00:00,16,1009.1,-2,94,15,20000,7.408,,,170,,,,0,,,,,,3,wg-a,,,,AAXX 11094 07481 12370 71704 10160 20150 39812 40091 56020 60007 70362 8387/ 90900=
07481,1998-09-11 12:00:00,20,1006.1,-2.7,64,13,500,18.52,,,170,,,,,,,,,,1,wg-a,,,,AAXX 11124 07481 12400 71710 10200 20130 39785 40061 58027 60016 70162 85832 91200=
07481,1998-09-11 15:00:00,19,1003.8,-2.2,78,15,18000,22.224,,40.744,200,,,,,,,,,,15,wg-a,,,,AAXX 11154 07481 12568 82012 10190 20150 39763 40038 57022 60006 71522 8597/ 91500 333 91022=
07481,1998-09-11 18:00:00,14,1004,-0.4,94,13,15000,7.408,,,90,13.6,20,,,,,,,,21,wg-a,,,,AAXX 11184 07481 02265 /0904 10140 20130 39759 40040 58004 61000 72198 8587/ 91800 333 10200 20136 6004=
07481,1998-09-11 21:00:00,14,1002.8,-1.1,94,13,500,11.112,,,120,,,,,,,,,,,wg-a,,,,AAXX 11214 07481 12700 71206 10140 20130 39748 40028 58011 60006 8657/ 92100=
07481,1998-09-12 00:00:00,13,1002.2,-0.7,94,12,15000,18.52,,,230,,,,3,,,,,,61,wg-a,,,,AAXX 12004 07481 02365 82310 10130 20120 39741 40022 55007 60036 76162 885// 90000 333 60037=
07481,1998-09-12 03:00:00,12,1003,0.6,88,10,40000,3.704,,,300,,,,,,,,,,3,wg-a,,,,AAXX 12034 07481 02482 53002 10120 20100 39747 40030 53006 61000 70361 83540 90300 333 ////=
07481,1998-09-12 06:00:00,12,1004.1,1.1,82,9,500,11.112,,,300,11.6,14.5,,,,,8,,,1,wg-a,,,,AAXX 12064 07481 02400 73006 10120 20090 39758 40041 51011 60006 70161 8484/ 90600 333 10145 20116 60084=
07481,1998-09-12 09:00:00,13,1005.1,1.1,77,9,500,14.816,,,290,,,,,,,,,,,wg-a,,,,AAXX 12094 07481 12500 72908 10130 20090 39769 40051 53011 60006 8684/ 90900=
07481,1998-09-12 12:00:00,15,1004.7,-0.2,72,10,500,14.816,,,330,,,,2,,,,,,1,wg-a,,,,AAXX 12124 07481 02500 /3308 10150 20100 39767 40047 58002 60026 70162 83831 91200 333 60027=
07481,1998-09-12 15:00:00,17,1003.6,-0.9,48,6,50000,14.816,,,290,,,,,,,,,,,wg-a,,,,AAXX 12154 07481 12684 42908 10170 20060 39758 40036 58009 60006 84830 91500=
07481,1998-09-12 18:00:00,15,1002.7,-1,55,6,50000,7.408,,,180,11.6,17,,,,,,,,,wg-a,,,,AAXX 12184 07481 12684 71804 10150 20060 39748 40027 58010 60006 85830 91800 333 10170 20116=
07481,1998-09-12 21:00:00,12,1002.3,-0.7,82,9,20000,11.112,,,210,,,,1,,,,,,60,wg-a,,,,AAXX 12214 07481 12570 82106 10120 20090 39741 40023 58007 60017 76062 878// 92100=
07481,1998-09-13 00:00:00,11,1001.2,-1.2,94,10,20000,14.816,,,210,,,,1,,,,,,25,wg-a,,,,AAXX 13004 07481 02570 82108 10110 20100 39729 40012 56012 60026 72586 8557/ 90000 333 60017=
07481,1998-09-13 03:00:00,10,1001.8,0.5,82,7,20000,11.112,,,290,,,,,,,,,,,wg-a,,,,AAXX 13034 07481 12570 /2906 10100 20070 39734 40018 52005 60006 83870 90300=
07481,1998-09-13 06:00:00,8,1003.2,1.2,93,7,40000,11.112,,,260,8.4,15.3,,,,,4,,,,wg-a,,,,AAXX 13064 07481 02582 32606 10080 20070 39746 40032 51012 60006 82840 90600 333 10153 20084 60044=
07481,1998-09-13 09:00:00,11,1003.6,0.7,62,4,50000,11.112,,,280,,,,,,,,,,,wg-a,,,,AAXX 13094 07481 12484 72806 10110 20040 39753 40036 52007 60006 8587/ 90900=
07481,1998-09-13 12:00:00,13,1001.9,-1.5,54,4,45000,14.816,,,210,,,,0,,,,,,21,wg-a,,,,AAXX 13124 07481 02583 72108 10130 20040 39738 40019 58015 60006 72161 8587/ 91200 333 60007=
07481,1998-09-13 15:00:00,9,1002.8,0.5,93,8,4000,31.484,,,300,,,,4,,,,,,80,wg-a,,,,AAXX 13154 07481 12540 83017 10090 20080 39743 40028 53005 60047 78086 878// 91500=
07481,1998-09-13 18:00:00,10,1004.6,1.8,87,8,15000,3.704,,,260,8.4,14.4,,,,,,,,60,wg-a,,,,AAXX 13184 07481 02565 72602 10100 20080 39761 40046 53018 61000 76086 878// 91800 333 10144 20084 6003=
07481,1998-09-13 21:00:00,10,1007.2,2.5,87,8,18000,7.408,,,280,,,,0,,,,,,1,wg-a,,,,AAXX 13214 07481 12568 72804 10100 20080 39786 40072 51025 60007 70162 878// 92100=
07481,1998-09-14 00:00:00,10,1007.3,0.2,87,8,18000,3.704,,,210,,,,,,,,,,1,wg-a,,,,AAXX 14004 07481 12668 72102 10100 20080 39788 40073 53002 60006 70162 878// 90000=
07481,1998-09-14 03:00:00,11,1007.3,0,76,7,20000,11.112,,,240,,,,0,,,,,,,wg-a,,,,AAXX 14034 07481 12570 72406 10110 20070 39788 40073 50000 60007 878// 90300=
07481,1998-09-14 06:00:00,10,1008.1,0.7,87,8,20000,3.704,,,190,9.5,10.7,,,,,,,,21,wg-a,,,,AAXX 14064 07481 02670 71902 10100 20080 39795 40081 53007 61000 72162 85841 90600 333 10107 20095 6009=
07481,1998-09-14 09:00:00,13,1009.3,1.4,67,7,40000,7.408,,,310,,,,,,,,,,,wg-a,,,,AAXX 14094 07481 12582 73104 10130 20070 39809 40093 51014 60006 82832 90900=
07481,1998-09-14 12:00:00,16,1009.4,0.4,36,1,50000,14.816,,,300,,,,,,,,,,,wg-a,,,,AAXX 14124 07481 12684 63008 10160 20010 39813 40094 51004 60006 84241 91200=
07481,1998-09-14 15:00:00,16,1009.8,0.4,48,5,50000,7.408,,,190,,,,,,,,,,1,wg-a,,,,AAXX 14154 07481 02684 61904 10160 20050 39817 40098 50004 61000 70186 84832 91500 333 ////=
07481,1998-09-14 18:00:00,14,1011.1,1.1,63,7,50000,11.112,,,190,9.8,16.5,,,,,,,,1,wg-a,,,,AAXX 14184 07481 12684 61906 10140 20070 39828 40111 53011 60006 70186 84841 91800 333 10165 20098=
07481,1998-09-14 21:00:00,13,1013.3,2,77,9,40000,7.408,,,220,,,,1,,,,,,1,wg-a,,,,AAXX 14214 07481 12682 62204 10130 20090 39848 40133 51020 60017 70186 83840 92100=
07481,1998-09-15 00:00:00,12,1014.2,0.9,76,8,40000,0,,,0,,,,1,,,,,,1,wg-a,,,,AAXX 15004 07481 02582 /0000 10120 20080 39857 40142 51009 60026 70186 84840 90000 333 60017=
07481,1998-09-15 03:00:00,12,1014.7,0.4,88,10,40000,7.408,,,190,,,,,,,,,,21,wg-a,,,,AAXX 15034 07481 02682 71904 10120 20100 39861 40147 51004 61000 72162 875// 90300 333 ////=
07481,1998-09-15 06:00:00,12,1016.3,1.6,88,10,40000,7.408,,,260,11.4,14,,,,,2,,,3,wg-a,,,,AAXX 15064 07481 02582 72604 10120 20100 39877 40163 53016 60006 70362 878// 90600 333 10140 20114 60024=
07481,1998-09-15 09:00:00,14,1017.7,1.5,55,5,40000,18.52,,,300,,,,,,,,,,21,wg-a,,,,AAXX 15094 07481 02682 43010 10140 20050 39892 40177 51015 61000 72161 84800 90900 333 ////=
07481,1998-09-15 12:00:00,15,1018,0.4,51,5,40000,11.112,,,320,,,,,,,,,,,wg-a,,,,AAXX 15124 07481 12682 /3206 10150 20050 39896 40180 51004 60006 86200 91200=
07481,1998-09-15 15:00:00,17,1017.1,-0.7,42,4,40000,3.704,,,300,,,,,,,,,,,wg-a,,,,AAXX 15154 07481 12782 73002 10170 20040 39889 40171 57007 60006 8187/ 91500=
07481,1998-09-15 18:00:00,15,1017.2,-0.1,59,7,25000,14.816,,,200,11.6,18.3,,,,,,,,21,wg-a,,,,AAXX 15184 07481 02675 82008 10150 20070 39888 40172 56001 61000 72161 875// 91800 333 10183 20116 ////=
07481,1998-09-16 00:00:00,11,1016.7,-1.1,94,10,25000,3.704,,,90,,,,0,,,,,,1,wg-a,,,,AAXX 16004 07481 02675 30902 10110 20100 39880 40167 56011 60016 70165 83500 90000 333 60007=
07481,1998-09-16 06:00:00,12,1015.9,0.4,100,12,8000,7.408,,,110,11,14.9,,,,,,,,20,wg-a,,,,AAXX 16064 07481 02458 81104 10120 20120 39873 40159 50004 61000 72051 885// 90600 333 10149 20110 6001=
07481,1998-09-16 09:00:00,17,1015.8,0.4,77,13,20000,7.408,,,170,,,,,,,,,,,wg-a,,,,AAXX 16094 07481 12370 /1704 10170 20130 39877 40158 53004 60006 85801 90900=
07481,1998-09-16 18:00:00,17,1014.4,1.1,63,10,40000,14.816,,,320,12.1,20.5,,,,,,,,,wg-a,,,,AAXX 16184 07481 12682 63208 10170 20100 39863 40144 53011 60006 84842 91800 333 10205 20121=
07481,1998-09-17 00:00:00,13,1016.3,0.3,82,10,40000,3.704,,,320,,,,,,,,,,,wg-a,,,,AAXX 17004 07481 12882 63202 10130 20100 39878 40163 53003 60006 86040 90000=
07481,1998-09-17 03:00:00,12,1016.3,-0.1,88,10,20000,3.704,,,280,,,,,,,,,,,wg-a,,,,AAXX 17034 07481 12870 62802 10120 20100 39877 40163 58001 60006 86030 90300=
07481,1998-09-17 06:00:00,12,1017.2,0.9,88,10,500,0,,,0,11.5,16.7,,,,,,,,,wg-a,,,,AAXX 17064 07481 02500 70000 10120 20100 39886 40172 53009 60006 875// 90600 333 10167 20115 60004=
07481,1998-09-17 09:00:00,15,1017.8,0.9,67,9,35000,7.408,,,20,,,,,,,,,,,wg-a,,,,AAXX 17094 07481 12581 /0204 10150 20090 39895 40178 51009 60006 85102 90900=
07481,1998-09-17 12:00:00,17,1017.2,-0.5,63,10,40000,11.112,,,340,,,,,,,,,,,wg-a,,,,AAXX 17124 07481 12682 63406 10170 20100 39890 40172 56005 60006 86802 91200=
07481,1998-09-17 15:00:00,18,1017.1,-0,52,8,45000,18.52,,,350,,,,,,,,,,,wg-a,,,,AAXX 17154 07481 12683 23510 10180 20080 39890 40171 55000 60006 82200 91500=
07481,1998-09-17 18:00:00,15,1018.4,1,67,9,45000,7.408,,,10,11.8,18.3,,,,,,,,,wg-a,,,,AAXX 17184 07481 12683 /0104 10150 20090 39900 40184 53010 60006 81461 91800 333 10183 20118=
07481,1998-09-17 21:00:00,12,1020.1,1.4,82,9,500,7.408,,,350,,,,,,,,,,,wg-a,,,,AAXX 17214 07481 12/00 13504 10120 20090 39914 40201 51014 60006 80001 92100=
07481,1998-09-18 00:00:00,10,1021.1,0.7,93,9,500,3.704,,,140,,,,,,,,,,,wg-a,,,,AAXX 18004 07481 12/00 01402 10100 20090 39921 40211 53007 60006 80000 90000=
07481,1998-09-18 03:00:00,8,1021.3,0.1,100,8,500,3.704,,,320,,,,,,,,,,,wg-a,,,,AAXX 18034 07481 12/00 03202 10080 20080 39922 40213 53001 60006 80000 90300=
07481,1998-09-18 12:00:00,18,1023,-0,52,8,20000,18.52,,,350,,,,,,,,,,,wg-a,,,,AAXX 18124 07481 12570 43510 10180 20080 39948 40230 55000 60006 81101 91200=
07481,1998-09-18 15:00:00,20,1022.5,-0.4,46,8,40000,18.52,,,340,,,,,,,,,,,wg-a,,,,AAXX 18154 07481 12682 /3410 10200 20080 39944 40225 58004 60006 81101 91500=
07481,1998-09-18 18:00:00,16,1023.6,0.8,63,9,40000,11.112,,,340,8.2,19.6,,,,,,,,,wg-a,,,,AAXX 18184 07481 12782 13406 10160 20090 39952 40236 53008 60006 81401 91800 333 10196 20082=
07481,1998-09-18 21:00:00,13,1025.4,1.4,77,9,500,11.112,,,340,,,,,,,,,,,wg-a,,,,AAXX 18214 07481 12/00 03406 10130 20090 39966 40254 51014 60006 80000 92100=
07481,1998-09-19 00:00:00,10,1026.4,0.7,87,8,20000,3.704,,,300,,,,,,,,,,,wg-a,,,,AAXX 19004 07481 12/70 23002 10100 20080 39973 40264 51007 60006 80001 90000=
07481,1998-09-19 03:00:00,9,1027.1,0.5,87,7,18000,3.704,,,310,,,,,,,,,,,wg-a,,,,AAXX 19034 07481 12/68 03102 10090 20070 39978 40271 51005 60006 80000 90300=
07481,1998-09-19 06:00:00,8,1028,0.8,100,8,10000,3.704,,,10,7.3,15.9,,,,,,,,,wg-a,,,,AAXX 19064 07481 02/60 /0102 10080 20080 39986 40280 53008 60006 80001 90600 333 10159 20073 60004=
07481,1998-09-19 09:00:00,12,1028.6,1,82,9,15000,3.704,,,350,,,,,,,,,,,wg-a,,,,AAXX 19094 07481 12465 /3502 10120 20090 39996 40286 51010 60006 81201 90900=
07481,1998-09-19 12:00:00,18,1027.5,-0.4,59,10,500,3.704,,,360,,,,,,,,,,,wg-a,,,,AAXX 19124 07481 12/00 13602 10180 20100 39992 40275 58004 60006 80001 91200=
07481,1998-09-19 15:00:00,20,1026.3,-1,56,11,500,11.112,,,350,,,,,,,,,,,wg-a,,,,AAXX 19154 07481 12600 /3506 10200 20110 39982 40263 56010 60006 81100 91500=
07481,1998-09-19 18:00:00,16,1026.6,-0.1,72,11,25000,7.408,,,330,7.9,19.9,,,,,,,,,wg-a,,,,AAXX 19184 07481 12875 13304 10160 20110 39981 40266 56001 60006 81041 91800 333 10199 20079=
07481,1998-09-19 21:00:00,13,1027.4,0.5,88,11,25000,7.408,,,270,,,,,,,,,,,wg-a,,,,AAXX 19214 07481 12/75 12704 10130 20110 39986 40274 51005 60006 80001 92100=
07481,1998-09-20 00:00:00,11,1027.8,0.2,87,9,25000,3.704,,,330,,,,,,,,,,,wg-a,,,,AAXX 20004 07481 12/75 13302 10110 20090 39988 40278 52002 60006 80001 90000=
07481,1998-09-20 03:00:00,12,1027.6,-0.1,88,10,20000,3.704,,,340,,,,,,,,,,,wg-a,,,,AAXX 20034 07481 12670 73402 10120 20100 39987 40276 55001 60006 875// 90300=
07481,1998-09-20 06:00:00,9,1028.6,0.6,93,8,10000,7.408,,,290,9.1,15.8,,,,,,,,,wg-a,,,,AAXX 20064 07481 02660 22904 10090 20080 39993 40286 53006 60006 81540 90600 333 10158 20091 60004=
07481,1998-09-20 09:00:00,12,1029,0.7,88,10,8000,3.704,,,330,,,,,,,,,,,wg-a,,,,AAXX 20094 07481 12458 /3302 10120 20100 30000 40290 51007 60006 84800 90900=
07481,1998-09-20 12:00:00,17,1027.3,-1.1,63,10,15000,3.704,,,30,,,,,,,,,,,wg-a,,,,AAXX 20124 07481 12565 /0302 10170 20100 39989 40273 58011 60006 81100 91200=
07481,1998-09-20 15:00:00,19,1025.6,-1.5,56,10,25000,7.408,,,360,,,,,,,,,,,wg-a,,,,AAXX 20154 07481 12575 /3604 10190 20100 39974 40256 56015 60006 81101 91500=
07481,1998-09-20 18:00:00,16,1026,0.2,72,11,25000,3.704,,,360,9,19.2,,,,,,,,,wg-a,,,,AAXX 20184 07481 12675 33602 10160 20110 39976 40260 53002 60006 81541 91800 333 10192 20090=
07481,1998-09-20 21:00:00,14,1026.4,0.1,82,11,25000,7.408,,,220,,,,,,,,,,,wg-a,,,,AAXX 20214 07481 12875 12204 10140 20110 39977 40264 51001 60006 81041 92100=
07481,1998-09-21 00:00:00,11,1026.8,0.1,94,10,25000,0,,,0,,,,,,,,,,,wg-a,,,,AAXX 21004 07481 12/75 10000 10110 20100 39978 40268 53001 60006 80001 90000=
07481,1998-09-21 03:00:00,11,1026.8,-0,94,10,20000,3.704,,,190,,,,,,,,,,,wg-a,,,,AAXX 21034 07481 12/70 11902 10110 20100 39978 40268 54000 60006 80001 90300=
07481,1998-09-21 06:00:00,10,1026.7,-0.2,93,9,500,7.408,,,160,9.1,16.3,,,,,,,,11,wg-a,,,,AAXX 21064 07481 02400 /1604 10100 20090 39976 40267 58002 60006 71100 81101 90600 333 10163 20091 60004=
07481,1998-09-21 09:00:00,15,1026.1,-0.1,77,11,8000,3.704,,,70,,,,,,,,,,,wg-a,,,,AAXX 21094 07481 12/58 00702 10150 20110 39975 40261 58001 60006 80000 90900=
07481,1998-09-21 12:00:00,19,1024.4,-1.3,64,12,12000,7.408,,,30,,,,,,,,,,,wg-a,,,,AAXX 21124 07481 12/62 10304 10190 20120 39962 40244 58013 60006 80001 91200=
07481,1998-09-21 15:00:00,21,1022.3,-1.8,53,11,25000,7.408,,,40,,,,,,,,,,,wg-a,,,,AAXX 21154 07481 12/75 20404 10210 20110 39944 40223 56018 60006 80001 91500=
07481,1998-09-21 18:00:00,18,1022,-0.6,68,12,20000,7.408,,,10,9.8,21.3,,,,,,,,,wg-a,,,,AAXX 21184 07481 12/70 30104 10180 20120 39938 40220 56006 60006 80001 91800 333 10213 20098=
07481,1998-09-21 21:00:00,15,1022.4,0.1,77,11,20000,11.112,,,160,,,,,,,,,,,wg-a,,,,AAXX 21214 07481 12/70 21606 10150 20110 39939 40224 50001 60006 80001 92100=
07481,1998-09-22 00:00:00,13,1022.2,-0.4,77,9,20000,7.408,,,160,,,,,,,,,,,wg-a,,,,AAXX 22004 07481 12/70 21604 10130 20090 39935 40222 56004 60006 80001 90000=
07481,1998-09-22 03:00:00,10,1022,-0.5,93,9,12000,3.704,,,40,,,,,,,,,,,wg-a,,,,AAXX 22034 07481 12/62 20402 10100 20090 39930 40220 56005 60006 80001 90300=
07481,1998-09-22 06:00:00,10,1021.6,-0.3,100,10,6000,3.704,,,110,9.3,17.4,,,,,,,,11,wg-a,,,,AAXX 22064 07481 02/56 /1102 10100 20100 39927 40216 56003 60006 71100 81031 90600 333 10174 20093 60004=
07481,1998-09-22 09:00:00,16,1020.9,-0.1,72,11,8000,3.704,,,130,,,,,,,,,,,wg-a,,,,AAXX 22094 07481 12/58 /1302 10160 20110 39926 40209 58001 60006 80001 90900=
07481,1998-09-22 12:00:00,22,1018.5,-1.8,57,13,18000,7.408,,,160,,,,,,,,,,,wg-a,,,,AAXX 22124 07481 12/68 11604 10220 20130 39908 40185 58018 60006 81081 91200=
07481,1998-09-22 15:00:00,23,1017.2,-1.2,44,10,20000,22.224,,,180,,,,,,,,,,,wg-a,,,,AAXX 22154 07481 12770 21812 10230 20100 39896 40172 56012 60006 81281 91500=
07481,1998-09-22 18:00:00,20,1017.7,0.2,53,10,20000,14.816,,,140,10.4,23.9,,,,,,,,,wg-a,,,,AAXX 22184 07481 12770 11408 10200 20100 39898 40177 53002 60006 81480 91800 333 10239 20104=
07481,1998-09-22 21:00:00,18,1019.2,1.3,64,11,25000,14.816,,,140,,,,,,,,,,,wg-a,,,,AAXX 22214 07481 12/75 61408 10180 20110 39911 40192 53013 60006 86032 92100=
07481,1998-09-23 00:00:00,15,1019.9,0.4,77,11,20000,7.408,,,140,,,,,,,,,,,wg-a,,,,AAXX 23004 07481 12/70 01404 10150 20110 39915 40199 50004 60006 80000 90000=
07481,1998-09-23 03:00:00,13,1020,-0.1,88,11,12000,11.112,,,130,,,,,,,,,,,wg-a,,,,AAXX 23034 07481 12/62 01306 10130 20110 39914 40200 57001 60006 80000 90300=
07481,1998-09-23 06:00:00,13,1020.6,0.5,82,10,6000,7.408,,,140,12.4,20.4,,,,,,,,,wg-a,,,,AAXX 23064 07481 02/56 11404 10130 20100 39919 40206 53005 60006 81030 90600 333 10204 20124 60004=
07481,1998-09-23 09:00:00,18,1020.5,0.4,68,12,7000,14.816,,,150,,,,,,,,,,,wg-a,,,,AAXX 23094 07481 12/57 01508 10180 20120 39923 40205 51004 60006 80000 90900=
07481,1998-09-23 12:00:00,21,1019,-1.1,56,12,12000,11.112,,,150,,,,,,,,,,,wg-a,,,,AAXX 23124 07481 12662 /1506 10210 20120 39912 40190 58011 60006 81200 91200=
07481,1998-09-23 21:00:00,18,1018.6,0.8,68,12,15000,18.52,,,170,,,,,,,,,,,wg-a,,,,AAXX 23214 07481 12765 71710 10180 20120 39905 40186 51008 60006 8755/ 92100=
07481,1998-09-24 00:00:00,18,1018.3,-0.3,59,10,15000,14.816,,,190,,,,,,,,,,,wg-a,,,,AAXX 24004 07481 12765 71908 10180 20100 39902 40183 57003 60006 8253/ 90000=
07481,1998-09-24 03:00:00,16,1018.2,-0.3,72,11,15000,7.408,,,120,,,,,,,,,,,wg-a,,,,AAXX 24034 07481 12665 71204 10160 20110 39899 40182 58003 60006 8353/ 90300=
07481,1998-09-24 06:00:00,15,1018.2,-0,82,12,8000,18.52,,,140,15,18.6,,,,,,,,,wg-a,,,,AAXX 24064 07481 02758 71410 10150 20120 39899 40182 55000 60006 8258/ 90600 333 10186 20150 60004=
07481,1998-09-24 09:00:00,19,1018.3,0.4,64,12,8000,11.112,,,120,,,,,,,,,,,wg-a,,,,AAXX 24094 07481 12/58 /1206 10190 20120 39903 40183 51004 60006 90900=
07481,1998-09-24 12:00:00,21,1017.3,-0.8,49,10,15000,11.112,,,210,,,,,,,,,,,wg-a,,,,AAXX 24124 07481 12/65 72106 10210 20100 39895 40173 56008 60006 86082 91200=
07481,1998-09-24 15:00:00,20,1016.5,-0.9,56,11,15000,11.112,,,160,,,,,,,,,,21,wg-a,,,,AAXX 24154 07481 02665 71606 10200 20110 39886 40165 58009 61000 72162 8557/ 91500 333 ////=
07481,1998-09-24 18:00:00,18,1015.8,-0.8,68,12,12000,11.112,,,140,15.1,21.6,,,,,,,,3,wg-a,,,,AAXX 24184 07481 12862 61406 10180 20120 39878 40158 56008 60006 70362 86032 91800 333 10216 20151=
07481,1998-09-24 21:00:00,16,1016.4,0.4,77,12,12000,11.112,,,160,,,,,,,,,,,wg-a,,,,AAXX 24214 07481 12862 51606 10160 20120 39882 40164 53004 60006 85030 92100=
07481,1998-09-25 00:00:00,15,1016.1,-0.4,82,12,15000,11.112,,,150,,,,,,,,,,,wg-a,,,,AAXX 25004 07481 12865 31506 10150 20120 39878 40161 58004 60006 82032 90000=
07481,1998-09-25 03:00:00,14,1014.8,-1.3,88,12,12000,14.816,,,140,,,,,,,,,,,wg-a,,,,AAXX 25034 07481 12/62 31408 10140 20120 39865 40148 56013 60006 83031 90300=
07481,1998-09-25 09:00:00,19,1013.5,-0.7,64,12,10000,22.224,,,190,,,,,,,,,,,wg-a,,,,AAXX 25094 07481 12/60 41912 10190 20120 39857 40135 56007 60006 84080 90900=
07481,1998-09-25 12:00:00,20,1012.1,-1.3,60,12,12000,22.224,,,170,,,,,,,,,,,wg-a,,,,AAXX 25124 07481 12662 71712 10200 20120 39844 40121 58013 60006 8128/ 91200=
07481,1998-09-25 15:00:00,22,1010.6,-1.3,57,13,15000,25.928,,,180,,,,,,,,,,,wg-a,,,,AAXX 25154 07481 12665 71814 10220 20130 39831 40106 56013 60006 83872 91500=
07481,1998-09-25 18:00:00,20,1010.8,0,68,14,12000,18.52,,,180,14.3,22.5,,,,,,,,,wg-a,,,,AAXX 25184 07481 12562 71810 10200 20140 39831 40108 50000 60006 8387/ 91800 333 10225 20143=
07481,1998-09-25 21:00:00,18,1011,-0,83,15,15000,11.112,,,160,,,,0,,,,,,60,wg-a,,,,AAXX 25214 07481 12565 81606 10180 20150 39831 40110 55000 60007 76062 8487/ 92100=
07481,1998-09-26 00:00:00,16,1009.8,-1.2,94,15,15000,11.112,,,140,,,,1,,,,,,2,wg-a,,,,AAXX 26004 07481 02465 81406 10160 20150 39819 40098 56012 60016 70262 8587/ 90000 333 60017=
07481,1998-09-26 03:00:00,16,1007.7,-2.1,82,13,20000,18.52,,,140,,,,,,,,,,2,wg-a,,,,AAXX 26034 07481 02770 81410 10160 20130 39798 40077 57021 61000 70262 8357/ 90300 333 ////=
07481,1998-09-26 06:00:00,16,1006.2,-1.5,77,12,15000,11.112,,,110,15.5,19.5,,,,,1,,,3,wg-a,,,,AAXX 26064 07481 02665 71106 10160 20120 39783 40062 56015 60006 70362 83572 90600 333 10195 20155 60014=
07481,1998-09-26 09:00:00,17,1004.4,-1.6,77,13,25000,11.112,,,150,,,,,,,,,,,wg-a,,,,AAXX 26094 07481 12575 71506 10170 20130 39767 40044 56016 60006 8388/ 90900=
07481,1998-09-26 12:00:00,15,1005.8,1.1,94,14,7000,7.408,,,130,,,,4,,,,,,80,wg-a,,,,AAXX 26124 07481 02257 81304 10150 20140 39778 40058 50011 60046 78086 8688/ 91200 333 60047=
07481,1998-09-26 15:00:00,18,1002.3,-3.1,83,15,10000,14.816,,,130,,,,1,,,,,,3,wg-a,,,,AAXX 26154 07481 12460 71308 10180 20150 39747 40023 56031 60017 70386 8498/ 91500=
07481,1998-09-26 18:00:00,19,1001.8,-0.4,78,15,25000,11.112,,,190,14.9,18.8,,0,,,,,,13,wg-a,,,,AAXX 26184 07481 02575 71906 10190 20150 39743 40018 55004 60006 71386 84883 91800 333 10188 20149 60007=
07481,1998-09-26 21:00:00,14,1006.4,3.9,88,12,12000,7.408,,,300,,,,5,,,,,,81,wg-a,,,,AAXX 26214 07481 12562 83004 10140 20120 39782 40064 51039 60057 78196 879// 92100=
07481,1998-09-27 00:00:00,14,1005.8,-0.5,82,11,500,11.112,,,190,,,,2,,,,,,3,wg-a,,,,AAXX 27004 07481 02700 31906 10140 20110 39777 40058 55005 60076 70396 81581 90000 333 60027=
07481,1998-09-27 06:00:00,16,1004.8,-0.7,82,13,20000,18.52,,,190,13.3,19.8,,,,,12,,,3,wg-a,,,,AAXX 27064 07481 02770 71910 10160 20130 39769 40048 55007 60006 70361 82571 90600 333 10198 20133 60124=
07481,1998-09-27 09:00:00,18,1005.8,1.2,73,13,500,22.224,,,180,,,,,,,,,,21,wg-a,,,,AAXX 27094 07481 02400 81812 10180 20130 39781 40058 52012 61000 72162 8357/ 90900 333 ////=
07481,1998-09-27 12:00:00,21,1005.7,0.1,53,11,40000,18.52,,,220,,,,,,,,,,3,wg-a,,,,AAXX 27124 07481 02682 72210 10210 20110 39782 40057 50001 61000 70362 82832 91200 333 ////=
07481,1998-09-27 15:00:00,22,1004.8,-0.8,46,10,40000,22.224,,,220,,,,0,,,,,,3,wg-a,,,,AAXX 27154 07481 12682 72212 10220 20100 39774 40048 56008 60007 70386 85932 91500=
07481,1998-09-27 18:00:00,17,1007.1,1.8,68,11,25000,18.52,,,230,15.9,22.1,,1,,,,,,3,wg-a,,,,AAXX 27184 07481 02675 72310 10170 20110 39792 40071 53018 60006 70386 8587/ 91800 333 10221 20159 60017=
07481,1998-09-27 21:00:00,16,1009,1.8,72,11,25000,11.112,,,220,,,,,,,,,,,wg-a,,,,AAXX 27214 07481 12675 72206 10160 20110 39810 40090 51018 60006 8457/ 92100=
07481,1998-09-28 00:00:00,14,1009.1,-0.1,88,12,25000,11.112,,,150,,,,,,,,,,21,wg-a,,,,AAXX 28004 07481 02675 71506 10140 20120 39809 40091 58001 61000 72162 8357/ 90000 333 6100=
07481,1998-09-28 03:00:00,14,1008.3,-0.8,88,12,25000,14.816,,,160,,,,,,,,,,,wg-a,,,,AAXX 28034 07481 12575 71608 10140 20120 39801 40083 56008 60006 8387/ 90300=
07481,1998-09-28 09:00:00,14,1009.3,0.7,94,13,10000,14.816,,,140,,,,2,,,,,,60,wg-a,,,,AAXX 28094 07481 12460 81408 10140 20130 39811 40093 51007 60027 76066 8487/ 90900=
07481,1998-09-28 12:00:00,16,1009.1,0,88,14,10000,7.408,,,270,,,,1,,,,,,60,wg-a,,,,AAXX 28124 07481 02460 82704 10160 20140 39811 40091 50000 60036 76062 8687/ 91200 333 60017=
07481,1998-09-28 15:00:00,17,1008.6,-0.4,82,14,10000,7.408,,,140,,,,1,,,,,,21,wg-a,,,,AAXX 28154 07481 12460 71404 10170 20140 39807 40086 56004 60017 72162 8487/ 91500=
07481,1998-09-28 18:00:00,15,1010.3,1.5,94,14,8000,7.408,,,230,13.4,17.1,,,,,,,,61,wg-a,,,,AAXX 28184 07481 02558 72304 10150 20140 39822 40103 53015 61000 76186 8487/ 91800 333 10171 20134 6006=
07481,1998-09-28 21:00:00,14,1011.4,1,100,14,17000,7.408,,,140,,,,0,,,,,,3,wg-a,,,,AAXX 28214 07481 12567 81404 10140 20140 39832 40114 52010 60007 70362 885// 92100=
07481,1998-09-29 03:00:00,14,1011.2,-0.3,94,13,20000,7.408,,,130,,,,,,,,,,,wg-a,,,,AAXX 29034 07481 12570 71304 10140 20130 39830 40112 58003 60006 875// 90300=
07481,1998-09-29 09:00:00,17,1010.1,-0.5,82,14,9000,3.704,,,300,,,,,,,,,,,wg-a,,,,AAXX 29094 07481 12459 63002 10170 20140 39822 40101 57005 60006 86830 90900=
07481,1998-09-29 12:00:00,19,1008.2,-1.7,68,13,18000,7.408,,,60,,,,,,,,,,,wg-a,,,,AAXX 29124 07481 12568 70604 10190 20130 39805 40082 58017 60006 84231 91200=
07481,1998-09-29 15:00:00,19,1006.5,-1.6,68,13,18000,7.408,,,110,,,,,,,,,,,wg-a,,,,AAXX 29154 07481 12568 81104 10190 20130 39789 40065 56016 60006 82557 91500=
07481,1998-09-29 18:00:00,17,1006.2,-0.5,82,14,12000,7.408,,,110,14.2,19.4,,,,,,,,,wg-a,,,,AAXX 29184 07481 12/62 81104 10170 20140 39784 40062 56005 60006 85057 91800 333 10194 20142=
07481,1998-09-29 21:00:00,18,1005.6,-0.5,64,11,12000,22.224,,,180,,,,,,,,,,,wg-a,,,,AAXX 29214 07481 12/62 81812 10180 20110 39779 40056 57005 60006 8707/ 92100=
07481,1998-09-30 00:00:00,16,1005.8,-0,82,13,10000,18.52,,,190,,,,1,,,,,,60,wg-a,,,,AAXX 30004 07481 02560 81910 10160 20130 39779 40058 55000 60016 76062 8227/ 90000 333 60017=
07481,1998-09-30 12:00:00,16,1007.3,1,94,15,15000,11.112,,,130,,,,2,,,,,,21,wg-a,,,,AAXX 30124 07481 02465 81306 10160 20150 39793 40073 52010 60106 72162 8587/ 91200 333 60027=
07481,1998-09-30 15:00:00,17,1006.2,-0.9,77,13,500,18.52,,,120,,,,,,,,,,,wg-a,,,,AAXX 30154 07481 12500 71210 10170 20130 39784 40062 56009 60006 8423/ 91500=
07481,1998-09-30 18:00:00,16,1006.6,0.3,77,12,500,11.112,,,160,14.1,17.8,,,,,,,,,wg-a,,,,AAXX 30184 07481 12500 51606 10160 20120 39787 40066 51003 60006 84901 91800 333 10178 20141=
07481,1998-09-30 21:00:00,13,1007.6,0.7,100,13,20000,7.408,,,160,,,,,,,,,,1,wg-a,,,,AAXX 30214 07481 12570 31604 10130 20130 39794 40076 51007 60006 70191 83800 92100=
07481,1998-10-01 00:00:00,12,1007.7,-0.1,94,11,18000,7.408,,,150,,,,,,,,,,1,wg-a,,,,AAXX 01004 07481 12768 11504 10120 20110 39793 40077 58001 60006 70191 81500 90000=
07481,1998-10-01 03:00:00,11,1007.1,-0.7,100,11,10000,7.408,,,160,,,,,,,,,,,wg-a,,,,AAXX 01034 07481 12560 /1604 10110 20110 39786 40071 56007 60006 81500 90300=
07481,1998-10-01 06:00:00,10,1007.4,0.3,100,10,9000,11.112,,,180,10,15.7,,,,,10,,,,wg-a,,,,AAXX 01064 07481 02559 21806 10100 20100 39789 40074 53003 60006 81830 90600 333 10157 20100 60104=
07481,1998-10-01 09:00:00,14,1007.3,0.3,82,11,18000,7.408,,,180,,,,0,,,,,,,wg-a,,,,AAXX 01094 07481 12568 61804 10140 20110 39792 40073 50003 60007 81881 90900=
07481,1998-10-01 12:00:00,17,1006.4,-0.6,59,9,40000,14.816,,,220,,,,,,,,,,,wg-a,,,,AAXX 01124 07481 12582 72208 10170 20090 39786 40064 58006 60006 82882 91200=
07481,1998-10-01 18:00:00,16,1005.6,0.2,63,9,40000,18.52,,,180,10,18.6,,,,,,,,3,wg-a,,,,AAXX 01184 07481 12782 71810 10160 20090 39777 40056 53002 60006 70362 8387/ 91800 333 10186 20100=
07481,1998-10-01 21:00:00,15,1006.1,0.3,72,10,500,14.816,,,200,,,,,,,,,,,wg-a,,,,AAXX 01214 07481 12700 72008 10150 20100 39780 40061 52003 60006 8387/ 92100=
07481,1998-10-02 00:00:00,13,1006,-0.2,88,11,20000,22.224,,,180,,,,2,,,,,,61,wg-a,,,,AAXX 02004 07481 02470 71812 10130 20110 39778 40060 58002 60026 76162 8387/ 90000 333 60027=
07481,1998-10-02 03:00:00,12,1004.9,-1.2,94,11,18000,18.52,,,170,,,,3,,,,,,60,wg-a,,,,AAXX 02034 07481 12468 71710 10120 20110 39766 40049 58012 60037 76066 878// 90300=
07481,1998-10-02 06:00:00,12,1005.2,0.4,88,10,15000,22.224,,,190,12.1,16.2,,,,,,,,60,wg-a,,,,AAXX 02064 07481 02365 71912 10120 20100 39770 40052 53004 61000 76062 8587/ 90600 333 10162 20121 6005=
07481,1998-10-02 09:00:00,14,1005.5,0.4,82,11,25000,25.928,,,180,,,,1,,,,,,1,wg-a,,,,AAXX 02094 07481 12475 71814 10140 20110 39774 40055 51004 60017 70162 8587/ 90900=
07481,1998-10-02 12:00:00,15,1005,-0.3,77,11,15000,18.52,,,200,,,,,,,,,,15,wg-a,,,,AAXX 02124 07481 12565 72010 10150 20110 39771 40050 57003 60016 71562 8687/ 91200=
07481,1998-10-02 15:00:00,15,1004.3,-0.8,82,12,18000,14.816,,,160,,,,0,,,,,,21,wg-a,,,,AAXX 02154 07481 12468 81608 10150 20120 39763 40043 56008 60007 72162 8587/ 91500=
07481,1998-10-02 18:00:00,14,1005.2,0.8,94,13,10000,7.408,,,90,12,15.9,,0,,,,,,3,wg-a,,,,AAXX 02184 07481 02460 70904 10140 20130 39771 40052 53008 60006 70362 8587/ 91800 333 10159 20120 60007=
07481,1998-10-02 21:00:00,13,1006.8,1.5,94,12,20000,3.704,,,340,,,,,,,,,,3,wg-a,,,,AAXX 02214 07481 02570 73402 10130 20120 39786 40068 51015 61000 70362 875// 92100 333 ////=
07481,1998-10-03 00:00:00,12,1007.8,0.9,100,12,4000,7.408,,,40,,,,11,,,,,,65,wg-a,,,,AAXX 03004 07481 02440 80404 10120 20120 39795 40078 53009 60116 76586 8572/ 90000 333 60117=
07481,1998-10-03 03:00:00,12,1009.3,1.4,100,12,15000,14.816,,,340,,,,2,,,,,,3,wg-a,,,,AAXX 03034 07481 12265 83408 10120 20120 39809 40093 52014 60027 70362 887// 90300=
07481,1998-10-03 06:00:00,12,1010.6,1.3,94,11,8000,11.112,,,340,11.7,13.9,,,,,,,,50,wg-a,,,,AAXX 03064 07481 02358 83406 10120 20110 39822 40106 53013 61000 75065 877// 90600 333 10139 20117 6015=
07481,1998-10-03 09:00:00,12,1012.4,1.7,94,11,7000,11.112,,,350,,,,2,,,,,,21,wg-a,,,,AAXX 03094 07481 12257 83506 10120 20110 39839 40124 51017 60027 72186 888// 90900=
07481,1998-10-03 12:00:00,12,1013,0.6,82,9,20000,11.112,,,340,,,,0,,,,,,1,wg-a,,,,AAXX 03124 07481 02470 73406 10120 20090 39845 40130 51006 60026 70186 878// 91200 333 60007=
07481,1998-10-03 15:00:00,13,1012.6,-0.3,77,9,25000,11.112,,,320,,,,,,,,,,,wg-a,,,,AAXX 03154 07481 12575 73206 10130 20090 39842 40126 57003 60006 878// 91500=
07481,1998-10-03 18:00:00,12,1012.5,-0.2,82,9,20000,7.408,,,110,11.3,13.3,,,,,,,,,wg-a,,,,AAXX 03184 07481 12770 /1104 10120 20090 39840 40125 56002 60006 85530 91800 333 10133 20113=
07481,1998-10-03 21:00:00,10,1012.1,-0.6,93,9,12000,3.704,,,220,,,,,,,,,,,wg-a,,,,AAXX 03214 07481 12/62 72202 10100 20090 39834 40121 57006 60006 8703/ 92100=
07481,1998-10-04 00:00:00,10,1010.5,-1.5,93,9,10000,11.112,,,160,,,,,,,,,,,wg-a,,,,AAXX 04004 07481 12760 71606 10100 20090 39819 40105 56015 60006 8153/ 90000=
07481,1998-10-04 03:00:00,10,1008.6,-1.9,93,9,10000,3.704,,,120,,,,,,,,,,2,wg-a,,,,AAXX 04034 07481 02660 81202 10100 20090 39800 40086 56019 61000 70262 8257/ 90300 333 ////=
07481,1998-10-04 09:00:00,12,1006.7,-0.5,82,9,15000,11.112,,,150,,,,0,,,,,,21,wg-a,,,,AAXX 04094 07481 12565 81506 10120 20090 39783 40067 58005 60007 72162 8487/ 90900=
07481,1998-10-04 12:00:00,12,1005.9,-0.7,94,11,9000,7.408,,,170,,,,1,,,,,,60,wg-a,,,,AAXX 04124 07481 02459 81704 10120 20110 39776 40059 58007 60016 76062 878// 91200 333 60017=
07481,1998-10-04 15:00:00,12,1005.1,-0.7,94,11,10000,18.52,,,190,,,,1,,,,,,60,wg-a,,,,AAXX 04154 07481 12360 /1910 10120 20110 39769 40051 56007 60017 76066 8387/ 91500=
07481,1998-10-04 18:00:00,12,1005.2,-0,88,10,18000,11.112,,,170,9.5,12.6,,,,,,,,1,wg-a,,,,AAXX 04184 07481 02768 71706 10120 20100 39769 40052 55000 60006 70162 8253/ 91800 333 10126 20095 61000=
07481,1998-10-04 21:00:00,11,1005.8,0.5,94,10,18000,7.408,,,100,,,,,,,,,,,wg-a,,,,AAXX 04214 07481 12768 /1004 10110 20100 39774 40058 53005 60006 82530 92100=
07481,1998-10-05 00:00:00,9,1005.6,-0.4,93,8,8000,7.408,,,130,,,,,,,,,,11,wg-a,,,,AAXX 05004 07481 12658 /1304 10090 20080 39770 40056 56004 60006 71111 81500 90000=
07481,1998-10-05 03:00:00,8,1005.8,0,93,7,800,7.408,,,260,,,,,,,,,,10,wg-a,,,,AAXX 05034 07481 12108 72604 10080 20070 39770 40058 50000 60006 71041 8665/ 90300=
07481,1998-10-05 06:00:00,8,1005.5,-0.2,100,8,300,3.704,,,190,7.5,11.8,,,,,3,,,45,wg-a,,,,AAXX 05064 07481 02/03 91902 10080 20080 39768 40055 55002 60006 74541 89/// 90600 333 10118 20075 60034=
07481,1998-10-05 09:00:00,10,1006.9,1.6,100,10,3500,3.704,,,50,,,,,,,,,,10,wg-a,,,,AAXX 05094 07481 12135 80502 10100 20100 39784 40069 51016 60006 71042 886// 90900=
07481,1998-10-05 12:00:00,13,1006.9,0.2,82,10,10000,11.112,,,20,,,,,,,,,,1,wg-a,,,,AAXX 05124 07481 12360 80206 10130 20100 39786 40069 50002 60006 70142 875// 91200=
07481,1998-10-05 15:00:00,13,1005.9,-0.9,82,10,20000,7.408,,,350,,,,,,,,,,,wg-a,,,,AAXX 05154 07481 12470 83504 10130 20100 39777 40059 57009 60006 84575 91500=
07481,1998-10-05 18:00:00,12,1006.7,0.7,94,11,18000,7.408,,,330,8.3,13.1,,,,,,,,60,wg-a,,,,AAXX 05184 07481 02468 83304 10120 20110 39784 40067 53007 61000 76062 875// 91800 333 10131 20083 6100=
07481,1998-10-05 21:00:00,11,1007.5,0.7,100,11,12000,3.704,,,310,,,,0,,,,,,21,wg-a,,,,AAXX 05214 07481 12462 83102 10110 20110 39791 40075 52007 60007 72162 875// 92100=
07481,1998-10-06 00:00:00,11,1007,-0.6,94,10,10000,3.704,,,340,,,,,,,,,,20,wg-a,,,,AAXX 06004 07481 02360 83402 10110 20100 39785 40070 56006 60006 72065 876// 90000 333 61000=
07481,1998-10-06 03:00:00,10,1005.6,-1.4,100,10,500,11.112,,,350,,,,1,,,,,,61,wg-a,,,,AAXX 06034 07481 12200 83506 10100 20100 39771 40056 58014 60017 76162 886// 90300=
07481,1998-10-06 06:00:00,9,1005,-0.6,100,9,4000,7.408,,,320,9.3,12,,,,,,,,61,wg-a,,,,AAXX 06064 07481 02240 83204 10090 20090 39765 40050 56006 61000 76162 887// 90600 333 10120 20093 6006=
07481,1998-10-06 09:00:00,10,1005.9,0.9,100,10,6000,7.408,,,340,,,,7,,,,,,10,wg-a,,,,AAXX 06094 07481 12256 83404 10100 20100 39774 40059 51009 60077 71066 877// 90900=
07481,1998-10-06 12:00:00,11,1007.9,2.1,100,11,4500,3.704,,,280,,,,1,,,,,,61,wg-a,,,,AAXX 06124 07481 02245 82802 10110 20110 39795 40079 53021 60086 76162 877// 91200 333 60017=
07481,1998-10-06 15:00:00,12,1009.6,1.7,100,12,10000,7.408,,,230,,,,1,,,,,,60,wg-a,,,,AAXX 06154 07481 12360 82304 10120 20120 39812 40096 53017 60017 76066 8687/ 91500=
07481,1998-10-06 18:00:00,12,1011.5,1.8,94,11,18000,3.704,,,50,9.4,12.4,,,,,,,,2,wg-a,,,,AAXX 06184 07481 02468 80502 10120 20110 39830 40115 53018 60006 70262 8687/ 91800 333 10124 20094 61000=
07481,1998-10-06 21:00:00,10,1012.9,1.2,93,9,25000,3.704,,,300,,,,,,,,,,,wg-a,,,,AAXX 06214 07481 12475 73002 10100 20090 39842 40129 51012 60006 8127/ 92100=
07481,1998-10-07 00:00:00,10,1013.7,0.8,100,10,25000,3.704,,,310,,,,,,,,,,,wg-a,,,,AAXX 07004 07481 12475 73102 10100 20100 39850 40137 52008 60006 8487/ 90000=
07481,1998-10-07 03:00:00,10,1013.8,0,93,9,20000,3.704,,,340,,,,,,,,,,,wg-a,,,,AAXX 07034 07481 12270 83402 10100 20090 39850 40138 50000 60006 8683/ 90300=
07481,1998-10-07 06:00:00,10,1014.6,0.8,100,10,10000,3.704,,,360,9.5,11.7,,,,,9,,,,wg-a,,,,AAXX 07064 07481 02260 83602 10100 20100 39858 40146 53008 60006 878// 90600 333 10117 20095 60094=
07481,1998-10-07 09:00:00,11,1015.4,0.9,87,9,12000,11.112,,,340,,,,,,,,,,,wg-a,,,,AAXX 07094 07481 12262 73406 10110 20090 39867 40154 50009 60006 878// 90900=
07481,1998-10-07 12:00:00,12,1015,-0.3,82,9,25000,11.112,,,340,,,,,,,,,,,wg-a,,,,AAXX 07124 07481 12475 73406 10120 20090 39864 40150 57003 60006 878// 91200=
07481,1998-10-07 15:00:00,11,1015.5,0.4,87,9,20000,18.52,,,330,,,,,,,,,,,wg-a,,,,AAXX 07154 07481 12470 83310 10110 20090 39868 40155 53004 60006 878// 91500=
07481,1998-10-07 18:00:00,10,1017.5,1.8,82,7,10000,14.816,,,340,9.6,12.8,,,,,,,,1,wg-a,,,,AAXX 07184 07481 02560 83408 10100 20070 39886 40175 52018 60006 70162 875// 91800 333 10128 20096 61000=
07481,1998-10-07 21:00:00,9,1018.1,0.5,87,7,15000,11.112,,,340,,,,,,,,,,,wg-a,,,,AAXX 07214 07481 12465 83406 10090 20070 39891 40181 53005 60006 875// 92100=
07481,1998-10-08 00:00:00,9,1018.2,0.1,87,7,10000,11.112,,,350,,,,,,,,,,,wg-a,,,,AAXX 08004 07481 12560 83506 10090 20070 39892 40182 52001 60006 875// 90000=
07481,1998-10-08 03:00:00,8,1017.6,-0.7,93,7,12000,7.408,,,340,,,,,,,,,,,wg-a,,,,AAXX 08034 07481 12462 83404 10080 20070 39885 40176 58007 60006 885// 90300=
07481,1998-10-08 06:00:00,8,1017.9,0.3,87,6,12000,7.408,,,350,7.7,9.6,,,,,,,,,wg-a,,,,AAXX 08064 07481 02462 83504 10080 20060 39888 40179 52003 60006 875// 90600 333 10096 20077 61000=
07481,1998-10-08 09:00:00,9,1018.9,1.1,87,7,9000,3.704,,,360,,,,,,,,,,,wg-a,,,,AAXX 08094 07481 12459 83602 10090 20070 39899 40189 51011 60006 885// 90900=
07481,1998-10-08 12:00:00,13,1018.4,-0.1,72,8,15000,11.112,,,360,,,,,,,,,,,wg-a,,,,AAXX 08124 07481 12465 73606 10130 20080 39898 40184 58001 60006 8683/ 91200=
07481,1998-10-08 15:00:00,13,1017.7,-0.6,72,8,500,11.112,,,340,,,,,,,,,,,wg-a,,,,AAXX 08154 07481 12600 /3406 10130 20080 39892 40177 56006 60006 83841 91500=
07481,1998-10-08 18:00:00,12,1018.7,0.8,82,9,500,3.704,,,350,7.7,14.3,,,,,,,,,wg-a,,,,AAXX 08184 07481 12700 /3502 10120 20090 39900 40187 53008 60006 81541 91800 333 10143 20077=
07481,1998-10-08 21:00:00,9,1019.9,0.8,87,7,20000,0,,,0,,,,,,,,,,,wg-a,,,,AAXX 08214 07481 12/70 30000 10090 20070 39908 40199 52008 60006 82041 92100=
07481,1998-10-09 00:00:00,8,1020,0.1,93,7,15000,0,,,0,,,,,,,,,,,wg-a,,,,AAXX 09004 07481 12/65 40000 10080 20070 39909 40200 53001 60006 83032 90000=
07481,1998-10-09 03:00:00,7,1020.8,0.6,100,7,9000,0,,,0,,,,,,,,,,,wg-a,,,,AAXX 09034 07481 12/59 20000 10070 20070 39915 40208 53006 60006 81042 90300=
07481,1998-10-09 06:00:00,6,1022,1.1,100,6,200,3.704,,,220,5.5,11.4,,,,,,,,41,wg-a,,,,AAXX 09064 07481 02102 42202 10060 20060 39926 40220 51011 60006 74140 83641 90600 333 10114 20055 60004=
07481,1998-10-09 09:00:00,8,1022.9,1.1,100,8,300,7.408,,,220,,,,,,,,,,43,wg-a,,,,AAXX 09094 07481 12/03 92204 10080 20080 39937 40229 51011 60006 74344 89/// 90900=
07481,1998-10-09 12:00:00,11,1022.1,-0.5,94,10,8000,7.408,,,30,,,,,,,,,,2,wg-a,,,,AAXX 09124 07481 12158 70304 10110 20100 39932 40221 58005 60006 70241 876// 91200=
07481,1998-10-09 15:00:00,16,1019.9,-1.7,63,9,25000,3.704,,,100,,,,,,,,,,,wg-a,,,,AAXX 09154 07481 12575 21002 10160 20090 39915 40199 56017 60006 81130 91500=
07481,1998-10-09 18:00:00,14,1019.9,-0.1,77,10,20000,3.704,,,90,5.6,16.6,,,,,,,,,wg-a,,,,AAXX 09184 07481 12/70 40902 10140 20100 39914 40199 55001 60006 84030 91800 333 10166 20056=
07481,1998-10-09 21:00:00,13,1020.6,0.5,88,11,10000,7.408,,,160,,,,,,,,,,,wg-a,,,,AAXX 09214 07481 12/60 51604 10130 20110 39919 40206 53005 60006 85030 92100=
07481,1998-10-10 00:00:00,11,1020.5,-0.2,94,10,8000,7.408,,,230,,,,,,,,,,,wg-a,,,,AAXX 10004 07481 12658 42304 10110 20100 39917 40205 58002 60006 83530 90000=
07481,1998-10-10 03:00:00,11,1019.5,-1,94,10,10000,11.112,,,200,,,,,,,,,,,wg-a,,,,AAXX 10034 07481 12660 72006 10110 20100 39907 40195 56010 60006 83531 90300=
07481,1998-10-10 06:00:00,11,1019.7,0.2,94,10,20000,11.112,,,200,10.5,14,,,,,,,,,wg-a,,,,AAXX 10064 07481 02570 72006 10110 20100 39909 40197 51002 60006 8557/ 90600 333 10140 20105 60004=
07481,1998-10-10 09:00:00,13,1020.4,0.9,77,9,20000,14.816,,,200,,,,,,,,,,,wg-a,,,,AAXX 10094 07481 12470 72008 10130 20090 39918 40204 51009 60006 878// 90900=
07481,1998-10-10 12:00:00,15,1019.2,-1,55,6,20000,22.224,,,200,,,,,,,,,,,wg-a,,,,AAXX 10124 07481 12570 72012 10150 20060 39908 40192 58010 60006 8487/ 91200=
07481,1998-10-10 15:00:00,16,1017.8,-1.3,55,7,40000,22.224,,,190,,,,,,,,,,,wg-a,,,,AAXX 10154 07481 12682 71912 10160 20070 39895 40178 56013 60006 8287/ 91500=
07481,1998-10-10 18:00:00,14,1018.3,0.3,72,9,500,18.52,,,180,11.3,17.2,,,,,,,,60,wg-a,,,,AAXX 10184 07481 02400 71810 10140 20090 39898 40183 53003 61000 76062 878// 91800 333 10172 20113 6000=
07481,1998-10-10 21:00:00,13,1019.8,1.4,82,10,15000,7.408,,,170,,,,1,,,,,,61,wg-a,,,,AAXX 10214 07481 12665 81704 10130 20100 39912 40198 51014 60017 76166 885// 92100=
07481,1998-10-11 00:00:00,12,1019.9,0,94,11,15000,14.816,,,130,,,,2,,,,,,21,wg-a,,,,AAXX 11004 07481 02665 81308 10120 20110 39912 40199 50000 60026 72162 885// 90000 333 60027=
07481,1998-10-11 03:00:00,12,1019.5,-0.4,94,11,15000,3.704,,,110,,,,,,,,,,,wg-a,,,,AAXX 11034 07481 12665 81102 10120 20110 39908 40195 58004 60006 885// 90300=
07481,1998-10-11 06:00:00,11,1020.9,1.3,100,11,500,3.704,,,80,11.3,14.3,,,,,,,,20,wg-a,,,,AAXX 11064 07481 02500 80802 10110 20110 39921 40209 51013 61000 72052 885// 90600 333 10143 20113 6003=
07481,1998-10-11 09:00:00,14,1021.5,0.9,88,12,9000,3.704,,,260,,,,,,,,,,,wg-a,,,,AAXX 11094 07481 12559 /2602 10140 20120 39930 40215 51009 60006 86800 90900=
07481,1998-10-11 12:00:00,16,1020,-1.4,48,5,40000,11.112,,,270,,,,,,,,,,,wg-a,,,,AAXX 11124 07481 12582 72706 10160 20050 39916 40200 58014 60006 85802 91200=
07481,1998-10-11 15:00:00,16,1018.3,-1.6,48,5,50000,3.704,,,210,,,,,,,,,,,wg-a,,,,AAXX 11154 07481 12684 72102 10160 20050 39900 40183 56016 60006 82152 91500=
07481,1998-10-11 18:00:00,14,1018.5,-0,67,8,15000,3.704,,,110,11.2,16.9,,,,,,,,60,wg-a,,,,AAXX 11184 07481 02465 81102 10140 20080 39900 40185 55000 61000 76062 8447/ 91800 333 10169 20112 6000=
07481,1998-10-11 21:00:00,12,1018.1,-0.6,94,11,10000,11.112,,,120,,,,1,,,,,,61,wg-a,,,,AAXX 11214 07481 12460 81206 10120 20110 39894 40181 58006 60017 76166 8447/ 92100=
07481,1998-10-12 00:00:00,11,1016.8,-1.3,100,11,10000,11.112,,,150,,,,,,,,,,3,wg-a,,,,AAXX 12004 07481 02460 81506 10110 20110 39881 40168 58013 60016 70362 8487/ 90000 333 61000=
07481,1998-10-12 03:00:00,11,1015.7,-1,100,11,15000,7.408,,,130,,,,0,,,,,,,wg-a,,,,AAXX 12034 07481 12365 71304 10110 20110 39871 40157 56010 60007 8587/ 90300=
07481,1998-10-12 06:00:00,11,1016.2,0.5,100,11,2000,3.704,,,20,11.1,14.2,,,,,1,,,10,wg-a,,,,AAXX 12064 07481 02120 80202 10110 20110 39876 40162 53005 60006 71052 885// 90600 333 10142 20111 60014=
07481,1998-10-12 09:00:00,14,1018.1,2,82,11,18000,14.816,,,340,,,,,,,,,,,wg-a,,,,AAXX 12094 07481 12468 73408 10140 20110 39896 40181 51020 60006 878// 90900=
07481,1998-10-12 12:00:00,14,1018.6,0.5,58,6,500,14.816,,,340,,,,,,,,,,,wg-a,,,,AAXX 12124 07481 12500 /3408 10140 20060 39901 40186 50005 60006 86800 91200=
07481,1998-10-12 15:00:00,14,1019.5,0.9,63,7,500,14.816,,,340,,,,,,,,,,,wg-a,,,,AAXX 12154 07481 12600 73408 10140 20070 39910 40195 53009 60006 878// 91500=
07481,1998-10-12 18:00:00,11,1021.3,1.4,87,9,500,7.408,,,20,10.5,15.3,,0,,,,,,1,wg-a,,,,AAXX 12184 07481 02500 50204 10110 20090 39924 40213 53014 60006 70186 83830 91800 333 10153 20105 60007=
07481,1998-10-12 21:00:00,9,1023.1,1.6,93,8,20000,3.704,,,10,,,,,,,,,,,wg-a,,,,AAXX 12214 07481 12670 60102 10090 20080 39940 40231 52016 60006 84530 92100=
07481,1998-10-13 00:00:00,9,1023.8,0.6,93,8,15000,11.112,,,350,,,,,,,,,,,wg-a,,,,AAXX 13004 07481 12665 /3506 10090 20080 39946 40238 51006 60006 81530 90000=
07481,1998-10-13 03:00:00,7,1023.9,-0.1,100,7,15000,3.704,,,70,,,,0,,,,,,,wg-a,,,,AAXX 13034 07481 12665 /0702 10070 20070 39945 40239 55001 60007 81500 90300=
07481,1998-10-13 06:00:00,6,1024.8,0.8,93,5,1500,7.408,,,310,5.3,10.5,,,,,1,,,,wg-a,,,,AAXX 13064 07481 02/15 /3104 10060 20050 39953 40248 52008 60006 90600 333 10105 20053 60014=
07481,1998-10-13 09:00:00,10,1025.9,1.5,87,8,10000,7.408,,,320,,,,,,,,,,2,wg-a,,,,AAXX 13094 07481 12/60 23204 10100 20080 39968 40259 51015 60006 70240 81031 90900=
07481,1998-10-13 12:00:00,14,1025.1,-0.3,58,6,500,14.816,,,330,,,,,,,,,,1,wg-a,,,,AAXX 13124 07481 12600 53308 10140 20060 39965 40251 58003 60006 70141 84131 91200=
07481,1998-10-13 15:00:00,15,1025,-0.1,55,6,500,11.112,,,20,,,,,,,,,,,wg-a,,,,AAXX 13154 07481 12600 50206 10150 20060 39964 40250 57001 60006 83431 91500=
07481,1998-10-14 00:00:00,9,1026.4,0.1,87,7,20000,3.704,,,210,,,,,,,,,,,wg-a,,,,AAXX 14004 07481 12/70 32102 10090 20070 39972 40264 51001 60006 81042 90000=
07481,1998-10-14 15:00:00,17,1025.1,-0.8,77,13,20000,11.112,,,30,,,,,,,,,,,wg-a,,,,AAXX 14154 07481 12670 50306 10170 20130 39968 40251 56008 60006 81840 91500=
07481,1998-10-14 18:00:00,16,1026.4,1.1,82,13,15000,7.408,,,70,9,17.6,,,,,,,,,wg-a,,,,AAXX 14184 07481 12665 70704 10160 20130 39979 40264 53011 60006 855// 91800 333 10176 20090=
07481,1998-10-14 21:00:00,15,1026.8,0.3,88,13,15000,0,,,0,,,,,,,,,,,wg-a,,,,AAXX 14214 07481 12665 70000 10150 20130 39982 40268 53003 60006 875// 92100=
07481,1998-10-15 00:00:00,14,1026.5,-0.4,94,13,15000,0,,,0,,,,,,,,,,,wg-a,,,,AAXX 15004 07481 12665 70000 10140 20130 39978 40265 58004 60006 875// 90000=
07481,1998-10-15 03:00:00,13,1025.9,-0.6,100,13,15000,3.704,,,320,,,,,,,,,,,wg-a,,,,AAXX 15034 07481 12665 73202 10130 20130 39972 40259 58006 60006 875// 90300=
07481,1998-10-15 06:00:00,13,1025.5,-0.4,100,13,9000,0,,,0,12.8,15.6,,,,,,,,,wg-a,,,,AAXX 15064 07481 02659 70000 10130 20130 39968 40255 56004 60006 875// 90600 333 10156 20128 60004=
07481,1998-10-15 09:00:00,15,1025.8,0.5,94,14,9000,3.704,,,350,,,,,,,,,,,wg-a,,,,AAXX 15094 07481 12459 73502 10150 20140 39973 40258 51005 60006 878// 90900=
07481,1998-10-15 12:00:00,17,1024.8,-0.8,72,12,20000,7.408,,,20,,,,,,,,,,,wg-a,,,,AAXX 15124 07481 12570 70204 10170 20120 39965 40248 58008 60006 878// 91200=
07481,1998-10-15 15:00:00,18,1023.2,-1.5,68,12,500,11.112,,,320,,,,,,,,,,,wg-a,,,,AAXX 15154 07481 12500 73206 10180 20120 39950 40232 56015 60006 86801 91500=
07481,1998-10-15 18:00:00,14,1024,0.4,88,12,500,3.704,,,330,12.9,18,,,,,,,,,wg-a,,,,AAXX 15184 07481 12600 43302 10140 20120 39954 40240 53004 60006 82501 91800 333 10180 20129=
07481,1998-10-15 21:00:00,12,1024.1,-0.1,94,11,500,3.704,,,220,,,,,,,,,,,wg-a,,,,AAXX 15214 07481 12800 12202 10120 20110 39953 40241 58001 60006 81040 92100=
07481,1998-10-16 00:00:00,10,1023.8,-0.5,100,10,20000,0,,,0,,,,,,,,,,,wg-a,,,,AAXX 16004 07481 12870 10000 10100 20100 39948 40238 58005 60006 81040 90000=
07481,1998-10-16 03:00:00,10,1022.9,-0.9,93,9,2000,0,,,0,,,,,,,,,,10,wg-a,,,,AAXX 16034 07481 12120 80000 10100 20090 39939 40229 58009 60006 71011 885// 90300=
07481,1998-10-16 06:00:00,11,1022.5,-0.2,100,11,6000,7.408,,,160,9.2,13.8,,,,,,,,,wg-a,,,,AAXX 16064 07481 02156 81604 10110 20110 39937 40225 57002 60006 885// 90600 333 10138 20092 60004=
07481,1998-10-16 09:00:00,13,1022.3,0,100,13,6000,11.112,,,160,,,,,,,,,,,wg-a,,,,AAXX 16094 07481 12156 71606 10130 20130 39937 40223 50000 60006 875// 90900=
07481,1998-10-16 12:00:00,19,1019.7,-2,68,13,15000,14.816,,,180,,,,,,,,,,,wg-a,,,,AAXX 16124 07481 12465 /1808 10190 20130 39917 40197 58020 60006 81101 91200=
07481,1998-10-16 15:00:00,21,1017.1,-2.4,56,12,25000,22.224,,42.596,170,,,,,,,,,,,wg-a,,,,AAXX 16154 07481 12/75 41712 10210 20120 39893 40171 56024 60006 80001 91500 333 91023=
07481,1998-10-16 18:00:00,18,1016.5,-0.9,64,11,25000,35.188,,48.152,190,11.4,21.4,,,,,,,,,wg-a,,,,AAXX 16184 07481 12/75 31919 10180 20110 39884 40165 56009 60006 81042 91800 333 10214 20114 91026=
07481,1998-10-16 21:00:00,17,1017.4,0.8,68,11,25000,29.632,,,190,,,,,,,,,,,wg-a,,,,AAXX 16214 07481 12/75 31916 10170 20110 39892 40174 53008 60006 81042 92100=
07481,1998-10-17 00:00:00,17,1016.4,-0.9,77,13,25000,38.892,,,200,,,,,,,,,,,wg-a,,,,AAXX 17004 07481 12/75 32021 10170 20130 39883 40164 56009 60006 80002 90000=
07481,1998-10-17 03:00:00,17,1015.6,-0.8,77,13,20000,25.928,,,190,,,,,,,,,,,wg-a,,,,AAXX 17034 07481 12/70 41914 10170 20130 39875 40156 57008 60006 81032 90300=
07481,1998-10-17 06:00:00,16,1014.8,-0.8,77,12,20000,29.632,,50.004,190,16.2,17.6,,,,,,,,,wg-a,,,,AAXX 17064 07481 02/70 21916 10160 20120 39867 40148 56008 60006 81031 90600 333 10176 20162 60004 91027=
07481,1998-10-17 09:00:00,18,1014.9,0.2,68,12,25000,42.596,,61.116,200,,,,,,,,,,,wg-a,,,,AAXX 17094 07481 12575 /2023 10180 20120 39869 40149 51002 60006 81132 90900 333 91033=
07481,1998-10-17 12:00:00,20,1014.2,-0.5,56,11,500,35.188,,64.82,200,,,,,,,,,,,wg-a,,,,AAXX 17124 07481 12600 /2019 10200 20110 39864 40142 57005 60006 81182 91200 333 91035=
07481,1998-10-17 15:00:00,19,1013.5,-0.7,60,11,500,29.632,,,200,,,,,,,,,,,wg-a,,,,AAXX 17154 07481 12/00 72016 10190 20110 39857 40135 55007 60006 86072 91500=
07481,1998-10-17 18:00:00,18,1014.3,0.7,68,12,20000,29.632,,,200,16.4,20.9,,,,,,,,,wg-a,,,,AAXX 17184 07481 12/70 82016 10180 20120 39864 40143 53007 60006 8707/ 91800 333 10209 20164=
07481,1998-10-17 21:00:00,16,1016,1.5,88,14,20000,25.928,,,190,,,,,,,,,,60,wg-a,,,,AAXX 17214 07481 02570 81914 10160 20140 39879 40160 53015 61000 76062 8757/ 92100 333 ////=
07481,1998-10-18 00:00:00,13,1019.1,2.6,94,12,12000,7.408,,,350,,,,3,,,,,,61,wg-a,,,,AAXX 18004 07481 02462 73504 10130 20120 39905 40191 53026 60036 76162 878// 90000 333 60037=
07481,1998-10-18 03:00:00,12,1019.7,0.5,94,11,12000,0,,,0,,,,2,,,,,,60,wg-a,,,,AAXX 18034 07481 12362 80000 10120 20110 39910 40197 51005 60027 76066 878// 90300=
07481,1998-10-18 06:00:00,12,1020.1,0.4,94,11,20000,3.704,,,350,11.5,18.1,,,,,5,,,1,wg-a,,,,AAXX 18064 07481 02370 /3502 10120 20110 39914 40201 51004 60006 70162 86800 90600 333 10181 20115 60054=
07481,1998-10-18 09:00:00,14,1020.8,0.8,82,11,18000,7.408,,,350,,,,,,,,,,,wg-a,,,,AAXX 18094 07481 12468 63504 10140 20110 39922 40208 51008 60006 86880 90900=
07481,1998-10-18 12:00:00,14,1019.7,-1,67,8,40000,7.408,,,30,,,,,,,,,,,wg-a,,,,AAXX 18124 07481 12682 70304 10140 20080 39912 40197 58010 60006 8683/ 91200=
07481,1998-10-18 15:00:00,15,1018.5,-1.1,59,7,40000,11.112,,,20,,,,,,,,,,,wg-a,,,,AAXX 18154 07481 12682 70206 10150 20070 39901 40185 56011 60006 8583/ 91500=
07481,1998-10-18 18:00:00,12,1018.5,-0.3,76,8,500,7.408,,,340,11.3,15,,,,,,,,,wg-a,,,,AAXX 18184 07481 12600 73404 10120 20080 39898 40185 55003 60006 85831 91800 333 10150 20113=
07481,1998-10-18 21:00:00,11,1018.5,-0.1,76,7,500,11.112,,,350,,,,,,,,,,,wg-a,,,,AAXX 18214 07481 12700 63506 10110 20070 39897 40185 58001 60006 83531 92100=
07481,1998-10-19 00:00:00,9,1017.5,-1.1,87,7,500,7.408,,,300,,,,,,,,,,,wg-a,,,,AAXX 19004 07481 12700 63004 10090 20070 39886 40175 56011 60006 82531 90000=
07481,1998-10-19 03:00:00,8,1016.1,-1.5,93,7,20000,3.704,,,20,,,,,,,,,,,wg-a,,,,AAXX 19034 07481 12770 70202 10080 20070 39871 40161 58015 60006 81552 90300=
07481,1998-10-19 06:00:00,7,1016.6,0.4,100,7,20000,7.408,,,320,7.2,11.9,,,,,,,,,wg-a,,,,AAXX 19064 07481 02770 63204 10070 20070 39875 40166 51004 60006 81531 90600 333 10119 20072 60004=
07481,1998-10-19 09:00:00,8,1018.2,1.6,81,5,8000,18.52,,,350,,,,,,,,,,,wg-a,,,,AAXX 19094 07481 12358 /3510 10080 20050 39891 40182 51016 60006 83231 90900=
07481,1998-10-19 12:00:00,13,1017.9,0.2,54,4,20000,25.928,,,10,,,,,,,,,,,wg-a,,,,AAXX 19124 07481 12570 20114 10130 20040 39893 40179 50002 60006 82201 91200=
07481,1998-10-19 15:00:00,13,1018.5,0.6,51,3,20000,25.928,,,10,,,,,,,,,,,wg-a,,,,AAXX 19154 07481 12670 20114 10130 20030 39899 40185 53006 60006 82200 91500=
07481,1998-10-19 18:00:00,9,1020.5,1.6,71,4,500,11.112,,,340,6.7,13.3,,,,,,,,,wg-a,,,,AAXX 19184 07481 12700 13406 10090 20040 39915 40205 53016 60006 815/0 91800 333 10133 20067=
07481,1998-10-19 21:00:00,7,1022.5,1.6,81,4,500,3.704,,,10,,,,,,,,,,,wg-a,,,,AAXX 19214 07481 12/00 00102 10070 20040 39931 40225 51016 60006 80000 92100=
07481,1998-10-20 00:00:00,6,1023.2,0.6,87,4,25000,0,,,0,,,,,,,,,,,wg-a,,,,AAXX 20004 07481 12/75 40000 10060 20040 39937 40232 50006 60006 84050 90000=
07481,1998-10-20 03:00:00,5,1023.6,0.3,93,4,20000,3.704,,,100,,,,,,,,,,,wg-a,,,,AAXX 20034 07481 12/70 31002 10050 20040 39940 40236 50003 60006 83030 90300=
07481,1998-10-20 06:00:00,4,1024.8,1.1,93,3,15000,3.704,,,340,4.1,9.2,,,,,,,,11,wg-a,,,,AAXX 20064 07481 02565 23402 10040 20030 39951 40248 53011 60006 71100 81530 90600 333 10092 20041 60004=
07481,1998-10-20 09:00:00,9,1025.5,1.2,81,6,20000,14.816,,,330,,,,,,,,,,,wg-a,,,,AAXX 20094 07481 12670 /3308 10090 20060 39963 40255 52012 60006 81800 90900=
07481,1998-10-20 12:00:00,13,1025.1,0,54,4,500,22.224,,,360,,,,,,,,,,,wg-a,,,,AAXX 20124 07481 12600 23612 10130 20040 39963 40251 50000 60006 82200 91200=
07481,1998-10-20 15:00:00,13,1024.6,-0.5,51,3,40000,22.224,,,350,,,,,,,,,,,wg-a,,,,AAXX 20154 07481 12682 /3512 10130 20030 39958 40246 56005 60006 81101 91500=
07481,1998-10-20 18:00:00,9,1025.8,0.8,71,4,40000,7.408,,,340,3.7,13.8,,,,,,,,,wg-a,,,,AAXX 20184 07481 12/82 03404 10090 20040 39966 40258 52008 60006 80000 91800 333 10138 20037=
07481,1998-10-20 21:00:00,7,1026.5,0.5,81,4,500,3.704,,,260,,,,,,,,,,,wg-a,,,,AAXX 20214 07481 12/00 02602 10070 20040 39971 40265 52005 60006 80000 92100=
07481,1998-10-21 00:00:00,7,1026.6,0,76,3,20000,11.112,,,210,,,,,,,,,,,wg-a,,,,AAXX 21004 07481 12/70 02106 10070 20030 39971 40266 50000 60006 80000 90000=
07481,1998-10-21 03:00:00,5,1026.4,-0.4,87,3,20000,7.408,,,160,,,,,,,,,,,wg-a,,,,AAXX 21034 07481 12/70 01604 10050 20030 39967 40264 55004 60006 80000 90300=
07481,1998-10-21 06:00:00,5,1026.3,-0,87,3,9000,7.408,,,190,3.9,8.7,,,,,,,,,wg-a,,,,AAXX 21064 07481 02/59 51904 10050 20030 39967 40263 55000 60006 81032 90600 333 10087 20039 60004=
07481,1998-10-21 09:00:00,9,1026.5,0.6,71,4,12000,11.112,,,190,,,,,,,,,,,wg-a,,,,AAXX 21094 07481 12662 71906 10090 20040 39973 40265 53006 60006 81532 90900=
07481,1998-10-21 15:00:00,18,1024,-0.3,37,3,75000,18.52,,,190,,,,0,,,,,,,wg-a,,,,AAXX 21154 07481 12789 61910 10180 20030 39957 40240 55003 60007 81582 91500=
07481,1998-10-21 18:00:00,16,1025.6,1.4,51,6,40000,18.52,,,180,5.2,18,,,,,,,,,wg-a,,,,AAXX 21184 07481 12/82 41810 10160 20060 39971 40256 53014 60006 81082 91800 333 10180 20052=
07481,1998-10-21 21:00:00,14,1027.1,1.3,67,8,500,18.52,,,190,,,,,,,,,,,wg-a,,,,AAXX 21214 07481 12/00 21910 10140 20080 39984 40271 51013 60006 80002 92100=
07481,1998-10-22 00:00:00,13,1027.7,0.5,77,9,10000,14.816,,,170,,,,,,,,,,,wg-a,,,,AAXX 22004 07481 12/60 /1708 10130 20090 39989 40277 51005 60006 90000=
07481,1998-10-22 03:00:00,11,1027.8,-0.1,87,9,25000,11.112,,,140,,,,,,,,,,,wg-a,,,,AAXX 22034 07481 12/75 11406 10110 20090 39988 40278 58001 60006 80001 90300=
07481,1998-10-22 06:00:00,11,1027.7,-0.1,87,9,12000,11.112,,,160,10.2,15.7,,,,,,,,,wg-a,,,,AAXX 22064 07481 02/62 31606 10110 20090 39987 40277 57001 60006 80001 90600 333 10157 20102 60004=
07481,1998-10-22 09:00:00,15,1028.4,1.1,67,9,18000,22.224,,,180,,,,,,,,,,,wg-a,,,,AAXX 22094 07481 12568 41812 10150 20090 39998 40284 50011 60006 81101 90900=
07481,1998-10-22 12:00:00,18,1027,-1.2,52,8,27000,29.632,,,190,,,,,,,,,,,wg-a,,,,AAXX 22124 07481 12677 /1916 10180 20080 39986 40270 58012 60006 81102 91200=
07481,1998-10-22 15:00:00,18,1026.6,-0.3,52,8,500,29.632,,,200,,,,,,,,,,,wg-a,,,,AAXX 22154 07481 12/00 52016 10180 20080 39983 40266 58003 60006 80002 91500=
07481,1998-10-22 18:00:00,16,1026.9,-0,68,10,500,29.632,,48.152,200,10.9,18.5,,,,,,,,,wg-a,,,,AAXX 22184 07481 12/00 12016 10160 20100 39983 40269 55000 60006 80002 91800 333 10185 20109 91026=
07481,1998-10-22 21:00:00,14,1028.1,1.1,82,11,25000,14.816,,,160,,,,,,,,,,,wg-a,,,,AAXX 22214 07481 12/75 01608 10140 20110 39994 40281 51011 60006 80000 92100=
07481,1998-10-23 00:00:00,13,1028.2,-0,82,10,20000,7.408,,,220,,,,,,,,,,,wg-a,,,,AAXX 23004 07481 12470 12204 10130 20100 39994 40282 55000 60006 81100 90000=
07481,1998-10-23 03:00:00,13,1026.2,-1.9,88,11,25000,18.52,,,170,,,,,,,,,,,wg-a,,,,AAXX 23034 07481 12/75 61710 10130 20110 39975 40262 58019 60006 83042 90300=
07481,1998-10-23 06:00:00,13,1026.1,-0.2,82,10,15000,14.816,,,170,13,15.5,,,,,,,,,wg-a,,,,AAXX 23064 07481 02465 41708 10130 20100 39973 40261 58002 60006 81502 90600 333 10155 20130 60004=
07481,1998-10-23 09:00:00,16,1025.7,-0.1,72,11,12000,18.52,,,190,,,,,,,,,,,wg-a,,,,AAXX 23094 07481 12562 /1910 10160 20110 39972 40257 58001 60006 81132 90900=
07481,1998-10-23 12:00:00,19,1024,-1.3,52,9,20000,22.224,,,190,,,,,,,,,,,wg-a,,,,AAXX 23124 07481 12/70 61912 10190 20090 39959 40240 57013 60006 81082 91200=
07481,1998-10-23 15:00:00,19,1022.3,-1.7,56,10,25000,22.224,,,190,,,,,,,,,,,wg-a,,,,AAXX 23154 07481 12875 71912 10190 20100 39942 40223 56017 60006 86052 91500=
07481,1998-10-23 18:00:00,17,1021.9,-0.6,68,11,17000,18.52,,,180,13.1,19.6,,,,,,,,,wg-a,,,,AAXX 23184 07481 12867 71810 10170 20110 39936 40219 55006 60006 86072 91800 333 10196 20131=
07481,1998-10-23 21:00:00,16,1020.7,-1.2,72,11,15000,18.52,,,180,,,,,,,,,,,wg-a,,,,AAXX 23214 07481 12865 71810 10160 20110 39924 40207 58012 60006 8707/ 92100=
07481,1998-10-24 00:00:00,15,1022.4,1.5,82,12,6000,25.928,,,320,,,,1,,,,,,80,wg-a,,,,AAXX 24004 07481 02456 73214 10150 20120 39939 40224 53015 60016 78086 879// 90000 333 60017=
07481,1998-10-24 03:00:00,10,1023.7,0.8,93,9,15000,3.704,,,30,,,,0,,,,,,3,wg-a,,,,AAXX 24034 07481 12665 /0302 10100 20090 39947 40237 53008 60007 70386 81500 90300=
07481,1998-10-24 06:00:00,12,1023.3,-0.2,88,10,20000,11.112,,,150,9.9,17,,,,,2,,,3,wg-a,,,,AAXX 24064 07481 02670 71506 10120 20100 39945 40233 58002 60006 70386 8253/ 90600 333 10170 20099 60024=
07481,1998-10-24 09:00:00,13,1022.4,-0.8,88,11,10000,7.408,,,280,,,,,,,,,,,wg-a,,,,AAXX 24094 07481 12660 72804 10130 20110 39937 40224 56008 60006 8157/ 90900=
07481,1998-10-24 12:00:00,18,1018.8,-3,56,9,500,11.112,,,240,,,,,,,,,,,wg-a,,,,AAXX 24124 07481 12500 52406 10180 20090 39907 40188 57030 60006 81132 91200=
07481,1998-10-24 15:00:00,18,1015.4,-3.4,49,7,500,11.112,,,180,,,,,,,,,,,wg-a,,,,AAXX 24154 07481 12/00 81806 10180 20070 39873 40154 56034 60006 8707/ 91500=
07481,1998-10-24 18:00:00,16,1012.7,-2.7,59,8,18000,18.52,,,160,11.5,18.2,,,,,,,,,wg-a,,,,AAXX 24184 07481 12768 71610 10160 20080 39846 40127 56027 60006 8357/ 91800 333 10182 20115=
07481,1998-10-24 21:00:00,17,1009.7,-2.9,52,7,20000,25.928,,,190,,,,,,,,,,21,wg-a,,,,AAXX 24214 07481 02670 81914 10170 20070 39817 40097 58029 61000 72162 8357/ 92100 333 ////=
07481,1998-10-25 00:00:00,18,1005.6,-3.9,49,7,18000,35.188,,,190,,,,,,,,,,21,wg-a,,,,AAXX 25004 07481 02668 81919 10180 20070 39778 40056 58039 61000 72162 8457/ 90000 333 6100=
07481,1998-10-25 03:00:00,15,1004.2,-1.5,82,12,20000,31.484,,,200,,,,1,,,,,,61,wg-a,,,,AAXX 25034 07481 12570 82017 10150 20120 39763 40042 56015 60017 76162 885// 90300=
07481,1998-10-25 06:00:00,12,1007.6,3,88,10,20000,11.112,,,310,12.4,17.9,,,,,,,,61,wg-a,,,,AAXX 25064 07481 02570 83106 10120 20100 39793 40076 51030 61000 76162 885// 90600 333 10179 20124 6005=
07481,1998-10-25 09:00:00,13,1009.8,2.2,72,8,35000,0,,,0,,,,0,,,,,,21,wg-a,,,,AAXX 25094 07481 12481 70000 10130 20080 39815 40098 53022 60007 72162 8387/ 90900=
07481,1998-10-25 12:00:00,15,1009.5,-0.1,63,8,35000,7.408,,,290,,,,0,,,,,,1,wg-a,,,,AAXX 25124 07481 02681 72904 10150 20080 39814 40095 58001 60016 70162 81872 91200 333 60007=
07481,1998-10-25 15:00:00,13,1010,0.3,82,10,12000,7.408,,,210,,,,1,,,,,,80,wg-a,,,,AAXX 25154 07481 12562 72104 10130 20100 39817 40100 53003 60017 78086 8284/ 91500=
07481,1998-10-25 18:00:00,11,1012.1,1.8,82,8,40000,11.112,,,260,10.7,16.8,,,,,,,,25,wg-a,,,,AAXX 25184 07481 02882 /2606 10110 20080 39835 40121 53018 61000 72586 81/41 91800 333 10168 20107 6001=
07481,1998-10-25 21:00:00,11,1014.2,2,76,7,25000,7.408,,,270,,,,,,,,,,,wg-a,,,,AAXX 25214 07481 12875 52704 10110 20070 39855 40142 53020 60006 83042 92100=
07481,1998-10-26 00:00:00,9,1015.1,0.7,81,6,25000,7.408,,,260,,,,,,,,,,,wg-a,,,,AAXX 26004 07481 12575 /2604 10090 20060 39862 40151 53007 60006 83530 90000=
07481,1998-10-26 03:00:00,9,1015.4,0.2,87,7,18000,11.112,,,180,,,,,,,,,,21,wg-a,,,,AAXX 26034 07481 02568 /1806 10090 20070 39864 40154 50002 61000 72161 81530 90300 333 ////=
07481,1998-10-26 06:00:00,9,1017,1.6,87,7,20000,7.408,,,180,8,10.8,,,,,2,,,3,wg-a,,,,AAXX 26064 07481 02570 71804 10090 20070 39880 40170 52016 60006 70361 878// 90600 333 10108 20080 60024=
07481,1998-10-26 09:00:00,12,1018.6,1.9,62,5,500,3.704,,,230,,,,,,,,,,,wg-a,,,,AAXX 26094 07481 12500 /2302 10120 20050 39899 40186 51019 60006 81802 90900=
07481,1998-10-26 12:00:00,14,1017.9,-0.5,51,4,500,7.408,,,170,,,,,,,,,,,wg-a,,,,AAXX 26124 07481 12600 71704 10140 20040 39894 40179 58005 60006 8225/ 91200=
07481,1998-10-26 15:00:00,13,1016.4,-1.6,67,7,8000,11.112,,,210,,,,0,,,,,,60,wg-a,,,,AAXX 26154 07481 12658 72106 10130 20070 39878 40164 55016 60007 76062 8527/ 91500=
07481,1998-10-27 00:00:00,8,1024.6,1.9,87,6,40000,3.704,,,290,,,,0,,,,,,25,wg-a,,,,AAXX 27004 07481 02682 32902 10080 20060 39954 40246 52019 60016 72586 82240 90000 333 60007=
07481,1998-10-27 03:00:00,9,1026,1.3,87,7,500,3.704,,,160,,,,0,,,,,,,wg-a,,,,AAXX 27034 07481 12600 /1602 10090 20070 39967 40260 51013 60007 81830 90300=
07481,1998-10-27 06:00:00,8,1027.7,1.7,87,6,25000,11.112,,,170,7.6,9.8,,,,,4,,,,wg-a,,,,AAXX 27064 07481 02575 41706 10080 20060 39984 40277 51017 60006 83830 90600 333 10098 20076 60044=
07481,1998-10-27 09:00:00,12,1028.4,1,76,8,15000,3.704,,,200,,,,,,,,,,,wg-a,,,,AAXX 27094 07481 12565 /2002 10120 20080 39994 40284 50010 60006 81100 90900=
07481,1998-10-27 12:00:00,14,1026.9,-1.2,47,3,500,7.408,,,230,,,,,,,,,,,wg-a,,,,AAXX 27124 07481 12600 52304 10140 20030 39982 40269 58012 60006 81102 91200=
07481,1998-10-27 15:00:00,15,1025.5,-1.3,36,0,500,7.408,,,180,,,,,,,,,,,wg-a,,,,AAXX 27154 07481 12700 61804 10150 20000 39969 40255 56013 60006 81102 91500=
07481,1998-10-27 18:00:00,12,1025.4,-0.4,62,5,500,7.408,,,150,7.8,15.8,,,,,,,,,wg-a,,,,AAXX 27184 07481 12/00 71504 10120 20050 39965 40254 55004 60006 85032 91800 333 10158 20078=
07481,1998-10-27 21:00:00,12,1024.3,-1.1,54,3,500,14.816,,,170,,,,,,,,,,,wg-a,,,,AAXX 27214 07481 12/00 71708 10120 20030 39954 40243 56011 60006 85032 92100=
07481,1998-10-28 00:00:00,13,1022.9,-1.2,54,4,500,25.928,,,190,,,,,,,,,,,wg-a,,,,AAXX 28004 07481 12/00 71914 10130 20040 39942 40229 58012 60006 85032 90000=
07481,1998-10-28 03:00:00,14,1022,-0.8,51,4,10000,22.224,,,190,,,,,,,,,,,wg-a,,,,AAXX 28034 07481 12/60 /1912 10140 20040 39934 40220 58008 60006 90300=
07481,1998-10-28 06:00:00,12,1023,0.8,71,7,20000,18.52,,,140,11.4,13.9,,,,,,,,60,wg-a,,,,AAXX 28064 07481 02470 81410 10120 20070 39942 40230 50008 61000 76062 885// 90600 333 10139 20114 6100=
07481,1998-10-28 09:00:00,14,1023.3,0.5,58,6,40000,18.52,,,160,,,,,,,,,,1,wg-a,,,,AAXX 28094 07481 02682 71610 10140 20060 39947 40233 50005 61000 70162 8557/ 90900 333 ////=
07481,1998-10-28 12:00:00,19,1021.9,-0.9,46,7,40000,22.224,,38.892,200,,,,,,,,,,1,wg-a,,,,AAXX 28124 07481 02/82 /2012 10190 20070 39938 40219 58009 61000 70162 86040 91200 333 //// 91021=
07481,1998-10-28 18:00:00,16,1022.1,1.2,63,9,40000,14.816,,,210,11.9,21,,,,,,,,,wg-a,,,,AAXX 28184 07481 12882 32108 10160 20090 39938 40221 53012 60006 83040 91800 333 10210 20119=
07481,1998-10-28 21:00:00,16,1021.3,-0.9,59,8,500,18.52,,,220,,,,,,,,,,,wg-a,,,,AAXX 28214 07481 12/00 62210 10160 20080 39929 40213 58009 60006 86051 92100=
07481,1998-10-29 00:00:00,16,1020.3,-0.9,59,8,500,18.52,,,190,,,,,,,,,,,wg-a,,,,AAXX 29004 07481 12/00 61910 10160 20080 39920 40203 56009 60006 86031 90000=
07481,1998-10-29 03:00:00,15,1018.2,-2.1,63,8,500,22.224,,,190,,,,,,,,,,,wg-a,,,,AAXX 29034 07481 12700 71912 10150 20080 39899 40182 58021 60006 8253/ 90300=
07481,1998-10-29 06:00:00,15,1016.7,-1.5,63,8,35000,22.224,,,190,14.9,17.6,,,,,,,,,wg-a,,,,AAXX 29064 07481 02781 71912 10150 20080 39884 40167 58015 60006 8257/ 90600 333 10176 20149 61000=
07481,1998-10-29 09:00:00,16,1015.6,-1.1,59,8,40000,25.928,,,180,,,,,,,,,,,wg-a,,,,AAXX 29094 07481 12682 71814 10160 20080 39873 40156 58011 60006 8357/ 90900=
07481,1998-10-29 12:00:00,9,1024.4,8,87,7,15000,18.52,,,340,,,,4,,,,,,61,wg-a,,,,AAXX 29124 07481 02465 83410 10090 20070 39953 40244 53080 60046 76162 8687/ 91200 333 60047=
07481,1998-10-29 18:00:00,10,1027.2,1.6,82,7,25000,14.816,,,170,9.2,15.9,,,,,,,,1,wg-a,,,,AAXX 29184 07481 12575 51708 10100 20070 39981 40272 53016 60006 70162 85800 91800 333 10159 20092=
07481,1998-10-29 21:00:00,8,1028.6,1.1,87,6,25000,14.816,,,180,,,,,,,,,,,wg-a,,,,AAXX 29214 07481 12675 /1808 10080 20060 39992 40286 51011 60006 81500 92100=
07481,1998-10-30 00:00:00,5,1029,0.1,100,5,25000,7.408,,,150,,,,,,,,,,,wg-a,,,,AAXX 30004 07481 12675 /1504 10050 20050 39993 40290 50001 60006 81200 90000=
07481,1998-10-30 03:00:00,5,1028.1,-0.9,93,4,500,11.112,,,140,,,,,,,,,,,wg-a,,,,AAXX 30034 07481 12600 41406 10050 20040 39984 40281 58009 60006 84500 90300=
07481,1998-10-30 06:00:00,6,1027.8,-0.2,87,4,20000,7.408,,,190,4.8,10.1,,,,,4,,,,wg-a,,,,AAXX 30064 07481 02670 41904 10060 20040 39982 40278 58002 60006 84500 90600 333 10101 20048 60044=
07481,1998-10-30 12:00:00,12,1025.5,-1.7,54,3,500,11.112,,,260,,,,,,,,,,,wg-a,,,,AAXX 30124 07481 12600 72606 10120 20030 39966 40255 58017 60006 8187/ 91200=
07481,1998-10-30 15:00:00,12,1024.2,-1.3,54,3,11000,11.112,,,240,,,,,,,,,,,wg-a,,,,AAXX 30154 07481 12/61 /2406 10120 20030 39953 40242 56013 60006 91500=
07481,1998-10-30 18:00:00,11,1023.7,-0.5,66,5,25000,11.112,,,260,5.4,12.4,,,,,,,,,wg-a,,,,AAXX 30184 07481 12675 72606 10110 20050 39948 40237 56005 60006 875// 91800 333 10124 20054=
07481,1998-10-30 21:00:00,11,1023.8,-0,76,7,18000,11.112,,,260,,,,,,,,,,60,wg-a,,,,AAXX 30214 07481 02668 82606 10110 20070 39948 40238 55000 61000 76062 875// 92100 333 ////=
07481,1998-10-31 00:00:00,9,1024.1,0.1,93,8,12000,7.408,,,210,,,,2,,,,,,61,wg-a,,,,AAXX 31004 07481 02662 82104 10090 20080 39949 40241 50001 60026 76162 875// 90000 333 60027=
07481,1998-10-31 03:00:00,9,1022.7,-1.3,93,8,15000,3.704,,,120,,,,0,,,,,,21,wg-a,,,,AAXX 31034 07481 12565 81202 10090 20080 39936 40227 58013 60007 72162 875// 90300=
07481,1998-10-31 06:00:00,8,1022.3,-0.5,100,8,15000,3.704,,,170,8.2,11.3,,,,,,,,21,wg-a,,,,AAXX 31064 07481 02265 81702 10080 20080 39931 40223 55005 61000 72162 875// 90600 333 10113 20082 6003=
07481,1998-10-31 09:00:00,9,1021.8,-0.4,93,8,12000,7.408,,,110,,,,,,,,,,,wg-a,,,,AAXX 31094 07481 12262 81104 10090 20080 39927 40218 58004 60006 875// 90900=
07481,1998-10-31 12:00:00,13,1018.6,-2.7,67,7,15000,7.408,,,140,,,,,,,,,,,wg-a,,,,AAXX 31124 07481 12365 71404 10130 20070 39900 40186 58027 60006 82832 91200=
07481,1998-10-31 15:00:00,14,1016.3,-2.2,58,6,500,7.408,,,150,,,,,,,,,,,wg-a,,,,AAXX 31154 07481 12400 51504 10140 20060 39878 40163 56022 60006 81132 91500=
07481,1998-10-31 18:00:00,11,1015,-1.5,76,7,500,11.112,,,150,8.2,14.7,,,,,,,,,wg-a,,,,AAXX 31184 07481 12700 71506 10110 20070 39863 40150 56015 60006 81532 91800 333 10147 20082=
07481,1998-10-31 21:00:00,11,1012.9,-2,71,6,10000,14.816,,,200,,,,,,,,,,,wg-a,,,,AAXX 31214 07481 12/60 /2008 10110 20060 39843 40129 56020 60006 92100=
07481,1998-11-01 00:00:00,12,1009.6,-3.2,67,6,20000,22.224,,,190,,,,0,,,,,,60,wg-a,,,,AAXX 01004 07481 02570 71912 10120 20060 39811 40096 58032 60006 76062 875// 90000 333 60007=
07481,1998-11-01 03:00:00,12,1007.6,-1.9,62,5,20000,22.224,,,190,,,,,,,,,,1,wg-a,,,,AAXX 01034 07481 02570 81912 10120 20050 39792 40076 56019 61000 70162 8357/ 90300 333 ////=
07481,1998-11-01 06:00:00,13,1006,-1.5,54,4,20000,25.928,,,190,10.5,12.8,,,,,,,,60,wg-a,,,,AAXX 01064 07481 02570 81914 10130 20040 39777 40060 56015 61000 76062 8457/ 90600 333 10128 20105 6000=
07481,1998-11-01 09:00:00,12,1007.5,1.4,76,8,12000,25.928,,,190,,,,1,,,,,,60,wg-a,,,,AAXX 01094 07481 12562 81914 10120 20080 39791 40075 51014 60017 76086 878// 90900=
07481,1998-11-01 12:00:00,14,1007.1,-0.1,72,9,7000,18.52,,,190,,,,,,,,,,81,wg-a,,,,AAXX 01124 07481 02557 /1910 10140 20090 39790 40071 58001 60016 78186 85830 91200 333 61000=
07481,1998-11-01 15:00:00,13,1010.3,3,88,11,20000,3.704,,,20,,,,3,,,,,,3,wg-a,,,,AAXX 01154 07481 12470 70202 10130 20110 39820 40103 51030 60037 70386 878// 91500=
07481,1998-11-02 00:00:00,8,1015,0.2,87,6,20000,3.704,,,310,,,,,,,,,,,wg-a,,,,AAXX 02004 07481 12/70 13102 10080 20060 39860 40150 50002 60006 81040 90000=
07481,1998-11-02 03:00:00,6,1014.2,-1,93,5,10000,3.704,,,210,,,,,,,,,,,wg-a,,,,AAXX 02034 07481 12/60 02102 10060 20050 39850 40142 58010 60006 80000 90300=
07481,1998-11-02 06:00:00,4,1013.5,-0.9,93,3,3000,3.704,,,40,3.6,11.3,,,,,4,,,10,wg-a,,,,AAXX 02064 07481 02/30 10402 10040 20030 39841 40135 58009 60006 71000 80001 90600 333 10113 20036 60044=
07481,1998-11-02 09:00:00,6,1012.9,-0.3,100,6,200,7.408,,,140,,,,,,,,,,41,wg-a,,,,AAXX 02094 07481 12002 31404 10060 20060 39838 40129 58003 60006 74140 83601 90900=
07481,1998-11-02 12:00:00,10,1010.4,-2,82,7,12000,7.408,,,130,,,,,,,,,,3,wg-a,,,,AAXX 02124 07481 12362 /1304 10100 20070 39818 40104 58020 60006 70341 81105 91200=
07481,1998-11-02 15:00:00,14,1007.2,-2.8,63,7,25000,11.112,,,150,,,,,,,,,,,wg-a,,,,AAXX 02154 07481 12/75 51506 10140 20070 39790 40072 56028 60006 84059 91500=
07481,1998-11-02 18:00:00,13,1006,-1.3,58,5,20000,18.52,,,160,3.1,13.5,,,,,,,,,wg-a,,,,AAXX 02184 07481 12770 /1610 10130 20050 39777 40060 56013 60006 83530 91800 333 10135 20031=
07481,1998-11-02 21:00:00,13,1005.6,-0.3,72,8,20000,29.632,,,190,,,,,,,,,,21,wg-a,,,,AAXX 02214 07481 02570 71916 10130 20080 39774 40056 56003 61000 72162 878// 92100 333 ////=
07481,1998-11-03 00:00:00,13,1005.4,-0.2,82,10,20000,31.484,,,190,,,,,,,,,,1,wg-a,,,,AAXX 03004 07481 02770 71917 10130 20100 39772 40054 58002 61000 70162 875// 90000 333 ////=
07481,1998-11-03 03:00:00,13,1004.1,-1.2,82,10,18000,29.632,,53.708,190,,,,,,,,,,,wg-a,,,,AAXX 03034 07481 12868 51916 10130 20100 39760 40041 58012 60006 85200 90300 333 91029=
07481,1998-11-03 06:00:00,13,1004.3,0.2,88,11,15000,22.224,,,190,12.6,13.8,,,,,,,,,wg-a,,,,AAXX 03064 07481 02565 71912 10130 20110 39762 40043 51002 60006 878// 90600 333 10138 20126 61000=
07481,1998-11-03 09:00:00,14,1005.4,1.1,82,11,25000,18.52,,,190,,,,,,,,,,,wg-a,,,,AAXX 03094 07481 12475 71910 10140 20110 39773 40054 50011 60006 8553/ 90900=
07481,1998-11-03 12:00:00,16,1003.8,-1.4,68,10,500,18.52,,,200,,,,,,,,,,,wg-a,,,,AAXX 03124 07481 12500 72010 10160 20100 39759 40038 58014 60006 8387/ 91200=
07481,1998-11-03 15:00:00,16,1002.7,-1,68,10,25000,18.52,,,200,,,,,,,,,,,wg-a,,,,AAXX 03154 07481 12575 72010 10160 20100 39749 40027 55010 60006 8487/ 91500=
07481,1998-11-03 18:00:00,10,1004.9,1.5,93,9,18000,7.408,,,60,9.8,16.8,,,,,,,,21,wg-a,,,,AAXX 03184 07481 02468 80604 10100 20090 39764 40049 53015 61000 72162 8787/ 91800 333 10168 20098 6002=
07481,1998-11-03 21:00:00,9,1004.7,-0.2,93,8,20000,3.704,,,140,,,,,,,,,,3,wg-a,,,,AAXX 03214 07481 02470 71402 10090 20080 39762 40047 55002 61000 70362 875// 92100 333 ////=
07481,1998-11-04 00:00:00,9,1003.4,-1.3,100,9,7000,7.408,,,310,,,,0,,,,,,61,wg-a,,,,AAXX 04004 07481 02257 83104 10090 20090 39749 40034 56013 60016 76162 885// 90000 333 60007=
07481,1998-11-04 03:00:00,9,1004,0.5,93,8,9000,3.704,,,10,,,,10,,,,,,61,wg-a,,,,AAXX 04034 07481 12259 80102 10090 20080 39754 40040 53005 60107 76166 888// 90300=
07481,1998-11-04 06:00:00,8,1005,0.9,93,7,18000,14.816,,,150,8,10.4,,,,,15,,,1,wg-a,,,,AAXX 04064 07481 02668 81508 10080 20070 39763 40050 51009 60006 70162 888// 90600 333 10104 20080 60154=
07481,1998-11-04 12:00:00,11,1007.5,1,82,8,20000,7.408,,,250,,,,,,,,,,,wg-a,,,,AAXX 04124 07481 12670 72504 10110 20080 39790 40075 50010 60006 8487/ 91200=
07481,1998-11-04 15:00:00,12,1007.9,0.5,58,4,20000,3.704,,,200,,,,,,,,,,,wg-a,,,,AAXX 04154 07481 12670 /2002 10120 20040 39795 40079 53005 60006 81870 91500=
07481,1998-11-04 18:00:00,9,1010.2,1.9,87,7,500,11.112,,,180,8.1,12.2,,,,,,,,25,wg-a,,,,AAXX 04184 07481 02500 71806 10090 20070 39814 40102 53019 61000 72586 84840 91800 333 10122 20081 6002=
07481,1998-11-04 21:00:00,6,1012.6,2.1,93,5,20000,3.704,,,130,,,,,,,,,,,wg-a,,,,AAXX 04214 07481 12670 51302 10060 20050 39835 40126 53021 60006 85530 92100=
07481,1998-11-05 00:00:00,7,1014.5,2,93,6,15000,7.408,,,240,,,,,,,,,,,wg-a,,,,AAXX 05004 07481 12665 72404 10070 20060 39855 40145 53020 60006 8557/ 90000=
07481,1998-11-05 03:00:00,7,1016.8,2.1,87,5,15000,3.704,,,340,,,,,,,,,,,wg-a,,,,AAXX 05034 07481 12565 73402 10070 20050 39876 40168 51021 60006 875// 90300=
07481,1998-11-05 06:00:00,5,1019.3,2.2,93,4,15000,0,,,0,4.6,8.8,,,,,2,,,12,wg-a,,,,AAXX 05064 07481 02665 20000 10050 20040 39898 40193 52022 60006 71211 82500 90600 333 10088 20046 60024=
07481,1998-11-05 09:00:00,8,1021.7,2.7,81,5,18000,14.816,,,10,,,,,,,,,,,wg-a,,,,AAXX 05094 07481 12468 20108 10080 20050 39925 40217 51027 60006 82800 90900=
07481,1998-11-05 11:00:00,9,1022.9,1.3,71,4,11000,14.816,,,360,,,,,,,,,,,wg-a,,,,AAXX 05114 07481 12561 33608 10090 20040 39938 40229 51013 60006 83200 91100=
07481,1998-11-05 12:00:00,10,1022.8,1.3,53,1,25000,14.816,,,360,,,,,,,,,,,wg-a,,,,AAXX 05124 07481 12575 33608 10100 20010 39938 40228 51013 60006 83200 91200=
07481,1998-11-05 15:00:00,10,1023.2,0.4,53,1,25000,18.52,,,350,,,,,,,,,,,wg-a,,,,AAXX 05154 07481 12675 /3510 10100 20010 39942 40232 53004 60006 81100 91500=
07481,1998-11-05 18:00:00,6,1024.9,1.2,75,2,25000,11.112,,,360,4.2,10.8,,,,,,,,,wg-a,,,,AAXX 05184 07481 12775 13606 10060 20020 39954 40249 53012 60006 81500 91800 333 10108 20042=
07481,1998-11-05 21:00:00,3,1026.6,1.3,87,1,20000,3.704,,,330,,,,,,,,,,,wg-a,,,,AAXX 05214 07481 12/70 03302 10030 20010 39967 40266 53013 60006 80000 92100=
07481,1998-11-06 00:00:00,2,1027.9,1.2,93,1,15000,7.408,,,270,,,,,,,,,,,wg-a,,,,AAXX 06004 07481 12/65 02704 10020 20010 39979 40279 51012 60006 80000 90000=
07481,1998-11-06 03:00:00,1,1028.7,0.6,93,0,15000,0,,,0,,,,,,,,,,,wg-a,,,,AAXX 06034 07481 12/65 00000 10010 20000 39985 40287 51006 60006 80000 90300=
07481,1998-11-06 06:00:00,0,1029.6,0.8,93,-1,6000,3.704,,,110,0,6.3,,,,,,,,11,wg-a,,,,AAXX 06064 07481 02/56 01102 10000 21010 39993 40296 53008 60006 71100 80000 90600 333 10063 20000 60004=
07481,1998-11-06 09:00:00,3,1030.9,1.6,87,1,8000,3.704,,,60,,,,,,,,,,,wg-a,,,,AAXX 06094 07481 12/58 00602 10030 20010 30009 40309 51016 60006 80000 90900=
07481,1998-11-06 12:00:00,9,1029.4,-0.9,66,3,20000,11.112,,,330,,,,,,,,,,,wg-a,,,,AAXX 06124 07481 12570 /3306 10090 20030 30000 40294 58009 60006 81800 91200=
07481,1998-11-06 15:00:00,11,1028.5,-0.6,58,3,11000,18.52,,,350,,,,,,,,,,,wg-a,,,,AAXX 06154 07481 12/61 /3510 10110 20030 39994 40285 55006 60006 91500=
07481,1998-11-06 18:00:00,7,1029.9,0.9,81,4,18000,7.408,,,10,-0.1,10.9,,,,,,,,,wg-a,,,,AAXX 06184 07481 12768 /0104 10070 20040 30003 40299 53009 60006 81500 91800 333 10109 21001=
07481,1998-11-06 21:00:00,5,1030.8,0.7,87,3,18000,3.704,,,50,,,,,,,,,,,wg-a,,,,AAXX 06214 07481 12868 30502 10050 20030 30010 40308 52007 60006 83030 92100=
07481,1998-11-07 00:00:00,3,1030.7,-0.3,93,2,18000,3.704,,,340,,,,,,,,,,,wg-a,,,,AAXX 07004 07481 12768 13402 10030 20020 30007 40307 55003 60006 81500 90000=
07481,1998-11-07 03:00:00,3,1030.1,-0.6,93,2,10000,3.704,,,160,,,,,,,,,,,wg-a,,,,AAXX 07034 07481 12/60 01602 10030 20020 30001 40301 56006 60006 80000 90300=
07481,1998-11-07 06:00:00,4,1030.3,0.3,93,3,400,7.408,,,360,1.7,6.5,,,,,,,,10,wg-a,,,,AAXX 07064 07481 02104 83604 10040 20030 30004 40303 52003 60006 71041 886// 90600 333 10065 20017 60004=
07481,1998-11-07 09:00:00,4,1031,0.7,93,3,400,3.704,,,340,,,,,,,,,,43,wg-a,,,,AAXX 07094 07481 12/04 93402 10040 20030 30011 40310 51007 60006 74344 89/// 90900=
07481,1998-11-07 12:00:00,5,1029.6,-1.2,93,4,9000,3.704,,,80,,,,,,,,,,1,wg-a,,,,AAXX 07124 07481 12259 /0802 10050 20040 39999 40296 58012 60006 70142 876// 91200=
07481,1998-11-07 15:00:00,9,1028.1,-1.1,71,4,10000,3.704,,,110,,,,,,,,,,,wg-a,,,,AAXX 07154 07481 12/60 /1102 10090 20040 39988 40281 56011 60006 91500=
07481,1998-11-07 18:00:00,4,1029,0.4,93,3,12000,7.408,,,120,3.4,9.5,,,,,,,,,wg-a,,,,AAXX 07184 07481 12/62 01204 10040 20030 39992 40290 53004 60006 80000 91800 333 10095 20034=
07481,1998-11-07 21:00:00,3,1029.5,0.3,93,2,6000,14.816,,,150,,,,,,,,,,11,wg-a,,,,AAXX 07214 07481 12/56 01508 10030 20020 39995 40295 50003 60006 71100 80000 92100=
07481,1998-11-08 00:00:00,2,1029,-0.5,93,1,10000,0,,,0,,,,,,,,,,11,wg-a,,,,AAXX 08004 07481 12/60 00000 10020 20010 39990 40290 55005 60006 71100 80000 90000=
07481,1998-11-08 03:00:00,3,1029,-0,81,0,10000,3.704,,,100,,,,,,,,,,,wg-a,,,,AAXX 08034 07481 12/60 /1002 10030 20000 39990 40290 55000 60006 90300=
07481,1998-11-08 06:00:00,2,1029.3,0.3,93,1,12000,7.408,,,130,1.6,4.6,,,,,,,,,wg-a,,,,AAXX 08064 07481 02/62 01304 10020 20010 39993 40293 51003 60006 80000 90600 333 10046 20016 60004=
07481,1998-11-08 09:00:00,10,1029.4,0.9,71,5,18000,22.224,,,140,,,,,,,,,,,wg-a,,,,AAXX 08094 07481 12/68 21412 10100 20050 30002 40294 53009 60006 80001 90900=
07481,1998-11-08 12:00:00,14,1027.5,-1.4,47,3,25000,29.632,,,180,,,,,,,,,,,wg-a,,,,AAXX 08124 07481 12/75 51816 10140 20030 39988 40275 58014 60006 80002 91200=
07481,1998-11-08 15:00:00,15,1026.8,-0.7,41,2,500,25.928,,,180,,,,,,,,,,,wg-a,,,,AAXX 08154 07481 12/00 51814 10150 20020 39981 40268 58007 60006 80002 91500=
07481,1998-11-08 18:00:00,9,1028.2,0.8,71,4,500,11.112,,,140,2.4,15.9,,,,,,,,,wg-a,,,,AAXX 08184 07481 12/00 41406 10090 20040 39989 40282 52008 60006 80002 91800 333 10159 20024=
07481,1998-11-08 21:00:00,7,1028.5,-0,76,3,20000,7.408,,,110,,,,,,,,,,,wg-a,,,,AAXX 08214 07481 12/70 21104 10070 20030 39989 40285 55000 60006 80002 92100=
07481,1998-11-09 00:00:00,5,1028.5,-0.1,93,4,18000,7.408,,,140,,,,,,,,,,,wg-a,,,,AAXX 09004 07481 12/68 41404 10050 20040 39988 40285 57001 60006 80002 90000=
07481,1998-11-09 03:00:00,4,1027.6,-1,87,2,15000,0,,,0,,,,,,,,,,,wg-a,,,,AAXX 09034 07481 12/65 20000 10040 20020 39978 40276 58010 60006 80001 90300=
07481,1998-11-09 06:00:00,5,1027.1,-0.4,87,3,12000,11.112,,,150,3.4,9.3,,,,,,,,,wg-a,,,,AAXX 09064 07481 02/62 11506 10050 20030 39974 40271 56004 60006 80001 90600 333 10093 20034 60004=
07481,1998-11-09 09:00:00,9,1027.1,0.5,76,5,9000,3.704,,,160,,,,,,,,,,,wg-a,,,,AAXX 09094 07481 12/59 /1602 10090 20050 39979 40271 50005 60006 81041 90900=
07481,1998-11-09 12:00:00,15,1024.8,-1.6,55,6,10000,7.408,,,130,,,,,,,,,,,wg-a,,,,AAXX 09124 07481 12/60 21304 10150 20060 39963 40248 58016 60006 80001 91200=
07481,1998-11-09 15:00:00,16,1023.5,-1.3,51,6,10000,3.704,,,30,,,,,,,,,,,wg-a,,,,AAXX 09154 07481 12/60 40302 10160 20060 39950 40235 56013 60006 83052 91500=
07481,1998-11-09 18:00:00,12,1024.1,0.3,76,8,15000,3.704,,,160,4.3,17.7,,,,,,,,,wg-a,,,,AAXX 09184 07481 12/65 61602 10120 20080 39953 40241 53003 60006 86070 91800 333 10177 20043=
07481,1998-11-09 21:00:00,11,1024,-0.3,66,5,15000,14.816,,,160,,,,,,,,,,,wg-a,,,,AAXX 09214 07481 12/65 61608 10110 20050 39950 40240 58003 60006 86030 92100=
07481,1998-11-10 00:00:00,11,1022.5,-1.4,76,7,12000,3.704,,,140,,,,,,,,,,,wg-a,,,,AAXX 10004 07481 12462 71402 10110 20070 39936 40225 58014 60006 875// 90000=
07481,1998-11-10 03:00:00,11,1020.5,-1.9,66,5,12000,11.112,,,160,,,,,,,,,,,wg-a,,,,AAXX 10034 07481 12562 71606 10110 20050 39917 40205 58019 60006 875// 90300=
07481,1998-11-10 06:00:00,10,1019.3,-1.3,87,8,8000,11.112,,,240,9.7,12.8,,,,,,,,60,wg-a,,,,AAXX 10064 07481 02358 72406 10100 20080 39904 40193 56013 61000 76062 875// 90600 333 10128 20097 6001=
07481,1998-11-10 09:00:00,10,1019.3,-0,100,10,1000,3.704,,,300,,,,6,,,,,,10,wg-a,,,,AAXX 10094 07481 12210 83002 10100 20100 39904 40193 55000 60067 71066 888// 90900=
07481,1998-11-10 12:00:00,11,1020.6,1.4,94,10,500,0,,,0,,,,5,,,,,,21,wg-a,,,,AAXX 10124 07481 02400 70000 10110 20100 39918 40206 50014 60116 72164 8587/ 91200 333 60057=
07481,1998-11-10 15:00:00,12,1020.5,0,88,10,12000,11.112,,,150,,,,0,,,,,,60,wg-a,,,,AAXX 10154 07481 12562 81506 10120 20100 39918 40205 50000 60007 76062 8687/ 91500=
07481,1998-11-10 18:00:00,11,1021.1,0.4,87,9,18000,7.408,,,280,9.6,12.2,,,,,,,,25,wg-a,,,,AAXX 10184 07481 02468 82804 10110 20090 39922 40211 53004 61000 72586 8687/ 91800 333 10122 20096 6001=
07481,1998-11-10 21:00:00,8,1023.4,2,87,6,500,11.112,,,320,,,,,,,,,,,wg-a,,,,AAXX 10214 07481 12500 33206 10080 20060 39942 40234 51020 60006 81531 92100=
07481,1998-11-11 00:00:00,7,1025.1,1.5,87,5,500,25.928,,,340,,,,,,,,,,,wg-a,,,,AAXX 11004 07481 12500 33414 10070 20050 39957 40251 52015 60006 81530 90000=
07481,1998-11-11 03:00:00,5,1026.1,0.8,87,3,500,14.816,,,340,,,,,,,,,,,wg-a,,,,AAXX 11034 07481 12/00 23408 10050 20030 39965 40261 51008 60006 82030 90300=
07481,1998-11-11 06:00:00,4,1026.6,0.4,93,3,25000,22.224,,,340,4.2,10.5,,,,,13,,,,wg-a,,,,AAXX 11064 07481 02475 /3412 10040 20030 39969 40266 50004 60006 81530 90600 333 10105 20042 60134=
07481,1998-11-11 09:00:00,6,1027.5,1,87,4,20000,18.52,,,340,,,,,,,,,,,wg-a,,,,AAXX 11094 07481 12470 /3410 10060 20040 39979 40275 50010 60006 81100 90900=
07481,1998-11-11 12:00:00,9,1025.1,-2,66,3,11000,22.224,,,10,,,,,,,,,,,wg-a,,,,AAXX 11124 07481 12/61 /0112 10090 20030 39959 40251 58020 60006 91200=
07481,1998-11-11 15:00:00,9,1023.8,-1.3,61,2,500,22.224,,,350,,,,,,,,,,,wg-a,,,,AAXX 11154 07481 12500 /3512 10090 20020 39946 40238 56013 60006 81100 91500=
07481,1998-11-11 18:00:00,6,1022.5,-1.6,75,2,500,11.112,,,350,4,9.6,,,,,,,,,wg-a,,,,AAXX 11184 07481 12/00 13506 10060 20020 39930 40225 56016 60006 80001 91800 333 10096 20040=
07481,1998-11-11 21:00:00,3,1020.6,-2.1,87,1,500,3.704,,,250,,,,,,,,,,,wg-a,,,,AAXX 11214 07481 12/00 12502 10030 20010 39909 40206 58021 60006 80001 92100=
07481,1998-11-12 00:00:00,2,1018.4,-2.3,87,0,500,0,,,0,,,,,,,,,,,wg-a,,,,AAXX 12004 07481 12/00 50000 10020 20000 39886 40184 56023 60006 80002 90000=
07481,1998-11-12 03:00:00,2,1015.9,-2.4,87,0,20000,7.408,,,120,,,,,,,,,,,wg-a,,,,AAXX 12034 07481 12/70 71204 10020 20000 39862 40159 56024 60006 85032 90300=
07481,1998-11-12 12:00:00,5,1015.2,0.8,81,2,8000,7.408,,,270,,,,0,,,,,,60,wg-a,,,,AAXX 12124 07481 02458 82704 10050 20020 39859 40152 51008 60006 76062 8357/ 91200 333 60007=
07481,1998-11-12 15:00:00,5,1015.2,-0,87,3,9000,7.408,,,120,,,,0,,,,,,21,wg-a,,,,AAXX 12154 07481 12459 81204 10050 20030 39859 40152 55000 60007 72162 8587/ 91500=
07481,1998-11-12 18:00:00,5,1016.9,1.6,93,4,10000,7.408,,,130,2.3,5.3,,,,,,,,21,wg-a,,,,AAXX 12184 07481 02460 81304 10050 20040 39875 40169 53016 61000 72162 878// 91800 333 10053 20023 6000=
07481,1998-11-12 21:00:00,5,1018.2,1.3,93,4,12000,3.704,,,180,,,,,,,,,,21,wg-a,,,,AAXX 12214 07481 02662 /1802 10050 20040 39888 40182 53013 61000 72161 82530 92100 333 ////=
07481,1998-11-13 00:00:00,6,1018,-0.1,93,5,20000,7.408,,,170,,,,1,,,,,,3,wg-a,,,,AAXX 13004 07481 02570 71704 10060 20050 39887 40180 58001 60016 70361 875// 90000 333 60017=
07481,1998-11-13 03:00:00,6,1017.3,-0.7,87,4,10000,11.112,,,160,,,,,,,,,,,wg-a,,,,AAXX 13034 07481 12560 81606 10060 20040 39880 40173 58007 60006 875// 90300=
07481,1998-11-13 06:00:00,4,1015.7,-1.7,93,3,8000,3.704,,,170,4,5.8,,,,,2,,,11,wg-a,,,,AAXX 13064 07481 02558 /1702 10040 20030 39863 40157 56017 60006 71111 81500 90600 333 10058 20040 60024=
07481,1998-11-13 09:00:00,5,1014.8,-0.9,93,4,500,7.408,,,160,,,,,,,,,,44,wg-a,,,,AAXX 13094 07481 12005 71604 10050 20040 39854 40148 58009 60006 74441 84601 90900=
07481,1998-11-13 12:00:00,7,1011.9,-2.5,87,5,10000,11.112,,,120,,,,,,,,,,3,wg-a,,,,AAXX 13124 07481 12260 71206 10070 20050 39829 40119 58025 60006 70341 82616 91200=
07481,1998-11-13 15:00:00,4,1015.7,-1.7,93,3,8000,3.704,,,170,4,5.8,,,,,2,,,11,wg-a,,,,AAXX 13154 07481 12558 /1702 10040 20030 39863 40157 56017 60024 71111 81500 91500 333 10058 20040=
07481,1998-11-13 18:00:00,6,1008.8,-1.8,87,4,20000,11.112,,,140,2,8.8,,,,,,,,,wg-a,,,,AAXX 13184 07481 12/70 71406 10060 20040 39798 40088 56018 60006 86071 91800 333 10088 20020=
07481,1998-11-13 21:00:00,6,1008,-0.8,81,3,20000,18.52,,,130,,,,,,,,,,,wg-a,,,,AAXX 13214 07481 12670 71310 10060 20030 39790 40080 56008 60006 8357/ 92100=
07481,1998-11-14 00:00:00,6,1006.5,-1.4,81,3,500,22.224,,,180,,,,,,,,,,,wg-a,,,,AAXX 14004 07481 12500 61812 10060 20030 39776 40065 58014 60006 8187/ 90000=
07481,1998-11-14 03:00:00,6,1005.1,-1.4,87,4,15000,22.224,,,170,,,,,,,,,,60,wg-a,,,,AAXX 14034 07481 02465 71712 10060 20040 39762 40051 56014 61000 76062 875// 90300 333 ////=
07481,1998-11-14 06:00:00,7,1004.1,-0.9,87,5,11000,25.928,,,190,5.8,7.5,,,,,,,,,wg-a,,,,AAXX 14064 07481 02/61 /1914 10070 20050 39753 40041 56009 60006 90600 333 10075 20058 60004=
07481,1998-11-14 09:00:00,9,1008.1,4.1,87,7,12000,11.112,,,230,,,,1,,,,,,21,wg-a,,,,AAXX 14094 07481 12362 72306 10090 20070 39794 40081 53041 60017 72162 8587/ 90900=
07481,1998-11-14 12:00:00,10,1009.1,1,76,6,15000,3.704,,,70,,,,1,,,,,,3,wg-a,,,,AAXX 14124 07481 02465 70702 10100 20060 39804 40091 51010 60026 70362 8587/ 91200 333 60017=
07481,1998-11-14 15:00:00,10,1009.7,0.6,57,2,20000,11.112,,,270,,,,,,,,,,,wg-a,,,,AAXX 14154 07481 12570 72706 10100 20020 39810 40097 51006 60006 8487/ 91500=
07481,1998-11-14 18:00:00,8,1011.5,1.6,81,5,20000,14.816,,,200,7.2,10.8,,,,,,,,,wg-a,,,,AAXX 14184 07481 12670 /2008 10080 20050 39826 40115 53016 60006 82830 91800 333 10108 20072=
07481,1998-11-14 21:00:00,7,1012.3,0.7,76,3,20000,14.816,,,210,,,,,,,,,,,wg-a,,,,AAXX 14214 07481 12770 /2108 10070 20030 39833 40123 51007 60006 81530 92100=
07481,1998-11-15 00:00:00,5,1014.9,2.3,93,4,20000,3.704,,,10,,,,1,,,,,,60,wg-a,,,,AAXX 15004 07481 02470 70102 10050 20040 39856 40149 53023 60016 76086 878// 90000 333 60017=
07481,1998-11-15 03:00:00,5,1015.8,0.8,87,3,20000,3.704,,,200,,,,0,,,,,,1,wg-a,,,,AAXX 15034 07481 12770 /2002 10050 20030 39864 40158 51008 60007 70162 82530 90300=
07481,1998-11-15 06:00:00,5,1016.9,1.1,87,3,20000,14.816,,,170,4.4,7.8,,,,,3,,,1,wg-a,,,,AAXX 15064 07481 02670 31708 10050 20030 39875 40169 51011 60006 70161 81530 90600 333 10078 20044 60034=
07481,1998-11-15 09:00:00,6,1018,1.2,81,3,11000,14.816,,,200,,,,,,,,,,,wg-a,,,,AAXX 15094 07481 12/61 /2008 10060 20030 39887 40180 51012 60006 90900=
07481,1998-11-15 12:00:00,8,1018.1,0.3,76,4,25000,11.112,,,270,,,,,,,,,,,wg-a,,,,AAXX 15124 07481 12575 82706 10080 20040 39890 40181 52003 60006 878// 91200=
07481,1998-11-15 15:00:00,8,1018.9,0.8,76,4,12000,7.408,,,90,,,,,,,,,,3,wg-a,,,,AAXX 15154 07481 02562 70904 10080 20040 39898 40189 53008 61000 70362 878// 91500 333 ////=
07481,1998-11-15 21:00:00,6,1023.4,1.8,87,4,15000,7.408,,,220,,,,,,,,,,,wg-a,,,,AAXX 15214 07481 12665 72204 10060 20040 39939 40234 51018 60006 875// 92100=
07481,1998-11-16 00:00:00,5,1023.5,0,87,3,12000,3.704,,,230,,,,,,,,,,,wg-a,,,,AAXX 16004 07481 12562 72302 10050 20030 39939 40235 50000 60006 875// 90000=
07481,1998-11-16 03:00:00,4,1023.4,-0.1,93,3,12000,7.408,,,240,,,,,,,,,,,wg-a,,,,AAXX 16034 07481 12562 82404 10040 20030 39938 40234 56001 60006 875// 90300=
07481,1998-11-16 06:00:00,4,1023.6,0.1,87,2,12000,3.704,,,180,3.8,5.7,,,,,1,,,,wg-a,,,,AAXX 16064 07481 02562 /1802 10040 20020 39939 40236 52001 60006 82530 90600 333 10057 20038 60014=
07481,1998-11-16 09:00:00,6,1024.4,1,81,3,15000,3.704,,,240,,,,,,,,,,,wg-a,,,,AAXX 16094 07481 12565 42402 10060 20030 39949 40244 51010 60006 82830 90900=
07481,1998-11-16 12:00:00,7,1024.4,0.1,70,2,11000,40.744,,,330,,,,,,,,,,,wg-a,,,,AAXX 16124 07481 12/61 /3322 10070 20020 39950 40244 50001 60016 91200=
07481,1998-11-16 15:00:00,6,1025.3,0.8,61,-1,25000,22.224,,,350,,,,,,,,,,3,wg-a,,,,AAXX 16154 07481 02575 33512 10060 21010 39958 40253 53008 61000 70386 83800 91500 333 ////=
07481,1998-11-16 18:00:00,3,1027.3,1.6,87,1,25000,0,,,0,2.4,7.3,,,,,,,,3,wg-a,,,,AAXX 16184 07481 12575 50000 10030 20010 39974 40273 53016 60006 70386 85200 91800 333 10073 20024=
07481,1998-11-17 00:00:00,2,1028.7,0.2,93,1,20000,7.408,,,320,,,,,,,,,,,wg-a,,,,AAXX 17004 07481 12570 53204 10020 20010 39987 40287 50002 60006 85500 90000=
07481,1998-11-17 03:00:00,1,1028.6,-0.2,93,0,18000,7.408,,,20,,,,,,,,,,,wg-a,,,,AAXX 17034 07481 12468 50204 10010 20000 39985 40286 55002 60006 85500 90300=
07481,1998-11-17 06:00:00,1,1028.4,-0.2,100,1,12000,7.408,,,350,0.8,3.3,,,,,1,,,,wg-a,,,,AAXX 17064 07481 02262 73504 10010 20010 39983 40284 56002 60006 875// 90600 333 10033 20008 60014=
07481,1998-11-17 09:00:00,2,1029,0.7,93,1,8000,14.816,,,340,,,,,,,,,,,wg-a,,,,AAXX 17094 07481 12358 73408 10020 20010 39990 40290 51007 60006 876// 90900=
07481,1998-11-17 12:00:00,4,1027.6,-1.2,70,-1,18000,11.112,,,10,,,,,,,,,,,wg-a,,,,AAXX 17124 07481 12468 /0106 10040 21010 39978 40276 58012 60006 83100 91200=
07481,1998-11-17 15:00:00,5,1025.9,-1.5,60,-2,500,18.52,,,350,,,,,,,,,,,wg-a,,,,AAXX 17154 07481 12500 43510 10050 21020 39963 40259 56015 60006 84801 91500=
07481,1998-11-17 18:00:00,2,1026,-0.3,75,-2,20000,14.816,,,350,1.2,5.8,,,,,,,,,wg-a,,,,AAXX 17184 07481 12/70 23508 10020 21020 39960 40260 58003 60006 80001 91800 333 10058 20012=
07481,1998-11-17 21:00:00,0,1025.7,-0.5,86,-2,25000,3.704,,,300,,,,,,,,,,,wg-a,,,,AAXX 17214 07481 12/75 13002 10000 21020 39955 40257 56005 60006 80001 92100=
07481,1998-11-18 00:00:00,-2,1025.7,-0.2,93,-3,20000,7.408,,,280,,,,,,,,,,,wg-a,,,,AAXX 18004 07481 12870 22804 11020 21030 39953 40257 56002 60006 81031 90000=
07481,1998-11-18 03:00:00,-3,1025.2,-0.6,93,-4,15000,3.704,,,310,,,,,,,,,,,wg-a,,,,AAXX 18034 07481 12/65 33102 11030 21040 39947 40252 57006 60006 80001 90300=
07481,1998-11-18 06:00:00,-3,1024.8,-0.3,93,-4,9000,7.408,,,330,-3.3,1.8,,,,,,,,,wg-a,,,,AAXX 18064 07481 02359 73304 11030 21040 39944 40248 56003 60006 876// 90600 333 10018 21033 60004=
07481,1998-11-18 09:00:00,-2,1025.6,0.8,86,-4,9000,7.408,,,340,,,,,,,,,,,wg-a,,,,AAXX 18094 07481 12359 83404 11020 21040 39952 40256 53008 60006 886// 90900=
07481,1998-11-18 12:00:00,-1,1025,-0.4,80,-4,9000,7.408,,,30,,,,,,,,,,,wg-a,,,,AAXX 18124 07481 12459 70304 11010 21040 39948 40250 58004 60006 86602 91200=
07481,1998-11-18 15:00:00,-1,1024.9,-0.2,86,-3,6000,11.112,,,30,,,,,,,,,,,wg-a,,,,AAXX 18154 07481 12356 80306 11010 21030 39946 40249 55002 60006 876// 91500=
07481,1998-11-18 18:00:00,-2,1025.5,0.5,86,-4,6000,3.704,,,80,-2.5,-0.2,,,,,,,,,wg-a,,,,AAXX 18184 07481 12656 70802 11020 21040 39951 40255 53005 60006 81502 91800 333 11002 21025=
07481,1998-11-18 21:00:00,-2,1025.8,0.3,86,-4,7000,3.704,,,190,,,,,,,,,,,wg-a,,,,AAXX 18214 07481 12/57 41902 11020 21040 39954 40258 53003 60006 80002 92100=
07481,1998-11-19 00:00:00,-3,1026.4,0.4,86,-5,6000,3.704,,,260,,,,,,,,,,,wg-a,,,,AAXX 19004 07481 12/56 02602 11030 21050 39958 40264 51004 60006 80000 90000=
07481,1998-11-19 03:00:00,-5,1026.3,-0.2,93,-6,500,3.704,,,310,,,,,,,,,,,wg-a,,,,AAXX 19034 07481 12/00 23102 11050 21060 39956 40263 58002 60006 80002 90300=
07481,1998-11-19 06:00:00,-5,1026.8,0.4,100,-5,3000,0,,,0,-5.4,-1.4,,,,,,,,10,wg-a,,,,AAXX 19064 07481 02330 70000 11050 21050 39960 40268 52004 60006 71011 876// 90600 333 11014 21054 60004=
07481,1998-11-19 09:00:00,-4,1027.6,0.9,100,-4,1500,14.816,,,340,,,,,,,,,,10,wg-a,,,,AAXX 19094 07481 12115 83408 11040 21040 39969 40276 52009 60006 71042 886// 90900=
07481,1998-11-19 12:00:00,-1,1026.8,-0.4,86,-3,6000,11.112,,,20,,,,,,,,,,1,wg-a,,,,AAXX 19124 07481 12456 /0206 11010 21030 39965 40268 58004 60006 70142 85100 91200=
07481,1998-11-19 15:00:00,2,1025.8,-0.7,64,-4,10000,14.816,,,360,,,,,,,,,,,wg-a,,,,AAXX 19154 07481 12/60 /3608 10020 21040 39958 40258 56007 60006 91500=
07481,1998-11-19 18:00:00,1,1026.5,0.5,80,-2,15000,11.112,,,350,-4.7,2.1,,,,,,,,,wg-a,,,,AAXX 19184 07481 12565 53506 10010 21020 39963 40265 53005 60006 83530 91800 333 10021 21047=
07481,1998-11-19 21:00:00,1,1026.6,0.2,75,-3,15000,22.224,,,340,,,,,,,,,,,wg-a,,,,AAXX 19214 07481 12565 73412 10010 21030 39965 40266 53002 60006 8553/ 92100=
07481,1998-11-20 00:00:00,1,1027.4,0.7,80,-2,12000,22.224,,,340,,,,,,,,,,,wg-a,,,,AAXX 20004 07481 12362 73412 10010 21020 39972 40274 53007 60006 876// 90000=
07481,1998-11-20 03:00:00,0,1027.6,0.2,80,-3,12000,29.632,,,360,,,,,,,,,,,wg-a,,,,AAXX 20034 07481 12462 83616 10000 21030 39974 40276 53002 60006 875// 90300=
07481,1998-11-20 06:00:00,0,1028.5,0.8,80,-3,15000,18.52,,,360,-0.2,1,,,,,,,,,wg-a,,,,AAXX 20064 07481 02465 83610 10000 21030 39982 40285 53008 60006 885// 90600 333 10010 21002 60004=
07481,1998-11-20 09:00:00,0,1030,1.5,80,-3,12000,18.52,,,10,,,,,,,,,,,wg-a,,,,AAXX 20094 07481 12462 /0110 10000 21030 39997 40300 51015 60006 875// 90900=
07481,1998-11-20 12:00:00,2,1029.4,-0.4,64,-4,15000,18.52,,,360,,,,,,,,,,,wg-a,,,,AAXX 20124 07481 12565 /3610 10020 21040 39993 40294 58004 60006 86500 91200=
07481,1998-11-20 15:00:00,2,1029.3,-0.1,64,-4,18000,29.632,,,340,,,,,,,,,,,wg-a,,,,AAXX 20154 07481 12568 33416 10020 21040 39992 40293 55001 60006 83500 91500=
07481,1998-11-20 18:00:00,0,1030.5,0.9,69,-5,12000,22.224,,,340,-0.6,2.9,,,,,,,,,wg-a,,,,AAXX 20184 07481 12562 /3412 10000 21050 30001 40305 51009 60006 81500 91800 333 10029 21006=
07481,1998-11-20 21:00:00,-2,1031.8,1.1,74,-6,12000,14.816,,,350,,,,,,,,,,,wg-a,,,,AAXX 20214 07481 12/62 03508 11020 21060 30012 40318 53011 60006 80000 92100=
07481,1998-11-21 00:00:00,-3,1032.2,0.3,74,-7,12000,18.52,,,340,,,,,,,,,,,wg-a,,,,AAXX 21004 07481 12/62 03410 11030 21070 30015 40322 52003 60006 80000 90000=
07481,1998-11-21 06:00:00,-5,1032.8,0.1,79,-8,12000,7.408,,,330,-5.2,-0.3,,,,,,,,,wg-a,,,,AAXX 21064 07481 02/62 03304 11050 21080 30018 40328 53001 60006 80000 90600 333 11003 21052 60004=
07481,1998-11-21 09:00:00,-3,1032.6,0,74,-7,12000,11.112,,,350,,,,,,,,,,,wg-a,,,,AAXX 21094 07481 12/62 03506 11030 21070 30018 40326 50000 60006 80000 90900=
07481,1998-11-21 12:00:00,0,1030.9,-1.2,55,-8,15000,18.52,,,10,,,,,,,,,,,wg-a,,,,AAXX 21124 07481 12565 /0110 10000 21080 30006 40309 58012 60006 81100 91200=
07481,1998-11-21 15:00:00,1,1029.1,-1.7,55,-7,15000,18.52,,,340,,,,,,,,,,,wg-a,,,,AAXX 21154 07481 12565 /3410 10010 21070 39989 40291 56017 60006 81100 91500=
07481,1998-11-21 18:00:00,-2,1028.8,-0.6,69,-7,15000,14.816,,,350,-5.5,1.5,,,,,,,,,wg-a,,,,AAXX 21184 07481 12/65 13508 11020 21070 39983 40288 57006 60006 80001 91800 333 10015 21055=
07481,1998-11-21 21:00:00,-3,1029.1,0.1,74,-7,20000,7.408,,,350,,,,,,,,,,,wg-a,,,,AAXX 21214 07481 12/70 03504 11030 21070 39984 40291 53001 60006 80000 92100=
07481,1998-11-22 00:00:00,-5,1028.9,-0.3,86,-7,10000,7.408,,,290,,,,,,,,,,,wg-a,,,,AAXX 22004 07481 12/60 /2904 11050 21070 39981 40289 58003 60006 90000=
07481,1998-11-22 03:00:00,-2,1028.7,-0.6,69,-7,15000,1.852,,,0,-5.5,1.5,,,,,,,,,wg-a,,,,AAXX 22034 07481 12/65 1//01 11020 21070 39983 40287 57006 60006 80001 90300 333 10015 21055=
07481,1998-11-22 06:00:00,-7,1027.2,-0.4,93,-8,15000,0,,,0,-6.9,-1.4,,,,,,,,,wg-a,,,,AAXX 22064 07481 02665 /0000 11070 21080 39962 40272 55004 60006 81500 90600 333 11014 21069 60004=
07481,1998-11-22 09:00:00,-5,1027.5,0.5,86,-7,9000,3.704,,,290,,,,,,,,,,,wg-a,,,,AAXX 22094 07481 12659 22902 11050 21070 39967 40275 51005 60006 82500 90900=
07481,1998-11-22 12:00:00,-1,1026,-1,59,-8,18000,3.704,,,60,,,,,,,,,,,wg-a,,,,AAXX 22124 07481 12/68 00602 11010 21080 39957 40260 58010 60006 80000 91200=
07481,1998-11-22 15:00:00,0,1024.3,-1.6,59,-7,12000,7.408,,,10,,,,,,,,,,,wg-a,,,,AAXX 22154 07481 12/62 00104 10000 21070 39941 40243 56016 60006 80000 91500=
07481,1998-11-22 18:00:00,-3,1024.6,-0,80,-6,15000,3.704,,,20,-7.2,0.3,,,,,,,,,wg-a,,,,AAXX 22184 07481 12/65 00202 11030 21060 39941 40246 55000 60006 80000 91800 333 10003 21072=
07481,1998-11-23 00:00:00,-6,1024.5,-0.1,86,-8,6000,0,,,0,,,,,,,,,,11,wg-a,,,,AAXX 23004 07481 12/56 00000 11060 21080 39937 40245 56001 60006 71100 80000 90000=
07481,1998-11-23 03:00:00,-7,1023.3,-1.3,86,-9,500,3.704,,,260,,,,,,,,,,11,wg-a,,,,AAXX 23034 07481 12/00 02602 11070 21090 39924 40233 58013 60006 71100 80000 90300=
07481,1998-11-23 06:00:00,-7,1022.6,-0.7,86,-9,3500,7.408,,,90,-7.5,-3.1,,,,,,,,10,wg-a,,,,AAXX 23064 07481 02/35 00904 11070 21090 39917 40226 56007 60006 71000 80000 90600 333 11031 21075 60004=
07481,1998-11-23 09:00:00,-5,1023.3,0.9,86,-7,2500,3.704,,,290,,,,,,,,,,10,wg-a,,,,AAXX 23094 07481 12/25 02902 11050 21070 39926 40233 51009 60006 71000 80000 90900=
07481,1998-11-23 12:00:00,-2,1022.6,-0.3,74,-6,500,11.112,,,10,,,,,,,,,,,wg-a,,,,AAXX 23124 07481 12400 /0106 11020 21060 39923 40226 58003 60006 81100 91200=
07481,1998-11-23 15:00:00,0,1022.1,-0.3,59,-7,7000,11.112,,,10,,,,,,,,,,,wg-a,,,,AAXX 23154 07481 12/57 /0106 10000 21070 39920 40221 55003 60006 91500=
07481,1998-11-23 18:00:00,-3,1022.4,-0,80,-6,6000,7.408,,,330,-7.7,-0.1,,,,,,,,,wg-a,,,,AAXX 23184 07481 12/56 03304 11030 21060 39920 40224 55000 60006 80000 91800 333 11001 21077=
07481,1998-11-23 21:00:00,-4,1023,0.4,86,-6,6000,3.704,,,320,,,,,,,,,,,wg-a,,,,AAXX 23214 07481 12/56 03202 11040 21060 39924 40230 51004 60006 80000 92100=
07481,1998-11-24 00:00:00,-5,1023.6,0.5,86,-7,6000,3.704,,,10,,,,,,,,,,,wg-a,,,,AAXX 24004 07481 12/56 00102 11050 21070 39929 40236 50005 60006 80000 90000=
07481,1998-11-24 03:00:00,-6,1024.2,0.5,86,-8,6000,3.704,,,20,,,,,,,,,,,wg-a,,,,AAXX 24034 07481 12/56 00202 11060 21080 39934 40242 52005 60006 80000 90300=
07481,1998-11-24 06:00:00,-6,1024.9,0.6,86,-8,500,0,,,0,-6.4,-3.2,,,,,,,,,wg-a,,,,AAXX 24064 07481 02/00 00000 11060 21080 39940 40249 53006 60006 80000 90600 333 11032 21064 60004=
07481,1998-11-24 09:00:00,-4,1025.3,0.6,80,-7,4500,3.704,,,40,,,,,,,,,,,wg-a,,,,AAXX 24094 07481 12/45 /0402 11040 21070 39946 40253 50006 60006 90900=
07481,1998-11-24 12:00:00,-1,1024,-0.8,69,-6,500,7.408,,,40,,,,,,,,,,,wg-a,,,,AAXX 24124 07481 12/00 /0404 11010 21060 39938 40240 58008 60006 81031 91200=
07481,1998-11-24 15:00:00,1,1023.7,-0.1,64,-5,8000,11.112,,,40,,,,,,,,,,,wg-a,,,,AAXX 24154 07481 12/58 50406 10010 21050 39937 40237 55001 60006 81034 91500=
07481,1998-11-24 18:00:00,-1,1025,1,80,-4,500,11.112,,,320,-6.5,2.2,,,,,,,,,wg-a,,,,AAXX 24184 07481 12/00 /3206 11010 21040 39947 40250 51010 60006 81031 91800 333 10022 21065=
07481,1998-11-24 21:00:00,-2,1024.7,-0.4,80,-5,6000,3.704,,,270,,,,,,,,,,,wg-a,,,,AAXX 24214 07481 12/56 /2702 11020 21050 39943 40247 57004 60006 82031 92100=
07481,1998-11-25 00:00:00,-4,1024.5,-0.5,80,-7,6000,3.704,,,260,,,,,,,,,,11,wg-a,,,,AAXX 25004 07481 12/56 42602 11040 21070 39938 40245 56005 60006 71111 80001 90000=
07481,1998-11-25 03:00:00,-5,1023.1,-1.4,86,-7,500,0,,,0,,,,,,,,,,11,wg-a,,,,AAXX 25034 07481 12/00 20000 11050 21070 39924 40231 56014 60006 71100 80001 90300=
07481,1998-11-25 06:00:00,-5,1021.3,-1.7,93,-6,500,7.408,,,200,-5.4,-1,,,,,,,,11,wg-a,,,,AAXX 25064 07481 02/00 52004 11050 21060 39907 40213 56017 60006 71111 82032 90600 333 11010 21054 60004=
07481,1998-11-25 09:00:00,-2,1018.7,-2.2,80,-5,6000,11.112,,,130,,,,,,,,,,,wg-a,,,,AAXX 25094 07481 12756 81306 11020 21050 39885 40187 56022 60006 81527 90900=
07481,1998-11-25 12:00:00,1,1016.2,-2.1,80,-2,4000,11.112,,,130,,,,0,,,,,,79,wg-a,,,,AAXX 25124 07481 02540 81306 10010 21020 39864 40162 58021 60016 77972 8557/ 91200 333 60007=
07481,1998-11-25 15:00:00,0,1017,0.7,93,-1,1000,3.704,,,340,,,,2,,,,,,10,wg-a,,,,AAXX 25154 07481 12210 83402 10000 21010 39871 40170 51007 60027 71076 885// 91500=
07481,1998-11-25 18:00:00,1,1018.2,1.2,93,0,1500,3.704,,,170,-5,1.3,,,,,,,,10,wg-a,,1,,AAXX 25184 07481 02115 81702 10010 20000 39883 40182 53012 61000 71076 885// 91800 333 10013 21050 4/001 6001=
07481,1998-11-25 21:00:00,1,1018.7,0.5,93,0,2000,3.704,,,160,,,,,,,,,,,wg-a,,,,AAXX 25214 07481 32/20 /1602 10010 20000 39888 40187 52005 92100=
07481,1998-11-26 00:00:00,0,1019.6,0.8,100,0,700,0,,,0,,,,1,,,,,,10,wg-a,,,,AAXX 26004 07481 02407 80000 10000 20000 39896 40196 51008 60016 71076 885// 90000 333 60017=
07481,1998-11-26 03:00:00,1,1020.5,0.9,93,0,1200,3.704,,,350,,,,2,,,,,,44,wg-a,,,,AAXX 26034 07481 12212 83502 10010 20000 39905 40205 52009 60027 74476 887// 90300=
07481,1998-11-26 06:00:00,1,1021.9,1.4,93,0,2000,7.408,,,30,0.3,0.8,,,,,,,,10,wg-a,,1,,AAXX 26064 07481 02220 80304 10010 20000 39919 40219 52014 61000 71076 887// 90600 333 10008 20003 4/001 6007=
07481,1998-11-26 09:00:00,1,1023.8,1.9,93,0,2700,11.112,,,10,,,,,,,,,,10,wg-a,,,,AAXX 26094 07481 02327 80106 10010 20000 39938 40238 53019 61000 71076 887// 90900 333 ////=
07481,1998-11-26 12:00:00,2,1024.4,0.7,93,1,4500,14.816,,,350,,,,,,,,,,10,wg-a,,,,AAXX 26124 07481 02245 83508 10020 20010 39945 40244 51007 61000 71076 877// 91200 333 ////=
07481,1998-11-26 15:00:00,2,1024.9,0.5,93,1,7000,11.112,,,350,,,,,,,,,,,wg-a,,,,AAXX 26154 07481 12257 83506 10020 20010 39950 40249 51005 60006 876// 91500=
07481,1998-11-26 21:00:00,1,1026.6,-0.1,93,0,6000,3.704,,,140,,,,,,,,,,,wg-a,,,,AAXX 26214 07481 12/56 /1402 10010 20000 39965 40266 58001 60006 92100=
07481,1998-11-27 00:00:00,2,1025.6,-0.9,93,1,6000,11.112,,,140,,,,,,,,,,,wg-a,,,,AAXX 27004 07481 12456 81406 10020 20010 39956 40256 58009 60006 885// 90000=
07481,1998-11-27 03:00:00,2,1023.7,-1.8,93,1,4000,7.408,,,150,,,,1,,,,,,51,wg-a,,,,AAXX 27034 07481 12240 81504 10020 20010 39938 40237 58018 60017 75165 885// 90300=
07481,1998-11-27 06:00:00,2,1022.3,-1.3,100,2,8000,11.112,,,160,1.2,2.4,,,,,,,,10,wg-a,,,,AAXX 27064 07481 02158 81606 10020 20020 39925 40223 56013 61000 71065 885// 90600 333 10024 20012 6003=
07481,1998-11-27 09:00:00,2,1021.9,-0.4,100,2,1800,7.408,,,130,,,,3,,,,,,10,wg-a,,,,AAXX 27094 07481 12118 81304 10020 20020 39921 40219 58004 60037 71062 885// 90900=
07481,1998-11-27 12:00:00,4,1021,-0.7,93,3,1800,7.408,,,120,,,,2,,,,,,10,wg-a,,,,AAXX 27124 07481 02118 81204 10040 20030 39914 40210 58007 60056 71062 885// 91200 333 60027=
07481,1998-11-27 15:00:00,4,1020.9,-0.1,100,4,800,3.704,,,320,,,,1,,,,,,60,wg-a,,,,AAXX 27154 07481 12108 83202 10040 20040 39913 40209 55001 60017 76066 885// 91500=
07481,1998-11-27 18:00:00,3,1021.5,0.4,93,2,200,3.704,,,360,2,4.1,,0,,,,,,44,wg-a,,,,AAXX 27184 07481 02102 83602 10030 20020 39917 40215 51004 60006 74464 886// 91800 333 10041 20020 60007=
07481,1998-11-27 21:00:00,2,1021.9,0.3,93,1,200,7.408,,,290,,,,,,,,,,,wg-a,,,,AAXX 27214 07481 32/02 /2904 10020 20010 39920 40219 53003 92100=
07481,1998-11-28 00:00:00,1,1022.2,0.3,100,1,500,11.112,,,50,,,,,,,,,,42,wg-a,,,,AAXX 28004 07481 12105 80506 10010 20010 39923 40222 53003 60006 74244 886// 90000=
07481,1998-11-28 03:00:00,1,1022.2,-0,100,1,400,7.408,,,330,,,,,,,,,,45,wg-a,,,,AAXX 28034 07481 12/04 93304 10010 20010 39923 40222 54000 60006 74542 89/// 90300=
07481,1998-11-28 06:00:00,0,1023.2,0.8,93,-1,700,3.704,,,250,-0.2,3,,,,,6,,,45,wg-a,,,,AAXX 28064 07481 02/07 92502 10000 21010 39931 40232 53008 60006 74542 89/// 90600 333 10030 21002 60064=
07481,1998-11-28 12:00:00,1,1022.4,-1.4,100,1,6000,3.704,,,260,,,,,,,,,,1,wg-a,,,,AAXX 28124 07481 12156 82602 10010 20010 39924 40224 58014 60006 70142 886// 91200=
07481,1998-11-28 15:00:00,2,1020.8,-1.4,93,1,7000,7.408,,,80,,,,,,,,,,,wg-a,,,,AAXX 28154 07481 12357 50804 10020 20010 39910 40208 56014 60006 84542 91500=
07481,1998-11-28 18:00:00,1,1020.6,-0.4,93,0,400,3.704,,,100,-0.4,2.5,,,,,,,,47,wg-a,,,,AAXX 28184 07481 12/04 91002 10010 20000 39906 40206 58004 60006 74742 89/// 91800 333 10025 21004=
07481,1998-11-28 21:00:00,0,1018.6,-2,100,0,400,7.408,,,150,,,,,,,,,,43,wg-a,,,,AAXX 28214 07481 12/04 91504 10000 20000 39886 40186 58020 60006 74344 89/// 92100=
07481,1998-11-29 00:00:00,1,1016.5,-1.9,93,0,9000,11.112,,,160,,,,0,,,,,,60,wg-a,,,,AAXX 29004 07481 02559 81606 10010 20000 39867 40165 56019 60006 76064 875// 90000 333 60007=
07481,1998-11-29 03:00:00,2,1015.3,-1.1,93,1,500,7.408,,,180,,,,2,,,,,,61,wg-a,,,,AAXX 29034 07481 12200 81804 10020 20010 39856 40153 56011 60027 76166 875// 90300=
07481,1998-11-29 06:00:00,2,1014.8,-0.4,93,1,500,11.112,,,150,0,2,,,,,,,,61,wg-a,,,,AAXX 29064 07481 02200 81506 10020 20010 39852 40148 56004 61000 76166 8/8// 90600 333 10020 20000 6004=
07481,1998-11-29 09:00:00,2,1015.2,0.4,100,2,4500,11.112,,,140,,,,2,,,,,,10,wg-a,,,,AAXX 29094 07481 12345 81406 10020 20020 39856 40152 51004 60027 71066 875// 90900=
07481,1998-11-29 12:00:00,4,1014.2,-0.8,93,3,4500,7.408,,,150,,,,2,,,,,,12,wg-a,,,,AAXX 29124 07481 02445 81504 10040 20030 39848 40142 58008 60046 71276 875// 91200 333 60027=
07481,1998-11-29 15:00:00,4,1014.5,0.3,100,4,3000,3.704,,,260,,,,0,,,,,,12,wg-a,,,,AAXX 29154 07481 12430 82602 10040 20040 39851 40145 53003 60007 71276 875// 91500=
07481,1998-11-29 18:00:00,4,1016.1,1.5,93,3,20000,11.112,,,340,1.9,4.1,,,,,,,,21,wg-a,,,,AAXX 29184 07481 02470 83406 10040 20030 39866 40161 52015 61000 72176 875// 91800 333 10041 20019 6000=
07481,1998-11-29 21:00:00,4,1016.9,0.8,93,3,25000,7.408,,,320,,,,,,,,,,,wg-a,,,,AAXX 29214 07481 12475 83204 10040 20030 39874 40169 51008 60006 885// 92100=
07481,1998-11-30 00:00:00,4,1017.2,0.3,100,4,15000,3.704,,,360,,,,,,,,,,20,wg-a,,,,AAXX 30004 07481 02265 83602 10040 20040 39877 40172 51003 61000 72052 886// 90000 333 6100=
07481,1998-11-30 03:00:00,4,1017,-0.2,93,3,15000,0,,,0,,,,0,,,,,,60,wg-a,,,,AAXX 30034 07481 12465 80000 10040 20030 39875 40170 56002 60007 76062 885// 90300=
07481,1998-11-30 06:00:00,4,1017.1,0.1,100,4,12000,11.112,,,330,3.5,4.1,,,,,,,,20,wg-a,,,,AAXX 30064 07481 02262 83306 10040 20040 39876 40171 53001 61000 72065 886// 90600 333 10041 20035 6005=
07481,1998-11-30 09:00:00,2,1019.3,1.9,93,1,12000,22.224,,,340,,,,,,,,,,,wg-a,,,,AAXX 30094 07481 12262 83412 10020 20010 39895 40193 53019 60006 886// 90900=
07481,1998-11-30 12:00:00,2,1019.3,,93,1,8000,25.928,,,340,,,,,,,,,,,wg-a,,,,AAXX 30124 07481 12358 83414 10020 20010 39895 40193 60006 886// 91200=
07481,1998-11-30 15:00:00,2,1019.5,,87,0,6000,22.224,,,340,,,,,,,,,,,wg-a,,,,AAXX 30154 07481 32356 83412 10020 20000 39897 40195 886// 91500=
07481,1998-11-30 18:00:00,1,1020.9,1.3,86,-1,8000,18.52,,,340,1.4,4.2,,,,,,,,,wg-a,,,,AAXX 30184 07481 12358 83410 10010 21010 39910 40209 51013 60006 886// 91800 333 10042 20014=
07481,1998-11-30 21:00:00,1,1022.1,1.1,86,-1,8000,18.52,,,350,,,,,,,,,,22,wg-a,,,,AAXX 30214 07481 02458 83510 10010 21010 39921 40221 51011 61000 72272 886// 92100 333 ////=
07481,1998-12-01 00:00:00,1,1023.1,1,86,-1,10000,11.112,,,340,,,,,,,,,,2,wg-a,,,,AAXX 01004 07481 02460 83406 10010 21010 39931 40231 51010 61000 70272 886// 90000 333 ////=
07481,1998-12-01 03:00:00,1,1023.8,0.6,86,-1,8000,7.408,,,330,,,,,,,,,,,wg-a,,,,AAXX 01034 07481 12358 83304 10010 21010 39937 40238 53006 60006 886// 90300=
07481,1998-12-01 06:00:00,1,1024.6,0.8,86,-1,7000,11.112,,,340,0.5,1.4,,,,,,,,,wg-a,,,,AAXX 01064 07481 02357 83406 10010 21010 39945 40246 53008 60006 886// 90600 333 10014 20005 61000=
07481,1998-12-01 12:00:00,2,1026,-0.2,80,-1,8000,11.112,,,40,,,,,,,,,,,wg-a,,,,AAXX 01124 07481 12458 80406 10020 21010 39960 40260 58002 60006 885// 91200=
07481,1998-12-01 15:00:00,2,1025.4,-0.6,80,-1,6000,3.704,,,320,,,,,,,,,,,wg-a,,,,AAXX 01154 07481 12556 83202 10020 21010 39954 40254 56006 60006 885// 91500=
07481,1998-12-01 18:00:00,2,1024.7,-0.7,80,-1,12000,3.704,,,200,0.5,1.9,,,,,,,,,wg-a,,,,AAXX 01184 07481 12462 82002 10020 21010 39947 40247 57007 60006 885// 91800 333 10019 20005=
07481,1998-12-01 21:00:00,1,1024.8,0.1,93,0,7000,3.704,,,30,,,,,,,,,,,wg-a,,,,AAXX 01214 07481 12457 80302 10010 20000 39948 40248 50001 60006 885// 92100=
07481,1998-12-02 00:00:00,1,1024.4,-0.5,93,0,7000,0,,,0,,,,,,,,,,,wg-a,,,,AAXX 02004 07481 12/57 /0000 10010 20000 39943 40244 58005 60006 90000=
07481,1998-12-02 03:00:00,1,1023.4,-0.9,93,0,7000,3.704,,,340,,,,,,,,,,,wg-a,,,,AAXX 02034 07481 12357 83402 10010 20000 39934 40234 57009 60006 885// 90300=
07481,1998-12-02 06:00:00,1,1023.4,-0,93,0,6000,7.408,,,330,0.7,1.8,,,,,,,,11,wg-a,,,,AAXX 02064 07481 02356 83304 10010 20000 39934 40234 55000 60006 71122 876// 90600 333 10018 20007 60004=
07481,1998-12-02 09:00:00,1,1024.1,0.7,86,-1,4000,7.408,,,360,,,,,,,,,,10,wg-a,,,,AAXX 02094 07481 12340 83604 10010 21010 39941 40241 51007 60006 71022 886// 90900=
07481,1998-12-02 12:00:00,2,1023.7,-0.3,87,0,6000,0,,,0,,,,,,,,,,,wg-a,,,,AAXX 02124 07481 12356 80000 10020 20000 39938 40237 58003 60006 885// 91200=
07481,1998-12-02 15:00:00,2,1022.8,-0.8,87,0,6000,7.408,,,10,,,,,,,,,,,wg-a,,,,AAXX 02154 07481 12456 /0104 10020 20000 39930 40228 56008 60006 875// 91500=
07481,1998-12-02 18:00:00,1,1023.3,0.3,93,0,6000,7.408,,,20,0.8,2.5,,,,,,,,,wg-a,,,,AAXX 02184 07481 12456 80204 10010 20000 39933 40233 52003 60006 885// 91800 333 10025 20008=
07481,1998-12-02 21:00:00,-1,1023.5,0,93,-2,500,3.704,,,340,,,,,,,,,,,wg-a,,,,AAXX 02214 07481 12400 23402 11010 21020 39933 40235 50000 60006 82500 92100=
07481,1998-12-03 00:00:00,-1,1023.7,0.1,93,-2,10000,7.408,,,50,,,,,,,,,,,wg-a,,,,AAXX 03004 07481 12360 70504 11010 21020 39934 40237 50001 60006 87600 90000=
07481,1998-12-03 03:00:00,-2,1022.4,-1.3,93,-3,3000,3.704,,,40,,,,,,,,,,40,wg-a,,,,AAXX 03034 07481 12330 /0402 11020 21030 39921 40224 58013 60006 74011 84600 90300=
07481,1998-12-03 06:00:00,-1,1021.6,-0.7,93,-2,1500,3.704,,,30,-2.2,1.3,,,,,,,,10,wg-a,,,,AAXX 03064 07481 02115 80302 11010 21020 39914 40216 56007 60006 71041 886// 90600 333 10013 21022 60004=
07481,1998-12-03 09:00:00,-2,1021.1,-0.5,100,-2,300,3.704,,,310,,,,,,,,,,45,wg-a,,,,AAXX 03094 07481 12/03 93102 11020 21020 39909 40211 58005 60006 74542 89/// 90900=
07481,1998-12-03 12:00:00,-1,1019.3,-1.7,100,-1,900,3.704,,,340,,,,,,,,,,44,wg-a,,,,AAXX 03124 07481 12109 83402 11010 21010 39892 40193 58017 60006 74442 886// 91200=
07481,1998-12-03 15:00:00,-1,1016.9,-2.3,100,-1,1400,7.408,,,30,,,,,,,,,,10,wg-a,,,,AAXX 03154 07481 12114 80304 11010 21010 39869 40169 56023 60006 71042 886// 91500=
07481,1998-12-03 21:00:00,-2,1014.9,-1.2,100,-2,2000,11.112,,,30,,,,,,,,,,10,wg-a,,,,AAXX 03214 07481 12120 80306 11020 21020 39848 40149 58012 60006 71042 886// 92100=
07481,1998-12-04 00:00:00,-2,1013.5,-1.3,100,-2,2000,3.704,,,50,,,,,,,,,,10,wg-a,,,,AAXX 04004 07481 12120 80502 11020 21020 39835 40135 58013 60006 71042 886// 90000=
07481,1998-12-04 03:00:00,-2,1011.6,-1.8,100,-2,2500,11.112,,,10,,,,,,,,,,10,wg-a,,,,AAXX 04034 07481 12125 80106 11020 21020 39817 40116 56018 60006 71022 886// 90300=
07481,1998-12-04 06:00:00,-2,1010.7,-0.9,100,-2,3500,14.816,,,340,-2,-1.4,,,,,,,,10,wg-a,,,,AAXX 04064 07481 02135 83408 11020 21020 39808 40107 56009 60006 71022 886// 90600 333 11014 21020 60004=
07481,1998-12-04 12:00:00,-1,1011.3,0,100,-1,2000,11.112,,,30,,,,,,,,,,10,wg-a,,,,AAXX 04124 07481 02120 80306 11010 21010 39815 40113 50000 61000 71072 886// 91200 333 6100=
07481,1998-12-04 15:00:00,0,1011.2,-0.1,93,-1,4000,14.816,,,350,,,,,,,,,,10,wg-a,,,,AAXX 04154 07481 02240 83508 10000 21010 39814 40112 56001 61000 71072 886// 91500 333 ////=
07481,1998-12-04 18:00:00,0,1013.1,1.9,93,-1,8000,18.52,,,350,-2,0.2,,,,,,,,77,wg-a,,,,AAXX 04184 07481 02258 83510 10000 21010 39833 40131 53019 61000 77772 886// 91800 333 10002 21020 6100=
07481,1998-12-04 21:00:00,0,1014.7,1.5,93,-1,10000,7.408,,,10,,,,,,,,,,22,wg-a,,,,AAXX 04214 07481 02360 70104 10000 21010 39848 40147 51015 61000 72272 875// 92100 333 ////=
07481,1998-12-05 00:00:00,0,1015.6,0.9,93,-1,9000,7.408,,,350,,,,,,,,,,3,wg-a,,,,AAXX 05004 07481 02459 83504 10000 21010 39857 40156 52009 61000 70372 875// 90000 333 ////=
07481,1998-12-05 03:00:00,0,1016.2,0.6,93,-1,10000,11.112,,,360,,,,,,,,,,,wg-a,,,,AAXX 05034 07481 12360 73606 10000 21010 39863 40162 53006 60006 875// 90300=
07481,1998-12-05 06:00:00,0,1016.6,0.3,86,-2,20000,3.704,,,130,-0.4,0.2,,,,,,,,,wg-a,,,,AAXX 05064 07481 02570 71302 10000 21020 39866 40166 51003 60006 8453/ 90600 333 10002 21004 61000=
07481,1998-12-05 09:00:00,0,1018,1.4,93,-1,2500,3.704,,,90,,,,0,,,,,,70,wg-a,,,,AAXX 05094 07481 12225 80902 10000 21010 39880 40180 53014 60007 77072 885// 90900=
07481,1998-12-05 12:00:00,1,1018.8,1,93,0,3000,3.704,,,20,,,,,,,,,,70,wg-a,,,,AAXX 05124 07481 02330 80202 10010 20000 39890 40188 51010 60016 77072 885// 91200 333 61000=
07481,1998-12-05 15:00:00,2,1019.4,0.6,93,1,8000,3.704,,,100,,,,0,,,,,,27,wg-a,,,,AAXX 05154 07481 12258 /1002 10020 20010 39896 40194 53006 60007 72787 86800 91500=
07481,1998-12-05 18:00:00,0,1021,1.3,80,-3,20000,7.408,,,300,-0.5,2.5,,,,,,,,1,wg-a,,,,AAXX 05184 07481 12670 /3004 10000 21030 39909 40210 53013 60006 70187 81500 91800 333 10025 21005=
07481,1998-12-05 21:00:00,-1,1022,0.9,86,-3,20000,11.112,,,160,,,,,,,,,,,wg-a,,,,AAXX 05214 07481 12670 21606 11010 21030 39918 40220 51009 60006 82500 92100=
07481,1998-12-06 00:00:00,-1,1021.3,-0.6,93,-2,12000,14.816,,,160,,,,,,,,,,,wg-a,,,,AAXX 06004 07481 12662 81608 11010 21020 39912 40213 58006 60006 885// 90000=
07481,1998-12-06 03:00:00,-1,1021.2,-0.1,100,-1,8000,11.112,,,150,,,,0,,,,,,22,wg-a,,,,AAXX 06034 07481 12558 81506 11010 21010 39911 40212 58001 60007 72272 885// 90300=
07481,1998-12-06 06:00:00,0,1020.8,-0.3,93,-1,4000,7.408,,,200,-1.7,0,,,,,,,,10,wg-a,,1,,AAXX 06064 07481 02240 82004 10000 21010 39908 40208 55003 61000 71072 885// 90600 333 10000 21017 4/001 6001=
07481,1998-12-06 09:00:00,0,1023.2,2.3,93,-1,2500,3.704,,,30,,,,0,,,,,,10,wg-a,,,,AAXX 06094 07481 12225 80302 10000 21010 39931 40232 53023 60007 71077 885// 90900=
07481,1998-12-06 12:00:00,2,1024.3,1.3,87,0,12000,14.816,,,350,,,,,,,,,,2,wg-a,,,,AAXX 06124 07481 02262 53508 10020 20000 39944 40243 51013 60006 70272 84602 91200 333 61000=
07481,1998-12-06 15:00:00,2,1025.5,1.2,69,-3,20000,14.816,,,10,,,,,,,,,,,wg-a,,,,AAXX 06154 07481 12470 20108 10020 21030 39956 40255 53012 60006 82100 91500=
07481,1998-12-06 18:00:00,-1,1027.6,1.7,80,-4,20000,7.408,,,350,-0.5,2.8,,,,,,,,,wg-a,,,,AAXX 06184 07481 12570 /3504 11010 21040 39973 40276 52017 60006 81500 91800 333 10028 21005=
07481,1998-12-06 21:00:00,-1,1029,1.3,80,-4,20000,11.112,,,350,,,,,,,,,,,wg-a,,,,AAXX 06214 07481 12670 23506 11010 21040 39986 40290 51013 60006 82500 92100=
07481,1998-12-07 00:00:00,-4,1029.8,0.5,93,-5,20000,3.704,,,20,,,,,,,,,,,wg-a,,,,AAXX 07004 07481 12670 /0202 11040 21050 39991 40298 50005 60006 81500 90000=
07481,1998-12-07 03:00:00,-4,1030.6,0.7,93,-5,20000,3.704,,,260,,,,,,,,,,,wg-a,,,,AAXX 07034 07481 12670 /2602 11040 21050 39998 40306 53007 60006 81500 90300=
07481,1998-12-07 06:00:00,-4,1031.3,0.6,93,-5,18000,7.408,,,100,-4.8,-0.5,,,,,,,,,wg-a,,,,AAXX 07064 07481 02668 /1004 11040 21050 30004 40313 53006 60006 81500 90600 333 11005 21048 60004=
07481,1998-12-07 09:00:00,-3,1032.7,1.6,93,-4,15000,3.704,,,70,,,,,,,,,,,wg-a,,,,AAXX 07094 07481 12565 /0702 11030 21040 30020 40327 51016 60006 86500 90900=
07481,1998-12-07 12:00:00,0,1031.6,-0.7,86,-2,11000,3.704,,,260,,,,,,,,,,,wg-a,,,,AAXX 07124 07481 12/61 /2602 10000 21020 30013 40316 58007 60006 91200=
07481,1998-12-07 15:00:00,1,1032,0.5,80,-2,18000,11.112,,,20,,,,,,,,,,,wg-a,,,,AAXX 07154 07481 12568 70206 10010 21020 30018 40320 53005 60006 878// 91500=
07481,1998-12-07 18:00:00,-1,1033.5,1.2,93,-2,12000,7.408,,,350,-4.7,2.3,,,,,,,,,wg-a,,,,AAXX 07184 07481 12662 /3504 11010 21020 30030 40335 51012 60006 81500 91800 333 10023 21047=
07481,1998-12-07 21:00:00,-3,1033.8,0.1,93,-4,12000,3.704,,,10,,,,,,,,,,,wg-a,,,,AAXX 07214 07481 12/62 00102 11030 21040 30031 40338 50001 60006 80000 92100=
07481,1998-12-08 00:00:00,-4,1034,0.1,100,-4,9000,0,,,0,,,,,,,,,,,wg-a,,,,AAXX 08004 07481 12/59 00000 11040 21040 30032 40340 53001 60006 80000 90000=
07481,1998-12-08 03:00:00,-4,1034.3,0.2,93,-5,7000,3.704,,,360,,,,,,,,,,,wg-a,,,,AAXX 08034 07481 12/57 03602 11040 21050 30034 40343 50002 60006 80000 90300=
07481,1998-12-08 06:00:00,-5,1034.4,-0.1,93,-6,4000,7.408,,,90,-5.8,-0.6,,,,,,,,40,wg-a,,,,AAXX 08064 07481 02140 40904 11050 21060 30033 40344 55001 60006 74040 84600 90600 333 11006 21058 60004=
07481,1998-12-08 09:00:00,-3,1034.8,0.7,93,-4,2500,3.704,,,50,,,,,,,,,,10,wg-a,,,,AAXX 08094 07481 12125 70502 11030 21040 30040 40348 53007 60006 71011 876// 90900=
07481,1998-12-08 12:00:00,-2,1033.7,-1,93,-3,1200,3.704,,,310,,,,,,,,,,40,wg-a,,,,AAXX 08124 07481 12112 73102 11020 21030 30030 40337 58010 60006 74041 876// 91200=
07481,1998-12-08 18:00:00,-3,1033.5,0.7,100,-3,600,0,,,0,-5.3,-1.6,,,,,,,,48,wg-a,,,,AAXX 08184 07481 12106 70000 11030 21030 30028 40335 51007 60006 74842 876// 91800 333 11016 21053=
07481,1998-12-08 21:00:00,-4,1033.3,-0.3,100,-4,100,3.704,,,220,,,,,,,,,,48,wg-a,,,,AAXX 08214 07481 12/01 92202 11040 21040 30025 40333 58003 60006 74844 89/// 92100=
07481,1998-12-09 00:00:00,-3,1031.6,-1.6,93,-4,200,0,,,0,,,,,,,,,,49,wg-a,,,,AAXX 09004 07481 12/02 90000 11030 21040 30009 40316 56016 60006 74944 89/// 90000=
07481,1998-12-09 03:00:00,-4,1030.7,-1,93,-5,1400,3.704,,,90,,,,,,,,,,10,wg-a,,,,AAXX 09034 07481 12114 80902 11040 21050 39999 40307 58010 60006 71042 886// 90300=
07481,1998-12-09 06:00:00,-3,1029.9,-0.7,93,-4,4000,3.704,,,80,-4,-2.8,,,,,,,,10,wg-a,,,,AAXX 09064 07481 02240 70802 11030 21040 39992 40299 56007 60006 71042 8753/ 90600 333 11028 21040 60004=
07481,1998-12-09 09:00:00,-1,1030.1,0.5,86,-3,500,11.112,,,160,,,,,,,,,,,wg-a,,,,AAXX 09094 07481 12700 /1606 11010 21030 39997 40301 52005 60006 81532 90900=
07481,1998-12-09 12:00:00,2,1028.2,-1.6,64,-4,8000,11.112,,,140,,,,,,,,,,,wg-a,,,,AAXX 09124 07481 12658 71406 10020 21040 39981 40282 58016 60006 8157/ 91200=
07481,1998-12-09 15:00:00,2,1027.6,,69,-3,8000,3.704,,,250,,,,,,,,,,,wg-a,,,,AAXX 09154 07481 32658 82502 10020 21030 39975 40276 8157/ 91500=
07481,1998-12-09 18:00:00,0,1028.3,,80,-3,8000,3.704,,,40,-3.1,2.4,,,,,,,,,wg-a,,,,AAXX 09184 07481 12658 80402 10000 21030 39981 40283 60006 8157/ 91800 333 10024 21031=
07481,1998-12-09 21:00:00,2,1028.3,0.1,69,-3,18000,11.112,,,150,,,,,,,,,,,wg-a,,,,AAXX 09214 07481 12668 81506 10020 21030 39982 40283 51001 60006 8157/ 92100=
07481,1998-12-10 00:00:00,1,1027.9,-0.4,80,-2,18000,7.408,,,140,,,,,,,,,,,wg-a,,,,AAXX 10004 07481 12668 71404 10010 21020 39978 40279 58004 60006 8353/ 90000=
07481,1998-12-10 03:00:00,1,1027.3,-0.6,80,-2,18000,3.704,,,180,,,,,,,,,,,wg-a,,,,AAXX 10034 07481 12668 71802 10010 21020 39972 40273 56006 60006 81531 90300=
07481,1998-12-10 06:00:00,2,1026,-1.2,75,-2,15000,14.816,,,160,0.4,1.9,,,,,,,,,wg-a,,,,AAXX 10064 07481 02765 71608 10020 21020 39960 40260 56012 60006 8353/ 90600 333 10019 20004 60004=
07481,1998-12-10 09:00:00,2,1026.5,0.5,80,-1,10000,11.112,,,140,,,,,,,,,,,wg-a,,,,AAXX 10094 07481 12560 71406 10020 21010 39965 40265 52005 60006 83530 90900=
07481,1998-12-10 12:00:00,7,1024.5,-1.4,66,1,10000,7.408,,,140,,,,,,,,,,,wg-a,,,,AAXX 10124 07481 12560 /1404 10070 20010 39951 40245 58014 60006 82830 91200=
07481,1998-12-10 15:00:00,6,1022.8,-1.7,75,2,9000,7.408,,,130,,,,,,,,,,,wg-a,,,,AAXX 10154 07481 12659 71304 10060 20020 39934 40228 56017 60006 81530 91500=
07481,1998-12-10 18:00:00,4,1021.8,-1.2,75,0,15000,11.112,,,150,1.6,7.9,,,,,,,,,wg-a,,,,AAXX 10184 07481 12665 /1506 10040 20000 39922 40218 58012 60006 82530 91800 333 10079 20016=
07481,1998-12-10 21:00:00,5,1021,-0.7,81,2,12000,11.112,,,170,,,,,,,,,,60,wg-a,,,,AAXX 10214 07481 02662 71706 10050 20020 39915 40210 56007 61000 76062 875// 92100 333 ////=
07481,1998-12-11 00:00:00,4,1019,-2,93,3,12000,7.408,,,140,,,,4,,,,,,61,wg-a,,,,AAXX 11004 07481 02662 81404 10040 20030 39895 40190 58020 60046 76162 8552/ 90000 333 60047=
07481,1998-12-11 03:00:00,6,1018.3,-0.5,93,5,500,3.704,,,180,,,,6,,,,,,61,wg-a,,,,AAXX 11034 07481 12300 81802 10060 20050 39890 40183 56005 60067 76166 875// 90300=
07481,1998-12-11 06:00:00,4,1020.2,1.7,100,4,2500,3.704,,,120,3.6,5.9,,,,,12,,,10,wg-a,,,,AAXX 11064 07481 02225 71202 10040 20040 39907 40202 53017 60006 71062 875// 90600 333 10059 20036 60124=
07481,1998-12-11 09:00:00,5,1023,2.8,100,5,9000,0,,,0,,,,0,,,,,,11,wg-a,,,,AAXX 11094 07481 12459 70000 10050 20050 39935 40230 52028 60007 71162 878// 90900=
07481,1998-12-11 12:00:00,10,1022.8,0.3,71,5,500,7.408,,,330,,,,,,,,,,1,wg-a,,,,AAXX 11124 07481 12500 73304 10100 20050 39938 40228 50003 60016 70161 878// 91200=
07481,1998-12-11 15:00:00,8,1023.8,0.8,87,6,25000,11.112,,,30,,,,,,,,,,25,wg-a,,,,AAXX 11154 07481 02475 70306 10080 20060 39946 40238 53008 61000 72586 878// 91500 333 ////=
07481,1998-12-11 18:00:00,7,1025.4,1.4,93,6,20000,0,,,0,4.1,9.8,,,,,,,,21,wg-a,,,,AAXX 11184 07481 02470 70000 10070 20060 39960 40254 51014 61000 72186 878// 91800 333 10098 20041 6001=
07481,1998-12-11 21:00:00,5,1026.1,0.5,100,5,6000,0,,,0,,,,,,,,,,40,wg-a,,,,AAXX 11214 07481 12756 40000 10050 20050 39965 40261 51005 60006 74011 81530 92100=
07481,1998-12-12 00:00:00,3,1026.9,0.5,100,3,500,11.112,,,140,,,,,,,,,,44,wg-a,,,,AAXX 12004 07481 12005 /1406 10030 20030 39970 40269 50005 60006 74441 81640 90000=
07481,1998-12-12 03:00:00,3,1027.7,0.8,93,2,4000,14.816,,,150,,,,,,,,,,10,wg-a,,,,AAXX 12034 07481 12040 71508 10030 20020 39978 40277 51008 60006 71042 8453/ 90300=
07481,1998-12-12 06:00:00,2,1028.3,0.5,100,2,8000,14.816,,,150,2.1,6.6,,,,,1,,,1,wg-a,,,,AAXX 12064 07481 02/58 71508 10020 20020 39983 40283 50005 60006 70142 85032 90600 333 10066 20021 60014=
07481,1998-12-12 09:00:00,4,1028.7,0.6,93,3,12000,11.112,,,170,,,,,,,,,,,wg-a,,,,AAXX 12094 07481 12662 71706 10040 20030 39989 40287 53006 60006 8657/ 90900=
07481,1998-12-12 12:00:00,5,1028.6,0,93,4,7000,14.816,,,140,,,,0,,,,,,61,wg-a,,,,AAXX 12124 07481 02657 81408 10050 20040 39989 40286 50000 60006 76162 875// 91200 333 60007=
07481,1998-12-12 15:00:00,6,1028.8,0.3,93,5,6000,14.816,,,140,,,,1,,,,,,10,wg-a,,,,AAXX 12154 07481 12256 81408 10060 20050 39992 40288 53003 60017 71065 875// 91500=
07481,1998-12-12 18:00:00,5,1030.1,1.2,100,5,10000,7.408,,,150,2.4,5.6,,0,,,,,,3,wg-a,,,,AAXX 12184 07481 02560 81504 10050 20050 30004 40301 53012 60006 70365 885// 91800 333 10056 20024 60007=
07481,1998-12-12 21:00:00,5,1031.2,1.1,100,5,15000,7.408,,,210,,,,,,,,,,,wg-a,,,,AAXX 12214 07481 12665 /2104 10050 20050 30015 40312 53011 60006 83540 92100=
07481,1998-12-13 00:00:00,6,1031.3,0.1,93,5,15000,3.704,,,160,,,,,,,,,,,wg-a,,,,AAXX 13004 07481 12665 51602 10060 20050 30016 40313 50001 60006 83540 90000=
07481,1998-12-13 03:00:00,7,1031.6,0.4,93,6,12000,3.704,,,210,,,,,,,,,,21,wg-a,,,,AAXX 13034 07481 02662 82102 10070 20060 30020 40316 53004 61000 72162 885// 90300 333 ////=
07481,1998-12-13 06:00:00,6,1032.8,1.2,100,6,10000,7.408,,,150,5.2,7.3,,,,,2,,,1,wg-a,,,,AAXX 13064 07481 02560 71504 10060 20060 30032 40328 53012 60006 70162 85572 90600 333 10073 20052 60024=
07481,1998-12-13 09:00:00,7,1036.5,3.6,100,7,4500,3.704,,,170,,,,,,,,,,28,wg-a,,,,AAXX 13094 07481 12645 31702 10070 20070 30068 40365 51036 60006 72841 83501 90900=
07481,1998-12-13 12:00:00,11,1035.8,-0.2,87,9,12000,7.408,,,40,,,,,,,,,,1,wg-a,,,,AAXX 13124 07481 12662 20404 10110 20090 30066 40358 58002 60006 70141 81201 91200=
07481,1998-12-13 15:00:00,13,1035.4,-0.2,67,7,25000,7.408,,,340,,,,,,,,,,,wg-a,,,,AAXX 13154 07481 12675 33404 10130 20070 30064 40354 55002 60006 81201 91500=
07481,1998-12-13 18:00:00,8,1036.9,0.9,87,6,15000,3.704,,,60,3.9,13.4,,,,,,,,,wg-a,,,,AAXX 13184 07481 12/65 50602 10080 20060 30073 40369 51009 60006 80001 91800 333 10134 20039=
07481,1998-12-13 21:00:00,5,1037.2,-0,93,4,15000,0,,,0,,,,,,,,,,,wg-a,,,,AAXX 13214 07481 12/65 30000 10050 20040 30073 40372 54000 60006 80001 92100=
07481,1998-12-14 00:00:00,2,1036,-1.5,100,2,1500,11.112,,,150,,,,,,,,,,,wg-a,,,,AAXX 14004 07481 12/15 /1506 10020 20020 30058 40360 58015 60006 90000=
07481,1998-12-14 06:00:00,2,1036.4,-0.4,100,2,400,7.408,,,150,1.6,8.2,,,,,,,,43,wg-a,,,,AAXX 14064 07481 02/04 91504 10020 20020 30062 40364 58004 60006 74342 89/// 90600 333 10082 20016 60004=
07481,1998-12-14 09:00:00,2,1037.4,0.9,100,2,200,3.704,,,130,,,,,,,,,,45,wg-a,,,,AAXX 14094 07481 12/02 91302 10020 20020 30071 40374 51009 60006 74544 89/// 90900=
07481,1998-12-14 12:00:00,3,1036,-1.3,93,2,200,3.704,,,160,,,,,,,,,,43,wg-a,,,,AAXX 14124 07481 12/02 91602 10030 20020 30058 40360 58013 60006 74344 89/// 91200=
07481,1998-12-14 15:00:00,4,1034.9,-0.9,100,4,300,3.704,,,80,,,,,,,,,,44,wg-a,,,,AAXX 14154 07481 12003 80802 10040 20040 30049 40349 55009 60006 74444 886// 91500=
07481,1998-12-14 18:00:00,3,1035.1,0.2,100,3,200,3.704,,,100,1.5,3.9,,,,,,,,44,wg-a,,,,AAXX 14184 07481 12002 81002 10030 20030 30051 40351 53002 60006 74444 886// 91800 333 10039 20015=
07481,1998-12-15 00:00:00,2,1034.7,-0.4,100,2,200,3.704,,,130,,,,,,,,,,44,wg-a,,,,AAXX 15004 07481 12002 81302 10020 20020 30046 40347 56004 60006 74444 886// 90000=
07481,1998-12-15 06:00:00,0,1033.4,-0.5,100,0,200,7.408,,,130,-0.1,3.4,,,,,,,,44,wg-a,,,,AAXX 15064 07481 02002 81304 10000 20000 30030 40334 55005 60006 74444 886// 90600 333 10034 21001 60004=
07481,1998-12-15 09:00:00,0,1034,0.6,100,0,100,3.704,,,10,,,,,,,,,,45,wg-a,,,,AAXX 15094 07481 12/01 90102 10000 20000 30036 40340 51006 60006 74544 89/// 90900=
07481,1998-12-15 12:00:00,2,1032.6,-1.2,100,2,200,3.704,,,290,,,,,,,,,,44,wg-a,,,,AAXX 15124 07481 12002 82902 10020 20020 30024 40326 58012 60006 74444 876// 91200=
07481,1998-12-15 15:00:00,2,1031.4,-1.1,100,2,100,0,,,0,,,,,,,,,,45,wg-a,,,,AAXX 15154 07481 12/01 90000 10020 20020 30013 40314 56011 60006 74544 89/// 91500=
07481,1998-12-15 18:00:00,1,1031.5,0,100,1,100,3.704,,,70,-0.4,2.4,,,,,,,,45,wg-a,,,,AAXX 15184 07481 12/01 90702 10010 20010 30013 40315 50000 60006 74544 89/// 91800 333 10024 21004=
07481,1998-12-15 21:00:00,0,1032.9,1.2,100,0,100,3.704,,,70,,,,,,,,,,45,wg-a,,,,AAXX 15214 07481 12/01 90702 10000 20000 30025 40329 53012 60006 74544 89/// 92100=
07481,1998-12-16 00:00:00,0,1034.7,1.7,93,-1,100,3.704,,,260,,,,,,,,,,45,wg-a,,,,AAXX 16004 07481 12/01 92602 10000 21010 30042 40347 51017 60006 74544 89/// 90000=
07481,1998-12-16 03:00:00,-1,1034.3,-0.4,100,-1,200,3.704,,,340,,,,,,,,,,45,wg-a,,,,AAXX 16034 07481 12/02 93402 11010 21010 30038 40343 58004 60006 74544 89/// 90300=
07481,1998-12-16 06:00:00,-1,1035.7,1.3,93,-2,400,0,,,0,-1.4,0.9,,,,,,,,43,wg-a,,,,AAXX 16064 07481 02/04 90000 11010 21020 30051 40357 53013 60006 74344 89/// 90600 333 10009 21014 60004=
07481,1998-12-16 09:00:00,0,1035.4,-0.1,100,0,1400,3.704,,,150,,,,,,,,,,40,wg-a,,,,AAXX 16094 07481 12214 61502 10000 20000 30050 40354 58001 60006 74041 86601 90900=
07481,1998-12-16 12:00:00,2,1033.6,-1.6,100,2,200,3.704,,,90,,,,,,,,,,45,wg-a,,,,AAXX 16124 07481 12/02 90902 10020 20020 30034 40336 58016 60006 74541 89/// 91200=
07481,1998-12-16 15:00:00,2,1031.9,-1.6,100,2,300,7.408,,,110,,,,,,,,,,43,wg-a,,,,AAXX 16154 07481 12/03 91104 10020 20020 30018 40319 56016 60006 74344 89/// 91500=
07481,1998-12-16 18:00:00,3,1032.7,0.9,100,3,1300,3.704,,,140,-1.6,2.9,,,,,,,,10,wg-a,,,,AAXX 16184 07481 12113 81402 10030 20030 30027 40327 51009 60006 71042 886// 91800 333 10029 21016=
07481,1998-12-16 21:00:00,4,1032.8,0.1,100,4,1400,3.704,,,230,,,,,,,,,,10,wg-a,,,,AAXX 16214 07481 12114 82302 10040 20040 30028 40328 50001 60006 71022 886// 92100=
07481,1998-12-17 00:00:00,4,1032.4,-0.3,100,4,4000,7.408,,,150,,,,,,,,,,10,wg-a,,,,AAXX 17004 07481 12240 81504 10040 20040 30025 40324 56003 60006 71022 886// 90000=
07481,1998-12-17 03:00:00,3,1031.2,-1.3,100,3,100,7.408,,,120,,,,,,,,,,44,wg-a,,,,AAXX 17034 07481 12/01 91204 10030 20030 30012 40312 58013 60006 74442 89/// 90300=
07481,1998-12-17 06:00:00,3,1030.8,-0.4,100,3,200,7.408,,,140,2.6,4,,,,,,,,43,wg-a,,,,AAXX 17064 07481 02/02 91404 10030 20030 30008 40308 58004 60006 74342 89/// 90600 333 10040 20026 60004=
07481,1998-12-17 12:00:00,4,1028.8,-2,100,4,6000,3.704,,,130,,,,,,,,,,1,wg-a,,,,AAXX 17124 07481 12356 71302 10040 20040 39990 40288 58020 60006 70142 876// 91200=
07481,1998-12-17 18:00:00,3,1028.4,0.4,100,3,200,7.408,,,220,2.4,6.2,,,,,,,,45,wg-a,,,,AAXX 17184 07481 12/02 92204 10030 20030 39985 40284 52004 60006 74541 89/// 91800 333 10062 20024=
07481,1998-12-17 21:00:00,2,1029.3,0.8,100,2,100,3.704,,,240,,,,,,,,,,45,wg-a,,,,AAXX 17214 07481 12/01 92402 10020 20020 39993 40293 51008 60006 74544 89/// 92100=
07481,1998-12-18 00:00:00,-1,1029.2,-0.4,100,-1,200,0,,,0,,,,,,,,,,,wg-a,,,,AAXX 18004 07481 12/02 /0000 11010 21010 39989 40292 58004 60006 90000=
07481,1998-12-18 03:00:00,0,1028.7,-0.4,100,0,12000,3.704,,,50,,,,,,,,,,2,wg-a,,,,AAXX 18034 07481 12/62 00502 10000 20000 39985 40287 58004 60006 70240 80000 90300=
07481,1998-12-18 06:00:00,0,1028.4,-0.3,100,0,10000,0,,,0,-0.5,3.3,,,,,,,,2,wg-a,,,,AAXX 18064 07481 02/60 00000 10000 20000 39982 40284 55003 60006 70240 80000 90600 333 10033 21005 60004=
07481,1998-12-18 09:00:00,4,1028.2,0.2,81,1,10000,11.112,,,150,,,,,,,,,,,wg-a,,,,AAXX 18094 07481 12/60 01506 10040 20010 39984 40282 50002 60006 80000 90900=
07481,1998-12-18 12:00:00,9,1026.2,-1.4,66,3,12000,3.704,,,340,,,,,,,,,,,wg-a,,,,AAXX 18124 07481 12/62 13402 10090 20030 39970 40262 58014 60006 80002 91200=
07481,1998-12-18 15:00:00,13,1024,-1.8,51,3,12000,7.408,,,190,,,,0,,,,,,,wg-a,,,,AAXX 18154 07481 12/62 21904 10130 20030 39952 40240 56018 60007 80001 91500=
07481,1998-12-18 18:00:00,6,1024.4,-0.2,65,0,18000,11.112,,,140,-0.1,12.9,,,,,,,,,wg-a,,,,AAXX 18184 07481 12/68 11406 10060 20000 39950 40244 57002 60006 80001 91800 333 10129 21001=
07481,1998-12-18 21:00:00,6,1023.9,-0.5,65,0,18000,7.408,,,120,,,,,,,,,,,wg-a,,,,AAXX 18214 07481 12/68 11204 10060 20000 39945 40239 56005 60006 80001 92100=
07481,1998-12-19 00:00:00,6,1022.8,-1.2,70,1,18000,7.408,,,210,,,,,,,,,,,wg-a,,,,AAXX 19004 07481 12/68 72104 10060 20010 39933 40228 58012 60006 8703/ 90000=
07481,1998-12-19 03:00:00,6,1022.3,-0.4,87,4,15000,7.408,,,270,,,,0,,,,,,60,wg-a,,,,AAXX 19034 07481 12565 82704 10060 20040 39929 40223 56004 60007 76062 8357/ 90300=
07481,1998-12-19 06:00:00,5,1022.4,-0,87,3,15000,3.704,,,160,3.9,8.5,,,,,,,,1,wg-a,,,,AAXX 19064 07481 02765 81602 10050 20030 39929 40224 54000 60006 70162 8357/ 90600 333 10085 20039 60004=
07481,1998-12-19 09:00:00,5,1024.4,1.9,87,3,8000,11.112,,,110,,,,,,,,,,,wg-a,,,,AAXX 19094 07481 32/58 /1106 10050 20030 39948 40244 51019 90900=
07481,1998-12-19 12:00:00,7,1023.6,-0.6,87,5,6000,7.408,,25.928,60,,,,,,,,,,21,wg-a,,,,AAXX 19124 07481 02456 70604 10070 20050 39942 40236 58006 60006 72162 85872 91200 333 61000 91014=
07481,1998-12-19 15:00:00,9,1022.2,-1.1,66,3,500,11.112,,,330,,,,,,,,,,,wg-a,,,,AAXX 19154 07481 12500 63306 10090 20030 39931 40222 56011 60006 83542 91500=
07481,1998-12-19 18:00:00,5,1022.4,-0.3,87,3,500,0,,,0,4.5,10.3,,,,,,,,,wg-a,,,,AAXX 19184 07481 12600 30000 10050 20030 39928 40224 58003 60006 81531 91800 333 10103 20045=
07481,1998-12-19 21:00:00,2,1021.2,-1.4,93,1,25000,0,,,0,,,,,,,,,,,wg-a,,,,AAXX 19214 07481 12/75 10000 10020 20010 39914 40212 58014 60006 80001 92100=
07481,1998-12-20 00:00:00,1,1018,-3.2,93,0,15000,0,,,0,,,,,,,,,,,wg-a,,,,AAXX 20004 07481 12/65 10000 10010 20000 39882 40180 58032 60006 80001 90000=
07481,1998-12-20 03:00:00,0,1014.8,-3.3,93,-1,12000,11.112,,,150,,,,,,,,,,,wg-a,,,,AAXX 20034 07481 12/62 41506 10000 21010 39849 40148 58033 60006 83031 90300=
07481,1998-12-20 06:00:00,1,1009.3,-5.2,93,0,12000,7.408,,,150,-0.8,4.5,,,,,,,,,wg-a,,,,AAXX 20064 07481 02/62 71504 10010 20000 39797 40093 56052 60006 85032 90600 333 10045 21008 60004=
07481,1998-12-20 09:00:00,2,1005.9,-3.2,93,1,9000,11.112,,,140,,,,1,,,,,,68,wg-a,,,,AAXX 20094 07481 12359 81406 10020 20010 39765 40059 56032 60017 76876 8582/ 90900=
07481,1998-12-20 12:00:00,3,1002.9,-2.8,87,1,15000,18.52,,,160,,,,2,,,,,,60,wg-a,,,,AAXX 20124 07481 02465 81610 10030 20010 39737 40029 58028 60046 76076 8482/ 91200 333 60027=
07481,1998-12-20 15:00:00,3,1000.9,-1.9,93,2,18000,3.704,,,170,,,,1,,,,,,1,wg-a,,,,AAXX 20154 07481 12468 71702 10030 20020 39718 40009 56019 60017 70162 8587/ 91500=
07481,1998-12-20 18:00:00,2,1003.6,2.5,100,2,10000,7.408,,,340,0.4,3.5,,,,,,,,61,wg-a,,,,AAXX 20184 07481 02160 83404 10020 20020 39743 40036 51025 61000 76162 877// 91800 333 10035 20004 6004=
07481,1998-12-20 21:00:00,3,1006.5,2.9,93,2,15000,25.928,,,350,,,,5,,,,,,60,wg-a,,,,AAXX 20214 07481 12365 83514 10030 20020 39772 40065 53029 60057 76066 887// 92100=
07481,1998-12-21 00:00:00,4,1009.6,3.1,81,1,20000,35.188,,,360,,,,,,,,,,2,wg-a,,,,AAXX 21004 07481 02470 83619 10040 20010 39803 40096 52031 60056 70262 867// 90000 333 61000=
07481,1998-12-21 06:00:00,1,1016,3.5,80,-2,25000,29.632,,,340,0.7,3.7,,,,,13,,,,wg-a,,,,AAXX 21064 07481 02475 33416 10010 21020 39862 40160 52035 60006 83500 90600 333 10037 20007 60134=
07481,1998-12-21 09:00:00,1,1019.6,3.5,80,-2,25000,35.188,,,340,,,,0,,,,,,,wg-a,,,,AAXX 21094 07481 12475 33419 10010 21020 39897 40196 51035 60007 83500 90900=
07481,1998-12-21 12:00:00,2,1020.6,1.1,75,-2,25000,38.892,,,350,,,,,,,,,,,wg-a,,,,AAXX 21124 07481 12575 43521 10020 21020 39908 40206 51011 60006 84200 91200=
07481,1998-12-21 15:00:00,3,1023,2.4,65,-3,25000,29.632,,,360,,,,,,,,,,,wg-a,,,,AAXX 21154 07481 12575 43616 10030 21030 39932 40230 53024 60006 84200 91500=
07481,1998-12-21 18:00:00,1,1025.8,2.5,80,-2,25000,22.224,,,340,0.3,3.2,,,,,,,,,wg-a,,,,AAXX 21184 07481 12575 /3412 10010 21020 39957 40258 51025 60006 81500 91800 333 10032 20003=
07481,1998-12-21 21:00:00,0,1027.4,1.4,86,-2,10000,14.816,,,350,,,,,,,,,,,wg-a,,,,AAXX 21214 07481 12/60 /3508 10000 21020 39971 40274 51014 60006 92100=
07481,1998-12-22 00:00:00,-1,1027.6,0.2,86,-3,18000,18.52,,,340,,,,,,,,,,,wg-a,,,,AAXX 22004 07481 12/68 03410 11010 21030 39973 40276 53002 60006 80000 90000=
07481,1998-12-22 03:00:00,-1,1027.7,0.1,80,-4,18000,14.816,,,340,,,,,,,,,,,wg-a,,,,AAXX 22034 07481 12/68 03408 11010 21040 39974 40277 53001 60006 80000 90300=
07481,1998-12-22 06:00:00,-2,1028.9,1.1,93,-3,18000,7.408,,,350,-1.5,0.9,,,,,,,,,wg-a,,,,AAXX 22064 07481 02768 13504 11020 21030 39985 40289 51011 60006 81501 90600 333 10009 21015 60004=
07481,1998-12-22 09:00:00,-1,1030.1,1.2,86,-3,8000,3.704,,,340,,,,,,,,,,,wg-a,,,,AAXX 22094 07481 12458 /3402 11010 21030 39997 40301 53012 60006 81500 90900=
07481,1998-12-22 12:00:00,2,1028.8,-1,69,-3,20000,14.816,,,350,,,,,,,,,,,wg-a,,,,AAXX 22124 07481 12470 33508 10020 21030 39987 40288 58010 60006 83100 91200=
07481,1998-12-22 15:00:00,2,1028.3,-0.4,69,-3,25000,14.816,,,350,,,,,,,,,,,wg-a,,,,AAXX 22154 07481 12575 /3508 10020 21030 39983 40283 55004 60006 81100 91500=
07481,1998-12-22 18:00:00,-1,1029.1,0.4,93,-2,15000,3.704,,,320,-2.2,2.6,,,,,,,,,wg-a,,,,AAXX 22184 07481 12/65 03202 11010 21020 39987 40291 53004 60006 80000 91800 333 10026 21022=
07481,1998-12-22 21:00:00,-2,1028.9,-0.2,93,-3,15000,3.704,,,90,,,,,,,,,,,wg-a,,,,AAXX 22214 07481 12/65 00902 11020 21030 39985 40289 57002 60006 80000 92100=
07481,1998-12-23 03:00:00,-4,1027.5,-0.4,93,-5,12000,0,,,0,,,,,,,,,,,wg-a,,,,AAXX 23034 07481 12/62 10000 11040 21050 39968 40275 57004 60006 80002 90300=
07481,1998-12-23 06:00:00,-5,1027.4,-0.2,93,-6,10000,7.408,,,150,-4.9,-0.8,,,,,,,,,wg-a,,,,AAXX 23064 07481 02/60 01504 11050 21060 39966 40274 56002 60006 80000 90600 333 11008 21049 60004=
07481,1998-12-23 09:00:00,-2,1027.4,0.3,80,-5,6000,3.704,,,180,,,,,,,,,,,wg-a,,,,AAXX 23094 07481 12856 41802 11020 21050 39969 40274 51003 60006 81032 90900=
07481,1998-12-23 12:00:00,3,1023.9,-2.7,70,-2,8000,14.816,,,140,,,,,,,,,,,wg-a,,,,AAXX 23124 07481 12858 /1408 10030 21020 39942 40239 58027 60006 81032 91200=
07481,1998-12-23 15:00:00,6,1022.4,-1.2,70,1,10000,22.224,,42.596,190,,,,,,,,,,,wg-a,,,,AAXX 23154 07481 12860 51912 10060 20010 39930 40224 55012 60006 81032 91500 333 91023=
07481,1998-12-23 18:00:00,5,1023.6,1,65,-1,25000,14.816,,,160,-4.8,6.7,,,,,,,,,wg-a,,,,AAXX 23184 07481 12675 /1608 10050 21010 39940 40236 51010 60006 84530 91800 333 10067 21048=
07481,1998-12-23 21:00:00,2,1024.2,0.3,80,-1,15000,11.112,,,150,,,,,,,,,,0,wg-a,,,,AAXX 23214 07481 32/65 51506 10020 21010 39943 40242 51003 700// 80001 92100=
07481,1998-12-24 00:00:00,5,1024.1,0.2,65,-1,20000,11.112,,,180,,,,,,,,,,0,wg-a,,,,AAXX 24004 07481 32/70 71806 10050 21010 39945 40241 50002 700// 82032 90000=
07481,1998-12-24 03:00:00,2,1023.2,-1.2,80,-1,15000,18.52,,,150,,,,,,,,,,0,wg-a,,,,AAXX 24034 07481 32665 /1510 10020 21010 39933 40232 58012 700// 81532 90300=
07481,1998-12-24 06:00:00,4,1023.2,0.3,75,0,15000,18.52,,,160,1.4,5,,,,,,,,0,wg-a,,,,AAXX 24064 07481 12665 71610 10040 20000 39936 40232 53003 60004 700// 875// 90600 333 10050 20014=
07481,1998-12-24 12:00:00,4,1024.3,0.2,93,3,7000,11.112,,,140,,,,1,,,,,,60,wg-a,,,,AAXX 24124 07481 12557 81406 10040 20030 39946 40243 50002 60017 76062 875// 91200=
07481,1998-12-24 15:00:00,3,1026.3,1.9,100,3,2000,3.704,,,310,,,,2,,,,,,60,wg-a,,,,AAXX 24154 07481 12120 83102 10030 20030 39965 40263 53019 60027 76066 885// 91500=
07481,1998-12-24 18:00:00,3,1029.1,2.7,93,2,12000,11.112,,,340,2.8,5.2,,0,,,,,,1,wg-a,,,,AAXX 24184 07481 12462 83406 10030 20020 39992 40291 51027 60007 70162 875// 91800 333 10052 20028=
07481,1998-12-24 21:00:00,2,1030.6,1.3,93,1,12000,7.408,,,20,,,,0,,,,,,1,wg-a,,,,AAXX 24214 07481 12462 /0204 10020 20010 30005 40306 53013 60007 70162 86500 92100=
07481,1998-12-25 00:00:00,0,1031.6,0.7,93,-1,11000,3.704,,,90,,,,,,,,,,,wg-a,,,,AAXX 25004 07481 32/61 /0902 10000 21010 30012 40316 51007 90000=
07481,1998-12-25 03:00:00,-1,1032.3,0.7,93,-2,12000,3.704,,,330,,,,,,,,,,0,wg-a,,,,AAXX 25034 07481 32462 /3302 11010 21020 30019 40323 51007 700// 81501 90300=
07481,1998-12-25 06:00:00,-1,1033,0.6,93,-2,12000,7.408,,,90,-1.1,2.8,,,,,4,,,0,wg-a,,,,AAXX 25064 07481 12462 70904 11010 21020 30025 40330 53006 60044 700// 875// 90600 333 10028 21011=
07481,1998-12-25 09:00:00,-1,1034.1,1.1,100,-1,1500,7.408,,,140,,,,,,,,,,10,wg-a,,,,AAXX 25094 07481 32115 81404 11010 21010 30036 40341 53011 71022 886// 90900=
07481,1998-12-25 12:00:00,3,1032.8,-0.9,87,1,7000,3.704,,,60,,,,,,,,,,0,wg-a,,,,AAXX 25124 07481 32257 70602 10030 20010 30027 40328 58009 700// 8163/ 91200=
07481,1998-12-25 15:00:00,4,1031.2,-1.4,81,1,20000,11.112,,,140,,,,,,,,,,0,wg-a,,,,AAXX 25154 07481 32670 71406 10040 20010 30013 40312 56014 700// 8253/ 91500=
07481,1998-12-25 18:00:00,3,1031.6,0.3,81,0,20000,11.112,,,150,-1.1,4.7,,,,,,,,0,wg-a,,,,AAXX 25184 07481 32570 71506 10030 20000 30016 40316 51003 700// 8353/ 91800 333 10047 21011=
07481,1998-12-25 21:00:00,2,1031.1,-0.6,80,-1,12000,11.112,,,150,,,,,,,,,,0,wg-a,,,,AAXX 25214 07481 32562 /1506 10020 21010 30010 40311 58006 700// 8553/ 92100=
07481,1998-12-26 00:00:00,1,1030.4,-0.8,86,-1,10000,7.408,,,160,,,,,,,,,,,wg-a,,,,AAXX 26004 07481 12/60 /1604 10010 21010 30002 40304 56008 60006 90000=
07481,1998-12-26 03:00:00,1,1031.2,0.8,86,-1,12000,7.408,,,170,,,,,,,,,,,wg-a,,,,AAXX 26034 07481 12762 61704 10010 21010 30010 40312 53008 60006 85530 90300=
07481,1998-12-26 06:00:00,1,1030.4,-0.8,80,-2,15000,11.112,,,180,-0.1,3,,,,,,,,,wg-a,,,,AAXX 26064 07481 02/65 51806 10010 21020 30002 40304 56008 60006 83031 90600 333 10030 21001 60004=
07481,1998-12-26 09:00:00,2,1029.8,-0.5,80,-1,25000,7.408,,,160,,,,,,,,,,,wg-a,,,,AAXX 26094 07481 12/75 71604 10020 21010 39997 40298 58005 60006 84032 90900=
07481,1998-12-26 12:00:00,6,1027.4,-1.9,65,0,20000,3.704,,,180,,,,,,,,,,,wg-a,,,,AAXX 26124 07481 12/70 61802 10060 20000 39978 40274 58019 60006 86070 91200=
07481,1998-12-26 15:00:00,8,1025.1,-2,66,2,15000,7.408,,,160,,,,,,,,,,,wg-a,,,,AAXX 26154 07481 12865 71604 10080 20020 39958 40251 55020 60006 8707/ 91500=
07481,1998-12-26 18:00:00,7,1024.4,-0.7,61,0,20000,14.816,,,180,0.6,8.1,,,,,,,,,wg-a,,,,AAXX 26184 07481 12870 61808 10070 20000 39951 40244 56007 60006 83072 91800 333 10081 20006=
07481,1998-12-26 21:00:00,8,1024.1,-0.3,49,-2,20000,22.224,,,180,,,,,,,,,,,wg-a,,,,AAXX 26214 07481 12870 71812 10080 21020 39948 40241 55003 60006 85072 92100=
07481,1998-12-27 00:00:00,7,1023,-1.1,45,-4,20000,22.224,,,170,,,,,,,,,,,wg-a,,,,AAXX 27004 07481 12/70 71712 10070 21040 39937 40230 56011 60006 85072 90000=
07481,1998-12-27 03:00:00,8,1021.8,-1.1,49,-2,20000,22.224,,,170,,,,,,,,,,,wg-a,,,,AAXX 27034 07481 12/70 71712 10080 21020 39926 40218 58011 60006 85072 90300=
07481,1998-12-27 06:00:00,8,1020.8,-1,49,-2,20000,14.816,,,120,6.8,8.6,,,,,,,,60,wg-a,,,,AAXX 27064 07481 02770 81208 10080 21020 39916 40208 55010 61000 76062 8357/ 90600 333 10086 20068 6100=
07481,1998-12-27 09:00:00,9,1019.8,-0.8,53,0,45000,22.224,,,170,,,,,,,,,,2,wg-a,,,,AAXX 27094 07481 02783 81712 10090 20000 39908 40198 55008 61000 70262 8157/ 90900 333 ////=
07481,1998-12-27 12:00:00,12,1018.4,-1.1,62,5,45000,22.224,,,180,,,,,,,,,,3,wg-a,,,,AAXX 27124 07481 02483 71812 10120 20050 39897 40184 58011 61000 70362 8187/ 91200 333 ////=
07481,1998-12-27 15:00:00,12,1017.3,-1.1,62,5,25000,22.224,,,170,,,,,,,,,,,wg-a,,,,AAXX 27154 07481 12775 71712 10120 20050 39886 40173 56011 60006 81531 91500=
07481,1998-12-27 18:00:00,11,1016.7,-0.6,66,5,25000,29.632,,,190,7.6,12,,,,,,,,,wg-a,,,,AAXX 27184 07481 12/75 41916 10110 20050 39880 40167 55006 60006 81031 91800 333 10120 20076=
07481,1998-12-27 21:00:00,11,1016.5,-0.2,62,4,25000,29.632,,48.152,180,,,,,,,,,,,wg-a,,,,AAXX 27214 07481 12/75 11816 10110 20040 39878 40165 55002 60006 81031 92100 333 91026=
07481,1998-12-28 00:00:00,11,1016.4,-0.1,58,3,10000,31.484,,,170,,,,,,,,,,,wg-a,,,,AAXX 28004 07481 12/60 /1717 10110 20030 39877 40164 58001 60006 90000=
07481,1998-12-28 03:00:00,11,1016.5,0.1,58,3,10000,29.632,,51.856,180,,,,,,,,,,,wg-a,,,,AAXX 28034 07481 12/60 /1816 10110 20030 39878 40165 53001 60006 90300 333 91028=
07481,1998-12-28 06:00:00,11,1016.7,0.1,62,4,25000,22.224,,,190,10.1,11.6,,,,,,,,,wg-a,,,,AAXX 28064 07481 02475 41912 10110 20040 39879 40167 51001 60006 81101 90600 333 10116 20101 61000=
07481,1998-12-28 09:00:00,12,1016.9,0.3,58,4,35000,25.928,,,190,,,,,,,,,,,wg-a,,,,AAXX 28094 07481 12581 61914 10120 20040 39882 40169 53003 60006 81131 90900=
07481,1998-12-28 12:00:00,13,1016.5,-0.3,51,3,35000,25.928,,,200,,,,,,,,,,,wg-a,,,,AAXX 28124 07481 12581 /2014 10130 20030 39879 40165 58003 60006 81132 91200=
07481,1998-12-28 18:00:00,10,1018.9,1.5,76,6,35000,18.52,,,200,9.9,13.2,,,,,,,,,wg-a,,,,AAXX 28184 07481 12681 /2010 10100 20060 39900 40189 53015 60006 84532 91800 333 10132 20099=
07481,1998-12-28 21:00:00,11,1018.7,-0.1,71,6,18000,22.224,,,190,,,,,,,,,,,wg-a,,,,AAXX 28214 07481 12768 71912 10110 20060 39899 40187 58001 60006 8553/ 92100=
07481,1998-12-29 00:00:00,10,1018.7,-0.1,76,6,18000,11.112,,,170,,,,,,,,,,,wg-a,,,,AAXX 29004 07481 12768 71706 10100 20060 39898 40187 58001 60006 875// 90000=
07481,1998-12-29 03:00:00,5,1018.2,-1,87,3,15000,11.112,,,140,,,,,,,,,,,wg-a,,,,AAXX 29034 07481 12865 31406 10050 20030 39888 40182 56010 60006 83500 90300=
07481,1998-12-29 06:00:00,4,1017.7,-0.6,87,2,20000,14.816,,,150,3.4,10.5,,,,,,,,,wg-a,,,,AAXX 29064 07481 02/70 01508 10040 20020 39882 40177 56006 60006 80000 90600 333 10105 20034 60004=
07481,1998-12-29 09:00:00,8,1017.2,-0.1,76,4,25000,25.928,,,160,,,,,,,,,,,wg-a,,,,AAXX 29094 07481 12475 /1614 10080 20040 39881 40172 57001 60006 81501 90900=
07481,1998-12-29 12:00:00,13,1014.9,-1.7,47,2,40000,31.484,,,180,,,,,,,,,,,wg-a,,,,AAXX 29124 07481 12582 /1817 10130 20020 39864 40149 58017 60006 81102 91200=
07481,1998-12-29 15:00:00,12,1013.5,-1.4,54,3,60000,25.928,,,190,,,,,,,,,,,wg-a,,,,AAXX 29154 07481 12686 /1914 10120 20030 39850 40135 56014 60006 81100 91500=
07481,1998-12-29 18:00:00,10,1014.1,0.4,66,4,40000,29.632,,,190,3.1,13.1,,,,,,,,,wg-a,,,,AAXX 29184 07481 12/82 11916 10100 20040 39854 40141 53004 60006 81040 91800 333 10131 20031=
07481,1998-12-29 21:00:00,10,1013.9,-0.2,57,2,40000,29.632,,,190,,,,,,,,,,0,wg-a,,,,AAXX 29214 07481 32/82 11916 10100 20020 39852 40139 58002 700// 81040 92100=
07481,1998-12-30 00:00:00,10,1014.7,0.7,53,1,10000,22.224,,,180,,,,,,,,,,,wg-a,,,,AAXX 30004 07481 32/60 /1812 10100 20010 39859 40147 51007 90000=
07481,1998-12-30 03:00:00,9,1014.2,-0.6,61,2,50000,22.224,,,180,,,,,,,,,,0,wg-a,,,,AAXX 30034 07481 32/84 01812 10090 20020 39853 40142 58006 700// 80000 90300=
07481,1998-12-30 06:00:00,8,1014.1,-0.2,66,2,40000,18.52,,,170,7.6,11,,,,,,,,0,wg-a,,,,AAXX 30064 07481 32/82 01710 10080 20020 39851 40141 56002 700// 80000 90600 333 10110 20076=
07481,1998-12-30 09:00:00,7,1015.4,1.2,76,3,40000,11.112,,,130,,,,,,,,,,0,wg-a,,,,AAXX 30094 07481 32682 /1306 10070 20030 39863 40154 51012 700// 81500 90900=
07481,1998-12-30 12:00:00,14,1014,-0.7,44,2,40000,22.224,,,190,,,,,,,,,,0,wg-a,,,,AAXX 30124 07481 32682 /1912 10140 20020 39856 40140 58007 700// 81501 91200=
07481,1998-12-30 15:00:00,12,1014.2,-0,50,2,40000,22.224,,,200,,,,,,,,,,0,wg-a,,,,AAXX 30154 07481 32682 42012 10120 20020 39856 40142 55000 700// 82541 91500=
07481,1998-12-30 18:00:00,11,1014.2,-0.1,50,1,500,25.928,,,200,6.4,14.2,,,,,,,,0,wg-a,,,,AAXX 30184 07481 32600 /2014 10110 20010 39855 40142 58001 700// 81542 91800 333 10142 20064=
07481,1998-12-30 21:00:00,7,1014.7,0.1,66,1,25000,14.816,,,140,,,,,,,,,,0,wg-a,,,,AAXX 30214 07481 32675 /1408 10070 20010 39856 40147 52001 700// 81542 92100=
07481,1998-12-31 00:00:00,7,1013.9,-0.8,66,1,25000,14.816,,,130,,,,,,,,,,0,wg-a,,,,AAXX 31004 07481 32875 71308 10070 20010 39848 40139 58008 700// 8705/ 90000=
07481,1998-12-31 03:00:00,6,1012.6,-1.4,65,0,25000,18.52,,,150,,,,,,,,,,0,wg-a,,,,AAXX 31034 07481 32875 71510 10060 20000 39834 40126 58014 700// 8705/ 90300=
07481,1998-12-31 06:00:00,6,1011,-1.5,61,-1,20000,7.408,,,100,5.3,10.9,,,,,,,,0,wg-a,,,,AAXX 31064 07481 12770 81004 10060 21010 39819 40110 57015 60004 700// 8757/ 90600 333 10109 20053=
07481,1998-12-31 12:00:00,11,1009.1,-1.6,50,1,500,11.112,,,160,,,,,,,,,,0,wg-a,,,,AAXX 31124 07481 32700 71606 10110 20010 39805 40091 58016 700// 8257/ 91200=
07481,1998-12-31 18:00:00,9,1008,-0,66,3,40000,11.112,,,230,6.4,11.9,,,,,,,,0,wg-a,,,,AAXX 31184 07481 32782 82306 10090 20030 39793 40080 55000 700// 8257/ 91800 333 10119 20064=
07481,1998-12-31 21:00:00,9,1008.7,0.7,66,3,40000,7.408,,,160,,,,,,,,,,0,wg-a,,,,AAXX 31214 07481 32782 81604 10090 20030 39800 40087 51007 700// 8257/ 92100=
