station_id,dh_utc,temperature,pression,pression_variation_3h,humidite,point_de_rosee,visibilite,vent_moyen,vent_rafales,vent_rafales_10min,vent_direction,temperature_min,temperature_max,pluie_1h,pluie_3h,pluie_6h,pluie_12h,pluie_24h,ensoleillement,temperature_sol,temps_omm,source,radiations,neige_au_sol,nebulosite,raw_msg
07761,1996-01-01 00:00:00,14,1000.7,0.7,72,9,15000,3.704,,,220,,,,,,,,,,,wg-a,,,,AAXX 01004 07761 12565 72202 10140 20090 39996 40007 53007 60006 878// 90000=
07761,1996-01-01 03:00:00,13,1001.6,0.9,77,9,18000,3.704,,,220,,,,,,,,,,,wg-a,,,,AAXX 01034 07761 12568 62202 10130 20090 30005 40016 53009 60006 86800 90300=
07761,1996-01-01 06:00:00,12,1002.6,1,82,9,18000,0,,,0,11.2,13.9,,,,,7,,,,wg-a,,,,AAXX 01064 07761 02568 50000 10120 20090 30015 40026 51010 60006 85800 90600 333 10139 20112 60074=
07761,1996-01-01 09:00:00,13,1003.3,0.7,82,10,15000,11.112,,,70,,,,,,,,,,,wg-a,,,,AAXX 01094 07761 12565 60706 10130 20100 30022 40033 52007 60006 85870 90900=
07761,1996-01-01 12:00:00,17,1001.8,-1.5,59,9,15000,3.704,,,220,,,,,,,,,,,wg-a,,,,AAXX 01124 07761 12565 /2202 10170 20090 30007 40018 58015 60006 84202 91200=
07761,1996-01-01 15:00:00,14,1000.8,-1,77,10,25000,3.704,,,180,,,,,,,,,,,wg-a,,,,AAXX 01154 07761 12575 /1802 10140 20100 39997 40008 58010 60006 81172 91500=
07761,1996-01-01 18:00:00,12,1000.5,-0.3,82,9,15000,7.408,,,60,10,17,,,,,,,,61,wg-a,,,,AAXX 01184 07761 02565 80604 10120 20090 39994 40005 58003 61000 76162 8557/ 91800 333 10170 20100 ////=
07761,1996-01-01 21:00:00,11,998.7,-1.8,94,10,8000,7.408,,,10,,,,5,,,,,,60,wg-a,,,,AAXX 01214 07761 12458 80104 10110 20100 39976 49987 58018 60057 76062 8652/ 92100=
07761,1996-01-02 00:00:00,12,998.7,-0,94,11,9000,7.408,,,30,,,,7,,,,,,60,wg-a,,,,AAXX 02004 07761 02459 80304 10120 20110 39976 49987 55000 60116 76062 8457/ 90000 333 60077=
07761,1996-01-02 03:00:00,13,1003.2,4.5,82,10,12000,11.112,,,290,,,,,,,,,,2,wg-a,,,,AAXX 02034 07761 02462 72906 10130 20100 30021 40032 51045 61000 70261 878// 90300 333 ////=
07761,1996-01-02 06:00:00,13,1005.5,2.3,82,10,12000,3.704,,,330,11,13,,,,,11,,,21,wg-a,,,,AAXX 02064 07761 02462 73302 10130 20100 30044 40055 53023 60114 72161 878// 90600 333 10130 20110 61000=
07761,1996-01-02 09:00:00,14,1006.9,1.4,72,9,15000,3.704,,,290,,,,,,,,,,,wg-a,,,,AAXX 02094 07761 12565 52902 10140 20090 30058 40069 52014 60006 83270 90900=
07761,1996-01-02 12:00:00,15,1007.5,0.6,67,9,15000,25.928,,,300,,,,,,,,,,,wg-a,,,,AAXX 02124 07761 12565 /3014 10150 20090 30064 40075 51006 60006 86500 91200=
07761,1996-01-02 15:00:00,13,1007.5,-0,77,9,6000,31.484,,55.56,290,,,,2,,,,,,80,wg-a,,,,AAXX 02154 07761 12556 82917 10130 20090 30064 40075 55000 60027 78086 888// 91500 333 91030=
07761,1996-01-02 18:00:00,12,1007.2,-0.3,88,10,10000,11.112,,64.82,260,12.1,14.6,,3,,,,,,25,wg-a,,,,AAXX 02184 07761 12560 72606 10120 20100 30061 40072 57003 60037 72586 878// 91800 333 10146 20121 91035=
07761,1996-01-02 21:00:00,11,1008.7,1.5,94,10,12000,7.408,,,50,,,,2,,,,,,1,wg-a,,,,AAXX 02214 07761 12562 /0504 10110 20100 30076 40087 53015 60027 70186 86800 92100=
07761,1996-01-03 00:00:00,11,1009.6,0.9,94,10,12000,11.112,,,60,,,,,,,,,,3,wg-a,,,,AAXX 03004 07761 12562 70606 10110 20100 30085 40096 50009 60026 70386 878// 90000=
07761,1996-01-03 03:00:00,9,1010.8,1.2,87,7,12000,14.816,,,50,,,,,,,,,,,wg-a,,,,AAXX 03034 07761 12562 /0508 10090 20070 30097 40108 53012 60006 83800 90300=
07761,1996-01-03 06:00:00,7,1011.7,0.9,87,5,15000,14.816,,,50,6.8,12.1,,,,,6,,,,wg-a,,,,AAXX 03064 07761 12/65 00508 10070 20050 30106 40117 51009 60064 80000 90600 333 10121 20068=
07761,1996-01-03 09:00:00,8,1013.8,2.1,93,7,20000,11.112,,,40,,,,,,,,,,,wg-a,,,,AAXX 03094 07761 12570 60406 10080 20070 30127 40138 53021 60006 86801 90900=
07761,1996-01-03 12:00:00,14,1013.3,-0.5,72,9,25000,3.704,,,270,,,,,,,,,,,wg-a,,,,AAXX 03124 07761 12575 /2702 10140 20090 30122 40133 58005 60006 82800 91200=
07761,1996-01-03 15:00:00,14,1013.1,-0.2,77,10,25000,7.408,,,250,,,,,,,,,,,wg-a,,,,AAXX 03154 07761 12575 /2504 10140 20100 30120 40131 55002 60006 81200 91500=
07761,1996-01-03 18:00:00,12,1013.7,0.6,88,10,0,3.704,,,130,6.1,15.3,,,,,,,,,wg-a,,,,AAXX 03184 07761 12/// /1302 10120 20100 30126 40137 53006 60006 91800 333 10153 20061=
07761,1996-01-03 21:00:00,11,1014.5,0.8,94,10,15000,7.408,,,70,,,,,,,,,,,wg-a,,,,AAXX 03214 07761 12465 /0704 10110 20100 30134 40145 51008 60006 878// 92100=
07761,1996-01-04 00:00:00,9,1014.6,0.1,93,8,15000,7.408,,,60,,,,,,,,,,,wg-a,,,,AAXX 04004 07761 12465 30604 10090 20080 30135 40146 51001 60006 83800 90000=
07761,1996-01-04 03:00:00,8,1015,0.4,87,6,15000,14.816,,,70,,,,,,,,,,,wg-a,,,,AAXX 04034 07761 12465 40708 10080 20060 30139 40150 53004 60006 84500 90300=
07761,1996-01-04 06:00:00,8,1015.4,0.4,87,6,15000,14.816,,,40,7.5,12.1,,,,,,,,,wg-a,,,,AAXX 04064 07761 02465 /0408 10080 20060 30143 40154 51004 60006 81500 90600 333 10121 20075 60004=
07761,1996-01-04 09:00:00,9,1016.9,1.5,81,6,25000,11.112,,,50,,,,,,,,,,,wg-a,,,,AAXX 04094 07761 12575 20506 10090 20060 30158 40169 51015 60006 81101 90900=
07761,1996-01-04 12:00:00,14,1015.7,-1.2,67,8,25000,7.408,,,240,,,,,,,,,,,wg-a,,,,AAXX 04124 07761 12575 22404 10140 20080 30146 40157 58012 60006 82200 91200=
07761,1996-01-04 15:00:00,13,1015.4,-0.3,77,9,11000,3.704,,,190,,,,,,,,,,,wg-a,,,,AAXX 04154 07761 32/61 /1902 10130 20090 30143 40154 55003 91500=
07761,1996-01-04 18:00:00,8,1015.2,-0.2,87,6,20000,14.816,,,50,6.2,14.8,,,,,,,,,wg-a,,,,AAXX 04184 07761 32/70 30508 10080 20060 30141 40152 58002 80002 91800 333 10148 20062=
07761,1996-01-04 21:00:00,5,1014.4,-0.8,93,4,20000,11.112,,,50,,,,,,,,,,,wg-a,,,,AAXX 04214 07761 12/70 60506 10050 20040 30133 40144 56008 60006 80006 92100=
07761,1996-01-05 00:00:00,6,1013.2,-1.2,81,3,20000,11.112,,,40,,,,,,,,,,,wg-a,,,,AAXX 05004 07761 12/70 80406 10060 20030 30121 40132 58012 60006 81037 90000=
07761,1996-01-05 03:00:00,6,1010.9,-2.3,81,3,18000,18.52,,,50,,,,,,,,,,,wg-a,,,,AAXX 05034 07761 12668 70510 10060 20030 30098 40109 58023 60006 8157/ 90300=
07761,1996-01-05 06:00:00,6,1010,-0.9,81,3,20000,14.816,,,40,4.7,7.9,,,,,,,,,wg-a,,,,AAXX 05064 07761 02670 50408 10060 20030 30089 40100 58009 60006 81532 90600 333 10079 20047 60004=
07761,1996-01-05 09:00:00,10,1009.1,-0.9,71,5,500,3.704,,,360,,,,,,,,,,,wg-a,,,,AAXX 05094 07761 12500 83602 10100 20050 30080 40091 55009 60006 8653/ 90900=
07761,1996-01-05 12:00:00,11,1007.3,-1.8,76,7,500,3.704,,,90,,,,,,,,,,,wg-a,,,,AAXX 05124 07761 12500 80902 10110 20070 30062 40073 58018 60006 8483/ 91200=
07761,1996-01-05 15:00:00,11,1005.1,-2.2,87,9,18000,7.408,,,50,,,,,,,,,,,wg-a,,,,AAXX 05154 07761 12568 80504 10110 20090 30040 40051 56022 60006 8587/ 91500=
07761,1996-01-05 18:00:00,11,1003.5,-1.6,82,8,10000,7.408,,,20,6.2,11.8,,2,,,,,,61,wg-a,,,,AAXX 05184 07761 12560 80204 10110 20080 30024 40035 56016 60027 76162 8587/ 91800 333 10118 20062=
07761,1996-01-05 21:00:00,10,1002.4,-1.1,93,9,9000,18.52,,,50,,,,5,,,,,,60,wg-a,,,,AAXX 05214 07761 12559 80510 10100 20090 30013 40024 56011 60057 76066 8587/ 92100=
07761,1996-01-06 00:00:00,11,1000.4,-2,94,10,10000,14.816,,,50,,,,0,,,,,,1,wg-a,,,,AAXX 06004 07761 02760 70508 10110 20100 39993 40004 58020 60056 70162 8587/ 90000 333 60007=
07761,1996-01-06 03:00:00,11,997.7,-2.7,87,9,10000,7.408,,,40,,,,,,,,,,21,wg-a,,,,AAXX 06034 07761 02560 70404 10110 20090 39966 49977 56027 61000 72162 8587/ 90300 333 ////=
07761,1996-01-06 06:00:00,11,998.2,0.5,87,9,10000,11.112,,,50,9.8,12,,3,,,10,,,61,wg-a,,,,AAXX 06064 07761 02660 80506 10110 20090 39971 49982 53005 60104 76162 8587/ 90600 333 10120 20098 60037=
07761,1996-01-06 09:00:00,12,999.7,1.5,94,11,10000,7.408,,,60,,,,2,,,,,,21,wg-a,,,,AAXX 06094 07761 12560 /0604 10120 20110 39986 49997 52015 60027 72162 84870 90900=
07761,1996-01-06 12:00:00,13,1000.5,0.8,88,11,10000,7.408,,,260,,,,,,,,,,3,wg-a,,,,AAXX 06124 07761 12460 82604 10130 20110 39994 40005 51008 60026 70362 878// 91200=
07761,1996-01-06 15:00:00,13,1001.8,1.3,88,11,10000,0,,,0,,,,,,,,,,,wg-a,,,,AAXX 06154 07761 12460 70000 10130 20110 30007 40018 53013 60006 878// 91500=
07761,1996-01-06 18:00:00,12,1003.2,1.4,94,11,10000,3.704,,,20,10.4,13.5,,,,,,,,,wg-a,,,,AAXX 06184 07761 32460 70202 10120 20110 30021 40032 51014 878// 91800 333 10135 20104=
07761,1996-01-06 21:00:00,10,1005.6,2.4,93,9,10000,11.112,,,50,,,,,,,,,,28,wg-a,,,,AAXX 06214 07761 12460 70506 10100 20090 30045 40056 53024 60006 72842 875// 92100=
07761,1996-01-07 00:00:00,11,1006.5,0.9,94,10,10000,0,,,0,,,,0,,,,,,3,wg-a,,,,AAXX 07004 07761 02460 70000 10110 20100 30054 40065 51009 60006 70342 875// 90000 333 60007=
07761,1996-01-07 03:00:00,11,1005.4,-1.1,94,10,12000,14.816,,,80,,,,1,,,,,,21,wg-a,,,,AAXX 07034 07761 12562 70808 10110 20100 30043 40054 56011 60017 72162 875// 90300=
07761,1996-01-07 06:00:00,11,1005.1,-0.3,87,9,9000,11.112,,,60,9.8,12.3,,3,,,5,,,61,wg-a,,,,AAXX 07064 07761 02559 80606 10110 20090 30040 40051 55003 60054 76162 885// 90600 333 10123 20098 60037=
07761,1996-01-07 09:00:00,12,1004.8,-0.3,94,11,15000,7.408,,,30,,,,0,,,,,,1,wg-a,,,,AAXX 07094 07761 12465 80304 10120 20110 30037 40048 55003 60007 70162 887// 90900=
07761,1996-01-07 12:00:00,14,1003.3,-1.5,94,13,9000,11.112,,,140,,,,,,,,,,3,wg-a,,,,AAXX 07124 07761 02459 81406 10140 20130 30022 40033 58015 61000 70362 887// 91200 333 ////=
07761,1996-01-07 15:00:00,15,1003.5,0.2,94,14,6000,22.224,,,210,,,,0,,,,,,25,wg-a,,,,AAXX 07154 07761 12356 82112 10150 20140 30024 40035 53002 60007 72586 879// 91500=
07761,1996-01-07 18:00:00,14,1004.7,1.2,94,13,7000,14.816,,,200,10.7,16.3,,,,,,,,1,wg-a,,,,AAXX 07184 07761 32357 82008 10140 20130 30036 40047 53012 70186 8377/ 91800 333 10163 20107=
07761,1996-01-07 21:00:00,13,1005.8,1.1,94,12,10000,3.704,,,70,,,,,,,,,,1,wg-a,,,,AAXX 07214 07761 02460 80702 10130 20120 30047 40058 51011 61000 70162 8357/ 92100 333 ////=
07761,1996-01-08 00:00:00,12,1006.7,0.9,94,11,10000,3.704,,,50,,,,,,,,,,1,wg-a,,,,AAXX 08004 07761 02560 80502 10120 20110 30056 40067 53009 61000 70162 8577/ 90000 333 ////=
07761,1996-01-08 03:00:00,12,1008.4,1.7,76,8,10000,11.112,,,330,,,,0,,,,,,1,wg-a,,,,AAXX 08034 07761 12560 43306 10120 20080 30073 40084 51017 60007 70161 82870 90300=
07761,1996-01-08 06:00:00,10,1010.1,1.7,87,8,10000,11.112,,,50,9.2,14.1,,,,,,,,1,wg-a,,,,AAXX 08064 07761 12560 /0506 10100 20080 30090 40101 53017 60004 70161 86800 90600 333 10141 20092=
07761,1996-01-08 09:00:00,10,1012.8,2.7,93,9,25000,0,,,0,,,,,,,,,,,wg-a,,,,AAXX 08094 07761 12575 50000 10100 20090 30117 40128 52027 60006 85800 90900=
07761,1996-01-08 12:00:00,13,1014,1.2,77,9,20000,3.704,,,270,,,,,,,,,,,wg-a,,,,AAXX 08124 07761 12570 72702 10130 20090 30129 40140 51012 60006 878// 91200=
07761,1996-01-08 15:00:00,13,1014.4,0.4,77,9,25000,3.704,,,210,,,,,,,,,,,wg-a,,,,AAXX 08154 07761 12575 22102 10130 20090 30133 40144 53004 60006 82800 91500=
07761,1996-01-08 18:00:00,8,1015.3,0.9,93,7,20000,11.112,,,50,8,14.5,,,,,,,,,wg-a,,,,AAXX 08184 07761 12/70 00506 10080 20070 30142 40153 53009 60006 80000 91800 333 10145 20080=
07761,1996-01-08 21:00:00,6,1017.2,1.9,87,4,20000,14.816,,,40,,,,,,,,,,,wg-a,,,,AAXX 08214 07761 12/70 00408 10060 20040 30161 40172 53019 60006 80000 92100=
07761,1996-01-09 00:00:00,5,1016.7,-0.5,93,4,20000,11.112,,,50,,,,,,,,,,,wg-a,,,,AAXX 09004 07761 12/70 00506 10050 20040 30156 40167 55005 60006 80000 90000=
07761,1996-01-09 03:00:00,4,1015.2,-1.5,87,2,20000,11.112,,,60,,,,,,,,,,,wg-a,,,,AAXX 09034 07761 12/70 00606 10040 20020 30141 40152 58015 60006 80000 90300=
07761,1996-01-09 06:00:00,4,1015.6,0.4,87,2,20000,14.816,,,60,3,8.6,,,,,,,,,wg-a,,,,AAXX 09064 07761 02/70 10608 10040 20020 30145 40156 51004 60006 80001 90600 333 10086 20030 60004=
07761,1996-01-09 09:00:00,8,1015.7,0.1,81,5,500,14.816,,,50,,,,,,,,,,,wg-a,,,,AAXX 09094 07761 12/00 30508 10080 20050 30146 40157 53001 60006 81072 90900=
07761,1996-01-09 12:00:00,15,1013.8,-1.9,67,9,50000,11.112,,,220,,,,,,,,,,,wg-a,,,,AAXX 09124 07761 12/84 32206 10150 20090 30127 40138 56019 60006 81032 91200=
07761,1996-01-09 15:00:00,14,1011.6,-2.2,72,9,40000,7.408,,,200,,,,,,,,,,,wg-a,,,,AAXX 09154 07761 12/82 62004 10140 20090 30105 40116 56022 60006 81032 91500=
07761,1996-01-09 18:00:00,8,1011.1,-0.5,87,6,18000,7.408,,,50,2.2,15.6,,,,,,,,,wg-a,,,,AAXX 09184 07761 12568 20504 10080 20060 30100 40111 58005 60006 81501 91800 333 10156 20022=
07761,1996-01-09 21:00:00,8,1010.1,-1,81,5,18000,3.704,,,20,,,,,,,,,,,wg-a,,,,AAXX 09214 07761 12/68 /0202 10080 20050 30090 40101 58010 60006 83072 92100=
07761,1996-01-10 00:00:00,16,1008.5,-1.6,42,3,20000,18.52,,,10,,,,,,,,,,,wg-a,,,,AAXX 10004 07761 12/70 20110 10160 20030 30074 40085 58016 60006 82071 90000=
07761,1996-01-10 03:00:00,17,1007.9,-0.6,48,6,20000,18.52,,,90,,,,,,,,,,,wg-a,,,,AAXX 10034 07761 12770 70910 10170 20060 30068 40079 58006 60006 8157/ 90300=
07761,1996-01-10 06:00:00,18,1008.3,0.4,52,8,20000,11.112,,38.892,120,7.2,18.1,,,,,,,,,wg-a,,,,AAXX 10064 07761 02770 81206 10180 20080 30072 40083 53004 60006 8527/ 90600 333 10181 20072 60004 91021=
07761,1996-01-10 09:00:00,16,1009.8,1.5,68,10,25000,7.408,,,270,,,,,,,,,,2,wg-a,,,,AAXX 10094 07761 02675 72704 10160 20100 30087 40098 53015 61000 70262 8487/ 90900 333 ////=
07761,1996-01-10 12:00:00,18,1009,-0.8,64,11,18000,3.704,,,300,,,,,,,,,,3,wg-a,,,,AAXX 10124 07761 02668 73002 10180 20110 30079 40090 58008 61000 70362 8387/ 91200 333 6100=
07761,1996-01-10 15:00:00,16,1009.3,0.3,72,11,15000,3.704,,,180,,,,,,,,,,,wg-a,,,,AAXX 10154 07761 12765 81802 10160 20110 30082 40093 53003 60006 8357/ 91500=
07761,1996-01-10 18:00:00,14,1010.4,1.1,82,11,15000,7.408,,,330,13.6,18.1,,,,,,,,,wg-a,,,,AAXX 10184 07761 32665 83304 10140 20110 30093 40104 53011 8257/ 91800 333 10181 20136=
07761,1996-01-10 21:00:00,12,1011.3,0.9,94,11,15000,14.816,,,50,,,,,,,,,,,wg-a,,,,AAXX 10214 07761 12665 80508 10120 20110 30102 40113 50009 60006 8257/ 92100=
07761,1996-01-11 00:00:00,12,1010.7,-0.6,88,10,15000,14.816,,,60,,,,,,,,,,,wg-a,,,,AAXX 11004 07761 12665 70608 10120 20100 30096 40107 58006 60006 8151/ 90000=
07761,1996-01-11 03:00:00,15,1010.4,-0.3,63,8,15000,11.112,,,40,,,,,,,,,,,wg-a,,,,AAXX 11034 07761 12665 /0406 10150 20080 30093 40104 58003 60006 82510 90300=
07761,1996-01-11 06:00:00,16,1009.9,-0.5,59,8,20000,7.408,,,330,11.3,17.3,,,,,,,,,wg-a,,,,AAXX 11064 07761 02670 /3304 10160 20080 30088 40099 56005 60006 83530 90600 333 10173 20113 61000=
07761,1996-01-11 09:00:00,15,1010.8,0.9,67,9,25000,7.408,,,60,,,,,,,,,,,wg-a,,,,AAXX 11094 07761 12675 40604 10150 20090 30097 40108 52009 60006 81571 90900=
07761,1996-01-11 12:00:00,18,1010.4,-0.4,49,7,25000,7.408,,,220,,,,,,,,,,,wg-a,,,,AAXX 11124 07761 12675 62204 10180 20070 30093 40104 58004 60006 81172 91200=
07761,1996-01-11 15:00:00,17,1010.3,-0.1,59,9,25000,11.112,,,280,,,,,,,,,,,wg-a,,,,AAXX 11154 07761 12675 /2806 10170 20090 30092 40103 57001 60006 81572 91500=
07761,1996-01-11 18:00:00,13,1010.6,0.3,77,9,20000,7.408,,,70,12.3,18.1,,,,,,,,,wg-a,,,,AAXX 11184 07761 12870 20704 10130 20090 30095 40106 51003 60006 82070 91800 333 10181 20123=
07761,1996-01-11 21:00:00,10,1011.1,0.5,87,8,20000,14.816,,,40,,,,,,,,,,,wg-a,,,,AAXX 11214 07761 12/70 /0408 10100 20080 30100 40111 50005 60006 80002 92100=
07761,1996-01-12 00:00:00,8,1009.5,-1.6,87,6,20000,11.112,,,60,,,,,,,,,,,wg-a,,,,AAXX 12004 07761 12/70 20606 10080 20060 30084 40095 56016 60006 80001 90000=
07761,1996-01-12 03:00:00,8,1008.7,-0.8,81,5,20000,14.816,,,50,,,,,,,,,,,wg-a,,,,AAXX 12034 07761 12/70 40508 10080 20050 30076 40087 57008 60006 83032 90300=
07761,1996-01-12 06:00:00,9,1007.9,-0.8,71,4,20000,18.52,,,40,7,12.7,,,,,,,,,wg-a,,,,AAXX 12064 07761 02/70 50410 10090 20040 30068 40079 55008 60006 81032 90600 333 10127 20070 60004=
07761,1996-01-12 09:00:00,12,1007.7,-0.2,67,6,500,7.408,,,60,,,,,,,,,,,wg-a,,,,AAXX 12094 07761 12/00 70604 10120 20060 30066 40077 56002 60006 81032 90900=
07761,1996-01-12 12:00:00,18,1006,-1.7,56,9,500,3.704,,,240,,,,,,,,,,,wg-a,,,,AAXX 12124 07761 12700 72402 10180 20090 30049 40060 58017 60006 81542 91200=
07761,1996-01-12 15:00:00,18,1006,-0,49,7,500,18.52,,,110,,,,,,,,,,,wg-a,,,,AAXX 12154 07761 12700 71110 10180 20070 30049 40060 55000 60006 81542 91500=
07761,1996-01-12 21:00:00,12,1007.7,1.1,88,10,15000,11.112,,,40,,,,,,,,,,60,wg-a,,,,AAXX 12214 07761 02765 80406 10120 20100 30066 40077 51011 61000 76062 8357/ 92100 333 ////=
07761,1996-01-13 00:00:00,11,1007.9,0.2,94,10,15000,7.408,,,60,,,,,,,,,,2,wg-a,,,,AAXX 13004 07761 02765 80604 10110 20100 30068 40079 52002 61000 70262 8357/ 90000 333 6100=
07761,1996-01-13 03:00:00,11,1008.6,0.7,87,9,15000,3.704,,,70,,,,,,,,,,,wg-a,,,,AAXX 13034 07761 12765 50702 10110 20090 30075 40086 51007 60006 83570 90300=
07761,1996-01-13 06:00:00,11,1010.6,2,87,9,20000,3.704,,,20,10.6,12.9,,0,,,,,,21,wg-a,,,,AAXX 13064 07761 02770 70202 10110 20090 30095 40106 53020 60004 72162 8357/ 90600 333 10129 20106 60007=
07761,1996-01-13 09:00:00,13,1012.8,2.2,82,10,20000,3.704,,,190,,,,,,,,,,,wg-a,,,,AAXX 13094 07761 12670 71902 10130 20100 30117 40128 53022 60006 8587/ 90900=
07761,1996-01-13 12:00:00,17,1013.2,0.4,55,8,20000,7.408,,,20,,,,,,,,,,,wg-a,,,,AAXX 13124 07761 12670 70204 10170 20080 30121 40132 51004 60006 84872 91200=
07761,1996-01-13 15:00:00,13,1014.5,1.3,88,11,20000,7.408,,,60,,,,1,,,,,,60,wg-a,,,,AAXX 13154 07761 12670 70604 10130 20110 30134 40145 53013 60017 76062 8587/ 91500=
07761,1996-01-13 18:00:00,12,1015.7,1.2,88,10,15000,11.112,,,60,10.9,16.6,,0,,,,,,2,wg-a,,,,AAXX 13184 07761 12765 70606 10120 20100 30146 40157 51012 60007 70262 8457/ 91800 333 10166 20109=
07761,1996-01-13 21:00:00,10,1016.9,1.2,93,9,20000,11.112,,,60,,,,,,,,,,,wg-a,,,,AAXX 13214 07761 12770 30606 10100 20090 30158 40169 51012 60006 8357/ 92100=
07761,1996-01-14 00:00:00,8,1017.2,0.3,93,7,20000,11.112,,,50,,,,,,,,,,,wg-a,,,,AAXX 14004 07761 12770 /0506 10080 20070 30161 40172 50003 60006 81570 90000=
07761,1996-01-14 03:00:00,9,1017.8,0.6,93,8,20000,7.408,,,40,,,,0,,,,,,60,wg-a,,,,AAXX 14034 07761 12770 70404 10090 20080 30167 40178 51006 60007 76061 8457/ 90300=
07761,1996-01-14 06:00:00,10,1018.3,0.5,87,8,15000,7.408,,,70,8,11.5,,,,,2,,,1,wg-a,,,,AAXX 14064 07761 02665 /0704 10100 20080 30172 40183 53005 60024 70161 82570 90600 333 10115 20080 61000=
07761,1996-01-14 09:00:00,11,1019.5,1.2,82,8,40000,11.112,,,40,,,,,,,,,,,wg-a,,,,AAXX 14094 07761 12682 /0406 10110 20080 30184 40195 51012 60006 81571 90900=
07761,1996-01-14 12:00:00,16,1019.1,-0.4,63,9,40000,7.408,,,240,,,,,,,,,,,wg-a,,,,AAXX 14124 07761 12782 32404 10160 20090 30180 40191 58004 60006 81231 91200=
07761,1996-01-14 15:00:00,18,1019.1,-0,56,9,25000,7.408,,,310,,,,,,,,,,,wg-a,,,,AAXX 14154 07761 12775 /3104 10180 20090 30180 40191 55000 60006 81270 91500=
07761,1996-01-14 18:00:00,11,1020.9,1.8,82,8,20000,14.816,,,50,8.1,17.9,,,,,,,,,wg-a,,,,AAXX 14184 07761 12/70 /0508 10110 20080 30198 40209 53018 60006 81030 91800 333 10179 20081=
07761,1996-01-14 21:00:00,8,1022.3,1.4,87,6,20000,14.816,,,40,,,,,,,,,,,wg-a,,,,AAXX 14214 07761 12/70 00408 10080 20060 30212 40223 52014 60006 80000 92100=
07761,1996-01-15 00:00:00,7,1022.2,-0.1,93,6,20000,14.816,,,40,,,,,,,,,,,wg-a,,,,AAXX 15004 07761 12/70 00408 10070 20060 30211 40222 58001 60006 80000 90000=
07761,1996-01-15 03:00:00,6,1022.5,0.3,93,5,20000,14.816,,,40,,,,,,,,,,,wg-a,,,,AAXX 15034 07761 12/70 00408 10060 20050 30214 40225 50003 60006 80000 90300=
07761,1996-01-15 06:00:00,6,1023.2,0.7,87,4,20000,11.112,,,40,5.5,11.4,,,,,,,,,wg-a,,,,AAXX 15064 07761 02/70 00406 10060 20040 30221 40232 53007 60006 80000 90600 333 10114 20055 60004=
07761,1996-01-15 09:00:00,10,1024.2,1,82,7,500,11.112,,,50,,,,,,,,,,,wg-a,,,,AAXX 15094 07761 12600 10506 10100 20070 30231 40242 53010 60006 81100 90900=
07761,1996-01-15 12:00:00,15,1023.8,-0.4,72,10,500,11.112,,,230,,,,,,,,,,,wg-a,,,,AAXX 15124 07761 12500 /2306 10150 20100 30227 40238 58004 60006 81100 91200=
07761,1996-01-15 15:00:00,15,1023.4,-0.4,77,11,15000,11.112,,,210,,,,,,,,,,,wg-a,,,,AAXX 15154 07761 12565 /2106 10150 20110 30223 40234 55004 60006 81200 91500=
07761,1996-01-15 18:00:00,11,1024.2,0.8,87,9,10000,3.704,,,160,5.9,15.4,,,,,,,,,wg-a,,,,AAXX 15184 07761 12560 31602 10110 20090 30231 40242 53008 60006 83500 91800 333 10154 20059=
07761,1996-01-15 21:00:00,9,1024.9,0.7,93,8,15000,11.112,,,50,,,,,,,,,,,wg-a,,,,AAXX 15214 07761 12565 40506 10090 20080 30238 40249 51007 60006 84500 92100=
07761,1996-01-16 00:00:00,9,1024.9,0,87,7,10000,11.112,,,50,,,,,,,,,,,wg-a,,,,AAXX 16004 07761 12560 40506 10090 20070 30238 40249 50000 60006 84500 90000=
07761,1996-01-16 03:00:00,9,1025,0.1,93,8,10000,7.408,,,60,,,,,,,,,,,wg-a,,,,AAXX 16034 07761 12560 70604 10090 20080 30239 40250 53001 60006 875// 90300=
07761,1996-01-16 06:00:00,10,1025.3,0.3,87,8,10000,3.704,,,70,8.3,10.9,,,,,,,,,wg-a,,,,AAXX 16064 07761 02560 70702 10100 20080 30242 40253 53003 60006 875// 90600 333 10109 20083 60004=
07761,1996-01-16 09:00:00,11,1026.6,1.3,94,10,12000,7.408,,,70,,,,,,,,,,,wg-a,,,,AAXX 16094 07761 12562 /0704 10110 20100 30255 40266 51013 60006 86500 90900=
07761,1996-01-16 12:00:00,13,1026.1,-0.5,72,8,12000,14.816,,,230,,,,,,,,,,,wg-a,,,,AAXX 16124 07761 12562 52308 10130 20080 30250 40261 58005 60006 85800 91200=
07761,1996-01-16 13:00:00,11,1026.3,0.7,82,8,12000,3.704,,,350,9.5,14.3,,,,,,,,,wg-a,,,,AAXX 16134 07761 12562 73502 10110 20080 30252 40263 53007 60006 875// 91300 333 10143 20095=
07761,1996-01-16 15:00:00,13,1025.6,-0.5,67,7,12000,11.112,,,230,,,,,,,,,,,wg-a,,,,AAXX 16154 07761 12562 /2306 10130 20070 30245 40256 56005 60006 86800 91500=
07761,1996-01-16 18:00:00,11,1026.3,0.7,82,8,12000,3.704,,,350,9.5,14.3,,,,,,,,,wg-a,,,,AAXX 16184 07761 12562 73502 10110 20080 30252 40263 53007 60006 875// 91800 333 10143 20095=
07761,1996-01-16 21:00:00,8,1027.1,0.8,87,6,12000,11.112,,,50,,,,,,,,,,,wg-a,,,,AAXX 16214 07761 12562 /0506 10080 20060 30260 40271 53008 60006 81500 92100=
07761,1996-01-17 00:00:00,6,1026.8,-0.3,87,4,12000,14.816,,,50,,,,,,,,,,,wg-a,,,,AAXX 17004 07761 12562 30508 10060 20040 30257 40268 58003 60006 83500 90000=
07761,1996-01-17 03:00:00,5,1026.3,-0.5,87,3,11000,14.816,,,40,,,,,,,,,,,wg-a,,,,AAXX 17034 07761 12/61 /0408 10050 20030 30252 40263 58005 60006 90300=
07761,1996-01-17 06:00:00,4,1026.7,0.4,81,1,10000,11.112,,,50,3.5,11.3,,,,,,,,,wg-a,,,,AAXX 17064 07761 02560 30506 10040 20010 30256 40267 53004 60006 81570 90600 333 10113 20035 60004=
07761,1996-01-17 09:00:00,6,1027.4,0.7,81,3,20000,14.816,,,40,,,,,,,,,,,wg-a,,,,AAXX 17094 07761 12570 20408 10060 20030 30263 40274 51007 60006 82500 90900=
07761,1996-01-17 12:00:00,14,1025.9,-1.5,58,6,500,7.408,,,210,,,,,,,,,,,wg-a,,,,AAXX 17124 07761 12600 /2104 10140 20060 30248 40259 58015 60006 81100 91200=
07761,1996-01-17 15:00:00,13,1025,-0.9,67,7,500,7.408,,,200,,,,,,,,,,,wg-a,,,,AAXX 17154 07761 12500 /2004 10130 20070 30239 40250 56009 60006 81101 91500=
07761,1996-01-17 18:00:00,7,1025.3,0.3,87,5,20000,11.112,,,70,3.2,14.4,,,,,,,,,wg-a,,,,AAXX 17184 07761 12570 30706 10070 20050 30242 40253 53003 60006 81501 91800 333 10144 20032=
07761,1996-01-17 21:00:00,7,1025.2,-0.1,81,4,15000,14.816,,,50,,,,,,,,,,,wg-a,,,,AAXX 17214 07761 12565 /0508 10070 20040 30241 40252 56001 60006 86500 92100=
07761,1996-01-18 00:00:00,6,1025.4,0.2,87,4,0,14.816,,,50,,,,,,,,,,,wg-a,,,,AAXX 18004 07761 12/// /0508 10060 20040 30243 40254 51002 60006 90000=
07761,1996-01-18 03:00:00,5,1024.6,-0.8,75,1,15000,11.112,,,50,,,,,,,,,,,wg-a,,,,AAXX 18034 07761 12565 /0506 10050 20010 30235 40246 58008 60006 81500 90300=
07761,1996-01-18 06:00:00,3,1023.9,-0.7,87,1,18000,11.112,,,60,2.3,7.6,,,,,,,,,wg-a,,,,AAXX 18064 07761 02/68 /0606 10030 20010 30228 40239 55007 60006 80000 90600 333 10076 20023 60004=
07761,1996-01-18 09:00:00,6,1024.4,0.5,70,1,25000,14.816,,,50,,,,,,,,,,,wg-a,,,,AAXX 18094 07761 12675 20508 10060 20010 30233 40244 50005 60006 82800 90900=
07761,1996-01-18 12:00:00,13,1022.2,-2.2,54,4,25000,14.816,,,240,,,,,,,,,,,wg-a,,,,AAXX 18124 07761 12675 /2408 10130 20040 30211 40222 58022 60006 81100 91200=
07761,1996-01-18 15:00:00,13,1020.7,-1.5,54,4,25000,7.408,,,300,,,,,,,,,,,wg-a,,,,AAXX 18154 07761 12675 /3004 10130 20040 30196 40207 56015 60006 81100 91500=
07761,1996-01-18 18:00:00,7,1020.8,0.1,81,4,25000,14.816,,,50,2.5,13.8,,,,,,,,,wg-a,,,,AAXX 18184 07761 12675 /0508 10070 20040 30197 40208 53001 60006 81100 91800 333 10138 20025=
07761,1996-01-18 21:00:00,4,1020.9,0.1,87,2,15000,14.816,,,50,,,,,,,,,,,wg-a,,,,AAXX 18214 07761 12/65 00508 10040 20020 30198 40209 50001 60006 80000 92100=
07761,1996-01-19 00:00:00,4,1020.6,-0.3,87,2,15000,11.112,,,50,,,,,,,,,,,wg-a,,,,AAXX 19004 07761 12565 /0506 10040 20020 30195 40206 58003 60006 86500 90000=
07761,1996-01-19 03:00:00,3,1019.3,-1.3,93,2,15000,14.816,,,50,,,,,,,,,,,wg-a,,,,AAXX 19034 07761 12665 /0508 10030 20020 30182 40193 58013 60006 81500 90300=
07761,1996-01-19 06:00:00,2,1018.1,-1.2,87,0,15000,14.816,,,50,1.8,6.9,,,,,,,,,wg-a,,,,AAXX 19064 07761 02/65 00508 10020 20000 30170 40181 56012 60006 80000 90600 333 10069 20018 60004=
07761,1996-01-19 09:00:00,6,1018.1,0,75,2,40000,11.112,,,50,,,,,,,,,,,wg-a,,,,AAXX 19094 07761 12/82 30506 10060 20020 30170 40181 50000 60006 80001 90900=
07761,1996-01-19 12:00:00,13,1016.5,-1.6,54,4,40000,11.112,,,220,,,,,,,,,,,wg-a,,,,AAXX 19124 07761 12782 22206 10130 20040 30154 40165 58016 60006 81131 91200=
07761,1996-01-19 18:00:00,7,1015.2,0.1,81,4,25000,14.816,,,60,1.2,13.4,,,,,,,,,wg-a,,,,AAXX 19184 07761 12/75 30608 10070 20040 30141 40152 53001 60006 83070 91800 333 10134 20012=
07761,1996-01-19 21:00:00,7,1015,-0.2,76,3,20000,14.816,,,40,,,,,,,,,,,wg-a,,,,AAXX 19214 07761 12770 /0408 10070 20030 30139 40150 58002 60006 82570 92100=
07761,1996-01-20 00:00:00,7,1013.9,-1.1,81,4,18000,11.112,,,50,,,,,,,,,,,wg-a,,,,AAXX 20004 07761 12668 /0506 10070 20040 30128 40139 58011 60006 82570 90000=
07761,1996-01-20 03:00:00,8,1013.1,-0.8,81,5,15000,3.704,,,140,,,,,,,,,,21,wg-a,,,,AAXX 20034 07761 02565 71402 10080 20050 30120 40131 56008 61000 72162 875// 90300 333 ////=
07761,1996-01-20 06:00:00,8,1012.7,-0.4,87,6,10000,11.112,,,40,6.2,8.8,,1,,,1,,,60,wg-a,,,,AAXX 20064 07761 02560 70406 10080 20060 30116 40127 55004 60014 76062 875// 90600 333 10088 20062 60017=
07761,1996-01-20 09:00:00,10,1013.3,0.6,87,8,20000,3.704,,,30,,,,0,,,,,,61,wg-a,,,,AAXX 20094 07761 12570 80302 10100 20080 30122 40133 53006 60007 76162 8587/ 90900=
07761,1996-01-20 12:00:00,11,1013.1,-0.2,87,9,8000,3.704,,,60,,,,3,,,,,,61,wg-a,,,,AAXX 20124 07761 02558 80602 10110 20090 30120 40131 58002 60046 76162 8587/ 91200 333 60037=
07761,1996-01-20 15:00:00,11,1012.9,-0.2,94,10,12000,11.112,,,60,,,,2,,,,,,21,wg-a,,,,AAXX 20154 07761 12562 /0606 10110 20100 30118 40129 58002 60027 72162 84870 91500=
07761,1996-01-20 18:00:00,10,1013.5,0.6,82,7,12000,7.408,,,30,8.1,11,,,,,,,,1,wg-a,,,,AAXX 20184 07761 32662 /0304 10100 20070 30124 40135 53006 70162 83870 91800 333 10110 20081=
07761,1996-01-20 21:00:00,7,1014.6,1.1,87,5,15000,14.816,,,40,,,,,,,,,,,wg-a,,,,AAXX 20214 07761 12/65 40408 10070 20050 30135 40146 51011 60006 84030 92100=
07761,1996-01-21 00:00:00,8,1014.8,0.2,81,5,15000,7.408,,,60,,,,,,,,,,,wg-a,,,,AAXX 21004 07761 12/65 /0604 10080 20050 30137 40148 52002 60006 86030 90000=
07761,1996-01-21 03:00:00,7,1015.2,0.4,87,5,15000,14.816,,,50,,,,,,,,,,,wg-a,,,,AAXX 21034 07761 12/65 30508 10070 20050 30141 40152 50004 60006 83030 90300=
07761,1996-01-21 06:00:00,5,1015.4,0.2,87,3,15000,11.112,,,50,5.4,10.2,,,,,6,,,,wg-a,,,,AAXX 21064 07761 02/65 10506 10050 20030 30143 40154 53002 60006 80001 90600 333 10102 20054 60064=
07761,1996-01-21 09:00:00,9,1016.3,0.9,81,6,50000,11.112,,,50,,,,,,,,,,,wg-a,,,,AAXX 21094 07761 12684 30506 10090 20060 30152 40163 52009 60006 81101 90900=
07761,1996-01-21 12:00:00,15,1015.7,-0.6,51,5,50000,7.408,,,270,,,,,,,,,,,wg-a,,,,AAXX 21124 07761 12684 /2704 10150 20050 30146 40157 58006 60006 81131 91200=
07761,1996-01-21 15:00:00,16,1015.7,-0,48,5,40000,3.704,,,240,,,,,,,,,,,wg-a,,,,AAXX 21154 07761 12782 /2402 10160 20050 30146 40157 55000 60006 81152 91500=
07761,1996-01-21 18:00:00,10,1016.1,0.4,76,6,20000,11.112,,,60,4.7,16,,,,,,,,,wg-a,,,,AAXX 21184 07761 12770 30606 10100 20060 30150 40161 53004 60006 81570 91800 333 10160 20047=
07761,1996-01-21 21:00:00,8,1016.1,0,76,4,15000,14.816,,,40,,,,,,,,,,,wg-a,,,,AAXX 21214 07761 12/65 /0408 10080 20040 30150 40161 50000 60006 80000 92100=
07761,1996-01-22 00:00:00,7,1015.9,-0.2,81,4,15000,7.408,,,60,,,,,,,,,,,wg-a,,,,AAXX 22004 07761 12665 30604 10070 20040 30148 40159 55002 60006 83500 90000=
07761,1996-01-22 03:00:00,5,1015.6,-0.3,87,3,12000,14.816,,,50,,,,,,,,,,,wg-a,,,,AAXX 22034 07761 12/62 20508 10050 20030 30145 40156 58003 60006 80001 90300=
07761,1996-01-22 06:00:00,5,1015,-0.6,87,3,15000,14.816,,,50,4.5,10.2,,,,,,,,,wg-a,,,,AAXX 22064 07761 02/65 40508 10050 20030 30139 40150 56006 60006 80002 90600 333 10102 20045 60004=
07761,1996-01-22 09:00:00,8,1014.9,-0.1,81,5,500,11.112,,,60,,,,,,,,,,,wg-a,,,,AAXX 22094 07761 12700 70606 10080 20050 30138 40149 58001 60006 81532 90900=
07761,1996-01-22 12:00:00,14,1013.7,-1.2,63,7,500,3.704,,,290,,,,,,,,,,,wg-a,,,,AAXX 22124 07761 12600 72902 10140 20070 30126 40137 58012 60006 81132 91200=
07761,1996-01-22 15:00:00,15,1012.5,-1.2,59,7,500,7.408,,,70,,,,,,,,,,,wg-a,,,,AAXX 22154 07761 12700 80704 10150 20070 30114 40125 56012 60006 81572 91500=
07761,1996-01-22 18:00:00,13,1013.1,0.6,58,5,25000,11.112,,,30,4.5,15.4,,,,,,,,,wg-a,,,,AAXX 22184 07761 12775 70306 10130 20050 30120 40131 53006 60006 81572 91800 333 10154 20045=
07761,1996-01-22 21:00:00,11,1012.7,-0.4,71,6,25000,14.816,,,50,,,,,,,,,,,wg-a,,,,AAXX 22214 07761 12775 70508 10110 20060 30116 40127 55004 60006 8157/ 92100=
07761,1996-01-23 00:00:00,13,1012.3,-0.4,62,6,15000,3.704,,,110,,,,,,,,,,,wg-a,,,,AAXX 23004 07761 12765 21102 10130 20060 30112 40123 56004 60006 8157/ 90000=
07761,1996-01-23 03:00:00,10,1011.4,-0.9,82,7,20000,11.112,,,50,,,,,,,,,,,wg-a,,,,AAXX 23034 07761 12770 /0506 10100 20070 30103 40114 58009 60006 81572 90300=
07761,1996-01-23 06:00:00,11,1010.8,-0.6,76,7,20000,11.112,,,60,10.2,12.9,,,,,,,,,wg-a,,,,AAXX 23064 07761 02770 /0606 10110 20070 30097 40108 56006 60006 81572 90600 333 10129 20102 60004=
07761,1996-01-23 09:00:00,17,1010.8,0,52,7,25000,22.224,,,110,,,,,,,,,,,wg-a,,,,AAXX 23094 07761 12675 /1112 10170 20070 30097 40108 50000 60006 81172 90900=
07761,1996-01-23 12:00:00,18,1009.2,-1.6,49,7,40000,29.632,,,110,,,,,,,,,,,wg-a,,,,AAXX 23124 07761 12682 71116 10180 20070 30081 40092 58016 60006 81142 91200=
07761,1996-01-23 15:00:00,18,1008,-1.2,42,5,500,25.928,,53.708,110,,,,,,,,,,,wg-a,,,,AAXX 23154 07761 12600 71114 10180 20050 30069 40080 56012 60006 81142 91500 333 91029=
07761,1996-01-23 18:00:00,14,1008,-0,55,5,20000,11.112,,53.708,40,10.8,18.2,,,,,,,,,wg-a,,,,AAXX 23184 07761 12/70 /0406 10140 20050 30069 40080 55000 60006 81071 91800 333 10182 20108 91029=
07761,1996-01-23 21:00:00,13,1007.8,-0.2,62,6,20000,14.816,,,50,,,,,,,,,,21,wg-a,,,,AAXX 23214 07761 02770 80508 10130 20060 30067 40078 58002 61000 72161 8257/ 92100 333 ////=
07761,1996-01-24 00:00:00,11,1007.7,-0.1,87,9,15000,7.408,,,60,,,,1,,,,,,61,wg-a,,,,AAXX 24004 07761 02765 80604 10110 20090 30066 40077 56001 60016 76161 8257/ 90000 333 60017=
07761,1996-01-24 03:00:00,11,1006.7,-1,87,9,6000,7.408,,,60,,,,7,,,,,,61,wg-a,,,,AAXX 24034 07761 12456 80604 10110 20090 30056 40067 55010 60077 76166 8457/ 90300=
07761,1996-01-24 06:00:00,10,1006.6,-0.1,93,9,15000,7.408,,,40,10.2,14.2,,8,,,16,,,21,wg-a,,,,AAXX 24064 07761 02565 80404 10100 20090 30055 40066 58001 60164 72162 8587/ 90600 333 10142 20102 60087=
07761,1996-01-24 09:00:00,12,1006.6,-0,82,9,500,11.112,,,50,,,,,,,,,,,wg-a,,,,AAXX 24094 07761 12700 50506 10120 20090 30055 40066 55000 60006 82571 90900=
07761,1996-01-24 12:00:00,18,1004.7,-1.9,49,7,40000,3.704,,,80,,,,,,,,,,,wg-a,,,,AAXX 24124 07761 12682 /0802 10180 20070 30036 40047 58019 60006 81202 91200=
07761,1996-01-24 15:00:00,16,1003.9,-0.8,68,10,40000,18.52,,,210,,,,,,,,,,,wg-a,,,,AAXX 24154 07761 12682 72110 10160 20100 30028 40039 56008 60006 83232 91500=
07761,1996-01-24 18:00:00,12,1004.4,0.5,76,8,20000,18.52,,,50,10.1,17.9,,,,,,,,,wg-a,,,,AAXX 24184 07761 12670 30510 10120 20080 30033 40044 53005 60006 81101 91800 333 10179 20101=
07761,1996-01-24 21:00:00,11,1004.6,0.2,82,8,20000,7.408,,,30,,,,,,,,,,,wg-a,,,,AAXX 24214 07761 12570 40304 10110 20080 30035 40046 53002 60006 84500 92100=
07761,1996-01-25 00:00:00,12,1005.6,1,88,10,10000,14.816,,35.188,230,,,,,,,,,,80,wg-a,,,,AAXX 25004 07761 02660 /2308 10120 20100 30045 40056 53010 61000 78086 86800 90000 333 6100 91019=
07761,1996-01-25 03:00:00,11,1003.3,-2.3,82,8,15000,11.112,,,40,,,,5,,,,,,1,wg-a,,,,AAXX 25034 07761 12665 70406 10110 20080 30022 40033 58023 60057 70186 878// 90300=
07761,1996-01-25 06:00:00,10,1003,-0.3,82,7,18000,11.112,,,40,9.4,12.3,,,,,5,,,13,wg-a,,,,AAXX 25064 07761 12568 /0406 10100 20070 30019 40030 55003 60054 71386 86800 90600 333 10123 20094=
07761,1996-01-25 09:00:00,12,1004.6,1.6,82,9,25000,11.112,,,60,,,,,,,,,,,wg-a,,,,AAXX 25094 07761 12575 50606 10120 20090 30035 40046 52016 60006 83903 90900=
07761,1996-01-25 12:00:00,14,1004.5,-0.1,72,9,25000,7.408,,,90,,,,0,,,,,,25,wg-a,,,,AAXX 25124 07761 02575 70904 10140 20090 30034 40045 58001 60006 72586 85903 91200 333 60007=
07761,1996-01-25 15:00:00,16,1004,-0.5,59,8,20000,3.704,,,320,,,,,,,,,,,wg-a,,,,AAXX 25154 07761 12570 63202 10160 20080 30029 40040 55005 60006 83903 91500=
07761,1996-01-25 18:00:00,11,1004.7,0.7,82,8,15000,7.408,,,30,8.3,15.7,,,,,,,,,wg-a,,,,AAXX 25184 07761 32665 40304 10110 20080 30036 40047 53007 84903 91800 333 10157 20083=
07761,1996-01-25 21:00:00,9,1006.4,1.7,87,7,15000,11.112,,,70,,,,,,,,,,,wg-a,,,,AAXX 25214 07761 12765 50706 10090 20070 30053 40064 51017 60006 81532 92100=
07761,1996-01-26 00:00:00,8,1006.2,-0.2,87,6,20000,18.52,,,50,,,,,,,,,,,wg-a,,,,AAXX 26004 07761 12770 20510 10080 20060 30051 40062 58002 60006 82500 90000=
07761,1996-01-26 03:00:00,7,1005.6,-0.6,87,5,20000,11.112,,,50,,,,,,,,,,,wg-a,,,,AAXX 26034 07761 12770 /0506 10070 20050 30045 40056 58006 60006 81500 90300=
07761,1996-01-26 06:00:00,7,1006.1,0.5,87,5,20000,11.112,,,50,6,11.3,,,,,,,,,wg-a,,,,AAXX 26064 07761 02670 60506 10070 20050 30050 40061 53005 60006 82532 90600 333 10113 20060 60004=
07761,1996-01-26 09:00:00,10,1007.6,1.5,82,7,20000,7.408,,,30,,,,,,,,,,,wg-a,,,,AAXX 26094 07761 12570 70304 10100 20070 30065 40076 53015 60006 878// 90900=
07761,1996-01-26 12:00:00,13,1007.7,0.1,82,10,20000,11.112,,,200,,,,,,,,,,21,wg-a,,,,AAXX 26124 07761 02570 72006 10130 20100 30066 40077 50001 61000 72162 8583/ 91200 333 6100=
07761,1996-01-26 15:00:00,14,1007.6,-0.1,77,10,12000,11.112,,,200,,,,,,,,,,,wg-a,,,,AAXX 26154 07761 12562 72006 10140 20100 30065 40076 55001 60006 84302 91500=
07761,1996-01-26 18:00:00,11,1009.3,1,76,7,10000,11.112,,,40,6.5,14.5,,,,,,,,1,wg-a,,,,AAXX 26184 07761 02560 50406 10110 20070 30082 40093 53010 61000 70186 83202 91800 333 10145 20065 ////=
07761,1996-01-26 21:00:00,8,1011.1,1.8,87,6,15000,11.112,,,50,,,,,,,,,,,wg-a,,,,AAXX 26214 07761 12665 /0506 10080 20060 30100 40111 51018 60006 81830 92100=
07761,1996-01-27 00:00:00,7,1012.1,1,93,6,15000,14.816,,,50,,,,,,,,,,,wg-a,,,,AAXX 27004 07761 12565 20508 10070 20060 30110 40121 50010 60006 82800 90000=
07761,1996-01-27 03:00:00,6,1012.3,0.2,87,4,15000,11.112,,,50,,,,,,,,,,,wg-a,,,,AAXX 27034 07761 12565 /0506 10060 20040 30112 40123 52002 60006 81800 90300=
07761,1996-01-27 06:00:00,6,1013.2,0.9,87,4,15000,14.816,,,50,4.7,11.1,,,,,,,,,wg-a,,,,AAXX 27064 07761 02565 50508 10060 20040 30121 40132 53009 60006 83802 90600 333 10111 20047 61000=
07761,1996-01-27 09:00:00,8,1014.3,1.1,87,6,40000,7.408,,,30,,,,,,,,,,,wg-a,,,,AAXX 27094 07761 12682 /0304 10080 20060 30132 40143 52011 60006 81237 90900=
07761,1996-01-27 12:00:00,14,1014.1,-0.2,63,7,35000,3.704,,,190,,,,,,,,,,,wg-a,,,,AAXX 27124 07761 12681 71902 10140 20070 30130 40141 58002 60006 81152 91200=
07761,1996-01-27 15:00:00,14,1013.5,-0.6,67,8,500,11.112,,,230,,,,,,,,,,,wg-a,,,,AAXX 27154 07761 12600 72306 10140 20080 30124 40135 56006 60006 81152 91500=
07761,1996-01-27 18:00:00,10,1014.9,1.4,82,7,25000,7.408,,,40,5.2,15.4,,,,,,,,,wg-a,,,,AAXX 27184 07761 12675 /0404 10100 20070 30138 40149 53014 60006 82532 91800 333 10154 20052=
07761,1996-01-27 21:00:00,7,1015.4,0.5,81,4,20000,14.816,,,50,,,,,,,,,,,wg-a,,,,AAXX 27214 07761 12/70 /0508 10070 20040 30143 40154 51005 60006 80000 92100=
07761,1996-01-28 00:00:00,6,1015,-0.4,81,3,20000,14.816,,,30,,,,,,,,,,,wg-a,,,,AAXX 28004 07761 12/70 00308 10060 20030 30139 40150 58004 60006 80000 90000=
07761,1996-01-28 03:00:00,5,1014,-1,81,2,20000,11.112,,,60,,,,,,,,,,,wg-a,,,,AAXX 28034 07761 12/70 00606 10050 20020 30129 40140 56010 60006 80000 90300=
07761,1996-01-28 06:00:00,5,1013.5,-0.5,81,2,20000,11.112,,,50,3.7,10.1,,,,,,,,,wg-a,,,,AAXX 28064 07761 02/70 60506 10050 20020 30124 40135 55005 60006 84032 90600 333 10101 20037 60004=
07761,1996-01-28 09:00:00,9,1013.1,-0.4,71,4,500,7.408,,,50,,,,,,,,,,14,wg-a,,,,AAXX 28094 07761 12700 80504 10090 20040 30120 40131 58004 60006 71422 81172 90900=
07761,1996-01-28 12:00:00,11,1012.2,-0.9,71,6,25000,3.704,,,70,,,,,,,,,,,wg-a,,,,AAXX 28124 07761 12775 80702 10110 20060 30111 40122 56009 60006 8157/ 91200=
07761,1996-01-28 15:00:00,15,1010.2,-2,59,7,15000,7.408,,,330,,,,,,,,,,3,wg-a,,,,AAXX 28154 07761 02665 83304 10150 20070 30091 40102 56020 61000 70362 8257/ 91500 333 ////=
07761,1996-01-28 18:00:00,12,1009.7,-0.5,67,6,11000,7.408,,,30,4.2,14.7,,,,,,,,,wg-a,,,,AAXX 28184 07761 32/61 /0304 10120 20060 30086 40097 56005 91800 333 10147 20042=
07761,1996-01-29 00:00:00,9,1009.3,-0.7,81,6,20000,11.112,,,60,,,,,,,,,,13,wg-a,,,,AAXX 29004 07761 02670 /0606 10090 20060 30082 40093 57007 61000 71361 8193/ 90000 333 ////=
07761,1996-01-29 03:00:00,7,1008.6,-0.7,87,5,20000,11.112,,,50,,,,,,,,,,13,wg-a,,,,AAXX 29034 07761 12670 30506 10070 20050 30075 40086 58007 60006 71300 81303 90300=
07761,1996-01-29 06:00:00,10,1008.9,0.3,82,7,20000,7.408,,,330,6.7,12.8,,1,,,1,,,21,wg-a,,,,AAXX 29064 07761 02870 73304 10100 20070 30078 40089 53003 60014 72161 81/7/ 90600 333 10128 20067 60017=
07761,1996-01-29 09:00:00,12,1009.2,0.3,76,8,500,7.408,,,50,,,,,,,,,,1,wg-a,,,,AAXX 29094 07761 02600 /0504 10120 20080 30081 40092 50003 61000 70162 81572 90900 333 ////=
07761,1996-01-29 12:00:00,16,1008.1,-1.1,72,11,20000,11.112,,,210,,,,,,,,,,2,wg-a,,,,AAXX 29124 07761 02670 72106 10160 20110 30070 40081 58011 61000 70262 84802 91200 333 ////=
07761,1996-01-29 15:00:00,15,1007.7,-0.4,72,10,20000,11.112,,,250,,,,,,,,,,,wg-a,,,,AAXX 29154 07761 12670 72506 10150 20100 30066 40077 55004 60006 86802 91500=
07761,1996-01-29 18:00:00,13,1008.3,0.6,82,10,20000,3.704,,,160,8.9,17.4,,,,,,,,,wg-a,,,,AAXX 29184 07761 32670 71602 10130 20100 30072 40083 53006 878// 91800 333 10174 20089=
07761,1996-01-29 21:00:00,11,1008.8,0.5,82,8,20000,7.408,,,60,,,,,,,,,,,wg-a,,,,AAXX 29214 07761 12670 70604 10110 20080 30077 40088 51005 60006 8487/ 92100=
07761,1996-01-30 00:00:00,9,1008.9,0.1,87,7,20000,11.112,,,60,,,,,,,,,,,wg-a,,,,AAXX 30004 07761 12670 80606 10090 20070 30078 40089 50001 60006 8187/ 90000=
07761,1996-01-30 03:00:00,8,1008.2,-0.7,87,6,20000,11.112,,,50,,,,,,,,,,,wg-a,,,,AAXX 30034 07761 12670 /0506 10080 20060 30071 40082 57007 60006 8157/ 90300=
07761,1996-01-30 06:00:00,6,1008.8,0.6,87,4,20000,11.112,,,50,5.7,12.4,,,,,,,,,wg-a,,,,AAXX 30064 07761 02670 /0506 10060 20040 30077 40088 53006 60006 81570 90600 333 10124 20057 61000=
07761,1996-01-30 09:00:00,11,1009.8,1,76,7,500,7.408,,,40,,,,,,,,,,,wg-a,,,,AAXX 30094 07761 12600 20404 10110 20070 30087 40098 51010 60006 81132 90900=
07761,1996-01-30 12:00:00,16,1009.1,-0.7,68,10,500,18.52,,,190,,,,,,,,,,,wg-a,,,,AAXX 30124 07761 12600 31910 10160 20100 30080 40091 58007 60006 81142 91200=
07761,1996-01-30 15:00:00,17,1008.7,-0.4,59,9,500,11.112,,,180,,,,,,,,,,,wg-a,,,,AAXX 30154 07761 12600 21806 10170 20090 30076 40087 56004 60006 81131 91500=
07761,1996-01-30 18:00:00,12,1010.3,1.6,58,4,20000,3.704,,,110,5.3,17.2,,,,,,,,,wg-a,,,,AAXX 30184 07761 12670 21102 10120 20040 30092 40103 53016 60006 81501 91800 333 10172 20053=
07761,1996-01-30 21:00:00,9,1011.9,1.6,76,5,20000,3.704,,,10,,,,,,,,,,,wg-a,,,,AAXX 30214 07761 12670 30102 10090 20050 30108 40119 51016 60006 81230 92100=
07761,1996-01-31 00:00:00,9,1012.1,0.2,81,6,10000,7.408,,,160,,,,0,,,,,,80,wg-a,,,,AAXX 31004 07761 02560 81604 10090 20060 30110 40121 51002 60006 78096 8593/ 90000 333 60007=
07761,1996-01-31 03:00:00,9,1011.1,-1,71,4,15000,3.704,,,90,,,,0,,,,,,3,wg-a,,,,AAXX 31034 07761 12565 80902 10090 20040 30100 40111 58010 60007 70396 878// 90300=
07761,1996-01-31 06:00:00,9,1012.2,1.1,57,1,15000,11.112,,,30,7.2,12,,,,,,,,3,wg-a,,,,AAXX 31064 07761 12565 80306 10090 20010 30111 40122 53011 60004 70396 878// 90600 333 10120 20072=
07761,1996-01-31 09:00:00,8,1014.1,1.9,53,-1,15000,18.52,,,30,,,,,,,,,,21,wg-a,,,,AAXX 31094 07761 02565 80310 10080 21010 30130 40141 52019 61000 72122 878// 90900 333 ////=
07761,1996-01-31 12:00:00,10,1014.5,0.4,53,1,25000,11.112,,,30,,,,,,,,,,,wg-a,,,,AAXX 31124 07761 12675 60306 10100 20010 30134 40145 50004 60006 86800 91200=
07761,1996-01-31 15:00:00,9,1015.2,0.7,57,1,18000,11.112,,,20,,,,,,,,,,,wg-a,,,,AAXX 31154 07761 12668 70206 10090 20010 30141 40152 53007 60006 878// 91500=
07761,1996-01-31 18:00:00,7,1016.2,1,57,-1,18000,11.112,,,30,7.3,10.1,,,,,,,,,wg-a,,,,AAXX 31184 07761 12668 /0306 10070 21010 30151 40162 52010 60006 81800 91800 333 10101 20073=
07761,1996-01-31 21:00:00,4,1017.6,1.4,75,0,18000,11.112,,,40,,,,,,,,,,,wg-a,,,,AAXX 31214 07761 12/68 /0406 10040 20000 30165 40176 51014 60006 81030 92100=
07761,1996-02-01 00:00:00,5,1017.7,0.1,75,1,15000,11.112,,,50,,,,,,,,,,60,wg-a,,,,AAXX 01004 07761 02665 70506 10050 20010 30166 40177 50001 61000 76061 8353/ 90000 333 6100=
07761,1996-02-01 03:00:00,6,1017.4,-0.3,87,4,10000,7.408,,,70,,,,0,,,,,,60,wg-a,,,,AAXX 01034 07761 12560 70704 10060 20040 30163 40174 56003 60007 76062 8557/ 90300=
07761,1996-02-01 06:00:00,9,1016.9,-0.5,87,7,10000,14.816,,,250,3.2,8.8,,0,,,,,,1,wg-a,,,,AAXX 01064 07761 02660 72508 10090 20070 30158 40169 55005 60004 70162 8257/ 90600 333 10088 20032 60007=
07761,1996-02-01 09:00:00,10,1016.7,-0.2,82,7,25000,3.704,,,30,,,,,,,,,,,wg-a,,,,AAXX 01094 07761 12675 /0302 10100 20070 30156 40167 56002 60006 82232 90900=
07761,1996-02-01 12:00:00,16,1015,-1.7,45,4,25000,31.484,,57.412,80,,,,,,,,,,,wg-a,,,,AAXX 01124 07761 12675 /0817 10160 20040 30139 40150 58017 60006 81232 91200 333 91031=
07761,1996-02-01 15:00:00,14,1014.4,-0.6,58,6,15000,7.408,,,110,,,,,,,,,,60,wg-a,,,,AAXX 01154 07761 02665 81104 10140 20060 30133 40144 56006 61000 76062 8487/ 91500 333 ////=
07761,1996-02-01 18:00:00,11,1014.9,0.5,87,9,9000,7.408,,,10,7.1,16.1,,2,,,,,,61,wg-a,,,,AAXX 01184 07761 12559 80104 10110 20090 30138 40149 53005 60027 76162 8587/ 91800 333 10161 20071=
07761,1996-02-01 21:00:00,10,1014.2,-0.7,87,8,9000,7.408,,,40,,,,4,,,,,,61,wg-a,,,,AAXX 01214 07761 12559 80404 10100 20080 30131 40142 58007 60047 76166 8687/ 92100=
07761,1996-02-02 00:00:00,10,1012.9,-1.3,93,9,7000,11.112,,,30,,,,11,,,,,,61,wg-a,,,,AAXX 02004 07761 02557 80306 10100 20090 30118 40129 58013 60156 76166 8482/ 90000 333 60117=
07761,1996-02-02 03:00:00,11,1011.4,-1.5,94,10,15000,14.816,,,50,,,,4,,,,,,21,wg-a,,,,AAXX 02034 07761 12565 80508 10110 20100 30103 40114 56015 60047 72162 8682/ 90300=
07761,1996-02-02 06:00:00,12,1010.8,-0.6,82,9,11000,11.112,,,60,9.8,12.1,,,,,21,,,,wg-a,,,,AAXX 02064 07761 12/61 /0606 10120 20090 30097 40108 56006 60214 90600 333 10121 20098=
07761,1996-02-02 09:00:00,13,1011.3,0.5,82,10,12000,18.52,,,150,,,,1,,,,,,61,wg-a,,,,AAXX 02094 07761 12562 71510 10130 20100 30102 40113 53005 60017 76162 868// 90900=
07761,1996-02-02 12:00:00,12,1011.1,-0.2,88,10,10000,7.408,,,50,,,,6,,,,,,61,wg-a,,,,AAXX 02124 07761 02460 80504 10120 20100 30100 40111 58002 60066 76162 8787/ 91200 333 60067=
07761,1996-02-02 15:00:00,13,1009.3,-1.8,88,11,6000,11.112,,,150,,,,1,,,,,,61,wg-a,,,,AAXX 02154 07761 12456 71506 10130 20110 30082 40093 56018 60017 76162 8587/ 91500=
07761,1996-02-02 18:00:00,12,1009.3,-0,88,10,9000,11.112,,,150,11.5,13.6,,2,,,,,,21,wg-a,,,,AAXX 02184 07761 12459 71506 10120 20100 30082 40093 55000 60027 72162 8587/ 91800 333 10136 20115=
07761,1996-02-02 21:00:00,13,1009.7,0.4,88,11,12000,35.188,,,230,,,,6,,,,,,61,wg-a,,,,AAXX 02214 07761 12462 82319 10130 20110 30086 40097 53004 60067 76162 8687/ 92100=
07761,1996-02-03 00:00:00,13,1009.7,-0,82,10,10000,38.892,,,260,,,,10,,,,,,21,wg-a,,,,AAXX 03004 07761 02460 72621 10130 20100 30086 40097 55000 60166 72162 878// 90000 333 60107=
07761,1996-02-03 03:00:00,12,1009.2,-0.5,88,10,9000,18.52,,,260,,,,1,,,,,,61,wg-a,,,,AAXX 03034 07761 12459 72610 10120 20100 30081 40092 58005 60017 76162 878// 90300=
07761,1996-02-03 06:00:00,11,1009.2,-0,87,9,9000,3.704,,,110,11,13,,1,,,26,,,21,wg-a,,,,AAXX 03064 07761 02459 71102 10110 20090 30081 40092 55000 60264 72162 878// 90600 333 10130 20110 60017=
07761,1996-02-03 09:00:00,12,1010.9,1.7,82,9,10000,11.112,,,310,,,,,,,,,,3,wg-a,,,,AAXX 03094 07761 02560 73106 10120 20090 30098 40109 53017 61000 70362 878// 90900 333 ////=
07761,1996-02-03 12:00:00,13,1012,1.1,72,8,15000,11.112,,,290,,,,,,,,,,3,wg-a,,,,AAXX 03124 07761 02565 72906 10130 20080 30109 40120 50011 61000 70362 8587/ 91200 333 ////=
07761,1996-02-03 15:00:00,13,1010.6,-1.4,72,8,15000,3.704,,,30,,,,,,,,,,,wg-a,,,,AAXX 03154 07761 12565 /0302 10130 20080 30095 40106 57014 60006 84870 91500=
07761,1996-02-03 18:00:00,11,1011.4,0.8,87,9,15000,7.408,,,50,11,12.9,,,,,,,,,wg-a,,,,AAXX 03184 07761 32565 70504 10110 20090 30103 40114 52008 878// 91800 333 10129 20110=
07761,1996-02-03 21:00:00,8,1011.7,0.3,93,7,15000,11.112,,,40,,,,,,,,,,,wg-a,,,,AAXX 03214 07761 12565 /0406 10080 20070 30106 40117 53003 60006 86800 92100=
07761,1996-02-04 00:00:00,9,1010,-1.7,87,7,18000,14.816,,,50,,,,,,,,,,,wg-a,,,,AAXX 04004 07761 12568 60508 10090 20070 30089 40100 58017 60006 85802 90000=
07761,1996-02-04 03:00:00,9,1008.5,-1.5,87,7,17000,14.816,,,60,,,,,,,,,,60,wg-a,,,,AAXX 04034 07761 02567 60608 10090 20070 30074 40085 58015 61000 76062 85802 90300 333 ////=
07761,1996-02-04 06:00:00,9,1007.3,-1.2,93,8,20000,11.112,,,40,8,11.3,,0,,,,,,1,wg-a,,,,AAXX 04064 07761 02570 70406 10090 20080 30062 40073 56012 60004 70162 85802 90600 333 10113 20080 60007=
07761,1996-02-04 09:00:00,12,1007,-0.3,82,9,25000,11.112,,,40,,,,,,,,,,3,wg-a,,,,AAXX 04094 07761 02575 60406 10120 20090 30059 40070 58003 61000 70386 85840 90900 333 ////=
07761,1996-02-04 12:00:00,16,1005.1,-1.9,68,10,500,7.408,,,230,,,,0,,,,,,1,wg-a,,,,AAXX 04124 07761 02500 22304 10160 20100 30040 40051 58019 60006 70186 82232 91200 333 60007=
07761,1996-02-04 15:00:00,14,1004,-1.1,67,8,500,11.112,,,300,,,,,,,,,,,wg-a,,,,AAXX 04154 07761 12500 23006 10140 20080 30029 40040 55011 60006 82232 91500=
07761,1996-02-04 18:00:00,10,1004.9,0.9,76,6,20000,3.704,,,100,8.7,16.1,,,,,,,,,wg-a,,,,AAXX 04184 07761 32570 /1002 10100 20060 30038 40049 53009 81200 91800 333 10161 20087=
07761,1996-02-04 21:00:00,6,1005.2,0.3,93,5,20000,14.816,,,50,,,,,,,,,,,wg-a,,,,AAXX 04214 07761 12570 20508 10060 20050 30041 40052 51003 60006 82800 92100=
07761,1996-02-05 00:00:00,7,1005.3,0.1,87,5,20000,7.408,,,50,,,,,,,,,,,wg-a,,,,AAXX 05004 07761 12570 40504 10070 20050 30042 40053 53001 60006 84800 90000=
07761,1996-02-05 03:00:00,9,1004.6,-0.7,61,2,20000,18.52,,,280,,,,,,,,,,,wg-a,,,,AAXX 05034 07761 12570 /2810 10090 20020 30035 40046 57007 60006 82830 90300=
07761,1996-02-05 06:00:00,7,1004,-0.6,57,-1,20000,14.816,,,280,6,9.5,,,,,,,,,wg-a,,,,AAXX 05064 07761 02670 82808 10070 21010 30029 40040 58006 60006 888// 90600 333 10095 20060 60004=
07761,1996-02-05 09:00:00,7,1003.4,-0.6,57,-1,12000,18.52,,,270,,,,,,,,,,,wg-a,,,,AAXX 05094 07761 12662 72710 10070 21010 30023 40034 56006 60006 878// 90900=
07761,1996-02-05 12:00:00,7,1001.6,-1.8,66,1,12000,7.408,,,80,,,,,,,,,,3,wg-a,,,,AAXX 05124 07761 02662 80804 10070 20010 30005 40016 58018 61000 70362 888// 91200 333 6100=
07761,1996-02-05 15:00:00,8,999.9,-1.7,57,0,12000,7.408,,,50,,,,,,,,,,,wg-a,,,,AAXX 05154 07761 12662 /0504 10080 20000 39988 49999 58017 60006 84800 91500=
07761,1996-02-05 18:00:00,7,1000.9,1,70,2,12000,7.408,,,70,6.6,8.2,,,,,,,,,wg-a,,,,AAXX 05184 07761 32662 /0704 10070 20020 39998 40009 53010 86500 91800 333 10082 20066=
07761,1996-02-05 21:00:00,4,1001.6,0.7,81,1,15000,11.112,,,40,,,,,,,,,,,wg-a,,,,AAXX 05214 07761 12565 30406 10040 20010 30005 40016 53007 60006 83500 92100=
07761,1996-02-06 00:00:00,2,1001,-0.6,87,0,15000,14.816,,,50,,,,,,,,,,,wg-a,,,,AAXX 06004 07761 12565 30508 10020 20000 39999 40010 58006 60006 83500 90000=
07761,1996-02-06 03:00:00,1,999.9,-1.1,86,-1,15000,18.52,,,50,,,,,,,,,,,wg-a,,,,AAXX 06034 07761 12565 30510 10010 21010 39988 49999 58011 60006 83570 90300=
07761,1996-02-06 06:00:00,1,998,-1.9,86,-1,18000,11.112,,,40,0.2,6.7,,,,,,,,,wg-a,,,,AAXX 06064 07761 02568 /0406 10010 21010 39969 49980 56019 60006 81500 90600 333 10067 20002 61000=
07761,1996-02-06 09:00:00,5,996,-2,81,2,25000,11.112,,,50,,,,,,,,,,,wg-a,,,,AAXX 06094 07761 12575 70506 10050 20020 39949 49960 58020 60006 81232 90900=
07761,1996-02-06 12:00:00,10,993.5,-2.5,53,1,25000,7.408,,,260,,,,,,,,,,,wg-a,,,,AAXX 06124 07761 12575 72604 10100 20010 39924 49935 58025 60006 81232 91200=
07761,1996-02-06 15:00:00,11,992.5,-1,50,1,25000,0,,,0,,,,,,,,,,,wg-a,,,,AAXX 06154 07761 12575 70000 10110 20010 39914 49925 56010 60006 81232 91500=
07761,1996-02-06 18:00:00,9,994,1.5,61,2,15000,11.112,,,60,-0.3,11,,,,,,,,,wg-a,,,,AAXX 06184 07761 12565 80606 10090 20020 39929 49940 53015 60006 82132 91800 333 10110 21003=
07761,1996-02-06 21:00:00,7,995.6,1.6,66,1,12000,7.408,,,30,,,,,,,,,,,wg-a,,,,AAXX 06214 07761 12762 /0304 10070 20010 39945 49956 52016 60006 81532 92100=
07761,1996-02-07 00:00:00,4,997.3,1.7,81,1,12000,7.408,,,60,,,,,,,,,,,wg-a,,,,AAXX 07004 07761 12662 /0604 10040 20010 39962 49973 53017 60006 81230 90000=
07761,1996-02-07 02:00:00,4,998.9,1.2,81,1,15000,7.408,,,40,2.9,8.8,,,,,,,,1,wg-a,,,,AAXX 07024 07761 02765 70404 10040 20010 39978 49989 51012 61000 70162 8553/ 90200 333 10088 20029 ////=
07761,1996-02-07 03:00:00,4,997.7,0.4,81,1,12000,11.112,,,50,,,,,,,,,,1,wg-a,,,,AAXX 07034 07761 02662 /0506 10040 20010 39966 49977 51004 61000 70162 81532 90300 333 ////=
07761,1996-02-07 06:00:00,4,998.9,1.2,87,2,15000,7.408,,,40,2.9,8.8,,,,,,,,1,wg-a,,,,AAXX 07064 07761 02765 70404 10040 20020 39978 49989 51012 61000 70162 8553/ 90600 333 10088 20029 ////=
07761,1996-02-07 09:00:00,6,999.6,0.7,81,3,15000,7.408,,,70,,,,,,,,,,15,wg-a,,,,AAXX 07094 07761 12665 80704 10060 20030 39985 49996 51007 60006 71522 8457/ 90900=
07761,1996-02-07 12:00:00,9,998.8,-0.8,66,3,20000,7.408,,,220,,,,,,,,,,3,wg-a,,,,AAXX 07124 07761 02570 72204 10090 20030 39977 49988 58008 61000 70352 878// 91200 333 6100=
07761,1996-02-07 15:00:00,9,997.4,-1.4,71,4,14000,7.408,,,100,,,,,,,,,,21,wg-a,,,,AAXX 07154 07761 02564 /1004 10090 20040 39963 49974 58014 61000 72165 83832 91500 333 ////=
07761,1996-02-07 18:00:00,7,996.8,-0.6,87,5,18000,7.408,,,50,4.3,9.3,,,,,,,,3,wg-a,,,,AAXX 07184 07761 32568 80504 10070 20050 39957 49968 58006 70365 82872 91800 333 10093 20043=
07761,1996-02-07 21:00:00,6,995.5,-1.3,87,4,10000,7.408,,,70,,,,2,,,,,,61,wg-a,,,,AAXX 07214 07761 12460 80704 10060 20040 39944 49955 58013 60027 76162 8587/ 92100=
07761,1996-02-08 00:00:00,5,993.7,-1.8,87,3,10000,11.112,,,60,,,,1,,,,,,21,wg-a,,,,AAXX 08004 07761 02460 80606 10050 20030 39926 49937 56018 60036 72162 8687/ 90000 333 60017=
07761,1996-02-08 03:00:00,5,992.3,-1.4,87,3,9000,7.408,,,70,,,,3,,,,,,61,wg-a,,,,AAXX 08034 07761 12259 80704 10050 20030 39912 49923 56014 60037 76162 888// 90300=
07761,1996-02-08 06:00:00,2,992.1,-0.2,93,1,15000,14.816,,,40,2.2,7.4,,,,,6,,,1,wg-a,,,,AAXX 08064 07761 02565 20408 10020 20010 39910 49921 56002 60064 70161 81570 90600 333 10074 20022 61000=
07761,1996-02-08 09:00:00,5,995.3,3.2,87,3,500,7.408,,,50,,,,,,,,,,,wg-a,,,,AAXX 08094 07761 12600 60504 10050 20030 39942 49953 51032 60006 81172 90900=
07761,1996-02-08 12:00:00,10,997.2,1.9,46,-1,500,29.632,,53.708,320,,,,,,,,,,,wg-a,,,,AAXX 08124 07761 12600 53216 10100 21010 39961 49972 51019 60006 81142 91200 333 91029=
07761,1996-02-08 15:00:00,10,999,1.8,53,1,25000,22.224,,50.004,300,,,,,,,,,,,wg-a,,,,AAXX 08154 07761 12675 23012 10100 20010 39979 49990 51018 60006 81140 91500 333 91027=
07761,1996-02-08 18:00:00,6,1002,3,70,1,20000,11.112,,50.004,70,1.6,10.5,,,,,,,,,wg-a,,,,AAXX 08184 07761 12670 /0706 10060 20010 30009 40020 52030 60006 81500 91800 333 10105 20016 91027=
07761,1996-02-08 21:00:00,3,1004.9,2.9,75,-1,18000,14.816,,,40,,,,,,,,,,,wg-a,,,,AAXX 08214 07761 12/68 00408 10030 21010 30038 40049 51029 60006 80000 92100=
07761,1996-02-09 00:00:00,1,1006.9,2,80,-2,18000,11.112,,,60,,,,,,,,,,,wg-a,,,,AAXX 09004 07761 12/68 00606 10010 21020 30058 40069 53020 60006 80000 90000=
07761,1996-02-09 03:00:00,1,1008.8,1.9,80,-2,20000,11.112,,,60,,,,,,,,,,,wg-a,,,,AAXX 09034 07761 12/70 00606 10010 21020 30077 40088 51019 60006 80000 90300=
07761,1996-02-09 06:00:00,0,1011.4,2.6,80,-3,25000,14.816,,,40,-0.9,5.5,,,,,,,,,wg-a,,,,AAXX 09064 07761 02/75 00408 10000 21030 30103 40114 53026 60006 80000 90600 333 10055 21009 60004=
07761,1996-02-09 09:00:00,7,1013.5,2.1,61,0,500,11.112,,,40,,,,,,,,,,,wg-a,,,,AAXX 09094 07761 12600 /0406 10070 20000 30124 40135 52021 60006 81100 90900=
07761,1996-02-09 12:00:00,13,1013.5,0,41,0,500,7.408,,,240,,,,,,,,,,,wg-a,,,,AAXX 09124 07761 12600 /2404 10130 20000 30124 40135 50000 60006 81100 91200=
07761,1996-02-09 15:00:00,14,1013.5,0,26,-5,40000,3.704,,,240,,,,,,,,,,,wg-a,,,,AAXX 09154 07761 12682 22402 10140 21050 30124 40135 50000 60006 81101 91500=
07761,1996-02-09 18:00:00,7,1015.6,2.1,57,-1,500,14.816,,,100,-0.6,14.2,,,,,,,,,wg-a,,,,AAXX 09184 07761 12600 /1008 10070 21010 30145 40156 53021 60006 81501 91800 333 10142 21006=
07761,1996-02-09 21:00:00,4,1016.9,1.3,70,-1,20000,14.816,,,50,,,,,,,,,,,wg-a,,,,AAXX 09214 07761 12/70 00508 10040 21010 30158 40169 51013 60006 80000 92100=
07761,1996-02-10 00:00:00,4,1017,0.1,70,-1,20000,14.816,,,50,,,,,,,,,,,wg-a,,,,AAXX 10004 07761 12/70 30508 10040 21010 30159 40170 50001 60006 80002 90000=
07761,1996-02-10 03:00:00,3,1017,0,75,-1,20000,14.816,,,50,,,,,,,,,,,wg-a,,,,AAXX 10034 07761 12/70 60508 10030 21010 30159 40170 50000 60006 80002 90300=
07761,1996-02-10 06:00:00,4,1016.5,-0.5,75,0,20000,14.816,,,40,2.9,7.4,,,,,,,,,wg-a,,,,AAXX 10064 07761 02/70 60408 10040 20000 30154 40165 57005 60006 82017 90600 333 10074 20029 60004=
07761,1996-02-10 09:00:00,8,1017.2,0.7,61,1,500,11.112,,,40,,,,,,,,,,,wg-a,,,,AAXX 10094 07761 12500 /0406 10080 20010 30161 40172 51007 60006 81512 90900=
07761,1996-02-10 12:00:00,13,1017.1,-0.1,54,4,25000,7.408,,,250,,,,,,,,,,,wg-a,,,,AAXX 10124 07761 12675 /2504 10130 20040 30160 40171 58001 60006 82232 91200=
07761,1996-02-10 15:00:00,12,1016.3,-0.8,62,5,25000,14.816,,,250,,,,,,,,,,,wg-a,,,,AAXX 10154 07761 12675 72508 10120 20050 30152 40163 56008 60006 8213/ 91500=
07761,1996-02-10 18:00:00,10,1017.4,1.1,76,6,20000,7.408,,,80,3.6,13.7,,,,,,,,,wg-a,,,,AAXX 10184 07761 12670 80804 10100 20060 30163 40174 53011 60006 8483/ 91800 333 10137 20036=
07761,1996-02-10 21:00:00,9,1017.8,0.4,81,6,15000,11.112,,,60,,,,,,,,,,,wg-a,,,,AAXX 10214 07761 12665 80606 10090 20060 30167 40178 51004 60006 8553/ 92100=
07761,1996-02-11 00:00:00,7,1017.6,-0.2,87,5,15000,11.112,,,70,,,,,,,,,,3,wg-a,,,,AAXX 11004 07761 02565 50706 10070 20050 30165 40176 55002 61000 70386 85800 90000 333 6100=
07761,1996-02-11 03:00:00,5,1016.9,-0.7,93,4,15000,11.112,,,40,,,,,,,,,,,wg-a,,,,AAXX 11034 07761 12565 30406 10050 20040 30158 40169 58007 60006 83800 90300=
07761,1996-02-11 06:00:00,4,1017.5,0.6,93,3,20000,14.816,,,50,3.7,10.5,,,,,,,,,wg-a,,,,AAXX 11064 07761 02570 20508 10040 20030 30164 40175 52006 61000 82800 90600 333 10105 20037 ////=
07761,1996-02-11 09:00:00,9,1018.3,0.8,76,5,25000,3.704,,,20,,,,,,,,,,,wg-a,,,,AAXX 11094 07761 12575 70202 10090 20050 30172 40183 51008 60006 8683/ 90900=
07761,1996-02-11 12:00:00,13,1017.6,-0.7,62,6,15000,11.112,,,250,,,,,,,,,,,wg-a,,,,AAXX 11124 07761 12765 72506 10130 20060 30165 40176 58007 60006 83232 91200=
07761,1996-02-11 15:00:00,12,1016.7,-0.9,62,5,20000,14.816,,,310,,,,,,,,,,,wg-a,,,,AAXX 11154 07761 12670 73108 10120 20050 30156 40167 56009 60006 82206 91500=
07761,1996-02-11 18:00:00,8,1017.4,0.7,81,5,18000,7.408,,,70,3.9,13.8,,,,,,,,,wg-a,,,,AAXX 11184 07761 12568 20704 10080 20050 30163 40174 53007 60006 82400 91800 333 10138 20039=
07761,1996-02-11 21:00:00,6,1018.2,0.8,81,3,18000,14.816,,,50,,,,,,,,,,,wg-a,,,,AAXX 11214 07761 12568 /0508 10060 20030 30171 40182 52008 60006 81500 92100=
07761,1996-02-12 00:00:00,4,1017.8,-0.4,87,2,18000,11.112,,,30,,,,,,,,,,,wg-a,,,,AAXX 12004 07761 12568 /0306 10040 20020 30167 40178 57004 60006 81500 90000=
07761,1996-02-12 03:00:00,4,1017.2,-0.6,87,2,18000,11.112,,,40,,,,,,,,,,,wg-a,,,,AAXX 12034 07761 12668 /0406 10040 20020 30161 40172 58006 60006 81200 90300=
07761,1996-02-12 06:00:00,3,1017.4,0.2,87,1,20000,14.816,,,50,2.5,8.4,,,,,,,,,wg-a,,,,AAXX 12064 07761 02670 20508 10030 20010 30163 40174 53002 60006 82200 90600 333 10084 20025 60004=
07761,1996-02-12 09:00:00,9,1018.1,0.7,76,5,22000,11.112,,,50,,,,,,,,,,15,wg-a,,,,AAXX 12094 07761 12672 30506 10090 20050 30170 40181 51007 60006 71500 83800 90900=
07761,1996-02-12 12:00:00,14,1016.7,-1.4,55,5,40000,11.112,,,220,,,,,,,,,,,wg-a,,,,AAXX 12124 07761 12682 22206 10140 20050 30156 40167 58014 60006 82200 91200=
07761,1996-02-12 15:00:00,13,1015.3,-1.4,54,4,500,18.52,,,240,,,,,,,,,,,wg-a,,,,AAXX 12154 07761 12600 72410 10130 20040 30142 40153 56014 60006 81202 91500=
07761,1996-02-12 18:00:00,10,1015,-0.3,66,4,20000,11.112,,,40,2.2,14,,,,,,,,21,wg-a,,,,AAXX 12184 07761 02570 /0406 10100 20040 30139 40150 55003 61000 72161 85800 91800 333 10140 20022 ////=
07761,1996-02-12 21:00:00,8,1012.9,-2.1,76,4,11000,11.112,,,40,,,,,,,,,,,wg-a,,,,AAXX 12214 07761 12/61 /0406 10080 20040 30118 40129 58021 60006 92100=
07761,1996-02-13 00:00:00,12,1009.3,-3.6,76,8,20000,22.224,,,220,,,,0,,,,,,25,wg-a,,,,AAXX 13004 07761 02570 72212 10120 20080 30082 40093 58036 60016 72586 878// 90000 333 60007=
07761,1996-02-13 03:00:00,13,1005.8,-3.5,77,9,12000,38.892,,,260,,,,0,,,,,,25,wg-a,,,,AAXX 13034 07761 12562 82621 10130 20090 30047 40058 57035 60007 72586 878// 90300=
07761,1996-02-13 06:00:00,12,1005.4,-0.4,62,5,12000,25.928,,,280,7.7,13.2,,,,,1,,,3,wg-a,,,,AAXX 13064 07761 12562 62814 10120 20050 30043 40054 55004 60014 70386 86800 90600 333 10132 20077=
07761,1996-02-13 09:00:00,12,1006.1,0.7,58,4,15000,22.224,,,280,,,,,,,,,,,wg-a,,,,AAXX 13094 07761 12565 42812 10120 20040 30050 40061 51007 60006 84200 90900=
07761,1996-02-13 12:00:00,14,1004.7,-1.4,55,5,15000,31.484,,64.82,270,,,,,,,,,,,wg-a,,,,AAXX 13124 07761 12665 22717 10140 20050 30036 40047 58014 60006 82200 91200 333 91035=
07761,1996-02-13 15:00:00,13,1004.6,-0.1,58,5,15000,35.188,,68.524,290,,,,,,,,,,,wg-a,,,,AAXX 13154 07761 12665 32919 10130 20050 30035 40046 55001 60006 83200 91500 333 91037=
07761,1996-02-13 18:00:00,12,1006.2,1.6,58,4,15000,31.484,,68.524,280,10.6,14,,,,,,,,,wg-a,,,,AAXX 13184 07761 12565 42817 10120 20040 30051 40062 51016 60006 84200 91800 333 10140 20106 91037=
07761,1996-02-13 21:00:00,12,1006.3,0.1,47,1,15000,25.928,,,290,,,,,,,,,,,wg-a,,,,AAXX 13214 07761 12665 /2914 10120 20010 30052 40063 52001 60006 81200 92100=
07761,1996-02-14 00:00:00,11,1006.5,0.2,47,0,15000,14.816,,,310,,,,,,,,,,,wg-a,,,,AAXX 14004 07761 12665 23108 10110 20000 30054 40065 51002 60006 82200 90000=
07761,1996-02-14 03:00:00,6,1006.2,-0.3,65,0,15000,7.408,,,50,,,,,,,,,,,wg-a,,,,AAXX 14034 07761 12665 40504 10060 20000 30051 40062 57003 60006 84200 90300=
07761,1996-02-14 06:00:00,4,1006.9,0.7,81,1,15000,11.112,,,80,3.4,12.4,,,,,,,,,wg-a,,,,AAXX 14064 07761 02665 20806 10040 20010 30058 40069 53007 60006 82200 90600 333 10124 20034 60004=
07761,1996-02-14 09:00:00,10,1008,1.1,62,3,25000,3.704,,,60,,,,,,,,,,,wg-a,,,,AAXX 14094 07761 12675 40602 10100 20030 30069 40080 51011 60006 82102 90900=
07761,1996-02-14 12:00:00,12,1008.7,0.7,50,2,500,11.112,,,240,,,,,,,,,,,wg-a,,,,AAXX 14124 07761 12600 /2406 10120 20020 30076 40087 50007 60006 81172 91200=
07761,1996-02-14 15:00:00,11,1009.7,1,54,2,500,3.704,,,280,,,,,,,,,,,wg-a,,,,AAXX 14154 07761 12600 /2802 10110 20020 30086 40097 53010 60006 82272 91500=
07761,1996-02-14 18:00:00,6,1011.6,1.9,81,3,20000,7.408,,,80,3.5,12.3,,,,,,,,,wg-a,,,,AAXX 14184 07761 12670 30804 10060 20030 30105 40116 53019 60006 82802 91800 333 10123 20035=
07761,1996-02-14 21:00:00,6,1013.3,1.7,81,3,20000,11.112,,,50,,,,,,,,,,13,wg-a,,,,AAXX 14214 07761 12670 /0506 10060 20030 30122 40133 52017 60006 71311 81301 92100=
07761,1996-02-15 00:00:00,5,1014.7,1.4,81,2,20000,7.408,,,30,,,,,,,,,,,wg-a,,,,AAXX 15004 07761 12670 30304 10050 20020 30136 40147 51014 60006 83800 90000=
07761,1996-02-15 03:00:00,4,1015.6,0.9,81,1,20000,11.112,,,60,,,,,,,,,,,wg-a,,,,AAXX 15034 07761 12670 20606 10040 20010 30145 40156 53009 60006 82801 90300=
07761,1996-02-15 05:00:00,5,1016.9,1.3,75,1,11000,9.26,,,80,3.3,6.5,,,,,,,,13,wg-a,,,,AAXX 15054 07761 02661 70805 10050 20010 30158 40169 53013 60006 71311 81332 90500 333 10065 20033 60004=
07761,1996-02-15 06:00:00,5,1016.9,1.3,75,1,15000,3.704,,,60,3.3,6.5,,,,,,,,13,wg-a,,,,AAXX 15064 07761 02665 /0602 10050 20010 30158 40169 53013 60006 71311 81332 90600 333 10065 20033 60004=
07761,1996-02-15 09:00:00,11,1018.1,1.2,58,3,500,7.408,,,180,,,,,,,,,,,wg-a,,,,AAXX 15094 07761 12600 /1804 10110 20030 30170 40181 51012 60006 81232 90900=
07761,1996-02-15 12:00:00,13,1018.5,0.4,51,3,500,25.928,,,210,,,,,,,,,,,wg-a,,,,AAXX 15124 07761 12600 42114 10130 20030 30174 40185 50004 60006 82202 91200=
07761,1996-02-15 15:00:00,12,1018.7,0.2,32,-4,25000,14.816,,,30,,,,,,,,,,,wg-a,,,,AAXX 15154 07761 12675 50308 10120 21040 30176 40187 53002 60006 83842 91500=
07761,1996-02-15 18:00:00,8,1019.8,1.1,53,-1,20000,14.816,,,40,3.8,13.6,,,,,,,,13,wg-a,,,,AAXX 15184 07761 12670 20408 10080 21010 30187 40198 52011 60006 71311 82900 91800 333 10136 20038=
07761,1996-02-15 21:00:00,6,1021.1,1.3,52,-3,20000,7.408,,,70,,,,,,,,,,,wg-a,,,,AAXX 15214 07761 12/70 00704 10060 21030 30200 40211 53013 60006 80000 92100=
07761,1996-02-16 00:00:00,3,1021.2,0.1,65,-3,15000,11.112,,,40,,,,,,,,,,,wg-a,,,,AAXX 16004 07761 12/65 00406 10030 21030 30201 40212 51001 60006 80000 90000=
07761,1996-02-16 03:00:00,0,1020.3,-0.9,80,-3,15000,14.816,,,40,,,,,,,,,,,wg-a,,,,AAXX 16034 07761 12/65 00408 10000 21030 30192 40203 58009 60006 80000 90300=
07761,1996-02-16 06:00:00,0,1020.2,-0.1,74,-4,15000,18.52,,,50,-0.9,8.8,,,,,,,,,wg-a,,,,AAXX 16064 07761 02/65 /0510 10000 21040 30191 40202 55001 60006 80000 90600 333 10088 21009 60004=
07761,1996-02-16 09:00:00,7,1020.6,0.4,49,-3,40000,3.704,,,10,,,,,,,,,,,wg-a,,,,AAXX 16094 07761 12/82 00102 10070 21030 30195 40206 51004 60006 80000 90900=
07761,1996-02-16 12:00:00,12,1019.7,-0.9,44,0,40000,14.816,,,230,,,,,,,,,,,wg-a,,,,AAXX 16124 07761 12682 12308 10120 20000 30186 40197 58009 60006 81100 91200=
07761,1996-02-16 15:00:00,13,1018.2,-1.5,44,1,40000,3.704,,,190,,,,,,,,,,,wg-a,,,,AAXX 16154 07761 12682 /1902 10130 20010 30171 40182 56015 60006 81100 91500=
07761,1996-02-16 18:00:00,8,1018.9,0.7,61,1,25000,11.112,,,60,-0.6,13.2,,,,,,,,,wg-a,,,,AAXX 16184 07761 12/75 00606 10080 20010 30178 40189 53007 60006 80000 91800 333 10132 21006=
07761,1996-02-16 21:00:00,4,1019.8,0.9,70,-1,25000,11.112,,,50,,,,,,,,,,,wg-a,,,,AAXX 16214 07761 12/75 00506 10040 21010 30187 40198 51009 60006 80000 92100=
07761,1996-02-17 00:00:00,3,1019.7,-0.1,75,-1,25000,14.816,,,40,,,,,,,,,,,wg-a,,,,AAXX 17004 07761 12/75 00408 10030 21010 30186 40197 58001 60006 80000 90000=
07761,1996-02-17 03:00:00,2,1018.7,-1,80,-1,25000,14.816,,,40,,,,,,,,,,,wg-a,,,,AAXX 17034 07761 12/75 00408 10020 21010 30176 40187 58010 60006 80000 90300=
07761,1996-02-17 06:00:00,2,1017.9,-0.8,80,-1,25000,14.816,,,30,1.1,7.4,,,,,,,,,wg-a,,,,AAXX 17064 07761 02/75 00308 10020 21010 30168 40179 58008 60006 80000 90600 333 10074 20011 60004=
07761,1996-02-17 09:00:00,10,1017.2,-0.7,57,2,20000,11.112,,,50,,,,,,,,,,,wg-a,,,,AAXX 17094 07761 12770 10506 10100 20020 30161 40172 56007 60006 81100 90900=
07761,1996-02-17 12:00:00,14,1014.1,-3.1,58,6,25000,25.928,,,230,,,,,,,,,,,wg-a,,,,AAXX 17124 07761 12675 /2314 10140 20060 30130 40141 58031 60006 81100 91200=
07761,1996-02-17 18:00:00,9,1012.9,0.1,76,5,12000,11.112,,,50,1.9,13.9,,,,,,,,,wg-a,,,,AAXX 17184 07761 12562 /0506 10090 20050 30118 40129 53001 60006 81500 91800 333 10139 20019=
07761,1996-02-18 00:00:00,4,1016.5,1.9,87,2,12000,18.52,,,60,,,,,,,,,,,wg-a,,,,AAXX 18004 07761 12/62 00610 10040 20020 30154 40165 53019 60006 80000 90000=
07761,1996-02-18 06:00:00,3,1017.7,1.2,81,0,12000,18.52,,,50,2.7,8.7,,,,,,,,,wg-a,,,,AAXX 18064 07761 02662 20510 10030 20000 30166 40177 51012 60006 81502 90600 333 10087 20027 60004=
07761,1996-02-18 09:00:00,10,1017.4,-0.3,57,2,20000,11.112,,,40,,,,,,,,,,,wg-a,,,,AAXX 18094 07761 12670 20406 10100 20020 30163 40174 58003 60006 81102 90900=
07761,1996-02-18 12:00:00,14,1016.6,-0.8,67,8,25000,18.52,,,230,,,,,,,,,,,wg-a,,,,AAXX 18124 07761 12675 22310 10140 20080 30155 40166 58008 60006 82201 91200=
07761,1996-02-18 15:00:00,11,1015.2,-1.4,62,4,20000,18.52,,,280,,,,,,,,,,,wg-a,,,,AAXX 18154 07761 12570 82810 10110 20040 30141 40152 56014 60006 88800 91500=
07761,1996-02-18 18:00:00,11,1014,-1.2,66,5,15000,11.112,,,280,3.1,14.7,,,,,,,,21,wg-a,,,,AAXX 18184 07761 02565 72806 10110 20050 30129 40140 56012 61000 72161 878// 91800 333 10147 20031 ////=
07761,1996-02-18 21:00:00,9,1012.4,-1.6,76,5,15000,3.704,,,60,,,,,,,,,,,wg-a,,,,AAXX 18214 07761 12565 /0602 10090 20050 30113 40124 57016 60006 86500 92100=
07761,1996-02-19 00:00:00,9,1008.9,-3.5,76,5,12000,11.112,,,60,,,,,,,,,,,wg-a,,,,AAXX 19004 07761 12562 70606 10090 20050 30078 40089 58035 60006 875// 90000=
07761,1996-02-19 03:00:00,13,1005.1,-3.8,82,10,12000,22.224,,,210,,,,,,,,,,,wg-a,,,,AAXX 19034 07761 12462 /2112 10130 20100 30040 40051 56038 60006 86800 90300=
07761,1996-02-19 06:00:00,12,1002.2,-2.9,82,9,10000,25.928,,,240,8.7,13.2,,2,,,2,,,61,wg-a,,,,AAXX 19064 07761 02460 82414 10120 20090 30011 40022 56029 60024 76186 888// 90600 333 10132 20087 60027=
07761,1996-02-19 09:00:00,11,999.3,-2.9,87,9,12000,3.704,,,70,,,,0,,,,,,1,wg-a,,,,AAXX 19094 07761 12562 80702 10110 20090 39982 49993 58029 60007 70162 8587/ 90900=
07761,1996-02-19 12:00:00,8,999.6,0.3,81,5,9000,7.408,,50.004,350,,,,3,,,,,,60,wg-a,,,,AAXX 19124 07761 02359 83504 10080 20050 39985 49996 53003 60046 76086 8587/ 91200 333 60037 91027=
07761,1996-02-19 15:00:00,8,998.9,-0.7,87,6,10000,7.408,,,60,,,,1,,,,,,21,wg-a,,,,AAXX 19154 07761 12560 80604 10080 20060 39978 49989 55007 60017 72162 8587/ 91500=
07761,1996-02-19 18:00:00,7,1000.2,1.3,87,5,12000,11.112,,,60,6.5,12.4,,1,,,,,,1,wg-a,,,,AAXX 19184 07761 12562 70606 10070 20050 39991 40002 53013 60017 70187 85201 91800 333 10124 20065=
07761,1996-02-19 21:00:00,5,1000.4,0.2,87,3,12000,11.112,,,40,,,,,,,,,,,wg-a,,,,AAXX 19214 07761 12562 30406 10050 20030 39993 40004 51002 60006 83200 92100=
07761,1996-02-20 00:00:00,5,1000.4,-0,87,3,10000,11.112,,,50,,,,,,,,,,80,wg-a,,,,AAXX 20004 07761 02560 80506 10050 20030 39993 40004 55000 61000 78086 878// 90000 333 6100=
07761,1996-02-20 03:00:00,6,999.8,-0.6,87,4,9000,14.816,,,50,,,,5,,,,,,80,wg-a,,,,AAXX 20034 07761 12459 80508 10060 20040 39987 49998 58006 60057 78098 879// 90300=
07761,1996-02-20 06:00:00,4,998.8,-1,87,2,25000,11.112,,,30,3.7,8.4,,,,,10,,,3,wg-a,,,,AAXX 20064 07761 02675 70306 10040 20020 39977 49988 56010 60104 70398 81333 90600 333 10084 20037 61000=
07761,1996-02-20 09:00:00,6,999.8,1,93,5,25000,7.408,,,30,,,,0,,,,,,3,wg-a,,,,AAXX 20094 07761 12575 80304 10060 20050 39987 49998 51010 60007 70386 8537/ 90900=
07761,1996-02-20 12:00:00,9,1000.4,0.6,76,5,20000,7.408,,,100,,,,,,,,,,3,wg-a,,,,AAXX 20124 07761 02570 /1004 10090 20050 39993 40004 50006 60016 70386 8637/ 91200 333 61000=
07761,1996-02-20 18:00:00,8,1002.2,1.3,66,2,25000,14.816,,,250,3.7,9.6,,,,,,,,,wg-a,,,,AAXX 20184 07761 32575 72508 10080 20020 30011 40022 53013 83802 91800 333 10096 20037=
07761,1996-02-20 21:00:00,5,1003.2,1,81,2,15000,18.52,,,50,,,,,,,,,,,wg-a,,,,AAXX 20214 07761 12665 60510 10050 20020 30021 40032 53010 60006 86800 92100=
07761,1996-02-21 00:00:00,4,1003.9,0.7,81,1,15000,3.704,,,50,,,,0,,,,,,21,wg-a,,,,AAXX 21004 07761 02565 /0502 10040 20010 30028 40039 53007 60016 72161 81500 90000 333 60007=
07761,1996-02-21 03:00:00,1,1003.8,-0.1,93,0,15000,14.816,,,60,,,,,,,,,,,wg-a,,,,AAXX 21034 07761 12665 50608 10010 20000 30027 40038 58001 60006 85800 90300=
07761,1996-02-21 09:00:00,5,1004.2,0.2,81,2,12000,3.704,,,30,,,,,,,,,,,wg-a,,,,AAXX 21094 07761 12662 60302 10050 20020 30031 40042 52002 60006 85832 90900=
07761,1996-02-21 12:00:00,5,1005.3,1.1,81,2,9000,22.224,,,280,,,,,,,,,,16,wg-a,,,,AAXX 21124 07761 02459 72812 10050 20020 30042 40053 51011 61000 71686 878// 91200 333 6100=
07761,1996-02-21 15:00:00,6,1005.7,0.4,75,2,12000,7.408,,,90,,,,1,,,,,,1,wg-a,,,,AAXX 21154 07761 12362 70904 10060 20020 30046 40057 51004 60017 70162 878// 91500=
07761,1996-02-21 18:00:00,3,1007.3,1.6,87,1,8000,14.816,,,330,0.5,6.5,,1,,,,,,17,wg-a,,,,AAXX 21184 07761 12358 83308 10030 20010 30062 40073 53016 60017 71798 889// 91800 333 10065 20005=
07761,1996-02-21 21:00:00,1,1007.7,0.4,93,0,20000,7.408,,,60,,,,1,,,,,,1,wg-a,,,,AAXX 21214 07761 12570 20604 10010 20000 30066 40077 53004 60017 70198 82800 92100=
07761,1996-02-22 00:00:00,1,1007.6,-0.1,93,0,20000,7.408,,,70,,,,,,,,,,3,wg-a,,,,AAXX 22004 07761 12470 40704 10010 20000 30065 40076 55001 60016 70398 84800 90000=
07761,1996-02-22 03:00:00,0,1006.4,-1.2,86,-2,20000,14.816,,,60,,,,,,,,,,,wg-a,,,,AAXX 22034 07761 12570 /0608 10000 21020 30053 40064 58012 60006 81200 90300=
07761,1996-02-22 06:00:00,-1,1007.5,1.1,93,-2,20000,11.112,,,40,-1.2,2.6,,,,,3,,,,wg-a,,,,AAXX 22064 07761 12570 30406 11010 21020 30064 40075 53011 60034 81572 90600 333 10026 21012=
07761,1996-02-22 09:00:00,4,1008.4,0.9,75,0,15000,7.408,,,20,,,,1,,,,,,80,wg-a,,,,AAXX 22094 07761 12465 80204 10040 20000 30073 40084 51009 60017 78087 879// 90900=
07761,1996-02-22 12:00:00,7,1007.9,-0.5,76,3,15000,7.408,,,250,,,,,,,,,,1,wg-a,,,,AAXX 22124 07761 12565 /2504 10070 20030 30068 40079 58005 60016 70187 85800 91200=
07761,1996-02-22 15:00:00,10,1006.9,-1,62,3,15000,14.816,,,220,,,,,,,,,,,wg-a,,,,AAXX 22154 07761 12665 22208 10100 20030 30058 40069 56010 60006 82230 91500=
07761,1996-02-22 18:00:00,6,1009,2.1,70,1,15000,7.408,,,50,-0.9,10.2,,,,,,,,,wg-a,,,,AAXX 22184 07761 32665 20504 10060 20010 30079 40090 53021 82430 91800 333 10102 21009=
07761,1996-02-22 21:00:00,2,1010.8,1.8,87,0,15000,14.816,,,50,,,,,,,,,,,wg-a,,,,AAXX 22214 07761 12765 /0508 10020 20000 30097 40108 51018 60006 81530 92100=
07761,1996-02-23 00:00:00,0,1011.4,0.6,93,-1,15000,14.816,,,50,,,,,,,,,,,wg-a,,,,AAXX 23004 07761 12665 /0508 10000 21010 30103 40114 50006 60006 81500 90000=
07761,1996-02-23 03:00:00,0,1010.8,-0.6,86,-2,15000,14.816,,,40,,,,,,,,,,,wg-a,,,,AAXX 23034 07761 12665 /0408 10000 21020 30097 40108 58006 60006 81500 90300=
07761,1996-02-23 06:00:00,1,1011.8,1,80,-2,15000,14.816,,,50,-0.7,6,,,,,1,,,,wg-a,,,,AAXX 23064 07761 02565 70508 10010 21020 30107 40118 53010 60006 8582/ 90600 333 10060 21007 60014=
07761,1996-02-23 09:00:00,7,1012.8,1,57,-1,20000,0,,,0,,,,,,,,,,,wg-a,,,,AAXX 23094 07761 12670 30000 10070 21010 30117 40128 51010 60006 81270 90900=
07761,1996-02-23 12:00:00,5,1013.2,0.4,93,4,500,7.408,,,140,,,,4,,,,,,61,wg-a,,,,AAXX 23124 07761 02400 81404 10050 20040 30121 40132 50004 60046 76187 8582/ 91200 333 60047=
07761,1996-02-23 15:00:00,9,1011.7,-1.5,66,3,15000,3.704,,,260,,,,,,,,,,3,wg-a,,,,AAXX 23154 07761 02565 /2602 10090 20030 30106 40117 56015 61000 70362 83270 91500 333 ////=
07761,1996-02-23 18:00:00,6,1012.1,0.4,75,2,12000,7.408,,,60,0.6,9.3,,,,,,,,1,wg-a,,,,AAXX 23184 07761 32562 /0604 10060 20020 30110 40121 53004 70161 85800 91800 333 10093 20006=
07761,1996-02-23 21:00:00,2,1012.8,0.7,87,0,15000,14.816,,,60,,,,,,,,,,,wg-a,,,,AAXX 23214 07761 12765 /0608 10020 20000 30117 40128 51007 60006 81100 92100=
07761,1996-02-24 03:00:00,1,1013.2,0.3,86,-1,15000,14.816,,,50,,,,,,,,,,,wg-a,,,,AAXX 24034 07761 12765 /0508 10010 21010 30121 40132 51003 60006 86800 90300=
07761,1996-02-24 06:00:00,2,1014.5,1.3,75,-2,15000,18.52,,,40,0.3,6.2,,,,,4,,,,wg-a,,,,AAXX 24064 07761 02765 30410 10020 21020 30134 40145 53013 60006 81801 90600 333 10062 20003 60044=
07761,1996-02-24 09:00:00,8,1015.7,1.2,57,0,500,7.408,,,30,,,,,,,,,,,wg-a,,,,AAXX 24094 07761 12600 /0304 10080 20000 30146 40157 51012 60006 81200 90900=
07761,1996-02-24 12:00:00,12,1016.3,0.6,54,3,50000,14.816,,,240,,,,,,,,,,,wg-a,,,,AAXX 24124 07761 12684 /2408 10120 20030 30152 40163 50006 60006 81200 91200=
07761,1996-02-24 15:00:00,12,1016.2,-0.1,58,4,500,22.224,,,230,,,,,,,,,,,wg-a,,,,AAXX 24154 07761 12600 32312 10120 20040 30151 40162 55001 60006 83200 91500=
07761,1996-02-24 18:00:00,9,1017.6,1.4,71,4,20000,11.112,,,140,0.7,12.4,,,,,,,,,wg-a,,,,AAXX 24184 07761 12670 41406 10090 20040 30165 40176 53014 60006 84800 91800 333 10124 20007=
07761,1996-02-24 21:00:00,5,1018.7,1.1,81,2,20000,7.408,,,80,,,,,,,,,,,wg-a,,,,AAXX 24214 07761 12670 /0804 10050 20020 30176 40187 53011 60006 81500 92100=
07761,1996-02-25 00:00:00,4,1019.3,0.6,87,2,20000,14.816,,,40,,,,,,,,,,,wg-a,,,,AAXX 25004 07761 12/70 /0408 10040 20020 30182 40193 51006 60006 81030 90000=
07761,1996-02-25 03:00:00,3,1019.4,0.1,81,0,20000,18.52,,,40,,,,,,,,,,,wg-a,,,,AAXX 25034 07761 12670 /0410 10030 20000 30183 40194 51001 60006 81500 90300=
07761,1996-02-25 06:00:00,2,1019.6,0.2,80,-1,20000,14.816,,,40,1.2,9,,,,,,,,,wg-a,,,,AAXX 25064 07761 02/70 00408 10020 21010 30185 40196 53002 60006 80000 90600 333 10090 20012 60004=
07761,1996-02-25 09:00:00,9,1020.6,1,61,2,50000,7.408,,,50,,,,,,,,,,,wg-a,,,,AAXX 25094 07761 12684 /0504 10090 20020 30195 40206 51010 60006 81100 90900=
07761,1996-02-25 12:00:00,12,1019.5,-1.1,58,4,50000,14.816,,,240,,,,,,,,,,,wg-a,,,,AAXX 25124 07761 12684 /2408 10120 20040 30184 40195 58011 60006 81100 91200=
07761,1996-02-25 15:00:00,12,1018.5,-1,62,5,50000,14.816,,,230,,,,,,,,,,,wg-a,,,,AAXX 25154 07761 12684 /2308 10120 20050 30174 40185 56010 60006 81100 91500=
07761,1996-02-25 18:00:00,8,1019.2,0.7,81,5,20000,3.704,,,100,1.2,13,,,,,,,,,wg-a,,,,AAXX 25184 07761 12670 /1002 10080 20050 30181 40192 53007 60006 81800 91800 333 10130 20012=
07761,1996-02-25 21:00:00,5,1019.1,-0.1,87,3,20000,14.816,,,50,,,,,,,,,,,wg-a,,,,AAXX 25214 07761 12670 /0508 10050 20030 30180 40191 58001 60006 81500 92100=
07761,1996-02-26 00:00:00,4,1019,-0.1,81,1,20000,11.112,,,60,,,,,,,,,,,wg-a,,,,AAXX 26004 07761 12670 /0606 10040 20010 30179 40190 58001 60006 81501 90000=
07761,1996-02-26 03:00:00,4,1017.6,-1.4,81,1,20000,11.112,,,50,,,,,,,,,,,wg-a,,,,AAXX 26034 07761 12670 /0506 10040 20010 30165 40176 58014 60006 81500 90300=
07761,1996-02-26 06:00:00,4,1017.3,-0.3,87,2,25000,14.816,,,50,3.3,8.1,,,,,,,,,wg-a,,,,AAXX 26064 07761 02775 60508 10040 20020 30162 40173 58003 60006 81532 90600 333 10081 20033 60004=
07761,1996-02-26 09:00:00,13,1017.2,-0.1,51,3,25000,22.224,,,90,,,,,,,,,,,wg-a,,,,AAXX 26094 07761 12775 70912 10130 20030 30161 40172 58001 60006 82572 90900=
07761,1996-02-26 12:00:00,13,1016.3,-0.9,58,5,25000,11.112,,,140,,,,,,,,,,60,wg-a,,,,AAXX 26124 07761 02575 81406 10130 20050 30152 40163 58009 61000 76062 8287/ 91200 333 6100=
07761,1996-02-26 15:00:00,11,1015.7,-0.6,82,8,10000,3.704,,,80,,,,1,,,,,,61,wg-a,,,,AAXX 26154 07761 12560 80802 10110 20080 30146 40157 56006 60017 76162 8582/ 91500=
07761,1996-02-26 18:00:00,10,1015.6,-0.1,87,8,12000,7.408,,,70,4.2,13.8,,1,,,,,,1,wg-a,,,,AAXX 26184 07761 12662 80704 10100 20080 30145 40156 55001 60017 70162 8482/ 91800 333 10138 20042=
07761,1996-02-26 21:00:00,9,1015.3,-0.3,87,7,20000,14.816,,,30,,,,,,,,,,,wg-a,,,,AAXX 26214 07761 12570 /0308 10090 20070 30142 40153 58003 60006 83870 92100=
07761,1996-02-27 00:00:00,12,1015.9,0.6,67,6,20000,14.816,,,90,,,,,,,,,,50,wg-a,,,,AAXX 27004 07761 02670 70908 10120 20060 30148 40159 52006 61000 75052 8467/ 90000 333 6100=
07761,1996-02-27 03:00:00,12,1014.2,-1.7,62,5,20000,18.52,,53.708,90,,,,,,,,,,3,wg-a,,,,AAXX 27034 07761 02470 70910 10120 20050 30131 40142 56017 61000 70352 8387/ 90300 333 //// 91029=
07761,1996-02-27 06:00:00,11,1014.5,0.3,62,4,20000,7.408,,53.708,60,8.5,13.3,,,,,2,,,3,wg-a,,,,AAXX 27064 07761 12470 70604 10110 20040 30134 40145 50003 60024 70352 81192 90600 333 10133 20085 91029=
07761,1996-02-27 09:00:00,12,1015.3,0.8,71,7,18000,3.704,,,90,,,,,,,,,,15,wg-a,,,,AAXX 27094 07761 12568 70902 10120 20070 30142 40153 51008 60006 71522 84832 90900=
07761,1996-02-27 12:00:00,14,1014.4,-0.9,72,9,18000,14.816,,,250,,,,,,,,,,,wg-a,,,,AAXX 27124 07761 12668 72508 10140 20090 30133 40144 58009 60006 85832 91200=
07761,1996-02-27 15:00:00,14,1014,-0.4,67,8,18000,7.408,,,320,,,,,,,,,,,wg-a,,,,AAXX 27154 07761 12668 73204 10140 20080 30129 40140 55004 60006 85832 91500=
07761,1996-02-27 18:00:00,12,1014.4,0.4,71,7,18000,3.704,,,320,10.1,16.5,,,,,,,,,wg-a,,,,AAXX 27184 07761 12668 73202 10120 20070 30133 40144 53004 60006 83832 91800 333 10165 20101=
07761,1996-02-27 21:00:00,6,1015.3,0.9,81,3,15000,11.112,,,40,,,,,,,,,,,wg-a,,,,AAXX 27214 07761 12665 /0406 10060 20030 30142 40153 53009 60006 81802 92100=
07761,1996-02-28 00:00:00,4,1014.8,-0.5,87,2,15000,11.112,,,50,,,,,,,,,,,wg-a,,,,AAXX 28004 07761 12765 40506 10040 20020 30137 40148 57005 60006 81502 90000=
07761,1996-02-28 03:00:00,5,1014.1,-0.7,75,1,15000,14.816,,,40,,,,,,,,,,,wg-a,,,,AAXX 28034 07761 12/65 60408 10050 20010 30130 40141 58007 60006 80006 90300=
07761,1996-02-28 06:00:00,4,1014.2,0.1,75,0,15000,11.112,,,30,2.8,12,,,,,,,,,wg-a,,,,AAXX 28064 07761 02765 70306 10040 20000 30131 40142 53001 60006 81102 90600 333 10120 20028 60004=
07761,1996-02-28 09:00:00,13,1015,0.8,51,3,25000,3.704,,,260,,,,,,,,,,,wg-a,,,,AAXX 28094 07761 12/75 /2602 10130 20030 30139 40150 51008 60006 80002 90900=
07761,1996-02-28 12:00:00,15,1014.6,-0.4,55,6,500,18.52,,,220,,,,,,,,,,,wg-a,,,,AAXX 28124 07761 12600 32210 10150 20060 30135 40146 58004 60006 81102 91200=
07761,1996-02-28 15:00:00,14,1014.8,0.2,67,8,500,18.52,,,210,,,,,,,,,,,wg-a,,,,AAXX 28154 07761 12600 22110 10140 20080 30137 40148 53002 60006 81102 91500=
07761,1996-02-28 18:00:00,10,1016.1,1.3,71,5,20000,7.408,,,70,2.5,15.4,,,,,,,,,wg-a,,,,AAXX 28184 07761 12/70 20704 10100 20050 30150 40161 53013 60006 80002 91800 333 10154 20025=
07761,1996-02-28 21:00:00,6,1017.2,1.1,81,3,15000,14.816,,,50,,,,,,,,,,,wg-a,,,,AAXX 28214 07761 12/65 00508 10060 20030 30161 40172 52011 60006 80000 92100=
07761,1996-02-29 03:00:00,4,1017.2,-0.1,81,1,15000,14.816,,,40,,,,,,,,,,,wg-a,,,,AAXX 29034 07761 12565 /0408 10040 20010 30161 40172 58001 60006 81800 90300=
07761,1996-02-29 06:00:00,4,1017.8,0.6,81,1,15000,18.52,,,40,3.5,9.7,,,,,,,,,wg-a,,,,AAXX 29064 07761 02765 /0410 10040 20010 30167 40178 53006 60006 81502 90600 333 10097 20035 60004=
07761,1996-02-29 09:00:00,11,1018.7,0.9,58,3,25000,7.408,,,30,,,,,,,,,,,wg-a,,,,AAXX 29094 07761 12775 /0304 10110 20030 30176 40187 51009 60006 81500 90900=
07761,1996-02-29 12:00:00,14,1018.6,-0.1,63,7,500,14.816,,,240,,,,,,,,,,,wg-a,,,,AAXX 29124 07761 12600 /2408 10140 20070 30175 40186 58001 60006 81100 91200=
07761,1996-02-29 15:00:00,13,1018.9,0.3,67,7,25000,14.816,,,230,,,,,,,,,,,wg-a,,,,AAXX 29154 07761 12575 52308 10130 20070 30178 40189 53003 60006 85800 91500=
07761,1996-02-29 18:00:00,10,1019.6,0.7,76,6,18000,3.704,,,330,3.5,14.2,,,,,,,,,wg-a,,,,AAXX 29184 07761 12668 43302 10100 20060 30185 40196 53007 60006 83402 91800 333 10142 20035=
07761,1996-02-29 21:00:00,6,1020.3,0.7,87,4,20000,11.112,,,40,,,,,,,,,,,wg-a,,,,AAXX 29214 07761 12670 /0406 10060 20040 30192 40203 51007 60006 81500 92100=
07761,1996-03-01 00:00:00,4,1020.2,-0.1,87,2,20000,18.52,,,40,,,,,,,,,,,wg-a,,,,AAXX 01004 07761 12/70 00410 10040 20020 30191 40202 58001 60006 80000 90000=
07761,1996-03-01 03:00:00,3,1019.1,-1.1,87,1,20000,14.816,,,50,,,,,,,,,,,wg-a,,,,AAXX 01034 07761 12570 /0508 10030 20010 30180 40191 57011 60006 81500 90300=
07761,1996-03-01 06:00:00,3,1018.4,-0.7,81,0,15000,14.816,,,50,2,10.4,,,,,,,,,wg-a,,,,AAXX 01064 07761 02565 /0508 10030 20000 30173 40184 56007 60006 81552 90600 333 10104 20020 60004=
07761,1996-03-01 09:00:00,10,1018.2,-0.2,66,4,12000,11.112,,,40,,,,,,,,,,,wg-a,,,,AAXX 01094 07761 12562 /0406 10100 20040 30171 40182 58002 60006 86230 90900=
07761,1996-03-01 12:00:00,14,1016,-2.2,67,8,9000,18.52,,,220,,,,,,,,,,,wg-a,,,,AAXX 01124 07761 12559 /2210 10140 20080 30149 40160 58022 60006 81200 91200=
07761,1996-03-01 15:00:00,13,1012.9,-3.1,62,6,8000,22.224,,,210,,,,,,,,,,,wg-a,,,,AAXX 01154 07761 12558 32112 10130 20060 30118 40129 58031 60006 81230 91500=
07761,1996-03-01 18:00:00,9,1011.4,-1.5,71,4,9000,7.408,,,100,2.9,13.9,,,,,,,,,wg-a,,,,AAXX 01184 07761 12859 /1004 10090 20040 30103 40114 58015 60006 81031 91800 333 10139 20029=
07761,1996-03-01 21:00:00,6,1010,-1.4,81,3,15000,18.52,,,60,,,,,,,,,,,wg-a,,,,AAXX 01214 07761 12/65 00610 10060 20030 30089 40100 56014 60006 80000 92100=
07761,1996-03-02 00:00:00,6,1008.1,-1.9,75,2,10000,18.52,,,60,,,,,,,,,,,wg-a,,,,AAXX 02004 07761 12560 30610 10060 20020 30070 40081 57019 60006 83500 90000=
07761,1996-03-02 03:00:00,3,1007.3,-0.8,87,1,12000,14.816,,,50,,,,,,,,,,,wg-a,,,,AAXX 02034 07761 12562 /0508 10030 20010 30062 40073 58008 60006 81500 90300=
07761,1996-03-02 06:00:00,4,1008.8,1.5,81,1,10000,14.816,,,30,2.9,8.6,,,,,,,,,wg-a,,,,AAXX 02064 07761 02560 /0308 10040 20010 30077 40088 52015 60006 81500 90600 333 10086 20029 60004=
07761,1996-03-02 09:00:00,11,1009.5,0.7,62,4,15000,7.408,,,70,,,,,,,,,,,wg-a,,,,AAXX 02094 07761 12665 /0704 10110 20040 30084 40095 51007 60006 81100 90900=
07761,1996-03-02 12:00:00,12,1009.8,0.3,67,6,15000,14.816,,,240,,,,,,,,,,,wg-a,,,,AAXX 02124 07761 12665 /2408 10120 20060 30087 40098 50003 60006 86200 91200=
07761,1996-03-02 15:00:00,7,1011.1,1.3,81,4,8000,14.816,,,90,,,,8,,,,,,80,wg-a,,,,AAXX 02154 07761 12558 80908 10070 20040 30100 40111 53013 60087 78098 8697/ 91500=
07761,1996-03-02 18:00:00,6,1012.2,1.1,87,4,18000,7.408,,,40,3.4,13.5,,2,,,,,,1,wg-a,,,,AAXX 02184 07761 12568 70404 10060 20040 30111 40122 53011 60027 70198 8687/ 91800 333 10135 20034=
07761,1996-03-02 21:00:00,7,1013.2,1,76,3,18000,11.112,,,50,,,,,,,,,,,wg-a,,,,AAXX 02214 07761 12668 80506 10070 20030 30121 40132 51010 60006 81572 92100=
07761,1996-03-03 00:00:00,6,1013.6,0.4,75,2,18000,11.112,,,40,,,,,,,,,,,wg-a,,,,AAXX 03004 07761 12668 /0406 10060 20020 30125 40136 51004 60006 81570 90000=
07761,1996-03-03 03:00:00,6,1012.4,-1.2,70,1,18000,11.112,,,20,,,,,,,,,,,wg-a,,,,AAXX 03034 07761 12668 80206 10060 20010 30113 40124 58012 60006 8357/ 90300=
07761,1996-03-03 06:00:00,5,1012.4,-0,81,2,18000,7.408,,,40,4.7,6.7,,,,,10,,,,wg-a,,,,AAXX 03064 07761 02768 80404 10050 20020 30113 40124 55000 60006 8252/ 90600 333 10067 20047 60104=
07761,1996-03-03 09:00:00,8,1012.7,0.3,66,2,18000,11.112,,,40,,,,,,,,,,,wg-a,,,,AAXX 03094 07761 12668 80406 10080 20020 30116 40127 50003 60006 8287/ 90900=
07761,1996-03-03 12:00:00,10,1011.4,-1.3,43,-2,20000,3.704,,,290,,,,,,,,,,,wg-a,,,,AAXX 03124 07761 12670 82902 10100 21020 30103 40114 58013 60006 8287/ 91200=
07761,1996-03-03 15:00:00,9,1010.4,-1,57,1,20000,7.408,,,140,,,,,,,,,,,wg-a,,,,AAXX 03154 07761 12670 81404 10090 20010 30093 40104 56010 60006 8287/ 91500=
07761,1996-03-03 18:00:00,7,1010.8,0.4,70,2,20000,11.112,,,20,4.6,10.2,,,,,,,,1,wg-a,,,,AAXX 03184 07761 02670 /0206 10070 20020 30097 40108 53004 61000 70162 8287/ 91800 333 10102 20046 ////=
07761,1996-03-03 21:00:00,6,1010.7,-0.1,81,3,15000,7.408,,,60,,,,,,,,,,,wg-a,,,,AAXX 03214 07761 12665 /0604 10060 20030 30096 40107 57001 60006 8287/ 92100=
07761,1996-03-04 00:00:00,5,1010.9,0.2,87,3,18000,11.112,,,50,,,,,,,,,,,wg-a,,,,AAXX 04004 07761 12768 70506 10050 20030 30098 40109 50002 60006 8157/ 90000=
07761,1996-03-04 03:00:00,5,1010.3,-0.6,81,2,18000,7.408,,,10,,,,,,,,,,,wg-a,,,,AAXX 04034 07761 12768 /0104 10050 20020 30092 40103 56006 60006 82571 90300=
07761,1996-03-04 06:00:00,5,1010.7,0.4,81,2,18000,7.408,,,30,4.5,7.4,,,,,,,,15,wg-a,,,,AAXX 04064 07761 02568 70304 10050 20020 30096 40107 53004 60006 71522 84870 90600 333 10074 20045 61000=
07761,1996-03-04 09:00:00,10,1011.6,0.9,57,2,40000,7.408,,,180,,,,,,,,,,,wg-a,,,,AAXX 04094 07761 12582 41804 10100 20020 30105 40116 51009 60006 81231 90900=
07761,1996-03-04 12:00:00,12,1010.7,-0.9,58,4,40000,25.928,,,230,,,,,,,,,,15,wg-a,,,,AAXX 04124 07761 12582 42314 10120 20040 30096 40107 58009 60006 71511 82230 91200=
07761,1996-03-04 15:00:00,8,1011.1,0.4,57,0,20000,25.928,,,90,,,,,,,,,,15,wg-a,,,,AAXX 04154 07761 12570 40914 10080 20000 30100 40111 53004 60006 71500 84200 91500=
07761,1996-03-04 18:00:00,6,1012.7,1.6,65,0,20000,11.112,,,40,4.1,11.9,,,,,,,,,wg-a,,,,AAXX 04184 07761 12670 40406 10060 20000 30116 40127 53016 60006 84300 91800 333 10119 20041=
07761,1996-03-04 21:00:00,4,1015.3,2.6,75,0,20000,7.408,,,30,,,,,,,,,,,wg-a,,,,AAXX 04214 07761 12670 /0304 10040 20000 30142 40153 51026 60006 81100 92100=
07761,1996-03-05 00:00:00,1,1017,1.7,80,-2,20000,11.112,,,50,,,,,,,,,,,wg-a,,,,AAXX 05004 07761 12670 10506 10010 21020 30159 40170 51017 60006 81500 90000=
07761,1996-03-05 03:00:00,-1,1018.5,1.5,80,-4,20000,11.112,,,50,,,,,,,,,,,wg-a,,,,AAXX 05034 07761 12/70 /0506 11010 21040 30174 40185 51015 60006 80000 90300=
07761,1996-03-05 06:00:00,-1,1020.2,1.7,74,-5,500,11.112,,,40,-1.9,6.1,,,,,,,,,wg-a,,,,AAXX 05064 07761 02/00 00406 11010 21050 30191 40202 52017 60006 80000 90600 333 10061 21019 60004=
07761,1996-03-05 09:00:00,8,1022.4,2.2,36,-6,35000,3.704,,,50,,,,,,,,,,,wg-a,,,,AAXX 05094 07761 12/81 00502 10080 21060 30213 40224 51022 60006 80000 90900=
07761,1996-03-05 12:00:00,11,1023.2,0.8,37,-3,40000,14.816,,,230,,,,,,,,,,,wg-a,,,,AAXX 05124 07761 12682 /2308 10110 21030 30221 40232 50008 60006 81100 91200=
07761,1996-03-05 15:00:00,11,1022.7,-0.5,40,-2,500,14.816,,,250,,,,,,,,,,,wg-a,,,,AAXX 05154 07761 12600 /2508 10110 21020 30216 40227 56005 60006 81100 91500=
07761,1996-03-05 18:00:00,8,1023.4,0.7,46,-3,20000,7.408,,,200,-1.2,11.4,,,,,,,,,wg-a,,,,AAXX 05184 07761 12/70 /2004 10080 21030 30223 40234 53007 60006 80000 91800 333 10114 21012=
07761,1996-03-05 21:00:00,3,1024.4,1,70,-2,20000,14.816,,,50,,,,,,,,,,,wg-a,,,,AAXX 05214 07761 12/70 00508 10030 21020 30233 40244 51010 60006 80000 92100=
07761,1996-03-06 00:00:00,1,1024.2,-0.2,75,-3,20000,18.52,,,50,,,,,,,,,,,wg-a,,,,AAXX 06004 07761 12/70 00510 10010 21030 30231 40242 58002 60006 80000 90000=
07761,1996-03-06 03:00:00,1,1023.3,-0.9,75,-3,20000,14.816,,,40,,,,,,,,,,,wg-a,,,,AAXX 06034 07761 12/70 00408 10010 21030 30222 40233 58009 60006 80000 90300=
07761,1996-03-06 06:00:00,-1,1023.2,-0.1,80,-4,500,11.112,,,50,-0.8,7.3,,,,,,,,,wg-a,,,,AAXX 06064 07761 02/00 00506 11010 21040 30221 40232 55001 60006 80000 90600 333 10073 21008 60004=
07761,1996-03-06 09:00:00,9,1022.9,-0.3,49,-1,40000,7.408,,,50,,,,,,,,,,,wg-a,,,,AAXX 06094 07761 12682 /0504 10090 21010 30218 40229 58003 60006 81100 90900=
07761,1996-03-06 12:00:00,12,1020.4,-2.5,47,1,50000,18.52,,,240,,,,,,,,,,,wg-a,,,,AAXX 06124 07761 12684 /2410 10120 20010 30193 40204 58025 60006 81100 91200=
07761,1996-03-06 15:00:00,11,1018.9,-1.5,54,2,40000,14.816,,,240,,,,,,,,,,,wg-a,,,,AAXX 06154 07761 12682 42408 10110 20020 30178 40189 56015 60006 83801 91500=
07761,1996-03-06 18:00:00,8,1018,-0.9,66,2,20000,3.704,,,60,-0.5,12.1,,,,,,,,,wg-a,,,,AAXX 06184 07761 12670 30602 10080 20020 30169 40180 56009 60006 82501 91800 333 10121 21005=
07761,1996-03-06 21:00:00,3,1016.8,-1.2,81,0,20000,11.112,,,40,,,,,,,,,,,wg-a,,,,AAXX 06214 07761 12/70 /0406 10030 20000 30157 40168 58012 60006 80009 92100=
07761,1996-03-07 00:00:00,3,1015.4,-1.4,81,0,15000,11.112,,,50,,,,,,,,,,,wg-a,,,,AAXX 07004 07761 12/65 70506 10030 20000 30143 40154 56014 60006 83039 90000=
07761,1996-03-07 03:00:00,3,1012.9,-2.5,81,0,15000,14.816,,,60,,,,,,,,,,,wg-a,,,,AAXX 07034 07761 12865 80608 10030 20000 30118 40129 58025 60006 8707/ 90300=
07761,1996-03-07 06:00:00,5,1011.7,-1.2,65,-1,15000,11.112,,,60,2,8.1,,,,,,,,15,wg-a,,,,AAXX 07064 07761 02765 80606 10050 21010 30106 40117 56012 60006 71511 8157/ 90600 333 10081 20020 60004=
07761,1996-03-07 09:00:00,9,1011.2,-0.5,53,0,25000,11.112,,,20,,,,,,,,,,,wg-a,,,,AAXX 07094 07761 12675 70206 10090 20000 30101 40112 58005 60006 8157/ 90900=
07761,1996-03-07 12:00:00,11,1011.2,-0,54,2,17000,18.52,,,180,,,,,,,,,,60,wg-a,,,,AAXX 07124 07761 02667 81810 10110 20020 30101 40112 55000 61000 76062 8157/ 91200 333 6100=
07761,1996-03-07 15:00:00,8,1011.3,0.1,76,4,12000,3.704,,,250,,,,1,,,,,,60,wg-a,,,,AAXX 07154 07761 12562 82502 10080 20040 30102 40113 53001 60017 76066 8152/ 91500=
07761,1996-03-07 18:00:00,7,1012.4,1.1,87,5,20000,3.704,,,70,4.7,12.3,,,,,,,,2,wg-a,,,,AAXX 07184 07761 02570 80702 10070 20050 30113 40124 53011 61000 70262 8152/ 91800 333 10123 20047 ////=
07761,1996-03-07 21:00:00,5,1013.6,1.2,93,4,20000,3.704,,,90,,,,,,,,,,,wg-a,,,,AAXX 07214 07761 12870 70902 10050 20040 30125 40136 53012 60006 8707/ 92100=
07761,1996-03-08 00:00:00,6,1014.7,1.1,87,4,15000,7.408,,,100,,,,,,,,,,,wg-a,,,,AAXX 08004 07761 12665 81004 10060 20040 30136 40147 51011 60006 8257/ 90000=
07761,1996-03-08 03:00:00,6,1014.2,-0.5,81,3,15000,3.704,,,80,,,,,,,,,,,wg-a,,,,AAXX 08034 07761 12665 80802 10060 20030 30131 40142 56005 60006 8157/ 90300=
07761,1996-03-08 06:00:00,6,1015.3,1.1,81,3,15000,3.704,,,60,5.3,7.3,,,,,1,,,,wg-a,,,,AAXX 08064 07761 02865 80602 10060 20030 30142 40153 53011 60006 8807/ 90600 333 10073 20053 60014=
07761,1996-03-08 09:00:00,10,1016.6,1.3,71,5,15000,7.408,,,180,,,,,,,,,,,wg-a,,,,AAXX 08094 07761 12665 71804 10100 20050 30155 40166 53013 60006 8387/ 90900=
07761,1996-03-08 12:00:00,12,1017.4,0.8,58,4,12000,7.408,,,240,,,,,,,,,,60,wg-a,,,,AAXX 08124 07761 02662 82404 10120 20040 30163 40174 51008 61000 76062 8157/ 91200 333 6100=
07761,1996-03-08 15:00:00,11,1017.7,0.3,76,7,10000,7.408,,,170,,,,0,,,,,,61,wg-a,,,,AAXX 08154 07761 12560 81704 10110 20070 30166 40177 53003 60007 76162 8282/ 91500=
07761,1996-03-08 18:00:00,10,1018.7,1,87,8,8000,3.704,,,90,6.2,12.9,,0,,,,,,60,wg-a,,,,AAXX 08184 07761 12558 80902 10100 20080 30176 40187 53010 60007 76062 8487/ 91800 333 10129 20062=
07761,1996-03-08 21:00:00,8,1019.2,0.5,93,7,9000,7.408,,,60,,,,1,,,,,,21,wg-a,,,,AAXX 08214 07761 12559 80604 10080 20070 30181 40192 51005 60017 72162 8457/ 92100=
07761,1996-03-09 00:00:00,8,1019.3,0.1,87,6,14000,7.408,,,50,,,,0,,,,,,21,wg-a,,,,AAXX 09004 07761 02564 80504 10080 20060 30182 40193 50001 60016 72162 8457/ 90000 333 60007=
07761,1996-03-09 03:00:00,8,1018.9,-0.4,87,6,15000,11.112,,,70,,,,,,,,,,,wg-a,,,,AAXX 09034 07761 12565 70706 10080 20060 30178 40189 58004 60006 875// 90300=
07761,1996-03-09 06:00:00,7,1019.1,0.2,93,6,22000,11.112,,,50,7.3,9.8,,0,,,2,,,21,wg-a,,,,AAXX 09064 07761 02672 80506 10070 20060 30180 40191 51002 60024 72165 8557/ 90600 333 10098 20073 60007=
07761,1996-03-09 12:00:00,12,1018.7,-1.1,76,8,18000,7.408,,,50,,,,,,,,,,2,wg-a,,,,AAXX 09124 07761 02668 /0504 10120 20080 30176 40187 58011 60006 70262 84870 91200 333 61000=
07761,1996-03-09 15:00:00,16,1017,-1.7,51,6,25000,14.816,,,140,,,,,,,,,,,wg-a,,,,AAXX 09154 07761 12775 61408 10160 20060 30159 40170 56017 60006 84870 91500=
07761,1996-03-09 18:00:00,13,1016.9,-0.1,58,5,20000,11.112,,,30,7.4,16.2,,,,,,,,,wg-a,,,,AAXX 09184 07761 32670 /0306 10130 20050 30158 40169 55001 85870 91800 333 10162 20074=
07761,1996-03-09 21:00:00,11,1017,0.1,71,6,20000,11.112,,,70,,,,,,,,,,60,wg-a,,,,AAXX 09214 07761 02770 70706 10110 20060 30159 40170 53001 61000 76062 875// 92100 333 ////=
07761,1996-03-10 00:00:00,9,1016,-1,87,7,18000,3.704,,,60,,,,0,,,,,,60,wg-a,,,,AAXX 10004 07761 02568 70602 10090 20070 30149 40160 57010 60006 76062 875// 90000 333 60007=
07761,1996-03-10 03:00:00,9,1014.1,-1.9,87,7,18000,3.704,,,40,,,,,,,,,,2,wg-a,,,,AAXX 10034 07761 02668 70402 10090 20070 30130 40141 58019 61000 70262 875// 90300 333 ////=
07761,1996-03-10 06:00:00,8,1013.2,-0.9,81,5,500,7.408,,,70,7.6,12.8,,,,,,,,2,wg-a,,,,AAXX 10064 07761 12800 70704 10080 20050 30121 40132 56009 60004 70262 8707/ 90600 333 10128 20076=
07761,1996-03-10 09:00:00,13,1012.7,-0.5,62,6,500,3.704,,,180,,,,,,,,,,,wg-a,,,,AAXX 10094 07761 12800 71802 10130 20060 30116 40127 57005 60006 86072 90900=
07761,1996-03-10 12:00:00,14,1011.7,-1,67,8,500,18.52,,,220,,,,,,,,,,,wg-a,,,,AAXX 10124 07761 12500 72210 10140 20080 30106 40117 58010 60006 8387/ 91200=
07761,1996-03-10 15:00:00,13,1011,-0.7,58,5,20000,7.408,,,240,,,,,,,,,,,wg-a,,,,AAXX 10154 07761 12670 82404 10130 20050 30099 40110 56007 60006 8487/ 91500=
07761,1996-03-10 18:00:00,12,1011.4,0.4,71,7,20000,3.704,,,150,7.8,14,,,,,,,,,wg-a,,,,AAXX 10184 07761 12670 /1502 10120 20070 30103 40114 53004 60006 8357/ 91800 333 10140 20078=
07761,1996-03-10 21:00:00,10,1011.9,0.5,76,6,15000,7.408,,,60,,,,,,,,,,60,wg-a,,,,AAXX 10214 07761 02665 70604 10100 20060 30108 40119 51005 61000 76062 875// 92100 333 ////=
07761,1996-03-11 00:00:00,8,1011.3,-0.6,87,6,10000,7.408,,,50,,,,4,,,,,,61,wg-a,,,,AAXX 11004 07761 02560 80504 10080 20060 30102 40113 58006 60046 76162 885// 90000 333 60047=
07761,1996-03-11 03:00:00,7,1010.3,-1,93,6,10000,7.408,,,30,,,,2,,,,,,61,wg-a,,,,AAXX 11034 07761 12560 80304 10070 20060 30092 40103 56010 60027 76166 885// 90300=
07761,1996-03-11 06:00:00,7,1010.1,-0.2,93,6,10000,7.408,,,70,7.1,11.5,,2,,,7,,,61,wg-a,,,,AAXX 11064 07761 02560 80704 10070 20060 30090 40101 55002 60074 76166 8552/ 90600 333 10115 20071 60027=
07761,1996-03-11 09:00:00,9,1010.6,0.5,87,7,8000,7.408,,,30,,,,1,,,,,,61,wg-a,,,,AAXX 11094 07761 12258 80304 10090 20070 30095 40106 53005 60017 76166 8582/ 90900=
07761,1996-03-11 12:00:00,10,1010.9,0.3,76,6,8000,7.408,,,260,,,,0,,,,,,61,wg-a,,,,AAXX 11124 07761 02458 82604 10100 20060 30098 40109 51003 60016 76166 8682/ 91200 333 60007=
07761,1996-03-11 21:00:00,8,1010.8,0.4,93,7,10000,7.408,,,50,,,,,,,,,,,wg-a,,,,AAXX 11214 07761 12460 80504 10080 20070 30097 40108 51004 60006 878// 92100=
07761,1996-03-12 00:00:00,7,1009.5,-1.3,93,6,8000,3.704,,,90,,,,,,,,,,,wg-a,,,,AAXX 12004 07761 12558 70902 10070 20060 30084 40095 58013 60006 875// 90000=
07761,1996-03-12 03:00:00,5,1007.9,-1.6,93,4,7000,7.408,,,50,,,,,,,,,,,wg-a,,,,AAXX 12034 07761 12557 20504 10050 20040 30068 40079 58016 60006 81502 90300=
07761,1996-03-12 06:00:00,4,1006.7,-1.2,100,4,10000,14.816,,,60,3.3,8.5,,,,,1,,,,wg-a,,,,AAXX 12064 07761 02560 20608 10040 20040 30056 40067 56012 60006 81802 90600 333 10085 20033 60014=
07761,1996-03-12 09:00:00,9,1005.7,-1,81,6,10000,3.704,,,60,,,,,,,,,,,wg-a,,,,AAXX 12094 07761 12560 60602 10090 20060 30046 40057 56010 60006 86801 90900=
07761,1996-03-12 12:00:00,13,1004.2,-1.5,58,5,15000,31.484,,,240,,,,,,,,,,,wg-a,,,,AAXX 12124 07761 12665 52417 10130 20050 30031 40042 56015 60006 85200 91200=
07761,1996-03-12 15:00:00,13,1003.9,-0.3,58,5,12000,18.52,,,270,,,,,,,,,,,wg-a,,,,AAXX 12154 07761 12662 32710 10130 20050 30028 40039 56003 60006 83200 91500=
07761,1996-03-12 18:00:00,10,1003.7,-0.2,66,4,10000,3.704,,,100,4.2,13.8,,,,,,,,,wg-a,,,,AAXX 12184 07761 12660 51002 10100 20040 30026 40037 58002 60006 85800 91800 333 10138 20042=
07761,1996-03-12 21:00:00,7,1004.7,1,81,4,10000,14.816,,,50,,,,,,,,,,,wg-a,,,,AAXX 12214 07761 12560 70508 10070 20040 30036 40047 53010 60006 878// 92100=
07761,1996-03-13 00:00:00,7,1005.4,0.7,81,4,10000,14.816,,,60,,,,,,,,,,,wg-a,,,,AAXX 13004 07761 12560 40608 10070 20040 30043 40054 51007 60006 84800 90000=
07761,1996-03-13 03:00:00,7,1005.4,0,81,4,10000,14.816,,,60,,,,,,,,,,,wg-a,,,,AAXX 13034 07761 12560 50608 10070 20040 30043 40054 50000 60006 83130 90300=
07761,1996-03-13 06:00:00,8,1005.3,-0.1,76,4,9000,14.816,,,50,6.3,10.3,,,,,,,,,wg-a,,,,AAXX 13064 07761 02559 80508 10080 20040 30042 40053 58001 60006 81572 90600 333 10103 20063 60004=
07761,1996-03-13 09:00:00,14,1005.4,0.1,63,7,10000,3.704,,,250,,,,,,,,,,,wg-a,,,,AAXX 13094 07761 12560 22502 10140 20070 30043 40054 51001 60006 81131 90900=
07761,1996-03-13 12:00:00,15,1005.2,-0.2,59,7,15000,18.52,,,240,,,,,,,,,,,wg-a,,,,AAXX 13124 07761 12665 /2410 10150 20070 30041 40052 57002 60006 81100 91200=
07761,1996-03-13 15:00:00,14,1004.5,-0.7,63,7,15000,14.816,,,240,,,,,,,,,,,wg-a,,,,AAXX 13154 07761 12565 62408 10140 20070 30034 40045 56007 60006 82502 91500=
07761,1996-03-13 18:00:00,13,1005.2,0.7,67,7,12000,11.112,,,40,7.2,15,,,,,,,,,wg-a,,,,AAXX 13184 07761 12562 70406 10130 20070 30041 40052 50007 60006 8155/ 91800 333 10150 20072=
07761,1996-03-13 21:00:00,11,1005.7,0.5,76,7,12000,3.704,,,60,,,,,,,,,,,wg-a,,,,AAXX 13214 07761 12662 70602 10110 20070 30046 40057 53005 60006 8257/ 92100=
07761,1996-03-14 00:00:00,9,1005.1,-0.6,81,6,12000,3.704,,,180,,,,,,,,,,,wg-a,,,,AAXX 14004 07761 12/62 /1802 10090 20060 30040 40051 56006 60006 82072 90000=
07761,1996-03-14 03:00:00,10,1004.5,-0.6,76,6,12000,3.704,,,10,,,,,,,,,,,wg-a,,,,AAXX 14034 07761 12662 80102 10100 20060 30034 40045 58006 60006 82572 90300=
07761,1996-03-14 06:00:00,9,1004.1,-0.4,76,5,15000,11.112,,,70,9,12.6,,,,,,,,,wg-a,,,,AAXX 14064 07761 02665 70706 10090 20050 30030 40041 58004 60006 81132 90600 333 10126 20090 60004=
07761,1996-03-14 09:00:00,14,1004.6,0.5,63,7,15000,3.704,,,40,,,,,,,,,,,wg-a,,,,AAXX 14094 07761 12665 70402 10140 20070 30035 40046 53005 60006 81542 90900=
07761,1996-03-14 12:00:00,17,1003.8,-0.8,48,6,15000,14.816,,,90,,,,,,,,,,,wg-a,,,,AAXX 14124 07761 12665 80908 10170 20060 30027 40038 58008 60006 85872 91200=
07761,1996-03-14 15:00:00,17,1003.3,-0.5,48,6,15000,3.704,,,70,,,,,,,,,,60,wg-a,,,,AAXX 14154 07761 02765 80702 10170 20060 30022 40033 55005 61000 76062 8652/ 91500 333 ////=
07761,1996-03-14 18:00:00,13,1003.8,0.5,82,10,10000,7.408,,,40,9.2,19.4,,0,,,,,,60,wg-a,,,,AAXX 14184 07761 12560 80404 10130 20100 30027 40038 53005 60007 76062 8682/ 91800 333 10194 20092=
07761,1996-03-14 21:00:00,12,1004.2,0.4,88,10,15000,11.112,,,60,,,,0,,,,,,21,wg-a,,,,AAXX 14214 07761 12765 80606 10120 20100 30031 40042 51004 60007 72162 8457/ 92100=
07761,1996-03-15 00:00:00,11,1003.1,-1.1,94,10,15000,3.704,,,60,,,,1,,,,,,21,wg-a,,,,AAXX 15004 07761 02765 80602 10110 20100 30020 40031 58011 60016 72162 8457/ 90000 333 60017=
07761,1996-03-15 03:00:00,10,1001.1,-2,93,9,15000,7.408,,,70,,,,,,,,,,,wg-a,,,,AAXX 15034 07761 12765 80704 10100 20090 30000 40011 58020 60006 8457/ 90300=
07761,1996-03-15 06:00:00,10,999.4,-1.7,93,9,20000,3.704,,,70,9.7,12.8,,,,,1,,,,wg-a,,,,AAXX 15064 07761 12670 80702 10100 20090 39983 49994 56017 60014 8357/ 90600 333 10128 20097=
07761,1996-03-15 09:00:00,12,998.6,-0.8,82,9,20000,3.704,,,280,,,,,,,,,,,wg-a,,,,AAXX 15094 07761 12670 72802 10120 20090 39975 49986 56008 60006 8457/ 90900=
07761,1996-03-15 12:00:00,15,998.2,-0.4,72,10,15000,7.408,,,20,,,,1,,,,,,61,wg-a,,,,AAXX 15124 07761 02565 80204 10150 20100 39971 49982 58004 60016 76162 8357/ 91200 333 60017=
07761,1996-03-15 15:00:00,14,997.4,-0.8,63,7,18000,7.408,,,30,,,,0,,,,,,21,wg-a,,,,AAXX 15154 07761 12568 /0304 10140 20070 39963 49974 56008 60007 72162 8387/ 91500=
07761,1996-03-15 18:00:00,12,999.3,1.9,82,9,10000,7.408,,,320,9.8,15.2,,1,,,,,,61,wg-a,,,,AAXX 15184 07761 12560 83204 10120 20090 39982 49993 53019 60017 76186 8587/ 91800 333 10152 20098=
07761,1996-03-15 21:00:00,10,1000.7,1.4,93,9,9000,7.408,,,50,,,,7,,,,,,61,wg-a,,,,AAXX 15214 07761 12359 80504 10100 20090 39996 40007 51014 60077 76166 8382/ 92100=
07761,1996-03-16 00:00:00,10,1000.4,-0.3,93,9,9000,7.408,,,60,,,,6,,,,,,60,wg-a,,,,AAXX 16004 07761 02459 80604 10100 20090 39993 40004 58003 60136 76066 8682/ 90000 333 60067=
07761,1996-03-16 03:00:00,10,999.5,-0.9,93,9,8000,7.408,,,50,,,,1,,,,,,61,wg-a,,,,AAXX 16034 07761 12358 80504 10100 20090 39984 49995 58009 60017 76166 878// 90300=
07761,1996-03-16 06:00:00,9,999.5,-0,100,9,12000,3.704,,,50,9.3,12,,0,,,16,,,2,wg-a,,,,AAXX 16064 07761 02362 80502 10090 20090 39984 49995 55000 60164 70262 885// 90600 333 10120 20093 60007=
07761,1996-03-16 09:00:00,12,1000.1,0.6,82,9,15000,3.704,,,210,,,,,,,,,,21,wg-a,,,,AAXX 16094 07761 02465 /2102 10120 20090 39990 40001 53006 61000 72162 83832 90900 333 ////=
07761,1996-03-16 12:00:00,12,1000.2,0.1,88,10,15000,11.112,,,230,,,,,,,,,,21,wg-a,,,,AAXX 16124 07761 02465 72306 10120 20100 39991 40002 50001 61000 72162 8587/ 91200 333 6100=
07761,1996-03-16 15:00:00,12,1000.5,0.3,82,9,12000,3.704,,,270,,,,1,,,,,,60,wg-a,,,,AAXX 16154 07761 12462 82702 10120 20090 39994 40005 53003 60017 76062 8687/ 91500=
07761,1996-03-16 18:00:00,11,1002.1,1.6,87,9,10000,3.704,,,320,9.4,12.5,,5,,,,,,61,wg-a,,,,AAXX 16184 07761 12360 83202 10110 20090 30010 40021 51016 60057 76162 8387/ 91800 333 10125 20094=
07761,1996-03-16 21:00:00,9,1004,1.9,93,8,10000,3.704,,,70,,,,1,,,,,,40,wg-a,,,,AAXX 16214 07761 12460 40702 10090 20080 30029 40040 51019 60017 74061 82870 92100=
07761,1996-03-17 00:00:00,8,1005.1,1.1,93,7,10000,11.112,,,40,,,,,,,,,,3,wg-a,,,,AAXX 17004 07761 12560 50406 10080 20070 30040 40051 51011 60016 70361 84570 90000=
07761,1996-03-17 03:00:00,8,1005.1,0,93,7,12000,11.112,,,50,,,,,,,,,,,wg-a,,,,AAXX 17034 07761 12462 50506 10080 20070 30040 40051 50000 60006 83570 90300=
07761,1996-03-17 06:00:00,8,1006.5,1.4,93,7,10000,3.704,,,30,7.6,10.6,,3,,,9,,,61,wg-a,,,,AAXX 17064 07761 02560 80302 10080 20070 30054 40065 53014 60094 76162 8487/ 90600 333 10106 20076 60037=
07761,1996-03-17 09:00:00,11,1007.7,1.2,82,8,20000,7.408,,,280,,,,1,,,,,,1,wg-a,,,,AAXX 17094 07761 12470 /2804 10110 20080 30066 40077 51012 60017 70162 84542 90900=
07761,1996-03-17 12:00:00,12,1007.9,0.2,82,9,25000,3.704,,,200,,,,0,,,,,,61,wg-a,,,,AAXX 17124 07761 02475 72002 10120 20090 30068 40079 51002 60016 76162 8387/ 91200 333 60007=
07761,1996-03-17 15:00:00,12,1008,0.1,82,9,20000,0,,,0,,,,1,,,,,,61,wg-a,,,,AAXX 17154 07761 12470 70000 10120 20090 30069 40080 50001 60017 76166 8387/ 91500=
07761,1996-03-17 18:00:00,11,1009.1,1.1,87,9,20000,3.704,,,50,8.3,12.2,,,,,,,,1,wg-a,,,,AAXX 17184 07761 02470 70502 10110 20090 30080 40091 53011 61000 70162 8357/ 91800 333 10122 20083 ////=
07761,1996-03-17 21:00:00,9,1010.2,1.1,93,8,15000,7.408,,,30,,,,,,,,,,,wg-a,,,,AAXX 17214 07761 12565 70304 10090 20080 30091 40102 53011 60006 81572 92100=
07761,1996-03-18 00:00:00,8,1010.8,0.6,93,7,15000,7.408,,,50,,,,,,,,,,25,wg-a,,,,AAXX 18004 07761 02565 50504 10080 20070 30097 40108 52006 61000 72562 8453/ 90000 333 6100=
07761,1996-03-18 03:00:00,7,1010.4,-0.4,93,6,15000,11.112,,,50,,,,,,,,,,,wg-a,,,,AAXX 18034 07761 12465 30506 10070 20060 30093 40104 58004 60006 81530 90300=
07761,1996-03-18 06:00:00,5,1010.9,0.5,93,4,15000,11.112,,,50,5.1,11.1,,,,,2,,,,wg-a,,,,AAXX 18064 07761 02765 20506 10050 20040 30098 40109 53005 60006 82500 90600 333 10111 20051 60024=
07761,1996-03-18 09:00:00,12,1011.8,0.9,82,9,25000,3.704,,,260,,,,,,,,,,,wg-a,,,,AAXX 18094 07761 12575 22602 10120 20090 30107 40118 53009 60006 81231 90900=
07761,1996-03-18 12:00:00,14,1011.8,0,77,10,25000,14.816,,,260,,,,,,,,,,,wg-a,,,,AAXX 18124 07761 12575 32608 10140 20100 30107 40118 50000 60006 82830 91200=
07761,1996-03-18 15:00:00,11,1012.2,0.4,87,9,10000,11.112,,,80,,,,4,,,,,,80,wg-a,,,,AAXX 18154 07761 12660 70806 10110 20090 30111 40122 53004 60047 78096 8693/ 91500=
07761,1996-03-18 18:00:00,12,1013.2,1,88,10,15000,3.704,,,90,5.1,14.9,,0,,,,,,1,wg-a,,,,AAXX 18184 07761 12565 70902 10120 20100 30121 40132 53010 60007 70196 878// 91800 333 10149 20051=
07761,1996-03-18 21:00:00,10,1014.4,1.2,87,8,15000,7.408,,,60,,,,,,,,,,,wg-a,,,,AAXX 18214 07761 12565 /0604 10100 20080 30133 40144 53012 60006 81500 92100=
07761,1996-03-19 00:00:00,8,1015,0.6,93,7,10000,11.112,,,40,,,,1,,,,,,3,wg-a,,,,AAXX 19004 07761 02560 50406 10080 20070 30139 40150 53006 60016 70386 85800 90000 333 60017=
07761,1996-03-19 03:00:00,7,1014.1,-0.9,93,6,15000,11.112,,,50,,,,,,,,,,,wg-a,,,,AAXX 19034 07761 12565 /0506 10070 20060 30130 40141 57009 60006 85800 90300=
07761,1996-03-19 06:00:00,7,1014.1,-0,93,6,15000,7.408,,,60,7,11.5,,,,,5,,,,wg-a,,,,AAXX 19064 07761 12465 70604 10070 20060 30130 40141 55000 60054 878// 90600 333 10115 20070=
07761,1996-03-19 09:00:00,14,1014.3,0.2,72,9,20000,3.704,,,210,,,,,,,,,,17,wg-a,,,,AAXX 19094 07761 12570 32102 10140 20090 30132 40143 53002 60006 71791 83900 90900=
07761,1996-03-19 12:00:00,13,1013.6,-0.7,77,9,18000,18.52,,,220,,,,1,,,,,,3,wg-a,,,,AAXX 19124 07761 02568 42210 10130 20090 30125 40136 58007 60016 70396 83930 91200 333 60017=
07761,1996-03-19 18:00:00,12,1013.1,0.3,71,7,20000,11.112,,,250,7.1,14.6,,,,,,,,,wg-a,,,,AAXX 19184 07761 32570 52506 10120 20070 30120 40131 53003 83402 91800 333 10146 20071=
07761,1996-03-19 21:00:00,9,1013.5,0.4,87,7,15000,11.112,,,50,,,,,,,,,,,wg-a,,,,AAXX 19214 07761 12665 20506 10090 20070 30124 40135 51004 60006 82500 92100=
07761,1996-03-20 00:00:00,6,1013.9,0.4,93,5,15000,7.408,,,40,,,,,,,,,,,wg-a,,,,AAXX 20004 07761 12765 /0404 10060 20050 30128 40139 53004 60006 81500 90000=
07761,1996-03-20 03:00:00,5,1013.2,-0.7,93,4,15000,14.816,,,50,,,,,,,,,,,wg-a,,,,AAXX 20034 07761 12/65 00508 10050 20040 30121 40132 58007 60006 80000 90300=
07761,1996-03-20 06:00:00,4,1013.3,0.1,87,2,15000,14.816,,,40,3.4,11.9,,,,,5,,,,wg-a,,,,AAXX 20064 07761 02665 30408 10040 20020 30122 40133 53001 60006 81541 90600 333 10119 20034 60054=
07761,1996-03-20 09:00:00,14,1014,0.7,63,7,25000,3.704,,,210,,,,,,,,,,,wg-a,,,,AAXX 20094 07761 12575 32102 10140 20070 30129 40140 53007 60006 81232 90900=
07761,1996-03-20 12:00:00,15,1014.1,0.1,67,9,500,18.52,,,230,,,,,,,,,,,wg-a,,,,AAXX 20124 07761 12600 42310 10150 20090 30130 40141 51001 60006 81232 91200=
07761,1996-03-20 15:00:00,14,1013.9,-0.2,72,9,500,11.112,,,220,,,,,,,,,,,wg-a,,,,AAXX 20154 07761 12500 72206 10140 20090 30128 40139 56002 60006 8123/ 91500=
07761,1996-03-20 18:00:00,12,1014.1,0.2,82,9,20000,3.704,,,200,4,15.2,,,,,,,,,wg-a,,,,AAXX 20184 07761 12570 /2002 10120 20090 30130 40141 51002 60006 81832 91800 333 10152 20040=
07761,1996-03-20 21:00:00,9,1015.4,1.3,87,7,20000,7.408,,,50,,,,,,,,,,,wg-a,,,,AAXX 20214 07761 12570 30504 10090 20070 30143 40154 51013 60006 81530 92100=
07761,1996-03-21 00:00:00,9,1015.7,0.3,87,7,20000,11.112,,,40,,,,,,,,,,,wg-a,,,,AAXX 21004 07761 12570 40406 10090 20070 30146 40157 50003 60006 82531 90000=
07761,1996-03-21 03:00:00,6,1014.9,-0.8,87,4,20000,11.112,,,70,,,,,,,,,,,wg-a,,,,AAXX 21034 07761 12570 30706 10060 20040 30138 40149 55008 60006 81530 90300=
07761,1996-03-21 06:00:00,6,1016,1.1,81,3,25000,11.112,,,40,5.2,11.9,,,,,,,,,wg-a,,,,AAXX 21064 07761 02675 20406 10060 20030 30149 40160 53011 60006 82501 90600 333 10119 20052 60004=
07761,1996-03-21 09:00:00,14,1016.6,0.6,63,7,35000,3.704,,,270,,,,,,,,,,,wg-a,,,,AAXX 21094 07761 12581 22702 10140 20070 30155 40166 51006 60006 81131 90900=
07761,1996-03-21 12:00:00,15,1016.3,-0.3,72,10,35000,14.816,,,240,,,,,,,,,,,wg-a,,,,AAXX 21124 07761 12581 /2408 10150 20100 30152 40163 58003 60006 81101 91200=
07761,1996-03-21 15:00:00,15,1016,-0.3,77,11,35000,18.52,,,220,,,,,,,,,,,wg-a,,,,AAXX 21154 07761 12681 52210 10150 20110 30149 40160 55003 60006 81201 91500=
07761,1996-03-21 18:00:00,12,1016.6,0.6,88,10,500,7.408,,,180,5.6,15.5,,,,,,,,,wg-a,,,,AAXX 21184 07761 12/00 /1804 10120 20100 30155 40166 53006 60006 80001 91800 333 10155 20056=
07761,1996-03-21 21:00:00,8,1017.2,0.6,93,7,17000,7.408,,,50,,,,,,,,,,,wg-a,,,,AAXX 21214 07761 12/67 20504 10080 20070 30161 40172 51006 60006 80002 92100=
07761,1996-03-22 00:00:00,7,1017.9,0.7,87,5,17000,14.816,,,40,,,,,,,,,,,wg-a,,,,AAXX 22004 07761 12/67 30408 10070 20050 30168 40179 53007 60006 80002 90000=
07761,1996-03-22 03:00:00,6,1017.5,-0.4,87,4,18000,11.112,,,50,,,,,,,,,,,wg-a,,,,AAXX 22034 07761 12/68 30506 10060 20040 30164 40175 56004 60006 80002 90300=
07761,1996-03-22 06:00:00,5,1018.1,0.6,93,4,20000,11.112,,,60,5.1,12,,,,,,,,,wg-a,,,,AAXX 22064 07761 02/70 50606 10050 20040 30170 40181 53006 60006 81042 90600 333 10120 20051 60004=
07761,1996-03-22 09:00:00,14,1018.7,0.6,77,10,500,7.408,,,220,,,,0,,,,,,,wg-a,,,,AAXX 22094 07761 12500 /2204 10140 20100 30176 40187 51006 60007 81141 90900=
07761,1996-03-22 12:00:00,16,1018.5,-0.2,72,11,500,18.52,,,220,,,,,,,,,,,wg-a,,,,AAXX 22124 07761 12600 /2210 10160 20110 30174 40185 58002 60006 81106 91200=
07761,1996-03-22 15:00:00,15,1018.1,-0.4,77,11,20000,18.52,,,220,,,,,,,,,,,wg-a,,,,AAXX 22154 07761 12570 /2210 10150 20110 30170 40181 56004 60006 81106 91500=
07761,1996-03-22 18:00:00,13,1019,0.9,88,11,14000,7.408,,,210,5.4,15.7,,,,,,,,,wg-a,,,,AAXX 22184 07761 32464 42104 10130 20110 30179 40190 51009 81502 91800 333 10157 20054=
07761,1996-03-22 21:00:00,10,1019.6,0.6,87,8,15000,11.112,,,50,,,,,,,,,,,wg-a,,,,AAXX 22214 07761 12565 20506 10100 20080 30185 40196 53006 60006 81502 92100=
07761,1996-03-23 00:00:00,9,1020,0.4,93,8,15000,7.408,,,40,,,,,,,,,,,wg-a,,,,AAXX 23004 07761 12465 80404 10090 20080 30189 40200 51004 60006 875// 90000=
07761,1996-03-23 03:00:00,10,1018.9,-1.1,87,8,15000,7.408,,,60,,,,,,,,,,,wg-a,,,,AAXX 23034 07761 12465 70604 10100 20080 30178 40189 56011 60006 875// 90300=
07761,1996-03-23 06:00:00,10,1019.3,0.4,87,8,10000,11.112,,,50,7.9,13,,,,,,,,,wg-a,,,,AAXX 23064 07761 02460 80506 10100 20080 30182 40193 53004 60006 885// 90600 333 10130 20079 60004=
07761,1996-03-23 09:00:00,12,1020.5,1.2,76,8,10000,7.408,,,30,,,,,,,,,,,wg-a,,,,AAXX 23094 07761 12460 80304 10120 20080 30194 40205 51012 60006 885// 90900=
07761,1996-03-23 12:00:00,15,1020,-0.5,67,9,10000,7.408,,,240,,,,,,,,,,,wg-a,,,,AAXX 23124 07761 12560 /2404 10150 20090 30189 40200 58005 60006 84800 91200=
07761,1996-03-23 15:00:00,15,1019.2,-0.8,72,10,15000,14.816,,,240,,,,,,,,,,,wg-a,,,,AAXX 23154 07761 12665 /2408 10150 20100 30181 40192 56008 60006 81100 91500=
07761,1996-03-23 18:00:00,13,1020,0.8,77,9,12000,3.704,,,80,9.8,15.6,,,,,,,,,wg-a,,,,AAXX 23184 07761 12562 20802 10130 20090 30189 40200 51008 60006 81501 91800 333 10156 20098=
07761,1996-03-23 21:00:00,9,1021.7,1.7,87,7,10000,11.112,,,60,,,,,,,,,,,wg-a,,,,AAXX 23214 07761 12560 /0606 10090 20070 30206 40217 53017 60006 81500 92100=
07761,1996-03-24 00:00:00,8,1021.1,-0.6,93,7,10000,11.112,,,40,,,,,,,,,,,wg-a,,,,AAXX 24004 07761 12560 /0406 10080 20070 30200 40211 58006 60006 81500 90000=
07761,1996-03-24 03:00:00,6,1021.3,0.2,93,5,10000,11.112,,,50,,,,,,,,,,,wg-a,,,,AAXX 24034 07761 12560 /0506 10060 20050 30202 40213 53002 60006 81500 90300=
07761,1996-03-24 06:00:00,6,1022.3,1,93,5,9000,11.112,,,50,5.6,12.6,,,,,,,,,wg-a,,,,AAXX 24064 07761 02559 /0506 10060 20050 30212 40223 53010 60006 81530 90600 333 10126 20056 60004=
07761,1996-03-24 09:00:00,15,1022.3,-0,72,10,12000,3.704,,,220,,,,,,,,,,,wg-a,,,,AAXX 24094 07761 12/62 32202 10150 20100 30212 40223 54000 60006 80002 90900=
07761,1996-03-24 12:00:00,15,1022,-0.3,82,12,11000,14.816,,,230,,,,,,,,,,,wg-a,,,,AAXX 24124 07761 12/61 72308 10150 20120 30209 40220 58003 60006 80002 91200=
07761,1996-03-24 15:00:00,17,1020.8,-1.2,72,12,14000,11.112,,,200,,,,,,,,,,,wg-a,,,,AAXX 24154 07761 12664 62006 10170 20120 30197 40208 55012 60006 81102 91500=
07761,1996-03-24 21:00:00,11,1020.1,-0.7,87,9,12000,7.408,,,50,,,,,,,,,,,wg-a,,,,AAXX 24214 07761 12/62 30504 10110 20090 30190 40201 58007 60006 80001 92100=
07761,1996-03-25 00:00:00,9,1018.8,-1.3,87,7,12000,14.816,,,60,,,,,,,,,,,wg-a,,,,AAXX 25004 07761 12/62 10608 10090 20070 30177 40188 58013 60006 80001 90000=
07761,1996-03-25 03:00:00,9,1019,0.2,81,6,12000,7.408,,,80,,,,,,,,,,,wg-a,,,,AAXX 25034 07761 12/62 50804 10090 20060 30179 40190 53002 60006 83032 90300=
07761,1996-03-25 06:00:00,12,1019.2,0.2,67,6,15000,14.816,,,60,8.1,13.6,,,,,,,,,wg-a,,,,AAXX 25064 07761 02865 80608 10120 20060 30181 40192 50002 60006 85076 90600 333 10136 20081 60004=
07761,1996-03-25 09:00:00,17,1017.1,-2.1,52,7,15000,3.704,,,150,,,,,,,,,,,wg-a,,,,AAXX 25094 07761 12865 71502 10170 20070 30160 40171 56021 60006 84072 90900=
07761,1996-03-25 15:00:00,18,1016.5,-1.2,64,11,500,7.408,,,220,,,,,,,,,,,wg-a,,,,AAXX 25154 07761 12700 72204 10180 20110 30154 40165 57012 60006 81182 91500=
07761,1996-03-25 18:00:00,15,1015.8,-0.7,72,10,25000,18.52,,,230,10.8,19.3,,,,,,,,,wg-a,,,,AAXX 25184 07761 12875 72310 10150 20100 30147 40158 55007 60006 81082 91800 333 10193 20108=
07761,1996-03-25 21:00:00,12,1016.2,0.4,82,9,18000,7.408,,,60,,,,,,,,,,,wg-a,,,,AAXX 25214 07761 12/68 /0604 10120 20090 30151 40162 50004 60006 81032 92100=
07761,1996-03-26 00:00:00,10,1015.2,-1,82,7,15000,14.816,,,60,,,,,,,,,,,wg-a,,,,AAXX 26004 07761 12/65 30608 10100 20070 30141 40152 56010 60006 80002 90000=
07761,1996-03-26 03:00:00,9,1013.6,-1.6,87,7,17000,11.112,,,60,,,,,,,,,,,wg-a,,,,AAXX 26034 07761 12/67 30606 10090 20070 30125 40136 56016 60006 80001 90300=
07761,1996-03-26 06:00:00,9,1014.1,0.5,87,7,16000,14.816,,,50,7.6,15.4,,,,,,,,,wg-a,,,,AAXX 26064 07761 02466 /0508 10090 20070 30130 40141 51005 60006 83532 90600 333 10154 20076 60004=
07761,1996-03-26 09:00:00,16,1012.9,-1.2,72,11,15000,0,,,0,,,,,,,,,,21,wg-a,,,,AAXX 26094 07761 02565 /0000 10160 20110 30118 40129 58012 61000 72162 81872 90900 333 ////=
07761,1996-03-26 12:00:00,17,1010.6,-2.3,77,13,15000,22.224,,,250,,,,,,,,,,3,wg-a,,,,AAXX 26124 07761 02/65 72512 10170 20130 30095 40106 57023 61000 70362 84072 91200 333 ////=
07761,1996-03-26 15:00:00,17,1009.7,-0.9,72,12,15000,11.112,,,300,,,,,,,,,,,wg-a,,,,AAXX 26154 07761 12565 73006 10170 20120 30086 40097 58009 60006 8157/ 91500=
07761,1996-03-26 18:00:00,14,1008.8,-0.9,88,12,7000,11.112,,,10,9.1,17.3,,2,,,,,,21,wg-a,,,,AAXX 26184 07761 12557 80106 10140 20120 30077 40088 58009 60027 72162 8387/ 91800 333 10173 20091=
07761,1996-03-26 21:00:00,14,1009.4,0.6,94,13,8000,11.112,,,230,,,,4,,,,,,61,wg-a,,,,AAXX 26214 07761 12258 82306 10140 20130 30083 40094 51006 60047 76162 878// 92100=
07761,1996-03-27 00:00:00,13,1007.7,-1.7,94,12,7000,11.112,,,240,,,,5,,,,,,61,wg-a,,,,AAXX 27004 07761 02157 82406 10130 20120 30066 40077 58017 60096 76162 878// 90000 333 60057=
07761,1996-03-27 03:00:00,13,1005.1,-2.6,94,12,7000,3.704,,,220,,,,1,,,,,,60,wg-a,,,,AAXX 27034 07761 12157 82202 10130 20120 30040 40051 56026 60017 76066 878// 90300=
07761,1996-03-27 06:00:00,13,1004.7,-0.4,94,12,7000,3.704,,,210,12.8,14,,1,,,14,,,21,wg-a,,,,AAXX 27064 07761 02157 82102 10130 20120 30036 40047 55004 60144 72165 887// 90600 333 10140 20128 60017=
07761,1996-03-27 09:00:00,14,1005.3,0.6,82,11,9000,14.816,,,320,,,,,,,,,,,wg-a,,,,AAXX 27094 07761 12459 73208 10140 20110 30042 40053 53006 60006 878// 90900=
07761,1996-03-27 12:00:00,14,1005.3,0,88,12,9000,18.52,,,250,,,,,,,,,,,wg-a,,,,AAXX 27124 07761 12459 82510 10140 20120 30042 40053 50000 60006 888// 91200=
07761,1996-03-27 15:00:00,15,1004.6,-0.7,82,12,9000,22.224,,,220,,,,,,,,,,,wg-a,,,,AAXX 27154 07761 12559 72212 10150 20120 30035 40046 56007 60006 878// 91500=
07761,1996-03-27 18:00:00,14,1004.9,0.3,88,12,9000,11.112,,,210,12.8,16.5,,,,,,,,,wg-a,,,,AAXX 27184 07761 12459 72106 10140 20120 30038 40049 53003 60006 878// 91800 333 10165 20128=
07761,1996-03-27 21:00:00,14,1005.4,0.5,82,11,9000,14.816,,,170,,,,,,,,,,,wg-a,,,,AAXX 27214 07761 12559 71708 10140 20110 30043 40054 51005 60006 878// 92100=
07761,1996-03-28 00:00:00,12,1005.9,0.5,88,10,9000,7.408,,,60,,,,,,,,,,,wg-a,,,,AAXX 28004 07761 12559 70604 10120 20100 30048 40059 51005 60006 8187/ 90000=
07761,1996-03-28 03:00:00,12,1005.2,-0.7,88,10,9000,3.704,,,60,,,,,,,,,,,wg-a,,,,AAXX 28034 07761 12459 80602 10120 20100 30041 40052 58007 60006 888// 90300=
07761,1996-03-28 06:00:00,12,1005.3,0.1,82,9,10000,11.112,,,170,11.8,14,,,,,,,,,wg-a,,,,AAXX 28064 07761 02560 71706 10120 20090 30042 40053 53001 60006 875// 90600 333 10140 20118 60004=
07761,1996-03-28 09:00:00,13,1006.3,1,72,8,10000,18.52,,,220,,,,,,,,,,,wg-a,,,,AAXX 28094 07761 12560 72210 10130 20080 30052 40063 53010 60006 875// 90900=
07761,1996-03-28 12:00:00,12,1006.9,0.6,76,8,10000,18.52,,,220,,,,,,,,,,,wg-a,,,,AAXX 28124 07761 12460 82210 10120 20080 30058 40069 52006 60006 885// 91200=
07761,1996-03-28 15:00:00,12,1007.4,0.5,76,8,10000,11.112,,,180,,,,,,,,,,,wg-a,,,,AAXX 28154 07761 12460 81806 10120 20080 30063 40074 53005 60006 885// 91500=
07761,1996-03-28 18:00:00,11,1009.5,2.1,71,6,10000,3.704,,,220,11.3,13.5,,,,,,,,,wg-a,,,,AAXX 28184 07761 12460 82202 10110 20060 30084 40095 53021 60006 885// 91800 333 10135 20113=
07761,1996-03-29 00:00:00,10,1010.7,-0.4,87,8,12000,3.704,,,70,,,,,,,,,,,wg-a,,,,AAXX 29004 07761 12462 70702 10100 20080 30096 40107 58004 60006 875// 90000=
07761,1996-03-29 03:00:00,8,1009.5,-1.2,87,6,10000,11.112,,,50,,,,,,,,,,,wg-a,,,,AAXX 29034 07761 12660 30506 10080 20060 30084 40095 58012 60006 83500 90300=
07761,1996-03-29 06:00:00,6,1010,0.5,87,4,12000,11.112,,,40,5.7,11.6,,,,,,,,,wg-a,,,,AAXX 29064 07761 02662 /0406 10060 20040 30089 40100 53005 60006 81500 90600 333 10116 20057 60004=
07761,1996-03-29 09:00:00,14,1010.7,0.7,55,5,20000,3.704,,,220,,,,,,,,,,,wg-a,,,,AAXX 29094 07761 12670 /2202 10140 20050 30096 40107 52007 60006 81100 90900=
07761,1996-03-29 12:00:00,15,1010.7,-0,51,5,25000,22.224,,,240,,,,,,,,,,,wg-a,,,,AAXX 29124 07761 12675 /2412 10150 20050 30096 40107 54000 60006 81100 91200=
07761,1996-03-29 15:00:00,14,1010.3,-0.4,51,4,20000,25.928,,,240,,,,,,,,,,,wg-a,,,,AAXX 29154 07761 12670 /2414 10140 20040 30092 40103 57004 60006 81100 91500=
07761,1996-03-29 18:00:00,12,1010.9,0.6,58,4,15000,14.816,,,280,5.7,15.5,,,,,,,,,wg-a,,,,AAXX 29184 07761 12665 /2808 10120 20040 30098 40109 53006 60006 81501 91800 333 10155 20057=
07761,1996-03-29 21:00:00,7,1011.4,0.5,81,4,15000,11.112,,,60,,,,,,,,,,,wg-a,,,,AAXX 29214 07761 12665 20606 10070 20040 30103 40114 50005 60006 82500 92100=
07761,1996-03-30 00:00:00,7,1010.2,-1.2,81,4,15000,18.52,,,50,,,,,,,,,,,wg-a,,,,AAXX 30004 07761 12665 /0510 10070 20040 30091 40102 58012 60006 82500 90000=
07761,1996-03-30 06:00:00,6,1008,-0.4,87,4,15000,11.112,,,50,5.9,11.7,,,,,,,,,wg-a,,,,AAXX 30064 07761 02565 30506 10060 20040 30069 40080 55004 60006 82501 90600 333 10117 20059 60004=
07761,1996-03-30 09:00:00,13,1008.2,0.2,67,7,15000,7.408,,,220,,,,,,,,,,,wg-a,,,,AAXX 30094 07761 12665 /2204 10130 20070 30071 40082 50002 60006 85130 90900=
07761,1996-03-30 12:00:00,15,1008.3,0.1,55,6,18000,18.52,,,220,,,,,,,,,,,wg-a,,,,AAXX 30124 07761 12668 72210 10150 20060 30072 40083 52001 60006 84202 91200=
07761,1996-03-30 15:00:00,14,1007,-1.3,58,6,18000,18.52,,,230,,,,,,,,,,,wg-a,,,,AAXX 30154 07761 12668 72310 10140 20060 30059 40070 56013 60006 81102 91500=
07761,1996-03-30 18:00:00,12,1007.4,0.4,62,5,12000,7.408,,,240,6,15.1,,,,,,,,,wg-a,,,,AAXX 30184 07761 12662 72404 10120 20050 30063 40074 53004 60006 82402 91800 333 10151 20060=
07761,1996-03-30 21:00:00,8,1008.3,0.9,81,5,12000,11.112,,,60,,,,,,,,,,,wg-a,,,,AAXX 30214 07761 12562 40606 10080 20050 30072 40083 51009 60006 84800 92100=
07761,1996-03-31 00:00:00,7,1008.4,0.1,81,4,12000,14.816,,,50,,,,,,,,,,,wg-a,,,,AAXX 31004 07761 12562 40508 10070 20040 30073 40084 53001 60006 84500 90000=
07761,1996-03-31 03:00:00,5,1008.1,-0.3,81,2,15000,14.816,,,40,,,,,,,,,,,wg-a,,,,AAXX 31034 07761 12565 /0408 10050 20020 30070 40081 55003 60006 81500 90300=
07761,1996-03-31 06:00:00,5,1009.7,1.6,75,1,20000,14.816,,,50,4.1,11.5,,,,,,,,,wg-a,,,,AAXX 31064 07761 02/70 00508 10050 20010 30086 40097 53016 60006 80000 90600 333 10115 20041 60004=
07761,1996-03-31 09:00:00,13,1011.3,1.6,62,6,20000,7.408,,,250,,,,,,,,,,,wg-a,,,,AAXX 31094 07761 12670 12504 10130 20060 30102 40113 52016 60006 81100 90900=
07761,1996-03-31 12:00:00,15,1011.6,0.3,67,9,17000,22.224,,,250,,,,,,,,,,,wg-a,,,,AAXX 31124 07761 12667 22512 10150 20090 30105 40116 51003 60006 82200 91200=
07761,1996-03-31 15:00:00,14,1011.6,0,55,5,18000,25.928,,,240,,,,,,,,,,,wg-a,,,,AAXX 31154 07761 12668 52414 10140 20050 30105 40116 50000 60006 82802 91500=
07761,1996-03-31 18:00:00,12,1012.4,0.8,67,6,17000,18.52,,,210,5,15.2,,,,,,,,,wg-a,,,,AAXX 31184 07761 12567 72110 10120 20060 30113 40124 53008 60006 85502 91800 333 10152 20050=
07761,1996-03-31 21:00:00,8,1013.3,0.9,76,4,15000,11.112,,,140,,,,,,,,,,,wg-a,,,,AAXX 31214 07761 12665 21406 10080 20040 30122 40133 51009 60006 81501 92100=
07761,1996-04-01 00:00:00,7,1013,-0.3,81,4,15000,11.112,,,50,,,,,,,,,,,wg-a,,,,AAXX 01004 07761 12565 /0506 10070 20040 30119 40130 58003 60006 81500 90000=
07761,1996-04-01 03:00:00,6,1011.9,-1.1,87,4,15000,11.112,,,40,,,,,,,,,,,wg-a,,,,AAXX 01034 07761 12665 20406 10060 20040 30108 40119 58011 60006 82500 90300=
07761,1996-04-01 06:00:00,9,1010.2,-1.7,61,2,25000,14.816,,,40,5.7,12,,,,,,,,,wg-a,,,,AAXX 01064 07761 02575 70408 10090 20020 30091 40102 56017 60006 86502 90600 333 10120 20057 60004=
07761,1996-04-01 09:00:00,12,1009.7,-0.5,62,5,25000,0,,,0,,,,,,,,,,60,wg-a,,,,AAXX 01094 07761 02675 70000 10120 20050 30086 40097 56005 61000 76062 8657/ 90900 333 ////=
07761,1996-04-01 12:00:00,12,1007.8,-1.9,88,10,10000,11.112,,,70,,,,1,,,,,,61,wg-a,,,,AAXX 01124 07761 02560 80706 10120 20100 30067 40078 58019 60016 76162 8557/ 91200 333 60017=
07761,1996-04-01 14:00:00,14,1003.8,-1.3,82,11,10000,14.816,,,170,8.9,13.7,,0,,,,,,60,wg-a,,,,AAXX 01144 07761 12560 81708 10140 20110 30027 40038 58013 60007 76066 878// 91400 333 10137 20089=
07761,1996-04-01 15:00:00,13,1005.1,-2.7,82,10,15000,11.112,,,40,,,,1,,,,,,60,wg-a,,,,AAXX 01154 07761 12565 80406 10130 20100 30040 40051 56027 60017 76066 8687/ 91500=
07761,1996-04-01 18:00:00,14,1003.8,-1.3,82,11,10000,14.816,,,170,8.9,13.7,,0,,,,,,60,wg-a,,,,AAXX 01184 07761 12560 81708 10140 20110 30027 40038 58013 60007 76066 878// 91800 333 10137 20089=
07761,1996-04-01 21:00:00,15,1002.9,-0.9,82,12,10000,29.632,,,200,,,,1,,,,,,21,wg-a,,,,AAXX 01214 07761 12460 82016 10150 20120 30018 40029 56009 60017 72162 878// 92100=
07761,1996-04-02 00:00:00,14,1000.9,-2,88,12,10000,25.928,,,200,,,,,,,,,,3,wg-a,,,,AAXX 02004 07761 12460 82014 10140 20120 39998 40009 57020 60016 70362 878// 90000=
07761,1996-04-02 03:00:00,14,998.3,-2.6,94,13,10000,29.632,,,210,,,,0,,,,,,3,wg-a,,,,AAXX 02034 07761 12360 82116 10140 20130 39972 49983 56026 60007 70362 878// 90300=
07761,1996-04-02 06:00:00,13,997.8,-0.5,94,12,7000,3.704,,,190,12.8,14.6,,1,,,5,,,61,wg-a,,,,AAXX 02064 07761 02457 81902 10130 20120 39967 49978 55005 60054 76162 8337/ 90600 333 10146 20128 60017=
07761,1996-04-02 09:00:00,11,999.8,2,94,10,9000,11.112,,,40,,,,20,,,,,,61,wg-a,,,,AAXX 02094 07761 12459 80406 10110 20100 39987 49998 53020 60207 76186 8487/ 90900=
07761,1996-04-02 12:00:00,14,1000.5,0.7,72,9,25000,11.112,,,50,,,,4,,,,,,21,wg-a,,,,AAXX 02124 07761 02575 70506 10140 20090 39994 40005 51007 60246 72186 8587/ 91200 333 60047=
07761,1996-04-02 15:00:00,16,1001.5,1,45,4,20000,22.224,,,280,,,,,,,,,,,wg-a,,,,AAXX 02154 07761 12570 42812 10160 20040 30004 40015 52010 60006 82230 91500=
07761,1996-04-02 18:00:00,12,1004.1,2.6,71,7,15000,25.928,,,260,10.6,16.1,,,,,,,,,wg-a,,,,AAXX 02184 07761 32565 72614 10120 20070 30030 40041 51026 8687/ 91800 333 10161 20106=
07761,1996-04-02 21:00:00,12,1005.9,1.8,67,6,15000,25.928,,,240,,,,,,,,,,,wg-a,,,,AAXX 02214 07761 12565 72414 10120 20060 30048 40059 51018 60006 878// 92100=
07761,1996-04-03 00:00:00,11,1005,-0.9,62,4,12000,22.224,,,230,,,,,,,,,,,wg-a,,,,AAXX 03004 07761 12562 72312 10110 20040 30039 40050 56009 60006 875// 90000=
07761,1996-04-03 03:00:00,10,1004.6,-0.4,66,4,12000,14.816,,,200,,,,,,,,,,,wg-a,,,,AAXX 03034 07761 12662 /2008 10100 20040 30035 40046 57004 60006 86800 90300=
07761,1996-04-03 06:00:00,10,1005.4,0.8,57,2,11000,29.632,,,230,9.8,12.1,,,,,24,,,,wg-a,,,,AAXX 03064 07761 02/61 /2316 10100 20020 30043 40054 53008 60006 90600 333 10121 20098 60244=
07761,1996-04-03 09:00:00,10,1007.4,2,62,3,12000,25.928,,,240,,,,,,,,,,,wg-a,,,,AAXX 03094 07761 12662 72414 10100 20030 30063 40074 53020 60006 878// 90900=
07761,1996-04-03 12:00:00,10,1008.9,1.5,53,1,12000,29.632,,,240,,,,,,,,,,,wg-a,,,,AAXX 03124 07761 12662 72416 10100 20010 30078 40089 51015 60006 878// 91200=
07761,1996-04-03 15:00:00,9,1009.4,0.5,53,0,12000,22.224,,,220,,,,,,,,,,,wg-a,,,,AAXX 03154 07761 12662 82212 10090 20000 30083 40094 51005 60006 888// 91500=
07761,1996-04-03 18:00:00,6,1009.5,0.1,87,4,7000,14.816,,,50,6.2,10.4,,1,,,,,,60,wg-a,,,,AAXX 03184 07761 12557 80508 10060 20040 30084 40095 50001 60017 76086 8/77/ 91800 333 10104 20062=
07761,1996-04-03 21:00:00,6,1010.1,0.6,81,3,10000,14.816,,,30,,,,,,,,,,1,wg-a,,,,AAXX 03214 07761 02560 /0308 10060 20030 30090 40101 50006 61000 70161 84870 92100 333 ////=
07761,1996-04-04 00:00:00,4,1011,0.9,87,2,10000,7.408,,,60,,,,,,,,,,3,wg-a,,,,AAXX 04004 07761 02560 70604 10040 20020 30099 40110 53009 61000 70361 8/800 90000 333 ////=
07761,1996-04-04 03:00:00,3,1011.6,0.6,87,1,10000,14.816,,,40,,,,,,,,,,,wg-a,,,,AAXX 04034 07761 12560 20408 10030 20010 30105 40116 53006 60006 81830 90300=
07761,1996-04-04 06:00:00,3,1011.9,0.3,87,1,18000,14.816,,,50,2.2,6.4,,,,,1,,,,wg-a,,,,AAXX 04064 07761 12568 30508 10030 20010 30108 40119 53003 60014 83800 90600 333 10064 20022=
07761,1996-04-04 12:00:00,14,1012.5,-0.2,58,6,25000,7.408,,,210,,,,,,,,,,,wg-a,,,,AAXX 04124 07761 12675 /2104 10140 20060 30114 40125 58002 60006 81200 91200=
07761,1996-04-04 15:00:00,13,1013,0.5,58,5,25000,25.928,,,250,,,,,,,,,,,wg-a,,,,AAXX 04154 07761 12675 42514 10130 20050 30119 40130 53005 60006 84200 91500=
07761,1996-04-04 18:00:00,11,1013.7,0.7,71,6,10000,18.52,,,230,3.2,15,,,,,,,,,wg-a,,,,AAXX 04184 07761 12560 52310 10110 20060 30126 40137 53007 60006 85800 91800 333 10150 20032=
07761,1996-04-04 21:00:00,10,1015,1.3,76,6,10000,18.52,,,180,,,,,,,,,,,wg-a,,,,AAXX 04214 07761 12560 71810 10100 20060 30139 40150 51013 60006 878// 92100=
07761,1996-04-05 00:00:00,7,1015.3,0.3,87,5,10000,11.112,,,40,,,,,,,,,,,wg-a,,,,AAXX 05004 07761 12560 30406 10070 20050 30142 40153 50003 60006 82501 90000=
07761,1996-04-05 03:00:00,4,1014.4,-0.9,93,3,10000,11.112,,,50,,,,,,,,,,,wg-a,,,,AAXX 05034 07761 12/60 /0506 10040 20030 30133 40144 58009 60006 80000 90300=
07761,1996-04-05 06:00:00,4,1014.7,0.3,93,3,10000,11.112,,,60,2.8,11.4,,,,,,,,,wg-a,,,,AAXX 05064 07761 02/60 00606 10040 20030 30136 40147 53003 60006 80000 90600 333 10114 20028 60004=
07761,1996-04-05 09:00:00,12,1015,0.3,67,6,10000,11.112,,,250,,,,,,,,,,,wg-a,,,,AAXX 05094 07761 12560 /2506 10120 20060 30139 40150 53003 60006 81100 90900=
07761,1996-04-05 12:00:00,14,1014.5,-0.5,63,7,10000,18.52,,,220,,,,,,,,,,,wg-a,,,,AAXX 05124 07761 12660 /2210 10140 20070 30134 40145 58005 60006 81200 91200=
07761,1996-04-05 15:00:00,15,1013.8,-0.7,48,4,15000,14.816,,,200,,,,,,,,,,,wg-a,,,,AAXX 05154 07761 12665 32008 10150 20040 30127 40138 58007 60006 83800 91500=
07761,1996-04-05 18:00:00,13,1014.8,1,58,5,15000,7.408,,,180,3.9,15.1,,,,,,,,,wg-a,,,,AAXX 05184 07761 12665 81804 10130 20050 30137 40148 53010 60006 86530 91800 333 10151 20039=
07761,1996-04-05 21:00:00,10,1015.4,0.6,71,5,15000,7.408,,,70,,,,,,,,,,,wg-a,,,,AAXX 05214 07761 12/65 /0704 10100 20050 30143 40154 51006 60006 81031 92100=
07761,1996-04-06 00:00:00,7,1015.9,0.5,87,5,15000,11.112,,,60,,,,,,,,,,,wg-a,,,,AAXX 06004 07761 12765 30606 10070 20050 30148 40159 51005 60006 81530 90000=
07761,1996-04-06 03:00:00,6,1015.8,-0.1,81,3,10000,14.816,,,60,,,,,,,,,,,wg-a,,,,AAXX 06034 07761 12/60 40608 10060 20030 30147 40158 55001 60006 83032 90300=
07761,1996-04-06 06:00:00,7,1016.3,0.5,87,5,12000,11.112,,,50,5.5,13.2,,,,,,,,,wg-a,,,,AAXX 06064 07761 02562 /0506 10070 20050 30152 40163 51005 60006 85532 90600 333 10132 20055 60004=
07761,1996-04-06 09:00:00,14,1017.1,0.8,67,8,15000,11.112,,,200,,,,,,,,,,,wg-a,,,,AAXX 06094 07761 12565 72006 10140 20080 30160 40171 53008 60006 81102 90900=
07761,1996-04-06 12:00:00,15,1017.3,0.2,72,10,15000,18.52,,,230,,,,,,,,,,,wg-a,,,,AAXX 06124 07761 12565 72310 10150 20100 30162 40173 50002 60006 82802 91200=
07761,1996-04-06 15:00:00,14,1016.8,-0.5,82,11,15000,11.112,,,230,,,,,,,,,,,wg-a,,,,AAXX 06154 07761 12565 72306 10140 20110 30157 40168 58005 60006 8683/ 91500=
07761,1996-04-06 18:00:00,13,1017.3,0.5,77,9,15000,7.408,,,160,7.2,15.6,,,,,,,,,wg-a,,,,AAXX 06184 07761 12565 71604 10130 20090 30162 40173 52005 60006 8683/ 91800 333 10156 20072=
07761,1996-04-06 21:00:00,13,1017.3,0.5,77,9,15000,7.408,,,160,7.2,15.6,,,,,,,,,wg-a,,,,AAXX 06214 07761 12565 71604 10130 20090 30162 40173 52005 60006 8683/ 92100 333 10156 20072=
07761,1996-04-07 00:00:00,8,1018.5,0.4,87,6,12000,11.112,,,50,,,,,,,,,,,wg-a,,,,AAXX 07004 07761 12562 70506 10080 20060 30174 40185 51004 60006 83532 90000=
07761,1996-04-07 03:00:00,7,1017.6,-0.9,87,5,12000,11.112,,,50,,,,,,,,,,,wg-a,,,,AAXX 07034 07761 12/62 50506 10070 20050 30165 40176 58009 60006 83032 90300=
07761,1996-04-07 06:00:00,7,1018.2,0.6,93,6,12000,11.112,,,50,6.5,13.3,,,,,,,,,wg-a,,,,AAXX 07064 07761 02462 /0506 10070 20060 30171 40182 53006 60006 82532 90600 333 10133 20065 60004=
07761,1996-04-07 09:00:00,15,1018.9,0.7,67,9,14000,11.112,,,220,,,,,,,,,,,wg-a,,,,AAXX 07094 07761 12464 42206 10150 20090 30178 40189 53007 60006 81802 90900=
07761,1996-04-07 12:00:00,15,1018.7,-0.2,77,11,12000,22.224,,,230,,,,,,,,,,,wg-a,,,,AAXX 07124 07761 12562 /2312 10150 20110 30176 40187 56002 60006 82232 91200=
07761,1996-04-07 15:00:00,15,1018.5,-0.2,77,11,12000,14.816,,,210,,,,,,,,,,,wg-a,,,,AAXX 07154 07761 12662 82108 10150 20110 30174 40185 57002 60006 83502 91500=
07761,1996-04-07 18:00:00,13,1018.9,0.4,82,10,15000,7.408,,,210,7.4,15.7,,,,,,,,,wg-a,,,,AAXX 07184 07761 12565 /2104 10130 20100 30178 40189 53004 60006 81577 91800 333 10157 20074=
07761,1996-04-07 21:00:00,10,1019.6,0.7,93,9,15000,7.408,,,70,,,,,,,,,,,wg-a,,,,AAXX 07214 07761 12565 30704 10100 20090 30185 40196 51007 60006 81502 92100=
07761,1996-04-08 00:00:00,10,1020.3,0.7,87,8,10000,11.112,,,60,,,,,,,,,,,wg-a,,,,AAXX 08004 07761 12460 70606 10100 20080 30192 40203 51007 60006 875// 90000=
07761,1996-04-08 03:00:00,9,1019.6,-0.7,87,7,10000,11.112,,,70,,,,,,,,,,,wg-a,,,,AAXX 08034 07761 12460 40706 10090 20070 30185 40196 58007 60006 82508 90300=
07761,1996-04-08 06:00:00,8,1020.2,0.6,87,6,7000,14.816,,,50,7.3,12.7,,,,,,,,,wg-a,,,,AAXX 08064 07761 02457 70508 10080 20060 30191 40202 53006 60006 875// 90600 333 10127 20073 60004=
07761,1996-04-08 09:00:00,14,1020.9,0.7,72,9,10000,7.408,,,230,,,,,,,,,,,wg-a,,,,AAXX 08094 07761 12560 /2304 10140 20090 30198 40209 51007 60006 81100 90900=
07761,1996-04-08 12:00:00,15,1020.6,-0.3,77,11,13000,22.224,,,230,,,,,,,,,,,wg-a,,,,AAXX 08124 07761 12663 32312 10150 20110 30195 40206 56003 60006 81230 91200=
07761,1996-04-08 15:00:00,15,1020,-0.6,82,12,12000,14.816,,,220,,,,,,,,,,,wg-a,,,,AAXX 08154 07761 12562 82208 10150 20120 30189 40200 58006 60006 8487/ 91500=
07761,1996-04-08 18:00:00,14,1020,-0,82,11,12000,3.704,,,60,7.8,16,,,,,,,,,wg-a,,,,AAXX 08184 07761 12862 80602 10140 20110 30184 40200 55000 60006 86072 91800 333 10160 20078=
07761,1996-04-08 21:00:00,13,1020.8,0.8,88,11,12000,3.704,,,160,,,,,,,,,,,wg-a,,,,AAXX 08214 07761 12862 81602 10130 20110 30197 40208 51008 60006 86072 92100=
07761,1996-04-09 03:00:00,8,1020.1,-0.5,87,6,12000,11.112,,,40,,,,,,,,,,,wg-a,,,,AAXX 09034 07761 12862 20406 10080 20060 30190 40201 57005 60006 81031 90300=
07761,1996-04-09 06:00:00,8,1020.2,0.1,93,7,12000,7.408,,,50,7.5,14.3,,,,,,,,,wg-a,,,,AAXX 09064 07761 02562 /0504 10080 20070 30191 40202 53001 60006 81572 90600 333 10143 20075 60004=
07761,1996-04-09 09:00:00,14,1020.5,0.3,77,10,12000,3.704,,,230,,,,,,,,,,,wg-a,,,,AAXX 09094 07761 12662 72302 10140 20100 30194 40205 52003 60006 81172 90900=
07761,1996-04-09 12:00:00,16,1019.9,-0.6,77,12,10000,14.816,,,240,,,,,,,,,,,wg-a,,,,AAXX 09124 07761 12660 62408 10160 20120 30188 40199 58006 60006 82932 91200=
07761,1996-04-09 15:00:00,16,1019.2,-0.7,77,12,10000,11.112,,,260,,,,,,,,,,,wg-a,,,,AAXX 09154 07761 12560 62606 10160 20120 30181 40192 58007 60006 82982 91500=
07761,1996-04-09 18:00:00,14,1019.3,0.1,82,11,15000,7.408,,,220,8.4,16.7,,,,,,,,,wg-a,,,,AAXX 09184 07761 12565 72204 10140 20110 30182 40193 53001 60006 81532 91800 333 10167 20084=
07761,1996-04-09 21:00:00,12,1020.2,0.9,88,10,15000,7.408,,,70,,,,,,,,,,,wg-a,,,,AAXX 09214 07761 12465 /0704 10120 20100 30191 40202 51009 60006 81532 92100=
07761,1996-04-10 00:00:00,9,1019.9,-0.3,87,7,15000,11.112,,,50,,,,,,,,,,,wg-a,,,,AAXX 10004 07761 12/65 00506 10090 20070 30188 40199 58003 60006 80000 90000=
07761,1996-04-10 03:00:00,7,1018.8,-1.1,87,5,15000,11.112,,,50,,,,,,,,,,,wg-a,,,,AAXX 10034 07761 12/65 00506 10070 20050 30177 40188 56011 60006 80000 90300=
07761,1996-04-10 06:00:00,8,1018.9,0.1,81,5,15000,11.112,,,60,6,14.1,,,,,,,,,wg-a,,,,AAXX 10064 07761 02/65 00606 10080 20050 30178 40189 53001 60006 80000 90600 333 10141 20060 60004=
07761,1996-04-10 09:00:00,15,1018.7,-0.2,67,9,17000,7.408,,,230,,,,,,,,,,,wg-a,,,,AAXX 10094 07761 12667 /2304 10150 20090 30176 40187 57002 60006 81100 90900=
07761,1996-04-10 12:00:00,17,1018.4,-0.3,72,12,15000,22.224,,,220,,,,,,,,,,,wg-a,,,,AAXX 10124 07761 12665 /2212 10170 20120 30173 40184 56003 60006 81201 91200=
07761,1996-04-10 15:00:00,16,1017.2,-1.2,72,11,17000,22.224,,,190,,,,,,,,,,,wg-a,,,,AAXX 10154 07761 12567 /1912 10160 20110 30161 40172 56012 60006 81240 91500=
07761,1996-04-10 18:00:00,14,1016.9,-0.3,82,11,20000,11.112,,,170,7.6,16.6,,,,,,,,,wg-a,,,,AAXX 10184 07761 12570 71706 10140 20110 30158 40169 56003 60006 81401 91800 333 10166 20076=
07761,1996-04-10 21:00:00,11,1017.2,0.3,76,7,15000,11.112,,,60,,,,,,,,,,,wg-a,,,,AAXX 10214 07761 12865 30606 10110 20070 30161 40172 50003 60006 81032 92100=
07761,1996-04-11 00:00:00,9,1016.6,-0.6,87,7,15000,11.112,,,60,,,,,,,,,,,wg-a,,,,AAXX 11004 07761 12865 30606 10090 20070 30155 40166 58006 60006 81032 90000=
07761,1996-04-11 03:00:00,8,1015,-1.6,81,5,15000,11.112,,,50,,,,,,,,,,,wg-a,,,,AAXX 11034 07761 12/65 00506 10080 20050 30139 40150 58016 60006 80000 90300=
07761,1996-04-11 06:00:00,8,1014.5,-0.5,87,6,15000,11.112,,,60,5.9,13.9,,,,,,,,,wg-a,,,,AAXX 11064 07761 02565 /0606 10080 20060 30134 40145 56005 60006 81532 90600 333 10139 20059 60004=
07761,1996-04-11 09:00:00,15,1013.5,-1,67,9,15000,11.112,,,260,,,,,,,,,,,wg-a,,,,AAXX 11094 07761 12565 /2606 10150 20090 30124 40135 56010 60006 84532 90900=
07761,1996-04-11 12:00:00,17,1011.9,-1.6,77,13,15000,18.52,,,250,,,,,,,,,,,wg-a,,,,AAXX 11124 07761 12565 72510 10170 20130 30108 40119 57016 60006 83832 91200=
07761,1996-04-11 15:00:00,16,1010.6,-1.3,77,12,7000,18.52,,,220,,,,,,,,,,,wg-a,,,,AAXX 11154 07761 12457 42210 10160 20120 30095 40106 56013 60006 82232 91500=
07761,1996-04-11 18:00:00,14,1010.7,0.1,88,12,7000,14.816,,,210,8,17.7,,,,,,,,,wg-a,,,,AAXX 11184 07761 12457 52108 10140 20120 30096 40107 53001 60006 85800 91800 333 10177 20080=
07761,1996-04-11 21:00:00,11,1011.2,0.5,87,9,10000,7.408,,,60,,,,,,,,,,,wg-a,,,,AAXX 11214 07761 12560 /0604 10110 20090 30101 40112 51005 60006 81800 92100=
07761,1996-04-12 00:00:00,10,1010.9,-0.3,87,8,10000,7.408,,,30,,,,,,,,,,,wg-a,,,,AAXX 12004 07761 12560 /0304 10100 20080 30098 40109 58003 60006 86500 90000=
07761,1996-04-12 03:00:00,10,1009.8,-1.1,87,8,10000,11.112,,,50,,,,,,,,,,,wg-a,,,,AAXX 12034 07761 12560 /0506 10100 20080 30087 40098 56011 60006 86500 90300=
07761,1996-04-12 06:00:00,9,1010.2,0.4,87,7,8000,14.816,,,50,8.3,14.1,,,,,,,,,wg-a,,,,AAXX 12064 07761 02558 40508 10090 20070 30091 40102 53004 60006 82501 90600 333 10141 20083 60004=
07761,1996-04-12 09:00:00,16,1009.8,-0.4,72,11,10000,14.816,,,270,,,,,,,,,,,wg-a,,,,AAXX 12094 07761 12560 22708 10160 20110 30087 40098 55004 60006 81101 90900=
07761,1996-04-12 12:00:00,17,1009.7,-0.1,77,13,10000,29.632,,,240,,,,,,,,,,,wg-a,,,,AAXX 12124 07761 12460 72416 10170 20130 30086 40097 55001 60006 82201 91200=
07761,1996-04-12 15:00:00,16,1009.8,0.1,77,12,10000,14.816,,,250,,,,,,,,,,,wg-a,,,,AAXX 12154 07761 12560 72508 10160 20120 30087 40098 53001 60006 83202 91500=
07761,1996-04-12 18:00:00,14,1010.4,0.6,82,11,8000,7.408,,,220,9.1,17.4,,,,,,,,,wg-a,,,,AAXX 12184 07761 12458 82204 10140 20110 30093 40104 52006 60006 8571/ 91800 333 10174 20091=
07761,1996-04-12 21:00:00,14,1011.8,1.4,82,11,8000,11.112,,,200,,,,,,,,,,,wg-a,,,,AAXX 12214 07761 12/58 /2006 10140 20110 30107 40118 53014 60006 92100=
07761,1996-04-13 00:00:00,14,1012.4,0.6,77,10,8000,7.408,,,200,,,,,,,,,,,wg-a,,,,AAXX 13004 07761 12458 82004 10140 20100 30113 40124 51006 60006 875// 90000=
07761,1996-04-13 03:00:00,13,1012.2,-0.2,72,8,9000,11.112,,,90,,,,,,,,,,,wg-a,,,,AAXX 13034 07761 12559 80906 10130 20080 30111 40122 56002 60006 875// 90300=
07761,1996-04-13 06:00:00,12,1012.8,0.6,71,7,12000,11.112,,,90,11.5,14.3,,,,,,,,,wg-a,,,,AAXX 13064 07761 02562 20906 10120 20070 30117 40128 53006 60006 81502 90600 333 10143 20115 60004=
07761,1996-04-13 09:00:00,16,1013.3,0.5,68,10,12000,11.112,,,240,,,,,,,,,,,wg-a,,,,AAXX 13094 07761 12/62 32406 10160 20100 30122 40133 53005 60006 81031 90900=
07761,1996-04-13 12:00:00,17,1013.1,-0.2,72,12,12000,22.224,,,230,,,,,,,,,,,wg-a,,,,AAXX 13124 07761 12562 42312 10170 20120 30120 40131 55002 60006 81131 91200=
07761,1996-04-13 15:00:00,17,1012.1,-1,59,9,12000,11.112,,,210,,,,,,,,,,,wg-a,,,,AAXX 13154 07761 12562 52106 10170 20090 30110 40121 57010 60006 81141 91500=
07761,1996-04-13 18:00:00,15,1011.8,-0.3,72,10,15000,14.816,,,230,12,17.2,,,,,,,,,wg-a,,,,AAXX 13184 07761 12/65 /2308 10150 20100 30107 40118 55003 60006 81042 91800 333 10172 20120=
07761,1996-04-13 21:00:00,12,1012.6,0.8,76,8,15000,7.408,,,70,,,,,,,,,,,wg-a,,,,AAXX 13214 07761 12/65 70704 10120 20080 30115 40126 51008 60006 80002 92100=
07761,1996-04-14 00:00:00,11,1011.9,-0.7,76,7,15000,11.112,,,50,,,,,,,,,,,wg-a,,,,AAXX 14004 07761 12465 70506 10110 20070 30108 40119 58007 60006 83532 90000=
07761,1996-04-14 03:00:00,12,1010,-1.9,76,8,15000,11.112,,,40,,,,,,,,,,,wg-a,,,,AAXX 14034 07761 12465 70406 10120 20080 30089 40100 56019 60006 875// 90300=
07761,1996-04-14 06:00:00,11,1010,-0,82,8,15000,11.112,,,60,10.6,14.8,,,,,,,,,wg-a,,,,AAXX 14064 07761 02465 40606 10110 20080 30089 40100 55000 60006 84501 90600 333 10148 20106 60004=
07761,1996-04-14 09:00:00,17,1010.8,0.8,72,12,14000,14.816,,,240,,,,,,,,,,,wg-a,,,,AAXX 14094 07761 12564 32408 10170 20120 30097 40108 53008 60006 82201 90900=
07761,1996-04-14 12:00:00,18,1010.8,0,73,13,16000,22.224,,,220,,,,,,,,,,,wg-a,,,,AAXX 14124 07761 12566 22212 10180 20130 30097 40108 50000 60006 81202 91200=
07761,1996-04-14 15:00:00,18,1010.4,-0.4,68,12,20000,25.928,,,210,,,,,,,,,,,wg-a,,,,AAXX 14154 07761 12670 22114 10180 20120 30093 40104 56004 60006 82201 91500=
07761,1996-04-14 18:00:00,15,1013.1,2.7,77,11,15000,11.112,,,210,11.2,19.2,,,,,,,,,wg-a,,,,AAXX 14184 07761 12565 82106 10150 20110 30120 40131 51027 60006 8387/ 91800 333 10192 20112=
07761,1996-04-14 21:00:00,14,1015.8,2.7,72,9,15000,14.816,,,200,,,,,,,,,,60,wg-a,,,,AAXX 14214 07761 02565 82008 10140 20090 30147 40158 51027 61000 76062 8457/ 92100 333 ////=
07761,1996-04-15 00:00:00,13,1016.6,0.8,77,9,15000,14.816,,,50,,,,,,,,,,21,wg-a,,,,AAXX 15004 07761 02565 80508 10130 20090 30155 40166 51008 61000 72162 8357/ 90000 333 6100=
07761,1996-04-15 03:00:00,11,1016.3,-0.3,87,9,15000,7.408,,,60,,,,,,,,,,,wg-a,,,,AAXX 15034 07761 12665 /0604 10110 20090 30152 40163 55003 60006 83530 90300=
07761,1996-04-15 06:00:00,10,1017.8,1.5,76,6,35000,7.408,,,30,9.2,14.8,,,,,,,,,wg-a,,,,AAXX 15064 07761 02/81 10304 10100 20060 30167 40178 53015 61000 80001 90600 333 10148 20092 ////=
07761,1996-04-15 09:00:00,16,1018.7,0.9,59,8,40000,11.112,,,220,,,,,,,,,,,wg-a,,,,AAXX 15094 07761 12682 /2206 10160 20080 30176 40187 53009 60006 81100 90900=
07761,1996-04-15 12:00:00,18,1018.4,-0.3,56,9,25000,14.816,,,190,,,,,,,,,,,wg-a,,,,AAXX 15124 07761 12675 /1908 10180 20090 30173 40184 58003 60006 81900 91200=
07761,1996-04-15 15:00:00,16,1019.4,1,59,8,25000,14.816,,,230,,,,,,,,,,17,wg-a,,,,AAXX 15154 07761 12675 32308 10160 20080 30183 40194 53010 60006 71790 83900 91500=
07761,1996-04-15 18:00:00,13,1019.1,-0.3,62,6,25000,11.112,,,90,9.9,18.9,,,,,,,,29,wg-a,,,,AAXX 15184 07761 12/75 /0906 10130 20060 30180 40191 55003 60006 72990 80001 91800 333 10189 20099=
07761,1996-04-15 21:00:00,10,1020.3,1.2,76,6,20000,11.112,,,60,,,,,,,,,,,wg-a,,,,AAXX 15214 07761 12/70 00606 10100 20060 30192 40203 51012 60006 80000 92100=
07761,1996-04-16 00:00:00,7,1020.2,-0.1,81,4,20000,11.112,,,40,,,,,,,,,,,wg-a,,,,AAXX 16004 07761 12/70 00406 10070 20040 30191 40202 58001 60006 80000 90000=
07761,1996-04-16 03:00:00,6,1019.1,-1.1,81,3,20000,11.112,,,60,,,,,,,,,,,wg-a,,,,AAXX 16034 07761 12570 /0606 10060 20030 30180 40191 56011 60006 81500 90300=
07761,1996-04-16 06:00:00,7,1019.1,-0,76,3,25000,11.112,,,50,5.4,13.3,,,,,,,,,wg-a,,,,AAXX 16064 07761 02675 /0506 10070 20030 30180 40191 55000 60006 81100 90600 333 10133 20054 60004=
07761,1996-04-16 09:00:00,15,1018.8,-0.3,63,8,25000,7.408,,,250,,,,,,,,,,,wg-a,,,,AAXX 16094 07761 12675 12504 10150 20080 30177 40188 58003 60006 81100 90900=
07761,1996-04-16 12:00:00,17,1018,-0.8,68,11,25000,25.928,,,230,,,,,,,,,,,wg-a,,,,AAXX 16124 07761 12575 /2314 10170 20110 30169 40180 56008 60006 81200 91200=
07761,1996-04-16 15:00:00,17,1017,-1,59,9,20000,25.928,,,240,,,,,,,,,,,wg-a,,,,AAXX 16154 07761 12570 /2414 10170 20090 30159 40170 58010 60006 81100 91500=
07761,1996-04-16 18:00:00,14,1016.5,-0.5,72,9,25000,7.408,,,250,7.1,17.3,,,,,,,,,wg-a,,,,AAXX 16184 07761 12675 42504 10140 20090 30154 40165 56005 60006 81102 91800 333 10173 20071=
07761,1996-04-17 00:00:00,8,1016,-0.3,71,3,20000,14.816,,,30,,,,,,,,,,,wg-a,,,,AAXX 17004 07761 12/70 00308 10080 20030 30149 40160 58003 60006 80000 90000=
07761,1996-04-17 03:00:00,5,1014.5,-1.5,81,2,20000,14.816,,,50,,,,,,,,,,,wg-a,,,,AAXX 17034 07761 12570 /0508 10050 20020 30134 40145 56015 60006 81500 90300=
07761,1996-04-17 06:00:00,7,1013.6,-0.9,70,2,25000,14.816,,,50,4.7,14.4,,,,,,,,,wg-a,,,,AAXX 17064 07761 02/75 70508 10070 20020 30125 40136 56009 60006 81032 90600 333 10144 20047 60004=
07761,1996-04-17 09:00:00,16,1013.1,-0.5,45,4,25000,7.408,,,40,,,,,,,,,,,wg-a,,,,AAXX 17094 07761 12/75 70404 10160 20040 30120 40131 57005 60006 81032 90900=
07761,1996-04-17 12:00:00,16,1011.7,-1.4,63,9,25000,18.52,,,230,,,,,,,,,,,wg-a,,,,AAXX 17124 07761 12675 72310 10160 20090 30106 40117 56014 60006 81138 91200=
07761,1996-04-17 15:00:00,17,1010.6,-1.1,55,8,25000,11.112,,,240,,,,,,,,,,,wg-a,,,,AAXX 17154 07761 12675 /2406 10170 20080 30095 40106 56011 60006 81832 91500=
07761,1996-04-17 18:00:00,14,1011.4,0.8,72,9,25000,3.704,,,30,6.7,17.5,,,,,,,,,wg-a,,,,AAXX 17184 07761 12575 70302 10140 20090 30103 40114 51008 60006 81522 91800 333 10175 20067=
07761,1996-04-18 00:00:00,8,1013.4,1,76,4,20000,11.112,,,50,,,,,,,,,,,wg-a,,,,AAXX 18004 07761 12/70 20506 10080 20040 30123 40134 51010 60006 80001 90000=
07761,1996-04-18 03:00:00,6,1013.9,0.5,81,3,20000,14.816,,,40,,,,,,,,,,,wg-a,,,,AAXX 18034 07761 12/70 20408 10060 20030 30128 40139 52005 60006 80001 90300=
07761,1996-04-18 06:00:00,7,1015.2,1.3,76,3,25000,14.816,,,50,5.1,14.3,,,,,,,,,wg-a,,,,AAXX 18064 07761 02/75 60508 10070 20030 30141 40152 53013 60006 81032 90600 333 10143 20051 60004=
07761,1996-04-18 12:00:00,18,1017,0.5,59,10,25000,18.52,,,180,,,,,,,,,,,wg-a,,,,AAXX 18124 07761 12675 /1810 10180 20100 30159 40170 50005 60006 81102 91200=
07761,1996-04-18 15:00:00,20,1017.2,0.2,32,3,500,11.112,,,280,,,,,,,,,,,wg-a,,,,AAXX 18154 07761 12600 32806 10200 20030 30161 40172 53002 60006 81101 91500=
07761,1996-04-18 18:00:00,15,1018.2,1,72,10,25000,14.816,,,180,7.3,20,,,,,,,,,wg-a,,,,AAXX 18184 07761 12675 /1808 10150 20100 30171 40182 52010 60006 81101 91800 333 10200 20073=
07761,1996-04-18 21:00:00,10,1020.2,2,76,6,20000,11.112,,,60,,,,,,,,,,,wg-a,,,,AAXX 18214 07761 12/70 00606 10100 20060 30191 40202 51020 60006 80000 92100=
07761,1996-04-19 00:00:00,7,1020.7,0.5,81,4,20000,14.816,,,50,,,,,,,,,,,wg-a,,,,AAXX 19004 07761 12/70 00508 10070 20040 30196 40207 51005 60006 80000 90000=
07761,1996-04-19 03:00:00,6,1020.6,-0.1,81,3,20000,14.816,,,40,,,,,,,,,,,wg-a,,,,AAXX 19034 07761 12/70 00408 10060 20030 30195 40206 56001 60006 80000 90300=
07761,1996-04-19 06:00:00,8,1021.6,1,76,4,20000,14.816,,,40,4.5,14.7,,,,,,,,,wg-a,,,,AAXX 19064 07761 02/70 00408 10080 20040 30205 40216 52010 60006 80000 90600 333 10147 20045 60004=
07761,1996-04-19 09:00:00,17,1021.9,0.3,52,7,500,14.816,,,230,,,,,,,,,,,wg-a,,,,AAXX 19094 07761 12600 12308 10170 20070 30208 40219 53003 60006 81100 90900=
07761,1996-04-19 12:00:00,18,1021.6,-0.3,64,11,500,25.928,,,190,,,,,,,,,,,wg-a,,,,AAXX 19124 07761 12600 /1914 10180 20110 30205 40216 58003 60006 81100 91200=
07761,1996-04-19 15:00:00,18,1021.1,-0.5,64,11,500,22.224,,,180,,,,,,,,,,,wg-a,,,,AAXX 19154 07761 12600 /1812 10180 20110 30200 40211 58005 60006 81100 91500=
07761,1996-04-19 18:00:00,16,1020.7,-0.4,45,4,500,7.408,,,330,7.7,18.3,,,,,,,,,wg-a,,,,AAXX 19184 07761 12600 /3304 10160 20040 30196 40207 55004 60006 81100 91800 333 10183 20077=
07761,1996-04-19 21:00:00,10,1021.3,0.6,71,5,20000,11.112,,,60,,,,,,,,,,,wg-a,,,,AAXX 19214 07761 12/70 10606 10100 20050 30202 40213 50006 60006 80001 92100=
07761,1996-04-20 00:00:00,9,1021.2,-0.1,71,4,20000,14.816,,,40,,,,,,,,,,,wg-a,,,,AAXX 20004 07761 12/70 00408 10090 20040 30201 40212 58001 60006 80000 90000=
07761,1996-04-20 03:00:00,7,1020.4,-0.8,76,3,20000,14.816,,,40,,,,,,,,,,,wg-a,,,,AAXX 20034 07761 12/70 00408 10070 20030 30193 40204 56008 60006 80000 90300=
07761,1996-04-20 06:00:00,9,1020.6,0.2,71,4,500,11.112,,,50,5.5,16.3,,,,,,,,,wg-a,,,,AAXX 20064 07761 02/00 00506 10090 20040 30195 40206 53002 60006 80000 90600 333 10163 20055 60004=
07761,1996-04-20 09:00:00,17,1020.4,-0.2,63,10,50000,11.112,,,230,,,,,,,,,,,wg-a,,,,AAXX 20094 07761 12/84 02306 10170 20100 30193 40204 55002 60006 80000 90900=
07761,1996-04-20 12:00:00,21,1019.9,-0.5,43,8,50000,11.112,,,210,,,,,,,,,,,wg-a,,,,AAXX 20124 07761 12684 /2106 10210 20080 30188 40199 58005 60006 81100 91200=
07761,1996-04-20 15:00:00,21,1018.4,-1.5,33,4,50000,11.112,,,190,,,,,,,,,,,wg-a,,,,AAXX 20154 07761 12684 /1906 10210 20040 30173 40184 58015 60006 81101 91500=
07761,1996-04-20 18:00:00,18,1017.8,-0.6,52,8,500,7.408,,,300,9.4,21.7,,,,,,,,,wg-a,,,,AAXX 20184 07761 12/00 23004 10180 20080 30167 40178 56006 60006 80001 91800 333 10217 20094=
07761,1996-04-20 21:00:00,11,1018.2,0.4,71,6,20000,14.816,,,50,,,,,,,,,,,wg-a,,,,AAXX 20214 07761 12/70 00508 10110 20060 30171 40182 50004 60006 80000 92100=
07761,1996-04-21 00:00:00,10,1018.3,0.1,66,4,20000,11.112,,,70,,,,,,,,,,,wg-a,,,,AAXX 21004 07761 12/70 00706 10100 20040 30172 40183 50001 60006 80000 90000=
07761,1996-04-21 03:00:00,8,1017.6,-0.7,66,2,20000,14.816,,,50,,,,,,,,,,,wg-a,,,,AAXX 21034 07761 12/70 00508 10080 20020 30165 40176 57007 60006 80000 90300=
07761,1996-04-21 06:00:00,11,1016.5,-1.1,54,2,40000,14.816,,,40,7.4,18.3,,,,,,,,,wg-a,,,,AAXX 21064 07761 02/82 20408 10110 20020 30154 40165 56011 60006 80001 90600 333 10183 20074 60004=
07761,1996-04-21 09:00:00,20,1016.9,0.4,46,8,50000,7.408,,,210,,,,,,,,,,,wg-a,,,,AAXX 21094 07761 12/84 42104 10200 20080 30158 40169 51004 60006 80002 90900=
07761,1996-04-21 12:00:00,23,1016.2,-0.7,38,8,50000,29.632,,,250,,,,,,,,,,,wg-a,,,,AAXX 21124 07761 12684 /2516 10230 20080 30151 40162 56007 60006 81102 91200=
07761,1996-04-21 15:00:00,22,1015.4,-0.8,35,6,50000,11.112,,,190,,,,,,,,,,,wg-a,,,,AAXX 21154 07761 12684 71906 10220 20060 30143 40154 58008 60006 81232 91500=
07761,1996-04-21 18:00:00,17,1015.8,0.4,63,10,40000,7.408,,,170,10.6,23.2,,,,,,,,,wg-a,,,,AAXX 21184 07761 12682 81704 10170 20100 30147 40158 51004 60006 81432 91800 333 10232 20106=
07761,1996-04-21 21:00:00,12,1017,1.2,67,6,20000,11.112,,,60,,,,,,,,,,,wg-a,,,,AAXX 21214 07761 12/70 40606 10120 20060 30159 40170 53012 60006 80001 92100=
07761,1996-04-22 00:00:00,12,1016.2,-0.8,58,4,20000,7.408,,,60,,,,,,,,,,,wg-a,,,,AAXX 22004 07761 12/70 00604 10120 20040 30151 40162 56008 60006 80000 90000=
07761,1996-04-22 03:00:00,9,1014.9,-1.3,61,2,20000,11.112,,,60,,,,,,,,,,,wg-a,,,,AAXX 22034 07761 12/70 20606 10090 20020 30138 40149 58013 60006 80001 90300=
07761,1996-04-22 06:00:00,11,1015.2,0.3,58,3,40000,7.408,,,70,8.8,17.3,,,,,,,,,wg-a,,,,AAXX 22064 07761 02682 70704 10110 20030 30141 40152 53003 60006 83872 90600 333 10173 20088 60004=
07761,1996-04-22 09:00:00,20,1015.5,0.3,43,7,40000,7.408,,,290,,,,,,,,,,,wg-a,,,,AAXX 22094 07761 12/82 72904 10200 20070 30144 40155 53003 60006 84072 90900=
07761,1996-04-22 12:00:00,26,1014.9,-0.5,15,-3,40000,29.632,,,90,,,,,,,,,,,wg-a,,,,AAXX 22124 07761 12/82 70916 10260 21030 30139 40149 58005 60006 8708/ 91200=
07761,1996-04-22 15:00:00,23,1014.6,-0.3,31,5,40000,14.816,,,300,,,,,,,,,,,wg-a,,,,AAXX 22154 07761 12/82 73008 10230 20050 30136 40146 55003 60006 8707/ 91500=
07761,1996-04-22 21:00:00,16,1013.9,-1.4,72,11,20000,11.112,,,190,,,,,,,,,,,wg-a,,,,AAXX 22214 07761 12/70 81906 10160 20110 30128 40139 56014 60006 8807/ 92100=
07761,1996-04-23 00:00:00,17,1013.1,-0.8,52,7,20000,7.408,,,330,,,,,,,,,,,wg-a,,,,AAXX 23004 07761 12/70 63304 10170 20070 30120 40131 58008 60006 86070 90000=
07761,1996-04-23 03:00:00,17,1012.1,-1,59,9,20000,3.704,,,190,,,,,,,,,,,wg-a,,,,AAXX 23034 07761 12/70 71902 10170 20090 30110 40121 55010 60006 87070 90300=
07761,1996-04-23 06:00:00,14,1012.8,0.7,72,9,500,11.112,,,50,14,17.2,,,,,,,,,wg-a,,,,AAXX 23064 07761 02700 70506 10140 20090 30117 40128 50007 60006 81571 90600 333 10172 20140 60004=
07761,1996-04-23 09:00:00,19,1013.1,0.3,68,13,18000,11.112,,,50,,,,,,,,,,60,wg-a,,,,AAXX 23094 07761 02768 80506 10190 20130 30120 40131 50003 61000 76062 8357/ 90900 333 ////=
07761,1996-04-23 12:00:00,19,1014.8,1.7,60,11,17000,11.112,,,130,,,,,,,,,,21,wg-a,,,,AAXX 23124 07761 02767 81306 10190 20110 30137 40148 53017 61000 72162 8157/ 91200 333 6100=
07761,1996-04-23 15:00:00,16,1016.7,1.9,88,14,9000,7.408,,,240,,,,1,,,,,,60,wg-a,,,,AAXX 23154 07761 12559 82404 10160 20140 30156 40167 53019 60017 76062 8457/ 91500=
07761,1996-04-23 18:00:00,16,1014.5,-2.2,88,14,15000,18.52,,,50,14.1,22.4,,5,,,,,,61,wg-a,,,,AAXX 23184 07761 12565 80510 10160 20140 30134 40145 58022 60057 76162 8487/ 91800 333 10224 20141=
07761,1996-04-23 21:00:00,15,1016.6,2.1,94,14,15000,22.224,,,230,,,,,,,,,,3,wg-a,,,,AAXX 23214 07761 02465 /2312 10150 20140 30155 40166 53021 61000 70361 82570 92100 333 ////=
07761,1996-04-24 00:00:00,14,1016.9,0.3,94,13,9000,11.112,,,30,,,,,,,,,,3,wg-a,,,,AAXX 24004 07761 02559 80306 10140 20130 30158 40169 50003 61000 70364 8657/ 90000 333 ////=
07761,1996-04-24 03:00:00,15,1015.8,-1.1,94,14,9000,3.704,,,140,,,,0,,,,,,21,wg-a,,,,AAXX 24034 07761 12559 81402 10150 20140 30147 40158 58011 60007 72162 885// 90300=
07761,1996-04-24 06:00:00,15,1016.6,0.8,94,14,9000,3.704,,,140,13.6,17,,,,,6,,,3,wg-a,,,,AAXX 24064 07761 12459 81402 10150 20140 30155 40166 53008 60064 70362 885// 90600 333 10170 20136=
07761,1996-04-24 09:00:00,17,1017.4,0.8,88,15,500,7.408,,,210,,,,,,,,,,,wg-a,,,,AAXX 24094 07761 12300 82104 10170 20150 30163 40174 51008 60006 888// 90900=
07761,1996-04-24 12:00:00,17,1017.4,0,82,14,7000,7.408,,,300,,,,,,,,,,,wg-a,,,,AAXX 24124 07761 12357 83004 10170 20140 30163 40174 50000 60006 888// 91200=
07761,1996-04-24 15:00:00,16,1016.9,-0.5,88,14,7000,11.112,,,250,,,,1,,,,,,21,wg-a,,,,AAXX 24154 07761 12457 82506 10160 20140 30158 40169 55005 60017 72162 888// 91500=
07761,1996-04-24 18:00:00,15,1016.7,-0.2,94,14,500,14.816,,,210,15.2,17.8,,2,,,,,,61,wg-a,,,,AAXX 24184 07761 12300 82108 10150 20140 30156 40167 55002 60027 76162 888// 91800 333 10178 20152=
07761,1996-04-24 21:00:00,15,1018,1.3,94,14,3000,7.408,,,50,,,,2,,,,,,61,wg-a,,,,AAXX 24214 07761 12330 80504 10150 20140 30169 40180 51013 60027 76162 888// 92100=
07761,1996-04-25 00:00:00,15,1017,-1,94,14,8000,7.408,,,230,,,,2,,,,,,21,wg-a,,,,AAXX 25004 07761 02358 82304 10150 20140 30159 40170 55010 60046 72162 8587/ 90000 333 60027=
07761,1996-04-25 03:00:00,14,1016.1,-0.9,100,14,8000,7.408,,,80,,,,0,,,,,,21,wg-a,,,,AAXX 25034 07761 12358 80804 10140 20140 30150 40161 58009 60007 72162 888// 90300=
07761,1996-04-25 06:00:00,14,1017.4,1.3,94,13,2500,11.112,,,70,13.9,15.3,,4,,,11,,,10,wg-a,,,,AAXX 25064 07761 02125 80706 10140 20130 30163 40174 53013 60114 71062 887// 90600 333 10153 20139 60047=
07761,1996-04-25 09:00:00,15,1017.4,-0,94,14,6000,3.704,,,150,,,,4,,,,,,61,wg-a,,,,AAXX 25094 07761 12156 81502 10150 20140 30163 40174 55000 60047 76166 887// 90900=
07761,1996-04-25 12:00:00,15,1016.6,-0.8,94,14,8000,14.816,,,230,,,,1,,,,,,61,wg-a,,,,AAXX 25124 07761 02158 82308 10150 20140 30155 40166 58008 60056 76162 877// 91200 333 60017=
07761,1996-04-25 15:00:00,17,1015.6,-1,82,14,18000,7.408,,,220,,,,0,,,,,,1,wg-a,,,,AAXX 25154 07761 12468 72204 10170 20140 30145 40156 58010 60007 70162 82872 91500=
07761,1996-04-25 18:00:00,16,1015.6,-0,88,14,18000,7.408,,,200,14,17.4,,,,,,,,1,wg-a,,,,AAXX 25184 07761 32468 72004 10160 20140 30145 40156 55000 70162 81772 91800 333 10174 20140=
07761,1996-04-25 21:00:00,15,1016,0.4,94,14,12000,3.704,,,20,,,,,,,,,,60,wg-a,,,,AAXX 25214 07761 02462 80202 10150 20140 30149 40160 50004 61000 76062 8357/ 92100 333 ////=
07761,1996-04-26 00:00:00,15,1014.8,-1.2,94,14,14000,7.408,,,90,,,,0,,,,,,21,wg-a,,,,AAXX 26004 07761 02564 80904 10150 20140 30137 40148 58012 60016 72162 8357/ 90000 333 60007=
07761,1996-04-26 03:00:00,15,1013.3,-1.5,88,13,17000,7.408,,,50,,,,0,,,,,,3,wg-a,,,,AAXX 26034 07761 12667 80504 10150 20130 30122 40133 56015 60007 70362 8357/ 90300=
07761,1996-04-26 06:00:00,14,1014.3,1,94,13,9000,7.408,,,40,14.3,15.7,,4,,,10,,,61,wg-a,,,,AAXX 26064 07761 02559 80404 10140 20130 30132 40143 51010 60104 76162 8557/ 90600 333 10157 20143 60047=
07761,1996-04-26 09:00:00,16,1013.8,-0.5,88,14,20000,7.408,,,210,,,,1,,,,,,2,wg-a,,,,AAXX 26094 07761 12770 82104 10160 20140 30127 40138 55005 60017 70262 8117/ 90900=
07761,1996-04-26 12:00:00,19,1012.2,-1.6,68,13,15000,3.704,,,210,,,,,,,,,,1,wg-a,,,,AAXX 26124 07761 02565 82102 10190 20130 30111 40122 58016 60016 70162 8287/ 91200 333 61000=
07761,1996-04-26 15:00:00,18,1011.2,-1,83,15,15000,18.52,,,200,,,,,,,,,,,wg-a,,,,AAXX 26154 07761 12665 82010 10180 20150 30101 40112 56010 60006 8387/ 91500=
07761,1996-04-26 18:00:00,16,1010.5,-0.7,82,13,15000,0,,,0,14.3,19.4,,,,,,,,,wg-a,,,,AAXX 26184 07761 32765 80000 10160 20130 30094 40105 55007 81572 91800 333 10194 20143=
07761,1996-04-26 21:00:00,14,1011.3,0.8,88,12,15000,3.704,,,80,,,,,,,,,,,wg-a,,,,AAXX 26214 07761 12665 80802 10140 20120 30102 40113 52008 60006 81572 92100=
07761,1996-04-27 00:00:00,14,1009.9,-1.4,82,11,15000,11.112,,,80,,,,,,,,,,,wg-a,,,,AAXX 27004 07761 12665 70806 10140 20110 30088 40099 58014 60006 83572 90000=
07761,1996-04-27 03:00:00,14,1008.5,-1.4,77,10,15000,7.408,,,60,,,,,,,,,,,wg-a,,,,AAXX 27034 07761 12765 70604 10140 20100 30074 40085 56014 60006 83572 90300=
07761,1996-04-27 06:00:00,14,1007.9,-0.6,77,10,18000,3.704,,,30,12.7,16.3,,,,,1,,,,wg-a,,,,AAXX 27064 07761 02768 70302 10140 20100 30068 40079 55006 60006 81572 90600 333 10163 20127 60014=
07761,1996-04-27 09:00:00,15,1008.5,0.6,82,12,18000,3.704,,,190,,,,0,,,,,,60,wg-a,,,,AAXX 27094 07761 12668 81902 10150 20120 30074 40085 53006 60007 76062 8287/ 90900=
07761,1996-04-27 12:00:00,14,1008.8,0.3,94,13,8000,11.112,,,200,,,,2,,,,,,61,wg-a,,,,AAXX 27124 07761 02558 82006 10140 20130 30077 40088 51003 60026 76162 8487/ 91200 333 60027=
07761,1996-04-27 15:00:00,14,1008.3,-0.5,94,13,8000,7.408,,,230,,,,6,,,,,,60,wg-a,,,,AAXX 27154 07761 12358 82304 10140 20130 30072 40083 56005 60067 76066 8487/ 91500=
07761,1996-04-27 18:00:00,14,1008.5,0.2,94,13,12000,7.408,,,180,13.5,15.7,,0,,,,,,1,wg-a,,,,AAXX 27184 07761 12362 71804 10140 20130 30074 40085 53002 60007 70162 8457/ 91800 333 10157 20135=
07761,1996-04-27 21:00:00,14,1009.3,0.8,94,13,12000,7.408,,,40,,,,,,,,,,21,wg-a,,,,AAXX 27214 07761 02362 80404 10140 20130 30082 40093 51008 61000 72162 8157/ 92100 333 ////=
07761,1996-04-28 00:00:00,13,1008.3,-1,100,13,12000,7.408,,,40,,,,,,,,,,2,wg-a,,,,AAXX 28004 07761 02762 80404 10130 20130 30072 40083 58010 61000 70262 8157/ 90000 333 ////=
07761,1996-04-28 03:00:00,13,1007.4,-0.9,100,13,12000,3.704,,,270,,,,,,,,,,,wg-a,,,,AAXX 28034 07761 12562 82702 10130 20130 30063 40074 55009 60006 8357/ 90300=
07761,1996-04-28 06:00:00,14,1007.4,0,94,13,17000,3.704,,,80,13.1,14.1,,,,,8,,,21,wg-a,,,,AAXX 28064 07761 02567 80802 10140 20130 30063 40074 50000 60084 72162 8587/ 90600 333 10141 20131 61000=
07761,1996-04-28 09:00:00,16,1007.5,0.1,82,13,17000,3.704,,,240,,,,0,,,,,,60,wg-a,,,,AAXX 28094 07761 12567 82402 10160 20130 30064 40075 53001 60007 76062 8587/ 90900=
07761,1996-04-28 12:00:00,17,1006.7,-0.8,77,13,20000,3.704,,,210,,,,0,,,,,,21,wg-a,,,,AAXX 28124 07761 02470 82102 10170 20130 30056 40067 58008 60016 72162 8187/ 91200 333 60007=
07761,1996-04-28 15:00:00,17,1005.9,-0.8,82,14,16000,11.112,,,200,,,,,,,,,,3,wg-a,,,,AAXX 28154 07761 02466 82006 10170 20140 30048 40059 57008 61000 70362 8587/ 91500 333 ////=
07761,1996-04-28 18:00:00,15,1006.5,0.6,88,13,6000,11.112,,,270,13.6,17.3,,1,,,,,,61,wg-a,,,,AAXX 28184 07761 12356 82706 10150 20130 30054 40065 53006 60017 76162 878// 91800 333 10173 20136=
07761,1996-04-28 21:00:00,14,1006.7,0.2,94,13,10000,7.408,,,70,,,,0,,,,,,1,wg-a,,,,AAXX 28214 07761 12360 80704 10140 20130 30056 40067 50002 60007 70165 875// 92100=
07761,1996-04-29 00:00:00,14,1006.5,-0.2,94,13,10000,3.704,,,100,,,,,,,,,,1,wg-a,,,,AAXX 29004 07761 12460 81002 10140 20130 30054 40065 57002 60016 70165 875// 90000=
07761,1996-04-29 03:00:00,13,1005.2,-1.3,94,12,12000,3.704,,,60,,,,,,,,,,,wg-a,,,,AAXX 29034 07761 12662 /0602 10130 20120 30041 40052 56013 60006 84500 90300=
07761,1996-04-29 06:00:00,12,1005.2,-0,100,12,12000,3.704,,,40,11.2,14.8,,,,,2,,,,wg-a,,,,AAXX 29064 07761 12262 /0402 10120 20120 30041 40052 55000 60024 86800 90600 333 10148 20112=
07761,1996-04-29 09:00:00,15,1005.9,0.7,88,13,15000,7.408,,,270,,,,,,,,,,,wg-a,,,,AAXX 29094 07761 12465 82704 10150 20130 30048 40059 53007 60006 875// 90900=
07761,1996-04-29 12:00:00,16,1005.4,-0.5,88,14,12000,3.704,,,260,,,,,,,,,,21,wg-a,,,,AAXX 29124 07761 02562 82602 10160 20140 30043 40054 58005 61000 72161 878// 91200 333 6100=
07761,1996-04-29 15:00:00,17,1003.6,-1.8,68,11,15000,3.704,,,220,,,,,,,,,,21,wg-a,,,,AAXX 29154 07761 02565 /2202 10170 20110 30025 40036 58018 61000 72162 83802 91500 333 ////=
07761,1996-04-29 18:00:00,16,1004,0.4,77,12,17000,3.704,,,240,12.4,17.5,,,,,,,,3,wg-a,,,,AAXX 29184 07761 32567 72402 10160 20120 30029 40040 53004 70362 83832 91800 333 10175 20124=
07761,1996-04-29 21:00:00,13,1005.1,1.1,94,12,20000,7.408,,,50,,,,,,,,,,,wg-a,,,,AAXX 29214 07761 12570 20504 10130 20120 30040 40051 51011 60006 81530 92100=
07761,1996-04-30 00:00:00,12,1004.5,-0.6,94,11,14000,7.408,,,50,,,,,,,,,,,wg-a,,,,AAXX 30004 07761 12664 70504 10120 20110 30034 40045 58006 60006 82572 90000=
07761,1996-04-30 03:00:00,11,1003,-1.5,94,10,15000,7.408,,,50,,,,0,,,,,,1,wg-a,,,,AAXX 30034 07761 12/65 40504 10110 20100 30019 40030 56015 60007 70161 80002 90300=
07761,1996-04-30 06:00:00,11,1002.7,-0.3,94,10,15000,7.408,,,40,10.2,15.6,,,,,,,,2,wg-a,,,,AAXX 30064 07761 12465 30404 10110 20100 30016 40027 55003 60004 70261 81131 90600 333 10156 20102=
07761,1996-04-30 09:00:00,16,1002.9,0.2,82,13,15000,7.408,,,220,,,,,,,,,,,wg-a,,,,AAXX 30094 07761 12565 62204 10160 20130 30018 40029 51002 60006 84831 90900=
07761,1996-04-30 12:00:00,18,1002.1,-0.8,73,13,15000,14.816,,,200,,,,,,,,,,,wg-a,,,,AAXX 30124 07761 12565 /2008 10180 20130 30010 40021 58008 60006 85272 91200=
07761,1996-04-30 15:00:00,18,1001.6,-0.5,64,11,20000,18.52,,,330,,,,,,,,,,,wg-a,,,,AAXX 30154 07761 12570 33310 10180 20110 30005 40016 56005 60006 82302 91500=
07761,1996-04-30 18:00:00,16,1002.7,1.1,72,11,20000,7.408,,,330,11,19.3,,,,,,,,,wg-a,,,,AAXX 30184 07761 12570 33304 10160 20110 30016 40027 53011 60006 82302 91800 333 10193 20110=
07761,1996-04-30 21:00:00,14,1004,1.3,88,12,20000,3.704,,,70,,,,,,,,,,,wg-a,,,,AAXX 30214 07761 12570 70702 10140 20120 30029 40040 51013 60006 878// 92100=
07761,1996-05-01 00:00:00,13,1004.4,0.4,88,11,20000,7.408,,,30,,,,,,,,,,,wg-a,,,,AAXX 01004 07761 12470 70304 10130 20110 30033 40044 52004 60006 8683/ 90000=
07761,1996-05-01 03:00:00,13,1004.7,0.3,88,11,15000,7.408,,,50,,,,0,,,,,,21,wg-a,,,,AAXX 01034 07761 12465 70504 10130 20110 30036 40047 53003 60007 72162 878// 90300=
07761,1996-05-01 06:00:00,13,1005.4,0.7,94,12,9000,11.112,,,40,12.5,15.5,,0,,,1,,,21,wg-a,,,,AAXX 01064 07761 02359 70406 10130 20120 30043 40054 53007 60014 72162 878// 90600 333 10155 20125 60007=
07761,1996-05-01 09:00:00,16,1006.4,1,77,12,12000,3.704,,,240,,,,,,,,,,,wg-a,,,,AAXX 01094 07761 12562 72402 10160 20120 30053 40064 53010 60006 878// 90900=
07761,1996-05-01 12:00:00,18,1006.7,0.3,68,12,20000,18.52,,,230,,,,,,,,,,,wg-a,,,,AAXX 01124 07761 12670 32310 10180 20120 30056 40067 51003 60006 82241 91200=
07761,1996-05-01 15:00:00,17,1006.5,-0.2,77,13,20000,18.52,,,230,,,,,,,,,,,wg-a,,,,AAXX 01154 07761 12570 62310 10170 20130 30054 40065 57002 60006 84830 91500=
07761,1996-05-01 18:00:00,16,1006.2,-0.3,88,14,10000,14.816,,,180,13,18.7,,,,,,,,21,wg-a,,,,AAXX 01184 07761 02460 71808 10160 20140 30051 40062 58003 61000 72186 878// 91800 333 10187 20130 ////=
07761,1996-05-01 21:00:00,16,1006.3,0.1,88,14,9000,25.928,,,200,,,,0,,,,,,17,wg-a,,,,AAXX 01214 07761 12459 82014 10160 20140 30052 40063 51001 60007 71798 8597/ 92100=
07761,1996-05-02 00:00:00,16,1006.7,0.4,82,13,10000,22.224,,,200,,,,,,,,,,1,wg-a,,,,AAXX 02004 07761 12460 82012 10160 20130 30056 40067 51004 60016 70198 8597/ 90000=
07761,1996-05-02 03:00:00,13,1006.5,-0.2,88,11,10000,7.408,,,90,,,,,,,,,,,wg-a,,,,AAXX 02034 07761 12460 50904 10130 20110 30054 40065 55002 60006 82270 90300=
07761,1996-05-02 06:00:00,15,1006.5,-0,77,11,15000,14.816,,,70,12.8,16.3,,,,,,,,,wg-a,,,,AAXX 02064 07761 12565 /0708 10150 20110 30054 40065 55000 60004 83230 90600 333 10163 20128=
07761,1996-05-02 09:00:00,18,1007.5,1,77,14,12000,22.224,,,190,,,,,,,,,,,wg-a,,,,AAXX 02094 07761 12462 71912 10180 20140 30064 40075 53010 60006 8537/ 90900=
07761,1996-05-02 12:00:00,17,1007.4,-0.1,82,14,12000,14.816,,,210,,,,,,,,,,21,wg-a,,,,AAXX 02124 07761 02562 82108 10170 20140 30063 40074 58001 61000 72161 873// 91200 333 6100=
07761,1996-05-02 15:00:00,17,1005.4,-2,88,15,12000,18.52,,,220,,,,1,,,,,,21,wg-a,,,,AAXX 02154 07761 12462 /2210 10170 20150 30043 40054 58020 60017 72162 83970 91500=
07761,1996-05-02 18:00:00,16,1004.9,-0.5,88,14,10000,14.816,,,200,15,18.4,,,,,,,,60,wg-a,,,,AAXX 02184 07761 02460 72008 10160 20140 30038 40049 58005 61000 76062 8337/ 91800 333 10184 20150 ////=
07761,1996-05-02 21:00:00,15,1005.5,0.6,88,13,10000,3.704,,,150,,,,0,,,,,,25,wg-a,,,,AAXX 02214 07761 12460 71502 10150 20130 30044 40055 50006 60007 72586 8697/ 92100=
07761,1996-05-03 00:00:00,15,1005.2,-0.3,88,13,10000,22.224,,,200,,,,,,,,,,3,wg-a,,,,AAXX 03004 07761 12460 62012 10150 20130 30041 40052 58003 60016 70386 85270 90000=
07761,1996-05-03 03:00:00,12,1005.4,0.2,88,10,10000,7.408,,,160,,,,3,,,,,,80,wg-a,,,,AAXX 03034 07761 12460 81604 10120 20100 30043 40054 53002 60037 78096 8797/ 90300=
07761,1996-05-03 06:00:00,12,1006.7,1.3,82,9,40000,7.408,,,40,10.7,15.9,,2,,,6,,,1,wg-a,,,,AAXX 03064 07761 02582 30404 10120 20090 30056 40067 53013 60064 70196 83870 90600 333 10159 20107 60027=
07761,1996-05-03 09:00:00,16,1008.2,1.5,59,8,40000,7.408,,,210,,,,,,,,,,,wg-a,,,,AAXX 03094 07761 12682 22104 10160 20080 30071 40082 52015 60006 82201 90900=
07761,1996-05-03 12:00:00,17,1008.7,0.5,68,11,50000,18.52,,,210,,,,,,,,,,,wg-a,,,,AAXX 03124 07761 12684 42110 10170 20110 30076 40087 52005 60006 82201 91200=
07761,1996-05-03 15:00:00,17,1009.5,0.8,72,12,40000,14.816,,,220,,,,,,,,,,,wg-a,,,,AAXX 03154 07761 12682 72208 10170 20120 30084 40095 53008 60006 81208 91500=
07761,1996-05-03 18:00:00,15,1010.6,1.1,72,10,40000,3.704,,,120,11.7,17.8,,,,,,,,,wg-a,,,,AAXX 03184 07761 12682 /1202 10150 20100 30095 40106 51011 60006 81402 91800 333 10178 20117=
07761,1996-05-03 21:00:00,11,1010.9,0.3,82,8,500,11.112,,,40,,,,,,,,,,,wg-a,,,,AAXX 03214 07761 12/00 30406 10110 20080 30098 40109 50003 60006 80002 92100=
07761,1996-05-04 00:00:00,8,1011.1,0.2,81,5,500,11.112,,,40,,,,,,,,,,,wg-a,,,,AAXX 04004 07761 12/00 30406 10080 20050 30100 40111 53002 60006 82032 90000=
07761,1996-05-04 03:00:00,8,1011.1,-0,81,5,25000,11.112,,,60,,,,,,,,,,,wg-a,,,,AAXX 04034 07761 12/75 40606 10080 20050 30100 40111 55000 60006 84030 90300=
07761,1996-05-04 06:00:00,11,1012.1,1,71,6,50000,14.816,,,40,7.7,15.2,,,,,,,,,wg-a,,,,AAXX 04064 07761 02784 /0408 10110 20060 30110 40121 52010 60006 81530 90600 333 10152 20077 60004=
07761,1996-05-04 09:00:00,18,1012.7,0.6,52,8,50000,11.112,,,230,,,,,,,,,,,wg-a,,,,AAXX 04094 07761 12784 62306 10180 20080 30116 40127 53006 60006 81150 90900=
07761,1996-05-04 12:00:00,18,1013.5,0.8,68,12,50000,18.52,,,230,,,,,,,,,,,wg-a,,,,AAXX 04124 07761 12684 42310 10180 20120 30124 40135 51008 60006 82830 91200=
07761,1996-05-04 15:00:00,18,1013,-0.5,49,7,50000,3.704,,,220,,,,,,,,,,2,wg-a,,,,AAXX 04154 07761 02684 72202 10180 20070 30119 40130 58005 61000 70261 8127/ 91500 333 ////=
07761,1996-05-04 18:00:00,17,1013.9,0.9,68,11,50000,7.408,,,220,11.4,18.6,,,,,,,,3,wg-a,,,,AAXX 04184 07761 02684 82204 10170 20110 30128 40139 53009 61000 70361 8657/ 91800 333 10186 20114 ////=
07761,1996-05-04 21:00:00,16,1014.4,0.5,72,11,20000,3.704,,,60,,,,,,,,,,,wg-a,,,,AAXX 04214 07761 12670 80602 10160 20110 30133 40144 51005 60006 8657/ 92100=
07761,1996-05-05 00:00:00,15,1014.2,-0.2,82,12,20000,7.408,,,40,,,,,,,,,,,wg-a,,,,AAXX 05004 07761 12670 80404 10150 20120 30131 40142 57002 60006 8657/ 90000=
07761,1996-05-05 03:00:00,14,1012.9,-1.3,88,12,20000,7.408,,,40,,,,,,,,,,3,wg-a,,,,AAXX 05034 07761 02670 70404 10140 20120 30118 40129 56013 61000 70362 8657/ 90300 333 ////=
07761,1996-05-05 06:00:00,15,1013.4,0.5,82,12,500,7.408,,,50,14.1,16.5,,,,,,,,1,wg-a,,,,AAXX 05064 07761 02800 70504 10150 20120 30123 40134 51005 61000 70162 8707/ 90600 333 10165 20141 ////=
07761,1996-05-05 09:00:00,18,1013.7,0.3,77,14,50000,3.704,,,220,,,,,,,,,,,wg-a,,,,AAXX 05094 07761 12584 72202 10180 20140 30126 40137 51003 60006 8127/ 90900=
07761,1996-05-05 12:00:00,19,1013.3,-0.4,73,14,25000,11.112,,,230,,,,,,,,,,,wg-a,,,,AAXX 05124 07761 12575 72306 10190 20140 30122 40133 58004 60006 8387/ 91200=
07761,1996-05-05 15:00:00,18,1012.7,-0.6,77,14,25000,7.408,,,200,,,,,,,,,,60,wg-a,,,,AAXX 05154 07761 02575 72004 10180 20140 30116 40127 56006 61000 76062 8287/ 91500 333 ////=
07761,1996-05-05 18:00:00,17,1012.3,-0.4,72,12,25000,7.408,,,310,14.9,19.1,,,,,,,,1,wg-a,,,,AAXX 05184 07761 02675 /3104 10170 20120 30112 40123 56004 61000 70162 81570 91800 333 10191 20149 ////=
07761,1996-05-05 21:00:00,14,1013.1,0.8,88,12,20000,11.112,,,50,,,,,,,,,,,wg-a,,,,AAXX 05214 07761 12/70 40506 10140 20120 30120 40131 53008 60006 84070 92100=
07761,1996-05-06 00:00:00,14,1013,-0.1,88,12,18000,3.704,,,30,,,,,,,,,,,wg-a,,,,AAXX 06004 07761 12768 /0302 10140 20120 30119 40130 58001 60006 81530 90000=
07761,1996-05-06 03:00:00,11,1012.2,-0.8,94,10,18000,11.112,,,50,,,,,,,,,,,wg-a,,,,AAXX 06034 07761 12568 30506 10110 20100 30111 40122 58008 60006 81530 90300=
07761,1996-05-06 06:00:00,13,1012.5,0.3,88,11,40000,11.112,,,50,10.5,17,,,,,,,,,wg-a,,,,AAXX 06064 07761 02582 /0506 10130 20110 30114 40125 53003 60006 81530 90600 333 10170 20105 61000=
07761,1996-05-06 09:00:00,19,1012.3,-0.2,73,14,50000,14.816,,,240,,,,,,,,,,,wg-a,,,,AAXX 06094 07761 12584 /2408 10190 20140 30112 40123 57002 60006 81200 90900=
07761,1996-05-06 12:00:00,21,1011.3,-0.9,64,14,50000,18.52,,,220,,,,,,,,,,,wg-a,,,,AAXX 06124 07761 12684 /2210 10210 20140 30103 40113 56009 60006 81200 91200=
07761,1996-05-06 15:00:00,19,1011.4,0,78,15,50000,18.52,,,200,,,,,,,,,,,wg-a,,,,AAXX 06154 07761 12684 22010 10190 20150 30103 40114 50000 60006 82200 91500=
07761,1996-05-06 18:00:00,19,1010.7,-0.7,78,15,500,3.704,,,220,13.2,21.4,,,,,,,,,wg-a,,,,AAXX 06184 07761 12600 /2202 10190 20150 30096 40107 55007 60006 81800 91800 333 10214 20132=
07761,1996-05-06 21:00:00,15,1010.7,0,82,12,20000,14.816,,,50,,,,,,,,,,,wg-a,,,,AAXX 06214 07761 12/70 00508 10150 20120 30096 40107 50000 60006 80000 92100=
07761,1996-05-07 00:00:00,13,1010.7,-0,88,11,20000,11.112,,,50,,,,,,,,,,,wg-a,,,,AAXX 07004 07761 12/70 00506 10130 20110 30096 40107 54000 60006 80000 90000=
07761,1996-05-07 03:00:00,11,1010.2,-0.5,94,10,20000,11.112,,,60,,,,,,,,,,,wg-a,,,,AAXX 07034 07761 12/70 00606 10110 20100 30091 40102 56005 60006 80000 90300=
07761,1996-05-07 06:00:00,14,1010.6,0.4,88,12,35000,14.816,,,50,10.6,19,,,,,,,,,wg-a,,,,AAXX 07064 07761 02/81 70508 10140 20120 30095 40106 50004 60006 83032 90600 333 10190 20106 60004=
07761,1996-05-07 09:00:00,18,1011.6,1,77,14,35000,3.704,,,270,,,,,,,,,,,wg-a,,,,AAXX 07094 07761 12581 82702 10180 20140 30105 40116 52010 60006 81577 90900=
07761,1996-05-07 12:00:00,21,1011.2,-0.4,60,13,35000,18.52,,,250,,,,,,,,,,,wg-a,,,,AAXX 07124 07761 12581 /2510 10210 20130 30101 40112 56004 60006 81178 91200=
07761,1996-05-07 15:00:00,20,1010.8,-0.4,73,15,35000,11.112,,,220,,,,,,,,,,,wg-a,,,,AAXX 07154 07761 12681 42206 10200 20150 30097 40108 58004 60006 81132 91500=
07761,1996-05-07 18:00:00,17,1012.3,1.5,88,15,25000,3.704,,,200,14.4,21,,,,,,,,,wg-a,,,,AAXX 07184 07761 12575 72002 10170 20150 30112 40123 51015 60006 84832 91800 333 10210 20144=
07761,1996-05-07 21:00:00,16,1012.2,-0.1,88,14,20000,7.408,,,50,,,,,,,,,,,wg-a,,,,AAXX 07214 07761 12670 /0504 10160 20140 30111 40122 56001 60006 82832 92100=
07761,1996-05-08 00:00:00,15,1012.7,0.5,94,14,15000,7.408,,,40,,,,2,,,,,,61,wg-a,,,,AAXX 08004 07761 02465 70404 10150 20140 30116 40127 53005 60026 76162 8487/ 90000 333 60027=
07761,1996-05-08 03:00:00,15,1012.5,-0.2,94,14,15000,11.112,,,70,,,,0,,,,,,60,wg-a,,,,AAXX 08034 07761 12465 70706 10150 20140 30114 40125 58002 60007 76062 8587/ 90300=
07761,1996-05-08 06:00:00,15,1013.2,0.7,94,14,20000,3.704,,,110,14.4,17.4,,,,,2,,,60,wg-a,,,,AAXX 08064 07761 02670 71102 10150 20140 30121 40132 53007 60024 76062 86832 90600 333 10174 20144 61000=
07761,1996-05-08 09:00:00,17,1013.7,0.5,88,15,12000,7.408,,,250,,,,1,,,,,,60,wg-a,,,,AAXX 08094 07761 12462 72504 10170 20150 30126 40137 53005 60017 76062 8683/ 90900=
07761,1996-05-08 12:00:00,20,1012.9,-0.8,78,16,25000,14.816,,,220,,,,0,,,,,,1,wg-a,,,,AAXX 08124 07761 02475 42208 10200 20160 30118 40129 57008 60016 70186 83230 91200 333 60007=
07761,1996-05-08 15:00:00,21,1011.3,-1.5,78,17,25000,18.52,,,240,,,,,,,,,,,wg-a,,,,AAXX 08154 07761 12575 62410 10210 20170 30103 40113 56015 60006 83330 91500=
07761,1996-05-08 18:00:00,18,1011.2,-0.2,88,16,25000,7.408,,,200,14.8,20.8,,0,,,,,,1,wg-a,,,,AAXX 08184 07761 12575 62004 10180 20160 30101 40112 55002 60007 70186 83830 91800 333 10208 20148=
07761,1996-05-08 21:00:00,15,1010.9,-0.3,94,14,15000,7.408,,,40,,,,,,,,,,,wg-a,,,,AAXX 08214 07761 12565 20404 10150 20140 30098 40109 58003 60006 81830 92100=
07761,1996-05-09 00:00:00,13,1009.4,-1.5,94,12,15000,7.408,,,50,,,,,,,,,,,wg-a,,,,AAXX 09004 07761 12765 /0504 10130 20120 30083 40094 58015 60006 81500 90000=
07761,1996-05-09 03:00:00,13,1008.4,-1,88,11,20000,7.408,,,40,,,,,,,,,,,wg-a,,,,AAXX 09034 07761 12570 30404 10130 20110 30073 40084 56010 60006 83800 90300=
07761,1996-05-09 06:00:00,14,1008,-0.4,94,13,15000,7.408,,,30,12.3,18.1,,,,,1,,,21,wg-a,,,,AAXX 09064 07761 02565 70304 10140 20130 30069 40080 58004 60014 72161 83802 90600 333 10181 20123 61000=
07761,1996-05-09 09:00:00,20,1007.7,-0.2,73,15,12000,11.112,,,230,,,,,,,,,,17,wg-a,,,,AAXX 09094 07761 12562 42306 10200 20150 30067 40077 56002 60006 71791 84900 90900=
07761,1996-05-09 12:00:00,20,1006.6,-1.1,78,16,25000,22.224,,,230,,,,,,,,,,1,wg-a,,,,AAXX 09124 07761 12575 22312 10200 20160 30056 40066 56011 60006 70191 82800 91200=
07761,1996-05-09 15:00:00,20,1006,-0.6,78,16,25000,22.224,,,220,,,,,,,,,,,wg-a,,,,AAXX 09154 07761 12575 22212 10200 20160 30050 40060 58006 60006 82200 91500=
07761,1996-05-09 18:00:00,17,1006.5,0.4,82,14,20000,11.112,,,200,14.2,20.3,,,,,,,,,wg-a,,,,AAXX 09184 07761 12570 32006 10170 20140 30054 40065 52004 60006 83800 91800 333 10203 20142=
07761,1996-05-09 21:00:00,15,1006.8,0.3,88,13,20000,7.408,,,50,,,,,,,,,,,wg-a,,,,AAXX 09214 07761 12470 /0504 10150 20130 30057 40068 50003 60006 81430 92100=
07761,1996-05-10 00:00:00,14,1006,-0.8,88,12,20000,7.408,,,70,,,,,,,,,,,wg-a,,,,AAXX 10004 07761 12470 40704 10140 20120 30049 40060 58008 60006 84200 90000=
07761,1996-05-10 03:00:00,13,1004.9,-1.1,94,12,20000,11.112,,,40,,,,,,,,,,,wg-a,,,,AAXX 10034 07761 12470 50406 10130 20120 30038 40049 58011 60006 85830 90300=
07761,1996-05-10 06:00:00,15,1004.7,-0.2,82,12,20000,11.112,,,40,12.2,17.3,,,,,,,,,wg-a,,,,AAXX 10064 07761 02570 20406 10150 20120 30036 40047 58002 60006 81801 90600 333 10173 20122 60004=
07761,1996-05-10 09:00:00,19,1004.5,-0.1,73,14,25000,18.52,,,240,,,,,,,,,,,wg-a,,,,AAXX 10094 07761 12575 /2410 10190 20140 30035 40045 55001 60006 81202 90900=
07761,1996-05-10 12:00:00,19,1004.3,-0.2,73,14,25000,18.52,,,220,,,,,,,,,,,wg-a,,,,AAXX 10124 07761 12575 /2210 10190 20140 30033 40043 58002 60006 82202 91200=
07761,1996-05-10 15:00:00,19,1003.4,-0.9,64,12,25000,11.112,,,220,,,,,,,,,,,wg-a,,,,AAXX 10154 07761 12675 72206 10190 20120 30024 40034 56009 60006 82802 91500=
07761,1996-05-10 18:00:00,18,1003.4,-0.1,73,13,25000,3.704,,,200,14.7,20,,,,,,,,,wg-a,,,,AAXX 10184 07761 12575 72002 10180 20130 30023 40034 55001 60006 81832 91800 333 10200 20147=
07761,1996-05-10 21:00:00,15,1004.5,1.1,82,12,25000,11.112,,,50,,,,,,,,,,,wg-a,,,,AAXX 10214 07761 12/75 30506 10150 20120 30034 40045 51011 60006 81032 92100=
07761,1996-05-11 00:00:00,14,1004.4,-0.1,88,12,20000,11.112,,,40,,,,,,,,,,,wg-a,,,,AAXX 11004 07761 12/70 70406 10140 20120 30033 40044 58001 60006 84072 90000=
07761,1996-05-11 03:00:00,13,1003.3,-1.1,94,12,20000,11.112,,,60,,,,,,,,,,,wg-a,,,,AAXX 11034 07761 12/70 /0606 10130 20120 30022 40033 56011 60006 83072 90300=
07761,1996-05-11 06:00:00,14,1003.4,0.1,88,12,40000,7.408,,,70,13.2,18.1,,,,,,,,,wg-a,,,,AAXX 11064 07761 02682 70704 10140 20120 30023 40034 53001 60006 8111/ 90600 333 10181 20132 60004=
07761,1996-05-11 09:00:00,18,1004.1,0.7,73,13,35000,7.408,,,260,,,,,,,,,,,wg-a,,,,AAXX 11094 07761 12581 72604 10180 20130 30030 40041 52007 60006 81278 90900=
07761,1996-05-11 12:00:00,20,1004.3,0.3,73,15,500,11.112,,,220,,,,,,,,,,,wg-a,,,,AAXX 11124 07761 12600 72206 10200 20150 30033 40043 51003 60006 82278 91200=
07761,1996-05-11 15:00:00,20,1004.9,0.6,73,15,18000,18.52,,,310,,,,,,,,,,,wg-a,,,,AAXX 11154 07761 12568 43110 10200 20150 30039 40049 53006 60006 82202 91500=
07761,1996-05-11 18:00:00,18,1006.6,1.6,77,14,20000,14.816,,,280,13.9,20.6,,,,,,,,,wg-a,,,,AAXX 11184 07761 12570 52808 10180 20140 30055 40066 53016 60006 85231 91800 333 10206 20139=
07761,1996-05-11 21:00:00,16,1008.2,1.6,82,13,15000,3.704,,,60,,,,,,,,,,,wg-a,,,,AAXX 11214 07761 12465 40602 10160 20130 30071 40082 52016 60006 84800 92100=
07761,1996-05-12 00:00:00,14,1007.7,-0.5,94,13,12000,7.408,,,40,,,,2,,,,,,80,wg-a,,,,AAXX 12004 07761 02562 50404 10140 20130 30066 40077 58005 60026 78096 85900 90000 333 60027=
07761,1996-05-12 03:00:00,12,1006.4,-1.3,94,11,12000,11.112,,,60,,,,0,,,,,,3,wg-a,,,,AAXX 12034 07761 12562 50606 10120 20110 30053 40064 56013 60007 70396 85900 90300=
07761,1996-05-12 06:00:00,13,1007.8,1.4,94,12,10000,11.112,,,60,11.6,17.9,,6,,,8,,,61,wg-a,,,,AAXX 12064 07761 02360 70606 10130 20120 30067 40078 51014 60084 76196 878// 90600 333 10179 20116 60067=
07761,1996-05-12 09:00:00,18,1007,-0.8,73,13,20000,7.408,,,240,,,,,,,,,,1,wg-a,,,,AAXX 12094 07761 02570 52404 10180 20130 30059 40070 58008 61000 70162 83232 90900 333 ////=
07761,1996-05-12 12:00:00,17,1007,-0,72,12,25000,31.484,,,220,,,,,,,,,,3,wg-a,,,,AAXX 12124 07761 02575 62217 10170 20120 30059 40070 55000 61000 70362 85232 91200 333 ////=
07761,1996-05-12 15:00:00,18,1006.4,-0.6,68,12,20000,18.52,,,230,,,,,,,,,,,wg-a,,,,AAXX 12154 07761 12470 62310 10180 20120 30053 40064 57006 60006 84232 91500=
07761,1996-05-12 18:00:00,16,1007.3,0.9,82,13,18000,3.704,,,130,13.2,18.8,,0,,,,,,60,wg-a,,,,AAXX 12184 07761 12468 71302 10160 20130 30062 40073 53009 60007 76062 8587/ 91800 333 10188 20132=
07761,1996-05-12 21:00:00,14,1007.9,0.6,88,12,18000,3.704,,,90,,,,,,,,,,21,wg-a,,,,AAXX 12214 07761 02568 50902 10140 20120 30068 40079 53006 61000 72162 84271 92100 333 ////=
07761,1996-05-13 00:00:00,13,1006.9,-1,88,11,18000,7.408,,,30,,,,,,,,,,1,wg-a,,,,AAXX 13004 07761 02568 60304 10130 20110 30058 40069 58010 61000 70162 84571 90000 333 ////=
07761,1996-05-13 03:00:00,12,1006.9,-0,94,11,18000,7.408,,,60,,,,,,,,,,,wg-a,,,,AAXX 13034 07761 12568 /0604 10120 20110 30058 40069 55000 60006 81501 90300=
07761,1996-05-13 06:00:00,13,1008.4,1.5,88,11,20000,11.112,,,50,11.1,15.8,,,,,,,,,wg-a,,,,AAXX 13064 07761 12570 60506 10130 20110 30073 40084 51015 60004 84570 90600 333 10158 20111=
07761,1996-05-13 09:00:00,18,1009.4,1,68,12,25000,7.408,,,240,,,,,,,,,,,wg-a,,,,AAXX 13094 07761 12575 72404 10180 20120 30083 40094 51010 60006 8227/ 90900=
07761,1996-05-13 12:00:00,18,1010.1,0.7,83,15,12000,11.112,,,210,,,,,,,,,,60,wg-a,,,,AAXX 13124 07761 02562 72106 10180 20150 30090 40101 51007 61000 76062 8383/ 91200 333 6100=
07761,1996-05-13 15:00:00,18,1010.4,0.3,77,14,12000,11.112,,,310,,,,0,,,,,,21,wg-a,,,,AAXX 13154 07761 12562 73106 10180 20140 30093 40104 51003 60007 72162 8383/ 91500=
07761,1996-05-13 18:00:00,17,1011.7,1.3,82,14,15000,7.408,,,330,13,19.2,,,,,,,,1,wg-a,,,,AAXX 13184 07761 32565 /3304 10170 20140 30106 40117 53013 70162 82270 91800 333 10192 20130=
07761,1996-05-13 21:00:00,14,1012.7,1,88,12,15000,7.408,,,60,,,,,,,,,,,wg-a,,,,AAXX 13214 07761 12565 40604 10140 20120 30116 40127 51010 60006 82870 92100=
07761,1996-05-14 00:00:00,14,1013,0.3,88,12,12000,11.112,,,30,,,,,,,,,,,wg-a,,,,AAXX 14004 07761 12462 80306 10140 20120 30119 40130 52003 60006 8657/ 90000=
07761,1996-05-14 03:00:00,13,1012.2,-0.8,88,11,15000,3.704,,,60,,,,,,,,,,,wg-a,,,,AAXX 14034 07761 12665 30602 10130 20110 30111 40122 57008 60006 81530 90300=
07761,1996-05-14 06:00:00,14,1011.8,-0.4,88,12,15000,11.112,,,60,10.9,16.7,,,,,,,,,wg-a,,,,AAXX 14064 07761 02665 /0606 10140 20120 30107 40118 56004 60006 81800 90600 333 10167 20109 60004=
07761,1996-05-14 09:00:00,19,1012.4,0.6,78,15,25000,14.816,,,220,,,,,,,,,,,wg-a,,,,AAXX 14094 07761 12575 32208 10190 20150 30113 40124 53006 60006 83230 90900=
07761,1996-05-14 12:00:00,19,1011.7,-0.7,78,15,18000,25.928,,,240,,,,,,,,,,,wg-a,,,,AAXX 14124 07761 12568 52414 10190 20150 30106 40117 58007 60006 83232 91200=
07761,1996-05-14 15:00:00,16,1012.1,0.4,77,12,20000,18.52,,,240,,,,,,,,,,,wg-a,,,,AAXX 14154 07761 12470 82410 10160 20120 30110 40121 53004 60006 874// 91500=
07761,1996-05-14 18:00:00,16,1011.6,-0.5,72,11,25000,7.408,,,230,13.9,19.4,,,,,,,,,wg-a,,,,AAXX 14184 07761 12575 82304 10160 20110 30105 40116 56005 60006 874// 91800 333 10194 20139=
07761,1996-05-14 21:00:00,15,1012,0.4,82,12,12000,3.704,,,140,,,,,,,,,,,wg-a,,,,AAXX 14214 07761 12462 81402 10150 20120 30109 40120 53004 60006 875// 92100=
07761,1996-05-15 00:00:00,15,1011.3,-0.7,82,12,12000,7.408,,,70,,,,,,,,,,,wg-a,,,,AAXX 15004 07761 12562 80704 10150 20120 30102 40113 58007 60006 875// 90000=
07761,1996-05-15 03:00:00,14,1010.8,-0.5,82,11,12000,3.704,,,90,,,,,,,,,,,wg-a,,,,AAXX 15034 07761 12662 70902 10140 20110 30097 40108 56005 60006 875// 90300=
07761,1996-05-15 06:00:00,14,1011.4,0.6,82,11,12000,3.704,,,110,13.4,15.5,,,,,,,,,wg-a,,,,AAXX 15064 07761 02662 71102 10140 20110 30103 40114 53006 60006 875// 90600 333 10155 20134 60004=
07761,1996-05-15 09:00:00,18,1011.8,0.4,64,11,18000,11.112,,,230,,,,,,,,,,,wg-a,,,,AAXX 15094 07761 12568 /2306 10180 20110 30107 40118 51004 60006 86800 90900=
07761,1996-05-15 12:00:00,19,1011.6,-0.2,73,14,18000,22.224,,,220,,,,,,,,,,,wg-a,,,,AAXX 15124 07761 12568 22212 10190 20140 30105 40116 57002 60006 82800 91200=
07761,1996-05-15 15:00:00,18,1011.5,-0.1,73,13,18000,14.816,,,220,,,,,,,,,,,wg-a,,,,AAXX 15154 07761 12668 62208 10180 20130 30104 40115 58001 60006 86800 91500=
07761,1996-05-15 18:00:00,17,1011.4,-0.1,77,13,18000,7.408,,,230,14.4,19.6,,,,,,,,,wg-a,,,,AAXX 15184 07761 12568 /2304 10170 20130 30103 40114 55001 60006 86800 91800 333 10196 20144=
07761,1996-05-15 21:00:00,15,1012.3,0.9,82,12,15000,7.408,,,60,,,,,,,,,,,wg-a,,,,AAXX 15214 07761 12465 60604 10150 20120 30112 40123 51009 60006 86500 92100=
07761,1996-05-16 00:00:00,12,1012.1,-0.2,94,11,20000,7.408,,,50,,,,,,,,,,,wg-a,,,,AAXX 16004 07761 12570 20504 10120 20110 30110 40121 58002 60006 82500 90000=
07761,1996-05-16 03:00:00,13,1012.9,0.8,88,11,20000,14.816,,,60,,,,,,,,,,,wg-a,,,,AAXX 16034 07761 12470 /0608 10130 20110 30118 40129 53008 60006 86600 90300=
07761,1996-05-16 06:00:00,15,1013.2,0.3,77,11,20000,7.408,,,50,11.2,16.7,,,,,,,,,wg-a,,,,AAXX 16064 07761 02/70 00504 10150 20110 30121 40132 53003 60006 80000 90600 333 10167 20112 60004=
07761,1996-05-16 09:00:00,19,1014,0.8,73,14,20000,14.816,,,230,,,,,,,,,,,wg-a,,,,AAXX 16094 07761 12670 /2308 10190 20140 30129 40140 51008 60006 81100 90900=
07761,1996-05-16 15:00:00,21,1013.3,-0.4,56,12,25000,14.816,,,200,,,,,,,,,,,wg-a,,,,AAXX 16154 07761 12675 /2008 10210 20120 30122 40133 58004 60006 81100 91500=
07761,1996-05-16 18:00:00,19,1013.5,0.2,64,12,25000,11.112,,,190,14.6,20.9,,,,,,,,,wg-a,,,,AAXX 16184 07761 12/75 01906 10190 20120 30124 40135 53002 60006 80000 91800 333 10209 20146=
07761,1996-05-16 21:00:00,14,1014.2,0.7,82,11,20000,11.112,,,50,,,,,,,,,,,wg-a,,,,AAXX 16214 07761 12/70 00506 10140 20110 30131 40142 52007 60006 80000 92100=
07761,1996-05-17 00:00:00,13,1012.9,-1.3,82,10,20000,11.112,,,70,,,,,,,,,,,wg-a,,,,AAXX 17004 07761 12/70 00706 10130 20100 30118 40129 56013 60006 80000 90000=
07761,1996-05-17 03:00:00,12,1012.1,-0.8,82,9,20000,11.112,,,40,,,,,,,,,,,wg-a,,,,AAXX 17034 07761 12670 /0406 10120 20090 30110 40121 58008 60006 81500 90300=
07761,1996-05-17 06:00:00,16,1012.3,0.2,68,10,40000,11.112,,,40,11.4,19.2,,,,,,,,,wg-a,,,,AAXX 17064 07761 02/82 /0406 10160 20100 30112 40123 50002 60006 81030 90600 333 10192 20114 60004=
07761,1996-05-17 09:00:00,21,1012.1,-0.2,60,13,50000,7.408,,,210,,,,,,,,,,,wg-a,,,,AAXX 17094 07761 12/84 /2104 10210 20130 30110 40121 56002 60006 81032 90900=
07761,1996-05-17 12:00:00,22,1011.4,-0.6,65,15,50000,25.928,,,210,,,,,,,,,,,wg-a,,,,AAXX 17124 07761 12/84 62114 10220 20150 30104 40114 55006 60006 80002 91200=
07761,1996-05-17 15:00:00,22,1010.9,-0.5,78,18,40000,14.816,,,220,,,,,,,,,,,wg-a,,,,AAXX 17154 07761 12/82 42208 10220 20180 30099 40109 55005 60006 80001 91500=
07761,1996-05-17 18:00:00,21,1010.9,-0,69,15,500,11.112,,,190,,,,,,,,,,,wg-a,,,,AAXX 17184 07761 12/00 31906 10210 20150 30099 40109 54000 60006 80001 91800=
07761,1996-05-17 21:00:00,17,1011.6,0.6,77,13,25000,11.112,,,70,,,,,,,,,,,wg-a,,,,AAXX 17214 07761 12/75 10706 10170 20130 30105 40116 53006 60006 80001 92100=
07761,1996-05-18 00:00:00,14,1011.3,-0.3,88,12,20000,11.112,,,50,,,,,,,,,,,wg-a,,,,AAXX 18004 07761 12/70 10506 10140 20120 30102 40113 58003 60006 80001 90000=
07761,1996-05-18 03:00:00,14,1010.4,-0.9,88,12,20000,7.408,,,50,,,,,,,,,,,wg-a,,,,AAXX 18034 07761 12770 50504 10140 20120 30093 40104 58009 60006 84530 90300=
07761,1996-05-18 06:00:00,16,1009.8,-0.6,82,13,25000,11.112,,,50,12.6,21,,,,,,,,,wg-a,,,,AAXX 18064 07761 02/75 /0506 10160 20130 30087 40098 58006 60006 81030 90600 333 10210 20126 60004=
07761,1996-05-18 09:00:00,21,1010.2,0.5,69,15,18000,7.408,,,220,,,,,,,,,,,wg-a,,,,AAXX 18094 07761 12568 /2204 10210 20150 30092 40102 50005 60006 81100 90900=
07761,1996-05-18 12:00:00,22,1010.3,0.1,73,17,18000,11.112,,,200,,,,,,,,,,,wg-a,,,,AAXX 18124 07761 12568 /2006 10220 20170 30093 40103 53001 60006 81100 91200=
07761,1996-05-18 15:00:00,22,1009.9,-0.4,73,17,12000,7.408,,,230,,,,,,,,,,,wg-a,,,,AAXX 18154 07761 12562 /2304 10220 20170 30089 40099 58004 60006 81100 91500=
07761,1996-05-18 18:00:00,19,1010.2,0.2,88,17,10000,14.816,,,220,16.1,22.5,,,,,,,,,wg-a,,,,AAXX 18184 07761 12360 52208 10190 20170 30091 40102 53002 60006 84581 91800 333 10225 20161=
07761,1996-05-18 21:00:00,18,1011.6,1.4,88,16,9000,0,,,0,,,,,,,,,,,wg-a,,,,AAXX 18214 07761 12359 /0000 10180 20160 30105 40116 53014 60006 87500 92100=
07761,1996-05-19 00:00:00,16,1011.2,-0.4,94,15,9000,7.408,,,80,,,,,,,,,,,wg-a,,,,AAXX 19004 07761 12359 70804 10160 20150 30101 40112 56004 60006 875// 90000=
07761,1996-05-19 03:00:00,15,1010.1,-1.1,88,13,10000,7.408,,,50,,,,,,,,,,,wg-a,,,,AAXX 19034 07761 12460 70504 10150 20130 30090 40101 56011 60006 82502 90300=
07761,1996-05-19 06:00:00,16,1010.7,0.6,82,13,20000,11.112,,,60,13.9,19.1,,,,,,,,,wg-a,,,,AAXX 19064 07761 02870 70606 10160 20130 30096 40107 53006 60006 83042 90600 333 10191 20139 60004=
07761,1996-05-19 09:00:00,20,1012.2,1.5,78,16,20000,11.112,,,200,,,,,,,,,,,wg-a,,,,AAXX 19094 07761 12570 82006 10200 20160 30111 40122 51015 60006 8187/ 90900=
07761,1996-05-19 12:00:00,19,1011.9,-0.3,83,16,20000,3.704,,,320,,,,,,,,,,21,wg-a,,,,AAXX 19124 07761 02570 73202 10190 20160 30108 40119 56003 61000 72162 8187/ 91200 333 6100=
07761,1996-05-19 15:00:00,18,1012,0.1,94,17,12000,7.408,,,50,,,,1,,,,,,60,wg-a,,,,AAXX 19154 07761 12462 80504 10180 20170 30109 40120 50001 60017 76062 8587/ 91500=
07761,1996-05-19 18:00:00,18,1011.6,-0.4,94,17,15000,3.704,,,250,15.6,20.9,,,,,,,,2,wg-a,,,,AAXX 19184 07761 02465 72502 10180 20170 30105 40116 56004 61000 70262 8387/ 91800 333 10209 20156 ////=
07761,1996-05-19 21:00:00,17,1013.5,1.9,88,15,15000,3.704,,,80,,,,,,,,,,,wg-a,,,,AAXX 19214 07761 12565 40802 10170 20150 30124 40135 51019 60006 84800 92100=
07761,1996-05-20 00:00:00,18,1012.9,-0.6,88,16,10000,22.224,,,230,,,,0,,,,,,25,wg-a,,,,AAXX 20004 07761 02360 72312 10180 20160 30118 40129 56006 60006 72586 878// 90000 333 60007=
07761,1996-05-20 03:00:00,15,1012.8,-0.1,94,14,12000,7.408,,,100,,,,2,,,,,,17,wg-a,,,,AAXX 20034 07761 12462 51004 10150 20140 30117 40128 58001 60027 71798 85900 90300=
07761,1996-05-20 06:00:00,16,1014.4,1.6,94,15,25000,3.704,,,70,15.1,18.6,,,,,3,,,3,wg-a,,,,AAXX 20064 07761 12475 70702 10160 20150 30133 40144 51016 60034 70398 85830 90600 333 10186 20151=
07761,1996-05-20 09:00:00,20,1015.9,1.5,68,14,25000,14.816,,,230,,,,,,,,,,,wg-a,,,,AAXX 20094 07761 12575 52308 10200 20140 30148 40159 53015 60006 84230 90900=
07761,1996-05-20 12:00:00,21,1016.9,1,64,14,500,25.928,,,240,,,,,,,,,,,wg-a,,,,AAXX 20124 07761 12600 42414 10210 20140 30158 40169 51010 60006 83230 91200=
07761,1996-05-20 15:00:00,20,1017.1,0.2,73,15,500,14.816,,,230,,,,,,,,,,,wg-a,,,,AAXX 20154 07761 12600 32308 10200 20150 30160 40171 53002 60006 83200 91500=
07761,1996-05-20 18:00:00,18,1018.8,1.7,77,14,20000,11.112,,,230,16.3,21.4,,,,,,,,,wg-a,,,,AAXX 20184 07761 12570 22306 10180 20140 30177 40188 53017 60006 82200 91800 333 10214 20163=
07761,1996-05-20 21:00:00,15,1020.9,2.1,82,12,20000,11.112,,,50,,,,,,,,,,,wg-a,,,,AAXX 20214 07761 12470 30506 10150 20120 30198 40209 53021 60006 83500 92100=
07761,1996-05-21 00:00:00,11,1021.8,0.9,82,8,11000,14.816,,,60,,,,,,,,,,,wg-a,,,,AAXX 21004 07761 12/61 /0608 10110 20080 30207 40218 53009 60006 90000=
07761,1996-05-21 03:00:00,10,1021.9,0.1,82,7,20000,14.816,,,40,,,,,,,,,,,wg-a,,,,AAXX 21034 07761 12470 20408 10100 20070 30208 40219 53001 60006 82500 90300=
07761,1996-05-21 09:00:00,19,1022.8,0,64,12,50000,14.816,,,240,,,,,,,,,,,wg-a,,,,AAXX 21094 07761 12584 /2408 10190 20120 30217 40228 50000 60006 81101 90900=
07761,1996-05-21 12:00:00,20,1023.2,0.4,68,14,40000,22.224,,,230,,,,,,,,,,,wg-a,,,,AAXX 21124 07761 12682 32312 10200 20140 30221 40232 52004 60006 81201 91200=
07761,1996-05-21 15:00:00,20,1022.3,-0.9,68,14,25000,22.224,,,220,,,,,,,,,,,wg-a,,,,AAXX 21154 07761 12675 42212 10200 20140 30212 40223 56009 60006 82201 91500=
07761,1996-05-21 18:00:00,19,1022.9,0.6,64,12,25000,11.112,,,330,12.8,20.5,,,,,,,,,wg-a,,,,AAXX 21184 07761 12675 23306 10190 20120 30218 40229 53006 60006 82801 91800 333 10205 20128=
07761,1996-05-21 21:00:00,13,1024.2,1.3,82,10,15000,11.112,,,60,,,,,,,,,,,wg-a,,,,AAXX 21214 07761 12665 /0606 10130 20100 30231 40242 53013 60006 81501 92100=
07761,1996-05-22 00:00:00,11,1023.4,-0.8,82,8,18000,14.816,,,40,,,,,,,,,,,wg-a,,,,AAXX 22004 07761 12/68 00408 10110 20080 30223 40234 58008 60006 80000 90000=
07761,1996-05-22 03:00:00,9,1022.3,-1.1,87,7,18000,18.52,,,50,,,,,,,,,,,wg-a,,,,AAXX 22034 07761 12/68 00510 10090 20070 30212 40223 56011 60006 80000 90300=
07761,1996-05-22 06:00:00,13,1023,0.7,77,9,500,11.112,,,40,8.7,18.6,,,,,,,,,wg-a,,,,AAXX 22064 07761 02600 30406 10130 20090 30219 40230 52007 60006 81132 90600 333 10186 20087 60004=
07761,1996-05-22 09:00:00,20,1023.2,0.2,68,14,500,18.52,,,220,,,,,,,,,,,wg-a,,,,AAXX 22094 07761 12600 22210 10200 20140 30221 40232 52002 60006 81131 90900=
07761,1996-05-22 12:00:00,20,1023.2,0,64,13,500,29.632,,,230,,,,,,,,,,,wg-a,,,,AAXX 22124 07761 12600 /2316 10200 20130 30221 40232 50000 60006 81201 91200=
07761,1996-05-22 18:00:00,18,1023.7,0.3,68,12,25000,18.52,,,250,12.9,20.7,,,,,,,,,wg-a,,,,AAXX 22184 07761 12575 32510 10180 20120 30226 40237 53003 60006 83501 91800 333 10207 20129=
07761,1996-05-22 21:00:00,14,1024.8,1.1,82,11,25000,7.408,,,50,,,,,,,,,,,wg-a,,,,AAXX 22214 07761 12675 20504 10140 20110 30237 40248 53011 60006 82400 92100=
07761,1996-05-23 00:00:00,12,1024.3,-0.5,82,9,25000,7.408,,,60,,,,,,,,,,,wg-a,,,,AAXX 23004 07761 12575 /0604 10120 20090 30232 40243 57005 60006 81500 90000=
07761,1996-05-23 03:00:00,10,1023.7,-0.6,87,8,25000,14.816,,,40,,,,,,,,,,,wg-a,,,,AAXX 23034 07761 12575 /0408 10100 20080 30226 40237 56006 60006 81500 90300=
07761,1996-05-23 06:00:00,13,1023.7,0,82,10,25000,11.112,,,50,9.7,17.8,,,,,,,,,wg-a,,,,AAXX 23064 07761 02/75 /0506 10130 20100 30226 40237 50000 60006 80001 90600 333 10178 20097 60004=
07761,1996-05-23 09:00:00,19,1023.8,0.1,68,13,40000,14.816,,,240,,,,,,,,,,,wg-a,,,,AAXX 23094 07761 12/82 12408 10190 20130 30227 40238 53001 60006 80001 90900=
07761,1996-05-23 12:00:00,20,1023.4,-0.4,68,14,40000,22.224,,,240,,,,,,,,,,,wg-a,,,,AAXX 23124 07761 12682 /2412 10200 20140 30223 40234 58004 60006 81101 91200=
07761,1996-05-23 15:00:00,20,1021.9,-1.5,73,15,40000,18.52,,,240,,,,,,,,,,,wg-a,,,,AAXX 23154 07761 12682 /2410 10200 20150 30208 40219 58015 60006 81101 91500=
07761,1996-05-23 18:00:00,19,1021.1,-0.8,78,15,20000,3.704,,,250,13.4,20.8,,,,,,,,,wg-a,,,,AAXX 23184 07761 12570 /2502 10190 20150 30200 40211 57008 60006 81101 91800 333 10208 20134=
07761,1996-05-23 21:00:00,16,1022.2,1.1,88,14,20000,11.112,,,50,,,,,,,,,,,wg-a,,,,AAXX 23214 07761 12470 /0506 10160 20140 30211 40222 52011 60006 86500 92100=
07761,1996-05-24 00:00:00,14,1021.1,-1.1,88,12,15000,11.112,,,40,,,,,,,,,,,wg-a,,,,AAXX 24004 07761 12565 /0406 10140 20120 30200 40211 58011 60006 81301 90000=
07761,1996-05-24 03:00:00,11,1020.3,-0.8,94,10,25000,11.112,,,50,,,,,,,,,,,wg-a,,,,AAXX 24034 07761 12/75 00506 10110 20100 30192 40203 56008 60006 80000 90300=
07761,1996-05-24 06:00:00,15,1020.3,0,82,12,500,7.408,,,50,10.9,19.3,,,,,,,,,wg-a,,,,AAXX 24064 07761 02/00 00504 10150 20120 30192 40203 50000 60006 80000 90600 333 10193 20109 60004=
07761,1996-05-24 09:00:00,20,1020.9,0.6,78,16,500,18.52,,,240,,,,,,,,,,,wg-a,,,,AAXX 24094 07761 12400 /2410 10200 20160 30198 40209 50006 60006 81801 90900=
07761,1996-05-24 12:00:00,21,1020.5,-0.4,69,15,11000,18.52,,,240,,,,,,,,,,,wg-a,,,,AAXX 24124 07761 12/61 /2410 10210 20150 30194 40205 57004 60006 91200=
07761,1996-05-24 15:00:00,21,1019.7,-0.8,60,13,20000,11.112,,,230,,,,,,,,,,,wg-a,,,,AAXX 24154 07761 12570 52306 10210 20130 30186 40197 56008 60006 85801 91500=
07761,1996-05-24 18:00:00,20,1019.1,-0.6,64,13,20000,3.704,,,210,15,21.6,,,,,,,,,wg-a,,,,AAXX 24184 07761 12570 42102 10200 20130 30180 40191 56006 60006 84800 91800 333 10216 20150=
07761,1996-05-24 21:00:00,15,1019.7,0.6,77,11,20000,11.112,,,60,,,,,,,,,,,wg-a,,,,AAXX 24214 07761 12/70 10606 10150 20110 30186 40197 53006 60006 80001 92100=
07761,1996-05-25 00:00:00,13,1019.1,-0.6,88,11,20000,7.408,,,50,,,,,,,,,,,wg-a,,,,AAXX 25004 07761 12/70 00504 10130 20110 30180 40191 58006 60006 80000 90000=
07761,1996-05-25 03:00:00,12,1018.5,-0.6,88,10,20000,11.112,,,60,,,,,,,,,,,wg-a,,,,AAXX 25034 07761 12/70 00606 10120 20100 30174 40185 55006 60006 80000 90300=
07761,1996-05-25 06:00:00,16,1018.6,0.1,77,12,20000,7.408,,,60,11.2,19.6,,,,,,,,,wg-a,,,,AAXX 25064 07761 02/70 20604 10160 20120 30175 40186 51001 60006 80001 90600 333 10196 20112 60004=
07761,1996-05-25 09:00:00,20,1018.9,0.3,73,15,25000,14.816,,,230,,,,,,,,,,,wg-a,,,,AAXX 25094 07761 12575 /2308 10200 20150 30178 40189 50003 60006 81101 90900=
07761,1996-05-25 12:00:00,21,1018.6,-0.3,73,16,25000,25.928,,,220,,,,,,,,,,,wg-a,,,,AAXX 25124 07761 12575 /2214 10210 20160 30175 40186 55003 60006 81101 91200=
07761,1996-05-25 15:00:00,22,1018.4,-0.2,65,15,25000,18.52,,,190,,,,,,,,,,,wg-a,,,,AAXX 25154 07761 12575 31910 10220 20150 30173 40184 58002 60006 81202 91500=
07761,1996-05-25 18:00:00,20,1018.5,0.1,68,14,25000,11.112,,,210,16,22.3,,,,,,,,,wg-a,,,,AAXX 25184 07761 12775 72106 10200 20140 30174 40185 53001 60006 81504 91800 333 10223 20160=
07761,1996-05-25 21:00:00,16,1018.8,0.3,68,10,20000,11.112,,,60,,,,,,,,,,,wg-a,,,,AAXX 25214 07761 12/70 70606 10160 20100 30177 40188 53003 60006 82072 92100=
07761,1996-05-26 00:00:00,14,1018.4,-0.4,72,9,20000,11.112,,,60,,,,,,,,,,,wg-a,,,,AAXX 26004 07761 12/70 60606 10140 20090 30173 40184 57004 60006 80002 90000=
07761,1996-05-26 03:00:00,12,1017.7,-0.7,76,8,10000,14.816,,,50,,,,,,,,,,,wg-a,,,,AAXX 26034 07761 12/60 /0508 10120 20080 30166 40177 57007 60006 90300=
07761,1996-05-26 06:00:00,14,1018.5,0.8,67,8,40000,11.112,,,40,11.7,20.2,,,,,,,,,wg-a,,,,AAXX 26064 07761 02/82 70406 10140 20080 30174 40185 53008 60006 82072 90600 333 10202 20117 60004=
07761,1996-05-26 09:00:00,20,1018.7,0.2,68,14,40000,3.704,,,230,,,,,,,,,,,wg-a,,,,AAXX 26094 07761 12682 72302 10200 20140 30176 40187 50002 60006 81177 90900=
07761,1996-05-26 12:00:00,21,1018.4,-0.3,73,16,500,14.816,,,220,,,,,,,,,,,wg-a,,,,AAXX 26124 07761 12600 72208 10210 20160 30173 40184 58003 60006 81178 91200=
07761,1996-05-26 15:00:00,22,1018.2,-0.2,69,16,25000,22.224,,,220,,,,,,,,,,,wg-a,,,,AAXX 26154 07761 12575 32212 10220 20160 30171 40182 55002 60006 81142 91500=
07761,1996-05-26 18:00:00,20,1018,-0.2,78,16,25000,18.52,,,210,14.1,22.2,,,,,,,,,wg-a,,,,AAXX 26184 07761 12675 /2110 10200 20160 30169 40180 55002 60006 81100 91800 333 10222 20141=
07761,1996-05-26 21:00:00,16,1018.2,0.2,88,14,20000,11.112,,,60,,,,,,,,,,,wg-a,,,,AAXX 26214 07761 12770 30606 10160 20140 30171 40182 53002 60006 83500 92100=
07761,1996-05-27 00:00:00,14,1017.9,-0.3,94,13,20000,14.816,,,60,,,,,,,,,,,wg-a,,,,AAXX 27004 07761 12770 30608 10140 20130 30168 40179 58003 60006 835/0 90000=
07761,1996-05-27 03:00:00,13,1016.7,-1.2,94,12,20000,11.112,,,40,,,,,,,,,,,wg-a,,,,AAXX 27034 07761 12470 30406 10130 20120 30156 40167 58012 60006 83800 90300=
07761,1996-05-27 06:00:00,16,1016.9,0.2,82,13,25000,11.112,,,60,12.9,19.4,,,,,,,,,wg-a,,,,AAXX 27064 07761 02475 /0606 10160 20130 30158 40169 51002 60006 86840 90600 333 10194 20129 60004=
07761,1996-05-27 09:00:00,21,1016.1,-0.8,73,16,25000,14.816,,,220,,,,,,,,,,,wg-a,,,,AAXX 27094 07761 12575 22208 10210 20160 30150 40161 58008 60006 82102 90900=
07761,1996-05-27 12:00:00,21,1015.6,-0.5,69,15,25000,25.928,,,240,,,,,,,,,,,wg-a,,,,AAXX 27124 07761 12575 /2414 10210 20150 30145 40156 58005 60006 82207 91200=
07761,1996-05-27 15:00:00,21,1013.6,-2,60,13,25000,11.112,,,240,,,,,,,,,,,wg-a,,,,AAXX 27154 07761 12575 /2406 10210 20130 30125 40136 56020 60006 83207 91500=
07761,1996-05-27 18:00:00,20,1012.4,-1.2,68,14,20000,7.408,,,170,16.4,22.8,,,,,,,,,wg-a,,,,AAXX 27184 07761 12670 51704 10200 20140 30113 40124 56012 60006 82142 91800 333 10228 20164=
07761,1996-05-27 21:00:00,18,1012,-0.4,73,13,15000,3.704,,,40,,,,,,,,,,,wg-a,,,,AAXX 27214 07761 12665 30402 10180 20130 30109 40120 56004 60006 82502 92100=
07761,1996-05-28 00:00:00,14,1011.2,-0.8,88,12,15000,14.816,,,50,,,,,,,,,,,wg-a,,,,AAXX 28004 07761 12/65 /0508 10140 20120 30101 40112 58008 60006 81031 90000=
07761,1996-05-28 03:00:00,13,1011.3,0.1,88,11,15000,11.112,,,40,,,,,,,,,,,wg-a,,,,AAXX 28034 07761 12/65 /0406 10130 20110 30102 40113 53001 60006 81030 90300=
07761,1996-05-28 06:00:00,16,1012.3,1,77,12,15000,11.112,,,50,11.5,20.3,,,,,,,,,wg-a,,,,AAXX 28064 07761 02/65 10506 10160 20120 30112 40123 51010 60006 80001 90600 333 10203 20115 60004=
07761,1996-05-28 09:00:00,21,1013.1,0.8,64,14,18000,11.112,,,200,,,,,,,,,,,wg-a,,,,AAXX 28094 07761 12668 /2006 10210 20140 30120 40131 50008 60006 81151 90900=
07761,1996-05-28 12:00:00,21,1013.1,0.1,69,15,18000,29.632,,,220,,,,,,,,,,,wg-a,,,,AAXX 28124 07761 12668 82216 10210 20150 30121 40131 53001 60006 81156 91200=
07761,1996-05-28 15:00:00,21,1012.9,-0.3,64,14,18000,18.52,,,230,,,,,,,,,,,wg-a,,,,AAXX 28154 07761 12668 72310 10210 20140 30118 40129 56003 60006 81106 91500=
07761,1996-05-28 18:00:00,19,1013.1,0.2,68,13,15000,11.112,,,240,15.7,22.5,,,,,,,,,wg-a,,,,AAXX 28184 07761 12/65 72406 10190 20130 30120 40131 53002 60006 80006 91800 333 10225 20157=
07761,1996-05-28 21:00:00,15,1015.3,2.2,82,12,15000,11.112,,,60,,,,,,,,,,,wg-a,,,,AAXX 28214 07761 12/65 70606 10150 20120 30142 40153 53022 60006 80006 92100=
07761,1996-05-29 00:00:00,13,1015.6,0.3,88,11,15000,11.112,,,60,,,,,,,,,,,wg-a,,,,AAXX 29004 07761 12/65 40606 10130 20110 30145 40156 53003 60006 80002 90000=
07761,1996-05-29 03:00:00,13,1015.7,0.1,88,11,15000,11.112,,,30,,,,,,,,,,,wg-a,,,,AAXX 29034 07761 12/65 40306 10130 20110 30146 40157 52001 60006 80002 90300=
07761,1996-05-29 06:00:00,16,1016.7,1,77,12,15000,3.704,,,80,11.5,18.8,,,,,,,,,wg-a,,,,AAXX 29064 07761 02/65 40802 10160 20120 30156 40167 53010 60006 80002 90600 333 10188 20115 60004=
07761,1996-05-29 09:00:00,21,1017.4,0.7,56,12,25000,14.816,,,240,,,,,,,,,,,wg-a,,,,AAXX 29094 07761 12675 22408 10210 20120 30163 40174 51007 60006 81101 90900=
07761,1996-05-29 12:00:00,22,1018,0.6,69,16,25000,25.928,,,210,,,,,,,,,,,wg-a,,,,AAXX 29124 07761 12675 /2114 10220 20160 30169 40180 50006 60006 81201 91200=
07761,1996-05-29 15:00:00,23,1017.3,-0.6,50,12,25000,11.112,,,260,,,,,,,,,,,wg-a,,,,AAXX 29154 07761 12675 /2606 10230 20120 30163 40173 57006 60006 81201 91500=
07761,1996-05-29 18:00:00,21,1018,0.6,64,14,25000,11.112,,,310,15.8,23.2,,,,,,,,,wg-a,,,,AAXX 29184 07761 12675 /3106 10210 20140 30169 40180 53006 60006 81101 91800 333 10232 20158=
07761,1996-05-29 21:00:00,15,1019.1,1.1,88,13,10000,11.112,,,60,,,,,,,,,,,wg-a,,,,AAXX 29214 07761 12/60 /0606 10150 20130 30180 40191 51011 60006 92100=
07761,1996-05-30 00:00:00,13,1019.8,0.7,88,11,25000,14.816,,,40,,,,,,,,,,,wg-a,,,,AAXX 30004 07761 12/75 10408 10130 20110 30187 40198 51007 60006 80001 90000=
07761,1996-05-30 03:00:00,12,1019.5,-0.3,76,8,25000,14.816,,,40,,,,,,,,,,,wg-a,,,,AAXX 30034 07761 12/75 10408 10120 20080 30184 40195 56003 60006 80002 90300=
07761,1996-05-30 06:00:00,15,1020.6,1.1,67,9,25000,11.112,,,50,10.1,20.9,,,,,,,,,wg-a,,,,AAXX 30064 07761 02/75 00506 10150 20090 30195 40206 53011 60006 80000 90600 333 10209 20101 60004=
07761,1996-05-30 09:00:00,21,1021.2,0.6,64,14,25000,18.52,,,230,,,,,,,,,,,wg-a,,,,AAXX 30094 07761 12/75 02310 10210 20140 30201 40212 53006 60006 80000 90900=
07761,1996-05-30 12:00:00,22,1021.5,0.3,60,14,40000,22.224,,,220,,,,,,,,,,,wg-a,,,,AAXX 30124 07761 12682 /2212 10220 20140 30204 40215 50003 60006 81100 91200=
07761,1996-05-30 15:00:00,22,1021.3,-0.2,60,14,40000,22.224,,,230,,,,,,,,,,,wg-a,,,,AAXX 30154 07761 12582 /2312 10220 20140 30202 40213 55002 60006 81101 91500=
07761,1996-05-30 18:00:00,22,1021.5,0.2,46,10,40000,7.408,,,330,14.9,23.4,,,,,,,,,wg-a,,,,AAXX 30184 07761 12/82 13304 10220 20100 30204 40215 53002 60006 80001 91800 333 10234 20149=
07761,1996-05-30 21:00:00,16,1022.4,0.9,68,10,20000,14.816,,,50,,,,,,,,,,,wg-a,,,,AAXX 30214 07761 12/70 10508 10160 20100 30213 40224 52009 60006 80001 92100=
07761,1996-05-31 00:00:00,13,1022.3,-0.1,82,10,20000,11.112,,,50,,,,,,,,,,,wg-a,,,,AAXX 31004 07761 12/70 00506 10130 20100 30212 40223 56001 60006 80000 90000=
07761,1996-05-31 03:00:00,11,1022.3,-0,87,9,25000,11.112,,,60,,,,,,,,,,,wg-a,,,,AAXX 31034 07761 12/75 00606 10110 20090 30212 40223 55000 60006 80000 90300=
07761,1996-05-31 06:00:00,16,1022.7,0.4,77,12,25000,11.112,,,40,11.2,21.6,,,,,,,,,wg-a,,,,AAXX 31064 07761 02/75 10406 10160 20120 30216 40227 51004 60006 80001 90600 333 10216 20112 60004=
07761,1996-05-31 09:00:00,21,1023.4,0.7,64,14,500,14.816,,,230,,,,,,,,,,,wg-a,,,,AAXX 31094 07761 12/00 12308 10210 20140 30223 40234 51007 60006 80001 90900=
07761,1996-05-31 12:00:00,23,1022.8,-0.6,57,14,40000,18.52,,,200,,,,,,,,,,,wg-a,,,,AAXX 31124 07761 12682 /2010 10230 20140 30217 40228 58006 60006 81101 91200=
07761,1996-05-31 15:00:00,23,1022.3,-0.5,53,13,40000,18.52,,,190,,,,,,,,,,,wg-a,,,,AAXX 31154 07761 12682 /1910 10230 20130 30212 40223 58005 60006 81101 91500=
07761,1996-05-31 18:00:00,21,1021.7,-0.6,60,13,500,14.816,,,200,16.4,24,,,,,,,,,wg-a,,,,AAXX 31184 07761 12/00 12008 10210 20130 30206 40217 55006 60006 80001 91800 333 10240 20164=
07761,1996-05-31 21:00:00,16,1022.1,0.4,72,11,20000,7.408,,,50,,,,,,,,,,,wg-a,,,,AAXX 31214 07761 12/70 20504 10160 20110 30210 40221 53004 60006 80001 92100=
07761,1996-06-01 00:00:00,13,1022.2,0.1,82,10,20000,11.112,,,50,,,,,,,,,,,wg-a,,,,AAXX 01004 07761 12/70 00506 10130 20100 30211 40222 51001 60006 80000 90000=
07761,1996-06-01 03:00:00,12,1021.3,-0.9,82,9,20000,11.112,,,50,,,,,,,,,,,wg-a,,,,AAXX 01034 07761 12670 /0506 10120 20090 30202 40213 58009 60006 81502 90300=
07761,1996-06-01 06:00:00,17,1021,-0.3,72,12,40000,7.408,,,50,10.9,20.9,,,,,,,,,wg-a,,,,AAXX 01064 07761 02/82 20504 10170 20120 30199 40210 56003 60006 80002 90600 333 10209 20109 60004=
07761,1996-06-01 09:00:00,21,1021.2,0.2,73,16,500,14.816,,,220,,,,,,,,,,,wg-a,,,,AAXX 01094 07761 12600 22208 10210 20160 30201 40212 51002 60006 81502 90900=
07761,1996-06-01 12:00:00,23,1020.4,-0.8,65,16,11000,18.52,,,220,,,,,,,,,,,wg-a,,,,AAXX 01124 07761 12/61 /2210 10230 20160 30193 40204 58008 60006 91200=
07761,1996-06-01 15:00:00,24,1019,-1.3,50,13,20000,11.112,,,180,,,,,,,,,,,wg-a,,,,AAXX 01154 07761 12670 31806 10240 20130 30180 40190 58013 60006 81102 91500=
07761,1996-06-01 18:00:00,22,1018.4,-0.7,65,15,20000,14.816,,,200,17,23.9,,,,,,,,,wg-a,,,,AAXX 01184 07761 12670 22008 10220 20150 30173 40184 56007 60006 81102 91800 333 10239 20170=
07761,1996-06-01 21:00:00,16,1018.9,0.5,77,12,20000,11.112,,,60,,,,,,,,,,,wg-a,,,,AAXX 01214 07761 12/70 20606 10160 20120 30178 40189 50005 60006 80002 92100=
07761,1996-06-02 00:00:00,13,1017.4,-1.5,88,11,20000,11.112,,,40,,,,,,,,,,,wg-a,,,,AAXX 02004 07761 12/70 20406 10130 20110 30163 40174 58015 60006 80002 90000=
07761,1996-06-02 03:00:00,12,1015.7,-1.7,88,10,20000,11.112,,,60,,,,,,,,,,,wg-a,,,,AAXX 02034 07761 12/70 10606 10120 20100 30146 40157 56017 60006 80001 90300=
07761,1996-06-02 06:00:00,16,1015.6,-0.1,77,12,25000,3.704,,,60,11.2,21.6,,,,,,,,,wg-a,,,,AAXX 02064 07761 02575 20602 10160 20120 30145 40156 58001 60006 81531 90600 333 10216 20112 60004=
07761,1996-06-02 09:00:00,21,1014.8,-0.8,78,17,25000,11.112,,,230,,,,,,,,,,,wg-a,,,,AAXX 02094 07761 12675 32306 10210 20170 30137 40148 58008 60006 81101 90900=
07761,1996-06-02 12:00:00,24,1013.1,-1.6,57,15,500,22.224,,,230,,,,,,,,,,,wg-a,,,,AAXX 02124 07761 12700 22312 10240 20150 30121 40131 56016 60006 81101 91200=
07761,1996-06-02 15:00:00,24,1012,-1.1,50,13,500,14.816,,,200,,,,,,,,,,,wg-a,,,,AAXX 02154 07761 12600 32008 10240 20130 30110 40120 56011 60006 81202 91500=
07761,1996-06-02 18:00:00,22,1011.7,-0.3,57,13,500,11.112,,,170,16,24.5,,,,,,,,,wg-a,,,,AAXX 02184 07761 12700 71706 10220 20130 30107 40117 55003 60006 81572 91800 333 10245 20160=
07761,1996-06-02 21:00:00,19,1012.4,0.6,83,16,20000,7.408,,,40,,,,1,,,,,,1,wg-a,,,,AAXX 02214 07761 12770 70404 10190 20160 30113 40124 51006 60017 70186 8557/ 92100=
07761,1996-06-03 00:00:00,18,1010.9,-1.5,83,15,20000,7.408,,,350,,,,1,,,,,,29,wg-a,,,,AAXX 03004 07761 02570 /3504 10180 20150 30098 40109 58015 60016 72998 8597/ 90000 333 60017=
07761,1996-06-03 03:00:00,18,1011.6,0.7,88,16,20000,7.408,,,60,,,,,,,,,,60,wg-a,,,,AAXX 03034 07761 02570 70604 10180 20160 30105 40116 53007 61000 76096 8597/ 90300 333 ////=
07761,1996-06-03 06:00:00,18,1012,0.4,88,16,15000,7.408,,,70,17.2,22,,0,,,1,,,60,wg-a,,,,AAXX 03064 07761 02665 70704 10180 20160 30109 40120 50004 60014 76096 8387/ 90600 333 10220 20172 60007=
07761,1996-06-03 12:00:00,18,1014.1,1,94,17,10000,3.704,,,50,,,,6,,,,,,61,wg-a,,,,AAXX 03124 07761 02260 80502 10180 20170 30130 40141 50010 60106 76162 858// 91200 333 60067=
07761,1996-06-03 15:00:00,19,1013.9,-0.2,88,17,20000,7.408,,,190,,,,0,,,,,,60,wg-a,,,,AAXX 03154 07761 12470 81904 10190 20170 30128 40139 57002 60007 76062 8387/ 91500=
07761,1996-06-03 18:00:00,19,1013.7,-0.2,88,17,18000,3.704,,,330,17.3,19.4,,0,,,,,,21,wg-a,,,,AAXX 03184 07761 12468 83302 10190 20170 30126 40137 55002 60007 72162 8387/ 91800 333 10194 20173=
07761,1996-06-03 21:00:00,18,1014.7,1,94,17,15000,7.408,,,30,,,,,,,,,,,wg-a,,,,AAXX 03214 07761 12565 80304 10180 20170 30136 40147 53010 60006 8377/ 92100=
07761,1996-06-04 00:00:00,17,1016.4,1.7,94,16,15000,11.112,,,40,,,,0,,,,,,1,wg-a,,,,AAXX 04004 07761 02565 80406 10170 20160 30153 40164 51017 60006 70162 8357/ 90000 333 60007=
07761,1996-06-04 03:00:00,16,1015.5,-0.9,88,14,15000,11.112,,,50,,,,0,,,,,,2,wg-a,,,,AAXX 04034 07761 12565 80506 10160 20140 30144 40155 57009 60007 70262 8357/ 90300=
07761,1996-06-04 06:00:00,16,1016.8,1.3,94,15,25000,7.408,,,20,15.7,18.7,,,,,11,,,3,wg-a,,,,AAXX 04064 07761 12575 70204 10160 20150 30157 40168 53013 60114 70362 8257/ 90600 333 10187 20157=
07761,1996-06-04 09:00:00,19,1017.5,0.7,83,16,20000,3.704,,,240,,,,,,,,,,,wg-a,,,,AAXX 04094 07761 12670 72402 10190 20160 30164 40175 53007 60006 8257/ 90900=
07761,1996-06-04 12:00:00,21,1018.2,0.7,83,18,18000,3.704,,,160,,,,0,,,,,,60,wg-a,,,,AAXX 04124 07761 02668 71602 10210 20180 30171 40182 51007 60006 76062 8257/ 91200 333 60007=
07761,1996-06-04 15:00:00,19,1018.6,0.4,88,17,12000,3.704,,,260,,,,3,,,,,,61,wg-a,,,,AAXX 04154 07761 12462 82602 10190 20170 30175 40186 50004 60037 76166 8352/ 91500=
07761,1996-06-04 18:00:00,20,1018.8,0.2,83,17,18000,0,,,0,16.3,20.9,,0,,,,,,60,wg-a,,,,AAXX 04184 07761 12468 /0000 10200 20170 30177 40188 52002 60007 76062 83870 91800 333 10209 20163=
07761,1996-06-04 21:00:00,17,1019.5,0.7,94,16,12000,7.408,,,90,,,,0,,,,,,3,wg-a,,,,AAXX 04214 07761 12162 40904 10170 20160 30184 40195 53007 60007 70361 82570 92100=
07761,1996-06-05 00:00:00,16,1019.3,-0.2,94,15,12000,11.112,,,40,,,,,,,,,,2,wg-a,,,,AAXX 05004 07761 12662 /0406 10160 20150 30182 40193 58002 60006 70261 85570 90000=
07761,1996-06-05 03:00:00,15,1018.4,-0.9,94,14,15000,11.112,,,30,,,,,,,,,,,wg-a,,,,AAXX 05034 07761 12665 /0306 10150 20140 30173 40184 56009 60006 81572 90300=
07761,1996-06-05 06:00:00,18,1019.3,0.9,88,16,17000,3.704,,,50,15,19.5,,,,,4,,,,wg-a,,,,AAXX 05064 07761 12667 40502 10180 20160 30182 40193 51009 60044 82870 90600 333 10195 20150=
07761,1996-06-05 12:00:00,22,1019.4,0.3,78,18,17000,7.408,,,250,,,,,,,,,,,wg-a,,,,AAXX 05124 07761 12567 52504 10220 20180 30183 40194 50003 60006 85930 91200=
07761,1996-06-05 15:00:00,23,1019,-0.3,78,19,17000,14.816,,,210,,,,,,,,,,,wg-a,,,,AAXX 05154 07761 12667 52108 10230 20190 30180 40190 58003 60006 83832 91500=
07761,1996-06-05 18:00:00,23,1019.2,0.1,65,16,20000,0,,,0,17.7,23.2,,,,,,,,,wg-a,,,,AAXX 05184 07761 12/70 50000 10230 20160 30181 40192 53001 60006 84032 91800 333 10232 20177=
07761,1996-06-05 21:00:00,18,1020.3,1.1,88,16,20000,7.408,,,40,,,,,,,,,,,wg-a,,,,AAXX 05214 07761 12/70 30404 10180 20160 30192 40203 51011 60006 80002 92100=
07761,1996-06-06 00:00:00,15,1019.7,-0.6,88,13,20000,11.112,,,50,,,,,,,,,,,wg-a,,,,AAXX 06004 07761 12/70 /0506 10150 20130 30186 40197 58006 60006 81032 90000=
07761,1996-06-06 03:00:00,14,1019.6,-0.1,88,12,20000,11.112,,,50,,,,,,,,,,,wg-a,,,,AAXX 06034 07761 12870 20506 10140 20120 30185 40196 55001 60006 81031 90300=
07761,1996-06-06 06:00:00,20,1020.2,0.6,68,14,20000,11.112,,,40,14.1,22.8,,,,,,,,,wg-a,,,,AAXX 06064 07761 02670 /0406 10200 20140 30191 40202 52006 60006 81101 90600 333 10228 20141 60004=
07761,1996-06-06 09:00:00,24,1020.5,0.4,65,17,20000,14.816,,,230,,,,,,,,,,,wg-a,,,,AAXX 06094 07761 12670 22308 10240 20170 30195 40205 53004 60006 81141 90900=
07761,1996-06-06 12:00:00,25,1020.6,0.1,61,17,25000,22.224,,,190,,,,,,,,,,,wg-a,,,,AAXX 06124 07761 12675 41912 10250 20170 30196 40206 50001 60006 84240 91200=
07761,1996-06-06 15:00:00,25,1020.5,-0.1,65,18,25000,11.112,,,190,,,,,,,,,,,wg-a,,,,AAXX 06154 07761 12/75 51906 10250 20180 30195 40205 58001 60006 85080 91500=
07761,1996-06-06 18:00:00,23,1020.7,0.2,73,18,25000,11.112,,,210,19.8,25.7,,,,,,,,,wg-a,,,,AAXX 06184 07761 12/75 42106 10230 20180 30197 40207 53002 60006 82081 91800 333 10257 20198=
07761,1996-06-06 21:00:00,19,1021.3,0.5,83,16,10000,7.408,,,50,,,,,,,,,,,wg-a,,,,AAXX 06214 07761 12/60 /0504 10190 20160 30202 40213 51005 60006 80001 92100=
07761,1996-06-07 00:00:00,17,1021.5,0.2,88,15,10000,7.408,,,50,,,,,,,,,,,wg-a,,,,AAXX 07004 07761 12/60 20504 10170 20150 30204 40215 50002 60006 80001 90000=
07761,1996-06-07 03:00:00,16,1021.4,-0.1,88,14,10000,11.112,,,50,,,,,,,,,,,wg-a,,,,AAXX 07034 07761 12/60 20506 10160 20140 30203 40214 55001 60006 81031 90300=
07761,1996-06-07 06:00:00,19,1022.3,0.9,78,15,15000,11.112,,,40,15.3,23.3,,,,,,,,,wg-a,,,,AAXX 07064 07761 02/65 /0406 10190 20150 30212 40223 51009 60006 81031 90600 333 10233 20153 60004=
07761,1996-06-07 09:00:00,24,1022.3,0.1,69,18,20000,11.112,,,230,,,,,,,,,,,wg-a,,,,AAXX 07094 07761 12770 /2306 10240 20180 30213 40223 51001 60006 81100 90900=
07761,1996-06-07 12:00:00,25,1022.1,-0.2,69,19,20000,18.52,,,200,,,,,,,,,,,wg-a,,,,AAXX 07124 07761 12770 22010 10250 20190 30211 40221 58002 60006 81280 91200=
07761,1996-06-07 15:00:00,27,1021.5,-0.6,54,17,20000,11.112,,,210,,,,,,,,,,,wg-a,,,,AAXX 07154 07761 12670 /2106 10270 20170 30205 40215 56006 60006 81330 91500=
07761,1996-06-07 18:00:00,24,1021.1,-0.4,69,18,25000,7.408,,,210,19.1,27.3,,,,,,,,,wg-a,,,,AAXX 07184 07761 12675 /2104 10240 20180 30201 40211 55004 60006 81103 91800 333 10273 20191=
07761,1996-06-07 21:00:00,21,1022,0.8,69,15,25000,11.112,,,40,,,,,,,,,,,wg-a,,,,AAXX 07214 07761 12/75 10406 10210 20150 30209 40220 52008 60006 80001 92100=
07761,1996-06-08 00:00:00,17,1021.9,-0.1,82,14,20000,11.112,,,40,,,,,,,,,,,wg-a,,,,AAXX 08004 07761 12/70 00406 10170 20140 30208 40219 58001 60006 80000 90000=
07761,1996-06-08 03:00:00,15,1021.7,-0.2,88,13,20000,7.408,,,50,,,,,,,,,,,wg-a,,,,AAXX 08034 07761 12/70 00504 10150 20130 30206 40217 55002 60006 80000 90300=
07761,1996-06-08 06:00:00,19,1022.6,0.9,78,15,20000,11.112,,,40,15.2,23.8,,,,,,,,,wg-a,,,,AAXX 08064 07761 02/70 00406 10190 20150 30215 40226 51009 60006 80000 90600 333 10238 20152 60004=
07761,1996-06-08 09:00:00,23,1022.4,-0.2,73,18,20000,11.112,,,210,,,,,,,,,,,wg-a,,,,AAXX 08094 07761 12670 /2106 10230 20180 30213 40224 58002 60006 81100 90900=
07761,1996-06-08 12:00:00,25,1021.6,-0.7,69,19,25000,18.52,,,190,,,,,,,,,,,wg-a,,,,AAXX 08124 07761 12675 /1910 10250 20190 30206 40216 58007 60006 81200 91200=
07761,1996-06-08 15:00:00,25,1020.6,-1,69,19,20000,22.224,,,190,,,,,,,,,,,wg-a,,,,AAXX 08154 07761 12670 /1912 10250 20190 30196 40206 56010 60006 81930 91500=
07761,1996-06-08 18:00:00,23,1020.6,0,73,18,20000,3.704,,,220,19.2,26.2,,,,,,,,,wg-a,,,,AAXX 08184 07761 12870 /2202 10230 20180 30196 40206 50000 60006 81032 91800 333 10262 20192=
07761,1996-06-08 21:00:00,20,1021.4,0.7,83,17,20000,7.408,,,40,,,,,,,,,,,wg-a,,,,AAXX 08214 07761 12/70 /0404 10200 20170 30203 40214 52007 60006 80000 92100=
07761,1996-06-09 00:00:00,17,1020.7,-0.7,94,16,20000,11.112,,,60,,,,,,,,,,,wg-a,,,,AAXX 09004 07761 12/70 00606 10170 20160 30196 40207 58007 60006 80000 90000=
07761,1996-06-09 03:00:00,17,1020.4,-0.3,82,14,20000,11.112,,,50,,,,,,,,,,,wg-a,,,,AAXX 09034 07761 12/70 00506 10170 20140 30193 40204 55003 60006 80000 90300=
07761,1996-06-09 06:00:00,19,1020.8,0.4,83,16,15000,7.408,,,60,15.2,23.9,,,,,,,,,wg-a,,,,AAXX 09064 07761 02/65 00604 10190 20160 30197 40208 53004 60006 80000 90600 333 10239 20152 60004=
07761,1996-06-09 09:00:00,24,1020.6,-0.1,74,19,9000,11.112,,,250,,,,,,,,,,,wg-a,,,,AAXX 09094 07761 12659 22506 10240 20190 30196 40206 58001 60006 82802 90900=
07761,1996-06-09 12:00:00,26,1020.5,-0.1,65,19,11000,18.52,,,230,,,,,,,,,,,wg-a,,,,AAXX 09124 07761 12/61 /2310 10260 20190 30195 40205 55001 60006 91200=
07761,1996-06-09 15:00:00,26,1019.5,-1,65,19,15000,14.816,,,220,,,,,,,,,,,wg-a,,,,AAXX 09154 07761 12565 32208 10260 20190 30185 40195 58010 60006 83900 91500=
07761,1996-06-09 18:00:00,25,1019,-0.5,65,18,10000,11.112,,,230,19.5,27.2,,,,,,,,,wg-a,,,,AAXX 09184 07761 12660 /2306 10250 20180 30180 40190 56005 60006 81800 91800 333 10272 20195=
07761,1996-06-09 21:00:00,21,1020.1,1,78,17,15000,7.408,,,60,,,,,,,,,,,wg-a,,,,AAXX 09214 07761 12/65 /0604 10210 20170 30190 40201 52010 60006 80000 92100=
07761,1996-06-10 00:00:00,18,1020.1,0,83,15,15000,11.112,,,50,,,,,,,,,,,wg-a,,,,AAXX 10004 07761 12/65 00506 10180 20150 30190 40201 50000 60006 80000 90000=
07761,1996-06-10 03:00:00,17,1020.1,-0,82,14,15000,11.112,,,70,,,,,,,,,,,wg-a,,,,AAXX 10034 07761 12/65 00706 10170 20140 30190 40201 55000 60006 80000 90300=
07761,1996-06-10 06:00:00,20,1020.9,0.8,78,16,15000,7.408,,,50,15.9,25.3,,,,,,,,,wg-a,,,,AAXX 10064 07761 02/65 00504 10200 20160 30198 40209 51008 60006 80000 90600 333 10253 20159 60004=
07761,1996-06-10 09:00:00,25,1020.9,0.1,74,20,15000,14.816,,,230,,,,,,,,,,,wg-a,,,,AAXX 10094 07761 12665 42308 10250 20200 30199 40209 53001 60006 81102 90900=
07761,1996-06-10 12:00:00,26,1020.8,-0.1,65,19,15000,14.816,,,200,,,,,,,,,,,wg-a,,,,AAXX 10124 07761 12665 /2008 10260 20190 30198 40208 58001 60006 81902 91200=
07761,1996-06-10 15:00:00,27,1019.8,-1,66,20,15000,18.52,,,210,,,,,,,,,,,wg-a,,,,AAXX 10154 07761 12665 72110 10270 20200 30188 40198 57010 60006 84903 91500=
07761,1996-06-10 18:00:00,25,1019.8,-0,74,20,20000,7.408,,,210,19.9,27.2,,,,,,,,,wg-a,,,,AAXX 10184 07761 12670 72104 10250 20200 30188 40198 55000 60006 81102 91800 333 10272 20199=
07761,1996-06-10 21:00:00,22,1021,1.1,83,19,12000,3.704,,,100,,,,,,,,,,,wg-a,,,,AAXX 10214 07761 12/62 /1002 10220 20190 30199 40210 53011 60006 82031 92100=
07761,1996-06-11 00:00:00,19,1021.5,0.5,88,17,12000,11.112,,,40,,,,,,,,,,,wg-a,,,,AAXX 11004 07761 12/62 50406 10190 20170 30204 40215 50005 60006 80001 90000=
07761,1996-06-11 03:00:00,17,1021.2,-0.3,88,15,12000,7.408,,,60,,,,,,,,,,,wg-a,,,,AAXX 11034 07761 12/62 40604 10170 20150 30201 40212 57003 60006 80001 90300=
07761,1996-06-11 06:00:00,20,1022.2,1,78,16,15000,7.408,,,50,16.6,25,,,,,,,,,wg-a,,,,AAXX 11064 07761 02/65 30504 10200 20160 30211 40222 53010 60006 80001 90600 333 10250 20166 60004=
07761,1996-06-11 09:00:00,24,1022.8,0.7,78,20,14000,14.816,,,240,,,,,,,,,,,wg-a,,,,AAXX 11094 07761 12664 12408 10240 20200 30218 40228 53007 60006 81101 90900=
07761,1996-06-11 12:00:00,27,1022.6,-0.2,66,20,14000,14.816,,,200,,,,,,,,,,,wg-a,,,,AAXX 11124 07761 12664 /2008 10270 20200 30216 40226 58002 60006 81201 91200=
07761,1996-06-11 15:00:00,27,1021.7,-0.9,66,20,18000,18.52,,,200,,,,,,,,,,,wg-a,,,,AAXX 11154 07761 12668 /2010 10270 20200 30207 40217 56009 60006 81260 91500=
07761,1996-06-11 18:00:00,24,1022.1,0.4,74,19,16000,11.112,,,200,20,27,,,,,,,,,wg-a,,,,AAXX 11184 07761 12566 52006 10240 20190 30211 40221 53004 60006 81881 91800 333 10270 20200=
07761,1996-06-11 21:00:00,21,1022.4,0.2,78,17,15000,7.408,,,60,,,,,,,,,,,wg-a,,,,AAXX 11214 07761 12565 /0604 10210 20170 30213 40224 53002 60006 81500 92100=
07761,1996-06-12 00:00:00,18,1022.3,-0.1,83,15,15000,3.704,,,60,,,,,,,,,,,wg-a,,,,AAXX 12004 07761 12/65 00602 10180 20150 30212 40223 58001 60006 80000 90000=
07761,1996-06-12 03:00:00,16,1022.4,0.1,88,14,15000,7.408,,,50,,,,,,,,,,,wg-a,,,,AAXX 12034 07761 12/65 00504 10160 20140 30213 40224 53001 60006 80000 90300=
07761,1996-06-12 06:00:00,20,1022.9,0.5,78,16,15000,7.408,,,60,15.4,24.2,,,,,,,,,wg-a,,,,AAXX 12064 07761 02/65 10604 10200 20160 30218 40229 51005 60006 80001 90600 333 10242 20154 60004=
07761,1996-06-12 09:00:00,25,1022.8,-0,74,20,11000,14.816,,,230,,,,,,,,,,,wg-a,,,,AAXX 12094 07761 12/61 /2308 10250 20200 30218 40228 55000 60006 90900=
07761,1996-06-12 12:00:00,26,1022.2,-0.6,65,19,20000,22.224,,,200,,,,,,,,,,,wg-a,,,,AAXX 12124 07761 12670 /2012 10260 20190 30212 40222 58006 60006 81300 91200=
07761,1996-06-12 15:00:00,27,1021.1,-1.1,62,19,20000,18.52,,,200,,,,,,,,,,,wg-a,,,,AAXX 12154 07761 12670 /2010 10270 20190 30201 40211 57011 60006 81903 91500=
07761,1996-06-12 18:00:00,25,1020.4,-0.7,69,19,20000,14.816,,,200,20.1,27.4,,,,,,,,,wg-a,,,,AAXX 12184 07761 12/70 22008 10250 20190 30194 40204 55007 60006 80001 91800 333 10274 20201=
07761,1996-06-12 21:00:00,20,1021.7,1.2,83,17,15000,7.408,,,50,,,,,,,,,,,wg-a,,,,AAXX 12214 07761 12/65 10504 10200 20170 30206 40217 53012 60006 80001 92100=
07761,1996-06-13 00:00:00,18,1020.9,-0.8,83,15,15000,7.408,,,50,,,,,,,,,,,wg-a,,,,AAXX 13004 07761 12/65 00504 10180 20150 30198 40209 58008 60006 80000 90000=
07761,1996-06-13 03:00:00,16,1020.3,-0.6,88,14,14000,7.408,,,60,,,,,,,,,,,wg-a,,,,AAXX 13034 07761 12/64 10604 10160 20140 30192 40203 55006 60006 80001 90300=
07761,1996-06-13 06:00:00,20,1020,-0.3,73,15,15000,7.408,,,50,15.3,24.7,,,,,,,,,wg-a,,,,AAXX 13064 07761 02/65 00504 10200 20150 30189 40200 58003 60006 80000 90600 333 10247 20153 60004=
07761,1996-06-13 09:00:00,25,1019.1,-0.8,65,18,12000,11.112,,,240,,,,,,,,,,,wg-a,,,,AAXX 13094 07761 12662 /2406 10250 20180 30181 40191 56008 60006 81130 90900=
07761,1996-06-13 12:00:00,25,1019,-0.1,79,21,6000,18.52,,,230,,,,,,,,,,,wg-a,,,,AAXX 13124 07761 12656 42310 10250 20210 30180 40190 58001 60006 81232 91200=
07761,1996-06-13 15:00:00,23,1017.4,-1.6,89,21,7000,11.112,,,230,,,,,,,,,,17,wg-a,,,,AAXX 13154 07761 12657 62306 10230 20210 30164 40174 58016 60006 71791 83903 91500=
07761,1996-06-13 18:00:00,24,1016.9,-0.5,83,21,7000,7.408,,,220,20.3,25.6,,,,,,,,3,wg-a,,,,AAXX 13184 07761 12657 /2204 10240 20210 30159 40169 55005 60006 70391 81132 91800 333 10256 20203=
07761,1996-06-13 21:00:00,21,1017.5,0.5,94,20,7000,7.408,,,40,,,,,,,,,,,wg-a,,,,AAXX 13214 07761 12457 /0404 10210 20200 30164 40175 52005 60006 81502 92100=
07761,1996-06-14 00:00:00,19,1017.2,-0.3,94,18,7000,7.408,,,60,,,,,,,,,,,wg-a,,,,AAXX 14004 07761 12157 40604 10190 20180 30161 40172 58003 60006 81532 90000=
07761,1996-06-14 03:00:00,18,1017,-0.2,94,17,7000,7.408,,,50,,,,,,,,,,,wg-a,,,,AAXX 14034 07761 12157 /0504 10180 20170 30159 40170 58002 60006 84502 90300=
07761,1996-06-14 06:00:00,20,1017.5,0.5,94,19,1500,0,,,0,17.7,23.7,,,,,,,,,wg-a,,,,AAXX 14064 07761 02015 70000 10200 20190 30164 40175 53005 60006 876// 90600 333 10237 20177 60004=
07761,1996-06-14 09:00:00,24,1018.3,0.9,83,21,6000,11.112,,,210,,,,,,,,,,,wg-a,,,,AAXX 14094 07761 12556 /2106 10240 20210 30173 40183 51009 60006 81580 90900=
07761,1996-06-14 12:00:00,26,1017.4,-0.9,79,22,9000,18.52,,,200,,,,,,,,,,,wg-a,,,,AAXX 14124 07761 12559 22010 10260 20220 30164 40174 58009 60006 82300 91200=
07761,1996-06-14 15:00:00,27,1016.4,-1,51,16,10000,14.816,,,80,,,,,,,,,,17,wg-a,,,,AAXX 14154 07761 12660 70808 10270 20160 30154 40164 58010 60006 71791 81363 91500=
07761,1996-06-14 18:00:00,28,1016.6,0.2,48,16,10000,14.816,,,30,19.6,27.7,,,,,,,,17,wg-a,,,,AAXX 14184 07761 12760 70308 10280 20160 30156 40166 53002 60006 71791 8138/ 91800 333 10277 20196=
07761,1996-06-14 21:00:00,21,1018.2,1.5,69,15,15000,18.52,,,40,,,,,,,,,,1,wg-a,,,,AAXX 14214 07761 02665 /0410 10210 20150 30171 40182 51015 61000 70198 81512 92100 333 ////=
07761,1996-06-15 00:00:00,18,1018.1,-0.1,83,15,20000,11.112,,,60,,,,,,,,,,1,wg-a,,,,AAXX 15004 07761 02670 /0606 10180 20150 30170 40181 57001 61000 70198 81500 90000 333 ////=
07761,1996-06-15 03:00:00,17,1017.5,-0.6,82,14,10000,14.816,,,40,,,,,,,,,,,wg-a,,,,AAXX 15034 07761 12660 40408 10170 20140 30164 40175 56006 60006 81502 90300=
07761,1996-06-15 06:00:00,21,1017.6,0.1,73,16,20000,11.112,,,60,16.4,27.7,,,,,,,,,wg-a,,,,AAXX 15064 07761 02670 /0606 10210 20160 30165 40176 50001 61000 81500 90600 333 10277 20164 ////=
07761,1996-06-15 09:00:00,25,1017.8,0.3,69,19,18000,22.224,,,220,,,,,,,,,,,wg-a,,,,AAXX 15094 07761 12668 22212 10250 20190 30168 40178 51003 60006 81281 90900=
07761,1996-06-15 12:00:00,27,1017.7,-0.1,62,19,20000,22.224,,,220,,,,,,,,,,,wg-a,,,,AAXX 15124 07761 12670 22212 10270 20190 30167 40177 58001 60006 81901 91200=
07761,1996-06-15 15:00:00,26,1016.8,-0.9,70,20,15000,22.224,,,210,,,,,,,,,,17,wg-a,,,,AAXX 15154 07761 12565 22112 10260 20200 30158 40168 58009 60006 71790 82960 91500=
07761,1996-06-15 18:00:00,24,1017.1,0.3,74,19,15000,11.112,,,200,20.9,26.9,,,,,,,,1,wg-a,,,,AAXX 15184 07761 12665 62006 10240 20190 30161 40171 53003 60006 70191 81132 91800 333 10269 20209=
07761,1996-06-15 21:00:00,21,1017.8,0.6,83,18,15000,7.408,,,50,,,,,,,,,,,wg-a,,,,AAXX 15214 07761 12/65 /0504 10210 20180 30167 40178 53006 60006 82032 92100=
07761,1996-06-16 00:00:00,19,1017.4,-0.4,83,16,15000,11.112,,,50,,,,,,,,,,,wg-a,,,,AAXX 16004 07761 12/65 00506 10190 20160 30163 40174 58004 60006 80000 90000=
07761,1996-06-16 03:00:00,17,1016.6,-0.8,82,14,15000,11.112,,,50,,,,,,,,,,,wg-a,,,,AAXX 16034 07761 12/65 10506 10170 20140 30155 40166 56008 60006 80001 90300=
07761,1996-06-16 06:00:00,20,1016.6,-0,64,13,15000,11.112,,,50,16.4,23.7,,,,,,,,,wg-a,,,,AAXX 16064 07761 02/65 10506 10200 20130 30155 40166 55000 60006 80001 90600 333 10237 20164 60004=
07761,1996-06-16 09:00:00,25,1016.8,0.3,69,19,15000,18.52,,,230,,,,,,,,,,,wg-a,,,,AAXX 16094 07761 12665 /2310 10250 20190 30158 40168 53003 60006 81100 90900=
07761,1996-06-16 12:00:00,26,1016.4,-0.4,70,20,15000,29.632,,,240,,,,,,,,,,,wg-a,,,,AAXX 16124 07761 12665 22416 10260 20200 30154 40164 58004 60006 81901 91200=
07761,1996-06-16 15:00:00,26,1015.7,-0.7,70,20,15000,18.52,,,220,,,,,,,,,,17,wg-a,,,,AAXX 16154 07761 12665 /2210 10260 20200 30147 40157 58007 60006 71791 83901 91500=
07761,1996-06-16 18:00:00,24,1014.9,-0.8,61,16,18000,14.816,,,180,20,26.8,,,,,,,,1,wg-a,,,,AAXX 16184 07761 12668 /1808 10240 20160 30139 40149 56008 60006 70191 81201 91800 333 10268 20200=
07761,1996-06-16 21:00:00,20,1016,1,83,17,20000,11.112,,,70,,,,,,,,,,,wg-a,,,,AAXX 16214 07761 12/70 30706 10200 20170 30149 40160 52010 60006 80002 92100=
07761,1996-06-17 00:00:00,19,1016.5,0.5,83,16,20000,11.112,,,50,,,,,,,,,,,wg-a,,,,AAXX 17004 07761 12/70 40506 10190 20160 30154 40165 52005 60006 81032 90000=
07761,1996-06-17 03:00:00,17,1016.3,-0.2,88,15,20000,7.408,,,60,,,,,,,,,,,wg-a,,,,AAXX 17034 07761 12/70 30604 10170 20150 30152 40163 56002 60006 81032 90300=
07761,1996-06-17 06:00:00,20,1017.2,0.9,73,15,20000,7.408,,,50,16.3,23.9,,,,,,,,,wg-a,,,,AAXX 17064 07761 02570 30504 10200 20150 30161 40172 52009 60006 81532 90600 333 10239 20163 60004=
07761,1996-06-17 09:00:00,24,1017.1,0,69,18,20000,11.112,,,240,,,,,,,,,,,wg-a,,,,AAXX 17094 07761 12670 /2406 10240 20180 30161 40171 50000 60006 81201 90900=
07761,1996-06-17 12:00:00,24,1018.1,1,61,16,15000,7.408,,,150,,,,,,,,,,17,wg-a,,,,AAXX 17124 07761 12665 51504 10240 20160 30171 40181 53010 60006 71791 84901 91200=
07761,1996-06-17 15:00:00,23,1017.5,-0.6,57,14,500,7.408,,,140,,,,,,,,,,1,wg-a,,,,AAXX 17154 07761 02600 41404 10230 20140 30165 40175 58006 61000 70196 81202 91500 333 ////=
07761,1996-06-17 18:00:00,24,1017.6,0.1,65,17,25000,11.112,,,250,19.7,26,,,,,,,,1,wg-a,,,,AAXX 17184 07761 32675 /2506 10240 20170 30166 40176 53001 70196 81100 91800 333 10260 20197=
07761,1996-06-17 21:00:00,19,1018.8,1.1,78,15,25000,14.816,,,50,,,,,,,,,,,wg-a,,,,AAXX 17214 07761 12/75 00508 10190 20150 30177 40188 52011 60006 80000 92100=
07761,1996-06-18 00:00:00,17,1018.7,-0.1,82,14,20000,7.408,,,40,,,,,,,,,,,wg-a,,,,AAXX 18004 07761 12/70 00404 10170 20140 30176 40187 58001 60006 80000 90000=
07761,1996-06-18 03:00:00,15,1018.2,-0.5,82,12,20000,11.112,,,40,,,,,,,,,,,wg-a,,,,AAXX 18034 07761 12/70 00406 10150 20120 30171 40182 58005 60006 80000 90300=
07761,1996-06-18 06:00:00,19,1018.4,0.2,68,13,20000,11.112,,,60,14.4,23.8,,,,,,,,,wg-a,,,,AAXX 18064 07761 02/70 10606 10190 20130 30173 40184 52002 60006 80001 90600 333 10238 20144 61000=
07761,1996-06-18 09:00:00,25,1018,-0.3,61,17,25000,14.816,,,220,,,,,,,,,,,wg-a,,,,AAXX 18094 07761 12675 /2208 10250 20170 30170 40180 56003 60006 81100 90900=
07761,1996-06-18 12:00:00,26,1017.6,-0.4,70,20,20000,22.224,,,230,,,,,,,,,,,wg-a,,,,AAXX 18124 07761 12670 /2312 10260 20200 30166 40176 58004 60006 81201 91200=
07761,1996-06-18 15:00:00,25,1017.2,-0.4,65,18,18000,22.224,,,230,,,,,,,,,,,wg-a,,,,AAXX 18154 07761 12668 22312 10250 20180 30162 40172 58004 60006 82201 91500=
07761,1996-06-18 18:00:00,24,1015.9,-1.3,69,18,20000,14.816,,,220,18.8,26.2,,,,,,,,,wg-a,,,,AAXX 18184 07761 12670 /2208 10240 20180 30149 40159 56013 60006 81101 91800 333 10262 20188=
07761,1996-06-18 21:00:00,20,1017,1,78,16,15000,11.112,,,50,,,,,,,,,,,wg-a,,,,AAXX 18214 07761 12/65 30506 10200 20160 30159 40170 53010 60006 80001 92100=
07761,1996-06-19 00:00:00,17,1016.5,-0.5,82,14,15000,11.112,,,40,,,,,,,,,,,wg-a,,,,AAXX 19004 07761 12/65 10406 10170 20140 30154 40165 58005 60006 80001 90000=
07761,1996-06-19 03:00:00,15,1015.4,-1.1,82,12,15000,14.816,,,60,,,,,,,,,,,wg-a,,,,AAXX 19034 07761 12/65 10608 10150 20120 30143 40154 56011 60006 80001 90300=
07761,1996-06-19 09:00:00,26,1015.5,0.4,61,18,18000,7.408,,,230,,,,,,,,,,,wg-a,,,,AAXX 19094 07761 12668 32304 10260 20180 30145 40155 51004 60006 81231 90900=
07761,1996-06-19 12:00:00,26,1014.9,-0.6,70,20,18000,22.224,,,230,,,,,,,,,,,wg-a,,,,AAXX 19124 07761 12668 32312 10260 20200 30139 40149 58006 60006 82202 91200=
07761,1996-06-19 15:00:00,26,1014.3,-0.6,70,20,20000,14.816,,,230,,,,,,,,,,,wg-a,,,,AAXX 19154 07761 12670 /2308 10260 20200 30133 40143 58006 60006 82202 91500=
07761,1996-06-19 18:00:00,24,1013.5,-0.8,74,19,20000,14.816,,,220,19.3,26.7,,,,,,,,,wg-a,,,,AAXX 19184 07761 12570 22208 10240 20190 30125 40135 56008 60006 81401 91800 333 10267 20193=
07761,1996-06-19 21:00:00,21,1014.6,1,83,18,15000,7.408,,,60,,,,,,,,,,,wg-a,,,,AAXX 19214 07761 12565 /0604 10210 20180 30135 40146 53010 60006 81400 92100=
07761,1996-06-20 00:00:00,19,1013.9,-0.7,88,17,15000,11.112,,,60,,,,,,,,,,,wg-a,,,,AAXX 20004 07761 12665 40606 10190 20170 30128 40139 58007 60006 84500 90000=
07761,1996-06-20 03:00:00,18,1013.1,-0.8,88,16,15000,3.704,,,60,,,,,,,,,,,wg-a,,,,AAXX 20034 07761 12665 40602 10180 20160 30120 40131 56008 60006 81501 90300=
07761,1996-06-20 06:00:00,20,1012.9,-0.2,78,16,15000,11.112,,,40,17,24.3,,,,,,,,,wg-a,,,,AAXX 20064 07761 02565 /0406 10200 20160 30118 40129 58002 60006 81501 90600 333 10243 20170 60004=
07761,1996-06-20 09:00:00,25,1013.2,0.4,69,19,15000,11.112,,,250,,,,,,,,,,,wg-a,,,,AAXX 20094 07761 12565 /2506 10250 20190 30122 40132 51004 60006 82501 90900=
07761,1996-06-20 12:00:00,26,1012.7,-0.5,74,21,20000,22.224,,,220,,,,,,,,,,,wg-a,,,,AAXX 20124 07761 12670 22212 10260 20210 30117 40127 58005 60006 82202 91200=
07761,1996-06-20 15:00:00,26,1012.2,-0.5,70,20,20000,18.52,,,240,,,,,,,,,,,wg-a,,,,AAXX 20154 07761 12670 32410 10260 20200 30112 40122 58005 60006 81202 91500=
07761,1996-06-20 18:00:00,24,1011.5,-0.7,78,20,20000,7.408,,,230,20.3,27.6,,,,,,,,,wg-a,,,,AAXX 20184 07761 12670 22304 10240 20200 30105 40115 55007 60006 81202 91800 333 10276 20203=
07761,1996-06-20 21:00:00,20,1011.6,0.1,83,17,20000,7.408,,,60,,,,,,,,,,,wg-a,,,,AAXX 20214 07761 12/70 30604 10200 20170 30106 40116 53001 60006 80002 92100=
07761,1996-06-21 00:00:00,17,1011.2,-0.5,88,15,20000,11.112,,,50,,,,,,,,,,,wg-a,,,,AAXX 21004 07761 12/70 00506 10170 20150 30101 40112 58005 60006 80000 90000=
07761,1996-06-21 03:00:00,17,1009.9,-1.3,77,13,20000,14.816,,,40,,,,,,,,,,,wg-a,,,,AAXX 21034 07761 12/70 10408 10170 20130 30088 40099 56013 60006 81030 90300=
07761,1996-06-21 06:00:00,21,1009.6,-0.2,56,12,500,14.816,,,50,16.3,24.3,,,,,,,,,wg-a,,,,AAXX 21064 07761 02/00 10508 10210 20120 30086 40096 58002 60006 81030 90600 333 10243 20163 60004=
07761,1996-06-21 09:00:00,30,1007.9,-1.7,27,9,25000,11.112,,,270,,,,,,,,,,,wg-a,,,,AAXX 21094 07761 12/75 12706 10300 20090 30069 40079 58017 60006 80001 90900=
07761,1996-06-21 12:00:00,32,1006.2,-1.7,29,12,25000,14.816,,,270,,,,,,,,,,,wg-a,,,,AAXX 21124 07761 12875 62708 10320 20120 30052 40062 58017 60006 84081 91200=
07761,1996-06-21 18:00:00,26,1005.8,0.3,74,21,25000,22.224,,,200,20.9,32.8,,0,,,,,,29,wg-a,,,,AAXX 21184 07761 12575 /2012 10260 20210 30048 40058 53003 60007 72998 8388/ 91800 333 10328 20209=
07761,1996-06-21 21:00:00,24,1006.6,0.8,89,22,12000,22.224,,,220,,,,,,,,,,,wg-a,,,,AAXX 21214 07761 12462 52212 10240 20220 30056 40066 53008 60006 85800 92100=
07761,1996-06-22 00:00:00,22,1006.4,-0.2,88,20,9000,11.112,,,140,,,,,,,,,,,wg-a,,,,AAXX 22004 07761 12459 81406 10220 20200 30054 40064 58002 60006 878// 90000=
07761,1996-06-22 03:00:00,22,1006.4,-0,83,19,16000,14.816,,,270,,,,,,,,,,13,wg-a,,,,AAXX 22034 07761 12466 52708 10220 20190 30054 40064 55000 60006 71311 85903 90300=
07761,1996-06-22 06:00:00,22,1007.8,1.4,73,17,18000,22.224,,,260,21.4,25.9,,0,,,,,,1,wg-a,,,,AAXX 22064 07761 02568 62612 10220 20170 30068 40078 53014 60004 70186 85230 90600 333 10259 20214 60007=
07761,1996-06-22 09:00:00,23,1009,1.2,61,15,20000,31.484,,,250,,,,,,,,,,1,wg-a,,,,AAXX 22094 07761 02570 52517 10230 20150 30080 40090 51012 61000 70186 84231 90900 333 ////=
07761,1996-06-22 12:00:00,22,1010.1,1.1,57,13,20000,35.188,,68.524,260,,,,,,,,,,2,wg-a,,,,AAXX 22124 07761 02570 52619 10220 20130 30091 40101 53011 61000 70286 85441 91200 333 //// 91037=
07761,1996-06-22 15:00:00,21,1011.3,1.2,53,11,20000,29.632,,55.56,270,,,,,,,,,,,wg-a,,,,AAXX 22154 07761 12670 52716 10210 20110 30103 40113 53012 60006 85201 91500 333 91030=
07761,1996-06-22 18:00:00,20,1011.7,0.3,46,8,20000,25.928,,72.228,270,20.3,23.2,,,,,,,,,wg-a,,,,AAXX 22184 07761 32670 32714 10200 20080 30106 40117 50003 83200 91800 333 10232 20203 91039=
07761,1996-06-22 21:00:00,19,1011.7,0,46,7,20000,22.224,,,270,,,,,,,,,,,wg-a,,,,AAXX 22214 07761 12670 32712 10190 20070 30106 40117 50000 60006 83200 92100=
07761,1996-06-23 00:00:00,18,1012.2,0.5,52,8,20000,18.52,,,280,,,,,,,,,,,wg-a,,,,AAXX 23004 07761 12670 32810 10180 20080 30111 40122 53005 60006 83200 90000=
07761,1996-06-23 06:00:00,16,1013.7,1.2,63,9,25000,7.408,,,40,12.1,20.4,,,,,,,,,wg-a,,,,AAXX 23064 07761 02675 30404 10160 20090 30126 40137 51012 60006 83800 90600 333 10204 20121 61000=
07761,1996-06-23 09:00:00,20,1014.6,0.9,56,11,500,22.224,,,230,,,,,,,,,,,wg-a,,,,AAXX 23094 07761 12600 /2312 10200 20110 30135 40146 52009 60006 81800 90900=
07761,1996-06-23 12:00:00,21,1014.8,0.2,56,12,500,25.928,,,240,,,,,,,,,,,wg-a,,,,AAXX 23124 07761 12600 22414 10210 20120 30137 40148 50002 60006 81101 91200=
07761,1996-06-23 15:00:00,21,1015.3,0.5,53,11,25000,18.52,,,240,,,,,,,,,,,wg-a,,,,AAXX 23154 07761 12675 42410 10210 20110 30142 40153 52005 60006 83801 91500=
07761,1996-06-23 18:00:00,19,1015.2,-0.1,60,11,20000,11.112,,,230,16.2,21.6,,,,,,,,,wg-a,,,,AAXX 23184 07761 12670 22306 10190 20110 30141 40152 56001 60006 81501 91800 333 10216 20162=
07761,1996-06-23 21:00:00,15,1016.5,1.3,67,9,20000,11.112,,,60,,,,,,,,,,,wg-a,,,,AAXX 23214 07761 12670 20606 10150 20090 30154 40165 53013 60006 82500 92100=
07761,1996-06-24 00:00:00,14,1015.7,-0.8,72,9,20000,14.816,,,60,,,,,,,,,,,wg-a,,,,AAXX 24004 07761 12/70 00608 10140 20090 30146 40157 57008 60006 80000 90000=
07761,1996-06-24 03:00:00,12,1015.2,-0.5,76,8,20000,14.816,,,60,,,,,,,,,,,wg-a,,,,AAXX 24034 07761 12670 /0608 10120 20080 30141 40152 56005 60006 81500 90300=
07761,1996-06-24 06:00:00,16,1015.7,0.5,63,9,25000,11.112,,,40,11.2,19.1,,,,,,,,,wg-a,,,,AAXX 24064 07761 02575 /0406 10160 20090 30146 40157 53005 60006 81832 90600 333 10191 20112 60004=
07761,1996-06-24 09:00:00,22,1016.1,0.4,53,12,500,18.52,,,270,,,,,,,,,,,wg-a,,,,AAXX 24094 07761 12500 62710 10220 20120 30150 40161 50004 60006 81332 90900=
07761,1996-06-24 12:00:00,23,1015.8,-0.2,50,12,500,31.484,,,220,,,,,,,,,,,wg-a,,,,AAXX 24124 07761 12600 /2217 10230 20120 30148 40158 58002 60006 82932 91200=
07761,1996-06-24 15:00:00,21,1015.3,-0.6,69,15,20000,35.188,,,220,,,,,,,,,,15,wg-a,,,,AAXX 24154 07761 12670 72219 10210 20150 30142 40153 56006 60006 71511 8298/ 91500=
07761,1996-06-24 18:00:00,20,1016,0.7,68,14,20000,22.224,,,220,15.6,24.1,,,,,,,,17,wg-a,,,,AAXX 24184 07761 02570 62212 10200 20140 30149 40160 51007 61000 71798 83980 91800 333 10241 20156 ////=
07761,1996-06-24 21:00:00,15,1017.6,1.6,72,10,12000,18.52,,,50,,,,0,,,,,,17,wg-a,,,,AAXX 24214 07761 12562 60510 10150 20100 30165 40176 53016 60007 71799 86900 92100=
07761,1996-06-25 00:00:00,13,1016.9,-0.7,77,9,15000,18.52,,,50,,,,,,,,,,17,wg-a,,,,AAXX 25004 07761 12565 20510 10130 20090 30158 40169 55007 60006 71798 82900 90000=
07761,1996-06-25 03:00:00,13,1016,-0.9,77,9,500,14.816,,,50,,,,,,,,,,25,wg-a,,,,AAXX 25034 07761 02500 /0508 10130 20090 30149 40160 58009 61000 72598 84802 90300 333 ////=
07761,1996-06-25 06:00:00,15,1016.3,0.3,72,10,500,11.112,,,50,11.5,19.7,,,,,,,,1,wg-a,,,,AAXX 25064 07761 12500 40506 10150 20100 30152 40163 53003 60004 70198 82872 90600 333 10197 20115=
07761,1996-06-25 09:00:00,21,1015.9,-0.4,60,13,500,18.52,,,240,,,,,,,,,,,wg-a,,,,AAXX 25094 07761 12600 52410 10210 20130 30148 40159 58004 60006 82972 90900=
07761,1996-06-25 12:00:00,21,1015,-0.9,53,11,500,18.52,,,220,,,,,,,,,,,wg-a,,,,AAXX 25124 07761 12600 42210 10210 20110 30139 40150 58009 60006 83272 91200=
07761,1996-06-25 15:00:00,22,1015,-0,43,9,25000,18.52,,,200,,,,,,,,,,,wg-a,,,,AAXX 25154 07761 12675 42010 10220 20090 30139 40150 55000 60006 84800 91500=
07761,1996-06-25 18:00:00,21,1015.2,0.2,49,10,25000,11.112,,,170,15,23.1,,,,,,,,,wg-a,,,,AAXX 25184 07761 12675 41706 10210 20100 30141 40152 53002 60006 84800 91800 333 10231 20150=
07761,1996-06-25 21:00:00,17,1016.3,1.1,72,12,20000,7.408,,,30,,,,,,,,,,,wg-a,,,,AAXX 25214 07761 12570 20304 10170 20120 30152 40163 53011 60006 82800 92100=
07761,1996-06-26 00:00:00,14,1016.7,0.4,82,11,20000,11.112,,,60,,,,,,,,,,,wg-a,,,,AAXX 26004 07761 12570 20606 10140 20110 30156 40167 51004 60006 82800 90000=
07761,1996-06-26 03:00:00,14,1016.1,-0.6,82,11,20000,14.816,,,50,,,,,,,,,,,wg-a,,,,AAXX 26034 07761 12570 30508 10140 20110 30150 40161 58006 60006 83500 90300=
07761,1996-06-26 06:00:00,16,1016.2,0.1,77,12,20000,11.112,,,50,13.4,21.5,,,,,,,,,wg-a,,,,AAXX 26064 07761 02570 /0506 10160 20120 30151 40162 51001 60006 81131 90600 333 10215 20134 60004=
07761,1996-06-26 09:00:00,22,1016.7,0.5,60,14,20000,14.816,,,220,,,,,,,,,,,wg-a,,,,AAXX 26094 07761 12570 32208 10220 20140 30156 40167 51005 60006 83201 90900=
07761,1996-06-26 12:00:00,22,1017,0.3,65,15,20000,25.928,,,240,,,,,,,,,,17,wg-a,,,,AAXX 26124 07761 02470 72414 10220 20150 30159 40170 53003 61000 71798 84901 91200 333 6100=
07761,1996-06-26 15:00:00,22,1017.5,0.5,57,13,25000,14.816,,,230,,,,,,,,,,1,wg-a,,,,AAXX 26154 07761 12575 52308 10220 20130 30164 40175 50005 60006 70192 81262 91500=
07761,1996-06-26 18:00:00,20,1017.8,0.3,64,13,25000,14.816,,,230,16.4,22.7,,,,,,,,1,wg-a,,,,AAXX 26184 07761 32575 /2308 10200 20130 30167 40178 53003 70191 81100 91800 333 10227 20164=
07761,1996-06-26 21:00:00,16,1019.3,1.5,82,13,15000,11.112,,,60,,,,,,,,,,,wg-a,,,,AAXX 26214 07761 12665 20606 10160 20130 30182 40193 53015 60006 81502 92100=
07761,1996-06-27 00:00:00,14,1019.6,0.3,88,12,15000,11.112,,,50,,,,,,,,,,,wg-a,,,,AAXX 27004 07761 12/65 00506 10140 20120 30185 40196 51003 60006 80000 90000=
07761,1996-06-27 03:00:00,13,1019.2,-0.4,82,10,17000,7.408,,,40,,,,,,,,,,,wg-a,,,,AAXX 27034 07761 12/67 /0404 10130 20100 30181 40192 56004 60006 81032 90300=
07761,1996-06-27 06:00:00,15,1019.8,0.6,82,12,18000,11.112,,,30,11,19.4,,,,,,,,,wg-a,,,,AAXX 27064 07761 02/68 10306 10150 20120 30187 40198 53006 60006 80002 90600 333 10194 20110 61000=
07761,1996-06-27 09:00:00,22,1020.4,0.6,65,15,18000,18.52,,,230,,,,,,,,,,,wg-a,,,,AAXX 27094 07761 12768 /2310 10220 20150 30193 40204 52006 60006 81102 90900=
07761,1996-06-27 12:00:00,23,1020.8,0.5,61,15,18000,22.224,,,210,,,,,,,,,,,wg-a,,,,AAXX 27124 07761 12768 22112 10230 20150 30198 40208 51005 60006 81202 91200=
07761,1996-06-27 15:00:00,23,1020.4,-0.4,69,17,18000,22.224,,,190,,,,,,,,,,,wg-a,,,,AAXX 27154 07761 12568 41912 10230 20170 30194 40204 56004 60006 82302 91500=
07761,1996-06-27 18:00:00,22,1020.8,0.3,69,16,18000,14.816,,,180,15.4,24,,,,,,,,,wg-a,,,,AAXX 27184 07761 12768 41808 10220 20160 30197 40208 53003 60006 81202 91800 333 10240 20154=
07761,1996-06-27 21:00:00,18,1022.6,1.8,73,13,10000,7.408,,,50,,,,,,,,,,,wg-a,,,,AAXX 27214 07761 12/60 /0504 10180 20130 30215 40226 53018 60006 92100=
07761,1996-06-28 00:00:00,16,1022.9,0.3,82,13,15000,3.704,,,70,,,,,,,,,,,wg-a,,,,AAXX 28004 07761 12/65 40702 10160 20130 30218 40229 51003 60006 80002 90000=
07761,1996-06-28 03:00:00,14,1022.7,-0.2,88,12,15000,11.112,,,40,,,,,,,,,,,wg-a,,,,AAXX 28034 07761 12/65 40406 10140 20120 30216 40227 56002 60006 80002 90300=
07761,1996-06-28 06:00:00,17,1023,0.3,77,13,17000,7.408,,,50,13.6,22.2,,,,,,,,,wg-a,,,,AAXX 28064 07761 02/67 00504 10170 20130 30219 40230 53003 60006 80000 90600 333 10222 20136 60004=
07761,1996-06-28 09:00:00,22,1023.4,0.4,78,18,20000,18.52,,,230,,,,,,,,,,,wg-a,,,,AAXX 28094 07761 12570 22310 10220 20180 30223 40234 53004 60006 81101 90900=
07761,1996-06-28 12:00:00,24,1023.3,-0.1,61,16,20000,18.52,,,220,,,,,,,,,,,wg-a,,,,AAXX 28124 07761 12570 42210 10240 20160 30222 40233 58001 60006 81201 91200=
07761,1996-06-28 15:00:00,24,1022.2,-1.1,57,15,25000,18.52,,,210,,,,,,,,,,,wg-a,,,,AAXX 28154 07761 12575 /2110 10240 20150 30211 40222 58011 60006 81201 91500=
07761,1996-06-28 18:00:00,22,1021.3,-0.9,73,17,25000,14.816,,,210,17.3,24,,,,,,,,,wg-a,,,,AAXX 28184 07761 12/75 12108 10220 20170 30202 40213 56009 60006 80001 91800 333 10240 20173=
07761,1996-06-28 21:00:00,17,1021.8,0.5,88,15,20000,11.112,,,60,,,,,,,,,,,wg-a,,,,AAXX 28214 07761 12/70 00606 10170 20150 30207 40218 53005 60006 80000 92100=
07761,1996-06-29 00:00:00,15,1021.4,-0.4,82,12,20000,11.112,,,50,,,,,,,,,,,wg-a,,,,AAXX 29004 07761 12/70 00506 10150 20120 30203 40214 58004 60006 80000 90000=
07761,1996-06-29 03:00:00,14,1020.3,-1.1,82,11,20000,14.816,,,50,,,,,,,,,,,wg-a,,,,AAXX 29034 07761 12/70 10508 10140 20110 30192 40203 56011 60006 80001 90300=
07761,1996-06-29 06:00:00,17,1020.7,0.4,72,12,20000,11.112,,,50,13.2,21.7,,,,,,,,,wg-a,,,,AAXX 29064 07761 02/70 /0506 10170 20120 30196 40207 53004 60006 80000 90600 333 10217 20132 60004=
07761,1996-06-29 09:00:00,23,1020.6,-0.1,73,18,20000,11.112,,,230,,,,,,,,,,,wg-a,,,,AAXX 29094 07761 12670 32306 10230 20180 30195 40206 57001 60006 83170 90900=
07761,1996-06-29 12:00:00,24,1019.7,-0.8,69,18,15000,25.928,,,230,,,,,,,,,,,wg-a,,,,AAXX 29124 07761 12665 22314 10240 20180 30187 40197 58008 60006 81180 91200=
07761,1996-06-29 15:00:00,24,1019,-0.7,69,18,15000,14.816,,,220,,,,,,,,,,,wg-a,,,,AAXX 29154 07761 12565 22208 10240 20180 30180 40190 58007 60006 82141 91500=
07761,1996-06-29 18:00:00,22,1018,-1.1,83,19,12000,18.52,,,250,17,,,,,,,,,,wg-a,,,,AAXX 29184 07761 12562 42510 10220 20190 30169 40180 55011 60006 84801 91800 333 20170=
07761,1996-06-29 21:00:00,20,1018.2,0.2,88,18,9000,7.408,,,230,,,,,,,,,,,wg-a,,,,AAXX 29214 07761 12459 /2304 10200 20180 30171 40182 53002 60006 83601 92100=
07761,1996-06-30 00:00:00,18,1017.1,-1.1,88,16,9000,7.408,,,50,,,,,,,,,,,wg-a,,,,AAXX 30004 07761 12559 60504 10180 20160 30160 40171 58011 60006 82501 90000=
07761,1996-06-30 03:00:00,17,1015.4,-1.7,88,15,10000,7.408,,,60,,,,,,,,,,,wg-a,,,,AAXX 30034 07761 12460 70604 10170 20150 30143 40154 58017 60006 865// 90300=
07761,1996-06-30 06:00:00,20,1014.9,-0.5,73,15,20000,7.408,,,60,16.6,21.7,,,,,,,,,wg-a,,,,AAXX 30064 07761 02570 70604 10200 20150 30138 40149 56005 60006 82502 90600 333 10217 20166 60004=
07761,1996-06-30 09:00:00,23,1014.4,-0.4,57,14,20000,22.224,,,240,,,,,,,,,,,wg-a,,,,AAXX 30094 07761 12570 /2412 10230 20140 30134 40144 58004 60006 82102 90900=
07761,1996-06-30 12:00:00,23,1014.4,0,61,15,18000,18.52,,,220,,,,,,,,,,,wg-a,,,,AAXX 30124 07761 12668 22210 10230 20150 30134 40144 50000 60006 81101 91200=
07761,1996-06-30 15:00:00,23,1014.5,0.1,65,16,16000,14.816,,,220,,,,,,,,,,,wg-a,,,,AAXX 30154 07761 12666 /2208 10230 20160 30135 40145 52001 60006 81101 91500=
07761,1996-06-30 18:00:00,21,1014.9,0.3,73,16,12000,14.816,,,210,19.6,23.7,,,,,,,,,wg-a,,,,AAXX 30184 07761 12562 22108 10210 20160 30138 40149 53003 60006 82801 91800 333 10237 20196=
07761,1996-06-30 21:00:00,19,1015.5,0.6,78,15,12000,7.408,,,140,,,,,,,,,,,wg-a,,,,AAXX 30214 07761 12462 41404 10190 20150 30144 40155 50006 60006 82501 92100=
07761,1996-07-01 00:00:00,18,1015.2,-0.3,83,15,15000,7.408,,,70,,,,,,,,,,,wg-a,,,,AAXX 01004 07761 12565 70704 10180 20150 30141 40152 58003 60006 875// 90000=
07761,1996-07-01 03:00:00,16,1013.6,-1.6,82,13,15000,11.112,,,50,,,,,,,,,,,wg-a,,,,AAXX 01034 07761 12565 /0506 10160 20130 30125 40136 57016 60006 81500 90300=
07761,1996-07-01 06:00:00,18,1013.4,-0.2,73,13,20000,11.112,,,50,14.9,21.3,,,,,,,,,wg-a,,,,AAXX 01064 07761 02570 /0506 10180 20130 30123 40134 58002 60006 81500 90600 333 10213 20149 60004=
07761,1996-07-01 09:00:00,23,1013.4,0.1,69,17,20000,14.816,,,240,,,,,,,,,,,wg-a,,,,AAXX 01094 07761 12670 /2408 10230 20170 30124 40134 52001 60006 81100 90900=
07761,1996-07-01 12:00:00,24,1013.2,-0.2,69,18,20000,22.224,,,240,,,,,,,,,,,wg-a,,,,AAXX 01124 07761 12570 /2412 10240 20180 30122 40132 58002 60006 81100 91200=
07761,1996-07-01 15:00:00,23,1012.3,-0.9,73,18,25000,18.52,,,230,,,,,,,,,,,wg-a,,,,AAXX 01154 07761 12675 /2310 10230 20180 30113 40123 57009 60006 81100 91500=
07761,1996-07-01 18:00:00,22,1012.4,0.1,73,17,25000,11.112,,,210,18.4,24.3,,,,,,,,,wg-a,,,,AAXX 01184 07761 12/75 02106 10220 20170 30114 40124 53001 60006 80000 91800 333 10243 20184=
07761,1996-07-02 00:00:00,16,1012.3,-0.8,82,13,20000,11.112,,,40,,,,,,,,,,,wg-a,,,,AAXX 02004 07761 12/70 00406 10160 20130 30112 40123 58008 60006 80000 90000=
07761,1996-07-02 03:00:00,15,1011.6,-0.7,82,12,20000,11.112,,,70,,,,,,,,,,,wg-a,,,,AAXX 02034 07761 12/70 10706 10150 20120 30105 40116 58007 60006 81030 90300=
07761,1996-07-02 06:00:00,18,1011.3,-0.3,73,13,25000,11.112,,,60,13.8,21.8,,,,,,,,,wg-a,,,,AAXX 02064 07761 02775 /0606 10180 20130 30102 40113 58003 60006 81201 90600 333 10218 20138 60004=
07761,1996-07-02 09:00:00,23,1011.6,0.4,69,17,500,25.928,,,240,,,,,,,,,,,wg-a,,,,AAXX 02094 07761 12/00 52414 10230 20170 30106 40116 53004 60006 84082 90900=
07761,1996-07-02 12:00:00,25,1009.9,-1.7,50,14,500,7.408,,,250,,,,,,,,,,,wg-a,,,,AAXX 02124 07761 12/00 62504 10250 20140 30089 40099 58017 60006 83082 91200=
07761,1996-07-02 15:00:00,21,1011.1,1.2,88,19,15000,18.52,,,190,,,,0,,,,,,80,wg-a,,,,AAXX 02154 07761 12565 /1910 10210 20190 30101 40111 53012 60007 78096 8158/ 91500=
07761,1996-07-02 18:00:00,22,1009.9,-1.2,78,18,500,7.408,,,220,18,25.4,,,,,,,,1,wg-a,,,,AAXX 02184 07761 02/00 32204 10220 20180 30089 40099 55012 61000 70196 81082 91800 333 10254 20180 ////=
07761,1996-07-02 21:00:00,19,1010.9,0.9,83,16,500,7.408,,,80,,,,,,,,,,1,wg-a,,,,AAXX 02214 07761 02/00 40804 10190 20160 30098 40109 53009 61000 70198 82082 92100 333 ////=
07761,1996-07-03 00:00:00,18,1011.4,0.5,88,16,15000,7.408,,,40,,,,,,,,,,3,wg-a,,,,AAXX 03004 07761 02765 50404 10180 20160 30103 40114 50005 61000 70398 81582 90000 333 ////=
07761,1996-07-03 03:00:00,17,1012.2,0.8,88,15,20000,11.112,,,50,,,,,,,,,,,wg-a,,,,AAXX 03034 07761 12/70 20506 10170 20150 30111 40122 51008 60006 82080 90300=
07761,1996-07-03 06:00:00,18,1013.2,1,83,15,500,7.408,,,60,15.7,22.5,,,,,,,,,wg-a,,,,AAXX 03064 07761 12400 /0604 10180 20150 30121 40132 52010 60004 81100 90600 333 10225 20157=
07761,1996-07-03 09:00:00,23,1014.4,1.3,57,14,500,22.224,,,230,,,,,,,,,,,wg-a,,,,AAXX 03094 07761 12600 /2312 10230 20140 30134 40144 51013 60006 81100 90900=
07761,1996-07-03 12:00:00,24,1015.1,0.7,54,14,25000,29.632,,,240,,,,,,,,,,,wg-a,,,,AAXX 03124 07761 12675 /2416 10240 20140 30141 40151 51007 60006 81101 91200=
07761,1996-07-03 15:00:00,25,1016.4,1.3,36,9,25000,18.52,,,280,,,,,,,,,,,wg-a,,,,AAXX 03154 07761 12675 /2810 10250 20090 30154 40164 53013 60006 81101 91500=
07761,1996-07-03 18:00:00,21,1017.1,0.6,60,13,500,18.52,,,240,18.4,25,,,,,,,,,wg-a,,,,AAXX 03184 07761 12600 /2410 10210 20130 30160 40171 53006 60006 81100 91800 333 10250 20184=
07761,1996-07-03 21:00:00,18,1018.8,1.7,68,12,10000,11.112,,,60,,,,,,,,,,,wg-a,,,,AAXX 03214 07761 12/60 00606 10180 20120 30177 40188 51017 60006 80000 92100=
07761,1996-07-04 00:00:00,15,1019.2,0.4,77,11,15000,18.52,,,40,,,,,,,,,,,wg-a,,,,AAXX 04004 07761 12/65 00410 10150 20110 30181 40192 52004 60006 80000 90000=
07761,1996-07-04 03:00:00,13,1018.8,-0.4,82,10,15000,14.816,,,50,,,,,,,,,,,wg-a,,,,AAXX 04034 07761 12/65 00508 10130 20100 30177 40188 56004 60006 80000 90300=
07761,1996-07-04 06:00:00,17,1019.4,0.6,63,10,25000,11.112,,,50,12.8,21.5,,,,,,,,,wg-a,,,,AAXX 04064 07761 02775 /0506 10170 20100 30183 40194 53006 60006 81101 90600 333 10215 20128 60004=
07761,1996-07-04 09:00:00,23,1019.6,0.3,69,17,40000,14.816,,,230,,,,,,,,,,,wg-a,,,,AAXX 04094 07761 12782 /2308 10230 20170 30186 40196 52003 60006 81101 90900=
07761,1996-07-04 12:00:00,23,1019.9,0.3,73,18,40000,22.224,,,220,,,,,,,,,,,wg-a,,,,AAXX 04124 07761 12782 /2212 10230 20180 30189 40199 50003 60006 81100 91200=
07761,1996-07-04 15:00:00,24,1019,-0.9,74,19,20000,22.224,,,220,,,,,,,,,,,wg-a,,,,AAXX 04154 07761 12670 /2212 10240 20190 30180 40190 58009 60006 81100 91500=
07761,1996-07-04 18:00:00,23,1018.6,-0.4,78,19,15000,11.112,,,210,17.2,24.4,,,,,,,,,wg-a,,,,AAXX 04184 07761 12665 /2106 10230 20190 30176 40186 55004 60006 81100 91800 333 10244 20172=
07761,1996-07-04 21:00:00,20,1019.1,0.4,83,17,15000,7.408,,,40,,,,,,,,,,,wg-a,,,,AAXX 04214 07761 12/65 00404 10200 20170 30180 40191 50004 60006 80000 92100=
07761,1996-07-05 00:00:00,17,1017.6,-1.5,88,15,15000,11.112,,,60,,,,,,,,,,,wg-a,,,,AAXX 05004 07761 12/65 00606 10170 20150 30165 40176 56015 60006 80000 90000=
07761,1996-07-05 03:00:00,16,1016.8,-0.8,88,14,15000,3.704,,,40,,,,,,,,,,,wg-a,,,,AAXX 05034 07761 12/65 00402 10160 20140 30157 40168 55008 60006 80000 90300=
07761,1996-07-05 06:00:00,20,1016.3,-0.5,73,15,20000,7.408,,,50,15.4,22.6,,,,,,,,,wg-a,,,,AAXX 05064 07761 02/70 00504 10200 20150 30152 40163 58005 60006 80000 90600 333 10226 20154 60004=
07761,1996-07-05 09:00:00,24,1015.7,-0.5,69,18,25000,18.52,,,230,,,,,,,,,,,wg-a,,,,AAXX 05094 07761 12/75 02310 10240 20180 30147 40157 55005 60006 80000 90900=
07761,1996-07-05 12:00:00,25,1014.9,-0.8,69,19,25000,11.112,,,210,,,,,,,,,,,wg-a,,,,AAXX 05124 07761 12575 /2106 10250 20190 30139 40149 58008 60006 81100 91200=
07761,1996-07-05 15:00:00,29,1012.2,-2.7,40,14,35000,7.408,,,210,,,,,,,,,,,wg-a,,,,AAXX 05154 07761 12681 /2104 10290 20140 30112 40122 58027 60006 81100 91500=
07761,1996-07-05 18:00:00,26,1011.1,-1.1,54,16,40000,7.408,,,180,19.9,28.7,,,,,,,,,wg-a,,,,AAXX 05184 07761 12/82 51804 10260 20160 30101 40111 56011 60006 81034 91800 333 10287 20199=
07761,1996-07-05 21:00:00,23,1011.1,-0,57,14,20000,7.408,,,60,,,,,,,,,,,wg-a,,,,AAXX 05214 07761 12/70 00604 10230 20140 30101 40111 55000 60006 80000 92100=
07761,1996-07-06 00:00:00,19,1010.9,-0.3,68,13,10000,11.112,,,40,,,,,,,,,,,wg-a,,,,AAXX 06004 07761 12/60 /0406 10190 20130 30098 40109 56003 60006 90000=
07761,1996-07-06 03:00:00,18,1010.4,-0.5,73,13,20000,11.112,,,50,,,,,,,,,,,wg-a,,,,AAXX 06034 07761 12670 /0506 10180 20130 30093 40104 56005 60006 81500 90300=
07761,1996-07-06 06:00:00,21,1010.9,0.6,69,15,20000,11.112,,,40,17.2,27.1,,,,,,,,,wg-a,,,,AAXX 06064 07761 02570 30406 10210 20150 30099 40109 53006 60006 83500 90600 333 10271 20172 60004=
07761,1996-07-06 09:00:00,25,1010.8,-0.1,74,20,20000,22.224,,,240,,,,,,,,,,,wg-a,,,,AAXX 06094 07761 12570 22412 10250 20200 30098 40108 58001 60006 82500 90900=
07761,1996-07-06 12:00:00,25,1010.8,0,74,20,20000,18.52,,,240,,,,,,,,,,,wg-a,,,,AAXX 06124 07761 12570 52410 10250 20200 30098 40108 50000 60006 81282 91200=
07761,1996-07-06 15:00:00,25,1009.7,-1.1,74,20,20000,18.52,,,210,,,,,,,,,,,wg-a,,,,AAXX 06154 07761 12570 22110 10250 20200 30087 40097 58011 60006 82800 91500=
07761,1996-07-06 18:00:00,23,1008.7,-1,83,20,20000,14.816,,,200,20.8,25.5,,,,,,,,,wg-a,,,,AAXX 06184 07761 12770 32008 10230 20200 30077 40087 56010 60006 83500 91800 333 10255 20208=
07761,1996-07-06 21:00:00,21,1008.5,-0.2,88,19,11000,3.704,,,70,,,,,,,,,,,wg-a,,,,AAXX 06214 07761 12/61 /0702 10210 20190 30075 40085 58002 60006 92100=
07761,1996-07-07 00:00:00,20,1009.2,0.7,88,18,15000,7.408,,,50,,,,,,,,,,,wg-a,,,,AAXX 07004 07761 12465 /0504 10200 20180 30082 40092 51007 60006 81500 90000=
07761,1996-07-07 03:00:00,18,1008,-1.3,88,16,15000,3.704,,,40,,,,,,,,,,,wg-a,,,,AAXX 07034 07761 12565 /0402 10180 20160 30069 40080 57013 60006 81500 90300=
07761,1996-07-07 06:00:00,20,1007.3,-0.6,83,17,20000,11.112,,,40,16.4,23.3,,,,,,,,,wg-a,,,,AAXX 07064 07761 02570 /0406 10200 20170 30063 40073 58006 60006 81100 90600 333 10233 20164 60004=
07761,1996-07-07 09:00:00,24,1006.2,-1.1,65,17,25000,14.816,,,240,,,,,,,,,,,wg-a,,,,AAXX 07094 07761 12/75 12408 10240 20170 30052 40062 57011 60006 81030 90900=
07761,1996-07-07 12:00:00,25,1005.5,-0.7,69,19,20000,14.816,,,240,,,,,,,,,,,wg-a,,,,AAXX 07124 07761 12670 /2408 10250 20190 30045 40055 58007 60006 81100 91200=
07761,1996-07-07 15:00:00,25,1004.5,-1,74,20,15000,14.816,,,220,,,,,,,,,,,wg-a,,,,AAXX 07154 07761 12665 /2208 10250 20200 30035 40045 56010 60006 81100 91500=
07761,1996-07-07 18:00:00,24,1004.5,0,83,21,12000,18.52,,,210,19.6,25.9,,,,,,,,,wg-a,,,,AAXX 07184 07761 12462 /2110 10240 20210 30035 40045 50000 60006 85800 91800 333 10259 20196=
07761,1996-07-07 21:00:00,23,1005.3,0.8,89,21,10000,18.52,,,210,,,,,,,,,,,wg-a,,,,AAXX 07214 07761 12460 42110 10230 20210 30043 40053 51008 60006 84200 92100=
07761,1996-07-08 00:00:00,21,1005.7,0.4,83,18,10000,31.484,,,280,,,,,,,,,,,wg-a,,,,AAXX 08004 07761 12460 42817 10210 20180 30047 40057 53004 60006 84200 90000=
07761,1996-07-08 03:00:00,20,1006.3,0.6,78,16,15000,22.224,,,270,,,,,,,,,,,wg-a,,,,AAXX 08034 07761 12465 52712 10200 20160 30053 40063 51006 60006 85800 90300=
07761,1996-07-08 06:00:00,19,1008.5,2.1,68,13,15000,29.632,,,260,18.6,23.7,,,,,,,,,wg-a,,,,AAXX 08064 07761 02565 72616 10190 20130 30074 40085 53021 60006 878// 90600 333 10237 20186 60004=
07761,1996-07-08 09:00:00,19,1010,1.5,68,13,15000,46.3,,64.82,260,,,,0,,,,,,25,wg-a,,,,AAXX 08094 07761 12565 72625 10190 20130 30089 40100 53015 60007 72586 872// 90900 333 91035=
07761,1996-07-08 12:00:00,20,1012.2,2.2,60,12,10000,42.596,,83.34,280,,,,1,,,,,,1,wg-a,,,,AAXX 08124 07761 02560 72823 10200 20120 30111 40122 51022 60016 70186 872// 91200 333 60017 91045=
07761,1996-07-08 15:00:00,21,1013,0.8,53,11,10000,42.596,,72.228,270,,,,,,,,,,,wg-a,,,,AAXX 08154 07761 12560 42723 10210 20110 30119 40130 52008 60006 84200 91500 333 91039=
07761,1996-07-08 18:00:00,20,1013.5,0.5,56,11,15000,29.632,,72.228,270,17.1,21.7,,,,,,,,,wg-a,,,,AAXX 08184 07761 32665 42716 10200 20110 30124 40135 53005 84200 91800 333 10217 20171 91039=
07761,1996-07-08 21:00:00,16,1015.4,1.9,72,11,15000,14.816,,,40,,,,,,,,,,,wg-a,,,,AAXX 08214 07761 12665 20408 10160 20110 30143 40154 52019 60006 82500 92100=
07761,1996-07-09 00:00:00,15,1015.6,0.2,67,9,15000,18.52,,,50,,,,,,,,,,,wg-a,,,,AAXX 09004 07761 12665 /0510 10150 20090 30145 40156 50002 60006 81500 90000=
07761,1996-07-09 03:00:00,12,1015.8,0.2,82,9,15000,14.816,,,40,,,,,,,,,,,wg-a,,,,AAXX 09034 07761 12665 /0408 10120 20090 30147 40158 50002 60006 81500 90300=
07761,1996-07-09 06:00:00,15,1016.9,1.1,72,10,15000,11.112,,,50,11.5,20,,,,,1,,,,wg-a,,,,AAXX 09064 07761 02/65 00506 10150 20100 30158 40169 53011 60006 80000 90600 333 10200 20115 60014=
07761,1996-07-09 09:00:00,22,1017.6,0.7,53,12,15000,7.408,,,250,,,,,,,,,,,wg-a,,,,AAXX 09094 07761 12565 /2504 10220 20120 30165 40176 51007 60006 81100 90900=
07761,1996-07-09 12:00:00,23,1017.9,0.4,57,14,15000,22.224,,,230,,,,,,,,,,,wg-a,,,,AAXX 09124 07761 12565 /2312 10230 20140 30169 40179 51004 60006 81800 91200=
07761,1996-07-09 15:00:00,23,1018.2,0.3,61,15,15000,18.52,,,230,,,,,,,,,,,wg-a,,,,AAXX 09154 07761 12465 22310 10230 20150 30172 40182 52003 60006 81302 91500=
07761,1996-07-09 18:00:00,21,1019.2,0.9,69,15,20000,14.816,,,220,15.4,23,,,,,,,,,wg-a,,,,AAXX 09184 07761 12570 22208 10210 20150 30181 40192 52009 60006 8/800 91800 333 10230 20154=
07761,1996-07-09 21:00:00,17,1020.9,1.7,82,14,20000,11.112,,,50,,,,,,,,,,,wg-a,,,,AAXX 09214 07761 12/70 00506 10170 20140 30198 40209 51017 60006 80000 92100=
07761,1996-07-10 00:00:00,14,1020.7,-0.2,88,12,20000,11.112,,,50,,,,,,,,,,,wg-a,,,,AAXX 10004 07761 12/70 00506 10140 20120 30196 40207 55002 60006 80000 90000=
07761,1996-07-10 03:00:00,13,1019.7,-1,88,11,20000,11.112,,,50,,,,,,,,,,,wg-a,,,,AAXX 10034 07761 12/70 00506 10130 20110 30186 40197 56010 60006 80000 90300=
07761,1996-07-10 06:00:00,16,1020.3,0.6,77,12,500,7.408,,,50,12.1,20.7,,,,,,,,,wg-a,,,,AAXX 10064 07761 02500 10504 10160 20120 30192 40203 53006 60006 81501 90600 333 10207 20121 60004=
07761,1996-07-10 09:00:00,23,1020,-0.3,65,16,500,18.52,,,230,,,,,,,,,,,wg-a,,,,AAXX 10094 07761 12600 12310 10230 20160 30189 40200 58003 60006 81100 90900=
07761,1996-07-10 12:00:00,24,1019.1,-0.8,61,16,25000,22.224,,,220,,,,,,,,,,,wg-a,,,,AAXX 10124 07761 12675 /2212 10240 20160 30181 40191 58008 60006 81200 91200=
07761,1996-07-10 15:00:00,24,1017.9,-1.2,57,15,25000,18.52,,,230,,,,,,,,,,,wg-a,,,,AAXX 10154 07761 12675 /2310 10240 20150 30169 40179 58012 60006 81100 91500=
07761,1996-07-10 18:00:00,22,1017.1,-0.9,69,16,500,18.52,,,220,16.1,24.2,,,,,,,,,wg-a,,,,AAXX 10184 07761 12600 /2210 10220 20160 30160 40171 56009 60006 81101 91800 333 10242 20161=
07761,1996-07-10 21:00:00,17,1017.6,0.5,72,12,15000,7.408,,,70,,,,,,,,,,,wg-a,,,,AAXX 10214 07761 12765 /0704 10170 20120 30165 40176 51005 60006 81501 92100=
07761,1996-07-11 00:00:00,14,1017,-0.6,77,10,20000,11.112,,,60,,,,,,,,,,,wg-a,,,,AAXX 11004 07761 12/70 00606 10140 20100 30159 40170 58006 60006 80000 90000=
07761,1996-07-11 03:00:00,13,1016.1,-0.9,77,9,20000,11.112,,,50,,,,,,,,,,,wg-a,,,,AAXX 11034 07761 12/70 00506 10130 20090 30150 40161 56009 60006 80000 90300=
07761,1996-07-11 06:00:00,17,1016.6,0.5,63,10,20000,11.112,,,60,12.3,21.5,,,,,,,,,wg-a,,,,AAXX 11064 07761 02/70 00606 10170 20100 30155 40166 51005 60006 80000 90600 333 10215 20123 60004=
07761,1996-07-11 09:00:00,23,1016.2,-0.3,65,16,25000,18.52,,,240,,,,,,,,,,,wg-a,,,,AAXX 11094 07761 12675 /2410 10230 20160 30152 40162 58003 60006 81100 90900=
07761,1996-07-11 12:00:00,24,1016.4,0.2,65,17,25000,22.224,,,220,,,,,,,,,,,wg-a,,,,AAXX 11124 07761 12675 /2212 10240 20170 30154 40164 51002 60006 81200 91200=
07761,1996-07-11 15:00:00,25,1015.6,-0.8,57,16,25000,18.52,,,200,,,,,,,,,,,wg-a,,,,AAXX 11154 07761 12675 32010 10250 20160 30146 40156 57008 60006 83800 91500=
07761,1996-07-11 18:00:00,24,1015.7,0.1,65,17,25000,7.408,,,180,17,25.7,,,,,,,,,wg-a,,,,AAXX 11184 07761 12675 21804 10240 20170 30147 40157 53001 60006 82800 91800 333 10257 20170=
07761,1996-07-11 21:00:00,20,1017.1,1.3,73,15,20000,11.112,,,60,,,,,,,,,,,wg-a,,,,AAXX 11214 07761 12570 /0606 10200 20150 30160 40171 53013 60006 81500 92100=
07761,1996-07-12 00:00:00,16,1017.6,0.5,82,13,20000,11.112,,,60,,,,,,,,,,,wg-a,,,,AAXX 12004 07761 12/70 00606 10160 20130 30165 40176 51005 60006 80000 90000=
07761,1996-07-12 03:00:00,15,1017.4,-0.2,82,12,25000,14.816,,,40,,,,,,,,,,,wg-a,,,,AAXX 12034 07761 12/75 00408 10150 20120 30163 40174 56002 60006 80000 90300=
07761,1996-07-12 06:00:00,19,1017.3,-0.1,68,13,40000,11.112,,,30,15,24.1,,,,,,,,,wg-a,,,,AAXX 12064 07761 02/82 00306 10190 20130 30162 40173 55001 60006 80000 90600 333 10241 20150 60004=
07761,1996-07-12 09:00:00,24,1017.9,0.7,65,17,25000,18.52,,,240,,,,,,,,,,,wg-a,,,,AAXX 12094 07761 12675 /2410 10240 20170 30169 40179 51007 60006 81200 90900=
07761,1996-07-12 12:00:00,25,1017.9,0,65,18,500,18.52,,,230,,,,,,,,,,,wg-a,,,,AAXX 12124 07761 12600 /2310 10250 20180 30169 40179 50000 60006 81200 91200=
07761,1996-07-12 15:00:00,24,1017.9,0,69,18,25000,25.928,,,200,,,,,,,,,,,wg-a,,,,AAXX 12154 07761 12675 /2014 10240 20180 30169 40179 50000 60006 81800 91500=
07761,1996-07-12 18:00:00,23,1017.9,-0,73,18,25000,14.816,,,210,18.9,25.2,,,,,,,,,wg-a,,,,AAXX 12184 07761 12675 /2108 10230 20180 30169 40179 55000 60006 81800 91800 333 10252 20189=
07761,1996-07-12 21:00:00,19,1019.2,1.2,78,15,20000,11.112,,,60,,,,,,,,,,,wg-a,,,,AAXX 12214 07761 12/70 00606 10190 20150 30181 40192 52012 60006 80000 92100=
07761,1996-07-13 00:00:00,15,1019.5,0.3,88,13,21000,11.112,,,50,,,,,,,,,,0,wg-a,,,,AAXX 13004 07761 32/71 00506 10150 20130 30184 40195 51003 700// 80000 90000=
07761,1996-07-13 03:00:00,15,1019.5,0,82,12,20000,11.112,,,60,,,,,,,,,,,wg-a,,,,AAXX 13034 07761 12/70 00606 10150 20120 30184 40195 50000 60006 80000 90300=
07761,1996-07-13 06:00:00,18,1019.9,0.4,77,14,15000,11.112,,,60,14,22.8,,,,,,,,,wg-a,,,,AAXX 13064 07761 02/65 00606 10180 20140 30188 40199 53004 60006 80000 90600 333 10228 20140 60004=
07761,1996-07-13 09:00:00,24,1020.5,0.7,61,16,15000,11.112,,,230,,,,,,,,,,,wg-a,,,,AAXX 13094 07761 12565 /2306 10240 20160 30195 40205 51007 60006 81100 90900=
07761,1996-07-13 12:00:00,25,1020.4,-0.1,61,17,17000,22.224,,,210,,,,,,,,,,,wg-a,,,,AAXX 13124 07761 12567 /2112 10250 20170 30194 40204 58001 60006 81200 91200=
07761,1996-07-13 15:00:00,26,1020.1,-0.3,51,15,17000,14.816,,,190,,,,,,,,,,,wg-a,,,,AAXX 13154 07761 12567 21908 10260 20150 30191 40201 58003 60006 81202 91500=
07761,1996-07-13 18:00:00,26,1020.1,-0,48,14,17000,7.408,,,230,17.9,26.6,,,,,,,,,wg-a,,,,AAXX 13184 07761 12667 /2304 10260 20140 30191 40201 55000 60006 81832 91800 333 10266 20179=
07761,1996-07-13 21:00:00,21,1021.4,1.2,56,12,10000,11.112,,,50,,,,,,,,,,,wg-a,,,,AAXX 13214 07761 12/60 /0506 10210 20120 30203 40214 53012 60006 92100=
07761,1996-07-14 00:00:00,18,1021.5,0.1,68,12,0,11.112,,,50,,,,,,,,,,,wg-a,,,,AAXX 14004 07761 12/// /0506 10180 20120 30204 40215 50001 60006 90000=
07761,1996-07-14 03:00:00,16,1021.4,-0.1,77,12,15000,11.112,,,50,,,,,,,,,,,wg-a,,,,AAXX 14034 07761 12/65 00506 10160 20120 30203 40214 58001 60006 80000 90300=
07761,1996-07-14 06:00:00,20,1022.2,0.8,60,12,25000,11.112,,,50,15.6,25.7,,,,,,,,,wg-a,,,,AAXX 14064 07761 02/75 00506 10200 20120 30211 40222 53008 60006 80000 90600 333 10257 20156 60004=
07761,1996-07-14 09:00:00,25,1022.2,0.1,57,16,500,14.816,,,230,,,,,,,,,,,wg-a,,,,AAXX 14094 07761 12600 /2308 10250 20160 30212 40222 50001 60006 81200 90900=
07761,1996-07-14 12:00:00,26,1022,-0.2,61,18,25000,14.816,,,220,,,,,,,,,,,wg-a,,,,AAXX 14124 07761 12775 /2208 10260 20180 30210 40220 58002 60006 81200 91200=
07761,1996-07-14 15:00:00,25,1020.9,-1.1,74,20,20000,18.52,,,210,,,,,,,,,,,wg-a,,,,AAXX 14154 07761 12770 /2110 10250 20200 30199 40209 58011 60006 81200 91500=
07761,1996-07-14 18:00:00,23,1020.1,-0.8,83,20,20000,18.52,,,200,19.8,26.9,,,,,,,,,wg-a,,,,AAXX 14184 07761 12770 /2010 10230 20200 30191 40201 56008 60006 81100 91800 333 10269 20198=
07761,1996-07-14 21:00:00,21,1020.3,0.1,83,18,20000,7.408,,,60,,,,,,,,,,,wg-a,,,,AAXX 14214 07761 12/70 00604 10210 20180 30192 40203 51001 60006 80000 92100=
07761,1996-07-15 00:00:00,18,1020.4,0.1,83,15,20000,7.408,,,50,,,,,,,,,,,wg-a,,,,AAXX 15004 07761 12/70 00504 10180 20150 30193 40204 53001 60006 80000 90000=
07761,1996-07-15 03:00:00,17,1019.5,-0.9,77,13,15000,11.112,,,60,,,,,,,,,,,wg-a,,,,AAXX 15034 07761 12/65 00606 10170 20130 30184 40195 56009 60006 80000 90300=
07761,1996-07-15 09:00:00,25,1020,0.3,69,19,15000,18.52,,,220,,,,,,,,,,,wg-a,,,,AAXX 15094 07761 12665 /2210 10250 20190 30190 40200 52003 60006 81100 90900=
07761,1996-07-15 12:00:00,25,1019.1,-0.9,79,21,6000,14.816,,,220,,,,,,,,,,,wg-a,,,,AAXX 15124 07761 12656 22208 10250 20210 30181 40191 58009 60006 82301 91200=
07761,1996-07-15 15:00:00,25,1018.8,-0.3,79,21,6000,18.52,,,200,,,,,,,,,,,wg-a,,,,AAXX 15154 07761 12656 32010 10250 20210 30178 40188 55003 60006 82903 91500=
07761,1996-07-15 18:00:00,23,1018.4,-0.4,89,21,10000,3.704,,,210,20.4,25.9,,,,,,,,29,wg-a,,,,AAXX 15184 07761 12860 /2102 10230 20210 30174 40184 56004 60006 72991 83063 91800 333 10259 20204=
07761,1996-07-15 21:00:00,21,1018.9,0.4,83,18,10000,11.112,,,50,,,,,,,,,,,wg-a,,,,AAXX 15214 07761 12/60 00506 10210 20180 30178 40189 53004 60006 80000 92100=
07761,1996-07-16 00:00:00,19,1019.2,0.3,83,16,10000,11.112,,,50,,,,,,,,,,,wg-a,,,,AAXX 16004 07761 12/60 00506 10190 20160 30181 40192 50003 60006 80000 90000=
07761,1996-07-16 03:00:00,18,1018.5,-0.7,83,15,12000,7.408,,,80,,,,,,,,,,,wg-a,,,,AAXX 16034 07761 12/62 00804 10180 20150 30174 40185 56007 60006 80000 90300=
07761,1996-07-16 06:00:00,20,1019.3,0.8,78,16,12000,11.112,,,40,16.7,23.6,,,,,,,,,wg-a,,,,AAXX 16064 07761 02/62 20406 10200 20160 30182 40193 51008 60006 80001 90600 333 10236 20167 60004=
07761,1996-07-16 09:00:00,26,1019,-0.2,61,18,15000,14.816,,,220,,,,,,,,,,,wg-a,,,,AAXX 16094 07761 12665 /2208 10260 20180 30180 40190 56002 60006 81101 90900=
07761,1996-07-16 12:00:00,26,1018.7,-0.3,74,21,10000,22.224,,,230,,,,,,,,,,,wg-a,,,,AAXX 16124 07761 12660 32312 10260 20210 30177 40187 56003 60006 81101 91200=
07761,1996-07-16 15:00:00,27,1018,-0.7,66,20,8000,22.224,,,190,,,,,,,,,,,wg-a,,,,AAXX 16154 07761 12658 /1912 10270 20200 30170 40180 58007 60006 81101 91500=
07761,1996-07-16 18:00:00,25,1017,-1,74,20,20000,14.816,,,200,20.2,26.8,,,,,,,,,wg-a,,,,AAXX 16184 07761 12/70 /2008 10250 20200 30160 40170 56010 60006 80000 91800 333 10268 20202=
07761,1996-07-16 21:00:00,21,1018,0.9,78,17,20000,7.408,,,50,,,,,,,,,,,wg-a,,,,AAXX 16214 07761 12/70 00504 10210 20170 30169 40180 53009 60006 80000 92100=
07761,1996-07-17 00:00:00,18,1018,0,83,15,20000,11.112,,,50,,,,,,,,,,,wg-a,,,,AAXX 17004 07761 12/70 00506 10180 20150 30169 40180 50000 60006 80000 90000=
07761,1996-07-17 03:00:00,18,1017.7,-0.3,83,15,20000,11.112,,,60,,,,,,,,,,,wg-a,,,,AAXX 17034 07761 12/70 00606 10180 20150 30166 40177 58003 60006 80000 90300=
07761,1996-07-17 06:00:00,21,1017.7,0,73,16,15000,14.816,,,50,16.6,24.6,,,,,,,,,wg-a,,,,AAXX 17064 07761 02/65 00508 10210 20160 30166 40177 50000 60006 80000 90600 333 10246 20166 60004=
07761,1996-07-17 09:00:00,26,1017.1,-0.5,70,20,15000,18.52,,,230,,,,,,,,,,,wg-a,,,,AAXX 17094 07761 12/65 02310 10260 20200 30161 40171 55005 60006 80000 90900=
07761,1996-07-17 12:00:00,27,1017.5,0.4,66,20,15000,22.224,,,210,,,,,,,,,,,wg-a,,,,AAXX 17124 07761 12665 /2112 10270 20200 30165 40175 51004 60006 81800 91200=
07761,1996-07-17 15:00:00,27,1016,-1.5,70,21,15000,22.224,,,190,,,,,,,,,,,wg-a,,,,AAXX 17154 07761 12665 /1912 10270 20210 30150 40160 56015 60006 81800 91500=
07761,1996-07-17 18:00:00,25,1015.2,-0.8,74,20,15000,7.408,,,220,20.9,27.2,,,,,,,,,wg-a,,,,AAXX 17184 07761 12665 /2204 10250 20200 30142 40152 56008 60006 81802 91800 333 10272 20209=
07761,1996-07-17 21:00:00,23,1016.1,0.9,73,18,15000,7.408,,,60,,,,,,,,,,,wg-a,,,,AAXX 17214 07761 12/65 50604 10230 20180 30151 40161 51009 60006 80002 92100=
07761,1996-07-18 00:00:00,20,1016.7,0.5,78,16,15000,3.704,,,60,,,,,,,,,,,wg-a,,,,AAXX 18004 07761 12/65 30602 10200 20160 30156 40167 53005 60006 80002 90000=
07761,1996-07-18 03:00:00,19,1016.4,-0.3,83,16,15000,11.112,,,40,,,,,,,,,,,wg-a,,,,AAXX 18034 07761 12/65 40406 10190 20160 30153 40164 58003 60006 80002 90300=
07761,1996-07-18 06:00:00,21,1016.3,-0.1,73,16,20000,7.408,,,70,17.9,25.5,,,,,,,,,wg-a,,,,AAXX 18064 07761 02/70 10704 10210 20160 30152 40163 55001 60006 80001 90600 333 10255 20179 60004=
07761,1996-07-18 09:00:00,25,1016.3,0.1,79,21,12000,11.112,,,240,,,,,,,,,,,wg-a,,,,AAXX 18094 07761 12662 /2406 10250 20210 30153 40163 50001 60006 81131 90900=
07761,1996-07-18 12:00:00,28,1016,-0.3,66,21,12000,25.928,,,190,,,,,,,,,,,wg-a,,,,AAXX 18124 07761 12662 /1914 10280 20210 30150 40160 56003 60006 81201 91200=
07761,1996-07-18 15:00:00,26,1016,0,74,21,20000,18.52,,,210,,,,,,,,,,,wg-a,,,,AAXX 18154 07761 12670 /2110 10260 20210 30150 40160 50000 60006 81203 91500=
07761,1996-07-18 18:00:00,24,1015.8,-0.2,83,21,15000,11.112,,,220,21.4,27.6,,,,,,,,,wg-a,,,,AAXX 18184 07761 12/65 12206 10240 20210 30148 40158 55002 60006 80001 91800 333 10276 20214=
07761,1996-07-18 21:00:00,22,1016.7,0.9,88,20,10000,7.408,,,60,,,,,,,,,,,wg-a,,,,AAXX 18214 07761 12460 /0604 10220 20200 30157 40167 51009 60006 81600 92100=
07761,1996-07-19 00:00:00,20,1017.3,0.5,88,18,10000,11.112,,,60,,,,,,,,,,,wg-a,,,,AAXX 19004 07761 12460 40606 10200 20180 30162 40173 50005 60006 84600 90000=
07761,1996-07-19 03:00:00,20,1016.4,-0.9,83,17,10000,7.408,,,50,,,,,,,,,,,wg-a,,,,AAXX 19034 07761 12460 /0504 10200 20170 30153 40164 56009 60006 81600 90300=
07761,1996-07-19 06:00:00,20,1016.8,0.4,88,18,10000,7.408,,,60,18,24.2,,,,,,,,,wg-a,,,,AAXX 19064 07761 02460 30604 10200 20180 30157 40168 53004 60006 83600 90600 333 10242 20180 60004=
07761,1996-07-19 09:00:00,26,1016.5,-0.2,70,20,15000,18.52,,,260,,,,,,,,,,,wg-a,,,,AAXX 19094 07761 12665 /2610 10260 20200 30155 40165 55002 60006 81100 90900=
07761,1996-07-19 12:00:00,27,1016,-0.5,74,22,11000,29.632,,,250,,,,,,,,,,,wg-a,,,,AAXX 19124 07761 12/61 /2516 10270 20220 30150 40160 58005 60006 91200=
07761,1996-07-19 15:00:00,27,1015.5,-0.5,74,22,12000,18.52,,,210,,,,,,,,,,,wg-a,,,,AAXX 19154 07761 12562 22110 10270 20220 30145 40155 56005 60006 82200 91500=
07761,1996-07-19 18:00:00,24,1015.2,-0.3,78,20,15000,18.52,,,240,20.3,27.1,,,,,,,,,wg-a,,,,AAXX 19184 07761 12565 22410 10240 20200 30142 40152 55003 60006 82600 91800 333 10271 20203=
07761,1996-07-19 21:00:00,21,1016.2,0.9,83,18,15000,7.408,,,70,,,,,,,,,,,wg-a,,,,AAXX 19214 07761 12565 20704 10210 20180 30151 40162 51009 60006 81501 92100=
07761,1996-07-20 00:00:00,19,1016.3,0.1,88,17,15000,11.112,,,50,,,,,,,,,,,wg-a,,,,AAXX 20004 07761 12565 /0506 10190 20170 30152 40163 50001 60006 81501 90000=
07761,1996-07-20 03:00:00,19,1015.5,-0.8,88,17,11000,7.408,,,40,,,,,,,,,,,wg-a,,,,AAXX 20034 07761 12/61 /0404 10190 20170 30144 40155 58008 60006 90300=
07761,1996-07-20 06:00:00,20,1015.7,0.2,83,17,10000,7.408,,,60,17.4,23.8,,,,,,,,,wg-a,,,,AAXX 20064 07761 02/60 10604 10200 20170 30146 40157 51002 60006 81031 90600 333 10238 20174 60004=
07761,1996-07-20 09:00:00,25,1015.9,0.3,69,19,12000,11.112,,,230,,,,,,,,,,,wg-a,,,,AAXX 20094 07761 12662 /2306 10250 20190 30149 40159 53003 60006 81102 90900=
07761,1996-07-20 12:00:00,27,1015.5,-0.4,62,19,12000,18.52,,,230,,,,,,,,,,17,wg-a,,,,AAXX 20124 07761 12662 32310 10270 20190 30145 40155 58004 60006 71790 82901 91200=
07761,1996-07-20 15:00:00,27,1015.4,-0.1,66,20,12000,14.816,,,240,,,,,,,,,,17,wg-a,,,,AAXX 20154 07761 12662 /2408 10270 20200 30144 40154 58001 60006 71799 83932 91500=
07761,1996-07-20 18:00:00,26,1015.7,0.3,70,20,12000,18.52,,,180,20.2,27.6,,,,,,,,2,wg-a,,,,AAXX 20184 07761 12662 /1810 10260 20200 30147 40157 53003 60006 70291 81932 91800 333 10276 20202=
07761,1996-07-20 21:00:00,23,1017.1,1.4,73,18,11000,7.408,,,40,,,,,,,,,,,wg-a,,,,AAXX 20214 07761 12/61 /0404 10230 20180 30161 40171 52014 60006 92100=
07761,1996-07-21 00:00:00,21,1017.7,0.5,78,17,12000,11.112,,,50,,,,,,,,,,,wg-a,,,,AAXX 21004 07761 12762 40506 10210 20170 30166 40177 51005 60006 82502 90000=
07761,1996-07-21 03:00:00,19,1017.5,-0.2,88,17,12000,14.816,,,60,,,,,,,,,,,wg-a,,,,AAXX 21034 07761 12762 50608 10190 20170 30164 40175 56002 60006 82502 90300=
07761,1996-07-21 06:00:00,21,1018.3,0.8,78,17,12000,7.408,,,60,18.9,25.5,,,,,,,,,wg-a,,,,AAXX 21064 07761 02762 20604 10210 20170 30172 40183 53008 60006 81532 90600 333 10255 20189 60004=
07761,1996-07-21 09:00:00,26,1018.3,0.1,70,20,12000,14.816,,,230,,,,,,,,,,,wg-a,,,,AAXX 21094 07761 12562 32308 10260 20200 30173 40183 50001 60006 83800 90900=
07761,1996-07-21 12:00:00,25,1018.8,0.5,79,21,10000,22.224,,,240,,,,,,,,,,17,wg-a,,,,AAXX 21124 07761 02560 62412 10250 20210 30178 40188 53005 61000 71798 86900 91200 333 6100=
07761,1996-07-21 15:00:00,23,1018.5,-0.3,83,20,17000,11.112,,,30,,,,6,,,,,,29,wg-a,,,,AAXX 21154 07761 12467 20306 10230 20200 30175 40185 58003 60067 72998 82800 91500=
07761,1996-07-21 18:00:00,24,1017.9,-0.6,78,20,17000,14.816,,,200,20.6,27.7,,,,,,,,1,wg-a,,,,AAXX 21184 07761 32567 /2008 10240 20200 30169 40179 55006 70198 81200 91800 333 10277 20206=
07761,1996-07-21 21:00:00,21,1019.5,1.5,88,19,17000,11.112,,,50,,,,,,,,,,,wg-a,,,,AAXX 21214 07761 12567 /0506 10210 20190 30184 40195 52015 60006 81102 92100=
07761,1996-07-22 00:00:00,19,1019.9,0.4,88,17,15000,11.112,,,40,,,,,,,,,,,wg-a,,,,AAXX 22004 07761 12/65 00406 10190 20170 30188 40199 51004 60006 80000 90000=
07761,1996-07-22 03:00:00,18,1019.8,-0.1,88,16,15000,11.112,,,50,,,,,,,,,,,wg-a,,,,AAXX 22034 07761 12/65 10506 10180 20160 30187 40198 55001 60006 80001 90300=
07761,1996-07-22 06:00:00,19,1020.7,0.9,83,16,15000,11.112,,,40,16.8,24.5,,,,,6,,,,wg-a,,,,AAXX 22064 07761 02/65 00406 10190 20160 30196 40207 53009 60006 80000 90600 333 10245 20168 60064=
07761,1996-07-22 09:00:00,25,1021,0.4,65,18,15000,14.816,,,220,,,,,,,,,,,wg-a,,,,AAXX 22094 07761 12665 /2208 10250 20180 30200 40210 51004 60006 81200 90900=
07761,1996-07-22 12:00:00,26,1021,0,65,19,15000,22.224,,,230,,,,,,,,,,,wg-a,,,,AAXX 22124 07761 12665 /2312 10260 20190 30200 40210 50000 60006 81200 91200=
07761,1996-07-22 15:00:00,27,1020.6,-0.4,58,18,15000,18.52,,,230,,,,,,,,,,,wg-a,,,,AAXX 22154 07761 12665 /2310 10270 20180 30196 40206 58004 60006 81200 91500=
07761,1996-07-22 18:00:00,25,1020.4,-0.2,65,18,17000,7.408,,,200,19.4,27.5,,,,,,,,,wg-a,,,,AAXX 22184 07761 12667 /2004 10250 20180 30194 40204 55002 60006 81400 91800 333 10275 20194=
07761,1996-07-22 21:00:00,21,1021.3,0.8,69,15,10000,11.112,,,40,,,,,,,,,,,wg-a,,,,AAXX 22214 07761 12/60 /0406 10210 20150 30202 40213 53008 60006 92100=
07761,1996-07-23 00:00:00,18,1022.2,0.9,88,16,15000,11.112,,,40,,,,,,,,,,,wg-a,,,,AAXX 23004 07761 12/65 10406 10180 20160 30211 40222 51009 60006 80002 90000=
07761,1996-07-23 03:00:00,17,1021.3,-0.9,88,15,15000,7.408,,,50,,,,,,,,,,,wg-a,,,,AAXX 23034 07761 12/65 10504 10170 20150 30202 40213 56009 60006 80002 90300=
07761,1996-07-23 06:00:00,20,1021.8,0.5,78,16,10000,11.112,,,60,16.6,25.4,,,,,,,,,wg-a,,,,AAXX 23064 07761 02/60 00606 10200 20160 30207 40218 50005 60006 80000 90600 333 10254 20166 60004=
07761,1996-07-23 09:00:00,26,1022.1,0.4,61,18,20000,14.816,,,230,,,,,,,,,,,wg-a,,,,AAXX 23094 07761 12670 12308 10260 20180 30211 40221 53004 60006 81100 90900=
07761,1996-07-23 12:00:00,27,1021.6,-0.5,58,18,25000,18.52,,,220,,,,,,,,,,,wg-a,,,,AAXX 23124 07761 12675 /2210 10270 20180 30206 40216 58005 60006 81100 91200=
07761,1996-07-23 15:00:00,27,1020.7,-0.9,62,19,25000,18.52,,,210,,,,,,,,,,,wg-a,,,,AAXX 23154 07761 12/75 02110 10270 20190 30197 40207 56009 60006 80000 91500=
07761,1996-07-23 18:00:00,25,1021,0.3,74,20,25000,11.112,,,210,19.9,27.4,,,,,,,,,wg-a,,,,AAXX 23184 07761 12/75 02106 10250 20200 30200 40210 53003 60006 80000 91800 333 10274 20199=
07761,1996-07-23 21:00:00,22,1021.5,0.4,69,16,17000,7.408,,,50,,,,,,,,,,,wg-a,,,,AAXX 23214 07761 12/67 00504 10220 20160 30204 40215 51004 60006 80000 92100=
07761,1996-07-24 00:00:00,19,1020.4,-1.1,78,15,15000,11.112,,,40,,,,,,,,,,,wg-a,,,,AAXX 24004 07761 12/65 00406 10190 20150 30193 40204 58011 60006 80000 90000=
07761,1996-07-24 03:00:00,18,1019.4,-1,73,13,17000,14.816,,,60,,,,,,,,,,,wg-a,,,,AAXX 24034 07761 12/67 00608 10180 20130 30183 40194 58010 60006 80000 90300=
07761,1996-07-24 06:00:00,19,1019.5,0.1,68,13,25000,11.112,,,50,16.5,24.9,,,,,,,,,wg-a,,,,AAXX 24064 07761 02/75 /0506 10190 20130 30184 40195 51001 60006 81030 90600 333 10249 20165 60004=
07761,1996-07-24 09:00:00,30,1019.6,0.2,29,10,25000,7.408,,,200,,,,,,,,,,,wg-a,,,,AAXX 24094 07761 12/75 12004 10300 20100 30186 40196 50002 60006 81030 90900=
07761,1996-07-24 12:00:00,28,1019.8,0.2,58,19,25000,18.52,,,230,,,,,,,,,,,wg-a,,,,AAXX 24124 07761 12/75 02310 10280 20190 30188 40198 50002 60006 80000 91200=
07761,1996-07-24 15:00:00,29,1018.4,-1.4,37,13,25000,7.408,,,240,,,,,,,,,,,wg-a,,,,AAXX 24154 07761 12/75 02404 10290 20130 30174 40184 57014 60006 80000 91500=
07761,1996-07-24 18:00:00,30,1016.7,-1.7,24,7,25000,0,,,0,19.4,30.6,,,,,,,,,wg-a,,,,AAXX 24184 07761 12/75 00000 10300 20070 30157 40167 58017 60006 80000 91800 333 10306 20194=
07761,1996-07-24 21:00:00,24,1017.4,0.7,38,9,25000,14.816,,,50,,,,,,,,,,,wg-a,,,,AAXX 24214 07761 12/75 00508 10240 20090 30164 40174 53007 60006 80000 92100=
07761,1996-07-25 00:00:00,21,1017.3,-0.2,49,10,25000,18.52,,,50,,,,,,,,,,,wg-a,,,,AAXX 25004 07761 12/75 00510 10210 20100 30162 40173 58002 60006 80000 90000=
07761,1996-07-25 03:00:00,18,1016.3,-1,59,10,25000,11.112,,,50,,,,,,,,,,,wg-a,,,,AAXX 25034 07761 12/75 00506 10180 20100 30152 40163 55010 60006 80000 90300=
07761,1996-07-25 06:00:00,21,1016.5,0.2,46,9,11000,14.816,,,50,17.1,30.1,,,,,,,,,wg-a,,,,AAXX 25064 07761 02/61 /0508 10210 20090 30154 40165 52002 60006 90600 333 10301 20171 60004=
07761,1996-07-25 09:00:00,28,1015.3,-1.1,55,18,500,11.112,,,260,,,,,,,,,,,wg-a,,,,AAXX 25094 07761 12800 22606 10280 20180 30143 40153 58011 60006 81042 90900=
07761,1996-07-25 12:00:00,28,1015.4,0.1,74,23,500,14.816,,,230,,,,,,,,,,,wg-a,,,,AAXX 25124 07761 12/00 22308 10280 20230 30144 40154 53001 60006 82042 91200=
07761,1996-07-25 15:00:00,27,1014.7,-0.7,79,23,17000,11.112,,,200,,,,,,,,,,,wg-a,,,,AAXX 25154 07761 12/67 12006 10270 20230 30137 40147 56007 60006 81042 91500=
07761,1996-07-25 18:00:00,26,1013.2,-1.5,84,23,17000,3.704,,,240,20.8,28.6,,,,,,,,,wg-a,,,,AAXX 25184 07761 12/67 12402 10260 20230 30122 40132 57015 60006 81042 91800 333 10286 20208=
07761,1996-07-25 21:00:00,22,1013.2,-0,83,19,17000,3.704,,,80,,,,,,,,,,,wg-a,,,,AAXX 25214 07761 12/67 00802 10220 20190 30122 40132 55000 60006 80000 92100=
07761,1996-07-26 00:00:00,21,1012.7,-0.5,73,16,15000,7.408,,,50,,,,,,,,,,,wg-a,,,,AAXX 26004 07761 12/65 10504 10210 20160 30117 40127 56005 60006 80001 90000=
07761,1996-07-26 03:00:00,19,1012.5,-0.3,68,13,15000,7.408,,,50,,,,,,,,,,,wg-a,,,,AAXX 26034 07761 12/65 00504 10190 20130 30114 40125 55003 60006 80000 90300=
07761,1996-07-26 06:00:00,22,1011.8,-0.6,57,13,500,11.112,,,40,17.6,26.1,,,,,,,,,wg-a,,,,AAXX 26064 07761 02/00 20406 10220 20130 30108 40118 57006 60006 80001 90600 333 10261 20176 60004=
07761,1996-07-26 09:00:00,27,1012.2,0.4,70,21,25000,7.408,,,260,,,,,,,,,,,wg-a,,,,AAXX 26094 07761 12/75 12604 10270 20210 30112 40122 50004 60006 80002 90900=
07761,1996-07-26 12:00:00,29,1012,-0.2,62,21,22000,14.816,,,210,,,,,,,,,,,wg-a,,,,AAXX 26124 07761 12/72 02108 10290 20210 30110 40120 58002 60006 80000 91200=
07761,1996-07-26 15:00:00,30,1012.2,0.2,52,19,17000,7.408,,,220,,,,,,,,,,,wg-a,,,,AAXX 26154 07761 12/67 32204 10300 20190 30112 40122 50002 60006 80002 91500=
07761,1996-07-26 18:00:00,26,1012.4,0.2,84,23,10000,18.52,,,200,21.7,30.1,,,,,,,,,wg-a,,,,AAXX 26184 07761 12660 42010 10260 20230 30114 40124 53002 60006 81832 91800 333 10301 20217=
07761,1996-07-26 21:00:00,24,1012.7,0.3,89,22,10000,3.704,,,40,,,,,,,,,,,wg-a,,,,AAXX 26214 07761 12660 30402 10240 20220 30117 40127 53003 60006 82232 92100=
07761,1996-07-27 00:00:00,26,1013.2,0.5,65,19,15000,3.704,,,120,,,,,,,,,,,wg-a,,,,AAXX 27004 07761 12/65 61202 10260 20190 30122 40132 50005 60006 84072 90000=
07761,1996-07-27 03:00:00,26,1013.1,-0.1,84,23,15000,7.408,,,220,,,,,,,,,,,wg-a,,,,AAXX 27034 07761 12765 42204 10260 20230 30121 40131 56001 60006 82532 90300=
07761,1996-07-27 06:00:00,26,1013.8,0.7,74,21,15000,11.112,,,40,23.5,28.9,,,,,,,,,wg-a,,,,AAXX 27064 07761 02765 80406 10260 20210 30128 40138 50007 60006 81176 90600 333 10289 20235 60004=
07761,1996-07-27 09:00:00,29,1017.5,3.7,62,21,12000,14.816,,53.708,180,,,,,,,,,,,wg-a,,,,AAXX 27094 07761 12/62 81808 10290 20210 30165 40175 53037 60006 8707/ 90900 333 91029=
07761,1996-07-27 12:00:00,31,1015.9,-1.6,49,19,10000,11.112,,53.708,10,,,,,,,,,,21,wg-a,,,,AAXX 27124 07761 02/60 80106 10310 20190 30149 40159 58016 61000 72162 8707/ 91200 333 6100 91029=
07761,1996-07-27 15:00:00,31,1015.2,-0.7,46,18,25000,7.408,,,230,,,,,,,,,,14,wg-a,,,,AAXX 27154 07761 12875 72304 10310 20180 30142 40152 55007 60006 71422 8457/ 91500=
07761,1996-07-27 18:00:00,28,1015.4,0.2,70,22,12000,7.408,,,310,26.2,35.7,,,,,,,,21,wg-a,,,,AAXX 27184 07761 02/62 /3104 10280 20220 30144 40154 50002 61000 72162 85072 91800 333 10357 20262 ////=
07761,1996-07-27 21:00:00,27,1014.6,-0.8,62,19,15000,14.816,,,30,,,,,,,,,,,wg-a,,,,AAXX 27214 07761 12/65 70308 10270 20190 30136 40146 58008 60006 85072 92100=
07761,1996-07-28 00:00:00,27,1014.4,-0.2,66,20,15000,25.928,,,260,,,,,,,,,,,wg-a,,,,AAXX 28004 07761 12765 /2614 10270 20200 30134 40144 55002 60006 81972 90000=
07761,1996-07-28 03:00:00,23,1016.1,1.7,89,21,12000,7.408,,,80,,,,,,,,,,,wg-a,,,,AAXX 28034 07761 12/62 30804 10230 20210 30151 40161 51017 60006 81072 90300=
07761,1996-07-28 06:00:00,24,1014.5,-1.6,74,19,15000,7.408,,,50,22.3,28,,,,,,,,60,wg-a,,,,AAXX 28064 07761 02665 70504 10240 20190 30135 40145 58016 61000 76061 84392 90600 333 10280 20223 6100=
07761,1996-07-28 09:00:00,26,1016,1.5,84,23,12000,14.816,,,230,,,,,,,,,,3,wg-a,,,,AAXX 28094 07761 02562 72308 10260 20230 30150 40160 53015 61000 70362 85330 90900 333 ////=
07761,1996-07-28 12:00:00,27,1016.2,0.2,79,23,10000,22.224,,,220,,,,,,,,,,1,wg-a,,,,AAXX 28124 07761 02560 52212 10270 20230 30152 40162 50002 61000 70162 84903 91200 333 ////=
07761,1996-07-28 15:00:00,27,1016,-0.2,74,22,6000,22.224,,,240,,,,,,,,,,,wg-a,,,,AAXX 28154 07761 12656 /2412 10270 20220 30150 40160 58002 60006 81400 91500=
07761,1996-07-28 18:00:00,25,1015.9,-0.1,79,21,8000,11.112,,,220,24,29.2,,,,,,,,,wg-a,,,,AAXX 28184 07761 32558 22206 10250 20210 30149 40159 55001 82131 91800 333 10292 20240=
07761,1996-07-28 21:00:00,24,1016.5,0.6,83,21,8000,11.112,,,250,,,,,,,,,,,wg-a,,,,AAXX 28214 07761 12558 42506 10240 20210 30155 40165 51006 60006 84500 92100=
07761,1996-07-29 00:00:00,22,1016.3,-0.2,88,20,8000,3.704,,,60,,,,,,,,,,,wg-a,,,,AAXX 29004 07761 12458 70602 10220 20200 30153 40163 58002 60006 878// 90000=
07761,1996-07-29 03:00:00,21,1015.8,-0.6,83,18,8000,11.112,,,80,,,,,,,,,,,wg-a,,,,AAXX 29034 07761 12458 40806 10210 20180 30147 40158 58006 60006 84800 90300=
07761,1996-07-29 06:00:00,21,1016.3,0.5,78,17,12000,11.112,,,40,19.8,24.5,,,,,,,,,wg-a,,,,AAXX 29064 07761 02562 30406 10210 20170 30152 40163 53005 60006 81831 90600 333 10245 20198 61000=
07761,1996-07-29 09:00:00,27,1016.3,0.1,66,20,15000,14.816,,,240,,,,,,,,,,,wg-a,,,,AAXX 29094 07761 12665 /2408 10270 20200 30153 40163 52001 60006 81800 90900=
07761,1996-07-29 12:00:00,27,1015.9,-0.4,70,21,15000,14.816,,,220,,,,,,,,,,,wg-a,,,,AAXX 29124 07761 12565 /2208 10270 20210 30149 40159 58004 60006 81100 91200=
07761,1996-07-29 15:00:00,27,1014.4,-1.5,74,22,15000,18.52,,,210,,,,,,,,,,,wg-a,,,,AAXX 29154 07761 12665 /2110 10270 20220 30134 40144 58015 60006 81200 91500=
07761,1996-07-29 18:00:00,25,1014,-0.4,79,21,15000,18.52,,,180,21.3,27.6,,,,,,,,,wg-a,,,,AAXX 29184 07761 12665 /1810 10250 20210 30130 40140 56004 60006 81200 91800 333 10276 20213=
07761,1996-07-29 21:00:00,22,1014.5,0.5,83,19,15000,7.408,,,70,,,,,,,,,,,wg-a,,,,AAXX 29214 07761 12/65 00704 10220 20190 30135 40145 53005 60006 80000 92100=
07761,1996-07-30 00:00:00,19,1014.8,0.2,88,17,15000,11.112,,,60,,,,,,,,,,,wg-a,,,,AAXX 30004 07761 12/65 10606 10190 20170 30137 40148 53002 60006 81010 90000=
07761,1996-07-30 03:00:00,18,1013,-1.8,88,16,15000,11.112,,,70,,,,,,,,,,,wg-a,,,,AAXX 30034 07761 12/65 40706 10180 20160 30119 40130 56018 60006 82031 90300=
07761,1996-07-30 06:00:00,19,1012.3,-0.7,78,15,15000,14.816,,,40,17.9,25.1,,,,,,,,,wg-a,,,,AAXX 30064 07761 02/65 50408 10190 20150 30112 40123 56007 60006 82031 90600 333 10251 20179 60004=
07761,1996-07-30 09:00:00,26,1011.9,-0.3,74,21,12000,18.52,,,240,,,,,,,,,,,wg-a,,,,AAXX 30094 07761 12562 /2410 10260 20210 30109 40119 55003 60006 81100 90900=
07761,1996-07-30 12:00:00,27,1011.4,-0.5,70,21,15000,22.224,,,220,,,,,,,,,,,wg-a,,,,AAXX 30124 07761 12665 22212 10270 20210 30104 40114 58005 60006 81231 91200=
07761,1996-07-30 15:00:00,28,1010.4,-1,62,20,12000,25.928,,,320,,,,,,,,,,,wg-a,,,,AAXX 30154 07761 12562 23214 10280 20200 30094 40104 56010 60006 82232 91500=
07761,1996-07-30 18:00:00,26,1010.7,0.3,70,20,12000,22.224,,,290,19.5,28.9,,,,,,,,,wg-a,,,,AAXX 30184 07761 12562 /2912 10260 20200 30097 40107 53003 60006 81100 91800 333 10289 20195=
07761,1996-07-30 21:00:00,23,1012.3,1.6,78,19,15000,7.408,,,50,,,,,,,,,,,wg-a,,,,AAXX 30214 07761 12/65 00504 10230 20190 30113 40123 51016 60006 80000 92100=
07761,1996-07-31 00:00:00,19,1012.3,-0.1,88,17,15000,11.112,,,50,,,,,,,,,,,wg-a,,,,AAXX 31004 07761 12/65 00506 10190 20170 30112 40123 57001 60006 80000 90000=
07761,1996-07-31 03:00:00,18,1012.2,-0.1,83,15,15000,14.816,,,50,,,,,,,,,,,wg-a,,,,AAXX 31034 07761 12/65 00508 10180 20150 30111 40122 55001 60006 80000 90300=
07761,1996-07-31 06:00:00,20,1013,0.8,73,15,15000,11.112,,,50,17.5,25.9,,,,,,,,,wg-a,,,,AAXX 31064 07761 02/65 00506 10200 20150 30119 40130 53008 60006 80000 90600 333 10259 20175 60004=
07761,1996-07-31 09:00:00,26,1013.8,0.9,65,19,20000,11.112,,,220,,,,,,,,,,,wg-a,,,,AAXX 31094 07761 12770 /2206 10260 20190 30128 40138 51009 60006 81100 90900=
07761,1996-07-31 12:00:00,27,1014.1,0.3,70,21,20000,25.928,,,230,,,,,,,,,,,wg-a,,,,AAXX 31124 07761 12670 22314 10270 20210 30131 40141 50003 60006 82230 91200=
07761,1996-07-31 15:00:00,27,1014,-0.1,70,21,20000,22.224,,,200,,,,,,,,,,,wg-a,,,,AAXX 31154 07761 12670 /2012 10270 20210 30130 40140 58001 60006 81230 91500=
07761,1996-07-31 18:00:00,26,1013.8,-0.2,70,20,500,7.408,,,210,20.3,27.7,,,,,,,,,wg-a,,,,AAXX 31184 07761 12700 /2104 10260 20200 30128 40138 56002 60006 81400 91800 333 10277 20203=
07761,1996-07-31 21:00:00,23,1015.3,1.5,78,19,20000,11.112,,,60,,,,,,,,,,,wg-a,,,,AAXX 31214 07761 12/70 00606 10230 20190 30143 40153 51015 60006 80000 92100=
07761,1996-08-01 00:00:00,20,1015.7,0.3,83,17,20000,11.112,,,40,,,,,,,,,,,wg-a,,,,AAXX 01004 07761 12/70 10406 10200 20170 30146 40157 51003 60006 81030 90000=
07761,1996-08-01 03:00:00,18,1015.6,-0.1,83,15,20000,11.112,,,60,,,,,,,,,,,wg-a,,,,AAXX 01034 07761 12/70 00606 10180 20150 30145 40156 57001 60006 80000 90300=
07761,1996-08-01 06:00:00,21,1016.8,1.2,69,15,500,7.408,,,60,17.8,25.4,,,,,,,,,wg-a,,,,AAXX 01064 07761 02/00 00604 10210 20150 30157 40168 53012 60006 80000 90600 333 10254 20178 60004=
07761,1996-08-01 09:00:00,27,1017.5,0.8,62,19,40000,11.112,,,230,,,,,,,,,,,wg-a,,,,AAXX 01094 07761 12682 /2306 10270 20190 30165 40175 51008 60006 81101 90900=
07761,1996-08-01 12:00:00,28,1017.3,-0.2,70,22,500,22.224,,,200,,,,,,,,,,,wg-a,,,,AAXX 01124 07761 12600 /2012 10280 20220 30163 40173 58002 60006 81101 91200=
07761,1996-08-01 15:00:00,28,1017.2,-0.1,70,22,25000,22.224,,,200,,,,,,,,,,,wg-a,,,,AAXX 01154 07761 12675 /2012 10280 20220 30162 40172 58001 60006 81100 91500=
07761,1996-08-01 18:00:00,26,1017.1,-0.1,74,21,25000,14.816,,,210,21,28.5,,,,,,,,,wg-a,,,,AAXX 01184 07761 12675 /2108 10260 20210 30161 40171 57001 60006 81100 91800 333 10285 20210=
07761,1996-08-01 21:00:00,23,1017.7,0.6,73,18,20000,7.408,,,40,,,,,,,,,,,wg-a,,,,AAXX 01214 07761 12/70 00404 10230 20180 30167 40177 52006 60006 80000 92100=
07761,1996-08-02 00:00:00,20,1018.1,0.3,83,17,20000,14.816,,,50,,,,,,,,,,,wg-a,,,,AAXX 02004 07761 12/70 00508 10200 20170 30170 40181 51003 60006 80000 90000=
07761,1996-08-02 03:00:00,19,1018,-0.1,78,15,25000,14.816,,,50,,,,,,,,,,,wg-a,,,,AAXX 02034 07761 12/75 00508 10190 20150 30169 40180 58001 60006 80000 90300=
07761,1996-08-02 06:00:00,21,1019.1,1.1,73,16,500,11.112,,,40,17.9,25.7,,,,,,,,,wg-a,,,,AAXX 02064 07761 02/00 10406 10210 20160 30180 40191 51011 60006 80004 90600 333 10257 20179 60004=
07761,1996-08-02 09:00:00,27,1019.5,0.5,62,19,500,14.816,,,220,,,,,,,,,,,wg-a,,,,AAXX 02094 07761 12600 12208 10270 20190 30185 40195 53005 60006 81101 90900=
07761,1996-08-02 12:00:00,28,1019.5,-0,66,21,500,22.224,,,210,,,,,,,,,,,wg-a,,,,AAXX 02124 07761 12600 /2112 10280 20210 30185 40195 54000 60006 81101 91200=
07761,1996-08-02 15:00:00,29,1018.6,-0.9,58,20,500,18.52,,,200,,,,,,,,,,,wg-a,,,,AAXX 02154 07761 12600 /2010 10290 20200 30176 40186 58009 60006 81200 91500=
07761,1996-08-02 18:00:00,27,1018.1,-0.5,62,19,500,11.112,,,210,21.4,29.9,,,,,,,,,wg-a,,,,AAXX 02184 07761 12/00 02106 10270 20190 30171 40181 55005 60006 80000 91800 333 10299 20214=
07761,1996-08-02 21:00:00,23,1019.1,0.9,57,14,20000,7.408,,,60,,,,,,,,,,,wg-a,,,,AAXX 02214 07761 12/70 10604 10230 20140 30180 40191 53009 60006 80001 92100=
07761,1996-08-03 00:00:00,20,1018.9,-0.2,68,14,20000,7.408,,,60,,,,,,,,,,,wg-a,,,,AAXX 03004 07761 12/70 00604 10200 20140 30178 40189 58002 60006 80000 90000=
07761,1996-08-03 03:00:00,18,1018.2,-0.7,77,14,20000,11.112,,,50,,,,,,,,,,,wg-a,,,,AAXX 03034 07761 12/70 /0506 10180 20140 30171 40182 57007 60006 81031 90300=
07761,1996-08-03 06:00:00,20,1019.1,0.9,68,14,40000,11.112,,,60,16.8,27.2,,,,,,,,,wg-a,,,,AAXX 03064 07761 02582 /0606 10200 20140 30180 40191 53009 60006 81140 90600 333 10272 20168 60004=
07761,1996-08-03 09:00:00,27,1018.4,-0.6,66,20,25000,11.112,,,260,,,,,,,,,,,wg-a,,,,AAXX 03094 07761 12/75 22606 10270 20200 30174 40184 57006 60006 82031 90900=
07761,1996-08-03 12:00:00,28,1018.2,-0.2,70,22,15000,22.224,,,220,,,,,,,,,,,wg-a,,,,AAXX 03124 07761 12665 22212 10280 20220 30172 40182 58002 60006 81132 91200=
07761,1996-08-03 15:00:00,27,1017.6,-0.6,74,22,20000,25.928,,,210,,,,,,,,,,,wg-a,,,,AAXX 03154 07761 12670 22114 10270 20220 30166 40176 56006 60006 81202 91500=
07761,1996-08-03 18:00:00,25,1016.8,-0.8,79,21,20000,14.816,,,220,19.9,27.8,,,,,,,,,wg-a,,,,AAXX 03184 07761 12670 /2208 10250 20210 30158 40168 55008 60006 81140 91800 333 10278 20199=
07761,1996-08-03 21:00:00,22,1017.3,0.5,88,20,12000,7.408,,,60,,,,,,,,,,,wg-a,,,,AAXX 03214 07761 12/62 00604 10220 20200 30163 40173 50005 60006 80000 92100=
07761,1996-08-04 00:00:00,19,1017.5,0.1,88,17,12000,11.112,,,60,,,,,,,,,,,wg-a,,,,AAXX 04004 07761 12462 /0606 10190 20170 30164 40175 50001 60006 85500 90000=
07761,1996-08-04 03:00:00,19,1016,-1.5,83,16,15000,7.408,,,60,,,,,,,,,,,wg-a,,,,AAXX 04034 07761 12565 /0604 10190 20160 30149 40160 56015 60006 81500 90300=
07761,1996-08-04 06:00:00,19,1016.2,0.2,73,14,25000,14.816,,,50,16.8,24.9,,,,,,,,,wg-a,,,,AAXX 04064 07761 02/75 /0508 10190 20140 30151 40162 53002 60006 81032 90600 333 10249 20168 60004=
07761,1996-08-04 09:00:00,26,1015.8,-0.3,70,20,25000,7.408,,,240,,,,,,,,,,,wg-a,,,,AAXX 04094 07761 12775 62404 10260 20200 30148 40158 58003 60006 81539 90900=
07761,1996-08-04 12:00:00,28,1015.2,-0.6,66,21,500,22.224,,,210,,,,,,,,,,,wg-a,,,,AAXX 04124 07761 12600 /2112 10280 20210 30142 40152 56006 60006 81202 91200=
07761,1996-08-04 15:00:00,28,1014.4,-0.8,62,20,35000,29.632,,,220,,,,,,,,,,,wg-a,,,,AAXX 04154 07761 12681 /2216 10280 20200 30134 40144 58008 60006 81232 91500=
07761,1996-08-04 18:00:00,25,1014.8,0.4,69,19,500,14.816,,,200,19.3,28.5,,,,,,,,,wg-a,,,,AAXX 04184 07761 12/00 02008 10250 20190 30138 40148 52004 60006 80000 91800 333 10285 20193=
07761,1996-08-04 21:00:00,21,1015.3,0.4,69,15,500,11.112,,,50,,,,,,,,,,,wg-a,,,,AAXX 04214 07761 12/00 00506 10210 20150 30142 40153 50004 60006 80000 92100=
07761,1996-08-05 00:00:00,18,1014.7,-0.6,73,13,500,14.816,,,40,,,,,,,,,,,wg-a,,,,AAXX 05004 07761 12/00 00408 10180 20130 30136 40147 56006 60006 80000 90000=
07761,1996-08-05 03:00:00,18,1014,-0.7,68,12,500,7.408,,,60,,,,,,,,,,,wg-a,,,,AAXX 05034 07761 12/00 00604 10180 20120 30129 40140 56007 60006 80000 90300=
07761,1996-08-05 06:00:00,20,1015,1,64,13,20000,11.112,,,40,15.9,25.3,,,,,,,,,wg-a,,,,AAXX 05064 07761 02770 30406 10200 20130 30139 40150 53010 60006 81182 90600 333 10253 20159 60004=
07761,1996-08-05 09:00:00,27,1014.2,-0.7,54,17,25000,18.52,,,230,,,,,,,,,,,wg-a,,,,AAXX 05094 07761 12/75 /2310 10270 20170 30132 40142 56007 60006 80002 90900=
07761,1996-08-05 12:00:00,27,1013.1,-1.1,62,19,20000,22.224,,,250,,,,,,,,,,,wg-a,,,,AAXX 05124 07761 12770 52512 10270 20190 30121 40131 58011 60006 81172 91200=
07761,1996-08-05 15:00:00,29,1013.4,0.3,62,21,15000,14.816,,,250,,,,,,,,,,,wg-a,,,,AAXX 05154 07761 12765 22508 10290 20210 30124 40134 52003 60006 81131 91500=
07761,1996-08-05 18:00:00,27,1012.6,-0.8,51,16,15000,7.408,,,260,20.2,28.9,,,,,,,,,wg-a,,,,AAXX 05184 07761 12765 22604 10270 20160 30116 40126 58008 60006 81130 91800 333 10289 20202=
07761,1996-08-05 21:00:00,23,1013.5,0.9,65,16,15000,11.112,,,60,,,,,,,,,,,wg-a,,,,AAXX 05214 07761 12/65 10606 10230 20160 30125 40135 51009 60006 81080 92100=
07761,1996-08-06 00:00:00,21,1013.2,-0.3,78,17,15000,11.112,,,50,,,,,,,,,,,wg-a,,,,AAXX 06004 07761 12/65 00506 10210 20170 30122 40132 58003 60006 80000 90000=
07761,1996-08-06 03:00:00,19,1013.3,-0,83,16,15000,11.112,,,40,,,,,,,,,,,wg-a,,,,AAXX 06034 07761 12/65 /0406 10190 20160 30122 40133 54000 60006 81082 90300=
07761,1996-08-06 06:00:00,20,1013.6,0.3,78,16,15000,7.408,,,50,18.3,27.2,,,,,,,,,wg-a,,,,AAXX 06064 07761 02/65 20504 10200 20160 30125 40136 53003 60006 81082 90600 333 10272 20183 60004=
07761,1996-08-06 09:00:00,27,1014.2,0.7,70,21,20000,14.816,,,230,,,,,,,,,,,wg-a,,,,AAXX 06094 07761 12/70 12308 10270 20210 30132 40142 51007 60006 80001 90900=
07761,1996-08-06 12:00:00,28,1014.4,0.2,66,21,20000,22.224,,,230,,,,,,,,,,,wg-a,,,,AAXX 06124 07761 12670 /2312 10280 20210 30134 40144 50002 60006 81101 91200=
07761,1996-08-06 15:00:00,29,1014.3,-0.1,55,19,20000,11.112,,,200,,,,,,,,,,,wg-a,,,,AAXX 06154 07761 12670 /2006 10290 20190 30133 40143 58001 60006 81101 91500=
07761,1996-08-06 18:00:00,26,1014.5,0.2,74,21,17000,14.816,,,200,20.2,29.4,,,,,,,,,wg-a,,,,AAXX 06184 07761 12/67 12008 10260 20210 30135 40145 53002 60006 80001 91800 333 10294 20202=
07761,1996-08-06 21:00:00,22,1015.8,1.3,69,16,17000,11.112,,,70,,,,,,,,,,,wg-a,,,,AAXX 06214 07761 12/67 00706 10220 20160 30148 40158 51013 60006 80000 92100=
07761,1996-08-07 00:00:00,19,1015.9,0,78,15,17000,11.112,,,50,,,,,,,,,,,wg-a,,,,AAXX 07004 07761 12/67 00506 10190 20150 30148 40159 50000 60006 80000 90000=
07761,1996-08-07 03:00:00,18,1016,0.1,73,13,17000,14.816,,,50,,,,,,,,,,,wg-a,,,,AAXX 07034 07761 12/67 00508 10180 20130 30149 40160 53001 60006 80000 90300=
07761,1996-08-07 06:00:00,19,1016.7,0.7,68,13,20000,11.112,,,40,16.9,26.2,,,,,,,,,wg-a,,,,AAXX 07064 07761 02/70 50406 10190 20130 30156 40167 53007 60006 82032 90600 333 10262 20169 60004=
07761,1996-08-07 09:00:00,19,1016.7,0.7,68,13,20000,11.112,,,40,16.9,26.2,,,,,,,,,wg-a,,,,AAXX 07094 07761 02/70 50406 10190 20130 30156 40167 53007 60006 82032 90900 333 10262 20169 60004=
07761,1996-08-07 12:00:00,26,1016.5,-0,70,20,20000,14.816,,,200,,,,,,,,,,,wg-a,,,,AAXX 07124 07761 12770 72008 10260 20200 30155 40165 55000 60006 81172 91200=
07761,1996-08-07 15:00:00,27,1015.4,-1.1,66,20,20000,25.928,,,240,,,,,,,,,,,wg-a,,,,AAXX 07154 07761 12870 62414 10270 20200 30144 40154 55011 60006 81532 91500=
07761,1996-08-07 18:00:00,26,1014.9,-0.5,65,19,18000,0,,,0,19.4,30.5,,,,,,,,,wg-a,,,,AAXX 07184 07761 12/68 70000 10260 20190 30139 40149 58005 60006 85032 91800 333 10305 20194=
07761,1996-08-07 21:00:00,22,1014.5,-0.4,78,18,15000,11.112,,,50,,,,,,,,,,,wg-a,,,,AAXX 07214 07761 12/65 30506 10220 20180 30135 40145 58004 60006 82032 92100=
07761,1996-08-08 00:00:00,18,1014.9,0.3,83,15,20000,11.112,,,60,,,,,,,,,,,wg-a,,,,AAXX 08004 07761 12/70 20606 10180 20150 30138 40149 53003 60006 80002 90000=
07761,1996-08-08 03:00:00,18,1013.7,-1.2,77,14,20000,11.112,,,40,,,,,,,,,,,wg-a,,,,AAXX 08034 07761 12/70 00406 10180 20140 30126 40137 56012 60006 80000 90300=
07761,1996-08-08 06:00:00,20,1014,0.3,68,14,25000,14.816,,,50,17.5,25.8,,,,,,,,,wg-a,,,,AAXX 08064 07761 02/75 50508 10200 20140 30129 40140 52003 60006 81082 90600 333 10258 20175 60004=
07761,1996-08-08 09:00:00,28,1013.2,-0.7,55,18,500,11.112,,,240,,,,,,,,,,,wg-a,,,,AAXX 08094 07761 12/00 22406 10280 20180 30122 40132 58007 60006 82082 90900=
07761,1996-08-08 12:00:00,28,1012.6,-0.6,70,22,500,25.928,,,250,,,,,,,,,,,wg-a,,,,AAXX 08124 07761 12/00 72514 10280 20220 30116 40126 55006 60006 84089 91200=
07761,1996-08-08 15:00:00,26,1013.4,0.8,65,19,500,7.408,,,70,,,,1,,,,,,29,wg-a,,,,AAXX 08154 07761 12800 /0704 10260 20190 30124 40134 50008 60017 72998 81982 91500=
07761,1996-08-08 18:00:00,26,1012.5,-0.9,79,22,500,14.816,,,240,20,33.4,,,,,,,,1,wg-a,,,,AAXX 08184 07761 32/00 /2408 10260 20220 30115 40125 55009 70198 81030 91800 333 10334 20200=
07761,1996-08-08 21:00:00,23,1014,1.5,78,19,20000,11.112,,,30,,,,,,,,,,,wg-a,,,,AAXX 08214 07761 12/70 00306 10230 20190 30130 40140 50015 60006 80000 92100=
07761,1996-08-09 00:00:00,20,1014,-0.1,78,16,20000,11.112,,,60,,,,,,,,,,,wg-a,,,,AAXX 09004 07761 12/70 00606 10200 20160 30129 40140 55001 60006 80000 90000=
07761,1996-08-09 03:00:00,19,1013.5,-0.5,78,15,20000,11.112,,,40,,,,,,,,,,,wg-a,,,,AAXX 09034 07761 12/70 00406 10190 20150 30124 40135 57005 60006 80000 90300=
07761,1996-08-09 06:00:00,20,1014.1,0.6,78,16,25000,14.816,,,60,17.2,26,,,,,1,,,,wg-a,,,,AAXX 09064 07761 02/75 20608 10200 20160 30130 40141 51006 60006 82081 90600 333 10260 20172 60014=
07761,1996-08-09 12:00:00,29,1014.3,-0.1,62,21,25000,22.224,,,230,,,,,,,,,,,wg-a,,,,AAXX 09124 07761 12575 22312 10290 20210 30133 40143 58001 60006 82202 91200=
07761,1996-08-09 18:00:00,26,1013.7,-0,65,19,25000,11.112,,,330,20.2,28.9,,,,,,,,,wg-a,,,,AAXX 09184 07761 12575 /3306 10260 20190 30127 40137 55000 60006 81400 91800 333 10289 20202=
07761,1996-08-09 21:00:00,22,1014.4,0.7,78,18,15000,7.408,,,60,,,,,,,,,,,wg-a,,,,AAXX 09214 07761 12/65 00604 10220 20180 30134 40144 52007 60006 80000 92100=
07761,1996-08-10 00:00:00,21,1014.3,-0.2,83,18,15000,7.408,,,50,,,,,,,,,,,wg-a,,,,AAXX 10004 07761 12/65 00504 10210 20180 30132 40143 58002 60006 80000 90000=
07761,1996-08-10 03:00:00,19,1014,-0.3,88,17,15000,11.112,,,60,,,,,,,,,,,wg-a,,,,AAXX 10034 07761 12/65 00606 10190 20170 30129 40140 57003 60006 80000 90300=
07761,1996-08-10 06:00:00,21,1013.9,0,83,18,20000,11.112,,,50,18.9,26.3,,,,,,,,,wg-a,,,,AAXX 10064 07761 02/70 00506 10210 20180 30129 40139 50000 60006 80000 90600 333 10263 20189 60004=
07761,1996-08-10 09:00:00,27,1014.1,0.2,70,21,25000,18.52,,,220,,,,,,,,,,,wg-a,,,,AAXX 10094 07761 12675 /2210 10270 20210 30131 40141 53002 60006 81100 90900=
07761,1996-08-10 12:00:00,28,1013.5,-0.6,70,22,18000,22.224,,,230,,,,,,,,,,,wg-a,,,,AAXX 10124 07761 12668 /2312 10280 20220 30125 40135 58006 60006 81100 91200=
07761,1996-08-10 15:00:00,27,1012.3,-1.2,74,22,18000,22.224,,,220,,,,,,,,,,,wg-a,,,,AAXX 10154 07761 12668 /2212 10270 20220 30113 40123 57012 60006 81200 91500=
07761,1996-08-10 18:00:00,26,1011.4,-0.9,74,21,20000,11.112,,,240,21.2,28.8,,,,,,,,,wg-a,,,,AAXX 10184 07761 12670 /2406 10260 20210 30104 40114 58009 60006 81200 91800 333 10288 20212=
07761,1996-08-10 21:00:00,22,1012.2,0.8,83,19,20000,11.112,,,80,,,,,,,,,,,wg-a,,,,AAXX 10214 07761 12/70 10806 10220 20190 30112 40122 53008 60006 80001 92100=
07761,1996-08-11 00:00:00,21,1011.9,-0.3,83,18,20000,11.112,,,60,,,,,,,,,,,wg-a,,,,AAXX 11004 07761 12/70 /0606 10210 20180 30109 40119 56003 60006 81030 90000=
07761,1996-08-11 03:00:00,20,1010.7,-1.2,83,17,15000,7.408,,,40,,,,,,,,,,,wg-a,,,,AAXX 11034 07761 12/65 20404 10200 20170 30097 40107 58012 60006 82032 90300=
07761,1996-08-11 06:00:00,22,1010.6,-0.1,73,17,15000,7.408,,,60,19,26.1,,,,,,,,,wg-a,,,,AAXX 11064 07761 02/65 40604 10220 20170 30096 40106 55001 60006 81034 90600 333 10261 20190 60004=
07761,1996-08-11 09:00:00,26,1010.8,0.2,70,20,15000,11.112,,,280,,,,,,,,,,,wg-a,,,,AAXX 11094 07761 12/65 62806 10260 20200 30098 40108 50002 60006 84034 90900=
07761,1996-08-11 12:00:00,27,1010.5,-0.3,74,22,25000,22.224,,,230,,,,,,,,,,,wg-a,,,,AAXX 11124 07761 12775 72312 10270 20220 30095 40105 55003 60006 81182 91200=
07761,1996-08-11 15:00:00,27,1010,-0.5,74,22,25000,18.52,,,220,,,,,,,,,,,wg-a,,,,AAXX 11154 07761 12575 32210 10270 20220 30090 40100 57005 60006 81232 91500=
07761,1996-08-11 18:00:00,26,1009.1,-0.9,74,21,25000,11.112,,,320,21.5,28.8,,,,,,,,,wg-a,,,,AAXX 11184 07761 12575 /3206 10260 20210 30081 40091 56009 60006 81242 91800 333 10288 20215=
07761,1996-08-11 21:00:00,23,1009.8,0.7,78,19,20000,7.408,,,50,,,,,,,,,,,wg-a,,,,AAXX 11214 07761 12570 30504 10230 20190 30088 40098 52007 60006 81232 92100=
07761,1996-08-12 00:00:00,21,1010.2,0.4,83,18,18000,11.112,,,40,,,,,,,,,,,wg-a,,,,AAXX 12004 07761 12468 30406 10210 20180 30092 40102 50004 60006 81102 90000=
07761,1996-08-12 03:00:00,20,1010.1,-0.2,83,17,20000,7.408,,,70,,,,,,,,,,,wg-a,,,,AAXX 12034 07761 12470 40704 10200 20170 30090 40101 58002 60006 83802 90300=
07761,1996-08-12 06:00:00,21,1010.7,0.7,83,18,20000,11.112,,,60,19.3,26.2,,,,,,,,,wg-a,,,,AAXX 12064 07761 02570 30606 10210 20180 30097 40107 53007 60006 83240 90600 333 10262 20193 60004=
07761,1996-08-12 09:00:00,26,1011.3,0.6,61,18,25000,11.112,,,240,,,,,,,,,,,wg-a,,,,AAXX 12094 07761 12575 32406 10260 20180 30103 40113 51006 60006 82230 90900=
07761,1996-08-12 12:00:00,27,1011.9,0.6,51,16,500,29.632,,,240,,,,,,,,,,,wg-a,,,,AAXX 12124 07761 12600 /2416 10270 20160 30109 40119 50006 60006 81170 91200=
07761,1996-08-12 15:00:00,27,1012.2,0.3,48,15,50000,29.632,,,240,,,,,,,,,,,wg-a,,,,AAXX 12154 07761 12684 /2416 10270 20150 30112 40122 53003 60006 81840 91500=
07761,1996-08-12 18:00:00,24,1012.7,0.5,61,16,500,14.816,,,250,21,27.4,,,,,,,,,wg-a,,,,AAXX 12184 07761 12600 /2508 10240 20160 30117 40127 53005 60006 81141 91800 333 10274 20210=
07761,1996-08-12 21:00:00,20,1014.2,1.4,73,15,20000,11.112,,,50,,,,,,,,,,,wg-a,,,,AAXX 12214 07761 12670 /0506 10200 20150 30131 40142 51014 60006 81500 92100=
07761,1996-08-13 00:00:00,18,1014.1,-0.1,77,14,20000,14.816,,,60,,,,,,,,,,,wg-a,,,,AAXX 13004 07761 12570 /0608 10180 20140 30130 40141 58001 60006 81500 90000=
07761,1996-08-13 03:00:00,18,1013.4,-0.7,77,14,20000,11.112,,,50,,,,,,,,,,,wg-a,,,,AAXX 13034 07761 12570 /0506 10180 20140 30123 40134 55007 60006 81500 90300=
07761,1996-08-13 06:00:00,19,1013.6,0.2,73,14,500,14.816,,,50,17.3,23.7,,,,,,,,,wg-a,,,,AAXX 13064 07761 02500 /0508 10190 20140 30125 40136 53002 60006 81130 90600 333 10237 20173 60004=
07761,1996-08-13 09:00:00,26,1014.1,0.6,54,16,40000,14.816,,,210,,,,,,,,,,,wg-a,,,,AAXX 13094 07761 12682 32108 10260 20160 30131 40141 51006 60006 81142 90900=
07761,1996-08-13 12:00:00,27,1014.1,0,51,16,40000,25.928,,,230,,,,,,,,,,,wg-a,,,,AAXX 13124 07761 12682 22314 10270 20160 30131 40141 50000 60006 81132 91200=
07761,1996-08-13 15:00:00,26,1014.3,0.2,51,15,40000,25.928,,,240,,,,,,,,,,,wg-a,,,,AAXX 13154 07761 12682 /2414 10260 20150 30133 40143 50002 60006 81442 91500=
07761,1996-08-13 18:00:00,24,1013.6,-0.7,65,17,20000,18.52,,,250,19.3,27.3,,,,,,,,,wg-a,,,,AAXX 13184 07761 12770 /2510 10240 20170 30126 40136 56007 60006 81801 91800 333 10273 20193=
07761,1996-08-13 21:00:00,20,1014.7,1,68,14,15000,7.408,,,50,,,,,,,,,,,wg-a,,,,AAXX 13214 07761 12/65 10504 10200 20140 30136 40147 51010 60006 80001 92100=
07761,1996-08-14 00:00:00,16,1014.8,0.1,77,12,15000,14.816,,,50,,,,,,,,,,,wg-a,,,,AAXX 14004 07761 12/65 00508 10160 20120 30137 40148 50001 60006 80000 90000=
07761,1996-08-14 03:00:00,15,1013.9,-0.9,77,11,15000,14.816,,,40,,,,,,,,,,,wg-a,,,,AAXX 14034 07761 12/65 00408 10150 20110 30128 40139 58009 60006 80000 90300=
07761,1996-08-14 06:00:00,17,1013.5,-0.4,68,11,50000,14.816,,,50,15,24.2,,,,,,,,,wg-a,,,,AAXX 14064 07761 02/84 00508 10170 20110 30124 40135 56004 60006 80000 90600 333 10242 20150 60004=
07761,1996-08-14 09:00:00,26,1013.2,-0.2,42,12,50000,7.408,,,230,,,,,,,,,,,wg-a,,,,AAXX 14094 07761 12/84 22304 10260 20120 30122 40132 58002 60006 80002 90900=
07761,1996-08-14 12:00:00,28,1012.3,-0.9,51,17,50000,18.52,,,190,,,,,,,,,,,wg-a,,,,AAXX 14124 07761 12/84 21910 10280 20170 30113 40123 58009 60006 81082 91200=
07761,1996-08-14 15:00:00,27,1012,-0.3,58,18,40000,22.224,,,230,,,,,,,,,,,wg-a,,,,AAXX 14154 07761 12/82 /2312 10270 20180 30110 40120 56003 60006 81080 91500=
07761,1996-08-14 18:00:00,26,1011.7,-0.3,58,17,40000,11.112,,,200,17.4,29.3,,,,,,,,,wg-a,,,,AAXX 14184 07761 12/82 12006 10260 20170 30107 40117 55003 60006 81080 91800 333 10293 20174=
07761,1996-08-14 21:00:00,21,1012.7,1,73,16,15000,7.408,,,40,,,,,,,,,,,wg-a,,,,AAXX 14214 07761 12/65 /0404 10210 20160 30117 40127 53010 60006 81082 92100=
07761,1996-08-15 00:00:00,18,1012.7,-0.1,77,14,15000,11.112,,,50,,,,,,,,,,,wg-a,,,,AAXX 15004 07761 12/65 00506 10180 20140 30116 40127 57001 60006 80000 90000=
07761,1996-08-15 03:00:00,17,1011.4,-1.3,77,13,15000,11.112,,,40,,,,,,,,,,,wg-a,,,,AAXX 15034 07761 12/65 00406 10170 20130 30103 40114 58013 60006 80000 90300=
07761,1996-08-15 06:00:00,18,1012.3,0.9,68,12,20000,14.816,,,50,16.2,25.7,,,,,,,,,wg-a,,,,AAXX 15064 07761 02/70 /0508 10180 20120 30112 40123 50009 60006 81030 90600 333 10257 20162 60004=
07761,1996-08-15 09:00:00,26,1013.2,1,65,19,40000,14.816,,,220,,,,,,,,,,,wg-a,,,,AAXX 15094 07761 12/82 /2208 10260 20190 30122 40132 53010 60006 81030 90900=
07761,1996-08-15 12:00:00,27,1013.5,0.3,58,18,500,25.928,,,210,,,,,,,,,,,wg-a,,,,AAXX 15124 07761 12600 /2114 10270 20180 30125 40135 51003 60006 81101 91200=
07761,1996-08-15 15:00:00,26,1013,-0.5,70,20,500,18.52,,,220,,,,,,,,,,,wg-a,,,,AAXX 15154 07761 12600 /2210 10260 20200 30120 40130 56005 60006 81101 91500=
07761,1996-08-15 18:00:00,24,1013.3,0.3,78,20,9000,7.408,,,210,18.1,26.7,,,,,,,,,wg-a,,,,AAXX 15184 07761 12559 22104 10240 20200 30123 40133 50003 60006 82501 91800 333 10267 20181=
07761,1996-08-15 21:00:00,21,1014.8,1.4,83,18,10000,7.408,,,60,,,,,,,,,,,wg-a,,,,AAXX 15214 07761 12560 20604 10210 20180 30137 40148 53014 60006 82500 92100=
07761,1996-08-16 00:00:00,19,1014.8,-0,83,16,10000,7.408,,,20,,,,,,,,,,,wg-a,,,,AAXX 16004 07761 12460 20204 10190 20160 30137 40148 54000 60006 82500 90000=
07761,1996-08-16 12:00:00,26,1015.3,0.5,70,20,18000,25.928,,,240,,,,,,,,,,,wg-a,,,,AAXX 16124 07761 12668 /2414 10260 20200 30143 40153 53005 60006 81100 91200=
07761,1996-08-16 18:00:00,26,1014.7,-0.1,70,20,20000,11.112,,,200,18.4,27.4,,,,,,,,,wg-a,,,,AAXX 16184 07761 12670 /2006 10260 20200 30137 40147 55001 60006 81200 91800 333 10274 20184=
07761,1996-08-16 21:00:00,21,1016,1.2,83,18,12000,7.408,,,70,,,,,,,,,,,wg-a,,,,AAXX 16214 07761 12/62 00704 10210 20180 30149 40160 53012 60006 80000 92100=
07761,1996-08-17 00:00:00,19,1016.9,0.9,83,16,15000,11.112,,,50,,,,,,,,,,,wg-a,,,,AAXX 17004 07761 12/65 00506 10190 20160 30158 40169 53009 60006 80000 90000=
07761,1996-08-17 06:00:00,19,1016.8,0.7,78,15,25000,11.112,,,40,16.7,25.5,,,,,,,,,wg-a,,,,AAXX 17064 07761 02/75 00406 10190 20150 30157 40168 53007 60006 80000 90600 333 10255 20167 60004=
07761,1996-08-17 09:00:00,26,1017.2,0.5,65,19,25000,14.816,,,210,,,,,,,,,,,wg-a,,,,AAXX 17094 07761 12675 /2108 10260 20190 30162 40172 53005 60006 81100 90900=
07761,1996-08-17 12:00:00,28,1016.8,-0.4,66,21,25000,22.224,,,210,,,,,,,,,,,wg-a,,,,AAXX 17124 07761 12675 /2112 10280 20210 30158 40168 58004 60006 81100 91200=
07761,1996-08-17 15:00:00,28,1016.1,-0.7,66,21,20000,18.52,,,200,,,,,,,,,,,wg-a,,,,AAXX 17154 07761 12670 /2010 10280 20210 30151 40161 56007 60006 81100 91500=
07761,1996-08-17 18:00:00,26,1015.5,-0.6,70,20,25000,14.816,,,190,19.4,28.6,,,,,,,,,wg-a,,,,AAXX 17184 07761 12675 /1908 10260 20200 30145 40155 56006 60006 81100 91800 333 10286 20194=
07761,1996-08-17 21:00:00,22,1016.4,0.8,73,17,20000,7.408,,,50,,,,,,,,,,,wg-a,,,,AAXX 17214 07761 12/70 00504 10220 20170 30153 40164 51008 60006 80000 92100=
07761,1996-08-18 00:00:00,18,1016.2,-0.2,83,15,20000,7.408,,,50,,,,,,,,,,,wg-a,,,,AAXX 18004 07761 12/70 00504 10180 20150 30151 40162 58002 60006 80000 90000=
07761,1996-08-18 03:00:00,17,1015.3,-0.9,88,15,20000,11.112,,,60,,,,,,,,,,,wg-a,,,,AAXX 18034 07761 12/70 00606 10170 20150 30142 40153 58009 60006 80000 90300=
07761,1996-08-18 06:00:00,18,1015.3,-0,77,14,25000,11.112,,,50,15.8,26,,,,,,,,,wg-a,,,,AAXX 18064 07761 02775 /0506 10180 20140 30142 40153 55000 60006 81180 90600 333 10260 20158 60004=
07761,1996-08-18 09:00:00,26,1015.6,0.4,70,20,20000,14.816,,,220,,,,,,,,,,,wg-a,,,,AAXX 18094 07761 12770 /2208 10260 20200 30146 40156 53004 60006 81200 90900=
07761,1996-08-18 12:00:00,27,1015.1,-0.5,70,21,0,18.52,,,200,,,,,,,,,,,wg-a,,,,AAXX 18124 07761 12/// /2010 10270 20210 30141 40151 56005 60006 91200=
07761,1996-08-18 15:00:00,31,1014.3,-0.8,29,11,20000,14.816,,,260,,,,,,,,,,,wg-a,,,,AAXX 18154 07761 12670 22608 10310 20110 30133 40143 56008 60006 81860 91500=
07761,1996-08-18 18:00:00,27,1013.7,-0.6,58,18,20000,7.408,,,210,18.5,31,,,,,,,,,wg-a,,,,AAXX 18184 07761 12770 /2104 10270 20180 30127 40137 56006 60006 81400 91800 333 10310 20185=
07761,1996-08-18 21:00:00,21,1015,1.2,64,14,20000,11.112,,,70,,,,,,,,,,,wg-a,,,,AAXX 18214 07761 12/70 00706 10210 20140 30139 40150 51012 60006 80000 92100=
07761,1996-08-19 00:00:00,19,1015.2,0.2,68,13,20000,11.112,,,50,,,,,,,,,,,wg-a,,,,AAXX 19004 07761 12/70 00506 10190 20130 30141 40152 50002 60006 80000 90000=
07761,1996-08-19 03:00:00,17,1014.5,-0.7,77,13,15000,11.112,,,50,,,,,,,,,,,wg-a,,,,AAXX 19034 07761 12/65 00506 10170 20130 30134 40145 57007 60006 80000 90300=
07761,1996-08-19 06:00:00,19,1015,0.5,68,13,20000,7.408,,,60,16.6,26.8,,,,,,,,,wg-a,,,,AAXX 19064 07761 02/70 00604 10190 20130 30139 40150 53005 60006 80000 90600 333 10268 20166 60004=
07761,1996-08-19 09:00:00,27,1015.3,0.4,48,15,25000,7.408,,,230,,,,,,,,,,,wg-a,,,,AAXX 19094 07761 12775 /2304 10270 20150 30143 40153 51004 60006 81100 90900=
07761,1996-08-19 12:00:00,27,1015.3,-0,70,21,11000,25.928,,,230,,,,,,,,,,,wg-a,,,,AAXX 19124 07761 12/61 /2314 10270 20210 30143 40153 55000 60006 91200=
07761,1996-08-19 15:00:00,27,1014.6,-0.7,66,20,20000,14.816,,,220,,,,,,,,,,,wg-a,,,,AAXX 19154 07761 12670 22208 10270 20200 30136 40146 58007 60006 81961 91500=
07761,1996-08-19 18:00:00,25,1014,-0.6,83,22,15000,14.816,,,210,18.5,27.7,,,,,,,,,wg-a,,,,AAXX 19184 07761 12665 /2108 10250 20220 30130 40140 55006 60006 81160 91800 333 10277 20185=
07761,1996-08-19 21:00:00,21,1014.8,0.8,78,17,10000,3.704,,,80,,,,,,,,,,,wg-a,,,,AAXX 19214 07761 12/60 00802 10210 20170 30138 40148 53008 60006 80000 92100=
07761,1996-08-20 00:00:00,19,1015.4,0.5,78,15,15000,11.112,,,60,,,,,,,,,,,wg-a,,,,AAXX 20004 07761 12/65 00606 10190 20150 30143 40154 50005 60006 80000 90000=
07761,1996-08-20 03:00:00,18,1014.8,-0.6,83,15,15000,11.112,,,60,,,,,,,,,,,wg-a,,,,AAXX 20034 07761 12/65 00606 10180 20150 30137 40148 55006 60006 80000 90300=
07761,1996-08-20 06:00:00,18,1014.8,-0,83,15,25000,11.112,,,50,17.2,24.8,,,,,,,,,wg-a,,,,AAXX 20064 07761 02/75 00506 10180 20150 30137 40148 55000 60006 80000 90600 333 10248 20172 60004=
07761,1996-08-20 09:00:00,27,1014.8,0.1,51,16,500,11.112,,,250,,,,,,,,,,,wg-a,,,,AAXX 20094 07761 12600 /2506 10270 20160 30138 40148 50001 60006 81100 90900=
07761,1996-08-20 12:00:00,28,1015.2,0.4,66,21,500,25.928,,,220,,,,,,,,,,,wg-a,,,,AAXX 20124 07761 12600 /2214 10280 20210 30142 40152 53004 60006 81100 91200=
07761,1996-08-20 15:00:00,28,1013.5,-1.7,62,20,500,18.52,,,190,,,,,,,,,,,wg-a,,,,AAXX 20154 07761 12600 41910 10280 20200 30125 40135 58017 60006 81204 91500=
07761,1996-08-20 18:00:00,27,1012.9,-0.6,54,17,20000,3.704,,,280,18.3,28.7,,,,,,,,,wg-a,,,,AAXX 20184 07761 12/70 72802 10270 20170 30119 40129 56006 60006 81032 91800 333 10287 20183=
07761,1996-08-20 21:00:00,22,1014.1,1.2,69,16,15000,11.112,,,50,,,,,,,,,,,wg-a,,,,AAXX 20214 07761 12/65 00506 10220 20160 30131 40141 51012 60006 80000 92100=
07761,1996-08-21 00:00:00,19,1014.5,0.3,78,15,15000,11.112,,,50,,,,,,,,,,,wg-a,,,,AAXX 21004 07761 12/65 00506 10190 20150 30134 40145 51003 60006 80000 90000=
07761,1996-08-21 03:00:00,18,1012.6,-1.9,77,14,15000,14.816,,,40,,,,,,,,,,,wg-a,,,,AAXX 21034 07761 12/65 00408 10180 20140 30115 40126 58019 60006 80000 90300=
07761,1996-08-21 06:00:00,19,1013.5,0.9,73,14,18000,14.816,,,50,17,27.2,,,,,,,,,wg-a,,,,AAXX 21064 07761 02/68 10508 10190 20140 30124 40135 52009 60006 81031 90600 333 10272 20170 60004=
07761,1996-08-21 09:00:00,27,1013.2,-0.2,51,16,500,11.112,,,230,,,,,,,,,,,wg-a,,,,AAXX 21094 07761 12/00 12306 10270 20160 30122 40132 56002 60006 81031 90900=
07761,1996-08-21 15:00:00,29,1012.1,-0.4,58,20,25000,18.52,,,260,,,,,,,,,,,wg-a,,,,AAXX 21154 07761 12675 /2610 10290 20200 30111 40121 58004 60006 81280 91500=
07761,1996-08-21 18:00:00,27,1010.7,-1.4,66,20,20000,7.408,,,190,19.3,29.9,,,,,,,,,wg-a,,,,AAXX 21184 07761 12/70 41904 10270 20200 30097 40107 58014 60006 83082 91800 333 10299 20193=
07761,1996-08-21 21:00:00,25,1011.3,0.6,54,15,18000,11.112,,,60,,,,,,,,,,,wg-a,,,,AAXX 21214 07761 12/68 50606 10250 20150 30103 40113 50006 60006 85080 92100=
07761,1996-08-22 00:00:00,22,1010.9,-0.4,65,15,15000,7.408,,,50,,,,,,,,,,17,wg-a,,,,AAXX 22004 07761 12665 50504 10220 20150 30099 40109 55004 60006 71791 81980 90000=
07761,1996-08-22 03:00:00,18,1010.5,-0.5,83,15,9000,22.224,,79.636,60,,,,3,,,,,,17,wg-a,,,,AAXX 22034 07761 12559 70612 10180 20150 30094 40105 58005 60037 71799 8498/ 90300 333 91043=
07761,1996-08-22 06:00:00,18,1011.4,0.9,83,15,25000,11.112,,79.636,60,16.7,26.5,,,,,3,,,1,wg-a,,,,AAXX 22064 07761 12575 20606 10180 20150 30103 40114 53009 60034 70196 81542 90600 333 10265 20167 91043=
07761,1996-08-22 09:00:00,24,1012.6,1.3,69,18,50000,14.816,,,240,,,,0,,,,,,,wg-a,,,,AAXX 22094 07761 12684 32408 10240 20180 30116 40126 51013 60007 83202 90900=
07761,1996-08-22 12:00:00,26,1012.1,-0.5,61,18,11000,29.632,,,240,,,,,,,,,,,wg-a,,,,AAXX 22124 07761 12/61 /2416 10260 20180 30111 40121 56005 60006 91200=
07761,1996-08-22 15:00:00,25,1012.1,0,57,16,500,18.52,,,280,,,,,,,,,,,wg-a,,,,AAXX 22154 07761 12600 32810 10250 20160 30111 40121 50000 60006 83201 91500=
07761,1996-08-22 18:00:00,23,1011.8,-0.3,73,18,25000,7.408,,,340,17.7,26.6,,,,,,,,,wg-a,,,,AAXX 22184 07761 32675 23404 10230 20180 30108 40118 58003 82201 91800 333 10266 20177=
07761,1996-08-22 21:00:00,21,1013,1.2,88,19,10000,7.408,,,100,,,,3,,,,,,25,wg-a,,,,AAXX 22214 07761 12560 71004 10210 20190 30120 40130 51012 60037 72586 872// 92100=
07761,1996-08-23 00:00:00,20,1013.5,0.4,88,18,11000,11.112,,,40,,,,,,,,,,,wg-a,,,,AAXX 23004 07761 12/61 /0406 10200 20180 30124 40135 51004 60066 90000=
07761,1996-08-23 03:00:00,19,1012.9,-0.6,88,17,15000,3.704,,,30,,,,,,,,,,21,wg-a,,,,AAXX 23034 07761 02565 30302 10190 20170 30118 40129 57006 61000 72161 83200 90300 333 ////=
07761,1996-08-23 06:00:00,19,1013.1,0.2,88,17,20000,14.816,,,50,17.9,23.1,,,,,7,,,3,wg-a,,,,AAXX 23064 07761 12570 20508 10190 20170 30120 40131 53002 60074 70361 82200 90600 333 10231 20179=
07761,1996-08-23 09:00:00,26,1013.8,0.8,65,19,500,11.112,,,240,,,,,,,,,,,wg-a,,,,AAXX 23094 07761 12600 22406 10260 20190 30128 40138 53008 60006 82200 90900=
07761,1996-08-23 12:00:00,27,1013.5,-0.3,62,19,500,22.224,,,240,,,,,,,,,,,wg-a,,,,AAXX 23124 07761 12600 /2412 10270 20190 30125 40135 58003 60006 81230 91200=
07761,1996-08-23 15:00:00,26,1013.1,-0.4,54,16,500,25.928,,,230,,,,,,,,,,,wg-a,,,,AAXX 23154 07761 12600 /2314 10260 20160 30121 40131 57004 60006 81200 91500=
07761,1996-08-23 17:00:00,25,1013.2,,65,18,25000,7.408,,,320,12.8,27.3,,,,,,,,,wg-a,,,,AAXX 23174 07761 12675 /3204 10250 20180 30123 40132 60006 81400 91700 333 10273 20128=
07761,1996-08-23 18:00:00,25,1013.2,0.1,65,18,25000,7.408,,,320,18.8,27.3,,,,,,,,,wg-a,,,,AAXX 23184 07761 12675 /3204 10250 20180 30122 40132 53001 60006 81400 91800 333 10273 20188=
07761,1996-08-23 21:00:00,21,1014.3,1,73,16,20000,14.816,,,50,,,,,,,,,,,wg-a,,,,AAXX 23214 07761 12670 /0508 10210 20160 30132 40143 51010 60006 81100 92100=
07761,1996-08-24 00:00:00,19,1013.7,-0.6,78,15,15000,14.816,,,40,,,,,,,,,,,wg-a,,,,AAXX 24004 07761 12665 /0408 10190 20150 30126 40137 58006 60006 81100 90000=
07761,1996-08-24 03:00:00,18,1012.9,-0.8,77,14,15000,14.816,,,40,,,,,,,,,,,wg-a,,,,AAXX 24034 07761 12565 /0408 10180 20140 30118 40129 58008 60006 81100 90300=
07761,1996-08-24 06:00:00,19,1012.5,-0.4,73,14,25000,14.816,,,50,17.2,24.5,,,,,,,,,wg-a,,,,AAXX 24064 07761 02/75 00508 10190 20140 30114 40125 56004 60006 80000 90600 333 10245 20172 60004=
07761,1996-08-24 09:00:00,26,1013,0.6,61,18,20000,7.408,,,220,,,,,,,,,,,wg-a,,,,AAXX 24094 07761 12670 /2204 10260 20180 30120 40130 53006 60006 81100 90900=
07761,1996-08-24 12:00:00,27,1012.6,-0.4,70,21,20000,18.52,,,220,,,,,,,,,,,wg-a,,,,AAXX 24124 07761 12670 22210 10270 20210 30116 40126 58004 60006 82200 91200=
07761,1996-08-24 15:00:00,27,1012,-0.6,74,22,20000,18.52,,,220,,,,,,,,,,,wg-a,,,,AAXX 24154 07761 12570 32210 10270 20220 30110 40120 56006 60006 83300 91500=
07761,1996-08-24 18:00:00,24,1011.7,-0.3,83,21,20000,14.816,,,200,18.8,27.7,,,,,,,,,wg-a,,,,AAXX 24184 07761 12570 32008 10240 20210 30107 40117 55003 60006 82802 91800 333 10277 20188=
07761,1996-08-24 21:00:00,23,1012.7,1,78,19,20000,7.408,,,60,,,,,,,,,,,wg-a,,,,AAXX 24214 07761 12570 20604 10230 20190 30117 40127 51010 60006 82800 92100=
07761,1996-08-25 00:00:00,21,1012.7,0,83,18,15000,7.408,,,30,,,,,,,,,,,wg-a,,,,AAXX 25004 07761 12465 50304 10210 20180 30117 40127 50000 60006 85800 90000=
07761,1996-08-25 03:00:00,19,1012.5,-0.3,88,17,15000,7.408,,,40,,,,,,,,,,,wg-a,,,,AAXX 25034 07761 12465 /0404 10190 20170 30114 40125 58003 60006 81800 90300=
07761,1996-08-25 06:00:00,19,1013,0.5,88,17,15000,11.112,,,60,18.2,24.3,,,,,,,,,wg-a,,,,AAXX 25064 07761 02765 /0606 10190 20170 30119 40130 53005 60006 81101 90600 333 10243 20182 60004=
07761,1996-08-25 09:00:00,25,1014.3,1.4,69,19,500,14.816,,,230,,,,,,,,,,,wg-a,,,,AAXX 25094 07761 12600 /2308 10250 20190 30133 40143 51014 60006 82202 90900=
07761,1996-08-25 12:00:00,26,1014.5,0.2,65,19,35000,29.632,,,240,,,,,,,,,,,wg-a,,,,AAXX 25124 07761 12681 /2416 10260 20190 30135 40145 53002 60006 81200 91200=
07761,1996-08-25 15:00:00,27,1014.2,-0.3,39,12,500,14.816,,,300,,,,,,,,,,,wg-a,,,,AAXX 25154 07761 12600 43008 10270 20120 30132 40142 55003 60006 81102 91500=
07761,1996-08-25 18:00:00,23,1014.3,0.1,61,15,25000,11.112,,,310,19.4,27.5,,,,,,,,,wg-a,,,,AAXX 25184 07761 12/75 /3106 10230 20150 30133 40143 53001 60006 80002 91800 333 10275 20194=
07761,1996-08-25 21:00:00,19,1015.6,1.2,73,14,25000,11.112,,,50,,,,,,,,,,,wg-a,,,,AAXX 25214 07761 12/75 40506 10190 20140 30145 40156 51012 60006 80002 92100=
07761,1996-08-26 00:00:00,16,1015.6,-0,77,12,20000,14.816,,,50,,,,,,,,,,,wg-a,,,,AAXX 26004 07761 12670 /0508 10160 20120 30145 40156 54000 60006 81500 90000=
07761,1996-08-26 03:00:00,16,1015.2,-0.4,72,11,20000,14.816,,,30,,,,,,,,,,,wg-a,,,,AAXX 26034 07761 12/70 /0308 10160 20110 30141 40152 55004 60006 80000 90300=
07761,1996-08-26 06:00:00,16,1015.6,0.4,72,11,40000,14.816,,,50,14.4,22.9,,,,,,,,,wg-a,,,,AAXX 26064 07761 02582 30508 10160 20110 30145 40156 50004 60006 81102 90600 333 10229 20144 60004=
07761,1996-08-26 09:00:00,25,1016.6,1.1,47,13,40000,7.408,,,220,,,,,,,,,,,wg-a,,,,AAXX 26094 07761 12582 /2204 10250 20130 30156 40166 51011 60006 81102 90900=
07761,1996-08-26 12:00:00,27,1015.3,-1.3,54,17,40000,22.224,,,240,,,,,,,,,,,wg-a,,,,AAXX 26124 07761 12682 22412 10270 20170 30143 40153 56013 60006 81182 91200=
07761,1996-08-26 15:00:00,27,1015.3,-1.3,54,17,40000,22.224,,,240,,,,,,,,,,,wg-a,,,,AAXX 26154 07761 12682 22412 10270 20170 30143 40153 56013 60006 81182 91500=
07761,1996-08-26 18:00:00,24,1014.8,0.1,65,17,500,7.408,,,170,16.4,28,,,,,,,,,wg-a,,,,AAXX 26184 07761 12600 /1704 10240 20170 30138 40148 53001 60006 81102 91800 333 10280 20164=
07761,1996-08-26 21:00:00,20,1015.9,1,73,15,20000,7.408,,,50,,,,,,,,,,,wg-a,,,,AAXX 26214 07761 12/70 20504 10200 20150 30148 40159 51010 60006 80002 92100=
07761,1996-08-27 00:00:00,17,1015.6,-0.3,82,14,20000,11.112,,,40,,,,,,,,,,,wg-a,,,,AAXX 27004 07761 12/70 00406 10170 20140 30145 40156 58003 60006 80000 90000=
07761,1996-08-27 03:00:00,16,1014.5,-1.1,82,13,20000,11.112,,,50,,,,,,,,,,,wg-a,,,,AAXX 27034 07761 12/70 20506 10160 20130 30134 40145 58011 60006 80002 90300=
07761,1996-08-27 06:00:00,18,1014.8,0.3,68,12,50000,11.112,,,40,15.1,23.8,,,,,,,,,wg-a,,,,AAXX 27064 07761 02/84 10406 10180 20120 30137 40148 52003 60006 81082 90600 333 10238 20151 60004=
07761,1996-08-27 09:00:00,26,1014.1,-0.6,48,14,50000,7.408,,,240,,,,,,,,,,,wg-a,,,,AAXX 27094 07761 12784 22404 10260 20140 30131 40141 57006 60006 81232 90900=
07761,1996-08-27 12:00:00,29,1013.2,-0.9,52,18,50000,18.52,,,210,,,,,,,,,,,wg-a,,,,AAXX 27124 07761 12784 /2110 10290 20180 30122 40132 57009 60006 81242 91200=
07761,1996-08-27 15:00:00,29,1012.2,-1,52,18,40000,22.224,,,200,,,,,,,,,,,wg-a,,,,AAXX 27154 07761 12682 42012 10290 20180 30112 40122 56010 60006 81381 91500=
07761,1996-08-27 21:00:00,23,1012,0.4,69,17,20000,7.408,,,60,,,,,,,,,,,wg-a,,,,AAXX 27214 07761 12/70 70604 10230 20170 30110 40120 51004 60006 85082 92100=
07761,1996-08-28 00:00:00,23,1012.2,0.2,83,20,20000,7.408,,,360,,,,,,,,,,,wg-a,,,,AAXX 28004 07761 12770 73604 10230 20200 30112 40122 50002 60006 83588 90000=
07761,1996-08-28 03:00:00,22,1010.7,-1.5,78,18,20000,14.816,,,90,,,,,,,,,,,wg-a,,,,AAXX 28034 07761 12470 /0908 10220 20180 30097 40107 58015 60006 81881 90300=
07761,1996-08-28 06:00:00,23,1012.1,1.4,73,18,20000,11.112,,,310,21.1,25.6,,,,,,,,,wg-a,,,,AAXX 28064 07761 02570 /3106 10230 20180 30111 40121 53014 60006 81801 90600 333 10256 20211 60004=
07761,1996-08-28 09:00:00,25,1013.5,1.4,54,15,500,14.816,,,310,,,,,,,,,,,wg-a,,,,AAXX 28094 07761 12500 /3108 10250 20150 30125 40135 53014 60006 81200 90900=
07761,1996-08-28 12:00:00,26,1014.2,0.7,48,14,40000,29.632,,,260,,,,,,,,,,,wg-a,,,,AAXX 28124 07761 12682 /2616 10260 20140 30132 40142 53007 60006 81200 91200=
07761,1996-08-28 15:00:00,24,1014,-0.2,47,12,500,25.928,,,270,,,,,,,,,,,wg-a,,,,AAXX 28154 07761 12600 /2714 10240 20120 30130 40140 57002 60006 81100 91500=
07761,1996-08-28 18:00:00,22,1014.9,0.8,60,14,25000,14.816,,,280,21.6,26.9,,,,,,,,,wg-a,,,,AAXX 28184 07761 12675 /2808 10220 20140 30138 40149 52008 60006 81400 91800 333 10269 20216=
07761,1996-08-28 21:00:00,18,1016.1,1.2,73,13,25000,14.816,,,50,,,,,,,,,,,wg-a,,,,AAXX 28214 07761 12675 /0508 10180 20130 30150 40161 51012 60006 81200 92100=
07761,1996-08-29 00:00:00,17,1016.1,0,72,12,25000,14.816,,,50,,,,,,,,,,,wg-a,,,,AAXX 29004 07761 12675 /0508 10170 20120 30150 40161 50000 60006 81200 90000=
07761,1996-08-29 03:00:00,16,1015.3,-0.8,72,11,11000,11.112,,,50,,,,,,,,,,,wg-a,,,,AAXX 29034 07761 12/61 /0506 10160 20110 30142 40153 56008 60006 90300=
07761,1996-08-29 06:00:00,17,1015,-0.3,68,11,500,14.816,,,40,14.9,21.6,,,,,,,,,wg-a,,,,AAXX 29064 07761 02600 70408 10170 20110 30139 40150 56003 60006 81132 90600 333 10216 20149 60004=
07761,1996-08-29 09:00:00,24,1015.3,0.4,47,12,500,3.704,,,90,,,,,,,,,,,wg-a,,,,AAXX 29094 07761 12600 70902 10240 20120 30143 40153 53004 60006 82172 90900=
07761,1996-08-29 12:00:00,25,1015.2,-0.1,47,13,500,14.816,,,260,,,,,,,,,,,wg-a,,,,AAXX 29124 07761 12600 72608 10250 20130 30142 40152 55001 60006 81132 91200=
07761,1996-08-29 15:00:00,25,1014.7,-0.5,47,13,500,18.52,,,250,,,,,,,,,,,wg-a,,,,AAXX 29154 07761 12700 /2510 10250 20130 30137 40147 56005 60006 81132 91500=
07761,1996-08-29 18:00:00,21,1014.9,0.1,56,12,500,11.112,,,320,16.5,25.7,,,,,,,,,wg-a,,,,AAXX 29184 07761 12700 /3206 10210 20120 30138 40149 52001 60006 81572 91800 333 10257 20165=
07761,1996-08-29 21:00:00,17,1016.3,1.4,72,12,20000,14.816,,,50,,,,,,,,,,,wg-a,,,,AAXX 29214 07761 12770 30508 10170 20120 30152 40163 51014 60006 81572 92100=
07761,1996-08-30 00:00:00,16,1016.1,-0.2,72,11,20000,14.816,,,40,,,,,,,,,,,wg-a,,,,AAXX 30004 07761 12/70 /0408 10160 20110 30150 40161 58002 60006 82032 90000=
07761,1996-08-30 03:00:00,14,1015.4,-0.7,82,11,20000,14.816,,,50,,,,,,,,,,,wg-a,,,,AAXX 30034 07761 12/70 30508 10140 20110 30143 40154 58007 60006 81032 90300=
07761,1996-08-30 06:00:00,15,1015.8,0.4,72,10,20000,14.816,,,50,13.8,21.1,,,,,,,,,wg-a,,,,AAXX 30064 07761 02/70 /0508 10150 20100 30147 40158 53004 60006 81032 90600 333 10211 20138 60004=
07761,1996-08-30 09:00:00,24,1016,0.3,54,14,500,14.816,,,220,,,,,,,,,,,wg-a,,,,AAXX 30094 07761 12/00 32208 10240 20140 30150 40160 53003 60006 81082 90900=
07761,1996-08-30 12:00:00,25,1015.8,-0.2,57,16,500,22.224,,,230,,,,,,,,,,,wg-a,,,,AAXX 30124 07761 12700 /2312 10250 20160 30148 40158 57002 60006 81232 91200=
07761,1996-08-30 15:00:00,24,1015.5,-0.3,61,16,25000,22.224,,,240,,,,,,,,,,,wg-a,,,,AAXX 30154 07761 12675 32412 10240 20160 30145 40155 56003 60006 81332 91500=
07761,1996-08-30 18:00:00,22,1015.8,0.2,57,13,20000,3.704,,,330,15.2,25.5,,,,,,,,,wg-a,,,,AAXX 30184 07761 12/70 /3302 10220 20130 30147 40158 53002 60006 86072 91800 333 10255 20152=
07761,1996-08-30 21:00:00,19,1016.7,0.9,68,13,17000,11.112,,,340,,,,0,,,,,,21,wg-a,,,,AAXX 30214 07761 12667 /3406 10190 20130 30156 40167 50009 60007 72162 82770 92100=
07761,1996-08-31 00:00:00,17,1016,-0.7,82,14,15000,14.816,,,50,,,,,,,,,,13,wg-a,,,,AAXX 31004 07761 12665 /0508 10170 20140 30149 40160 57007 60006 71362 82970 90000=
07761,1996-08-31 03:00:00,16,1015.4,-0.6,82,13,15000,11.112,,,40,,,,,,,,,,13,wg-a,,,,AAXX 31034 07761 12565 30406 10160 20130 30143 40154 58006 60006 71311 81932 90300=
07761,1996-08-31 06:00:00,15,1015.3,-0.1,82,12,20000,11.112,,,40,13.8,21.8,,,,,,,,,wg-a,,,,AAXX 31064 07761 12670 30406 10150 20120 30142 40153 56001 60004 81932 90600 333 10218 20138=
07761,1996-08-31 09:00:00,24,1015.8,0.6,47,12,35000,3.704,,,220,,,,,,,,,,,wg-a,,,,AAXX 31094 07761 12681 32202 10240 20120 30148 40158 53006 60006 81102 90900=
07761,1996-08-31 12:00:00,25,1015,-0.8,50,14,500,25.928,,,230,,,,,,,,,,,wg-a,,,,AAXX 31124 07761 12600 22314 10250 20140 30140 40150 58008 60006 82202 91200=
07761,1996-08-31 15:00:00,25,1014.9,-0.1,41,11,25000,18.52,,,300,,,,,,,,,,,wg-a,,,,AAXX 31154 07761 12675 33010 10250 20110 30139 40149 55001 60006 83801 91500=
07761,1996-08-31 18:00:00,22,1015.1,0.2,69,16,25000,14.816,,,320,15.4,26.4,,,,,,,,,wg-a,,,,AAXX 31184 07761 12675 /3208 10220 20160 30141 40151 53002 60006 81800 91800 333 10264 20154=
07761,1996-08-31 21:00:00,19,1016.3,1.1,78,15,20000,14.816,,,60,,,,,,,,,,,wg-a,,,,AAXX 31214 07761 12/70 /0608 10190 20150 30152 40163 51011 60006 80000 92100=
07761,1996-09-01 00:00:00,16,1016.5,0.2,82,13,15000,7.408,,,50,,,,,,,,,,,wg-a,,,,AAXX 01004 07761 12/65 00504 10160 20130 30154 40165 51002 60006 80000 90000=
07761,1996-09-01 03:00:00,16,1016.3,-0.2,82,13,15000,7.408,,,30,,,,,,,,,,,wg-a,,,,AAXX 01034 07761 12/65 00304 10160 20130 30152 40163 55002 60006 80000 90300=
07761,1996-09-01 06:00:00,16,1016.9,0.6,82,13,20000,14.816,,,40,14.1,22.1,,,,,,,,,wg-a,,,,AAXX 01064 07761 02570 10408 10160 20130 30158 40169 53006 60006 81500 90600 333 10221 20141 60004=
07761,1996-09-01 09:00:00,24,1016.5,-0.3,65,17,500,7.408,,,230,,,,,,,,,,,wg-a,,,,AAXX 01094 07761 12500 /2304 10240 20170 30155 40165 57003 60006 81201 90900=
07761,1996-09-01 12:00:00,25,1015.7,-0.8,65,18,500,29.632,,,230,,,,,,,,,,,wg-a,,,,AAXX 01124 07761 12700 /2316 10250 20180 30147 40157 58008 60006 81201 91200=
07761,1996-09-01 15:00:00,23,1015.5,-0.2,69,17,20000,25.928,,,240,,,,,,,,,,,wg-a,,,,AAXX 01154 07761 12570 52414 10230 20170 30145 40155 57002 60006 81202 91500=
07761,1996-09-01 18:00:00,21,1014.5,-1.1,73,16,15000,18.52,,,220,15.8,25.2,,,,,,,,,wg-a,,,,AAXX 01184 07761 12565 /2210 10210 20160 30134 40145 56011 60006 81563 91800 333 10252 20158=
07761,1996-09-01 21:00:00,18,1015.3,0.8,83,15,15000,7.408,,,100,,,,,,,,,,,wg-a,,,,AAXX 01214 07761 12565 21004 10180 20150 30142 40153 50008 60006 82502 92100=
07761,1996-09-02 00:00:00,16,1014.6,-0.7,88,14,15000,7.408,,,60,,,,,,,,,,,wg-a,,,,AAXX 02004 07761 12565 /0604 10160 20140 30135 40146 58007 60006 81530 90000=
07761,1996-09-02 03:00:00,15,1013.2,-1.4,88,13,15000,14.816,,,50,,,,,,,,,,,wg-a,,,,AAXX 02034 07761 12665 /0508 10150 20130 30121 40132 57014 60006 81500 90300=
07761,1996-09-02 06:00:00,16,1012.1,-1.1,77,12,25000,11.112,,,30,14.5,21.2,,,,,,,,,wg-a,,,,AAXX 02064 07761 02675 20306 10160 20120 30110 40121 56011 60006 81801 90600 333 10212 20145 60004=
07761,1996-09-02 09:00:00,23,1011.5,-0.5,53,13,20000,11.112,,,260,,,,,,,,,,,wg-a,,,,AAXX 02094 07761 12670 42606 10230 20130 30105 40115 56005 60006 81231 90900=
07761,1996-09-02 12:00:00,25,1009.9,-1.6,57,16,25000,22.224,,,240,,,,,,,,,,,wg-a,,,,AAXX 02124 07761 12675 42412 10250 20160 30089 40099 56016 60006 82231 91200=
07761,1996-09-02 15:00:00,24,1009.6,-0.3,47,12,20000,7.408,,,230,,,,,,,,,,,wg-a,,,,AAXX 02154 07761 12670 62304 10240 20120 30086 40096 55003 60006 85901 91500=
07761,1996-09-02 18:00:00,20,1009.7,0.1,73,15,20000,7.408,,,30,15.5,25.2,,,,,,,,,wg-a,,,,AAXX 02184 07761 12670 /0304 10200 20150 30087 40097 53001 60006 81272 91800 333 10252 20155=
07761,1996-09-02 21:00:00,17,1011.2,1.4,82,14,15000,11.112,,,70,,,,,,,,,,,wg-a,,,,AAXX 02214 07761 12/65 10706 10170 20140 30101 40112 52014 60006 80002 92100=
07761,1996-09-03 00:00:00,16,1011.1,-0.1,82,13,15000,14.816,,,40,,,,,,,,,,,wg-a,,,,AAXX 03004 07761 12/65 30408 10160 20130 30100 40111 58001 60006 81032 90000=
07761,1996-09-03 03:00:00,15,1010.2,-0.9,88,13,15000,14.816,,,50,,,,,,,,,,,wg-a,,,,AAXX 03034 07761 12/65 /0508 10150 20130 30091 40102 56009 60006 81032 90300=
07761,1996-09-03 06:00:00,16,1010,-0.2,82,13,20000,11.112,,,50,14.5,20.4,,,,,,,,,wg-a,,,,AAXX 03064 07761 02770 70506 10160 20130 30089 40100 56002 60006 81234 90600 333 10204 20145 60004=
07761,1996-09-03 09:00:00,24,1009.9,0,54,14,20000,7.408,,,250,,,,,,,,,,,wg-a,,,,AAXX 03094 07761 12770 /2504 10240 20140 30089 40099 50000 60006 81234 90900=
07761,1996-09-03 12:00:00,24,1009.6,-0.3,65,17,25000,18.52,,,260,,,,,,,,,,,wg-a,,,,AAXX 03124 07761 12675 62610 10240 20170 30086 40096 58003 60006 82332 91200=
07761,1996-09-03 15:00:00,23,1010.5,0.9,65,16,20000,14.816,,,240,,,,,,,,,,17,wg-a,,,,AAXX 03154 07761 12570 72408 10230 20160 30095 40105 53009 60006 71792 84332 91500=
07761,1996-09-03 18:00:00,18,1010.4,-0.2,88,16,20000,11.112,,,20,15.6,24.8,,3,,,,,,1,wg-a,,,,AAXX 03184 07761 12570 40206 10180 20160 30093 40104 55002 60037 70198 81870 91800 333 10248 20156=
07761,1996-09-03 21:00:00,16,1011.3,0.9,94,15,15000,11.112,,,60,,,,,,,,,,,wg-a,,,,AAXX 03214 07761 12565 40606 10160 20150 30102 40113 51009 60006 82870 92100=
07761,1996-09-04 00:00:00,16,1011.1,-0.2,88,14,15000,7.408,,,50,,,,1,,,,,,17,wg-a,,,,AAXX 04004 07761 02465 30504 10160 20140 30100 40111 58002 60016 71798 82970 90000 333 60017=
07761,1996-09-04 03:00:00,15,1010.9,-0.2,94,14,9000,7.408,,,30,,,,,,,,,,17,wg-a,,,,AAXX 04034 07761 12459 70304 10150 20140 30098 40109 56002 60006 71791 83972 90300=
07761,1996-09-04 06:00:00,16,1011.2,0.3,82,13,20000,11.112,,,70,14.9,18.2,,1,,,4,,,3,wg-a,,,,AAXX 04064 07761 02570 50706 10160 20130 30101 40112 53003 60044 70396 83903 90600 333 10182 20149 60017=
07761,1996-09-04 09:00:00,21,1012,0.8,69,15,35000,14.816,,,250,,,,,,,,,,,wg-a,,,,AAXX 04094 07761 12581 32508 10210 20150 30109 40120 53008 60006 83202 90900=
07761,1996-09-04 12:00:00,24,1012.1,0.2,54,14,500,18.52,,,300,,,,,,,,,,,wg-a,,,,AAXX 04124 07761 12600 23010 10240 20140 30111 40121 51002 60006 82230 91200=
07761,1996-09-04 15:00:00,24,1012,-0.1,50,13,500,18.52,,,270,,,,,,,,,,,wg-a,,,,AAXX 04154 07761 12600 22710 10240 20130 30110 40120 55001 60006 82200 91500=
07761,1996-09-04 18:00:00,21,1012.2,0.2,69,15,15000,11.112,,,310,15.9,24.1,,,,,,,,,wg-a,,,,AAXX 04184 07761 12665 /3106 10210 20150 30112 40122 53002 60006 85400 91800 333 10241 20159=
07761,1996-09-04 21:00:00,18,1013.6,1.3,83,15,11000,14.816,,,50,,,,,,,,,,,wg-a,,,,AAXX 04214 07761 12/61 /0508 10180 20150 30125 40136 52013 60006 92100=
07761,1996-09-05 00:00:00,16,1014,0.4,88,14,15000,11.112,,,40,,,,,,,,,,,wg-a,,,,AAXX 05004 07761 12565 20406 10160 20140 30129 40140 51004 60006 82500 90000=
07761,1996-09-05 03:00:00,14,1013.5,-0.5,88,12,15000,11.112,,,60,,,,,,,,,,,wg-a,,,,AAXX 05034 07761 12565 30606 10140 20120 30124 40135 58005 60006 83500 90300=
07761,1996-09-05 06:00:00,15,1013.9,0.4,88,13,11000,14.816,,,50,14.3,21.2,,,,,,,,,wg-a,,,,AAXX 05064 07761 02/61 /0508 10150 20130 30128 40139 53004 60006 90600 333 10212 20143 60004=
07761,1996-09-05 09:00:00,23,1014.1,0.3,65,16,35000,14.816,,,220,,,,,,,,,,,wg-a,,,,AAXX 05094 07761 12681 /2208 10230 20160 30131 40141 53003 60006 81100 90900=
07761,1996-09-05 12:00:00,25,1013.4,-0.7,65,18,35000,18.52,,,210,,,,,,,,,,,wg-a,,,,AAXX 05124 07761 12681 /2110 10250 20180 30124 40134 58007 60006 81130 91200=
07761,1996-09-05 15:00:00,23,1012.2,-1.2,78,19,15000,3.704,,,260,,,,1,,,,,,25,wg-a,,,,AAXX 05154 07761 12565 42602 10230 20190 30112 40122 58012 60017 72586 84200 91500=
07761,1996-09-05 18:00:00,19,1011.5,-0.8,94,18,12000,11.112,,,70,15.2,25.4,,4,,,,,,25,wg-a,,,,AAXX 05184 07761 12562 60706 10190 20180 30104 40115 58008 60047 72586 86200 91800 333 10254 20152=
07761,1996-09-05 21:00:00,20,1012.2,0.7,83,17,9000,11.112,,,30,,,,6,,,,,,29,wg-a,,,,AAXX 05214 07761 12459 40306 10200 20170 30111 40122 51007 60067 72996 84900 92100=
07761,1996-09-06 00:00:00,18,1011.9,-0.3,88,16,15000,11.112,,,50,,,,,,,,,,1,wg-a,,,,AAXX 06004 07761 12565 20506 10180 20160 30108 40119 58003 60066 70196 82800 90000=
07761,1996-09-06 03:00:00,16,1010.9,-1,94,15,12000,7.408,,,40,,,,0,,,,,,,wg-a,,,,AAXX 06034 07761 12662 30404 10160 20150 30098 40109 56010 60007 81502 90300=
07761,1996-09-06 06:00:00,16,1010.6,-0.3,88,14,12000,14.816,,,40,15.3,20.5,,,,,11,,,,wg-a,,,,AAXX 06064 07761 12562 40408 10160 20140 30095 40106 55003 60114 84800 90600 333 10205 20153=
07761,1996-09-06 09:00:00,24,1010.6,0.1,69,18,15000,11.112,,,210,,,,,,,,,,,wg-a,,,,AAXX 06094 07761 12565 32106 10240 20180 30096 40106 53001 60006 83200 90900=
07761,1996-09-06 12:00:00,25,1010.3,-0.3,65,18,12000,22.224,,,230,,,,,,,,,,,wg-a,,,,AAXX 06124 07761 12562 /2312 10250 20180 30093 40103 58003 60006 81200 91200=
07761,1996-09-06 15:00:00,24,1010,-0.3,69,18,10000,18.52,,,230,,,,,,,,,,,wg-a,,,,AAXX 06154 07761 12560 22310 10240 20180 30090 40100 55003 60006 82200 91500=
07761,1996-09-06 18:00:00,21,1010.5,0.5,78,17,10000,11.112,,,220,16.2,24.9,,,,,,,,,wg-a,,,,AAXX 06184 07761 12660 22206 10210 20170 30095 40105 53005 60006 82400 91800 333 10249 20162=
07761,1996-09-06 21:00:00,18,1011.4,0.8,88,16,10000,7.408,,,80,,,,,,,,,,,wg-a,,,,AAXX 06214 07761 12660 20804 10180 20160 30103 40114 51008 60006 82400 92100=
07761,1996-09-07 00:00:00,18,1010.8,-0.6,83,15,10000,7.408,,,40,,,,,,,,,,,wg-a,,,,AAXX 07004 07761 12560 20404 10180 20150 30097 40108 57006 60006 82500 90000=
07761,1996-09-07 03:00:00,16,1008.6,-2.2,88,14,10000,11.112,,,40,,,,,,,,,,,wg-a,,,,AAXX 07034 07761 12660 /0406 10160 20140 30075 40086 57022 60006 81500 90300=
07761,1996-09-07 06:00:00,16,1008,-0.6,77,12,12000,14.816,,,40,14.7,21.3,,,,,,,,,wg-a,,,,AAXX 07064 07761 02662 /0408 10160 20120 30069 40080 56006 60006 81500 90600 333 10213 20147 60004=
07761,1996-09-07 09:00:00,23,1008.3,0.4,65,16,15000,7.408,,,250,,,,,,,,,,,wg-a,,,,AAXX 07094 07761 12665 /2504 10230 20160 30073 40083 52004 60006 81200 90900=
07761,1996-09-07 12:00:00,24,1008,-0.3,61,16,18000,18.52,,,220,,,,,,,,,,,wg-a,,,,AAXX 07124 07761 12668 /2210 10240 20160 30070 40080 57003 60006 81200 91200=
07761,1996-09-07 15:00:00,24,1008.6,0.6,69,18,12000,18.52,,,210,,,,,,,,,,,wg-a,,,,AAXX 07154 07761 12762 72110 10240 20180 30076 40086 53006 60006 8683/ 91500=
07761,1996-09-07 18:00:00,19,1011.4,2.7,83,16,15000,11.112,,,60,15.6,24.9,,,,,,,,21,wg-a,,,,AAXX 07184 07761 02765 20606 10190 20160 30103 40114 51027 61000 72161 82800 91800 333 10249 20156 ////=
07761,1996-09-07 21:00:00,19,1013.1,1.7,60,11,12000,11.112,,,70,,,,,,,,,,60,wg-a,,,,AAXX 07214 07761 02562 70706 10190 20110 30120 40131 51017 61000 76061 878// 92100 333 ////=
07761,1996-09-08 00:00:00,17,1013.6,0.5,52,7,15000,14.816,,,70,,,,,,,,,,1,wg-a,,,,AAXX 08004 07761 02565 /0708 10170 20070 30125 40136 51005 61000 70161 81800 90000 333 6100=
07761,1996-09-08 03:00:00,16,1013.8,0.2,59,8,18000,14.816,,,40,,,,,,,,,,,wg-a,,,,AAXX 08034 07761 12/68 /0408 10160 20080 30127 40138 50002 60006 81030 90300=
07761,1996-09-08 06:00:00,14,1013.7,-0.1,67,8,500,14.816,,,40,13.8,19.4,,,,,,,,,wg-a,,,,AAXX 08064 07761 02600 /0408 10140 20080 30126 40137 56001 61000 81102 90600 333 10194 20138 ////=
07761,1996-09-08 09:00:00,24,1013.9,0.3,44,11,500,7.408,,,240,,,,,,,,,,,wg-a,,,,AAXX 08094 07761 12600 22404 10240 20110 30129 40139 51003 60006 82102 90900=
07761,1996-09-08 10:00:00,21,1011.9,-0.2,49,10,25000,3.704,,,180,14.2,24.8,,,,,,,,,wg-a,,,,AAXX 08104 07761 12775 61802 10210 20100 30108 40119 56002 60006 82502 91000 333 10248 20142=
07761,1996-09-08 12:00:00,25,1012.8,-1.1,39,10,35000,25.928,,,240,,,,,,,,,,,wg-a,,,,AAXX 08124 07761 12781 32414 10250 20100 30118 40128 56011 60006 81102 91200=
07761,1996-09-08 15:00:00,24,1012,-0.8,41,10,25000,22.224,,,240,,,,,,,,,,,wg-a,,,,AAXX 08154 07761 12775 32412 10240 20100 30110 40120 56008 60006 81202 91500=
07761,1996-09-08 18:00:00,21,1011.9,-0.2,49,10,25000,3.704,,,80,14.2,24.8,,,,,,,,,wg-a,,,,AAXX 08184 07761 12775 /0802 10210 20100 30108 40119 56002 60006 82502 91800 333 10248 20142=
07761,1996-09-08 21:00:00,16,1012.5,0.6,72,11,20000,14.816,,,50,,,,,,,,,,,wg-a,,,,AAXX 08214 07761 12/70 /0508 10160 20110 30114 40125 50006 60006 80000 92100=
07761,1996-09-09 00:00:00,13,1012.7,0.2,77,9,20000,18.52,,,50,,,,,,,,,,,wg-a,,,,AAXX 09004 07761 12/70 00510 10130 20090 30116 40127 52002 60006 80000 90000=
07761,1996-09-09 03:00:00,12,1011.9,-0.8,71,7,20000,14.816,,,40,,,,,,,,,,,wg-a,,,,AAXX 09034 07761 12/70 20408 10120 20070 30108 40119 56008 60006 80001 90300=
07761,1996-09-09 06:00:00,13,1012,0.1,62,6,500,18.52,,,40,11,20.8,,,,,,,,,wg-a,,,,AAXX 09064 07761 02/00 30410 10130 20060 30109 40120 52001 60006 83031 90600 333 10208 20110 60004=
07761,1996-09-09 09:00:00,24,1012.4,0.5,31,6,50000,3.704,,,240,,,,,,,,,,,wg-a,,,,AAXX 09094 07761 12/84 52402 10240 20060 30114 40124 53005 60006 85031 90900=
07761,1996-09-09 12:00:00,25,1012.1,-0.3,36,9,50000,14.816,,,280,,,,,,,,,,,wg-a,,,,AAXX 09124 07761 12684 72808 10250 20090 30111 40121 56003 60006 8383/ 91200=
07761,1996-09-09 15:00:00,25,1011.7,-0.4,36,9,500,11.112,,,320,,,,,,,,,,,wg-a,,,,AAXX 09154 07761 12600 73206 10250 20090 30107 40117 58004 60006 8387/ 91500=
07761,1996-09-09 18:00:00,22,1012.3,0.6,46,10,20000,3.704,,,360,12.8,25.8,,,,,,,,,wg-a,,,,AAXX 09184 07761 12670 53602 10220 20100 30113 40123 53006 60006 82871 91800 333 10258 20128=
07761,1996-09-09 21:00:00,17,1013.8,1.4,63,10,15000,11.112,,,60,,,,,,,,,,,wg-a,,,,AAXX 09214 07761 12765 30606 10170 20100 30127 40138 51014 60006 81501 92100=
07761,1996-09-10 00:00:00,15,1014,0.2,63,8,15000,14.816,,,40,,,,,,,,,,,wg-a,,,,AAXX 10004 07761 12/65 30408 10150 20080 30129 40140 50002 60006 80001 90000=
07761,1996-09-10 03:00:00,14,1013.2,-0.8,67,8,15000,11.112,,,30,,,,,,,,,,,wg-a,,,,AAXX 10034 07761 12/65 30306 10140 20080 30121 40132 56008 60006 80001 90300=
07761,1996-09-10 06:00:00,14,1013.7,0.5,67,8,500,14.816,,,40,13.4,22.2,,,,,,,,,wg-a,,,,AAXX 10064 07761 02/00 20408 10140 20080 30126 40137 51005 60006 80001 90600 333 10222 20134 60004=
07761,1996-09-10 09:00:00,24,1014.5,0.9,44,11,40000,7.408,,,210,,,,,,,,,,,wg-a,,,,AAXX 10094 07761 12682 /2104 10240 20110 30135 40145 52009 60006 81202 90900=
07761,1996-09-10 12:00:00,24,1014.6,0.1,54,14,40000,22.224,,,240,,,,,,,,,,,wg-a,,,,AAXX 10124 07761 12782 32412 10240 20140 30136 40146 52001 60006 81202 91200=
07761,1996-09-10 15:00:00,25,1012.9,-1.7,44,12,500,11.112,,,300,,,,,,,,,,,wg-a,,,,AAXX 10154 07761 12600 /3006 10250 20120 30119 40129 58017 60006 81202 91500=
07761,1996-09-10 18:00:00,21,1013.1,0.2,64,14,25000,3.704,,,350,13.9,25.1,,,,,,,,,wg-a,,,,AAXX 10184 07761 12675 /3502 10210 20140 30121 40131 53002 60006 81802 91800 333 10251 20139=
07761,1996-09-10 21:00:00,18,1014.6,1.4,73,13,20000,14.816,,,40,,,,,,,,,,,wg-a,,,,AAXX 10214 07761 12/70 00408 10180 20130 30135 40146 50014 60006 80000 92100=
07761,1996-09-11 00:00:00,15,1014.4,-0.2,82,12,20000,11.112,,,40,,,,,,,,,,,wg-a,,,,AAXX 11004 07761 12/70 00406 10150 20120 30133 40144 56002 60006 80000 90000=
07761,1996-09-11 03:00:00,14,1013.6,-0.8,88,12,20000,11.112,,,30,,,,,,,,,,,wg-a,,,,AAXX 11034 07761 12/70 00306 10140 20120 30125 40136 58008 60006 80000 90300=
07761,1996-09-11 06:00:00,15,1012.8,-0.8,82,12,500,11.112,,,40,13.1,21.4,,,,,,,,,wg-a,,,,AAXX 11064 07761 02/00 /0406 10150 20120 30117 40128 58008 60006 81031 90600 333 10214 20131 60004=
07761,1996-09-11 09:00:00,24,1012,-0.7,54,14,50000,3.704,,,160,,,,,,,,,,,wg-a,,,,AAXX 11094 07761 12684 /1602 10240 20140 30110 40120 58007 60006 81131 90900=
07761,1996-09-11 11:00:00,27,1010.2,-1.8,51,16,50000,14.816,,,220,,,,,,,,,,,wg-a,,,,AAXX 11114 07761 12684 22208 10270 20160 30092 40102 58018 60006 81102 91100=
07761,1996-09-11 12:00:00,27,1010.2,-1.8,51,16,50000,14.816,,,220,,,,,,,,,,,wg-a,,,,AAXX 11124 07761 12684 22208 10270 20160 30092 40102 58018 60006 81102 91200=
07761,1996-09-11 15:00:00,25,1008.9,-1.3,54,15,500,7.408,,,220,,,,,,,,,,,wg-a,,,,AAXX 11154 07761 12600 72204 10250 20150 30079 40089 58013 60006 81807 91500=
07761,1996-09-11 18:00:00,23,1007.7,-1.2,69,17,500,7.408,,,180,14.5,27.1,,,,,,,,,wg-a,,,,AAXX 11184 07761 12700 81804 10230 20170 30067 40077 56012 60006 82507 91800 333 10271 20145=
07761,1996-09-11 21:00:00,21,1006.8,-0.9,64,14,20000,7.408,,,50,,,,,,,,,,,wg-a,,,,AAXX 11214 07761 12770 /0504 10210 20140 30058 40068 58009 60006 82537 92100=
07761,1996-09-12 00:00:00,20,1005.2,-1.6,73,15,15000,3.704,,,80,,,,,,,,,,13,wg-a,,,,AAXX 12004 07761 12665 70802 10200 20150 30042 40052 57016 60006 71322 82972 90000=
07761,1996-09-12 03:00:00,21,1001.9,-3.3,64,14,15000,3.704,,,360,,,,,,,,,,,wg-a,,,,AAXX 12034 07761 12665 63602 10210 20140 30009 40019 58033 60006 82232 90300=
07761,1996-09-12 06:00:00,20,1004.4,2.5,88,18,9000,11.112,,,360,19.2,23,,2,,,2,,,80,wg-a,,,,AAXX 12064 07761 02659 83606 10200 20180 30034 40044 53025 60024 78098 8497/ 90600 333 10230 20192 60027=
07761,1996-09-12 12:00:00,21,999.5,-1.6,88,19,3000,25.928,,,330,,,,20,,,,,,17,wg-a,,,,AAXX 12124 07761 02430 83314 10210 20190 39985 49995 56016 60206 71798 8597/ 91200 333 60207=
07761,1996-09-12 15:00:00,22,1000.3,0.8,73,17,20000,7.408,,61.116,120,,,,17,,,,,,3,wg-a,,,,AAXX 12154 07761 12570 71204 10220 20170 39993 40003 50008 60177 70398 879// 91500 333 91033=
07761,1996-09-12 18:00:00,21,999.7,-0.6,88,19,7000,18.52,,61.116,200,18.1,25.2,,2,,,,,,95,wg-a,,,,AAXX 12184 07761 12457 72010 10210 20190 39987 49997 58006 60027 79598 879// 91800 333 10252 20181 91033=
07761,1996-09-12 21:00:00,20,999.5,-0.2,83,17,10000,22.224,,,260,,,,33,,,,,,17,wg-a,,,,AAXX 12214 07761 12460 /2612 10200 20170 39985 49995 58002 60337 71796 85900 92100=
07761,1996-09-13 00:00:00,20,999.9,0.4,83,17,10000,22.224,,,270,,,,1,,,,,,25,wg-a,,,,AAXX 13004 07761 02460 72712 10200 20170 39989 49999 53004 60346 72598 879// 90000 333 60017=
07761,1996-09-13 03:00:00,16,1000.6,0.6,94,15,12000,7.408,,,50,,,,,,,,,,,wg-a,,,,AAXX 13034 07761 12562 30504 10160 20150 39995 40006 53006 60006 83800 90300=
07761,1996-09-13 06:00:00,15,1002.4,1.8,94,14,12000,7.408,,,50,14.7,20.4,,,,,55,,,,wg-a,,,,AAXX 13064 07761 12662 40504 10150 20140 30013 40024 53018 60554 84201 90600 333 10204 20147=
07761,1996-09-13 09:00:00,20,1004.2,1.9,60,12,15000,25.928,,,270,,,,,,,,,,,wg-a,,,,AAXX 13094 07761 12565 /2714 10200 20120 30032 40042 51019 60006 86800 90900=
07761,1996-09-13 12:00:00,21,1005.5,1.3,56,12,15000,35.188,,,270,,,,,,,,,,,wg-a,,,,AAXX 13124 07761 12665 52719 10210 20120 30045 40055 53013 60006 85800 91200=
07761,1996-09-13 15:00:00,21,1005.7,0.2,56,12,16000,31.484,,,260,,,,,,,,,,,wg-a,,,,AAXX 13154 07761 12666 42617 10210 20120 30047 40057 50002 60006 84800 91500=
07761,1996-09-13 18:00:00,19,1006.4,0.6,60,11,16000,14.816,,,290,,22.1,,,,,,,,,wg-a,,,,AAXX 13184 07761 12666 /2908 10190 20110 30053 40064 53006 60006 81480 91800 333 10221=
07761,1996-09-13 21:00:00,16,1008.2,1.8,72,11,16000,7.408,,,40,,,,,,,,,,,wg-a,,,,AAXX 13214 07761 12766 /0404 10160 20110 30071 40082 52018 60006 81500 92100=
07761,1996-09-14 03:00:00,12,1010.3,0.9,88,10,16000,14.816,,,50,,,,,,,,,,,wg-a,,,,AAXX 14034 07761 12/66 00508 10120 20100 30092 40103 52009 60006 80000 90300=
07761,1996-09-14 06:00:00,12,1012.2,1.9,82,9,20000,14.816,,,50,11.2,19,,,,,,,,,wg-a,,,,AAXX 14064 07761 02/70 00508 10120 20090 30111 40122 53019 60006 80000 90600 333 10190 20112 60004=
07761,1996-09-14 09:00:00,21,1013.9,1.7,53,11,500,3.704,,,270,,,,,,,,,,,wg-a,,,,AAXX 14094 07761 12600 /2702 10210 20110 30128 40139 53017 60006 81100 90900=
07761,1996-09-14 12:00:00,23,1014.4,0.6,65,16,500,25.928,,,240,,,,,,,,,,,wg-a,,,,AAXX 14124 07761 12600 22414 10230 20160 30134 40144 51006 60006 82200 91200=
07761,1996-09-14 15:00:00,21,1014.8,0.3,64,14,500,18.52,,,240,,,,,,,,,,,wg-a,,,,AAXX 14154 07761 12600 /2410 10210 20140 30137 40148 52003 60006 81100 91500=
07761,1996-09-14 18:00:00,19,1015.7,0.9,73,14,25000,25.928,,,210,12,22.9,,,,,,,,,wg-a,,,,AAXX 14184 07761 12575 52114 10190 20140 30146 40157 53009 60006 85500 91800 333 10229 20120=
07761,1996-09-14 21:00:00,17,1016.8,1.1,72,12,15000,14.816,,,160,,,,,,,,,,,wg-a,,,,AAXX 14214 07761 12665 /1608 10170 20120 30157 40168 51011 60006 86500 92100=
07761,1996-09-15 00:00:00,15,1017.3,0.5,72,10,15000,18.52,,,90,,,,,,,,,,,wg-a,,,,AAXX 15004 07761 12665 /0910 10150 20100 30162 40173 50005 60006 81500 90000=
07761,1996-09-15 03:00:00,13,1016.6,-0.7,82,10,15000,18.52,,,50,,,,,,,,,,,wg-a,,,,AAXX 15034 07761 12665 10510 10130 20100 30155 40166 57007 60006 81500 90300=
07761,1996-09-15 06:00:00,13,1017.1,0.5,72,8,25000,14.816,,,40,12.1,18.7,,,,,,,,,wg-a,,,,AAXX 15064 07761 02675 /0408 10130 20080 30160 40171 53005 60006 81800 90600 333 10187 20121 60004=
07761,1996-09-15 09:00:00,21,1017.6,0.5,56,12,40000,7.408,,,200,,,,,,,,,,,wg-a,,,,AAXX 15094 07761 12682 /2004 10210 20120 30165 40176 53005 60006 81100 90900=
07761,1996-09-15 12:00:00,22,1017.7,0.1,57,13,40000,22.224,,,240,,,,,,,,,,,wg-a,,,,AAXX 15124 07761 12682 /2412 10220 20130 30166 40177 53001 60006 81200 91200=
07761,1996-09-15 15:00:00,21,1017.3,-0.4,60,13,500,25.928,,,230,,,,,,,,,,,wg-a,,,,AAXX 15154 07761 12600 /2314 10210 20130 30162 40173 55004 60006 81100 91500=
07761,1996-09-15 18:00:00,19,1017.6,0.3,60,11,12000,3.704,,,210,12.8,22.6,,,,,,,,,wg-a,,,,AAXX 15184 07761 12662 /2102 10190 20110 30165 40176 52003 60006 81400 91800 333 10226 20128=
07761,1996-09-15 21:00:00,15,1018.2,0.6,77,11,12000,14.816,,,40,,,,,,,,,,,wg-a,,,,AAXX 15214 07761 12662 /0408 10150 20110 30171 40182 51006 60006 81400 92100=
07761,1996-09-16 00:00:00,12,1018,-0.2,82,9,12000,14.816,,,50,,,,,,,,,,,wg-a,,,,AAXX 16004 07761 12/62 00508 10120 20090 30169 40180 58002 60006 80000 90000=
07761,1996-09-16 03:00:00,11,1016.9,-1.1,82,8,15000,14.816,,,50,,,,,,,,,,,wg-a,,,,AAXX 16034 07761 12/65 00508 10110 20080 30158 40169 56011 60006 80000 90300=
07761,1996-09-16 06:00:00,11,1016.7,-0.2,82,8,25000,14.816,,,50,10.3,18.7,,,,,,,,,wg-a,,,,AAXX 16064 07761 02675 /0508 10110 20080 30156 40167 55002 60006 81500 90600 333 10187 20103 60004=
07761,1996-09-16 09:00:00,20,1016.7,-0,56,11,50000,3.704,,,270,,,,,,,,,,,wg-a,,,,AAXX 16094 07761 12684 /2702 10200 20110 30156 40167 55000 60006 81100 90900=
07761,1996-09-16 12:00:00,22,1016.6,-0.1,57,13,50000,14.816,,,240,,,,,,,,,,,wg-a,,,,AAXX 16124 07761 12684 /2408 10220 20130 30155 40166 58001 60006 81100 91200=
07761,1996-09-16 15:00:00,22,1015.8,-0.8,60,14,40000,14.816,,,240,,,,,,,,,,,wg-a,,,,AAXX 16154 07761 12682 /2408 10220 20140 30147 40158 58008 60006 81801 91500=
07761,1996-09-16 18:00:00,19,1015.4,-0.4,68,13,25000,3.704,,,340,11.1,22.2,,,,,,,,,wg-a,,,,AAXX 16184 07761 12675 /3402 10190 20130 30143 40154 58004 60006 81400 91800 333 10222 20111=
07761,1996-09-16 21:00:00,15,1015.7,0.3,88,13,25000,11.112,,,50,,,,,,,,,,,wg-a,,,,AAXX 16214 07761 12/75 00506 10150 20130 30146 40157 51003 60006 80000 92100=
07761,1996-09-17 00:00:00,13,1015.6,-0.1,88,11,25000,11.112,,,40,,,,,,,,,,,wg-a,,,,AAXX 17004 07761 12/75 00406 10130 20110 30145 40156 58001 60006 80000 90000=
07761,1996-09-17 03:00:00,12,1014.7,-0.9,88,10,25000,11.112,,,40,,,,,,,,,,,wg-a,,,,AAXX 17034 07761 12/75 00406 10120 20100 30136 40147 58009 60006 80000 90300=
07761,1996-09-17 06:00:00,12,1014.2,-0.5,88,10,25000,14.816,,,40,11.1,19.2,,,,,,,,,wg-a,,,,AAXX 17064 07761 02/75 50408 10120 20100 30131 40142 57005 60006 80002 90600 333 10192 20111 60004=
07761,1996-09-17 09:00:00,21,1013.3,-0.9,60,13,25000,7.408,,,270,,,,,,,,,,,wg-a,,,,AAXX 17094 07761 12675 72704 10210 20130 30122 40133 56009 60006 81102 90900=
07761,1996-09-17 12:00:00,23,1012.8,-0.4,57,14,25000,18.52,,,230,,,,,,,,,,,wg-a,,,,AAXX 17124 07761 12675 72310 10230 20140 30118 40128 57004 60006 81208 91200=
07761,1996-09-17 18:00:00,19,1010.6,-0.7,68,13,25000,3.704,,,170,12.2,23.2,,,,,,,,,wg-a,,,,AAXX 17184 07761 12675 71702 10190 20130 30095 40106 56007 60006 81178 91800 333 10232 20122=
07761,1996-09-18 00:00:00,15,1008.1,-1.7,82,12,15000,14.816,,,60,,,,,,,,,,,wg-a,,,,AAXX 18004 07761 12/65 70608 10150 20120 30070 40081 58017 60006 83072 90000=
07761,1996-09-18 03:00:00,16,1005.8,-2.3,82,13,10000,7.408,,,110,,,,,,,,,,61,wg-a,,,,AAXX 18034 07761 02/60 81104 10160 20130 30047 40058 56023 61000 76162 8707/ 90300 333 ////=
07761,1996-09-18 06:00:00,16,1004.5,-1.3,82,13,1000,11.112,,,30,14.8,19.3,,5,,,5,,,60,wg-a,,,,AAXX 18064 07761 02510 80306 10160 20130 30034 40045 58013 60054 76062 8357/ 90600 333 10193 20148 60057=
07761,1996-09-18 09:00:00,17,1004.5,-0,88,15,10000,3.704,,,350,,,,1,,,,,,61,wg-a,,,,AAXX 18094 07761 12660 83502 10170 20150 30034 40045 55000 60017 76166 8457/ 90900=
07761,1996-09-18 12:00:00,19,1003.3,-1.1,78,15,15000,7.408,,,220,,,,,,,,,,60,wg-a,,,,AAXX 18124 07761 02465 82204 10190 20150 30023 40033 56011 60016 76062 8357/ 91200 333 61000=
07761,1996-09-18 15:00:00,21,1002.1,-1.2,69,15,18000,11.112,,,220,,,,,,,,,,1,wg-a,,,,AAXX 18154 07761 02668 /2206 10210 20150 30011 40021 56012 61000 70162 82832 91500 333 ////=
07761,1996-09-19 06:00:00,15,1004.6,0.6,82,12,20000,11.112,,,40,14.2,19.6,,,,,1,,,,wg-a,,,,AAXX 19064 07761 02570 70406 10150 20120 30035 40046 53006 60006 81271 90600 333 10196 20142 60014=
07761,1996-09-19 09:00:00,21,1004.7,0.2,64,14,25000,7.408,,,250,,,,,,,,,,,wg-a,,,,AAXX 19094 07761 12675 /2504 10210 20140 30037 40047 51002 60006 81271 90900=
07761,1996-09-19 12:00:00,24,1004.4,-0.3,61,16,25000,25.928,,,240,,,,,,,,,,,wg-a,,,,AAXX 19124 07761 12675 62414 10240 20160 30034 40044 58003 60006 82232 91200=
07761,1996-09-19 15:00:00,23,1003,-1.4,69,17,25000,11.112,,,270,,,,,,,,,,21,wg-a,,,,AAXX 19154 07761 02675 72706 10230 20170 30020 40030 58014 61000 72162 8287/ 91500 333 ////=
07761,1996-09-19 18:00:00,18,1003.9,0.8,83,15,10000,18.52,,,140,15,24.3,,3,,,,,,80,wg-a,,,,AAXX 19184 07761 12460 81410 10180 20150 30028 40039 53008 60037 78096 879// 91800 333 10243 20150=
07761,1996-09-19 21:00:00,17,1005.3,1.4,88,15,10000,3.704,,,40,,,,2,,,,,,17,wg-a,,,,AAXX 19214 07761 12460 /0402 10170 20150 30042 40053 51014 60027 71799 85900 92100=
07761,1996-09-20 00:00:00,15,1005.4,0.1,94,14,15000,11.112,,,50,,,,,,,,,,1,wg-a,,,,AAXX 20004 07761 12465 /0506 10150 20140 30043 40054 51001 60026 70196 81200 90000=
07761,1996-09-20 03:00:00,15,1005.5,0.1,88,13,15000,11.112,,,50,,,,,,,,,,,wg-a,,,,AAXX 20034 07761 12465 50506 10150 20130 30044 40055 53001 60006 85800 90300=
07761,1996-09-20 06:00:00,14,1006,0.5,94,13,11000,11.112,,,50,13.9,18,,,,,5,,,,wg-a,,,,AAXX 20064 07761 12/61 /0506 10140 20130 30049 40060 53005 60054 90600 333 10180 20139=
07761,1996-09-20 09:00:00,21,1007.6,1.7,78,17,15000,7.408,,,220,,,,,,,,,,,wg-a,,,,AAXX 20094 07761 12565 62204 10210 20170 30066 40076 51017 60006 82832 90900=
07761,1996-09-20 12:00:00,22,1008.1,0.5,73,17,20000,18.52,,,230,,,,,,,,,,,wg-a,,,,AAXX 20124 07761 12570 72310 10220 20170 30071 40081 52005 60006 81802 91200=
07761,1996-09-20 15:00:00,21,1007.9,-0.2,69,15,20000,14.816,,,220,,,,,,,,,,,wg-a,,,,AAXX 20154 07761 12570 52208 10210 20150 30069 40079 58002 60006 81882 91500=
07761,1996-09-20 18:00:00,19,1008.2,0.2,83,16,15000,11.112,,,100,14.1,22.4,,,,,,,,,wg-a,,,,AAXX 20184 07761 12565 /1006 10190 20160 30071 40082 50002 60006 81882 91800 333 10224 20141=
07761,1996-09-20 21:00:00,18,1007.7,-0.5,77,14,15000,14.816,,,50,,,,,,,,,,,wg-a,,,,AAXX 20214 07761 12665 70508 10180 20140 30066 40077 58005 60006 8257/ 92100=
07761,1996-09-21 00:00:00,18,1005.8,-1.9,83,15,15000,7.408,,,100,,,,,,,,,,61,wg-a,,,,AAXX 21004 07761 02565 81004 10180 20150 30047 40058 56019 61000 76162 8357/ 90000 333 6100=
07761,1996-09-21 06:00:00,21,1003.5,0.3,88,19,9000,22.224,,61.116,210,17.6,20.9,,1,,,11,,,3,wg-a,,,,AAXX 21064 07761 02459 72112 10210 20190 30025 40035 53003 60114 70396 872// 90600 333 10209 20176 60017 91033=
07761,1996-09-21 09:00:00,22,1003.9,0.4,88,20,7000,31.484,,,210,,,,2,,,,,,1,wg-a,,,,AAXX 21094 07761 12457 62117 10220 20200 30029 40039 53004 60027 70186 84230 90900=
07761,1996-09-21 12:00:00,24,1003.1,-0.8,78,20,9000,35.188,,57.412,210,,,,,,,,,,1,wg-a,,,,AAXX 21124 07761 02459 /2119 10240 20200 30021 40031 57008 60026 70198 84900 91200 333 61000 91031=
07761,1996-09-21 15:00:00,23,1002.7,-0.4,83,20,9000,35.188,,,210,,,,,,,,,,,wg-a,,,,AAXX 21154 07761 12459 52119 10230 20200 30017 40027 57004 60006 83201 91500=
07761,1996-09-21 18:00:00,21,1002.6,-0.1,94,20,9000,25.928,,,220,20.5,24.1,,,,,,,,3,wg-a,,,,AAXX 21184 07761 02359 72214 10210 20200 30016 40026 58001 61000 70386 85801 91800 333 10241 20205 ////=
07761,1996-09-21 21:00:00,21,1002.7,0.1,94,20,9000,25.928,,,210,,,,1,,,,,,29,wg-a,,,,AAXX 21214 07761 12359 42114 10210 20200 30017 40027 50001 60017 72996 83901 92100=
07761,1996-09-22 00:00:00,19,1002.2,-0.5,88,17,9000,7.408,,,140,,,,,,,,,,,wg-a,,,,AAXX 22004 07761 12/59 /1404 10190 20170 30012 40022 58005 60016 90000=
07761,1996-09-22 03:00:00,19,1001,-1.2,88,17,9000,11.112,,,120,,,,,,,,,,17,wg-a,,,,AAXX 22034 07761 12359 61206 10190 20170 30000 40010 58012 60006 71791 84901 90300=
07761,1996-09-22 06:00:00,17,1001.9,0.8,94,16,15000,11.112,,,50,17.1,21.2,,5,,,7,,,3,wg-a,,,,AAXX 22064 07761 02565 70506 10170 20160 30008 40019 51008 60074 70396 8485/ 90600 333 10212 20171 60057=
07761,1996-09-22 09:00:00,22,1001.3,-0.5,73,17,20000,7.408,,,220,,,,,,,,,,,wg-a,,,,AAXX 22094 07761 12670 72204 10220 20170 30003 40013 58005 60006 83202 90900=
07761,1996-09-22 12:00:00,20,1001.9,0.6,78,16,8000,22.224,,,280,,,,7,,,,,,17,wg-a,,,,AAXX 22124 07761 02558 72812 10200 20160 30009 40019 53006 60076 71796 85902 91200 333 60077=
07761,1996-09-22 15:00:00,20,1002.2,0.3,68,14,20000,22.224,,,260,,,,,,,,,,3,wg-a,,,,AAXX 22154 07761 12570 72612 10200 20140 30012 40022 52003 60006 70392 84932 91500=
07761,1996-09-22 18:00:00,18,1002.1,-0.1,77,14,20000,7.408,,,270,17.2,23.5,,,,,,,,3,wg-a,,,,AAXX 22184 07761 32570 72704 10180 20140 30011 40021 56001 70392 83292 91800 333 10235 20172=
07761,1996-09-22 21:00:00,16,1001.1,-1.1,88,14,9000,7.408,,,160,,,,1,,,,,,25,wg-a,,,,AAXX 22214 07761 12459 71604 10160 20140 30000 40011 58011 60017 72586 85802 92100=
07761,1996-09-23 00:00:00,15,1000.7,-0.4,94,14,10000,0,,,0,,,,3,,,,,,21,wg-a,,,,AAXX 23004 07761 02460 70000 10150 20140 39996 40007 55004 60046 72186 878// 90000 333 60037=
07761,1996-09-23 03:00:00,14,1001.8,1.1,94,13,12000,14.816,,,50,,,,0,,,,,,25,wg-a,,,,AAXX 23034 07761 12562 50508 10140 20130 30007 40018 51011 60007 72586 85800 90300=
07761,1996-09-23 06:00:00,14,1002,0.2,94,13,15000,7.408,,,50,14.2,18.1,,1,,,12,,,21,wg-a,,,,AAXX 23064 07761 02465 70504 10140 20130 30009 40020 53002 60124 72186 878// 90600 333 10181 20142 60017=
07761,1996-09-23 09:00:00,17,1003.8,1.8,77,13,10000,29.632,,,260,,,,0,,,,,,3,wg-a,,,,AAXX 23094 07761 12560 72616 10170 20130 30027 40038 53018 60007 70362 87800 90900=
07761,1996-09-23 12:00:00,17,1005.3,1.5,63,10,10000,31.484,,,270,,,,,,,,,,1,wg-a,,,,AAXX 23124 07761 12560 72717 10170 20100 30042 40053 53015 60006 70162 878// 91200=
07761,1996-09-23 15:00:00,17,1005.5,0.2,63,10,10000,22.224,,,290,,,,,,,,,,,wg-a,,,,AAXX 23154 07761 12660 72912 10170 20100 30044 40055 53002 60006 878// 91500=
07761,1996-09-23 18:00:00,15,1006.7,1.2,82,12,10000,14.816,,,100,14.3,17.8,,0,,,,,,21,wg-a,,,,AAXX 23184 07761 12560 71008 10150 20120 30056 40067 53012 60007 72162 878// 91800 333 10178 20143=
07761,1996-09-23 21:00:00,14,1008,1.3,88,12,10000,11.112,,,60,,,,,,,,,,,wg-a,,,,AAXX 23214 07761 12560 70606 10140 20120 30069 40080 51013 60006 878// 92100=
07761,1996-09-24 00:00:00,15,1008.3,0.3,82,12,12000,7.408,,,70,,,,,,,,,,,wg-a,,,,AAXX 24004 07761 12562 70704 10150 20120 30072 40083 51003 60006 878// 90000=
07761,1996-09-24 03:00:00,15,1007.3,-1,77,11,12000,11.112,,,80,,,,,,,,,,,wg-a,,,,AAXX 24034 07761 12662 70806 10150 20110 30062 40073 56010 60006 878// 90300=
07761,1996-09-24 06:00:00,16,1008,0.7,72,11,12000,11.112,,,220,14.1,16.1,,,,,1,,,,wg-a,,,,AAXX 24064 07761 02562 /2206 10160 20110 30069 40080 53007 60006 86800 90600 333 10161 20141 60014=
07761,1996-09-24 09:00:00,19,1009.4,1.4,60,11,12000,18.52,,,240,,,,,,,,,,,wg-a,,,,AAXX 24094 07761 12662 52410 10190 20110 30083 40094 51014 60006 85800 90900=
07761,1996-09-24 12:00:00,20,1009.7,0.3,60,12,15000,22.224,,,230,,,,,,,,,,,wg-a,,,,AAXX 24124 07761 12665 32312 10200 20120 30086 40097 50003 60006 83200 91200=
07761,1996-09-24 15:00:00,19,1010.2,0.5,56,10,15000,25.928,,,270,,,,,,,,,,,wg-a,,,,AAXX 24154 07761 12665 42714 10190 20100 30091 40102 53005 60006 84200 91500=
07761,1996-09-24 18:00:00,17,1011.4,1.2,63,10,12000,7.408,,,330,15.6,20.1,,,,,,,,,wg-a,,,,AAXX 24184 07761 12662 53304 10170 20100 30103 40114 52012 60006 85800 91800 333 10201 20156=
07761,1996-09-24 21:00:00,14,1012.6,1.2,82,11,15000,14.816,,,50,,,,,,,,,,,wg-a,,,,AAXX 24214 07761 12665 30508 10140 20110 30115 40126 51012 60006 83500 92100=
07761,1996-09-25 00:00:00,14,1012.6,0,82,11,15000,11.112,,,40,,,,,,,,,,,wg-a,,,,AAXX 25004 07761 12565 50406 10140 20110 30115 40126 50000 60006 85800 90000=
07761,1996-09-25 03:00:00,13,1011.8,-0.8,88,11,15000,11.112,,,50,,,,,,,,,,,wg-a,,,,AAXX 25034 07761 12565 /0506 10130 20110 30107 40118 56008 60006 81100 90300=
07761,1996-09-25 06:00:00,12,1012.2,0.4,88,10,15000,14.816,,,40,12.3,17.2,,,,,,,,,wg-a,,,,AAXX 25064 07761 02565 40408 10120 20100 30111 40122 53004 60006 81131 90600 333 10172 20123 60004=
07761,1996-09-25 09:00:00,19,1013.2,1,64,12,20000,7.408,,,60,,,,,,,,,,,wg-a,,,,AAXX 25094 07761 12670 70604 10190 20120 30121 40132 51010 60006 81138 90900=
07761,1996-09-25 12:00:00,20,1012.8,-0.4,60,12,20000,7.408,,,220,,,,,,,,,,,wg-a,,,,AAXX 25124 07761 12/70 72204 10200 20120 30117 40128 58004 60006 83038 91200=
07761,1996-09-25 15:00:00,20,1012.1,-0.7,60,12,20000,0,,,0,,,,,,,,,,,wg-a,,,,AAXX 25154 07761 12870 80000 10200 20120 30110 40121 58007 60006 83037 91500=
07761,1996-09-25 18:00:00,16,1012.4,0.3,94,15,10000,11.112,,,30,12.4,20.7,,23,,,,,,61,wg-a,,,,AAXX 25184 07761 12560 80306 10160 20150 30113 40124 53003 60237 76196 8597/ 91800 333 10207 20124=
07761,1996-09-25 21:00:00,15,1013.3,0.9,94,14,15000,7.408,,,60,,,,0,,,,,,1,wg-a,,,,AAXX 25214 07761 12565 50604 10150 20140 30122 40133 51009 60007 70196 84830 92100=
07761,1996-09-26 00:00:00,14,1013.3,-0,94,13,15000,11.112,,,40,,,,,,,,,,2,wg-a,,,,AAXX 26004 07761 12665 /0406 10140 20130 30122 40133 55000 60006 70296 81230 90000=
07761,1996-09-26 03:00:00,13,1013,-0.3,94,12,15000,11.112,,,60,,,,0,,,,,,,wg-a,,,,AAXX 26034 07761 12665 20606 10130 20120 30119 40130 55003 60007 82530 90300=
07761,1996-09-26 06:00:00,12,1014,1,88,10,15000,14.816,,,70,11.6,15.9,,,,,23,,,,wg-a,,,,AAXX 26064 07761 12665 20708 10120 20100 30129 40140 53010 60234 81832 90600 333 10159 20116=
07761,1996-09-26 09:00:00,20,1014.7,0.7,68,14,18000,3.704,,,270,,,,,,,,,,,wg-a,,,,AAXX 26094 07761 12668 /2702 10200 20140 30136 40147 52007 60006 81202 90900=
07761,1996-09-26 12:00:00,21,1014.1,-0.6,69,15,20000,18.52,,,230,,,,,,,,,,,wg-a,,,,AAXX 26124 07761 12670 22310 10210 20150 30130 40141 58006 60006 82200 91200=
07761,1996-09-26 15:00:00,21,1013.7,-0.4,60,13,20000,7.408,,,210,,,,,,,,,,,wg-a,,,,AAXX 26154 07761 12570 42104 10210 20130 30126 40137 57004 60006 83802 91500=
07761,1996-09-26 18:00:00,18,1014.9,1.2,77,14,20000,7.408,,,90,11.7,21.4,,,,,,,,,wg-a,,,,AAXX 26184 07761 12570 /0904 10180 20140 30138 40149 53012 60006 81802 91800 333 10214 20117=
07761,1996-09-26 21:00:00,15,1017.1,2.2,88,13,20000,11.112,,,40,,,,,,,,,,,wg-a,,,,AAXX 26214 07761 12570 30406 10150 20130 30160 40171 51022 60006 83500 92100=
07761,1996-09-27 00:00:00,13,1018.2,1.1,94,12,20000,14.816,,,50,,,,,,,,,,,wg-a,,,,AAXX 27004 07761 12570 /0508 10130 20120 30171 40182 51011 60006 81500 90000=
07761,1996-09-27 03:00:00,12,1018.5,0.3,88,10,20000,14.816,,,50,,,,,,,,,,,wg-a,,,,AAXX 27034 07761 12570 /0508 10120 20100 30174 40185 51003 60006 81500 90300=
07761,1996-09-27 06:00:00,12,1019.2,0.7,88,10,25000,14.816,,,40,11,18.1,,,,,,,,,wg-a,,,,AAXX 27064 07761 02675 10408 10120 20100 30181 40192 53007 60006 81501 90600 333 10181 20110 60004=
07761,1996-09-27 09:00:00,20,1019.7,0.5,64,13,25000,7.408,,,260,,,,,,,,,,,wg-a,,,,AAXX 27094 07761 12675 /2604 10200 20130 30186 40197 51005 60006 81131 90900=
07761,1996-09-27 12:00:00,22,1019.3,-0.4,65,15,500,22.224,,,240,,,,,,,,,,,wg-a,,,,AAXX 27124 07761 12600 /2412 10220 20150 30182 40193 58004 60006 81101 91200=
07761,1996-09-27 15:00:00,22,1018.8,-0.5,50,11,18000,14.816,,,300,,,,,,,,,,,wg-a,,,,AAXX 27154 07761 12568 /3008 10220 20110 30177 40188 57005 60006 81201 91500=
07761,1996-09-27 18:00:00,19,1019.3,0.5,73,14,15000,11.112,,,270,11.8,21.8,,,,,,,,,wg-a,,,,AAXX 27184 07761 12565 /2706 10190 20140 30182 40193 53005 60006 81402 91800 333 10218 20118=
07761,1996-09-27 21:00:00,16,1019.5,0.2,82,13,15000,11.112,,,60,,,,,,,,,,,wg-a,,,,AAXX 27214 07761 12565 70606 10160 20130 30184 40195 50002 60006 875// 92100=
07761,1996-09-28 00:00:00,17,1018,-1.5,77,13,15000,14.816,,,60,,,,,,,,,,,wg-a,,,,AAXX 28004 07761 12565 70608 10170 20130 30169 40180 58015 60006 875// 90000=
07761,1996-09-28 03:00:00,14,1016.5,-1.5,88,12,15000,11.112,,,60,,,,,,,,,,,wg-a,,,,AAXX 28034 07761 12565 20606 10140 20120 30154 40165 55015 60006 82500 90300=
07761,1996-09-28 06:00:00,15,1017.1,0.6,88,13,15000,14.816,,,50,13.8,18.6,,,,,,,,,wg-a,,,,AAXX 28064 07761 02565 30508 10150 20130 30160 40171 53006 60006 82502 90600 333 10186 20138 60004=
07761,1996-09-28 12:00:00,22,1019.6,0.7,73,17,20000,18.52,,,220,,,,,,,,,,,wg-a,,,,AAXX 28124 07761 12570 /2210 10220 20170 30185 40196 51007 60006 81802 91200=
07761,1996-09-28 15:00:00,22,1020,0.4,78,18,20000,7.408,,,220,,,,,,,,,,,wg-a,,,,AAXX 28154 07761 12570 32204 10220 20180 30189 40200 52004 60006 83802 91500=
07761,1996-09-28 18:00:00,19,1021.3,1.3,88,17,20000,3.704,,,100,14.7,22.6,,,,,,,,,wg-a,,,,AAXX 28184 07761 12570 /1002 10190 20170 30202 40213 51013 60006 82802 91800 333 10226 20147=
07761,1996-09-28 21:00:00,16,1023.5,2.2,88,14,15000,11.112,,,40,,,,,,,,,,,wg-a,,,,AAXX 28214 07761 12665 30406 10160 20140 30224 40235 51022 60006 81502 92100=
07761,1996-09-29 00:00:00,15,1024,0.5,88,13,15000,11.112,,,40,,,,,,,,,,,wg-a,,,,AAXX 29004 07761 12/65 70406 10150 20130 30229 40240 53005 60006 80001 90000=
07761,1996-09-29 03:00:00,14,1024.3,0.3,88,12,15000,14.816,,,50,,,,,,,,,,,wg-a,,,,AAXX 29034 07761 12/65 70508 10140 20120 30232 40243 51003 60006 80002 90300=
07761,1996-09-29 06:00:00,14,1024.7,0.4,77,10,20000,14.816,,,40,12.7,19.3,,,,,,,,,wg-a,,,,AAXX 29064 07761 02/70 70408 10140 20100 30236 40247 53004 60006 80002 90600 333 10193 20127 60004=
07761,1996-09-29 09:00:00,20,1026.4,1.7,73,15,20000,3.704,,,270,,,,,,,,,,,wg-a,,,,AAXX 29094 07761 12570 /2702 10200 20150 30253 40264 50017 60006 81102 90900=
07761,1996-09-29 12:00:00,22,1026.1,-0.3,78,18,20000,18.52,,,230,,,,,,,,,,,wg-a,,,,AAXX 29124 07761 12570 /2310 10220 20180 30250 40261 55003 60006 81102 91200=
07761,1996-09-29 15:00:00,22,1025.1,-1,69,16,20000,11.112,,,200,,,,,,,,,,,wg-a,,,,AAXX 29154 07761 12670 32006 10220 20160 30240 40251 58010 60006 81202 91500=
07761,1996-09-29 18:00:00,19,1025.2,0.1,73,14,20000,7.408,,,70,13.6,22.5,,,,,,,,,wg-a,,,,AAXX 29184 07761 12/70 10704 10190 20140 30241 40252 53001 60006 80002 91800 333 10225 20136=
07761,1996-09-29 21:00:00,14,1025.5,0.3,88,12,20000,11.112,,,50,,,,,,,,,,,wg-a,,,,AAXX 29214 07761 12/70 00506 10140 20120 30244 40255 51003 60006 80000 92100=
07761,1996-09-30 00:00:00,14,1024.7,-0.8,88,12,20000,11.112,,,50,,,,,,,,,,,wg-a,,,,AAXX 30004 07761 12470 10506 10140 20120 30236 40247 56008 60006 81500 90000=
07761,1996-09-30 03:00:00,12,1023.6,-1.1,88,10,20000,11.112,,,40,,,,,,,,,,,wg-a,,,,AAXX 30034 07761 12/70 20406 10120 20100 30225 40236 58011 60006 81032 90300=
07761,1996-09-30 06:00:00,12,1023.6,-0,82,9,15000,14.816,,,50,11.6,18.6,,,,,,,,,wg-a,,,,AAXX 30064 07761 02465 60508 10120 20090 30225 40236 55000 60006 84632 90600 333 10186 20116 60004=
07761,1996-09-30 09:00:00,20,1023.8,0.2,73,15,15000,3.704,,,270,,,,,,,,,,,wg-a,,,,AAXX 30094 07761 12565 /2702 10200 20150 30227 40238 50002 60006 81100 90900=
07761,1996-09-30 12:00:00,22,1022.4,-1.4,69,16,15000,14.816,,,240,,,,,,,,,,,wg-a,,,,AAXX 30124 07761 12565 /2408 10220 20160 30213 40224 58014 60006 81100 91200=
07761,1996-09-30 15:00:00,21,1020.9,-1.5,73,16,15000,7.408,,,240,,,,,,,,,,,wg-a,,,,AAXX 30154 07761 12565 /2404 10210 20160 30198 40209 56015 60006 81100 91500=
07761,1996-09-30 18:00:00,18,1020.5,-0.4,83,15,15000,7.408,,,60,12.2,22,,,,,,,,,wg-a,,,,AAXX 30184 07761 12665 /0604 10180 20150 30194 40205 55004 60006 81530 91800 333 10220 20122=
07761,1996-09-30 21:00:00,15,1020.2,-0.3,94,14,15000,11.112,,,50,,,,,,,,,,,wg-a,,,,AAXX 30214 07761 12665 /0506 10150 20140 30191 40202 58003 60006 81530 92100=
07761,1996-10-01 00:00:00,14,1018.6,-1.6,88,12,15000,14.816,,,60,,,,,,,,,,,wg-a,,,,AAXX 01004 07761 12/65 00608 10140 20120 30175 40186 58016 60006 80000 90000=
07761,1996-10-01 03:00:00,13,1016.4,-2.2,88,11,15000,11.112,,,60,,,,,,,,,,,wg-a,,,,AAXX 01034 07761 12/65 00606 10130 20110 30153 40164 56022 60006 80000 90300=
07761,1996-10-01 06:00:00,12,1015.5,-0.9,94,11,15000,11.112,,,50,12.1,17.8,,,,,,,,,wg-a,,,,AAXX 01064 07761 02/65 10506 10120 20110 30144 40155 56009 60006 80001 90600 333 10178 20121 60004=
07761,1996-10-01 09:00:00,22,1015.6,0.1,57,13,40000,3.704,,,200,,,,,,,,,,,wg-a,,,,AAXX 01094 07761 12/82 12002 10220 20130 30145 40156 50001 60006 80001 90900=
07761,1996-10-01 12:00:00,25,1013.5,-2,44,12,50000,11.112,,,230,,,,,,,,,,,wg-a,,,,AAXX 01124 07761 12/84 02306 10250 20120 30125 40135 56020 60006 80000 91200=
07761,1996-10-01 15:00:00,23,1012.7,-0.8,65,16,50000,11.112,,,210,,,,,,,,,,14,wg-a,,,,AAXX 01154 07761 12/84 /2106 10230 20160 30117 40127 56008 60006 71400 81082 91500=
07761,1996-10-01 18:00:00,19,1012.7,-0.1,68,13,18000,11.112,,,60,12.5,24.7,,,,,,,,,wg-a,,,,AAXX 01184 07761 12/68 20606 10190 20130 30116 40127 56001 60006 81082 91800 333 10247 20125=
07761,1996-10-01 21:00:00,15,1013,0.3,67,9,18000,11.112,,,50,,,,,,,,,,,wg-a,,,,AAXX 01214 07761 12/68 00506 10150 20090 30119 40130 52003 60006 80000 92100=
07761,1996-10-02 00:00:00,13,1012.7,-0.3,72,8,18000,14.816,,,50,,,,,,,,,,,wg-a,,,,AAXX 02004 07761 12/68 60508 10130 20080 30116 40127 56003 60006 85031 90000=
07761,1996-10-02 03:00:00,16,1011.6,-1.1,63,9,18000,7.408,,,160,,,,,,,,,,,wg-a,,,,AAXX 02034 07761 12568 71604 10160 20090 30105 40116 56011 60006 8683/ 90300=
07761,1996-10-02 06:00:00,16,1011.7,0.1,88,14,18000,7.408,,,70,12.5,18.7,,,,,,,,1,wg-a,,,,AAXX 02064 07761 02468 70704 10160 20140 30106 40117 53001 61000 70162 83831 90600 333 10187 20125 6100=
07761,1996-10-02 09:00:00,19,1012.5,0.8,64,12,22000,14.816,,,270,,,,,,,,,,,wg-a,,,,AAXX 02094 07761 12672 62708 10190 20120 30114 40125 53008 60006 84802 90900=
07761,1996-10-02 12:00:00,20,1012.2,-0.3,53,10,500,29.632,,,280,,,,,,,,,,,wg-a,,,,AAXX 02124 07761 12600 32816 10200 20100 30111 40122 58003 60006 83200 91200=
07761,1996-10-02 15:00:00,19,1012.5,0.3,52,9,25000,25.928,,,280,,,,,,,,,,,wg-a,,,,AAXX 02154 07761 12675 32814 10190 20090 30114 40125 52003 60006 83202 91500=
07761,1996-10-02 18:00:00,16,1013.2,0.7,72,11,25000,7.408,,,100,15.8,20,,,,,,,,,wg-a,,,,AAXX 02184 07761 12675 31004 10160 20110 30121 40132 51007 60006 83200 91800 333 10200 20158=
07761,1996-10-02 21:00:00,15,1014,0.8,77,11,15000,11.112,,,60,,,,,,,,,,21,wg-a,,,,AAXX 02214 07761 02565 /0606 10150 20110 30129 40140 51008 61000 72161 85200 92100 333 ////=
07761,1996-10-03 00:00:00,14,1014.1,0.1,82,11,10000,11.112,,,60,,,,,,,,,,2,wg-a,,,,AAXX 03004 07761 02560 60606 10140 20110 30130 40141 51001 61000 70261 84202 90000 333 6100=
07761,1996-10-03 03:00:00,12,1014.1,-0,82,9,15000,14.816,,,50,,,,,,,,,,,wg-a,,,,AAXX 03034 07761 12565 /0508 10120 20090 30130 40141 55000 60006 83802 90300=
07761,1996-10-03 06:00:00,11,1015.1,1,87,9,15000,11.112,,,50,11.1,16.2,,,,,,,,,wg-a,,,,AAXX 03064 07761 02665 70506 10110 20090 30140 40151 53010 61000 81832 90600 333 10162 20111 ////=
07761,1996-10-03 09:00:00,20,1017.4,2.3,56,11,500,3.704,,,260,,,,,,,,,,,wg-a,,,,AAXX 03094 07761 12600 32602 10200 20110 30163 40174 51023 60006 81132 90900=
07761,1996-10-03 12:00:00,22,1017.3,-0.1,57,13,500,14.816,,,220,,,,,,,,,,,wg-a,,,,AAXX 03124 07761 12600 22208 10220 20130 30162 40173 56001 60006 82202 91200=
07761,1996-10-03 15:00:00,21,1017.3,-0,60,13,500,18.52,,,200,,,,,,,,,,,wg-a,,,,AAXX 03154 07761 12600 22010 10210 20130 30162 40173 55000 60006 81802 91500=
07761,1996-10-03 18:00:00,19,1018.1,0.8,68,13,20000,7.408,,,170,11.1,22.5,,,,,,,,,wg-a,,,,AAXX 03184 07761 12670 31704 10190 20130 30170 40181 53008 60006 81530 91800 333 10225 20111=
07761,1996-10-03 21:00:00,15,1019.6,1.5,72,10,15000,11.112,,,50,,,,,,,,,,,wg-a,,,,AAXX 03214 07761 12665 40506 10150 20100 30185 40196 51015 60006 81530 92100=
07761,1996-10-04 00:00:00,12,1019.5,-0.1,82,9,15000,11.112,,,50,,,,,,,,,,,wg-a,,,,AAXX 04004 07761 12/65 00506 10120 20090 30184 40195 58001 60006 80000 90000=
07761,1996-10-04 03:00:00,11,1017.4,-2.1,82,8,15000,14.816,,,40,,,,,,,,,,,wg-a,,,,AAXX 04034 07761 12/65 00408 10110 20080 30163 40174 58021 60006 80000 90300=
07761,1996-10-04 06:00:00,10,1017.3,-0.1,82,7,500,7.408,,,50,9.6,18.4,,,,,,,,,wg-a,,,,AAXX 04064 07761 02600 /0504 10100 20070 30162 40173 55001 60006 81201 90600 333 10184 20096 60004=
07761,1996-10-04 09:00:00,21,1016.9,-0.4,38,6,40000,3.704,,,210,,,,,,,,,,,wg-a,,,,AAXX 04094 07761 12782 /2102 10210 20060 30158 40169 58004 60006 81101 90900=
07761,1996-10-04 12:00:00,22,1014.9,-2,43,9,40000,14.816,,,230,,,,,,,,,,,wg-a,,,,AAXX 04124 07761 12782 22308 10220 20090 30138 40149 58020 60006 81131 91200=
07761,1996-10-04 15:00:00,21,1013.6,-1.3,49,10,500,14.816,,,210,,,,,,,,,,,wg-a,,,,AAXX 04154 07761 12700 42108 10210 20100 30125 40136 56013 60006 81201 91500=
07761,1996-10-04 17:00:00,16,1013.1,-0.5,68,10,20000,11.112,,,60,,,,,,,,,,,wg-a,,,,AAXX 04174 07761 12770 30606 10160 20100 30120 40131 55005 60006 81501 91700=
07761,1996-10-04 18:00:00,16,1013.1,-0.5,68,10,20000,11.112,,,60,9.6,21.8,,,,,,,,,wg-a,,,,AAXX 04184 07761 12770 30606 10160 20100 30120 40131 55005 60006 81501 91800 333 10218 20096=
07761,1996-10-04 21:00:00,14,1013.2,0.1,72,9,20000,11.112,,,50,,,,,,,,,,,wg-a,,,,AAXX 04214 07761 12/70 00506 10140 20090 30121 40132 50001 60006 80000 92100=
07761,1996-10-05 00:00:00,12,1011.7,-1.5,82,9,20000,14.816,,,50,,,,,,,,,,,wg-a,,,,AAXX 05004 07761 12/70 00508 10120 20090 30106 40117 58015 60006 80000 90000=
07761,1996-10-05 06:00:00,10,1009.8,-0.7,87,8,25000,11.112,,,40,10.2,16.2,,,,,,,,,wg-a,,,,AAXX 05064 07761 02/75 20406 10100 20080 30087 40098 56007 60006 80001 90600 333 10162 20102 60004=
07761,1996-10-05 09:00:00,20,1010,0.2,56,11,50000,7.408,,,220,,,,,,,,,,,wg-a,,,,AAXX 05094 07761 12784 42204 10200 20110 30089 40100 51002 60006 81132 90900=
07761,1996-10-05 12:00:00,22,1009.2,-0.7,43,9,40000,22.224,,,320,,,,,,,,,,,wg-a,,,,AAXX 05124 07761 12682 43212 10220 20090 30082 40092 58007 60006 81102 91200=
07761,1996-10-05 15:00:00,20,1008.7,-0.5,64,13,15000,14.816,,,320,,,,,,,,,,,wg-a,,,,AAXX 05154 07761 12565 73208 10200 20130 30077 40087 56005 60006 84202 91500=
07761,1996-10-05 18:00:00,17,1009.2,0.4,68,11,15000,7.408,,,290,10.3,21.9,,,,,,,,,wg-a,,,,AAXX 05184 07761 12565 /2904 10170 20110 30081 40092 53004 60006 83401 91800 333 10219 20103=
07761,1996-10-05 21:00:00,13,1009.4,0.2,88,11,15000,14.816,,,50,,,,,,,,,,,wg-a,,,,AAXX 05214 07761 12665 20508 10130 20110 30083 40094 50002 60006 82500 92100=
07761,1996-10-06 00:00:00,13,1008.2,-1.2,82,10,15000,18.52,,,60,,,,,,,,,,,wg-a,,,,AAXX 06004 07761 12665 30610 10130 20100 30071 40082 58012 60006 83500 90000=
07761,1996-10-06 03:00:00,11,1007.4,-0.8,82,8,15000,14.816,,,50,,,,,,,,,,,wg-a,,,,AAXX 06034 07761 12665 /0508 10110 20080 30063 40074 56008 60006 81500 90300=
07761,1996-10-06 06:00:00,10,1008.3,0.9,82,7,15000,11.112,,,50,9.3,16.5,,,,,,,,,wg-a,,,,AAXX 06064 07761 02665 20506 10100 20070 30072 40083 53009 60006 81530 90600 333 10165 20093 60004=
07761,1996-10-06 09:00:00,18,1009,0.7,56,9,500,7.408,,,290,,,,,,,,,,,wg-a,,,,AAXX 06094 07761 12/00 32904 10180 20090 30079 40090 52007 60006 83030 90900=
07761,1996-10-06 12:00:00,19,1008.9,-0.1,64,12,500,18.52,,,240,,,,,,,,,,,wg-a,,,,AAXX 06124 07761 12600 /2410 10190 20120 30078 40089 58001 60006 81130 91200=
07761,1996-10-06 15:00:00,19,1008,-0.9,68,13,25000,7.408,,,190,,,,,,,,,,,wg-a,,,,AAXX 06154 07761 12675 /1904 10190 20130 30069 40080 56009 60006 81151 91500=
07761,1996-10-06 18:00:00,17,1008.9,0.9,77,13,18000,0,,,0,9.8,20.5,,,,,,,,,wg-a,,,,AAXX 06184 07761 12668 70000 10170 20130 30078 40089 52009 60006 81572 91800 333 10205 20098=
07761,1996-10-06 21:00:00,18,1007.5,-1.4,56,9,15000,14.816,,,60,,,,,,,,,,13,wg-a,,,,AAXX 06214 07761 12665 /0608 10180 20090 30064 40075 58014 60006 71311 81900 92100=
07761,1996-10-07 00:00:00,18,1008.3,0.8,59,10,10000,18.52,,,100,,,,,,,,,,95,wg-a,,,,AAXX 07004 07761 02660 81010 10180 20100 30072 40083 53008 61000 79596 85932 90000 333 6100=
07761,1996-10-07 03:00:00,15,1006.3,-2,88,13,8000,14.816,,,70,,,,9,,,,,,17,wg-a,,,,AAXX 07034 07761 12658 80708 10150 20130 30052 40063 58020 60097 71799 8699/ 90300=
07761,1996-10-07 06:00:00,15,1007.5,1.2,82,12,25000,7.408,,,20,13.8,19,,,,,9,,,1,wg-a,,,,AAXX 07064 07761 12575 /0204 10150 20120 30064 40075 50012 60094 70198 83870 90600 333 10190 20138=
07761,1996-10-07 09:00:00,20,1008,0.5,53,10,500,14.816,,,90,,,,,,,,,,,wg-a,,,,AAXX 07094 07761 12600 60908 10200 20100 30069 40080 53005 60006 83850 90900=
07761,1996-10-07 12:00:00,16,1007.9,-0.1,88,14,10000,18.52,,,60,,,,1,,,,,,81,wg-a,,,,AAXX 07124 07761 02560 /0610 10160 20140 30068 40079 58001 60016 78198 85950 91200 333 60017=
07761,1996-10-07 15:00:00,15,1007.7,-0.2,82,12,12000,25.928,,,70,,,,2,,,,,,17,wg-a,,,,AAXX 07154 07761 12562 70714 10150 20120 30066 40077 56002 60027 71796 87970 91500=
07761,1996-10-07 18:00:00,14,1007.3,-0.4,77,10,15000,14.816,,,40,13.7,20,,2,,,,,,21,wg-a,,,,AAXX 07184 07761 12565 /0408 10140 20100 30062 40073 57004 60027 72196 83970 91800 333 10200 20137=
07761,1996-10-07 21:00:00,11,1007.2,-0.1,87,9,15000,7.408,,,50,,,,,,,,,,13,wg-a,,,,AAXX 07214 07761 12665 30504 10110 20090 30061 40072 56001 60006 71311 83900 92100=
07761,1996-10-08 00:00:00,12,1006.4,-0.8,94,11,12000,7.408,,,40,,,,1,,,,,,60,wg-a,,,,AAXX 08004 07761 02762 70404 10120 20110 30053 40064 56008 60016 76061 87500 90000 333 60017=
07761,1996-10-08 03:00:00,11,1005.2,-1.2,94,10,15000,11.112,,,60,,,,0,,,,,,13,wg-a,,,,AAXX 08034 07761 12665 /0606 10110 20100 30041 40052 58012 60007 71361 85900 90300=
07761,1996-10-08 06:00:00,11,1005.3,0.1,87,9,15000,11.112,,,80,9.9,13.7,,,,,5,,,1,wg-a,,,,AAXX 08064 07761 12665 /0806 10110 20090 30042 40053 53001 60054 70161 81132 90600 333 10137 20099=
07761,1996-10-08 09:00:00,17,1006.1,0.8,72,12,500,11.112,,,310,,,,,,,,,,,wg-a,,,,AAXX 08094 07761 12600 73106 10170 20120 30050 40061 53008 60006 81273 90900=
07761,1996-10-08 12:00:00,21,1005.3,-0.7,56,12,40000,14.816,,,200,,,,,,,,,,,wg-a,,,,AAXX 08124 07761 12682 /2008 10210 20120 30043 40053 58007 60006 82832 91200=
07761,1996-10-08 15:00:00,21,1005.4,0.1,60,13,40000,7.408,,,260,,,,,,,,,,,wg-a,,,,AAXX 08154 07761 12582 42604 10210 20130 30044 40054 53001 60006 81832 91500=
07761,1996-10-08 18:00:00,16,1007,1.5,82,13,25000,14.816,,,70,10.5,21.7,,,,,,,,,wg-a,,,,AAXX 08184 07761 12875 /0708 10160 20130 30059 40070 53015 60006 81030 91800 333 10217 20105=
07761,1996-10-08 21:00:00,13,1008,1,88,11,25000,11.112,,,60,,,,,,,,,,,wg-a,,,,AAXX 08214 07761 12/75 00606 10130 20110 30069 40080 51010 60006 80000 92100=
07761,1996-10-09 00:00:00,11,1008.7,0.7,94,10,25000,14.816,,,50,,,,,,,,,,13,wg-a,,,,AAXX 09004 07761 12675 20508 10110 20100 30076 40087 51007 60006 71300 81930 90000=
07761,1996-10-09 03:00:00,12,1008.2,-0.5,88,10,25000,11.112,,,50,,,,,,,,,,13,wg-a,,,,AAXX 09034 07761 12675 60506 10120 20100 30071 40082 56005 60006 71311 81932 90300=
07761,1996-10-09 06:00:00,11,1008.7,0.5,94,10,500,18.52,,,60,11.1,16.6,,,,,,,,,wg-a,,,,AAXX 09064 07761 02500 50610 10110 20100 30076 40087 52005 60006 81932 90600 333 10166 20111 60004=
07761,1996-10-09 09:00:00,20,1010.3,1.6,64,13,50000,3.704,,,200,,,,,,,,,,,wg-a,,,,AAXX 09094 07761 12584 22002 10200 20130 30092 40103 51016 60006 81232 90900=
07761,1996-10-09 12:00:00,21,1010.2,0,64,14,50000,11.112,,,250,,,,,,,,,,,wg-a,,,,AAXX 09124 07761 12684 /2506 10210 20140 30092 40102 50000 60006 81232 91200=
07761,1996-10-09 15:00:00,21,1010.3,0.1,69,15,20000,7.408,,,200,,,,,,,,,,,wg-a,,,,AAXX 09154 07761 12670 /2004 10210 20150 30093 40103 53001 60006 82232 91500=
07761,1996-10-09 18:00:00,18,1011.9,1.5,83,15,20000,3.704,,,40,11.5,21.5,,,,,,,,,wg-a,,,,AAXX 09184 07761 12670 20402 10180 20150 30108 40119 53015 60006 81401 91800 333 10215 20115=
07761,1996-10-09 21:00:00,15,1014,2.1,88,13,20000,7.408,,,50,,,,,,,,,,,wg-a,,,,AAXX 09214 07761 12470 /0504 10150 20130 30129 40140 51021 60006 83501 92100=
07761,1996-10-10 00:00:00,14,1014.4,0.4,88,12,20000,11.112,,,50,,,,,,,,,,,wg-a,,,,AAXX 10004 07761 12670 10506 10140 20120 30133 40144 51004 60006 81500 90000=
07761,1996-10-10 03:00:00,13,1014,-0.4,88,11,20000,14.816,,,50,,,,,,,,,,,wg-a,,,,AAXX 10034 07761 12/70 /0508 10130 20110 30129 40140 58004 60006 80000 90300=
07761,1996-10-10 06:00:00,12,1014.6,0.6,94,11,40000,11.112,,,50,11.2,17.7,,,,,,,,,wg-a,,,,AAXX 10064 07761 02582 /0506 10120 20110 30135 40146 53006 60006 81500 90600 333 10177 20112 60004=
07761,1996-10-10 09:00:00,20,1015.8,1.2,73,15,40000,3.704,,,230,,,,,,,,,,,wg-a,,,,AAXX 10094 07761 12582 /2302 10200 20150 30147 40158 51012 60006 81200 90900=
07761,1996-10-10 12:00:00,21,1015.3,-0.5,78,17,15000,18.52,,,240,,,,,,,,,,,wg-a,,,,AAXX 10124 07761 12565 22410 10210 20170 30142 40153 58005 60006 82300 91200=
07761,1996-10-10 15:00:00,20,1014.9,-0.4,73,15,10000,18.52,,,240,,,,,,,,,,,wg-a,,,,AAXX 10154 07761 12460 /2410 10200 20150 30138 40149 56004 60006 8345/ 91500=
07761,1996-10-10 18:00:00,18,1016.1,1.2,77,14,10000,18.52,,,210,11.9,21.1,,,,,,,,,wg-a,,,,AAXX 10184 07761 12460 72110 10180 20140 30150 40161 53012 60006 875// 91800 333 10211 20119=
07761,1996-10-10 21:00:00,18,1016.6,0.5,73,13,10000,3.704,,,180,,,,,,,,,,,wg-a,,,,AAXX 10214 07761 12460 81802 10180 20130 30155 40166 51005 60006 875// 92100=
07761,1996-10-11 00:00:00,16,1016.4,-0.2,88,14,10000,3.704,,,60,,,,,,,,,,,wg-a,,,,AAXX 11004 07761 12660 /0602 10160 20140 30153 40164 58002 60006 86500 90000=
07761,1996-10-11 03:00:00,16,1015.6,-0.8,88,14,10000,3.704,,,80,,,,,,,,,,,wg-a,,,,AAXX 11034 07761 12560 70802 10160 20140 30145 40156 57008 60006 875// 90300=
07761,1996-10-11 06:00:00,16,1015.8,0.2,88,14,9000,7.408,,,50,15.5,18,,,,,,,,,wg-a,,,,AAXX 11064 07761 02459 80504 10160 20140 30147 40158 53002 60006 8787/ 90600 333 10180 20155 60004=
07761,1996-10-11 09:00:00,18,1017,1.2,77,14,10000,3.704,,,70,,,,,,,,,,,wg-a,,,,AAXX 11094 07761 12460 /0702 10180 20140 30159 40170 51012 60006 82870 90900=
07761,1996-10-11 12:00:00,19,1016.5,-0.5,83,16,10000,14.816,,,220,,,,,,,,,,,wg-a,,,,AAXX 11124 07761 12560 72208 10190 20160 30154 40165 56005 60006 8483/ 91200=
07761,1996-10-11 15:00:00,18,1016.2,-0.3,88,16,15000,3.704,,,170,,,,,,,,,,80,wg-a,,,,AAXX 11154 07761 02465 71702 10180 20160 30151 40162 55003 61000 78086 8387/ 91500 333 ////=
07761,1996-10-11 18:00:00,14,1016.3,0.1,88,12,15000,14.816,,,70,14.3,21.2,,2,,,,,,25,wg-a,,,,AAXX 11184 07761 12565 30708 10140 20120 30152 40163 50001 60027 72586 81130 91800 333 10212 20143=
07761,1996-10-11 21:00:00,12,1017.7,1.4,94,11,15000,7.408,,,50,,,,,,,,,,,wg-a,,,,AAXX 11214 07761 12/65 40504 10120 20110 30166 40177 51014 60006 84030 92100=
07761,1996-10-12 00:00:00,11,1017.7,-0,94,10,15000,11.112,,,30,,,,,,,,,,,wg-a,,,,AAXX 12004 07761 12/65 40306 10110 20100 30166 40177 55000 60006 84030 90000=
07761,1996-10-12 03:00:00,10,1017.2,-0.5,93,9,15000,14.816,,,50,,,,,,,,,,,wg-a,,,,AAXX 12034 07761 12/65 /0508 10100 20090 30161 40172 57005 60006 81030 90300=
07761,1996-10-12 06:00:00,10,1017.3,0.1,93,9,25000,14.816,,,40,9.7,14.2,,,,,2,,,,wg-a,,,,AAXX 12064 07761 02775 /0408 10100 20090 30162 40173 52001 60006 81100 90600 333 10142 20097 60024=
07761,1996-10-12 09:00:00,19,1018.5,1.2,60,11,35000,3.704,,,40,,,,0,,,,,,,wg-a,,,,AAXX 12094 07761 12581 /0402 10190 20110 30174 40185 51012 60007 81100 90900=
07761,1996-10-12 12:00:00,21,1017.9,-0.6,64,14,500,11.112,,,230,,,,,,,,,,,wg-a,,,,AAXX 12124 07761 12600 /2306 10210 20140 30168 40179 58006 60006 81230 91200=
07761,1996-10-12 15:00:00,21,1017.2,-0.7,60,13,500,11.112,,,190,,,,,,,,,,,wg-a,,,,AAXX 12154 07761 12600 /1906 10210 20130 30161 40172 56007 60006 81230 91500=
07761,1996-10-12 21:00:00,13,1017.9,-0.1,88,11,20000,11.112,,,50,,,,,,,,,,,wg-a,,,,AAXX 12214 07761 12/70 00506 10130 20110 30168 40179 55001 60006 80000 92100=
07761,1996-10-13 00:00:00,12,1017.2,-0.7,88,10,20000,11.112,,,50,,,,,,,,,,,wg-a,,,,AAXX 13004 07761 12/70 00506 10120 20100 30161 40172 58007 60006 80000 90000=
07761,1996-10-13 03:00:00,11,1016.6,-0.6,87,9,15000,18.52,,,40,,,,,,,,,,,wg-a,,,,AAXX 13034 07761 12/65 40410 10110 20090 30155 40166 58006 60006 80001 90300=
07761,1996-10-13 06:00:00,12,1015.4,-1.2,82,9,23000,7.408,,,80,10.4,16.4,,,,,,,,,wg-a,,,,AAXX 13064 07761 02673 70804 10120 20090 30143 40154 56012 60006 81132 90600 333 10164 20104 60004=
07761,1996-10-13 09:00:00,20,1015,-0.4,60,12,25000,7.408,,,220,,,,,,,,,,,wg-a,,,,AAXX 13094 07761 12675 32204 10200 20120 30139 40150 58004 60006 81132 90900=
07761,1996-10-13 12:00:00,22,1013.4,-1.5,60,14,25000,7.408,,,250,,,,,,,,,,,wg-a,,,,AAXX 13124 07761 12675 72504 10220 20140 30124 40134 58015 60006 81182 91200=
07761,1996-10-13 15:00:00,21,1012.3,-1.2,64,14,25000,7.408,,,60,,,,,,,,,,60,wg-a,,,,AAXX 13154 07761 02675 70604 10210 20140 30112 40123 56012 61000 76062 82882 91500 333 ////=
07761,1996-10-13 18:00:00,19,1010.7,-1.6,64,12,15000,31.484,,,70,11.4,22.3,,0,,,,,,2,wg-a,,,,AAXX 13184 07761 12565 70717 10190 20120 30096 40107 57016 60007 70262 82882 91800 333 10223 20114=
07761,1996-10-13 21:00:00,18,1010.7,-0,68,12,10000,7.408,,,20,,,,0,,,,,,60,wg-a,,,,AAXX 13214 07761 12560 70204 10180 20120 30096 40107 55000 60007 76086 84832 92100=
07761,1996-10-14 00:00:00,15,1010,-0.7,88,13,12000,7.408,,,80,,,,0,,,,,,1,wg-a,,,,AAXX 14004 07761 02762 20804 10150 20130 30089 40100 58007 60016 70186 81501 90000 333 60007=
07761,1996-10-14 03:00:00,14,1009.9,-0.1,88,12,15000,7.408,,,150,,,,,,,,,,,wg-a,,,,AAXX 14034 07761 12765 /1504 10140 20120 30088 40099 58001 60006 81500 90300=
07761,1996-10-14 06:00:00,13,1011.4,1.5,94,12,25000,18.52,,,60,12.7,18.6,,,,,1,,,,wg-a,,,,AAXX 14064 07761 12675 40610 10130 20120 30103 40114 51015 60014 81832 90600 333 10186 20127=
07761,1996-10-14 09:00:00,20,1012,0.6,68,14,25000,3.704,,,40,,,,,,,,,,,wg-a,,,,AAXX 14094 07761 12775 50402 10200 20140 30109 40120 50006 60006 83532 90900=
07761,1996-10-14 12:00:00,23,1009.7,-2.2,65,16,25000,3.704,,,300,,,,,,,,,,,wg-a,,,,AAXX 14124 07761 12775 73002 10230 20160 30087 40097 58022 60006 81532 91200=
07761,1996-10-14 15:00:00,21,1007.6,-2.1,83,18,25000,7.408,,,170,,,,,,,,,,,wg-a,,,,AAXX 14154 07761 12775 71704 10210 20180 30066 40076 56021 60006 81532 91500=
07761,1996-10-14 18:00:00,19,1006.1,-1.5,78,15,25000,7.408,,,20,13.1,24.9,,,,,,,,,wg-a,,,,AAXX 14184 07761 12775 70204 10190 20150 30051 40061 58015 60006 81532 91800 333 10249 20131=
07761,1996-10-14 21:00:00,25,1005.4,-0.7,44,12,15000,14.816,,72.228,40,,,,,,,,,,,wg-a,,,,AAXX 14214 07761 12765 70408 10250 20120 30044 40054 56007 60006 8153/ 92100 333 91039=
07761,1996-10-15 00:00:00,22,1006,0.6,65,15,15000,18.52,,72.228,110,,,,,,,,,,60,wg-a,,,,AAXX 15004 07761 02765 81110 10220 20150 30050 40060 53006 61000 76062 8/57/ 90000 333 6100 91039=
07761,1996-10-15 03:00:00,23,1002.5,-3.5,57,14,15000,11.112,,,60,,,,,,,,,,2,wg-a,,,,AAXX 15034 07761 02765 70606 10230 20140 30015 40025 56035 61000 70261 81532 90300 333 ////=
07761,1996-10-15 06:00:00,23,1003,0.5,61,15,9000,14.816,,,160,19.1,25.7,,,,,,,,1,wg-a,,,,AAXX 15064 07761 02559 71608 10230 20150 30020 40030 53005 61000 70161 83852 90600 333 10257 20191 ////=
07761,1996-10-15 09:00:00,20,1004.8,1.8,88,18,7000,22.224,,,230,,,,,,,,,,,wg-a,,,,AAXX 15094 07761 12357 82312 10200 20180 30038 40048 51018 60006 8681/ 90900=
07761,1996-10-15 12:00:00,20,1003.1,-1.7,78,16,15000,3.704,,,260,,,,1,,,,,,1,wg-a,,,,AAXX 15124 07761 02465 82602 10200 20160 30021 40031 58017 60016 70162 8587/ 91200 333 60017=
07761,1996-10-15 15:00:00,18,1003.6,0.5,94,17,6000,11.112,,,210,,,,4,,,,,,80,wg-a,,,,AAXX 15154 07761 12456 82106 10180 20170 30026 40036 53005 60047 78098 8597/ 91500=
07761,1996-10-15 18:00:00,14,1004.3,0.6,94,13,6000,3.704,,,40,14.2,22.7,,30,,,,,,63,wg-a,,,,AAXX 15184 07761 12456 80402 10140 20130 30032 40043 51006 60307 76398 889// 91800 333 10227 20142=
07761,1996-10-15 21:00:00,14,1004.4,0.1,94,13,8000,7.408,,,120,,,,3,,,,,,60,wg-a,,,,AAXX 15214 07761 12458 81204 10140 20130 30033 40044 53001 60037 76066 888// 92100=
07761,1996-10-16 00:00:00,13,1003.2,-1.2,100,13,10000,7.408,,,80,,,,2,,,,,,21,wg-a,,,,AAXX 16004 07761 02460 50804 10130 20130 30021 40032 57012 60056 72162 82270 90000 333 60027=
07761,1996-10-16 03:00:00,13,1002.1,-1.1,94,12,10000,14.816,,,60,,,,,,,,,,,wg-a,,,,AAXX 16034 07761 12460 40608 10130 20120 30010 40021 58011 60006 8287/ 90300=
07761,1996-10-16 06:00:00,13,1001.4,-0.7,94,12,11000,11.112,,,50,12.1,14.3,,0,,,41,,,,wg-a,,,,AAXX 16064 07761 02/61 /0506 10130 20120 30003 40014 58007 60414 90600 333 10143 20121 60007=
07761,1996-10-16 09:00:00,14,1002.3,0.9,94,13,500,7.408,,,90,,,,7,,,,,,60,wg-a,,,,AAXX 16094 07761 12300 80904 10140 20130 30012 40023 51009 60077 76066 888// 90900=
07761,1996-10-16 12:00:00,15,1003.1,0.8,88,13,8000,7.408,,,330,,,,2,,,,,,20,wg-a,,,,AAXX 16124 07761 02358 83304 10150 20130 30020 40031 51008 60096 72065 878// 91200 333 60027=
07761,1996-10-16 15:00:00,14,1004,0.9,94,13,2500,11.112,,,270,,,,1,,,,,,51,wg-a,,,,AAXX 16154 07761 12525 82706 10140 20130 30029 40040 53009 60017 75152 878// 91500=
07761,1996-10-16 18:00:00,16,1005.4,1.4,72,11,8000,25.928,,,260,13,15.7,,1,,,,,,20,wg-a,,,,AAXX 16184 07761 12558 72614 10160 20110 30043 40054 51014 60017 72052 878// 91800 333 10157 20130=
07761,1996-10-16 21:00:00,15,1006.3,0.9,77,11,12000,31.484,,,240,,,,0,,,,,,21,wg-a,,,,AAXX 16214 07761 12562 72417 10150 20110 30052 40063 51009 60007 72162 878// 92100=
07761,1996-10-17 00:00:00,16,1006.2,-0.1,68,10,12000,18.52,,,230,,,,,,,,,,60,wg-a,,,,AAXX 17004 07761 02462 82310 10160 20100 30051 40062 58001 60006 76062 878// 90000 333 61000=
07761,1996-10-17 03:00:00,13,1006.8,0.6,94,12,10000,11.112,,,50,,,,1,,,,,,60,wg-a,,,,AAXX 17034 07761 12460 80506 10130 20120 30057 40068 53006 60017 76062 878// 90300=
07761,1996-10-17 06:00:00,13,1008.5,1.7,94,12,11000,7.408,,,20,12.4,15.9,,0,,,12,,,,wg-a,,,,AAXX 17064 07761 02/61 /0204 10130 20120 30074 40085 53017 60124 90600 333 10159 20124 60007=
07761,1996-10-17 12:00:00,18,1010.9,0.2,59,10,0,29.632,,,270,,,,,,,,,,,wg-a,,,,AAXX 17124 07761 02/// /2716 10180 20100 30098 40109 50002 61000 91200 333 ////=
07761,1996-10-17 18:00:00,16,1011.8,1.2,72,11,0,14.816,,,260,12.5,18.5,,,,,,,,,wg-a,,,,AAXX 17184 07761 32/// /2608 10160 20110 30107 40118 53012 91800 333 10185 20125=
07761,1996-10-17 21:00:00,15,1012.5,0.7,77,11,15000,3.704,,,80,,,,,,,,,,1,wg-a,,,,AAXX 17214 07761 12665 40802 10150 20110 30114 40125 53007 60006 70161 84100 92100=
07761,1996-10-18 00:00:00,17,1012.3,-0.2,72,12,15000,22.224,,,290,,,,,,,,,,,wg-a,,,,AAXX 18004 07761 12565 62912 10170 20120 30112 40123 58002 60006 868/0 90000=
07761,1996-10-18 03:00:00,14,1012.3,0,88,12,15000,7.408,,,50,,,,,,,,,,2,wg-a,,,,AAXX 18034 07761 02565 40504 10140 20120 30112 40123 50000 61000 70286 84800 90300 333 ////=
07761,1996-10-18 06:00:00,11,1012.9,0.6,94,10,20000,11.112,,,60,11.1,17.3,,,,,,,,3,wg-a,,,,AAXX 18064 07761 02570 40606 10110 20100 30118 40129 53006 61000 70386 84200 90600 333 10173 20111 ////=
07761,1996-10-18 09:00:00,17,1014.6,1.7,59,9,500,18.52,,,270,,,,,,,,,,,wg-a,,,,AAXX 18094 07761 12600 32710 10170 20090 30135 40146 51017 60006 83200 90900=
07761,1996-10-18 12:00:00,18,1015.3,0.7,52,8,40000,14.816,,,320,,,,,,,,,,,wg-a,,,,AAXX 18124 07761 12682 33208 10180 20080 30142 40153 51007 60006 83200 91200=
07761,1996-10-18 15:00:00,17,1015.8,0.5,55,8,40000,7.408,,,320,,,,,,,,,,,wg-a,,,,AAXX 18154 07761 12682 23204 10170 20080 30147 40158 52005 60006 82100 91500=
07761,1996-10-18 18:00:00,12,1017.4,1.6,82,9,20000,14.816,,,50,11.1,18.7,,,,,,,,,wg-a,,,,AAXX 18184 07761 12570 /0508 10120 20090 30163 40174 53016 60006 81400 91800 333 10187 20111=
07761,1996-10-18 21:00:00,10,1018.6,1.2,82,7,20000,14.816,,,50,,,,,,,,,,,wg-a,,,,AAXX 18214 07761 12670 /0508 10100 20070 30175 40186 51012 60006 81500 92100=
07761,1996-10-19 00:00:00,9,1019.5,0.9,81,6,20000,14.816,,,60,,,,,,,,,,,wg-a,,,,AAXX 19004 07761 12/70 20608 10090 20060 30184 40195 50009 60006 82502 90000=
07761,1996-10-19 03:00:00,11,1018.3,-1.2,76,7,20000,11.112,,,40,,,,,,,,,,,wg-a,,,,AAXX 19034 07761 12570 /0406 10110 20070 30172 40183 58012 60006 84502 90300=
07761,1996-10-19 06:00:00,12,1018.4,0.1,82,9,20000,11.112,,,60,8.5,12.1,,,,,,,,,wg-a,,,,AAXX 19064 07761 02570 60606 10120 20090 30173 40184 51001 60006 85802 90600 333 10121 20085 60004=
07761,1996-10-19 09:00:00,18,1019.3,0.9,68,12,20000,3.704,,,190,,,,,,,,,,3,wg-a,,,,AAXX 19094 07761 02570 61902 10180 20120 30182 40193 51009 61000 70362 85202 90900 333 ////=
07761,1996-10-19 12:00:00,19,1018.8,-0.5,60,11,20000,7.408,,,290,,,,,,,,,,3,wg-a,,,,AAXX 19124 07761 02570 72904 10190 20110 30177 40188 58005 61000 70362 81822 91200 333 ////=
07761,1996-10-19 15:00:00,18,1018.4,-0.4,68,12,12000,14.816,,,280,,,,,,,,,,,wg-a,,,,AAXX 19154 07761 12662 62808 10180 20120 30173 40184 56004 60006 83432 91500=
07761,1996-10-19 18:00:00,16,1019.1,0.7,77,12,12000,11.112,,,60,11.5,20.8,,,,,,,,,wg-a,,,,AAXX 19184 07761 32562 80606 10160 20120 30180 40191 53007 875// 91800 333 10208 20115=
07761,1996-10-19 21:00:00,12,1019.5,0.4,88,10,15000,14.816,,,40,,,,,,,,,,,wg-a,,,,AAXX 19214 07761 12/65 00408 10120 20100 30184 40195 53004 60006 80000 92100=
07761,1996-10-20 00:00:00,11,1020.3,0.8,82,8,15000,11.112,,,30,,,,,,,,,,,wg-a,,,,AAXX 20004 07761 12/65 00306 10110 20080 30192 40203 53008 60006 80000 90000=
07761,1996-10-20 06:00:00,9,1021.7,1.1,87,7,500,14.816,,,50,8.9,15.8,,,,,,,,,wg-a,,,,AAXX 20064 07761 02600 10508 10090 20070 30206 40217 53011 60006 81501 90600 333 10158 20089 61000=
07761,1996-10-20 12:00:00,20,1022.5,-0.4,68,14,45000,11.112,,,230,,,,,,,,,,,wg-a,,,,AAXX 20124 07761 12683 /2306 10200 20140 30214 40225 58004 60006 81101 91200=
07761,1996-10-20 15:00:00,19,1022.7,0.2,73,14,500,7.408,,,200,,,,,,,,,,,wg-a,,,,AAXX 20154 07761 12500 32004 10190 20140 30216 40227 53002 60006 81201 91500=
07761,1996-10-20 18:00:00,15,1023.4,0.7,88,13,20000,11.112,,,60,9.4,20.3,,,,,,,,,wg-a,,,,AAXX 20184 07761 12570 20606 10150 20130 30223 40234 53007 60006 81501 91800 333 10203 20094=
07761,1996-10-20 21:00:00,12,1023.6,0.2,88,10,20000,11.112,,,40,,,,,,,,,,,wg-a,,,,AAXX 20214 07761 12/70 30406 10120 20100 30225 40236 50002 60006 80001 92100=
07761,1996-10-21 00:00:00,11,1022.9,-0.7,87,9,20000,11.112,,,50,,,,,,,,,,,wg-a,,,,AAXX 21004 07761 12/70 10506 10110 20090 30218 40229 58007 60006 80001 90000=
07761,1996-10-21 03:00:00,10,1020.9,-2,87,8,20000,14.816,,,60,,,,,,,,,,,wg-a,,,,AAXX 21034 07761 12470 /0608 10100 20080 30198 40209 58020 60006 81500 90300=
07761,1996-10-21 06:00:00,10,1019.9,-1,82,7,20000,18.52,,,50,8.8,14.5,,,,,,,,,wg-a,,,,AAXX 21064 07761 02570 50510 10100 20070 30188 40199 58010 60006 83541 90600 333 10145 20088 60004=
07761,1996-10-21 09:00:00,17,1018.3,-1.6,68,11,500,11.112,,,50,,,,,,,,,,,wg-a,,,,AAXX 21094 07761 12500 70506 10170 20110 30172 40183 58016 60006 81172 90900=
07761,1996-10-21 15:00:00,20,1015.7,-0.8,73,15,25000,7.408,,,220,,,,,,,,,,,wg-a,,,,AAXX 21154 07761 12675 32204 10200 20150 30146 40157 55008 60006 81432 91500=
07761,1996-10-21 18:00:00,15,1015.8,0.1,88,13,20000,7.408,,,60,9.5,20.8,,,,,,,,,wg-a,,,,AAXX 21184 07761 12/70 20604 10150 20130 30147 40158 53001 60006 80002 91800 333 10208 20095=
07761,1996-10-21 21:00:00,13,1015.8,-0,94,12,20000,11.112,,,40,,,,,,,,,,,wg-a,,,,AAXX 21214 07761 12/70 50406 10130 20120 30147 40158 54000 60006 80005 92100=
07761,1996-10-22 00:00:00,11,1015.2,-0.6,94,10,10000,7.408,,,60,,,,,,,,,,,wg-a,,,,AAXX 22004 07761 12/60 /0604 10110 20100 30141 40152 56006 60006 90000=
07761,1996-10-22 03:00:00,10,1015.3,0.1,93,9,20000,14.816,,,60,,,,,,,,,,,wg-a,,,,AAXX 22034 07761 12/70 00608 10100 20090 30142 40153 53001 60006 80000 90300=
07761,1996-10-22 06:00:00,10,1016,0.7,87,8,20000,11.112,,,60,9.5,15.1,,,,,,,,,wg-a,,,,AAXX 22064 07761 02570 /0606 10100 20080 30149 40160 53007 60006 81500 90600 333 10151 20095 60004=
07761,1996-10-22 09:00:00,19,1017,1,68,13,35000,3.704,,,50,,,,0,,,,,,,wg-a,,,,AAXX 22094 07761 12681 /0502 10190 20130 30159 40170 50010 60007 81101 90900=
07761,1996-10-22 12:00:00,20,1016.8,-0.2,78,16,35000,18.52,,,240,,,,,,,,,,,wg-a,,,,AAXX 22124 07761 12681 /2410 10200 20160 30157 40168 58002 60006 81102 91200=
07761,1996-10-22 15:00:00,19,1016.6,-0.2,83,16,15000,7.408,,,240,,,,,,,,,,,wg-a,,,,AAXX 22154 07761 12565 72404 10190 20160 30155 40166 58002 60006 81502 91500=
07761,1996-10-22 18:00:00,18,1017.3,0.7,88,16,15000,3.704,,,40,9.8,21.1,,,,,,,,,wg-a,,,,AAXX 22184 07761 32565 40402 10180 20160 30162 40173 52007 84500 91800 333 10211 20098=
07761,1996-10-22 21:00:00,15,1018.1,0.8,88,13,15000,7.408,,,60,,,,,,,,,,,wg-a,,,,AAXX 22214 07761 12565 /0604 10150 20130 30170 40181 51008 60006 81500 92100=
07761,1996-10-23 00:00:00,13,1018.1,0,88,11,15000,14.816,,,60,,,,,,,,,,,wg-a,,,,AAXX 23004 07761 12465 /0608 10130 20110 30170 40181 50000 60006 81500 90000=
07761,1996-10-23 03:00:00,12,1018.2,0.1,88,10,15000,11.112,,,50,,,,,,,,,,,wg-a,,,,AAXX 23034 07761 12465 /0506 10120 20100 30171 40182 53001 60006 81500 90300=
07761,1996-10-23 06:00:00,12,1019.5,1.3,94,11,12000,14.816,,,60,10.7,17.7,,,,,,,,,wg-a,,,,AAXX 23064 07761 02462 80608 10120 20110 30184 40195 52013 60006 875// 90600 333 10177 20107 60004=
07761,1996-10-23 12:00:00,20,1020.3,0,78,16,15000,18.52,,,230,,,,,,,,,,,wg-a,,,,AAXX 23124 07761 12565 /2310 10200 20160 30192 40203 50000 60006 81100 91200=
07761,1996-10-23 18:00:00,17,1021.7,1.4,88,15,15000,3.704,,,40,12,20.3,,,,,,,,,wg-a,,,,AAXX 23184 07761 12465 /0402 10170 20150 30206 40217 52014 60006 83500 91800 333 10203 20120=
07761,1996-10-23 21:00:00,13,1022.9,1.2,94,12,15000,7.408,,,60,,,,,,,,,,,wg-a,,,,AAXX 23214 07761 12465 /0604 10130 20120 30218 40229 53012 60006 81500 92100=
07761,1996-10-24 00:00:00,14,1023.4,0.5,94,13,10000,7.408,,,40,,,,,,,,,,,wg-a,,,,AAXX 24004 07761 12460 70404 10140 20130 30223 40234 51005 60006 8750/ 90000=
07761,1996-10-24 03:00:00,15,1023.3,-0.1,88,13,15000,11.112,,,60,,,,,,,,,,,wg-a,,,,AAXX 24034 07761 12565 70606 10150 20130 30222 40233 58001 60006 878// 90300=
07761,1996-10-24 06:00:00,14,1023.6,0.3,88,12,15000,11.112,,,60,12.9,16.5,,,,,,,,,wg-a,,,,AAXX 24064 07761 02465 /0606 10140 20120 30225 40236 52003 60006 8583/ 90600 333 10165 20129 60004=
07761,1996-10-24 09:00:00,18,1024.3,0.7,77,14,15000,3.704,,,290,,,,,,,,,,,wg-a,,,,AAXX 24094 07761 12565 /2902 10180 20140 30232 40243 50007 60006 81830 90900=
07761,1996-10-24 12:00:00,19,1022.7,-1.6,78,15,15000,18.52,,,250,,,,,,,,,,,wg-a,,,,AAXX 24124 07761 12565 22510 10190 20150 30216 40227 58016 60006 82200 91200=
07761,1996-10-24 15:00:00,19,1021.7,-1,68,13,15000,18.52,,,310,,,,,,,,,,,wg-a,,,,AAXX 24154 07761 12565 23110 10190 20130 30206 40217 56010 60006 82200 91500=
07761,1996-10-24 18:00:00,17,1022.4,0.7,77,13,15000,3.704,,,80,13.7,20.8,,,,,,,,,wg-a,,,,AAXX 24184 07761 12565 50802 10170 20130 30213 40224 52007 60006 83232 91800 333 10208 20137=
07761,1996-10-24 21:00:00,13,1023.2,0.8,88,11,15000,11.112,,,50,,,,,,,,,,,wg-a,,,,AAXX 24214 07761 12565 30506 10130 20110 30221 40232 53008 60006 82802 92100=
07761,1996-10-25 00:00:00,11,1023.7,0.5,94,10,15000,11.112,,,40,,,,,,,,,,,wg-a,,,,AAXX 25004 07761 12865 /0406 10110 20100 30226 40237 51005 60006 81030 90000=
07761,1996-10-25 03:00:00,10,1023.4,-0.3,93,9,15000,11.112,,,50,,,,,,,,,,,wg-a,,,,AAXX 25034 07761 12/65 30506 10100 20090 30223 40234 57003 60006 83030 90300=
07761,1996-10-25 06:00:00,11,1023.6,0.2,94,10,15000,11.112,,,40,9.5,16.7,,,,,,,,,wg-a,,,,AAXX 25064 07761 02765 70406 10110 20100 30225 40236 53002 60006 875// 90600 333 10167 20095 60004=
07761,1996-10-25 09:00:00,16,1024.1,0.5,82,13,12000,3.704,,,50,,,,,,,,,,,wg-a,,,,AAXX 25094 07761 12662 70502 10160 20130 30230 40241 51005 60006 8553/ 90900=
07761,1996-10-25 12:00:00,18,1023.3,-0.8,68,12,12000,11.112,,,240,,,,,,,,,,,wg-a,,,,AAXX 25124 07761 12562 72406 10180 20120 30222 40233 58008 60006 8583/ 91200=
07761,1996-10-25 18:00:00,16,1023.8,0.9,82,13,18000,3.704,,,70,11,19.1,,,,,,,,,wg-a,,,,AAXX 25184 07761 12568 80702 10160 20130 30227 40238 53009 60006 8687/ 91800 333 10191 20110=
07761,1996-10-26 00:00:00,15,1024.9,0.3,88,13,15000,7.408,,,60,,,,,,,,,,,wg-a,,,,AAXX 26004 07761 12665 80604 10150 20130 30238 40249 52003 60006 8257/ 90000=
07761,1996-10-26 06:00:00,14,1024.9,0.4,88,12,15000,11.112,,,60,13.8,16.2,,,,,,,,,wg-a,,,,AAXX 26064 07761 02465 80606 10140 20120 30238 40249 53004 60006 8157/ 90600 333 10162 20138 60004=
07761,1996-10-26 12:00:00,18,1025.3,-0.3,77,14,15000,11.112,,,240,,,,,,,,,,,wg-a,,,,AAXX 26124 07761 12465 72406 10180 20140 30242 40253 58003 60006 8213/ 91200=
07761,1996-10-26 15:00:00,18,1024.4,-0.9,77,14,15000,11.112,,,220,,,,,,,,,,,wg-a,,,,AAXX 26154 07761 12565 72206 10180 20140 30233 40244 56009 60006 8383/ 91500=
07761,1996-10-26 18:00:00,16,1025,0.6,82,13,15000,7.408,,,60,13.8,18.6,,,,,,,,,wg-a,,,,AAXX 26184 07761 12565 70604 10160 20130 30239 40250 53006 60006 84830 91800 333 10186 20138=
07761,1996-10-26 21:00:00,14,1025.6,0.6,88,12,15000,7.408,,,70,,,,,,,,,,,wg-a,,,,AAXX 26214 07761 12565 70704 10140 20120 30245 40256 52006 60006 83530 92100=
07761,1996-10-27 00:00:00,12,1025.6,-0,88,10,15000,11.112,,,60,,,,,,,,,,,wg-a,,,,AAXX 27004 07761 12565 70606 10120 20100 30245 40256 55000 60006 81532 90000=
07761,1996-10-27 03:00:00,13,1024.9,-0.7,82,10,15000,7.408,,,40,,,,,,,,,,,wg-a,,,,AAXX 27034 07761 12565 70404 10130 20100 30238 40249 58007 60006 83532 90300=
07761,1996-10-27 06:00:00,13,1025.3,0.4,88,11,15000,11.112,,,50,11.6,15.9,,,,,,,,,wg-a,,,,AAXX 27064 07761 02565 80506 10130 20110 30242 40253 52004 60006 8382/ 90600 333 10159 20116 60004=
07761,1996-10-27 09:00:00,16,1026.4,1.1,77,12,10000,7.408,,,50,,,,,,,,,,,wg-a,,,,AAXX 27094 07761 12560 80504 10160 20120 30253 40264 51011 60006 8157/ 90900=
07761,1996-10-27 12:00:00,19,1025.6,-0.8,73,14,10000,7.408,,,250,,,,,,,,,,,wg-a,,,,AAXX 27124 07761 12560 /2504 10190 20140 30245 40256 58008 60006 82270 91200=
07761,1996-10-27 15:00:00,18,1025,-0.6,73,13,12000,3.704,,,280,,,,,,,,,,,wg-a,,,,AAXX 27154 07761 12562 52802 10180 20130 30239 40250 55006 60006 8/400 91500=
07761,1996-10-27 18:00:00,15,1025.6,0.6,88,13,12000,3.704,,,40,13,20,,,,,,,,,wg-a,,,,AAXX 27184 07761 12562 50402 10150 20130 30245 40256 53006 60006 82831 91800 333 10200 20130=
07761,1996-10-27 21:00:00,12,1025.5,-0.1,94,11,12000,11.112,,,50,,,,,,,,,,,wg-a,,,,AAXX 27214 07761 12562 30506 10120 20110 30244 40255 55001 60006 81501 92100=
07761,1996-10-28 00:00:00,11,1025,-0.5,87,9,12000,14.816,,,50,,,,,,,,,,,wg-a,,,,AAXX 28004 07761 12562 30508 10110 20090 30239 40250 58005 60006 81501 90000=
07761,1996-10-28 03:00:00,10,1024,-1,87,8,12000,11.112,,,50,,,,,,,,,,,wg-a,,,,AAXX 28034 07761 12/62 40506 10100 20080 30229 40240 56010 60006 80001 90300=
07761,1996-10-28 06:00:00,10,1023.3,-0.7,93,9,12000,14.816,,,40,9.3,14.9,,,,,,,,,wg-a,,,,AAXX 28064 07761 02662 60408 10100 20090 30222 40233 58007 60006 84531 90600 333 10149 20093 60004=
07761,1996-10-28 09:00:00,15,1023.7,0.4,82,12,12000,3.704,,,50,,,,,,,,,,,wg-a,,,,AAXX 28094 07761 12662 70502 10150 20120 30226 40237 50004 60006 878// 90900=
07761,1996-10-28 12:00:00,19,1022.6,-1.1,64,12,10000,3.704,,,210,,,,,,,,,,,wg-a,,,,AAXX 28124 07761 12660 72102 10190 20120 30215 40226 58011 60006 878// 91200=
07761,1996-10-28 15:00:00,18,1021.5,-1.1,83,15,8000,7.408,,,200,,,,,,,,,,,wg-a,,,,AAXX 28154 07761 12558 72004 10180 20150 30204 40215 56011 60006 878// 91500=
07761,1996-10-28 18:00:00,18,1021.5,-0,88,16,8000,22.224,,,240,10.3,19,,0,,,,,,25,wg-a,,,,AAXX 28184 07761 12458 72412 10180 20160 30204 40215 55000 60007 72586 878// 91800 333 10190 20103=
07761,1996-10-28 21:00:00,18,1021.8,0.3,88,16,10000,18.52,,,230,,,,,,,,,,,wg-a,,,,AAXX 28214 07761 12460 82310 10180 20160 30207 40218 52003 60006 878// 92100=
07761,1996-10-29 00:00:00,18,1020.8,-1,88,16,10000,25.928,,,230,,,,,,,,,,,wg-a,,,,AAXX 29004 07761 12460 72314 10180 20160 30197 40208 56010 60006 878// 90000=
07761,1996-10-29 03:00:00,18,1019.3,-1.5,88,16,10000,14.816,,,240,,,,,,,,,,,wg-a,,,,AAXX 29034 07761 12460 82408 10180 20160 30182 40193 57015 60006 858// 90300=
07761,1996-10-29 06:00:00,15,1018.6,-0.7,88,13,10000,11.112,,,40,14.7,18,,,,,,,,,wg-a,,,,AAXX 29064 07761 02460 70406 10150 20130 30175 40186 56007 60006 878// 90600 333 10180 20147 60004=
07761,1996-10-29 09:00:00,17,1018.7,0.1,77,13,10000,7.408,,,40,,,,,,,,,,,wg-a,,,,AAXX 29094 07761 12460 /0404 10170 20130 30176 40187 51001 60006 86800 90900=
07761,1996-10-29 12:00:00,19,1017.3,-1.4,78,15,8000,3.704,,,210,,,,,,,,,,,wg-a,,,,AAXX 29124 07761 12458 72102 10190 20150 30162 40173 58014 60006 878// 91200=
07761,1996-10-29 15:00:00,18,1015.7,-1.6,83,15,8000,3.704,,,210,,,,,,,,,,,wg-a,,,,AAXX 29154 07761 12458 72102 10180 20150 30146 40157 56016 60006 878// 91500=
07761,1996-10-29 18:00:00,18,1015.7,-0,88,16,8000,7.408,,,300,14.2,,,0,,,,,,3,wg-a,,,,AAXX 29184 07761 12358 /3004 10180 20160 30146 40157 55000 60007 70386 86800 91800 333 20142=
07761,1996-10-29 21:00:00,17,1016.5,0.8,72,12,12000,3.704,,,290,,,,,,,,,,,wg-a,,,,AAXX 29214 07761 12562 72902 10170 20120 30154 40165 51008 60006 878// 92100=
07761,1996-10-30 00:00:00,12,1016.5,0,88,10,15000,7.408,,,70,,,,,,,,,,,wg-a,,,,AAXX 30004 07761 12565 /0704 10120 20100 30154 40165 50000 60006 81801 90000=
07761,1996-10-30 03:00:00,15,1016.1,-0.4,72,10,15000,7.408,,,320,,,,,,,,,,,wg-a,,,,AAXX 30034 07761 12565 43204 10150 20100 30150 40161 55004 60006 83802 90300=
07761,1996-10-30 06:00:00,11,1017.2,1.1,87,9,15000,14.816,,,50,9.9,17.6,,,,,,,,,wg-a,,,,AAXX 30064 07761 02665 30508 10110 20090 30161 40172 53011 60006 83501 90600 333 10176 20099 60004=
07761,1996-10-30 09:00:00,16,1019,1.8,68,10,20000,7.408,,,50,,,,,,,,,,,wg-a,,,,AAXX 30094 07761 12570 /0504 10160 20100 30179 40190 51018 60006 81101 90900=
07761,1996-10-30 12:00:00,19,1019.2,0.2,64,12,35000,11.112,,,220,,,,,,,,,,,wg-a,,,,AAXX 30124 07761 12681 /2206 10190 20120 30181 40192 51002 60006 81100 91200=
07761,1996-10-30 15:00:00,18,1020,0.8,68,12,35000,11.112,,,230,,,,,,,,,,,wg-a,,,,AAXX 30154 07761 12581 /2306 10180 20120 30189 40200 53008 60006 81200 91500=
07761,1996-10-30 18:00:00,14,1022.3,2.3,82,11,15000,11.112,,,60,10.1,19.1,,,,,,,,,wg-a,,,,AAXX 30184 07761 12/65 00606 10140 20110 30212 40223 53023 60006 80000 91800 333 10191 20101=
07761,1996-10-30 21:00:00,10,1023.7,1.4,93,9,15000,11.112,,,50,,,,,,,,,,,wg-a,,,,AAXX 30214 07761 12/65 /0506 10100 20090 30226 40237 53014 60006 80000 92100=
07761,1996-10-31 00:00:00,9,1025.1,1.4,87,7,15000,14.816,,,60,,,,,,,,,,,wg-a,,,,AAXX 31004 07761 12/65 00608 10090 20070 30240 40251 53014 60006 80000 90000=
07761,1996-10-31 03:00:00,8,1025.4,0.3,87,6,15000,14.816,,,60,,,,,,,,,,,wg-a,,,,AAXX 31034 07761 12/65 00608 10080 20060 30243 40254 53003 60006 80000 90300=
07761,1996-10-31 06:00:00,8,1026.1,0.7,81,5,15000,14.816,,,40,7.6,13.5,,,,,,,,,wg-a,,,,AAXX 31064 07761 02/65 10408 10080 20050 30250 40261 53007 60006 80002 90600 333 10135 20076 60004=
07761,1996-10-31 09:00:00,15,1026.9,0.8,67,9,500,3.704,,,30,,,,,,,,,,,wg-a,,,,AAXX 31094 07761 12/00 20302 10150 20090 30258 40269 51008 60006 81051 90900=
07761,1996-10-31 12:00:00,19,1026.5,-0.4,68,13,50000,14.816,,,250,,,,,,,,,,,wg-a,,,,AAXX 31124 07761 12684 /2508 10190 20130 30254 40265 58004 60006 81101 91200=
07761,1996-10-31 15:00:00,18,1026.6,0.1,68,12,20000,14.816,,,240,,,,,,,,,,,wg-a,,,,AAXX 31154 07761 12470 42408 10180 20120 30255 40266 53001 60006 83801 91500=
07761,1996-10-31 18:00:00,15,1027.2,0.6,77,11,20000,3.704,,,60,7.6,19.1,,,,,,,,,wg-a,,,,AAXX 31184 07761 12570 /0602 10150 20110 30261 40272 51006 60006 8540/ 91800 333 10191 20076=
07761,1996-10-31 21:00:00,12,1027.7,0.5,88,10,15000,14.816,,,50,,,,,,,,,,,wg-a,,,,AAXX 31214 07761 12665 20508 10120 20100 30266 40277 53005 60006 8240/ 92100=
07761,1996-11-01 00:00:00,11,1026.4,-1.3,82,8,15000,11.112,,,50,,,,,,,,,,,wg-a,,,,AAXX 01004 07761 12665 30506 10110 20080 30253 40264 56013 60006 83100 90000=
07761,1996-11-01 03:00:00,8,1025.6,-0.8,87,6,10000,14.816,,,50,,,,,,,,,,,wg-a,,,,AAXX 01034 07761 12660 /0508 10080 20060 30245 40256 58008 60006 81800 90300=
07761,1996-11-01 06:00:00,7,1025.4,-0.2,93,6,11000,14.816,,,70,7,14.8,,,,,,,,,wg-a,,,,AAXX 01064 07761 02/61 /0708 10070 20060 30243 40254 57002 60006 90600 333 10148 20070 60004=
07761,1996-11-01 09:00:00,15,1024.6,-0.8,72,10,40000,11.112,,,50,,,,,,,,,,,wg-a,,,,AAXX 01094 07761 12582 60506 10150 20100 30235 40246 58008 60006 86800 90900=
07761,1996-11-01 15:00:00,18,1021.7,-1.2,73,13,20000,14.816,,,240,,,,,,,,,,,wg-a,,,,AAXX 01154 07761 12570 42408 10180 20130 30206 40217 55012 60006 81831 91500=
07761,1996-11-01 18:00:00,13,1023.6,1.9,88,11,15000,11.112,,,60,7.4,19.2,,,,,,,,,wg-a,,,,AAXX 01184 07761 12/65 40606 10130 20110 30225 40236 53019 60006 80002 91800 333 10192 20074=
07761,1996-11-01 21:00:00,11,1024.7,1.1,87,9,15000,11.112,,,60,,,,,,,,,,,wg-a,,,,AAXX 01214 07761 12/65 30606 10110 20090 30236 40247 53011 60006 80002 92100=
07761,1996-11-02 00:00:00,8,1025.2,0.5,93,7,15000,11.112,,,60,,,,,,,,,,,wg-a,,,,AAXX 02004 07761 12/65 00606 10080 20070 30241 40252 52005 60006 80000 90000=
07761,1996-11-02 03:00:00,9,1025.6,0.4,93,8,15000,11.112,,,50,,,,,,,,,,,wg-a,,,,AAXX 02034 07761 12/65 00506 10090 20080 30245 40256 53004 60006 80000 90300=
07761,1996-11-02 06:00:00,9,1026,0.4,87,7,15000,14.816,,,50,7.8,13.1,,,,,,,,,wg-a,,,,AAXX 02064 07761 02/65 50508 10090 20070 30249 40260 52004 60006 80002 90600 333 10131 20078 60004=
07761,1996-11-02 09:00:00,15,1027.1,1.1,77,11,15000,3.704,,,60,,,,,,,,,,,wg-a,,,,AAXX 02094 07761 12/65 60602 10150 20110 30260 40271 51011 60006 80002 90900=
07761,1996-11-02 12:00:00,19,1026.9,-0.2,64,12,500,14.816,,,220,,,,,,,,,,,wg-a,,,,AAXX 02124 07761 12/00 12208 10190 20120 30258 40269 58002 60006 80002 91200=
07761,1996-11-02 15:00:00,18,1026.4,-0.5,73,13,40000,11.112,,,240,,,,,,,,,,,wg-a,,,,AAXX 02154 07761 12/82 12406 10180 20130 30253 40264 55005 60006 80002 91500=
07761,1996-11-02 18:00:00,13,1027.6,1.2,82,10,10000,11.112,,,60,7.9,19.3,,,,,,,,,wg-a,,,,AAXX 02184 07761 12/60 /0606 10130 20100 30265 40276 51012 60006 91800 333 10193 20079=
07761,1996-11-02 21:00:00,11,1028.1,0.5,87,9,12000,11.112,,,50,,,,,,,,,,,wg-a,,,,AAXX 02214 07761 12/62 00506 10110 20090 30270 40281 53005 60006 80000 92100=
07761,1996-11-03 00:00:00,9,1028.1,0,87,7,15000,14.816,,,50,,,,,,,,,,,wg-a,,,,AAXX 03004 07761 12/65 /0508 10090 20070 30270 40281 50000 60006 81030 90000=
07761,1996-11-03 03:00:00,9,1027.9,-0.2,87,7,17000,14.816,,,40,,,,,,,,,,,wg-a,,,,AAXX 03034 07761 12/67 00408 10090 20070 30268 40279 58002 60006 80000 90300=
07761,1996-11-03 06:00:00,7,1028.1,0.2,87,5,20000,14.816,,,50,7,12.7,,,,,,,,,wg-a,,,,AAXX 03064 07761 02570 /0508 10070 20050 30270 40281 53002 60006 81500 90600 333 10127 20070 60004=
07761,1996-11-03 09:00:00,15,1028.8,0.7,67,9,25000,7.408,,,40,,,,,,,,,,,wg-a,,,,AAXX 03094 07761 12575 20404 10150 20090 30277 40288 51007 60006 81801 90900=
07761,1996-11-03 12:00:00,19,1028,-0.8,73,14,500,14.816,,,240,,,,,,,,,,,wg-a,,,,AAXX 03124 07761 12500 22408 10190 20140 30269 40280 58008 60006 82800 91200=
07761,1996-11-03 15:00:00,18,1027.2,-0.8,73,13,500,11.112,,,230,,,,,,,,,,,wg-a,,,,AAXX 03154 07761 12500 22306 10180 20130 30261 40272 56008 60006 82800 91500=
07761,1996-11-03 18:00:00,16,1027.5,0.3,82,13,15000,7.408,,,210,6.9,18.9,,,,,,,,,wg-a,,,,AAXX 03184 07761 12465 72104 10160 20130 30264 40275 53003 60006 875// 91800 333 10189 20069=
07761,1996-11-03 21:00:00,16,1027.8,0.3,82,13,15000,7.408,,,110,,,,,,,,,,,wg-a,,,,AAXX 03214 07761 12465 71104 10160 20130 30267 40278 52003 60006 875// 92100=
07761,1996-11-04 00:00:00,12,1027.2,-0.6,82,9,15000,18.52,,,70,,,,,,,,,,,wg-a,,,,AAXX 04004 07761 12565 20710 10120 20090 30261 40272 57006 60006 82500 90000=
07761,1996-11-04 03:00:00,12,1026.2,-1,88,10,15000,14.816,,,40,,,,,,,,,,,wg-a,,,,AAXX 04034 07761 12565 /0408 10120 20100 30251 40262 58010 60006 86500 90300=
07761,1996-11-04 06:00:00,13,1026.2,-0,82,10,15000,7.408,,,30,11.1,16.4,,,,,,,,,wg-a,,,,AAXX 04064 07761 02465 70304 10130 20100 30251 40262 55000 60006 87500 90600 333 10164 20111 60004=
07761,1996-11-04 09:00:00,15,1026.7,0.5,77,11,15000,7.408,,,60,,,,,,,,,,,wg-a,,,,AAXX 04094 07761 12565 70604 10150 20110 30256 40267 51005 60006 875// 90900=
07761,1996-11-04 12:00:00,20,1024.9,-1.8,56,11,500,7.408,,,100,,,,,,,,,,,wg-a,,,,AAXX 04124 07761 12600 61004 10200 20110 30238 40249 58018 60006 83501 91200=
07761,1996-11-04 15:00:00,18,1023.7,-1.2,68,12,500,14.816,,,240,,,,,,,,,,,wg-a,,,,AAXX 04154 07761 12600 42408 10180 20120 30226 40237 56012 60006 81531 91500=
07761,1996-11-04 18:00:00,16,1023.1,-0.6,77,12,15000,3.704,,,80,13,19.8,,,,,,,,,wg-a,,,,AAXX 04184 07761 12665 70802 10160 20120 30220 40231 56006 60006 875// 91800 333 10198 20130=
07761,1996-11-04 21:00:00,15,1022.2,-0.9,82,12,15000,7.408,,,40,,,,,,,,,,,wg-a,,,,AAXX 04214 07761 12465 /0404 10150 20120 30211 40222 58009 60006 86500 92100=
07761,1996-11-05 03:00:00,9,1019.3,-1.6,87,7,15000,14.816,,,50,,,,,,,,,,,wg-a,,,,AAXX 05034 07761 12/65 00508 10090 20070 30182 40193 56016 60006 80000 90300=
07761,1996-11-05 06:00:00,9,1018.1,-1.2,81,6,500,11.112,,,60,8.2,16.2,,,,,,,,,wg-a,,,,AAXX 05064 07761 02500 10606 10090 20060 30170 40181 55012 60006 81500 90600 333 10162 20082 60004=
07761,1996-11-05 09:00:00,15,1018.3,0.2,72,10,25000,11.112,,,60,,,,,,,,,,,wg-a,,,,AAXX 05094 07761 12675 40606 10150 20100 30172 40183 50002 60006 83830 90900=
07761,1996-11-05 12:00:00,19,1017.2,-1.1,60,11,25000,11.112,,,90,,,,,,,,,,,wg-a,,,,AAXX 05124 07761 12675 /0906 10190 20110 30161 40172 58011 60006 81872 91200=
07761,1996-11-05 15:00:00,18,1016.6,-0.6,73,13,20000,7.408,,,270,,,,,,,,,,,wg-a,,,,AAXX 05154 07761 12570 72704 10180 20130 30155 40166 56006 60006 84872 91500=
07761,1996-11-05 18:00:00,16,1017.3,0.7,82,13,15000,7.408,,,100,7.3,19.6,,,,,,,,,wg-a,,,,AAXX 05184 07761 12465 71004 10160 20130 30162 40173 53007 60006 8687/ 91800 333 10196 20073=
07761,1996-11-05 21:00:00,15,1019.1,1.8,77,11,15000,3.704,,,300,,,,,,,,,,,wg-a,,,,AAXX 05214 07761 12565 /3002 10150 20110 30180 40191 51018 60006 8153/ 92100=
07761,1996-11-06 00:00:00,12,1019.1,0,88,10,15000,14.816,,,50,,,,,,,,,,,wg-a,,,,AAXX 06004 07761 12565 /0508 10120 20100 30180 40191 50000 60006 81500 90000=
07761,1996-11-06 03:00:00,11,1019.5,0.4,87,9,15000,18.52,,,60,,,,,,,,,,,wg-a,,,,AAXX 06034 07761 12665 20610 10110 20090 30184 40195 53004 60006 82500 90300=
07761,1996-11-06 06:00:00,9,1020.9,1.4,81,6,500,14.816,,,30,8.7,16.3,,,,,,,,,wg-a,,,,AAXX 06064 07761 02500 /0308 10090 20060 30198 40209 53014 60006 81500 90600 333 10163 20087 60004=
07761,1996-11-06 09:00:00,15,1021.9,1,67,9,40000,7.408,,,50,,,,,,,,,,,wg-a,,,,AAXX 06094 07761 12682 /0504 10150 20090 30208 40219 51010 60006 81100 90900=
07761,1996-11-06 12:00:00,18,1021.9,0,56,9,50000,14.816,,,240,,,,,,,,,,,wg-a,,,,AAXX 06124 07761 12684 /2408 10180 20090 30208 40219 50000 60006 81501 91200=
07761,1996-11-06 15:00:00,17,1021.9,-0,59,9,500,18.52,,,240,,,,,,,,,,,wg-a,,,,AAXX 06154 07761 12600 /2410 10170 20090 30208 40219 55000 60006 81800 91500=
07761,1996-11-06 18:00:00,13,1023.1,1.2,82,10,20000,11.112,,,50,7.4,18.5,,,,,,,,,wg-a,,,,AAXX 06184 07761 12670 30506 10130 20100 30220 40231 51012 60006 83500 91800 333 10185 20074=
07761,1996-11-06 21:00:00,9,1023.9,0.8,87,7,15000,11.112,,,50,,,,,,,,,,,wg-a,,,,AAXX 06214 07761 12665 /0506 10090 20070 30228 40239 52008 60006 81500 92100=
07761,1996-11-07 00:00:00,8,1024.1,0.2,87,6,15000,14.816,,,40,,,,,,,,,,,wg-a,,,,AAXX 07004 07761 12/65 00408 10080 20060 30230 40241 53002 60006 80000 90000=
07761,1996-11-07 03:00:00,7,1023.3,-0.8,87,5,15000,14.816,,,40,,,,,,,,,,,wg-a,,,,AAXX 07034 07761 12/65 00408 10070 20050 30222 40233 58008 60006 80000 90300=
07761,1996-11-07 06:00:00,7,1023.7,0.4,87,5,20000,14.816,,,50,6.1,13.2,,,,,,,,,wg-a,,,,AAXX 07064 07761 02570 /0508 10070 20050 30226 40237 52004 60006 81530 90600 333 10132 20061 60004=
07761,1996-11-07 09:00:00,14,1024.4,0.7,72,9,500,11.112,,,50,,,,,,,,,,,wg-a,,,,AAXX 07094 07761 12600 20506 10140 20090 30233 40244 50007 60006 82500 90900=
07761,1996-11-07 12:00:00,19,1023.8,-0.6,60,11,500,11.112,,,220,,,,,,,,,,,wg-a,,,,AAXX 07124 07761 12600 32206 10190 20110 30227 40238 58006 60006 83800 91200=
07761,1996-11-07 15:00:00,17,1023.4,-0.4,77,13,20000,14.816,,,230,,,,,,,,,,,wg-a,,,,AAXX 07154 07761 12570 52308 10170 20130 30223 40234 56004 60006 84830 91500=
07761,1996-11-07 18:00:00,14,1024,0.6,82,11,15000,3.704,,,50,6,19,,,,,,,,,wg-a,,,,AAXX 07184 07761 12565 50502 10140 20110 30229 40240 52006 60006 83830 91800 333 10190 20060=
07761,1996-11-07 21:00:00,11,1023.7,-0.3,87,9,15000,7.408,,,50,,,,,,,,,,,wg-a,,,,AAXX 07214 07761 12565 30504 10110 20090 30226 40237 58003 60006 83500 92100=
07761,1996-11-08 00:00:00,12,1022.7,-1,82,9,15000,7.408,,,40,,,,,,,,,,,wg-a,,,,AAXX 08004 07761 12565 70404 10120 20090 30216 40227 58010 60006 87800 90000=
07761,1996-11-08 03:00:00,11,1021.8,-0.9,87,9,15000,11.112,,,60,,,,,,,,,,,wg-a,,,,AAXX 08034 07761 12565 30606 10110 20090 30207 40218 58009 60006 83800 90300=
07761,1996-11-08 06:00:00,12,1022.3,0.5,88,10,20000,7.408,,,60,10.4,13.8,,,,,,,,,wg-a,,,,AAXX 08064 07761 02570 30604 10120 20100 30212 40223 53005 60006 83800 90600 333 10138 20104 60004=
07761,1996-11-08 09:00:00,18,1024,1.7,64,11,20000,7.408,,,190,,,,,,,,,,,wg-a,,,,AAXX 08094 07761 12570 /1904 10180 20110 30229 40240 51017 60006 81100 90900=
07761,1996-11-08 12:00:00,19,1023.7,-0.3,46,7,20000,11.112,,,300,,,,,,,,,,,wg-a,,,,AAXX 08124 07761 12570 /3006 10190 20070 30226 40237 58003 60006 81100 91200=
07761,1996-11-08 15:00:00,17,1024.2,0.5,59,9,20000,22.224,,,240,,,,,,,,,,,wg-a,,,,AAXX 08154 07761 12570 /2412 10170 20090 30231 40242 53005 60006 81500 91500=
07761,1996-11-08 18:00:00,11,1025.5,1.3,82,8,15000,14.816,,,50,11,19.4,,,,,,,,,wg-a,,,,AAXX 08184 07761 12565 20508 10110 20080 30244 40255 51013 60006 82500 91800 333 10194 20110=
07761,1996-11-08 21:00:00,9,1026.8,1.3,81,6,15000,14.816,,,50,,,,,,,,,,,wg-a,,,,AAXX 08214 07761 12/65 /0508 10090 20060 30257 40268 51013 60006 80000 92100=
07761,1996-11-09 03:00:00,9,1026.6,-0.7,76,5,15000,18.52,,,60,,,,,,,,,,,wg-a,,,,AAXX 09034 07761 12/65 /0610 10090 20050 30255 40266 58007 60006 80000 90300=
07761,1996-11-09 06:00:00,8,1027.7,1.1,81,5,25000,18.52,,,50,7.6,11.1,,,,,,,,,wg-a,,,,AAXX 09064 07761 02575 20510 10080 20050 30266 40277 53011 60006 82501 90600 333 10111 20076 60004=
07761,1996-11-09 09:00:00,14,1028.4,0.7,67,8,25000,7.408,,,60,,,,,,,,,,,wg-a,,,,AAXX 09094 07761 12575 50604 10140 20080 30273 40284 51007 60006 81801 90900=
07761,1996-11-09 12:00:00,17,1027.5,-0.9,59,9,500,18.52,,,240,,,,,,,,,,,wg-a,,,,AAXX 09124 07761 12500 72410 10170 20090 30264 40275 58009 60006 81101 91200=
07761,1996-11-09 15:00:00,16,1027.1,-0.4,68,10,500,14.816,,,240,,,,,,,,,,,wg-a,,,,AAXX 09154 07761 12600 82408 10160 20100 30260 40271 55004 60006 84507 91500=
07761,1996-11-09 18:00:00,14,1027.1,-0,77,10,20000,7.408,,,60,7.7,17.4,,,,,,,,,wg-a,,,,AAXX 09184 07761 12570 80604 10140 20100 30260 40271 55000 60006 875// 91800 333 10174 20077=
07761,1996-11-09 21:00:00,12,1027.2,0.1,82,9,15000,11.112,,,50,,,,,,,,,,,wg-a,,,,AAXX 09214 07761 12565 70506 10120 20090 30261 40272 53001 60006 835// 92100=
07761,1996-11-10 00:00:00,10,1026.3,-0.9,87,8,15000,11.112,,,50,,,,,,,,,,,wg-a,,,,AAXX 10004 07761 12565 /0506 10100 20080 30252 40263 56009 60006 86500 90000=
07761,1996-11-10 03:00:00,10,1024.4,-1.9,87,8,15000,14.816,,,50,,,,,,,,,,,wg-a,,,,AAXX 10034 07761 12565 /0508 10100 20080 30233 40244 56019 60006 85500 90300=
07761,1996-11-10 06:00:00,9,1023.6,-0.8,87,7,15000,7.408,,,50,8.3,14.3,,,,,,,,,wg-a,,,,AAXX 10064 07761 02565 70504 10090 20070 30225 40236 56008 60006 83532 90600 333 10143 20083 60004=
07761,1996-11-10 09:00:00,13,1023.2,-0.4,82,10,20000,11.112,,,50,,,,,,,,,,,wg-a,,,,AAXX 10094 07761 12670 /0506 10130 20100 30221 40232 56004 60006 82872 90900=
07761,1996-11-10 12:00:00,16,1021.1,-2.1,68,10,20000,7.408,,,270,,,,,,,,,,,wg-a,,,,AAXX 10124 07761 12670 72704 10160 20100 30200 40211 58021 60006 86802 91200=
07761,1996-11-10 15:00:00,16,1019,-2.1,72,11,20000,7.408,,,240,,,,,,,,,,,wg-a,,,,AAXX 10154 07761 12570 72404 10160 20110 30179 40190 56021 60006 82872 91500=
07761,1996-11-10 21:00:00,10,1017.3,-1.4,87,8,15000,14.816,,,50,,,,,,,,,,,wg-a,,,,AAXX 10214 07761 12/65 00508 10100 20080 30162 40173 58014 60006 80000 92100=
07761,1996-11-11 00:00:00,9,1015.4,-1.9,87,7,15000,11.112,,,50,,,,,,,,,,,wg-a,,,,AAXX 11004 07761 12/65 00506 10090 20070 30143 40154 58019 60006 80000 90000=
07761,1996-11-11 03:00:00,9,1013.5,-1.9,81,6,12000,18.52,,,60,,,,,,,,,,,wg-a,,,,AAXX 11034 07761 12/62 00610 10090 20060 30124 40135 58019 60006 80000 90300=
07761,1996-11-11 06:00:00,9,1012.3,-1.2,76,5,20000,18.52,,,40,8.2,12,,,,,,,,,wg-a,,,,AAXX 11064 07761 02670 10410 10090 20050 30112 40123 56012 60006 81501 90600 333 10120 20082 60004=
07761,1996-11-11 09:00:00,17,1011.7,-0.6,59,9,35000,11.112,,,50,,,,,,,,,,,wg-a,,,,AAXX 11094 07761 12/81 40506 10170 20090 30106 40117 58006 60006 81044 90900=
07761,1996-11-11 12:00:00,23,1009.2,-2.4,33,6,35000,14.816,,,180,,,,,,,,,,,wg-a,,,,AAXX 11124 07761 12/81 81808 10230 20060 30082 40092 58024 60006 81577 91200=
07761,1996-11-11 15:00:00,20,1008.4,-0.9,64,13,25000,0,,,0,,,,,,,,,,,wg-a,,,,AAXX 11154 07761 12/75 /0000 10200 20130 30073 40084 56009 60006 82042 91500=
07761,1996-11-11 18:00:00,14,1009.4,1,72,9,15000,14.816,,,70,8.6,23.9,,,,,,,,,wg-a,,,,AAXX 11184 07761 12/65 60708 10140 20090 30083 40094 53010 60006 80002 91800 333 10239 20086=
07761,1996-11-11 21:00:00,14,1009.2,-0.2,67,8,15000,14.816,,,50,,,,,,,,,,,wg-a,,,,AAXX 11214 07761 12/65 70508 10140 20080 30081 40092 58002 60006 80002 92100=
07761,1996-11-12 00:00:00,13,1008.8,-0.4,67,7,15000,11.112,,,70,,,,,,,,,,,wg-a,,,,AAXX 12004 07761 12/65 50706 10130 20070 30077 40088 58004 60006 80002 90000=
07761,1996-11-12 03:00:00,11,1009,0.2,71,6,15000,18.52,,,60,,,,,,,,,,,wg-a,,,,AAXX 12034 07761 12/65 30610 10110 20060 30079 40090 53002 60006 80002 90300=
07761,1996-11-12 06:00:00,12,1009,-0,62,5,15000,18.52,,,60,10.9,15.5,,,,,,,,,wg-a,,,,AAXX 12064 07761 02/65 30610 10120 20050 30079 40090 55000 60006 80002 90600 333 10155 20109 60004=
07761,1996-11-12 09:00:00,19,1009.2,0.2,52,9,500,11.112,,,50,,,,,,,,,,,wg-a,,,,AAXX 12094 07761 12600 /0506 10190 20090 30081 40092 52002 60006 81100 90900=
07761,1996-11-12 12:00:00,24,1008.4,-0.7,34,7,500,11.112,,,280,,,,,,,,,,,wg-a,,,,AAXX 12124 07761 12/00 12806 10240 20070 30074 40084 58007 60006 80001 91200=
07761,1996-11-12 15:00:00,22,1008.3,-0.1,46,10,500,3.704,,,60,,,,,,,,,,,wg-a,,,,AAXX 12154 07761 12/00 30602 10220 20100 30073 40083 58001 60006 81052 91500=
07761,1996-11-12 18:00:00,15,1008.7,0.3,63,8,15000,14.816,,,50,11.9,24,,,,,,,,,wg-a,,,,AAXX 12184 07761 12/65 20508 10150 20080 30076 40087 52003 60006 82050 91800 333 10240 20119=
07761,1996-11-12 21:00:00,13,1008.3,-0.4,62,6,15000,14.816,,,60,,,,,,,,,,,wg-a,,,,AAXX 12214 07761 12/65 00608 10130 20060 30072 40083 55004 60006 80000 92100=
07761,1996-11-13 00:00:00,12,1009,0.7,58,4,15000,14.816,,,50,,,,,,,,,,,wg-a,,,,AAXX 13004 07761 12/65 00508 10120 20040 30079 40090 52007 60006 80000 90000=
07761,1996-11-13 03:00:00,12,1008.7,-0.3,58,4,15000,22.224,,,50,,,,,,,,,,,wg-a,,,,AAXX 13034 07761 12/65 00512 10120 20040 30076 40087 58003 60006 80000 90300=
07761,1996-11-13 06:00:00,13,1008.4,-0.3,58,5,20000,14.816,,,50,10.6,15.2,,,,,,,,,wg-a,,,,AAXX 13064 07761 02/70 10508 10130 20050 30073 40084 56003 60006 80002 90600 333 10152 20106 60004=
07761,1996-11-13 09:00:00,17,1009.4,1,63,10,14000,18.52,,,50,,,,,,,,,,,wg-a,,,,AAXX 13094 07761 12/64 70510 10170 20100 30083 40094 50010 60006 80008 90900=
07761,1996-11-13 12:00:00,23,1008.2,-1.1,47,11,15000,7.408,,,230,,,,,,,,,,,wg-a,,,,AAXX 13124 07761 12/65 82304 10230 20110 30072 40082 58011 60006 80007 91200=
07761,1996-11-13 15:00:00,20,1007.2,-1,60,12,15000,3.704,,,220,,,,,,,,,,,wg-a,,,,AAXX 13154 07761 12/65 52202 10200 20120 30062 40072 56010 60006 80008 91500=
07761,1996-11-13 18:00:00,15,1008.7,1.4,77,11,13000,14.816,,,60,13.1,23.2,,,,,,,,,wg-a,,,,AAXX 13184 07761 12/63 50608 10150 20110 30076 40087 51014 60006 80008 91800 333 10232 20131=
07761,1996-11-13 21:00:00,14,1009.1,0.4,72,9,13000,14.816,,,40,,,,,,,,,,,wg-a,,,,AAXX 13214 07761 12/63 30408 10140 20090 30080 40091 52004 60006 80002 92100=
07761,1996-11-14 00:00:00,13,1008.8,-0.3,77,9,10000,14.816,,,50,,,,,,,,,,,wg-a,,,,AAXX 14004 07761 12/60 00508 10130 20090 30077 40088 56003 60006 80000 90000=
07761,1996-11-14 03:00:00,12,1009.2,0.4,76,8,10000,11.112,,,30,,,,,,,,,,,wg-a,,,,AAXX 14034 07761 12/60 30306 10120 20080 30081 40092 50004 60006 80002 90300=
07761,1996-11-14 06:00:00,11,1010.4,1.2,82,8,10000,14.816,,,60,10.5,15.2,,,,,,,,,wg-a,,,,AAXX 14064 07761 02560 60608 10110 20080 30093 40104 53012 60006 85532 90600 333 10152 20105 60004=
07761,1996-11-14 09:00:00,16,1010.7,0.3,68,10,13000,3.704,,,30,,,,,,,,,,,wg-a,,,,AAXX 14094 07761 12863 70302 10160 20100 30096 40107 51003 60006 82012 90900=
07761,1996-11-14 12:00:00,18,1011.5,0.8,83,15,12000,18.52,,,250,,,,,,,,,,,wg-a,,,,AAXX 14124 07761 12462 82510 10180 20150 30104 40115 51008 60006 83872 91200=
07761,1996-11-14 15:00:00,17,1011.6,0.1,88,15,9000,7.408,,,250,,,,,,,,,,,wg-a,,,,AAXX 14154 07761 12459 72504 10170 20150 30105 40116 53001 60006 8587/ 91500=
07761,1996-11-14 18:00:00,15,1010.9,-0.7,94,14,10000,7.408,,,50,11.4,19.2,,,,,,,,,wg-a,,,,AAXX 14184 07761 12660 /0504 10150 20140 30098 40109 58007 60006 81572 91800 333 10192 20114=
07761,1996-11-14 21:00:00,13,1010.9,0,94,12,10000,11.112,,,70,,,,,,,,,,60,wg-a,,,,AAXX 14214 07761 02760 80706 10130 20120 30098 40109 50000 61000 76062 81572 92100 333 ////=
07761,1996-11-15 00:00:00,15,1011.9,1,82,12,10000,7.408,,,330,,,,,,,,,,3,wg-a,,,,AAXX 15004 07761 02560 73304 10150 20120 30108 40119 53010 61000 70362 8257/ 90000 333 6100=
07761,1996-11-15 03:00:00,14,1012,0.1,82,11,10000,22.224,,,60,,,,,,,,,,,wg-a,,,,AAXX 15034 07761 12560 70612 10140 20110 30109 40120 50001 60006 81572 90300=
07761,1996-11-15 06:00:00,15,1011.7,-0.3,77,11,18000,3.704,,,120,12.9,15.6,,,,,,,,1,wg-a,,,,AAXX 15064 07761 02568 /1202 10150 20110 30106 40117 55003 61000 70162 83571 90600 333 10156 20129 6100=
07761,1996-11-15 09:00:00,18,1014.4,2.7,73,13,35000,3.704,,,260,,,,,,,,,,,wg-a,,,,AAXX 15094 07761 12681 /2602 10180 20130 30133 40144 51027 60006 81832 90900=
07761,1996-11-15 12:00:00,18,1015.9,1.5,73,13,35000,3.704,,,210,,,,,,,,,,,wg-a,,,,AAXX 15124 07761 12581 /2102 10180 20130 30148 40159 51015 60006 83802 91200=
07761,1996-11-15 15:00:00,19,1015.7,-0.2,64,12,35000,11.112,,,40,,,,,,,,,,,wg-a,,,,AAXX 15154 07761 12581 /0406 10190 20120 30146 40157 58002 60006 85802 91500=
07761,1996-11-15 18:00:00,16,1016.7,1,77,12,20000,11.112,,,40,13.9,19.5,,,,,,,,,wg-a,,,,AAXX 15184 07761 12770 /0406 10160 20120 30156 40167 53010 60006 83502 91800 333 10195 20139=
07761,1996-11-15 21:00:00,14,1017.2,0.5,77,10,20000,14.816,,,50,,,,,,,,,,,wg-a,,,,AAXX 15214 07761 12670 /0508 10140 20100 30161 40172 50005 60006 81502 92100=
07761,1996-11-16 00:00:00,11,1016.6,-0.6,87,9,20000,7.408,,,60,,,,,,,,,,,wg-a,,,,AAXX 16004 07761 12/70 30604 10110 20090 30155 40166 56006 60006 80002 90000=
07761,1996-11-16 03:00:00,12,1015.6,-1,82,9,18000,11.112,,,140,,,,,,,,,,,wg-a,,,,AAXX 16034 07761 12/68 31406 10120 20090 30145 40156 55010 60006 80002 90300=
07761,1996-11-16 06:00:00,12,1015.4,-0.2,82,9,15000,3.704,,,300,10.9,15.8,,,,,,,,,wg-a,,,,AAXX 16064 07761 02765 23002 10120 20090 30143 40154 58002 60006 825/1 90600 333 10158 20109 60004=
07761,1996-11-16 09:00:00,17,1016.1,0.7,63,10,500,14.816,,,30,,,,,,,,,,,wg-a,,,,AAXX 16094 07761 12600 50308 10170 20100 30150 40161 50007 60006 83831 90900=
07761,1996-11-16 12:00:00,21,1014.1,-2,64,14,20000,7.408,,,70,,,,,,,,,,3,wg-a,,,,AAXX 16124 07761 02770 70704 10210 20140 30130 40141 58020 61000 70361 85831 91200 333 6100=
07761,1996-11-16 15:00:00,21,1013.3,-0.8,53,11,20000,14.816,,,70,,,,,,,,,,1,wg-a,,,,AAXX 16154 07761 02670 60708 10210 20110 30122 40133 58008 61000 70162 83882 91500 333 ////=
07761,1996-11-16 18:00:00,16,1013.5,0.2,82,13,15000,11.112,,,60,10.5,22.2,,1,,,,,,17,wg-a,,,,AAXX 16184 07761 12665 70606 10160 20130 30124 40135 53002 60017 71798 8598/ 91800 333 10222 20105=
07761,1996-11-16 21:00:00,16,1013.6,0.1,82,13,15000,14.816,,,50,,,,1,,,,,,29,wg-a,,,,AAXX 16214 07761 12665 70508 10160 20130 30125 40136 50001 60017 72996 85980 92100=
07761,1996-11-17 00:00:00,13,1013.2,-0.4,88,11,15000,14.816,,,50,,,,,,,,,,2,wg-a,,,,AAXX 17004 07761 12/65 00508 10130 20110 30121 40132 55004 60016 70296 80000 90000=
07761,1996-11-17 03:00:00,13,1011.7,-1.5,88,11,15000,14.816,,,60,,,,,,,,,,,wg-a,,,,AAXX 17034 07761 12765 40608 10130 20110 30106 40117 58015 60006 83580 90300=
07761,1996-11-17 06:00:00,14,1011.1,-0.6,88,12,15000,14.816,,,60,12.5,16.3,,,,,2,,,60,wg-a,,,,AAXX 17064 07761 02765 70608 10140 20120 30100 40111 58006 60024 76061 8757/ 90600 333 10163 20125 61000=
07761,1996-11-17 09:00:00,15,1011.3,0.2,88,13,20000,7.408,,,40,,,,3,,,,,,21,wg-a,,,,AAXX 17094 07761 12570 70404 10150 20130 30102 40113 50002 60037 72162 8587/ 90900=
07761,1996-11-17 12:00:00,16,1009.5,-1.8,88,14,6000,22.224,,,170,,,,1,,,,,,16,wg-a,,,,AAXX 17124 07761 02456 81712 10160 20140 30084 40095 58018 60046 71662 888// 91200 333 60017=
07761,1996-11-17 15:00:00,15,1007.9,-1.6,88,13,12000,11.112,,,60,,,,0,,,,,,61,wg-a,,,,AAXX 17154 07761 12562 80606 10150 20130 30068 40079 58016 60007 76162 878// 91500=
07761,1996-11-17 18:00:00,14,1006.4,-1.5,94,13,9000,3.704,,,80,13.5,17.5,,1,,,,,,61,wg-a,,,,AAXX 17184 07761 12559 80802 10140 20130 30053 40064 56015 60017 76162 8587/ 91800 333 10175 20135=
07761,1996-11-17 21:00:00,13,1005.5,-0.9,94,12,6000,25.928,,,250,,,,5,,,,,,61,wg-a,,,,AAXX 17214 07761 12456 82514 10130 20120 30044 40055 55009 60057 76166 8688/ 92100=
07761,1996-11-18 00:00:00,11,1004.5,-1,94,10,9000,14.816,,53.708,80,,,,12,,,,,,61,wg-a,,,,AAXX 18004 07761 02259 80808 10110 20100 30034 40045 58010 60166 76166 8687/ 90000 333 60127 91029=
07761,1996-11-18 03:00:00,11,1000.7,-3.8,82,8,10000,14.816,,,130,,,,0,,,,,,2,wg-a,,,,AAXX 18034 07761 12460 /1308 10110 20080 39996 40007 56038 60007 70262 8387/ 90300=
07761,1996-11-18 06:00:00,10,999.4,-1.3,87,8,15000,11.112,,,130,9.6,13.8,,2,,,24,,,17,wg-a,,,,AAXX 18064 07761 02465 71306 10100 20080 39983 49994 56013 60244 71798 8698/ 90600 333 10138 20096 60027=
07761,1996-11-18 09:00:00,13,1001.3,1.9,72,8,8000,38.892,,61.116,250,,,,1,,,,,,29,wg-a,,,,AAXX 18094 07761 12558 62521 10130 20080 30002 40013 53019 60017 72996 86200 90900 333 91033=
07761,1996-11-18 12:00:00,14,1001.7,0.4,72,9,12000,38.892,,94.452,240,,,,1,,,,,,1,wg-a,,,,AAXX 18124 07761 02562 62421 10140 20090 30006 40017 50004 60026 70196 86201 91200 333 60017 91051=
07761,1996-11-18 15:00:00,12,1003.8,2.1,71,7,9000,42.596,,68.524,270,,,,2,,,,,,25,wg-a,,,,AAXX 18154 07761 12559 62723 10120 20070 30027 40038 53021 60027 72586 86200 91500 333 91037=
07761,1996-11-18 18:00:00,10,1004.2,0.4,87,8,9000,7.408,,68.524,40,9.7,14.7,,0,,,,,,21,wg-a,,,,AAXX 18184 07761 12559 80404 10100 20080 30031 40042 50004 60007 72186 878// 91800 333 10147 20097 91037=
07761,1996-11-18 21:00:00,12,1005.5,1.3,71,7,12000,14.816,,,270,,,,,,,,,,,wg-a,,,,AAXX 18214 07761 12662 72708 10120 20070 30044 40055 53013 60006 878// 92100=
07761,1996-11-19 00:00:00,9,1005.4,-0.1,87,7,12000,7.408,,,40,,,,,,,,,,,wg-a,,,,AAXX 19004 07761 12662 70404 10090 20070 30043 40054 58001 60006 878// 90000=
07761,1996-11-19 03:00:00,10,1005.7,0.3,82,7,10000,11.112,,,50,,,,,,,,,,25,wg-a,,,,AAXX 19034 07761 02560 70506 10100 20070 30046 40057 51003 61000 72586 878// 90300 333 ////=
07761,1996-11-19 06:00:00,8,1006.9,1.2,93,7,15000,11.112,,,50,8.3,11.8,,2,,,6,,,1,wg-a,,,,AAXX 19064 07761 02565 70506 10080 20070 30058 40069 53012 60064 70186 878// 90600 333 10118 20083 60027=
07761,1996-11-19 09:00:00,9,1009.2,2.3,93,8,15000,7.408,,,60,,,,,,,,,,,wg-a,,,,AAXX 19094 07761 12565 70604 10090 20080 30081 40092 51023 60006 878// 90900=
07761,1996-11-19 12:00:00,13,1009.7,0.5,58,5,15000,18.52,,,270,,,,,,,,,,,wg-a,,,,AAXX 19124 07761 12565 42710 10130 20050 30086 40097 51005 60006 84800 91200=
07761,1996-11-19 15:00:00,13,1009.3,-0.4,54,4,15000,25.928,,,260,,,,,,,,,,,wg-a,,,,AAXX 19154 07761 12565 62614 10130 20040 30082 40093 55004 60006 83802 91500=
07761,1996-11-19 18:00:00,10,1008.3,-1,76,6,15000,11.112,,,40,8.2,13.9,,0,,,,,,80,wg-a,,,,AAXX 19184 07761 12565 70406 10100 20060 30072 40083 58010 60007 78086 85802 91800 333 10139 20082=
07761,1996-11-19 21:00:00,9,1006.7,-1.6,87,7,12000,18.52,,,60,,,,1,,,,,,61,wg-a,,,,AAXX 19214 07761 12562 80610 10090 20070 30056 40067 58016 60017 76162 888// 92100=
07761,1996-11-20 00:00:00,10,1003.9,-2.8,93,9,10000,22.224,,,40,,,,1,,,,,,21,wg-a,,,,AAXX 20004 07761 02560 80412 10100 20090 30028 40039 58028 60026 72162 888// 90000 333 60017=
07761,1996-11-20 03:00:00,16,1001.5,-2.4,77,12,9000,46.3,,64.82,230,,,,1,,,,,,61,wg-a,,,,AAXX 20034 07761 12559 82325 10160 20120 30004 40015 57024 60017 76162 888// 90300 333 91035=
07761,1996-11-20 06:00:00,12,1000.7,-0.8,94,11,8000,11.112,,,190,8.3,15.8,,7,,,10,,,61,wg-a,,,,AAXX 20064 07761 02458 81906 10120 20110 39996 40007 55008 60104 76162 888// 90600 333 10158 20083 60077=
07761,1996-11-20 09:00:00,11,1002.8,2.1,87,9,9000,14.816,,,260,,,,3,,,,,,61,wg-a,,,,AAXX 20094 07761 12459 82608 10110 20090 30017 40028 51021 60037 76166 8287/ 90900=
07761,1996-11-20 12:00:00,13,1001.3,-1.5,72,8,12000,42.596,,64.82,270,,,,1,,,,,,21,wg-a,,,,AAXX 20124 07761 02562 /2723 10130 20080 30002 40013 58015 60046 72162 8687/ 91200 333 60017 91035=
07761,1996-11-20 15:00:00,14,1001.8,0.5,67,8,15000,31.484,,68.524,270,,,,0,,,,,,21,wg-a,,,,AAXX 20154 07761 12665 /2717 10140 20080 30007 40018 52005 60007 72162 85870 91500 333 91037=
07761,1996-11-20 18:00:00,13,1003.2,1.4,67,7,15000,46.3,,72.228,290,11,14.1,,,,,,,,1,wg-a,,,,AAXX 20184 07761 32665 /2925 10130 20070 30021 40032 53014 70161 84200 91800 333 10141 20110 91039=
07761,1996-11-20 21:00:00,13,1005.2,2,62,6,15000,38.892,,75.932,280,,,,,,,,,,,wg-a,,,,AAXX 20214 07761 12665 32821 10130 20060 30041 40052 51020 60006 83230 92100 333 91041=
07761,1996-11-21 00:00:00,13,1005.3,0.1,58,5,15000,42.596,,75.932,280,,,,,,,,,,,wg-a,,,,AAXX 21004 07761 12665 32823 10130 20050 30042 40053 50001 60006 81130 90000 333 91041=
07761,1996-11-21 03:00:00,13,1007.3,2,58,5,18000,50.004,,62.968,290,,,,,,,,,,,wg-a,,,,AAXX 21034 07761 12668 32927 10130 20050 30062 40073 52020 60006 83200 90300 333 91034=
07761,1996-11-21 06:00:00,13,1008.9,1.6,51,3,18000,29.632,,55.56,300,12.2,13.3,,,,,4,,,,wg-a,,,,AAXX 21064 07761 02668 43016 10130 20030 30078 40089 51016 60006 82802 90600 333 10133 20122 60044 91030=
07761,1996-11-21 09:00:00,14,1011.3,2.4,55,5,25000,31.484,,57.412,280,,,,,,,,,,,wg-a,,,,AAXX 21094 07761 12675 32817 10140 20050 30102 40113 51024 60006 81832 90900 333 91031=
07761,1996-11-21 12:00:00,14,1012,0.7,55,5,500,29.632,,57.412,280,,,,,,,,,,,wg-a,,,,AAXX 21124 07761 12600 32816 10140 20050 30109 40120 50007 60006 81132 91200 333 91031=
07761,1996-11-21 15:00:00,13,1011.7,-0.3,54,4,500,18.52,,,320,,,,,,,,,,,wg-a,,,,AAXX 21154 07761 12600 73210 10130 20040 30106 40117 56003 60006 81132 91500=
07761,1996-11-21 18:00:00,9,1012.8,1.1,81,6,25000,7.408,,,60,9.3,14.2,,,,,,,,,wg-a,,,,AAXX 21184 07761 12675 70604 10090 20060 30117 40128 53011 60006 81132 91800 333 10142 20093=
07761,1996-11-21 21:00:00,10,1012.7,-0.1,76,6,15000,11.112,,,40,,,,,,,,,,,wg-a,,,,AAXX 21214 07761 12565 80406 10100 20060 30116 40127 58001 60006 83872 92100=
07761,1996-11-22 00:00:00,11,1010.4,-2.3,76,7,12000,14.816,,,60,,,,,,,,,,60,wg-a,,,,AAXX 22004 07761 02562 80608 10110 20070 30093 40104 58023 61000 76062 878// 90000 333 6100=
07761,1996-11-22 03:00:00,10,1006.9,-3.5,93,9,10000,11.112,,,60,,,,1,,,,,,60,wg-a,,,,AAXX 22034 07761 12460 80606 10100 20090 30058 40069 56035 60017 76062 878// 90300=
07761,1996-11-22 06:00:00,16,1006.6,-0.3,88,14,10000,18.52,,,240,9.4,16.4,,,,,1,,,1,wg-a,,,,AAXX 22064 07761 02460 82410 10160 20140 30055 40066 55003 60014 70162 878// 90600 333 10164 20094 61000=
07761,1996-11-22 09:00:00,16,1008.7,2.1,68,10,15000,18.52,,,270,,,,,,,,,,1,wg-a,,,,AAXX 22094 07761 02565 82710 10160 20100 30076 40087 53021 61000 70162 8682/ 90900 333 ////=
07761,1996-11-22 12:00:00,17,1008.3,-0.4,63,10,15000,22.224,,,270,,,,,,,,,,1,wg-a,,,,AAXX 22124 07761 02565 42712 10170 20100 30072 40083 58004 61000 70161 82801 91200 333 ////=
07761,1996-11-22 15:00:00,13,1009.9,1.6,58,5,25000,22.224,,,280,,,,,,,,,,,wg-a,,,,AAXX 22154 07761 12575 /2812 10130 20050 30088 40099 53016 60006 82802 91500=
07761,1996-11-22 18:00:00,8,1011.8,1.9,81,5,15000,7.408,,,70,8,16.8,,,,,,,,,wg-a,,,,AAXX 22184 07761 32665 30704 10080 20050 30107 40118 53019 83800 91800 333 10168 20080=
07761,1996-11-22 21:00:00,7,1013.5,1.7,87,5,15000,11.112,,,40,,,,,,,,,,,wg-a,,,,AAXX 22214 07761 12665 20406 10070 20050 30124 40135 51017 60006 82500 92100=
07761,1996-11-23 00:00:00,5,1014.5,1,87,3,15000,11.112,,,40,,,,,,,,,,,wg-a,,,,AAXX 23004 07761 12665 /0406 10050 20030 30134 40145 51010 60006 81500 90000=
07761,1996-11-23 03:00:00,4,1014.9,0.4,87,2,15000,14.816,,,40,,,,,,,,,,,wg-a,,,,AAXX 23034 07761 12665 30408 10040 20020 30138 40149 51004 60006 83500 90300=
07761,1996-11-23 06:00:00,5,1015.4,0.5,87,3,15000,11.112,,,40,3.5,7.9,,,,,,,,,wg-a,,,,AAXX 23064 07761 02565 30406 10050 20030 30143 40154 51005 60006 82802 90600 333 10079 20035 61000=
07761,1996-11-23 09:00:00,9,1015.2,-0.2,81,6,20000,7.408,,,60,,,,,,,,,,60,wg-a,,,,AAXX 23094 07761 02670 80604 10090 20060 30141 40152 58002 61000 76061 8587/ 90900 333 ////=
07761,1996-11-23 12:00:00,10,1012.2,-3,87,8,6000,11.112,,,40,,,,2,,,,,,61,wg-a,,,,AAXX 23124 07761 02556 80406 10100 20080 30111 40122 58030 60026 76161 8687/ 91200 333 60027=
07761,1996-11-23 15:00:00,11,1011.4,-0.8,94,10,500,3.704,,,360,,,,2,,,,,,3,wg-a,,,,AAXX 23154 07761 12400 83602 10110 20100 30103 40114 55008 60027 70362 878// 91500=
07761,1996-11-23 18:00:00,11,1013.5,2.1,94,10,15000,14.816,,,320,4.8,11.3,,0,,,,,,1,wg-a,,,,AAXX 23184 07761 12465 33208 10110 20100 30124 40135 53021 60007 70161 83800 91800 333 10113 20048=
07761,1996-11-23 21:00:00,10,1015.4,1.9,87,8,20000,7.408,,,90,,,,,,,,,,,wg-a,,,,AAXX 23214 07761 12470 /0904 10100 20080 30143 40154 51019 60006 84800 92100=
07761,1996-11-24 00:00:00,11,1015.9,0.5,62,4,18000,18.52,,,310,,,,,,,,,,,wg-a,,,,AAXX 24004 07761 12568 33110 10110 20040 30148 40159 52005 60006 83800 90000=
07761,1996-11-24 03:00:00,11,1016.1,0.2,58,3,18000,18.52,,,310,,,,,,,,,,,wg-a,,,,AAXX 24034 07761 12668 73110 10110 20030 30150 40161 51002 60006 85482 90300=
07761,1996-11-24 06:00:00,10,1017.3,1.2,57,2,18000,14.816,,50.004,320,7.7,11.3,,,,,5,,,,wg-a,,,,AAXX 24064 07761 02668 /3208 10100 20020 30162 40173 51012 60006 86800 90600 333 10113 20077 60054 91027=
07761,1996-11-24 09:00:00,10,1019.2,1.9,57,2,20000,14.816,,,340,,,,,,,,,,25,wg-a,,,,AAXX 24094 07761 02670 /3408 10100 20020 30181 40192 53019 61000 72586 85201 90900 333 ////=
07761,1996-11-24 12:00:00,12,1019.1,-0.1,50,2,500,11.112,,,290,,,,,,,,,,2,wg-a,,,,AAXX 24124 07761 02600 32906 10120 20020 30180 40191 58001 61000 70286 83800 91200 333 ////=
07761,1996-11-24 15:00:00,12,1019.8,0.7,40,-1,500,11.112,,,280,,,,,,,,,,,wg-a,,,,AAXX 24154 07761 12600 22806 10120 21010 30187 40198 53007 60006 81801 91500=
07761,1996-11-24 18:00:00,6,1021.7,1.9,81,3,20000,11.112,,,50,5.8,13.2,,,,,,,,,wg-a,,,,AAXX 24184 07761 32/70 60506 10060 20030 30206 40217 53019 80001 91800 333 10132 20058=
07761,1996-11-24 21:00:00,4,1022.9,1.2,81,1,20000,11.112,,,30,,,,,,,,,,,wg-a,,,,AAXX 24214 07761 12/70 50306 10040 20010 30218 40229 51012 60006 80001 92100=
07761,1996-11-25 00:00:00,2,1022.6,-0.3,87,0,20000,14.816,,,50,,,,,,,,,,,wg-a,,,,AAXX 25004 07761 12770 10508 10020 20000 30215 40226 58003 60006 81531 90000=
07761,1996-11-25 03:00:00,4,1021.3,-1.3,75,0,11000,14.816,,,40,,,,,,,,,,,wg-a,,,,AAXX 25034 07761 12/61 /0408 10040 20000 30202 40213 58013 60006 90300=
07761,1996-11-25 06:00:00,5,1020.4,-0.9,70,0,20000,14.816,,,40,2.2,6.1,,,,,,,,,wg-a,,,,AAXX 25064 07761 02770 70408 10050 20000 30193 40204 56009 60006 8115/ 90600 333 10061 20022 61000=
07761,1996-11-25 09:00:00,9,1018.2,-2.2,66,3,25000,7.408,,,20,,,,,,,,,,,wg-a,,,,AAXX 25094 07761 12575 80204 10090 20030 30171 40182 58022 60006 8687/ 90900=
07761,1996-11-25 12:00:00,12,1014.9,-3.3,67,6,25000,11.112,,,40,,,,,,,,,,,wg-a,,,,AAXX 25124 07761 12575 70406 10120 20060 30138 40149 58033 60006 8387/ 91200=
07761,1996-11-25 15:00:00,12,1011.5,-3.4,82,9,10000,7.408,,,40,,,,,,,,,,60,wg-a,,,,AAXX 25154 07761 02460 80404 10120 20090 30104 40115 56034 61000 76062 8687/ 91500 333 ////=
07761,1996-11-25 18:00:00,11,1008.4,-3.1,94,10,12000,11.112,,,70,4.6,13.2,,3,,,,,,61,wg-a,,,,AAXX 25184 07761 12462 80706 10110 20100 30073 40084 56031 60037 76162 8687/ 91800 333 10132 20046=
07761,1996-11-25 21:00:00,11,1006.1,-2.3,94,10,6000,11.112,,,100,,,,8,,,,,,61,wg-a,,,,AAXX 25214 07761 12456 81006 10110 20100 30050 40061 58023 60087 76166 8687/ 92100=
07761,1996-11-26 00:00:00,13,1002.2,-3.9,94,12,8000,14.816,,,270,,,,11,,,,,,63,wg-a,,,,AAXX 26004 07761 02358 82708 10130 20120 30011 40022 58039 60196 76366 8487/ 90000 333 60117=
07761,1996-11-26 03:00:00,14,1000.6,-1.6,88,12,12000,25.928,,,280,,,,4,,,,,,1,wg-a,,,,AAXX 26034 07761 12462 72814 10140 20120 39995 40006 58016 60047 70162 878// 90300=
07761,1996-11-26 06:00:00,13,999.8,-0.8,77,9,15000,25.928,,61.116,290,10.6,14.2,,0,,,26,,,25,wg-a,,,,AAXX 26064 07761 02565 52914 10130 20090 39987 49998 56008 60264 72586 85800 90600 333 10142 20106 60007 91033=
07761,1996-11-26 09:00:00,13,1000.6,0.8,67,7,25000,18.52,,,310,,,,,,,,,,,wg-a,,,,AAXX 26094 07761 12575 73110 10130 20070 39995 40006 51008 60006 87800 90900=
07761,1996-11-26 12:00:00,14,1000.7,0.1,67,8,500,14.816,,,300,,,,,,,,,,,wg-a,,,,AAXX 26124 07761 12500 33008 10140 20080 39996 40007 51001 60006 83800 91200=
07761,1996-11-26 15:00:00,13,1001.8,1.1,62,6,25000,18.52,,,340,,,,,,,,,,,wg-a,,,,AAXX 26154 07761 12575 23410 10130 20060 30007 40018 53011 60006 82800 91500=
07761,1996-11-26 18:00:00,9,1003.5,1.7,81,6,15000,7.408,,,80,8.9,14,,,,,,,,,wg-a,,,,AAXX 26184 07761 12565 /0804 10090 20060 30024 40035 53017 60006 81800 91800 333 10140 20089=
07761,1996-11-26 21:00:00,6,1005.2,1.7,87,4,15000,14.816,,,50,,,,,,,,,,,wg-a,,,,AAXX 26214 07761 12665 30508 10060 20040 30041 40052 53017 60006 83500 92100=
07761,1996-11-27 00:00:00,5,1006.1,0.9,87,3,15000,14.816,,,50,,,,,,,,,,,wg-a,,,,AAXX 27004 07761 12665 10508 10050 20030 30050 40061 52009 60006 81500 90000=
07761,1996-11-27 03:00:00,5,1006.8,0.7,87,3,15000,14.816,,,40,,,,,,,,,,,wg-a,,,,AAXX 27034 07761 12665 20408 10050 20030 30057 40068 50007 60006 82800 90300=
07761,1996-11-27 06:00:00,4,1007.5,0.7,93,3,15000,11.112,,,40,3.3,8.8,,,,,,,,,wg-a,,,,AAXX 27064 07761 02665 /0406 10040 20030 30064 40075 53007 60006 81500 90600 333 10088 20033 60004=
07761,1996-11-27 09:00:00,9,1008.7,1.2,81,6,20000,7.408,,,50,,,,,,,,,,,wg-a,,,,AAXX 27094 07761 12570 20504 10090 20060 30076 40087 51012 60006 82500 90900=
07761,1996-11-27 12:00:00,14,1009.2,0.5,63,7,40000,14.816,,,220,,,,,,,,,,,wg-a,,,,AAXX 27124 07761 12682 22208 10140 20070 30081 40092 50005 60006 82800 91200=
07761,1996-11-27 15:00:00,12,1009.3,0.1,62,5,40000,11.112,,,240,,,,,,,,,,,wg-a,,,,AAXX 27154 07761 12682 /2406 10120 20050 30082 40093 53001 60006 82880 91500=
07761,1996-11-27 18:00:00,10,1008.7,-0.6,87,8,15000,7.408,,,30,3.3,14.6,,1,,,,,,61,wg-a,,,,AAXX 27184 07761 12565 80304 10100 20080 30076 40087 55006 60017 76161 8387/ 91800 333 10146 20033=
07761,1996-11-27 21:00:00,9,1007.7,-1,93,8,12000,11.112,,,20,,,,10,,,,,,63,wg-a,,,,AAXX 27214 07761 12462 80206 10090 20080 30066 40077 58010 60107 76366 8487/ 92100=
07761,1996-11-28 00:00:00,15,1004.7,-3,82,12,10000,38.892,,,270,,,,2,,,,,,2,wg-a,,,,AAXX 28004 07761 02460 82721 10150 20120 30036 40047 58030 60126 70262 8687/ 90000 333 60027=
07761,1996-11-28 03:00:00,13,1003.4,-1.3,72,8,12000,11.112,,,300,,,,,,,,,,21,wg-a,,,,AAXX 28034 07761 02562 83006 10130 20080 30023 40034 58013 61000 72162 8487/ 90300 333 ////=
07761,1996-11-28 06:00:00,13,1003.2,-0.2,67,7,12000,25.928,,,280,8.6,14.8,,,,,12,,,1,wg-a,,,,AAXX 28064 07761 02562 82814 10130 20070 30021 40032 55002 60124 70162 8687/ 90600 333 10148 20086 61000=
07761,1996-11-28 09:00:00,12,1003.8,0.6,76,8,10000,25.928,,,290,,,,1,,,,,,27,wg-a,,,,AAXX 28094 07761 12660 62914 10120 20080 30027 40038 53006 60017 72787 86800 90900=
07761,1996-11-28 12:00:00,14,1003.1,-0.7,67,8,20000,25.928,,,290,,,,0,,,,,,25,wg-a,,,,AAXX 28124 07761 02670 /2914 10140 20080 30020 40031 58007 60016 72587 85200 91200 333 60007=
07761,1996-11-28 15:00:00,11,1003,-0.1,71,6,20000,25.928,,57.412,270,,,,,,,,,,,wg-a,,,,AAXX 28154 07761 12570 72714 10110 20060 30019 40030 55001 60006 872// 91500 333 91031=
07761,1996-11-28 18:00:00,8,1004.2,1.2,87,6,10000,22.224,,57.412,80,7.6,13.8,,1,,,,,,60,wg-a,,,,AAXX 28184 07761 12560 80812 10080 20060 30031 40042 53012 60017 76061 888// 91800 333 10138 20076 91031=
07761,1996-11-28 21:00:00,6,1006.2,2,87,4,10000,11.112,,,50,,,,1,,,,,,3,wg-a,,,,AAXX 28214 07761 12660 30506 10060 20040 30051 40062 53020 60017 70361 82530 92100=
07761,1996-11-29 00:00:00,5,1007.3,1.1,93,4,15000,11.112,,,50,,,,,,,,,,3,wg-a,,,,AAXX 29004 07761 12665 /0506 10050 20040 30062 40073 51011 60016 70361 81270 90000=
07761,1996-11-29 03:00:00,5,1008.3,1,93,4,15000,11.112,,,40,,,,,,,,,,,wg-a,,,,AAXX 29034 07761 12865 /0406 10050 20040 30072 40083 53010 60006 86070 90300=
07761,1996-11-29 06:00:00,3,1010.6,2.3,93,2,11000,11.112,,,50,3.3,8,,,,,3,,,,wg-a,,,,AAXX 29064 07761 12/61 /0506 10030 20020 30095 40106 53023 60034 90600 333 10080 20033=
07761,1996-11-29 09:00:00,7,1013.4,2.8,87,5,50000,7.408,,,70,,,,,,,,,,,wg-a,,,,AAXX 29094 07761 12684 30704 10070 20050 30123 40134 51028 60006 83830 90900=
07761,1996-11-29 12:00:00,14,1013.9,0.5,51,4,50000,7.408,,,200,,,,,,,,,,,wg-a,,,,AAXX 29124 07761 12784 /2004 10140 20040 30128 40139 50005 60006 81200 91200=
07761,1996-11-29 15:00:00,12,1014.2,0.3,44,0,40000,18.52,,,320,,,,,,,,,,,wg-a,,,,AAXX 29154 07761 12782 /3210 10120 20000 30131 40142 53003 60006 81401 91500=
07761,1996-11-29 18:00:00,6,1015.9,1.7,70,1,20000,11.112,,,100,2.4,14.5,,,,,,,,,wg-a,,,,AAXX 29184 07761 12/70 01006 10060 20010 30148 40159 51017 60006 80000 91800 333 10145 20024=
07761,1996-11-29 21:00:00,6,1015.9,0,75,2,15000,14.816,,,40,,,,,,,,,,,wg-a,,,,AAXX 29214 07761 12865 80408 10060 20020 30148 40159 50000 60006 8707/ 92100=
07761,1996-11-30 00:00:00,6,1013.8,-2.1,93,5,8000,11.112,,,30,,,,2,,,,,,61,wg-a,,,,AAXX 30004 07761 02558 80306 10060 20050 30127 40138 56021 60026 76161 855// 90000 333 60027=
07761,1996-11-30 03:00:00,7,1010.3,-3.5,100,7,8000,3.704,,,50,,,,6,,,,,,21,wg-a,,,,AAXX 30034 07761 12458 80502 10070 20070 30092 40103 58035 60067 72162 878// 90300=
07761,1996-11-30 06:00:00,14,1007.8,-2.5,77,10,10000,29.632,,,290,4.3,14.1,,,,,8,,,3,wg-a,,,,AAXX 30064 07761 12560 82916 10140 20100 30067 40078 56025 60084 70362 878// 90600 333 10141 20043=
07761,1996-11-30 09:00:00,15,1006,-1.8,72,10,10000,38.892,,,270,,,,,,,,,,3,wg-a,,,,AAXX 30094 07761 02560 82721 10150 20100 30049 40060 56018 61000 70362 878// 90900 333 ////=
07761,1996-11-30 12:00:00,15,1002.4,-3.6,77,11,10000,42.596,,75.932,270,,,,,,,,,,2,wg-a,,,,AAXX 30124 07761 02560 82723 10150 20110 30013 40024 58036 61000 70262 878// 91200 333 //// 91041=
07761,1996-11-30 15:00:00,15,1000,-2.4,82,12,8000,31.484,,68.524,270,,,,,,,,,,,wg-a,,,,AAXX 30154 07761 12458 82717 10150 20120 39989 40000 56024 60006 878// 91500 333 91037=
07761,1996-11-30 18:00:00,15,998.5,-1.5,51,5,10000,31.484,,68.524,300,13.9,15.8,,,,,,,,,wg-a,,,,AAXX 30184 07761 32560 53017 10150 20050 39974 49985 56015 84870 91800 333 10158 20139 91037=
07761,1996-11-30 21:00:00,13,998.7,0.2,62,6,15000,18.52,,48.152,330,,,,,,,,,,,wg-a,,,,AAXX 30214 07761 12765 /3310 10130 20060 39976 49987 53002 60006 81500 92100 333 91026=
07761,1996-12-01 00:00:00,9,1001.3,2.6,53,0,15000,7.408,,57.412,70,,,,,,,,,,,wg-a,,,,AAXX 01004 07761 12/65 00704 10090 20000 30002 40013 53026 60006 80000 90000 333 91031=
07761,1996-12-01 03:00:00,12,1003.1,1.8,44,0,15000,25.928,,50.004,320,,,,,,,,,,,wg-a,,,,AAXX 01034 07761 12/65 03214 10120 20000 30020 40031 51018 60006 80000 90300 333 91027=
07761,1996-12-01 06:00:00,13,1004.5,1.4,26,-6,500,25.928,,,340,7.7,14.8,,,,,,,,,wg-a,,,,AAXX 01064 07761 02600 13414 10130 21060 30034 40045 51014 60006 81100 90600 333 10148 20077 61000=
07761,1996-12-01 09:00:00,15,1006.8,2.3,31,-2,50000,22.224,,,330,,,,,,,,,,,wg-a,,,,AAXX 01094 07761 12684 /3312 10150 21020 30057 40068 51023 60006 81100 90900=
07761,1996-12-01 12:00:00,16,1006.8,0,21,-6,11000,35.188,,,330,,,,,,,,,,,wg-a,,,,AAXX 01124 07761 12/61 /3319 10160 21060 30057 40068 50000 60006 91200=
07761,1996-12-01 15:00:00,14,1007.9,1.1,36,-1,50000,25.928,,57.412,320,,,,,,,,,,,wg-a,,,,AAXX 01154 07761 12/84 03214 10140 21010 30068 40079 53011 60006 80000 91500 333 91031=
07761,1996-12-01 18:00:00,7,1011.4,3.5,61,0,25000,14.816,,57.412,60,7.1,16.2,,,,,,,,,wg-a,,,,AAXX 01184 07761 12/75 00608 10070 20000 30103 40114 53035 60006 80000 91800 333 10162 20071 91031=
07761,1996-12-01 21:00:00,4,1013.5,2.1,75,0,25000,18.52,,,60,,,,,,,,,,,wg-a,,,,AAXX 01214 07761 12/75 00610 10040 20000 30124 40135 53021 60006 80000 92100=
07761,1996-12-02 00:00:00,4,1014,0.5,65,-2,25000,14.816,,,40,,,,,,,,,,,wg-a,,,,AAXX 02004 07761 12/75 20408 10040 21020 30129 40140 53005 60006 80001 90000=
07761,1996-12-02 03:00:00,2,1013.7,-0.3,75,-2,25000,14.816,,,50,,,,,,,,,,,wg-a,,,,AAXX 02034 07761 12/75 /0508 10020 21020 30126 40137 56003 60006 80008 90300=
07761,1996-12-02 06:00:00,3,1013.6,-0.1,70,-2,25000,14.816,,,40,1.5,7.1,,,,,,,,,wg-a,,,,AAXX 02064 07761 02/75 80408 10030 21020 30125 40136 55001 60006 81077 90600 333 10071 20015 60004=
07761,1996-12-02 09:00:00,7,1012.9,-0.7,66,1,500,14.816,,,50,,,,,,,,,,,wg-a,,,,AAXX 02094 07761 12/00 70508 10070 20010 30118 40129 58007 60006 83072 90900=
07761,1996-12-02 12:00:00,14,1009.8,-3.1,44,2,500,3.704,,,210,,,,,,,,,,,wg-a,,,,AAXX 02124 07761 12/00 72102 10140 20020 30087 40098 58031 60006 84072 91200=
07761,1996-12-02 15:00:00,14,1009.7,-0.1,63,7,25000,7.408,,,300,,,,,,,,,,,wg-a,,,,AAXX 02154 07761 12675 73004 10140 20070 30086 40097 55001 60006 82872 91500=
07761,1996-12-02 18:00:00,9,1010.7,1,76,5,20000,11.112,,,50,2.8,14.9,,,,,,,,,wg-a,,,,AAXX 02184 07761 12/70 70506 10090 20050 30096 40107 53010 60006 82072 91800 333 10149 20028=
07761,1996-12-02 21:00:00,6,1013.1,2.4,87,4,20000,14.816,,,50,,,,,,,,,,,wg-a,,,,AAXX 02214 07761 12570 20508 10060 20040 30120 40131 52024 60006 81101 92100=
07761,1996-12-03 00:00:00,5,1014.9,1.8,87,3,20000,11.112,,,50,,,,,,,,,,,wg-a,,,,AAXX 03004 07761 12/70 10506 10050 20030 30138 40149 51018 60006 80001 90000=
07761,1996-12-03 03:00:00,4,1016.2,1.3,81,1,20000,18.52,,,50,,,,,,,,,,,wg-a,,,,AAXX 03034 07761 12/70 00510 10040 20010 30151 40162 51013 60006 80000 90300=
07761,1996-12-03 06:00:00,2,1016.5,0.3,75,-2,500,14.816,,,70,2,8.5,,,,,,,,,wg-a,,,,AAXX 03064 07761 02/00 00708 10020 21020 30154 40165 53003 60006 80000 90600 333 10085 20020 60004=
07761,1996-12-03 09:00:00,8,1017.8,1.3,57,0,40000,11.112,,,50,,,,,,,,,,,wg-a,,,,AAXX 03094 07761 12882 20506 10080 20000 30167 40178 51013 60006 81031 90900=
07761,1996-12-03 12:00:00,15,1016.9,-0.9,51,5,40000,11.112,,,230,,,,,,,,,,,wg-a,,,,AAXX 03124 07761 12/82 12306 10150 20050 30158 40169 58009 60006 80001 91200=
07761,1996-12-03 15:00:00,14,1016.7,-0.2,63,7,40000,25.928,,,220,,,,,,,,,,,wg-a,,,,AAXX 03154 07761 12682 /2214 10140 20070 30156 40167 55002 60006 81100 91500=
07761,1996-12-03 18:00:00,8,1017.4,0.7,81,5,25000,14.816,,,50,0.9,15.5,,,,,,,,,wg-a,,,,AAXX 03184 07761 12575 30508 10080 20050 30163 40174 51007 60006 83400 91800 333 10155 20009=
07761,1996-12-03 21:00:00,5,1017.7,0.3,87,3,25000,14.816,,,50,,,,,,,,,,,wg-a,,,,AAXX 03214 07761 12/75 /0508 10050 20030 30166 40177 53003 60006 80000 92100=
07761,1996-12-04 00:00:00,4,1017.4,-0.3,87,2,11000,18.52,,,50,,,,,,,,,,,wg-a,,,,AAXX 04004 07761 12/61 /0510 10040 20020 30163 40174 58003 60006 90000=
07761,1996-12-04 03:00:00,5,1016.7,-0.7,81,2,20000,18.52,,,40,,,,,,,,,,,wg-a,,,,AAXX 04034 07761 12570 /0410 10050 20020 30156 40167 58007 60006 81500 90300=
07761,1996-12-04 06:00:00,5,1016.7,-0,81,2,500,18.52,,,60,3.8,7.9,,,,,,,,,wg-a,,,,AAXX 04064 07761 02600 20610 10050 20020 30156 40167 55000 60006 82500 90600 333 10079 20038 60004=
07761,1996-12-04 09:00:00,10,1016.5,-0.2,71,5,50000,11.112,,,60,,,,,,,,,,,wg-a,,,,AAXX 04094 07761 12/84 00606 10100 20050 30154 40165 58002 60006 80000 90900=
07761,1996-12-04 12:00:00,16,1015.1,-1.4,48,5,50000,3.704,,,250,,,,,,,,,,,wg-a,,,,AAXX 04124 07761 12/84 /2502 10160 20050 30140 40151 58014 60006 81042 91200=
07761,1996-12-04 15:00:00,14,1013.9,-1.2,72,9,40000,11.112,,,240,,,,,,,,,,,wg-a,,,,AAXX 04154 07761 12/82 12406 10140 20090 30128 40139 56012 60006 80001 91500=
07761,1996-12-04 18:00:00,8,1013.9,-0,81,5,20000,7.408,,,60,4,16.9,,,,,,,,,wg-a,,,,AAXX 04184 07761 12/70 00604 10080 20050 30128 40139 55000 60006 80000 91800 333 10169 20040=
07761,1996-12-04 21:00:00,4,1015.2,1.3,87,2,20000,14.816,,,50,,,,,,,,,,,wg-a,,,,AAXX 04214 07761 12/70 00508 10040 20020 30141 40152 51013 60006 80000 92100=
07761,1996-12-05 00:00:00,3,1014.8,-0.4,81,0,10000,14.816,,,60,,,,,,,,,,,wg-a,,,,AAXX 05004 07761 12/60 /0608 10030 20000 30137 40148 56004 60006 90000=
07761,1996-12-05 03:00:00,3,1014.3,-0.5,87,1,20000,11.112,,,60,,,,,,,,,,,wg-a,,,,AAXX 05034 07761 12/70 10606 10030 20010 30132 40143 57005 60006 80001 90300=
07761,1996-12-05 06:00:00,5,1014.7,0.4,75,1,20000,14.816,,,40,2.5,7.9,,,,,,,,,wg-a,,,,AAXX 05064 07761 02570 20408 10050 20010 30136 40147 53004 60006 81101 90600 333 10079 20025 60004=
07761,1996-12-05 09:00:00,9,1015.1,0.4,66,3,500,11.112,,,50,,,,,,,,,,,wg-a,,,,AAXX 05094 07761 12/00 20506 10090 20030 30140 40151 53004 60006 82032 90900=
07761,1996-12-05 12:00:00,16,1014,-1.1,48,5,40000,3.704,,,200,,,,,,,,,,,wg-a,,,,AAXX 05124 07761 12/82 32002 10160 20050 30129 40140 58011 60006 83032 91200=
07761,1996-12-05 15:00:00,15,1012.7,-1.3,59,7,500,3.704,,,50,,,,,,,,,,,wg-a,,,,AAXX 05154 07761 12/00 /0502 10150 20070 30116 40127 56013 60006 86032 91500=
07761,1996-12-05 18:00:00,9,1013.4,0.7,76,5,25000,14.816,,,50,3.1,16.8,,,,,,,,,wg-a,,,,AAXX 05184 07761 12/75 /0508 10090 20050 30123 40134 53007 60006 81032 91800 333 10168 20031=
07761,1996-12-05 21:00:00,8,1014,0.6,81,5,20000,11.112,,,50,,,,,,,,,,,wg-a,,,,AAXX 05214 07761 12770 /0506 10080 20050 30129 40140 51006 60006 81501 92100=
07761,1996-12-06 00:00:00,7,1013.8,-0.2,87,5,20000,14.816,,,50,,,,,,,,,,,wg-a,,,,AAXX 06004 07761 12770 30508 10070 20050 30127 40138 55002 60006 83500 90000=
07761,1996-12-06 03:00:00,12,1013.3,-0.5,71,7,20000,11.112,,,40,,,,,,,,,,,wg-a,,,,AAXX 06034 07761 12670 /0406 10120 20070 30122 40133 58005 60006 85800 90300=
07761,1996-12-06 06:00:00,10,1014.1,0.8,82,7,20000,14.816,,,50,7.1,13.1,,,,,,,,,wg-a,,,,AAXX 06064 07761 02770 60508 10100 20070 30130 40141 51008 60006 82570 90600 333 10131 20071 60004=
07761,1996-12-06 09:00:00,13,1014.9,0.8,77,9,40000,11.112,,,60,,,,,,,,,,,wg-a,,,,AAXX 06094 07761 12682 80606 10130 20090 30138 40149 51008 60006 81802 90900=
07761,1996-12-06 11:00:00,17,1014.5,-0.4,59,9,40000,7.408,,,190,,,,,,,,,,,wg-a,,,,AAXX 06114 07761 12682 81904 10170 20090 30134 40145 58004 60006 81802 91100=
07761,1996-12-06 12:00:00,18,1014.5,-0.4,64,11,40000,7.408,,,190,,,,,,,,,,,wg-a,,,,AAXX 06124 07761 12682 81904 10180 20110 30134 40145 58004 60006 81802 91200=
07761,1996-12-06 15:00:00,17,1014.6,0.1,63,10,40000,0,,,0,,,,,,,,,,,wg-a,,,,AAXX 06154 07761 12682 /0000 10170 20100 30135 40146 52001 60006 81802 91500=
07761,1996-12-06 18:00:00,13,1015.3,0.7,77,9,20000,3.704,,,340,9.3,18.5,,,,,,,,,wg-a,,,,AAXX 06184 07761 12770 83402 10130 20090 30142 40153 53007 60006 81582 91800 333 10185 20093=
07761,1996-12-06 21:00:00,10,1016,0.7,82,7,20000,14.816,,,50,,,,,,,,,,,wg-a,,,,AAXX 06214 07761 12770 20508 10100 20070 30149 40160 50007 60006 81501 92100=
07761,1996-12-07 00:00:00,13,1016.2,0.2,72,8,20000,18.52,,,80,,,,,,,,,,,wg-a,,,,AAXX 07004 07761 12670 50810 10130 20080 30151 40162 50002 60006 82532 90000=
07761,1996-12-07 03:00:00,11,1016.3,0.1,76,7,20000,14.816,,,40,,,,,,,,,,,wg-a,,,,AAXX 07034 07761 12/70 50408 10110 20070 30152 40163 50001 60006 81032 90300=
07761,1996-12-07 06:00:00,9,1017.2,0.9,87,7,20000,18.52,,,50,9,14.1,,,,,,,,,wg-a,,,,AAXX 07064 07761 02770 30510 10090 20070 30161 40172 53009 60006 81232 90600 333 10141 20090 60004=
07761,1996-12-07 09:00:00,12,1018.1,0.9,82,9,500,11.112,,,60,,,,,,,,,,,wg-a,,,,AAXX 07094 07761 12700 70606 10120 20090 30170 40181 51009 60006 81268 90900=
07761,1996-12-07 12:00:00,20,1017.6,-0.5,49,9,500,25.928,,,100,,,,,,,,,,,wg-a,,,,AAXX 07124 07761 12700 81014 10200 20090 30165 40176 58005 60006 81267 91200=
07761,1996-12-07 15:00:00,19,1017.3,-0.3,46,7,500,11.112,,,90,,,,,,,,,,,wg-a,,,,AAXX 07154 07761 12700 70906 10190 20070 30162 40173 55003 60006 81208 91500=
07761,1996-12-07 18:00:00,14,1017.6,0.3,63,7,15000,7.408,,,120,9.1,19.7,,,,,,,,,wg-a,,,,AAXX 07184 07761 12/65 /1204 10140 20070 30165 40176 53003 60006 81032 91800 333 10197 20091=
07761,1996-12-07 21:00:00,16,1017.4,-0.2,51,6,15000,3.704,,,330,,,,,,,,,,,wg-a,,,,AAXX 07214 07761 12/65 /3302 10160 20060 30163 40174 55002 60006 81032 92100=
07761,1996-12-08 00:00:00,17,1015.5,-1.9,48,6,1500,18.52,,,20,,,,,,,,,,21,wg-a,,,,AAXX 08004 07761 02615 70210 10170 20060 30144 40155 58019 61000 72161 82572 90000 333 6100=
07761,1996-12-08 03:00:00,13,1017,1.5,72,8,15000,11.112,,,50,,,,,,,,,,,wg-a,,,,AAXX 08034 07761 12665 70506 10130 20080 30159 40170 51015 60006 83572 90300=
07761,1996-12-08 06:00:00,17,1016.3,-0.7,52,7,15000,14.816,,,90,12.5,18.1,,,,,,,,,wg-a,,,,AAXX 08064 07761 02665 70908 10170 20070 30152 40163 56007 61000 83572 90600 333 10181 20125 ////=
07761,1996-12-08 09:00:00,14,1018.2,1.9,82,11,10000,25.928,,,230,,,,0,,,,,,61,wg-a,,,,AAXX 08094 07761 12660 82314 10140 20110 30171 40182 53019 60007 76162 8582/ 90900=
07761,1996-12-08 12:00:00,14,1015.8,-2.4,77,10,25000,11.112,,,50,,,,2,,,,,,1,wg-a,,,,AAXX 08124 07761 02775 80506 10140 20100 30147 40158 56024 60026 70162 8457/ 91200 333 60027=
07761,1996-12-08 15:00:00,13,1014.6,-1.2,82,10,25000,3.704,,,310,,,,,,,,,,15,wg-a,,,,AAXX 08154 07761 02775 83102 10130 20100 30135 40146 55012 61000 71562 8552/ 91500 333 ////=
07761,1996-12-08 18:00:00,12,1016.1,1.5,94,11,12000,7.408,,,40,11.6,16.9,,4,,,,,,61,wg-a,,,,AAXX 08184 07761 12662 80404 10120 20110 30150 40161 53015 60047 76162 8682/ 91800 333 10169 20116=
07761,1996-12-08 21:00:00,11,1015.2,-0.9,100,11,12000,3.704,,,50,,,,5,,,,,,21,wg-a,,,,AAXX 08214 07761 12762 80502 10110 20110 30141 40152 58009 60057 72162 8457/ 92100=
07761,1996-12-09 00:00:00,11,1011.2,-4,94,10,12000,3.704,,,70,,,,4,,,,,,61,wg-a,,,,AAXX 09004 07761 02762 80702 10110 20100 30101 40112 58040 60096 76162 8457/ 90000 333 60047=
07761,1996-12-09 03:00:00,12,1009.5,-1.7,82,9,12000,3.704,,,280,,,,5,,,,,,21,wg-a,,,,AAXX 09034 07761 12762 82802 10120 20090 30084 40095 56017 60057 72162 8457/ 90300=
07761,1996-12-09 06:00:00,12,1010.9,1.4,88,10,10000,25.928,,,200,10.5,12.9,,1,,,20,,,60,wg-a,,,,AAXX 09064 07761 02560 82014 10120 20100 30098 40109 53014 60204 76062 8687/ 90600 333 10129 20105 60017=
07761,1996-12-09 09:00:00,14,1012.5,1.6,77,10,40000,11.112,,,30,,,,,,,,,,1,wg-a,,,,AAXX 09094 07761 02682 20306 10140 20100 30114 40125 51016 61000 70161 82231 90900 333 ////=
07761,1996-12-09 12:00:00,19,1011.8,-0.7,46,7,40000,11.112,,,130,,,,,,,,,,3,wg-a,,,,AAXX 09124 07761 02682 21306 10190 20070 30107 40118 58007 61000 70361 81242 91200 333 ////=
07761,1996-12-09 15:00:00,18,1010.6,-1.2,49,7,500,3.704,,,120,,,,,,,,,,,wg-a,,,,AAXX 09154 07761 12600 /1202 10180 20070 30095 40106 56012 60006 81963 91500=
07761,1996-12-09 18:00:00,14,1010.6,0,58,6,20000,14.816,,,60,11.9,19.1,,,,,,,,13,wg-a,,,,AAXX 09184 07761 32670 70608 10140 20060 30095 40106 50000 71311 83973 91800 333 10191 20119=
07761,1996-12-09 21:00:00,12,1010.1,-0.5,76,8,20000,18.52,,,30,,,,,,,,,,60,wg-a,,,,AAXX 09214 07761 02570 70310 10120 20080 30090 40101 56005 61000 76062 83973 92100 333 ////=
07761,1996-12-10 00:00:00,10,1008.7,-1.4,93,9,15000,14.816,,,40,,,,1,,,,,,61,wg-a,,,,AAXX 10004 07761 02565 80408 10100 20090 30076 40087 58014 60016 76162 8297/ 90000 333 60017=
07761,1996-12-10 03:00:00,10,1007.8,-0.9,87,8,11000,11.112,,,40,,,,,,,,,,,wg-a,,,,AAXX 10034 07761 32/61 /0406 10100 20080 30067 40078 58009 90300=
07761,1996-12-10 06:00:00,9,1007.6,-0.2,93,8,15000,7.408,,,50,8.8,14.5,,1,,,3,,,21,wg-a,,,,AAXX 10064 07761 02565 /0504 10090 20080 30065 40076 55002 60034 72162 82970 90600 333 10145 20088 60017=
07761,1996-12-10 09:00:00,10,1009.5,1.9,87,8,15000,7.408,,,60,,,,,,,,,,,wg-a,,,,AAXX 10094 07761 12765 /0604 10100 20080 30084 40095 53019 60006 8557/ 90900=
07761,1996-12-10 12:00:00,14,1008.6,-0.9,77,10,15000,3.704,,,200,,,,,,,,,,2,wg-a,,,,AAXX 10124 07761 02665 52002 10140 20100 30075 40086 58009 61000 70262 83871 91200 333 6100=
07761,1996-12-10 15:00:00,13,1008.6,-0,72,8,15000,11.112,,,320,,,,,,,,,,,wg-a,,,,AAXX 10154 07761 12665 /3206 10130 20080 30075 40086 55000 60006 83932 91500=
07761,1996-12-10 18:00:00,10,1009.7,1.1,87,8,15000,11.112,,,60,8.4,13.9,,,,,,,,,wg-a,,,,AAXX 10184 07761 32765 /0606 10100 20080 30086 40097 51011 83532 91800 333 10139 20084=
07761,1996-12-10 21:00:00,7,1009.8,0.1,87,5,20000,14.816,,,70,,,,,,,,,,,wg-a,,,,AAXX 10214 07761 12770 20708 10070 20050 30087 40098 53001 60006 81502 92100=
07761,1996-12-11 00:00:00,8,1009.2,-0.6,87,6,20000,3.704,,,80,,,,,,,,,,,wg-a,,,,AAXX 11004 07761 12770 /0802 10080 20060 30081 40092 58006 60006 85500 90000=
07761,1996-12-11 03:00:00,9,1009.3,0.1,93,8,16000,11.112,,,60,,,,2,,,,,,60,wg-a,,,,AAXX 11034 07761 12666 80606 10090 20080 30082 40093 50001 60027 76062 8697/ 90300=
07761,1996-12-11 06:00:00,8,1009.1,-0.2,87,6,20000,7.408,,,90,7.3,10.6,,,,,2,,,3,wg-a,,,,AAXX 11064 07761 02670 50904 10080 20060 30080 40091 55002 60024 70361 83833 90600 333 10106 20073 61000=
07761,1996-12-11 09:00:00,10,1010.1,1,87,8,20000,3.704,,,40,,,,,,,,,,60,wg-a,,,,AAXX 11094 07761 02670 70402 10100 20080 30090 40101 52010 61000 76061 85963 90900 333 ////=
07761,1996-12-11 12:00:00,12,1011.1,1,88,10,10000,11.112,,,170,,,,0,,,,,,60,wg-a,,,,AAXX 11124 07761 02560 71706 10120 20100 30100 40111 51010 60016 76061 8497/ 91200 333 60007=
07761,1996-12-11 15:00:00,13,1012.2,1.1,82,10,20000,7.408,,,90,,,,,,,,,,1,wg-a,,,,AAXX 11154 07761 02570 /0904 10130 20100 30111 40122 53011 61000 70162 83872 91500 333 ////=
07761,1996-12-11 18:00:00,9,1012.8,0.6,87,7,20000,11.112,,,50,6.6,13.2,,,,,,,,1,wg-a,,,,AAXX 11184 07761 32570 /0506 10090 20070 30117 40128 53006 70161 81500 91800 333 10132 20066=
07761,1996-12-11 21:00:00,7,1014.2,1.4,93,6,20000,7.408,,,40,,,,,,,,,,,wg-a,,,,AAXX 11214 07761 12570 20404 10070 20060 30131 40142 51014 60006 82500 92100=
07761,1996-12-12 00:00:00,9,1014.6,0.4,87,7,12000,14.816,,,30,,,,,,,,,,,wg-a,,,,AAXX 12004 07761 12562 70308 10090 20070 30135 40146 50004 60006 875// 90000=
07761,1996-12-12 03:00:00,9,1015.1,0.5,87,7,12000,7.408,,,50,,,,,,,,,,,wg-a,,,,AAXX 12034 07761 12462 70504 10090 20070 30140 40151 51005 60006 875// 90300=
07761,1996-12-12 06:00:00,8,1015.6,0.5,93,7,12000,7.408,,,60,6.7,9.6,,,,,,,,,wg-a,,,,AAXX 12064 07761 02462 /0604 10080 20070 30145 40156 53005 60006 84800 90600 333 10096 20067 60004=
07761,1996-12-12 09:00:00,11,1017.2,1.6,82,8,25000,7.408,,,60,,,,,,,,,,,wg-a,,,,AAXX 12094 07761 12475 70604 10110 20080 30161 40172 53016 60006 8487/ 90900=
07761,1996-12-12 12:00:00,13,1016.5,-0.7,82,10,15000,3.704,,,50,,,,,,,,,,,wg-a,,,,AAXX 12124 07761 12565 70502 10130 20100 30154 40165 58007 60006 8587/ 91200=
07761,1996-12-12 15:00:00,13,1015.6,-0.9,88,11,15000,7.408,,,90,,,,0,,,,,,60,wg-a,,,,AAXX 12154 07761 12565 80904 10130 20110 30145 40156 56009 60007 76062 8487/ 91500=
07761,1996-12-12 18:00:00,12,1015.8,0.2,88,10,15000,11.112,,,60,8.4,13.8,,0,,,,,,21,wg-a,,,,AAXX 12184 07761 12465 80606 10120 20100 30147 40158 50002 60007 72162 8687/ 91800 333 10138 20084=
07761,1996-12-12 21:00:00,11,1015.6,-0.2,94,10,15000,11.112,,,50,,,,,,,,,,25,wg-a,,,,AAXX 12214 07761 02565 80506 10110 20100 30145 40156 58002 61000 72586 8687/ 92100 333 ////=
07761,1996-12-13 00:00:00,11,1014.2,-1.4,87,9,15000,7.408,,,50,,,,,,,,,,3,wg-a,,,,AAXX 13004 07761 02665 80504 10110 20090 30131 40142 58014 61000 70386 8387/ 90000 333 ////=
07761,1996-12-13 03:00:00,11,1012.9,-1.3,87,9,15000,3.704,,,40,,,,,,,,,,,wg-a,,,,AAXX 13034 07761 12565 80402 10110 20090 30118 40129 56013 60006 875// 90300=
07761,1996-12-13 06:00:00,11,1011.5,-1.4,94,10,15000,7.408,,,60,10.5,11.7,,1,,,1,,,60,wg-a,,,,AAXX 13064 07761 02565 80604 10110 20100 30104 40115 56014 60014 76062 885// 90600 333 10117 20105 60017=
07761,1996-12-13 09:00:00,12,1010.4,-1.1,94,11,16000,11.112,,,50,,,,1,,,,,,60,wg-a,,,,AAXX 13094 07761 12466 80506 10120 20110 30093 40104 56011 60017 76065 8687/ 90900=
07761,1996-12-13 12:00:00,14,1007.8,-2.6,94,13,17000,3.704,,,40,,,,,,,,,,21,wg-a,,,,AAXX 13124 07761 02467 80402 10140 20130 30067 40078 58026 60016 72165 8687/ 91200 333 61000=
07761,1996-12-13 15:00:00,15,1005.3,-2.5,88,13,13000,25.928,,,200,,,,,,,,,,,wg-a,,,,AAXX 13154 07761 12463 82014 10150 20130 30042 40053 56025 60006 878// 91500=
07761,1996-12-13 18:00:00,15,1004.1,-1.2,88,13,10000,7.408,,,190,11,15.4,,,,,,,,,wg-a,,,,AAXX 13184 07761 32460 81904 10150 20130 30030 40041 58012 878// 91800 333 10154 20110=
07761,1996-12-13 21:00:00,14,1003,-1.1,94,13,10000,18.52,,,200,,,,3,,,,,,61,wg-a,,,,AAXX 13214 07761 12460 82010 10140 20130 30019 40030 58011 60037 76165 878// 92100=
07761,1996-12-14 00:00:00,14,1002,-1,94,13,10000,3.704,,,270,,,,3,,,,,,61,wg-a,,,,AAXX 14004 07761 02460 82702 10140 20130 30009 40020 56010 60066 76165 8687/ 90000 333 60037=
07761,1996-12-14 03:00:00,14,1000.5,-1.5,94,13,10000,22.224,,,210,,,,0,,,,,,21,wg-a,,,,AAXX 14034 07761 12460 82112 10140 20130 39994 40005 56015 60007 72162 878// 90300=
07761,1996-12-14 06:00:00,14,1000.4,-0.1,94,13,10000,14.816,,,210,13.5,15.1,,,,,7,,,1,wg-a,,,,AAXX 14064 07761 12460 82108 10140 20130 39993 40004 55001 60074 70162 878// 90600 333 10151 20135=
07761,1996-12-14 09:00:00,14,1001.2,0.8,94,13,8000,18.52,,,210,,,,,,,,,,,wg-a,,,,AAXX 14094 07761 12358 72110 10140 20130 30001 40012 53008 60006 878// 90900=
07761,1996-12-14 12:00:00,16,1000.3,-0.9,94,15,500,22.224,,,210,,,,,,,,,,,wg-a,,,,AAXX 14124 07761 12300 82112 10160 20150 39992 40003 58009 60006 8683/ 91200=
07761,1996-12-14 15:00:00,15,1000,-0.3,94,14,500,22.224,,,210,,,,,,,,,,,wg-a,,,,AAXX 14154 07761 12400 72112 10150 20140 39989 40000 55003 60006 8683/ 91500=
07761,1996-12-14 18:00:00,14,1000.7,0.7,94,13,6000,7.408,,,230,13.5,16.4,,24,,,,,,81,wg-a,,,,AAXX 14184 07761 12356 82304 10140 20130 39996 40007 51007 60247 78198 879// 91800 333 10164 20135=
07761,1996-12-14 21:00:00,12,1002.3,1.6,94,11,15000,3.704,,,90,,,,3,,,,,,13,wg-a,,,,AAXX 14214 07761 12465 70902 10120 20110 30012 40023 51016 60037 71396 85930 92100=
07761,1996-12-15 00:00:00,11,1003.4,1.1,94,10,10000,7.408,,,70,,,,,,,,,,61,wg-a,,,,AAXX 15004 07761 02460 /0704 10110 20100 30023 40034 51011 60036 76196 86800 90000 333 61000=
07761,1996-12-15 03:00:00,9,1004.9,1.5,93,8,17000,11.112,,,50,,,,,,,,,,2,wg-a,,,,AAXX 15034 07761 02/67 10506 10090 20080 30038 40049 53015 61000 70261 80002 90300 333 ////=
07761,1996-12-15 06:00:00,9,1007.3,2.4,93,8,17000,14.816,,,40,7.6,14,,,,,27,,,3,wg-a,,,,AAXX 15064 07761 12567 70408 10090 20080 30062 40073 53024 60274 70361 8683/ 90600 333 10140 20076=
07761,1996-12-15 09:00:00,12,1009.6,2.3,82,9,50000,7.408,,,40,,,,,,,,,,,wg-a,,,,AAXX 15094 07761 12784 /0404 10120 20090 30085 40096 51023 60006 81130 90900=
07761,1996-12-15 12:00:00,16,1010.2,0.6,77,12,40000,11.112,,,210,,,,0,,,,,,,wg-a,,,,AAXX 15124 07761 02582 /2106 10160 20120 30091 40102 50006 60006 81200 91200 333 60007=
07761,1996-12-15 15:00:00,16,1011.2,1,77,12,20000,7.408,,,190,,,,,,,,,,,wg-a,,,,AAXX 15154 07761 12570 /1904 10160 20120 30101 40112 53010 60006 81400 91500=
07761,1996-12-15 18:00:00,10,1013.1,1.9,93,9,0,11.112,,,50,8.3,17.4,,,,,,,,,wg-a,,,,AAXX 15184 07761 32/// /0506 10100 20090 30120 40131 53019 91800 333 10174 20083=
07761,1996-12-15 21:00:00,8,1014.8,1.7,93,7,15000,11.112,,,50,,,,,,,,,,,wg-a,,,,AAXX 15214 07761 12565 /0506 10080 20070 30137 40148 51017 60006 81500 92100=
07761,1996-12-16 00:00:00,6,1015.8,1,100,6,15000,11.112,,,60,,,,,,,,,,,wg-a,,,,AAXX 16004 07761 12/65 00606 10060 20060 30147 40158 51010 60006 80000 90000=
07761,1996-12-16 03:00:00,6,1016.1,0.3,93,5,15000,14.816,,,50,,,,,,,,,,,wg-a,,,,AAXX 16034 07761 12565 /0508 10060 20050 30150 40161 52003 60006 81500 90300=
07761,1996-12-16 06:00:00,6,1016.2,0.1,93,5,20000,11.112,,,50,5.3,10.5,,0,,,,,,,wg-a,,,,AAXX 16064 07761 02/70 /0506 10060 20050 30151 40162 53001 60004 80000 90600 333 10105 20053 60007=
07761,1996-12-16 09:00:00,10,1017.8,1.6,87,8,11000,11.112,,,50,,,,,,,,,,,wg-a,,,,AAXX 16094 07761 12/61 /0506 10100 20080 30167 40178 51016 60006 90900=
07761,1996-12-16 12:00:00,14,1017.6,-0.2,82,11,35000,7.408,,,220,,,,,,,,,,,wg-a,,,,AAXX 16124 07761 12681 52204 10140 20110 30165 40176 58002 60006 85800 91200=
07761,1996-12-16 15:00:00,13,1017.5,-0.1,88,11,25000,0,,,0,,,,,,,,,,,wg-a,,,,AAXX 16154 07761 12575 70000 10130 20110 30164 40175 55001 60006 878// 91500=
07761,1996-12-16 18:00:00,12,1018.1,0.6,94,11,20000,7.408,,,20,5.3,15.3,,,,,,,,,wg-a,,,,AAXX 16184 07761 12770 /0204 10120 20110 30170 40181 52006 60006 86500 91800 333 10153 20053=
07761,1996-12-16 21:00:00,10,1019.1,1,93,9,15000,11.112,,,60,,,,,,,,,,,wg-a,,,,AAXX 16214 07761 12765 80606 10100 20090 30180 40191 52010 60006 877// 92100=
07761,1996-12-17 00:00:00,10,1018.8,-0.3,93,9,15000,11.112,,,60,,,,0,,,,,,3,wg-a,,,,AAXX 17004 07761 02765 70606 10100 20090 30177 40188 58003 60016 70361 875// 90000 333 60007=
07761,1996-12-17 03:00:00,9,1018,-0.8,93,8,15000,7.408,,,100,,,,,,,,,,,wg-a,,,,AAXX 17034 07761 12765 /1004 10090 20080 30169 40180 58008 60006 81500 90300=
07761,1996-12-17 06:00:00,7,1018.3,0.3,93,6,15000,14.816,,,50,7,12.4,,,,,,,,,wg-a,,,,AAXX 17064 07761 12765 40508 10070 20060 30172 40183 53003 60004 83570 90600 333 10124 20070=
07761,1996-12-17 09:00:00,10,1019.2,0.9,93,9,25000,7.408,,,60,,,,,,,,,,,wg-a,,,,AAXX 17094 07761 12675 70604 10100 20090 30181 40192 52009 60006 878// 90900=
07761,1996-12-17 12:00:00,14,1017.8,-1.4,82,11,500,0,,,0,,,,,,,,,,,wg-a,,,,AAXX 17124 07761 12600 /0000 10140 20110 30167 40178 58014 60006 86800 91200=
07761,1996-12-17 15:00:00,14,1017.6,-0.2,72,9,500,7.408,,,240,,,,,,,,,,,wg-a,,,,AAXX 17154 07761 12500 /2404 10140 20090 30165 40176 55002 60006 81100 91500=
07761,1996-12-17 18:00:00,10,1018,0.4,87,8,500,14.816,,,50,7.2,16,,,,,,,,,wg-a,,,,AAXX 17184 07761 12/00 00508 10100 20080 30169 40180 52004 60006 80000 91800 333 10160 20072=
07761,1996-12-17 21:00:00,7,1018.6,0.6,93,6,20000,11.112,,,50,,,,,,,,,,,wg-a,,,,AAXX 17214 07761 12570 10506 10070 20060 30175 40186 51006 60006 81500 92100=
07761,1996-12-18 00:00:00,6,1018,-0.6,93,5,15000,14.816,,,50,,,,,,,,,,,wg-a,,,,AAXX 18004 07761 12/65 10508 10060 20050 30169 40180 58006 60006 80002 90000=
07761,1996-12-18 03:00:00,5,1016.9,-1.1,93,4,20000,11.112,,,60,,,,,,,,,,,wg-a,,,,AAXX 18034 07761 12/70 10606 10050 20040 30158 40169 58011 60006 80002 90300=
07761,1996-12-18 06:00:00,5,1016.7,-0.2,93,4,20000,11.112,,,50,4.9,9.5,,,,,,,,,wg-a,,,,AAXX 18064 07761 02/70 00506 10050 20040 30156 40167 55002 60006 80000 90600 333 10095 20049 60004=
07761,1996-12-18 09:00:00,10,1016.2,-0.5,82,7,500,11.112,,,50,,,,,,,,,,,wg-a,,,,AAXX 18094 07761 12600 /0506 10100 20070 30151 40162 55005 60006 81139 90900=
07761,1996-12-18 12:00:00,14,1014.8,-1.4,72,9,50000,3.704,,,250,,,,0,,,,,,,wg-a,,,,AAXX 18124 07761 02684 22502 10140 20090 30137 40148 58014 60006 81109 91200 333 60007=
07761,1996-12-18 15:00:00,14,1013.5,-1.3,82,11,500,7.408,,,220,,,,,,,,,,,wg-a,,,,AAXX 18154 07761 12500 /2204 10140 20110 30124 40135 56013 60006 81400 91500=
07761,1996-12-18 18:00:00,9,1013.7,0.2,87,7,20000,11.112,,,50,4.7,15.7,,,,,,,,,wg-a,,,,AAXX 18184 07761 12/70 /0506 10090 20070 30126 40137 52002 60006 80000 91800 333 10157 20047=
07761,1996-12-18 21:00:00,6,1013.2,-0.5,93,5,20000,11.112,,,50,,,,,,,,,,,wg-a,,,,AAXX 18214 07761 12/70 00506 10060 20050 30121 40132 56005 60006 80000 92100=
07761,1996-12-19 00:00:00,6,1011.5,-1.7,93,5,20000,14.816,,,50,,,,,,,,,,,wg-a,,,,AAXX 19004 07761 12/70 20508 10060 20050 30104 40115 58017 60006 82072 90000=
07761,1996-12-19 03:00:00,7,1011,-0.5,87,5,20000,14.816,,,60,,,,,,,,,,,wg-a,,,,AAXX 19034 07761 12/70 30608 10070 20050 30099 40110 58005 60006 80001 90300=
07761,1996-12-19 06:00:00,7,1008.7,-2.3,87,5,20000,3.704,,,70,5.2,8.5,,,,,,,,,wg-a,,,,AAXX 19064 07761 02870 70702 10070 20050 30076 40087 58023 60006 8707/ 90600 333 10085 20052 60004=
07761,1996-12-19 09:00:00,10,1008.9,0.2,82,7,50000,11.112,,,70,,,,,,,,,,,wg-a,,,,AAXX 19094 07761 12884 70706 10100 20070 30078 40089 50002 60006 86072 90900=
07761,1996-12-19 12:00:00,13,1006.6,-2.3,77,9,20000,7.408,,,210,,,,,,,,,,21,wg-a,,,,AAXX 19124 07761 02770 72104 10130 20090 30055 40066 58023 61000 72162 8128/ 91200 333 6100=
07761,1996-12-19 15:00:00,14,1004.7,-1.9,72,9,20000,11.112,,,50,,,,,,,,,,21,wg-a,,,,AAXX 19154 07761 02870 80506 10140 20090 30036 40047 57019 61000 72162 8707/ 91500 333 ////=
07761,1996-12-19 18:00:00,14,1004,-0.7,77,10,15000,7.408,,,30,6.9,14.1,,,,,,,,21,wg-a,,,,AAXX 19184 07761 02665 80304 10140 20100 30029 40040 58007 61000 72162 885// 91800 333 10141 20069 6000=
07761,1996-12-19 21:00:00,13,1003,-1,88,11,15000,11.112,,,60,,,,,,,,,,60,wg-a,,,,AAXX 19214 07761 02665 80606 10130 20110 30019 40030 58010 61000 76062 875// 92100 333 ////=
07761,1996-12-20 00:00:00,13,1003.3,0.3,100,13,8000,18.52,,,200,,,,9,,,,,,63,wg-a,,,,AAXX 20004 07761 02458 82010 10130 20130 30022 40033 50003 60096 76362 888// 90000 333 60097=
07761,1996-12-20 03:00:00,13,1002.7,-0.6,94,12,10000,7.408,,,60,,,,3,,,,,,60,wg-a,,,,AAXX 20034 07761 12360 80604 10130 20120 30016 40027 58006 60037 76066 888// 90300=
07761,1996-12-20 06:00:00,13,1002.5,-0.2,100,13,15000,14.816,,,180,12,13.6,,,,,12,,,1,wg-a,,,,AAXX 20064 07761 02465 71808 10130 20130 30014 40025 56002 60006 70161 875// 90600 333 10136 20120 60124=
07761,1996-12-20 09:00:00,14,1004.7,2.2,94,13,7000,18.52,,,200,,,,0,,,,,,3,wg-a,,,,AAXX 20094 07761 12457 72010 10140 20130 30036 40047 53022 60007 70362 878// 90900=
07761,1996-12-20 12:00:00,16,1004.8,0.1,82,13,9000,14.816,,,210,,,,0,,,,,,1,wg-a,,,,AAXX 20124 07761 02559 42108 10160 20130 30037 40048 50001 60016 70186 84900 91200 333 60007=
07761,1996-12-20 15:00:00,15,1005.4,0.6,82,12,15000,3.704,,,180,,,,,,,,,,,wg-a,,,,AAXX 20154 07761 12565 51802 10150 20120 30043 40054 53006 60006 85200 91500=
07761,1996-12-20 18:00:00,12,1006.4,1,88,10,15000,7.408,,,60,11.8,16.2,,,,,,,,,wg-a,,,,AAXX 20184 07761 12565 80604 10120 20100 30053 40064 51010 60006 8683/ 91800 333 10162 20118=
07761,1996-12-20 21:00:00,12,1007.5,1.1,88,10,15000,14.816,,,60,,,,,,,,,,1,wg-a,,,,AAXX 20214 07761 02465 80608 10120 20100 30064 40075 51011 61000 70162 8583/ 92100 333 ////=
07761,1996-12-21 00:00:00,12,1007.4,-0.1,88,10,10000,11.112,,,20,,,,3,,,,,,25,wg-a,,,,AAXX 21004 07761 02460 80206 10120 20100 30063 40074 58001 60036 72586 888// 90000 333 60037=
07761,1996-12-21 03:00:00,12,1008.1,0.7,94,11,10000,11.112,,,60,,,,,,,,,,,wg-a,,,,AAXX 21034 07761 12460 70606 10120 20110 30070 40081 51007 60006 878// 90300=
07761,1996-12-21 06:00:00,12,1008.9,0.8,88,10,15000,14.816,,,50,11.4,12.3,,,,,3,,,,wg-a,,,,AAXX 21064 07761 02465 /0508 10120 20100 30078 40089 53008 60006 86500 90600 333 10123 20114 60034=
07761,1996-12-21 09:00:00,14,1010.3,1.4,88,12,20000,14.816,,,50,,,,,,,,,,,wg-a,,,,AAXX 21094 07761 12770 70508 10140 20120 30092 40103 51014 60006 8353/ 90900=
07761,1996-12-21 12:00:00,20,1009,-1.3,53,10,35000,3.704,,,50,,,,,,,,,,,wg-a,,,,AAXX 21124 07761 12781 60502 10200 20100 30079 40090 58013 60006 82531 91200=
07761,1996-12-21 15:00:00,18,1007.8,-1.2,73,13,500,3.704,,,300,,,,,,,,,,,wg-a,,,,AAXX 21154 07761 12700 73002 10180 20130 30067 40078 55012 60006 82542 91500=
07761,1996-12-21 18:00:00,13,1008.2,0.4,88,11,25000,3.704,,,90,11.7,21.3,,,,,,,,,wg-a,,,,AAXX 21184 07761 12/75 70902 10130 20110 30071 40082 53004 60006 85032 91800 333 10213 20117=
07761,1996-12-21 21:00:00,12,1009.2,1,82,9,25000,3.704,,,60,,,,,,,,,,,wg-a,,,,AAXX 21214 07761 12/75 70602 10120 20090 30081 40092 51010 60006 82032 92100=
07761,1996-12-22 00:00:00,11,1009.4,0.2,82,8,25000,14.816,,,50,,,,,,,,,,,wg-a,,,,AAXX 22004 07761 12/75 /0508 10110 20080 30083 40094 50002 60006 81032 90000=
07761,1996-12-22 03:00:00,9,1009.4,-0,87,7,25000,11.112,,,60,,,,,,,,,,,wg-a,,,,AAXX 22034 07761 12/75 70606 10090 20070 30083 40094 55000 60006 82036 90300=
07761,1996-12-22 06:00:00,10,1009.4,-0,82,7,25000,14.816,,,40,8.8,12.8,,,,,,,,,wg-a,,,,AAXX 22064 07761 02/75 /0408 10100 20070 30083 40094 55000 60006 82036 90600 333 10128 20088 60004=
07761,1996-12-22 09:00:00,13,1010.2,0.8,77,9,35000,14.816,,,40,,,,,,,,,,,wg-a,,,,AAXX 22094 07761 12/81 80408 10130 20090 30091 40102 51008 60006 83032 90900=
07761,1996-12-22 12:00:00,19,1009.4,-0.8,64,12,40000,3.704,,,230,,,,,,,,,,,wg-a,,,,AAXX 22124 07761 12/82 /2302 10190 20120 30083 40094 58008 60006 81032 91200=
07761,1996-12-22 15:00:00,17,1009.2,-0.2,68,11,40000,3.704,,,280,,,,,,,,,,,wg-a,,,,AAXX 22154 07761 12/82 /2802 10170 20110 30081 40092 55002 60006 81032 91500=
07761,1996-12-22 18:00:00,11,1009.7,0.5,87,9,20000,7.408,,,70,10,19.4,,,,,,,,,wg-a,,,,AAXX 22184 07761 12/70 30704 10110 20090 30086 40097 51005 60006 81032 91800 333 10194 20100=
07761,1996-12-22 21:00:00,10,1008.7,-1,82,7,20000,18.52,,,60,,,,,,,,,,,wg-a,,,,AAXX 22214 07761 12/70 30610 10100 20070 30076 40087 58010 60006 80002 92100=
07761,1996-12-23 00:00:00,10,1006.8,-1.9,82,7,20000,22.224,,,50,,,,,,,,,,,wg-a,,,,AAXX 23004 07761 12/70 60512 10100 20070 30057 40068 58019 60006 80008 90000=
07761,1996-12-23 03:00:00,13,1006.4,-0.4,88,11,15000,14.816,,,160,,,,1,,,,,,61,wg-a,,,,AAXX 23034 07761 12565 81608 10130 20110 30053 40064 55004 60017 76162 8383/ 90300=
07761,1996-12-23 06:00:00,13,1002.5,-3.9,88,11,20000,22.224,,,60,9.3,14.2,,,,,3,,,1,wg-a,,,,AAXX 23064 07761 02570 80612 10130 20110 30014 40025 56039 60006 70162 8387/ 90600 333 10142 20093 60034=
07761,1996-12-23 09:00:00,14,1003.2,0.7,88,12,25000,7.408,,,50,,,,,,,,,,,wg-a,,,,AAXX 23094 07761 12575 70504 10140 20120 30021 40032 52007 60006 875// 90900=
07761,1996-12-23 12:00:00,16,1003.1,-0.1,88,14,25000,11.112,,,200,,,,,,,,,,,wg-a,,,,AAXX 23124 07761 12475 72006 10160 20140 30020 40031 58001 60006 878// 91200=
07761,1996-12-23 15:00:00,15,1002.4,-0.7,88,13,10000,3.704,,,180,,,,,,,,,,,wg-a,,,,AAXX 23154 07761 12460 71802 10150 20130 30013 40024 56007 60006 84832 91500=
07761,1996-12-23 18:00:00,13,1001.8,-0.6,94,12,12000,7.408,,,80,12.3,16,,,,,,,,21,wg-a,,,,AAXX 23184 07761 02462 70804 10130 20120 30007 40018 57006 61000 72162 878// 91800 333 10160 20123 6100=
07761,1996-12-23 21:00:00,13,1001.5,-0.3,88,11,12000,7.408,,,50,,,,,,,,,,,wg-a,,,,AAXX 23214 07761 12462 60504 10130 20110 30004 40015 57003 60006 86200 92100=
07761,1996-12-24 00:00:00,12,1000.7,-0.8,88,10,12000,11.112,,,60,,,,,,,,,,,wg-a,,,,AAXX 24004 07761 12562 70606 10120 20100 39996 40007 58008 60006 878// 90000=
07761,1996-12-24 03:00:00,12,999.5,-1.2,88,10,12000,7.408,,,50,,,,,,,,,,,wg-a,,,,AAXX 24034 07761 12562 80504 10120 20100 39984 49995 56012 60006 878// 90300=
07761,1996-12-24 06:00:00,14,999.3,-0.2,94,13,12000,22.224,,,210,11.4,13.6,,,,,,,,3,wg-a,,,,AAXX 24064 07761 02362 /2112 10140 20130 39982 49993 56002 60006 70362 86200 90600 333 10136 20114 61000=
07761,1996-12-24 09:00:00,15,1000.1,0.8,88,13,10000,29.632,,,210,,,,0,,,,,,3,wg-a,,,,AAXX 24094 07761 12360 72116 10150 20130 39990 40001 53008 60007 70386 8593/ 90900=
07761,1996-12-24 12:00:00,15,1000.2,0.1,88,13,10000,18.52,,,210,,,,,,,,,,81,wg-a,,,,AAXX 24124 07761 02460 72110 10150 20130 39991 40002 51001 60006 78186 83930 91200 333 61000=
07761,1996-12-24 15:00:00,15,999.7,-0.5,82,12,10000,18.52,,,190,,,,1,,,,,,1,wg-a,,,,AAXX 24154 07761 12460 31910 10150 20120 39986 49997 55005 60017 70186 83900 91500=
07761,1996-12-24 18:00:00,12,999.2,-0.5,88,10,10000,11.112,,,100,12,15.8,,,,,,,,61,wg-a,,,,AAXX 24184 07761 02560 71006 10120 20100 39981 49992 58005 61000 76186 8497/ 91800 333 10158 20120 6001=
07761,1996-12-24 21:00:00,11,999.1,-0.1,82,8,10000,14.816,,,40,,,,5,,,,,,29,wg-a,,,,AAXX 24214 07761 12460 /0408 10110 20080 39980 49991 55001 60057 72996 8597/ 92100=
07761,1996-12-25 00:00:00,8,998.2,-0.9,93,7,10000,14.816,,,50,,,,,,,,,,1,wg-a,,,,AAXX 25004 07761 12460 40508 10080 20070 39971 49982 58009 60056 70196 82970 90000=
07761,1996-12-25 03:00:00,9,997.1,-1.1,87,7,10000,11.112,,,20,,,,0,,,,,,1,wg-a,,,,AAXX 25034 07761 12460 60206 10090 20070 39960 49971 58011 60007 70161 85270 90300=
07761,1996-12-25 06:00:00,9,997,-0.1,93,8,11000,7.408,,,60,7.9,12,,,,,9,,,,wg-a,,,,AAXX 25064 07761 02/61 /0604 10090 20080 39959 49970 58001 60006 90600 333 10120 20079 60094=
07761,1996-12-25 09:00:00,9,998.6,1.6,93,8,20000,11.112,,,60,,,,0,,,,,,2,wg-a,,,,AAXX 25094 07761 12570 30606 10090 20080 39975 49986 53016 60007 70261 83902 90900=
07761,1996-12-25 12:00:00,12,999,0.4,76,8,15000,7.408,,,80,,,,,,,,,,61,wg-a,,,,AAXX 25124 07761 02565 70804 10120 20080 39979 49990 50004 60006 76161 8597/ 91200 333 61000=
07761,1996-12-25 15:00:00,13,999.4,0.4,72,8,20000,7.408,,,210,,,,0,,,,,,2,wg-a,,,,AAXX 25154 07761 12570 52104 10130 20080 39983 49994 53004 60007 70262 8387/ 91500=
07761,1996-12-25 18:00:00,9,1001.1,1.7,93,8,20000,7.408,,,70,7.4,13.1,,,,,,,,1,wg-a,,,,AAXX 25184 07761 12670 30704 10090 20080 30000 40011 51017 60006 70161 82530 91800 333 10131 20074=
07761,1996-12-25 21:00:00,7,1002.6,1.5,93,6,20000,11.112,,,40,,,,,,,,,,,wg-a,,,,AAXX 25214 07761 12670 /0406 10070 20060 30015 40026 51015 60006 81530 92100=
07761,1996-12-26 03:00:00,5,1004.4,0.9,100,5,15000,7.408,,,100,,,,,,,,,,1,wg-a,,,,AAXX 26034 07761 02565 31004 10050 20050 30033 40044 53009 61000 70161 81830 90300 333 ////=
07761,1996-12-26 06:00:00,7,1006.1,1.7,87,5,15000,11.112,,,30,5.3,9,,,,,,,,3,wg-a,,,,AAXX 26064 07761 02565 /0306 10070 20050 30050 40061 53017 60006 70361 81830 90600 333 10090 20053 60004=
07761,1996-12-26 09:00:00,10,1009.1,3,46,-1,25000,14.816,,,40,,,,0,,,,,,,wg-a,,,,AAXX 26094 07761 12675 40408 10100 21010 30080 40091 51030 60007 84840 90900=
07761,1996-12-26 12:00:00,10,1010.8,1.7,34,-5,25000,31.484,,53.708,30,,,,,,,,,,,wg-a,,,,AAXX 26124 07761 12775 /0317 10100 21050 30097 40108 51017 60006 85540 91200 333 91029=
07761,1996-12-26 15:00:00,7,1013.9,3.1,31,-9,25000,35.188,,57.412,40,,,,,,,,,,,wg-a,,,,AAXX 26154 07761 12775 20419 10070 21090 30128 40139 53031 60006 82540 91500 333 91031=
07761,1996-12-26 18:00:00,5,1017.4,3.5,30,-11,20000,14.816,,57.412,40,4.7,10.4,,,,,,,,,wg-a,,,,AAXX 26184 07761 12770 /0408 10050 21110 30163 40174 53035 60006 81500 91800 333 10104 20047 91031=
07761,1996-12-26 21:00:00,3,1019.3,1.9,35,-11,20000,7.408,,,60,,,,,,,,,,,wg-a,,,,AAXX 26214 07761 12/70 00604 10030 21110 30182 40193 53019 60006 80000 92100=
07761,1996-12-27 00:00:00,1,1021.1,1.8,44,-10,20000,3.704,,,20,,,,,,,,,,,wg-a,,,,AAXX 27004 07761 12/70 00202 10010 21100 30200 40211 50018 60006 80000 90000=
07761,1996-12-27 03:00:00,3,1021.9,0.8,16,-20,20000,31.484,,53.708,40,,,,,,,,,,,wg-a,,,,AAXX 27034 07761 12/70 00417 10030 21200 30208 40219 53008 60006 80000 90300 333 91029=
07761,1996-12-27 06:00:00,2,1021.3,-0.6,23,-17,20000,18.52,,72.228,30,0.1,4.9,,,,,,,,,wg-a,,,,AAXX 27064 07761 02/70 00310 10020 21170 30202 40213 55006 60006 80000 90600 333 10049 20001 60004 91039=
07761,1996-12-27 09:00:00,4,1021.9,0.6,28,-13,50000,3.704,,,200,,,,,,,,,,,wg-a,,,,AAXX 27094 07761 12/84 22002 10040 21130 30208 40219 53006 60006 80001 90900=
07761,1996-12-27 12:00:00,7,1020.6,-1.3,22,-13,50000,7.408,,,220,,,,,,,,,,,wg-a,,,,AAXX 27124 07761 12/84 72204 10070 21130 30195 40206 58013 60006 80002 91200=
07761,1996-12-27 15:00:00,7,1020.7,0.1,42,-5,50000,18.52,,,190,,,,,,,,,,,wg-a,,,,AAXX 27154 07761 12/84 11910 10070 21050 30196 40207 51001 60006 81032 91500=
07761,1996-12-27 21:00:00,0,1019.8,-0.9,55,-8,15000,14.816,,,50,,,,,,,,,,,wg-a,,,,AAXX 27214 07761 12665 /0508 10000 21080 30187 40198 57009 60006 81100 92100=
07761,1996-12-28 00:00:00,-1,1018.5,-1.3,69,-6,15000,14.816,,,50,,,,,,,,,,,wg-a,,,,AAXX 28004 07761 12565 30508 11010 21060 30174 40185 58013 60006 83500 90000=
07761,1996-12-28 03:00:00,1,1016.7,-1.8,69,-4,15000,11.112,,,60,,,,,,,,,,,wg-a,,,,AAXX 28034 07761 12565 /0606 10010 21040 30156 40167 56018 60006 86570 90300=
07761,1996-12-28 06:00:00,2,1015.1,-1.6,75,-2,15000,7.408,,,60,-2.4,2,,,,,,,,,wg-a,,,,AAXX 28064 07761 02565 70604 10020 21020 30140 40151 56016 60006 86570 90600 333 10020 21024 60004=
07761,1996-12-28 09:00:00,3,1013.3,-1.8,75,-1,15000,11.112,,,40,,,,,,,,,,,wg-a,,,,AAXX 28094 07761 12665 80406 10030 21010 30122 40133 56018 60006 885// 90900=
07761,1996-12-28 12:00:00,4,1010.1,-3.2,87,2,12000,18.52,,,30,,,,0,,,,,,61,wg-a,,,,AAXX 28124 07761 02562 80310 10040 20020 30090 40101 58032 60016 76162 8257/ 91200 333 60007=
07761,1996-12-28 18:00:00,4,1008.7,-0.4,87,2,10000,18.52,,,20,1.5,4.8,,,,,,,,61,wg-a,,,,AAXX 28184 07761 02460 80210 10040 20020 30076 40087 55004 61000 76162 875// 91800 333 10048 20015 6002=
07761,1996-12-28 21:00:00,3,1008.3,-0.4,87,1,10000,22.224,,,20,,,,1,,,,,,61,wg-a,,,,AAXX 28214 07761 12560 80212 10030 20010 30072 40083 58004 60017 76166 8557/ 92100=
07761,1996-12-29 00:00:00,3,1008.2,-0.1,93,2,10000,14.816,,,30,,,,2,,,,,,61,wg-a,,,,AAXX 29004 07761 02560 80308 10030 20020 30071 40082 58001 60036 76166 875// 90000 333 60027=
07761,1996-12-29 03:00:00,4,1006.8,-1.4,87,2,10000,18.52,,,30,,,,3,,,,,,61,wg-a,,,,AAXX 29034 07761 12560 80310 10040 20020 30057 40068 58014 60037 76166 875// 90300=
07761,1996-12-29 06:00:00,4,1005.6,-1.2,87,2,12000,11.112,,,40,3,3.7,,,,,,,,61,wg-a,,,,AAXX 29064 07761 02562 80406 10040 20020 30045 40056 56012 61000 76166 875// 90600 333 10037 20030 6012=
07761,1996-12-29 09:00:00,4,1005.6,-0,93,3,12000,7.408,,,60,,,,1,,,,,,61,wg-a,,,,AAXX 29094 07761 12262 80604 10040 20030 30045 40056 55000 60017 76162 887// 90900=
07761,1996-12-29 12:00:00,6,1004.5,-1.1,87,4,20000,7.408,,,60,,,,,,,,,,21,wg-a,,,,AAXX 29124 07761 02270 80604 10060 20040 30034 40045 58011 60016 72162 8477/ 91200 333 61000=
07761,1996-12-29 15:00:00,7,1004.4,-0.1,81,4,20000,0,,,0,,,,,,,,,,,wg-a,,,,AAXX 29154 07761 12470 70000 10070 20040 30033 40044 55001 60006 84882 91500=
07761,1996-12-29 18:00:00,4,1004.4,0,93,3,20000,11.112,,,50,3.5,7.8,,,,,,,,,wg-a,,,,AAXX 29184 07761 12470 70506 10040 20030 30033 40044 50000 60006 858// 91800 333 10078 20035=
07761,1996-12-29 21:00:00,3,1004,-0.4,93,2,11000,11.112,,,50,,,,,,,,,,,wg-a,,,,AAXX 29214 07761 12/61 /0506 10030 20020 30029 40040 58004 60006 92100=
07761,1996-12-30 00:00:00,2,1003.9,-0.1,93,1,15000,11.112,,,60,,,,,,,,,,,wg-a,,,,AAXX 30004 07761 12565 30606 10020 20010 30028 40039 58001 60006 83800 90000=
07761,1996-12-30 03:00:00,1,1003.8,-0.1,93,0,15000,11.112,,,60,,,,,,,,,,,wg-a,,,,AAXX 30034 07761 12565 /0606 10010 20000 30027 40038 58001 60006 86100 90300=
07761,1996-12-30 06:00:00,1,1004.2,0.4,93,0,15000,11.112,,,50,0.2,4.6,,,,,1,,,,wg-a,,,,AAXX 30064 07761 02565 70506 10010 20000 30031 40042 53004 60006 878// 90600 333 10046 20002 60014=
07761,1996-12-30 09:00:00,4,1004.2,-0,70,-1,50000,14.816,,,70,,,,,,,,,,,wg-a,,,,AAXX 30094 07761 12684 30708 10040 21010 30031 40042 54000 60006 81102 90900=
07761,1996-12-30 12:00:00,9,1003,-1.2,49,-1,50000,7.408,,,50,,,,,,,,,,,wg-a,,,,AAXX 30124 07761 12684 40504 10090 21010 30019 40030 58012 60006 81132 91200=
07761,1996-12-30 15:00:00,7,1002.2,-0.8,61,0,500,7.408,,,30,,,,,,,,,,,wg-a,,,,AAXX 30154 07761 12600 70304 10070 20000 30011 40022 56008 60006 81575 91500=
07761,1996-12-30 18:00:00,4,1002.4,0.2,75,0,20000,11.112,,,40,0.1,9.7,,,,,,,,,wg-a,,,,AAXX 30184 07761 12670 /0406 10040 20000 30013 40024 51002 60006 81532 91800 333 10097 20001=
07761,1996-12-30 21:00:00,3,1003.5,1.1,70,-2,20000,11.112,,,40,,,,,,,,,,,wg-a,,,,AAXX 30214 07761 12670 50406 10030 21020 30024 40035 52011 60006 84501 92100=
07761,1996-12-31 00:00:00,1,1005.1,1.6,86,-1,20000,14.816,,,60,,,,,,,,,,,wg-a,,,,AAXX 31004 07761 12670 40608 10010 21010 30040 40051 51016 60006 82530 90000=
07761,1996-12-31 03:00:00,3,1005.9,0.8,81,0,20000,14.816,,,40,,,,,,,,,,,wg-a,,,,AAXX 31034 07761 12670 70408 10030 20000 30048 40059 51008 60006 8257/ 90300=
07761,1996-12-31 06:00:00,4,1007.7,1.8,81,1,15000,11.112,,,30,0.8,4.3,,,,,,,,,wg-a,,,,AAXX 31064 07761 02665 70306 10040 20010 30066 40077 53018 60006 8257/ 90600 333 10043 20008 60004=
07761,1996-12-31 09:00:00,7,1009.5,1.8,70,2,15000,14.816,,,70,,,,,,,,,,,wg-a,,,,AAXX 31094 07761 12665 70708 10070 20020 30084 40095 53018 60006 83570 90900=
07761,1996-12-31 12:00:00,11,1009,-0.5,66,5,20000,7.408,,,100,,,,,,,,,,,wg-a,,,,AAXX 31124 07761 12570 71004 10110 20050 30079 40090 58005 60006 86570 91200=
07761,1996-12-31 15:00:00,11,1007.9,-1.1,71,6,20000,11.112,,,70,,,,0,,,,,,60,wg-a,,,,AAXX 31154 07761 12570 80706 10110 20060 30068 40079 56011 60007 76062 85842 91500=
07761,1996-12-31 18:00:00,13,1007.3,-0.6,72,8,15000,31.484,,,170,3.7,13.3,,,,,,,,21,wg-a,,,,AAXX 31184 07761 02565 81717 10130 20080 30062 40073 57006 61000 72162 8557/ 91800 333 10133 20037 6100=
07761,1996-12-31 21:00:00,14,1007.8,0.5,72,9,15000,14.816,,50.004,170,,,,5,,,,,,2,wg-a,,,,AAXX 31214 07761 12465 81708 10140 20090 30067 40078 53005 60057 70262 8457/ 92100 333 91027=
