station_id,dh_utc,temperature,pression,pression_variation_3h,humidite,point_de_rosee,visibilite,vent_moyen,vent_rafales,vent_rafales_10min,vent_direction,temperature_min,temperature_max,pluie_1h,pluie_3h,pluie_6h,pluie_12h,pluie_24h,ensoleillement,temperature_sol,temps_omm,source,radiations,neige_au_sol,nebulosite,raw_msg
07761,1997-01-01 00:00:00,15,1007,-0.8,63,8,15000,31.484,,57.412,180,,,,,,,,,,1,wg-a,,,,AAXX 01004 07761 12565 81817 10150 20080 30059 40070 58008 60056 70162 8457/ 90000 333 91031=
07761,1997-01-01 03:00:00,15,1008.6,1.6,82,12,12000,35.188,,61.116,210,,,,0,,,,,,3,wg-a,,,,AAXX 01034 07761 12462 82119 10150 20120 30075 40086 51016 60007 70362 8557/ 90300 333 91033=
07761,1997-01-01 06:00:00,13,1010,1.4,94,12,10000,14.816,,61.116,230,11.9,15.9,,,,,,,,25,wg-a,,,,AAXX 01064 07761 02460 82308 10130 20120 30089 40100 53014 61000 72586 8387/ 90600 333 10159 20119 6005 91033=
07761,1997-01-01 09:00:00,13,1012.7,2.7,94,12,10000,3.704,,,70,,,,,,,,,,,wg-a,,,,AAXX 01094 07761 12460 80702 10130 20120 30116 40127 53027 60006 888// 90900=
07761,1997-01-01 12:00:00,15,1013.3,0.6,72,10,15000,3.704,,,210,,,,,,,,,,,wg-a,,,,AAXX 01124 07761 12565 /2102 10150 20100 30122 40133 50006 60006 8487/ 91200=
07761,1997-01-01 15:00:00,14,1013.5,0.2,82,11,25000,3.704,,,330,,,,,,,,,,,wg-a,,,,AAXX 01154 07761 12575 /3302 10140 20110 30124 40135 53002 60006 81180 91500=
07761,1997-01-01 18:00:00,10,1014.2,0.7,87,8,20000,11.112,,,50,9.9,15.2,,,,,,,,,wg-a,,,,AAXX 01184 07761 12870 /0506 10100 20080 30131 40142 53007 60006 84080 91800 333 10152 20099=
07761,1997-01-01 21:00:00,9,1014.5,0.3,81,6,20000,14.816,,,50,,,,,,,,,,,wg-a,,,,AAXX 01214 07761 12670 40508 10090 20060 30134 40145 51003 60006 81580 92100=
07761,1997-01-02 00:00:00,10,1013.4,-1.1,76,6,15000,7.408,,,70,,,,,,,,,,,wg-a,,,,AAXX 02004 07761 12665 40704 10100 20060 30123 40134 58011 60006 8257/ 90000=
07761,1997-01-02 03:00:00,8,1011.6,-1.8,87,6,15000,14.816,,,50,,,,,,,,,,,wg-a,,,,AAXX 02034 07761 12565 50508 10080 20060 30105 40116 58018 60006 81572 90300=
07761,1997-01-02 06:00:00,8,1010.7,-0.9,87,6,15000,11.112,,,60,7.6,10,,,,,,,,,wg-a,,,,AAXX 02064 07761 02565 70606 10080 20060 30096 40107 56009 60006 82572 90600 333 10100 20076 60004=
07761,1997-01-02 09:00:00,11,1010.3,-0.4,82,8,500,7.408,,,350,,,,,,,,,,,wg-a,,,,AAXX 02094 07761 12600 73504 10110 20080 30092 40103 57004 60006 8157/ 90900=
07761,1997-01-02 12:00:00,13,1009.2,-1.1,82,10,12000,7.408,,,60,,,,1,,,,,,21,wg-a,,,,AAXX 02124 07761 02562 70604 10130 20100 30081 40092 58011 60016 72162 8187/ 91200 333 60017=
07761,1997-01-02 15:00:00,14,1008.6,-0.6,82,11,500,11.112,,,50,,,,0,,,,,,1,wg-a,,,,AAXX 02154 07761 12500 70506 10140 20110 30075 40086 55006 60007 70162 8157/ 91500=
07761,1997-01-02 18:00:00,12,1009,0.4,94,11,500,11.112,,,50,8.3,14.6,,,,,,,,21,wg-a,,,,AAXX 02184 07761 02600 80506 10120 20110 30079 40090 53004 61000 72162 8457/ 91800 333 10146 20083 6100=
07761,1997-01-02 21:00:00,11,1009.4,0.4,100,11,11000,14.816,,,50,,,,,,,,,,,wg-a,,,,AAXX 02214 07761 32/61 /0508 10110 20110 30083 40094 50004 92100=
07761,1997-01-03 00:00:00,12,1008.8,-0.6,94,11,20000,7.408,,,50,,,,2,,,,,,3,wg-a,,,,AAXX 03004 07761 02470 80504 10120 20110 30077 40088 56006 60046 70362 878// 90000 333 60027=
07761,1997-01-03 03:00:00,11,1008.4,-0.4,94,10,20000,7.408,,,70,,,,,,,,,,,wg-a,,,,AAXX 03034 07761 12470 60704 10110 20100 30073 40084 58004 60006 86800 90300=
07761,1997-01-03 06:00:00,9,1007.5,-0.9,93,8,20000,18.52,,,70,9.1,12.4,,,,,5,,,,wg-a,,,,AAXX 03064 07761 02470 /0710 10090 20080 30064 40075 58009 60006 81500 90600 333 10124 20091 60054=
07761,1997-01-03 09:00:00,11,1007.3,-0.2,87,9,25000,11.112,,,60,,,,,,,,,,,wg-a,,,,AAXX 03094 07761 12675 40606 10110 20090 30062 40073 55002 60006 81504 90900=
07761,1997-01-03 12:00:00,16,1004.4,-2.9,59,8,50000,0,,,0,,,,0,,,,,,,wg-a,,,,AAXX 03124 07761 02784 70000 10160 20080 30033 40044 56029 60006 81572 91200 333 60007=
07761,1997-01-03 18:00:00,10,1003.8,2.2,93,9,6000,29.632,,,230,7.4,15.7,,,,,,,,80,wg-a,,,,AAXX 03184 07761 02656 72316 10100 20090 30027 40038 53022 61000 78098 8337/ 91800 333 10157 20074 6003=
07761,1997-01-03 21:00:00,9,1002.9,-0.9,93,8,10000,11.112,,,50,,,,5,,,,,,21,wg-a,,,,AAXX 03214 07761 12460 /0506 10090 20080 30018 40029 58009 60057 72196 8547/ 92100=
07761,1997-01-04 00:00:00,8,1002.3,-0.6,93,7,15000,14.816,,,60,,,,1,,,,,,29,wg-a,,,,AAXX 04004 07761 02565 /0608 10080 20070 30012 40023 57006 60066 72998 81970 90000 333 60017=
07761,1997-01-04 03:00:00,8,1002.1,-0.2,87,6,15000,7.408,,,90,,,,0,,,,,,21,wg-a,,,,AAXX 04034 07761 12565 /0904 10080 20060 30010 40021 58002 60007 72161 8397/ 90300=
07761,1997-01-04 06:00:00,7,1000.2,-1.9,87,5,15000,14.816,,,60,6.9,10.3,,,,,10,,,13,wg-a,,,,AAXX 04064 07761 02565 /0608 10070 20050 39991 40002 56019 60006 71396 8697/ 90600 333 10103 20069 60104=
07761,1997-01-04 09:00:00,8,1000.9,0.7,87,6,6000,11.112,,,160,,,,2,,,,,,80,wg-a,,,,AAXX 04094 07761 12556 71606 10080 20060 39998 40009 53007 60027 78086 873// 90900=
07761,1997-01-04 12:00:00,10,1001.1,0.2,87,8,20000,11.112,,,100,,,,3,,,,,,17,wg-a,,,,AAXX 04124 07761 02570 61006 10100 20080 30000 40011 50002 60056 71798 8697/ 91200 333 60037=
07761,1997-01-04 15:00:00,9,1001.2,0.1,81,6,15000,7.408,,,60,,,,2,,,,,,29,wg-a,,,,AAXX 04154 07761 12565 70604 10090 20060 30001 40012 51001 60027 72998 8697/ 91500=
07761,1997-01-04 18:00:00,7,1002.2,1,87,5,10000,7.408,,,80,6.9,10.3,,0,,,,,,2,wg-a,,,,AAXX 04184 07761 02560 60804 10070 20050 30011 40022 53010 60006 70298 84802 91800 333 10103 20069 60007=
07761,1997-01-04 21:00:00,7,1004.1,1.9,87,5,8000,7.408,,,40,,,,3,,,,,,17,wg-a,,,,AAXX 04214 07761 12458 70404 10070 20050 30030 40041 53019 60037 71798 878// 92100=
07761,1997-01-05 00:00:00,8,1005.4,1.3,87,6,9000,35.188,,83.34,280,,,,1,,,,,,17,wg-a,,,,AAXX 05004 07761 02559 52819 10080 20060 30043 40054 51013 60046 71798 85900 90000 333 60017 91045=
07761,1997-01-05 03:00:00,9,1006.4,1,76,5,12000,22.224,,,270,,,,0,,,,,,2,wg-a,,,,AAXX 05034 07761 12562 82712 10090 20050 30053 40064 51010 60007 70298 873// 90300=
07761,1997-01-05 06:00:00,9,1008.4,2,71,4,12000,14.816,,,280,6.5,9.8,,,,,12,,,1,wg-a,,,,AAXX 05064 07761 02562 62808 10090 20040 30073 40084 53020 60006 70198 86300 90600 333 10098 20065 60124=
07761,1997-01-05 09:00:00,8,1011.4,3,87,6,15000,11.112,,,60,,,,,,,,,,21,wg-a,,,,AAXX 05094 07761 02565 60606 10080 20060 30103 40114 52030 61000 72162 86300 90900 333 ////=
07761,1997-01-05 12:00:00,11,1011.2,-0.2,62,4,20000,11.112,,,330,,,,,,,,,,2,wg-a,,,,AAXX 05124 07761 02570 43306 10110 20040 30101 40112 58002 61000 70261 83202 91200 333 ////=
07761,1997-01-05 15:00:00,11,1011.4,0.2,62,4,25000,7.408,,,260,,,,,,,,,,,wg-a,,,,AAXX 05154 07761 12675 42604 10110 20040 30103 40114 53002 60006 81252 91500=
07761,1997-01-05 18:00:00,6,1012.1,0.7,81,3,20000,11.112,,,50,6.1,12,,,,,,,,,wg-a,,,,AAXX 05184 07761 12/70 /0506 10060 20030 30110 40121 53007 60006 81051 91800 333 10120 20061=
07761,1997-01-05 21:00:00,4,1013,0.9,87,2,20000,14.816,,,50,,,,,,,,,,,wg-a,,,,AAXX 05214 07761 12/70 80508 10040 20020 30119 40130 50009 60006 85072 92100=
07761,1997-01-06 00:00:00,5,1011.7,-1.3,87,3,15000,14.816,,,50,,,,,,,,,,,wg-a,,,,AAXX 06004 07761 12/65 /0508 10050 20030 30106 40117 58013 60006 82072 90000=
07761,1997-01-06 03:00:00,5,1011.4,-0.3,87,3,12000,11.112,,,60,,,,,,,,,,,wg-a,,,,AAXX 06034 07761 12762 80606 10050 20030 30103 40114 58003 60006 8257/ 90300=
07761,1997-01-06 06:00:00,6,1009.9,-1.5,87,4,10000,11.112,,,40,3.8,6.3,,,,,,,,21,wg-a,,,,AAXX 06064 07761 02460 80406 10060 20040 30088 40099 57015 61000 72162 8257/ 90600 333 10063 20038 6000=
07761,1997-01-06 09:00:00,9,1009,-0.9,81,6,12000,14.816,,,40,,,,,,,,,,60,wg-a,,,,AAXX 06094 07761 02562 80408 10090 20060 30079 40090 56009 61000 76062 8257/ 90900 333 ////=
07761,1997-01-06 12:00:00,13,1007,-2,67,7,20000,14.816,,,100,,,,,,,,,,60,wg-a,,,,AAXX 06124 07761 02670 81008 10130 20070 30059 40070 58020 61000 76062 8382/ 91200 333 6100=
07761,1997-01-06 15:00:00,11,1006.3,-0.7,82,8,11000,7.408,,,50,,,,,,,,,,,wg-a,,,,AAXX 06154 07761 32/61 /0504 10110 20080 30052 40063 56007 91500=
07761,1997-01-06 18:00:00,9,1007.4,1.1,93,8,10000,14.816,,,50,6,12.8,,,,,,,,60,wg-a,,,,AAXX 06184 07761 02560 80508 10090 20080 30063 40074 53011 61000 76062 8582/ 91800 333 10128 20060 6002=
07761,1997-01-06 21:00:00,8,1008.1,0.7,93,7,10000,7.408,,,50,,,,0,,,,,,1,wg-a,,,,AAXX 06214 07761 12660 /0504 10080 20070 30070 40081 51007 60007 70162 84500 92100=
07761,1997-01-07 00:00:00,8,1008.3,0.2,87,6,18000,18.52,,,40,,,,,,,,,,1,wg-a,,,,AAXX 07004 07761 12668 /0410 10080 20060 30072 40083 50002 60006 70161 81500 90000=
07761,1997-01-07 03:00:00,6,1008.2,-0.1,87,4,18000,11.112,,,40,,,,,,,,,,,wg-a,,,,AAXX 07034 07761 12668 /0406 10060 20040 30071 40082 58001 60006 81500 90300=
07761,1997-01-07 06:00:00,6,1007.6,-0.6,87,4,18000,11.112,,,40,4.6,9.7,,,,,3,,,,wg-a,,,,AAXX 07064 07761 02668 50406 10060 20040 30065 40076 57006 60006 81502 90600 333 10097 20046 60034=
07761,1997-01-07 09:00:00,7,1009.4,1.8,87,5,20000,7.408,,,40,,,,,,,,,,,wg-a,,,,AAXX 07094 07761 12670 50404 10070 20050 30083 40094 53018 60006 83832 90900=
07761,1997-01-07 12:00:00,13,1009,-0.4,67,7,20000,3.704,,,260,,,,,,,,,,,wg-a,,,,AAXX 07124 07761 12570 /2602 10130 20070 30079 40090 58004 60006 81132 91200=
07761,1997-01-07 15:00:00,12,1009,-0,82,9,25000,7.408,,,220,,,,,,,,,,,wg-a,,,,AAXX 07154 07761 12675 42204 10120 20090 30079 40090 55000 60006 82832 91500=
07761,1997-01-07 18:00:00,7,1010.4,1.4,93,6,20000,11.112,,,60,3.2,13,,,,,,,,,wg-a,,,,AAXX 07184 07761 12670 /0606 10070 20060 30093 40104 53014 60006 81500 91800 333 10130 20032=
07761,1997-01-07 21:00:00,4,1012,1.6,93,3,10000,11.112,,,50,,,,,,,,,,,wg-a,,,,AAXX 07214 07761 12/60 /0506 10040 20030 30109 40120 51016 60006 92100=
07761,1997-01-08 00:00:00,4,1012.2,0.2,93,3,15000,14.816,,,50,,,,,,,,,,,wg-a,,,,AAXX 08004 07761 12665 20508 10040 20030 30111 40122 50002 60006 82500 90000=
07761,1997-01-08 03:00:00,4,1012.3,0.1,93,3,15000,14.816,,,40,,,,,,,,,,,wg-a,,,,AAXX 08034 07761 12565 /0408 10040 20030 30112 40123 50001 60006 81500 90300=
07761,1997-01-08 06:00:00,3,1012.1,-0.2,93,2,15000,14.816,,,50,2.9,7,,,,,,,,,wg-a,,,,AAXX 08064 07761 02665 10508 10030 20020 30110 40121 56002 60006 81500 90600 333 10070 20029 60004=
07761,1997-01-08 09:00:00,7,1012.4,0.3,87,5,50000,7.408,,,50,,,,,,,,,,,wg-a,,,,AAXX 08094 07761 12784 80504 10070 20050 30113 40124 53003 60006 81135 90900=
07761,1997-01-08 12:00:00,12,1010.7,-1.7,67,6,25000,3.704,,,30,,,,,,,,,,,wg-a,,,,AAXX 08124 07761 12775 80302 10120 20060 30096 40107 58017 60006 8117/ 91200=
07761,1997-01-08 15:00:00,12,1009,-1.7,76,8,20000,0,,,0,,,,,,,,,,,wg-a,,,,AAXX 08154 07761 12570 80000 10120 20080 30079 40090 56017 60006 8112/ 91500=
07761,1997-01-08 18:00:00,10,1007.9,-1.1,87,8,15000,3.704,,,60,2.9,13.1,,,,,,,,60,wg-a,,,,AAXX 08184 07761 02565 80602 10100 20080 30068 40079 56011 61000 76062 8387/ 91800 333 10131 20029 6000=
07761,1997-01-08 21:00:00,8,1007.5,-0.4,93,7,12000,7.408,,,50,,,,3,,,,,,61,wg-a,,,,AAXX 08214 07761 12562 80504 10080 20070 30064 40075 58004 60037 76166 878// 92100=
07761,1997-01-09 00:00:00,9,1003.6,-3.9,87,7,15000,7.408,,,30,,,,1,,,,,,21,wg-a,,,,AAXX 09004 07761 02565 80304 10090 20070 30025 40036 56039 60036 72162 878// 90000 333 60017=
07761,1997-01-09 03:00:00,9,1003.3,-0.3,93,8,12000,7.408,,,70,,,,2,,,,,,21,wg-a,,,,AAXX 09034 07761 12462 70704 10090 20080 30022 40033 58003 60027 72162 878// 90300=
07761,1997-01-09 06:00:00,8,1002.3,-1,93,7,12000,11.112,,,70,7.5,9.7,,,,,6,,,3,wg-a,,,,AAXX 09064 07761 02562 70706 10080 20070 30012 40023 58010 60006 70362 878// 90600 333 10097 20075 60064=
07761,1997-01-09 09:00:00,10,1002.8,0.5,87,8,12000,7.408,,,50,,,,4,,,,,,61,wg-a,,,,AAXX 09094 07761 12462 70504 10100 20080 30017 40028 53005 60047 76162 879// 90900=
07761,1997-01-09 12:00:00,11,1002.3,-0.5,94,10,20000,7.408,,,30,,,,6,,,,,,21,wg-a,,,,AAXX 09124 07761 02470 80304 10110 20100 30012 40023 58005 60106 72162 889// 91200 333 60067=
07761,1997-01-09 15:00:00,11,1001,-1.3,87,9,15000,11.112,,,20,,,,0,,,,,,60,wg-a,,,,AAXX 09154 07761 12565 70206 10110 20090 39999 40010 56013 60007 76062 8597/ 91500=
07761,1997-01-09 18:00:00,10,1001.5,0.5,87,8,15000,7.408,,,40,8.3,11.7,,,,,,,,1,wg-a,,,,AAXX 09184 07761 02665 60404 10100 20080 30004 40015 53005 60006 70162 84870 91800 333 10117 20083 61000=
07761,1997-01-09 21:00:00,9,1002.7,1.2,93,8,15000,11.112,,,50,,,,,,,,,,,wg-a,,,,AAXX 09214 07761 12565 70506 10090 20080 30016 40027 51012 60006 8287/ 92100=
07761,1997-01-10 00:00:00,8,1003.4,0.7,93,7,15000,7.408,,,60,,,,,,,,,,,wg-a,,,,AAXX 10004 07761 12765 50604 10080 20070 30023 40034 51007 60006 84570 90000=
07761,1997-01-10 03:00:00,8,1004.2,0.8,93,7,15000,3.704,,,10,,,,,,,,,,80,wg-a,,,,AAXX 10034 07761 02565 80102 10080 20070 30031 40042 53008 61000 78086 8487/ 90300 333 ////=
07761,1997-01-10 06:00:00,7,1004.5,0.3,93,6,15000,11.112,,,80,6.7,9.9,,,,,11,,,3,wg-a,,,,AAXX 10064 07761 02465 50806 10070 20060 30034 40045 53003 60006 70386 84802 90600 333 10099 20067 60114=
07761,1997-01-10 09:00:00,8,1007.2,2.7,93,7,15000,7.408,,,50,,,,,,,,,,,wg-a,,,,AAXX 10094 07761 12565 70504 10080 20070 30061 40072 51027 60006 8487/ 90900=
07761,1997-01-10 12:00:00,11,1006.4,-0.8,82,8,15000,3.704,,,80,,,,,,,,,,3,wg-a,,,,AAXX 10124 07761 02565 70802 10110 20080 30055 40064 58008 61000 70386 8587/ 91200 333 6100=
07761,1997-01-10 15:00:00,10,1006.5,0.1,76,6,25000,18.52,,,210,,,,,,,,,,,wg-a,,,,AAXX 10154 07761 12575 32110 10100 20060 30054 40065 53001 60006 81870 91500=
07761,1997-01-10 18:00:00,6,1008.3,1.8,87,4,20000,11.112,,,70,5.9,12.6,,,,,,,,,wg-a,,,,AAXX 10184 07761 12670 20706 10060 20040 30072 40083 53018 60006 81870 91800 333 10126 20059=
07761,1997-01-10 21:00:00,5,1010.2,1.9,93,4,15000,11.112,,,50,,,,,,,,,,,wg-a,,,,AAXX 10214 07761 12565 30506 10050 20040 30091 40102 51019 60006 81570 92100=
07761,1997-01-11 00:00:00,4,1010.9,0.7,93,3,15000,11.112,,,50,,,,,,,,,,,wg-a,,,,AAXX 11004 07761 12565 10506 10040 20030 30098 40109 51007 60006 81500 90000=
07761,1997-01-11 03:00:00,5,1011.5,0.6,93,4,15000,7.408,,,50,,,,,,,,,,,wg-a,,,,AAXX 11034 07761 12565 30504 10050 20040 30104 40115 51006 60006 81570 90300=
07761,1997-01-11 06:00:00,3,1012.3,0.8,93,2,20000,11.112,,,50,3.1,6,,,,,,,,,wg-a,,,,AAXX 11064 07761 02570 20506 10030 20020 30112 40123 53008 60006 81530 90600 333 10060 20031 61000=
07761,1997-01-11 09:00:00,5,1013.5,1.2,93,4,25000,11.112,,,50,,,,,,,,,,,wg-a,,,,AAXX 11094 07761 12775 30506 10050 20040 30124 40135 51012 60006 83530 90900=
07761,1997-01-11 12:00:00,12,1013.7,0.2,71,7,25000,3.704,,,280,,,,,,,,,,,wg-a,,,,AAXX 11124 07761 12675 32802 10120 20070 30126 40137 50002 60006 82840 91200=
07761,1997-01-11 15:00:00,13,1013.4,-0.3,72,8,25000,3.704,,,250,,,,,,,,,,,wg-a,,,,AAXX 11154 07761 12675 /2502 10130 20080 30123 40134 55003 60006 81140 91500=
07761,1997-01-11 18:00:00,7,1014.7,1.3,87,5,20000,11.112,,,60,2.3,13.7,,,,,,,,,wg-a,,,,AAXX 11184 07761 12670 /0606 10070 20050 30136 40147 51013 60006 81100 91800 333 10137 20023=
07761,1997-01-11 21:00:00,4,1015.8,1.1,93,3,15000,14.816,,,50,,,,,,,,,,,wg-a,,,,AAXX 11214 07761 12/65 00508 10040 20030 30147 40158 51011 60006 80000 92100=
07761,1997-01-12 00:00:00,3,1016.2,0.4,93,2,15000,14.816,,,60,,,,,,,,,,,wg-a,,,,AAXX 12004 07761 12/65 00608 10030 20020 30151 40162 50004 60006 80000 90000=
07761,1997-01-12 03:00:00,3,1016.3,0.1,87,1,15000,14.816,,,50,,,,,,,,,,,wg-a,,,,AAXX 12034 07761 12/65 00508 10030 20010 30152 40163 52001 60006 80000 90300=
07761,1997-01-12 06:00:00,2,1017.2,0.9,93,1,15000,14.816,,,50,2.2,7.1,,,,,,,,,wg-a,,,,AAXX 12064 07761 02765 10508 10020 20010 30161 40172 53009 60006 815/0 90600 333 10071 20022 60004=
07761,1997-01-12 09:00:00,6,1018.4,1.2,87,4,500,11.112,,,50,,,,,,,,,,,wg-a,,,,AAXX 12094 07761 12700 /0506 10060 20040 30173 40184 51012 60006 81140 90900=
07761,1997-01-12 12:00:00,14,1018.6,0.2,72,9,500,11.112,,,240,,,,,,,,,,,wg-a,,,,AAXX 12124 07761 12700 /2406 10140 20090 30175 40186 50002 60006 81100 91200=
07761,1997-01-12 15:00:00,13,1018.9,0.3,77,9,500,11.112,,,230,,,,,,,,,,,wg-a,,,,AAXX 12154 07761 12700 /2306 10130 20090 30178 40189 53003 60006 81100 91500=
07761,1997-01-12 18:00:00,7,1019.8,0.9,87,5,20000,11.112,,,50,1.9,14.2,,,,,,,,,wg-a,,,,AAXX 12184 07761 12/70 00506 10070 20050 30187 40198 51009 60006 80000 91800 333 10142 20019=
07761,1997-01-12 21:00:00,5,1020.8,1,87,3,20000,14.816,,,50,,,,,,,,,,,wg-a,,,,AAXX 12214 07761 12/70 00508 10050 20030 30197 40208 51010 60006 80000 92100=
07761,1997-01-13 00:00:00,4,1021.5,0.7,87,2,20000,14.816,,,50,,,,,,,,,,,wg-a,,,,AAXX 13004 07761 12670 /0508 10040 20020 30204 40215 53007 60006 81500 90000=
07761,1997-01-13 03:00:00,5,1021.4,-0.1,93,4,20000,18.52,,,50,,,,,,,,,,,wg-a,,,,AAXX 13034 07761 12470 40510 10050 20040 30203 40214 58001 60006 84500 90300=
07761,1997-01-13 06:00:00,4,1021.4,-0,87,2,20000,14.816,,,50,3.7,7.2,,,,,,,,,wg-a,,,,AAXX 13064 07761 02470 30508 10040 20020 30203 40214 55000 60006 81501 90600 333 10072 20037 60004=
07761,1997-01-13 09:00:00,8,1022.7,1.3,81,5,500,11.112,,,50,,,,,,,,,,,wg-a,,,,AAXX 13094 07761 12500 /0506 10080 20050 30216 40227 51013 60006 81101 90900=
07761,1997-01-13 12:00:00,14,1021.9,-0.8,77,10,500,7.408,,,220,,,,,,,,,,,wg-a,,,,AAXX 13124 07761 12600 /2204 10140 20100 30208 40219 58008 60006 81101 91200=
07761,1997-01-13 15:00:00,13,1021.4,-0.5,82,10,500,11.112,,,220,,,,,,,,,,,wg-a,,,,AAXX 13154 07761 12500 /2206 10130 20100 30203 40214 55005 60006 81100 91500=
07761,1997-01-13 18:00:00,8,1022.1,0.7,93,7,25000,11.112,,,60,3.2,14.2,,,,,,,,,wg-a,,,,AAXX 13184 07761 12575 /0606 10080 20070 30210 40221 53007 60006 81500 91800 333 10142 20032=
07761,1997-01-13 21:00:00,7,1023,0.9,93,6,18000,11.112,,,50,,,,,,,,,,,wg-a,,,,AAXX 13214 07761 12468 80506 10070 20060 30219 40230 51009 60006 875// 92100=
07761,1997-01-14 00:00:00,5,1022.9,-0.1,93,4,0,11.112,,,50,,,,,,,,,,,wg-a,,,,AAXX 14004 07761 12/// /0506 10050 20040 30218 40229 58001 60006 90000=
07761,1997-01-14 03:00:00,5,1022.4,-0.5,93,4,15000,14.816,,,40,,,,,,,,,,,wg-a,,,,AAXX 14034 07761 12/65 00408 10050 20040 30213 40224 58005 60006 80000 90300=
07761,1997-01-14 06:00:00,4,1022.9,0.5,93,3,15000,11.112,,,60,3.5,7.8,,,,,,,,,wg-a,,,,AAXX 14064 07761 02/65 00606 10040 20030 30218 40229 52005 60006 80000 90600 333 10078 20035 60004=
07761,1997-01-14 09:00:00,8,1023.8,0.9,87,6,50000,14.816,,,50,,,,,,,,,,,wg-a,,,,AAXX 14094 07761 12/84 00508 10080 20060 30227 40238 51009 60006 80000 90900=
07761,1997-01-14 12:00:00,14,1023.1,,72,9,50000,7.408,,,240,,,,,,,,,,,wg-a,,,,AAXX 14124 07761 12584 /2404 10140 20090 30220 40231 60006 8110/ 91200=
07761,1997-01-14 15:00:00,14,1022.9,-0.2,67,8,60000,7.408,,,190,,,,,,,,,,,wg-a,,,,AAXX 14154 07761 12/86 01904 10140 20080 30218 40229 55002 60006 80000 91500=
07761,1997-01-14 18:00:00,8,1024.1,1.2,87,6,20000,11.112,,,70,3.1,14.5,,,,,,,,,wg-a,,,,AAXX 14184 07761 12/70 00706 10080 20060 30230 40241 53012 60006 80000 91800 333 10145 20031=
07761,1997-01-14 21:00:00,5,1025,0.9,87,3,10000,14.816,,,30,,,,,,,,,,,wg-a,,,,AAXX 14214 07761 32/60 00308 10050 20030 30239 40250 53009 80000 92100=
07761,1997-01-15 06:00:00,3,1025.4,0.1,93,2,15000,14.816,,,60,2.2,7.7,,,,,,,,,wg-a,,,,AAXX 15064 07761 02/65 00608 10030 20020 30243 40254 51001 60006 80000 90600 333 10077 20022 60004=
07761,1997-01-15 09:00:00,7,1026.6,1.2,87,5,25000,14.816,,,50,,,,,,,,,,,wg-a,,,,AAXX 15094 07761 12/75 00508 10070 20050 30255 40266 53012 60006 80000 90900=
07761,1997-01-15 12:00:00,14,1025.9,-0.7,63,7,35000,11.112,,,230,,,,,,,,,,,wg-a,,,,AAXX 15124 07761 12/81 22306 10140 20070 30248 40259 58007 60006 80002 91200=
07761,1997-01-15 15:00:00,14,1025.2,-0.7,77,10,35000,11.112,,,190,,,,,,,,,,,wg-a,,,,AAXX 15154 07761 12/81 21906 10140 20100 30241 40252 56007 60006 80001 91500=
07761,1997-01-15 18:00:00,7,1025.7,0.5,93,6,20000,11.112,,,80,2.2,14.1,,,,,,,,,wg-a,,,,AAXX 15184 07761 12/70 00806 10070 20060 30246 40257 53005 60006 80000 91800 333 10141 20022=
07761,1997-01-15 21:00:00,5,1025.6,-0.1,87,3,15000,11.112,,,60,,,,,,,,,,,wg-a,,,,AAXX 15214 07761 12/65 00606 10050 20030 30245 40256 58001 60006 80000 92100=
07761,1997-01-16 00:00:00,3,1025.6,0,93,2,13000,14.816,,,60,,,,,,,,,,,wg-a,,,,AAXX 16004 07761 12/63 00608 10030 20020 30245 40256 50000 60006 80000 90000=
07761,1997-01-16 03:00:00,3,1024.9,-0.7,87,1,20000,14.816,,,60,,,,,,,,,,,wg-a,,,,AAXX 16034 07761 12/70 00608 10030 20010 30238 40249 58007 60006 80000 90300=
07761,1997-01-16 06:00:00,3,1024.2,-0.7,93,2,15000,11.112,,,60,1.7,7.1,,,,,,,,,wg-a,,,,AAXX 16064 07761 02/65 00606 10030 20020 30231 40242 56007 60006 80000 90600 333 10071 20017 60004=
07761,1997-01-16 09:00:00,7,1024.9,0.7,81,4,25000,7.408,,,60,,,,,,,,,,,wg-a,,,,AAXX 16094 07761 12/75 00604 10070 20040 30238 40249 53007 60006 80000 90900=
07761,1997-01-16 12:00:00,13,1024.2,-0.7,72,8,500,11.112,,,250,,,,,,,,,,,wg-a,,,,AAXX 16124 07761 12500 /2506 10130 20080 30231 40242 58007 60006 81500 91200=
07761,1997-01-16 15:00:00,13,1023.2,-1,82,10,500,14.816,,,210,,,,,,,,,,,wg-a,,,,AAXX 16154 07761 12/00 02108 10130 20100 30221 40232 56010 60006 80000 91500=
07761,1997-01-16 18:00:00,8,1024,0.8,87,6,25000,11.112,,,60,1.3,13.9,,,,,,,,,wg-a,,,,AAXX 16184 07761 12575 /0606 10080 20060 30229 40240 53008 60006 81500 91800 333 10139 20013=
07761,1997-01-16 21:00:00,5,1024.3,0.3,93,4,20000,11.112,,,60,,,,,,,,,,,wg-a,,,,AAXX 16214 07761 12570 /0606 10050 20040 30232 40243 52003 60006 81500 92100=
07761,1997-01-17 00:00:00,3,1023.9,-0.4,93,2,20000,14.816,,,50,,,,,,,,,,,wg-a,,,,AAXX 17004 07761 12/70 00508 10030 20020 30228 40239 56004 60006 80000 90000=
07761,1997-01-17 03:00:00,5,1023.1,-0.8,87,3,20000,14.816,,,50,,,,,,,,,,,wg-a,,,,AAXX 17034 07761 12/70 00508 10050 20030 30220 40231 58008 60006 80000 90300=
07761,1997-01-17 06:00:00,3,1022.5,-0.6,87,1,20000,11.112,,,60,3.1,7.5,,,,,,,,,wg-a,,,,AAXX 17064 07761 02/70 00606 10030 20010 30214 40225 55006 60006 80000 90600 333 10075 20031 60004=
07761,1997-01-17 09:00:00,8,1022.9,0.4,81,5,500,11.112,,,40,,,,,,,,,,,wg-a,,,,AAXX 17094 07761 12800 /0406 10080 20050 30218 40229 51004 60006 81030 90900=
07761,1997-01-17 12:00:00,16,1021.6,-1.3,48,5,40000,3.704,,,210,,,,,,,,,,,wg-a,,,,AAXX 17124 07761 12682 22102 10160 20050 30205 40216 58013 60006 81130 91200=
07761,1997-01-17 15:00:00,14,1020.6,-1,67,8,500,11.112,,,200,,,,,,,,,,,wg-a,,,,AAXX 17154 07761 12600 22006 10140 20080 30195 40206 56010 60006 82200 91500=
07761,1997-01-17 18:00:00,9,1021,0.4,81,6,20000,14.816,,,60,2.4,16.1,,,,,,,,,wg-a,,,,AAXX 17184 07761 12870 20608 10090 20060 30199 40210 53004 60006 82030 91800 333 10161 20024=
07761,1997-01-17 21:00:00,6,1021.2,0.2,87,4,20000,11.112,,,60,,,,,,,,,,,wg-a,,,,AAXX 17214 07761 12870 /0606 10060 20040 30201 40212 53002 60006 81070 92100=
07761,1997-01-18 00:00:00,5,1020.9,-0.3,93,4,20000,11.112,,,60,,,,,,,,,,,wg-a,,,,AAXX 18004 07761 12870 30606 10050 20040 30198 40209 57003 60006 83070 90000=
07761,1997-01-18 03:00:00,5,1020.1,-0.8,93,4,20000,7.408,,,60,,,,,,,,,,,wg-a,,,,AAXX 18034 07761 12870 20604 10050 20040 30190 40201 58008 60006 82030 90300=
07761,1997-01-18 06:00:00,5,1020.1,-0,93,4,20000,14.816,,,50,4.3,8.8,,,,,,,,,wg-a,,,,AAXX 18064 07761 02770 /0508 10050 20040 30190 40201 55000 60006 82530 90600 333 10088 20043 60004=
07761,1997-01-18 09:00:00,11,1021.2,1.1,82,8,20000,11.112,,,60,,,,,,,,,,,wg-a,,,,AAXX 18094 07761 12770 /0606 10110 20080 30201 40212 51011 60006 81530 90900=
07761,1997-01-18 12:00:00,15,1019.7,-1.5,67,9,500,18.52,,,260,,,,,,,,,,,wg-a,,,,AAXX 18124 07761 12600 22610 10150 20090 30186 40197 58015 60006 81801 91200=
07761,1997-01-18 15:00:00,16,1019.6,-0.1,59,8,20000,7.408,,,310,,,,,,,,,,,wg-a,,,,AAXX 18154 07761 12670 23104 10160 20080 30185 40196 55001 60006 81831 91500=
07761,1997-01-18 18:00:00,9,1020.4,0.8,87,7,20000,11.112,,,60,5.1,16.7,,,,,,,,,wg-a,,,,AAXX 18184 07761 12670 /0606 10090 20070 30193 40204 53008 60006 82570 91800 333 10167 20051=
07761,1997-01-18 21:00:00,9,1020.2,-0.2,87,7,15000,7.408,,,50,,,,,,,,,,,wg-a,,,,AAXX 18214 07761 12765 70504 10090 20070 30191 40202 55002 60006 8257/ 92100=
07761,1997-01-19 00:00:00,10,1019.6,-0.6,82,7,17000,7.408,,,40,,,,,,,,,,,wg-a,,,,AAXX 19004 07761 12667 80404 10100 20070 30185 40196 58006 60006 8687/ 90000=
07761,1997-01-19 03:00:00,10,1019.5,-0.1,87,8,17000,7.408,,,40,,,,,,,,,,,wg-a,,,,AAXX 19034 07761 12567 80404 10100 20080 30184 40195 56001 60006 8687/ 90300=
07761,1997-01-19 06:00:00,10,1019.3,-0.2,87,8,17000,11.112,,,70,9.1,10.2,,,,,,,,,wg-a,,,,AAXX 19064 07761 02567 70706 10100 20080 30182 40193 55002 60006 878// 90600 333 10102 20091 60004=
07761,1997-01-19 09:00:00,11,1019.8,0.5,87,9,15000,7.408,,,60,,,,,,,,,,,wg-a,,,,AAXX 19094 07761 12565 70604 10110 20090 30187 40198 53005 60006 8487/ 90900=
07761,1997-01-19 12:00:00,14,1019.1,-0.7,77,10,11000,7.408,,,280,,,,,,,,,,,wg-a,,,,AAXX 19124 07761 12/61 /2804 10140 20100 30180 40191 58007 60006 91200=
07761,1997-01-19 15:00:00,14,1018,-1.1,77,10,20000,0,,,0,,,,,,,,,,21,wg-a,,,,AAXX 19154 07761 02570 70000 10140 20100 30169 40180 56011 61000 72162 8387/ 91500 333 ////=
07761,1997-01-19 18:00:00,12,1017.8,-0.2,88,10,15000,7.408,,,60,9.5,14,,,,,,,,1,wg-a,,,,AAXX 19184 07761 02565 /0604 10120 20100 30167 40178 58002 60006 70162 83870 91800 333 10140 20095 61000=
07761,1997-01-19 21:00:00,11,1017.6,-0.2,87,9,15000,11.112,,,40,,,,,,,,,,,wg-a,,,,AAXX 19214 07761 12565 70406 10110 20090 30165 40176 58002 60006 81576 92100=
07761,1997-01-20 00:00:00,10,1016.4,-1.2,87,8,15000,11.112,,,50,,,,,,,,,,,wg-a,,,,AAXX 20004 07761 12565 70506 10100 20080 30153 40164 58012 60006 8157/ 90000=
07761,1997-01-20 03:00:00,10,1015.9,-0.5,87,8,15000,18.52,,,40,,,,0,,,,,,21,wg-a,,,,AAXX 20034 07761 12565 80410 10100 20080 30148 40159 58005 60007 72162 8257/ 90300=
07761,1997-01-20 06:00:00,11,1015.2,-0.7,76,7,15000,11.112,,,40,9.5,11.6,,,,,,,,1,wg-a,,,,AAXX 20064 07761 02565 70406 10110 20070 30141 40152 55007 60006 70162 82572 90600 333 10116 20095 60004=
07761,1997-01-20 09:00:00,13,1015.9,0.7,77,9,40000,11.112,,,50,,,,,,,,,,,wg-a,,,,AAXX 20094 07761 12882 70506 10130 20090 30148 40159 53007 60006 82042 90900=
07761,1997-01-20 12:00:00,18,1016.1,0.2,52,8,40000,0,,,0,,,,,,,,,,,wg-a,,,,AAXX 20124 07761 12882 70000 10180 20080 30150 40161 51002 60006 83042 91200=
07761,1997-01-20 15:00:00,18,1016,-0.1,49,7,40000,3.704,,,100,,,,,,,,,,,wg-a,,,,AAXX 20154 07761 12682 81002 10180 20070 30149 40160 56001 60006 83147 91500=
07761,1997-01-20 18:00:00,12,1017.9,1.9,82,9,500,11.112,,,50,9.1,20.4,,,,,,,,,wg-a,,,,AAXX 20184 07761 12/00 20506 10120 20090 30168 40179 53019 60006 81042 91800 333 10204 20091=
07761,1997-01-20 21:00:00,10,1018.6,0.7,82,7,20000,14.816,,,70,,,,,,,,,,,wg-a,,,,AAXX 20214 07761 12/70 00708 10100 20070 30175 40186 51007 60006 80000 92100=
07761,1997-01-21 00:00:00,9,1018.8,0.2,87,7,20000,14.816,,,50,,,,,,,,,,,wg-a,,,,AAXX 21004 07761 12/70 00508 10090 20070 30177 40188 50002 60006 80000 90000=
07761,1997-01-21 03:00:00,9,1019.5,0.7,81,6,20000,3.704,,,110,,,,,,,,,,,wg-a,,,,AAXX 21034 07761 12870 /1102 10090 20060 30184 40195 53007 60006 81032 90300=
07761,1997-01-21 06:00:00,7,1021,1.5,87,5,20000,3.704,,,80,7,12.2,,,,,,,,,wg-a,,,,AAXX 21064 07761 02/70 70802 10070 20050 30199 40210 53015 60006 80002 90600 333 10122 20070 60004=
07761,1997-01-21 09:00:00,11,1021.8,0.8,82,8,35000,3.704,,,90,,,,,,,,,,,wg-a,,,,AAXX 21094 07761 12/81 70902 10110 20080 30207 40218 51008 60006 84072 90900=
07761,1997-01-21 12:00:00,16,1022.2,0.4,68,10,40000,7.408,,,220,,,,,,,,,,,wg-a,,,,AAXX 21124 07761 12/82 62204 10160 20100 30211 40222 50004 60006 81032 91200=
07761,1997-01-21 15:00:00,15,1022.4,0.2,77,11,500,3.704,,,60,,,,,,,,,,,wg-a,,,,AAXX 21154 07761 12800 /0602 10150 20110 30213 40224 53002 60006 81532 91500=
07761,1997-01-21 18:00:00,11,1023.3,0.9,94,10,15000,3.704,,,30,6.8,16,,,,,,,,,wg-a,,,,AAXX 21184 07761 12/65 80302 10110 20100 30222 40233 53009 60006 84072 91800 333 10160 20068=
07761,1997-01-21 21:00:00,9,1023.6,0.3,87,7,14000,7.408,,,60,,,,,,,,,,,wg-a,,,,AAXX 21214 07761 12/64 80604 10090 20070 30225 40236 51003 60006 81072 92100=
07761,1997-01-22 00:00:00,8,1024.3,0.7,93,7,11000,11.112,,,60,,,,,,,,,,,wg-a,,,,AAXX 22004 07761 12/61 /0606 10080 20070 30232 40243 51007 60006 90000=
07761,1997-01-22 03:00:00,7,1024.5,0.2,93,6,10000,14.816,,,60,,,,,,,,,,,wg-a,,,,AAXX 22034 07761 12/60 /0608 10070 20060 30234 40245 50002 60006 90300=
07761,1997-01-22 06:00:00,8,1024.9,0.4,87,6,14000,14.816,,,70,5.7,11.1,,,,,,,,,wg-a,,,,AAXX 22064 07761 02/64 /0708 10080 20060 30238 40249 53004 60006 83022 90600 333 10111 20057 60004=
07761,1997-01-22 09:00:00,11,1025.6,0.7,76,7,25000,7.408,,,140,,,,,,,,,,,wg-a,,,,AAXX 22094 07761 12875 71404 10110 20070 30245 40256 53007 60006 83076 90900=
07761,1997-01-22 12:00:00,15,1026.4,0.8,67,9,500,3.704,,,340,,,,,,,,,,,wg-a,,,,AAXX 22124 07761 12/00 83402 10150 20090 30253 40264 50008 60006 84077 91200=
07761,1997-01-22 15:00:00,16,1024.6,-1.8,72,11,500,7.408,,,250,,,,,,,,,,,wg-a,,,,AAXX 22154 07761 12/00 72504 10160 20110 30235 40246 56018 60006 82077 91500=
07761,1997-01-22 18:00:00,11,1023.9,-0.7,82,8,20000,14.816,,,60,7,19.2,,,,,,,,,wg-a,,,,AAXX 22184 07761 12/70 70608 10110 20080 30228 40239 58007 60006 81037 91800 333 10192 20070=
07761,1997-01-22 21:00:00,7,1024.4,0.5,93,6,20000,11.112,,,60,,,,,,,,,,,wg-a,,,,AAXX 22214 07761 12/70 10606 10070 20060 30233 40244 53005 60006 81030 92100=
07761,1997-01-23 00:00:00,10,1023.9,-0.5,66,4,20000,18.52,,,40,,,,,,,,,,,wg-a,,,,AAXX 23004 07761 12/70 /0410 10100 20040 30228 40239 58005 60006 81040 90000=
07761,1997-01-23 03:00:00,10,1023,-0.9,62,3,500,14.816,,,50,,,,,,,,,,,wg-a,,,,AAXX 23034 07761 12/00 /0508 10100 20030 30219 40230 56009 60006 81040 90300=
07761,1997-01-23 06:00:00,8,1023.7,0.7,71,3,500,11.112,,,70,7,15.7,,,,,,,,,wg-a,,,,AAXX 23064 07761 02/00 /0706 10080 20030 30226 40237 53007 60006 81041 90600 333 10157 20070 60004=
07761,1997-01-23 09:00:00,14,1024.7,1,55,5,40000,14.816,,,60,,,,,,,,,,,wg-a,,,,AAXX 23094 07761 12/82 /0608 10140 20050 30236 40247 53010 60006 81042 90900=
07761,1997-01-23 12:00:00,19,1023.9,-0.8,46,7,40000,3.704,,,240,,,,,,,,,,,wg-a,,,,AAXX 23124 07761 12/82 42402 10190 20070 30228 40239 58008 60006 81031 91200=
07761,1997-01-23 18:00:00,11,1023.7,2.2,71,6,40000,11.112,,,80,7.7,22.4,,,,,,,,,wg-a,,,,AAXX 23184 07761 12/82 40806 10110 20060 30226 40237 51022 60006 82032 91800 333 10224 20077=
07761,1997-01-23 21:00:00,10,1024.2,0.5,71,5,20000,7.408,,,80,,,,,,,,,,,wg-a,,,,AAXX 23214 07761 12/70 30804 10100 20050 30231 40242 51005 60006 81042 92100=
07761,1997-01-24 00:00:00,10,1023.7,-0.5,71,5,500,11.112,,,60,,,,,,,,,,,wg-a,,,,AAXX 24004 07761 12/00 70606 10100 20050 30226 40237 56005 60006 84055 90000=
07761,1997-01-24 03:00:00,9,1023.4,-0.3,76,5,20000,11.112,,,60,,,,,,,,,,,wg-a,,,,AAXX 24034 07761 12/70 70606 10090 20050 30223 40234 58003 60006 81035 90300=
07761,1997-01-24 06:00:00,9,1024.2,0.8,71,4,20000,11.112,,,70,7.8,11.6,,,,,,,,,wg-a,,,,AAXX 24064 07761 02/70 70706 10090 20040 30231 40242 53008 60006 83075 90600 333 10116 20078 60004=
07761,1997-01-24 09:00:00,12,1025.1,0.9,67,6,20000,11.112,,,90,,,,,,,,,,,wg-a,,,,AAXX 24094 07761 12670 30906 10120 20060 30240 40251 51009 60006 81575 90900=
07761,1997-01-24 12:00:00,17,1024.2,-0.9,55,8,500,11.112,,,250,,,,,,,,,,,wg-a,,,,AAXX 24124 07761 12/00 32506 10170 20080 30231 40242 58009 60006 83072 91200=
07761,1997-01-24 18:00:00,13,1025.4,1.2,77,9,20000,7.408,,,50,8.2,19.1,,,,,,,,,wg-a,,,,AAXX 24184 07761 12870 70504 10130 20090 30243 40254 53012 60006 83572 91800 333 10191 20082=
07761,1997-01-25 00:00:00,12,1025.6,0.2,76,8,20000,11.112,,,40,,,,,,,,,,,wg-a,,,,AAXX 25004 07761 12/70 70406 10120 20080 30245 40256 50002 60006 83075 90000=
07761,1997-01-25 03:00:00,12,1024.9,-0.7,76,8,20000,11.112,,,70,,,,,,,,,,,wg-a,,,,AAXX 25034 07761 12770 70706 10120 20080 30238 40249 56007 60006 81575 90300=
07761,1997-01-25 06:00:00,11,1024.8,-0.1,76,7,20000,11.112,,,50,10.5,13.3,,,,,,,,,wg-a,,,,AAXX 25064 07761 02770 70506 10110 20070 30237 40248 55001 60006 81575 90600 333 10133 20105 60004=
07761,1997-01-25 09:00:00,11,1025.3,0.5,82,8,25000,11.112,,,50,,,,,,,,,,,wg-a,,,,AAXX 25094 07761 12775 /0506 10110 20080 30242 40253 53005 60006 83532 90900=
07761,1997-01-25 12:00:00,16,1023.7,-1.6,63,9,25000,3.704,,,250,,,,,,,,,,,wg-a,,,,AAXX 25124 07761 12675 72502 10160 20090 30226 40237 58016 60006 81832 91200=
07761,1997-01-25 15:00:00,15,1022.7,-1,77,11,22000,11.112,,,200,,,,,,,,,,,wg-a,,,,AAXX 25154 07761 12672 /2006 10150 20110 30216 40227 56010 60006 81832 91500=
07761,1997-01-25 18:00:00,11,1023.2,0.5,87,9,15000,7.408,,,60,9.6,16.3,,,,,,,,,wg-a,,,,AAXX 25184 07761 12665 /0604 10110 20090 30221 40232 53005 60006 82532 91800 333 10163 20096=
07761,1997-01-25 21:00:00,8,1023.3,0.1,93,7,14000,14.816,,,60,,,,,,,,,,,wg-a,,,,AAXX 25214 07761 12664 70608 10080 20070 30222 40233 50001 60006 82532 92100=
07761,1997-01-26 00:00:00,7,1022.5,-0.8,93,6,14000,11.112,,,70,,,,,,,,,,,wg-a,,,,AAXX 26004 07761 12/64 /0706 10070 20060 30214 40225 58008 60006 83072 90000=
07761,1997-01-26 03:00:00,7,1021.4,-1.1,93,6,14000,11.112,,,40,,,,,,,,,,,wg-a,,,,AAXX 26034 07761 12/64 /0406 10070 20060 30203 40214 58011 60006 82038 90300=
07761,1997-01-26 09:00:00,8,1022.7,0.9,93,7,18000,11.112,,,50,,,,,,,,,,,wg-a,,,,AAXX 26094 07761 12568 70506 10080 20070 30216 40227 52009 60006 84502 90900=
07761,1997-01-26 12:00:00,15,1022.2,-0.5,72,10,15000,11.112,,,230,,,,,,,,,,,wg-a,,,,AAXX 26124 07761 12565 72306 10150 20100 30211 40222 58005 60006 83232 91200=
07761,1997-01-26 15:00:00,14,1021.9,-0.3,82,11,13000,14.816,,,220,,,,,,,,,,,wg-a,,,,AAXX 26154 07761 12563 72208 10140 20110 30208 40219 55003 60006 81832 91500=
07761,1997-01-26 18:00:00,12,1023.2,1.3,88,10,10000,7.408,,,190,6.6,15.2,,,,,,,,,wg-a,,,,AAXX 26184 07761 12460 81904 10120 20100 30221 40232 53013 60006 878// 91800 333 10152 20066=
07761,1997-01-26 21:00:00,11,1024.2,1,94,10,10000,3.704,,,100,,,,,,,,,,,wg-a,,,,AAXX 26214 07761 12460 81002 10110 20100 30231 40242 51010 60006 878// 92100=
07761,1997-01-27 00:00:00,11,1024.6,0.4,87,9,10000,7.408,,,40,,,,,,,,,,,wg-a,,,,AAXX 27004 07761 12460 80404 10110 20090 30235 40246 51004 60006 875// 90000=
07761,1997-01-27 03:00:00,10,1024.6,0,87,8,12000,11.112,,,60,,,,,,,,,,,wg-a,,,,AAXX 27034 07761 12462 /0606 10100 20080 30235 40246 50000 60006 82832 90300=
07761,1997-01-27 06:00:00,7,1025.3,0.7,87,5,14000,14.816,,,40,6.9,12.3,,,,,,,,,wg-a,,,,AAXX 27064 07761 02664 40408 10070 20050 30242 40253 53007 60006 81532 90600 333 10123 20069 60004=
07761,1997-01-27 09:00:00,10,1026.6,1.3,82,7,15000,7.408,,,50,,,,,,,,,,,wg-a,,,,AAXX 27094 07761 12565 80504 10100 20070 30255 40266 51013 60006 878// 90900=
07761,1997-01-27 12:00:00,14,1026.5,-0.1,67,8,15000,7.408,,,250,,,,,,,,,,,wg-a,,,,AAXX 27124 07761 12565 /2504 10140 20080 30254 40265 58001 60006 84800 91200=
07761,1997-01-27 15:00:00,14,1025.9,-0.6,67,8,15000,3.704,,,280,,,,,,,,,,,wg-a,,,,AAXX 27154 07761 12565 22802 10140 20080 30248 40259 56006 60006 82800 91500=
07761,1997-01-27 18:00:00,10,1026.8,0.9,82,7,15000,7.408,,,60,6.2,14.9,,,,,,,,,wg-a,,,,AAXX 27184 07761 12665 20604 10100 20070 30257 40268 53009 60006 82500 91800 333 10149 20062=
07761,1997-01-27 21:00:00,7,1027.3,0.5,93,6,15000,7.408,,,50,,,,,,,,,,,wg-a,,,,AAXX 27214 07761 12665 20504 10070 20060 30262 40273 51005 60006 82500 92100=
07761,1997-01-28 00:00:00,6,1027.2,-0.1,93,5,15000,14.816,,,60,,,,,,,,,,,wg-a,,,,AAXX 28004 07761 12665 20608 10060 20050 30261 40272 57001 60006 82530 90000=
07761,1997-01-28 03:00:00,7,1026.8,-0.4,93,6,12000,11.112,,,50,,,,,,,,,,,wg-a,,,,AAXX 28034 07761 12662 80506 10070 20060 30257 40268 58004 60006 8153/ 90300=
07761,1997-01-28 06:00:00,8,1027.4,0.6,87,6,15000,7.408,,,50,5.4,9.8,,,,,,,,,wg-a,,,,AAXX 28064 07761 02665 70504 10080 20060 30263 40274 53006 60006 8153/ 90600 333 10098 20054 60004=
07761,1997-01-28 09:00:00,9,1028.5,1.1,93,8,10000,7.408,,,60,,,,,,,,,,,wg-a,,,,AAXX 28094 07761 12660 80604 10090 20080 30274 40285 51011 60006 8357/ 90900=
07761,1997-01-28 12:00:00,13,1028.5,0,67,7,15000,3.704,,,110,,,,,,,,,,,wg-a,,,,AAXX 28124 07761 12565 51102 10130 20070 30274 40285 50000 60006 83871 91200=
07761,1997-01-28 15:00:00,14,1028.7,0.2,67,8,15000,7.408,,,250,,,,,,,,,,,wg-a,,,,AAXX 28154 07761 12565 /2504 10140 20080 30276 40287 53002 60006 84871 91500=
07761,1997-01-28 18:00:00,11,1030.1,1.4,82,8,15000,7.408,,,60,7.3,14.5,,,,,,,,,wg-a,,,,AAXX 28184 07761 12565 /0604 10110 20080 30290 40301 53014 60006 81870 91800 333 10145 20073=
07761,1997-01-28 21:00:00,7,1031.2,1.1,87,5,15000,11.112,,,40,,,,,,,,,,,wg-a,,,,AAXX 28214 07761 12/65 /0406 10070 20050 30301 40312 52011 60006 80000 92100=
07761,1997-01-29 00:00:00,5,1031.8,0.6,93,4,15000,14.816,,,50,,,,,,,,,,,wg-a,,,,AAXX 29004 07761 12/65 00508 10050 20040 30307 40318 51006 60006 80000 90000=
07761,1997-01-29 03:00:00,5,1031.8,0,87,3,15000,14.816,,,50,,,,,,,,,,,wg-a,,,,AAXX 29034 07761 12/65 20508 10050 20030 30307 40318 50000 60006 80002 90300=
07761,1997-01-29 06:00:00,4,1031.4,-0.4,93,3,15000,14.816,,,50,3.8,11,,,,,,,,,wg-a,,,,AAXX 29064 07761 02/65 00508 10040 20030 30303 40314 55004 60006 80000 90600 333 10110 20038 60004=
07761,1997-01-29 09:00:00,9,1031.8,0.4,81,6,15000,11.112,,,40,,,,,,,,,,,wg-a,,,,AAXX 29094 07761 12/65 00406 10090 20060 30307 40318 52004 60006 80000 90900=
07761,1997-01-29 12:00:00,14,1031.4,-0.4,72,9,20000,11.112,,,200,,,,,,,,,,,wg-a,,,,AAXX 29124 07761 12670 /2006 10140 20090 30303 40314 58004 60006 81100 91200=
07761,1997-01-29 15:00:00,14,1030.5,-0.9,77,10,11000,14.816,,,190,,,,,,,,,,,wg-a,,,,AAXX 29154 07761 12/61 /1908 10140 20100 30294 40305 56009 60006 91500=
07761,1997-01-29 18:00:00,9,1031.1,0.6,87,7,20000,7.408,,,60,3.5,14.8,,,,,,,,,wg-a,,,,AAXX 29184 07761 12/70 /0604 10090 20070 30300 40311 51006 60006 80000 91800 333 10148 20035=
07761,1997-01-29 21:00:00,6,1032.1,1,87,4,15000,11.112,,,60,,,,,,,,,,,wg-a,,,,AAXX 29214 07761 12/65 00606 10060 20040 30310 40321 53010 60006 80000 92100=
07761,1997-01-30 00:00:00,5,1031.8,-0.3,93,4,15000,14.816,,,50,,,,,,,,,,,wg-a,,,,AAXX 30004 07761 12/65 00508 10050 20040 30307 40318 58003 60006 80000 90000=
07761,1997-01-30 03:00:00,4,1031.4,-0.4,93,3,15000,14.816,,,50,,,,,,,,,,,wg-a,,,,AAXX 30034 07761 12/65 00508 10040 20030 30303 40314 58004 60006 80000 90300=
07761,1997-01-30 06:00:00,4,1031.3,-0.1,93,3,10000,11.112,,,60,2.9,9.1,,,,,,,,,wg-a,,,,AAXX 30064 07761 02/60 /0606 10040 20030 30302 40313 55001 60006 90600 333 10091 20029 60004=
07761,1997-01-30 09:00:00,8,1031.9,0.6,87,6,12000,11.112,,,60,,,,,,,,,,,wg-a,,,,AAXX 30094 07761 12662 /0606 10080 20060 30308 40319 51006 60006 81100 90900=
07761,1997-01-30 12:00:00,14,1031.1,-0.8,72,9,15000,11.112,,,220,,,,,,,,,,,wg-a,,,,AAXX 30124 07761 12565 /2206 10140 20090 30300 40311 58008 60006 81100 91200=
07761,1997-01-30 15:00:00,14,1029.6,-1.5,72,9,16000,11.112,,,180,,,,,,,,,,,wg-a,,,,AAXX 30154 07761 12566 /1806 10140 20090 30285 40296 56015 60006 81800 91500=
07761,1997-01-30 18:00:00,9,1030.1,0.5,87,7,8000,11.112,,,50,3.2,13.9,,,,,,,,,wg-a,,,,AAXX 30184 07761 12558 /0506 10090 20070 30290 40301 53005 60006 81500 91800 333 10139 20032=
07761,1997-01-30 21:00:00,5,1030.2,0.1,93,4,7000,11.112,,,50,,,,,,,,,,,wg-a,,,,AAXX 30214 07761 12/57 00506 10050 20040 30291 40302 50001 60006 80000 92100=
07761,1997-01-31 00:00:00,4,1030.2,-0,93,3,8000,11.112,,,60,,,,,,,,,,,wg-a,,,,AAXX 31004 07761 12/58 00606 10040 20030 30291 40302 55000 60006 80000 90000=
07761,1997-01-31 03:00:00,6,1029.5,-0.7,93,5,7000,11.112,,,50,,,,,,,,,,,wg-a,,,,AAXX 31034 07761 12457 60506 10060 20050 30284 40295 56007 60006 86800 90300=
07761,1997-01-31 12:00:00,13,1028.4,-1.2,72,8,15000,14.816,,,220,,,,,,,,,,,wg-a,,,,AAXX 31124 07761 12565 42208 10130 20080 30273 40284 58012 60006 84800 91200=
07761,1997-01-31 15:00:00,14,1026.8,-1.6,63,7,15000,11.112,,,300,,,,,,,,,,,wg-a,,,,AAXX 31154 07761 12565 23006 10140 20070 30257 40268 56016 60006 82830 91500=
07761,1997-01-31 18:00:00,10,1027,0.2,82,7,15000,7.408,,,70,4.7,14.4,,,,,,,,,wg-a,,,,AAXX 31184 07761 12665 30704 10100 20070 30259 40270 52002 60006 83500 91800 333 10144 20047=
07761,1997-01-31 21:00:00,6,1026.9,-0.1,93,5,15000,11.112,,,60,,,,,,,,,,,wg-a,,,,AAXX 31214 07761 12665 20606 10060 20050 30258 40269 55001 60006 82500 92100=
07761,1997-02-01 00:00:00,6,1026.4,-0.5,93,5,15000,7.408,,,70,,,,,,,,,,,wg-a,,,,AAXX 01004 07761 12665 70704 10060 20050 30253 40264 57005 60006 875// 90000=
07761,1997-02-01 03:00:00,7,1025.2,-1.2,93,6,15000,11.112,,,50,,,,,,,,,,,wg-a,,,,AAXX 01034 07761 12665 70506 10070 20060 30241 40252 56012 60006 875// 90300=
07761,1997-02-01 06:00:00,7,1024.9,-0.3,87,5,15000,11.112,,,60,5.9,9.7,,,,,,,,,wg-a,,,,AAXX 01064 07761 02765 70606 10070 20050 30238 40249 55003 60006 85530 90600 333 10097 20059 60004=
07761,1997-02-01 09:00:00,9,1026,1.1,81,6,20000,7.408,,,70,,,,,,,,,,,wg-a,,,,AAXX 01094 07761 12570 70704 10090 20060 30249 40260 51011 60006 87800 90900=
07761,1997-02-01 15:00:00,13,1024.4,-0.8,77,9,15000,14.816,,,240,,,,,,,,,,,wg-a,,,,AAXX 01154 07761 12665 32408 10130 20090 30233 40244 57008 60006 83300 91500=
07761,1997-02-01 18:00:00,10,1024.8,0.4,87,8,15000,3.704,,,130,5.9,14.4,,,,,,,,,wg-a,,,,AAXX 01184 07761 12565 41302 10100 20080 30237 40248 53004 60006 84800 91800 333 10144 20059=
07761,1997-02-01 21:00:00,7,1025.1,0.3,87,5,15000,11.112,,,40,,,,,,,,,,,wg-a,,,,AAXX 01214 07761 12565 30406 10070 20050 30240 40251 52003 60006 83500 92100=
07761,1997-02-02 06:00:00,5,1024.9,0.3,81,2,15000,14.816,,,40,3.3,10.1,,,,,,,,,wg-a,,,,AAXX 02064 07761 02/65 00408 10050 20020 30238 40249 53003 60006 80000 90600 333 10101 20033 60004=
07761,1997-02-02 09:00:00,9,1025.7,0.8,76,5,20000,3.704,,,40,,,,,,,,,,,wg-a,,,,AAXX 02094 07761 12/70 /0402 10090 20050 30246 40257 52008 60006 80000 90900=
07761,1997-02-02 12:00:00,14,1025.3,-0.4,58,6,20000,11.112,,,220,,,,,,,,,,,wg-a,,,,AAXX 02124 07761 12670 /2206 10140 20060 30242 40253 58004 60006 81502 91200=
07761,1997-02-02 15:00:00,14,1024.7,-0.6,58,6,20000,14.816,,,220,,,,,,,,,,,wg-a,,,,AAXX 02154 07761 12670 52208 10140 20060 30236 40247 56006 60006 81502 91500=
07761,1997-02-02 18:00:00,9,1025.5,0.8,81,6,20000,3.704,,,50,3.1,14.6,,,,,,,,,wg-a,,,,AAXX 02184 07761 12470 40502 10090 20060 30244 40255 53008 60006 82802 91800 333 10146 20031=
07761,1997-02-02 21:00:00,5,1026.1,0.6,93,4,15000,14.816,,,60,,,,,,,,,,,wg-a,,,,AAXX 02214 07761 12665 30608 10050 20040 30250 40261 51006 60006 82502 92100=
07761,1997-02-03 00:00:00,4,1025.5,-0.6,93,3,15000,14.816,,,40,,,,,,,,,,,wg-a,,,,AAXX 03004 07761 12665 30408 10040 20030 30244 40255 58006 60006 81532 90000=
07761,1997-02-03 03:00:00,5,1024.8,-0.7,87,3,15000,14.816,,,50,,,,,,,,,,,wg-a,,,,AAXX 03034 07761 12765 30508 10050 20030 30237 40248 56007 60006 82532 90300=
07761,1997-02-03 06:00:00,4,1024.7,-0.1,87,2,15000,14.816,,,40,3.7,9.3,,,,,,,,,wg-a,,,,AAXX 03064 07761 02/65 10408 10040 20020 30236 40247 55001 60006 81050 90600 333 10093 20037 60004=
07761,1997-02-03 09:00:00,8,1025.1,0.4,76,4,35000,14.816,,,50,,,,,,,,,,,wg-a,,,,AAXX 03094 07761 12681 /0508 10080 20040 30240 40251 50004 60006 81531 90900=
07761,1997-02-03 12:00:00,14,1025,-0.1,63,7,500,14.816,,,220,,,,,,,,,,,wg-a,,,,AAXX 03124 07761 12600 32208 10140 20070 30239 40250 58001 60006 83801 91200=
07761,1997-02-03 18:00:00,9,1025.4,1.1,76,5,15000,7.408,,,50,3.2,14.2,,,,,,,,,wg-a,,,,AAXX 03184 07761 12665 20504 10090 20050 30243 40254 53011 60006 81401 91800 333 10142 20032=
07761,1997-02-03 21:00:00,5,1026,0.6,93,4,15000,11.112,,,60,,,,,,,,,,,wg-a,,,,AAXX 03214 07761 12/65 10606 10050 20040 30249 40260 53006 60006 80002 92100=
07761,1997-02-04 00:00:00,4,1026.3,0.3,87,2,15000,14.816,,,50,,,,,,,,,,,wg-a,,,,AAXX 04004 07761 12/65 00508 10040 20020 30252 40263 50003 60006 80000 90000=
07761,1997-02-04 03:00:00,3,1026.2,-0.1,93,2,15000,14.816,,,50,,,,,,,,,,,wg-a,,,,AAXX 04034 07761 12/65 10508 10030 20020 30251 40262 58001 60006 80002 90300=
07761,1997-02-04 06:00:00,4,1026.2,-0,87,2,7000,14.816,,,50,2.5,8.8,,,,,,,,,wg-a,,,,AAXX 04064 07761 02757 10508 10040 20020 30251 40262 55000 60006 815/0 90600 333 10088 20025 60004=
07761,1997-02-04 09:00:00,9,1027.1,0.9,81,6,25000,7.408,,,50,,,,,,,,,,,wg-a,,,,AAXX 04094 07761 12875 /0504 10090 20060 30260 40271 51009 60006 81500 90900=
07761,1997-02-04 12:00:00,14,1026.3,-0.8,58,6,20000,3.704,,,250,,,,,,,,,,,wg-a,,,,AAXX 04124 07761 12870 /2502 10140 20060 30252 40263 58008 60006 81100 91200=
07761,1997-02-04 15:00:00,14,1025.5,-0.8,63,7,20000,7.408,,,220,,,,,,,,,,,wg-a,,,,AAXX 04154 07761 12870 /2204 10140 20070 30244 40255 56008 60006 81200 91500=
07761,1997-02-04 18:00:00,9,1026.5,1,81,6,15000,11.112,,,60,3.4,14.7,,,,,,,,,wg-a,,,,AAXX 04184 07761 12/65 00606 10090 20060 30254 40265 53010 60006 80000 91800 333 10147 20034=
07761,1997-02-04 21:00:00,5,1027.3,0.8,87,3,15000,11.112,,,50,,,,,,,,,,,wg-a,,,,AAXX 04214 07761 12/65 00506 10050 20030 30262 40273 51008 60006 80000 92100=
07761,1997-02-05 00:00:00,5,1027.4,0.1,87,3,15000,11.112,,,50,,,,,,,,,,,wg-a,,,,AAXX 05004 07761 12/65 00506 10050 20030 30263 40274 52001 60006 80000 90000=
07761,1997-02-05 03:00:00,7,1026.7,-0.7,87,5,15000,7.408,,,60,,,,,,,,,,,wg-a,,,,AAXX 05034 07761 12565 /0604 10070 20050 30256 40267 58007 60006 86500 90300=
07761,1997-02-05 06:00:00,8,1026.3,-0.4,87,6,15000,7.408,,,60,4.1,8.9,,,,,,,,,wg-a,,,,AAXX 05064 07761 02565 70604 10080 20060 30252 40263 55004 60006 875// 90600 333 10089 20041 60004=
07761,1997-02-05 09:00:00,11,1026.7,0.4,82,8,15000,7.408,,,60,,,,,,,,,,,wg-a,,,,AAXX 05094 07761 12465 70604 10110 20080 30256 40267 52004 60006 8528/ 90900=
07761,1997-02-05 12:00:00,13,1026.3,-0.4,77,9,15000,7.408,,,220,,,,,,,,,,,wg-a,,,,AAXX 05124 07761 12565 72204 10130 20090 30252 40263 58004 60006 872// 91200=
07761,1997-02-05 15:00:00,13,1024.3,-2,72,8,18000,11.112,,,230,,,,,,,,,,,wg-a,,,,AAXX 05154 07761 12568 62306 10130 20080 30232 40243 56020 60006 86840 91500=
07761,1997-02-05 18:00:00,13,1023.3,-1,77,9,15000,18.52,,,260,8.2,14.6,,,,,,,,25,wg-a,,,,AAXX 05184 07761 02565 72610 10130 20090 30222 40233 57010 61000 72586 878// 91800 333 10146 20082 6100=
07761,1997-02-05 21:00:00,13,1021.4,-1.9,82,10,12000,22.224,,,260,,,,,,,,,,80,wg-a,,,,AAXX 05214 07761 02462 72612 10130 20100 30203 40214 58019 61000 78086 878// 92100 333 ////=
07761,1997-02-06 00:00:00,13,1018.6,-2.8,67,7,12000,25.928,,,280,,,,,,,,,,21,wg-a,,,,AAXX 06004 07761 02562 /2814 10130 20070 30175 40186 58028 61000 72186 8580/ 90000 333 6100=
07761,1997-02-06 03:00:00,10,1016.9,-1.7,82,7,15000,7.408,,,40,,,,,,,,,,,wg-a,,,,AAXX 06034 07761 12665 /0404 10100 20070 30158 40169 56017 60006 84500 90300=
07761,1997-02-06 06:00:00,7,1018.1,1.2,93,6,15000,14.816,,,60,6.6,13.2,,,,,,,,,wg-a,,,,AAXX 06064 07761 02565 60608 10070 20060 30170 40181 53012 60006 86800 90600 333 10132 20066 61000=
07761,1997-02-06 09:00:00,12,1021.3,3.2,71,7,25000,7.408,,,310,,,,,,,,,,,wg-a,,,,AAXX 06094 07761 12575 43104 10120 20070 30202 40213 53032 60006 83840 90900=
07761,1997-02-06 12:00:00,16,1022.9,1.6,42,3,500,7.408,,,350,,,,,,,,,,,wg-a,,,,AAXX 06124 07761 12600 43504 10160 20030 30218 40229 51016 60006 83840 91200=
07761,1997-02-06 15:00:00,15,1024.4,1.5,44,3,25000,25.928,,46.3,10,,,,,,,,,,,wg-a,,,,AAXX 06154 07761 12675 40114 10150 20030 30233 40244 53015 60006 84800 91500 333 91025=
07761,1997-02-06 18:00:00,11,1027.8,3.4,71,6,20000,14.816,,,70,6.9,16.4,,,,,,,,,wg-a,,,,AAXX 06184 07761 12670 /0708 10110 20060 30267 40278 51034 60006 81500 91800 333 10164 20069=
07761,1997-02-06 21:00:00,8,1028.9,1.1,76,4,20000,3.704,,,80,,,,,,,,,,,wg-a,,,,AAXX 06214 07761 12/70 00802 10080 20040 30278 40289 51011 60006 80000 92100=
07761,1997-02-07 00:00:00,7,1029.6,0.7,61,0,20000,11.112,,,70,,,,,,,,,,,wg-a,,,,AAXX 07004 07761 12/70 00706 10070 20000 30285 40296 53007 60006 80000 90000=
07761,1997-02-07 03:00:00,4,1030,0.4,65,-2,10000,14.816,,,40,,,,,,,,,,,wg-a,,,,AAXX 07034 07761 12/60 /0408 10040 21020 30289 40300 50004 60006 90300=
07761,1997-02-07 06:00:00,2,1031.4,1.4,75,-2,10000,14.816,,,50,1.4,11.4,,,,,,,,,wg-a,,,,AAXX 07064 07761 02/60 /0508 10020 21020 30303 40314 53014 60006 90600 333 10114 20014 60004=
07761,1997-02-07 09:00:00,10,1033,1.6,57,2,50000,14.816,,,50,,,,,,,,,,,wg-a,,,,AAXX 07094 07761 12/84 00508 10100 20020 30319 40330 51016 60006 80000 90900=
07761,1997-02-07 12:00:00,16,1032.9,-0.1,55,7,50000,14.816,,,220,,,,,,,,,,,wg-a,,,,AAXX 07124 07761 12784 /2208 10160 20070 30318 40329 58001 60006 81500 91200=
07761,1997-02-07 15:00:00,16,1032.7,-0.2,59,8,50000,7.408,,,190,,,,,,,,,,,wg-a,,,,AAXX 07154 07761 12784 /1904 10160 20080 30316 40327 55002 60006 81500 91500=
07761,1997-02-07 18:00:00,10,1033.9,1.2,82,7,20000,7.408,,,60,2,16.4,,,,,,,,,wg-a,,,,AAXX 07184 07761 12770 /0604 10100 20070 30328 40339 53012 60006 81500 91800 333 10164 20020=
07761,1997-02-07 21:00:00,6,1034.2,0.3,81,3,20000,14.816,,,50,,,,,,,,,,,wg-a,,,,AAXX 07214 07761 12/70 00508 10060 20030 30331 40342 51003 60006 80000 92100=
07761,1997-02-08 00:00:00,5,1033.6,-0.6,81,2,20000,14.816,,,50,,,,,,,,,,,wg-a,,,,AAXX 08004 07761 12/70 00508 10050 20020 30325 40336 56006 60006 80000 90000=
07761,1997-02-08 03:00:00,4,1033.2,-0.4,87,2,20000,14.816,,,50,,,,,,,,,,,wg-a,,,,AAXX 08034 07761 12/70 00508 10040 20020 30321 40332 58004 60006 80000 90300=
07761,1997-02-08 06:00:00,2,1033.9,0.6,87,0,20000,14.816,,,60,1.7,10,,,,,,,,,wg-a,,,,AAXX 08064 07761 02/70 00608 10020 20000 30327 40339 53006 60006 80000 90600 333 10100 20017 60004=
07761,1997-02-08 09:00:00,10,1034,0.2,66,4,40000,7.408,,,60,,,,,,,,,,,wg-a,,,,AAXX 08094 07761 12/82 00604 10100 20040 30329 40340 50002 60006 80000 90900=
07761,1997-02-08 12:00:00,15,1033.1,-0.9,59,7,40000,11.112,,,220,,,,,,,,,,,wg-a,,,,AAXX 08124 07761 12/82 02206 10150 20070 30320 40331 58009 60006 80000 91200=
07761,1997-02-08 15:00:00,15,1031.8,-1.3,59,7,40000,11.112,,,190,,,,,,,,,,,wg-a,,,,AAXX 08154 07761 12/82 01906 10150 20070 30307 40318 56013 60006 80000 91500=
07761,1997-02-08 18:00:00,9,1032.4,0.6,76,5,25000,7.408,,,60,1.4,15.7,,,,,,,,,wg-a,,,,AAXX 08184 07761 12/75 10604 10090 20050 30313 40324 53006 60006 80001 91800 333 10157 20014=
07761,1997-02-08 21:00:00,5,1033.1,0.7,87,3,10000,11.112,,,50,,,,,,,,,,,wg-a,,,,AAXX 08214 07761 12/60 /0506 10050 20030 30320 40331 52007 60006 92100=
07761,1997-02-09 00:00:00,4,1033.4,0.3,87,2,15000,14.816,,,50,,,,,,,,,,,wg-a,,,,AAXX 09004 07761 12/65 00508 10040 20020 30323 40334 52003 60006 80000 90000=
07761,1997-02-09 03:00:00,4,1032.6,-0.8,87,2,15000,11.112,,,50,,,,,,,,,,,wg-a,,,,AAXX 09034 07761 12/65 00506 10040 20020 30315 40326 58008 60006 80000 90300=
07761,1997-02-09 06:00:00,3,1032.5,-0.1,93,2,15000,14.816,,,50,2.5,8.9,,,,,,,,,wg-a,,,,AAXX 09064 07761 02665 50508 10030 20020 30314 40325 55001 60006 81541 90600 333 10089 20025 60004=
07761,1997-02-09 09:00:00,9,1033.1,0.6,81,6,500,7.408,,,50,,,,,,,,,,,wg-a,,,,AAXX 09094 07761 12500 30504 10090 20060 30320 40331 51006 60006 81801 90900=
07761,1997-02-09 12:00:00,15,1032.2,-0.9,63,8,35000,11.112,,,220,,,,,,,,,,,wg-a,,,,AAXX 09124 07761 12681 32206 10150 20080 30311 40322 58009 60006 81101 91200=
07761,1997-02-09 15:00:00,15,1031.2,-1,59,7,35000,11.112,,,300,,,,,,,,,,,wg-a,,,,AAXX 09154 07761 12681 /3006 10150 20070 30301 40312 56010 60006 81801 91500=
07761,1997-02-09 18:00:00,10,1032,0.8,82,7,16000,3.704,,,20,2.9,15.6,,,,,,,,,wg-a,,,,AAXX 09184 07761 12566 50202 10100 20070 30309 40320 52008 60006 84801 91800 333 10156 20029=
07761,1997-02-09 21:00:00,9,1032.6,0.6,87,7,16000,3.704,,,60,,,,,,,,,,,wg-a,,,,AAXX 09214 07761 12566 /0602 10090 20070 30315 40326 53006 60006 86500 92100=
07761,1997-02-10 00:00:00,9,1032.3,-0.3,81,6,15000,14.816,,,50,,,,,,,,,,,wg-a,,,,AAXX 10004 07761 12565 70508 10090 20060 30312 40323 57003 60006 875// 90000=
07761,1997-02-10 03:00:00,9,1031.4,-0.9,81,6,15000,14.816,,,50,,,,,,,,,,,wg-a,,,,AAXX 10034 07761 12565 70508 10090 20060 30303 40314 58009 60006 875// 90300=
07761,1997-02-10 06:00:00,8,1031.1,-0.3,81,5,11000,14.816,,,60,7.9,10.5,,,,,,,,,wg-a,,,,AAXX 10064 07761 02/61 /0608 10080 20050 30300 40311 55003 60006 90600 333 10105 20079 60004=
07761,1997-02-10 09:00:00,12,1031.4,0.3,62,5,25000,7.408,,,80,,,,,,,,,,,wg-a,,,,AAXX 10094 07761 12675 /0804 10120 20050 30303 40314 51003 60006 86802 90900=
07761,1997-02-10 12:00:00,14,1030.6,-0.8,55,5,25000,7.408,,,30,,,,,,,,,,,wg-a,,,,AAXX 10124 07761 12675 /0304 10140 20050 30295 40306 58008 60006 86501 91200=
07761,1997-02-10 15:00:00,15,1029.7,-0.9,63,8,20000,14.816,,,240,,,,,,,,,,,wg-a,,,,AAXX 10154 07761 12670 52408 10150 20080 30286 40297 55009 60006 85802 91500=
07761,1997-02-10 18:00:00,13,1029.8,0.1,72,8,20000,0,,,0,8.1,15.5,,,,,,,,,wg-a,,,,AAXX 10184 07761 12670 70000 10130 20080 30287 40298 53001 60006 875// 91800 333 10155 20081=
07761,1997-02-10 21:00:00,9,1030.5,0.7,81,6,16000,14.816,,,60,,,,,,,,,,,wg-a,,,,AAXX 10214 07761 12666 /0608 10090 20060 30294 40305 53007 60006 86800 92100=
07761,1997-02-11 00:00:00,8,1030.2,-0.3,87,6,15000,7.408,,,50,,,,,,,,,,,wg-a,,,,AAXX 11004 07761 12665 70504 10080 20060 30291 40302 55003 60006 875// 90000=
07761,1997-02-11 03:00:00,8,1029.3,-0.9,81,5,20000,14.816,,,60,,,,,,,,,,,wg-a,,,,AAXX 11034 07761 12570 70608 10080 20050 30282 40293 58009 60006 875// 90300=
07761,1997-02-11 06:00:00,10,1028.8,-0.5,71,5,20000,3.704,,,30,7.7,12.6,,,,,,,,,wg-a,,,,AAXX 11064 07761 02570 70302 10100 20050 30277 40288 56005 60006 878// 90600 333 10126 20077 60004=
07761,1997-02-11 09:00:00,12,1029.5,0.7,67,6,500,14.816,,,50,,,,,,,,,,,wg-a,,,,AAXX 11094 07761 12600 70508 10120 20060 30284 40295 51007 60006 875// 90900=
07761,1997-02-11 12:00:00,14,1028.8,-0.7,63,7,500,3.704,,,250,,,,,,,,,,,wg-a,,,,AAXX 11124 07761 12600 72502 10140 20070 30277 40288 58007 60006 875// 91200=
07761,1997-02-11 15:00:00,14,1027.6,-1.2,67,8,25000,11.112,,,220,,,,,,,,,,,wg-a,,,,AAXX 11154 07761 12675 72206 10140 20080 30265 40276 56012 60006 85802 91500=
07761,1997-02-11 18:00:00,12,1027.6,-0,82,9,15000,7.408,,,70,9.4,15.5,,,,,,,,,wg-a,,,,AAXX 11184 07761 12565 80704 10120 20090 30265 40276 55000 60006 8687/ 91800 333 10155 20094=
07761,1997-02-12 00:00:00,11,1027.5,-0.3,87,9,12000,11.112,,,60,,,,,,,,,,,wg-a,,,,AAXX 12004 07761 12462 80606 10110 20090 30264 40275 56003 60006 878// 90000=
07761,1997-02-12 03:00:00,11,1026,-1.5,87,9,12000,11.112,,,60,,,,,,,,,,,wg-a,,,,AAXX 12034 07761 12462 80606 10110 20090 30249 40260 57015 60006 878// 90300=
07761,1997-02-12 06:00:00,11,1025.6,-0.4,87,9,12000,7.408,,,70,10.1,12.6,,,,,,,,,wg-a,,,,AAXX 12064 07761 02462 80704 10110 20090 30245 40256 56004 60006 878// 90600 333 10126 20101 60004=
07761,1997-02-12 09:00:00,12,1025.7,0.1,88,10,9000,7.408,,,50,,,,,,,,,,50,wg-a,,,,AAXX 12094 07761 02559 80504 10120 20100 30246 40257 52001 61000 75052 878// 90900 333 ////=
07761,1997-02-12 12:00:00,15,1024.4,-1.3,77,11,15000,3.704,,,280,,,,,,,,,,1,wg-a,,,,AAXX 12124 07761 02565 72802 10150 20110 30233 40244 58013 61000 70152 83804 91200 333 6100=
07761,1997-02-12 15:00:00,16,1023,-1.4,77,12,12000,18.52,,,240,,,,,,,,,,,wg-a,,,,AAXX 12154 07761 12562 /2410 10160 20120 30219 40230 56014 60006 82242 91500=
07761,1997-02-12 18:00:00,12,1023.6,0.6,88,10,12000,7.408,,,70,10.5,16.8,,,,,,,,,wg-a,,,,AAXX 12184 07761 12562 30704 10120 20100 30225 40236 53006 60006 81542 91800 333 10168 20105=
07761,1997-02-12 21:00:00,9,1023.3,-0.3,87,7,12000,11.112,,,50,,,,,,,,,,,wg-a,,,,AAXX 12214 07761 12562 20506 10090 20070 30222 40233 58003 60006 81501 92100=
07761,1997-02-13 00:00:00,9,1022.2,-1.1,93,8,12000,11.112,,,60,,,,,,,,,,,wg-a,,,,AAXX 13004 07761 12562 70606 10090 20080 30211 40222 58011 60006 87800 90000=
07761,1997-02-13 03:00:00,10,1019.7,-2.5,93,9,15000,7.408,,,50,,,,,,,,,,,wg-a,,,,AAXX 13034 07761 12565 70504 10100 20090 30186 40197 56025 60006 878// 90300=
07761,1997-02-13 06:00:00,9,1019.8,0.1,87,7,12000,14.816,,,70,7.8,11.9,,,,,,,,,wg-a,,,,AAXX 13064 07761 02562 50708 10090 20070 30187 40198 53001 60006 85800 90600 333 10119 20078 61000=
07761,1997-02-13 09:00:00,14,1019.8,0,72,9,15000,3.704,,,250,,,,,,,,,,,wg-a,,,,AAXX 13094 07761 12565 62502 10140 20090 30187 40198 50000 60006 86800 90900=
07761,1997-02-13 12:00:00,16,1018.9,-0.9,48,5,20000,29.632,,57.412,320,,,,,,,,,,,wg-a,,,,AAXX 13124 07761 12670 /3216 10160 20050 30178 40189 58009 60006 82205 91200 333 91031=
07761,1997-02-13 18:00:00,15,1017.3,-0.1,63,8,15000,29.632,,44.448,300,8.5,16.6,,,,,,,,,wg-a,,,,AAXX 13184 07761 12565 /3016 10150 20080 30162 40173 55001 60006 83518 91800 333 10166 20085 91024=
07761,1997-02-13 21:00:00,14,1015.7,-1.6,63,7,15000,29.632,,42.596,300,,,,,,,,,,,wg-a,,,,AAXX 13214 07761 12665 23016 10140 20070 30146 40157 56016 60006 81502 92100 333 91023=
07761,1997-02-14 00:00:00,13,1016.1,0.4,51,3,15000,18.52,,57.412,320,,,,,,,,,,,wg-a,,,,AAXX 14004 07761 12/65 23210 10130 20030 30150 40161 53004 60006 80002 90000 333 91031=
07761,1997-02-14 03:00:00,12,1016,-0.1,50,2,12000,11.112,,,20,,,,,,,,,,,wg-a,,,,AAXX 14034 07761 12/62 10206 10120 20020 30149 40160 58001 60006 81030 90300=
07761,1997-02-14 06:00:00,7,1015.6,-0.4,66,1,18000,7.408,,,80,6.4,14.7,,,,,,,,,wg-a,,,,AAXX 14064 07761 02668 40804 10070 20010 30145 40156 56004 60006 81542 90600 333 10147 20064 60004=
07761,1997-02-14 09:00:00,12,1016.4,0.8,67,6,15000,7.408,,,90,,,,,,,,,,,wg-a,,,,AAXX 14094 07761 12665 70904 10120 20060 30153 40164 50008 60006 85572 90900=
07761,1997-02-14 12:00:00,14,1015.4,-1,77,10,15000,14.816,,,240,,,,,,,,,,,wg-a,,,,AAXX 14124 07761 12565 82408 10140 20100 30143 40154 58010 60006 878// 91200=
07761,1997-02-14 18:00:00,14,1013.6,-0.3,82,11,15000,3.704,,,140,6.2,14.3,,,,,,,,,wg-a,,,,AAXX 14184 07761 12565 81402 10140 20110 30125 40136 55003 60006 8657/ 91800 333 10143 20062=
07761,1997-02-14 21:00:00,12,1012.3,-1.3,88,10,15000,11.112,,,40,,,,,,,,,,,wg-a,,,,AAXX 14214 07761 12565 70406 10120 20100 30112 40123 56013 60006 8357/ 92100=
07761,1997-02-15 00:00:00,10,1010,-2.3,93,9,15000,3.704,,,90,,,,,,,,,,,wg-a,,,,AAXX 15004 07761 12565 70902 10100 20090 30089 40100 58023 60006 8357/ 90000=
07761,1997-02-15 03:00:00,11,1006.3,-3.7,94,10,15000,7.408,,,50,,,,,,,,,,21,wg-a,,,,AAXX 15034 07761 02465 80504 10110 20100 30052 40063 58037 61000 72162 875// 90300 333 ////=
07761,1997-02-15 06:00:00,14,1003.5,-2.8,94,13,15000,18.52,,,220,9.4,13.9,,,,,,,,1,wg-a,,,,AAXX 15064 07761 02465 72210 10140 20130 30024 40035 56028 60006 70162 875// 90600 333 10139 20094 61000=
07761,1997-02-15 09:00:00,13,1005.6,2.1,77,9,15000,22.224,,,280,,,,3,,,,,,25,wg-a,,,,AAXX 15094 07761 12465 82812 10130 20090 30045 40056 53021 60037 72586 888// 90900=
07761,1997-02-15 12:00:00,14,1004.7,-0.9,77,10,15000,31.484,,,280,,,,,,,,,,2,wg-a,,,,AAXX 15124 07761 02465 72817 10140 20100 30036 40047 58009 60036 70286 878// 91200 333 61000=
07761,1997-02-15 15:00:00,14,1003.9,-0.8,72,9,15000,18.52,,,290,,,,0,,,,,,,wg-a,,,,AAXX 15154 07761 12465 72910 10140 20090 30028 40039 56008 60007 878// 91500=
07761,1997-02-15 18:00:00,11,1004.8,0.9,87,9,15000,7.408,,,50,11,14.3,,,,,,,,,wg-a,,,,AAXX 15184 07761 12465 60504 10110 20090 30037 40048 53009 60006 86200 91800 333 10143 20110=
07761,1997-02-15 21:00:00,8,1005.8,1,87,6,15000,18.52,,,60,,,,,,,,,,,wg-a,,,,AAXX 15214 07761 12565 /0610 10080 20060 30047 40058 51010 60006 81101 92100=
07761,1997-02-16 00:00:00,7,1006.7,0.9,87,5,15000,14.816,,,40,,,,,,,,,,,wg-a,,,,AAXX 16004 07761 12665 40408 10070 20050 30056 40067 53009 60006 81181 90000=
07761,1997-02-16 03:00:00,6,1009.6,2.9,87,4,15000,11.112,,,60,,,,,,,,,,,wg-a,,,,AAXX 16034 07761 12/65 00606 10060 20040 30085 40096 53029 60006 80000 90300=
07761,1997-02-16 06:00:00,4,1013.4,3.8,93,3,15000,7.408,,,80,3.7,11,,,,,3,,,,wg-a,,,,AAXX 16064 07761 02665 /0804 10040 20030 30123 40134 51038 60006 81800 90600 333 10110 20037 60034=
07761,1997-02-16 09:00:00,12,1016.6,3.2,62,5,25000,11.112,,,80,,,,,,,,,,,wg-a,,,,AAXX 16094 07761 12675 /0806 10120 20050 30155 40166 51032 60006 81200 90900=
07761,1997-02-16 12:00:00,16,1017.4,0.8,55,7,500,7.408,,,230,,,,,,,,,,,wg-a,,,,AAXX 16124 07761 12600 22304 10160 20070 30163 40174 50008 60006 82800 91200=
07761,1997-02-16 15:00:00,15,1018.4,1,63,8,500,25.928,,,220,,,,,,,,,,,wg-a,,,,AAXX 16154 07761 12600 22214 10150 20080 30173 40184 53010 60006 81201 91500=
07761,1997-02-16 18:00:00,13,1020.7,2.3,72,8,25000,25.928,,,220,4.2,16.1,,,,,,,,,wg-a,,,,AAXX 16184 07761 12675 22214 10130 20080 30196 40207 53023 60006 82500 91800 333 10161 20042=
07761,1997-02-16 21:00:00,8,1022.4,1.7,87,6,20000,11.112,,,60,,,,,,,,,,,wg-a,,,,AAXX 16214 07761 12670 20606 10080 20060 30213 40224 53017 60006 82500 92100=
07761,1997-02-17 00:00:00,7,1023,0.6,87,5,20000,11.112,,,50,,,,,,,,,,,wg-a,,,,AAXX 17004 07761 12670 /0506 10070 20050 30219 40230 51006 60006 85500 90000=
07761,1997-02-17 03:00:00,6,1023.2,0.2,87,4,11000,11.112,,,60,,,,,,,,,,,wg-a,,,,AAXX 17034 07761 12/61 /0606 10060 20040 30221 40232 50002 60006 90300=
07761,1997-02-17 06:00:00,5,1023.9,0.7,87,3,20000,18.52,,,40,4.8,12.8,,,,,,,,,wg-a,,,,AAXX 17064 07761 02470 50410 10050 20030 30228 40239 53007 60006 84501 90600 333 10128 20048 60004=
07761,1997-02-17 09:00:00,11,1025.1,1.2,71,6,25000,7.408,,,60,,,,,,,,,,,wg-a,,,,AAXX 17094 07761 12675 50604 10110 20060 30240 40251 51012 60006 85801 90900=
07761,1997-02-17 12:00:00,14,1024.6,-0.5,55,5,500,14.816,,,230,,,,,,,,,,,wg-a,,,,AAXX 17124 07761 12600 72308 10140 20050 30235 40246 58005 60006 82808 91200=
07761,1997-02-17 15:00:00,14,1023.7,-0.9,63,7,500,14.816,,,240,,,,,,,,,,,wg-a,,,,AAXX 17154 07761 12600 32408 10140 20070 30226 40237 56009 60006 83200 91500=
07761,1997-02-17 18:00:00,10,1024.6,0.9,76,6,20000,3.704,,,10,4.6,14.9,,,,,,,,,wg-a,,,,AAXX 17184 07761 12570 20102 10100 20060 30235 40246 53009 60006 82400 91800 333 10149 20046=
07761,1997-02-17 21:00:00,7,1025.9,1.3,81,4,20000,7.408,,,70,,,,,,,,,,,wg-a,,,,AAXX 17214 07761 12670 30704 10070 20040 30248 40259 53013 60006 83500 92100=
07761,1997-02-18 00:00:00,5,1025.9,-0,87,3,15000,14.816,,,40,,,,,,,,,,,wg-a,,,,AAXX 18004 07761 12565 /0408 10050 20030 30248 40259 55000 60006 81500 90000=
07761,1997-02-18 03:00:00,3,1025.4,-0.5,93,2,20000,14.816,,,40,,,,,,,,,,,wg-a,,,,AAXX 18034 07761 12570 /0408 10030 20020 30243 40254 58005 60006 81500 90300=
07761,1997-02-18 06:00:00,4,1026.1,0.7,87,2,500,14.816,,,50,2.9,10.3,,,,,,,,,wg-a,,,,AAXX 18064 07761 02600 20508 10040 20020 30250 40261 51007 60006 82500 90600 333 10103 20029 60004=
07761,1997-02-18 09:00:00,10,1027,0.9,71,5,500,7.408,,,50,,,,,,,,,,,wg-a,,,,AAXX 18094 07761 12500 30504 10100 20050 30259 40270 53009 60006 82501 90900=
07761,1997-02-18 12:00:00,14,1026.4,-0.6,67,8,25000,18.52,,,220,,,,,,,,,,,wg-a,,,,AAXX 18124 07761 12675 82210 10140 20080 30253 40264 58006 60006 81102 91200=
07761,1997-02-18 15:00:00,14,1025,-1.4,55,5,500,11.112,,,300,,,,,,,,,,,wg-a,,,,AAXX 18154 07761 12500 83006 10140 20050 30239 40250 56014 60006 82202 91500=
07761,1997-02-18 18:00:00,11,1026.9,1.9,76,7,500,11.112,,,60,3.5,14.7,,,,,,,,,wg-a,,,,AAXX 18184 07761 12500 80606 10110 20070 30258 40269 53019 60006 82247 91800 333 10147 20035=
07761,1997-02-18 21:00:00,10,1026.9,-0,76,6,15000,11.112,,,60,,,,,,,,,,,wg-a,,,,AAXX 18214 07761 12565 80606 10100 20060 30258 40269 55000 60006 888// 92100=
07761,1997-02-19 00:00:00,10,1025.4,-1.5,82,7,15000,7.408,,,60,,,,,,,,,,,wg-a,,,,AAXX 19004 07761 12565 70604 10100 20070 30243 40254 56015 60006 878// 90000=
07761,1997-02-19 03:00:00,8,1024.9,-0.5,87,6,15000,11.112,,,80,,,,,,,,,,,wg-a,,,,AAXX 19034 07761 12565 50806 10080 20060 30238 40249 58005 60006 85800 90300=
07761,1997-02-19 06:00:00,8,1025.2,0.3,81,5,20000,3.704,,,360,7.4,10.6,,,,,,,,,wg-a,,,,AAXX 19064 07761 02670 33602 10080 20050 30241 40252 53003 60006 83500 90600 333 10106 20074 60004=
07761,1997-02-19 09:00:00,14,1026.6,1.4,51,4,25000,11.112,,,320,,,,,,,,,,,wg-a,,,,AAXX 19094 07761 12675 33206 10140 20040 30255 40266 51014 60006 81102 90900=
07761,1997-02-19 12:00:00,16,1025.9,-0.7,51,6,500,18.52,,,240,,,,,,,,,,,wg-a,,,,AAXX 19124 07761 12/00 52410 10160 20060 30248 40259 58007 60006 81032 91200=
07761,1997-02-19 15:00:00,15,1026,0.1,51,5,500,14.816,,,220,,,,,,,,,,,wg-a,,,,AAXX 19154 07761 12600 /2208 10150 20050 30249 40260 53001 60006 81500 91500=
07761,1997-02-19 18:00:00,10,1027.9,1.9,71,5,20000,7.408,,,70,7,16.2,,,,,,,,,wg-a,,,,AAXX 19184 07761 12670 20704 10100 20050 30268 40279 53019 60006 81502 91800 333 10162 20070=
07761,1997-02-19 21:00:00,7,1029.3,1.4,81,4,15000,11.112,,,40,,,,,,,,,,,wg-a,,,,AAXX 19214 07761 12/65 00406 10070 20040 30282 40293 53014 60006 80000 92100=
07761,1997-02-20 00:00:00,6,1029.3,-0,87,4,15000,11.112,,,60,,,,,,,,,,,wg-a,,,,AAXX 20004 07761 12/65 60606 10060 20040 30282 40293 55000 60006 80008 90000=
07761,1997-02-20 03:00:00,6,1027.5,-1.8,87,4,15000,11.112,,,50,,,,,,,,,,,wg-a,,,,AAXX 20034 07761 12/65 80506 10060 20040 30264 40275 58018 60006 84054 90300=
07761,1997-02-20 06:00:00,5,1028.2,0.7,87,3,11000,14.816,,,60,3.8,9.7,,,,,,,,,wg-a,,,,AAXX 20064 07761 02/61 /0608 10050 20030 30271 40282 50007 60006 90600 333 10097 20038 60004=
07761,1997-02-20 09:00:00,12,1029,0.8,67,6,20000,3.704,,,70,,,,,,,,,,,wg-a,,,,AAXX 20094 07761 12770 70702 10120 20060 30279 40290 53008 60006 82504 90900=
07761,1997-02-20 12:00:00,16,1027.9,-1.1,68,10,20000,14.816,,,230,,,,,,,,,,,wg-a,,,,AAXX 20124 07761 12770 72308 10160 20100 30268 40279 58011 60006 81504 91200=
07761,1997-02-20 15:00:00,15,1026.9,-1,77,11,20000,11.112,,,240,,,,,,,,,,,wg-a,,,,AAXX 20154 07761 12570 72406 10150 20110 30258 40269 56010 60006 81504 91500=
07761,1997-02-20 18:00:00,11,1027.5,0.6,82,8,12000,7.408,,,50,4.4,15.9,,,,,,,,,wg-a,,,,AAXX 20184 07761 12562 /0504 10110 20080 30264 40275 53006 60006 81504 91800 333 10159 20044=
07761,1997-02-20 21:00:00,8,1028,0.5,93,7,12000,11.112,,,50,,,,,,,,,,,wg-a,,,,AAXX 20214 07761 12562 20506 10080 20070 30269 40280 52005 60006 81502 92100=
07761,1997-02-21 00:00:00,5,1028.2,0.2,93,4,12000,14.816,,,50,,,,,,,,,,,wg-a,,,,AAXX 21004 07761 12/62 00508 10050 20040 30271 40282 51002 60006 80000 90000=
07761,1997-02-21 03:00:00,5,1027.8,-0.4,93,4,12000,14.816,,,40,,,,,,,,,,,wg-a,,,,AAXX 21034 07761 12562 30408 10050 20040 30267 40278 58004 60006 83500 90300=
07761,1997-02-21 06:00:00,5,1028.1,0.3,87,3,20000,14.816,,,50,4.2,10.9,,,,,,,,,wg-a,,,,AAXX 21064 07761 02470 50508 10050 20030 30270 40281 52003 60006 85500 90600 333 10109 20042 60004=
07761,1997-02-21 09:00:00,13,1029.3,1.2,67,7,35000,7.408,,,40,,,,,,,,,,,wg-a,,,,AAXX 21094 07761 12481 30404 10130 20070 30282 40293 51012 60006 82501 90900=
07761,1997-02-21 12:00:00,16,1029.7,0.4,68,10,35000,11.112,,,240,,,,,,,,,,,wg-a,,,,AAXX 21124 07761 12581 /2406 10160 20100 30286 40297 50004 60006 81101 91200=
07761,1997-02-21 15:00:00,15,1028.6,-1.1,72,10,500,11.112,,,230,,,,,,,,,,,wg-a,,,,AAXX 21154 07761 12600 32306 10150 20100 30275 40286 56011 60006 81501 91500=
07761,1997-02-21 18:00:00,11,1030,1.4,87,9,10000,7.408,,,60,5.1,16.2,,,,,,,,,wg-a,,,,AAXX 21184 07761 12460 20604 10110 20090 30289 40300 53014 60006 82501 91800 333 10162 20051=
07761,1997-02-22 00:00:00,5,1030.9,0,87,3,20000,11.112,,,60,,,,,,,,,,,wg-a,,,,AAXX 22004 07761 12/70 10606 10050 20030 30298 40309 50000 60006 80001 90000=
07761,1997-02-22 03:00:00,4,1030.6,-0.3,87,2,15000,14.816,,,40,,,,,,,,,,,wg-a,,,,AAXX 22034 07761 12565 /0408 10040 20020 30295 40306 57003 60006 81501 90300=
07761,1997-02-22 06:00:00,4,1031.3,0.7,87,2,15000,14.816,,,50,3.6,11.3,,,,,,,,,wg-a,,,,AAXX 22064 07761 02565 /0508 10040 20020 30302 40313 53007 60006 81501 90600 333 10113 20036 60004=
07761,1997-02-22 09:00:00,11,1031.7,0.4,71,6,15000,7.408,,,50,,,,,,,,,,,wg-a,,,,AAXX 22094 07761 12565 /0504 10110 20060 30306 40317 52004 60006 81500 90900=
07761,1997-02-22 12:00:00,15,1030.9,-0.8,63,8,500,14.816,,,250,,,,,,,,,,,wg-a,,,,AAXX 22124 07761 12600 /2508 10150 20080 30298 40309 58008 60006 81800 91200=
07761,1997-02-22 15:00:00,14,1030,-0.9,72,9,500,14.816,,,240,,,,,,,,,,,wg-a,,,,AAXX 22154 07761 12500 32408 10140 20090 30289 40300 56009 60006 8/800 91500=
07761,1997-02-22 18:00:00,10,1029.9,-0.1,82,7,20000,7.408,,,60,3.7,15.3,,,,,,,,,wg-a,,,,AAXX 22184 07761 12670 40604 10100 20070 30288 40299 55001 60006 81501 91800 333 10153 20037=
07761,1997-02-22 21:00:00,7,1029.4,-0.5,93,6,10000,14.816,,,60,,,,,,,,,,,wg-a,,,,AAXX 22214 07761 12/60 10608 10070 20060 30283 40294 58005 60006 80001 92100=
07761,1997-02-23 00:00:00,5,1028.7,-0.7,93,4,12000,14.816,,,60,,,,,,,,,,,wg-a,,,,AAXX 23004 07761 12/62 00608 10050 20040 30276 40287 58007 60006 80000 90000=
07761,1997-02-23 03:00:00,4,1027.5,-1.2,87,2,12000,14.816,,,60,,,,,,,,,,,wg-a,,,,AAXX 23034 07761 12/62 30608 10040 20020 30264 40275 58012 60006 80001 90300=
07761,1997-02-23 06:00:00,2,1026.4,-1.1,93,1,35000,11.112,,,50,1.8,9.9,,,,,,,,,wg-a,,,,AAXX 23064 07761 02/81 10506 10020 20010 30253 40264 56011 60006 81031 90600 333 10099 20018 60004=
07761,1997-02-23 09:00:00,11,1026,-0.4,71,6,35000,3.704,,,50,,,,,,,,,,,wg-a,,,,AAXX 23094 07761 12681 60502 10110 20060 30249 40260 58004 60006 81102 90900=
07761,1997-02-23 12:00:00,15,1024.6,-1.4,63,8,35000,14.816,,,220,,,,,,,,,,,wg-a,,,,AAXX 23124 07761 12681 /2208 10150 20080 30235 40246 58014 60006 81802 91200=
07761,1997-02-23 15:00:00,15,1023.3,-1.3,63,8,35000,11.112,,,290,,,,,,,,,,,wg-a,,,,AAXX 23154 07761 12581 /2906 10150 20080 30222 40233 55013 60006 85802 91500=
07761,1997-02-23 18:00:00,11,1022.7,-0.6,82,8,20000,7.408,,,70,1.8,16.5,,,,,,,,,wg-a,,,,AAXX 23184 07761 12570 /0704 10110 20080 30216 40227 55006 60006 83502 91800 333 10165 20018=
07761,1997-02-23 21:00:00,7,1022.9,0.2,87,5,15000,11.112,,,60,,,,,,,,,,,wg-a,,,,AAXX 23214 07761 12565 60606 10070 20050 30218 40229 53002 60006 81542 92100=
07761,1997-02-24 00:00:00,8,1021.8,-1.1,87,6,15000,11.112,,,50,,,,,,,,,,,wg-a,,,,AAXX 24004 07761 12565 70506 10080 20060 30207 40218 58011 60006 83572 90000=
07761,1997-02-24 03:00:00,7,1021.1,-0.7,87,5,15000,11.112,,,60,,,,,,,,,,,wg-a,,,,AAXX 24034 07761 12565 /0606 10070 20050 30200 40211 58007 60006 81572 90300=
07761,1997-02-24 06:00:00,5,1020.8,-0.3,93,4,15000,14.816,,,60,5,11.3,,,,,,,,,wg-a,,,,AAXX 24064 07761 02565 60608 10050 20040 30197 40208 56003 60006 81132 90600 333 10113 20050 60004=
07761,1997-02-24 09:00:00,12,1021.3,0.5,76,8,15000,11.112,,,50,,,,,,,,,,,wg-a,,,,AAXX 24094 07761 12565 /0506 10120 20080 30202 40213 50005 60006 84830 90900=
07761,1997-02-24 12:00:00,16,1021,-0.3,72,11,15000,18.52,,,230,,,,,,,,,,,wg-a,,,,AAXX 24124 07761 12565 72310 10160 20110 30199 40210 57003 60006 8117/ 91200=
07761,1997-02-24 15:00:00,15,1021.3,0.3,67,9,15000,14.816,,,230,,,,,,,,,,,wg-a,,,,AAXX 24154 07761 12565 72308 10150 20090 30202 40213 53003 60006 8347/ 91500=
07761,1997-02-24 18:00:00,11,1021.8,0.5,82,8,12000,7.408,,,90,5.2,16.6,,,,,,,,,wg-a,,,,AAXX 24184 07761 12562 /0904 10110 20080 30207 40218 52005 60006 81530 91800 333 10166 20052=
07761,1997-02-24 21:00:00,11,1023.4,1.6,82,8,12000,11.112,,,60,,,,,,,,,,,wg-a,,,,AAXX 24214 07761 12562 /0606 10110 20080 30223 40234 51016 60006 81500 92100=
07761,1997-02-25 00:00:00,10,1023.9,0.5,82,7,12000,11.112,,,30,,,,,,,,,,,wg-a,,,,AAXX 25004 07761 12562 70306 10100 20070 30228 40239 53005 60006 86570 90000=
07761,1997-02-25 03:00:00,11,1023.4,-0.5,82,8,12000,11.112,,,50,,,,,,,,,,,wg-a,,,,AAXX 25034 07761 12562 70506 10110 20080 30223 40234 58005 60006 875// 90300=
07761,1997-02-25 06:00:00,10,1023.7,0.3,87,8,12000,11.112,,,40,8.8,11.5,,,,,,,,,wg-a,,,,AAXX 25064 07761 02562 70406 10100 20080 30226 40237 53003 60006 8557/ 90600 333 10115 20088 60004=
07761,1997-02-25 09:00:00,14,1025,1.3,77,10,9000,3.704,,,60,,,,,,,,,,,wg-a,,,,AAXX 25094 07761 12559 70602 10140 20100 30239 40250 51013 60006 875// 90900=
07761,1997-02-25 12:00:00,15,1025,0,72,10,12000,3.704,,,200,,,,,,,,,,,wg-a,,,,AAXX 25124 07761 12562 /2002 10150 20100 30239 40250 50000 60006 878// 91200=
07761,1997-02-25 18:00:00,13,1024.6,,82,10,10000,7.408,,,70,9.8,16.5,,,,,,,,,wg-a,,,,AAXX 25184 07761 12560 70704 10130 20100 30235 40246 60006 875// 91800 333 10165 20098=
07761,1997-02-26 00:00:00,13,1024.7,-0.3,77,9,10000,11.112,,,50,,,,,,,,,,,wg-a,,,,AAXX 26004 07761 12560 70506 10130 20090 30236 40247 58003 60006 875// 90000=
07761,1997-02-26 03:00:00,11,1023.5,-1.2,82,8,10000,14.816,,,50,,,,,,,,,,,wg-a,,,,AAXX 26034 07761 12560 80508 10110 20080 30224 40235 57012 60006 875// 90300=
07761,1997-02-26 06:00:00,9,1023,-0.5,87,7,10000,14.816,,,70,8.5,13.3,,,,,,,,,wg-a,,,,AAXX 26064 07761 12460 80708 10090 20070 30219 40230 56005 60006 875// 90600 333 10133 20085=
07761,1997-02-26 12:00:00,14,1023,-0.9,88,12,3000,7.408,,,70,,,,,,,,,,50,wg-a,,,,AAXX 26124 07761 02230 80704 10140 20120 30219 40230 58009 61000 75065 887// 91200 333 6100=
07761,1997-02-26 15:00:00,15,1022.4,-0.6,82,12,4000,7.408,,,220,,,,,,,,,,10,wg-a,,,,AAXX 26154 07761 02340 82204 10150 20120 30213 40224 55006 61000 71052 888// 91500 333 ////=
07761,1997-02-26 18:00:00,13,1023.2,0.8,88,11,7000,3.704,,,330,9.3,15.5,,,,,,,,3,wg-a,,,,AAXX 26184 07761 12457 53302 10130 20110 30221 40232 53008 60006 70351 85800 91800 333 10155 20093=
07761,1997-02-27 00:00:00,14,1024.3,-0.2,58,6,17000,42.596,,,290,,,,,,,,,,,wg-a,,,,AAXX 27004 07761 12567 12923 10140 20060 30232 40243 58002 60006 81102 90000=
07761,1997-02-27 03:00:00,13,1023.2,-1.1,51,3,17000,31.484,,57.412,300,,,,,,,,,,,wg-a,,,,AAXX 27034 07761 12567 /3017 10130 20030 30221 40232 58011 60006 85802 90300 333 91031=
07761,1997-02-27 06:00:00,12,1024.2,1,54,3,15000,25.928,,48.152,330,10.8,14.5,,,,,,,,,wg-a,,,,AAXX 27064 07761 02665 /3314 10120 20030 30231 40242 53010 60006 85500 90600 333 10145 20108 61000 91026=
07761,1997-02-27 09:00:00,15,1025.4,1.2,51,5,15000,29.632,,,300,,,,,,,,,,,wg-a,,,,AAXX 27094 07761 12665 /3016 10150 20050 30243 40254 53012 60006 81800 90900=
07761,1997-02-27 12:00:00,17,1026,0.6,39,3,15000,31.484,,57.412,320,,,,,,,,,,,wg-a,,,,AAXX 27124 07761 12665 /3217 10170 20030 30249 40260 50006 60006 81800 91200 333 91031=
07761,1997-02-27 18:00:00,13,1029,2.4,47,2,500,25.928,,57.412,320,12,18,,,,,,,,,wg-a,,,,AAXX 27184 07761 12/00 13214 10130 20020 30279 40290 51024 60006 80002 91800 333 10180 20120 91031=
07761,1997-02-27 21:00:00,9,1031.4,2.4,53,0,20000,18.52,,,60,,,,,,,,,,,wg-a,,,,AAXX 27214 07761 12570 /0610 10090 20000 30303 40314 51024 60006 81500 92100=
07761,1997-02-28 00:00:00,6,1032,0.6,56,-2,20000,14.816,,,40,,,,,,,,,,,wg-a,,,,AAXX 28004 07761 12/70 00408 10060 21020 30309 40320 51006 60006 80000 90000=
07761,1997-02-28 03:00:00,2,1030.9,-1.1,69,-3,20000,14.816,,,70,,,,,,,,,,,wg-a,,,,AAXX 28034 07761 12/70 00708 10020 21030 30298 40309 57011 60006 80000 90300=
07761,1997-02-28 06:00:00,1,1032.9,1.9,69,-4,50000,14.816,,,50,1.4,13.4,,,,,,,,,wg-a,,,,AAXX 28064 07761 02/84 00508 10010 21040 30317 40329 53019 60006 80000 90600 333 10134 20014 60004=
07761,1997-02-28 09:00:00,14,1033.8,1,28,-4,50000,7.408,,,90,,,,,,,,,,,wg-a,,,,AAXX 28094 07761 12/84 10904 10140 21040 30327 40338 52010 60006 80002 90900=
07761,1997-02-28 12:00:00,16,1033.3,-0.5,45,4,50000,18.52,,,220,,,,,,,,,,,wg-a,,,,AAXX 28124 07761 12/84 22210 10160 20040 30322 40333 58005 60006 80002 91200=
07761,1997-02-28 15:00:00,17,1032.8,-0.5,27,-2,50000,11.112,,,290,,,,,,,,,,,wg-a,,,,AAXX 28154 07761 12/84 42906 10170 21020 30317 40328 56005 60006 80002 91500=
07761,1997-02-28 18:00:00,11,1033.3,,50,1,20000,7.408,,,90,,,,,,,,,,,wg-a,,,,AAXX 28184 07761 12/70 50904 10110 20010 30322 40333 60006 91800=
07761,1997-02-28 21:00:00,6,1033.4,0,65,0,20000,14.816,,,50,,,,,,,,,,,wg-a,,,,AAXX 28214 07761 12/70 20508 10060 20000 30323 40334 50000 60006 80001 92100=
07761,1997-03-01 00:00:00,5,1032.9,-0.5,70,0,20000,11.112,,,50,,,,,,,,,,,wg-a,,,,AAXX 01004 07761 12/70 10506 10050 20000 30318 40329 56005 60006 80001 90000=
07761,1997-03-01 03:00:00,3,1031.7,-1.2,81,0,20000,11.112,,,50,,,,,,,,,,,wg-a,,,,AAXX 01034 07761 12/70 60506 10030 20000 30306 40317 58012 60006 80001 90300=
07761,1997-03-01 06:00:00,4,1032.2,0.5,75,0,20000,11.112,,,60,2.8,10.5,,,,,,,,,wg-a,,,,AAXX 01064 07761 02/70 60606 10040 20000 30311 40322 53005 60006 80001 90600 333 10105 20028 60004=
07761,1997-03-01 09:00:00,13,1032.5,0.3,51,3,50000,0,,,0,,,,,,,,,,,wg-a,,,,AAXX 01094 07761 12/84 30000 10130 20030 30314 40325 53003 60006 80001 90900=
07761,1997-03-01 12:00:00,15,1031.6,-0.9,63,8,50000,14.816,,,230,,,,,,,,,,,wg-a,,,,AAXX 01124 07761 12/84 52308 10150 20080 30305 40316 58009 60006 80002 91200=
07761,1997-03-01 15:00:00,15,1030.2,-1.4,63,8,40000,14.816,,,190,,,,,,,,,,,wg-a,,,,AAXX 01154 07761 12/82 71908 10150 20080 30291 40302 56014 60006 80002 91500=
07761,1997-03-01 18:00:00,11,1030.4,0.2,76,7,500,3.704,,,100,2.9,15.5,,,,,,,,,wg-a,,,,AAXX 01184 07761 12/00 71002 10110 20070 30293 40304 53002 60006 82072 91800 333 10155 20029=
07761,1997-03-01 21:00:00,8,1030.6,0.2,81,5,20000,11.112,,,50,,,,,,,,,,,wg-a,,,,AAXX 01214 07761 12/70 /0506 10080 20050 30295 40306 53002 60006 81032 92100=
07761,1997-03-02 00:00:00,6,1029.9,-0.7,87,4,20000,11.112,,,50,,,,,,,,,,,wg-a,,,,AAXX 02004 07761 12/70 40506 10060 20040 30288 40299 58007 60006 80002 90000=
07761,1997-03-02 03:00:00,5,1028.8,-1.1,87,3,20000,11.112,,,60,,,,,,,,,,,wg-a,,,,AAXX 02034 07761 12270 40606 10050 20030 30277 40288 56011 60006 81502 90300=
07761,1997-03-02 06:00:00,6,1028.4,-0.4,87,4,20000,7.408,,,60,4.5,11.2,,,,,,,,,wg-a,,,,AAXX 02064 07761 02/70 80604 10060 20040 30273 40284 56004 60006 85072 90600 333 10112 20045 60004=
07761,1997-03-02 09:00:00,11,1029.1,0.7,76,7,500,3.704,,,50,,,,,,,,,,,wg-a,,,,AAXX 02094 07761 12500 80502 10110 20070 30280 40291 51007 60006 81578 90900=
07761,1997-03-02 12:00:00,14,1028.9,-0.2,67,8,500,7.408,,,210,,,,,,,,,,,wg-a,,,,AAXX 02124 07761 12500 72104 10140 20080 30278 40289 58002 60006 81172 91200=
07761,1997-03-02 15:00:00,15,1027.8,-1.1,72,10,500,14.816,,,220,,,,,,,,,,,wg-a,,,,AAXX 02154 07761 12/00 22208 10150 20100 30267 40278 56011 60006 81032 91500=
07761,1997-03-02 18:00:00,12,1029.1,1.3,82,9,20000,7.408,,,240,6.1,15.6,,,,,,,,,wg-a,,,,AAXX 02184 07761 12/70 12404 10120 20090 30280 40291 53013 60006 81030 91800 333 10156 20061=
07761,1997-03-02 21:00:00,7,1030.2,1.1,87,5,20000,11.112,,,50,,,,,,,,,,,wg-a,,,,AAXX 02214 07761 12/70 00506 10070 20050 30291 40302 53011 60006 80000 92100=
07761,1997-03-03 00:00:00,6,1030.5,0.3,87,4,20000,7.408,,,60,,,,,,,,,,,wg-a,,,,AAXX 03004 07761 12/70 00604 10060 20040 30294 40305 52003 60006 80000 90000=
07761,1997-03-03 03:00:00,5,1030.9,0.4,87,3,20000,11.112,,,60,,,,,,,,,,,wg-a,,,,AAXX 03034 07761 12/70 00606 10050 20030 30298 40309 52004 60006 80000 90300=
07761,1997-03-03 06:00:00,3,1031.9,1,93,2,20000,11.112,,,50,3,11.7,,,,,,,,,wg-a,,,,AAXX 03064 07761 02/70 00506 10030 20020 30308 40319 53010 60006 80000 90600 333 10117 20030 60004=
07761,1997-03-03 09:00:00,14,1032.6,0.7,63,7,20000,3.704,,,200,,,,,,,,,,,wg-a,,,,AAXX 03094 07761 12/70 02002 10140 20070 30315 40326 51007 60006 80000 90900=
07761,1997-03-03 12:00:00,16,1032.6,0,77,12,25000,14.816,,,220,,,,,,,,,,,wg-a,,,,AAXX 03124 07761 12/75 02208 10160 20120 30315 40326 50000 60006 80000 91200=
07761,1997-03-03 15:00:00,15,1032.2,-0.4,77,11,10000,7.408,,,210,,,,,,,,,,,wg-a,,,,AAXX 03154 07761 12/60 02104 10150 20110 30311 40322 57004 60006 80000 91500=
07761,1997-03-03 18:00:00,12,1032.8,0.6,88,10,8000,3.704,,,220,2.7,15.9,,,,,,,,,wg-a,,,,AAXX 03184 07761 12/58 12202 10120 20100 30317 40328 53006 60006 80002 91800 333 10159 20027=
07761,1997-03-04 00:00:00,6,1033.3,-0.4,93,5,100,11.112,,,50,,,,,,,,,,43,wg-a,,,,AAXX 04004 07761 12/01 90506 10060 20050 30322 40333 55004 60006 74341 89/// 90000=
07761,1997-03-04 03:00:00,4,1032.6,-0.7,87,2,10000,14.816,,,60,,,,,,,,,,1,wg-a,,,,AAXX 04034 07761 12460 /0608 10040 20020 30315 40326 57007 60006 70141 81500 90300=
07761,1997-03-04 06:00:00,5,1032.6,0,81,2,10000,14.816,,,40,2.5,11.9,,,,,,,,1,wg-a,,,,AAXX 04064 07761 02460 50408 10050 20020 30315 40326 50000 60006 70141 81501 90600 333 10119 20025 60004=
07761,1997-03-04 09:00:00,13,1033.4,0.8,72,8,13000,3.704,,,50,,,,,,,,,,,wg-a,,,,AAXX 04094 07761 12463 30502 10130 20080 30323 40334 51008 60006 81802 90900=
07761,1997-03-04 12:00:00,15,1032.8,-0.6,77,11,12000,14.816,,,240,,,,,,,,,,,wg-a,,,,AAXX 04124 07761 12/62 22408 10150 20110 30317 40328 58006 60006 80002 91200=
07761,1997-03-04 18:00:00,12,1031.6,0.5,88,10,4500,3.704,,,160,4.1,15.8,,,,,,,,10,wg-a,,,,AAXX 04184 07761 12345 41602 10120 20100 30305 40316 53005 60006 71000 84800 91800 333 10158 20041=
07761,1997-03-04 21:00:00,12,1031.4,-0.2,88,10,500,7.408,,,70,,,,,,,,,,,wg-a,,,,AAXX 04214 07761 12300 70704 10120 20100 30303 40314 58002 60006 876// 92100=
07761,1997-03-05 00:00:00,11,1031.1,-0.3,87,9,500,7.408,,,70,,,,,,,,,,,wg-a,,,,AAXX 05004 07761 12/00 /0704 10110 20090 30300 40311 56003 60006 90000=
07761,1997-03-05 06:00:00,11,1029.7,-0.3,82,8,4000,14.816,,,50,10.5,12.1,,,,,,,,10,wg-a,,,,AAXX 05064 07761 02440 80508 10110 20080 30286 40297 58003 60006 71022 876// 90600 333 10121 20105 60004=
07761,1997-03-05 09:00:00,13,1029.6,-0.1,77,9,500,7.408,,,40,,,,,,,,,,,wg-a,,,,AAXX 05094 07761 12400 80404 10130 20090 30285 40296 58001 60006 886// 90900=
07761,1997-03-05 12:00:00,16,1028.5,-1.1,68,10,8000,14.816,,,230,,,,,,,,,,,wg-a,,,,AAXX 05124 07761 12558 32308 10160 20100 30274 40285 58011 60006 82501 91200=
07761,1997-03-05 15:00:00,15,1026.7,-1.8,77,11,8000,14.816,,,230,,,,,,,,,,,wg-a,,,,AAXX 05154 07761 12558 22308 10150 20110 30256 40267 56018 60006 81501 91500=
07761,1997-03-05 18:00:00,14,1026.4,-0.3,77,10,7000,11.112,,,200,10.5,16.1,,,,,,,,,wg-a,,,,AAXX 05184 07761 12457 82006 10140 20100 30253 40264 58003 60006 886// 91800 333 10161 20105=
07761,1997-03-06 00:00:00,10,1024.7,-1.4,93,9,6000,3.704,,,60,,,,,,,,,,,wg-a,,,,AAXX 06004 07761 12456 /0602 10100 20090 30236 40247 58014 60006 86500 90000=
07761,1997-03-06 03:00:00,9,1022.3,-2.4,87,7,500,11.112,,,50,,,,,,,,,,,wg-a,,,,AAXX 06034 07761 12400 80506 10090 20070 30212 40223 58024 60006 885// 90300=
07761,1997-03-06 06:00:00,11,1021.5,-0.8,82,8,7000,14.816,,,70,8.2,13.9,,,,,,,,,wg-a,,,,AAXX 06064 07761 12457 /0708 10110 20080 30204 40215 57008 60006 86500 90600 333 10139 20082=
07761,1997-03-06 12:00:00,15,1020.8,-0.6,82,12,0,18.52,,,240,,,,,,,,,,,wg-a,,,,AAXX 06124 07761 12/// /2410 10150 20120 30197 40208 58006 60006 91200=
07761,1997-03-06 18:00:00,14,1021.7,1.2,77,10,0,7.408,,,110,10.3,16.9,,,,,,,,,wg-a,,,,AAXX 06184 07761 12/// /1104 10140 20100 30206 40217 53012 60006 91800 333 10169 20103=
07761,1997-03-07 00:00:00,12,1022.9,0.3,82,9,0,7.408,,,70,,,,,,,,,,,wg-a,,,,AAXX 07004 07761 12/// /0704 10120 20090 30218 40229 51003 60006 90000=
07761,1997-03-07 06:00:00,10,1022.7,0.2,93,9,0,3.704,,,360,9.5,14.2,,1,,,1,,,,wg-a,,,,AAXX 07064 07761 02/// /3602 10100 20090 30216 40227 53002 60014 90600 333 10142 20095 60017=
07761,1997-03-07 12:00:00,15,1023.6,-0.3,63,8,15000,7.408,,,210,,,,,,,,,,,wg-a,,,,AAXX 07124 07761 12765 /2104 10150 20080 30225 40236 58003 60006 8157/ 91200=
07761,1997-03-07 15:00:00,16,1023.2,-0.4,68,10,25000,11.112,,,250,,,,,,,,,,,wg-a,,,,AAXX 07154 07761 12775 72506 10160 20100 30221 40232 56004 60006 81571 91500=
07761,1997-03-07 18:00:00,14,1024.5,1.3,58,6,15000,3.704,,,70,9.8,17.1,,,,,,,,,wg-a,,,,AAXX 07184 07761 12765 70702 10140 20060 30234 40245 53013 60006 85571 91800 333 10171 20098=
07761,1997-03-07 21:00:00,11,1025.4,0.9,76,7,15000,11.112,,,50,,,,,,,,,,,wg-a,,,,AAXX 07214 07761 12765 50506 10110 20070 30243 40254 53009 60006 83501 92100=
07761,1997-03-08 00:00:00,8,1025.3,-0.1,76,4,15000,7.408,,,70,,,,,,,,,,,wg-a,,,,AAXX 08004 07761 12765 /0704 10080 20040 30242 40253 56001 60006 81501 90000=
07761,1997-03-08 03:00:00,7,1025.3,0,81,4,15000,11.112,,,40,,,,,,,,,,,wg-a,,,,AAXX 08034 07761 12/65 00406 10070 20040 30242 40253 50000 60006 80000 90300=
07761,1997-03-08 06:00:00,5,1026.1,0.8,81,2,15000,18.52,,,50,5,14,,,,,,,,,wg-a,,,,AAXX 08064 07761 02/65 10510 10050 20020 30250 40261 53008 60006 80002 90600 333 10140 20050 60004=
07761,1997-03-08 09:00:00,15,1027.3,1.2,55,6,25000,3.704,,,220,,,,,,,,,,,wg-a,,,,AAXX 08094 07761 12/75 02202 10150 20060 30262 40273 51012 60006 80000 90900=
07761,1997-03-08 12:00:00,17,1027.2,-0.1,68,11,22000,18.52,,,210,,,,,,,,,,,wg-a,,,,AAXX 08124 07761 12672 /2110 10170 20110 30261 40272 58001 60006 81100 91200=
07761,1997-03-08 15:00:00,17,1026.6,-0.6,63,10,21000,18.52,,,260,,,,,,,,,,,wg-a,,,,AAXX 08154 07761 12671 /2610 10170 20100 30255 40266 56006 60006 81100 91500=
07761,1997-03-08 18:00:00,13,1027.5,0.9,77,9,17000,7.408,,,160,4.8,17.8,,,,,,,,,wg-a,,,,AAXX 08184 07761 12/67 01604 10130 20090 30264 40275 53009 60006 80000 91800 333 10178 20048=
07761,1997-03-09 00:00:00,6,1027.8,-0.2,87,4,10000,7.408,,,60,,,,,,,,,,,wg-a,,,,AAXX 09004 07761 12/60 /0604 10060 20040 30267 40278 58002 60006 90000=
07761,1997-03-09 03:00:00,4,1027.7,-0.1,93,3,15000,11.112,,,50,,,,,,,,,,,wg-a,,,,AAXX 09034 07761 12/65 00506 10040 20030 30266 40277 55001 60006 80000 90300=
07761,1997-03-09 06:00:00,4,1028.8,1.1,81,1,11000,14.816,,,40,3,12.9,,,,,,,,,wg-a,,,,AAXX 09064 07761 02/61 /0408 10040 20010 30277 40288 53011 60006 90600 333 10129 20030 60004=
07761,1997-03-09 09:00:00,15,1029.8,1,55,6,25000,7.408,,,200,,,,,,,,,,,wg-a,,,,AAXX 09094 07761 12775 32004 10150 20060 30287 40298 51010 60006 81132 90900=
07761,1997-03-09 12:00:00,17,1029.5,-0.3,55,8,25000,14.816,,,240,,,,,,,,,,,wg-a,,,,AAXX 09124 07761 12775 32408 10170 20080 30284 40295 58003 60006 81142 91200=
07761,1997-03-09 18:00:00,12,1029.9,1.1,67,6,20000,3.704,,,50,3.1,17.1,,,,,,,,,wg-a,,,,AAXX 09184 07761 12670 40502 10120 20060 30288 40299 53011 60006 81502 91800 333 10171 20031=
07761,1997-03-10 00:00:00,6,1030.9,0.2,87,4,15000,14.816,,,40,,,,,,,,,,,wg-a,,,,AAXX 10004 07761 12/65 00408 10060 20040 30298 40309 52002 60006 80000 90000=
07761,1997-03-10 03:00:00,5,1030.6,-0.3,87,3,16000,14.816,,,50,,,,,,,,,,,wg-a,,,,AAXX 10034 07761 12/66 10508 10050 20030 30295 40306 58003 60006 80002 90300=
07761,1997-03-10 06:00:00,4,1031.4,0.8,87,2,18000,14.816,,,50,3.7,12.3,,,,,,,,,wg-a,,,,AAXX 10064 07761 02/68 10508 10040 20020 30303 40314 53008 60006 80001 90600 333 10123 20037 60004=
07761,1997-03-10 09:00:00,15,1031.5,0.1,59,7,500,3.704,,,260,,,,,,,,,,,wg-a,,,,AAXX 10094 07761 12/00 02602 10150 20070 30304 40315 50001 60006 80000 90900=
07761,1997-03-10 12:00:00,16,1030.3,-1.2,68,10,500,18.52,,,230,,,,,,,,,,,wg-a,,,,AAXX 10124 07761 12700 /2310 10160 20100 30292 40303 58012 60006 81100 91200=
07761,1997-03-10 15:00:00,15,1028.4,-1.9,67,9,20000,14.816,,,210,,,,,,,,,,,wg-a,,,,AAXX 10154 07761 12670 /2108 10150 20090 30273 40284 56019 60006 81130 91500=
07761,1997-03-10 18:00:00,12,1028,-0.4,82,9,15000,3.704,,,70,3.6,16.2,,,,,,,,,wg-a,,,,AAXX 10184 07761 12/65 10702 10120 20090 30269 40280 56004 60006 80001 91800 333 10162 20036=
07761,1997-03-10 21:00:00,8,1027.6,-0.4,87,6,15000,11.112,,,50,,,,,,,,,,,wg-a,,,,AAXX 10214 07761 12/65 00506 10080 20060 30265 40276 58004 60006 80000 92100=
07761,1997-03-11 00:00:00,6,1027,-0.6,87,4,15000,14.816,,,50,,,,,,,,,,,wg-a,,,,AAXX 11004 07761 12/65 00508 10060 20040 30259 40270 57006 60006 80000 90000=
07761,1997-03-11 03:00:00,4,1025.6,-1.4,93,3,15000,11.112,,,50,,,,,,,,,,,wg-a,,,,AAXX 11034 07761 12/65 00506 10040 20030 30245 40256 58014 60006 80000 90300=
07761,1997-03-11 06:00:00,4,1025.9,0.3,93,3,15000,14.816,,,60,3.5,12.2,,,,,,,,,wg-a,,,,AAXX 11064 07761 02/65 10608 10040 20030 30248 40259 53003 60006 80001 90600 333 10122 20035 60004=
07761,1997-03-11 09:00:00,14,1025.9,0,67,8,40000,3.704,,,250,,,,,,,,,,,wg-a,,,,AAXX 11094 07761 12/82 02502 10140 20080 30248 40259 50000 60006 80000 90900=
07761,1997-03-11 12:00:00,17,1025.2,-0.7,63,10,40000,22.224,,,210,,,,,,,,,,,wg-a,,,,AAXX 11124 07761 12582 /2112 10170 20100 30241 40252 58007 60006 81100 91200=
07761,1997-03-11 15:00:00,16,1024.9,-0.3,68,10,12000,22.224,,,220,,,,,,,,,,,wg-a,,,,AAXX 11154 07761 12562 /2212 10160 20100 30238 40249 55003 60006 81100 91500=
07761,1997-03-11 18:00:00,13,1026.9,2,67,7,15000,7.408,,,120,4.1,17.1,,,,,,,,,wg-a,,,,AAXX 11184 07761 12565 21204 10130 20070 30258 40269 53020 60006 82100 91800 333 10171 20041=
07761,1997-03-11 21:00:00,13,1029.7,2.8,35,-2,11000,18.52,,,100,,,,,,,,,,,wg-a,,,,AAXX 11214 07761 12/61 /1010 10130 21020 30286 40297 53028 60006 92100=
07761,1997-03-12 00:00:00,6,1031.1,1.4,56,-2,15000,7.408,,,70,,,,,,,,,,,wg-a,,,,AAXX 12004 07761 12/65 00704 10060 21020 30300 40311 51014 60006 80000 90000=
07761,1997-03-12 03:00:00,3,1032,0.9,70,-2,15000,18.52,,,50,,,,,,,,,,,wg-a,,,,AAXX 12034 07761 12/65 00510 10030 21020 30309 40320 51009 60006 80000 90300=
07761,1997-03-12 06:00:00,3,1032.2,0.2,70,-2,25000,14.816,,,60,2.4,14.5,,,,,,,,,wg-a,,,,AAXX 12064 07761 02/75 00608 10030 21020 30311 40322 50002 60006 80000 90600 333 10145 20024 60004=
07761,1997-03-12 09:00:00,14,1032,-0.2,47,3,500,3.704,,,260,,,,,,,,,,,wg-a,,,,AAXX 12094 07761 12/00 02602 10140 20030 30309 40320 58002 60006 80000 90900=
07761,1997-03-12 12:00:00,16,1031.2,-0.8,55,7,35000,14.816,,,250,,,,,,,,,,,wg-a,,,,AAXX 12124 07761 12/81 02508 10160 20070 30301 40312 58008 60006 80000 91200=
07761,1997-03-12 15:00:00,17,1029.1,-2.1,45,5,35000,11.112,,,220,,,,,,,,,,,wg-a,,,,AAXX 12154 07761 12/81 02206 10170 20050 30280 40291 56021 60006 80000 91500=
07761,1997-03-12 18:00:00,12,1029.9,0.8,67,6,500,14.816,,,340,2.8,17.2,,,,,,,,,wg-a,,,,AAXX 12184 07761 12/00 03408 10120 20060 30288 40299 53008 60006 80000 91800 333 10172 20028=
07761,1997-03-13 00:00:00,5,1029.7,-0.6,87,3,20000,14.816,,,50,,,,,,,,,,,wg-a,,,,AAXX 13004 07761 12/70 00508 10050 20030 30286 40297 58006 60006 80000 90000=
07761,1997-03-13 03:00:00,2,1027.7,-2,93,1,15000,14.816,,,60,,,,,,,,,,,wg-a,,,,AAXX 13034 07761 12/65 00608 10020 20010 30266 40277 58020 60006 80000 90300=
07761,1997-03-13 06:00:00,3,1026.7,-1,87,1,20000,14.816,,,50,1.9,12.2,,,,,,,,,wg-a,,,,AAXX 13064 07761 02/70 00508 10030 20010 30256 40267 58010 60006 80000 90600 333 10122 20019 60004=
07761,1997-03-13 10:00:00,13,1022.4,-0.6,82,10,12000,7.408,,,60,2.7,16.6,,,,,,,,,wg-a,,,,AAXX 13104 07761 12462 50604 10130 20100 30213 40224 56006 60006 83801 91000 333 10166 20027=
07761,1997-03-13 12:00:00,16,1024.9,-1.4,68,10,500,18.52,,,240,,,,,,,,,,,wg-a,,,,AAXX 13124 07761 12500 12410 10160 20100 30238 40249 58014 60006 81100 91200=
07761,1997-03-13 18:00:00,13,1022.4,-0.6,82,10,12000,7.408,,,60,2.7,16.6,,,,,,,,,wg-a,,,,AAXX 13184 07761 12462 50604 10130 20100 30213 40224 56006 60006 83801 91800 333 10166 20027=
07761,1997-03-13 21:00:00,12,1022.3,-0.1,88,10,12000,3.704,,,50,,,,,,,,,,,wg-a,,,,AAXX 13214 07761 12462 /0502 10120 20100 30212 40223 58001 60006 85800 92100=
07761,1997-03-14 00:00:00,9,1021.7,-0.6,87,7,12000,14.816,,,50,,,,,,,,,,,wg-a,,,,AAXX 14004 07761 12/62 00508 10090 20070 30206 40217 58006 60006 80000 90000=
07761,1997-03-14 06:00:00,5,1020.2,-0.1,93,4,12000,14.816,,,50,5.1,13,,,,,,,,,wg-a,,,,AAXX 14064 07761 02/62 /0508 10050 20040 30191 40202 55001 60006 81070 90600 333 10130 20051 60004=
07761,1997-03-14 09:00:00,14,1020.4,0.2,67,8,10000,7.408,,,190,,,,,,,,,,,wg-a,,,,AAXX 14094 07761 12560 21904 10140 20080 30193 40204 51002 60006 81501 90900=
07761,1997-03-14 12:00:00,16,1019.5,-0.9,68,10,9000,18.52,,,230,,,,,,,,,,,wg-a,,,,AAXX 14124 07761 12559 /2310 10160 20100 30184 40195 58009 60006 81100 91200=
07761,1997-03-14 15:00:00,16,1,,72,11,8000,11.112,,,220,,,,,,,,,,,wg-a,,,,AAXX 14154 07761 12558 /2206 10160 20110 60006 81100 91500=
07761,1997-03-14 18:00:00,12,1017.1,,82,9,9000,7.408,,,150,5.2,16.7,,,,,,,,,wg-a,,,,AAXX 14184 07761 12/59 01504 10120 20090 30160 40171 60006 80000 91800 333 10167 20052=
07761,1997-03-14 21:00:00,8,1017.3,0.2,87,6,10000,7.408,,,50,,,,,,,,,,,wg-a,,,,AAXX 14214 07761 12/60 00504 10080 20060 30162 40173 50002 60006 80000 92100=
07761,1997-03-15 00:00:00,7,1015.6,-1.7,87,5,11000,7.408,,,50,,,,,,,,,,,wg-a,,,,AAXX 15004 07761 12/61 /0504 10070 20050 30145 40156 56017 60006 90000=
07761,1997-03-15 03:00:00,6,1013.6,-2,93,5,10000,11.112,,,50,,,,,,,,,,,wg-a,,,,AAXX 15034 07761 12460 20506 10060 20050 30125 40136 56020 60006 82500 90300=
07761,1997-03-15 06:00:00,7,1014.5,0.9,93,6,10000,11.112,,,50,5,12.4,,,,,,,,,wg-a,,,,AAXX 15064 07761 02/60 /0506 10070 20060 30134 40145 52009 60006 85032 90600 333 10124 20050 60004=
07761,1997-03-15 09:00:00,15,1016.6,2.1,67,9,9000,3.704,,,10,,,,,,,,,,,wg-a,,,,AAXX 15094 07761 12/59 /0102 10150 20090 30155 40166 53021 60006 90900=
07761,1997-03-15 12:00:00,16,1018,1.4,72,11,7000,7.408,,,210,,,,,,,,,,,wg-a,,,,AAXX 15124 07761 12557 72104 10160 20110 30169 40180 51014 60006 84231 91200=
07761,1997-03-15 15:00:00,16,1017.9,-0.1,68,10,8000,18.52,,,240,,,,,,,,,,,wg-a,,,,AAXX 15154 07761 12/58 /2410 10160 20100 30168 40179 55001 60006 91500=
07761,1997-03-15 18:00:00,13,1019.2,1.3,77,9,8000,7.408,,,60,7.1,17.7,,,,,,,,,wg-a,,,,AAXX 15184 07761 12/58 10604 10130 20090 30181 40192 53013 60006 80001 91800 333 10177 20071=
07761,1997-03-15 21:00:00,8,1020.6,1.4,87,6,10000,11.112,,,40,,,,,,,,,,,wg-a,,,,AAXX 15214 07761 12/60 00406 10080 20060 30195 40206 51014 60006 80000 92100=
07761,1997-03-16 00:00:00,7,1021.3,0.7,87,5,10000,18.52,,,50,,,,,,,,,,,wg-a,,,,AAXX 16004 07761 12/60 00510 10070 20050 30202 40213 51007 60006 80000 90000=
07761,1997-03-16 03:00:00,6,1021,-0.3,81,3,10000,14.816,,,40,,,,,,,,,,,wg-a,,,,AAXX 16034 07761 12/60 00408 10060 20030 30199 40210 55003 60006 80000 90300=
07761,1997-03-16 06:00:00,6,1021.8,0.8,81,3,12000,14.816,,,40,5.3,12.6,,,,,,,,,wg-a,,,,AAXX 16064 07761 02/62 00408 10060 20030 30207 40218 53008 60006 80000 90600 333 10126 20053 60004=
07761,1997-03-16 09:00:00,15,1023.2,1.4,51,5,20000,3.704,,,200,,,,,,,,,,,wg-a,,,,AAXX 16094 07761 12/70 02002 10150 20050 30221 40232 51014 60006 80000 90900=
07761,1997-03-16 12:00:00,17,1022.8,-0.4,63,10,20000,18.52,,,220,,,,,,,,,,,wg-a,,,,AAXX 16124 07761 12770 32210 10170 20100 30217 40228 58004 60006 81101 91200=
07761,1997-03-16 15:00:00,16,1022.9,0.1,82,13,10000,11.112,,,200,,,,,,,,,,,wg-a,,,,AAXX 16154 07761 12760 /2006 10160 20130 30218 40229 53001 60006 81101 91500=
07761,1997-03-16 18:00:00,14,1023.4,0.5,77,10,15000,3.704,,,50,5,17,,,,,,,,,wg-a,,,,AAXX 16184 07761 12/65 00502 10140 20100 30223 40234 53005 60006 80000 91800 333 10170 20050=
07761,1997-03-16 21:00:00,10,1023.9,0.5,76,6,15000,11.112,,,50,,,,,,,,,,,wg-a,,,,AAXX 16214 07761 12/65 00506 10100 20060 30228 40239 51005 60006 80000 92100=
07761,1997-03-17 00:00:00,6,1023.9,0,87,4,15000,11.112,,,50,,,,,,,,,,,wg-a,,,,AAXX 17004 07761 12/65 00506 10060 20040 30228 40239 50000 60006 80000 90000=
07761,1997-03-17 06:00:00,5,1022.9,-0.1,81,2,15000,11.112,,,50,4.3,13.5,,,,,,,,,wg-a,,,,AAXX 17064 07761 02/65 00506 10050 20020 30218 40229 55001 60006 80000 90600 333 10135 20043 60004=
07761,1997-03-17 09:00:00,16,1022.4,-0.5,72,11,40000,3.704,,,230,,,,,,,,,,,wg-a,,,,AAXX 17094 07761 12482 /2302 10160 20110 30213 40224 58005 60006 81101 90900=
07761,1997-03-17 12:00:00,18,1021.2,-1.2,73,13,35000,18.52,,,230,,,,,,,,,,,wg-a,,,,AAXX 17124 07761 12481 42310 10180 20130 30201 40212 58012 60006 82802 91200=
07761,1997-03-17 15:00:00,17,1019.4,-1.8,77,13,35000,18.52,,,250,,,,,,,,,,,wg-a,,,,AAXX 17154 07761 12581 32510 10170 20130 30183 40194 56018 60006 81802 91500=
07761,1997-03-17 18:00:00,14,1019.6,0.2,88,12,10000,11.112,,,250,5.1,17.9,,,,,,,,,wg-a,,,,AAXX 17184 07761 12360 22506 10140 20120 30185 40196 53002 60006 81402 91800 333 10179 20051=
07761,1997-03-17 21:00:00,10,1019.6,0,87,8,12000,7.408,,,70,,,,,,,,,,,wg-a,,,,AAXX 17214 07761 12362 /0704 10100 20080 30185 40196 50000 60006 81100 92100=
07761,1997-03-18 00:00:00,8,1019.6,0,93,7,9000,18.52,,,50,,,,,,,,,,,wg-a,,,,AAXX 18004 07761 12/59 00510 10080 20070 30185 40196 50000 60006 80000 90000=
07761,1997-03-18 03:00:00,5,1018.5,-1.1,93,4,15000,11.112,,,60,,,,,,,,,,,wg-a,,,,AAXX 18034 07761 12/65 00606 10050 20040 30174 40185 56011 60006 80000 90300=
07761,1997-03-18 06:00:00,6,1019.2,0.7,93,5,20000,11.112,,,60,4.7,14.1,,,,,,,,,wg-a,,,,AAXX 18064 07761 02/70 00606 10060 20050 30181 40192 52007 60006 80000 90600 333 10141 20047 60004=
07761,1997-03-18 09:00:00,15,1019.3,0.1,67,9,20000,3.704,,,250,,,,,,,,,,,wg-a,,,,AAXX 18094 07761 12/70 02502 10150 20090 30182 40193 53001 60006 80000 90900=
07761,1997-03-18 12:00:00,17,1018.9,-0.4,72,12,15000,18.52,,,240,,,,,,,,,,,wg-a,,,,AAXX 18124 07761 12665 /2410 10170 20120 30178 40189 58004 60006 81101 91200=
07761,1997-03-18 15:00:00,17,1016.7,-2.2,77,13,10000,14.816,,,230,,,,,,,,,,,wg-a,,,,AAXX 18154 07761 12/60 /2308 10170 20130 30156 40167 56022 60006 91500=
07761,1997-03-18 18:00:00,14,1016,-0.7,94,13,12000,7.408,,,230,6.2,17.3,,,,,,,,,wg-a,,,,AAXX 18184 07761 12562 22304 10140 20130 30149 40160 56007 60006 82530 91800 333 10173 20062=
07761,1997-03-19 00:00:00,7,1013.6,-2.1,93,6,15000,11.112,,,60,,,,,,,,,,,wg-a,,,,AAXX 19004 07761 12765 10606 10070 20060 30125 40136 56021 60006 81530 90000=
07761,1997-03-19 03:00:00,8,1010.9,-2.7,93,7,15000,11.112,,,60,,,,,,,,,,,wg-a,,,,AAXX 19034 07761 12465 80606 10080 20070 30098 40109 58027 60006 875// 90300=
07761,1997-03-19 06:00:00,8,1009.2,-1.7,93,7,20000,11.112,,,70,6.5,13.8,,,,,,,,,wg-a,,,,AAXX 19064 07761 02570 /0706 10080 20070 30081 40092 56017 60006 81540 90600 333 10138 20065 60004=
07761,1997-03-19 09:00:00,16,1009.4,0.2,48,5,18000,29.632,,42.596,300,,,,,,,,,,,wg-a,,,,AAXX 19094 07761 12568 33016 10160 20050 30083 40094 51002 60006 81231 90900 333 91023=
07761,1997-03-19 12:00:00,16,1007.9,-1.5,48,5,18000,22.224,,48.152,290,,,,,,,,,,,wg-a,,,,AAXX 19124 07761 12668 62912 10160 20050 30068 40079 58015 60006 83232 91200 333 91026=
07761,1997-03-19 15:00:00,16,1005.6,-2.3,48,5,20000,25.928,,37.04,310,,,,,,,,,,,wg-a,,,,AAXX 19154 07761 12670 33114 10160 20050 30045 40056 57023 60006 82202 91500 333 91020=
07761,1997-03-19 18:00:00,14,1004.5,-1.1,55,5,15000,18.52,,50.004,280,8.2,16.7,,,,,,,,,wg-a,,,,AAXX 19184 07761 12665 /2810 10140 20050 30034 40045 56011 60006 81100 91800 333 10167 20082 91027=
07761,1997-03-19 21:00:00,11,1004.2,-0.3,58,3,15000,11.112,,,90,,,,,,,,,,,wg-a,,,,AAXX 19214 07761 12665 /0906 10110 20030 30031 40042 58003 60006 81400 92100=
07761,1997-03-20 00:00:00,7,1006.5,2.3,76,3,15000,7.408,,,50,,,,,,,,,,,wg-a,,,,AAXX 20004 07761 12665 30504 10070 20030 30054 40065 51023 60006 83500 90000=
07761,1997-03-20 03:00:00,5,1006.6,0.1,81,2,15000,14.816,,,60,,,,,,,,,,,wg-a,,,,AAXX 20034 07761 12665 /0608 10050 20020 30055 40066 50001 60006 81540 90300=
07761,1997-03-20 06:00:00,4,1007.8,1.2,87,2,15000,14.816,,,40,4,13.9,,,,,,,,,wg-a,,,,AAXX 20064 07761 02/65 00408 10040 20020 30067 40078 53012 60006 80000 90600 333 10139 20040 60004=
07761,1997-03-20 09:00:00,14,1009.2,1.4,58,6,25000,7.408,,,250,,,,,,,,,,,wg-a,,,,AAXX 20094 07761 12675 12504 10140 20060 30081 40092 51014 60006 81100 90900=
07761,1997-03-20 12:00:00,16,1009.5,0.3,68,10,40000,22.224,,,200,,,,,,,,,,,wg-a,,,,AAXX 20124 07761 12682 /2012 10160 20100 30084 40095 50003 60006 81200 91200=
07761,1997-03-20 15:00:00,18,1009.3,-0.2,28,-1,40000,18.52,,,310,,,,,,,,,,,wg-a,,,,AAXX 20154 07761 12682 /3110 10180 21010 30082 40093 56002 60006 81200 91500=
07761,1997-03-20 18:00:00,14,1010.7,1.4,72,9,11000,18.52,,,230,4.1,18.5,,,,,,,,,wg-a,,,,AAXX 20184 07761 12/61 /2310 10140 20090 30096 40107 53014 60006 91800 333 10185 20041=
07761,1997-03-20 21:00:00,8,1012.7,2,71,3,20000,14.816,,,50,,,,,,,,,,,wg-a,,,,AAXX 20214 07761 12570 /0508 10080 20030 30116 40127 51020 60006 81500 92100=
07761,1997-03-21 00:00:00,5,1012.6,-0.1,81,2,25000,3.704,,,60,,,,,,,,,,,wg-a,,,,AAXX 21004 07761 12/75 00602 10050 20020 30115 40126 57001 60006 80000 90000=
07761,1997-03-21 06:00:00,4,1013.4,1,70,-1,25000,14.816,,,50,3,14.1,,,,,,,,,wg-a,,,,AAXX 21064 07761 02/75 00508 10040 21010 30123 40134 53010 60006 80000 90600 333 10141 20030 60004=
07761,1997-03-21 09:00:00,13,1014.9,1.5,62,6,40000,11.112,,,280,,,,,,,,,,,wg-a,,,,AAXX 21094 07761 12582 /2806 10130 20060 30138 40149 53015 60006 81100 90900=
07761,1997-03-21 12:00:00,16,1015.2,0.3,55,7,40000,18.52,,,250,,,,,,,,,,,wg-a,,,,AAXX 21124 07761 12582 /2510 10160 20070 30141 40152 51003 60006 81100 91200=
07761,1997-03-21 18:00:00,12,1015.4,0.4,71,7,500,0,,,0,4,15.9,,,,,,,,,wg-a,,,,AAXX 21184 07761 12/00 /0000 10120 20070 30143 40154 53004 60006 80001 91800 333 10159 20040=
07761,1997-03-21 21:00:00,8,1016.5,1.1,81,5,20000,11.112,,,50,,,,,,,,,,,wg-a,,,,AAXX 21214 07761 12/70 40506 10080 20050 30154 40165 51011 60006 80001 92100=
07761,1997-03-22 00:00:00,6,1016.7,0.2,87,4,15000,11.112,,,50,,,,,,,,,,,wg-a,,,,AAXX 22004 07761 12565 40506 10060 20040 30156 40167 53002 60006 84500 90000=
07761,1997-03-22 06:00:00,5,1017.2,1.2,87,3,10000,11.112,,,40,4.8,12.2,,,,,,,,,wg-a,,,,AAXX 22064 07761 02/60 /0406 10050 20030 30161 40172 53012 60006 90600 333 10122 20048 60004=
07761,1997-03-22 09:00:00,15,1017.5,0.3,59,7,20000,3.704,,,230,,,,,,,,,,,wg-a,,,,AAXX 22094 07761 12/70 42302 10150 20070 30164 40175 51003 60006 80002 90900=
07761,1997-03-22 12:00:00,17,1017.6,0.1,59,9,25000,22.224,,,220,,,,,,,,,,,wg-a,,,,AAXX 22124 07761 12575 32212 10170 20090 30165 40176 50001 60006 81202 91200=
07761,1997-03-22 15:00:00,17,1016.8,-0.8,59,9,25000,11.112,,,200,,,,,,,,,,,wg-a,,,,AAXX 22154 07761 12575 52006 10170 20090 30157 40168 56008 60006 81202 91500=
07761,1997-03-22 18:00:00,14,1017.2,0.4,72,9,20000,0,,,0,4.5,17.5,,,,,,,,,wg-a,,,,AAXX 22184 07761 12670 30000 10140 20090 30161 40172 53004 60006 81501 91800 333 10175 20045=
07761,1997-03-22 21:00:00,9,1018.1,0.9,87,7,20000,11.112,,,70,,,,,,,,,,,wg-a,,,,AAXX 22214 07761 12/70 20706 10090 20070 30170 40181 53009 60006 80001 92100=
07761,1997-03-23 00:00:00,7,1018.7,0.6,87,5,10000,14.816,,,40,,,,,,,,,,,wg-a,,,,AAXX 23004 07761 12460 20408 10070 20050 30176 40187 51006 60006 81502 90000=
07761,1997-03-23 03:00:00,5,1017.9,-0.8,93,4,15000,11.112,,,50,,,,,,,,,,,wg-a,,,,AAXX 23034 07761 12/65 10506 10050 20040 30168 40179 58008 60006 80002 90300=
07761,1997-03-23 06:00:00,6,1018.8,0.9,87,4,15000,14.816,,,40,3.7,13.5,,,,,,,,,wg-a,,,,AAXX 23064 07761 02465 70408 10060 20040 30177 40188 52009 60006 86502 90600 333 10135 20037 60004=
07761,1997-03-23 09:00:00,15,1019.6,0.8,63,8,500,7.408,,,240,,,,,,,,,,,wg-a,,,,AAXX 23094 07761 12500 42404 10150 20080 30185 40196 53008 60006 84800 90900=
07761,1997-03-23 12:00:00,16,1018.4,-1.2,68,10,500,18.52,,,220,,,,,,,,,,,wg-a,,,,AAXX 23124 07761 12600 /2210 10160 20100 30173 40184 58012 60006 81200 91200=
07761,1997-03-23 15:00:00,16,1016.5,-1.9,63,9,500,18.52,,,220,,,,,,,,,,,wg-a,,,,AAXX 23154 07761 12600 52210 10160 20090 30154 40165 56019 60006 81202 91500=
07761,1997-03-23 18:00:00,13,1016.5,-0,72,8,20000,3.704,,,320,5.8,16.5,,,,,,,,,wg-a,,,,AAXX 23184 07761 12670 73202 10130 20080 30154 40165 55000 60006 81132 91800 333 10165 20058=
07761,1997-03-23 21:00:00,9,1015.6,-0.9,87,7,20000,11.112,,,50,,,,,,,,,,,wg-a,,,,AAXX 23214 07761 12870 70506 10090 20070 30145 40156 58009 60006 8703/ 92100=
07761,1997-03-24 00:00:00,6,1013.7,-1.9,87,4,17000,14.816,,,50,,,,,,,,,,,wg-a,,,,AAXX 24004 07761 12567 60508 10060 20040 30126 40137 56019 60006 82832 90000=
07761,1997-03-24 03:00:00,7,1010.5,-3.2,87,5,15000,11.112,,,50,,,,,,,,,,,wg-a,,,,AAXX 24034 07761 12465 70506 10070 20050 30094 40105 58032 60006 8323/ 90300=
07761,1997-03-24 06:00:00,12,1007.3,-3.2,94,11,500,29.632,,,270,5.5,12.7,,,,,,,,80,wg-a,,,,AAXX 24064 07761 02400 82716 10120 20110 30062 40073 56032 61000 78086 878// 90600 333 10127 20055 6007=
07761,1997-03-24 09:00:00,15,1005.1,-2.2,77,11,15000,31.484,,,270,,,,0,,,,,,1,wg-a,,,,AAXX 24094 07761 12465 /2717 10150 20110 30040 40051 56022 60007 70186 85800 90900=
07761,1997-03-24 12:00:00,16,1003.3,-1.8,55,7,500,18.52,,,300,,,,,,,,,,1,wg-a,,,,AAXX 24124 07761 12600 33010 10160 20070 30022 40033 56018 60006 70186 83800 91200=
07761,1997-03-24 15:00:00,17,1001.9,-1.4,48,6,500,25.928,,,300,,,,,,,,,,,wg-a,,,,AAXX 24154 07761 12500 23014 10170 20060 30008 40019 57014 60006 82200 91500=
07761,1997-03-24 18:00:00,13,1003.8,1.9,54,4,40000,25.928,,53.708,330,12.3,17.2,,,,,,,,,wg-a,,,,AAXX 24184 07761 12582 /3314 10130 20040 30027 40038 53019 60006 81101 91800 333 10172 20123 91029=
07761,1997-03-24 21:00:00,8,1006.2,2.4,76,4,20000,11.112,,,40,,,,,,,,,,,wg-a,,,,AAXX 24214 07761 12/70 00406 10080 20040 30051 40062 51024 60006 80000 92100=
07761,1997-03-25 00:00:00,6,1007.3,1.1,81,3,20000,18.52,,,40,,,,,,,,,,,wg-a,,,,AAXX 25004 07761 12670 10410 10060 20030 30062 40073 51011 60006 81100 90000=
07761,1997-03-25 03:00:00,4,1007.7,0.4,87,2,20000,14.816,,,50,,,,,,,,,,,wg-a,,,,AAXX 25034 07761 12/70 00508 10040 20020 30066 40077 53004 60006 80000 90300=
07761,1997-03-25 06:00:00,5,1009.3,1.6,87,3,20000,14.816,,,40,3.9,13.3,,,,,,,,,wg-a,,,,AAXX 25064 07761 02570 /0408 10050 20030 30082 40093 53016 60006 81100 90600 333 10133 20039 60004=
07761,1997-03-25 09:00:00,15,1010,0.7,63,8,500,7.408,,,210,,,,,,,,,,,wg-a,,,,AAXX 25094 07761 12500 22104 10150 20080 30089 40100 53007 60006 82200 90900=
07761,1997-03-25 12:00:00,16,1009.9,-0.1,68,10,40000,22.224,,,230,,,,,,,,,,,wg-a,,,,AAXX 25124 07761 12682 22312 10160 20100 30088 40099 58001 60006 82200 91200=
07761,1997-03-25 15:00:00,15,1009.4,-0.5,63,8,50000,11.112,,,230,,,,,,,,,,,wg-a,,,,AAXX 25154 07761 12684 52306 10150 20080 30083 40094 58005 60006 85800 91500=
07761,1997-03-25 18:00:00,14,1010.8,1.4,67,8,20000,7.408,,,290,5.1,16.5,,,,,,,,,wg-a,,,,AAXX 25184 07761 12670 52904 10140 20080 30097 40108 53014 60006 84830 91800 333 10165 20051=
07761,1997-03-25 21:00:00,12,1013.1,2.3,82,9,15000,11.112,,,50,,,,0,,,,,,61,wg-a,,,,AAXX 25214 07761 12665 70506 10120 20090 30120 40131 53023 60007 76162 8780/ 92100=
07761,1997-03-26 00:00:00,10,1013.6,0.5,87,8,15000,11.112,,,50,,,,1,,,,,,3,wg-a,,,,AAXX 26004 07761 02/65 70506 10100 20080 30125 40136 53005 60016 70362 8703/ 90000 333 60017=
07761,1997-03-26 03:00:00,8,1013.5,-0.1,93,7,15000,11.112,,,60,,,,,,,,,,,wg-a,,,,AAXX 26034 07761 12/65 20606 10080 20070 30124 40135 55001 60006 8203/ 90300=
07761,1997-03-26 06:00:00,6,1015,1.5,93,5,11000,14.816,,,70,5.8,14.2,,,,,1,,,,wg-a,,,,AAXX 26064 07761 02/61 /0708 10060 20050 30139 40150 53015 60006 90600 333 10142 20058 60014=
07761,1997-03-26 12:00:00,16,1018.4,1.6,72,11,500,18.52,,,240,,,,,,,,,,,wg-a,,,,AAXX 26124 07761 12500 22410 10160 20110 30173 40184 51016 60006 82200 91200=
07761,1997-03-26 15:00:00,16,1018.4,0,72,11,40000,14.816,,,250,,,,,,,,,,,wg-a,,,,AAXX 26154 07761 12582 32508 10160 20110 30173 40184 50000 60006 83800 91500=
07761,1997-03-26 18:00:00,14,1020.3,1.9,82,11,20000,7.408,,,210,6.5,17,,,,,,,,,wg-a,,,,AAXX 26184 07761 12470 /2104 10140 20110 30192 40203 51019 60006 81800 91800 333 10170 20065=
07761,1997-03-26 21:00:00,10,1022.3,2,87,8,11000,11.112,,,40,,,,,,,,,,,wg-a,,,,AAXX 26214 07761 12/61 /0406 10100 20080 30212 40223 52020 60006 92100=
07761,1997-03-27 00:00:00,8,1023.1,0.8,87,6,0,11.112,,,40,,,,,,,,,,,wg-a,,,,AAXX 27004 07761 12/// /0406 10080 20060 30220 40231 52008 60006 90000=
07761,1997-03-27 06:00:00,7,1023.6,0.8,87,5,20000,11.112,,,50,5.6,13.6,,,,,,,,,wg-a,,,,AAXX 27064 07761 02/70 40506 10070 20050 30225 40236 53008 60006 80002 90600 333 10136 20056 60004=
07761,1997-03-27 09:00:00,15,1024.4,0.8,67,9,40000,7.408,,,230,,,,,,,,,,,wg-a,,,,AAXX 27094 07761 12682 12304 10150 20090 30233 40244 53008 60006 81101 90900=
07761,1997-03-27 12:00:00,17,1024.2,-0.2,68,11,40000,18.52,,,230,,,,,,,,,,,wg-a,,,,AAXX 27124 07761 12682 /2310 10170 20110 30231 40242 58002 60006 81100 91200=
07761,1997-03-27 15:00:00,16,1023.5,-0.7,68,10,40000,18.52,,,220,,,,,,,,,,,wg-a,,,,AAXX 27154 07761 12682 /2210 10160 20100 30224 40235 58007 60006 81100 91500=
07761,1997-03-27 18:00:00,14,1023.5,-0,67,8,500,11.112,,,190,6.9,17.4,,,,,,,,,wg-a,,,,AAXX 27184 07761 12/00 01906 10140 20080 30224 40235 55000 60006 80000 91800 333 10174 20069=
07761,1997-03-27 21:00:00,8,1023.7,0.2,81,5,500,11.112,,,50,,,,,,,,,,,wg-a,,,,AAXX 27214 07761 12/00 00506 10080 20050 30226 40237 50002 60006 80000 92100=
07761,1997-03-28 00:00:00,6,1023,-0.7,93,5,500,11.112,,,60,,,,,,,,,,,wg-a,,,,AAXX 28004 07761 12/00 00606 10060 20050 30219 40230 58007 60006 80000 90000=
07761,1997-03-28 03:00:00,6,1021.3,-1.7,81,3,500,14.816,,,50,,,,,,,,,,,wg-a,,,,AAXX 28034 07761 12/00 00508 10060 20030 30202 40213 57017 60006 80000 90300=
07761,1997-03-28 06:00:00,6,1019.8,-1.5,81,3,500,14.816,,,60,4,13.5,,,,,,,,,wg-a,,,,AAXX 28064 07761 02/00 00608 10060 20030 30187 40198 56015 60006 80000 90600 333 10135 20040 60004=
07761,1997-03-28 09:00:00,15,1017.9,-1.9,55,6,500,7.408,,,260,,,,,,,,,,,wg-a,,,,AAXX 28094 07761 12500 /2604 10150 20060 30168 40179 58019 60006 81130 90900=
07761,1997-03-28 12:00:00,15,1015.6,-2.3,77,11,15000,7.408,,,180,,,,,,,,,,,wg-a,,,,AAXX 28124 07761 12565 81804 10150 20110 30145 40156 58023 60006 8583/ 91200=
07761,1997-03-28 15:00:00,15,1012.2,-3.4,77,11,15000,11.112,,,210,,,,,,,,,,,wg-a,,,,AAXX 28154 07761 12565 72106 10150 20110 30111 40122 57034 60006 878// 91500=
07761,1997-03-28 18:00:00,15,1009.2,-3,77,11,12000,7.408,,,90,6,15.9,,,,,,,,,wg-a,,,,AAXX 28184 07761 12462 80904 10150 20110 30081 40092 56030 60006 878// 91800 333 10159 20060=
07761,1997-03-28 21:00:00,12,1007.8,-1.4,82,9,12000,11.112,,,40,,,,,,,,,,,wg-a,,,,AAXX 28214 07761 12462 /0406 10120 20090 30067 40078 58014 60006 84800 92100=
07761,1997-03-29 00:00:00,9,1005.1,-2.7,93,8,12000,11.112,,,50,,,,,,,,,,,wg-a,,,,AAXX 29004 07761 12562 10506 10090 20080 30040 40051 58027 60006 81100 90000=
07761,1997-03-29 03:00:00,8,1005.9,0.8,93,7,12000,11.112,,,40,,,,,,,,,,,wg-a,,,,AAXX 29034 07761 12/62 00406 10080 20070 30048 40059 53008 60006 80000 90300=
07761,1997-03-29 06:00:00,9,1008.7,2.8,76,5,20000,11.112,,,20,6.8,14.5,,,,,,,,,wg-a,,,,AAXX 29064 07761 02670 /0206 10090 20050 30076 40087 51028 60006 81500 90600 333 10145 20068 60004=
07761,1997-03-29 09:00:00,17,1009.8,1.1,42,4,35000,14.816,,,220,,,,,,,,,,,wg-a,,,,AAXX 29094 07761 12681 /2208 10170 20040 30087 40098 51011 60006 81130 90900=
07761,1997-03-29 12:00:00,18,1009.4,-0.4,16,-8,11000,31.484,,,300,,,,,,,,,,,wg-a,,,,AAXX 29124 07761 12/61 /3017 10180 21080 30083 40094 58004 60006 91200=
07761,1997-03-29 15:00:00,17,1009.9,0.5,17,-8,40000,25.928,,57.412,320,,,,,,,,,,,wg-a,,,,AAXX 29154 07761 12682 /3214 10170 21080 30088 40099 53005 60006 81800 91500 333 91031=
07761,1997-03-29 18:00:00,14,1011.9,2,18,-10,500,14.816,,57.412,40,9,19.4,,,,,,,,,wg-a,,,,AAXX 29184 07761 12/00 00408 10140 21100 30108 40119 53020 60006 80000 91800 333 10194 20090 91031=
07761,1997-03-29 21:00:00,6,1014.1,2.2,42,-6,500,14.816,,,50,,,,,,,,,,,wg-a,,,,AAXX 29214 07761 12/00 00508 10060 21060 30130 40141 51022 60006 80000 92100=
07761,1997-03-30 00:00:00,4,1014.6,0.5,48,-6,500,18.52,,,50,,,,,,,,,,,wg-a,,,,AAXX 30004 07761 12/00 00510 10040 21060 30135 40146 53005 60006 80000 90000=
07761,1997-03-30 03:00:00,3,1014.9,0.3,56,-5,500,14.816,,,30,,,,,,,,,,,wg-a,,,,AAXX 30034 07761 12/00 /0308 10030 21050 30138 40149 53003 60006 81030 90300=
07761,1997-03-30 06:00:00,4,1015.3,0.4,60,-3,0,14.816,,,40,2.4,13.5,,,,,,,,,wg-a,,,,AAXX 30064 07761 02/// /0408 10040 21030 30142 40153 53004 60006 90600 333 10135 20024 60004=
07761,1997-03-30 09:00:00,15,1015.6,0.3,33,-1,10000,7.408,,,250,,,,,,,,,,,wg-a,,,,AAXX 30094 07761 12/60 /2504 10150 21010 30145 40156 52003 60006 90900=
07761,1997-03-30 12:00:00,17,1014.2,-1.4,34,1,11000,18.52,,,300,,,,,,,,,,,wg-a,,,,AAXX 30124 07761 12/61 /3010 10170 20010 30131 40142 58014 60006 91200=
07761,1997-03-30 15:00:00,17,1014.1,-0.1,36,2,50000,7.408,,,220,,,,,,,,,,,wg-a,,,,AAXX 30154 07761 12584 22204 10170 20020 30130 40141 55001 60006 82100 91500=
07761,1997-03-30 18:00:00,14,1015.7,1.6,44,2,40000,14.816,,,200,3.7,17.7,,,,,,,,,wg-a,,,,AAXX 30184 07761 12582 /2008 10140 20020 30146 40157 53016 60006 81100 91800 333 10177 20037=
07761,1997-03-30 21:00:00,7,1017.7,2,66,1,500,14.816,,,60,,,,,,,,,,,wg-a,,,,AAXX 30214 07761 12/00 00608 10070 20010 30166 40177 51020 60006 80000 92100=
07761,1997-03-31 00:00:00,6,1018.9,1.2,65,0,500,14.816,,,40,,,,,,,,,,,wg-a,,,,AAXX 31004 07761 12/00 00408 10060 20000 30178 40189 51012 60006 80000 90000=
07761,1997-03-31 06:00:00,5,1020.5,1.4,65,-1,50000,11.112,,,20,2.2,13.9,,,,,,,,,wg-a,,,,AAXX 31064 07761 02/84 00206 10050 21010 30194 40205 51014 60006 80000 90600 333 10139 20022 60004=
07761,1997-03-31 09:00:00,14,1021.9,1.4,55,5,50000,11.112,,,240,,,,,,,,,,,wg-a,,,,AAXX 31094 07761 12684 /2406 10140 20050 30208 40219 53014 60006 81100 90900=
07761,1997-03-31 12:00:00,15,1021.5,-0.4,48,4,50000,22.224,,,310,,,,,,,,,,,wg-a,,,,AAXX 31124 07761 12684 53112 10150 20040 30204 40215 58004 60006 85800 91200=
07761,1997-03-31 15:00:00,16,1020.4,-1.1,48,5,500,22.224,,,310,,,,,,,,,,,wg-a,,,,AAXX 31154 07761 12600 43112 10160 20050 30193 40204 58011 60006 84800 91500=
07761,1997-03-31 18:00:00,12,1020,-0.4,50,2,40000,14.816,,,320,4.8,16.2,,,,,,,,,wg-a,,,,AAXX 31184 07761 12682 /3208 10120 20020 30189 40200 56004 60006 81100 91800 333 10162 20048=
07761,1997-03-31 21:00:00,7,1020.7,0.7,76,3,10000,14.816,,,50,,,,,,,,,,,wg-a,,,,AAXX 31214 07761 12/60 /0508 10070 20030 30196 40207 51007 60006 92100=
07761,1997-04-01 00:00:00,4,1020.3,-0.4,81,1,20000,14.816,,,50,,,,,,,,,,,wg-a,,,,AAXX 01004 07761 12/70 00508 10040 20010 30192 40203 57004 60006 80000 90000=
07761,1997-04-01 03:00:00,4,1018.8,-1.5,81,1,20000,11.112,,,50,,,,,,,,,,,wg-a,,,,AAXX 01034 07761 12/70 30506 10040 20010 30177 40188 58015 60006 83040 90300=
07761,1997-04-01 06:00:00,5,1019.2,0.4,81,2,40000,14.816,,,40,3.1,12.4,,,,,,,,,wg-a,,,,AAXX 01064 07761 02682 50408 10050 20020 30181 40192 53004 60006 81140 90600 333 10124 20031 60004=
07761,1997-04-01 09:00:00,14,1019,-0.2,51,4,40000,7.408,,,230,,,,,,,,,,,wg-a,,,,AAXX 01094 07761 12782 32304 10140 20040 30179 40190 58002 60006 81140 90900=
07761,1997-04-01 12:00:00,17,1017.7,-1.3,68,11,40000,22.224,,,220,,,,,,,,,,,wg-a,,,,AAXX 01124 07761 12782 32212 10170 20110 30166 40177 56013 60006 81840 91200=
07761,1997-04-01 15:00:00,17,1015.6,-2.1,68,11,40000,22.224,,,240,,,,,,,,,,,wg-a,,,,AAXX 01154 07761 12782 42412 10170 20110 30145 40156 56021 60006 83840 91500=
07761,1997-04-01 18:00:00,14,1015.4,-0.2,72,9,500,7.408,,,340,5.1,18.4,,,,,,,,,wg-a,,,,AAXX 01184 07761 12500 /3404 10140 20090 30143 40154 56002 60006 81800 91800 333 10184 20051=
07761,1997-04-01 21:00:00,9,1016,0.6,87,7,20000,11.112,,,50,,,,,,,,,,,wg-a,,,,AAXX 01214 07761 12570 10506 10090 20070 30149 40160 50006 60006 81500 92100=
07761,1997-04-02 00:00:00,8,1015.4,-0.6,93,7,20000,11.112,,,60,,,,,,,,,,,wg-a,,,,AAXX 02004 07761 12670 40606 10080 20070 30143 40154 58006 60006 82532 90000=
07761,1997-04-02 03:00:00,8,1014.9,-0.5,93,7,18000,11.112,,,100,,,,,,,,,,,wg-a,,,,AAXX 02034 07761 12668 71006 10080 20070 30138 40149 55005 60006 8233/ 90300=
07761,1997-04-02 06:00:00,9,1015.7,0.8,87,7,25000,7.408,,,90,7.6,13.9,,,,,,,,,wg-a,,,,AAXX 02064 07761 02675 /0904 10090 20070 30146 40157 51008 60006 81830 90600 333 10139 20076 60004=
07761,1997-04-02 09:00:00,16,1016.1,0.4,68,10,25000,18.52,,,220,,,,,,,,,,,wg-a,,,,AAXX 02094 07761 12575 /2210 10160 20100 30150 40161 51004 60006 81200 90900=
07761,1997-04-02 12:00:00,17,1016.3,0.2,68,11,22000,25.928,,,230,,,,,,,,,,,wg-a,,,,AAXX 02124 07761 12572 42314 10170 20110 30152 40163 52002 60006 82201 91200=
07761,1997-04-02 15:00:00,16,1015.9,-0.4,68,10,15000,18.52,,,220,,,,,,,,,,25,wg-a,,,,AAXX 02154 07761 02565 52210 10160 20100 30148 40159 58004 61000 72586 84801 91500 333 ////=
07761,1997-04-02 18:00:00,13,1016.2,0.3,72,8,18000,7.408,,,170,8.8,17.1,,,,,,,,1,wg-a,,,,AAXX 02184 07761 12568 /1704 10130 20080 30151 40162 53003 60006 70186 81802 91800 333 10171 20088=
07761,1997-04-02 21:00:00,8,1017.7,1.5,87,6,20000,11.112,,,60,,,,,,,,,,,wg-a,,,,AAXX 02214 07761 12/70 00606 10080 20060 30166 40177 51015 60006 80000 92100=
07761,1997-04-03 00:00:00,6,1017.2,-0.5,93,5,20000,11.112,,,40,,,,,,,,,,,wg-a,,,,AAXX 03004 07761 12/70 00406 10060 20050 30161 40172 58005 60006 80000 90000=
07761,1997-04-03 03:00:00,6,1016,-1.2,87,4,20000,11.112,,,40,,,,,,,,,,,wg-a,,,,AAXX 03034 07761 12/70 00406 10060 20040 30149 40160 56012 60006 80000 90300=
07761,1997-04-03 06:00:00,6,1016.3,0.3,87,4,20000,14.816,,,50,4.5,13.2,,,,,,,,,wg-a,,,,AAXX 03064 07761 02/70 00508 10060 20040 30152 40163 53003 60006 80000 90600 333 10132 20045 61000=
07761,1997-04-03 09:00:00,16,1016,-0.3,55,7,10000,11.112,,,240,,,,,,,,,,,wg-a,,,,AAXX 03094 07761 12/60 /2406 10160 20070 30149 40160 58003 60006 90900=
07761,1997-04-03 12:00:00,17,1015.2,-0.8,72,12,25000,22.224,,,230,,,,,,,,,,,wg-a,,,,AAXX 03124 07761 12575 /2312 10170 20120 30141 40152 58008 60006 81100 91200=
07761,1997-04-03 15:00:00,16,1013.4,-1.8,77,12,11000,18.52,,,220,,,,,,,,,,,wg-a,,,,AAXX 03154 07761 12/61 /2210 10160 20120 30123 40134 58018 60006 91500=
07761,1997-04-03 18:00:00,14,1012.3,-1.1,82,11,15000,7.408,,,150,5.9,17.3,,,,,,,,,wg-a,,,,AAXX 03184 07761 12565 21504 10140 20110 30112 40123 56011 60006 82100 91800 333 10173 20059=
07761,1997-04-04 00:00:00,10,1010,-2.2,87,8,15000,7.408,,,30,,,,,,,,,,,wg-a,,,,AAXX 04004 07761 12/65 00304 10100 20080 30089 40100 56022 60006 80000 90000=
07761,1997-04-04 03:00:00,8,1008.9,-1.1,87,6,15000,11.112,,,40,,,,,,,,,,,wg-a,,,,AAXX 04034 07761 12/65 00406 10080 20060 30078 40089 56011 60006 80000 90300=
07761,1997-04-04 06:00:00,8,1008.8,-0.1,81,5,15000,18.52,,,50,5.9,13.9,,,,,,,,,wg-a,,,,AAXX 04064 07761 02/65 20510 10080 20050 30077 40088 55001 60006 80001 90600 333 10139 20059 60004=
07761,1997-04-04 09:00:00,16,1009,0.2,68,10,20000,11.112,,,230,,,,,,,,,,,wg-a,,,,AAXX 04094 07761 12/70 72306 10160 20100 30079 40090 53002 60006 80002 90900=
07761,1997-04-04 12:00:00,17,1008,-1,68,11,8000,14.816,,,240,,,,,,,,,,,wg-a,,,,AAXX 04124 07761 12658 72408 10170 20110 30069 40080 56010 60006 81102 91200=
07761,1997-04-04 15:00:00,17,1006.6,-1.4,68,11,15000,14.816,,,230,,,,,,,,,,,wg-a,,,,AAXX 04154 07761 12565 22308 10170 20110 30055 40066 58014 60006 81101 91500=
07761,1997-04-04 18:00:00,14,1008.2,1.6,82,11,18000,7.408,,,210,7.8,17.6,,,,,,,,,wg-a,,,,AAXX 04184 07761 12/68 42104 10140 20110 30071 40082 53016 60006 80001 91800 333 10176 20078=
07761,1997-04-04 21:00:00,10,1009.8,1.6,82,7,18000,14.816,,,60,,,,,,,,,,,wg-a,,,,AAXX 04214 07761 12/68 00608 10100 20070 30087 40098 53016 60006 80000 92100=
07761,1997-04-05 00:00:00,8,1011.1,1.3,81,5,18000,14.816,,,60,,,,,,,,,,,wg-a,,,,AAXX 05004 07761 12/68 00608 10080 20050 30100 40111 51013 60006 80000 90000=
07761,1997-04-05 06:00:00,7,1014.2,1.8,93,6,15000,7.408,,,40,5.9,14.3,,,,,,,,,wg-a,,,,AAXX 05064 07761 02/65 70404 10070 20060 30131 40142 53018 60006 81032 90600 333 10143 20059 60004=
07761,1997-04-05 09:00:00,18,1016,1.8,56,9,12000,7.408,,,230,,,,,,,,,,,wg-a,,,,AAXX 05094 07761 12562 /2304 10180 20090 30149 40160 53018 60006 81100 90900=
07761,1997-04-05 12:00:00,18,1016.7,0.7,64,11,12000,18.52,,,300,,,,,,,,,,,wg-a,,,,AAXX 05124 07761 12562 33010 10180 20110 30156 40167 51007 60006 83200 91200=
07761,1997-04-05 15:00:00,18,1016.5,-0.2,64,11,12000,18.52,,,280,,,,,,,,,,,wg-a,,,,AAXX 05154 07761 12562 32810 10180 20110 30154 40165 58002 60006 83200 91500=
07761,1997-04-05 18:00:00,15,1016.5,-0,72,10,12000,7.408,,,340,7.3,18.8,,,,,,,,,wg-a,,,,AAXX 05184 07761 12562 63404 10150 20100 30154 40165 55000 60006 81405 91800 333 10188 20073=
07761,1997-04-05 21:00:00,11,1016.9,0.4,82,8,11000,7.408,,,50,,,,,,,,,,,wg-a,,,,AAXX 05214 07761 12/61 10504 10110 20080 30158 40169 53004 60006 80002 92100=
07761,1997-04-06 00:00:00,9,1016,-0.9,87,7,11000,7.408,,,40,,,,,,,,,,,wg-a,,,,AAXX 06004 07761 12/61 00404 10090 20070 30149 40160 56009 60006 80000 90000=
07761,1997-04-06 03:00:00,6,1013.5,-2.5,93,5,12000,14.816,,,50,,,,,,,,,,,wg-a,,,,AAXX 06034 07761 12/62 00508 10060 20050 30124 40135 56025 60006 80000 90300=
07761,1997-04-06 06:00:00,8,1012.7,-0.8,81,5,16000,11.112,,,60,5.9,14.8,,,,,,,,,wg-a,,,,AAXX 06064 07761 02566 /0606 10080 20050 30116 40127 55008 60006 81800 90600 333 10148 20059 60004=
07761,1997-04-06 09:00:00,16,1012.1,-0.6,68,10,18000,7.408,,,270,,,,,,,,,,,wg-a,,,,AAXX 06094 07761 12568 /2704 10160 20100 30110 40121 55006 60006 81100 90900=
07761,1997-04-06 12:00:00,18,1011.7,-0.4,64,11,25000,25.928,,,240,,,,,,,,,,,wg-a,,,,AAXX 06124 07761 12575 /2414 10180 20110 30106 40117 56004 60006 81100 91200=
07761,1997-04-06 15:00:00,17,1010.4,-1.3,68,11,25000,18.52,,,220,,,,,,,,,,,wg-a,,,,AAXX 06154 07761 12575 /2210 10170 20110 30093 40104 56013 60006 81100 91500=
07761,1997-04-06 18:00:00,15,1011.1,0.7,77,11,25000,7.408,,,210,7.9,18,,,,,,,,,wg-a,,,,AAXX 06184 07761 12/75 02104 10150 20110 30100 40111 50007 60006 80000 91800 333 10180 20079=
07761,1997-04-06 21:00:00,11,1012.3,1.2,82,8,20000,11.112,,,50,,,,,,,,,,,wg-a,,,,AAXX 06214 07761 12/70 00506 10110 20080 30112 40123 51012 60006 80000 92100=
07761,1997-04-07 00:00:00,9,1013.6,1.3,87,7,18000,14.816,,,50,,,,,,,,,,,wg-a,,,,AAXX 07004 07761 12/68 00508 10090 20070 30125 40136 51013 60006 80000 90000=
07761,1997-04-07 03:00:00,7,1014.5,0.9,93,6,20000,11.112,,,50,,,,,,,,,,,wg-a,,,,AAXX 07034 07761 12/70 00506 10070 20060 30134 40145 53009 60006 80000 90300=
07761,1997-04-07 06:00:00,8,1016.5,2,87,6,20000,11.112,,,50,6.5,14.5,,,,,,,,,wg-a,,,,AAXX 07064 07761 02/70 10506 10080 20060 30154 40165 53020 60006 81030 90600 333 10145 20065 60004=
07761,1997-04-07 09:00:00,17,1017.9,1.4,63,10,20000,11.112,,,210,,,,,,,,,,,wg-a,,,,AAXX 07094 07761 12570 32106 10170 20100 30168 40179 53014 60006 81502 90900=
07761,1997-04-07 12:00:00,19,1018.1,0.2,68,13,20000,18.52,,,180,,,,,,,,,,,wg-a,,,,AAXX 07124 07761 12570 41810 10190 20130 30170 40181 50002 60006 81502 91200=
07761,1997-04-07 15:00:00,20,1018.1,-0,56,11,20000,7.408,,,210,,,,,,,,,,,wg-a,,,,AAXX 07154 07761 12570 /2104 10200 20110 30170 40181 55000 60006 81802 91500=
07761,1997-04-07 18:00:00,16,1019.9,1.8,77,12,15000,11.112,,,180,7.5,20.4,,,,,,,,,wg-a,,,,AAXX 07184 07761 12565 81806 10160 20120 30188 40199 52018 60006 84802 91800 333 10204 20075=
07761,1997-04-07 21:00:00,12,1021.6,1.7,82,9,15000,11.112,,,50,,,,,,,,,,,wg-a,,,,AAXX 07214 07761 12565 /0506 10120 20090 30205 40216 51017 60006 81502 92100=
07761,1997-04-08 00:00:00,7,1023,1.4,87,5,15000,14.816,,,60,,,,,,,,,,,wg-a,,,,AAXX 08004 07761 12/65 00608 10070 20050 30219 40230 53014 60006 80000 90000=
07761,1997-04-08 03:00:00,6,1024.3,1.3,75,2,15000,11.112,,,90,,,,,,,,,,,wg-a,,,,AAXX 08034 07761 12/65 00906 10060 20020 30232 40243 53013 60006 80000 90300=
07761,1997-04-08 06:00:00,7,1026,1.7,61,0,500,3.704,,,90,5.2,15.9,,,,,,,,,wg-a,,,,AAXX 08064 07761 02500 70902 10070 20000 30249 40260 53017 60006 81502 90600 333 10159 20052 60004=
07761,1997-04-08 09:00:00,17,1026.1,0.1,36,2,500,7.408,,,240,,,,,,,,,,,wg-a,,,,AAXX 08094 07761 12600 72404 10170 20020 30250 40261 51001 60006 81102 90900=
07761,1997-04-08 12:00:00,18,1025.8,-0.3,39,4,500,14.816,,,270,,,,,,,,,,,wg-a,,,,AAXX 08124 07761 12700 /2708 10180 20040 30247 40258 58003 60006 81102 91200=
07761,1997-04-08 15:00:00,16,1026,0.2,48,5,20000,18.52,,,250,,,,,,,,,,,wg-a,,,,AAXX 08154 07761 12670 72510 10160 20050 30249 40260 53002 60006 86502 91500=
07761,1997-04-08 18:00:00,14,1027,1,55,5,20000,11.112,,,300,7.3,18.4,,,,,,,,,wg-a,,,,AAXX 08184 07761 12670 73006 10140 20050 30259 40270 52010 60006 86502 91800 333 10184 20073=
07761,1997-04-08 21:00:00,9,1028.2,1.2,76,5,20000,11.112,,,60,,,,,,,,,,,wg-a,,,,AAXX 08214 07761 12/70 00606 10090 20050 30271 40282 51012 60006 80000 92100=
07761,1997-04-09 00:00:00,7,1028.4,0.2,81,4,20000,14.816,,,60,,,,,,,,,,,wg-a,,,,AAXX 09004 07761 12/70 00608 10070 20040 30273 40284 51002 60006 80000 90000=
07761,1997-04-09 03:00:00,5,1028,-0.4,87,3,20000,14.816,,,40,,,,,,,,,,,wg-a,,,,AAXX 09034 07761 12/70 00408 10050 20030 30269 40280 55004 60006 80000 90300=
07761,1997-04-09 06:00:00,6,1029.1,1.1,75,2,11000,11.112,,,40,3.9,13.7,,,,,,,,,wg-a,,,,AAXX 09064 07761 02/61 /0406 10060 20020 30280 40291 52011 60006 90600 333 10137 20039 60004=
07761,1997-04-09 12:00:00,17,1030.2,-0.1,55,8,500,22.224,,,250,,,,,,,,,,,wg-a,,,,AAXX 09124 07761 12500 /2512 10170 20080 30291 40302 58001 60006 81100 91200=
07761,1997-04-09 15:00:00,17,1029.1,-1.1,48,6,500,18.52,,,320,,,,,,,,,,,wg-a,,,,AAXX 09154 07761 12500 /3210 10170 20060 30280 40291 56011 60006 81100 91500=
07761,1997-04-09 18:00:00,14,1029.3,0.2,63,7,11000,11.112,,,320,6,17.8,,,,,,,,,wg-a,,,,AAXX 09184 07761 12/61 /3206 10140 20070 30282 40293 53002 60006 91800 333 10178 20060=
07761,1997-04-09 21:00:00,9,1030.8,1.5,81,6,20000,14.816,,,40,,,,,,,,,,,wg-a,,,,AAXX 09214 07761 12/70 00408 10090 20060 30297 40308 51015 60006 80000 92100=
07761,1997-04-10 00:00:00,6,1031.3,0.5,87,4,20000,11.112,,,50,,,,,,,,,,,wg-a,,,,AAXX 10004 07761 12/70 00506 10060 20040 30302 40313 52005 60006 80000 90000=
07761,1997-04-10 03:00:00,5,1030.2,-1.1,87,3,20000,14.816,,,50,,,,,,,,,,,wg-a,,,,AAXX 10034 07761 12/70 00508 10050 20030 30291 40302 56011 60006 80000 90300=
07761,1997-04-10 06:00:00,6,1030.4,0.2,87,4,20000,14.816,,,40,4.1,13.5,,,,,,,,,wg-a,,,,AAXX 10064 07761 02/70 10408 10060 20040 30293 40304 52002 60006 80001 90600 333 10135 20041 60004=
07761,1997-04-10 09:00:00,15,1029.7,-0.7,67,9,25000,11.112,,,230,,,,,,,,,,,wg-a,,,,AAXX 10094 07761 12575 /2306 10150 20090 30286 40297 56007 60006 81101 90900=
07761,1997-04-10 12:00:00,17,1028.9,-0.8,68,11,500,22.224,,,240,,,,,,,,,,,wg-a,,,,AAXX 10124 07761 12600 /2412 10170 20110 30278 40289 58008 60006 81101 91200=
07761,1997-04-10 15:00:00,16,1027.6,-1.3,63,9,500,22.224,,,220,,,,,,,,,,,wg-a,,,,AAXX 10154 07761 12600 32212 10160 20090 30265 40276 56013 60006 81801 91500=
07761,1997-04-10 18:00:00,14,1027.5,-0.1,67,8,25000,7.408,,,180,6.3,17.3,,,,,,,,,wg-a,,,,AAXX 10184 07761 12775 /1804 10140 20080 30264 40275 56001 60006 81500 91800 333 10173 20063=
07761,1997-04-10 21:00:00,9,1028.5,1,81,6,25000,7.408,,,50,,,,,,,,,,,wg-a,,,,AAXX 10214 07761 12/75 /0504 10090 20060 30274 40285 51010 60006 80000 92100=
07761,1997-04-11 00:00:00,7,1028.2,-0.3,87,5,15000,11.112,,,60,,,,,,,,,,,wg-a,,,,AAXX 11004 07761 12/65 00606 10070 20050 30271 40282 58003 60006 80000 90000=
07761,1997-04-11 03:00:00,5,1026.9,-1.3,93,4,15000,14.816,,,40,,,,,,,,,,,wg-a,,,,AAXX 11034 07761 12/65 00408 10050 20040 30258 40269 57013 60006 80000 90300=
07761,1997-04-11 06:00:00,6,1026.4,-0.5,87,4,20000,11.112,,,40,4.6,14,,,,,,,,,wg-a,,,,AAXX 11064 07761 02470 /0406 10060 20040 30253 40264 56005 60006 81501 90600 333 10140 20046 60004=
07761,1997-04-11 09:00:00,15,1025.6,-0.8,67,9,500,14.816,,,220,,,,,,,,,,,wg-a,,,,AAXX 11094 07761 12500 /2208 10150 20090 30245 40256 58008 60006 81100 90900=
07761,1997-04-11 12:00:00,16,1023.7,-1.9,59,8,40000,22.224,,,240,,,,,,,,,,,wg-a,,,,AAXX 11124 07761 12682 /2412 10160 20080 30226 40237 58019 60006 81200 91200=
07761,1997-04-11 15:00:00,15,1021.2,-2.5,63,8,40000,22.224,,,240,,,,,,,,,,,wg-a,,,,AAXX 11154 07761 12682 /2412 10150 20080 30201 40212 57025 60006 81100 91500=
07761,1997-04-11 18:00:00,13,1018.7,-2.5,67,7,40000,7.408,,,220,6.1,16.2,,,,,,,,,wg-a,,,,AAXX 11184 07761 12582 /2204 10130 20070 30176 40187 58025 60006 81400 91800 333 10162 20061=
07761,1997-04-11 21:00:00,8,1017.5,-1.2,87,6,20000,14.816,,,60,,,,,,,,,,,wg-a,,,,AAXX 11214 07761 12/70 00608 10080 20060 30164 40175 58012 60006 80000 92100=
07761,1997-04-12 00:00:00,9,1015.2,-2.3,76,5,20000,18.52,,,60,,,,,,,,,,,wg-a,,,,AAXX 12004 07761 12570 20610 10090 20050 30141 40152 58023 60006 82500 90000=
07761,1997-04-12 03:00:00,11,1011.2,-4,71,6,15000,14.816,,,50,,,,,,,,,,,wg-a,,,,AAXX 12034 07761 12565 70508 10110 20060 30101 40112 56040 60006 875// 90300=
07761,1997-04-12 06:00:00,11,1008.8,-2.4,71,6,15000,14.816,,,40,7.4,12.6,,,,,,,,,wg-a,,,,AAXX 12064 07761 02665 40408 10110 20060 30077 40088 56024 60006 83571 90600 333 10126 20074 60004=
07761,1997-04-12 09:00:00,18,1009.2,0.4,52,8,20000,11.112,,,270,,,,,,,,,,,wg-a,,,,AAXX 12094 07761 12570 32706 10180 20080 30081 40092 53004 60006 81131 90900=
07761,1997-04-12 12:00:00,19,1009.6,0.4,60,11,15000,25.928,,,260,,,,,,,,,,,wg-a,,,,AAXX 12124 07761 12565 /2614 10190 20110 30085 40096 53004 60006 81800 91200=
07761,1997-04-12 15:00:00,19,1010,0.4,56,10,20000,22.224,,,250,,,,,,,,,,,wg-a,,,,AAXX 12154 07761 12570 22512 10190 20100 30089 40100 51004 60006 82800 91500=
07761,1997-04-12 18:00:00,16,1011.6,1.6,68,10,20000,11.112,,,160,11.4,19.9,,,,,,,,,wg-a,,,,AAXX 12184 07761 12570 21606 10160 20100 30105 40116 51016 60006 82800 91800 333 10199 20114=
07761,1997-04-12 21:00:00,13,1013.8,2.2,77,9,12000,7.408,,,60,,,,,,,,,,,wg-a,,,,AAXX 12214 07761 12462 70604 10130 20090 30127 40138 51022 60006 8253/ 92100=
07761,1997-04-13 00:00:00,12,1015,1.2,76,8,12000,11.112,,,50,,,,,,,,,,,wg-a,,,,AAXX 13004 07761 12562 /0506 10120 20080 30139 40150 51012 60006 84530 90000=
07761,1997-04-13 03:00:00,11,1015.2,0.2,82,8,12000,14.816,,,50,,,,,,,,,,,wg-a,,,,AAXX 13034 07761 12462 /0508 10110 20080 30141 40152 53002 60006 82830 90300=
07761,1997-04-13 06:00:00,12,1016.6,1.4,76,8,12000,11.112,,,30,10.3,15.8,,,,,,,,,wg-a,,,,AAXX 13064 07761 02562 /0306 10120 20080 30155 40166 53014 60006 85830 90600 333 10158 20103 60004=
07761,1997-04-13 09:00:00,18,1017.7,1.1,56,9,20000,11.112,,,240,,,,,,,,,,,wg-a,,,,AAXX 13094 07761 12670 52406 10180 20090 30166 40177 53011 60006 82830 90900=
07761,1997-04-13 12:00:00,18,1017.7,0,56,9,25000,18.52,,,240,,,,,,,,,,,wg-a,,,,AAXX 13124 07761 12575 72410 10180 20090 30166 40177 50000 60006 82272 91200=
07761,1997-04-13 15:00:00,19,1017,-0.7,34,3,25000,14.816,,,260,,,,,,,,,,,wg-a,,,,AAXX 13154 07761 12575 32608 10190 20030 30159 40170 58007 60006 81172 91500=
07761,1997-04-13 18:00:00,16,1017.3,0.3,59,8,25000,7.408,,,260,11.6,19.4,,,,,,,,,wg-a,,,,AAXX 13184 07761 12875 /2604 10160 20080 30162 40173 53003 60006 81072 91800 333 10194 20116=
07761,1997-04-13 21:00:00,9,1018.7,1.4,57,1,25000,14.816,,,40,,,,,,,,,,,wg-a,,,,AAXX 13214 07761 12875 /0408 10090 20010 30176 40187 51014 60006 81072 92100=
07761,1997-04-14 00:00:00,8,1018.6,-0.1,57,0,20000,14.816,,,40,,,,,,,,,,,wg-a,,,,AAXX 14004 07761 12570 40408 10080 20000 30175 40186 58001 60006 83572 90000=
07761,1997-04-14 06:00:00,10,1019.6,0.5,71,5,25000,14.816,,,50,7.5,15.5,,,,,1,,,2,wg-a,,,,AAXX 14064 07761 02775 70508 10100 20050 30185 40196 53005 60006 70286 81571 90600 333 10155 20075 60014=
07761,1997-04-14 09:00:00,17,1019.8,0.2,48,6,25000,7.408,,,250,,,,,,,,,,,wg-a,,,,AAXX 14094 07761 12775 /2504 10170 20060 30187 40198 53002 60006 81130 90900=
07761,1997-04-14 12:00:00,18,1019.5,-0.3,64,11,25000,22.224,,,220,,,,,,,,,,,wg-a,,,,AAXX 14124 07761 12675 32212 10180 20110 30184 40195 58003 60006 81239 91200=
07761,1997-04-14 15:00:00,18,1018.5,-1,59,10,15000,18.52,,,230,,,,,,,,,,,wg-a,,,,AAXX 14154 07761 12665 22310 10180 20100 30174 40185 57010 60006 81330 91500=
07761,1997-04-14 18:00:00,15,1019.2,0.7,72,10,15000,11.112,,,220,9.8,18,,,,,,,,,wg-a,,,,AAXX 14184 07761 12665 22206 10150 20100 30181 40192 52007 60006 82470 91800 333 10180 20098=
07761,1997-04-14 21:00:00,11,1020,0.8,82,8,15000,11.112,,,60,,,,,,,,,,,wg-a,,,,AAXX 14214 07761 12/65 00606 10110 20080 30189 40200 50008 60006 80000 92100=
07761,1997-04-15 00:00:00,9,1019.7,-0.3,81,6,15000,7.408,,,60,,,,,,,,,,,wg-a,,,,AAXX 15004 07761 12/65 00604 10090 20060 30186 40197 55003 60006 80000 90000=
07761,1997-04-15 03:00:00,8,1018.9,-0.8,81,5,15000,14.816,,,40,,,,,,,,,,,wg-a,,,,AAXX 15034 07761 12/65 00408 10080 20050 30178 40189 56008 60006 80000 90300=
07761,1997-04-15 06:00:00,8,1018.7,-0.2,87,6,15000,11.112,,,40,6.7,15.1,,,,,,,,,wg-a,,,,AAXX 15064 07761 02/65 00406 10080 20060 30176 40187 55002 60006 80000 90600 333 10151 20067 60004=
07761,1997-04-15 09:00:00,16,1018,-0.7,68,10,20000,11.112,,,210,,,,,,,,,,,wg-a,,,,AAXX 15094 07761 12570 /2106 10160 20100 30169 40180 56007 60006 81200 90900=
07761,1997-04-15 10:00:00,15,1014.4,-0.5,72,10,20000,11.112,,,210,8.1,18,,,,,,,,,wg-a,,,,AAXX 15104 07761 12670 /2106 10150 20100 30133 40144 56005 60006 81800 91000 333 10180 20081=
07761,1997-04-15 12:00:00,18,1016.6,-1.4,64,11,25000,22.224,,,230,,,,,,,,,,,wg-a,,,,AAXX 15124 07761 12675 22312 10180 20110 30155 40166 58014 60006 82200 91200=
07761,1997-04-15 15:00:00,17,1014.9,-1.7,59,9,25000,18.52,,,230,,,,,,,,,,,wg-a,,,,AAXX 15154 07761 12675 /2310 10170 20090 30138 40149 58017 60006 81200 91500=
07761,1997-04-15 18:00:00,15,1014.4,-0.5,72,10,20000,11.112,,,210,8.1,18,,,,,,,,,wg-a,,,,AAXX 15184 07761 12670 /2106 10150 20100 30133 40144 56005 60006 81800 91800 333 10180 20081=
07761,1997-04-15 21:00:00,12,1014.8,0.4,71,7,20000,14.816,,,60,,,,,,,,,,,wg-a,,,,AAXX 15214 07761 12/70 00608 10120 20070 30137 40148 50004 60006 80000 92100=
07761,1997-04-16 00:00:00,9,1013.2,-1.6,81,6,20000,14.816,,,50,,,,,,,,,,,wg-a,,,,AAXX 16004 07761 12/70 00508 10090 20060 30121 40132 56016 60006 80000 90000=
07761,1997-04-16 03:00:00,7,1011.8,-1.4,81,4,20000,11.112,,,50,,,,,,,,,,,wg-a,,,,AAXX 16034 07761 12/70 00506 10070 20040 30107 40118 56014 60006 80000 90300=
07761,1997-04-16 06:00:00,8,1012,0.2,76,4,25000,14.816,,,50,6.7,14.6,,,,,,,,,wg-a,,,,AAXX 16064 07761 02575 /0508 10080 20040 30109 40120 53002 60006 81100 90600 333 10146 20067 60004=
07761,1997-04-16 09:00:00,18,1011.5,-0.5,52,8,25000,14.816,,,250,,,,,,,,,,,wg-a,,,,AAXX 16094 07761 12575 22508 10180 20080 30104 40115 55005 60006 81101 90900=
07761,1997-04-16 12:00:00,19,1010.6,-0.9,52,9,25000,18.52,,,280,,,,,,,,,,,wg-a,,,,AAXX 16124 07761 12675 32810 10190 20090 30095 40106 58009 60006 82102 91200=
07761,1997-04-16 15:00:00,19,1009.4,-1.2,56,10,20000,18.52,,,310,,,,,,,,,,,wg-a,,,,AAXX 16154 07761 12670 33110 10190 20100 30083 40094 58012 60006 82202 91500=
07761,1997-04-16 18:00:00,16,1009.5,0.1,68,10,20000,11.112,,,320,8.5,20,,,,,,,,,wg-a,,,,AAXX 16184 07761 12570 23206 10160 20100 30084 40095 52001 60006 82801 91800 333 10200 20085=
07761,1997-04-16 21:00:00,11,1010.9,1.4,82,8,20000,11.112,,,50,,,,,,,,,,,wg-a,,,,AAXX 16214 07761 12770 30506 10110 20080 30098 40109 51014 60006 835/1 92100=
07761,1997-04-17 00:00:00,13,1010.9,-0,67,7,20000,7.408,,,40,,,,,,,,,,,wg-a,,,,AAXX 17004 07761 12670 80404 10130 20070 30098 40109 55000 60006 8353/ 90000=
07761,1997-04-17 03:00:00,10,1010.5,-0.4,82,7,20000,22.224,,,30,,,,1,,,,,,60,wg-a,,,,AAXX 17034 07761 12670 80312 10100 20070 30094 40105 56004 60017 76062 8553/ 90300=
07761,1997-04-17 06:00:00,10,1010.6,0.1,66,4,25000,14.816,,,40,9.2,15.4,,,,,1,,,3,wg-a,,,,AAXX 17064 07761 02775 70408 10100 20040 30095 40106 50001 60006 70362 8653/ 90600 333 10154 20092 60014=
07761,1997-04-17 09:00:00,13,1011.8,1.2,51,3,20000,22.224,,,30,,,,,,,,,,,wg-a,,,,AAXX 17094 07761 12670 70312 10130 20030 30107 40118 53012 60006 8553/ 90900=
07761,1997-04-17 12:00:00,12,1012.5,0.7,54,3,15000,31.484,,,30,,,,,,,,,,21,wg-a,,,,AAXX 17124 07761 02665 70317 10120 20030 30114 40125 51007 61000 72162 8553/ 91200 333 6100=
07761,1997-04-17 15:00:00,10,1013.3,0.8,71,5,15000,18.52,,,30,,,,1,,,,,,60,wg-a,,,,AAXX 17154 07761 12565 70310 10100 20050 30122 40133 53008 60017 76062 8583/ 91500=
07761,1997-04-17 18:00:00,11,1014.2,0.9,71,6,15000,3.704,,,320,10,13.5,,,,,,,,21,wg-a,,,,AAXX 17184 07761 02665 73202 10110 20060 30131 40142 51009 61000 72162 8553/ 91800 333 10135 20100 6000=
07761,1997-04-17 21:00:00,8,1015.4,1.2,87,6,15000,7.408,,,50,,,,,,,,,,,wg-a,,,,AAXX 17214 07761 12765 70504 10080 20060 30143 40154 51012 60006 8357/ 92100=
07761,1997-04-18 00:00:00,8,1016.3,0.9,81,5,0,14.816,,,60,,,,,,,,,,,wg-a,,,,AAXX 18004 07761 12/// /0608 10080 20050 30152 40163 51009 60006 90000=
07761,1997-04-18 03:00:00,8,1015.6,,71,3,12000,11.112,,,50,,,,,,,,,,,wg-a,,,,AAXX 18034 07761 32762 70506 10080 20030 30145 40156 8457/ 90300=
07761,1997-04-18 06:00:00,9,1015.9,,66,3,25000,11.112,,,40,7.1,10.8,,,,,,,,,wg-a,,,,AAXX 18064 07761 12775 /0406 10090 20030 30148 40159 60006 81571 90600 333 10108 20071=
07761,1997-04-18 09:00:00,16,1015.4,-0.5,36,1,500,11.112,,,260,,,,,,,,,,,wg-a,,,,AAXX 18094 07761 12700 /2606 10160 20010 30143 40154 58005 60006 81132 90900=
07761,1997-04-18 12:00:00,16,1014.9,-0.5,36,1,500,18.52,,,310,,,,,,,,,,,wg-a,,,,AAXX 18124 07761 12700 73110 10160 20010 30138 40149 56005 60006 83871 91200=
07761,1997-04-18 18:00:00,14,1013,-0.3,55,5,25000,7.408,,,340,8.7,17.4,,,,,,,,,wg-a,,,,AAXX 18184 07761 12775 /3404 10140 20050 30119 40130 58003 60006 81532 91800 333 10174 20087=
07761,1997-04-18 21:00:00,11,1013.6,0.6,71,6,20000,11.112,,,70,,,,,,,,,,,wg-a,,,,AAXX 18214 07761 12770 70706 10110 20060 30125 40136 50006 60006 81538 92100=
07761,1997-04-19 00:00:00,8,1013,-0.6,76,4,20000,14.816,,,50,,,,,,,,,,,wg-a,,,,AAXX 19004 07761 12/70 30508 10080 20040 30119 40130 57006 60006 81032 90000=
07761,1997-04-19 03:00:00,6,1011.4,-1.6,81,3,20000,11.112,,,40,,,,,,,,,,,wg-a,,,,AAXX 19034 07761 12570 /0406 10060 20030 30103 40114 56016 60006 81500 90300=
07761,1997-04-19 06:00:00,7,1011.2,-0.2,81,4,25000,14.816,,,50,4.6,13.6,,,,,1,,,,wg-a,,,,AAXX 19064 07761 02575 40508 10070 20040 30101 40112 56002 60006 81532 90600 333 10136 20046 60014=
07761,1997-04-19 09:00:00,15,1011,-0.2,55,6,35000,14.816,,,230,,,,,,,,,,,wg-a,,,,AAXX 19094 07761 12681 52308 10150 20060 30099 40110 57002 60006 81132 90900=
07761,1997-04-19 12:00:00,17,1010.2,-0.8,55,8,35000,22.224,,,240,,,,,,,,,,,wg-a,,,,AAXX 19124 07761 12681 72412 10170 20080 30091 40102 58008 60006 82202 91200=
07761,1997-04-19 15:00:00,17,1008.7,-1.5,52,7,35000,14.816,,,200,,,,,,,,,,,wg-a,,,,AAXX 19154 07761 12681 /2008 10170 20070 30076 40087 58015 60006 81232 91500=
07761,1997-04-19 18:00:00,15,1007.7,-1,63,8,35000,11.112,,,200,6.9,17.7,,,,,,,,,wg-a,,,,AAXX 19184 07761 12681 42006 10150 20080 30066 40077 56010 60006 81232 91800 333 10177 20069=
07761,1997-04-19 21:00:00,11,1008.4,0.7,82,8,20000,11.112,,,40,,,,,,,,,,,wg-a,,,,AAXX 19214 07761 12/70 /0406 10110 20080 30073 40084 50007 60006 86070 92100=
07761,1997-04-20 00:00:00,10,1008.5,0.1,87,8,15000,11.112,,,60,,,,,,,,,,,wg-a,,,,AAXX 20004 07761 12/65 70606 10100 20080 30074 40085 50001 60006 8707/ 90000=
07761,1997-04-20 03:00:00,11,1005.9,-2.6,82,8,15000,7.408,,,50,,,,,,,,,,,wg-a,,,,AAXX 20034 07761 12/65 80504 10110 20080 30048 40059 58026 60006 8807/ 90300=
07761,1997-04-20 06:00:00,12,1005.1,-0.8,82,9,15000,11.112,,,50,9.4,14.6,,,,,,,,,wg-a,,,,AAXX 20064 07761 02565 80506 10120 20090 30040 40051 58008 60006 885// 90600 333 10146 20094 60004=
07761,1997-04-20 09:00:00,15,1004.5,-0.6,67,9,10000,3.704,,,320,,,,,,,,,,,wg-a,,,,AAXX 20094 07761 12560 83202 10150 20090 30034 40045 56006 60006 8753/ 90900=
07761,1997-04-20 12:00:00,15,1003.3,-1.2,88,13,9000,18.52,,,220,,,,1,,,,,,21,wg-a,,,,AAXX 20124 07761 02459 72210 10150 20130 30022 40033 58012 60016 72165 8553/ 91200 333 60017=
07761,1997-04-20 15:00:00,16,1001.5,-1.8,82,13,12000,14.816,,,230,,,,,,,,,,,wg-a,,,,AAXX 20154 07761 12562 72308 10160 20130 30004 40015 58018 60006 8453/ 91500=
07761,1997-04-20 18:00:00,15,1000.7,-0.8,88,13,500,7.408,,,210,12,16.6,,,,,,,,,wg-a,,,,AAXX 20184 07761 12400 72104 10150 20130 39996 40007 56008 60006 8553/ 91800 333 10166 20120=
07761,1997-04-20 21:00:00,13,1000,-0.7,94,12,8000,3.704,,,320,,,,,,,,,,,wg-a,,,,AAXX 20214 07761 12458 /3202 10130 20120 39989 40000 58007 60006 83532 92100=
07761,1997-04-21 00:00:00,12,997.8,-2.2,88,10,12000,3.704,,,40,,,,,,,,,,,wg-a,,,,AAXX 21004 07761 12662 80402 10120 20100 39967 49978 56022 60006 8157/ 90000=
07761,1997-04-21 03:00:00,12,995,-2.8,94,11,10000,14.816,,,60,,,,1,,,,,,61,wg-a,,,,AAXX 21034 07761 12560 80608 10120 20110 39939 49950 58028 60017 76162 8587/ 90300=
07761,1997-04-21 06:00:00,13,991.2,-3.8,94,12,15000,3.704,,,90,11.3,14.9,,,,,,,,60,wg-a,,,,AAXX 21064 07761 02565 80902 10130 20120 39901 49912 56038 61000 76062 8587/ 90600 333 10149 20113 6003=
07761,1997-04-21 09:00:00,14,991.4,0.2,94,13,8000,7.408,,,210,,,,2,,,,,,61,wg-a,,,,AAXX 21094 07761 12458 82104 10140 20130 39903 49914 53002 60027 76162 8687/ 90900=
07761,1997-04-21 12:00:00,11,990.2,-1.2,82,8,12000,25.928,,,20,,,,4,,,,,,61,wg-a,,,,AAXX 21124 07761 02462 80214 10110 20080 39891 49902 58012 60066 76162 8587/ 91200 333 60047=
07761,1997-04-21 15:00:00,10,989.5,-0.7,82,7,11000,31.484,,,30,,,,,,,,,,,wg-a,,,,AAXX 21154 07761 32/61 /0317 10100 20070 39884 49895 58007 91500=
07761,1997-04-21 18:00:00,10,990.1,0.6,76,6,17000,18.52,,,30,9.9,14.7,,,,,,,,60,wg-a,,,,AAXX 21184 07761 02467 70310 10100 20060 39890 49901 53006 61000 76066 8587/ 91800 333 10147 20099 6001=
07761,1997-04-22 00:00:00,9,994.9,1.3,87,7,15000,7.408,,,70,,,,1,,,,,,1,wg-a,,,,AAXX 22004 07761 02465 /0704 10090 20070 39938 49949 51013 60036 70165 86530 90000 333 60017=
07761,1997-04-22 03:00:00,8,995.6,0.7,93,7,15000,7.408,,,80,,,,,,,,,,,wg-a,,,,AAXX 22034 07761 12765 60804 10080 20070 39945 49956 53007 60006 85530 90300=
07761,1997-04-22 06:00:00,7,997.7,2.1,93,6,20000,11.112,,,50,5.8,10.5,,,,,13,,,,wg-a,,,,AAXX 22064 07761 02770 /0506 10070 20060 39966 49977 53021 60006 81830 90600 333 10105 20058 60134=
07761,1997-04-22 09:00:00,15,999.3,1.6,41,2,20000,22.224,,,310,,,,,,,,,,,wg-a,,,,AAXX 22094 07761 12670 /3112 10150 20020 39982 49993 52016 60006 81800 90900=
07761,1997-04-22 12:00:00,16,1000.1,0.8,45,4,11000,25.928,,,290,,,,,,,,,,,wg-a,,,,AAXX 22124 07761 12/61 /2914 10160 20040 39990 40001 52008 60006 91200=
07761,1997-04-22 15:00:00,16,1001.1,1,45,4,15000,29.632,,50.004,300,,,,,,,,,,,wg-a,,,,AAXX 22154 07761 12765 /3016 10160 20040 30000 40011 53010 60006 81230 91500 333 91027=
07761,1997-04-22 18:00:00,13,1003.5,2.4,58,5,15000,7.408,,50.004,310,7.1,16.5,,,,,,,,,wg-a,,,,AAXX 22184 07761 12665 /3104 10130 20050 30024 40035 51024 60006 81400 91800 333 10165 20071 91027=
07761,1997-04-22 21:00:00,9,1006.9,3.4,76,5,10000,14.816,,,50,,,,,,,,,,,wg-a,,,,AAXX 22214 07761 12/60 /0508 10090 20050 30058 40069 51034 60006 92100=
07761,1997-04-23 00:00:00,7,1009,2.1,81,4,20000,14.816,,,50,,,,,,,,,,,wg-a,,,,AAXX 23004 07761 12/70 00508 10070 20040 30079 40090 51021 60006 80000 90000=
07761,1997-04-23 03:00:00,5,1010.3,1.3,87,3,10000,11.112,,,40,,,,,,,,,,,wg-a,,,,AAXX 23034 07761 12/60 /0406 10050 20030 30092 40103 53013 60006 90300=
07761,1997-04-23 06:00:00,7,1012.4,2.1,76,3,25000,14.816,,,50,4.1,13.2,,,,,,,,,wg-a,,,,AAXX 23064 07761 02675 10508 10070 20030 30113 40124 53021 60006 81100 90600 333 10132 20041 60004=
07761,1997-04-23 09:00:00,16,1014.2,1.8,51,6,25000,14.816,,,220,,,,,,,,,,,wg-a,,,,AAXX 23094 07761 12675 22208 10160 20060 30131 40142 52018 60006 82100 90900=
07761,1997-04-23 12:00:00,15,1015.2,1,63,8,25000,25.928,,,240,,,,,,,,,,,wg-a,,,,AAXX 23124 07761 12575 52414 10150 20080 30141 40152 51010 60006 85200 91200=
07761,1997-04-23 15:00:00,14,1016.3,1.1,63,7,25000,25.928,,,240,,,,,,,,,,,wg-a,,,,AAXX 23154 07761 12675 /2414 10140 20070 30152 40163 53011 60006 86200 91500=
07761,1997-04-23 18:00:00,14,1017.8,1.5,55,5,20000,7.408,,,320,6.5,17.2,,,,,,,,,wg-a,,,,AAXX 23184 07761 12670 33204 10140 20050 30167 40178 52015 60006 83500 91800 333 10172 20065=
07761,1997-04-23 21:00:00,8,1020.3,2.5,81,5,20000,11.112,,,70,,,,,,,,,,,wg-a,,,,AAXX 23214 07761 12/70 00706 10080 20050 30192 40203 51025 60006 80000 92100=
07761,1997-04-24 00:00:00,6,1020.9,0.6,87,4,15000,18.52,,,50,,,,,,,,,,,wg-a,,,,AAXX 24004 07761 12/65 00510 10060 20040 30198 40209 51006 60006 80000 90000=
07761,1997-04-24 06:00:00,6,1023.3,1.9,75,2,20000,14.816,,,30,4,13.5,,,,,,,,,wg-a,,,,AAXX 24064 07761 02/70 00308 10060 20020 30222 40233 53019 60006 80000 90600 333 10135 20040 60004=
07761,1997-04-24 09:00:00,15,1024.3,1,48,4,20000,11.112,,,220,,,,,,,,,,,wg-a,,,,AAXX 24094 07761 12570 /2206 10150 20040 30232 40243 51010 60006 81100 90900=
07761,1997-04-24 12:00:00,16,1023.9,-0.4,51,6,20000,25.928,,,230,,,,,,,,,,,wg-a,,,,AAXX 24124 07761 12570 /2314 10160 20060 30228 40239 58004 60006 81100 91200=
07761,1997-04-24 15:00:00,18,1023.5,-0.4,34,2,20000,14.816,,,310,,,,,,,,,,,wg-a,,,,AAXX 24154 07761 12670 43108 10180 20020 30224 40235 58004 60006 83101 91500=
07761,1997-04-24 18:00:00,15,1023.2,-0.3,48,4,20000,11.112,,,310,6.3,17.8,,,,,,,,,wg-a,,,,AAXX 24184 07761 12670 63106 10150 20040 30221 40232 56003 60006 82441 91800 333 10178 20063=
07761,1997-04-24 21:00:00,10,1024.4,1.2,76,6,20000,11.112,,,40,,,,,,,,,,,wg-a,,,,AAXX 24214 07761 12670 /0406 10100 20060 30233 40244 51012 60006 81501 92100=
07761,1997-04-25 00:00:00,7,1023.9,-0.5,81,4,20000,11.112,,,50,,,,,,,,,,,wg-a,,,,AAXX 25004 07761 12/70 00506 10070 20040 30228 40239 58005 60006 80000 90000=
07761,1997-04-25 03:00:00,6,1023.4,-0.5,87,4,20000,11.112,,,50,,,,,,,,,,,wg-a,,,,AAXX 25034 07761 12/70 00506 10060 20040 30223 40234 56005 60006 80000 90300=
07761,1997-04-25 06:00:00,8,1024.1,0.7,81,5,25000,11.112,,,50,4.5,14.9,,,,,,,,,wg-a,,,,AAXX 25064 07761 02/75 00506 10080 20050 30230 40241 53007 60006 80000 90600 333 10149 20045 60004=
07761,1997-04-25 09:00:00,16,1024.4,0.3,55,7,25000,14.816,,,220,,,,,,,,,,,wg-a,,,,AAXX 25094 07761 12675 12208 10160 20070 30233 40244 53003 60006 81100 90900=
07761,1997-04-25 12:00:00,17,1023.6,-0.8,68,11,25000,29.632,,,230,,,,,,,,,,,wg-a,,,,AAXX 25124 07761 12675 /2316 10170 20110 30225 40236 58008 60006 81100 91200=
07761,1997-04-25 15:00:00,18,1022.5,-1.1,56,9,25000,22.224,,,240,,,,,,,,,,,wg-a,,,,AAXX 25154 07761 12675 /2412 10180 20090 30214 40225 56011 60006 81800 91500=
07761,1997-04-25 18:00:00,15,1022.4,-0.1,55,6,25000,11.112,,,330,7.6,18.2,,,,,,,,,wg-a,,,,AAXX 25184 07761 12675 /3306 10150 20060 30213 40224 56001 60006 81800 91800 333 10182 20076=
07761,1997-04-25 21:00:00,10,1023.9,1.5,71,5,25000,14.816,,,50,,,,,,,,,,,wg-a,,,,AAXX 25214 07761 12/75 00508 10100 20050 30228 40239 51015 60006 80000 92100=
07761,1997-04-26 00:00:00,6,1023.3,-0.6,81,3,25000,11.112,,,50,,,,,,,,,,,wg-a,,,,AAXX 26004 07761 12/75 20506 10060 20030 30222 40233 58006 60006 80002 90000=
07761,1997-04-26 03:00:00,6,1022.2,-1.1,81,3,25000,11.112,,,60,,,,,,,,,,,wg-a,,,,AAXX 26034 07761 12/75 50606 10060 20030 30211 40222 56011 60006 80002 90300=
07761,1997-04-26 06:00:00,8,1022.3,0.1,71,3,25000,14.816,,,50,4.4,15.4,,,,,,,,,wg-a,,,,AAXX 26064 07761 02/75 /0508 10080 20030 30212 40223 53001 60006 81042 90600 333 10154 20044 60004=
07761,1997-04-26 12:00:00,16,1021.4,-0.6,72,11,20000,7.408,,,210,,,,,,,,,,,wg-a,,,,AAXX 26124 07761 12570 82104 10160 20110 30203 40214 56006 60006 878// 91200=
07761,1997-04-26 15:00:00,16,1020.1,-1.3,82,13,20000,11.112,,,220,,,,,,,,,,,wg-a,,,,AAXX 26154 07761 12470 82206 10160 20130 30190 40201 58013 60006 878// 91500=
07761,1997-04-26 18:00:00,15,1019.5,-0.6,82,12,20000,0,,,0,8.1,16.8,,,,,,,,,wg-a,,,,AAXX 26184 07761 12570 70000 10150 20120 30184 40195 55006 60006 85831 91800 333 10168 20081=
07761,1997-04-26 21:00:00,13,1019.9,0.4,94,12,15000,7.408,,,80,,,,,,,,,,,wg-a,,,,AAXX 26214 07761 12565 80804 10130 20120 30188 40199 50004 60006 8683/ 92100=
07761,1997-04-27 00:00:00,12,1018.5,-1.4,88,10,15000,7.408,,,40,,,,,,,,,,,wg-a,,,,AAXX 27004 07761 12565 70404 10120 20100 30174 40185 58014 60006 8153/ 90000=
07761,1997-04-27 06:00:00,12,1016.1,-0.3,88,10,20000,11.112,,,50,11.2,15.4,,,,,,,,61,wg-a,,,,AAXX 27064 07761 02670 70506 10120 20100 30150 40161 55003 61000 76162 8457/ 90600 333 10154 20112 6100=
07761,1997-04-27 09:00:00,15,1013.1,-3,94,14,2000,42.596,,,210,,,,12,,,,,,63,wg-a,,,,AAXX 27094 07761 12220 82123 10150 20140 30120 40131 56030 60127 76366 875// 90900=
07761,1997-04-27 12:00:00,15,1012.7,-0.4,94,14,15000,3.704,,,40,,,,3,,,,,,21,wg-a,,,,AAXX 27124 07761 02265 70402 10150 20140 30116 40127 58004 60146 72162 8553/ 91200 333 60037=
07761,1997-04-27 18:00:00,15,1012.1,0.2,82,12,25000,11.112,,,230,12,18.4,,,,,,,,,wg-a,,,,AAXX 27184 07761 12575 52306 10150 20120 30110 40121 51002 60006 85532 91800 333 10184 20120=
07761,1997-04-27 21:00:00,13,1012.7,0.6,88,11,25000,11.112,,,50,,,,,,,,,,,wg-a,,,,AAXX 27214 07761 12475 /0506 10130 20110 30116 40127 53006 60006 85502 92100=
07761,1997-04-28 00:00:00,10,1012,-0.7,93,9,25000,11.112,,,60,,,,,,,,,,,wg-a,,,,AAXX 28004 07761 12575 /0606 10100 20090 30109 40120 56007 60006 81500 90000=
07761,1997-04-28 03:00:00,9,1011.7,-0.3,93,8,25000,14.816,,,40,,,,,,,,,,,wg-a,,,,AAXX 28034 07761 12575 /0408 10090 20080 30106 40117 55003 60006 81500 90300=
07761,1997-04-28 06:00:00,11,1013.1,1.4,87,9,25000,11.112,,,50,8.1,15.2,,,,,14,,,,wg-a,,,,AAXX 28064 07761 02575 /0506 10110 20090 30120 40131 53014 60006 81501 90600 333 10152 20081 60144=
07761,1997-04-28 12:00:00,20,1014.3,-0.3,60,12,500,22.224,,,180,,,,,,,,,,,wg-a,,,,AAXX 28124 07761 12600 /1812 10200 20120 30132 40143 58003 60006 81100 91200=
07761,1997-04-28 15:00:00,20,1014,-0.3,46,8,500,14.816,,,340,,,,,,,,,,,wg-a,,,,AAXX 28154 07761 12600 33408 10200 20080 30129 40140 58003 60006 81202 91500=
07761,1997-04-28 18:00:00,17,1015.3,1.3,52,7,500,11.112,,,340,11.2,21.1,,,,,,,,,wg-a,,,,AAXX 28184 07761 12500 73406 10170 20070 30142 40153 51013 60006 81522 91800 333 10211 20112=
07761,1997-04-28 21:00:00,13,1015.7,0.4,77,9,500,11.112,,,50,,,,,,,,,,,wg-a,,,,AAXX 28214 07761 12500 /0506 10130 20090 30146 40157 50004 60006 81532 92100=
07761,1997-04-29 03:00:00,13,1011.1,-2.9,77,9,15000,7.408,,,60,,,,,,,,,,,wg-a,,,,AAXX 29034 07761 12465 70604 10130 20090 30100 40111 56029 60006 875// 90300=
07761,1997-04-29 06:00:00,14,1009.5,-1.6,77,10,15000,7.408,,,50,12.2,17.3,,,,,,,,,wg-a,,,,AAXX 29064 07761 02565 /0504 10140 20100 30084 40095 56016 60006 86500 90600 333 10173 20122 60004=
07761,1997-04-29 12:00:00,18,1006.7,-2,64,11,15000,22.224,,,240,,,,,,,,,,,wg-a,,,,AAXX 29124 07761 12565 42412 10180 20110 30056 40067 56020 60006 84800 91200=
07761,1997-04-29 15:00:00,20,1006.6,0,60,12,25000,18.52,,,290,,,,,,,,,,,wg-a,,,,AAXX 29154 07761 12575 /2910 10200 20120 30056 40066 50000 60006 81200 91500=
07761,1997-04-29 18:00:00,16,1009,2.3,88,14,15000,18.52,,,200,13.7,20.3,,,,,,,,,wg-a,,,,AAXX 29184 07761 12565 /2010 10160 20140 30079 40090 52023 60006 81800 91800 333 10203 20137=
07761,1997-04-29 21:00:00,14,1010.5,1.5,88,12,15000,11.112,,,50,,,,,,,,,,,wg-a,,,,AAXX 29214 07761 12465 20506 10140 20120 30094 40105 50015 60006 81530 92100=
07761,1997-04-30 00:00:00,12,1009.9,-0.6,94,11,15000,7.408,,,50,,,,,,,,,,,wg-a,,,,AAXX 30004 07761 12465 /0504 10120 20110 30088 40099 58006 60006 81500 90000=
07761,1997-04-30 03:00:00,10,1008.8,-1.1,93,9,15000,11.112,,,40,,,,,,,,,,,wg-a,,,,AAXX 30034 07761 12565 30406 10100 20090 30077 40088 56011 60006 81530 90300=
07761,1997-04-30 06:00:00,11,1010.2,1.4,87,9,18000,11.112,,,50,9.1,16,,,,,,,,,wg-a,,,,AAXX 30064 07761 02568 40506 10110 20090 30091 40102 53014 60006 82131 90600 333 10160 20091 60004=
07761,1997-04-30 09:00:00,17,1011.4,1.2,77,13,17000,11.112,,,240,,,,,,,,,,,wg-a,,,,AAXX 30094 07761 12567 42406 10170 20130 30103 40114 51012 60006 82841 90900=
07761,1997-04-30 12:00:00,18,1011.9,0.5,77,14,15000,18.52,,,210,,,,,,,,,,17,wg-a,,,,AAXX 30124 07761 02565 72110 10180 20140 30108 40119 53005 61000 71798 86941 91200 333 6100=
07761,1997-04-30 15:00:00,17,1012.1,0.2,82,14,18000,18.52,,,250,,,,,,,,,,25,wg-a,,,,AAXX 30154 07761 02668 52510 10170 20140 30110 40121 52002 61000 72598 83941 91500 333 ////=
07761,1997-04-30 18:00:00,17,1013.9,1.8,82,14,18000,14.816,,,260,10.9,18.9,,,,,,,,1,wg-a,,,,AAXX 30184 07761 12668 22608 10170 20140 30128 40139 52018 60006 70198 81143 91800 333 10189 20109=
07761,1997-04-30 21:00:00,12,1016.6,2.7,88,10,18000,11.112,,,40,,,,,,,,,,,wg-a,,,,AAXX 30214 07761 12/68 10406 10120 20100 30155 40166 51027 60006 81030 92100=
07761,1997-05-01 00:00:00,11,1017.2,0.6,87,9,15000,14.816,,,50,,,,,,,,,,,wg-a,,,,AAXX 01004 07761 12/65 00508 10110 20090 30161 40172 50006 60006 80000 90000=
07761,1997-05-01 03:00:00,9,1017.6,0.4,87,7,15000,11.112,,,50,,,,,,,,,,,wg-a,,,,AAXX 01034 07761 12/65 00506 10090 20070 30165 40176 53004 60006 80000 90300=
07761,1997-05-01 06:00:00,11,1018.5,0.9,82,8,500,14.816,,,40,8.1,16.6,,,,,,,,,wg-a,,,,AAXX 01064 07761 02600 /0408 10110 20080 30174 40185 51009 60006 81140 90600 333 10166 20081 61000=
07761,1997-05-01 09:00:00,19,1019.2,0.7,60,11,40000,7.408,,,260,,,,,,,,,,,wg-a,,,,AAXX 01094 07761 12682 32604 10190 20110 30181 40192 52007 60006 81291 90900=
07761,1997-05-01 12:00:00,20,1019.9,0.7,64,13,40000,22.224,,,190,,,,,,,,,,,wg-a,,,,AAXX 01124 07761 12682 31912 10200 20130 30188 40199 53007 60006 83201 91200=
07761,1997-05-01 15:00:00,19,1019.6,-0.3,60,11,40000,14.816,,,200,,,,,,,,,,1,wg-a,,,,AAXX 01154 07761 12682 22008 10190 20110 30185 40196 58003 60006 70190 82900 91500=
07761,1997-05-01 18:00:00,18,1020.7,1.1,64,11,40000,3.704,,,170,11,20.4,,,,,,,,1,wg-a,,,,AAXX 01184 07761 02682 /1702 10180 20110 30196 40207 51011 60006 70198 81201 91800 333 10204 20110 61000=
07761,1997-05-01 21:00:00,12,1022.9,2.2,82,9,20000,11.112,,,50,,,,,,,,,,,wg-a,,,,AAXX 01214 07761 12/70 /0506 10120 20090 30218 40229 51022 60006 80000 92100=
07761,1997-05-02 00:00:00,9,1023.3,0.4,87,7,20000,14.816,,,50,,,,,,,,,,,wg-a,,,,AAXX 02004 07761 12/70 00508 10090 20070 30222 40233 50004 60006 80000 90000=
07761,1997-05-02 06:00:00,11,1024.2,0.8,76,7,500,7.408,,,40,7.7,17.4,,,,,,,,,wg-a,,,,AAXX 02064 07761 02600 /0404 10110 20070 30231 40242 53008 60006 81100 90600 333 10174 20077 61000=
07761,1997-05-02 09:00:00,19,1024.8,0.6,56,10,500,18.52,,,240,,,,,,,,,,,wg-a,,,,AAXX 02094 07761 12600 /2410 10190 20100 30237 40248 53006 60006 81200 90900=
07761,1997-05-02 12:00:00,20,1024.4,-0.4,60,12,500,22.224,,,200,,,,,,,,,,,wg-a,,,,AAXX 02124 07761 12600 /2012 10200 20120 30233 40244 58004 60006 81200 91200=
07761,1997-05-02 15:00:00,19,1024,-0.4,60,11,500,22.224,,,200,,,,,,,,,,,wg-a,,,,AAXX 02154 07761 12600 /2012 10190 20110 30229 40240 58004 60006 81200 91500=
07761,1997-05-02 18:00:00,17,1024.2,0.2,82,14,20000,11.112,,,220,10.8,20.5,,,,,,,,,wg-a,,,,AAXX 02184 07761 12670 /2206 10170 20140 30231 40242 53002 60006 81500 91800 333 10205 20108=
07761,1997-05-02 21:00:00,13,1025.3,1.1,88,11,20000,7.408,,,50,,,,,,,,,,,wg-a,,,,AAXX 02214 07761 12/70 00504 10130 20110 30242 40253 51011 60006 80000 92100=
07761,1997-05-03 00:00:00,11,1025.3,0,87,9,20000,18.52,,,50,,,,,,,,,,,wg-a,,,,AAXX 03004 07761 12/70 00510 10110 20090 30242 40253 50000 60006 80000 90000=
07761,1997-05-03 03:00:00,9,1024.6,-0.7,87,7,20000,11.112,,,40,,,,,,,,,,,wg-a,,,,AAXX 03034 07761 12/70 00406 10090 20070 30235 40246 56007 60006 80000 90300=
07761,1997-05-03 06:00:00,11,1024,-0.6,82,8,20000,11.112,,,40,8.3,16.7,,,,,,,,,wg-a,,,,AAXX 03064 07761 02/70 70406 10110 20080 30229 40240 56006 60006 80002 90600 333 10167 20083 60004=
07761,1997-05-03 09:00:00,19,1024.2,0.2,64,12,20000,14.816,,,240,,,,,,,,,,,wg-a,,,,AAXX 03094 07761 12/70 12408 10190 20120 30231 40242 51002 60006 80001 90900=
07761,1997-05-03 12:00:00,19,1023.2,-1,73,14,20000,22.224,,,210,,,,,,,,,,,wg-a,,,,AAXX 03124 07761 12770 /2112 10190 20140 30221 40232 58010 60006 81101 91200=
07761,1997-05-03 15:00:00,19,1021.7,-1.5,60,11,20000,22.224,,,210,,,,,,,,,,,wg-a,,,,AAXX 03154 07761 12770 52112 10190 20110 30206 40217 58015 60006 81101 91500=
07761,1997-05-03 18:00:00,18,1021.3,-0.4,59,10,20000,14.816,,,180,11.5,19.9,,,,,,,,,wg-a,,,,AAXX 03184 07761 12/70 11808 10180 20100 30202 40213 56004 60006 80001 91800 333 10199 20115=
07761,1997-05-03 21:00:00,12,1021.9,0.6,67,6,20000,14.816,,,60,,,,,,,,,,,wg-a,,,,AAXX 03214 07761 12/70 00608 10120 20060 30208 40219 51006 60006 80000 92100=
07761,1997-05-04 00:00:00,9,1020.4,-1.5,76,5,20000,11.112,,,50,,,,,,,,,,,wg-a,,,,AAXX 04004 07761 12/70 00506 10090 20050 30193 40204 58015 60006 80000 90000=
07761,1997-05-04 03:00:00,7,1018.9,-1.5,81,4,20000,11.112,,,50,,,,,,,,,,,wg-a,,,,AAXX 04034 07761 12/70 00506 10070 20040 30178 40189 58015 60006 80000 90300=
07761,1997-05-04 06:00:00,11,1018.7,-0.2,71,6,500,11.112,,,50,6.6,17.5,,,,,,,,,wg-a,,,,AAXX 04064 07761 02/00 30506 10110 20060 30176 40187 56002 60006 80002 90600 333 10175 20066 60004=
07761,1997-05-04 09:00:00,17,1018.4,-0.3,72,12,500,11.112,,,240,,,,,,,,,,,wg-a,,,,AAXX 04094 07761 12800 /2406 10170 20120 30173 40184 58003 60006 81032 90900=
07761,1997-05-04 12:00:00,19,1017.5,-0.9,64,12,500,22.224,,,230,,,,,,,,,,,wg-a,,,,AAXX 04124 07761 12800 82312 10190 20120 30164 40175 57009 60006 85082 91200=
07761,1997-05-04 15:00:00,19,1016.3,-1.2,68,13,500,14.816,,,210,,,,,,,,,,,wg-a,,,,AAXX 04154 07761 12800 42108 10190 20130 30152 40163 58012 60006 81041 91500=
07761,1997-05-04 18:00:00,17,1015.6,-0.7,77,13,20000,3.704,,,160,11,19.4,,,,,,,,,wg-a,,,,AAXX 04184 07761 12870 71602 10170 20130 30145 40156 56007 60006 83082 91800 333 10194 20110=
07761,1997-05-04 21:00:00,15,1015,-0.6,67,9,20000,7.408,,,60,,,,,,,,,,,wg-a,,,,AAXX 04214 07761 12870 /0604 10150 20090 30139 40150 56006 60006 81031 92100=
07761,1997-05-05 00:00:00,13,1014,-1,77,9,20000,3.704,,,120,,,,,,,,,,,wg-a,,,,AAXX 05004 07761 12670 51202 10130 20090 30129 40140 57010 60006 83531 90000=
07761,1997-05-05 03:00:00,14,1011.9,-2.1,63,7,20000,7.408,,,50,,,,,,,,,,,wg-a,,,,AAXX 05034 07761 12670 /0504 10140 20070 30108 40119 58021 60006 81531 90300=
07761,1997-05-05 06:00:00,15,1011.4,-0.5,67,9,20000,7.408,,,60,12.2,16.9,,,,,,,,2,wg-a,,,,AAXX 05064 07761 02870 /0604 10150 20090 30103 40114 56005 60006 70262 86089 90600 333 10169 20122 61000=
07761,1997-05-05 09:00:00,23,1009.2,-2.1,33,6,25000,11.112,,,270,,,,,,,,,,,wg-a,,,,AAXX 05094 07761 12875 72706 10230 20060 30082 40092 58021 60006 84082 90900=
07761,1997-05-05 12:00:00,18,1010.7,1.4,42,5,9000,11.112,,,90,,,,1,,,,,,61,wg-a,,,,AAXX 05124 07761 02659 80906 10180 20050 30096 40107 50014 60016 76186 81282 91200 333 60017=
07761,1997-05-05 15:00:00,18,1006.2,-4.5,68,12,20000,11.112,,,40,,,,1,,,,,,21,wg-a,,,,AAXX 05154 07761 12670 70406 10180 20120 30051 40062 58045 60017 72162 82882 91500=
07761,1997-05-05 18:00:00,19,1006.7,0.5,64,12,20000,7.408,,,210,15.1,23.5,,,,,,,,17,wg-a,,,,AAXX 05184 07761 12670 72104 10190 20120 30056 40067 53005 60006 71796 8693/ 91800 333 10235 20151=
07761,1997-05-05 21:00:00,16,1006.6,-0.1,82,13,20000,14.816,,,50,,,,,,,,,,1,wg-a,,,,AAXX 05214 07761 12770 60508 10160 20130 30055 40066 58001 60006 70191 85870 92100=
07761,1997-05-06 00:00:00,15,1005.4,-1.2,77,11,15000,7.408,,,50,,,,,,,,,,1,wg-a,,,,AAXX 06004 07761 12/65 00504 10150 20110 30043 40054 56012 60006 70191 80000 90000=
07761,1997-05-06 03:00:00,13,1003.9,-1.5,82,10,10000,11.112,,,50,,,,,,,,,,,wg-a,,,,AAXX 06034 07761 12560 70506 10130 20100 30028 40039 56015 60006 85830 90300=
07761,1997-05-06 06:00:00,18,1003,-0.9,83,15,8000,18.52,,,180,12.3,19.3,,,,,1,,,,wg-a,,,,AAXX 06064 07761 02458 81810 10180 20150 30019 40030 56009 60006 875// 90600 333 10193 20123 60014=
07761,1997-05-06 09:00:00,20,1003,0.1,73,15,12000,22.224,,,200,,,,,,,,,,,wg-a,,,,AAXX 06094 07761 12462 72012 10200 20150 30020 40030 50001 60006 878// 90900=
07761,1997-05-06 12:00:00,19,1002.5,-0.5,78,15,10000,22.224,,,210,,,,,,,,,,,wg-a,,,,AAXX 06124 07761 12560 72112 10190 20150 30015 40025 57005 60006 8683/ 91200=
07761,1997-05-06 15:00:00,18,1004.2,1.6,64,11,12000,25.928,,,240,,,,,,,,,,,wg-a,,,,AAXX 06154 07761 12462 42414 10180 20110 30031 40042 53016 60006 84800 91500=
07761,1997-05-06 18:00:00,16,1005.9,1.7,68,10,500,14.816,,,250,15.8,21.1,,,,,,,,,wg-a,,,,AAXX 06184 07761 12500 32508 10160 20100 30048 40059 53017 60006 83200 91800 333 10211 20158=
07761,1997-05-06 21:00:00,12,1007.3,1.4,82,9,20000,11.112,,,70,,,,,,,,,,,wg-a,,,,AAXX 06214 07761 12570 /0706 10120 20090 30062 40073 53014 60006 81100 92100=
07761,1997-05-07 00:00:00,9,1006.2,-1.1,87,7,20000,11.112,,,50,,,,,,,,,,,wg-a,,,,AAXX 07004 07761 12570 /0506 10090 20070 30051 40062 58011 60006 81500 90000=
07761,1997-05-07 06:00:00,11,1006.2,0.3,87,9,20000,7.408,,,70,8.2,15.8,,,,,,,,,wg-a,,,,AAXX 07064 07761 02570 30704 10110 20090 30051 40062 53003 60006 81801 90600 333 10158 20082 60004=
07761,1997-05-07 09:00:00,16,1005.9,-0.3,55,7,20000,11.112,,,240,,,,,,,,,,,wg-a,,,,AAXX 07094 07761 12570 72406 10160 20070 30048 40059 56003 60006 81181 90900=
07761,1997-05-07 12:00:00,16,1005.5,-0.4,63,9,20000,7.408,,,250,,,,,,,,,,,wg-a,,,,AAXX 07124 07761 12670 82504 10160 20090 30044 40055 58004 60006 84881 91200=
07761,1997-05-07 15:00:00,18,1002.1,-3.4,39,4,20000,7.408,,,50,,,,,,,,,,1,wg-a,,,,AAXX 07154 07761 02670 40504 10180 20040 30010 40021 58034 61000 70161 81832 91500 333 ////=
07761,1997-05-07 17:00:00,15,999.7,-2.4,55,6,17000,14.816,,,270,10.9,18.5,,,,,,,,2,wg-a,,,,AAXX 07174 07761 32667 72708 10150 20060 39986 49997 58024 70261 8557/ 91700 333 10185 20109=
07761,1997-05-07 18:00:00,15,999.7,-2.4,55,6,17000,14.816,,,270,10.9,18.5,,,,,,,,2,wg-a,,,,AAXX 07184 07761 12667 72708 10150 20060 39986 49997 58024 60006 70261 8557/ 91800 333 10185 20109=
07761,1997-05-07 21:00:00,11,1000.9,1.2,94,10,7000,11.112,,,60,,,,8,,,,,,61,wg-a,,,,AAXX 07214 07761 12457 80606 10110 20100 39998 40009 50012 60087 76162 885// 92100=
07761,1997-05-08 00:00:00,11,1000.9,-0,87,9,15000,18.52,,,280,,,,3,,,,,,21,wg-a,,,,AAXX 08004 07761 02465 72810 10110 20090 39998 40009 55000 60126 72162 872// 90000 333 60037=
07761,1997-05-08 03:00:00,10,1000.2,-0.7,93,9,15000,11.112,,,70,,,,,,,,,,,wg-a,,,,AAXX 08034 07761 12465 /0706 10100 20090 39991 40002 58007 60006 86800 90300=
07761,1997-05-08 06:00:00,10,1000.7,0.5,93,9,15000,7.408,,,90,9.7,15.4,,,,,,,,25,wg-a,,,,AAXX 08064 07761 02365 70904 10100 20090 39996 40007 53005 61000 72586 879// 90600 333 10154 20097 6016=
07761,1997-05-08 09:00:00,11,1003.5,2.8,87,9,9000,3.704,,,30,,,,2,,,,,,17,wg-a,,,,AAXX 08094 07761 12459 70302 10110 20090 30024 40035 51028 60027 71796 879// 90900=
07761,1997-05-08 12:00:00,14,1006.2,2.7,63,7,20000,31.484,,,260,,,,0,,,,,,1,wg-a,,,,AAXX 08124 07761 02570 /2617 10140 20070 30051 40062 53027 60026 70198 86800 91200 333 60007=
07761,1997-05-08 15:00:00,13,1009,2.8,58,5,15000,22.224,,,280,,,,,,,,,,,wg-a,,,,AAXX 08154 07761 12665 72812 10130 20050 30079 40090 51028 60006 878// 91500=
07761,1997-05-08 18:00:00,14,1011.1,2.1,55,5,15000,22.224,,,280,10,14.9,,,,,,,,,wg-a,,,,AAXX 08184 07761 12665 52812 10140 20050 30100 40111 51021 60006 85200 91800 333 10149 20100=
07761,1997-05-08 21:00:00,14,1013.7,2.6,63,7,15000,22.224,,,280,,,,,,,,,,,wg-a,,,,AAXX 08214 07761 12665 42812 10140 20070 30126 40137 51026 60006 84200 92100=
07761,1997-05-09 00:00:00,14,1014.8,1.1,67,8,15000,22.224,,,270,,,,,,,,,,,wg-a,,,,AAXX 09004 07761 12665 /2712 10140 20080 30137 40148 51011 60006 85200 90000=
07761,1997-05-09 03:00:00,14,1014.9,0.1,67,8,15000,29.632,,,290,,,,,,,,,,,wg-a,,,,AAXX 09034 07761 12565 /2916 10140 20080 30138 40149 53001 60006 85200 90300=
07761,1997-05-09 06:00:00,14,1016.1,1.2,77,10,15000,3.704,,,60,13,14.6,,,,,2,,,,wg-a,,,,AAXX 09064 07761 02565 70602 10140 20100 30150 40161 53012 60006 85201 90600 333 10146 20130 60024=
07761,1997-05-09 12:00:00,18,1018.5,0.8,64,11,20000,29.632,,,230,,,,,,,,,,,wg-a,,,,AAXX 09124 07761 12470 52316 10180 20110 30174 40185 51008 60006 8/200 91200=
07761,1997-05-09 15:00:00,18,1018.7,0.2,64,11,20000,25.928,,,220,,,,,,,,,,,wg-a,,,,AAXX 09154 07761 12670 62214 10180 20110 30176 40187 50002 60006 82231 91500=
07761,1997-05-09 18:00:00,16,1018.7,-0,68,10,18000,11.112,,,230,13.7,18.6,,,,,,,,,wg-a,,,,AAXX 09184 07761 12668 /2306 10160 20100 30176 40187 54000 60006 81201 91800 333 10186 20137=
07761,1997-05-09 21:00:00,13,1020.2,1.5,67,7,20000,14.816,,,70,,,,,,,,,,,wg-a,,,,AAXX 09214 07761 12570 50708 10130 20070 30191 40202 51015 60006 85200 92100=
07761,1997-05-10 00:00:00,10,1020.3,0.1,76,6,20000,14.816,,,40,,,,,,,,,,,wg-a,,,,AAXX 10004 07761 12/70 00408 10100 20060 30192 40203 50001 60006 80000 90000=
07761,1997-05-10 03:00:00,8,1019.3,-1,76,4,20000,14.816,,,40,,,,,,,,,,,wg-a,,,,AAXX 10034 07761 12570 /0408 10080 20040 30182 40193 57010 60006 81500 90300=
07761,1997-05-10 06:00:00,11,1019.9,0.6,71,6,40000,11.112,,,50,6.7,15.9,,,,,,,,,wg-a,,,,AAXX 10064 07761 02/82 50506 10110 20060 30188 40199 53006 60006 80002 90600 333 10159 20067 60004=
07761,1997-05-10 12:00:00,18,1019.8,-0.4,73,13,50000,14.816,,,230,,,,,,,,,,,wg-a,,,,AAXX 10124 07761 12784 /2308 10180 20130 30187 40198 58004 60006 81101 91200=
07761,1997-05-10 15:00:00,19,1018.4,-1.4,60,11,50000,11.112,,,220,,,,,,,,,,,wg-a,,,,AAXX 10154 07761 12684 42206 10190 20110 30173 40184 58014 60006 81101 91500=
07761,1997-05-10 18:00:00,19,1018,-0.4,40,5,50000,7.408,,,190,11.1,19.1,,,,,,,,,wg-a,,,,AAXX 10184 07761 12684 71904 10190 20050 30169 40180 55004 60006 81101 91800 333 10191 20111=
07761,1997-05-10 21:00:00,13,1018.7,0.7,67,7,500,11.112,,,40,,,,,,,,,,,wg-a,,,,AAXX 10214 07761 12/00 50406 10130 20070 30176 40187 52007 60006 80002 92100=
07761,1997-05-11 00:00:00,11,1017.3,-1.4,76,7,20000,7.408,,,90,,,,,,,,,,,wg-a,,,,AAXX 11004 07761 12/70 30904 10110 20070 30162 40173 56014 60006 80001 90000=
07761,1997-05-11 03:00:00,9,1015.9,-1.4,81,6,20000,11.112,,,60,,,,,,,,,,,wg-a,,,,AAXX 11034 07761 12/70 00606 10090 20060 30148 40159 58014 60006 80000 90300=
07761,1997-05-11 06:00:00,13,1016,0.1,62,6,40000,7.408,,,100,8.2,18.4,,,,,,,,,wg-a,,,,AAXX 11064 07761 02/82 51004 10130 20060 30149 40160 50001 60006 81032 90600 333 10184 20082 60004=
07761,1997-05-11 09:00:00,20,1016.5,0.5,46,8,40000,7.408,,,230,,,,,,,,,,,wg-a,,,,AAXX 11094 07761 12782 /2304 10200 20080 30154 40165 51005 60006 81582 90900=
07761,1997-05-11 12:00:00,22,1015.8,-0.7,53,12,40000,14.816,,,230,,,,,,,,,,,wg-a,,,,AAXX 11124 07761 12/82 /2308 10220 20120 30147 40158 56007 60006 81082 91200=
07761,1997-05-11 15:00:00,20,1017.9,2.1,64,13,500,18.52,,,240,,,,,,,,,,,wg-a,,,,AAXX 11154 07761 12700 72410 10200 20130 30168 40179 53021 60006 8257/ 91500=
07761,1997-05-11 18:00:00,20,1017.4,-0.5,46,8,500,3.704,,,50,13.4,23.1,,,,,,,,,wg-a,,,,AAXX 11184 07761 12/00 70502 10200 20080 30163 40174 58005 60006 82032 91800 333 10231 20134=
07761,1997-05-11 21:00:00,16,1018.5,1.1,77,12,20000,7.408,,,60,,,,,,,,,,,wg-a,,,,AAXX 11214 07761 12/70 60604 10160 20120 30174 40185 50011 60006 82032 92100=
07761,1997-05-12 00:00:00,13,1017.7,-0.8,88,11,20000,11.112,,,50,,,,,,,,,,,wg-a,,,,AAXX 12004 07761 12/70 30506 10130 20110 30166 40177 58008 60006 81032 90000=
07761,1997-05-12 03:00:00,15,1018.6,0.9,88,13,20000,11.112,,,200,,,,,,,,,,,wg-a,,,,AAXX 12034 07761 12/70 72006 10150 20130 30175 40186 53009 60006 82032 90300=
07761,1997-05-12 06:00:00,17,1018.4,-0.2,72,12,500,7.408,,,40,13,20.2,,,,,,,,,wg-a,,,,AAXX 12064 07761 02/00 70404 10170 20120 30173 40184 58002 60006 85072 90600 333 10202 20130 60004=
07761,1997-05-12 09:00:00,19,1020.9,2.5,73,14,25000,14.816,,,160,,,,,,,,,,,wg-a,,,,AAXX 12094 07761 12775 71608 10190 20140 30198 40209 51025 60006 81172 90900=
07761,1997-05-12 12:00:00,19,1020.6,-0.3,78,15,25000,14.816,,,200,,,,,,,,,,,wg-a,,,,AAXX 12124 07761 12/75 72008 10190 20150 30195 40206 56003 60006 84072 91200=
07761,1997-05-12 15:00:00,22,1019,-1.6,65,15,25000,3.704,,,70,,,,,,,,,,,wg-a,,,,AAXX 12154 07761 12775 70702 10220 20150 30179 40190 58016 60006 81572 91500=
07761,1997-05-12 18:00:00,19,1019,-0,73,14,25000,11.112,,,230,16.9,22.7,,,,,,,,,wg-a,,,,AAXX 12184 07761 12/75 72306 10190 20140 30179 40190 55000 60006 85072 91800 333 10227 20169=
07761,1997-05-12 21:00:00,15,1020.3,1.3,82,12,25000,14.816,,,60,,,,,,,,,,,wg-a,,,,AAXX 12214 07761 12/75 50608 10150 20120 30192 40203 51013 60006 82032 92100=
07761,1997-05-13 00:00:00,15,1018.8,-1.5,77,11,25000,7.408,,,70,,,,,,,,,,,wg-a,,,,AAXX 13004 07761 12/75 20704 10150 20110 30177 40188 58015 60006 80001 90000=
07761,1997-05-13 03:00:00,12,1019.3,0.5,88,10,25000,11.112,,,50,,,,,,,,,,,wg-a,,,,AAXX 13034 07761 12/75 20506 10120 20100 30182 40193 53005 60006 81031 90300=
07761,1997-05-13 06:00:00,16,1019.7,0.4,68,10,40000,11.112,,,50,11.8,18.4,,,,,,,,,wg-a,,,,AAXX 13064 07761 02/82 70506 10160 20100 30186 40197 50004 60006 82032 90600 333 10184 20118 60004=
07761,1997-05-13 09:00:00,21,1019.6,-0.1,56,12,40000,7.408,,,260,,,,,,,,,,,wg-a,,,,AAXX 13094 07761 12/82 52604 10210 20120 30185 40196 57001 60006 82032 90900=
07761,1997-05-13 12:00:00,22,1018.1,-1.5,60,14,40000,22.224,,,200,,,,,,,,,,,wg-a,,,,AAXX 13124 07761 12782 42012 10220 20140 30170 40181 57015 60006 81101 91200=
07761,1997-05-13 15:00:00,21,1016.8,-1.3,64,14,40000,18.52,,,210,,,,,,,,,,,wg-a,,,,AAXX 13154 07761 12/82 /2110 10210 20140 30157 40168 57013 60006 81031 91500=
07761,1997-05-13 18:00:00,20,1016.4,-0.4,64,13,500,3.704,,,220,15.6,24.2,,,,,,,,,wg-a,,,,AAXX 13184 07761 12/00 72202 10200 20130 30153 40164 56004 60006 80002 91800 333 10242 20156=
07761,1997-05-13 21:00:00,15,1017.2,0.8,77,11,500,11.112,,,50,,,,,,,,,,,wg-a,,,,AAXX 13214 07761 12/00 30506 10150 20110 30161 40172 53008 60006 80002 92100=
07761,1997-05-14 00:00:00,13,1017.3,0.1,77,9,20000,14.816,,,50,,,,,,,,,,,wg-a,,,,AAXX 14004 07761 12/70 60508 10130 20090 30162 40173 50001 60006 80002 90000=
07761,1997-05-14 03:00:00,14,1017.7,0.4,63,7,20000,11.112,,,40,,,,,,,,,,,wg-a,,,,AAXX 14034 07761 12/70 /0406 10140 20070 30166 40177 51004 60006 82072 90300=
07761,1997-05-14 06:00:00,17,1017.6,-0.1,55,8,500,7.408,,,60,12.8,20.6,,,,,,,,,wg-a,,,,AAXX 14064 07761 02/00 70604 10170 20080 30165 40176 58001 60006 81072 90600 333 10206 20128 60004=
07761,1997-05-14 09:00:00,25,1016.4,-1.1,34,8,40000,7.408,,,220,,,,,,,,,,,wg-a,,,,AAXX 14094 07761 12/82 72204 10250 20080 30154 40164 56011 60006 80002 90900=
07761,1997-05-14 12:00:00,23,1016.4,0,50,12,40000,22.224,,,210,,,,,,,,,,,wg-a,,,,AAXX 14124 07761 12/82 72112 10230 20120 30154 40164 50000 60006 80002 91200=
07761,1997-05-14 15:00:00,22,1015.1,-1.3,60,14,40000,14.816,,,220,,,,,,,,,,,wg-a,,,,AAXX 14154 07761 12/82 62208 10220 20140 30141 40151 56013 60006 80002 91500=
07761,1997-05-14 18:00:00,22,1015.7,0.5,50,11,40000,0,,,0,17.4,25.2,,,,,,,,,wg-a,,,,AAXX 14184 07761 12/82 50000 10220 20110 30146 40157 53005 60006 81032 91800 333 10252 20174=
07761,1997-05-14 21:00:00,17,1015.7,0,68,11,20000,14.816,,,40,,,,,,,,,,,wg-a,,,,AAXX 14214 07761 12/70 10408 10170 20110 30146 40157 50000 60006 80001 92100=
07761,1997-05-15 00:00:00,14,1015.6,-0.1,72,9,20000,14.816,,,40,,,,,,,,,,,wg-a,,,,AAXX 15004 07761 12/70 00408 10140 20090 30145 40156 58001 60006 80000 90000=
07761,1997-05-15 03:00:00,15,1014.5,-1.1,63,8,20000,14.816,,,40,,,,,,,,,,,wg-a,,,,AAXX 15034 07761 12/70 00408 10150 20080 30134 40145 56011 60006 80000 90300=
07761,1997-05-15 06:00:00,17,1014.9,0.4,63,10,10000,11.112,,,50,13.1,21.6,,,,,,,,,wg-a,,,,AAXX 15064 07761 02/60 /0506 10170 20100 30138 40149 53004 60006 90600 333 10216 20131 60004=
07761,1997-05-15 09:00:00,27,1014.1,-0.7,34,10,20000,7.408,,,270,,,,,,,,,,,wg-a,,,,AAXX 15094 07761 12/70 72704 10270 20100 30131 40141 58007 60006 80002 90900=
07761,1997-05-15 12:00:00,26,1013.4,-0.7,42,12,20000,29.632,,,270,,,,,,,,,,,wg-a,,,,AAXX 15124 07761 12/70 82716 10260 20120 30124 40134 58007 60006 80007 91200=
07761,1997-05-15 15:00:00,27,1013,-0.4,34,10,20000,11.112,,,280,,,,,,,,,,,wg-a,,,,AAXX 15154 07761 12670 /2806 10270 20100 30120 40130 56004 60006 81502 91500=
07761,1997-05-15 18:00:00,22,1013.5,0.5,57,13,20000,7.408,,,210,17.5,27.5,,,,,,,,,wg-a,,,,AAXX 15184 07761 12/70 52104 10220 20130 30125 40135 53005 60006 80002 91800 333 10275 20175=
07761,1997-05-15 21:00:00,19,1014.6,1,56,10,20000,7.408,,,50,,,,,,,,,,,wg-a,,,,AAXX 15214 07761 12/70 00504 10190 20100 30135 40146 53010 60006 80000 92100=
07761,1997-05-16 00:00:00,14,1014.9,0.3,72,9,20000,11.112,,,50,,,,,,,,,,,wg-a,,,,AAXX 16004 07761 12/70 20506 10140 20090 30138 40149 51003 60006 80001 90000=
07761,1997-05-16 03:00:00,14,1014.1,-0.8,67,8,20000,14.816,,,60,,,,,,,,,,,wg-a,,,,AAXX 16034 07761 12/70 50608 10140 20080 30130 40141 57008 60006 80002 90300=
07761,1997-05-16 06:00:00,17,1014.8,0.7,63,10,11000,11.112,,,50,12.7,21.9,,,,,,,,,wg-a,,,,AAXX 16064 07761 02/61 /0506 10170 20100 30137 40148 53007 60006 90600 333 10219 20127 60004=
07761,1997-05-16 09:00:00,21,1015.3,0.5,64,14,25000,11.112,,,210,,,,,,,,,,,wg-a,,,,AAXX 16094 07761 12775 42106 10210 20140 30142 40153 53005 60006 81132 90900=
07761,1997-05-16 12:00:00,22,1015.5,0.3,60,14,25000,14.816,,,200,,,,,,,,,,,wg-a,,,,AAXX 16124 07761 12775 72008 10220 20140 30145 40155 50003 60006 82287 91200=
07761,1997-05-16 15:00:00,21,1015.5,-0.1,64,14,25000,14.816,,,200,,,,,,,,,,,wg-a,,,,AAXX 16154 07761 12775 72008 10210 20140 30144 40155 56001 60006 81287 91500=
07761,1997-05-16 18:00:00,20,1015.4,-0.1,83,17,18000,7.408,,,220,17,23.9,,,,,,,,,wg-a,,,,AAXX 16184 07761 12/68 72204 10200 20170 30143 40154 55001 60006 83037 91800 333 10239 20170=
07761,1997-05-16 21:00:00,16,1016.6,1.2,88,14,18000,11.112,,,60,,,,,,,,,,,wg-a,,,,AAXX 16214 07761 12/68 70606 10160 20140 30155 40166 51012 60006 84078 92100=
07761,1997-05-17 00:00:00,16,1015.6,-1,72,11,18000,11.112,,,50,,,,,,,,,,,wg-a,,,,AAXX 17004 07761 12/68 30506 10160 20110 30145 40156 56010 60006 81032 90000=
07761,1997-05-17 03:00:00,14,1015.4,-0.2,77,10,18000,7.408,,,50,,,,,,,,,,,wg-a,,,,AAXX 17034 07761 12/68 30504 10140 20100 30143 40154 55002 60006 82031 90300=
07761,1997-05-17 06:00:00,16,1016.1,0.7,72,11,18000,11.112,,,50,12,19.5,,,,,,,,,wg-a,,,,AAXX 17064 07761 02/68 /0506 10160 20110 30150 40161 51007 60006 81030 90600 333 10195 20120 60004=
07761,1997-05-17 09:00:00,21,1017,0.9,73,16,20000,14.816,,,210,,,,,,,,,,,wg-a,,,,AAXX 17094 07761 12770 32108 10210 20160 30159 40170 53009 60006 81201 90900=
07761,1997-05-17 12:00:00,21,1016.2,-0.8,73,16,20000,11.112,,,200,,,,,,,,,,,wg-a,,,,AAXX 17124 07761 12770 /2006 10210 20160 30151 40162 56008 60006 81201 91200=
07761,1997-05-17 15:00:00,22,1015.9,-0.3,65,15,20000,18.52,,,190,,,,,,,,,,,wg-a,,,,AAXX 17154 07761 12870 /1910 10220 20150 30148 40159 56003 60006 81200 91500=
07761,1997-05-17 18:00:00,19,1016.7,0.8,83,16,15000,18.52,,,190,15.7,22,,,,,,,,,wg-a,,,,AAXX 17184 07761 12/65 51910 10190 20160 30156 40167 53008 60006 81031 91800 333 10220 20157=
07761,1997-05-17 21:00:00,16,1017.1,0.4,82,13,15000,11.112,,,50,,,,,,,,,,,wg-a,,,,AAXX 17214 07761 12/65 30506 10160 20130 30160 40171 50004 60006 83030 92100=
07761,1997-05-18 00:00:00,15,1017.8,0.7,82,12,15000,7.408,,,60,,,,,,,,,,,wg-a,,,,AAXX 18004 07761 12565 20604 10150 20120 30167 40178 51007 60006 81139 90000=
07761,1997-05-18 03:00:00,14,1017,-0.8,82,11,15000,11.112,,,40,,,,,,,,,,,wg-a,,,,AAXX 18034 07761 12465 20406 10140 20110 30159 40170 58008 60006 81502 90300=
07761,1997-05-18 06:00:00,16,1017.4,0.4,77,12,18000,7.408,,,50,12.9,19,,,,,,,,,wg-a,,,,AAXX 18064 07761 02668 /0504 10160 20120 30163 40174 53004 60006 81500 90600 333 10190 20129 60004=
07761,1997-05-18 09:00:00,20,1017.8,0.4,73,15,22000,14.816,,,230,,,,,,,,,,,wg-a,,,,AAXX 18094 07761 12572 /2308 10200 20150 30167 40178 51004 60006 81100 90900=
07761,1997-05-18 12:00:00,21,1017.6,-0.2,73,16,20000,18.52,,,210,,,,,,,,,,,wg-a,,,,AAXX 18124 07761 12570 /2110 10210 20160 30165 40176 58002 60006 81200 91200=
07761,1997-05-18 15:00:00,20,1016.7,-0.9,78,16,25000,18.52,,,200,,,,,,,,,,,wg-a,,,,AAXX 18154 07761 12675 /2010 10200 20160 30156 40167 58009 60006 81102 91500=
07761,1997-05-18 18:00:00,19,1016,-0.7,78,15,25000,18.52,,,180,15.8,21.3,,,,,,,,,wg-a,,,,AAXX 18184 07761 12/75 01810 10190 20150 30149 40160 55007 60006 80000 91800 333 10213 20158=
07761,1997-05-18 21:00:00,16,1016.4,0.4,77,12,25000,11.112,,,60,,,,,,,,,,,wg-a,,,,AAXX 18214 07761 12/75 00606 10160 20120 30153 40164 51004 60006 80000 92100=
07761,1997-05-19 00:00:00,12,1016,-0.4,88,10,25000,7.408,,,50,,,,,,,,,,,wg-a,,,,AAXX 19004 07761 12/75 00504 10120 20100 30149 40160 58004 60006 80000 90000=
07761,1997-05-19 03:00:00,11,1015.5,-0.5,82,8,25000,11.112,,,60,,,,,,,,,,,wg-a,,,,AAXX 19034 07761 12/75 10606 10110 20080 30144 40155 56005 60006 81030 90300=
07761,1997-05-19 06:00:00,15,1015.9,0.4,72,10,35000,7.408,,,60,10.8,19.2,,,,,,,,,wg-a,,,,AAXX 19064 07761 02781 /0604 10150 20100 30148 40159 53004 60006 81502 90600 333 10192 20108 60004=
07761,1997-05-19 09:00:00,21,1015.9,-0,56,12,35000,11.112,,,220,,,,,,,,,,,wg-a,,,,AAXX 19094 07761 12781 62206 10210 20120 30148 40159 55000 60006 84532 90900=
07761,1997-05-19 12:00:00,23,1015.3,-0.5,57,14,35000,11.112,,,250,,,,,,,,,,,wg-a,,,,AAXX 19124 07761 12/81 72506 10230 20140 30143 40153 58005 60006 84032 91200=
07761,1997-05-19 15:00:00,23,1013.9,-1.4,65,16,35000,18.52,,,230,,,,,,,,,,,wg-a,,,,AAXX 19154 07761 12/81 72310 10230 20160 30129 40139 56014 60006 83032 91500=
07761,1997-05-19 18:00:00,21,1013.5,-0.4,69,15,35000,0,,,0,14.8,25.2,,,,,,,,,wg-a,,,,AAXX 19184 07761 12/81 50000 10210 20150 30125 40135 56004 60006 80002 91800 333 10252 20148=
07761,1997-05-19 21:00:00,17,1013.5,-0.1,82,14,20000,11.112,,,60,,,,,,,,,,,wg-a,,,,AAXX 19214 07761 12/70 10606 10170 20140 30124 40135 58001 60006 80001 92100=
07761,1997-05-20 00:00:00,16,1013.4,-0.1,82,13,0,7.408,,,30,,,,,,,,,,,wg-a,,,,AAXX 20004 07761 12/// /0304 10160 20130 30123 40134 56001 60006 90000=
07761,1997-05-20 03:00:00,15,1013,-0.4,82,12,20000,11.112,,,60,,,,,,,,,,,wg-a,,,,AAXX 20034 07761 12/70 40606 10150 20120 30119 40130 56004 60006 81072 90300=
07761,1997-05-20 06:00:00,18,1013.6,0.6,73,13,20000,11.112,,,50,14.5,21.4,,,,,,,,,wg-a,,,,AAXX 20064 07761 02/70 70506 10180 20130 30125 40136 51006 60006 8707/ 90600 333 10214 20145 60004=
07761,1997-05-20 12:00:00,22,1012.6,0.4,73,17,8000,18.52,,,240,,,,,,,,,,,wg-a,,,,AAXX 20124 07761 12/58 72410 10220 20170 30116 40126 53004 60006 8303/ 91200=
07761,1997-05-20 15:00:00,20,1012,-0.7,88,18,8000,18.52,,,210,,,,,,,,,,80,wg-a,,,,AAXX 20154 07761 02758 72110 10200 20180 30109 40120 55007 61000 78086 83832 91500 333 ////=
07761,1997-05-20 18:00:00,20,1012.2,0.2,83,17,8000,7.408,,,190,17.7,24.7,,,,,,,,1,wg-a,,,,AAXX 20184 07761 02/58 /1904 10200 20170 30111 40122 51002 60006 70186 83032 91800 333 10247 20177 61000=
07761,1997-05-20 21:00:00,16,1013,0.8,88,14,9000,7.408,,,70,,,,,,,,,,,wg-a,,,,AAXX 20214 07761 12/59 30704 10160 20140 30119 40130 53008 60006 81032 92100=
07761,1997-05-21 00:00:00,14,1012.3,-0.7,88,12,0,11.112,,,50,,,,,,,,,,,wg-a,,,,AAXX 21004 07761 12/// /0506 10140 20120 30112 40123 56007 60006 90000=
07761,1997-05-21 03:00:00,12,1011.7,-0.6,88,10,10000,11.112,,,50,,,,,,,,,,,wg-a,,,,AAXX 21034 07761 12/60 40506 10120 20100 30106 40117 58006 60006 83031 90300=
07761,1997-05-21 06:00:00,15,1013.1,1.4,82,12,15000,7.408,,,60,12.3,19.6,,,,,,,,,wg-a,,,,AAXX 21064 07761 02465 /0604 10150 20120 30120 40131 53014 60006 82541 90600 333 10196 20123 61000=
07761,1997-05-21 09:00:00,19,1013,-0.1,83,16,15000,18.52,,,220,,,,,,,,,,,wg-a,,,,AAXX 21094 07761 12765 72210 10190 20160 30119 40130 55001 60006 81571 90900=
07761,1997-05-21 12:00:00,19,1013.3,0.3,83,16,8000,14.816,,,200,,,,,,,,,,,wg-a,,,,AAXX 21124 07761 12458 82008 10190 20160 30122 40133 51003 60006 8257/ 91200=
07761,1997-05-21 15:00:00,19,1012.7,-0.6,78,15,15000,18.52,,,190,,,,,,,,,,60,wg-a,,,,AAXX 21154 07761 02465 81910 10190 20150 30116 40127 58006 61000 76062 8357/ 91500 333 ////=
07761,1997-05-21 18:00:00,19,1013.2,0.5,73,14,11000,22.224,,,250,15,20.6,,,,,,,,,wg-a,,,,AAXX 21184 07761 12/61 /2512 10190 20140 30121 40132 51005 60006 91800 333 10206 20150=
07761,1997-05-21 21:00:00,17,1014.2,1,77,13,18000,3.704,,,300,,,,,,,,,,,wg-a,,,,AAXX 21214 07761 12568 23002 10170 20130 30131 40142 51010 60006 82200 92100=
07761,1997-05-22 00:00:00,14,1013.4,-0.8,88,12,18000,7.408,,,50,,,,,,,,,,,wg-a,,,,AAXX 22004 07761 12568 60504 10140 20120 30123 40134 58008 60006 86200 90000=
07761,1997-05-22 03:00:00,13,1012.7,-0.7,94,12,18000,7.408,,,50,,,,,,,,,,,wg-a,,,,AAXX 22034 07761 12468 20504 10130 20120 30116 40127 56007 60006 82200 90300=
07761,1997-05-22 06:00:00,15,1013.7,1,88,13,15000,7.408,,,50,11.9,18.6,,,,,,,,,wg-a,,,,AAXX 22064 07761 02565 40504 10150 20130 30126 40137 51010 60006 84202 90600 333 10186 20119 61000=
07761,1997-05-22 09:00:00,21,1014.5,0.8,64,14,15000,14.816,,,210,,,,,,,,,,,wg-a,,,,AAXX 22094 07761 12665 22108 10210 20140 30134 40145 51008 60006 81232 90900=
07761,1997-05-22 12:00:00,21,1015.3,0.8,56,12,15000,29.632,,,240,,,,,,,,,,,wg-a,,,,AAXX 22124 07761 12765 22416 10210 20120 30142 40153 51008 60006 81132 91200=
07761,1997-05-22 15:00:00,20,1014.9,-0.4,64,13,500,29.632,,,230,,,,,,,,,,,wg-a,,,,AAXX 22154 07761 12700 /2316 10200 20130 30138 40149 58004 60006 81131 91500=
07761,1997-05-22 18:00:00,18,1015.4,0.5,64,11,500,7.408,,,210,15.4,21.3,,,,,,,,,wg-a,,,,AAXX 22184 07761 12600 /2104 10180 20110 30143 40154 51005 60006 81401 91800 333 10213 20154=
07761,1997-05-22 21:00:00,14,1016.6,1.2,82,11,500,14.816,,,50,,,,,,,,,,,wg-a,,,,AAXX 22214 07761 12600 /0508 10140 20110 30155 40166 51012 60006 81101 92100=
07761,1997-05-23 00:00:00,12,1016.7,0.1,82,9,20000,14.816,,,40,,,,,,,,,,,wg-a,,,,AAXX 23004 07761 12/70 10408 10120 20090 30156 40167 50001 60006 80001 90000=
07761,1997-05-23 03:00:00,9,1016,-0.7,87,7,25000,11.112,,,50,,,,,,,,,,,wg-a,,,,AAXX 23034 07761 12/75 00506 10090 20070 30149 40160 58007 60006 80000 90300=
07761,1997-05-23 06:00:00,14,1016,0,72,9,25000,3.704,,,50,9.4,18,,,,,,,,,wg-a,,,,AAXX 23064 07761 02/75 00502 10140 20090 30149 40160 50000 60006 80000 90600 333 10180 20094 60004=
07761,1997-05-23 09:00:00,20,1017,1,68,14,25000,18.52,,,210,,,,,,,,,,,wg-a,,,,AAXX 23094 07761 12675 /2110 10200 20140 30159 40170 52010 60006 81502 90900=
07761,1997-05-23 12:00:00,21,1016.7,-0.3,64,14,25000,22.224,,,230,,,,,,,,,,,wg-a,,,,AAXX 23124 07761 12775 /2312 10210 20140 30156 40167 58003 60006 81201 91200=
07761,1997-05-23 15:00:00,23,1014.8,-1.8,61,15,25000,18.52,,,210,,,,,,,,,,,wg-a,,,,AAXX 23154 07761 12775 /2110 10230 20150 30138 40148 58018 60006 81201 91500=
07761,1997-05-23 18:00:00,19,1016.1,1.2,73,14,25000,25.928,,,190,14.3,23.1,,,,,,,,,wg-a,,,,AAXX 23184 07761 12775 /1914 10190 20140 30150 40161 53012 60006 81501 91800 333 10231 20143=
07761,1997-05-23 21:00:00,15,1016.9,0.8,82,12,20000,11.112,,,60,,,,,,,,,,,wg-a,,,,AAXX 23214 07761 12/70 10606 10150 20120 30158 40169 50008 60006 80001 92100=
07761,1997-05-24 00:00:00,13,1016.4,-0.5,77,9,20000,11.112,,,60,,,,,,,,,,,wg-a,,,,AAXX 24004 07761 12/70 00606 10130 20090 30153 40164 56005 60006 80000 90000=
07761,1997-05-24 03:00:00,11,1015.9,-0.5,82,8,20000,11.112,,,50,,,,,,,,,,,wg-a,,,,AAXX 24034 07761 12/70 10506 10110 20080 30148 40159 56005 60006 80001 90300=
07761,1997-05-24 06:00:00,15,1016.5,0.6,67,9,500,11.112,,,60,9.9,19.1,,,,,,,,,wg-a,,,,AAXX 24064 07761 02/00 40606 10150 20090 30154 40165 51006 60006 81032 90600 333 10191 20099 60004=
07761,1997-05-24 09:00:00,22,1016.7,0.2,57,13,500,14.816,,,240,,,,,,,,,,,wg-a,,,,AAXX 24094 07761 12/00 72408 10220 20130 30156 40167 52002 60006 80002 90900=
07761,1997-05-24 12:00:00,22,1016,-0.6,69,16,500,25.928,,,200,,,,,,,,,,,wg-a,,,,AAXX 24124 07761 12700 72014 10220 20160 30150 40160 58006 60006 81102 91200=
07761,1997-05-24 15:00:00,23,1016,-0,57,14,40000,18.52,,,190,,,,,,,,,,,wg-a,,,,AAXX 24154 07761 12682 /1910 10230 20140 30150 40160 55000 60006 81102 91500=
07761,1997-05-24 18:00:00,23,1015.9,-0.1,47,11,500,7.408,,,220,15.2,23.9,,,,,,,,,wg-a,,,,AAXX 24184 07761 12/00 32204 10230 20110 30149 40159 55001 60006 80002 91800 333 10239 20152=
07761,1997-05-24 21:00:00,18,1016.6,0.6,56,9,500,3.704,,,260,,,,,,,,,,,wg-a,,,,AAXX 24214 07761 12/00 42602 10180 20090 30155 40166 53006 60006 80002 92100=
07761,1997-05-25 00:00:00,15,1016.7,0.1,67,9,500,11.112,,,40,,,,,,,,,,,wg-a,,,,AAXX 25004 07761 12/00 20406 10150 20090 30156 40167 50001 60006 80002 90000=
07761,1997-05-25 03:00:00,14,1016.5,-0.2,72,9,500,11.112,,,50,,,,,,,,,,,wg-a,,,,AAXX 25034 07761 12/00 50506 10140 20090 30154 40165 55002 60006 80002 90300=
07761,1997-05-25 06:00:00,17,1017.6,1.1,68,11,40000,7.408,,,60,12,23.1,,,,,,,,,wg-a,,,,AAXX 25064 07761 02/82 30604 10170 20110 30165 40176 53011 60006 80002 90600 333 10231 20120 60004=
07761,1997-05-25 12:00:00,22,1017.7,0,73,17,500,22.224,,,210,,,,,,,,,,,wg-a,,,,AAXX 25124 07761 12700 72112 10220 20170 30166 40177 50000 60006 81502 91200=
07761,1997-05-25 15:00:00,22,1016.2,-1.4,73,17,20000,14.816,,,220,,,,,,,,,,,wg-a,,,,AAXX 25154 07761 12770 /2208 10220 20170 30152 40162 58014 60006 81502 91500=
07761,1997-05-25 18:00:00,20,1016.3,-0,83,17,15000,7.408,,,220,17.3,22.9,,,,,,,,,wg-a,,,,AAXX 25184 07761 12765 72204 10200 20170 30152 40163 55000 60006 81532 91800 333 10229 20173=
07761,1997-05-25 21:00:00,17,1017.2,0.9,82,14,15000,3.704,,,50,,,,,,,,,,,wg-a,,,,AAXX 25214 07761 12765 70502 10170 20140 30161 40172 53009 60006 81532 92100=
07761,1997-05-26 00:00:00,14,1017.4,0.2,88,12,15000,14.816,,,60,,,,,,,,,,,wg-a,,,,AAXX 26004 07761 12/65 30608 10140 20120 30163 40174 50002 60006 80002 90000=
07761,1997-05-26 03:00:00,14,1016.5,-0.9,82,11,15000,14.816,,,50,,,,,,,,,,,wg-a,,,,AAXX 26034 07761 12/65 10508 10140 20110 30154 40165 56009 60006 80002 90300=
07761,1997-05-26 06:00:00,18,1016.9,0.4,68,12,25000,11.112,,,50,13.7,20.3,,,,,,,,,wg-a,,,,AAXX 26064 07761 02/75 00506 10180 20120 30158 40169 53004 60006 80000 90600 333 10203 20137 60004=
07761,1997-05-26 09:00:00,22,1016.6,-0.2,78,18,500,14.816,,,210,,,,,,,,,,,wg-a,,,,AAXX 26094 07761 12/00 02108 10220 20180 30156 40166 55002 60006 80000 90900=
07761,1997-05-26 12:00:00,23,1017.1,0.5,69,17,500,25.928,,,190,,,,,,,,,,,wg-a,,,,AAXX 26124 07761 12600 /1914 10230 20170 30161 40171 51005 60006 81100 91200=
07761,1997-05-26 15:00:00,22,1016.4,-0.7,73,17,20000,14.816,,,220,,,,,,,,,,,wg-a,,,,AAXX 26154 07761 12670 /2208 10220 20170 30154 40164 58007 60006 81100 91500=
07761,1997-05-26 18:00:00,20,1016.6,0.1,88,18,18000,11.112,,,210,18.3,24.3,,,,,,,,,wg-a,,,,AAXX 26184 07761 12/68 02106 10200 20180 30155 40166 53001 60006 80000 91800 333 10243 20183=
07761,1997-05-26 21:00:00,17,1016.7,0.1,88,15,15000,7.408,,,60,,,,,,,,,,,wg-a,,,,AAXX 26214 07761 12/65 00604 10170 20150 30156 40167 50001 60006 80000 92100=
07761,1997-05-27 00:00:00,14,1016.3,-0.4,88,12,14000,11.112,,,50,,,,,,,,,,,wg-a,,,,AAXX 27004 07761 12/64 00506 10140 20120 30152 40163 58004 60006 80000 90000=
07761,1997-05-27 03:00:00,13,1015.8,-0.5,88,11,15000,11.112,,,60,,,,,,,,,,,wg-a,,,,AAXX 27034 07761 12/65 00606 10130 20110 30147 40158 58005 60006 80000 90300=
07761,1997-05-27 06:00:00,17,1015.4,-0.4,72,12,25000,11.112,,,40,12.2,20.4,,,,,,,,,wg-a,,,,AAXX 27064 07761 02/75 00406 10170 20120 30143 40154 57004 60006 80000 90600 333 10204 20122 60004=
07761,1997-05-27 08:00:00,17,1015.4,-0.4,72,12,25000,11.112,,,40,12.2,20.4,,,,,,,,,wg-a,,,,AAXX 27084 07761 02/75 00406 10170 20120 30143 40154 57004 60006 80000 90800 333 10204 20122 60004=
07761,1997-05-27 09:00:00,22,1015.5,0.2,60,14,20000,14.816,,,230,,,,,,,,,,,wg-a,,,,AAXX 27094 07761 12/70 02308 10220 20140 30145 40155 53002 60006 80000 90900=
07761,1997-05-27 15:00:00,23,1013.4,-1.8,73,18,10000,11.112,,,200,,,,,,,,,,,wg-a,,,,AAXX 27154 07761 12/60 02006 10230 20180 30124 40134 57018 60006 80000 91500=
07761,1997-05-27 18:00:00,22,1013.2,-0.2,73,17,17000,7.408,,,200,17.2,23.1,,,,,,,,,wg-a,,,,AAXX 27184 07761 12/67 02004 10220 20170 30122 40132 55002 60006 80000 91800 333 10231 20172=
07761,1997-05-27 21:00:00,18,1014,0.7,83,15,15000,7.408,,,70,,,,,,,,,,,wg-a,,,,AAXX 27214 07761 12/65 00704 10180 20150 30129 40140 53007 60006 80000 92100=
07761,1997-05-28 00:00:00,15,1013.8,-0.2,82,12,15000,11.112,,,60,,,,,,,,,,,wg-a,,,,AAXX 28004 07761 12/65 00606 10150 20120 30127 40138 58002 60006 80000 90000=
07761,1997-05-28 03:00:00,15,1012.2,-1.6,72,10,15000,11.112,,,40,,,,,,,,,,,wg-a,,,,AAXX 28034 07761 12/65 00406 10150 20100 30111 40122 58016 60006 80000 90300=
07761,1997-05-28 06:00:00,17,1012.3,0.1,63,10,35000,11.112,,,40,12.7,21.5,,,,,,,,,wg-a,,,,AAXX 28064 07761 02/81 10406 10170 20100 30112 40123 50001 60006 80001 90600 333 10215 20127 60004=
07761,1997-05-28 09:00:00,25,1011.3,-0.9,41,11,35000,7.408,,,240,,,,,,,,,,,wg-a,,,,AAXX 28094 07761 12/81 12404 10250 20110 30103 40113 56009 60006 80001 90900=
07761,1997-05-28 12:00:00,24,1011.6,0.3,65,17,500,22.224,,,210,,,,,,,,,,,wg-a,,,,AAXX 28124 07761 12/00 12112 10240 20170 30106 40116 53003 60006 80001 91200=
07761,1997-05-28 15:00:00,24,1011.1,-0.5,61,16,500,18.52,,,220,,,,,,,,,,,wg-a,,,,AAXX 28154 07761 12/00 12210 10240 20160 30101 40111 56005 60006 80001 91500=
07761,1997-05-28 18:00:00,22,1011.4,0.3,65,15,500,7.408,,,210,17.1,24.7,,,,,,,,,wg-a,,,,AAXX 28184 07761 12/00 02104 10220 20150 30104 40114 53003 60006 80000 91800 333 10247 20171=
07761,1997-05-28 21:00:00,17,1013.7,2.2,68,11,10000,14.816,,,60,,,,,,,,,,,wg-a,,,,AAXX 28214 07761 12/60 /0608 10170 20110 30126 40137 53022 60006 92100=
07761,1997-05-29 00:00:00,16,1014.5,0.8,68,10,20000,3.704,,,50,,,,,,,,,,,wg-a,,,,AAXX 29004 07761 12/70 00502 10160 20100 30134 40145 53008 60006 80000 90000=
07761,1997-05-29 03:00:00,14,1015.6,1.1,77,10,20000,11.112,,,60,,,,,,,,,,,wg-a,,,,AAXX 29034 07761 12/70 00606 10140 20100 30145 40156 53011 60006 80000 90300=
07761,1997-05-29 06:00:00,18,1017,1.4,68,12,20000,7.408,,,50,13.3,22.3,,,,,,,,,wg-a,,,,AAXX 29064 07761 02/70 60504 10180 20120 30159 40170 53014 60006 80002 90600 333 10223 20133 60004=
07761,1997-05-29 09:00:00,22,1018.1,1.2,73,17,20000,14.816,,,210,,,,,,,,,,,wg-a,,,,AAXX 29094 07761 12/70 52108 10220 20170 30171 40181 51012 60006 80002 90900=
07761,1997-05-29 12:00:00,25,1018.3,0.2,65,18,10000,18.52,,,230,,,,,,,,,,,wg-a,,,,AAXX 29124 07761 12560 72310 10250 20180 30173 40183 50002 60006 81502 91200=
07761,1997-05-29 15:00:00,25,1018.7,0.4,47,13,11000,14.816,,,230,,,,,,,,,,,wg-a,,,,AAXX 29154 07761 12/61 /2308 10250 20130 30177 40187 53004 60006 91500=
07761,1997-05-29 18:00:00,21,1019.2,0.4,60,13,25000,18.52,,,200,18.2,26.5,,,,,,,,,wg-a,,,,AAXX 29184 07761 12675 /2010 10210 20130 30181 40192 53004 60006 81500 91800 333 10265 20182=
07761,1997-05-29 21:00:00,17,1020,0.8,72,12,20000,11.112,,,60,,,,,,,,,,,wg-a,,,,AAXX 29214 07761 12/70 00606 10170 20120 30189 40200 50008 60006 80000 92100=
07761,1997-05-30 00:00:00,14,1020.4,0.4,82,11,20000,7.408,,,50,,,,,,,,,,,wg-a,,,,AAXX 30004 07761 12/70 00504 10140 20110 30193 40204 53004 60006 80000 90000=
07761,1997-05-30 03:00:00,13,1019.2,-1.2,82,10,500,11.112,,,40,,,,,,,,,,,wg-a,,,,AAXX 30034 07761 12/00 10406 10130 20100 30181 40192 56012 60006 80001 90300=
07761,1997-05-30 06:00:00,17,1019,-0.2,68,11,40000,11.112,,,50,11.9,20.9,,,,,,,,,wg-a,,,,AAXX 30064 07761 02/82 20506 10170 20110 30179 40190 56002 60006 81032 90600 333 10209 20119 60004=
07761,1997-05-30 09:00:00,22,1018.2,-0.8,57,13,10000,14.816,,,220,,,,,,,,,,,wg-a,,,,AAXX 30094 07761 12/60 /2208 10220 20130 30171 40182 58008 60006 90900=
07761,1997-05-30 12:00:00,23,1017.1,-1,65,16,500,25.928,,,200,,,,,,,,,,,wg-a,,,,AAXX 30124 07761 12600 /2014 10230 20160 30161 40171 56010 60006 81132 91200=
07761,1997-05-30 15:00:00,24,1015.5,-1.6,44,11,500,11.112,,,210,,,,,,,,,,,wg-a,,,,AAXX 30154 07761 12600 /2106 10240 20110 30145 40155 57016 60006 81102 91500=
07761,1997-05-30 18:00:00,22,1015.1,-0.4,50,11,500,11.112,,,210,16.8,24.1,,,,,,,,,wg-a,,,,AAXX 30184 07761 12600 42106 10220 20110 30141 40151 55004 60006 81102 91800 333 10241 20168=
07761,1997-05-30 21:00:00,16,1015.3,0.1,63,9,500,7.408,,,50,,,,,,,,,,,wg-a,,,,AAXX 30214 07761 12/00 00504 10160 20090 30142 40153 50001 60006 80000 92100=
07761,1997-05-31 00:00:00,13,1015.3,0,77,9,500,11.112,,,70,,,,,,,,,,,wg-a,,,,AAXX 31004 07761 12/00 00706 10130 20090 30142 40153 50000 60006 80000 90000=
07761,1997-05-31 03:00:00,13,1013.7,-1.6,77,9,20000,14.816,,,50,,,,,,,,,,,wg-a,,,,AAXX 31034 07761 12/70 40508 10130 20090 30126 40137 58016 60006 80002 90300=
07761,1997-05-31 06:00:00,17,1013.6,-0.1,68,11,500,7.408,,,60,12.1,22.3,,,,,,,,,wg-a,,,,AAXX 31064 07761 02600 60604 10170 20110 30125 40136 58001 60006 81102 90600 333 10223 20121 60004=
07761,1997-05-31 09:00:00,21,1013.1,-0.4,73,16,500,14.816,,,220,,,,,,,,,,,wg-a,,,,AAXX 31094 07761 12/00 /2208 10210 20160 30121 40131 55004 60006 80002 90900=
07761,1997-05-31 12:00:00,23,1012.2,-0.9,69,17,500,18.52,,,210,,,,,,,,,,,wg-a,,,,AAXX 31124 07761 12600 /2110 10230 20170 30112 40122 58009 60006 81108 91200=
07761,1997-05-31 15:00:00,24,1010.8,-1.4,57,15,500,18.52,,,200,,,,,,,,,,,wg-a,,,,AAXX 31154 07761 12600 /2010 10240 20150 30098 40108 58014 60006 81208 91500=
07761,1997-05-31 18:00:00,21,1010.3,-0.5,78,17,500,22.224,,,190,16.6,24,,,,,,,,,wg-a,,,,AAXX 31184 07761 12600 /1912 10210 20170 30093 40103 56005 60006 81238 91800 333 10240 20166=
07761,1997-05-31 21:00:00,19,1011.3,0.9,83,16,11000,7.408,,,70,,,,,,,,,,,wg-a,,,,AAXX 31214 07761 12/61 /0704 10190 20160 30102 40113 53009 60006 92100=
07761,1997-06-01 00:00:00,17,1009.6,-1.7,82,14,11000,7.408,,,60,,,,,,,,,,,wg-a,,,,AAXX 01004 07761 12/61 /0604 10170 20140 30085 40096 58017 60006 90000=
07761,1997-06-01 03:00:00,16,1009.1,-0.5,82,13,20000,11.112,,,40,,,,,,,,,,,wg-a,,,,AAXX 01034 07761 12/70 60406 10160 20130 30080 40091 57005 60006 86031 90300=
07761,1997-06-01 06:00:00,18,1006.2,-2.9,73,13,25000,7.408,,,50,14.3,21.4,,,,,,,,21,wg-a,,,,AAXX 01064 07761 02675 70504 10180 20130 30051 40062 57029 61000 72161 83832 90600 333 10214 20143 6100=
07761,1997-06-01 09:00:00,21,1004.7,-1.4,64,14,25000,11.112,,,40,,,,,,,,,,25,wg-a,,,,AAXX 01094 07761 02675 80406 10210 20140 30037 40047 58014 61000 72586 8687/ 90900 333 ////=
07761,1997-06-01 12:00:00,19,1005.6,0.9,88,17,7000,31.484,,,230,,,,7,,,,,,80,wg-a,,,,AAXX 01124 07761 02357 82317 10190 20170 30046 40056 53009 60076 78098 879// 91200 333 60077=
07761,1997-06-01 15:00:00,21,1006.3,0.7,88,19,7000,29.632,,,210,,,,,,,,,,3,wg-a,,,,AAXX 01154 07761 02457 82116 10210 20190 30053 40063 51007 61000 70396 889// 91500 333 ////=
07761,1997-06-01 18:00:00,16,1008.5,2.1,94,15,6000,11.112,,,90,15.7,21.8,,,,,,,,80,wg-a,,,,AAXX 01184 07761 02256 80906 10160 20150 30074 40085 53021 61000 78098 889// 91800 333 10218 20157 6022=
07761,1997-06-01 21:00:00,16,1009.7,1.2,94,15,3000,11.112,,,80,,,,9,,,,,,80,wg-a,,,,AAXX 01214 07761 12330 80806 10160 20150 30086 40097 51012 60097 78099 889// 92100=
07761,1997-06-02 00:00:00,17,1009.5,-0.2,88,15,8000,7.408,,,70,,,,3,,,,,,17,wg-a,,,,AAXX 02004 07761 02358 80704 10170 20150 30084 40095 58002 60126 71799 879// 90000 333 60037=
07761,1997-06-02 03:00:00,19,1009,-0.5,88,17,8000,35.188,,,210,,,,,,,,,,17,wg-a,,,,AAXX 02034 07761 12458 72119 10190 20170 30079 40090 58005 60006 71799 879// 90300=
07761,1997-06-02 06:00:00,20,1010.7,1.7,83,17,9000,29.632,,,200,15.2,19.5,,,,,41,,,1,wg-a,,,,AAXX 02064 07761 02459 82016 10200 20170 30096 40107 53017 60006 70192 8687/ 90600 333 10195 20152 60414=
07761,1997-06-02 09:00:00,21,1012.2,1.5,78,17,12000,18.52,,,200,,,,,,,,,,21,wg-a,,,,AAXX 02094 07761 02462 82010 10210 20170 30111 40122 51015 61000 72162 8687/ 90900 333 ////=
07761,1997-06-02 12:00:00,19,1013.1,0.9,94,18,4000,31.484,,,210,,,,1,,,,,,61,wg-a,,,,AAXX 02124 07761 02440 82117 10190 20180 30120 40131 53009 60016 76198 879// 91200 333 60017=
07761,1997-06-02 15:00:00,17,1013.7,0.6,94,16,12000,11.112,,,80,,,,49,,,,,,80,wg-a,,,,AAXX 02154 07761 12462 80806 10170 20160 30126 40137 53006 60497 78096 889// 91500=
07761,1997-06-02 18:00:00,18,1013.5,-0.2,94,17,20000,7.408,,,60,16,21.2,,,,,,,,1,wg-a,,,,AAXX 02184 07761 02470 40604 10180 20170 30124 40135 55002 60006 70198 83202 91800 333 10212 20160 61000=
07761,1997-06-03 00:00:00,15,1015.1,0.2,94,14,15000,11.112,,,50,,,,,,,,,,,wg-a,,,,AAXX 03004 07761 12465 50506 10150 20140 30140 40151 51002 60006 85200 90000=
07761,1997-06-03 03:00:00,14,1014.9,-0.2,94,13,15000,14.816,,,60,,,,,,,,,,,wg-a,,,,AAXX 03034 07761 12465 /0608 10140 20130 30138 40149 56002 60006 81500 90300=
07761,1997-06-03 06:00:00,16,1015.4,0.5,94,15,18000,11.112,,,50,13.8,18.4,,,,,50,,,,wg-a,,,,AAXX 03064 07761 02568 40506 10160 20150 30143 40154 53005 60006 81832 90600 333 10184 20138 60504=
07761,1997-06-03 09:00:00,21,1016,0.6,78,17,25000,14.816,,,230,,,,,,,,,,,wg-a,,,,AAXX 03094 07761 12575 22308 10210 20170 30149 40160 51006 60006 82200 90900=
07761,1997-06-03 12:00:00,22,1016.5,0.6,78,18,500,22.224,,,240,,,,,,,,,,,wg-a,,,,AAXX 03124 07761 12600 32412 10220 20180 30155 40165 51006 60006 82201 91200=
07761,1997-06-03 15:00:00,22,1016.4,-0.1,73,17,40000,22.224,,,220,,,,,,,,,,,wg-a,,,,AAXX 03154 07761 12682 /2212 10220 20170 30154 40164 57001 60006 81201 91500=
07761,1997-06-03 18:00:00,21,1016.1,-0.4,78,17,35000,14.816,,,220,16.3,22.5,,,,,,,,,wg-a,,,,AAXX 03184 07761 12581 /2208 10210 20170 30150 40161 55004 60006 81102 91800 333 10225 20163=
07761,1997-06-03 21:00:00,17,1016.5,0.4,88,15,15000,11.112,,,50,,,,,,,,,,,wg-a,,,,AAXX 03214 07761 12565 30506 10170 20150 30154 40165 51004 60006 81102 92100=
07761,1997-06-04 00:00:00,15,1016.2,-0.3,94,14,15000,7.408,,,50,,,,,,,,,,,wg-a,,,,AAXX 04004 07761 12/65 30504 10150 20140 30151 40162 58003 60006 81032 90000=
07761,1997-06-04 03:00:00,14,1015.4,-0.8,88,12,15000,14.816,,,50,,,,,,,,,,,wg-a,,,,AAXX 04034 07761 12/65 10508 10140 20120 30143 40154 58008 60006 80001 90300=
07761,1997-06-04 06:00:00,17,1015.4,0,82,14,20000,11.112,,,40,13.4,20.4,,,,,,,,,wg-a,,,,AAXX 04064 07761 02/70 50406 10170 20140 30143 40154 50000 60006 80001 90600 333 10204 20134 60004=
07761,1997-06-04 09:00:00,23,1014.7,-0.6,65,16,500,14.816,,,230,,,,,,,,,,,wg-a,,,,AAXX 04094 07761 12/00 72308 10230 20160 30137 40147 55006 60006 80002 90900=
07761,1997-06-04 12:00:00,23,1014.5,-0.2,73,18,500,25.928,,,230,,,,,,,,,,,wg-a,,,,AAXX 04124 07761 12700 82314 10230 20180 30135 40145 58002 60006 81107 91200=
07761,1997-06-04 15:00:00,23,1013.5,-1,65,16,500,11.112,,,210,,,,,,,,,,,wg-a,,,,AAXX 04154 07761 12700 72106 10230 20160 30125 40135 57010 60006 81107 91500=
07761,1997-06-04 18:00:00,22,1011.6,-1.9,69,16,20000,0,,,0,17.2,24.6,,,,,,,,,wg-a,,,,AAXX 04184 07761 12/70 70000 10220 20160 30106 40116 56019 60006 81037 91800 333 10246 20172=
07761,1997-06-04 21:00:00,21,1012.6,1,73,16,15000,25.928,,,250,,,,,,,,,,,wg-a,,,,AAXX 04214 07761 12765 72514 10210 20160 30116 40126 53010 60006 83537 92100=
07761,1997-06-05 00:00:00,21,1009.9,-2.7,69,15,11000,11.112,,,30,,,,,,,,,,,wg-a,,,,AAXX 05004 07761 12/61 /0306 10210 20150 30089 40099 58027 60006 90000=
07761,1997-06-05 03:00:00,22,1008.9,-1,50,11,15000,14.816,,,110,,,,,,,,,,,wg-a,,,,AAXX 05034 07761 12765 81108 10220 20110 30079 40089 55010 60006 83577 90300=
07761,1997-06-05 06:00:00,20,1008.6,-0.3,64,13,10000,25.928,,,130,20,23.4,,,,,,,,60,wg-a,,,,AAXX 05064 07761 02660 81314 10200 20130 30076 40086 55003 61000 76062 8787/ 90600 333 10234 20200 6000=
07761,1997-06-05 09:00:00,19,1008.4,-0.3,83,16,18000,3.704,,,60,,,,3,,,,,,21,wg-a,,,,AAXX 05094 07761 12468 70602 10190 20160 30073 40084 58003 60037 72162 8687/ 90900=
07761,1997-06-05 12:00:00,22,1009.8,1.5,69,16,25000,18.52,,,220,,,,0,,,,,,3,wg-a,,,,AAXX 05124 07761 02575 /2210 10220 20160 30088 40098 51015 60036 70362 84242 91200 333 60007=
07761,1997-06-05 15:00:00,22,1008.7,-1.1,69,16,25000,11.112,,,280,,,,,,,,,,,wg-a,,,,AAXX 05154 07761 12575 52806 10220 20160 30077 40087 58011 60006 83903 91500=
07761,1997-06-05 18:00:00,21,1009.6,0.9,78,17,20000,11.112,,,220,17.4,22.9,,,,,,,,,wg-a,,,,AAXX 05184 07761 12470 62206 10210 20170 30086 40096 53009 60006 84903 91800 333 10229 20174=
07761,1997-06-06 00:00:00,17,1011.3,0.2,88,15,13000,14.816,,,50,,,,,,,,,,,wg-a,,,,AAXX 06004 07761 12463 /0508 10170 20150 30102 40113 50002 60006 81200 90000=
07761,1997-06-06 06:00:00,16,1012.9,1.6,88,14,18000,11.112,,,60,14.8,20.6,,,,,3,,,,wg-a,,,,AAXX 06064 07761 02468 70606 10160 20140 30118 40129 53016 60006 82831 90600 333 10206 20148 60034=
07761,1997-06-06 09:00:00,22,1013.5,0.7,69,16,25000,7.408,,,240,,,,,,,,,,,wg-a,,,,AAXX 06094 07761 12575 /2404 10220 20160 30125 40135 53007 60006 82232 90900=
07761,1997-06-06 12:00:00,23,1014.1,0.6,73,18,18000,18.52,,,230,,,,,,,,,,,wg-a,,,,AAXX 06124 07761 12568 42310 10230 20180 30131 40141 51006 60006 82202 91200=
07761,1997-06-06 15:00:00,23,1013.8,-0.3,73,18,18000,25.928,,,220,,,,,,,,,,,wg-a,,,,AAXX 06154 07761 12668 32214 10230 20180 30128 40138 55003 60006 81201 91500=
07761,1997-06-06 18:00:00,22,1013.8,-0,73,17,20000,11.112,,,230,16.5,23.3,,,,,,,,,wg-a,,,,AAXX 06184 07761 12670 22306 10220 20170 30128 40138 55000 60006 81201 91800 333 10233 20165=
07761,1997-06-06 21:00:00,18,1014.8,0.9,88,16,20000,7.408,,,60,,,,,,,,,,,wg-a,,,,AAXX 06214 07761 12/70 00604 10180 20160 30137 40148 53009 60006 80000 92100=
07761,1997-06-07 00:00:00,16,1015.2,0.4,88,14,20000,7.408,,,50,,,,,,,,,,,wg-a,,,,AAXX 07004 07761 12670 10504 10160 20140 30141 40152 52004 60006 81100 90000=
07761,1997-06-07 03:00:00,14,1014.4,-0.8,88,12,15000,11.112,,,40,,,,,,,,,,,wg-a,,,,AAXX 07034 07761 12/65 00406 10140 20120 30133 40144 56008 60006 80000 90300=
07761,1997-06-07 06:00:00,18,1014.9,0.5,77,14,25000,11.112,,,60,14,21.7,,,,,,,,,wg-a,,,,AAXX 07064 07761 02/75 10606 10180 20140 30138 40149 53005 60006 80002 90600 333 10217 20140 60004=
07761,1997-06-07 09:00:00,23,1015.1,0.3,61,15,500,18.52,,,230,,,,,,,,,,,wg-a,,,,AAXX 07094 07761 12700 /2310 10230 20150 30141 40151 53003 60006 81102 90900=
07761,1997-06-07 12:00:00,23,1015.6,0.5,73,18,500,11.112,,,230,,,,,,,,,,,wg-a,,,,AAXX 07124 07761 12600 /2306 10230 20180 30146 40156 50005 60006 81102 91200=
07761,1997-06-07 18:00:00,22,1014.5,-1.4,78,18,40000,7.408,,,240,18.1,23.7,,,,,,,,,wg-a,,,,AAXX 07184 07761 12/82 /2404 10220 20180 30135 40145 58014 60006 83032 91800 333 10237 20181=
07761,1997-06-07 21:00:00,20,1016.6,2,83,17,20000,3.704,,,140,,,,,,,,,,,wg-a,,,,AAXX 07214 07761 12/70 /1402 10200 20170 30155 40166 53020 60006 82032 92100=
07761,1997-06-08 00:00:00,18,1015.8,-0.8,83,15,18000,11.112,,,50,,,,,,,,,,,wg-a,,,,AAXX 08004 07761 12/68 20506 10180 20150 30147 40158 58008 60006 80002 90000=
07761,1997-06-08 03:00:00,17,1016.5,0.7,82,14,500,11.112,,,50,,,,,,,,,,,wg-a,,,,AAXX 08034 07761 12/00 20506 10170 20140 30154 40165 53007 60006 81031 90300=
07761,1997-06-08 06:00:00,20,1017.2,0.7,73,15,40000,7.408,,,50,15.7,22.4,,,,,,,,,wg-a,,,,AAXX 08064 07761 02782 /0504 10200 20150 30161 40172 51007 60006 81282 90600 333 10224 20157 60004=
07761,1997-06-08 09:00:00,24,1017.4,0.3,65,17,40000,7.408,,,240,,,,,,,,,,,wg-a,,,,AAXX 08094 07761 12682 /2404 10240 20170 30164 40174 50003 60006 81182 90900=
07761,1997-06-08 12:00:00,24,1017.9,0.5,74,19,40000,14.816,,,220,,,,,,,,,,,wg-a,,,,AAXX 08124 07761 12682 /2208 10240 20190 30169 40179 51005 60006 81282 91200=
07761,1997-06-08 15:00:00,25,1017.6,-0.3,69,19,40000,14.816,,,210,,,,,,,,,,,wg-a,,,,AAXX 08154 07761 12682 /2108 10250 20190 30166 40176 55003 60006 81202 91500=
07761,1997-06-08 18:00:00,25,1018.6,1,50,14,40000,7.408,,,190,19.6,25.3,,,,,,,,,wg-a,,,,AAXX 08184 07761 12/82 71904 10250 20140 30176 40186 53010 60006 81082 91800 333 10253 20196=
07761,1997-06-08 21:00:00,21,1019.5,0.8,64,14,25000,11.112,,,50,,,,,,,,,,,wg-a,,,,AAXX 08214 07761 12/75 70506 10210 20140 30184 40195 53008 60006 81082 92100=
07761,1997-06-09 06:00:00,20,1019.9,1.1,68,14,40000,3.704,,,340,15.2,25.1,,,,,,,,,wg-a,,,,AAXX 09064 07761 02482 53402 10200 20140 30188 40199 53011 60006 81532 90600 333 10251 20152 60004=
07761,1997-06-09 09:00:00,23,1020.6,0.8,78,19,17000,11.112,,,230,,,,,,,,,,,wg-a,,,,AAXX 09094 07761 12667 /2306 10230 20190 30196 40206 50008 60006 81102 90900=
07761,1997-06-09 12:00:00,26,1019.6,-1,70,20,500,18.52,,,220,,,,,,,,,,,wg-a,,,,AAXX 09124 07761 12600 /2210 10260 20200 30186 40196 55010 60006 81102 91200=
07761,1997-06-09 15:00:00,25,1018.7,-0.9,65,18,40000,11.112,,,220,,,,,,,,,,,wg-a,,,,AAXX 09154 07761 12682 /2206 10250 20180 30177 40187 58009 60006 81202 91500=
07761,1997-06-09 18:00:00,23,1018.8,0.1,78,19,500,11.112,,,210,19.8,26.4,,,,,,,,,wg-a,,,,AAXX 09184 07761 12700 /2106 10230 20190 30178 40188 53001 60006 81532 91800 333 10264 20198=
07761,1997-06-09 21:00:00,20,1019.1,0.2,83,17,20000,3.704,,,50,,,,,,,,,,,wg-a,,,,AAXX 09214 07761 12770 /0502 10200 20170 30180 40191 51002 60006 81532 92100=
07761,1997-06-10 00:00:00,18,1018,-1.1,83,15,20000,11.112,,,50,,,,,,,,,,,wg-a,,,,AAXX 10004 07761 12/70 30506 10180 20150 30169 40180 58011 60006 81032 90000=
07761,1997-06-10 03:00:00,18,1016.8,-1.2,83,15,20000,11.112,,,50,,,,,,,,,,,wg-a,,,,AAXX 10034 07761 12770 40506 10180 20150 30157 40168 58012 60006 82532 90300=
07761,1997-06-10 06:00:00,22,1016.9,0.2,69,16,10000,7.408,,,50,17.4,22.9,,,,,,,,,wg-a,,,,AAXX 10064 07761 02/60 /0504 10220 20160 30159 40169 51002 60006 90600 333 10229 20174 60004=
07761,1997-06-10 09:00:00,24,1016.9,0,74,19,35000,7.408,,,250,,,,,,,,,,,wg-a,,,,AAXX 10094 07761 12781 42504 10240 20190 30159 40169 50000 60006 82132 90900=
07761,1997-06-10 12:00:00,26,1015.3,-1.6,61,18,25000,11.112,,,210,,,,,,,,,,,wg-a,,,,AAXX 10124 07761 12675 52106 10260 20180 30143 40153 56016 60006 84830 91200=
07761,1997-06-10 15:00:00,25,1014.2,-1.1,69,19,25000,14.816,,,210,,,,,,,,,,,wg-a,,,,AAXX 10154 07761 12675 52108 10250 20190 30132 40142 58011 60006 81831 91500=
07761,1997-06-10 18:00:00,25,1013.6,-0.6,65,18,25000,3.704,,,240,22.3,26.6,,,,,,,,,wg-a,,,,AAXX 10184 07761 12675 72402 10250 20180 30126 40136 55006 60006 82181 91800 333 10266 20223=
07761,1997-06-10 21:00:00,22,1013.2,-0.4,78,18,20000,11.112,,,60,,,,,,,,,,,wg-a,,,,AAXX 10214 07761 12670 50606 10220 20180 30122 40132 58004 60006 81572 92100=
07761,1997-06-11 00:00:00,21,1012.2,-1,78,17,18000,7.408,,,60,,,,,,,,,,,wg-a,,,,AAXX 11004 07761 12/68 30604 10210 20170 30112 40122 57010 60006 81032 90000=
07761,1997-06-11 03:00:00,19,1013.3,1,83,16,18000,11.112,,,50,,,,,,,,,,,wg-a,,,,AAXX 11034 07761 12668 50506 10190 20160 30122 40133 53010 60006 81532 90300=
07761,1997-06-11 06:00:00,22,1012.8,-0.4,65,15,500,11.112,,,70,18.7,24.7,,,,,,,,,wg-a,,,,AAXX 11064 07761 02600 /0706 10220 20150 30118 40128 57004 60006 81582 90600 333 10247 20187 60004=
07761,1997-06-11 09:00:00,33,1011.6,-1.2,34,15,500,11.112,,,50,,,,,,,,,,,wg-a,,,,AAXX 11094 07761 12/00 70506 10330 20150 30106 40116 58012 60006 83032 90900=
07761,1997-06-11 12:00:00,27,1010.3,-1.3,62,19,20000,7.408,,,240,,,,,,,,,,,wg-a,,,,AAXX 11124 07761 12770 /2404 10270 20190 30093 40103 56013 60006 81532 91200=
07761,1997-06-11 15:00:00,30,1011,0.7,40,15,25000,7.408,,,160,,,,,,,,,,,wg-a,,,,AAXX 11154 07761 12775 /1604 10300 20150 30100 40110 53007 60006 81532 91500=
07761,1997-06-11 18:00:00,26,1011.3,0.3,54,16,500,7.408,,,190,21.9,33.3,,,,,,,,,wg-a,,,,AAXX 11184 07761 12/00 01904 10260 20160 30103 40113 50003 60006 80000 91800 333 10333 20219=
07761,1997-06-11 21:00:00,22,1010.3,-1,78,18,20000,11.112,,,50,,,,,,,,,,,wg-a,,,,AAXX 11214 07761 12/70 40506 10220 20180 30093 40103 58010 60006 80001 92100=
07761,1997-06-12 00:00:00,22,1011.9,1.6,88,20,20000,7.408,,,190,,,,,,,,,,,wg-a,,,,AAXX 12004 07761 12570 21904 10220 20200 30109 40119 53016 60006 81501 90000=
07761,1997-06-12 03:00:00,20,1010.9,-1.1,83,17,20000,11.112,,,70,,,,,,,,,,,wg-a,,,,AAXX 12034 07761 12570 /0706 10200 20170 30098 40109 58011 60006 82541 90300=
07761,1997-06-12 06:00:00,20,1011.1,0.3,83,17,20000,7.408,,,60,18.9,25.5,,,,,,,,,wg-a,,,,AAXX 12064 07761 02570 50604 10200 20170 30101 40111 52003 60006 82541 90600 333 10255 20189 60004=
07761,1997-06-12 09:00:00,25,1010.9,-0.2,69,19,15000,14.816,,,240,,,,,,,,,,,wg-a,,,,AAXX 12094 07761 12565 52408 10250 20190 30099 40109 58002 60006 82841 90900=
07761,1997-06-12 12:00:00,26,1009.6,-1.3,70,20,10000,18.52,,,240,,,,,,,,,,,wg-a,,,,AAXX 12124 07761 12560 72410 10260 20200 30086 40096 57013 60006 81141 91200=
07761,1997-06-12 15:00:00,26,1009.8,0.2,74,21,11000,18.52,,,230,,,,,,,,,,,wg-a,,,,AAXX 12154 07761 12/61 /2310 10260 20210 30088 40098 53002 60006 91500=
07761,1997-06-12 18:00:00,23,1009.2,-0.6,83,20,15000,7.408,,,210,20.5,26.1,,,,,,,,,wg-a,,,,AAXX 12184 07761 12665 72104 10230 20200 30082 40092 58006 60006 81541 91800 333 10261 20205=
07761,1997-06-12 21:00:00,21,1009.6,0.4,83,18,10000,7.408,,,50,,,,,,,,,,,wg-a,,,,AAXX 12214 07761 12760 70504 10210 20180 30086 40096 53004 60006 81532 92100=
07761,1997-06-13 00:00:00,20,1010,0.3,88,18,10000,7.408,,,60,,,,,,,,,,,wg-a,,,,AAXX 13004 07761 12560 70604 10200 20180 30089 40100 50003 60006 82502 90000=
07761,1997-06-13 03:00:00,18,1008.4,-1.6,88,16,10000,7.408,,,70,,,,,,,,,,,wg-a,,,,AAXX 13034 07761 12560 /0704 10180 20160 30073 40084 58016 60006 81502 90300=
07761,1997-06-13 06:00:00,20,1008.8,0.5,83,17,10000,7.408,,,70,17.7,23,,,,,,,,,wg-a,,,,AAXX 13064 07761 02/60 70704 10200 20170 30078 40088 53005 60006 81032 90600 333 10230 20177 60004=
07761,1997-06-13 09:00:00,24,1009.1,0.3,78,20,10000,11.112,,,230,,,,,,,,,,,wg-a,,,,AAXX 13094 07761 12460 72306 10240 20200 30081 40091 50003 60006 83632 90900=
07761,1997-06-13 12:00:00,25,1008.9,-0.2,79,21,10000,18.52,,,230,,,,,,,,,,,wg-a,,,,AAXX 13124 07761 12660 72310 10250 20210 30079 40089 57002 60006 81132 91200=
07761,1997-06-13 15:00:00,25,1008.7,-0.2,79,21,10000,11.112,,,230,,,,,,,,,,,wg-a,,,,AAXX 13154 07761 12660 72306 10250 20210 30077 40087 58002 60006 81132 91500=
07761,1997-06-13 18:00:00,25,1007.4,-1.3,74,20,10000,3.704,,,270,19.6,25.7,,,,,,,,,wg-a,,,,AAXX 13184 07761 12660 72702 10250 20200 30064 40074 57013 60006 81132 91800 333 10257 20196=
07761,1997-06-13 21:00:00,22,1009.3,1.9,88,20,10000,3.704,,,60,,,,,,,,,,,wg-a,,,,AAXX 13214 07761 12660 70602 10220 20200 30083 40093 51019 60006 81132 92100=
07761,1997-06-14 00:00:00,20,1009.1,-0.2,88,18,10000,7.408,,,60,,,,,,,,,,,wg-a,,,,AAXX 14004 07761 12/60 00604 10200 20180 30081 40091 57002 60006 80000 90000=
07761,1997-06-14 03:00:00,18,1009,-0.2,88,16,10000,7.408,,,60,,,,,,,,,,,wg-a,,,,AAXX 14034 07761 12/60 20604 10180 20160 30079 40090 55002 60006 80002 90300=
07761,1997-06-14 06:00:00,21,1010.2,1.3,78,17,10000,7.408,,,60,17.2,25.5,,,,,,,,,wg-a,,,,AAXX 14064 07761 02460 /0604 10210 20170 30092 40102 51013 60006 81701 90600 333 10255 20172 60004=
07761,1997-06-14 09:00:00,25,1011,0.8,79,21,10000,14.816,,,230,,,,,,,,,,,wg-a,,,,AAXX 14094 07761 12760 /2308 10250 20210 30100 40110 51008 60006 81100 90900=
07761,1997-06-14 12:00:00,26,1011.7,0.7,79,22,12000,14.816,,,210,,,,,,,,,,,wg-a,,,,AAXX 14124 07761 12762 /2108 10260 20220 30107 40117 51007 60006 81100 91200=
07761,1997-06-14 15:00:00,26,1011.4,-0.3,79,22,12000,22.224,,,220,,,,,,,,,,,wg-a,,,,AAXX 14154 07761 12762 /2212 10260 20220 30104 40114 55003 60006 81100 91500=
07761,1997-06-14 18:00:00,24,1012,0.6,83,21,12000,14.816,,,200,20.9,26.6,,,,,,,,,wg-a,,,,AAXX 14184 07761 12562 /2008 10240 20210 30110 40120 53006 60006 81430 91800 333 10266 20209=
07761,1997-06-14 21:00:00,22,1013.6,1.6,88,20,12000,3.704,,,90,,,,,,,,,,,wg-a,,,,AAXX 14214 07761 12462 70902 10220 20200 30126 40136 53016 60006 875// 92100=
07761,1997-06-15 00:00:00,20,1013.7,0,94,19,12000,7.408,,,80,,,,,,,,,,,wg-a,,,,AAXX 15004 07761 12462 /0804 10200 20190 30126 40137 50000 60006 81500 90000=
07761,1997-06-15 06:00:00,20,1014.5,1.2,78,16,10000,7.408,,,50,17.3,24.1,,,,,,,,,wg-a,,,,AAXX 15064 07761 02/60 /0504 10200 20160 30134 40145 51012 60006 90600 333 10241 20173 60004=
07761,1997-06-15 09:00:00,25,1015.1,0.7,69,19,12000,14.816,,,210,,,,,,,,,,,wg-a,,,,AAXX 15094 07761 12662 12108 10250 20190 30141 40151 53007 60006 81102 90900=
07761,1997-06-15 12:00:00,26,1015.5,0.4,70,20,20000,25.928,,,190,,,,,,,,,,,wg-a,,,,AAXX 15124 07761 12670 /1914 10260 20200 30145 40155 51004 60006 81100 91200=
07761,1997-06-15 15:00:00,27,1015.3,-0.2,54,17,500,18.52,,,250,,,,,,,,,,,wg-a,,,,AAXX 15154 07761 12/00 12510 10270 20170 30143 40153 57002 60006 80002 91500=
07761,1997-06-15 18:00:00,24,1015.1,-0.2,54,14,500,11.112,,,190,20.4,27.9,,,,,,,,,wg-a,,,,AAXX 15184 07761 12/00 61906 10240 20140 30141 40151 55002 60006 80002 91800 333 10279 20204=
07761,1997-06-15 21:00:00,20,1017,1.8,68,14,20000,11.112,,,60,,,,,,,,,,,wg-a,,,,AAXX 15214 07761 12/70 40606 10200 20140 30159 40170 52018 60006 80002 92100=
07761,1997-06-16 00:00:00,17,1017.2,0.2,68,11,20000,14.816,,,60,,,,,,,,,,,wg-a,,,,AAXX 16004 07761 12/70 30608 10170 20110 30161 40172 50002 60006 81032 90000=
07761,1997-06-16 03:00:00,15,1015.8,-1.4,67,9,20000,11.112,,,50,,,,,,,,,,,wg-a,,,,AAXX 16034 07761 12/70 40506 10150 20090 30147 40158 58014 60006 80002 90300=
07761,1997-06-16 06:00:00,20,1015.3,-0.5,46,8,20000,14.816,,,40,14.8,24.5,,,,,,,,,wg-a,,,,AAXX 16064 07761 02/70 30408 10200 20080 30142 40153 58005 60006 81031 90600 333 10245 20148 60004=
07761,1997-06-16 09:00:00,25,1016,0.8,54,15,20000,22.224,,,240,,,,,,,,,,,wg-a,,,,AAXX 16094 07761 12/70 32412 10250 20150 30150 40160 53008 60006 81031 90900=
07761,1997-06-16 12:00:00,26,1015.3,-0.7,61,18,500,14.816,,,230,,,,,,,,,,,wg-a,,,,AAXX 16124 07761 12600 52308 10260 20180 30143 40153 58007 60006 81282 91200=
07761,1997-06-16 18:00:00,25,1012.7,-1.3,61,17,11000,7.408,,,290,19.9,27.4,,,,,,,,,wg-a,,,,AAXX 16184 07761 12/61 /2904 10250 20170 30117 40127 58013 60006 91800 333 10274 20199=
07761,1997-06-16 21:00:00,21,1014.3,1.6,73,16,20000,11.112,,,50,,,,,,,,,,,wg-a,,,,AAXX 16214 07761 12770 70506 10210 20160 30133 40143 51016 60006 81282 92100=
07761,1997-06-17 00:00:00,20,1014.8,0.4,78,16,20000,7.408,,,60,,,,,,,,,,,wg-a,,,,AAXX 17004 07761 12/70 40604 10200 20160 30137 40148 50004 60006 81082 90000=
07761,1997-06-17 03:00:00,19,1013.4,-1.4,78,15,20000,7.408,,,70,,,,,,,,,,,wg-a,,,,AAXX 17034 07761 12/70 60704 10190 20150 30123 40134 56014 60006 84082 90300=
07761,1997-06-17 06:00:00,22,1012.8,-0.5,69,16,18000,7.408,,,50,18.3,25.3,,,,,,,,,wg-a,,,,AAXX 17064 07761 02868 50504 10220 20160 30118 40128 57005 60006 82582 90600 333 10253 20183 60004=
07761,1997-06-17 09:00:00,26,1014.2,1.4,65,19,18000,14.816,,,200,,,,,,,,,,,wg-a,,,,AAXX 17094 07761 12868 /2008 10260 20190 30132 40142 53014 60006 81582 90900=
07761,1997-06-17 12:00:00,26,1014.1,-0.1,65,19,500,22.224,,,210,,,,,,,,,,,wg-a,,,,AAXX 17124 07761 12600 32112 10260 20190 30131 40141 58001 60006 81202 91200=
07761,1997-06-17 15:00:00,26,1013.2,-0.9,70,20,11000,18.52,,,200,,,,,,,,,,,wg-a,,,,AAXX 17154 07761 12/61 /2010 10260 20200 30122 40132 58009 60006 91500=
07761,1997-06-17 18:00:00,24,1011.7,-1.5,74,19,20000,7.408,,,130,22.3,27.3,,,,,,,,,wg-a,,,,AAXX 17184 07761 12670 /1304 10240 20190 30107 40117 58015 60006 83282 91800 333 10273 20223=
07761,1997-06-17 21:00:00,22,1014.4,2.7,83,19,20000,7.408,,,70,,,,,,,,,,3,wg-a,,,,AAXX 17214 07761 02/70 50704 10220 20190 30134 40144 53027 61000 70386 85080 92100 333 ////=
07761,1997-06-18 00:00:00,20,1013.9,-0.6,83,17,20000,11.112,,,50,,,,,,,,,,2,wg-a,,,,AAXX 18004 07761 02/70 30506 10200 20170 30128 40139 58006 61000 70286 82032 90000 333 ////=
07761,1997-06-18 03:00:00,19,1011.7,-2.2,83,16,20000,3.704,,,110,,,,,,,,,,,wg-a,,,,AAXX 18034 07761 12/70 /1102 10190 20160 30106 40117 56022 60006 81032 90300=
07761,1997-06-18 06:00:00,21,1012.2,0.6,73,16,25000,3.704,,,50,17.1,24.6,,,,,,,,,wg-a,,,,AAXX 18064 07761 02675 /0502 10210 20160 30112 40122 53006 60006 83132 90600 333 10246 20171 61000=
07761,1997-06-18 09:00:00,25,1012.6,0.4,61,17,25000,7.408,,,210,,,,,,,,,,,wg-a,,,,AAXX 18094 07761 12675 72104 10250 20170 30116 40126 51004 60006 81132 90900=
07761,1997-06-18 12:00:00,26,1012.6,-0,70,20,25000,22.224,,,210,,,,,,,,,,,wg-a,,,,AAXX 18124 07761 12775 72112 10260 20200 30116 40126 55000 60006 81175 91200=
07761,1997-06-18 15:00:00,26,1010.5,-2.1,65,19,18000,7.408,,,210,,,,,,,,,,,wg-a,,,,AAXX 18154 07761 12868 82104 10260 20190 30095 40105 58021 60006 84026 91500=
07761,1997-06-18 18:00:00,26,1009.1,-1.4,48,14,18000,7.408,,,280,21.5,27.2,,,,,,,,,wg-a,,,,AAXX 18184 07761 12/68 72804 10260 20140 30081 40091 55014 60006 81036 91800 333 10272 20215=
07761,1997-06-18 21:00:00,22,1011.5,2.4,73,17,18000,3.704,,,90,,,,,,,,,,,wg-a,,,,AAXX 18214 07761 12/68 70902 10220 20170 30105 40115 53024 60006 82036 92100=
07761,1997-06-19 00:00:00,21,1008.6,-2.9,78,17,18000,11.112,,,50,,,,,,,,,,,wg-a,,,,AAXX 19004 07761 12/68 80506 10210 20170 30076 40086 58029 60006 8707/ 90000=
07761,1997-06-19 03:00:00,20,1007.3,-1.3,78,16,18000,11.112,,,70,,,,,,,,,,,wg-a,,,,AAXX 19034 07761 12868 70706 10200 20160 30063 40073 56013 60006 83076 90300=
07761,1997-06-19 06:00:00,22,1005.6,-1.7,69,16,18000,14.816,,,50,19.7,26.1,,,,,,,,,wg-a,,,,AAXX 19064 07761 02768 40508 10220 20160 30046 40056 56017 60006 82580 90600 333 10261 20197 60004=
07761,1997-06-19 12:00:00,24,1008.2,1.1,65,17,20000,31.484,,,230,,,,,,,,,,,wg-a,,,,AAXX 19124 07761 12570 52317 10240 20170 30075 40082 51011 60006 8/300 91200=
07761,1997-06-19 15:00:00,23,1008.3,0.1,65,16,18000,29.632,,,270,,,,,,,,,,1,wg-a,,,,AAXX 19154 07761 02568 42716 10230 20160 30073 40083 52001 61000 70186 84300 91500 333 ////=
07761,1997-06-19 18:00:00,22,1008.9,0.6,65,15,20000,18.52,,,260,21.5,25.8,,,,,,,,3,wg-a,,,,AAXX 19184 07761 12570 52610 10220 20150 30079 40089 51006 60006 70386 84201 91800 333 10258 20215=
07761,1997-06-19 21:00:00,20,1010.2,1.3,78,16,15000,3.704,,,300,,,,,,,,,,,wg-a,,,,AAXX 19214 07761 12565 33002 10200 20160 30092 40102 53013 60006 83201 92100=
07761,1997-06-20 00:00:00,20,1009.6,-0.6,73,15,15000,7.408,,,330,,,,,,,,,,,wg-a,,,,AAXX 20004 07761 12565 23304 10200 20150 30086 40096 58006 60006 82201 90000=
07761,1997-06-20 06:00:00,21,1010.5,1.6,69,15,17000,14.816,,,270,18.7,21.7,,,,,,,,,wg-a,,,,AAXX 20064 07761 02567 /2708 10210 20150 30095 40105 53016 60006 82254 90600 333 10217 20187 61000=
07761,1997-06-20 09:00:00,24,1011.7,1.2,54,14,17000,22.224,,,250,,,,,,,,,,,wg-a,,,,AAXX 20094 07761 12567 62512 10240 20140 30107 40117 53012 60006 82254 90900=
07761,1997-06-20 12:00:00,24,1012.1,0.4,57,15,20000,25.928,,,230,,,,,,,,,,,wg-a,,,,AAXX 20124 07761 12570 52314 10240 20150 30111 40121 50004 60006 82252 91200=
07761,1997-06-20 15:00:00,23,1011.9,-0.2,61,15,20000,14.816,,,220,,,,,,,,,,,wg-a,,,,AAXX 20154 07761 12670 52208 10230 20150 30109 40119 56002 60006 82252 91500=
07761,1997-06-20 18:00:00,22,1011.7,-0.2,60,14,20000,7.408,,,250,21.2,24.3,,,,,,,,,wg-a,,,,AAXX 20184 07761 12670 62504 10220 20140 30107 40117 56002 60006 82252 91800 333 10243 20212=
07761,1997-06-20 21:00:00,19,1012.4,0.6,73,14,20000,14.816,,,50,,,,,,,,,,,wg-a,,,,AAXX 20214 07761 12670 /0508 10190 20140 30113 40124 53006 60006 81242 92100=
07761,1997-06-21 00:00:00,17,1011.9,-0.5,72,12,20000,7.408,,,30,,,,,,,,,,,wg-a,,,,AAXX 21004 07761 12670 /0304 10170 20120 30108 40119 58005 60006 81500 90000=
07761,1997-06-21 03:00:00,16,1011.1,-0.8,77,12,20000,11.112,,,40,,,,,,,,,,,wg-a,,,,AAXX 21034 07761 12/70 /0406 10160 20120 30100 40111 58008 60006 80001 90300=
07761,1997-06-21 06:00:00,19,1011.8,0.7,73,14,20000,11.112,,,50,15.3,22.4,,,,,,,,,wg-a,,,,AAXX 21064 07761 02/70 00506 10190 20140 30107 40118 53007 60006 80000 90600 333 10224 20153 60004=
07761,1997-06-21 09:00:00,25,1012.1,0.4,61,17,20000,11.112,,,240,,,,,,,,,,,wg-a,,,,AAXX 21094 07761 12670 32406 10250 20170 30111 40121 53004 60006 81101 90900=
07761,1997-06-21 12:00:00,27,1011.2,-0.9,48,15,20000,7.408,,,250,,,,,,,,,,,wg-a,,,,AAXX 21124 07761 12770 22504 10270 20150 30102 40112 58009 60006 81202 91200=
07761,1997-06-21 15:00:00,29,1009.3,-1.9,33,11,500,7.408,,,230,,,,,,,,,,,wg-a,,,,AAXX 21154 07761 12700 /2304 10290 20110 30083 40093 57019 60006 81101 91500=
07761,1997-06-21 18:00:00,27,1007.8,-1.5,48,15,500,7.408,,,220,19.4,29.2,,,,,,,,,wg-a,,,,AAXX 21184 07761 12/00 22204 10270 20150 30068 40078 56015 60006 80001 91800 333 10292 20194=
07761,1997-06-21 21:00:00,21,1007.6,-0.2,56,12,500,11.112,,,40,,,,,,,,,,,wg-a,,,,AAXX 21214 07761 12/00 20406 10210 20120 30066 40076 58002 60006 80001 92100=
07761,1997-06-22 00:00:00,20,1006.2,-1.4,53,10,500,11.112,,,30,,,,,,,,,,,wg-a,,,,AAXX 22004 07761 12/00 20306 10200 20100 30052 40062 56014 60006 80001 90000=
07761,1997-06-22 03:00:00,17,1006.1,-0.2,68,11,500,14.816,,,60,,,,,,,,,,,wg-a,,,,AAXX 22034 07761 12/00 20608 10170 20110 30050 40061 58002 60006 80001 90300=
07761,1997-06-22 06:00:00,21,1006.3,0.3,60,13,17000,7.408,,,50,16.2,27.3,,,,,,,,,wg-a,,,,AAXX 22064 07761 02567 /0504 10210 20130 30053 40063 50003 60006 81800 90600 333 10273 20162 60004=
07761,1997-06-22 09:00:00,25,1006.8,0.5,74,20,17000,18.52,,,240,,,,,,,,,,,wg-a,,,,AAXX 22094 07761 12567 /2410 10250 20200 30058 40068 53005 60006 81100 90900=
07761,1997-06-22 12:00:00,25,1007.8,1,74,20,15000,7.408,,,230,,,,,,,,,,,wg-a,,,,AAXX 22124 07761 12565 /2304 10250 20200 30068 40078 50010 60006 81201 91200=
07761,1997-06-22 15:00:00,25,1007.6,-0.2,69,19,20000,25.928,,,240,,,,,,,,,,,wg-a,,,,AAXX 22154 07761 12570 32414 10250 20190 30066 40076 55002 60006 81231 91500=
07761,1997-06-22 18:00:00,23,1008.8,1.2,61,15,11000,14.816,,,320,20.9,26.1,,,,,,,,,wg-a,,,,AAXX 22184 07761 12/61 /3208 10230 20150 30078 40088 53012 60006 91800 333 10261 20209=
07761,1997-06-22 21:00:00,20,1010.8,1.9,64,13,20000,11.112,,,330,,,,,,,,,,,wg-a,,,,AAXX 22214 07761 12570 43306 10200 20130 30097 40108 53019 60006 81531 92100=
07761,1997-06-23 00:00:00,18,1011.2,0.4,73,13,20000,7.408,,,60,,,,,,,,,,,wg-a,,,,AAXX 23004 07761 12570 30604 10180 20130 30101 40112 53004 60006 83500 90000=
07761,1997-06-23 03:00:00,18,1011.1,-0.1,68,12,20000,7.408,,,330,,,,,,,,,,,wg-a,,,,AAXX 23034 07761 12570 23304 10180 20120 30100 40111 55001 60006 82500 90300=
07761,1997-06-23 06:00:00,20,1011.7,0.6,64,13,20000,11.112,,,300,16.3,22.6,,,,,,,,,wg-a,,,,AAXX 23064 07761 02570 33006 10200 20130 30106 40117 53006 60006 83200 90600 333 10226 20163 60004=
07761,1997-06-23 09:00:00,22,1012.5,0.9,50,11,20000,22.224,,,310,,,,,,,,,,,wg-a,,,,AAXX 23094 07761 12670 33112 10220 20110 30115 40125 52009 60006 83200 90900=
07761,1997-06-23 12:00:00,23,1013.6,1.1,50,12,25000,25.928,,,270,,,,,,,,,,,wg-a,,,,AAXX 23124 07761 12675 32714 10230 20120 30126 40136 51011 60006 83200 91200=
07761,1997-06-23 15:00:00,23,1013.7,0.1,53,13,25000,31.484,,,250,,,,,,,,,,,wg-a,,,,AAXX 23154 07761 12675 22517 10230 20130 30127 40137 53001 60006 82200 91500=
07761,1997-06-23 18:00:00,20,1013.6,-0.2,60,12,25000,22.224,,,280,20.1,23.5,,,,,,,,,wg-a,,,,AAXX 23184 07761 12675 42812 10200 20120 30125 40136 55002 60006 84200 91800 333 10235 20201=
07761,1997-06-23 21:00:00,19,1014.5,0.9,68,13,25000,7.408,,,70,,,,,,,,,,,wg-a,,,,AAXX 23214 07761 12675 20704 10190 20130 30134 40145 53009 60006 82200 92100=
07761,1997-06-24 00:00:00,18,1014,-0.5,73,13,25000,7.408,,,80,,,,,,,,,,,wg-a,,,,AAXX 24004 07761 12675 30804 10180 20130 30129 40140 58005 60006 83200 90000=
07761,1997-06-24 03:00:00,16,1013.2,-0.8,82,13,25000,7.408,,,60,,,,,,,,,,,wg-a,,,,AAXX 24034 07761 12575 30604 10160 20130 30121 40132 56008 60006 83200 90300=
07761,1997-06-24 06:00:00,21,1013.4,0.2,60,13,25000,11.112,,,300,15.8,20.7,,,,,,,,,wg-a,,,,AAXX 24064 07761 02575 23006 10210 20130 30123 40134 50002 60006 82200 90600 333 10207 20158 60004=
07761,1997-06-24 09:00:00,23,1013.7,0.4,53,13,25000,14.816,,,260,,,,,,,,,,,wg-a,,,,AAXX 24094 07761 12575 32608 10230 20130 30127 40137 52004 60006 83200 90900=
07761,1997-06-24 12:00:00,23,1013.8,0.1,57,14,22000,25.928,,,250,,,,,,,,,,,wg-a,,,,AAXX 24124 07761 12672 42514 10230 20140 30128 40138 52001 60006 84200 91200=
07761,1997-06-24 15:00:00,22,1012.8,-1,60,14,20000,25.928,,,240,,,,,,,,,,,wg-a,,,,AAXX 24154 07761 12670 32414 10220 20140 30118 40128 58010 60006 83200 91500=
07761,1997-06-24 18:00:00,21,1012.7,-0.2,60,13,20000,7.408,,,310,20.5,23.5,,,,,,,,,wg-a,,,,AAXX 24184 07761 12670 33104 10210 20130 30116 40127 56002 60006 83200 91800 333 10235 20205=
07761,1997-06-24 21:00:00,18,1013.1,0.4,73,13,15000,11.112,,,60,,,,,,,,,,,wg-a,,,,AAXX 24214 07761 12665 30606 10180 20130 30120 40131 53004 60006 83400 92100=
07761,1997-06-25 00:00:00,15,1012.6,-0.5,82,12,10000,14.816,,,40,,,,,,,,,,,wg-a,,,,AAXX 25004 07761 12/60 /0408 10150 20120 30115 40126 58005 60006 90000=
07761,1997-06-25 03:00:00,14,1011.6,-1,77,10,25000,18.52,,,50,,,,,,,,,,,wg-a,,,,AAXX 25034 07761 12/75 /0510 10140 20100 30105 40116 56010 60006 80001 90300=
07761,1997-06-25 06:00:00,17,1011.3,-0.3,68,11,25000,7.408,,,50,13.4,20.4,,,,,,,,,wg-a,,,,AAXX 25064 07761 02/75 00504 10170 20110 30102 40113 58003 60006 80000 90600 333 10204 20134 60004=
07761,1997-06-25 09:00:00,23,1011.1,-0.1,53,13,20000,22.224,,,240,,,,,,,,,,,wg-a,,,,AAXX 25094 07761 12670 /2412 10230 20130 30101 40111 55001 60006 81100 90900=
07761,1997-06-25 12:00:00,23,1011.2,0.1,53,13,20000,18.52,,,230,,,,,,,,,,,wg-a,,,,AAXX 25124 07761 12670 /2310 10230 20130 30102 40112 50001 60006 81100 91200=
07761,1997-06-25 15:00:00,22,1010.1,-1.1,65,15,20000,22.224,,,220,,,,,,,,,,,wg-a,,,,AAXX 25154 07761 12670 52212 10220 20150 30091 40101 58011 60006 81201 91500=
07761,1997-06-25 18:00:00,20,1010.2,-0,73,15,20000,14.816,,,230,17.4,23.4,,,,,,,,,wg-a,,,,AAXX 25184 07761 12570 /2308 10200 20150 30091 40102 55000 60006 82801 91800 333 10234 20174=
07761,1997-06-25 21:00:00,19,1010.5,0.3,73,14,20000,0,,,0,,,,,,,,,,,wg-a,,,,AAXX 25214 07761 12570 80000 10190 20140 30094 40105 53003 60006 86801 92100=
07761,1997-06-26 00:00:00,16,1009.6,-0.9,88,14,12000,7.408,,,30,,,,,,,,,,,wg-a,,,,AAXX 26004 07761 12562 /0304 10160 20140 30085 40096 58009 60006 81132 90000=
07761,1997-06-26 03:00:00,15,1008.4,-1.2,88,13,12000,11.112,,,60,,,,,,,,,,,wg-a,,,,AAXX 26034 07761 12562 70606 10150 20130 30073 40084 56012 60006 81132 90300=
07761,1997-06-26 06:00:00,17,1007.8,-0.6,72,12,11000,7.408,,,40,14.7,20.1,,,,,,,,,wg-a,,,,AAXX 26064 07761 02/61 /0404 10170 20120 30067 40078 56006 60006 90600 333 10201 20147 60004=
07761,1997-06-26 09:00:00,23,1006.6,-1.1,53,13,17000,7.408,,,260,,,,,,,,,,,wg-a,,,,AAXX 26094 07761 12667 /2604 10230 20130 30056 40066 58011 60006 81182 90900=
07761,1997-06-26 12:00:00,23,1005.4,-1.2,69,17,20000,18.52,,,230,,,,,,,,,,,wg-a,,,,AAXX 26124 07761 12770 82310 10230 20170 30044 40054 56012 60006 81176 91200=
07761,1997-06-26 15:00:00,24,1003.7,-1.7,65,17,20000,11.112,,,260,,,,,,,,,,,wg-a,,,,AAXX 26154 07761 12570 72606 10240 20170 30027 40037 58017 60006 81182 91500=
07761,1997-06-26 18:00:00,23,1002.9,-0.8,69,17,20000,0,,,0,17.1,24.6,,,,,,,,,wg-a,,,,AAXX 26184 07761 12770 70000 10230 20170 30019 40029 56008 60006 81582 91800 333 10246 20171=
07761,1997-06-26 21:00:00,20,1003.5,0.6,68,14,11000,14.816,,,60,,,,,,,,,,,wg-a,,,,AAXX 26214 07761 12/61 /0608 10200 20140 30025 40035 53006 60006 92100=
07761,1997-06-27 00:00:00,18,1002,-1.6,64,11,0,11.112,,,40,,,,,,,,,,,wg-a,,,,AAXX 27004 07761 12/// /0406 10180 20110 30009 40020 58016 60006 90000=
07761,1997-06-27 03:00:00,16,1001.4,-0.6,63,9,25000,14.816,,,50,,,,,,,,,,,wg-a,,,,AAXX 27034 07761 12/75 30508 10160 20090 30003 40014 56006 60006 82081 90300=
07761,1997-06-27 06:00:00,20,1000.1,-1.2,53,10,11000,11.112,,,50,15.6,23.4,,,,,,,,,wg-a,,,,AAXX 27064 07761 02/61 /0506 10200 20100 39991 40001 56012 60006 90600 333 10234 20156 60004=
07761,1997-06-27 09:00:00,27,1000.5,0.4,51,16,500,25.928,,,240,,,,,,,,,,,wg-a,,,,AAXX 27094 07761 12400 12414 10270 20160 39995 40005 53004 60006 81232 90900=
07761,1997-06-27 12:00:00,27,1000.6,0.1,48,15,500,7.408,,,200,,,,,,,,,,,wg-a,,,,AAXX 27124 07761 12/00 22004 10270 20150 39996 40006 50001 60006 82083 91200=
07761,1997-06-27 15:00:00,28,1000.4,-0.2,48,16,500,22.224,,,240,,,,,,,,,,,wg-a,,,,AAXX 27154 07761 12700 /2412 10280 20160 39994 40004 56002 60006 81283 91500=
07761,1997-06-27 18:00:00,24,1001.3,0.9,69,18,25000,14.816,,,190,20,28.5,,,,,,,,,wg-a,,,,AAXX 27184 07761 12575 /1908 10240 20180 30003 40013 53009 60006 81100 91800 333 10285 20200=
07761,1997-06-27 21:00:00,21,1004.2,2.9,83,18,12000,7.408,,,350,,,,,,,,,,,wg-a,,,,AAXX 27214 07761 12462 23504 10210 20180 30032 40042 53029 60006 82500 92100=
07761,1997-06-28 00:00:00,20,1005.1,0.9,83,17,12000,7.408,,,30,,,,,,,,,,,wg-a,,,,AAXX 28004 07761 12462 70304 10200 20170 30041 40051 51009 60006 875// 90000=
07761,1997-06-28 03:00:00,20,1004.7,-0.4,83,17,12000,7.408,,,50,,,,,,,,,,,wg-a,,,,AAXX 28034 07761 12462 70504 10200 20170 30037 40047 58004 60006 875// 90300=
07761,1997-06-28 06:00:00,20,1005.9,1.2,78,16,12000,3.704,,,90,18.7,24.2,,,,,,,,,wg-a,,,,AAXX 28064 07761 02462 60902 10200 20160 30049 40059 53012 60006 85502 90600 333 10242 20187 60004=
07761,1997-06-28 09:00:00,24,1006.2,0.3,65,17,25000,7.408,,,230,,,,,,,,,,,wg-a,,,,AAXX 28094 07761 12575 /2304 10240 20170 30052 40062 50003 60006 81100 90900=
07761,1997-06-28 12:00:00,26,1006.1,-0.1,61,18,25000,18.52,,,210,,,,,,,,,,,wg-a,,,,AAXX 28124 07761 12675 /2110 10260 20180 30051 40061 58001 60006 81100 91200=
07761,1997-06-28 15:00:00,26,1006.4,0.3,58,17,25000,14.816,,,200,,,,,,,,,,,wg-a,,,,AAXX 28154 07761 12675 22008 10260 20170 30054 40064 53003 60006 81201 91500=
07761,1997-06-28 18:00:00,24,1006.8,0.4,61,16,25000,11.112,,,220,20.3,26.4,,,,,,,,,wg-a,,,,AAXX 28184 07761 12/75 72206 10240 20160 30058 40068 53004 60006 82032 91800 333 10264 20203=
07761,1997-06-28 21:00:00,22,1008.1,1.3,60,14,25000,3.704,,,70,,,,,,,,,,,wg-a,,,,AAXX 28214 07761 12/75 20702 10220 20140 30071 40081 51013 60006 81032 92100=
07761,1997-06-29 00:00:00,22,1007.9,-0.2,78,18,20000,18.52,,,240,,,,,,,,,,,wg-a,,,,AAXX 29004 07761 12/70 42410 10220 20180 30069 40079 55002 60006 82032 90000=
07761,1997-06-29 03:00:00,20,1008.7,0.8,88,18,15000,7.408,,,290,,,,4,,,,,,61,wg-a,,,,AAXX 29034 07761 12565 82904 10200 20180 30077 40087 53008 60047 76186 878// 90300=
07761,1997-06-29 06:00:00,19,1006.7,-2,94,18,15000,11.112,,,280,18.5,23.9,,,,,,,,21,wg-a,,,,AAXX 29064 07761 02465 72806 10190 20180 30057 40067 55020 61000 72198 8283/ 90600 333 10239 20185 6011=
07761,1997-06-29 09:00:00,23,1007.1,0.4,73,18,25000,14.816,,,200,,,,,,,,,,,wg-a,,,,AAXX 29094 07761 12575 72008 10230 20180 30061 40071 53004 60006 8213/ 90900=
07761,1997-06-29 12:00:00,24,1008.3,1.2,69,18,20000,22.224,,,220,,,,,,,,,,,wg-a,,,,AAXX 29124 07761 12570 /2212 10240 20180 30073 40083 51012 60006 8237/ 91200=
07761,1997-06-29 15:00:00,24,1009.1,0.8,61,16,25000,18.52,,,250,,,,2,,,,,,1,wg-a,,,,AAXX 29154 07761 12575 32510 10240 20160 30081 40091 50008 60027 70198 83300 91500=
07761,1997-06-29 18:00:00,22,1009.8,0.7,60,14,40000,29.632,,,250,19,24.9,,,,,,,,1,wg-a,,,,AAXX 29184 07761 12682 /2516 10220 20140 30088 40098 53007 60006 70198 81200 91800 333 10249 20190=
07761,1997-06-29 21:00:00,19,1011.7,1.8,68,13,20000,7.408,,,330,,,,,,,,,,,wg-a,,,,AAXX 29214 07761 12570 23304 10190 20130 30106 40117 51018 60006 82800 92100=
07761,1997-06-30 00:00:00,17,1011.6,-0.1,77,13,15000,3.704,,,320,,,,,,,,,,,wg-a,,,,AAXX 30004 07761 12565 43202 10170 20130 30105 40116 58001 60006 84200 90000=
07761,1997-06-30 03:00:00,16,1011.1,-0.5,82,13,15000,11.112,,,70,,,,0,,,,,,3,wg-a,,,,AAXX 30034 07761 12665 20706 10160 20130 30100 40111 56005 60007 70386 82400 90300=
07761,1997-06-30 06:00:00,17,1012.3,1.2,82,14,20000,7.408,,,50,14.7,21.7,,,,,2,,,3,wg-a,,,,AAXX 30064 07761 02570 40504 10170 20140 30112 40123 51012 60006 70386 84202 90600 333 10217 20147 60024=
07761,1997-06-30 12:00:00,23,1013.4,0.6,50,12,35000,14.816,,,220,,,,,,,,,,,wg-a,,,,AAXX 30124 07761 12681 52208 10230 20120 30124 40134 50006 60006 82202 91200=
07761,1997-06-30 15:00:00,23,1013.4,0,53,13,35000,14.816,,,210,,,,,,,,,,,wg-a,,,,AAXX 30154 07761 12681 /2108 10230 20130 30124 40134 50000 60006 81202 91500=
07761,1997-06-30 18:00:00,22,1013.1,-0.3,57,13,35000,3.704,,,210,17.2,22.9,,,,,,,,,wg-a,,,,AAXX 30184 07761 12681 /2102 10220 20130 30121 40131 56003 60006 81200 91800 333 10229 20172=
07761,1997-06-30 21:00:00,18,1014,0.8,73,13,500,11.112,,,40,,,,,,,,,,,wg-a,,,,AAXX 30214 07761 12500 30406 10180 20130 30129 40140 53008 60006 83500 92100=
07761,1997-07-01 00:00:00,15,1014.1,0.1,88,13,25000,11.112,,,50,,,,,,,,,,,wg-a,,,,AAXX 01004 07761 12675 30506 10150 20130 30130 40141 50001 60006 83500 90000=
07761,1997-07-01 03:00:00,14,1014.3,0.2,88,12,20000,14.816,,,50,,,,,,,,,,,wg-a,,,,AAXX 01034 07761 12670 /0508 10140 20120 30132 40143 52002 60006 81500 90300=
07761,1997-07-01 06:00:00,18,1015.3,1,73,13,25000,11.112,,,40,14.1,22.1,,,,,,,,,wg-a,,,,AAXX 01064 07761 02575 /0406 10180 20130 30142 40153 53010 60006 81200 90600 333 10221 20141 60004=
07761,1997-07-01 09:00:00,23,1015.9,0.7,53,13,500,11.112,,,230,,,,,,,,,,,wg-a,,,,AAXX 01094 07761 12600 /2306 10230 20130 30149 40159 51007 60006 81100 90900=
07761,1997-07-01 12:00:00,24,1016.1,0.2,54,14,500,22.224,,,220,,,,,,,,,,,wg-a,,,,AAXX 01124 07761 12600 /2212 10240 20140 30151 40161 50002 60006 81201 91200=
07761,1997-07-01 15:00:00,24,1015.5,-0.6,54,14,500,18.52,,,230,,,,,,,,,,,wg-a,,,,AAXX 01154 07761 12600 /2310 10240 20140 30145 40155 58006 60006 81101 91500=
07761,1997-07-01 18:00:00,23,1015.2,-0.3,50,12,500,11.112,,,220,18,24.2,,,,,,,,,wg-a,,,,AAXX 01184 07761 12600 /2206 10230 20120 30142 40152 56003 60006 81102 91800 333 10242 20180=
07761,1997-07-01 21:00:00,18,1016.2,0.9,64,11,20000,14.816,,,50,,,,,,,,,,,wg-a,,,,AAXX 01214 07761 12/70 10508 10180 20110 30151 40162 53009 60006 80002 92100=
07761,1997-07-02 00:00:00,15,1015.7,-0.5,72,10,20000,11.112,,,40,,,,,,,,,,,wg-a,,,,AAXX 02004 07761 12/70 00406 10150 20100 30146 40157 56005 60006 80000 90000=
07761,1997-07-02 06:00:00,20,1012.7,-2.7,46,8,35000,14.816,,,50,12.9,22.5,,,,,,,,,wg-a,,,,AAXX 02064 07761 02/81 20508 10200 20080 30116 40127 56027 60006 81089 90600 333 10225 20129 60004=
07761,1997-07-02 12:00:00,22,1014,-1.1,69,16,15000,14.816,,,40,,,,0,,,,,,21,wg-a,,,,AAXX 02124 07761 02765 70408 10220 20160 30130 40140 58011 60016 72161 8157/ 91200 333 60007=
07761,1997-07-02 15:00:00,28,1013.4,-0.6,45,15,20000,18.52,,,330,,,,,,,,,,,wg-a,,,,AAXX 02154 07761 12670 43310 10280 20150 30124 40134 56006 60006 81832 91500=
07761,1997-07-02 18:00:00,26,1014.3,0.9,48,14,20000,3.704,,,30,20.5,28.9,,,,,,,,,wg-a,,,,AAXX 02184 07761 12670 /0302 10260 20140 30133 40143 53009 60006 82872 91800 333 10289 20205=
07761,1997-07-02 21:00:00,24,1014.4,0.1,57,15,20000,3.704,,,60,,,,,,,,,,,wg-a,,,,AAXX 02214 07761 12770 70602 10240 20150 30134 40144 52001 60006 82572 92100=
07761,1997-07-03 00:00:00,21,1012.9,-1.6,73,16,20000,22.224,,,80,,,,0,,,,,,80,wg-a,,,,AAXX 03004 07761 02670 70812 10210 20160 30118 40129 58016 60016 78098 873// 90000 333 60007=
07761,1997-07-03 03:00:00,19,1012.1,-0.8,88,17,15000,7.408,,,60,,,,7,,,,,,95,wg-a,,,,AAXX 03034 07761 12465 70604 10190 20170 30110 40121 58008 60077 79598 879// 90300=
07761,1997-07-03 06:00:00,19,1014,1.9,88,17,11000,7.408,,,120,18.4,25.9,,,,,8,,,,wg-a,,,,AAXX 03064 07761 02/61 /1204 10190 20170 30129 40140 53019 60006 90600 333 10259 20184 60084=
07761,1997-07-03 09:00:00,24,1014.5,0.6,69,18,500,7.408,,,240,,,,,,,,,,1,wg-a,,,,AAXX 03094 07761 02500 22404 10240 20180 30135 40145 50006 61000 70161 81140 90900 333 ////=
07761,1997-07-03 12:00:00,26,1013.6,-0.9,61,18,500,18.52,,,210,,,,,,,,,,2,wg-a,,,,AAXX 03124 07761 02700 /2110 10260 20180 30126 40136 58009 61000 70261 81200 91200 333 ////=
07761,1997-07-03 15:00:00,26,1013.5,-0.1,61,18,500,18.52,,,210,,,,,,,,,,,wg-a,,,,AAXX 03154 07761 12600 /2110 10260 20180 30125 40135 55001 60006 81200 91500=
07761,1997-07-03 18:00:00,24,1014.4,0.9,69,18,500,7.408,,,250,18.9,27.1,,,,,,,,,wg-a,,,,AAXX 03184 07761 12600 /2504 10240 20180 30134 40144 53009 60006 81200 91800 333 10271 20189=
07761,1997-07-04 00:00:00,17,1016.3,0.2,88,15,20000,11.112,,,60,,,,,,,,,,,wg-a,,,,AAXX 04004 07761 12/70 /0606 10170 20150 30152 40163 50002 60006 80000 90000=
07761,1997-07-04 03:00:00,16,1016.3,-0,88,14,20000,11.112,,,60,,,,,,,,,,,wg-a,,,,AAXX 04034 07761 12770 20606 10160 20140 30152 40163 55000 60006 81530 90300=
07761,1997-07-04 06:00:00,21,1016.5,0.2,73,16,20000,7.408,,,80,16,24.4,,,,,,,,,wg-a,,,,AAXX 04064 07761 02770 20804 10210 20160 30154 40165 50002 60006 81530 90600 333 10244 20160 61000=
07761,1997-07-04 09:00:00,24,1017.6,1.2,74,19,20000,22.224,,,230,,,,,,,,,,,wg-a,,,,AAXX 04094 07761 12770 /2312 10240 20190 30166 40176 51012 60006 81580 90900=
07761,1997-07-04 12:00:00,26,1017.6,0,65,19,20000,18.52,,,230,,,,,,,,,,,wg-a,,,,AAXX 04124 07761 12570 22310 10260 20190 30166 40176 50000 60006 81880 91200=
07761,1997-07-04 15:00:00,27,1016.7,-0.9,58,18,11000,14.816,,,200,,,,,,,,,,,wg-a,,,,AAXX 04154 07761 12/61 /2008 10270 20180 30157 40167 56009 60006 91500=
07761,1997-07-04 18:00:00,26,1015.8,-0.9,54,16,20000,7.408,,,50,20.6,27.3,,,,,,,,,wg-a,,,,AAXX 04184 07761 12570 /0504 10260 20160 30148 40158 58009 60006 82880 91800 333 10273 20206=
07761,1997-07-04 21:00:00,22,1018.2,2.4,78,18,20000,3.704,,,70,,,,,,,,,,,wg-a,,,,AAXX 04214 07761 12/70 /0702 10220 20180 30172 40182 53024 60006 84050 92100=
07761,1997-07-05 00:00:00,21,1018.1,-0.2,83,18,20000,7.408,,,110,,,,,,,,,,,wg-a,,,,AAXX 05004 07761 12570 41104 10210 20180 30170 40181 56002 60006 81830 90000=
07761,1997-07-05 03:00:00,20,1019.2,1.1,78,16,20000,7.408,,,350,,,,,,,,,,21,wg-a,,,,AAXX 05034 07761 02470 /3504 10200 20160 30181 40192 51011 61000 72161 83830 90300 333 ////=
07761,1997-07-05 06:00:00,20,1019.4,0.2,73,15,500,3.704,,,50,18.3,26.3,,,,,,,,1,wg-a,,,,AAXX 05064 07761 02500 /0502 10200 20150 30183 40194 53002 60006 70161 81800 90600 333 10263 20183 61000=
07761,1997-07-05 09:00:00,22,1020,0.6,60,14,500,18.52,,,310,,,,,,,,,,,wg-a,,,,AAXX 05094 07761 12500 33110 10220 20140 30189 40200 53006 60006 83800 90900=
07761,1997-07-05 12:00:00,23,1020.1,0.1,57,14,500,29.632,,,240,,,,,,,,,,,wg-a,,,,AAXX 05124 07761 12600 42416 10230 20140 30190 40201 50001 60006 84200 91200=
07761,1997-07-05 15:00:00,22,1019.8,-0.3,53,12,25000,22.224,,,270,,,,,,,,,,,wg-a,,,,AAXX 05154 07761 12675 42712 10220 20120 30187 40198 57003 60006 84200 91500=
07761,1997-07-05 18:00:00,21,1019.1,-0.7,60,13,25000,22.224,,,280,20,23.6,,,,,,,,,wg-a,,,,AAXX 05184 07761 12675 42812 10210 20130 30180 40191 56007 60006 84200 91800 333 10236 20200=
07761,1997-07-05 21:00:00,19,1019.1,0,68,13,20000,7.408,,,60,,,,,,,,,,,wg-a,,,,AAXX 05214 07761 12670 30604 10190 20130 30180 40191 50000 60006 83400 92100=
07761,1997-07-06 00:00:00,18,1018.2,-0.9,73,13,20000,7.408,,,40,,,,,,,,,,,wg-a,,,,AAXX 06004 07761 12570 20404 10180 20130 30171 40182 58009 60006 82500 90000=
07761,1997-07-06 03:00:00,15,1017.8,-0.4,82,12,20000,11.112,,,40,,,,,,,,,,,wg-a,,,,AAXX 06034 07761 12670 /0406 10150 20120 30167 40178 55004 60006 81500 90300=
07761,1997-07-06 06:00:00,18,1018.1,0.3,68,12,25000,11.112,,,40,14.2,20.5,,,,,,,,,wg-a,,,,AAXX 06064 07761 02675 /0406 10180 20120 30170 40181 51003 60006 81130 90600 333 10205 20142 60004=
07761,1997-07-06 12:00:00,23,1018.9,0.8,61,15,25000,22.224,,,230,,,,,,,,,,,wg-a,,,,AAXX 06124 07761 12675 /2312 10230 20150 30179 40189 51008 60006 81100 91200=
07761,1997-07-06 15:00:00,23,1018.7,-0.3,61,15,25000,18.52,,,220,,,,,,,,,,,wg-a,,,,AAXX 06154 07761 12675 /2210 10230 20150 30176 40187 56003 60006 81100 91500=
07761,1997-07-06 18:00:00,21,1018.3,-0.4,69,15,25000,11.112,,,230,17.6,23.5,,,,,,,,,wg-a,,,,AAXX 06184 07761 12675 /2306 10210 20150 30172 40183 56004 60006 81100 91800 333 10235 20176=
07761,1997-07-06 21:00:00,18,1018.9,0.6,83,15,20000,11.112,,,50,,,,,,,,,,,wg-a,,,,AAXX 06214 07761 12/70 00506 10180 20150 30178 40189 52006 60006 80000 92100=
07761,1997-07-07 00:00:00,16,1018.1,-0.8,82,13,20000,11.112,,,70,,,,,,,,,,,wg-a,,,,AAXX 07004 07761 12/70 00706 10160 20130 30170 40181 58008 60006 80000 90000=
07761,1997-07-07 03:00:00,14,1016.5,-1.6,82,11,15000,11.112,,,40,,,,,,,,,,,wg-a,,,,AAXX 07034 07761 12/65 00406 10140 20110 30154 40165 56016 60006 80000 90300=
07761,1997-07-07 06:00:00,17,1016.2,-0.3,77,13,15000,11.112,,,60,13.5,21.2,,,,,,,,,wg-a,,,,AAXX 07064 07761 02665 /0606 10170 20130 30151 40162 58003 60006 81500 90600 333 10212 20135 60004=
07761,1997-07-07 09:00:00,23,1015.2,-0.9,65,16,12000,14.816,,,260,,,,,,,,,,,wg-a,,,,AAXX 07094 07761 12562 /2608 10230 20160 30142 40152 58009 60006 81100 90900=
07761,1997-07-07 10:00:00,23,1014.4,0.1,65,16,20000,14.816,,,200,16.9,24.9,,,,,,,,1,wg-a,,,,AAXX 07104 07761 12670 /2008 10230 20160 30134 40144 53001 60006 70190 81101 91000 333 10249 20169=
07761,1997-07-07 12:00:00,24,1014.9,-0.3,61,16,12000,25.928,,,240,,,,,,,,,,,wg-a,,,,AAXX 07124 07761 12662 /2414 10240 20160 30139 40149 58003 60006 81300 91200=
07761,1997-07-07 15:00:00,24,1014.3,-0.6,57,15,12000,14.816,,,220,,,,,,,,,,17,wg-a,,,,AAXX 07154 07761 12562 32208 10240 20150 30133 40143 56006 60006 71790 82380 91500=
07761,1997-07-07 18:00:00,23,1014.4,0.1,65,16,20000,14.816,,,200,16.9,24.9,,,,,,,,1,wg-a,,,,AAXX 07184 07761 12670 /2008 10230 20160 30134 40144 53001 60006 70190 81101 91800 333 10249 20169=
07761,1997-07-07 21:00:00,19,1015.6,1.1,78,15,15000,11.112,,,70,,,,,,,,,,,wg-a,,,,AAXX 07214 07761 12/65 /0706 10190 20150 30145 40156 53011 60006 80001 92100=
07761,1997-07-08 00:00:00,17,1015.8,0.2,77,13,15000,14.816,,,50,,,,,,,,,,,wg-a,,,,AAXX 08004 07761 12/65 00508 10170 20130 30147 40158 50002 60006 80000 90000=
07761,1997-07-08 03:00:00,15,1015.5,-0.3,82,12,15000,14.816,,,40,,,,,,,,,,,wg-a,,,,AAXX 08034 07761 12/65 00408 10150 20120 30144 40155 56003 60006 80000 90300=
07761,1997-07-08 06:00:00,18,1015.8,0.3,64,11,25000,14.816,,,50,14.2,23.2,,,,,,,,,wg-a,,,,AAXX 08064 07761 02/75 00508 10180 20110 30147 40158 50003 60006 80000 90600 333 10232 20142 60004=
07761,1997-07-08 09:00:00,24,1015.7,-0,65,17,500,22.224,,,240,,,,,,,,,,,wg-a,,,,AAXX 08094 07761 12500 /2412 10240 20170 30147 40157 55000 60006 81100 90900=
07761,1997-07-08 12:00:00,25,1015.9,0.2,65,18,500,18.52,,,240,,,,,,,,,,,wg-a,,,,AAXX 08124 07761 12500 /2410 10250 20180 30149 40159 50002 60006 81200 91200=
07761,1997-07-08 15:00:00,24,1015.1,-0.8,69,18,20000,18.52,,,220,,,,,,,,,,,wg-a,,,,AAXX 08154 07761 12570 /2210 10240 20180 30141 40151 58008 60006 81300 91500=
07761,1997-07-08 18:00:00,23,1014.6,-0.5,73,18,25000,18.52,,,220,17.8,24.9,,,,,,,,,wg-a,,,,AAXX 08184 07761 12575 /2210 10230 20180 30136 40146 55005 60006 81200 91800 333 10249 20178=
07761,1997-07-08 21:00:00,19,1015.6,0.9,83,16,20000,11.112,,,50,,,,,,,,,,,wg-a,,,,AAXX 08214 07761 12570 /0506 10190 20160 30145 40156 53009 60006 81500 92100=
07761,1997-07-09 00:00:00,17,1015,-0.6,82,14,20000,7.408,,,60,,,,,,,,,,,wg-a,,,,AAXX 09004 07761 12/70 00604 10170 20140 30139 40150 58006 60006 80000 90000=
07761,1997-07-09 03:00:00,14,1014.8,-0.2,88,12,15000,11.112,,,50,,,,,,,,,,,wg-a,,,,AAXX 09034 07761 12/65 00506 10140 20120 30137 40148 57002 60006 80000 90300=
07761,1997-07-09 06:00:00,18,1014.9,0.1,83,15,10000,11.112,,,50,14,22.8,,,,,,,,,wg-a,,,,AAXX 09064 07761 02560 /0506 10180 20150 30138 40149 50001 60006 81532 90600 333 10228 20140 60004=
07761,1997-07-09 12:00:00,24,1014.6,-0.3,61,16,25000,12.964,,,220,,,,,,,,,,,wg-a,,,,AAXX 09124 07761 12675 /2207 10240 20160 30133 40146 58003 60006 81202 91200=
07761,1997-07-09 15:00:00,24,1013.6,-1,65,17,25000,22.224,,,220,,,,,,,,,,,wg-a,,,,AAXX 09154 07761 12675 22212 10240 20170 30126 40136 56010 60006 81201 91500=
07761,1997-07-09 18:00:00,23,1013.2,-0.4,69,17,20000,7.408,,,230,17.7,24.9,,,,,,,,,wg-a,,,,AAXX 09184 07761 12670 /2304 10230 20170 30122 40132 56004 60006 81401 91800 333 10249 20177=
07761,1997-07-09 21:00:00,19,1014,0.7,83,16,20000,11.112,,,60,,,,,,,,,,,wg-a,,,,AAXX 09214 07761 12/70 10606 10190 20160 30129 40140 51007 60006 81030 92100=
07761,1997-07-10 00:00:00,17,1013.5,-0.5,82,14,20000,7.408,,,40,,,,,,,,,,,wg-a,,,,AAXX 10004 07761 12/70 20404 10170 20140 30124 40135 58005 60006 81032 90000=
07761,1997-07-10 03:00:00,16,1012.6,-0.9,82,13,20000,11.112,,,50,,,,,,,,,,,wg-a,,,,AAXX 10034 07761 12/70 20506 10160 20130 30115 40126 56009 60006 81031 90300=
07761,1997-07-10 06:00:00,19,1013,0.4,73,14,20000,11.112,,,50,14.7,22.8,,,,,,,,,wg-a,,,,AAXX 10064 07761 02/70 30506 10190 20140 30119 40130 53004 60006 81082 90600 333 10228 20147 60004=
07761,1997-07-10 09:00:00,24,1012.5,-0.4,69,18,500,11.112,,,240,,,,,,,,,,,wg-a,,,,AAXX 10094 07761 12600 22406 10240 20180 30115 40125 58004 60006 81282 90900=
07761,1997-07-10 12:00:00,27,1012.1,-0.4,58,18,500,25.928,,,230,,,,,,,,,,,wg-a,,,,AAXX 10124 07761 12500 42314 10270 20180 30111 40121 56004 60006 82982 91200=
07761,1997-07-10 15:00:00,27,1011.8,-0.3,51,16,500,11.112,,,210,,,,,,,,,,,wg-a,,,,AAXX 10154 07761 12500 42106 10270 20160 30108 40118 57003 60006 82982 91500=
07761,1997-07-10 18:00:00,25,1011.8,-0,61,17,500,14.816,,,190,18.6,27.9,,,,,,,,,wg-a,,,,AAXX 10184 07761 12500 /1908 10250 20170 30108 40118 55000 60006 81202 91800 333 10279 20186=
07761,1997-07-11 00:00:00,17,1012.9,-0.3,88,15,20000,11.112,,,50,,,,,,,,,,,wg-a,,,,AAXX 11004 07761 12/70 00506 10170 20150 30118 40129 56003 60006 80000 90000=
07761,1997-07-11 03:00:00,16,1012.6,-0.3,88,14,20000,11.112,,,50,,,,,,,,,,,wg-a,,,,AAXX 11034 07761 12/70 00506 10160 20140 30115 40126 56003 60006 80000 90300=
07761,1997-07-11 06:00:00,19,1013,0.4,78,15,20000,7.408,,,50,15.7,24.6,,,,,,,,,wg-a,,,,AAXX 11064 07761 02/70 20504 10190 20150 30119 40130 51004 60006 81031 90600 333 10246 20157 60004=
07761,1997-07-11 09:00:00,24,1013.1,0.2,69,18,20000,14.816,,,240,,,,,,,,,,,wg-a,,,,AAXX 11094 07761 12570 72408 10240 20180 30121 40131 53002 60006 81131 90900=
07761,1997-07-11 12:00:00,25,1013.2,0.1,65,18,20000,25.928,,,200,,,,,,,,,,,wg-a,,,,AAXX 11124 07761 12670 42014 10250 20180 30122 40132 50001 60006 81232 91200=
07761,1997-07-11 15:00:00,25,1013,-0.2,69,19,20000,29.632,,,190,,,,,,,,,,,wg-a,,,,AAXX 11154 07761 12670 /1916 10250 20190 30120 40130 58002 60006 82932 91500=
07761,1997-07-11 18:00:00,24,1013.2,0.2,69,18,20000,7.408,,,200,18.7,26.3,,,,,,,,,wg-a,,,,AAXX 11184 07761 12570 /2004 10240 20180 30122 40132 53002 60006 81400 91800 333 10263 20187=
07761,1997-07-11 21:00:00,20,1014.5,1.2,83,17,20000,3.704,,,60,,,,,,,,,,,wg-a,,,,AAXX 11214 07761 12670 30602 10200 20170 30134 40145 51012 60006 81502 92100=
07761,1997-07-12 00:00:00,19,1014.5,0,83,16,20000,11.112,,,60,,,,,,,,,,,wg-a,,,,AAXX 12004 07761 12470 40606 10190 20160 30134 40145 50000 60006 84500 90000=
07761,1997-07-12 03:00:00,18,1014.8,0.3,83,15,20000,14.816,,,60,,,,,,,,,,,wg-a,,,,AAXX 12034 07761 12470 20608 10180 20150 30137 40148 52003 60006 82500 90300=
07761,1997-07-12 06:00:00,20,1015,0.2,73,15,20000,11.112,,,40,17.1,23.8,,,,,,,,,wg-a,,,,AAXX 12064 07761 02/70 10406 10200 20150 30139 40150 53002 60006 81080 90600 333 10238 20171 60004=
07761,1997-07-12 09:00:00,25,1015.1,0.2,65,18,20000,14.816,,,240,,,,,,,,,,,wg-a,,,,AAXX 12094 07761 12670 /2408 10250 20180 30141 40151 53002 60006 81100 90900=
07761,1997-07-12 12:00:00,25,1015.7,0.6,65,18,15000,22.224,,,230,,,,,,,,,,,wg-a,,,,AAXX 12124 07761 12565 22312 10250 20180 30147 40157 52006 60006 82200 91200=
07761,1997-07-12 15:00:00,25,1016,0.3,65,18,10000,14.816,,,220,,,,,,,,,,,wg-a,,,,AAXX 12154 07761 12560 22208 10250 20180 30150 40160 53003 60006 82200 91500=
07761,1997-07-12 18:00:00,23,1015.8,-0.2,78,19,7000,14.816,,,230,19.7,25.6,,,,,,,,,wg-a,,,,AAXX 12184 07761 12557 42308 10230 20190 30148 40158 55002 60006 84800 91800 333 10256 20197=
07761,1997-07-12 21:00:00,22,1017.2,1.4,83,19,6000,7.408,,,240,,,,,,,,,,,wg-a,,,,AAXX 12214 07761 12556 /2404 10220 20190 30162 40172 53014 60006 85800 92100=
07761,1997-07-13 00:00:00,21,1017,-0.3,83,18,6000,3.704,,,130,,,,,,,,,,,wg-a,,,,AAXX 13004 07761 12456 71302 10210 20180 30159 40170 55003 60006 875// 90000=
07761,1997-07-13 03:00:00,20,1016.7,-0.3,68,14,6000,7.408,,,70,,,,,,,,,,,wg-a,,,,AAXX 13034 07761 12456 /0704 10200 20140 30156 40167 57003 60006 81500 90300=
07761,1997-07-13 06:00:00,20,1017.3,0.6,73,15,10000,11.112,,,40,18.1,22.8,,,,,,,,,wg-a,,,,AAXX 13064 07761 02460 /0406 10200 20150 30162 40173 51006 60006 81600 90600 333 10228 20181 60004=
07761,1997-07-13 09:00:00,24,1017.3,0.1,74,19,10000,11.112,,,240,,,,,,,,,,,wg-a,,,,AAXX 13094 07761 12/60 02406 10240 20190 30163 40173 50001 60006 80000 90900=
07761,1997-07-13 12:00:00,26,1016.6,-0.7,70,20,10000,18.52,,,220,,,,,,,,,,,wg-a,,,,AAXX 13124 07761 12660 /2210 10260 20200 30156 40166 58007 60006 81100 91200=
07761,1997-07-13 15:00:00,26,1016.4,-0.2,65,19,10000,18.52,,,180,,,,,,,,,,,wg-a,,,,AAXX 13154 07761 12760 /1810 10260 20190 30154 40164 58002 60006 81200 91500=
07761,1997-07-13 18:00:00,25,1015.9,-0.5,65,18,12000,11.112,,,210,20,27.7,,,,,,,,,wg-a,,,,AAXX 13184 07761 12/62 02106 10250 20180 30149 40159 55005 60006 80000 91800 333 10277 20200=
07761,1997-07-13 21:00:00,20,1017.3,1.3,78,16,20000,7.408,,,60,,,,,,,,,,,wg-a,,,,AAXX 13214 07761 12/70 00604 10200 20160 30162 40173 52013 60006 80000 92100=
07761,1997-07-14 00:00:00,17,1017.1,-0.2,82,14,15000,11.112,,,50,,,,,,,,,,,wg-a,,,,AAXX 14004 07761 12/65 00506 10170 20140 30160 40171 58002 60006 80000 90000=
07761,1997-07-14 03:00:00,16,1017.3,0.2,77,12,15000,11.112,,,60,,,,,,,,,,,wg-a,,,,AAXX 14034 07761 12/65 00606 10160 20120 30162 40173 53002 60006 80000 90300=
07761,1997-07-14 06:00:00,20,1017,-0.3,60,12,20000,11.112,,,40,15,24.6,,,,,,,,,wg-a,,,,AAXX 14064 07761 02/70 00406 10200 20120 30159 40170 58003 60006 80000 90600 333 10246 20150 60004=
07761,1997-07-14 09:00:00,25,1018.4,1.5,61,17,50000,14.816,,,210,,,,,,,,,,,wg-a,,,,AAXX 14094 07761 12/84 02108 10250 20170 30174 40184 53015 60006 80000 90900=
07761,1997-07-14 12:00:00,26,1018.1,-0.3,65,19,10000,18.52,,,230,,,,,,,,,,,wg-a,,,,AAXX 14124 07761 12/60 /2310 10260 20190 30171 40181 58003 60006 91200=
07761,1997-07-14 18:00:00,25,1016.3,-0.8,79,21,9000,11.112,,,220,19.6,27.6,,,,,,,,,wg-a,,,,AAXX 14184 07761 12/59 /2206 10250 20210 30153 40163 58008 60006 80002 91800 333 10276 20196=
07761,1997-07-14 21:00:00,21,1017.4,1,78,17,10000,11.112,,,50,,,,,,,,,,,wg-a,,,,AAXX 14214 07761 12/60 00506 10210 20170 30163 40174 52010 60006 80000 92100=
07761,1997-07-15 00:00:00,19,1018.1,0.7,73,14,15000,7.408,,,60,,,,,,,,,,,wg-a,,,,AAXX 15004 07761 12/65 20604 10190 20140 30170 40181 53007 60006 80001 90000=
07761,1997-07-15 03:00:00,18,1018.1,-0,73,13,15000,11.112,,,40,,,,,,,,,,,wg-a,,,,AAXX 15034 07761 12/65 70406 10180 20130 30170 40181 55000 60006 82032 90300=
07761,1997-07-15 06:00:00,22,1016.6,-1.5,57,13,20000,3.704,,,20,17.6,24.6,,,,,,,,,wg-a,,,,AAXX 15064 07761 02/70 60202 10220 20130 30155 40166 58015 60006 85031 90600 333 10246 20176 60004=
07761,1997-07-15 09:00:00,26,1016.4,-0.1,74,21,20000,18.52,,,240,,,,,,,,,,,wg-a,,,,AAXX 15094 07761 12/70 42410 10260 20210 30154 40164 57001 60006 80002 90900=
07761,1997-07-15 12:00:00,27,1017.4,1,70,21,12000,14.816,,,220,,,,,,,,,,,wg-a,,,,AAXX 15124 07761 12/62 62208 10270 20210 30164 40174 51010 60006 80002 91200=
07761,1997-07-15 15:00:00,26,1016.8,-0.6,79,22,9000,18.52,,,200,,,,,,,,,,,wg-a,,,,AAXX 15154 07761 12/59 32010 10260 20220 30158 40168 55006 60006 80002 91500=
07761,1997-07-15 18:00:00,25,1015.5,-1.3,83,22,9000,7.408,,,220,22.2,27.2,,,,,,,,,wg-a,,,,AAXX 15184 07761 12/59 32204 10250 20220 30145 40155 56013 60006 80002 91800 333 10272 20222=
07761,1997-07-15 21:00:00,21,1015.3,-0.3,88,19,9000,7.408,,,80,,,,,,,,,,,wg-a,,,,AAXX 15214 07761 12259 60804 10210 20190 30142 40153 58003 60006 84502 92100=
07761,1997-07-16 00:00:00,18,1015.6,0.3,83,15,15000,11.112,,,60,,,,,,,,,,,wg-a,,,,AAXX 16004 07761 12465 10606 10180 20150 30145 40156 50003 60006 81500 90000=
07761,1997-07-16 03:00:00,16,1015.7,0.1,77,12,15000,14.816,,,40,,,,,,,,,,,wg-a,,,,AAXX 16034 07761 12665 /0408 10160 20120 30146 40157 53001 60006 81500 90300=
07761,1997-07-16 06:00:00,20,1015,-0.7,64,13,20000,14.816,,,50,15.5,24.9,,,,,,,,,wg-a,,,,AAXX 16064 07761 02/70 00508 10200 20130 30139 40150 58007 60006 80000 90600 333 10249 20155 60004=
07761,1997-07-16 09:00:00,27,1015.9,1,51,16,25000,7.408,,,240,,,,,,,,,,,wg-a,,,,AAXX 16094 07761 12/75 52404 10270 20160 30149 40159 53010 60006 80006 90900=
07761,1997-07-16 12:00:00,28,1015.3,-0.6,42,14,500,7.408,,,150,,,,,,,,,,,wg-a,,,,AAXX 16124 07761 12/00 71504 10280 20140 30143 40153 58006 60006 80006 91200=
07761,1997-07-16 18:00:00,28,1013.1,0.9,51,17,500,7.408,,,160,19.8,31,,,,,,,,,wg-a,,,,AAXX 16184 07761 12/00 01604 10280 20170 30121 40131 50009 60006 80000 91800 333 10310 20198=
07761,1997-07-17 00:00:00,21,1014,1,64,14,20000,11.112,,,30,,,,,,,,,,,wg-a,,,,AAXX 17004 07761 12670 50306 10210 20140 30129 40140 50010 60006 85500 90000=
07761,1997-07-17 03:00:00,22,1010.3,-3.6,60,14,20000,11.112,,,40,,,,,,,,,,,wg-a,,,,AAXX 17034 07761 12670 50406 10220 20140 30093 40103 58036 60006 84501 90300=
07761,1997-07-17 06:00:00,24,1012.2,1.9,83,21,20000,25.928,,,250,20.5,28.3,,,,,,,,,wg-a,,,,AAXX 17064 07761 02670 72514 10240 20210 30112 40122 53019 60006 84851 90600 333 10283 20205 60004=
07761,1997-07-17 12:00:00,26,1012.1,-0,79,22,10000,25.928,,,230,,,,,,,,,,3,wg-a,,,,AAXX 17124 07761 02460 72314 10260 20220 30111 40121 55000 61000 70398 85801 91200 333 ////=
07761,1997-07-17 15:00:00,26,1011.5,-0.6,79,22,8000,22.224,,,240,,,,,,,,,,,wg-a,,,,AAXX 17154 07761 12458 42412 10260 20220 30105 40115 58006 60006 84800 91500=
07761,1997-07-17 18:00:00,24,1011,-0.5,83,21,8000,14.816,,,220,24.3,28,,,,,,,,,wg-a,,,,AAXX 17184 07761 12458 42208 10240 20210 30100 40110 58005 60006 84800 91800 333 10280 20243=
07761,1997-07-17 21:00:00,23,1011.6,0.6,78,19,8000,14.816,,,250,,,,,,,,,,,wg-a,,,,AAXX 17214 07761 12458 42508 10230 20190 30106 40116 53006 60006 81209 92100=
07761,1997-07-18 00:00:00,23,1010.6,-1,78,19,10000,25.928,,,250,,,,,,,,,,,wg-a,,,,AAXX 18004 07761 12460 72514 10230 20190 30096 40106 58010 60006 86372 90000=
07761,1997-07-18 06:00:00,23,1009.6,0.2,78,19,10000,18.52,,,270,21.7,24.3,,,,,2,,,3,wg-a,,,,AAXX 18064 07761 02460 72710 10230 20190 30086 40096 52002 60006 70386 878// 90600 333 10243 20217 60024=
07761,1997-07-18 09:00:00,25,1010.3,0.7,69,19,10000,25.928,,,230,,,,,,,,,,,wg-a,,,,AAXX 18094 07761 12560 32314 10250 20190 30093 40103 53007 60006 83870 90900=
07761,1997-07-18 12:00:00,25,1011.6,1.3,57,16,12000,14.816,,,280,,,,,,,,,,,wg-a,,,,AAXX 18124 07761 12562 42808 10250 20160 30106 40116 53013 60006 84240 91200=
07761,1997-07-18 15:00:00,25,1011.5,-0.1,61,17,15000,29.632,,,240,,,,,,,,,,,wg-a,,,,AAXX 18154 07761 12665 /2416 10250 20170 30105 40115 56001 60006 84240 91500=
07761,1997-07-18 18:00:00,24,1011,-0.5,57,15,15000,22.224,,,260,22.5,25.9,,,,,,,,,wg-a,,,,AAXX 18184 07761 12665 22612 10240 20150 30100 40110 56005 60006 82270 91800 333 10259 20225=
07761,1997-07-18 21:00:00,22,1011.6,0.6,65,15,15000,7.408,,,210,,,,,,,,,,,wg-a,,,,AAXX 18214 07761 12665 32104 10220 20150 30106 40116 51006 60006 83270 92100=
07761,1997-07-19 00:00:00,22,1011.7,0.1,53,12,15000,14.816,,,290,,,,,,,,,,,wg-a,,,,AAXX 19004 07761 12665 22908 10220 20120 30107 40117 51001 60006 81131 90000=
07761,1997-07-19 03:00:00,17,1011.8,-0,77,13,15000,14.816,,,50,,,,,,,,,,,wg-a,,,,AAXX 19034 07761 12665 30508 10170 20130 30107 40118 55000 60006 81130 90300=
07761,1997-07-19 06:00:00,19,1012.9,1.1,68,13,15000,11.112,,,50,16.3,23.6,,,,,,,,,wg-a,,,,AAXX 19064 07761 02/65 /0506 10190 20130 30118 40129 51011 60006 81030 90600 333 10236 20163 60004=
07761,1997-07-19 09:00:00,24,1014.5,1.7,61,16,17000,18.52,,,240,,,,,,,,,,,wg-a,,,,AAXX 19094 07761 12567 /2410 10240 20160 30135 40145 52017 60006 81100 90900=
07761,1997-07-19 12:00:00,24,1015.2,0.7,54,14,18000,22.224,,,230,,,,,,,,,,,wg-a,,,,AAXX 19124 07761 12568 /2312 10240 20140 30142 40152 50007 60006 81800 91200=
07761,1997-07-19 15:00:00,24,1014.8,-0.4,57,15,18000,18.52,,,220,,,,,,,,,,,wg-a,,,,AAXX 19154 07761 12668 /2210 10240 20150 30138 40148 56004 60006 81800 91500=
07761,1997-07-19 18:00:00,22,1015.1,0.3,65,15,18000,11.112,,,220,19,24.8,,,,,,,,,wg-a,,,,AAXX 19184 07761 12668 /2206 10220 20150 30141 40151 53003 60006 81800 91800 333 10248 20190=
07761,1997-07-19 21:00:00,19,1016.4,1.2,73,14,18000,7.408,,,120,,,,,,,,,,,wg-a,,,,AAXX 19214 07761 12668 /1204 10190 20140 30153 40164 53012 60006 81100 92100=
07761,1997-07-20 00:00:00,16,1015.5,-0.9,82,13,15000,14.816,,,50,,,,,,,,,,,wg-a,,,,AAXX 20004 07761 12565 /0508 10160 20130 30144 40155 58009 60006 81500 90000=
07761,1997-07-20 03:00:00,15,1014.9,-0.6,82,12,10000,11.112,,,40,,,,,,,,,,,wg-a,,,,AAXX 20034 07761 12/60 /0406 10150 20120 30138 40149 56006 60006 90300=
07761,1997-07-20 06:00:00,18,1015.4,0.5,68,12,15000,11.112,,,50,14.8,22.2,,,,,,,,,wg-a,,,,AAXX 20064 07761 02/65 /0506 10180 20120 30143 40154 53005 60006 81040 90600 333 10222 20148 60004=
07761,1997-07-20 09:00:00,24,1015.8,0.5,65,17,15000,25.928,,,240,,,,,,,,,,,wg-a,,,,AAXX 20094 07761 12565 /2414 10240 20170 30148 40158 52005 60006 81100 90900=
07761,1997-07-20 12:00:00,25,1015.7,-0.1,61,17,20000,22.224,,,250,,,,,,,,,,,wg-a,,,,AAXX 20124 07761 12570 32512 10250 20170 30147 40157 58001 60006 81201 91200=
07761,1997-07-20 15:00:00,24,1014.8,-0.9,65,17,15000,14.816,,,230,,,,,,,,,,,wg-a,,,,AAXX 20154 07761 12565 /2308 10240 20170 30138 40148 58009 60006 81201 91500=
07761,1997-07-20 18:00:00,22,1014.7,-0.1,73,17,15000,11.112,,,230,18,24.8,,,,,,,,,wg-a,,,,AAXX 20184 07761 12565 /2306 10220 20170 30137 40147 55001 60006 81201 91800 333 10248 20180=
07761,1997-07-21 00:00:00,19,1015.7,-0.4,83,16,15000,7.408,,,60,,,,,,,,,,,wg-a,,,,AAXX 21004 07761 12565 70604 10190 20160 30146 40157 58004 60006 875// 90000=
07761,1997-07-21 06:00:00,18,1014.5,-0.1,83,15,14000,11.112,,,50,15.6,22.1,,,,,,,,,wg-a,,,,AAXX 21064 07761 02464 /0506 10180 20150 30134 40145 58001 60006 81500 90600 333 10221 20156 60004=
07761,1997-07-21 09:00:00,24,1015,0.6,65,17,18000,18.52,,,250,,,,,,,,,,,wg-a,,,,AAXX 21094 07761 12568 /2510 10240 20170 30140 40150 52006 60006 81132 90900=
07761,1997-07-21 12:00:00,25,1014.9,-0.1,69,19,15000,25.928,,,240,,,,,,,,,,,wg-a,,,,AAXX 21124 07761 12665 32414 10250 20190 30139 40149 56001 60006 81132 91200=
07761,1997-07-21 14:00:00,26,1014,-0.7,61,18,11000,7.408,,,250,18,25.5,,,,,,,,0,wg-a,,,,AAXX 21144 07761 32/61 /2504 10260 20180 30130 40140 56007 700// 81102 91400 333 10255 20180=
07761,1997-07-21 15:00:00,24,1014.7,-0.2,69,18,18000,14.816,,,230,,,,,,,,,,,wg-a,,,,AAXX 21154 07761 12668 /2308 10240 20180 30137 40147 56002 60006 81132 91500=
07761,1997-07-21 18:00:00,23,1014,-0.7,73,18,15000,7.408,,,250,18,25.5,,,,,,,,,wg-a,,,,AAXX 21184 07761 12665 /2504 10230 20180 30130 40140 56007 60006 81102 91800 333 10255 20180=
07761,1997-07-21 21:00:00,20,1015.7,1.6,83,17,15000,11.112,,,60,,,,,,,,,,,wg-a,,,,AAXX 21214 07761 12465 /0606 10200 20170 30146 40157 53016 60006 85500 92100=
07761,1997-07-22 00:00:00,18,1015.6,-0.1,83,15,12000,11.112,,,60,,,,,,,,,,,wg-a,,,,AAXX 22004 07761 12462 /0606 10180 20150 30145 40156 58001 60006 81500 90000=
07761,1997-07-22 03:00:00,16,1016.1,0.5,82,13,12000,11.112,,,40,,,,,,,,,,,wg-a,,,,AAXX 22034 07761 12462 /0406 10160 20130 30150 40161 53005 60006 81502 90300=
07761,1997-07-22 06:00:00,18,1016.2,0.1,77,14,11000,11.112,,,50,15.1,23.2,,,,,,,,,wg-a,,,,AAXX 22064 07761 02/61 /0506 10180 20140 30151 40162 50001 60006 90600 333 10232 20151 60004=
07761,1997-07-22 12:00:00,26,1015.9,-0.3,61,18,18000,11.112,,,220,,,,,,,,,,,wg-a,,,,AAXX 22124 07761 12/68 12206 10260 20180 30149 40159 58003 60006 80002 91200=
07761,1997-07-22 15:00:00,29,1015.5,-0.4,37,13,18000,14.816,,,210,,,,,,,,,,,wg-a,,,,AAXX 22154 07761 12/68 12108 10290 20130 30145 40155 58004 60006 80002 91500=
07761,1997-07-22 18:00:00,26,1015.7,0.2,70,20,20000,7.408,,,200,18,28.6,,,,,,,,,wg-a,,,,AAXX 22184 07761 12/70 12004 10260 20200 30147 40157 53002 60006 80001 91800 333 10286 20180=
07761,1997-07-22 21:00:00,23,1016.2,0.5,57,14,20000,0,,,0,,,,,,,,,,,wg-a,,,,AAXX 22214 07761 12/70 /0000 10230 20140 30152 40162 53005 60006 81031 92100=
07761,1997-07-23 00:00:00,21,1015.1,-1.2,69,15,20000,25.928,,,80,,,,,,,,,,,wg-a,,,,AAXX 23004 07761 12770 50814 10210 20150 30140 40151 58012 60006 83540 90000=
07761,1997-07-23 03:00:00,20,1014.5,-0.6,68,14,20000,14.816,,,40,,,,,,,,,,,wg-a,,,,AAXX 23034 07761 12/70 40408 10200 20140 30134 40145 56006 60006 83081 90300=
07761,1997-07-23 06:00:00,22,1015.7,1.2,57,13,25000,3.704,,,130,19.2,25.7,,,,,,,,,wg-a,,,,AAXX 23064 07761 02775 /1302 10220 20130 30146 40157 51012 60006 81181 90600 333 10257 20192 60004=
07761,1997-07-23 09:00:00,29,1014.8,-0.8,52,18,500,11.112,,,260,,,,,,,,,,,wg-a,,,,AAXX 23094 07761 12/00 /2606 10290 20180 30138 40148 58008 60006 80000 90900=
07761,1997-07-23 12:00:00,29,1014.8,0,55,19,25000,14.816,,,210,,,,,,,,,,,wg-a,,,,AAXX 23124 07761 12/75 /2108 10290 20190 30138 40148 50000 60006 82082 91200=
07761,1997-07-24 06:00:00,25,1013,-0.7,69,19,20000,3.704,,,210,23.3,29.1,,,,,,,,,wg-a,,,,AAXX 24064 07761 02/70 /2102 10250 20190 30120 40130 55007 60006 82071 90600 333 10291 20233 60004=
07761,1997-07-24 09:00:00,31,1012.8,-0.2,40,16,17000,11.112,,,240,,,,,,,,,,21,wg-a,,,,AAXX 24094 07761 02767 72406 10310 20160 30118 40128 58002 61000 72186 82871 90900 333 ////=
07761,1997-07-24 12:00:00,27,1013.4,0.6,74,22,8000,11.112,,61.116,60,,,,,,,,,,60,wg-a,,,,AAXX 24124 07761 02458 70606 10270 20220 30124 40134 50006 61000 76086 83871 91200 333 6100 91033=
07761,1997-07-24 15:00:00,27,1012.2,-1.2,74,22,12000,11.112,,,110,,,,,,,,,,1,wg-a,,,,AAXX 24154 07761 02562 71106 10270 20220 30112 40122 58012 61000 70162 82871 91500 333 ////=
07761,1997-07-24 18:00:00,24,1012.3,0.1,89,22,15000,7.408,,,280,24.2,31,,,,,,,,2,wg-a,,,,AAXX 24184 07761 12565 /2804 10240 20220 30113 40123 50001 60006 70262 82831 91800 333 10310 20242=
07761,1997-07-24 21:00:00,23,1013.1,0.8,89,21,15000,7.408,,,200,,,,,,,,,,,wg-a,,,,AAXX 24214 07761 12565 /2004 10230 20210 30121 40131 50008 60006 84500 92100=
07761,1997-07-25 00:00:00,21,1012.4,-0.7,94,20,15000,3.704,,,90,,,,,,,,,,,wg-a,,,,AAXX 25004 07761 12565 /0902 10210 20200 30114 40124 56007 60006 81570 90000=
07761,1997-07-25 03:00:00,22,1011.6,-0.8,88,20,12000,3.704,,,160,,,,,,,,,,,wg-a,,,,AAXX 25034 07761 12362 71602 10220 20200 30106 40116 56008 60006 878// 90300=
07761,1997-07-25 06:00:00,23,1011.7,0.1,83,20,14000,3.704,,,100,21.3,24.4,,,,,,,,,wg-a,,,,AAXX 25064 07761 02464 61002 10230 20200 30107 40117 53001 60006 84530 90600 333 10244 20213 61000=
07761,1997-07-25 09:00:00,26,1011.9,0.2,70,20,14000,18.52,,,240,,,,,,,,,,,wg-a,,,,AAXX 25094 07761 12564 /2410 10260 20200 30109 40119 52002 60006 81201 90900=
07761,1997-07-25 12:00:00,26,1011.7,-0.2,65,19,16000,31.484,,,240,,,,,,,,,,,wg-a,,,,AAXX 25124 07761 12566 72417 10260 20190 30107 40117 58002 60006 81202 91200=
07761,1997-07-25 15:00:00,27,1011.6,-0.1,54,17,16000,22.224,,,260,,,,,,,,,,,wg-a,,,,AAXX 25154 07761 12566 72612 10270 20170 30106 40116 58001 60006 81132 91500=
07761,1997-07-25 18:00:00,24,1011.7,0.1,65,17,15000,18.52,,,230,22.7,27.7,,,,,,,,,wg-a,,,,AAXX 25184 07761 12565 72310 10240 20170 30107 40117 53001 60006 81432 91800 333 10277 20227=
07761,1997-07-25 21:00:00,21,1011.9,0.2,78,17,15000,7.408,,,70,,,,,,,,,,,wg-a,,,,AAXX 25214 07761 12665 /0704 10210 20170 30109 40119 50002 60006 81432 92100=
07761,1997-07-26 00:00:00,19,1011.6,-0.4,83,16,15000,14.816,,,70,,,,,,,,,,,wg-a,,,,AAXX 26004 07761 12/65 00708 10190 20160 30105 40116 55004 60006 80000 90000=
07761,1997-07-26 03:00:00,18,1010.7,-0.9,83,15,15000,14.816,,,40,,,,,,,,,,,wg-a,,,,AAXX 26034 07761 12/65 00408 10180 20150 30096 40107 56009 60006 80000 90300=
07761,1997-07-26 06:00:00,20,1011.3,0.6,73,15,20000,11.112,,,50,17.1,23.5,,,,,,,,,wg-a,,,,AAXX 26064 07761 02/70 00506 10200 20150 30102 40113 53006 60006 80000 90600 333 10235 20171 60004=
07761,1997-07-26 09:00:00,25,1011.5,0.3,69,19,20000,11.112,,,230,,,,,,,,,,,wg-a,,,,AAXX 26094 07761 12/70 22306 10250 20190 30105 40115 53003 60006 80001 90900=
07761,1997-07-26 12:00:00,26,1012,0.5,70,20,15000,22.224,,,220,,,,,,,,,,,wg-a,,,,AAXX 26124 07761 12565 32212 10260 20200 30110 40120 52005 60006 81101 91200=
07761,1997-07-26 15:00:00,26,1012.1,0.1,65,19,15000,18.52,,,220,,,,,,,,,,,wg-a,,,,AAXX 26154 07761 12565 22210 10260 20190 30111 40121 52001 60006 82201 91500=
07761,1997-07-26 18:00:00,24,1012.1,-0,74,19,15000,11.112,,,240,19.9,26.7,,,,,,,,,wg-a,,,,AAXX 26184 07761 12665 /2406 10240 20190 30111 40121 55000 60006 81100 91800 333 10267 20199=
07761,1997-07-26 21:00:00,23,1013.3,1.2,83,20,15000,18.52,,,260,,,,,,,,,,,wg-a,,,,AAXX 26214 07761 12/65 12610 10230 20200 30123 40133 53012 60006 80001 92100=
07761,1997-07-27 00:00:00,20,1014.1,0.7,83,17,15000,11.112,,,70,,,,,,,,,,,wg-a,,,,AAXX 27004 07761 12/65 00706 10200 20170 30130 40141 51007 60006 80000 90000=
07761,1997-07-27 03:00:00,18,1014.6,0.5,88,16,15000,11.112,,,50,,,,,,,,,,,wg-a,,,,AAXX 27034 07761 12/65 00506 10180 20160 30135 40146 53005 60006 80000 90300=
07761,1997-07-27 06:00:00,20,1015.9,1.3,78,16,10000,11.112,,,40,17.5,24,,,,,,,,,wg-a,,,,AAXX 27064 07761 02/60 /0406 10200 20160 30148 40159 53013 60006 90600 333 10240 20175 60004=
07761,1997-07-27 09:00:00,26,1016.6,0.8,65,19,22000,11.112,,,230,,,,,,,,,,,wg-a,,,,AAXX 27094 07761 12672 62306 10260 20190 30156 40166 51008 60006 81102 90900=
07761,1997-07-27 12:00:00,27,1016.5,-0.1,66,20,22000,22.224,,,210,,,,,,,,,,,wg-a,,,,AAXX 27124 07761 12772 42112 10270 20200 30155 40165 55001 60006 81202 91200=
07761,1997-07-27 15:00:00,28,1016.2,-0.3,62,20,22000,18.52,,,200,,,,,,,,,,,wg-a,,,,AAXX 27154 07761 12772 22010 10280 20200 30152 40162 58003 60006 81202 91500=
07761,1997-07-27 18:00:00,26,1015.9,-0.3,74,21,22000,11.112,,,240,20.5,28.2,,,,,,,,,wg-a,,,,AAXX 27184 07761 12772 /2406 10260 20210 30149 40159 56003 60006 81102 91800 333 10282 20205=
07761,1997-07-27 21:00:00,23,1017.1,1.2,69,17,15000,3.704,,,50,,,,,,,,,,,wg-a,,,,AAXX 27214 07761 12/65 10502 10230 20170 30161 40171 53012 60006 80001 92100=
07761,1997-07-28 00:00:00,21,1017,-0.2,69,15,15000,11.112,,,40,,,,,,,,,,,wg-a,,,,AAXX 28004 07761 12/65 00406 10210 20150 30159 40170 58002 60006 80000 90000=
07761,1997-07-28 03:00:00,19,1017.1,0.1,78,15,15000,11.112,,,60,,,,,,,,,,,wg-a,,,,AAXX 28034 07761 12/65 10606 10190 20150 30160 40171 53001 60006 80001 90300=
07761,1997-07-28 06:00:00,22,1017.8,0.7,65,15,25000,11.112,,,60,18.4,26.4,,,,,,,,,wg-a,,,,AAXX 28064 07761 02/75 /0606 10220 20150 30167 40178 51007 60006 81032 90600 333 10264 20184 60004=
07761,1997-07-28 12:00:00,27,1018.1,-0.3,74,22,500,14.816,,,200,,,,,,,,,,,wg-a,,,,AAXX 28124 07761 12600 42008 10270 20220 30171 40181 58003 60006 81933 91200=
07761,1997-07-28 15:00:00,28,1017.1,-1,66,21,25000,14.816,,,190,,,,,,,,,,,wg-a,,,,AAXX 28154 07761 12675 21908 10280 20210 30161 40171 58010 60006 82903 91500=
07761,1997-07-28 18:00:00,27,1017,-0.1,66,20,25000,14.816,,,210,21.8,29.9,,,,,,,,,wg-a,,,,AAXX 28184 07761 12675 /2108 10270 20200 30160 40170 55001 60006 81903 91800 333 10299 20218=
07761,1997-07-28 21:00:00,23,1018.3,1.3,73,18,20000,3.704,,,40,,,,,,,,,,,wg-a,,,,AAXX 28214 07761 12/70 20402 10230 20180 30173 40183 51013 60006 80002 92100=
07761,1997-07-29 00:00:00,21,1018.1,-0.3,73,16,20000,7.408,,,60,,,,,,,,,,,wg-a,,,,AAXX 29004 07761 12/70 00604 10210 20160 30170 40181 58003 60006 80000 90000=
07761,1997-07-29 03:00:00,20,1017.3,-0.8,73,15,20000,14.816,,,40,,,,,,,,,,,wg-a,,,,AAXX 29034 07761 12/70 00408 10200 20150 30162 40173 58008 60006 80000 90300=
07761,1997-07-29 06:00:00,22,1017.7,0.4,69,16,20000,14.816,,,50,19.2,26.9,,,,,,,,,wg-a,,,,AAXX 29064 07761 02/70 40508 10220 20160 30166 40177 53004 60006 81032 90600 333 10269 20192 60004=
07761,1997-07-29 12:00:00,28,1017.5,-0.6,66,21,18000,25.928,,,190,,,,,,,,,,,wg-a,,,,AAXX 29124 07761 12568 /1914 10280 20210 30165 40175 58006 60006 81102 91200=
07761,1997-07-29 18:00:00,26,1016.4,-0,79,22,18000,22.224,,,190,22.4,28.7,,,,,,,,,wg-a,,,,AAXX 29184 07761 12668 41912 10260 20220 30154 40164 55000 60006 81202 91800 333 10287 20224=
07761,1997-07-29 21:00:00,23,1017.6,1.2,83,20,18000,7.408,,,60,,,,,,,,,,,wg-a,,,,AAXX 29214 07761 12/68 00604 10230 20200 30166 40176 53012 60006 80000 92100=
07761,1997-07-30 00:00:00,20,1017.2,-0.5,78,16,18000,7.408,,,60,,,,,,,,,,,wg-a,,,,AAXX 30004 07761 12/68 00604 10200 20160 30161 40172 58005 60006 80000 90000=
07761,1997-07-30 03:00:00,17,1016.7,-0.5,82,14,18000,11.112,,,50,,,,,,,,,,,wg-a,,,,AAXX 30034 07761 12/68 00506 10170 20140 30156 40167 56005 60006 80000 90300=
07761,1997-07-30 06:00:00,19,1017.1,0.4,73,14,25000,14.816,,,50,16.9,25.7,,,,,,,,,wg-a,,,,AAXX 30064 07761 02775 /0508 10190 20140 30160 40171 53004 60006 81101 90600 333 10257 20169 60004=
07761,1997-07-30 09:00:00,26,1017.1,0.1,70,20,17000,14.816,,,230,,,,,,,,,,,wg-a,,,,AAXX 30094 07761 12667 /2308 10260 20200 30161 40171 53001 60006 8180/ 90900=
07761,1997-07-30 12:00:00,27,1016.6,-0.5,70,21,17000,22.224,,,230,,,,,,,,,,,wg-a,,,,AAXX 30124 07761 12667 /2312 10270 20210 30156 40166 58005 60006 81202 91200=
07761,1997-07-30 15:00:00,27,1015.7,-0.9,70,21,17000,25.928,,,210,,,,,,,,,,,wg-a,,,,AAXX 30154 07761 12667 /2114 10270 20210 30147 40157 57009 60006 81802 91500=
07761,1997-07-30 18:00:00,25,1015,-0.7,69,19,17000,14.816,,,200,19.5,27.8,,,,,,,,,wg-a,,,,AAXX 30184 07761 12667 /2008 10250 20190 30140 40150 56007 60006 81202 91800 333 10278 20195=
07761,1997-07-30 21:00:00,21,1016.3,1.2,83,18,20000,7.408,,,60,,,,,,,,,,,wg-a,,,,AAXX 30214 07761 12/70 00604 10210 20180 30152 40163 53012 60006 80000 92100=
07761,1997-07-31 00:00:00,19,1015.8,-0.5,83,16,20000,11.112,,,50,,,,,,,,,,,wg-a,,,,AAXX 31004 07761 12/70 00506 10190 20160 30147 40158 58005 60006 80000 90000=
07761,1997-07-31 03:00:00,17,1014.8,-1,88,15,20000,7.408,,,60,,,,,,,,,,,wg-a,,,,AAXX 31034 07761 12/70 00604 10170 20150 30137 40148 56010 60006 80000 90300=
07761,1997-07-31 06:00:00,19,1015.3,0.5,78,15,10000,11.112,,,50,16.5,25.4,,,,,,,,,wg-a,,,,AAXX 31064 07761 02/60 /0506 10190 20150 30142 40153 53005 60006 90600 333 10254 20165 60004=
07761,1997-07-31 09:00:00,26,1014.7,-0.5,61,18,25000,7.408,,,220,,,,,,,,,,,wg-a,,,,AAXX 31094 07761 12675 22204 10260 20180 30137 40147 58005 60006 81102 90900=
07761,1997-07-31 12:00:00,27,1014.4,-0.3,70,21,15000,22.224,,,220,,,,,,,,,,,wg-a,,,,AAXX 31124 07761 12565 72212 10270 20210 30134 40144 58003 60006 81102 91200=
07761,1997-07-31 18:00:00,25,1012,-1.1,79,21,10000,14.816,,,230,19.3,27.3,,,,,,,,,wg-a,,,,AAXX 31184 07761 12/60 42308 10250 20210 30110 40120 55011 60006 80002 91800 333 10273 20193=
07761,1997-07-31 21:00:00,22,1012,0,83,19,10000,7.408,,,70,,,,,,,,,,,wg-a,,,,AAXX 31214 07761 12460 /0704 10220 20190 30110 40120 50000 60006 81502 92100=
07761,1997-08-01 00:00:00,19,1010.7,-1.4,83,16,10000,11.112,,,60,,,,,,,,,,,wg-a,,,,AAXX 01004 07761 12460 60606 10190 20160 30096 40107 58014 60006 84530 90000=
07761,1997-08-01 03:00:00,19,1008.7,-2,83,16,10000,7.408,,,50,,,,,,,,,,,wg-a,,,,AAXX 01034 07761 12460 70504 10190 20160 30076 40087 57020 60006 81501 90300=
07761,1997-08-01 06:00:00,21,1007.4,-1.2,69,15,18000,14.816,,,40,18.4,24.9,,,,,,,,,wg-a,,,,AAXX 01064 07761 02568 70408 10210 20150 30064 40074 56012 60006 81531 90600 333 10249 20184 60004=
07761,1997-08-01 09:00:00,26,1007.2,-0.2,61,18,20000,11.112,,,220,,,,,,,,,,,wg-a,,,,AAXX 01094 07761 12570 /2206 10260 20180 30062 40072 55002 60006 81572 90900=
07761,1997-08-01 12:00:00,27,1006.7,-0.5,54,17,20000,22.224,,,230,,,,,,,,,,,wg-a,,,,AAXX 01124 07761 12570 /2312 10270 20170 30057 40067 58005 60006 81102 91200=
07761,1997-08-01 15:00:00,27,1006.4,-0.3,66,20,20000,22.224,,,210,,,,,,,,,,,wg-a,,,,AAXX 01154 07761 12570 /2112 10270 20200 30054 40064 57003 60006 81102 91500=
07761,1997-08-01 18:00:00,25,1007.3,0.9,74,20,18000,14.816,,,210,20.7,27.3,,,,,,,,,wg-a,,,,AAXX 01184 07761 12568 /2108 10250 20200 30063 40073 53009 60006 81100 91800 333 10273 20207=
07761,1997-08-01 21:00:00,22,1008.8,1.5,83,19,18000,7.408,,,60,,,,,,,,,,,wg-a,,,,AAXX 01214 07761 12568 /0604 10220 20190 30078 40088 51015 60006 81500 92100=
07761,1997-08-02 00:00:00,20,1009,0.2,88,18,18000,11.112,,,50,,,,,,,,,,,wg-a,,,,AAXX 02004 07761 12/68 00506 10200 20180 30080 40090 53002 60006 80000 90000=
07761,1997-08-02 03:00:00,19,1009.5,0.4,88,17,12000,7.408,,,70,,,,,,,,,,,wg-a,,,,AAXX 02034 07761 12/62 00704 10190 20170 30084 40095 53004 60006 80000 90300=
07761,1997-08-02 06:00:00,20,1011.5,2,83,17,12000,7.408,,,50,18.3,24.5,,,,,,,,,wg-a,,,,AAXX 02064 07761 02562 /0504 10200 20170 30104 40115 51020 60006 81800 90600 333 10245 20183 60004=
07761,1997-08-02 09:00:00,26,1012.1,0.7,70,20,11000,11.112,,,240,,,,,,,,,,,wg-a,,,,AAXX 02094 07761 12/61 /2406 10260 20200 30111 40121 52007 60006 90900=
07761,1997-08-02 12:00:00,28,1012.4,0.3,62,20,15000,14.816,,,210,,,,,,,,,,,wg-a,,,,AAXX 02124 07761 12565 /2108 10280 20200 30114 40124 51003 60006 81200 91200=
07761,1997-08-02 15:00:00,28,1012.1,-0.3,66,21,15000,14.816,,,210,,,,,,,,,,,wg-a,,,,AAXX 02154 07761 12565 22108 10280 20210 30111 40121 56003 60006 82800 91500=
07761,1997-08-02 18:00:00,27,1012.4,0.3,70,21,15000,7.408,,,210,20.2,28.7,,,,,,,,,wg-a,,,,AAXX 02184 07761 12565 32104 10270 20210 30114 40124 51003 60006 81802 91800 333 10287 20202=
07761,1997-08-02 21:00:00,23,1014.1,1.7,78,19,15000,7.408,,,60,,,,,,,,,,,wg-a,,,,AAXX 02214 07761 12/65 00604 10230 20190 30131 40141 53017 60006 80000 92100=
07761,1997-08-03 00:00:00,21,1014.9,0.7,78,17,15000,7.408,,,40,,,,,,,,,,,wg-a,,,,AAXX 03004 07761 12/65 00404 10210 20170 30138 40149 50007 60006 80000 90000=
07761,1997-08-03 03:00:00,20,1014.5,-0.4,78,16,15000,11.112,,,60,,,,,,,,,,,wg-a,,,,AAXX 03034 07761 12/65 00606 10200 20160 30134 40145 58004 60006 80000 90300=
07761,1997-08-03 06:00:00,22,1015.5,1.1,69,16,10000,7.408,,,70,19.3,26.7,,,,,,,,,wg-a,,,,AAXX 03064 07761 02/60 00704 10220 20160 30145 40155 53011 60006 80000 90600 333 10267 20193 60004=
07761,1997-08-03 09:00:00,27,1016.4,0.9,70,21,12000,14.816,,,220,,,,,,,,,,,wg-a,,,,AAXX 03094 07761 12762 /2208 10270 20210 30154 40164 51009 60006 81100 90900=
07761,1997-08-03 12:00:00,29,1016.4,-0,45,16,17000,22.224,,,230,,,,,,,,,,,wg-a,,,,AAXX 03124 07761 12767 /2312 10290 20160 30154 40164 55000 60006 81100 91200=
07761,1997-08-03 15:00:00,27,1016.1,-0.3,70,21,15000,22.224,,,210,,,,,,,,,,,wg-a,,,,AAXX 03154 07761 12765 /2112 10270 20210 30151 40161 55003 60006 81400 91500=
07761,1997-08-03 18:00:00,25,1016,-0.1,79,21,12000,11.112,,,230,21.8,28.8,,,,,,,,,wg-a,,,,AAXX 03184 07761 12762 /2306 10250 20210 30150 40160 55001 60006 81401 91800 333 10288 20218=
07761,1997-08-03 21:00:00,22,1016.9,0.9,78,18,25000,7.408,,,70,,,,,,,,,,,wg-a,,,,AAXX 03214 07761 12/75 00704 10220 20180 30159 40169 51009 60006 80000 92100=
07761,1997-08-04 00:00:00,19,1017.3,0.3,83,16,25000,11.112,,,50,,,,,,,,,,,wg-a,,,,AAXX 04004 07761 12/75 00506 10190 20160 30162 40173 53003 60006 80000 90000=
07761,1997-08-04 03:00:00,19,1016.6,-0.7,78,15,25000,11.112,,,50,,,,,,,,,,,wg-a,,,,AAXX 04034 07761 12/75 00506 10190 20150 30155 40166 58007 60006 80000 90300=
07761,1997-08-04 06:00:00,20,1017.4,0.8,78,16,25000,7.408,,,50,18,25.4,,,,,,,,,wg-a,,,,AAXX 04064 07761 02875 20504 10200 20160 30163 40174 53008 60006 81501 90600 333 10254 20180 60004=
07761,1997-08-04 09:00:00,27,1017.4,0.1,66,20,25000,18.52,,,220,,,,,,,,,,,wg-a,,,,AAXX 04094 07761 12675 /2210 10270 20200 30164 40174 53001 60006 81101 90900=
07761,1997-08-04 12:00:00,29,1016.7,-0.7,62,21,20000,25.928,,,190,,,,,,,,,,,wg-a,,,,AAXX 04124 07761 12770 /1914 10290 20210 30157 40167 57007 60006 81201 91200=
07761,1997-08-04 15:00:00,29,1015.9,-0.8,62,21,20000,18.52,,,200,,,,,,,,,,,wg-a,,,,AAXX 04154 07761 12670 /2010 10290 20210 30149 40159 58008 60006 81201 91500=
07761,1997-08-04 18:00:00,30,1015.7,-0.2,46,17,25000,7.408,,,60,19.7,30.3,,,,,,,,,wg-a,,,,AAXX 04184 07761 12675 /0604 10300 20170 30147 40157 58002 60006 81802 91800 333 10303 20197=
07761,1997-08-04 21:00:00,24,1016.8,1.1,61,16,25000,11.112,,,60,,,,,,,,,,,wg-a,,,,AAXX 04214 07761 12/75 00606 10240 20160 30158 40168 51011 60006 80000 92100=
07761,1997-08-05 00:00:00,21,1017,0.1,73,16,18000,11.112,,,50,,,,,,,,,,,wg-a,,,,AAXX 05004 07761 12/68 00506 10210 20160 30159 40170 53001 60006 80000 90000=
07761,1997-08-05 03:00:00,20,1016.3,-0.7,73,15,18000,11.112,,,60,,,,,,,,,,,wg-a,,,,AAXX 05034 07761 12/68 60606 10200 20150 30152 40163 58007 60006 80001 90300=
07761,1997-08-05 06:00:00,21,1016.7,0.4,73,16,20000,11.112,,,40,18.9,29.8,,,,,,,,,wg-a,,,,AAXX 05064 07761 02/70 70406 10210 20160 30156 40167 51004 60006 8708/ 90600 333 10298 20189 60004=
07761,1997-08-05 09:00:00,28,1016.1,-0.5,58,19,25000,11.112,,,250,,,,,,,,,,,wg-a,,,,AAXX 05094 07761 12/75 72506 10280 20190 30151 40161 58005 60006 83072 90900=
07761,1997-08-05 12:00:00,27,1016.1,-0,70,21,25000,18.52,,,220,,,,,,,,,,,wg-a,,,,AAXX 05124 07761 12675 72210 10270 20210 30151 40161 55000 60006 83272 91200=
07761,1997-08-05 15:00:00,26,1015.5,-0.6,74,21,20000,14.816,,,200,,,,,,,,,,,wg-a,,,,AAXX 05154 07761 12570 72008 10260 20210 30145 40155 58006 60006 8228/ 91500=
07761,1997-08-05 18:00:00,27,1013.7,-1.8,66,20,25000,3.704,,,70,21.4,29.1,,,,,,,,,wg-a,,,,AAXX 05184 07761 12/75 60702 10270 20200 30127 40137 56018 60006 8608/ 91800 333 10291 20214=
07761,1997-08-05 21:00:00,23,1014.7,1,83,20,25000,7.408,,,40,,,,,,,,,,,wg-a,,,,AAXX 05214 07761 12/75 50404 10230 20200 30137 40147 51010 60006 8508/ 92100=
07761,1997-08-06 00:00:00,21,1015.2,0.4,83,18,20000,11.112,,,50,,,,,,,,,,,wg-a,,,,AAXX 06004 07761 12/70 40506 10210 20180 30141 40152 51004 60006 84050 90000=
07761,1997-08-06 03:00:00,22,1013,-2.1,83,19,15000,3.704,,,40,,,,0,,,,,,1,wg-a,,,,AAXX 06034 07761 12765 40402 10220 20190 30120 40130 56021 60007 70161 82550 90300=
07761,1997-08-06 06:00:00,22,1013.4,0.4,83,19,15000,7.408,,,70,20.9,26.6,,,,,,,,3,wg-a,,,,AAXX 06064 07761 02665 /0704 10220 20190 30124 40134 52004 60006 70361 82850 90600 333 10266 20209 60004=
07761,1997-08-06 09:00:00,26,1013.6,0.2,70,20,20000,11.112,,,220,,,,,,,,,,,wg-a,,,,AAXX 06094 07761 12570 /2206 10260 20200 30126 40136 51002 60006 85850 90900=
07761,1997-08-06 12:00:00,27,1013.4,-0.2,66,20,25000,22.224,,,240,,,,,,,,,,,wg-a,,,,AAXX 06124 07761 12575 22412 10270 20200 30124 40134 58002 60006 82300 91200=
07761,1997-08-06 15:00:00,27,1012.2,-1.2,66,20,25000,18.52,,,220,,,,,,,,,,,wg-a,,,,AAXX 06154 07761 12575 22210 10270 20200 30112 40122 58012 60006 82200 91500=
07761,1997-08-06 18:00:00,26,1012.3,0.1,70,20,25000,18.52,,,180,22.2,28.2,,,,,,,,,wg-a,,,,AAXX 06184 07761 12575 /1810 10260 20200 30113 40123 53001 60006 81800 91800 333 10282 20222=
07761,1997-08-06 21:00:00,22,1013.8,1.5,83,19,25000,11.112,,,70,,,,,,,,,,,wg-a,,,,AAXX 06214 07761 12/75 00706 10220 20190 30128 40138 53015 60006 80000 92100=
07761,1997-08-07 00:00:00,20,1014.4,0.5,83,17,25000,11.112,,,50,,,,,,,,,,,wg-a,,,,AAXX 07004 07761 12/75 00506 10200 20170 30133 40144 53005 60006 80000 90000=
07761,1997-08-07 03:00:00,18,1013.6,-0.8,88,16,25000,14.816,,,60,,,,,,,,,,,wg-a,,,,AAXX 07034 07761 12/75 00608 10180 20160 30125 40136 56008 60006 80000 90300=
07761,1997-08-07 06:00:00,21,1013.2,-0.4,73,16,500,18.52,,,50,18.3,25.9,,,,,,,,,wg-a,,,,AAXX 07064 07761 02/00 10510 10210 20160 30121 40132 56004 60006 80001 90600 333 10259 20183 60004=
07761,1997-08-07 09:00:00,27,1015.1,2,58,18,500,11.112,,,250,,,,,,,,,,,wg-a,,,,AAXX 07094 07761 12500 52506 10270 20180 30141 40151 51020 60006 81102 90900=
07761,1997-08-07 12:00:00,28,1014,-1.1,66,21,500,14.816,,,240,,,,,,,,,,,wg-a,,,,AAXX 07124 07761 12600 /2408 10280 20210 30130 40140 58011 60006 81136 91200=
07761,1997-08-07 15:00:00,29,1013,-1,52,18,500,18.52,,,230,,,,,,,,,,,wg-a,,,,AAXX 07154 07761 12600 22310 10290 20180 30120 40130 56010 60006 81202 91500=
07761,1997-08-07 18:00:00,27,1012.8,-0.2,58,18,500,11.112,,,210,20.6,29.1,,,,,,,,,wg-a,,,,AAXX 07184 07761 12/00 22106 10270 20180 30118 40128 55002 60006 80002 91800 333 10291 20206=
07761,1997-08-07 21:00:00,22,1014.7,1.9,69,16,10000,7.408,,,50,,,,,,,,,,,wg-a,,,,AAXX 07214 07761 12/60 /0504 10220 20160 30137 40147 51019 60006 92100=
07761,1997-08-08 00:00:00,19,1015,0.2,78,15,20000,11.112,,,50,,,,,,,,,,,wg-a,,,,AAXX 08004 07761 12/70 00506 10190 20150 30139 40150 50002 60006 80000 90000=
07761,1997-08-08 03:00:00,18,1015,-0,77,14,20000,14.816,,,50,,,,,,,,,,,wg-a,,,,AAXX 08034 07761 12/70 00508 10180 20140 30139 40150 55000 60006 80000 90300=
07761,1997-08-08 06:00:00,21,1015.1,0.1,60,13,40000,14.816,,,40,17.4,26.5,,,,,,,,,wg-a,,,,AAXX 08064 07761 02/82 /0408 10210 20130 30140 40151 53001 60006 81080 90600 333 10265 20174 60004=
07761,1997-08-08 09:00:00,27,1015.3,0.3,58,18,500,14.816,,,220,,,,,,,,,,,wg-a,,,,AAXX 08094 07761 12600 /2208 10270 20180 30143 40153 53003 60006 81130 90900=
07761,1997-08-08 12:00:00,28,1015.5,0.2,66,21,500,22.224,,,200,,,,,,,,,,,wg-a,,,,AAXX 08124 07761 12/00 02012 10280 20210 30145 40155 53002 60006 80000 91200=
07761,1997-08-08 15:00:00,30,1014.3,-1.2,55,20,25000,22.224,,,190,,,,,,,,,,,wg-a,,,,AAXX 08154 07761 12675 21912 10300 20200 30133 40143 56012 60006 81181 91500=
07761,1997-08-08 18:00:00,27,1013.9,-0.4,79,23,20000,7.408,,,280,20.9,30.5,,,,,,,,,wg-a,,,,AAXX 08184 07761 12/70 /2804 10270 20230 30129 40139 58004 60006 81082 91800 333 10305 20209=
07761,1997-08-08 21:00:00,23,1015.1,1.2,78,19,20000,3.704,,,60,,,,,,,,,,,wg-a,,,,AAXX 08214 07761 12/70 20602 10230 20190 30141 40151 52012 60006 81082 92100=
07761,1997-08-09 00:00:00,20,1016,0.8,73,15,20000,14.816,,,60,,,,,,,,,,,wg-a,,,,AAXX 09004 07761 12/70 00608 10200 20150 30149 40160 50008 60006 80000 90000=
07761,1997-08-09 03:00:00,20,1014.7,-1.3,68,14,20000,11.112,,,50,,,,,,,,,,,wg-a,,,,AAXX 09034 07761 12/70 00506 10200 20140 30136 40147 55013 60006 80000 90300=
07761,1997-08-09 06:00:00,22,1015.4,0.8,60,14,25000,3.704,,,60,19.6,26.6,,,,,,,,,wg-a,,,,AAXX 09064 07761 02/75 10602 10220 20140 30144 40154 51008 60006 81031 90600 333 10266 20196 60004=
07761,1997-08-09 12:00:00,29,1015.1,-0.1,70,23,25000,14.816,,,240,,,,,,,,,,,wg-a,,,,AAXX 09124 07761 12/75 02408 10290 20230 30141 40151 58001 60006 80000 91200=
07761,1997-08-09 15:00:00,29,1013.9,-1.2,74,24,20000,11.112,,,230,,,,,,,,,,,wg-a,,,,AAXX 09154 07761 12/70 02306 10290 20240 30129 40139 58012 60006 80000 91500=
07761,1997-08-09 18:00:00,27,1013.5,-0.4,79,23,20000,7.408,,,220,21.9,30,,,,,,,,,wg-a,,,,AAXX 09184 07761 12/70 32204 10270 20230 30125 40135 55004 60006 80008 91800 333 10300 20219=
07761,1997-08-09 21:00:00,25,1013.9,0.4,65,18,20000,7.408,,,50,,,,,,,,,,,wg-a,,,,AAXX 09214 07761 12/70 50504 10250 20180 30129 40139 53004 60006 80008 92100=
07761,1997-08-10 00:00:00,23,1014.1,0.2,61,15,20000,7.408,,,60,,,,,,,,,,,wg-a,,,,AAXX 10004 07761 12/70 00604 10230 20150 30131 40141 53002 60006 80000 90000=
07761,1997-08-10 03:00:00,20,1014.2,-0,73,15,20000,11.112,,,50,,,,,,,,,,,wg-a,,,,AAXX 10034 07761 12/70 00506 10200 20150 30131 40142 55000 60006 80000 90300=
07761,1997-08-10 06:00:00,22,1014.4,0.3,60,14,20000,11.112,,,50,20,27,,,,,,,,,wg-a,,,,AAXX 10064 07761 02/70 20506 10220 20140 30134 40144 52003 60006 80001 90600 333 10270 20200 60004=
07761,1997-08-10 09:00:00,28,1014.5,0.1,66,21,20000,14.816,,,220,,,,,,,,,,,wg-a,,,,AAXX 10094 07761 12/70 22208 10280 20210 30135 40145 53001 60006 80001 90900=
07761,1997-08-10 12:00:00,30,1014.2,-0.3,62,22,15000,14.816,,,230,,,,,,,,,,,wg-a,,,,AAXX 10124 07761 12565 /2308 10300 20220 30132 40142 58003 60006 81102 91200=
07761,1997-08-10 15:00:00,30,1012.5,-1.7,62,22,11000,18.52,,,210,,,,,,,,,,,wg-a,,,,AAXX 10154 07761 12/61 /2110 10300 20220 30115 40125 56017 60006 91500=
07761,1997-08-10 18:00:00,28,1013.8,1.3,62,20,15000,18.52,,,190,22.3,31.2,,,,,,,,,wg-a,,,,AAXX 10184 07761 12/65 51910 10280 20200 30128 40138 51013 60006 80002 91800 333 10312 20223=
07761,1997-08-10 21:00:00,25,1014.6,0.8,61,17,15000,3.704,,,120,,,,,,,,,,,wg-a,,,,AAXX 10214 07761 12/65 51202 10250 20170 30136 40146 51008 60006 81032 92100=
07761,1997-08-11 00:00:00,24,1013.8,-0.8,65,17,15000,3.704,,,140,,,,,,,,,,,wg-a,,,,AAXX 11004 07761 12/65 71402 10240 20170 30128 40138 55008 60006 84032 90000=
07761,1997-08-11 03:00:00,24,1013,-0.8,65,17,15000,14.816,,,50,,,,,,,,,,,wg-a,,,,AAXX 11034 07761 12665 80508 10240 20170 30120 40130 58008 60006 83572 90300=
07761,1997-08-11 06:00:00,25,1014.5,1.5,61,17,18000,7.408,,,130,23.3,27.5,,,,,,,,,wg-a,,,,AAXX 11064 07761 02768 51304 10250 20170 30135 40145 53015 60006 82571 90600 333 10275 20233 60004=
07761,1997-08-11 12:00:00,30,1014.5,-1,52,19,18000,25.928,,,260,,,,,,,,,,,wg-a,,,,AAXX 11124 07761 12568 /2614 10300 20190 30135 40145 55010 60006 81580 91200=
07761,1997-08-11 15:00:00,27,1016.1,1.6,74,22,10000,18.52,,,260,,,,0,,,,,,80,wg-a,,,,AAXX 11154 07761 12560 72610 10270 20220 30151 40161 53016 60007 78098 8338/ 91500=
07761,1997-08-11 18:00:00,26,1016.1,-0,79,22,10000,3.704,,,140,25,32.7,,1,,,,,,1,wg-a,,,,AAXX 11184 07761 02560 71402 10260 20220 30151 40161 55000 60006 70198 83332 91800 333 10327 20250 60017=
07761,1997-08-11 21:00:00,24,1017,0.9,83,21,10000,7.408,,,60,,,,,,,,,,13,wg-a,,,,AAXX 11214 07761 12560 80604 10240 20210 30160 40170 51009 60006 71322 81382 92100=
07761,1997-08-12 00:00:00,23,1017.4,0.4,83,20,10000,7.408,,,70,,,,,,,,,,13,wg-a,,,,AAXX 12004 07761 12560 70704 10230 20200 30164 40174 52004 60006 71322 82382 90000=
07761,1997-08-12 03:00:00,22,1017.1,-0.3,83,19,10000,14.816,,,60,,,,,,,,,,13,wg-a,,,,AAXX 12034 07761 12460 /0608 10220 20190 30161 40171 58003 60006 71391 83370 90300=
07761,1997-08-12 06:00:00,22,1018.1,0.9,83,19,15000,11.112,,,50,21.2,26.3,,,,,1,,,1,wg-a,,,,AAXX 12064 07761 02565 70506 10220 20190 30170 40181 53009 60006 70191 8423/ 90600 333 10263 20212 60014=
07761,1997-08-12 09:00:00,27,1018.4,0.4,66,20,18000,11.112,,,250,,,,,,,,,,,wg-a,,,,AAXX 12094 07761 12668 22506 10270 20200 30174 40184 53004 60006 81230 90900=
07761,1997-08-12 12:00:00,28,1019,0.6,66,21,20000,14.816,,,200,,,,,,,,,,,wg-a,,,,AAXX 12124 07761 12670 42008 10280 20210 30180 40190 53006 60006 82230 91200=
07761,1997-08-12 15:00:00,28,1018.4,-0.6,66,21,15000,22.224,,,210,,,,,,,,,,,wg-a,,,,AAXX 12154 07761 12665 22112 10280 20210 30174 40184 58006 60006 82230 91500=
07761,1997-08-12 18:00:00,27,1018.5,0.1,62,19,18000,7.408,,,220,21.9,28.5,,,,,,,,,wg-a,,,,AAXX 12184 07761 12668 /2204 10270 20190 30175 40185 53001 60006 81801 91800 333 10285 20219=
07761,1997-08-13 00:00:00,20,1019.8,0.2,73,15,15000,14.816,,,60,,,,,,,,,,,wg-a,,,,AAXX 13004 07761 12/65 00608 10200 20150 30187 40198 52002 60006 80000 90000=
07761,1997-08-13 03:00:00,18,1019.6,-0.2,73,13,15000,11.112,,,40,,,,,,,,,,,wg-a,,,,AAXX 13034 07761 12/65 00406 10180 20130 30185 40196 57002 60006 80000 90300=
07761,1997-08-13 06:00:00,20,1020,0.4,64,13,25000,11.112,,,50,16.4,26.5,,,,,,,,,wg-a,,,,AAXX 13064 07761 02/75 10506 10200 20130 30189 40200 53004 60006 80001 90600 333 10265 20164 60004=
07761,1997-08-13 09:00:00,28,1020.2,0.3,55,18,25000,18.52,,,240,,,,,,,,,,,wg-a,,,,AAXX 13094 07761 12/75 02410 10280 20180 30192 40202 52003 60006 80000 90900=
07761,1997-08-13 12:00:00,28,1019.8,-0.4,70,22,25000,22.224,,,230,,,,,,,,,,,wg-a,,,,AAXX 13124 07761 12675 /2312 10280 20220 30188 40198 58004 60006 81100 91200=
07761,1997-08-13 18:00:00,28,1019.6,0.1,32,10,25000,3.704,,,320,19.7,28.4,,,,,,,,,wg-a,,,,AAXX 13184 07761 12775 /3202 10280 20100 30186 40196 53001 60006 81541 91800 333 10284 20197=
07761,1997-08-13 21:00:00,22,1020.6,0.9,57,13,20000,14.816,,,60,,,,,,,,,,,wg-a,,,,AAXX 13214 07761 12/70 00608 10220 20130 30195 40206 52009 60006 80000 92100=
07761,1997-08-14 00:00:00,20,1020.3,-0.3,68,14,20000,14.816,,,50,,,,,,,,,,,wg-a,,,,AAXX 14004 07761 12/70 00508 10200 20140 30192 40203 58003 60006 80000 90000=
07761,1997-08-14 03:00:00,18,1019.8,-0.5,73,13,20000,7.408,,,60,,,,,,,,,,,wg-a,,,,AAXX 14034 07761 12/70 00604 10180 20130 30187 40198 56005 60006 80000 90300=
07761,1997-08-14 06:00:00,20,1020.6,0.8,60,12,20000,14.816,,,40,16.8,27.8,,,,,,,,,wg-a,,,,AAXX 14064 07761 02/70 00408 10200 20120 30195 40206 51008 60006 80000 90600 333 10278 20168 60004=
07761,1997-08-14 09:00:00,28,1020.5,-0,48,16,20000,7.408,,,230,,,,,,,,,,,wg-a,,,,AAXX 14094 07761 12/70 02304 10280 20160 30195 40205 55000 60006 80000 90900=
07761,1997-08-14 12:00:00,28,1019.9,-0.6,66,21,11000,22.224,,,210,,,,,,,,,,,wg-a,,,,AAXX 14124 07761 12/61 /2112 10280 20210 30189 40199 58006 60006 91200=
07761,1997-08-14 15:00:00,28,1019.1,-0.8,62,20,20000,18.52,,,220,,,,,,,,,,,wg-a,,,,AAXX 14154 07761 12770 /2210 10280 20200 30181 40191 58008 60006 81100 91500=
07761,1997-08-14 18:00:00,26,1018.4,-0.7,61,18,20000,11.112,,,210,19.8,28.3,,,,,,,,,wg-a,,,,AAXX 14184 07761 12/70 /2106 10260 20180 30174 40184 58007 60006 80001 91800 333 10283 20198=
07761,1997-08-14 21:00:00,22,1019.6,1.1,65,15,20000,11.112,,,50,,,,,,,,,,,wg-a,,,,AAXX 14214 07761 12/70 10506 10220 20150 30185 40196 51011 60006 80001 92100=
07761,1997-08-15 00:00:00,19,1019.1,-0.5,73,14,20000,11.112,,,50,,,,,,,,,,,wg-a,,,,AAXX 15004 07761 12/70 10506 10190 20140 30180 40191 58005 60006 80001 90000=
07761,1997-08-15 03:00:00,18,1018.7,-0.4,68,12,20000,11.112,,,50,,,,,,,,,,,wg-a,,,,AAXX 15034 07761 12/70 00506 10180 20120 30176 40187 56004 60006 80000 90300=
07761,1997-08-15 04:00:00,19,1019.1,,56,10,25000,12.964,,,50,17,26,,,,,,,,,wg-a,,,,AAXX 15044 07761 02/75 10507 10190 20100 30180 40191 60006 80001 90400 333 10260 20170 60004=
07761,1997-08-15 06:00:00,19,1019.1,0.4,56,10,10000,11.112,,,40,17,26,,,,,,,,,wg-a,,,,AAXX 15064 07761 02/60 /0406 10190 20100 30180 40191 53004 60006 90600 333 10260 20170 60004=
07761,1997-08-15 12:00:00,29,1019,-0.1,48,17,20000,18.52,,,210,,,,,,,,,,,wg-a,,,,AAXX 15124 07761 12670 52110 10290 20170 30180 40190 58001 60006 81101 91200=
07761,1997-08-15 15:00:00,28,1018,-1,58,19,20000,14.816,,,220,,,,,,,,,,,wg-a,,,,AAXX 15154 07761 12670 /2208 10280 20190 30170 40180 58010 60006 81101 91500=
07761,1997-08-15 18:00:00,26,1017.3,-0.7,70,20,20000,11.112,,,200,19.3,29.5,,,,,,,,,wg-a,,,,AAXX 15184 07761 12/70 32006 10260 20200 30163 40173 55007 60006 80001 91800 333 10295 20193=
07761,1997-08-15 21:00:00,22,1018.4,1,65,15,15000,11.112,,,60,,,,,,,,,,,wg-a,,,,AAXX 15214 07761 12/65 30606 10220 20150 30173 40184 52010 60006 80001 92100=
07761,1997-08-16 00:00:00,19,1017.8,-0.6,68,13,15000,11.112,,,50,,,,,,,,,,,wg-a,,,,AAXX 16004 07761 12/65 60506 10190 20130 30167 40178 56006 60006 80001 90000=
07761,1997-08-16 03:00:00,18,1017.2,-0.6,68,12,15000,11.112,,,50,,,,,,,,,,,wg-a,,,,AAXX 16034 07761 12/65 30506 10180 20120 30161 40172 56006 60006 81041 90300=
07761,1997-08-16 06:00:00,20,1017.4,0.2,56,11,18000,14.816,,,40,16.7,26.2,,,,,,,,,wg-a,,,,AAXX 16064 07761 02/68 20408 10200 20110 30163 40174 53002 60006 81041 90600 333 10262 20167 60004=
07761,1997-08-16 09:00:00,27,1017.5,0.2,62,19,18000,18.52,,,230,,,,,,,,,,,wg-a,,,,AAXX 16094 07761 12568 32310 10270 20190 30165 40175 53002 60006 81141 90900=
07761,1997-08-16 12:00:00,28,1017.2,-0.3,66,21,16000,18.52,,,220,,,,,,,,,,,wg-a,,,,AAXX 16124 07761 12666 22210 10280 20210 30162 40172 58003 60006 81102 91200=
07761,1997-08-16 15:00:00,28,1016.1,-1.1,70,22,16000,18.52,,,210,,,,,,,,,,,wg-a,,,,AAXX 16154 07761 12666 22110 10280 20220 30151 40161 58011 60006 81202 91500=
07761,1997-08-16 18:00:00,26,1016.3,0.2,79,22,12000,14.816,,,180,19.5,28.7,,,,,,,,,wg-a,,,,AAXX 16184 07761 12662 41808 10260 20220 30153 40163 53002 60006 81102 91800 333 10287 20195=
07761,1997-08-16 21:00:00,23,1017,0.7,89,21,12000,11.112,,,40,,,,,,,,,,,wg-a,,,,AAXX 16214 07761 12562 40406 10230 20210 30160 40170 50007 60006 81502 92100=
07761,1997-08-17 00:00:00,21,1016.9,-0.2,88,19,12000,11.112,,,70,,,,,,,,,,,wg-a,,,,AAXX 17004 07761 12562 30706 10210 20190 30158 40169 58002 60006 82502 90000=
07761,1997-08-17 03:00:00,19,1016.2,-0.7,83,16,12000,11.112,,,40,,,,,,,,,,,wg-a,,,,AAXX 17034 07761 12/62 20406 10190 20160 30151 40162 56007 60006 80002 90300=
07761,1997-08-17 06:00:00,20,1016.9,0.7,68,14,15000,14.816,,,40,17.7,26,,,,,,,,,wg-a,,,,AAXX 17064 07761 02465 /0408 10200 20140 30158 40169 53007 60006 81801 90600 333 10260 20177 60004=
07761,1997-08-17 09:00:00,27,1016.7,-0.1,70,21,20000,14.816,,,240,,,,,,,,,,,wg-a,,,,AAXX 17094 07761 12570 /2408 10270 20210 30157 40167 55001 60006 81201 90900=
07761,1997-08-17 12:00:00,28,1016.2,-0.5,70,22,20000,25.928,,,230,,,,,,,,,,,wg-a,,,,AAXX 17124 07761 12570 22314 10280 20220 30152 40162 58005 60006 82281 91200=
07761,1997-08-17 15:00:00,27,1015.6,-0.6,74,22,12000,25.928,,,220,,,,,,,,,,,wg-a,,,,AAXX 17154 07761 12562 32214 10270 20220 30146 40156 56006 60006 83900 91500=
07761,1997-08-17 18:00:00,26,1015.5,-0.1,74,21,12000,14.816,,,230,19.6,28.6,,,,,,,,,wg-a,,,,AAXX 17184 07761 12562 42308 10260 20210 30145 40155 55001 60006 82303 91800 333 10286 20196=
07761,1997-08-17 21:00:00,24,1016.4,0.9,78,20,12000,7.408,,,100,,,,,,,,,,,wg-a,,,,AAXX 17214 07761 12562 /1004 10240 20200 30154 40164 51009 60006 81100 92100=
07761,1997-08-18 00:00:00,22,1016.2,-0.2,83,19,12000,11.112,,,40,,,,,,,,,,,wg-a,,,,AAXX 18004 07761 12562 30406 10220 20190 30152 40162 58002 60006 83100 90000=
07761,1997-08-18 03:00:00,20,1015.2,-1.1,83,17,15000,11.112,,,50,,,,,,,,,,,wg-a,,,,AAXX 18034 07761 12/65 00506 10200 20170 30141 40152 56011 60006 80000 90300=
07761,1997-08-18 06:00:00,20,1015.7,0.5,83,17,15000,11.112,,,40,19.2,25.7,,,,,,,,,wg-a,,,,AAXX 18064 07761 02565 /0406 10200 20170 30146 40157 52005 60006 81101 90600 333 10257 20192 60004=
07761,1997-08-18 09:00:00,27,1015.9,0.3,66,20,15000,18.52,,,240,,,,,,,,,,,wg-a,,,,AAXX 18094 07761 12665 32410 10270 20200 30149 40159 53003 60006 82201 90900=
07761,1997-08-18 12:00:00,27,1015.6,-0.3,74,22,15000,29.632,,,240,,,,,,,,,,,wg-a,,,,AAXX 18124 07761 12665 32416 10270 20220 30146 40156 58003 60006 83201 91200=
07761,1997-08-18 15:00:00,29,1015,-0.6,48,17,15000,7.408,,,200,,,,,,,,,,29,wg-a,,,,AAXX 18154 07761 12565 72004 10290 20170 30140 40150 56006 60006 72991 82902 91500=
07761,1997-08-18 18:00:00,26,1015.1,0.1,51,15,500,7.408,,,330,20.5,29.7,,,,,,,,3,wg-a,,,,AAXX 18184 07761 12600 83304 10260 20150 30141 40151 53001 60006 70391 81832 91800 333 10297 20205=
07761,1997-08-18 21:00:00,22,1016.5,1.4,78,18,2000,7.408,,,50,,,,,,,,,,,wg-a,,,,AAXX 18214 07761 12/20 /0504 10220 20180 30155 40165 51014 60006 81032 92100=
07761,1997-08-19 00:00:00,20,1016.1,-0.5,78,16,20000,7.408,,,50,,,,,,,,,,,wg-a,,,,AAXX 19004 07761 12/70 10504 10200 20160 30150 40161 58005 60006 80001 90000=
07761,1997-08-19 03:00:00,18,1015.6,-0.5,88,16,10000,14.816,,,60,,,,,,,,,,,wg-a,,,,AAXX 19034 07761 12/60 /0608 10180 20160 30145 40156 58005 60006 90300=
07761,1997-08-19 06:00:00,20,1015.9,0.3,78,16,500,14.816,,,50,18,26.2,,,,,,,,,wg-a,,,,AAXX 19064 07761 02500 /0508 10200 20160 30148 40159 53003 60006 81141 90600 333 10262 20180 60004=
07761,1997-08-19 09:00:00,27,1015.9,0.1,62,19,11000,11.112,,,230,,,,,,,,,,,wg-a,,,,AAXX 19094 07761 12/61 /2306 10270 20190 30149 40159 51001 60006 90900=
07761,1997-08-19 12:00:00,28,1015.5,-0.4,62,20,500,25.928,,,220,,,,,,,,,,,wg-a,,,,AAXX 19124 07761 12500 /2214 10280 20200 30145 40155 56004 60006 81202 91200=
07761,1997-08-19 15:00:00,28,1014.9,-0.6,62,20,500,14.816,,,210,,,,,,,,,,29,wg-a,,,,AAXX 19154 07761 12500 /2108 10280 20200 30139 40149 58006 60006 72992 82302 91500=
07761,1997-08-19 18:00:00,26,1014.8,-0.1,61,18,500,11.112,,,180,19.6,28.6,,,,,,,,3,wg-a,,,,AAXX 19184 07761 12600 /1806 10260 20180 30138 40148 55001 60006 70391 81102 91800 333 10286 20196=
07761,1997-08-19 21:00:00,23,1015.6,0.8,73,18,500,7.408,,,50,,,,,,,,,,,wg-a,,,,AAXX 19214 07761 12600 /0504 10230 20180 30146 40156 51008 60006 81102 92100=
07761,1997-08-20 00:00:00,20,1015.4,-0.3,83,17,25000,11.112,,,40,,,,,,,,,,,wg-a,,,,AAXX 20004 07761 12/75 00406 10200 20170 30143 40154 58003 60006 80000 90000=
07761,1997-08-20 03:00:00,19,1015.4,0,83,16,25000,11.112,,,60,,,,,,,,,,,wg-a,,,,AAXX 20034 07761 12/75 30606 10190 20160 30143 40154 50000 60006 80002 90300=
07761,1997-08-20 06:00:00,20,1016.6,1.2,78,16,25000,11.112,,,40,18.1,26.3,,,,,,,,,wg-a,,,,AAXX 20064 07761 02675 20406 10200 20160 30155 40166 53012 60006 81281 90600 333 10263 20181 60004=
07761,1997-08-20 09:00:00,27,1016.4,-0.1,62,19,500,14.816,,,230,,,,,,,,,,,wg-a,,,,AAXX 20094 07761 12600 32308 10270 20190 30154 40164 58001 60006 81281 90900=
07761,1997-08-20 12:00:00,30,1015.6,-0.8,49,18,25000,14.816,,,280,,,,,,,,,,,wg-a,,,,AAXX 20124 07761 12575 /2808 10300 20180 30146 40156 58008 60006 83980 91200=
07761,1997-08-20 15:00:00,29,1015.9,0.3,52,18,25000,18.52,,,220,,,,,,,,,,,wg-a,,,,AAXX 20154 07761 12575 32210 10290 20180 30149 40159 50003 60006 83900 91500=
07761,1997-08-20 18:00:00,27,1015.6,-0.3,62,19,25000,7.408,,,200,19.9,30.1,,,,,,,,,wg-a,,,,AAXX 20184 07761 12675 82004 10270 20190 30146 40156 55003 60006 81101 91800 333 10301 20199=
07761,1997-08-21 00:00:00,20,1017.6,0.3,78,16,15000,11.112,,,50,,,,,,,,,,,wg-a,,,,AAXX 21004 07761 12/65 10506 10200 20160 30165 40176 52003 60006 81031 90000=
07761,1997-08-21 03:00:00,19,1017.2,-0.4,83,16,15000,11.112,,,40,,,,,,,,,,,wg-a,,,,AAXX 21034 07761 12/65 20406 10190 20160 30161 40172 56004 60006 80001 90300=
07761,1997-08-21 06:00:00,20,1018.5,1.3,73,15,25000,11.112,,,40,18.5,26.6,,,,,,,,,wg-a,,,,AAXX 21064 07761 02/75 10406 10200 20150 30174 40185 52013 60006 81031 90600 333 10266 20185 60004=
07761,1997-08-21 07:00:00,20,1018.5,1.3,73,15,25000,11.112,,,40,18.5,26.6,,,,,,,,,wg-a,,,,AAXX 21074 07761 02/75 10406 10200 20150 30174 40185 52013 60006 81031 90700 333 10266 20185 60004=
07761,1997-08-21 09:00:00,27,1018.7,0.3,58,18,25000,11.112,,,250,,,,,,,,,,,wg-a,,,,AAXX 21094 07761 12675 22506 10270 20180 30177 40187 51003 60006 81131 90900=
07761,1997-08-21 12:00:00,28,1018.2,-0.5,66,21,25000,25.928,,,230,,,,,,,,,,,wg-a,,,,AAXX 21124 07761 12675 42314 10280 20210 30172 40182 58005 60006 81331 91200=
07761,1997-08-21 15:00:00,27,1018,-0.2,66,20,15000,11.112,,,210,,,,,,,,,,17,wg-a,,,,AAXX 21154 07761 12565 52106 10270 20200 30170 40180 55002 60006 71791 83901 91500=
07761,1997-08-21 18:00:00,26,1017.2,-0.8,61,18,15000,3.704,,,100,19.9,28.6,,,,,,,,1,wg-a,,,,AAXX 21184 07761 12665 /1002 10260 20180 30162 40172 56008 60006 70191 81402 91800 333 10286 20199=
07761,1997-08-21 21:00:00,23,1018.7,1.5,73,18,15000,11.112,,,60,,,,,,,,,,,wg-a,,,,AAXX 21214 07761 12/65 60606 10230 20180 30177 40187 51015 60006 80002 92100=
07761,1997-08-22 00:00:00,22,1018.7,-0.1,78,18,11000,14.816,,,60,,,,,,,,,,,wg-a,,,,AAXX 22004 07761 12/61 /0608 10220 20180 30176 40187 58001 60006 90000=
07761,1997-08-22 03:00:00,21,1018.5,-0.2,78,17,15000,11.112,,,40,,,,,,,,,,,wg-a,,,,AAXX 22034 07761 12/65 70406 10210 20170 30174 40185 56002 60006 83032 90300=
07761,1997-08-22 06:00:00,21,1018.5,-0,73,16,18000,11.112,,,40,19.8,26,,,,,,,,,wg-a,,,,AAXX 22064 07761 02668 /0406 10210 20160 30174 40185 55000 60006 81531 90600 333 10260 20198 60004=
07761,1997-08-22 09:00:00,28,1018.1,-0.3,58,19,18000,14.816,,,210,,,,,,,,,,,wg-a,,,,AAXX 22094 07761 12668 22108 10280 20190 30171 40181 58003 60006 81101 90900=
07761,1997-08-22 12:00:00,28,1017.1,-1,62,20,18000,31.484,,,220,,,,,,,,,,,wg-a,,,,AAXX 22124 07761 12568 22217 10280 20200 30161 40171 58010 60006 82900 91200=
07761,1997-08-22 15:00:00,26,1016.4,-0.7,51,15,18000,18.52,,,90,,,,2,,,,,,1,wg-a,,,,AAXX 22154 07761 12668 30910 10260 20150 30154 40164 58007 60027 70196 8/400 91500=
07761,1997-08-22 18:00:00,25,1016.8,0.4,65,18,18000,22.224,,,250,21.5,28.6,,,,,,,,1,wg-a,,,,AAXX 22184 07761 12668 /2512 10250 20180 30158 40168 53004 60006 70196 81401 91800 333 10286 20215=
07761,1997-08-22 21:00:00,22,1018,1.1,69,16,15000,11.112,,,50,,,,,,,,,,,wg-a,,,,AAXX 22214 07761 12/65 00506 10220 20160 30169 40180 51011 60006 80000 92100=
07761,1997-08-23 00:00:00,19,1018.2,0.2,83,16,15000,14.816,,,40,,,,,,,,,,,wg-a,,,,AAXX 23004 07761 12665 10408 10190 20160 30171 40182 53002 60006 81100 90000=
07761,1997-08-23 03:00:00,18,1017.3,-0.9,83,15,15000,14.816,,,40,,,,,,,,,,,wg-a,,,,AAXX 23034 07761 12/65 00408 10180 20150 30162 40173 57009 60006 80000 90300=
07761,1997-08-23 06:00:00,18,1017.6,0.3,83,15,15000,11.112,,,50,17.1,25.4,,,,,2,,,,wg-a,,,,AAXX 23064 07761 02/65 00506 10180 20150 30165 40176 53003 60006 80000 90600 333 10254 20171 60024=
07761,1997-08-23 12:00:00,28,1017.3,-0.2,66,21,15000,25.928,,,230,,,,,,,,,,,wg-a,,,,AAXX 23124 07761 12665 22314 10280 20210 30163 40173 56002 60006 82800 91200=
07761,1997-08-23 15:00:00,28,1016.6,-0.7,66,21,15000,22.224,,,240,,,,,,,,,,,wg-a,,,,AAXX 23154 07761 12665 32412 10280 20210 30156 40166 58007 60006 83800 91500=
07761,1997-08-23 18:00:00,26,1016.4,-0.2,58,17,15000,3.704,,,320,18.3,28.1,,,,,,,,,wg-a,,,,AAXX 23184 07761 12665 /3202 10260 20170 30154 40164 57002 60006 81801 91800 333 10281 20183=
07761,1997-08-23 21:00:00,22,1017.1,0.6,65,15,15000,11.112,,,40,,,,,,,,,,,wg-a,,,,AAXX 23214 07761 12/65 00406 10220 20150 30160 40171 51006 60006 80000 92100=
07761,1997-08-24 00:00:00,20,1016.9,-0.2,68,14,15000,14.816,,,30,,,,,,,,,,,wg-a,,,,AAXX 24004 07761 12/65 00308 10200 20140 30158 40169 56002 60006 80000 90000=
07761,1997-08-24 03:00:00,18,1016.9,-0,73,13,15000,14.816,,,40,,,,,,,,,,,wg-a,,,,AAXX 24034 07761 12/65 00408 10180 20130 30158 40169 55000 60006 80000 90300=
07761,1997-08-24 06:00:00,19,1017.3,0.4,64,12,15000,11.112,,,40,15.7,26,,,,,,,,,wg-a,,,,AAXX 24064 07761 02/65 00406 10190 20120 30162 40173 51004 60006 80000 90600 333 10260 20157 60004=
07761,1997-08-24 09:00:00,27,1017.3,0.1,48,15,20000,11.112,,,250,,,,,,,,,,,wg-a,,,,AAXX 24094 07761 12770 12506 10270 20150 30163 40173 52001 60006 81100 90900=
07761,1997-08-24 12:00:00,28,1017.1,-0.2,62,20,20000,22.224,,,220,,,,,,,,,,,wg-a,,,,AAXX 24124 07761 12770 /2212 10280 20200 30161 40171 56002 60006 81100 91200=
07761,1997-08-24 15:00:00,28,1016.1,-1,66,21,20000,18.52,,,200,,,,,,,,,,,wg-a,,,,AAXX 24154 07761 12770 /2010 10280 20210 30151 40161 58010 60006 81200 91500=
07761,1997-08-24 18:00:00,26,1014.9,-1.2,61,18,20000,7.408,,,200,18.6,28.6,,,,,,,,,wg-a,,,,AAXX 24184 07761 12/70 /2004 10260 20180 30139 40149 56012 60006 80000 91800 333 10286 20186=
07761,1997-08-24 21:00:00,22,1015.3,0.4,60,14,20000,14.816,,,40,,,,,,,,,,,wg-a,,,,AAXX 24214 07761 12/70 00408 10220 20140 30143 40153 50004 60006 80000 92100=
07761,1997-08-25 00:00:00,19,1015.4,-0,68,13,20000,14.816,,,40,,,,,,,,,,,wg-a,,,,AAXX 25004 07761 12/70 00408 10190 20130 30143 40154 55000 60006 80000 90000=
07761,1997-08-25 03:00:00,19,1014.3,-1.1,68,13,20000,14.816,,,30,,,,,,,,,,,wg-a,,,,AAXX 25034 07761 12/70 00308 10190 20130 30132 40143 58011 60006 80000 90300=
07761,1997-08-25 06:00:00,19,1014.8,0.5,73,14,25000,14.816,,,50,17,26.2,,,,,,,,,wg-a,,,,AAXX 25064 07761 02/75 00508 10190 20140 30137 40148 53005 60006 80000 90600 333 10262 20170 60004=
07761,1997-08-25 09:00:00,29,1014.1,-0.6,43,15,25000,7.408,,,240,,,,,,,,,,,wg-a,,,,AAXX 25094 07761 12/75 02404 10290 20150 30131 40141 56006 60006 80000 90900=
07761,1997-08-25 12:00:00,29,1013.2,-0.9,45,16,25000,14.816,,,240,,,,,,,,,,,wg-a,,,,AAXX 25124 07761 12675 /2408 10290 20160 30122 40132 58009 60006 81100 91200=
07761,1997-08-25 15:00:00,30,1011.8,-1.4,46,17,20000,18.52,,,220,,,,,,,,,,,wg-a,,,,AAXX 25154 07761 12670 /2210 10300 20170 30108 40118 56014 60006 81101 91500=
07761,1997-08-25 18:00:00,28,1011.5,-0.3,45,15,20000,3.704,,,160,19.3,29.9,,,,,,,,,wg-a,,,,AAXX 25184 07761 12/70 31602 10280 20150 30105 40115 58003 60006 81031 91800 333 10299 20193=
07761,1997-08-25 21:00:00,21,1012.3,0.8,64,14,20000,11.112,,,60,,,,,,,,,,,wg-a,,,,AAXX 25214 07761 12/70 10606 10210 20140 30113 40123 50008 60006 80001 92100=
07761,1997-08-26 00:00:00,21,1012.2,-0.1,64,14,15000,7.408,,,60,,,,,,,,,,,wg-a,,,,AAXX 26004 07761 12565 /0604 10210 20140 30112 40122 55001 60006 85800 90000=
07761,1997-08-26 03:00:00,21,1011.3,-0.9,73,16,15000,11.112,,,40,,,,,,,,,,21,wg-a,,,,AAXX 26034 07761 02565 80406 10210 20160 30103 40113 58009 61000 72162 85802 90300 333 ////=
07761,1997-08-26 06:00:00,22,1011.1,-0.2,65,15,20000,11.112,,,30,20.1,27.7,,,,,,,,1,wg-a,,,,AAXX 26064 07761 02570 50306 10220 20150 30101 40111 58002 60006 70162 81333 90600 333 10277 20201 61000=
07761,1997-08-26 09:00:00,24,1012.1,1,74,19,12000,7.408,,,200,,,,1,,,,,,80,wg-a,,,,AAXX 26094 07761 12562 82004 10240 20190 30111 40121 53010 60017 78096 8592/ 90900=
07761,1997-08-26 12:00:00,26,1011.3,-0.8,61,18,20000,7.408,,,80,,,,8,,,,,,21,wg-a,,,,AAXX 26124 07761 02570 50804 10260 20180 30103 40113 58008 60096 72196 8343/ 91200 333 60087=
07761,1997-08-26 15:00:00,27,1010.6,-0.7,66,20,40000,22.224,,,240,,,,,,,,,,,wg-a,,,,AAXX 26154 07761 12582 52412 10270 20200 30096 40106 56007 60006 81203 91500=
07761,1997-08-26 18:00:00,24,1010.6,-0,78,20,20000,7.408,,,240,21.4,27.6,,,,,,,,,wg-a,,,,AAXX 26184 07761 12570 /2404 10240 20200 30096 40106 55000 60006 83303 91800 333 10276 20214=
07761,1997-08-26 21:00:00,21,1011.3,0.7,94,20,10000,18.52,,,50,,,,10,,,,,,29,wg-a,,,,AAXX 26214 07761 12560 70510 10210 20200 30103 40113 52007 60107 72996 878// 92100=
07761,1997-08-27 00:00:00,21,1011.1,-0.2,94,20,15000,7.408,,,60,,,,0,,,,,,1,wg-a,,,,AAXX 27004 07761 02465 50604 10210 20200 30101 40111 57002 60106 70198 85800 90000 333 60007=
07761,1997-08-27 03:00:00,20,1010.4,-0.7,94,19,15000,11.112,,,60,,,,,,,,,,,wg-a,,,,AAXX 27034 07761 12565 50606 10200 20190 30094 40104 56007 60006 85800 90300=
07761,1997-08-27 06:00:00,21,1011.2,0.8,88,19,9000,11.112,,,70,20.1,24.3,,,,,19,,,15,wg-a,,,,AAXX 27064 07761 02259 70706 10210 20190 30102 40112 53008 60006 71522 87800 90600 333 10243 20201 60194=
07761,1997-08-27 09:00:00,26,1012,0.8,74,21,20000,7.408,,,210,,,,,,,,,,,wg-a,,,,AAXX 27094 07761 12570 42104 10260 20210 30110 40120 52008 60006 84800 90900=
07761,1997-08-27 12:00:00,28,1011.7,-0.3,70,22,20000,18.52,,,230,,,,,,,,,,,wg-a,,,,AAXX 27124 07761 12670 22310 10280 20220 30107 40117 57003 60006 82800 91200=
07761,1997-08-27 15:00:00,27,1011.6,-0.1,66,20,25000,18.52,,,220,,,,,,,,,,,wg-a,,,,AAXX 27154 07761 12675 32210 10270 20200 30106 40116 58001 60006 81201 91500=
07761,1997-08-27 18:00:00,25,1011.6,-0,74,20,20000,11.112,,,240,20.6,27.8,,,,,,,,,wg-a,,,,AAXX 27184 07761 12670 42406 10250 20200 30106 40116 55000 60006 81201 91800 333 10278 20206=
07761,1997-08-27 21:00:00,22,1012.4,0.8,83,19,15000,14.816,,,50,,,,,,,,,,,wg-a,,,,AAXX 27214 07761 12665 30508 10220 20190 30114 40124 51008 60006 81201 92100=
07761,1997-08-28 00:00:00,21,1011.8,-0.6,78,17,15000,14.816,,,40,,,,,,,,,,,wg-a,,,,AAXX 28004 07761 12565 20408 10210 20170 30108 40118 58006 60006 82800 90000=
07761,1997-08-28 06:00:00,21,1011,0.3,83,18,15000,11.112,,,60,20.4,25,,,,,,,,,wg-a,,,,AAXX 28064 07761 02565 70606 10210 20180 30100 40110 53003 60006 83532 90600 333 10250 20204 60004=
07761,1997-08-28 09:00:00,28,1010.2,-0.8,62,20,15000,22.224,,,200,,,,,,,,,,,wg-a,,,,AAXX 28094 07761 12565 72012 10280 20200 30092 40102 56008 60006 84802 90900=
07761,1997-08-28 12:00:00,29,1010.2,0,62,21,12000,31.484,,,210,,,,,,,,,,,wg-a,,,,AAXX 28124 07761 12562 52117 10290 20210 30092 40102 50000 60006 83342 91200=
07761,1997-08-28 15:00:00,26,1009.4,-0.8,79,22,12000,29.632,,,240,,,,,,,,,,,wg-a,,,,AAXX 28154 07761 12462 72416 10260 20220 30084 40094 57008 60006 85302 91500=
07761,1997-08-28 18:00:00,22,1011.2,1.8,73,17,12000,22.224,,,290,20.9,29,,,,,,,,80,wg-a,,,,AAXX 28184 07761 02462 72912 10220 20170 30102 40112 53018 61000 78086 85302 91800 333 10290 20209 6000=
07761,1997-08-28 21:00:00,20,1013,1.7,88,18,20000,11.112,,,40,,,,0,,,,,,1,wg-a,,,,AAXX 28214 07761 12670 /0406 10200 20180 30119 40130 52017 60007 70186 83200 92100=
07761,1997-08-29 00:00:00,22,1013.8,0.9,57,13,20000,35.188,,,280,,,,,,,,,,1,wg-a,,,,AAXX 29004 07761 12670 22819 10220 20130 30128 40138 53009 60016 70186 82200 90000=
07761,1997-08-29 03:00:00,21,1015,1.1,56,12,20000,7.408,,,320,,,,,,,,,,1,wg-a,,,,AAXX 29034 07761 02670 33204 10210 20120 30139 40150 51011 61000 70186 83200 90300 333 ////=
07761,1997-08-29 06:00:00,21,1015.8,0.8,53,11,20000,14.816,,,300,19.4,22.2,,,,,1,,,1,wg-a,,,,AAXX 29064 07761 02670 43008 10210 20110 30147 40158 51008 60006 70186 84200 90600 333 10222 20194 60014=
07761,1997-08-29 09:00:00,23,1016.5,0.8,50,12,500,22.224,,44.448,290,,,,,,,,,,,wg-a,,,,AAXX 29094 07761 12600 32912 10230 20120 30155 40165 53008 60006 83202 90900 333 91024=
07761,1997-08-29 12:00:00,24,1017.7,1.2,47,12,25000,29.632,,68.524,290,,,,,,,,,,,wg-a,,,,AAXX 29124 07761 12675 52916 10240 20120 30167 40177 53012 60006 85202 91200 333 91037=
07761,1997-08-29 15:00:00,24,1018.1,0.4,54,14,20000,29.632,,,280,,,,,,,,,,25,wg-a,,,,AAXX 29154 07761 02670 /2816 10240 20140 30171 40181 53004 61000 72586 86200 91500 333 ////=
07761,1997-08-29 18:00:00,22,1018.5,0.3,60,14,20000,18.52,,,320,21.3,24.2,,,,,,,,1,wg-a,,,,AAXX 29184 07761 12670 33210 10220 20140 30174 40185 53003 60006 70186 83201 91800 333 10242 20213=
07761,1997-08-29 21:00:00,21,1019.2,0.7,64,14,15000,7.408,,,350,,,,,,,,,,,wg-a,,,,AAXX 29214 07761 12665 23504 10210 20140 30181 40192 51007 60006 82201 92100=
07761,1997-08-30 00:00:00,18,1019.5,0.3,77,14,15000,14.816,,,50,,,,,,,,,,,wg-a,,,,AAXX 30004 07761 12665 30508 10180 20140 30184 40195 50003 60006 83201 90000=
07761,1997-08-30 03:00:00,18,1019.1,-0.4,77,14,15000,11.112,,,60,,,,,,,,,,,wg-a,,,,AAXX 30034 07761 12665 40606 10180 20140 30180 40191 58004 60006 84200 90300=
07761,1997-08-30 06:00:00,18,1019.1,-0,77,14,18000,14.816,,,50,16.6,22.1,,,,,,,,,wg-a,,,,AAXX 30064 07761 02668 /0508 10180 20140 30180 40191 55000 60006 81102 90600 333 10221 20166 61000=
07761,1997-08-30 09:00:00,25,1019,-0,47,13,500,11.112,,,210,,,,,,,,,,,wg-a,,,,AAXX 30094 07761 12600 22106 10250 20130 30180 40190 55000 60006 82100 90900=
07761,1997-08-30 12:00:00,26,1018.9,-0.1,51,15,500,29.632,,,240,,,,,,,,,,,wg-a,,,,AAXX 30124 07761 12600 /2416 10260 20150 30179 40189 55001 60006 81100 91200=
07761,1997-08-30 15:00:00,26,1018.7,-0.2,51,15,500,22.224,,,250,,,,,,,,,,,wg-a,,,,AAXX 30154 07761 12500 /2512 10260 20150 30177 40187 56002 60006 81100 91500=
07761,1997-08-30 18:00:00,23,1018.4,-0.3,57,14,500,7.408,,,340,18,26.4,,,,,,,,,wg-a,,,,AAXX 30184 07761 12500 /3404 10230 20140 30174 40184 57003 60006 81500 91800 333 10264 20180=
07761,1997-08-30 21:00:00,19,1019,0.5,73,14,500,14.816,,,60,,,,,,,,,,,wg-a,,,,AAXX 30214 07761 12/00 00608 10190 20140 30179 40190 52005 60006 80000 92100=
07761,1997-08-31 00:00:00,17,1018.5,-0.5,77,13,500,11.112,,,40,,,,,,,,,,,wg-a,,,,AAXX 31004 07761 12/00 00406 10170 20130 30174 40185 56005 60006 80000 90000=
07761,1997-08-31 06:00:00,17,1018.5,0.4,72,12,50000,14.816,,,50,15,23,,,,,,,,,wg-a,,,,AAXX 31064 07761 02/84 00508 10170 20120 30174 40185 53004 60006 80000 90600 333 10230 20150 60004=
07761,1997-08-31 09:00:00,25,1018.7,0.3,57,16,50000,11.112,,,250,,,,,,,,,,,wg-a,,,,AAXX 31094 07761 12/84 02506 10250 20160 30177 40187 51003 60006 80000 90900=
07761,1997-08-31 12:00:00,26,1018.8,0.1,65,19,50000,18.52,,,220,,,,,,,,,,,wg-a,,,,AAXX 31124 07761 12884 12210 10260 20190 30178 40188 50001 60006 81100 91200=
07761,1997-08-31 15:00:00,26,1018.2,-0.6,70,20,50000,22.224,,,240,,,,,,,,,,,wg-a,,,,AAXX 31154 07761 12784 /2412 10260 20200 30172 40182 56006 60006 81100 91500=
07761,1997-08-31 18:00:00,24,1017.7,-0.5,69,18,50000,3.704,,,210,16.9,26.7,,,,,,,,,wg-a,,,,AAXX 31184 07761 12/84 /2102 10240 20180 30167 40177 56005 60006 80000 91800 333 10267 20169=
07761,1997-08-31 21:00:00,20,1018,0.2,83,17,25000,7.408,,,50,,,,,,,,,,,wg-a,,,,AAXX 31214 07761 12/75 00504 10200 20170 30169 40180 53002 60006 80000 92100=
07761,1997-09-01 00:00:00,18,1018.6,0.6,88,16,25000,11.112,,,60,,,,,,,,,,,wg-a,,,,AAXX 01004 07761 12675 /0606 10180 20160 30175 40186 51006 60006 81500 90000=
07761,1997-09-01 03:00:00,18,1017.7,-0.9,83,15,20000,7.408,,,50,,,,,,,,,,,wg-a,,,,AAXX 01034 07761 12670 /0504 10180 20150 30166 40177 58009 60006 81400 90300=
07761,1997-09-01 06:00:00,19,1018.2,0.5,78,15,50000,11.112,,,40,16.9,24.2,,,,,,,,,wg-a,,,,AAXX 01064 07761 02/84 20406 10190 20150 30171 40182 53005 60006 81031 90600 333 10242 20169 60004=
07761,1997-09-01 09:00:00,27,1018.4,0.3,54,17,50000,11.112,,,250,,,,,,,,,,,wg-a,,,,AAXX 01094 07761 12/84 /2506 10270 20170 30174 40184 51003 60006 81031 90900=
07761,1997-09-01 12:00:00,28,1017.3,-1.1,55,18,50000,25.928,,,230,,,,,,,,,,,wg-a,,,,AAXX 01124 07761 12/84 12314 10280 20180 30163 40173 56011 60006 80002 91200=
07761,1997-09-01 15:00:00,28,1016,-1.3,58,19,50000,14.816,,,230,,,,,,,,,,,wg-a,,,,AAXX 01154 07761 12884 /2308 10280 20190 30150 40160 58013 60006 81102 91500=
07761,1997-09-01 18:00:00,25,1016.8,0.8,65,18,50000,7.408,,,160,18.5,27.8,,,,,,,,,wg-a,,,,AAXX 01184 07761 12/84 31604 10250 20180 30158 40168 52008 60006 80002 91800 333 10278 20185=
07761,1997-09-01 21:00:00,20,1017.6,0.7,73,15,10000,11.112,,,50,,,,,,,,,,,wg-a,,,,AAXX 01214 07761 12/60 /0506 10200 20150 30165 40176 52007 60006 92100=
07761,1997-09-02 00:00:00,19,1016.5,-1.1,73,14,20000,18.52,,,50,,,,,,,,,,,wg-a,,,,AAXX 02004 07761 12/70 00510 10190 20140 30154 40165 58011 60006 80000 90000=
07761,1997-09-02 03:00:00,17,1015,-1.5,77,13,20000,11.112,,,50,,,,,,,,,,,wg-a,,,,AAXX 02034 07761 12/70 00506 10170 20130 30139 40150 58015 60006 80000 90300=
07761,1997-09-02 06:00:00,21,1017,2,56,12,20000,3.704,,,50,17.2,25.2,,,,,,,,,wg-a,,,,AAXX 02064 07761 02770 /0502 10210 20120 30159 40170 53020 60006 83542 90600 333 10252 20172 60004=
07761,1997-09-02 09:00:00,26,1017.3,0.4,65,19,35000,25.928,,,230,,,,,,,,,,,wg-a,,,,AAXX 02094 07761 12781 72314 10260 20190 30163 40173 53004 60006 81532 90900=
07761,1997-09-02 12:00:00,27,1016.4,-0.9,74,22,18000,11.112,,,250,,,,,,,,,,,wg-a,,,,AAXX 02124 07761 12668 72506 10270 20220 30154 40164 58009 60006 81172 91200=
07761,1997-09-02 15:00:00,26,1015.6,-0.8,65,19,18000,7.408,,,340,,,,,,,,,,2,wg-a,,,,AAXX 02154 07761 02668 73404 10260 20190 30146 40156 58008 61000 70262 8117/ 91500 333 ////=
07761,1997-09-02 18:00:00,25,1014.7,-0.9,74,20,18000,7.408,,,60,21,29.1,,,,,,,,,wg-a,,,,AAXX 02184 07761 12668 70604 10250 20200 30137 40147 58009 60006 8117/ 91800 333 10291 20210=
07761,1997-09-02 21:00:00,22,1017.5,2.7,78,18,12000,7.408,,,30,,,,1,,,,,,61,wg-a,,,,AAXX 02214 07761 12562 80304 10220 20180 30164 40175 50027 60017 76186 8277/ 92100=
07761,1997-09-03 00:00:00,20,1017,-0.5,88,18,15000,11.112,,,70,,,,0,,,,,,21,wg-a,,,,AAXX 03004 07761 02465 80706 10200 20180 30159 40170 55005 60016 72186 8487/ 90000 333 60007=
07761,1997-09-03 03:00:00,19,1016.2,-0.8,94,18,18000,11.112,,,40,,,,,,,,,,,wg-a,,,,AAXX 03034 07761 12568 /0406 10190 20180 30151 40162 55008 60006 83870 90300=
07761,1997-09-03 06:00:00,20,1016.2,0,83,17,11000,7.408,,,50,18.7,24.5,,,,,2,,,,wg-a,,,,AAXX 03064 07761 02/61 /0504 10200 20170 30151 40162 50000 60006 90600 333 10245 20187 60024=
07761,1997-09-03 09:00:00,22,1016.8,0.7,78,18,25000,3.704,,,270,,,,0,,,,,,21,wg-a,,,,AAXX 03094 07761 12575 /2702 10220 20180 30158 40168 52007 60007 72162 8337/ 90900=
07761,1997-09-03 12:00:00,25,1016.6,-0.2,65,18,25000,7.408,,,210,,,,,,,,,,1,wg-a,,,,AAXX 03124 07761 12675 /2104 10250 20180 30156 40166 58002 60006 70162 81272 91200=
07761,1997-09-03 15:00:00,25,1016.2,-0.4,74,20,25000,18.52,,,200,,,,,,,,,,17,wg-a,,,,AAXX 03154 07761 12575 32010 10250 20200 30152 40162 57004 60006 71791 82302 91500=
07761,1997-09-03 18:00:00,24,1016.6,0.4,65,17,25000,3.704,,,320,19.5,25.8,,,,,,,,1,wg-a,,,,AAXX 03184 07761 12575 /3202 10240 20170 30156 40166 53004 60006 70191 81492 91800 333 10258 20195=
07761,1997-09-03 21:00:00,20,1017,0.3,83,17,15000,11.112,,,50,,,,,,,,,,,wg-a,,,,AAXX 03214 07761 12665 /0506 10200 20170 30159 40170 50003 60006 81532 92100=
07761,1997-09-04 00:00:00,18,1017,0,88,16,15000,11.112,,,50,,,,,,,,,,,wg-a,,,,AAXX 04004 07761 12/65 20506 10180 20160 30159 40170 50000 60006 80002 90000=
07761,1997-09-04 03:00:00,18,1016.5,-0.5,83,15,15000,11.112,,,60,,,,,,,,,,,wg-a,,,,AAXX 04034 07761 12/65 20606 10180 20150 30154 40165 57005 60006 81032 90300=
07761,1997-09-04 06:00:00,18,1017.1,0.6,83,15,500,11.112,,,40,16.9,24.2,,,,,,,,,wg-a,,,,AAXX 04064 07761 02700 30406 10180 20150 30160 40171 53006 60006 81132 90600 333 10242 20169 60004=
07761,1997-09-04 09:00:00,25,1017.3,0.3,65,18,500,11.112,,,230,,,,,,,,,,,wg-a,,,,AAXX 04094 07761 12700 12306 10250 20180 30163 40173 52003 60006 81132 90900=
07761,1997-09-04 15:00:00,26,1016.1,-0.4,74,21,500,18.52,,,220,,,,,,,,,,,wg-a,,,,AAXX 04154 07761 12600 /2210 10260 20210 30151 40161 57004 60006 81201 91500=
07761,1997-09-04 18:00:00,24,1017.2,1.1,83,21,15000,3.704,,,210,17.7,27.6,,,,,,,,,wg-a,,,,AAXX 04184 07761 12465 22102 10240 20210 30162 40172 52011 60006 81802 91800 333 10276 20177=
07761,1997-09-04 21:00:00,21,1018.1,0.8,88,19,15000,7.408,,,70,,,,,,,,,,,wg-a,,,,AAXX 04214 07761 12/65 20704 10210 20190 30170 40181 51008 60006 80002 92100=
07761,1997-09-05 00:00:00,19,1018.3,0.2,83,16,15000,14.816,,,70,,,,,,,,,,,wg-a,,,,AAXX 05004 07761 12/65 10708 10190 20160 30172 40183 50002 60006 80001 90000=
07761,1997-09-05 03:00:00,18,1018.2,-0.1,77,14,15000,18.52,,,50,,,,,,,,,,,wg-a,,,,AAXX 05034 07761 12/65 00510 10180 20140 30171 40182 55001 60006 80000 90300=
07761,1997-09-05 06:00:00,19,1019.3,1.1,73,14,15000,14.816,,,50,17.3,23.9,,,,,,,,,wg-a,,,,AAXX 05064 07761 02/65 10508 10190 20140 30182 40193 53011 60006 80001 90600 333 10239 20173 60004=
07761,1997-09-05 09:00:00,26,1019.8,0.6,58,17,20000,11.112,,,250,,,,,,,,,,,wg-a,,,,AAXX 05094 07761 12670 /2506 10260 20170 30188 40198 53006 60006 81100 90900=
07761,1997-09-05 12:00:00,27,1019.6,-0.2,70,21,20000,18.52,,,210,,,,,,,,,,,wg-a,,,,AAXX 05124 07761 12670 /2110 10270 20210 30186 40196 55002 60006 81200 91200=
07761,1997-09-05 15:00:00,27,1018.8,-0.8,74,22,20000,18.52,,,190,,,,,,,,,,,wg-a,,,,AAXX 05154 07761 12670 /1910 10270 20220 30178 40188 58008 60006 81200 91500=
07761,1997-09-05 18:00:00,26,1019,0.2,51,15,20000,3.704,,,310,18.6,28.1,,,,,,,,,wg-a,,,,AAXX 05184 07761 12670 33102 10260 20150 30180 40190 53002 60006 82832 91800 333 10281 20186=
07761,1997-09-05 21:00:00,21,1020.3,1.2,69,15,20000,7.408,,,50,,,,,,,,,,,wg-a,,,,AAXX 05214 07761 12670 30504 10210 20150 30192 40203 51012 60006 82832 92100=
07761,1997-09-06 00:00:00,19,1020.3,-0,78,15,20000,11.112,,,50,,,,,,,,,,,wg-a,,,,AAXX 06004 07761 12/70 00506 10190 20150 30192 40203 54000 60006 80000 90000=
07761,1997-09-06 03:00:00,18,1020,-0.3,83,15,20000,14.816,,,50,,,,,,,,,,,wg-a,,,,AAXX 06034 07761 12/70 00508 10180 20150 30189 40200 56003 60006 80000 90300=
07761,1997-09-06 06:00:00,19,1020.5,0.5,78,15,25000,11.112,,,50,17.4,26.1,,,,,,,,,wg-a,,,,AAXX 06064 07761 02/75 /0506 10190 20150 30194 40205 53005 60006 81080 90600 333 10261 20174 60004=
07761,1997-09-06 09:00:00,26,1020.8,0.4,61,18,20000,11.112,,,200,,,,,,,,,,,wg-a,,,,AAXX 06094 07761 12670 /2006 10260 20180 30198 40208 53004 60006 81100 90900=
07761,1997-09-06 12:00:00,27,1020.2,-0.6,74,22,20000,25.928,,,190,,,,,,,,,,,wg-a,,,,AAXX 06124 07761 12670 /1914 10270 20220 30192 40202 57006 60006 81200 91200=
07761,1997-09-06 15:00:00,27,1019.4,-0.8,66,20,20000,25.928,,,190,,,,,,,,,,,wg-a,,,,AAXX 06154 07761 12770 21914 10270 20200 30184 40194 56008 60006 81830 91500=
07761,1997-09-06 18:00:00,25,1019.4,-0,74,20,25000,3.704,,,220,19.1,28.1,,,,,,,,,wg-a,,,,AAXX 06184 07761 12/75 22202 10250 20200 30184 40194 55000 60006 82060 91800 333 10281 20191=
07761,1997-09-06 21:00:00,22,1020.4,0.9,69,16,20000,7.408,,,50,,,,,,,,,,,wg-a,,,,AAXX 06214 07761 12/70 10504 10220 20160 30193 40204 51009 60006 81030 92100=
07761,1997-09-07 00:00:00,19,1020,-0.4,78,15,20000,14.816,,,60,,,,,,,,,,,wg-a,,,,AAXX 07004 07761 12/70 00608 10190 20150 30189 40200 58004 60006 80000 90000=
07761,1997-09-07 03:00:00,18,1019.4,-0.6,77,14,20000,14.816,,,40,,,,,,,,,,,wg-a,,,,AAXX 07034 07761 12/70 00408 10180 20140 30183 40194 56006 60006 80000 90300=
07761,1997-09-07 06:00:00,18,1020.6,1.2,77,14,20000,11.112,,,60,16.4,25.1,,,,,,,,,wg-a,,,,AAXX 07064 07761 02/70 00606 10180 20140 30195 40206 53012 60006 80000 90600 333 10251 20164 60004=
07761,1997-09-07 09:00:00,27,1020.8,0.3,54,17,25000,7.408,,,220,,,,,,,,,,,wg-a,,,,AAXX 07094 07761 12575 12204 10270 20170 30198 40208 53003 60006 81100 90900=
07761,1997-09-07 12:00:00,28,1019.8,-1,62,20,25000,18.52,,,200,,,,,,,,,,,wg-a,,,,AAXX 07124 07761 12675 /2010 10280 20200 30188 40198 58010 60006 81200 91200=
07761,1997-09-07 15:00:00,27,1018.8,-1,66,20,25000,18.52,,,180,,,,,,,,,,,wg-a,,,,AAXX 07154 07761 12775 31810 10270 20200 30178 40188 56010 60006 81261 91500=
07761,1997-09-07 18:00:00,25,1019.2,0.4,65,18,25000,3.704,,,220,18.2,29,,,,,,,,,wg-a,,,,AAXX 07184 07761 12/75 /2202 10250 20180 30182 40192 53004 60006 81061 91800 333 10290 20182=
07761,1997-09-07 21:00:00,21,1020.3,1,69,15,20000,7.408,,,40,,,,,,,,,,,wg-a,,,,AAXX 07214 07761 12/70 00404 10210 20150 30192 40203 51010 60006 80000 92100=
07761,1997-09-08 00:00:00,19,1020,-0.3,73,14,20000,11.112,,,60,,,,,,,,,,,wg-a,,,,AAXX 08004 07761 12/70 00606 10190 20140 30189 40200 56003 60006 80000 90000=
07761,1997-09-08 06:00:00,20,1020,0.5,73,15,25000,11.112,,,50,17.5,24.9,,,,,,,,,wg-a,,,,AAXX 08064 07761 02/75 70506 10200 20150 30189 40200 53005 60006 8708/ 90600 333 10249 20175 60004=
07761,1997-09-08 09:00:00,27,1020.5,0.6,54,17,25000,7.408,,,240,,,,,,,,,,,wg-a,,,,AAXX 08094 07761 12675 42404 10270 20170 30195 40205 53006 60006 81130 90900=
07761,1997-09-08 12:00:00,29,1019.9,-0.6,55,19,25000,18.52,,,190,,,,,,,,,,,wg-a,,,,AAXX 08124 07761 12775 /1910 10290 20190 30189 40199 58006 60006 81230 91200=
07761,1997-09-08 15:00:00,29,1018.8,-1.1,58,20,25000,14.816,,,210,,,,,,,,,,,wg-a,,,,AAXX 08154 07761 12775 /2108 10290 20200 30178 40188 56011 60006 81230 91500=
07761,1997-09-08 18:00:00,25,1018.7,-0.1,74,20,20000,7.408,,,220,20.1,30.2,,,,,,,,,wg-a,,,,AAXX 08184 07761 12/70 /2204 10250 20200 30177 40187 55001 60006 80000 91800 333 10302 20201=
07761,1997-09-08 21:00:00,22,1019.2,0.4,73,17,10000,7.408,,,70,,,,,,,,,,,wg-a,,,,AAXX 08214 07761 12/60 /0704 10220 20170 30181 40192 50004 60006 92100=
07761,1997-09-09 00:00:00,19,1018.9,-0.3,78,15,20000,11.112,,,60,,,,,,,,,,,wg-a,,,,AAXX 09004 07761 12/70 00606 10190 20150 30178 40189 58003 60006 80000 90000=
07761,1997-09-09 03:00:00,18,1018,-0.9,83,15,20000,11.112,,,40,,,,,,,,,,,wg-a,,,,AAXX 09034 07761 12/70 00406 10180 20150 30169 40180 56009 60006 80000 90300=
07761,1997-09-09 09:00:00,26,1018.3,0.2,61,18,17000,11.112,,,230,,,,,,,,,,,wg-a,,,,AAXX 09094 07761 12667 /2306 10260 20180 30173 40183 50002 60006 81100 90900=
07761,1997-09-09 12:00:00,27,1017.5,-0.8,66,20,20000,25.928,,,200,,,,,,,,,,,wg-a,,,,AAXX 09124 07761 12670 /2014 10270 20200 30165 40175 57008 60006 81200 91200=
07761,1997-09-09 15:00:00,26,1015.9,-1.6,70,20,18000,18.52,,,200,,,,,,,,,,,wg-a,,,,AAXX 09154 07761 12668 /2010 10260 20200 30149 40159 58016 60006 81200 91500=
07761,1997-09-09 18:00:00,24,1015.6,-0.3,78,20,18000,14.816,,,210,18.2,27.6,,,,,,,,,wg-a,,,,AAXX 09184 07761 12/68 02108 10240 20200 30146 40156 55003 60006 80000 91800 333 10276 20182=
07761,1997-09-09 21:00:00,20,1016.2,0.5,83,17,15000,7.408,,,60,,,,,,,,,,,wg-a,,,,AAXX 09214 07761 12465 20604 10200 20170 30151 40162 51005 60006 82500 92100=
07761,1997-09-10 00:00:00,19,1015.5,-0.7,83,16,15000,7.408,,,50,,,,,,,,,,,wg-a,,,,AAXX 10004 07761 12465 30504 10190 20160 30144 40155 57007 60006 83500 90000=
07761,1997-09-10 06:00:00,18,1014.8,0.2,83,15,20000,14.816,,,60,16.7,23.8,,,,,,,,,wg-a,,,,AAXX 10064 07761 02570 /0608 10180 20150 30137 40148 53002 60006 81100 90600 333 10238 20167 60004=
07761,1997-09-10 09:00:00,27,1014.9,0.2,58,18,20000,7.408,,,280,,,,,,,,,,,wg-a,,,,AAXX 10094 07761 12670 /2804 10270 20180 30139 40149 53002 60006 81100 90900=
07761,1997-09-10 12:00:00,27,1014.7,-0.2,70,21,20000,22.224,,,230,,,,,,,,,,,wg-a,,,,AAXX 10124 07761 12670 22312 10270 20210 30137 40147 55002 60006 82200 91200=
07761,1997-09-10 15:00:00,27,1014.2,-0.5,62,19,20000,14.816,,,250,,,,,,,,,,,wg-a,,,,AAXX 10154 07761 12670 /2508 10270 20190 30132 40142 56005 60006 81200 91500=
07761,1997-09-10 18:00:00,24,1014.9,0.7,69,18,20000,22.224,,,250,17.5,27.6,,,,,,,,,wg-a,,,,AAXX 10184 07761 12570 42512 10240 20180 30139 40149 53007 60006 84800 91800 333 10276 20175=
07761,1997-09-10 21:00:00,23,1016.4,1.5,61,15,20000,7.408,,,160,,,,,,,,,,,wg-a,,,,AAXX 10214 07761 12570 /1604 10230 20150 30154 40164 51015 60006 85800 92100=
07761,1997-09-11 00:00:00,20,1017.2,0.7,78,16,20000,11.112,,,60,,,,,,,,,,,wg-a,,,,AAXX 11004 07761 12/70 00606 10200 20160 30161 40172 51007 60006 80000 90000=
07761,1997-09-11 03:00:00,17,1016.9,-0.3,88,15,20000,11.112,,,50,,,,,,,,,,,wg-a,,,,AAXX 11034 07761 12/70 00506 10170 20150 30158 40169 56003 60006 80000 90300=
07761,1997-09-11 06:00:00,17,1017.1,0.2,77,13,40000,14.816,,,50,16.6,24.3,,,,,,,,,wg-a,,,,AAXX 11064 07761 02/82 00508 10170 20130 30160 40171 53002 60006 80000 90600 333 10243 20166 60004=
07761,1997-09-11 09:00:00,27,1017.6,0.6,39,12,50000,7.408,,,250,,,,,,,,,,,wg-a,,,,AAXX 11094 07761 12684 /2504 10270 20120 30166 40176 51006 60006 81100 90900=
07761,1997-09-11 12:00:00,27,1016.8,-0.8,62,19,35000,25.928,,,230,,,,,,,,,,,wg-a,,,,AAXX 11124 07761 12681 /2314 10270 20190 30158 40168 57008 60006 81100 91200=
07761,1997-09-11 15:00:00,26,1016.4,-0.4,70,20,500,18.52,,,230,,,,,,,,,,,wg-a,,,,AAXX 11154 07761 12600 /2310 10260 20200 30154 40164 58004 60006 81100 91500=
07761,1997-09-11 18:00:00,24,1015.8,-0.6,74,19,500,7.408,,,210,17.3,27.4,,,,,,,,,wg-a,,,,AAXX 11184 07761 12500 /2104 10240 20190 30148 40158 56006 60006 81400 91800 333 10274 20173=
07761,1997-09-11 21:00:00,21,1016.9,1,78,17,20000,11.112,,,60,,,,,,,,,,,wg-a,,,,AAXX 11214 07761 12/70 00606 10210 20170 30158 40169 51010 60006 80000 92100=
07761,1997-09-12 00:00:00,19,1016.6,-0.3,83,16,20000,7.408,,,50,,,,,,,,,,,wg-a,,,,AAXX 12004 07761 12/70 00504 10190 20160 30155 40166 57003 60006 80000 90000=
07761,1997-09-12 03:00:00,18,1016,-0.6,83,15,20000,11.112,,,50,,,,,,,,,,,wg-a,,,,AAXX 12034 07761 12/70 00506 10180 20150 30149 40160 58006 60006 80000 90300=
07761,1997-09-12 06:00:00,18,1016.4,0.4,83,15,22000,11.112,,,60,16.8,24.2,,,,,,,,,wg-a,,,,AAXX 12064 07761 02672 /0606 10180 20150 30153 40164 53004 60006 81201 90600 333 10242 20168 60004=
07761,1997-09-12 09:00:00,26,1016.1,-0.2,58,17,25000,7.408,,,250,,,,,,,,,,,wg-a,,,,AAXX 12094 07761 12675 /2504 10260 20170 30151 40161 58002 60006 81102 90900=
07761,1997-09-12 12:00:00,28,1015.2,-0.9,58,19,25000,22.224,,,230,,,,,,,,,,,wg-a,,,,AAXX 12124 07761 12675 /2312 10280 20190 30142 40152 58009 60006 81100 91200=
07761,1997-09-12 15:00:00,27,1014.7,-0.5,66,20,20000,14.816,,,220,,,,,,,,,,,wg-a,,,,AAXX 12154 07761 12670 22208 10270 20200 30137 40147 56005 60006 81330 91500=
07761,1997-09-12 18:00:00,24,1014.4,-0.3,74,19,20000,11.112,,,160,17.7,28.2,,,,,,,,,wg-a,,,,AAXX 12184 07761 12/70 01606 10240 20190 30134 40144 56003 60006 80000 91800 333 10282 20177=
07761,1997-09-12 21:00:00,21,1014.9,0.4,69,15,20000,11.112,,,40,,,,,,,,,,,wg-a,,,,AAXX 12214 07761 12/70 00406 10210 20150 30138 40149 50004 60006 80000 92100=
07761,1997-09-13 00:00:00,19,1014.4,-0.5,68,13,20000,14.816,,,30,,,,,,,,,,,wg-a,,,,AAXX 13004 07761 12/70 00308 10190 20130 30133 40144 58005 60006 80000 90000=
07761,1997-09-13 03:00:00,18,1013.7,-0.7,68,12,20000,7.408,,,40,,,,,,,,,,,wg-a,,,,AAXX 13034 07761 12/70 00404 10180 20120 30126 40137 58007 60006 80000 90300=
07761,1997-09-13 06:00:00,17,1014,0.3,68,11,25000,11.112,,,50,16.1,24.3,,,,,,,,,wg-a,,,,AAXX 13064 07761 02/75 /0506 10170 20110 30129 40140 53003 60006 81040 90600 333 10243 20161 60004=
07761,1997-09-13 09:00:00,29,1013.8,-0.1,37,13,500,7.408,,,250,,,,,,,,,,,wg-a,,,,AAXX 13094 07761 12/00 22504 10290 20130 30128 40138 55001 60006 81042 90900=
07761,1997-09-13 12:00:00,29,1013.2,-0.6,43,15,11000,18.52,,,260,,,,,,,,,,,wg-a,,,,AAXX 13124 07761 12/61 /2610 10290 20150 30122 40132 58006 60006 91200=
07761,1997-09-13 18:00:00,23,1012.2,-0.8,69,17,15000,18.52,,,40,16.9,29.6,,1,,,,,,1,wg-a,,,,AAXX 13184 07761 02565 40410 10230 20170 30112 40122 58008 60006 70161 81472 91800 333 10296 20169 60017=
07761,1997-09-14 00:00:00,21,1013.2,-0.7,78,17,15000,7.408,,,70,,,,,,,,,,,wg-a,,,,AAXX 14004 07761 12565 70704 10210 20170 30122 40132 56007 60006 8457/ 90000=
07761,1997-09-14 03:00:00,21,1012.4,-0.8,83,18,15000,3.704,,,80,,,,,,,,,,,wg-a,,,,AAXX 14034 07761 12465 70802 10210 20180 30114 40124 56008 60006 872// 90300=
07761,1997-09-14 06:00:00,21,1013.3,0.9,73,16,20000,3.704,,,120,20.4,23,,,,,1,,,,wg-a,,,,AAXX 14064 07761 02670 /1202 10210 20160 30123 40133 53009 60006 81572 90600 333 10230 20204 60014=
07761,1997-09-14 09:00:00,25,1014.9,1.6,54,15,25000,14.816,,,230,,,,,,,,,,,wg-a,,,,AAXX 14094 07761 12675 52308 10250 20150 30139 40149 51016 60006 81142 90900=
07761,1997-09-14 12:00:00,24,1016.2,1.3,57,15,25000,29.632,,,230,,,,,,,,,,,wg-a,,,,AAXX 14124 07761 12675 52316 10240 20150 30152 40162 53013 60006 81142 91200=
07761,1997-09-14 15:00:00,23,1015.5,-0.7,57,14,25000,25.928,,,240,,,,,,,,,,,wg-a,,,,AAXX 14154 07761 12675 /2414 10230 20140 30145 40155 58007 60006 81241 91500=
07761,1997-09-14 18:00:00,20,1016.5,0.9,60,12,20000,11.112,,,170,20,25.2,,,,,,,,,wg-a,,,,AAXX 14184 07761 12670 21706 10200 20120 30154 40165 51009 60006 82500 91800 333 10252 20200=
07761,1997-09-14 21:00:00,18,1018,1.5,64,11,20000,14.816,,,80,,,,,,,,,,,wg-a,,,,AAXX 14214 07761 12670 20808 10180 20110 30169 40180 51015 60006 81530 92100=
07761,1997-09-15 00:00:00,17,1017.9,-0.1,68,11,20000,14.816,,,40,,,,,,,,,,,wg-a,,,,AAXX 15004 07761 12/70 00408 10170 20110 30168 40179 58001 60006 80000 90000=
07761,1997-09-15 03:00:00,15,1018,0.1,77,11,20000,11.112,,,50,,,,,,,,,,,wg-a,,,,AAXX 15034 07761 12/70 00506 10150 20110 30169 40180 50001 60006 80000 90300=
07761,1997-09-15 06:00:00,15,1018.7,0.7,77,11,500,14.816,,,50,14.2,20,,,,,,,,,wg-a,,,,AAXX 15064 07761 02600 /0508 10150 20110 30176 40187 51007 60006 81502 90600 333 10200 20142 60004=
07761,1997-09-15 09:00:00,24,1019.4,0.8,54,14,500,11.112,,,210,,,,,,,,,,,wg-a,,,,AAXX 15094 07761 12600 /2106 10240 20140 30184 40194 51008 60006 81132 90900=
07761,1997-09-15 12:00:00,25,1019,-0.4,54,15,25000,25.928,,,230,,,,,,,,,,,wg-a,,,,AAXX 15124 07761 12675 22314 10250 20150 30180 40190 57004 60006 81232 91200=
07761,1997-09-15 15:00:00,25,1018.6,-0.4,61,17,25000,25.928,,,240,,,,,,,,,,,wg-a,,,,AAXX 15154 07761 12675 22414 10250 20170 30176 40186 56004 60006 81202 91500=
07761,1997-09-15 18:00:00,23,1019,0.4,65,16,25000,11.112,,,170,15.2,26.2,,,,,,,,,wg-a,,,,AAXX 15184 07761 12675 21706 10230 20160 30180 40190 53004 60006 81831 91800 333 10262 20152=
07761,1997-09-15 21:00:00,20,1020.2,1.1,73,15,25000,11.112,,,50,,,,,,,,,,,wg-a,,,,AAXX 15214 07761 12/75 /0506 10200 20150 30191 40202 51011 60006 82031 92100=
07761,1997-09-16 00:00:00,18,1020.4,0.2,68,12,25000,11.112,,,50,,,,,,,,,,,wg-a,,,,AAXX 16004 07761 12/75 30506 10180 20120 30193 40204 51002 60006 81031 90000=
07761,1997-09-16 03:00:00,18,1019.7,-0.7,68,12,25000,14.816,,,40,,,,,,,,,,,wg-a,,,,AAXX 16034 07761 12675 40408 10180 20120 30186 40197 58007 60006 83530 90300=
07761,1997-09-16 06:00:00,18,1020.2,0.5,73,13,25000,11.112,,,30,16.8,22.9,,,,,,,,,wg-a,,,,AAXX 16064 07761 02675 /0306 10180 20130 30191 40202 53005 60006 82232 90600 333 10229 20168 60004=
07761,1997-09-16 09:00:00,25,1020.8,0.7,54,15,25000,11.112,,,220,,,,,,,,,,,wg-a,,,,AAXX 16094 07761 12675 52206 10250 20150 30198 40208 52007 60006 82252 90900=
07761,1997-09-16 12:00:00,26,1020.2,-0.6,54,16,25000,25.928,,,240,,,,,,,,,,,wg-a,,,,AAXX 16124 07761 12675 42414 10260 20160 30192 40202 56006 60006 82252 91200=
07761,1997-09-16 15:00:00,25,1020,-0.2,57,16,25000,25.928,,,250,,,,,,,,,,,wg-a,,,,AAXX 16154 07761 12675 62514 10250 20160 30190 40200 57002 60006 83252 91500=
07761,1997-09-16 18:00:00,23,1020.2,0.1,57,14,25000,3.704,,,350,18.1,26.2,,,,,,,,,wg-a,,,,AAXX 16184 07761 12675 43502 10230 20140 30191 40202 53001 60006 81132 91800 333 10262 20181=
07761,1997-09-16 21:00:00,19,1021,0.8,73,14,15000,11.112,,,60,,,,,,,,,,,wg-a,,,,AAXX 16214 07761 12/65 40606 10190 20140 30199 40210 51008 60006 83032 92100=
07761,1997-09-17 00:00:00,17,1021.1,0.1,77,13,15000,14.816,,,50,,,,,,,,,,,wg-a,,,,AAXX 17004 07761 12/65 30508 10170 20130 30200 40211 50001 60006 80002 90000=
07761,1997-09-17 06:00:00,15,1021.3,0.3,82,12,17000,11.112,,,40,14.5,22.7,,,,,,,,,wg-a,,,,AAXX 17064 07761 02/67 10406 10150 20120 30202 40213 53003 60006 80002 90600 333 10227 20145 60004=
07761,1997-09-17 12:00:00,26,1021.4,-0.4,58,17,25000,22.224,,,230,,,,,,,,,,,wg-a,,,,AAXX 17124 07761 12675 22312 10260 20170 30204 40214 58004 60006 81202 91200=
07761,1997-09-17 15:00:00,25,1020.6,-0.8,61,17,20000,22.224,,,230,,,,,,,,,,,wg-a,,,,AAXX 17154 07761 12670 22312 10250 20170 30196 40206 56008 60006 82202 91500=
07761,1997-09-17 18:00:00,22,1021,0.3,60,14,20000,11.112,,,160,15.3,25.8,,,,,,,,,wg-a,,,,AAXX 17184 07761 12670 /1606 10220 20140 30199 40210 53003 60006 81530 91800 333 10258 20153=
07761,1997-09-17 21:00:00,18,1022.5,1.5,77,14,20000,11.112,,,60,,,,,,,,,,,wg-a,,,,AAXX 17214 07761 12/70 00606 10180 20140 30214 40225 51015 60006 80000 92100=
07761,1997-09-18 00:00:00,16,1022.6,0.1,82,13,20000,14.816,,,50,,,,,,,,,,,wg-a,,,,AAXX 18004 07761 12/70 00508 10160 20130 30215 40226 53001 60006 80000 90000=
07761,1997-09-18 03:00:00,15,1021.7,-0.9,82,12,20000,11.112,,,40,,,,,,,,,,,wg-a,,,,AAXX 18034 07761 12/70 00406 10150 20120 30206 40217 58009 60006 80000 90300=
07761,1997-09-18 06:00:00,15,1022,0.3,77,11,500,11.112,,,40,13.8,22,,,,,,,,,wg-a,,,,AAXX 18064 07761 02/00 00406 10150 20110 30209 40220 53003 60006 80000 90600 333 10220 20138 60004=
07761,1997-09-18 09:00:00,24,1022.6,0.7,50,13,500,7.408,,,220,,,,,,,,,,,wg-a,,,,AAXX 18094 07761 12600 /2204 10240 20130 30216 40226 53007 60006 81100 90900=
07761,1997-09-18 12:00:00,27,1021.5,-1.1,51,16,500,18.52,,,230,,,,,,,,,,,wg-a,,,,AAXX 18124 07761 12600 /2310 10270 20160 30205 40215 58011 60006 81100 91200=
07761,1997-09-18 15:00:00,27,1020.3,-1.2,42,13,500,7.408,,,230,,,,,,,,,,,wg-a,,,,AAXX 18154 07761 12600 /2304 10270 20130 30193 40203 56012 60006 81100 91500=
07761,1997-09-18 18:00:00,23,1020.4,-0,57,14,20000,7.408,,,350,15.3,27.5,,,,,,,,,wg-a,,,,AAXX 18184 07761 12670 23504 10230 20140 30193 40204 55000 60006 81431 91800 333 10275 20153=
07761,1997-09-18 21:00:00,18,1021.4,1,73,13,20000,11.112,,,50,,,,,,,,,,,wg-a,,,,AAXX 18214 07761 12/70 00506 10180 20130 30203 40214 50010 60006 80000 92100=
07761,1997-09-19 00:00:00,16,1021.6,0.2,77,12,20000,14.816,,,40,,,,,,,,,,,wg-a,,,,AAXX 19004 07761 12/70 00408 10160 20120 30205 40216 50002 60006 80000 90000=
07761,1997-09-19 03:00:00,14,1021.2,-0.4,82,11,20000,11.112,,,50,,,,,,,,,,,wg-a,,,,AAXX 19034 07761 12/70 00506 10140 20110 30201 40212 55004 60006 80000 90300=
07761,1997-09-19 06:00:00,15,1021.7,0.5,77,11,35000,14.816,,,40,13.6,23.1,,,,,,,,,wg-a,,,,AAXX 19064 07761 02581 /0408 10150 20110 30206 40217 53005 60006 81100 90600 333 10231 20136 60004=
07761,1997-09-19 09:00:00,24,1021.7,0.1,57,15,500,11.112,,,210,,,,,,,,,,,wg-a,,,,AAXX 19094 07761 12500 /2106 10240 20150 30207 40217 52001 60006 81100 90900=
07761,1997-09-19 12:00:00,26,1020.6,-1.1,48,14,500,25.928,,,240,,,,,,,,,,,wg-a,,,,AAXX 19124 07761 12600 /2414 10260 20140 30196 40206 56011 60006 81100 91200=
07761,1997-09-19 15:00:00,25,1019.5,-1.1,54,15,500,11.112,,,270,,,,,,,,,,,wg-a,,,,AAXX 19154 07761 12600 /2706 10250 20150 30185 40195 57011 60006 81100 91500=
07761,1997-09-19 18:00:00,22,1019.5,-0.1,65,15,500,3.704,,,360,14.6,26.4,,,,,,,,,wg-a,,,,AAXX 19184 07761 12500 /3602 10220 20150 30184 40195 55001 60006 81500 91800 333 10264 20146=
07761,1997-09-19 21:00:00,20,1020.1,0.6,73,15,20000,11.112,,,50,,,,,,,,,,,wg-a,,,,AAXX 19214 07761 12570 /0506 10200 20150 30190 40201 50006 60006 84500 92100=
07761,1997-09-20 00:00:00,18,1019.7,-0.4,83,15,20000,18.52,,,70,,,,,,,,,,,wg-a,,,,AAXX 20004 07761 12570 /0710 10180 20150 30186 40197 57004 60006 85500 90000=
07761,1997-09-20 03:00:00,17,1019.2,-0.5,59,9,20000,18.52,,,80,,,,,,,,,,,wg-a,,,,AAXX 20034 07761 12570 40810 10170 20090 30181 40192 57005 60006 84500 90300=
07761,1997-09-20 06:00:00,16,1019.5,0.3,77,12,15000,11.112,,,40,15.4,21.6,,,,,,,,,wg-a,,,,AAXX 20064 07761 02765 30406 10160 20120 30184 40195 53003 60006 82501 90600 333 10216 20154 60004=
07761,1997-09-20 09:00:00,24,1019.9,0.5,47,12,50000,7.408,,,280,,,,,,,,,,,wg-a,,,,AAXX 20094 07761 12784 /2804 10240 20120 30189 40199 53005 60006 81501 90900=
07761,1997-09-20 12:00:00,25,1019.2,-0.7,50,14,50000,22.224,,,230,,,,,,,,,,,wg-a,,,,AAXX 20124 07761 12784 22312 10250 20140 30182 40192 58007 60006 81101 91200=
07761,1997-09-20 15:00:00,25,1018.1,-1.1,50,14,500,11.112,,,220,,,,,,,,,,,wg-a,,,,AAXX 20154 07761 12700 52206 10250 20140 30171 40181 58011 60006 81402 91500=
07761,1997-09-20 18:00:00,22,1018.4,0.2,65,15,20000,7.408,,,160,15.9,25.4,,,,,,,,,wg-a,,,,AAXX 20184 07761 12670 /1604 10220 20150 30173 40184 53002 60006 81409 91800 333 10254 20159=
07761,1997-09-20 21:00:00,17,1019.8,1.4,77,13,20000,11.112,,,50,,,,,,,,,,,wg-a,,,,AAXX 20214 07761 12/70 20506 10170 20130 30187 40198 51014 60006 80009 92100=
07761,1997-09-21 00:00:00,16,1020,0.2,82,13,20000,11.112,,,40,,,,,,,,,,,wg-a,,,,AAXX 21004 07761 12/70 10406 10160 20130 30189 40200 50002 60006 80001 90000=
07761,1997-09-21 06:00:00,15,1019.4,-0,82,12,20000,14.816,,,50,13.8,21.7,,,,,,,,,wg-a,,,,AAXX 21064 07761 02/70 30508 10150 20120 30183 40194 55000 60006 81031 90600 333 10217 20138 60004=
07761,1997-09-21 09:00:00,24,1019.4,0.1,57,15,20000,11.112,,,240,,,,,,,,,,,wg-a,,,,AAXX 21094 07761 12670 32406 10240 20150 30184 40194 53001 60006 81131 90900=
07761,1997-09-21 12:00:00,25,1018.6,-0.8,57,16,25000,18.52,,,240,,,,,,,,,,,wg-a,,,,AAXX 21124 07761 12675 52410 10250 20160 30176 40186 58008 60006 82281 91200=
07761,1997-09-21 15:00:00,25,1018,-0.6,57,16,25000,14.816,,,200,,,,,,,,,,,wg-a,,,,AAXX 21154 07761 12675 /2008 10250 20160 30170 40180 56006 60006 82881 91500=
07761,1997-09-21 18:00:00,23,1018.8,0.7,65,16,25000,11.112,,,140,14.8,26.6,,,,,,,,,wg-a,,,,AAXX 21184 07761 12775 71406 10230 20160 30177 40188 53007 60006 82981 91800 333 10266 20148=
07761,1997-09-21 21:00:00,20,1019.5,0.7,73,15,20000,11.112,,,50,,,,,,,,,,13,wg-a,,,,AAXX 21214 07761 12770 60506 10200 20150 30184 40195 50007 60006 71322 81932 92100=
07761,1997-09-22 00:00:00,18,1019.1,-0.4,77,14,20000,11.112,,,40,,,,,,,,,,,wg-a,,,,AAXX 22004 07761 12/70 /0406 10180 20140 30180 40191 58004 60006 85082 90000=
07761,1997-09-22 03:00:00,17,1018.5,-0.6,77,13,20000,11.112,,,50,,,,,,,,,,13,wg-a,,,,AAXX 22034 07761 12770 /0506 10170 20130 30174 40185 57006 60006 71322 81982 90300=
07761,1997-09-22 06:00:00,16,1018.8,0.3,77,12,15000,7.408,,,50,16.4,22.5,,,,,,,,,wg-a,,,,AAXX 22064 07761 02765 70504 10160 20120 30177 40188 53003 60006 81982 90600 333 10225 20164 60004=
07761,1997-09-22 09:00:00,22,1018.7,-0.1,60,14,15000,3.704,,,40,,,,,,,,,,,wg-a,,,,AAXX 22094 07761 12665 70402 10220 20140 30176 40187 58001 60006 82872 90900=
07761,1997-09-22 12:00:00,25,1018.1,-0.5,50,14,20000,11.112,,,270,,,,,,,,,,,wg-a,,,,AAXX 22124 07761 12670 72706 10250 20140 30171 40181 56005 60006 83872 91200=
07761,1997-09-22 15:00:00,24,1017.3,-0.8,50,13,20000,11.112,,,320,,,,,,,,,,3,wg-a,,,,AAXX 22154 07761 02670 83206 10240 20130 30163 40173 55008 61000 70362 8387/ 91500 333 ////=
07761,1997-09-22 18:00:00,23,1017.6,0.2,57,14,20000,3.704,,,100,16.3,26,,,,,,,,1,wg-a,,,,AAXX 22184 07761 12670 71002 10230 20140 30165 40176 53002 60006 70162 8387/ 91800 333 10260 20163=
07761,1997-09-22 21:00:00,19,1018.8,1.2,68,13,15000,7.408,,,80,,,,,,,,,,13,wg-a,,,,AAXX 22214 07761 12765 70804 10190 20130 30177 40188 51012 60006 71322 8357/ 92100=
07761,1997-09-23 00:00:00,19,1017.8,-1,60,11,15000,11.112,,,40,,,,,,,,,,,wg-a,,,,AAXX 23004 07761 12765 80406 10190 20110 30167 40178 58010 60006 8457/ 90000=
07761,1997-09-23 03:00:00,18,1016.6,-1.2,64,11,15000,11.112,,,60,,,,,,,,,,,wg-a,,,,AAXX 23034 07761 12765 70606 10180 20110 30155 40166 56012 60006 8353/ 90300=
07761,1997-09-23 06:00:00,16,1016.5,-0.1,68,10,25000,14.816,,,50,15.9,22.5,,,,,,,,,wg-a,,,,AAXX 23064 07761 02775 /0508 10160 20100 30154 40165 55001 60006 81532 90600 333 10225 20159 61000=
07761,1997-09-23 09:00:00,24,1016.2,-0.2,54,14,25000,14.816,,,230,,,,,,,,,,,wg-a,,,,AAXX 23094 07761 12675 42308 10240 20140 30152 40162 57002 60006 81132 90900=
07761,1997-09-23 12:00:00,25,1018.5,-0.6,47,13,8000,18.52,,,220,,,,,,,,,,,wg-a,,,,AAXX 23124 07761 12558 /2210 10250 20130 30029 40185 58006 60006 81300 91200=
07761,1997-09-23 15:00:00,24,1017.6,-0.9,57,15,8000,18.52,,,250,,,,,,,,,,,wg-a,,,,AAXX 23154 07761 12558 /2510 10240 20150 30020 40176 56009 60006 81900 91500=
07761,1997-09-23 18:00:00,21,1018.2,0.4,78,17,8000,11.112,,,270,,,,,,,,,,,wg-a,,,,AAXX 23184 07761 12/58 32706 10210 20170 30024 40182 51004 60006 83060 91800=
07761,1997-09-24 00:00:00,19,1018.6,-0.5,88,17,8000,7.408,,,300,,,,,,,,,,,wg-a,,,,AAXX 24004 07761 12458 33004 10190 20170 30027 40186 58005 60006 83600 90000=
07761,1997-09-24 06:00:00,17,1018.3,0.4,88,15,6000,3.704,,,350,16.8,21,,,,,,,,,wg-a,,,,AAXX 24064 07761 12/56 /3502 10170 20150 30023 40183 53004 60006 80000 90600 333 10210 20168=
07761,1997-09-24 12:00:00,25,1015.6,-0.4,54,15,15000,18.52,,,240,,,,,,,,,,,wg-a,,,,AAXX 24124 07761 12765 72410 10250 20150 30146 40156 58004 60006 81272 91200=
07761,1997-09-24 15:00:00,25,1015.2,-0.4,41,11,11000,14.816,,,210,,,,,,,,,,,wg-a,,,,AAXX 24154 07761 12/61 /2108 10250 20110 30142 40152 56004 60006 91500=
07761,1997-09-24 18:00:00,22,1016.2,0.9,60,14,15000,3.704,,,100,14.7,25.8,,,,,,,,,wg-a,,,,AAXX 24184 07761 12665 /1002 10220 20140 30151 40162 53009 60006 81272 91800 333 10258 20147=
07761,1997-09-24 21:00:00,18,1017.5,1.3,68,12,15000,11.112,,,50,,,,,,,,,,,wg-a,,,,AAXX 24214 07761 12/65 /0506 10180 20120 30164 40175 51013 60006 81072 92100=
07761,1997-09-25 00:00:00,16,1018,0.5,72,11,15000,11.112,,,40,,,,,,,,,,,wg-a,,,,AAXX 25004 07761 12/65 40406 10160 20110 30169 40180 51005 60006 80001 90000=
07761,1997-09-25 03:00:00,14,1017.6,-0.4,82,11,15000,14.816,,,40,,,,,,,,,,,wg-a,,,,AAXX 25034 07761 12/65 50408 10140 20110 30165 40176 56004 60006 82031 90300=
07761,1997-09-25 06:00:00,12,1018.4,0.8,76,8,15000,18.52,,,40,11.8,21.8,,,,,,,,,wg-a,,,,AAXX 25064 07761 02/65 30410 10120 20080 30173 40184 53008 60006 81031 90600 333 10218 20118 60004=
07761,1997-09-25 09:00:00,24,1019.2,0.9,50,13,25000,7.408,,,250,,,,,,,,,,,wg-a,,,,AAXX 25094 07761 12675 12504 10240 20130 30182 40192 51009 60006 81101 90900=
07761,1997-09-25 12:00:00,25,1018.8,-0.4,57,16,25000,22.224,,,240,,,,,,,,,,,wg-a,,,,AAXX 25124 07761 12675 /2412 10250 20160 30178 40188 58004 60006 81101 91200=
07761,1997-09-25 15:00:00,25,1018.6,-0.2,57,16,25000,22.224,,,240,,,,,,,,,,,wg-a,,,,AAXX 25154 07761 12675 22412 10250 20160 30176 40186 57002 60006 82801 91500=
07761,1997-09-25 21:00:00,18,1020.7,1,77,14,25000,11.112,,,30,,,,,,,,,,,wg-a,,,,AAXX 25214 07761 12/75 10306 10180 20140 30196 40207 51010 60006 80001 92100=
07761,1997-09-26 00:00:00,16,1020.4,-0.3,77,12,25000,14.816,,,50,,,,,,,,,,,wg-a,,,,AAXX 26004 07761 12/75 00508 10160 20120 30193 40204 58003 60006 80000 90000=
07761,1997-09-26 03:00:00,15,1019.6,-0.8,77,11,25000,14.816,,,30,,,,,,,,,,,wg-a,,,,AAXX 26034 07761 12/75 00308 10150 20110 30185 40196 56008 60006 80000 90300=
07761,1997-09-26 06:00:00,14,1020,0.4,77,10,17000,14.816,,,50,13.3,22.2,,,,,,,,,wg-a,,,,AAXX 26064 07761 02/67 00508 10140 20100 30189 40200 53004 60006 80000 90600 333 10222 20133 60004=
07761,1997-09-26 09:00:00,24,1020.1,0.2,57,15,40000,7.408,,,210,,,,,,,,,,,wg-a,,,,AAXX 26094 07761 12782 /2104 10240 20150 30191 40201 51002 60006 81100 90900=
07761,1997-09-26 12:00:00,24,1018.8,-1.3,65,17,20000,29.632,,,230,,,,,,,,,,,wg-a,,,,AAXX 26124 07761 12770 /2316 10240 20170 30178 40188 58013 60006 81100 91200=
07761,1997-09-26 15:00:00,24,1017.9,-0.9,65,17,20000,25.928,,,240,,,,,,,,,,,wg-a,,,,AAXX 26154 07761 12670 22414 10240 20170 30169 40179 56009 60006 82200 91500=
07761,1997-09-26 18:00:00,22,1017.7,-0.3,69,16,15000,3.704,,,340,13.8,25.7,,,,,,,,,wg-a,,,,AAXX 26184 07761 12565 /3402 10220 20160 30166 40177 56003 60006 81400 91800 333 10257 20138=
07761,1997-09-26 21:00:00,20,1017.7,0,78,16,15000,7.408,,,60,,,,,,,,,,,wg-a,,,,AAXX 26214 07761 12565 70604 10200 20160 30166 40177 50000 60006 87500 92100=
07761,1997-09-27 00:00:00,18,1017.1,-0.6,83,15,15000,11.112,,,60,,,,,,,,,,,wg-a,,,,AAXX 27004 07761 12665 30606 10180 20150 30160 40171 58006 60006 83500 90000=
07761,1997-09-27 03:00:00,17,1016.3,-0.8,82,14,15000,11.112,,,50,,,,,,,,,,,wg-a,,,,AAXX 27034 07761 12565 40506 10170 20140 30152 40163 58008 60006 84500 90300=
07761,1997-09-27 06:00:00,15,1016.1,-0.2,82,12,15000,14.816,,,60,14.9,21.6,,,,,,,,,wg-a,,,,AAXX 27064 07761 02565 30608 10150 20120 30150 40161 56002 60006 83530 90600 333 10216 20149 60004=
07761,1997-09-27 09:00:00,24,1015.6,-0.4,57,15,15000,7.408,,,250,,,,,,,,,,,wg-a,,,,AAXX 27094 07761 12665 /2504 10240 20150 30146 40156 58004 60006 81400 90900=
07761,1997-09-27 12:00:00,25,1014.8,-0.8,61,17,500,18.52,,,230,,,,,,,,,,,wg-a,,,,AAXX 27124 07761 12600 /2310 10250 20170 30138 40148 58008 60006 81200 91200=
07761,1997-09-27 15:00:00,24,1013.8,-1,65,17,500,11.112,,,210,,,,,,,,,,,wg-a,,,,AAXX 27154 07761 12600 22106 10240 20170 30128 40138 57010 60006 81401 91500=
07761,1997-09-27 18:00:00,22,1013.8,-0,65,15,500,3.704,,,100,15.3,25.3,,,,,,,,,wg-a,,,,AAXX 27184 07761 12/00 /1002 10220 20150 30128 40138 55000 60006 80000 91800 333 10253 20153=
07761,1997-09-27 21:00:00,17,1014.3,0.4,82,14,20000,11.112,,,60,,,,,,,,,,,wg-a,,,,AAXX 27214 07761 12/70 00606 10170 20140 30132 40143 50004 60006 80000 92100=
07761,1997-09-28 00:00:00,16,1015,0.7,82,13,20000,11.112,,,60,,,,,,,,,,,wg-a,,,,AAXX 28004 07761 12/70 00606 10160 20130 30139 40150 53007 60006 80000 90000=
07761,1997-09-28 03:00:00,15,1014.9,-0.1,82,12,20000,11.112,,,40,,,,,,,,,,,wg-a,,,,AAXX 28034 07761 12/70 00406 10150 20120 30138 40149 55001 60006 80000 90300=
07761,1997-09-28 06:00:00,15,1015.2,0.3,88,13,20000,11.112,,,60,14.2,21.5,,,,,,,,,wg-a,,,,AAXX 28064 07761 02/70 /0606 10150 20130 30141 40152 53003 60006 80000 90600 333 10215 20142 60004=
07761,1997-09-28 09:00:00,24,1015.4,0.3,61,16,20000,7.408,,,230,,,,,,,,,,,wg-a,,,,AAXX 28094 07761 12670 /2304 10240 20160 30144 40154 50003 60006 81100 90900=
07761,1997-09-28 12:00:00,25,1014.9,-0.5,61,17,20000,25.928,,,240,,,,,,,,,,,wg-a,,,,AAXX 28124 07761 12670 /2414 10250 20170 30139 40149 58005 60006 81100 91200=
07761,1997-09-28 15:00:00,24,1014.7,-0.2,65,17,20000,18.52,,,220,,,,,,,,,,,wg-a,,,,AAXX 28154 07761 12670 /2210 10240 20170 30137 40147 57002 60006 81100 91500=
07761,1997-09-28 18:00:00,21,1015.5,0.7,73,16,10000,7.408,,,100,15.5,25.2,,,,,,,,,wg-a,,,,AAXX 28184 07761 12/60 21004 10210 20160 30144 40155 53007 60006 80001 91800 333 10252 20155=
07761,1997-09-28 21:00:00,16,1016.7,1.2,88,14,10000,11.112,,,40,,,,,,,,,,,wg-a,,,,AAXX 28214 07761 12/60 00406 10160 20140 30156 40167 51012 60006 80000 92100=
07761,1997-09-29 00:00:00,15,1017,0.3,82,12,10000,11.112,,,50,,,,,,,,,,,wg-a,,,,AAXX 29004 07761 12/60 00506 10150 20120 30159 40170 51003 60006 80000 90000=
07761,1997-09-29 03:00:00,14,1017.2,0.2,82,11,10000,14.816,,,40,,,,,,,,,,,wg-a,,,,AAXX 29034 07761 12/60 00408 10140 20110 30161 40172 50002 60006 80000 90300=
07761,1997-09-29 06:00:00,14,1018.2,1,72,9,25000,14.816,,,50,12.5,20.9,,,,,,,,,wg-a,,,,AAXX 29064 07761 02/75 /0508 10140 20090 30171 40182 53010 60006 81042 90600 333 10209 20125 60004=
07761,1997-09-29 09:00:00,25,1019,0.9,44,12,25000,7.408,,,230,,,,,,,,,,,wg-a,,,,AAXX 29094 07761 12/75 22304 10250 20120 30180 40190 53009 60006 81042 90900=
07761,1997-09-29 12:00:00,26,1018.6,-0.4,58,17,25000,22.224,,,240,,,,,,,,,,,wg-a,,,,AAXX 29124 07761 12775 32412 10260 20170 30176 40186 57004 60006 81272 91200=
07761,1997-09-29 15:00:00,24,1018.7,0.1,61,16,25000,18.52,,,180,,,,,,,,,,,wg-a,,,,AAXX 29154 07761 12775 51810 10240 20160 30177 40187 53001 60006 81272 91500=
07761,1997-09-29 18:00:00,21,1019.1,0.3,73,16,25000,7.408,,,50,13.6,26.6,,,,,,,,,wg-a,,,,AAXX 29184 07761 12775 /0504 10210 20160 30180 40191 53003 60006 81572 91800 333 10266 20136=
07761,1997-09-29 21:00:00,17,1021.1,2,72,12,20000,14.816,,,50,,,,,,,,,,,wg-a,,,,AAXX 29214 07761 12/70 00508 10170 20120 30200 40211 53020 60006 80000 92100=
07761,1997-09-30 00:00:00,16,1021.3,0.2,77,12,10000,11.112,,,50,,,,,,,,,,,wg-a,,,,AAXX 30004 07761 12/60 /0506 10160 20120 30202 40213 50002 60006 90000=
07761,1997-09-30 03:00:00,15,1021,-0.3,77,11,15000,11.112,,,50,,,,,,,,,,,wg-a,,,,AAXX 30034 07761 12/65 00506 10150 20110 30199 40210 56003 60006 80000 90300=
07761,1997-09-30 06:00:00,14,1021.5,0.5,82,11,25000,14.816,,,60,12.8,20.6,,,,,,,,,wg-a,,,,AAXX 30064 07761 02/75 20608 10140 20110 30204 40215 53005 60006 80002 90600 333 10206 20128 60004=
07761,1997-09-30 09:00:00,25,1021.9,0.5,47,13,25000,7.408,,,200,,,,,,,,,,,wg-a,,,,AAXX 30094 07761 12/75 12004 10250 20130 30209 40219 52005 60006 80002 90900=
07761,1997-09-30 12:00:00,26,1021.1,-0.8,58,17,25000,18.52,,,220,,,,,,,,,,,wg-a,,,,AAXX 30124 07761 12/75 32210 10260 20170 30201 40211 58008 60006 80002 91200=
07761,1997-09-30 15:00:00,25,1020.3,-0.8,65,18,25000,18.52,,,190,,,,,,,,,,,wg-a,,,,AAXX 30154 07761 12775 31910 10250 20180 30193 40203 56008 60006 81102 91500=
07761,1997-09-30 18:00:00,22,1020.7,0.3,73,17,25000,3.704,,,70,14.2,26.3,,,,,,,,,wg-a,,,,AAXX 30184 07761 12/75 60702 10220 20170 30196 40207 53003 60006 80002 91800 333 10263 20142=
07761,1997-10-01 00:00:00,15,1020.6,-0.1,88,13,25000,11.112,,,50,,,,,,,,,,,wg-a,,,,AAXX 01004 07761 12/75 00506 10150 20130 30195 40206 56001 60006 80000 90000=
07761,1997-10-01 03:00:00,15,1019.3,-1.3,82,12,25000,7.408,,,50,,,,,,,,,,,wg-a,,,,AAXX 01034 07761 12/75 00504 10150 20120 30182 40193 56013 60006 80000 90300=
07761,1997-10-01 06:00:00,14,1018.8,-0.5,88,12,25000,14.816,,,50,12.8,21.8,,,,,,,,,wg-a,,,,AAXX 01064 07761 02/75 50508 10140 20120 30177 40188 57005 60006 80002 90600 333 10218 20128 60004=
07761,1997-10-01 09:00:00,24,1018.8,0.1,54,14,20000,3.704,,,220,,,,,,,,,,,wg-a,,,,AAXX 01094 07761 12/70 72202 10240 20140 30178 40188 52001 60006 80002 90900=
07761,1997-10-01 12:00:00,25,1017.5,-1.3,69,19,20000,18.52,,,220,,,,,,,,,,,wg-a,,,,AAXX 01124 07761 12570 72210 10250 20190 30165 40175 58013 60006 81102 91200=
07761,1997-10-01 15:00:00,25,1016,-1.5,69,19,20000,22.224,,,230,,,,,,,,,,,wg-a,,,,AAXX 01154 07761 12570 52312 10250 20190 30150 40160 56015 60006 81102 91500=
07761,1997-10-01 18:00:00,22,1016,-0.1,73,17,15000,3.704,,,120,13.8,25.4,,,,,,,,,wg-a,,,,AAXX 01184 07761 12665 41202 10220 20170 30149 40160 55001 60006 81102 91800 333 10254 20138=
07761,1997-10-02 00:00:00,16,1015.6,-1,82,13,10000,11.112,,,40,,,,,,,,,,,wg-a,,,,AAXX 02004 07761 12/60 /0406 10160 20130 30145 40156 56010 60006 90000=
07761,1997-10-02 03:00:00,14,1014.5,-1.1,88,12,15000,11.112,,,50,,,,,,,,,,,wg-a,,,,AAXX 02034 07761 12/65 00506 10140 20120 30134 40145 56011 60006 80000 90300=
07761,1997-10-02 06:00:00,14,1013.7,-0.8,82,11,15000,11.112,,,30,12.4,21.6,,,,,,,,,wg-a,,,,AAXX 02064 07761 02/65 00306 10140 20110 30126 40137 56008 60006 80000 90600 333 10216 20124 60004=
07761,1997-10-02 09:00:00,24,1013.2,-0.4,57,15,20000,3.704,,,270,,,,,,,,,,,wg-a,,,,AAXX 02094 07761 12770 12702 10240 20150 30122 40132 56004 60006 81100 90900=
07761,1997-10-02 12:00:00,26,1012,-1.2,70,20,20000,18.52,,,240,,,,,,,,,,,wg-a,,,,AAXX 02124 07761 12570 52410 10260 20200 30110 40120 57012 60006 85800 91200=
07761,1997-10-02 15:00:00,25,1010.2,-1.8,79,21,20000,22.224,,,230,,,,,,,,,,,wg-a,,,,AAXX 02154 07761 12570 22312 10250 20210 30092 40102 58018 60006 82800 91500=
07761,1997-10-02 18:00:00,23,1010.2,0,73,18,10000,7.408,,,170,14.2,26.8,,,,,,,,,wg-a,,,,AAXX 02184 07761 12560 21704 10230 20180 30092 40102 50000 60006 82800 91800 333 10268 20142=
07761,1997-10-02 19:00:00,23,1010.2,0,73,18,10000,7.408,,,170,14.2,26.8,,,,,,,,,wg-a,,,,AAXX 02194 07761 12560 21704 10230 20180 30092 40102 50000 60006 82800 91900 333 10268 20142=
07761,1997-10-02 20:00:00,23,1010.2,0,73,18,10000,7.408,,,170,14.2,26.8,,,,,,,,,wg-a,,,,AAXX 02204 07761 12560 21704 10230 20180 30092 40102 50000 60006 82800 92000 333 10268 20142=
07761,1997-10-02 21:00:00,19,1010.3,-0,88,17,10000,11.112,,,50,,,,,,,,,,,wg-a,,,,AAXX 02214 07761 12560 20506 10190 20170 30092 40103 55000 60006 82800 92100=
07761,1997-10-03 00:00:00,18,1009.5,-0.8,83,15,10000,14.816,,,50,,,,,,,,,,,wg-a,,,,AAXX 03004 07761 12460 /0508 10180 20150 30084 40095 58008 60006 86500 90000=
07761,1997-10-03 03:00:00,16,1008,-1.5,88,14,10000,14.816,,,50,,,,,,,,,,,wg-a,,,,AAXX 03034 07761 12/60 00508 10160 20140 30069 40080 58015 60006 80000 90300=
07761,1997-10-03 06:00:00,16,1008.5,0.5,82,13,15000,14.816,,,50,15.8,22.5,,,,,,,,,wg-a,,,,AAXX 03064 07761 02/65 00508 10160 20130 30074 40085 53005 60006 80000 90600 333 10225 20158 60004=
07761,1997-10-03 09:00:00,25,1009.5,1.1,54,15,15000,7.408,,,260,,,,,,,,,,,wg-a,,,,AAXX 03094 07761 12665 22604 10250 20150 30085 40095 51011 60006 81130 90900=
07761,1997-10-03 12:00:00,26,1010.1,0.6,65,19,15000,22.224,,,240,,,,,,,,,,,wg-a,,,,AAXX 03124 07761 12665 22412 10260 20190 30091 40101 51006 60006 82102 91200=
07761,1997-10-03 15:00:00,25,1010.2,0.1,69,19,18000,11.112,,,200,,,,,,,,,,,wg-a,,,,AAXX 03154 07761 12568 /2006 10250 20190 30092 40102 53001 60006 86800 91500=
07761,1997-10-03 18:00:00,22,1011.7,1.5,83,19,18000,3.704,,,190,16.1,26.1,,,,,,,,,wg-a,,,,AAXX 03184 07761 12768 21902 10220 20190 30107 40117 53015 60006 81532 91800 333 10261 20161=
07761,1997-10-03 21:00:00,20,1013.9,2.1,83,17,15000,7.408,,,50,,,,,,,,,,,wg-a,,,,AAXX 03214 07761 12665 /0504 10200 20170 30128 40139 53021 60006 81502 92100=
07761,1997-10-04 00:00:00,18,1014.7,0.8,88,16,11000,14.816,,,60,,,,,,,,,,,wg-a,,,,AAXX 04004 07761 12/61 /0608 10180 20160 30136 40147 51008 60006 90000=
07761,1997-10-04 03:00:00,17,1015.1,0.4,82,14,15000,14.816,,,50,,,,,,,,,,,wg-a,,,,AAXX 04034 07761 12665 30508 10170 20140 30140 40151 52004 60006 83500 90300=
07761,1997-10-04 06:00:00,16,1016.3,1.2,82,13,10000,11.112,,,50,16,22.4,,,,,,,,,wg-a,,,,AAXX 04064 07761 02/60 20506 10160 20130 30152 40163 52012 60006 81032 90600 333 10224 20160 60004=
07761,1997-10-04 09:00:00,26,1017.7,1.5,58,17,15000,11.112,,,220,,,,,,,,,,,wg-a,,,,AAXX 04094 07761 12665 /2206 10260 20170 30167 40177 51015 60006 81100 90900=
07761,1997-10-04 12:00:00,27,1017.3,-0.4,66,20,15000,14.816,,,210,,,,,,,,,,,wg-a,,,,AAXX 04124 07761 12665 22108 10270 20200 30163 40173 58004 60006 82800 91200=
07761,1997-10-04 18:00:00,23,1018.1,1,65,16,10000,3.704,,,70,16.4,27.7,,,,,,,,,wg-a,,,,AAXX 04184 07761 12660 70702 10230 20160 30171 40181 53010 60006 81502 91800 333 10277 20164=
07761,1997-10-04 21:00:00,20,1018.9,0.7,73,15,15000,11.112,,,40,,,,,,,,,,,wg-a,,,,AAXX 04214 07761 12/65 /0406 10200 20150 30178 40189 53007 60006 81031 92100=
07761,1997-10-05 00:00:00,17,1018.7,-0.2,88,15,15000,11.112,,,50,,,,,,,,,,,wg-a,,,,AAXX 05004 07761 12/65 10506 10170 20150 30176 40187 58002 60006 80001 90000=
07761,1997-10-05 03:00:00,17,1018,-0.7,82,14,15000,11.112,,,50,,,,,,,,,,,wg-a,,,,AAXX 05034 07761 12/65 30506 10170 20140 30169 40180 58007 60006 80001 90300=
07761,1997-10-05 06:00:00,15,1018.4,0.4,88,13,15000,14.816,,,50,15,23,,,,,,,,,wg-a,,,,AAXX 05064 07761 02/65 20508 10150 20130 30173 40184 53004 60006 80001 90600 333 10230 20150 60004=
07761,1997-10-05 09:00:00,25,1018.8,0.5,54,15,15000,3.704,,,240,,,,,,,,,,,wg-a,,,,AAXX 05094 07761 12/65 02402 10250 20150 30178 40188 51005 60006 80000 90900=
07761,1997-10-05 12:00:00,26,1017.3,-1.5,61,18,25000,22.224,,,250,,,,,,,,,,,wg-a,,,,AAXX 05124 07761 12775 /2512 10260 20180 30163 40173 58015 60006 81200 91200=
07761,1997-10-05 15:00:00,26,1015.8,-1.5,65,19,25000,18.52,,,250,,,,,,,,,,,wg-a,,,,AAXX 05154 07761 12675 /2510 10260 20190 30148 40158 56015 60006 81100 91500=
07761,1997-10-05 18:00:00,22,1015.2,-0.6,60,14,25000,3.704,,,60,15.3,27.2,,,,,,,,,wg-a,,,,AAXX 05184 07761 12675 /0602 10220 20140 30142 40152 55006 60006 81100 91800 333 10272 20153=
07761,1997-10-05 21:00:00,18,1015.8,0.5,83,15,15000,11.112,,,40,,,,,,,,,,,wg-a,,,,AAXX 05214 07761 12/65 00406 10180 20150 30147 40158 52005 60006 80000 92100=
07761,1997-10-06 00:00:00,16,1015.4,-0.4,82,13,15000,14.816,,,50,,,,,,,,,,,wg-a,,,,AAXX 06004 07761 12665 /0508 10160 20130 30143 40154 55004 60006 81500 90000=
07761,1997-10-06 03:00:00,18,1013.5,-1.9,68,12,15000,7.408,,,60,,,,,,,,,,,wg-a,,,,AAXX 06034 07761 12565 /0604 10180 20120 30124 40135 56019 60006 81500 90300=
07761,1997-10-06 06:00:00,18,1012.8,-0.7,68,12,25000,7.408,,,30,15.7,22.3,,,,,,,,,wg-a,,,,AAXX 06064 07761 02675 50304 10180 20120 30117 40128 56007 60006 81532 90600 333 10223 20157 60004=
07761,1997-10-06 09:00:00,26,1013,0.3,48,14,35000,3.704,,,230,,,,,,,,,,,wg-a,,,,AAXX 06094 07761 12581 42302 10260 20140 30120 40130 50003 60006 81382 90900=
07761,1997-10-06 12:00:00,25,1011.7,-1.3,74,20,35000,14.816,,,200,,,,,,,,,,,wg-a,,,,AAXX 06124 07761 12581 82008 10250 20200 30107 40117 56013 60006 82983 91200=
07761,1997-10-06 15:00:00,25,1011.1,-0.6,74,20,25000,3.704,,,220,,,,0,,,,,,60,wg-a,,,,AAXX 06154 07761 12675 72202 10250 20200 30101 40111 56006 60007 76062 8397/ 91500=
07761,1997-10-06 18:00:00,22,1011.3,0.2,83,19,20000,7.408,,,20,18,26.7,,,,,,,,1,wg-a,,,,AAXX 06184 07761 02670 /0204 10220 20190 30103 40113 53002 60006 70161 81502 91800 333 10267 20180 61000=
07761,1997-10-06 21:00:00,19,1011.6,0.2,83,16,20000,11.112,,,40,,,,,,,,,,,wg-a,,,,AAXX 06214 07761 12670 /0406 10190 20160 30105 40116 53002 60006 81500 92100=
07761,1997-10-07 00:00:00,19,1010.4,-1.2,73,14,11000,14.816,,,40,,,,,,,,,,,wg-a,,,,AAXX 07004 07761 12/61 /0408 10190 20140 30093 40104 58012 60006 90000=
07761,1997-10-07 03:00:00,17,1010,-0.4,77,13,25000,14.816,,,50,,,,,,,,,,,wg-a,,,,AAXX 07034 07761 12675 30508 10170 20130 30089 40100 56004 60006 81530 90300=
07761,1997-10-07 06:00:00,19,1009.7,-0.3,73,14,25000,14.816,,,40,16.8,22,,,,,,,,,wg-a,,,,AAXX 07064 07761 02675 50408 10190 20140 30086 40097 58003 60006 81102 90600 333 10220 20168 60004=
07761,1997-10-07 09:00:00,27,1010.8,1.2,48,15,25000,3.704,,,40,,,,,,,,,,,wg-a,,,,AAXX 07094 07761 12775 30402 10270 20150 30098 40108 51012 60006 81582 90900=
07761,1997-10-07 12:00:00,27,1010.1,-0.7,54,17,40000,25.928,,,260,,,,,,,,,,,wg-a,,,,AAXX 07124 07761 12682 62614 10270 20170 30091 40101 56007 60006 81242 91200=
07761,1997-10-07 18:00:00,24,1012.1,2.3,74,19,15000,11.112,,,300,18.8,29.7,,,,,,,,,wg-a,,,,AAXX 07184 07761 12565 73006 10240 20190 30111 40121 51023 60006 8484/ 91800 333 10297 20188=
07761,1997-10-07 21:00:00,21,1011.9,-0.2,83,18,11000,7.408,,,50,,,,,,,,,,,wg-a,,,,AAXX 07214 07761 12/61 /0504 10210 20180 30109 40119 58002 60006 92100=
07761,1997-10-08 00:00:00,20,1013.6,1.6,83,17,15000,7.408,,,70,,,,,,,,,,13,wg-a,,,,AAXX 08004 07761 12/65 70704 10200 20170 30125 40136 51016 60006 71311 85032 90000=
07761,1997-10-08 03:00:00,18,1013.7,0.1,88,16,15000,11.112,,,80,,,,,,,,,,,wg-a,,,,AAXX 08034 07761 12465 30806 10180 20160 30126 40137 53001 60006 83500 90300=
07761,1997-10-08 06:00:00,17,1014.6,0.9,88,15,25000,7.408,,,70,17.1,23.4,,,,,,,,,wg-a,,,,AAXX 08064 07761 02475 30704 10170 20150 30135 40146 53009 60006 81501 90600 333 10234 20171 60004=
07761,1997-10-08 09:00:00,25,1015.5,1,69,19,25000,7.408,,,230,,,,,,,,,,,wg-a,,,,AAXX 08094 07761 12475 /2304 10250 20190 30145 40155 51010 60006 81201 90900=
07761,1997-10-08 12:00:00,26,1015.3,-0.2,74,21,25000,25.928,,,230,,,,,,,,,,,wg-a,,,,AAXX 08124 07761 12475 32314 10260 20210 30143 40153 58002 60006 81201 91200=
07761,1997-10-08 18:00:00,23,1016.9,1.4,83,20,25000,7.408,,,160,17.2,26.2,,,,,,,,,wg-a,,,,AAXX 08184 07761 12475 31604 10230 20200 30159 40169 53014 60006 83801 91800 333 10262 20172=
07761,1997-10-08 21:00:00,20,1018,1,83,17,25000,11.112,,,50,,,,,,,,,,,wg-a,,,,AAXX 08214 07761 12475 30506 10200 20170 30169 40180 51010 60006 83801 92100=
07761,1997-10-09 00:00:00,18,1017.8,-0.2,88,16,20000,11.112,,,50,,,,,,,,,,,wg-a,,,,AAXX 09004 07761 12470 20506 10180 20160 30167 40178 55002 60006 82501 90000=
07761,1997-10-09 03:00:00,17,1017.7,-0.1,88,15,20000,14.816,,,40,,,,,,,,,,,wg-a,,,,AAXX 09034 07761 12470 /0408 10170 20150 30166 40177 58001 60006 81501 90300=
07761,1997-10-09 06:00:00,16,1018.4,0.7,88,14,11000,11.112,,,50,15.6,22.6,,,,,,,,,wg-a,,,,AAXX 09064 07761 02/61 /0506 10160 20140 30173 40184 53007 60006 90600 333 10226 20156 60004=
07761,1997-10-09 09:00:00,24,1019.2,0.9,69,18,25000,7.408,,,220,,,,,,,,,,,wg-a,,,,AAXX 09094 07761 12675 /2204 10240 20180 30182 40192 50009 60006 81100 90900=
07761,1997-10-09 12:00:00,26,1018.5,-0.7,65,19,25000,18.52,,,210,,,,,,,,,,,wg-a,,,,AAXX 09124 07761 12675 /2110 10260 20190 30175 40185 58007 60006 81100 91200=
07761,1997-10-09 15:00:00,25,1018,-0.5,74,20,25000,18.52,,,200,,,,,,,,,,,wg-a,,,,AAXX 09154 07761 12675 /2010 10250 20200 30170 40180 58005 60006 81100 91500=
07761,1997-10-09 18:00:00,22,1018.7,0.6,83,19,25000,7.408,,,120,15.9,25.8,,,,,,,,,wg-a,,,,AAXX 09184 07761 12575 /1204 10220 20190 30176 40187 53006 60006 81100 91800 333 10258 20159=
07761,1997-10-09 21:00:00,20,1019.1,0.4,88,18,10000,7.408,,,70,,,,,,,,,,,wg-a,,,,AAXX 09214 07761 12460 /0704 10200 20180 30180 40191 51004 60006 84400 92100=
07761,1997-10-10 00:00:00,18,1018.4,-0.7,88,16,15000,11.112,,,50,,,,,,,,,,,wg-a,,,,AAXX 10004 07761 12/65 00506 10180 20160 30173 40184 56007 60006 80000 90000=
07761,1997-10-10 03:00:00,17,1017,-1.4,88,15,15000,11.112,,,30,,,,,,,,,,,wg-a,,,,AAXX 10034 07761 12/65 00306 10170 20150 30159 40170 56014 60006 80000 90300=
07761,1997-10-10 06:00:00,17,1016.7,-0.3,82,14,15000,14.816,,,40,16.1,21.7,,,,,,,,,wg-a,,,,AAXX 10064 07761 02565 50408 10170 20140 30156 40167 58003 60006 83420 90600 333 10217 20161 60004=
07761,1997-10-10 09:00:00,25,1015.9,-0.7,65,18,18000,3.704,,,230,,,,,,,,,,,wg-a,,,,AAXX 10094 07761 12568 52302 10250 20180 30149 40159 58007 60006 81822 90900=
07761,1997-10-10 12:00:00,25,1015.6,-0.3,69,19,20000,14.816,,,220,,,,,,,,,,,wg-a,,,,AAXX 10124 07761 12670 72208 10250 20190 30146 40156 58003 60006 81542 91200=
07761,1997-10-10 15:00:00,25,1014,-1.6,74,20,17000,11.112,,,210,,,,,,,,,,,wg-a,,,,AAXX 10154 07761 12667 /2106 10250 20200 30130 40140 58016 60006 82542 91500=
07761,1997-10-10 18:00:00,23,1013.4,-0.6,83,20,15000,11.112,,,210,17,25.4,,,,,,,,,wg-a,,,,AAXX 10184 07761 12565 72106 10230 20200 30124 40134 55006 60006 82542 91800 333 10254 20170=
07761,1997-10-10 21:00:00,20,1012.6,-0.9,88,18,15000,11.112,,,60,,,,,,,,,,,wg-a,,,,AAXX 10214 07761 12465 30606 10200 20180 30115 40126 56009 60006 81502 92100=
07761,1997-10-11 00:00:00,20,1010.7,-1.8,88,18,15000,11.112,,,50,,,,,,,,,,,wg-a,,,,AAXX 11004 07761 12565 /0506 10200 20180 30097 40107 58018 60006 86500 90000=
07761,1997-10-11 03:00:00,23,1009.5,-1.2,78,19,15000,7.408,,,330,,,,,,,,,,,wg-a,,,,AAXX 11034 07761 12565 /3304 10230 20190 30085 40095 58012 60006 85500 90300=
07761,1997-10-11 06:00:00,20,1008.8,-0.7,83,17,15000,11.112,,,60,19.6,22.8,,,,,,,,,wg-a,,,,AAXX 11064 07761 02565 30606 10200 20170 30078 40088 56007 60006 82842 90600 333 10228 20196 60004=
07761,1997-10-11 09:00:00,27,1009.1,0.3,45,14,15000,11.112,,,270,,,,,,,,,,,wg-a,,,,AAXX 11094 07761 12565 22706 10270 20140 30081 40091 50003 60006 82842 90900=
07761,1997-10-11 12:00:00,26,1008.1,-1,45,13,25000,18.52,,,300,,,,,,,,,,,wg-a,,,,AAXX 11124 07761 12675 /3010 10260 20130 30071 40081 58010 60006 81842 91200=
07761,1997-10-11 15:00:00,25,1007.6,-0.5,47,13,25000,11.112,,,280,,,,,,,,,,,wg-a,,,,AAXX 11154 07761 12675 72806 10250 20130 30066 40076 55005 60006 81802 91500=
07761,1997-10-11 18:00:00,21,1007.9,0.3,64,14,15000,3.704,,,30,19.4,27.4,,,,,,,,,wg-a,,,,AAXX 11184 07761 12565 /0302 10210 20140 30069 40079 52003 60006 83502 91800 333 10274 20194=
07761,1997-10-11 21:00:00,18,1008.2,0.2,77,14,15000,14.816,,,60,,,,,,,,,,,wg-a,,,,AAXX 11214 07761 12665 30608 10180 20140 30071 40082 50002 60006 82501 92100=
07761,1997-10-12 00:00:00,20,1007.1,-1,68,14,15000,7.408,,,90,,,,,,,,,,,wg-a,,,,AAXX 12004 07761 12565 70904 10200 20140 30061 40071 58010 60006 875// 90000=
07761,1997-10-12 03:00:00,23,1005.5,-1.6,73,18,15000,31.484,,,290,,,,,,,,,,,wg-a,,,,AAXX 12034 07761 12565 /2917 10230 20180 30045 40055 56016 60006 86500 90300=
07761,1997-10-12 06:00:00,23,1004.3,-1.2,69,17,15000,18.52,,,300,17.7,23.5,,,,,,,,,wg-a,,,,AAXX 12064 07761 02565 73010 10230 20170 30033 40043 56012 60006 878// 90600 333 10235 20177 60004=
07761,1997-10-12 09:00:00,24,1004.6,0.3,57,15,20000,29.632,,,280,,,,,,,,,,,wg-a,,,,AAXX 12094 07761 12570 32816 10240 20150 30036 40046 53003 60006 83200 90900=
07761,1997-10-12 12:00:00,24,1003.6,-1,47,12,20000,35.188,,64.82,290,,,,,,,,,,,wg-a,,,,AAXX 12124 07761 12670 32919 10240 20120 30026 40036 58010 60006 83200 91200 333 91035=
07761,1997-10-12 15:00:00,22,1001.6,-2,50,11,20000,38.892,,79.636,290,,,,,,,,,,,wg-a,,,,AAXX 12154 07761 12670 32921 10220 20110 30006 40016 58020 60006 83200 91500 333 91043=
07761,1997-10-12 18:00:00,21,1002.5,0.9,49,10,20000,46.3,,57.412,300,20.6,24.8,,,,,,,,,wg-a,,,,AAXX 12184 07761 12570 43025 10210 20100 30015 40025 53009 60006 84800 91800 333 10248 20206 91031=
07761,1997-10-12 21:00:00,19,1004.7,2.1,60,11,15000,7.408,,40.744,340,,,,,,,,,,21,wg-a,,,,AAXX 12214 07761 02565 /3404 10190 20110 30036 40047 52021 61000 72161 86800 92100 333 //// 91022=
07761,1997-10-13 00:00:00,16,1004.9,0.2,82,13,11000,11.112,,,50,,,,0,,,,,,,wg-a,,,,AAXX 13004 07761 02/61 /0506 10160 20130 30038 40049 53002 60006 90000 333 60007=
07761,1997-10-13 03:00:00,15,1004.5,-0.4,82,12,15000,11.112,,,40,,,,,,,,,,,wg-a,,,,AAXX 13034 07761 12565 40406 10150 20120 30034 40045 56004 60006 84800 90300=
07761,1997-10-13 06:00:00,14,1003.9,-0.6,82,11,15000,14.816,,,40,13.7,20.9,,,,,,,,,wg-a,,,,AAXX 13064 07761 02565 40408 10140 20110 30028 40039 56006 60006 84800 90600 333 10209 20137 60004=
07761,1997-10-13 09:00:00,19,1005.1,1.3,60,11,15000,7.408,,,220,,,,,,,,,,,wg-a,,,,AAXX 13094 07761 12565 52204 10190 20110 30041 40051 53013 60006 83801 90900=
07761,1997-10-13 12:00:00,21,1004.8,-0.3,49,10,15000,14.816,,,250,,,,,,,,,,,wg-a,,,,AAXX 13124 07761 12765 82508 10210 20100 30038 40048 58003 60006 83222 91200=
07761,1997-10-13 15:00:00,22,1003.3,-1.5,46,10,20000,11.112,,,280,,,,,,,,,,,wg-a,,,,AAXX 13154 07761 12670 /2806 10220 20100 30023 40033 56015 60006 83302 91500=
07761,1997-10-13 18:00:00,19,1004.4,1,49,8,20000,18.52,,,330,13.7,21.5,,,,,,,,,wg-a,,,,AAXX 13184 07761 12670 33310 10190 20080 30033 40044 53010 60006 81302 91800 333 10215 20137=
07761,1997-10-13 21:00:00,13,1005.1,0.7,77,9,20000,11.112,,,50,,,,,,,,,,13,wg-a,,,,AAXX 13214 07761 12570 50506 10130 20090 30040 40051 51007 60006 71311 83302 92100=
07761,1997-10-14 00:00:00,12,1003.9,-1.2,82,9,12000,11.112,,,50,,,,,,,,,,17,wg-a,,,,AAXX 14004 07761 12662 50506 10120 20090 30028 40039 58012 60006 71791 85900 90000=
07761,1997-10-14 03:00:00,13,1003.9,0,82,10,15000,7.408,,,10,,,,7,,,,,,1,wg-a,,,,AAXX 14034 07761 12565 50104 10130 20100 30028 40039 50000 60077 70196 85900 90300=
07761,1997-10-14 06:00:00,12,1004.2,0.3,82,9,50000,7.408,,,50,11.7,19.1,,,,,8,,,2,wg-a,,,,AAXX 14064 07761 02584 /0504 10120 20090 30031 40042 50003 60006 70296 85983 90600 333 10191 20117 60084=
07761,1997-10-14 09:00:00,15,1006.2,2,63,8,35000,7.408,,,330,,,,,,,,,,21,wg-a,,,,AAXX 14094 07761 02581 73304 10150 20080 30051 40062 52020 61000 72162 8598/ 90900 333 ////=
07761,1997-10-14 12:00:00,20,1006.5,0.4,43,7,35000,7.408,,,340,,,,,,,,,,2,wg-a,,,,AAXX 14124 07761 02681 63404 10200 20070 30055 40065 51004 61000 70262 84982 91200 333 ////=
07761,1997-10-14 18:00:00,13,1011.7,2.9,54,4,15000,14.816,,,60,11.3,20.7,,,,,,,,2,wg-a,,,,AAXX 14184 07761 12665 30608 10130 20040 30106 40117 53029 60006 70261 8288/ 91800 333 10207 20113=
07761,1997-10-14 21:00:00,9,1014.1,2.4,71,4,11000,18.52,,,50,,,,,,,,,,,wg-a,,,,AAXX 14214 07761 12/61 /0510 10090 20040 30130 40141 53024 60006 92100=
07761,1997-10-15 00:00:00,8,1014.8,0.7,71,3,15000,14.816,,,50,,,,,,,,,,,wg-a,,,,AAXX 15004 07761 12865 30508 10080 20030 30137 40148 51007 60006 83040 90000=
07761,1997-10-15 03:00:00,8,1014.6,-0.2,71,3,15000,11.112,,,40,,,,,,,,,,,wg-a,,,,AAXX 15034 07761 12865 /0406 10080 20030 30135 40146 57002 60006 81040 90300=
07761,1997-10-15 06:00:00,7,1014.8,0.2,70,2,20000,14.816,,,50,6.4,13.3,,,,,1,,,,wg-a,,,,AAXX 15064 07761 02670 20508 10070 20020 30137 40148 53002 60006 81141 90600 333 10133 20064 60014=
07761,1997-10-15 09:00:00,18,1014.9,0.1,42,5,20000,7.408,,,50,,,,,,,,,,,wg-a,,,,AAXX 15094 07761 12670 /0504 10180 20050 30138 40149 50001 60006 81141 90900=
07761,1997-10-15 12:00:00,18,1013.7,-1.2,64,11,20000,29.632,,,240,,,,,,,,,,16,wg-a,,,,AAXX 15124 07761 12670 72416 10180 20110 30126 40137 58012 60006 71611 85271 91200=
07761,1997-10-15 15:00:00,17,1012.4,-1.3,63,10,20000,11.112,,,150,,,,,,,,,,,wg-a,,,,AAXX 15154 07761 12570 71506 10170 20100 30113 40124 58013 60006 85871 91500=
07761,1997-10-15 18:00:00,15,1012.5,0.1,63,8,20000,7.408,,,70,7.1,20.9,,,,,,,,,wg-a,,,,AAXX 15184 07761 12570 70704 10150 20080 30114 40125 52001 60006 83871 91800 333 10209 20071=
07761,1997-10-15 21:00:00,12,1013.2,0.7,76,8,20000,18.52,,,40,,,,,,,,,,,wg-a,,,,AAXX 15214 07761 12770 30410 10120 20080 30121 40132 53007 60006 81502 92100=
07761,1997-10-16 00:00:00,10,1013.4,0.2,76,6,20000,14.816,,,50,,,,,,,,,,,wg-a,,,,AAXX 16004 07761 12/70 00508 10100 20060 30123 40134 51002 60006 80000 90000=
07761,1997-10-16 03:00:00,9,1012.5,-0.9,81,6,20000,11.112,,,40,,,,,,,,,,,wg-a,,,,AAXX 16034 07761 12770 /0406 10090 20060 30114 40125 56009 60006 81570 90300=
07761,1997-10-16 06:00:00,12,1012.5,-0,62,5,20000,11.112,,,40,8.5,14.9,,,,,,,,,wg-a,,,,AAXX 16064 07761 02670 70406 10120 20050 30114 40125 55000 60006 84872 90600 333 10149 20085 60004=
07761,1997-10-16 09:00:00,17,1013.6,1.1,55,8,20000,3.704,,,60,,,,,,,,,,,wg-a,,,,AAXX 16094 07761 12570 40602 10170 20080 30125 40136 51011 60006 84872 90900=
07761,1997-10-16 12:00:00,21,1013.2,-0.4,56,12,500,18.52,,,230,,,,,,,,,,,wg-a,,,,AAXX 16124 07761 12600 42310 10210 20120 30121 40132 57004 60006 84500 91200=
07761,1997-10-16 15:00:00,20,1012.8,-0.4,60,12,500,18.52,,,230,,,,,,,,,,,wg-a,,,,AAXX 16154 07761 12600 22310 10200 20120 30117 40128 55004 60006 82801 91500=
07761,1997-10-16 18:00:00,16,1014.2,1.4,72,11,500,7.408,,,80,11.2,21.8,,,,,,,,,wg-a,,,,AAXX 16184 07761 12600 20804 10160 20110 30131 40142 53014 60006 82801 91800 333 10218 20112=
07761,1997-10-16 21:00:00,12,1016,1.8,88,10,15000,11.112,,,50,,,,,,,,,,,wg-a,,,,AAXX 16214 07761 12665 /0506 10120 20100 30149 40160 53018 60006 81501 92100=
07761,1997-10-17 00:00:00,11,1016.3,0.3,87,9,20000,14.816,,,40,,,,,,,,,,,wg-a,,,,AAXX 17004 07761 12570 /0408 10110 20090 30152 40163 53003 60006 81500 90000=
07761,1997-10-17 03:00:00,11,1016.1,-0.2,82,8,20000,14.816,,,60,,,,,,,,,,,wg-a,,,,AAXX 17034 07761 12570 /0608 10110 20080 30150 40161 58002 60006 81530 90300=
07761,1997-10-17 06:00:00,11,1017.4,1.3,82,8,20000,14.816,,,40,10.1,15.8,,,,,,,,,wg-a,,,,AAXX 17064 07761 02670 40408 10110 20080 30163 40174 53013 60006 81530 90600 333 10158 20101 60004=
07761,1997-10-17 09:00:00,20,1018.1,0.7,53,10,20000,3.704,,,10,,,,,,,,,,,wg-a,,,,AAXX 17094 07761 12670 40102 10200 20100 30170 40181 51007 60006 81530 90900=
07761,1997-10-17 12:00:00,21,1018.5,0.4,60,13,50000,18.52,,,250,,,,,,,,,,,wg-a,,,,AAXX 17124 07761 12584 32510 10210 20130 30174 40185 51004 60006 82830 91200=
07761,1997-10-17 15:00:00,21,1018.8,0.3,64,14,50000,11.112,,,230,,,,,,,,,,,wg-a,,,,AAXX 17154 07761 12584 32306 10210 20140 30177 40188 51003 60006 83830 91500=
07761,1997-10-17 18:00:00,18,1020.2,1.4,73,13,20000,7.408,,,140,10.4,22.1,,,,,,,,,wg-a,,,,AAXX 17184 07761 12570 /1404 10180 20130 30191 40202 53014 60006 83800 91800 333 10221 20104=
07761,1997-10-17 21:00:00,15,1021.7,1.5,82,12,15000,14.816,,,40,,,,,,,,,,,wg-a,,,,AAXX 17214 07761 12665 /0408 10150 20120 30206 40217 51015 60006 81500 92100=
07761,1997-10-18 00:00:00,13,1022.2,0.5,82,10,15000,11.112,,,40,,,,,,,,,,,wg-a,,,,AAXX 18004 07761 12/65 00406 10130 20100 30211 40222 52005 60006 80000 90000=
07761,1997-10-18 03:00:00,11,1022.3,0.1,87,9,15000,11.112,,,50,,,,,,,,,,,wg-a,,,,AAXX 18034 07761 12/65 00506 10110 20090 30212 40223 51001 60006 80000 90300=
07761,1997-10-18 06:00:00,11,1023.3,1,82,8,20000,14.816,,,50,9.9,17.6,,,,,,,,,wg-a,,,,AAXX 18064 07761 02/70 00508 10110 20080 30222 40233 53010 60006 80000 90600 333 10176 20099 60004=
07761,1997-10-18 09:00:00,22,1024.1,0.8,41,8,500,3.704,,,120,,,,,,,,,,,wg-a,,,,AAXX 18094 07761 12600 /1202 10220 20080 30230 40241 51008 60006 81101 90900=
07761,1997-10-18 12:00:00,25,1022.8,-1.2,44,12,500,14.816,,,230,,,,,,,,,,,wg-a,,,,AAXX 18124 07761 12600 /2308 10250 20120 30218 40228 58012 60006 81100 91200=
07761,1997-10-18 15:00:00,24,1022.5,-0.4,47,12,500,7.408,,,270,,,,,,,,,,,wg-a,,,,AAXX 18154 07761 12600 22704 10240 20120 30214 40225 56004 60006 82400 91500=
07761,1997-10-18 18:00:00,18,1023.2,0.7,68,12,500,7.408,,,60,10.5,24.9,,,,,,,,,wg-a,,,,AAXX 18184 07761 12/00 /0604 10180 20120 30221 40232 53007 60006 80000 91800 333 10249 20105=
07761,1997-10-18 21:00:00,15,1023.6,0.4,77,11,15000,11.112,,,40,,,,,,,,,,,wg-a,,,,AAXX 18214 07761 12/65 10406 10150 20110 30225 40236 52004 60006 80001 92100=
07761,1997-10-19 00:00:00,12,1023,-0.6,88,10,15000,11.112,,,50,,,,,,,,,,,wg-a,,,,AAXX 19004 07761 12/65 10506 10120 20100 30219 40230 58006 60006 80001 90000=
07761,1997-10-19 03:00:00,12,1022.3,-0.7,82,9,15000,14.816,,,40,,,,,,,,,,,wg-a,,,,AAXX 19034 07761 12/65 10408 10120 20090 30212 40223 58007 60006 80001 90300=
07761,1997-10-19 06:00:00,12,1022.2,-0.1,82,9,15000,14.816,,,50,10.8,17.6,,,,,,,,,wg-a,,,,AAXX 19064 07761 02/65 10508 10120 20090 30211 40222 55001 60006 80001 90600 333 10176 20108 60004=
07761,1997-10-19 09:00:00,23,1021.9,-0.3,44,10,20000,3.704,,,220,,,,,,,,,,,wg-a,,,,AAXX 19094 07761 12/70 02202 10230 20100 30208 40219 58003 60006 80000 90900=
07761,1997-10-19 12:00:00,23,1020.4,-1.4,61,15,500,22.224,,,220,,,,,,,,,,,wg-a,,,,AAXX 19124 07761 12600 /2212 10230 20150 30194 40204 58014 60006 81100 91200=
07761,1997-10-19 15:00:00,23,1019.4,-1.1,57,14,500,11.112,,,310,,,,,,,,,,,wg-a,,,,AAXX 19154 07761 12600 23106 10230 20140 30183 40194 56011 60006 82802 91500=
07761,1997-10-19 18:00:00,18,1019.3,-0.1,77,14,500,7.408,,,50,11.6,23.7,,,,,,,,,wg-a,,,,AAXX 19184 07761 12600 40504 10180 20140 30182 40193 55001 60006 81502 91800 333 10237 20116=
07761,1997-10-19 21:00:00,14,1018.7,-0.6,88,12,15000,7.408,,,60,,,,,,,,,,,wg-a,,,,AAXX 19214 07761 12/65 40604 10140 20120 30176 40187 56006 60006 80002 92100=
07761,1997-10-20 00:00:00,13,1017.9,-0.8,88,11,15000,11.112,,,50,,,,,,,,,,,wg-a,,,,AAXX 20004 07761 12/65 30506 10130 20110 30168 40179 58008 60006 80001 90000=
07761,1997-10-20 03:00:00,12,1017.2,-0.7,88,10,15000,14.816,,,50,,,,,,,,,,,wg-a,,,,AAXX 20034 07761 12765 80508 10120 20100 30161 40172 58007 60006 82536 90300=
07761,1997-10-20 06:00:00,12,1016.1,-1.1,88,10,15000,11.112,,,40,11.9,18.2,,,,,,,,,wg-a,,,,AAXX 20064 07761 02765 70406 10120 20100 30150 40161 56011 60006 81536 90600 333 10182 20119 60004=
07761,1997-10-20 09:00:00,20,1016.1,0,64,13,15000,3.704,,,230,,,,,,,,,,,wg-a,,,,AAXX 20094 07761 12765 72302 10200 20130 30150 40161 50000 60006 81532 90900=
07761,1997-10-20 12:00:00,22,1014.1,-1.9,65,15,500,14.816,,,230,,,,,,,,,,,wg-a,,,,AAXX 20124 07761 12700 /2308 10220 20150 30131 40141 56019 60006 82842 91200=
07761,1997-10-20 15:00:00,21,1013,-1.2,73,16,500,11.112,,,220,,,,,,,,,,,wg-a,,,,AAXX 20154 07761 12600 72206 10210 20160 30119 40130 57012 60006 82802 91500=
07761,1997-10-20 18:00:00,19,1013.2,0.2,88,17,25000,7.408,,,60,12.4,22.4,,,,,,,,60,wg-a,,,,AAXX 20184 07761 02575 70604 10190 20170 30121 40132 53002 61000 76062 84532 91800 333 10224 20124 6100=
07761,1997-10-20 21:00:00,18,1012.1,-1.1,83,15,15000,7.408,,,60,,,,,,,,,,1,wg-a,,,,AAXX 20214 07761 02765 70604 10180 20150 30110 40121 57011 61000 70162 83532 92100 333 ////=
07761,1997-10-21 00:00:00,16,1010.4,-1.7,88,14,11000,7.408,,,60,,,,,,,,,,,wg-a,,,,AAXX 21004 07761 02/61 /0604 10160 20140 30093 40104 57017 61000 90000 333 ////=
07761,1997-10-21 03:00:00,16,1008.9,-1.5,72,11,15000,14.816,,,50,,,,,,,,,,,wg-a,,,,AAXX 21034 07761 12665 /0508 10160 20110 30078 40089 58015 60006 82532 90300=
07761,1997-10-21 06:00:00,15,1007.3,-1.6,82,12,10000,14.816,,,40,15.4,19.2,,,,,,,,61,wg-a,,,,AAXX 21064 07761 02560 80408 10150 20120 30062 40073 56016 61000 76196 84932 90600 333 10192 20154 6002=
07761,1997-10-21 09:00:00,16,1007.3,0,88,14,11000,14.816,,,50,,,,,,,,,,,wg-a,,,,AAXX 21094 07761 32/61 /0508 10160 20140 30062 40073 50000 90900=
07761,1997-10-21 12:00:00,23,1006,-1.2,69,17,20000,11.112,,,240,,,,,,,,,,3,wg-a,,,,AAXX 21124 07761 12670 62406 10230 20170 30050 40060 57012 60016 70396 81231 91200=
07761,1997-10-21 15:00:00,23,1006,-0,73,18,18000,18.52,,,230,,,,,,,,,,,wg-a,,,,AAXX 21154 07761 12568 52310 10230 20180 30050 40060 55000 60006 84230 91500=
07761,1997-10-21 18:00:00,21,1007.3,1.3,83,18,10000,7.408,,,270,14.8,23.3,,,,,,,,,wg-a,,,,AAXX 21184 07761 12460 72704 10210 20180 30063 40073 53013 60006 875// 91800 333 10233 20148=
07761,1997-10-21 21:00:00,19,1007.7,0.4,88,17,10000,3.704,,,100,,,,,,,,,,,wg-a,,,,AAXX 21214 07761 12460 /1002 10190 20170 30067 40077 53004 60006 86500 92100=
07761,1997-10-22 00:00:00,18,1008,0.2,94,17,10000,3.704,,,50,,,,1,,,,,,1,wg-a,,,,AAXX 22004 07761 02560 60502 10180 20170 30069 40080 51002 60016 70162 86500 90000 333 60017=
07761,1997-10-22 03:00:00,17,1007.8,-0.2,94,16,10000,7.408,,,60,,,,,,,,,,,wg-a,,,,AAXX 22034 07761 12460 70604 10170 20160 30067 40078 56002 60006 87500 90300=
07761,1997-10-22 06:00:00,16,1008.6,0.8,94,15,10000,11.112,,,50,16,20.7,,,,,1,,,,wg-a,,,,AAXX 22064 07761 02460 70506 10160 20150 30075 40086 53008 60006 87500 90600 333 10207 20160 60014=
07761,1997-10-22 09:00:00,21,1009.8,1.3,78,17,15000,7.408,,,50,,,,,,,,,,,wg-a,,,,AAXX 22094 07761 12565 /0504 10210 20170 30088 40098 51013 60006 85830 90900=
07761,1997-10-22 12:00:00,23,1009.2,-0.6,73,18,20000,18.52,,,220,,,,,,,,,,,wg-a,,,,AAXX 22124 07761 12570 72210 10230 20180 30082 40092 57006 60006 84834 91200=
07761,1997-10-22 15:00:00,22,1009.1,-0.1,69,16,15000,11.112,,,250,,,,,,,,,,,wg-a,,,,AAXX 22154 07761 12565 72506 10220 20160 30081 40091 55001 60006 878// 91500=
07761,1997-10-22 18:00:00,21,1009.9,0.8,73,16,15000,3.704,,,360,16,24.4,,,,,,,,,wg-a,,,,AAXX 22184 07761 12665 /3602 10210 20160 30089 40099 52008 60006 84532 91800 333 10244 20160=
07761,1997-10-22 21:00:00,18,1009.9,-0.1,83,15,15000,3.704,,,50,,,,,,,,,,,wg-a,,,,AAXX 22214 07761 12665 /0502 10180 20150 30088 40099 55001 60006 81532 92100=
07761,1997-10-23 00:00:00,16,1010.3,0.4,88,14,15000,7.408,,,40,,,,,,,,,,,wg-a,,,,AAXX 23004 07761 12565 50404 10160 20140 30092 40103 51004 60006 81130 90000=
07761,1997-10-23 03:00:00,15,1009.7,-0.6,88,13,15000,14.816,,,50,,,,,,,,,,,wg-a,,,,AAXX 23034 07761 12/65 30508 10150 20130 30086 40097 56006 60006 83030 90300=
07761,1997-10-23 06:00:00,15,1009.3,-0.4,88,13,15000,11.112,,,40,14.7,20.5,,,,,,,,,wg-a,,,,AAXX 23064 07761 02765 60406 10150 20130 30082 40093 56004 60006 83532 90600 333 10205 20147 60004=
07761,1997-10-23 09:00:00,20,1009.3,0,73,15,500,3.704,,,40,,,,,,,,,,,wg-a,,,,AAXX 23094 07761 12600 80402 10200 20150 30082 40093 50000 60006 81577 90900=
07761,1997-10-23 12:00:00,22,1007.6,-1.6,65,15,11000,3.704,,,260,,,,,,,,,,,wg-a,,,,AAXX 23124 07761 02/61 /2602 10220 20150 30066 40076 58016 61000 91200 333 ////=
07761,1997-10-23 15:00:00,20,1006.6,-1,83,17,10000,3.704,,,360,,,,1,,,,,,60,wg-a,,,,AAXX 23154 07761 12560 83602 10200 20170 30056 40066 55010 60017 76062 8287/ 91500=
07761,1997-10-23 18:00:00,18,1006.2,-0.5,94,17,7000,11.112,,,60,14.8,21.7,,,,,,,,61,wg-a,,,,AAXX 23184 07761 02557 80606 10180 20170 30051 40062 58005 61000 76162 8287/ 91800 333 10217 20148 6005=
07761,1997-10-24 00:00:00,16,1005.7,-0.6,94,15,10000,3.704,,,30,,,,2,,,,,,21,wg-a,,,,AAXX 24004 07761 02560 70302 10160 20150 30046 40057 58006 60026 72162 8453/ 90000 333 60027=
07761,1997-10-24 03:00:00,16,1005.5,-0.2,94,15,15000,11.112,,,50,,,,,,,,,,,wg-a,,,,AAXX 24034 07761 12565 60506 10160 20150 30044 40055 55002 60006 84830 90300=
07761,1997-10-24 06:00:00,14,1005.7,0.2,100,14,15000,7.408,,,60,14.1,17.9,,,,,7,,,,wg-a,,,,AAXX 24064 07761 02465 30604 10140 20140 30046 40057 53002 60006 81431 90600 333 10179 20141 60074=
07761,1997-10-24 09:00:00,19,1006.8,1.1,78,15,10000,3.704,,,100,,,,0,,,,,,,wg-a,,,,AAXX 24094 07761 12460 51002 10190 20150 30057 40068 51011 60007 81431 90900=
07761,1997-10-24 12:00:00,22,1006.6,-0.1,65,15,25000,7.408,,,210,,,,,,,,,,,wg-a,,,,AAXX 24124 07761 12675 42104 10220 20150 30056 40066 58001 60006 81242 91200=
07761,1997-10-24 18:00:00,18,1008.8,2,73,13,25000,7.408,,,110,13.3,22.4,,,,,,,,,wg-a,,,,AAXX 24184 07761 12675 /1104 10180 20130 30077 40088 51020 60006 81200 91800 333 10224 20133=
07761,1997-10-24 21:00:00,14,1011,2.2,88,12,18000,11.112,,,60,,,,,,,,,,,wg-a,,,,AAXX 24214 07761 12/68 00606 10140 20120 30099 40110 53022 60006 80000 92100=
07761,1997-10-25 00:00:00,13,1012.4,1.4,88,11,15000,14.816,,,40,,,,,,,,,,,wg-a,,,,AAXX 25004 07761 12/65 00408 10130 20110 30113 40124 51014 60006 80000 90000=
07761,1997-10-25 03:00:00,11,1014,1.6,87,9,15000,14.816,,,50,,,,,,,,,,,wg-a,,,,AAXX 25034 07761 12/65 00508 10110 20090 30129 40140 51016 60006 80000 90300=
07761,1997-10-25 06:00:00,11,1015.8,1.8,87,9,15000,11.112,,,40,10,18.1,,,,,,,,,wg-a,,,,AAXX 25064 07761 02665 /0406 10110 20090 30147 40158 52018 60006 81500 90600 333 10181 20100 60004=
07761,1997-10-25 09:00:00,19,1017.7,1.9,60,11,15000,7.408,,,70,,,,,,,,,,,wg-a,,,,AAXX 25094 07761 12565 30704 10190 20110 30166 40177 51019 60006 83800 90900=
07761,1997-10-25 12:00:00,23,1017.8,0.1,50,12,20000,14.816,,,280,,,,,,,,,,,wg-a,,,,AAXX 25124 07761 12570 32808 10230 20120 30167 40178 50001 60006 83800 91200=
07761,1997-10-25 15:00:00,21,1018.4,0.6,60,13,20000,14.816,,,280,,,,,,,,,,,wg-a,,,,AAXX 25154 07761 12570 22808 10210 20130 30173 40184 53006 60006 82800 91500=
07761,1997-10-25 18:00:00,19,1019.5,1.1,73,14,20000,7.408,,,40,10.9,22.7,,,,,,,,,wg-a,,,,AAXX 25184 07761 12570 70404 10190 20140 30184 40195 53011 60006 878// 91800 333 10227 20109=
07761,1997-10-25 21:00:00,15,1020.3,0.8,82,12,11000,11.112,,,40,,,,,,,,,,,wg-a,,,,AAXX 25214 07761 12/61 /0406 10150 20120 30192 40203 52008 60006 92100=
07761,1997-10-26 00:00:00,12,1020.2,-0.1,88,10,15000,11.112,,,40,,,,,,,,,,,wg-a,,,,AAXX 26004 07761 12/65 00406 10120 20100 30191 40202 55001 60006 80000 90000=
07761,1997-10-26 03:00:00,12,1019.6,-0.6,82,9,15000,14.816,,,50,,,,,,,,,,,wg-a,,,,AAXX 26034 07761 12565 /0508 10120 20090 30185 40196 58006 60006 81100 90300=
07761,1997-10-26 06:00:00,11,1019.4,-0.2,87,9,15000,11.112,,,50,11,18.6,,,,,,,,,wg-a,,,,AAXX 26064 07761 02565 /0506 10110 20090 30183 40194 57002 60006 81500 90600 333 10186 20110 60004=
07761,1997-10-26 09:00:00,18,1019.6,0.2,64,11,18000,3.704,,,270,,,,,,,,,,,wg-a,,,,AAXX 26094 07761 12568 /2702 10180 20110 30185 40196 50002 60006 81100 90900=
07761,1997-10-26 12:00:00,21,1018.7,-0.9,64,14,18000,18.52,,,240,,,,,,,,,,,wg-a,,,,AAXX 26124 07761 12668 22410 10210 20140 30176 40187 58009 60006 82200 91200=
07761,1997-10-26 15:00:00,20,1017.7,-1,64,13,18000,14.816,,,240,,,,,,,,,,,wg-a,,,,AAXX 26154 07761 12668 22408 10200 20130 30166 40177 56010 60006 82200 91500=
07761,1997-10-26 18:00:00,15,1018.2,0.5,82,12,18000,11.112,,,70,10.2,21.2,,,,,,,,,wg-a,,,,AAXX 26184 07761 12668 /0706 10150 20120 30171 40182 53005 60006 81800 91800 333 10212 20102=
07761,1997-10-26 21:00:00,12,1018.5,0.3,88,10,18000,14.816,,,50,,,,,,,,,,,wg-a,,,,AAXX 26214 07761 12/68 00508 10120 20100 30174 40185 53003 60006 80000 92100=
07761,1997-10-27 00:00:00,11,1017.8,-0.7,87,9,18000,11.112,,,40,,,,,,,,,,,wg-a,,,,AAXX 27004 07761 12/68 00406 10110 20090 30167 40178 57007 60006 80000 90000=
07761,1997-10-27 03:00:00,10,1016.6,-1.2,87,8,18000,14.816,,,40,,,,,,,,,,,wg-a,,,,AAXX 27034 07761 12/68 00408 10100 20080 30155 40166 57012 60006 80000 90300=
07761,1997-10-27 06:00:00,10,1016,-0.6,87,8,18000,14.816,,,40,9,15.4,,,,,,,,,wg-a,,,,AAXX 27064 07761 02668 20408 10100 20080 30149 40160 57006 60006 82800 90600 333 10154 20090 60004=
07761,1997-10-27 09:00:00,18,1015.8,-0.2,56,9,20000,3.704,,,40,,,,,,,,,,,wg-a,,,,AAXX 27094 07761 12570 20402 10180 20090 30147 40158 58002 60006 82830 90900=
07761,1997-10-27 12:00:00,20,1014.5,-1.3,64,13,20000,11.112,,,220,,,,,,,,,,,wg-a,,,,AAXX 27124 07761 12/70 92206 10200 20130 30134 40145 58013 60006 89/// 91200=
07761,1997-10-27 14:00:00,16,1014.4,0.8,,,20000,11.112,,,50,,,,,,,,,,,wg-a,,,,AAXX 27144 07761 12570 50506 10160 2//// 30133 40144 53008 60006 83802 91400=
07761,1997-10-27 15:00:00,20,1013.6,-0.9,64,13,20000,22.224,,,250,,,,,,,,,,,wg-a,,,,AAXX 27154 07761 12570 62512 10200 20130 30125 40136 56009 60006 84830 91500=
07761,1997-10-27 18:00:00,16,1014.4,0.8,72,11,20000,11.112,,,50,10,21.2,,,,,,,,,wg-a,,,,AAXX 27184 07761 12570 /0506 10160 20110 30133 40144 53008 60006 83802 91800 333 10212 20100=
07761,1997-10-27 21:00:00,13,1014.2,-0.2,82,10,20000,14.816,,,50,,,,,,,,,,,wg-a,,,,AAXX 27214 07761 12570 40508 10130 20100 30131 40142 58002 60006 82802 92100=
07761,1997-10-28 00:00:00,12,1013.5,-0.7,82,9,20000,14.816,,,40,,,,,,,,,,,wg-a,,,,AAXX 28004 07761 12770 /0408 10120 20090 30124 40135 56007 60006 81500 90000=
07761,1997-10-28 03:00:00,10,1012.5,-1,82,7,20000,14.816,,,40,,,,,,,,,,,wg-a,,,,AAXX 28034 07761 12770 /0408 10100 20070 30114 40125 57010 60006 81500 90300=
07761,1997-10-28 06:00:00,9,1012.7,0.2,81,6,20000,14.816,,,50,8.7,15.9,,,,,,,,,wg-a,,,,AAXX 28064 07761 02770 /0508 10090 20060 30116 40127 51002 60006 81500 90600 333 10159 20087 60004=
07761,1997-10-28 09:00:00,18,1012.8,0.1,56,9,25000,7.408,,,60,,,,,,,,,,,wg-a,,,,AAXX 28094 07761 12575 20604 10180 20090 30117 40128 50001 60006 82800 90900=
07761,1997-10-28 12:00:00,21,1012.4,-0.4,53,11,25000,11.112,,,210,,,,,,,,,,,wg-a,,,,AAXX 28124 07761 12575 62106 10210 20110 30113 40124 58004 60006 84302 91200=
07761,1997-10-28 15:00:00,19,1012.3,-0.1,43,6,20000,18.52,,,30,,,,,,,,,,,wg-a,,,,AAXX 28154 07761 12570 50310 10190 20060 30112 40123 55001 60006 84882 91500=
07761,1997-10-28 18:00:00,15,1013.4,1.1,44,3,20000,25.928,,,30,9.1,21.8,,,,,,,,,wg-a,,,,AAXX 28184 07761 12570 70314 10150 20030 30123 40134 53011 60006 85872 91800 333 10218 20091=
07761,1997-10-28 21:00:00,14,1014.5,1.1,44,2,20000,22.224,,,30,,,,,,,,,,,wg-a,,,,AAXX 28214 07761 12570 80312 10140 20020 30134 40145 53011 60006 878// 92100=
07761,1997-10-29 00:00:00,13,1015,0.5,47,2,20000,25.928,,,30,,,,,,,,,,21,wg-a,,,,AAXX 29004 07761 02570 80314 10130 20020 30139 40150 51005 61000 72162 888// 90000 333 6100=
07761,1997-10-29 03:00:00,10,1015.5,0.5,62,3,15000,25.928,,,20,,,,0,,,,,,61,wg-a,,,,AAXX 29034 07761 12465 80214 10100 20030 30144 40155 50005 60007 76162 887// 90300=
07761,1997-10-29 06:00:00,9,1016.2,0.7,76,5,20000,3.704,,,60,8.5,15.4,,,,,,,,61,wg-a,,,,AAXX 29064 07761 02670 80602 10090 20050 30151 40162 51007 61000 76162 8477/ 90600 333 10154 20085 6002=
07761,1997-10-29 09:00:00,9,1017.2,1,87,7,11000,7.408,,,40,,,,,,,,,,,wg-a,,,,AAXX 29094 07761 32/61 /0404 10090 20070 30161 40172 51010 90900=
07761,1997-10-29 12:00:00,11,1016.3,-0.9,76,7,25000,7.408,,,110,,,,0,,,,,,2,wg-a,,,,AAXX 29124 07761 02475 81104 10110 20070 30152 40163 58009 60026 70262 8287/ 91200 333 60007=
07761,1997-10-29 15:00:00,11,1016.5,0.2,62,4,25000,7.408,,,30,,,,,,,,,,2,wg-a,,,,AAXX 29154 07761 02475 80304 10110 20040 30154 40165 51002 61000 70262 8287/ 91500 333 ////=
07761,1997-10-29 18:00:00,10,1016.7,0.2,82,7,25000,7.408,,,110,8.4,10.9,,,,,,,,2,wg-a,,,,AAXX 29184 07761 12475 81104 10100 20070 30156 40167 53002 60006 70262 8157/ 91800 333 10109 20084=
07761,1997-10-29 21:00:00,9,1017,0.3,81,6,25000,3.704,,,80,,,,,,,,,,,wg-a,,,,AAXX 29214 07761 12575 80802 10090 20060 30159 40170 53003 60006 8157/ 92100=
07761,1997-10-30 00:00:00,10,1016.3,-0.7,71,5,11000,3.704,,,100,,,,,,,,,,,wg-a,,,,AAXX 30004 07761 12/61 /1002 10100 20050 30152 40163 57007 60006 90000=
07761,1997-10-30 03:00:00,9,1015.9,-0.4,71,4,25000,11.112,,,90,,,,,,,,,,,wg-a,,,,AAXX 30034 07761 12675 80906 10090 20040 30148 40159 58004 60006 8157/ 90300=
07761,1997-10-30 06:00:00,10,1015.5,-0.4,66,4,15000,7.408,,,20,9,9.7,,,,,,,,21,wg-a,,,,AAXX 30064 07761 02665 80204 10100 20040 30144 40155 58004 61000 72162 8277/ 90600 333 10097 20090 6003=
07761,1997-10-30 09:00:00,11,1016.2,0.7,76,7,20000,7.408,,,90,,,,,,,,,,61,wg-a,,,,AAXX 30094 07761 02670 80904 10110 20070 30151 40162 53007 61000 76162 8387/ 90900 333 ////=
07761,1997-10-30 12:00:00,11,1015.6,-0.6,71,6,10000,11.112,,,20,,,,1,,,,,,61,wg-a,,,,AAXX 30124 07761 02660 80206 10110 20060 30145 40156 58006 60016 76162 8387/ 91200 333 60017=
07761,1997-10-30 18:00:00,11,1015.7,0.8,76,7,10000,7.408,,,70,9.7,12.6,,,,,,,,1,wg-a,,,,AAXX 30184 07761 12460 70704 10110 20070 30146 40157 53008 60006 70162 8387/ 91800 333 10126 20097=
07761,1997-10-30 21:00:00,11,1016.3,0.6,82,8,10000,7.408,,,70,,,,0,,,,,,60,wg-a,,,,AAXX 30214 07761 12760 70704 10110 20080 30152 40163 53006 60007 76062 8357/ 92100=
07761,1997-10-31 00:00:00,9,1016.6,0.3,81,6,15000,14.816,,,60,,,,,,,,,,1,wg-a,,,,AAXX 31004 07761 02865 /0608 10090 20060 30155 40166 52003 60006 70161 81030 90000 333 61000=
07761,1997-10-31 03:00:00,7,1016.4,-0.2,87,5,15000,11.112,,,50,,,,,,,,,,,wg-a,,,,AAXX 31034 07761 12665 10506 10070 20050 30153 40164 58002 60006 81500 90300=
07761,1997-10-31 06:00:00,7,1016.2,-0.2,87,5,15000,7.408,,,60,6.1,11.1,,,,,1,,,,wg-a,,,,AAXX 31064 07761 02765 50604 10070 20050 30151 40162 57002 60006 83531 90600 333 10111 20061 60014=
07761,1997-10-31 09:00:00,14,1017.2,1,67,8,500,3.704,,,50,,,,,,,,,,,wg-a,,,,AAXX 31094 07761 12700 /0502 10140 20080 30161 40172 51010 60006 82546 90900=
07761,1997-10-31 12:00:00,18,1016.3,-0.9,68,12,11000,18.52,,,230,,,,,,,,,,,wg-a,,,,AAXX 31124 07761 12/61 /2310 10180 20120 30152 40163 58009 60006 91200=
07761,1997-10-31 15:00:00,18,1016,-0.3,73,13,40000,11.112,,,240,,,,,,,,,,,wg-a,,,,AAXX 31154 07761 12682 /2406 10180 20130 30149 40160 55003 60006 81832 91500=
07761,1997-10-31 18:00:00,17,1017.4,1.4,72,12,15000,18.52,,,210,7.2,18.9,,,,,,,,,wg-a,,,,AAXX 31184 07761 12565 72110 10170 20120 30163 40174 53014 60006 8753/ 91800 333 10189 20072=
07761,1997-11-01 00:00:00,14,1017.7,-0.5,82,11,15000,11.112,,,50,,,,,,,,,,,wg-a,,,,AAXX 01004 07761 12565 70506 10140 20110 30166 40177 58005 60006 875// 90000=
07761,1997-11-01 03:00:00,15,1017.4,-0.3,77,11,15000,11.112,,,60,,,,,,,,,,,wg-a,,,,AAXX 01034 07761 12565 70606 10150 20110 30163 40174 58003 60006 8753/ 90300=
07761,1997-11-01 06:00:00,14,1017.7,0.3,77,10,15000,11.112,,,50,14,16.7,,,,,,,,,wg-a,,,,AAXX 01064 07761 02565 70506 10140 20100 30166 40177 51003 60006 8753/ 90600 333 10167 20140 60004=
07761,1997-11-01 09:00:00,15,1019.3,1.6,77,11,20000,7.408,,,70,,,,,,,,,,,wg-a,,,,AAXX 01094 07761 12570 70704 10150 20110 30182 40193 51016 60006 8483/ 90900=
07761,1997-11-01 12:00:00,16,1019.1,-0.2,82,13,13000,7.408,,,150,,,,,,,,,,60,wg-a,,,,AAXX 01124 07761 02563 71504 10160 20130 30180 40191 58002 61000 76062 878// 91200 333 6100=
07761,1997-11-01 15:00:00,16,1018.5,-0.6,82,13,15000,11.112,,,20,,,,,,,,,,1,wg-a,,,,AAXX 01154 07761 02565 70206 10160 20130 30174 40185 58006 61000 70162 85802 91500 333 ////=
07761,1997-11-01 18:00:00,14,1018.8,0.3,88,12,8000,11.112,,,60,14,17.1,,,,,,,,3,wg-a,,,,AAXX 01184 07761 12558 70606 10140 20120 30177 40188 52003 60006 70362 85802 91800 333 10171 20140=
07761,1997-11-01 21:00:00,13,1018.6,-0.2,94,12,15000,14.816,,,40,,,,,,,,,,,wg-a,,,,AAXX 01214 07761 12665 /0408 10130 20120 30175 40186 58002 60006 86500 92100=
07761,1997-11-02 00:00:00,11,1018.2,-0.4,87,9,15000,11.112,,,50,,,,,,,,,,,wg-a,,,,AAXX 02004 07761 12665 /0506 10110 20090 30171 40182 58004 60006 81500 90000=
07761,1997-11-02 03:00:00,11,1017.4,-0.8,87,9,15000,11.112,,,40,,,,,,,,,,,wg-a,,,,AAXX 02034 07761 12/65 20406 10110 20090 30163 40174 58008 60006 82030 90300=
07761,1997-11-02 06:00:00,10,1016.9,-0.5,93,9,15000,14.816,,,60,9.6,14,,,,,,,,,wg-a,,,,AAXX 02064 07761 02765 /0608 10100 20090 30158 40169 56005 60006 85531 90600 333 10140 20096 61000=
07761,1997-11-02 09:00:00,18,1017.6,0.7,59,10,15000,7.408,,,220,,,,,,,,,,,wg-a,,,,AAXX 02094 07761 12565 22204 10180 20100 30165 40176 51007 60006 82182 90900=
07761,1997-11-02 12:00:00,19,1016.3,-1.3,68,13,15000,18.52,,,230,,,,,,,,,,,wg-a,,,,AAXX 02124 07761 12665 22310 10190 20130 30152 40163 58013 60006 82200 91200=
07761,1997-11-02 15:00:00,18,1015.3,-1,64,11,25000,7.408,,,310,,,,,,,,,,,wg-a,,,,AAXX 02154 07761 12575 43104 10180 20110 30142 40153 56010 60006 82205 91500=
07761,1997-11-02 18:00:00,14,1015.7,0.4,77,10,25000,11.112,,,50,9.9,19.7,,,,,,,,,wg-a,,,,AAXX 02184 07761 12675 50506 10140 20100 30146 40157 53004 60006 82205 91800 333 10197 20099=
07761,1997-11-02 21:00:00,12,1016.1,0.4,82,9,15000,11.112,,,50,,,,,,,,,,,wg-a,,,,AAXX 02214 07761 12665 70506 10120 20090 30150 40161 50004 60006 82505 92100=
07761,1997-11-03 00:00:00,11,1015.5,-0.6,87,9,20000,11.112,,,50,,,,,,,,,,,wg-a,,,,AAXX 03004 07761 12570 70506 10110 20090 30144 40155 58006 60006 81505 90000=
07761,1997-11-03 03:00:00,11,1014.4,-1.1,87,9,20000,7.408,,,60,,,,,,,,,,,wg-a,,,,AAXX 03034 07761 12/70 80604 10110 20090 30133 40144 58011 60006 80006 90300=
07761,1997-11-03 06:00:00,10,1014.6,0.2,87,8,35000,11.112,,,40,9.9,13.5,,,,,,,,,wg-a,,,,AAXX 03064 07761 02/81 /0406 10100 20080 30135 40146 53002 60006 81032 90600 333 10135 20099 60004=
07761,1997-11-03 09:00:00,16,1014.4,-0.2,68,10,35000,7.408,,,60,,,,,,,,,,,wg-a,,,,AAXX 03094 07761 12681 60604 10160 20100 30133 40144 58002 60006 81139 90900=
07761,1997-11-03 12:00:00,21,1012.6,-1.8,49,10,35000,7.408,,,230,,,,,,,,,,,wg-a,,,,AAXX 03124 07761 12681 22304 10210 20100 30115 40126 58018 60006 81132 91200=
07761,1997-11-03 15:00:00,19,1012.4,-0.2,64,12,35000,25.928,,,250,,,,,,,,,,,wg-a,,,,AAXX 03154 07761 12581 /2514 10190 20120 30113 40124 55002 60006 81132 91500=
07761,1997-11-03 18:00:00,15,1012.6,0.2,82,12,25000,7.408,,,50,9.7,21.1,,,,,,,,,wg-a,,,,AAXX 03184 07761 12675 20504 10150 20120 30115 40126 51002 60006 81132 91800 333 10211 20097=
07761,1997-11-03 21:00:00,13,1012.5,-0.1,82,10,25000,11.112,,,30,,,,,,,,,,,wg-a,,,,AAXX 03214 07761 12/75 10306 10130 20100 30114 40125 55001 60006 80002 92100=
07761,1997-11-04 00:00:00,10,1012.2,-0.3,87,8,25000,14.816,,,50,,,,,,,,,,,wg-a,,,,AAXX 04004 07761 12/75 00508 10100 20080 30111 40122 56003 60006 80000 90000=
07761,1997-11-04 03:00:00,10,1011.1,-1.1,82,7,15000,14.816,,,50,,,,,,,,,,,wg-a,,,,AAXX 04034 07761 12665 50508 10100 20070 30100 40111 58011 60006 81532 90300=
07761,1997-11-04 06:00:00,9,1011.4,0.3,87,7,20000,11.112,,,60,8.7,14.7,,,,,,,,,wg-a,,,,AAXX 04064 07761 02/70 /0606 10090 20070 30103 40114 53003 60006 84032 90600 333 10147 20087 60004=
07761,1997-11-04 09:00:00,16,1010.6,-0.8,59,8,20000,11.112,,,50,,,,,,,,,,,wg-a,,,,AAXX 04094 07761 12/70 70506 10160 20080 30095 40106 56008 60006 8703/ 90900=
07761,1997-11-04 12:00:00,21,1009.6,-0.9,46,9,20000,14.816,,,280,,,,,,,,,,,wg-a,,,,AAXX 04124 07761 12670 /2808 10210 20090 30086 40096 58009 60006 82842 91200=
07761,1997-11-04 15:00:00,20,1009.9,0.2,53,10,20000,7.408,,,290,,,,,,,,,,,wg-a,,,,AAXX 04154 07761 12670 72904 10200 20100 30088 40099 53002 60006 8587/ 91500=
07761,1997-11-04 18:00:00,17,1010.5,0.6,68,11,10000,7.408,,,60,8.9,22,,,,,,,,2,wg-a,,,,AAXX 04184 07761 02660 70604 10170 20110 30094 40105 51006 60006 70262 878// 91800 333 10220 20089 61000=
07761,1997-11-04 21:00:00,14,1011.2,0.7,77,10,10000,11.112,,,50,,,,,,,,,,,wg-a,,,,AAXX 04214 07761 12860 /0506 10140 20100 30101 40112 53007 60006 85500 92100=
07761,1997-11-05 00:00:00,14,1011.1,-0.1,72,9,10000,11.112,,,40,,,,,,,,,,,wg-a,,,,AAXX 05004 07761 12860 /0406 10140 20090 30100 40111 58001 60006 86500 90000=
07761,1997-11-05 03:00:00,14,1010.5,-0.6,72,9,10000,3.704,,,70,,,,,,,,,,,wg-a,,,,AAXX 05034 07761 12860 /0702 10140 20090 30094 40105 56006 60006 86500 90300=
07761,1997-11-05 06:00:00,12,1010.5,-0,82,9,10000,11.112,,,60,11.9,16.5,,,,,,,,,wg-a,,,,AAXX 05064 07761 02760 40606 10120 20090 30094 40105 55000 60006 81581 90600 333 10165 20119 61000=
07761,1997-11-05 09:00:00,19,1011.1,0.6,56,10,35000,3.704,,,70,,,,,,,,,,,wg-a,,,,AAXX 05094 07761 12881 70702 10190 20100 30100 40111 52006 60006 83542 90900=
07761,1997-11-05 12:00:00,22,1009.7,-1.3,65,15,500,18.52,,,260,,,,,,,,,,,wg-a,,,,AAXX 05124 07761 12500 82610 10220 20150 30087 40097 58013 60006 83842 91200=
07761,1997-11-05 15:00:00,20,1008.7,-1,78,16,25000,7.408,,,210,,,,,,,,,,,wg-a,,,,AAXX 05154 07761 12575 72104 10200 20160 30077 40087 56010 60006 8653/ 91500=
07761,1997-11-05 18:00:00,19,1009,0.2,78,15,15000,3.704,,,110,11.8,21.7,,,,,,,,,wg-a,,,,AAXX 05184 07761 12565 /1102 10190 20150 30079 40090 51002 60006 83532 91800 333 10217 20118=
07761,1997-11-05 21:00:00,17,1009.2,0.2,82,14,15000,11.112,,,90,,,,,,,,,,,wg-a,,,,AAXX 05214 07761 12765 /0906 10170 20140 30081 40092 51002 60006 85532 92100=
07761,1997-11-06 00:00:00,18,1007.3,-1.9,77,14,15000,11.112,,,40,,,,,,,,,,,wg-a,,,,AAXX 06004 07761 12465 70406 10180 20140 30062 40073 58019 60006 8587/ 90000=
07761,1997-11-06 03:00:00,19,1005.6,-1.7,78,15,12000,7.408,,,50,,,,,,,,,,61,wg-a,,,,AAXX 06034 07761 02562 80504 10190 20150 30045 40056 57017 61000 76162 8687/ 90300 333 ////=
07761,1997-11-06 06:00:00,18,1003.5,-2.1,77,14,11000,14.816,,,40,16.7,19.5,,,,,,,,,wg-a,,,,AAXX 06064 07761 02/61 /0408 10180 20140 30024 40035 56021 60006 90600 333 10195 20167 61000=
07761,1997-11-06 09:00:00,22,1002.1,-1.3,57,13,25000,7.408,,,310,,,,,,,,,,15,wg-a,,,,AAXX 06094 07761 12875 83104 10220 20130 30011 40021 58013 60006 71522 8157/ 90900=
07761,1997-11-06 12:00:00,25,1001.1,-1,41,11,11000,7.408,,,90,,,,,,,,,,,wg-a,,,,AAXX 06124 07761 12/61 /0904 10250 20110 30001 40011 57010 60006 91200=
07761,1997-11-06 15:00:00,22,1000.7,-0.4,60,14,25000,7.408,,,60,,,,0,,,,,,21,wg-a,,,,AAXX 06154 07761 12775 80604 10220 20140 39997 40007 55004 60007 72162 8457/ 91500=
07761,1997-11-06 18:00:00,21,1002.2,1.5,78,17,15000,14.816,,38.892,220,17.7,25.7,,,,,,,,21,wg-a,,,,AAXX 06184 07761 02565 82208 10210 20170 30012 40022 53015 61000 72162 8557/ 91800 333 10257 20177 6000 91021=
07761,1997-11-06 21:00:00,17,1004.4,2.1,88,15,10000,22.224,,,180,,,,12,,,,,,61,wg-a,,,,AAXX 06214 07761 12460 81812 10170 20150 30033 40044 53021 60127 76162 8477/ 92100=
07761,1997-11-07 00:00:00,16,1004.3,-0.1,88,14,9000,11.112,,,130,,,,3,,,,,,60,wg-a,,,,AAXX 07004 07761 02459 81306 10160 20140 30032 40043 58001 60156 76062 8527/ 90000 333 60037=
07761,1997-11-07 03:00:00,15,1004.9,0.6,94,14,15000,11.112,,,50,,,,2,,,,,,1,wg-a,,,,AAXX 07034 07761 12565 70506 10150 20140 30038 40049 53006 60027 70162 878// 90300=
07761,1997-11-07 06:00:00,15,1004.4,-0.5,88,13,15000,14.816,,,50,14.8,21,,,,,17,,,1,wg-a,,,,AAXX 07064 07761 02565 80508 10150 20130 30033 40044 55005 60006 70162 84877 90600 333 10210 20148 60174=
07761,1997-11-07 09:00:00,18,1004.6,0.2,77,14,15000,7.408,,,100,,,,,,,,,,,wg-a,,,,AAXX 07094 07761 12565 71004 10180 20140 30035 40046 50002 60006 8487/ 90900=
07761,1997-11-07 12:00:00,19,1002.7,-1.8,78,15,15000,7.408,,,190,,,,,,,,,,,wg-a,,,,AAXX 07124 07761 12565 71904 10190 20150 30017 40027 58018 60006 8487/ 91200=
07761,1997-11-07 15:00:00,15,1002.6,-0.2,94,14,7000,11.112,,,130,,,,2,,,,,,81,wg-a,,,,AAXX 07154 07761 12557 81306 10150 20140 30015 40026 55002 60027 78186 8433/ 91500=
07761,1997-11-07 18:00:00,14,1002.2,-0.4,94,13,10000,11.112,,,30,14.2,19.3,,,,,,,,60,wg-a,,,,AAXX 07184 07761 02460 80306 10140 20130 30011 40022 58004 61000 76086 8383/ 91800 333 10193 20142 6003=
07761,1997-11-07 21:00:00,14,1002.8,0.6,94,13,15000,7.408,,,80,,,,0,,,,,,3,wg-a,,,,AAXX 07214 07761 12565 70804 10140 20130 30017 40028 53006 60007 70362 8427/ 92100=
07761,1997-11-08 00:00:00,13,1003.2,0.4,94,12,15000,7.408,,,60,,,,,,,,,,1,wg-a,,,,AAXX 08004 07761 02465 /0604 10130 20120 30021 40032 53004 60016 70161 81130 90000 333 61000=
07761,1997-11-08 06:00:00,12,1004.6,0.7,88,10,25000,3.704,,,80,10.8,14.4,,,,,6,,,,wg-a,,,,AAXX 08064 07761 02675 40802 10120 20100 30035 40046 53007 60006 84200 90600 333 10144 20108 60064=
07761,1997-11-08 09:00:00,15,1006.2,1.6,82,12,25000,14.816,,,40,,,,,,,,,,,wg-a,,,,AAXX 08094 07761 12675 70408 10150 20120 30051 40062 53016 60006 86831 90900=
07761,1997-11-08 12:00:00,18,1006.5,0.3,77,14,20000,11.112,,,90,,,,0,,,,,,2,wg-a,,,,AAXX 08124 07761 02570 70906 10180 20140 30054 40065 51003 60016 70286 87200 91200 333 60007=
07761,1997-11-08 15:00:00,19,1007.9,1.4,64,12,15000,18.52,,,280,,,,,,,,,,,wg-a,,,,AAXX 08154 07761 12565 42810 10190 20120 30068 40079 53014 60006 84232 91500=
07761,1997-11-08 18:00:00,14,1010.7,2.8,82,11,15000,7.408,,,60,11.3,19.8,,,,,,,,,wg-a,,,,AAXX 08184 07761 12565 30604 10140 20110 30096 40107 51028 60006 83500 91800 333 10198 20113=
07761,1997-11-08 21:00:00,13,1012,1.3,82,10,15000,14.816,,,40,,,,,,,,,,,wg-a,,,,AAXX 08214 07761 12765 /0408 10130 20100 30109 40120 51013 60006 81500 92100=
07761,1997-11-09 00:00:00,13,1012.1,0.1,82,10,11000,11.112,,,20,,,,,,,,,,,wg-a,,,,AAXX 09004 07761 12/61 /0206 10130 20100 30110 40121 53001 60006 90000=
07761,1997-11-09 06:00:00,15,1009.5,-0.7,88,13,10000,11.112,,,340,11.8,15.3,,,,,,,,60,wg-a,,,,AAXX 09064 07761 02560 73406 10150 20130 30084 40095 56007 61000 76061 85530 90600 333 10153 20118 6001=
07761,1997-11-09 09:00:00,19,1009.6,0.1,83,16,10000,25.928,,,200,,,,4,,,,,,25,wg-a,,,,AAXX 09094 07761 12560 82014 10190 20160 30085 40096 53001 60047 72586 8687/ 90900=
07761,1997-11-09 12:00:00,20,1007.8,-1.7,78,16,12000,42.596,,,220,,,,,,,,,,3,wg-a,,,,AAXX 09124 07761 12562 82223 10200 20160 30068 40078 57017 60046 70386 8637/ 91200=
07761,1997-11-09 15:00:00,19,1009,1.1,68,13,10000,14.816,,,250,,,,0,,,,,,,wg-a,,,,AAXX 09154 07761 12560 82508 10190 20130 30079 40090 53011 60007 83277 91500=
07761,1997-11-09 18:00:00,16,1009.9,0.9,82,13,20000,3.704,,,40,14.6,20.4,,,,,,,,,wg-a,,,,AAXX 09184 07761 12570 /0402 10160 20130 30088 40099 53009 60006 84802 91800 333 10204 20146=
07761,1997-11-09 21:00:00,12,1011.6,1.7,88,10,15000,11.112,,,60,,,,,,,,,,,wg-a,,,,AAXX 09214 07761 12765 /0606 10120 20100 30105 40116 51017 60006 81500 92100=
07761,1997-11-10 00:00:00,11,1011.1,-0.5,87,9,15000,7.408,,,30,,,,,,,,,,,wg-a,,,,AAXX 10004 07761 12565 50304 10110 20090 30100 40111 58005 60006 84530 90000=
07761,1997-11-10 03:00:00,10,1009.6,-1.5,87,8,20000,14.816,,,40,,,,,,,,,,,wg-a,,,,AAXX 10034 07761 12670 20408 10100 20080 30085 40096 57015 60006 82500 90300=
07761,1997-11-10 06:00:00,11,1009,-0.6,82,8,15000,14.816,,,50,10.2,15.4,,,,,4,,,,wg-a,,,,AAXX 10064 07761 02565 80508 10110 20080 30079 40090 56006 60006 8687/ 90600 333 10154 20102 60044=
07761,1997-11-10 09:00:00,14,1009.7,0.7,77,10,500,14.816,,,60,,,,,,,,,,,wg-a,,,,AAXX 10094 07761 12600 60608 10140 20100 30086 40097 51007 60006 84272 90900=
07761,1997-11-10 12:00:00,20,1009,-0.7,56,11,500,7.408,,,210,,,,3,,,,,,2,wg-a,,,,AAXX 10124 07761 02600 32104 10200 20110 30079 40090 58007 60036 70298 83202 91200 333 60037=
07761,1997-11-10 18:00:00,15,1008.5,-0.1,72,10,20000,14.816,,,50,10.9,20.4,,,,,,,,13,wg-a,,,,AAXX 10184 07761 12670 40508 10150 20100 30074 40085 58001 60006 71300 84300 91800 333 10204 20109=
07761,1997-11-10 21:00:00,18,1010.1,1.6,68,12,15000,38.892,,,240,,,,,,,,,,,wg-a,,,,AAXX 10214 07761 12565 52421 10180 20120 30090 40101 51016 60006 85300 92100=
07761,1997-11-11 00:00:00,18,1010.6,0.5,64,11,15000,31.484,,,250,,,,,,,,,,,wg-a,,,,AAXX 11004 07761 12665 72517 10180 20110 30095 40106 51005 60006 878// 90000=
07761,1997-11-11 03:00:00,14,1010.7,0.1,88,12,15000,14.816,,,50,,,,,,,,,,25,wg-a,,,,AAXX 11034 07761 02565 60508 10140 20120 30096 40107 53001 61000 72586 8483/ 90300 333 ////=
07761,1997-11-11 06:00:00,12,1010.2,-0.5,82,9,25000,18.52,,,40,12.2,18.3,,,,,3,,,3,wg-a,,,,AAXX 11064 07761 02675 60410 10120 20090 30091 40102 58005 60006 70386 81933 90600 333 10183 20122 60034=
07761,1997-11-11 09:00:00,16,1010.4,0.2,82,13,25000,7.408,,,60,,,,3,,,,,,29,wg-a,,,,AAXX 11094 07761 12675 /0604 10160 20130 30093 40104 51002 60037 72998 82983 90900=
07761,1997-11-11 12:00:00,18,1009.3,-1.1,77,14,15000,31.484,,,210,,,,0,,,,,,17,wg-a,,,,AAXX 11124 07761 02565 62117 10180 20140 30082 40093 58011 60046 71798 86300 91200 333 60007=
07761,1997-11-11 15:00:00,18,1008.6,-0.7,64,11,9000,18.52,,,180,,,,,,,,,,17,wg-a,,,,AAXX 11154 07761 02559 61810 10180 20110 30075 40086 58007 61000 71798 86300 91500 333 ////=
07761,1997-11-11 18:00:00,14,1008.1,-0.5,94,13,10000,11.112,,,50,12.1,19.7,,,,,,,,29,wg-a,,,,AAXX 11184 07761 02560 60506 10140 20130 30070 40081 57005 61000 72998 86380 91800 333 10197 20121 6010=
07761,1997-11-12 00:00:00,16,1005.6,-1.2,82,13,10000,25.928,,50.004,180,,,,2,,,,,,29,wg-a,,,,AAXX 12004 07761 02560 61814 10160 20130 30045 40056 55012 60046 72998 86900 90000 333 60027 91027=
07761,1997-11-12 03:00:00,14,1003.8,-1.8,88,12,10000,11.112,,44.448,40,,,,6,,,,,,82,wg-a,,,,AAXX 12034 07761 12460 80406 10140 20120 30027 40038 55018 60067 78298 889// 90300 333 91024=
07761,1997-11-12 06:00:00,15,1002.2,-1.6,82,12,10000,31.484,,61.116,170,13.1,16.9,,,,,,,,91,wg-a,,,,AAXX 12064 07761 02460 81717 10150 20120 30011 40022 58016 61000 79198 8627/ 90600 333 10169 20131 6030 91033=
07761,1997-11-12 09:00:00,15,1003.9,1.7,82,12,15000,22.224,,,230,,,,12,,,,,,17,wg-a,,,,AAXX 12094 07761 12465 72312 10150 20120 30028 40039 53017 60127 71798 8597/ 90900=
07761,1997-11-12 12:00:00,15,1004.5,0.6,82,12,10000,7.408,,,80,,,,,,,,,,2,wg-a,,,,AAXX 12124 07761 02560 80804 10150 20120 30034 40045 52006 60126 70298 8637/ 91200 333 61000=
07761,1997-11-12 15:00:00,15,1004.5,-0,82,12,15000,3.704,,,110,,,,,,,,,,,wg-a,,,,AAXX 12154 07761 12565 81102 10150 20120 30034 40045 55000 60006 8622/ 91500=
07761,1997-11-12 18:00:00,12,1005.4,0.9,94,11,15000,7.408,,,50,12.3,15.9,,,,,,,,,wg-a,,,,AAXX 12184 07761 12465 70504 10120 20110 30043 40054 53009 60006 83272 91800 333 10159 20123=
07761,1997-11-12 21:00:00,11,1006.7,1.3,87,9,9000,7.408,,,60,,,,1,,,,,,60,wg-a,,,,AAXX 12214 07761 12559 70604 10110 20090 30056 40067 51013 60017 76062 83272 92100=
07761,1997-11-13 00:00:00,10,1006.4,-0.3,87,8,15000,11.112,,,40,,,,1,,,,,,1,wg-a,,,,AAXX 13004 07761 02665 30406 10100 20080 30053 40064 58003 60026 70186 8320/ 90000 333 60017=
07761,1997-11-13 03:00:00,9,1005.8,-0.6,87,7,9000,11.112,,,60,,,,2,,,,,,25,wg-a,,,,AAXX 13034 07761 12659 30606 10090 20070 30047 40058 56006 60027 72586 83900 90300=
07761,1997-11-13 06:00:00,8,1005.5,-0.3,93,7,15000,14.816,,,50,7.7,12.2,,,,,16,,,3,wg-a,,,,AAXX 13064 07761 02665 30508 10080 20070 30044 40055 58003 60006 70386 82280 90600 333 10122 20077 60164=
07761,1997-11-13 09:00:00,13,1006,0.5,82,10,20000,7.408,,,90,,,,,,,,,,4,wg-a,,,,AAXX 13094 07761 02570 /0904 10130 20100 30049 40060 51005 61000 70486 85200 90900 333 ////=
07761,1997-11-13 12:00:00,16,1005.3,-0.7,59,8,20000,25.928,,,280,,,,,,,,,,1,wg-a,,,,AAXX 13124 07761 02670 42814 10160 20080 30042 40053 56007 61000 70186 84200 91200 333 ////=
07761,1997-11-13 15:00:00,15,1005.7,0.4,55,6,25000,14.816,,,310,,,,,,,,,,,wg-a,,,,AAXX 13154 07761 12675 33108 10150 20060 30046 40057 53004 60006 83200 91500=
07761,1997-11-13 18:00:00,11,1006.6,0.9,76,7,15000,7.408,,,60,8.3,16.3,,,,,,,,,wg-a,,,,AAXX 13184 07761 12665 30604 10110 20070 30055 40066 53009 60006 83200 91800 333 10163 20083=
07761,1997-11-13 21:00:00,11,1007.6,1,82,8,15000,14.816,,,60,,,,,,,,,,2,wg-a,,,,AAXX 13214 07761 02565 /0608 10110 20080 30065 40076 51010 61000 70286 85200 92100 333 ////=
07761,1997-11-14 00:00:00,10,1007.3,-0.3,87,8,15000,11.112,,,30,,,,,,,,,,2,wg-a,,,,AAXX 14004 07761 02765 50306 10100 20080 30062 40073 57003 61000 70286 85200 90000 333 ////=
07761,1997-11-14 03:00:00,8,1007,-0.3,87,6,15000,11.112,,,40,,,,,,,,,,,wg-a,,,,AAXX 14034 07761 12665 20406 10080 20060 30059 40070 58003 60006 81101 90300=
07761,1997-11-14 06:00:00,9,1007.6,0.6,87,7,12000,11.112,,,40,7.3,11.5,,,,,,,,25,wg-a,,,,AAXX 14064 07761 02562 70406 10090 20070 30065 40076 51006 61000 72586 85272 90600 333 10115 20073 6100=
07761,1997-11-14 09:00:00,13,1009.2,1.6,72,8,500,7.408,,,30,,,,,,,,,,,wg-a,,,,AAXX 14094 07761 12600 20304 10130 20080 30081 40092 51016 60006 81270 90900=
07761,1997-11-14 12:00:00,17,1009.5,0.3,59,9,500,14.816,,,230,,,,,,,,,,,wg-a,,,,AAXX 14124 07761 12600 62308 10170 20090 30084 40095 50003 60006 83271 91200=
07761,1997-11-14 15:00:00,16,1009.5,-0,59,8,500,11.112,,,240,,,,,,,,,,,wg-a,,,,AAXX 14154 07761 12600 /2406 10160 20080 30084 40095 55000 60006 81100 91500=
07761,1997-11-14 18:00:00,11,1011.8,2.3,82,8,11000,11.112,,,60,8.7,18.7,,,,,,,,,wg-a,,,,AAXX 14184 07761 12761 30606 10110 20080 30102 40118 53023 60006 83530 91800 333 10187 20087=
07761,1997-11-14 21:00:00,9,1013.7,1.9,87,7,15000,14.816,,,40,,,,,,,,,,,wg-a,,,,AAXX 14214 07761 12665 /0408 10090 20070 30126 40137 53019 60006 81500 92100=
07761,1997-11-15 00:00:00,7,1014.6,0.9,93,6,15000,11.112,,,50,,,,,,,,,,,wg-a,,,,AAXX 15004 07761 12/65 00506 10070 20060 30135 40146 51009 60006 80000 90000=
07761,1997-11-15 03:00:00,7,1015.3,0.7,87,5,15000,14.816,,,50,,,,,,,,,,,wg-a,,,,AAXX 15034 07761 12/65 00508 10070 20050 30142 40153 51007 60006 80000 90300=
07761,1997-11-15 06:00:00,6,1016.7,1.4,87,4,500,14.816,,,50,6.4,10.9,,,,,,,,,wg-a,,,,AAXX 15064 07761 02800 10508 10060 20040 30156 40167 53014 60006 815/0 90600 333 10109 20064 60004=
07761,1997-11-15 09:00:00,13,1018.4,1.7,67,7,500,7.408,,,60,,,,,,,,,,,wg-a,,,,AAXX 15094 07761 12600 /0604 10130 20070 30173 40184 51017 60006 81500 90900=
07761,1997-11-15 12:00:00,18,1018,-0.4,59,10,500,11.112,,,230,,,,,,,,,,,wg-a,,,,AAXX 15124 07761 12600 32306 10180 20100 30169 40180 58004 60006 83200 91200=
07761,1997-11-15 15:00:00,17,1017.7,-0.3,59,9,11000,7.408,,,200,,,,,,,,,,,wg-a,,,,AAXX 15154 07761 12/61 /2004 10170 20090 30166 40177 55003 60006 91500=
07761,1997-11-15 18:00:00,11,1019.3,1.6,82,8,500,14.816,,,50,5.7,18,,,,,,,,,wg-a,,,,AAXX 15184 07761 12600 40508 10110 20080 30182 40193 53016 60006 81101 91800 333 10180 20057=
07761,1997-11-15 21:00:00,7,1019.9,0.6,93,6,20000,11.112,,,50,,,,,,,,,,,wg-a,,,,AAXX 15214 07761 12/70 00506 10070 20060 30188 40199 53006 60006 80000 92100=
07761,1997-11-16 00:00:00,7,1020.1,0.2,87,5,20000,14.816,,,50,,,,,,,,,,,wg-a,,,,AAXX 16004 07761 12/70 00508 10070 20050 30190 40201 50002 60006 80000 90000=
07761,1997-11-16 03:00:00,7,1019.3,-0.8,87,5,20000,11.112,,,50,,,,,,,,,,,wg-a,,,,AAXX 16034 07761 12570 /0506 10070 20050 30182 40193 58008 60006 81500 90300=
07761,1997-11-16 06:00:00,6,1018.8,-0.5,87,4,20000,14.816,,,50,6,11.2,,,,,,,,,wg-a,,,,AAXX 16064 07761 02670 10508 10060 20040 30177 40188 57005 60006 81131 90600 333 10112 20060 60004=
07761,1997-11-16 09:00:00,11,1018.2,-0.6,76,7,25000,14.816,,,50,,,,,,,,,,,wg-a,,,,AAXX 16094 07761 12675 70508 10110 20070 30171 40182 58006 60006 878// 90900=
07761,1997-11-16 12:00:00,15,1016.5,-1.7,55,6,20000,7.408,,,60,,,,,,,,,,,wg-a,,,,AAXX 16124 07761 12570 70604 10150 20060 30154 40165 58017 60006 8687/ 91200=
07761,1997-11-16 15:00:00,16,1014.9,-1.6,55,7,25000,3.704,,,80,,,,,,,,,,,wg-a,,,,AAXX 16154 07761 12575 70802 10160 20070 30138 40149 56016 60006 83872 91500=
07761,1997-11-16 18:00:00,13,1014.1,-0.8,77,9,20000,11.112,,,60,5.6,16.9,,,,,,,,,wg-a,,,,AAXX 16184 07761 12570 70606 10130 20090 30130 40141 56008 60006 878// 91800 333 10169 20056=
07761,1997-11-16 21:00:00,13,1013.9,-0.2,77,9,20000,11.112,,,50,,,,,,,,,,,wg-a,,,,AAXX 16214 07761 12570 70506 10130 20090 30128 40139 58002 60006 878// 92100=
07761,1997-11-17 00:00:00,13,1012.9,-1,77,9,20000,7.408,,,50,,,,,,,,,,,wg-a,,,,AAXX 17004 07761 12570 70504 10130 20090 30118 40129 56010 60006 875// 90000=
07761,1997-11-17 03:00:00,13,1012.2,-0.7,77,9,20000,11.112,,,50,,,,,,,,,,,wg-a,,,,AAXX 17034 07761 12570 70506 10130 20090 30111 40122 58007 60006 875// 90300=
07761,1997-11-17 06:00:00,11,1012.6,0.4,87,9,20000,14.816,,,60,11.4,13.8,,,,,,,,,wg-a,,,,AAXX 17064 07761 02670 /0608 10110 20090 30115 40126 53004 60006 84500 90600 333 10138 20114 60004=
07761,1997-11-17 09:00:00,16,1013.2,0.6,63,9,25000,7.408,,,50,,,,,,,,,,,wg-a,,,,AAXX 17094 07761 12675 50504 10160 20090 30121 40132 51006 60006 83501 90900=
07761,1997-11-17 12:00:00,19,1012.3,-0.9,68,13,25000,18.52,,,240,,,,,,,,,,,wg-a,,,,AAXX 17124 07761 12575 52410 10190 20130 30112 40123 58009 60006 85801 91200=
07761,1997-11-17 15:00:00,18,1012.2,-0.1,68,12,20000,22.224,,,260,,,,,,,,,,,wg-a,,,,AAXX 17154 07761 12570 62612 10180 20120 30111 40122 55001 60006 86800 91500=
07761,1997-11-17 18:00:00,14,1012.8,0.6,77,10,15000,7.408,,,70,11.2,18.9,,,,,,,,,wg-a,,,,AAXX 17184 07761 12565 40704 10140 20100 30117 40128 52006 60006 84500 91800 333 10189 20112=
07761,1997-11-17 21:00:00,13,1013.3,0.5,77,9,20000,7.408,,,30,,,,,,,,,,,wg-a,,,,AAXX 17214 07761 12570 /0304 10130 20090 30122 40133 53005 60006 85500 92100=
07761,1997-11-18 00:00:00,12,1012.9,-0.4,67,6,25000,11.112,,,50,,,,,,,,,,,wg-a,,,,AAXX 18004 07761 12675 /0506 10120 20060 30118 40129 58004 60006 85500 90000=
07761,1997-11-18 03:00:00,12,1012.2,-0.7,71,7,20000,11.112,,,70,,,,,,,,,,,wg-a,,,,AAXX 18034 07761 12570 70706 10120 20070 30111 40122 57007 60006 878// 90300=
07761,1997-11-18 06:00:00,9,1012.4,0.2,61,2,20000,11.112,,,60,8.7,14.4,,,,,,,,,wg-a,,,,AAXX 18064 07761 02670 30606 10090 20020 30113 40124 53002 60006 83500 90600 333 10144 20087 60004=
07761,1997-11-18 09:00:00,13,1012.7,0.3,54,4,50000,7.408,,,60,,,,,,,,,,,wg-a,,,,AAXX 18094 07761 12684 50604 10130 20040 30116 40127 50003 60006 85501 90900=
07761,1997-11-18 12:00:00,16,1011.5,-1.2,59,8,50000,18.52,,,250,,,,,,,,,,,wg-a,,,,AAXX 18124 07761 12684 52510 10160 20080 30104 40115 58012 60006 85800 91200=
07761,1997-11-18 15:00:00,15,1010.2,-1.3,59,7,25000,14.816,,,280,,,,,,,,,,,wg-a,,,,AAXX 18154 07761 12575 /2808 10150 20070 30091 40102 56013 60006 85800 91500=
07761,1997-11-18 18:00:00,12,1009.3,-0.9,76,8,25000,3.704,,,90,7.7,16.9,,,,,,,,,wg-a,,,,AAXX 18184 07761 12675 /0902 10120 20080 30082 40093 56009 60006 84500 91800 333 10169 20077=
07761,1997-11-19 00:00:00,12,1007.4,-1.5,82,9,15000,11.112,,,70,,,,,,,,,,,wg-a,,,,AAXX 19004 07761 12665 70706 10120 20090 30063 40074 58015 60006 875// 90000=
07761,1997-11-19 06:00:00,12,1003.7,-1.4,94,11,10000,11.112,,,20,10.6,12.6,,,,,,,,61,wg-a,,,,AAXX 19064 07761 02360 80206 10120 20110 30026 40037 57014 61000 76162 887// 90600 333 10126 20106 6001=
07761,1997-11-19 09:00:00,12,1002.4,-1.3,94,11,500,7.408,,,50,,,,13,,,,,,61,wg-a,,,,AAXX 19094 07761 12400 80504 10120 20110 30013 40024 56013 60137 76166 887// 90900=
07761,1997-11-19 12:00:00,14,1000.1,-2.3,94,13,3000,7.408,,,40,,,,11,,,,,,61,wg-a,,,,AAXX 19124 07761 02330 80404 10140 20130 39990 40001 58023 60246 76166 887// 91200 333 60117=
07761,1997-11-19 15:00:00,14,998.7,-1.4,94,13,8000,11.112,,,50,,,,3,,,,,,61,wg-a,,,,AAXX 19154 07761 12458 80506 10140 20130 39976 49987 56014 60037 76166 887// 91500=
07761,1997-11-19 18:00:00,14,998.4,-0.3,94,13,8000,7.408,,,50,11.9,14.1,,,,,,,,61,wg-a,,,,AAXX 19184 07761 02458 80504 10140 20130 39973 49984 56003 61000 76162 887// 91800 333 10141 20119 6000=
07761,1997-11-19 21:00:00,13,998.9,0.5,88,11,8000,11.112,,,30,,,,6,,,,,,60,wg-a,,,,AAXX 19214 07761 12458 80306 10130 20110 39978 49989 53005 60067 76066 887// 92100=
07761,1997-11-20 03:00:00,10,1002,1.6,93,9,15000,7.408,,,70,,,,3,,,,,,2,wg-a,,,,AAXX 20034 07761 12465 /0704 10100 20090 30009 40020 51016 60037 70262 86500 90300=
07761,1997-11-20 09:00:00,10,1005.6,2.5,93,9,15000,3.704,,,70,,,,,,,,,,,wg-a,,,,AAXX 20094 07761 12465 30702 10100 20090 30045 40056 51025 60006 82550 90900=
07761,1997-11-20 12:00:00,15,1007.5,1.9,55,6,20000,25.928,,,290,,,,,,,,,,,wg-a,,,,AAXX 20124 07761 12670 /2914 10150 20060 30064 40075 52019 60006 86800 91200=
07761,1997-11-20 15:00:00,14,1008.4,0.5,55,5,500,11.112,,,320,,,,,,,,,,,wg-a,,,,AAXX 20154 07761 12600 /3206 10140 20050 30073 40084 51005 60006 81100 91500=
07761,1997-11-20 18:00:00,9,1009.5,1.1,87,7,500,14.816,,,70,8.1,15.1,,,,,,,,,wg-a,,,,AAXX 20184 07761 12600 30708 10090 20070 30084 40095 53011 60006 81801 91800 333 10151 20081=
07761,1997-11-20 21:00:00,9,1009.7,0.2,87,7,15000,7.408,,,50,,,,,,,,,,,wg-a,,,,AAXX 20214 07761 12565 50504 10090 20070 30086 40097 51002 60006 85800 92100=
07761,1997-11-21 00:00:00,11,1008.4,-1.3,87,9,15000,11.112,,,40,,,,,,,,,,1,wg-a,,,,AAXX 21004 07761 02465 /0406 10110 20090 30073 40084 58013 61000 70161 86800 90000 333 6100=
07761,1997-11-21 03:00:00,12,1007.8,-0.6,82,9,15000,18.52,,,30,,,,,,,,,,,wg-a,,,,AAXX 21034 07761 12565 70310 10120 20090 30067 40078 55006 60006 878// 90300=
07761,1997-11-21 06:00:00,10,1009.8,2,93,9,20000,7.408,,,60,8.4,12.7,,,,,,,,,wg-a,,,,AAXX 21064 07761 02570 40604 10100 20090 30087 40098 51020 60006 84801 90600 333 10127 20084 61000=
07761,1997-11-21 09:00:00,14,1011.7,1.9,82,11,35000,7.408,,,80,,,,,,,,,,,wg-a,,,,AAXX 21094 07761 12581 30804 10140 20110 30106 40117 52019 60006 82801 90900=
07761,1997-11-21 12:00:00,17,1011.3,-0.4,55,8,500,7.408,,,210,,,,,,,,,,,wg-a,,,,AAXX 21124 07761 12500 72104 10170 20080 30102 40113 58004 60006 82812 91200=
07761,1997-11-21 15:00:00,16,1010.4,-0.9,63,9,500,11.112,,,240,,,,,,,,,,,wg-a,,,,AAXX 21154 07761 12600 72406 10160 20090 30093 40104 55009 60006 81522 91500=
07761,1997-11-21 18:00:00,13,1010.4,0,77,9,15000,7.408,,,70,9.7,17.6,,,,,,,,,wg-a,,,,AAXX 21184 07761 12/65 80704 10130 20090 30093 40104 50000 60006 8805/ 91800 333 10176 20097=
07761,1997-11-21 21:00:00,11,1010,-0.4,87,9,15000,7.408,,,130,,,,,,,,,,,wg-a,,,,AAXX 21214 07761 12665 81304 10110 20090 30089 40100 56004 60006 8/57/ 92100=
07761,1997-11-22 00:00:00,11,1008.2,-1.8,87,9,10000,11.112,,,40,,,,1,,,,,,60,wg-a,,,,AAXX 22004 07761 02660 80406 10110 20090 30071 40082 58018 60016 76062 8/57/ 90000 333 60017=
07761,1997-11-22 03:00:00,12,1005.1,-3.1,82,9,9000,11.112,,,30,,,,3,,,,,,61,wg-a,,,,AAXX 22034 07761 12559 80306 10120 20090 30040 40051 56031 60037 76162 8/57/ 90300=
07761,1997-11-22 06:00:00,12,1003.5,-1.6,88,10,12000,7.408,,,70,10.7,12.8,,,,,,,,61,wg-a,,,,AAXX 22064 07761 02562 80704 10120 20100 30024 40035 56016 61000 76162 878// 90600 333 10128 20107 6004=
07761,1997-11-22 09:00:00,13,1004,0.5,88,11,15000,7.408,,,30,,,,1,,,,,,15,wg-a,,,,AAXX 22094 07761 12665 80304 10130 20110 30029 40040 52005 60017 71562 877// 90900=
07761,1997-11-22 12:00:00,16,1002.4,-1.6,77,12,25000,7.408,,,50,,,,,,,,,,20,wg-a,,,,AAXX 22124 07761 02575 80504 10160 20120 30013 40024 58016 60016 72065 885// 91200 333 61000=
07761,1997-11-22 15:00:00,13,1002.5,0.1,94,12,10000,11.112,,,40,,,,8,,,,,,61,wg-a,,,,AAXX 22154 07761 12560 80406 10130 20120 30014 40025 52001 60087 76162 885// 91500=
07761,1997-11-22 18:00:00,12,1002.5,-0,94,11,8000,7.408,,,80,11.7,16.6,,,,,,,,63,wg-a,,,,AAXX 22184 07761 02558 80804 10120 20110 30014 40025 55000 61000 76362 885// 91800 333 10166 20117 6010=
07761,1997-11-22 21:00:00,12,1002.6,0.1,88,10,8000,14.816,,,30,,,,10,,,,,,63,wg-a,,,,AAXX 22214 07761 12558 80308 10120 20100 30015 40026 50001 60107 76366 885// 92100=
07761,1997-11-23 00:00:00,12,1002.6,-0,88,10,8000,3.704,,,110,,,,2,,,,,,3,wg-a,,,,AAXX 23004 07761 02758 81102 10120 20100 30015 40026 55000 60126 70362 885// 90000 333 60027=
07761,1997-11-23 03:00:00,12,1003.5,0.9,94,11,10000,3.704,,,30,,,,1,,,,,,61,wg-a,,,,AAXX 23034 07761 12760 80302 10120 20110 30024 40035 53009 60017 76162 8557/ 90300=
07761,1997-11-23 06:00:00,11,1004.8,1.3,94,10,20000,11.112,,,100,10.5,12.3,,,,,32,,,3,wg-a,,,,AAXX 23064 07761 02670 71006 10110 20100 30037 40048 53013 60006 70361 8157/ 90600 333 10123 20105 60324=
07761,1997-11-23 09:00:00,14,1007.6,2.8,88,12,25000,3.704,,,80,,,,,,,,,,,wg-a,,,,AAXX 23094 07761 12575 70802 10140 20120 30065 40076 52028 60006 83872 90900=
07761,1997-11-23 12:00:00,15,1008.3,0.7,88,13,10000,3.704,,,360,,,,,,,,,,60,wg-a,,,,AAXX 23124 07761 02460 83602 10150 20130 30072 40083 51007 61000 76062 877// 91200 333 6100=
07761,1997-11-23 15:00:00,14,1009.4,1.1,88,12,15000,7.408,,,340,,,,0,,,,,,50,wg-a,,,,AAXX 23154 07761 12465 73404 10140 20120 30083 40094 53011 60007 75065 877// 91500=
07761,1997-11-23 18:00:00,12,1010.7,1.3,88,10,15000,7.408,,,300,10.7,14.8,,,,,,,,1,wg-a,,,,AAXX 23184 07761 02565 /3004 10120 20100 30096 40107 53013 60006 70165 81500 91800 333 10148 20107 61000=
07761,1997-11-23 21:00:00,9,1012.5,1.8,93,8,15000,11.112,,,40,,,,,,,,,,,wg-a,,,,AAXX 23214 07761 12/65 00406 10090 20080 30114 40125 53018 60006 80000 92100=
07761,1997-11-24 00:00:00,8,1012.7,0.2,93,7,10000,14.816,,,40,,,,,,,,,,,wg-a,,,,AAXX 24004 07761 12/60 /0408 10080 20070 30116 40127 50002 60006 90000=
07761,1997-11-24 03:00:00,7,1013.5,0.8,93,6,15000,11.112,,,50,,,,0,,,,,,,wg-a,,,,AAXX 24034 07761 12/65 00506 10070 20060 30124 40135 51008 60007 80000 90300=
07761,1997-11-24 06:00:00,6,1013.9,0.4,93,5,15000,11.112,,,50,6.2,11.6,,,,,,,,,wg-a,,,,AAXX 24064 07761 02/65 00506 10060 20050 30128 40139 53004 60006 80000 90600 333 10116 20062 60004=
07761,1997-11-24 12:00:00,16,1013.2,-1.4,59,8,40000,7.408,,,240,,,,,,,,,,,wg-a,,,,AAXX 24124 07761 12682 /2404 10160 20080 30121 40132 58014 60006 81504 91200=
07761,1997-11-24 15:00:00,15,1012.5,-0.7,67,9,25000,7.408,,,190,,,,,,,,,,,wg-a,,,,AAXX 24154 07761 12675 71904 10150 20090 30114 40125 58007 60006 81526 91500=
07761,1997-11-24 18:00:00,12,1012.9,0.4,82,9,20000,11.112,,,60,5.9,16.3,,,,,,,,,wg-a,,,,AAXX 24184 07761 12670 80606 10120 20090 30118 40129 51004 60006 81526 91800 333 10163 20059=
07761,1997-11-24 21:00:00,10,1013.3,0.4,93,9,20000,11.112,,,60,,,,,,,,,,,wg-a,,,,AAXX 24214 07761 12570 80606 10100 20090 30122 40133 53004 60006 83526 92100=
07761,1997-11-25 00:00:00,11,1012.3,-1,87,9,20000,7.408,,,50,,,,,,,,,,,wg-a,,,,AAXX 25004 07761 12570 70504 10110 20090 30112 40123 57010 60006 8557/ 90000=
07761,1997-11-25 03:00:00,10,1012.1,-0.2,87,8,15000,14.816,,,60,,,,,,,,,,,wg-a,,,,AAXX 25034 07761 12565 20608 10100 20080 30110 40121 56002 60006 82500 90300=
07761,1997-11-25 06:00:00,10,1011.3,-0.8,87,8,15000,11.112,,,50,9.2,11.9,,,,,,,,,wg-a,,,,AAXX 25064 07761 02665 70506 10100 20080 30102 40113 58008 60006 83502 90600 333 10119 20092 60004=
07761,1997-11-25 09:00:00,11,1011.6,0.3,87,9,500,11.112,,,50,,,,,,,,,,,wg-a,,,,AAXX 25094 07761 12600 /0506 10110 20090 30105 40116 53003 60006 81259 90900=
07761,1997-11-25 12:00:00,15,1010.6,-1,72,10,500,7.408,,,260,,,,,,,,,,,wg-a,,,,AAXX 25124 07761 12600 72604 10150 20100 30095 40106 58010 60006 8125/ 91200=
07761,1997-11-25 18:00:00,13,1009.9,-0,82,10,15000,11.112,,,40,8.7,16.2,,,,,,,,,wg-a,,,,AAXX 25184 07761 12/65 70406 10130 20100 30088 40099 55000 60006 8703/ 91800 333 10162 20087=
07761,1997-11-25 21:00:00,12,1010,0.1,82,9,15000,11.112,,,60,,,,,,,,,,,wg-a,,,,AAXX 25214 07761 12/65 /0606 10120 20090 30089 40100 53001 60006 86030 92100=
07761,1997-11-26 00:00:00,10,1009.1,-0.9,82,7,20000,11.112,,,50,,,,,,,,,,,wg-a,,,,AAXX 26004 07761 12870 /0506 10100 20070 30080 40091 58009 60006 81030 90000=
07761,1997-11-26 03:00:00,8,1008.1,-1,87,6,15000,14.816,,,40,,,,,,,,,,,wg-a,,,,AAXX 26034 07761 12865 /0408 10080 20060 30070 40081 58010 60006 81030 90300=
07761,1997-11-26 06:00:00,8,1008.1,-0,87,6,20000,14.816,,,40,6.9,12.6,,,,,,,,,wg-a,,,,AAXX 26064 07761 02/70 60408 10080 20060 30070 40081 55000 60006 86070 90600 333 10126 20069 60004=
07761,1997-11-26 09:00:00,12,1008.8,0.7,76,8,500,3.704,,,70,,,,,,,,,,,wg-a,,,,AAXX 26094 07761 12600 70702 10120 20080 30077 40088 53007 60006 82272 90900=
07761,1997-11-26 12:00:00,16,1006.6,-2.2,63,9,25000,7.408,,,290,,,,,,,,,,,wg-a,,,,AAXX 26124 07761 12675 72904 10160 20090 30055 40066 56022 60006 8487/ 91200=
07761,1997-11-26 15:00:00,16,1006.5,-0.1,63,9,25000,7.408,,,320,,,,,,,,,,,wg-a,,,,AAXX 26154 07761 12675 73204 10160 20090 30054 40065 58001 60006 8487/ 91500=
07761,1997-11-26 18:00:00,14,1007.3,0.8,72,9,20000,11.112,,,60,7.7,16.8,,,,,,,,,wg-a,,,,AAXX 26184 07761 12670 80606 10140 20090 30062 40073 51008 60006 8587/ 91800 333 10168 20077=
07761,1997-11-26 21:00:00,13,1007.5,0.2,77,9,15000,14.816,,,40,,,,,,,,,,13,wg-a,,,,AAXX 26214 07761 12/65 /0408 10130 20090 30064 40075 53002 60006 71322 8507/ 92100=
07761,1997-11-27 00:00:00,13,1007.9,0.4,82,10,15000,7.408,,,40,,,,,,,,,,13,wg-a,,,,AAXX 27004 07761 12665 40404 10130 20100 30068 40079 51004 60006 71311 84900 90000=
07761,1997-11-27 03:00:00,12,1008.4,0.5,82,9,15000,7.408,,,30,,,,,,,,,,13,wg-a,,,,AAXX 27034 07761 12/65 30304 10120 20090 30073 40084 53005 60006 71300 83032 90300=
07761,1997-11-27 06:00:00,11,1009.4,1,87,9,25000,11.112,,,50,11.1,14.2,,,,,,,,,wg-a,,,,AAXX 27064 07761 02/75 /0506 10110 20090 30083 40094 53010 60006 86030 90600 333 10142 20111 60004=
07761,1997-11-27 09:00:00,11,1009.4,1,87,9,25000,11.112,,,50,11.1,14.2,,,,,,,,,wg-a,,,,AAXX 27094 07761 02/75 60506 10110 20090 30083 40094 53010 60006 86030 90900 333 10142 20111 60004=
07761,1997-11-27 12:00:00,19,1010.7,-0.2,64,12,40000,14.816,,,230,,,,,,,,,,,wg-a,,,,AAXX 27124 07761 12782 /2308 10190 20120 30096 40107 58002 60006 81232 91200=
07761,1997-11-27 15:00:00,18,1011.4,0.7,68,12,500,7.408,,,170,,,,,,,,,,,wg-a,,,,AAXX 27154 07761 12600 41704 10180 20120 30103 40114 53007 60006 82931 91500=
07761,1997-11-27 18:00:00,14,1012.8,1.4,77,10,20000,7.408,,,70,10.9,19.6,,,,,,,,,wg-a,,,,AAXX 27184 07761 12670 20704 10140 20100 30117 40128 51014 60006 81230 91800 333 10196 20109=
07761,1997-11-27 21:00:00,11,1014.2,1.4,87,9,20000,14.816,,,50,,,,,,,,,,,wg-a,,,,AAXX 27214 07761 12870 /0508 10110 20090 30131 40142 53014 60006 81030 92100=
07761,1997-11-28 00:00:00,10,1014.3,0.1,87,8,20000,11.112,,,50,,,,,,,,,,,wg-a,,,,AAXX 28004 07761 12/70 00506 10100 20080 30132 40143 50001 60006 80000 90000=
07761,1997-11-28 03:00:00,9,1014.6,0.3,87,7,20000,14.816,,,40,,,,,,,,,,,wg-a,,,,AAXX 28034 07761 12/70 00408 10090 20070 30135 40146 50003 60006 80000 90300=
07761,1997-11-28 06:00:00,9,1015.4,0.8,87,7,500,11.112,,,40,8.3,14.4,,,,,,,,,wg-a,,,,AAXX 28064 07761 02/00 10406 10090 20070 30143 40154 53008 60006 80001 90600 333 10144 20083 60004=
07761,1997-11-28 09:00:00,13,1016.4,1,82,10,40000,11.112,,,50,,,,,,,,,,,wg-a,,,,AAXX 28094 07761 12682 20506 10130 20100 30153 40164 51010 60006 81101 90900=
07761,1997-11-28 12:00:00,18,1016,-0.4,73,13,40000,14.816,,,220,,,,,,,,,,,wg-a,,,,AAXX 28124 07761 12482 /2208 10180 20130 30149 40160 58004 60006 81202 91200=
07761,1997-11-28 15:00:00,17,1015.8,-0.2,77,13,500,11.112,,,220,,,,,,,,,,,wg-a,,,,AAXX 28154 07761 12400 42206 10170 20130 30147 40158 55002 60006 82801 91500=
07761,1997-11-28 18:00:00,14,1016.3,0.5,88,12,15000,7.408,,,60,8,18.3,,,,,,,,,wg-a,,,,AAXX 28184 07761 12565 70604 10140 20120 30152 40163 51005 60006 878// 91800 333 10183 20080=
07761,1997-11-28 21:00:00,13,1016.7,0.4,94,12,12000,3.704,,,40,,,,0,,,,,,60,wg-a,,,,AAXX 28214 07761 12462 80402 10130 20120 30156 40167 51004 60007 76062 8587/ 92100=
07761,1997-11-29 00:00:00,12,1015.4,-1.3,94,11,11000,7.408,,,20,,,,,,,,,,,wg-a,,,,AAXX 29004 07761 12/61 /0204 10120 20110 30143 40154 58013 60016 90000=
07761,1997-11-29 03:00:00,12,1014.4,-1,94,11,10000,11.112,,,50,,,,3,,,,,,60,wg-a,,,,AAXX 29034 07761 12460 80506 10120 20110 30133 40144 58010 60037 76062 8487/ 90300=
07761,1997-11-29 06:00:00,13,1012.6,-1.8,94,12,10000,7.408,,,60,12.1,13.7,,,,,,,,61,wg-a,,,,AAXX 29064 07761 02460 80604 10130 20120 30115 40126 56018 61000 76162 8487/ 90600 333 10137 20121 6003=
07761,1997-11-29 09:00:00,13,1011.1,-1.5,94,12,7000,11.112,,,90,,,,15,,,,,,61,wg-a,,,,AAXX 29094 07761 12457 80906 10130 20120 30100 40111 58015 60157 76166 888// 90900=
07761,1997-11-29 15:00:00,13,1007.4,-1.2,100,13,12000,3.704,,,70,,,,6,,,,,,21,wg-a,,,,AAXX 29154 07761 12362 80702 10130 20130 30063 40074 56012 60067 72162 878// 91500=
07761,1997-11-29 18:00:00,13,1007.3,-0.1,94,12,12000,7.408,,,310,12.5,13.4,,,,,,,,3,wg-a,,,,AAXX 29184 07761 02362 73104 10130 20120 30062 40073 56001 60006 70362 8487/ 91800 333 10134 20125 61000=
07761,1997-11-29 21:00:00,12,1006.9,-0.4,94,11,15000,7.408,,,60,,,,1,,,,,,,wg-a,,,,AAXX 29214 07761 12565 70604 10120 20110 30058 40069 58004 60017 8487/ 92100=
07761,1997-11-30 00:00:00,11,1005.5,-1.4,100,11,12000,7.408,,,20,,,,0,,,,,,21,wg-a,,,,AAXX 30004 07761 02562 70204 10110 20110 30044 40055 58014 60016 72162 8687/ 90000 333 60007=
07761,1997-11-30 03:00:00,9,1004.2,-1.3,93,8,15000,11.112,,,60,,,,0,,,,,,,wg-a,,,,AAXX 30034 07761 12565 40606 10090 20080 30031 40042 57013 60007 84870 90300=
07761,1997-11-30 06:00:00,8,1003.7,-0.5,93,7,15000,11.112,,,50,7.8,13.4,,,,,37,,,,wg-a,,,,AAXX 30064 07761 02565 30506 10080 20070 30026 40037 56005 60006 82801 90600 333 10134 20078 60374=
07761,1997-11-30 09:00:00,11,1003.8,0.1,87,9,25000,7.408,,,40,,,,,,,,,,,wg-a,,,,AAXX 30094 07761 12575 40404 10110 20090 30027 40038 52001 60006 82801 90900=
07761,1997-11-30 12:00:00,17,1002.5,-1.3,63,10,20000,3.704,,,250,,,,,,,,,,,wg-a,,,,AAXX 30124 07761 12570 62502 10170 20100 30014 40025 58013 60006 85801 91200=
07761,1997-11-30 15:00:00,15,1002.3,-0.2,67,9,15000,11.112,,,300,,,,,,,,,,,wg-a,,,,AAXX 30154 07761 12565 63006 10150 20090 30012 40023 55002 60006 84801 91500=
07761,1997-11-30 18:00:00,14,1003.3,1,72,9,18000,11.112,,,320,7.8,16.9,,,,,,,,,wg-a,,,,AAXX 30184 07761 12668 73206 10140 20090 30022 40033 53010 60006 85801 91800 333 10169 20078=
07761,1997-11-30 21:00:00,10,1003.6,0.3,87,8,15000,14.816,,,60,,,,,,,,,,,wg-a,,,,AAXX 30214 07761 12665 /0608 10100 20080 30025 40036 52003 60006 85500 92100=
07761,1997-12-01 00:00:00,8,1002.8,-0.8,87,6,15000,14.816,,,50,,,,,,,,,,,wg-a,,,,AAXX 01004 07761 12/65 00508 10080 20060 30017 40028 58008 60006 80000 90000=
07761,1997-12-01 06:00:00,6,1003.3,0.3,87,4,15000,14.816,,,60,5.9,14.1,,,,,,,,,wg-a,,,,AAXX 01064 07761 02665 /0608 10060 20040 30022 40033 53003 60006 81500 90600 333 10141 20059 60004=
07761,1997-12-01 09:00:00,11,1004,0.7,82,8,500,3.704,,,20,,,,,,,,,,,wg-a,,,,AAXX 01094 07761 12600 /0202 10110 20080 30029 40040 51007 60006 81842 90900=
07761,1997-12-01 18:00:00,11,1005.4,2.3,62,4,20000,7.408,,,80,6,17.1,,,,,,,,,wg-a,,,,AAXX 01184 07761 12/70 00804 10110 20040 30043 40054 53023 60006 80000 91800 333 10171 20060=
07761,1997-12-01 21:00:00,8,1006.8,1.4,71,3,20000,14.816,,,50,,,,,,,,,,,wg-a,,,,AAXX 01214 07761 12/70 00508 10080 20030 30057 40068 51014 60006 80000 92100=
07761,1997-12-02 00:00:00,6,1006.9,0.1,81,3,20000,18.52,,,40,,,,,,,,,,,wg-a,,,,AAXX 02004 07761 12/70 00410 10060 20030 30058 40069 52001 60006 80000 90000=
07761,1997-12-02 03:00:00,7,1006.5,-0.4,76,3,20000,11.112,,,40,,,,,,,,,,,wg-a,,,,AAXX 02034 07761 12570 50406 10070 20030 30054 40065 58004 60006 85500 90300=
07761,1997-12-02 06:00:00,6,1006.3,-0.2,87,4,20000,14.816,,,50,5.1,11,,,,,,,,,wg-a,,,,AAXX 02064 07761 02570 40508 10060 20040 30052 40063 55002 60006 84800 90600 333 10110 20051 60004=
07761,1997-12-02 09:00:00,8,1005.4,-0.9,93,7,15000,3.704,,,70,,,,1,,,,,,21,wg-a,,,,AAXX 02094 07761 12565 80702 10080 20070 30043 40054 55009 60017 72161 888// 90900=
07761,1997-12-02 12:00:00,11,1003.3,-2.1,87,9,15000,11.112,,,20,,,,2,,,,,,25,wg-a,,,,AAXX 02124 07761 02565 70206 10110 20090 30022 40033 58021 60026 72561 878// 91200 333 60027=
07761,1997-12-02 15:00:00,14,1000.4,-2.9,82,11,20000,7.408,,,50,,,,,,,,,,,wg-a,,,,AAXX 02154 07761 12570 60504 10140 20110 39993 40004 56029 60006 85850 91500=
07761,1997-12-02 18:00:00,11,999.4,-1,87,9,15000,7.408,,,60,5.9,13.8,,7,,,,,,2,wg-a,,,,AAXX 02184 07761 02565 70604 10110 20090 39983 49994 55010 60006 70298 8287/ 91800 333 10138 20059 60077=
07761,1997-12-02 21:00:00,14,999,-0.4,55,5,15000,35.188,,53.708,280,,,,,,,,,,,wg-a,,,,AAXX 02214 07761 12565 82819 10140 20050 39979 49990 58004 60006 8487/ 92100 333 91029=
07761,1997-12-03 00:00:00,11,998,-1,50,1,11000,42.596,,,280,,,,,,,,,,,wg-a,,,,AAXX 03004 07761 02/61 /2823 10110 20010 39969 49980 58010 61000 90000 333 6100=
07761,1997-12-03 03:00:00,10,995.4,-2.6,57,2,500,64.82,,75.932,280,,,,,,,,,,,wg-a,,,,AAXX 03034 07761 12600 /2835 10100 20020 39943 49954 58026 60006 81100 90300 333 91041=
07761,1997-12-03 06:00:00,9,994.8,-0.6,57,1,9000,68.524,,96.304,280,9.3,13.6,,,,,9,,,87,wg-a,,,,AAXX 03064 07761 02559 82837 10090 20010 39937 49948 58006 60094 78787 8487/ 90600 333 10136 20093 61000 91052=
07761,1997-12-03 09:00:00,9,997.1,2.3,61,2,500,57.412,,75.932,280,,,,1,,,,,,80,wg-a,,,,AAXX 03094 07761 12300 82831 10090 20020 39960 49971 53023 60017 78087 872// 90900 333 91041=
07761,1997-12-03 12:00:00,8,999.9,2.8,57,0,9000,46.3,,74.08,290,,,,0,,,,,,80,wg-a,,,,AAXX 03124 07761 02559 72925 10080 20000 39988 49999 51028 60016 78087 872// 91200 333 60007 91040=
07761,1997-12-03 15:00:00,8,1000.2,0.3,66,2,8000,25.928,,68.524,260,,,,1,,,,,,80,wg-a,,,,AAXX 03154 07761 12558 72614 10080 20020 39991 40002 50003 60017 78088 872// 91500 333 91037=
07761,1997-12-03 18:00:00,7,1001.4,1.2,76,3,10000,11.112,,68.524,270,6.4,10.2,,0,,,,,,2,wg-a,,,,AAXX 03184 07761 02660 72706 10070 20030 30003 40014 53012 60006 70286 872// 91800 333 10102 20064 60007 91037=
07761,1997-12-04 00:00:00,6,1004,1.4,87,4,0,11.112,,,50,,,,,,,,,,,wg-a,,,,AAXX 04004 07761 12/// /0506 10060 20040 30029 40040 53014 60006 90000=
07761,1997-12-04 06:00:00,6,1006.8,1.3,81,3,0,11.112,,,30,5.6,9.1,,,,,2,,,,wg-a,,,,AAXX 04064 07761 02/// /0306 10060 20030 30057 40068 51013 60006 90600 333 10091 20056 60024=
07761,1997-12-04 12:00:00,12,1008,-0.3,58,4,0,11.112,,,230,,,,,,,,,,,wg-a,,,,AAXX 04124 07761 12/// /2306 10120 20040 30069 40080 58003 60006 91200=
07761,1997-12-04 18:00:00,7,1009.5,1.3,81,4,0,11.112,,,100,6,12.3,,,,,,,,,wg-a,,,,AAXX 04184 07761 12/// /1006 10070 20040 30084 40095 52013 60006 91800 333 10123 20060=
07761,1997-12-05 00:00:00,4,1010.3,0,87,2,0,18.52,,,50,,,,,,,,,,,wg-a,,,,AAXX 05004 07761 12/// /0510 10040 20020 30092 40103 50000 60006 90000=
07761,1997-12-05 06:00:00,4,1009.4,-0.4,87,2,0,11.112,,,40,3.2,7.4,,,,,,,,,wg-a,,,,AAXX 05064 07761 02/// /0406 10040 20020 30083 40094 56004 60006 90600 333 10074 20032 60004=
07761,1997-12-05 09:00:00,7,1009.7,0.3,81,4,20000,7.408,,,50,,,,,,,,,,,wg-a,,,,AAXX 05094 07761 12570 70504 10070 20040 30086 40097 53003 60006 81531 90900=
07761,1997-12-05 12:00:00,12,1009,-0.7,58,4,20000,0,,,0,,,,,,,,,,,wg-a,,,,AAXX 05124 07761 12570 70000 10120 20040 30079 40090 58007 60006 81531 91200=
07761,1997-12-05 15:00:00,14,1009.1,0.1,51,4,20000,0,,,0,,,,,,,,,,,wg-a,,,,AAXX 05154 07761 12670 70000 10140 20040 30080 40091 53001 60006 81532 91500=
07761,1997-12-05 18:00:00,10,1009.9,0.8,76,6,20000,7.408,,,40,4.3,14,,,,,,,,,wg-a,,,,AAXX 05184 07761 12670 70404 10100 20060 30088 40099 53008 60006 8153/ 91800 333 10140 20043=
07761,1997-12-05 21:00:00,6,1011.2,1.3,87,4,20000,11.112,,,50,,,,,,,,,,,wg-a,,,,AAXX 05214 07761 12/70 /0506 10060 20040 30101 40112 52013 60006 81031 92100=
07761,1997-12-06 00:00:00,5,1011.4,0.2,87,3,20000,14.816,,,40,,,,,,,,,,,wg-a,,,,AAXX 06004 07761 12/70 00408 10050 20030 30103 40114 50002 60006 80000 90000=
07761,1997-12-06 03:00:00,5,1011.5,0.1,87,3,20000,11.112,,,50,,,,,,,,,,,wg-a,,,,AAXX 06034 07761 12/70 00506 10050 20030 30104 40115 52001 60006 80000 90300=
07761,1997-12-06 06:00:00,6,1011.8,0.3,75,2,20000,14.816,,,60,3.7,9.6,,,,,,,,,wg-a,,,,AAXX 06064 07761 02/70 20608 10060 20020 30107 40118 53003 60006 81071 90600 333 10096 20037 60004=
07761,1997-12-06 09:00:00,11,1013.1,1.3,58,3,500,7.408,,,100,,,,,,,,,,,wg-a,,,,AAXX 06094 07761 12500 21004 10110 20030 30120 40131 53013 60006 81270 90900=
07761,1997-12-06 12:00:00,15,1012.7,-0.4,55,6,500,7.408,,,220,,,,,,,,,,,wg-a,,,,AAXX 06124 07761 12600 /2204 10150 20060 30116 40127 58004 60006 81230 91200=
07761,1997-12-06 15:00:00,14,1013.2,0.5,55,5,40000,11.112,,,190,,,,,,,,,,,wg-a,,,,AAXX 06154 07761 12682 /1906 10140 20050 30121 40132 53005 60006 81100 91500=
07761,1997-12-06 18:00:00,8,1015,1.8,71,3,500,14.816,,,50,4.8,14.9,,,,,,,,,wg-a,,,,AAXX 06184 07761 12/00 00508 10080 20030 30139 40150 52018 60006 80000 91800 333 10149 20048=
07761,1997-12-06 21:00:00,5,1016.7,1.7,65,-1,20000,18.52,,,40,,,,,,,,,,,wg-a,,,,AAXX 06214 07761 12/70 00410 10050 21010 30156 40167 51017 60006 80000 92100=
07761,1997-12-07 00:00:00,3,1016.8,0.1,75,-1,20000,14.816,,,50,,,,,,,,,,,wg-a,,,,AAXX 07004 07761 12/70 00508 10030 21010 30157 40168 50001 60006 80000 90000=
07761,1997-12-07 03:00:00,2,1016.9,0.1,75,-2,20000,14.816,,,50,,,,,,,,,,,wg-a,,,,AAXX 07034 07761 12/70 00508 10020 21020 30158 40169 50001 60006 80000 90300=
07761,1997-12-07 06:00:00,4,1017.4,0.5,65,-2,20000,14.816,,,40,1.9,8,,,,,,,,,wg-a,,,,AAXX 07064 07761 02570 20408 10040 21020 30163 40174 51005 60006 82500 90600 333 10080 20019 60004=
07761,1997-12-07 09:00:00,8,1018.1,0.7,66,2,40000,11.112,,,40,,,,,,,,,,,wg-a,,,,AAXX 07094 07761 12582 /0406 10080 20020 30170 40181 52007 60006 81100 90900=
07761,1997-12-07 12:00:00,14,1017.5,-0.6,58,6,40000,14.816,,,250,,,,,,,,,,,wg-a,,,,AAXX 07124 07761 12682 22508 10140 20060 30164 40175 58006 60006 82200 91200=
07761,1997-12-07 15:00:00,13,1016.6,-0.9,58,5,40000,3.704,,,240,,,,,,,,,,,wg-a,,,,AAXX 07154 07761 12582 /2402 10130 20050 30155 40166 56009 60006 81400 91500=
07761,1997-12-07 18:00:00,7,1017.1,0.5,81,4,20000,14.816,,,40,3.1,14,,,,,,,,,wg-a,,,,AAXX 07184 07761 12/70 00408 10070 20040 30160 40171 53005 60006 80000 91800 333 10140 20031=
07761,1997-12-08 00:00:00,4,1016.8,-0.2,87,2,20000,14.816,,,40,,,,,,,,,,,wg-a,,,,AAXX 08004 07761 12/70 00408 10040 20020 30157 40168 58002 60006 80000 90000=
07761,1997-12-08 03:00:00,4,1016.2,-0.6,81,1,10000,14.816,,,40,,,,,,,,,,,wg-a,,,,AAXX 08034 07761 12/60 /0408 10040 20010 30151 40162 58006 60006 90300=
07761,1997-12-08 06:00:00,3,1016.2,-0,93,2,15000,14.816,,,40,2.4,7.4,,,,,,,,,wg-a,,,,AAXX 08064 07761 02/65 00408 10030 20020 30151 40162 55000 60006 80000 90600 333 10074 20024 60004=
07761,1997-12-08 09:00:00,8,1016.9,0.7,76,4,20000,14.816,,,50,,,,,,,,,,,wg-a,,,,AAXX 08094 07761 12670 10508 10080 20040 30158 40169 51007 60006 81501 90900=
07761,1997-12-08 12:00:00,16,1015.3,-1.6,59,8,20000,3.704,,,230,,,,,,,,,,,wg-a,,,,AAXX 08124 07761 12670 32302 10160 20080 30142 40153 58016 60006 81102 91200=
07761,1997-12-08 15:00:00,14,1014.1,-1.2,67,8,18000,7.408,,,200,,,,,,,,,,,wg-a,,,,AAXX 08154 07761 12668 72004 10140 20080 30130 40141 56012 60006 81832 91500=
07761,1997-12-08 18:00:00,9,1014.5,0.4,81,6,18000,11.112,,,50,2.6,15.7,,,,,,,,,wg-a,,,,AAXX 08184 07761 12/68 50506 10090 20060 30134 40145 53004 60006 83032 91800 333 10157 20026=
07761,1997-12-08 21:00:00,10,1014.6,0.1,76,6,18000,7.408,,,40,,,,,,,,,,,wg-a,,,,AAXX 08214 07761 12668 70404 10100 20060 30135 40146 50001 60006 875// 92100=
07761,1997-12-09 00:00:00,10,1014.6,-0,82,7,18000,11.112,,,60,,,,,,,,,,,wg-a,,,,AAXX 09004 07761 12668 70606 10100 20070 30135 40146 55000 60006 875// 90000=
07761,1997-12-09 03:00:00,10,1013.7,-0.9,82,7,18000,11.112,,,50,,,,,,,,,,,wg-a,,,,AAXX 09034 07761 12668 /0506 10100 20070 30126 40137 56009 60006 83530 90300=
07761,1997-12-09 06:00:00,9,1013.9,0.2,81,6,18000,11.112,,,70,8,10.7,,,,,,,,,wg-a,,,,AAXX 09064 07761 02/68 /0706 10090 20060 30128 40139 53002 60006 84032 90600 333 10107 20080 60004=
07761,1997-12-09 09:00:00,13,1014.6,0.7,72,8,15000,3.704,,,60,,,,,,,,,,,wg-a,,,,AAXX 09094 07761 12765 70602 10130 20080 30135 40146 53007 60006 81172 90900=
07761,1997-12-09 12:00:00,15,1013.7,-0.9,67,9,12000,7.408,,,200,,,,,,,,,,,wg-a,,,,AAXX 09124 07761 12662 82004 10150 20090 30126 40137 58009 60006 8227/ 91200=
07761,1997-12-09 15:00:00,15,1014.2,0.5,67,9,12000,7.408,,,310,,,,,,,,,,,wg-a,,,,AAXX 09154 07761 12562 /3104 10150 20090 30131 40142 53005 60006 81271 91500=
07761,1997-12-09 18:00:00,10,1015.4,1.2,87,8,12000,11.112,,,50,8.6,15.6,,,,,,,,,wg-a,,,,AAXX 09184 07761 12/62 10506 10100 20080 30143 40154 52012 60006 81030 91800 333 10156 20086=
07761,1997-12-10 00:00:00,6,1016.7,-0,87,4,12000,11.112,,,60,,,,,,,,,,,wg-a,,,,AAXX 10004 07761 12/62 00606 10060 20040 30156 40167 54000 60006 80000 90000=
07761,1997-12-10 03:00:00,6,1017.4,0.7,87,4,12000,11.112,,,60,,,,,,,,,,,wg-a,,,,AAXX 10034 07761 12562 /0606 10060 20040 30163 40174 50007 60006 81500 90300=
07761,1997-12-10 06:00:00,6,1019.1,1.7,87,4,15000,14.816,,,50,5,10,,,,,,,,,wg-a,,,,AAXX 10064 07761 02565 /0508 10060 20040 30180 40191 53017 60006 81500 90600 333 10100 20050 60004=
07761,1997-12-10 18:00:00,10,1021.1,1.1,82,7,15000,11.112,,,40,5.1,16.1,,,,,,,,,wg-a,,,,AAXX 10184 07761 12/65 70406 10100 20070 30200 40211 51011 60006 80001 91800 333 10161 20051=
07761,1997-12-11 00:00:00,8,1021.4,-0.1,87,6,15000,7.408,,,40,,,,,,,,,,,wg-a,,,,AAXX 11004 07761 12565 50404 10080 20060 30203 40214 57001 60006 83832 90000=
07761,1997-12-11 03:00:00,9,1020.3,-1.1,87,7,15000,11.112,,,40,,,,,,,,,,,wg-a,,,,AAXX 11034 07761 12565 80406 10090 20070 30192 40203 58011 60006 8787/ 90300=
07761,1997-12-11 06:00:00,11,1019.8,-0.5,76,7,15000,11.112,,,30,7.8,10.6,,,,,,,,,wg-a,,,,AAXX 11064 07761 02565 80306 10110 20070 30187 40198 56005 60006 8787/ 90600 333 10106 20078 60004=
07761,1997-12-11 12:00:00,14,1019.7,-1.2,72,9,7000,3.704,,,60,,,,,,,,,,,wg-a,,,,AAXX 11124 07761 12557 80602 10140 20090 30186 40197 58012 60006 878// 91200=
07761,1997-12-11 15:00:00,13,1019.2,-0.5,88,11,8000,3.704,,,60,,,,,,,,,,,wg-a,,,,AAXX 11154 07761 12558 80602 10130 20110 30181 40192 58005 60006 875// 91500=
07761,1997-12-11 18:00:00,12,1019,-0.2,94,11,10000,7.408,,,60,10.4,13.8,,,,,,,,21,wg-a,,,,AAXX 11184 07761 02560 80604 10120 20110 30179 40190 58002 61000 72165 8357/ 91800 333 10138 20104 6100=
07761,1997-12-11 21:00:00,11,1018.1,-0.9,94,10,12000,7.408,,,80,,,,,,,,,,,wg-a,,,,AAXX 11214 07761 12562 70804 10110 20100 30170 40181 58009 60006 84570 92100=
07761,1997-12-12 00:00:00,12,1016.6,-1.5,88,10,12000,7.408,,,60,,,,,,,,,,,wg-a,,,,AAXX 12004 07761 12462 70604 10120 20100 30155 40166 58015 60006 84570 90000=
07761,1997-12-12 03:00:00,12,1014.8,-1.8,94,11,12000,7.408,,,50,,,,,,,,,,,wg-a,,,,AAXX 12034 07761 12462 70504 10120 20110 30137 40148 58018 60006 878// 90300=
07761,1997-12-12 06:00:00,12,1013.3,-1.5,94,11,10000,7.408,,,70,11.2,12.5,,,,,,,,3,wg-a,,,,AAXX 12064 07761 02460 80704 10120 20110 30122 40133 56015 60006 70362 887// 90600 333 10125 20112 60004=
07761,1997-12-12 09:00:00,15,1013.3,-0,94,14,8000,11.112,,,220,,,,,,,,,,,wg-a,,,,AAXX 12094 07761 12358 72206 10150 20140 30122 40133 55000 60006 878// 90900=
07761,1997-12-12 12:00:00,17,1011.9,-1.4,68,11,20000,14.816,,,290,,,,,,,,,,,wg-a,,,,AAXX 12124 07761 12570 /2908 10170 20110 30108 40119 58014 60006 81132 91200=
07761,1997-12-12 18:00:00,14,1011.8,-0.3,58,6,20000,14.816,,,310,12.3,16.8,,,,,,,,,wg-a,,,,AAXX 12184 07761 12570 33108 10140 20060 30107 40118 56003 60006 83800 91800 333 10168 20123=
07761,1997-12-12 21:00:00,9,1012.6,0.8,76,5,20000,14.816,,,50,,,,,,,,,,,wg-a,,,,AAXX 12214 07761 12/70 00508 10090 20050 30115 40126 53008 60006 80000 92100=
07761,1997-12-13 00:00:00,6,1012.9,0.3,87,4,10000,14.816,,,40,,,,,,,,,,,wg-a,,,,AAXX 13004 07761 12/60 /0408 10060 20040 30118 40129 51003 60006 90000=
07761,1997-12-13 03:00:00,5,1013.6,0.7,87,3,500,14.816,,,50,,,,,,,,,,,wg-a,,,,AAXX 13034 07761 12/00 00508 10050 20030 30125 40136 50007 60006 80000 90300=
07761,1997-12-13 06:00:00,4,1014.2,0.6,87,2,500,14.816,,,50,3.7,13.6,,,,,,,,,wg-a,,,,AAXX 13064 07761 02/00 /0508 10040 20020 30131 40142 53006 60006 80000 90600 333 10136 20037 60004=
07761,1997-12-13 09:00:00,8,1015.6,1.4,71,3,50000,14.816,,,40,,,,,,,,,,,wg-a,,,,AAXX 13094 07761 12/84 10408 10080 20030 30145 40156 53014 60006 81032 90900=
07761,1997-12-13 12:00:00,16,1015,-0.6,51,6,50000,3.704,,,210,,,,,,,,,,,wg-a,,,,AAXX 13124 07761 12/84 /2102 10160 20060 30139 40150 58006 60006 80002 91200=
07761,1997-12-13 15:00:00,14,1015.5,0.5,72,9,500,11.112,,,180,,,,,,,,,,,wg-a,,,,AAXX 13154 07761 12700 /1806 10140 20090 30144 40155 53005 60006 81102 91500=
07761,1997-12-13 18:00:00,9,1017.2,1.7,81,6,20000,11.112,,,40,3.7,15.7,,,,,,,,,wg-a,,,,AAXX 13184 07761 12/70 00406 10090 20060 30161 40172 53017 60006 80000 91800 333 10157 20037=
07761,1997-12-14 00:00:00,3,1019.6,0.7,75,-1,20000,14.816,,,50,,,,,,,,,,,wg-a,,,,AAXX 14004 07761 12/70 00508 10030 21010 30185 40196 51007 60006 80000 90000=
07761,1997-12-14 03:00:00,4,1019.9,0.3,65,-2,20000,11.112,,,60,,,,,,,,,,,wg-a,,,,AAXX 14034 07761 12/70 00606 10040 21020 30188 40199 50003 60006 80000 90300=
07761,1997-12-14 06:00:00,1,1020,0.1,80,-2,500,14.816,,,50,1,8.7,,,,,,,,,wg-a,,,,AAXX 14064 07761 02/00 00508 10010 21020 30189 40200 53001 60006 80000 90600 333 10087 20010 60004=
07761,1997-12-14 09:00:00,8,1020.6,0.6,57,0,50000,7.408,,,60,,,,,,,,,,,wg-a,,,,AAXX 14094 07761 12/84 00604 10080 20000 30195 40206 51006 60006 80000 90900=
07761,1997-12-14 12:00:00,15,1019.5,-1.1,59,7,50000,3.704,,,200,,,,,,,,,,,wg-a,,,,AAXX 14124 07761 12784 /2002 10150 20070 30184 40195 58011 60006 81100 91200=
07761,1997-12-14 15:00:00,15,1018,-1.5,55,6,50000,0,,,0,,,,,,,,,,,wg-a,,,,AAXX 14154 07761 12684 20000 10150 20060 30169 40180 56015 60006 81202 91500=
07761,1997-12-14 18:00:00,7,1016.9,-1.1,76,3,25000,14.816,,,40,1,15.6,,,,,,,,,wg-a,,,,AAXX 14184 07761 12/75 20408 10070 20030 30158 40169 56011 60006 80002 91800 333 10156 20010=
07761,1997-12-14 21:00:00,6,1015.7,-1.2,75,2,20000,14.816,,,40,,,,,,,,,,,wg-a,,,,AAXX 14214 07761 12/70 30408 10060 20020 30146 40157 58012 60006 80001 92100=
07761,1997-12-15 00:00:00,5,1013.6,-2.1,87,3,20000,11.112,,,60,,,,0,,,,,,25,wg-a,,,,AAXX 15004 07761 02470 /0606 10050 20030 30125 40136 58021 60016 72586 86800 90000 333 60007=
07761,1997-12-15 03:00:00,7,1010.7,-2.9,81,4,20000,18.52,,,40,,,,,,,,,,,wg-a,,,,AAXX 15034 07761 12570 40410 10070 20040 30096 40107 58029 60006 82830 90300=
07761,1997-12-15 06:00:00,4,1008.7,-2,81,1,20000,11.112,,,50,3.6,7.4,,,,,,,,,wg-a,,,,AAXX 15064 07761 02670 40506 10040 20010 30076 40087 56020 60006 82830 90600 333 10074 20036 60004=
07761,1997-12-15 09:00:00,10,1008.8,0.1,62,3,25000,3.704,,,80,,,,,,,,,,,wg-a,,,,AAXX 15094 07761 12675 40802 10100 20030 30077 40088 53001 60006 83233 90900=
07761,1997-12-15 12:00:00,12,1008.4,-0.4,62,5,500,11.112,,,220,,,,,,,,,,,wg-a,,,,AAXX 15124 07761 12600 52206 10120 20050 30073 40084 58004 60006 82832 91200=
07761,1997-12-15 15:00:00,11,1008.9,0.5,47,0,500,11.112,,,350,,,,,,,,,,16,wg-a,,,,AAXX 15154 07761 12600 73506 10110 20000 30078 40089 53005 60006 71692 84930 91500=
07761,1997-12-15 18:00:00,7,1010.3,1.4,61,0,15000,7.408,,,100,3.3,13.4,,,,,,,,13,wg-a,,,,AAXX 15184 07761 12665 31004 10070 20000 30092 40103 53014 60006 71391 81930 91800 333 10134 20033=
07761,1997-12-15 21:00:00,6,1011.4,1.1,70,1,15000,7.408,,,80,,,,,,,,,,13,wg-a,,,,AAXX 15214 07761 12665 70804 10060 20010 30103 40114 53011 60006 71311 879// 92100=
07761,1997-12-16 00:00:00,5,1011.5,0.1,75,1,15000,7.408,,,60,,,,,,,,,,,wg-a,,,,AAXX 16004 07761 12665 40604 10050 20010 30104 40115 51001 60006 84800 90000=
07761,1997-12-16 03:00:00,3,1011.5,-0,81,0,15000,3.704,,,100,,,,,,,,,,,wg-a,,,,AAXX 16034 07761 12/65 21002 10030 20000 30104 40115 54000 60006 82030 90300=
07761,1997-12-16 06:00:00,3,1012.1,0.6,81,0,15000,11.112,,,60,1.8,7.4,,,,,,,,,wg-a,,,,AAXX 16064 07761 02/65 70606 10030 20000 30110 40121 53006 60006 8707/ 90600 333 10074 20018 60004=
07761,1997-12-16 18:00:00,11,1012.7,0.6,50,1,20000,7.408,,,330,2.4,13.6,,,,,,,,1,wg-a,,,,AAXX 16184 07761 02770 83304 10110 20010 30116 40127 53006 60006 70162 8157/ 91800 333 10136 20024 61000=
07761,1997-12-16 21:00:00,12,1012.7,-0,54,3,20000,7.408,,,300,,,,,,,,,,2,wg-a,,,,AAXX 16214 07761 02770 83004 10120 20030 30116 40127 55000 61000 70262 8157/ 92100 333 ////=
07761,1997-12-17 00:00:00,11,1011.6,-1.1,58,3,20000,3.704,,,280,,,,,,,,,,1,wg-a,,,,AAXX 17004 07761 02/70 52802 10110 20030 30105 40116 55011 61000 70161 82042 90000 333 ////=
07761,1997-12-17 03:00:00,9,1012.5,0.9,71,4,20000,3.704,,,100,,,,,,,,,,,wg-a,,,,AAXX 17034 07761 12670 81002 10090 20040 30114 40125 50009 60006 8113/ 90300=
07761,1997-12-17 06:00:00,8,1012.6,0.1,76,4,20000,11.112,,,50,7.1,12,,,,,,,,,wg-a,,,,AAXX 17064 07761 02670 /0506 10080 20040 30115 40126 53001 60006 81836 90600 333 10120 20071 61000=
07761,1997-12-17 09:00:00,12,1013.5,0.9,67,6,20000,11.112,,,50,,,,,,,,,,,wg-a,,,,AAXX 17094 07761 12570 70506 10120 20060 30124 40135 51009 60006 82536 90900=
07761,1997-12-17 12:00:00,17,1013.4,-0.1,55,8,20000,11.112,,,40,,,,,,,,,,,wg-a,,,,AAXX 17124 07761 12670 70406 10170 20080 30123 40134 58001 60006 81842 91200=
07761,1997-12-17 15:00:00,16,1013.6,0.2,68,10,20000,3.704,,,200,,,,,,,,,,,wg-a,,,,AAXX 17154 07761 12870 72002 10160 20100 30125 40136 53002 60006 8327/ 91500=
07761,1997-12-17 18:00:00,13,1014.6,1,77,9,20000,11.112,,,50,6.9,17.4,,,,,,,,,wg-a,,,,AAXX 17184 07761 12870 70506 10130 20090 30135 40146 51010 60006 8327/ 91800 333 10174 20069=
07761,1997-12-17 21:00:00,11,1015.5,0.9,82,8,15000,14.816,,,40,,,,,,,,,,,wg-a,,,,AAXX 17214 07761 12765 70408 10110 20080 30144 40155 50009 60006 8357/ 92100=
07761,1997-12-18 00:00:00,9,1015.4,-0.1,81,6,15000,11.112,,,60,,,,,,,,,,,wg-a,,,,AAXX 18004 07761 12/65 80606 10090 20060 30143 40154 58001 60006 8802/ 90000=
07761,1997-12-18 03:00:00,10,1014.6,-0.8,82,7,15000,3.704,,,190,,,,,,,,,,,wg-a,,,,AAXX 18034 07761 12/65 71902 10100 20070 30135 40146 56008 60006 8702/ 90300=
07761,1997-12-18 06:00:00,11,1013.2,-1.4,76,7,15000,11.112,,,50,8.5,12.6,,,,,,,,,wg-a,,,,AAXX 18064 07761 02/65 70506 10110 20070 30121 40132 56014 60006 8702/ 90600 333 10126 20085 60004=
07761,1997-12-18 09:00:00,14,1013.2,-0,67,8,25000,3.704,,,270,,,,,,,,,,,wg-a,,,,AAXX 18094 07761 12675 82702 10140 20080 30121 40132 55000 60006 8117/ 90900=
07761,1997-12-18 12:00:00,19,1010.9,-2.3,46,7,25000,31.484,,,100,,,,,,,,,,,wg-a,,,,AAXX 18124 07761 12675 81017 10190 20070 30098 40109 58023 60006 8117/ 91200=
07761,1997-12-18 15:00:00,19,1010.4,-0.5,46,7,11000,22.224,,,80,,,,,,,,,,,wg-a,,,,AAXX 18154 07761 02/61 /0812 10190 20070 30093 40104 55005 61000 91500 333 ////=
07761,1997-12-18 18:00:00,17,1010.3,-0.1,59,9,15000,18.52,,50.004,120,10.7,19.3,,,,,,,,60,wg-a,,,,AAXX 18184 07761 02665 81210 10170 20090 30092 40103 58001 61000 76062 8487/ 91800 333 10193 20107 6000 91027=
07761,1997-12-18 21:00:00,14,1009.4,-0.9,72,9,15000,7.408,,,40,,,,,,,,,,1,wg-a,,,,AAXX 18214 07761 02765 /0404 10140 20090 30083 40094 58009 61000 70162 81570 92100 333 ////=
07761,1997-12-19 00:00:00,15,1009.5,0.1,72,10,15000,22.224,,,80,,,,0,,,,,,61,wg-a,,,,AAXX 19004 07761 02765 80812 10150 20100 30084 40095 50001 60006 76162 8157/ 90000 333 60007=
07761,1997-12-19 03:00:00,14,1008.9,-0.6,77,10,15000,14.816,,,40,,,,,,,,,,21,wg-a,,,,AAXX 19034 07761 02665 /0408 10140 20100 30078 40089 58006 61000 72162 81570 90300 333 ////=
07761,1997-12-19 06:00:00,12,1009,0.1,82,9,20000,7.408,,,50,12,16.9,,,,,,,,1,wg-a,,,,AAXX 19064 07761 02/70 /0504 10120 20090 30079 40090 50001 60006 70161 82070 90600 333 10169 20120 60004=
07761,1997-12-19 09:00:00,13,1010.4,1.4,88,11,20000,7.408,,,50,,,,,,,,,,,wg-a,,,,AAXX 19094 07761 12570 70504 10130 20110 30093 40104 52014 60006 86870 90900=
07761,1997-12-19 12:00:00,17,1008.7,-1.7,72,12,20000,14.816,,,270,,,,,,,,,,,wg-a,,,,AAXX 19124 07761 12670 62708 10170 20120 30076 40087 58017 60006 81132 91200=
07761,1997-12-19 15:00:00,16,1006.5,-2.2,82,13,10000,7.408,,,60,,,,,,,,,,60,wg-a,,,,AAXX 19154 07761 02760 80604 10160 20130 30054 40065 57022 61000 76086 8323/ 91500 333 ////=
07761,1997-12-19 18:00:00,14,1006.1,-0.4,88,12,8000,7.408,,,30,10.4,19.2,,,,,,,,61,wg-a,,,,AAXX 19184 07761 02558 80304 10140 20120 30050 40061 58004 61000 76186 8423/ 91800 333 10192 20104 6005=
07761,1997-12-19 21:00:00,13,1004.3,-1.8,94,12,500,3.704,,,60,,,,9,,,,,,63,wg-a,,,,AAXX 19214 07761 12200 80602 10130 20120 30032 40043 56018 60097 76366 888// 92100=
07761,1997-12-20 00:00:00,12,1002.5,-1.8,100,12,4000,3.704,,,320,,,,7,,,,,,63,wg-a,,,,AAXX 20004 07761 02340 83202 10120 20120 30014 40025 56018 60166 76366 887// 90000 333 60077=
07761,1997-12-20 03:00:00,12,1002.9,0.4,94,11,8000,11.112,,,40,,,,5,,,,,,21,wg-a,,,,AAXX 20034 07761 12358 70406 10120 20110 30018 40029 51004 60057 72162 87800 90300=
07761,1997-12-20 06:00:00,11,1003.9,1,94,10,10000,7.408,,,50,10.7,13.8,,,,,,,,21,wg-a,,,,AAXX 20064 07761 02460 50504 10110 20100 30028 40039 53010 61000 72162 84830 90600 333 10138 20107 6039=
07761,1997-12-20 18:00:00,11,1006,1.1,87,9,15000,11.112,,,40,10.5,16.5,,3,,,,,,1,wg-a,,,,AAXX 20184 07761 02465 70406 10110 20090 30049 40060 52011 60006 70198 8783/ 91800 333 10165 20105 60037=
07761,1997-12-20 21:00:00,9,1007.8,1.8,93,8,500,18.52,,,90,,,,10,,,,,,80,wg-a,,,,AAXX 20214 07761 12200 80910 10090 20080 30067 40078 53018 60107 78098 879// 92100=
07761,1997-12-21 00:00:00,9,1007.8,-0,87,7,9000,7.408,,,250,,,,4,,,,,,80,wg-a,,,,AAXX 21004 07761 02459 82504 10090 20070 30067 40078 55000 60146 78098 879// 90000 333 60047=
07761,1997-12-21 03:00:00,9,1009.1,1.3,87,7,10000,7.408,,,60,,,,0,,,,,,25,wg-a,,,,AAXX 21034 07761 12460 70604 10090 20070 30080 40091 51013 60007 72598 8483/ 90300=
07761,1997-12-21 06:00:00,9,1010,0.9,93,8,10000,7.408,,,50,8.4,10.8,,,,,,,,25,wg-a,,,,AAXX 21064 07761 02560 60504 10090 20080 30089 40100 53009 61000 72598 86900 90600 333 10108 20084 6024=
07761,1997-12-21 09:00:00,11,1011,1,94,10,10000,7.408,,,50,,,,1,,,,,,25,wg-a,,,,AAXX 21094 07761 12560 70504 10110 20100 30099 40110 53010 60017 72586 873// 90900=
07761,1997-12-21 12:00:00,14,1010.5,-0.5,77,10,9000,29.632,,,270,,,,1,,,,,,80,wg-a,,,,AAXX 21124 07761 02459 72716 10140 20100 30094 40105 58005 60026 78086 873// 91200 333 60017=
07761,1997-12-21 15:00:00,14,1010.8,0.3,72,9,500,22.224,,,280,,,,0,,,,,,80,wg-a,,,,AAXX 21154 07761 12500 72812 10140 20090 30097 40108 53003 60007 78086 873// 91500=
07761,1997-12-21 18:00:00,14,1011.7,0.9,72,9,10000,25.928,,,270,8.6,14.5,,,,,,,,1,wg-a,,,,AAXX 21184 07761 02560 /2714 10140 20090 30106 40117 51009 60006 70186 86200 91800 333 10145 20086 61000=
07761,1997-12-21 21:00:00,13,1012.1,0.4,77,9,10000,22.224,,,270,,,,0,,,,,,1,wg-a,,,,AAXX 21214 07761 12560 /2712 10130 20090 30110 40121 51004 60007 70186 86800 92100=
07761,1997-12-22 00:00:00,12,1012.1,0,82,9,15000,7.408,,,360,,,,1,,,,,,1,wg-a,,,,AAXX 22004 07761 02565 63604 10120 20090 30110 40121 50000 60016 70186 86800 90000 333 60017=
07761,1997-12-22 03:00:00,11,1012.4,0.3,87,9,10000,7.408,,,40,,,,2,,,,,,25,wg-a,,,,AAXX 22034 07761 12560 /0404 10110 20090 30113 40124 50003 60027 72586 86800 90300=
07761,1997-12-22 06:00:00,10,1012.6,0.2,87,8,15000,7.408,,,40,9.7,13.5,,,,,6,,,1,wg-a,,,,AAXX 22064 07761 02565 /0404 10100 20080 30115 40126 53002 60006 70186 85800 90600 333 10135 20097 60064=
07761,1997-12-22 09:00:00,11,1014.5,1.9,94,10,25000,11.112,,,30,,,,,,,,,,,wg-a,,,,AAXX 22094 07761 12575 50306 10110 20100 30134 40145 52019 60006 85800 90900=
07761,1997-12-22 12:00:00,16,1013.6,-0.9,63,9,25000,3.704,,,260,,,,,,,,,,,wg-a,,,,AAXX 22124 07761 12575 22602 10160 20090 30125 40136 58009 60006 82800 91200=
07761,1997-12-22 15:00:00,15,1013.9,0.3,63,8,40000,11.112,,,230,,,,,,,,,,,wg-a,,,,AAXX 22154 07761 12682 /2306 10150 20080 30128 40139 53003 60006 81101 91500=
07761,1997-12-22 18:00:00,9,1015,1.1,81,6,25000,14.816,,,60,,,,,,,,,,,wg-a,,,,AAXX 22184 07761 12/75 /0608 10090 20060 30139 40150 53011 60006 80000 91800=
07761,1997-12-22 21:00:00,7,1015.8,0.8,87,5,25000,18.52,,,40,,,,,,,,,,,wg-a,,,,AAXX 22214 07761 12/75 20410 10070 20050 30147 40158 53008 60006 80001 92100=
07761,1997-12-23 00:00:00,9,1015.5,-0.3,81,6,25000,11.112,,,40,,,,,,,,,,,wg-a,,,,AAXX 23004 07761 12675 80406 10090 20060 30144 40155 57003 60006 875// 90000=
07761,1997-12-23 03:00:00,10,1015.4,-0.1,76,6,20000,11.112,,,40,,,,,,,,,,,wg-a,,,,AAXX 23034 07761 12570 80406 10100 20060 30143 40154 58001 60006 888// 90300=
07761,1997-12-23 06:00:00,11,1015.7,0.3,76,7,20000,11.112,,,40,6.7,10.9,,,,,,,,,wg-a,,,,AAXX 23064 07761 02570 80406 10110 20070 30146 40157 53003 60006 8587/ 90600 333 10109 20067 60004=
07761,1997-12-23 09:00:00,12,1017.7,2,76,8,25000,7.408,,,50,,,,,,,,,,,wg-a,,,,AAXX 23094 07761 12875 70504 10120 20080 30166 40177 53020 60006 8707/ 90900=
07761,1997-12-23 12:00:00,14,1017.6,-0.1,77,10,25000,0,,,0,,,,,,,,,,,wg-a,,,,AAXX 23124 07761 12775 70000 10140 20100 30165 40176 58001 60006 8757/ 91200=
07761,1997-12-23 15:00:00,14,1018.6,1,82,11,25000,7.408,,,190,,,,,,,,,,,wg-a,,,,AAXX 23154 07761 12675 71904 10140 20110 30175 40186 53010 60006 8557/ 91500=
07761,1997-12-23 18:00:00,13,1020.8,2.2,82,10,15000,3.704,,,40,10.5,15.2,,,,,,,,,wg-a,,,,AAXX 23184 07761 12565 70402 10130 20100 30197 40208 53022 60006 8557/ 91800 333 10152 20105=
07761,1997-12-23 21:00:00,13,1022.4,1.6,88,11,15000,3.704,,,260,,,,,,,,,,21,wg-a,,,,AAXX 23214 07761 02565 72602 10130 20110 30213 40224 51016 61000 72162 8557/ 92100 333 ////=
07761,1997-12-24 00:00:00,12,1023.5,1.1,94,11,15000,3.704,,,110,,,,,,,,,,2,wg-a,,,,AAXX 24004 07761 02365 81102 10120 20110 30224 40235 51011 61000 70265 877// 90000 333 6100=
07761,1997-12-24 03:00:00,10,1025,1.5,93,9,15000,7.408,,,80,,,,,,,,,,,wg-a,,,,AAXX 24034 07761 12665 20804 10100 20090 30239 40250 51015 60006 82500 90300=
07761,1997-12-24 06:00:00,10,1026.4,1.4,93,9,15000,7.408,,,40,9.1,13.2,,,,,,,,,wg-a,,,,AAXX 24064 07761 02465 /0404 10100 20090 30253 40264 53014 60006 86800 90600 333 10132 20091 61000=
07761,1997-12-24 09:00:00,13,1028.2,1.8,82,10,20000,11.112,,,50,,,,,,,,,,,wg-a,,,,AAXX 24094 07761 12570 /0506 10130 20100 30271 40282 53018 60006 84802 90900=
07761,1997-12-24 12:00:00,14,1028.6,0.4,82,11,20000,3.704,,,210,,,,,,,,,,,wg-a,,,,AAXX 24124 07761 12570 72102 10140 20110 30275 40286 50004 60006 878// 91200=
07761,1997-12-24 15:00:00,15,1028.2,-0.4,82,12,20000,7.408,,,240,,,,,,,,,,,wg-a,,,,AAXX 24154 07761 12570 52404 10150 20120 30271 40282 55004 60006 82831 91500=
07761,1997-12-24 18:00:00,10,1028.9,0.7,93,9,20000,11.112,,,60,10.2,15.5,,,,,,,,,wg-a,,,,AAXX 24184 07761 12570 /0606 10100 20090 30278 40289 52007 60006 81500 91800 333 10155 20102=
07761,1997-12-24 21:00:00,8,1029.9,1,93,7,20000,7.408,,,60,,,,0,,,,,,,wg-a,,,,AAXX 24214 07761 12570 10604 10080 20070 30288 40299 53010 60007 81500 92100=
07761,1997-12-25 00:00:00,8,1029.6,-0.3,93,7,15000,7.408,,,50,,,,,,,,,,,wg-a,,,,AAXX 25004 07761 12565 /0504 10080 20070 30285 40296 55003 60006 81500 90000=
07761,1997-12-25 06:00:00,8,1027.9,-0.2,87,6,20000,14.816,,,40,6.9,10.5,,,,,,,,,wg-a,,,,AAXX 25064 07761 02670 50408 10080 20060 30268 40279 55002 60006 84530 90600 333 10105 20069 60004=
07761,1997-12-25 09:00:00,10,1028.9,1,87,8,20000,11.112,,,50,,,,,,,,,,,wg-a,,,,AAXX 25094 07761 12570 60506 10100 20080 30278 40289 51010 60006 81832 90900=
07761,1997-12-25 12:00:00,16,1027.8,-1.1,68,10,500,3.704,,,260,,,,,,,,,,,wg-a,,,,AAXX 25124 07761 12500 82602 10160 20100 30267 40278 58011 60006 81142 91200=
07761,1997-12-25 18:00:00,11,1026.3,-0.7,82,8,20000,11.112,,,50,6.7,16.6,,,,,,,,,wg-a,,,,AAXX 25184 07761 12570 80506 10110 20080 30252 40263 58007 60006 81842 91800 333 10166 20067=
07761,1997-12-25 21:00:00,10,1025.4,-0.9,82,7,15000,14.816,,,50,,,,,,,,,,,wg-a,,,,AAXX 25214 07761 12565 40508 10100 20070 30243 40254 58009 60006 83501 92100=
07761,1997-12-26 00:00:00,11,1024.6,-0.8,82,8,15000,11.112,,,40,,,,,,,,,,,wg-a,,,,AAXX 26004 07761 12565 60406 10110 20080 30235 40246 55008 60006 86500 90000=
07761,1997-12-26 03:00:00,11,1021.8,-2.8,82,8,15000,7.408,,,60,,,,,,,,,,,wg-a,,,,AAXX 26034 07761 12565 70604 10110 20080 30207 40218 58028 60006 875// 90300=
07761,1997-12-26 06:00:00,11,1020,-1.8,82,8,15000,14.816,,,60,9.5,12,,,,,,,,,wg-a,,,,AAXX 26064 07761 02465 70608 10110 20080 30189 40200 56018 60006 875// 90600 333 10120 20095 60004=
07761,1997-12-26 09:00:00,12,1019.3,-0.7,82,9,15000,11.112,,,50,,,,,,,,,,,wg-a,,,,AAXX 26094 07761 12565 70506 10120 20090 30182 40193 56007 60006 8557/ 90900=
07761,1997-12-26 12:00:00,14,1016.4,-2.9,88,12,15000,7.408,,,70,,,,,,,,,,21,wg-a,,,,AAXX 26124 07761 02465 80704 10140 20120 30153 40164 58029 61000 72162 875// 91200 333 6100=
07761,1997-12-26 15:00:00,14,1013.4,-3,88,12,15000,7.408,,,80,,,,1,,,,,,61,wg-a,,,,AAXX 26154 07761 12465 80804 10140 20120 30123 40134 56030 60017 76162 875// 91500=
07761,1997-12-26 18:00:00,13,1012.5,-0.9,88,11,12000,18.52,,,270,10.8,14.7,,,,,,,,21,wg-a,,,,AAXX 26184 07761 02362 82710 10130 20110 30114 40125 56009 61000 72162 878// 91800 333 10147 20108 6004=
07761,1997-12-26 21:00:00,12,1012.5,-0,88,10,8000,3.704,,,140,,,,2,,,,,,21,wg-a,,,,AAXX 26214 07761 12358 71402 10120 20100 30114 40125 55000 60027 72162 878// 92100=
07761,1997-12-27 00:00:00,10,1010.8,-1.7,93,9,10000,7.408,,,70,,,,,,,,,,2,wg-a,,,,AAXX 27004 07761 12560 60704 10100 20090 30097 40108 58017 60026 70262 84502 90000=
07761,1997-12-27 03:00:00,10,1010.3,-0.5,93,9,10000,3.704,,,60,,,,,,,,,,,wg-a,,,,AAXX 27034 07761 12560 70602 10100 20090 30092 40103 58005 60006 85502 90300=
07761,1997-12-27 06:00:00,9,1010,-0.3,93,8,15000,7.408,,,60,8.8,13.2,,,,,6,,,,wg-a,,,,AAXX 27064 07761 02565 70604 10090 20080 30089 40100 56003 60006 85502 90600 333 10132 20088 60064=
07761,1997-12-27 09:00:00,10,1010.9,0.9,87,8,15000,7.408,,,360,,,,,,,,,,,wg-a,,,,AAXX 27094 07761 12665 /3604 10100 20080 30098 40109 52009 60006 85230 90900=
07761,1997-12-27 12:00:00,13,1009.3,-1.6,62,6,20000,14.816,,,320,,,,,,,,,,3,wg-a,,,,AAXX 27124 07761 02570 73208 10130 20060 30082 40093 58016 61000 70362 85231 91200 333 6100=
07761,1997-12-27 15:00:00,12,1008.6,-0.7,67,6,20000,3.704,,,340,,,,,,,,,,1,wg-a,,,,AAXX 27154 07761 02670 /3402 10120 20060 30075 40086 55007 61000 70186 86400 91500 333 ////=
07761,1997-12-27 18:00:00,8,1010,1.4,87,6,20000,11.112,,,50,7.8,13.7,,,,,,,,1,wg-a,,,,AAXX 27184 07761 12/70 00506 10080 20060 30089 40100 53014 60006 70186 80000 91800 333 10137 20078=
07761,1997-12-27 21:00:00,6,1011,1,87,4,15000,14.816,,,50,,,,,,,,,,,wg-a,,,,AAXX 27214 07761 12665 40508 10060 20040 30099 40110 51010 60006 84500 92100=
07761,1997-12-28 00:00:00,6,1011.1,0.1,87,4,25000,11.112,,,50,,,,,,,,,,,wg-a,,,,AAXX 28004 07761 12575 /0506 10060 20040 30100 40111 51001 60006 81500 90000=
07761,1997-12-28 03:00:00,6,1010.9,-0.2,81,3,15000,11.112,,,50,,,,,,,,,,,wg-a,,,,AAXX 28034 07761 12665 /0506 10060 20030 30098 40109 58002 60006 86500 90300=
07761,1997-12-28 06:00:00,5,1011.4,0.5,87,3,15000,11.112,,,50,4.9,7.8,,,,,,,,,wg-a,,,,AAXX 28064 07761 02665 40506 10050 20030 30103 40114 53005 60006 83530 90600 333 10078 20049 61000=
07761,1997-12-28 09:00:00,8,1013,1.6,81,5,500,11.112,,,40,,,,,,,,,,,wg-a,,,,AAXX 28094 07761 12500 20406 10080 20050 30119 40130 51016 60006 82800 90900=
07761,1997-12-28 12:00:00,13,1011.8,-1.2,62,6,500,14.816,,,220,,,,,,,,,,,wg-a,,,,AAXX 28124 07761 12500 32208 10130 20060 30107 40118 58012 60006 82801 91200=
07761,1997-12-28 15:00:00,12,1011.8,-0,58,4,25000,7.408,,,220,,,,,,,,,,,wg-a,,,,AAXX 28154 07761 12675 52204 10120 20040 30107 40118 55000 60006 84801 91500=
07761,1997-12-28 18:00:00,7,1012.7,0.9,81,4,20000,14.816,,,50,5,14,,,,,,,,,wg-a,,,,AAXX 28184 07761 12670 20508 10070 20040 30116 40127 53009 60006 82500 91800 333 10140 20050=
07761,1997-12-28 21:00:00,5,1013.4,0.7,87,3,20000,11.112,,,40,,,,,,,,,,,wg-a,,,,AAXX 28214 07761 12670 /0406 10050 20030 30123 40134 51007 60006 81500 92100=
07761,1997-12-29 00:00:00,5,1013,-0.4,87,3,20000,11.112,,,40,,,,,,,,,,,wg-a,,,,AAXX 29004 07761 12670 /0406 10050 20030 30119 40130 56004 60006 81500 90000=
07761,1997-12-29 03:00:00,6,1012.8,-0.2,81,3,20000,14.816,,,40,,,,,,,,,,,wg-a,,,,AAXX 29034 07761 12670 20408 10060 20030 30117 40128 58002 60006 82500 90300=
07761,1997-12-29 06:00:00,5,1012.9,0.1,81,2,20000,14.816,,,50,4.7,7.4,,,,,,,,,wg-a,,,,AAXX 29064 07761 02670 20508 10050 20020 30118 40129 53001 60006 82500 90600 333 10074 20047 60004=
07761,1997-12-29 09:00:00,8,1014.5,1.6,71,3,40000,11.112,,,40,,,,,,,,,,,wg-a,,,,AAXX 29094 07761 12682 /0406 10080 20030 30134 40145 52016 60006 81800 90900=
07761,1997-12-29 12:00:00,14,1013.7,-0.8,47,3,50000,11.112,,,210,,,,,,,,,,,wg-a,,,,AAXX 29124 07761 12584 /2106 10140 20030 30126 40137 56008 60006 81100 91200=
07761,1997-12-29 15:00:00,13,1014.1,0.4,58,5,50000,11.112,,,250,,,,,,,,,,,wg-a,,,,AAXX 29154 07761 12584 /2506 10130 20050 30130 40141 53004 60006 81800 91500=
07761,1997-12-29 18:00:00,7,1015.3,1.2,76,3,20000,14.816,,,50,3.9,14.6,,,,,,,,,wg-a,,,,AAXX 29184 07761 12770 /0508 10070 20030 30142 40153 53012 60006 81500 91800 333 10146 20039=
07761,1997-12-29 21:00:00,5,1016.3,1,75,1,20000,18.52,,,40,,,,,,,,,,,wg-a,,,,AAXX 29214 07761 12/70 00410 10050 20010 30152 40163 51010 60006 80000 92100=
07761,1997-12-30 00:00:00,4,1016.8,0.5,75,0,20000,14.816,,,40,,,,,,,,,,,wg-a,,,,AAXX 30004 07761 12/70 00408 10040 20000 30157 40168 52005 60006 80000 90000=
07761,1997-12-30 03:00:00,4,1017,0.2,75,0,20000,14.816,,,40,,,,,,,,,,,wg-a,,,,AAXX 30034 07761 12/70 00408 10040 20000 30159 40170 50002 60006 80000 90300=
07761,1997-12-30 06:00:00,7,1016.7,-0.3,66,1,20000,14.816,,,40,3.5,7.1,,,,,,,,,wg-a,,,,AAXX 30064 07761 02670 70408 10070 20010 30156 40167 56003 60006 875// 90600 333 10071 20035 60004=
07761,1997-12-30 09:00:00,10,1018.5,1.8,66,4,20000,11.112,,,40,,,,,,,,,,,wg-a,,,,AAXX 30094 07761 12670 70406 10100 20040 30174 40185 53018 60006 8357/ 90900=
07761,1997-12-30 12:00:00,14,1017.5,-1,67,8,10000,11.112,,,230,,,,,,,,,,62,wg-a,,,,AAXX 30124 07761 02660 72306 10140 20080 30164 40175 58010 61000 76262 8387/ 91200 333 6100=
07761,1997-12-30 15:00:00,11,1017.3,-0.2,94,10,10000,11.112,,,60,,,,1,,,,,,60,wg-a,,,,AAXX 30154 07761 12460 80606 10110 20100 30162 40173 57002 60017 76066 8557/ 91500=
07761,1997-12-30 18:00:00,11,1017.5,0.2,94,10,10000,11.112,,,30,6.6,14.1,,,,,,,,21,wg-a,,,,AAXX 30184 07761 02660 70306 10110 20100 30164 40175 51002 61000 72162 8357/ 91800 333 10141 20066 6001=
07761,1997-12-30 21:00:00,10,1017,-0.5,87,8,15000,11.112,,,50,,,,,,,,,,,wg-a,,,,AAXX 30214 07761 12665 20506 10100 20080 30159 40170 58005 60006 82530 92100=
07761,1997-12-31 00:00:00,7,1015.7,-1.3,93,6,11000,14.816,,,50,,,,,,,,,,,wg-a,,,,AAXX 31004 07761 12/61 /0508 10070 20060 30146 40157 58013 60006 90000=
07761,1997-12-31 03:00:00,6,1015.5,-0.2,93,5,15000,18.52,,,60,,,,,,,,,,,wg-a,,,,AAXX 31034 07761 12665 /0610 10060 20050 30144 40155 58002 60006 81530 90300=
07761,1997-12-31 06:00:00,5,1015.2,-0.3,93,4,15000,14.816,,,50,4.9,11.2,,,,,2,,,,wg-a,,,,AAXX 31064 07761 02665 20508 10050 20040 30141 40152 55003 60006 81501 90600 333 10112 20049 60024=
07761,1997-12-31 09:00:00,9,1015.9,0.7,87,7,50000,14.816,,,40,,,,0,,,,,,,wg-a,,,,AAXX 31094 07761 12684 30408 10090 20070 30148 40159 53007 60007 81542 90900=
07761,1997-12-31 12:00:00,15,1014.2,-1.7,67,9,50000,7.408,,,210,,,,,,,,,,,wg-a,,,,AAXX 31124 07761 12784 42104 10150 20090 30131 40142 58017 60006 81142 91200=
07761,1997-12-31 15:00:00,14,1014,-0.2,77,10,11000,3.704,,,190,,,,,,,,,,,wg-a,,,,AAXX 31154 07761 12/61 /1902 10140 20100 30129 40140 55002 60006 91500=
07761,1997-12-31 18:00:00,8,1014.9,0.9,93,7,20000,14.816,,,50,4.5,16.6,,,,,,,,,wg-a,,,,AAXX 31184 07761 12/70 00508 10080 20070 30138 40149 51009 60006 80000 91800 333 10166 20045=
07761,1997-12-31 21:00:00,7,1016,1.1,93,6,20000,11.112,,,60,,,,,,,,,,,wg-a,,,,AAXX 31214 07761 12/70 30606 10070 20060 30149 40160 53011 60006 80002 92100=
