station_id,dh_utc,temperature,pression,pression_variation_3h,humidite,point_de_rosee,visibilite,vent_moyen,vent_rafales,vent_rafales_10min,vent_direction,temperature_min,temperature_max,pluie_1h,pluie_3h,pluie_6h,pluie_12h,pluie_24h,ensoleillement,temperature_sol,temps_omm,source,radiations,neige_au_sol,nebulosite,raw_msg
07761,1998-01-01 00:00:00,7,1016.1,0.1,81,4,20000,11.112,,,60,,,,,,,,,,,wg-a,,,,AAXX 01004 07761 12/70 20606 10070 20040 30150 40161 50001 60006 80002 90000=
07761,1998-01-01 03:00:00,5,1016.3,0.2,87,3,10000,11.112,,,50,,,,,,,,,,,wg-a,,,,AAXX 01034 07761 12/60 /0506 10050 20030 30152 40163 50002 60006 90300=
07761,1998-01-01 06:00:00,5,1017.2,0.9,81,2,20000,14.816,,,50,4.5,8.5,,,,,,,,,wg-a,,,,AAXX 01064 07761 02670 /0508 10050 20020 30161 40172 53009 60006 81100 90600 333 10085 20045 60004=
07761,1998-01-01 09:00:00,9,1018.9,1.7,81,6,500,11.112,,,60,,,,,,,,,,,wg-a,,,,AAXX 01094 07761 12600 30606 10090 20060 30178 40189 53017 60006 81341 90900=
07761,1998-01-01 12:00:00,16,1018,-0.9,55,7,500,3.704,,,250,,,,,,,,,,,wg-a,,,,AAXX 01124 07761 12600 /2502 10160 20070 30169 40180 58009 60006 81241 91200=
07761,1998-01-01 18:00:00,10,1019.1,0.8,76,6,20000,11.112,,,50,3.8,17,,,,,,,,,wg-a,,,,AAXX 01184 07761 12/70 30506 10100 20060 30180 40191 51008 60006 80001 91800 333 10170 20038=
07761,1998-01-02 00:00:00,7,1018.4,-0.6,81,4,20000,14.816,,,40,,,,,,,,,,,wg-a,,,,AAXX 02004 07761 12/70 00408 10070 20040 30173 40184 58006 60006 80000 90000=
07761,1998-01-02 03:00:00,6,1017.2,-1.2,87,4,20000,14.816,,,50,,,,,,,,,,,wg-a,,,,AAXX 02034 07761 12/70 00508 10060 20040 30161 40172 58012 60006 80000 90300=
07761,1998-01-02 09:00:00,11,1016,-0.4,76,7,500,7.408,,,40,,,,,,,,,,,wg-a,,,,AAXX 02094 07761 12500 70404 10110 20070 30149 40160 55004 60006 83842 90900=
07761,1998-01-02 12:00:00,15,1014.1,-1.9,77,11,500,7.408,,,230,,,,,,,,,,,wg-a,,,,AAXX 02124 07761 12500 72304 10150 20110 30130 40141 58019 60006 83841 91200=
07761,1998-01-02 15:00:00,14,1012.1,-2,82,11,500,3.704,,,120,,,,0,,,,,,3,wg-a,,,,AAXX 02154 07761 12500 71202 10140 20110 30110 40121 56020 60007 70386 85836 91500=
07761,1998-01-02 18:00:00,12,1010.8,-1.3,88,10,10000,11.112,,,110,5.8,16.1,,,,,,,,80,wg-a,,,,AAXX 02184 07761 02460 81106 10120 20100 30097 40108 58013 61000 78086 8787/ 91800 333 10161 20058 6001=
07761,1998-01-02 21:00:00,11,1008.7,-2.1,94,10,10000,7.408,,,340,,,,8,,,,,,25,wg-a,,,,AAXX 02214 07761 12460 83404 10110 20100 30076 40087 57021 60087 72598 878// 92100=
07761,1998-01-03 00:00:00,12,1008,-0.7,71,7,11000,22.224,,,290,,,,,,,,,,,wg-a,,,,AAXX 03004 07761 12/61 /2912 10120 20070 30069 40080 58007 60086 90000=
07761,1998-01-03 03:00:00,12,1007.6,-0.4,62,5,15000,7.408,,,300,,,,,,,,,,,wg-a,,,,AAXX 03034 07761 12665 /3004 10120 20050 30065 40076 58004 60006 86500 90300=
07761,1998-01-03 06:00:00,7,1010.6,3,87,5,15000,11.112,,,50,6.9,13.2,,,,,10,,,,wg-a,,,,AAXX 03064 07761 02765 /0506 10070 20050 30095 40106 53030 60006 81500 90600 333 10132 20069 60104=
07761,1998-01-03 09:00:00,9,1015.2,4.6,81,6,15000,14.816,,,30,,,,,,,,,,,wg-a,,,,AAXX 03094 07761 12565 /0308 10090 20060 30141 40152 51046 60006 81800 90900=
07761,1998-01-03 12:00:00,14,1016.4,1.2,67,8,20000,14.816,,,240,,,,,,,,,,,wg-a,,,,AAXX 03124 07761 12670 42408 10140 20080 30153 40164 51012 60006 82801 91200=
07761,1998-01-03 15:00:00,15,1017.7,1.3,59,7,20000,7.408,,,300,,,,,,,,,,,wg-a,,,,AAXX 03154 07761 12570 /3004 10150 20070 30166 40177 53013 60006 81800 91500=
07761,1998-01-03 21:00:00,7,1019.8,0.2,87,5,20000,11.112,,,50,,,,,,,,,,,wg-a,,,,AAXX 03214 07761 12/70 20506 10070 20050 30187 40198 53002 60006 80001 92100=
07761,1998-01-04 00:00:00,9,1019.1,-0.7,81,6,20000,11.112,,,20,,,,,,,,,,,wg-a,,,,AAXX 04004 07761 12570 40206 10090 20060 30180 40191 58007 60006 81501 90000=
07761,1998-01-04 09:00:00,11,1020.7,2.5,82,8,15000,11.112,,,40,,,,,,,,,,,wg-a,,,,AAXX 04094 07761 12465 80406 10110 20080 30196 40207 53025 60006 875// 90900=
07761,1998-01-04 12:00:00,16,1020.4,-0.3,77,12,15000,3.704,,,280,,,,,,,,,,,wg-a,,,,AAXX 04124 07761 12465 82802 10160 20120 30193 40204 58003 60006 8682/ 91200=
07761,1998-01-04 15:00:00,15,1018.5,-1.9,82,12,15000,0,,,0,,,,,,,,,,,wg-a,,,,AAXX 04154 07761 12765 80000 10150 20120 30174 40185 57019 60006 8152/ 91500=
07761,1998-01-04 18:00:00,11,1018.7,0.2,94,10,15000,11.112,,,60,7.1,15.6,,,,,,,,,wg-a,,,,AAXX 04184 07761 12/65 80606 10110 20100 30176 40187 53002 60006 80002 91800 333 10156 20071=
07761,1998-01-05 00:00:00,10,1019.5,-0,87,8,15000,14.816,,,50,,,,,,,,,,,wg-a,,,,AAXX 05004 07761 12465 20508 10100 20080 30184 40195 55000 60006 82500 90000=
07761,1998-01-05 03:00:00,8,1018.3,-1.2,87,6,15000,11.112,,,40,,,,,,,,,,,wg-a,,,,AAXX 05034 07761 12/65 /0406 10080 20060 30172 40183 56012 60006 80001 90300=
07761,1998-01-05 06:00:00,7,1019.3,1,93,6,15000,14.816,,,60,6.6,11.4,,,,,,,,,wg-a,,,,AAXX 05064 07761 02565 40608 10070 20060 30182 40193 51010 60006 81582 90600 333 10114 20066 60004=
07761,1998-01-05 09:00:00,10,1020.4,1.1,82,7,500,11.112,,,50,,,,,,,,,,,wg-a,,,,AAXX 05094 07761 12500 /0506 10100 20070 30193 40204 53011 60006 81132 90900=
07761,1998-01-05 12:00:00,14,1020,-0.4,82,11,35000,7.408,,,210,,,,,,,,,,,wg-a,,,,AAXX 05124 07761 12581 /2104 10140 20110 30189 40200 58004 60006 81152 91200=
07761,1998-01-05 15:00:00,14,1019.7,-0.3,82,11,500,11.112,,,240,,,,,,,,,,,wg-a,,,,AAXX 05154 07761 12500 /2406 10140 20110 30186 40197 55003 60006 81182 91500=
07761,1998-01-05 21:00:00,8,1021.6,0.7,87,6,12000,14.816,,,50,,,,0,,,,,,,wg-a,,,,AAXX 05214 07761 12462 50508 10080 20060 30205 40216 51007 60007 82530 92100=
07761,1998-01-06 06:00:00,6,1021.4,-0,93,5,20000,11.112,,,40,5,9.5,,,,,,,,,wg-a,,,,AAXX 06064 07761 02570 20406 10060 20050 30203 40214 55000 60006 81502 90600 333 10095 20050 60004=
07761,1998-01-06 09:00:00,9,1022.8,1.4,81,6,20000,14.816,,,50,,,,,,,,,,,wg-a,,,,AAXX 06094 07761 12570 /0508 10090 20060 30217 40228 53014 60006 81542 90900=
07761,1998-01-06 12:00:00,16,1022.4,-0.4,68,10,20000,3.704,,,220,,,,,,,,,,,wg-a,,,,AAXX 06124 07761 12670 52202 10160 20100 30213 40224 58004 60006 84841 91200=
07761,1998-01-06 18:00:00,9,1023.4,1,87,7,20000,11.112,,,50,4.9,16.7,,,,,,,,,wg-a,,,,AAXX 06184 07761 12570 /0506 10090 20070 30223 40234 53010 60006 81501 91800 333 10167 20049=
07761,1998-01-06 21:00:00,7,1023.8,0.4,87,5,20000,18.52,,,50,,,,,,,,,,,wg-a,,,,AAXX 06214 07761 12/70 00510 10070 20050 30227 40238 50004 60006 80000 92100=
07761,1998-01-07 09:00:00,8,1025.3,1.2,81,5,500,14.816,,,60,,,,,,,,,,,wg-a,,,,AAXX 07094 07761 12500 40608 10080 20050 30242 40253 53012 60006 84801 90900=
07761,1998-01-07 12:00:00,17,1024.3,-1,48,6,500,3.704,,,190,,,,,,,,,,,wg-a,,,,AAXX 07124 07761 12600 21902 10170 20060 30232 40243 58010 60006 81131 91200=
07761,1998-01-07 15:00:00,15,1024.8,0.5,67,9,500,11.112,,,250,,,,,,,,,,,wg-a,,,,AAXX 07154 07761 12600 32506 10150 20090 30237 40248 53005 60006 82131 91500=
07761,1998-01-07 18:00:00,9,1026.8,2,81,6,500,14.816,,,60,4.2,17.5,,,,,,,,,wg-a,,,,AAXX 07184 07761 12600 30608 10090 20060 30257 40268 53020 60006 81131 91800 333 10175 20042=
07761,1998-01-07 21:00:00,8,1027.9,1.1,81,5,20000,14.816,,,40,,,,,,,,,,,wg-a,,,,AAXX 07214 07761 12670 /0408 10080 20050 30268 40279 51011 60006 83500 92100=
07761,1998-01-08 00:00:00,6,1028.7,0.8,87,4,20000,18.52,,,50,,,,,,,,,,,wg-a,,,,AAXX 08004 07761 12570 30510 10060 20040 30276 40287 51008 60006 83830 90000=
07761,1998-01-08 03:00:00,6,1029.2,0.5,87,4,20000,14.816,,,40,,,,,,,,,,,wg-a,,,,AAXX 08034 07761 12670 /0408 10060 20040 30281 40292 50005 60006 81500 90300=
07761,1998-01-08 06:00:00,5,1030,0.8,87,3,25000,14.816,,,50,4.4,9,,,,,,,,,wg-a,,,,AAXX 08064 07761 02/75 /0508 10050 20030 30289 40300 53008 60006 81030 90600 333 10090 20044 60004=
07761,1998-01-08 09:00:00,9,1031.6,1.6,81,6,35000,14.816,,,40,,,,,,,,,,,wg-a,,,,AAXX 08094 07761 12781 /0408 10090 20060 30305 40316 53016 60006 81131 90900=
07761,1998-01-08 15:00:00,15,1031.2,-0,72,10,35000,14.816,,,210,,,,,,,,,,,wg-a,,,,AAXX 08154 07761 12681 /2108 10150 20100 30301 40312 55000 60006 81401 91500=
07761,1998-01-08 18:00:00,10,1032.6,1.4,87,8,20000,14.816,,,50,4.7,15.9,,,,,,,,,wg-a,,,,AAXX 08184 07761 12770 /0508 10100 20080 30315 40326 53014 60006 81500 91800 333 10159 20047=
07761,1998-01-08 21:00:00,7,1033.4,0.8,87,5,20000,11.112,,,40,,,,,,,,,,,wg-a,,,,AAXX 08214 07761 12/70 /0406 10070 20050 30323 40334 53008 60006 80000 92100=
07761,1998-01-09 00:00:00,5,1033.6,0.2,93,4,20000,14.816,,,40,,,,,,,,,,,wg-a,,,,AAXX 09004 07761 12/70 00408 10050 20040 30325 40336 50002 60006 80000 90000=
07761,1998-01-09 03:00:00,5,1033.3,-0.3,87,3,20000,14.816,,,40,,,,,,,,,,,wg-a,,,,AAXX 09034 07761 12/70 /0408 10050 20030 30322 40333 56003 60006 80000 90300=
07761,1998-01-09 06:00:00,4,1033.1,-0.2,87,2,10000,14.816,,,40,3.7,9.5,,,,,,,,,wg-a,,,,AAXX 09064 07761 02/60 00408 10040 20020 30320 40331 55002 60006 80000 90600 333 10095 20037 60004=
07761,1998-01-09 09:00:00,8,1034.2,1.1,81,5,15000,11.112,,,50,,,,,,,,,,,wg-a,,,,AAXX 09094 07761 12565 10506 10080 20050 30331 40342 51011 60006 81502 90900=
07761,1998-01-09 12:00:00,15,1033.7,-0.5,59,7,35000,11.112,,,230,,,,,,,,,,,wg-a,,,,AAXX 09124 07761 12581 /2306 10150 20070 30326 40337 58005 60006 81102 91200=
07761,1998-01-09 15:00:00,14,1033.1,-0.6,77,10,35000,14.816,,,180,,,,,,,,,,,wg-a,,,,AAXX 09154 07761 12581 /1808 10140 20100 30320 40331 56006 60006 81101 91500=
07761,1998-01-09 18:00:00,8,1033.8,0.7,93,7,10000,11.112,,,70,3.4,14.7,,,,,,,,,wg-a,,,,AAXX 09184 07761 12460 50706 10080 20070 30327 40338 53007 60006 81502 91800 333 10147 20034=
07761,1998-01-09 21:00:00,5,1033.6,-0.2,93,4,15000,11.112,,,60,,,,0,,,,,,,wg-a,,,,AAXX 09214 07761 12/65 00606 10050 20040 30325 40336 56002 60007 80000 92100=
07761,1998-01-10 00:00:00,3,1034.1,0.5,93,2,15000,14.816,,,50,,,,,,,,,,,wg-a,,,,AAXX 10004 07761 12/65 00508 10030 20020 30330 40341 53005 60006 80000 90000=
07761,1998-01-10 03:00:00,3,1033.2,-0.9,93,2,15000,11.112,,,50,,,,,,,,,,,wg-a,,,,AAXX 10034 07761 12/65 00506 10030 20020 30321 40332 56009 60006 80000 90300=
07761,1998-01-10 06:00:00,3,1033.1,-0.1,87,1,15000,11.112,,,60,2.3,8.3,,,,,,,,,wg-a,,,,AAXX 10064 07761 02/65 00606 10030 20010 30320 40331 55001 60006 80000 90600 333 10083 20023 60004=
07761,1998-01-10 09:00:00,7,1033.7,0.6,81,4,500,11.112,,,50,,,,,,,,,,,wg-a,,,,AAXX 10094 07761 12700 /0506 10070 20040 30326 40337 51006 60006 81502 90900=
07761,1998-01-10 12:00:00,14,1032.6,-1.1,72,9,500,7.408,,,250,,,,,,,,,,,wg-a,,,,AAXX 10124 07761 12600 /2504 10140 20090 30315 40326 58011 60006 81101 91200=
07761,1998-01-10 15:00:00,14,1031.9,-0.7,72,9,500,7.408,,,200,,,,,,,,,,,wg-a,,,,AAXX 10154 07761 12600 /2004 10140 20090 30308 40319 56007 60006 81101 91500=
07761,1998-01-10 18:00:00,8,1031.4,-0.5,87,6,25000,11.112,,,60,1.9,14.4,,,,,,,,,wg-a,,,,AAXX 10184 07761 12575 /0606 10080 20060 30303 40314 56005 60006 81831 91800 333 10144 20019=
07761,1998-01-10 21:00:00,5,1031.3,-0.1,93,4,25000,11.112,,,50,,,,,,,,,,,wg-a,,,,AAXX 10214 07761 12575 /0506 10050 20040 30302 40313 58001 60006 81500 92100=
07761,1998-01-11 00:00:00,4,1030.8,-0.5,87,2,25000,14.816,,,50,,,,,,,,,,,wg-a,,,,AAXX 11004 07761 12575 30508 10040 20020 30297 40308 56005 60006 81501 90000=
07761,1998-01-11 03:00:00,3,1030.5,-0.3,87,1,25000,14.816,,,50,,,,,,,,,,,wg-a,,,,AAXX 11034 07761 12/75 30508 10030 20010 30294 40305 57003 60006 80002 90300=
07761,1998-01-11 06:00:00,1,1030,-0.5,93,0,25000,14.816,,,60,1,7.8,,,,,,,,,wg-a,,,,AAXX 11064 07761 02475 /0608 10010 20000 30289 40300 56005 60006 81501 90600 333 10078 20010 60004=
07761,1998-01-11 09:00:00,7,1030.3,0.3,70,2,25000,14.816,,,50,,,,,,,,,,,wg-a,,,,AAXX 11094 07761 12/75 50508 10070 20020 30292 40303 51003 60006 80001 90900=
07761,1998-01-11 12:00:00,13,1029.1,-1.2,62,6,25000,7.408,,,250,,,,,,,,,,,wg-a,,,,AAXX 11124 07761 12/75 52504 10130 20060 30280 40291 58012 60006 80002 91200=
07761,1998-01-11 15:00:00,13,1028.2,-0.9,82,10,25000,7.408,,,240,,,,,,,,,,,wg-a,,,,AAXX 11154 07761 12/75 32404 10130 20100 30271 40282 56009 60006 80002 91500=
07761,1998-01-11 18:00:00,8,1028.1,-0.1,87,6,25000,14.816,,,60,1.6,14.5,,,,,,,,,wg-a,,,,AAXX 11184 07761 12475 /0608 10080 20060 30270 40281 58001 60006 81502 91800 333 10145 20016=
07761,1998-01-11 21:00:00,5,1028.1,0,87,3,10000,11.112,,,50,,,,,,,,,,,wg-a,,,,AAXX 11214 07761 12460 /0506 10050 20030 30270 40281 50000 60006 81502 92100=
07761,1998-01-12 00:00:00,3,1027.7,-0.4,87,1,10000,14.816,,,50,,,,,,,,,,,wg-a,,,,AAXX 12004 07761 12660 20508 10030 20010 30266 40277 58004 60006 81502 90000=
07761,1998-01-12 03:00:00,2,1026.9,-0.8,87,0,10000,14.816,,,50,,,,,,,,,,,wg-a,,,,AAXX 12034 07761 12660 20508 10020 20000 30258 40269 58008 60006 81502 90300=
07761,1998-01-12 06:00:00,2,1026.7,-0.2,87,0,15000,14.816,,,50,1.7,7.6,,,,,,,,,wg-a,,,,AAXX 12064 07761 02665 20508 10020 20000 30256 40267 55002 60006 81502 90600 333 10076 20017 60004=
07761,1998-01-12 09:00:00,7,1027.7,1,76,3,500,11.112,,,40,,,,,,,,,,,wg-a,,,,AAXX 12094 07761 12500 20406 10070 20030 30266 40277 51010 60006 81502 90900=
07761,1998-01-12 12:00:00,14,1025.7,-2,72,9,35000,14.816,,,230,,,,,,,,,,,wg-a,,,,AAXX 12124 07761 12/81 32308 10140 20090 30246 40257 56020 60006 81032 91200=
07761,1998-01-12 15:00:00,14,1025,-0.7,67,8,35000,3.704,,,180,,,,,,,,,,,wg-a,,,,AAXX 12154 07761 12/81 71802 10140 20080 30239 40250 58007 60006 83032 91500=
07761,1998-01-12 18:00:00,10,1024.4,-0.6,82,7,20000,11.112,,,50,0.8,15,,,,,,,,,wg-a,,,,AAXX 12184 07761 12/70 50506 10100 20070 30233 40244 56006 60006 83032 91800 333 10150 20008=
07761,1998-01-12 21:00:00,6,1024,-0.4,87,4,11000,11.112,,,50,,,,,,,,,,,wg-a,,,,AAXX 12214 07761 12/61 /0506 10060 20040 30229 40240 58004 60006 92100=
07761,1998-01-13 00:00:00,4,1022.5,-1.5,93,3,18000,14.816,,,50,,,,,,,,,,,wg-a,,,,AAXX 13004 07761 12/68 60508 10040 20030 30214 40225 58015 60006 80006 90000=
07761,1998-01-13 09:00:00,8,1020.4,-0.6,76,4,25000,11.112,,,50,,,,,,,,,,,wg-a,,,,AAXX 13094 07761 12675 30506 10080 20040 30193 40204 56006 60006 81506 90900=
07761,1998-01-13 12:00:00,15,1018.6,-1.8,63,8,20000,3.704,,,240,,,,,,,,,,,wg-a,,,,AAXX 13124 07761 12670 72402 10150 20080 30175 40186 58018 60006 81502 91200=
07761,1998-01-13 21:00:00,9,1017.3,-0.5,87,7,15000,7.408,,,50,,,,,,,,,,,wg-a,,,,AAXX 13214 07761 12665 70504 10090 20070 30162 40173 58005 60006 8153/ 92100=
07761,1998-01-14 00:00:00,10,1016.9,-0.4,82,7,15000,7.408,,,50,,,,0,,,,,,60,wg-a,,,,AAXX 14004 07761 02665 80504 10100 20070 30158 40169 58004 60006 76062 875// 90000 333 60007=
07761,1998-01-14 03:00:00,10,1015.5,-1.4,87,8,15000,14.816,,,60,,,,0,,,,,,1,wg-a,,,,AAXX 14034 07761 12465 80608 10100 20080 30144 40155 58014 60007 70162 885// 90300=
07761,1998-01-14 09:00:00,11,1015.3,0.7,94,10,10000,11.112,,,70,,,,2,,,,,,21,wg-a,,,,AAXX 14094 07761 12460 80706 10110 20100 30142 40153 53007 60027 72162 865// 90900=
07761,1998-01-14 12:00:00,12,1015.9,0.6,94,11,15000,3.704,,,100,,,,2,,,,,,61,wg-a,,,,AAXX 14124 07761 02465 81002 10120 20110 30148 40159 50006 60046 76162 865// 91200 333 60027=
07761,1998-01-14 15:00:00,13,1016.2,0.3,82,10,15000,7.408,,,290,,,,1,,,,,,21,wg-a,,,,AAXX 14154 07761 12465 72904 10130 20100 30151 40162 53003 60017 72162 8687/ 91500=
07761,1998-01-14 18:00:00,10,1018.2,2,87,8,18000,3.704,,,60,10.1,13.6,,,,,,,,2,wg-a,,,,AAXX 14184 07761 12468 70602 10100 20080 30171 40182 53020 60006 70262 8683/ 91800 333 10136 20101=
07761,1998-01-14 21:00:00,9,1018.9,0.7,87,7,15000,11.112,,,50,,,,0,,,,,,21,wg-a,,,,AAXX 14214 07761 12565 /0506 10090 20070 30178 40189 51007 60007 72161 86800 92100=
07761,1998-01-15 00:00:00,9,1019.7,0.8,87,7,15000,14.816,,,40,,,,1,,,,,,25,wg-a,,,,AAXX 15004 07761 02565 50408 10090 20070 30186 40197 50008 60026 72586 85800 90000 333 60017=
07761,1998-01-15 03:00:00,8,1020,0.3,87,6,20000,14.816,,,50,,,,0,,,,,,1,wg-a,,,,AAXX 15034 07761 12570 40508 10080 20060 30189 40200 51003 60007 70186 84800 90300=
07761,1998-01-15 06:00:00,6,1020.5,0.5,87,4,25000,14.816,,,50,6,10.1,,,,,7,,,1,wg-a,,,,AAXX 15064 07761 02575 20508 10060 20040 30194 40205 53005 60006 70186 82800 90600 333 10101 20060 60074=
07761,1998-01-15 12:00:00,15,1022.1,-0.1,55,6,500,11.112,,,220,,,,,,,,,,,wg-a,,,,AAXX 15124 07761 12500 22206 10150 20060 30210 40221 58001 60006 81880 91200=
07761,1998-01-15 18:00:00,10,1024,1,76,6,20000,14.816,,,50,5,15.4,,,,,,,,,wg-a,,,,AAXX 15184 07761 12670 /0508 10100 20060 30229 40240 51010 60006 81502 91800 333 10154 20050=
07761,1998-01-15 21:00:00,6,1025,1,87,4,11000,11.112,,,40,,,,,,,,,,,wg-a,,,,AAXX 15214 07761 12/61 /0406 10060 20040 30239 40250 53010 60006 92100=
07761,1998-01-16 00:00:00,4,1024.7,-0.3,93,3,20000,14.816,,,50,,,,,,,,,,,wg-a,,,,AAXX 16004 07761 12670 20508 10040 20030 30236 40247 58003 60006 81501 90000=
07761,1998-01-16 03:00:00,5,1024.3,-0.4,87,3,15000,14.816,,,40,,,,,,,,,,,wg-a,,,,AAXX 16034 07761 12665 20408 10050 20030 30232 40243 58004 60006 81501 90300=
07761,1998-01-16 06:00:00,4,1023.1,-1.2,87,2,15000,11.112,,,40,3.2,9.5,,,,,,,,,wg-a,,,,AAXX 16064 07761 02665 20406 10040 20020 30220 40231 58012 60006 81501 90600 333 10095 20032 60004=
07761,1998-01-16 09:00:00,7,1023.1,-0,87,5,35000,14.816,,,50,,,,,,,,,,,wg-a,,,,AAXX 16094 07761 12581 60508 10070 20050 30220 40231 55000 60006 81232 90900=
07761,1998-01-16 12:00:00,14,1021.9,-1.2,67,8,500,3.704,,,210,,,,,,,,,,,wg-a,,,,AAXX 16124 07761 12500 72102 10140 20080 30208 40219 58012 60006 83832 91200=
07761,1998-01-16 15:00:00,13,1020.2,-1.7,62,6,20000,22.224,,,260,,,,,,,,,,,wg-a,,,,AAXX 16154 07761 12570 82612 10130 20060 30191 40202 56017 60006 8585/ 91500=
07761,1998-01-16 21:00:00,8,1016.2,-2.3,93,7,10000,11.112,,,40,,,,3,,,,,,21,wg-a,,,,AAXX 16214 07761 12560 70406 10080 20070 30151 40162 58023 60037 72162 8585/ 92100=
07761,1998-01-17 00:00:00,11,1013.5,-2.7,71,6,12000,14.816,,,300,,,,2,,,,,,80,wg-a,,,,AAXX 17004 07761 02562 83008 10110 20060 30124 40135 56027 60066 78096 879// 90000 333 60027=
07761,1998-01-17 03:00:00,8,1011.6,-1.9,93,7,12000,11.112,,,70,,,,2,,,,,,61,wg-a,,,,AAXX 17034 07761 12562 70706 10080 20070 30105 40116 56019 60027 76198 873// 90300=
07761,1998-01-17 06:00:00,7,1011.5,-0.1,93,6,10000,11.112,,,100,6.9,11.1,,,,,,,,21,wg-a,,,,AAXX 17064 07761 02460 71006 10070 20060 30104 40115 55001 61000 72198 85283 90600 333 10111 20069 6009=
07761,1998-01-17 09:00:00,8,1013.2,1.7,93,7,18000,11.112,,,50,,,,,,,,,,,wg-a,,,,AAXX 17094 07761 12568 70506 10080 20070 30121 40132 53017 60006 84872 90900=
07761,1998-01-17 12:00:00,14,1014.1,0.9,58,6,25000,7.408,,,70,,,,,,,,,,,wg-a,,,,AAXX 17124 07761 12575 30704 10140 20060 30130 40141 51009 60006 83831 91200=
07761,1998-01-17 21:00:00,7,1020.7,1.7,81,4,15000,11.112,,,30,,,,,,,,,,,wg-a,,,,AAXX 17214 07761 12/65 /0306 10070 20040 30196 40207 51017 60006 80000 92100=
07761,1998-01-18 00:00:00,6,1021.7,1,81,3,15000,11.112,,,40,,,,,,,,,,,wg-a,,,,AAXX 18004 07761 12/65 00406 10060 20030 30206 40217 51010 60006 80000 90000=
07761,1998-01-18 03:00:00,4,1022.1,0.4,81,1,15000,11.112,,,60,,,,,,,,,,,wg-a,,,,AAXX 18034 07761 12/65 00606 10040 20010 30210 40221 53004 60006 80000 90300=
07761,1998-01-18 06:00:00,3,1022.7,0.6,81,0,15000,18.52,,,40,2.5,9.9,,,,,,,,,wg-a,,,,AAXX 18064 07761 02/65 00410 10030 20000 30216 40227 53006 60006 80000 90600 333 10099 20025 60004=
07761,1998-01-18 12:00:00,15,1022.1,-1,51,5,50000,3.704,,,290,,,,,,,,,,,wg-a,,,,AAXX 18124 07761 12684 32902 10150 20050 30210 40221 58010 60006 81101 91200=
07761,1998-01-18 15:00:00,14,1020.9,-1.2,72,9,35000,11.112,,,240,,,,,,,,,,,wg-a,,,,AAXX 18154 07761 12681 32406 10140 20090 30198 40209 56012 60006 81101 91500=
07761,1998-01-18 18:00:00,10,1020.9,0,82,7,25000,11.112,,,50,1.8,14.7,,,,,,,,,wg-a,,,,AAXX 18184 07761 12575 70506 10100 20070 30198 40209 50000 60006 81101 91800 333 10147 20018=
07761,1998-01-18 21:00:00,8,1020.2,-0.7,87,6,20000,11.112,,,40,,,,,,,,,,,wg-a,,,,AAXX 18214 07761 12570 70406 10080 20060 30191 40202 58007 60006 8557/ 92100=
07761,1998-01-19 00:00:00,9,1017.9,-2.3,81,6,15000,14.816,,,40,,,,,,,,,,,wg-a,,,,AAXX 19004 07761 12565 80408 10090 20060 30168 40179 58023 60006 875// 90000=
07761,1998-01-19 03:00:00,9,1014.8,-3.1,87,7,10000,11.112,,,50,,,,1,,,,,,60,wg-a,,,,AAXX 19034 07761 12460 80506 10090 20070 30137 40148 58031 60017 76062 878// 90300=
07761,1998-01-19 06:00:00,9,1012.7,-2.1,93,8,10000,7.408,,,40,7.2,9.7,,,,,,,,60,wg-a,,,,AAXX 19064 07761 02460 80404 10090 20080 30116 40127 56021 61000 76062 878// 90600 333 10097 20072 6003=
07761,1998-01-19 09:00:00,14,1010.8,-1.9,88,12,6000,29.632,,,220,,,,2,,,,,,60,wg-a,,,,AAXX 19094 07761 12456 82216 10140 20120 30097 40108 57019 60027 76066 8557/ 90900=
07761,1998-01-19 15:00:00,12,1005.9,-3,94,11,7000,7.408,,,130,,,,6,,,,,,61,wg-a,,,,AAXX 19154 07761 12457 81304 10120 20110 30048 40059 58030 60067 76162 8/87/ 91500=
07761,1998-01-19 18:00:00,14,1003.8,-2.1,82,11,8000,53.708,,72.228,270,9.3,14,,,,,,,,25,wg-a,,,,AAXX 19184 07761 02458 /2729 10140 20110 30027 40038 56021 61000 72586 83800 91800 333 10140 20093 6007 91039=
07761,1998-01-19 21:00:00,12,1004.1,0.3,62,5,10000,31.484,,,300,,,,,,,,,,,wg-a,,,,AAXX 19214 07761 12560 /3017 10120 20050 30030 40041 53003 60006 85200 92100=
07761,1998-01-20 00:00:00,12,1005.8,1.7,54,3,10000,7.408,,,320,,,,,,,,,,,wg-a,,,,AAXX 20004 07761 12560 /3204 10120 20030 30047 40058 53017 60006 86800 90000=
07761,1998-01-20 03:00:00,8,1006.5,0.7,87,6,10000,7.408,,,80,,,,,,,,,,,wg-a,,,,AAXX 20034 07761 12560 70804 10080 20060 30054 40065 53007 60006 878// 90300=
07761,1998-01-20 06:00:00,8,1006.4,-0.1,87,6,10000,7.408,,,110,8,13.9,,,,,,,,25,wg-a,,,,AAXX 20064 07761 02560 71104 10080 20060 30053 40064 58001 61000 72522 878// 90600 333 10139 20080 6018=
07761,1998-01-20 09:00:00,12,1004.8,-1.6,58,4,20000,22.224,,50.004,310,,,,,,,,,,,wg-a,,,,AAXX 20094 07761 12570 73112 10120 20040 30037 40048 58016 60006 878// 90900 333 91027=
07761,1998-01-20 12:00:00,10,1000.9,-3.9,46,-1,25000,38.892,,66.672,280,,,,,,,,,,,wg-a,,,,AAXX 20124 07761 12675 72821 10100 21010 39998 40009 56039 60006 878// 91200 333 91036=
07761,1998-01-20 15:00:00,9,1001.3,0.4,53,0,20000,29.632,,61.116,330,,,,1,,,,,,3,wg-a,,,,AAXX 20154 07761 12570 33316 10090 20000 30002 40013 53004 60017 70386 82802 91500 333 91033=
07761,1998-01-20 21:00:00,4,1009.7,3.5,81,1,20000,11.112,,,60,,,,,,,,,,,wg-a,,,,AAXX 20214 07761 12/70 /0606 10040 20010 30086 40097 51035 60006 80001 92100=
07761,1998-01-21 00:00:00,3,1010.2,0.5,81,0,20000,18.52,,,60,,,,,,,,,,,wg-a,,,,AAXX 21004 07761 12/70 00610 10030 20000 30091 40102 50005 60006 80000 90000=
07761,1998-01-21 03:00:00,10,1009.8,-0.4,32,-6,20000,14.816,,68.524,340,,,,,,,,,,,wg-a,,,,AAXX 21034 07761 12670 /3408 10100 21060 30087 40098 58004 60006 81500 90300 333 91037=
07761,1998-01-21 06:00:00,4,1010.9,1.1,70,-1,20000,11.112,,68.524,70,2.5,11.3,,,,,1,,,2,wg-a,,,,AAXX 21064 07761 02670 /0706 10040 21010 30098 40109 52011 60006 70290 81500 90600 333 10113 20025 60014 91037=
07761,1998-01-21 09:00:00,5,1013.1,2.2,65,-1,40000,11.112,,,30,,,,,,,,,,,wg-a,,,,AAXX 21094 07761 12682 /0306 10050 21010 30120 40131 51022 60006 81242 90900=
07761,1998-01-21 12:00:00,13,1013.3,0.2,44,1,50000,11.112,,,240,,,,,,,,,,,wg-a,,,,AAXX 21124 07761 12684 /2406 10130 20010 30122 40133 50002 60006 81142 91200=
07761,1998-01-21 15:00:00,13,1013.1,-0.2,33,-3,50000,11.112,,,190,,,,,,,,,,,wg-a,,,,AAXX 21154 07761 12684 61906 10130 21030 30120 40131 55002 60006 81142 91500=
07761,1998-01-21 21:00:00,4,1015.7,0.7,70,-1,15000,14.816,,,50,,,,,,,,,,,wg-a,,,,AAXX 21214 07761 12/65 20508 10040 21010 30146 40157 51007 60006 80001 92100=
07761,1998-01-22 00:00:00,2,1015.8,0.1,75,-2,15000,14.816,,,60,,,,,,,,,,,wg-a,,,,AAXX 22004 07761 12/65 20608 10020 21020 30147 40158 50001 60006 80001 90000=
07761,1998-01-22 03:00:00,3,1016,0.2,65,-3,15000,14.816,,,30,,,,,,,,,,,wg-a,,,,AAXX 22034 07761 12/65 20308 10030 21030 30149 40160 51002 60006 80001 90300=
07761,1998-01-22 06:00:00,0,1015.7,-0.3,80,-3,25000,11.112,,,70,0.3,5.8,,,,,,,,,wg-a,,,,AAXX 22064 07761 02/75 10706 10000 21030 30146 40157 55003 60006 81040 90600 333 10058 20003 60004=
07761,1998-01-22 09:00:00,6,1016.3,0.6,61,-1,25000,7.408,,,60,,,,,,,,,,,wg-a,,,,AAXX 22094 07761 12675 /0604 10060 21010 30152 40163 52006 60006 81242 90900=
07761,1998-01-22 12:00:00,12,1015,-1.3,50,2,500,11.112,,,220,,,,,,,,,,,wg-a,,,,AAXX 22124 07761 12600 /2206 10120 20020 30139 40150 58013 60006 81800 91200=
07761,1998-01-22 15:00:00,12,1014.1,-0.9,38,-2,500,7.408,,,180,,,,,,,,,,,wg-a,,,,AAXX 22154 07761 12600 /1804 10120 21020 30130 40141 56009 60006 81230 91500=
07761,1998-01-22 18:00:00,6,1014.7,0.6,65,0,25000,14.816,,,50,0.5,13.1,,,,,,,,,wg-a,,,,AAXX 22184 07761 12675 20508 10060 20000 30136 40147 53006 60006 81230 91800 333 10131 20005=
07761,1998-01-22 21:00:00,3,1016,1.3,75,-1,20000,3.704,,,60,,,,,,,,,,,wg-a,,,,AAXX 22214 07761 12/70 00602 10030 21010 30149 40160 51013 60006 80000 92100=
07761,1998-01-23 03:00:00,0,1015.8,-0.4,86,-2,20000,14.816,,,50,,,,,,,,,,,wg-a,,,,AAXX 23034 07761 12/70 20508 10000 21020 30147 40158 58004 60006 82030 90300=
07761,1998-01-23 06:00:00,2,1015.6,-0.2,80,-1,20000,11.112,,,40,-0.1,6.2,,,,,,,,,wg-a,,,,AAXX 23064 07761 02770 50406 10020 21010 30145 40156 55002 60006 82530 90600 333 10062 21001 60004=
07761,1998-01-23 09:00:00,5,1016.7,1.1,70,0,20000,7.408,,,40,,,,,,,,,,,wg-a,,,,AAXX 23094 07761 12670 60404 10050 20000 30156 40167 51011 60006 84830 90900=
07761,1998-01-23 12:00:00,9,1016.9,0.2,57,1,25000,0,,,0,,,,,,,,,,,wg-a,,,,AAXX 23124 07761 12675 70000 10090 20010 30158 40169 50002 60006 83830 91200=
07761,1998-01-23 15:00:00,11,1016.3,-0.6,50,1,25000,3.704,,,200,,,,,,,,,,,wg-a,,,,AAXX 23154 07761 12675 72002 10110 20010 30152 40163 56006 60006 83230 91500=
07761,1998-01-23 18:00:00,9,1017,0.7,57,1,25000,11.112,,,50,1.5,11.9,,,,,,,,,wg-a,,,,AAXX 23184 07761 12675 70506 10090 20010 30159 40170 53007 60006 85830 91800 333 10119 20015=
07761,1998-01-23 21:00:00,7,1017.7,0.7,70,2,25000,7.408,,,40,,,,,,,,,,,wg-a,,,,AAXX 23214 07761 12675 70404 10070 20020 30166 40177 51007 60006 85830 92100=
07761,1998-01-24 00:00:00,6,1017.3,-0.4,81,3,11000,11.112,,,50,,,,,,,,,,,wg-a,,,,AAXX 24004 07761 12/61 /0506 10060 20030 30162 40173 58004 60006 90000=
07761,1998-01-24 03:00:00,6,1016.3,-1,81,3,25000,11.112,,,50,,,,,,,,,,,wg-a,,,,AAXX 24034 07761 12875 70506 10060 20030 30152 40163 58010 60006 8353/ 90300=
07761,1998-01-24 06:00:00,5,1015.9,-0.4,81,2,25000,14.816,,,30,4.4,8.9,,,,,,,,,wg-a,,,,AAXX 24064 07761 02875 70308 10050 20020 30148 40159 56004 60006 8353/ 90600 333 10089 20044 60004=
07761,1998-01-24 09:00:00,7,1015.7,-0.2,70,2,40000,11.112,,,40,,,,,,,,,,,wg-a,,,,AAXX 24094 07761 12782 /0406 10070 20020 30146 40157 58002 60006 81130 90900=
07761,1998-01-24 12:00:00,13,1014.2,-1.5,54,4,35000,11.112,,,240,,,,,,,,,,,wg-a,,,,AAXX 24124 07761 12681 32406 10130 20040 30131 40142 58015 60006 8/800 91200=
07761,1998-01-24 18:00:00,9,1012.8,-0.2,71,4,500,7.408,,,40,3.7,13.3,,,,,,,,,wg-a,,,,AAXX 24184 07761 12600 70404 10090 20040 30117 40128 55002 60006 878// 91800 333 10133 20037=
07761,1998-01-24 21:00:00,6,1013.1,0.3,75,2,15000,11.112,,,50,,,,,,,,,,,wg-a,,,,AAXX 24214 07761 12565 /0506 10060 20020 30120 40131 51003 60006 85500 92100=
07761,1998-01-25 00:00:00,6,1012.5,-0.6,75,2,15000,11.112,,,50,,,,,,,,,,,wg-a,,,,AAXX 25004 07761 12565 50506 10060 20020 30114 40125 58006 60006 85500 90000=
07761,1998-01-25 03:00:00,5,1012.1,-0.4,81,2,15000,11.112,,,30,,,,,,,,,,,wg-a,,,,AAXX 25034 07761 12565 /0306 10050 20020 30110 40121 57004 60006 86500 90300=
07761,1998-01-25 06:00:00,5,1012.7,0.6,75,1,20000,14.816,,,50,4.7,9.4,,,,,,,,,wg-a,,,,AAXX 25064 07761 02770 /0508 10050 20010 30116 40127 53006 60006 86500 90600 333 10094 20047 60004=
07761,1998-01-25 09:00:00,9,1013.9,1.2,57,1,20000,7.408,,,30,,,,,,,,,,,wg-a,,,,AAXX 25094 07761 12770 /0304 10090 20010 30128 40139 51012 60006 83530 90900=
07761,1998-01-25 12:00:00,14,1014.6,0.7,55,5,20000,14.816,,,230,,,,,,,,,,,wg-a,,,,AAXX 25124 07761 12770 52308 10140 20050 30135 40146 51007 60006 82130 91200=
07761,1998-01-25 15:00:00,13,1015.3,0.7,51,3,20000,11.112,,,290,,,,,,,,,,,wg-a,,,,AAXX 25154 07761 12670 /2906 10130 20030 30142 40153 53007 60006 83830 91500=
07761,1998-01-25 18:00:00,9,1016.9,1.6,66,3,20000,11.112,,,50,5.1,14.4,,,,,,,,,wg-a,,,,AAXX 25184 07761 12670 50506 10090 20030 30158 40169 53016 60006 83830 91800 333 10144 20051=
07761,1998-01-25 21:00:00,7,1018.2,1.3,76,3,20000,11.112,,,40,,,,,,,,,,,wg-a,,,,AAXX 25214 07761 12670 /0406 10070 20030 30171 40182 51013 60006 83830 92100=
07761,1998-01-26 00:00:00,4,1018.8,0.6,87,2,20000,11.112,,,50,,,,,,,,,,,wg-a,,,,AAXX 26004 07761 12/70 00506 10040 20020 30177 40188 51006 60006 80000 90000=
07761,1998-01-26 03:00:00,4,1018.7,-0.1,81,1,20000,11.112,,,40,,,,,,,,,,,wg-a,,,,AAXX 26034 07761 12770 /0406 10040 20010 30176 40187 58001 60006 81500 90300=
07761,1998-01-26 06:00:00,3,1018.9,0.2,81,0,20000,11.112,,,40,1.8,8.5,,,,,,,,,wg-a,,,,AAXX 26064 07761 02770 /0406 10030 20000 30178 40189 53002 60006 81500 90600 333 10085 20018 60004=
07761,1998-01-26 09:00:00,7,1019.7,0.8,76,3,25000,11.112,,,50,,,,,,,,,,,wg-a,,,,AAXX 26094 07761 12675 30506 10070 20030 30186 40197 51008 60006 81830 90900=
07761,1998-01-26 12:00:00,13,1019.2,-0.5,62,6,500,14.816,,,240,,,,,,,,,,,wg-a,,,,AAXX 26124 07761 12600 42408 10130 20060 30181 40192 58005 60006 84860 91200=
07761,1998-01-26 15:00:00,13,1018.4,-0.8,67,7,20000,18.52,,,220,,,,,,,,,,,wg-a,,,,AAXX 26154 07761 12670 42210 10130 20070 30173 40184 56008 60006 84830 91500=
07761,1998-01-26 18:00:00,10,1018.9,0.5,76,6,20000,18.52,,,170,2.3,13.7,,,,,,,,,wg-a,,,,AAXX 26184 07761 12570 41710 10100 20060 30178 40189 53005 60006 84830 91800 333 10137 20023=
07761,1998-01-26 21:00:00,5,1019.4,0.5,87,3,15000,7.408,,,70,,,,,,,,,,,wg-a,,,,AAXX 26214 07761 12565 20704 10050 20030 30183 40194 51005 60006 82800 92100=
07761,1998-01-27 00:00:00,4,1019.4,0,87,2,15000,11.112,,,50,,,,,,,,,,,wg-a,,,,AAXX 27004 07761 12565 /0506 10040 20020 30183 40194 50000 60006 81800 90000=
07761,1998-01-27 03:00:00,3,1018.8,-0.6,81,0,15000,14.816,,,40,,,,,,,,,,,wg-a,,,,AAXX 27034 07761 12565 /0408 10030 20000 30177 40188 58006 60006 81800 90300=
07761,1998-01-27 06:00:00,4,1018.3,-0.5,75,0,15000,11.112,,,40,2.5,9.7,,,,,,,,,wg-a,,,,AAXX 27064 07761 02565 /0406 10040 20000 30172 40183 56005 60006 81800 90600 333 10097 20025 60004=
07761,1998-01-27 09:00:00,8,1018.9,0.6,66,2,15000,7.408,,,50,,,,,,,,,,,wg-a,,,,AAXX 27094 07761 12665 60504 10080 20020 30178 40189 51006 60006 86800 90900=
07761,1998-01-27 12:00:00,10,1018.1,-0.8,62,3,15000,3.704,,,310,,,,,,,,,,,wg-a,,,,AAXX 27124 07761 12665 73102 10100 20030 30170 40181 58008 60006 878// 91200=
07761,1998-01-27 15:00:00,12,1016.9,-1.2,54,3,25000,7.408,,,240,,,,,,,,,,,wg-a,,,,AAXX 27154 07761 12675 72404 10120 20030 30158 40169 56012 60006 87800 91500=
07761,1998-01-27 18:00:00,7,1016.7,-0.2,76,3,10000,11.112,,,90,4.2,12,,,,,,,,,wg-a,,,,AAXX 27184 07761 12660 /0906 10070 20030 30156 40167 55002 60006 84800 91800 333 10120 20042=
07761,1998-01-27 21:00:00,4,1017.6,0.9,87,2,15000,7.408,,,50,,,,,,,,,,,wg-a,,,,AAXX 27214 07761 12765 80504 10040 20020 30165 40176 53009 60006 875// 92100=
07761,1998-01-28 00:00:00,3,1017.5,-0.1,81,0,20000,14.816,,,40,,,,,,,,,,,wg-a,,,,AAXX 28004 07761 12770 30408 10030 20000 30164 40175 58001 60006 83500 90000=
07761,1998-01-28 03:00:00,2,1016.8,-0.7,80,-1,20000,14.816,,,40,,,,,,,,,,,wg-a,,,,AAXX 28034 07761 12/70 40408 10020 21010 30157 40168 56007 60006 84030 90300=
07761,1998-01-28 06:00:00,2,1016.5,-0.3,80,-1,20000,14.816,,,40,1.8,6.7,,,,,,,,,wg-a,,,,AAXX 28064 07761 02770 /0408 10020 21010 30154 40165 56003 60006 81500 90600 333 10067 20018 60004=
07761,1998-01-28 09:00:00,6,1017.1,0.6,70,1,500,11.112,,,50,,,,,,,,,,,wg-a,,,,AAXX 28094 07761 12/00 00506 10060 20010 30160 40171 52006 60006 80000 90900=
07761,1998-01-28 12:00:00,12,1016.5,-0.6,54,3,500,14.816,,,220,,,,,,,,,,,wg-a,,,,AAXX 28124 07761 12600 /2208 10120 20030 30154 40165 58006 60006 81100 91200=
07761,1998-01-28 15:00:00,12,1015.7,-0.8,50,2,500,11.112,,,230,,,,,,,,,,,wg-a,,,,AAXX 28154 07761 12600 /2306 10120 20020 30146 40157 56008 60006 81100 91500=
07761,1998-01-28 18:00:00,6,1015.7,-0,75,2,20000,14.816,,,60,1.5,12.5,,,,,,,,,wg-a,,,,AAXX 28184 07761 12/70 00608 10060 20020 30146 40157 55000 60006 80000 91800 333 10125 20015=
07761,1998-01-28 21:00:00,3,1016.4,0.7,87,1,20000,14.816,,,50,,,,,,,,,,,wg-a,,,,AAXX 28214 07761 12/70 00508 10030 20010 30153 40164 53007 60006 80000 92100=
07761,1998-01-29 00:00:00,3,1016.3,-0.1,81,0,20000,14.816,,,40,,,,,,,,,,,wg-a,,,,AAXX 29004 07761 12/70 00408 10030 20000 30152 40163 58001 60006 80000 90000=
07761,1998-01-29 03:00:00,1,1015.3,-1,86,-1,20000,11.112,,,50,,,,,,,,,,,wg-a,,,,AAXX 29034 07761 12/70 00506 10010 21010 30142 40153 56010 60006 80000 90300=
07761,1998-01-29 06:00:00,2,1015.1,-0.2,80,-1,20000,14.816,,,40,0.5,6.1,,,,,,,,,wg-a,,,,AAXX 29064 07761 02/70 00408 10020 21010 30140 40151 56002 60006 80000 90600 333 10061 20005 60004=
07761,1998-01-29 09:00:00,6,1016,0.9,75,2,25000,14.816,,,50,,,,,,,,,,,wg-a,,,,AAXX 29094 07761 12/75 00508 10060 20020 30149 40160 51009 60006 80000 90900=
07761,1998-01-29 12:00:00,14,1015,-1,55,5,500,7.408,,,240,,,,,,,,,,,wg-a,,,,AAXX 29124 07761 12700 /2404 10140 20050 30139 40150 58010 60006 81101 91200=
07761,1998-01-29 15:00:00,13,1014.6,-0.4,54,4,35000,11.112,,,200,,,,,,,,,,,wg-a,,,,AAXX 29154 07761 12781 /2006 10130 20040 30135 40146 56004 60006 81101 91500=
07761,1998-01-29 18:00:00,6,1016,1.4,81,3,500,11.112,,,80,0.8,14.3,,,,,,,,,wg-a,,,,AAXX 29184 07761 12/00 /0806 10060 20030 30149 40160 52014 60006 80000 91800 333 10143 20008=
07761,1998-01-29 21:00:00,4,1017.6,1.6,81,1,25000,14.816,,,50,,,,,,,,,,,wg-a,,,,AAXX 29214 07761 12/75 00508 10040 20010 30165 40176 51016 60006 80000 92100=
07761,1998-01-30 00:00:00,3,1018.3,0.7,87,1,25000,14.816,,,50,,,,,,,,,,,wg-a,,,,AAXX 30004 07761 12/75 00508 10030 20010 30172 40183 51007 60006 80000 90000=
07761,1998-01-30 06:00:00,2,1018.3,-0,87,0,25000,18.52,,,50,1.5,6.6,,,,,,,,,wg-a,,,,AAXX 30064 07761 02/75 00510 10020 20000 30172 40183 55000 60006 80000 90600 333 10066 20015 60004=
07761,1998-01-30 09:00:00,8,1018.9,0.6,71,3,500,7.408,,,40,,,,,,,,,,,wg-a,,,,AAXX 30094 07761 12/00 00404 10080 20030 30178 40189 50006 60006 80000 90900=
07761,1998-01-30 15:00:00,13,1016.1,-1.2,67,7,40000,7.408,,,240,,,,,,,,,,,wg-a,,,,AAXX 30154 07761 12682 42404 10130 20070 30150 40161 56012 60006 83181 91500=
07761,1998-01-30 21:00:00,8,1015.8,0.2,81,5,20000,7.408,,,30,,,,,,,,,,,wg-a,,,,AAXX 30214 07761 12670 /0304 10080 20050 30147 40158 50002 60006 83530 92100=
07761,1998-01-31 03:00:00,6,1012.2,-2.4,87,4,20000,14.816,,,40,,,,,,,,,,,wg-a,,,,AAXX 31034 07761 12870 /0408 10060 20040 30111 40122 56024 60006 81030 90300=
07761,1998-01-31 06:00:00,7,1010.9,-1.3,81,4,20000,11.112,,,60,4.2,8.7,,,,,,,,,wg-a,,,,AAXX 31064 07761 02770 70606 10070 20040 30098 40109 57013 60006 8353/ 90600 333 10087 20042 60004=
07761,1998-01-31 15:00:00,14,1005.9,-2,77,10,500,11.112,,,210,,,,,,,,,,,wg-a,,,,AAXX 31154 07761 12700 72106 10140 20100 30048 40059 56020 60006 81502 91500=
07761,1998-01-31 18:00:00,10,1006.2,0.3,82,7,20000,11.112,,,70,6.4,15.3,,,,,,,,,wg-a,,,,AAXX 31184 07761 12770 70706 10100 20070 30051 40062 52003 60006 83502 91800 333 10153 20064=
07761,1998-02-01 00:00:00,8,1006,-0.1,81,5,25000,11.112,,,40,,,,,,,,,,,wg-a,,,,AAXX 01004 07761 12775 60406 10080 20050 30049 40060 55001 60006 83571 90000=
07761,1998-02-01 06:00:00,6,1005.1,-0.1,87,4,25000,11.112,,,40,6,10.2,,,,,,,,,wg-a,,,,AAXX 01064 07761 02775 50406 10060 20040 30040 40051 55001 60006 82572 90600 333 10102 20060 60004=
07761,1998-02-01 12:00:00,15,1006.7,0.1,72,10,500,11.112,,,220,,,,,,,,,,,wg-a,,,,AAXX 01124 07761 12600 72206 10150 20100 30056 40067 50001 60006 81278 91200=
07761,1998-02-01 15:00:00,14,1007.1,0.4,72,9,500,22.224,,,220,,,,,,,,,,,wg-a,,,,AAXX 01154 07761 12500 52212 10140 20090 30060 40071 53004 60006 83201 91500=
07761,1998-02-01 18:00:00,12,1008.9,1.8,76,8,20000,14.816,,,200,4.6,15.1,,,,,,,,,wg-a,,,,AAXX 01184 07761 12470 32008 10120 20080 30078 40089 53018 60006 83800 91800 333 10151 20046=
07761,1998-02-01 21:00:00,12,1010.5,1.6,76,8,20000,14.816,,,230,,,,,,,,,,,wg-a,,,,AAXX 01214 07761 12470 /2308 10120 20080 30094 40105 51016 60006 85800 92100=
07761,1998-02-02 00:00:00,11,1011.1,0.6,76,7,20000,7.408,,,150,,,,,,,,,,,wg-a,,,,AAXX 02004 07761 12570 71504 10110 20070 30100 40111 51006 60006 875// 90000=
07761,1998-02-02 03:00:00,9,1011.2,0.1,87,7,20000,3.704,,,50,,,,,,,,,,,wg-a,,,,AAXX 02034 07761 12470 70502 10090 20070 30101 40112 50001 60006 878// 90300=
07761,1998-02-02 06:00:00,7,1011.2,-0,87,5,20000,7.408,,,60,6.8,12.6,,,,,,,,,wg-a,,,,AAXX 02064 07761 02570 /0604 10070 20050 30101 40112 55000 60006 84800 90600 333 10126 20068 60004=
07761,1998-02-02 09:00:00,9,1011.9,0.7,81,6,15000,7.408,,,50,,,,,,,,,,,wg-a,,,,AAXX 02094 07761 12565 50504 10090 20060 30108 40119 51007 60006 84801 90900=
07761,1998-02-02 12:00:00,14,1010.6,-1.3,63,7,20000,18.52,,,250,,,,,,,,,,,wg-a,,,,AAXX 02124 07761 12670 /2510 10140 20070 30095 40106 58013 60006 81201 91200=
07761,1998-02-02 15:00:00,13,1009.5,-1.1,72,8,20000,14.816,,,230,,,,,,,,,,,wg-a,,,,AAXX 02154 07761 12570 /2308 10130 20080 30084 40095 56011 60006 81101 91500=
07761,1998-02-02 18:00:00,9,1009.8,0.3,81,6,15000,11.112,,,50,5.7,14.1,,,,,,,,,wg-a,,,,AAXX 02184 07761 12/65 70506 10090 20060 30087 40098 53003 60006 80006 91800 333 10141 20057=
07761,1998-02-02 21:00:00,6,1009.3,-0.5,93,5,15000,7.408,,,40,,,,,,,,,,,wg-a,,,,AAXX 02214 07761 12/65 40404 10060 20050 30082 40093 56005 60006 82032 92100=
07761,1998-02-03 00:00:00,7,1008.6,-0.7,81,4,15000,11.112,,,60,,,,,,,,,,,wg-a,,,,AAXX 03004 07761 12665 80606 10070 20040 30075 40086 56007 60006 8255/ 90000=
07761,1998-02-03 03:00:00,9,1007,-1.6,71,4,10000,11.112,,,30,,,,,,,,,,60,wg-a,,,,AAXX 03034 07761 02660 80306 10090 20040 30059 40070 56016 61000 76062 8357/ 90300 333 ////=
07761,1998-02-03 06:00:00,9,1006.1,-0.9,81,6,10000,7.408,,,40,5.8,9.2,,,,,,,,60,wg-a,,,,AAXX 03064 07761 02660 80404 10090 20060 30050 40061 57009 61000 76062 8357/ 90600 333 10092 20058 6000=
07761,1998-02-03 09:00:00,10,1005.7,-0.4,87,8,20000,7.408,,,30,,,,,,,,,,60,wg-a,,,,AAXX 03094 07761 02670 80304 10100 20080 30046 40057 58004 61000 76062 8257/ 90900 333 ////=
07761,1998-02-03 12:00:00,13,1003.5,-2.2,77,9,25000,7.408,,,30,,,,,,,,,,3,wg-a,,,,AAXX 03124 07761 02675 80304 10130 20090 30024 40035 58022 61000 70362 8357/ 91200 333 6100=
07761,1998-02-03 15:00:00,13,1002.1,-1.4,88,11,25000,14.816,,,200,,,,,,,,,,2,wg-a,,,,AAXX 03154 07761 02775 82008 10130 20110 30010 40021 55014 61000 70262 8357/ 91500 333 ////=
07761,1998-02-03 18:00:00,11,1002,-0.1,94,10,10000,3.704,,,50,8.3,14.2,,,,,,,,60,wg-a,,,,AAXX 03184 07761 02660 80502 10110 20100 30009 40020 57001 61000 76062 8557/ 91800 333 10142 20083 6001=
07761,1998-02-03 21:00:00,11,1001.3,-0.7,94,10,9000,11.112,,,60,,,,4,,,,,,61,wg-a,,,,AAXX 03214 07761 12559 80606 10110 20100 30002 40013 58007 60047 76166 8387/ 92100=
07761,1998-02-04 00:00:00,11,999.4,-1.9,94,10,9000,11.112,,,50,,,,2,,,,,,60,wg-a,,,,AAXX 04004 07761 02459 80506 10110 20100 39983 49994 57019 60056 76066 8387/ 90000 333 60027=
07761,1998-02-04 03:00:00,11,998.3,-1.1,94,10,9000,7.408,,,30,,,,5,,,,,,61,wg-a,,,,AAXX 04034 07761 12559 80304 10110 20100 39972 49983 57011 60057 76166 8387/ 90300=
07761,1998-02-04 06:00:00,11,997.5,-0.8,94,10,9000,7.408,,,40,10.3,11.5,,,,,,,,61,wg-a,,,,AAXX 04064 07761 02759 80404 10110 20100 39964 49975 56008 61000 76166 8357/ 90600 333 10115 20103 6013=
07761,1998-02-04 09:00:00,11,999.2,1.7,94,10,10000,3.704,,,30,,,,2,,,,,,61,wg-a,,,,AAXX 04094 07761 12660 80302 10110 20100 39981 49992 53017 60027 76166 8257/ 90900=
07761,1998-02-04 12:00:00,11,1000.7,1.5,87,9,10000,7.408,,,20,,,,3,,,,,,61,wg-a,,,,AAXX 04124 07761 02160 80204 10110 20090 39996 40007 51015 60056 76166 8377/ 91200 333 60037=
07761,1998-02-04 15:00:00,12,1002.1,1.4,82,9,500,3.704,,,210,,,,1,,,,,,60,wg-a,,,,AAXX 04154 07761 12100 72102 10120 20090 30010 40021 53014 60017 76066 8377/ 91500=
07761,1998-02-04 18:00:00,10,1004.5,2.4,76,6,15000,7.408,,,40,10.1,12,,,,,,,,1,wg-a,,,,AAXX 04184 07761 02465 /0404 10100 20060 30034 40045 53024 60006 70162 83570 91800 333 10120 20101 61000=
07761,1998-02-05 00:00:00,6,1007.6,0.9,87,4,25000,11.112,,,40,,,,,,,,,,,wg-a,,,,AAXX 05004 07761 12475 /0406 10060 20040 30065 40076 53009 60006 81130 90000=
07761,1998-02-05 03:00:00,5,1008.6,1,93,4,15000,14.816,,,60,,,,,,,,,,,wg-a,,,,AAXX 05034 07761 12565 70608 10050 20040 30075 40086 52010 60006 875// 90300=
07761,1998-02-05 06:00:00,6,1010,1.4,87,4,15000,11.112,,,50,3.9,10.4,,,,,6,,,,wg-a,,,,AAXX 05064 07761 02565 70506 10060 20040 30089 40100 53014 60006 83531 90600 333 10104 20039 60064=
07761,1998-02-05 09:00:00,9,1012,2,81,6,20000,11.112,,,60,,,,,,,,,,,wg-a,,,,AAXX 05094 07761 12570 40606 10090 20060 30109 40120 51020 60006 83801 90900=
07761,1998-02-05 12:00:00,14,1011.6,-0.4,67,8,11000,14.816,,,230,,,,,,,,,,,wg-a,,,,AAXX 05124 07761 12/61 /2308 10140 20080 30105 40116 58004 60006 91200=
07761,1998-02-05 15:00:00,13,1012.3,0.7,62,6,500,14.816,,,200,,,,,,,,,,,wg-a,,,,AAXX 05154 07761 12600 32008 10130 20060 30112 40123 53007 60006 83800 91500=
07761,1998-02-05 18:00:00,9,1014.2,1.9,76,5,11000,11.112,,,60,5.3,14.2,,,,,,,,,wg-a,,,,AAXX 05184 07761 12/61 /0606 10090 20050 30131 40142 53019 60006 91800 333 10142 20053=
07761,1998-02-05 21:00:00,6,1015.3,1.1,87,4,20000,11.112,,,40,,,,,,,,,,,wg-a,,,,AAXX 05214 07761 12/70 /0406 10060 20040 30142 40153 51011 60006 80000 92100=
07761,1998-02-06 00:00:00,4,1016.6,1.3,87,2,20000,14.816,,,40,,,,,,,,,,,wg-a,,,,AAXX 06004 07761 12/70 00408 10040 20020 30155 40166 51013 60006 80000 90000=
07761,1998-02-06 03:00:00,3,1016.9,0.3,81,0,15000,14.816,,,40,,,,,,,,,,,wg-a,,,,AAXX 06034 07761 12665 /0408 10030 20000 30158 40169 51003 60006 81500 90300=
07761,1998-02-06 06:00:00,2,1017.8,0.9,75,-2,15000,14.816,,,40,1.7,8.7,,,,,,,,,wg-a,,,,AAXX 06064 07761 02/65 /0408 10020 21020 30167 40178 53009 60006 80000 90600 333 10087 20017 60004=
07761,1998-02-06 09:00:00,7,1019.6,1.8,70,2,500,11.112,,,40,,,,,,,,,,,wg-a,,,,AAXX 06094 07761 12/00 00406 10070 20020 30185 40196 51018 60006 80000 90900=
07761,1998-02-06 12:00:00,14,1020,0.4,58,6,50000,14.816,,,230,,,,,,,,,,,wg-a,,,,AAXX 06124 07761 12684 /2308 10140 20060 30189 40200 50004 60006 81100 91200=
07761,1998-02-06 15:00:00,14,1020.2,0.2,58,6,50000,14.816,,,240,,,,,,,,,,,wg-a,,,,AAXX 06154 07761 12684 /2408 10140 20060 30191 40202 53002 60006 81100 91500=
07761,1998-02-06 18:00:00,9,1021.2,1,76,5,20000,11.112,,,50,1.4,14.3,,,,,,,,,wg-a,,,,AAXX 06184 07761 12670 /0506 10090 20050 30201 40212 53010 60006 81100 91800 333 10143 20014=
07761,1998-02-06 21:00:00,5,1022.7,1.5,87,3,20000,14.816,,,40,,,,,,,,,,,wg-a,,,,AAXX 06214 07761 12/70 00408 10050 20030 30216 40227 53015 60006 80000 92100=
07761,1998-02-07 00:00:00,4,1023.7,1,87,2,20000,14.816,,,40,,,,,,,,,,,wg-a,,,,AAXX 07004 07761 12/70 00408 10040 20020 30226 40237 51010 60006 80000 90000=
07761,1998-02-07 03:00:00,3,1023.4,-0.3,87,1,20000,14.816,,,40,,,,,,,,,,,wg-a,,,,AAXX 07034 07761 12/70 00408 10030 20010 30223 40234 58003 60006 80000 90300=
07761,1998-02-07 06:00:00,3,1024.6,1.2,87,1,20000,14.816,,,50,1.6,8.9,,,,,,,,,wg-a,,,,AAXX 07064 07761 02/70 00508 10030 20010 30235 40246 53012 60006 80000 90600 333 10089 20016 60004=
07761,1998-02-07 09:00:00,8,1025.7,1.1,71,3,25000,7.408,,,40,,,,,,,,,,,wg-a,,,,AAXX 07094 07761 12/75 00404 10080 20030 30246 40257 51011 60006 80000 90900=
07761,1998-02-07 12:00:00,13,1025.8,0.1,72,8,500,14.816,,,210,,,,,,,,,,,wg-a,,,,AAXX 07124 07761 12600 /2108 10130 20080 30247 40258 50001 60006 81100 91200=
07761,1998-02-07 15:00:00,13,1025.1,-0.7,67,7,500,7.408,,,200,,,,,,,,,,,wg-a,,,,AAXX 07154 07761 12600 42004 10130 20070 30240 40251 56007 60006 81182 91500=
07761,1998-02-07 18:00:00,8,1025.4,0.3,81,5,15000,7.408,,,50,2.6,14.3,,,,,,,,,wg-a,,,,AAXX 07184 07761 12665 30504 10080 20050 30243 40254 51003 60006 81532 91800 333 10143 20026=
07761,1998-02-07 21:00:00,6,1025.8,0.4,87,4,15000,11.112,,,50,,,,,,,,,,,wg-a,,,,AAXX 07214 07761 12665 80506 10060 20040 30247 40258 51004 60006 81577 92100=
07761,1998-02-08 00:00:00,4,1024.9,-0.9,87,2,15000,18.52,,,60,,,,,,,,,,,wg-a,,,,AAXX 08004 07761 12565 20610 10040 20020 30238 40249 58009 60006 82230 90000=
07761,1998-02-08 03:00:00,4,1022.9,-2,81,1,15000,18.52,,,70,,,,,,,,,,,wg-a,,,,AAXX 08034 07761 12665 /0710 10040 20010 30218 40229 56020 60006 86230 90300=
07761,1998-02-08 06:00:00,4,1022,-0.9,81,1,15000,18.52,,,50,3.2,8.4,,,,,,,,,wg-a,,,,AAXX 08064 07761 02665 /0510 10040 20010 30209 40220 55009 60006 81230 90600 333 10084 20032 60004=
07761,1998-02-08 09:00:00,9,1023.2,1.2,71,4,10000,11.112,,,40,,,,,,,,,,,wg-a,,,,AAXX 08094 07761 12/60 /0406 10090 20040 30221 40232 53012 60006 90900=
07761,1998-02-08 12:00:00,13,1023.5,0.3,67,7,20000,7.408,,,240,,,,,,,,,,,wg-a,,,,AAXX 08124 07761 12670 72404 10130 20070 30224 40235 50003 60006 81172 91200=
07761,1998-02-08 15:00:00,14,1023.8,0.3,55,5,20000,0,,,0,,,,,,,,,,,wg-a,,,,AAXX 08154 07761 12670 70000 10140 20050 30227 40238 53003 60006 81172 91500=
07761,1998-02-08 18:00:00,8,1026.1,2.3,81,5,15000,11.112,,,60,3.6,13.7,,,,,,,,,wg-a,,,,AAXX 08184 07761 12/65 30606 10080 20050 30250 40261 53023 60006 80002 91800 333 10137 20036=
07761,1998-02-08 21:00:00,5,1027.9,1.8,87,3,15000,14.816,,,50,,,,,,,,,,,wg-a,,,,AAXX 08214 07761 12/65 10508 10050 20030 30268 40279 51018 60006 80001 92100=
07761,1998-02-09 00:00:00,4,1028.5,0.6,87,2,15000,14.816,,,40,,,,,,,,,,,wg-a,,,,AAXX 09004 07761 12/65 00408 10040 20020 30274 40285 51006 60006 80000 90000=
07761,1998-02-09 03:00:00,2,1028.8,0.3,87,0,15000,14.816,,,50,,,,,,,,,,,wg-a,,,,AAXX 09034 07761 12/65 00508 10020 20000 30277 40288 51003 60006 80000 90300=
07761,1998-02-09 06:00:00,2,1029.5,0.7,87,0,15000,14.816,,,50,1.9,7.7,,,,,,,,,wg-a,,,,AAXX 09064 07761 02565 10508 10020 20000 30284 40295 53007 60006 81500 90600 333 10077 20019 60004=
07761,1998-02-09 09:00:00,8,1031.3,1.8,66,2,500,11.112,,,50,,,,,,,,,,,wg-a,,,,AAXX 09094 07761 12500 /0506 10080 20020 30302 40313 51018 60006 81101 90900=
07761,1998-02-09 12:00:00,15,1031,-0.3,59,7,500,11.112,,,230,,,,,,,,,,,wg-a,,,,AAXX 09124 07761 12500 /2306 10150 20070 30299 40310 58003 60006 81200 91200=
07761,1998-02-09 15:00:00,14,1030.5,-0.5,58,6,500,14.816,,,310,,,,,,,,,,,wg-a,,,,AAXX 09154 07761 12600 23108 10140 20060 30294 40305 55005 60006 82400 91500=
07761,1998-02-10 00:00:00,4,1033.2,0.6,87,2,15000,14.816,,,50,,,,,,,,,,,wg-a,,,,AAXX 10004 07761 12/65 00508 10040 20020 30321 40332 51006 60006 80000 90000=
07761,1998-02-10 03:00:00,4,1033.2,-0,87,2,15000,11.112,,,50,,,,,,,,,,,wg-a,,,,AAXX 10034 07761 12/65 00506 10040 20020 30321 40332 54000 60006 80000 90300=
07761,1998-02-10 06:00:00,3,1033.4,0.2,93,2,15000,14.816,,,40,2.6,10,,,,,,,,,wg-a,,,,AAXX 10064 07761 02/65 00408 10030 20020 30323 40334 53002 60006 80000 90600 333 10100 20026 60004=
07761,1998-02-10 12:00:00,14,1034,-0.7,67,8,500,11.112,,,220,,,,,,,,,,,wg-a,,,,AAXX 10124 07761 12700 /2206 10140 20080 30329 40340 58007 60006 81101 91200=
07761,1998-02-10 18:00:00,9,1034.1,1.1,81,6,20000,11.112,,,50,3.2,14.7,,,,,,,,,wg-a,,,,AAXX 10184 07761 12/70 00506 10090 20060 30330 40341 53011 60006 80000 91800 333 10147 20032=
07761,1998-02-10 21:00:00,6,1034.8,0.7,81,3,20000,11.112,,,40,,,,,,,,,,,wg-a,,,,AAXX 10214 07761 12/70 00406 10060 20030 30337 40348 51007 60006 80000 92100=
07761,1998-02-11 00:00:00,5,1035.2,0.4,87,3,20000,14.816,,,40,,,,,,,,,,,wg-a,,,,AAXX 11004 07761 12/70 00408 10050 20030 30341 40352 52004 60006 80000 90000=
07761,1998-02-11 06:00:00,3,1034.8,-0,87,1,35000,14.816,,,50,2.6,9,,,,,,,,,wg-a,,,,AAXX 11064 07761 02/81 00508 10030 20010 30337 40348 55000 60006 80000 90600 333 10090 20026 60004=
07761,1998-02-11 12:00:00,15,1034.9,-0.7,67,9,40000,14.816,,,230,,,,,,,,,,,wg-a,,,,AAXX 11124 07761 12/82 02308 10150 20090 30338 40349 58007 60006 80000 91200=
07761,1998-02-11 15:00:00,15,1034.2,-0.7,59,7,40000,14.816,,,200,,,,,,,,,,,wg-a,,,,AAXX 11154 07761 12/82 02008 10150 20070 30331 40342 55007 60006 80000 91500=
07761,1998-02-11 18:00:00,9,1034.6,0.4,81,6,20000,11.112,,,50,2.6,15,,,,,,,,,wg-a,,,,AAXX 11184 07761 12/70 00506 10090 20060 30335 40346 53004 60006 80000 91800 333 10150 20026=
07761,1998-02-11 21:00:00,5,1035,0.4,87,3,20000,11.112,,,60,,,,,,,,,,,wg-a,,,,AAXX 11214 07761 12/70 00606 10050 20030 30339 40350 52004 60006 80000 92100=
07761,1998-02-12 00:00:00,4,1034.9,-0.1,87,2,20000,11.112,,,50,,,,,,,,,,,wg-a,,,,AAXX 12004 07761 12/70 00506 10040 20020 30338 40349 58001 60006 80000 90000=
07761,1998-02-12 03:00:00,4,1034.4,-0.5,87,2,20000,14.816,,,60,,,,,,,,,,,wg-a,,,,AAXX 12034 07761 12/70 00608 10040 20020 30333 40344 57005 60006 80000 90300=
07761,1998-02-12 06:00:00,3,1034.7,0.3,93,2,20000,14.816,,,50,2.8,8.6,,,,,,,,,wg-a,,,,AAXX 12064 07761 02/70 00508 10030 20020 30336 40347 53003 60006 80000 90600 333 10086 20028 60004=
07761,1998-02-12 09:00:00,10,1035.6,0.9,71,5,500,7.408,,,60,,,,,,,,,,,wg-a,,,,AAXX 12094 07761 12/00 10604 10100 20050 30345 40356 51009 60006 80001 90900=
07761,1998-02-12 12:00:00,15,1034.6,-1,72,10,500,14.816,,,220,,,,,,,,,,,wg-a,,,,AAXX 12124 07761 12/00 12208 10150 20100 30335 40346 58010 60006 80001 91200=
07761,1998-02-12 15:00:00,14,1033.8,-0.8,77,10,25000,11.112,,,210,,,,,,,,,,,wg-a,,,,AAXX 12154 07761 12/75 12106 10140 20100 30327 40338 57008 60006 80001 91500=
07761,1998-02-12 18:00:00,9,1034.2,0.4,87,7,20000,11.112,,,50,2.8,14.9,,,,,,,,,wg-a,,,,AAXX 12184 07761 12/70 00506 10090 20070 30331 40342 53004 60006 80000 91800 333 10149 20028=
07761,1998-02-12 21:00:00,6,1034.6,0.4,87,4,20000,11.112,,,60,,,,,,,,,,,wg-a,,,,AAXX 12214 07761 12/70 00606 10060 20040 30335 40346 53004 60006 80000 92100=
07761,1998-02-13 00:00:00,5,1034.4,-0.2,87,3,20000,14.816,,,50,,,,,,,,,,,wg-a,,,,AAXX 13004 07761 12/70 00508 10050 20030 30333 40344 58002 60006 80000 90000=
07761,1998-02-13 03:00:00,5,1033.7,-0.7,87,3,20000,14.816,,,50,,,,,,,,,,,wg-a,,,,AAXX 13034 07761 12/70 00508 10050 20030 30326 40337 58007 60006 80000 90300=
07761,1998-02-13 09:00:00,11,1034.2,0.2,66,5,35000,3.704,,,50,,,,,,,,,,,wg-a,,,,AAXX 13094 07761 12/81 10502 10110 20050 30331 40342 50002 60006 80001 90900=
07761,1998-02-13 12:00:00,16,1033.6,-0.6,68,10,35000,11.112,,,210,,,,,,,,,,,wg-a,,,,AAXX 13124 07761 12/81 02106 10160 20100 30325 40336 58006 60006 80000 91200=
07761,1998-02-13 15:00:00,16,1032.4,-1.2,68,10,35000,18.52,,,190,,,,,,,,,,,wg-a,,,,AAXX 13154 07761 12681 /1910 10160 20100 30313 40324 57012 60006 81100 91500=
07761,1998-02-13 18:00:00,10,1033,0.6,82,7,20000,7.408,,,50,2.8,15.8,,,,,,,,,wg-a,,,,AAXX 13184 07761 12/70 00504 10100 20070 30319 40330 53006 60006 80000 91800 333 10158 20028=
07761,1998-02-13 21:00:00,6,1033.5,0.5,87,4,20000,11.112,,,50,,,,,,,,,,,wg-a,,,,AAXX 13214 07761 12/70 00506 10060 20040 30324 40335 53005 60006 80000 92100=
07761,1998-02-14 00:00:00,3,1033.6,0.1,93,2,20000,14.816,,,50,,,,,,,,,,,wg-a,,,,AAXX 14004 07761 12/70 00508 10030 20020 30325 40336 53001 60006 80000 90000=
07761,1998-02-14 03:00:00,4,1033.1,-0.5,87,2,20000,14.816,,,50,,,,,,,,,,,wg-a,,,,AAXX 14034 07761 12/70 00508 10040 20020 30320 40331 58005 60006 80000 90300=
07761,1998-02-14 06:00:00,3,1033.4,0.3,93,2,15000,14.816,,,50,2.5,9.9,,,,,,,,,wg-a,,,,AAXX 14064 07761 02/65 00508 10030 20020 30323 40334 50003 60006 80000 90600 333 10099 20025 60004=
07761,1998-02-14 09:00:00,9,1034.3,0.9,87,7,20000,7.408,,,60,,,,,,,,,,,wg-a,,,,AAXX 14094 07761 12470 20604 10090 20070 30332 40343 51009 60006 81831 90900=
07761,1998-02-14 12:00:00,14,1034.4,0.1,72,9,500,11.112,,,220,,,,,,,,,,,wg-a,,,,AAXX 14124 07761 12600 /2206 10140 20090 30333 40344 50001 60006 81500 91200=
07761,1998-02-14 15:00:00,14,1033.4,-1,72,9,500,11.112,,,220,,,,,,,,,,,wg-a,,,,AAXX 14154 07761 12600 /2206 10140 20090 30323 40334 56010 60006 81500 91500=
07761,1998-02-14 18:00:00,10,1034.5,1.1,87,8,15000,3.704,,,30,2.8,14.6,,,,,,,,,wg-a,,,,AAXX 14184 07761 12465 50302 10100 20080 30334 40345 53011 60006 85500 91800 333 10146 20028=
07761,1998-02-14 21:00:00,11,1034.5,-0,82,8,15000,3.704,,,50,,,,,,,,,,,wg-a,,,,AAXX 14214 07761 12465 80502 10110 20080 30334 40345 55000 60006 885// 92100=
07761,1998-02-15 00:00:00,10,1033.9,-0.6,87,8,11000,11.112,,,80,,,,,,,,,,,wg-a,,,,AAXX 15004 07761 12/61 /0806 10100 20080 30328 40339 58006 60006 90000=
07761,1998-02-15 03:00:00,10,1032.6,-1.3,82,7,15000,14.816,,,60,,,,,,,,,,,wg-a,,,,AAXX 15034 07761 12465 80608 10100 20070 30315 40326 56013 60006 885// 90300=
07761,1998-02-15 06:00:00,9,1032.1,-0.5,81,6,15000,18.52,,,50,8.8,11,,,,,,,,,wg-a,,,,AAXX 15064 07761 02565 80510 10090 20060 30310 40321 57005 60006 885// 90600 333 10110 20088 60004=
07761,1998-02-15 09:00:00,11,1032.3,0.2,71,6,20000,11.112,,,40,,,,,,,,,,,wg-a,,,,AAXX 15094 07761 12570 /0406 10110 20060 30312 40323 51002 60006 86500 90900=
07761,1998-02-15 12:00:00,15,1030.6,-1.7,63,8,25000,7.408,,,230,,,,,,,,,,,wg-a,,,,AAXX 15124 07761 12675 62304 10150 20080 30295 40306 58017 60006 86500 91200=
07761,1998-02-15 15:00:00,14,1029.5,-1.1,72,9,15000,11.112,,,220,,,,,,,,,,,wg-a,,,,AAXX 15154 07761 12565 82206 10140 20090 30284 40295 56011 60006 888// 91500=
07761,1998-02-15 18:00:00,12,1029.9,0.4,82,9,15000,3.704,,,80,8.9,15.9,,,,,,,,,wg-a,,,,AAXX 15184 07761 12565 80802 10120 20090 30288 40299 53004 60006 888// 91800 333 10159 20089=
07761,1998-02-15 21:00:00,8,1030.7,0.8,87,6,15000,11.112,,,40,,,,,,,,,,,wg-a,,,,AAXX 15214 07761 12/65 /0406 10080 20060 30296 40307 53008 60006 80000 92100=
07761,1998-02-16 00:00:00,6,1030.2,-0.5,87,4,15000,7.408,,,50,,,,,,,,,,,wg-a,,,,AAXX 16004 07761 12/65 00504 10060 20040 30291 40302 58005 60006 80000 90000=
07761,1998-02-16 03:00:00,5,1029.9,-0.3,93,4,15000,14.816,,,40,,,,,,,,,,,wg-a,,,,AAXX 16034 07761 12/65 10408 10050 20040 30288 40299 58003 60006 81030 90300=
07761,1998-02-16 06:00:00,5,1029.8,-0.1,93,4,15000,14.816,,,40,4.6,12.3,,,,,,,,,wg-a,,,,AAXX 16064 07761 02565 /0408 10050 20040 30287 40298 57001 60006 81500 90600 333 10123 20046 60004=
07761,1998-02-16 09:00:00,11,1030.1,0.3,82,8,20000,0,,,0,,,,,,,,,,,wg-a,,,,AAXX 16094 07761 12570 /0000 10110 20080 30290 40301 50003 60006 81100 90900=
07761,1998-02-16 12:00:00,15,1029.1,-1,72,10,20000,14.816,,,220,,,,,,,,,,,wg-a,,,,AAXX 16124 07761 12/70 02208 10150 20100 30280 40291 58010 60006 80000 91200=
07761,1998-02-16 15:00:00,15,1027.4,-1.7,67,9,25000,18.52,,,210,,,,,,,,,,,wg-a,,,,AAXX 16154 07761 12/75 02110 10150 20090 30263 40274 56017 60006 80000 91500=
07761,1998-02-16 18:00:00,11,1027.1,-0.3,82,8,15000,3.704,,,100,4.9,15.5,,,,,,,,,wg-a,,,,AAXX 16184 07761 12465 /1002 10110 20080 30260 40271 56003 60006 81501 91800 333 10155 20049=
07761,1998-02-16 21:00:00,9,1026.8,-0.3,87,7,15000,7.408,,,60,,,,,,,,,,,wg-a,,,,AAXX 16214 07761 12565 70604 10090 20070 30257 40268 56003 60006 87500 92100=
07761,1998-02-17 00:00:00,11,1025.4,-1.4,82,8,15000,14.816,,,40,,,,,,,,,,,wg-a,,,,AAXX 17004 07761 12565 70408 10110 20080 30243 40254 58014 60006 875// 90000=
07761,1998-02-17 03:00:00,10,1023,-2.4,76,6,15000,3.704,,,50,,,,,,,,,,,wg-a,,,,AAXX 17034 07761 12565 70502 10100 20060 30219 40230 58024 60006 875// 90300=
07761,1998-02-17 06:00:00,9,1021.2,-1.8,81,6,15000,11.112,,,30,8.7,10.9,,,,,,,,,wg-a,,,,AAXX 17064 07761 02565 /0306 10090 20060 30201 40212 57018 60006 85501 90600 333 10109 20087 60004=
07761,1998-02-17 09:00:00,14,1019.9,-1.3,63,7,15000,7.408,,,40,,,,,,,,,,,wg-a,,,,AAXX 17094 07761 12565 /0404 10140 20070 30188 40199 58013 60006 81501 90900=
07761,1998-02-17 12:00:00,17,1021,1.1,68,11,10000,14.816,,,250,,,,,,,,,,,wg-a,,,,AAXX 17124 07761 12560 42508 10170 20110 30199 40210 50011 60006 84100 91200=
07761,1998-02-17 15:00:00,15,1021.8,0.8,72,10,10000,18.52,,,260,,,,,,,,,,,wg-a,,,,AAXX 17154 07761 12560 72610 10150 20100 30207 40218 53008 60006 878// 91500=
07761,1998-02-17 18:00:00,14,1025.1,3.3,72,9,10000,3.704,,,300,8.2,17.3,,,,,,,,,wg-a,,,,AAXX 17184 07761 12560 /3002 10140 20090 30240 40251 51033 60006 84500 91800 333 10173 20082=
07761,1998-02-17 21:00:00,8,1027.6,2.5,93,7,10000,14.816,,,50,,,,,,,,,,,wg-a,,,,AAXX 17214 07761 12560 20508 10080 20070 30265 40276 51025 60006 82500 92100=
07761,1998-02-18 00:00:00,7,1029.4,1.8,87,5,10000,11.112,,,60,,,,,,,,,,,wg-a,,,,AAXX 18004 07761 12/60 00606 10070 20050 30283 40294 51018 60006 80000 90000=
07761,1998-02-18 03:00:00,6,1030,0.6,93,5,10000,11.112,,,40,,,,,,,,,,,wg-a,,,,AAXX 18034 07761 12/60 00406 10060 20050 30289 40300 51006 60006 80000 90300=
07761,1998-02-18 06:00:00,4,1031.7,1.7,87,2,10000,11.112,,,50,3.7,13.5,,,,,,,,,wg-a,,,,AAXX 18064 07761 02/60 00506 10040 20020 30306 40317 51017 60006 80000 90600 333 10135 20037 60004=
07761,1998-02-18 09:00:00,12,1033,1.3,67,6,500,7.408,,,50,,,,,,,,,,,wg-a,,,,AAXX 18094 07761 12/00 00504 10120 20060 30319 40330 51013 60006 80000 90900=
07761,1998-02-18 12:00:00,16,1033.6,0.6,77,12,500,11.112,,,220,,,,,,,,,,,wg-a,,,,AAXX 18124 07761 12/00 02206 10160 20120 30325 40336 50006 60006 80000 91200=
07761,1998-02-18 15:00:00,14,1033.6,-0,82,11,1000,11.112,,,210,,,,,,,,,,5,wg-a,,,,AAXX 18154 07761 12010 52106 10140 20110 30325 40336 55000 60006 70541 85600 91500=
07761,1998-02-18 18:00:00,11,1034.5,0.9,100,11,100,3.704,,,340,3.2,16.7,,,,,,,,45,wg-a,,,,AAXX 18184 07761 12/01 93402 10110 20110 30334 40345 51009 60006 74541 89/// 91800 333 10167 20032=
07761,1998-02-18 21:00:00,8,1034.4,-0.1,93,7,10000,14.816,,,40,,,,,,,,,,28,wg-a,,,,AAXX 18214 07761 12/60 00408 10080 20070 30333 40344 58001 60006 72841 80000 92100=
07761,1998-02-19 00:00:00,6,1034.6,0.2,93,5,15000,14.816,,,50,,,,,,,,,,2,wg-a,,,,AAXX 19004 07761 12/65 00508 10060 20050 30335 40346 50002 60006 70241 80000 90000=
07761,1998-02-19 03:00:00,5,1033.6,-1,87,3,15000,11.112,,,50,,,,,,,,,,,wg-a,,,,AAXX 19034 07761 12/65 00506 10050 20030 30325 40336 57010 60006 80000 90300=
07761,1998-02-19 06:00:00,4,1033.1,-0.5,93,3,8000,11.112,,,50,3.7,11.1,,,,,,,,,wg-a,,,,AAXX 19064 07761 02/58 00506 10040 20030 30320 40331 56005 60006 80000 90600 333 10111 20037 60004=
07761,1998-02-19 12:00:00,14,1032.7,-1.1,77,10,15000,14.816,,,240,,,,,,,,,,,wg-a,,,,AAXX 19124 07761 12/65 02408 10140 20100 30316 40327 58011 60006 80000 91200=
07761,1998-02-19 15:00:00,14,1031.4,-1.3,77,10,10000,14.816,,,230,,,,,,,,,,,wg-a,,,,AAXX 19154 07761 12/60 02308 10140 20100 30303 40314 56013 60006 80000 91500=
07761,1998-02-19 18:00:00,10,1031.7,0.3,93,9,10000,7.408,,,40,3.5,14,,,,,,,,,wg-a,,,,AAXX 19184 07761 12/60 00404 10100 20090 30306 40317 53003 60006 80000 91800 333 10140 20035=
07761,1998-02-19 21:00:00,6,1031.3,-0.4,87,4,10000,14.816,,,50,,,,,,,,,,,wg-a,,,,AAXX 19214 07761 12/60 00508 10060 20040 30302 40313 58004 60006 80000 92100=
07761,1998-02-20 00:00:00,5,1030.5,-0.8,75,1,15000,14.816,,,50,,,,,,,,,,,wg-a,,,,AAXX 20004 07761 12/65 00508 10050 20010 30294 40305 58008 60006 80000 90000=
07761,1998-02-20 03:00:00,5,1029.2,-1.3,70,0,15000,11.112,,,70,,,,,,,,,,,wg-a,,,,AAXX 20034 07761 12/65 00706 10050 20000 30281 40292 56013 60006 80000 90300=
07761,1998-02-20 06:00:00,3,1029,-0.2,75,-1,15000,14.816,,,50,2.6,10.3,,,,,,,,,wg-a,,,,AAXX 20064 07761 02/65 00508 10030 21010 30279 40290 58002 60006 80000 90600 333 10103 20026 60004=
07761,1998-02-20 09:00:00,12,1029.9,0.9,50,2,10000,7.408,,,50,,,,,,,,,,,wg-a,,,,AAXX 20094 07761 12/60 /0504 10120 20020 30288 40299 51009 60006 90900=
07761,1998-02-20 12:00:00,15,1029.3,-0.6,77,11,8000,14.816,,,250,,,,,,,,,,,wg-a,,,,AAXX 20124 07761 12358 /2508 10150 20110 30282 40293 58006 60006 81500 91200=
07761,1998-02-20 15:00:00,15,1028.2,-1.1,77,11,6000,18.52,,,190,,,,,,,,,,40,wg-a,,,,AAXX 20154 07761 12356 /1910 10150 20110 30271 40282 56011 60006 74000 81600 91500=
07761,1998-02-20 18:00:00,12,1028.3,0.1,88,10,8000,7.408,,,40,2.3,15.3,,,,,,,,,wg-a,,,,AAXX 20184 07761 12/58 00404 10120 20100 30272 40283 53001 60006 80000 91800 333 10153 20023=
07761,1998-02-20 21:00:00,7,1028.9,0.6,87,5,10000,11.112,,,50,,,,,,,,,,,wg-a,,,,AAXX 20214 07761 12/60 00506 10070 20050 30278 40289 52006 60006 80000 92100=
07761,1998-02-21 00:00:00,5,1028.6,-0.3,93,4,10000,11.112,,,60,,,,,,,,,,,wg-a,,,,AAXX 21004 07761 12/60 00606 10050 20040 30275 40286 57003 60006 80000 90000=
07761,1998-02-21 03:00:00,4,1028.1,-0.5,87,2,10000,14.816,,,50,,,,,,,,,,,wg-a,,,,AAXX 21034 07761 12/60 00508 10040 20020 30270 40281 57005 60006 80000 90300=
07761,1998-02-21 06:00:00,3,1028.3,0.2,87,1,12000,11.112,,,50,2.3,10.3,,,,,,,,,wg-a,,,,AAXX 21064 07761 02/62 00506 10030 20010 30272 40283 50002 60006 80000 90600 333 10103 20023 60004=
07761,1998-02-21 09:00:00,11,1029.2,0.9,66,5,20000,7.408,,,60,,,,,,,,,,,wg-a,,,,AAXX 21094 07761 12/70 20604 10110 20050 30281 40292 51009 60006 80001 90900=
07761,1998-02-21 12:00:00,15,1028.6,,63,8,20000,14.816,,,220,,,,,,,,,,,wg-a,,,,AAXX 21124 07761 12/70 42208 10150 20080 30275 40286 60006 812/7 91200=
07761,1998-02-21 15:00:00,15,1027.7,-1,72,10,20000,11.112,,,240,,,,,,,,,,,wg-a,,,,AAXX 21154 07761 12/70 52406 10150 20100 30266 40277 56010 60006 80002 91500=
07761,1998-02-21 18:00:00,11,1028.2,0.5,87,9,20000,7.408,,,60,2.6,15.8,,,,,,,,,wg-a,,,,AAXX 21184 07761 12/70 10604 10110 20090 30271 40282 53005 60006 80002 91800 333 10158 20026=
07761,1998-02-21 21:00:00,5,1028,-0.2,87,3,15000,11.112,,,60,,,,,,,,,,,wg-a,,,,AAXX 21214 07761 12/65 00606 10050 20030 30269 40280 55002 60006 80000 92100=
07761,1998-02-22 00:00:00,6,1027.1,-0.9,70,1,15000,11.112,,,40,,,,,,,,,,,wg-a,,,,AAXX 22004 07761 12/65 00406 10060 20010 30260 40271 58009 60006 80000 90000=
07761,1998-02-22 03:00:00,6,1025.8,-1.3,65,0,15000,14.816,,,40,,,,,,,,,,,wg-a,,,,AAXX 22034 07761 12/65 20408 10060 20000 30247 40258 58013 60006 80001 90300=
07761,1998-02-22 06:00:00,6,1025.7,-0.1,61,-1,20000,14.816,,,50,4.4,10.6,,,,,,,,,wg-a,,,,AAXX 22064 07761 02/70 50508 10060 21010 30246 40257 58001 60006 82042 90600 333 10106 20044 60004=
07761,1998-02-22 09:00:00,12,1025.4,-0.3,47,1,500,11.112,,,50,,,,,,,,,,,wg-a,,,,AAXX 22094 07761 12700 70506 10120 20010 30243 40254 58003 60006 81142 90900=
07761,1998-02-22 12:00:00,17,1024.2,-1.2,45,5,500,14.816,,,250,,,,,,,,,,,wg-a,,,,AAXX 22124 07761 12700 72508 10170 20050 30231 40242 56012 60006 8117/ 91200=
07761,1998-02-22 15:00:00,15,1022.6,-1.6,72,10,500,7.408,,,270,,,,,,,,,,,wg-a,,,,AAXX 22154 07761 12500 72704 10150 20100 30215 40226 58016 60006 8587/ 91500=
07761,1998-02-22 18:00:00,13,1023.8,1.2,88,11,10000,7.408,,,20,5.6,17.1,,,,,,,,60,wg-a,,,,AAXX 22184 07761 02460 80204 10130 20110 30227 40238 53012 61000 76086 8757/ 91800 333 10171 20056 6005=
07761,1998-02-22 21:00:00,11,1023.5,-0.3,94,10,10000,3.704,,,310,,,,3,,,,,,21,wg-a,,,,AAXX 22214 07761 12660 /3102 10110 20100 30224 40235 58003 60037 72186 84500 92100=
07761,1998-02-23 00:00:00,9,1023.1,-0.4,87,7,10000,3.704,,,60,,,,0,,,,,,1,wg-a,,,,AAXX 23004 07761 02560 50602 10090 20070 30220 40231 56004 60036 70186 85500 90000 333 60007=
07761,1998-02-23 03:00:00,7,1021.6,-1.5,93,6,10000,3.704,,,10,,,,,,,,,,60,wg-a,,,,AAXX 23034 07761 02560 40102 10070 20060 30205 40216 58015 61000 76061 84500 90300 333 ////=
07761,1998-02-23 06:00:00,6,1021.3,-0.3,93,5,10000,11.112,,,50,5.7,12.7,,,,,8,,,2,wg-a,,,,AAXX 23064 07761 02560 50506 10060 20050 30202 40213 58003 60006 70261 85800 90600 333 10127 20057 60084=
07761,1998-02-23 12:00:00,14,1020.4,-1.1,58,6,500,11.112,,,240,,,,,,,,,,,wg-a,,,,AAXX 23124 07761 12500 52406 10140 20060 30193 40204 58011 60006 83802 91200=
07761,1998-02-23 15:00:00,12,1020.3,-0.1,62,5,20000,7.408,,,210,,,,,,,,,,,wg-a,,,,AAXX 23154 07761 12570 72104 10120 20050 30192 40203 55001 60006 85902 91500=
07761,1998-02-23 18:00:00,9,1021.2,0.9,71,4,20000,7.408,,,30,5.5,13.8,,,,,,,,,wg-a,,,,AAXX 23184 07761 12670 70304 10090 20040 30201 40212 51009 60006 8277/ 91800 333 10138 20055=
07761,1998-02-24 00:00:00,5,1022.4,0.2,87,3,20000,11.112,,,50,,,,,,,,,,3,wg-a,,,,AAXX 24004 07761 02770 60506 10050 20030 30213 40224 52002 61000 70361 815/1 90000 333 ////=
07761,1998-02-24 03:00:00,6,1021.4,-1,87,4,20000,7.408,,,50,,,,,,,,,,,wg-a,,,,AAXX 24034 07761 12770 80504 10060 20040 30203 40214 58010 60006 82572 90300=
07761,1998-02-24 06:00:00,6,1022.3,0.9,93,5,20000,11.112,,,50,4.9,9.3,,,,,,,,60,wg-a,,,,AAXX 24064 07761 02770 80506 10060 20050 30212 40223 53009 61000 76062 83572 90600 333 10093 20049 6100=
07761,1998-02-24 12:00:00,13,1022.9,0.1,72,8,15000,3.704,,,200,,,,0,,,,,,21,wg-a,,,,AAXX 24124 07761 02465 52002 10130 20080 30218 40229 50001 60016 72162 83370 91200 333 60007=
07761,1998-02-24 15:00:00,13,1022.7,-0.2,77,9,18000,18.52,,,230,,,,,,,,,,,wg-a,,,,AAXX 24154 07761 12568 62310 10130 20090 30216 40227 55002 60006 83272 91500=
07761,1998-02-24 18:00:00,11,1024.6,1.9,82,8,20000,11.112,,,170,6.1,13.7,,,,,,,,,wg-a,,,,AAXX 24184 07761 12570 21706 10110 20080 30235 40246 53019 60006 82200 91800 333 10137 20061=
07761,1998-02-24 21:00:00,7,1025.8,1.2,87,5,20000,7.408,,,90,,,,,,,,,,,wg-a,,,,AAXX 24214 07761 12570 20904 10070 20050 30247 40258 51012 60006 82200 92100=
07761,1998-02-25 00:00:00,6,1026.6,0.8,81,3,20000,7.408,,,30,,,,,,,,,,,wg-a,,,,AAXX 25004 07761 12/70 00304 10060 20030 30255 40266 52008 60006 80000 90000=
07761,1998-02-25 03:00:00,5,1026.6,0,87,3,20000,14.816,,,60,,,,,,,,,,,wg-a,,,,AAXX 25034 07761 12/70 00608 10050 20030 30255 40266 50000 60006 80000 90300=
07761,1998-02-25 06:00:00,5,1027.3,0.7,87,3,15000,18.52,,,50,4,10.7,,,,,1,,,,wg-a,,,,AAXX 25064 07761 02565 30510 10050 20030 30262 40273 51007 60006 81501 90600 333 10107 20040 60014=
07761,1998-02-25 09:00:00,12,1028,0.7,71,7,25000,3.704,,,30,,,,,,,,,,,wg-a,,,,AAXX 25094 07761 12575 /0302 10120 20070 30269 40280 50007 60006 81502 90900=
07761,1998-02-25 15:00:00,15,1026,-1,72,10,25000,11.112,,,200,,,,,,,,,,,wg-a,,,,AAXX 25154 07761 12675 32006 10150 20100 30249 40260 56010 60006 81230 91500=
07761,1998-02-25 18:00:00,12,1026.8,0.8,82,9,15000,7.408,,,80,4.5,15.9,,,,,,,,,wg-a,,,,AAXX 25184 07761 12/65 40804 10120 20090 30257 40268 53008 60006 83032 91800 333 10159 20045=
07761,1998-02-25 21:00:00,9,1027.9,1.1,87,7,15000,3.704,,,80,,,,,,,,,,,wg-a,,,,AAXX 25214 07761 12/65 30802 10090 20070 30268 40279 53011 60006 82032 92100=
07761,1998-02-26 00:00:00,6,1028.6,0.7,87,4,15000,11.112,,,50,,,,,,,,,,,wg-a,,,,AAXX 26004 07761 12565 20506 10060 20040 30275 40286 53007 60006 82500 90000=
07761,1998-02-26 03:00:00,6,1028.3,-0.3,87,4,15000,14.816,,,50,,,,,,,,,,,wg-a,,,,AAXX 26034 07761 12565 20508 10060 20040 30272 40283 58003 60006 82500 90300=
07761,1998-02-26 06:00:00,5,1028.7,0.4,87,3,15000,14.816,,,40,4.5,11.7,,,,,,,,,wg-a,,,,AAXX 26064 07761 02565 30408 10050 20030 30276 40287 53004 60006 82530 90600 333 10117 20045 60004=
07761,1998-02-26 09:00:00,13,1029.9,1.2,62,6,500,7.408,,,190,,,,,,,,,,,wg-a,,,,AAXX 26094 07761 12700 /1904 10130 20060 30288 40299 51012 60006 81800 90900=
07761,1998-02-26 12:00:00,16,1029.8,-0.1,68,10,500,22.224,,,250,,,,,,,,,,,wg-a,,,,AAXX 26124 07761 12600 /2512 10160 20100 30287 40298 58001 60006 81800 91200=
07761,1998-02-26 15:00:00,16,1029.3,-0.5,68,10,15000,22.224,,,250,,,,,,,,,,,wg-a,,,,AAXX 26154 07761 12565 /2512 10160 20100 30282 40293 56005 60006 86800 91500=
07761,1998-02-26 21:00:00,10,1030.6,0.6,87,8,15000,11.112,,,40,,,,,,,,,,,wg-a,,,,AAXX 26214 07761 12565 /0406 10100 20080 30295 40306 53006 60006 81500 92100=
07761,1998-02-27 00:00:00,8,1030.6,-0,87,6,15000,11.112,,,40,,,,,,,,,,,wg-a,,,,AAXX 27004 07761 12565 70406 10080 20060 30295 40306 55000 60006 875// 90000=
07761,1998-02-27 03:00:00,7,1029.2,-1.4,81,4,15000,11.112,,,40,,,,,,,,,,,wg-a,,,,AAXX 27034 07761 12565 /0406 10070 20040 30281 40292 56014 60006 81500 90300=
07761,1998-02-27 06:00:00,5,1028.7,-0.5,87,3,25000,14.816,,,50,4.9,12.3,,,,,,,,,wg-a,,,,AAXX 27064 07761 02/75 10508 10050 20030 30276 40287 57005 60006 80001 90600 333 10123 20049 60004=
07761,1998-02-27 09:00:00,13,1029,0.3,62,6,25000,3.704,,,70,,,,,,,,,,,wg-a,,,,AAXX 27094 07761 12/75 10702 10130 20060 30279 40290 51003 60006 80001 90900=
07761,1998-02-27 12:00:00,16,1027.6,-1.4,48,5,25000,18.52,,,230,,,,0,,,,,,,wg-a,,,,AAXX 27124 07761 02675 /2310 10160 20050 30265 40276 58014 60006 81101 91200 333 60007=
07761,1998-02-27 15:00:00,15,1026.1,-1.5,72,10,25000,11.112,,,230,,,,,,,,,,,wg-a,,,,AAXX 27154 07761 12675 /2306 10150 20100 30250 40261 56015 60006 81101 91500=
07761,1998-02-27 18:00:00,13,1026.2,0.1,82,10,20000,7.408,,,210,4.9,15.6,,,,,,,,,wg-a,,,,AAXX 27184 07761 12670 32104 10130 20100 30251 40262 53001 60006 83500 91800 333 10156 20049=
07761,1998-02-28 00:00:00,7,1024.7,-1.3,87,5,20000,11.112,,,40,,,,,,,,,,,wg-a,,,,AAXX 28004 07761 12/70 00406 10070 20050 30236 40247 56013 60006 80000 90000=
07761,1998-02-28 03:00:00,6,1022.7,-2,87,4,20000,14.816,,,40,,,,,,,,,,,wg-a,,,,AAXX 28034 07761 12/70 00408 10060 20040 30216 40227 58020 60006 80000 90300=
07761,1998-02-28 06:00:00,5,1021.8,-0.9,87,3,9000,11.112,,,50,4.2,12.5,,,,,,,,,wg-a,,,,AAXX 28064 07761 02/59 00506 10050 20030 30207 40218 56009 60006 80000 90600 333 10125 20042 60004=
07761,1998-02-28 09:00:00,12,1021.1,-0.7,71,7,12000,7.408,,,40,,,,,,,,,,,wg-a,,,,AAXX 28094 07761 12562 /0404 10120 20070 30200 40211 58007 60006 81500 90900=
07761,1998-02-28 12:00:00,16,1019.8,-1.3,72,11,12000,18.52,,,240,,,,,,,,,,,wg-a,,,,AAXX 28124 07761 12562 /2410 10160 20110 30187 40198 58013 60006 81800 91200=
07761,1998-02-28 15:00:00,15,1018.2,-1.6,77,11,10000,14.816,,,230,,,,,,,,,,,wg-a,,,,AAXX 28154 07761 12560 /2308 10150 20110 30171 40182 56016 60006 81100 91500=
07761,1998-02-28 18:00:00,12,1018.6,0.4,88,10,9000,11.112,,,230,4.4,16.2,,,,,,,,,wg-a,,,,AAXX 28184 07761 12559 22306 10120 20100 30175 40186 53004 60006 82500 91800 333 10162 20044=
07761,1998-02-28 21:00:00,8,1019.1,0.5,93,7,9000,7.408,,,60,,,,,,,,,,,wg-a,,,,AAXX 28214 07761 12559 20604 10080 20070 30180 40191 51005 60006 82500 92100=
07761,1998-03-01 00:00:00,8,1018.6,-0.5,87,6,9000,14.816,,,60,,,,,,,,,,,wg-a,,,,AAXX 01004 07761 12559 /0608 10080 20060 30175 40186 58005 60006 85500 90000=
07761,1998-03-01 03:00:00,7,1017.7,-0.9,87,5,9000,14.816,,,50,,,,,,,,,,,wg-a,,,,AAXX 01034 07761 12559 30508 10070 20050 30166 40177 58009 60006 83500 90300=
07761,1998-03-01 06:00:00,7,1017.8,0.1,87,5,9000,11.112,,,60,5.9,12.4,,,,,,,,,wg-a,,,,AAXX 01064 07761 02559 30606 10070 20050 30167 40178 50001 60006 83500 90600 333 10124 20059 60004=
07761,1998-03-01 09:00:00,14,1019.3,1.5,63,7,25000,22.224,,,270,,,,,,,,,,,wg-a,,,,AAXX 01094 07761 12675 42712 10140 20070 30182 40193 51015 60006 84200 90900=
07761,1998-03-01 12:00:00,15,1019.3,0,55,6,25000,25.928,,,280,,,,,,,,,,,wg-a,,,,AAXX 01124 07761 12675 52814 10150 20060 30182 40193 50000 60006 85240 91200=
07761,1998-03-01 15:00:00,15,1018.8,-0.5,55,6,25000,14.816,,,320,,,,,,,,,,,wg-a,,,,AAXX 01154 07761 12675 /3208 10150 20060 30177 40188 56005 60006 84240 91500=
07761,1998-03-01 18:00:00,11,1019.7,0.9,71,6,15000,7.408,,,50,6.3,16.2,,,,,,,,,wg-a,,,,AAXX 01184 07761 12565 20504 10110 20060 30186 40197 53009 60006 82440 91800 333 10162 20063=
07761,1998-03-01 21:00:00,9,1020.6,0.9,81,6,15000,11.112,,,50,,,,,,,,,,,wg-a,,,,AAXX 01214 07761 12565 30506 10090 20060 30195 40206 53009 60006 83500 92100=
07761,1998-03-02 00:00:00,8,1020.7,0.1,81,5,15000,14.816,,,50,,,,,,,,,,,wg-a,,,,AAXX 02004 07761 12565 50508 10080 20050 30196 40207 53001 60006 85500 90000=
07761,1998-03-02 03:00:00,8,1019.9,-0.8,76,4,15000,14.816,,,50,,,,,,,,,,,wg-a,,,,AAXX 02034 07761 12565 30508 10080 20040 30188 40199 58008 60006 83500 90300=
07761,1998-03-02 06:00:00,5,1020.5,0.6,87,3,15000,14.816,,,50,5.4,10.5,,,,,,,,,wg-a,,,,AAXX 02064 07761 02665 /0508 10050 20030 30194 40205 53006 60006 81500 90600 333 10105 20054 60004=
07761,1998-03-02 09:00:00,14,1022.2,1.7,58,6,15000,3.704,,,50,,,,,,,,,,,wg-a,,,,AAXX 02094 07761 12665 /0502 10140 20060 30211 40222 51017 60006 81100 90900=
07761,1998-03-02 15:00:00,15,1022.9,-0.3,55,6,500,7.408,,,220,,,,,,,,,,,wg-a,,,,AAXX 02154 07761 12600 /2204 10150 20060 30218 40229 56003 60006 81800 91500=
07761,1998-03-02 18:00:00,12,1024.3,1.4,67,6,500,14.816,,,230,5.2,15.8,,,,,,,,,wg-a,,,,AAXX 02184 07761 12500 32308 10120 20060 30232 40243 53014 60006 83800 91800 333 10158 20052=
07761,1998-03-02 21:00:00,11,1026.1,1.8,71,6,15000,7.408,,,50,,,,,,,,,,,wg-a,,,,AAXX 02214 07761 12665 30504 10110 20060 30250 40261 51018 60006 83500 92100=
07761,1998-03-03 00:00:00,9,1026.6,0.5,76,5,15000,11.112,,,40,,,,,,,,,,,wg-a,,,,AAXX 03004 07761 12665 /0406 10090 20050 30255 40266 51005 60006 86500 90000=
07761,1998-03-03 03:00:00,9,1026,-0.6,76,5,15000,11.112,,,50,,,,,,,,,,,wg-a,,,,AAXX 03034 07761 12565 70506 10090 20050 30249 40260 58006 60006 875// 90300=
07761,1998-03-03 06:00:00,8,1027,1,81,5,25000,11.112,,,60,8.3,12.2,,,,,,,,,wg-a,,,,AAXX 03064 07761 02675 70606 10080 20050 30259 40270 53010 60006 875// 90600 333 10122 20083 60004=
07761,1998-03-03 09:00:00,13,1028.4,1.4,58,5,500,7.408,,,260,,,,,,,,,,,wg-a,,,,AAXX 03094 07761 12600 42604 10130 20050 30273 40284 53014 60006 84800 90900=
07761,1998-03-03 12:00:00,16,1027.8,-0.6,55,7,500,18.52,,,250,,,,,,,,,,,wg-a,,,,AAXX 03124 07761 12600 /2510 10160 20070 30267 40278 58006 60006 81101 91200=
07761,1998-03-03 15:00:00,15,1028.1,0.3,63,8,500,18.52,,,210,,,,,,,,,,,wg-a,,,,AAXX 03154 07761 12600 /2110 10150 20080 30270 40281 53003 60006 81101 91500=
07761,1998-03-03 18:00:00,11,1028.8,0.7,76,7,20000,7.408,,,70,8.3,15.7,,,,,,,,,wg-a,,,,AAXX 03184 07761 12/70 30704 10110 20070 30277 40288 53007 60006 80001 91800 333 10157 20083=
07761,1998-03-03 21:00:00,8,1029.1,0.3,81,5,20000,14.816,,,50,,,,,,,,,,,wg-a,,,,AAXX 03214 07761 12670 30508 10080 20050 30280 40291 52003 60006 81101 92100=
07761,1998-03-04 00:00:00,7,1028.9,-0.2,81,4,20000,14.816,,,40,,,,,,,,,,,wg-a,,,,AAXX 04004 07761 12770 40408 10070 20040 30278 40289 56002 60006 81532 90000=
07761,1998-03-04 03:00:00,6,1027.9,-1,87,4,20000,14.816,,,40,,,,,,,,,,,wg-a,,,,AAXX 04034 07761 12/70 30408 10060 20040 30268 40279 58010 60006 81031 90300=
07761,1998-03-04 06:00:00,7,1027.7,-0.2,81,4,20000,11.112,,,50,6,10.8,,,,,,,,,wg-a,,,,AAXX 04064 07761 02570 /0506 10070 20040 30266 40277 55002 60006 86501 90600 333 10108 20060 60004=
07761,1998-03-04 09:00:00,13,1028.4,0.7,67,7,18000,3.704,,,30,,,,,,,,,,,wg-a,,,,AAXX 04094 07761 12568 70302 10130 20070 30273 40284 50007 60006 878// 90900=
07761,1998-03-04 12:00:00,16,1027.3,-1.1,68,10,18000,11.112,,,250,,,,,,,,,,,wg-a,,,,AAXX 04124 07761 12668 /2506 10160 20100 30262 40273 58011 60006 83830 91200=
07761,1998-03-04 15:00:00,16,1026.2,-1.1,72,11,12000,11.112,,,260,,,,,,,,,,,wg-a,,,,AAXX 04154 07761 12562 /2606 10160 20110 30251 40262 55011 60006 81802 91500=
07761,1998-03-04 18:00:00,12,1025.7,-0.5,82,9,12000,7.408,,,60,7,16.5,,,,,,,,,wg-a,,,,AAXX 04184 07761 12662 /0604 10120 20090 30246 40257 55005 60006 81502 91800 333 10165 20070=
07761,1998-03-04 21:00:00,9,1025.6,-0.1,87,7,10000,11.112,,,50,,,,,,,,,,,wg-a,,,,AAXX 04214 07761 12/60 60506 10090 20070 30245 40256 58001 60006 80002 92100=
07761,1998-03-05 00:00:00,8,1024.5,-1.1,87,6,12000,14.816,,,40,,,,,,,,,,,wg-a,,,,AAXX 05004 07761 12/62 40408 10080 20060 30234 40245 58011 60006 80002 90000=
07761,1998-03-05 03:00:00,8,1023.1,-1.4,76,4,12000,14.816,,,40,,,,,,,,,,,wg-a,,,,AAXX 05034 07761 12/62 40408 10080 20040 30220 40231 57014 60006 80002 90300=
07761,1998-03-05 06:00:00,8,1022.4,-0.7,71,3,15000,18.52,,,40,7.3,12.1,,,,,,,,,wg-a,,,,AAXX 05064 07761 02/65 60410 10080 20030 30213 40224 56007 60006 81032 90600 333 10121 20073 60004=
07761,1998-03-05 09:00:00,14,1022.7,0.3,58,6,500,0,,,0,,,,,,,,,,,wg-a,,,,AAXX 05094 07761 12600 80000 10140 20060 30216 40227 51003 60006 81147 90900=
07761,1998-03-05 12:00:00,17,1021.8,-0.9,72,12,25000,11.112,,,220,,,,,,,,,,,wg-a,,,,AAXX 05124 07761 12675 /2206 10170 20120 30207 40218 57009 60006 81506 91200=
07761,1998-03-05 15:00:00,16,1021.1,-0.7,82,13,15000,14.816,,,230,,,,,,,,,,,wg-a,,,,AAXX 05154 07761 12565 /2308 10160 20130 30200 40211 56007 60006 81506 91500=
07761,1998-03-05 18:00:00,13,1022.3,1.2,77,9,20000,3.704,,,50,7.7,17.3,,,,,,,,,wg-a,,,,AAXX 05184 07761 12570 /0502 10130 20090 30212 40223 53012 60006 81830 91800 333 10173 20077=
07761,1998-03-05 21:00:00,9,1024,1.7,87,7,15000,14.816,,,60,,,,,,,,,,,wg-a,,,,AAXX 05214 07761 12565 /0608 10090 20070 30229 40240 51017 60006 81130 92100=
07761,1998-03-06 00:00:00,6,1024.9,0.9,93,5,15000,14.816,,,70,,,,,,,,,,,wg-a,,,,AAXX 06004 07761 12/65 00708 10060 20050 30238 40249 51009 60006 80000 90000=
07761,1998-03-06 03:00:00,5,1025.4,0.5,81,2,20000,14.816,,,50,,,,,,,,,,,wg-a,,,,AAXX 06034 07761 12/70 00508 10050 20020 30243 40254 52005 60006 80000 90300=
07761,1998-03-06 06:00:00,5,1026.7,1.3,70,0,40000,14.816,,,50,4.4,12.9,,,,,,,,,wg-a,,,,AAXX 06064 07761 02/82 30508 10050 20000 30256 40267 53013 60006 81031 90600 333 10129 20044 60004=
07761,1998-03-06 09:00:00,14,1028.1,1.4,41,1,40000,11.112,,,50,,,,,,,,,,,wg-a,,,,AAXX 06094 07761 12/82 20506 10140 20010 30270 40281 51014 60006 80001 90900=
07761,1998-03-06 12:00:00,16,1027.9,-0.2,63,9,40000,18.52,,,220,,,,,,,,,,,wg-a,,,,AAXX 06124 07761 12782 42210 10160 20090 30268 40279 58002 60006 81101 91200=
07761,1998-03-06 15:00:00,15,1027.3,-0.6,59,7,500,22.224,,,230,,,,,,,,,,,wg-a,,,,AAXX 06154 07761 12600 /2312 10150 20070 30262 40273 56006 60006 81102 91500=
07761,1998-03-06 18:00:00,12,1027.9,0.6,67,6,500,7.408,,,40,4.4,17,,,,,,,,,wg-a,,,,AAXX 06184 07761 12/00 40404 10120 20060 30268 40279 52006 60006 81032 91800 333 10170 20044=
07761,1998-03-06 21:00:00,7,1028.3,0.4,81,4,15000,11.112,,,50,,,,,,,,,,,wg-a,,,,AAXX 06214 07761 12/65 30506 10070 20040 30272 40283 51004 60006 80002 92100=
07761,1998-03-07 00:00:00,6,1027.8,-0.5,81,3,15000,14.816,,,40,,,,,,,,,,,wg-a,,,,AAXX 07004 07761 12/65 00408 10060 20030 30267 40278 58005 60006 80000 90000=
07761,1998-03-07 03:00:00,5,1026.2,-1.6,81,2,15000,14.816,,,50,,,,,,,,,,,wg-a,,,,AAXX 07034 07761 12/65 00508 10050 20020 30251 40262 56016 60006 80000 90300=
07761,1998-03-07 06:00:00,4,1025.5,-0.7,87,2,15000,14.816,,,50,4.2,11.9,,,,,,,,,wg-a,,,,AAXX 07064 07761 02/65 10508 10040 20020 30244 40255 56007 60006 80001 90600 333 10119 20042 60004=
07761,1998-03-07 12:00:00,17,1024.1,-1.5,72,12,25000,18.52,,,220,,,,,,,,,,,wg-a,,,,AAXX 07124 07761 12675 /2210 10170 20120 30230 40241 58015 60006 81141 91200=
07761,1998-03-07 15:00:00,16,1022.1,-2,82,13,15000,14.816,,,240,,,,,,,,,,,wg-a,,,,AAXX 07154 07761 12565 22408 10160 20130 30210 40221 58020 60006 82200 91500=
07761,1998-03-07 18:00:00,14,1022,-0.1,82,11,9000,11.112,,,240,3.9,17.2,,,,,,,,,wg-a,,,,AAXX 07184 07761 12459 82406 10140 20110 30209 40220 55001 60006 86801 91800 333 10172 20039=
07761,1998-03-07 21:00:00,14,1021.4,-0.6,82,11,10000,18.52,,,220,,,,,,,,,,,wg-a,,,,AAXX 07214 07761 12460 82210 10140 20110 30203 40214 55006 60006 885// 92100=
07761,1998-03-08 00:00:00,12,1020.6,-0.8,88,10,10000,7.408,,,70,,,,,,,,,,,wg-a,,,,AAXX 08004 07761 12460 70704 10120 20100 30195 40206 58008 60006 875// 90000=
07761,1998-03-08 03:00:00,10,1018,-2.6,93,9,8000,11.112,,,50,,,,,,,,,,,wg-a,,,,AAXX 08034 07761 12458 /0506 10100 20090 30169 40180 58026 60006 86500 90300=
07761,1998-03-08 06:00:00,10,1017.8,-0.2,93,9,10000,7.408,,,100,8.8,13.6,,,,,,,,,wg-a,,,,AAXX 08064 07761 02560 71004 10100 20090 30167 40178 56002 60006 85532 90600 333 10136 20088 60004=
07761,1998-03-08 09:00:00,15,1017.7,-0.1,63,8,12000,11.112,,,110,,,,,,,,,,,wg-a,,,,AAXX 08094 07761 12562 71106 10150 20080 30166 40177 58001 60006 84872 90900=
07761,1998-03-08 12:00:00,16,1017,-0.7,59,8,12000,7.408,,,290,,,,,,,,,,,wg-a,,,,AAXX 08124 07761 12562 72904 10160 20080 30159 40170 58007 60006 83842 91200=
07761,1998-03-08 15:00:00,15,1014.2,-2.8,67,9,10000,11.112,,,280,,,,,,,,,,25,wg-a,,,,AAXX 08154 07761 02560 72806 10150 20090 30131 40142 58028 61000 72586 8587/ 91500 333 ////=
07761,1998-03-08 18:00:00,14,1011.4,-2.8,82,11,10000,11.112,,,170,10.1,16.1,,,,,,,,3,wg-a,,,,AAXX 08184 07761 12460 81706 10140 20110 30103 40114 56028 60006 70386 875// 91800 333 10161 20101=
07761,1998-03-08 21:00:00,15,1008.7,-2.7,77,11,15000,31.484,,,260,,,,,,,,,,,wg-a,,,,AAXX 08214 07761 12565 /2617 10150 20110 30076 40087 56027 60006 84500 92100=
07761,1998-03-09 00:00:00,15,1006.3,-2.4,63,8,11000,31.484,,51.856,300,,,,,,,,,,,wg-a,,,,AAXX 09004 07761 12/61 /3017 10150 20080 30052 40063 57024 60006 90000 333 91028=
07761,1998-03-09 03:00:00,14,1005.7,-0.6,67,8,15000,11.112,,57.412,310,,,,,,,,,,,wg-a,,,,AAXX 09034 07761 12565 73106 10140 20080 30046 40057 58006 60006 875// 90300 333 91031=
07761,1998-03-09 06:00:00,13,1004.5,-1.2,72,8,15000,18.52,,57.412,310,13,15.7,,,,,,,,,wg-a,,,,AAXX 09064 07761 02565 73110 10130 20080 30034 40045 58012 60006 878// 90600 333 10157 20130 61000 91031=
07761,1998-03-09 09:00:00,15,1004.2,-0.3,63,8,20000,11.112,,,280,,,,,,,,,,2,wg-a,,,,AAXX 09094 07761 02570 32806 10150 20080 30031 40042 57003 61000 70286 83800 90900 333 ////=
07761,1998-03-09 12:00:00,16,1005.1,0.9,59,8,10000,18.52,,,230,,,,,,,,,,1,wg-a,,,,AAXX 09124 07761 02560 72310 10160 20080 30040 40051 51009 61000 70186 83382 91200 333 ////=
07761,1998-03-09 18:00:00,9,1008.5,2.7,87,7,15000,14.816,,,60,8.8,17.9,,4,,,,,,1,wg-a,,,,AAXX 09184 07761 02565 /0608 10090 20070 30074 40085 51027 60006 70198 81263 91800 333 10179 20088 60047=
07761,1998-03-09 21:00:00,8,1010.2,1.7,87,6,12000,18.52,,,60,,,,,,,,,,,wg-a,,,,AAXX 09214 07761 12562 70610 10080 20060 30091 40102 51017 60006 81232 92100=
07761,1998-03-10 00:00:00,8,1010.6,0.4,87,6,12000,18.52,,,50,,,,,,,,,,13,wg-a,,,,AAXX 10004 07761 12662 /0510 10080 20060 30095 40106 53004 60006 71311 81332 90000=
07761,1998-03-10 03:00:00,9,1013.3,2.7,66,3,15000,14.816,,,60,,,,,,,,,,2,wg-a,,,,AAXX 10034 07761 02665 /0608 10090 20030 30122 40133 51027 61000 70286 81232 90300 333 ////=
07761,1998-03-10 06:00:00,9,1017.2,3.9,34,-6,25000,25.928,,,20,7,10.9,,,,,4,,,1,wg-a,,,,AAXX 10064 07761 02675 /0214 10090 21060 30161 40172 51039 60006 70186 81232 90600 333 10109 20070 60044=
07761,1998-03-10 09:00:00,10,1022.5,5.3,20,-12,500,31.484,,61.116,30,,,,,,,,,,,wg-a,,,,AAXX 10094 07761 12700 /0317 10100 21120 30214 40225 51053 60006 81800 90900 333 91033=
07761,1998-03-10 12:00:00,12,1024,1.5,19,-11,500,11.112,,61.116,100,,,,,,,,,,,wg-a,,,,AAXX 10124 07761 12700 /1006 10120 21110 30229 40240 50015 60006 81100 91200 333 91033=
07761,1998-03-10 15:00:00,12,1023.7,-0.3,24,-8,500,11.112,,,200,,,,,,,,,,,wg-a,,,,AAXX 10154 07761 12/00 02006 10120 21080 30226 40237 56003 60006 80000 91500=
07761,1998-03-10 18:00:00,8,1025.8,2.1,39,-5,20000,7.408,,,80,8.2,13.1,,,,,,,,,wg-a,,,,AAXX 10184 07761 12/70 10804 10080 21050 30247 40258 53021 60006 81031 91800 333 10131 20082=
07761,1998-03-10 21:00:00,3,1026.3,0.5,48,-7,500,14.816,,,50,,,,,,,,,,,wg-a,,,,AAXX 10214 07761 12/00 00508 10030 21070 30252 40263 50005 60006 80000 92100=
07761,1998-03-11 00:00:00,1,1025.3,-1,55,-7,40000,14.816,,,40,,,,,,,,,,,wg-a,,,,AAXX 11004 07761 12/82 10408 10010 21070 30242 40253 58010 60006 80001 90000=
07761,1998-03-11 03:00:00,1,1023.5,-1.8,59,-6,20000,18.52,,,50,,,,,,,,,,,wg-a,,,,AAXX 11034 07761 12/70 10510 10010 21060 30224 40235 56018 60006 80001 90300=
07761,1998-03-11 06:00:00,2,1021.3,-2.2,55,-6,45000,14.816,,,40,-0.3,8.2,,,,,,,,,wg-a,,,,AAXX 11064 07761 02583 /0408 10020 21060 30202 40213 57022 60006 81552 90600 333 10082 21003 60004=
07761,1998-03-11 09:00:00,8,1018.8,-2.5,46,-3,500,11.112,,,50,,,,,,,,,,,wg-a,,,,AAXX 11094 07761 12600 80506 10080 21030 30177 40188 56025 60006 8357/ 90900=
07761,1998-03-11 12:00:00,8,1017.4,-1.4,81,5,8000,11.112,,,110,,,,,,,,,,,wg-a,,,,AAXX 11124 07761 12/58 /1106 10080 20050 30163 40174 57014 60016 91200=
07761,1998-03-11 15:00:00,7,1012.8,-4.6,87,5,500,18.52,,,70,,,,9,,,,,,63,wg-a,,,,AAXX 11154 07761 12400 80710 10070 20050 30117 40128 58046 60097 76366 8687/ 91500=
07761,1998-03-11 18:00:00,7,1010.7,-2.1,93,6,500,14.816,,,50,2.3,10.1,,,,,,,,63,wg-a,,,,AAXX 11184 07761 02400 80508 10070 20060 30096 40107 56021 61000 76366 878// 91800 333 10101 20023 6013=
07761,1998-03-11 21:00:00,8,1009.5,-1.2,87,6,11000,11.112,,,90,,,,,,,,,,,wg-a,,,,AAXX 11214 07761 32/61 /0906 10080 20060 30084 40095 55012 92100=
07761,1998-03-12 00:00:00,7,1009,-0.5,93,6,10000,11.112,,,60,,,,1,,,,,,60,wg-a,,,,AAXX 12004 07761 02560 80606 10070 20060 30079 40090 58005 60086 76062 8682/ 90000 333 60017=
07761,1998-03-12 03:00:00,7,1007.8,-1.2,93,6,10000,7.408,,,50,,,,,,,,,,2,wg-a,,,,AAXX 12034 07761 02560 80504 10070 20060 30067 40078 56012 61000 70262 878// 90300 333 ////=
07761,1998-03-12 06:00:00,7,1008,0.2,93,6,15000,7.408,,,30,6.8,8.4,,,,,31,,,2,wg-a,,,,AAXX 12064 07761 02465 70304 10070 20060 30069 40080 53002 60006 70262 83831 90600 333 10084 20068 60314=
07761,1998-03-12 09:00:00,12,1008.5,0.5,71,7,20000,3.704,,,130,,,,,,,,,,,wg-a,,,,AAXX 12094 07761 12570 /1302 10120 20070 30074 40085 50005 60006 82202 90900=
07761,1998-03-12 12:00:00,15,1008.3,-0.2,63,8,25000,14.816,,,220,,,,,,,,,,,wg-a,,,,AAXX 12124 07761 12675 32208 10150 20080 30072 40083 58002 60006 82201 91200=
07761,1998-03-12 15:00:00,13,1008.9,0.6,72,8,20000,18.52,,,190,,,,3,,,,,,3,wg-a,,,,AAXX 12154 07761 12670 51910 10130 20080 30078 40089 53006 60037 70398 84901 91500=
07761,1998-03-12 18:00:00,11,1010.8,1.9,71,6,500,22.224,,,90,6.1,14.7,,,,,,,,16,wg-a,,,,AAXX 12184 07761 12500 60912 10110 20060 30097 40108 53019 60006 71698 84930 91800 333 10147 20061=
07761,1998-03-12 21:00:00,8,1012.3,1.5,81,5,10000,11.112,,,40,,,,,,,,,,3,wg-a,,,,AAXX 12214 07761 02/60 /0406 10080 20050 30112 40123 53015 61000 70386 86030 92100 333 ////=
07761,1998-03-13 00:00:00,7,1012.8,0.5,81,4,15000,11.112,,,40,,,,,,,,,,2,wg-a,,,,AAXX 13004 07761 02665 50406 10070 20040 30117 40128 51005 61000 70286 81530 90000 333 ////=
07761,1998-03-13 03:00:00,6,1012.7,-0.1,93,5,15000,11.112,,,40,,,,,,,,,,,wg-a,,,,AAXX 13034 07761 12665 /0406 10060 20050 30116 40127 58001 60006 81530 90300=
07761,1998-03-13 06:00:00,7,1014,1.3,93,6,500,3.704,,,80,5.2,10.8,,,,,5,,,2,wg-a,,,,AAXX 13064 07761 02600 /0802 10070 20060 30129 40140 51013 60006 70262 82170 90600 333 10108 20052 60054=
07761,1998-03-13 09:00:00,9,1015.8,1.8,87,7,500,7.408,,,70,,,,,,,,,,,wg-a,,,,AAXX 13094 07761 12500 70704 10090 20070 30147 40158 51018 60006 8257/ 90900=
07761,1998-03-13 12:00:00,11,1017.2,1.4,76,7,500,3.704,,,90,,,,,,,,,,,wg-a,,,,AAXX 13124 07761 12600 70902 10110 20070 30161 40172 51014 60006 8157/ 91200=
07761,1998-03-13 15:00:00,13,1017,-0.2,67,7,35000,7.408,,,210,,,,,,,,,,,wg-a,,,,AAXX 13154 07761 12681 /2104 10130 20070 30159 40170 55002 60006 81842 91500=
07761,1998-03-13 18:00:00,12,1018.7,1.7,71,7,25000,0,,,0,6.9,13.8,,,,,,,,,wg-a,,,,AAXX 13184 07761 12675 20000 10120 20070 30176 40187 53017 60006 81430 91800 333 10138 20069=
07761,1998-03-13 21:00:00,7,1020.5,1.8,87,5,25000,14.816,,,40,,,,,,,,,,,wg-a,,,,AAXX 13214 07761 12675 /0408 10070 20050 30194 40205 51018 60006 81500 92100=
07761,1998-03-14 00:00:00,6,1021.9,1.4,81,3,25000,14.816,,,50,,,,,,,,,,,wg-a,,,,AAXX 14004 07761 12875 30508 10060 20030 30208 40219 51014 60006 83030 90000=
07761,1998-03-14 03:00:00,5,1021.4,-0.5,87,3,25000,11.112,,,40,,,,,,,,,,,wg-a,,,,AAXX 14034 07761 12575 /0406 10050 20030 30203 40214 58005 60006 83800 90300=
07761,1998-03-14 06:00:00,5,1022,0.6,87,3,25000,14.816,,,50,4.3,11.6,,,,,,,,,wg-a,,,,AAXX 14064 07761 02675 20508 10050 20030 30209 40220 53006 60006 82800 90600 333 10116 20043 60004=
07761,1998-03-14 09:00:00,13,1022.3,0.3,62,6,500,3.704,,,270,,,,,,,,,,,wg-a,,,,AAXX 14094 07761 12600 22702 10130 20060 30212 40223 52003 60006 81201 90900=
07761,1998-03-14 12:00:00,15,1021.4,-0.9,67,9,500,18.52,,,230,,,,,,,,,,,wg-a,,,,AAXX 14124 07761 12600 22310 10150 20090 30203 40214 58009 60006 82200 91200=
07761,1998-03-14 15:00:00,14,1019.6,-1.8,72,9,20000,18.52,,,230,,,,,,,,,,,wg-a,,,,AAXX 14154 07761 12670 22310 10140 20090 30185 40196 56018 60006 82400 91500=
07761,1998-03-14 18:00:00,12,1019.6,-0,71,7,20000,7.408,,,170,5.2,15,,,,,,,,,wg-a,,,,AAXX 14184 07761 12670 21704 10120 20070 30185 40196 55000 60006 82400 91800 333 10150 20052=
07761,1998-03-14 21:00:00,7,1020.2,0.6,87,5,20000,11.112,,,50,,,,,,,,,,,wg-a,,,,AAXX 14214 07761 12770 /0506 10070 20050 30191 40202 51006 60006 81500 92100=
07761,1998-03-15 00:00:00,5,1019.4,-0.8,87,3,20000,11.112,,,50,,,,,,,,,,,wg-a,,,,AAXX 15004 07761 12/70 00506 10050 20030 30183 40194 58008 60006 80000 90000=
07761,1998-03-15 03:00:00,4,1018,-1.4,93,3,20000,11.112,,,30,,,,,,,,,,,wg-a,,,,AAXX 15034 07761 12/70 00306 10040 20030 30169 40180 58014 60006 80000 90300=
07761,1998-03-15 06:00:00,4,1017.4,-0.6,87,2,20000,14.816,,,50,3,11.8,,,,,,,,,wg-a,,,,AAXX 15064 07761 02/70 10508 10040 20020 30163 40174 55006 60006 80001 90600 333 10118 20030 60004=
07761,1998-03-15 09:00:00,13,1018,0.6,51,3,500,3.704,,,240,,,,,,,,,,,wg-a,,,,AAXX 15094 07761 12/00 02402 10130 20030 30169 40180 51006 60006 80000 90900=
07761,1998-03-15 12:00:00,16,1017.8,-0.2,68,10,500,14.816,,,220,,,,,,,,,,,wg-a,,,,AAXX 15124 07761 12700 /2208 10160 20100 30167 40178 58002 60006 81500 91200=
07761,1998-03-15 15:00:00,15,1017.1,-0.7,67,9,25000,14.816,,,200,,,,,,,,,,,wg-a,,,,AAXX 15154 07761 12675 22008 10150 20090 30160 40171 56007 60006 82101 91500=
07761,1998-03-15 18:00:00,13,1018,0.9,77,9,25000,7.408,,,180,3.7,15.7,,,,,,,,,wg-a,,,,AAXX 15184 07761 12/75 71804 10130 20090 30169 40180 53009 60006 80002 91800 333 10157 20037=
07761,1998-03-16 00:00:00,8,1018.5,-0.3,87,6,20000,11.112,,,60,,,,,,,,,,,wg-a,,,,AAXX 16004 07761 12/70 00606 10080 20060 30174 40185 55003 60006 80000 90000=
07761,1998-03-16 06:00:00,4,1018.7,0.3,87,2,20000,11.112,,,50,4.4,12.9,,,,,,,,,wg-a,,,,AAXX 16064 07761 02/70 00506 10040 20020 30176 40187 52003 60006 80000 90600 333 10129 20044 60004=
07761,1998-03-16 09:00:00,14,1019.9,1.2,55,5,40000,7.408,,,240,,,,,,,,,,,wg-a,,,,AAXX 16094 07761 12/82 02404 10140 20050 30188 40199 51012 60006 80000 90900=
07761,1998-03-16 12:00:00,16,1019.9,0,77,12,40000,22.224,,,210,,,,,,,,,,,wg-a,,,,AAXX 16124 07761 12682 /2112 10160 20120 30188 40199 50000 60006 81100 91200=
07761,1998-03-16 15:00:00,16,1019.5,-0.4,63,9,25000,11.112,,,200,,,,,,,,,,,wg-a,,,,AAXX 16154 07761 12575 /2006 10160 20090 30184 40195 56004 60006 81200 91500=
07761,1998-03-16 18:00:00,13,1020.2,0.7,77,9,25000,14.816,,,190,4.4,16.9,,,,,,,,,wg-a,,,,AAXX 16184 07761 12675 /1908 10130 20090 30191 40202 53007 60006 81400 91800 333 10169 20044=
07761,1998-03-16 21:00:00,8,1022,1.8,81,5,25000,14.816,,,60,,,,,,,,,,,wg-a,,,,AAXX 16214 07761 12/75 00608 10080 20050 30209 40220 51018 60006 80000 92100=
07761,1998-03-17 00:00:00,6,1021.9,-0.1,87,4,25000,14.816,,,50,,,,,,,,,,,wg-a,,,,AAXX 17004 07761 12/75 00508 10060 20040 30208 40219 58001 60006 80000 90000=
07761,1998-03-17 03:00:00,5,1021.7,-0.2,87,3,25000,11.112,,,50,,,,,,,,,,,wg-a,,,,AAXX 17034 07761 12/75 00506 10050 20030 30206 40217 57002 60006 80000 90300=
07761,1998-03-17 06:00:00,4,1022.4,0.7,81,1,25000,11.112,,,50,3.5,13,,,,,,,,,wg-a,,,,AAXX 17064 07761 02475 /0506 10040 20010 30213 40224 53007 60006 81500 90600 333 10130 20035 60004=
07761,1998-03-17 09:00:00,15,1023.2,0.8,63,8,25000,3.704,,,340,,,,,,,,,,,wg-a,,,,AAXX 17094 07761 12575 /3402 10150 20080 30221 40232 51008 60006 81500 90900=
07761,1998-03-17 12:00:00,16,1022.5,-0.7,68,10,20000,29.632,,,230,,,,,,,,,,,wg-a,,,,AAXX 17124 07761 12570 /2316 10160 20100 30214 40225 57007 60006 81500 91200=
07761,1998-03-17 15:00:00,15,1021.6,-0.9,72,10,9000,22.224,,,240,,,,,,,,,,,wg-a,,,,AAXX 17154 07761 12559 /2412 10150 20100 30205 40216 57009 60006 86500 91500=
07761,1998-03-17 18:00:00,14,1021.3,-0.3,77,10,10000,25.928,,,210,3.5,16.2,,,,,,,,,wg-a,,,,AAXX 17184 07761 12560 72114 10140 20100 30202 40213 55003 60006 875// 91800 333 10162 20035=
07761,1998-03-17 21:00:00,13,1021.6,0.3,77,9,10000,11.112,,,220,,,,,,,,,,,wg-a,,,,AAXX 17214 07761 12560 72206 10130 20090 30205 40216 52003 60006 875// 92100=
07761,1998-03-18 00:00:00,11,1021.4,-0.2,82,8,10000,7.408,,,60,,,,,,,,,,,wg-a,,,,AAXX 18004 07761 12560 /0604 10110 20080 30203 40214 56002 60006 86500 90000=
07761,1998-03-18 03:00:00,7,1021.7,0.3,87,5,12000,11.112,,,50,,,,,,,,,,,wg-a,,,,AAXX 18034 07761 12562 /0506 10070 20050 30206 40217 52003 60006 81500 90300=
07761,1998-03-18 06:00:00,6,1023.9,2.2,93,5,15000,18.52,,,50,5.9,13.5,,,,,,,,,wg-a,,,,AAXX 18064 07761 02565 /0510 10060 20050 30228 40239 53022 60006 81501 90600 333 10135 20059 60004=
07761,1998-03-18 09:00:00,15,1026,2.1,67,9,15000,7.408,,,210,,,,,,,,,,,wg-a,,,,AAXX 18094 07761 12565 /2104 10150 20090 30249 40260 51021 60006 81100 90900=
07761,1998-03-18 12:00:00,16,1026.7,0.7,77,12,15000,18.52,,,230,,,,,,,,,,,wg-a,,,,AAXX 18124 07761 12765 12310 10160 20120 30256 40267 51007 60006 81100 91200=
07761,1998-03-18 15:00:00,16,1027.1,0.4,77,12,15000,18.52,,,200,,,,,,,,,,,wg-a,,,,AAXX 18154 07761 12665 /2010 10160 20120 30260 40271 53004 60006 81100 91500=
07761,1998-03-18 18:00:00,14,1028.8,1.7,72,9,10000,7.408,,,340,6.4,17,,,,,,,,,wg-a,,,,AAXX 18184 07761 12660 /3404 10140 20090 30277 40288 51017 60006 81101 91800 333 10170 20064=
07761,1998-03-18 21:00:00,9,1029.7,0.9,87,7,10000,11.112,,,60,,,,,,,,,,,wg-a,,,,AAXX 18214 07761 12/60 00606 10090 20070 30286 40297 51009 60006 80000 92100=
07761,1998-03-19 00:00:00,8,1030.2,0.5,87,6,15000,11.112,,,40,,,,,,,,,,,wg-a,,,,AAXX 19004 07761 12/65 00406 10080 20060 30291 40302 51005 60006 80000 90000=
07761,1998-03-19 03:00:00,7,1029.6,-0.6,81,4,15000,14.816,,,40,,,,,,,,,,,wg-a,,,,AAXX 19034 07761 12/65 00408 10070 20040 30285 40296 58006 60006 80000 90300=
07761,1998-03-19 06:00:00,6,1029.9,0.3,81,3,25000,14.816,,,40,5.4,13.9,,,,,,,,,wg-a,,,,AAXX 19064 07761 02/75 10408 10060 20030 30288 40299 53003 60006 80001 90600 333 10139 20054 60004=
07761,1998-03-19 09:00:00,15,1029.5,-0.4,63,8,40000,3.704,,,240,,,,,,,,,,,wg-a,,,,AAXX 19094 07761 12/82 22402 10150 20080 30284 40295 58004 60006 80002 90900=
07761,1998-03-19 12:00:00,15,1028.5,-1,82,12,500,14.816,,,210,,,,,,,,,,,wg-a,,,,AAXX 19124 07761 12200 42108 10150 20120 30274 40285 58010 60006 84602 91200=
07761,1998-03-19 15:00:00,15,1026,-2.5,77,11,10000,14.816,,,220,,,,,,,,,,,wg-a,,,,AAXX 19154 07761 12460 22208 10150 20110 30249 40260 56025 60006 81801 91500=
07761,1998-03-19 18:00:00,12,1025.2,-0.8,82,9,12000,7.408,,,140,5.6,16.1,,,,,,,,,wg-a,,,,AAXX 19184 07761 12562 21404 10120 20090 30241 40252 56008 60006 82500 91800 333 10161 20056=
07761,1998-03-19 21:00:00,9,1025.5,0.3,87,7,10000,14.816,,,40,,,,,,,,,,,wg-a,,,,AAXX 19214 07761 12660 /0408 10090 20070 30244 40255 53003 60006 81500 92100=
07761,1998-03-20 00:00:00,8,1026.5,1,87,6,15000,14.816,,,50,,,,,,,,,,,wg-a,,,,AAXX 20004 07761 12565 40508 10080 20060 30254 40265 51010 60006 84500 90000=
07761,1998-03-20 03:00:00,7,1025.9,-0.6,87,5,15000,14.816,,,50,,,,,,,,,,,wg-a,,,,AAXX 20034 07761 12565 30508 10070 20050 30248 40259 58006 60006 81501 90300=
07761,1998-03-20 06:00:00,6,1025.8,-0.1,93,5,10000,18.52,,,50,5.7,12.3,,,,,,,,,wg-a,,,,AAXX 20064 07761 02/60 00510 10060 20050 30247 40258 58001 60006 80000 90600 333 10123 20057 60004=
07761,1998-03-20 09:00:00,15,1025.8,-0,63,8,12000,7.408,,,210,,,,,,,,,,,wg-a,,,,AAXX 20094 07761 12562 22104 10150 20080 30247 40258 54000 60006 81101 90900=
07761,1998-03-20 12:00:00,16,1024.9,-0.9,72,11,10000,14.816,,,200,,,,,,,,,,,wg-a,,,,AAXX 20124 07761 12660 22008 10160 20110 30238 40249 58009 60006 82100 91200=
07761,1998-03-20 15:00:00,16,1023,-1.9,59,8,10000,14.816,,,330,,,,,,,,,,,wg-a,,,,AAXX 20154 07761 12560 43308 10160 20080 30219 40230 56019 60006 84200 91500=
07761,1998-03-20 18:00:00,13,1022.4,-0.6,77,9,10000,3.704,,,340,6.2,16.4,,,,,,,,,wg-a,,,,AAXX 20184 07761 12560 23402 10130 20090 30213 40224 58006 60006 82800 91800 333 10164 20062=
07761,1998-03-20 21:00:00,9,1022.3,-0.1,81,6,10000,11.112,,,40,,,,,,,,,,,wg-a,,,,AAXX 20214 07761 12/60 00406 10090 20060 30212 40223 58001 60006 80000 92100=
07761,1998-03-21 00:00:00,7,1021.1,-1.2,87,5,10000,14.816,,,30,,,,,,,,,,,wg-a,,,,AAXX 21004 07761 12/60 00308 10070 20050 30200 40211 58012 60006 80000 90000=
07761,1998-03-21 03:00:00,5,1019.3,-1.8,87,3,10000,18.52,,,50,,,,,,,,,,,wg-a,,,,AAXX 21034 07761 12460 30510 10050 20030 30182 40193 58018 60006 83500 90300=
07761,1998-03-21 06:00:00,6,1018.4,-0.9,81,3,13000,14.816,,,40,4.7,12.6,,,,,,,,,wg-a,,,,AAXX 21064 07761 02663 /0408 10060 20030 30173 40184 56009 60006 81500 90600 333 10126 20047 60004=
07761,1998-03-21 09:00:00,14,1017.7,-0.7,63,7,20000,3.704,,,220,,,,,,,,,,,wg-a,,,,AAXX 21094 07761 12570 /2202 10140 20070 30166 40177 56007 60006 81100 90900=
07761,1998-03-21 12:00:00,16,1016.6,-1.1,55,7,20000,14.816,,,240,,,,,,,,,,,wg-a,,,,AAXX 21124 07761 12670 /2408 10160 20070 30155 40166 58011 60006 81200 91200=
07761,1998-03-21 15:00:00,16,1016.2,-0.4,68,10,20000,18.52,,,200,,,,,,,,,,,wg-a,,,,AAXX 21154 07761 12670 /2010 10160 20100 30151 40162 56004 60006 81200 91500=
07761,1998-03-21 18:00:00,13,1017.2,1,82,10,15000,7.408,,,190,5.4,16.5,,,,,,,,,wg-a,,,,AAXX 21184 07761 12/65 /1904 10130 20100 30161 40172 53010 60006 81060 91800 333 10165 20054=
07761,1998-03-21 21:00:00,9,1019.4,2.2,87,7,15000,11.112,,,40,,,,,,,,,,,wg-a,,,,AAXX 21214 07761 12/65 /0406 10090 20070 30183 40194 51022 60006 81030 92100=
07761,1998-03-22 00:00:00,11,1021.2,1.8,50,1,11000,25.928,,,30,,,,,,,,,,,wg-a,,,,AAXX 22004 07761 12/61 /0314 10110 20010 30201 40212 51018 60006 90000=
07761,1998-03-22 03:00:00,9,1021.8,0.6,66,3,10000,25.928,,,20,,,,,,,,,,60,wg-a,,,,AAXX 22034 07761 02460 70214 10090 20030 30207 40218 53006 61000 76061 8553/ 90300 333 ////=
07761,1998-03-22 06:00:00,10,1023.3,1.5,53,1,25000,11.112,,,30,8.3,13.4,,,,,,,,1,wg-a,,,,AAXX 22064 07761 02675 /0306 10100 20010 30222 40233 53015 60006 70161 85530 90600 333 10134 20083 61000=
07761,1998-03-22 09:00:00,11,1025.1,1.8,50,1,25000,11.112,,,30,,,,,,,,,,,wg-a,,,,AAXX 22094 07761 12675 70306 10110 20010 30240 40251 51018 60006 8483/ 90900=
07761,1998-03-22 12:00:00,13,1025.1,0,51,3,20000,7.408,,,50,,,,,,,,,,,wg-a,,,,AAXX 22124 07761 12670 /0504 10130 20030 30240 40251 50000 60006 85870 91200=
07761,1998-03-22 15:00:00,13,1024.8,-0.3,47,2,20000,18.52,,,310,,,,,,,,,,,wg-a,,,,AAXX 22154 07761 12670 43110 10130 20020 30237 40248 55003 60006 83870 91500=
07761,1998-03-22 18:00:00,11,1025.5,0.7,54,2,20000,7.408,,,320,9.4,14.2,,,,,,,,,wg-a,,,,AAXX 22184 07761 12670 43204 10110 20020 30244 40255 53007 60006 83870 91800 333 10142 20094=
07761,1998-03-22 21:00:00,6,1026.3,0.8,81,3,20000,14.816,,,50,,,,,,,,,,,wg-a,,,,AAXX 22214 07761 12670 /0508 10060 20030 30252 40263 51008 60006 81500 92100=
07761,1998-03-23 00:00:00,7,1026.6,0.3,76,3,15000,7.408,,,40,,,,,,,,,,,wg-a,,,,AAXX 23004 07761 12765 70404 10070 20030 30255 40266 51003 60006 8455/ 90000=
07761,1998-03-23 03:00:00,7,1025.8,-0.8,81,4,15000,11.112,,,50,,,,,,,,,,,wg-a,,,,AAXX 23034 07761 12665 70506 10070 20040 30247 40258 58008 60006 8457/ 90300=
07761,1998-03-23 06:00:00,7,1025.9,0.1,87,5,20000,7.408,,,40,5.8,10.6,,,,,,,,3,wg-a,,,,AAXX 23064 07761 02670 80404 10070 20050 30248 40259 53001 60006 70361 8557/ 90600 333 10106 20058 61000=
07761,1998-03-23 09:00:00,9,1026.1,0.2,81,6,12000,3.704,,,70,,,,,,,,,,60,wg-a,,,,AAXX 23094 07761 02562 80702 10090 20060 30250 40261 52002 61000 76062 8487/ 90900 333 ////=
07761,1998-03-23 12:00:00,13,1024.7,-1.4,62,6,20000,11.112,,,240,,,,,,,,,,1,wg-a,,,,AAXX 23124 07761 02570 72406 10130 20060 30236 40247 58014 61000 70162 8387/ 91200 333 6100=
07761,1998-03-23 15:00:00,13,1022.4,-2.3,58,5,500,14.816,,,230,,,,,,,,,,,wg-a,,,,AAXX 23154 07761 12600 52308 10130 20050 30213 40224 56023 60006 83230 91500=
07761,1998-03-23 18:00:00,12,1021.5,-0.9,71,7,12000,11.112,,,200,7.3,13.6,,,,,,,,60,wg-a,,,,AAXX 23184 07761 02562 72006 10120 20070 30204 40215 56009 61000 76061 85830 91800 333 10136 20073 6100=
07761,1998-03-23 21:00:00,9,1021.1,-0.4,87,7,12000,11.112,,,50,,,,1,,,,,,1,wg-a,,,,AAXX 23214 07761 12562 80506 10090 20070 30200 40211 58004 60017 70186 8587/ 92100=
07761,1998-03-24 00:00:00,9,1019.1,-2,87,7,8000,11.112,,,40,,,,2,,,,,,25,wg-a,,,,AAXX 24004 07761 02558 70406 10090 20070 30180 40191 56020 60036 72586 8587/ 90000 333 60027=
07761,1998-03-24 03:00:00,8,1016.3,-2.8,87,6,10000,3.704,,,100,,,,,,,,,,,wg-a,,,,AAXX 24034 07761 12560 71002 10080 20060 30152 40163 58028 60006 8287/ 90300=
07761,1998-03-24 06:00:00,8,1012.7,-3.6,93,7,9000,7.408,,,70,7.4,11.4,,,,,,,,60,wg-a,,,,AAXX 24064 07761 02359 80704 10080 20070 30116 40127 57036 61000 76062 878// 90600 333 10114 20074 6003=
07761,1998-03-24 09:00:00,9,1011.3,-1.4,76,5,20000,18.52,,,310,,,,,,,,,,1,wg-a,,,,AAXX 24094 07761 02570 63110 10090 20050 30102 40113 58014 61000 70162 85830 90900 333 ////=
07761,1998-03-24 12:00:00,12,1009.8,-1.5,54,3,25000,25.928,,,310,,,,,,,,,,3,wg-a,,,,AAXX 24124 07761 02575 63114 10120 20030 30087 40098 56015 61000 70362 85830 91200 333 ////=
07761,1998-03-24 15:00:00,12,1009.1,-0.7,47,1,40000,31.484,,53.708,320,,,,,,,,,,,wg-a,,,,AAXX 24154 07761 12582 43217 10120 20010 30080 40091 55007 60006 83942 91500 333 91029=
07761,1998-03-24 18:00:00,8,1012.1,3,61,1,20000,25.928,,53.708,320,7.9,13.1,,,,,,,,,wg-a,,,,AAXX 24184 07761 12570 73214 10080 20010 30110 40121 51030 60006 85802 91800 333 10131 20079 91029=
07761,1998-03-24 21:00:00,8,1015.1,3,53,-1,20000,7.408,,,10,,,,,,,,,,,wg-a,,,,AAXX 24214 07761 12570 20104 10080 21010 30140 40151 51030 60006 82200 92100=
07761,1998-03-25 00:00:00,9,1016.7,1.6,40,-4,20000,31.484,,51.856,40,,,,,,,,,,,wg-a,,,,AAXX 25004 07761 12670 /0417 10090 21040 30156 40167 51016 60006 81500 90000 333 91028=
07761,1998-03-25 03:00:00,6,1018.1,1.4,49,-4,20000,14.816,,,80,,,,,,,,,,,wg-a,,,,AAXX 25034 07761 12/70 /0808 10060 21040 30170 40181 53014 60006 80000 90300=
07761,1998-03-25 06:00:00,5,1020,1.9,45,-6,20000,7.408,,,220,3.5,8.8,,,,,,,,,wg-a,,,,AAXX 25064 07761 02670 /2204 10050 21060 30189 40200 51019 60006 81101 90600 333 10088 20035 61000=
07761,1998-03-25 09:00:00,13,1020.1,0.1,21,-9,500,7.408,,,180,,,,,,,,,,,wg-a,,,,AAXX 25094 07761 12600 /1804 10130 21090 30190 40201 50001 60006 81100 90900=
07761,1998-03-25 12:00:00,13,1020.2,0.1,19,-10,500,14.816,,,30,,,,,,,,,,,wg-a,,,,AAXX 25124 07761 12600 /0308 10130 21100 30191 40202 50001 60006 81100 91200=
07761,1998-03-25 15:00:00,14,1019.5,-0.7,19,-9,500,18.52,,,40,,,,,,,,,,,wg-a,,,,AAXX 25154 07761 12600 /0410 10140 21090 30184 40195 56007 60006 81100 91500=
07761,1998-03-25 18:00:00,9,1021.4,1.9,29,-8,25000,14.816,,,60,4.9,14.1,,,,,,,,,wg-a,,,,AAXX 25184 07761 12675 20608 10090 21080 30203 40214 52019 60006 81101 91800 333 10141 20049=
07761,1998-03-25 21:00:00,8,1022.5,1.1,23,-12,20000,22.224,,,20,,,,,,,,,,,wg-a,,,,AAXX 25214 07761 12/70 /0212 10080 21120 30214 40225 51011 60006 80000 92100=
07761,1998-03-26 00:00:00,7,1021.7,-0.8,26,-11,20000,7.408,,,70,,,,,,,,,,,wg-a,,,,AAXX 26004 07761 12/70 00704 10070 21110 30206 40217 56008 60006 80000 90000=
07761,1998-03-26 03:00:00,2,1021.5,-0.2,47,-8,20000,11.112,,,70,,,,,,,,,,,wg-a,,,,AAXX 26034 07761 12/70 00706 10020 21080 30204 40215 57002 60006 80000 90300=
07761,1998-03-26 06:00:00,1,1022,0.5,55,-7,500,14.816,,,40,-0.6,9.2,,,,,,,,,wg-a,,,,AAXX 26064 07761 02/00 10408 10010 21070 30209 40220 53005 60006 80001 90600 333 10092 21006 60004=
07761,1998-03-26 09:00:00,12,1022.5,0.5,28,-6,500,3.704,,,230,,,,,,,,,,,wg-a,,,,AAXX 26094 07761 12/00 02302 10120 21060 30214 40225 52005 60006 80000 90900=
07761,1998-03-26 12:00:00,13,1021.3,-1.2,44,1,10000,18.52,,,220,,,,,,,,,,,wg-a,,,,AAXX 26124 07761 12/60 /2210 10130 20010 30202 40213 58012 60006 91200=
07761,1998-03-26 18:00:00,11,1019.9,0.5,54,2,10000,7.408,,,50,0.9,14.3,,,,,,,,,wg-a,,,,AAXX 26184 07761 12/60 00504 10110 20020 30188 40199 53005 60006 80000 91800 333 10143 20009=
07761,1998-03-27 00:00:00,4,1021.6,0.3,81,1,10000,14.816,,,40,,,,,,,,,,,wg-a,,,,AAXX 27004 07761 12/60 00408 10040 20010 30205 40216 51003 60006 80000 90000=
07761,1998-03-27 03:00:00,4,1020.9,-0.7,81,1,10000,14.816,,,50,,,,,,,,,,,wg-a,,,,AAXX 27034 07761 12560 30508 10040 20010 30198 40209 58007 60006 83500 90300=
07761,1998-03-27 06:00:00,4,1020.7,-0.2,81,1,15000,14.816,,,50,2.8,11.1,,,,,,,,,wg-a,,,,AAXX 27064 07761 02665 50508 10040 20010 30196 40207 57002 60006 81531 90600 333 10111 20028 60004=
07761,1998-03-27 09:00:00,12,1021.3,0.6,54,3,20000,3.704,,,260,,,,,,,,,,,wg-a,,,,AAXX 27094 07761 12/70 72602 10120 20030 30202 40213 52006 60006 80002 90900=
07761,1998-03-27 12:00:00,14,1021.1,-0.2,63,7,20000,18.52,,,230,,,,,,,,,,,wg-a,,,,AAXX 27124 07761 12670 72310 10140 20070 30200 40211 58002 60006 81102 91200=
07761,1998-03-27 15:00:00,15,1020.2,-0.9,55,6,15000,18.52,,,210,,,,,,,,,,,wg-a,,,,AAXX 27154 07761 12665 32110 10150 20060 30191 40202 56009 60006 81101 91500=
07761,1998-03-27 18:00:00,12,1019.9,-0.3,62,5,10000,7.408,,,150,3.8,15,,,,,,,,,wg-a,,,,AAXX 27184 07761 12/60 /1504 10120 20050 30188 40199 55003 60006 80002 91800 333 10150 20038=
07761,1998-03-27 21:00:00,7,1021.5,1.6,81,4,12000,11.112,,,40,,,,,,,,,,,wg-a,,,,AAXX 27214 07761 12/62 20406 10070 20040 30204 40215 51016 60006 80002 92100=
07761,1998-03-28 06:00:00,5,1022.7,2,87,3,12000,14.816,,,50,3.8,11.5,,,,,,,,,wg-a,,,,AAXX 28064 07761 02/62 30508 10050 20030 30216 40227 51020 60006 81032 90600 333 10115 20038 60004=
07761,1998-03-28 09:00:00,15,1021.6,-1.1,44,3,20000,3.704,,,250,,,,,,,,,,,wg-a,,,,AAXX 28094 07761 12/70 12502 10150 20030 30205 40216 58011 60006 80001 90900=
07761,1998-03-28 12:00:00,16,1020.6,-1,63,9,25000,22.224,,,230,,,,,,,,,,,wg-a,,,,AAXX 28124 07761 12/75 22312 10160 20090 30195 40206 56010 60006 80001 91200=
07761,1998-03-28 15:00:00,15,1020.4,-0.2,59,7,25000,18.52,,,230,,,,,,,,,,,wg-a,,,,AAXX 28154 07761 12/75 22310 10150 20070 30193 40204 58002 60006 80001 91500=
07761,1998-03-28 18:00:00,13,1020.2,-0.2,62,6,25000,3.704,,,140,4.9,17.1,,,,,,,,,wg-a,,,,AAXX 28184 07761 12/75 61402 10130 20060 30191 40202 58002 60006 80002 91800 333 10171 20049=
07761,1998-03-28 21:00:00,10,1019.6,-0.6,66,4,15000,11.112,,,50,,,,,,,,,,,wg-a,,,,AAXX 28214 07761 12/65 60506 10100 20040 30185 40196 58006 60006 80002 92100=
07761,1998-03-29 00:00:00,7,1019.3,-0.3,81,4,15000,11.112,,,50,,,,,,,,,,,wg-a,,,,AAXX 29004 07761 12/65 20506 10070 20040 30182 40193 58003 60006 80001 90000=
07761,1998-03-29 03:00:00,5,1017.1,-2.2,87,3,15000,7.408,,,60,,,,,,,,,,,wg-a,,,,AAXX 29034 07761 12/65 20604 10050 20030 30160 40171 56022 60006 80001 90300=
07761,1998-03-29 06:00:00,7,1016.6,-0.5,76,3,20000,14.816,,,40,4.7,12.6,,,,,,,,,wg-a,,,,AAXX 29064 07761 02/70 50408 10070 20030 30155 40166 58005 60006 81031 90600 333 10126 20047 60004=
07761,1998-03-29 09:00:00,16,1016.4,-0.2,51,6,25000,7.408,,,240,,,,,,,,,,,wg-a,,,,AAXX 29094 07761 12/75 32404 10160 20060 30153 40164 55002 60006 80001 90900=
07761,1998-03-29 12:00:00,17,1015.1,-1.3,59,9,25000,14.816,,,200,,,,,,,,,,,wg-a,,,,AAXX 29124 07761 12/75 32008 10170 20090 30140 40151 58013 60006 80001 91200=
07761,1998-03-29 18:00:00,14,1014.2,0.7,82,11,15000,14.816,,,210,6.6,18.8,,,,,,,,,wg-a,,,,AAXX 29184 07761 12/65 32108 10140 20110 30131 40142 53007 60006 81032 91800 333 10188 20066=
07761,1998-03-29 21:00:00,9,1014.7,0.5,81,6,15000,7.408,,,60,,,,,,,,,,,wg-a,,,,AAXX 29214 07761 12/65 20604 10090 20060 30136 40147 51005 60006 81032 92100=
07761,1998-03-30 00:00:00,8,1014.6,-0.1,81,5,15000,11.112,,,50,,,,,,,,,,,wg-a,,,,AAXX 30004 07761 12/65 20506 10080 20050 30135 40146 57001 60006 82030 90000=
07761,1998-03-30 15:00:00,18,1015.9,-0.3,52,8,12000,11.112,,,200,,,,,,,,,,,wg-a,,,,AAXX 30154 07761 12762 32006 10180 20080 30148 40159 56003 60006 81132 91500=
07761,1998-03-30 18:00:00,15,1016.8,0.9,59,7,12000,3.704,,,350,6,18.7,,,,,,,,,wg-a,,,,AAXX 30184 07761 12/62 /3502 10150 20070 30157 40168 53009 60006 81032 91800 333 10187 20060=
07761,1998-03-30 21:00:00,10,1018.4,1.6,82,7,12000,11.112,,,50,,,,,,,,,,,wg-a,,,,AAXX 30214 07761 12/62 10506 10100 20070 30173 40184 51016 60006 81032 92100=
07761,1998-03-31 00:00:00,9,1018.8,0.4,81,6,12000,11.112,,,40,,,,,,,,,,,wg-a,,,,AAXX 31004 07761 12/62 10406 10090 20060 30177 40188 51004 60006 80002 90000=
07761,1998-03-31 03:00:00,8,1018.1,-0.7,87,6,15000,14.816,,,60,,,,,,,,,,,wg-a,,,,AAXX 31034 07761 12/65 10608 10080 20060 30170 40181 56007 60006 80002 90300=
07761,1998-03-31 06:00:00,8,1018.8,0.7,81,5,25000,11.112,,,50,7,15.2,,,,,,,,,wg-a,,,,AAXX 31064 07761 02/75 10506 10080 20050 30177 40188 53007 60006 80001 90600 333 10152 20070 60004=
07761,1998-03-31 09:00:00,16,1019.7,0.9,63,9,500,7.408,,,220,,,,,,,,,,,wg-a,,,,AAXX 31094 07761 12/00 12204 10160 20090 30186 40197 52009 60006 80001 90900=
07761,1998-03-31 12:00:00,18,1019.1,-0.6,64,11,500,18.52,,,220,,,,,,,,,,,wg-a,,,,AAXX 31124 07761 12600 /2210 10180 20110 30180 40191 58006 60006 81201 91200=
07761,1998-03-31 15:00:00,18,1018,-1.1,64,11,500,14.816,,,210,,,,,,,,,,,wg-a,,,,AAXX 31154 07761 12600 /2108 10180 20110 30169 40180 56011 60006 81201 91500=
07761,1998-03-31 18:00:00,16,1018.3,0.3,59,8,20000,7.408,,,80,7.7,18.9,,,,,,,,,wg-a,,,,AAXX 31184 07761 12/70 30804 10160 20080 30172 40183 53003 60006 80001 91800 333 10189 20077=
07761,1998-04-01 00:00:00,9,1019.7,0,81,6,15000,11.112,,,50,,,,,,,,,,,wg-a,,,,AAXX 01004 07761 12/65 10506 10090 20060 30186 40197 50000 60006 80001 90000=
07761,1998-04-01 03:00:00,8,1018.5,-1.2,81,5,20000,11.112,,,50,,,,,,,,,,,wg-a,,,,AAXX 01034 07761 12/70 30506 10080 20050 30174 40185 56012 60006 80001 90300=
07761,1998-04-01 06:00:00,8,1018.9,0.4,81,5,500,11.112,,,50,6.5,15.5,,,,,,,,,wg-a,,,,AAXX 01064 07761 02/00 50506 10080 20050 30178 40189 53004 60006 80002 90600 333 10155 20065 60004=
07761,1998-04-01 09:00:00,16,1018.9,-0,63,9,500,14.816,,,210,,,,,,,,,,,wg-a,,,,AAXX 01094 07761 12600 42108 10160 20090 30178 40189 55000 60006 81102 90900=
07761,1998-04-01 12:00:00,17,1018.3,-0.6,68,11,500,18.52,,,250,,,,,,,,,,,wg-a,,,,AAXX 01124 07761 12600 42510 10170 20110 30172 40183 58006 60006 81132 91200=
07761,1998-04-01 15:00:00,16,1017.6,-0.7,77,12,25000,14.816,,,210,,,,,,,,,,,wg-a,,,,AAXX 01154 07761 12675 /2108 10160 20120 30165 40176 58007 60006 82830 91500=
07761,1998-04-01 18:00:00,15,1017.6,-0,77,11,20000,7.408,,,200,7.9,17.6,,,,,,,,,wg-a,,,,AAXX 01184 07761 12570 72004 10150 20110 30165 40176 55000 60006 8553/ 91800 333 10176 20079=
07761,1998-04-01 21:00:00,12,1018.2,0.6,88,10,20000,7.408,,,50,,,,,,,,,,,wg-a,,,,AAXX 01214 07761 12670 70504 10120 20100 30171 40182 50006 60006 8353/ 92100=
07761,1998-04-02 00:00:00,12,1017.5,-0.7,88,10,20000,7.408,,,50,,,,,,,,,,,wg-a,,,,AAXX 02004 07761 12670 /0504 10120 20100 30164 40175 58007 60006 83530 90000=
07761,1998-04-02 03:00:00,12,1016,-1.5,88,10,15000,7.408,,,60,,,,,,,,,,,wg-a,,,,AAXX 02034 07761 12465 70604 10120 20100 30149 40160 58015 60006 875// 90300=
07761,1998-04-02 06:00:00,13,1016.5,0.5,82,10,15000,7.408,,,70,11.8,14.6,,,,,,,,,wg-a,,,,AAXX 02064 07761 02565 70704 10130 20100 30154 40165 53005 60006 878// 90600 333 10146 20118 60004=
07761,1998-04-02 09:00:00,16,1017.1,0.6,77,12,15000,11.112,,,230,,,,,,,,,,,wg-a,,,,AAXX 02094 07761 12565 52306 10160 20120 30160 40171 51006 60006 84202 90900=
07761,1998-04-02 12:00:00,17,1017,-0.1,72,12,15000,14.816,,,210,,,,,,,,,,,wg-a,,,,AAXX 02124 07761 12565 /2108 10170 20120 30159 40170 58001 60006 83282 91200=
07761,1998-04-02 15:00:00,16,1015.5,-1.5,82,13,12000,11.112,,,230,,,,,,,,,,,wg-a,,,,AAXX 02154 07761 12462 72306 10160 20130 30144 40155 56015 60006 84802 91500=
07761,1998-04-02 18:00:00,15,1014.8,-0.7,77,11,15000,0,,,0,12.5,17.1,,,,,,,,,wg-a,,,,AAXX 02184 07761 12565 70000 10150 20110 30137 40148 56007 60006 83832 91800 333 10171 20125=
07761,1998-04-02 21:00:00,14,1015.4,0.6,77,10,12000,11.112,,,50,,,,,,,,,,,wg-a,,,,AAXX 02214 07761 12562 70506 10140 20100 30143 40154 50006 60006 875// 92100=
07761,1998-04-03 00:00:00,14,1014.6,-0.8,77,10,12000,7.408,,,40,,,,,,,,,,,wg-a,,,,AAXX 03004 07761 12462 70404 10140 20100 30135 40146 58008 60006 875// 90000=
07761,1998-04-03 06:00:00,13,1013.8,-0.1,82,10,15000,11.112,,,50,13,14.7,,,,,,,,,wg-a,,,,AAXX 03064 07761 02565 70506 10130 20100 30127 40138 55001 60006 82501 90600 333 10147 20130 60004=
07761,1998-04-03 09:00:00,17,1015.5,1.7,72,12,18000,7.408,,,280,,,,,,,,,,,wg-a,,,,AAXX 03094 07761 12568 72804 10170 20120 30144 40155 51017 60006 83801 90900=
07761,1998-04-03 12:00:00,19,1014.9,-0.6,68,13,18000,11.112,,,250,,,,,,,,,,,wg-a,,,,AAXX 03124 07761 12568 /2506 10190 20130 30138 40149 58006 60006 81141 91200=
07761,1998-04-03 15:00:00,19,1014.6,-0.3,73,14,18000,7.408,,,260,,,,,,,,,,,wg-a,,,,AAXX 03154 07761 12568 22604 10190 20140 30135 40146 58003 60006 81101 91500=
07761,1998-04-03 18:00:00,17,1013.6,-1,77,13,18000,3.704,,,250,13.3,19.2,,,,,,,,,wg-a,,,,AAXX 03184 07761 12/68 22502 10170 20130 30125 40136 56010 60006 80001 91800 333 10192 20133=
07761,1998-04-03 21:00:00,13,1014.2,0.6,82,10,18000,7.408,,,50,,,,,,,,,,,wg-a,,,,AAXX 03214 07761 12/68 00504 10130 20100 30131 40142 51006 60006 80000 92100=
07761,1998-04-04 00:00:00,11,1013,-1.2,82,8,18000,14.816,,,50,,,,,,,,,,,wg-a,,,,AAXX 04004 07761 12/68 00508 10110 20080 30119 40130 57012 60006 80000 90000=
07761,1998-04-04 03:00:00,12,1011.6,-1.4,67,6,15000,11.112,,,40,,,,,,,,,,,wg-a,,,,AAXX 04034 07761 12/65 20406 10120 20060 30105 40116 56014 60006 80002 90300=
07761,1998-04-04 06:00:00,12,1011.3,-0.3,71,7,500,18.52,,,40,10,16.6,,,,,,,,,wg-a,,,,AAXX 04064 07761 02/00 50410 10120 20070 30102 40113 58003 60006 80002 90600 333 10166 20100 60004=
07761,1998-04-04 09:00:00,23,1010.2,-1,36,7,500,11.112,,,30,,,,,,,,,,,wg-a,,,,AAXX 04094 07761 12/00 /0306 10230 20070 30092 40102 58010 60006 81042 90900=
07761,1998-04-04 12:00:00,21,1010.2,-0,53,11,40000,31.484,,,250,,,,,,,,,,,wg-a,,,,AAXX 04124 07761 12782 /2517 10210 20110 30092 40102 55000 60006 81142 91200=
07761,1998-04-04 15:00:00,19,1011.3,1,78,15,12000,11.112,,,260,,,,,,,,,,,wg-a,,,,AAXX 04154 07761 12562 /2606 10190 20150 30102 40113 51010 60006 81841 91500=
07761,1998-04-04 18:00:00,16,1012.4,1.1,88,14,12000,11.112,,,210,12.1,25.4,,,,,,,,,wg-a,,,,AAXX 04184 07761 12562 62106 10160 20140 30113 40124 51011 60006 83541 91800 333 10254 20121=
07761,1998-04-04 21:00:00,14,1013.3,0.9,88,12,15000,11.112,,,90,,,,,,,,,,,wg-a,,,,AAXX 04214 07761 12565 40906 10140 20120 30122 40133 50009 60006 82501 92100=
07761,1998-04-05 00:00:00,14,1013.3,0,82,11,15000,14.816,,,50,,,,,,,,,,,wg-a,,,,AAXX 05004 07761 12565 /0508 10140 20110 30122 40133 50000 60006 81501 90000=
07761,1998-04-05 03:00:00,14,1013.3,-0,88,12,9000,3.704,,,100,,,,,,,,,,21,wg-a,,,,AAXX 05034 07761 02459 81002 10140 20120 30122 40133 54000 61000 72162 885// 90300 333 ////=
07761,1998-04-05 06:00:00,15,1013.3,-0,82,12,12000,11.112,,,110,12.9,16.3,,,,,,,,1,wg-a,,,,AAXX 05064 07761 02462 71106 10150 20120 30122 40133 55000 60006 70162 875// 90600 333 10163 20129 61000=
07761,1998-04-05 09:00:00,17,1014.3,1,77,13,12000,11.112,,,250,,,,,,,,,,,wg-a,,,,AAXX 05094 07761 12562 72506 10170 20130 30132 40143 53010 60006 875// 90900=
07761,1998-04-05 12:00:00,16,1014.7,0.4,82,13,10000,25.928,,,220,,,,,,,,,,25,wg-a,,,,AAXX 05124 07761 02560 82214 10160 20130 30136 40147 51004 61000 72522 8587/ 91200 333 ////=
07761,1998-04-05 15:00:00,16,1013.2,-1.5,88,14,500,3.704,,,180,,,,0,,,,,,60,wg-a,,,,AAXX 05154 07761 12400 81802 10160 20140 30121 40132 58015 60007 76062 878// 91500=
07761,1998-04-05 18:00:00,16,1014,0.8,88,14,7000,14.816,,,200,14.6,17.6,,,,,,,,1,wg-a,,,,AAXX 05184 07761 02457 82008 10160 20140 30129 40140 53008 60006 70162 878// 91800 333 10176 20146 61000=
07761,1998-04-05 21:00:00,13,1015.2,1.2,88,11,8000,7.408,,,90,,,,,,,,,,,wg-a,,,,AAXX 05214 07761 12458 60904 10130 20110 30141 40152 52012 60006 85802 92100=
07761,1998-04-06 00:00:00,13,1014.5,-0.7,88,11,12000,7.408,,,60,,,,,,,,,,,wg-a,,,,AAXX 06004 07761 12462 70604 10130 20110 30134 40145 58007 60006 8483/ 90000=
07761,1998-04-06 03:00:00,12,1013.9,-0.6,88,10,12000,7.408,,,80,,,,,,,,,,,wg-a,,,,AAXX 06034 07761 12462 60804 10120 20100 30128 40139 57006 60006 86800 90300=
07761,1998-04-06 06:00:00,12,1016.1,2.2,82,9,18000,11.112,,,280,11.2,15.5,,,,,1,,,1,wg-a,,,,AAXX 06064 07761 02468 52806 10120 20090 30150 40161 51022 60006 70186 85200 90600 333 10155 20112 60014=
07761,1998-04-06 09:00:00,16,1017.7,1.6,63,9,20000,18.52,,,240,,,,,,,,,,,wg-a,,,,AAXX 06094 07761 12570 62410 10160 20090 30166 40177 51016 60006 86200 90900=
07761,1998-04-06 12:00:00,16,1018.5,0.8,45,4,25000,14.816,,,310,,,,,,,,,,,wg-a,,,,AAXX 06124 07761 12675 43108 10160 20040 30174 40185 51008 60006 83201 91200=
07761,1998-04-06 15:00:00,17,1017,-1.5,52,7,25000,11.112,,,250,,,,,,,,,,,wg-a,,,,AAXX 06154 07761 12675 52506 10170 20070 30159 40170 56015 60006 83201 91500=
07761,1998-04-06 18:00:00,14,1017.3,0.3,67,8,20000,3.704,,,110,12,17.1,,,,,,,,,wg-a,,,,AAXX 06184 07761 12570 /1102 10140 20080 30162 40173 51003 60006 82142 91800 333 10171 20120=
07761,1998-04-06 21:00:00,11,1016.8,-0.5,71,6,20000,7.408,,,30,,,,,,,,,,,wg-a,,,,AAXX 06214 07761 12670 80304 10110 20060 30157 40168 58005 60006 81547 92100=
07761,1998-04-07 00:00:00,10,1015.4,-1.4,71,5,11000,11.112,,,50,,,,,,,,,,,wg-a,,,,AAXX 07004 07761 12/61 /0506 10100 20050 30143 40154 58014 60006 90000=
07761,1998-04-07 03:00:00,9,1013.6,-1.8,66,3,20000,11.112,,,40,,,,,,,,,,,wg-a,,,,AAXX 07034 07761 12670 40406 10090 20030 30125 40136 56018 60006 81501 90300=
07761,1998-04-07 06:00:00,8,1013.3,-0.3,66,2,20000,14.816,,,40,6.9,13.9,,,,,,,,,wg-a,,,,AAXX 07064 07761 02870 70408 10080 20020 30122 40133 55003 60006 81542 90600 333 10139 20069 60004=
07761,1998-04-07 12:00:00,18,1012.2,-0.4,52,8,500,11.112,,,230,,,,,,,,,,,wg-a,,,,AAXX 07124 07761 12500 72306 10180 20080 30111 40122 58004 60006 8657/ 91200=
07761,1998-04-07 15:00:00,18,1010.7,-1.5,64,11,20000,22.224,,,220,,,,,,,,,,,wg-a,,,,AAXX 07154 07761 12570 82212 10180 20110 30096 40107 56015 60006 8652/ 91500=
07761,1998-04-07 18:00:00,16,1009.8,-0.9,88,14,7000,14.816,,,200,7.7,19.4,,,,,,,,,wg-a,,,,AAXX 07184 07761 12357 82008 10160 20140 30087 40098 56009 60006 875// 91800 333 10194 20077=
07761,1998-04-07 21:00:00,15,1010.7,0.9,94,14,8000,14.816,,,210,,,,,,,,,,,wg-a,,,,AAXX 07214 07761 12358 82108 10150 20140 30096 40107 51009 60006 875// 92100=
07761,1998-04-08 00:00:00,15,1011,0.3,94,14,8000,7.408,,,170,,,,,,,,,,,wg-a,,,,AAXX 08004 07761 12358 71704 10150 20140 30099 40110 53003 60006 875// 90000=
07761,1998-04-08 03:00:00,14,1009.7,-1.3,94,13,8000,3.704,,,40,,,,,,,,,,,wg-a,,,,AAXX 08034 07761 12/58 /0402 10140 20130 30086 40097 56013 60006 90300=
07761,1998-04-08 06:00:00,14,1009.2,-0.5,88,12,8000,3.704,,,40,13.4,15.8,,,,,,,,,wg-a,,,,AAXX 08064 07761 02258 80402 10140 20120 30081 40092 56005 60006 8463/ 90600 333 10158 20134 60004=
07761,1998-04-08 09:00:00,16,1009.3,0.1,82,13,9000,7.408,,,210,,,,,,,,,,,wg-a,,,,AAXX 08094 07761 12359 82104 10160 20130 30082 40093 53001 60006 8217/ 90900=
07761,1998-04-08 12:00:00,16,1008.7,-0.6,72,11,10000,7.408,,,190,,,,,,,,,,,wg-a,,,,AAXX 08124 07761 12460 81904 10160 20110 30076 40087 58006 60006 8317/ 91200=
07761,1998-04-08 15:00:00,14,1008,-0.7,82,11,10000,11.112,,,180,,,,,,,,,,61,wg-a,,,,AAXX 08154 07761 02460 81806 10140 20110 30069 40080 56007 61000 76162 8487/ 91500 333 ////=
07761,1998-04-08 18:00:00,12,1006.1,-1.9,88,10,18000,11.112,,,60,11.7,16.1,,,,,,,,61,wg-a,,,,AAXX 08184 07761 02468 80606 10120 20100 30050 40061 58019 61000 76162 8157/ 91800 333 10161 20117 6003=
07761,1998-04-08 21:00:00,12,1007.3,1.2,88,10,12000,3.704,,,70,,,,0,,,,,,3,wg-a,,,,AAXX 08214 07761 12462 80702 10120 20100 30062 40073 50012 60007 70362 8447/ 92100=
07761,1998-04-09 00:00:00,11,1006.8,-0.5,94,10,12000,7.408,,,80,,,,,,,,,,2,wg-a,,,,AAXX 09004 07761 12462 80804 10110 20100 30057 40068 58005 60006 70262 8582/ 90000=
07761,1998-04-09 06:00:00,10,1005.7,-0.2,93,9,25000,7.408,,,30,9.4,12.5,,,,,3,,,2,wg-a,,,,AAXX 09064 07761 02575 70304 10100 20090 30046 40057 55002 60006 70262 8427/ 90600 333 10125 20094 60034=
07761,1998-04-09 09:00:00,14,1006.4,0.7,72,9,500,3.704,,,190,,,,,,,,,,,wg-a,,,,AAXX 09094 07761 12500 71902 10140 20090 30053 40064 51007 60006 8327/ 90900=
07761,1998-04-09 12:00:00,17,1006.6,0.2,63,10,500,18.52,,,220,,,,,,,,,,,wg-a,,,,AAXX 09124 07761 12600 32210 10170 20100 30055 40066 50002 60006 8227/ 91200=
07761,1998-04-09 15:00:00,16,1005.7,-0.9,63,9,500,11.112,,,230,,,,,,,,,,,wg-a,,,,AAXX 09154 07761 12600 22306 10160 20090 30046 40057 58009 60006 82200 91500=
07761,1998-04-09 18:00:00,14,1005.6,-0.1,67,8,500,3.704,,,240,9.6,16.6,,,,,,,,,wg-a,,,,AAXX 09184 07761 12600 22402 10140 20080 30045 40056 57001 60006 82840 91800 333 10166 20096=
07761,1998-04-09 21:00:00,9,1006.2,0.6,76,5,20000,14.816,,,50,,,,,,,,,,,wg-a,,,,AAXX 09214 07761 12570 40508 10090 20050 30051 40062 50006 60006 83801 92100=
07761,1998-04-10 00:00:00,10,1005,-1.2,76,6,20000,14.816,,,50,,,,,,,,,,13,wg-a,,,,AAXX 10004 07761 12570 70508 10100 20060 30039 40050 58012 60006 71311 83301 90000=
07761,1998-04-10 03:00:00,11,1002.7,-2.3,76,7,20000,11.112,,,60,,,,,,,,,,,wg-a,,,,AAXX 10034 07761 12570 70606 10110 20070 30016 40027 56023 60006 83972 90300=
07761,1998-04-10 06:00:00,14,1000.5,-2.2,72,9,8000,22.224,,,150,9,14.6,,,,,,,,80,wg-a,,,,AAXX 10064 07761 02558 71512 10140 20090 39994 40005 56022 61000 78086 879// 90600 333 10146 20090 6000=
07761,1998-04-10 09:00:00,12,1001.6,1.1,76,8,10000,14.816,,68.524,170,,,,5,,,,,,29,wg-a,,,,AAXX 10094 07761 12560 81708 10120 20080 30005 40016 51011 60057 72998 879// 90900 333 91037=
07761,1998-04-10 12:00:00,11,1001.4,-0.2,94,10,4000,11.112,,68.524,120,,,,9,,,,,,81,wg-a,,,,AAXX 10124 07761 02340 81206 10110 20100 30003 40014 56002 60156 78198 879// 91200 333 60097 91037=
07761,1998-04-10 15:00:00,11,1001.9,0.5,87,9,4000,22.224,,90.748,230,,,,4,,,,,,81,wg-a,,,,AAXX 10154 07761 12240 82312 10110 20090 30008 40019 53005 60047 78198 879// 91500 333 91049=
07761,1998-04-10 18:00:00,11,1002.6,0.7,87,9,12000,14.816,,90.748,50,10.1,13.9,,,,,,,,1,wg-a,,,,AAXX 10184 07761 02462 /0508 10110 20090 30015 40026 53007 60006 70198 86200 91800 333 10139 20101 61000 91049=
07761,1998-04-10 21:00:00,10,1005,2.4,82,7,15000,14.816,,64.82,50,,,,1,,,,,,29,wg-a,,,,AAXX 10214 07761 12565 50508 10100 20070 30039 40050 51024 60017 72998 85900 92100 333 91035=
07761,1998-04-11 00:00:00,8,1005.2,0.2,93,7,15000,14.816,,64.82,60,,,,,,,,,,13,wg-a,,,,AAXX 11004 07761 12665 50608 10080 20070 30041 40052 50002 60016 71398 85200 90000 333 91035=
07761,1998-04-11 03:00:00,9,1004.8,-0.4,81,6,12000,14.816,,,50,,,,1,,,,,,17,wg-a,,,,AAXX 11034 07761 12562 70508 10090 20060 30037 40048 58004 60017 71798 8697/ 90300=
07761,1998-04-11 06:00:00,9,1004.5,-0.3,87,7,12000,11.112,,,60,8.1,13.6,,,,,,,,25,wg-a,,,,AAXX 11064 07761 02662 70606 10090 20070 30034 40045 55003 61000 72598 8697/ 90600 333 10136 20081 6021=
07761,1998-04-11 09:00:00,14,1004.3,-0.2,67,8,15000,18.52,,,180,,,,0,,,,,,,wg-a,,,,AAXX 11094 07761 12665 71810 10140 20080 30032 40043 55002 60007 8397/ 90900=
07761,1998-04-11 12:00:00,11,1004.7,0.4,82,8,12000,7.408,,68.524,160,,,,3,,,,,,60,wg-a,,,,AAXX 11124 07761 02562 71604 10110 20080 30036 40047 50004 60036 76098 8687/ 91200 333 60037 91037=
07761,1998-04-11 18:00:00,11,1006.2,1.5,62,4,10000,18.52,,,280,9,14.8,,,,,,,,2,wg-a,,,,AAXX 11184 07761 02560 72810 10110 20040 30051 40062 53015 60006 70298 85202 91800 333 10148 20090 61000=
07761,1998-04-12 00:00:00,10,1006.5,-0.5,71,5,6000,42.596,,53.708,220,,,,1,,,,,,17,wg-a,,,,AAXX 12004 07761 02556 82223 10100 20050 30054 40065 57005 60016 71798 86992 90000 333 60017 91029=
07761,1998-04-12 03:00:00,6,1006.7,0.2,87,4,10000,11.112,,64.82,80,,,,1,,,,,,25,wg-a,,,,AAXX 12034 07761 12560 /0806 10060 20040 30056 40067 53002 60017 72598 85901 90300 333 91035=
07761,1998-04-12 06:00:00,6,1006.4,-0.3,87,4,15000,14.816,,64.82,50,5.3,11.6,,,,,9,,,29,wg-a,,,,AAXX 12064 07761 02565 70508 10060 20040 30053 40064 56003 60006 72998 873// 90600 333 10116 20053 60094 91035=
07761,1998-04-12 09:00:00,11,1008.1,1.7,66,5,10000,18.52,,,290,,,,0,,,,,,17,wg-a,,,,AAXX 12094 07761 12660 62910 10110 20050 30070 40081 53017 60007 71798 86900 90900=
07761,1998-04-12 12:00:00,14,1009.2,1.1,58,6,15000,31.484,,,250,,,,,,,,,,25,wg-a,,,,AAXX 12124 07761 02565 62517 10140 20060 30081 40092 51011 60016 72598 86900 91200 333 61000=
07761,1998-04-12 15:00:00,12,1009.8,0.6,58,4,20000,31.484,,,260,,,,,,,,,,25,wg-a,,,,AAXX 12154 07761 02570 62617 10120 20040 30087 40098 52006 61000 72586 86900 91500 333 ////=
07761,1998-04-12 18:00:00,8,1010.8,1,76,4,8000,11.112,,83.34,50,6.3,14.5,,,,,,,,96,wg-a,,,,AAXX 12184 07761 02558 50506 10080 20040 30097 40108 51010 61000 79698 85900 91800 333 10145 20063 6002 91045=
07761,1998-04-12 21:00:00,6,1011.4,0.6,93,5,10000,7.408,,,20,,,,3,,,,,,17,wg-a,,,,AAXX 12214 07761 12560 70204 10060 20050 30103 40114 50006 60037 71798 879// 92100=
07761,1998-04-13 00:00:00,6,1011.7,0.3,87,4,10000,7.408,,,10,,,,,,,,,,2,wg-a,,,,AAXX 13004 07761 02660 /0104 10060 20040 30106 40117 50003 60036 70298 85900 90000 333 61000=
07761,1998-04-13 03:00:00,10,1010.8,-0.9,62,3,10000,18.52,,,270,,,,,,,,,,,wg-a,,,,AAXX 13034 07761 12660 /2710 10100 20030 30097 40108 56009 60006 84932 90300=
07761,1998-04-13 06:00:00,11,1010.3,-0.5,62,4,20000,35.188,,50.004,270,5.1,11.1,,,,,5,,,1,wg-a,,,,AAXX 13064 07761 02670 62719 10110 20040 30092 40103 55005 60006 70187 86300 90600 333 10111 20051 60054 91027=
07761,1998-04-13 09:00:00,13,1011.2,0.9,54,4,25000,25.928,,,250,,,,,,,,,,1,wg-a,,,,AAXX 13094 07761 02675 52514 10130 20040 30101 40112 52009 61000 70186 85200 90900 333 ////=
07761,1998-04-13 12:00:00,9,1010.2,-1,76,5,10000,11.112,,42.596,280,,,,2,,,,,,29,wg-a,,,,AAXX 13124 07761 02560 72806 10090 20050 30091 40102 58010 60026 72998 879// 91200 333 60027 91023=
07761,1998-04-13 15:00:00,10,1009.4,-0.8,62,3,15000,11.112,,,250,,,,2,,,,,,1,wg-a,,,,AAXX 13154 07761 12565 72506 10100 20030 30083 40094 56008 60027 70198 8696/ 91500=
07761,1998-04-13 18:00:00,10,1008.5,-0.9,71,5,15000,7.408,,,60,7.9,13.8,,,,,,,,1,wg-a,,,,AAXX 13184 07761 12665 70604 10100 20050 30074 40085 58009 60006 70198 8627/ 91800 333 10138 20079=
07761,1998-04-13 21:00:00,7,1009.2,0.7,81,4,15000,11.112,,,60,,,,,,,,,,1,wg-a,,,,AAXX 13214 07761 02565 40606 10070 20040 30081 40092 50007 61000 70198 84900 92100 333 ////=
07761,1998-04-14 00:00:00,10,1009,-0.2,57,2,15000,29.632,,53.708,280,,,,,,,,,,25,wg-a,,,,AAXX 14004 07761 02565 32816 10100 20020 30079 40090 55002 61000 72598 83900 90000 333 6100 91029=
07761,1998-04-14 03:00:00,10,1009.2,0.2,53,1,15000,31.484,,,290,,,,,,,,,,,wg-a,,,,AAXX 14034 07761 12565 42917 10100 20010 30081 40092 53002 60006 84900 90300=
07761,1998-04-14 06:00:00,10,1010.6,1.4,53,1,25000,18.52,,,270,6,10.7,,,,,5,,,,wg-a,,,,AAXX 14064 07761 02675 /2710 10100 20010 30095 40106 53014 60006 85200 90600 333 10107 20060 60054=
07761,1998-04-14 09:00:00,12,1012.6,2,47,1,25000,25.928,,46.3,270,,,,,,,,,,,wg-a,,,,AAXX 14094 07761 12675 52714 10120 20010 30115 40126 52020 60006 84201 90900 333 91025=
07761,1998-04-14 12:00:00,14,1013.4,0.8,44,2,500,22.224,,53.708,250,,,,,,,,,,,wg-a,,,,AAXX 14124 07761 12600 52512 10140 20020 30123 40134 52008 60006 83201 91200 333 91029=
07761,1998-04-14 15:00:00,13,1013.2,-0.2,51,3,500,14.816,,,230,,,,,,,,,,,wg-a,,,,AAXX 14154 07761 12700 42308 10130 20030 30121 40132 58002 60006 83101 91500=
07761,1998-04-14 18:00:00,11,1012.7,-0.5,62,4,25000,3.704,,,210,9.5,14,,,,,,,,,wg-a,,,,AAXX 14184 07761 12675 72102 10110 20040 30116 40127 57005 60006 81104 91800 333 10140 20095=
07761,1998-04-14 21:00:00,6,1014,1.3,81,3,20000,18.52,,,50,,,,,,,,,,,wg-a,,,,AAXX 14214 07761 12670 30510 10060 20030 30129 40140 51013 60006 81501 92100=
07761,1998-04-15 00:00:00,6,1012.8,-1.2,70,1,15000,14.816,,,30,,,,,,,,,,,wg-a,,,,AAXX 15004 07761 12/65 /0308 10060 20010 30117 40128 58012 60006 81031 90000=
07761,1998-04-15 03:00:00,5,1010.4,-2.4,70,0,15000,11.112,,,40,,,,,,,,,,,wg-a,,,,AAXX 15034 07761 12565 /0406 10050 20000 30093 40104 58024 60006 81501 90300=
07761,1998-04-15 06:00:00,8,1009.2,-1.2,61,1,40000,11.112,,,50,4.3,10.7,,,,,,,,,wg-a,,,,AAXX 15064 07761 02/82 80506 10080 20010 30081 40092 56012 60006 8707/ 90600 333 10107 20043 60004=
07761,1998-04-15 09:00:00,13,1007.3,-1.9,62,6,40000,14.816,,,200,,,,,,,,,,,wg-a,,,,AAXX 15094 07761 12/82 82008 10130 20060 30062 40073 56019 60006 8807/ 90900=
07761,1998-04-15 12:00:00,17,1006.4,-0.9,52,7,500,11.112,,,180,,,,,,,,,,,wg-a,,,,AAXX 15124 07761 12800 81806 10170 20070 30053 40064 55009 60006 8707/ 91200=
07761,1998-04-15 18:00:00,15,1002.8,-1.1,51,5,20000,3.704,,,50,7.8,16.6,,,,,,,,,wg-a,,,,AAXX 15184 07761 12870 80502 10150 20050 30017 40028 58011 60006 8807/ 91800 333 10166 20078=
07761,1998-04-15 21:00:00,12,1004.7,1.9,88,10,8000,11.112,,,70,,,,4,,,,,,61,wg-a,,,,AAXX 15214 07761 12258 80706 10120 20100 30036 40047 51019 60047 76162 8587/ 92100=
07761,1998-04-16 00:00:00,12,1005.1,0.4,94,11,15000,7.408,,,40,,,,5,,,,,,21,wg-a,,,,AAXX 16004 07761 02465 80404 10120 20110 30040 40051 53004 60096 72162 8587/ 90000 333 60057=
07761,1998-04-16 06:00:00,9,1004.7,0.5,93,8,12000,3.704,,,60,8.4,15,,,,,9,,,,wg-a,,,,AAXX 16064 07761 02562 50602 10090 20080 30036 40047 53005 60006 85800 90600 333 10150 20084 60094=
07761,1998-04-16 09:00:00,15,1006.4,1.7,63,8,20000,22.224,,,250,,,,,,,,,,,wg-a,,,,AAXX 16094 07761 12670 52512 10150 20080 30053 40064 51017 60006 82181 90900=
07761,1998-04-16 12:00:00,14,1006.8,0.4,58,6,20000,25.928,,,250,,,,,,,,,,,wg-a,,,,AAXX 16124 07761 12670 62514 10140 20060 30057 40068 50004 60006 83870 91200=
07761,1998-04-16 15:00:00,14,1005.1,-1.7,55,5,20000,11.112,,,220,,,,,,,,,,,wg-a,,,,AAXX 16154 07761 12670 42206 10140 20050 30040 40051 56017 60006 82872 91500=
07761,1998-04-16 18:00:00,13,1004.2,-0.9,58,5,20000,7.408,,,90,9.3,14.8,,,,,,,,,wg-a,,,,AAXX 16184 07761 12570 80904 10130 20050 30031 40042 58009 60006 8687/ 91800 333 10148 20093=
07761,1998-04-17 00:00:00,14,999.9,-2.5,82,11,15000,18.52,,,200,,,,,,,,,,2,wg-a,,,,AAXX 17004 07761 02565 82010 10140 20110 39988 49999 58025 61000 70286 8587/ 90000 333 ////=
07761,1998-04-17 03:00:00,14,997.1,-2.8,88,12,10000,42.596,,,210,,,,0,,,,,,60,wg-a,,,,AAXX 17034 07761 12460 82123 10140 20120 39960 49971 56028 60007 76062 8697/ 90300=
07761,1998-04-17 06:00:00,14,997.2,0.1,82,11,8000,29.632,,,250,11.6,14.7,,,,,,,,1,wg-a,,,,AAXX 17064 07761 02558 52516 10140 20110 39961 49972 53001 60006 70162 84260 90600 333 10147 20116 60004=
07761,1998-04-17 09:00:00,15,999.9,2.7,63,8,15000,22.224,,,280,,,,,,,,,,,wg-a,,,,AAXX 17094 07761 12565 72812 10150 20080 39988 49999 52027 60006 878// 90900=
07761,1998-04-17 12:00:00,16,999.6,-0.3,63,9,20000,29.632,,,250,,,,,,,,,,,wg-a,,,,AAXX 17124 07761 12570 72516 10160 20090 39985 49996 58003 60006 878// 91200=
07761,1998-04-17 15:00:00,15,999.3,-0.3,63,8,20000,18.52,,,230,,,,,,,,,,,wg-a,,,,AAXX 17154 07761 12570 52310 10150 20080 39982 49993 58003 60006 84830 91500=
07761,1998-04-17 18:00:00,13,1000.6,1.3,67,7,20000,18.52,,,270,12.9,16.6,,,,,,,,,wg-a,,,,AAXX 17184 07761 12570 62710 10130 20070 39995 40006 52013 60006 83831 91800 333 10166 20129=
07761,1998-04-18 00:00:00,12,1000.9,-1,67,6,15000,25.928,,,270,,,,1,,,,,,17,wg-a,,,,AAXX 18004 07761 02565 62714 10120 20060 39998 40009 58010 60016 71798 86970 90000 333 60017=
07761,1998-04-18 06:00:00,9,1000.9,-0.1,81,6,7000,38.892,,79.636,270,8.6,12.9,,,,,,,,80,wg-a,,,,AAXX 18064 07761 02457 /2721 10090 20060 39998 40009 55001 61000 78098 86900 90600 333 10129 20086 6003 91043=
07761,1998-04-18 09:00:00,12,1002.4,1.5,62,5,10000,35.188,,61.116,280,,,,3,,,,,,25,wg-a,,,,AAXX 18094 07761 12460 72819 10120 20050 30013 40024 53015 60037 72587 872// 90900 333 91033=
07761,1998-04-18 12:00:00,12,1004.3,1.9,62,5,15000,31.484,,61.116,270,,,,,,,,,,3,wg-a,,,,AAXX 18124 07761 02665 72717 10120 20050 30032 40043 51019 60036 70387 878// 91200 333 61000 91033=
07761,1998-04-18 15:00:00,13,1005.1,0.8,58,5,15000,31.484,,57.412,280,,,,,,,,,,,wg-a,,,,AAXX 18154 07761 12665 /2817 10130 20050 30040 40051 51008 60006 86800 91500 333 91031=
07761,1998-04-18 18:00:00,12,1006.3,1.2,54,3,15000,29.632,,57.412,280,8.8,13,,,,,,,,,wg-a,,,,AAXX 18184 07761 12665 42816 10120 20030 30052 40063 53012 60006 84800 91800 333 10130 20088 91031=
07761,1998-04-18 21:00:00,13,1008.4,2.1,47,2,15000,29.632,,,280,,,,,,,,,,,wg-a,,,,AAXX 18214 07761 12665 62816 10130 20020 30073 40084 51021 60006 86800 92100=
07761,1998-04-19 00:00:00,12,1009.6,1.2,50,2,15000,25.928,,,280,,,,,,,,,,,wg-a,,,,AAXX 19004 07761 12665 52814 10120 20020 30085 40096 52012 60006 85800 90000=
07761,1998-04-19 03:00:00,12,1009.9,0.3,54,3,15000,25.928,,,280,,,,,,,,,,,wg-a,,,,AAXX 19034 07761 12665 72814 10120 20030 30088 40099 53003 60006 878// 90300=
07761,1998-04-19 06:00:00,11,1011.2,1.3,66,5,25000,7.408,,,60,10.9,12.9,,,,,3,,,,wg-a,,,,AAXX 19064 07761 02675 50604 10110 20050 30101 40112 53013 60006 85800 90600 333 10129 20109 60034=
07761,1998-04-19 09:00:00,14,1012.4,1.2,58,6,25000,11.112,,,300,,,,,,,,,,,wg-a,,,,AAXX 19094 07761 12575 53006 10140 20060 30113 40124 52012 60006 85800 90900=
07761,1998-04-19 12:00:00,15,1013.2,0.8,55,6,25000,25.928,,,270,,,,,,,,,,,wg-a,,,,AAXX 19124 07761 12675 32714 10150 20060 30121 40132 51008 60006 83200 91200=
07761,1998-04-19 15:00:00,15,1014.1,0.9,55,6,25000,25.928,,,250,,,,,,,,,,,wg-a,,,,AAXX 19154 07761 12675 32514 10150 20060 30130 40141 51009 60006 83200 91500=
07761,1998-04-19 18:00:00,13,1014.7,0.6,67,7,20000,18.52,,,280,11.1,15.8,,,,,,,,,wg-a,,,,AAXX 19184 07761 12570 /2810 10130 20070 30136 40147 52006 60006 83200 91800 333 10158 20111=
07761,1998-04-19 21:00:00,9,1015.9,1.2,81,6,15000,11.112,,,60,,,,,,,,,,,wg-a,,,,AAXX 19214 07761 12565 20606 10090 20060 30148 40159 51012 60006 82100 92100=
07761,1998-04-20 00:00:00,7,1016.4,0.5,81,4,15000,11.112,,,50,,,,,,,,,,,wg-a,,,,AAXX 20004 07761 12465 /0506 10070 20040 30153 40164 51005 60006 81100 90000=
07761,1998-04-20 03:00:00,5,1016.5,0.1,87,3,15000,14.816,,,40,,,,,,,,,,,wg-a,,,,AAXX 20034 07761 12/65 00408 10050 20030 30154 40165 53001 60006 80000 90300=
07761,1998-04-20 06:00:00,6,1017.8,1.3,87,4,40000,11.112,,,50,4.1,13,,,,,,,,,wg-a,,,,AAXX 20064 07761 02/82 00506 10060 20040 30167 40178 53013 60006 80000 90600 333 10130 20041 60004=
07761,1998-04-20 09:00:00,14,1019.4,1.6,55,5,40000,11.112,,,190,,,,,,,,,,,wg-a,,,,AAXX 20094 07761 12682 /1906 10140 20050 30183 40194 53016 60006 81100 90900=
07761,1998-04-20 12:00:00,17,1019.6,0.2,63,10,40000,22.224,,,230,,,,,,,,,,,wg-a,,,,AAXX 20124 07761 12682 /2312 10170 20100 30185 40196 51002 60006 81101 91200=
07761,1998-04-20 15:00:00,17,1019.3,-0.3,52,7,35000,22.224,,,230,,,,,,,,,,,wg-a,,,,AAXX 20154 07761 12681 /2312 10170 20070 30182 40193 58003 60006 81101 91500=
07761,1998-04-20 18:00:00,15,1019.9,0.6,55,6,35000,11.112,,,180,6.5,16.9,,,,,,,,,wg-a,,,,AAXX 20184 07761 12681 /1806 10150 20060 30188 40199 51006 60006 81401 91800 333 10169 20065=
07761,1998-04-20 21:00:00,9,1021.3,1.4,71,4,20000,11.112,,,50,,,,,,,,,,,wg-a,,,,AAXX 20214 07761 12/70 00506 10090 20040 30202 40213 51014 60006 80000 92100=
07761,1998-04-21 00:00:00,7,1021.4,0.1,76,3,20000,14.816,,,50,,,,,,,,,,,wg-a,,,,AAXX 21004 07761 12/70 00508 10070 20030 30203 40214 52001 60006 80000 90000=
07761,1998-04-21 03:00:00,6,1020.7,-0.7,81,3,20000,14.816,,,40,,,,,,,,,,,wg-a,,,,AAXX 21034 07761 12/70 00408 10060 20030 30196 40207 56007 60006 80000 90300=
07761,1998-04-21 06:00:00,8,1020.8,0.1,76,4,500,14.816,,,50,4.8,14.4,,,,,,,,,wg-a,,,,AAXX 21064 07761 02/00 00508 10080 20040 30197 40208 53001 60006 80000 90600 333 10144 20048 60004=
07761,1998-04-21 09:00:00,16,1021.1,0.3,59,8,40000,18.52,,,240,,,,,,,,,,,wg-a,,,,AAXX 21094 07761 12/82 02410 10160 20080 30200 40211 53003 60006 80000 90900=
07761,1998-04-21 12:00:00,17,1020.7,-0.4,68,11,40000,18.52,,,230,,,,,,,,,,,wg-a,,,,AAXX 21124 07761 12782 /2310 10170 20110 30196 40207 58004 60006 81100 91200=
07761,1998-04-21 15:00:00,18,1019.4,-1.3,56,9,40000,18.52,,,240,,,,,,,,,,,wg-a,,,,AAXX 21154 07761 12682 /2410 10180 20090 30183 40194 58013 60006 81100 91500=
07761,1998-04-21 18:00:00,17,1018.5,-0.9,39,3,500,3.704,,,320,8.1,17.7,,,,,,,,,wg-a,,,,AAXX 21184 07761 12/00 /3202 10170 20030 30174 40185 58009 60006 80000 91800 333 10177 20081=
07761,1998-04-21 21:00:00,10,1018.7,0.2,82,7,20000,11.112,,,60,,,,,,,,,,,wg-a,,,,AAXX 21214 07761 12/70 00606 10100 20070 30176 40187 51002 60006 80000 92100=
07761,1998-04-22 00:00:00,9,1017.5,-1.2,81,6,20000,11.112,,,40,,,,,,,,,,,wg-a,,,,AAXX 22004 07761 12/70 00406 10090 20060 30164 40175 58012 60006 80000 90000=
07761,1998-04-22 03:00:00,7,1016,-1.5,87,5,20000,14.816,,,50,,,,,,,,,,,wg-a,,,,AAXX 22034 07761 12/70 00508 10070 20050 30149 40160 58015 60006 80000 90300=
07761,1998-04-22 06:00:00,9,1015.8,-0.2,81,6,20000,14.816,,,40,6.1,16.5,,,,,,,,,wg-a,,,,AAXX 22064 07761 02/70 30408 10090 20060 30147 40158 55002 60006 80001 90600 333 10165 20061 60004=
07761,1998-04-22 09:00:00,19,1014.5,-1.3,43,6,25000,3.704,,,220,,,,,,,,,,,wg-a,,,,AAXX 22094 07761 12/75 52202 10190 20060 30134 40145 58013 60006 80004 90900=
07761,1998-04-22 12:00:00,18,1012.9,-1.6,64,11,500,14.816,,,210,,,,,,,,,,,wg-a,,,,AAXX 22124 07761 12/00 62108 10180 20110 30118 40129 58016 60006 80005 91200=
07761,1998-04-22 15:00:00,18,1011.2,-1.7,59,10,500,18.52,,,200,,,,,,,,,,,wg-a,,,,AAXX 22154 07761 12600 /2010 10180 20100 30101 40112 56017 60006 82801 91500=
07761,1998-04-22 18:00:00,16,1011.1,-0.1,72,11,25000,7.408,,,30,8.8,19,,,,,,,,,wg-a,,,,AAXX 22184 07761 12/75 80304 10160 20110 30100 40111 55001 60006 8707/ 91800 333 10190 20088=
07761,1998-04-22 21:00:00,14,1011.9,0.8,77,10,15000,3.704,,,50,,,,,,,,,,,wg-a,,,,AAXX 22214 07761 12/65 70502 10140 20100 30108 40119 53008 60006 8707/ 92100=
07761,1998-04-23 00:00:00,13,1011.5,-0.4,82,10,15000,3.704,,,60,,,,,,,,,,,wg-a,,,,AAXX 23004 07761 12865 70602 10130 20100 30104 40115 58004 60006 8157/ 90000=
07761,1998-04-23 03:00:00,12,1011.3,-0.2,94,11,15000,7.408,,,40,,,,0,,,,,,61,wg-a,,,,AAXX 23034 07761 12865 80404 10120 20110 30102 40113 58002 60007 76162 8357/ 90300=
07761,1998-04-23 06:00:00,13,1011.8,0.5,88,11,20000,7.408,,,50,12.1,16.2,,,,,,,,60,wg-a,,,,AAXX 23064 07761 02870 80504 10130 20110 30107 40118 53005 61000 76062 8807/ 90600 333 10162 20121 6001=
07761,1998-04-23 09:00:00,15,1013.1,1.3,77,11,15000,3.704,,,200,,,,0,,,,,,3,wg-a,,,,AAXX 23094 07761 12565 82002 10150 20110 30120 40131 51013 60007 70362 8117/ 90900=
07761,1998-04-23 12:00:00,17,1013.5,0.4,68,11,20000,7.408,,,210,,,,,,,,,,2,wg-a,,,,AAXX 23124 07761 12570 72104 10170 20110 30124 40135 50004 60006 70262 8117/ 91200=
07761,1998-04-23 18:00:00,15,1014.1,0.9,88,13,20000,7.408,,,280,12.4,18.4,,,,,,,,,wg-a,,,,AAXX 23184 07761 12670 /2804 10150 20130 30130 40141 53009 60006 81132 91800 333 10184 20124=
07761,1998-04-23 21:00:00,11,1015.8,1.7,87,9,15000,7.408,,,50,,,,,,,,,,,wg-a,,,,AAXX 23214 07761 12/65 30504 10110 20090 30147 40158 51017 60006 80001 92100=
07761,1998-04-24 00:00:00,9,1016.7,0.9,93,8,15000,11.112,,,50,,,,,,,,,,,wg-a,,,,AAXX 24004 07761 12465 /0506 10090 20080 30156 40167 51009 60006 81500 90000=
07761,1998-04-24 06:00:00,10,1016.9,1,87,8,25000,3.704,,,30,7.8,15.3,,,,,,,,,wg-a,,,,AAXX 24064 07761 02675 30302 10100 20080 30158 40169 53010 60006 81101 90600 333 10153 20078 60004=
07761,1998-04-24 09:00:00,16,1017.6,0.7,77,12,25000,14.816,,,220,,,,,,,,,,,wg-a,,,,AAXX 24094 07761 12675 42208 10160 20120 30165 40176 53007 60006 81101 90900=
07761,1998-04-24 12:00:00,18,1017.9,0.3,77,14,15000,18.52,,,230,,,,,,,,,,,wg-a,,,,AAXX 24124 07761 12565 /2310 10180 20140 30168 40179 50003 60006 81101 91200=
07761,1998-04-24 18:00:00,16,1017.9,0.4,82,13,15000,14.816,,,180,10.3,18.1,,,,,,,,,wg-a,,,,AAXX 24184 07761 12665 /1808 10160 20130 30168 40179 53004 60006 81501 91800 333 10181 20103=
07761,1998-04-25 00:00:00,10,1018.8,-0.2,93,9,12000,11.112,,,40,,,,,,,,,,,wg-a,,,,AAXX 25004 07761 12/62 00406 10100 20090 30177 40188 58002 60006 80000 90000=
07761,1998-04-25 06:00:00,10,1018.5,-0.1,93,9,12000,11.112,,,60,7.8,15.9,,,,,,,,,wg-a,,,,AAXX 25064 07761 02/62 40606 10100 20090 30174 40185 55001 60006 80001 90600 333 10159 20078 60004=
07761,1998-04-25 12:00:00,18,1020.2,0.7,77,14,11000,22.224,,,250,,,,,,,,,,,wg-a,,,,AAXX 25124 07761 12/61 /2512 10180 20140 30191 40202 51007 60006 91200=
07761,1998-04-25 18:00:00,16,1019.6,0.3,82,13,15000,18.52,,,230,10.3,18.5,,,,,,,,,wg-a,,,,AAXX 25184 07761 12665 /2310 10160 20130 30185 40196 53003 60006 81101 91800 333 10185 20103=
07761,1998-04-26 00:00:00,10,1019.2,-0.5,93,9,15000,11.112,,,60,,,,,,,,,,,wg-a,,,,AAXX 26004 07761 12365 40606 10100 20090 30181 40192 56005 60006 84600 90000=
07761,1998-04-26 06:00:00,11,1016.9,-1,94,10,3000,7.408,,,60,9.9,15.9,,,,,,,,28,wg-a,,,,AAXX 26064 07761 02230 90604 10110 20100 30158 40169 56010 60006 72841 8960/ 90600 333 10159 20099 60004=
07761,1998-04-26 12:00:00,19,1013.5,-2.2,68,13,25000,11.112,,,240,,,,,,,,,,,wg-a,,,,AAXX 26124 07761 12/75 42406 10190 20130 30124 40135 58022 60006 80001 91200=
07761,1998-04-26 18:00:00,17,1008,-2.7,63,10,20000,3.704,,,250,10.9,19.1,,,,,,,,,wg-a,,,,AAXX 26184 07761 12/70 72502 10170 20100 30069 40080 58027 60006 80002 91800 333 10191 20109=
07761,1998-04-27 00:00:00,12,1005.9,-1.4,88,10,20000,11.112,,,60,,,,,,,,,,,wg-a,,,,AAXX 27004 07761 12/70 40606 10120 20100 30048 40059 58014 60006 81031 90000=
07761,1998-04-27 06:00:00,17,1004.7,1.6,77,13,18000,25.928,,,240,11.9,17.7,,,,,,,,,wg-a,,,,AAXX 27064 07761 02568 72414 10170 20130 30036 40047 53016 60006 878// 90600 333 10177 20119 60004=
07761,1998-04-27 09:00:00,16,1006.5,1.8,82,13,7000,29.632,,,230,,,,0,,,,,,1,wg-a,,,,AAXX 27094 07761 12457 72316 10160 20130 30054 40065 53018 60007 70162 878// 90900=
07761,1998-04-27 12:00:00,16,1007.2,0.7,72,11,12000,25.928,,,250,,,,,,,,,,1,wg-a,,,,AAXX 27124 07761 12462 72514 10160 20110 30061 40072 50007 60006 70162 878// 91200=
07761,1998-04-27 15:00:00,14,1007.6,0.4,67,8,12000,22.224,,,260,,,,,,,,,,,wg-a,,,,AAXX 27154 07761 12562 72612 10140 20080 30065 40076 50004 60006 878// 91500=
07761,1998-04-27 18:00:00,14,1008.1,0.5,67,8,12000,7.408,,,260,13.6,17.7,,,,,,,,,wg-a,,,,AAXX 27184 07761 12562 72604 10140 20080 30070 40081 53005 60006 878// 91800 333 10177 20136=
07761,1998-04-27 21:00:00,11,1009.3,1.2,87,9,12000,7.408,,,60,,,,,,,,,,,wg-a,,,,AAXX 27214 07761 12562 70604 10110 20090 30082 40093 51012 60006 85801 92100=
07761,1998-04-28 00:00:00,11,1008.4,-0.9,87,9,12000,7.408,,,60,,,,,,,,,,2,wg-a,,,,AAXX 28004 07761 02562 60604 10110 20090 30073 40084 58009 61000 70286 86800 90000 333 6100=
07761,1998-04-28 03:00:00,10,1007.3,-1.1,93,9,12000,7.408,,,60,,,,0,,,,,,3,wg-a,,,,AAXX 28034 07761 12562 /0604 10100 20090 30062 40073 56011 60007 70386 84800 90300=
07761,1998-04-28 06:00:00,10,1007.6,0.3,93,9,25000,7.408,,,40,8.9,13.7,,,,,1,,,3,wg-a,,,,AAXX 28064 07761 02575 40404 10100 20090 30065 40076 53003 60006 70386 84200 90600 333 10137 20089 60014=
07761,1998-04-28 09:00:00,15,1007.9,0.3,63,8,25000,18.52,,,280,,,,,,,,,,,wg-a,,,,AAXX 28094 07761 12575 42810 10150 20080 30068 40079 52003 60006 84200 90900=
07761,1998-04-28 12:00:00,17,1008.5,0.6,59,9,25000,29.632,,,250,,,,,,,,,,,wg-a,,,,AAXX 28124 07761 12675 42516 10170 20090 30074 40085 53006 60006 84200 91200=
07761,1998-04-28 15:00:00,16,1008.9,0.4,59,8,25000,25.928,,,250,,,,,,,,,,,wg-a,,,,AAXX 28154 07761 12675 22514 10160 20080 30078 40089 53004 60006 82200 91500=
07761,1998-04-28 18:00:00,14,1009.4,0.5,58,6,20000,14.816,,,270,10.3,17,,,,,,,,,wg-a,,,,AAXX 28184 07761 12670 22708 10140 20060 30083 40094 51005 60006 82200 91800 333 10170 20103=
07761,1998-04-28 21:00:00,11,1010,0.6,76,7,20000,14.816,,,50,,,,,,,,,,,wg-a,,,,AAXX 28214 07761 12570 40508 10110 20070 30089 40100 50006 60006 84200 92100=
07761,1998-04-29 00:00:00,10,1009.6,-0.4,87,8,15000,11.112,,,40,,,,0,,,,,,1,wg-a,,,,AAXX 29004 07761 02565 50406 10100 20080 30085 40096 57004 60016 70186 85200 90000 333 60007=
07761,1998-04-29 03:00:00,9,1009,-0.6,93,8,20000,14.816,,,50,,,,,,,,,,25,wg-a,,,,AAXX 29034 07761 02570 /0508 10090 20080 30079 40090 56006 61000 72586 84200 90300 333 ////=
07761,1998-04-29 06:00:00,10,1009,0,87,8,500,11.112,,,40,8.4,13.5,,,,,,,,1,wg-a,,,,AAXX 29064 07761 02500 /0406 10100 20080 30079 40090 50000 60006 70186 81800 90600 333 10135 20084 60004=
07761,1998-04-29 09:00:00,16,1008.7,-0.3,59,8,40000,7.408,,,260,,,,0,,,,,,,wg-a,,,,AAXX 29094 07761 12582 /2604 10160 20080 30076 40087 55003 60007 81102 90900=
07761,1998-04-29 12:00:00,18,1009.3,0.6,56,9,500,22.224,,,210,,,,,,,,,,,wg-a,,,,AAXX 29124 07761 12600 72112 10180 20090 30082 40093 53006 60006 8125/ 91200=
07761,1998-04-29 18:00:00,14,1007.1,-2.1,77,10,18000,7.408,,,50,10.4,18.5,,1,,,,,,1,wg-a,,,,AAXX 29184 07761 02568 80504 10140 20100 30060 40071 56021 60006 70162 8587/ 91800 333 10185 20104 60017=
07761,1998-04-29 21:00:00,16,1005.9,-1.2,55,7,15000,18.52,,,100,,,,,,,,,,,wg-a,,,,AAXX 29214 07761 12565 81010 10160 20070 30048 40059 58012 60006 8587/ 92100=
07761,1998-04-30 00:00:00,16,1005.7,-0.2,63,9,0,3.704,,,110,,,,,,,,,,,wg-a,,,,AAXX 30004 07761 02/// /1102 10160 20090 30046 40057 56002 61000 90000 333 ////=
07761,1998-04-30 03:00:00,13,1004.4,-1.3,82,10,15000,18.52,,,30,,,,5,,,,,,25,wg-a,,,,AAXX 30034 07761 12565 70310 10130 20100 30033 40044 58013 60057 72586 8587/ 90300=
07761,1998-04-30 06:00:00,14,1004.6,0.2,82,11,10000,3.704,,,310,12.8,17.3,,,,,,,,61,wg-a,,,,AAXX 30064 07761 02560 83102 10140 20110 30035 40046 53002 61000 76186 8697/ 90600 333 10173 20128 6010=
07761,1998-04-30 09:00:00,14,1005.6,1,88,12,15000,7.408,,,90,,,,5,,,,,,60,wg-a,,,,AAXX 30094 07761 12565 80904 10140 20120 30045 40056 50010 60057 76062 878// 90900=
07761,1998-04-30 12:00:00,18,1006.3,0.7,68,12,25000,11.112,,,280,,,,,,,,,,1,wg-a,,,,AAXX 30124 07761 02575 42806 10180 20120 30052 40063 51007 60056 70161 83201 91200 333 61000=
07761,1998-04-30 15:00:00,17,1006.8,0.5,72,12,25000,18.52,,,220,,,,,,,,,,,wg-a,,,,AAXX 30154 07761 12575 22210 10170 20120 30057 40068 51005 60006 82200 91500=
07761,1998-04-30 18:00:00,15,1008.7,1.9,82,12,25000,7.408,,,230,13,18.3,,,,,,,,,wg-a,,,,AAXX 30184 07761 12575 42304 10150 20120 30076 40087 51019 60006 82801 91800 333 10183 20130=
07761,1998-04-30 21:00:00,13,1010.5,1.8,88,11,15000,14.816,,,60,,,,,,,,,,,wg-a,,,,AAXX 30214 07761 12465 70608 10130 20110 30094 40105 51018 60006 8357/ 92100=
07761,1998-05-01 00:00:00,12,1010.8,0.3,88,10,15000,11.112,,,40,,,,,,,,,,,wg-a,,,,AAXX 01004 07761 12565 70406 10120 20100 30097 40108 51003 60006 8157/ 90000=
07761,1998-05-01 03:00:00,10,1009.8,-1,93,9,15000,11.112,,,60,,,,,,,,,,17,wg-a,,,,AAXX 01034 07761 12565 /0606 10100 20090 30087 40098 56010 60006 71791 81900 90300=
07761,1998-05-01 06:00:00,11,1011,1.2,82,8,25000,11.112,,,50,8.6,15.1,,,,,5,,,3,wg-a,,,,AAXX 01064 07761 02575 60506 10110 20080 30099 40110 51012 60006 70391 84902 90600 333 10151 20086 60054=
07761,1998-05-01 09:00:00,17,1011.8,0.8,68,11,25000,11.112,,,270,,,,,,,,,,,wg-a,,,,AAXX 01094 07761 12675 72706 10170 20110 30107 40118 51008 60006 83202 90900=
07761,1998-05-01 12:00:00,18,1011.5,-0.3,68,12,40000,18.52,,,260,,,,,,,,,,,wg-a,,,,AAXX 01124 07761 12682 /2610 10180 20120 30104 40115 55003 60006 82202 91200=
07761,1998-05-01 15:00:00,18,1010.8,-0.7,73,13,25000,22.224,,,240,,,,,,,,,,,wg-a,,,,AAXX 01154 07761 12675 32412 10180 20130 30097 40108 58007 60006 83302 91500=
07761,1998-05-01 18:00:00,16,1011.1,0.3,72,11,25000,14.816,,,230,10.8,18.3,,,,,,,,,wg-a,,,,AAXX 01184 07761 12575 22308 10160 20110 30100 40111 53003 60006 82202 91800 333 10183 20108=
07761,1998-05-01 21:00:00,13,1012.5,1.4,82,10,20000,11.112,,,50,,,,,,,,,,,wg-a,,,,AAXX 01214 07761 12570 40506 10130 20100 30114 40125 51014 60006 83201 92100=
07761,1998-05-02 00:00:00,11,1012.2,-0.3,82,8,20000,11.112,,,40,,,,,,,,,,,wg-a,,,,AAXX 02004 07761 12/70 00406 10110 20080 30111 40122 57003 60006 80000 90000=
07761,1998-05-02 03:00:00,8,1011.4,-0.8,87,6,20000,14.816,,,60,,,,,,,,,,,wg-a,,,,AAXX 02034 07761 12/70 00608 10080 20060 30103 40114 56008 60006 80000 90300=
07761,1998-05-02 06:00:00,10,1012.3,0.9,82,7,20000,14.816,,,60,7.5,15.5,,,,,,,,,wg-a,,,,AAXX 02064 07761 02/70 30608 10100 20070 30112 40123 53009 60006 80002 90600 333 10155 20075 60004=
07761,1998-05-02 09:00:00,16,1012.8,0.5,72,11,11000,7.408,,,230,,,,,,,,,,,wg-a,,,,AAXX 02094 07761 12/61 /2304 10160 20110 30117 40128 51005 60006 90900=
07761,1998-05-02 12:00:00,17,1012.2,-0.6,68,11,50000,18.52,,,230,,,,,,,,,,,wg-a,,,,AAXX 02124 07761 12684 72310 10170 20110 30111 40122 58006 60006 81205 91200=
07761,1998-05-02 15:00:00,18,1010.4,-1.8,59,10,50000,11.112,,,210,,,,,,,,,,,wg-a,,,,AAXX 02154 07761 12584 72106 10180 20100 30093 40104 56018 60006 81205 91500=
07761,1998-05-02 18:00:00,16,1009.6,-0.8,68,10,50000,7.408,,,190,10.3,18.3,,,,,,,,,wg-a,,,,AAXX 02184 07761 12784 71904 10160 20100 30085 40096 55008 60006 83225 91800 333 10183 20103=
07761,1998-05-02 21:00:00,13,1010,0.4,82,10,20000,11.112,,,50,,,,,,,,,,,wg-a,,,,AAXX 02214 07761 12670 /0506 10130 20100 30089 40100 50004 60006 81102 92100=
07761,1998-05-03 03:00:00,9,1005.1,-3,87,7,20000,11.112,,,80,,,,,,,,,,,wg-a,,,,AAXX 03034 07761 12870 50806 10090 20070 30040 40051 56030 60006 81531 90300=
07761,1998-05-03 06:00:00,11,1002.8,-2.3,82,8,25000,3.704,,,150,8.9,15.6,,,,,,,,,wg-a,,,,AAXX 03064 07761 02775 71502 10110 20080 30017 40028 55023 60006 81572 90600 333 10156 20089 60004=
07761,1998-05-03 09:00:00,15,1002.2,-0.6,72,10,25000,3.704,,,250,,,,,,,,,,,wg-a,,,,AAXX 03094 07761 12575 82502 10150 20100 30011 40022 56006 60006 83872 90900=
07761,1998-05-03 12:00:00,18,997.8,-4.3,56,9,18000,14.816,,,210,,,,,,,,,,2,wg-a,,,,AAXX 03124 07761 02768 82108 10180 20090 39968 49978 57043 61000 70262 81535 91200 333 6100=
07761,1998-05-03 15:00:00,17,995.2,-2.6,72,12,25000,11.112,,,280,,,,,,,,,,,wg-a,,,,AAXX 03154 07761 12675 82806 10170 20120 39942 49952 56026 60006 8387/ 91500=
07761,1998-05-03 18:00:00,16,994.9,-0.4,82,13,11000,11.112,,,230,10.8,19,,,,,,,,,wg-a,,,,AAXX 03184 07761 12/61 /2306 10160 20130 39938 49949 55004 60006 91800 333 10190 20108=
07761,1998-05-03 21:00:00,15,994.3,-0.6,77,11,20000,7.408,,,30,,,,,,,,,,21,wg-a,,,,AAXX 03214 07761 02670 80304 10150 20110 39932 49943 58006 61000 72162 8487/ 92100 333 ////=
07761,1998-05-04 00:00:00,14,993.7,-0.6,88,12,18000,0,,,0,,,,1,,,,,,60,wg-a,,,,AAXX 04004 07761 02668 80000 10140 20120 39926 49937 56006 60016 76062 8687/ 90000 333 60017=
07761,1998-05-04 03:00:00,13,993.6,-0.1,94,12,18000,7.408,,,50,,,,0,,,,,,21,wg-a,,,,AAXX 04034 07761 12668 80504 10130 20120 39925 49936 55001 60007 72162 8287/ 90300=
07761,1998-05-04 06:00:00,13,995.3,1.7,94,12,15000,3.704,,,30,12.8,15.7,,,,,1,,,3,wg-a,,,,AAXX 04064 07761 02465 80302 10130 20120 39942 49953 53017 60006 70362 8587/ 90600 333 10157 20128 60014=
07761,1998-05-04 09:00:00,16,996,0.8,82,13,12000,18.52,,,300,,,,,,,,,,,wg-a,,,,AAXX 04094 07761 12562 83010 10160 20130 39950 49960 51008 60006 878// 90900=
07761,1998-05-04 12:00:00,17,997.6,1.5,72,12,12000,29.632,,,300,,,,,,,,,,60,wg-a,,,,AAXX 04124 07761 02462 83016 10170 20120 39965 49976 52015 61000 76062 84875 91200 333 6100=
07761,1998-05-04 15:00:00,15,1000.1,2.5,88,13,500,11.112,,,330,,,,1,,,,,,51,wg-a,,,,AAXX 04154 07761 12500 83306 10150 20130 39990 40001 53025 60017 75165 878// 91500=
07761,1998-05-04 18:00:00,15,1001.9,1.8,82,12,500,7.408,,,150,13.2,17.1,,,,,,,,21,wg-a,,,,AAXX 04184 07761 02500 81504 10150 20120 30008 40019 51018 61000 72165 878// 91800 333 10171 20132 6100=
07761,1998-05-04 21:00:00,14,1004,2.1,88,12,500,3.704,,,90,,,,1,,,,,,60,wg-a,,,,AAXX 04214 07761 12500 80902 10140 20120 30029 40040 51021 60017 76062 878// 92100=
07761,1998-05-05 00:00:00,13,1004.4,0.4,94,12,500,3.704,,,90,,,,,,,,,,,wg-a,,,,AAXX 05004 07761 12/00 /0902 10130 20120 30033 40044 50004 60016 90000=
07761,1998-05-05 03:00:00,13,1003.9,-0.5,94,12,500,7.408,,,70,,,,0,,,,,,60,wg-a,,,,AAXX 05034 07761 12400 80704 10130 20120 30028 40039 56005 60007 76066 878// 90300=
07761,1998-05-05 06:00:00,13,1004.6,0.7,94,12,500,7.408,,,50,12.4,14.6,,,,,2,,,1,wg-a,,,,AAXX 05064 07761 02400 80504 10130 20120 30035 40046 53007 60006 70162 885// 90600 333 10146 20124 60024=
07761,1998-05-05 09:00:00,15,1005.2,0.6,82,12,7000,11.112,,,280,,,,,,,,,,21,wg-a,,,,AAXX 05094 07761 02457 82806 10150 20120 30041 40052 53006 61000 72162 8482/ 90900 333 ////=
07761,1998-05-05 12:00:00,16,1006.2,1,82,13,9000,25.928,,,230,,,,,,,,,,3,wg-a,,,,AAXX 05124 07761 02559 82314 10160 20130 30051 40062 51010 61000 70362 8487/ 91200 333 ////=
07761,1998-05-05 15:00:00,16,1006.7,0.5,82,13,6000,18.52,,,240,,,,,,,,,,,wg-a,,,,AAXX 05154 07761 12556 82410 10160 20130 30056 40067 53005 60006 8557/ 91500=
07761,1998-05-05 18:00:00,15,1007.6,0.9,88,13,6000,3.704,,,220,12.7,18,,,,,,,,,wg-a,,,,AAXX 05184 07761 12556 82202 10150 20130 30065 40076 53009 60006 8557/ 91800 333 10180 20127=
07761,1998-05-05 21:00:00,14,1008.8,1.2,88,12,500,7.408,,,90,,,,,,,,,,,wg-a,,,,AAXX 05214 07761 12400 /0904 10140 20120 30077 40088 51012 60006 85501 92100=
07761,1998-05-06 00:00:00,12,1009,0.2,94,11,15000,7.408,,,70,,,,,,,,,,,wg-a,,,,AAXX 06004 07761 12465 60704 10120 20110 30079 40090 50002 60006 81530 90000=
07761,1998-05-06 03:00:00,10,1008.7,-0.3,93,9,8000,11.112,,,60,,,,,,,,,,,wg-a,,,,AAXX 06034 07761 12458 30606 10100 20090 30076 40087 56003 60006 81630 90300=
07761,1998-05-06 06:00:00,11,1010.2,1.5,94,10,12000,11.112,,,60,8.8,15.3,,,,,,,,,wg-a,,,,AAXX 06064 07761 02/62 10606 10110 20100 30091 40102 53015 60006 80001 90600 333 10153 20088 61000=
07761,1998-05-06 09:00:00,18,1011.9,1.7,73,13,12000,7.408,,,220,,,,,,,,,,,wg-a,,,,AAXX 06094 07761 12562 /2204 10180 20130 30108 40119 52017 60006 81101 90900=
07761,1998-05-06 12:00:00,18,1012.7,0.8,73,13,12000,22.224,,,260,,,,,,,,,,,wg-a,,,,AAXX 06124 07761 12562 /2612 10180 20130 30116 40127 51008 60006 81200 91200=
07761,1998-05-06 15:00:00,18,1013.3,0.6,77,14,10000,22.224,,,240,,,,,,,,,,,wg-a,,,,AAXX 06154 07761 12560 22412 10180 20140 30122 40133 53006 60006 81960 91500=
07761,1998-05-06 18:00:00,16,1014.6,1.3,82,13,8000,14.816,,,230,11.4,19.1,,,,,,,,,wg-a,,,,AAXX 06184 07761 12458 72308 10160 20130 30135 40146 53013 60006 83861 91800 333 10191 20114=
07761,1998-05-06 21:00:00,16,1016.1,1.5,77,12,8000,0,,,0,,,,,,,,,,,wg-a,,,,AAXX 06214 07761 12458 80000 10160 20120 30150 40161 51015 60006 875// 92100=
07761,1998-05-07 00:00:00,14,1017.3,1.2,88,12,10000,3.704,,,150,,,,,,,,,,,wg-a,,,,AAXX 07004 07761 12560 81502 10140 20120 30162 40173 51012 60006 875// 90000=
07761,1998-05-07 03:00:00,14,1017.8,0.5,88,12,10000,3.704,,,80,,,,,,,,,,,wg-a,,,,AAXX 07034 07761 12460 70802 10140 20120 30167 40178 53005 60006 875// 90300=
07761,1998-05-07 06:00:00,13,1019.7,1.9,82,10,12000,7.408,,,60,11.5,15.6,,,,,,,,,wg-a,,,,AAXX 07064 07761 02562 20604 10130 20100 30186 40197 53019 60006 82500 90600 333 10156 20115 60004=
07761,1998-05-07 09:00:00,17,1021.1,1.4,72,12,11000,14.816,,,260,,,,,,,,,,,wg-a,,,,AAXX 07094 07761 12/61 /2608 10170 20120 30200 40211 51014 60006 90900=
07761,1998-05-07 12:00:00,18,1021.8,0.7,73,13,18000,18.52,,,240,,,,,,,,,,,wg-a,,,,AAXX 07124 07761 12568 /2410 10180 20130 30207 40218 51007 60006 81200 91200=
07761,1998-05-07 15:00:00,19,1022.4,0.6,73,14,15000,11.112,,,230,,,,,,,,,,,wg-a,,,,AAXX 07154 07761 12565 52306 10190 20140 30213 40224 51006 60006 85400 91500=
07761,1998-05-07 18:00:00,16,1022.8,0.4,82,13,20000,3.704,,,230,13.4,18.8,,,,,,,,,wg-a,,,,AAXX 07184 07761 12770 /2302 10160 20130 30217 40228 53004 60006 83500 91800 333 10188 20134=
07761,1998-05-07 21:00:00,13,1024.8,2,88,11,15000,11.112,,,50,,,,,,,,,,,wg-a,,,,AAXX 07214 07761 12/65 00506 10130 20110 30237 40248 52020 60006 80000 92100=
07761,1998-05-08 00:00:00,12,1025.7,0.9,88,10,25000,11.112,,,60,,,,,,,,,,,wg-a,,,,AAXX 08004 07761 12/75 00606 10120 20100 30246 40257 51009 60006 80000 90000=
07761,1998-05-08 03:00:00,11,1025.3,-0.4,87,9,25000,14.816,,,50,,,,,,,,,,,wg-a,,,,AAXX 08034 07761 12/75 00508 10110 20090 30242 40253 58004 60006 80000 90300=
07761,1998-05-08 06:00:00,13,1026.3,1,88,11,20000,7.408,,,40,10.3,16.3,,,,,,,,,wg-a,,,,AAXX 08064 07761 02/70 00404 10130 20110 30252 40263 53010 60006 80000 90600 333 10163 20103 60004=
07761,1998-05-08 09:00:00,18,1027.3,1,77,14,25000,11.112,,,230,,,,,,,,,,,wg-a,,,,AAXX 08094 07761 12675 12306 10180 20140 30262 40273 51010 60006 81100 90900=
07761,1998-05-08 12:00:00,20,1027.1,-0.2,68,14,25000,18.52,,,210,,,,,,,,,,,wg-a,,,,AAXX 08124 07761 12675 /2110 10200 20140 30260 40271 58002 60006 81200 91200=
07761,1998-05-08 15:00:00,19,1026.3,-0.8,78,15,20000,14.816,,,200,,,,,,,,,,,wg-a,,,,AAXX 08154 07761 12670 22008 10190 20150 30252 40263 58008 60006 82800 91500=
07761,1998-05-08 18:00:00,19,1026.2,-0.1,78,15,17000,7.408,,,290,13.5,20.2,,,,,,,,,wg-a,,,,AAXX 08184 07761 12667 32904 10190 20150 30251 40262 58001 60006 83800 91800 333 10202 20135=
07761,1998-05-08 21:00:00,15,1027.1,0.9,82,12,15000,11.112,,,50,,,,,,,,,,,wg-a,,,,AAXX 08214 07761 12/65 /0506 10150 20120 30260 40271 52009 60006 80000 92100=
07761,1998-05-09 00:00:00,13,1026.2,-0.9,82,10,15000,11.112,,,50,,,,,,,,,,,wg-a,,,,AAXX 09004 07761 12/65 00506 10130 20100 30251 40262 58009 60006 80000 90000=
07761,1998-05-09 03:00:00,12,1026,-0.2,82,9,15000,11.112,,,50,,,,,,,,,,,wg-a,,,,AAXX 09034 07761 12/65 00506 10120 20090 30249 40260 55002 60006 80000 90300=
07761,1998-05-09 06:00:00,15,1025.9,-0.1,72,10,500,11.112,,,40,10.4,18.7,,,,,,,,,wg-a,,,,AAXX 09064 07761 02/00 20406 10150 20100 30248 40259 58001 60006 80001 90600 333 10187 20104 60004=
07761,1998-05-09 09:00:00,20,1025.8,-0.1,68,14,500,14.816,,,210,,,,,,,,,,,wg-a,,,,AAXX 09094 07761 12600 12108 10200 20140 30247 40258 55001 60006 81101 90900=
07761,1998-05-09 12:00:00,21,1024.9,-0.9,60,13,500,22.224,,,200,,,,,,,,,,,wg-a,,,,AAXX 09124 07761 12600 /2012 10210 20130 30238 40249 58009 60006 81101 91200=
07761,1998-05-09 15:00:00,20,1023.3,-1.6,78,16,500,14.816,,,200,,,,,,,,,,,wg-a,,,,AAXX 09154 07761 12600 /2008 10200 20160 30222 40233 58016 60006 81801 91500=
07761,1998-05-09 18:00:00,19,1022.2,-1.1,73,14,500,7.408,,,200,14.7,21.5,,,,,,,,,wg-a,,,,AAXX 09184 07761 12/00 12004 10190 20140 30211 40222 56011 60006 80002 91800 333 10215 20147=
07761,1998-05-10 00:00:00,12,1021.7,-0.6,82,9,20000,11.112,,,50,,,,,,,,,,,wg-a,,,,AAXX 10004 07761 12/70 00506 10120 20090 30206 40217 58006 60006 80000 90000=
07761,1998-05-10 03:00:00,11,1020.4,-1.3,82,8,20000,11.112,,,60,,,,,,,,,,,wg-a,,,,AAXX 10034 07761 12/70 00606 10110 20080 30193 40204 56013 60006 80000 90300=
07761,1998-05-10 06:00:00,14,1021,0.6,77,10,25000,11.112,,,60,10,18.7,,,,,,,,,wg-a,,,,AAXX 10064 07761 02/75 00606 10140 20100 30199 40210 53006 60006 80000 90600 333 10187 20100 60004=
07761,1998-05-10 09:00:00,20,1018.9,-2.1,64,13,25000,18.52,,,230,,,,,,,,,,,wg-a,,,,AAXX 10094 07761 12/75 02310 10200 20130 30178 40189 56021 60006 80000 90900=
07761,1998-05-10 12:00:00,20,1018.9,-0,73,15,25000,14.816,,,210,,,,,,,,,,,wg-a,,,,AAXX 10124 07761 12/75 12108 10200 20150 30178 40189 55000 60006 80002 91200=
07761,1998-05-10 15:00:00,21,1017.5,-1.4,69,15,25000,11.112,,,230,,,,,,,,,,,wg-a,,,,AAXX 10154 07761 12/75 22306 10210 20150 30164 40175 58014 60006 80001 91500=
07761,1998-05-10 18:00:00,19,1016.4,-1.1,73,14,25000,7.408,,,180,14.4,22,,,,,,,,,wg-a,,,,AAXX 10184 07761 12/75 21804 10190 20140 30153 40164 56011 60006 80001 91800 333 10220 20144=
07761,1998-05-10 21:00:00,15,1016.9,0.5,72,10,25000,11.112,,,60,,,,,,,,,,,wg-a,,,,AAXX 10214 07761 12/75 10606 10150 20100 30158 40169 53005 60006 80001 92100=
07761,1998-05-11 00:00:00,13,1016.6,-0.3,77,9,25000,14.816,,,40,,,,,,,,,,,wg-a,,,,AAXX 11004 07761 12/75 10408 10130 20090 30155 40166 58003 60006 80001 90000=
07761,1998-05-11 03:00:00,11,1016.2,-0.4,82,8,25000,11.112,,,60,,,,,,,,,,,wg-a,,,,AAXX 11034 07761 12/75 20606 10110 20080 30151 40162 56004 60006 80001 90300=
07761,1998-05-11 06:00:00,15,1016.4,0.2,72,10,500,11.112,,,50,9.8,18.8,,,,,,,,,wg-a,,,,AAXX 11064 07761 02/00 20506 10150 20100 30153 40164 51002 60006 80001 90600 333 10188 20098 60004=
07761,1998-05-11 09:00:00,21,1016.6,0.2,64,14,500,11.112,,,220,,,,,,,,,,,wg-a,,,,AAXX 11094 07761 12/00 32206 10210 20140 30155 40166 53002 60006 80001 90900=
07761,1998-05-11 12:00:00,21,1016.9,0.3,64,14,500,18.52,,,200,,,,,,,,,,,wg-a,,,,AAXX 11124 07761 12600 32010 10210 20140 30158 40169 53003 60006 81101 91200=
07761,1998-05-11 15:00:00,22,1015.7,-1.1,60,14,11000,11.112,,,250,,,,,,,,,,,wg-a,,,,AAXX 11154 07761 12/61 /2506 10220 20140 30147 40157 58011 60006 91500=
07761,1998-05-11 18:00:00,21,1015.8,-0,60,13,500,3.704,,,240,15.3,22.6,,,,,,,,,wg-a,,,,AAXX 11184 07761 12/00 12402 10210 20130 30147 40158 55000 60006 80001 91800 333 10226 20153=
07761,1998-05-11 21:00:00,16,1016.9,1.1,72,11,20000,14.816,,,40,,,,,,,,,,,wg-a,,,,AAXX 11214 07761 12/70 10408 10160 20110 30158 40169 50011 60006 80001 92100=
07761,1998-05-12 00:00:00,14,1017.2,0.3,72,9,20000,14.816,,,40,,,,,,,,,,,wg-a,,,,AAXX 12004 07761 12/70 30408 10140 20090 30161 40172 50003 60006 80001 90000=
07761,1998-05-12 03:00:00,13,1016.9,-0.3,77,9,20000,11.112,,,50,,,,,,,,,,,wg-a,,,,AAXX 12034 07761 12/70 30506 10130 20090 30158 40169 58003 60006 80001 90300=
07761,1998-05-12 06:00:00,15,1017.9,1,72,10,20000,11.112,,,40,11.2,21.1,,,,,,,,,wg-a,,,,AAXX 12064 07761 02/70 50406 10150 20100 30168 40179 53010 60006 80001 90600 333 10211 20112 60004=
07761,1998-05-12 09:00:00,25,1018,0.2,32,7,20000,7.408,,,240,,,,,,,,,,,wg-a,,,,AAXX 12094 07761 12/70 52404 10250 20070 30170 40180 53002 60006 80001 90900=
07761,1998-05-12 12:00:00,23,1018,0,61,15,25000,11.112,,,220,,,,,,,,,,,wg-a,,,,AAXX 12124 07761 12/75 52206 10230 20150 30170 40180 50000 60006 80001 91200=
07761,1998-05-12 15:00:00,23,1017,-1,53,13,25000,14.816,,,210,,,,,,,,,,,wg-a,,,,AAXX 12154 07761 12/75 42108 10230 20130 30160 40170 56010 60006 80001 91500=
07761,1998-05-12 18:00:00,22,1017,-0.1,60,14,25000,7.408,,,280,15.2,25.5,,,,,,,,,wg-a,,,,AAXX 12184 07761 12/75 52804 10220 20140 30159 40170 55001 60006 80001 91800 333 10255 20152=
07761,1998-05-12 21:00:00,18,1018.9,1.9,64,11,20000,18.52,,,40,,,,,,,,,,,wg-a,,,,AAXX 12214 07761 12/70 50410 10180 20110 30178 40189 51019 60006 80001 92100=
07761,1998-05-13 00:00:00,16,1019,0.1,68,10,20000,11.112,,,50,,,,,,,,,,,wg-a,,,,AAXX 13004 07761 12/70 10506 10160 20100 30179 40190 52001 60006 80001 90000=
07761,1998-05-13 03:00:00,14,1018.2,-0.8,77,10,20000,11.112,,,50,,,,,,,,,,,wg-a,,,,AAXX 13034 07761 12/70 50506 10140 20100 30171 40182 56008 60006 80002 90300=
07761,1998-05-13 06:00:00,17,1018.9,0.7,68,11,20000,3.704,,,50,13.2,22,,,,,,,,,wg-a,,,,AAXX 13064 07761 02/70 70502 10170 20110 30178 40189 53007 60006 81032 90600 333 10220 20132 60004=
07761,1998-05-13 09:00:00,22,1019.3,0.4,65,15,20000,11.112,,,230,,,,,,,,,,,wg-a,,,,AAXX 13094 07761 12/70 32306 10220 20150 30182 40193 53004 60006 80001 90900=
07761,1998-05-13 12:00:00,23,1018.6,-0.6,61,15,20000,11.112,,,210,,,,,,,,,,,wg-a,,,,AAXX 13124 07761 12670 32106 10230 20150 30176 40186 58006 60006 81101 91200=
07761,1998-05-13 15:00:00,25,1017.4,-1.2,41,11,500,18.52,,,200,,,,,,,,,,,wg-a,,,,AAXX 13154 07761 12600 22010 10250 20110 30164 40174 56012 60006 81101 91500=
07761,1998-05-13 18:00:00,26,1017.1,-0.3,32,8,500,3.704,,,340,16.8,26.6,,,,,,,,,wg-a,,,,AAXX 13184 07761 12/00 13402 10260 20080 30161 40171 55003 60006 80001 91800 333 10266 20168=
07761,1998-05-13 21:00:00,18,1017,-0.2,59,10,20000,14.816,,,50,,,,,,,,,,,wg-a,,,,AAXX 13214 07761 12/70 00508 10180 20100 30159 40170 57002 60006 80000 92100=
07761,1998-05-14 06:00:00,17,1014.5,-0.6,68,11,500,11.112,,,50,13,25.7,,,,,,,,,wg-a,,,,AAXX 14064 07761 02/00 10506 10170 20110 30134 40145 58006 60006 80002 90600 333 10257 20130 60004=
07761,1998-05-14 09:00:00,22,1014.9,0.4,60,14,500,7.408,,,210,,,,,,,,,,,wg-a,,,,AAXX 14094 07761 12600 /2104 10220 20140 30138 40149 53004 60006 81101 90900=
07761,1998-05-14 12:00:00,23,1013.6,-1.2,65,16,25000,18.52,,,220,,,,,,,,,,,wg-a,,,,AAXX 14124 07761 12675 32210 10230 20160 30126 40136 58012 60006 81101 91200=
07761,1998-05-14 15:00:00,24,1011.9,-1.7,47,12,20000,3.704,,,260,,,,,,,,,,,wg-a,,,,AAXX 14154 07761 12670 /2602 10240 20120 30109 40119 58017 60006 81102 91500=
07761,1998-05-14 18:00:00,22,1011.7,-0.2,50,11,20000,3.704,,,180,16.9,24.8,,,,,,,,,wg-a,,,,AAXX 14184 07761 12/70 71802 10220 20110 30107 40117 55002 60006 80002 91800 333 10248 20169=
07761,1998-05-14 21:00:00,17,1012.9,1.1,77,13,20000,14.816,,,50,,,,,,,,,,,wg-a,,,,AAXX 14214 07761 12/70 20508 10170 20130 30118 40129 53011 60006 80002 92100=
07761,1998-05-15 00:00:00,15,1013.1,0.2,77,11,20000,7.408,,,70,,,,,,,,,,,wg-a,,,,AAXX 15004 07761 12/70 20704 10150 20110 30120 40131 53002 60006 80002 90000=
07761,1998-05-15 03:00:00,15,1013,-0.1,63,8,20000,18.52,,,40,,,,,,,,,,,wg-a,,,,AAXX 15034 07761 12/70 /0410 10150 20080 30119 40130 58001 60006 81032 90300=
07761,1998-05-15 06:00:00,17,1012.7,-0.3,59,9,25000,11.112,,,40,13.9,22,,,,,,,,,wg-a,,,,AAXX 15064 07761 02/75 70406 10170 20090 30116 40127 58003 60006 83032 90600 333 10220 20139 60004=
07761,1998-05-15 09:00:00,20,1013.2,0.5,60,12,20000,11.112,,,250,,,,,,,,,,,wg-a,,,,AAXX 15094 07761 12770 82506 10200 20120 30121 40132 51005 60006 81272 90900=
07761,1998-05-15 12:00:00,20,1011.9,-1.3,68,14,15000,11.112,,,250,,,,,,,,,,60,wg-a,,,,AAXX 15124 07761 02765 82506 10200 20140 30108 40119 56013 61000 76062 81272 91200 333 6100=
07761,1998-05-15 18:00:00,22,1010,-0.2,46,10,25000,3.704,,,320,17.4,23.5,,,,,,,,3,wg-a,,,,AAXX 15184 07761 12675 53202 10220 20100 30090 40100 55002 60006 70361 81231 91800 333 10235 20174=
07761,1998-05-15 21:00:00,19,1010.7,0.6,68,13,15000,7.408,,,60,,,,,,,,,,,wg-a,,,,AAXX 15214 07761 12/65 /0604 10190 20130 30096 40107 52006 60006 83082 92100=
07761,1998-05-16 00:00:00,15,1010.5,-0.2,82,12,15000,11.112,,,60,,,,,,,,,,,wg-a,,,,AAXX 16004 07761 12665 40606 10150 20120 30094 40105 58002 60006 81182 90000=
07761,1998-05-16 03:00:00,12,1009.9,-0.6,88,10,20000,11.112,,,50,,,,,,,,,,,wg-a,,,,AAXX 16034 07761 12/70 00506 10120 20100 30088 40099 56006 60006 80000 90300=
07761,1998-05-16 06:00:00,15,1010,0.1,82,12,15000,11.112,,,40,12,21.9,,,,,,,,,wg-a,,,,AAXX 16064 07761 02/65 10406 10150 20120 30089 40100 53001 60006 80001 90600 333 10219 20120 61000=
07761,1998-05-16 09:00:00,20,1011.2,1.2,73,15,15000,11.112,,,230,,,,,,,,,,,wg-a,,,,AAXX 16094 07761 12765 /2306 10200 20150 30101 40112 51012 60006 81200 90900=
07761,1998-05-16 12:00:00,21,1011.4,0.3,73,16,8000,18.52,,,240,,,,,,,,,,17,wg-a,,,,AAXX 16124 07761 02658 32410 10210 20160 30104 40114 51003 61000 71798 81963 91200 333 6100=
07761,1998-05-16 15:00:00,21,1011.8,0.4,73,16,10000,11.112,,,60,,,,,,,,,,17,wg-a,,,,AAXX 16154 07761 02660 60606 10210 20160 30108 40118 50004 61000 71798 83963 91500 333 ////=
07761,1998-05-16 18:00:00,20,1011.6,-0.3,83,17,10000,7.408,,,240,15.4,22.4,,,,,,,,2,wg-a,,,,AAXX 16184 07761 12/60 22404 10200 20170 30105 40116 55003 60006 70298 81051 91800 333 10224 20154=
07761,1998-05-16 21:00:00,17,1013,1.4,88,15,10000,7.408,,,70,,,,,,,,,,,wg-a,,,,AAXX 16214 07761 12460 70704 10170 20150 30119 40130 53014 60006 8357/ 92100=
07761,1998-05-17 00:00:00,17,1012,-1,88,15,8000,11.112,,,70,,,,1,,,,,,61,wg-a,,,,AAXX 17004 07761 02458 70706 10170 20150 30109 40120 58010 60016 76161 8457/ 90000 333 60017=
07761,1998-05-17 03:00:00,16,1011.8,-0.2,94,15,10000,7.408,,,60,,,,,,,,,,2,wg-a,,,,AAXX 17034 07761 02460 80604 10160 20150 30107 40118 56002 61000 70262 8357/ 90300 333 ////=
07761,1998-05-17 06:00:00,16,1012.2,0.4,94,15,500,0,,,0,15.7,19.6,,3,,,3,,,95,wg-a,,,,AAXX 17064 07761 02400 80000 10160 20150 30111 40122 53004 60034 79598 8597/ 90600 333 10196 20157 60037=
07761,1998-05-17 09:00:00,19,1012.4,0.2,73,14,12000,7.408,,,240,,,,1,,,,,,1,wg-a,,,,AAXX 17094 07761 12462 62404 10190 20140 30113 40124 50002 60017 70196 84830 90900=
07761,1998-05-17 12:00:00,20,1012.4,-0,68,14,20000,22.224,,,220,,,,,,,,,,3,wg-a,,,,AAXX 17124 07761 12570 32212 10200 20140 30113 40124 54000 60016 70396 83200 91200=
07761,1998-05-17 15:00:00,20,1012.7,0.3,73,15,20000,18.52,,,220,,,,,,,,,,,wg-a,,,,AAXX 17154 07761 12570 42210 10200 20150 30116 40127 53003 60006 84900 91500=
07761,1998-05-17 18:00:00,19,1013.3,0.6,78,15,20000,7.408,,,220,15.7,20.4,,,,,,,,1,wg-a,,,,AAXX 17184 07761 12570 32204 10190 20150 30122 40133 53006 60006 70191 81902 91800 333 10204 20157=
07761,1998-05-17 21:00:00,17,1015.4,2.1,59,9,20000,14.816,,,60,,,,,,,,,,,wg-a,,,,AAXX 17214 07761 12670 70608 10170 20090 30143 40154 51021 60006 83532 92100=
07761,1998-05-18 00:00:00,15,1016.5,1.1,88,13,11000,7.408,,,90,,,,,,,,,,,wg-a,,,,AAXX 18004 07761 12/61 /0904 10150 20130 30154 40165 50011 60026 90000=
07761,1998-05-18 03:00:00,14,1016.5,-0,88,12,15000,7.408,,,50,,,,,,,,,,1,wg-a,,,,AAXX 18034 07761 02765 /0504 10140 20120 30154 40165 54000 61000 70187 83532 90300 333 ////=
07761,1998-05-18 06:00:00,14,1018.5,2,82,11,500,7.408,,,60,12.4,18.7,,,,,3,,,3,wg-a,,,,AAXX 18064 07761 02500 20604 10140 20110 30174 40185 53020 60006 70387 82800 90600 333 10187 20124 60034=
07761,1998-05-18 09:00:00,19,1019.2,0.7,68,13,500,14.816,,,240,,,,,,,,,,,wg-a,,,,AAXX 18094 07761 12600 22408 10190 20130 30181 40192 51007 60006 82200 90900=
07761,1998-05-18 15:00:00,20,1019.1,-0.1,60,12,500,18.52,,,230,,,,,,,,,,,wg-a,,,,AAXX 18154 07761 12600 22310 10200 20120 30180 40191 58001 60006 82200 91500=
07761,1998-05-18 18:00:00,19,1019.2,0.1,60,11,500,11.112,,,190,13.9,20.7,,,,,,,,,wg-a,,,,AAXX 18184 07761 12700 /1906 10190 20110 30181 40192 52001 60006 81200 91800 333 10207 20139=
07761,1998-05-18 21:00:00,14,1021.1,1.9,72,9,15000,11.112,,,40,,,,,,,,,,,wg-a,,,,AAXX 18214 07761 12/65 00406 10140 20090 30200 40211 51019 60006 80000 92100=
07761,1998-05-19 00:00:00,12,1021.3,0.2,82,9,15000,14.816,,,50,,,,,,,,,,,wg-a,,,,AAXX 19004 07761 12/65 30508 10120 20090 30202 40213 50002 60006 80002 90000=
07761,1998-05-19 03:00:00,10,1020.7,-0.6,82,7,15000,11.112,,,50,,,,,,,,,,,wg-a,,,,AAXX 19034 07761 12/65 00506 10100 20070 30196 40207 56006 60006 80000 90300=
07761,1998-05-19 06:00:00,13,1021,0.3,72,8,500,11.112,,,40,9.2,18.9,,,,,,,,,wg-a,,,,AAXX 19064 07761 02600 /0406 10130 20080 30199 40210 51003 60006 81500 90600 333 10189 20092 60004=
07761,1998-05-19 09:00:00,20,1020.7,-0.3,49,9,500,11.112,,,250,,,,,,,,,,,wg-a,,,,AAXX 19094 07761 12600 /2506 10200 20090 30196 40207 55003 60006 81100 90900=
07761,1998-05-19 12:00:00,20,1020.4,-0.3,64,13,40000,18.52,,,200,,,,,,,,,,,wg-a,,,,AAXX 19124 07761 12682 /2010 10200 20130 30193 40204 58003 60006 81200 91200=
07761,1998-05-19 15:00:00,21,1019.2,-1.2,64,14,40000,18.52,,,210,,,,,,,,,,,wg-a,,,,AAXX 19154 07761 12682 /2110 10210 20140 30181 40192 57012 60006 81200 91500=
07761,1998-05-19 18:00:00,20,1018.7,-0.5,56,11,40000,11.112,,,340,13.3,22.1,,,,,,,,,wg-a,,,,AAXX 19184 07761 12682 /3406 10200 20110 30176 40187 56005 60006 81100 91800 333 10221 20133=
07761,1998-05-19 21:00:00,15,1020.1,1.4,77,11,20000,11.112,,,70,,,,,,,,,,,wg-a,,,,AAXX 19214 07761 12/70 00706 10150 20110 30190 40201 52014 60006 80000 92100=
07761,1998-05-20 00:00:00,13,1019.6,-0.5,77,9,20000,7.408,,,40,,,,,,,,,,,wg-a,,,,AAXX 20004 07761 12/70 00404 10130 20090 30185 40196 55005 60006 80000 90000=
07761,1998-05-20 03:00:00,11,1018.8,-0.8,82,8,20000,14.816,,,40,,,,,,,,,,,wg-a,,,,AAXX 20034 07761 12/70 00408 10110 20080 30177 40188 58008 60006 80000 90300=
07761,1998-05-20 06:00:00,14,1018.7,-0.1,77,10,25000,11.112,,,40,10.4,19.7,,,,,,,,,wg-a,,,,AAXX 20064 07761 02/75 10406 10140 20100 30176 40187 58001 60006 80002 90600 333 10197 20104 60004=
07761,1998-05-20 09:00:00,20,1018.4,-0.3,60,12,35000,11.112,,,230,,,,,,,,,,,wg-a,,,,AAXX 20094 07761 12781 32306 10200 20120 30173 40184 58003 60006 81102 90900=
07761,1998-05-20 12:00:00,23,1017.7,-0.7,27,3,35000,7.408,,,250,,,,,,,,,,,wg-a,,,,AAXX 20124 07761 12781 72504 10230 20030 30166 40177 56007 60006 81204 91200=
07761,1998-05-20 15:00:00,23,1017.3,-0.3,29,4,25000,22.224,,,320,,,,,,,,,,,wg-a,,,,AAXX 20154 07761 12775 73212 10230 20040 30163 40173 58003 60006 82166 91500=
07761,1998-05-20 18:00:00,21,1017.2,-0.2,38,6,25000,7.408,,,350,14.4,24.8,,,,,,,,,wg-a,,,,AAXX 20184 07761 12/75 /3504 10210 20060 30161 40172 55002 60006 81032 91800 333 10248 20144=
07761,1998-05-20 21:00:00,15,1018,0.8,63,8,25000,14.816,,,60,,,,,,,,,,,wg-a,,,,AAXX 20214 07761 12/75 00608 10150 20080 30169 40180 53008 60006 80000 92100=
07761,1998-05-21 00:00:00,11,1017.8,-0.2,76,7,25000,11.112,,,50,,,,,,,,,,,wg-a,,,,AAXX 21004 07761 12/75 00506 10110 20070 30167 40178 56002 60006 80000 90000=
07761,1998-05-21 03:00:00,11,1016.8,-1,76,7,25000,14.816,,,40,,,,,,,,,,,wg-a,,,,AAXX 21034 07761 12/75 00408 10110 20070 30157 40168 58010 60006 80000 90300=
07761,1998-05-21 06:00:00,14,1017.8,1,63,7,35000,7.408,,,60,10.2,21,,,,,,,,,wg-a,,,,AAXX 21064 07761 02/81 40604 10140 20070 30167 40178 53010 60006 80001 90600 333 10210 20102 60004=
07761,1998-05-21 09:00:00,21,1017.5,-0.3,43,8,35000,7.408,,,230,,,,,,,,,,,wg-a,,,,AAXX 21094 07761 12/81 32304 10210 20080 30164 40175 58003 60006 80002 90900=
07761,1998-05-21 12:00:00,26,1016.7,-0.7,23,3,40000,14.816,,,290,,,,,,,,,,,wg-a,,,,AAXX 21124 07761 12782 /2908 10260 20030 30157 40167 58007 60006 81201 91200=
07761,1998-05-21 15:00:00,25,1016.5,-0.2,22,2,35000,14.816,,,300,,,,,,,,,,,wg-a,,,,AAXX 21154 07761 12881 /3008 10250 20020 30155 40165 57002 60006 81201 91500=
07761,1998-05-21 18:00:00,22,1016.1,-0.5,43,9,40000,7.408,,,290,14.5,26,,,,,,,,,wg-a,,,,AAXX 21184 07761 12/82 12904 10220 20090 30150 40161 56005 60006 80001 91800 333 10260 20145=
07761,1998-05-21 21:00:00,15,1017,0.9,59,7,20000,11.112,,,40,,,,,,,,,,,wg-a,,,,AAXX 21214 07761 12/70 00406 10150 20070 30159 40170 52009 60006 80000 92100=
07761,1998-05-22 00:00:00,11,1016.8,-0.2,71,6,500,14.816,,,40,,,,,,,,,,,wg-a,,,,AAXX 22004 07761 12/00 00408 10110 20060 30157 40168 58002 60006 80000 90000=
07761,1998-05-22 03:00:00,11,1016.1,-0.7,66,5,500,14.816,,,40,,,,,,,,,,,wg-a,,,,AAXX 22034 07761 12/00 20408 10110 20050 30150 40161 56007 60006 81031 90300=
07761,1998-05-22 06:00:00,12,1016,-0.1,71,7,500,11.112,,,50,9.8,22.1,,,,,,,,,wg-a,,,,AAXX 22064 07761 02600 /0506 10120 20070 30149 40160 55001 60006 81140 90600 333 10221 20098 60004=
07761,1998-05-22 09:00:00,21,1015.8,-0.2,64,14,500,11.112,,,250,,,,,,,,,,,wg-a,,,,AAXX 22094 07761 12600 /2506 10210 20140 30147 40158 56002 60006 81140 90900=
07761,1998-05-22 12:00:00,22,1015.1,-0.6,65,15,500,18.52,,,240,,,,,,,,,,,wg-a,,,,AAXX 22124 07761 12600 /2410 10220 20150 30141 40151 58006 60006 81200 91200=
07761,1998-05-22 15:00:00,22,1014,-1.1,73,17,15000,14.816,,,230,,,,,,,,,,,wg-a,,,,AAXX 22154 07761 12565 /2308 10220 20170 30130 40140 56011 60006 81200 91500=
07761,1998-05-22 18:00:00,20,1013.7,-0.4,73,15,10000,14.816,,,210,12.4,22.4,,,,,,,,,wg-a,,,,AAXX 22184 07761 12560 /2108 10200 20150 30126 40137 56004 60006 81100 91800 333 10224 20124=
07761,1998-05-22 21:00:00,17,1015,1.3,82,14,12000,11.112,,,40,,,,,,,,,,,wg-a,,,,AAXX 22214 07761 12562 20406 10170 20140 30139 40150 53013 60006 82500 92100=
07761,1998-05-23 00:00:00,15,1014.1,-0.9,88,13,12000,7.408,,,40,,,,,,,,,,,wg-a,,,,AAXX 23004 07761 12562 30404 10150 20130 30130 40141 58009 60006 83500 90000=
07761,1998-05-23 03:00:00,14,1012.6,-1.5,82,11,15000,11.112,,,60,,,,,,,,,,,wg-a,,,,AAXX 23034 07761 12/65 00606 10140 20110 30115 40126 56015 60006 80000 90300=
07761,1998-05-23 06:00:00,16,1013.2,0.6,77,12,12000,11.112,,,50,12.5,19.8,,,,,,,,,wg-a,,,,AAXX 23064 07761 02562 30506 10160 20120 30121 40132 53006 60006 83800 90600 333 10198 20125 60004=
07761,1998-05-23 09:00:00,21,1012.7,-0.5,60,13,15000,22.224,,,230,,,,,,,,,,,wg-a,,,,AAXX 23094 07761 12565 22312 10210 20130 30116 40127 55005 60006 82800 90900=
07761,1998-05-23 12:00:00,21,1012.4,-0.2,60,13,18000,14.816,,,250,,,,,,,,,,,wg-a,,,,AAXX 23124 07761 12568 /2508 10210 20130 30114 40124 58002 60006 81800 91200=
07761,1998-05-23 15:00:00,20,1012.4,-0.1,64,13,18000,11.112,,,250,,,,,,,,,,,wg-a,,,,AAXX 23154 07761 12568 72506 10200 20130 30113 40124 55001 60006 878// 91500=
07761,1998-05-23 18:00:00,20,1011.8,-0.6,64,13,18000,3.704,,,260,15.7,21.8,,,,,,,,,wg-a,,,,AAXX 23184 07761 12568 32602 10200 20130 30107 40118 55006 60006 83800 91800 333 10218 20157=
07761,1998-05-23 21:00:00,17,1012.7,0.9,77,13,10000,11.112,,,60,,,,,,,,,,,wg-a,,,,AAXX 23214 07761 12460 20606 10170 20130 30116 40127 51009 60006 82800 92100=
07761,1998-05-24 00:00:00,14,1012.2,-0.5,88,12,10000,11.112,,,50,,,,,,,,,,,wg-a,,,,AAXX 24004 07761 12560 /0506 10140 20120 30111 40122 57005 60006 81500 90000=
07761,1998-05-24 03:00:00,16,1010.9,-1.3,82,13,9000,3.704,,,60,,,,,,,,,,,wg-a,,,,AAXX 24034 07761 12359 80602 10160 20130 30098 40109 57013 60006 875// 90300=
07761,1998-05-24 06:00:00,17,1010.7,-0.2,82,14,8000,7.408,,,50,13.6,19.5,,,,,,,,,wg-a,,,,AAXX 24064 07761 02458 /0504 10170 20140 30096 40107 55002 60006 84500 90600 333 10195 20136 60004=
07761,1998-05-24 09:00:00,21,1010.3,-0.3,69,15,10000,14.816,,,240,,,,,,,,,,,wg-a,,,,AAXX 24094 07761 12560 52408 10210 20150 30093 40103 58003 60006 82802 90900=
07761,1998-05-24 12:00:00,21,1009.4,-0.9,69,15,15000,22.224,,,220,,,,,,,,,,,wg-a,,,,AAXX 24124 07761 12565 72212 10210 20150 30084 40094 56009 60006 82204 91200=
07761,1998-05-24 15:00:00,21,1008.3,-1.1,73,16,15000,22.224,,,240,,,,,,,,,,,wg-a,,,,AAXX 24154 07761 12665 /2412 10210 20160 30073 40083 58011 60006 82202 91500=
07761,1998-05-24 18:00:00,20,1008,-0.4,64,13,20000,11.112,,,220,17.3,21.8,,,,,,,,,wg-a,,,,AAXX 24184 07761 12670 82206 10200 20130 30069 40080 56004 60006 81204 91800 333 10218 20173=
07761,1998-05-24 21:00:00,17,1008.9,0.9,77,13,15000,3.704,,,70,,,,,,,,,,,wg-a,,,,AAXX 24214 07761 12/65 70702 10170 20130 30078 40089 53009 60006 80004 92100=
07761,1998-05-25 00:00:00,15,1008.5,-0.4,82,12,15000,11.112,,,50,,,,,,,,,,,wg-a,,,,AAXX 25004 07761 12565 30506 10150 20120 30074 40085 58004 60006 82501 90000=
07761,1998-05-25 03:00:00,14,1007,-1.5,82,11,15000,14.816,,,50,,,,,,,,,,,wg-a,,,,AAXX 25034 07761 12565 40508 10140 20110 30059 40070 57015 60006 83501 90300=
07761,1998-05-25 06:00:00,16,1006.4,-0.6,77,12,15000,7.408,,,40,13.1,19.6,,,,,,,,,wg-a,,,,AAXX 25064 07761 02765 70404 10160 20120 30053 40064 55006 60006 81501 90600 333 10196 20131 60004=
07761,1998-05-25 09:00:00,21,1006.2,-0.1,60,13,15000,18.52,,,260,,,,,,,,,,,wg-a,,,,AAXX 25094 07761 12765 /2610 10210 20130 30052 40062 55001 60006 81182 90900=
07761,1998-05-25 12:00:00,22,1006.2,0,65,15,12000,22.224,,,250,,,,,,,,,,,wg-a,,,,AAXX 25124 07761 12562 52512 10220 20150 30052 40062 50000 60006 83381 91200=
07761,1998-05-25 15:00:00,22,1005.7,-0.5,53,12,12000,14.816,,,200,,,,,,,,,,,wg-a,,,,AAXX 25154 07761 12662 22008 10220 20120 30047 40057 55005 60006 82360 91500=
07761,1998-05-25 18:00:00,20,1006.9,1.2,64,13,12000,18.52,,,310,15.8,23.1,,,,,,,,,wg-a,,,,AAXX 25184 07761 12562 23110 10200 20130 30059 40069 53012 60006 81401 91800 333 10231 20158=
07761,1998-05-25 21:00:00,18,1008.9,1.9,73,13,12000,7.408,,,60,,,,,,,,,,,wg-a,,,,AAXX 25214 07761 12562 60604 10180 20130 30078 40089 53019 60006 86401 92100=
07761,1998-05-26 00:00:00,16,1009.2,0.3,82,13,15000,11.112,,,40,,,,,,,,,,,wg-a,,,,AAXX 26004 07761 12565 60406 10160 20130 30081 40092 50003 60006 86830 90000=
07761,1998-05-26 03:00:00,15,1009.2,-0,82,12,10000,14.816,,,40,,,,,,,,,,,wg-a,,,,AAXX 26034 07761 12560 50408 10150 20120 30081 40092 55000 60006 85800 90300=
07761,1998-05-26 06:00:00,16,1009.9,0.7,77,12,20000,7.408,,,50,13.8,19.7,,,,,,,,,wg-a,,,,AAXX 26064 07761 02670 /0504 10160 20120 30088 40099 53007 60006 81160 90600 333 10197 20138 60004=
07761,1998-05-26 09:00:00,21,1010.6,0.8,64,14,18000,7.408,,,240,,,,,,,,,,,wg-a,,,,AAXX 26094 07761 12668 /2404 10210 20140 30096 40106 51008 60006 81200 90900=
07761,1998-05-26 12:00:00,22,1011.3,0.7,69,16,18000,29.632,,,230,,,,,,,,,,,wg-a,,,,AAXX 26124 07761 12668 /2316 10220 20160 30103 40113 51007 60006 81200 91200=
07761,1998-05-26 15:00:00,22,1011.9,0.6,65,15,18000,18.52,,,220,,,,,,,,,,,wg-a,,,,AAXX 26154 07761 12668 /2210 10220 20150 30109 40119 51006 60006 81200 91500=
07761,1998-05-26 18:00:00,20,1012,-0,73,15,18000,11.112,,,240,16.5,22.4,,,,,,,,,wg-a,,,,AAXX 26184 07761 12668 /2406 10200 20150 30109 40120 55000 60006 81100 91800 333 10224 20165=
07761,1998-05-26 21:00:00,16,1013.4,1.4,82,13,15000,11.112,,,60,,,,,,,,,,,wg-a,,,,AAXX 26214 07761 12565 /0606 10160 20130 30123 40134 53014 60006 81500 92100=
07761,1998-05-27 00:00:00,13,1013.4,0,82,10,10000,14.816,,,50,,,,,,,,,,,wg-a,,,,AAXX 27004 07761 12460 30508 10130 20100 30123 40134 50000 60006 83500 90000=
07761,1998-05-27 03:00:00,13,1012.8,-0.6,77,9,15000,14.816,,,50,,,,,,,,,,,wg-a,,,,AAXX 27034 07761 12465 /0508 10130 20090 30117 40128 58006 60006 83500 90300=
07761,1998-05-27 06:00:00,15,1013.4,0.6,72,10,25000,11.112,,,40,12.1,19.9,,,,,,,,,wg-a,,,,AAXX 27064 07761 02/75 30406 10150 20100 30123 40134 51006 60006 83030 90600 333 10199 20121 60004=
07761,1998-05-27 09:00:00,21,1013.1,-0.3,64,14,20000,14.816,,,250,,,,,,,,,,,wg-a,,,,AAXX 27094 07761 12670 22508 10210 20140 30120 40131 58003 60006 81130 90900=
07761,1998-05-27 12:00:00,21,1012.5,-0.5,69,15,20000,7.408,,,250,,,,,,,,,,,wg-a,,,,AAXX 27124 07761 12570 52504 10210 20150 30115 40125 58005 60006 82285 91200=
07761,1998-05-27 15:00:00,23,1011.1,-1.4,53,13,20000,11.112,,,240,,,,,,,,,,,wg-a,,,,AAXX 27154 07761 12670 /2406 10230 20130 30101 40111 58014 60006 81245 91500=
07761,1998-05-27 18:00:00,21,1010.3,-0.8,69,15,20000,7.408,,,250,14.6,22.9,,,,,,,,,wg-a,,,,AAXX 27184 07761 12670 52504 10210 20150 30093 40103 55008 60006 81182 91800 333 10229 20146=
07761,1998-05-27 21:00:00,18,1010.5,0.1,77,14,12000,3.704,,,50,,,,,,,,,,,wg-a,,,,AAXX 27214 07761 12/62 40502 10180 20140 30094 40105 53001 60006 84030 92100=
07761,1998-05-28 00:00:00,17,1010.7,0.2,88,15,12000,25.928,,,100,,,,3,,,,,,80,wg-a,,,,AAXX 28004 07761 02562 71014 10170 20150 30096 40107 50002 60036 78096 8597/ 90000 333 60037=
07761,1998-05-28 03:00:00,17,1010.6,-0.1,82,14,15000,0,,,0,,,,1,,,,,,1,wg-a,,,,AAXX 28034 07761 12665 70000 10170 20140 30095 40106 55001 60017 70196 8117/ 90300=
07761,1998-05-28 06:00:00,17,1010.3,-0.3,88,15,10000,14.816,,,40,16.1,21.2,,,,,,,,60,wg-a,,,,AAXX 28064 07761 02560 80408 10170 20150 30092 40103 58003 61000 76096 8287/ 90600 333 10212 20161 6006=
07761,1998-05-28 09:00:00,19,1008.3,-2,83,16,15000,3.704,,,110,,,,1,,,,,,21,wg-a,,,,AAXX 28094 07761 12665 81102 10190 20160 30072 40083 58020 60017 72162 8287/ 90900=
07761,1998-05-28 12:00:00,20,1008.5,0.3,73,15,10000,11.112,,,30,,,,0,,,,,,21,wg-a,,,,AAXX 28124 07761 02660 80306 10200 20150 30075 40085 53003 60026 72162 8387/ 91200 333 60007=
07761,1998-05-28 15:00:00,20,1008.2,-0.3,73,15,10000,11.112,,,280,,,,0,,,,,,21,wg-a,,,,AAXX 28154 07761 12760 82806 10200 20150 30072 40082 55003 60007 72186 8327/ 91500=
07761,1998-05-28 18:00:00,17,1009.3,1,94,16,15000,11.112,,,60,17,21.1,,,,,,,,21,wg-a,,,,AAXX 28184 07761 02465 70606 10170 20160 30082 40093 51010 61000 72186 8287/ 91800 333 10211 20170 6001=
07761,1998-05-28 21:00:00,15,1010.3,1,94,14,10000,7.408,,,60,,,,,,,,,,,wg-a,,,,AAXX 28214 07761 12660 /0604 10150 20140 30092 40103 53010 60006 82832 92100=
07761,1998-05-29 00:00:00,14,1010.9,0.6,94,13,15000,3.704,,,60,,,,,,,,,,,wg-a,,,,AAXX 29004 07761 12665 40602 10140 20130 30098 40109 51006 60006 84500 90000=
07761,1998-05-29 03:00:00,15,1010.5,-0.4,94,14,10000,7.408,,,60,,,,2,,,,,,61,wg-a,,,,AAXX 29034 07761 12560 70604 10150 20140 30094 40105 58004 60027 76161 865// 90300=
07761,1998-05-29 06:00:00,16,1012,1.5,94,15,25000,7.408,,,40,14,17.2,,,,,5,,,1,wg-a,,,,AAXX 29064 07761 02475 /0404 10160 20150 30109 40120 53015 60006 70161 86800 90600 333 10172 20140 60054=
07761,1998-05-29 09:00:00,20,1013,1,73,15,25000,14.816,,,230,,,,,,,,,,,wg-a,,,,AAXX 29094 07761 12575 32308 10200 20150 30119 40130 51010 60006 83200 90900=
07761,1998-05-29 12:00:00,21,1013.9,0.9,69,15,25000,25.928,,,230,,,,,,,,,,,wg-a,,,,AAXX 29124 07761 12575 32314 10210 20150 30128 40139 51009 60006 83200 91200=
07761,1998-05-29 15:00:00,21,1014.1,0.2,69,15,25000,29.632,,,240,,,,,,,,,,,wg-a,,,,AAXX 29154 07761 12575 32416 10210 20150 30130 40141 53002 60006 83200 91500=
07761,1998-05-29 18:00:00,19,1014.9,0.8,68,13,500,11.112,,,220,16.5,21.4,,,,,,,,,wg-a,,,,AAXX 29184 07761 12500 22206 10190 20130 30138 40149 53008 60006 82200 91800 333 10214 20165=
07761,1998-05-29 21:00:00,16,1016,1.1,82,13,20000,11.112,,,50,,,,,,,,,,,wg-a,,,,AAXX 29214 07761 12/70 00506 10160 20130 30149 40160 51011 60006 80000 92100=
07761,1998-05-30 00:00:00,12,1016.2,0.2,94,11,20000,14.816,,,50,,,,,,,,,,,wg-a,,,,AAXX 30004 07761 12/70 00508 10120 20110 30151 40162 50002 60006 80000 90000=
07761,1998-05-30 03:00:00,11,1015.1,-1.1,82,8,20000,11.112,,,50,,,,,,,,,,,wg-a,,,,AAXX 30034 07761 12/70 00506 10110 20080 30140 40151 56011 60006 80000 90300=
07761,1998-05-30 09:00:00,20,1016.4,0.9,49,9,50000,3.704,,,250,,,,,,,,,,,wg-a,,,,AAXX 30094 07761 12584 /2502 10200 20090 30153 40164 51009 60006 81102 90900=
07761,1998-05-30 12:00:00,22,1016,-0.3,57,13,50000,14.816,,,250,,,,,,,,,,,wg-a,,,,AAXX 30124 07761 12784 /2508 10220 20130 30150 40160 58003 60006 81142 91200=
07761,1998-05-30 15:00:00,23,1015.4,-0.6,47,11,40000,14.816,,,260,,,,,,,,,,,wg-a,,,,AAXX 30154 07761 12782 /2608 10230 20110 30144 40154 58006 60006 81240 91500=
07761,1998-05-30 18:00:00,22,1015.2,-0.3,43,9,40000,3.704,,,180,14.1,23.6,,,,,,,,,wg-a,,,,AAXX 30184 07761 12782 /1802 10220 20090 30141 40152 55003 60006 81140 91800 333 10236 20141=
07761,1998-05-30 21:00:00,16,1016.6,1.4,63,9,20000,11.112,,,40,,,,,,,,,,,wg-a,,,,AAXX 30214 07761 12/70 00406 10160 20090 30155 40166 51014 60006 80000 92100=
07761,1998-05-31 00:00:00,14,1015.8,-0.8,67,8,20000,14.816,,,30,,,,,,,,,,,wg-a,,,,AAXX 31004 07761 12/70 00308 10140 20080 30147 40158 58008 60006 80000 90000=
07761,1998-05-31 03:00:00,14,1015.1,-0.7,63,7,20000,11.112,,,50,,,,,,,,,,,wg-a,,,,AAXX 31034 07761 12/70 20506 10140 20070 30140 40151 56007 60006 81031 90300=
07761,1998-05-31 06:00:00,16,1016.1,1,68,10,18000,7.408,,,60,12.5,22.2,,,,,,,,,wg-a,,,,AAXX 31064 07761 02768 80604 10160 20100 30150 40161 53010 60006 8557/ 90600 333 10222 20125 60004=
07761,1998-05-31 09:00:00,22,1016.7,0.6,57,13,18000,7.408,,,240,,,,,,,,,,,wg-a,,,,AAXX 31094 07761 12668 82404 10220 20130 30156 40167 53006 60006 8587/ 90900=
07761,1998-05-31 12:00:00,22,1016.6,-0.1,53,12,20000,7.408,,,250,,,,,,,,,,21,wg-a,,,,AAXX 31124 07761 02670 /2504 10220 20120 30155 40166 58001 61000 72162 84831 91200 333 6100=
07761,1998-05-31 15:00:00,23,1016.5,-0,53,13,500,22.224,,,260,,,,,,,,,,,wg-a,,,,AAXX 31154 07761 12600 /2612 10230 20130 30155 40165 55000 60006 81131 91500=
07761,1998-05-31 18:00:00,21,1016.9,0.3,69,15,500,0,,,0,16.4,24.8,,,,,,,,,wg-a,,,,AAXX 31184 07761 12600 /0000 10210 20150 30158 40169 50003 60006 81149 91800 333 10248 20164=
07761,1998-05-31 21:00:00,18,1017.6,0.7,73,13,15000,11.112,,,40,,,,,,,,,,,wg-a,,,,AAXX 31214 07761 12/65 50406 10180 20130 30165 40176 53007 60006 80008 92100=
07761,1998-06-01 00:00:00,14,1017.6,-0,82,11,15000,11.112,,,50,,,,,,,,,,,wg-a,,,,AAXX 01004 07761 12/65 00506 10140 20110 30165 40176 54000 60006 80000 90000=
07761,1998-06-01 03:00:00,13,1017.1,-0.5,82,10,15000,14.816,,,40,,,,,,,,,,,wg-a,,,,AAXX 01034 07761 12/65 00408 10130 20100 30160 40171 58005 60006 80000 90300=
07761,1998-06-01 06:00:00,17,1017.6,0.5,68,11,50000,7.408,,,40,11.4,21,,,,,,,,,wg-a,,,,AAXX 01064 07761 02/84 /0404 10170 20110 30165 40176 53005 60006 81041 90600 333 10210 20114 61000=
07761,1998-06-01 09:00:00,21,1017.6,0,64,14,50000,7.408,,,210,,,,,,,,,,,wg-a,,,,AAXX 01094 07761 12/84 72104 10210 20140 30165 40176 50000 60006 84042 90900=
07761,1998-06-01 12:00:00,22,1017.8,0.2,69,16,50000,14.816,,,220,,,,,,,,,,,wg-a,,,,AAXX 01124 07761 12784 42208 10220 20160 30167 40178 50002 60006 81172 91200=
07761,1998-06-01 15:00:00,22,1017.6,-0.2,65,15,50000,14.816,,,210,,,,,,,,,,,wg-a,,,,AAXX 01154 07761 12784 32108 10220 20150 30165 40176 57002 60006 81172 91500=
07761,1998-06-01 18:00:00,21,1017.2,-0.4,64,14,40000,7.408,,,210,16.8,22.8,,,,,,,,,wg-a,,,,AAXX 01184 07761 12/82 12104 10210 20140 30161 40172 58004 60006 81042 91800 333 10228 20168=
07761,1998-06-01 21:00:00,17,1017.4,0.2,72,12,500,7.408,,,60,,,,,,,,,,,wg-a,,,,AAXX 01214 07761 12/00 10604 10170 20120 30163 40174 50002 60006 80001 92100=
07761,1998-06-02 00:00:00,14,1016.6,-0.8,82,11,500,14.816,,,50,,,,,,,,,,,wg-a,,,,AAXX 02004 07761 12/00 00508 10140 20110 30155 40166 56008 60006 80000 90000=
07761,1998-06-02 03:00:00,13,1015.8,-0.8,82,10,500,14.816,,,50,,,,,,,,,,,wg-a,,,,AAXX 02034 07761 12/00 30508 10130 20100 30147 40158 55008 60006 81042 90300=
07761,1998-06-02 06:00:00,17,1016.7,0.9,72,12,11000,7.408,,,50,13.4,21.6,,,,,,,,,wg-a,,,,AAXX 02064 07761 02/61 /0504 10170 20120 30156 40167 51009 60006 90600 333 10216 20134 60004=
07761,1998-06-02 09:00:00,27,1015.6,-1,39,12,40000,7.408,,,270,,,,,,,,,,,wg-a,,,,AAXX 02094 07761 12/82 72704 10270 20120 30146 40156 58010 60006 81044 90900=
07761,1998-06-02 12:00:00,24,1014.7,-0.9,57,15,45000,7.408,,,220,,,,,,,,,,,wg-a,,,,AAXX 02124 07761 12/83 62204 10240 20150 30137 40147 58009 60006 81082 91200=
07761,1998-06-02 15:00:00,25,1014.6,-0.1,65,18,40000,18.52,,,200,,,,,,,,,,,wg-a,,,,AAXX 02154 07761 12/82 32010 10250 20180 30136 40146 55001 60006 80001 91500=
07761,1998-06-02 18:00:00,24,1013.8,-0.8,65,17,35000,3.704,,,130,16.8,27.8,,,,,,,,,wg-a,,,,AAXX 02184 07761 12/81 41302 10240 20170 30128 40138 58008 60006 80001 91800 333 10278 20168=
07761,1998-06-02 21:00:00,21,1013.9,0.1,78,17,15000,14.816,,,60,,,,,,,,,,,wg-a,,,,AAXX 02214 07761 12/65 70608 10210 20170 30129 40139 50001 60006 80005 92100=
07761,1998-06-03 00:00:00,20,1014,-0,88,18,15000,3.704,,,290,,,,,,,,,,,wg-a,,,,AAXX 03004 07761 12/65 02902 10200 20180 30129 40140 55000 60006 80000 90000=
07761,1998-06-03 06:00:00,22,1014.5,1.3,69,16,0,3.704,,,130,17.7,23.9,,,,,,,,,wg-a,,,,AAXX 03064 07761 02/// /1302 10220 20160 30135 40145 51013 60006 90600 333 10239 20177 60004=
07761,1998-06-03 09:00:00,23,1014.3,-0.2,78,19,13000,29.632,,,220,,,,,,,,,,,wg-a,,,,AAXX 03094 07761 12/63 42216 10230 20190 30133 40143 55002 60006 83041 90900=
07761,1998-06-03 12:00:00,24,1013.3,-1,78,20,12000,14.816,,,250,,,,,,,,,,,wg-a,,,,AAXX 03124 07761 12662 72508 10240 20200 30123 40133 55010 60006 8127/ 91200=
07761,1998-06-03 15:00:00,25,1014.3,1,61,17,23000,7.408,,,170,,,,,,,,,,,wg-a,,,,AAXX 03154 07761 12673 71704 10250 20170 30133 40143 50010 60006 81272 91500=
07761,1998-06-03 18:00:00,27,1012.5,-1.8,54,17,10000,14.816,,,20,22.2,28,,,,,,,,,wg-a,,,,AAXX 03184 07761 12/60 /0208 10270 20170 30115 40125 58018 60006 91800 333 10280 20222=
07761,1998-06-03 21:00:00,21,1015.1,2.5,83,18,12000,7.408,,,40,,,,,,,,,,,wg-a,,,,AAXX 03214 07761 12/62 10404 10210 20180 30140 40151 51025 60006 81031 92100=
07761,1998-06-04 00:00:00,18,1014.7,-0.4,88,16,12000,11.112,,,50,,,,,,,,,,,wg-a,,,,AAXX 04004 07761 12/62 30506 10180 20160 30136 40147 55004 60006 82031 90000=
07761,1998-06-04 03:00:00,18,1013.2,-1.5,73,13,20000,14.816,,,50,,,,,,,,,,,wg-a,,,,AAXX 04034 07761 12/70 20508 10180 20130 30121 40132 58015 60006 81081 90300=
07761,1998-06-04 06:00:00,22,1014.1,1,83,19,18000,18.52,,,210,17.1,27.4,,,,,,,,,wg-a,,,,AAXX 04064 07761 02/68 62110 10220 20190 30131 40141 53010 60006 81031 90600 333 10274 20171 61000=
07761,1998-06-04 09:00:00,31,1013.8,-0.3,43,17,18000,3.704,,,210,,,,,,,,,,,wg-a,,,,AAXX 04094 07761 12868 /2102 10310 20170 30128 40138 58003 60006 81531 90900=
07761,1998-06-04 12:00:00,26,1014.1,0.3,70,20,18000,14.816,,,190,,,,,,,,,,,wg-a,,,,AAXX 04124 07761 12768 71908 10260 20200 30131 40141 51003 60006 81172 91200=
07761,1998-06-04 15:00:00,32,1013,-1.1,38,16,18000,11.112,,,240,,,,,,,,,,,wg-a,,,,AAXX 04154 07761 12668 72406 10320 20160 30120 40130 58011 60006 81972 91500=
07761,1998-06-04 18:00:00,25,1014.3,1.3,61,17,18000,3.704,,,320,22,34.2,,,,,,,,,wg-a,,,,AAXX 04184 07761 12/68 73202 10250 20170 30133 40143 51013 60006 81032 91800 333 10342 20220=
07761,1998-06-04 21:00:00,23,1014.8,0.5,61,15,15000,11.112,,,50,,,,,,,,,,,wg-a,,,,AAXX 04214 07761 12/65 20506 10230 20150 30138 40148 53005 60006 80002 92100=
07761,1998-06-05 00:00:00,18,1014.9,0,77,14,15000,11.112,,,40,,,,,,,,,,,wg-a,,,,AAXX 05004 07761 12/65 00406 10180 20140 30138 40149 50000 60006 80000 90000=
07761,1998-06-05 03:00:00,18,1014.4,-0.5,73,13,20000,11.112,,,50,,,,,,,,,,,wg-a,,,,AAXX 05034 07761 12/70 30506 10180 20130 30133 40144 55005 60006 81082 90300=
07761,1998-06-05 06:00:00,23,1014.3,-0,53,13,35000,11.112,,,50,16.4,25.5,,,,,,,,,wg-a,,,,AAXX 05064 07761 02/81 10506 10230 20130 30133 40143 55000 60006 81080 90600 333 10255 20164 60004=
07761,1998-06-05 09:00:00,34,1014,-0.3,22,9,25000,18.52,,,120,,,,,,,,,,,wg-a,,,,AAXX 05094 07761 12/75 01210 10340 20090 30130 40140 58003 60006 80000 90900=
07761,1998-06-05 12:00:00,36,1013.3,-0.7,18,8,11000,29.632,,,100,,,,,,,,,,,wg-a,,,,AAXX 05124 07761 12/61 /1016 10360 20080 30123 40133 58007 60006 91200=
07761,1998-06-05 15:00:00,33,1012.3,-1,30,13,25000,18.52,,50.004,260,,,,,,,,,,,wg-a,,,,AAXX 05154 07761 12/75 12610 10330 20130 30113 40123 56010 60006 80001 91500 333 91027=
07761,1998-06-05 18:00:00,25,1012.8,0.5,65,18,25000,7.408,,50.004,200,22.7,36.9,,,,,,,,,wg-a,,,,AAXX 05184 07761 12/75 12004 10250 20180 30118 40128 53005 60006 80001 91800 333 10369 20227 91027=
07761,1998-06-05 21:00:00,22,1013.8,1,78,18,10000,7.408,,,50,,,,,,,,,,,wg-a,,,,AAXX 05214 07761 12/60 /0504 10220 20180 30128 40138 50010 60006 92100=
07761,1998-06-06 00:00:00,22,1013.4,-0.4,53,12,15000,7.408,,,80,,,,,,,,,,,wg-a,,,,AAXX 06004 07761 12/65 40804 10220 20120 30124 40134 55004 60006 80002 90000=
07761,1998-06-06 03:00:00,19,1014.4,0.9,78,15,15000,7.408,,,70,,,,,,,,,,,wg-a,,,,AAXX 06034 07761 12/65 20704 10190 20150 30133 40144 53009 60006 80002 90300=
07761,1998-06-06 06:00:00,22,1013.7,-0.6,69,16,10000,14.816,,,60,18.3,25.1,,,,,,,,,wg-a,,,,AAXX 06064 07761 02/60 /0608 10220 20160 30127 40137 58006 60006 90600 333 10251 20183 60004=
07761,1998-06-06 09:00:00,24,1014.8,1.1,74,19,15000,25.928,,,200,,,,,,,,,,,wg-a,,,,AAXX 06094 07761 12/65 42014 10240 20190 30138 40148 53011 60006 83052 90900=
07761,1998-06-06 12:00:00,25,1015.6,0.8,65,18,20000,11.112,,,230,,,,,,,,,,,wg-a,,,,AAXX 06124 07761 12670 /2306 10250 20180 30146 40156 52008 60006 81152 91200=
07761,1998-06-06 15:00:00,23,1015.7,0.1,78,19,15000,11.112,,,240,,,,,,,,,,25,wg-a,,,,AAXX 06154 07761 02565 72406 10230 20190 30147 40157 50001 61000 72586 8487/ 91500 333 ////=
07761,1998-06-06 18:00:00,22,1014.1,-1.6,83,19,15000,3.704,,,140,21.8,26.9,,,,,,,,1,wg-a,,,,AAXX 06184 07761 12765 /1402 10220 20190 30131 40141 56016 60006 70186 81550 91800 333 10269 20218=
07761,1998-06-06 21:00:00,20,1016.3,2.1,88,18,15000,3.704,,,190,,,,,,,,,,,wg-a,,,,AAXX 06214 07761 12/65 51902 10200 20180 30152 40163 53021 60006 81042 92100=
07761,1998-06-07 00:00:00,20,1016.1,-0.2,88,18,12000,7.408,,,40,,,,,,,,,,,wg-a,,,,AAXX 07004 07761 12262 70404 10200 20180 30150 40161 58002 60006 83681 90000=
07761,1998-06-07 03:00:00,20,1015,-1.1,88,18,10000,7.408,,,60,,,,,,,,,,,wg-a,,,,AAXX 07034 07761 12460 /0604 10200 20180 30139 40150 56011 60006 83571 90300=
07761,1998-06-07 06:00:00,20,1015.4,0.4,94,19,6000,3.704,,,50,18.9,22.2,,,,,,,,,wg-a,,,,AAXX 07064 07761 02456 70502 10200 20190 30143 40154 51004 60006 878// 90600 333 10222 20189 61000=
07761,1998-06-07 09:00:00,23,1015.9,0.6,78,19,20000,14.816,,,220,,,,,,,,,,,wg-a,,,,AAXX 07094 07761 12570 22208 10230 20190 30149 40159 51006 60006 82260 90900=
07761,1998-06-07 12:00:00,24,1015.8,-0.1,74,19,20000,18.52,,,220,,,,,,,,,,,wg-a,,,,AAXX 07124 07761 12570 32210 10240 20190 30148 40158 58001 60006 83260 91200=
07761,1998-06-07 15:00:00,23,1014.9,-0.9,73,18,25000,18.52,,,220,,,,,,,,,,,wg-a,,,,AAXX 07154 07761 12675 32210 10230 20180 30139 40149 58009 60006 82201 91500=
07761,1998-06-07 18:00:00,23,1015.6,0.7,73,18,15000,7.408,,,320,20.4,24.2,,,,,,,,,wg-a,,,,AAXX 07184 07761 12565 /3204 10230 20180 30146 40156 53007 60006 82801 91800 333 10242 20204=
07761,1998-06-07 21:00:00,20,1016.8,1.1,88,18,15000,7.408,,,70,,,,,,,,,,,wg-a,,,,AAXX 07214 07761 12665 40704 10200 20180 30157 40168 52011 60006 82501 92100=
07761,1998-06-08 00:00:00,18,1017.2,0.4,88,16,15000,11.112,,,50,,,,,,,,,,,wg-a,,,,AAXX 08004 07761 12565 60506 10180 20160 30161 40172 52004 60006 81501 90000=
07761,1998-06-08 03:00:00,16,1016.9,-0.3,88,14,15000,11.112,,,50,,,,,,,,,,,wg-a,,,,AAXX 08034 07761 12465 40506 10160 20140 30158 40169 55003 60006 83501 90300=
07761,1998-06-08 06:00:00,19,1017.2,0.3,78,15,15000,7.408,,,20,15.2,22.5,,,,,,,,,wg-a,,,,AAXX 08064 07761 02765 /0204 10190 20150 30161 40172 53003 60006 81100 90600 333 10225 20152 60004=
07761,1998-06-08 09:00:00,23,1017.8,0.7,73,18,15000,14.816,,,220,,,,,,,,,,,wg-a,,,,AAXX 08094 07761 12565 32208 10230 20180 30168 40178 53007 60006 82201 90900=
07761,1998-06-08 12:00:00,24,1017.9,0.1,65,17,12000,29.632,,,210,,,,,,,,,,,wg-a,,,,AAXX 08124 07761 12562 42116 10240 20170 30169 40179 51001 60006 83202 91200=
07761,1998-06-08 15:00:00,23,1018.3,0.4,61,15,20000,25.928,,,220,,,,,,,,,,,wg-a,,,,AAXX 08154 07761 12570 32214 10230 20150 30173 40183 50004 60006 82142 91500=
07761,1998-06-08 18:00:00,21,1018.2,-0.2,64,14,20000,18.52,,,240,19.1,24.1,,,,,,,,,wg-a,,,,AAXX 08184 07761 12570 42410 10210 20140 30171 40182 55002 60006 84802 91800 333 10241 20191=
07761,1998-06-08 21:00:00,18,1019.1,0.9,73,13,15000,7.408,,,60,,,,,,,,,,,wg-a,,,,AAXX 08214 07761 12565 20604 10180 20130 30180 40191 53009 60006 81502 92100=
07761,1998-06-09 03:00:00,14,1018.5,-0.9,88,12,25000,11.112,,,60,,,,,,,,,,,wg-a,,,,AAXX 09034 07761 12675 20606 10140 20120 30174 40185 56009 60006 81502 90300=
07761,1998-06-09 06:00:00,16,1018.2,-0.3,82,13,500,11.112,,,40,13.9,20.9,,,,,,,,,wg-a,,,,AAXX 09064 07761 02/00 70406 10160 20130 30171 40182 55003 60006 80002 90600 333 10209 20139 60004=
07761,1998-06-09 09:00:00,22,1017.7,-0.5,65,15,500,11.112,,,250,,,,,,,,,,,wg-a,,,,AAXX 09094 07761 12/00 72506 10220 20150 30166 40177 58005 60006 80002 90900=
07761,1998-06-09 12:00:00,23,1016.7,-0.9,73,18,500,29.632,,,230,,,,,,,,,,,wg-a,,,,AAXX 09124 07761 12700 72316 10230 20180 30157 40167 56009 60006 82102 91200=
07761,1998-06-09 15:00:00,23,1015.7,-1,65,16,500,22.224,,,230,,,,,,,,,,,wg-a,,,,AAXX 09154 07761 12500 72312 10230 20160 30147 40157 56010 60006 82102 91500=
07761,1998-06-09 18:00:00,21,1015.4,-0.4,73,16,25000,14.816,,,230,16.3,23.5,,,,,,,,,wg-a,,,,AAXX 09184 07761 12575 82308 10210 20160 30143 40154 56004 60006 875// 91800 333 10235 20163=
07761,1998-06-09 21:00:00,20,1015.5,0.1,73,15,15000,7.408,,,230,,,,,,,,,,,wg-a,,,,AAXX 09214 07761 12565 82304 10200 20150 30144 40155 50001 60006 86501 92100=
07761,1998-06-10 00:00:00,18,1014.7,-0.8,83,15,20000,0,,,0,,,,,,,,,,,wg-a,,,,AAXX 10004 07761 12570 /0000 10180 20150 30136 40147 57008 60006 81500 90000=
07761,1998-06-10 03:00:00,16,1013.5,-1.2,88,14,20000,11.112,,,60,,,,,,,,,,,wg-a,,,,AAXX 10034 07761 12570 30606 10160 20140 30124 40135 58012 60006 83501 90300=
07761,1998-06-10 06:00:00,18,1013.3,-0.2,77,14,20000,7.408,,,50,14.8,20.9,,,,,,,,,wg-a,,,,AAXX 10064 07761 02570 /0504 10180 20140 30122 40133 55002 60006 81501 90600 333 10209 20148 60004=
07761,1998-06-10 09:00:00,23,1012.4,-0.8,61,15,25000,11.112,,,240,,,,,,,,,,,wg-a,,,,AAXX 10094 07761 12575 32406 10230 20150 30114 40124 58008 60006 81101 90900=
07761,1998-06-10 12:00:00,24,1011.6,-0.8,65,17,25000,18.52,,,230,,,,,,,,,,,wg-a,,,,AAXX 10124 07761 12575 72310 10240 20170 30106 40116 58008 60006 82102 91200=
07761,1998-06-10 15:00:00,23,1010.2,-1.4,73,18,11000,11.112,,,220,,,,,,,,,,,wg-a,,,,AAXX 10154 07761 12/61 /2206 10230 20180 30092 40102 58014 60006 91500=
07761,1998-06-10 18:00:00,22,1010,-0.2,78,18,25000,7.408,,,210,18.4,23.9,,,,,,,,,wg-a,,,,AAXX 10184 07761 12475 22104 10220 20180 30090 40100 58002 60006 82450 91800 333 10239 20184=
07761,1998-06-10 21:00:00,20,1010.1,0.1,88,18,18000,0,,,0,,,,,,,,,,,wg-a,,,,AAXX 10214 07761 12468 20000 10200 20180 30091 40101 50001 60006 82800 92100=
07761,1998-06-11 00:00:00,19,1009.3,-0.9,88,17,12000,11.112,,,60,,,,,,,,,,21,wg-a,,,,AAXX 11004 07761 02462 70606 10190 20170 30082 40093 58009 61000 72161 8488/ 90000 333 6100=
07761,1998-06-11 03:00:00,19,1007.7,-1.6,88,17,10000,3.704,,,90,,,,4,,,,,,61,wg-a,,,,AAXX 11034 07761 12360 80902 10190 20170 30066 40077 55016 60047 76162 8557/ 90300=
07761,1998-06-11 06:00:00,20,1007.7,0.1,83,17,12000,22.224,,,260,18.4,22,,,,,,,,60,wg-a,,,,AAXX 11064 07761 02362 82612 10200 20170 30067 40077 53001 61000 76062 8557/ 90600 333 10220 20184 6007=
07761,1998-06-11 09:00:00,22,1008.8,1.1,65,15,17000,18.52,,,310,,,,,,,,,,1,wg-a,,,,AAXX 11094 07761 02667 63110 10220 20150 30078 40088 52011 61000 70162 8557/ 90900 333 ////=
07761,1998-06-11 12:00:00,22,1009.1,0.3,57,13,18000,29.632,,,240,,,,,,,,,,2,wg-a,,,,AAXX 11124 07761 02568 52416 10220 20130 30081 40091 50003 61000 70261 84130 91200 333 ////=
07761,1998-06-11 15:00:00,22,1008.9,-0.2,57,13,18000,25.928,,,260,,,,,,,,,,,wg-a,,,,AAXX 11154 07761 12668 62614 10220 20130 30079 40089 58002 60006 84130 91500=
07761,1998-06-11 18:00:00,20,1009.5,0.5,56,11,18000,29.632,,,280,19.7,22.8,,,,,,,,,wg-a,,,,AAXX 11184 07761 12668 32816 10200 20110 30084 40095 51005 60006 82230 91800 333 10228 20197=
07761,1998-06-11 21:00:00,18,1009.8,0.3,64,11,18000,31.484,,,270,,,,,,,,,,,wg-a,,,,AAXX 11214 07761 12668 32717 10180 20110 30087 40098 52003 60006 82230 92100=
07761,1998-06-12 00:00:00,18,1009.7,-0.1,59,10,500,31.484,,,270,,,,,,,,,,,wg-a,,,,AAXX 12004 07761 12600 62717 10180 20100 30086 40097 55001 60006 83380 90000=
07761,1998-06-12 03:00:00,16,1008.9,-0.8,63,9,25000,38.892,,,270,,,,,,,,,,,wg-a,,,,AAXX 12034 07761 12675 72721 10160 20090 30078 40089 56008 60006 87280 90300=
07761,1998-06-12 06:00:00,16,1009.4,0.5,55,7,15000,35.188,,,270,15.7,19.9,,,,,,,,25,wg-a,,,,AAXX 12064 07761 02665 72719 10160 20070 30083 40094 53005 61000 72586 873// 90600 333 10199 20157 6100=
07761,1998-06-12 09:00:00,16,1010.2,0.8,55,7,15000,29.632,,57.412,280,,,,,,,,,,1,wg-a,,,,AAXX 12094 07761 02665 72816 10160 20070 30091 40102 52008 61000 70186 873// 90900 333 //// 91031=
07761,1998-06-12 12:00:00,18,1010.2,0,56,9,15000,35.188,,57.412,270,,,,,,,,,,2,wg-a,,,,AAXX 12124 07761 02665 72719 10180 20090 30091 40102 50000 61000 70286 873// 91200 333 6100 91031=
07761,1998-06-12 15:00:00,19,1010.5,0.3,56,10,15000,25.928,,,300,,,,,,,,,,,wg-a,,,,AAXX 12154 07761 12665 53014 10190 20100 30094 40105 53003 60006 85201 91500=
07761,1998-06-12 18:00:00,19,1011.7,1.2,60,11,15000,22.224,,,310,15.7,20.4,,,,,,,,,wg-a,,,,AAXX 12184 07761 12665 23112 10190 20110 30106 40117 53012 60006 82460 91800 333 10204 20157=
07761,1998-06-12 21:00:00,16,1013.8,2.1,72,11,15000,11.112,,,50,,,,,,,,,,,wg-a,,,,AAXX 12214 07761 12665 30506 10160 20110 30127 40138 53021 60006 82460 92100=
07761,1998-06-13 00:00:00,13,1014.3,0.5,82,10,15000,11.112,,,40,,,,,,,,,,,wg-a,,,,AAXX 13004 07761 12565 /0406 10130 20100 30132 40143 51005 60006 81500 90000=
07761,1998-06-13 03:00:00,11,1014,-0.3,82,8,15000,14.816,,,50,,,,,,,,,,,wg-a,,,,AAXX 13034 07761 12/65 /0508 10110 20080 30129 40140 58003 60006 81030 90300=
07761,1998-06-13 06:00:00,14,1015,1,77,10,20000,11.112,,,40,10.2,18.5,,,,,,,,,wg-a,,,,AAXX 13064 07761 02570 40406 10140 20100 30139 40150 53010 60006 83830 90600 333 10185 20102 61000=
07761,1998-06-13 09:00:00,19,1015.4,0.4,56,10,25000,25.928,,,240,,,,,,,,,,,wg-a,,,,AAXX 13094 07761 12675 22414 10190 20100 30143 40154 52004 60006 82100 90900=
07761,1998-06-13 12:00:00,19,1015.8,0.4,56,10,25000,22.224,,,220,,,,,,,,,,,wg-a,,,,AAXX 13124 07761 12675 /2212 10190 20100 30147 40158 51004 60006 81100 91200=
07761,1998-06-13 15:00:00,20,1016.5,0.7,56,11,25000,18.52,,,210,,,,,,,,,,,wg-a,,,,AAXX 13154 07761 12675 22110 10200 20110 30154 40165 52007 60006 82100 91500=
07761,1998-06-13 18:00:00,19,1017.2,0.7,60,11,25000,11.112,,,310,14.3,19.9,,,,,,,,,wg-a,,,,AAXX 13184 07761 12575 43106 10190 20110 30161 40172 53007 60006 84800 91800 333 10199 20143=
07761,1998-06-13 21:00:00,14,1018.3,1.1,77,10,18000,11.112,,,60,,,,,,,,,,,wg-a,,,,AAXX 13214 07761 12/68 00606 10140 20100 30172 40183 53011 60006 80000 92100=
07761,1998-06-14 00:00:00,13,1017.6,-0.7,77,9,18000,14.816,,,40,,,,,,,,,,,wg-a,,,,AAXX 14004 07761 12568 50408 10130 20090 30165 40176 58007 60006 85500 90000=
07761,1998-06-14 03:00:00,12,1016.5,-1.1,82,9,18000,14.816,,,40,,,,,,,,,,,wg-a,,,,AAXX 14034 07761 12568 30408 10120 20090 30154 40165 58011 60006 83200 90300=
07761,1998-06-14 06:00:00,16,1016.7,0.2,63,9,40000,11.112,,,60,12,18.5,,,,,,,,,wg-a,,,,AAXX 14064 07761 02582 20606 10160 20090 30156 40167 50002 60006 82800 90600 333 10185 20120 60004=
07761,1998-06-14 09:00:00,20,1016.6,-0.1,64,13,40000,18.52,,,230,,,,,,,,,,,wg-a,,,,AAXX 14094 07761 12682 32310 10200 20130 30155 40166 55001 60006 83830 90900=
07761,1998-06-14 12:00:00,22,1016.7,0.1,65,15,40000,22.224,,,230,,,,,,,,,,,wg-a,,,,AAXX 14124 07761 12682 32312 10220 20150 30156 40167 53001 60006 82830 91200=
07761,1998-06-14 15:00:00,20,1017.1,0.4,73,15,25000,18.52,,,210,,,,,,,,,,,wg-a,,,,AAXX 14154 07761 12675 72110 10200 20150 30160 40171 53004 60006 8327/ 91500=
07761,1998-06-14 18:00:00,19,1017,-0.1,64,12,11000,7.408,,,220,15.6,22,,,,,,,,,wg-a,,,,AAXX 14184 07761 12/61 /2204 10190 20120 30159 40170 55001 60006 91800 333 10220 20156=
07761,1998-06-15 00:00:00,15,1017.3,-0.4,82,12,25000,7.408,,,50,,,,,,,,,,,wg-a,,,,AAXX 15004 07761 12875 20504 10150 20120 30162 40173 58004 60006 82030 90000=
07761,1998-06-15 03:00:00,14,1017.1,-0.2,82,11,20000,11.112,,,50,,,,,,,,,,,wg-a,,,,AAXX 15034 07761 12770 70506 10140 20110 30160 40171 55002 60006 8253/ 90300=
07761,1998-06-15 06:00:00,17,1017.2,0.1,72,12,20000,7.408,,,60,13.9,19.3,,,,,,,,,wg-a,,,,AAXX 15064 07761 02770 70604 10170 20120 30161 40172 52001 60006 8153/ 90600 333 10193 20139 60004=
07761,1998-06-15 09:00:00,18,1017.9,0.7,83,15,11000,11.112,,,240,,,,,,,,,,,wg-a,,,,AAXX 15094 07761 32/61 /2406 10180 20150 30168 40179 53007 90900=
07761,1998-06-15 12:00:00,18,1017.8,-0.1,88,16,10000,11.112,,,140,,,,1,,,,,,61,wg-a,,,,AAXX 15124 07761 02460 81406 10180 20160 30167 40178 56001 60016 76162 8577/ 91200 333 60017=
07761,1998-06-15 15:00:00,21,1017,-0.8,64,14,20000,11.112,,,10,,,,1,,,,,,21,wg-a,,,,AAXX 15154 07761 12570 70106 10210 20140 30159 40170 55008 60017 72162 8487/ 91500=
07761,1998-06-15 18:00:00,18,1017.2,0.2,77,14,20000,7.408,,,330,17.2,21.8,,,,,,,,3,wg-a,,,,AAXX 15184 07761 12670 /3304 10180 20140 30161 40172 53002 60006 70362 8487/ 91800 333 10218 20172=
07761,1998-06-15 21:00:00,17,1018,0.8,82,14,20000,3.704,,,20,,,,,,,,,,,wg-a,,,,AAXX 15214 07761 12670 /0202 10170 20140 30169 40180 53008 60006 8487/ 92100=
07761,1998-06-16 00:00:00,15,1018.2,0.2,94,14,15000,7.408,,,50,,,,,,,,,,,wg-a,,,,AAXX 16004 07761 12565 50504 10150 20140 30171 40182 50002 60006 82532 90000=
07761,1998-06-16 03:00:00,14,1017.6,-0.6,94,13,15000,7.408,,,50,,,,,,,,,,,wg-a,,,,AAXX 16034 07761 12565 /0504 10140 20130 30165 40176 56006 60006 81532 90300=
07761,1998-06-16 06:00:00,16,1018.5,0.9,82,13,20000,7.408,,,80,13,18.4,,,,,2,,,,wg-a,,,,AAXX 16064 07761 02/70 /0804 10160 20130 30174 40185 53009 60006 81030 90600 333 10184 20130 60024=
07761,1998-06-16 09:00:00,21,1019.5,1,64,14,11000,14.816,,,240,,,,,,,,,,,wg-a,,,,AAXX 16094 07761 12/61 /2408 10210 20140 30184 40195 51010 60006 90900=
07761,1998-06-16 12:00:00,22,1020,0.5,65,15,500,25.928,,,240,,,,,,,,,,,wg-a,,,,AAXX 16124 07761 12500 /2414 10220 20150 30189 40200 51005 60006 81130 91200=
07761,1998-06-16 15:00:00,21,1019.9,-0.1,64,14,50000,31.484,,,240,,,,,,,,,,,wg-a,,,,AAXX 16154 07761 12684 /2417 10210 20140 30188 40199 57001 60006 81100 91500=
07761,1998-06-16 18:00:00,19,1021.1,1.2,73,14,20000,18.52,,,180,16.2,23,,,,,,,,,wg-a,,,,AAXX 16184 07761 12570 /1810 10190 20140 30200 40211 53012 60006 81400 91800 333 10230 20162=
07761,1998-06-16 21:00:00,16,1022.5,1.4,77,12,15000,7.408,,,50,,,,,,,,,,,wg-a,,,,AAXX 16214 07761 12565 /0504 10160 20120 30214 40225 51014 60006 81500 92100=
07761,1998-06-17 00:00:00,13,1022.1,-0.4,88,11,15000,11.112,,,50,,,,,,,,,,,wg-a,,,,AAXX 17004 07761 12/65 00506 10130 20110 30210 40221 58004 60006 80000 90000=
07761,1998-06-17 03:00:00,10,1021.6,-0.5,87,8,20000,14.816,,,50,,,,,,,,,,,wg-a,,,,AAXX 17034 07761 12/70 00508 10100 20080 30205 40216 55005 60006 80000 90300=
07761,1998-06-17 06:00:00,14,1022.3,0.7,72,9,35000,11.112,,,50,9.7,19,,,,,,,,,wg-a,,,,AAXX 17064 07761 02681 20506 10140 20090 30212 40223 51007 60006 81501 90600 333 10190 20097 60004=
07761,1998-06-17 09:00:00,21,1022.4,0.1,53,11,35000,18.52,,,250,,,,,,,,,,,wg-a,,,,AAXX 17094 07761 12681 42510 10210 20110 30213 40224 52001 60006 81102 90900=
07761,1998-06-17 12:00:00,21,1022.6,0.2,56,12,35000,18.52,,,220,,,,,,,,,,,wg-a,,,,AAXX 17124 07761 12681 /2210 10210 20120 30215 40226 53002 60006 81101 91200=
07761,1998-06-17 15:00:00,21,1022.5,-0.1,49,10,35000,18.52,,,220,,,,,,,,,,,wg-a,,,,AAXX 17154 07761 12681 /2210 10210 20100 30214 40225 58001 60006 81101 91500=
07761,1998-06-17 18:00:00,19,1023,0.5,49,8,35000,11.112,,,210,14.5,21.3,,,,,,,,,wg-a,,,,AAXX 17184 07761 12781 22106 10190 20080 30219 40230 53005 60006 81501 91800 333 10213 20145=
07761,1998-06-17 21:00:00,15,1024.2,1.2,67,9,20000,11.112,,,70,,,,,,,,,,,wg-a,,,,AAXX 17214 07761 12/70 00706 10150 20090 30231 40242 53012 60006 80000 92100=
07761,1998-06-18 00:00:00,13,1024.4,0.2,72,8,10000,11.112,,,50,,,,,,,,,,,wg-a,,,,AAXX 18004 07761 12/60 /0506 10130 20080 30233 40244 51002 60006 90000=
07761,1998-06-18 03:00:00,11,1023.6,-0.8,87,9,15000,11.112,,,50,,,,,,,,,,,wg-a,,,,AAXX 18034 07761 12/65 00506 10110 20090 30225 40236 58008 60006 80000 90300=
07761,1998-06-18 06:00:00,15,1024.3,0.7,77,11,25000,11.112,,,50,10.6,19.4,,,,,,,,,wg-a,,,,AAXX 18064 07761 02/75 10506 10150 20110 30232 40243 51007 60006 80001 90600 333 10194 20106 60004=
07761,1998-06-18 09:00:00,21,1024.4,0.1,64,14,35000,18.52,,,240,,,,,,,,,,,wg-a,,,,AAXX 18094 07761 12681 /2410 10210 20140 30233 40244 53001 60006 81101 90900=
07761,1998-06-18 12:00:00,22,1024.5,0.1,65,15,35000,22.224,,,240,,,,,,,,,,,wg-a,,,,AAXX 18124 07761 12781 /2412 10220 20150 30234 40245 50001 60006 81101 91200=
07761,1998-06-18 15:00:00,21,1023.8,-0.7,78,17,25000,18.52,,,220,,,,,,,,,,,wg-a,,,,AAXX 18154 07761 12775 52210 10210 20170 30227 40238 57007 60006 81102 91500=
07761,1998-06-18 18:00:00,20,1023.2,-0.6,83,17,20000,7.408,,,230,15.2,22.1,,,,,,,,,wg-a,,,,AAXX 18184 07761 12770 /2304 10200 20170 30221 40232 56006 60006 81402 91800 333 10221 20152=
07761,1998-06-18 21:00:00,17,1024.1,0.9,88,15,20000,3.704,,,70,,,,,,,,,,,wg-a,,,,AAXX 18214 07761 12/70 20702 10170 20150 30230 40241 53009 60006 80001 92100=
07761,1998-06-19 00:00:00,13,1023.5,-0.6,88,11,20000,11.112,,,50,,,,,,,,,,,wg-a,,,,AAXX 19004 07761 12/70 00506 10130 20110 30224 40235 58006 60006 80000 90000=
07761,1998-06-19 03:00:00,12,1022.8,-0.7,88,10,20000,7.408,,,60,,,,,,,,,,,wg-a,,,,AAXX 19034 07761 12770 20604 10120 20100 30217 40228 56007 60006 815/1 90300=
07761,1998-06-19 06:00:00,16,1023.6,0.8,77,12,25000,7.408,,,50,10.9,20.5,,,,,,,,,wg-a,,,,AAXX 19064 07761 02/75 30504 10160 20120 30225 40236 51008 60006 80002 90600 333 10205 20109 60004=
07761,1998-06-19 09:00:00,22,1023.4,-0.2,57,13,500,7.408,,,240,,,,,,,,,,,wg-a,,,,AAXX 19094 07761 12700 12404 10220 20130 30223 40234 58002 60006 81100 90900=
07761,1998-06-19 12:00:00,22,1023.3,-0.1,69,16,15000,18.52,,,230,,,,,,,,,,,wg-a,,,,AAXX 19124 07761 12765 /2310 10220 20160 30222 40233 58001 60006 81100 91200=
07761,1998-06-19 15:00:00,22,1022.8,-0.5,65,15,25000,14.816,,,210,,,,,,,,,,,wg-a,,,,AAXX 19154 07761 12775 /2108 10220 20150 30217 40228 58005 60006 81100 91500=
07761,1998-06-19 18:00:00,21,1022.6,-0.2,69,15,20000,11.112,,,210,16,22.6,,,,,,,,,wg-a,,,,AAXX 19184 07761 12/70 12106 10210 20150 30215 40226 55002 60006 80001 91800 333 10226 20160=
07761,1998-06-19 21:00:00,17,1023.7,1.1,72,12,15000,11.112,,,60,,,,,,,,,,,wg-a,,,,AAXX 19214 07761 12/65 00606 10170 20120 30226 40237 53011 60006 80000 92100=
07761,1998-06-20 00:00:00,14,1023.6,-0.1,82,11,25000,7.408,,,50,,,,,,,,,,,wg-a,,,,AAXX 20004 07761 12/75 00504 10140 20110 30225 40236 57001 60006 80000 90000=
07761,1998-06-20 03:00:00,13,1023.5,-0.1,82,10,25000,11.112,,,50,,,,,,,,,,,wg-a,,,,AAXX 20034 07761 12/75 00506 10130 20100 30224 40235 57001 60006 80000 90300=
07761,1998-06-20 06:00:00,18,1024.7,1.2,68,12,500,7.408,,,70,12.4,20.5,,,,,,,,,wg-a,,,,AAXX 20064 07761 02/00 10704 10180 20120 30236 40247 53012 60006 80001 90600 333 10205 20124 60004=
07761,1998-06-20 09:00:00,22,1025.1,0.4,65,15,500,11.112,,,240,,,,,,,,,,,wg-a,,,,AAXX 20094 07761 12/00 22406 10220 20150 30240 40251 51004 60006 80001 90900=
07761,1998-06-20 12:00:00,24,1025.3,0.2,50,13,500,11.112,,,200,,,,,,,,,,,wg-a,,,,AAXX 20124 07761 12700 42006 10240 20130 30242 40253 50002 60006 81101 91200=
07761,1998-06-20 15:00:00,25,1024.7,-0.5,50,14,500,14.816,,,200,,,,,,,,,,,wg-a,,,,AAXX 20154 07761 12700 42008 10250 20140 30237 40247 58005 60006 81101 91500=
07761,1998-06-20 18:00:00,24,1024.7,-0.1,54,14,500,14.816,,,190,17.6,26.1,,,,,,,,,wg-a,,,,AAXX 20184 07761 12700 41908 10240 20140 30236 40247 55001 60006 81101 91800 333 10261 20176=
07761,1998-06-20 21:00:00,19,1025.6,0.9,60,11,20000,11.112,,,60,,,,,,,,,,,wg-a,,,,AAXX 20214 07761 12/70 10606 10190 20110 30245 40256 52009 60006 80001 92100=
07761,1998-06-21 00:00:00,15,1025.9,0.3,72,10,20000,11.112,,,70,,,,,,,,,,,wg-a,,,,AAXX 21004 07761 12/70 00706 10150 20100 30248 40259 53003 60006 80000 90000=
07761,1998-06-21 03:00:00,15,1024.8,-1.1,72,10,20000,7.408,,,50,,,,,,,,,,,wg-a,,,,AAXX 21034 07761 12/70 00504 10150 20100 30237 40248 57011 60006 80000 90300=
07761,1998-06-21 06:00:00,19,1025.3,0.5,60,11,500,0,,,0,13.6,24.1,,,,,,,,,wg-a,,,,AAXX 21064 07761 02/00 10000 10190 20110 30242 40253 53005 60006 80001 90600 333 10241 20136 60004=
07761,1998-06-21 09:00:00,24,1025.4,0.1,57,15,500,11.112,,,260,,,,,,,,,,,wg-a,,,,AAXX 21094 07761 12/00 02606 10240 20150 30243 40254 51001 60006 80000 90900=
07761,1998-06-21 12:00:00,25,1025.1,-0.2,65,18,500,22.224,,,200,,,,,,,,,,,wg-a,,,,AAXX 21124 07761 12/00 02012 10250 20180 30241 40251 58002 60006 80000 91200=
07761,1998-06-21 15:00:00,26,1024.2,-0.9,45,13,500,22.224,,,200,,,,,,,,,,,wg-a,,,,AAXX 21154 07761 12/00 02012 10260 20130 30232 40242 56009 60006 80000 91500=
07761,1998-06-21 18:00:00,25,1024,-0.2,50,14,500,7.408,,,210,18.9,27,,,,,,,,,wg-a,,,,AAXX 21184 07761 12/00 02104 10250 20140 30230 40240 56002 60006 80000 91800 333 10270 20189=
07761,1998-06-21 21:00:00,20,1024.9,0.8,53,10,500,11.112,,,70,,,,,,,,,,,wg-a,,,,AAXX 21214 07761 12/00 00706 10200 20100 30238 40249 53008 60006 80000 92100=
07761,1998-06-22 00:00:00,16,1024.7,-0.2,63,9,500,14.816,,,50,,,,,,,,,,,wg-a,,,,AAXX 22004 07761 12/00 00508 10160 20090 30236 40247 58002 60006 80000 90000=
07761,1998-06-22 03:00:00,14,1023.4,-1.3,67,8,20000,11.112,,,60,,,,,,,,,,,wg-a,,,,AAXX 22034 07761 12/70 00606 10140 20080 30223 40234 56013 60006 80000 90300=
07761,1998-06-22 06:00:00,20,1023.4,0,49,9,500,11.112,,,50,13.5,25,,,,,,,,,wg-a,,,,AAXX 22064 07761 02/00 10506 10200 20090 30223 40234 50000 60006 80002 90600 333 10250 20135 60004=
07761,1998-06-22 09:00:00,24,1023.4,0,57,15,35000,11.112,,,210,,,,,,,,,,,wg-a,,,,AAXX 22094 07761 12/81 12106 10240 20150 30223 40234 50000 60006 81081 90900=
07761,1998-06-22 12:00:00,25,1022.6,-0.7,57,16,45000,18.52,,,200,,,,,,,,,,,wg-a,,,,AAXX 22124 07761 12/83 12010 10250 20160 30216 40226 58007 60006 80001 91200=
07761,1998-06-22 15:00:00,25,1021.9,-0.7,54,15,40000,11.112,,,210,,,,,,,,,,,wg-a,,,,AAXX 22154 07761 12/82 32106 10250 20150 30209 40219 58007 60006 80001 91500=
07761,1998-06-22 18:00:00,24,1021.6,-0.3,54,14,500,7.408,,,190,19.6,25.9,,,,,,,,,wg-a,,,,AAXX 22184 07761 12/00 21904 10240 20140 30206 40216 56003 60006 81081 91800 333 10259 20196=
07761,1998-06-22 21:00:00,19,1021.1,-0.6,56,10,20000,7.408,,,40,,,,,,,,,,,wg-a,,,,AAXX 22214 07761 12/70 20404 10190 20100 30200 40211 56006 60006 81081 92100=
07761,1998-06-23 00:00:00,17,1020.7,-0.4,63,10,20000,7.408,,,60,,,,,,,,,,,wg-a,,,,AAXX 23004 07761 12/70 40604 10170 20100 30196 40207 57004 60006 82031 90000=
07761,1998-06-23 03:00:00,17,1019.2,-1.5,59,9,20000,11.112,,,60,,,,,,,,,,,wg-a,,,,AAXX 23034 07761 12770 /0606 10170 20090 30181 40192 57015 60006 82531 90300=
07761,1998-06-23 06:00:00,20,1018.6,-0.6,53,10,500,11.112,,,50,16.3,23.9,,,,,,,,,wg-a,,,,AAXX 23064 07761 02600 50506 10200 20100 30175 40186 58006 60006 81833 90600 333 10239 20163 60004=
07761,1998-06-23 09:00:00,24,1018.4,-0.1,74,19,15000,18.52,,,190,,,,,,,,,,,wg-a,,,,AAXX 23094 07761 12865 71910 10240 20190 30174 40184 55001 60006 82082 90900=
07761,1998-06-23 12:00:00,25,1018.2,-0.2,74,20,9000,22.224,,,220,,,,,,,,,,,wg-a,,,,AAXX 23124 07761 12659 52212 10250 20200 30172 40182 55002 60006 81102 91200=
07761,1998-06-23 15:00:00,24,1016.7,-1.5,78,20,9000,11.112,,,220,,,,,,,,,,,wg-a,,,,AAXX 23154 07761 12/59 /2206 10240 20200 30157 40167 57015 60006 80002 91500=
07761,1998-06-23 18:00:00,22,1016.6,-0.1,83,19,7000,7.408,,,230,19.9,25.4,,,,,,,,,wg-a,,,,AAXX 23184 07761 12/57 /2304 10220 20190 30156 40166 56001 60006 80002 91800 333 10254 20199=
07761,1998-06-23 21:00:00,20,1017,0.3,88,18,10000,3.704,,,70,,,,,,,,,,,wg-a,,,,AAXX 23214 07761 12/60 00702 10200 20180 30159 40170 51003 60006 80000 92100=
07761,1998-06-24 00:00:00,18,1015.9,-1.1,88,16,6000,11.112,,,50,,,,,,,,,,,wg-a,,,,AAXX 24004 07761 12/56 00506 10180 20160 30148 40159 56011 60006 80000 90000=
07761,1998-06-24 03:00:00,17,1014.2,-1.7,88,15,15000,11.112,,,50,,,,,,,,,,,wg-a,,,,AAXX 24034 07761 12/65 00506 10170 20150 30131 40142 56017 60006 80000 90300=
07761,1998-06-24 06:00:00,20,1014.6,0.4,83,17,8000,7.408,,,40,16.4,22.2,,,,,,,,,wg-a,,,,AAXX 24064 07761 02358 60404 10200 20170 30135 40146 50004 60006 86500 90600 333 10222 20164 60004=
07761,1998-06-24 09:00:00,24,1014.6,0.1,74,19,10000,18.52,,,240,,,,,,,,,,,wg-a,,,,AAXX 24094 07761 12/60 12410 10240 20190 30136 40146 53001 60006 80001 90900=
07761,1998-06-24 12:00:00,25,1013.8,-0.8,69,19,10000,14.816,,,220,,,,,,,,,,,wg-a,,,,AAXX 24124 07761 12760 22208 10250 20190 30128 40138 58008 60006 81132 91200=
07761,1998-06-24 15:00:00,25,1012.7,-1.1,74,20,9000,18.52,,,210,,,,,,,,,,,wg-a,,,,AAXX 24154 07761 12759 /2110 10250 20200 30117 40127 56011 60006 81132 91500=
07761,1998-06-24 18:00:00,23,1012.8,0.1,83,20,12000,14.816,,,220,19.8,25.1,,,,,,,,,wg-a,,,,AAXX 24184 07761 12/62 52208 10230 20200 30118 40128 53001 60006 80001 91800 333 10251 20198=
07761,1998-06-24 21:00:00,20,1013.3,0.4,83,17,12000,7.408,,,70,,,,,,,,,,,wg-a,,,,AAXX 24214 07761 12/62 30704 10200 20170 30122 40133 52004 60006 80001 92100=
07761,1998-06-25 00:00:00,17,1013.7,0.4,82,14,12000,11.112,,,60,,,,,,,,,,,wg-a,,,,AAXX 25004 07761 12/62 30606 10170 20140 30126 40137 51004 60006 80001 90000=
07761,1998-06-25 03:00:00,15,1013.2,-0.5,88,13,12000,11.112,,,50,,,,,,,,,,,wg-a,,,,AAXX 25034 07761 12362 /0506 10150 20130 30121 40132 57005 60006 81601 90300=
07761,1998-06-25 06:00:00,18,1013.7,0.5,77,14,15000,7.408,,,50,14.2,22.8,,,,,,,,,wg-a,,,,AAXX 25064 07761 02/65 10504 10180 20140 30126 40137 53005 60006 80001 90600 333 10228 20142 60004=
07761,1998-06-25 09:00:00,23,1013.9,0.3,73,18,12000,14.816,,,220,,,,,,,,,,,wg-a,,,,AAXX 25094 07761 12/62 12208 10230 20180 30129 40139 50003 60006 80001 90900=
07761,1998-06-25 12:00:00,24,1013.8,-0.1,69,18,12000,18.52,,,230,,,,,,,,,,,wg-a,,,,AAXX 25124 07761 12662 /2310 10240 20180 30128 40138 58001 60006 81101 91200=
07761,1998-06-25 15:00:00,25,1013.3,-0.5,65,18,12000,14.816,,,220,,,,,,,,,,,wg-a,,,,AAXX 25154 07761 12562 /2208 10250 20180 30123 40133 58005 60006 81100 91500=
07761,1998-06-25 18:00:00,23,1013.7,0.4,78,19,12000,14.816,,,220,18.2,24.8,,,,,,,,,wg-a,,,,AAXX 25184 07761 12/62 /2208 10230 20190 30127 40137 53004 60006 80000 91800 333 10248 20182=
07761,1998-06-25 21:00:00,20,1014.8,1,83,17,9000,3.704,,,70,,,,,,,,,,,wg-a,,,,AAXX 25214 07761 12/59 00702 10200 20170 30137 40148 53010 60006 80000 92100=
07761,1998-06-26 00:00:00,20,1015.1,0.3,83,17,9000,7.408,,,50,,,,,,,,,,,wg-a,,,,AAXX 26004 07761 12/59 00504 10200 20170 30140 40151 50003 60006 80000 90000=
07761,1998-06-26 03:00:00,17,1014.9,-0.2,88,15,9000,11.112,,,60,,,,,,,,,,,wg-a,,,,AAXX 26034 07761 12/59 00606 10170 20150 30138 40149 56002 60006 80000 90300=
07761,1998-06-26 06:00:00,19,1015.7,0.8,83,16,7000,11.112,,,50,16.2,22.7,,,,,,,,,wg-a,,,,AAXX 26064 07761 02/57 00506 10190 20160 30146 40157 51008 60006 80000 90600 333 10227 20162 60004=
07761,1998-06-26 09:00:00,24,1016.3,0.7,74,19,8000,14.816,,,240,,,,,,,,,,,wg-a,,,,AAXX 26094 07761 12/58 02408 10240 20190 30153 40163 51007 60006 80000 90900=
07761,1998-06-26 12:00:00,25,1015.8,-0.5,69,19,8000,14.816,,,220,,,,,,,,,,,wg-a,,,,AAXX 26124 07761 12658 /2208 10250 20190 30148 40158 58005 60006 81200 91200=
07761,1998-06-26 15:00:00,26,1015.5,-0.3,65,19,15000,18.52,,,200,,,,,,,,,,,wg-a,,,,AAXX 26154 07761 12665 /2010 10260 20190 30145 40155 56003 60006 81200 91500=
07761,1998-06-26 18:00:00,25,1015.1,-0.4,74,20,15000,3.704,,,270,19.4,26.4,,,,,,,,,wg-a,,,,AAXX 26184 07761 12/65 22702 10250 20200 30141 40151 57004 60006 80001 91800 333 10264 20194=
07761,1998-06-26 21:00:00,21,1015.8,0.6,69,15,15000,7.408,,,50,,,,,,,,,,,wg-a,,,,AAXX 26214 07761 12/65 20504 10210 20150 30147 40158 52006 60006 80001 92100=
07761,1998-06-27 00:00:00,19,1015.6,-0.2,78,15,15000,11.112,,,50,,,,,,,,,,,wg-a,,,,AAXX 27004 07761 12/65 20506 10190 20150 30145 40156 57002 60006 80001 90000=
07761,1998-06-27 03:00:00,17,1016.1,0.5,82,14,12000,11.112,,,50,,,,,,,,,,,wg-a,,,,AAXX 27034 07761 12/62 20506 10170 20140 30150 40161 51005 60006 80001 90300=
07761,1998-06-27 06:00:00,21,1015.8,-0.3,69,15,15000,7.408,,,60,16.4,24.9,,,,,,,,,wg-a,,,,AAXX 27064 07761 02/65 10604 10210 20150 30147 40158 55003 60006 80001 90600 333 10249 20164 60004=
07761,1998-06-27 09:00:00,25,1015.6,-0.1,61,17,15000,14.816,,,230,,,,,,,,,,,wg-a,,,,AAXX 27094 07761 12/65 22308 10250 20170 30146 40156 55001 60006 80001 90900=
07761,1998-06-27 12:00:00,26,1015.3,-0.3,70,20,15000,14.816,,,220,,,,,,,,,,,wg-a,,,,AAXX 27124 07761 12765 12208 10260 20200 30143 40153 58003 60006 81100 91200=
07761,1998-06-27 15:00:00,26,1015.5,0.2,74,21,15000,14.816,,,200,,,,,,,,,,,wg-a,,,,AAXX 27154 07761 12/65 /2008 10260 20210 30145 40155 50002 60006 80000 91500=
07761,1998-06-27 18:00:00,26,1014.8,-0.7,70,20,15000,14.816,,,200,21.2,27.8,,,,,,,,,wg-a,,,,AAXX 27184 07761 12/65 02008 10260 20200 30138 40148 55007 60006 80000 91800 333 10278 20212=
07761,1998-06-27 21:00:00,21,1015.9,1,64,14,15000,11.112,,,50,,,,,,,,,,,wg-a,,,,AAXX 27214 07761 12/65 00506 10210 20140 30148 40159 51010 60006 80000 92100=
07761,1998-06-28 00:00:00,18,1015.3,-0.6,68,12,15000,7.408,,,30,,,,,,,,,,,wg-a,,,,AAXX 28004 07761 12/65 00304 10180 20120 30142 40153 56006 60006 80000 90000=
07761,1998-06-28 03:00:00,16,1015.4,0.1,72,11,15000,11.112,,,50,,,,,,,,,,,wg-a,,,,AAXX 28034 07761 12/65 00506 10160 20110 30143 40154 53001 60006 80000 90300=
07761,1998-06-28 06:00:00,21,1016.3,0.9,56,12,15000,11.112,,,50,16,25.6,,,,,,,,,wg-a,,,,AAXX 28064 07761 02/65 00506 10210 20120 30152 40163 51009 60006 80000 90600 333 10256 20160 60004=
07761,1998-06-28 09:00:00,25,1016.2,0,57,16,20000,11.112,,,240,,,,,,,,,,,wg-a,,,,AAXX 28094 07761 12/70 02406 10250 20160 30152 40162 50000 60006 80000 90900=
07761,1998-06-28 12:00:00,26,1016.1,-0.1,74,21,10000,18.52,,,210,,,,,,,,,,,wg-a,,,,AAXX 28124 07761 12/60 /2110 10260 20210 30151 40161 58001 60006 91200=
07761,1998-06-28 18:00:00,26,1015.6,-0.1,70,20,20000,14.816,,,210,20.8,28.1,,,,,,,,,wg-a,,,,AAXX 28184 07761 12/70 02108 10260 20200 30146 40156 55001 60006 80000 91800 333 10281 20208=
07761,1998-06-28 21:00:00,22,1016.3,0.7,65,15,15000,7.408,,,50,,,,,,,,,,,wg-a,,,,AAXX 28214 07761 12/65 00504 10220 20150 30153 40163 51007 60006 80000 92100=
07761,1998-06-29 00:00:00,18,1016.2,-0.2,68,12,15000,11.112,,,50,,,,,,,,,,,wg-a,,,,AAXX 29004 07761 12/65 00506 10180 20120 30151 40162 57002 60006 80000 90000=
07761,1998-06-29 06:00:00,20,1016.9,0.8,60,12,15000,7.408,,,60,16.1,26.1,,,,,,,,,wg-a,,,,AAXX 29064 07761 02/65 00604 10200 20120 30158 40169 51008 60006 80000 90600 333 10261 20161 60004=
07761,1998-06-29 09:00:00,27,1016.4,-0.4,51,16,18000,7.408,,,240,,,,,,,,,,,wg-a,,,,AAXX 29094 07761 12/68 02404 10270 20160 30154 40164 57004 60006 80000 90900=
07761,1998-06-29 12:00:00,27,1015.9,-0.5,70,21,15000,14.816,,,220,,,,,,,,,,,wg-a,,,,AAXX 29124 07761 12/65 02208 10270 20210 30149 40159 57005 60006 80000 91200=
07761,1998-06-29 15:00:00,27,1015.6,-0.3,74,22,15000,22.224,,,200,,,,,,,,,,,wg-a,,,,AAXX 29154 07761 12/65 12012 10270 20220 30146 40156 58003 60006 81081 91500=
07761,1998-06-29 18:00:00,26,1015.9,0.3,70,20,15000,7.408,,,220,20.4,28.1,,,,,,,,,wg-a,,,,AAXX 29184 07761 12/65 02204 10260 20200 30149 40159 53003 60006 80000 91800 333 10281 20204=
07761,1998-06-29 21:00:00,23,1016.2,0.3,73,18,15000,11.112,,,40,,,,,,,,,,,wg-a,,,,AAXX 29214 07761 12/65 00406 10230 20180 30152 40162 52003 60006 80000 92100=
07761,1998-06-30 00:00:00,22,1014.4,-1.8,69,16,15000,11.112,,,60,,,,,,,,,,,wg-a,,,,AAXX 30004 07761 12/65 30606 10220 20160 30134 40144 58018 60006 80001 90000=
07761,1998-06-30 03:00:00,19,1014.5,-0,78,15,15000,7.408,,,60,,,,,,,,,,,wg-a,,,,AAXX 30034 07761 12/65 30604 10190 20150 30134 40145 55000 60006 81031 90300=
07761,1998-06-30 06:00:00,23,1015.1,0.7,65,16,10000,14.816,,,60,18.6,26.2,,,,,,,,,wg-a,,,,AAXX 30064 07761 02/60 40608 10230 20160 30141 40151 50007 60006 81031 90600 333 10262 20186 60004=
07761,1998-06-30 09:00:00,27,1013.9,-1.2,66,20,15000,14.816,,,210,,,,,,,,,,,wg-a,,,,AAXX 30094 07761 12/65 62108 10270 20200 30129 40139 56012 60006 82031 90900=
07761,1998-06-30 12:00:00,28,1013.1,-0.8,70,22,12000,22.224,,,230,,,,,,,,,,,wg-a,,,,AAXX 30124 07761 12/62 22312 10280 20220 30121 40131 56008 60006 81082 91200=
07761,1998-06-30 15:00:00,28,1013.3,0.2,58,19,15000,25.928,,,190,,,,,,,,,,,wg-a,,,,AAXX 30154 07761 12/65 21914 10280 20190 30123 40133 53002 60006 81082 91500=
07761,1998-06-30 18:00:00,26,1012.8,-0.5,61,18,15000,7.408,,,200,22.7,29.2,,,,,,,,,wg-a,,,,AAXX 30184 07761 12/65 12004 10260 20180 30118 40128 56005 60006 80002 91800 333 10292 20227=
07761,1998-06-30 21:00:00,22,1012.5,-0.3,69,16,11000,7.408,,,100,,,,,,,,,,,wg-a,,,,AAXX 30214 07761 12/61 /1004 10220 20160 30115 40125 57003 60006 92100=
07761,1998-07-01 00:00:00,20,1011.6,-1,73,15,15000,11.112,,,60,,,,,,,,,,,wg-a,,,,AAXX 01004 07761 12/65 10606 10200 20150 30105 40116 58010 60006 81030 90000=
07761,1998-07-01 03:00:00,20,1011.2,-0.4,64,13,15000,14.816,,,50,,,,,,,,,,,wg-a,,,,AAXX 01034 07761 12/65 10508 10200 20130 30101 40112 55004 60006 81030 90300=
07761,1998-07-01 06:00:00,25,1010.5,-0.6,44,12,20000,7.408,,,100,19.6,25.9,,,,,,,,,wg-a,,,,AAXX 01064 07761 02/70 51004 10250 20120 30095 40105 58006 60006 84032 90600 333 10259 20196 60004=
07761,1998-07-01 09:00:00,37,1008.7,-1.8,21,11,20000,7.408,,,40,,,,,,,,,,,wg-a,,,,AAXX 01094 07761 12/70 /0404 10370 20110 30077 40087 58018 60006 83084 90900=
07761,1998-07-01 12:00:00,35,1007.6,-1.1,25,12,20000,18.52,,,250,,,,,,,,,,,wg-a,,,,AAXX 01124 07761 12/70 82510 10350 20120 30066 40076 56011 60006 8707/ 91200=
07761,1998-07-01 15:00:00,31,1008.5,0.9,46,18,20000,7.408,,,270,,,,,,,,,,,wg-a,,,,AAXX 01154 07761 12/70 82704 10310 20180 30075 40085 50009 60006 8705/ 91500=
07761,1998-07-01 18:00:00,25,1009.6,1.1,83,22,8000,3.704,,,250,24.9,37.7,,,,,,,,,wg-a,,,,AAXX 01184 07761 12458 72502 10250 20220 30086 40096 50011 60006 85552 91800 333 10377 20249=
07761,1998-07-01 21:00:00,24,1010.6,1,89,22,8000,7.408,,,80,,,,,,,,,,,wg-a,,,,AAXX 01214 07761 12458 60804 10240 20220 30096 40106 50010 60006 85582 92100=
07761,1998-07-02 00:00:00,24,1011.6,1,78,20,10000,3.704,,,100,,,,,,,,,,,wg-a,,,,AAXX 02004 07761 12460 41002 10240 20200 30106 40116 50010 60006 8358/ 90000=
07761,1998-07-02 03:00:00,22,1011.5,-0.1,88,20,10000,3.704,,,110,,,,,,,,,,,wg-a,,,,AAXX 02034 07761 12460 61102 10220 20200 30105 40115 55001 60006 86500 90300=
07761,1998-07-02 06:00:00,24,1012,0.5,78,20,9000,3.704,,,50,21.6,25.4,,,,,,,,,wg-a,,,,AAXX 02064 07761 02459 /0502 10240 20200 30110 40120 53005 60006 81200 90600 333 10254 20216 60004=
07761,1998-07-02 09:00:00,26,1012.2,0.2,74,21,9000,22.224,,,230,,,,,,,,,,,wg-a,,,,AAXX 02094 07761 12559 /2312 10260 20210 30112 40122 51002 60006 81101 90900=
07761,1998-07-02 12:00:00,27,1012.6,0.4,74,22,9000,18.52,,,230,,,,,,,,,,,wg-a,,,,AAXX 02124 07761 12659 /2310 10270 20220 30116 40126 50004 60006 81100 91200=
07761,1998-07-02 18:00:00,25,1011.4,-0.6,83,22,6000,3.704,,,240,24.1,26.8,,,,,,,,,wg-a,,,,AAXX 02184 07761 12/56 /2402 10250 20220 30104 40114 58006 60006 91800 333 10268 20241=
07761,1998-07-03 00:00:00,23,1012.8,1.3,83,20,9000,7.408,,,60,,,,,,,,,,,wg-a,,,,AAXX 03004 07761 12/59 00604 10230 20200 30118 40128 50013 60006 80000 90000=
07761,1998-07-03 03:00:00,21,1012.4,-0.4,78,17,10000,11.112,,,60,,,,,,,,,,,wg-a,,,,AAXX 03034 07761 12460 50606 10210 20170 30114 40124 58004 60006 83501 90300=
07761,1998-07-03 06:00:00,22,1013.3,0.9,73,17,15000,7.408,,,70,19.3,24.9,,,,,,,,,wg-a,,,,AAXX 03064 07761 02565 /0704 10220 20170 30123 40133 51009 60006 81100 90600 333 10249 20193 60004=
07761,1998-07-03 09:00:00,26,1014.2,0.9,70,20,15000,18.52,,,230,,,,,,,,,,,wg-a,,,,AAXX 03094 07761 12665 /2310 10260 20200 30132 40142 53009 60006 81100 90900=
07761,1998-07-03 12:00:00,27,1014.9,0.7,70,21,10000,22.224,,,220,,,,,,,,,,,wg-a,,,,AAXX 03124 07761 12660 /2212 10270 20210 30139 40149 51007 60006 81100 91200=
07761,1998-07-03 15:00:00,26,1015.1,0.2,79,22,8000,18.52,,,210,,,,,,,,,,,wg-a,,,,AAXX 03154 07761 12558 42110 10260 20220 30141 40151 51002 60006 84100 91500=
07761,1998-07-03 18:00:00,24,1015.1,-0,83,21,6000,14.816,,,210,22.4,27,,,,,,,,,wg-a,,,,AAXX 03184 07761 12456 32108 10240 20210 30141 40151 55000 60006 83200 91800 333 10270 20224=
07761,1998-07-04 00:00:00,20,1016.8,0.1,83,17,9000,11.112,,,50,,,,,,,,,,,wg-a,,,,AAXX 04004 07761 12659 10506 10200 20170 30157 40168 53001 60006 81500 90000=
07761,1998-07-04 03:00:00,18,1016,-0.8,83,15,10000,14.816,,,40,,,,,,,,,,,wg-a,,,,AAXX 04034 07761 12/60 00408 10180 20150 30149 40160 58008 60006 80000 90300=
07761,1998-07-04 06:00:00,20,1016.9,0.9,73,15,18000,11.112,,,40,16.6,24.3,,,,,,,,,wg-a,,,,AAXX 04064 07761 02668 /0406 10200 20150 30158 40169 53009 60006 81500 90600 333 10243 20166 60004=
07761,1998-07-04 09:00:00,25,1017.4,0.6,65,18,25000,25.928,,,240,,,,,,,,,,,wg-a,,,,AAXX 04094 07761 12675 22414 10250 20180 30164 40174 52006 60006 82100 90900=
07761,1998-07-04 12:00:00,25,1017.8,0.4,61,17,20000,25.928,,,240,,,,,,,,,,,wg-a,,,,AAXX 04124 07761 12670 22414 10250 20170 30168 40178 51004 60006 82100 91200=
07761,1998-07-04 15:00:00,24,1017.2,-0.6,65,17,20000,18.52,,,220,,,,,,,,,,,wg-a,,,,AAXX 04154 07761 12670 22210 10240 20170 30162 40172 58006 60006 82100 91500=
07761,1998-07-04 18:00:00,23,1016.7,-0.5,69,17,20000,11.112,,,210,20.1,25.7,,,,,,,,,wg-a,,,,AAXX 04184 07761 12670 /2106 10230 20170 30157 40167 56005 60006 81100 91800 333 10257 20201=
07761,1998-07-04 21:00:00,20,1017.3,0.5,78,16,15000,11.112,,,60,,,,,,,,,,,wg-a,,,,AAXX 04214 07761 12/65 /0606 10200 20160 30162 40173 52005 60006 80000 92100=
07761,1998-07-05 00:00:00,17,1016.9,-0.4,88,15,15000,11.112,,,50,,,,,,,,,,,wg-a,,,,AAXX 05004 07761 12/65 00506 10170 20150 30158 40169 58004 60006 80000 90000=
07761,1998-07-05 03:00:00,16,1015.5,-1.4,88,14,15000,18.52,,,60,,,,,,,,,,,wg-a,,,,AAXX 05034 07761 12/65 00610 10160 20140 30144 40155 56014 60006 80000 90300=
07761,1998-07-05 06:00:00,19,1014.6,-0.9,73,14,20000,11.112,,,60,15.2,23.2,,,,,,,,,wg-a,,,,AAXX 05064 07761 02570 /0606 10190 20140 30135 40146 56009 60006 81500 90600 333 10232 20152 60004=
07761,1998-07-05 09:00:00,24,1014.8,0.3,61,16,20000,11.112,,,230,,,,,,,,,,,wg-a,,,,AAXX 05094 07761 12670 /2306 10240 20160 30138 40148 51003 60006 81100 90900=
07761,1998-07-05 12:00:00,25,1014.8,-0,65,18,20000,18.52,,,220,,,,,,,,,,,wg-a,,,,AAXX 05124 07761 12670 /2210 10250 20180 30138 40148 55000 60006 81200 91200=
07761,1998-07-05 15:00:00,25,1014.4,-0.4,65,18,11000,18.52,,,220,,,,,,,,,,,wg-a,,,,AAXX 05154 07761 12/61 /2210 10250 20180 30134 40144 58004 60006 91500=
07761,1998-07-05 18:00:00,23,1014.5,0.1,65,16,20000,11.112,,,220,19.2,25.4,,,,,,,,,wg-a,,,,AAXX 05184 07761 12770 /2206 10230 20160 30135 40145 53001 60006 81200 91800 333 10254 20192=
07761,1998-07-05 21:00:00,20,1015.4,0.8,73,15,18000,7.408,,,60,,,,,,,,,,,wg-a,,,,AAXX 05214 07761 12/68 00604 10200 20150 30143 40154 53008 60006 80000 92100=
07761,1998-07-06 00:00:00,17,1015.2,-0.2,88,15,15000,7.408,,,50,,,,,,,,,,,wg-a,,,,AAXX 06004 07761 12/65 00504 10170 20150 30141 40152 58002 60006 80000 90000=
07761,1998-07-06 03:00:00,16,1014.4,-0.8,88,14,15000,11.112,,,50,,,,,,,,,,,wg-a,,,,AAXX 06034 07761 12/65 00506 10160 20140 30133 40144 56008 60006 80000 90300=
07761,1998-07-06 06:00:00,20,1013.6,-0.8,78,16,20000,7.408,,,60,14.8,23.1,,,,,,,,,wg-a,,,,AAXX 06064 07761 02570 10604 10200 20160 30125 40136 56008 60006 81500 90600 333 10231 20148 60004=
07761,1998-07-06 09:00:00,25,1014,0.5,69,19,20000,25.928,,,240,,,,,,,,,,,wg-a,,,,AAXX 06094 07761 12570 /2414 10250 20190 30130 40140 51005 60006 81100 90900=
07761,1998-07-06 12:00:00,25,1014.1,0.1,65,18,15000,25.928,,,240,,,,,,,,,,,wg-a,,,,AAXX 06124 07761 12665 /2414 10250 20180 30131 40141 50001 60006 81100 91200=
07761,1998-07-06 15:00:00,25,1014,-0.1,65,18,15000,22.224,,,230,,,,,,,,,,,wg-a,,,,AAXX 06154 07761 12665 /2312 10250 20180 30130 40140 58001 60006 81100 91500=
07761,1998-07-06 18:00:00,24,1013,-1,69,18,20000,11.112,,,210,19.6,25.9,,,,,,,,,wg-a,,,,AAXX 06184 07761 12/70 02106 10240 20180 30120 40130 56010 60006 80000 91800 333 10259 20196=
07761,1998-07-06 21:00:00,20,1013.2,0.1,83,17,20000,11.112,,,50,,,,,,,,,,,wg-a,,,,AAXX 06214 07761 12/70 00506 10200 20170 30121 40132 50001 60006 80000 92100=
07761,1998-07-07 00:00:00,17,1012.4,-0.8,77,13,20000,11.112,,,60,,,,,,,,,,,wg-a,,,,AAXX 07004 07761 12/70 00606 10170 20130 30113 40124 56008 60006 80000 90000=
07761,1998-07-07 03:00:00,16,1009.9,-2.5,77,12,20000,11.112,,,40,,,,,,,,,,,wg-a,,,,AAXX 07034 07761 12570 30406 10160 20120 30088 40099 58025 60006 83500 90300=
07761,1998-07-07 06:00:00,22,1010.4,0.6,53,12,25000,11.112,,,60,15.4,23.7,,,,,,,,14,wg-a,,,,AAXX 07064 07761 02875 50606 10220 20120 30094 40104 50006 60006 71411 81589 90600 333 10237 20154 60004=
07761,1998-07-07 09:00:00,27,1007.2,-3.2,54,17,25000,11.112,,,220,,,,,,,,,,,wg-a,,,,AAXX 07094 07761 12/75 22206 10270 20170 30062 40072 57032 60006 82080 90900=
07761,1998-07-07 12:00:00,27,1005.2,-2,70,21,500,14.816,,,220,,,,,,,,,,,wg-a,,,,AAXX 07124 07761 12/00 72208 10270 20210 30042 40052 58020 60006 86072 91200=
07761,1998-07-07 15:00:00,29,1003.5,-1.7,55,19,20000,25.928,,,250,,,,,,,,,,,wg-a,,,,AAXX 07154 07761 12770 12514 10290 20190 30025 40035 56017 60006 81130 91500=
07761,1998-07-07 18:00:00,25,1002.9,-0.6,79,21,15000,22.224,,,220,21.6,30.4,,,,,,,,,wg-a,,,,AAXX 07184 07761 12565 /2212 10250 20210 30019 40029 58006 60006 86800 91800 333 10304 20216=
07761,1998-07-07 21:00:00,24,1004.6,1.7,61,16,15000,22.224,,,310,,,,,,,,,,,wg-a,,,,AAXX 07214 07761 12665 33112 10240 20160 30036 40046 53017 60006 83500 92100=
07761,1998-07-08 00:00:00,22,1005.1,0.5,83,19,15000,18.52,,,250,,,,,,,,,,,wg-a,,,,AAXX 08004 07761 12565 32510 10220 20190 30041 40051 50005 60006 82870 90000=
07761,1998-07-08 03:00:00,20,1004.8,-0.3,73,15,15000,18.52,,,300,,,,,,,,,,,wg-a,,,,AAXX 08034 07761 12565 33010 10200 20150 30038 40048 57003 60006 83800 90300=
07761,1998-07-08 06:00:00,22,1005.5,0.7,60,14,15000,11.112,,,300,19,25,,,,,,,,,wg-a,,,,AAXX 08064 07761 02565 43006 10220 20140 30045 40055 53007 60006 84800 90600 333 10250 20190 60004=
07761,1998-07-08 09:00:00,24,1006,0.5,57,15,15000,22.224,,,250,,,,,,,,,,,wg-a,,,,AAXX 08094 07761 12665 22512 10240 20150 30050 40060 53005 60006 82100 90900=
07761,1998-07-08 12:00:00,24,1006.2,0.2,54,14,15000,18.52,,,220,,,,,,,,,,,wg-a,,,,AAXX 08124 07761 12665 22210 10240 20140 30052 40062 53002 60006 82800 91200=
07761,1998-07-08 15:00:00,24,1006.5,0.3,47,12,15000,22.224,,,230,,,,,,,,,,,wg-a,,,,AAXX 08154 07761 12665 /2312 10240 20120 30055 40065 53003 60006 81800 91500=
07761,1998-07-08 18:00:00,25,1006.8,0.3,47,13,20000,11.112,,,180,21.8,25.3,,,,,,,,,wg-a,,,,AAXX 08184 07761 12670 /1806 10250 20130 30058 40068 53003 60006 81200 91800 333 10253 20218=
07761,1998-07-08 21:00:00,20,1008.4,1.6,60,12,15000,11.112,,,60,,,,,,,,,,,wg-a,,,,AAXX 08214 07761 12/65 00606 10200 20120 30074 40084 51016 60006 80000 92100=
07761,1998-07-09 00:00:00,16,1009.3,0.8,77,12,18000,11.112,,,50,,,,,,,,,,,wg-a,,,,AAXX 09004 07761 12/68 00506 10160 20120 30082 40093 52008 60006 80000 90000=
07761,1998-07-09 03:00:00,16,1009.5,0.2,72,11,18000,14.816,,,60,,,,,,,,,,,wg-a,,,,AAXX 09034 07761 12/68 00608 10160 20110 30084 40095 53002 60006 80000 90300=
07761,1998-07-09 06:00:00,19,1010.9,1.4,64,12,18000,11.112,,,50,15.2,24.6,,,,,,,,,wg-a,,,,AAXX 09064 07761 02/68 00506 10190 20120 30098 40109 53014 60006 80000 90600 333 10246 20152 60004=
07761,1998-07-09 09:00:00,25,1012.2,1.4,57,16,25000,11.112,,,240,,,,,,,,,,,wg-a,,,,AAXX 09094 07761 12775 /2406 10250 20160 30112 40122 51014 60006 81100 90900=
07761,1998-07-09 12:00:00,25,1013.1,0.9,65,18,11000,25.928,,,230,,,,,,,,,,,wg-a,,,,AAXX 09124 07761 12/61 /2314 10250 20180 30121 40131 51009 60006 91200=
07761,1998-07-09 15:00:00,25,1013.3,0.2,69,19,15000,22.224,,,220,,,,,,,,,,,wg-a,,,,AAXX 09154 07761 12665 /2212 10250 20190 30123 40133 52002 60006 81100 91500=
07761,1998-07-09 18:00:00,23,1013.4,0.1,78,19,15000,18.52,,,230,19.2,25.3,,,,,,,,,wg-a,,,,AAXX 09184 07761 12/65 02310 10230 20190 30124 40134 53001 60006 80000 91800 333 10253 20192=
07761,1998-07-09 21:00:00,20,1015.3,1.8,78,16,15000,11.112,,,70,,,,,,,,,,,wg-a,,,,AAXX 09214 07761 12/65 00706 10200 20160 30142 40153 53018 60006 80000 92100=
07761,1998-07-10 00:00:00,17,1015.4,0.1,77,13,15000,11.112,,,70,,,,,,,,,,,wg-a,,,,AAXX 10004 07761 12465 /0706 10170 20130 30143 40154 50001 60006 81500 90000=
07761,1998-07-10 03:00:00,15,1014.6,-0.8,82,12,15000,11.112,,,50,,,,,,,,,,,wg-a,,,,AAXX 10034 07761 12765 20506 10150 20120 30135 40146 56008 60006 81501 90300=
07761,1998-07-10 06:00:00,18,1014.6,0,73,13,20000,11.112,,,60,14.5,23.4,,,,,,,,,wg-a,,,,AAXX 10064 07761 02570 /0606 10180 20130 30135 40146 50000 60006 81500 90600 333 10234 20145 60004=
07761,1998-07-10 12:00:00,24,1014.9,0.6,69,18,15000,25.928,,,240,,,,,,,,,,,wg-a,,,,AAXX 10124 07761 12565 /2414 10240 20180 30139 40149 51006 60006 81100 91200=
07761,1998-07-10 15:00:00,24,1014.9,-0,69,18,15000,18.52,,,230,,,,,,,,,,,wg-a,,,,AAXX 10154 07761 12565 /2310 10240 20180 30139 40149 54000 60006 81100 91500=
07761,1998-07-10 18:00:00,22,1015.8,0.8,73,17,15000,14.816,,,230,18.3,25.2,,,,,,,,,wg-a,,,,AAXX 10184 07761 12465 42308 10220 20170 30147 40158 53008 60006 84500 91800 333 10252 20183=
07761,1998-07-10 21:00:00,20,1016.6,0.8,78,16,10000,7.408,,,60,,,,,,,,,,,wg-a,,,,AAXX 10214 07761 12460 20604 10200 20160 30155 40166 52008 60006 82400 92100=
07761,1998-07-11 00:00:00,17,1016.5,-0.1,88,15,10000,11.112,,,70,,,,,,,,,,,wg-a,,,,AAXX 11004 07761 12460 /0706 10170 20150 30154 40165 57001 60006 81500 90000=
07761,1998-07-11 03:00:00,16,1015.7,-0.8,88,14,10000,11.112,,,60,,,,,,,,,,,wg-a,,,,AAXX 11034 07761 12/60 /0606 10160 20140 30146 40157 58008 60006 80000 90300=
07761,1998-07-11 06:00:00,18,1016.4,0.7,83,15,13000,11.112,,,50,15.6,21.5,,,,,,,,,wg-a,,,,AAXX 11064 07761 02563 /0506 10180 20150 30153 40164 53007 60006 85500 90600 333 10215 20156 60004=
07761,1998-07-11 09:00:00,24,1015.8,-0.5,65,17,18000,14.816,,,240,,,,,,,,,,,wg-a,,,,AAXX 11094 07761 12668 /2408 10240 20170 30148 40158 58005 60006 81130 90900=
07761,1998-07-11 12:00:00,24,1015.7,-0.1,74,19,17000,22.224,,,220,,,,,,,,,,,wg-a,,,,AAXX 11124 07761 12667 /2212 10240 20190 30147 40157 58001 60006 81102 91200=
07761,1998-07-11 15:00:00,24,1015.2,-0.5,65,17,22000,29.632,,,220,,,,,,,,,,,wg-a,,,,AAXX 11154 07761 12672 32216 10240 20170 30142 40152 55005 60006 81102 91500=
07761,1998-07-11 18:00:00,22,1015.9,0.7,73,17,23000,14.816,,,220,18.4,24.8,,,,,,,,,wg-a,,,,AAXX 11184 07761 12573 32208 10220 20170 30149 40159 53007 60006 81442 91800 333 10248 20184=
07761,1998-07-11 21:00:00,20,1016.9,0.9,78,16,20000,7.408,,,60,,,,,,,,,,,wg-a,,,,AAXX 11214 07761 12570 40604 10200 20160 30158 40169 53009 60006 82502 92100=
07761,1998-07-12 00:00:00,17,1016,-0.9,88,15,20000,7.408,,,140,,,,,,,,,,,wg-a,,,,AAXX 12004 07761 12/70 11404 10170 20150 30149 40160 58009 60006 80001 90000=
07761,1998-07-12 03:00:00,16,1014.9,-1.1,82,13,20000,14.816,,,60,,,,,,,,,,,wg-a,,,,AAXX 12034 07761 12/70 00608 10160 20130 30138 40149 58011 60006 80000 90300=
07761,1998-07-12 06:00:00,18,1014.9,-0,77,14,500,11.112,,,50,15.3,22.2,,,,,,,,,wg-a,,,,AAXX 12064 07761 02400 20506 10180 20140 30138 40149 55000 60006 81101 90600 333 10222 20153 60004=
07761,1998-07-12 09:00:00,24,1014.9,0.1,65,17,500,11.112,,,240,,,,,,,,,,,wg-a,,,,AAXX 12094 07761 12500 22406 10240 20170 30139 40149 53001 60006 81101 90900=
07761,1998-07-12 12:00:00,24,1015.4,0.5,65,17,25000,22.224,,,230,,,,,,,,,,,wg-a,,,,AAXX 12124 07761 12675 22312 10240 20170 30144 40154 53005 60006 81101 91200=
07761,1998-07-12 15:00:00,24,1015.4,-0,65,17,25000,22.224,,,240,,,,,,,,,,,wg-a,,,,AAXX 12154 07761 12675 /2412 10240 20170 30144 40154 55000 60006 81101 91500=
07761,1998-07-12 18:00:00,22,1014.9,-0.5,73,17,25000,11.112,,,220,18.2,24.5,,,,,,,,,wg-a,,,,AAXX 12184 07761 12575 /2206 10220 20170 30139 40149 56005 60006 81101 91800 333 10245 20182=
07761,1998-07-12 21:00:00,19,1016.3,1.3,83,16,25000,11.112,,,50,,,,,,,,,,,wg-a,,,,AAXX 12214 07761 12475 /0506 10190 20160 30152 40163 53013 60006 81101 92100=
07761,1998-07-13 00:00:00,17,1015.6,-0.7,88,15,25000,11.112,,,50,,,,,,,,,,,wg-a,,,,AAXX 13004 07761 12/75 00506 10170 20150 30145 40156 58007 60006 80000 90000=
07761,1998-07-13 06:00:00,19,1015.2,0.2,83,16,18000,11.112,,,50,15,22,,,,,,,,,wg-a,,,,AAXX 13064 07761 02/68 00506 10190 20160 30141 40152 50002 60006 80000 90600 333 10220 20150 60004=
07761,1998-07-13 09:00:00,24,1015.1,0,74,19,25000,14.816,,,240,,,,,,,,,,,wg-a,,,,AAXX 13094 07761 12675 /2408 10240 20190 30141 40151 50000 60006 81500 90900=
07761,1998-07-13 12:00:00,26,1013.3,-1.8,70,20,25000,22.224,,,240,,,,,,,,,,,wg-a,,,,AAXX 13124 07761 12675 12412 10260 20200 30123 40133 58018 60006 81100 91200=
07761,1998-07-13 18:00:00,25,1012,-0.7,74,20,25000,11.112,,,190,18.7,26.5,,,,,,,,,wg-a,,,,AAXX 13184 07761 12/75 21906 10250 20200 30110 40120 56007 60006 80002 91800 333 10265 20187=
07761,1998-07-13 21:00:00,21,1012.1,0.1,73,16,20000,7.408,,,50,,,,,,,,,,,wg-a,,,,AAXX 13214 07761 12/70 20504 10210 20160 30111 40121 53001 60006 80002 92100=
07761,1998-07-14 00:00:00,20,1011.8,-0.4,78,16,20000,7.408,,,10,,,,,,,,,,,wg-a,,,,AAXX 14004 07761 12/70 50104 10200 20160 30107 40118 58004 60006 81042 90000=
07761,1998-07-14 03:00:00,18,1010.3,-1.5,83,15,20000,3.704,,,30,,,,,,,,,,,wg-a,,,,AAXX 14034 07761 12/70 50302 10180 20150 30092 40103 55015 60006 82042 90300=
07761,1998-07-14 06:00:00,19,1012,1.7,78,15,40000,11.112,,,50,17,24.5,,,,,,,,,wg-a,,,,AAXX 14064 07761 02/82 70506 10190 20150 30109 40120 53017 60006 85082 90600 333 10245 20170 60004=
07761,1998-07-14 09:00:00,23,1011.3,-0.6,73,18,500,7.408,,,300,,,,0,,,,,,1,wg-a,,,,AAXX 14094 07761 12500 83004 10230 20180 30103 40113 58006 60007 70162 8177/ 90900=
07761,1998-07-14 12:00:00,25,1010.6,-0.7,69,19,15000,11.112,,,250,,,,,,,,,,2,wg-a,,,,AAXX 14124 07761 12565 82506 10250 20190 30096 40106 57007 60016 70262 8177/ 91200=
07761,1998-07-14 15:00:00,25,1009.9,-0.7,61,17,40000,25.928,,,240,,,,,,,,,,,wg-a,,,,AAXX 14154 07761 12582 /2414 10250 20170 30089 40099 57007 60006 81142 91500=
07761,1998-07-14 18:00:00,23,1010.4,0.5,61,15,500,22.224,,,210,18.9,27.3,,,,,,,,,wg-a,,,,AAXX 14184 07761 12/00 12112 10230 20150 30094 40104 53005 60006 80002 91800 333 10273 20189=
07761,1998-07-14 21:00:00,19,1011.5,1,68,13,25000,11.112,,,90,,,,,,,,,,,wg-a,,,,AAXX 14214 07761 12/75 00906 10190 20130 30104 40115 51010 60006 80000 92100=
07761,1998-07-15 00:00:00,16,1011.4,-0.1,77,12,25000,18.52,,,50,,,,,,,,,,,wg-a,,,,AAXX 15004 07761 12575 /0510 10160 20120 30103 40114 58001 60006 81500 90000=
07761,1998-07-15 03:00:00,15,1010.1,-1.3,72,10,25000,14.816,,,30,,,,,,,,,,,wg-a,,,,AAXX 15034 07761 12/75 20308 10150 20100 30090 40101 58013 60006 82030 90300=
07761,1998-07-15 06:00:00,17,1011.2,1.1,63,10,500,14.816,,,40,13,22.5,,,,,,,,,wg-a,,,,AAXX 15064 07761 02/00 30408 10170 20100 30101 40112 51011 60006 81032 90600 333 10225 20130 60004=
07761,1998-07-15 09:00:00,24,1011.9,0.8,57,15,500,22.224,,,250,,,,,,,,,,,wg-a,,,,AAXX 15094 07761 12600 22512 10240 20150 30109 40119 52008 60006 81102 90900=
07761,1998-07-15 12:00:00,24,1012.6,0.7,61,16,500,18.52,,,240,,,,,,,,,,,wg-a,,,,AAXX 15124 07761 12600 22410 10240 20160 30116 40126 52007 60006 8/100 91200=
07761,1998-07-15 15:00:00,24,1012.9,0.3,65,17,500,22.224,,,230,,,,,,,,,,,wg-a,,,,AAXX 15154 07761 12600 32312 10240 20170 30119 40129 52003 60006 81130 91500=
07761,1998-07-15 18:00:00,23,1013.6,0.7,69,17,20000,14.816,,,180,16.7,24.7,,,,,,,,,wg-a,,,,AAXX 15184 07761 12770 21808 10230 20170 30126 40136 53007 60006 81102 91800 333 10247 20167=
07761,1998-07-15 21:00:00,20,1015.6,1.9,78,16,10000,7.408,,,70,,,,,,,,,,,wg-a,,,,AAXX 15214 07761 12/60 /0704 10200 20160 30145 40156 51019 60006 92100=
07761,1998-07-16 00:00:00,17,1016.7,1.1,82,14,20000,11.112,,,60,,,,,,,,,,,wg-a,,,,AAXX 16004 07761 12/70 00606 10170 20140 30156 40167 51011 60006 80000 90000=
07761,1998-07-16 03:00:00,17,1016.1,-0.6,82,14,20000,11.112,,,40,,,,,,,,,,,wg-a,,,,AAXX 16034 07761 12/70 30406 10170 20140 30150 40161 58006 60006 80002 90300=
07761,1998-07-16 06:00:00,19,1016.8,0.7,78,15,20000,11.112,,,50,15.5,23.2,,,,,,,,,wg-a,,,,AAXX 16064 07761 02470 /0506 10190 20150 30157 40168 53007 60006 82500 90600 333 10232 20155 60004=
07761,1998-07-16 09:00:00,24,1017,0.3,69,18,20000,14.816,,,240,,,,,,,,,,,wg-a,,,,AAXX 16094 07761 12570 /2408 10240 20180 30160 40170 53003 60006 81100 90900=
07761,1998-07-16 12:00:00,25,1017.6,0.6,57,16,25000,22.224,,,240,,,,,,,,,,,wg-a,,,,AAXX 16124 07761 12575 /2412 10250 20160 30166 40176 51006 60006 81100 91200=
07761,1998-07-16 15:00:00,24,1017.5,-0.1,74,19,25000,14.816,,,220,,,,,,,,,,,wg-a,,,,AAXX 16154 07761 12675 /2208 10240 20190 30165 40175 58001 60006 81100 91500=
07761,1998-07-16 18:00:00,23,1017.4,-0.1,73,18,25000,18.52,,,200,18.8,24.8,,,,,,,,,wg-a,,,,AAXX 16184 07761 12675 /2010 10230 20180 30164 40174 56001 60006 81100 91800 333 10248 20188=
07761,1998-07-16 21:00:00,19,1018.6,1.1,78,15,20000,11.112,,,50,,,,,,,,,,,wg-a,,,,AAXX 16214 07761 12/70 00506 10190 20150 30175 40186 53011 60006 80000 92100=
07761,1998-07-17 00:00:00,17,1018.4,-0.2,77,13,20000,11.112,,,50,,,,,,,,,,,wg-a,,,,AAXX 17004 07761 12570 10506 10170 20130 30173 40184 58002 60006 81100 90000=
07761,1998-07-17 03:00:00,16,1017,-1.4,77,12,20000,14.816,,,50,,,,,,,,,,,wg-a,,,,AAXX 17034 07761 12/70 00508 10160 20120 30159 40170 57014 60006 80000 90300=
07761,1998-07-17 06:00:00,19,1016.9,-0.1,64,12,20000,14.816,,,50,15.4,22.7,,,,,,,,,wg-a,,,,AAXX 17064 07761 02/70 00508 10190 20120 30158 40169 57001 60006 80000 90600 333 10227 20154 60004=
07761,1998-07-17 09:00:00,25,1017,0.2,69,19,20000,18.52,,,240,,,,,,,,,,,wg-a,,,,AAXX 17094 07761 12570 /2410 10250 20190 30160 40170 53002 60006 81100 90900=
07761,1998-07-17 12:00:00,25,1016.6,-0.4,74,20,500,22.224,,,230,,,,,,,,,,,wg-a,,,,AAXX 17124 07761 12600 /2312 10250 20200 30156 40166 55004 60006 81100 91200=
07761,1998-07-17 15:00:00,25,1017.1,0.5,69,19,500,22.224,,,230,,,,,,,,,,,wg-a,,,,AAXX 17154 07761 12600 /2312 10250 20190 30161 40171 51005 60006 81100 91500=
07761,1998-07-17 18:00:00,23,1016.7,-0.4,73,18,500,14.816,,,220,19,25.9,,,,,,,,,wg-a,,,,AAXX 17184 07761 12700 /2208 10230 20180 30157 40167 57004 60006 81100 91800 333 10259 20190=
07761,1998-07-17 21:00:00,20,1018,1.2,83,17,20000,11.112,,,50,,,,,,,,,,,wg-a,,,,AAXX 17214 07761 12/70 00506 10200 20170 30169 40180 52012 60006 80000 92100=
07761,1998-07-18 00:00:00,18,1017.8,-0.2,83,15,20000,7.408,,,80,,,,,,,,,,,wg-a,,,,AAXX 18004 07761 12/70 00804 10180 20150 30167 40178 58002 60006 80000 90000=
07761,1998-07-18 03:00:00,16,1017.1,-0.7,82,13,20000,11.112,,,40,,,,,,,,,,,wg-a,,,,AAXX 18034 07761 12/70 00406 10160 20130 30160 40171 56007 60006 80000 90300=
07761,1998-07-18 06:00:00,18,1017.4,0.3,77,14,25000,11.112,,,40,15.7,23.1,,,,,,,,,wg-a,,,,AAXX 18064 07761 02475 /0406 10180 20140 30163 40174 51003 60006 83500 90600 333 10231 20157 60004=
07761,1998-07-18 09:00:00,25,1017.7,0.4,69,19,25000,14.816,,,240,,,,,,,,,,,wg-a,,,,AAXX 18094 07761 12675 /2408 10250 20190 30167 40177 53004 60006 81100 90900=
07761,1998-07-18 12:00:00,25,1017.5,-0.2,74,20,25000,18.52,,,240,,,,,,,,,,,wg-a,,,,AAXX 18124 07761 12675 /2410 10250 20200 30165 40175 57002 60006 81100 91200=
07761,1998-07-18 15:00:00,25,1016.9,-0.6,74,20,20000,18.52,,,230,,,,,,,,,,,wg-a,,,,AAXX 18154 07761 12670 /2310 10250 20200 30159 40169 56006 60006 81100 91500=
07761,1998-07-18 18:00:00,24,1017.2,0.3,78,20,20000,11.112,,,210,18.2,25.9,,,,,,,,,wg-a,,,,AAXX 18184 07761 12570 /2106 10240 20200 30162 40172 53003 60006 81101 91800 333 10259 20182=
07761,1998-07-18 21:00:00,21,1017.8,0.5,83,18,20000,3.704,,,70,,,,,,,,,,,wg-a,,,,AAXX 18214 07761 12/70 00702 10210 20180 30167 40178 52005 60006 80000 92100=
07761,1998-07-19 00:00:00,18,1017.4,-0.4,83,15,25000,7.408,,,50,,,,,,,,,,,wg-a,,,,AAXX 19004 07761 12/75 00504 10180 20150 30163 40174 58004 60006 80000 90000=
07761,1998-07-19 03:00:00,17,1016.9,-0.5,82,14,500,11.112,,,50,,,,,,,,,,,wg-a,,,,AAXX 19034 07761 12/00 00506 10170 20140 30158 40169 57005 60006 80000 90300=
07761,1998-07-19 06:00:00,20,1017.2,0.3,73,15,500,7.408,,,60,16.3,23.7,,,,,,,,,wg-a,,,,AAXX 19064 07761 02/00 00604 10200 20150 30161 40172 52003 60006 80000 90600 333 10237 20163 60004=
07761,1998-07-19 09:00:00,25,1018.4,1.3,74,20,500,14.816,,,220,,,,,,,,,,,wg-a,,,,AAXX 19094 07761 12/00 02208 10250 20200 30174 40184 53013 60006 80000 90900=
07761,1998-07-19 12:00:00,27,1017.8,-0.6,62,19,500,18.52,,,230,,,,,,,,,,,wg-a,,,,AAXX 19124 07761 12600 /2310 10270 20190 30168 40178 56006 60006 81200 91200=
07761,1998-07-19 15:00:00,27,1017.3,-0.5,66,20,500,25.928,,,200,,,,,,,,,,,wg-a,,,,AAXX 19154 07761 12600 22014 10270 20200 30163 40173 58005 60006 81232 91500=
07761,1998-07-19 18:00:00,25,1017.4,0.1,74,20,500,7.408,,,230,20.2,27.7,,,,,,,,,wg-a,,,,AAXX 19184 07761 12/00 12304 10250 20200 30164 40174 53001 60006 80002 91800 333 10277 20202=
07761,1998-07-19 21:00:00,22,1018.1,0.7,78,18,20000,7.408,,,40,,,,,,,,,,,wg-a,,,,AAXX 19214 07761 12/70 00404 10220 20180 30171 40181 51007 60006 80000 92100=
07761,1998-07-20 00:00:00,20,1018.2,0,73,15,15000,7.408,,,60,,,,,,,,,,,wg-a,,,,AAXX 20004 07761 12/65 00604 10200 20150 30171 40182 50000 60006 80000 90000=
07761,1998-07-20 03:00:00,19,1017.5,-0.7,73,14,20000,11.112,,,50,,,,,,,,,,,wg-a,,,,AAXX 20034 07761 12/70 00506 10190 20140 30164 40175 58007 60006 80000 90300=
07761,1998-07-20 06:00:00,23,1017.4,0,61,15,20000,11.112,,,40,18.8,25,,,,,,,,,wg-a,,,,AAXX 20064 07761 02/70 00406 10230 20150 30164 40174 50000 60006 80000 90600 333 10250 20188 60004=
07761,1998-07-20 09:00:00,27,1017.3,-0.1,62,19,20000,14.816,,,220,,,,,,,,,,,wg-a,,,,AAXX 20094 07761 12/70 22208 10270 20190 30163 40173 55001 60006 80001 90900=
07761,1998-07-20 12:00:00,29,1016.6,-0.7,55,19,20000,11.112,,,220,,,,,,,,,,,wg-a,,,,AAXX 20124 07761 12770 22206 10290 20190 30156 40166 58007 60006 81101 91200=
07761,1998-07-20 15:00:00,29,1015.1,-1.5,55,19,25000,22.224,,,210,,,,,,,,,,,wg-a,,,,AAXX 20154 07761 12775 /2112 10290 20190 30141 40151 58015 60006 81100 91500=
07761,1998-07-20 18:00:00,29,1014.2,-0.9,55,19,25000,7.408,,,280,23.2,30.9,,,,,,,,,wg-a,,,,AAXX 20184 07761 12/75 /2804 10290 20190 30132 40142 56009 60006 80000 91800 333 10309 20232=
07761,1998-07-20 21:00:00,24,1014.6,0.4,50,13,25000,11.112,,,50,,,,,,,,,,,wg-a,,,,AAXX 20214 07761 12/75 00506 10240 20130 30136 40146 53004 60006 80000 92100=
07761,1998-07-21 00:00:00,23,1014.1,-0.5,47,11,25000,14.816,,,60,,,,,,,,,,,wg-a,,,,AAXX 21004 07761 12/75 00608 10230 20110 30131 40141 58005 60006 80000 90000=
07761,1998-07-21 03:00:00,20,1013.3,-0.9,53,10,25000,14.816,,,40,,,,,,,,,,,wg-a,,,,AAXX 21034 07761 12/75 00408 10200 20100 30122 40133 56009 60006 80000 90300=
07761,1998-07-21 06:00:00,24,1013.6,0.4,44,11,25000,18.52,,,50,18.5,28.9,,,,,,,,,wg-a,,,,AAXX 21064 07761 02/75 00510 10240 20110 30126 40136 51004 60006 80000 90600 333 10289 20185 60004=
07761,1998-07-21 09:00:00,31,1013,-0.6,43,17,25000,22.224,,,250,,,,,,,,,,,wg-a,,,,AAXX 21094 07761 12/75 02512 10310 20170 30120 40130 58006 60006 80000 90900=
07761,1998-07-21 12:00:00,32,1013.4,0.4,38,16,40000,18.52,,,220,,,,,,,,,,,wg-a,,,,AAXX 21124 07761 12/82 02210 10320 20160 30124 40134 53004 60006 80000 91200=
07761,1998-07-21 15:00:00,31,1012.8,-0.6,43,17,40000,14.816,,,210,,,,,,,,,,,wg-a,,,,AAXX 21154 07761 12/82 02108 10310 20170 30118 40128 58006 60006 80000 91500=
07761,1998-07-21 18:00:00,29,1012.9,0.1,45,16,40000,18.52,,,190,23.6,32.7,,,,,,,,,wg-a,,,,AAXX 21184 07761 12/82 01910 10290 20160 30119 40129 53001 60006 80000 91800 333 10327 20236=
07761,1998-07-21 21:00:00,23,1013.9,1,50,12,500,14.816,,,40,,,,,,,,,,,wg-a,,,,AAXX 21214 07761 12/00 10408 10230 20120 30129 40139 50010 60006 80001 92100=
07761,1998-07-22 00:00:00,20,1013.9,-0.1,53,10,20000,11.112,,,60,,,,,,,,,,,wg-a,,,,AAXX 22004 07761 12/70 00606 10200 20100 30128 40139 56001 60006 80000 90000=
07761,1998-07-22 03:00:00,18,1014.4,0.5,59,10,20000,11.112,,,40,,,,,,,,,,,wg-a,,,,AAXX 22034 07761 12/70 00406 10180 20100 30133 40144 51005 60006 80000 90300=
07761,1998-07-22 06:00:00,21,1015,0.6,53,11,500,11.112,,,50,17.1,28.5,,,,,,,,,wg-a,,,,AAXX 22064 07761 02/00 10506 10210 20110 30139 40150 53006 60006 80002 90600 333 10285 20171 60004=
07761,1998-07-22 09:00:00,26,1015.3,0.4,65,19,500,11.112,,,230,,,,,,,,,,,wg-a,,,,AAXX 22094 07761 12/00 02306 10260 20190 30143 40153 50004 60006 80000 90900=
07761,1998-07-22 12:00:00,27,1015.4,0.1,74,22,25000,18.52,,,210,,,,,,,,,,,wg-a,,,,AAXX 22124 07761 12675 /2110 10270 20220 30144 40154 50001 60006 81100 91200=
07761,1998-07-22 15:00:00,27,1014.9,-0.5,74,22,20000,25.928,,,210,,,,,,,,,,,wg-a,,,,AAXX 22154 07761 12770 /2114 10270 20220 30139 40149 57005 60006 81200 91500=
07761,1998-07-22 18:00:00,25,1014.9,-0,83,22,20000,14.816,,,210,20.9,27.3,,,,,,,,,wg-a,,,,AAXX 22184 07761 12770 /2108 10250 20220 30139 40149 54000 60006 81100 91800 333 10273 20209=
07761,1998-07-22 21:00:00,23,1015.7,0.8,83,20,20000,7.408,,,70,,,,,,,,,,,wg-a,,,,AAXX 22214 07761 12/70 00704 10230 20200 30147 40157 53008 60006 80000 92100=
07761,1998-07-23 00:00:00,20,1015.4,-0.4,83,17,20000,11.112,,,40,,,,,,,,,,,wg-a,,,,AAXX 23004 07761 12/70 00406 10200 20170 30143 40154 58004 60006 80000 90000=
07761,1998-07-23 06:00:00,21,1015.9,0.7,78,17,12000,7.408,,,50,18.4,25.1,,,,,,,,,wg-a,,,,AAXX 23064 07761 02362 70504 10210 20170 30148 40159 53007 60006 875// 90600 333 10251 20184 60004=
07761,1998-07-23 09:00:00,26,1015.8,0,70,20,12000,11.112,,,240,,,,,,,,,,,wg-a,,,,AAXX 23094 07761 12562 /2406 10260 20200 30148 40158 50000 60006 81100 90900=
07761,1998-07-23 12:00:00,27,1015.5,-0.3,74,22,12000,22.224,,,210,,,,,,,,,,,wg-a,,,,AAXX 23124 07761 12662 /2112 10270 20220 30145 40155 55003 60006 81100 91200=
07761,1998-07-23 15:00:00,28,1015.2,-0.3,70,22,11000,25.928,,,190,,,,,,,,,,,wg-a,,,,AAXX 23154 07761 12/61 /1914 10280 20220 30142 40152 58003 60006 91500=
07761,1998-07-23 18:00:00,27,1015.4,0.2,74,22,12000,14.816,,,190,21,27.8,,,,,,,,,wg-a,,,,AAXX 23184 07761 12662 /1908 10270 20220 30144 40154 53002 60006 81100 91800 333 10278 20210=
07761,1998-07-23 21:00:00,22,1016.3,0.9,83,19,15000,11.112,,,60,,,,,,,,,,,wg-a,,,,AAXX 23214 07761 12/65 00606 10220 20190 30153 40163 51009 60006 80000 92100=
07761,1998-07-24 00:00:00,20,1016.2,-0.2,78,16,15000,7.408,,,50,,,,,,,,,,,wg-a,,,,AAXX 24004 07761 12/65 00504 10200 20160 30151 40162 57002 60006 80000 90000=
07761,1998-07-24 03:00:00,19,1015.4,-0.8,78,15,15000,14.816,,,50,,,,,,,,,,,wg-a,,,,AAXX 24034 07761 12/65 00508 10190 20150 30143 40154 58008 60006 80000 90300=
07761,1998-07-24 06:00:00,22,1015,-0.3,65,15,20000,7.408,,,80,18.1,26.4,,,,,,,,,wg-a,,,,AAXX 24064 07761 02/70 00804 10220 20150 30140 40150 55003 60006 80000 90600 333 10264 20181 60004=
07761,1998-07-24 09:00:00,26,1015.4,0.4,74,21,18000,14.816,,,230,,,,,,,,,,,wg-a,,,,AAXX 24094 07761 12/68 02308 10260 20210 30144 40154 53004 60006 80000 90900=
07761,1998-07-24 12:00:00,27,1015.4,0,79,23,15000,14.816,,,210,,,,,,,,,,,wg-a,,,,AAXX 24124 07761 12765 12108 10270 20230 30144 40154 50000 60006 81100 91200=
07761,1998-07-24 15:00:00,27,1015.1,-0.3,79,23,15000,14.816,,,220,,,,,,,,,,,wg-a,,,,AAXX 24154 07761 12/65 /2208 10270 20230 30141 40151 56003 60006 80000 91500=
07761,1998-07-24 18:00:00,26,1015,-0.1,84,23,15000,7.408,,,220,22.1,28.2,,,,,,,,,wg-a,,,,AAXX 24184 07761 12/65 02204 10260 20230 30140 40150 55001 60006 80000 91800 333 10282 20221=
07761,1998-07-24 21:00:00,23,1015.8,,89,21,15000,0,,,0,,,,,,,,,,,wg-a,,,,AAXX 24214 07761 32/65 0//// 10230 20210 30148 40158 80000 92100=
07761,1998-07-25 00:00:00,21,1015.6,-0.3,78,17,0,11.112,,,60,,,,,,,,,,,wg-a,,,,AAXX 25004 07761 32/// /0606 10210 20170 30145 40156 58003 90000=
07761,1998-07-25 03:00:00,19,1014.8,-0.8,78,15,15000,11.112,,,40,,,,,,,,,,,wg-a,,,,AAXX 25034 07761 12/65 00406 10190 20150 30137 40148 58008 60006 80000 90300=
07761,1998-07-25 06:00:00,21,1015.1,0.3,69,15,20000,11.112,,,50,18.2,26.2,,,,,,,,,wg-a,,,,AAXX 25064 07761 12/70 00506 10210 20150 30140 40151 53003 60006 80000 90600 333 10262 20182=
07761,1998-07-25 09:00:00,27,1015.2,0.2,70,21,20000,14.816,,,240,,,,,,,,,,,wg-a,,,,AAXX 25094 07761 12/70 02408 10270 20210 30142 40152 50002 60006 80000 90900=
07761,1998-07-25 12:00:00,28,1014.5,-0.7,70,22,15000,22.224,,,230,,,,,,,,,,,wg-a,,,,AAXX 25124 07761 12765 12312 10280 20220 30135 40145 58007 60006 81100 91200=
07761,1998-07-25 15:00:00,27,1014.6,0.1,74,22,0,18.52,,,220,,,,,,,,,,,wg-a,,,,AAXX 25154 07761 12/// /2210 10270 20220 30136 40146 51001 60006 91500=
07761,1998-07-25 18:00:00,25,1014.2,-0.4,79,21,15000,11.112,,,230,21.3,27.8,,,,,,,,,wg-a,,,,AAXX 25184 07761 12/65 02306 10250 20210 30132 40142 56004 60006 80000 91800 333 10278 20213=
07761,1998-07-25 21:00:00,23,1015.1,0.9,83,20,15000,7.408,,,50,,,,,,,,,,,wg-a,,,,AAXX 25214 07761 12/65 00504 10230 20200 30141 40151 51009 60006 80000 92100=
07761,1998-07-26 00:00:00,21,1015.1,0,88,19,15000,7.408,,,60,,,,,,,,,,,wg-a,,,,AAXX 26004 07761 12/65 00604 10210 20190 30141 40151 50000 60006 80000 90000=
07761,1998-07-26 03:00:00,20,1014.5,-0.7,88,18,15000,11.112,,,50,,,,,,,,,,,wg-a,,,,AAXX 26034 07761 12/65 00506 10200 20180 30134 40145 58007 60006 80000 90300=
07761,1998-07-26 06:00:00,22,1014.7,0.3,78,18,15000,7.408,,,50,19.9,25.1,,,,,,,,,wg-a,,,,AAXX 26064 07761 02/65 00504 10220 20180 30137 40147 53003 60006 80000 90600 333 10251 20199 60004=
07761,1998-07-26 09:00:00,27,1014.5,-0.2,70,21,15000,14.816,,,240,,,,,,,,,,,wg-a,,,,AAXX 26094 07761 12/65 02408 10270 20210 30135 40145 58002 60006 80000 90900=
07761,1998-07-26 12:00:00,28,1014.7,0.2,70,22,15000,25.928,,,220,,,,,,,,,,,wg-a,,,,AAXX 26124 07761 12765 /2214 10280 20220 30137 40147 53002 60006 81100 91200=
07761,1998-07-26 15:00:00,27,1014.1,-0.6,74,22,15000,14.816,,,210,,,,,,,,,,,wg-a,,,,AAXX 26154 07761 12765 /2108 10270 20220 30131 40141 58006 60006 81100 91500=
07761,1998-07-26 18:00:00,27,1013.1,-1,70,21,20000,0,,,0,22,28,,,,,,,,,wg-a,,,,AAXX 26184 07761 12/70 00000 10270 20210 30121 40131 57010 60006 80000 91800 333 10280 20220=
07761,1998-07-26 21:00:00,24,1013.6,0.5,74,19,20000,7.408,,,70,,,,,,,,,,,wg-a,,,,AAXX 26214 07761 12/70 00704 10240 20190 30126 40136 52005 60006 80000 92100=
07761,1998-07-27 00:00:00,22,1013.3,-0.3,78,18,20000,7.408,,,50,,,,,,,,,,,wg-a,,,,AAXX 27004 07761 12/70 00504 10220 20180 30123 40133 58003 60006 80000 90000=
07761,1998-07-27 03:00:00,20,1012.2,-1.2,83,17,20000,11.112,,,40,,,,,,,,,,,wg-a,,,,AAXX 27034 07761 12/70 00406 10200 20170 30111 40122 56012 60006 80000 90300=
07761,1998-07-27 06:00:00,23,1012.5,0.4,69,17,15000,14.816,,,50,19.3,26.7,,,,,,,,,wg-a,,,,AAXX 27064 07761 02/65 00508 10230 20170 30115 40125 51004 60006 80000 90600 333 10267 20193 60004=
07761,1998-07-27 09:00:00,29,1012.5,-0,66,22,15000,22.224,,,200,,,,,,,,,,,wg-a,,,,AAXX 27094 07761 12/65 02012 10290 20220 30115 40125 55000 60006 80000 90900=
07761,1998-07-27 12:00:00,30,1011.7,-0.8,55,20,15000,11.112,,,200,,,,,,,,,,,wg-a,,,,AAXX 27124 07761 12765 /2006 10300 20200 30107 40117 56008 60006 81100 91200=
07761,1998-07-27 18:00:00,28,1010.6,-0.2,70,22,18000,11.112,,,200,22.8,31.3,,,,,,,,,wg-a,,,,AAXX 27184 07761 12/68 /2006 10280 20220 30096 40106 55002 60006 81031 91800 333 10313 20228=
07761,1998-07-27 21:00:00,24,1010.7,0.1,74,19,18000,3.704,,,300,,,,,,,,,,,wg-a,,,,AAXX 27214 07761 12/68 23002 10240 20190 30097 40107 53001 60006 81031 92100=
07761,1998-07-28 00:00:00,22,1010.7,-0,69,16,15000,7.408,,,60,,,,,,,,,,,wg-a,,,,AAXX 28004 07761 12/65 /0604 10220 20160 30097 40107 55000 60006 83032 90000=
07761,1998-07-28 03:00:00,21,1010.1,-0.6,78,17,15000,11.112,,,60,,,,,,,,,,,wg-a,,,,AAXX 28034 07761 12565 30606 10210 20170 30091 40101 58006 60006 81132 90300=
07761,1998-07-28 06:00:00,23,1010.4,0.3,69,17,15000,7.408,,,40,20.2,27.9,,,,,,,,,wg-a,,,,AAXX 28064 07761 02565 40404 10230 20170 30094 40104 52003 60006 82802 90600 333 10279 20202 60004=
07761,1998-07-28 09:00:00,27,1010.8,0.4,66,20,15000,18.52,,,230,,,,,,,,,,,wg-a,,,,AAXX 28094 07761 12565 42310 10270 20200 30098 40108 50004 60006 83201 90900=
07761,1998-07-28 15:00:00,25,1011.1,-0.3,65,18,20000,18.52,,,260,,,,,,,,,,,wg-a,,,,AAXX 28154 07761 12570 72610 10250 20180 30101 40111 58003 60006 83242 91500=
07761,1998-07-28 18:00:00,24,1010.8,-0.3,61,16,20000,18.52,,,250,22.9,28,,,,,,,,,wg-a,,,,AAXX 28184 07761 12670 42510 10240 20160 30098 40108 55003 60006 83232 91800 333 10280 20229=
07761,1998-07-28 21:00:00,22,1010.8,0,65,15,20000,7.408,,,60,,,,,,,,,,,wg-a,,,,AAXX 28214 07761 12670 40604 10220 20150 30098 40108 50000 60006 83802 92100=
07761,1998-07-29 00:00:00,19,1010.2,-0.7,78,15,20000,14.816,,,50,,,,,,,,,,,wg-a,,,,AAXX 29004 07761 12/70 00508 10190 20150 30091 40102 58007 60006 80000 90000=
07761,1998-07-29 03:00:00,18,1009.1,-1.1,77,14,25000,11.112,,,40,,,,,,,,,,,wg-a,,,,AAXX 29034 07761 12/75 00406 10180 20140 30080 40091 56011 60006 80000 90300=
07761,1998-07-29 06:00:00,19,1010.2,1.1,68,13,20000,11.112,,,50,16.6,23.5,,,,,,,,,wg-a,,,,AAXX 29064 07761 02/70 00506 10190 20130 30091 40102 53011 60006 80000 90600 333 10235 20166 60004=
07761,1998-07-29 09:00:00,26,1010.9,0.8,65,19,20000,18.52,,,240,,,,,,,,,,,wg-a,,,,AAXX 29094 07761 12/70 02410 10260 20190 30099 40109 53008 60006 80000 90900=
07761,1998-07-29 12:00:00,27,1011.3,0.4,54,17,20000,18.52,,,230,,,,,,,,,,,wg-a,,,,AAXX 29124 07761 12670 /2310 10270 20170 30103 40113 51004 60006 81100 91200=
07761,1998-07-29 15:00:00,26,1011.3,0,58,17,20000,18.52,,,220,,,,,,,,,,,wg-a,,,,AAXX 29154 07761 12670 /2210 10260 20170 30103 40113 50000 60006 81100 91500=
07761,1998-07-29 18:00:00,24,1011.6,0.3,69,18,25000,11.112,,,210,19.4,27.4,,,,,,,,,wg-a,,,,AAXX 29184 07761 12/75 02106 10240 20180 30106 40116 53003 60006 80000 91800 333 10274 20194=
07761,1998-07-29 21:00:00,21,1013.2,1.5,78,17,20000,7.408,,,60,,,,,,,,,,,wg-a,,,,AAXX 29214 07761 12/70 00604 10210 20170 30121 40132 53015 60006 80000 92100=
07761,1998-07-30 00:00:00,18,1013.4,0.2,83,15,20000,11.112,,,50,,,,,,,,,,,wg-a,,,,AAXX 30004 07761 12/70 00506 10180 20150 30123 40134 52002 60006 80000 90000=
07761,1998-07-30 03:00:00,17,1012.6,-0.8,82,14,20000,11.112,,,40,,,,,,,,,,,wg-a,,,,AAXX 30034 07761 12/70 00406 10170 20140 30115 40126 58008 60006 80000 90300=
07761,1998-07-30 06:00:00,20,1013.3,0.7,73,15,500,14.816,,,60,15.8,24.1,,,,,,,,,wg-a,,,,AAXX 30064 07761 02/00 /0608 10200 20150 30122 40133 53007 60006 80000 90600 333 10241 20158 60004=
07761,1998-07-30 09:00:00,25,1013.9,0.7,69,19,500,11.112,,,250,,,,,,,,,,,wg-a,,,,AAXX 30094 07761 12/00 02506 10250 20190 30129 40139 50007 60006 80000 90900=
07761,1998-07-30 12:00:00,27,1013.8,-0.1,70,21,500,22.224,,,220,,,,,,,,,,,wg-a,,,,AAXX 30124 07761 12700 12212 10270 20210 30128 40138 56001 60006 81100 91200=
07761,1998-07-30 15:00:00,26,1013.1,-0.7,65,19,500,18.52,,,220,,,,,,,,,,,wg-a,,,,AAXX 30154 07761 12700 /2210 10260 20190 30121 40131 58007 60006 81100 91500=
07761,1998-07-30 21:00:00,21,1014.4,1.1,83,18,20000,7.408,,,60,,,,,,,,,,,wg-a,,,,AAXX 30214 07761 12/70 00604 10210 20180 30134 40144 51011 60006 80000 92100=
07761,1998-07-31 00:00:00,19,1014.2,-0.3,78,15,20000,11.112,,,50,,,,,,,,,,,wg-a,,,,AAXX 31004 07761 12/70 00506 10190 20150 30131 40142 58003 60006 80000 90000=
07761,1998-07-31 03:00:00,18,1013.6,-0.6,77,14,20000,11.112,,,50,,,,,,,,,,,wg-a,,,,AAXX 31034 07761 12/70 00506 10180 20140 30125 40136 56006 60006 80000 90300=
07761,1998-07-31 06:00:00,20,1014.4,0.8,68,14,20000,11.112,,,50,17.1,24.7,,,,,,,,,wg-a,,,,AAXX 31064 07761 02/70 10506 10200 20140 30133 40144 51008 60006 80001 90600 333 10247 20171 60004=
07761,1998-07-31 09:00:00,27,1014.4,0.1,58,18,25000,11.112,,,250,,,,,,,,,,,wg-a,,,,AAXX 31094 07761 12/75 02506 10270 20180 30134 40144 52001 60006 80000 90900=
07761,1998-07-31 12:00:00,27,1014.3,-0.1,70,21,25000,18.52,,,220,,,,,,,,,,,wg-a,,,,AAXX 31124 07761 12/75 02210 10270 20210 30133 40143 55001 60006 80000 91200=
07761,1998-07-31 15:00:00,27,1014,-0.3,70,21,25000,18.52,,,210,,,,,,,,,,,wg-a,,,,AAXX 31154 07761 12/75 02110 10270 20210 30130 40140 56003 60006 80000 91500=
07761,1998-07-31 18:00:00,26,1013.7,-0.3,70,20,25000,7.408,,,260,19.9,27.7,,,,,,,,,wg-a,,,,AAXX 31184 07761 12/75 02604 10260 20200 30127 40137 56003 60006 80000 91800 333 10277 20199=
07761,1998-07-31 21:00:00,23,1014.5,0.8,69,17,20000,3.704,,,60,,,,,,,,,,,wg-a,,,,AAXX 31214 07761 12/70 /0602 10230 20170 30135 40145 51008 60006 81030 92100=
07761,1998-08-01 00:00:00,20,1013.3,-1.3,73,15,20000,11.112,,,50,,,,,,,,,,,wg-a,,,,AAXX 01004 07761 12/70 /0506 10200 20150 30122 40133 58013 60006 81030 90000=
07761,1998-08-01 03:00:00,19,1013.1,-0.2,73,14,20000,11.112,,,50,,,,,,,,,,,wg-a,,,,AAXX 01034 07761 12/70 30506 10190 20140 30120 40131 56002 60006 83030 90300=
07761,1998-08-01 06:00:00,24,1011.4,-1.6,54,14,500,7.408,,,50,18.5,25.9,,,,,,,,,wg-a,,,,AAXX 01064 07761 12/00 /0504 10240 20140 30104 40114 56016 60006 82086 90600 333 10259 20185=
07761,1998-08-01 09:00:00,27,1012.5,1.1,70,21,25000,7.408,,,220,,,,,,,,,,1,wg-a,,,,AAXX 01094 07761 02/75 32204 10270 20210 30115 40125 50011 61000 70161 82086 90900 333 ////=
07761,1998-08-01 12:00:00,29,1011.9,-0.6,58,20,500,25.928,,,230,,,,,,,,,,3,wg-a,,,,AAXX 01124 07761 02/00 12314 10290 20200 30109 40119 58006 61000 70361 81080 91200 333 ////=
07761,1998-08-01 15:00:00,29,1012.4,0.5,48,17,500,25.928,,,230,,,,,,,,,,,wg-a,,,,AAXX 01154 07761 12/00 42314 10290 20170 30114 40124 53005 60006 84080 91500=
07761,1998-08-01 18:00:00,29,1011.4,-1,43,15,20000,3.704,,,40,23.8,29.5,,,,,,,,17,wg-a,,,,AAXX 01184 07761 02770 70402 10290 20150 30104 40114 55010 60006 71796 81988 91800 333 10295 20238 61000=
07761,1998-08-01 21:00:00,26,1013.7,2.3,74,21,20000,7.408,,,130,,,,,,,,,,2,wg-a,,,,AAXX 01214 07761 02770 51304 10260 20210 30127 40137 53023 61000 70296 81988 92100 333 ////=
07761,1998-08-02 00:00:00,23,1012.7,-1,78,19,20000,3.704,,,70,,,,,,,,,,2,wg-a,,,,AAXX 02004 07761 02/70 00702 10230 20190 30117 40127 58010 61000 70296 80000 90000 333 ////=
07761,1998-08-02 03:00:00,20,1013,0.2,78,16,20000,11.112,,,40,,,,,,,,,,,wg-a,,,,AAXX 02034 07761 12370 20406 10200 20160 30119 40130 50002 60006 82500 90300=
07761,1998-08-02 06:00:00,22,1014,1.1,69,16,20000,3.704,,,70,19.4,28.6,,,,,,,,,wg-a,,,,AAXX 02064 07761 02470 40702 10220 20160 30130 40140 53011 60006 84800 90600 333 10286 20194 61000=
07761,1998-08-02 09:00:00,27,1014.4,0.4,74,22,20000,18.52,,,230,,,,,,,,,,,wg-a,,,,AAXX 02094 07761 12/70 02310 10270 20220 30134 40144 53004 60006 80000 90900=
07761,1998-08-02 12:00:00,28,1014.4,0,62,20,20000,14.816,,,220,,,,,,,,,,,wg-a,,,,AAXX 02124 07761 12/70 22208 10280 20200 30134 40144 50000 60006 81082 91200=
07761,1998-08-02 15:00:00,27,1014.7,0.3,70,21,11000,18.52,,,220,,,,,,,,,,,wg-a,,,,AAXX 02154 07761 32/61 /2210 10270 20210 30137 40147 53003 91500=
07761,1998-08-02 18:00:00,26,1015,0.3,79,22,20000,18.52,,,220,21.7,28.5,,,,,,,,3,wg-a,,,,AAXX 02184 07761 02770 72210 10260 20220 30140 40150 53003 60006 70386 83282 91800 333 10285 20217 61000=
07761,1998-08-02 21:00:00,26,1014.5,-0.5,70,20,15000,11.112,,,200,,,,0,,,,,,1,wg-a,,,,AAXX 02214 07761 12/65 32006 10260 20200 30135 40145 58005 60007 70161 83080 92100=
07761,1998-08-03 00:00:00,23,1014.8,0.3,83,20,15000,3.704,,,120,,,,,,,,,,3,wg-a,,,,AAXX 03004 07761 12/65 41202 10230 20200 30138 40148 53003 60006 70361 84080 90000=
07761,1998-08-03 03:00:00,23,1014.9,0.1,83,20,15000,18.52,,,40,,,,,,,,,,1,wg-a,,,,AAXX 03034 07761 02465 /0410 10230 20200 30139 40149 50001 61000 70196 81531 90300 333 ////=
07761,1998-08-03 06:00:00,25,1014,-0.9,79,21,20000,11.112,,,150,22.2,26.4,,,,,,,,1,wg-a,,,,AAXX 03064 07761 02770 51506 10250 20210 30130 40140 55009 60006 70196 81581 90600 333 10264 20222 60004=
07761,1998-08-03 09:00:00,27,1014.4,0.4,70,21,20000,18.52,,,190,,,,1,,,,,,3,wg-a,,,,AAXX 03094 07761 12770 71910 10270 20210 30134 40144 51004 60017 70362 85983 90900=
07761,1998-08-03 12:00:00,27,1014.3,-0.1,74,22,20000,18.52,,,240,,,,,,,,,,2,wg-a,,,,AAXX 03124 07761 02770 82410 10270 20220 30133 40143 58001 60016 70262 82982 91200 333 61000=
07761,1998-08-03 15:00:00,22,1018.2,3.9,78,18,15000,14.816,,57.412,330,,,,,,,,,,60,wg-a,,,,AAXX 03154 07761 02465 83308 10220 20180 30172 40182 53039 61000 76062 8687/ 91500 333 //// 91031=
07761,1998-08-03 18:00:00,22,1017.5,-0.7,83,19,15000,11.112,,57.412,210,21.6,28.9,,,,,,,,2,wg-a,,,,AAXX 03184 07761 02465 82106 10220 20190 30165 40175 55007 60006 70262 877// 91800 333 10289 20216 61000 91031=
07761,1998-08-03 21:00:00,20,1020.2,2.6,88,18,6000,7.408,,,80,,,,1,,,,,,21,wg-a,,,,AAXX 03214 07761 12256 80804 10200 20180 30191 40202 51026 60017 72162 888// 92100=
07761,1998-08-04 00:00:00,19,1019.8,-0.4,88,17,10000,7.408,,,50,,,,,,,,,,1,wg-a,,,,AAXX 04004 07761 12560 70504 10190 20170 30187 40198 58004 60016 70162 878// 90000=
07761,1998-08-04 03:00:00,20,1018.6,-1.2,88,18,10000,11.112,,,60,,,,,,,,,,,wg-a,,,,AAXX 04034 07761 12560 80606 10200 20180 30175 40186 58012 60006 888// 90300=
07761,1998-08-04 06:00:00,19,1019.6,1,88,17,10000,11.112,,,50,19.1,21.9,,,,,1,,,,wg-a,,,,AAXX 04064 07761 02460 /0506 10190 20170 30185 40196 53010 60006 84870 90600 333 10219 20191 60014=
07761,1998-08-04 09:00:00,24,1019.6,0.1,57,15,18000,14.816,,,260,,,,,,,,,,,wg-a,,,,AAXX 04094 07761 12568 42608 10240 20150 30186 40196 53001 60006 81131 90900=
07761,1998-08-04 12:00:00,25,1019.4,-0.2,57,16,18000,25.928,,,240,,,,,,,,,,,wg-a,,,,AAXX 04124 07761 12668 32414 10250 20160 30184 40194 58002 60006 81102 91200=
07761,1998-08-04 15:00:00,25,1019,-0.4,57,16,18000,25.928,,,240,,,,,,,,,,,wg-a,,,,AAXX 04154 07761 12668 32414 10250 20160 30180 40190 57004 60006 82809 91500=
07761,1998-08-04 18:00:00,25,1018.7,-0.3,57,16,18000,14.816,,,220,19.2,26,,,,,,,,,wg-a,,,,AAXX 04184 07761 12668 42208 10250 20160 30177 40187 55003 60006 81182 91800 333 10260 20192=
07761,1998-08-05 00:00:00,21,1018.6,0.1,73,16,25000,7.408,,,90,,,,,,,,,,,wg-a,,,,AAXX 05004 07761 12775 80904 10210 20160 30175 40186 53001 60006 81526 90000=
07761,1998-08-05 03:00:00,20,1016,-2.6,73,15,25000,7.408,,,60,,,,,,,,,,,wg-a,,,,AAXX 05034 07761 12775 70604 10200 20150 30149 40160 56026 60006 82536 90300=
07761,1998-08-05 06:00:00,20,1015.7,-0.3,78,16,25000,11.112,,,40,19.6,24.7,,,,,,,,,wg-a,,,,AAXX 05064 07761 02775 70406 10200 20160 30146 40157 58003 60006 8258/ 90600 333 10247 20196 60004=
07761,1998-08-05 09:00:00,24,1015.6,-0,65,17,25000,11.112,,,230,,,,,,,,,,,wg-a,,,,AAXX 05094 07761 12575 72306 10240 20170 30146 40156 55000 60006 8218/ 90900=
07761,1998-08-05 12:00:00,26,1015.3,-0.3,58,17,25000,11.112,,,210,,,,,,,,,,,wg-a,,,,AAXX 05124 07761 12575 82106 10260 20170 30143 40153 58003 60006 8257/ 91200=
07761,1998-08-05 15:00:00,26,1015,-0.3,70,20,25000,14.816,,,210,,,,,,,,,,,wg-a,,,,AAXX 05154 07761 12575 72108 10260 20200 30140 40150 55003 60006 82832 91500=
07761,1998-08-05 18:00:00,24,1014.3,-0.7,83,21,12000,11.112,,,200,20.4,27.3,,,,,,,,,wg-a,,,,AAXX 05184 07761 12562 82006 10240 20210 30133 40143 55007 60006 83987 91800 333 10273 20204=
07761,1998-08-05 21:00:00,21,1014.7,0.3,88,19,10000,11.112,,,140,,,,4,,,,,,80,wg-a,,,,AAXX 05214 07761 12460 81406 10210 20190 30136 40147 50003 60047 78098 8697/ 92100=
07761,1998-08-06 00:00:00,25,1014.8,0.2,57,16,10000,14.816,,,50,,,,,,,,,,61,wg-a,,,,AAXX 06004 07761 02460 80508 10250 20160 30138 40148 50002 60046 76198 8297/ 90000 333 61000=
07761,1998-08-06 03:00:00,21,1014.6,-0.3,78,17,12000,3.704,,,310,,,,,,,,,,2,wg-a,,,,AAXX 06034 07761 02562 43102 10210 20170 30135 40146 58003 61000 70261 83830 90300 333 ////=
07761,1998-08-06 06:00:00,23,1016,1.5,73,18,12000,11.112,,,50,20.6,25.6,,,,,4,,,2,wg-a,,,,AAXX 06064 07761 02662 30506 10230 20180 30150 40160 52015 60006 70261 81141 90600 333 10256 20206 60044=
07761,1998-08-06 09:00:00,26,1016.1,0.1,65,19,35000,7.408,,,290,,,,,,,,,,,wg-a,,,,AAXX 06094 07761 12781 42904 10260 20190 30151 40161 51001 60006 81141 90900=
07761,1998-08-06 12:00:00,28,1015.5,-0.6,70,22,25000,22.224,,,230,,,,,,,,,,,wg-a,,,,AAXX 06124 07761 12/75 /2312 10280 20220 30145 40155 55006 60006 81032 91200=
07761,1998-08-06 15:00:00,27,1014.7,-0.8,79,23,500,22.224,,,240,,,,,,,,,,,wg-a,,,,AAXX 06154 07761 12700 42412 10270 20230 30137 40147 58008 60006 81102 91500=
07761,1998-08-06 18:00:00,27,1015.5,0.8,66,20,500,14.816,,,250,22.6,29.6,,,,,,,,,wg-a,,,,AAXX 06184 07761 12/00 32508 10270 20200 30145 40155 53008 60006 80002 91800 333 10296 20226=
07761,1998-08-06 21:00:00,22,1016.4,0.9,73,17,20000,11.112,,,60,,,,,,,,,,,wg-a,,,,AAXX 06214 07761 12/70 00606 10220 20170 30154 40164 51009 60006 80000 92100=
07761,1998-08-07 00:00:00,19,1016.3,-0.2,78,15,15000,11.112,,,50,,,,,,,,,,,wg-a,,,,AAXX 07004 07761 12/65 00506 10190 20150 30152 40163 58002 60006 80000 90000=
07761,1998-08-07 06:00:00,19,1016.4,0.5,68,13,20000,11.112,,,50,18,26.9,,,,,,,,,wg-a,,,,AAXX 07064 07761 02/70 30506 10190 20130 30153 40164 53005 60006 80002 90600 333 10269 20180 60004=
07761,1998-08-07 09:00:00,27,1017.3,1,58,18,20000,7.408,,,240,,,,,,,,,,,wg-a,,,,AAXX 07094 07761 12/70 12404 10270 20180 30163 40173 52010 60006 80002 90900=
07761,1998-08-07 12:00:00,29,1017.2,-0.1,55,19,25000,18.52,,,230,,,,,,,,,,,wg-a,,,,AAXX 07124 07761 12875 12310 10290 20190 30162 40172 57001 60006 81100 91200=
07761,1998-08-07 15:00:00,30,1016.7,-0.5,49,18,20000,14.816,,,200,,,,,,,,,,,wg-a,,,,AAXX 07154 07761 12870 /2008 10300 20180 30157 40167 58005 60006 81200 91500=
07761,1998-08-07 18:00:00,29,1016.6,-0.1,48,17,20000,3.704,,,210,19.5,30.1,,,,,,,,,wg-a,,,,AAXX 07184 07761 12/70 /2102 10290 20170 30156 40166 55001 60006 8//00 91800 333 10301 20195=
07761,1998-08-07 21:00:00,24,1017.8,1.2,57,15,11000,11.112,,,40,,,,,,,,,,,wg-a,,,,AAXX 07214 07761 12/61 /0406 10240 20150 30168 40178 51012 60006 92100=
07761,1998-08-08 00:00:00,22,1017.6,-0.3,65,15,10000,11.112,,,40,,,,,,,,,,,wg-a,,,,AAXX 08004 07761 12/60 /0406 10220 20150 30165 40176 58003 60006 90000=
07761,1998-08-08 03:00:00,19,1016.9,-0.7,78,15,500,11.112,,,50,,,,,,,,,,,wg-a,,,,AAXX 08034 07761 12/00 00506 10190 20150 30158 40169 56007 60006 80000 90300=
07761,1998-08-08 09:00:00,27,1017.3,0.5,58,18,15000,11.112,,,220,,,,,,,,,,,wg-a,,,,AAXX 08094 07761 12/65 12206 10270 20180 30163 40173 53005 60006 81030 90900=
07761,1998-08-08 12:00:00,28,1016.8,-0.5,62,20,15000,18.52,,,210,,,,,,,,,,,wg-a,,,,AAXX 08124 07761 12765 22110 10280 20200 30158 40168 58005 60006 81102 91200=
07761,1998-08-08 15:00:00,29,1016.2,-0.6,55,19,15000,7.408,,,190,,,,,,,,,,,wg-a,,,,AAXX 08154 07761 12765 /1904 10290 20190 30152 40162 58006 60006 81102 91500=
07761,1998-08-08 18:00:00,27,1016,-0.2,54,17,15000,7.408,,,210,21.1,29,,,,,,,,,wg-a,,,,AAXX 08184 07761 12/65 52104 10270 20170 30150 40160 55002 60006 81032 91800 333 10290 20211=
07761,1998-08-08 21:00:00,24,1017.2,1.2,61,16,12000,7.408,,,50,,,,,,,,,,,wg-a,,,,AAXX 08214 07761 12/62 20504 10240 20160 30162 40172 51012 60006 81032 92100=
07761,1998-08-09 00:00:00,21,1017.1,-0.2,69,15,15000,11.112,,,50,,,,,,,,,,,wg-a,,,,AAXX 09004 07761 12/65 00506 10210 20150 30160 40171 58002 60006 80000 90000=
07761,1998-08-09 03:00:00,20,1016.2,-0.9,73,15,15000,11.112,,,60,,,,,,,,,,,wg-a,,,,AAXX 09034 07761 12/65 50606 10200 20150 30151 40162 56009 60006 80001 90300=
07761,1998-08-09 06:00:00,21,1016.6,0.4,69,15,15000,11.112,,,60,19.1,27.1,,,,,,,,,wg-a,,,,AAXX 09064 07761 02/65 40606 10210 20150 30155 40166 53004 60006 81031 90600 333 10271 20191 60004=
07761,1998-08-09 09:00:00,27,1016.3,-0.2,58,18,15000,11.112,,,250,,,,,,,,,,,wg-a,,,,AAXX 09094 07761 12/65 42506 10270 20180 30153 40163 58002 60006 80001 90900=
07761,1998-08-09 12:00:00,28,1016.3,0,70,22,15000,22.224,,,190,,,,,,,,,,,wg-a,,,,AAXX 09124 07761 12765 31912 10280 20220 30153 40163 50000 60006 81202 91200=
07761,1998-08-09 15:00:00,30,1015.8,-0.5,49,18,20000,18.52,,,200,,,,,,,,,,,wg-a,,,,AAXX 09154 07761 12770 22010 10300 20180 30148 40158 57005 60006 81102 91500=
07761,1998-08-09 18:00:00,28,1015.7,-0.1,58,19,20000,11.112,,,190,21.5,31.1,,,,,,,,,wg-a,,,,AAXX 09184 07761 12/70 21906 10280 20190 30147 40157 55001 60006 81041 91800 333 10311 20215=
07761,1998-08-09 21:00:00,23,1016.6,0.9,61,15,15000,7.408,,,60,,,,,,,,,,,wg-a,,,,AAXX 09214 07761 12/65 00604 10230 20150 30156 40166 53009 60006 80000 92100=
07761,1998-08-10 00:00:00,19,1016.9,0.2,78,15,15000,11.112,,,50,,,,,,,,,,,wg-a,,,,AAXX 10004 07761 12/65 00506 10190 20150 30158 40169 51002 60006 80000 90000=
07761,1998-08-10 03:00:00,19,1016.9,-0,73,14,15000,11.112,,,50,,,,,,,,,,,wg-a,,,,AAXX 10034 07761 12/65 00506 10190 20140 30158 40169 55000 60006 80000 90300=
07761,1998-08-10 06:00:00,20,1017.9,1,73,15,15000,11.112,,,50,17.6,27.8,,,,,,,,,wg-a,,,,AAXX 10064 07761 02/65 10506 10200 20150 30168 40179 51010 60006 80001 90600 333 10278 20176 60004=
07761,1998-08-10 09:00:00,27,1018.3,0.5,66,20,15000,14.816,,,230,,,,,,,,,,,wg-a,,,,AAXX 10094 07761 12/65 12308 10270 20200 30173 40183 52005 60006 80001 90900=
07761,1998-08-10 12:00:00,29,1018,-0.3,58,20,15000,25.928,,,190,,,,,,,,,,,wg-a,,,,AAXX 10124 07761 12765 41914 10290 20200 30170 40180 58003 60006 81101 91200=
07761,1998-08-10 15:00:00,29,1017.8,-0.2,58,20,20000,18.52,,,200,,,,,,,,,,,wg-a,,,,AAXX 10154 07761 12770 32010 10290 20200 30168 40178 55002 60006 81101 91500=
07761,1998-08-10 18:00:00,27,1017.6,-0.2,70,21,20000,11.112,,,210,20.1,29.7,,,,,,,,,wg-a,,,,AAXX 10184 07761 12/70 22106 10270 20210 30166 40176 57002 60006 80001 91800 333 10297 20201=
07761,1998-08-10 21:00:00,23,1018.5,0.8,57,14,15000,11.112,,,60,,,,,,,,,,,wg-a,,,,AAXX 10214 07761 12/65 00606 10230 20140 30174 40185 51008 60006 80000 92100=
07761,1998-08-11 00:00:00,20,1018.4,-0.1,60,12,15000,11.112,,,50,,,,,,,,,,,wg-a,,,,AAXX 11004 07761 12/65 00506 10200 20120 30173 40184 58001 60006 80000 90000=
07761,1998-08-11 03:00:00,18,1018.3,-0.1,68,12,15000,18.52,,,40,,,,,,,,,,,wg-a,,,,AAXX 11034 07761 12/65 00410 10180 20120 30172 40183 56001 60006 80000 90300=
07761,1998-08-11 06:00:00,20,1018.8,0.5,64,13,10000,11.112,,,50,17.9,26.5,,,,,,,,,wg-a,,,,AAXX 11064 07761 02/60 /0506 10200 20130 30177 40188 53005 60006 90600 333 10265 20179 60004=
07761,1998-08-11 09:00:00,27,1019.1,0.4,62,19,20000,11.112,,,240,,,,,,,,,,,wg-a,,,,AAXX 11094 07761 12/70 02406 10270 20190 30181 40191 52004 60006 80000 90900=
07761,1998-08-11 12:00:00,31,1018.1,-1,49,19,20000,18.52,,,190,,,,,,,,,,,wg-a,,,,AAXX 11124 07761 12770 /1910 10310 20190 30171 40181 56010 60006 81100 91200=
07761,1998-08-11 15:00:00,31,1017.8,-0.3,52,20,20000,14.816,,,200,,,,,,,,,,,wg-a,,,,AAXX 11154 07761 12770 /2008 10310 20200 30168 40178 58003 60006 81100 91500=
07761,1998-08-11 18:00:00,28,1017.5,-0.3,58,19,20000,7.408,,,200,20.1,32.2,,,,,,,,,wg-a,,,,AAXX 11184 07761 12/70 02004 10280 20190 30165 40175 56003 60006 80000 91800 333 10322 20201=
07761,1998-08-11 21:00:00,22,1018.5,0.9,57,13,15000,11.112,,,50,,,,,,,,,,,wg-a,,,,AAXX 11214 07761 12/65 00506 10220 20130 30174 40185 53009 60006 80000 92100=
07761,1998-08-12 00:00:00,20,1017.8,-0.7,56,11,15000,11.112,,,50,,,,,,,,,,,wg-a,,,,AAXX 12004 07761 12/65 00506 10200 20110 30167 40178 58007 60006 80000 90000=
07761,1998-08-12 03:00:00,18,1017.2,-0.6,64,11,15000,7.408,,,60,,,,,,,,,,,wg-a,,,,AAXX 12034 07761 12/65 00604 10180 20110 30161 40172 58006 60006 80000 90300=
07761,1998-08-12 06:00:00,20,1017,-0.2,60,12,18000,11.112,,,60,16.9,27.7,,,,,,,,,wg-a,,,,AAXX 12064 07761 02/68 00606 10200 20120 30159 40170 57002 60006 80000 90600 333 10277 20169 60004=
07761,1998-08-12 09:00:00,27,1017,0.1,62,19,18000,11.112,,,220,,,,,,,,,,,wg-a,,,,AAXX 12094 07761 12668 12206 10270 20190 30160 40170 53001 60006 81101 90900=
07761,1998-08-12 12:00:00,29,1016.1,-0.9,66,22,15000,22.224,,,190,,,,,,,,,,,wg-a,,,,AAXX 12124 07761 12665 /1912 10290 20220 30151 40161 56009 60006 81201 91200=
07761,1998-08-12 15:00:00,28,1015.2,-0.9,66,21,15000,29.632,,,200,,,,,,,,,,,wg-a,,,,AAXX 12154 07761 12665 /2016 10280 20210 30142 40152 58009 60006 81260 91500=
07761,1998-08-12 18:00:00,26,1014.7,-0.5,79,22,15000,7.408,,,270,20.2,29.6,,,,,,,,,wg-a,,,,AAXX 12184 07761 12/65 12704 10260 20220 30137 40147 55005 60006 80002 91800 333 10296 20202=
07761,1998-08-12 21:00:00,22,1015.1,0.4,73,17,12000,7.408,,,60,,,,,,,,,,,wg-a,,,,AAXX 12214 07761 12/62 00604 10220 20170 30141 40151 51004 60006 80000 92100=
07761,1998-08-13 00:00:00,19,1014.5,-0.7,78,15,12000,11.112,,,50,,,,,,,,,,,wg-a,,,,AAXX 13004 07761 12/62 00506 10190 20150 30134 40145 58007 60006 80000 90000=
07761,1998-08-13 03:00:00,18,1013.5,-1,73,13,12000,11.112,,,50,,,,,,,,,,,wg-a,,,,AAXX 13034 07761 12/62 00506 10180 20130 30124 40135 58010 60006 80000 90300=
07761,1998-08-13 06:00:00,19,1013.4,-0.1,68,13,20000,11.112,,,60,16.7,26.4,,,,,,,,,wg-a,,,,AAXX 13064 07761 02/70 00606 10190 20130 30123 40134 55001 60006 80000 90600 333 10264 20167 60004=
07761,1998-08-13 09:00:00,26,1013.4,0.1,70,20,15000,11.112,,,230,,,,,,,,,,,wg-a,,,,AAXX 13094 07761 12/65 02306 10260 20200 30124 40134 53001 60006 80000 90900=
07761,1998-08-13 12:00:00,28,1012.6,-0.8,70,22,12000,18.52,,,230,,,,,,,,,,,wg-a,,,,AAXX 13124 07761 12862 /2310 10280 20220 30116 40126 58008 60006 81100 91200=
07761,1998-08-13 15:00:00,28,1011.9,-0.7,70,22,12000,14.816,,,220,,,,,,,,,,,wg-a,,,,AAXX 13154 07761 12/62 /2208 10280 20220 30109 40119 58007 60006 80000 91500=
07761,1998-08-13 18:00:00,25,1011.1,-0.8,79,21,10000,14.816,,,230,18.9,28.1,,,,,,,,,wg-a,,,,AAXX 13184 07761 12/60 02308 10250 20210 30101 40111 56008 60006 80000 91800 333 10281 20189=
07761,1998-08-13 21:00:00,24,1012.6,1.5,83,21,10000,3.704,,,70,,,,,,,,,,,wg-a,,,,AAXX 13214 07761 12460 70702 10240 20210 30116 40126 51015 60006 875// 92100=
07761,1998-08-14 00:00:00,20,1012.1,-0.6,83,17,15000,14.816,,,80,,,,,,,,,,,wg-a,,,,AAXX 14004 07761 12/65 00808 10200 20170 30110 40121 56006 60006 80000 90000=
07761,1998-08-14 03:00:00,18,1011.1,-1,77,14,15000,11.112,,,50,,,,,,,,,,,wg-a,,,,AAXX 14034 07761 12/65 00506 10180 20140 30100 40111 56010 60006 80000 90300=
07761,1998-08-14 06:00:00,20,1011.5,0.4,56,11,18000,14.816,,,60,16.7,25,,,,,,,,,wg-a,,,,AAXX 14064 07761 02468 /0608 10200 20110 30104 40115 53004 60006 81500 90600 333 10250 20167 60004=
07761,1998-08-14 09:00:00,27,1011.6,0.2,70,21,15000,7.408,,,270,,,,,,,,,,,wg-a,,,,AAXX 14094 07761 12/65 02704 10270 20210 30106 40116 51002 60006 80000 90900=
07761,1998-08-14 12:00:00,28,1011.9,0.3,74,23,12000,18.52,,,230,,,,,,,,,,,wg-a,,,,AAXX 14124 07761 12/62 02310 10280 20230 30109 40119 53003 60006 80000 91200=
07761,1998-08-14 15:00:00,28,1011.7,-0.2,74,23,9000,14.816,,,220,,,,,,,,,,,wg-a,,,,AAXX 14154 07761 12659 /2208 10280 20230 30107 40117 55002 60006 81900 91500=
07761,1998-08-15 03:00:00,19,1013.9,-0,83,16,15000,11.112,,,60,,,,,,,,,,,wg-a,,,,AAXX 15034 07761 12/65 00606 10190 20160 30128 40139 54000 60006 80000 90300=
07761,1998-08-15 06:00:00,20,1014.9,1,73,15,15000,11.112,,,60,17.4,25.7,,,,,,,,,wg-a,,,,AAXX 15064 07761 02/65 00606 10200 20150 30138 40149 52010 60006 80000 90600 333 10257 20174 60004=
07761,1998-08-15 09:00:00,26,1015.4,0.6,74,21,13000,11.112,,,220,,,,,,,,,,,wg-a,,,,AAXX 15094 07761 12/63 02206 10260 20210 30144 40154 51006 60006 80000 90900=
07761,1998-08-15 12:00:00,28,1016.1,0.7,70,22,18000,25.928,,,220,,,,,,,,,,,wg-a,,,,AAXX 15124 07761 12668 /2214 10280 20220 30151 40161 53007 60006 81200 91200=
07761,1998-08-15 15:00:00,28,1015.7,-0.4,70,22,18000,25.928,,,190,,,,,,,,,,,wg-a,,,,AAXX 15154 07761 12668 /1914 10280 20220 30147 40157 56004 60006 81300 91500=
07761,1998-08-15 18:00:00,27,1015.4,-0.3,66,20,20000,11.112,,,190,19.8,29,,,,,,,,,wg-a,,,,AAXX 15184 07761 12/70 01906 10270 20200 30144 40154 55003 60006 80000 91800 333 10290 20198=
07761,1998-08-16 15:00:00,28,1018.3,-0.5,70,22,10000,22.224,,,250,,,,,,,,,,,wg-a,,,,AAXX 16154 07761 12760 /2512 10280 20220 30173 40183 58005 60006 81200 91500=
07761,1998-08-16 21:00:00,23,1018.8,0.6,69,17,15000,7.408,,,80,,,,,,,,,,,wg-a,,,,AAXX 16214 07761 12/65 00804 10230 20170 30178 40188 50006 60006 80000 92100=
07761,1998-08-17 00:00:00,20,1017.4,-1.5,68,14,15000,11.112,,,50,,,,,,,,,,,wg-a,,,,AAXX 17004 07761 12/65 00506 10200 20140 30163 40174 58015 60006 80000 90000=
07761,1998-08-17 03:00:00,19,1016.5,-0.9,68,13,15000,14.816,,,50,,,,,,,,,,,wg-a,,,,AAXX 17034 07761 12/65 00508 10190 20130 30154 40165 57009 60006 80000 90300=
07761,1998-08-17 06:00:00,20,1018.5,2,64,13,15000,14.816,,,60,17.8,27.1,,,,,,,,,wg-a,,,,AAXX 17064 07761 02665 30608 10200 20130 30174 40185 53020 60006 81880 90600 333 10271 20178 60004=
07761,1998-08-17 09:00:00,29,1018,-0.4,52,18,15000,7.408,,,260,,,,,,,,,,,wg-a,,,,AAXX 17094 07761 12765 /2604 10290 20180 30170 40180 57004 60006 81180 90900=
07761,1998-08-17 12:00:00,29,1017,-1,70,23,10000,18.52,,,220,,,,,,,,,,,wg-a,,,,AAXX 17124 07761 12760 /2210 10290 20230 30160 40170 58010 60006 81240 91200=
07761,1998-08-17 15:00:00,28,1015.4,-1.6,74,23,10000,29.632,,,200,,,,,,,,,,,wg-a,,,,AAXX 17154 07761 12760 /2016 10280 20230 30144 40154 56016 60006 81302 91500=
07761,1998-08-17 18:00:00,26,1015.4,-0,79,22,10000,18.52,,,190,20,29,,,,,,,,,wg-a,,,,AAXX 17184 07761 12/60 11910 10260 20220 30144 40154 55000 60006 80001 91800 333 10290 20200=
07761,1998-08-17 21:00:00,23,1016.7,1.3,89,21,12000,11.112,,,60,,,,,,,,,,,wg-a,,,,AAXX 17214 07761 12/62 10606 10230 20210 30157 40167 51013 60006 80002 92100=
07761,1998-08-18 03:00:00,19,1015.7,-0.7,83,16,12000,7.408,,,50,,,,,,,,,,,wg-a,,,,AAXX 18034 07761 12/62 00504 10190 20160 30146 40157 55007 60006 80000 90300=
07761,1998-08-18 06:00:00,21,1015.5,-0.2,73,16,18000,7.408,,,80,18.3,26,,,,,,,,,wg-a,,,,AAXX 18064 07761 02/68 50804 10210 20160 30144 40155 55002 60006 83072 90600 333 10260 20183 60004=
07761,1998-08-18 09:00:00,26,1015.6,0.2,61,18,18000,3.704,,,240,,,,,,,,,,,wg-a,,,,AAXX 18094 07761 12/68 72402 10260 20180 30146 40156 50002 60006 8707/ 90900=
07761,1998-08-18 15:00:00,26,1014.5,-0.7,79,22,12000,7.408,,,210,,,,,,,,,,1,wg-a,,,,AAXX 18154 07761 02662 82104 10260 20220 30135 40145 58007 61000 70162 81872 91500 333 ////=
07761,1998-08-18 18:00:00,26,1012.6,-1.9,74,21,12000,11.112,,,40,21.4,27.1,,,,,,,,2,wg-a,,,,AAXX 18184 07761 12662 80406 10260 20210 30116 40126 58019 60006 70262 81872 91800 333 10271 20214=
07761,1998-08-18 21:00:00,24,1014.7,2.1,78,20,15000,3.704,,,90,,,,,,,,,,,wg-a,,,,AAXX 18214 07761 12465 70902 10240 20200 30137 40147 51021 60006 8257/ 92100=
07761,1998-08-19 00:00:00,22,1014.6,-0.1,83,19,15000,7.408,,,50,,,,,,,,,,,wg-a,,,,AAXX 19004 07761 12565 20504 10220 20190 30136 40146 58001 60006 81530 90000=
07761,1998-08-19 03:00:00,20,1014,-0.7,83,17,15000,11.112,,,40,,,,,,,,,,,wg-a,,,,AAXX 19034 07761 12/65 20406 10200 20170 30129 40140 56007 60006 82030 90300=
07761,1998-08-19 06:00:00,21,1014.2,0.2,78,17,15000,7.408,,,50,19,25.7,,,,,,,,,wg-a,,,,AAXX 19064 07761 02/65 00504 10210 20170 30131 40142 53002 60006 80000 90600 333 10257 20190 61000=
07761,1998-08-19 09:00:00,27,1014.8,0.7,74,22,15000,11.112,,,240,,,,,,,,,,,wg-a,,,,AAXX 19094 07761 12565 /2406 10270 20220 30138 40148 53007 60006 81100 90900=
07761,1998-08-19 12:00:00,28,1014.7,-0.1,66,21,20000,25.928,,,230,,,,,,,,,,,wg-a,,,,AAXX 19124 07761 12670 /2314 10280 20210 30137 40147 57001 60006 81200 91200=
07761,1998-08-19 15:00:00,27,1014.1,-0.6,70,21,20000,14.816,,,220,,,,,,,,,,,wg-a,,,,AAXX 19154 07761 12670 22208 10270 20210 30131 40141 56006 60006 82900 91500=
07761,1998-08-19 18:00:00,25,1014.2,0.1,79,21,20000,11.112,,,220,20.8,28.3,,,,,,,,,wg-a,,,,AAXX 19184 07761 12570 /2206 10250 20210 30132 40142 53001 60006 81400 91800 333 10283 20208=
07761,1998-08-19 21:00:00,24,1015.6,1.4,83,21,15000,3.704,,,60,,,,,,,,,,,wg-a,,,,AAXX 19214 07761 12465 70602 10240 20210 30146 40156 51014 60006 875// 92100=
07761,1998-08-20 00:00:00,24,1015.5,-0.1,78,20,15000,7.408,,,60,,,,,,,,,,,wg-a,,,,AAXX 20004 07761 12665 /0604 10240 20200 30145 40155 58001 60006 81500 90000=
07761,1998-08-20 03:00:00,20,1015.4,-0.2,88,18,15000,7.408,,,50,,,,,,,,,,,wg-a,,,,AAXX 20034 07761 12/65 00504 10200 20180 30143 40154 55002 60006 80000 90300=
07761,1998-08-20 06:00:00,21,1015.6,0.2,83,18,15000,7.408,,,50,19.5,25.4,,,,,,,,,wg-a,,,,AAXX 20064 07761 02/65 10504 10210 20180 30145 40156 53002 60006 80001 90600 333 10254 20195 60004=
07761,1998-08-20 09:00:00,27,1015.9,0.4,66,20,15000,11.112,,,230,,,,,,,,,,,wg-a,,,,AAXX 20094 07761 12565 22306 10270 20200 30149 40159 51004 60006 81201 90900=
07761,1998-08-20 12:00:00,28,1015.5,-0.4,70,22,12000,25.928,,,230,,,,,,,,,,17,wg-a,,,,AAXX 20124 07761 12662 22314 10280 20220 30145 40155 56004 60006 71790 82901 91200=
07761,1998-08-20 15:00:00,28,1015.6,0.1,66,21,12000,18.52,,,220,,,,,,,,,,17,wg-a,,,,AAXX 20154 07761 12662 32210 10280 20210 30146 40156 51001 60006 71790 83982 91500=
07761,1998-08-20 18:00:00,26,1014.6,-1,74,21,20000,14.816,,,200,20.8,28.4,,,,,,,,1,wg-a,,,,AAXX 20184 07761 12/70 /2008 10260 20210 30136 40146 56010 60006 70190 80000 91800 333 10284 20208=
07761,1998-08-20 21:00:00,23,1015.9,1.3,65,16,15000,14.816,,,40,,,,,,,,,,,wg-a,,,,AAXX 20214 07761 12465 50408 10230 20160 30149 40159 52013 60006 85500 92100=
07761,1998-08-21 00:00:00,21,1015.4,-0.6,69,15,15000,14.816,,,40,,,,,,,,,,,wg-a,,,,AAXX 21004 07761 12565 /0408 10210 20150 30143 40154 58006 60006 81500 90000=
07761,1998-08-21 03:00:00,19,1014.6,-0.8,78,15,15000,14.816,,,50,,,,,,,,,,,wg-a,,,,AAXX 21034 07761 12/65 /0508 10190 20150 30135 40146 57008 60006 80000 90300=
07761,1998-08-21 06:00:00,20,1014.8,0.2,73,15,20000,14.816,,,50,18.4,25.5,,,,,,,,,wg-a,,,,AAXX 21064 07761 02/70 00508 10200 20150 30137 40148 53002 60006 80000 90600 333 10255 20184 60004=
07761,1998-08-21 09:00:00,27,1014.6,-0.1,70,21,25000,11.112,,,230,,,,,,,,,,,wg-a,,,,AAXX 21094 07761 12775 /2306 10270 20210 30136 40146 55001 60006 81200 90900=
07761,1998-08-21 12:00:00,28,1014.5,-0.1,70,22,11000,31.484,,,240,,,,,,,,,,,wg-a,,,,AAXX 21124 07761 12/61 /2417 10280 20220 30135 40145 58001 60006 91200=
07761,1998-08-21 15:00:00,28,1014.2,-0.3,58,19,15000,29.632,,,240,,,,,,,,,,,wg-a,,,,AAXX 21154 07761 12665 /2416 10280 20190 30132 40142 58003 60006 81201 91500=
07761,1998-08-21 18:00:00,25,1014,-0.2,61,17,20000,25.928,,,250,19.8,28.7,,,,,,,,,wg-a,,,,AAXX 21184 07761 12670 32514 10250 20170 30130 40140 55002 60006 83802 91800 333 10287 20198=
07761,1998-08-21 21:00:00,22,1014.9,0.9,69,16,15000,7.408,,,60,,,,,,,,,,,wg-a,,,,AAXX 21214 07761 12/65 /0604 10220 20160 30139 40149 51009 60006 80000 92100=
07761,1998-08-22 00:00:00,19,1014.1,-0.9,83,16,15000,14.816,,,50,,,,,,,,,,,wg-a,,,,AAXX 22004 07761 12665 /0508 10190 20160 30130 40141 57009 60006 81500 90000=
07761,1998-08-22 03:00:00,19,1012.5,-1.6,78,15,15000,11.112,,,40,,,,,,,,,,,wg-a,,,,AAXX 22034 07761 12/65 /0406 10190 20150 30114 40125 56016 60006 80000 90300=
07761,1998-08-22 06:00:00,20,1012.5,-0,73,15,20000,14.816,,,50,18.5,24.8,,,,,,,,,wg-a,,,,AAXX 22064 07761 02570 30508 10200 20150 30114 40125 55000 60006 83800 90600 333 10248 20185 60004=
07761,1998-08-22 09:00:00,26,1012.6,0.2,58,17,25000,18.52,,,310,,,,,,,,,,,wg-a,,,,AAXX 22094 07761 12675 43110 10260 20170 30116 40126 53002 60006 84200 90900=
07761,1998-08-22 12:00:00,27,1012.3,-0.3,54,17,25000,22.224,,,290,,,,,,,,,,,wg-a,,,,AAXX 22124 07761 12675 52912 10270 20170 30113 40123 55003 60006 85200 91200=
07761,1998-08-22 15:00:00,27,1011.6,-0.7,58,18,25000,25.928,,,300,,,,,,,,,,,wg-a,,,,AAXX 22154 07761 12675 33014 10270 20180 30106 40116 56007 60006 83200 91500=
07761,1998-08-22 18:00:00,25,1011.3,-0.3,65,18,20000,11.112,,,300,20,28,,,,,,,,,wg-a,,,,AAXX 22184 07761 12570 /3006 10250 20180 30103 40113 55003 60006 81401 91800 333 10280 20200=
07761,1998-08-22 21:00:00,22,1012.1,0.8,73,17,15000,14.816,,,60,,,,,,,,,,,wg-a,,,,AAXX 22214 07761 12665 40608 10220 20170 30111 40121 50008 60006 84500 92100=
07761,1998-08-23 00:00:00,21,1011.4,-0.7,78,17,15000,7.408,,,70,,,,,,,,,,,wg-a,,,,AAXX 23004 07761 12665 /0704 10210 20170 30104 40114 57007 60006 81500 90000=
07761,1998-08-23 03:00:00,19,1010.7,-0.8,83,16,15000,11.112,,,50,,,,,,,,,,,wg-a,,,,AAXX 23034 07761 12/65 00506 10190 20160 30096 40107 58008 60006 80000 90300=
07761,1998-08-23 06:00:00,21,1011.2,0.6,78,17,20000,7.408,,,60,18.2,25.2,,,,,,,,,wg-a,,,,AAXX 23064 07761 02670 20604 10210 20170 30102 40112 53006 60006 82200 90600 333 10252 20182 60004=
07761,1998-08-23 09:00:00,27,1011.5,0.3,62,19,25000,22.224,,,230,,,,,,,,,,,wg-a,,,,AAXX 23094 07761 12675 22312 10270 20190 30105 40115 53003 60006 82200 90900=
07761,1998-08-23 12:00:00,27,1011.9,0.4,66,20,25000,29.632,,,230,,,,,,,,,,,wg-a,,,,AAXX 23124 07761 12675 22316 10270 20200 30109 40119 52004 60006 82100 91200=
07761,1998-08-23 15:00:00,26,1011.9,0,70,20,25000,18.52,,,220,,,,,,,,,,,wg-a,,,,AAXX 23154 07761 12675 /2210 10260 20200 30109 40119 50000 60006 81100 91500=
07761,1998-08-23 18:00:00,24,1011.8,-0.1,78,20,20000,11.112,,,210,20.5,27.3,,,,,,,,,wg-a,,,,AAXX 23184 07761 12/70 12106 10240 20200 30108 40118 55001 60006 80001 91800 333 10273 20205=
07761,1998-08-23 21:00:00,21,1013.3,1.5,83,18,20000,11.112,,,60,,,,,,,,,,,wg-a,,,,AAXX 23214 07761 12/70 00606 10210 20180 30123 40133 51015 60006 80000 92100=
07761,1998-08-24 00:00:00,20,1013.2,-0.2,83,17,15000,11.112,,,50,,,,,,,,,,,wg-a,,,,AAXX 24004 07761 12/65 00506 10200 20170 30121 40132 58002 60006 80000 90000=
07761,1998-08-24 03:00:00,18,1013,-0.2,88,16,15000,14.816,,,50,,,,,,,,,,,wg-a,,,,AAXX 24034 07761 12/65 00508 10180 20160 30119 40130 56002 60006 80000 90300=
07761,1998-08-24 06:00:00,19,1012.9,-0.1,83,16,17000,11.112,,,50,17.9,24.2,,,,,,,,,wg-a,,,,AAXX 24064 07761 02567 /0506 10190 20160 30118 40129 55001 60006 81500 90600 333 10242 20179 60004=
07761,1998-08-24 09:00:00,26,1013.3,0.5,65,19,20000,11.112,,,240,,,,,,,,,,,wg-a,,,,AAXX 24094 07761 12570 /2406 10260 20190 30123 40133 53005 60006 81800 90900=
07761,1998-08-24 12:00:00,26,1013.5,0.2,74,21,25000,22.224,,,220,,,,,,,,,,,wg-a,,,,AAXX 24124 07761 12775 /2212 10260 20210 30125 40135 52002 60006 81100 91200=
07761,1998-08-24 15:00:00,26,1013,-0.5,61,18,20000,22.224,,,220,,,,,,,,,,,wg-a,,,,AAXX 24154 07761 12770 /2212 10260 20180 30120 40130 58005 60006 81102 91500=
07761,1998-08-24 18:00:00,24,1012.7,-0.3,69,18,20000,3.704,,,200,19.4,27,,,,,,,,,wg-a,,,,AAXX 24184 07761 12/70 /2002 10240 20180 30117 40127 55003 60006 81042 91800 333 10270 20194=
07761,1998-08-24 21:00:00,20,1013.6,0.8,83,17,20000,11.112,,,50,,,,,,,,,,,wg-a,,,,AAXX 24214 07761 12/70 00506 10200 20170 30125 40136 51008 60006 80000 92100=
07761,1998-08-25 00:00:00,18,1013.3,-0.3,83,15,20000,11.112,,,50,,,,,,,,,,,wg-a,,,,AAXX 25004 07761 12/70 00506 10180 20150 30122 40133 57003 60006 80000 90000=
07761,1998-08-25 03:00:00,18,1013,-0.3,77,14,20000,18.52,,,50,,,,,,,,,,,wg-a,,,,AAXX 25034 07761 12/70 00510 10180 20140 30119 40130 56003 60006 80000 90300=
07761,1998-08-25 06:00:00,19,1012.7,-0.3,78,15,20000,11.112,,,50,16.9,24,,,,,,,,,wg-a,,,,AAXX 25064 07761 02/70 /0506 10190 20150 30116 40127 56003 60006 80000 90600 333 10240 20169 60004=
07761,1998-08-25 09:00:00,25,1013.9,1.3,57,16,500,14.816,,,220,,,,,,,,,,,wg-a,,,,AAXX 25094 07761 12700 /2208 10250 20160 30129 40139 53013 60006 81101 90900=
07761,1998-08-25 12:00:00,25,1014.2,0.3,61,17,500,22.224,,,220,,,,,,,,,,,wg-a,,,,AAXX 25124 07761 12600 /2212 10250 20170 30132 40142 50003 60006 81100 91200=
07761,1998-08-25 15:00:00,25,1013.9,-0.3,57,16,500,18.52,,,220,,,,,,,,,,,wg-a,,,,AAXX 25154 07761 12600 /2210 10250 20160 30129 40139 58003 60006 81100 91500=
07761,1998-08-25 18:00:00,23,1014.6,0.7,65,16,500,11.112,,,240,18.6,25.9,,,,,,,,,wg-a,,,,AAXX 25184 07761 12600 /2406 10230 20160 30136 40146 53007 60006 81100 91800 333 10259 20186=
07761,1998-08-25 21:00:00,20,1016.2,1.5,73,15,20000,7.408,,,40,,,,,,,,,,,wg-a,,,,AAXX 25214 07761 12/70 00404 10200 20150 30151 40162 51015 60006 80000 92100=
07761,1998-08-26 00:00:00,18,1016.6,0.4,83,15,20000,11.112,,,40,,,,,,,,,,,wg-a,,,,AAXX 26004 07761 12/70 00406 10180 20150 30155 40166 50004 60006 80000 90000=
07761,1998-08-26 03:00:00,17,1015.9,-0.7,82,14,20000,11.112,,,40,,,,,,,,,,,wg-a,,,,AAXX 26034 07761 12/70 00406 10170 20140 30148 40159 56007 60006 80000 90300=
07761,1998-08-26 06:00:00,18,1016.3,0.4,83,15,20000,11.112,,,60,16.1,22.6,,,,,,,,,wg-a,,,,AAXX 26064 07761 02570 /0606 10180 20150 30152 40163 53004 60006 81500 90600 333 10226 20161 60004=
07761,1998-08-26 09:00:00,26,1016,-0.2,61,18,25000,14.816,,,260,,,,,,,,,,,wg-a,,,,AAXX 26094 07761 12675 12608 10260 20180 30150 40160 58002 60006 81100 90900=
07761,1998-08-26 12:00:00,26,1015.7,-0.3,70,20,25000,22.224,,,220,,,,,,,,,,,wg-a,,,,AAXX 26124 07761 12675 /2212 10260 20200 30147 40157 58003 60006 81100 91200=
07761,1998-08-26 15:00:00,26,1014.8,-0.9,58,17,25000,14.816,,,220,,,,,,,,,,,wg-a,,,,AAXX 26154 07761 12/75 02208 10260 20170 30138 40148 56009 60006 80000 91500=
07761,1998-08-26 18:00:00,23,1014,-0.8,69,17,25000,14.816,,,230,18.2,27,,,,,,,,,wg-a,,,,AAXX 26184 07761 12/75 12308 10230 20170 30130 40140 56008 60006 81041 91800 333 10270 20182=
07761,1998-08-26 21:00:00,20,1014.4,0.3,73,15,15000,11.112,,,50,,,,,,,,,,,wg-a,,,,AAXX 26214 07761 12/65 00506 10200 20150 30133 40144 50003 60006 80000 92100=
07761,1998-08-27 00:00:00,17,1014.4,0,82,14,18000,14.816,,,60,,,,,,,,,,,wg-a,,,,AAXX 27004 07761 12/68 00608 10170 20140 30133 40144 50000 60006 80000 90000=
07761,1998-08-27 03:00:00,15,1013.1,-1.3,88,13,10000,11.112,,,50,,,,,,,,,,,wg-a,,,,AAXX 27034 07761 12/60 /0506 10150 20130 30120 40131 56013 60006 90300=
07761,1998-08-27 06:00:00,18,1012.3,-0.8,68,12,35000,18.52,,,50,15.2,23.2,,,,,,,,,wg-a,,,,AAXX 27064 07761 02581 50510 10180 20120 30112 40123 56008 60006 81580 90600 333 10232 20152 60004=
07761,1998-08-27 09:00:00,27,1012,-0.2,62,19,35000,14.816,,,220,,,,,,,,,,,wg-a,,,,AAXX 27094 07761 12681 42208 10270 20190 30110 40120 56002 60006 82282 90900=
07761,1998-08-27 12:00:00,27,1010,-2,70,21,25000,18.52,,,220,,,,,,,,,,,wg-a,,,,AAXX 27124 07761 12675 22210 10270 20210 30090 40100 58020 60006 81282 91200=
07761,1998-08-27 15:00:00,26,1008.9,-1.1,84,23,15000,25.928,,,240,,,,,,,,,,,wg-a,,,,AAXX 27154 07761 12465 32414 10260 20230 30079 40089 56011 60006 83200 91500=
07761,1998-08-27 18:00:00,24,1007.9,-1,89,22,12000,14.816,,,210,17.3,27.6,,,,,,,,,wg-a,,,,AAXX 27184 07761 12362 /2108 10240 20220 30069 40079 57010 60006 84201 91800 333 10276 20173=
07761,1998-08-27 21:00:00,23,1008,0.1,83,20,15000,0,,,0,,,,,,,,,,,wg-a,,,,AAXX 27214 07761 12465 /0000 10230 20200 30070 40080 50001 60006 81500 92100=
07761,1998-08-28 00:00:00,21,1006.4,-1.6,78,17,15000,11.112,,,80,,,,,,,,,,,wg-a,,,,AAXX 28004 07761 12465 /0806 10210 20170 30054 40064 58016 60006 81500 90000=
07761,1998-08-28 03:00:00,19,1005.3,-1.1,83,16,15000,11.112,,,40,,,,,,,,,,,wg-a,,,,AAXX 28034 07761 12465 30406 10190 20160 30043 40053 56011 60006 81530 90300=
07761,1998-08-28 06:00:00,18,1005.7,0.3,83,15,20000,11.112,,,50,17.7,24.4,,,,,,,,,wg-a,,,,AAXX 28064 07761 02570 /0506 10180 20150 30046 40057 53003 60006 82532 90600 333 10244 20177 60004=
07761,1998-08-28 09:00:00,23,1006.1,0.5,61,15,20000,18.52,,,220,,,,,,,,,,,wg-a,,,,AAXX 28094 07761 12570 52210 10230 20150 30051 40061 53005 60006 83832 90900=
07761,1998-08-28 12:00:00,25,1006.3,0.2,50,14,11000,14.816,,,220,,,,,,,,,,,wg-a,,,,AAXX 28124 07761 12/61 /2208 10250 20140 30053 40063 51002 60006 91200=
07761,1998-08-28 15:00:00,25,1006.2,-0.1,61,17,15000,7.408,,,230,,,,,,,,,,,wg-a,,,,AAXX 28154 07761 12665 52304 10250 20170 30052 40062 58001 60006 83832 91500=
07761,1998-08-28 18:00:00,23,1006.9,0.7,57,14,15000,11.112,,,180,17.7,25.3,,,,,,,,,wg-a,,,,AAXX 28184 07761 12665 31806 10230 20140 30059 40069 53007 60006 81832 91800 333 10253 20177=
07761,1998-08-28 21:00:00,20,1009.4,2.5,73,15,15000,7.408,,,30,,,,,,,,,,,wg-a,,,,AAXX 28214 07761 12765 30304 10200 20150 30084 40094 51025 60006 82530 92100=
07761,1998-08-29 00:00:00,16,1009.8,0.3,82,13,15000,11.112,,,70,,,,,,,,,,,wg-a,,,,AAXX 29004 07761 12/65 00706 10160 20130 30087 40098 50003 60006 80000 90000=
07761,1998-08-29 03:00:00,14,1010.9,1.1,82,11,10000,11.112,,,50,,,,,,,,,,,wg-a,,,,AAXX 29034 07761 12/60 /0506 10140 20110 30098 40109 53011 60006 90300=
07761,1998-08-29 06:00:00,15,1012.3,1.4,72,10,500,11.112,,,70,13.2,23.1,,,,,,,,,wg-a,,,,AAXX 29064 07761 02700 /0706 10150 20100 30112 40123 53014 60006 81501 90600 333 10231 20132 60004=
07761,1998-08-29 09:00:00,24,1013.3,1.1,44,11,25000,14.816,,,250,,,,,,,,,,,wg-a,,,,AAXX 29094 07761 12675 12508 10240 20110 30123 40133 53011 60006 81100 90900=
07761,1998-08-29 12:00:00,25,1014.1,0.8,47,13,40000,22.224,,,240,,,,,,,,,,,wg-a,,,,AAXX 29124 07761 12682 /2412 10250 20130 30131 40141 51008 60006 81100 91200=
07761,1998-08-29 15:00:00,25,1013.8,-0.3,47,13,40000,25.928,,,220,,,,,,,,,,,wg-a,,,,AAXX 29154 07761 12682 /2214 10250 20130 30128 40138 58003 60006 81200 91500=
07761,1998-08-29 18:00:00,23,1014.3,0.5,47,11,40000,7.408,,,350,15.2,25.2,,,,,,,,,wg-a,,,,AAXX 29184 07761 12/82 03504 10230 20110 30133 40143 53005 60006 80000 91800 333 10252 20152=
07761,1998-08-29 21:00:00,18,1016.1,1.7,59,10,15000,14.816,,,50,,,,,,,,,,,wg-a,,,,AAXX 29214 07761 12/65 00508 10180 20100 30150 40161 51017 60006 80000 92100=
07761,1998-08-30 00:00:00,16,1016.5,0.4,68,10,15000,14.816,,,40,,,,,,,,,,,wg-a,,,,AAXX 30004 07761 12/65 00408 10160 20100 30154 40165 50004 60006 80000 90000=
07761,1998-08-30 03:00:00,14,1017,0.5,77,10,15000,14.816,,,60,,,,,,,,,,,wg-a,,,,AAXX 30034 07761 12/65 00608 10140 20100 30159 40170 53005 60006 80000 90300=
07761,1998-08-30 06:00:00,16,1017.7,0.7,68,10,20000,14.816,,,40,13.7,22.8,,,,,,,,,wg-a,,,,AAXX 30064 07761 02/70 /0408 10160 20100 30166 40177 53007 60006 80001 90600 333 10228 20137 60004=
07761,1998-08-30 09:00:00,24,1018,0.4,50,13,25000,11.112,,,250,,,,,,,,,,,wg-a,,,,AAXX 30094 07761 12675 32506 10240 20130 30170 40180 53004 60006 82101 90900=
07761,1998-08-30 12:00:00,25,1017.8,-0.2,54,15,25000,25.928,,,240,,,,,,,,,,,wg-a,,,,AAXX 30124 07761 12675 32414 10250 20150 30168 40178 57002 60006 83100 91200=
07761,1998-08-30 18:00:00,23,1017.1,-0.2,57,14,25000,7.408,,,330,16,25.7,,,,,,,,,wg-a,,,,AAXX 30184 07761 12675 33304 10230 20140 30161 40171 57002 60006 81401 91800 333 10257 20160=
07761,1998-08-30 21:00:00,19,1017.8,0.6,68,13,15000,11.112,,,50,,,,,,,,,,,wg-a,,,,AAXX 30214 07761 12/65 40506 10190 20130 30167 40178 51006 60006 80001 92100=
07761,1998-08-31 00:00:00,16,1017.5,-0.3,77,12,15000,11.112,,,40,,,,,,,,,,,wg-a,,,,AAXX 31004 07761 12/65 40406 10160 20120 30164 40175 58003 60006 80001 90000=
07761,1998-08-31 03:00:00,15,1016.9,-0.6,77,11,15000,11.112,,,50,,,,,,,,,,,wg-a,,,,AAXX 31034 07761 12/65 00506 10150 20110 30158 40169 55006 60006 80000 90300=
07761,1998-08-31 06:00:00,15,1017.3,0.4,72,10,500,14.816,,,40,13.1,22.5,,,,,,,,,wg-a,,,,AAXX 31064 07761 02/00 00408 10150 20100 30162 40173 53004 60006 80000 90600 333 10225 20131 60004=
07761,1998-08-31 09:00:00,25,1017.9,0.7,44,12,40000,7.408,,,240,,,,,,,,,,,wg-a,,,,AAXX 31094 07761 12/82 02404 10250 20120 30169 40179 52007 60006 80000 90900=
07761,1998-08-31 12:00:00,26,1016.3,-1.6,54,16,40000,14.816,,,230,,,,,,,,,,,wg-a,,,,AAXX 31124 07761 12682 22308 10260 20160 30153 40163 58016 60006 81102 91200=
07761,1998-08-31 15:00:00,26,1015.9,-0.4,51,15,11000,18.52,,,220,,,,,,,,,,,wg-a,,,,AAXX 31154 07761 12/61 /2210 10260 20150 30149 40159 58004 60006 91500=
07761,1998-08-31 18:00:00,24,1015.7,-0.2,50,13,50000,11.112,,,180,15.1,26.3,,,,,,,,,wg-a,,,,AAXX 31184 07761 12/84 11806 10240 20130 30147 40157 58002 60006 80002 91800 333 10263 20151=
07761,1998-08-31 21:00:00,19,1016.7,0.9,64,12,500,11.112,,,50,,,,,,,,,,,wg-a,,,,AAXX 31214 07761 12/00 10506 10190 20120 30156 40167 51009 60006 80001 92100=
07761,1998-09-01 00:00:00,16,1016.4,-0.3,72,11,15000,11.112,,,50,,,,,,,,,,,wg-a,,,,AAXX 01004 07761 12/65 10506 10160 20110 30153 40164 57003 60006 80001 90000=
07761,1998-09-01 03:00:00,16,1016.4,-0,68,10,15000,14.816,,,40,,,,,,,,,,,wg-a,,,,AAXX 01034 07761 12/65 00408 10160 20100 30153 40164 55000 60006 80000 90300=
07761,1998-09-01 06:00:00,18,1017.4,1,64,11,20000,11.112,,,40,15.3,23.7,,,,,,,,,wg-a,,,,AAXX 01064 07761 02/70 /0406 10180 20110 30163 40174 53010 60006 81042 90600 333 10237 20153 60004=
07761,1998-09-01 09:00:00,30,1016.9,-0.4,31,11,20000,7.408,,,260,,,,,,,,,,,wg-a,,,,AAXX 01094 07761 12/70 62604 10300 20110 30159 40169 58004 60006 80002 90900=
07761,1998-09-01 12:00:00,29,1016.8,-0.1,45,16,20000,14.816,,,240,,,,,,,,,,,wg-a,,,,AAXX 01124 07761 12/70 /2408 10290 20160 30158 40168 58001 60006 81032 91200=
07761,1998-09-01 15:00:00,28,1015.9,-0.9,55,18,20000,18.52,,,220,,,,,,,,,,,wg-a,,,,AAXX 01154 07761 12/70 22210 10280 20180 30149 40159 55009 60006 80001 91500=
07761,1998-09-01 18:00:00,25,1016.1,0.2,69,19,20000,7.408,,,160,17.9,29.9,,,,,,,,,wg-a,,,,AAXX 01184 07761 12/70 31604 10250 20190 30151 40161 53002 60006 80001 91800 333 10299 20179=
07761,1998-09-01 21:00:00,21,1016.9,0.7,73,16,20000,11.112,,,40,,,,,,,,,,,wg-a,,,,AAXX 01214 07761 12/70 30406 10210 20160 30158 40169 51007 60006 80001 92100=
07761,1998-09-02 00:00:00,19,1016.4,-0.5,78,15,20000,11.112,,,60,,,,,,,,,,,wg-a,,,,AAXX 02004 07761 12/70 30606 10190 20150 30153 40164 57005 60006 80001 90000=
07761,1998-09-02 03:00:00,18,1016.1,-0.3,73,13,20000,11.112,,,50,,,,,,,,,,,wg-a,,,,AAXX 02034 07761 12/70 30506 10180 20130 30150 40161 56003 60006 80001 90300=
07761,1998-09-02 06:00:00,20,1015.2,-0.9,56,11,25000,11.112,,,90,17.4,25.3,,,,,,,,,wg-a,,,,AAXX 02064 07761 02/75 40906 10200 20110 30141 40152 56009 60006 80001 90600 333 10253 20174 60004=
07761,1998-09-02 09:00:00,27,1015.6,0.5,51,16,25000,7.408,,,200,,,,,,,,,,,wg-a,,,,AAXX 02094 07761 12/75 32004 10270 20160 30146 40156 53005 60006 80001 90900=
07761,1998-09-02 12:00:00,29,1014,-1.6,55,19,20000,14.816,,,200,,,,,,,,,,,wg-a,,,,AAXX 02124 07761 12/70 22008 10290 20190 30130 40140 58016 60006 80001 91200=
07761,1998-09-02 15:00:00,28,1013.9,-0.1,62,20,20000,18.52,,,190,,,,,,,,,,,wg-a,,,,AAXX 02154 07761 12670 /1910 10280 20200 30129 40139 58001 60006 81200 91500=
07761,1998-09-02 18:00:00,26,1013.9,0,70,20,25000,3.704,,,240,19.7,29.6,,,,,,,,,wg-a,,,,AAXX 02184 07761 12/75 12402 10260 20200 30129 40139 50000 60006 80001 91800 333 10296 20197=
07761,1998-09-02 21:00:00,22,1014.7,0.7,69,16,500,7.408,,,60,,,,,,,,,,,wg-a,,,,AAXX 02214 07761 12/00 00604 10220 20160 30136 40147 51007 60006 80000 92100=
07761,1998-09-03 00:00:00,19,1015,0.3,78,15,500,14.816,,,50,,,,,,,,,,,wg-a,,,,AAXX 03004 07761 12/00 00508 10190 20150 30139 40150 50003 60006 80000 90000=
07761,1998-09-03 03:00:00,19,1014.4,-0.6,78,15,500,11.112,,,50,,,,,,,,,,,wg-a,,,,AAXX 03034 07761 12/00 00506 10190 20150 30133 40144 56006 60006 80000 90300=
07761,1998-09-03 06:00:00,20,1014.9,0.5,73,15,25000,11.112,,,60,18.6,25.4,,,,,,,,,wg-a,,,,AAXX 03064 07761 02/75 60606 10200 20150 30138 40149 53005 60006 80004 90600 333 10254 20186 60004=
07761,1998-09-03 09:00:00,27,1014.9,0.1,58,18,25000,7.408,,,210,,,,,,,,,,,wg-a,,,,AAXX 03094 07761 12/75 32104 10270 20180 30139 40149 53001 60006 80002 90900=
07761,1998-09-03 12:00:00,29,1013.9,-1,66,22,25000,14.816,,,210,,,,,,,,,,,wg-a,,,,AAXX 03124 07761 12/75 62108 10290 20220 30129 40139 56010 60006 80004 91200=
07761,1998-09-03 15:00:00,28,1013.6,-0.3,70,22,25000,18.52,,,200,,,,,,,,,,,wg-a,,,,AAXX 03154 07761 12675 22010 10280 20220 30126 40136 58003 60006 81201 91500=
07761,1998-09-03 18:00:00,25,1013.5,-0.1,83,22,18000,11.112,,,200,20,29,,,,,,,,,wg-a,,,,AAXX 03184 07761 12/68 22006 10250 20220 30125 40135 55001 60006 80001 91800 333 10290 20200=
07761,1998-09-04 00:00:00,21,1014.3,-0.4,83,18,8000,7.408,,,60,,,,,,,,,,,wg-a,,,,AAXX 04004 07761 12458 70604 10210 20180 30132 40143 58004 60006 86501 90000=
07761,1998-09-04 03:00:00,22,1013.7,-0.5,83,19,10000,3.704,,,40,,,,,,,,,,,wg-a,,,,AAXX 04034 07761 12460 70402 10220 20190 30127 40137 58005 60006 875// 90300=
07761,1998-09-04 06:00:00,23,1013.6,-0.1,69,17,12000,7.408,,,90,20.7,25,,,,,,,,,wg-a,,,,AAXX 04064 07761 02562 80904 10230 20170 30126 40136 55001 60006 875// 90600 333 10250 20207 60004=
07761,1998-09-04 09:00:00,25,1014.5,0.9,79,21,15000,7.408,,,210,,,,,,,,,,,wg-a,,,,AAXX 04094 07761 12565 /2104 10250 20210 30135 40145 53009 60006 86800 90900=
07761,1998-09-04 12:00:00,27,1012.8,-1.7,70,21,15000,25.928,,,230,,,,,,,,,,,wg-a,,,,AAXX 04124 07761 12565 /2314 10270 20210 30118 40128 56017 60006 81244 91200=
07761,1998-09-04 15:00:00,26,1012.4,-0.4,74,21,18000,14.816,,,240,,,,,,,,,,,wg-a,,,,AAXX 04154 07761 12568 32408 10260 20210 30114 40124 55004 60006 82242 91500=
07761,1998-09-04 18:00:00,24,1011.4,-1,78,20,15000,7.408,,,200,22.8,27,,,,,,,,,wg-a,,,,AAXX 04184 07761 12/65 /2004 10240 20200 30104 40114 56010 60006 81044 91800 333 10270 20228=
07761,1998-09-04 21:00:00,22,1011.2,-0.2,83,19,15000,7.408,,,80,,,,,,,,,,,wg-a,,,,AAXX 04214 07761 12/65 80804 10220 20190 30102 40112 58002 60006 82037 92100=
07761,1998-09-05 00:00:00,21,1010.4,-0.8,83,18,15000,3.704,,,50,,,,,,,,,,,wg-a,,,,AAXX 05004 07761 12/65 80502 10210 20180 30094 40104 58008 60006 82037 90000=
07761,1998-09-05 03:00:00,20,1009.2,-1.2,88,18,15000,3.704,,,150,,,,,,,,,,,wg-a,,,,AAXX 05034 07761 12565 81502 10200 20180 30082 40092 55012 60006 82537 90300=
07761,1998-09-05 06:00:00,22,1008.2,-1,83,19,9000,7.408,,,340,19.7,23.9,,,,,,,,60,wg-a,,,,AAXX 05064 07761 02459 73404 10220 20190 30072 40082 58010 61000 76062 875// 90600 333 10239 20197 6001=
07761,1998-09-05 09:00:00,25,1009.6,1.4,69,19,20000,22.224,,,240,,,,4,,,,,,2,wg-a,,,,AAXX 05094 07761 12570 /2412 10250 20190 30086 40096 53014 60047 70262 82281 90900=
07761,1998-09-05 12:00:00,26,1010.4,0.8,54,16,20000,18.52,,,310,,,,,,,,,,1,wg-a,,,,AAXX 05124 07761 12670 43110 10260 20160 30094 40104 51008 60046 70161 82201 91200=
07761,1998-09-05 15:00:00,24,1010.5,0.1,61,16,20000,18.52,,,300,,,,,,,,,,,wg-a,,,,AAXX 05154 07761 12670 23010 10240 20160 30095 40105 53001 60006 81102 91500=
07761,1998-09-05 18:00:00,22,1010.8,0.3,69,16,20000,7.408,,,330,21.7,26.4,,,,,,,,,wg-a,,,,AAXX 05184 07761 12670 23304 10220 20160 30098 40108 53003 60006 82200 91800 333 10264 20217=
07761,1998-09-05 21:00:00,19,1011.9,1,78,15,20000,11.112,,,40,,,,,,,,,,,wg-a,,,,AAXX 05214 07761 12670 30406 10190 20150 30108 40119 51010 60006 82501 92100=
07761,1998-09-06 00:00:00,17,1011.5,-0.4,82,14,20000,14.816,,,50,,,,,,,,,,,wg-a,,,,AAXX 06004 07761 12670 10508 10170 20140 30104 40115 58004 60006 81501 90000=
07761,1998-09-06 03:00:00,17,1011.2,-0.3,82,14,20000,7.408,,,30,,,,,,,,,,,wg-a,,,,AAXX 06034 07761 12670 30304 10170 20140 30101 40112 56003 60006 82101 90300=
07761,1998-09-06 06:00:00,17,1012.3,1.1,77,13,25000,14.816,,,50,16,22.1,,,,,4,,,,wg-a,,,,AAXX 06064 07761 02575 20508 10170 20130 30112 40123 53011 60006 82500 90600 333 10221 20160 60044=
07761,1998-09-06 09:00:00,25,1013.1,0.9,57,16,35000,18.52,,,230,,,,,,,,,,,wg-a,,,,AAXX 06094 07761 12681 /2310 10250 20160 30121 40131 53009 60006 81100 90900=
07761,1998-09-06 12:00:00,26,1013,-0.1,48,14,35000,29.632,,,240,,,,,,,,,,,wg-a,,,,AAXX 06124 07761 12681 /2416 10260 20140 30120 40130 58001 60006 81100 91200=
07761,1998-09-06 15:00:00,24,1012.7,-0.3,57,15,35000,25.928,,,240,,,,,,,,,,,wg-a,,,,AAXX 06154 07761 12/81 02414 10240 20150 30117 40127 58003 60006 80000 91500=
07761,1998-09-06 18:00:00,23,1012.1,-0.6,61,15,25000,3.704,,,10,16.9,26.2,,,,,,,,,wg-a,,,,AAXX 06184 07761 12575 20102 10230 20150 30111 40121 56006 60006 82800 91800 333 10262 20169=
07761,1998-09-06 21:00:00,19,1012.6,0.4,68,13,15000,14.816,,,50,,,,,,,,,,,wg-a,,,,AAXX 06214 07761 12565 20508 10190 20130 30115 40126 50004 60006 82800 92100=
07761,1998-09-07 00:00:00,17,1011.8,-0.8,72,12,15000,11.112,,,40,,,,,,,,,,,wg-a,,,,AAXX 07004 07761 12665 60406 10170 20120 30107 40118 58008 60006 86500 90000=
07761,1998-09-07 03:00:00,19,1010.2,-1.6,64,12,15000,11.112,,,30,,,,,,,,,,,wg-a,,,,AAXX 07034 07761 12665 60306 10190 20120 30091 40102 56016 60006 84530 90300=
07761,1998-09-07 06:00:00,20,1010.1,-0.1,64,13,20000,11.112,,,60,17,22.7,,,,,,,,,wg-a,,,,AAXX 07064 07761 02670 70606 10200 20130 30090 40101 55001 60006 85531 90600 333 10227 20170 60004=
07761,1998-09-07 09:00:00,25,1010.3,0.3,69,19,20000,11.112,,,230,,,,,,,,,,,wg-a,,,,AAXX 07094 07761 12570 /2306 10250 20190 30093 40103 53003 60006 83251 90900=
07761,1998-09-07 12:00:00,25,1008.6,-1.7,74,20,500,14.816,,,240,,,,,,,,,,,wg-a,,,,AAXX 07124 07761 12500 72408 10250 20200 30076 40086 57017 60006 8327/ 91200=
07761,1998-09-07 15:00:00,25,1006.8,-1.8,74,20,500,7.408,,,210,,,,,,,,,,,wg-a,,,,AAXX 07154 07761 12500 72104 10250 20200 30058 40068 58018 60006 82232 91500=
07761,1998-09-07 18:00:00,24,1004.8,-2,69,18,20000,7.408,,,20,20.2,26.3,,,,,,,,,wg-a,,,,AAXX 07184 07761 12570 80204 10240 20180 30038 40048 58020 60006 82837 91800 333 10263 20202=
07761,1998-09-07 21:00:00,24,1008.1,3.3,69,18,11000,3.704,,,350,,,,,,,,,,,wg-a,,,,AAXX 07214 07761 32/61 /3502 10240 20180 30071 40081 51033 92100=
07761,1998-09-08 00:00:00,22,1006.1,-2,73,17,15000,3.704,,,100,,,,,,,,,,13,wg-a,,,,AAXX 08004 07761 02465 81002 10220 20170 30051 40061 58020 61000 71362 8487/ 90000 333 6100=
07761,1998-09-08 03:00:00,21,1004.6,-1.5,69,15,15000,7.408,,,60,,,,,,,,,,21,wg-a,,,,AAXX 08034 07761 02465 80604 10210 20150 30036 40046 56015 61000 72162 8437/ 90300 333 ////=
07761,1998-09-08 06:00:00,21,1005.7,1.1,73,16,25000,3.704,,,40,20.6,24.7,,,,,,,,2,wg-a,,,,AAXX 08064 07761 02575 50402 10210 20160 30047 40057 52011 60006 70262 83832 90600 333 10247 20206 61000=
07761,1998-09-08 09:00:00,25,1007.3,1.6,65,18,25000,18.52,,,230,,,,,,,,,,,wg-a,,,,AAXX 08094 07761 12675 42310 10250 20180 30063 40073 53016 60006 83831 90900=
07761,1998-09-08 12:00:00,27,1007.6,0.3,54,17,25000,31.484,,,290,,,,,,,,,,,wg-a,,,,AAXX 08124 07761 12575 22917 10270 20170 30066 40076 53003 60006 82200 91200=
07761,1998-09-08 15:00:00,26,1008.5,0.9,61,18,20000,29.632,,,290,,,,,,,,,,,wg-a,,,,AAXX 08154 07761 12570 22916 10260 20180 30075 40085 53009 60006 82200 91500=
07761,1998-09-08 18:00:00,23,1010.4,1.9,73,18,17000,14.816,,50.004,300,21,27.7,,,,,,,,,wg-a,,,,AAXX 08184 07761 12567 53008 10230 20180 30094 40104 53019 60006 85800 91800 333 10277 20210 91027=
07761,1998-09-08 21:00:00,21,1012.8,2.4,83,18,20000,3.704,,,50,,,,,,,,,,,wg-a,,,,AAXX 08214 07761 12570 20502 10210 20180 30118 40128 51024 60006 81801 92100=
07761,1998-09-09 03:00:00,17,1013.7,0.3,88,15,20000,11.112,,,50,,,,,,,,,,,wg-a,,,,AAXX 09034 07761 12/70 00506 10170 20150 30126 40137 53003 60006 80000 90300=
07761,1998-09-09 06:00:00,17,1014.7,1,88,15,10000,11.112,,,40,16,22.5,,,,,,,,,wg-a,,,,AAXX 09064 07761 02/60 /0406 10170 20150 30136 40147 53010 60006 90600 333 10225 20160 60004=
07761,1998-09-09 09:00:00,24,1015.5,0.9,69,18,20000,11.112,,,250,,,,,,,,,,,wg-a,,,,AAXX 09094 07761 12570 /2506 10240 20180 30145 40155 51009 60006 81101 90900=
07761,1998-09-09 12:00:00,25,1015.3,-0.2,69,19,20000,18.52,,,230,,,,,,,,,,,wg-a,,,,AAXX 09124 07761 12570 22310 10250 20190 30143 40153 58002 60006 82200 91200=
07761,1998-09-09 15:00:00,25,1014.9,-0.4,69,19,20000,18.52,,,220,,,,,,,,,,,wg-a,,,,AAXX 09154 07761 12670 /2210 10250 20190 30139 40149 58004 60006 81200 91500=
07761,1998-09-09 18:00:00,23,1014.7,-0.2,78,19,20000,7.408,,,210,16.9,25.7,,,,,,,,,wg-a,,,,AAXX 09184 07761 12670 /2104 10230 20190 30137 40147 56002 60006 81200 91800 333 10257 20169=
07761,1998-09-09 21:00:00,19,1016.1,1.3,83,16,20000,11.112,,,60,,,,,,,,,,,wg-a,,,,AAXX 09214 07761 12/70 00606 10190 20160 30150 40161 51013 60006 80000 92100=
07761,1998-09-10 00:00:00,17,1015.8,-0.3,88,15,20000,11.112,,,60,,,,,,,,,,,wg-a,,,,AAXX 10004 07761 12/70 00606 10170 20150 30147 40158 58003 60006 80000 90000=
07761,1998-09-10 03:00:00,16,1014.7,-1.1,88,14,20000,11.112,,,50,,,,,,,,,,,wg-a,,,,AAXX 10034 07761 12/70 00506 10160 20140 30136 40147 56011 60006 80000 90300=
07761,1998-09-10 06:00:00,17,1015.5,0.8,82,14,35000,11.112,,,50,15.5,23.1,,,,,,,,,wg-a,,,,AAXX 10064 07761 02/81 00506 10170 20140 30144 40155 53008 60006 80000 90600 333 10231 20155 60004=
07761,1998-09-10 09:00:00,25,1015.4,-0,65,18,500,14.816,,,230,,,,,,,,,,,wg-a,,,,AAXX 10094 07761 12/00 22308 10250 20180 30144 40154 55000 60006 80001 90900=
07761,1998-09-10 12:00:00,26,1014.5,-0.9,70,20,500,22.224,,,220,,,,,,,,,,,wg-a,,,,AAXX 10124 07761 12600 /2212 10260 20200 30135 40145 58009 60006 81101 91200=
07761,1998-09-10 15:00:00,27,1013.2,-1.3,58,18,500,11.112,,,230,,,,,,,,,,,wg-a,,,,AAXX 10154 07761 12700 /2306 10270 20180 30122 40132 56013 60006 81100 91500=
07761,1998-09-10 18:00:00,24,1013.1,-0.1,78,20,25000,11.112,,,200,16.8,27.4,,,,,,,,,wg-a,,,,AAXX 10184 07761 12/75 12006 10240 20200 30121 40131 55001 60006 80002 91800 333 10274 20168=
07761,1998-09-10 21:00:00,20,1013,-0.2,73,15,25000,7.408,,,50,,,,,,,,,,,wg-a,,,,AAXX 10214 07761 12/75 00504 10200 20150 30119 40130 58002 60006 80000 92100=
07761,1998-09-11 00:00:00,18,1012.1,-0.9,73,13,25000,11.112,,,60,,,,,,,,,,,wg-a,,,,AAXX 11004 07761 12/75 00606 10180 20130 30110 40121 58009 60006 80000 90000=
07761,1998-09-11 03:00:00,18,1011.2,-0.9,68,12,25000,11.112,,,30,,,,,,,,,,,wg-a,,,,AAXX 11034 07761 12/75 00306 10180 20120 30101 40112 56009 60006 80000 90300=
07761,1998-09-11 06:00:00,17,1010.1,-1.1,77,13,25000,11.112,,,60,16.4,23.5,,,,,,,,,wg-a,,,,AAXX 11064 07761 02/75 40606 10170 20130 30090 40101 56011 60006 82041 90600 333 10235 20164 60004=
07761,1998-09-11 09:00:00,23,1010.7,0.7,65,16,20000,7.408,,,230,,,,,,,,,,,wg-a,,,,AAXX 11094 07761 12570 82304 10230 20160 30097 40107 51007 60006 81187 90900=
07761,1998-09-11 12:00:00,25,1008.8,-1.9,69,19,18000,7.408,,,240,,,,,,,,,,21,wg-a,,,,AAXX 11124 07761 02568 82404 10250 20190 30078 40088 58019 61000 72161 82877 91200 333 6100=
07761,1998-09-11 15:00:00,24,1006.9,-1.9,83,21,17000,29.632,,,260,,,,,,,,,,,wg-a,,,,AAXX 11154 07761 12667 72616 10240 20210 30059 40069 56019 60006 8287/ 91500=
07761,1998-09-11 18:00:00,23,1005.7,-1.2,78,19,20000,3.704,,,320,17.4,26.1,,,,,,,,,wg-a,,,,AAXX 11184 07761 12570 83202 10230 20190 30047 40057 56012 60006 81137 91800 333 10261 20174=
07761,1998-09-11 21:00:00,22,1003.8,-1.9,78,18,15000,3.704,,,60,,,,,,,,,,13,wg-a,,,,AAXX 11214 07761 12565 80602 10220 20180 30028 40038 58019 60006 71322 8487/ 92100=
07761,1998-09-12 00:00:00,19,1001,-2.8,94,18,2000,18.52,,72.228,230,,,,11,,,,,,17,wg-a,,,,AAXX 12004 07761 02220 82310 10190 20180 30000 40010 55028 60116 71798 889// 90000 333 60117 91039=
07761,1998-09-12 03:00:00,18,999.9,-1.1,94,17,20000,7.408,,,330,,,,9,,,,,,1,wg-a,,,,AAXX 12034 07761 12370 73304 10180 20170 39989 49999 56011 60097 70198 8387/ 90300=
07761,1998-09-12 06:00:00,20,999.7,-0.2,73,15,20000,14.816,,,280,17.9,23.6,,,,,22,,,2,wg-a,,,,AAXX 12064 07761 02570 82808 10200 20150 39987 49997 57002 60006 70298 8327/ 90600 333 10236 20179 60224=
07761,1998-09-12 09:00:00,21,1000.2,0.5,64,14,12000,18.52,,50.004,290,,,,0,,,,,,25,wg-a,,,,AAXX 12094 07761 12562 82910 10210 20140 39992 40002 53005 60007 72586 8437/ 90900 333 91027=
07761,1998-09-12 12:00:00,21,1000.5,0.3,46,9,17000,35.188,,57.412,280,,,,,,,,,,2,wg-a,,,,AAXX 12124 07761 12667 /2819 10210 20090 39995 40005 50003 60016 70286 84302 91200 333 91031=
07761,1998-09-12 15:00:00,19,999.8,-0.7,56,10,15000,29.632,,57.412,290,,,,0,,,,,,25,wg-a,,,,AAXX 12154 07761 12565 72916 10190 20100 39988 49998 58007 60007 72586 85330 91500 333 91031=
07761,1998-09-12 18:00:00,20,999.1,-0.7,49,9,15000,42.596,,68.524,280,17.6,21.2,,,,,,,,25,wg-a,,,,AAXX 12184 07761 02665 72823 10200 20090 39981 49991 56007 61000 72586 85202 91800 333 10212 20176 6001 91037=
07761,1998-09-12 21:00:00,19,1000.7,1.6,49,8,20000,38.892,,83.34,290,,,,,,,,,,,wg-a,,,,AAXX 12214 07761 12670 /2921 10190 20080 39997 40007 53016 60006 84100 92100 333 91045=
07761,1998-09-13 00:00:00,19,1001.7,1,52,9,20000,18.52,,83.34,310,,,,,,,,,,,wg-a,,,,AAXX 13004 07761 12670 33110 10190 20090 30007 40017 51010 60006 83100 90000 333 91045=
07761,1998-09-13 06:00:00,19,1000.8,-0,73,14,15000,50.004,,,270,17.9,20,,,,,,,,21,wg-a,,,,AAXX 13064 07761 02565 82727 10190 20140 39998 40008 55000 61000 72161 8687/ 90600 333 10200 20179 6004=
07761,1998-09-13 09:00:00,19,1000.7,-0.1,83,16,15000,29.632,,64.82,270,,,,0,,,,,,25,wg-a,,,,AAXX 13094 07761 12465 82716 10190 20160 39997 40007 57001 60007 72586 8687/ 90900 333 91035=
07761,1998-09-13 12:00:00,20,1001.4,0.7,56,11,20000,29.632,,50.004,270,,,,0,,,,,,1,wg-a,,,,AAXX 13124 07761 02570 /2716 10200 20110 30004 40014 53007 60016 70186 83841 91200 333 60007 91027=
07761,1998-09-13 15:00:00,19,1001.5,0.1,49,8,20000,18.52,,,310,,,,,,,,,,,wg-a,,,,AAXX 13154 07761 12670 /3110 10190 20080 30005 40015 50001 60006 83842 91500=
07761,1998-09-13 18:00:00,18,1001.9,0.3,59,10,20000,14.816,,,290,18,20.9,,,,,,,,,wg-a,,,,AAXX 13184 07761 12670 32908 10180 20100 30008 40019 51003 60006 81840 91800 333 10209 20180=
07761,1998-09-13 21:00:00,19,1001.3,-0.5,56,10,11000,38.892,,,280,,,,,,,,,,,wg-a,,,,AAXX 13214 07761 12/61 /2821 10190 20100 30003 40013 58005 60006 92100=
07761,1998-09-14 00:00:00,18,1001.9,0.5,42,5,15000,25.928,,53.708,310,,,,,,,,,,,wg-a,,,,AAXX 14004 07761 12665 33114 10180 20050 30008 40019 53005 60006 81840 90000 333 91029=
07761,1998-09-14 03:00:00,15,1003.3,1.4,63,8,15000,7.408,,,120,,,,,,,,,,,wg-a,,,,AAXX 14034 07761 12665 21204 10150 20080 30022 40033 53014 60006 82840 90300=
07761,1998-09-14 12:00:00,19,1006.7,1.3,49,8,25000,35.188,,53.708,280,,,,,,,,,,,wg-a,,,,AAXX 14124 07761 12675 42819 10190 20080 30056 40067 51013 60006 84202 91200 333 91029=
07761,1998-09-14 15:00:00,20,1007.5,0.8,53,10,25000,38.892,,,270,,,,,,,,,,,wg-a,,,,AAXX 14154 07761 12675 42721 10200 20100 30064 40075 53008 60006 84201 91500=
07761,1998-09-14 18:00:00,18,1008.5,1,59,10,20000,35.188,,61.116,280,13.7,20.1,,,,,,,,,wg-a,,,,AAXX 14184 07761 12670 22819 10180 20100 30074 40085 53010 60006 82200 91800 333 10201 20137 91033=
07761,1998-09-14 21:00:00,19,1010.2,1.7,43,6,20000,18.52,,,300,,,,,,,,,,,wg-a,,,,AAXX 14214 07761 12670 /3010 10190 20060 30091 40102 51017 60006 81100 92100=
07761,1998-09-15 00:00:00,18,1010.6,0.4,45,6,20000,18.52,,,300,,,,,,,,,,,wg-a,,,,AAXX 15004 07761 12670 23010 10180 20060 30095 40106 51004 60006 82800 90000=
07761,1998-09-15 03:00:00,14,1010.8,0.2,67,8,20000,11.112,,,80,,,,,,,,,,,wg-a,,,,AAXX 15034 07761 12670 20806 10140 20080 30097 40108 53002 60006 82800 90300=
07761,1998-09-15 06:00:00,13,1011.9,1.1,77,9,20000,11.112,,,80,12.6,18.6,,,,,,,,,wg-a,,,,AAXX 15064 07761 02670 40806 10130 20090 30108 40119 53011 60006 84800 90600 333 10186 20126 60004=
07761,1998-09-15 09:00:00,20,1013.4,1.5,53,10,500,18.52,,,290,,,,,,,,,,,wg-a,,,,AAXX 15094 07761 12600 /2910 10200 20100 30123 40134 53015 60006 85200 90900=
07761,1998-09-15 12:00:00,21,1013.4,0,46,9,500,14.816,,,270,,,,,,,,,,,wg-a,,,,AAXX 15124 07761 12600 /2708 10210 20090 30123 40134 50000 60006 85200 91200=
07761,1998-09-15 15:00:00,20,1013.1,-0.3,53,10,500,25.928,,,260,,,,,,,,,,,wg-a,,,,AAXX 15154 07761 12600 52614 10200 20100 30120 40131 56003 60006 85800 91500=
07761,1998-09-15 18:00:00,18,1013.7,0.6,59,10,20000,3.704,,,60,13.2,21,,,,,,,,,wg-a,,,,AAXX 15184 07761 12670 20602 10180 20100 30126 40137 51006 60006 82200 91800 333 10210 20132=
07761,1998-09-16 00:00:00,12,1014.5,-0.1,76,8,20000,14.816,,,30,,,,,,,,,,,wg-a,,,,AAXX 16004 07761 12/70 00308 10120 20080 30134 40145 58001 60006 80000 90000=
07761,1998-09-16 06:00:00,11,1014.5,0.8,71,6,500,14.816,,,50,9.3,17.5,,,,,,,,,wg-a,,,,AAXX 16064 07761 02600 /0508 10110 20060 30134 40145 53008 60006 81501 90600 333 10175 20093 60004=
07761,1998-09-16 09:00:00,21,1014.6,0.1,56,12,500,7.408,,,230,,,,,,,,,,,wg-a,,,,AAXX 16094 07761 12600 22304 10210 20120 30135 40146 52001 60006 82560 90900=
07761,1998-09-16 18:00:00,20,1012.5,-0,73,15,25000,7.408,,,340,10.9,22.4,,,,,,,,,wg-a,,,,AAXX 16184 07761 12575 73404 10200 20150 30114 40125 54000 60006 87800 91800 333 10224 20109=
07761,1998-09-17 00:00:00,18,1010.8,-1.3,83,15,25000,11.112,,,70,,,,,,,,,,,wg-a,,,,AAXX 17004 07761 12575 60706 10180 20150 30097 40108 56013 60006 86800 90000=
07761,1998-09-17 03:00:00,16,1009.5,-1.3,88,14,25000,11.112,,,40,,,,,,,,,,,wg-a,,,,AAXX 17034 07761 12675 30406 10160 20140 30084 40095 56013 60006 82501 90300=
07761,1998-09-17 06:00:00,15,1009.6,0.1,88,13,20000,7.408,,,60,14.3,20.4,,,,,,,,,wg-a,,,,AAXX 17064 07761 02570 50604 10150 20130 30085 40096 53001 60006 83801 90600 333 10204 20143 60004=
07761,1998-09-17 09:00:00,21,1009.1,-0.4,60,13,20000,11.112,,,230,,,,,,,,,,,wg-a,,,,AAXX 17094 07761 12570 /2306 10210 20130 30081 40091 56004 60006 81204 90900=
07761,1998-09-17 12:00:00,21,1008.8,-0.3,64,14,20000,18.52,,,210,,,,,,,,,,,wg-a,,,,AAXX 17124 07761 12670 42110 10210 20140 30078 40088 57003 60006 81102 91200=
07761,1998-09-17 15:00:00,21,1008.3,-0.5,56,12,20000,14.816,,,220,,,,,,,,,,,wg-a,,,,AAXX 17154 07761 12670 /2208 10210 20120 30073 40083 56005 60006 81102 91500=
07761,1998-09-17 18:00:00,18,1009.6,1.2,68,12,20000,3.704,,,160,14.7,21.6,,,,,,,,,wg-a,,,,AAXX 17184 07761 12/70 11602 10180 20120 30085 40096 51012 60006 80001 91800 333 10216 20147=
07761,1998-09-17 21:00:00,15,1011.3,1.7,77,11,15000,14.816,,,40,,,,,,,,,,,wg-a,,,,AAXX 17214 07761 12/65 00408 10150 20110 30102 40113 51017 60006 80000 92100=
07761,1998-09-18 00:00:00,14,1012.6,1.3,82,11,15000,11.112,,,40,,,,,,,,,,,wg-a,,,,AAXX 18004 07761 12/65 00406 10140 20110 30115 40126 51013 60006 80000 90000=
07761,1998-09-18 03:00:00,12,1013.5,0.9,88,10,15000,7.408,,,50,,,,,,,,,,,wg-a,,,,AAXX 18034 07761 12/65 00504 10120 20100 30124 40135 53009 60006 80000 90300=
07761,1998-09-18 06:00:00,12,1015.4,1.9,88,10,25000,14.816,,,50,11,18.2,,,,,,,,,wg-a,,,,AAXX 18064 07761 02/75 00508 10120 20100 30143 40154 53019 60006 80000 90600 333 10182 20110 60004=
07761,1998-09-18 09:00:00,21,1017.1,1.7,60,13,40000,7.408,,,220,,,,,,,,,,,wg-a,,,,AAXX 18094 07761 12/82 12204 10210 20130 30160 40171 53017 60006 80001 90900=
07761,1998-09-18 12:00:00,23,1017.3,0.3,65,16,40000,14.816,,,230,,,,,,,,,,,wg-a,,,,AAXX 18124 07761 12682 /2308 10230 20160 30163 40173 50003 60006 81201 91200=
07761,1998-09-18 15:00:00,21,1017.6,0.2,69,15,11000,14.816,,,200,,,,,,,,,,,wg-a,,,,AAXX 18154 07761 12/61 /2008 10210 20150 30165 40176 51002 60006 91500=
07761,1998-09-18 18:00:00,19,1019.1,1.5,78,15,20000,3.704,,,120,12.3,22.9,,,,,,,,,wg-a,,,,AAXX 18184 07761 12770 /1202 10190 20150 30180 40191 53015 60006 81400 91800 333 10229 20123=
07761,1998-09-18 21:00:00,16,1020.6,1.5,77,12,20000,11.112,,,50,,,,,,,,,,,wg-a,,,,AAXX 18214 07761 12/70 00506 10160 20120 30195 40206 51015 60006 80000 92100=
07761,1998-09-19 00:00:00,14,1020.7,0.1,77,10,20000,14.816,,,50,,,,,,,,,,,wg-a,,,,AAXX 19004 07761 12/70 00508 10140 20100 30196 40207 51001 60006 80000 90000=
07761,1998-09-19 03:00:00,12,1021.7,1,82,9,20000,11.112,,,60,,,,,,,,,,,wg-a,,,,AAXX 19034 07761 12/70 00606 10120 20090 30206 40217 51010 60006 80000 90300=
07761,1998-09-19 06:00:00,12,1022.5,0.8,76,8,10000,14.816,,,50,10.9,19.1,,,,,,,,,wg-a,,,,AAXX 19064 07761 02/60 /0508 10120 20080 30214 40225 53008 60006 90600 333 10191 20109 60004=
07761,1998-09-19 09:00:00,22,1023.5,1,50,11,500,7.408,,,230,,,,,,,,,,,wg-a,,,,AAXX 19094 07761 12600 32304 10220 20110 30224 40235 52010 60006 81102 90900=
07761,1998-09-19 12:00:00,23,1023.8,0.3,69,17,11000,22.224,,,200,,,,,,,,,,,wg-a,,,,AAXX 19124 07761 12661 32012 10230 20170 30227 40238 53003 60006 82101 91200=
07761,1998-09-19 15:00:00,23,1023.2,-0.6,65,16,500,18.52,,,190,,,,,,,,,,,wg-a,,,,AAXX 19154 07761 12600 31910 10230 20160 30221 40232 57006 60006 83800 91500=
07761,1998-09-19 18:00:00,20,1023.1,-0.1,73,15,20000,0,,,0,11.9,23.7,,,,,,,,,wg-a,,,,AAXX 19184 07761 12670 /0000 10200 20150 30220 40231 56001 60006 81401 91800 333 10237 20119=
07761,1998-09-19 21:00:00,15,1023.6,0.5,72,10,15000,11.112,,,50,,,,,,,,,,,wg-a,,,,AAXX 19214 07761 12/65 00506 10150 20100 30225 40236 51005 60006 80000 92100=
07761,1998-09-20 00:00:00,13,1023.6,0,77,9,15000,11.112,,,60,,,,,,,,,,,wg-a,,,,AAXX 20004 07761 12/65 00606 10130 20090 30225 40236 50000 60006 80000 90000=
07761,1998-09-20 03:00:00,11,1023.7,0.1,82,8,15000,11.112,,,60,,,,,,,,,,,wg-a,,,,AAXX 20034 07761 12/65 00606 10110 20080 30226 40237 53001 60006 80000 90300=
07761,1998-09-20 06:00:00,12,1024.3,0.6,82,9,35000,7.408,,,60,11.2,19.5,,,,,,,,,wg-a,,,,AAXX 20064 07761 02/81 00604 10120 20090 30232 40243 53006 60006 80000 90600 333 10195 20112 60004=
07761,1998-09-20 09:00:00,22,1024.4,0.1,57,13,35000,11.112,,,230,,,,,,,,,,,wg-a,,,,AAXX 20094 07761 12/81 02306 10220 20130 30233 40244 53001 60006 80000 90900=
07761,1998-09-20 12:00:00,25,1023,-1.3,47,13,35000,22.224,,,300,,,,,,,,,,,wg-a,,,,AAXX 20124 07761 12581 /3012 10250 20130 30220 40230 58013 60006 81100 91200=
07761,1998-09-20 15:00:00,22,1022.7,-0.4,69,16,500,22.224,,,250,,,,,,,,,,,wg-a,,,,AAXX 20154 07761 12500 62512 10220 20160 30216 40227 55004 60006 84830 91500=
07761,1998-09-20 21:00:00,16,1024,0.7,82,13,20000,11.112,,,90,,,,,,,,,,,wg-a,,,,AAXX 20214 07761 12/70 00906 10160 20130 30229 40240 51007 60006 80000 92100=
07761,1998-09-21 00:00:00,14,1023.2,-0.8,82,11,15000,14.816,,,50,,,,,,,,,,,wg-a,,,,AAXX 21004 07761 12/65 00508 10140 20110 30221 40232 56008 60006 80000 90000=
07761,1998-09-21 03:00:00,12,1022.7,-0.5,82,9,15000,14.816,,,40,,,,,,,,,,,wg-a,,,,AAXX 21034 07761 12/65 00408 10120 20090 30216 40227 58005 60006 80000 90300=
07761,1998-09-21 06:00:00,12,1022.9,0.2,82,9,25000,14.816,,,40,10.9,19.7,,,,,,,,,wg-a,,,,AAXX 21064 07761 02575 /0408 10120 20090 30218 40229 53002 60006 81502 90600 333 10197 20109 60004=
07761,1998-09-21 09:00:00,22,1022.3,-0.6,53,12,25000,7.408,,,220,,,,,,,,,,,wg-a,,,,AAXX 21094 07761 12675 32204 10220 20120 30212 40223 57006 60006 81102 90900=
07761,1998-09-21 15:00:00,22,1020.2,-1.1,57,13,25000,18.52,,,230,,,,,,,,,,,wg-a,,,,AAXX 21154 07761 12675 72310 10220 20130 30191 40202 58011 60006 86802 91500=
07761,1998-09-21 18:00:00,19,1020.4,0.2,64,12,20000,7.408,,,110,11.7,23.3,,,,,,,,,wg-a,,,,AAXX 21184 07761 12670 31104 10190 20120 30193 40204 53002 60006 82501 91800 333 10233 20117=
07761,1998-09-21 21:00:00,15,1021.1,0.7,77,11,20000,11.112,,,50,,,,,,,,,,,wg-a,,,,AAXX 21214 07761 12670 30506 10150 20110 30200 40211 51007 60006 82501 92100=
07761,1998-09-22 00:00:00,13,1020.7,-0.4,82,10,15000,11.112,,,40,,,,,,,,,,,wg-a,,,,AAXX 22004 07761 12765 /0406 10130 20100 30196 40207 57004 60006 81500 90000=
07761,1998-09-22 03:00:00,12,1019.5,-1.2,82,9,15000,14.816,,,40,,,,,,,,,,,wg-a,,,,AAXX 22034 07761 12765 /0408 10120 20090 30184 40195 56012 60006 81500 90300=
07761,1998-09-22 06:00:00,12,1019.7,0.2,82,9,25000,14.816,,,50,11.4,19.3,,,,,,,,,wg-a,,,,AAXX 22064 07761 02/75 00508 10120 20090 30186 40197 53002 60006 80000 90600 333 10193 20114 60004=
07761,1998-09-22 09:00:00,21,1020.1,0.4,56,12,25000,11.112,,,240,,,,,,,,,,,wg-a,,,,AAXX 22094 07761 12675 22406 10210 20120 30190 40201 51004 60006 81101 90900=
07761,1998-09-22 12:00:00,23,1019.4,-0.7,61,15,25000,22.224,,,210,,,,,,,,,,,wg-a,,,,AAXX 22124 07761 12675 22112 10230 20150 30183 40194 58007 60006 81201 91200=
07761,1998-09-22 15:00:00,22,1018.4,-1,65,15,25000,22.224,,,200,,,,,,,,,,,wg-a,,,,AAXX 22154 07761 12675 32012 10220 20150 30173 40184 56010 60006 81201 91500=
07761,1998-09-22 18:00:00,20,1018.6,0.2,73,15,25000,7.408,,,200,12.3,23.4,,,,,,,,,wg-a,,,,AAXX 22184 07761 12775 /2004 10200 20150 30175 40186 53002 60006 86501 91800 333 10234 20123=
07761,1998-09-22 21:00:00,16,1019.4,0.8,77,12,15000,11.112,,,40,,,,,,,,,,,wg-a,,,,AAXX 22214 07761 12/65 00406 10160 20120 30183 40194 53008 60006 80000 92100=
07761,1998-09-23 00:00:00,13,1019,-0.4,88,11,15000,11.112,,,50,,,,,,,,,,,wg-a,,,,AAXX 23004 07761 12/65 00506 10130 20110 30179 40190 58004 60006 80000 90000=
07761,1998-09-23 03:00:00,13,1018.4,-0.6,82,10,15000,14.816,,,40,,,,,,,,,,,wg-a,,,,AAXX 23034 07761 12/65 00408 10130 20100 30173 40184 56006 60006 80000 90300=
07761,1998-09-23 06:00:00,13,1018.9,0.5,82,10,15000,11.112,,,50,12.1,19.8,,,,,,,,,wg-a,,,,AAXX 23064 07761 02/65 30506 10130 20100 30178 40189 53005 60006 80002 90600 333 10198 20121 60004=
07761,1998-09-23 09:00:00,20,1019.8,0.9,64,13,20000,7.408,,,210,,,,,,,,,,,wg-a,,,,AAXX 23094 07761 12670 22104 10200 20130 30187 40198 51009 60006 81101 90900=
07761,1998-09-23 12:00:00,23,1018.9,-0.8,57,14,25000,22.224,,,230,,,,,,,,,,,wg-a,,,,AAXX 23124 07761 12675 22312 10230 20140 30179 40189 57008 60006 82800 91200=
07761,1998-09-23 15:00:00,23,1018.3,-0.6,65,16,25000,11.112,,,210,,,,,,,,,,,wg-a,,,,AAXX 23154 07761 12675 22106 10230 20160 30173 40183 56006 60006 82800 91500=
07761,1998-09-23 18:00:00,20,1018.4,-0,64,13,25000,0,,,0,12.8,23.6,,,,,,,,,wg-a,,,,AAXX 23184 07761 12775 30000 10200 20130 30173 40184 55000 60006 82501 91800 333 10236 20128=
07761,1998-09-23 21:00:00,16,1019.2,0.8,72,11,25000,11.112,,,50,,,,,,,,,,,wg-a,,,,AAXX 23214 07761 12/75 00506 10160 20110 30181 40192 51008 60006 80000 92100=
07761,1998-09-24 00:00:00,14,1018.9,-0.3,77,10,25000,14.816,,,40,,,,,,,,,,,wg-a,,,,AAXX 24004 07761 12/75 00408 10140 20100 30178 40189 55003 60006 80000 90000=
07761,1998-09-24 03:00:00,14,1017.6,-1.3,72,9,25000,14.816,,,50,,,,,,,,,,,wg-a,,,,AAXX 24034 07761 12/75 10508 10140 20090 30165 40176 56013 60006 80001 90300=
07761,1998-09-24 06:00:00,13,1017.8,0.2,77,9,500,14.816,,,50,12.4,19.9,,,,,,,,,wg-a,,,,AAXX 24064 07761 02600 50508 10130 20090 30167 40178 53002 60006 81502 90600 333 10199 20124 60004=
07761,1998-09-24 09:00:00,22,1017.5,-0.3,50,11,500,3.704,,,300,,,,,,,,,,,wg-a,,,,AAXX 24094 07761 12600 73002 10220 20110 30164 40175 58003 60006 81582 90900=
07761,1998-09-24 12:00:00,24,1016.6,-0.8,47,12,500,11.112,,,270,,,,,,,,,,,wg-a,,,,AAXX 24124 07761 12600 82706 10240 20120 30156 40166 56008 60006 81582 91200=
07761,1998-09-24 15:00:00,22,1015.7,-0.9,65,15,20000,14.816,,,190,,,,,,,,,,,wg-a,,,,AAXX 24154 07761 12770 81908 10220 20150 30147 40157 56009 60006 8658/ 91500=
07761,1998-09-24 18:00:00,19,1015.3,-0.5,83,16,15000,7.408,,,250,13.3,24.8,,,,,,,,61,wg-a,,,,AAXX 24184 07761 02665 82504 10190 20160 30142 40153 57005 61000 76162 8658/ 91800 333 10248 20133 6000=
07761,1998-09-24 21:00:00,17,1015.4,0.1,94,16,4000,11.112,,,30,,,,17,,,,,,62,wg-a,,,,AAXX 24214 07761 12340 80306 10170 20160 30143 40154 50001 60177 76266 8658/ 92100=
07761,1998-09-25 03:00:00,19,1013.1,-1.5,88,17,10000,7.408,,,60,,,,2,,,,,,17,wg-a,,,,AAXX 25034 07761 12560 80604 10190 20170 30120 40131 56015 60027 71796 8638/ 90300=
07761,1998-09-25 06:00:00,19,1013.4,0.3,94,18,10000,7.408,,,80,16.6,19,,,,,35,,,1,wg-a,,,,AAXX 25064 07761 02360 70804 10190 20180 30123 40134 53003 60006 70196 86502 90600 333 10190 20166 60354=
07761,1998-09-25 09:00:00,22,1014.3,1,83,19,25000,7.408,,,240,,,,,,,,,,,wg-a,,,,AAXX 25094 07761 12375 52404 10220 20190 30133 40143 51010 60006 85800 90900=
07761,1998-09-25 12:00:00,23,1014.4,0.1,78,19,25000,14.816,,,240,,,,,,,,,,,wg-a,,,,AAXX 25124 07761 12575 32408 10230 20190 30134 40144 51001 60006 83800 91200=
07761,1998-09-25 18:00:00,20,1014.7,0.4,83,17,20000,7.408,,,240,18.6,22.8,,,,,,,,,wg-a,,,,AAXX 25184 07761 12470 72404 10200 20170 30136 40147 50004 60006 86802 91800 333 10228 20186=
07761,1998-09-25 21:00:00,18,1015.2,0.5,94,17,15000,7.408,,,60,,,,,,,,,,,wg-a,,,,AAXX 25214 07761 12465 40604 10180 20170 30141 40152 53005 60006 82802 92100=
07761,1998-09-26 00:00:00,16,1014.4,-0.8,88,14,15000,11.112,,,60,,,,,,,,,,,wg-a,,,,AAXX 26004 07761 12/65 00606 10160 20140 30133 40144 58008 60006 80000 90000=
07761,1998-09-26 03:00:00,14,1013.6,-0.8,88,12,15000,14.816,,,50,,,,,,,,,,,wg-a,,,,AAXX 26034 07761 12/65 30508 10140 20120 30125 40136 58008 60006 80002 90300=
07761,1998-09-26 06:00:00,14,1012.2,-1.4,82,11,25000,11.112,,,60,13.9,20.1,,,,,,,,,wg-a,,,,AAXX 26064 07761 02/75 60606 10140 20110 30111 40122 56014 60006 81031 90600 333 10201 20139 60004=
07761,1998-09-26 09:00:00,26,1009.5,-2.6,42,12,40000,11.112,,,70,,,,,,,,,,,wg-a,,,,AAXX 26094 07761 12782 70706 10260 20120 30085 40095 58026 60006 81582 90900=
07761,1998-09-26 12:00:00,28,1009.3,-0.2,51,17,500,18.52,,,250,,,,,,,,,,,wg-a,,,,AAXX 26124 07761 12800 82510 10280 20170 30083 40093 58002 60006 85096 91200=
07761,1998-09-26 15:00:00,26,1009.2,-0.1,65,19,20000,18.52,,,250,,,,,,,,,,,wg-a,,,,AAXX 26154 07761 12670 82510 10260 20190 30082 40092 58001 60006 82596 91500=
07761,1998-09-26 18:00:00,23,1010.9,1.7,83,20,8000,14.816,,,220,14.3,30.9,,,,,,,,21,wg-a,,,,AAXX 26184 07761 02358 82208 10230 20200 30099 40109 51017 61000 72162 878// 91800 333 10309 20143 6100=
07761,1998-09-26 21:00:00,21,1011.6,0.7,94,20,9000,7.408,,,60,,,,,,,,,,,wg-a,,,,AAXX 26214 07761 12459 80604 10210 20200 30106 40116 52007 60006 878// 92100=
07761,1998-09-27 00:00:00,21,1011.5,-0.1,94,20,12000,18.52,,,250,,,,,,,,,,,wg-a,,,,AAXX 27004 07761 12462 82510 10210 20200 30105 40115 55001 60006 83876 90000=
07761,1998-09-27 03:00:00,20,1009,-2.5,88,18,12000,11.112,,,120,,,,,,,,,,17,wg-a,,,,AAXX 27034 07761 02462 81206 10200 20180 30080 40090 58025 61000 71796 879// 90300 333 ////=
07761,1998-09-27 06:00:00,20,1009.1,0.1,88,18,500,11.112,,,170,19.7,22.5,,,,,2,,,,wg-a,,,,AAXX 27064 07761 02/00 /1706 10200 20180 30081 40091 50001 60006 90600 333 10225 20197 60024=
07761,1998-09-27 09:00:00,20,1009.9,0.8,88,18,500,3.704,,,90,,,,,,,,,,1,wg-a,,,,AAXX 27094 07761 02500 70902 10200 20180 30089 40099 53008 61000 70196 839// 90900 333 ////=
07761,1998-09-27 12:00:00,22,1009.1,-0.8,78,18,25000,7.408,,,270,,,,3,,,,,,16,wg-a,,,,AAXX 27124 07761 02475 72704 10220 20180 30081 40091 58008 60036 71698 8698/ 91200 333 60037=
07761,1998-09-27 15:00:00,23,1008.6,-0.5,78,19,20000,25.928,,,200,,,,0,,,,,,1,wg-a,,,,AAXX 27154 07761 12470 42014 10230 20190 30076 40086 55005 60007 70186 84303 91500=
07761,1998-09-27 18:00:00,21,1009.2,0.6,78,17,500,14.816,,,210,19.3,23.8,,,,,,,,1,wg-a,,,,AAXX 27184 07761 12500 52108 10210 20170 30082 40092 51006 60006 70186 84230 91800 333 10238 20193=
07761,1998-09-27 21:00:00,20,1010.7,1.4,78,16,20000,22.224,,,270,,,,,,,,,,,wg-a,,,,AAXX 27214 07761 12570 22712 10200 20160 30096 40107 51014 60006 82800 92100=
07761,1998-09-28 00:00:00,17,1010.5,-0.2,88,15,20000,3.704,,,20,,,,,,,,,,,wg-a,,,,AAXX 28004 07761 12570 40202 10170 20150 30094 40105 58002 60006 84300 90000=
07761,1998-09-28 03:00:00,15,1009.8,-0.7,94,14,20000,11.112,,,50,,,,,,,,,,,wg-a,,,,AAXX 28034 07761 12570 20506 10150 20140 30087 40098 57007 60006 82800 90300=
07761,1998-09-28 09:00:00,21,1010.7,1,64,14,25000,3.704,,,210,,,,,,,,,,,wg-a,,,,AAXX 28094 07761 12575 /2102 10210 20140 30097 40107 51010 60006 85200 90900=
07761,1998-09-28 12:00:00,22,1010.4,-0.3,65,15,500,18.52,,,230,,,,,,,,,,,wg-a,,,,AAXX 28124 07761 12600 32310 10220 20150 30094 40104 58003 60006 83200 91200=
07761,1998-09-28 15:00:00,22,1009.6,-0.8,65,15,500,14.816,,,210,,,,,,,,,,,wg-a,,,,AAXX 28154 07761 12700 /2108 10220 20150 30086 40096 56008 60006 81200 91500=
07761,1998-09-28 18:00:00,19,1009.7,-0,64,12,20000,3.704,,,340,14.3,22.8,,,,,,,,,wg-a,,,,AAXX 28184 07761 12670 /3402 10190 20120 30086 40097 55000 60006 81400 91800 333 10228 20143=
07761,1998-09-28 21:00:00,16,1010.4,0.7,82,13,20000,11.112,,,40,,,,,,,,,,,wg-a,,,,AAXX 28214 07761 12670 20406 10160 20130 30093 40104 51007 60006 82500 92100=
07761,1998-09-29 00:00:00,17,1010.3,-0.1,77,13,20000,7.408,,,30,,,,,,,,,,,wg-a,,,,AAXX 29004 07761 12670 30304 10170 20130 30092 40103 58001 60006 83800 90000=
07761,1998-09-29 06:00:00,15,1010,0.2,88,13,500,14.816,,,40,14.3,19,,,,,,,,,wg-a,,,,AAXX 29064 07761 02500 /0408 10150 20130 30089 40100 52002 60006 81100 90600 333 10190 20143 60004=
07761,1998-09-29 09:00:00,22,1011.1,1.2,65,15,500,7.408,,,180,,,,,,,,,,,wg-a,,,,AAXX 29094 07761 12500 /1804 10220 20150 30101 40111 53012 60006 81100 90900=
07761,1998-09-29 12:00:00,23,1011,-0.1,65,16,500,18.52,,,220,,,,,,,,,,,wg-a,,,,AAXX 29124 07761 12500 /2210 10230 20160 30100 40110 58001 60006 81200 91200=
07761,1998-09-29 15:00:00,21,1010.8,-0.2,73,16,500,18.52,,,220,,,,,,,,,,,wg-a,,,,AAXX 29154 07761 12600 32210 10210 20160 30098 40108 56002 60006 81201 91500=
07761,1998-09-29 18:00:00,18,1011.5,0.6,83,15,25000,7.408,,,110,14.5,22.7,,,,,,,,,wg-a,,,,AAXX 29184 07761 12675 51104 10180 20150 30104 40115 53006 60006 81511 91800 333 10227 20145=
07761,1998-09-29 21:00:00,16,1012.3,0.8,82,13,15000,14.816,,,50,,,,,,,,,,,wg-a,,,,AAXX 29214 07761 12/65 40508 10160 20130 30112 40123 51008 60006 84051 92100=
07761,1998-09-30 00:00:00,16,1011.9,-0.4,82,13,15000,14.816,,,40,,,,,,,,,,,wg-a,,,,AAXX 30004 07761 12/65 50408 10160 20130 30108 40119 58004 60006 85031 90000=
07761,1998-09-30 03:00:00,16,1011,-0.9,77,12,15000,7.408,,,50,,,,,,,,,,,wg-a,,,,AAXX 30034 07761 12665 80504 10160 20120 30099 40110 58009 60006 81552 90300=
07761,1998-09-30 06:00:00,17,1010.2,-0.8,72,12,20000,14.816,,,60,15.6,18.4,,,,,,,,,wg-a,,,,AAXX 30064 07761 02670 80608 10170 20120 30091 40102 56008 60006 8455/ 90600 333 10184 20156 60004=
07761,1998-09-30 09:00:00,21,1010.2,0.1,60,13,20000,11.112,,,50,,,,,,,,,,,wg-a,,,,AAXX 30094 07761 12570 80506 10210 20130 30092 40102 53001 60006 8585/ 90900=
07761,1998-09-30 12:00:00,23,1009.3,-0.9,69,17,20000,22.224,,,200,,,,,,,,,,3,wg-a,,,,AAXX 30124 07761 02570 82012 10230 20170 30083 40093 58009 61000 70352 878// 91200 333 6100=
07761,1998-09-30 15:00:00,22,1007.9,-1.4,83,19,20000,18.52,,,210,,,,0,,,,,,21,wg-a,,,,AAXX 30154 07761 12570 82110 10220 20190 30069 40079 56014 60007 72162 8685/ 91500=
07761,1998-09-30 18:00:00,22,1007.3,-0.6,88,20,15000,31.484,,,210,17.3,22.9,,,,,,,,25,wg-a,,,,AAXX 30184 07761 02465 82117 10220 20200 30063 40073 55006 61000 72586 873// 91800 333 10229 20173 6000=
07761,1998-09-30 21:00:00,20,1007.7,0.4,88,18,20000,14.816,,,200,,,,0,,,,,,3,wg-a,,,,AAXX 30214 07761 12470 82008 10200 20180 30067 40077 52004 60007 70386 888// 92100=
07761,1998-10-01 00:00:00,19,1008.4,0.6,88,17,20000,0,,,0,,,,,,,,,,2,wg-a,,,,AAXX 01004 07761 12470 70000 10190 20170 30073 40084 53006 60006 70286 878// 90000=
07761,1998-10-01 03:00:00,17,1008,-0.4,88,15,20000,7.408,,,50,,,,,,,,,,,wg-a,,,,AAXX 01034 07761 12670 50504 10170 20150 30069 40080 56004 60006 82570 90300=
07761,1998-10-01 06:00:00,15,1008.8,0.8,94,14,20000,11.112,,,50,14.9,22,,,,,1,,,,wg-a,,,,AAXX 01064 07761 02570 /0506 10150 20140 30077 40088 53008 60006 81570 90600 333 10220 20149 60014=
07761,1998-10-01 09:00:00,21,1009.5,0.8,73,16,20000,3.704,,,220,,,,,,,,,,,wg-a,,,,AAXX 01094 07761 12570 32202 10210 20160 30085 40095 51008 60006 83230 90900=
07761,1998-10-01 12:00:00,20,1009.8,0.2,68,14,20000,0,,,0,,,,2,,,,,,60,wg-a,,,,AAXX 01124 07761 02670 70000 10200 20140 30087 40098 51002 60026 76086 8435/ 91200 333 60027=
07761,1998-10-01 18:00:00,16,1008.7,-0.5,82,13,20000,11.112,,,50,15,22.3,,0,,,,,,1,wg-a,,,,AAXX 01184 07761 12/70 40506 10160 20130 30076 40087 55005 60007 70186 82031 91800 333 10223 20150=
07761,1998-10-01 21:00:00,14,1008.9,0.2,88,12,20000,14.816,,,50,,,,,,,,,,,wg-a,,,,AAXX 01214 07761 12/70 /0508 10140 20120 30078 40089 53002 60006 81/31 92100=
07761,1998-10-02 00:00:00,13,1009.1,0.2,88,11,15000,11.112,,,40,,,,,,,,,,17,wg-a,,,,AAXX 02004 07761 12565 30406 10130 20110 30080 40091 53002 60006 71790 82931 90000=
07761,1998-10-02 03:00:00,13,1008.2,-0.9,88,11,11000,14.816,,,50,,,,,,,,,,,wg-a,,,,AAXX 02034 07761 32/61 /0508 10130 20110 30071 40082 56009 90300=
07761,1998-10-02 06:00:00,12,1008.4,0.2,88,10,500,11.112,,,40,11.8,16.5,,,,,2,,,1,wg-a,,,,AAXX 02064 07761 02600 /0406 10120 20100 30073 40084 53002 60006 70196 81200 90600 333 10165 20118 60024=
07761,1998-10-02 09:00:00,21,1009,0.7,60,13,35000,7.408,,,150,,,,,,,,,,,wg-a,,,,AAXX 02094 07761 12681 21504 10210 20130 30080 40090 51007 60006 82300 90900=
07761,1998-10-02 12:00:00,22,1008.4,-0.6,65,15,35000,18.52,,,240,,,,,,,,,,,wg-a,,,,AAXX 02124 07761 12681 32410 10220 20150 30074 40084 58006 60006 82201 91200=
07761,1998-10-02 15:00:00,21,1007.2,-1.2,60,13,500,14.816,,,220,,,,,,,,,,15,wg-a,,,,AAXX 02154 07761 12600 22208 10210 20130 30062 40072 58012 60006 71500 81261 91500=
07761,1998-10-02 18:00:00,18,1008.3,1,73,13,15000,7.408,,,100,11.7,22.1,,,,,,,,,wg-a,,,,AAXX 02184 07761 12565 51004 10180 20130 30072 40083 51010 60006 81261 91800 333 10221 20117=
07761,1998-10-02 21:00:00,16,1008.3,0,82,13,15000,14.816,,,50,,,,,,,,,,17,wg-a,,,,AAXX 02214 07761 12665 70508 10160 20130 30072 40083 50000 60006 71792 84993 92100=
07761,1998-10-03 00:00:00,15,1008.3,-0,88,13,8000,14.816,,,40,,,,8,,,,,,80,wg-a,,,,AAXX 03004 07761 02558 80408 10150 20130 30072 40083 55000 60086 78098 8597/ 90000 333 60087=
07761,1998-10-03 03:00:00,14,1007.9,-0.4,94,13,10000,3.704,,,80,,,,5,,,,,,21,wg-a,,,,AAXX 03034 07761 12560 80802 10140 20130 30068 40079 55004 60057 72196 8397/ 90300=
07761,1998-10-03 06:00:00,13,1008.4,0.5,94,12,9000,7.408,,,70,12.9,18.3,,,,,,,,80,wg-a,,,,AAXX 03064 07761 02559 80704 10130 20120 30073 40084 53005 61000 78096 8797/ 90600 333 10183 20129 6014=
07761,1998-10-03 09:00:00,16,1008.1,-0.3,82,13,15000,11.112,,,40,,,,2,,,,,,21,wg-a,,,,AAXX 03094 07761 12465 80406 10160 20130 30070 40081 57003 60027 72196 8637/ 90900=
07761,1998-10-03 12:00:00,20,1007.5,-0.5,64,13,15000,11.112,,,240,,,,1,,,,,,3,wg-a,,,,AAXX 03124 07761 02565 52406 10200 20130 30065 40075 58005 60036 70396 83272 91200 333 60017=
07761,1998-10-03 15:00:00,20,1007.9,0.4,68,14,25000,25.928,,,250,,,,,,,,,,,wg-a,,,,AAXX 03154 07761 12575 32514 10200 20140 30069 40079 53004 60006 83300 91500=
07761,1998-10-03 18:00:00,18,1009.5,1.5,73,13,20000,3.704,,,60,12.8,20.2,,,,,,,,,wg-a,,,,AAXX 03184 07761 12570 20602 10180 20130 30084 40095 53015 60006 82200 91800 333 10202 20128=
07761,1998-10-03 21:00:00,15,1010.3,0.8,82,12,15000,11.112,,,40,,,,,,,,,,,wg-a,,,,AAXX 03214 07761 12565 /0406 10150 20120 30092 40103 50008 60006 84800 92100=
07761,1998-10-04 00:00:00,14,1010.7,0.4,88,12,15000,11.112,,,60,,,,,,,,,,,wg-a,,,,AAXX 04004 07761 12665 /0606 10140 20120 30096 40107 50004 60006 86500 90000=
07761,1998-10-04 03:00:00,13,1010,-0.7,88,11,20000,7.408,,,30,,,,,,,,,,,wg-a,,,,AAXX 04034 07761 12670 30304 10130 20110 30089 40100 56007 60006 83530 90300=
07761,1998-10-04 06:00:00,14,1009.3,-0.7,82,11,25000,11.112,,,30,12.7,17.8,,,,,3,,,,wg-a,,,,AAXX 04064 07761 02575 70306 10140 20110 30082 40093 55007 60006 83842 90600 333 10178 20127 60034=
07761,1998-10-04 09:00:00,17,1009.8,0.5,72,12,25000,11.112,,,60,,,,,,,,,,,wg-a,,,,AAXX 04094 07761 12675 80606 10170 20120 30087 40098 50005 60006 8587/ 90900=
07761,1998-10-04 12:00:00,17,1009.8,-0,82,14,6000,14.816,,,220,,,,0,,,,,,61,wg-a,,,,AAXX 04124 07761 02556 82208 10170 20140 30087 40098 55000 60016 76162 8587/ 91200 333 60007=
07761,1998-10-04 15:00:00,16,1008.2,-1.6,88,14,15000,14.816,,,50,,,,2,,,,,,3,wg-a,,,,AAXX 04154 07761 12465 80508 10160 20140 30071 40082 58016 60027 70362 8387/ 91500=
07761,1998-10-04 18:00:00,15,1008.2,-0,94,14,4000,11.112,,,30,13.3,18.3,,,,,,,,61,wg-a,,,,AAXX 04184 07761 02440 80306 10150 20140 30071 40082 55000 61000 76162 888// 91800 333 10183 20133 6005=
07761,1998-10-04 21:00:00,16,1006.7,-1.5,88,14,10000,14.816,,,50,,,,2,,,,,,21,wg-a,,,,AAXX 04214 07761 12460 80508 10160 20140 30056 40067 56015 60027 72162 8/88/ 92100=
07761,1998-10-05 00:00:00,16,1005.2,-1.5,94,15,8000,11.112,,,50,,,,4,,,,,,61,wg-a,,,,AAXX 05004 07761 02558 80506 10160 20150 30041 40052 58015 60066 76162 8/88/ 90000 333 60047=
07761,1998-10-05 03:00:00,16,1003.4,-1.8,88,14,15000,14.816,,,50,,,,0,,,,,,61,wg-a,,,,AAXX 05034 07761 12565 80508 10160 20140 30023 40034 58018 60007 76166 8438/ 90300=
07761,1998-10-05 06:00:00,15,1002.8,-0.6,94,14,2000,11.112,,,30,14.7,16.4,,,,,,,,95,wg-a,,,,AAXX 05064 07761 02420 80306 10150 20140 30017 40028 55006 61000 79596 883// 90600 333 10164 20147 6042=
07761,1998-10-05 09:00:00,19,1004.6,1.9,88,17,25000,7.408,,,30,,,,3,,,,,,3,wg-a,,,,AAXX 05094 07761 12475 /0304 10190 20170 30036 40046 51019 60037 70396 83842 90900=
07761,1998-10-05 12:00:00,22,1004.9,0.3,83,19,25000,14.816,,,250,,,,,,,,,,1,wg-a,,,,AAXX 05124 07761 12575 82508 10220 20190 30039 40049 52003 60036 70196 8327/ 91200=
07761,1998-10-05 15:00:00,20,1005.2,0.3,88,18,6000,7.408,,,170,,,,2,,,,,,61,wg-a,,,,AAXX 05154 07761 12456 81704 10200 20180 30042 40052 53003 60027 76162 873// 91500=
07761,1998-10-05 18:00:00,20,1006,0.8,88,18,12000,7.408,,,60,14.6,22.7,,,,,,,,1,wg-a,,,,AAXX 05184 07761 02462 80604 10200 20180 30050 40060 53008 60006 70162 888// 91800 333 10227 20146 61000=
07761,1998-10-05 21:00:00,21,1006.8,0.8,88,19,10000,14.816,,,180,,,,5,,,,,,1,wg-a,,,,AAXX 05214 07761 12460 71808 10210 20190 30058 40068 53008 60057 70186 878// 92100=
07761,1998-10-06 00:00:00,20,1008,1.2,83,17,15000,29.632,,,160,,,,,,,,,,1,wg-a,,,,AAXX 06004 07761 12465 71616 10200 20170 30070 40080 53012 60056 70186 8687/ 90000=
07761,1998-10-06 03:00:00,18,1008.5,0.4,88,16,8000,14.816,,,130,,,,4,,,,,,61,wg-a,,,,AAXX 06034 07761 12458 81308 10180 20160 30074 40085 53004 60047 76162 888// 90300=
07761,1998-10-06 06:00:00,18,1007.3,-1.2,83,15,500,11.112,,,140,17.1,21,,,,,15,,,1,wg-a,,,,AAXX 06064 07761 02500 81406 10180 20150 30062 40073 56012 60006 70162 8687/ 90600 333 10210 20171 60154=
07761,1998-10-06 09:00:00,18,1009.9,2.6,88,16,7000,11.112,,,80,,,,1,,,,,,61,wg-a,,,,AAXX 06094 07761 12357 80806 10180 20160 30088 40099 53026 60017 76186 878// 90900=
07761,1998-10-06 12:00:00,18,1009.9,-0,88,16,2000,22.224,,,220,,,,5,,,,,,61,wg-a,,,,AAXX 06124 07761 02320 82212 10180 20160 30088 40099 55000 60066 76186 878// 91200 333 60057=
07761,1998-10-06 15:00:00,18,1010.3,-0,88,16,12000,11.112,,,90,,,,1,,,,,,61,wg-a,,,,AAXX 06154 07761 12362 80906 10180 20160 30092 40103 54000 60017 76162 8377/ 91500=
07761,1998-10-06 18:00:00,17,1010.9,0.6,88,15,12000,7.408,,,210,17,21.1,,,,,,,,21,wg-a,,,,AAXX 06184 07761 02562 82104 10170 20150 30098 40109 53006 61000 72162 878// 91800 333 10211 20170 6001=
07761,1998-10-06 21:00:00,16,1010.8,-0.1,94,15,12000,7.408,,,80,,,,,,,,,,60,wg-a,,,,AAXX 06214 07761 02562 80804 10160 20150 30097 40108 58001 61000 76062 888// 92100 333 ////=
07761,1998-10-07 00:00:00,16,1010.3,-0.5,88,14,8000,14.816,,,30,,,,3,,,,,,80,wg-a,,,,AAXX 07004 07761 02558 80308 10160 20140 30092 40103 58005 60036 78086 888// 90000 333 60037=
07761,1998-10-07 03:00:00,15,1008.9,-1.4,94,14,15000,3.704,,,40,,,,2,,,,,,21,wg-a,,,,AAXX 07034 07761 12565 30402 10150 20140 30078 40089 56014 60027 72186 83800 90300=
07761,1998-10-07 06:00:00,14,1009.1,0.2,94,13,20000,3.704,,,40,13.4,17.1,,,,,14,,,3,wg-a,,,,AAXX 07064 07761 02570 /0402 10140 20130 30080 40091 53002 60006 70386 82230 90600 333 10171 20134 60144=
07761,1998-10-07 09:00:00,18,1010.1,1,83,15,25000,7.408,,,90,,,,,,,,,,,wg-a,,,,AAXX 07094 07761 12475 40904 10180 20150 30090 40101 51010 60006 83230 90900=
07761,1998-10-07 12:00:00,20,1009.5,-0.6,68,14,500,14.816,,,220,,,,,,,,,,,wg-a,,,,AAXX 07124 07761 12500 52208 10200 20140 30084 40095 58006 60006 82302 91200=
07761,1998-10-07 15:00:00,19,1010.1,0.6,68,13,500,22.224,,,230,,,,,,,,,,,wg-a,,,,AAXX 07154 07761 12500 /2312 10190 20130 30090 40101 52006 60006 83962 91500=
07761,1998-10-07 18:00:00,18,1011,0.9,73,13,15000,7.408,,,300,13.6,20.6,,,,,,,,,wg-a,,,,AAXX 07184 07761 12565 83004 10180 20130 30099 40110 52009 60006 82262 91800 333 10206 20136=
07761,1998-10-07 21:00:00,15,1011.8,0.8,88,13,15000,22.224,,,90,,,,1,,,,,,25,wg-a,,,,AAXX 07214 07761 12565 80912 10150 20130 30107 40118 51008 60017 72586 878// 92100=
07761,1998-10-08 00:00:00,14,1012.2,0.4,88,12,15000,11.112,,,60,,,,,,,,,,1,wg-a,,,,AAXX 08004 07761 12565 50606 10140 20120 30111 40122 52004 60016 70186 83870 90000=
07761,1998-10-08 03:00:00,13,1012,-0.2,94,12,12000,11.112,,,60,,,,0,,,,,,25,wg-a,,,,AAXX 08034 07761 12562 80606 10130 20120 30109 40120 58002 60007 72586 878// 90300=
07761,1998-10-08 06:00:00,13,1012.3,0.3,88,11,12000,11.112,,,100,13.2,17.9,,,,,2,,,2,wg-a,,,,AAXX 08064 07761 02462 71006 10130 20110 30112 40123 52003 60006 70286 878// 90600 333 10179 20132 60024=
07761,1998-10-08 09:00:00,17,1014.7,2.4,72,12,15000,11.112,,,110,,,,,,,,,,,wg-a,,,,AAXX 08094 07761 12565 71106 10170 20120 30136 40147 51024 60006 8788/ 90900=
07761,1998-10-08 12:00:00,18,1016,1.3,64,11,25000,18.52,,,200,,,,,,,,,,25,wg-a,,,,AAXX 08124 07761 02575 72010 10180 20110 30149 40160 51013 61000 72586 878// 91200 333 6100=
07761,1998-10-08 15:00:00,18,1016.4,0.4,64,11,25000,14.816,,,200,,,,,,,,,,1,wg-a,,,,AAXX 08154 07761 02675 /2008 10180 20110 30153 40164 52004 61000 70186 86800 91500 333 ////=
07761,1998-10-08 18:00:00,15,1017.5,1.1,77,11,25000,11.112,,,100,13.3,19.1,,,,,,,,1,wg-a,,,,AAXX 08184 07761 12575 21006 10150 20110 30164 40175 53011 60006 70186 82800 91800 333 10191 20133=
07761,1998-10-08 21:00:00,14,1018.9,1.4,77,10,15000,18.52,,,60,,,,,,,,,,,wg-a,,,,AAXX 08214 07761 12665 60610 10140 20100 30178 40189 51014 60006 86500 92100=
07761,1998-10-09 00:00:00,14,1019.5,0.6,72,9,15000,14.816,,,50,,,,,,,,,,,wg-a,,,,AAXX 09004 07761 12665 70508 10140 20090 30184 40195 53006 60006 87500 90000=
07761,1998-10-09 06:00:00,12,1020.1,0.9,76,8,20000,14.816,,,40,11.2,14.8,,,,,,,,,wg-a,,,,AAXX 09064 07761 02670 30408 10120 20080 30190 40201 52009 60006 81940 90600 333 10148 20112 61000=
07761,1998-10-09 09:00:00,15,1021.5,1.4,82,12,20000,11.112,,,60,,,,1,,,,,,21,wg-a,,,,AAXX 09094 07761 12670 70606 10150 20120 30204 40215 51014 60017 72161 8787/ 90900=
07761,1998-10-09 12:00:00,20,1021.1,-0.4,56,11,25000,3.704,,,270,,,,,,,,,,2,wg-a,,,,AAXX 09124 07761 12675 62702 10200 20110 30200 40211 58004 60016 70261 83882 91200=
07761,1998-10-09 15:00:00,18,1020.4,-0.7,68,12,20000,3.704,,,210,,,,,,,,,,21,wg-a,,,,AAXX 09154 07761 02670 72102 10180 20120 30193 40204 58007 61000 72162 8387/ 91500 333 ////=
07761,1998-10-09 18:00:00,16,1021,0.6,82,13,18000,7.408,,,60,11.4,19.8,,,,,,,,2,wg-a,,,,AAXX 09184 07761 12668 70604 10160 20130 30199 40210 53006 60006 70262 82572 91800 333 10198 20114=
07761,1998-10-09 21:00:00,15,1021.5,0.5,82,12,18000,14.816,,,50,,,,,,,,,,,wg-a,,,,AAXX 09214 07761 12668 /0508 10150 20120 30204 40215 51005 60006 81280 92100=
07761,1998-10-10 00:00:00,13,1021.9,0.4,88,11,18000,11.112,,,50,,,,,,,,,,,wg-a,,,,AAXX 10004 07761 12568 60506 10130 20110 30208 40219 51004 60006 81288 90000=
07761,1998-10-10 03:00:00,12,1021.3,-0.6,88,10,20000,11.112,,,40,,,,,,,,,,,wg-a,,,,AAXX 10034 07761 12/70 /0406 10120 20100 30202 40213 58006 60006 80000 90300=
07761,1998-10-10 06:00:00,11,1021.3,-0,87,9,20000,11.112,,,50,10.3,16,,,,,1,,,,wg-a,,,,AAXX 10064 07761 02670 /0506 10110 20090 30202 40213 54000 60006 81200 90600 333 10160 20103 60014=
07761,1998-10-10 09:00:00,19,1022.5,1.2,64,12,40000,7.408,,,200,,,,,,,,,,,wg-a,,,,AAXX 10094 07761 12682 /2004 10190 20120 30214 40225 51012 60006 81100 90900=
07761,1998-10-10 12:00:00,20,1021.7,-0.8,60,12,40000,18.52,,,240,,,,,,,,,,,wg-a,,,,AAXX 10124 07761 12782 /2410 10200 20120 30206 40217 58008 60006 81232 91200=
07761,1998-10-10 15:00:00,20,1020.7,-1,56,11,50000,11.112,,,290,,,,,,,,,,,wg-a,,,,AAXX 10154 07761 12684 /2906 10200 20110 30196 40207 58010 60006 81231 91500=
07761,1998-10-10 18:00:00,16,1020.8,0.1,72,11,20000,7.408,,,60,10.8,20.4,,,,,,,,,wg-a,,,,AAXX 10184 07761 12/70 /0604 10160 20110 30197 40208 53001 60006 80002 91800 333 10204 20108=
07761,1998-10-10 21:00:00,12,1021,0.2,88,10,20000,11.112,,,40,,,,,,,,,,,wg-a,,,,AAXX 10214 07761 12/70 10406 10120 20100 30199 40210 51002 60006 80002 92100=
07761,1998-10-11 00:00:00,10,1020.9,-0.1,87,8,20000,11.112,,,50,,,,,,,,,,,wg-a,,,,AAXX 11004 07761 12/70 00506 10100 20080 30198 40209 55001 60006 80000 90000=
07761,1998-10-11 03:00:00,10,1019.6,-1.3,87,8,20000,14.816,,,60,,,,,,,,,,,wg-a,,,,AAXX 11034 07761 12/70 00608 10100 20080 30185 40196 58013 60006 80000 90300=
07761,1998-10-11 06:00:00,9,1019.1,-0.5,87,7,40000,14.816,,,50,9.1,15.5,,,,,,,,,wg-a,,,,AAXX 11064 07761 02782 /0508 10090 20070 30180 40191 55005 60006 81500 90600 333 10155 20091 60004=
07761,1998-10-11 09:00:00,19,1019.7,0.6,56,10,60000,7.408,,,210,,,,,,,,,,,wg-a,,,,AAXX 11094 07761 12686 22104 10190 20100 30186 40197 50006 60006 82200 90900=
07761,1998-10-11 12:00:00,20,1018.3,-1.4,64,13,500,25.928,,,240,,,,,,,,,,,wg-a,,,,AAXX 11124 07761 12600 22414 10200 20130 30172 40183 58014 60006 82200 91200=
07761,1998-10-11 15:00:00,18,1017.2,-1.1,73,13,20000,3.704,,,250,,,,,,,,,,21,wg-a,,,,AAXX 11154 07761 02670 72502 10180 20130 30161 40172 56011 61000 72161 878// 91500 333 ////=
07761,1998-10-11 18:00:00,16,1016.5,-0.7,88,14,15000,7.408,,,60,9.3,20.4,,,,,,,,1,wg-a,,,,AAXX 11184 07761 12565 /0604 10160 20140 30154 40165 56007 60006 70161 84800 91800 333 10204 20093=
07761,1998-10-11 21:00:00,14,1015.8,-0.7,88,12,15000,11.112,,,50,,,,,,,,,,,wg-a,,,,AAXX 11214 07761 12565 /0506 10140 20120 30147 40158 58007 60006 81800 92100=
07761,1998-10-12 00:00:00,14,1014,-1.8,88,12,15000,7.408,,,20,,,,,,,,,,,wg-a,,,,AAXX 12004 07761 12565 60204 10140 20120 30129 40140 56018 60006 86500 90000=
07761,1998-10-12 03:00:00,14,1011.9,-2.1,82,11,15000,7.408,,,40,,,,,,,,,,,wg-a,,,,AAXX 12034 07761 12665 /0404 10140 20110 30108 40119 56021 60006 81532 90300=
07761,1998-10-12 06:00:00,14,1011,-0.9,82,11,15000,14.816,,,50,13.3,16.2,,,,,,,,,wg-a,,,,AAXX 12064 07761 02665 70508 10140 20110 30099 40110 57009 60006 83572 90600 333 10162 20133 61000=
07761,1998-10-12 09:00:00,16,1010.8,-0.2,77,12,15000,7.408,,,30,,,,,,,,,,,wg-a,,,,AAXX 12094 07761 12665 70304 10160 20120 30097 40108 58002 60006 8657/ 90900=
07761,1998-10-12 12:00:00,21,1009.4,-1.3,69,15,25000,18.52,,,240,,,,,,,,,,,wg-a,,,,AAXX 12124 07761 12675 42410 10210 20150 30084 40094 58013 60006 82871 91200=
07761,1998-10-12 15:00:00,20,1008.8,-0.7,64,13,20000,7.408,,,320,,,,,,,,,,,wg-a,,,,AAXX 12154 07761 12570 73204 10200 20130 30077 40088 58007 60006 86871 91500=
07761,1998-10-12 18:00:00,16,1009.3,0.5,82,13,20000,3.704,,,130,13.7,20.8,,,,,,,,,wg-a,,,,AAXX 12184 07761 12570 41302 10160 20130 30082 40093 53005 60006 83871 91800 333 10208 20137=
07761,1998-10-12 21:00:00,13,1009.6,0.3,88,11,20000,11.112,,,40,,,,,,,,,,,wg-a,,,,AAXX 12214 07761 12/70 20406 10130 20110 30085 40096 52003 60006 80001 92100=
07761,1998-10-13 00:00:00,12,1010.5,0.9,88,10,15000,14.816,,,60,,,,,,,,,,,wg-a,,,,AAXX 13004 07761 12/65 00608 10120 20100 30094 40105 53009 60006 80000 90000=
07761,1998-10-13 03:00:00,11,1012,1.5,87,9,15000,11.112,,,50,,,,,,,,,,,wg-a,,,,AAXX 13034 07761 12/65 00506 10110 20090 30109 40120 53015 60006 80000 90300=
07761,1998-10-13 06:00:00,11,1014.7,2.7,87,9,10000,14.816,,,60,10.3,16.3,,,,,,,,,wg-a,,,,AAXX 13064 07761 02/60 /0608 10110 20090 30136 40147 53027 60006 90600 333 10163 20103 60004=
07761,1998-10-13 09:00:00,19,1017,2.3,68,13,25000,3.704,,,260,,,,,,,,,,,wg-a,,,,AAXX 13094 07761 12/75 02602 10190 20130 30159 40170 51023 60006 80000 90900=
07761,1998-10-13 12:00:00,21,1018,1,69,15,25000,22.224,,,230,,,,,,,,,,,wg-a,,,,AAXX 13124 07761 12675 22312 10210 20150 30169 40180 51010 60006 81101 91200=
07761,1998-10-13 15:00:00,21,1018.6,0.6,73,16,25000,18.52,,,250,,,,,,,,,,,wg-a,,,,AAXX 13154 07761 12675 /2510 10210 20160 30175 40186 51006 60006 81101 91500=
07761,1998-10-13 18:00:00,17,1020.8,2.2,77,13,25000,7.408,,,60,10.4,21.1,,,,,,,,,wg-a,,,,AAXX 13184 07761 12675 /0604 10170 20130 30197 40208 52022 60006 81100 91800 333 10211 20104=
07761,1998-10-13 21:00:00,13,1022.4,1.6,88,11,15000,11.112,,,50,,,,,,,,,,,wg-a,,,,AAXX 13214 07761 12665 /0506 10130 20110 30213 40224 51016 60006 81130 92100=
07761,1998-10-14 00:00:00,12,1023,0.6,88,10,15000,14.816,,,40,,,,,,,,,,,wg-a,,,,AAXX 14004 07761 12665 10408 10120 20100 30219 40230 51006 60006 81130 90000=
07761,1998-10-14 03:00:00,11,1022.7,-0.3,82,8,15000,14.816,,,40,,,,,,,,,,,wg-a,,,,AAXX 14034 07761 12665 /0408 10110 20080 30216 40227 58003 60006 81100 90300=
07761,1998-10-14 06:00:00,10,1023.6,0.9,82,7,25000,14.816,,,50,9.4,17,,,,,,,,,wg-a,,,,AAXX 14064 07761 02/75 /0508 10100 20070 30225 40236 53009 60006 81030 90600 333 10170 20094 60004=
07761,1998-10-14 09:00:00,19,1024.7,1.1,49,8,500,3.704,,,40,,,,,,,,,,,wg-a,,,,AAXX 14094 07761 12600 /0402 10190 20080 30236 40247 51011 60006 81101 90900=
07761,1998-10-14 12:00:00,21,1024.4,-0.3,64,14,50000,14.816,,,240,,,,,,,,,,,wg-a,,,,AAXX 14124 07761 12684 /2408 10210 20140 30233 40244 58003 60006 81100 91200=
07761,1998-10-14 15:00:00,20,1024.2,-0.2,68,14,50000,7.408,,,240,,,,,,,,,,,wg-a,,,,AAXX 14154 07761 12584 22404 10200 20140 30231 40242 55002 60006 82100 91500=
07761,1998-10-14 18:00:00,16,1024.7,0.5,82,13,20000,11.112,,,50,9.5,21.4,,,,,,,,,wg-a,,,,AAXX 14184 07761 12470 /0506 10160 20130 30236 40247 53005 60006 81500 91800 333 10214 20095=
07761,1998-10-14 21:00:00,12,1025,0.3,94,11,20000,14.816,,,40,,,,,,,,,,,wg-a,,,,AAXX 14214 07761 12/70 00408 10120 20110 30239 40250 53003 60006 80000 92100=
07761,1998-10-15 00:00:00,12,1024.9,-0.1,82,9,20000,14.816,,,50,,,,,,,,,,,wg-a,,,,AAXX 15004 07761 12/70 00508 10120 20090 30238 40249 58001 60006 80000 90000=
07761,1998-10-15 03:00:00,11,1023.9,-1,82,8,20000,18.52,,,50,,,,,,,,,,,wg-a,,,,AAXX 15034 07761 12/70 00510 10110 20080 30228 40239 58010 60006 80000 90300=
07761,1998-10-15 06:00:00,10,1024.3,0.4,87,8,0,14.816,,,50,10,16,,,,,,,,,wg-a,,,,AAXX 15064 07761 02/// /0508 10100 20080 30232 40243 52004 60006 90600 333 10160 20100 60004=
07761,1998-10-15 12:00:00,21,1023.9,-1.1,60,13,0,11.112,,,240,,,,,,,,,,,wg-a,,,,AAXX 15124 07761 12/// /2406 10210 20130 30228 40239 58011 60006 91200=
07761,1998-10-15 18:00:00,16,1023.3,0.4,82,13,0,14.816,,,50,10.3,20.6,,,,,,,,,wg-a,,,,AAXX 15184 07761 12/// /0508 10160 20130 30222 40233 53004 60006 91800 333 10206 20103=
07761,1998-10-15 21:00:00,13,1023.6,0.3,88,11,20000,14.816,,,40,,,,,,,,,,,wg-a,,,,AAXX 15214 07761 12/70 00408 10130 20110 30225 40236 52003 60006 80000 92100=
07761,1998-10-16 00:00:00,12,1023.5,-0.1,88,10,20000,14.816,,,40,,,,,,,,,,,wg-a,,,,AAXX 16004 07761 12770 /0408 10120 20100 30224 40235 58001 60006 81500 90000=
07761,1998-10-16 03:00:00,11,1022.6,-0.9,87,9,20000,14.816,,,50,,,,,,,,,,,wg-a,,,,AAXX 16034 07761 12/70 00508 10110 20090 30215 40226 56009 60006 80000 90300=
07761,1998-10-16 06:00:00,11,1022.9,0.3,87,9,20000,14.816,,,40,11.1,15.7,,,,,,,,,wg-a,,,,AAXX 16064 07761 02470 50408 10110 20090 30218 40229 53003 60006 81501 90600 333 10157 20111 60004=
07761,1998-10-16 09:00:00,19,1024.1,1.2,68,13,20000,3.704,,,40,,,,,,,,,,,wg-a,,,,AAXX 16094 07761 12470 70402 10190 20130 30230 40241 51012 60006 82801 90900=
07761,1998-10-16 12:00:00,21,1023.2,-0.9,64,14,40000,11.112,,,240,,,,,,,,,,,wg-a,,,,AAXX 16124 07761 12582 52406 10210 20140 30221 40232 58009 60006 81802 91200=
07761,1998-10-16 15:00:00,20,1022.1,-1.1,73,15,11000,14.816,,,240,,,,,,,,,,,wg-a,,,,AAXX 16154 07761 12/61 /2408 10200 20150 30210 40221 56011 60006 91500=
07761,1998-10-16 18:00:00,17,1022.4,0.3,82,14,15000,3.704,,,60,11.2,21,,,,,,,,,wg-a,,,,AAXX 16184 07761 12565 70602 10170 20140 30213 40224 53003 60006 82502 91800 333 10210 20112=
07761,1998-10-16 21:00:00,14,1022.3,-0.1,88,12,15000,11.112,,,40,,,,,,,,,,,wg-a,,,,AAXX 16214 07761 12/65 00406 10140 20120 30212 40223 55001 60006 80000 92100=
07761,1998-10-17 00:00:00,13,1021.4,-0.9,88,11,15000,11.112,,,40,,,,,,,,,,,wg-a,,,,AAXX 17004 07761 12/65 00406 10130 20110 30203 40214 58009 60006 80000 90000=
07761,1998-10-17 03:00:00,12,1020.5,-0.9,88,10,15000,11.112,,,40,,,,,,,,,,,wg-a,,,,AAXX 17034 07761 12/65 60406 10120 20100 30194 40205 57009 60006 80004 90300=
07761,1998-10-17 06:00:00,12,1020.4,-0.1,88,10,15000,11.112,,,50,11.3,17.1,,,,,,,,,wg-a,,,,AAXX 17064 07761 02/65 80506 10120 20100 30193 40204 58001 60006 85037 90600 333 10171 20113 60004=
07761,1998-10-17 09:00:00,17,1020.3,-0.1,77,13,20000,11.112,,,50,,,,,,,,,,,wg-a,,,,AAXX 17094 07761 12/70 60506 10170 20130 30192 40203 58001 60006 83085 90900=
07761,1998-10-17 12:00:00,20,1019.6,-0.7,73,15,20000,11.112,,,220,,,,,,,,,,,wg-a,,,,AAXX 17124 07761 12/70 72206 10200 20150 30185 40196 58007 60006 82075 91200=
07761,1998-10-17 15:00:00,21,1018.5,-1.1,60,13,20000,3.704,,,210,,,,,,,,,,,wg-a,,,,AAXX 17154 07761 12770 62102 10210 20130 30174 40185 56011 60006 81585 91500=
07761,1998-10-17 18:00:00,16,1018.2,-0.3,82,13,20000,11.112,,,60,11.7,21.7,,,,,,,,,wg-a,,,,AAXX 17184 07761 12/70 20606 10160 20130 30171 40182 56003 60006 80002 91800 333 10217 20117=
07761,1998-10-17 21:00:00,14,1018.6,0.4,88,12,20000,11.112,,,40,,,,,,,,,,,wg-a,,,,AAXX 17214 07761 12/70 00406 10140 20120 30175 40186 50004 60006 80000 92100=
07761,1998-10-18 00:00:00,14,1018.1,-0.5,77,10,20000,14.816,,,50,,,,,,,,,,,wg-a,,,,AAXX 18004 07761 12/70 00508 10140 20100 30170 40181 58005 60006 80000 90000=
07761,1998-10-18 03:00:00,13,1017.1,-1,72,8,20000,14.816,,,50,,,,,,,,,,,wg-a,,,,AAXX 18034 07761 12/70 00508 10130 20080 30160 40171 56010 60006 80000 90300=
07761,1998-10-18 06:00:00,12,1017.3,0.2,82,9,20000,14.816,,,40,11.5,16.2,,,,,,,,,wg-a,,,,AAXX 18064 07761 02/70 70408 10120 20090 30162 40173 53002 60006 81071 90600 333 10162 20115 60004=
07761,1998-10-18 09:00:00,21,1017.7,0.4,56,12,40000,11.112,,,50,,,,,,,,,,,wg-a,,,,AAXX 18094 07761 12582 70506 10210 20120 30166 40177 50004 60006 81832 90900=
07761,1998-10-18 12:00:00,22,1016.8,-0.8,73,17,20000,14.816,,,240,,,,,,,,,,,wg-a,,,,AAXX 18124 07761 12570 72408 10220 20170 30158 40168 58008 60006 82832 91200=
07761,1998-10-18 15:00:00,21,1015.7,-1.2,83,18,20000,14.816,,,230,,,,,,,,,,,wg-a,,,,AAXX 18154 07761 12570 /2308 10210 20180 30146 40157 56012 60006 81230 91500=
07761,1998-10-18 18:00:00,18,1015.8,0.1,88,16,15000,7.408,,,150,12,22.9,,,,,,,,,wg-a,,,,AAXX 18184 07761 12465 /1504 10180 20160 30147 40158 53001 60006 81431 91800 333 10229 20120=
07761,1998-10-18 21:00:00,15,1015.8,-0,94,14,10000,11.112,,,60,,,,,,,,,,,wg-a,,,,AAXX 18214 07761 12460 30606 10150 20140 30147 40158 55000 60006 82502 92100=
07761,1998-10-19 00:00:00,14,1014.2,-1.6,88,12,10000,11.112,,,50,,,,,,,,,,,wg-a,,,,AAXX 19004 07761 12/60 /0506 10140 20120 30131 40142 58016 60006 80000 90000=
07761,1998-10-19 03:00:00,14,1012.6,-1.6,88,12,10000,11.112,,,60,,,,,,,,,,,wg-a,,,,AAXX 19034 07761 12460 70606 10140 20120 30115 40126 56016 60006 8657/ 90300=
07761,1998-10-19 06:00:00,15,1011.3,-1.3,88,13,10000,11.112,,,50,12.6,17.7,,,,,,,,,wg-a,,,,AAXX 19064 07761 02560 80506 10150 20130 30102 40113 56013 60006 8687/ 90600 333 10177 20126 60004=
07761,1998-10-19 09:00:00,18,1011.6,0.3,77,14,15000,3.704,,,300,,,,,,,,,,17,wg-a,,,,AAXX 19094 07761 12565 83002 10180 20140 30105 40116 51003 60006 71792 8597/ 90900=
07761,1998-10-19 12:00:00,18,1010,-1.6,94,17,15000,14.816,,,80,,,,2,,,,,,21,wg-a,,,,AAXX 19124 07761 02565 80808 10180 20170 30089 40100 58016 60026 72198 85877 91200 333 60027=
07761,1998-10-19 15:00:00,19,1010.3,0.3,83,16,15000,11.112,,,270,,,,,,,,,,3,wg-a,,,,AAXX 19154 07761 02465 82706 10190 20160 30092 40103 53003 61000 70362 8427/ 91500 333 ////=
07761,1998-10-19 18:00:00,17,1010.7,0.4,82,14,15000,7.408,,,40,15.3,20.1,,,,,,,,2,wg-a,,,,AAXX 19184 07761 12565 80404 10170 20140 30096 40107 51004 60006 70262 8327/ 91800 333 10201 20153=
07761,1998-10-19 21:00:00,15,1011.4,0.7,94,14,15000,7.408,,,40,,,,,,,,,,,wg-a,,,,AAXX 19214 07761 12565 80404 10150 20140 30103 40114 53007 60006 81177 92100=
07761,1998-10-20 00:00:00,15,1011.1,-0.3,94,14,15000,7.408,,,40,,,,,,,,,,,wg-a,,,,AAXX 20004 07761 12565 70404 10150 20140 30100 40111 58003 60006 85502 90000=
07761,1998-10-20 03:00:00,13,1011.1,-0,100,13,20000,7.408,,,50,,,,,,,,,,,wg-a,,,,AAXX 20034 07761 12570 50504 10130 20130 30100 40111 54000 60006 82570 90300=
07761,1998-10-20 06:00:00,12,1011.7,0.6,94,11,20000,11.112,,,50,12,16.7,,,,,2,,,,wg-a,,,,AAXX 20064 07761 02670 20506 10120 20110 30106 40117 53006 60006 81132 90600 333 10167 20120 60024=
07761,1998-10-20 09:00:00,18,1013.9,2.2,73,13,20000,3.704,,,20,,,,,,,,,,,wg-a,,,,AAXX 20094 07761 12570 20202 10180 20130 30128 40139 51022 60006 82230 90900=
07761,1998-10-20 12:00:00,21,1014.6,0.7,60,13,25000,7.408,,,200,,,,,,,,,,,wg-a,,,,AAXX 20124 07761 12575 /2004 10210 20130 30135 40146 50007 60006 81200 91200=
07761,1998-10-20 15:00:00,21,1015.5,0.9,64,14,25000,11.112,,,190,,,,,,,,,,,wg-a,,,,AAXX 20154 07761 12675 21906 10210 20140 30144 40155 53009 60006 8/200 91500=
07761,1998-10-20 18:00:00,17,1018.3,2.8,77,13,25000,7.408,,,50,11,21.3,,,,,,,,,wg-a,,,,AAXX 20184 07761 12675 20504 10170 20130 30172 40183 53028 60006 82800 91800 333 10213 20110=
07761,1998-10-20 21:00:00,15,1021.4,3.1,82,12,20000,11.112,,,50,,,,,,,,,,,wg-a,,,,AAXX 20214 07761 12670 30506 10150 20120 30203 40214 51031 60006 83500 92100=
07761,1998-10-21 00:00:00,13,1023.2,1.8,88,11,20000,11.112,,,40,,,,,,,,,,,wg-a,,,,AAXX 21004 07761 12770 /0406 10130 20110 30221 40232 51018 60006 85500 90000=
07761,1998-10-21 03:00:00,13,1023.5,0.3,82,10,20000,18.52,,,50,,,,,,,,,,,wg-a,,,,AAXX 21034 07761 12570 20510 10130 20100 30224 40235 51003 60006 82500 90300=
07761,1998-10-21 06:00:00,11,1024.6,1.1,87,9,20000,14.816,,,40,11.1,16.6,,,,,,,,,wg-a,,,,AAXX 21064 07761 02570 /0408 10110 20090 30235 40246 51011 60006 81501 90600 333 10166 20111 60004=
07761,1998-10-21 09:00:00,19,1026.5,1.9,52,9,40000,3.704,,,30,,,,,,,,,,,wg-a,,,,AAXX 21094 07761 12582 20302 10190 20090 30254 40265 51019 60006 81801 90900=
07761,1998-10-21 12:00:00,21,1026.7,0.2,69,15,40000,18.52,,,230,,,,,,,,,,,wg-a,,,,AAXX 21124 07761 12682 22310 10210 20150 30256 40267 51002 60006 8/800 91200=
07761,1998-10-21 15:00:00,20,1027.1,0.4,73,15,40000,14.816,,,210,,,,,,,,,,,wg-a,,,,AAXX 21154 07761 12682 /2108 10200 20150 30260 40271 53004 60006 81100 91500=
07761,1998-10-21 18:00:00,16,1028.5,1.4,82,13,20000,7.408,,,70,11.1,21.4,,,,,,,,,wg-a,,,,AAXX 21184 07761 12570 /0704 10160 20130 30274 40285 53014 60006 81100 91800 333 10214 20111=
07761,1998-10-21 21:00:00,13,1029.4,0.9,88,11,20000,7.408,,,30,,,,,,,,,,,wg-a,,,,AAXX 21214 07761 12/70 00304 10130 20110 30283 40294 52009 60006 80000 92100=
07761,1998-10-22 00:00:00,10,1029.1,-0.5,82,7,20000,14.816,,,40,,,,,,,,,,,wg-a,,,,AAXX 22004 07761 12/70 00408 10100 20070 30280 40291 58005 60006 80000 90000=
07761,1998-10-22 06:00:00,9,1030.1,1,81,6,20000,18.52,,,40,8.7,15.9,,,,,,,,,wg-a,,,,AAXX 22064 07761 02/70 10410 10090 20060 30290 40301 51010 60006 81031 90600 333 10159 20087 60004=
07761,1998-10-22 09:00:00,18,1030.9,0.8,52,8,20000,3.704,,,30,,,,,,,,,,,wg-a,,,,AAXX 22094 07761 12570 /0302 10180 20080 30298 40309 50008 60006 81102 90900=
07761,1998-10-22 12:00:00,21,1030.2,-0.7,60,13,500,14.816,,,240,,,,,,,,,,,wg-a,,,,AAXX 22124 07761 12600 /2408 10210 20130 30291 40302 58007 60006 81102 91200=
07761,1998-10-22 15:00:00,20,1029.5,-0.7,56,11,500,14.816,,,240,,,,,,,,,,,wg-a,,,,AAXX 22154 07761 12600 /2408 10200 20110 30284 40295 56007 60006 81102 91500=
07761,1998-10-22 18:00:00,15,1030.4,0.9,72,10,500,11.112,,,50,9,20.9,,,,,,,,,wg-a,,,,AAXX 22184 07761 12/00 /0506 10150 20100 30293 40304 53009 60006 80000 91800 333 10209 20090=
07761,1998-10-22 21:00:00,11,1030.7,0.3,82,8,500,14.816,,,50,,,,,,,,,,,wg-a,,,,AAXX 22214 07761 12/00 00508 10110 20080 30296 40307 53003 60006 80000 92100=
07761,1998-10-23 00:00:00,10,1030.1,-0.6,82,7,500,14.816,,,50,,,,,,,,,,,wg-a,,,,AAXX 23004 07761 12/00 00508 10100 20070 30290 40301 58006 60006 80000 90000=
07761,1998-10-23 03:00:00,10,1029.1,-1,82,7,25000,14.816,,,40,,,,,,,,,,,wg-a,,,,AAXX 23034 07761 12/75 00408 10100 20070 30280 40291 56010 60006 80000 90300=
07761,1998-10-23 06:00:00,9,1028.7,-0.4,81,6,25000,18.52,,,40,8.5,14.6,,,,,,,,,wg-a,,,,AAXX 23064 07761 02575 30410 10090 20060 30276 40287 57004 60006 82801 90600 333 10146 20085 60004=
07761,1998-10-23 09:00:00,17,1028.5,-0.2,63,10,20000,7.408,,,60,,,,,,,,,,,wg-a,,,,AAXX 23094 07761 12/70 /0604 10170 20100 30274 40285 58002 60006 80001 90900=
07761,1998-10-23 12:00:00,20,1027.1,-1.4,68,14,40000,14.816,,,230,,,,,,,,,,,wg-a,,,,AAXX 23124 07761 12582 32308 10200 20140 30260 40271 58014 60006 82102 91200=
07761,1998-10-23 15:00:00,20,1025.4,-1.7,64,13,40000,14.816,,,300,,,,,,,,,,,wg-a,,,,AAXX 23154 07761 12582 23008 10200 20130 30243 40254 56017 60006 82101 91500=
07761,1998-10-23 18:00:00,15,1025,-0.4,82,12,500,3.704,,,60,8.3,20.4,,,,,,,,,wg-a,,,,AAXX 23184 07761 12600 /0602 10150 20120 30239 40250 56004 60006 82504 91800 333 10204 20083=
07761,1998-10-23 21:00:00,13,1024.7,-0.3,88,11,20000,14.816,,,40,,,,,,,,,,,wg-a,,,,AAXX 23214 07761 12670 70408 10130 20110 30236 40247 57003 60006 875// 92100=
07761,1998-10-24 00:00:00,14,1023.3,-1.4,82,11,15000,7.408,,,340,,,,,,,,,,,wg-a,,,,AAXX 24004 07761 12665 73404 10140 20110 30222 40233 58014 60006 875// 90000=
07761,1998-10-24 03:00:00,14,1021,-2.3,82,11,15000,11.112,,,70,,,,,,,,,,,wg-a,,,,AAXX 24034 07761 12565 70706 10140 20110 30199 40210 56023 60006 8553/ 90300=
07761,1998-10-24 06:00:00,15,1019.8,-1.2,82,12,15000,7.408,,,10,12.6,15.4,,,,,,,,,wg-a,,,,AAXX 24064 07761 02565 70104 10150 20120 30187 40198 56012 60006 875// 90600 333 10154 20126 60004=
07761,1998-10-24 09:00:00,17,1019.3,-0.5,77,13,15000,3.704,,,70,,,,,,,,,,,wg-a,,,,AAXX 24094 07761 12565 80702 10170 20130 30182 40193 58005 60006 8/52/ 90900=
07761,1998-10-24 12:00:00,21,1017,-2.3,69,15,11000,7.408,,,210,,,,,,,,,,,wg-a,,,,AAXX 24124 07761 12/61 /2104 10210 20150 30159 40170 58023 60006 91200=
07761,1998-10-24 15:00:00,20,1016.7,-0.3,60,12,15000,7.408,,,300,,,,,,,,,,,wg-a,,,,AAXX 24154 07761 12565 /3004 10200 20120 30156 40167 55003 60006 81832 91500=
07761,1998-10-24 18:00:00,16,1016.8,0.1,82,13,15000,7.408,,,70,15.1,21.2,,,,,,,,,wg-a,,,,AAXX 24184 07761 12565 40704 10160 20130 30157 40168 53001 60006 81842 91800 333 10212 20151=
07761,1998-10-24 21:00:00,13,1017,0.2,88,11,15000,11.112,,,40,,,,,,,,,,,wg-a,,,,AAXX 24214 07761 12665 50406 10130 20110 30159 40170 51002 60006 82542 92100=
07761,1998-10-25 00:00:00,13,1015.4,-1.6,82,10,15000,14.816,,,50,,,,,,,,,,,wg-a,,,,AAXX 25004 07761 12565 /0508 10130 20100 30143 40154 57016 60006 85530 90000=
07761,1998-10-25 03:00:00,14,1012.8,-2.6,77,10,15000,14.816,,,40,,,,,,,,,,,wg-a,,,,AAXX 25034 07761 12565 70408 10140 20100 30117 40128 57026 60006 875// 90300=
07761,1998-10-25 06:00:00,15,1011.4,-1.4,82,12,20000,7.408,,,30,12.5,16,,,,,,,,,wg-a,,,,AAXX 25064 07761 02570 80304 10150 20120 30103 40114 56014 60006 875// 90600 333 10160 20125 60004=
07761,1998-10-25 09:00:00,17,1010.4,-1,82,14,12000,7.408,,,50,,,,,,,,,,,wg-a,,,,AAXX 25094 07761 12462 80504 10170 20140 30093 40104 58010 60006 885// 90900=
07761,1998-10-25 12:00:00,20,1008.9,-1.4,88,18,6000,14.816,,,220,,,,1,,,,,,60,wg-a,,,,AAXX 25124 07761 02456 82208 10200 20180 30079 40089 57014 60016 76062 885// 91200 333 60017=
07761,1998-10-25 15:00:00,20,1007.7,-1.2,78,16,10000,7.408,,,330,,,,,,,,,,1,wg-a,,,,AAXX 25154 07761 02460 73304 10200 20160 30067 40077 56012 61000 70162 8687/ 91500 333 ////=
07761,1998-10-25 18:00:00,19,1008.8,1,68,13,18000,7.408,,,280,15.1,20.5,,,,,,,,2,wg-a,,,,AAXX 25184 07761 12568 72804 10190 20130 30077 40088 53010 60006 70262 8687/ 91800 333 10205 20151=
07761,1998-10-25 21:00:00,17,1009.6,0.8,77,13,18000,3.704,,,320,,,,1,,,,,,60,wg-a,,,,AAXX 25214 07761 12568 73202 10170 20130 30085 40096 53008 60017 76062 8687/ 92100=
07761,1998-10-26 00:00:00,15,1009.6,-0,82,12,18000,3.704,,,40,,,,,,,,,,20,wg-a,,,,AAXX 26004 07761 02568 70402 10150 20120 30085 40096 55000 60016 72062 8617/ 90000 333 61000=
07761,1998-10-26 03:00:00,13,1009.4,-0.2,88,11,18000,11.112,,,60,,,,,,,,,,,wg-a,,,,AAXX 26034 07761 12568 40606 10130 20110 30083 40094 56002 60006 8327/ 90300=
07761,1998-10-26 06:00:00,11,1010.2,0.8,94,10,18000,11.112,,,70,11.2,19.2,,,,,1,,,,wg-a,,,,AAXX 26064 07761 02668 30706 10110 20100 30091 40102 51008 60006 83800 90600 333 10192 20112 60014=
07761,1998-10-26 09:00:00,18,1011.5,1.3,56,9,500,3.704,,,290,,,,,,,,,,,wg-a,,,,AAXX 26094 07761 12600 32902 10180 20090 30104 40115 51013 60006 83500 90900=
07761,1998-10-26 12:00:00,19,1011.6,0.1,56,10,35000,22.224,,,280,,,,,,,,,,,wg-a,,,,AAXX 26124 07761 12681 /2812 10190 20100 30105 40116 52001 60006 81500 91200=
07761,1998-10-26 15:00:00,19,1013.5,1.9,52,9,35000,22.224,,,310,,,,,,,,,,,wg-a,,,,AAXX 26154 07761 12681 /3112 10190 20090 30124 40135 53019 60006 81500 91500=
07761,1998-10-26 18:00:00,14,1016.3,2.8,67,8,15000,11.112,,,60,11.2,20,,,,,,,,,wg-a,,,,AAXX 26184 07761 12665 /0606 10140 20080 30152 40163 53028 60006 81500 91800 333 10200 20112=
07761,1998-10-26 21:00:00,11,1017.8,1.5,87,9,15000,14.816,,,60,,,,,,,,,,,wg-a,,,,AAXX 26214 07761 12665 30608 10110 20090 30167 40178 51015 60006 83502 92100=
07761,1998-10-27 00:00:00,17,1016.2,-1.6,63,10,15000,29.632,,51.856,310,,,,,,,,,,,wg-a,,,,AAXX 27004 07761 12665 33116 10170 20100 30151 40162 56016 60006 83500 90000 333 91028=
07761,1998-10-27 03:00:00,16,1017.9,1.7,59,8,15000,11.112,,53.708,320,,,,,,,,,,,wg-a,,,,AAXX 27034 07761 12565 33206 10160 20080 30168 40179 53017 60006 83500 90300 333 91029=
07761,1998-10-27 06:00:00,12,1020.8,2.9,76,8,20000,11.112,,53.708,50,11.3,17.2,,,,,,,,,wg-a,,,,AAXX 27064 07761 02570 20506 10120 20080 30197 40208 51029 60006 82500 90600 333 10172 20113 60004 91029=
07761,1998-10-27 09:00:00,18,1023.5,2.7,56,9,10000,3.704,,,150,,,,,,,,,,,wg-a,,,,AAXX 27094 07761 12/60 /1502 10180 20090 30224 40235 51027 60006 90900=
07761,1998-10-27 12:00:00,20,1024,0.5,56,11,40000,14.816,,,240,,,,,,,,,,,wg-a,,,,AAXX 27124 07761 12/82 02408 10200 20110 30229 40240 51005 60006 80000 91200=
07761,1998-10-27 15:00:00,18,1025.9,1.9,56,9,500,22.224,,,240,,,,,,,,,,,wg-a,,,,AAXX 27154 07761 12600 /2412 10180 20090 30248 40259 53019 60006 81801 91500=
07761,1998-10-27 18:00:00,15,1027.3,1.4,72,10,500,7.408,,,60,11.4,19.9,,,,,,,,,wg-a,,,,AAXX 27184 07761 12500 /0604 10150 20100 30262 40273 51014 60006 85801 91800 333 10199 20114=
07761,1998-10-27 21:00:00,12,1028.5,1.2,82,9,15000,14.816,,,40,,,,,,,,,,,wg-a,,,,AAXX 27214 07761 12565 20408 10120 20090 30274 40285 51012 60006 82500 92100=
07761,1998-10-28 00:00:00,10,1028.8,0.3,87,8,15000,18.52,,,50,,,,,,,,,,,wg-a,,,,AAXX 28004 07761 12665 50510 10100 20080 30277 40288 50003 60006 83504 90000=
07761,1998-10-28 03:00:00,12,1027.5,-1.3,82,9,20000,14.816,,,40,,,,,,,,,,,wg-a,,,,AAXX 28034 07761 12670 30408 10120 20090 30264 40275 58013 60006 83500 90300=
07761,1998-10-28 06:00:00,13,1027.5,0,77,9,20000,7.408,,,40,10,14.6,,,,,,,,,wg-a,,,,AAXX 28064 07761 02570 70404 10130 20090 30264 40275 50000 60006 878// 90600 333 10146 20100 60004=
07761,1998-10-28 09:00:00,18,1028.1,0.6,77,14,20000,0,,,0,,,,,,,,,,,wg-a,,,,AAXX 28094 07761 12570 70000 10180 20140 30270 40281 50006 60006 87800 90900=
07761,1998-10-28 12:00:00,20,1026.9,-1.2,73,15,20000,14.816,,,230,,,,,,,,,,,wg-a,,,,AAXX 28124 07761 12570 72308 10200 20150 30258 40269 58012 60006 8383/ 91200=
07761,1998-10-28 18:00:00,16,1026,0.3,88,14,20000,11.112,,,60,12.7,21.2,,,,,,,,,wg-a,,,,AAXX 28184 07761 12570 40606 10160 20140 30249 40260 53003 60006 83831 91800 333 10212 20127=
07761,1998-10-28 21:00:00,13,1026,0,88,11,20000,14.816,,,50,,,,,,,,,,,wg-a,,,,AAXX 28214 07761 12/70 00508 10130 20110 30249 40260 50000 60006 80000 92100=
07761,1998-10-29 00:00:00,11,1025.1,-0.9,87,9,20000,11.112,,,60,,,,,,,,,,,wg-a,,,,AAXX 29004 07761 12570 /0606 10110 20090 30240 40251 58009 60006 81500 90000=
07761,1998-10-29 06:00:00,11,1023.4,-0.4,82,8,20000,14.816,,,60,9.4,16.1,,,,,,,,,wg-a,,,,AAXX 29064 07761 02670 60608 10110 20080 30223 40234 55004 60006 85502 90600 333 10161 20094 60004=
07761,1998-10-29 09:00:00,17,1023.4,0,77,13,500,11.112,,,40,,,,,,,,,,,wg-a,,,,AAXX 29094 07761 12500 /0406 10170 20130 30223 40234 50000 60006 83800 90900=
07761,1998-10-29 12:00:00,21,1022.5,-0.9,69,15,500,7.408,,,220,,,,,,,,,,,wg-a,,,,AAXX 29124 07761 12500 52204 10210 20150 30214 40225 58009 60006 85800 91200=
07761,1998-10-29 18:00:00,17,1020.6,-0.2,82,14,20000,7.408,,,40,10.8,21.3,,,,,,,,,wg-a,,,,AAXX 29184 07761 12570 20404 10170 20140 30195 40206 58002 60006 82500 91800 333 10213 20108=
07761,1998-10-29 21:00:00,14,1020.6,-0,88,12,15000,11.112,,,60,,,,,,,,,,,wg-a,,,,AAXX 29214 07761 12565 50606 10140 20120 30195 40206 55000 60006 85500 92100=
07761,1998-10-30 00:00:00,12,1020.4,-0.2,94,11,15000,11.112,,,70,,,,,,,,,,,wg-a,,,,AAXX 30004 07761 12565 30706 10120 20110 30193 40204 58002 60006 81502 90000=
07761,1998-10-30 03:00:00,10,1020,-0.4,93,9,15000,11.112,,,40,,,,,,,,,,,wg-a,,,,AAXX 30034 07761 12565 /0406 10100 20090 30189 40200 58004 60006 81502 90300=
07761,1998-10-30 06:00:00,8,1020.2,0.2,93,7,18000,14.816,,,40,8.1,16.6,,0,,,,,,,wg-a,,,,AAXX 30064 07761 02/68 30408 10080 20070 30191 40202 51002 60004 81032 90600 333 10166 20081 60007=
07761,1998-10-30 12:00:00,19,1019.5,-1.4,40,5,25000,11.112,,,290,,,,,,,,,,,wg-a,,,,AAXX 30124 07761 12675 32906 10190 20050 30184 40195 58014 60006 81502 91200=
07761,1998-10-30 15:00:00,16,1019.1,-0.4,63,9,18000,18.52,,,300,,,,,,,,,,,wg-a,,,,AAXX 30154 07761 12668 73010 10160 20090 30180 40191 55004 60006 82545 91500=
07761,1998-10-30 18:00:00,15,1019.1,-0,67,9,15000,3.704,,,340,7.7,18.7,,,,,,,,,wg-a,,,,AAXX 30184 07761 12665 /3402 10150 20090 30180 40191 55000 60006 84535 91800 333 10187 20077=
07761,1998-10-30 21:00:00,12,1018.4,-0.7,82,9,15000,7.408,,,80,,,,,,,,,,,wg-a,,,,AAXX 30214 07761 12665 30804 10120 20090 30173 40184 56007 60006 83500 92100=
07761,1998-10-31 00:00:00,12,1017.8,-0.6,76,8,15000,11.112,,,40,,,,,,,,,,,wg-a,,,,AAXX 31004 07761 12665 60406 10120 20080 30167 40178 55006 60006 86500 90000=
07761,1998-10-31 03:00:00,12,1016.7,-1.1,76,8,15000,11.112,,,50,,,,,,,,,,,wg-a,,,,AAXX 31034 07761 12665 /0506 10120 20080 30156 40167 58011 60006 85500 90300=
07761,1998-10-31 06:00:00,10,1017.1,0.4,76,6,25000,18.52,,,50,10.2,15.3,,,,,,,,,wg-a,,,,AAXX 31064 07761 02675 60510 10100 20060 30160 40171 52004 60006 82504 90600 333 10153 20102 60004=
07761,1998-10-31 09:00:00,15,1018.4,1.3,63,8,25000,11.112,,,40,,,,,,,,,,,wg-a,,,,AAXX 31094 07761 12675 /0406 10150 20080 30173 40184 51013 60006 83502 90900=
07761,1998-10-31 12:00:00,18,1017.6,-0.8,59,10,25000,18.52,,,230,,,,,,,,,,,wg-a,,,,AAXX 31124 07761 12675 72310 10180 20100 30165 40176 58008 60006 83108 91200=
07761,1998-10-31 15:00:00,17,1017.2,-0.4,59,9,25000,22.224,,,250,,,,,,,,,,,wg-a,,,,AAXX 31154 07761 12575 /2512 10170 20090 30161 40172 56004 60006 84832 91500=
07761,1998-10-31 18:00:00,13,1017.5,0.3,82,10,20000,11.112,,,50,9.8,18.4,,,,,,,,,wg-a,,,,AAXX 31184 07761 12570 /0506 10130 20100 30164 40175 53003 60006 82548 91800 333 10184 20098=
07761,1998-10-31 21:00:00,12,1017.4,-0.1,82,9,15000,11.112,,,50,,,,,,,,,,,wg-a,,,,AAXX 31214 07761 12565 70506 10120 20090 30163 40174 55001 60006 875// 92100=
07761,1998-11-01 00:00:00,12,1016,-1.4,76,8,15000,11.112,,,40,,,,,,,,,,,wg-a,,,,AAXX 01004 07761 12565 70406 10120 20080 30149 40160 58014 60006 875// 90000=
07761,1998-11-01 03:00:00,12,1014,-2,76,8,15000,11.112,,,20,,,,,,,,,,,wg-a,,,,AAXX 01034 07761 12565 50206 10120 20080 30129 40140 56020 60006 85502 90300=
07761,1998-11-01 06:00:00,12,1013.1,-0.9,82,9,20000,11.112,,,50,11.1,13.5,,,,,,,,,wg-a,,,,AAXX 01064 07761 02670 60506 10120 20090 30120 40131 56009 60006 85102 90600 333 10135 20111 60004=
07761,1998-11-01 09:00:00,15,1013.4,0.3,77,11,25000,11.112,,,60,,,,,,,,,,,wg-a,,,,AAXX 01094 07761 12575 70606 10150 20110 30123 40134 51003 60006 878// 90900=
07761,1998-11-01 12:00:00,20,1011.8,-1.6,73,15,11000,11.112,,,210,,,,,,,,,,,wg-a,,,,AAXX 01124 07761 12/61 /2106 10200 20150 30107 40118 58016 60006 91200=
07761,1998-11-01 15:00:00,19,1010.3,-1.5,73,14,20000,18.52,,,260,,,,,,,,,,,wg-a,,,,AAXX 01154 07761 12470 72610 10190 20140 30092 40103 56015 60006 8584/ 91500=
07761,1998-11-02 00:00:00,17,1010.4,-1,77,13,20000,7.408,,,280,,,,,,,,,,,wg-a,,,,AAXX 02004 07761 12570 /2804 10170 20130 30093 40104 56010 60006 86800 90000=
07761,1998-11-02 03:00:00,13,1009.9,-0.5,94,12,20000,7.408,,,60,,,,,,,,,,,wg-a,,,,AAXX 02034 07761 12570 40604 10130 20120 30088 40099 58005 60006 84800 90300=
07761,1998-11-02 06:00:00,11,1010.6,0.7,94,10,18000,11.112,,,50,11,18.3,,,,,,,,,wg-a,,,,AAXX 02064 07761 02568 40506 10110 20100 30095 40106 53007 60006 83542 90600 333 10183 20110 60004=
07761,1998-11-02 09:00:00,17,1012.4,1.8,72,12,25000,3.704,,,90,,,,,,,,,,,wg-a,,,,AAXX 02094 07761 12575 30902 10170 20120 30113 40124 51018 60006 83800 90900=
07761,1998-11-02 12:00:00,19,1012.2,-0.2,64,12,25000,18.52,,,240,,,,,,,,,,,wg-a,,,,AAXX 02124 07761 12675 /2410 10190 20120 30111 40122 58002 60006 81500 91200=
07761,1998-11-02 15:00:00,19,1011.2,-1,64,12,25000,7.408,,,230,,,,,,,,,,,wg-a,,,,AAXX 02154 07761 12675 72304 10190 20120 30101 40112 56010 60006 81541 91500=
07761,1998-11-02 18:00:00,17,1010.7,-0.5,72,12,25000,7.408,,,50,11,19.6,,,,,,,,60,wg-a,,,,AAXX 02184 07761 02575 70504 10170 20120 30096 40107 57005 61000 76061 8654/ 91800 333 10196 20110 6100=
07761,1998-11-02 21:00:00,15,1010.7,0,94,14,10000,11.112,,,40,,,,2,,,,,,21,wg-a,,,,AAXX 02214 07761 12460 70406 10150 20140 30096 40107 50000 60027 72162 8454/ 92100=
07761,1998-11-03 00:00:00,14,1010.9,0.2,94,13,15000,11.112,,,70,,,,,,,,,,1,wg-a,,,,AAXX 03004 07761 12665 /0706 10140 20130 30098 40109 50002 60026 70161 81500 90000=
07761,1998-11-03 03:00:00,12,1010.4,-0.5,94,11,15000,11.112,,,40,,,,,,,,,,,wg-a,,,,AAXX 03034 07761 12/65 00406 10120 20110 30093 40104 58005 60006 80000 90300=
07761,1998-11-03 06:00:00,11,1010.6,0.2,87,9,20000,11.112,,,40,10.4,17.2,,,,,2,,,,wg-a,,,,AAXX 03064 07761 02670 30406 10110 20090 30095 40106 50002 60006 81532 90600 333 10172 20104 60024=
07761,1998-11-03 09:00:00,17,1011.3,0.7,82,14,25000,11.112,,,50,,,,,,,,,,,wg-a,,,,AAXX 03094 07761 12575 70506 10170 20140 30102 40113 51007 60006 86542 90900=
07761,1998-11-03 12:00:00,19,1010.1,-1.2,88,17,8000,25.928,,,200,,,,0,,,,,,80,wg-a,,,,AAXX 03124 07761 02458 72014 10190 20170 30090 40101 58012 60006 78086 878// 91200 333 60007=
07761,1998-11-03 15:00:00,19,1009.1,-1,88,17,10000,31.484,,,210,,,,0,,,,,,3,wg-a,,,,AAXX 03154 07761 12460 82117 10190 20170 30080 40091 56010 60007 70386 888// 91500=
07761,1998-11-03 18:00:00,19,1009,-0.1,88,17,10000,29.632,,,200,10.2,19,,,,,,,,3,wg-a,,,,AAXX 03184 07761 12460 82016 10190 20170 30079 40090 55001 60006 70386 8581/ 91800 333 10190 20102=
07761,1998-11-03 21:00:00,19,1009,-0,88,17,11000,31.484,,,200,,,,,,,,,,,wg-a,,,,AAXX 03214 07761 12/61 /2017 10190 20170 30079 40090 55000 60006 92100=
07761,1998-11-04 00:00:00,19,1008.6,-0.4,88,17,0,29.632,,,200,,,,,,,,,,,wg-a,,,,AAXX 04004 07761 12/// /2016 10190 20170 30075 40086 58004 60006 90000=
07761,1998-11-04 03:00:00,19,1007,-1.6,83,16,12000,25.928,,,200,,,,,,,,,,,wg-a,,,,AAXX 04034 07761 12462 82014 10190 20160 30059 40070 58016 60006 875// 90300=
07761,1998-11-04 06:00:00,19,1007.1,0.1,83,16,12000,31.484,,,200,18.4,19,,,,,1,,,,wg-a,,,,AAXX 04064 07761 02462 72017 10190 20160 30060 40071 52001 60006 8687/ 90600 333 10190 20184 60014=
07761,1998-11-04 09:00:00,19,1008,1,88,17,8000,35.188,,,210,,,,,,,,,,,wg-a,,,,AAXX 04094 07761 12458 72119 10190 20170 30070 40080 52010 60006 872// 90900=
07761,1998-11-04 12:00:00,20,1007.3,-0.7,83,17,9000,35.188,,,210,,,,,,,,,,,wg-a,,,,AAXX 04124 07761 12459 72119 10200 20170 30063 40073 58007 60006 872// 91200=
07761,1998-11-04 15:00:00,19,1007.1,-0.2,88,17,8000,29.632,,,220,,,,,,,,,,,wg-a,,,,AAXX 04154 07761 12458 /2216 10190 20170 30061 40071 55002 60006 86200 91500=
07761,1998-11-04 18:00:00,18,1008.4,1.2,94,17,9000,18.52,,,230,18.3,20.6,,,,,,,,,wg-a,,,,AAXX 04184 07761 12259 72310 10180 20170 30073 40084 53012 60006 872// 91800 333 10206 20183=
07761,1998-11-04 21:00:00,17,1010,1.6,94,16,8000,3.704,,,120,,,,,,,,,,3,wg-a,,,,AAXX 04214 07761 02458 81202 10170 20160 30089 40100 51016 61000 70386 878// 92100 333 ////=
07761,1998-11-05 00:00:00,16,1011,1,88,14,8000,11.112,,29.632,330,,,,0,,,,,,21,wg-a,,,,AAXX 05004 07761 02458 83306 10160 20140 30099 40110 53010 60006 72186 878// 90000 333 60007 91016=
07761,1998-11-05 03:00:00,14,1012.8,1.8,94,13,8000,7.408,,,310,,,,4,,,,,,61,wg-a,,,,AAXX 05034 07761 12458 83104 10140 20130 30117 40128 51018 60047 76162 8687/ 90300=
07761,1998-11-05 06:00:00,14,1014,1.2,88,12,20000,7.408,,,50,13.5,18.4,,,,,,,,21,wg-a,,,,AAXX 05064 07761 02470 70504 10140 20120 30129 40140 51012 61000 72162 8387/ 90600 333 10184 20135 6005=
07761,1998-11-05 09:00:00,14,1016.3,2.3,88,12,500,7.408,,,350,,,,,,,,,,2,wg-a,,,,AAXX 05094 07761 02400 73504 10140 20120 30152 40163 51023 61000 70262 8387/ 90900 333 ////=
07761,1998-11-05 12:00:00,17,1016.7,0.4,63,10,25000,7.408,,,220,,,,,,,,,,1,wg-a,,,,AAXX 05124 07761 02475 72204 10170 20100 30156 40167 51004 61000 70162 83872 91200 333 ////=
07761,1998-11-05 15:00:00,17,1017.4,,59,9,25000,11.112,,,240,,,,,,,,,,,wg-a,,,,AAXX 05154 07761 32575 72406 10170 20090 30163 40174 82872 91500=
07761,1998-11-05 18:00:00,14,1018.7,1.3,77,10,20000,3.704,,,50,13.5,17.8,,,,,,,,,wg-a,,,,AAXX 05184 07761 12570 80502 10140 20100 30176 40187 53013 60006 82572 91800 333 10178 20135=
07761,1998-11-05 21:00:00,13,1020.2,1.5,82,10,18000,11.112,,,50,,,,,,,,,,,wg-a,,,,AAXX 05214 07761 12668 80506 10130 20100 30191 40202 51015 60006 82572 92100=
07761,1998-11-06 00:00:00,12,1020.5,0.3,88,10,18000,14.816,,,60,,,,,,,,,,,wg-a,,,,AAXX 06004 07761 12668 70608 10120 20100 30194 40205 50003 60006 81572 90000=
07761,1998-11-06 03:00:00,12,1020.3,-0.2,82,9,18000,14.816,,,50,,,,,,,,,,,wg-a,,,,AAXX 06034 07761 12/68 70508 10120 20090 30192 40203 58002 60006 85072 90300=
07761,1998-11-06 06:00:00,11,1020.9,0.6,82,8,18000,11.112,,,50,11,14.1,,,,,,,,,wg-a,,,,AAXX 06064 07761 12/68 70506 10110 20080 30198 40209 51006 60006 86072 90600 333 10141 20110=
07761,1998-11-06 09:00:00,14,1021.9,1,67,8,25000,11.112,,,40,,,,,,,,,,,wg-a,,,,AAXX 06094 07761 12675 70406 10140 20080 30208 40219 50010 60006 81172 90900=
07761,1998-11-06 12:00:00,17,1021.2,-0.7,63,10,25000,11.112,,,260,,,,,,,,,,,wg-a,,,,AAXX 06124 07761 12675 42606 10170 20100 30201 40212 58007 60006 82830 91200=
07761,1998-11-06 15:00:00,17,1021,-0.2,63,10,25000,7.408,,,250,,,,,,,,,,,wg-a,,,,AAXX 06154 07761 12675 22504 10170 20100 30199 40210 55002 60006 82100 91500=
07761,1998-11-06 18:00:00,12,1022,1,88,10,25000,11.112,,,40,11,18.9,,,,,,,,,wg-a,,,,AAXX 06184 07761 12575 /0406 10120 20100 30209 40220 53010 60006 81100 91800 333 10189 20110=
07761,1998-11-06 21:00:00,9,1023.1,1.1,93,8,25000,14.816,,,40,,,,,,,,,,,wg-a,,,,AAXX 06214 07761 12/75 00408 10090 20080 30220 40231 53011 60006 80000 92100=
07761,1998-11-07 00:00:00,8,1023.3,0.2,87,6,11000,14.816,,,40,,,,,,,,,,,wg-a,,,,AAXX 07004 07761 12/61 /0408 10080 20060 30222 40233 51002 60006 90000=
07761,1998-11-07 03:00:00,7,1023.3,0,93,6,25000,14.816,,,50,,,,,,,,,,,wg-a,,,,AAXX 07034 07761 12675 /0508 10070 20060 30222 40233 50000 60006 81530 90300=
07761,1998-11-07 06:00:00,7,1024.1,0.8,93,6,25000,11.112,,,40,6.6,12.1,,,,,,,,,wg-a,,,,AAXX 07064 07761 02/75 10406 10070 20060 30230 40241 52008 60006 81030 90600 333 10121 20066 60004=
07761,1998-11-07 09:00:00,13,1024.9,0.8,77,9,500,7.408,,,60,,,,,,,,,,,wg-a,,,,AAXX 07094 07761 12500 10604 10130 20090 30238 40249 50008 60006 81100 90900=
07761,1998-11-07 12:00:00,17,1024.7,-0.2,63,10,40000,7.408,,,230,,,,,,,,,,,wg-a,,,,AAXX 07124 07761 12582 /2304 10170 20100 30236 40247 58002 60006 81100 91200=
07761,1998-11-07 15:00:00,17,1025.2,0.5,59,9,40000,0,,,0,,,,,,,,,,,wg-a,,,,AAXX 07154 07761 12582 /0000 10170 20090 30241 40252 53005 60006 81100 91500=
07761,1998-11-07 18:00:00,11,1026.4,1.2,82,8,20000,14.816,,,40,6.6,17.4,,,,,,,,,wg-a,,,,AAXX 07184 07761 12570 /0408 10110 20080 30253 40264 53012 60006 81500 91800 333 10174 20066=
07761,1998-11-07 21:00:00,9,1028.3,1.9,81,6,20000,14.816,,,40,,,,,,,,,,,wg-a,,,,AAXX 07214 07761 12/70 00408 10090 20060 30272 40283 53019 60006 80000 92100=
07761,1998-11-08 00:00:00,8,1028.7,0.4,81,5,20000,18.52,,,50,,,,,,,,,,,wg-a,,,,AAXX 08004 07761 12/70 00510 10080 20050 30276 40287 53004 60006 80000 90000=
07761,1998-11-08 03:00:00,7,1028.2,-0.5,81,4,20000,14.816,,,50,,,,,,,,,,,wg-a,,,,AAXX 08034 07761 12/70 00508 10070 20040 30271 40282 57005 60006 80000 90300=
07761,1998-11-08 06:00:00,7,1028.9,0.7,81,4,25000,14.816,,,50,6.7,11.3,,,,,,,,,wg-a,,,,AAXX 08064 07761 02675 20508 10070 20040 30278 40289 51007 60006 82500 90600 333 10113 20067 60004=
07761,1998-11-08 09:00:00,14,1029.9,1,67,8,500,11.112,,,50,,,,,,,,,,,wg-a,,,,AAXX 08094 07761 12600 /0506 10140 20080 30288 40299 51010 60006 81100 90900=
07761,1998-11-08 12:00:00,18,1029.6,-0.3,59,10,500,11.112,,,230,,,,,,,,,,,wg-a,,,,AAXX 08124 07761 12600 /2306 10180 20100 30285 40296 58003 60006 81100 91200=
07761,1998-11-08 15:00:00,17,1029,-0.6,48,6,500,14.816,,,240,,,,,,,,,,,wg-a,,,,AAXX 08154 07761 12600 /2408 10170 20060 30279 40290 56006 60006 81500 91500=
07761,1998-11-08 18:00:00,11,1029.1,0.1,76,7,15000,14.816,,,40,7.1,18.3,,,,,,,,,wg-a,,,,AAXX 08184 07761 12565 20408 10110 20070 30280 40291 53001 60006 82500 91800 333 10183 20071=
07761,1998-11-08 21:00:00,8,1029.8,0.7,81,5,15000,14.816,,,40,,,,,,,,,,,wg-a,,,,AAXX 08214 07761 12565 20408 10080 20050 30287 40298 52007 60006 82500 92100=
07761,1998-11-09 00:00:00,7,1029.2,-0.6,87,5,15000,14.816,,,40,,,,,,,,,,,wg-a,,,,AAXX 09004 07761 12665 20408 10070 20050 30281 40292 58006 60006 82500 90000=
07761,1998-11-09 03:00:00,6,1028.3,-0.9,87,4,20000,14.816,,,50,,,,,,,,,,,wg-a,,,,AAXX 09034 07761 12670 /0508 10060 20040 30272 40283 56009 60006 81500 90300=
07761,1998-11-09 06:00:00,6,1027.8,-0.5,81,3,25000,18.52,,,50,5.6,11,,,,,,,,,wg-a,,,,AAXX 09064 07761 02675 /0510 10060 20030 30267 40278 56005 60006 81501 90600 333 10110 20056 60004=
07761,1998-11-09 09:00:00,13,1028.1,0.3,67,7,25000,11.112,,,40,,,,,,,,,,,wg-a,,,,AAXX 09094 07761 12675 /0406 10130 20070 30270 40281 51003 60006 81501 90900=
07761,1998-11-09 12:00:00,17,1026.8,-1.3,59,9,25000,18.52,,,230,,,,,,,,,,,wg-a,,,,AAXX 09124 07761 12575 /2310 10170 20090 30257 40268 58013 60006 81800 91200=
07761,1998-11-09 15:00:00,17,1025.7,-1.1,63,10,25000,14.816,,,270,,,,,,,,,,,wg-a,,,,AAXX 09154 07761 12575 /2708 10170 20100 30246 40257 56011 60006 81800 91500=
07761,1998-11-09 18:00:00,11,1025.8,0.1,82,8,25000,11.112,,,50,5.8,17.6,,,,,,,,,wg-a,,,,AAXX 09184 07761 12575 /0506 10110 20080 30247 40258 53001 60006 81800 91800 333 10176 20058=
07761,1998-11-09 21:00:00,13,1025.5,-0.3,77,9,25000,11.112,,,30,,,,,,,,,,,wg-a,,,,AAXX 09214 07761 12675 70306 10130 20090 30244 40255 58003 60006 875// 92100=
07761,1998-11-10 00:00:00,13,1024,-1.5,72,8,25000,7.408,,,20,,,,,,,,,,,wg-a,,,,AAXX 10004 07761 12675 40204 10130 20080 30229 40240 58015 60006 84500 90000=
07761,1998-11-10 03:00:00,9,1022.6,-1.4,81,6,25000,14.816,,,50,,,,,,,,,,,wg-a,,,,AAXX 10034 07761 12675 60508 10090 20060 30215 40226 56014 60006 86500 90300=
07761,1998-11-10 06:00:00,11,1021.6,-1,82,8,25000,14.816,,,20,8.6,13.7,,,,,,,,,wg-a,,,,AAXX 10064 07761 02575 20208 10110 20080 30205 40216 58010 60006 82500 90600 333 10137 20086 60004=
07761,1998-11-10 09:00:00,15,1021.4,-0.2,72,10,25000,7.408,,,30,,,,,,,,,,,wg-a,,,,AAXX 10094 07761 12575 70304 10150 20100 30203 40214 58002 60006 83502 90900=
07761,1998-11-10 12:00:00,19,1019.6,-1.8,73,14,25000,7.408,,,210,,,,,,,,,,,wg-a,,,,AAXX 10124 07761 12575 52104 10190 20140 30185 40196 58018 60006 83852 91200=
07761,1998-11-10 15:00:00,18,1017.3,-2.3,83,15,10000,18.52,,,240,,,,,,,,,,,wg-a,,,,AAXX 10154 07761 12460 82410 10180 20150 30162 40173 56023 60006 888// 91500=
07761,1998-11-10 18:00:00,17,1015.7,-1.6,88,15,10000,25.928,,,260,10.5,19.7,,,,,,,,21,wg-a,,,,AAXX 10184 07761 02360 82614 10170 20150 30146 40157 56016 61000 72162 8/82/ 91800 333 10197 20105 6000=
07761,1998-11-10 21:00:00,17,1014.5,-1.2,77,13,15000,18.52,,,270,,,,,,,,,,,wg-a,,,,AAXX 10214 07761 12465 62710 10170 20130 30134 40145 56012 60006 86800 92100=
07761,1998-11-11 00:00:00,13,1013.8,-0.7,94,12,15000,7.408,,,60,,,,,,,,,,,wg-a,,,,AAXX 11004 07761 12565 50604 10130 20120 30127 40138 58007 60006 85500 90000=
07761,1998-11-11 03:00:00,15,1012.4,-1.4,77,11,15000,11.112,,,340,,,,0,,,,,,60,wg-a,,,,AAXX 11034 07761 12565 /3406 10150 20110 30113 40124 56014 60007 76062 86800 90300=
07761,1998-11-11 06:00:00,14,1011.5,-0.9,82,11,15000,7.408,,,90,12.8,17,,,,,,,,3,wg-a,,,,AAXX 11064 07761 02565 70904 10140 20110 30104 40115 56009 60006 70362 878// 90600 333 10170 20128 60004=
07761,1998-11-11 09:00:00,15,1012.3,0.8,82,12,15000,7.408,,,140,,,,,,,,,,3,wg-a,,,,AAXX 11094 07761 02565 71404 10150 20120 30112 40123 50008 61000 70362 878// 90900 333 ////=
07761,1998-11-11 12:00:00,17,1011.5,-0.8,63,10,18000,7.408,,,230,,,,,,,,,,1,wg-a,,,,AAXX 11124 07761 02568 /2304 10170 20100 30104 40115 58008 61000 70162 85800 91200 333 ////=
07761,1998-11-11 15:00:00,17,1012.1,0.6,68,11,18000,7.408,,,200,,,,,,,,,,,wg-a,,,,AAXX 11154 07761 12568 /2004 10170 20110 30110 40121 53006 60006 82800 91500=
07761,1998-11-11 18:00:00,12,1014.2,2.1,82,9,20000,11.112,,,50,11.7,17.4,,,,,,,,,wg-a,,,,AAXX 11184 07761 12670 20506 10120 20090 30131 40142 53021 60006 82500 91800 333 10174 20117=
07761,1998-11-11 21:00:00,10,1014.8,0.6,87,8,20000,14.816,,,50,,,,,,,,,,,wg-a,,,,AAXX 11214 07761 12/70 /0508 10100 20080 30137 40148 51006 60006 80000 92100=
07761,1998-11-12 00:00:00,9,1014.6,-0.2,87,7,20000,18.52,,,50,,,,,,,,,,,wg-a,,,,AAXX 12004 07761 12570 /0510 10090 20070 30135 40146 58002 60006 81500 90000=
07761,1998-11-12 03:00:00,8,1013.5,-1.1,93,7,20000,14.816,,,60,,,,,,,,,,,wg-a,,,,AAXX 12034 07761 12670 10608 10080 20070 30124 40135 57011 60006 81500 90300=
07761,1998-11-12 06:00:00,9,1013,-0.5,87,7,20000,14.816,,,50,7.8,11.8,,,,,,,,,wg-a,,,,AAXX 12064 07761 02670 70508 10090 20070 30119 40130 58005 60006 83576 90600 333 10118 20078 61000=
07761,1998-11-12 12:00:00,16,1012.6,-1.1,55,7,15000,14.816,,,260,,,,1,,,,,,3,wg-a,,,,AAXX 12124 07761 02565 /2608 10160 20070 30115 40126 58011 60016 70386 84202 91200 333 60017=
07761,1998-11-12 15:00:00,15,1010.9,-1.7,59,7,15000,11.112,,,260,,,,,,,,,,,wg-a,,,,AAXX 12154 07761 12565 /2606 10150 20070 30098 40109 56017 60006 83202 91500=
07761,1998-11-12 18:00:00,11,1010.9,-0,82,8,15000,14.816,,,50,8.9,16.2,,,,,,,,,wg-a,,,,AAXX 12184 07761 12565 /0508 10110 20080 30098 40109 55000 60006 82801 91800 333 10162 20089=
07761,1998-11-12 21:00:00,7,1011.2,0.3,87,5,15000,11.112,,,60,,,,,,,,,,13,wg-a,,,,AAXX 12214 07761 12565 30606 10070 20050 30101 40112 53003 60006 71311 82301 92100=
07761,1998-11-13 00:00:00,8,1010.3,-0.9,93,7,10000,14.816,,,40,,,,10,,,,,,17,wg-a,,,,AAXX 13004 07761 02460 70408 10080 20070 30092 40103 56009 60106 71798 879// 90000 333 60107=
07761,1998-11-13 03:00:00,8,1010,-0.3,87,6,15000,11.112,,,40,,,,,,,,,,1,wg-a,,,,AAXX 13034 07761 12665 20406 10080 20060 30089 40100 55003 60006 70191 82200 90300=
07761,1998-11-13 06:00:00,6,1011.1,1.1,93,5,20000,14.816,,,50,5.8,10.6,,,,,11,,,3,wg-a,,,,AAXX 13064 07761 02670 /0508 10060 20050 30100 40111 53011 60006 70391 81200 90600 333 10106 20058 60114=
07761,1998-11-13 09:00:00,11,1012.3,1.2,76,7,500,3.704,,,40,,,,,,,,,,,wg-a,,,,AAXX 13094 07761 12500 30402 10110 20070 30112 40123 51012 60006 81231 90900=
07761,1998-11-13 12:00:00,16,1011.2,-1.1,55,7,35000,7.408,,,30,,,,,,,,,,,wg-a,,,,AAXX 13124 07761 12681 40304 10160 20070 30101 40112 58011 60006 83201 91200=
07761,1998-11-13 15:00:00,15,1010.5,-0.7,59,7,35000,7.408,,,190,,,,,,,,,,,wg-a,,,,AAXX 13154 07761 12681 31904 10150 20070 30094 40105 56007 60006 81102 91500=
07761,1998-11-13 18:00:00,10,1011.9,1.4,87,8,20000,11.112,,,70,5.8,16.7,,,,,,,,,wg-a,,,,AAXX 13184 07761 12670 80706 10100 20080 30108 40119 53014 60006 81577 91800 333 10167 20058=
07761,1998-11-13 21:00:00,10,1011,-0.9,82,7,20000,7.408,,,40,,,,,,,,,,,wg-a,,,,AAXX 13214 07761 12670 30404 10100 20070 30099 40110 56009 60006 81531 92100=
07761,1998-11-14 00:00:00,10,1010.5,-0.5,87,8,15000,11.112,,,70,,,,0,,,,,,60,wg-a,,,,AAXX 14004 07761 02665 80706 10100 20080 30094 40105 58005 60006 76061 875// 90000 333 60007=
07761,1998-11-14 03:00:00,10,1008.9,-1.6,87,8,15000,14.816,,,40,,,,,,,,,,21,wg-a,,,,AAXX 14034 07761 02665 70408 10100 20080 30078 40089 56016 61000 72162 875// 90300 333 ////=
07761,1998-11-14 06:00:00,11,1008.3,-0.6,87,9,15000,14.816,,,40,9.6,11.2,,,,,,,,60,wg-a,,,,AAXX 14064 07761 02465 70408 10110 20090 30072 40083 55006 61000 76062 8687/ 90600 333 10112 20096 6002=
07761,1998-11-14 09:00:00,12,1009.1,0.8,88,10,15000,7.408,,,80,,,,,,,,,,3,wg-a,,,,AAXX 14094 07761 02365 70804 10120 20100 30080 40091 52008 61000 70362 878// 90900 333 ////=
07761,1998-11-14 12:00:00,16,1008.6,-0.5,72,11,18000,7.408,,,270,,,,,,,,,,25,wg-a,,,,AAXX 14124 07761 02468 72704 10160 20110 30075 40086 58005 61000 72586 86202 91200 333 6100=
07761,1998-11-14 18:00:00,13,1009.8,1.3,77,9,18000,7.408,,,60,10.5,16.6,,,,,,,,,wg-a,,,,AAXX 14184 07761 12568 40604 10130 20090 30087 40098 53013 60006 83260 91800 333 10166 20105=
07761,1998-11-14 21:00:00,15,1010.6,0.8,59,7,15000,11.112,,,320,,,,,,,,,,,wg-a,,,,AAXX 14214 07761 12565 83206 10150 20070 30095 40106 53008 60006 8587/ 92100=
07761,1998-11-15 00:00:00,14,1010.9,0.3,67,8,15000,18.52,,,290,,,,,,,,,,,wg-a,,,,AAXX 15004 07761 12665 /2910 10140 20080 30098 40109 51003 60006 81500 90000=
07761,1998-11-15 03:00:00,14,1010.3,-0.6,55,5,15000,22.224,,,280,,,,,,,,,,,wg-a,,,,AAXX 15034 07761 12565 32812 10140 20050 30092 40103 58006 60006 83500 90300=
07761,1998-11-15 06:00:00,10,1011.6,1.3,76,6,15000,7.408,,,50,10.1,15,,,,,,,,,wg-a,,,,AAXX 15064 07761 02665 /0504 10100 20060 30105 40116 53013 60006 85202 90600 333 10150 20101 61000=
07761,1998-11-15 09:00:00,14,1013.2,1.6,58,6,500,3.704,,,260,,,,,,,,,,,wg-a,,,,AAXX 15094 07761 12600 42602 10140 20060 30121 40132 51016 60006 84100 90900=
07761,1998-11-15 12:00:00,15,1012.7,-0.5,55,6,500,7.408,,,320,,,,,,,,,,,wg-a,,,,AAXX 15124 07761 12600 43204 10150 20060 30116 40127 58005 60006 84100 91200=
07761,1998-11-15 15:00:00,14,1013.6,0.9,51,4,500,11.112,,,310,,,,,,,,,,,wg-a,,,,AAXX 15154 07761 12600 43106 10140 20040 30125 40136 53009 60006 84100 91500=
07761,1998-11-15 21:00:00,12,1016.3,1.2,67,6,20000,7.408,,,50,,,,,,,,,,,wg-a,,,,AAXX 15214 07761 12670 40504 10120 20060 30152 40163 53012 60006 84800 92100=
07761,1998-11-16 00:00:00,9,1017.2,0.9,81,6,20000,14.816,,,60,,,,,,,,,,,wg-a,,,,AAXX 16004 07761 12670 40608 10090 20060 30161 40172 51009 60006 84800 90000=
07761,1998-11-16 03:00:00,7,1017.3,0.1,81,4,20000,11.112,,,40,,,,,,,,,,,wg-a,,,,AAXX 16034 07761 12670 30406 10070 20040 30162 40173 52001 60006 83500 90300=
07761,1998-11-16 06:00:00,6,1017.8,0.5,81,3,20000,14.816,,,30,5.4,13.5,,,,,,,,,wg-a,,,,AAXX 16064 07761 02670 /0308 10060 20030 30167 40178 52005 60006 81500 90600 333 10135 20054 60004=
07761,1998-11-16 09:00:00,10,1018.6,0.8,76,6,35000,7.408,,,40,,,,,,,,,,,wg-a,,,,AAXX 16094 07761 12681 /0404 10100 20060 30175 40186 51008 60006 81100 90900=
07761,1998-11-16 12:00:00,14,1017.8,-0.8,55,5,35000,7.408,,,310,,,,,,,,,,,wg-a,,,,AAXX 16124 07761 12681 /3104 10140 20050 30167 40178 58008 60006 86200 91200=
07761,1998-11-16 15:00:00,13,1017.3,-0.5,54,4,35000,14.816,,,310,,,,,,,,,,,wg-a,,,,AAXX 16154 07761 12681 73108 10130 20040 30162 40173 56005 60006 87200 91500=
07761,1998-11-16 18:00:00,10,1017.2,-0.1,71,5,25000,7.408,,,60,4.6,15.1,,,,,,,,,wg-a,,,,AAXX 16184 07761 12675 /0604 10100 20050 30161 40172 58001 60006 86400 91800 333 10151 20046=
07761,1998-11-17 00:00:00,7,1018.3,0.6,81,4,25000,11.112,,,60,,,,,,,,,,,wg-a,,,,AAXX 17004 07761 12675 20606 10070 20040 30172 40183 51006 60006 82500 90000=
07761,1998-11-17 03:00:00,5,1018.8,0.5,87,3,15000,14.816,,,40,,,,,,,,,,,wg-a,,,,AAXX 17034 07761 12765 /0408 10050 20030 30177 40188 52005 60006 81500 90300=
07761,1998-11-17 06:00:00,4,1019.9,1.1,87,2,35000,14.816,,,50,3.8,9.6,,,,,,,,,wg-a,,,,AAXX 17064 07761 02/81 00508 10040 20020 30188 40199 53011 60006 80000 90600 333 10096 20038 60004=
07761,1998-11-17 09:00:00,10,1020.7,0.8,62,3,35000,7.408,,,40,,,,,,,,,,,wg-a,,,,AAXX 17094 07761 12581 /0404 10100 20030 30196 40207 51008 60006 81101 90900=
07761,1998-11-17 12:00:00,15,1019.8,-0.9,48,4,35000,7.408,,,210,,,,,,,,,,,wg-a,,,,AAXX 17124 07761 12681 /2104 10150 20040 30187 40198 58009 60006 81101 91200=
07761,1998-11-17 15:00:00,15,1018.7,-1.1,33,-1,35000,7.408,,,160,,,,,,,,,,,wg-a,,,,AAXX 17154 07761 12681 /1604 10150 21010 30176 40187 56011 60006 81101 91500=
07761,1998-11-17 18:00:00,7,1019.6,0.9,66,1,25000,14.816,,,50,3.2,15.5,,,,,,,,,wg-a,,,,AAXX 17184 07761 12775 /0508 10070 20010 30185 40196 53009 60006 81501 91800 333 10155 20032=
07761,1998-11-17 21:00:00,5,1019.6,-0,70,0,25000,14.816,,,40,,,,,,,,,,,wg-a,,,,AAXX 17214 07761 12775 /0408 10050 20000 30185 40196 54000 60006 81501 92100=
07761,1998-11-18 00:00:00,4,1019.5,-0.1,75,0,25000,18.52,,,50,,,,,,,,,,,wg-a,,,,AAXX 18004 07761 12/75 50510 10040 20000 30184 40195 58001 60006 80001 90000=
07761,1998-11-18 03:00:00,4,1018.2,-1.3,70,-1,25000,14.816,,,40,,,,,,,,,,,wg-a,,,,AAXX 18034 07761 12/75 50408 10040 21010 30171 40182 58013 60006 80001 90300=
07761,1998-11-18 06:00:00,6,1017.3,-0.9,61,-1,25000,11.112,,,40,2.9,7.2,,,,,,,,,wg-a,,,,AAXX 18064 07761 02775 70406 10060 21010 30162 40173 57009 60006 81532 90600 333 10072 20029 60004=
07761,1998-11-18 09:00:00,9,1017.8,0.5,61,2,500,11.112,,,50,,,,,,,,,,,wg-a,,,,AAXX 18094 07761 12600 80506 10090 20020 30167 40178 51005 60006 8383/ 90900=
07761,1998-11-18 12:00:00,14,1016.4,-1.4,44,2,25000,11.112,,,20,,,,,,,,,,,wg-a,,,,AAXX 18124 07761 12675 80206 10140 20020 30153 40164 58014 60006 8383/ 91200=
07761,1998-11-18 15:00:00,15,1015.7,-0.7,48,4,25000,7.408,,,110,,,,,,,,,,,wg-a,,,,AAXX 18154 07761 12675 81104 10150 20040 30146 40157 55007 60006 85532 91500=
07761,1998-11-18 18:00:00,12,1015.7,-0,58,4,15000,7.408,,,20,5.4,15.6,,,,,,,,,wg-a,,,,AAXX 18184 07761 12665 80204 10120 20040 30146 40157 55000 60006 8453/ 91800 333 10156 20054=
07761,1998-11-18 21:00:00,10,1016.3,0.6,82,7,9000,7.408,,,40,,,,0,,,,,,60,wg-a,,,,AAXX 18214 07761 12559 80404 10100 20070 30152 40163 53006 60007 76062 8483/ 92100=
07761,1998-11-19 00:00:00,9,1015.1,-1.2,87,7,8000,18.52,,,50,,,,1,,,,,,21,wg-a,,,,AAXX 19004 07761 02558 80510 10090 20070 30140 40151 58012 60016 72162 8483/ 90000 333 60017=
07761,1998-11-19 03:00:00,9,1014.1,-1,87,7,15000,11.112,,,60,,,,,,,,,,,wg-a,,,,AAXX 19034 07761 12565 80606 10090 20070 30130 40141 56010 60006 878// 90300=
07761,1998-11-19 06:00:00,8,1014,-0.1,93,7,15000,11.112,,,50,8.1,12,,,,,1,,,,wg-a,,,,AAXX 19064 07761 02565 70506 10080 20070 30129 40140 56001 60006 8287/ 90600 333 10120 20081 60014=
07761,1998-11-19 09:00:00,11,1014.4,0.4,76,7,500,7.408,,,40,,,,,,,,,,,wg-a,,,,AAXX 19094 07761 12600 60404 10110 20070 30133 40144 50004 60006 84878 90900=
07761,1998-11-19 12:00:00,15,1013.7,-0.7,63,8,50000,11.112,,,230,,,,,,,,,,,wg-a,,,,AAXX 19124 07761 12684 62306 10150 20080 30126 40137 58007 60006 83841 91200=
07761,1998-11-19 15:00:00,14,1013.1,-0.6,67,8,20000,11.112,,,220,,,,,,,,,,,wg-a,,,,AAXX 19154 07761 12570 72206 10140 20080 30120 40131 55006 60006 85902 91500=
07761,1998-11-19 18:00:00,11,1013.8,0.7,71,6,15000,18.52,,,60,8.1,16,,,,,,,,,wg-a,,,,AAXX 19184 07761 12565 60610 10110 20060 30127 40138 53007 60006 86800 91800 333 10160 20081=
07761,1998-11-19 21:00:00,9,1014.3,0.5,71,4,20000,11.112,,,50,,,,,,,,,,,wg-a,,,,AAXX 19214 07761 12570 70506 10090 20040 30132 40143 53005 60006 878// 92100=
07761,1998-11-20 00:00:00,7,1014.9,0.6,76,3,20000,7.408,,,80,,,,,,,,,,,wg-a,,,,AAXX 20004 07761 12670 /0804 10070 20030 30138 40149 52006 60006 81500 90000=
07761,1998-11-20 03:00:00,6,1015.5,0.6,65,0,20000,11.112,,,70,,,,,,,,,,,wg-a,,,,AAXX 20034 07761 12670 /0706 10060 20000 30144 40155 51006 60006 81500 90300=
07761,1998-11-20 06:00:00,6,1016.5,1,49,-4,20000,11.112,,,40,4.9,10.5,,,,,,,,,wg-a,,,,AAXX 20064 07761 02670 /0406 10060 21040 30154 40165 51010 60006 81500 90600 333 10105 20049 60004=
07761,1998-11-20 09:00:00,10,1018.5,2,32,-6,40000,18.52,,,30,,,,,,,,,,,wg-a,,,,AAXX 20094 07761 12682 /0310 10100 21060 30174 40185 51020 60006 81500 90900=
07761,1998-11-20 12:00:00,12,1017.9,-0.6,24,-8,40000,25.928,,,30,,,,,,,,,,,wg-a,,,,AAXX 20124 07761 12682 /0314 10120 21080 30168 40179 58006 60006 81500 91200=
07761,1998-11-20 15:00:00,10,1018.3,0.4,32,-6,40000,18.52,,,30,,,,,,,,,,,wg-a,,,,AAXX 20154 07761 12682 20310 10100 21060 30172 40183 53004 60006 82800 91500=
07761,1998-11-20 18:00:00,7,1020,1.7,42,-5,20000,14.816,,,30,5.3,12.2,,,,,,,,,wg-a,,,,AAXX 20184 07761 12670 20308 10070 21050 30189 40200 53017 60006 82800 91800 333 10122 20053=
07761,1998-11-20 21:00:00,5,1021.5,1.5,48,-5,50000,7.408,,,40,,,,,,,,,,,wg-a,,,,AAXX 20214 07761 12684 /0404 10050 21050 30204 40215 53015 60006 81500 92100=
07761,1998-11-21 00:00:00,2,1021.7,0.2,55,-6,40000,7.408,,,100,,,,,,,,,,,wg-a,,,,AAXX 21004 07761 12682 /1004 10020 21060 30206 40217 53002 60006 81500 90000=
07761,1998-11-21 06:00:00,2,1022,0.5,55,-6,25000,7.408,,,60,0.4,6.7,,,,,,,,,wg-a,,,,AAXX 21064 07761 02675 /0604 10020 21060 30209 40220 53005 60006 81101 90600 333 10067 20004 60004=
07761,1998-11-21 09:00:00,6,1022.6,0.6,39,-7,500,25.928,,40.744,30,,,,,,,,,,,wg-a,,,,AAXX 21094 07761 12600 /0314 10060 21070 30215 40226 51006 60006 81203 90900 333 91022=
07761,1998-11-21 12:00:00,7,1021.5,-1.1,39,-6,500,29.632,,57.412,30,,,,,,,,,,,wg-a,,,,AAXX 21124 07761 12600 /0316 10070 21060 30204 40215 58011 60006 81200 91200 333 91031=
07761,1998-11-21 15:00:00,7,1021,-0.5,33,-8,35000,14.816,,,40,,,,,,,,,,,wg-a,,,,AAXX 21154 07761 12581 20408 10070 21080 30199 40210 55005 60006 82200 91500=
07761,1998-11-21 18:00:00,2,1021.5,0.5,60,-5,35000,11.112,,,80,1.9,7.7,,,,,,,,,wg-a,,,,AAXX 21184 07761 12581 /0806 10020 21050 30204 40215 51005 60006 81200 91800 333 10077 20019=
07761,1998-11-22 00:00:00,0,1020.5,-1,64,-6,35000,11.112,,,80,,,,,,,,,,,wg-a,,,,AAXX 22004 07761 12581 10806 10000 21060 30194 40205 58010 60006 81200 90000=
07761,1998-11-22 03:00:00,-2,1019.5,-1.1,74,-6,20000,11.112,,,70,,,,,,,,,,,wg-a,,,,AAXX 22034 07761 12/70 00706 11020 21060 30183 40195 57011 60006 80000 90300=
07761,1998-11-22 06:00:00,-2,1019.6,0.1,74,-6,20000,11.112,,,40,-3.2,2.7,,,,,,,,,wg-a,,,,AAXX 22064 07761 02770 /0406 11020 21060 30184 40196 53001 60006 81800 90600 333 10027 21032 60004=
07761,1998-11-22 09:00:00,3,1019.6,0.1,56,-5,40000,7.408,,,40,,,,,,,,,,,wg-a,,,,AAXX 22094 07761 12782 /0404 10030 21050 30185 40196 52001 60006 81531 90900=
07761,1998-11-22 12:00:00,10,1017.2,-2.4,34,-5,40000,11.112,,,240,,,,,,,,,,,wg-a,,,,AAXX 22124 07761 12682 /2406 10100 21050 30161 40172 58024 60006 81101 91200=
07761,1998-11-22 15:00:00,10,1016.8,-0.4,37,-4,40000,7.408,,,20,,,,,,,,,,,wg-a,,,,AAXX 22154 07761 12682 20204 10100 21040 30157 40168 55004 60006 81130 91500=
07761,1998-11-22 18:00:00,4,1016.8,0,60,-3,25000,11.112,,,70,-3.1,11.1,,,,,,,,,wg-a,,,,AAXX 22184 07761 12675 20706 10040 21030 30157 40168 50000 60006 82500 91800 333 10111 21031=
07761,1998-11-23 00:00:00,-1,1016,-0.7,80,-4,20000,11.112,,,50,,,,,,,,,,,wg-a,,,,AAXX 23004 07761 12/70 00506 11010 21040 30149 40160 55007 60006 80000 90000=
07761,1998-11-23 03:00:00,-1,1015.1,-0.9,80,-4,20000,14.816,,,60,,,,,,,,,,,wg-a,,,,AAXX 23034 07761 12/70 00608 11010 21040 30140 40151 56009 60006 80000 90300=
07761,1998-11-23 06:00:00,-2,1015,-0.1,86,-4,20000,14.816,,,40,-2,4.1,,,,,,,,,wg-a,,,,AAXX 23064 07761 02770 20408 11020 21040 30139 40150 56001 60006 825/0 90600 333 10041 21020 60004=
07761,1998-11-23 12:00:00,12,1014.4,-1.2,44,0,25000,25.928,,,300,,,,,,,,,,,wg-a,,,,AAXX 23124 07761 12775 43014 10120 20000 30133 40144 58012 60006 83530 91200=
07761,1998-11-23 15:00:00,10,1014,-0.4,53,1,25000,14.816,,,310,,,,,,,,,,,wg-a,,,,AAXX 23154 07761 12775 43108 10100 20010 30129 40140 56004 60006 84500 91500=
07761,1998-11-23 18:00:00,5,1014.5,0.5,70,0,15000,11.112,,,70,-1.8,11.8,,,,,,,,,wg-a,,,,AAXX 23184 07761 12765 /0706 10050 20000 30134 40145 53005 60006 81500 91800 333 10118 21018=
07761,1998-11-23 21:00:00,1,1015.2,0.7,86,-1,20000,14.816,,,50,,,,,,,,,,,wg-a,,,,AAXX 23214 07761 12670 /0508 10010 21010 30141 40152 51007 60006 81500 92100=
07761,1998-11-24 00:00:00,4,1015.2,0,75,0,20000,11.112,,,50,,,,,,,,,,,wg-a,,,,AAXX 24004 07761 12570 50506 10040 20000 30141 40152 50000 60006 85500 90000=
07761,1998-11-24 03:00:00,6,1015.1,-0.1,70,1,20000,7.408,,,40,,,,,,,,,,,wg-a,,,,AAXX 24034 07761 12570 70404 10060 20010 30140 40151 57001 60006 875// 90300=
07761,1998-11-24 06:00:00,6,1014.8,-0.3,75,2,20000,11.112,,,50,0.9,6.4,,,,,,,,,wg-a,,,,AAXX 24064 07761 02670 70506 10060 20020 30137 40148 55003 60006 8453/ 90600 333 10064 20009 60004=
07761,1998-11-24 09:00:00,9,1016,1.2,66,3,25000,7.408,,,30,,,,,,,,,,,wg-a,,,,AAXX 24094 07761 12675 70304 10090 20030 30149 40160 51012 60006 8383/ 90900=
07761,1998-11-24 12:00:00,13,1015.4,-0.6,51,3,25000,7.408,,,230,,,,,,,,,,,wg-a,,,,AAXX 24124 07761 12675 /2304 10130 20030 30143 40154 58006 60006 8283/ 91200=
07761,1998-11-24 15:00:00,12,1015.7,0.3,54,3,25000,11.112,,,320,,,,,,,,,,,wg-a,,,,AAXX 24154 07761 12675 /3206 10120 20030 30146 40157 53003 60006 8453/ 91500=
07761,1998-11-24 18:00:00,8,1016.8,1.1,76,4,25000,11.112,,,60,6.4,13.2,,,,,,,,,wg-a,,,,AAXX 24184 07761 12675 /0606 10080 20040 30157 40168 53011 60006 8253/ 91800 333 10132 20064=
07761,1998-11-24 21:00:00,5,1018,1.2,87,3,25000,14.816,,,50,,,,,,,,,,,wg-a,,,,AAXX 24214 07761 12675 40508 10050 20030 30169 40180 52012 60006 82530 92100=
07761,1998-11-25 00:00:00,5,1017.5,-0.5,87,3,20000,11.112,,,50,,,,,,,,,,,wg-a,,,,AAXX 25004 07761 12570 /0506 10050 20030 30164 40175 58005 60006 81530 90000=
07761,1998-11-25 03:00:00,6,1017.2,-0.3,81,3,15000,11.112,,,50,,,,,,,,,,,wg-a,,,,AAXX 25034 07761 12665 70506 10060 20030 30161 40172 58003 60006 8157/ 90300=
07761,1998-11-25 06:00:00,7,1016.9,-0.3,76,3,20000,11.112,,,50,4,8.3,,,,,,,,,wg-a,,,,AAXX 25064 07761 02/70 80506 10070 20030 30158 40169 56003 60006 8807/ 90600 333 10083 20040 60004=
07761,1998-11-25 09:00:00,9,1017.4,0.5,76,5,25000,11.112,,,60,,,,,,,,,,,wg-a,,,,AAXX 25094 07761 12675 70606 10090 20050 30163 40174 51005 60006 8257/ 90900=
07761,1998-11-25 12:00:00,13,1015.9,-1.5,58,5,500,3.704,,,160,,,,,,,,,,,wg-a,,,,AAXX 25124 07761 12600 71602 10130 20050 30148 40159 58015 60006 8287/ 91200=
07761,1998-11-25 15:00:00,12,1015.1,-0.8,67,6,500,3.704,,,160,,,,,,,,,,,wg-a,,,,AAXX 25154 07761 12600 81602 10120 20060 30140 40151 56008 60006 8687/ 91500=
07761,1998-11-25 18:00:00,10,1015.3,0.2,82,7,15000,11.112,,,50,6.5,13.1,,,,,,,,60,wg-a,,,,AAXX 25184 07761 02665 80506 10100 20070 30142 40153 50002 61000 76062 8757/ 91800 333 10131 20065 6100=
07761,1998-11-25 21:00:00,9,1015.1,-0.2,87,7,8000,7.408,,,350,,,,,,,,,,,wg-a,,,,AAXX 25214 07761 32/58 /3504 10090 20070 30140 40151 58002 92100=
07761,1998-11-26 00:00:00,9,1014,-1.1,87,7,10000,11.112,,,50,,,,1,,,,,,3,wg-a,,,,AAXX 26004 07761 02660 80506 10090 20070 30129 40140 58011 60026 70362 8657/ 90000 333 60017=
07761,1998-11-26 03:00:00,8,1012.4,-1.6,93,7,10000,7.408,,,30,,,,1,,,,,,21,wg-a,,,,AAXX 26034 07761 12460 80304 10080 20070 30113 40124 58016 60017 72162 8657/ 90300=
07761,1998-11-26 06:00:00,8,1011.9,-0.5,93,7,8000,7.408,,,50,8,10.2,,,,,,,,60,wg-a,,,,AAXX 26064 07761 02458 80504 10080 20070 30108 40119 56005 61000 76062 8657/ 90600 333 10102 20080 6003=
07761,1998-11-26 09:00:00,10,1012.4,0.5,87,8,20000,3.704,,,10,,,,0,,,,,,1,wg-a,,,,AAXX 26094 07761 12470 /0102 10100 20080 30113 40124 53005 60007 70162 83801 90900=
07761,1998-11-26 12:00:00,14,1012.1,-0.3,63,7,25000,7.408,,,240,,,,,,,,,,3,wg-a,,,,AAXX 26124 07761 12675 42404 10140 20070 30110 40121 58003 60006 70361 82201 91200=
07761,1998-11-26 15:00:00,12,1013.1,1,71,7,25000,3.704,,,330,,,,,,,,,,,wg-a,,,,AAXX 26154 07761 12675 /3302 10120 20070 30120 40131 53010 60006 82231 91500=
07761,1998-11-26 18:00:00,9,1015,1.9,87,7,25000,7.408,,,60,8,14.5,,,,,,,,,wg-a,,,,AAXX 26184 07761 12575 60604 10090 20070 30139 40150 53019 60006 83831 91800 333 10145 20080=
07761,1998-11-26 21:00:00,8,1016.2,1.2,87,6,15000,14.816,,,50,,,,,,,,,,,wg-a,,,,AAXX 26214 07761 12/65 70508 10080 20060 30151 40162 51012 60006 8703/ 92100=
07761,1998-11-27 00:00:00,8,1016.1,-0.1,81,5,15000,7.408,,,40,,,,,,,,,,,wg-a,,,,AAXX 27004 07761 12/65 /0404 10080 20050 30150 40161 58001 60006 84030 90000=
07761,1998-11-27 03:00:00,5,1016,-0.1,87,3,25000,14.816,,,40,,,,,,,,,,,wg-a,,,,AAXX 27034 07761 12/75 /0408 10050 20030 30149 40160 58001 60006 81031 90300=
07761,1998-11-27 06:00:00,5,1015.7,-0.3,87,3,25000,11.112,,,40,4,9.4,,,,,,,,,wg-a,,,,AAXX 27064 07761 02/75 /0406 10050 20030 30146 40157 56003 60006 83072 90600 333 10094 20040 60004=
07761,1998-11-27 09:00:00,9,1015.5,-0.2,81,6,40000,7.408,,,40,,,,,,,,,,,wg-a,,,,AAXX 27094 07761 12782 70404 10090 20060 30144 40155 58002 60006 81278 90900=
07761,1998-11-27 12:00:00,13,1013.6,-1.9,72,8,40000,7.408,,,250,,,,,,,,,,,wg-a,,,,AAXX 27124 07761 12582 /2504 10130 20080 30125 40136 56019 60006 82272 91200=
07761,1998-11-27 15:00:00,14,1012.1,-1.5,63,7,40000,3.704,,,240,,,,,,,,,,,wg-a,,,,AAXX 27154 07761 12582 32402 10140 20070 30110 40121 56015 60006 83240 91500=
07761,1998-11-27 18:00:00,8,1012.1,-0,81,5,20000,14.816,,,50,4.6,14.5,,,,,,,,,wg-a,,,,AAXX 27184 07761 12670 20508 10080 20050 30110 40121 54000 60006 82801 91800 333 10145 20046=
07761,1998-11-27 21:00:00,6,1011.6,-0.5,87,4,20000,14.816,,,50,,,,,,,,,,13,wg-a,,,,AAXX 27214 07761 12670 30508 10060 20040 30105 40116 57005 60006 71300 82941 92100=
07761,1998-11-28 00:00:00,6,1010.9,-0.7,87,4,20000,11.112,,,40,,,,,,,,,,,wg-a,,,,AAXX 28004 07761 12570 /0406 10060 20040 30098 40109 58007 60006 85840 90000=
07761,1998-11-28 06:00:00,3,1011.2,0.5,87,1,20000,14.816,,,50,2.8,7.9,,,,,,,,,wg-a,,,,AAXX 28064 07761 02670 /0508 10030 20010 30101 40112 53005 60006 81503 90600 333 10079 20028 60004=
07761,1998-11-28 12:00:00,15,1012.4,-0.5,48,4,25000,14.816,,,230,,,,,,,,,,,wg-a,,,,AAXX 28124 07761 12775 /2308 10150 20040 30113 40124 58005 60006 81502 91200=
07761,1998-11-28 15:00:00,14,1012.8,0.4,51,4,25000,7.408,,,190,,,,,,,,,,,wg-a,,,,AAXX 28154 07761 12875 /1904 10140 20040 30117 40128 52004 60006 81500 91500=
07761,1998-11-28 18:00:00,8,1014.4,1.6,71,3,15000,14.816,,,30,2.8,15,,,,,,,,,wg-a,,,,AAXX 28184 07761 12/65 00308 10080 20030 30133 40144 52016 60006 80000 91800 333 10150 20028=
07761,1998-11-28 21:00:00,4,1015.2,0.8,87,2,15000,14.816,,,50,,,,,,,,,,,wg-a,,,,AAXX 28214 07761 12/65 00508 10040 20020 30141 40152 51008 60006 80000 92100=
07761,1998-11-29 00:00:00,4,1014.5,-0.7,81,1,15000,7.408,,,30,,,,,,,,,,,wg-a,,,,AAXX 29004 07761 12665 10304 10040 20010 30134 40145 58007 60006 81500 90000=
07761,1998-11-29 03:00:00,4,1013.7,-0.8,87,2,15000,14.816,,,40,,,,,,,,,,,wg-a,,,,AAXX 29034 07761 12/65 00408 10040 20020 30126 40137 58008 60006 80000 90300=
07761,1998-11-29 06:00:00,4,1012.7,-1,81,1,3000,14.816,,,50,2.2,7.7,,,,,,,,,wg-a,,,,AAXX 29064 07761 02/30 /0508 10040 20010 30116 40127 57010 60006 81041 90600 333 10077 20022 60004=
07761,1998-11-29 09:00:00,8,1011.9,-0.8,76,4,500,11.112,,,40,,,,,,,,,,,wg-a,,,,AAXX 29094 07761 12600 20406 10080 20040 30108 40119 56008 60006 81132 90900=
07761,1998-11-29 12:00:00,13,1009.5,-2.4,58,5,500,7.408,,,250,,,,,,,,,,,wg-a,,,,AAXX 29124 07761 12700 72504 10130 20050 30084 40095 57024 60006 82532 91200=
07761,1998-11-29 15:00:00,13,1008.1,-1.4,58,5,25000,7.408,,,200,,,,,,,,,,,wg-a,,,,AAXX 29154 07761 12675 72004 10130 20050 30070 40081 56014 60006 84872 91500=
07761,1998-11-29 18:00:00,10,1007.8,-0.3,76,6,20000,11.112,,,70,2.2,14,,,,,,,,,wg-a,,,,AAXX 29184 07761 12670 80706 10100 20060 30067 40078 56003 60006 8487/ 91800 333 10140 20022=
07761,1998-11-29 21:00:00,9,1008.2,0.4,81,6,15000,7.408,,,60,,,,0,,,,,,60,wg-a,,,,AAXX 29214 07761 12465 80604 10090 20060 30071 40082 53004 60007 76062 8287/ 92100=
07761,1998-11-30 00:00:00,8,1008.2,0,87,6,15000,11.112,,,50,,,,1,,,,,,60,wg-a,,,,AAXX 30004 07761 02465 80506 10080 20060 30071 40082 50000 60016 76062 8187/ 90000 333 60017=
07761,1998-11-30 03:00:00,7,1007.8,-0.4,93,6,15000,7.408,,,70,,,,1,,,,,,21,wg-a,,,,AAXX 30034 07761 12465 80704 10070 20060 30067 40078 57004 60017 72162 8187/ 90300=
07761,1998-11-30 06:00:00,7,1007.8,-0,93,6,15000,7.408,,,70,7.1,10,,,,,2,,,1,wg-a,,,,AAXX 30064 07761 02665 80704 10070 20060 30067 40078 55000 60006 70162 8157/ 90600 333 10100 20071 60024=
07761,1998-11-30 09:00:00,8,1008.8,1,93,7,10000,7.408,,,120,,,,4,,,,,,61,wg-a,,,,AAXX 30094 07761 12660 81204 10080 20070 30077 40088 51010 60047 76162 8557/ 90900=
07761,1998-11-30 12:00:00,9,1007.9,-0.9,93,8,15000,7.408,,,80,,,,,,,,,,2,wg-a,,,,AAXX 30124 07761 02565 80804 10090 20080 30068 40079 58009 60046 70262 8587/ 91200 333 61000=
07761,1998-11-30 15:00:00,10,1006.6,-1.3,82,7,20000,3.704,,,80,,,,,,,,,,,wg-a,,,,AAXX 30154 07761 12570 70802 10100 20070 30055 40066 56013 60006 8179/ 91500=
07761,1998-11-30 18:00:00,9,1006.4,-0.2,76,5,20000,18.52,,,40,7.2,9.7,,,,,,,,21,wg-a,,,,AAXX 30184 07761 02870 /0410 10090 20050 30053 40064 58002 61000 72162 8607/ 91800 333 10097 20072 6002=
07761,1998-11-30 21:00:00,6,1008,1.6,93,5,15000,7.408,,,360,,,,,,,,,,13,wg-a,,,,AAXX 30214 07761 12665 83604 10060 20050 30069 40080 52016 60006 71322 8157/ 92100=
07761,1998-12-01 00:00:00,8,1009.7,1.7,93,7,15000,11.112,,,350,,,,1,,,,,,29,wg-a,,,,AAXX 01004 07761 02665 83506 10080 20070 30086 40097 51017 60016 72996 8397/ 90000 333 60017=
07761,1998-12-01 03:00:00,9,1010.2,0.5,87,7,12000,7.408,,,60,,,,1,,,,,,61,wg-a,,,,AAXX 01034 07761 12462 80604 10090 20070 30091 40102 51005 60017 76196 8197/ 90300=
07761,1998-12-01 06:00:00,8,1011,0.8,87,6,15000,7.408,,,60,6,9.8,,,,,,,,21,wg-a,,,,AAXX 01064 07761 02565 60604 10080 20060 30099 40110 53008 61000 72196 81973 90600 333 10098 20060 6010=
07761,1998-12-01 09:00:00,10,1013.2,2.2,82,7,10000,3.704,,,50,,,,,,,,,,21,wg-a,,,,AAXX 01094 07761 02660 60502 10100 20070 30121 40132 51022 61000 72162 84543 90900 333 ////=
07761,1998-12-01 12:00:00,14,1013.4,0.2,63,7,35000,18.52,,,20,,,,,,,,,,15,wg-a,,,,AAXX 01124 07761 02681 60210 10140 20070 30123 40134 51002 61000 71561 84444 91200 333 ////=
07761,1998-12-01 15:00:00,14,1013.7,0.3,58,6,35000,7.408,,,360,,,,,,,,,,,wg-a,,,,AAXX 01154 07761 12581 63604 10140 20060 30126 40137 53003 60006 84844 91500=
07761,1998-12-01 18:00:00,8,1014.9,1.2,87,6,20000,7.408,,,70,6.6,14.9,,,,,,,,,wg-a,,,,AAXX 01184 07761 12670 /0704 10080 20060 30138 40149 53012 60006 81844 91800 333 10149 20066=
07761,1998-12-01 21:00:00,6,1016.2,1.3,93,5,20000,11.112,,,50,,,,,,,,,,,wg-a,,,,AAXX 01214 07761 12670 /0506 10060 20050 30151 40162 51013 60006 81104 92100=
07761,1998-12-02 00:00:00,7,1017,0.8,81,4,20000,14.816,,,40,,,,,,,,,,,wg-a,,,,AAXX 02004 07761 12770 60408 10070 20040 30159 40170 51008 60006 81180 90000=
07761,1998-12-02 03:00:00,5,1016.8,-0.2,87,3,20000,11.112,,,50,,,,,,,,,,,wg-a,,,,AAXX 02034 07761 12670 /0506 10050 20030 30157 40168 58002 60006 81500 90300=
07761,1998-12-02 06:00:00,5,1017.5,0.7,87,3,20000,14.816,,,40,4,8.2,,,,,,,,,wg-a,,,,AAXX 02064 07761 02670 40408 10050 20030 30164 40175 52007 60006 81130 90600 333 10082 20040 61000=
07761,1998-12-02 09:00:00,11,1018.9,1.4,71,6,500,3.704,,,70,,,,,,,,,,,wg-a,,,,AAXX 02094 07761 12600 30702 10110 20060 30178 40189 53014 60006 83830 90900=
07761,1998-12-02 12:00:00,15,1018.2,-0.7,59,7,40000,11.112,,,240,,,,,,,,,,,wg-a,,,,AAXX 02124 07761 12682 22406 10150 20070 30171 40182 58007 60006 81831 91200=
07761,1998-12-02 15:00:00,15,1017.6,-0.6,59,7,500,0,,,0,,,,,,,,,,,wg-a,,,,AAXX 02154 07761 12600 30000 10150 20070 30165 40176 56006 60006 83830 91500=
07761,1998-12-02 18:00:00,9,1018,0.4,81,6,20000,11.112,,,50,4.7,15.8,,,,,,,,,wg-a,,,,AAXX 02184 07761 12770 /0506 10090 20060 30169 40180 53004 60006 81500 91800 333 10158 20047=
07761,1998-12-02 21:00:00,5,1018,-0,87,3,20000,7.408,,,80,,,,,,,,,,,wg-a,,,,AAXX 02214 07761 12770 /0804 10050 20030 30169 40180 54000 60006 81500 92100=
07761,1998-12-03 00:00:00,4,1017.2,-0.8,87,2,20000,11.112,,,50,,,,,,,,,,,wg-a,,,,AAXX 03004 07761 12670 20506 10040 20020 30161 40172 58008 60006 82530 90000=
07761,1998-12-03 03:00:00,3,1015.6,-1.6,93,2,20000,14.816,,,50,,,,,,,,,,13,wg-a,,,,AAXX 03034 07761 12670 70508 10030 20020 30145 40156 56016 60006 71311 81501 90300=
07761,1998-12-03 06:00:00,5,1013.5,-2.1,87,3,20000,11.112,,,70,2.7,8.6,,,,,,,,13,wg-a,,,,AAXX 03064 07761 02670 60706 10050 20030 30124 40135 58021 60006 71311 81905 90600 333 10086 20027 60004=
07761,1998-12-03 09:00:00,10,1012.4,-1.1,76,6,25000,7.408,,,70,,,,,,,,,,,wg-a,,,,AAXX 03094 07761 12675 70704 10100 20060 30113 40124 56011 60006 82588 90900=
07761,1998-12-03 12:00:00,17,1009.1,-3.3,45,5,25000,14.816,,,80,,,,,,,,,,,wg-a,,,,AAXX 03124 07761 12775 70808 10170 20050 30080 40091 58033 60006 82232 91200=
07761,1998-12-03 15:00:00,15,1005.8,-3.3,48,4,20000,14.816,,,30,,,,,,,,,,,wg-a,,,,AAXX 03154 07761 12770 80308 10150 20040 30047 40058 56033 60006 8157/ 91500=
07761,1998-12-03 21:00:00,13,999.3,-2.8,67,7,15000,14.816,,,30,,,,0,,,,,,17,wg-a,,,,AAXX 03214 07761 12665 80308 10130 20070 39982 49993 56028 60007 71798 8297/ 92100=
07761,1998-12-04 00:00:00,11,995.7,-3.6,82,8,15000,7.408,,79.636,340,,,,8,,,,,,80,wg-a,,,,AAXX 04004 07761 02565 83404 10110 20080 39946 49957 56036 60086 78096 8297/ 90000 333 60087 91043=
07761,1998-12-04 03:00:00,10,995.4,-0.3,93,9,10000,14.816,,,90,,,,5,,,,,,63,wg-a,,,,AAXX 04034 07761 12560 80908 10100 20090 39943 49954 58003 60057 76396 8457/ 90300=
07761,1998-12-04 06:00:00,9,993.1,-2.3,87,7,12000,14.816,,,60,8.6,14.9,,,,,,,,60,wg-a,,,,AAXX 04064 07761 02462 80608 10090 20070 39920 49931 56023 61000 76096 8557/ 90600 333 10149 20086 6017=
07761,1998-12-04 09:00:00,11,993.2,0.1,87,9,20000,0,,,0,,,,0,,,,,,1,wg-a,,,,AAXX 04094 07761 12570 /0000 10110 20090 39921 49932 53001 60007 70162 82830 90900=
07761,1998-12-04 12:00:00,16,993.3,0.2,59,8,20000,7.408,,,210,,,,,,,,,,2,wg-a,,,,AAXX 04124 07761 12570 52104 10160 20080 39923 49933 50002 60006 70262 81232 91200=
07761,1998-12-04 15:00:00,14,995.3,1.9,72,9,20000,29.632,,,310,,,,,,,,,,,wg-a,,,,AAXX 04154 07761 12470 63116 10140 20090 39942 49953 53019 60006 82148 91500=
07761,1998-12-04 18:00:00,13,1000,4.7,72,8,20000,18.52,,,290,8.6,16.5,,,,,,,,,wg-a,,,,AAXX 04184 07761 12470 62910 10130 20080 39989 40000 51047 60006 84842 91800 333 10165 20086=
07761,1998-12-04 21:00:00,12,1002.3,2.3,71,7,20000,29.632,,,270,,,,,,,,,,,wg-a,,,,AAXX 04214 07761 12570 72716 10120 20070 30012 40023 51023 60006 878// 92100=
07761,1998-12-05 00:00:00,10,1004.9,2.6,66,4,20000,29.632,,,270,,,,,,,,,,,wg-a,,,,AAXX 05004 07761 12570 72716 10100 20040 30038 40049 51026 60006 878// 90000=
07761,1998-12-05 03:00:00,9,1006.8,1.9,66,3,15000,18.52,,,280,,,,,,,,,,,wg-a,,,,AAXX 05034 07761 12565 82810 10090 20030 30057 40068 51019 60006 885// 90300=
07761,1998-12-05 06:00:00,9,1006.9,0.1,61,2,15000,22.224,,,260,8.4,12.6,,,,,,,,,wg-a,,,,AAXX 05064 07761 02565 82612 10090 20020 30058 40069 52001 60006 885// 90600 333 10126 20084 60004=
07761,1998-12-05 09:00:00,8,1007.4,0.5,71,3,10000,7.408,,,30,,,,,,,,,,,wg-a,,,,AAXX 05094 07761 12560 80304 10080 20030 30063 40074 53005 60006 885// 90900=
07761,1998-12-05 12:00:00,10,1007.5,0.1,62,3,15000,7.408,,,110,,,,,,,,,,,wg-a,,,,AAXX 05124 07761 12565 71104 10100 20030 30064 40075 50001 60006 875// 91200=
07761,1998-12-05 15:00:00,10,1008.1,0.6,62,3,15000,7.408,,,340,,,,,,,,,,,wg-a,,,,AAXX 05154 07761 12665 73404 10100 20030 30070 40081 53006 60006 875// 91500=
07761,1998-12-05 18:00:00,9,1009.7,1.6,76,5,15000,7.408,,,90,8.1,11,,,,,,,,,wg-a,,,,AAXX 05184 07761 12665 70904 10090 20050 30086 40097 53016 60006 875// 91800 333 10110 20081=
07761,1998-12-05 21:00:00,7,1011.7,2,76,3,15000,7.408,,,70,,,,,,,,,,,wg-a,,,,AAXX 05214 07761 12765 60704 10070 20030 30106 40117 51020 60006 86500 92100=
07761,1998-12-06 00:00:00,4,1013.2,1.5,81,1,15000,11.112,,,50,,,,,,,,,,,wg-a,,,,AAXX 06004 07761 12665 30506 10040 20010 30121 40132 51015 60006 83500 90000=
07761,1998-12-06 03:00:00,3,1014.5,1.3,87,1,15000,14.816,,,40,,,,,,,,,,,wg-a,,,,AAXX 06034 07761 12665 /0408 10030 20010 30134 40145 51013 60006 81500 90300=
07761,1998-12-06 06:00:00,5,1015.2,0.7,87,3,15000,11.112,,,70,2.2,8.8,,,,,,,,21,wg-a,,,,AAXX 06064 07761 02665 70706 10050 20030 30141 40152 53007 61000 72161 8553/ 90600 333 10088 20022 6100=
07761,1998-12-06 09:00:00,9,1016.1,0.9,57,1,15000,14.816,,,310,,,,,,,,,,,wg-a,,,,AAXX 06094 07761 12665 73108 10090 20010 30150 40161 53009 60006 878// 90900=
07761,1998-12-06 12:00:00,10,1015.3,-0.8,53,1,20000,11.112,,,320,,,,,,,,,,2,wg-a,,,,AAXX 06124 07761 02670 83206 10100 20010 30142 40153 58008 61000 70262 878// 91200 333 6100=
07761,1998-12-06 15:00:00,9,1015.8,0.5,71,4,20000,7.408,,,20,,,,,,,,,,60,wg-a,,,,AAXX 06154 07761 02570 70204 10090 20040 30147 40158 53005 61000 76062 878// 91500 333 ////=
07761,1998-12-06 18:00:00,6,1017,1.2,81,3,15000,7.408,,,80,4.5,10,,,,,,,,2,wg-a,,,,AAXX 06184 07761 02665 20804 10060 20030 30159 40170 53012 60006 70261 82500 91800 333 10100 20045 61000=
07761,1998-12-06 21:00:00,2,1017.8,0.8,87,0,15000,11.112,,,40,,,,0,,,,,,,wg-a,,,,AAXX 06214 07761 12665 /0406 10020 20000 30167 40178 51008 60007 81500 92100=
07761,1998-12-07 00:00:00,1,1018.3,0.5,86,-1,15000,14.816,,,50,,,,,,,,,,,wg-a,,,,AAXX 07004 07761 12665 /0508 10010 21010 30172 40183 51005 60006 81500 90000=
07761,1998-12-07 03:00:00,1,1018.9,0.6,80,-2,15000,14.816,,,40,,,,,,,,,,,wg-a,,,,AAXX 07034 07761 12665 /0408 10010 21020 30178 40189 50006 60006 81500 90300=
07761,1998-12-07 06:00:00,0,1019.9,1,86,-2,15000,18.52,,,50,-0.4,6,,,,,,,,,wg-a,,,,AAXX 07064 07761 02765 20510 10000 21020 30188 40199 53010 60006 81580 90600 333 10060 21004 60004=
07761,1998-12-07 09:00:00,4,1021.6,1.7,75,0,35000,11.112,,,50,,,,,,,,,,,wg-a,,,,AAXX 07094 07761 12681 /0506 10040 20000 30205 40216 51017 60006 81880 90900=
07761,1998-12-07 12:00:00,12,1020.6,-1,30,-5,35000,18.52,,,300,,,,,,,,,,,wg-a,,,,AAXX 07124 07761 12681 33010 10120 21050 30195 40206 58010 60006 81280 91200=
07761,1998-12-07 15:00:00,10,1020.4,-0.2,37,-4,35000,18.52,,,300,,,,,,,,,,,wg-a,,,,AAXX 07154 07761 12681 /3010 10100 21040 30193 40204 55002 60006 81100 91500=
07761,1998-12-07 18:00:00,4,1022.3,1.9,60,-3,35000,11.112,,,50,0.2,11.8,,,,,,,,,wg-a,,,,AAXX 07184 07761 12681 /0506 10040 21030 30212 40223 53019 60006 81500 91800 333 10118 20002=
07761,1998-12-07 21:00:00,1,1023.7,1.4,64,-5,500,14.816,,,50,,,,,,,,,,,wg-a,,,,AAXX 07214 07761 12600 /0508 10010 21050 30226 40237 53014 60006 81500 92100=
07761,1998-12-08 00:00:00,-1,1024.5,0.7,64,-7,25000,14.816,,,40,,,,,,,,,,,wg-a,,,,AAXX 08004 07761 12/75 00408 11010 21070 30233 40245 51007 60006 80000 90000=
07761,1998-12-08 03:00:00,-2,1025,0.5,69,-7,25000,14.816,,,50,,,,,,,,,,,wg-a,,,,AAXX 08034 07761 12/75 00508 11020 21070 30238 40250 52005 60006 80000 90300=
07761,1998-12-08 06:00:00,-1,1025.7,0.7,64,-7,25000,18.52,,,50,-2.9,3.5,,,,,,,,,wg-a,,,,AAXX 08064 07761 02/75 00510 11010 21070 30245 40257 52007 60006 80000 90600 333 10035 21029 60004=
07761,1998-12-08 09:00:00,4,1027.4,1.8,56,-4,25000,11.112,,,60,,,,,,,,,,,wg-a,,,,AAXX 08094 07761 12/75 /0606 10040 21040 30263 40274 51018 60006 80000 90900=
07761,1998-12-08 12:00:00,11,1027,-0.4,32,-5,11000,11.112,,,230,,,,,,,,,,,wg-a,,,,AAXX 08124 07761 12/61 /2306 10110 21050 30259 40270 58004 60006 91200=
07761,1998-12-08 18:00:00,3,1028.9,1.6,56,-5,25000,14.816,,,50,-2.3,11.9,,,,,,,,,wg-a,,,,AAXX 08184 07761 12/75 /0508 10030 21050 30278 40289 53016 60006 80000 91800 333 10119 21023=
07761,1998-12-08 21:00:00,1,1029.6,0.6,64,-5,25000,14.816,,,40,,,,,,,,,,,wg-a,,,,AAXX 08214 07761 12/75 00408 10010 21050 30284 40296 51006 60006 80000 92100=
07761,1998-12-09 00:00:00,0,1029.4,-0.2,74,-4,25000,18.52,,,50,,,,,,,,,,,wg-a,,,,AAXX 09004 07761 12775 50510 10000 21040 30282 40294 58002 60006 855/0 90000=
07761,1998-12-09 03:00:00,5,1028.3,-1,56,-3,25000,14.816,,,50,,,,,,,,,,,wg-a,,,,AAXX 09034 07761 12775 /0508 10050 21030 30272 40283 58010 60006 86500 90300=
07761,1998-12-09 06:00:00,2,1028.5,0.2,69,-3,25000,14.816,,,40,0.3,6,,,,,,,,,wg-a,,,,AAXX 09064 07761 02775 30408 10020 21030 30274 40285 53002 60006 83530 90600 333 10060 20003 60004=
07761,1998-12-09 09:00:00,6,1029.6,1.1,65,0,50000,11.112,,,50,,,,,,,,,,,wg-a,,,,AAXX 09094 07761 12684 20506 10060 20000 30285 40296 52011 60006 82141 90900=
07761,1998-12-09 12:00:00,12,1028.1,-1.5,54,3,50000,11.112,,,250,,,,,,,,,,,wg-a,,,,AAXX 09124 07761 12/84 42506 10120 20030 30270 40281 58015 60006 81044 91200=
07761,1998-12-09 15:00:00,12,1028.2,0.1,54,3,50000,3.704,,,180,,,,,,,,,,,wg-a,,,,AAXX 09154 07761 12784 71802 10120 20030 30271 40282 53001 60006 82576 91500=
07761,1998-12-09 18:00:00,9,1027.8,-0.4,61,2,20000,7.408,,,50,1.2,12.9,,,,,,,,,wg-a,,,,AAXX 09184 07761 12670 80504 10090 20020 30267 40278 56004 60006 8657/ 91800 333 10129 20012=
07761,1998-12-09 21:00:00,8,1028.1,0.3,71,3,20000,14.816,,,50,,,,,,,,,,,wg-a,,,,AAXX 09214 07761 12670 80508 10080 20030 30270 40281 53003 60006 8657/ 92100=
07761,1998-12-10 00:00:00,8,1026.8,-1.3,71,3,20000,14.816,,,40,,,,,,,,,,1,wg-a,,,,AAXX 10004 07761 02/70 60408 10080 20030 30257 40268 58013 61000 70161 86070 90000 333 6100=
07761,1998-12-10 03:00:00,8,1025.2,-1.6,71,3,20000,7.408,,,50,,,,,,,,,,,wg-a,,,,AAXX 10034 07761 12670 70504 10080 20030 30241 40252 56016 60006 8557/ 90300=
07761,1998-12-10 06:00:00,7,1024.5,-0.7,81,4,20000,11.112,,,60,7,9.4,,,,,,,,,wg-a,,,,AAXX 10064 07761 02670 70606 10070 20040 30234 40245 56007 60006 875// 90600 333 10094 20070 61000=
07761,1998-12-10 09:00:00,9,1025.1,0.6,81,6,20000,7.408,,,60,,,,,,,,,,,wg-a,,,,AAXX 10094 07761 12570 70604 10090 20060 30240 40251 53006 60006 8587/ 90900=
07761,1998-12-10 12:00:00,11,1023.7,-1.4,76,7,20000,7.408,,,60,,,,,,,,,,60,wg-a,,,,AAXX 10124 07761 02570 80604 10110 20070 30226 40237 58014 61000 76062 878// 91200 333 6100=
07761,1998-12-10 15:00:00,10,1022.6,-1.1,82,7,12000,11.112,,,50,,,,,,,,,,1,wg-a,,,,AAXX 10154 07761 02562 80506 10100 20070 30215 40226 56011 61000 70162 878// 91500 333 ////=
07761,1998-12-10 18:00:00,9,1022.2,-0.4,87,7,12000,3.704,,,330,6.8,11.4,,,,,,,,60,wg-a,,,,AAXX 10184 07761 02562 83302 10090 20070 30211 40222 56004 61000 76062 875// 91800 333 10114 20068 6100=
07761,1998-12-10 21:00:00,9,1021.9,-0.3,87,7,12000,7.408,,,50,,,,0,,,,,,60,wg-a,,,,AAXX 10214 07761 12562 80504 10090 20070 30208 40219 55003 60007 76062 875// 92100=
07761,1998-12-11 00:00:00,8,1021.2,-0.7,93,7,15000,11.112,,,40,,,,0,,,,,,1,wg-a,,,,AAXX 11004 07761 02465 /0406 10080 20070 30201 40212 58007 60016 70162 85500 90000 333 60007=
07761,1998-12-11 06:00:00,9,1019.4,-1.2,93,8,15000,11.112,,,40,7.6,9.5,,,,,,,,61,wg-a,,,,AAXX 11064 07761 02465 70406 10090 20080 30183 40194 56012 61000 76161 87800 90600 333 10095 20076 6002=
07761,1998-12-11 09:00:00,10,1018.7,-0.7,93,9,10000,11.112,,,60,,,,6,,,,,,21,wg-a,,,,AAXX 11094 07761 12360 80606 10100 20090 30176 40187 55007 60067 72162 8686/ 90900=
07761,1998-12-11 18:00:00,11,1015.4,0.3,82,8,10000,14.816,,,300,9.1,14.6,,,,,,,,21,wg-a,,,,AAXX 11184 07761 02460 63008 10110 20080 30143 40154 53003 61000 72161 86200 91800 333 10146 20091 6100=
07761,1998-12-11 21:00:00,10,1015.9,0.5,87,8,15000,7.408,,,60,,,,1,,,,,,61,wg-a,,,,AAXX 11214 07761 12465 80604 10100 20080 30148 40159 51005 60017 76162 878// 92100=
07761,1998-12-12 00:00:00,7,1017.4,1.5,93,6,15000,11.112,,,60,,,,0,,,,,,2,wg-a,,,,AAXX 12004 07761 02/65 00606 10070 20060 30163 40174 53015 60016 70261 80000 90000 333 60007=
07761,1998-12-12 03:00:00,4,1019,1.6,93,3,15000,11.112,,,50,,,,,,,,,,,wg-a,,,,AAXX 12034 07761 12/65 00506 10040 20030 30179 40190 53016 60006 80000 90300=
07761,1998-12-12 06:00:00,3,1021.5,2.5,93,2,15000,14.816,,,50,2.5,11.1,,,,,7,,,,wg-a,,,,AAXX 12064 07761 02/65 00508 10030 20020 30204 40215 53025 60006 80000 90600 333 10111 20025 60074=
07761,1998-12-12 09:00:00,8,1023.8,2.3,87,6,40000,11.112,,,50,,,,,,,,,,,wg-a,,,,AAXX 12094 07761 12/82 10506 10080 20060 30227 40238 51023 60006 81030 90900=
07761,1998-12-12 12:00:00,14,1023.8,0,63,7,40000,14.816,,,250,,,,,,,,,,,wg-a,,,,AAXX 12124 07761 12582 /2508 10140 20070 30227 40238 50000 60006 81101 91200=
07761,1998-12-12 15:00:00,14,1025,1.2,77,10,40000,3.704,,,210,,,,,,,,,,,wg-a,,,,AAXX 12154 07761 12582 22102 10140 20100 30239 40250 52012 60006 82100 91500=
07761,1998-12-12 18:00:00,9,1026.8,1.8,87,7,25000,14.816,,,60,2.7,14.5,,,,,,,,,wg-a,,,,AAXX 12184 07761 12575 70608 10090 20070 30257 40268 51018 60006 82532 91800 333 10145 20027=
07761,1998-12-12 21:00:00,7,1028.2,1.4,87,5,25000,14.816,,,40,,,,,,,,,,,wg-a,,,,AAXX 12214 07761 12575 30408 10070 20050 30271 40282 50014 60006 82501 92100=
07761,1998-12-13 00:00:00,6,1028.4,0.2,87,4,25000,11.112,,,60,,,,,,,,,,,wg-a,,,,AAXX 13004 07761 12575 20606 10060 20040 30273 40284 52002 60006 81501 90000=
07761,1998-12-13 03:00:00,5,1028.1,-0.3,93,4,20000,14.816,,,50,,,,,,,,,,,wg-a,,,,AAXX 13034 07761 12570 /0508 10050 20040 30270 40281 58003 60006 81500 90300=
07761,1998-12-13 06:00:00,5,1028.3,0.2,87,3,20000,18.52,,,50,3.9,9.3,,,,,,,,,wg-a,,,,AAXX 13064 07761 02/70 10510 10050 20030 30272 40283 53002 60006 80001 90600 333 10093 20039 60004=
07761,1998-12-13 09:00:00,9,1029.5,1.2,81,6,20000,11.112,,,70,,,,,,,,,,,wg-a,,,,AAXX 13094 07761 12570 40706 10090 20060 30284 40295 53012 60006 82801 90900=
07761,1998-12-13 12:00:00,15,1029.3,-0.2,67,9,11000,7.408,,,340,,,,,,,,,,,wg-a,,,,AAXX 13124 07761 12/61 /3404 10150 20090 30282 40293 58002 60006 91200=
07761,1998-12-13 15:00:00,14,1028.9,-0.4,82,11,25000,11.112,,,250,,,,,,,,,,,wg-a,,,,AAXX 13154 07761 12575 52506 10140 20110 30278 40289 55004 60006 81131 91500=
07761,1998-12-13 18:00:00,9,1030,1.1,93,8,20000,14.816,,,50,4.3,16.4,,,,,,,,,wg-a,,,,AAXX 13184 07761 12/70 50508 10090 20080 30289 40300 53011 60006 82031 91800 333 10164 20043=
07761,1998-12-13 21:00:00,7,1030.3,0.3,87,5,20000,11.112,,,40,,,,,,,,,,,wg-a,,,,AAXX 13214 07761 12570 /0406 10070 20050 30292 40303 50003 60006 81500 92100=
07761,1998-12-14 00:00:00,6,1029.8,-0.5,93,5,20000,14.816,,,50,,,,,,,,,,,wg-a,,,,AAXX 14004 07761 12570 30508 10060 20050 30287 40298 58005 60006 81501 90000=
07761,1998-12-14 06:00:00,7,1029.8,-0.4,87,5,20000,14.816,,,50,4.9,9.1,,,,,,,,,wg-a,,,,AAXX 14064 07761 02570 70508 10070 20050 30287 40298 56004 60006 875// 90600 333 10091 20049 60004=
07761,1998-12-14 09:00:00,10,1030.5,0.7,87,8,20000,11.112,,,50,,,,,,,,,,,wg-a,,,,AAXX 14094 07761 12570 70506 10100 20080 30294 40305 53007 60006 875// 90900=
07761,1998-12-14 12:00:00,13,1029.1,-1.4,82,10,20000,7.408,,,60,,,,,,,,,,,wg-a,,,,AAXX 14124 07761 12570 70604 10130 20100 30280 40291 58014 60006 83578 91200=
07761,1998-12-14 18:00:00,10,1027.4,-0.1,93,9,15000,7.408,,,60,7.2,14,,,,,,,,,wg-a,,,,AAXX 14184 07761 12565 70604 10100 20090 30263 40274 56001 60006 85508 91800 333 10140 20072=
07761,1998-12-15 00:00:00,10,1027.1,-0.1,82,7,15000,11.112,,,60,,,,,,,,,,,wg-a,,,,AAXX 15004 07761 12565 80606 10100 20070 30260 40271 57001 60006 84508 90000=
07761,1998-12-15 06:00:00,5,1027.2,0.3,93,4,25000,11.112,,,70,4.8,10.9,,,,,,,,,wg-a,,,,AAXX 15064 07761 02/75 40706 10050 20040 30261 40272 53003 60006 81041 90600 333 10109 20048 60004=
07761,1998-12-15 09:00:00,9,1028.6,1.4,87,7,12000,11.112,,,60,,,,,,,,,,,wg-a,,,,AAXX 15094 07761 12562 /0606 10090 20070 30275 40286 51014 60006 81501 90900=
07761,1998-12-15 12:00:00,15,1027.6,-1,72,10,500,7.408,,,220,,,,,,,,,,,wg-a,,,,AAXX 15124 07761 12/00 42204 10150 20100 30265 40276 58010 60006 80001 91200=
07761,1998-12-15 15:00:00,14,1027.8,0.2,77,10,500,7.408,,,200,,,,,,,,,,,wg-a,,,,AAXX 15154 07761 12500 12004 10140 20100 30267 40278 53002 60006 81501 91500=
07761,1998-12-15 18:00:00,7,1028.2,0.4,93,6,20000,11.112,,,50,4.5,14.9,,,,,,,,,wg-a,,,,AAXX 15184 07761 12570 /0506 10070 20060 30271 40282 51004 60006 81501 91800 333 10149 20045=
07761,1998-12-15 21:00:00,5,1028.8,0.6,93,4,20000,14.816,,,60,,,,,,,,,,,wg-a,,,,AAXX 15214 07761 12/70 00608 10050 20040 30277 40288 52006 60006 80000 92100=
07761,1998-12-16 00:00:00,6,1028.8,0,93,5,15000,11.112,,,60,,,,,,,,,,,wg-a,,,,AAXX 16004 07761 12365 70606 10060 20050 30277 40288 50000 60006 876// 90000=
07761,1998-12-16 03:00:00,7,1027.9,-0.9,93,6,8000,11.112,,,50,,,,,,,,,,,wg-a,,,,AAXX 16034 07761 12258 80506 10070 20060 30268 40279 58009 60006 886// 90300=
07761,1998-12-16 06:00:00,3,1027.6,-0.3,93,2,8000,14.816,,,40,2.8,7.8,,,,,,,,,wg-a,,,,AAXX 16064 07761 02158 30408 10030 20020 30265 40276 55003 60006 83600 90600 333 10078 20028 60004=
07761,1998-12-16 09:00:00,5,1028.2,0.6,93,4,10000,11.112,,,50,,,,,,,,,,,wg-a,,,,AAXX 16094 07761 12460 /0506 10050 20040 30271 40282 53006 60006 86600 90900=
07761,1998-12-16 12:00:00,13,1026.5,-1.7,77,9,12000,7.408,,,200,,,,,,,,,,,wg-a,,,,AAXX 16124 07761 12462 72004 10130 20090 30254 40265 58017 60006 875// 91200=
07761,1998-12-16 15:00:00,12,1025.5,-1,76,8,12000,7.408,,,260,,,,,,,,,,,wg-a,,,,AAXX 16154 07761 12462 /2604 10120 20080 30244 40255 57010 60006 86500 91500=
07761,1998-12-16 18:00:00,11,1026.8,1.3,82,8,12000,7.408,,,110,2.2,13.2,,,,,,,,,wg-a,,,,AAXX 16184 07761 12462 71104 10110 20080 30257 40268 51013 60006 875// 91800 333 10132 20022=
07761,1998-12-16 21:00:00,11,1027.5,0.7,82,8,12000,3.704,,,80,,,,,,,,,,,wg-a,,,,AAXX 16214 07761 12462 80802 10110 20080 30264 40275 53007 60006 885// 92100=
07761,1998-12-17 00:00:00,10,1027.4,-0.1,82,7,12000,11.112,,,60,,,,,,,,,,,wg-a,,,,AAXX 17004 07761 12462 80606 10100 20070 30263 40274 58001 60006 885// 90000=
07761,1998-12-17 03:00:00,9,1027.1,-0.3,81,6,12000,7.408,,,60,,,,,,,,,,,wg-a,,,,AAXX 17034 07761 12462 80604 10090 20060 30260 40271 56003 60006 885// 90300=
07761,1998-12-17 06:00:00,9,1027.4,0.3,81,6,12000,11.112,,,60,8.8,11.2,,,,,,,,,wg-a,,,,AAXX 17064 07761 02462 80606 10090 20060 30263 40274 53003 60006 885// 90600 333 10112 20088 60004=
07761,1998-12-17 12:00:00,13,1027.8,-0.5,67,7,15000,7.408,,,180,,,,,,,,,,,wg-a,,,,AAXX 17124 07761 12565 71804 10130 20070 30267 40278 58005 60006 875// 91200=
07761,1998-12-17 18:00:00,7,1028.4,1.1,87,5,15000,11.112,,,50,7.3,14.1,,,,,,,,,wg-a,,,,AAXX 17184 07761 12565 50506 10070 20050 30273 40284 52011 60006 81501 91800 333 10141 20073=
07761,1998-12-17 21:00:00,5,1028.8,0.4,93,4,20000,14.816,,,40,,,,,,,,,,,wg-a,,,,AAXX 17214 07761 12570 /0408 10050 20040 30277 40288 51004 60006 81500 92100=
07761,1998-12-18 00:00:00,5,1028.1,-0.7,93,4,20000,14.816,,,40,,,,,,,,,,,wg-a,,,,AAXX 18004 07761 12570 /0408 10050 20040 30270 40281 58007 60006 81500 90000=
07761,1998-12-18 03:00:00,5,1027.3,-0.8,87,3,20000,18.52,,,50,,,,,,,,,,,wg-a,,,,AAXX 18034 07761 12/70 /0510 10050 20030 30262 40273 58008 60006 80000 90300=
07761,1998-12-18 06:00:00,3,1027.7,0.4,93,2,20000,14.816,,,40,2.8,7.3,,,,,,,,,wg-a,,,,AAXX 18064 07761 02/70 00408 10030 20020 30266 40277 53004 60006 80000 90600 333 10073 20028 60004=
07761,1998-12-18 09:00:00,7,1028.7,1,81,4,20000,14.816,,,50,,,,,,,,,,,wg-a,,,,AAXX 18094 07761 12/70 60508 10070 20040 30276 40287 51010 60006 80002 90900=
07761,1998-12-18 12:00:00,15,1027.3,-1.4,55,6,20000,3.704,,,170,,,,,,,,,,,wg-a,,,,AAXX 18124 07761 12/70 41702 10150 20060 30262 40273 58014 60006 80002 91200=
07761,1998-12-18 15:00:00,14,1026.2,-1.1,63,7,25000,7.408,,,320,,,,,,,,,,,wg-a,,,,AAXX 18154 07761 12/75 53204 10140 20070 30251 40262 56011 60006 80002 91500=
07761,1998-12-18 18:00:00,8,1026.2,-0,81,5,20000,14.816,,,50,3.1,15,,,,,,,,,wg-a,,,,AAXX 18184 07761 12/70 40508 10080 20050 30251 40262 55000 60006 80002 91800 333 10150 20031=
07761,1998-12-18 21:00:00,5,1025.9,-0.3,87,3,15000,14.816,,,40,,,,,,,,,,,wg-a,,,,AAXX 18214 07761 12/65 20408 10050 20030 30248 40259 58003 60006 80001 92100=
07761,1998-12-19 00:00:00,4,1025,-0.9,87,2,15000,14.816,,,40,,,,,,,,,,,wg-a,,,,AAXX 19004 07761 12/65 00408 10040 20020 30239 40250 57009 60006 80000 90000=
07761,1998-12-19 03:00:00,4,1024.1,-0.9,87,2,15000,14.816,,,50,,,,,,,,,,,wg-a,,,,AAXX 19034 07761 12565 /0508 10040 20020 30230 40241 58009 60006 81500 90300=
07761,1998-12-19 06:00:00,4,1023.1,-1,93,3,20000,14.816,,,50,2.7,7.5,,,,,,,,,wg-a,,,,AAXX 19064 07761 02570 70508 10040 20030 30220 40231 56010 60006 875// 90600 333 10075 20027 60004=
07761,1998-12-19 09:00:00,8,1022.7,-0.4,81,5,25000,3.704,,,30,,,,,,,,,,,wg-a,,,,AAXX 19094 07761 12675 70302 10080 20050 30216 40227 56004 60006 875// 90900=
07761,1998-12-19 12:00:00,13,1019.7,-3,67,7,25000,3.704,,,260,,,,,,,,,,,wg-a,,,,AAXX 19124 07761 12575 72602 10130 20070 30186 40197 58030 60006 875// 91200=
07761,1998-12-19 15:00:00,13,1017.7,-2,72,8,25000,3.704,,,160,,,,,,,,,,3,wg-a,,,,AAXX 19154 07761 02575 /1602 10130 20080 30166 40177 56020 61000 70352 86500 91500 333 ////=
07761,1998-12-19 18:00:00,9,1016.8,-0.9,87,7,15000,14.816,,,60,4.3,13.2,,,,,,,,1,wg-a,,,,AAXX 19184 07761 12565 50608 10090 20070 30157 40168 56009 60006 70152 85500 91800 333 10132 20043=
07761,1998-12-19 21:00:00,8,1015.1,-1.7,87,6,15000,7.408,,,40,,,,,,,,,,,wg-a,,,,AAXX 19214 07761 12565 60404 10080 20060 30140 40151 57017 60006 83502 92100=
07761,1998-12-20 00:00:00,6,1014.4,-0.7,93,5,15000,11.112,,,50,,,,,,,,,,,wg-a,,,,AAXX 20004 07761 12665 /0506 10060 20050 30133 40144 58007 60006 84502 90000=
07761,1998-12-20 03:00:00,6,1013.5,-0.9,87,4,12000,11.112,,,70,,,,,,,,,,,wg-a,,,,AAXX 20034 07761 12662 50706 10060 20040 30124 40135 56009 60006 83572 90300=
07761,1998-12-20 06:00:00,6,1012.1,-1.4,87,4,12000,14.816,,,60,5.5,9.5,,,,,,,,,wg-a,,,,AAXX 20064 07761 02662 70608 10060 20040 30110 40121 58014 60006 82502 90600 333 10095 20055 61000=
07761,1998-12-20 09:00:00,8,1011.3,-0.8,81,5,12000,14.816,,,30,,,,,,,,,,,wg-a,,,,AAXX 20094 07761 12662 60308 10080 20050 30102 40113 56008 60006 84522 90900=
07761,1998-12-20 12:00:00,12,1007.8,-3.5,62,5,12000,7.408,,,50,,,,,,,,,,,wg-a,,,,AAXX 20124 07761 12662 80504 10120 20050 30067 40078 58035 60006 878// 91200=
07761,1998-12-20 15:00:00,9,1004.1,-3.7,87,7,12000,18.52,,,30,,,,1,,,,,,21,wg-a,,,,AAXX 20154 07761 12562 70310 10090 20070 30030 40041 58037 60017 72162 8587/ 91500=
07761,1998-12-20 18:00:00,9,1000.5,-3.6,93,8,8000,14.816,,,40,5.2,11.6,,,,,,,,80,wg-a,,,,AAXX 20184 07761 02558 70408 10090 20080 39994 40005 56036 61000 78096 8397/ 91800 333 10116 20052 6007=
07761,1998-12-20 21:00:00,9,998.8,-1.7,93,8,10000,3.704,,,80,,,,5,,,,,,60,wg-a,,,,AAXX 20214 07761 12460 70802 10090 20080 39977 49988 58017 60057 76096 8357/ 92100=
07761,1998-12-21 00:00:00,8,998,-0.8,93,7,10000,11.112,,,50,,,,4,,,,,,60,wg-a,,,,AAXX 21004 07761 02460 70506 10080 20070 39969 49980 58008 60106 76096 8557/ 90000 333 60047=
07761,1998-12-21 06:00:00,7,996.2,-1.2,93,6,10000,3.704,,,90,6.6,9.4,,,,,,,,60,wg-a,,,,AAXX 21064 07761 02260 /0902 10070 20060 39951 49962 56012 61000 76061 85870 90600 333 10094 20066 6021=
07761,1998-12-21 09:00:00,8,997.3,1.1,93,7,12000,7.408,,,30,,,,,,,,,,60,wg-a,,,,AAXX 21094 07761 02562 70304 10080 20070 39962 49973 53011 61000 76062 878// 90900 333 ////=
07761,1998-12-21 12:00:00,10,997.4,0.1,87,8,15000,3.704,,,330,,,,3,,,,,,21,wg-a,,,,AAXX 21124 07761 02465 73302 10100 20080 39963 49974 50001 60036 72162 878// 91200 333 60037=
07761,1998-12-21 15:00:00,12,999.6,2.2,76,8,15000,3.704,,,140,,,,,,,,,,,wg-a,,,,AAXX 21154 07761 12565 51402 10120 20080 39985 49996 53022 60006 83872 91500=
07761,1998-12-21 18:00:00,6,1004,4.4,93,5,15000,11.112,,,50,5.9,11.7,,,,,,,,,wg-a,,,,AAXX 21184 07761 12565 20506 10060 20050 30029 40040 53044 60006 81501 91800 333 10117 20059=
07761,1998-12-21 21:00:00,6,1007.8,3.8,87,4,15000,7.408,,,90,,,,,,,,,,,wg-a,,,,AAXX 21214 07761 12565 /0904 10060 20040 30067 40078 51038 60006 81500 92100=
07761,1998-12-22 00:00:00,4,1011.1,3.3,87,2,15000,11.112,,,60,,,,,,,,,,,wg-a,,,,AAXX 22004 07761 12/65 00606 10040 20020 30100 40111 53033 60006 80000 90000=
07761,1998-12-22 03:00:00,2,1012.9,1.8,93,1,15000,11.112,,,60,,,,,,,,,,,wg-a,,,,AAXX 22034 07761 12/65 00606 10020 20010 30118 40129 53018 60006 80000 90300=
07761,1998-12-22 06:00:00,3,1015,2.1,87,1,20000,7.408,,,80,1.6,6.5,,,,,3,,,,wg-a,,,,AAXX 22064 07761 02670 /0804 10030 20010 30139 40150 51021 60006 81500 90600 333 10065 20016 60034=
07761,1998-12-22 09:00:00,9,1017.6,2.6,66,3,11000,3.704,,,100,,,,,,,,,,,wg-a,,,,AAXX 22094 07761 12/61 /1002 10090 20030 30165 40176 51026 60006 90900=
07761,1998-12-22 12:00:00,13,1017.9,0.3,47,2,50000,3.704,,,260,,,,,,,,,,,wg-a,,,,AAXX 22124 07761 12784 /2602 10130 20020 30168 40179 50003 60006 81500 91200=
07761,1998-12-22 15:00:00,11,1019.5,1.6,66,5,50000,14.816,,,240,,,,,,,,,,,wg-a,,,,AAXX 22154 07761 12684 32408 10110 20050 30184 40195 53016 60006 83500 91500=
07761,1998-12-22 18:00:00,8,1021.4,1.9,49,-2,50000,14.816,,,40,2.2,13.5,,,,,,,,,wg-a,,,,AAXX 22184 07761 12684 60408 10080 21020 30203 40214 51019 60006 86400 91800 333 10135 20022=
07761,1998-12-22 21:00:00,5,1022.4,1,65,-1,15000,18.52,,,50,,,,,,,,,,,wg-a,,,,AAXX 22214 07761 12565 30510 10050 21010 30213 40224 52010 60006 83500 92100=
07761,1998-12-23 00:00:00,4,1023.4,1,65,-2,15000,11.112,,,40,,,,,,,,,,,wg-a,,,,AAXX 23004 07761 12565 /0406 10040 21020 30223 40234 51010 60006 81500 90000=
07761,1998-12-23 03:00:00,3,1024.1,0.7,75,-1,11000,18.52,,,40,,,,,,,,,,,wg-a,,,,AAXX 23034 07761 12/61 /0410 10030 21010 30230 40241 50007 60006 90300=
07761,1998-12-23 06:00:00,4,1024.9,0.8,75,0,25000,14.816,,,30,2.4,7.5,,,,,,,,,wg-a,,,,AAXX 23064 07761 02675 10308 10040 20000 30238 40249 53008 60006 81500 90600 333 10075 20024 60004=
07761,1998-12-23 09:00:00,6,1026.7,1.8,75,2,40000,14.816,,,40,,,,,,,,,,,wg-a,,,,AAXX 23094 07761 12682 /0408 10060 20020 30256 40267 53018 60006 81130 90900=
07761,1998-12-23 12:00:00,12,1025.7,-1,58,4,40000,7.408,,,220,,,,,,,,,,,wg-a,,,,AAXX 23124 07761 12682 22204 10120 20040 30246 40257 58010 60006 82101 91200=
07761,1998-12-23 15:00:00,11,1025.1,-0.6,62,4,500,11.112,,,330,,,,,,,,,,,wg-a,,,,AAXX 23154 07761 12600 33306 10110 20040 30240 40251 56006 60006 83801 91500=
07761,1998-12-23 18:00:00,6,1026,0.9,81,3,25000,11.112,,,50,2.1,12.9,,,,,,,,,wg-a,,,,AAXX 23184 07761 12675 40506 10060 20030 30249 40260 53009 60006 84500 91800 333 10129 20021=
07761,1998-12-23 21:00:00,4,1026.7,0.7,81,1,25000,11.112,,,50,,,,,,,,,,0,wg-a,,,,AAXX 23214 07761 32/75 /0506 10040 20010 30256 40267 53007 700// 80000 92100=
07761,1998-12-24 00:00:00,2,1026.6,-0.1,87,0,25000,14.816,,,50,,,,,,,,,,0,wg-a,,,,AAXX 24004 07761 32/75 00508 10020 20000 30255 40266 58001 700// 80000 90000=
07761,1998-12-24 03:00:00,1,1026,-0.6,93,0,25000,14.816,,,50,,,,,,,,,,0,wg-a,,,,AAXX 24034 07761 32775 /0508 10010 20000 30249 40260 57006 700// 81500 90300=
07761,1998-12-24 06:00:00,2,1025.3,-0.7,87,0,20000,18.52,,,50,1.3,5.7,,,,,,,,0,wg-a,,,,AAXX 24064 07761 12770 40510 10020 20000 30242 40253 58007 60004 700// 81501 90600 333 10057 20013=
07761,1998-12-24 12:00:00,11,1024,-1.8,62,4,20000,3.704,,,220,,,,,,,,,,0,wg-a,,,,AAXX 24124 07761 32670 72202 10110 20040 30229 40240 58018 700// 81572 91200=
07761,1998-12-24 15:00:00,10,1023.4,-0.6,66,4,20000,7.408,,,280,,,,,,,,,,0,wg-a,,,,AAXX 24154 07761 32670 72804 10100 20040 30223 40234 55006 700// 81572 91500=
07761,1998-12-24 18:00:00,8,1023.8,0.4,81,5,20000,11.112,,,50,1.5,11.5,,,,,,,,0,wg-a,,,,AAXX 24184 07761 32670 70506 10080 20050 30227 40238 53004 700// 8157/ 91800 333 10115 20015=
07761,1998-12-24 21:00:00,8,1023.6,-0.2,76,4,12000,7.408,,,30,,,,,,,,,,1,wg-a,,,,AAXX 24214 07761 02662 80304 10080 20040 30225 40236 55002 61000 70162 875// 92100 333 ////=
07761,1998-12-25 00:00:00,7,1023.5,-0.1,87,5,12000,11.112,,,50,,,,0,,,,,,60,wg-a,,,,AAXX 25004 07761 12662 80506 10070 20050 30224 40235 58001 60007 76062 878// 90000=
07761,1998-12-25 03:00:00,7,1023.9,0.4,81,4,12000,11.112,,,40,,,,,,,,,,21,wg-a,,,,AAXX 25034 07761 02662 /0406 10070 20040 30228 40239 53004 61000 72162 85500 90300 333 ////=
07761,1998-12-25 06:00:00,6,1024.8,0.9,87,4,15000,11.112,,,40,5.7,8,,,,,,,,1,wg-a,,,,AAXX 25064 07761 12765 40406 10060 20040 30237 40248 53009 60004 70161 81531 90600 333 10080 20057=
07761,1998-12-25 09:00:00,8,1026.3,1.5,81,5,500,7.408,,,70,,,,,,,,,,0,wg-a,,,,AAXX 25094 07761 32500 70704 10080 20050 30252 40263 53015 700// 81832 90900=
07761,1998-12-25 12:00:00,12,1026.6,0.3,71,7,500,3.704,,,210,,,,,,,,,,0,wg-a,,,,AAXX 25124 07761 32500 62102 10120 20070 30255 40266 50003 700// 81830 91200=
07761,1998-12-25 15:00:00,12,1027.1,0.5,71,7,500,11.112,,,260,,,,,,,,,,0,wg-a,,,,AAXX 25154 07761 32500 /2606 10120 20070 30260 40271 53005 700// 84830 91500=
07761,1998-12-25 18:00:00,6,1027.9,0.8,87,4,500,14.816,,,50,4.9,13.2,,,,,,,,0,wg-a,,,,AAXX 25184 07761 32/00 00508 10060 20040 30268 40279 52008 700// 80000 91800 333 10132 20049=
07761,1998-12-26 00:00:00,4,1029.1,0.2,87,2,500,14.816,,,40,,,,,,,,,,,wg-a,,,,AAXX 26004 07761 12/00 00408 10040 20020 30280 40291 51002 60006 80000 90000=
07761,1998-12-26 03:00:00,3,1028.9,-0.2,87,1,500,14.816,,,50,,,,,,,,,,,wg-a,,,,AAXX 26034 07761 12/00 00508 10030 20010 30278 40289 55002 60006 80000 90300=
07761,1998-12-26 06:00:00,3,1029.1,0.2,87,1,500,14.816,,,50,2.7,6.4,,,,,,,,,wg-a,,,,AAXX 26064 07761 02/00 00508 10030 20010 30280 40291 53002 60006 80000 90600 333 10064 20027 60004=
07761,1998-12-26 09:00:00,7,1030,0.9,81,4,50000,14.816,,,60,,,,,,,,,,,wg-a,,,,AAXX 26094 07761 12584 20608 10070 20040 30289 40300 51009 60006 81830 90900=
07761,1998-12-26 12:00:00,14,1029.3,-0.7,67,8,40000,7.408,,,210,,,,,,,,,,,wg-a,,,,AAXX 26124 07761 12582 32104 10140 20080 30282 40293 58007 60006 81134 91200=
07761,1998-12-26 15:00:00,12,1028.4,-0.9,71,7,20000,7.408,,,310,,,,,,,,,,,wg-a,,,,AAXX 26154 07761 12570 43104 10120 20070 30273 40284 56009 60006 82201 91500=
07761,1998-12-26 18:00:00,8,1029.2,0.8,87,6,20000,11.112,,,50,2.5,14.3,,,,,,,,,wg-a,,,,AAXX 26184 07761 12570 20506 10080 20060 30281 40292 50008 60006 81531 91800 333 10143 20025=
07761,1998-12-26 21:00:00,5,1029.4,0.2,93,4,15000,11.112,,,50,,,,,,,,,,,wg-a,,,,AAXX 26214 07761 12765 70506 10050 20040 30283 40294 50002 60006 81571 92100=
07761,1998-12-27 00:00:00,5,1028.8,-0.6,87,3,15000,11.112,,,60,,,,,,,,,,,wg-a,,,,AAXX 27004 07761 12565 20606 10050 20030 30277 40288 58006 60006 82500 90000=
07761,1998-12-27 03:00:00,4,1027.9,-0.9,87,2,15000,14.816,,,40,,,,,,,,,,,wg-a,,,,AAXX 27034 07761 12/65 /0408 10040 20020 30268 40279 58009 60006 80000 90300=
07761,1998-12-27 06:00:00,4,1027.7,-0.2,87,2,25000,14.816,,,40,3.1,7.9,,,,,,,,,wg-a,,,,AAXX 27064 07761 02/75 40408 10040 20020 30266 40277 55002 60006 80001 90600 333 10079 20031 60004=
07761,1998-12-27 09:00:00,8,1027.6,-0.1,81,5,25000,11.112,,,40,,,,,,,,,,,wg-a,,,,AAXX 27094 07761 12675 70406 10080 20050 30265 40276 55001 60006 86541 90900=
07761,1998-12-27 12:00:00,11,1026,-1.6,76,7,25000,0,,,0,,,,,,,,,,,wg-a,,,,AAXX 27124 07761 12675 70000 10110 20070 30249 40260 58016 60006 875// 91200=
07761,1998-12-27 15:00:00,13,1025,-1,67,7,25000,3.704,,,190,,,,,,,,,,,wg-a,,,,AAXX 27154 07761 12675 51902 10130 20070 30239 40250 55010 60006 84801 91500=
07761,1998-12-27 18:00:00,8,1025.6,0.6,87,6,25000,14.816,,,40,3.2,13.2,,,,,,,,,wg-a,,,,AAXX 27184 07761 12575 50408 10080 20060 30245 40256 51006 60006 82502 91800 333 10132 20032=
07761,1998-12-27 21:00:00,7,1025.1,-0.5,87,5,20000,18.52,,,50,,,,,,,,,,,wg-a,,,,AAXX 27214 07761 12570 70510 10070 20050 30240 40251 57005 60006 85502 92100=
07761,1998-12-28 00:00:00,7,1024.6,-0.5,81,4,20000,11.112,,,40,,,,,,,,,,,wg-a,,,,AAXX 28004 07761 12570 /0406 10070 20040 30235 40246 58005 60006 85502 90000=
07761,1998-12-28 03:00:00,5,1023.9,-0.7,87,3,20000,14.816,,,40,,,,,,,,,,,wg-a,,,,AAXX 28034 07761 12670 40408 10050 20030 30228 40239 58007 60006 8450/ 90300=
07761,1998-12-28 06:00:00,4,1023.5,-0.4,87,2,20000,14.816,,,40,3.6,7.5,,,,,,,,,wg-a,,,,AAXX 28064 07761 02670 /0408 10040 20020 30224 40235 56004 60006 81500 90600 333 10075 20036 60004=
07761,1998-12-28 09:00:00,7,1023.8,0.3,87,5,500,14.816,,,50,,,,,,,,,,,wg-a,,,,AAXX 28094 07761 12/00 70508 10070 20050 30227 40238 52003 60006 8705/ 90900=
07761,1998-12-28 12:00:00,13,1022.1,-1.7,62,6,500,3.704,,,260,,,,,,,,,,,wg-a,,,,AAXX 28124 07761 12600 72602 10130 20060 30210 40221 58017 60006 8155/ 91200=
07761,1998-12-28 15:00:00,13,1021.1,-1,72,8,25000,3.704,,,230,,,,,,,,,,,wg-a,,,,AAXX 28154 07761 12675 72302 10130 20080 30200 40211 56010 60006 8155/ 91500=
07761,1998-12-28 18:00:00,9,1021.2,0.1,81,6,15000,11.112,,,50,3.6,13.7,,,,,,,,,wg-a,,,,AAXX 28184 07761 12665 70506 10090 20060 30201 40212 53001 60006 8155/ 91800 333 10137 20036=
07761,1998-12-28 21:00:00,6,1021.2,-0,87,4,15000,14.816,,,50,,,,,,,,,,,wg-a,,,,AAXX 28214 07761 12/65 /0508 10060 20040 30201 40212 55000 60006 80000 92100=
07761,1998-12-29 00:00:00,5,1020.9,-0.3,93,4,15000,14.816,,,70,,,,,,,,,,,wg-a,,,,AAXX 29004 07761 12/65 20708 10050 20040 30198 40209 58003 60006 82030 90000=
07761,1998-12-29 03:00:00,6,1020,-0.9,87,4,15000,11.112,,,40,,,,,,,,,,,wg-a,,,,AAXX 29034 07761 12665 60406 10060 20040 30189 40200 58009 60006 8357/ 90300=
07761,1998-12-29 06:00:00,8,1019.6,-0.4,81,5,15000,11.112,,,60,4.4,8.8,,,,,,,,,wg-a,,,,AAXX 29064 07761 02765 70606 10080 20050 30185 40196 56004 60006 8357/ 90600 333 10088 20044 60004=
07761,1998-12-29 09:00:00,9,1020.2,0.6,81,6,500,11.112,,,60,,,,,,,,,,,wg-a,,,,AAXX 29094 07761 12700 70606 10090 20060 30191 40202 53006 60006 8257/ 90900=
07761,1998-12-29 12:00:00,13,1019.3,-0.9,67,7,500,7.408,,,40,,,,,,,,,,,wg-a,,,,AAXX 29124 07761 12600 70404 10130 20070 30182 40193 58009 60006 8587/ 91200=
07761,1998-12-29 15:00:00,13,1018.7,-0.6,67,7,500,3.704,,,40,,,,,,,,,,2,wg-a,,,,AAXX 29154 07761 02600 70402 10130 20070 30176 40187 56006 61000 70262 8387/ 91500 333 ////=
07761,1998-12-29 18:00:00,10,1018.9,0.2,82,7,20000,3.704,,,100,7.6,13.4,,,,,,,,2,wg-a,,,,AAXX 29184 07761 12670 71002 10100 20070 30178 40189 53002 60006 70262 8287/ 91800 333 10134 20076=
07761,1998-12-29 21:00:00,9,1019.2,0.3,81,6,20000,11.112,,,50,,,,,,,,,,0,wg-a,,,,AAXX 29214 07761 32670 70506 10090 20060 30181 40192 50003 700// 8357/ 92100=
07761,1998-12-30 00:00:00,8,1019.2,0,87,6,20000,14.816,,,50,,,,,,,,,,0,wg-a,,,,AAXX 30004 07761 32670 70508 10080 20060 30181 40192 50000 700// 8357/ 90000=
07761,1998-12-30 03:00:00,9,1018.6,-0.6,76,5,15000,11.112,,,40,,,,,,,,,,0,wg-a,,,,AAXX 30034 07761 32665 80406 10090 20050 30175 40186 58006 700// 8357/ 90300=
07761,1998-12-30 06:00:00,7,1019.3,0.7,87,5,15000,7.408,,,60,7.1,9.9,,,,,,,,0,wg-a,,,,AAXX 30064 07761 12665 80604 10070 20050 30182 40193 53007 60004 700// 8357/ 90600 333 10099 20071=
07761,1998-12-30 09:00:00,11,1019.9,0.6,66,5,500,7.408,,,30,,,,,,,,,,0,wg-a,,,,AAXX 30094 07761 32700 /0304 10110 20050 30188 40199 53006 700// 81530 90900=
07761,1998-12-30 12:00:00,15,1018.5,-1.4,51,5,25000,7.408,,,290,,,,,,,,,,0,wg-a,,,,AAXX 30124 07761 32675 22904 10150 20050 30174 40185 58014 700// 81230 91200=
07761,1998-12-30 15:00:00,15,1018.6,0.1,55,6,25000,7.408,,,260,,,,,,,,,,0,wg-a,,,,AAXX 30154 07761 32675 52604 10150 20060 30175 40186 53001 700// 82830 91500=
07761,1998-12-30 18:00:00,11,1018.9,0.3,76,7,20000,11.112,,,40,6.9,16.1,,,,,,,,0,wg-a,,,,AAXX 30184 07761 32770 60406 10110 20070 30178 40189 53003 700// 82570 91800 333 10161 20069=
07761,1998-12-30 21:00:00,8,1019,0.1,81,5,20000,14.816,,,40,,,,,,,,,,0,wg-a,,,,AAXX 30214 07761 32670 /0408 10080 20050 30179 40190 53001 700// 86530 92100=
07761,1998-12-31 00:00:00,7,1018.7,-0.3,81,4,15000,14.816,,,50,,,,,,,,,,1,wg-a,,,,AAXX 31004 07761 02665 20508 10070 20040 30176 40187 58003 61000 70161 81530 90000 333 ////=
07761,1998-12-31 03:00:00,6,1018.1,-0.6,81,3,15000,14.816,,,50,,,,,,,,,,0,wg-a,,,,AAXX 31034 07761 32865 70508 10060 20030 30170 40181 58006 700// 83046 90300=
07761,1998-12-31 06:00:00,7,1017.3,-0.8,76,3,15000,11.112,,,50,5.3,10.6,,,,,,,,0,wg-a,,,,AAXX 31064 07761 02665 70506 10070 20030 30162 40173 55008 61000 700// 81242 90600 333 10106 20053 ////=
07761,1998-12-31 12:00:00,14,1015.7,-1.6,67,8,20000,0,,,0,,,,,,,,,,0,wg-a,,,,AAXX 31124 07761 32770 80000 10140 20080 30146 40157 58016 700// 8252/ 91200=
07761,1998-12-31 18:00:00,15,1013.5,-0.7,51,5,15000,31.484,,,110,7.3,15.7,,,,,,,,0,wg-a,,,,AAXX 31184 07761 32765 81117 10150 20050 30124 40135 56007 700// 8357/ 91800 333 10157 20073=
07761,1998-12-31 21:00:00,15,1014.1,0.6,55,6,15000,22.224,,,100,,,,,,,,,,0,wg-a,,,,AAXX 31214 07761 32765 81012 10150 20060 30130 40141 53006 700// 8357/ 92100=
