station_id,dh_utc,temperature,pression,pression_variation_3h,humidite,point_de_rosee,visibilite,vent_moyen,vent_rafales,vent_rafales_10min,vent_direction,temperature_min,temperature_max,pluie_1h,pluie_3h,pluie_6h,pluie_12h,pluie_24h,ensoleillement,temperature_sol,temps_omm,source,radiations,neige_au_sol,nebulosite,raw_msg
07168,1996-01-01 00:00:00,6,1000.3,1.5,100,6,0,11.112,,,320,,,,,,,,,,,wg-a,,,,AAXX 01004 07168 12/// /3206 10060 20060 39861 40003 51015 60006 90000=
07168,1996-01-01 06:00:00,6,1001,-0.3,100,6,2000,7.408,,,220,5.7,7.6,,,,,,,,10,wg-a,,,,AAXX 01064 07168 02220 82204 10060 20060 39867 40010 56003 60006 71022 886// 90600 333 10076 20057 60004=
07168,1996-01-01 09:00:00,6,1001.2,0.2,100,6,500,7.408,,,180,,,,,,,,,,42,wg-a,,,,AAXX 01094 07168 12105 81804 10060 20060 39869 40012 53002 60006 74242 886// 90900=
07168,1996-01-01 12:00:00,8,999.6,-1.5,93,7,500,7.408,,,100,,,,,,,,,,1,wg-a,,,,AAXX 01124 07168 12200 71004 10080 20070 39854 49996 58015 60006 70142 876// 91200=
07168,1996-01-01 15:00:00,8,999.3,-0.3,93,7,8000,11.112,,,80,,,,,,,,,,,wg-a,,,,AAXX 01154 07168 12258 80806 10080 20070 39851 49993 55003 60006 886// 91500=
07168,1996-01-01 18:00:00,7,999.7,0.4,93,6,0,11.112,,,100,5.8,8.2,,,,,,,,,wg-a,,,,AAXX 01184 07168 12/// /1006 10070 20060 39855 49997 53004 60006 91800 333 10082 20058=
07168,1996-01-02 00:00:00,5,1000.6,0.6,93,4,0,7.408,,,80,,,,,,,,,,,wg-a,,,,AAXX 02004 07168 12/// /0804 10050 20040 39863 40006 53006 60006 90000=
07168,1996-01-02 06:00:00,3,1002.6,1.2,93,2,10000,14.816,,,60,2.7,7.3,,,,,,,,,wg-a,,,,AAXX 02064 07168 02460 80608 10030 20020 39881 40026 53012 60006 885// 90600 333 10073 20027 60004=
07168,1996-01-02 09:00:00,3,1006.1,3.5,93,2,3000,7.408,,,20,,,,1,,,,,,10,wg-a,,,,AAXX 02094 07168 12230 80204 10030 20020 39916 40061 53035 60017 71062 887// 90900=
07168,1996-01-02 12:00:00,3,1009.7,3.5,93,2,3500,14.816,,,350,,,,0,,,,,,2,wg-a,,,,AAXX 02124 07168 02235 83508 10030 20020 39951 40097 51035 60016 70262 887// 91200 333 60007=
07168,1996-01-02 15:00:00,3,1013.5,3.8,93,2,2500,18.52,,,340,,,,,,,,,,,wg-a,,,,AAXX 02154 07168 32225 83410 10030 20020 39989 40135 53038 887// 91500=
07168,1996-01-02 18:00:00,3,1017,3.4,93,2,0,7.408,,,330,2.6,3.2,,,,,,,,,wg-a,,,,AAXX 02184 07168 32/// /3304 10030 20020 30023 40170 52034 91800 333 10032 20026=
07168,1996-01-03 00:00:00,2,1020.8,1.6,100,2,0,3.704,,,10,,,,,,,,,,,wg-a,,,,AAXX 03004 07168 12/// /0102 10020 20020 30060 40208 52016 60006 90000=
07168,1996-01-03 06:00:00,2,1022.3,0.4,100,2,2000,7.408,,,100,2.1,2.9,,,,,1,,,10,wg-a,,,,AAXX 03064 07168 02220 81004 10020 20020 30075 40223 53004 60006 71022 887// 90600 333 10029 20021 60014=
07168,1996-01-03 09:00:00,2,1023.3,1,93,1,2000,7.408,,,80,,,,,,,,,,10,wg-a,,,,AAXX 03094 07168 12220 80804 10020 20010 30085 40233 53010 60006 71022 887// 90900=
07168,1996-01-03 12:00:00,2,1023.3,0,93,1,3500,3.704,,,100,,,,,,,,,,,wg-a,,,,AAXX 03124 07168 12135 81002 10020 20010 30085 40233 50000 60006 887// 91200=
07168,1996-01-03 15:00:00,2,1022.8,-0.5,93,1,2500,7.408,,,90,,,,,,,,,,10,wg-a,,,,AAXX 03154 07168 12225 80904 10020 20010 30080 40228 58005 60006 71022 887// 91500=
07168,1996-01-03 18:00:00,1,1024.1,1.2,100,1,0,3.704,,,20,1.2,2.2,,,,,,,,,wg-a,,,,AAXX 03184 07168 12/// /0202 10010 20010 30092 40241 53012 60006 91800 333 10022 20012=
07168,1996-01-04 00:00:00,1,1022.6,-1,93,0,0,14.816,,,130,,,,,,,,,,,wg-a,,,,AAXX 04004 07168 12/// /1308 10010 20000 30077 40226 58010 60006 90000=
07168,1996-01-04 06:00:00,0,1018.9,-2.2,93,-1,6000,11.112,,,90,-0.1,1.5,,,,,,,,,wg-a,,,,AAXX 04064 07168 02256 80906 10000 21010 30040 40189 57022 60006 886// 90600 333 10015 21001 60004=
07168,1996-01-04 09:00:00,0,1017.7,-1.1,93,-1,3000,11.112,,,90,,,,,,,,,,10,wg-a,,,,AAXX 04094 07168 12130 70906 10000 21010 30029 40177 56011 60006 71011 81601 90900=
07168,1996-01-04 12:00:00,3,1014.6,-2.9,87,1,8000,7.408,,,120,,,,,,,,,,,wg-a,,,,AAXX 04124 07168 12458 71204 10030 20010 30000 40146 58029 60006 81102 91200=
07168,1996-01-04 15:00:00,4,1012.1,-2.5,81,1,10000,25.928,,,130,,,,,,,,,,,wg-a,,,,AAXX 04154 07168 12/60 71314 10040 20010 39975 40121 56025 60006 8707/ 91500=
07168,1996-01-05 00:00:00,1,1007.5,-2.1,86,-1,0,11.112,,,140,,,,,,,,,,,wg-a,,,,AAXX 05004 07168 12/// /1406 10010 21010 39929 40075 58021 60006 90000=
07168,1996-01-05 06:00:00,1,1004.4,-1.4,93,0,12000,7.408,,,120,-0.5,1.9,,,,,,,,,wg-a,,,,AAXX 05064 07168 02/62 71204 10010 20000 39898 40044 56014 60006 87030 90600 333 10019 21005 60004=
07168,1996-01-05 09:00:00,2,1002.8,-1.5,87,0,10000,14.816,,,170,,,,,,,,,,,wg-a,,,,AAXX 05094 07168 12/60 31708 10020 20000 39883 40028 55015 60006 81031 90900=
07168,1996-01-05 12:00:00,6,999.9,-2.7,75,2,12000,18.52,,,110,,,,,,,,,,,wg-a,,,,AAXX 05124 07168 12/62 71110 10060 20020 39856 49999 58027 60006 82032 91200=
07168,1996-01-05 15:00:00,7,999.2,-0.6,87,5,12000,3.704,,,210,,,,,,,,,,,wg-a,,,,AAXX 05154 07168 12662 82102 10070 20050 39850 49992 56006 60006 8557/ 91500=
07168,1996-01-05 18:00:00,6,998.7,-0.5,93,5,0,7.408,,,180,0.6,7.7,,,,,,,,,wg-a,,,,AAXX 05184 07168 12/// /1804 10060 20050 39845 49987 56005 60006 91800 333 10077 20006=
07168,1996-01-06 00:00:00,6,999,-0,100,6,0,11.112,,,200,,,,,,,,,,,wg-a,,,,AAXX 06004 07168 12/// /2006 10060 20060 39848 49990 54000 60016 90000=
07168,1996-01-06 06:00:00,6,998.7,-0.1,100,6,500,3.704,,,150,6,7.1,,,,,1,,,21,wg-a,,,,AAXX 06064 07168 02300 81502 10060 20060 39845 49987 58001 60014 72162 875// 90600 333 10071 20060 61000=
07168,1996-01-06 09:00:00,7,998.8,0.1,93,6,8000,7.408,,,160,,,,,,,,,,,wg-a,,,,AAXX 06094 07168 12358 81604 10070 20060 39846 49988 50001 60006 876// 90900=
07168,1996-01-06 12:00:00,8,997.5,-1.2,87,6,10000,14.816,,,160,,,,,,,,,,,wg-a,,,,AAXX 06124 07168 12460 71608 10080 20060 39834 49975 58012 60006 8413/ 91200=
07168,1996-01-06 15:00:00,9,995,-2.5,81,6,15000,18.52,,,130,,,,,,,,,,,wg-a,,,,AAXX 06154 07168 12565 71310 10090 20060 39809 49950 56025 60006 8413/ 91500=
07168,1996-01-06 18:00:00,7,992.4,-2.6,87,5,0,22.224,,,140,6.3,9.3,,,,,,,,,wg-a,,,,AAXX 06184 07168 12/// /1412 10070 20050 39783 49924 56026 60006 91800 333 10093 20063=
07168,1996-01-07 00:00:00,8,990.9,0.1,93,7,0,25.928,,,180,,,,,,,,,,,wg-a,,,,AAXX 07004 07168 12/// /1814 10080 20070 39769 49909 53001 60046 90000=
07168,1996-01-07 06:00:00,8,994.2,1.6,93,7,7000,22.224,,,190,6.4,9,,1,,,7,,,60,wg-a,,,,AAXX 07064 07168 02357 81912 10080 20070 39801 49942 51016 60074 76062 875// 90600 333 10090 20064 60017=
07168,1996-01-07 09:00:00,8,997,2.8,93,7,20000,18.52,,,190,,,,0,,,,,,3,wg-a,,,,AAXX 07094 07168 12470 71910 10080 20070 39829 49970 53028 60007 70362 8553/ 90900=
07168,1996-01-07 12:00:00,11,999.6,2.7,82,8,25000,18.52,,,210,,,,,,,,,,2,wg-a,,,,AAXX 07124 07168 12475 72110 10110 20080 39856 49996 51027 60006 70262 8453/ 91200=
07168,1996-01-07 15:00:00,11,1001.6,2,76,7,25000,18.52,,,220,,,,,,,,,,,wg-a,,,,AAXX 07154 07168 12575 72210 10110 20070 39876 40016 53020 60006 83232 91500=
07168,1996-01-07 18:00:00,5,1004.6,2.6,100,5,0,18.52,,,180,4.5,11.9,,,,,,,,,wg-a,,,,AAXX 07184 07168 32/// /1810 10050 20050 39902 40046 51026 91800 333 10119 20045=
07168,1996-01-08 00:00:00,7,1009.1,2.2,93,6,0,18.52,,,190,,,,,,,,,,,wg-a,,,,AAXX 08004 07168 12/// /1910 10070 20060 39948 40091 53022 60006 90000=
07168,1996-01-08 06:00:00,7,1012,1.3,93,6,15000,14.816,,,160,3.5,7.9,,,,,,,,,wg-a,,,,AAXX 08064 07168 12565 51608 10070 20060 39976 40120 53013 60004 84501 90600 333 10079 20035=
07168,1996-01-08 09:00:00,7,1012.7,0.7,87,5,500,14.816,,,170,,,,,,,,,,,wg-a,,,,AAXX 08094 07168 12800 31708 10070 20050 39983 40127 52007 60006 81031 90900=
07168,1996-01-08 12:00:00,11,1011.5,-1,76,7,500,18.52,,,160,,,,,,,,,,,wg-a,,,,AAXX 08124 07168 12400 31610 10110 20070 39973 40115 58010 60006 81101 91200=
07168,1996-01-08 15:00:00,11,1009.7,-1.8,71,6,500,18.52,,,140,,,,,,,,,,,wg-a,,,,AAXX 08154 07168 12/00 51410 10110 20060 39955 40097 58018 60006 80001 91500=
07168,1996-01-08 18:00:00,9,1008.2,-1.5,76,5,0,18.52,,,140,4.5,12,,,,,,,,,wg-a,,,,AAXX 08184 07168 12/// /1410 10090 20050 39940 40082 56015 60006 91800 333 10120 20045=
07168,1996-01-09 00:00:00,8,1003.2,-3.1,81,5,0,25.928,,,150,,,,,,,,,,,wg-a,,,,AAXX 09004 07168 12/// /1514 10080 20050 39890 40032 58031 60006 90000=
07168,1996-01-09 06:00:00,9,1002,0.2,71,4,10000,18.52,,,140,6.2,8.9,,,,,,,,,wg-a,,,,AAXX 09064 07168 02760 71410 10090 20040 39878 40020 53002 60006 8757/ 90600 333 10089 20062 60004=
07168,1996-01-09 09:00:00,10,1003,1.1,66,4,20000,14.816,,,170,,,,,,,,,,,wg-a,,,,AAXX 09094 07168 12770 81708 10100 20040 39889 40030 53011 60006 8357/ 90900=
07168,1996-01-09 12:00:00,10,1003.8,0.8,87,8,15000,11.112,,,160,,,,,,,,,,61,wg-a,,,,AAXX 09124 07168 02665 81606 10100 20080 39897 40038 50008 61000 76162 8357/ 91200 333 6100=
07168,1996-01-09 15:00:00,11,1004.8,1,87,9,15000,18.52,,,180,,,,,,,,,,60,wg-a,,,,AAXX 09154 07168 02665 81810 10110 20090 39907 40048 53010 61000 76062 8557/ 91500 333 ////=
07168,1996-01-09 18:00:00,10,1006.2,1.4,93,9,0,11.112,,,160,8.5,11,,,,,,,,,wg-a,,,,AAXX 09184 07168 32/// /1606 10100 20090 39921 40062 51014 91800 333 10110 20085=
07168,1996-01-10 00:00:00,9,1006.8,-0.1,87,7,0,11.112,,,160,,,,,,,,,,,wg-a,,,,AAXX 10004 07168 12/// /1606 10090 20070 39926 40068 58001 60006 90000=
07168,1996-01-10 06:00:00,7,1006.7,0.2,100,7,7000,7.408,,,190,7.1,10.2,,0,,,3,,,61,wg-a,,,,AAXX 10064 07168 02757 81904 10070 20070 39924 40067 52002 60034 76162 885// 90600 333 10102 20071 60007=
07168,1996-01-10 09:00:00,8,1007.7,1,93,7,10000,7.408,,,90,,,,1,,,,,,61,wg-a,,,,AAXX 10094 07168 12760 80904 10080 20070 39934 40077 50010 60017 76166 8257/ 90900=
07168,1996-01-10 12:00:00,9,1007.5,-0.1,93,8,6000,7.408,,,120,,,,0,,,,,,61,wg-a,,,,AAXX 10124 07168 02356 81204 10090 20080 39933 40075 56001 60016 76166 885// 91200 333 60007=
07168,1996-01-10 15:00:00,9,1005.8,-1.7,93,8,10000,7.408,,,320,,,,1,,,,,,61,wg-a,,,,AAXX 10154 07168 12160 73204 10090 20080 39916 40058 55017 60017 76162 875// 91500=
07168,1996-01-10 18:00:00,8,1006.2,0.4,93,7,0,7.408,,,30,7.2,9.1,,,,,,,,,wg-a,,,,AAXX 10184 07168 32/// /0304 10080 20070 39920 40062 51004 91800 333 10091 20072=
07168,1996-01-11 00:00:00,7,1005.7,-0.6,93,6,0,7.408,,,160,,,,,,,,,,,wg-a,,,,AAXX 11004 07168 12/// /1604 10070 20060 39914 40057 58006 60076 90000=
07168,1996-01-11 06:00:00,8,1005.8,-0.1,87,6,8000,22.224,,,190,7,9,,,,,11,,,,wg-a,,,,AAXX 11064 07168 02458 81912 10080 20060 39916 40058 58001 60114 875// 90600 333 10090 20070 61000=
07168,1996-01-11 09:00:00,7,1004.7,-1.2,87,5,18000,14.816,,,140,,,,,,,,,,,wg-a,,,,AAXX 11094 07168 12468 71408 10070 20050 39904 40047 58012 60006 83552 90900=
07168,1996-01-11 12:00:00,9,1001.8,-2.7,81,6,25000,18.52,,,170,,,,,,,,,,,wg-a,,,,AAXX 11124 07168 12/75 81710 10090 20060 39877 40018 58027 60006 8707/ 91200=
07168,1996-01-11 15:00:00,10,999.8,-1.9,76,6,20000,14.816,,,150,,,,,,,,,,,wg-a,,,,AAXX 11154 07168 12770 81508 10100 20060 39858 49998 56019 60006 8557/ 91500=
07168,1996-01-11 18:00:00,9,999.9,0,87,7,0,18.52,,,190,6.5,10.7,,,,,,,,,wg-a,,,,AAXX 11184 07168 32/// /1910 10090 20070 39858 49999 50000 91800 333 10107 20065=
07168,1996-01-12 00:00:00,9,1000.2,0.3,81,6,0,14.816,,,200,,,,,,,,,,,wg-a,,,,AAXX 12004 07168 12/// /2008 10090 20060 39861 40002 52003 60006 90000=
07168,1996-01-12 06:00:00,7,1001.2,0.5,87,5,8000,7.408,,,190,6.3,9.8,,,,,1,,,,wg-a,,,,AAXX 12064 07168 12/58 81904 10070 20050 39869 40012 52005 60014 8702/ 90600 333 10098 20063=
07168,1996-01-12 09:00:00,9,1002,1,81,6,25000,11.112,,,150,,,,,,,,,,,wg-a,,,,AAXX 12094 07168 12775 71506 10090 20060 39879 40020 51010 60006 8553/ 90900=
07168,1996-01-12 12:00:00,11,1002.5,0.5,82,8,20000,14.816,,,170,,,,,,,,,,,wg-a,,,,AAXX 12124 07168 12770 81708 10110 20080 39884 40025 50005 60006 8557/ 91200=
07168,1996-01-12 15:00:00,9,1004.2,1.7,93,8,20000,11.112,,,170,,,,1,,,,,,21,wg-a,,,,AAXX 12154 07168 12470 81706 10090 20080 39901 40042 53017 60017 72162 8557/ 91500=
07168,1996-01-12 18:00:00,8,1006.8,2.5,100,8,0,11.112,,,160,6.3,10.6,,,,,,,,,wg-a,,,,AAXX 12184 07168 32/// /1606 10080 20080 39926 40068 53025 91800 333 10106 20063=
07168,1996-01-13 00:00:00,6,1010.9,1.7,93,5,0,14.816,,,170,,,,,,,,,,,wg-a,,,,AAXX 13004 07168 12/// /1708 10060 20050 39965 40109 51017 60006 90000=
07168,1996-01-13 06:00:00,5,1014.2,1.6,93,4,7000,14.816,,,150,3.4,8.5,,,,,1,,,,wg-a,,,,AAXX 13064 07168 12757 /1508 10050 20040 39997 40142 51016 60014 85501 90600 333 10085 20034=
07168,1996-01-13 09:00:00,6,1016.4,2.2,93,5,12000,14.816,,,160,,,,,,,,,,,wg-a,,,,AAXX 13094 07168 12/62 31608 10060 20050 30019 40164 51022 60006 80001 90900=
07168,1996-01-13 12:00:00,11,1016.8,0.6,82,8,12000,14.816,,,160,,,,,,,,,,,wg-a,,,,AAXX 13124 07168 12462 41608 10110 20080 30025 40168 50006 60006 82130 91200=
07168,1996-01-13 15:00:00,10,1016.7,-0.1,87,8,18000,7.408,,,150,,,,,,,,,,,wg-a,,,,AAXX 13154 07168 12/68 51504 10100 20080 30024 40167 55001 60006 85030 91500=
07168,1996-01-13 18:00:00,7,1017.6,0.7,93,6,0,0,,,0,4.8,11.2,,,,,,,,,wg-a,,,,AAXX 13184 07168 12/// /0000 10070 20060 30031 40176 53007 60006 91800 333 10112 20048=
07168,1996-01-14 00:00:00,5,1017.9,0,93,4,0,11.112,,,120,,,,,,,,,,,wg-a,,,,AAXX 14004 07168 12/// /1206 10050 20040 30033 40179 50000 60006 90000=
07168,1996-01-14 06:00:00,1,1018.3,0.2,100,1,7000,7.408,,,150,0.8,7.1,,,,,,,,,wg-a,,,,AAXX 14064 07168 02/57 01504 10010 20010 30035 40183 53002 60006 80000 90600 333 10071 20008 60004=
07168,1996-01-14 09:00:00,5,1019,0.9,93,4,10000,14.816,,,140,,,,,,,,,,,wg-a,,,,AAXX 14094 07168 12/60 11408 10050 20040 30044 40190 53009 60006 80001 90900=
07168,1996-01-14 12:00:00,11,1017.6,-1.1,76,7,15000,11.112,,,140,,,,,,,,,,,wg-a,,,,AAXX 14124 07168 12/65 01406 10110 20070 30033 40176 58011 60006 80000 91200=
07168,1996-01-14 18:00:00,7,1018.4,1.2,93,6,0,11.112,,,110,0.2,14.1,,,,,,,,,wg-a,,,,AAXX 14184 07168 12/// /1106 10070 20060 30040 40184 53012 60006 91800 333 10141 20002=
07168,1996-01-15 00:00:00,5,1021.2,0.9,93,4,0,14.816,,,120,,,,,,,,,,,wg-a,,,,AAXX 15004 07168 12/// /1208 10050 20040 30066 40212 51009 60006 90000=
07168,1996-01-15 06:00:00,2,1023.4,1.2,93,1,10000,7.408,,,120,0.9,8.4,,,,,,,,,wg-a,,,,AAXX 15064 07168 02/60 01204 10020 20010 30086 40234 53012 60006 80000 90600 333 10084 20009 60004=
07168,1996-01-15 09:00:00,4,1024.7,1.4,93,3,12000,7.408,,,160,,,,,,,,,,,wg-a,,,,AAXX 15094 07168 12/62 21604 10040 20030 30100 40247 53014 60006 80001 90900=
07168,1996-01-15 12:00:00,12,1024.6,0.3,71,7,20000,11.112,,,150,,,,,,,,,,,wg-a,,,,AAXX 15124 07168 12/70 21506 10120 20070 30103 40246 51003 60006 80001 91200=
07168,1996-01-15 15:00:00,14,1024.3,-0.2,67,8,25000,7.408,,,60,,,,,,,,,,,wg-a,,,,AAXX 15154 07168 12/75 20604 10140 20080 30101 40243 56002 60006 80001 91500=
07168,1996-01-15 18:00:00,7,1026.1,1.4,93,6,0,7.408,,,100,1.6,14.7,,,,,,,,,wg-a,,,,AAXX 15184 07168 12/// /1004 10070 20060 30115 40261 53014 60006 91800 333 10147 20016=
07168,1996-01-16 00:00:00,3,1027.9,0.7,93,2,0,11.112,,,110,,,,,,,,,,,wg-a,,,,AAXX 16004 07168 12/// /1106 10030 20020 30131 40279 51007 60006 90000=
07168,1996-01-16 06:00:00,0,1029,0.4,93,-1,6000,3.704,,,350,-0.9,7.4,,,,,,,,,wg-a,,,,AAXX 16064 07168 02/56 03502 10000 21010 30140 40290 53004 60006 80000 90600 333 10074 21009 60004=
07168,1996-01-16 09:00:00,1,1030.1,1.1,100,1,7000,0,,,0,,,,,,,,,,,wg-a,,,,AAXX 16094 07168 12/57 /0000 10010 20010 30151 40301 52011 60006 80001 90900=
07168,1996-01-16 12:00:00,7,1029.7,-0.1,76,3,6000,7.408,,,10,,,,,,,,,,,wg-a,,,,AAXX 16124 07168 12/56 40104 10070 20030 30150 40297 57001 60006 80001 91200=
07168,1996-01-16 15:00:00,7,1029.1,-0.5,87,5,8000,7.408,,,60,,,,,,,,,,,wg-a,,,,AAXX 16154 07168 12/58 40604 10070 20050 30145 40291 55005 60006 80001 91500=
07168,1996-01-16 18:00:00,4,1029.4,0.1,87,2,0,3.704,,,130,-1,8.1,,,,,,,,,wg-a,,,,AAXX 16184 07168 12/// /1302 10040 20020 30146 40294 52001 60006 91800 333 10081 21010=
07168,1996-01-17 00:00:00,0,1029.9,-0.1,100,0,0,11.112,,,90,,,,,,,,,,,wg-a,,,,AAXX 17004 07168 12/// /0906 10000 20000 30149 40299 58001 60006 90000=
07168,1996-01-17 06:00:00,1,1028.9,-0.3,100,1,900,14.816,,,100,-0.2,3.7,,,,,,,,42,wg-a,,,,AAXX 17064 07168 02109 81008 10010 20010 30140 40289 55003 60006 74242 886// 90600 333 10037 21002 60004=
07168,1996-01-17 09:00:00,1,1029.5,0.5,100,1,1000,11.112,,,140,,,,,,,,,,10,wg-a,,,,AAXX 17094 07168 12210 81406 10010 20010 30145 40295 53005 60006 71042 886// 90900=
07168,1996-01-17 12:00:00,1,1028.4,-1,100,1,3000,11.112,,,120,,,,,,,,,,10,wg-a,,,,AAXX 17124 07168 12230 81206 10010 20010 30135 40284 58010 60006 71042 886// 91200=
07168,1996-01-17 15:00:00,2,1026.9,-1.5,93,1,500,7.408,,,110,,,,,,,,,,,wg-a,,,,AAXX 17154 07168 12200 81104 10020 20010 30120 40269 56015 60006 886// 91500=
07168,1996-01-17 18:00:00,3,1026.3,-0.5,93,2,0,11.112,,,100,0.6,3,,,,,,,,,wg-a,,,,AAXX 17184 07168 12/// /1006 10030 20020 30115 40263 58005 60006 91800 333 10030 20006=
07168,1996-01-18 00:00:00,2,1025.3,-0.5,93,1,0,14.816,,,150,,,,,,,,,,,wg-a,,,,AAXX 18004 07168 12/// /1508 10020 20010 30104 40253 58005 60006 90000=
07168,1996-01-18 06:00:00,-1,1024.1,-0.7,93,-2,500,11.112,,,110,-0.9,3,,,,,,,,,wg-a,,,,AAXX 18064 07168 02200 31106 11010 21020 30091 40241 56007 60006 83600 90600 333 10030 21009 60004=
07168,1996-01-18 09:00:00,-1,1024.2,0.1,93,-2,2000,3.704,,,200,,,,,,,,,,10,wg-a,,,,AAXX 18094 07168 12/20 /2002 11010 21020 30092 40242 51001 60006 71000 80001 90900=
07168,1996-01-18 12:00:00,5,1022.8,-1.1,70,0,7000,11.112,,,160,,,,,,,,,,,wg-a,,,,AAXX 18124 07168 12/57 01606 10050 20000 30081 40228 58011 60006 80000 91200=
07168,1996-01-18 15:00:00,8,1021.4,-1.2,61,1,8000,3.704,,,190,,,,,,,,,,,wg-a,,,,AAXX 18154 07168 12/58 01902 10080 20010 30069 40214 56012 60006 80000 91500=
07168,1996-01-18 18:00:00,1,1021.7,-0,86,-1,0,0,,,0,-2.9,8.2,,,,,,,,,wg-a,,,,AAXX 18184 07168 12/// /0000 10010 21010 30069 40217 54000 60006 91800 333 10082 21029=
07168,1996-01-19 00:00:00,-3,1021.6,-0.3,100,-3,0,0,,,0,,,,,,,,,,,wg-a,,,,AAXX 19004 07168 12/// /0000 11030 21030 30066 40216 58003 60006 90000=
07168,1996-01-19 09:00:00,-2,1019.2,-0.2,93,-3,4000,3.704,,,90,,,,,,,,,,,wg-a,,,,AAXX 19094 07168 12740 20902 11020 21030 30042 40192 58002 60006 82500 90900=
07168,1996-01-19 12:00:00,3,1017.4,-1.5,75,-1,500,7.408,,,100,,,,,,,,,,,wg-a,,,,AAXX 19124 07168 12700 21004 10030 21010 30027 40174 58015 60006 82500 91200=
07168,1996-01-19 18:00:00,0,1014.4,-1,93,-1,0,0,,,0,-4.2,4.7,,,,,,,,,wg-a,,,,AAXX 19184 07168 12/// /0000 10000 21010 39996 40144 56010 60006 91800 333 10047 21042=
07168,1996-01-20 00:00:00,-3,1012.8,-1.2,100,-3,0,11.112,,,100,,,,,,,,,,,wg-a,,,,AAXX 20004 07168 12/// /1006 11030 21030 39979 40128 58012 60006 90000=
07168,1996-01-20 06:00:00,-1,1011.1,-0.8,86,-3,6000,18.52,,,120,-3.7,0.3,,,,,,,,,wg-a,,,,AAXX 20064 07168 02356 81210 11010 21030 39963 40111 56008 60006 886// 90600 333 10003 21037 60004=
07168,1996-01-20 09:00:00,-1,1011.6,0.5,93,-2,4000,14.816,,,130,,,,,,,,,,10,wg-a,,,,AAXX 20094 07168 12340 81308 11010 21020 39968 40116 51005 60006 71022 886// 90900=
07168,1996-01-20 12:00:00,2,1010.5,-0.9,87,0,6000,11.112,,,110,,,,,,,,,,,wg-a,,,,AAXX 20124 07168 12456 /1106 10020 20000 39959 40105 58009 60006 86600 91200=
07168,1996-01-20 15:00:00,3,1009.7,-0.8,81,0,8000,18.52,,,120,,,,,,,,,,,wg-a,,,,AAXX 20154 07168 12/58 01210 10030 20000 39951 40097 55008 60006 80000 91500=
07168,1996-01-20 18:00:00,0,1010.8,1,93,-1,0,11.112,,,100,-1.4,4.2,,,,,,,,,wg-a,,,,AAXX 20184 07168 12/// /1006 10000 21010 39961 40108 53010 60006 91800 333 10042 21014=
07168,1996-01-21 00:00:00,-1,1012.3,0.4,86,-3,0,7.408,,,90,,,,,,,,,,,wg-a,,,,AAXX 21004 07168 12/// /0904 11010 21030 39975 40123 52004 60006 90000=
07168,1996-01-21 06:00:00,1,1012.1,-0.1,86,-1,6000,11.112,,,90,-1.5,0.9,,,,,,,,,wg-a,,,,AAXX 21064 07168 02756 70906 10010 21010 39974 40121 57001 60006 875// 90600 333 10009 21015 60004=
07168,1996-01-21 09:00:00,2,1013.3,1.2,80,-1,6000,11.112,,,110,,,,,,,,,,,wg-a,,,,AAXX 21094 07168 12/56 21106 10020 21010 39986 40133 52012 60006 80001 90900=
07168,1996-01-21 12:00:00,8,1012.7,-0.3,66,2,8000,14.816,,,110,,,,,,,,,,,wg-a,,,,AAXX 21124 07168 12/58 21108 10080 20020 39983 40127 58003 60006 81031 91200=
07168,1996-01-21 15:00:00,10,1011.3,-1.2,57,2,15000,18.52,,,120,,,,,,,,,,,wg-a,,,,AAXX 21154 07168 12/65 11210 10100 20020 39971 40113 56012 60006 81031 91500=
07168,1996-01-21 18:00:00,5,1012.4,0.8,65,-1,0,11.112,,,120,-0.1,10,,,,,,,,,wg-a,,,,AAXX 21184 07168 12/// /1206 10050 21010 39979 40124 53008 60006 91800 333 10100 21001=
07168,1996-01-22 00:00:00,1,1013,0,80,-2,0,11.112,,,130,,,,,,,,,,,wg-a,,,,AAXX 22004 07168 12/// /1306 10010 21020 39983 40130 50000 60006 90000=
07168,1996-01-22 06:00:00,-1,1011.8,-0.9,86,-3,8000,3.704,,,110,-0.9,4.8,,,,,,,,,wg-a,,,,AAXX 22064 07168 02/58 71102 11010 21030 39970 40118 58009 60006 80002 90600 333 10048 21009 60004=
07168,1996-01-22 09:00:00,2,1012.4,0.7,75,-2,500,11.112,,,110,,,,,,,,,,,wg-a,,,,AAXX 22094 07168 12/00 81106 10020 21020 39977 40124 53007 60006 8707/ 90900=
07168,1996-01-22 12:00:00,4,1010.6,-1.6,70,-1,7000,11.112,,,100,,,,,,,,,,,wg-a,,,,AAXX 22124 07168 12757 81006 10040 21010 39961 40106 58016 60006 875// 91200=
07168,1996-01-22 15:00:00,5,1009.6,-1,65,-1,6000,11.112,,,120,,,,,,,,,,,wg-a,,,,AAXX 22154 07168 12756 81206 10050 21010 39951 40096 57010 60006 875// 91500=
07168,1996-01-22 18:00:00,3,1010.6,0.9,87,1,0,7.408,,,130,-1,4.8,,,,,,,,,wg-a,,,,AAXX 22184 07168 32/// /1304 10030 20010 39960 40106 51009 91800 333 10048 21010=
07168,1996-01-23 00:00:00,3,1008.7,-0.9,93,2,0,11.112,,,110,,,,,,,,,,,wg-a,,,,AAXX 23004 07168 12/// /1106 10030 20020 39941 40087 56009 60036 90000=
07168,1996-01-23 06:00:00,2,1006.2,-1.7,87,0,500,11.112,,,90,1.5,3.4,,1,,,6,,,21,wg-a,,,,AAXX 23064 07168 02300 80906 10020 20000 39916 40062 56017 60064 72162 8577/ 90600 333 10034 20015 60017=
07168,1996-01-23 09:00:00,3,1005.9,-0.2,87,1,500,3.704,,,120,,,,,,,,,,,wg-a,,,,AAXX 23094 07168 12300 81202 10030 20010 39914 40059 55002 60006 8267/ 90900=
07168,1996-01-23 12:00:00,4,1004.7,-1.1,87,2,4000,14.816,,,90,,,,1,,,,,,61,wg-a,,,,AAXX 23124 07168 02340 80908 10040 20020 39903 40047 58011 60016 76162 8677/ 91200 333 60017=
07168,1996-01-23 15:00:00,4,1003.7,-1,93,3,3000,14.816,,,120,,,,5,,,,,,61,wg-a,,,,AAXX 23154 07168 12330 81208 10040 20030 39893 40037 56010 60057 76166 8677/ 91500=
07168,1996-01-23 18:00:00,4,1004.1,0.4,87,2,0,18.52,,,90,1.7,5.6,,,,,,,,,wg-a,,,,AAXX 23184 07168 32/// /0910 10040 20020 39897 40041 51004 91800 333 10056 20017=
07168,1996-01-24 00:00:00,2,1004.7,0.2,93,1,0,14.816,,,100,,,,,,,,,,,wg-a,,,,AAXX 24004 07168 02/// /1008 10020 20010 39902 40047 52002 61000 90000 333 ////=
07168,1996-01-24 06:00:00,0,1005.2,0.7,93,-1,500,7.408,,,120,0.2,3.8,,,,,8,,,,wg-a,,,,AAXX 24064 07168 02/00 21204 10000 21010 39906 40052 53007 60006 80001 90600 333 10038 20002 60084=
07168,1996-01-24 09:00:00,2,1005.9,0.7,87,0,4500,11.112,,,110,,,,,,,,,,,wg-a,,,,AAXX 24094 07168 12/45 71106 10020 20000 39913 40059 51007 60006 83072 90900=
07168,1996-01-24 12:00:00,5,1005.5,-0.2,87,3,4500,14.816,,,80,,,,,,,,,,,wg-a,,,,AAXX 24124 07168 12/45 70808 10050 20030 39911 40055 58002 60006 83072 91200=
07168,1996-01-24 15:00:00,5,1005.1,-0.4,87,3,500,18.52,,,60,,,,,,,,,,,wg-a,,,,AAXX 24154 07168 12/00 70610 10050 20030 39907 40051 56004 60006 83072 91500=
07168,1996-01-24 18:00:00,1,1006.2,0.9,93,0,0,11.112,,,70,0.3,6.6,,,,,,,,,wg-a,,,,AAXX 24184 07168 12/// /0706 10010 20000 39916 40062 51009 60006 91800 333 10066 20003=
07168,1996-01-25 00:00:00,0,1006,-0.5,93,-1,0,14.816,,,70,,,,,,,,,,,wg-a,,,,AAXX 25004 07168 12/// /0708 10000 21010 39913 40060 58005 60006 90000=
07168,1996-01-25 06:00:00,0,1005.5,-0.1,86,-2,500,14.816,,,60,-0.3,1.4,,,,,,,,,wg-a,,,,AAXX 25064 07168 02400 80608 10000 21020 39908 40055 55001 60006 875// 90600 333 10014 21003 60004=
07168,1996-01-25 09:00:00,0,1006.2,0.7,86,-2,3000,11.112,,,70,,,,,,,,,,10,wg-a,,,,AAXX 25094 07168 12430 80706 10000 21020 39915 40062 50007 60006 71022 875// 90900=
07168,1996-01-25 12:00:00,0,1006.1,-0.1,86,-2,3000,18.52,,,70,,,,,,,,,,10,wg-a,,,,AAXX 25124 07168 12430 80710 10000 21020 39914 40061 58001 60006 71022 875// 91200=
07168,1996-01-25 18:00:00,0,1006.8,1,86,-2,0,18.52,,,60,-0.3,0.8,,,,,,,,,wg-a,,,,AAXX 25184 07168 12/// /0610 10000 21020 39921 40068 53010 60006 91800 333 10008 21003=
07168,1996-01-26 00:00:00,-1,1007.9,-0,86,-3,0,18.52,,,60,,,,,,,,,,,wg-a,,,,AAXX 26004 07168 12/// /0610 11010 21030 39931 40079 55000 60006 90000=
07168,1996-01-26 06:00:00,-1,1007.9,0.3,86,-3,3500,7.408,,,20,-1.5,-0.1,,,,,,,,,wg-a,,,,AAXX 26064 07168 02435 80204 11010 21030 39931 40079 53003 60006 875// 90600 333 11001 21015 60004=
07168,1996-01-26 09:00:00,-2,1008.8,0.9,93,-3,2000,11.112,,,350,,,,,,,,,,10,wg-a,,,,AAXX 26094 07168 12320 83506 11020 21030 39940 40088 52009 60006 71022 877// 90900=
07168,1996-01-26 12:00:00,-2,1009.4,0.6,93,-3,1500,11.112,,,360,,,,,,,,,,10,wg-a,,,,AAXX 26124 07168 02215 83606 11020 21030 39946 40094 50006 61000 71072 887// 91200 333 6100=
07168,1996-01-26 15:00:00,-3,1009.9,0.4,93,-4,3000,14.816,,,340,,,,,,,,,,10,wg-a,,,,AAXX 26154 07168 02330 83408 11030 21040 39950 40099 53004 61000 71072 887// 91500 333 ////=
07168,1996-01-26 18:00:00,-3,1011.1,1.2,86,-5,0,7.408,,,360,-3,-1.3,,,,,,,,,wg-a,,,,AAXX 26184 07168 32/// /3604 11030 21050 39962 40111 51012 91800 333 11013 21030=
07168,1996-01-27 00:00:00,-3,1012.5,0.4,86,-5,0,7.408,,,20,,,,,,,,,,,wg-a,,,,AAXX 27004 07168 12/// /0204 11030 21050 39975 40125 51004 60006 90000=
07168,1996-01-27 06:00:00,-2,1012.7,0.3,93,-3,500,3.704,,,80,-3.2,-2,,,,,,,,,wg-a,,,,AAXX 27064 07168 02300 70802 11020 21030 39978 40127 53003 60006 876// 90600 333 11020 21032 61000=
07168,1996-01-27 09:00:00,-1,1014.2,1.6,93,-2,3000,3.704,,,60,,,,,,,,,,10,wg-a,,,,AAXX 27094 07168 12330 80602 11010 21020 39994 40142 53016 60006 71022 8563/ 90900=
07168,1996-01-27 12:00:00,3,1014,0,87,1,3000,3.704,,,50,,,,,,,,,,10,wg-a,,,,AAXX 27124 07168 12/30 40502 10030 20010 39994 40140 50000 60006 71011 81031 91200=
07168,1996-01-27 15:00:00,6,1013.9,-0,87,4,500,7.408,,,40,,,,,,,,,,,wg-a,,,,AAXX 27154 07168 12/00 /0404 10060 20040 39994 40139 55000 60006 80001 91500=
07168,1996-01-27 18:00:00,1,1015.7,1.5,93,0,0,3.704,,,340,-2,6,,,,,,,,,wg-a,,,,AAXX 27184 07168 12/// /3402 10010 20000 30009 40157 51015 60006 91800 333 10060 21020=
07168,1996-01-28 00:00:00,0,1016.9,0.1,100,0,0,7.408,,,70,,,,,,,,,,,wg-a,,,,AAXX 28004 07168 12/// /0704 10000 20000 30021 40169 50001 60006 90000=
07168,1996-01-28 06:00:00,0,1016.3,-0.5,93,-1,1000,14.816,,,70,-0.2,2,,,,,,,,10,wg-a,,,,AAXX 28064 07168 02210 80708 10000 21010 30015 40163 58005 60006 71022 886// 90600 333 10020 21002 60004=
07168,1996-01-28 09:00:00,0,1016.2,-0.1,86,-2,2000,14.816,,,90,,,,,,,,,,,wg-a,,,,AAXX 28094 07168 12/20 /0908 10000 21020 30014 40162 58001 60006 90900=
07168,1996-01-28 12:00:00,3,1014.7,-1.4,81,0,500,18.52,,,70,,,,,,,,,,,wg-a,,,,AAXX 28124 07168 12400 40710 10030 20000 30000 40147 58014 60006 84600 91200=
07168,1996-01-28 15:00:00,2,1013.6,-1.1,80,-1,6000,14.816,,,60,,,,,,,,,,,wg-a,,,,AAXX 28154 07168 12/56 30608 10020 21010 39989 40136 56011 60006 81031 91500=
07168,1996-01-28 18:00:00,0,1013.8,0.1,86,-2,0,18.52,,,70,-0.6,4.1,,,,,,,,,wg-a,,,,AAXX 28184 07168 12/// /0710 10000 21020 39990 40138 52001 60006 91800 333 10041 21006=
07168,1996-01-29 00:00:00,0,1013.9,-0.2,86,-2,0,14.816,,,70,,,,,,,,,,,wg-a,,,,AAXX 29004 07168 12/// /0708 10000 21020 39991 40139 58002 60006 90000=
07168,1996-01-29 06:00:00,0,1012.7,-0.4,86,-2,500,14.816,,,80,-0.3,0.4,,,,,,,,,wg-a,,,,AAXX 29064 07168 02400 80808 10000 21020 39979 40127 57004 60006 8357/ 90600 333 10004 21003 60004=
07168,1996-01-29 09:00:00,1,1014.1,1.4,86,-1,4000,11.112,,,80,,,,,,,,,,10,wg-a,,,,AAXX 29094 07168 12440 80806 10010 21010 39993 40141 51014 60006 710// 8257/ 90900=
07168,1996-01-29 12:00:00,3,1014,0.1,81,0,500,18.52,,,80,,,,,,,,,,1,wg-a,,,,AAXX 29124 07168 02400 70810 10030 20000 39994 40140 50001 61000 70162 8253/ 91200 333 6100=
07168,1996-01-29 15:00:00,4,1014.1,0.1,75,0,6000,18.52,,,70,,,,,,,,,,,wg-a,,,,AAXX 29154 07168 12556 40710 10040 20000 39995 40141 53001 60006 81530 91500=
07168,1996-01-29 18:00:00,1,1015.6,1.3,86,-1,0,11.112,,,80,0.3,4.4,,,,,,,,,wg-a,,,,AAXX 29184 07168 32/// /0806 10010 21010 30008 40156 51013 91800 333 10044 20003=
07168,1996-01-30 00:00:00,-2,1018,0.9,86,-4,0,11.112,,,70,,,,,,,,,,,wg-a,,,,AAXX 30004 07168 12/// /0706 11020 21040 30031 40180 52009 60006 90000=
07168,1996-01-30 06:00:00,-3,1019.7,1,86,-5,4000,7.408,,,70,-3,0.8,,,,,,,,10,wg-a,,,,AAXX 30064 07168 02/40 00704 11030 21050 30047 40197 53010 60006 71000 80000 90600 333 10008 21030 61000=
07168,1996-01-30 09:00:00,-2,1021,1.3,86,-4,3000,7.408,,,50,,,,,,,,,,10,wg-a,,,,AAXX 30094 07168 12/30 00504 11020 21040 30060 40210 51013 60006 71000 80000 90900=
07168,1996-01-30 12:00:00,1,1021.2,0.4,80,-2,500,11.112,,,80,,,,,,,,,,,wg-a,,,,AAXX 30124 07168 12400 70806 10010 21020 30064 40212 50004 60006 875// 91200=
07168,1996-01-30 15:00:00,3,1020.7,-0.5,70,-2,500,14.816,,,50,,,,,,,,,,,wg-a,,,,AAXX 30154 07168 12500 20508 10030 21020 30059 40207 56005 60006 82100 91500=
07168,1996-01-31 00:00:00,-2,1021.4,-0.1,86,-4,0,11.112,,,40,,,,,,,,,,,wg-a,,,,AAXX 31004 07168 12/// /0406 11020 21040 30064 40214 57001 60006 90000=
07168,1996-01-31 06:00:00,-5,1021.1,-0.5,86,-7,6000,7.408,,,90,-6.6,0.5,,,,,,,,,wg-a,,,,AAXX 31064 07168 02/56 00904 11050 21070 30059 40211 58005 60006 80000 90600 333 10005 21066 60004=
07168,1996-01-31 09:00:00,-2,1021.3,0.4,74,-6,7000,11.112,,,70,,,,,,,,,,,wg-a,,,,AAXX 31094 07168 12/57 00706 11020 21060 30063 40213 50004 60006 80000 90900=
07168,1996-01-31 12:00:00,1,1019.9,-1.2,64,-5,9000,18.52,,,70,,,,,,,,,,,wg-a,,,,AAXX 31124 07168 12/59 00710 10010 21050 30051 40199 58012 60006 80000 91200=
07168,1996-01-31 15:00:00,4,1018,-1.8,48,-6,10000,18.52,,,60,,,,,,,,,,,wg-a,,,,AAXX 31154 07168 12/60 00610 10040 21060 30033 40180 56018 60006 80000 91500=
07168,1996-01-31 18:00:00,0,1018.5,0.4,69,-5,0,11.112,,,90,-5,3.7,,,,,,,,,wg-a,,,,AAXX 31184 07168 12/// /0906 10000 21050 30037 40185 53004 60006 91800 333 10037 21050=
07168,1996-02-01 00:00:00,-2,1018.3,-0.7,80,-5,0,14.816,,,110,,,,,,,,,,,wg-a,,,,AAXX 01004 07168 12/// /1108 11020 21050 30033 40183 56007 60006 90000=
07168,1996-02-01 06:00:00,-5,1018.4,0.3,93,-6,7000,3.704,,,160,-5.1,0.3,,,,,,,,,wg-a,,,,AAXX 01064 07168 02/57 01602 11050 21060 30033 40184 53003 60006 80000 90600 333 10003 21051 60004=
07168,1996-02-01 09:00:00,0,1018.6,0.4,93,-1,500,7.408,,,130,,,,,,,,,,,wg-a,,,,AAXX 01094 07168 12/00 21304 10000 21010 30037 40186 53004 60006 82030 90900=
07168,1996-02-01 12:00:00,5,1017.9,-0.4,81,2,8000,7.408,,,100,,,,,,,,,,,wg-a,,,,AAXX 01124 07168 12/58 /1004 10050 20020 30033 40179 57004 60006 85030 91200=
07168,1996-02-01 15:00:00,8,1015.3,-2.4,61,1,10000,14.816,,,80,,,,,,,,,,,wg-a,,,,AAXX 01154 07168 12/60 30808 10080 20010 30009 40153 56024 60006 83030 91500=
07168,1996-02-01 18:00:00,6,1015,-0.4,61,-1,0,14.816,,,130,-5.4,8.5,,,,,,,,,wg-a,,,,AAXX 01184 07168 12/// /1308 10060 21010 30005 40150 55004 60006 91800 333 10085 21054=
07168,1996-02-02 00:00:00,4,1012.9,-1,87,2,0,11.112,,,120,,,,,,,,,,,wg-a,,,,AAXX 02004 07168 12/// /1206 10040 20020 39983 40129 58010 60006 90000=
07168,1996-02-02 06:00:00,3,1011.1,-0.7,93,2,500,3.704,,,310,2.4,5.7,,1,,,2,,,60,wg-a,,,,AAXX 02064 07168 02400 83102 10030 20020 39965 40111 58007 60024 76062 875// 90600 333 10057 20024 60017=
07168,1996-02-02 09:00:00,4,1010.6,-0.4,100,4,2000,0,,,0,,,,,,,,,,60,wg-a,,,,AAXX 02094 07168 02220 80000 10040 20040 39961 40106 55004 61000 76066 877// 90900 333 ////=
07168,1996-02-02 12:00:00,5,1010.4,-0.2,93,4,2000,3.704,,,290,,,,0,,,,,,10,wg-a,,,,AAXX 02124 07168 02420 82902 10050 20040 39959 40104 58002 60006 71064 877// 91200 333 60007=
07168,1996-02-02 15:00:00,5,1009.8,-0.6,100,5,3000,7.408,,,300,,,,,,,,,,10,wg-a,,,,AAXX 02154 07168 12430 83004 10050 20050 39953 40098 56006 60006 71022 875// 91500=
07168,1996-02-02 18:00:00,4,1011.2,1.3,93,3,0,14.816,,,290,2.3,5.1,,,,,,,,,wg-a,,,,AAXX 02184 07168 32/// /2908 10040 20030 39966 40112 53013 91800 333 10051 20023=
07168,1996-02-03 00:00:00,2,1013.5,0.8,93,1,0,7.408,,,320,,,,,,,,,,,wg-a,,,,AAXX 03004 07168 12/// /3204 10020 20010 39988 40135 51008 60006 90000=
07168,1996-02-03 06:00:00,2,1014.4,1,93,1,1500,14.816,,,290,1.4,3.5,,,,,,,,10,wg-a,,,,AAXX 03064 07168 02315 72908 10020 20010 39997 40144 53010 60006 71022 877// 90600 333 10035 20014 60004=
07168,1996-02-03 09:00:00,2,1015.5,1.1,93,1,900,11.112,,,300,,,,,,,,,,44,wg-a,,,,AAXX 03094 07168 12209 83006 10020 20010 30008 40155 52011 60006 74442 887// 90900=
07168,1996-02-03 12:00:00,3,1015.2,-0.2,93,2,1000,7.408,,,340,,,,,,,,,,10,wg-a,,,,AAXX 03124 07168 12310 83404 10030 20020 30006 40152 58002 60006 71042 887// 91200=
07168,1996-02-03 15:00:00,3,1015,-0.2,93,2,1000,7.408,,,20,,,,,,,,,,10,wg-a,,,,AAXX 03154 07168 12410 80204 10030 20020 30004 40150 55002 60006 71022 885// 91500=
07168,1996-02-03 18:00:00,2,1015.7,0.6,93,1,0,11.112,,,10,1.5,3.3,,,,,,,,,wg-a,,,,AAXX 03184 07168 12/// /0106 10020 20010 30010 40157 51006 60006 91800 333 10033 20015=
07168,1996-02-04 00:00:00,0,1016.3,0.3,93,-1,0,11.112,,,320,,,,,,,,,,,wg-a,,,,AAXX 04004 07168 12/// /3206 10000 21010 30015 40163 51003 60006 90000=
07168,1996-02-04 06:00:00,0,1015.8,0.2,86,-2,1500,11.112,,,50,-1.5,1.6,,,,,,,,10,wg-a,,,,AAXX 04064 07168 02715 70506 10000 21020 30010 40158 51002 60006 71022 875// 90600 333 10016 21015 60004=
07168,1996-02-04 09:00:00,0,1017.3,1.4,80,-3,4000,14.816,,,30,,,,,,,,,,10,wg-a,,,,AAXX 04094 07168 02340 70308 10000 21030 30024 40173 53014 61000 71072 8753/ 90900 333 ////=
07168,1996-02-04 12:00:00,0,1017.2,0,69,-5,6000,14.816,,,40,,,,,,,,,,3,wg-a,,,,AAXX 04124 07168 02556 /0408 10000 21050 30024 40172 50000 61000 70372 86500 91200 333 6100=
07168,1996-02-04 15:00:00,-1,1017,-0.3,86,-3,3000,14.816,,,40,,,,,,,,,,10,wg-a,,,,AAXX 04154 07168 12530 80408 11010 21030 30021 40170 55003 60006 71022 888// 91500=
07168,1996-02-04 18:00:00,-1,1018,1,80,-4,0,11.112,,,20,-1,0.7,,,,,,,,,wg-a,,,,AAXX 04184 07168 32/// /0206 11010 21040 30031 40180 53010 91800 333 10007 21010=
07168,1996-02-05 00:00:00,-1,1018.2,-0.1,69,-6,0,7.408,,,20,,,,,,,,,,,wg-a,,,,AAXX 05004 07168 12/// /0204 11010 21060 30033 40182 58001 60006 90000=
07168,1996-02-05 06:00:00,-2,1017.1,-0.5,63,-8,8000,11.112,,,70,-1.6,-0.9,,,,,,,,,wg-a,,,,AAXX 05064 07168 02658 80706 11020 21080 30022 40171 58005 60006 875// 90600 333 11009 21016 61000=
07168,1996-02-05 09:00:00,-1,1016.9,-0.2,64,-7,15000,11.112,,,80,,,,,,,,,,,wg-a,,,,AAXX 05094 07168 12665 80806 11010 21070 30020 40169 55002 60006 885// 90900=
07168,1996-02-05 12:00:00,-1,1015.1,-1.8,64,-7,15000,11.112,,,100,,,,,,,,,,,wg-a,,,,AAXX 05124 07168 12665 71006 11010 21070 30002 40151 58018 60006 875// 91200=
07168,1996-02-05 15:00:00,0,1011.9,-3.1,59,-7,20000,14.816,,,120,,,,,,,,,,,wg-a,,,,AAXX 05154 07168 12670 21208 10000 21070 39971 40119 58031 60006 82500 91500=
07168,1996-02-05 18:00:00,-2,1009.8,-2.2,69,-7,0,14.816,,,130,-2.3,0.1,,,,,,,,,wg-a,,,,AAXX 05184 07168 12/// /1308 11020 21070 39949 40098 58022 60006 91800 333 10001 21023=
07168,1996-02-06 00:00:00,-4,1001.8,-4.1,74,-8,0,18.52,,,120,,,,,,,,,,,wg-a,,,,AAXX 06004 07168 12/// /1210 11040 21080 39869 40018 56041 60006 90000=
07168,1996-02-06 06:00:00,-5,993.7,-4.4,79,-8,500,25.928,,,110,-5.7,-1.9,,,,,,,,,wg-a,,,,AAXX 06064 07168 02/00 /1114 11050 21080 39789 49937 56044 60006 80006 90600 333 11019 21057 60004=
07168,1996-02-06 09:00:00,-3,993,-0.6,74,-7,8000,14.816,,,110,,,,,,,,,,,wg-a,,,,AAXX 06094 07168 12/58 71108 11030 21070 39783 49930 56006 60006 84056 90900=
07168,1996-02-06 12:00:00,1,992.3,-0.4,64,-5,10000,14.816,,,120,,,,,,,,,,,wg-a,,,,AAXX 06124 07168 12/60 61208 10010 21050 39779 49923 58004 60006 83036 91200=
07168,1996-02-06 15:00:00,3,993.3,1,60,-4,10000,3.704,,,100,,,,,,,,,,,wg-a,,,,AAXX 06154 07168 12560 81002 10030 21040 39789 49933 53010 60006 8557/ 91500=
07168,1996-02-06 18:00:00,0,996.3,2.9,86,-2,0,7.408,,,290,-4.8,2.7,,,,,,,,,wg-a,,,,AAXX 06184 07168 12/// /2904 10000 21020 39818 49963 51029 60006 91800 333 10027 21048=
07168,1996-02-07 00:00:00,-1,1000.9,1.4,93,-2,0,14.816,,,270,,,,,,,,,,,wg-a,,,,AAXX 07004 07168 12/// /2708 11010 21020 39862 40009 52014 60006 90000=
07168,1996-02-07 06:00:00,-2,1000.5,-0.9,93,-3,500,11.112,,,230,-1.6,0.5,,,,,,,,22,wg-a,,1,,AAXX 07064 07168 02400 82306 11020 21030 39858 40005 58009 60004 72272 887// 90600 333 10005 21016 4/001 61000=
07168,1996-02-07 09:00:00,-1,997.8,-2.6,93,-2,4000,14.816,,,160,,,,,,,,,,,wg-a,,,,AAXX 07094 07168 12440 81608 11010 21020 39832 49978 58026 60006 885// 90900=
07168,1996-02-07 12:00:00,2,993.9,-3.7,87,0,7000,18.52,,,170,,,,,,,,,,,wg-a,,,,AAXX 07124 07168 12457 81710 10020 20000 39795 49939 58037 60006 885// 91200=
07168,1996-02-07 15:00:00,3,989.9,-3.9,81,0,10000,18.52,,,120,,,,,,,,,,,wg-a,,,,AAXX 07154 07168 12460 81210 10030 20000 39756 49899 56039 60006 888// 91500=
07168,1996-02-07 18:00:00,0,989.2,-0.8,100,0,0,14.816,,,100,-1.7,3.5,,,,,,,,,wg-a,,,,AAXX 07184 07168 32/// /1008 10000 20000 39748 49892 58008 91800 333 10035 21017=
07168,1996-02-08 00:00:00,1,995.1,5.3,86,-1,0,18.52,,,30,,,,,,,,,,,wg-a,,,,AAXX 08004 07168 12/// /0310 10010 21010 39806 49951 53053 60006 90000=
07168,1996-02-08 06:00:00,-1,1006.3,4.5,93,-2,2500,22.224,,,300,-0.7,1.1,,,,,3,,,10,wg-a,,0,,AAXX 08064 07168 12425 83012 11010 21020 39916 40063 51045 60034 71072 885// 90600 333 10011 21007 4/000=
07168,1996-02-08 09:00:00,-1,1010.3,3.9,93,-2,2000,29.632,,,300,,,,,,,,,,10,wg-a,,,,AAXX 08094 07168 02420 83016 11010 21020 39955 40103 51039 61000 71072 885// 90900 333 ////=
07168,1996-02-08 12:00:00,1,1013.5,3.2,86,-1,1500,25.928,,,290,,,,,,,,,,10,wg-a,,,,AAXX 08124 07168 02415 82914 10010 21010 39987 40135 51032 61000 71072 885// 91200 333 6100=
07168,1996-02-08 15:00:00,1,1016.7,3.2,86,-1,4000,18.52,,,300,,,,,,,,,,10,wg-a,,,,AAXX 08154 07168 02440 73010 10010 21010 30019 40167 53032 61000 71071 875// 91500 333 ////=
07168,1996-02-08 18:00:00,0,1020.1,3.3,86,-2,0,11.112,,,280,-1.9,1.6,,,,,,,,,wg-a,,,,AAXX 08184 07168 32/// /2806 10000 21020 30052 40201 53033 91800 333 10016 21019=
07168,1996-02-09 00:00:00,0,1022.4,0.5,86,-2,0,7.408,,,160,,,,,,,,,,,wg-a,,,,AAXX 09004 07168 12/// /1604 10000 21020 30075 40224 52005 60006 90000=
07168,1996-02-09 06:00:00,-5,1021.6,-0.9,100,-5,300,11.112,,,190,-4.5,0.7,,,,,,,,44,wg-a,,0,,AAXX 09064 07168 02/03 01906 11050 21050 30064 40216 56009 60006 74440 80000 90600 333 10007 21045 4/9999 61000=
07168,1996-02-09 09:00:00,-1,1020.3,-1,93,-2,8000,18.52,,,160,,,,,,,,,,3,wg-a,,,,AAXX 09094 07168 12/58 41610 11010 21020 30054 40203 58010 60006 70340 81046 90900=
07168,1996-02-09 12:00:00,3,1018,-2.1,70,-2,10000,22.224,,,150,,,,,,,,,,2,wg-a,,,,AAXX 09124 07168 12/60 61512 10030 21020 30033 40180 58021 60006 70241 81041 91200=
07168,1996-02-09 15:00:00,4,1015.6,-2.3,65,-2,12000,18.52,,,150,,,,,,,,,,,wg-a,,,,AAXX 09154 07168 12/62 81510 10040 21020 30010 40156 56023 60006 8802/ 91500=
07168,1996-02-09 18:00:00,2,1014.2,-1.5,64,-4,0,25.928,,,140,-6,4.2,,,,,,,,,wg-a,,,,AAXX 09184 07168 12/// /1414 10020 21040 39995 40142 58015 60006 91800 333 10042 21060=
07168,1996-02-10 00:00:00,1,1011.8,-0.3,80,-2,0,11.112,,,150,,,,,,,,,,,wg-a,,,,AAXX 10004 07168 12/// /1506 10010 21020 39971 40118 56003 60006 90000=
07168,1996-02-10 06:00:00,3,1012,1.1,87,1,8000,11.112,,,150,0.9,2.9,,0,,,,,,,wg-a,,,,AAXX 10064 07168 02458 81506 10030 20010 39974 40120 53011 60004 875// 90600 333 10029 20009 60007=
07168,1996-02-10 09:00:00,5,1012.8,0.9,87,3,10000,14.816,,,200,,,,,,,,,,,wg-a,,,,AAXX 10094 07168 12460 42008 10050 20030 39983 40128 51009 60006 84800 90900=
07168,1996-02-10 12:00:00,9,1012.2,-0.4,66,3,2000,35.188,,,210,,,,,,,,,,,wg-a,,,,AAXX 10124 07168 12520 32119 10090 20030 39979 40122 58004 60006 83200 91200=
07168,1996-02-10 15:00:00,8,1011.8,-0.4,71,3,20000,18.52,,,230,,,,,,,,,,,wg-a,,,,AAXX 10154 07168 12670 62310 10080 20030 39975 40118 56004 60006 86800 91500=
07168,1996-02-10 18:00:00,2,1012.8,0.6,93,1,0,14.816,,,190,2.1,10,,,,,,,,,wg-a,,,,AAXX 10184 07168 32/// /1908 10020 20010 39981 40128 53006 91800 333 10100 20021=
07168,1996-02-11 00:00:00,2,1013.4,0.2,100,2,0,14.816,,,190,,,,,,,,,,,wg-a,,,,AAXX 11004 07168 12/// /1908 10020 20020 39988 40134 52002 60006 90000=
07168,1996-02-11 06:00:00,4,1013.6,0.5,93,3,10000,22.224,,,220,1.7,5.2,,,,,,,,,wg-a,,,,AAXX 11064 07168 02460 /2212 10040 20030 39990 40136 51005 60006 86500 90600 333 10052 20017 60004=
07168,1996-02-11 09:00:00,5,1014.4,0.9,93,4,12000,22.224,,,220,,,,,,,,,,,wg-a,,,,AAXX 11094 07168 12462 72212 10050 20040 39999 40144 50009 60006 878// 90900=
07168,1996-02-11 12:00:00,7,1014.4,0.1,81,4,15000,22.224,,,220,,,,,,,,,,,wg-a,,,,AAXX 11124 07168 12565 72212 10070 20040 30000 40144 50001 60006 878// 91200=
07168,1996-02-11 15:00:00,7,1014.2,-0.2,76,3,20000,22.224,,,250,,,,,,,,,,,wg-a,,,,AAXX 11154 07168 12570 /2512 10070 20030 39998 40142 55002 60006 86800 91500=
07168,1996-02-11 18:00:00,2,1015.1,0.6,93,1,0,11.112,,,220,1.3,8.5,,,,,,,,,wg-a,,,,AAXX 11184 07168 12/// /2206 10020 20010 30004 40151 53006 60006 91800 333 10085 20013=
07168,1996-02-12 00:00:00,3,1014.7,-0.5,87,1,0,18.52,,,200,,,,,,,,,,,wg-a,,,,AAXX 12004 07168 12/// /2010 10030 20010 30000 40147 56005 60006 90000=
07168,1996-02-12 06:00:00,6,1007.1,-4.4,93,5,7000,31.484,,,180,-0.2,5.5,,0,,,,,,61,wg-a,,,,AAXX 12064 07168 02457 81817 10060 20050 39927 40071 58044 60004 76162 885// 90600 333 10055 21002 60007=
07168,1996-02-12 09:00:00,6,1000.1,-6.9,93,5,8000,42.596,,64.82,180,,,,3,,,,,,61,wg-a,,,,AAXX 12094 07168 12458 81823 10060 20050 39858 40001 58069 60037 76166 8672/ 90900 333 91035=
07168,1996-02-12 12:00:00,1,997.1,-3.2,93,0,4000,22.224,,,280,,,,9,,,,,,61,wg-a,,,,AAXX 12124 07168 02340 82812 10010 20000 39826 49971 55032 60126 76198 887// 91200 333 60097=
07168,1996-02-12 15:00:00,3,994.8,-2.1,93,2,15000,31.484,,,200,,,,2,,,,,,2,wg-a,,,,AAXX 12154 07168 12465 72017 10030 20020 39805 49948 56021 60027 70276 875// 91500=
07168,1996-02-12 18:00:00,4,991.1,-3.6,93,3,0,38.892,,,200,1,7.3,,,,,,,,,wg-a,,,,AAXX 12184 07168 32/// /2021 10040 20030 39769 49911 56036 91800 333 10073 20010=
07168,1996-02-13 00:00:00,3,996.1,4.4,87,1,0,31.484,,,270,,,,0,,,,,,,wg-a,,,,AAXX 13004 07168 02/// /2717 10030 20010 39817 49961 52044 60086 90000 333 60007=
07168,1996-02-13 06:00:00,3,1000.2,2.2,93,2,10000,29.632,,,290,2.3,5.7,,2,,,23,,,61,wg-a,,,,AAXX 13064 07168 02560 82916 10030 20020 39858 40002 53022 60234 76162 885// 90600 333 10057 20023 60027=
07168,1996-02-13 09:00:00,3,1003,2.7,93,2,10000,31.484,,,290,,,,0,,,,,,61,wg-a,,,,AAXX 13094 07168 12360 82917 10030 20020 39885 40030 52027 60007 76166 885// 90900=
07168,1996-02-13 12:00:00,4,1005,2,87,2,10000,31.484,,,300,,,,0,,,,,,60,wg-a,,,,AAXX 13124 07168 02460 83017 10040 20020 39905 40050 51020 60016 76066 885// 91200 333 60007=
07168,1996-02-13 15:00:00,3,1006.8,1.8,87,1,6000,31.484,,,320,,,,0,,,,,,21,wg-a,,,,AAXX 13154 07168 12456 83217 10030 20010 39923 40068 52018 60007 72162 885// 91500=
07168,1996-02-13 18:00:00,2,1010.2,3.3,87,0,0,25.928,,,340,1.8,3.8,,,,,,,,,wg-a,,,,AAXX 13184 07168 32/// /3414 10020 20000 39956 40102 53033 91800 333 10038 20018=
07168,1996-02-14 00:00:00,1,1016,2.4,86,-1,0,22.224,,,350,,,,,,,,,,,wg-a,,,,AAXX 14004 07168 12/// /3512 10010 21010 30012 40160 51024 60006 90000=
07168,1996-02-14 06:00:00,1,1020.8,2.8,86,-1,500,22.224,,,350,0.7,1.8,,,,,2,,,22,wg-a,,,,AAXX 14064 07168 02400 83512 10010 21010 30060 40208 53028 60024 72272 885// 90600 333 10018 20007 61000=
07168,1996-02-14 09:00:00,1,1024.3,3.4,86,-1,2500,25.928,,,10,,,,,,,,,,10,wg-a,,,,AAXX 14094 07168 02425 80114 10010 21010 30094 40243 52034 61000 71072 885// 90900 333 ////=
07168,1996-02-14 15:00:00,2,1028.3,1.8,87,0,500,31.484,,,10,,,,,,,,,,,wg-a,,,,AAXX 14154 07168 12400 80117 10020 20000 30134 40283 53018 60006 875// 91500=
07168,1996-02-14 18:00:00,1,1030.8,2.4,80,-2,0,22.224,,,10,0.8,2.1,,,,,,,,,wg-a,,,,AAXX 14184 07168 32/// /0112 10010 21020 30158 40308 53024 91800 333 10021 20008=
07168,1996-02-15 00:00:00,1,1033.7,0.5,80,-2,0,14.816,,,10,,,,,,,,,,,wg-a,,,,AAXX 15004 07168 12/// /0108 10010 21020 30186 40337 52005 60006 90000=
07168,1996-02-15 06:00:00,0,1035.6,1.1,86,-2,6000,11.112,,,10,0.1,1.1,,,,,,,,,wg-a,,,,AAXX 15064 07168 02656 80106 10000 21020 30205 40356 52011 60006 885// 90600 333 10011 20001 60004=
07168,1996-02-15 09:00:00,1,1036.9,1.3,80,-2,6000,11.112,,,10,,,,,,,,,,,wg-a,,,,AAXX 15094 07168 12656 80106 10010 21020 30218 40369 51013 60006 885// 90900=
07168,1996-02-15 12:00:00,3,1036,-0.8,75,-1,8000,14.816,,,360,,,,,,,,,,,wg-a,,,,AAXX 15124 07168 12458 53608 10030 21010 30210 40360 58008 60006 84201 91200=
07168,1996-02-15 15:00:00,3,1034.8,-1.2,70,-2,8000,14.816,,,310,,,,,,,,,,,wg-a,,,,AAXX 15154 07168 12558 73108 10030 21020 30198 40348 56012 60006 874// 91500=
07168,1996-02-15 18:00:00,1,1034.4,-0.4,86,-1,0,14.816,,,310,0,3.5,,,,,,,,,wg-a,,,,AAXX 15184 07168 12/// /3108 10010 21010 30194 40344 58004 60006 91800 333 10035 20000=
07168,1996-02-16 00:00:00,-1,1033.5,-1,93,-2,0,3.704,,,170,,,,,,,,,,,wg-a,,,,AAXX 16004 07168 12/// /1702 11010 21020 30184 40335 56010 60006 90000=
07168,1996-02-16 06:00:00,1,1030.3,-1,86,-1,6000,14.816,,,240,-2.1,1.4,,,,,,,,,wg-a,,,,AAXX 16064 07168 02456 82408 10010 21010 30153 40303 56010 60006 875// 90600 333 10014 21021 60004=
07168,1996-02-16 09:00:00,2,1029.7,-0.5,93,1,6000,18.52,,,230,,,,,,,,,,61,wg-a,,,,AAXX 16094 07168 02456 82310 10020 20010 30148 40297 57005 61000 76162 875// 90900 333 ////=
07168,1996-02-16 12:00:00,5,1028.2,-1.3,87,3,500,22.224,,,240,,,,,,,,,,2,wg-a,,,,AAXX 16124 07168 02400 82412 10050 20030 30135 40282 58013 61000 70262 875// 91200 333 6100=
07168,1996-02-16 15:00:00,5,1026.4,-1.8,93,4,2500,25.928,,,240,,,,,,,,,,10,wg-a,,,,AAXX 16154 07168 12325 82414 10050 20040 30117 40264 56018 60006 71022 877// 91500=
07168,1996-02-16 18:00:00,6,1026.3,-0.1,93,5,0,18.52,,,250,1.3,5.7,,,,,,,,,wg-a,,,,AAXX 16184 07168 32/// /2510 10060 20050 30116 40263 55001 91800 333 10057 20013=
07168,1996-02-17 00:00:00,7,1025,-0.4,87,5,0,22.224,,,250,,,,,,,,,,,wg-a,,,,AAXX 17004 07168 12/// /2512 10070 20050 30104 40250 57004 60006 90000=
07168,1996-02-17 06:00:00,6,1023.1,-0.4,81,3,9000,25.928,,,270,5.7,6.8,,,,,,,,,wg-a,,,,AAXX 17064 07168 02759 82714 10060 20030 30085 40231 58004 60006 875// 90600 333 10068 20057 61000=
07168,1996-02-17 09:00:00,6,1023.6,0.5,87,4,9000,29.632,,,270,,,,,,,,,,,wg-a,,,,AAXX 17094 07168 12459 72716 10060 20040 30090 40236 53005 60006 878// 90900=
07168,1996-02-17 12:00:00,7,1023.7,0.2,81,4,10000,29.632,,,280,,,,,,,,,,25,wg-a,,,,AAXX 17124 07168 02460 72816 10070 20040 30092 40237 51002 61000 72586 878// 91200 333 6100=
07168,1996-02-17 15:00:00,8,1023.8,0.1,71,3,14000,18.52,,,290,,,,,,,,,,,wg-a,,,,AAXX 17154 07168 12564 72910 10080 20030 30093 40238 53001 60006 875// 91500=
07168,1996-02-17 18:00:00,6,1024.3,0.4,87,4,0,11.112,,,260,5.1,9.5,,,,,,,,,wg-a,,,,AAXX 17184 07168 32/// /2606 10060 20040 30097 40243 53004 91800 333 10095 20051=
07168,1996-02-18 06:00:00,5,1013.2,-4.4,93,4,8000,31.484,,,230,5.4,6.3,,0,,,,,,61,wg-a,,,,AAXX 18064 07168 02458 82317 10050 20040 39987 40132 57044 60004 76162 885// 90600 333 10063 20054 60007=
07168,1996-02-18 09:00:00,6,1007.9,-5.2,87,4,11000,46.3,,66.672,220,,,,0,,,,,,60,wg-a,,,,AAXX 18094 07168 12461 82225 10060 20040 39935 40079 58052 60007 76062 875// 90900 333 91036=
07168,1996-02-18 12:00:00,7,1003.1,-4.7,87,5,6000,46.3,,68.524,220,,,,4,,,,,,61,wg-a,,,,AAXX 18124 07168 02456 82225 10070 20050 39888 40031 58047 60046 76162 875// 91200 333 60047 91037=
07168,1996-02-18 15:00:00,4,1001.3,-1.9,87,2,18000,29.632,,,230,,,,6,,,,,,21,wg-a,,,,AAXX 18154 07168 12368 72316 10040 20020 39869 40013 58019 60067 72187 8753/ 91500=
07168,1996-02-18 18:00:00,2,1000.7,-0.7,93,1,0,14.816,,,240,1.9,6.7,,1,,,,,,,wg-a,,,,AAXX 18184 07168 12/// /2408 10020 20010 39862 40007 55007 60017 91800 333 10067 20019=
07168,1996-02-19 00:00:00,3,997.9,-1.5,87,1,0,25.928,,,220,,,,,,,,,,,wg-a,,,,AAXX 19004 07168 02/// /2214 10030 20010 39835 49979 56015 61000 90000 333 ////=
07168,1996-02-19 06:00:00,3,995.7,-0.8,87,1,10000,25.928,,,240,2.1,4,,,,,11,,,,wg-a,,,,AAXX 19064 07168 02460 72414 10030 20010 39813 49957 58008 60006 875// 90600 333 10040 20021 60114=
07168,1996-02-19 09:00:00,3,995.4,-0.3,93,2,500,25.928,,,240,,,,0,,,,,,61,wg-a,,,,AAXX 19094 07168 12400 82414 10030 20020 39810 49954 56003 60007 76162 885// 90900=
07168,1996-02-19 12:00:00,2,996,0.6,93,1,500,29.632,,,270,,,,1,,,,,,3,wg-a,,,,AAXX 19124 07168 02400 82716 10020 20010 39816 49960 50006 60016 70376 875// 91200 333 60017=
07168,1996-02-19 15:00:00,0,997,0.9,93,-1,2000,42.596,,,320,,,,0,,,,,,10,wg-a,,,,AAXX 19154 07168 12320 83223 10000 21010 39825 49970 53009 60007 71076 887// 91500=
07168,1996-02-19 18:00:00,-1,1000.7,3.5,100,-1,0,35.188,,,340,-1.2,3.1,,0,,,,,,,wg-a,,,,AAXX 19184 07168 12/// /3419 11010 21010 39860 40007 53035 60007 91800 333 10031 21012=
07168,1996-02-20 00:00:00,-2,1005.1,2,93,-3,0,22.224,,,290,,,,,,,,,,,wg-a,,,,AAXX 20004 07168 12/// /2912 11020 21030 39903 40051 51020 60016 90000=
07168,1996-02-20 06:00:00,-2,1007.2,1.3,93,-3,4000,22.224,,,260,-2.1,-0.5,,,,,2,,,36,wg-a,,2,,AAXX 20064 07168 02440 82612 11020 21030 39924 40072 52013 60024 73673 885// 90600 333 11005 21021 4/002 61000=
07168,1996-02-20 09:00:00,-1,1008.9,1.7,93,-2,2000,18.52,,,270,,,,1,,,,,,71,wg-a,,,,AAXX 20094 07168 12420 82710 11010 21020 39941 40089 51017 60017 77177 885// 90900=
07168,1996-02-20 12:00:00,-2,1010.3,1.4,93,-3,3000,22.224,,,10,,,,0,,,,,,36,wg-a,,,,AAXX 20124 07168 02430 80112 11020 21030 39955 40103 51014 60016 73677 885// 91200 333 60007=
07168,1996-02-20 15:00:00,-2,1012,1.6,100,-2,500,22.224,,,20,,,,0,,,,,,36,wg-a,,,,AAXX 20154 07168 12400 80212 11020 21020 39971 40120 53016 60007 73673 885// 91500=
07168,1996-02-20 18:00:00,-2,1014.3,2.3,100,-2,0,22.224,,,30,-2.1,-1.2,,,,,,,,,wg-a,,,,AAXX 20184 07168 32/// /0312 11020 21020 39994 40143 53023 91800 333 11012 21021=
07168,1996-02-21 00:00:00,-2,1016,0.4,93,-3,0,22.224,,,20,,,,,,,,,,,wg-a,,,,AAXX 21004 07168 02/// /0212 11020 21030 30011 40160 52004 61000 90000 333 ////=
07168,1996-02-21 06:00:00,-4,1017.1,1,93,-5,10000,29.632,,,10,-3.7,-1.7,,,,,1,,,,wg-a,,2,,AAXX 21064 07168 02460 80116 11040 21050 30021 40171 51010 60006 885// 90600 333 11017 21037 4/002 60014=
07168,1996-02-21 09:00:00,-5,1018.5,1.3,86,-7,10000,29.632,,,10,,,,,,,,,,,wg-a,,,,AAXX 21094 07168 12460 80116 11050 21070 30034 40185 52013 60006 885// 90900=
07168,1996-02-21 12:00:00,-4,1018.7,0.2,74,-8,15000,29.632,,,10,,,,,,,,,,,wg-a,,,,AAXX 21124 07168 12565 /0116 11040 21080 30036 40187 50002 60006 86500 91200=
07168,1996-02-21 15:00:00,-4,1019.1,0.4,74,-8,15000,29.632,,,10,,,,,,,,,,,wg-a,,,,AAXX 21154 07168 12565 30116 11040 21080 30040 40191 52004 60006 83100 91500=
07168,1996-02-21 18:00:00,-5,1020.8,1.6,79,-8,0,22.224,,,360,-4.9,-3.5,,,,,,,,,wg-a,,,,AAXX 21184 07168 12/// /3612 11050 21080 30056 40208 53016 60006 91800 333 11035 21049=
07168,1996-02-22 00:00:00,-7,1022.4,0.7,93,-8,0,11.112,,,320,,,,,,,,,,,wg-a,,,,AAXX 22004 07168 12/// /3206 11070 21080 30071 40224 51007 60006 90000=
07168,1996-02-22 06:00:00,-12,1023.5,0.8,85,-14,8000,11.112,,,300,-12.1,-4.3,,,,,,,,,wg-a,,1,,AAXX 22064 07168 02558 23006 11120 21140 30079 40235 51008 60006 82500 90600 333 11043 21121 4/001 60004=
07168,1996-02-22 09:00:00,-6,1024.3,1.1,86,-8,12000,7.408,,,320,,,,,,,,,,,wg-a,,,,AAXX 22094 07168 12762 63204 11060 21080 30090 40243 50011 60006 86500 90900=
07168,1996-02-22 12:00:00,-3,1024.1,0,74,-7,15000,14.816,,,280,,,,,,,,,,,wg-a,,,,AAXX 22124 07168 12565 22808 11030 21070 30090 40241 50000 60006 82800 91200=
07168,1996-02-22 15:00:00,-2,1022.5,-1.5,74,-6,25000,18.52,,,260,,,,,,,,,,,wg-a,,,,AAXX 22154 07168 12675 72610 11020 21060 30075 40225 56015 60006 85802 91500=
07168,1996-02-23 00:00:00,-3,1019.1,-2.1,93,-4,0,14.816,,,160,,,,,,,,,,,wg-a,,,,AAXX 23004 07168 12/// /1608 11030 21040 30041 40191 56021 60006 90000=
07168,1996-02-23 06:00:00,-2,1016.5,-0.6,86,-4,500,11.112,,,150,-2.8,-1.9,,,,,,,,71,wg-a,,1,,AAXX 23064 07168 02500 81506 11020 21040 30015 40165 58006 61000 77172 885// 90600 333 11019 21028 4/001 6100=
07168,1996-02-23 09:00:00,-2,1017.1,0.7,93,-3,3000,11.112,,,170,,,,,,,,,,10,wg-a,,,,AAXX 23094 07168 02430 81706 11020 21030 30022 40171 51007 61000 71077 885// 90900 333 ////=
07168,1996-02-23 12:00:00,0,1017,-0,86,-2,10000,7.408,,,170,,,,0,,,,,,2,wg-a,,,,AAXX 23124 07168 02460 81704 10000 21020 30022 40170 55000 60006 70272 885// 91200 333 60007=
07168,1996-02-23 15:00:00,1,1016.7,-0.3,80,-2,10000,7.408,,,170,,,,,,,,,,,wg-a,,,,AAXX 23154 07168 12460 81704 10010 21020 30019 40167 58003 60006 885// 91500=
07168,1996-02-23 18:00:00,0,1017.5,0.8,93,-1,0,11.112,,,170,-2.3,0.7,,,,,,,,,wg-a,,,,AAXX 23184 07168 32/// /1706 10000 21010 30027 40175 53008 91800 333 10007 21023=
07168,1996-02-24 00:00:00,1,1017.3,-0.1,93,0,0,3.704,,,130,,,,,,,,,,,wg-a,,,,AAXX 24004 07168 12/// /1302 10010 20000 30025 40173 57001 60006 90000=
07168,1996-02-24 06:00:00,1,1014.6,-1.3,93,0,4000,25.928,,,180,0.2,1.2,,,,,,,,10,wg-a,,1,,AAXX 24064 07168 02440 81814 10010 20000 39999 40146 56013 60006 71022 885// 90600 333 10012 20002 4/001 60004=
07168,1996-02-24 09:00:00,2,1014.2,-0.4,87,0,12000,25.928,,,170,,,,,,,,,,,wg-a,,,,AAXX 24094 07168 12462 81714 10020 20000 39995 40142 58004 60006 8557/ 90900=
07168,1996-02-24 12:00:00,5,1012.4,-1.6,81,2,15000,25.928,,,180,,,,,,,,,,,wg-a,,,,AAXX 24124 07168 12665 /1814 10050 20020 39979 40124 58016 60006 83530 91200=
07168,1996-02-24 15:00:00,8,1010.2,-2,71,3,16000,31.484,,,180,,,,,,,,,,,wg-a,,,,AAXX 24154 07168 12666 /1817 10080 20030 39959 40102 56020 60006 82530 91500=
07168,1996-02-24 18:00:00,7,1009.9,-0.4,70,2,0,29.632,,,170,1.1,8.8,,,,,,,,,wg-a,,,,AAXX 24184 07168 12/// /1716 10070 20020 39955 40099 57004 60006 91800 333 10088 20011=
07168,1996-02-25 00:00:00,6,1009.1,-0.1,75,2,0,29.632,,,200,,,,,,,,,,,wg-a,,,,AAXX 25004 07168 12/// /2016 10060 20020 39947 40091 58001 60006 90000=
07168,1996-02-25 06:00:00,6,1007.7,-0.2,75,2,12000,25.928,,,180,5.5,6.8,,,,,,,,,wg-a,,,,AAXX 25064 07168 02662 81814 10060 20020 39933 40077 57002 60006 8357/ 90600 333 10068 20055 60004=
07168,1996-02-25 09:00:00,8,1008.2,0.6,71,3,500,25.928,,,180,,,,,,,,,,,wg-a,,,,AAXX 25094 07168 12600 71814 10080 20030 39939 40082 51006 60006 8257/ 90900=
07168,1996-02-25 12:00:00,13,1006.7,-1.2,51,3,500,35.188,,,190,,,,,,,,,,,wg-a,,,,AAXX 25124 07168 12/00 61919 10130 20030 39927 40067 58012 60006 82032 91200=
07168,1996-02-25 15:00:00,14,1005.8,-0.9,47,3,500,31.484,,,190,,,,,,,,,,,wg-a,,,,AAXX 25154 07168 12600 /1917 10140 20030 39918 40058 57009 60006 81132 91500=
07168,1996-02-25 18:00:00,11,1005.9,-0,58,3,0,25.928,,,160,6.3,14.6,,,,,,,,,wg-a,,,,AAXX 25184 07168 12/// /1614 10110 20030 39918 40059 55000 60006 91800 333 10146 20063=
07168,1996-02-26 00:00:00,7,1008.1,0.8,70,2,0,14.816,,,150,,,,,,,,,,,wg-a,,,,AAXX 26004 07168 12/// /1508 10070 20020 39937 40081 51008 60006 90000=
07168,1996-02-26 06:00:00,7,1008.5,0.7,70,2,15000,25.928,,,190,5.7,11.2,,,,,,,,,wg-a,,,,AAXX 26064 07168 02/65 41914 10070 20020 39942 40085 53007 60006 83031 90600 333 10112 20057 60004=
07168,1996-02-26 09:00:00,11,1010.5,2.1,54,2,500,31.484,,,190,,,,,,,,,,,wg-a,,,,AAXX 26094 07168 12/00 51917 10110 20020 39963 40105 51021 60006 80002 90900=
07168,1996-02-26 12:00:00,12,1011.4,1,58,4,500,29.632,,,220,,,,,,,,,,,wg-a,,,,AAXX 26124 07168 12600 72216 10120 20040 39973 40114 53010 60006 86102 91200=
07168,1996-02-26 15:00:00,8,1013.2,1.5,87,6,10000,7.408,,,300,,,,0,,,,,,61,wg-a,,,,AAXX 26154 07168 12460 83004 10080 20060 39988 40132 53015 60007 76162 878// 91500=
07168,1996-02-26 18:00:00,7,1013.7,0.5,93,6,0,3.704,,,50,6.6,13.3,,,,,,,,,wg-a,,,,AAXX 26184 07168 32/// /0502 10070 20060 39993 40137 53005 91800 333 10133 20066=
07168,1996-02-27 00:00:00,6,1015.6,0.8,93,5,0,11.112,,,300,,,,,,,,,,,wg-a,,,,AAXX 27004 07168 12/// /3006 10060 20050 30011 40156 53008 60016 90000=
07168,1996-02-27 06:00:00,5,1016.8,0.4,100,5,600,3.704,,,310,5.1,6.7,,,,,3,,,44,wg-a,,,,AAXX 27064 07168 12106 83102 10050 20050 30023 40168 53004 60034 74464 886// 90600 333 10067 20051=
07168,1996-02-27 09:00:00,5,1018.8,1.9,100,5,1500,3.704,,,330,,,,0,,,,,,10,wg-a,,,,AAXX 27094 07168 12215 83302 10050 20050 30042 40188 51019 60007 71042 886// 90900=
07168,1996-02-27 12:00:00,7,1019,0.3,93,6,4000,7.408,,,330,,,,1,,,,,,10,wg-a,,,,AAXX 27124 07168 02340 83304 10070 20060 30045 40190 50003 60026 71064 886// 91200 333 60017=
07168,1996-02-27 15:00:00,8,1018.9,-0,93,7,6000,7.408,,,340,,,,1,,,,,,61,wg-a,,,,AAXX 27154 07168 12356 83404 10080 20070 30045 40189 54000 60017 76166 8677/ 91500=
07168,1996-02-27 18:00:00,6,1019.8,0.8,100,6,0,7.408,,,310,5,7.6,,,,,,,,,wg-a,,,,AAXX 27184 07168 32/// /3104 10060 20060 30053 40198 53008 91800 333 10076 20050=
07168,1996-02-28 00:00:00,6,1020.8,-0.1,100,6,0,11.112,,,320,,,,,,,,,,,wg-a,,,,AAXX 28004 07168 12/// /3206 10060 20060 30062 40208 56001 60016 90000=
07168,1996-02-28 06:00:00,5,1021.3,0.8,100,5,200,7.408,,,340,5.2,6.3,,,,,4,,,44,wg-a,,,,AAXX 28064 07168 02102 83404 10050 20050 30067 40213 53008 60044 74442 886// 90600 333 10063 20052 61000=
07168,1996-02-28 09:00:00,5,1022.5,1.2,100,5,300,11.112,,,330,,,,,,,,,,44,wg-a,,,,AAXX 28094 07168 12103 83306 10050 20050 30079 40225 52012 60006 74444 886// 90900=
07168,1996-02-28 12:00:00,6,1022.9,0.4,100,6,1500,11.112,,,330,,,,,,,,,,10,wg-a,,,,AAXX 28124 07168 12215 83306 10060 20060 30083 40229 50004 60006 71042 876// 91200=
07168,1996-02-28 18:00:00,7,1024.2,1.1,93,6,0,7.408,,,340,4.8,7.6,,,,,,,,,wg-a,,,,AAXX 28184 07168 12/// /3404 10070 20060 30096 40242 53011 60006 91800 333 10076 20048=
07168,1996-02-29 06:00:00,1,1026,0.8,100,1,2000,11.112,,,330,0.8,6.9,,,,,,,,10,wg-a,,,,AAXX 29064 07168 02720 /3306 10010 20010 30111 40260 53008 60006 71011 81500 90600 333 10069 20008 60004=
07168,1996-02-29 09:00:00,5,1027.1,1.3,75,1,500,18.52,,,50,,,,,,,,,,,wg-a,,,,AAXX 29094 07168 12/00 00510 10050 20010 30124 40271 52013 60006 80000 90900=
07168,1996-02-29 12:00:00,9,1027.6,0.7,61,2,6000,14.816,,,40,,,,,,,,,,,wg-a,,,,AAXX 29124 07168 12/56 00408 10090 20020 30131 40276 50007 60006 80000 91200=
07168,1996-02-29 15:00:00,11,1026.8,-0.7,54,2,7000,18.52,,,30,,,,,,,,,,,wg-a,,,,AAXX 29154 07168 12/57 /0310 10110 20020 30124 40268 56007 60006 80001 91500=
07168,1996-02-29 18:00:00,9,1028,1.1,66,3,0,7.408,,,20,0.8,11.5,,,,,,,,,wg-a,,,,AAXX 29184 07168 12/// /0204 10090 20030 30135 40280 53011 60006 91800 333 10115 20008=
07168,1996-03-01 00:00:00,4,1030.4,0.8,75,0,0,11.112,,,340,,,,,,,,,,,wg-a,,,,AAXX 01004 07168 12/// /3406 10040 20000 30156 40304 52008 60006 90000=
07168,1996-03-01 06:00:00,4,1029.5,-0.1,81,1,8000,18.52,,,350,3.4,9.6,,,,,,,,,wg-a,,,,AAXX 01064 07168 02558 73510 10040 20010 30147 40295 58001 60006 8453/ 90600 333 10096 20034 60004=
07168,1996-03-01 09:00:00,4,1030.6,1.1,75,0,12000,18.52,,,360,,,,,,,,,,,wg-a,,,,AAXX 01094 07168 12462 83610 10040 20000 30158 40306 51011 60006 878// 90900=
07168,1996-03-01 12:00:00,5,1029.7,-0.8,75,1,12000,22.224,,,340,,,,,,,,,,,wg-a,,,,AAXX 01124 07168 12462 83412 10050 20010 30150 40297 58008 60006 888// 91200=
07168,1996-03-01 15:00:00,5,1027.6,-2.1,93,4,3000,11.112,,,310,,,,,,,,,,51,wg-a,,,,AAXX 01154 07168 02430 83106 10050 20040 30129 40276 56021 61000 75152 887// 91500 333 ////=
07168,1996-03-01 18:00:00,5,1026.4,-1.2,100,5,0,18.52,,,330,3.4,5.6,,,,,,,,,wg-a,,,,AAXX 01184 07168 32/// /3310 10050 20050 30117 40264 55012 91800 333 10056 20034=
07168,1996-03-02 00:00:00,5,1025.1,-0.6,87,3,0,18.52,,,360,,,,,,,,,,,wg-a,,,,AAXX 02004 07168 12/// /3610 10050 20030 30104 40251 56006 60006 90000=
07168,1996-03-02 06:00:00,1,1025.9,1,80,-2,500,11.112,,,20,0.2,5.5,,,,,2,,,,wg-a,,,,AAXX 02064 07168 02/00 /0206 10010 21020 30110 40259 53010 60024 90600 333 10055 20002 61000=
07168,1996-03-02 09:00:00,2,1026.6,0.8,80,-1,7000,18.52,,,50,,,,,,,,,,,wg-a,,,,AAXX 02094 07168 12457 /0510 10020 21010 30118 40266 53008 60006 81100 90900=
07168,1996-03-02 12:00:00,4,1025.7,-0.8,60,-3,15000,14.816,,,20,,,,,,,,,,,wg-a,,,,AAXX 02124 07168 12565 30208 10040 21030 30110 40257 58008 60006 83100 91200=
07168,1996-03-02 15:00:00,6,1023.9,-1.7,45,-5,25000,18.52,,,350,,,,,,,,,,,wg-a,,,,AAXX 02154 07168 12675 /3510 10060 21050 30093 40239 56017 60006 81100 91500=
07168,1996-03-02 18:00:00,2,1024,-0.1,64,-4,0,11.112,,,350,-0.1,5.8,,,,,,,,,wg-a,,,,AAXX 02184 07168 12/// /3506 10020 21040 30092 40240 55001 60006 91800 333 10058 21001=
07168,1996-03-03 00:00:00,-1,1022.2,-1.3,93,-2,0,7.408,,,330,,,,,,,,,,,wg-a,,,,AAXX 03004 07168 12/// /3304 11010 21020 30072 40222 56013 60006 90000=
07168,1996-03-03 06:00:00,-1,1020,-0.5,100,-1,1500,3.704,,,270,-2.4,1.9,,0,,,,,,10,wg-a,,1,,AAXX 03064 07168 02215 82702 11010 21010 30051 40200 57005 60004 71072 885// 90600 333 10019 21024 4/001 60007=
07168,1996-03-03 09:00:00,1,1020.5,0.5,93,0,2000,3.704,,,180,,,,,,,,,,10,wg-a,,,,AAXX 03094 07168 12220 81802 10010 20000 30056 40205 53005 60006 71022 885// 90900=
07168,1996-03-03 12:00:00,2,1020,-0.4,87,0,500,0,,,0,,,,,,,,,,,wg-a,,,,AAXX 03124 07168 12400 80000 10020 20000 30052 40200 58004 60006 885// 91200=
07168,1996-03-03 15:00:00,4,1019.6,-0.3,70,-1,6000,7.408,,,40,,,,,,,,,,,wg-a,,,,AAXX 03154 07168 12656 50404 10040 21010 30049 40196 56003 60006 84101 91500=
07168,1996-03-03 18:00:00,3,1020.5,0.9,70,-2,0,7.408,,,30,-0.5,4.3,,,,,,,,,wg-a,,,,AAXX 03184 07168 12/// /0304 10030 21020 30058 40205 53009 60006 91800 333 10043 21005=
07168,1996-03-04 00:00:00,-3,1022.1,0.4,93,-4,0,11.112,,,310,,,,,,,,,,,wg-a,,,,AAXX 04004 07168 12/// /3106 11030 21040 30070 40221 53004 60006 90000=
07168,1996-03-04 06:00:00,-5,1022.3,0.5,93,-6,6000,7.408,,,300,-5.4,3.1,,,,,,,,,wg-a,,,,AAXX 04064 07168 02/56 /3004 11050 21060 30071 40223 51005 60006 81030 90600 333 10031 21054 60004=
07168,1996-03-04 09:00:00,0,1023,1,86,-2,6000,7.408,,,340,,,,,,,,,,,wg-a,,,,AAXX 04094 07168 12/56 03404 10000 21020 30081 40230 52010 60006 80000 90900=
07168,1996-03-04 12:00:00,4,1022,-0.8,70,-1,6000,11.112,,,320,,,,,,,,,,,wg-a,,,,AAXX 04124 07168 12556 23206 10040 21010 30073 40220 57008 60006 82100 91200=
07168,1996-03-04 15:00:00,5,1021,-0.9,56,-3,10000,11.112,,,20,,,,,,,,,,,wg-a,,,,AAXX 04154 07168 12560 70206 10050 21030 30064 40210 57009 60006 8215/ 91500=
07168,1996-03-04 18:00:00,4,1021.6,0.5,75,0,0,7.408,,,310,-5.1,5.8,,,,,,,,,wg-a,,,,AAXX 04184 07168 12/// /3104 10040 20000 30069 40216 51005 60006 91800 333 10058 21051=
07168,1996-03-05 00:00:00,3,1022.3,-0.4,93,2,0,3.704,,,300,,,,,,,,,,,wg-a,,,,AAXX 05004 07168 12/// /3002 10030 20020 30075 40223 58004 60006 90000=
07168,1996-03-05 06:00:00,3,1024,1.3,100,3,500,11.112,,,300,2.2,3.4,,0,,,1,,,61,wg-a,,,,AAXX 05064 07168 02400 83006 10030 20030 30092 40240 53013 60014 76162 885// 90600 333 10034 20022 60007=
07168,1996-03-05 09:00:00,4,1025.6,1.7,93,3,6000,14.816,,,310,,,,,,,,,,2,wg-a,,,,AAXX 05094 07168 02456 83108 10040 20030 30109 40256 51017 61000 70262 885// 90900 333 ////=
07168,1996-03-05 12:00:00,6,1026,0.5,81,3,10000,11.112,,,300,,,,,,,,,,1,wg-a,,,,AAXX 05124 07168 02460 83006 10060 20030 30114 40260 51005 61000 70162 885// 91200 333 ////=
07168,1996-03-05 15:00:00,7,1025.6,-0.4,76,3,15000,11.112,,,290,,,,,,,,,,,wg-a,,,,AAXX 05154 07168 12565 72906 10070 20030 30110 40256 56004 60006 878// 91500=
07168,1996-03-05 18:00:00,5,1026.4,0.7,93,4,0,7.408,,,300,3.3,7.3,,,,,,,,,wg-a,,,,AAXX 05184 07168 32/// /3004 10050 20040 30117 40264 51007 91800 333 10073 20033=
07168,1996-03-06 00:00:00,3,1027,0,100,3,0,7.408,,,320,,,,,,,,,,,wg-a,,,,AAXX 06004 07168 12/// /3204 10030 20030 30122 40270 50000 60006 90000=
07168,1996-03-06 06:00:00,2,1026.6,-0.2,93,1,4000,18.52,,,10,2.3,5,,,,,,,,10,wg-a,,,,AAXX 06064 07168 02440 80110 10020 20010 30118 40266 57002 60006 71022 885// 90600 333 10050 20023 61000=
07168,1996-03-06 09:00:00,2,1027,0.3,87,0,6000,14.816,,,40,,,,,,,,,,,wg-a,,,,AAXX 06094 07168 12456 80408 10020 20000 30121 40270 51003 60006 888// 90900=
07168,1996-03-06 12:00:00,3,1026.2,-0.7,75,-1,10000,11.112,,,30,,,,,,,,,,,wg-a,,,,AAXX 06124 07168 12460 80306 10030 21010 30114 40262 56007 60006 888// 91200=
07168,1996-03-06 15:00:00,4,1024,-2.1,70,-1,12000,14.816,,,50,,,,,,,,,,,wg-a,,,,AAXX 06154 07168 12462 80508 10040 21010 30093 40240 56021 60006 888// 91500=
07168,1996-03-06 18:00:00,4,1023.4,-0.6,81,1,0,3.704,,,20,2,4.6,,,,,,,,,wg-a,,,,AAXX 06184 07168 12/// /0202 10040 20010 30087 40234 55006 60006 91800 333 10046 20020=
07168,1996-03-07 00:00:00,0,1020.5,-2.4,100,0,0,11.112,,,290,,,,,,,,,,,wg-a,,,,AAXX 07004 07168 12/// /2906 10000 20000 30056 40205 58024 60006 90000=
07168,1996-03-07 06:00:00,0,1015.8,-2.3,100,0,3000,7.408,,,300,-0.9,4,,,,,1,,,10,wg-a,,,,AAXX 07064 07168 12530 83004 10000 20000 30010 40158 56023 60014 71022 8757/ 90600 333 10040 21009=
07168,1996-03-07 09:00:00,0,1014.5,-1.3,100,0,800,3.704,,,300,,,,1,,,,,,70,wg-a,,,,AAXX 07094 07168 12108 83002 10000 20000 39997 40145 56013 60017 77076 877// 90900=
07168,1996-03-07 12:00:00,3,1013.9,-0.4,93,2,3000,3.704,,,90,,,,0,,,,,,60,wg-a,,,,AAXX 07124 07168 02230 80902 10030 20020 39993 40139 56004 60026 76076 877// 91200 333 60007=
07168,1996-03-07 15:00:00,5,1013.4,-0.4,81,2,8000,11.112,,,110,,,,,,,,,,2,wg-a,,,,AAXX 07154 07168 02458 71106 10050 20020 39989 40134 56004 61000 70262 878// 91500 333 ////=
07168,1996-03-07 18:00:00,3,1015.4,1.9,87,1,0,3.704,,,70,0.1,5.4,,,,,,,,,wg-a,,,,AAXX 07184 07168 32/// /0702 10030 20010 30008 40154 53019 91800 333 10054 20001=
07168,1996-03-08 00:00:00,1,1017.9,0.8,93,0,0,11.112,,,100,,,,,,,,,,,wg-a,,,,AAXX 08004 07168 12/// /1006 10010 20000 30031 40179 53008 60006 90000=
07168,1996-03-08 06:00:00,2,1019.4,0.8,80,-1,6000,11.112,,,110,0.7,3.2,,,,,2,,,,wg-a,,,,AAXX 08064 07168 02/56 71106 10020 21010 30046 40194 53008 60006 82032 90600 333 10032 20007 60024=
07168,1996-03-08 09:00:00,4,1019.8,0.5,81,1,6000,7.408,,,100,,,,,,,,,,,wg-a,,,,AAXX 08094 07168 12/56 51004 10040 20010 30051 40198 52005 60006 83032 90900=
07168,1996-03-08 12:00:00,10,1019.1,-0.4,57,2,0,11.112,,,110,,,,,,,,,,,wg-a,,,,AAXX 08124 07168 12/// 71106 10100 20020 30047 40191 58004 60006 8703/ 91200=
07168,1996-03-08 15:00:00,12,1017.2,-1.7,47,1,9000,14.816,,,80,,,,,,,,,,,wg-a,,,,AAXX 08154 07168 12/59 70808 10120 20010 30030 40172 58017 60006 8703/ 91500=
07168,1996-03-08 18:00:00,10,1017.6,0.3,57,2,0,14.816,,,100,1.6,12.3,,,,,,,,,wg-a,,,,AAXX 08184 07168 12/// /1008 10100 20020 30033 40176 53003 60006 91800 333 10123 20016=
07168,1996-03-09 00:00:00,2,1019.7,0.8,87,0,0,11.112,,,100,,,,,,,,,,,wg-a,,,,AAXX 09004 07168 12/// /1006 10020 20000 30050 40197 52008 60006 90000=
07168,1996-03-09 06:00:00,0,1020.6,0.6,86,-2,500,7.408,,,130,-0.3,9.6,,,,,,,,,wg-a,,,,AAXX 09064 07168 02/00 01304 10000 21020 30057 40206 53006 60006 80000 90600 333 10096 21003 60004=
07168,1996-03-09 09:00:00,6,1021,0.7,70,1,500,7.408,,,120,,,,,,,,,,,wg-a,,,,AAXX 09094 07168 12/00 01204 10060 20010 30064 40210 51007 60006 80000 90900=
07168,1996-03-09 18:00:00,10,1019.3,0.8,62,3,0,14.816,,,50,-1.6,14.4,,,,,,,,,wg-a,,,,AAXX 09184 07168 12/// /0508 10100 20030 30050 40193 53008 60006 91800 333 10144 21016=
07168,1996-03-10 00:00:00,3,1022,0.4,75,-1,0,3.704,,,20,,,,,,,,,,,wg-a,,,,AAXX 10004 07168 12/// /0202 10030 21010 30072 40220 50004 60006 90000=
07168,1996-03-10 12:00:00,6,1022.5,-0.7,61,-1,0,18.52,,,30,,,,,,,,,,,wg-a,,,,AAXX 10124 07168 12/// 00310 10060 21010 30079 40225 58007 60006 80000 91200=
07168,1996-03-11 12:00:00,6,1018.6,-1.8,45,-5,8000,7.408,,,20,,,,,,,,,,,wg-a,,,,AAXX 11124 07168 12/58 /0204 10060 21050 30041 40186 57018 60006 80001 91200=
07168,1996-03-12 00:00:00,-2,1015.3,-0.6,74,-6,0,14.816,,,70,,,,,,,,,,,wg-a,,,,AAXX 12004 07168 12/// /0708 11020 21060 30004 40153 57006 60006 90000=
07168,1996-03-12 06:00:00,-4,1014.9,-0.1,74,-8,8000,11.112,,,70,-4.4,2.4,,,,,,,,,wg-a,,,,AAXX 12064 07168 02/58 20706 11040 21080 39998 40149 55001 60006 80001 90600 333 10024 21044 60004=
07168,1996-03-12 09:00:00,-1,1014.7,0,64,-7,8000,18.52,,,80,,,,,,,,,,,wg-a,,,,AAXX 12094 07168 12/58 /0810 11010 21070 39998 40147 50000 60006 80001 90900=
07168,1996-03-12 12:00:00,2,1012.7,-1.8,44,-9,10000,18.52,,,80,,,,0,,,,,,,wg-a,,,,AAXX 12124 07168 02/60 20810 10020 21090 39980 40127 56018 60016 80001 91200 333 60007=
07168,1996-03-12 15:00:00,4,1010.4,-2.2,35,-10,12000,22.224,,,70,,,,,,,,,,,wg-a,,,,AAXX 12154 07168 12/62 00712 10040 21100 39958 40104 56022 60006 80000 91500=
07168,1996-03-13 06:00:00,-4,1009,-1.1,74,-8,7000,22.224,,,80,-4.3,0.6,,,,,,,,,wg-a,,,,AAXX 13064 07168 02/57 70812 11040 21080 39940 40090 57011 60006 86031 90600 333 10006 21043 60004=
07168,1996-03-13 09:00:00,-2,1008,-0.8,59,-9,7000,25.928,,,90,,,,,,,,,,,wg-a,,,,AAXX 13094 07168 12/57 70914 11020 21090 39932 40080 58008 60006 86031 90900=
07168,1996-03-13 12:00:00,3,1006.7,-1.1,35,-11,9000,25.928,,,80,,,,,,,,,,,wg-a,,,,AAXX 13124 07168 12/59 40814 10030 21110 39921 40067 58011 60006 81031 91200=
07168,1996-03-13 15:00:00,5,1004.5,-2,33,-10,10000,25.928,,,80,,,,,,,,,,,wg-a,,,,AAXX 13154 07168 12/60 70814 10050 21100 39901 40045 56020 60006 80001 91500=
07168,1996-03-14 00:00:00,-2,1005.1,-0.2,69,-7,0,11.112,,,90,,,,,,,,,,,wg-a,,,,AAXX 14004 07168 12/// /0906 11020 21070 39903 40051 58002 60006 90000=
07168,1996-03-14 06:00:00,-3,1004,-0.4,74,-7,500,3.704,,,90,-3.9,2,,,,,,,,,wg-a,,,,AAXX 14064 07168 02/00 30902 11030 21070 39892 40040 58004 60006 83030 90600 333 10020 21039 60004=
07168,1996-03-14 09:00:00,2,1004.3,0.5,64,-4,500,3.704,,,180,,,,,,,,,,,wg-a,,,,AAXX 14094 07168 12/00 /1802 10020 21040 39897 40043 51005 60006 82031 90900=
07168,1996-03-14 12:00:00,13,1003.5,-0.2,47,2,8000,7.408,,,130,,,,,,,,,,,wg-a,,,,AAXX 14124 07168 12/58 51304 10130 20020 39895 40035 58002 60006 83031 91200=
07168,1996-03-14 15:00:00,14,1002.8,-0.6,47,3,10000,7.408,,,360,,,,,,,,,,,wg-a,,,,AAXX 14154 07168 12760 73604 10140 20030 39889 40028 55006 60006 82531 91500=
07168,1996-03-15 00:00:00,7,1005.8,0.6,87,5,0,7.408,,,170,,,,,,,,,,,wg-a,,,,AAXX 15004 07168 12/// /1704 10070 20050 39915 40058 51006 60006 90000=
07168,1996-03-15 06:00:00,7,1005.9,0.3,76,3,3000,11.112,,,100,5.5,11.1,,,,,,,,10,wg-a,,,,AAXX 15064 07168 02/30 71006 10070 20030 39916 40059 53003 60006 71022 8703/ 90600 333 10111 20055 60004=
07168,1996-03-15 12:00:00,13,1005.6,-0.5,51,3,7000,7.408,,,150,,,,,,,,,,,wg-a,,,,AAXX 15124 07168 12857 /1504 10130 20030 39916 40056 58005 60006 83031 91200=
07168,1996-03-15 15:00:00,15,1004.3,-1.2,48,4,10000,14.816,,,50,,,,,,,,,,,wg-a,,,,AAXX 15154 07168 12860 50508 10150 20040 39904 40043 56012 60006 84031 91500=
07168,1996-03-16 00:00:00,5,1005.7,-0.1,65,-1,0,0,,,0,,,,,,,,,,,wg-a,,,,AAXX 16004 07168 12/// /0000 10050 21010 39913 40057 56001 60006 90000=
07168,1996-03-16 06:00:00,-1,1006.5,0.7,93,-2,500,7.408,,,310,-1,10.2,,,,,,,,,wg-a,,,,AAXX 16064 07168 02/00 33104 11010 21020 39918 40065 53007 60006 82031 90600 333 10102 21010 60004=
07168,1996-03-16 09:00:00,6,1007.4,1.2,65,0,500,0,,,0,,,,,,,,,,,wg-a,,,,AAXX 16094 07168 12/00 /0000 10060 20000 39930 40074 51012 60006 80001 90900=
07168,1996-03-16 12:00:00,11,1006.8,-0.3,50,1,6000,7.408,,,320,,,,,,,,,,,wg-a,,,,AAXX 16124 07168 12/56 03204 10110 20010 39927 40068 58003 60006 80000 91200=
07168,1996-03-16 15:00:00,14,1007.1,0.4,51,4,6000,22.224,,,280,,,,,,,,,,,wg-a,,,,AAXX 16154 07168 12/56 72812 10140 20040 39931 40071 53004 60006 83032 91500=
07168,1996-03-17 00:00:00,8,1013.4,1.4,81,5,0,22.224,,,310,,,,,,,,,,,wg-a,,,,AAXX 17004 07168 12/// /3112 10080 20050 39990 40134 51014 60006 90000=
07168,1996-03-17 06:00:00,6,1016.1,1.3,87,4,2000,7.408,,,320,5.7,9.6,,,,,,,,10,wg-a,,,,AAXX 17064 07168 02720 83204 10060 20040 30016 40161 52013 60006 71022 8357/ 90600 333 10096 20057 60004=
07168,1996-03-17 09:00:00,7,1016.9,0.9,81,4,4000,7.408,,,320,,,,,,,,,,10,wg-a,,,,AAXX 17094 07168 12740 83204 10070 20040 30025 40169 51009 60006 71022 8357/ 90900=
07168,1996-03-17 12:00:00,8,1017.5,0.6,76,4,500,14.816,,,320,,,,,,,,,,,wg-a,,,,AAXX 17124 07168 12600 83208 10080 20040 30031 40175 51006 60006 8557/ 91200=
07168,1996-03-17 15:00:00,8,1017.1,-0.4,76,4,500,3.704,,,30,,,,,,,,,,,wg-a,,,,AAXX 17154 07168 12600 80302 10080 20040 30027 40171 57004 60006 8557/ 91500=
07168,1996-03-17 18:00:00,8,1017.5,0.4,71,3,0,3.704,,,20,5.8,8.9,,,,,,,,,wg-a,,,,AAXX 17184 07168 12/// /0202 10080 20030 30031 40175 53004 60006 91800 333 10089 20058=
07168,1996-03-18 00:00:00,4,1018.3,0.2,93,3,0,7.408,,,90,,,,,,,,,,,wg-a,,,,AAXX 18004 07168 12/// /0904 10040 20030 30037 40183 52002 60006 90000=
07168,1996-03-18 06:00:00,3,1018.2,0.4,100,3,1000,0,,,0,3,7.7,,,,,,,,10,wg-a,,,,AAXX 18064 07168 02710 80000 10030 20030 30035 40182 53004 60006 71022 875// 90600 333 10077 20030 60004=
07168,1996-03-18 09:00:00,6,1018.7,0.7,87,4,2000,7.408,,,190,,,,,,,,,,21,wg-a,,,,AAXX 18094 07168 02/20 81904 10060 20040 30042 40187 52007 61000 72162 8703/ 90900 333 ////=
07168,1996-03-18 12:00:00,10,1018,-0.5,62,3,4500,3.704,,,300,,,,,,,,,,10,wg-a,,,,AAXX 18124 07168 02545 73002 10100 20030 30037 40180 58005 61000 71062 8217/ 91200 333 ////=
07168,1996-03-18 15:00:00,12,1016.8,-1.1,50,2,8000,3.704,,,250,,,,,,,,,,,wg-a,,,,AAXX 18154 07168 12658 52502 10120 20020 30026 40168 56011 60006 84230 91500=
07168,1996-03-18 18:00:00,10,1017.3,0.4,53,1,0,3.704,,,70,3.1,12.2,,,,,,,,,wg-a,,,,AAXX 18184 07168 32/// /0702 10100 20010 30030 40173 53004 91800 333 10122 20031=
07168,1996-03-19 00:00:00,0,1018.5,0.1,93,-1,0,0,,,0,,,,,,,,,,,wg-a,,,,AAXX 19004 07168 12/// /0000 10000 21010 30036 40185 52001 60006 90000=
07168,1996-03-19 06:00:00,-1,1017.6,-0.4,100,-1,4500,0,,,0,-1.1,10,,,,,,,,10,wg-a,,,,AAXX 19064 07168 02645 70000 11010 21010 30027 40176 55004 60006 71022 82530 90600 333 10100 21011 61000=
07168,1996-03-19 12:00:00,12,1015.1,-1.8,54,3,500,14.816,,,70,,,,,,,,,,,wg-a,,,,AAXX 19124 07168 12/00 30708 10120 20030 30009 40151 58018 60006 83030 91200=
07168,1996-03-19 15:00:00,13,1012.7,-2.3,41,0,7000,14.816,,,70,,,,,,,,,,,wg-a,,,,AAXX 19154 07168 12/57 30708 10130 20000 39986 40127 56023 60006 83030 91500=
07168,1996-03-19 18:00:00,10,1011.7,-1.1,53,1,0,7.408,,,40,-0.5,13.1,,,,,,,,,wg-a,,,,AAXX 19184 07168 12/// /0404 10100 20010 39975 40117 56011 60006 91800 333 10131 21005=
07168,1996-03-20 00:00:00,3,1010.9,-0.8,87,1,0,3.704,,,120,,,,,,,,,,,wg-a,,,,AAXX 20004 07168 12/// /1202 10030 20010 39963 40109 58008 60006 90000=
07168,1996-03-20 06:00:00,-1,1009.4,-0.6,93,-2,2000,3.704,,,140,-1.7,9.8,,,,,,,,10,wg-a,,,,AAXX 20064 07168 02/20 31402 11010 21020 39946 40094 58006 60006 71000 80001 90600 333 10098 21017 60004=
07168,1996-03-20 09:00:00,8,1009,0.1,71,3,2500,11.112,,,140,,,,,,,,,,10,wg-a,,,,AAXX 20094 07168 12/25 41406 10080 20030 39947 40090 50001 60006 71011 83031 90900=
07168,1996-03-20 12:00:00,12,1009.3,0.5,62,5,8000,22.224,,,260,,,,,,,,,,,wg-a,,,,AAXX 20124 07168 12/58 82612 10120 20050 39952 40093 53005 60006 8701/ 91200=
07168,1996-03-20 15:00:00,11,1009,-0.4,76,7,12000,14.816,,,170,,,,,,,,,,21,wg-a,,,,AAXX 20154 07168 02562 81708 10110 20070 39948 40090 58004 61000 72162 8753/ 91500 333 ////=
07168,1996-03-20 18:00:00,8,1009.7,0.6,81,5,0,7.408,,,160,-1.2,12.1,,,,,,,,,wg-a,,,,AAXX 20184 07168 32/// /1604 10080 20050 39954 40097 52006 91800 333 10121 21012=
07168,1996-03-21 00:00:00,3,1011.1,-0,100,3,0,11.112,,,160,,,,,,,,,,,wg-a,,,,AAXX 21004 07168 12/// /1606 10030 20030 39965 40111 55000 60006 90000=
07168,1996-03-21 06:00:00,6,1010.7,0.1,93,5,10000,7.408,,,140,3,8.5,,,,,,,,60,wg-a,,,,AAXX 21064 07168 02/60 81404 10060 20050 39963 40107 51001 60004 76062 8707/ 90600 333 10085 20030 61000=
07168,1996-03-21 09:00:00,8,1010.6,-0,87,6,9000,11.112,,,200,,,,0,,,,,,61,wg-a,,,,AAXX 21094 07168 12759 82006 10080 20060 39963 40106 55000 60007 76162 8457/ 90900=
07168,1996-03-21 12:00:00,11,1010.5,-0,87,9,12000,22.224,,,200,,,,2,,,,,,21,wg-a,,,,AAXX 21124 07168 02562 72012 10110 20090 39963 40105 55000 60026 72162 878// 91200 333 60027=
07168,1996-03-21 15:00:00,11,1010.6,0.1,71,6,3000,25.928,,48.152,240,,,,1,,,,,,81,wg-a,,,,AAXX 21154 07168 12630 72414 10110 20060 39964 40106 53001 60017 78186 84802 91500 333 91026=
07168,1996-03-21 18:00:00,9,1011.9,1.2,87,7,0,7.408,,,300,6.4,14.3,,,,,,,,,wg-a,,,,AAXX 21184 07168 32/// /3004 10090 20070 39976 40119 53012 91800 333 10143 20064=
07168,1996-03-22 00:00:00,4,1014.6,1.1,93,3,0,3.704,,,190,,,,,,,,,,,wg-a,,,,AAXX 22004 07168 12/// /1902 10040 20030 30000 40146 51011 60006 90000=
07168,1996-03-22 06:00:00,6,1016.1,1.2,93,5,20000,7.408,,,210,3.7,9.2,,,,,4,,,,wg-a,,,,AAXX 22064 07168 02570 72104 10060 20050 30016 40161 53012 60006 8353/ 90600 333 10092 20037 60044=
07168,1996-03-22 09:00:00,9,1017.2,1.3,87,7,15000,3.704,,,150,,,,,,,,,,,wg-a,,,,AAXX 22094 07168 12465 81502 10090 20070 30029 40172 52013 60006 8553/ 90900=
07168,1996-03-22 12:00:00,11,1017.4,0.3,82,8,15000,14.816,,,200,,,,,,,,,,60,wg-a,,,,AAXX 22124 07168 02565 82008 10110 20080 30032 40174 50003 61000 76062 8583/ 91200 333 6100=
07168,1996-03-22 15:00:00,10,1016.6,-0.9,87,8,20000,14.816,,,170,,,,0,,,,,,2,wg-a,,,,AAXX 22154 07168 12570 81708 10100 20080 30023 40166 58009 60007 70262 845// 91500=
07168,1996-03-22 18:00:00,10,1015.9,-0.7,93,9,0,11.112,,,140,5.7,11.4,,,,,,,,,wg-a,,,,AAXX 22184 07168 32/// /1406 10100 20090 30016 40159 58007 91800 333 10114 20057=
07168,1996-03-23 00:00:00,11,1016.9,0.6,87,9,0,7.408,,,170,,,,,,,,,,,wg-a,,,,AAXX 23004 07168 12/// /1704 10110 20090 30027 40169 53006 60006 90000=
07168,1996-03-23 06:00:00,5,1018.4,1.1,100,5,300,3.704,,,90,4.5,11.2,,,,,1,,,44,wg-a,,,,AAXX 23064 07168 12/03 40902 10050 20050 30038 40184 53011 60014 74440 80001 90600 333 10112 20045=
07168,1996-03-23 09:00:00,13,1018.1,0.2,88,11,9000,7.408,,,180,,,,,,,,,,2,wg-a,,,,AAXX 23094 07168 12/59 41804 10130 20110 30040 40181 52002 60006 70240 80001 90900=
07168,1996-03-23 12:00:00,20,1016.7,-1.1,56,11,12000,3.704,,,150,,,,,,,,,,2,wg-a,,,,AAXX 23124 07168 12662 41502 10200 20110 30029 40167 58011 60006 70241 81101 91200=
07168,1996-03-23 15:00:00,20,1015.1,-1.6,53,10,20000,7.408,,,40,,,,,,,,,,,wg-a,,,,AAXX 23154 07168 12670 50404 10200 20100 30013 40151 56016 60006 81101 91500=
07168,1996-03-23 18:00:00,17,1015.2,-0,72,12,0,7.408,,,40,4.5,21.8,,,,,,,,,wg-a,,,,AAXX 23184 07168 12/// /0404 10170 20120 30013 40152 55000 60006 91800 333 10218 20045=
07168,1996-03-24 00:00:00,9,1016.8,0.4,93,8,0,11.112,,,300,,,,,,,,,,,wg-a,,,,AAXX 24004 07168 12/// /3006 10090 20080 30024 40168 53004 60006 90000=
07168,1996-03-24 06:00:00,5,1018.1,1.4,100,5,100,3.704,,,280,4.4,16.9,,0,,,,,,42,wg-a,,,,AAXX 24064 07168 02/01 /2802 10050 20050 30035 40181 52014 60004 74242 80001 90600 333 10169 20044 60007=
07168,1996-03-24 09:00:00,10,1018.9,1.1,100,10,2500,3.704,,,140,,,,,,,,,,10,wg-a,,,,AAXX 24094 07168 12/25 31402 10100 20100 30046 40189 52011 60006 71041 80001 90900=
07168,1996-03-24 12:00:00,18,1018.4,-0.1,64,11,9000,11.112,,,50,,,,,,,,,,2,wg-a,,,,AAXX 24124 07168 12/59 /0506 10180 20110 30045 40184 58001 60006 70241 80001 91200=
07168,1996-03-24 15:00:00,20,1017.1,-1.2,60,12,10000,14.816,,,50,,,,,,,,,,,wg-a,,,,AAXX 24154 07168 12/60 50508 10200 20120 30033 40171 56012 60006 80001 91500=
07168,1996-03-25 00:00:00,12,1016.5,-0.8,88,10,0,7.408,,,110,,,,,,,,,,,wg-a,,,,AAXX 25004 07168 12/// /1104 10120 20100 30023 40165 57008 60006 90000=
07168,1996-03-25 09:00:00,12,1014.1,-0.4,88,10,6000,14.816,,,100,,,,,,,,,,21,wg-a,,,,AAXX 25094 07168 02/56 71008 10120 20100 30000 40141 56004 61000 72162 85072 90900 333 ////=
07168,1996-03-25 12:00:00,18,1012.9,-0.9,59,10,10000,7.408,,,140,,,,,,,,,,2,wg-a,,,,AAXX 25124 07168 02/60 41404 10180 20100 39991 40129 58009 61000 70261 83031 91200 333 ////=
07168,1996-03-25 15:00:00,19,1012.5,-0.4,68,13,16000,11.112,,,270,,,,,,,,,,,wg-a,,,,AAXX 25154 07168 12666 72706 10190 20130 39987 40125 56004 60006 8223/ 91500=
07168,1996-03-25 18:00:00,17,1012.9,0.3,72,12,0,3.704,,,320,10.3,19.6,,,,,,,,,wg-a,,,,AAXX 25184 07168 32/// /3202 10170 20120 39990 40129 53003 91800 333 10196 20103=
07168,1996-03-26 00:00:00,13,1012.6,-0.5,88,11,0,14.816,,,250,,,,,,,,,,,wg-a,,,,AAXX 26004 07168 12/// /2508 10130 20110 39985 40126 58005 60006 90000=
07168,1996-03-26 06:00:00,10,1011.7,-0.2,93,9,500,14.816,,,280,9.7,16.8,,,,,,,,,wg-a,,,,AAXX 26064 07168 02300 /2808 10100 20090 39975 40117 57002 60006 82632 90600 333 10168 20097 61000=
07168,1996-03-26 09:00:00,14,1011.3,-0.2,82,11,6000,11.112,,,320,,,,,,,,,,,wg-a,,,,AAXX 26094 07168 12456 /3206 10140 20110 39973 40113 56002 60006 86200 90900=
07168,1996-03-26 12:00:00,14,1010.5,-0.8,82,11,500,22.224,,,320,,,,,,,,,,,wg-a,,,,AAXX 26124 07168 12400 53212 10140 20110 39965 40105 58008 60006 84202 91200=
07168,1996-03-26 15:00:00,14,1009.6,-0.9,77,10,6000,25.928,,,320,,,,,,,,,,,wg-a,,,,AAXX 26154 07168 12456 73214 10140 20100 39956 40096 56009 60006 86202 91500=
07168,1996-03-26 18:00:00,10,1010.9,1.1,87,8,0,22.224,,,350,9.6,15.4,,,,,,,,,wg-a,,,,AAXX 26184 07168 12/// /3512 10100 20080 39967 40109 53011 60006 91800 333 10154 20096=
07168,1996-03-27 00:00:00,4,1014.5,1.5,87,2,0,22.224,,,10,,,,,,,,,,,wg-a,,,,AAXX 27004 07168 12/// /0112 10040 20020 39999 40145 51015 60006 90000=
07168,1996-03-27 06:00:00,2,1017.5,2,75,-2,8000,22.224,,,10,1.8,9.6,,,,,,,,,wg-a,,,,AAXX 27064 07168 02558 80112 10020 21020 30028 40175 53020 60006 8257/ 90600 333 10096 20018 60004=
07168,1996-03-27 09:00:00,3,1018.7,1.2,65,-3,15000,22.224,,,30,,,,,,,,,,,wg-a,,,,AAXX 27094 07168 12565 40312 10030 21030 30040 40187 51012 60006 81101 90900=
07168,1996-03-27 12:00:00,6,1019.3,0.7,56,-2,16000,22.224,,,40,,,,,,,,,,,wg-a,,,,AAXX 27124 07168 12666 /0412 10060 21020 30047 40193 51007 60006 85101 91200=
07168,1996-03-27 15:00:00,7,1018.9,-0.3,53,-2,15000,14.816,,,60,,,,,,,,,,,wg-a,,,,AAXX 27154 07168 12665 50608 10070 21020 30044 40189 58003 60006 84101 91500=
07168,1996-03-27 18:00:00,5,1019.4,0.4,56,-3,0,14.816,,,30,1,7.2,,,,,,,,,wg-a,,,,AAXX 27184 07168 12/// /0308 10050 21030 30048 40194 53004 60006 91800 333 10072 20010=
07168,1996-03-28 00:00:00,-3,1020.2,-0.5,86,-5,0,11.112,,,320,,,,,,,,,,,wg-a,,,,AAXX 28004 07168 12/// /3206 11030 21050 30052 40202 58005 60006 90000=
07168,1996-03-28 06:00:00,-5,1019.2,0.1,93,-6,9000,11.112,,,290,-5,5.3,,,,,,,,,wg-a,,,,AAXX 28064 07168 02/59 /2906 11050 21060 30041 40192 53001 60006 80001 90600 333 10053 21050 60004=
07168,1996-03-28 09:00:00,4,1018.6,-0.1,65,-2,10000,3.704,,,330,,,,,,,,,,,wg-a,,,,AAXX 28094 07168 12/60 33302 10040 21020 30040 40186 58001 60006 80001 90900=
07168,1996-03-28 12:00:00,8,1016.6,-1.8,36,-6,18000,11.112,,,240,,,,,,,,,,,wg-a,,,,AAXX 28124 07168 12/68 62406 10080 21060 30022 40166 58018 60006 80001 91200=
07168,1996-03-28 15:00:00,9,1014.9,-1.6,43,-3,18000,18.52,,,300,,,,,,,,,,,wg-a,,,,AAXX 28154 07168 12/68 43010 10090 21030 30006 40149 56016 60006 80001 91500=
07168,1996-03-28 18:00:00,5,1015.2,0.1,52,-4,0,14.816,,,290,-4.6,9.9,,,,,,,,,wg-a,,,,AAXX 28184 07168 12/// /2908 10050 21040 30007 40152 53001 60006 91800 333 10099 21046=
07168,1996-03-29 06:00:00,2,1016.7,0.6,87,0,500,14.816,,,290,-0.6,5.1,,0,,,,,,1,wg-a,,,,AAXX 29064 07168 02400 82908 10020 20000 30020 40167 53006 60004 70176 875// 90600 333 10051 21006 60007=
07168,1996-03-29 12:00:00,8,1016.6,-0.5,53,-1,12000,7.408,,,280,,,,,,,,,,,wg-a,,,,AAXX 29124 07168 12662 72804 10080 21010 30022 40166 58005 60006 858// 91200=
07168,1996-03-29 15:00:00,8,1015.1,-1.5,57,0,12000,11.112,,,280,,,,,,,,,,,wg-a,,,,AAXX 29154 07168 12662 72806 10080 20000 30007 40151 56015 60006 878// 91500=
07168,1996-03-29 18:00:00,6,1014.7,-0.5,65,0,0,11.112,,,290,2.1,8.5,,,,,,,,,wg-a,,,,AAXX 29184 07168 12/// /2906 10060 20000 30002 40147 55005 60006 91800 333 10085 20021=
07168,1996-03-30 00:00:00,0,1015.4,-0.1,93,-1,0,3.704,,,320,,,,,,,,,,,wg-a,,,,AAXX 30004 07168 12/// /3202 10000 21010 30006 40154 57001 60006 90000=
07168,1996-03-30 06:00:00,-2,1015.5,0.4,100,-2,500,14.816,,,300,-3.1,6.2,,,,,,,,,wg-a,,,,AAXX 30064 07168 02200 43008 11020 21020 30006 40155 53004 60006 82530 90600 333 10062 21031 60004=
07168,1996-03-30 09:00:00,5,1016,0.8,70,0,8000,14.816,,,30,,,,,,,,,,,wg-a,,,,AAXX 30094 07168 12458 50308 10050 20000 30014 40160 52008 60006 84230 90900=
07168,1996-03-30 12:00:00,5,1016.5,0.6,70,0,12000,14.816,,,340,,,,,,,,,,,wg-a,,,,AAXX 30124 07168 12562 73408 10050 20000 30020 40165 51006 60006 858// 91200=
07168,1996-03-30 18:00:00,5,1017.7,1.6,56,-3,0,14.816,,,10,-1.9,7.9,,,,,,,,,wg-a,,,,AAXX 30184 07168 12/// /0108 10050 21030 30031 40177 53016 60006 91800 333 10079 21019=
07168,1996-03-31 00:00:00,-3,1019.8,0.5,86,-5,0,11.112,,,300,,,,,,,,,,,wg-a,,,,AAXX 31004 07168 12/// /3006 11030 21050 30048 40198 51005 60006 90000=
07168,1996-03-31 06:00:00,-5,1019.8,0.1,93,-6,12000,7.408,,,330,-5.8,4.8,,,,,,,,,wg-a,,,,AAXX 31064 07168 02/62 23304 11050 21060 30046 40198 53001 60006 81031 90600 333 10048 21058 60004=
07168,1996-03-31 09:00:00,3,1019.2,-0.1,70,-2,10000,3.704,,,60,,,,,,,,,,,wg-a,,,,AAXX 31094 07168 12460 /0602 10030 21020 30045 40192 58001 60006 81102 90900=
07168,1996-03-31 12:00:00,6,1017.6,-1.4,56,-2,15000,3.704,,,50,,,,,,,,,,,wg-a,,,,AAXX 31124 07168 12665 70502 10060 21020 30031 40176 58014 60006 82102 91200=
07168,1996-03-31 15:00:00,7,1015.3,-2.3,45,-4,20000,7.408,,,360,,,,,,,,,,,wg-a,,,,AAXX 31154 07168 12670 73604 10070 21040 30008 40153 57023 60006 84532 91500=
07168,1996-03-31 18:00:00,5,1014.6,-0.7,56,-3,0,7.408,,,20,-4.9,7.7,,,,,,,,,wg-a,,,,AAXX 31184 07168 12/// /0204 10050 21030 30001 40146 57007 60006 91800 333 10077 21049=
07168,1996-04-01 00:00:00,-2,1013,-1.2,86,-4,0,0,,,0,,,,,,,,,,,wg-a,,,,AAXX 01004 07168 12/// /0000 11020 21040 39981 40130 56012 60006 90000=
07168,1996-04-01 06:00:00,-3,1010.6,-0.6,93,-4,6000,3.704,,,330,-4.5,5.1,,,,,,,,,wg-a,,,,AAXX 01064 07168 02/56 /3302 11030 21040 39957 40106 55006 60006 80002 90600 333 10051 21045 60004=
07168,1996-04-01 09:00:00,4,1009.5,-0.7,75,0,8000,18.52,,,80,,,,0,,,,,,,wg-a,,,,AAXX 01094 07168 12458 /0810 10040 20000 39950 40095 58007 60007 81101 90900=
07168,1996-04-01 12:00:00,7,1007.8,-1.5,53,-2,12000,25.928,,,50,,,,,,,,,,,wg-a,,,,AAXX 01124 07168 12662 /0514 10070 21020 39935 40078 58015 60006 82101 91200=
07168,1996-04-01 15:00:00,8,1006.3,-1.5,46,-3,18000,25.928,,,50,,,,,,,,,,,wg-a,,,,AAXX 01154 07168 12668 70514 10080 21030 39920 40063 58015 60006 81101 91500=
07168,1996-04-02 00:00:00,0,1011.3,1.3,64,-6,0,14.816,,,20,,,,,,,,,,,wg-a,,,,AAXX 02004 07168 12/// /0208 10000 21060 39965 40113 52013 60006 90000=
07168,1996-04-02 06:00:00,-2,1014.9,2.3,80,-5,6000,14.816,,,20,-2.4,6.3,,,,,,,,,wg-a,,,,AAXX 02064 07168 02/56 00208 11020 21050 30000 40149 53023 60006 80000 90600 333 10063 21024 60004=
07168,1996-04-02 09:00:00,3,1016.8,2.1,56,-5,8000,18.52,,,20,,,,,,,,,,,wg-a,,,,AAXX 02094 07168 12/58 00210 10030 21050 30021 40168 51021 60006 80000 90900=
07168,1996-04-02 12:00:00,6,1017.2,0.6,42,-6,10000,22.224,,,360,,,,,,,,,,,wg-a,,,,AAXX 02124 07168 12660 /3612 10060 21060 30027 40172 51006 60006 81100 91200=
07168,1996-04-02 15:00:00,7,1017.2,0,33,-8,10000,25.928,,,10,,,,,,,,,,,wg-a,,,,AAXX 02154 07168 12760 10114 10070 21080 30027 40172 50000 60006 81500 91500=
07168,1996-04-02 18:00:00,5,1019,1.7,41,-7,0,18.52,,,20,-2,7.5,,,,,,,,,wg-a,,,,AAXX 02184 07168 12/// /0210 10050 21070 30044 40190 53017 60006 91800 333 10075 21020=
07168,1996-04-03 00:00:00,-1,1021.5,0.3,69,-6,0,14.816,,,340,,,,,,,,,,,wg-a,,,,AAXX 03004 07168 12/// /3408 11010 21060 30065 40215 53003 60006 90000=
07168,1996-04-03 06:00:00,-2,1022.7,1,80,-5,6000,14.816,,,350,-3.9,5.1,,,,,,,,,wg-a,,,,AAXX 03064 07168 02/56 03508 11020 21050 30077 40227 53010 60006 80000 90600 333 10051 21039 60004=
07168,1996-04-03 09:00:00,3,1023.7,1.2,65,-3,6000,18.52,,,30,,,,,,,,,,,wg-a,,,,AAXX 03094 07168 12/56 00310 10030 21030 30089 40237 51012 60006 80000 90900=
07168,1996-04-03 12:00:00,7,1023.3,-0.2,42,-5,9000,25.928,,,40,,,,,,,,,,,wg-a,,,,AAXX 03124 07168 12659 /0414 10070 21050 30087 40233 58002 60006 86100 91200=
07168,1996-04-03 15:00:00,8,1023.3,0.1,34,-7,10000,22.224,,,20,,,,,,,,,,,wg-a,,,,AAXX 03154 07168 12760 20212 10080 21070 30088 40233 51001 60006 82100 91500=
07168,1996-04-03 18:00:00,6,1024.6,1.2,39,-7,0,14.816,,,20,-1.9,8.5,,,,,,,,,wg-a,,,,AAXX 03184 07168 12/// /0208 10060 21070 30100 40246 51012 60006 91800 333 10085 21019=
07168,1996-04-04 00:00:00,1,1026.7,0.4,64,-5,0,14.816,,,10,,,,,,,,,,,wg-a,,,,AAXX 04004 07168 12/// /0108 10010 21050 30117 40267 51004 60006 90000=
07168,1996-04-04 06:00:00,-3,1027.3,0.1,86,-5,500,14.816,,,310,-3.6,6.3,,,,,,,,,wg-a,,,,AAXX 04064 07168 02/00 /3108 11030 21050 30121 40273 53001 60006 80001 90600 333 10063 21036 60004=
07168,1996-04-04 09:00:00,4,1026.1,-0.8,65,-2,6000,11.112,,,40,,,,,,,,,,,wg-a,,,,AAXX 04094 07168 12/56 /0406 10040 21020 30113 40261 58008 60006 80001 90900=
07168,1996-04-04 12:00:00,6,1025.1,-0.8,56,-2,8000,11.112,,,50,,,,,,,,,,,wg-a,,,,AAXX 04124 07168 12658 80506 10060 21020 30105 40251 58008 60006 82132 91200=
07168,1996-04-04 15:00:00,6,1024.2,-0.9,56,-2,8000,18.52,,,50,,,,,,,,,,,wg-a,,,,AAXX 04154 07168 12658 80510 10060 21020 30096 40242 56009 60006 8253/ 91500=
07168,1996-04-04 18:00:00,5,1024.3,-0,65,-1,0,11.112,,,70,-3,6.5,,,,,,,,,wg-a,,,,AAXX 04184 07168 12/// /0706 10050 21010 30096 40243 54000 60006 91800 333 10065 21030=
07168,1996-04-05 00:00:00,4,1022.6,-1.3,81,1,0,14.816,,,50,,,,,,,,,,,wg-a,,,,AAXX 05004 07168 12/// /0508 10040 20010 30079 40226 56013 60006 90000=
07168,1996-04-05 06:00:00,3,1020.2,-0.6,75,-1,7000,11.112,,,70,2.9,5.2,,,,,,,,,wg-a,,,,AAXX 05064 07168 02657 70706 10030 21010 30055 40202 55006 60006 875// 90600 333 10052 20029 60004=
07168,1996-04-05 09:00:00,6,1019,-1,65,0,8000,18.52,,,80,,,,,,,,,,,wg-a,,,,AAXX 05094 07168 12558 40810 10060 20000 30045 40190 58010 60006 81101 90900=
07168,1996-04-05 12:00:00,8,1017,-1.9,53,-1,10000,18.52,,,70,,,,,,,,,,,wg-a,,,,AAXX 05124 07168 12660 70710 10080 21010 30026 40170 58019 60006 875// 91200=
07168,1996-04-05 15:00:00,7,1016.2,-0.8,66,1,12000,22.224,,,60,,,,,,,,,,,wg-a,,,,AAXX 05154 07168 12562 70612 10070 20010 30018 40162 58008 60006 878// 91500=
07168,1996-04-05 18:00:00,6,1015.9,-0.4,70,1,0,14.816,,,50,2.9,7.8,,,,,,,,,wg-a,,,,AAXX 05184 07168 12/// /0508 10060 20010 30014 40159 58004 60006 91800 333 10078 20029=
07168,1996-04-06 00:00:00,1,1016.2,-0.2,86,-1,0,3.704,,,50,,,,,,,,,,,wg-a,,,,AAXX 06004 07168 12/// /0502 10010 21010 30014 40162 57002 60006 90000=
07168,1996-04-06 06:00:00,-2,1016.5,0.4,93,-3,3000,3.704,,,140,-4.2,5.6,,,,,,,,10,wg-a,,,,AAXX 06064 07168 02/30 01402 11020 21030 30015 40165 53004 60006 71000 80000 90600 333 10056 21042 60004=
07168,1996-04-06 09:00:00,8,1016.3,0.4,61,1,6000,0,,,0,,,,,,,,,,,wg-a,,,,AAXX 06094 07168 12/56 00000 10080 20010 30019 40163 51004 60006 80000 90900=
07168,1996-04-06 12:00:00,16,1015.1,-0.8,39,2,10000,11.112,,,160,,,,,,,,,,,wg-a,,,,AAXX 06124 07168 12/60 01606 10160 20020 30011 40151 58008 60006 80000 91200=
07168,1996-04-06 15:00:00,18,1014.2,-0.8,34,2,15000,18.52,,,240,,,,,,,,,,,wg-a,,,,AAXX 06154 07168 12765 12410 10180 20020 30003 40142 57008 60006 81101 91500=
07168,1996-04-06 18:00:00,12,1015.6,1.1,62,5,0,7.408,,,340,-2.2,18.5,,,,,,,,,wg-a,,,,AAXX 06184 07168 12/// /3404 10120 20050 30014 40156 53011 60006 91800 333 10185 21022=
07168,1996-04-07 00:00:00,4,1018.6,0.8,87,2,0,18.52,,,290,,,,,,,,,,,wg-a,,,,AAXX 07004 07168 12/// /2910 10040 20020 30039 40186 51008 60006 90000=
07168,1996-04-07 06:00:00,0,1020.5,1.3,93,-1,3000,7.408,,,340,0.1,11.7,,,,,,,,10,wg-a,,,,AAXX 07064 07168 02730 23404 10000 21010 30056 40205 53013 60006 71000 82500 90600 333 10117 20001 60004=
07168,1996-04-07 09:00:00,10,1021.3,1.3,71,5,500,7.408,,,350,,,,,,,,,,,wg-a,,,,AAXX 07094 07168 12/00 03504 10100 20050 30069 40213 51013 60006 80000 90900=
07168,1996-04-07 12:00:00,14,1021.1,0,51,4,6000,7.408,,,10,,,,,,,,,,,wg-a,,,,AAXX 07124 07168 12/56 00104 10140 20040 30069 40211 50000 60006 80000 91200=
07168,1996-04-07 15:00:00,15,1020.7,-0.3,48,4,6000,11.112,,,300,,,,,,,,,,,wg-a,,,,AAXX 07154 07168 12656 23006 10150 20040 30066 40207 56003 60006 82200 91500=
07168,1996-04-07 18:00:00,11,1021.7,0.8,66,5,0,11.112,,,330,0,15.6,,,,,,,,,wg-a,,,,AAXX 07184 07168 12/// /3306 10110 20050 30074 40217 53008 60006 91800 333 10156 20000=
07168,1996-04-08 00:00:00,3,1025.7,1.2,93,2,0,0,,,0,,,,,,,,,,,wg-a,,,,AAXX 08004 07168 12/// /0000 10030 20020 30109 40257 51012 60006 90000=
07168,1996-04-08 06:00:00,6,1026.9,1.1,93,5,2500,11.112,,,290,2.5,11,,,,,,,,10,wg-a,,,,AAXX 08064 07168 02725 82906 10060 20050 30123 40269 53011 60006 71022 885// 90600 333 10110 20025 60004=
07168,1996-04-08 09:00:00,8,1028.5,1.6,81,5,3000,11.112,,,320,,,,,,,,,,10,wg-a,,,,AAXX 08094 07168 12430 83206 10080 20050 30139 40285 52016 60006 71022 888// 90900=
07168,1996-04-08 12:00:00,8,1029,0.5,76,4,4500,11.112,,,350,,,,,,,,,,10,wg-a,,,,AAXX 08124 07168 12445 83506 10080 20040 30144 40290 51005 60006 71022 888// 91200=
07168,1996-04-08 15:00:00,11,1028.2,-0.6,66,5,6000,7.408,,,330,,,,,,,,,,,wg-a,,,,AAXX 08154 07168 12556 73304 10110 20050 30138 40282 57006 60006 878// 91500=
07168,1996-04-08 18:00:00,10,1028.4,0.2,71,5,0,3.704,,,10,6.2,11,,,,,,,,,wg-a,,,,AAXX 08184 07168 12/// /0102 10100 20050 30140 40284 52002 60006 91800 333 10110 20062=
07168,1996-04-09 06:00:00,8,1028.1,-0.1,87,6,3500,3.704,,,310,7.1,10.4,,,,,,,,10,wg-a,,,,AAXX 09064 07168 02735 83102 10080 20060 30135 40281 55001 60006 71022 885// 90600 333 10104 20071 60004=
07168,1996-04-09 09:00:00,10,1028,0.1,76,6,4500,3.704,,,100,,,,,,,,,,10,wg-a,,,,AAXX 09094 07168 12645 81002 10100 20060 30136 40280 53001 60006 71022 885// 90900=
07168,1996-04-09 12:00:00,13,1026.7,-1.2,51,3,9000,7.408,,,20,,,,,,,,,,,wg-a,,,,AAXX 09124 07168 12659 70204 10130 20030 30124 40267 57012 60006 875// 91200=
07168,1996-04-09 15:00:00,15,1024.7,-1.9,44,3,9000,3.704,,,10,,,,,,,,,,,wg-a,,,,AAXX 09154 07168 12659 40102 10150 20030 30105 40247 57019 60006 84500 91500=
07168,1996-04-09 18:00:00,12,1023.7,-1.1,67,6,0,3.704,,,210,7.4,14.7,,,,,,,,,wg-a,,,,AAXX 09184 07168 12/// /2102 10120 20060 30094 40237 56011 60006 91800 333 10147 20074=
07168,1996-04-10 00:00:00,2,1023.3,-0.6,93,1,0,0,,,0,,,,,,,,,,,wg-a,,,,AAXX 10004 07168 12/// /0000 10020 20010 30085 40233 58006 60006 90000=
07168,1996-04-10 06:00:00,0,1021.2,-0.6,93,-1,4000,0,,,0,-1.2,11.8,,,,,,,,10,wg-a,,,,AAXX 10064 07168 02/40 /0000 10000 21010 30063 40212 56006 60006 71000 80001 90600 333 10118 21012 60004=
07168,1996-04-10 09:00:00,11,1020.1,-0.5,66,5,500,0,,,0,,,,,,,,,,,wg-a,,,,AAXX 10094 07168 12/00 /0000 10110 20050 30058 40201 58005 60006 80004 90900=
07168,1996-04-10 12:00:00,14,1018.7,-1.2,55,5,6000,7.408,,,330,,,,,,,,,,,wg-a,,,,AAXX 10124 07168 12/56 83304 10140 20050 30046 40187 58012 60006 81037 91200=
07168,1996-04-10 15:00:00,15,1016.9,-1.7,51,5,8000,7.408,,,320,,,,,,,,,,,wg-a,,,,AAXX 10154 07168 12/58 83204 10150 20050 30029 40169 56017 60006 85017 91500=
07168,1996-04-10 18:00:00,12,1017.3,0.2,82,9,0,7.408,,,300,-0.2,16.2,,,,,,,,,wg-a,,,,AAXX 10184 07168 12/// /3004 10120 20090 30031 40173 53002 60006 91800 333 10162 21002=
07168,1996-04-11 00:00:00,9,1016.7,-0.6,87,7,0,3.704,,,300,,,,,,,,,,,wg-a,,,,AAXX 11004 07168 12/// /3002 10090 20070 30023 40167 58006 60016 90000=
07168,1996-04-11 06:00:00,8,1016.4,0.1,93,7,2500,3.704,,,340,6.7,12.4,,,,,,,,10,wg-a,,,,AAXX 11064 07168 12725 73402 10080 20070 30020 40164 53001 60004 71022 8753/ 90600 333 10124 20067=
07168,1996-04-11 09:00:00,12,1016.5,0.3,76,8,3000,18.52,,,300,,,,,,,,,,10,wg-a,,,,AAXX 11094 07168 12730 43010 10120 20080 30023 40165 52003 60006 71011 84500 90900=
07168,1996-04-11 12:00:00,13,1015.5,-0.9,72,8,3500,7.408,,,330,,,,0,,,,,,25,wg-a,,,,AAXX 11124 07168 02535 /3304 10130 20080 30014 40155 57009 60006 72586 85200 91200 333 60007=
07168,1996-04-11 15:00:00,17,1013.9,-1.4,45,5,18000,18.52,,,310,,,,,,,,,,,wg-a,,,,AAXX 11154 07168 12668 33110 10170 20050 30000 40139 57014 60006 82201 91500=
07168,1996-04-11 18:00:00,14,1014.2,0.1,58,6,0,7.408,,,20,7.5,17,,,,,,,,,wg-a,,,,AAXX 11184 07168 32/// /0204 10140 20060 30001 40142 52001 91800 333 10170 20075=
07168,1996-04-12 00:00:00,5,1015.5,-0.2,93,4,0,11.112,,,300,,,,,,,,,,,wg-a,,,,AAXX 12004 07168 12/// /3006 10050 20040 30010 40155 58002 60006 90000=
07168,1996-04-12 06:00:00,5,1015.6,0.3,100,5,200,3.704,,,340,2.6,14,,,,,,,,44,wg-a,,,,AAXX 12064 07168 02102 83402 10050 20050 30011 40156 53003 60006 74441 886// 90600 333 10140 20026 60004=
07168,1996-04-12 09:00:00,7,1015.6,0.1,100,7,600,3.704,,,320,,,,,,,,,,42,wg-a,,,,AAXX 12094 07168 12106 83202 10070 20070 30012 40156 51001 60006 74244 886// 90900=
07168,1996-04-12 12:00:00,10,1015.2,-0.3,87,8,2500,7.408,,,310,,,,,,,,,,10,wg-a,,,,AAXX 12124 07168 12425 /3104 10100 20080 30009 40152 58003 60006 71042 86600 91200=
07168,1996-04-12 15:00:00,14,1013.4,-1.5,63,7,500,7.408,,,350,,,,,,,,,,,wg-a,,,,AAXX 12154 07168 12500 43504 10140 20070 39994 40134 56015 60006 82201 91500=
07168,1996-04-12 18:00:00,12,1013.4,-0.1,62,5,0,3.704,,,20,5.3,14.6,,,,,,,,,wg-a,,,,AAXX 12184 07168 12/// /0202 10120 20050 39993 40134 55001 60006 91800 333 10146 20053=
07168,1996-04-13 06:00:00,6,1015.8,1.1,93,5,1000,11.112,,,70,5.6,12.4,,1,,,3,,,10,wg-a,,,,AAXX 13064 07168 02310 80706 10060 20050 30013 40158 53011 60034 71064 887// 90600 333 10124 20056 60017=
07168,1996-04-13 09:00:00,7,1016.8,1,93,6,2000,14.816,,,90,,,,,,,,,,10,wg-a,,,,AAXX 13094 07168 02320 80908 10070 20060 30023 40168 52010 61000 71062 887// 90900 333 ////=
07168,1996-04-13 12:00:00,8,1017.1,0.4,87,6,500,14.816,,,70,,,,,,,,,,1,wg-a,,,,AAXX 13124 07168 02400 80708 10080 20060 30027 40171 51004 61000 70162 885// 91200 333 ////=
07168,1996-04-13 15:00:00,9,1017,-0,81,6,8000,14.816,,,70,,,,,,,,,,,wg-a,,,,AAXX 13154 07168 12458 70708 10090 20060 30027 40170 55000 60006 878// 91500=
07168,1996-04-13 18:00:00,9,1017.7,0.6,81,6,0,7.408,,,50,5.6,9.6,,,,,,,,,wg-a,,,,AAXX 13184 07168 32/// /0504 10090 20060 30033 40177 53006 91800 333 10096 20056=
07168,1996-04-14 00:00:00,6,1019.6,0.5,61,-1,0,7.408,,,50,,,,,,,,,,,wg-a,,,,AAXX 14004 07168 12/// /0504 10060 21010 30050 40196 53005 60006 90000=
07168,1996-04-14 06:00:00,1,1021.2,1,93,0,9000,3.704,,,320,-0.5,9.1,,,,,,,,,wg-a,,,,AAXX 14064 07168 02/59 43202 10010 20000 30064 40212 53010 60006 84030 90600 333 10091 21005 61000=
07168,1996-04-14 09:00:00,8,1022,1.1,66,2,10000,11.112,,,80,,,,,,,,,,,wg-a,,,,AAXX 14094 07168 12/60 60806 10080 20020 30075 40220 51011 60006 80009 90900=
07168,1996-04-14 12:00:00,12,1021.6,-0.2,47,1,12000,14.816,,,70,,,,,,,,,,,wg-a,,,,AAXX 14124 07168 12/62 60708 10120 20010 30073 40216 58002 60006 80002 91200=
07168,1996-04-14 15:00:00,14,1020.9,-0.6,41,1,15000,14.816,,,50,,,,,,,,,,,wg-a,,,,AAXX 14154 07168 12/65 70508 10140 20010 30067 40209 58006 60006 80002 91500=
07168,1996-04-14 18:00:00,13,1021.5,0.6,44,1,0,7.408,,,350,1.3,14.1,,,,,,,,,wg-a,,,,AAXX 14184 07168 12/// /3504 10130 20010 30073 40215 53006 60006 91800 333 10141 20013=
07168,1996-04-15 00:00:00,3,1025.2,1.1,75,-1,0,3.704,,,100,,,,,,,,,,,wg-a,,,,AAXX 15004 07168 12/// /1002 10030 21010 30104 40252 53011 60006 90000=
07168,1996-04-15 06:00:00,0,1027.2,1.6,93,-1,15000,7.408,,,290,-1.7,12.7,,,,,,,,,wg-a,,,,AAXX 15064 07168 02/65 02904 10000 21010 30122 40272 53016 60006 80000 90600 333 10127 21017 60004=
07168,1996-04-15 09:00:00,11,1027.4,0.8,54,2,18000,18.52,,,80,,,,,,,,,,,wg-a,,,,AAXX 15094 07168 12/68 30810 10110 20020 30130 40274 51008 60006 80001 90900=
07168,1996-04-15 12:00:00,15,1026.4,-0.8,39,1,20000,11.112,,,40,,,,,,,,,,,wg-a,,,,AAXX 15124 07168 12/70 00406 10150 20010 30122 40264 58008 60006 80000 91200=
07168,1996-04-15 15:00:00,16,1025,-1.3,31,-1,20000,11.112,,,70,,,,,,,,,,,wg-a,,,,AAXX 15154 07168 12/70 00706 10160 21010 30109 40250 58013 60006 80000 91500=
07168,1996-04-16 00:00:00,1,1024.5,-1,80,-2,0,3.704,,,160,,,,,,,,,,,wg-a,,,,AAXX 16004 07168 12/// /1602 10010 21020 30096 40245 58010 60006 90000=
07168,1996-04-16 06:00:00,1,1021.4,-1.1,86,-1,15000,11.112,,,170,-1.8,14.5,,,,,,,,,wg-a,,,,AAXX 16064 07168 02/65 21706 10010 21010 30066 40214 56011 60006 80001 90600 333 10145 21018 60004=
07168,1996-04-16 09:00:00,13,1019.3,-1.5,44,1,15000,14.816,,,150,,,,,,,,,,,wg-a,,,,AAXX 16094 07168 12/65 21508 10130 20010 30051 40193 58015 60006 80001 90900=
07168,1996-04-16 12:00:00,19,1015.3,-3.7,26,-1,25000,14.816,,,130,,,,,,,,,,,wg-a,,,,AAXX 16124 07168 12/75 21308 10190 21010 30014 40153 58037 60006 80001 91200=
07168,1996-04-16 15:00:00,21,1011.8,-3.3,17,-5,25000,14.816,,,110,,,,,,,,,,,wg-a,,,,AAXX 16154 07168 12/75 41108 10210 21050 39981 40118 58033 60006 81031 91500=
07168,1996-04-16 18:00:00,17,1009.8,-2.2,27,-2,0,7.408,,,100,1.5,20.9,,,,,,,,,wg-a,,,,AAXX 16184 07168 12/// /1004 10170 21020 39959 40098 56022 60006 91800 333 10209 20015=
07168,1996-04-17 06:00:00,7,1007.6,0.3,61,0,20000,3.704,,,170,2.8,16.8,,,,,,,,,wg-a,,,,AAXX 17064 07168 02770 71702 10070 20000 39932 40076 53003 60006 8157/ 90600 333 10168 20028 60004=
07168,1996-04-17 09:00:00,14,1009.2,2,63,7,15000,25.928,,,270,,,,,,,,,,,wg-a,,,,AAXX 17094 07168 12765 72714 10140 20070 39952 40092 53020 60006 8357/ 90900=
07168,1996-04-17 12:00:00,14,1011,1.8,77,10,8000,14.816,,,270,,,,,,,,,,,wg-a,,,,AAXX 17124 07168 12558 72708 10140 20100 39970 40110 51018 60006 8427/ 91200=
07168,1996-04-17 15:00:00,11,1013.3,2.1,94,10,4000,25.928,,,310,,,,2,,,,,,10,wg-a,,,,AAXX 17154 07168 12440 83114 10110 20100 39991 40133 51021 60027 71062 888// 91500=
07168,1996-04-17 18:00:00,11,1015.3,2,94,10,0,3.704,,,230,6.5,14.3,,,,,,,,,wg-a,,,,AAXX 17184 07168 32/// /2302 10110 20100 30011 40153 51020 91800 333 10143 20065=
07168,1996-04-18 06:00:00,3,1021.6,1.5,100,3,3000,0,,,0,0.8,11,,,,,2,,,10,wg-a,,,,AAXX 18064 07168 02/30 20000 10030 20030 30069 40216 53015 60006 71000 80001 90600 333 10110 20008 60024=
07168,1996-04-18 12:00:00,17,1020.4,-0.9,48,6,500,14.816,,,210,,,,,,,,,,,wg-a,,,,AAXX 18124 07168 12600 52108 10170 20060 30064 40204 58009 60006 84201 91200=
07168,1996-04-18 15:00:00,17,1019.4,-1,52,7,500,11.112,,,220,,,,,,,,,,,wg-a,,,,AAXX 18154 07168 12600 /2206 10170 20070 30054 40194 56010 60006 83101 91500=
07168,1996-04-18 18:00:00,14,1019.1,-0.4,72,9,0,3.704,,,240,3.1,17.4,,,,,,,,,wg-a,,,,AAXX 18184 07168 12/// /2402 10140 20090 30050 40191 56004 60006 91800 333 10174 20031=
07168,1996-04-19 00:00:00,6,1020.6,0.2,93,5,0,11.112,,,160,,,,,,,,,,,wg-a,,,,AAXX 19004 07168 12/// /1606 10060 20050 30060 40206 51002 60006 90000=
07168,1996-04-19 06:00:00,5,1020.5,0.5,100,5,15000,7.408,,,170,3,14,,,,,,,,,wg-a,,,,AAXX 19064 07168 02/65 31704 10050 20050 30059 40205 53005 60006 80003 90600 333 10140 20030 60004=
07168,1996-04-19 09:00:00,16,1019.4,-0.5,55,7,20000,11.112,,,150,,,,,,,,,,,wg-a,,,,AAXX 19094 07168 12/70 51506 10160 20070 30054 40194 58005 60006 80002 90900=
07168,1996-04-19 12:00:00,20,1017.6,-1.6,49,9,500,14.816,,,180,,,,,,,,,,,wg-a,,,,AAXX 19124 07168 12/00 51808 10200 20090 30038 40176 58016 60006 80002 91200=
07168,1996-04-19 15:00:00,22,1015.7,-1.8,41,8,500,14.816,,,180,,,,,,,,,,,wg-a,,,,AAXX 19154 07168 12/00 51808 10220 20080 30020 40157 58018 60006 80002 91500=
07168,1996-04-19 18:00:00,19,1014.7,-1.1,52,9,0,7.408,,,170,5.2,22.5,,,,,,,,,wg-a,,,,AAXX 19184 07168 12/// /1704 10190 20090 30009 40147 56011 60006 91800 333 10225 20052=
07168,1996-04-20 00:00:00,8,1015,-0.6,81,5,0,11.112,,,140,,,,,,,,,,,wg-a,,,,AAXX 20004 07168 12/// /1406 10080 20050 30006 40150 57006 60006 90000=
07168,1996-04-20 06:00:00,13,1014.6,0.2,47,2,25000,14.816,,,150,7.6,18.4,,,,,,,,,wg-a,,,,AAXX 20064 07168 02/75 51508 10130 20020 30004 40146 52002 60006 80002 90600 333 10184 20076 60004=
07168,1996-04-20 09:00:00,19,1014.1,-0.2,30,1,500,29.632,,,180,,,,,,,,,,,wg-a,,,,AAXX 20094 07168 12/00 61816 10190 20010 30002 40141 57002 60006 80002 90900=
07168,1996-04-20 12:00:00,23,1011.8,-2,23,1,500,22.224,,,180,,,,,,,,,,,wg-a,,,,AAXX 20124 07168 12/00 51812 10230 20010 39982 40118 58020 60006 80002 91200=
07168,1996-04-20 15:00:00,24,1010.1,-1.6,31,6,500,25.928,,,200,,,,,,,,,,,wg-a,,,,AAXX 20154 07168 12/00 52014 10240 20060 39966 40101 58016 60006 80002 91500=
07168,1996-04-20 18:00:00,18,1010.3,-0.1,42,5,0,14.816,,,180,12.4,24.5,,,,,,,,,wg-a,,,,AAXX 20184 07168 12/// /1808 10180 20050 39965 40103 56001 60006 91800 333 10245 20124=
07168,1996-04-21 00:00:00,7,1011.7,0.2,76,3,0,11.112,,,190,,,,,,,,,,,wg-a,,,,AAXX 21004 07168 12/// /1906 10070 20030 39973 40117 50002 60006 90000=
07168,1996-04-21 06:00:00,10,1010.7,-0.3,57,2,500,11.112,,,150,2.6,18.3,,,,,,,,,wg-a,,,,AAXX 21064 07168 02/00 21506 10100 20020 39965 40107 55003 60006 80002 90600 333 10183 20026 60004=
07168,1996-04-21 09:00:00,19,1010.1,-0.2,32,2,500,29.632,,,170,,,,,,,,,,,wg-a,,,,AAXX 21094 07168 12/00 21716 10190 20020 39963 40101 57002 60006 80001 90900=
07168,1996-04-21 12:00:00,24,1008.2,-1.6,31,6,500,29.632,,,190,,,,,,,,,,,wg-a,,,,AAXX 21124 07168 12/00 31916 10240 20060 39947 40082 58016 60006 80001 91200=
07168,1996-04-21 15:00:00,24,1007.2,-1,31,6,500,29.632,,,200,,,,,,,,,,,wg-a,,,,AAXX 21154 07168 12/00 12016 10240 20060 39937 40072 58010 60006 80001 91500=
07168,1996-04-21 18:00:00,22,1007.6,0.3,33,5,0,25.928,,,160,10.6,24.7,,,,,,,,,wg-a,,,,AAXX 21184 07168 12/// /1614 10220 20050 39940 40076 53003 60006 91800 333 10247 20106=
07168,1996-04-22 00:00:00,13,1010.2,0.6,58,5,0,14.816,,,180,,,,,,,,,,,wg-a,,,,AAXX 22004 07168 12/// /1808 10130 20050 39962 40102 52006 60006 90000=
07168,1996-04-22 06:00:00,12,1009.5,-0.3,71,7,25000,7.408,,,170,9.9,21.8,,,,,,,,,wg-a,,,,AAXX 22064 07168 02/75 71704 10120 20070 39954 40095 55003 60006 83032 90600 333 10218 20099 60004=
07168,1996-04-22 09:00:00,19,1008.7,-0.5,40,5,25000,18.52,,,150,,,,,,,,,,,wg-a,,,,AAXX 22094 07168 12/75 71510 10190 20050 39949 40087 58005 60006 85072 90900=
07168,1996-04-22 12:00:00,24,1006.6,-1.8,25,3,500,35.188,,,160,,,,,,,,,,,wg-a,,,,AAXX 22124 07168 12/00 41619 10240 20030 39931 40066 58018 60006 80001 91200=
07168,1996-04-22 15:00:00,25,1004,-2.5,30,6,500,31.484,,,180,,,,,,,,,,,wg-a,,,,AAXX 22154 07168 12700 31817 10250 20060 39906 40040 57025 60006 81101 91500=
07168,1996-04-22 18:00:00,22,1003.5,-0.6,38,7,0,31.484,,,160,12.5,25.8,,,,,,,,,wg-a,,,,AAXX 22184 07168 12/// /1617 10220 20070 39900 40035 56006 60006 91800 333 10258 20125=
07168,1996-04-23 00:00:00,16,1006.5,1.5,72,11,0,25.928,,,180,,,,,,,,,,,wg-a,,,,AAXX 23004 07168 12/// /1814 10160 20110 39926 40065 51015 60006 90000=
07168,1996-04-23 06:00:00,13,1007.7,1.1,88,11,15000,22.224,,,190,12.2,22.1,,1,,,1,,,21,wg-a,,,,AAXX 23064 07168 02465 81912 10130 20110 39937 40077 53011 60014 72162 875// 90600 333 10221 20122 60017=
07168,1996-04-23 09:00:00,14,1010.1,2.4,82,11,20000,25.928,,,220,,,,,,,,,,21,wg-a,,,,AAXX 23094 07168 02470 72214 10140 20110 39961 40101 51024 61000 72162 878// 90900 333 ////=
07168,1996-04-23 12:00:00,16,1010.9,0.9,68,10,25000,22.224,,,220,,,,,,,,,,1,wg-a,,,,AAXX 23124 07168 02575 72212 10160 20100 39970 40109 50009 61000 70162 878// 91200 333 ////=
07168,1996-04-23 15:00:00,16,1011.6,0.7,59,8,25000,25.928,,,260,,,,,,,,,,,wg-a,,,,AAXX 23154 07168 12675 72614 10160 20080 39977 40116 53007 60006 878// 91500=
07168,1996-04-23 18:00:00,13,1013.5,1.7,67,7,0,14.816,,,270,12.4,17.3,,,,,,,,,wg-a,,,,AAXX 23184 07168 32/// /2708 10130 20070 39994 40135 53017 91800 333 10173 20124=
07168,1996-04-24 00:00:00,10,1017.6,1.8,76,6,0,22.224,,,220,,,,,,,,,,,wg-a,,,,AAXX 24004 07168 12/// /2212 10100 20060 30033 40176 51018 60006 90000=
07168,1996-04-24 06:00:00,9,1019.8,1.2,87,7,20000,18.52,,,220,6.7,12.5,,,,,,,,,wg-a,,,,AAXX 24064 07168 02670 /2210 10090 20070 30054 40198 53012 60006 85800 90600 333 10125 20067 61000=
07168,1996-04-24 09:00:00,13,1020.4,0.8,67,7,25000,22.224,,,220,,,,,,,,,,,wg-a,,,,AAXX 24094 07168 12575 /2212 10130 20070 30062 40204 51008 60006 85200 90900=
07168,1996-04-24 12:00:00,13,1020.8,0.4,72,8,500,18.52,,,270,,,,,,,,,,1,wg-a,,,,AAXX 24124 07168 02600 /2710 10130 20080 30066 40208 51004 61000 70186 85200 91200 333 6100=
07168,1996-04-24 15:00:00,14,1020.9,0.1,67,8,500,22.224,,44.448,280,,,,1,,,,,,25,wg-a,,,,AAXX 24154 07168 12600 42812 10140 20080 30067 40209 50001 60017 72586 84300 91500 333 91024=
07168,1996-04-24 18:00:00,12,1021.6,0.6,76,8,0,11.112,,,220,9,16.6,,,,,,,,,wg-a,,,,AAXX 24184 07168 32/// /2206 10120 20080 30073 40216 53006 91800 333 10166 20090=
07168,1996-04-25 00:00:00,2,1025,0.4,100,2,0,3.704,,,140,,,,,,,,,,,wg-a,,,,AAXX 25004 07168 12/// /1402 10020 20020 30102 40250 50004 60006 90000=
07168,1996-04-25 06:00:00,2,1026.6,1.4,100,2,500,0,,,0,-0.4,11.7,,,,,1,,,12,wg-a,,,,AAXX 25064 07168 02700 /0000 10020 20020 30118 40266 53014 60006 71240 81500 90600 333 10117 21004 60014=
07168,1996-04-25 09:00:00,12,1026.5,0.4,76,8,12000,3.704,,,350,,,,0,,,,,,,wg-a,,,,AAXX 25094 07168 12562 /3502 10120 20080 30122 40265 51004 60007 81100 90900=
07168,1996-04-25 12:00:00,16,1025.4,-0.9,51,6,12000,7.408,,,320,,,,,,,,,,,wg-a,,,,AAXX 25124 07168 12662 33204 10160 20060 30113 40254 58009 60006 83200 91200=
07168,1996-04-25 15:00:00,16,1024.9,-0.5,51,6,20000,14.816,,,360,,,,,,,,,,,wg-a,,,,AAXX 25154 07168 12670 33608 10160 20060 30108 40249 58005 60006 83200 91500=
07168,1996-04-25 18:00:00,15,1024.5,-0.5,51,5,0,11.112,,,350,2.5,16.9,,,,,,,,,wg-a,,,,AAXX 25184 07168 12/// /3506 10150 20050 30103 40245 56005 60006 91800 333 10169 20025=
07168,1996-04-26 00:00:00,4,1025.8,-0.2,93,3,0,11.112,,,300,,,,,,,,,,,wg-a,,,,AAXX 26004 07168 12/// /3006 10040 20030 30111 40258 58002 60006 90000=
07168,1996-04-26 06:00:00,5,1024.3,-0.3,93,4,10000,11.112,,,300,3,14.8,,,,,1,,,,wg-a,,,,AAXX 26064 07168 02/60 03006 10050 20040 30097 40243 55003 60006 80000 90600 333 10148 20030 60014=
07168,1996-04-26 09:00:00,14,1023,-0.9,63,7,12000,11.112,,,20,,,,,,,,,,,wg-a,,,,AAXX 26094 07168 12/62 00206 10140 20070 30088 40230 58009 60006 80000 90900=
07168,1996-04-26 12:00:00,17,1020.9,-1.9,45,5,20000,14.816,,,40,,,,,,,,,,,wg-a,,,,AAXX 26124 07168 12670 /0408 10170 20050 30069 40209 58019 60006 81100 91200=
07168,1996-04-26 15:00:00,19,1018.7,-2.1,40,5,20000,14.816,,,40,,,,,,,,,,,wg-a,,,,AAXX 26154 07168 12/70 00408 10190 20050 30048 40187 58021 60006 80000 91500=
07168,1996-04-26 18:00:00,17,1017.7,-1.1,48,6,0,18.52,,,360,5.3,19.1,,,,,,,,,wg-a,,,,AAXX 26184 07168 12/// /3610 10170 20060 30037 40177 56011 60006 91800 333 10191 20053=
07168,1996-04-27 00:00:00,7,1017.6,-0.9,87,5,0,18.52,,,290,,,,,,,,,,,wg-a,,,,AAXX 27004 07168 12/// /2910 10070 20050 30032 40176 57009 60006 90000=
07168,1996-04-27 12:00:00,21,1012.4,-2,35,5,15000,18.52,,,50,,,,,,,,,,,wg-a,,,,AAXX 27124 07168 12765 60510 10210 20050 39987 40124 58020 60006 81101 91200=
07168,1996-04-27 15:00:00,22,1010.5,-1.8,35,6,18000,18.52,,,30,,,,,,,,,,,wg-a,,,,AAXX 27154 07168 12768 60310 10220 20060 39969 40105 57018 60006 81101 91500=
07168,1996-04-27 18:00:00,20,1010.1,-0.5,40,6,0,7.408,,,20,6.7,22.1,,,,,,,,,wg-a,,,,AAXX 27184 07168 12/// /0204 10200 20060 39964 40101 56005 60006 91800 333 10221 20067=
07168,1996-04-28 00:00:00,10,1010.6,-0.6,76,6,0,18.52,,,290,,,,,,,,,,,wg-a,,,,AAXX 28004 07168 12/// /2910 10100 20060 39964 40106 58006 60006 90000=
07168,1996-04-28 06:00:00,8,1010,0.2,93,7,6000,7.408,,,330,7.1,20.1,,,,,,,,,wg-a,,,,AAXX 28064 07168 02/56 33304 10080 20070 39957 40100 53002 60006 80001 90600 333 10201 20071 60004=
07168,1996-04-28 09:00:00,15,1009.4,-0.2,77,11,500,11.112,,,350,,,,,,,,,,,wg-a,,,,AAXX 28094 07168 12/00 33506 10150 20110 39955 40094 55002 60006 80001 90900=
07168,1996-04-28 12:00:00,21,1007.8,-1.3,46,9,9000,14.816,,,350,,,,,,,,,,,wg-a,,,,AAXX 28124 07168 12659 /3508 10210 20090 39942 40078 58013 60006 81101 91200=
07168,1996-04-28 15:00:00,22,1006,-1.8,41,8,10000,11.112,,,70,,,,,,,,,,,wg-a,,,,AAXX 28154 07168 12660 60706 10220 20080 39924 40060 57018 60006 85301 91500=
07168,1996-04-28 18:00:00,14,1007.7,1.3,88,12,0,18.52,,,270,8.1,22.4,,,,,,,,,wg-a,,,,AAXX 28184 07168 32/// /2710 10140 20120 39937 40077 51013 91800 333 10224 20081=
07168,1996-04-29 00:00:00,11,1008.9,0.4,76,7,0,22.224,,,10,,,,,,,,,,,wg-a,,,,AAXX 29004 07168 12/// /0112 10110 20070 39948 40089 51004 60016 90000=
07168,1996-04-29 06:00:00,7,1009.1,0.2,87,5,8000,14.816,,,350,6.5,13.9,,,,,20,,,,wg-a,,,,AAXX 29064 07168 12/58 53508 10070 20050 39948 40091 53002 60204 83032 90600 333 10139 20065=
07168,1996-04-29 09:00:00,12,1008.8,-0.1,76,8,8000,18.52,,,10,,,,,,,,,,,wg-a,,,,AAXX 29094 07168 12558 30110 10120 20080 39947 40088 58001 60006 83100 90900=
07168,1996-04-29 12:00:00,15,1007.1,-1.5,67,9,7000,18.52,,,360,,,,,,,,,,,wg-a,,,,AAXX 29124 07168 12557 43610 10150 20090 39932 40071 58015 60006 81101 91200=
07168,1996-04-30 15:00:00,17,1002.3,-2.1,39,3,15000,11.112,,,70,,,,,,,,,,,wg-a,,,,AAXX 30154 07168 12765 50706 10170 20030 39885 40023 58021 60006 85100 91500=
07168,1996-04-30 18:00:00,15,1001.4,-0.9,48,4,0,7.408,,,70,4.4,17.5,,,,,,,,,wg-a,,,,AAXX 30184 07168 12/// /0704 10150 20040 39876 40014 56009 60006 91800 333 10175 20044=
07168,1996-05-01 00:00:00,11,1001,-0.9,76,7,0,3.704,,,130,,,,,,,,,,,wg-a,,,,AAXX 01004 07168 12/// /1302 10110 20070 39870 40010 58009 60006 90000=
07168,1996-05-01 06:00:00,9,1001.5,1.1,93,8,9000,11.112,,,220,9.3,15.3,,0,,,,,,25,wg-a,,,,AAXX 01064 07168 02659 82206 10090 20080 39874 40015 53011 60004 72586 81632 90600 333 10153 20093 60007=
07168,1996-05-01 09:00:00,12,1001.9,0.5,76,8,10000,7.408,,,200,,,,,,,,,,,wg-a,,,,AAXX 01094 07168 12560 72004 10120 20080 39879 40019 51005 60006 83202 90900=
07168,1996-05-01 12:00:00,15,1001,-0.7,51,5,15000,11.112,,,180,,,,,,,,,,,wg-a,,,,AAXX 01124 07168 12665 71806 10150 20050 39872 40010 58007 60006 84232 91200=
07168,1996-05-01 15:00:00,16,999.5,-1.5,55,7,20000,7.408,,,200,,,,,,,,,,,wg-a,,,,AAXX 01154 07168 12670 72004 10160 20070 39857 49995 58015 60006 85202 91500=
07168,1996-05-01 18:00:00,15,998.7,-0.8,59,7,0,11.112,,,80,9.4,16.8,,,,,,,,,wg-a,,,,AAXX 01184 07168 12/// /0806 10150 20070 39849 49987 56008 60006 91800 333 10168 20094=
07168,1996-05-02 00:00:00,10,998.6,-0.4,93,9,0,7.408,,,170,,,,,,,,,,,wg-a,,,,AAXX 02004 07168 12/// /1704 10100 20090 39846 49986 58004 60016 90000=
07168,1996-05-02 06:00:00,9,997.7,0.6,93,8,14000,3.704,,,190,6.8,14.4,,,,,1,,,,wg-a,,,,AAXX 02064 07168 12464 /1902 10090 20080 39836 49977 53006 60014 81180 90600 333 10144 20068=
07168,1996-05-02 09:00:00,11,998.5,0.9,82,8,12000,18.52,,,210,,,,0,,,,,,,wg-a,,,,AAXX 02094 07168 12462 82110 10110 20080 39845 49985 53009 60007 8787/ 90900=
07168,1996-05-02 12:00:00,12,997.5,-0.9,76,8,500,11.112,,,290,,,,1,,,,,,21,wg-a,,,,AAXX 02124 07168 02500 72906 10120 20080 39836 49975 58009 60016 72162 878// 91200 333 60017=
07168,1996-05-02 15:00:00,11,997.5,-0.1,76,7,500,18.52,,,210,,,,,,,,,,61,wg-a,,,,AAXX 02154 07168 02500 72110 10110 20070 39835 49975 58001 61000 76162 8212/ 91500 333 ////=
07168,1996-05-02 18:00:00,11,998.4,0.9,82,8,0,14.816,,,160,9.2,12.6,,,,,,,,,wg-a,,,,AAXX 02184 07168 32/// /1608 10110 20080 39844 49984 51009 91800 333 10126 20092=
07168,1996-05-03 00:00:00,7,999.2,-0.1,93,6,0,14.816,,,150,,,,,,,,,,,wg-a,,,,AAXX 03004 07168 12/// /1508 10070 20060 39850 49992 56001 60006 90000=
07168,1996-05-03 06:00:00,6,999.6,0.7,100,6,18000,11.112,,,160,2,10.7,,,,,2,,,,wg-a,,,,AAXX 03064 07168 12868 71606 10060 20060 39853 49996 51007 60024 875// 90600 333 10107 20020=
07168,1996-05-03 09:00:00,10,1000.2,0.9,82,7,20000,14.816,,,180,,,,,,,,,,,wg-a,,,,AAXX 03094 07168 12470 71808 10100 20070 39862 40002 52009 60006 878// 90900=
07168,1996-05-03 12:00:00,13,1000.5,0.4,67,7,25000,11.112,,,300,,,,,,,,,,,wg-a,,,,AAXX 03124 07168 12575 73006 10130 20070 39866 40005 52004 60006 878// 91200=
07168,1996-05-03 15:00:00,14,1001.5,1,63,7,25000,14.816,,,310,,,,,,,,,,,wg-a,,,,AAXX 03154 07168 12675 73108 10140 20070 39876 40015 53010 60006 8523/ 91500=
07168,1996-05-03 18:00:00,11,1004.8,3.1,76,7,0,22.224,,,320,6,14.9,,,,,,,,,wg-a,,,,AAXX 03184 07168 32/// /3212 10110 20070 39907 40048 52031 91800 333 10149 20060=
07168,1996-05-04 00:00:00,7,1010,1.7,87,5,0,11.112,,,280,,,,,,,,,,,wg-a,,,,AAXX 04004 07168 02/// /2806 10070 20050 39957 40100 52017 61000 90000 333 ////=
07168,1996-05-04 06:00:00,6,1013.2,1.7,93,5,11000,14.816,,,330,5.5,10.7,,,,,1,,,,wg-a,,,,AAXX 04064 07168 02461 73308 10060 20050 39988 40132 51017 60014 878// 90600 333 10107 20055 61000=
07168,1996-05-04 09:00:00,9,1015.2,2,71,4,18000,11.112,,,340,,,,,,,,,,,wg-a,,,,AAXX 04094 07168 12568 /3406 10090 20040 30008 40152 51020 60006 85230 90900=
07168,1996-05-04 12:00:00,11,1015.7,0.7,58,3,500,7.408,,,60,,,,,,,,,,,wg-a,,,,AAXX 04124 07168 12600 /0604 10110 20030 30015 40157 51007 60006 86200 91200=
07168,1996-05-04 15:00:00,12,1015.8,0.1,50,2,500,3.704,,,10,,,,,,,,,,,wg-a,,,,AAXX 04154 07168 12600 70102 10120 20020 30016 40158 51001 60006 87800 91500=
07168,1996-05-04 18:00:00,11,1016.8,0.9,54,2,0,7.408,,,20,6,12.5,,,,,,,,,wg-a,,,,AAXX 04184 07168 12/// /0204 10110 20020 30025 40168 53009 60006 91800 333 10125 20060=
07168,1996-05-05 00:00:00,2,1018.8,0.6,93,1,0,3.704,,,310,,,,,,,,,,,wg-a,,,,AAXX 05004 07168 12/// /3102 10020 20010 30041 40188 53006 60006 90000=
07168,1996-05-05 06:00:00,3,1018.5,0.1,93,2,9000,7.408,,,320,0.1,10.8,,,,,,,,,wg-a,,,,AAXX 05064 07168 02/59 /3204 10030 20020 30038 40185 53001 60006 80001 90600 333 10108 20001 60004=
07168,1996-05-05 09:00:00,11,1017.8,-0.2,62,4,12000,11.112,,,40,,,,,,,,,,,wg-a,,,,AAXX 05094 07168 12562 /0406 10110 20040 30036 40178 58002 60006 81101 90900=
07168,1996-05-05 12:00:00,14,1016.5,-1.2,47,3,20000,7.408,,,50,,,,,,,,,,,wg-a,,,,AAXX 05124 07168 12670 20504 10140 20030 30024 40165 57012 60006 82100 91200=
07168,1996-05-05 15:00:00,15,1014.8,-1.6,44,3,20000,7.408,,,70,,,,,,,,,,,wg-a,,,,AAXX 05154 07168 12770 10704 10150 20030 30008 40148 56016 60006 81100 91500=
07168,1996-05-05 18:00:00,14,1014.1,-0.8,51,4,0,11.112,,,10,2.9,15.4,,,,,,,,,wg-a,,,,AAXX 05184 07168 12/// /0106 10140 20040 30000 40141 55008 60006 91800 333 10154 20029=
07168,1996-05-06 00:00:00,4,1014.6,-0.2,87,2,0,14.816,,,300,,,,,,,,,,,wg-a,,,,AAXX 06004 07168 12/// /3008 10040 20020 30000 40146 58002 60006 90000=
07168,1996-05-06 06:00:00,4,1013.6,0.2,93,3,8000,11.112,,,310,1.4,14,,,,,,,,,wg-a,,,,AAXX 06064 07168 02/58 23106 10040 20030 39991 40136 53002 60006 82081 90600 333 10140 20014 60004=
07168,1996-05-06 09:00:00,13,1012.2,-1,72,8,8000,11.112,,,70,,,,,,,,,,,wg-a,,,,AAXX 06094 07168 12/58 40706 10130 20080 39981 40122 56010 60006 80001 90900=
07168,1996-05-06 12:00:00,17,1010.3,-1.6,55,8,10000,18.52,,,40,,,,,,,,,,,wg-a,,,,AAXX 06124 07168 12/60 70410 10170 20080 39965 40103 56016 60006 80002 91200=
07168,1996-05-06 15:00:00,20,1008,-2.2,53,10,12000,22.224,,,40,,,,,,,,,,,wg-a,,,,AAXX 06154 07168 12/62 20412 10200 20100 39943 40080 58022 60006 81031 91500=
07168,1996-05-06 18:00:00,18,1007.8,-0.3,52,8,0,18.52,,,360,4.5,20.2,,,,,,,,,wg-a,,,,AAXX 06184 07168 12/// /3610 10180 20080 39940 40078 56003 60006 91800 333 10202 20045=
07168,1996-05-07 00:00:00,11,1009.4,-0.4,76,7,0,7.408,,,20,,,,,,,,,,,wg-a,,,,AAXX 07004 07168 12/// /0204 10110 20070 39953 40094 57004 60006 90000=
07168,1996-05-07 06:00:00,11,1009.2,0.1,71,6,10000,11.112,,,80,7.9,17.6,,,,,,,,,wg-a,,,,AAXX 07064 07168 02/60 50806 10110 20060 39951 40092 53001 60006 80001 90600 333 10176 20079 60004=
07168,1996-05-07 09:00:00,18,1008.9,-0,68,12,9000,11.112,,,90,,,,,,,,,,,wg-a,,,,AAXX 07094 07168 12/59 /0906 10180 20120 39951 40089 54000 60006 80001 90900=
07168,1996-05-07 12:00:00,21,1008.5,-0.2,49,10,500,25.928,,,150,,,,,,,,,,,wg-a,,,,AAXX 07124 07168 12600 71514 10210 20100 39949 40085 55002 60006 8523/ 91200=
07168,1996-05-07 15:00:00,20,1008.3,-0.3,56,11,500,18.52,,,190,,,,,,,,,,,wg-a,,,,AAXX 07154 07168 12600 71910 10200 20110 39946 40083 56003 60006 8227/ 91500=
07168,1996-05-07 18:00:00,16,1009.6,1.1,88,14,0,7.408,,,90,10.8,22.1,,,,,,,,,wg-a,,,,AAXX 07184 07168 32/// /0904 10160 20140 39957 40096 53011 91800 333 10221 20108=
07168,1996-05-08 00:00:00,14,1010.9,0.2,88,12,0,0,,,0,,,,,,,,,,,wg-a,,,,AAXX 08004 07168 02/// /0000 10140 20120 39969 40109 53002 61000 90000 333 ////=
07168,1996-05-08 06:00:00,13,1012.8,0.8,88,11,3000,14.816,,,80,11.6,16.3,,,,,1,,,10,wg-a,,,,AAXX 08064 07168 02/30 20808 10130 20110 39987 40128 53008 60014 71011 82030 90600 333 10163 20116 61000=
07168,1996-05-08 09:00:00,18,1012.7,0.2,73,13,7000,7.408,,,30,,,,,,,,,,,wg-a,,,,AAXX 08094 07168 12557 60304 10180 20130 39989 40127 50002 60006 83130 90900=
07168,1996-05-08 12:00:00,19,1012.8,0.1,68,13,8000,14.816,,,30,,,,,,,,,,,wg-a,,,,AAXX 08124 07168 12558 /0308 10190 20130 39990 40128 50001 60006 85230 91200=
07168,1996-05-08 15:00:00,18,1012.1,-0.7,68,12,6000,29.632,,,350,,,,,,,,,,,wg-a,,,,AAXX 08154 07168 12556 53516 10180 20120 39983 40121 55007 60006 83230 91500=
07168,1996-05-09 09:00:00,9,1015.9,0.5,76,5,8000,22.224,,,20,,,,,,,,,,,wg-a,,,,AAXX 09094 07168 12558 70212 10090 20050 30016 40159 51005 60006 8483/ 90900=
07168,1996-05-09 12:00:00,12,1014.7,-1.1,54,3,12000,25.928,,,20,,,,,,,,,,,wg-a,,,,AAXX 09124 07168 12662 70214 10120 20030 30005 40147 58011 60006 875// 91200=
07168,1996-05-09 18:00:00,11,1014.2,0.1,62,4,0,18.52,,,60,7.1,13.1,,,,,,,,,wg-a,,,,AAXX 09184 07168 12/// /0610 10110 20040 30000 40142 53001 60006 91800 333 10131 20071=
07168,1996-05-10 00:00:00,6,1013.7,-0.6,81,3,0,7.408,,,340,,,,,,,,,,,wg-a,,,,AAXX 10004 07168 12/// /3404 10060 20030 39993 40137 58006 60006 90000=
07168,1996-05-10 06:00:00,4,1012.6,-0.3,93,3,6000,11.112,,,310,2,10.9,,,,,,,,,wg-a,,,,AAXX 10064 07168 02/56 03106 10040 20030 39981 40126 56003 60006 80000 90600 333 10109 20020 60004=
07168,1996-05-10 09:00:00,10,1011.5,-0.8,62,3,12000,14.816,,,30,,,,,,,,,,,wg-a,,,,AAXX 10094 07168 12562 30308 10100 20030 39973 40115 57008 60006 83100 90900=
07168,1996-05-10 12:00:00,13,1010.7,-0.7,47,2,15000,14.816,,,50,,,,,,,,,,,wg-a,,,,AAXX 10124 07168 12665 /0508 10130 20020 39966 40107 56007 60006 85200 91200=
07168,1996-05-10 15:00:00,13,1010.1,-0.6,47,2,22000,14.816,,,30,,,,,,,,,,,wg-a,,,,AAXX 10154 07168 12672 60308 10130 20020 39960 40101 56006 60006 86800 91500=
07168,1996-05-10 18:00:00,12,1010.2,0.1,54,3,0,14.816,,,30,4.5,13.7,,,,,,,,,wg-a,,,,AAXX 10184 07168 12/// /0308 10120 20030 39961 40102 53001 60006 91800 333 10137 20045=
07168,1996-05-11 00:00:00,3,1012.7,0.2,87,1,0,3.704,,,10,,,,,,,,,,,wg-a,,,,AAXX 11004 07168 12/// /0102 10030 20010 39981 40127 50002 60006 90000=
07168,1996-05-11 06:00:00,4,1012.9,0.6,93,3,8000,14.816,,,300,0.5,11.9,,,,,,,,,wg-a,,,,AAXX 11064 07168 02758 73008 10040 20030 39983 40129 53006 60006 875// 90600 333 10119 20005 60004=
07168,1996-05-11 09:00:00,11,1012.3,-0.2,66,5,10000,11.112,,,40,,,,,,,,,,,wg-a,,,,AAXX 11094 07168 12560 70406 10110 20050 39981 40123 57002 60006 878// 90900=
07168,1996-05-11 12:00:00,12,1011.6,-0.6,62,5,12000,11.112,,,40,,,,,,,,,,,wg-a,,,,AAXX 11124 07168 12662 70406 10120 20050 39975 40116 57006 60006 878// 91200=
07168,1996-05-11 15:00:00,12,1011.8,0.2,71,7,10000,14.816,,,40,,,,,,,,,,,wg-a,,,,AAXX 11154 07168 12660 70408 10120 20070 39977 40118 51002 60006 878// 91500=
07168,1996-05-11 18:00:00,11,1012.9,1,71,6,0,14.816,,,360,4,12.5,,,,,,,,,wg-a,,,,AAXX 11184 07168 12/// /3608 10110 20060 39987 40129 53010 60006 91800 333 10125 20040=
07168,1996-05-12 00:00:00,10,1013.6,0.1,76,6,0,11.112,,,350,,,,,,,,,,,wg-a,,,,AAXX 12004 07168 12/// /3506 10100 20060 39994 40136 50001 60006 90000=
07168,1996-05-12 06:00:00,10,1015.3,1.6,82,7,6000,11.112,,,10,9.4,11.3,,,,,,,,,wg-a,,,,AAXX 12064 07168 02656 80106 10100 20070 30010 40153 53016 60006 875// 90600 333 10113 20094 60004=
07168,1996-05-12 09:00:00,11,1016.3,1.1,76,7,8000,14.816,,,10,,,,,,,,,,,wg-a,,,,AAXX 12094 07168 12758 80108 10110 20070 30021 40163 52011 60006 875// 90900=
07168,1996-05-12 12:00:00,13,1017.3,1,62,6,9000,18.52,,,20,,,,,,,,,,,wg-a,,,,AAXX 12124 07168 12559 80210 10130 20060 30031 40173 52010 60006 878// 91200=
07168,1996-05-12 15:00:00,12,1018.1,0.8,67,6,10000,22.224,,,10,,,,,,,,,,,wg-a,,,,AAXX 12154 07168 12660 80112 10120 20060 30039 40181 51008 60006 875// 91500=
07168,1996-05-12 18:00:00,9,1020,1.7,93,8,0,22.224,,,320,9.3,13.5,,,,,,,,,wg-a,,,,AAXX 12184 07168 12/// /3212 10090 20080 30056 40200 51017 60006 91800 333 10135 20093=
07168,1996-05-13 00:00:00,9,1022.1,0.6,87,7,0,18.52,,,340,,,,,,,,,,,wg-a,,,,AAXX 13004 07168 12/// /3410 10090 20070 30077 40221 52006 60006 90000=
07168,1996-05-13 06:00:00,8,1022.8,0.3,87,6,2000,18.52,,,330,7.5,9.4,,,,,,,,10,wg-a,,,,AAXX 13064 07168 02420 83310 10080 20060 30083 40228 53003 60006 71022 885// 90600 333 10094 20075 60004=
07168,1996-05-13 09:00:00,8,1023.3,0.5,81,5,500,22.224,,,330,,,,,,,,,,,wg-a,,,,AAXX 13094 07168 12400 83312 10080 20050 30088 40233 51005 60006 885// 90900=
07168,1996-05-13 12:00:00,11,1022.8,-0.3,66,5,7000,22.224,,,340,,,,,,,,,,,wg-a,,,,AAXX 13124 07168 12557 83412 10110 20050 30085 40228 58003 60006 885// 91200=
07168,1996-05-13 15:00:00,10,1022.8,-0.1,71,5,12000,18.52,,,360,,,,,,,,,,,wg-a,,,,AAXX 13154 07168 12562 83610 10100 20050 30084 40228 58001 60006 885// 91500=
07168,1996-05-13 18:00:00,11,1022.3,-0.4,66,5,0,14.816,,,350,7.2,11.2,,,,,,,,,wg-a,,,,AAXX 13184 07168 12/// /3508 10110 20050 30080 40223 56004 60006 91800 333 10112 20072=
07168,1996-05-14 00:00:00,9,1021,-0.9,87,7,0,11.112,,,360,,,,,,,,,,,wg-a,,,,AAXX 14004 07168 12/// /3606 10090 20070 30066 40210 58009 60006 90000=
07168,1996-05-14 06:00:00,8,1019.4,-1,93,7,3000,11.112,,,10,8.3,11,,,,,,,,10,wg-a,,,,AAXX 14064 07168 02430 80106 10080 20070 30050 40194 58010 61000 71052 885// 90600 333 10110 20083 6100=
07168,1996-05-14 09:00:00,10,1018.5,-0.8,87,8,3000,14.816,,,30,,,,,,,,,,10,wg-a,,,,AAXX 14094 07168 12430 80308 10100 20080 30042 40185 58008 60006 71022 878// 90900=
07168,1996-05-14 12:00:00,12,1017.3,-1.1,76,8,3500,14.816,,,360,,,,,,,,,,10,wg-a,,,,AAXX 14124 07168 12435 83608 10120 20080 30031 40173 58011 60006 71022 885// 91200=
07168,1996-05-14 15:00:00,12,1016.5,-0.8,82,9,4500,14.816,,,20,,,,,,,,,,10,wg-a,,,,AAXX 14154 07168 12545 80208 10120 20090 30023 40165 57008 60006 71022 875// 91500=
07168,1996-05-14 18:00:00,12,1015.7,-0.8,82,9,0,14.816,,,10,8.4,12.9,,,,,,,,,wg-a,,,,AAXX 14184 07168 12/// /0108 10120 20090 30015 40157 56008 60006 91800 333 10129 20084=
07168,1996-05-15 00:00:00,11,1014.1,-1.2,87,9,0,11.112,,,340,,,,,,,,,,,wg-a,,,,AAXX 15004 07168 12/// /3406 10110 20090 39999 40141 58012 60006 90000=
07168,1996-05-15 06:00:00,11,1013.2,-0.1,87,9,3000,11.112,,,350,10.5,12.1,,,,,,,,10,wg-a,,,,AAXX 15064 07168 02430 83506 10110 20090 39990 40132 55001 60006 71022 885// 90600 333 10121 20105 60004=
07168,1996-05-15 09:00:00,12,1013.1,0,88,10,3500,14.816,,,40,,,,,,,,,,10,wg-a,,,,AAXX 15094 07168 12435 80408 10120 20100 39990 40131 50000 60006 71022 876// 90900=
07168,1996-05-15 12:00:00,13,1013,-0.1,88,11,4500,11.112,,,30,,,,,,,,,,10,wg-a,,,,AAXX 15124 07168 12445 80306 10130 20110 39989 40130 58001 60006 71022 875// 91200=
07168,1996-05-15 15:00:00,11,1013.2,0.1,94,10,1800,18.52,,,10,,,,1,,,,,,10,wg-a,,,,AAXX 15154 07168 12318 80110 10110 20100 39990 40132 52001 60017 71052 887// 91500=
07168,1996-05-15 18:00:00,11,1012.9,-0.3,94,10,0,14.816,,,20,10.5,12.8,,,,,,,,,wg-a,,,,AAXX 15184 07168 32/// /0208 10110 20100 39987 40129 56003 91800 333 10128 20105=
07168,1996-05-16 00:00:00,10,1013.4,-0.4,82,7,0,11.112,,,350,,,,,,,,,,,wg-a,,,,AAXX 16004 07168 12/// /3506 10100 20070 39991 40134 57004 60006 90000=
07168,1996-05-16 06:00:00,9,1011.8,-1,93,8,500,11.112,,,60,9.1,10.5,,,,,1,,,,wg-a,,,,AAXX 16064 07168 02400 80606 10090 20080 39975 40118 58010 60006 885// 90600 333 10105 20091 60014=
07168,1996-05-16 09:00:00,12,1010.4,-1.2,88,10,6000,11.112,,,70,,,,,,,,,,,wg-a,,,,AAXX 16094 07168 12456 80706 10120 20100 39963 40104 56012 60006 885// 90900=
07168,1996-05-16 12:00:00,18,1007.7,-2.3,68,12,9000,11.112,,,70,,,,,,,,,,,wg-a,,,,AAXX 16124 07168 12559 /0706 10180 20120 39940 40077 57023 60006 86500 91200=
07168,1996-05-16 15:00:00,19,1005.9,-1.8,73,14,11000,7.408,,,320,,,,,,,,,,,wg-a,,,,AAXX 16154 07168 12661 83204 10190 20140 39922 40059 56018 60006 8357/ 91500=
07168,1996-05-16 18:00:00,17,1005,-1,88,15,0,14.816,,,160,9.3,21.1,,,,,,,,,wg-a,,,,AAXX 16184 07168 32/// /1608 10170 20150 39912 40050 55010 91800 333 10211 20093=
07168,1996-05-17 00:00:00,11,1006.7,-0,94,10,0,14.816,,,180,,,,,,,,,,,wg-a,,,,AAXX 17004 07168 12/// /1808 10110 20100 39926 40067 55000 60096 90000=
07168,1996-05-17 06:00:00,12,1007.5,0.6,100,12,10000,7.408,,,110,8.3,16.8,,,,,12,,,,wg-a,,,,AAXX 17064 07168 12/60 71104 10120 20120 39935 40075 53006 60124 85031 90600 333 10168 20083=
07168,1996-05-17 09:00:00,17,1006.2,-1.1,82,14,12000,14.816,,,190,,,,,,,,,,,wg-a,,,,AAXX 17094 07168 12562 71908 10170 20140 39924 40062 58011 60006 8523/ 90900=
07168,1996-05-17 12:00:00,12,1006.7,0.2,94,11,500,38.892,,64.82,230,,,,5,,,,,,95,wg-a,,,,AAXX 17124 07168 02400 82321 10120 20110 39926 40067 53002 60056 79596 879// 91200 333 60057 91035=
07168,1996-05-18 06:00:00,14,1002.6,-0.3,94,13,16000,14.816,,,160,,,,,,,,,,,wg-a,,,,AAXX 18064 07168 32466 71608 10140 20130 39887 40026 55003 8327/ 90600=
07168,1996-05-18 09:00:00,16,1002.9,0.4,88,14,500,22.224,,,180,,,,,,,,,,,wg-a,,,,AAXX 18094 07168 12400 71812 10160 20140 39891 40029 53004 60006 8527/ 90900=
07168,1996-05-18 12:00:00,20,1002,-0.7,68,14,40000,14.816,,,180,,,,,,,,,,,wg-a,,,,AAXX 18124 07168 12582 /1808 10200 20140 39884 40020 58007 60006 85201 91200=
07168,1996-05-18 15:00:00,19,1000.1,-1.9,68,13,500,22.224,,,150,,,,,,,,,,,wg-a,,,,AAXX 18154 07168 12500 71512 10190 20130 39865 40001 58019 60006 85903 91500=
07168,1996-05-18 18:00:00,15,1001.2,0.9,82,12,0,14.816,,,180,13.6,21.5,,,,,,,,,wg-a,,,,AAXX 18184 07168 12/// /1808 10150 20120 39874 40012 53009 60006 91800 333 10215 20136=
07168,1996-05-19 15:00:00,15,1008.2,0.3,59,7,25000,22.224,,,190,,,,,,,,,,,wg-a,,,,AAXX 19154 07168 12675 51912 10150 20070 39943 40082 53003 60006 84202 91500=
07168,1996-05-19 18:00:00,14,1009.2,0.9,72,9,0,11.112,,,180,9.6,15.8,,,,,,,,,wg-a,,,,AAXX 19184 07168 32/// /1806 10140 20090 39952 40092 53009 91800 333 10158 20096=
07168,1996-05-20 00:00:00,6,1012.5,0.9,93,5,0,3.704,,,160,,,,,,,,,,,wg-a,,,,AAXX 20004 07168 12/// /1602 10060 20050 39981 40125 51009 60006 90000=
07168,1996-05-20 06:00:00,8,1015.2,1.5,93,7,25000,0,,,0,1.7,14.2,,,,,,,,,wg-a,,,,AAXX 20064 07168 02775 10000 10080 20070 30008 40152 51015 60006 81501 90600 333 10142 20017 60004=
07168,1996-05-20 09:00:00,15,1016.2,1.4,67,9,25000,7.408,,,180,,,,,,,,,,,wg-a,,,,AAXX 20094 07168 12675 21804 10150 20090 30022 40162 51014 60006 82200 90900=
07168,1996-05-20 12:00:00,17,1016.2,0.1,48,6,500,14.816,,,260,,,,,,,,,,,wg-a,,,,AAXX 20124 07168 12600 42608 10170 20060 30023 40162 52001 60006 84200 91200=
07168,1996-05-20 15:00:00,18,1016.6,0.4,45,6,500,11.112,,,300,,,,,,,,,,2,wg-a,,,,AAXX 20154 07168 02700 53006 10180 20060 30027 40166 51004 61000 70286 85800 91500 333 ////=
07168,1996-05-20 18:00:00,17,1016.8,0.2,55,8,0,3.704,,,190,8,18.1,,,,,,,,,wg-a,,,,AAXX 20184 07168 12/// /1902 10170 20080 30029 40168 53002 60006 91800 333 10181 20080=
07168,1996-05-21 06:00:00,10,1021.3,1.2,87,8,20000,18.52,,,260,8,17,,,,,,,,3,wg-a,,,,AAXX 21064 07168 02470 22610 10100 20080 30070 40213 53012 60006 70386 82200 90600 333 10170 20080 60004=
07168,1996-05-21 09:00:00,15,1021.8,0.7,59,7,500,22.224,,,260,,,,,,,,,,,wg-a,,,,AAXX 21094 07168 12600 /2612 10150 20070 30077 40218 51007 60006 85200 90900=
07168,1996-05-21 12:00:00,16,1020.6,-1.1,55,7,500,18.52,,,220,,,,,,,,,,,wg-a,,,,AAXX 21124 07168 12600 /2210 10160 20070 30066 40206 58011 60006 85201 91200=
07168,1996-05-21 15:00:00,14,1022.1,1.3,77,10,500,14.816,,,220,,,,2,,,,,,1,wg-a,,,,AAXX 21154 07168 12500 72208 10140 20100 30079 40221 50013 60027 70162 8427/ 91500=
07168,1996-05-21 18:00:00,12,1023.7,1.5,76,8,0,11.112,,,260,9.2,17,,1,,,,,,,wg-a,,,,AAXX 21184 07168 12/// /2606 10120 20080 30094 40237 51015 60017 91800 333 10170 20092=
07168,1996-05-22 00:00:00,7,1026.5,0.4,93,6,0,7.408,,,90,,,,,,,,,,,wg-a,,,,AAXX 22004 07168 12/// /0904 10070 20060 30119 40265 50004 60006 90000=
07168,1996-05-22 06:00:00,9,1026.9,0.6,87,7,25000,7.408,,,170,5.4,12.1,,,,,2,,,,wg-a,,,,AAXX 22064 07168 12775 41704 10090 20070 30124 40269 53006 60024 815/1 90600 333 10121 20054=
07168,1996-05-22 09:00:00,13,1025.6,,77,9,25000,9.26,,,200,,,,,,,,,,,wg-a,,,,AAXX 22094 07168 32/75 72005 10130 20090 30113 40256 81032 90900=
07168,1996-05-22 12:00:00,16,1019,,63,9,25000,22.224,,,170,,,,,,,,,,,wg-a,,,,AAXX 22124 07168 12675 41712 10160 20090 30050 40190 60006 83101 91200=
07168,1996-05-22 18:00:00,16,1021.5,-1.2,63,9,0,14.816,,,220,,,,,,,,,,,wg-a,,,,AAXX 22184 07168 12/// /2208 10160 20090 30074 40215 56012 60006 91800=
07168,1996-05-23 00:00:00,11,1020.4,-1.2,94,10,0,18.52,,,210,,,,,,,,,,,wg-a,,,,AAXX 23004 07168 12/// /2110 10110 20100 30061 40204 56012 60026 90000=
07168,1996-05-23 06:00:00,13,1020.8,1.1,94,12,8000,22.224,,,220,10.9,15.4,,,,,1,,,3,wg-a,,,,AAXX 23064 07168 02458 82212 10130 20120 30066 40208 53011 60014 70352 875// 90600 333 10154 20109 61000=
07168,1996-05-23 09:00:00,16,1021.2,0.6,82,13,20000,22.224,,,240,,,,,,,,,,,wg-a,,,,AAXX 23094 07168 12570 82412 10160 20130 30072 40212 51006 60006 875// 90900=
07168,1996-05-23 12:00:00,19,1020.9,-0.2,68,13,25000,22.224,,,250,,,,,,,,,,,wg-a,,,,AAXX 23124 07168 12575 72512 10190 20130 30070 40209 58002 60006 85201 91200=
07168,1996-05-23 15:00:00,19,1020.7,-0.2,68,13,25000,25.928,,,260,,,,,,,,,,,wg-a,,,,AAXX 23154 07168 12675 72614 10190 20130 30068 40207 55002 60006 85801 91500=
07168,1996-05-23 18:00:00,17,1020.3,-0.5,77,13,0,11.112,,,220,12.5,19.7,,,,,,,,,wg-a,,,,AAXX 23184 07168 12/// /2206 10170 20130 30063 40203 56005 60006 91800 333 10197 20125=
07168,1996-05-24 06:00:00,12,1016.9,-0.9,100,12,15000,7.408,,,160,8.6,16.9,,,,,1,,,,wg-a,,,,AAXX 24064 07168 12/65 51604 10120 20120 30027 40169 57009 60014 80002 90600 333 10169 20086=
07168,1996-05-24 09:00:00,17,1015.6,-1,82,14,25000,18.52,,,160,,,,,,,,,,25,wg-a,,,,AAXX 24094 07168 02875 81610 10170 20140 30017 40156 58010 61000 72586 8808/ 90900 333 ////=
07168,1996-05-24 12:00:00,21,1013.8,-1.6,69,15,25000,18.52,,,220,,,,,,,,,,1,wg-a,,,,AAXX 24124 07168 02675 72210 10210 20150 30001 40138 57016 61000 70186 81131 91200 333 ////=
07168,1996-05-24 15:00:00,23,1011.9,-1.8,69,17,25000,14.816,,,270,,,,,,,,,,,wg-a,,,,AAXX 24154 07168 12675 72708 10230 20170 39983 40119 56018 60006 81282 91500=
07168,1996-05-24 18:00:00,20,1011.1,-0.9,60,12,0,14.816,,,260,12.2,24.1,,,,,,,,,wg-a,,,,AAXX 24184 07168 32/// /2608 10200 20120 39974 40111 56009 91800 333 10241 20122=
07168,1996-05-25 00:00:00,15,1012,-0,77,11,0,14.816,,,250,,,,,,,,,,,wg-a,,,,AAXX 25004 07168 12/// /2508 10150 20110 39980 40120 55000 60006 90000=
07168,1996-05-25 06:00:00,14,1012.1,-0,82,11,12000,18.52,,,210,12.3,19.4,,,,,,,,,wg-a,,,,AAXX 25064 07168 02462 82110 10140 20110 39981 40121 54000 60006 82572 90600 333 10194 20123 60004=
07168,1996-05-25 09:00:00,13,1012.4,0.3,94,12,9000,22.224,,,210,,,,,,,,,,,wg-a,,,,AAXX 25094 07168 32/59 /2112 10130 20120 39984 40124 51003 90900=
07168,1996-05-25 12:00:00,13,1012.8,0.3,94,12,9000,14.816,,,230,,,,2,,,,,,61,wg-a,,,,AAXX 25124 07168 02459 82308 10130 20120 39987 40128 53003 60026 76162 8577/ 91200 333 60027=
07168,1996-05-25 15:00:00,16,1012.3,-0.3,77,12,15000,29.632,,,260,,,,2,,,,,,2,wg-a,,,,AAXX 25154 07168 12465 82616 10160 20120 39984 40123 55003 60027 70262 8657/ 91500=
07168,1996-05-25 18:00:00,14,1013.7,1.3,88,12,0,14.816,,,250,12.4,16.1,,,,,,,,,wg-a,,,,AAXX 25184 07168 32/// /2508 10140 20120 39997 40137 51013 91800 333 10161 20124=
07168,1996-05-26 00:00:00,12,1015.1,0.3,100,12,0,3.704,,,250,,,,,,,,,,,wg-a,,,,AAXX 26004 07168 12/// /2502 10120 20120 30009 40151 52003 60016 90000=
07168,1996-05-26 06:00:00,12,1017.8,1.8,100,12,7000,14.816,,,270,10.6,13.7,,,,,7,,,3,wg-a,,,,AAXX 26064 07168 12357 72708 10120 20120 30036 40178 51018 60074 70386 878// 90600 333 10137 20106=
07168,1996-05-26 09:00:00,16,1018.5,0.9,72,11,20000,14.816,,,270,,,,,,,,,,,wg-a,,,,AAXX 26094 07168 12570 72708 10160 20110 30045 40185 51009 60006 878// 90900=
07168,1996-05-26 12:00:00,18,1018,-0.4,68,12,500,18.52,,,260,,,,,,,,,,,wg-a,,,,AAXX 26124 07168 12600 72610 10180 20120 30041 40180 58004 60006 8623/ 91200=
07168,1996-05-26 15:00:00,16,1017.1,-1,88,14,12000,18.52,,,240,,,,0,,,,,,61,wg-a,,,,AAXX 26154 07168 12462 82410 10160 20140 30031 40171 58010 60007 76162 8627/ 91500=
07168,1996-05-26 18:00:00,15,1016.1,-1,94,14,0,25.928,,,240,12.4,19.2,,,,,,,,,wg-a,,,,AAXX 26184 07168 32/// /2414 10150 20140 30021 40161 56010 91800 333 10192 20124=
07168,1996-05-27 06:00:00,13,1012.4,0.3,82,10,18000,29.632,,,250,12.6,14.7,,,,,2,,,,wg-a,,,,AAXX 27064 07168 12568 72516 10130 20100 39983 40124 53003 60024 878// 90600 333 10147 20126=
07168,1996-05-27 09:00:00,12,1013.3,0.9,94,11,8000,31.484,,,240,,,,,,,,,,60,wg-a,,,,AAXX 27094 07168 02458 82417 10120 20110 39992 40133 51009 61000 76062 875// 90900 333 ////=
07168,1996-05-27 12:00:00,15,1013.9,0.7,82,12,12000,35.188,,,260,,,,,,,,,,1,wg-a,,,,AAXX 27124 07168 02462 72619 10150 20120 39999 40139 51007 61000 70162 878// 91200 333 6100=
07168,1996-05-27 15:00:00,16,1014.7,0.9,88,14,8000,25.928,,,270,,,,1,,,,,,25,wg-a,,,,AAXX 27154 07168 12458 72714 10160 20140 30008 40147 53009 60017 72522 878// 91500=
07168,1996-05-27 18:00:00,14,1017,2.1,88,12,0,22.224,,,280,11.9,17.3,,,,,,,,,wg-a,,,,AAXX 27184 07168 32/// /2812 10140 20120 30029 40170 53021 91800 333 10173 20119=
07168,1996-05-28 06:00:00,8,1026.5,1.9,87,6,10000,14.816,,,350,5,14.1,,,,,2,,,,wg-a,,,,AAXX 28064 07168 12260 23508 10080 20060 30120 40265 53019 60024 81130 90600 333 10141 20050=
07168,1996-05-28 09:00:00,11,1027.6,1.2,62,4,20000,3.704,,,20,,,,,,,,,,,wg-a,,,,AAXX 28094 07168 12570 /0202 10110 20040 30132 40276 50012 60006 85100 90900=
07168,1996-05-28 12:00:00,14,1027.3,-0.1,63,7,20000,7.408,,,280,,,,,,,,,,,wg-a,,,,AAXX 28124 07168 12670 22804 10140 20070 30131 40273 58001 60006 82100 91200=
07168,1996-05-28 15:00:00,16,1026.1,-1.1,55,7,20000,7.408,,,360,,,,,,,,,,,wg-a,,,,AAXX 28154 07168 12670 /3604 10160 20070 30120 40261 58011 60006 81101 91500=
07168,1996-05-28 18:00:00,17,1025.3,-0.8,45,5,0,3.704,,,310,7.9,17.3,,,,,,,,,wg-a,,,,AAXX 28184 07168 12/// /3102 10170 20050 30112 40253 56008 60006 91800 333 10173 20079=
07168,1996-05-29 06:00:00,9,1024.9,-0.1,93,8,20000,7.408,,,180,4.8,17,,,,,,,,,wg-a,,,,AAXX 29064 07168 02/70 11804 10090 20080 30105 40249 58001 60006 81030 90600 333 10170 20048 60004=
07168,1996-05-29 09:00:00,18,1024.8,0.3,52,8,500,3.704,,,210,,,,,,,,,,,wg-a,,,,AAXX 29094 07168 12/00 12102 10180 20080 30108 40248 50003 60006 80001 90900=
07168,1996-05-29 12:00:00,20,1023.7,-1,46,8,0,11.112,,,70,,,,,,,,,,,wg-a,,,,AAXX 29124 07168 12/// /0706 10200 20080 30098 40237 57010 60006 91200=
07168,1996-05-29 15:00:00,22,1022.4,-1.2,46,10,500,11.112,,,50,,,,,,,,,,,wg-a,,,,AAXX 29154 07168 12/00 10506 10220 20100 30086 40224 56012 60006 80001 91500=
07168,1996-05-29 18:00:00,21,1021.3,-1.1,53,11,0,11.112,,,50,9.2,22.1,,,,,,,,,wg-a,,,,AAXX 29184 07168 12/// /0506 10210 20110 30075 40213 56011 60006 91800 333 10221 20092=
07168,1996-05-30 00:00:00,10,1021.3,-0.6,93,9,0,3.704,,,170,,,,,,,,,,,wg-a,,,,AAXX 30004 07168 12/// /1702 10100 20090 30070 40213 58006 60006 90000=
07168,1996-05-30 06:00:00,13,1019.7,-0.5,94,12,18000,7.408,,,180,7,21.1,,,,,,,,,wg-a,,,,AAXX 30064 07168 02/68 31804 10130 20120 30055 40197 56005 60006 80001 90600 333 10211 20070 60004=
07168,1996-05-30 09:00:00,22,1018.9,-0.3,50,11,25000,11.112,,,140,,,,,,,,,,,wg-a,,,,AAXX 30094 07168 12/75 31406 10220 20110 30052 40189 58003 60006 80001 90900=
07168,1996-05-30 12:00:00,26,1017.1,-1.6,48,14,500,14.816,,,160,,,,,,,,,,,wg-a,,,,AAXX 30124 07168 12/00 31608 10260 20140 30036 40171 58016 60006 80001 91200=
07168,1996-05-30 15:00:00,28,1015.6,-1.4,45,15,500,14.816,,,180,,,,,,,,,,,wg-a,,,,AAXX 30154 07168 12/00 41808 10280 20150 30022 40156 57014 60006 80001 91500=
07168,1996-05-30 18:00:00,25,1015,-0.7,65,18,0,11.112,,,180,12.6,28.2,,,,,,,,,wg-a,,,,AAXX 30184 07168 12/// /1806 10250 20180 30015 40150 55007 60006 91800 333 10282 20126=
07168,1996-05-31 00:00:00,16,1015.9,0.1,82,13,0,11.112,,,150,,,,,,,,,,,wg-a,,,,AAXX 31004 07168 12/// /1506 10160 20130 30019 40159 53001 60006 90000=
07168,1996-05-31 06:00:00,19,1018.6,2.4,73,14,20000,18.52,,,250,13.7,25.1,,,,,,,,,wg-a,,,,AAXX 31064 07168 02/70 12510 10190 20140 30048 40186 53024 60006 80001 90600 333 10251 20137 60004=
07168,1996-05-31 09:00:00,18,1021.6,2.9,83,15,12000,18.52,,,320,,,,,,,,,,,wg-a,,,,AAXX 31094 07168 12462 83210 10180 20150 30077 40216 52029 60006 875// 90900=
07168,1996-05-31 12:00:00,20,1022.1,0.6,73,15,8000,18.52,,,310,,,,,,,,,,,wg-a,,,,AAXX 31124 07168 12558 73110 10200 20150 30083 40221 51006 60006 878// 91200=
07168,1996-05-31 15:00:00,20,1021.4,-0.7,73,15,15000,14.816,,,310,,,,,,,,,,1,wg-a,,,,AAXX 31154 07168 02565 /3108 10200 20150 30076 40214 58007 61000 70186 86800 91500 333 ////=
07168,1996-05-31 18:00:00,19,1021.3,-0.2,78,15,0,7.408,,,290,17.2,20.7,,,,,,,,,wg-a,,,,AAXX 31184 07168 32/// /2904 10190 20150 30074 40213 55002 91800 333 10207 20172=
07168,1996-06-01 00:00:00,14,1022.1,0.1,94,13,0,11.112,,,240,,,,,,,,,,,wg-a,,,,AAXX 01004 07168 12/// /2406 10140 20130 30080 40221 53001 60026 90000=
07168,1996-06-01 06:00:00,12,1022,0.4,100,12,6000,18.52,,,10,12.1,19.1,,3,,,9,,,21,wg-a,,,,AAXX 01064 07168 02356 80110 10120 20120 30078 40220 53004 60094 72162 875// 90600 333 10191 20121 60037=
07168,1996-06-01 09:00:00,12,1023.4,1.3,100,12,6000,11.112,,,330,,,,0,,,,,,25,wg-a,,,,AAXX 01094 07168 12456 83306 10120 20120 30091 40234 51013 60007 72586 875// 90900=
07168,1996-06-01 12:00:00,16,1023.3,0.1,72,11,18000,7.408,,,300,,,,,,,,,,1,wg-a,,,,AAXX 01124 07168 12568 63004 10160 20110 30092 40233 50001 60006 70186 86800 91200=
07168,1996-06-01 15:00:00,19,1022.1,-1,56,10,20000,3.704,,,300,,,,,,,,,,,wg-a,,,,AAXX 01154 07168 12670 53002 10190 20100 30082 40221 56010 60006 84201 91500=
07168,1996-06-01 18:00:00,16,1021.8,-0.4,77,12,0,7.408,,,300,11.4,19.4,,,,,,,,,wg-a,,,,AAXX 01184 07168 32/// /3004 10160 20120 30078 40218 56004 91800 333 10194 20114=
07168,1996-06-02 00:00:00,11,1020.2,-1.1,94,10,0,7.408,,,300,,,,,,,,,,,wg-a,,,,AAXX 02004 07168 12/// /3004 10110 20100 30059 40202 58011 60006 90000=
07168,1996-06-02 06:00:00,11,1018.4,-0.5,94,10,15000,3.704,,,350,9.9,16.1,,,,,,,,,wg-a,,,,AAXX 02064 07168 02665 73502 10110 20100 30042 40184 55005 60006 82532 90600 333 10161 20099 60004=
07168,1996-06-02 09:00:00,16,1017.4,-0.8,72,11,15000,3.704,,,140,,,,,,,,,,,wg-a,,,,AAXX 02094 07168 12465 71402 10160 20110 30034 40174 56008 60006 81172 90900=
07168,1996-06-02 12:00:00,18,1016.3,-1,56,9,20000,7.408,,,90,,,,,,,,,,,wg-a,,,,AAXX 02124 07168 12570 70904 10180 20090 30024 40163 58010 60006 82172 91200=
07168,1996-06-02 15:00:00,18,1015.9,-0.4,64,11,20000,11.112,,,60,,,,,,,,,,,wg-a,,,,AAXX 02154 07168 12670 80606 10180 20110 30020 40159 56004 60006 83172 91500=
07168,1996-06-02 18:00:00,14,1016.5,0.4,88,12,0,7.408,,,330,11.2,18.2,,,,,,,,,wg-a,,,,AAXX 02184 07168 32/// /3304 10140 20120 30024 40165 53004 91800 333 10182 20112=
07168,1996-06-03 00:00:00,12,1018.3,0.4,100,12,0,11.112,,,300,,,,,,,,,,,wg-a,,,,AAXX 03004 07168 12/// /3006 10120 20120 30041 40183 51004 60006 90000=
07168,1996-06-03 06:00:00,12,1020.5,2,94,11,10000,7.408,,,320,11.6,13.8,,,,,1,,,,wg-a,,,,AAXX 03064 07168 02/60 73204 10120 20110 30063 40205 51020 60006 8703/ 90600 333 10138 20116 60014=
07168,1996-06-03 15:00:00,21,1021.2,-0.2,49,10,20000,7.408,,,360,,,,,,,,,,,wg-a,,,,AAXX 03154 07168 12670 23604 10210 20100 30074 40212 58002 60006 82200 91500=
07168,1996-06-03 18:00:00,21,1022,0.8,53,11,0,7.408,,,340,12.3,21.7,,,,,,,,,wg-a,,,,AAXX 03184 07168 12/// /3404 10210 20110 30082 40220 53008 60006 91800 333 10217 20123=
07168,1996-06-04 06:00:00,12,1027.5,1.7,94,11,10000,0,,,0,6.3,20.5,,,,,,,,,wg-a,,,,AAXX 04064 07168 02/60 00000 10120 20110 30132 40275 51017 60006 80000 90600 333 10205 20063 60004=
07168,1996-06-04 09:00:00,21,1027.6,0.5,56,12,12000,3.704,,,50,,,,,,,,,,,wg-a,,,,AAXX 04094 07168 12662 /0502 10210 20120 30137 40276 50005 60006 81201 90900=
07168,1996-06-04 12:00:00,23,1027,-0.5,38,8,15000,11.112,,,60,,,,,,,,,,,wg-a,,,,AAXX 04124 07168 12665 20606 10230 20080 30132 40270 58005 60006 82201 91200=
07168,1996-06-04 15:00:00,23,1026.4,-0.6,47,11,25000,11.112,,,40,,,,,,,,,,,wg-a,,,,AAXX 04154 07168 12775 10406 10230 20110 30126 40264 56006 60006 81100 91500=
07168,1996-06-04 18:00:00,23,1026,-0.4,50,12,0,11.112,,,30,11.5,23.8,,,,,,,,,wg-a,,,,AAXX 04184 07168 12/// /0306 10230 20120 30122 40260 56004 60006 91800 333 10238 20115=
07168,1996-06-05 00:00:00,12,1026.7,-0.3,94,11,0,7.408,,,300,,,,,,,,,,,wg-a,,,,AAXX 05004 07168 12/// /3004 10120 20110 30124 40267 58003 60006 90000=
07168,1996-06-05 06:00:00,16,1025.6,-0,77,12,10000,0,,,0,9.4,22.9,,,,,,,,,wg-a,,,,AAXX 05064 07168 02/60 00000 10160 20120 30115 40256 55000 60006 80000 90600 333 10229 20094 60004=
07168,1996-06-05 09:00:00,22,1024.4,-0.9,57,13,10000,7.408,,,50,,,,,,,,,,,wg-a,,,,AAXX 05094 07168 12/60 00504 10220 20130 30106 40244 58009 60006 80000 90900=
07168,1996-06-05 12:00:00,25,1022.8,-1.4,54,15,20000,11.112,,,70,,,,,,,,,,,wg-a,,,,AAXX 05124 07168 12/70 00706 10250 20150 30092 40228 57014 60006 80000 91200=
07168,1996-06-05 15:00:00,27,1021.3,-1.4,48,15,25000,11.112,,,70,,,,,,,,,,,wg-a,,,,AAXX 05154 07168 12/75 00706 10270 20150 30078 40213 57014 60006 80000 91500=
07168,1996-06-05 18:00:00,26,1020.5,-0.8,54,16,0,7.408,,,40,15.8,27.2,,,,,,,,,wg-a,,,,AAXX 05184 07168 12/// /0404 10260 20160 30070 40205 56008 60006 91800 333 10272 20158=
07168,1996-06-06 00:00:00,15,1020.7,-0.6,100,15,0,7.408,,,120,,,,,,,,,,,wg-a,,,,AAXX 06004 07168 12/// /1204 10150 20150 30066 40207 58006 60006 90000=
07168,1996-06-06 06:00:00,18,1020.6,0.5,94,17,10000,11.112,,,170,12.5,26.4,,,,,,,,,wg-a,,,,AAXX 06064 07168 02/60 01706 10180 20170 30067 40206 52005 60006 80000 90600 333 10264 20125 60004=
07168,1996-06-06 09:00:00,26,1020.3,0.1,65,19,15000,7.408,,,170,,,,,,,,,,,wg-a,,,,AAXX 06094 07168 12/65 01704 10260 20190 30068 40203 51001 60006 80000 90900=
07168,1996-06-06 12:00:00,30,1019.4,-0.7,52,19,20000,11.112,,,210,,,,,,,,,,,wg-a,,,,AAXX 06124 07168 12770 12106 10300 20190 30061 40194 58007 60006 81100 91200=
07168,1996-06-06 15:00:00,31,1018.6,-0.8,43,17,25000,14.816,,,210,,,,,,,,,,,wg-a,,,,AAXX 06154 07168 12/75 02108 10310 20170 30053 40186 58008 60006 80000 91500=
07168,1996-06-07 00:00:00,17,1019.3,0.2,94,16,0,7.408,,,180,,,,,,,,,,,wg-a,,,,AAXX 07004 07168 12/// /1804 10170 20160 30053 40193 50002 60006 90000=
07168,1996-06-07 06:00:00,20,1019,0.4,88,18,15000,3.704,,,170,16.1,28.7,,,,,,,,,wg-a,,,,AAXX 07064 07168 02/65 01702 10200 20180 30052 40190 52004 60006 80000 90600 333 10287 20161 60004=
07168,1996-06-07 09:00:00,27,1018.7,0.1,66,20,15000,7.408,,,180,,,,,,,,,,,wg-a,,,,AAXX 07094 07168 12865 11804 10270 20200 30053 40187 50001 60006 81030 90900=
07168,1996-06-07 12:00:00,31,1017.6,-1,46,18,20000,14.816,,,170,,,,,,,,,,,wg-a,,,,AAXX 07124 07168 12/70 01708 10310 20180 30043 40176 58010 60006 80000 91200=
07168,1996-06-07 15:00:00,32,1016.1,-1.4,43,18,20000,18.52,,,150,,,,,,,,,,,wg-a,,,,AAXX 07154 07168 12770 11510 10320 20180 30029 40161 56014 60006 81100 91500=
07168,1996-06-07 18:00:00,29,1015.1,-1.1,55,19,0,18.52,,,170,20.3,31.7,,,,,,,,,wg-a,,,,AAXX 07184 07168 12/// /1710 10290 20190 30018 40151 56011 60006 91800 333 10317 20203=
07168,1996-06-08 00:00:00,19,1015.9,-0.3,94,18,0,11.112,,,170,,,,,,,,,,,wg-a,,,,AAXX 08004 07168 12/// /1706 10190 20180 30021 40159 56003 60006 90000=
07168,1996-06-08 06:00:00,21,1017.5,1,73,16,20000,18.52,,,170,17.2,29.3,,,,,,,,,wg-a,,,,AAXX 08064 07168 02/70 11710 10210 20160 30038 40175 51010 60006 80001 90600 333 10293 20172 60004=
07168,1996-06-08 09:00:00,25,1018.4,1,57,16,20000,18.52,,,220,,,,,,,,,,,wg-a,,,,AAXX 08094 07168 12670 /2210 10250 20160 30048 40184 53010 60006 81101 90900=
07168,1996-06-08 12:00:00,24,1019.5,1.1,65,17,15000,18.52,,,270,,,,,,,,,,,wg-a,,,,AAXX 08124 07168 12665 72710 10240 20170 30059 40195 52011 60006 872// 91200=
07168,1996-06-08 15:00:00,24,1019.7,0.2,61,16,11000,18.52,,,260,,,,,,,,,,,wg-a,,,,AAXX 08154 07168 12661 72610 10240 20160 30061 40197 50002 60006 82231 91500=
07168,1996-06-08 18:00:00,24,1019.5,-0.2,65,17,0,7.408,,,270,21.3,26.5,,,,,,,,,wg-a,,,,AAXX 08184 07168 12/// /2704 10240 20170 30059 40195 57002 60006 91800 333 10265 20213=
07168,1996-06-09 00:00:00,16,1022.2,0.7,94,15,0,7.408,,,330,,,,,,,,,,,wg-a,,,,AAXX 09004 07168 12/// /3304 10160 20150 30081 40222 51007 60006 90000=
07168,1996-06-09 06:00:00,15,1023.2,1.1,94,14,500,11.112,,,330,12.4,24.2,,,,,,,,,wg-a,,,,AAXX 09064 07168 02400 73306 10150 20140 30091 40232 51011 60006 875// 90600 333 10242 20124 60004=
07168,1996-06-09 09:00:00,19,1023.4,0.4,78,15,7000,3.704,,,160,,,,,,,,,,,wg-a,,,,AAXX 09094 07168 12457 /1602 10190 20150 30095 40234 51004 60006 86500 90900=
07168,1996-06-09 12:00:00,22,1022.4,-0.9,69,16,9000,7.408,,,290,,,,,,,,,,,wg-a,,,,AAXX 09124 07168 12659 /2904 10220 20160 30086 40224 58009 60006 85200 91200=
07168,1996-06-09 15:00:00,25,1020.8,-1.4,54,15,15000,3.704,,,130,,,,,,,,,,,wg-a,,,,AAXX 09154 07168 12665 31302 10250 20150 30072 40208 58014 60006 83200 91500=
07168,1996-06-09 18:00:00,25,1020.1,-0.7,57,16,0,3.704,,,340,14.9,26.2,,,,,,,,,wg-a,,,,AAXX 09184 07168 12/// /3402 10250 20160 30065 40201 56007 60006 91800 333 10262 20149=
07168,1996-06-10 00:00:00,13,1021.4,-0.5,94,12,0,0,,,0,,,,,,,,,,,wg-a,,,,AAXX 10004 07168 12/// /0000 10130 20120 30072 40214 58005 60006 90000=
07168,1996-06-10 06:00:00,18,1021.8,0.6,94,17,8000,3.704,,,170,12,25.2,,,,,,,,,wg-a,,,,AAXX 10064 07168 12/58 /1702 10180 20170 30079 40218 51006 60004 81080 90600 333 10252 20120=
07168,1996-06-10 09:00:00,26,1021.2,-0.2,61,18,15000,7.408,,,150,,,,,,,,,,,wg-a,,,,AAXX 10094 07168 12665 21504 10260 20180 30077 40212 56002 60006 82200 90900=
07168,1996-06-10 12:00:00,29,1020.4,-0.7,52,18,20000,7.408,,,180,,,,,,,,,,,wg-a,,,,AAXX 10124 07168 12770 41804 10290 20180 30070 40204 58007 60006 84200 91200=
07168,1996-06-10 15:00:00,28,1019.5,-0.9,48,16,25000,7.408,,,310,,,,,,,,,,,wg-a,,,,AAXX 10154 07168 12775 43104 10280 20160 30061 40195 56009 60006 84200 91500=
07168,1996-06-10 18:00:00,28,1019,-0.5,51,17,0,11.112,,,70,18,30.1,,,,,,,,,wg-a,,,,AAXX 10184 07168 12/// /0706 10280 20170 30056 40190 56005 60006 91800 333 10301 20180=
07168,1996-06-11 00:00:00,18,1022.2,0.3,94,17,0,7.408,,,180,,,,,,,,,,,wg-a,,,,AAXX 11004 07168 12/// /1804 10180 20170 30083 40222 50003 60006 90000=
07168,1996-06-11 06:00:00,19,1023.4,1.1,88,17,12000,0,,,0,15.3,28.1,,,,,,,,,wg-a,,,,AAXX 11064 07168 02/62 10000 10190 20170 30095 40234 51011 60006 80001 90600 333 10281 20153 60004=
07168,1996-06-11 09:00:00,24,1023.8,0.6,69,18,14000,7.408,,,310,,,,,,,,,,,wg-a,,,,AAXX 11094 07168 12/64 23104 10240 20180 30101 40238 51006 60006 80001 90900=
07168,1996-06-11 12:00:00,28,1022.8,-0.8,55,18,18000,7.408,,,320,,,,,,,,,,,wg-a,,,,AAXX 11124 07168 12668 43204 10280 20180 30093 40228 58008 60006 84200 91200=
07168,1996-06-11 15:00:00,30,1022,-0.7,49,18,20000,14.816,,,290,,,,,,,,,,,wg-a,,,,AAXX 11154 07168 12670 42908 10300 20180 30086 40220 56007 60006 84200 91500=
07168,1996-06-11 18:00:00,28,1021.8,-0.2,62,20,0,7.408,,,320,18.6,30.8,,,,,,,,,wg-a,,,,AAXX 11184 07168 12/// /3204 10280 20200 30084 40218 55002 60006 91800 333 10308 20186=
07168,1996-06-12 00:00:00,17,1024.1,0.4,94,16,0,7.408,,,190,,,,,,,,,,,wg-a,,,,AAXX 12004 07168 12/// /1904 10170 20160 30101 40241 50004 60006 90000=
07168,1996-06-12 06:00:00,17,1026.7,2.4,94,16,10000,14.816,,,320,16,28,,,,,,,,,wg-a,,,,AAXX 12064 07168 02660 23208 10170 20160 30127 40267 53024 60006 82500 90600 333 10280 20160 60004=
07168,1996-06-12 09:00:00,18,1028.4,1.7,83,15,12000,14.816,,,330,,,,,,,,,,,wg-a,,,,AAXX 12094 07168 12462 83308 10180 20150 30144 40284 51017 60006 885// 90900=
07168,1996-06-12 12:00:00,20,1028.9,0.5,78,16,15000,11.112,,,330,,,,,,,,,,,wg-a,,,,AAXX 12124 07168 12565 73306 10200 20160 30149 40289 51005 60006 875// 91200=
07168,1996-06-12 15:00:00,19,1029.2,0.3,78,15,15000,14.816,,,340,,,,,,,,,,,wg-a,,,,AAXX 12154 07168 12565 73408 10190 20150 30152 40292 51003 60006 875// 91500=
07168,1996-06-12 18:00:00,20,1028.9,-0.3,60,12,0,18.52,,,350,16.9,21.4,,,,,,,,,wg-a,,,,AAXX 12184 07168 12/// /3510 10200 20120 30149 40289 55003 60006 91800 333 10214 20169=
07168,1996-06-13 00:00:00,13,1032,1.2,88,11,0,14.816,,,360,,,,,,,,,,,wg-a,,,,AAXX 13004 07168 12/// /3608 10130 20110 30177 40320 51012 60006 90000=
07168,1996-06-13 06:00:00,12,1033,0.6,71,7,20000,11.112,,,20,7.5,19.9,,,,,,,,,wg-a,,,,AAXX 13064 07168 02/70 00206 10120 20070 30186 40330 53006 60006 80000 90600 333 10199 20075 60004=
07168,1996-06-13 09:00:00,17,1032.5,-0.3,45,5,500,22.224,,,40,,,,,,,,,,,wg-a,,,,AAXX 13094 07168 12/00 10412 10170 20050 30183 40325 58003 60006 80001 90900=
07168,1996-06-13 12:00:00,20,1031.7,-0.6,37,5,500,22.224,,,30,,,,,,,,,,,wg-a,,,,AAXX 13124 07168 12/00 10312 10200 20050 30177 40317 58006 60006 80002 91200=
07168,1996-06-13 15:00:00,22,1029.9,-1.7,35,6,500,22.224,,,20,,,,,,,,,,,wg-a,,,,AAXX 13154 07168 12/00 10212 10220 20060 30160 40299 58017 60006 80002 91500=
07168,1996-06-13 18:00:00,21,1029.2,-0.7,40,7,0,18.52,,,20,11.8,22.1,,,,,,,,,wg-a,,,,AAXX 13184 07168 12/// /0210 10210 20070 30153 40292 56007 60006 91800 333 10221 20118=
07168,1996-06-14 00:00:00,14,1030.2,-0.2,63,7,0,14.816,,,30,,,,,,,,,,,wg-a,,,,AAXX 14004 07168 12/// /0308 10140 20070 30159 40302 58002 60006 90000=
07168,1996-06-14 06:00:00,13,1029.9,0.1,72,8,10000,11.112,,,30,8.9,20.8,,,,,,,,,wg-a,,,,AAXX 14064 07168 02/60 00306 10130 20080 30156 40299 53001 60006 80000 90600 333 10208 20089 60004=
07168,1996-06-14 09:00:00,19,1029.2,-0.4,49,8,25000,22.224,,,50,,,,,,,,,,,wg-a,,,,AAXX 14094 07168 12/75 00512 10190 20080 30152 40292 58004 60006 80000 90900=
07168,1996-06-14 12:00:00,22,1028.2,-0.9,38,7,25000,25.928,,,40,,,,,,,,,,,wg-a,,,,AAXX 14124 07168 12/75 00414 10220 20070 30143 40282 58009 60006 80000 91200=
07168,1996-06-14 15:00:00,23,1026.7,-1.4,36,7,25000,25.928,,,50,,,,,,,,,,,wg-a,,,,AAXX 14154 07168 12/75 00514 10230 20070 30129 40267 56014 60006 80000 91500=
07168,1996-06-14 18:00:00,23,1025.8,-0.9,33,6,0,22.224,,,40,13,23.6,,,,,,,,,wg-a,,,,AAXX 14184 07168 12/// /0412 10230 20060 30120 40258 55009 60006 91800 333 10236 20130=
07168,1996-06-15 00:00:00,10,1027.4,0.1,87,8,0,11.112,,,310,,,,,,,,,,,wg-a,,,,AAXX 15004 07168 12/// /3106 10100 20080 30130 40274 53001 60006 90000=
07168,1996-06-15 06:00:00,13,1026.7,-0,72,8,15000,7.408,,,40,7.9,22.5,,,,,,,,,wg-a,,,,AAXX 15064 07168 02/65 00404 10130 20080 30124 40267 55000 60006 80000 90600 333 10225 20079 60004=
07168,1996-06-15 09:00:00,20,1026,-0.3,53,10,18000,14.816,,,50,,,,,,,,,,,wg-a,,,,AAXX 15094 07168 12/68 00508 10200 20100 30121 40260 58003 60006 80000 90900=
07168,1996-06-15 12:00:00,23,1024.9,-1,38,8,20000,22.224,,,50,,,,,,,,,,,wg-a,,,,AAXX 15124 07168 12/70 00512 10230 20080 30111 40249 58010 60006 80000 91200=
07168,1996-06-15 15:00:00,25,1023.3,-1.5,32,7,500,22.224,,,50,,,,,,,,,,,wg-a,,,,AAXX 15154 07168 12/00 10512 10250 20070 30096 40233 57015 60006 80001 91500=
07168,1996-06-15 18:00:00,24,1022.4,-0.9,38,9,0,14.816,,,40,13.4,25.4,,,,,,,,,wg-a,,,,AAXX 15184 07168 12/// /0408 10240 20090 30087 40224 56009 60006 91800 333 10254 20134=
07168,1996-06-16 00:00:00,13,1023.8,0.5,72,8,0,7.408,,,330,,,,,,,,,,,wg-a,,,,AAXX 16004 07168 12/// /3304 10130 20080 30095 40238 51005 60006 90000=
07168,1996-06-16 06:00:00,13,1023.3,0.3,72,8,20000,7.408,,,330,7.8,24.2,,,,,,,,,wg-a,,,,AAXX 16064 07168 02/70 13304 10130 20080 30091 40233 51003 60006 80001 90600 333 10242 20078 60004=
07168,1996-06-16 09:00:00,20,1023.2,0.2,56,11,25000,14.816,,,50,,,,,,,,,,,wg-a,,,,AAXX 16094 07168 12/75 20508 10200 20110 30093 40232 51002 60006 80001 90900=
07168,1996-06-16 12:00:00,24,1022.2,-0.8,38,9,500,18.52,,,40,,,,,,,,,,,wg-a,,,,AAXX 16124 07168 12/00 10410 10240 20090 30085 40222 58008 60006 80001 91200=
07168,1996-06-16 15:00:00,25,1020.7,-1.4,32,7,500,18.52,,,50,,,,,,,,,,,wg-a,,,,AAXX 16154 07168 12/00 10510 10250 20070 30071 40207 56014 60006 80001 91500=
07168,1996-06-16 18:00:00,24,1019.7,-1,34,7,0,18.52,,,40,13.4,25.8,,,,,,,,,wg-a,,,,AAXX 16184 07168 12/// /0410 10240 20070 30061 40197 56010 60006 91800 333 10258 20134=
07168,1996-06-17 00:00:00,12,1020.6,-0.4,82,9,0,7.408,,,320,,,,,,,,,,,wg-a,,,,AAXX 17004 07168 12/// /3204 10120 20090 30064 40206 57004 60006 90000=
07168,1996-06-17 06:00:00,13,1020.3,0.2,82,10,25000,11.112,,,310,7.7,24.3,,,,,,,,,wg-a,,,,AAXX 17064 07168 02/75 03106 10130 20100 30061 40203 53002 60006 80000 90600 333 10243 20077 60004=
07168,1996-06-17 09:00:00,22,1019.8,0,53,12,25000,7.408,,,50,,,,,,,,,,,wg-a,,,,AAXX 17094 07168 12/75 10504 10220 20120 30061 40198 50000 60006 80001 90900=
07168,1996-06-17 12:00:00,25,1018.5,-1.2,36,9,500,7.408,,,80,,,,,,,,,,,wg-a,,,,AAXX 17124 07168 12800 30804 10250 20090 30049 40185 57012 60006 81101 91200=
07168,1996-06-17 15:00:00,27,1017.2,-1.2,30,8,500,7.408,,,240,,,,,,,,,,,wg-a,,,,AAXX 17154 07168 12/00 52404 10270 20080 30037 40172 56012 60006 80001 91500=
07168,1996-06-17 18:00:00,25,1016.4,-0.8,41,11,0,11.112,,,340,12.7,27.5,,,,,,,,,wg-a,,,,AAXX 17184 07168 12/// /3406 10250 20110 30029 40164 56008 60006 91800 333 10275 20127=
07168,1996-06-18 00:00:00,11,1017,-0.3,87,9,0,0,,,0,,,,,,,,,,,wg-a,,,,AAXX 18004 07168 12/// /0000 10110 20090 30028 40170 58003 60006 90000=
07168,1996-06-18 06:00:00,15,1015.4,-0.4,82,12,20000,0,,,0,8.3,25.1,,,,,,,,,wg-a,,,,AAXX 18064 07168 02/70 40000 10150 20120 30014 40154 56004 60006 80001 90600 333 10251 20083 60004=
07168,1996-06-18 09:00:00,26,1014.2,-0.7,39,11,20000,25.928,,,270,,,,,,,,,,,wg-a,,,,AAXX 18094 07168 12/70 12714 10260 20110 30007 40142 58007 60006 80001 90900=
07168,1996-06-18 12:00:00,28,1013.3,-0.8,37,12,25000,18.52,,,290,,,,,,,,,,,wg-a,,,,AAXX 18124 07168 12/75 12910 10280 20120 39999 40133 58008 60006 80001 91200=
07168,1996-06-18 15:00:00,29,1012.3,-0.9,23,6,25000,22.224,,,300,,,,,,,,,,,wg-a,,,,AAXX 18154 07168 12/75 43012 10290 20060 39990 40123 56009 60006 80001 91500=
07168,1996-06-18 18:00:00,27,1012.1,-0.3,37,11,0,18.52,,,330,15.1,29.6,,,,,,,,,wg-a,,,,AAXX 18184 07168 12/// /3310 10270 20110 39987 40121 55003 60006 91800 333 10296 20151=
07168,1996-06-19 00:00:00,13,1015.1,0.8,82,10,0,11.112,,,330,,,,,,,,,,,wg-a,,,,AAXX 19004 07168 12/// /3306 10130 20100 30010 40151 51008 60006 90000=
07168,1996-06-19 09:00:00,17,1015.7,0.4,52,7,15000,11.112,,,360,,,,,,,,,,,wg-a,,,,AAXX 19094 07168 12/65 63606 10170 20070 30017 40157 50004 60006 80002 90900=
07168,1996-06-19 12:00:00,19,1015,-0.5,49,8,10000,14.816,,,10,,,,,,,,,,,wg-a,,,,AAXX 19124 07168 12/60 /0108 10190 20080 30012 40150 58005 60006 91200=
07168,1996-06-19 15:00:00,20,1013.8,-1.2,43,7,20000,7.408,,,320,,,,,,,,,,,wg-a,,,,AAXX 19154 07168 12/70 53204 10200 20070 30000 40138 58012 60006 84082 91500=
07168,1996-06-19 18:00:00,21,1012.4,-1.3,49,10,0,11.112,,,80,11.2,21.7,,,,,,,,,wg-a,,,,AAXX 19184 07168 12/// /0806 10210 20100 39987 40124 57013 60006 91800 333 10217 20112=
07168,1996-06-20 00:00:00,12,1010.8,-1.3,88,10,0,11.112,,,180,,,,,,,,,,,wg-a,,,,AAXX 20004 07168 12/// /1806 10120 20100 39967 40108 58013 60006 90000=
07168,1996-06-20 06:00:00,14,1008.3,-0.1,100,14,2500,11.112,,,180,10.8,20.6,,4,,,6,,,10,wg-a,,,,AAXX 20064 07168 02325 81806 10140 20140 39944 40083 58001 60064 71096 887// 90600 333 10206 20108 60047=
07168,1996-06-20 09:00:00,18,1007.6,-0.5,88,16,15000,25.928,,,250,,,,0,,,,,,21,wg-a,,,,AAXX 20094 07168 12465 72514 10180 20160 39939 40076 57005 60007 72162 872// 90900=
07168,1996-06-20 12:00:00,20,1008.2,0.6,64,13,500,25.928,,,260,,,,,,,,,,3,wg-a,,,,AAXX 20124 07168 02600 72614 10200 20130 39945 40082 51006 60016 70386 878// 91200 333 61000=
07168,1996-06-20 15:00:00,19,1008.1,-0.1,83,16,500,25.928,,,260,,,,1,,,,,,25,wg-a,,,,AAXX 20154 07168 12500 62614 10190 20160 39944 40081 58001 60017 72586 85930 91500=
07168,1996-06-20 18:00:00,19,1008.1,-0,73,14,0,11.112,,,330,13.9,22.4,,0,,,,,,,wg-a,,,,AAXX 20184 07168 12/// /3306 10190 20140 39944 40081 55000 60007 91800 333 10224 20139=
07168,1996-06-21 00:00:00,13,1008.8,-0.6,94,12,0,0,,,0,,,,,,,,,,,wg-a,,,,AAXX 21004 07168 12/// /0000 10130 20120 39948 40088 58006 60006 90000=
07168,1996-06-21 06:00:00,13,1007.7,0.1,100,13,4000,7.408,,,290,10.1,18.9,,,,,1,,,10,wg-a,,,,AAXX 21064 07168 02140 82904 10130 20130 39937 40077 53001 60014 71062 885// 90600 333 10189 20101 61000=
07168,1996-06-21 12:00:00,14,1008.4,0.3,88,12,7000,14.816,,,20,,,,,,,,,,,wg-a,,,,AAXX 21124 07168 12457 80208 10140 20120 39944 40084 51003 60006 876// 91200=
07168,1996-06-21 15:00:00,14,1008.5,0.1,77,10,12000,14.816,,,40,,,,,,,,,,,wg-a,,,,AAXX 21154 07168 12462 80408 10140 20100 39945 40085 53001 60006 888// 91500=
07168,1996-06-21 18:00:00,14,1008.4,-0.1,77,10,0,7.408,,,20,13.4,15.1,,,,,,,,,wg-a,,,,AAXX 21184 07168 12/// /0204 10140 20100 39944 40084 55001 60006 91800 333 10151 20134=
07168,1996-06-22 00:00:00,6,1012.2,1.5,93,5,0,14.816,,,300,,,,,,,,,,,wg-a,,,,AAXX 22004 07168 12/// /3008 10060 20050 39977 40122 53015 60006 90000=
07168,1996-06-22 06:00:00,9,1015.5,1.9,87,7,15000,14.816,,,320,4.5,14.4,,,,,,,,,wg-a,,,,AAXX 22064 07168 02765 73208 10090 20070 30012 40155 53019 60006 875// 90600 333 10144 20045 60004=
07168,1996-06-22 09:00:00,13,1017,1.7,62,6,25000,18.52,,,350,,,,,,,,,,,wg-a,,,,AAXX 22094 07168 12575 73510 10130 20060 30029 40170 51017 60006 878// 90900=
07168,1996-06-22 12:00:00,15,1018.2,1.2,48,4,25000,25.928,,,340,,,,,,,,,,,wg-a,,,,AAXX 22124 07168 12675 73414 10150 20040 30041 40182 53012 60006 878// 91200=
07168,1996-06-22 15:00:00,13,1018.9,0.7,82,10,500,14.816,,,330,,,,0,,,,,,,wg-a,,,,AAXX 22154 07168 12600 73308 10130 20100 30048 40189 53007 60007 878// 91500=
07168,1996-06-22 18:00:00,12,1020.1,1.1,88,10,0,11.112,,,330,8.8,16.2,,,,,,,,,wg-a,,,,AAXX 22184 07168 32/// /3306 10120 20100 30059 40201 51011 91800 333 10162 20088=
07168,1996-06-23 00:00:00,9,1022.1,0.3,93,8,0,7.408,,,300,,,,,,,,,,,wg-a,,,,AAXX 23004 07168 12/// /3004 10090 20080 30077 40221 51003 60006 90000=
07168,1996-06-23 06:00:00,10,1022.9,0.8,93,9,12000,7.408,,,340,7.9,12.3,,,,,,,,,wg-a,,,,AAXX 23064 07168 02462 73404 10100 20090 30085 40229 51008 60006 8487/ 90600 333 10123 20079 60004=
07168,1996-06-23 09:00:00,13,1023.7,1,72,8,15000,11.112,,,340,,,,,,,,,,,wg-a,,,,AAXX 23094 07168 12565 /3406 10130 20080 30095 40237 51010 60006 86800 90900=
07168,1996-06-23 12:00:00,15,1024.1,0.4,63,8,15000,18.52,,,340,,,,,,,,,,,wg-a,,,,AAXX 23124 07168 12565 73410 10150 20080 30099 40241 52004 60006 878// 91200=
07168,1996-06-23 15:00:00,16,1023.9,-0.1,59,8,20000,22.224,,,340,,,,,,,,,,,wg-a,,,,AAXX 23154 07168 12570 73412 10160 20080 30098 40239 55001 60006 878// 91500=
07168,1996-06-23 18:00:00,16,1023.9,-0,55,7,0,14.816,,,350,10.1,17,,,,,,,,,wg-a,,,,AAXX 23184 07168 12/// /3508 10160 20070 30098 40239 55000 60006 91800 333 10170 20101=
07168,1996-06-24 00:00:00,7,1025.6,0,100,7,0,3.704,,,310,,,,,,,,,,,wg-a,,,,AAXX 24004 07168 12/// /3102 10070 20070 30110 40256 50000 60006 90000=
07168,1996-06-24 06:00:00,9,1026.5,0.9,93,8,9000,11.112,,,340,5,15.5,,,,,,,,,wg-a,,,,AAXX 24064 07168 12659 /3406 10090 20080 30120 40265 52009 60004 86501 90600 333 10155 20050=
07168,1996-06-24 09:00:00,12,1026.3,-0,76,8,15000,7.408,,,340,,,,,,,,,,,wg-a,,,,AAXX 24094 07168 12465 83404 10120 20080 30120 40263 55000 60006 888// 90900=
07168,1996-06-24 12:00:00,14,1026.1,-0.1,58,6,25000,14.816,,,330,,,,,,,,,,,wg-a,,,,AAXX 24124 07168 12575 83308 10140 20060 30119 40261 56001 60006 888// 91200=
07168,1996-06-24 15:00:00,13,1026.1,-0.1,67,7,25000,14.816,,,330,,,,,,,,,,,wg-a,,,,AAXX 24154 07168 12575 83308 10130 20070 30118 40261 58001 60006 885// 91500=
07168,1996-06-24 18:00:00,12,1025.7,-0.4,88,10,0,3.704,,,280,9.2,13.9,,,,,,,,,wg-a,,,,AAXX 24184 07168 12/// /2802 10120 20100 30114 40257 56004 60006 91800 333 10139 20092=
07168,1996-06-25 00:00:00,11,1025.9,-0.2,94,10,0,3.704,,,330,,,,,,,,,,,wg-a,,,,AAXX 25004 07168 12/// /3302 10110 20100 30115 40259 58002 60006 90000=
07168,1996-06-25 06:00:00,12,1025.7,0.2,94,11,3000,11.112,,,350,10.1,12.5,,,,,,,,10,wg-a,,,,AAXX 25064 07168 02330 83506 10120 20110 30114 40257 50002 60006 71022 885// 90600 333 10125 20101 60004=
07168,1996-06-25 09:00:00,14,1025.6,0,77,10,12000,11.112,,,340,,,,,,,,,,,wg-a,,,,AAXX 25094 07168 12462 73406 10140 20100 30114 40256 50000 60006 878// 90900=
07168,1996-06-25 12:00:00,16,1024.8,-0.7,68,10,15000,11.112,,,350,,,,,,,,,,,wg-a,,,,AAXX 25124 07168 12565 73506 10160 20100 30107 40248 58007 60006 878// 91200=
07168,1996-06-25 15:00:00,18,1023.7,-1,52,8,18000,11.112,,,360,,,,,,,,,,,wg-a,,,,AAXX 25154 07168 12668 73606 10180 20080 30097 40237 56010 60006 878// 91500=
07168,1996-06-25 18:00:00,17,1023.1,-0.6,63,10,0,14.816,,,330,11.5,18.9,,,,,,,,,wg-a,,,,AAXX 25184 07168 12/// /3308 10170 20100 30091 40231 56006 60006 91800 333 10189 20115=
07168,1996-06-26 00:00:00,9,1023.6,0,93,8,0,7.408,,,320,,,,,,,,,,,wg-a,,,,AAXX 26004 07168 12/// /3204 10090 20080 30091 40236 50000 60006 90000=
07168,1996-06-26 09:00:00,18,1022.6,0.2,59,10,10000,3.704,,,320,,,,,,,,,,,wg-a,,,,AAXX 26094 07168 12560 33202 10180 20100 30086 40226 50002 60006 83200 90900=
07168,1996-06-26 12:00:00,21,1021.7,-0.7,49,10,15000,7.408,,,280,,,,,,,,,,,wg-a,,,,AAXX 26124 07168 12665 /2804 10210 20100 30079 40217 58007 60006 83202 91200=
07168,1996-06-26 15:00:00,23,1021.4,-0.2,41,9,25000,11.112,,,290,,,,,,,,,,,wg-a,,,,AAXX 26154 07168 12675 42906 10230 20090 30077 40214 58002 60006 84201 91500=
07168,1996-06-26 18:00:00,22,1021.3,-0.2,46,10,0,11.112,,,360,9.4,23.4,,,,,,,,,wg-a,,,,AAXX 26184 07168 12/// /3606 10220 20100 30075 40213 56002 60006 91800 333 10234 20094=
07168,1996-06-27 00:00:00,11,1023.2,0.3,87,9,0,0,,,0,,,,,,,,,,,wg-a,,,,AAXX 27004 07168 12/// /0000 10110 20090 30089 40232 50003 60006 90000=
07168,1996-06-27 06:00:00,13,1024.2,1,94,12,500,0,,,0,8,22.2,,,,,,,,,wg-a,,,,AAXX 27064 07168 02800 70000 10130 20120 30100 40242 52010 60006 81082 90600 333 10222 20080 60004=
07168,1996-06-27 09:00:00,21,1024.3,0.4,64,14,9000,7.408,,,140,,,,,,,,,,,wg-a,,,,AAXX 27094 07168 12/59 /1404 10210 20140 30104 40243 50004 60006 80001 90900=
07168,1996-06-27 12:00:00,23,1023.5,-0.6,53,13,12000,7.408,,,330,,,,,,,,,,,wg-a,,,,AAXX 27124 07168 12662 63304 10230 20130 30098 40235 58006 60006 84101 91200=
07168,1996-06-27 15:00:00,26,1022.4,-1,42,12,15000,7.408,,,340,,,,,,,,,,,wg-a,,,,AAXX 27154 07168 12765 53404 10260 20120 30088 40224 58010 60006 83101 91500=
07168,1996-06-27 18:00:00,23,1022.2,-0.3,57,14,0,7.408,,,290,13.3,25.9,,,,,,,,,wg-a,,,,AAXX 27184 07168 12/// /2904 10230 20140 30085 40222 55003 60006 91800 333 10259 20133=
07168,1996-06-28 00:00:00,13,1022.3,-0.6,94,12,0,0,,,0,,,,,,,,,,,wg-a,,,,AAXX 28004 07168 12/// /0000 10130 20120 30081 40223 58006 60006 90000=
07168,1996-06-28 06:00:00,14,1022,0.4,100,14,1000,11.112,,,290,9.6,23.4,,,,,,,,40,wg-a,,,,AAXX 28064 07168 02110 52906 10140 20140 30079 40220 53004 60006 74011 83601 90600 333 10234 20096 60004=
07168,1996-06-28 09:00:00,21,1021,-0.7,73,16,10000,7.408,,,290,,,,,,,,,,1,wg-a,,,,AAXX 28094 07168 12560 32904 10210 20160 30072 40210 58007 60006 70141 81101 90900=
07168,1996-06-28 12:00:00,24,1019.7,-1.1,50,13,20000,18.52,,,270,,,,,,,,,,3,wg-a,,,,AAXX 28124 07168 12670 62710 10240 20130 30061 40197 56011 60006 70341 84250 91200=
07168,1996-06-28 15:00:00,26,1017.3,-2.3,48,14,20000,14.816,,,280,,,,,,,,,,,wg-a,,,,AAXX 28154 07168 12770 62808 10260 20140 30038 40173 56023 60006 85230 91500=
07168,1996-06-28 18:00:00,25,1015.6,-1.7,50,14,0,7.408,,,260,14.2,27,,,,,,,,,wg-a,,,,AAXX 28184 07168 12/// /2604 10250 20140 30021 40156 56017 60006 91800 333 10270 20142=
07168,1996-06-29 00:00:00,18,1015.9,-0.2,68,12,0,11.112,,,250,,,,,,,,,,,wg-a,,,,AAXX 29004 07168 12/// /2506 10180 20120 30020 40159 58002 60006 90000=
07168,1996-06-29 06:00:00,17,1015.1,0.2,82,14,18000,25.928,,,240,16,24.5,,,,,,,,,wg-a,,,,AAXX 29064 07168 02568 72414 10170 20140 30012 40151 53002 60006 875// 90600 333 10245 20160 60004=
07168,1996-06-29 09:00:00,17,1015.6,0.5,88,15,500,29.632,,,260,,,,2,,,,,,21,wg-a,,,,AAXX 29094 07168 12400 72616 10170 20150 30017 40156 51005 60027 72162 878// 90900=
07168,1996-06-29 12:00:00,19,1015.8,0.3,60,11,500,31.484,,,280,,,,,,,,,,2,wg-a,,,,AAXX 29124 07168 12600 72817 10190 20110 30020 40158 51003 60026 70262 87800 91200=
07168,1996-06-29 15:00:00,20,1015.8,-0,46,8,500,35.188,,55.56,280,,,,,,,,,,,wg-a,,,,AAXX 29154 07168 12700 52819 10200 20080 30020 40158 55000 60006 85100 91500 333 91030=
07168,1996-06-29 18:00:00,19,1017.2,1.3,46,7,0,25.928,,,310,14.3,22.5,,,,,,,,,wg-a,,,,AAXX 29184 07168 32/// /3114 10190 20070 30033 40172 52013 91800 333 10225 20143=
07168,1996-06-30 00:00:00,11,1020.4,0.3,71,6,0,7.408,,,310,,,,,,,,,,,wg-a,,,,AAXX 30004 07168 12/// /3104 10110 20060 30061 40204 50003 60006 90000=
07168,1996-06-30 06:00:00,13,1020.1,0.2,77,9,500,14.816,,,270,9.2,19,,,,,2,,,,wg-a,,,,AAXX 30064 07168 02700 62708 10130 20090 30059 40201 52002 60006 835/2 90600 333 10190 20092 60024=
07168,1996-06-30 09:00:00,17,1019.4,-0.5,55,8,500,25.928,,,250,,,,,,,,,,,wg-a,,,,AAXX 30094 07168 12600 72514 10170 20080 30054 40194 58005 60006 84132 90900=
07168,1996-06-30 12:00:00,18,1018,-1.3,59,10,500,22.224,,,230,,,,,,,,,,21,wg-a,,,,AAXX 30124 07168 02600 72312 10180 20100 30041 40180 58013 61000 72162 8587/ 91200 333 6100=
07168,1996-06-30 15:00:00,18,1016.1,-1.9,56,9,500,22.224,,,220,,,,,,,,,,,wg-a,,,,AAXX 30154 07168 12700 82212 10180 20090 30022 40161 58019 60006 8357/ 91500=
07168,1996-06-30 18:00:00,16,1015.2,-1,77,12,0,11.112,,,220,12.5,19.4,,,,,,,,,wg-a,,,,AAXX 30184 07168 32/// /2206 10160 20120 30012 40152 56010 91800 333 10194 20125=
07168,1996-07-01 00:00:00,15,1012.8,-1.3,82,12,0,11.112,,,190,,,,,,,,,,,wg-a,,,,AAXX 01004 07168 12/// /1906 10150 20120 39988 40128 56013 60006 90000=
07168,1996-07-01 06:00:00,15,1011.2,-0.2,82,12,16000,11.112,,,190,13.9,15.8,,,,,,,,3,wg-a,,,,AAXX 01064 07168 02466 71906 10150 20120 39972 40112 56002 60004 70386 878// 90600 333 10158 20139 61000=
07168,1996-07-01 09:00:00,16,1011,-0.1,68,10,20000,11.112,,,190,,,,,,,,,,,wg-a,,,,AAXX 01094 07168 12570 81906 10160 20100 39971 40110 58001 60006 878// 90900=
07168,1996-07-01 12:00:00,19,1010.1,-0.8,52,9,25000,11.112,,,190,,,,,,,,,,,wg-a,,,,AAXX 01124 07168 12675 61906 10190 20090 39963 40101 55008 60006 86800 91200=
07168,1996-07-01 15:00:00,19,1009.9,-0.2,49,8,25000,25.928,,,250,,,,,,,,,,,wg-a,,,,AAXX 01154 07168 12675 72514 10190 20080 39961 40099 56002 60006 878// 91500=
07168,1996-07-01 18:00:00,18,1009.3,-0.6,49,7,0,22.224,,,240,14.2,19.9,,,,,,,,,wg-a,,,,AAXX 01184 07168 12/// /2412 10180 20070 39955 40093 57006 60006 91800 333 10199 20142=
07168,1996-07-02 00:00:00,11,1011.2,0.7,87,9,0,14.816,,,260,,,,,,,,,,,wg-a,,,,AAXX 02004 07168 12/// /2608 10110 20090 39971 40112 53007 60016 90000=
07168,1996-07-02 06:00:00,13,1012.2,1.1,82,10,500,14.816,,,240,9.1,18.1,,,,,1,,,,wg-a,,,,AAXX 02064 07168 12400 72408 10130 20100 39981 40122 53011 60014 878// 90600 333 10181 20091=
07168,1996-07-02 09:00:00,16,1012.5,0.5,68,10,500,18.52,,,250,,,,,,,,,,,wg-a,,,,AAXX 02094 07168 12500 72510 10160 20100 39986 40125 50005 60006 878// 90900=
07168,1996-07-02 12:00:00,18,1012.1,-0.3,52,8,500,18.52,,,260,,,,,,,,,,,wg-a,,,,AAXX 02124 07168 12600 82610 10180 20080 39983 40121 57003 60006 85802 91200=
07168,1996-07-02 15:00:00,19,1012.1,-0,46,7,10000,22.224,,,280,,,,,,,,,,,wg-a,,,,AAXX 02154 07168 12760 62812 10190 20070 39983 40121 54000 60006 86800 91500=
07168,1996-07-02 18:00:00,18,1012.4,0.3,49,7,0,22.224,,,270,12.8,20.6,,,,,,,,,wg-a,,,,AAXX 02184 07168 12/// /2712 10180 20070 39986 40124 53003 60006 91800 333 10206 20128=
07168,1996-07-03 00:00:00,10,1014,0,87,8,0,11.112,,,190,,,,,,,,,,,wg-a,,,,AAXX 03004 07168 12/// /1906 10100 20080 39997 40140 50000 60006 90000=
07168,1996-07-03 06:00:00,14,1013.1,-0.1,77,10,500,14.816,,,170,7.2,18.8,,,,,,,,,wg-a,,,,AAXX 03064 07168 02700 21708 10140 20100 39991 40131 55001 60006 82500 90600 333 10188 20072 60004=
07168,1996-07-03 12:00:00,22,1010.3,-2,43,9,500,38.892,,,220,,,,,,,,,,,wg-a,,,,AAXX 03124 07168 12600 72221 10220 20090 39967 40103 58020 60006 878// 91200=
07168,1996-07-03 18:00:00,17,1010.1,0.3,94,16,0,18.52,,,200,13.8,24.5,,1,,,,,,,wg-a,,,,AAXX 03184 07168 12/// /2010 10170 20160 39963 40101 53003 60017 91800 333 10245 20138=
07168,1996-07-04 00:00:00,17,1010,-0.4,94,16,0,22.224,,,210,,,,,,,,,,,wg-a,,,,AAXX 04004 07168 12/// /2112 10170 20160 39962 40100 58004 60096 90000=
07168,1996-07-04 06:00:00,17,1009.8,0.1,94,16,500,29.632,,,210,16.5,17.4,,,,,12,,,60,wg-a,,,,AAXX 04064 07168 02200 82116 10170 20160 39960 40098 53001 60124 76062 875// 90600 333 10174 20165 61000=
07168,1996-07-04 09:00:00,18,1011.3,1.5,88,16,20000,29.632,,,240,,,,0,,,,,,1,wg-a,,,,AAXX 04094 07168 12470 82416 10180 20160 39975 40113 51015 60007 70162 875// 90900=
07168,1996-07-04 12:00:00,22,1011.6,0.5,65,15,500,35.188,,,250,,,,0,,,,,,3,wg-a,,,,AAXX 04124 07168 02400 /2519 10220 20150 39980 40116 51005 60016 70362 86800 91200 333 60007=
07168,1996-07-04 15:00:00,20,1012.4,0.7,73,15,500,29.632,,,240,,,,,,,,,,25,wg-a,,,,AAXX 04154 07168 02500 72416 10200 20150 39987 40124 51007 61000 72586 878// 91500 333 ////=
07168,1996-07-04 18:00:00,20,1012.8,0.4,68,14,0,22.224,,,250,17,22.9,,,,,,,,,wg-a,,,,AAXX 04184 07168 32/// /2512 10200 20140 39991 40128 53004 91800 333 10229 20170=
07168,1996-07-05 00:00:00,16,1012.6,-1,100,16,0,7.408,,,190,,,,,,,,,,,wg-a,,,,AAXX 05004 07168 12/// /1904 10160 20160 39987 40126 58010 60016 90000=
07168,1996-07-05 06:00:00,17,1009,-1.6,94,16,10000,14.816,,,180,15.9,20.6,,1,,,2,,,61,wg-a,,,,AAXX 05064 07168 02260 81808 10170 20160 39952 40090 57016 60024 76186 885// 90600 333 10206 20159 60017=
07168,1996-07-05 09:00:00,18,1007.5,-1.4,94,17,10000,22.224,,,210,,,,0,,,,,,61,wg-a,,,,AAXX 05094 07168 12460 82112 10180 20170 39938 40075 56014 60007 76162 875// 90900=
07168,1996-07-05 12:00:00,19,1005.7,-1.8,88,17,25000,22.224,,,200,,,,1,,,,,,1,wg-a,,,,AAXX 05124 07168 02475 82012 10190 20170 39920 40057 56018 60016 70162 878// 91200 333 60017=
07168,1996-07-05 15:00:00,16,1007.2,1.4,88,14,20000,29.632,,,300,,,,5,,,,,,3,wg-a,,,,AAXX 05154 07168 12470 83016 10160 20140 39934 40072 53014 60057 70362 875// 91500=
07168,1996-07-05 18:00:00,15,1009,1.7,88,13,0,14.816,,,310,14.2,18.8,,,,,,,,,wg-a,,,,AAXX 05184 07168 32/// /3108 10150 20130 39951 40090 51017 91800 333 10188 20142=
07168,1996-07-06 00:00:00,12,1008.8,-0.8,100,12,0,3.704,,,220,,,,,,,,,,,wg-a,,,,AAXX 06004 07168 12/// /2202 10120 20120 39948 40088 56008 60006 90000=
07168,1996-07-06 06:00:00,13,1010.2,1,94,12,15000,22.224,,,260,11.7,15,,1,,,10,,,1,wg-a,,,,AAXX 06064 07168 02465 52612 10130 20120 39962 40102 53010 60104 70186 85230 90600 333 10150 20117 60017=
07168,1996-07-06 09:00:00,16,1011.1,1,72,11,20000,29.632,,,250,,,,,,,,,,,wg-a,,,,AAXX 06094 07168 12570 /2516 10160 20110 39972 40111 51010 60006 85200 90900=
07168,1996-07-06 12:00:00,19,1011.4,0.4,49,8,500,29.632,,,240,,,,,,,,,,,wg-a,,,,AAXX 06124 07168 12600 72416 10190 20080 39976 40114 50004 60006 8525/ 91200=
07168,1996-07-06 15:00:00,18,1011.6,0.2,49,7,500,29.632,,,250,,,,,,,,,,,wg-a,,,,AAXX 06154 07168 12600 72516 10180 20070 39978 40116 53002 60006 8523/ 91500=
07168,1996-07-06 18:00:00,18,1010.8,-0.8,52,8,0,18.52,,,260,12.8,19.1,,,,,,,,,wg-a,,,,AAXX 06184 07168 12/// /2610 10180 20080 39970 40108 56008 60006 91800 333 10191 20128=
07168,1996-07-07 00:00:00,8,1010.7,-0.8,100,8,0,3.704,,,140,,,,,,,,,,,wg-a,,,,AAXX 07004 07168 12/// /1402 10080 20080 39964 40107 57008 60006 90000=
07168,1996-07-07 06:00:00,11,1007.9,-1.2,94,10,20000,3.704,,,140,6.2,18,,,,,,,,,wg-a,,,,AAXX 07064 07168 02/70 71402 10110 20100 39938 40079 56012 60006 8707/ 90600 333 10180 20062 60004=
07168,1996-07-07 09:00:00,17,1006.5,-1.1,55,8,25000,14.816,,,80,,,,,,,,,,,wg-a,,,,AAXX 07094 07168 12/75 70808 10170 20080 39927 40065 58011 60006 85052 90900=
07168,1996-07-07 12:00:00,18,1005.1,-1.3,52,8,500,14.816,,,70,,,,,,,,,,,wg-a,,,,AAXX 07124 07168 12600 80708 10180 20080 39914 40051 58013 60006 8312/ 91200=
07168,1996-07-07 15:00:00,17,1005.4,0.2,59,9,500,7.408,,,120,,,,,,,,,,,wg-a,,,,AAXX 07154 07168 12600 81204 10170 20090 39916 40054 53002 60006 8412/ 91500=
07168,1996-07-07 18:00:00,14,1005.8,0.3,88,12,0,3.704,,,340,11.2,18.3,,,,,,,,,wg-a,,,,AAXX 07184 07168 32/// /3402 10140 20120 39919 40058 51003 91800 333 10183 20112=
07168,1996-07-08 00:00:00,12,1009.2,1.2,94,11,0,7.408,,,330,,,,,,,,,,,wg-a,,,,AAXX 08004 07168 02/// /3304 10120 20110 39951 40092 51012 61000 90000 333 ////=
07168,1996-07-08 06:00:00,11,1014.5,3.6,87,9,10000,22.224,,,310,10.4,14.5,,,,,2,,,,wg-a,,,,AAXX 08064 07168 02760 63112 10110 20090 30003 40145 53036 60006 85531 90600 333 10145 20104 60024=
07168,1996-07-08 09:00:00,17,1016.4,2.2,63,10,25000,29.632,,,340,,,,,,,,,,,wg-a,,,,AAXX 08094 07168 12575 43416 10170 20100 30025 40164 51022 60006 84101 90900=
07168,1996-07-08 12:00:00,18,1018.4,2,56,9,25000,25.928,,,340,,,,,,,,,,,wg-a,,,,AAXX 08124 07168 12675 73414 10180 20090 30045 40184 53020 60006 858// 91200=
07168,1996-07-08 15:00:00,19,1019.8,1.4,49,8,500,25.928,,,310,,,,,,,,,,,wg-a,,,,AAXX 08154 07168 12600 43114 10190 20080 30059 40198 51014 60006 83230 91500=
07168,1996-07-08 18:00:00,15,1021.7,1.7,88,13,0,14.816,,,280,11.1,19.9,,0,,,,,,,wg-a,,,,AAXX 08184 07168 12/// /2808 10150 20130 30076 40217 51017 60007 91800 333 10199 20111=
07168,1996-07-09 00:00:00,10,1025,1.1,93,9,0,7.408,,,340,,,,,,,,,,,wg-a,,,,AAXX 09004 07168 12/// /3404 10100 20090 30106 40250 52011 60006 90000=
07168,1996-07-09 06:00:00,10,1026.4,0.8,100,10,8000,3.704,,,50,6.9,14.6,,0,,,,,,,wg-a,,,,AAXX 09064 07168 02658 70502 10100 20100 30120 40264 52008 60004 875// 90600 333 10146 20069 60007=
07168,1996-07-09 09:00:00,16,1026.2,0.1,72,11,25000,14.816,,,260,,,,,,,,,,,wg-a,,,,AAXX 09094 07168 12575 /2608 10160 20110 30121 40262 50001 60006 85201 90900=
07168,1996-07-09 12:00:00,20,1025.3,-0.7,53,10,500,22.224,,,280,,,,,,,,,,,wg-a,,,,AAXX 09124 07168 12600 /2812 10200 20100 30114 40253 58007 60006 85100 91200=
07168,1996-07-09 15:00:00,22,1024.3,-0.9,43,9,500,22.224,,,280,,,,,,,,,,,wg-a,,,,AAXX 09154 07168 12700 62812 10220 20090 30105 40243 57009 60006 84130 91500=
07168,1996-07-09 18:00:00,19,1024.1,-0.3,56,10,0,18.52,,,270,10.4,22,,,,,,,,,wg-a,,,,AAXX 09184 07168 12/// /2710 10190 20100 30102 40241 56003 60006 91800 333 10220 20104=
07168,1996-07-10 00:00:00,16,1023.9,-0.7,77,12,0,11.112,,,270,,,,,,,,,,,wg-a,,,,AAXX 10004 07168 12/// /2706 10160 20120 30098 40239 58007 60006 90000=
07168,1996-07-10 06:00:00,16,1023.2,0.3,88,14,4000,14.816,,,270,15,19.4,,,,,,,,,wg-a,,,,AAXX 10064 07168 02340 82708 10160 20140 30091 40232 53003 60006 887// 90600 333 10194 20150 60004=
07168,1996-07-10 12:00:00,20,1023.5,-0.1,68,14,14000,18.52,,,310,,,,,,,,,,,wg-a,,,,AAXX 10124 07168 12564 73110 10200 20140 30096 40235 58001 60006 8523/ 91200=
07168,1996-07-10 15:00:00,21,1023.2,-0.2,53,11,16000,18.52,,,350,,,,,,,,,,,wg-a,,,,AAXX 10154 07168 12666 73510 10210 20110 30094 40232 58002 60006 85230 91500=
07168,1996-07-10 18:00:00,20,1023.7,0.4,60,12,0,22.224,,,360,15.3,22,,,,,,,,,wg-a,,,,AAXX 10184 07168 12/// /3612 10200 20120 30098 40237 53004 60006 91800 333 10220 20153=
07168,1996-07-11 00:00:00,10,1025.6,0.2,100,10,0,7.408,,,290,,,,,,,,,,,wg-a,,,,AAXX 11004 07168 12/// /2904 10100 20100 30112 40256 50002 60006 90000=
07168,1996-07-11 06:00:00,12,1025.4,0.5,94,11,10000,3.704,,,320,8.3,20.4,,,,,,,,,wg-a,,,,AAXX 11064 07168 02660 /3202 10120 20110 30111 40254 52005 60006 86500 90600 333 10204 20083 60004=
07168,1996-07-11 09:00:00,19,1024.5,-0.5,64,12,15000,11.112,,,350,,,,,,,,,,,wg-a,,,,AAXX 11094 07168 12565 /3506 10190 20120 30106 40245 58005 60006 81800 90900=
07168,1996-07-11 12:00:00,21,1023.4,-1,56,12,15000,11.112,,,20,,,,,,,,,,,wg-a,,,,AAXX 11124 07168 12665 70206 10210 20120 30096 40234 58010 60006 85102 91200=
07168,1996-07-11 15:00:00,23,1021.7,-1.6,50,12,15000,11.112,,,360,,,,,,,,,,,wg-a,,,,AAXX 11154 07168 12665 73606 10230 20120 30080 40217 58016 60006 84102 91500=
07168,1996-07-11 18:00:00,22,1021.5,-0.3,57,13,0,7.408,,,50,12.2,23.5,,,,,,,,,wg-a,,,,AAXX 11184 07168 12/// /0504 10220 20130 30077 40215 55003 60006 91800 333 10235 20122=
07168,1996-07-12 00:00:00,12,1021.4,-0.7,94,11,0,3.704,,,160,,,,,,,,,,,wg-a,,,,AAXX 12004 07168 12/// /1602 10120 20110 30072 40214 58007 60006 90000=
07168,1996-07-12 06:00:00,13,1020.2,-0.2,100,13,10000,3.704,,,160,9.8,21.7,,,,,,,,,wg-a,,,,AAXX 12064 07168 02/60 31602 10130 20130 30060 40202 56002 60006 83030 90600 333 10217 20098 60004=
07168,1996-07-12 09:00:00,23,1019.3,-0.4,57,14,11000,7.408,,,150,,,,,,,,,,,wg-a,,,,AAXX 12094 07168 12/61 /1504 10230 20140 30056 40193 58004 60006 90900=
07168,1996-07-12 12:00:00,24,1018.7,-0.5,65,17,20000,18.52,,,280,,,,,,,,,,,wg-a,,,,AAXX 12124 07168 12670 62810 10240 20170 30051 40187 58005 60006 84230 91200=
07168,1996-07-12 15:00:00,25,1018.1,-0.6,50,14,20000,18.52,,,280,,,,,,,,,,,wg-a,,,,AAXX 12154 07168 12670 72810 10250 20140 30045 40181 56006 60006 8117/ 91500=
07168,1996-07-12 18:00:00,23,1018.6,0.4,50,12,0,18.52,,,310,13.1,26.1,,,,,,,,,wg-a,,,,AAXX 12184 07168 12/// /3110 10230 20120 30049 40186 51004 60006 91800 333 10261 20131=
07168,1996-07-13 00:00:00,14,1021.1,0.5,88,12,0,18.52,,,290,,,,,,,,,,,wg-a,,,,AAXX 13004 07168 12/// /2910 10140 20120 30070 40211 51005 60006 90000=
07168,1996-07-13 06:00:00,14,1022.6,1.2,94,13,6000,0,,,0,10.8,23.1,,,,,,,,,wg-a,,,,AAXX 13064 07168 02656 /0000 10140 20130 30084 40226 53012 60006 85501 90600 333 10231 20108 60004=
07168,1996-07-13 09:00:00,21,1022.6,0.4,64,14,10000,7.408,,,170,,,,,,,,,,,wg-a,,,,AAXX 13094 07168 12560 71704 10210 20140 30088 40226 50004 60006 878// 90900=
07168,1996-07-13 12:00:00,23,1022.9,0.4,53,13,20000,3.704,,,250,,,,,,,,,,,wg-a,,,,AAXX 13124 07168 12670 /2502 10230 20130 30092 40229 51004 60006 85201 91200=
07168,1996-07-13 15:00:00,25,1022.4,-0.4,47,13,11000,11.112,,,280,,,,,,,,,,,wg-a,,,,AAXX 13154 07168 12/61 /2806 10250 20130 30088 40224 58004 60006 91500=
07168,1996-07-13 18:00:00,25,1022.3,-0.1,47,13,0,11.112,,,300,13.5,25.5,,,,,,,,,wg-a,,,,AAXX 13184 07168 12/// /3006 10250 20130 30087 40223 55001 60006 91800 333 10255 20135=
07168,1996-07-14 00:00:00,12,1024.8,0.5,94,11,0,7.408,,,150,,,,,,,,,,,wg-a,,,,AAXX 14004 07168 12/// /1504 10120 20110 30105 40248 51005 60006 90000=
07168,1996-07-14 06:00:00,14,1026.7,1.3,94,13,18000,3.704,,,320,9.3,25,,,,,,,,,wg-a,,,,AAXX 14064 07168 02/68 23202 10140 20130 30125 40267 51013 60006 80001 90600 333 10250 20093 60004=
07168,1996-07-14 09:00:00,23,1026.5,0.3,61,15,20000,7.408,,,10,,,,,,,,,,,wg-a,,,,AAXX 14094 07168 12570 30104 10230 20150 30128 40265 51003 60006 81101 90900=
07168,1996-07-14 12:00:00,26,1025.8,-0.6,51,15,20000,11.112,,,320,,,,,,,,,,,wg-a,,,,AAXX 14124 07168 12670 33206 10260 20150 30122 40258 58006 60006 83100 91200=
07168,1996-07-14 15:00:00,28,1024.6,-1.1,45,15,500,14.816,,,330,,,,,,,,,,,wg-a,,,,AAXX 14154 07168 12700 23308 10280 20150 30111 40246 56011 60006 82100 91500=
07168,1996-07-14 18:00:00,26,1024.4,-0.3,54,16,0,18.52,,,340,14.4,28.1,,,,,,,,,wg-a,,,,AAXX 14184 07168 12/// /3410 10260 20160 30108 40244 55003 60006 91800 333 10281 20144=
07168,1996-07-15 00:00:00,15,1026.2,0.1,94,14,0,11.112,,,300,,,,,,,,,,,wg-a,,,,AAXX 15004 07168 12/// /3006 10150 20140 30120 40262 51001 60006 90000=
07168,1996-07-15 06:00:00,16,1025.6,0.3,100,16,500,7.408,,,330,13.4,26.4,,,,,,,,44,wg-a,,,,AAXX 15064 07168 02105 83304 10160 20160 30115 40256 53003 60006 74442 886// 90600 333 10264 20134 60004=
07168,1996-07-15 09:00:00,22,1025.3,0,78,18,10000,14.816,,,360,,,,,,,,,,1,wg-a,,,,AAXX 15094 07168 12560 /3608 10220 20180 30115 40253 50000 60006 70142 86200 90900=
07168,1996-07-15 12:00:00,25,1024.1,-1,57,16,12000,18.52,,,20,,,,,,,,,,1,wg-a,,,,AAXX 15124 07168 12662 70210 10250 20160 30105 40241 56010 60006 70142 878// 91200=
07168,1996-07-15 15:00:00,25,1023.9,-0.2,61,17,12000,22.224,,,20,,,,,,,,,,,wg-a,,,,AAXX 15154 07168 12662 70212 10250 20170 30103 40239 56002 60006 878// 91500=
07168,1996-07-15 18:00:00,24,1023.5,-0.5,57,15,0,22.224,,,10,16.1,25.9,,,,,,,,,wg-a,,,,AAXX 15184 07168 12/// /0112 10240 20150 30098 40235 56005 60006 91800 333 10259 20161=
07168,1996-07-16 00:00:00,16,1026.1,0.7,77,12,0,11.112,,,350,,,,,,,,,,,wg-a,,,,AAXX 16004 07168 12/// /3506 10160 20120 30120 40261 51007 60006 90000=
07168,1996-07-16 06:00:00,14,1026.3,0.6,77,10,12000,11.112,,,20,12.3,24,,,,,,,,,wg-a,,,,AAXX 16064 07168 02/62 00206 10140 20100 30121 40263 52006 60006 80000 90600 333 10240 20123 60004=
07168,1996-07-16 09:00:00,20,1026.3,0.3,56,11,15000,22.224,,,40,,,,,,,,,,,wg-a,,,,AAXX 16094 07168 12/65 00412 10200 20110 30124 40263 51003 60006 80000 90900=
07168,1996-07-16 12:00:00,23,1025.7,-0.5,41,9,20000,25.928,,,40,,,,,,,,,,,wg-a,,,,AAXX 16124 07168 12/70 00414 10230 20090 30119 40257 58005 60006 80000 91200=
07168,1996-07-16 15:00:00,25,1024.3,-1.3,34,8,500,22.224,,,50,,,,,,,,,,,wg-a,,,,AAXX 16154 07168 12/00 10512 10250 20080 30106 40243 58013 60006 80001 91500=
07168,1996-07-16 18:00:00,23,1023.7,-0.6,38,8,0,22.224,,,50,13.9,25.3,,,,,,,,,wg-a,,,,AAXX 16184 07168 12/// /0512 10230 20080 30100 40237 56006 60006 91800 333 10253 20139=
07168,1996-07-17 00:00:00,15,1025.3,0.5,63,8,0,11.112,,,40,,,,,,,,,,,wg-a,,,,AAXX 17004 07168 12/// /0406 10150 20080 30111 40253 51005 60006 90000=
07168,1996-07-17 06:00:00,14,1024.6,0.1,72,9,18000,14.816,,,40,11.7,23.4,,,,,,,,,wg-a,,,,AAXX 17064 07168 02/68 10408 10140 20090 30104 40246 53001 60006 80001 90600 333 10234 20117 60004=
07168,1996-07-17 09:00:00,20,1024.1,-0.2,46,8,20000,22.224,,,40,,,,,,,,,,,wg-a,,,,AAXX 17094 07168 12/70 10412 10200 20080 30102 40241 58002 60006 80001 90900=
07168,1996-07-17 12:00:00,24,1022.9,-1,34,7,20000,25.928,,,50,,,,,,,,,,,wg-a,,,,AAXX 17124 07168 12/70 10514 10240 20070 30092 40229 58010 60006 80001 91200=
07168,1996-07-17 15:00:00,26,1021.6,-1.2,24,4,20000,25.928,,,50,,,,,,,,,,,wg-a,,,,AAXX 17154 07168 12/70 00514 10260 20040 30080 40216 58012 60006 80000 91500=
07168,1996-07-17 18:00:00,25,1021,-0.6,30,6,0,18.52,,,40,14,26.5,,,,,,,,,wg-a,,,,AAXX 17184 07168 12/// /0410 10250 20060 30074 40210 56006 60006 91800 333 10265 20140=
07168,1996-07-18 00:00:00,16,1023.1,0.9,55,7,0,18.52,,,50,,,,,,,,,,,wg-a,,,,AAXX 18004 07168 12/// /0510 10160 20070 30090 40231 51009 60006 90000=
07168,1996-07-18 06:00:00,13,1023.6,0.3,77,9,12000,11.112,,,310,8.2,24.9,,,,,,,,,wg-a,,,,AAXX 18064 07168 02/62 03106 10130 20090 30094 40236 52003 60006 80000 90600 333 10249 20082 60004=
07168,1996-07-18 09:00:00,21,1023.4,0.1,49,10,15000,14.816,,,50,,,,,,,,,,,wg-a,,,,AAXX 18094 07168 12/65 00508 10210 20100 30095 40234 50001 60006 80000 90900=
07168,1996-07-18 12:00:00,25,1022.6,-0.6,34,8,25000,14.816,,,40,,,,,,,,,,,wg-a,,,,AAXX 18124 07168 12/75 10408 10250 20080 30089 40226 58006 60006 80001 91200=
07168,1996-07-18 15:00:00,26,1022,-0.5,26,5,500,18.52,,,30,,,,,,,,,,,wg-a,,,,AAXX 18154 07168 12/00 10310 10260 20050 30084 40220 57005 60006 80001 91500=
07168,1996-07-18 18:00:00,25,1021.8,-0.3,28,5,0,18.52,,,10,12.8,26.4,,,,,,,,,wg-a,,,,AAXX 18184 07168 12/// /0110 10250 20050 30081 40218 55003 60006 91800 333 10264 20128=
07168,1996-07-19 00:00:00,14,1024.1,0.5,67,8,0,11.112,,,320,,,,,,,,,,,wg-a,,,,AAXX 19004 07168 12/// /3206 10140 20080 30099 40241 51005 60006 90000=
07168,1996-07-19 06:00:00,13,1024.4,0.3,77,9,12000,7.408,,,320,8.4,24.5,,,,,,,,,wg-a,,,,AAXX 19064 07168 02/62 33204 10130 20090 30101 40244 53003 60006 80001 90600 333 10245 20084 60004=
07168,1996-07-19 09:00:00,21,1024.2,0.3,53,11,15000,11.112,,,30,,,,,,,,,,,wg-a,,,,AAXX 19094 07168 12/65 50306 10210 20110 30104 40242 52003 60006 80001 90900=
07168,1996-07-19 12:00:00,24,1023.2,-0.9,31,6,15000,18.52,,,60,,,,,,,,,,,wg-a,,,,AAXX 19124 07168 12/65 50610 10240 20060 30095 40232 58009 60006 80001 91200=
07168,1996-07-19 15:00:00,26,1022.4,-0.7,24,4,15000,18.52,,,50,,,,,,,,,,,wg-a,,,,AAXX 19154 07168 12/65 50510 10260 20040 30088 40224 56007 60006 80001 91500=
07168,1996-07-19 18:00:00,25,1022.2,-0.3,32,7,0,14.816,,,60,12.6,26,,,,,,,,,wg-a,,,,AAXX 19184 07168 12/// /0608 10250 20070 30085 40222 55003 60006 91800 333 10260 20126=
07168,1996-07-20 00:00:00,11,1023.5,-0.1,76,7,0,0,,,0,,,,,,,,,,,wg-a,,,,AAXX 20004 07168 12/// /0000 10110 20070 30091 40235 56001 60006 90000=
07168,1996-07-20 06:00:00,14,1023.7,0.5,72,9,20000,7.408,,,330,7.9,24.4,,,,,,,,,wg-a,,,,AAXX 20064 07168 02/70 33304 10140 20090 30095 40237 53005 60006 80002 90600 333 10244 20079 60004=
07168,1996-07-20 12:00:00,25,1022.8,-0.6,30,6,25000,14.816,,,50,,,,,,,,,,,wg-a,,,,AAXX 20124 07168 12/75 10508 10250 20060 30091 40228 58006 60006 80001 91200=
07168,1996-07-20 15:00:00,26,1022.2,-0.5,24,4,500,18.52,,,50,,,,,,,,,,,wg-a,,,,AAXX 20154 07168 12/00 00510 10260 20040 30086 40222 56005 60006 80000 91500=
07168,1996-07-20 18:00:00,25,1022.2,-0,22,2,0,14.816,,,60,13.6,27,,,,,,,,,wg-a,,,,AAXX 20184 07168 12/// /0608 10250 20020 30086 40222 55000 60006 91800 333 10270 20136=
07168,1996-07-21 00:00:00,10,1024,-0,76,6,0,7.408,,,180,,,,,,,,,,,wg-a,,,,AAXX 21004 07168 12/// /1804 10100 20060 30096 40240 55000 60006 90000=
07168,1996-07-21 06:00:00,14,1024,0.5,67,8,500,0,,,0,7,25.4,,,,,,,,,wg-a,,,,AAXX 21064 07168 02/00 00000 10140 20080 30098 40240 52005 60006 80000 90600 333 10254 20070 60004=
07168,1996-07-21 09:00:00,23,1023.5,-0.1,38,8,500,3.704,,,120,,,,,,,,,,,wg-a,,,,AAXX 21094 07168 12/00 01202 10230 20080 30097 40235 58001 60006 80000 90900=
07168,1996-07-21 12:00:00,27,1022.5,-0.8,30,8,500,14.816,,,90,,,,,,,,,,,wg-a,,,,AAXX 21124 07168 12/00 10908 10270 20080 30089 40225 58008 60006 80001 91200=
07168,1996-07-21 15:00:00,28,1021.3,-1.1,25,6,500,11.112,,,80,,,,,,,,,,,wg-a,,,,AAXX 21154 07168 12/00 40806 10280 20060 30078 40213 56011 60006 80001 91500=
07168,1996-07-21 18:00:00,26,1020.6,-0.8,28,6,0,14.816,,,60,13.9,27.9,,,,,,,,,wg-a,,,,AAXX 21184 07168 12/// /0608 10260 20060 30070 40206 56008 60006 91800 333 10279 20139=
07168,1996-07-22 00:00:00,12,1021.9,0.1,71,7,0,3.704,,,120,,,,,,,,,,,wg-a,,,,AAXX 22004 07168 12/// /1202 10120 20070 30076 40219 50001 60006 90000=
07168,1996-07-22 06:00:00,15,1021.1,0.1,67,9,20000,0,,,0,8.4,26.1,,,,,,,,,wg-a,,,,AAXX 22064 07168 02/70 10000 10150 20090 30070 40211 51001 60006 80001 90600 333 10261 20084 60004=
07168,1996-07-22 09:00:00,24,1019.7,-1,41,10,20000,11.112,,,120,,,,,,,,,,,wg-a,,,,AAXX 22094 07168 12/70 11206 10240 20100 30060 40197 58010 60006 80001 90900=
07168,1996-07-22 12:00:00,29,1017.2,-2.2,29,9,20000,11.112,,,140,,,,,,,,,,,wg-a,,,,AAXX 22124 07168 12/70 01406 10290 20090 30038 40172 58022 60006 80000 91200=
07168,1996-07-22 15:00:00,32,1014.7,-2.3,17,4,20000,11.112,,29.632,160,,,,,,,,,,,wg-a,,,,AAXX 22154 07168 12/70 01606 10320 20040 30015 40147 56023 60006 80000 91500 333 91016=
07168,1996-07-22 18:00:00,31,1013.8,-1,22,7,0,14.816,,,150,14.6,32.6,,,,,,,,,wg-a,,,,AAXX 22184 07168 12/// /1508 10310 20070 30005 40138 56010 60006 91800 333 10326 20146=
07168,1996-07-23 00:00:00,18,1014.5,-0.5,73,13,0,11.112,,,140,,,,,,,,,,,wg-a,,,,AAXX 23004 07168 12/// /1406 10180 20130 30007 40145 57005 60006 90000=
07168,1996-07-23 06:00:00,23,1013.3,-0.3,53,13,15000,22.224,,,200,16.4,30.9,,,,,,,,,wg-a,,,,AAXX 23064 07168 02665 32012 10230 20130 39997 40133 58003 60006 82280 90600 333 10309 20164 60004=
07168,1996-07-23 09:00:00,26,1012.9,-0.2,51,15,12000,31.484,,,200,,,,,,,,,,29,wg-a,,,,AAXX 23094 07168 02662 72017 10260 20150 39995 40129 58002 61000 72996 8598/ 90900 333 ////=
07168,1996-07-23 12:00:00,29,1011.7,-1.1,43,15,18000,29.632,,,230,,,,,,,,,,3,wg-a,,,,AAXX 23124 07168 02/68 62316 10290 20150 39984 40117 56011 61000 70396 84082 91200 333 ////=
07168,1996-07-23 15:00:00,30,1010.9,-0.8,38,14,18000,35.188,,,210,,,,,,,,,,,wg-a,,,,AAXX 23154 07168 12768 72119 10300 20140 39976 40109 57008 60006 84182 91500=
07168,1996-07-23 18:00:00,28,1011.1,0.2,37,12,0,25.928,,,260,23.2,31.1,,1,,,,,,,wg-a,,,,AAXX 23184 07168 12/// /2614 10280 20120 39978 40111 53002 60017 91800 333 10311 20232=
07168,1996-07-24 00:00:00,18,1013.2,0.7,59,10,0,18.52,,,280,,,,,,,,,,,wg-a,,,,AAXX 24004 07168 12/// /2810 10180 20100 39994 40132 52007 60006 90000=
07168,1996-07-24 06:00:00,17,1014.8,0.7,72,12,15000,22.224,,,260,13,28.3,,,,,1,,,,wg-a,,,,AAXX 24064 07168 02665 22612 10170 20120 30009 40148 51007 60006 82800 90600 333 10283 20130 60014=
07168,1996-07-24 12:00:00,23,1015.5,0,50,12,25000,29.632,,,270,,,,,,,,,,,wg-a,,,,AAXX 24124 07168 12675 /2716 10230 20120 30019 40155 50000 60006 85230 91200=
07168,1996-07-24 15:00:00,25,1015.4,-0,41,11,25000,29.632,,,320,,,,,,,,,,,wg-a,,,,AAXX 24154 07168 12675 43216 10250 20110 30019 40154 55000 60006 84200 91500=
07168,1996-07-24 18:00:00,23,1016,0.4,47,11,0,25.928,,,330,17,25.5,,,,,,,,,wg-a,,,,AAXX 24184 07168 12/// /3314 10230 20110 30023 40160 53004 60006 91800 333 10255 20170=
07168,1996-07-25 00:00:00,12,1020.2,1.2,82,9,0,14.816,,,300,,,,,,,,,,,wg-a,,,,AAXX 25004 07168 12/// /3008 10120 20090 30059 40202 51012 60006 90000=
07168,1996-07-25 06:00:00,12,1022.2,1,88,10,15000,3.704,,,330,7.2,22.8,,,,,,,,,wg-a,,,,AAXX 25064 07168 02/65 03302 10120 20100 30079 40222 53010 60006 80000 90600 333 10228 20072 60004=
07168,1996-07-25 09:00:00,19,1022,0.2,60,11,18000,7.408,,,10,,,,,,,,,,,wg-a,,,,AAXX 25094 07168 12568 20104 10190 20110 30081 40220 50002 60006 82100 90900=
07168,1996-07-25 12:00:00,22,1022,0.1,46,10,20000,11.112,,,320,,,,,,,,,,,wg-a,,,,AAXX 25124 07168 12670 33206 10220 20100 30082 40220 53001 60006 83100 91200=
07168,1996-07-25 15:00:00,23,1021.2,-0.7,47,11,20000,11.112,,,360,,,,,,,,,,,wg-a,,,,AAXX 25154 07168 12770 23606 10230 20110 30075 40212 56007 60006 82100 91500=
07168,1996-07-25 18:00:00,21,1020.5,-0.8,56,12,0,22.224,,,40,12.1,24,,,,,,,,,wg-a,,,,AAXX 25184 07168 12/// /0412 10210 20120 30067 40205 58008 60006 91800 333 10240 20121=
07168,1996-07-26 00:00:00,12,1023.2,0.9,94,11,0,7.408,,,340,,,,,,,,,,,wg-a,,,,AAXX 26004 07168 12/// /3404 10120 20110 30090 40232 51009 60006 90000=
07168,1996-07-26 06:00:00,13,1021.4,-0.7,94,12,500,3.704,,,340,9.9,20.8,,,,,,,,,wg-a,,,,AAXX 26064 07168 02/00 /3402 10130 20120 30072 40214 58007 60006 80001 90600 333 10208 20099 60004=
07168,1996-07-26 09:00:00,21,1021,0,60,13,9000,18.52,,,40,,,,,,,,,,,wg-a,,,,AAXX 26094 07168 12/59 20410 10210 20130 30072 40210 50000 60006 80001 90900=
07168,1996-07-26 12:00:00,25,1019.6,-1.2,44,12,15000,18.52,,,50,,,,,,,,,,,wg-a,,,,AAXX 26124 07168 12/65 30510 10250 20120 30060 40196 58012 60006 80001 91200=
07168,1996-07-26 15:00:00,27,1018.1,-1.4,34,10,18000,14.816,,,50,,,,,,,,,,,wg-a,,,,AAXX 26154 07168 12/68 40508 10270 20100 30046 40181 56014 60006 80001 91500=
07168,1996-07-26 18:00:00,26,1017.6,-0.5,39,11,0,14.816,,,60,13.1,27.4,,,,,,,,,wg-a,,,,AAXX 26184 07168 12/// /0608 10260 20110 30041 40176 56005 60006 91800 333 10274 20131=
07168,1996-07-27 00:00:00,16,1018.3,-0.3,72,11,0,11.112,,,310,,,,,,,,,,,wg-a,,,,AAXX 27004 07168 12/// /3106 10160 20110 30043 40183 57003 60006 90000=
07168,1996-07-27 06:00:00,14,1018,0.3,88,12,8000,7.408,,,330,9.9,26.1,,,,,,,,,wg-a,,,,AAXX 27064 07168 02/58 43304 10140 20120 30039 40180 51003 60006 80001 90600 333 10261 20099 60004=
07168,1996-07-27 09:00:00,23,1018.1,0.5,53,13,10000,7.408,,,360,,,,,,,,,,,wg-a,,,,AAXX 27094 07168 12/60 33604 10230 20130 30044 40181 51005 60006 81031 90900=
07168,1996-07-27 12:00:00,28,1016.8,-1,37,12,15000,14.816,,,350,,,,,,,,,,,wg-a,,,,AAXX 27124 07168 12/65 13508 10280 20120 30034 40168 58010 60006 81030 91200=
07168,1996-07-27 15:00:00,30,1015.6,-1.1,31,11,16000,3.704,,,290,,,,,,,,,,,wg-a,,,,AAXX 27154 07168 12/66 12902 10300 20110 30023 40156 58011 60006 80001 91500=
07168,1996-07-27 18:00:00,29,1015.7,-0,33,11,0,11.112,,,340,13.6,29.9,,,,,,,,,wg-a,,,,AAXX 27184 07168 12/// /3406 10290 20110 30023 40157 55000 60006 91800 333 10299 20136=
07168,1996-07-28 00:00:00,17,1017.3,0,68,11,0,14.816,,,320,,,,,,,,,,,wg-a,,,,AAXX 28004 07168 12/// /3208 10170 20110 30034 40173 50000 60006 90000=
07168,1996-07-28 06:00:00,16,1017.5,0.5,94,15,2500,11.112,,,300,13.4,28.8,,,,,,,,10,wg-a,,,,AAXX 28064 07168 02/25 43006 10160 20150 30035 40175 51005 60006 71011 83031 90600 333 10288 20134 60004=
07168,1996-07-28 09:00:00,23,1017.6,0.5,61,15,8000,7.408,,,330,,,,,,,,,,,wg-a,,,,AAXX 28094 07168 12/58 03304 10230 20150 30040 40176 51005 60006 80000 90900=
07168,1996-07-28 12:00:00,28,1016.8,-0.6,40,13,15000,7.408,,,270,,,,,,,,,,,wg-a,,,,AAXX 28124 07168 12765 52704 10280 20130 30034 40168 58006 60006 85200 91200=
07168,1996-07-28 15:00:00,28,1016.1,-0.7,42,14,16000,14.816,,,310,,,,,,,,,,,wg-a,,,,AAXX 28154 07168 12766 63108 10280 20140 30027 40161 57007 60006 86200 91500=
07168,1996-07-28 18:00:00,27,1015.7,-0.5,48,15,0,14.816,,,310,15.9,29.4,,,,,,,,,wg-a,,,,AAXX 28184 07168 12/// /3108 10270 20150 30022 40157 55005 60006 91800 333 10294 20159=
07168,1996-07-29 00:00:00,18,1017.2,-0.1,59,10,0,11.112,,,350,,,,,,,,,,,wg-a,,,,AAXX 29004 07168 12/// /3506 10180 20100 30033 40172 58001 60006 90000=
07168,1996-07-29 06:00:00,17,1016.8,0.1,77,13,15000,0,,,0,12,26.7,,,,,,,,,wg-a,,,,AAXX 29064 07168 02/65 30000 10170 20130 30029 40168 52001 60006 81031 90600 333 10267 20120 60004=
07168,1996-07-29 09:00:00,26,1016.4,0,48,14,20000,14.816,,,230,,,,,,,,,,,wg-a,,,,AAXX 29094 07168 12670 72308 10260 20140 30029 40164 50000 60006 85801 90900=
07168,1996-07-29 12:00:00,28,1015,-1.3,42,14,20000,22.224,,,200,,,,,,,,,,,wg-a,,,,AAXX 29124 07168 12770 72012 10280 20140 30016 40150 58013 60006 84201 91200=
07168,1996-07-29 15:00:00,28,1013,-2,37,12,500,18.52,,,270,,,,,,,,,,,wg-a,,,,AAXX 29154 07168 12700 72710 10280 20120 39996 40130 57020 60006 84202 91500=
07168,1996-07-29 18:00:00,27,1012.8,-0.2,42,13,0,22.224,,,280,17.4,29.4,,,,,,,,,wg-a,,,,AAXX 29184 07168 12/// /2812 10270 20130 39994 40128 57002 60006 91800 333 10294 20174=
07168,1996-07-30 00:00:00,14,1016.1,0.6,88,12,0,7.408,,,210,,,,,,,,,,,wg-a,,,,AAXX 30004 07168 12/// /2104 10140 20120 30020 40161 50006 60006 90000=
07168,1996-07-30 06:00:00,16,1017,0.8,82,13,20000,3.704,,,60,12.7,27.2,,,,,,,,,wg-a,,,,AAXX 30064 07168 02770 60602 10160 20130 30030 40170 51008 60006 86500 90600 333 10272 20127 60004=
07168,1996-07-30 09:00:00,23,1016.9,0.3,61,15,25000,14.816,,,270,,,,,,,,,,,wg-a,,,,AAXX 30094 07168 12575 /2708 10230 20150 30033 40169 52003 60006 86200 90900=
07168,1996-07-30 12:00:00,26,1016.7,-0.1,45,13,25000,29.632,,,260,,,,,,,,,,,wg-a,,,,AAXX 30124 07168 12675 42616 10260 20130 30032 40167 57001 60006 84100 91200=
07168,1996-07-30 15:00:00,26,1016.7,-0,39,11,500,25.928,,,310,,,,,,,,,,,wg-a,,,,AAXX 30154 07168 12700 33114 10260 20110 30032 40167 54000 60006 83100 91500=
07168,1996-07-30 18:00:00,25,1017.2,0.4,44,12,0,18.52,,,320,15.8,27.2,,,,,,,,,wg-a,,,,AAXX 30184 07168 12/// /3210 10250 20120 30036 40172 52004 60006 91800 333 10272 20158=
07168,1996-07-31 00:00:00,14,1018.7,0.1,88,12,0,11.112,,,330,,,,,,,,,,,wg-a,,,,AAXX 31004 07168 12/// /3306 10140 20120 30046 40187 53001 60006 90000=
07168,1996-07-31 06:00:00,15,1019.3,0.7,88,13,12000,0,,,0,11.5,24.7,,,,,,,,,wg-a,,,,AAXX 31064 07168 02762 40000 10150 20130 30052 40193 51007 60006 81530 90600 333 10247 20115 60004=
07168,1996-07-31 09:00:00,22,1018.8,-0.1,57,13,20000,11.112,,,310,,,,,,,,,,,wg-a,,,,AAXX 31094 07168 12670 33106 10220 20130 30051 40188 58001 60006 83200 90900=
07168,1996-07-31 12:00:00,26,1017.6,-1,45,13,20000,14.816,,,230,,,,,,,,,,,wg-a,,,,AAXX 31124 07168 12770 22308 10260 20130 30041 40176 56010 60006 82100 91200=
07168,1996-07-31 15:00:00,28,1016.1,-1.4,35,11,25000,11.112,,,230,,,,,,,,,,,wg-a,,,,AAXX 31154 07168 12775 12306 10280 20110 30027 40161 57014 60006 81100 91500=
07168,1996-07-31 18:00:00,27,1015.7,-0.5,39,12,0,14.816,,,230,14.9,28.6,,,,,,,,,wg-a,,,,AAXX 31184 07168 12/// /2308 10270 20120 30022 40157 56005 60006 91800 333 10286 20149=
07168,1996-08-01 00:00:00,16,1016.8,0.3,77,12,0,3.704,,,310,,,,,,,,,,,wg-a,,,,AAXX 01004 07168 12/// /3102 10160 20120 30028 40168 53003 60006 90000=
07168,1996-08-01 06:00:00,15,1017.3,0.7,82,12,20000,0,,,0,10.2,26.8,,,,,,,,,wg-a,,,,AAXX 01064 07168 02/70 10000 10150 20120 30033 40173 53007 60006 80001 90600 333 10268 20102 60004=
07168,1996-08-01 09:00:00,24,1017.1,0.2,57,15,500,7.408,,,260,,,,,,,,,,,wg-a,,,,AAXX 01094 07168 12500 /2604 10240 20150 30035 40171 51002 60006 81101 90900=
07168,1996-08-01 12:00:00,27,1016.1,-0.8,45,14,500,18.52,,,250,,,,,,,,,,,wg-a,,,,AAXX 01124 07168 12600 /2510 10270 20140 30027 40161 58008 60006 86100 91200=
07168,1996-08-01 15:00:00,27,1015.6,-0.5,45,14,500,18.52,,,300,,,,,,,,,,,wg-a,,,,AAXX 01154 07168 12700 53010 10270 20140 30022 40156 56005 60006 85100 91500=
07168,1996-08-01 18:00:00,25,1016,0.3,50,14,0,22.224,,,320,15.3,28.6,,,,,,,,,wg-a,,,,AAXX 01184 07168 12/// /3212 10250 20140 30025 40160 53003 60006 91800 333 10286 20153=
07168,1996-08-02 00:00:00,15,1020.2,1.6,82,12,0,11.112,,,310,,,,,,,,,,,wg-a,,,,AAXX 02004 07168 12/// /3106 10150 20120 30061 40202 52016 60006 90000=
07168,1996-08-02 06:00:00,15,1022.2,1.3,82,12,15000,7.408,,,300,13.2,25.3,,,,,,,,,wg-a,,,,AAXX 02064 07168 02665 73004 10150 20120 30081 40222 53013 60006 8253/ 90600 333 10253 20132 60004=
07168,1996-08-02 09:00:00,19,1022.6,0.6,64,12,20000,11.112,,,360,,,,,,,,,,,wg-a,,,,AAXX 02094 07168 12670 73606 10190 20120 30087 40226 51006 60006 82532 90900=
07168,1996-08-02 12:00:00,23,1022.1,-0.3,50,12,20000,7.408,,,300,,,,,,,,,,,wg-a,,,,AAXX 02124 07168 12670 53004 10230 20120 30084 40221 58003 60006 82130 91200=
07168,1996-08-02 15:00:00,25,1021,-1,39,10,10000,11.112,,,350,,,,,,,,,,,wg-a,,,,AAXX 02154 07168 12/60 /3506 10250 20100 30074 40210 56010 60006 91500=
07168,1996-08-02 18:00:00,24,1021.1,-0,38,9,0,11.112,,,350,15.4,26,,,,,,,,,wg-a,,,,AAXX 02184 07168 12/// /3506 10240 20090 30074 40211 55000 60006 91800 333 10260 20154=
07168,1996-08-03 00:00:00,13,1024.1,0.8,77,9,0,18.52,,,300,,,,,,,,,,,wg-a,,,,AAXX 03004 07168 12/// /3010 10130 20090 30099 40241 51008 60006 90000=
07168,1996-08-03 09:00:00,21,1025.1,0.2,56,12,20000,11.112,,,20,,,,,,,,,,,wg-a,,,,AAXX 03094 07168 12670 /0206 10210 20120 30112 40251 53002 60006 86800 90900=
07168,1996-08-03 12:00:00,24,1024.5,-0.4,36,8,500,14.816,,,10,,,,,,,,,,,wg-a,,,,AAXX 03124 07168 12700 60108 10240 20080 30108 40245 56004 60006 86200 91200=
07168,1996-08-03 15:00:00,25,1023.8,-0.7,30,6,500,18.52,,,10,,,,,,,,,,,wg-a,,,,AAXX 03154 07168 12700 30110 10250 20060 30101 40238 57007 60006 83100 91500=
07168,1996-08-03 18:00:00,24,1023.6,-0.2,31,6,0,18.52,,,10,13.4,25.8,,,,,,,,,wg-a,,,,AAXX 03184 07168 12/// /0110 10240 20060 30099 40236 55002 60006 91800 333 10258 20134=
07168,1996-08-04 00:00:00,13,1024.1,-0.4,72,8,0,11.112,,,320,,,,,,,,,,,wg-a,,,,AAXX 04004 07168 12/// /3206 10130 20080 30099 40241 58004 60006 90000=
07168,1996-08-04 06:00:00,14,1023.2,-0.1,72,9,500,3.704,,,320,12.9,23.7,,,,,,,,,wg-a,,,,AAXX 04064 07168 02/00 03202 10140 20090 30090 40232 56001 60006 80000 90600 333 10237 20129 60004=
07168,1996-08-04 09:00:00,22,1021.8,-1,46,10,500,18.52,,,80,,,,,,,,,,,wg-a,,,,AAXX 04094 07168 12700 10810 10220 20100 30080 40218 58010 60006 81500 90900=
07168,1996-08-04 12:00:00,25,1019.4,-2.2,39,10,500,18.52,,,50,,,,,,,,,,,wg-a,,,,AAXX 04124 07168 12700 30510 10250 20100 30058 40194 57022 60006 83100 91200=
07168,1996-08-04 15:00:00,26,1017.1,-2.2,34,9,500,18.52,,,80,,,,,,,,,,,wg-a,,,,AAXX 04154 07168 12700 20810 10260 20090 30036 40171 56022 60006 82100 91500=
07168,1996-08-04 18:00:00,25,1016,-1.2,36,9,0,18.52,,,70,14.1,27.1,,,,,,,,,wg-a,,,,AAXX 04184 07168 12/// /0710 10250 20090 30024 40160 56012 60006 91800 333 10271 20141=
07168,1996-08-05 00:00:00,16,1016,-0.3,68,10,0,0,,,0,,,,,,,,,,,wg-a,,,,AAXX 05004 07168 12/// /0000 10160 20100 30020 40160 57003 60006 90000=
07168,1996-08-05 06:00:00,15,1014.4,-0.7,72,10,12000,0,,,0,9.2,25,,,,,,,,,wg-a,,,,AAXX 05064 07168 02/62 20000 10150 20100 30004 40144 55007 60006 80002 90600 333 10250 20092 60004=
07168,1996-08-05 09:00:00,22,1012.6,-1.4,53,12,15000,14.816,,,90,,,,,,,,,,,wg-a,,,,AAXX 05094 07168 12/65 30908 10220 20120 39990 40126 58014 60006 80002 90900=
07168,1996-08-05 12:00:00,27,1010.4,-2,37,11,15000,11.112,,,90,,,,,,,,,,,wg-a,,,,AAXX 05124 07168 12765 30906 10270 20110 39970 40104 56020 60006 81102 91200=
07168,1996-08-05 15:00:00,31,1008.4,-1.8,29,11,20000,11.112,,,210,,,,,,,,,,,wg-a,,,,AAXX 05154 07168 12770 32106 10310 20110 39952 40084 56018 60006 82102 91500=
07168,1996-08-05 18:00:00,28,1007.8,-0.7,35,11,0,14.816,,,240,14.6,30.6,,,,,,,,,wg-a,,,,AAXX 05184 07168 12/// /2408 10280 20110 39945 40078 55007 60006 91800 333 10306 20146=
07168,1996-08-06 00:00:00,17,1011.6,1.6,88,15,0,11.112,,,200,,,,,,,,,,,wg-a,,,,AAXX 06004 07168 12/// /2006 10170 20150 39978 40116 51016 60006 90000=
07168,1996-08-06 06:00:00,18,1012,0.5,94,17,7000,11.112,,,190,16.6,27.9,,,,,,,,,wg-a,,,,AAXX 06064 07168 12457 71906 10180 20170 39982 40120 52005 60004 875// 90600 333 10279 20166=
07168,1996-08-06 09:00:00,20,1012.6,0.7,78,16,10000,18.52,,,210,,,,,,,,,,,wg-a,,,,AAXX 06094 07168 12460 72110 10200 20160 39989 40126 51007 60006 83102 90900=
07168,1996-08-06 12:00:00,25,1012.8,0.4,50,14,20000,18.52,,,200,,,,,,,,,,,wg-a,,,,AAXX 06124 07168 12670 72010 10250 20140 39993 40128 52004 60006 83102 91200=
07168,1996-08-06 15:00:00,25,1012.6,-0.2,50,14,25000,22.224,,,230,,,,,,,,,,,wg-a,,,,AAXX 06154 07168 12675 82312 10250 20140 39991 40126 55002 60006 81132 91500=
07168,1996-08-06 18:00:00,22,1013.4,0.7,69,16,0,18.52,,,210,18,25.4,,,,,,,,,wg-a,,,,AAXX 06184 07168 12/// /2110 10220 20160 39998 40134 53007 60006 91800 333 10254 20180=
07168,1996-08-07 00:00:00,18,1016.4,0.9,83,15,0,11.112,,,250,,,,,,,,,,,wg-a,,,,AAXX 07004 07168 12/// /2506 10180 20150 30025 40164 51009 60006 90000=
07168,1996-08-07 06:00:00,12,1019.3,1.3,82,9,20000,3.704,,,360,9.4,22.1,,,,,,,,,wg-a,,,,AAXX 07064 07168 02/70 43602 10120 20090 30051 40193 53013 60006 81031 90600 333 10221 20094 60004=
07168,1996-08-07 09:00:00,18,1019.5,0.5,56,9,20000,3.704,,,310,,,,,,,,,,,wg-a,,,,AAXX 07094 07168 12/70 53102 10180 20090 30056 40195 51005 60006 80001 90900=
07168,1996-08-07 12:00:00,23,1018.5,-0.8,41,9,20000,18.52,,,260,,,,,,,,,,,wg-a,,,,AAXX 07124 07168 12770 52610 10230 20090 30048 40185 56008 60006 81101 91200=
07168,1996-08-07 15:00:00,24,1017.3,-1.1,38,9,20000,14.816,,,300,,,,,,,,,,,wg-a,,,,AAXX 07154 07168 12770 63008 10240 20090 30037 40173 58011 60006 81102 91500=
07168,1996-08-07 18:00:00,23,1016.9,-0.5,31,5,0,14.816,,,320,11.9,25,,,,,,,,,wg-a,,,,AAXX 07184 07168 12/// /3208 10230 20050 30032 40169 57005 60006 91800 333 10250 20119=
07168,1996-08-08 00:00:00,10,1018.4,0.1,66,4,0,0,,,0,,,,,,,,,,,wg-a,,,,AAXX 08004 07168 12/// /0000 10100 20040 30041 40184 50001 60006 90000=
07168,1996-08-08 06:00:00,9,1017.5,-0,81,6,15000,0,,,0,5.3,22.6,,,,,,,,,wg-a,,,,AAXX 08064 07168 02/65 10000 10090 20060 30031 40175 55000 60006 80001 90600 333 10226 20053 60004=
07168,1996-08-08 09:00:00,21,1016.6,-0.3,46,9,20000,3.704,,,200,,,,,,,,,,,wg-a,,,,AAXX 08094 07168 12/70 12002 10210 20090 30028 40166 57003 60006 80001 90900=
07168,1996-08-08 12:00:00,25,1015.4,-1,30,6,25000,3.704,,,330,,,,,,,,,,,wg-a,,,,AAXX 08124 07168 12/75 13302 10250 20060 30018 40154 56010 60006 80001 91200=
07168,1996-08-08 15:00:00,28,1013.8,-1.4,20,3,25000,7.408,,,130,,,,,,,,,,,wg-a,,,,AAXX 08154 07168 12/75 11304 10280 20030 30004 40138 56014 60006 80001 91500=
07168,1996-08-08 18:00:00,27,1013.5,-0.4,21,3,0,3.704,,,20,8.8,28.6,,,,,,,,,wg-a,,,,AAXX 08184 07168 12/// /0202 10270 20030 30000 40135 55004 60006 91800 333 10286 20088=
07168,1996-08-09 00:00:00,12,1015.6,0.3,67,6,0,7.408,,,170,,,,,,,,,,,wg-a,,,,AAXX 09004 07168 12/// /1704 10120 20060 30014 40156 51003 60006 90000=
07168,1996-08-10 00:00:00,18,1011.1,-0.7,68,12,0,11.112,,,150,,,,,,,,,,,wg-a,,,,AAXX 10004 07168 12/// /1506 10180 20120 39973 40111 56007 60006 90000=
07168,1996-08-10 06:00:00,19,1010.7,0.5,73,14,20000,0,,,0,15.2,28.8,,,,,,,,,wg-a,,,,AAXX 10064 07168 02/70 70000 10190 20140 39970 40107 53005 60006 83032 90600 333 10288 20152 60004=
07168,1996-08-10 09:00:00,23,1010.9,0.3,57,14,20000,18.52,,,220,,,,,,,,,,,wg-a,,,,AAXX 10094 07168 12670 72210 10230 20140 39973 40109 53003 60006 81982 90900=
07168,1996-08-10 12:00:00,17,1010.8,-0.3,100,17,8000,11.112,,,180,,,,5,,,,,,61,wg-a,,,,AAXX 10124 07168 02558 81806 10170 20170 39970 40108 58003 60056 76198 8697/ 91200 333 60057=
07168,1996-08-10 15:00:00,19,1009.5,-1.2,78,15,18000,7.408,,,260,,,,1,,,,,,1,wg-a,,,,AAXX 10154 07168 12468 72604 10190 20150 39958 40095 58012 60017 70162 8623/ 91500=
07168,1996-08-10 18:00:00,19,1008.8,-0.7,83,16,0,7.408,,,160,17.4,23.3,,,,,,,,,wg-a,,,,AAXX 10184 07168 32/// /1604 10190 20160 39951 40088 57007 91800 333 10233 20174=
07168,1996-08-11 00:00:00,17,1008.9,-0.6,94,16,0,18.52,,,220,,,,,,,,,,,wg-a,,,,AAXX 11004 07168 12/// /2210 10170 20160 39951 40089 56006 60006 90000=
07168,1996-08-11 06:00:00,16,1008.2,0.2,88,14,20000,14.816,,,170,14.8,18.6,,,,,7,,,,wg-a,,,,AAXX 11064 07168 02470 71708 10160 20140 39944 40082 51002 60006 875// 90600 333 10186 20148 60074=
07168,1996-08-11 09:00:00,19,1007.4,-0.7,73,14,20000,29.632,,,210,,,,,,,,,,,wg-a,,,,AAXX 11094 07168 12570 72116 10190 20140 39937 40074 58007 60006 878// 90900=
07168,1996-08-11 12:00:00,21,1006.2,-1.1,69,15,20000,22.224,,,220,,,,0,,,,,,3,wg-a,,,,AAXX 11124 07168 02570 72212 10210 20150 39926 40062 58011 60016 70386 878// 91200 333 60007=
07168,1996-08-11 15:00:00,15,1006,-0.5,94,14,10000,3.704,,,30,,,,10,,,,,,80,wg-a,,,,AAXX 11154 07168 12360 80302 10150 20140 39921 40060 58005 60107 78098 882// 91500=
07168,1996-08-11 18:00:00,17,1006.3,0.5,94,16,0,11.112,,,160,14.7,21.1,,,,,,,,,wg-a,,,,AAXX 11184 07168 32/// /1606 10170 20160 39926 40063 53005 91800 333 10211 20147=
07168,1996-08-12 00:00:00,15,1008.2,0.4,94,14,0,25.928,,,210,,,,,,,,,,,wg-a,,,,AAXX 12004 07168 12/// /2114 10150 20140 39943 40082 53004 60016 90000=
07168,1996-08-12 06:00:00,14,1009.3,0.8,94,13,12000,14.816,,,220,13.1,17.3,,0,,,15,,,,wg-a,,,,AAXX 12064 07168 02462 72208 10140 20130 39953 40093 53008 60154 875// 90600 333 10173 20131 60007=
07168,1996-08-12 09:00:00,16,1010.1,0.9,88,14,16000,18.52,,,240,,,,,,,,,,,wg-a,,,,AAXX 12094 07168 12466 82410 10160 20140 39962 40101 52009 60006 878// 90900=
07168,1996-08-12 12:00:00,16,1010.8,0.7,94,15,8000,14.816,,,220,,,,2,,,,,,25,wg-a,,,,AAXX 12124 07168 02458 82208 10160 20150 39969 40108 51007 60026 72586 885// 91200 333 60027=
07168,1996-08-12 15:00:00,18,1010.8,0.1,88,16,10000,22.224,,,240,,,,1,,,,,,1,wg-a,,,,AAXX 12154 07168 12460 72412 10180 20160 39970 40108 51001 60017 70186 878// 91500=
07168,1996-08-12 18:00:00,16,1011.4,0.5,94,15,0,18.52,,,260,14.2,18.4,,,,,,,,,wg-a,,,,AAXX 12184 07168 32/// /2610 10160 20150 39975 40114 53005 91800 333 10184 20142=
07168,1996-08-13 00:00:00,14,1012.6,-0.2,94,13,0,18.52,,,270,,,,,,,,,,,wg-a,,,,AAXX 13004 07168 12/// /2710 10140 20130 39986 40126 56002 60006 90000=
07168,1996-08-13 06:00:00,14,1012.3,-0.1,94,13,2500,22.224,,,240,13.6,16,,,,,4,,,10,wg-a,,,,AAXX 13064 07168 12325 82412 10140 20130 39983 40123 56001 60044 71022 885// 90600 333 10160 20136=
07168,1996-08-13 09:00:00,15,1012.6,0.3,94,14,4000,22.224,,,240,,,,2,,,,,,10,wg-a,,,,AAXX 13094 07168 12340 82412 10150 20140 39986 40126 51003 60027 71062 887// 90900=
07168,1996-08-13 12:00:00,16,1012.1,-0.4,94,15,4000,29.632,,,250,,,,8,,,,,,10,wg-a,,,,AAXX 13124 07168 02340 82516 10160 20150 39982 40121 58004 60106 71062 887// 91200 333 60087=
07168,1996-08-13 15:00:00,15,1012.5,0.4,94,14,8000,31.484,,,280,,,,5,,,,,,51,wg-a,,,,AAXX 13154 07168 12458 82817 10150 20140 39986 40125 51004 60057 75166 887// 91500=
07168,1996-08-13 18:00:00,15,1013.2,0.7,94,14,0,29.632,,,280,13.9,15.9,,,,,,,,,wg-a,,,,AAXX 13184 07168 32/// /2816 10150 20140 39993 40132 53007 91800 333 10159 20139=
07168,1996-08-14 00:00:00,16,1015.2,0.4,94,15,0,22.224,,,290,,,,,,,,,,,wg-a,,,,AAXX 14004 07168 02/// /2912 10160 20150 30012 40152 51004 61000 90000 333 ////=
07168,1996-08-14 06:00:00,16,1016.2,0.8,94,15,3000,14.816,,,290,15.3,15.7,,,,,15,,,10,wg-a,,,,AAXX 14064 07168 02430 82908 10160 20150 30022 40162 53008 60006 71022 875// 90600 333 10157 20153 60154=
07168,1996-08-14 09:00:00,16,1017.3,1.1,94,15,4000,14.816,,,290,,,,,,,,,,10,wg-a,,,,AAXX 14094 07168 12440 82908 10160 20150 30033 40173 53011 60006 71022 875// 90900=
07168,1996-08-14 12:00:00,17,1017.9,0.7,88,15,0,14.816,,,280,,,,,,,,,,,wg-a,,,,AAXX 14124 07168 12/// /2808 10170 20150 30040 40179 53007 60006 91200=
07168,1996-08-14 15:00:00,20,1017.3,-0.5,78,16,7000,11.112,,,310,,,,,,,,,,3,wg-a,,,,AAXX 14154 07168 02457 73106 10200 20160 30035 40173 57005 61000 70352 878// 91500 333 ////=
07168,1996-08-14 18:00:00,20,1017.3,-0,78,16,0,11.112,,,270,15.5,20.9,,,,,,,,,wg-a,,,,AAXX 14184 07168 32/// /2706 10200 20160 30035 40173 55000 91800 333 10209 20155=
07168,1996-08-15 00:00:00,13,1018.6,0.6,94,12,0,11.112,,,310,,,,,,,,,,,wg-a,,,,AAXX 15004 07168 12/// /3106 10130 20120 30045 40186 51006 60006 90000=
07168,1996-08-15 06:00:00,14,1019.6,0.7,100,14,4000,11.112,,,300,11.7,20,,,,,,,,10,wg-a,,,,AAXX 15064 07168 02440 73006 10140 20140 30055 40196 53007 60006 71022 875// 90600 333 10200 20117 61000=
07168,1996-08-15 09:00:00,18,1020.3,0.9,83,15,500,7.408,,,360,,,,,,,,,,,wg-a,,,,AAXX 15094 07168 12400 73604 10180 20150 30064 40203 51009 60006 875// 90900=
07168,1996-08-15 12:00:00,22,1019.9,-0.2,60,14,9000,7.408,,,330,,,,,,,,,,,wg-a,,,,AAXX 15124 07168 12559 /3304 10220 20140 30062 40199 58002 60006 86200 91200=
07168,1996-08-15 15:00:00,24,1019.2,-0.6,54,14,14000,18.52,,,30,,,,,,,,,,,wg-a,,,,AAXX 15154 07168 12664 40310 10240 20140 30056 40192 56006 60006 84200 91500=
07168,1996-08-15 18:00:00,23,1019.2,-0.1,53,13,0,11.112,,,20,14.2,24.5,,,,,,,,,wg-a,,,,AAXX 15184 07168 12/// /0206 10230 20130 30055 40192 56001 60006 91800 333 10245 20142=
07168,1996-08-16 00:00:00,15,1021.3,0.4,88,13,0,11.112,,,330,,,,,,,,,,,wg-a,,,,AAXX 16004 07168 12/// /3306 10150 20130 30072 40213 51004 60006 90000=
07168,1996-08-16 06:00:00,12,1021.8,0.3,100,12,1500,7.408,,,310,10.4,22.6,,0,,,,,,10,wg-a,,,,AAXX 16064 07168 02/15 03104 10120 20120 30076 40218 52003 60004 71040 80000 90600 333 10226 20104 60007=
07168,1996-08-16 09:00:00,20,1021.8,0.4,73,15,6000,7.408,,,80,,,,,,,,,,,wg-a,,,,AAXX 16094 07168 12/56 00804 10200 20150 30080 40218 51004 60006 80000 90900=
07168,1996-08-16 12:00:00,24,1020.9,-0.7,54,14,12000,14.816,,,60,,,,,,,,,,,wg-a,,,,AAXX 16124 07168 12662 /0608 10240 20140 30073 40209 58007 60006 81100 91200=
07168,1996-08-16 15:00:00,26,1020.2,-0.7,45,13,15000,14.816,,,40,,,,,,,,,,,wg-a,,,,AAXX 16154 07168 12765 30408 10260 20130 30066 40202 56007 60006 83200 91500=
07168,1996-08-16 18:00:00,24,1020,-0.2,50,13,0,7.408,,,20,12.5,25.8,,,,,,,,,wg-a,,,,AAXX 16184 07168 12/// /0204 10240 20130 30064 40200 55002 60006 91800 333 10258 20125=
07168,1996-08-17 00:00:00,15,1021.7,0.2,88,13,0,11.112,,,300,,,,,,,,,,,wg-a,,,,AAXX 17004 07168 12/// /3006 10150 20130 30076 40217 53002 60006 90000=
07168,1996-08-17 06:00:00,13,1021.9,0.2,100,13,500,3.704,,,320,10.2,24,,,,,,,,,wg-a,,,,AAXX 17064 07168 02/00 03202 10130 20130 30077 40219 53002 60006 80000 90600 333 10240 20102 60004=
07168,1996-08-17 09:00:00,22,1021.9,0.5,69,16,10000,3.704,,,50,,,,,,,,,,,wg-a,,,,AAXX 17094 07168 12/60 00502 10220 20160 30082 40219 50005 60006 80000 90900=
07168,1996-08-17 12:00:00,26,1020.9,-0.9,48,14,22000,11.112,,,30,,,,,,,,,,,wg-a,,,,AAXX 17124 07168 12672 30306 10260 20140 30073 40209 58009 60006 83100 91200=
07168,1996-08-17 15:00:00,27,1020.1,-0.7,39,12,25000,11.112,,,30,,,,,,,,,,,wg-a,,,,AAXX 17154 07168 12775 20306 10270 20120 30066 40201 56007 60006 82100 91500=
07168,1996-08-17 18:00:00,25,1019.9,-0.3,41,11,0,11.112,,,350,12.7,26.9,,,,,,,,,wg-a,,,,AAXX 17184 07168 12/// /3506 10250 20110 30063 40199 56003 60006 91800 333 10269 20127=
07168,1996-08-18 00:00:00,15,1020.9,0,82,12,0,14.816,,,290,,,,,,,,,,,wg-a,,,,AAXX 18004 07168 12/// /2908 10150 20120 30068 40209 50000 60006 90000=
07168,1996-08-18 06:00:00,14,1020.1,0.1,94,13,500,7.408,,,320,11,24.8,,,,,,,,,wg-a,,,,AAXX 18064 07168 02/00 03204 10140 20130 30060 40201 53001 60006 80000 90600 333 10248 20110 60004=
07168,1996-08-18 09:00:00,22,1020,0.3,65,15,10000,7.408,,,60,,,,,,,,,,,wg-a,,,,AAXX 18094 07168 12/60 00604 10220 20150 30063 40200 50003 60006 80000 90900=
07168,1996-08-18 12:00:00,27,1018.2,-1.6,37,11,3000,14.816,,,60,,,,,,,,,,,wg-a,,,,AAXX 18124 07168 12730 10608 10270 20110 30047 40182 57016 60006 81100 91200=
07168,1996-08-18 15:00:00,29,1016.7,-1.4,33,11,500,18.52,,,80,,,,,,,,,,,wg-a,,,,AAXX 18154 07168 12700 10810 10290 20110 30033 40167 57014 60006 81100 91500=
07168,1996-08-18 18:00:00,26,1016,-0.8,45,13,0,14.816,,,70,13.5,29,,,,,,,,,wg-a,,,,AAXX 18184 07168 12/// /0708 10260 20130 30025 40160 56008 60006 91800 333 10290 20135=
07168,1996-08-19 00:00:00,16,1016.6,0,82,13,0,0,,,0,,,,,,,,,,,wg-a,,,,AAXX 19004 07168 12/// /0000 10160 20130 30026 40166 50000 60006 90000=
07168,1996-08-19 06:00:00,14,1015.5,-0.2,100,14,10000,3.704,,,180,12.3,26.1,,,,,,,,,wg-a,,,,AAXX 19064 07168 02/60 01802 10140 20140 30015 40155 55002 60006 80000 90600 333 10261 20123 60004=
07168,1996-08-19 09:00:00,23,1014.8,-0.3,61,15,15000,11.112,,,120,,,,,,,,,,,wg-a,,,,AAXX 19094 07168 12/65 01206 10230 20150 30012 40148 58003 60006 80000 90900=
07168,1996-08-19 12:00:00,28,1013.1,-1.5,42,14,20000,11.112,,,120,,,,,,,,,,,wg-a,,,,AAXX 19124 07168 12/70 01206 10280 20140 39997 40131 57015 60006 80000 91200=
07168,1996-08-19 15:00:00,30,1011.6,-1.4,35,13,20000,7.408,,,180,,,,,,,,,,,wg-a,,,,AAXX 19154 07168 12770 11804 10300 20130 39983 40116 58014 60006 81100 91500=
07168,1996-08-19 18:00:00,28,1011.1,-0.5,45,15,0,11.112,,,80,14.4,30.1,,,,,,,,,wg-a,,,,AAXX 19184 07168 12/// /0806 10280 20150 39978 40111 55005 60006 91800 333 10301 20144=
07168,1996-08-20 00:00:00,18,1011.7,-0.1,88,16,0,7.408,,,110,,,,,,,,,,,wg-a,,,,AAXX 20004 07168 12/// /1104 10180 20160 39979 40117 58001 60006 90000=
07168,1996-08-20 06:00:00,16,1012.1,0.5,94,15,10000,7.408,,,140,13,28,,,,,,,,,wg-a,,,,AAXX 20064 07168 02760 11404 10160 20150 39982 40121 52005 60006 81500 90600 333 10280 20130 60004=
07168,1996-08-20 09:00:00,25,1012.7,1,57,16,12000,18.52,,,270,,,,,,,,,,,wg-a,,,,AAXX 20094 07168 12862 42710 10250 20160 39992 40127 51010 60006 81031 90900=
07168,1996-08-20 12:00:00,23,1013.3,0.5,73,18,8000,25.928,,,240,,,,,,,,,,80,wg-a,,,,AAXX 20124 07168 02658 82414 10230 20180 39997 40133 53005 61000 78086 8527/ 91200 333 6100=
07168,1996-08-20 15:00:00,21,1013.2,-0.1,88,19,10000,3.704,,,310,,,,2,,,,,,21,wg-a,,,,AAXX 20154 07168 12460 73102 10210 20190 39996 40132 58001 60027 72186 8587/ 91500=
07168,1996-08-20 18:00:00,22,1012.5,-0.7,83,19,0,3.704,,,50,15.6,26.8,,,,,,,,,wg-a,,,,AAXX 20184 07168 32/// /0502 10220 20190 39989 40125 56007 91800 333 10268 20156=
07168,1996-08-21 00:00:00,18,1013.4,0.2,94,17,0,11.112,,,190,,,,,,,,,,,wg-a,,,,AAXX 21004 07168 12/// /1906 10180 20170 39996 40134 53002 60006 90000=
07168,1996-08-21 06:00:00,18,1012.6,-0.1,100,18,8000,7.408,,,180,16.9,21.7,,,,,2,,,3,wg-a,,,,AAXX 21064 07168 12458 71804 10180 20180 39988 40126 55001 60024 70386 8357/ 90600 333 10217 20169=
07168,1996-08-21 09:00:00,21,1013.1,0.6,78,17,12000,7.408,,,230,,,,,,,,,,,wg-a,,,,AAXX 21094 07168 12462 72304 10210 20170 39994 40131 53006 60006 872// 90900=
07168,1996-08-21 12:00:00,24,1012.2,-0.7,65,17,15000,7.408,,,300,,,,,,,,,,,wg-a,,,,AAXX 21124 07168 12565 73004 10240 20170 39987 40122 58007 60006 85202 91200=
07168,1996-08-21 15:00:00,17,1012.3,-0.3,100,17,6000,7.408,,,190,,,,,,,,,,61,wg-a,,,,AAXX 21154 07168 02556 81904 10170 20170 39984 40123 55003 61000 76198 879// 91500 333 ////=
07168,1996-08-21 18:00:00,18,1012.1,-0.1,100,18,0,7.408,,,310,15.2,24.2,,,,,,,,,wg-a,,,,AAXX 21184 07168 32/// /3104 10180 20180 39983 40121 55001 91800 333 10242 20152=
07168,1996-08-22 00:00:00,18,1012.7,0.1,100,18,0,0,,,0,,,,,,,,,,,wg-a,,,,AAXX 22004 07168 12/// /0000 10180 20180 39989 40127 50001 60006 90000=
07168,1996-08-22 06:00:00,15,1013.2,1,100,15,4000,14.816,,,310,15.4,18.1,,,,,,,,10,wg-a,,,,AAXX 22064 07168 12440 83108 10150 20150 39993 40132 53010 60004 71086 887// 90600 333 10181 20154=
07168,1996-08-22 09:00:00,14,1014.9,1.6,100,14,10000,14.816,,,300,,,,,,,,,,60,wg-a,,,,AAXX 22094 07168 02460 83008 10140 20140 30009 40149 53016 61000 76065 885// 90900 333 ////=
07168,1996-08-22 12:00:00,16,1015.1,0.3,94,15,10000,14.816,,,300,,,,,,,,,,2,wg-a,,,,AAXX 22124 07168 02460 83008 10160 20150 30012 40151 53003 61000 70265 888// 91200 333 ////=
07168,1996-08-22 15:00:00,18,1014.6,-0.4,83,15,12000,11.112,,,300,,,,,,,,,,,wg-a,,,,AAXX 22154 07168 12462 73006 10180 20150 30008 40146 57004 60006 878// 91500=
07168,1996-08-22 18:00:00,18,1014.4,-0.2,88,16,0,7.408,,,190,14,18.6,,,,,,,,,wg-a,,,,AAXX 22184 07168 32/// /1904 10180 20160 30006 40144 55002 91800 333 10186 20140=
07168,1996-08-23 00:00:00,12,1014.5,-0.9,100,12,0,7.408,,,150,,,,,,,,,,,wg-a,,,,AAXX 23004 07168 12/// /1504 10120 20120 30004 40145 58009 60006 90000=
07168,1996-08-23 06:00:00,14,1011.9,-0.8,94,13,12000,11.112,,,160,10.2,17.7,,0,,,1,,,,wg-a,,,,AAXX 23064 07168 02862 21606 10140 20130 39979 40119 56008 60014 81031 90600 333 10177 20102 60007=
07168,1996-08-23 09:00:00,21,1011.2,-0.3,78,17,20000,22.224,,,180,,,,,,,,,,,wg-a,,,,AAXX 23094 07168 12870 31812 10210 20170 39976 40112 58003 60006 83050 90900=
07168,1996-08-23 12:00:00,23,1010.1,-1.1,61,15,20000,22.224,,,180,,,,,,,,,,,wg-a,,,,AAXX 23124 07168 12870 61812 10230 20150 39965 40101 58011 60006 86070 91200=
07168,1996-08-23 15:00:00,21,1009.9,-0.2,78,17,10000,22.224,,,210,,,,,,,,,,61,wg-a,,,,AAXX 23154 07168 02560 72112 10210 20170 39963 40099 55002 61000 76162 8457/ 91500 333 ////=
07168,1996-08-23 18:00:00,21,1010.8,0.8,60,13,0,18.52,,,230,14,25.4,,,,,,,,,wg-a,,,,AAXX 23184 07168 32/// /2310 10210 20130 39971 40108 53008 91800 333 10254 20140=
07168,1996-08-24 06:00:00,14,1012.6,-0.3,88,12,20000,18.52,,,170,,,,,,,,,,,wg-a,,,,AAXX 24064 07168 32370 /1710 10140 20120 39986 40126 55003 81800 90600=
07168,1996-08-24 09:00:00,19,1012.6,0.2,73,14,20000,31.484,,,210,,,,,,,,,,,wg-a,,,,AAXX 24094 07168 12470 /2117 10190 20140 39988 40126 51002 60006 85200 90900=
07168,1996-08-24 12:00:00,21,1010.9,-1.5,69,15,20000,29.632,,,210,,,,,,,,,,25,wg-a,,,,AAXX 24124 07168 02570 /2116 10210 20150 39973 40109 57015 61000 72586 86200 91200 333 6100=
07168,1996-08-24 15:00:00,22,1009.9,-1,57,13,500,31.484,,,230,,,,,,,,,,,wg-a,,,,AAXX 24154 07168 12600 62317 10220 20130 39963 40099 58010 60006 84240 91500=
07168,1996-08-24 18:00:00,19,1010.9,0.8,68,13,0,22.224,,,240,13.7,23.3,,,,,,,,,wg-a,,,,AAXX 24184 07168 32/// /2412 10190 20130 39971 40109 53008 91800 333 10233 20137=
07168,1996-08-25 00:00:00,15,1013,0.9,88,13,0,14.816,,,230,,,,,,,,,,,wg-a,,,,AAXX 25004 07168 12/// /2308 10150 20130 39990 40130 53009 60006 90000=
07168,1996-08-25 06:00:00,13,1014.5,1.1,94,12,16000,7.408,,,140,12.6,18.8,,,,,,,,,wg-a,,,,AAXX 25064 07168 02566 61404 10130 20120 30004 40145 53011 60006 86800 90600 333 10188 20126 61000=
07168,1996-08-25 09:00:00,16,1015.4,1.1,82,13,16000,22.224,,,230,,,,,,,,,,,wg-a,,,,AAXX 25094 07168 12466 /2312 10160 20130 30015 40154 51011 60006 86100 90900=
07168,1996-08-25 12:00:00,19,1014.6,-0.7,64,12,20000,14.816,,,220,,,,,,,,,,,wg-a,,,,AAXX 25124 07168 12570 72208 10190 20120 30008 40146 58007 60006 8726/ 91200=
07168,1996-08-25 15:00:00,20,1014.1,-0.5,64,13,20000,14.816,,,170,,,,,,,,,,1,wg-a,,,,AAXX 25154 07168 02570 61708 10200 20130 30003 40141 58005 61000 70186 8626/ 91500 333 ////=
07168,1996-08-25 18:00:00,16,1014.6,0.3,88,14,0,14.816,,,240,13.2,20.9,,,,,,,,,wg-a,,,,AAXX 25184 07168 32/// /2408 10160 20140 30006 40146 53003 91800 333 10209 20132=
07168,1996-08-26 00:00:00,13,1014.7,-0.3,100,13,0,7.408,,,140,,,,,,,,,,,wg-a,,,,AAXX 26004 07168 12/// /1404 10130 20130 30006 40147 58003 60016 90000=
07168,1996-08-26 06:00:00,13,1014.7,0.5,100,13,15000,11.112,,,140,11.6,15.7,,,,,1,,,,wg-a,,,,AAXX 26064 07168 12665 /1406 10130 20130 30006 40147 53005 60014 86530 90600 333 10157 20116=
07168,1996-08-26 09:00:00,18,1015.6,1.1,77,14,20000,3.704,,,260,,,,,,,,,,,wg-a,,,,AAXX 26094 07168 12470 /2602 10180 20140 30017 40156 51011 60006 86800 90900=
07168,1996-08-26 12:00:00,21,1015.1,-0.3,46,9,25000,18.52,,,260,,,,,,,,,,,wg-a,,,,AAXX 26124 07168 12675 42610 10210 20090 30014 40151 58003 60006 84800 91200=
07168,1996-08-26 15:00:00,21,1014.2,-0.9,53,11,25000,14.816,,,240,,,,,,,,,,,wg-a,,,,AAXX 26154 07168 12675 42408 10210 20110 30005 40142 58009 60006 84800 91500=
07168,1996-08-26 18:00:00,18,1014.9,0.5,73,13,0,11.112,,,230,13.4,22.7,,,,,,,,,wg-a,,,,AAXX 26184 07168 12/// /2306 10180 20130 30010 40149 53005 60006 91800 333 10227 20134=
07168,1996-08-27 00:00:00,12,1016.3,-0.1,94,11,0,3.704,,,90,,,,,,,,,,,wg-a,,,,AAXX 27004 07168 12/// /0902 10120 20110 30021 40163 58001 60006 90000=
07168,1996-08-27 06:00:00,11,1016.4,-0,100,11,15000,3.704,,,130,7.9,17.4,,0,,,,,,,wg-a,,,,AAXX 27064 07168 02/65 51302 10110 20110 30022 40164 55000 60004 84031 90600 333 10174 20079 60007=
07168,1996-08-27 09:00:00,16,1016.6,0.4,82,13,500,7.408,,,180,,,,,,,,,,,wg-a,,,,AAXX 27094 07168 12/00 71804 10160 20130 30026 40166 52004 60006 8707/ 90900=
07168,1996-08-27 12:00:00,19,1015.8,-0.6,73,14,500,14.816,,,160,,,,,,,,,,,wg-a,,,,AAXX 27124 07168 12600 71608 10190 20140 30020 40158 56006 60006 8227/ 91200=
07168,1996-08-27 15:00:00,18,1015.5,-0.4,73,13,25000,14.816,,,280,,,,,,,,,,25,wg-a,,,,AAXX 27154 07168 02575 72808 10180 20130 30016 40155 55004 61000 72586 8227/ 91500 333 ////=
07168,1996-08-28 00:00:00,13,1017,0.2,94,12,0,11.112,,,300,,,,,,,,,,,wg-a,,,,AAXX 28004 07168 12/// /3006 10130 20120 30029 40170 50002 60006 90000=
07168,1996-08-28 06:00:00,13,1017.2,0.7,94,12,7000,14.816,,,270,11.2,17.2,,,,,,,,,wg-a,,,,AAXX 28064 07168 12357 72708 10130 20120 30031 40172 53007 60004 8553/ 90600 333 10172 20112=
07168,1996-08-28 09:00:00,15,1017.5,0.4,88,13,15000,18.52,,,280,,,,,,,,,,,wg-a,,,,AAXX 28094 07168 12465 72810 10150 20130 30035 40175 51004 60006 8383/ 90900=
07168,1996-08-28 12:00:00,17,1016.5,-0.9,68,11,20000,18.52,,,280,,,,,,,,,,,wg-a,,,,AAXX 28124 07168 12570 72810 10170 20110 30026 40165 58009 60006 8523/ 91200=
07168,1996-08-28 15:00:00,18,1015.9,-0.6,68,12,18000,18.52,,,270,,,,,,,,,,1,wg-a,,,,AAXX 28154 07168 12568 62710 10180 20120 30020 40159 58006 60006 70192 84203 91500=
07168,1996-08-28 18:00:00,16,1015.8,-0.1,82,13,0,7.408,,,190,12.5,18.8,,,,,,,,,wg-a,,,,AAXX 28184 07168 12/// /1904 10160 20130 30019 40158 55001 60006 91800 333 10188 20125=
07168,1996-08-29 00:00:00,13,1015.6,-0.6,88,11,0,22.224,,,260,,,,,,,,,,,wg-a,,,,AAXX 29004 07168 12/// /2612 10130 20110 30015 40156 57006 60006 90000=
07168,1996-08-29 06:00:00,12,1014.8,-0.6,94,11,4000,22.224,,,250,9.7,16.4,,,,,,,,10,wg-a,,,,AAXX 29064 07168 12340 /2512 10120 20110 30006 40148 55006 60004 71011 86600 90600 333 10164 20097=
07168,1996-08-29 09:00:00,15,1015,0.4,82,12,7000,25.928,,,250,,,,,,,,,,,wg-a,,,,AAXX 29094 07168 12457 72514 10150 20120 30010 40150 53004 60006 8523/ 90900=
07168,1996-08-29 12:00:00,18,1014.9,0,68,12,10000,35.188,,,240,,,,,,,,,,,wg-a,,,,AAXX 29124 07168 12460 72419 10180 20120 30010 40149 50000 60006 8523/ 91200=
07168,1996-08-29 15:00:00,14,1015.7,0.6,94,13,500,22.224,,,260,,,,2,,,,,,61,wg-a,,,,AAXX 29154 07168 12300 82612 10140 20130 30016 40157 53006 60027 76162 8687/ 91500=
07168,1996-08-29 18:00:00,14,1016.3,0.6,88,12,0,14.816,,,260,11.7,17.7,,,,,,,,,wg-a,,,,AAXX 29184 07168 32/// /2608 10140 20120 30022 40163 53006 91800 333 10177 20117=
07168,1996-08-30 00:00:00,13,1017.3,0.2,94,12,0,18.52,,,230,,,,,,,,,,,wg-a,,,,AAXX 30004 07168 02/// /2310 10130 20120 30032 40173 51002 61000 90000 333 ////=
07168,1996-08-30 06:00:00,13,1018.4,1.2,94,12,10000,22.224,,,250,12.7,13.7,,,,,3,,,,wg-a,,,,AAXX 30064 07168 02660 72512 10130 20120 30043 40184 53012 60006 875// 90600 333 10137 20127 60034=
07168,1996-08-30 09:00:00,15,1019.8,1.4,88,13,10000,22.224,,,270,,,,,,,,,,,wg-a,,,,AAXX 30094 07168 12460 82712 10150 20130 30057 40198 51014 60006 888// 90900=
07168,1996-08-30 12:00:00,17,1020.3,0.6,72,12,12000,29.632,,,290,,,,,,,,,,,wg-a,,,,AAXX 30124 07168 12562 82916 10170 20120 30063 40203 51006 60006 888// 91200=
07168,1996-08-30 15:00:00,18,1021.4,1.1,68,12,12000,18.52,,,310,,,,,,,,,,,wg-a,,,,AAXX 30154 07168 12562 83110 10180 20120 30074 40214 51011 60006 888// 91500=
07168,1996-08-30 18:00:00,16,1021.9,0.5,82,13,0,7.408,,,180,13,18.1,,,,,,,,,wg-a,,,,AAXX 30184 07168 32/// /1804 10160 20130 30079 40219 53005 91800 333 10181 20130=
07168,1996-08-31 00:00:00,11,1023.8,0.5,94,10,0,3.704,,,310,,,,,,,,,,,wg-a,,,,AAXX 31004 07168 12/// /3102 10110 20100 30094 40238 50005 60006 90000=
07168,1996-08-31 06:00:00,11,1025.1,0.8,100,11,8000,7.408,,,320,8.1,16.4,,,,,,,,,wg-a,,,,AAXX 31064 07168 02658 83204 10110 20110 30108 40251 53008 60006 885// 90600 333 10164 20081 61000=
07168,1996-08-31 09:00:00,15,1025.8,0.9,82,12,9000,7.408,,,350,,,,,,,,,,,wg-a,,,,AAXX 31094 07168 12459 73504 10150 20120 30117 40258 51009 60006 878// 90900=
07168,1996-08-31 12:00:00,18,1025.5,-0.2,59,10,20000,14.816,,,20,,,,,,,,,,,wg-a,,,,AAXX 31124 07168 12670 60208 10180 20100 30115 40255 56002 60006 84201 91200=
07168,1996-08-31 15:00:00,18,1025.3,-0.2,56,9,25000,14.816,,,30,,,,,,,,,,,wg-a,,,,AAXX 31154 07168 12675 70308 10180 20090 30113 40253 55002 60006 878// 91500=
07168,1996-08-31 18:00:00,17,1025.5,0.1,63,10,0,11.112,,,20,11.2,19.6,,,,,,,,,wg-a,,,,AAXX 31184 07168 12/// /0206 10170 20100 30114 40255 53001 60006 91800 333 10196 20112=
07168,1996-09-01 00:00:00,14,1026.9,0.1,77,10,0,7.408,,,350,,,,,,,,,,,wg-a,,,,AAXX 01004 07168 12/// /3504 10140 20100 30127 40269 50001 60006 90000=
07168,1996-09-01 06:00:00,9,1027.8,0.5,100,9,8000,11.112,,,310,7.9,17,,,,,,,,,wg-a,,,,AAXX 01064 07168 02758 /3106 10090 20090 30133 40278 53005 60006 81500 90600 333 10170 20079 60004=
07168,1996-09-01 09:00:00,15,1028.1,0.6,67,9,12000,14.816,,,40,,,,,,,,,,,wg-a,,,,AAXX 01094 07168 12562 40408 10150 20090 30139 40281 50006 60006 84200 90900=
07168,1996-09-01 12:00:00,17,1027.2,-0.8,52,7,25000,14.816,,,40,,,,,,,,,,,wg-a,,,,AAXX 01124 07168 12675 40408 10170 20070 30131 40272 57008 60006 84201 91200=
07168,1996-09-01 15:00:00,19,1026.3,-0.8,43,6,25000,18.52,,,40,,,,,,,,,,,wg-a,,,,AAXX 01154 07168 12675 40410 10190 20060 30123 40263 58008 60006 84101 91500=
07168,1996-09-01 18:00:00,16,1026.3,-0.1,63,9,0,14.816,,,360,9,18.7,,,,,,,,,wg-a,,,,AAXX 01184 07168 12/// /3608 10160 20090 30122 40263 55001 60006 91800 333 10187 20090=
07168,1996-09-02 00:00:00,10,1026.6,-0.3,87,8,0,7.408,,,300,,,,,,,,,,,wg-a,,,,AAXX 02004 07168 12/// /3004 10100 20080 30122 40266 58003 60006 90000=
07168,1996-09-02 06:00:00,8,1026,-0.3,100,8,10000,11.112,,,320,5.8,15.6,,0,,,,,,,wg-a,,,,AAXX 02064 07168 02/60 03206 10080 20080 30115 40260 56003 60004 80000 90600 333 10156 20058 60007=
07168,1996-09-02 12:00:00,19,1024,-1.4,49,8,25000,25.928,,,40,,,,,,,,,,,wg-a,,,,AAXX 02124 07168 12675 40414 10190 20080 30100 40240 56014 60006 84200 91200=
07168,1996-09-02 15:00:00,20,1022.8,-1.1,40,6,25000,29.632,,,40,,,,,,,,,,,wg-a,,,,AAXX 02154 07168 12775 30416 10200 20060 30089 40228 56011 60006 83200 91500=
07168,1996-09-02 18:00:00,18,1022.1,-0.8,49,7,0,14.816,,,30,7.7,20.6,,,,,,,,,wg-a,,,,AAXX 02184 07168 12/// /0308 10180 20070 30081 40221 56008 60006 91800 333 10206 20077=
07168,1996-09-03 00:00:00,13,1021.9,-0.8,72,8,0,14.816,,,30,,,,,,,,,,,wg-a,,,,AAXX 03004 07168 12/// /0308 10130 20080 30077 40219 58008 60006 90000=
07168,1996-09-03 06:00:00,9,1020.4,-0.6,93,8,15000,11.112,,,330,7.4,18,,,,,,,,,wg-a,,,,AAXX 03064 07168 02/65 23306 10090 20080 30060 40204 58006 60006 82030 90600 333 10180 20074 60004=
07168,1996-09-03 09:00:00,16,1019.4,-0.6,63,9,20000,25.928,,,40,,,,,,,,,,,wg-a,,,,AAXX 03094 07168 12/70 30414 10160 20090 30054 40194 58006 60006 83030 90900=
07168,1996-09-03 12:00:00,19,1018.2,-1.1,60,11,20000,25.928,,,50,,,,,,,,,,,wg-a,,,,AAXX 03124 07168 12570 60514 10190 20110 30043 40182 58011 60006 83132 91200=
07168,1996-09-03 15:00:00,21,1017.1,-1,56,12,12000,22.224,,,60,,,,,,,,,,,wg-a,,,,AAXX 03154 07168 12662 /0612 10210 20120 30033 40171 58010 60006 86500 91500=
07168,1996-09-03 18:00:00,20,1017.2,0.1,64,13,0,11.112,,,30,8.9,21.2,,,,,,,,,wg-a,,,,AAXX 03184 07168 12/// /0306 10200 20130 30034 40172 53001 60006 91800 333 10212 20089=
07168,1996-09-04 00:00:00,15,1017.8,-0.2,82,12,0,11.112,,,20,,,,,,,,,,,wg-a,,,,AAXX 04004 07168 12/// /0206 10150 20120 30038 40178 55002 60006 90000=
07168,1996-09-04 06:00:00,14,1017.7,0.4,82,11,15000,7.408,,,10,11.8,20.2,,,,,,,,,wg-a,,,,AAXX 04064 07168 02/65 00104 10140 20110 30036 40177 53004 60006 80000 90600 333 10202 20118 60004=
07168,1996-09-04 09:00:00,19,1017.5,0.1,64,12,15000,22.224,,,50,,,,,,,,,,,wg-a,,,,AAXX 04094 07168 12/65 00512 10190 20120 30037 40175 53001 60006 80000 90900=
07168,1996-09-04 12:00:00,23,1016.4,-0.9,50,12,20000,22.224,,,40,,,,,,,,,,,wg-a,,,,AAXX 04124 07168 12/70 00412 10230 20120 30028 40164 58009 60006 80000 91200=
07168,1996-09-04 15:00:00,25,1015.5,-0.8,44,12,20000,22.224,,,40,,,,,,,,,,,wg-a,,,,AAXX 04154 07168 12770 20412 10250 20120 30020 40155 56008 60006 82100 91500=
07168,1996-09-04 18:00:00,22,1015.5,-0.2,57,13,0,11.112,,,40,13.8,25.4,,,,,,,,,wg-a,,,,AAXX 04184 07168 12/// /0406 10220 20130 30018 40155 57002 60006 91800 333 10254 20138=
07168,1996-09-05 00:00:00,15,1017.1,0.5,88,13,0,11.112,,,360,,,,,,,,,,,wg-a,,,,AAXX 05004 07168 12/// /3606 10150 20130 30031 40171 51005 60006 90000=
07168,1996-09-05 06:00:00,10,1017.5,0.4,100,10,3000,11.112,,,300,9.4,22.2,,,,,,,,10,wg-a,,,,AAXX 05064 07168 02/30 03006 10100 20100 30032 40175 53004 60006 71000 80000 90600 333 10222 20094 60004=
07168,1996-09-05 09:00:00,17,1017.4,0.3,77,13,500,7.408,,,40,,,,,,,,,,,wg-a,,,,AAXX 05094 07168 12/00 00404 10170 20130 30035 40174 52003 60006 80000 90900=
07168,1996-09-05 12:00:00,21,1016.6,-0.6,64,14,8000,14.816,,,20,,,,,,,,,,,wg-a,,,,AAXX 05124 07168 12/58 /0208 10210 20140 30029 40166 58006 60006 91200=
07168,1996-09-05 15:00:00,23,1015.5,-1,53,13,10000,11.112,,,30,,,,,,,,,,,wg-a,,,,AAXX 05154 07168 12660 20306 10230 20130 30019 40155 57010 60006 82100 91500=
07168,1996-09-05 18:00:00,21,1015.7,0.1,60,13,0,11.112,,,30,10.5,23.5,,,,,,,,,wg-a,,,,AAXX 05184 07168 12/// /0306 10210 20130 30020 40157 53001 60006 91800 333 10235 20105=
07168,1996-09-06 00:00:00,13,1018,0.7,82,10,0,7.408,,,340,,,,,,,,,,,wg-a,,,,AAXX 06004 07168 12/// /3404 10130 20100 30039 40180 53007 60006 90000=
07168,1996-09-06 06:00:00,8,1019.9,1,100,8,10000,14.816,,,310,6.7,20.8,,,,,,,,,wg-a,,,,AAXX 06064 07168 02/60 03108 10080 20080 30055 40199 53010 60006 80000 90600 333 10208 20067 60004=
07168,1996-09-06 09:00:00,16,1019.9,0.4,68,10,12000,7.408,,,30,,,,,,,,,,,wg-a,,,,AAXX 06094 07168 12/62 00304 10160 20100 30059 40199 53004 60006 80000 90900=
07168,1996-09-06 12:00:00,20,1019,-0.7,43,7,20000,14.816,,,10,,,,,,,,,,,wg-a,,,,AAXX 06124 07168 12/70 00108 10200 20070 30052 40190 58007 60006 80000 91200=
07168,1996-09-06 15:00:00,21,1018.2,-0.8,35,5,25000,14.816,,,20,,,,,,,,,,,wg-a,,,,AAXX 06154 07168 12/75 00208 10210 20050 30044 40182 56008 60006 80000 91500=
07168,1996-09-06 18:00:00,18,1018.4,0.1,45,6,0,11.112,,,20,8.1,21.5,,,,,,,,,wg-a,,,,AAXX 06184 07168 12/// /0206 10180 20060 30045 40184 53001 60006 91800 333 10215 20081=
07168,1996-09-07 00:00:00,8,1020.8,0.7,87,6,0,14.816,,,300,,,,,,,,,,,wg-a,,,,AAXX 07004 07168 12/// /3008 10080 20060 30064 40208 51007 60006 90000=
07168,1996-09-07 06:00:00,7,1022.4,1.2,100,7,8000,7.408,,,310,5.3,18.4,,,,,,,,,wg-a,,,,AAXX 07064 07168 02/58 03104 10070 20070 30079 40224 53012 60006 80000 90600 333 10184 20053 60004=
07168,1996-09-07 09:00:00,16,1023.3,1.3,51,6,15000,18.52,,,90,,,,,,,,,,,wg-a,,,,AAXX 07094 07168 12/65 00910 10160 20060 30092 40233 53013 60006 80000 90900=
07168,1996-09-07 12:00:00,18,1023.1,-0.1,34,2,500,22.224,,,60,,,,,,,,,,,wg-a,,,,AAXX 07124 07168 12/00 00612 10180 20020 30091 40231 58001 60006 80000 91200=
07168,1996-09-07 15:00:00,20,1022.2,-0.8,28,1,500,22.224,,,90,,,,,,,,,,,wg-a,,,,AAXX 07154 07168 12/00 00912 10200 20010 30083 40222 56008 60006 80000 91500=
07168,1996-09-07 18:00:00,17,1022.8,0.4,39,3,0,14.816,,,40,7.1,19.7,,,,,,,,,wg-a,,,,AAXX 07184 07168 12/// /0408 10170 20030 30087 40228 52004 60006 91800 333 10197 20071=
07168,1996-09-08 00:00:00,8,1023.5,-0,76,4,0,7.408,,,320,,,,,,,,,,,wg-a,,,,AAXX 08004 07168 12/// /3204 10080 20040 30090 40235 54000 60006 90000=
07168,1996-09-08 06:00:00,5,1023.6,0.2,93,4,15000,14.816,,,310,2.7,16.7,,,,,,,,,wg-a,,,,AAXX 08064 07168 02/65 13108 10050 20040 30089 40236 53002 60006 80001 90600 333 10167 20027 60004=
07168,1996-09-08 09:00:00,14,1023.1,-0,58,6,20000,14.816,,,40,,,,,,,,,,,wg-a,,,,AAXX 08094 07168 12/70 10408 10140 20060 30089 40231 54000 60006 80001 90900=
07168,1996-09-08 12:00:00,17,1021.6,-1.3,42,4,500,22.224,,40.744,40,,,,,,,,,,,wg-a,,,,AAXX 08124 07168 12700 10412 10170 20040 30076 40216 57013 60006 81100 91200 333 91022=
07168,1996-09-08 15:00:00,18,1020.6,-1,37,3,500,25.928,,,40,,,,,,,,,,,wg-a,,,,AAXX 08154 07168 12700 10414 10180 20030 30066 40206 57010 60006 81400 91500=
07168,1996-09-08 18:00:00,16,1020.8,0.1,45,4,0,18.52,,,40,4.6,18.6,,,,,,,,,wg-a,,,,AAXX 08184 07168 12/// /0410 10160 20040 30067 40208 51001 60006 91800 333 10186 20046=
07168,1996-09-09 00:00:00,12,1021,-0.6,71,7,0,14.816,,,30,,,,,,,,,,,wg-a,,,,AAXX 09004 07168 12/// /0308 10120 20070 30067 40210 57006 60006 90000=
07168,1996-09-09 06:00:00,7,1021.7,0.8,93,6,11000,11.112,,,320,5.9,15.6,,,,,,,,,wg-a,,,,AAXX 09064 07168 02/61 03206 10070 20060 30072 40217 53008 60006 80000 90600 333 10156 20059 60004=
07168,1996-09-09 09:00:00,15,1021.7,0.4,67,9,20000,11.112,,,60,,,,,,,,,,,wg-a,,,,AAXX 09094 07168 12570 /0606 10150 20090 30076 40217 53004 60006 81100 90900=
07168,1996-09-09 12:00:00,18,1020.8,-0.7,45,6,500,22.224,,,30,,,,,,,,,,,wg-a,,,,AAXX 09124 07168 12600 40312 10180 20060 30069 40208 58007 60006 84100 91200=
07168,1996-09-09 15:00:00,20,1019.7,-1.1,37,5,500,14.816,,,40,,,,,,,,,,,wg-a,,,,AAXX 09154 07168 12700 20408 10200 20050 30058 40197 58011 60006 82100 91500=
07168,1996-09-09 18:00:00,17,1020,0.2,45,5,0,11.112,,,40,7.3,19.8,,,,,,,,,wg-a,,,,AAXX 09184 07168 12/// /0406 10170 20050 30060 40200 53002 60006 91800 333 10198 20073=
07168,1996-09-10 09:00:00,12,1021.9,0.7,82,9,7000,11.112,,,330,,,,,,,,,,,wg-a,,,,AAXX 10094 07168 12/57 33306 10120 20090 30076 40219 51007 60006 80001 90900=
07168,1996-09-10 12:00:00,18,1020.3,-1.3,64,11,10000,14.816,,,330,,,,,,,,,,,wg-a,,,,AAXX 10124 07168 12/60 33308 10180 20110 30063 40203 58013 60006 80001 91200=
07168,1996-09-10 15:00:00,19,1018.9,-1.3,49,8,12000,14.816,,,350,,,,,,,,,,,wg-a,,,,AAXX 10154 07168 12662 43508 10190 20080 30050 40189 56013 60006 81101 91500=
07168,1996-09-10 18:00:00,15,1019.1,0.1,72,10,0,11.112,,,20,5.4,19.3,,,,,,,,,wg-a,,,,AAXX 10184 07168 12/// /0206 10150 20100 30051 40191 53001 60006 91800 333 10193 20054=
07168,1996-09-11 00:00:00,13,1019.3,-0.5,88,11,0,7.408,,,330,,,,,,,,,,,wg-a,,,,AAXX 11004 07168 12/// /3304 10130 20110 30051 40193 57005 60006 90000=
07168,1996-09-11 06:00:00,11,1018.3,-0,94,10,9000,7.408,,,310,10.5,15.3,,,,,,,,,wg-a,,,,AAXX 11064 07168 02759 73104 10110 20100 30041 40183 55000 60006 875// 90600 333 10153 20105 60004=
07168,1996-09-11 09:00:00,13,1018.2,0,88,11,7000,11.112,,,20,,,,,,,,,,,wg-a,,,,AAXX 11094 07168 12457 80206 10130 20110 30041 40182 50000 60006 875// 90900=
07168,1996-09-11 12:00:00,16,1016.7,-1.4,68,10,10000,7.408,,,20,,,,,,,,,,,wg-a,,,,AAXX 11124 07168 12560 70204 10160 20100 30027 40167 57014 60006 878// 91200=
07168,1996-09-11 15:00:00,16,1015.3,-1.4,63,9,15000,11.112,,,40,,,,,,,,,,,wg-a,,,,AAXX 11154 07168 12665 70406 10160 20090 30013 40153 56014 60006 8427/ 91500=
07168,1996-09-11 18:00:00,15,1014.5,-0.8,67,9,0,3.704,,,330,11.1,17.5,,,,,,,,,wg-a,,,,AAXX 11184 07168 12/// /3302 10150 20090 30005 40145 56008 60006 91800 333 10175 20111=
07168,1996-09-12 00:00:00,8,1014.2,-0.9,93,7,0,11.112,,,290,,,,,,,,,,,wg-a,,,,AAXX 12004 07168 12/// /2906 10080 20070 39998 40142 58009 60006 90000=
07168,1996-09-12 06:00:00,5,1011.9,-0.7,100,5,10000,3.704,,,10,2.8,15.1,,0,,,,,,,wg-a,,,,AAXX 12064 07168 02/60 20102 10050 20050 39974 40119 56007 60004 81031 90600 333 10151 20028 60007=
07168,1996-09-12 15:00:00,15,1008.3,-0.6,67,9,12000,25.928,,,340,,,,,,,,,,3,wg-a,,,,AAXX 12154 07168 02562 73414 10150 20090 39944 40083 55006 61000 70362 8637/ 91500 333 ////=
07168,1996-09-12 18:00:00,12,1008.3,-0.2,88,10,0,14.816,,,270,5.2,17.4,,,,,,,,,wg-a,,,,AAXX 12184 07168 32/// /2708 10120 20100 39942 40083 57002 91800 333 10174 20052=
07168,1996-09-13 00:00:00,8,1011.2,0.9,93,7,0,18.52,,,280,,,,,,,,,,,wg-a,,,,AAXX 13004 07168 12/// /2810 10080 20070 39969 40112 53009 60006 90000=
07168,1996-09-13 06:00:00,9,1012.6,0.8,87,7,25000,18.52,,,290,7.4,11.7,,,,,1,,,,wg-a,,,,AAXX 13064 07168 02775 52910 10090 20070 39983 40126 53008 60006 85500 90600 333 10117 20074 60014=
07168,1996-09-13 09:00:00,11,1013.6,1.1,82,8,20000,29.632,,,310,,,,,,,,,,,wg-a,,,,AAXX 13094 07168 12470 /3116 10110 20080 39994 40136 51011 60006 86800 90900=
07168,1996-09-13 12:00:00,15,1014,0.6,63,8,25000,29.632,,,320,,,,,,,,,,,wg-a,,,,AAXX 13124 07168 12575 /3216 10150 20080 30000 40140 51006 60006 85200 91200=
07168,1996-09-13 15:00:00,15,1014.2,0.2,55,6,25000,35.188,,,310,,,,,,,,,,,wg-a,,,,AAXX 13154 07168 12575 73119 10150 20060 30002 40142 53002 60006 878// 91500=
07168,1996-09-13 18:00:00,12,1016.3,1.9,82,9,0,18.52,,,330,8.1,16.5,,1,,,,,,,wg-a,,,,AAXX 13184 07168 12/// /3310 10120 20090 30021 40163 51019 60017 91800 333 10165 20081=
07168,1996-09-14 00:00:00,9,1019.4,1.1,87,7,0,22.224,,,280,,,,,,,,,,,wg-a,,,,AAXX 14004 07168 12/// /2812 10090 20070 30050 40194 52011 60006 90000=
07168,1996-09-14 06:00:00,9,1021.1,1,100,9,12000,14.816,,,290,6.8,12.2,,,,,1,,,,wg-a,,,,AAXX 14064 07168 02762 72908 10090 20090 30067 40211 53010 60006 875// 90600 333 10122 20068 60014=
07168,1996-09-14 09:00:00,13,1022.5,1.6,88,11,12000,14.816,,,320,,,,,,,,,,,wg-a,,,,AAXX 14094 07168 12562 73208 10130 20110 30083 40225 53016 60006 878// 90900=
07168,1996-09-14 12:00:00,15,1022.6,0.2,72,10,15000,11.112,,,360,,,,,,,,,,,wg-a,,,,AAXX 14124 07168 12565 73606 10150 20100 30085 40226 52002 60006 878// 91200=
07168,1996-09-14 15:00:00,15,1022.2,-0.4,67,9,20000,18.52,,,340,,,,,,,,,,,wg-a,,,,AAXX 14154 07168 12670 73410 10150 20090 30081 40222 56004 60006 878// 91500=
07168,1996-09-14 18:00:00,13,1022.4,0.1,82,10,0,7.408,,,340,9.4,17.4,,,,,,,,,wg-a,,,,AAXX 14184 07168 12/// /3404 10130 20100 30082 40224 53001 60006 91800 333 10174 20094=
07168,1996-09-15 00:00:00,7,1023.8,0.5,100,7,0,14.816,,,300,,,,,,,,,,,wg-a,,,,AAXX 15004 07168 12/// /3008 10070 20070 30093 40238 51005 60006 90000=
07168,1996-09-15 06:00:00,5,1024.3,0.5,100,5,500,7.408,,,320,4.2,12.9,,0,,,,,,11,wg-a,,,,AAXX 15064 07168 02700 23204 10050 20050 30096 40243 53005 60004 71100 82500 90600 333 10129 20042 60007=
07168,1996-09-15 09:00:00,14,1024.5,,77,10,10000,5.556,,,10,,,,,,,,,,,wg-a,,,,AAXX 15094 07168 32460 30103 10140 20100 30103 40245 83800 90900=
07168,1996-09-15 12:00:00,17,1023.8,-0.4,59,9,18000,18.52,,,40,,,,,,,,,,,wg-a,,,,AAXX 15124 07168 12568 /0410 10170 20090 30098 40238 57004 60006 85800 91200=
07168,1996-09-15 15:00:00,18,1023.1,-0.7,59,10,25000,18.52,,,10,,,,,,,,,,,wg-a,,,,AAXX 15154 07168 12675 40110 10180 20100 30091 40231 56007 60006 84800 91500=
07168,1996-09-15 18:00:00,16,1023.2,-0,63,9,0,7.408,,,20,5.1,17.6,,,,,,,,,wg-a,,,,AAXX 15184 07168 12/// /0204 10160 20090 30091 40232 55000 60006 91800 333 10176 20051=
07168,1996-09-16 00:00:00,7,1024.2,0,100,7,0,11.112,,,300,,,,,,,,,,,wg-a,,,,AAXX 16004 07168 12/// /3006 10070 20070 30097 40242 50000 60006 90000=
07168,1996-09-16 06:00:00,5,1023.4,-0.2,100,5,1100,14.816,,,310,4,15.6,,,,,,,,10,wg-a,,,,AAXX 16064 07168 02/11 03108 10050 20050 30087 40234 55002 60006 71000 80000 90600 333 10156 20040 60004=
07168,1996-09-16 09:00:00,14,1022.6,-0.3,72,9,18000,14.816,,,80,,,,,,,,,,,wg-a,,,,AAXX 16094 07168 32/68 00808 10140 20090 30084 40226 58003 80000 90900=
07168,1996-09-16 12:00:00,19,1020.5,-1.8,43,6,500,25.928,,,80,,,,,,,,,,,wg-a,,,,AAXX 16124 07168 12700 10814 10190 20060 30066 40205 56018 60006 81100 91200=
07168,1996-09-16 15:00:00,20,1018.7,-1.8,40,6,500,18.52,,,60,,,,,,,,,,,wg-a,,,,AAXX 16154 07168 12/00 00610 10200 20060 30048 40187 57018 60006 80000 91500=
07168,1996-09-16 18:00:00,16,1018,-0.8,51,6,0,14.816,,,60,4.8,19.9,,,,,,,,,wg-a,,,,AAXX 16184 07168 32/// /0608 10160 20060 30040 40180 57008 91800 333 10199 20048=
07168,1996-09-17 00:00:00,9,1017.1,-0.6,76,5,0,7.408,,,90,,,,,,,,,,,wg-a,,,,AAXX 17004 07168 12/// /0904 10090 20050 30027 40171 58006 60006 90000=
07168,1996-09-17 06:00:00,7,1015.1,-0.8,81,4,25000,7.408,,,70,6,16.1,,,,,,,,,wg-a,,,,AAXX 17064 07168 02/75 00704 10070 20040 30007 40151 56008 60006 80000 90600 333 10161 20060 60004=
07168,1996-09-17 09:00:00,13,1014.3,-0.5,58,5,25000,25.928,,,80,,,,,,,,,,,wg-a,,,,AAXX 17094 07168 12/75 00814 10130 20050 30002 40143 56005 60006 80000 90900=
07168,1996-09-17 12:00:00,19,1012.9,-1.1,43,6,500,22.224,,,80,,,,,,,,,,,wg-a,,,,AAXX 17124 07168 12/00 00812 10190 20060 39991 40129 58011 60006 80000 91200=
07168,1996-09-17 15:00:00,20,1011.3,-1.5,40,6,500,25.928,,,70,,,,,,,,,,,wg-a,,,,AAXX 17154 07168 12/00 00714 10200 20060 39976 40113 56015 60006 80000 91500=
07168,1996-09-17 18:00:00,16,1011.8,0.2,45,4,0,18.52,,,60,6.8,20.2,,,,,,,,,wg-a,,,,AAXX 17184 07168 12/// /0610 10160 20040 39978 40118 53002 60006 91800 333 10202 20068=
07168,1996-09-18 00:00:00,8,1012.5,-0.3,76,4,0,7.408,,,10,,,,,,,,,,,wg-a,,,,AAXX 18004 07168 12/// /0104 10080 20040 39982 40125 58003 60006 90000=
07168,1996-09-18 06:00:00,4,1011.2,-0.7,93,3,10000,3.704,,,20,1.9,15.5,,,,,,,,,wg-a,,,,AAXX 18064 07168 02/60 00202 10040 20030 39966 40112 56007 60006 80000 90600 333 10155 20019 60004=
07168,1996-09-18 09:00:00,11,1010.3,-0.5,66,5,12000,14.816,,,80,,,,,,,,,,,wg-a,,,,AAXX 18094 07168 12/62 00808 10110 20050 39961 40103 58005 60006 80000 90900=
07168,1996-09-18 12:00:00,16,1008.3,-1.7,51,6,12000,18.52,,,60,,,,,,,,,,,wg-a,,,,AAXX 18124 07168 12/62 00610 10160 20060 39944 40083 57017 60006 80000 91200=
07168,1996-09-18 15:00:00,18,1006.4,-1.8,49,7,20000,18.52,,,90,,,,,,,,,,,wg-a,,,,AAXX 18154 07168 12670 /0910 10180 20070 39926 40064 56018 60006 86500 91500=
07168,1996-09-18 18:00:00,15,1006.3,-0.2,55,6,0,22.224,,,70,3.7,18,,,,,,,,,wg-a,,,,AAXX 18184 07168 12/// /0712 10150 20060 39924 40063 55002 60006 91800 333 10180 20037=
07168,1996-09-19 00:00:00,11,1005.5,-0.9,76,7,0,14.816,,,80,,,,,,,,,,,wg-a,,,,AAXX 19004 07168 12/// /0808 10110 20070 39914 40055 56009 60006 90000=
07168,1996-09-19 06:00:00,9,1003.1,-1,100,9,4000,22.224,,,90,9.2,14.4,,2,,,6,,,10,wg-a,,,,AAXX 19064 07168 02340 80912 10090 20090 39890 40031 56010 60064 71062 885// 90600 333 10144 20092 60027=
07168,1996-09-19 09:00:00,13,1003.3,0.4,94,12,6000,14.816,,,110,,,,1,,,,,,1,wg-a,,,,AAXX 19094 07168 12856 71108 10130 20120 39894 40033 51004 60017 70162 8707/ 90900=
07168,1996-09-19 12:00:00,19,1003,0,78,15,12000,11.112,,,120,,,,,,,,,,3,wg-a,,,,AAXX 19124 07168 12562 71206 10190 20150 39894 40030 50000 60016 70362 8717/ 91200=
07168,1996-09-19 15:00:00,19,1002.6,-0.4,68,13,12000,14.816,,,120,,,,0,,,,,,21,wg-a,,,,AAXX 19154 07168 12862 71208 10190 20130 39890 40026 55004 60007 72162 8707/ 91500=
07168,1996-09-19 18:00:00,16,1003.5,0.7,88,14,0,14.816,,,180,9.3,19.8,,,,,,,,,wg-a,,,,AAXX 19184 07168 32/// /1808 10160 20140 39897 40035 53007 91800 333 10198 20093=
07168,1996-09-20 00:00:00,12,1005.2,0.9,94,11,0,7.408,,,290,,,,,,,,,,,wg-a,,,,AAXX 20004 07168 12/// /2904 10120 20110 39912 40052 53009 60046 90000=
07168,1996-09-20 06:00:00,9,1005.8,0.2,100,9,7000,7.408,,,170,9.3,16.3,,,,,6,,,,wg-a,,,,AAXX 20064 07168 12557 71704 10090 20090 39916 40058 53002 60064 8753/ 90600 333 10163 20093=
07168,1996-09-20 09:00:00,12,1005.8,0.2,88,10,15000,11.112,,,150,,,,,,,,,,,wg-a,,,,AAXX 20094 07168 12465 61506 10120 20100 39918 40058 53002 60006 84230 90900=
07168,1996-09-20 12:00:00,14,1005.2,-0.5,77,10,15000,11.112,,,190,,,,,,,,,,,wg-a,,,,AAXX 20124 07168 12565 71906 10140 20100 39913 40052 56005 60006 878// 91200=
07168,1996-09-20 15:00:00,14,1005.2,0,72,9,12000,7.408,,,190,,,,,,,,,,,wg-a,,,,AAXX 20154 07168 12662 81904 10140 20090 39913 40052 50000 60006 885// 91500=
07168,1996-09-20 18:00:00,12,1005.4,0.1,88,10,0,7.408,,,140,9.2,14.9,,,,,,,,,wg-a,,,,AAXX 20184 07168 12/// /1404 10120 20100 39914 40054 53001 60006 91800 333 10149 20092=
07168,1996-09-21 00:00:00,6,1005,-0.6,100,6,0,7.408,,,190,,,,,,,,,,,wg-a,,,,AAXX 21004 07168 12/// /1904 10060 20060 39907 40050 56006 60006 90000=
07168,1996-09-21 06:00:00,4,1004.2,0.1,100,4,200,3.704,,,340,3.1,12.2,,,,,,,,44,wg-a,,,,AAXX 21064 07168 02/02 03402 10040 20040 39898 40042 53001 60006 74440 80000 90600 333 10122 20031 60004=
07168,1996-09-21 09:00:00,8,1004.6,0.6,100,8,300,3.704,,,330,,,,,,,,,,42,wg-a,,,,AAXX 21094 07168 12103 83302 10080 20080 39904 40046 51006 60006 74244 886// 90900=
07168,1996-09-21 12:00:00,14,1003.8,-0.5,82,11,8000,11.112,,,30,,,,,,,,,,1,wg-a,,,,AAXX 21124 07168 12458 40306 10140 20110 39899 40038 58005 60006 70141 84200 91200=
07168,1996-09-21 15:00:00,16,1003.4,-0.3,63,9,16000,11.112,,,50,,,,,,,,,,,wg-a,,,,AAXX 21154 07168 12566 20506 10160 20090 39896 40034 57003 60006 82200 91500=
07168,1996-09-21 18:00:00,13,1004.1,0.6,82,10,0,11.112,,,20,3.8,16.7,,,,,,,,,wg-a,,,,AAXX 21184 07168 12/// /0206 10130 20100 39902 40041 53006 60006 91800 333 10167 20038=
07168,1996-09-22 00:00:00,8,1005.3,0,100,8,0,14.816,,,300,,,,,,,,,,,wg-a,,,,AAXX 22004 07168 12/// /3008 10080 20080 39911 40053 50000 60006 90000=
07168,1996-09-22 06:00:00,10,1006.4,0.9,93,9,2000,7.408,,,350,7.2,13.1,,,,,,,,10,wg-a,,,,AAXX 22064 07168 02320 83504 10100 20090 39922 40064 53009 60006 71022 885// 90600 333 10131 20072 60004=
07168,1996-09-22 09:00:00,10,1007.7,1.3,87,8,4000,14.816,,,10,,,,,,,,,,10,wg-a,,,,AAXX 22094 07168 12440 80108 10100 20080 39935 40077 51013 60006 71022 886// 90900=
07168,1996-09-22 12:00:00,12,1007.8,0.3,76,8,10000,18.52,,,360,,,,,,,,,,,wg-a,,,,AAXX 22124 07168 12560 73610 10120 20080 39938 40078 51003 60006 878// 91200=
07168,1996-09-22 15:00:00,13,1007.7,-0.1,72,8,12000,14.816,,,350,,,,,,,,,,,wg-a,,,,AAXX 22154 07168 12662 83508 10130 20080 39937 40077 57001 60006 885// 91500=
07168,1996-09-22 18:00:00,11,1009.1,1.3,82,8,0,11.112,,,340,9.5,13.1,,,,,,,,,wg-a,,,,AAXX 22184 07168 12/// /3406 10110 20080 39950 40091 53013 60006 91800 333 10131 20095=
07168,1996-09-23 00:00:00,9,1009.7,-0.2,93,8,0,7.408,,,290,,,,,,,,,,,wg-a,,,,AAXX 23004 07168 12/// /2904 10090 20080 39955 40097 55002 60006 90000=
07168,1996-09-23 06:00:00,9,1009.5,-0,93,8,3000,7.408,,,190,8.4,11.3,,,,,,,,10,wg-a,,,,AAXX 23064 07168 02430 81904 10090 20080 39953 40095 55000 60006 71022 885// 90600 333 10113 20084 60004=
07168,1996-09-23 09:00:00,11,1010,0.5,82,8,500,11.112,,,210,,,,,,,,,,,wg-a,,,,AAXX 23094 07168 12500 82106 10110 20080 39958 40100 53005 60006 885// 90900=
07168,1996-09-23 12:00:00,13,1009.4,-0.4,77,9,6000,14.816,,,260,,,,,,,,,,,wg-a,,,,AAXX 23124 07168 12456 72608 10130 20090 39954 40094 58004 60006 878// 91200=
07168,1996-09-24 06:00:00,10,1011.8,0.8,100,10,3000,11.112,,,320,9.6,11.6,,,,,,,,10,wg-a,,,,AAXX 24064 07168 02230 83206 10100 20100 39976 40118 53008 60006 71022 886// 90600 333 10116 20096 60004=
07168,1996-09-24 09:00:00,12,1012.2,0.5,88,10,6000,7.408,,,300,,,,,,,,,,,wg-a,,,,AAXX 24094 07168 12456 73004 10120 20100 39981 40122 53005 60006 875// 90900=
07168,1996-09-24 12:00:00,15,1012.1,0,67,9,10000,7.408,,,330,,,,,,,,,,,wg-a,,,,AAXX 24124 07168 12560 /3304 10150 20090 39981 40121 50000 60006 86200 91200=
07168,1996-09-24 15:00:00,16,1011.6,-0.4,63,9,16000,7.408,,,330,,,,,,,,,,,wg-a,,,,AAXX 24154 07168 12566 43304 10160 20090 39977 40116 58004 60006 84800 91500=
07168,1996-09-24 18:00:00,10,1012.4,0.5,82,7,0,3.704,,,160,9.9,16.1,,,,,,,,,wg-a,,,,AAXX 24184 07168 12/// /1602 10100 20070 39982 40124 53005 60006 91800 333 10161 20099=
07168,1996-09-25 00:00:00,6,1011.9,-0.8,100,6,0,7.408,,,160,,,,,,,,,,,wg-a,,,,AAXX 25004 07168 12/// /1604 10060 20060 39975 40119 56008 60006 90000=
07168,1996-09-25 06:00:00,6,1010.1,-0.5,100,6,500,7.408,,,180,5.4,9.9,,,,,,,,,wg-a,,,,AAXX 25064 07168 12/00 71804 10060 20060 39957 40101 55005 60004 82072 90600 333 10099 20054=
07168,1996-09-25 09:00:00,13,1010.3,0.6,77,9,9000,11.112,,,140,,,,,,,,,,,wg-a,,,,AAXX 25094 07168 12/59 61406 10130 20090 39963 40103 51006 60006 84072 90900=
07168,1996-09-25 12:00:00,19,1010,-0.1,49,8,15000,11.112,,,140,,,,,,,,,,,wg-a,,,,AAXX 25124 07168 12665 51406 10190 20080 39962 40100 58001 60006 82202 91200=
07168,1996-09-25 15:00:00,18,1010.3,0.3,56,9,15000,3.704,,,190,,,,,,,,,,,wg-a,,,,AAXX 25154 07168 12665 61902 10180 20090 39965 40103 53003 60006 83230 91500=
07168,1996-09-25 18:00:00,13,1012.6,2,82,10,0,0,,,0,6,18.9,,,,,,,,,wg-a,,,,AAXX 25184 07168 12/// /0000 10130 20100 39985 40126 53020 60006 91800 333 10189 20060=
07168,1996-09-26 00:00:00,6,1016.5,1.3,93,5,0,3.704,,,130,,,,,,,,,,,wg-a,,,,AAXX 26004 07168 12/// /1302 10060 20050 30020 40165 51013 60006 90000=
07168,1996-09-26 06:00:00,5,1018.8,1.1,100,5,300,3.704,,,130,4.2,12.5,,0,,,,,,44,wg-a,,,,AAXX 26064 07168 02/03 31302 10050 20050 30042 40188 53011 60004 74440 80001 90600 333 10125 20042 60007=
07168,1996-09-26 09:00:00,15,1019.4,1.1,88,13,10000,11.112,,,180,,,,,,,,,,28,wg-a,,,,AAXX 26094 07168 12260 51806 10150 20130 30053 40194 53011 60006 72841 82601 90900=
07168,1996-09-26 12:00:00,19,1018.4,-0.8,60,11,500,14.816,,,230,,,,,,,,,,3,wg-a,,,,AAXX 26124 07168 12500 72308 10190 20110 30045 40184 56008 60006 70341 83102 91200=
07168,1996-09-27 09:00:00,16,1015,1.1,88,14,18000,22.224,,,240,,,,,,,,,,3,wg-a,,,,AAXX 27094 07168 02468 72412 10160 20140 30010 40150 51011 61000 70352 871// 90900 333 ////=
07168,1996-09-27 12:00:00,20,1014.9,0.1,64,13,25000,29.632,,,250,,,,,,,,,,1,wg-a,,,,AAXX 27124 07168 02575 /2516 10200 20130 30011 40149 53001 61000 70152 85230 91200 333 ////=
07168,1996-09-27 15:00:00,20,1014.8,-0.1,56,11,500,31.484,,,260,,,,,,,,,,,wg-a,,,,AAXX 27154 07168 12600 62617 10200 20110 30010 40148 55001 60006 86800 91500=
07168,1996-09-27 18:00:00,14,1017.4,2.3,88,12,0,3.704,,,260,13.4,20.9,,,,,,,,,wg-a,,,,AAXX 27184 07168 32/// /2602 10140 20120 30033 40174 53023 91800 333 10209 20134=
07168,1996-09-28 00:00:00,11,1022.6,2.3,94,10,0,18.52,,,280,,,,,,,,,,,wg-a,,,,AAXX 28004 07168 12/// /2810 10110 20100 30083 40226 51023 60016 90000=
07168,1996-09-28 06:00:00,8,1025.9,1.2,93,7,15000,11.112,,,150,8.1,14.4,,,,,,,,,wg-a,,,,AAXX 28064 07168 12/65 31506 10080 20070 30114 40259 52012 60004 80001 90600 333 10144 20081=
07168,1996-09-28 09:00:00,14,1027.4,1.8,82,11,18000,11.112,,,250,,,,,,,,,,,wg-a,,,,AAXX 28094 07168 12468 /2506 10140 20110 30132 40274 52018 60006 81102 90900=
07168,1996-09-28 15:00:00,17,1026.9,-0,59,9,500,11.112,,,250,,,,,,,,,,,wg-a,,,,AAXX 28154 07168 12600 52506 10170 20090 30128 40269 55000 60006 84201 91500=
07168,1996-09-28 18:00:00,11,1027,-0.2,87,9,0,14.816,,,230,8.2,18.5,,,,,,,,,wg-a,,,,AAXX 28184 07168 12/// /2308 10110 20090 30126 40270 55002 60006 91800 333 10185 20082=
07168,1996-09-29 00:00:00,7,1026.5,-0.7,100,7,0,7.408,,,180,,,,,,,,,,,wg-a,,,,AAXX 29004 07168 12/// /1804 10070 20070 30119 40265 55007 60006 90000=
07168,1996-09-29 06:00:00,11,1024.9,-0.3,87,9,20000,18.52,,,170,6.3,11,,,,,,,,,wg-a,,,,AAXX 29064 07168 02/70 71710 10110 20090 30105 40249 55003 60006 83072 90600 333 10110 20063 60004=
07168,1996-09-29 09:00:00,16,1025,0.4,63,9,20000,14.816,,,200,,,,,,,,,,,wg-a,,,,AAXX 29094 07168 12/70 52008 10160 20090 30109 40250 53004 60006 84031 90900=
07168,1996-09-29 12:00:00,21,1023.3,-1.5,49,10,20000,22.224,,,200,,,,,,,,,,,wg-a,,,,AAXX 29124 07168 12/70 32012 10210 20100 30094 40233 58015 60006 82031 91200=
07168,1996-09-29 15:00:00,22,1021.4,-1.8,46,10,500,29.632,,,220,,,,,,,,,,,wg-a,,,,AAXX 29154 07168 12/00 32216 10220 20100 30076 40214 58018 60006 83030 91500=
07168,1996-09-29 18:00:00,16,1021.3,-0.3,68,10,0,3.704,,,200,10.4,22.5,,,,,,,,,wg-a,,,,AAXX 29184 07168 12/// /2002 10160 20100 30073 40213 55003 60006 91800 333 10225 20104=
07168,1996-09-30 00:00:00,15,1020.5,-1,72,10,0,7.408,,,150,,,,,,,,,,,wg-a,,,,AAXX 30004 07168 12/// /1504 10150 20100 30064 40205 56010 60006 90000=
07168,1996-09-30 06:00:00,14,1018.8,-0.6,82,11,20000,22.224,,,180,12.9,16.9,,,,,,,,,wg-a,,,,AAXX 30064 07168 02570 71812 10140 20110 30047 40188 57006 60006 875// 90600 333 10169 20129 60004=
07168,1996-09-30 09:00:00,18,1017.6,-1,68,12,500,22.224,,,170,,,,,,,,,,,wg-a,,,,AAXX 30094 07168 12500 31712 10180 20120 30037 40176 56010 60006 83540 90900=
07168,1996-09-30 12:00:00,22,1014.1,-3.2,50,11,500,22.224,,,210,,,,,,,,,,,wg-a,,,,AAXX 30124 07168 12/00 22112 10220 20110 30005 40141 58032 60006 82041 91200=
07168,1996-09-30 15:00:00,23,1010.4,-3.7,44,10,500,14.816,,,190,,,,,,,,,,,wg-a,,,,AAXX 30154 07168 12600 /1908 10230 20100 39968 40104 58037 60006 81130 91500=
07168,1996-09-30 18:00:00,16,1008.6,-2.1,55,7,0,18.52,,,200,13.9,23.6,,,,,,,,,wg-a,,,,AAXX 30184 07168 12/// /2010 10160 20070 39947 40086 56021 60006 91800 333 10236 20139=
07168,1996-10-01 00:00:00,16,1005.2,-1.9,68,10,0,22.224,,,180,,,,,,,,,,,wg-a,,,,AAXX 01004 07168 12/// /1812 10160 20100 39914 40052 58019 60006 90000=
07168,1996-10-01 06:00:00,14,1003.1,-1.9,100,14,500,22.224,,,180,11.7,16.9,,3,,,7,,,61,wg-a,,,,AAXX 01064 07168 02400 81812 10140 20140 39892 40031 56019 60074 76162 885// 90600 333 10169 20117 60037=
07168,1996-10-01 12:00:00,11,1004.4,1.3,100,11,9000,29.632,,,320,,,,12,,,,,,61,wg-a,,,,AAXX 01124 07168 02359 83216 10110 20110 39903 40044 53013 60186 76166 886// 91200 333 60127=
07168,1996-10-01 15:00:00,10,1008.8,4.3,100,10,8000,29.632,,,300,,,,4,,,,,,61,wg-a,,,,AAXX 01154 07168 12358 83016 10100 20100 39946 40088 53043 60047 76166 885// 91500=
07168,1996-10-01 18:00:00,11,1012.5,3.7,94,10,0,22.224,,,240,10,14.9,,,,,,,,,wg-a,,,,AAXX 01184 07168 32/// /2412 10110 20100 39983 40125 51037 91800 333 10149 20100=
07168,1996-10-02 00:00:00,9,1014.4,0.1,93,8,0,18.52,,,220,,,,,,,,,,,wg-a,,,,AAXX 02004 07168 02/// /2210 10090 20080 30001 40144 50001 61000 90000 333 ////=
07168,1996-10-02 06:00:00,7,1015.2,0.8,93,6,6000,7.408,,,140,5.9,11.2,,,,,26,,,,wg-a,,,,AAXX 02064 07168 02356 41404 10070 20060 30008 40152 53008 60006 84500 90600 333 10112 20059 60264=
07168,1996-10-02 09:00:00,11,1016.5,1.5,87,9,12000,3.704,,,210,,,,,,,,,,,wg-a,,,,AAXX 02094 07168 12462 32102 10110 20090 30023 40165 51015 60006 83800 90900=
07168,1996-10-02 18:00:00,10,1022.1,2.4,87,8,0,7.408,,,310,6.7,15.4,,,,,,,,,wg-a,,,,AAXX 02184 07168 12/// /3104 10100 20080 30077 40221 53024 60006 91800 333 10154 20067=
07168,1996-10-03 00:00:00,7,1026,1.4,100,7,0,7.408,,,320,,,,,,,,,,,wg-a,,,,AAXX 03004 07168 12/// /3204 10070 20070 30114 40260 51014 60006 90000=
07168,1996-10-03 06:00:00,3,1028.1,0.7,100,3,500,7.408,,,180,1.9,9.6,,,,,,,,45,wg-a,,,,AAXX 03064 07168 12/00 91804 10030 20030 30133 40281 53007 60004 74541 89/// 90600 333 10096 20019=
07168,1996-10-03 09:00:00,7,1029.2,1.3,100,7,100,3.704,,,170,,,,,,,,,,43,wg-a,,,,AAXX 03094 07168 32/01 91702 10070 20070 30146 40292 51013 74344 89/// 90900=
07168,1996-10-03 12:00:00,14,1027.8,-1,82,11,12000,11.112,,,160,,,,,,,,,,1,wg-a,,,,AAXX 03124 07168 12462 21606 10140 20110 30136 40278 58010 60006 70141 81101 91200=
07168,1996-10-03 15:00:00,17,1026.1,-1.6,59,9,500,14.816,,,230,,,,,,,,,,,wg-a,,,,AAXX 03154 07168 12600 42308 10170 20090 30120 40261 56016 60006 82101 91500=
07168,1996-10-03 18:00:00,10,1025.6,-0.8,93,9,0,11.112,,,200,3.4,17.8,,,,,,,,,wg-a,,,,AAXX 03184 07168 32/// /2006 10100 20090 30112 40256 56008 91800 333 10178 20034=
07168,1996-10-04 00:00:00,10,1023.6,-1.9,87,8,0,14.816,,,170,,,,,,,,,,,wg-a,,,,AAXX 04004 07168 12/// /1708 10100 20080 30092 40236 57019 60006 90000=
07168,1996-10-04 06:00:00,10,1021.7,-0.9,93,9,9000,18.52,,,190,8.3,10.3,,,,,,,,,wg-a,,,,AAXX 04064 07168 02559 81910 10100 20090 30074 40217 57009 60006 885// 90600 333 10103 20083 60004=
07168,1996-10-04 09:00:00,13,1021,-0.6,94,12,8000,29.632,,,220,,,,,,,,,,50,wg-a,,,,AAXX 04094 07168 02358 72216 10130 20120 30068 40210 58006 61000 75052 875// 90900 333 ////=
07168,1996-10-04 12:00:00,12,1020.3,-0.7,94,11,1500,18.52,,,300,,,,1,,,,,,50,wg-a,,,,AAXX 04124 07168 02215 83010 10120 20110 30061 40203 58007 60016 75065 887// 91200 333 60017=
07168,1996-10-04 15:00:00,13,1018.8,-1.5,77,9,25000,7.408,,,260,,,,1,,,,,,3,wg-a,,,,AAXX 04154 07168 12475 72604 10130 20090 30046 40188 58015 60017 70352 87801 91500=
07168,1996-10-04 18:00:00,10,1018.2,-0.7,93,9,0,11.112,,,180,9.8,13.6,,,,,,,,,wg-a,,,,AAXX 04184 07168 32/// /1806 10100 20090 30039 40182 57007 91800 333 10136 20098=
07168,1996-10-05 00:00:00,8,1016.3,-1.6,93,7,0,7.408,,,120,,,,,,,,,,,wg-a,,,,AAXX 05004 07168 12/// /1204 10080 20070 30019 40163 56016 60006 90000=
07168,1996-10-05 06:00:00,9,1014.3,-0.5,93,8,10000,18.52,,,220,7.1,9.9,,,,,2,,,,wg-a,,,,AAXX 05064 07168 12460 /2210 10090 20080 30000 40143 55005 60024 86500 90600 333 10099 20071=
07168,1996-10-05 09:00:00,10,1015.7,1.4,93,9,12000,25.928,,,260,,,,0,,,,,,25,wg-a,,,,AAXX 05094 07168 12462 /2614 10100 20090 30014 40157 52014 60007 72586 86800 90900=
07168,1996-10-05 12:00:00,10,1016.4,0.7,87,8,10000,25.928,,,290,,,,,,,,,,80,wg-a,,,,AAXX 05124 07168 02560 72914 10100 20080 30021 40164 52007 60016 78086 878// 91200 333 61000=
07168,1996-10-05 15:00:00,12,1016.5,0.2,71,7,20000,14.816,,,290,,,,0,,,,,,25,wg-a,,,,AAXX 05154 07168 12570 62908 10120 20070 30023 40165 53002 60007 72586 86800 91500=
07168,1996-10-05 18:00:00,8,1018.6,1.9,93,7,0,7.408,,,300,8.2,13.6,,,,,,,,,wg-a,,,,AAXX 05184 07168 32/// /3004 10080 20070 30042 40186 53019 91800 333 10136 20082=
07168,1996-10-06 00:00:00,6,1020.7,0.4,93,5,0,11.112,,,310,,,,,,,,,,,wg-a,,,,AAXX 06004 07168 12/// /3106 10060 20050 30061 40207 53004 60006 90000=
07168,1996-10-06 06:00:00,7,1021.6,1.2,100,7,4000,14.816,,,350,4.6,8.4,,,,,1,,,,wg-a,,,,AAXX 06064 07168 12340 73508 10070 20070 30071 40216 53012 60014 876// 90600 333 10084 20046=
07168,1996-10-06 09:00:00,9,1022.9,1.3,87,7,6000,14.816,,,30,,,,,,,,,,,wg-a,,,,AAXX 06094 07168 12356 80308 10090 20070 30084 40229 51013 60006 876// 90900=
07168,1996-10-06 12:00:00,11,1022.6,-0.1,82,8,9000,14.816,,,50,,,,,,,,,,,wg-a,,,,AAXX 06124 07168 12459 50508 10110 20080 30083 40226 58001 60006 85800 91200=
07168,1996-10-06 15:00:00,14,1021.8,-0.7,63,7,18000,14.816,,,30,,,,,,,,,,,wg-a,,,,AAXX 06154 07168 12568 30308 10140 20070 30076 40218 56007 60006 83200 91500=
07168,1996-10-06 18:00:00,10,1022.7,0.7,82,7,0,7.408,,,350,7,14,,,,,,,,,wg-a,,,,AAXX 06184 07168 12/// /3504 10100 20070 30083 40227 53007 60006 91800 333 10140 20070=
07168,1996-10-07 00:00:00,5,1023.1,-0.4,100,5,0,11.112,,,310,,,,,,,,,,,wg-a,,,,AAXX 07004 07168 12/// /3106 10050 20050 30085 40231 58004 60006 90000=
07168,1996-10-07 06:00:00,3,1022.5,-0.1,100,3,3000,18.52,,,300,2.8,9.7,,0,,,,,,10,wg-a,,,,AAXX 07064 07168 02/30 03010 10030 20030 30078 40225 58001 60004 71000 80000 90600 333 10097 20028 60007=
07168,1996-10-07 09:00:00,7,1022.8,0.5,100,7,4000,11.112,,,320,,,,0,,,,,,10,wg-a,,,,AAXX 07094 07168 12340 /3206 10070 20070 30083 40228 51005 60007 71011 86500 90900=
07168,1996-10-07 12:00:00,15,1020.4,-2,67,9,10000,14.816,,,10,,,,,,,,,,,wg-a,,,,AAXX 07124 07168 12560 30108 10150 20090 30063 40204 58020 60016 83800 91200=
07168,1996-10-07 15:00:00,15,1019.5,-0.9,63,8,12000,14.816,,,10,,,,,,,,,,,wg-a,,,,AAXX 07154 07168 12662 /0108 10150 20080 30054 40195 56009 60006 86800 91500=
07168,1996-10-07 18:00:00,13,1020.1,0.5,82,10,0,11.112,,,340,3.1,15.7,,,,,,,,,wg-a,,,,AAXX 07184 07168 32/// /3406 10130 20100 30059 40201 52005 91800 333 10157 20031=
07168,1996-10-08 00:00:00,10,1020.1,-0.4,87,8,0,14.816,,,290,,,,,,,,,,,wg-a,,,,AAXX 08004 07168 12/// /2908 10100 20080 30057 40201 58004 60006 90000=
07168,1996-10-08 06:00:00,8,1020.3,0.5,93,7,6000,14.816,,,310,8.1,13.3,,,,,,,,,wg-a,,,,AAXX 08064 07168 02656 83108 10080 20070 30059 40203 50005 60006 885// 90600 333 10133 20081 60004=
07168,1996-10-08 09:00:00,10,1020.8,0.6,87,8,8000,14.816,,,320,,,,,,,,,,,wg-a,,,,AAXX 08094 07168 12758 73208 10100 20080 30065 40208 51006 60006 875// 90900=
07168,1996-10-08 12:00:00,16,1020.1,-0.5,68,10,9000,7.408,,,330,,,,,,,,,,,wg-a,,,,AAXX 08124 07168 12759 73304 10160 20100 30060 40201 58005 60006 875// 91200=
07168,1996-10-08 15:00:00,17,1019.5,-0.5,59,9,16000,14.816,,,350,,,,,,,,,,,wg-a,,,,AAXX 08154 07168 12666 73508 10170 20090 30055 40195 56005 60006 878// 91500=
07168,1996-10-08 18:00:00,13,1020.4,0.7,82,10,0,7.408,,,320,8.2,17.4,,,,,,,,,wg-a,,,,AAXX 08184 07168 12/// /3204 10130 20100 30062 40204 53007 60006 91800 333 10174 20082=
07168,1996-10-09 00:00:00,8,1020.8,-0.1,87,6,0,7.408,,,330,,,,,,,,,,,wg-a,,,,AAXX 09004 07168 12/// /3304 10080 20060 30064 40208 58001 60006 90000=
07168,1996-10-09 06:00:00,3,1021.2,0.5,100,3,4000,0,,,0,2.2,13.2,,,,,,,,10,wg-a,,,,AAXX 09064 07168 02740 /0000 10030 20030 30065 40212 52005 60006 71011 82504 90600 333 10132 20022 60004=
07168,1996-10-09 09:00:00,12,1021.4,0.7,82,9,6000,0,,,0,,,,,,,,,,,wg-a,,,,AAXX 09094 07168 12/56 /0000 10120 20090 30072 40214 50007 60006 81031 90900=
07168,1996-10-09 12:00:00,15,1020.7,-0.6,72,10,8000,7.408,,,300,,,,,,,,,,,wg-a,,,,AAXX 09124 07168 12/58 83004 10150 20100 30066 40207 58006 60006 8805/ 91200=
07168,1996-10-09 15:00:00,14,1020.5,-0.2,88,12,6000,11.112,,,290,,,,,,,,,,,wg-a,,,,AAXX 09154 07168 12456 82906 10140 20120 30064 40205 56002 60006 888// 91500=
07168,1996-10-09 18:00:00,12,1021.1,0.5,100,12,0,11.112,,,280,2.9,15.2,,,,,,,,,wg-a,,,,AAXX 09184 07168 32/// /2806 10120 20120 30069 40211 53005 91800 333 10152 20029=
07168,1996-10-10 00:00:00,12,1021.6,-0.3,100,12,0,11.112,,,310,,,,,,,,,,,wg-a,,,,AAXX 10004 07168 12/// /3106 10120 20120 30074 40216 58003 60016 90000=
07168,1996-10-10 06:00:00,8,1022.7,1,100,8,300,3.704,,,340,7.2,12.4,,0,,,2,,,44,wg-a,,,,AAXX 10064 07168 02203 73402 10080 20080 30082 40227 51010 60024 74441 875// 90600 333 10124 20072 60007=
07168,1996-10-10 09:00:00,11,1023.5,1,100,11,2000,11.112,,,290,,,,,,,,,,10,wg-a,,,,AAXX 10094 07168 12220 82906 10110 20110 30092 40235 51010 60006 71042 886// 90900=
07168,1996-10-10 12:00:00,14,1023.4,0,82,11,8000,3.704,,,30,,,,,,,,,,1,wg-a,,,,AAXX 10124 07168 12458 70302 10140 20110 30092 40234 50000 60006 70142 878// 91200=
07168,1996-10-10 15:00:00,14,1023,-0.4,88,12,10000,14.816,,,320,,,,,,,,,,,wg-a,,,,AAXX 10154 07168 12560 73208 10140 20120 30088 40230 56004 60006 878// 91500=
07168,1996-10-11 06:00:00,9,1022.3,-0,100,9,300,3.704,,,320,,,,,,,,,,44,wg-a,,,,AAXX 11064 07168 32103 83202 10090 20090 30079 40223 54000 74442 886// 90600=
07168,1996-10-11 09:00:00,10,1022.8,0.5,100,10,700,0,,,0,,,,,,,,,,42,wg-a,,,,AAXX 11094 07168 12107 80000 10100 20100 30084 40228 53005 60006 74244 886// 90900=
07168,1996-10-11 12:00:00,11,1021.5,-1.2,100,11,2000,3.704,,,180,,,,,,,,,,10,wg-a,,,,AAXX 11124 07168 12320 81802 10110 20110 30072 40215 58012 60006 71042 886// 91200=
07168,1996-10-11 15:00:00,11,1020.5,-1,94,10,2800,7.408,,,10,,,,,,,,,,10,wg-a,,,,AAXX 11154 07168 12428 80104 10110 20100 30062 40205 56010 60006 71022 886// 91500=
07168,1996-10-11 18:00:00,10,1019.9,-0.6,100,10,0,7.408,,,40,9.3,11.5,,,,,,,,,wg-a,,,,AAXX 11184 07168 12/// /0404 10100 20100 30056 40199 57006 60006 91800 333 10115 20093=
07168,1996-10-12 00:00:00,9,1018.1,-1.4,100,9,0,7.408,,,180,,,,,,,,,,,wg-a,,,,AAXX 12004 07168 12/// /1804 10090 20090 30037 40181 58014 60006 90000=
07168,1996-10-12 06:00:00,9,1016.4,-0.5,100,9,1500,11.112,,,160,7.9,10.3,,,,,,,,10,wg-a,,,,AAXX 12064 07168 02215 81606 10090 20090 30021 40164 56005 60006 71022 886// 90600 333 10103 20079 60004=
07168,1996-10-12 09:00:00,12,1016.4,0.1,88,10,4000,18.52,,,160,,,,,,,,,,10,wg-a,,,,AAXX 12094 07168 12340 41610 10120 20100 30022 40164 53001 60006 71011 84601 90900=
07168,1996-10-12 12:00:00,18,1014.4,-1.7,64,11,12000,22.224,,,180,,,,,,,,,,,wg-a,,,,AAXX 12124 07168 12/62 41812 10180 20110 30005 40144 58017 60006 80001 91200=
07168,1996-10-12 15:00:00,19,1012.2,-2.1,64,12,20000,7.408,,,190,,,,,,,,,,,wg-a,,,,AAXX 12154 07168 12/70 51904 10190 20120 39984 40122 56021 60006 80001 91500=
07168,1996-10-12 18:00:00,12,1012.5,-0,88,10,0,0,,,0,9.3,19.4,,,,,,,,,wg-a,,,,AAXX 12184 07168 12/// /0000 10120 20100 39984 40125 54000 60006 91800 333 10194 20093=
07168,1996-10-13 00:00:00,10,1012.1,-0.2,93,9,0,14.816,,,150,,,,,,,,,,,wg-a,,,,AAXX 13004 07168 12/// /1508 10100 20090 39979 40121 58002 60006 90000=
07168,1996-10-13 06:00:00,6,1011.1,-0.4,93,5,7000,11.112,,,150,5.4,11.7,,0,,,,,,,wg-a,,,,AAXX 13064 07168 02/57 21506 10060 20050 39967 40111 56004 60004 80001 90600 333 10117 20054 60007=
07168,1996-10-13 09:00:00,15,1010.5,-0.1,72,10,10000,22.224,,,160,,,,,,,,,,,wg-a,,,,AAXX 13094 07168 12/60 31612 10150 20100 39966 40105 58001 60006 80001 90900=
07168,1996-10-13 12:00:00,20,1008.7,-1.6,49,9,20000,29.632,,,170,,,,,,,,,,,wg-a,,,,AAXX 13124 07168 12/70 61716 10200 20090 39950 40087 58016 60006 80001 91200=
07168,1996-10-13 15:00:00,20,1007.1,-1.5,49,9,25000,29.632,,,180,,,,,,,,,,,wg-a,,,,AAXX 13154 07168 12875 41816 10200 20090 39935 40071 56015 60006 83081 91500=
07168,1996-10-13 18:00:00,18,1007.8,0.5,56,9,0,11.112,,,140,5.8,21.4,,,,,,,,,wg-a,,,,AAXX 13184 07168 12/// /1406 10180 20090 39940 40078 51005 60006 91800 333 10214 20058=
07168,1996-10-14 00:00:00,12,1008.2,-0.1,82,9,0,7.408,,,170,,,,,,,,,,,wg-a,,,,AAXX 14004 07168 12/// /1704 10120 20090 39941 40082 57001 60006 90000=
07168,1996-10-14 06:00:00,13,1007.8,0.5,77,9,15000,14.816,,,130,11,17.8,,,,,,,,,wg-a,,,,AAXX 14064 07168 02765 71308 10130 20090 39938 40078 52005 60006 865/2 90600 333 10178 20110 60004=
07168,1996-10-14 09:00:00,15,1008.2,0.5,67,9,12000,11.112,,,150,,,,,,,,,,,wg-a,,,,AAXX 14094 07168 12762 71506 10150 20090 39943 40082 51005 60006 8353/ 90900=
07168,1996-10-14 12:00:00,17,1007.6,-0.5,63,10,12000,7.408,,,140,,,,,,,,,,,wg-a,,,,AAXX 14124 07168 12762 81404 10170 20100 39938 40076 58005 60006 8557/ 91200=
07168,1996-10-14 15:00:00,18,1006.7,-0.9,59,10,12000,11.112,,,100,,,,,,,,,,1,wg-a,,,,AAXX 14154 07168 02762 71006 10180 20100 39929 40067 56009 61000 70162 8353/ 91500 333 ////=
07168,1996-10-14 18:00:00,15,1007.1,0.3,82,12,0,11.112,,,160,12.3,18.1,,,,,,,,,wg-a,,,,AAXX 14184 07168 32/// /1606 10150 20120 39932 40071 53003 91800 333 10181 20123=
07168,1996-10-15 00:00:00,14,1006.5,-0.1,94,13,0,11.112,,,160,,,,,,,,,,,wg-a,,,,AAXX 15004 07168 12/// /1606 10140 20130 39926 40065 58001 60026 90000=
07168,1996-10-15 06:00:00,14,1008,1.4,94,13,12000,11.112,,,250,12.7,15,,,,,2,,,3,wg-a,,,,AAXX 15064 07168 12462 82506 10140 20130 39940 40080 51014 60024 70362 875// 90600 333 10150 20127=
07168,1996-10-15 09:00:00,14,1009,1.1,94,13,15000,14.816,,,230,,,,,,,,,,,wg-a,,,,AAXX 15094 07168 12465 82308 10140 20130 39951 40090 53011 60006 8653/ 90900=
07168,1996-10-15 12:00:00,15,1009.7,0.7,88,13,20000,22.224,,,260,,,,,,,,,,,wg-a,,,,AAXX 15124 07168 12470 82612 10150 20130 39958 40097 51007 60006 878// 91200=
07168,1996-10-15 15:00:00,15,1010.2,0.4,82,12,25000,18.52,,,280,,,,0,,,,,,1,wg-a,,,,AAXX 15154 07168 12575 72810 10150 20120 39962 40102 50004 60007 70162 8583/ 91500=
07168,1996-10-15 18:00:00,11,1011.8,1.5,94,10,0,7.408,,,230,11.3,15.6,,,,,,,,,wg-a,,,,AAXX 15184 07168 32/// /2304 10110 20100 39977 40118 53015 91800 333 10156 20113=
07168,1996-10-16 00:00:00,11,1011.7,-0,87,9,0,18.52,,,290,,,,,,,,,,,wg-a,,,,AAXX 16004 07168 12/// /2910 10110 20090 39975 40117 55000 60006 90000=
07168,1996-10-16 06:00:00,10,1012,0.3,93,9,10000,11.112,,,300,9.4,11.7,,,,,,,,1,wg-a,,,,AAXX 16064 07168 12460 83006 10100 20090 39978 40120 52003 60004 70162 875// 90600 333 10117 20094=
07168,1996-10-16 09:00:00,10,1012,0,82,7,12000,18.52,,,290,,,,,,,,,,,wg-a,,,,AAXX 16094 07168 12662 72910 10100 20070 39978 40120 50000 60006 84502 90900=
07168,1996-10-16 12:00:00,13,1011.6,-0.3,67,7,18000,18.52,,,290,,,,,,,,,,,wg-a,,,,AAXX 16124 07168 12568 72910 10130 20070 39975 40116 58003 60006 82202 91200=
07168,1996-10-16 15:00:00,13,1010.7,-0.9,67,7,20000,11.112,,,280,,,,,,,,,,,wg-a,,,,AAXX 16154 07168 12570 72806 10130 20070 39966 40107 56009 60006 82102 91500=
07168,1996-10-16 18:00:00,8,1011.2,0.3,87,6,0,7.408,,,180,7.6,13.3,,,,,,,,,wg-a,,,,AAXX 16184 07168 12/// /1804 10080 20060 39969 40112 52003 60006 91800 333 10133 20076=
07168,1996-10-17 00:00:00,8,1010.1,-0.9,93,7,0,11.112,,,160,,,,,,,,,,,wg-a,,,,AAXX 17004 07168 12/// /1606 10080 20070 39958 40101 56009 60006 90000=
07168,1996-10-17 06:00:00,7,1008.6,-0.5,100,7,10000,14.816,,,150,5.8,8.7,,,,,,,,,wg-a,,,,AAXX 17064 07168 02760 61508 10070 20070 39943 40086 58005 60006 85501 90600 333 10087 20058 60004=
07168,1996-10-17 09:00:00,9,1008.9,0.4,93,8,7000,11.112,,,160,,,,3,,,,,,61,wg-a,,,,AAXX 17094 07168 12257 71606 10090 20080 39947 40089 53004 60037 76162 875// 90900=
07168,1996-10-17 12:00:00,10,1009.4,0.5,93,9,25000,11.112,,,210,,,,3,,,,,,21,wg-a,,,,AAXX 17124 07168 02475 72106 10100 20090 39952 40094 51005 60056 72162 878// 91200 333 60037=
07168,1996-10-17 15:00:00,11,1010,0.6,87,9,25000,18.52,,,270,,,,1,,,,,,2,wg-a,,,,AAXX 17154 07168 12475 72710 10110 20090 39958 40100 53006 60017 70286 878// 91500=
07168,1996-10-17 18:00:00,9,1011.8,1.7,87,7,0,14.816,,,270,7.4,11.2,,,,,,,,,wg-a,,,,AAXX 17184 07168 32/// /2708 10090 20070 39975 40118 53017 91800 333 10112 20074=
07168,1996-10-18 00:00:00,8,1013.8,0.6,93,7,0,3.704,,,170,,,,,,,,,,,wg-a,,,,AAXX 18004 07168 12/// /1702 10080 20070 39994 40138 51006 60036 90000=
07168,1996-10-18 06:00:00,3,1014.6,0.1,100,3,10000,7.408,,,160,3.1,8.6,,,,,10,,,11,wg-a,,,,AAXX 18064 07168 12760 /1604 10030 20030 30000 40146 53001 60104 71186 81500 90600 333 10086 20031=
07168,1996-10-18 09:00:00,10,1015.2,0.9,87,8,25000,14.816,,,150,,,,,,,,,,,wg-a,,,,AAXX 18094 07168 12775 11508 10100 20080 30009 40152 50009 60006 81500 90900=
07168,1996-10-18 12:00:00,14,1013.9,-1,63,7,500,25.928,,,190,,,,,,,,,,,wg-a,,,,AAXX 18124 07168 12400 21914 10140 20070 39999 40139 58010 60006 81130 91200=
07168,1996-10-18 15:00:00,14,1012.5,-1.5,63,7,500,14.816,,,190,,,,,,,,,,,wg-a,,,,AAXX 18154 07168 12/00 61908 10140 20070 39984 40125 56015 60006 86050 91500=
07168,1996-10-18 18:00:00,11,1012.9,0.3,87,9,0,25.928,,,200,3,15,,,,,,,,,wg-a,,,,AAXX 18184 07168 12/// /2014 10110 20090 39987 40129 53003 60006 91800 333 10150 20030=
07168,1996-10-19 00:00:00,12,1014.1,0.4,94,11,0,25.928,,,230,,,,,,,,,,,wg-a,,,,AAXX 19004 07168 12/// /2314 10120 20110 30000 40141 53004 60006 90000=
07168,1996-10-19 06:00:00,11,1016.9,1.9,94,10,12000,25.928,,,250,10.3,12.6,,,,,1,,,,wg-a,,,,AAXX 19064 07168 12462 /2514 10110 20100 30027 40169 53019 60014 85800 90600 333 10126 20103=
07168,1996-10-19 09:00:00,13,1020.1,3.2,88,11,14000,31.484,,,280,,,,,,,,,,,wg-a,,,,AAXX 19094 07168 12464 72817 10130 20110 30059 40201 53032 60006 871// 90900=
07168,1996-10-19 12:00:00,15,1022.4,2.4,72,10,500,25.928,,,280,,,,,,,,,,,wg-a,,,,AAXX 19124 07168 12500 /2814 10150 20100 30083 40224 51024 60006 85200 91200=
07168,1996-10-19 15:00:00,15,1023.8,1.4,72,10,500,11.112,,,280,,,,,,,,,,,wg-a,,,,AAXX 19154 07168 12600 72806 10150 20100 30097 40238 51014 60006 87800 91500=
07168,1996-10-19 18:00:00,11,1026.2,2.1,82,8,0,14.816,,,240,10.9,16,,,,,,,,,wg-a,,,,AAXX 19184 07168 12/// /2408 10110 20080 30118 40262 53021 60006 91800 333 10160 20109=
07168,1996-10-20 12:00:00,16,1025.1,-0.9,68,10,500,25.928,,,230,,,,,,,,,,,wg-a,,,,AAXX 20124 07168 12/00 62314 10160 20100 30110 40251 58009 60006 80002 91200=
07168,1996-10-20 15:00:00,15,1023.8,-1.3,77,11,500,14.816,,,200,,,,,,,,,,,wg-a,,,,AAXX 20154 07168 12/00 72008 10150 20110 30097 40238 58013 60006 81032 91500=
07168,1996-10-20 18:00:00,14,1023.3,-0.6,88,12,0,18.52,,,180,11,17.4,,,,,,,,,wg-a,,,,AAXX 20184 07168 12/// /1810 10140 20120 30091 40233 56006 60006 91800 333 10174 20110=
07168,1996-10-21 06:00:00,15,1019.5,0.3,100,15,3000,18.52,,,260,12.7,15,,,,,,,,10,wg-a,,,,AAXX 21064 07168 12330 82610 10150 20150 30054 40195 50003 60004 71022 885// 90600 333 10150 20127=
07168,1996-10-21 09:00:00,16,1020.2,0.8,94,15,6000,22.224,,,260,,,,0,,,,,,51,wg-a,,,,AAXX 21094 07168 12356 72612 10160 20150 30062 40202 50008 60007 75152 875// 90900=
07168,1996-10-21 12:00:00,19,1021.2,1.1,78,15,25000,31.484,,,310,,,,4,,,,,,1,wg-a,,,,AAXX 21124 07168 02475 43117 10190 20150 30073 40212 51011 60046 70165 84100 91200 333 60047=
07168,1996-10-21 15:00:00,16,1022.4,1.1,72,11,25000,18.52,,,320,,,,,,,,,,,wg-a,,,,AAXX 21154 07168 12475 53210 10160 20110 30084 40224 53011 60006 85800 91500=
07168,1996-10-21 18:00:00,12,1024.5,1.8,88,10,0,3.704,,,340,11.3,19.1,,,,,,,,,wg-a,,,,AAXX 21184 07168 32/// /3402 10120 20100 30102 40245 53018 91800 333 10191 20113=
07168,1996-10-22 00:00:00,6,1026.1,0.1,100,6,0,0,,,0,,,,,,,,,,,wg-a,,,,AAXX 22004 07168 12/// /0000 10060 20060 30115 40261 52001 60006 90000=
07168,1996-10-22 06:00:00,4,1026.7,0.7,100,4,300,0,,,0,3.5,11.7,,,,,4,,,44,wg-a,,,,AAXX 22064 07168 02203 /0000 10040 20040 30120 40267 53007 60006 74441 83630 90600 333 10117 20035 60044=
07168,1996-10-22 09:00:00,7,1027.2,0.6,100,7,300,3.704,,,150,,,,,,,,,,44,wg-a,,,,AAXX 22094 07168 12203 71502 10070 20070 30126 40272 50006 60006 74444 876// 90900=
07168,1996-10-22 12:00:00,11,1026,-0.9,100,11,4000,7.408,,,50,,,,,,,,,,10,wg-a,,,,AAXX 22124 07168 12340 50504 10110 20110 30117 40260 58009 60006 71042 82601 91200=
07168,1996-10-22 15:00:00,16,1024.6,-1.2,59,8,15000,7.408,,,50,,,,,,,,,,,wg-a,,,,AAXX 22154 07168 12/65 40504 10160 20080 30105 40246 56012 60006 80001 91500=
07168,1996-10-22 18:00:00,10,1025.1,0.2,87,8,0,3.704,,,330,4.2,15.9,,,,,,,,,wg-a,,,,AAXX 22184 07168 12/// /3302 10100 20080 30107 40251 53002 60006 91800 333 10159 20042=
07168,1996-10-23 00:00:00,6,1024.4,-0.4,93,5,0,0,,,0,,,,,,,,,,,wg-a,,,,AAXX 23004 07168 12/// /0000 10060 20050 30098 40244 58004 60006 90000=
07168,1996-10-23 15:00:00,18,1021,-0.9,56,9,20000,11.112,,,70,,,,,,,,,,,wg-a,,,,AAXX 23154 07168 12/70 40706 10180 20090 30070 40210 56009 60006 80001 91500=
07168,1996-10-23 18:00:00,12,1021.4,0.2,82,9,0,14.816,,,90,3.4,17.7,,,,,,,,,wg-a,,,,AAXX 23184 07168 12/// /0908 10120 20090 30072 40214 53002 60006 91800 333 10177 20034=
07168,1996-10-24 00:00:00,7,1021,-0.4,93,6,0,7.408,,,110,,,,,,,,,,,wg-a,,,,AAXX 24004 07168 12/// /1104 10070 20060 30065 40210 58004 60006 90000=
07168,1996-10-24 06:00:00,4,1021.1,0.4,100,4,6000,7.408,,,160,2.8,12.4,,0,,,,,,,wg-a,,,,AAXX 24064 07168 02/56 21604 10040 20040 30064 40211 51004 60004 80001 90600 333 10124 20028 60007=
07168,1996-10-24 09:00:00,11,1021.2,0.5,87,9,6000,7.408,,,160,,,,,,,,,,,wg-a,,,,AAXX 24094 07168 12/56 41604 10110 20090 30069 40212 50005 60006 80001 90900=
07168,1996-10-24 12:00:00,17,1019.5,-1.4,68,11,10000,11.112,,,150,,,,,,,,,,,wg-a,,,,AAXX 24124 07168 12/60 51506 10170 20110 30055 40195 58014 60006 80001 91200=
07168,1996-10-24 15:00:00,19,1018.3,-1,68,13,15000,3.704,,,120,,,,,,,,,,,wg-a,,,,AAXX 24154 07168 12/65 51202 10190 20130 30045 40183 56010 60006 80002 91500=
07168,1996-10-24 18:00:00,11,1019,0.2,87,9,0,0,,,0,3.7,19.5,,,,,,,,,wg-a,,,,AAXX 24184 07168 12/// /0000 10110 20090 30047 40190 53002 60006 91800 333 10195 20037=
07168,1996-10-25 00:00:00,8,1019.1,-0.2,100,8,0,7.408,,,170,,,,,,,,,,,wg-a,,,,AAXX 25004 07168 12/// /1704 10080 20080 30047 40191 58002 60006 90000=
07168,1996-10-25 06:00:00,7,1019.8,0.4,100,7,500,7.408,,,160,6.7,10.6,,,,,,,,,wg-a,,,,AAXX 25064 07168 02/00 /1604 10070 20070 30053 40198 53004 60006 86030 90600 333 10106 20067 60004=
07168,1996-10-25 09:00:00,15,1020.5,1.1,82,12,9000,3.704,,,160,,,,,,,,,,,wg-a,,,,AAXX 25094 07168 12/59 71602 10150 20120 30064 40205 51011 60006 8707/ 90900=
07168,1996-10-26 15:00:00,14,1025.7,-0.6,94,13,11000,11.112,,,240,,,,,,,,,,,wg-a,,,,AAXX 26154 07168 32/61 /2406 10140 20130 30115 40257 56006 91500=
07168,1996-10-26 18:00:00,11,1026.2,0.4,100,11,0,14.816,,,190,7.4,15.1,,,,,,,,,wg-a,,,,AAXX 26184 07168 32/// /1908 10110 20110 30119 40262 53004 91800 333 10151 20074=
07168,1996-10-27 00:00:00,9,1026.5,-0.2,93,8,0,11.112,,,180,,,,,,,,,,,wg-a,,,,AAXX 27004 07168 12/// /1806 10090 20080 30120 40265 55002 60006 90000=
07168,1996-10-27 06:00:00,9,1024.6,-0.6,100,9,2500,22.224,,,180,5.6,11.5,,,,,,,,10,wg-a,,,,AAXX 27064 07168 12125 71812 10090 20090 30102 40246 58006 60004 71022 876// 90600 333 10115 20056=
07168,1996-10-27 09:00:00,13,1023.6,-0.8,88,11,14000,18.52,,,180,,,,,,,,,,,wg-a,,,,AAXX 27094 07168 12464 71810 10130 20110 30094 40236 58008 60006 8663/ 90900=
07168,1996-10-27 12:00:00,15,1022,-1.5,82,12,16000,22.224,,,200,,,,,,,,,,,wg-a,,,,AAXX 27124 07168 12466 72012 10150 20120 30079 40220 58015 60006 8217/ 91200=
07168,1996-10-27 15:00:00,15,1019.7,-2.2,82,12,20000,22.224,,,200,,,,,,,,,,,wg-a,,,,AAXX 27154 07168 12/70 82012 10150 20120 30057 40197 56022 60006 85037 91500=
07168,1996-10-27 18:00:00,14,1020,0.2,82,11,0,11.112,,,190,9.1,15.6,,,,,,,,,wg-a,,,,AAXX 27184 07168 12/// /1906 10140 20110 30059 40200 53002 60006 91800 333 10156 20091=
07168,1996-10-28 00:00:00,13,1017.9,-0.9,88,11,0,7.408,,,180,,,,,,,,,,,wg-a,,,,AAXX 28004 07168 12/// /1804 10130 20110 30038 40179 58009 60006 90000=
07168,1996-10-28 06:00:00,10,1015.1,-1.6,93,9,9000,22.224,,,200,8.7,13.7,,,,,,,,,wg-a,,,,AAXX 28064 07168 02/59 32012 10100 20090 30009 40151 57016 60006 83030 90600 333 10137 20087 60004=
07168,1996-10-28 09:00:00,13,1014.1,-0.9,82,10,20000,29.632,,,200,,,,,,,,,,,wg-a,,,,AAXX 28094 07168 12/70 72016 10130 20100 30000 40141 58009 60006 8707/ 90900=
07168,1996-10-28 12:00:00,14,1012.7,-1.3,88,12,4000,31.484,,,210,,,,,,,,,,50,wg-a,,,,AAXX 28124 07168 02440 82117 10140 20120 39987 40127 56013 61000 75051 877// 91200 333 6100=
07168,1996-10-28 15:00:00,15,1010.9,-1.8,88,13,10000,25.928,,,200,,,,,,,,,,2,wg-a,,,,AAXX 28154 07168 02460 82014 10150 20130 39969 40109 56018 61000 70252 877// 91500 333 ////=
07168,1996-10-29 00:00:00,13,1007.6,-1.2,77,9,0,38.892,,,230,,,,,,,,,,,wg-a,,,,AAXX 29004 07168 12/// /2321 10130 20090 39936 40076 58012 60006 90000=
07168,1996-10-29 06:00:00,12,1006.9,0.7,76,8,15000,46.3,,64.82,240,12.3,15.4,,,,,,,,,wg-a,,,,AAXX 29064 07168 02465 /2425 10120 20080 39929 40069 51007 60006 82800 90600 333 10154 20123 60004 91035=
07168,1996-10-29 09:00:00,11,1009.2,2.2,87,9,7000,38.892,,,240,,,,1,,,,,,61,wg-a,,,,AAXX 29094 07168 12457 82421 10110 20090 39951 40092 51022 60017 76162 888// 90900=
07168,1996-10-29 12:00:00,11,1012.2,2.9,94,10,6000,35.188,,,260,,,,2,,,,,,21,wg-a,,,,AAXX 29124 07168 02356 82619 10110 20100 39980 40122 51029 60036 72162 885// 91200 333 60027=
07168,1996-10-29 15:00:00,10,1016.5,4.2,93,9,7000,25.928,,,320,,,,1,,,,,,61,wg-a,,,,AAXX 29154 07168 12357 83214 10100 20090 30022 40165 53042 60017 76166 885// 91500=
07168,1996-10-29 18:00:00,7,1020.7,4,93,6,0,18.52,,,310,6.8,12.7,,,,,,,,,wg-a,,,,AAXX 29184 07168 32/// /3110 10070 20060 30062 40207 53040 91800 333 10127 20068=
07168,1996-10-30 00:00:00,5,1025.8,2.4,93,4,0,11.112,,,260,,,,,,,,,,,wg-a,,,,AAXX 30004 07168 12/// /2606 10050 20040 30111 40258 52024 60006 90000=
07168,1996-10-30 06:00:00,6,1027.9,0.9,93,5,12000,3.704,,,10,4.3,7.3,,,,,4,,,,wg-a,,,,AAXX 30064 07168 02662 70102 10060 20050 30132 40279 53009 60006 875// 90600 333 10073 20043 60044=
07168,1996-10-30 09:00:00,8,1029.8,2,87,6,16000,0,,,0,,,,,,,,,,,wg-a,,,,AAXX 30094 07168 12666 70000 10080 20060 30152 40298 51020 60006 875// 90900=
07168,1996-10-30 15:00:00,11,1030.1,-0.4,71,6,16000,3.704,,,220,,,,,,,,,,,wg-a,,,,AAXX 30154 07168 12566 72202 10110 20060 30157 40301 58004 60006 878// 91500=
07168,1996-10-30 18:00:00,9,1031,0.7,87,7,0,11.112,,,190,5.6,10.8,,,,,,,,,wg-a,,,,AAXX 30184 07168 12/// /1906 10090 20070 30164 40310 51007 60006 91800 333 10108 20056=
07168,1996-10-31 00:00:00,7,1029.6,-0.6,87,5,0,3.704,,,120,,,,,,,,,,,wg-a,,,,AAXX 31004 07168 12/// /1202 10070 20050 30150 40296 58006 60006 90000=
07168,1996-10-31 06:00:00,2,1028,-1,100,2,4000,7.408,,,150,2.2,8.8,,,,,,,,10,wg-a,,,,AAXX 31064 07168 02740 31504 10020 20020 30131 40280 56010 60006 71011 81501 90600 333 10088 20022 60004=
07168,1996-10-31 09:00:00,8,1027.2,-0.5,87,6,15000,7.408,,,140,,,,0,,,,,,2,wg-a,,,,AAXX 31094 07168 12/65 51404 10080 20060 30126 40272 58005 60007 70241 80002 90900=
07168,1996-10-31 12:00:00,10,1024.9,-2.1,76,6,20000,22.224,,,210,,,,,,,,,,3,wg-a,,,,AAXX 31124 07168 12470 /2112 10100 20060 30105 40249 58021 60006 70341 82130 91200=
07168,1996-10-31 15:00:00,11,1022.9,-2,66,5,18000,18.52,,,210,,,,,,,,,,61,wg-a,,,,AAXX 31154 07168 02568 82110 10110 20050 30085 40229 57020 61000 76162 8653/ 91500 333 ////=
07168,1996-10-31 18:00:00,9,1022,-0.9,87,7,0,29.632,,,200,0.7,11.2,,,,,,,,,wg-a,,,,AAXX 31184 07168 32/// /2016 10090 20070 30076 40220 58009 91800 333 10112 20007=
07168,1996-11-01 00:00:00,12,1020.6,-0.3,94,11,0,29.632,,,220,,,,,,,,,,,wg-a,,,,AAXX 01004 07168 12/// /2216 10120 20110 30064 40206 56003 60006 90000=
07168,1996-11-01 06:00:00,13,1024.2,2.6,88,11,8000,31.484,,,270,9.1,12.8,,0,,,2,,,2,wg-a,,,,AAXX 01064 07168 02358 82717 10130 20110 30099 40242 53026 60024 70252 885// 90600 333 10128 20091 60007=
07168,1996-11-01 09:00:00,13,1026.7,2.6,88,11,20000,25.928,,,250,,,,,,,,,,,wg-a,,,,AAXX 01094 07168 12470 82514 10130 20110 30125 40267 53026 60006 885// 90900=
07168,1996-11-01 12:00:00,15,1028.1,1.4,77,11,25000,29.632,,,280,,,,,,,,,,,wg-a,,,,AAXX 01124 07168 12575 72816 10150 20110 30139 40281 51014 60006 878// 91200=
07168,1996-11-01 15:00:00,14,1028.5,0.4,82,11,25000,18.52,,,260,,,,,,,,,,,wg-a,,,,AAXX 01154 07168 12475 72610 10140 20110 30143 40285 53004 60006 878// 91500=
07168,1996-11-01 18:00:00,13,1029.7,1.1,88,11,0,14.816,,,240,12.2,15.6,,,,,,,,,wg-a,,,,AAXX 01184 07168 12/// /2408 10130 20110 30154 40297 53011 60006 91800 333 10156 20122=
07168,1996-11-02 00:00:00,12,1030.6,-0.2,100,12,0,14.816,,,220,,,,,,,,,,,wg-a,,,,AAXX 02004 07168 12/// /2208 10120 20120 30163 40306 58002 60006 90000=
07168,1996-11-02 06:00:00,12,1030.2,0.1,100,12,8000,14.816,,,230,12.2,13.1,,,,,,,,,wg-a,,,,AAXX 02064 07168 02358 82308 10120 20120 30159 40302 53001 60006 885// 90600 333 10131 20122 60004=
07168,1996-11-02 09:00:00,13,1030.8,0.6,94,12,15000,14.816,,,220,,,,,,,,,,,wg-a,,,,AAXX 02094 07168 12465 72208 10130 20120 30165 40308 51006 60006 878// 90900=
07168,1996-11-02 12:00:00,14,1030.6,-0.2,77,10,20000,14.816,,,230,,,,,,,,,,,wg-a,,,,AAXX 02124 07168 12470 82308 10140 20100 30163 40306 58002 60006 888// 91200=
07168,1996-11-02 15:00:00,14,1029.9,-0.7,77,10,20000,11.112,,,250,,,,,,,,,,,wg-a,,,,AAXX 02154 07168 12470 82506 10140 20100 30156 40299 56007 60006 888// 91500=
07168,1996-11-02 18:00:00,13,1030.2,0.3,82,10,0,11.112,,,200,12.3,14.2,,,,,,,,,wg-a,,,,AAXX 02184 07168 12/// /2006 10130 20100 30159 40302 53003 60006 91800 333 10142 20123=
07168,1996-11-03 00:00:00,12,1029.2,-0.8,88,10,0,7.408,,,230,,,,,,,,,,,wg-a,,,,AAXX 03004 07168 12/// /2304 10120 20100 30148 40292 58008 60006 90000=
07168,1996-11-03 06:00:00,11,1026.8,-0.8,87,9,12000,11.112,,,220,10.7,12.5,,,,,,,,,wg-a,,,,AAXX 03064 07168 02562 72206 10110 20090 30124 40268 56008 60006 875// 90600 333 10125 20107 60004=
07168,1996-11-03 09:00:00,12,1027,0.3,82,9,20000,14.816,,,200,,,,,,,,,,,wg-a,,,,AAXX 03094 07168 12570 72008 10120 20090 30127 40270 50003 60006 875// 90900=
07168,1996-11-03 12:00:00,13,1026.3,-0.7,77,9,25000,22.224,,,240,,,,,,,,,,,wg-a,,,,AAXX 03124 07168 12575 72412 10130 20090 30120 40263 56007 60006 875// 91200=
07168,1996-11-03 15:00:00,12,1025.2,-1.1,82,9,25000,14.816,,,200,,,,,,,,,,,wg-a,,,,AAXX 03154 07168 12575 82008 10120 20090 30109 40252 56011 60006 875// 91500=
07168,1996-11-03 18:00:00,12,1024.5,-0.7,88,10,0,18.52,,,200,10.7,13.2,,,,,,,,,wg-a,,,,AAXX 03184 07168 12/// /2010 10120 20100 30102 40245 55007 60006 91800 333 10132 20107=
07168,1996-11-04 00:00:00,12,1022.3,-1.4,88,10,0,18.52,,,160,,,,,,,,,,,wg-a,,,,AAXX 04004 07168 12/// /1610 10120 20100 30080 40223 56014 60006 90000=
07168,1996-11-04 06:00:00,11,1017.6,-1.7,82,8,15000,14.816,,,170,10.8,11.9,,,,,,,,,wg-a,,,,AAXX 04064 07168 02465 81708 10110 20080 30033 40176 58017 60006 885// 90600 333 10119 20108 60004=
07168,1996-11-04 09:00:00,10,1015.9,-1.7,87,8,12000,22.224,,,200,,,,,,,,,,,wg-a,,,,AAXX 04094 07168 12462 72012 10100 20080 30016 40159 58017 60006 86502 90900=
07168,1996-11-04 12:00:00,12,1012.8,-2.9,76,8,25000,22.224,,,180,,,,,,,,,,,wg-a,,,,AAXX 04124 07168 12475 71812 10120 20080 39987 40128 56029 60006 81502 91200=
07168,1996-11-04 15:00:00,13,1010,-2.7,82,10,25000,29.632,,,190,,,,,,,,,,,wg-a,,,,AAXX 04154 07168 12475 81916 10130 20100 39960 40100 56027 60006 8657/ 91500=
07168,1996-11-04 18:00:00,14,1007.7,-2.2,82,11,0,31.484,,,200,10.1,14.4,,,,,,,,,wg-a,,,,AAXX 04184 07168 12/// /2017 10140 20110 39938 40077 56022 60006 91800 333 10144 20101=
07168,1996-11-05 00:00:00,12,1007.1,-0,94,11,0,22.224,,,220,,,,5,,,,,,,wg-a,,,,AAXX 05004 07168 02/// /2212 10120 20110 39931 40071 55000 60116 90000 333 60057=
07168,1996-11-05 06:00:00,10,1009.8,1.9,82,7,20000,29.632,,,250,9.5,14.4,,,,,11,,,,wg-a,,,,AAXX 05064 07168 12670 22516 10100 20070 39956 40098 53019 60114 82500 90600 333 10144 20095=
07168,1996-11-05 09:00:00,11,1013.6,3.8,82,8,18000,31.484,,,250,,,,,,,,,,25,wg-a,,,,AAXX 05094 07168 02468 /2517 10110 20080 39994 40136 51038 61000 72586 86800 90900 333 ////=
07168,1996-11-05 12:00:00,12,1016.1,2.5,76,8,20000,29.632,,,260,,,,,,,,,,3,wg-a,,,,AAXX 05124 07168 02570 72616 10120 20080 30019 40161 51025 61000 70386 872// 91200 333 ////=
07168,1996-11-05 15:00:00,11,1018.2,2,82,8,20000,18.52,,,250,,,,2,,,,,,25,wg-a,,,,AAXX 05154 07168 12570 42510 10110 20080 30039 40182 51020 60027 72586 84801 91500=
07168,1996-11-05 18:00:00,8,1021.4,3,87,6,0,14.816,,,240,7.5,13.2,,,,,,,,,wg-a,,,,AAXX 05184 07168 32/// /2408 10080 20060 30069 40214 53030 91800 333 10132 20075=
07168,1996-11-06 00:00:00,5,1022.2,-0.4,93,4,0,14.816,,,210,,,,,,,,,,,wg-a,,,,AAXX 06004 07168 12/// /2108 10050 20040 30075 40222 58004 60006 90000=
07168,1996-11-06 06:00:00,8,1019.2,-1.6,87,6,15000,38.892,,,210,3.2,8.1,,,,,2,,,,wg-a,,,,AAXX 06064 07168 12565 /2121 10080 20060 30047 40192 58016 60024 86500 90600 333 10081 20032=
07168,1996-11-06 09:00:00,10,1018,-1,87,8,12000,38.892,,,200,,,,,,,,,,,wg-a,,,,AAXX 06094 07168 12462 82021 10100 20080 30037 40180 56010 60006 885// 90900=
07168,1996-11-06 12:00:00,12,1016.2,-1.7,88,10,12000,38.892,,,210,,,,,,,,,,,wg-a,,,,AAXX 06124 07168 12462 82121 10120 20100 30020 40162 58017 60006 885// 91200=
07168,1996-11-06 15:00:00,13,1014.9,-1.2,94,12,500,35.188,,,210,,,,0,,,,,,51,wg-a,,,,AAXX 06154 07168 12300 82119 10130 20120 30008 40149 57012 60007 75165 887// 91500=
07168,1996-11-06 18:00:00,14,1015.4,0.5,94,13,0,31.484,,,220,7.2,13.9,,1,,,,,,,wg-a,,,,AAXX 06184 07168 12/// /2217 10140 20130 30013 40154 53005 60017 91800 333 10139 20072=
07168,1996-11-07 00:00:00,12,1015.2,0.7,94,11,0,29.632,,,230,,,,,,,,,,,wg-a,,,,AAXX 07004 07168 12/// /2316 10120 20110 30011 40152 51007 60056 90000=
07168,1996-11-07 06:00:00,11,1012,-2.2,100,11,500,14.816,,,200,10.6,13.9,,6,,,12,,,61,wg-a,,,,AAXX 07064 07168 02200 82008 10110 20110 39979 40120 56022 60124 76162 885// 90600 333 10139 20106 60067=
07168,1996-11-07 09:00:00,12,1011.3,-0.7,94,11,10000,25.928,,,240,,,,6,,,,,,61,wg-a,,,,AAXX 07094 07168 12360 82414 10120 20110 39972 40113 56007 60067 76166 885// 90900=
07168,1996-11-07 12:00:00,13,1013.3,2,88,11,500,31.484,,,260,,,,5,,,,,,3,wg-a,,,,AAXX 07124 07168 02400 72617 10130 20110 39992 40133 51020 60106 70362 86130 91200 333 60057=
07168,1996-11-07 15:00:00,12,1014.7,1.4,82,9,500,35.188,,,250,,,,,,,,,,,wg-a,,,,AAXX 07154 07168 12400 42519 10120 20090 30006 40147 51014 60006 84800 91500=
07168,1996-11-07 18:00:00,10,1018.3,3.4,82,7,0,22.224,,,250,10.3,13.8,,,,,,,,,wg-a,,,,AAXX 07184 07168 32/// /2512 10100 20070 30040 40183 53034 91800 333 10138 20103=
07168,1996-11-08 00:00:00,8,1022.6,1.9,87,6,0,25.928,,,240,,,,,,,,,,,wg-a,,,,AAXX 08004 07168 12/// /2414 10080 20060 30081 40226 51019 60006 90000=
07168,1996-11-08 06:00:00,6,1025.4,1.3,93,5,10000,22.224,,,240,6.1,10.3,,,,,10,,,,wg-a,,,,AAXX 08064 07168 02560 /2412 10060 20050 30108 40254 52013 60006 81500 90600 333 10103 20061 60104=
07168,1996-11-08 09:00:00,8,1027.6,2.3,87,6,10000,18.52,,,240,,,,,,,,,,,wg-a,,,,AAXX 08094 07168 12460 22410 10080 20060 30131 40276 53023 60006 82100 90900=
07168,1996-11-08 12:00:00,11,1027.9,0.4,76,7,12000,14.816,,,220,,,,,,,,,,,wg-a,,,,AAXX 08124 07168 12462 42208 10110 20070 30135 40279 50004 60006 84200 91200=
07168,1996-11-08 15:00:00,12,1027.8,-0.1,67,6,15000,18.52,,,250,,,,,,,,,,,wg-a,,,,AAXX 08154 07168 12565 32510 10120 20060 30134 40278 55001 60006 83800 91500=
07168,1996-11-08 18:00:00,6,1028.7,0.6,87,4,0,14.816,,,210,4.8,12.7,,,,,,,,,wg-a,,,,AAXX 08184 07168 12/// /2108 10060 20040 30140 40287 53006 60006 91800 333 10127 20048=
07168,1996-11-09 06:00:00,4,1030.4,-0,100,4,10000,11.112,,,160,3.5,7.3,,,,,,,,,wg-a,,,,AAXX 09064 07168 02460 41606 10040 20040 30156 40304 55000 60006 8/500 90600 333 10073 20035 60004=
07168,1996-11-09 09:00:00,8,1030.9,0.7,87,6,10000,18.52,,,190,,,,,,,,,,,wg-a,,,,AAXX 09094 07168 12460 21910 10080 20060 30163 40309 51007 60006 81501 90900=
07168,1996-11-09 12:00:00,11,1029.6,-1.1,82,8,10000,22.224,,,220,,,,,,,,,,,wg-a,,,,AAXX 09124 07168 12460 32212 10110 20080 30152 40296 58011 60006 83101 91200=
07168,1996-11-09 15:00:00,11,1028.2,-1.4,82,8,15000,14.816,,,220,,,,,,,,,,,wg-a,,,,AAXX 09154 07168 12565 62208 10110 20080 30138 40282 56014 60006 84230 91500=
07168,1996-11-09 18:00:00,7,1027.9,-0.5,93,6,0,14.816,,,170,3.3,12.6,,,,,,,,,wg-a,,,,AAXX 09184 07168 12/// /1708 10070 20060 30133 40279 57005 60006 91800 333 10126 20033=
07168,1996-11-10 00:00:00,4,1024.3,-2.4,93,3,0,7.408,,,170,,,,,,,,,,,wg-a,,,,AAXX 10004 07168 12/// /1704 10040 20030 30096 40243 58024 60006 90000=
07168,1996-11-10 06:00:00,4,1018,-3,100,4,6000,7.408,,,160,2.5,6.6,,,,,,,,,wg-a,,,,AAXX 10064 07168 02/56 71604 10040 20040 30034 40180 57030 60006 84032 90600 333 10066 20025 60004=
07168,1996-11-10 09:00:00,6,1015.6,-2.3,93,5,15000,18.52,,,160,,,,,,,,,,,wg-a,,,,AAXX 10094 07168 12/65 71610 10060 20050 30011 40156 56023 60006 84032 90900=
07168,1996-11-10 12:00:00,9,1012.4,-3,81,6,15000,22.224,,,190,,,,,,,,,,,wg-a,,,,AAXX 10124 07168 12/65 81912 10090 20060 39981 40124 58030 60006 85032 91200=
07168,1996-11-10 15:00:00,10,1009.6,-2.7,82,7,20000,18.52,,,180,,,,,,,,,,,wg-a,,,,AAXX 10154 07168 12670 71810 10100 20070 39954 40096 56027 60006 8257/ 91500=
07168,1996-11-10 18:00:00,9,1008.3,-1.3,87,7,0,11.112,,,170,2.6,9.9,,,,,,,,,wg-a,,,,AAXX 10184 07168 12/// /1706 10090 20070 39941 40083 56013 60006 91800 333 10099 20026=
07168,1996-11-11 00:00:00,8,1005,-2.2,100,8,0,7.408,,,120,,,,,,,,,,,wg-a,,,,AAXX 11004 07168 12/// /1204 10080 20080 39908 40050 58022 60016 90000=
07168,1996-11-11 06:00:00,8,997.2,-3.8,100,8,3000,11.112,,,300,7.8,8.9,,,,,,,,61,wg-a,,,,AAXX 11064 07168 02230 83006 10080 20080 39831 49972 56038 61000 76162 877// 90600 333 10089 20078 6003=
07168,1996-11-11 09:00:00,9,994.6,-2.5,100,9,8000,7.408,,,270,,,,1,,,,,,61,wg-a,,,,AAXX 11094 07168 12258 82704 10090 20090 39806 49946 55025 60017 76162 875// 90900=
07168,1996-11-11 12:00:00,12,994.3,-0.2,88,10,500,18.52,,,160,,,,4,,,,,,3,wg-a,,,,AAXX 11124 07168 02400 71610 10120 20100 39804 49943 58002 60056 70362 878// 91200 333 60047=
07168,1996-11-11 15:00:00,11,992.2,-2.1,94,10,500,11.112,,,100,,,,,,,,,,21,wg-a,,,,AAXX 11154 07168 02400 81006 10110 20100 39783 49922 58021 61000 72162 878// 91500 333 ////=
07168,1996-11-11 18:00:00,9,993.4,1.1,100,9,0,7.408,,,330,8.3,12.2,,,,,,,,,wg-a,,,,AAXX 11184 07168 32/// /3304 10090 20090 39794 49934 53011 91800 333 10122 20083=
07168,1996-11-12 00:00:00,8,996,1.6,93,7,0,7.408,,,150,,,,,,,,,,,wg-a,,,,AAXX 12004 07168 12/// /1504 10080 20070 39819 49960 51016 60046 90000=
07168,1996-11-12 06:00:00,4,996.2,1.1,100,4,7000,11.112,,,290,3.8,9.2,,,,,,,,1,wg-a,,,,AAXX 12064 07168 02357 72906 10040 20040 39819 49962 53011 60004 70162 865// 90600 333 10092 20038 61000=
07168,1996-11-12 09:00:00,7,997.1,1,93,6,9000,11.112,,,300,,,,1,,,,,,61,wg-a,,,,AAXX 12094 07168 12459 83006 10070 20060 39829 49971 53010 60017 76162 885// 90900=
07168,1996-11-12 12:00:00,8,997.4,0.4,100,8,6000,7.408,,,280,,,,2,,,,,,61,wg-a,,,,AAXX 12124 07168 02356 82804 10080 20080 39833 49974 51004 60036 76162 885// 91200 333 60027=
07168,1996-11-12 15:00:00,9,999,1.6,100,9,3000,0,,,0,,,,4,,,,,,10,wg-a,,,,AAXX 12154 07168 12130 80000 10090 20090 39849 49990 53016 60047 71066 885// 91500=
07168,1996-11-12 18:00:00,9,1001.1,2.1,100,9,0,14.816,,,270,4.4,9.7,,,,,,,,,wg-a,,,,AAXX 12184 07168 32/// /2708 10090 20090 39870 40011 53021 91800 333 10097 20044=
07168,1996-11-13 00:00:00,9,1005.1,2.3,93,8,0,14.816,,,280,,,,,,,,,,,wg-a,,,,AAXX 13004 07168 12/// /2808 10090 20080 39909 40051 53023 60016 90000=
07168,1996-11-13 06:00:00,8,1007.6,1.7,93,7,3000,11.112,,,290,7.5,9.3,,,,,,,,10,wg-a,,,,AAXX 13064 07168 02230 82906 10080 20070 39933 40076 53017 61000 71062 885// 90600 333 10093 20075 6000=
07168,1996-11-13 09:00:00,8,1010.1,2.5,100,8,3000,11.112,,,270,,,,,,,,,,10,wg-a,,,,AAXX 13094 07168 02230 82706 10080 20080 39958 40101 51025 61000 71062 886// 90900 333 ////=
07168,1996-11-13 12:00:00,8,1012.6,2.5,87,6,12000,22.224,,,360,,,,,,,,,,1,wg-a,,,,AAXX 13124 07168 02462 83612 10080 20060 39983 40126 51025 61000 70162 885// 91200 333 ////=
07168,1996-11-13 15:00:00,7,1014.6,1.9,81,4,16000,18.52,,,10,,,,,,,,,,,wg-a,,,,AAXX 13154 07168 12466 70110 10070 20040 30002 40146 53019 60006 878// 91500=
07168,1996-11-13 18:00:00,3,1016.9,2,93,2,0,11.112,,,310,3.2,8.4,,,,,,,,,wg-a,,,,AAXX 13184 07168 32/// /3106 10030 20020 30022 40169 53020 91800 333 10084 20032=
07168,1996-11-14 00:00:00,1,1018.7,0.4,100,1,0,11.112,,,310,,,,,,,,,,,wg-a,,,,AAXX 14004 07168 12/// /3106 10010 20010 30039 40187 53004 60006 90000=
07168,1996-11-14 06:00:00,1,1020.5,0.9,100,1,1500,3.704,,,310,-0.4,3.6,,,,,,,,10,wg-a,,,,AAXX 14064 07168 02215 /3102 10010 20010 30057 40205 51009 60006 71022 85700 90600 333 10036 21004 61000=
07168,1996-11-14 09:00:00,2,1022.2,1.7,93,1,1500,11.112,,,50,,,,0,,,,,,10,wg-a,,,,AAXX 14094 07168 12215 70506 10020 20010 30074 40222 51017 60007 71042 876// 90900=
07168,1996-11-14 12:00:00,6,1021.5,-0.5,75,2,8000,14.816,,,360,,,,,,,,,,1,wg-a,,,,AAXX 14124 07168 12458 /3608 10060 20020 30069 40215 58005 60006 70142 85100 91200=
07168,1996-11-14 15:00:00,6,1021.4,-0.1,75,2,20000,11.112,,,30,,,,,,,,,,,wg-a,,,,AAXX 14154 07168 12570 70306 10060 20020 30068 40214 55001 60006 878// 91500=
07168,1996-11-14 18:00:00,4,1021.9,0.4,81,1,0,7.408,,,20,0.8,6.8,,,,,,,,,wg-a,,,,AAXX 14184 07168 32/// /0204 10040 20010 30072 40219 50004 91800 333 10068 20008=
07168,1996-11-15 00:00:00,2,1020.5,-0.9,80,-1,0,14.816,,,20,,,,,,,,,,,wg-a,,,,AAXX 15004 07168 12/// /0208 10020 21010 30057 40205 58009 60006 90000=
07168,1996-11-15 06:00:00,2,1019.5,-0.2,80,-1,7000,14.816,,,40,1.1,3.8,,,,,,,,,wg-a,,,,AAXX 15064 07168 02657 /0408 10020 21010 30047 40195 55002 60006 86500 90600 333 10038 20011 60004=
07168,1996-11-15 09:00:00,2,1020.7,1.2,87,0,9000,14.816,,,60,,,,,,,,,,,wg-a,,,,AAXX 15094 07168 12659 70608 10020 20000 30059 40207 51012 60006 875// 90900=
07168,1996-11-15 12:00:00,4,1020.6,0.1,87,2,8000,14.816,,,70,,,,,,,,,,,wg-a,,,,AAXX 15124 07168 12458 80708 10040 20020 30060 40206 50001 60006 885// 91200=
07168,1996-11-15 15:00:00,5,1020.9,0.3,81,2,8000,11.112,,,50,,,,,,,,,,,wg-a,,,,AAXX 15154 07168 12458 80506 10050 20020 30063 40209 53003 60006 885// 91500=
07168,1996-11-15 18:00:00,4,1022.2,1.2,87,2,0,7.408,,,60,1.3,4.8,,,,,,,,,wg-a,,,,AAXX 15184 07168 12/// /0604 10040 20020 30075 40222 53012 60006 91800 333 10048 20013=
07168,1996-11-16 06:00:00,4,1023.2,0.4,87,2,8000,7.408,,,60,4.1,4.5,,,,,,,,,wg-a,,,,AAXX 16064 07168 02458 80604 10040 20020 30085 40232 53004 60006 885// 90600 333 10045 20041 60004=
07168,1996-11-16 09:00:00,5,1024,0.8,81,2,8000,11.112,,,80,,,,,,,,,,,wg-a,,,,AAXX 16094 07168 12458 80806 10050 20020 30093 40240 52008 60006 885// 90900=
07168,1996-11-16 12:00:00,5,1022.9,-1,87,3,8000,11.112,,,60,,,,,,,,,,,wg-a,,,,AAXX 16124 07168 12458 80606 10050 20030 30083 40229 58010 60006 885// 91200=
07168,1996-11-16 15:00:00,5,1022.1,-0.8,87,3,8000,7.408,,,70,,,,,,,,,,,wg-a,,,,AAXX 16154 07168 12458 80704 10050 20030 30075 40221 56008 60006 885// 91500=
07168,1996-11-17 00:00:00,4,1019,-2.3,87,2,0,7.408,,,60,,,,,,,,,,,wg-a,,,,AAXX 17004 07168 12/// /0604 10040 20020 30044 40190 56023 60006 90000=
07168,1996-11-17 06:00:00,3,1015,-1.9,87,1,8000,3.704,,,70,3.3,5,,,,,,,,,wg-a,,,,AAXX 17064 07168 02458 80702 10030 20010 30004 40150 58019 60006 885// 90600 333 10050 20033 60004=
07168,1996-11-17 09:00:00,3,1014.4,-0.6,87,1,7000,3.704,,,330,,,,,,,,,,,wg-a,,,,AAXX 17094 07168 12457 83302 10030 20010 39998 40144 58006 60006 885// 90900=
07168,1996-11-17 12:00:00,4,1012.3,-2.1,81,1,7000,0,,,0,,,,,,,,,,,wg-a,,,,AAXX 17124 07168 12457 80000 10040 20010 39977 40123 58021 60006 885// 91200=
07168,1996-11-17 15:00:00,4,1010.3,-1.9,81,1,7000,3.704,,,70,,,,,,,,,,,wg-a,,,,AAXX 17154 07168 12457 80702 10040 20010 39958 40103 56019 60006 885// 91500=
07168,1996-11-18 00:00:00,3,1006.4,-1.4,100,3,0,7.408,,,330,,,,,,,,,,,wg-a,,,,AAXX 18004 07168 12/// /3304 10030 20030 39919 40064 58014 60026 90000=
07168,1996-11-18 06:00:00,3,1003.7,-1,100,3,2000,3.704,,,310,2.7,3.7,,0,,,6,,,10,wg-a,,,,AAXX 18064 07168 02220 83102 10030 20030 39892 40037 56010 60064 71065 887// 90600 333 10037 20027 60007=
07168,1996-11-18 09:00:00,3,1003,-0.6,100,3,1800,7.408,,,300,,,,2,,,,,,10,wg-a,,,,AAXX 18094 07168 12218 83004 10030 20030 39886 40030 56006 60027 71066 887// 90900=
07168,1996-11-18 12:00:00,5,1001.8,-1.1,100,5,3000,14.816,,,320,,,,4,,,,,,10,wg-a,,,,AAXX 18124 07168 02230 83208 10050 20050 39875 40018 58011 60076 71066 887// 91200 333 60047=
07168,1996-11-18 15:00:00,6,1001.2,-0.6,100,6,6000,29.632,,,300,,,,3,,,,,,61,wg-a,,,,AAXX 18154 07168 12356 83016 10060 20060 39869 40012 55006 60037 76166 887// 91500=
07168,1996-11-18 18:00:00,5,1003.7,2.4,100,5,0,38.892,,,310,2.8,6.1,,,,,,,,,wg-a,,,,AAXX 18184 07168 32/// /3121 10050 20050 39893 40037 51024 91800 333 10061 20028=
07168,1996-11-19 00:00:00,2,1007,1.3,87,0,0,25.928,,,260,,,,,,,,,,,wg-a,,,,AAXX 19004 07168 02/// /2614 10020 20000 39924 40070 53013 60016 90000 333 61000=
07168,1996-11-19 06:00:00,-1,1004.7,-2,93,-2,15000,14.816,,,150,-0.6,5.3,,,,,17,,,,wg-a,,,,AAXX 19064 07168 02/65 01508 11010 21020 39900 40047 58020 60174 80000 90600 333 10053 21006 61000=
07168,1996-11-19 09:00:00,2,999.1,-5.4,80,-1,25000,29.632,,,160,,,,,,,,,,,wg-a,,,,AAXX 19094 07168 12/75 71616 10020 21010 39846 49991 58054 60006 83054 90900=
07168,1996-11-19 12:00:00,3,991.6,-7.3,75,-1,3000,42.596,,62.968,160,,,,,,,,,,10,wg-a,,,,AAXX 19124 07168 02430 81623 10030 21010 39773 49916 58073 61000 71076 8457/ 91200 333 6100 91034=
07168,1996-11-19 15:00:00,3,986.1,-5.4,93,2,15000,25.928,,,170,,,,4,,,,,,60,wg-a,,,,AAXX 19154 07168 12465 81714 10030 20020 39719 49861 56054 60047 76076 8557/ 91500=
07168,1996-11-19 18:00:00,6,984.7,-1.2,87,4,0,35.188,,,200,-0.5,6,,1,,,,,,,wg-a,,,,AAXX 19184 07168 12/// /2019 10060 20040 39707 49847 56012 60017 91800 333 10060 21005=
07168,1996-11-20 00:00:00,7,982.3,-1.3,81,4,0,50.004,,,200,,,,,,,,,,,wg-a,,,,AAXX 20004 07168 12/// /2027 10070 20040 39683 49823 56013 60006 90000=
07168,1996-11-20 06:00:00,6,982.5,1,87,4,10000,35.188,,,230,5.8,7.4,,1,,,6,,,51,wg-a,,,,AAXX 20064 07168 02460 82319 10060 20040 39685 49825 53010 60064 75165 875// 90600 333 10074 20058 60017=
07168,1996-11-20 09:00:00,6,984.9,2.3,87,4,12000,42.596,,,220,,,,1,,,,,,61,wg-a,,,,AAXX 20094 07168 12462 82223 10060 20040 39708 49849 53023 60017 76166 885// 90900=
07168,1996-11-20 12:00:00,7,987.6,2.8,81,4,15000,42.596,,62.968,240,,,,0,,,,,,2,wg-a,,,,AAXX 20124 07168 02565 72423 10070 20040 39736 49876 51028 60016 70262 875// 91200 333 60007 91034=
07168,1996-11-20 15:00:00,6,990.6,2.9,87,4,12000,38.892,,,250,,,,2,,,,,,21,wg-a,,,,AAXX 20154 07168 12462 82521 10060 20040 39765 49906 53029 60027 72162 885// 91500=
07168,1996-11-20 18:00:00,6,994.8,4.1,87,4,0,38.892,,,280,5.5,7.4,,1,,,,,,,wg-a,,,,AAXX 20184 07168 12/// /2821 10060 20040 39806 49948 53041 60017 91800 333 10074 20055=
07168,1996-11-21 00:00:00,4,1003.2,3,87,2,0,29.632,,,260,,,,,,,,,,,wg-a,,,,AAXX 21004 07168 12/// /2616 10040 20020 39888 40032 51030 60016 90000=
07168,1996-11-21 06:00:00,3,1007,1.9,93,2,12000,22.224,,,270,2.7,5.5,,0,,,6,,,,wg-a,,,,AAXX 21064 07168 02462 72712 10030 20020 39925 40070 53019 60064 875// 90600 333 10055 20027 60007=
07168,1996-11-21 09:00:00,3,1009.1,2.1,93,2,15000,29.632,,,270,,,,,,,,,,,wg-a,,,,AAXX 21094 07168 12465 72716 10030 20020 39946 40091 53021 60006 878// 90900=
07168,1996-11-21 12:00:00,5,1010.3,1.2,81,2,20000,22.224,,,250,,,,,,,,,,,wg-a,,,,AAXX 21124 07168 12470 /2512 10050 20020 39958 40103 51012 60006 83801 91200=
07168,1996-11-21 15:00:00,5,1010.2,-0.1,81,2,20000,7.408,,,190,,,,,,,,,,,wg-a,,,,AAXX 21154 07168 12470 /1904 10050 20020 39957 40102 58001 60006 84802 91500=
07168,1996-11-21 18:00:00,2,1009.8,-0.5,93,1,0,11.112,,,180,1.8,6.2,,,,,,,,,wg-a,,,,AAXX 21184 07168 12/// /1806 10020 20010 39952 40098 56005 60006 91800 333 10062 20018=
07168,1996-11-22 00:00:00,0,1009.2,-0.4,93,-1,0,3.704,,,290,,,,,,,,,,,wg-a,,,,AAXX 22004 07168 12/// /2902 10000 21010 39945 40092 56004 60006 90000=
07168,1996-11-22 06:00:00,-1,1014.3,2.9,100,-1,300,11.112,,,320,-1.3,2.6,,,,,,,,44,wg-a,,,,AAXX 22064 07168 02103 83206 11010 21010 39994 40143 53029 60006 74442 886// 90600 333 10026 21013 60004=
07168,1996-11-22 09:00:00,-1,1017.7,3.4,93,-2,100,0,,,0,,,,,,,,,,44,wg-a,,,,AAXX 22094 07168 12101 /0000 11010 21020 30028 40177 51034 60006 74444 86600 90900=
07168,1996-11-22 12:00:00,1,1017.9,0.3,100,1,100,11.112,,,170,,,,0,,,,,,44,wg-a,,,,AAXX 22124 07168 02101 71706 10010 20010 30031 40179 51003 60016 74444 876// 91200 333 60007=
07168,1996-11-22 15:00:00,2,1017.1,-0.7,100,2,800,0,,,0,,,,,,,,,,44,wg-a,,,,AAXX 22154 07168 12208 70000 10020 20020 30024 40171 57007 60006 74441 876// 91500=
07168,1996-11-22 18:00:00,0,1016.8,-0.4,100,0,0,0,,,0,-1.5,3.2,,,,,,,,,wg-a,,,,AAXX 22184 07168 32/// /0000 10000 20000 30020 40168 58004 91800 333 10032 21015=
07168,1996-11-23 00:00:00,-1,1014.1,-1.8,100,-1,0,14.816,,,170,,,,,,,,,,,wg-a,,,,AAXX 23004 07168 12/// /1708 11010 21010 39992 40141 58018 60006 90000=
07168,1996-11-23 06:00:00,-1,1012.6,-0.8,100,-1,3000,7.408,,,160,-2,-0.1,,,,,,,,10,wg-a,,,,AAXX 23064 07168 02230 81604 11010 21010 39978 40126 56008 60006 71022 876// 90600 333 11001 21020 60004=
07168,1996-11-23 09:00:00,0,1012.8,0.2,100,0,9000,11.112,,,180,,,,0,,,,,,,wg-a,,,,AAXX 23094 07168 12359 81806 10000 20000 39980 40128 53002 60007 8167/ 90900=
07168,1996-11-23 12:00:00,2,1012.2,-0.4,93,1,500,11.112,,,200,,,,,,,,,,60,wg-a,,,,AAXX 23124 07168 02300 82006 10020 20010 39976 40122 58004 60006 76062 877// 91200 333 61000=
07168,1996-11-23 15:00:00,1,1014.2,1.9,100,1,1500,22.224,,,290,,,,1,,,,,,71,wg-a,,,,AAXX 23154 07168 12215 82912 10010 20010 39995 40142 53019 60017 77176 887// 91500=
07168,1996-11-23 18:00:00,2,1018.2,4,93,1,0,18.52,,,310,-0.9,2.5,,,,,,,,,wg-a,,,,AAXX 23184 07168 32/// /3110 10020 20010 30035 40182 53040 91800 333 10025 21009=
07168,1996-11-24 00:00:00,1,1022.7,1.9,93,0,0,18.52,,,250,,,,,,,,,,,wg-a,,,,AAXX 24004 07168 12/// /2510 10010 20000 30078 40227 53019 60006 90000=
07168,1996-11-24 06:00:00,-1,1025.7,1.3,100,-1,7000,11.112,,,190,-1.5,1.9,,,,,2,,,,wg-a,,,,AAXX 24064 07168 02/57 01906 11010 21010 30107 40257 53013 60006 80000 90600 333 10019 21015 60024=
07168,1996-11-24 09:00:00,0,1027.2,1.5,93,-1,12000,11.112,,,170,,,,0,,,,,,,wg-a,,,,AAXX 24094 07168 12362 41706 10000 21010 30122 40272 51015 60007 84500 90900=
07168,1996-11-24 12:00:00,4,1025.9,-1,87,2,12000,14.816,,,190,,,,,,,,,,,wg-a,,,,AAXX 24124 07168 12362 51908 10040 20020 30112 40259 58010 60006 81801 91200=
07168,1996-11-24 15:00:00,2,1024.1,-1.9,93,1,9000,25.928,,,180,,,,,,,,,,,wg-a,,,,AAXX 24154 07168 12359 81814 10020 20010 30093 40241 56019 60006 8312/ 91500=
07168,1996-11-24 18:00:00,2,1022.6,-1.5,87,0,0,22.224,,,160,-0.8,4.5,,,,,,,,,wg-a,,,,AAXX 24184 07168 32/// /1612 10020 20000 30078 40226 58015 91800 333 10045 21008=
07168,1996-11-25 00:00:00,2,1015.7,-4.1,93,1,0,25.928,,,170,,,,,,,,,,,wg-a,,,,AAXX 25004 07168 12/// /1714 10020 20010 30010 40157 58041 60006 90000=
07168,1996-11-25 06:00:00,3,1005.2,-6,93,2,10000,35.188,,,170,1.1,3.1,,1,,,2,,,20,wg-a,,,,AAXX 25064 07168 02360 81719 10030 20020 39907 40052 56060 60024 72065 885// 90600 333 10031 20011 60017=
07168,1996-11-25 09:00:00,5,1002.2,-2.8,93,4,6000,31.484,,,190,,,,1,,,,,,61,wg-a,,,,AAXX 25094 07168 12456 81917 10050 20040 39879 40022 56028 60017 76162 885// 90900=
07168,1996-11-25 12:00:00,7,999.9,-2.2,100,7,10000,22.224,,,220,,,,0,,,,,,1,wg-a,,,,AAXX 25124 07168 02460 82212 10070 20070 39857 49999 58022 60016 70162 885// 91200 333 60007=
07168,1996-11-25 15:00:00,9,998.9,-0.9,87,7,9000,18.52,,,240,,,,0,,,,,,80,wg-a,,,,AAXX 25154 07168 12459 72410 10090 20070 39848 49989 56009 60007 78086 8523/ 91500=
07168,1996-11-25 18:00:00,8,998.3,-0.6,87,6,0,18.52,,,230,3,8.8,,,,,,,,,wg-a,,,,AAXX 25184 07168 32/// /2310 10080 20060 39842 49983 58006 91800 333 10088 20030=
07168,1996-11-26 00:00:00,6,1001.4,2.3,93,5,0,25.928,,,270,,,,,,,,,,,wg-a,,,,AAXX 26004 07168 12/// /2714 10060 20050 39871 40014 51023 60006 90000=
07168,1996-11-26 06:00:00,5,1005.5,2.3,93,4,10000,22.224,,,280,5.2,8.1,,,,,2,,,,wg-a,,,,AAXX 26064 07168 12760 72812 10050 20040 39911 40055 52023 60024 8353/ 90600 333 10081 20052=
07168,1996-11-26 09:00:00,6,1008.1,2.6,93,5,11000,25.928,,,290,,,,,,,,,,,wg-a,,,,AAXX 26094 07168 12461 82914 10060 20050 39937 40081 53026 60006 878// 90900=
07168,1996-11-26 12:00:00,7,1010.1,2,87,5,20000,29.632,,,310,,,,,,,,,,1,wg-a,,,,AAXX 26124 07168 02470 83116 10070 20050 39957 40101 51020 61000 70186 878// 91200 333 6100=
07168,1996-11-26 15:00:00,6,1011.5,1.4,87,4,500,25.928,,,320,,,,,,,,,,25,wg-a,,,,AAXX 26154 07168 02400 83214 10060 20040 39971 40115 51014 61000 72586 878// 91500 333 ////=
07168,1996-11-26 18:00:00,5,1013.2,1.6,93,4,0,18.52,,,280,5.1,7.7,,,,,,,,,wg-a,,,,AAXX 26184 07168 32/// /2810 10050 20040 39987 40132 53016 91800 333 10077 20051=
07168,1996-11-27 00:00:00,3,1013.9,-0.1,93,2,0,18.52,,,280,,,,,,,,,,,wg-a,,,,AAXX 27004 07168 12/// /2810 10030 20020 39993 40139 58001 60006 90000=
07168,1996-11-27 06:00:00,0,1012.9,-1.3,100,0,2000,7.408,,,160,0.1,5.4,,,,,,,,10,wg-a,,,,AAXX 27064 07168 02420 /1604 10000 20000 39981 40129 57013 60006 71022 86500 90600 333 10054 20001 61000=
07168,1996-11-27 09:00:00,1,1011.4,-1.4,100,1,2000,7.408,,,180,,,,,,,,,,10,wg-a,,,,AAXX 27094 07168 12220 71804 10010 20010 39967 40114 58014 60006 71042 8363/ 90900=
07168,1996-11-27 12:00:00,4,1007.5,-3.7,93,3,4000,11.112,,,120,,,,,,,,,,10,wg-a,,,,AAXX 27124 07168 12340 81206 10040 20030 39930 40075 58037 60006 71042 886// 91200=
07168,1996-11-27 15:00:00,4,1003.3,-4.1,87,2,7000,11.112,,,90,,,,1,,,,,,61,wg-a,,,,AAXX 27154 07168 12457 80906 10040 20020 39889 40033 56041 60017 76162 8572/ 91500=
07168,1996-11-27 18:00:00,0,1003.8,0.3,100,0,0,11.112,,,50,-0.6,3.9,,,,,,,,,wg-a,,,,AAXX 27184 07168 32/// /0506 10000 20000 39892 40038 51003 91800 333 10039 21006=
07168,1996-11-28 00:00:00,1,1009.1,2.9,93,0,0,18.52,,,350,,,,,,,,,,,wg-a,,,,AAXX 28004 07168 12/// /3510 10010 20000 39945 40091 53029 60016 90000=
07168,1996-11-28 06:00:00,1,1014.9,3.1,86,-1,2500,22.224,,,340,0.4,1.4,,,,,10,,,10,wg-a,,,,AAXX 28064 07168 02425 83412 10010 21010 30001 40149 53031 60104 71022 885// 90600 333 10014 20004 61000=
07168,1996-11-28 09:00:00,0,1018.5,3.5,86,-2,500,18.52,,,300,,,,,,,,,,,wg-a,,,,AAXX 28094 07168 12700 /3010 10000 21020 30036 40185 51035 60006 86500 90900=
07168,1996-11-28 12:00:00,2,1019.7,1.3,80,-1,6000,18.52,,,300,,,,,,,,,,,wg-a,,,,AAXX 28124 07168 12756 /3010 10020 21010 30049 40197 52013 60006 86500 91200=
07168,1996-11-28 15:00:00,1,1020.8,1.1,86,-1,6000,14.816,,,270,,,,,,,,,,,wg-a,,,,AAXX 28154 07168 12756 /2708 10010 21010 30060 40208 53011 60006 81500 91500=
07168,1996-11-28 18:00:00,0,1022.4,1.5,93,-1,0,14.816,,,250,-0.8,2.4,,,,,,,,,wg-a,,,,AAXX 28184 07168 12/// /2508 10000 21010 30075 40224 53015 60006 91800 333 10024 21008=
07168,1996-11-29 00:00:00,1,1022.3,-0.1,93,0,0,14.816,,,190,,,,,,,,,,,wg-a,,,,AAXX 29004 07168 12/// /1908 10010 20000 30074 40223 58001 60006 90000=
07168,1996-11-29 06:00:00,1,1017.8,-2.9,93,0,1500,22.224,,,170,-0.5,1.2,,,,,,,,10,wg-a,,,,AAXX 29064 07168 02/15 71712 10010 20000 30030 40178 56029 60006 71022 8701/ 90600 333 10012 21005 60004=
07168,1996-11-29 09:00:00,1,1013.1,-4.6,100,1,4500,31.484,,,180,,,,1,,,,,,10,wg-a,,,,AAXX 29094 07168 12445 81817 10010 20010 39984 40131 58046 60017 71076 877// 90900=
07168,1996-11-29 12:00:00,3,1007.4,-5.5,100,3,4000,42.596,,,200,,,,1,,,,,,10,wg-a,,,,AAXX 29124 07168 02340 82023 10030 20030 39929 40074 58055 60036 71076 877// 91200 333 60017=
07168,1996-11-29 15:00:00,7,1003.2,-4,93,6,6000,35.188,,,220,,,,3,,,,,,61,wg-a,,,,AAXX 29154 07168 12356 82219 10070 20060 39889 40032 56040 60037 76165 877// 91500=
07168,1996-11-29 18:00:00,11,1000.8,-2.1,94,10,0,42.596,,,250,0.8,10.7,,0,,,,,,,wg-a,,,,AAXX 29184 07168 12/// /2523 10110 20100 39868 40008 56021 60007 91800 333 10107 20008=
07168,1996-11-30 00:00:00,7,1002.6,0.8,93,6,0,25.928,,,270,,,,4,,,,,,,wg-a,,,,AAXX 30004 07168 02/// /2714 10070 20060 39884 40026 51008 60126 90000 333 60047=
07168,1996-11-30 06:00:00,6,1003.1,-0.1,93,5,12000,22.224,,,260,6.3,10.9,,,,,18,,,,wg-a,,,,AAXX 30064 07168 12662 72612 10060 20050 39888 40031 55001 60184 875// 90600 333 10109 20063=
07168,1996-11-30 09:00:00,7,1004.1,1,87,5,16000,29.632,,,280,,,,,,,,,,,wg-a,,,,AAXX 30094 07168 12566 72816 10070 20050 39898 40041 53010 60006 8523/ 90900=
07168,1996-11-30 12:00:00,8,1004.2,0.2,87,6,15000,25.928,,,280,,,,1,,,,,,25,wg-a,,,,AAXX 30124 07168 02465 72814 10080 20060 39900 40042 50002 60016 72586 872// 91200 333 60017=
07168,1996-11-30 15:00:00,7,1005,0.7,93,6,6000,22.224,,,320,,,,1,,,,,,80,wg-a,,,,AAXX 30154 07168 12456 73212 10070 20060 39907 40050 53007 60017 78086 872// 91500=
07168,1996-11-30 18:00:00,6,1008.4,3.3,93,5,0,29.632,,,300,4.8,8.6,,,,,,,,,wg-a,,,,AAXX 30184 07168 32/// /3016 10060 20050 39940 40084 53033 91800 333 10086 20048=
07168,1996-12-01 00:00:00,2,1017.1,4.1,100,2,0,14.816,,,310,,,,,,,,,,,wg-a,,,,AAXX 01004 07168 12/// /3108 10020 20020 30024 40171 51041 60006 90000=
07168,1996-12-01 06:00:00,2,1021.6,2.1,100,2,4000,3.704,,,330,0.2,6.4,,,,,4,,,10,wg-a,,,,AAXX 01064 07168 02640 /3302 10020 20020 30068 40216 51021 60006 71022 86500 90600 333 10064 20002 60044=
07168,1996-12-01 09:00:00,3,1023.4,1.8,100,3,2500,7.408,,,140,,,,,,,,,,10,wg-a,,,,AAXX 01094 07168 12225 81404 10030 20030 30086 40234 53018 60006 71042 8263/ 90900=
07168,1996-12-01 12:00:00,6,1022.3,-0.9,93,5,7000,22.224,,,190,,,,,,,,,,1,wg-a,,,,AAXX 01124 07168 12457 71912 10060 20050 30077 40223 58009 60006 70142 8463/ 91200=
07168,1996-12-01 15:00:00,7,1020.1,-2.1,87,5,15000,18.52,,,190,,,,,,,,,,,wg-a,,,,AAXX 01154 07168 12465 81910 10070 20050 30056 40201 56021 60006 8113/ 91500=
07168,1996-12-01 18:00:00,7,1018,-2.1,87,5,0,25.928,,,190,1.2,7.1,,,,,,,,,wg-a,,,,AAXX 01184 07168 12/// /1914 10070 20050 30035 40180 58021 60006 91800 333 10071 20012=
07168,1996-12-02 00:00:00,9,1015.6,-1.1,93,8,0,25.928,,,250,,,,,,,,,,,wg-a,,,,AAXX 02004 07168 12/// /2514 10090 20080 30013 40156 58011 60006 90000=
07168,1996-12-02 06:00:00,7,1017.5,1.7,87,5,10000,29.632,,,280,6.6,9.1,,,,,,,,,wg-a,,,,AAXX 02064 07168 02/60 72816 10070 20050 30031 40175 53017 60006 8703/ 90600 333 10091 20066 60004=
07168,1996-12-02 09:00:00,7,1019.9,2.3,87,5,15000,35.188,,,270,,,,,,,,,,80,wg-a,,,,AAXX 02094 07168 02565 72719 10070 20050 30054 40199 53023 61000 78086 8623/ 90900 333 ////=
07168,1996-12-02 12:00:00,9,1019.3,-0.5,76,5,15000,35.188,,,270,,,,0,,,,,,3,wg-a,,,,AAXX 02124 07168 02465 /2719 10090 20050 30049 40193 58005 60006 70386 82132 91200 333 60007=
07168,1996-12-02 15:00:00,7,1019.2,-0.2,76,3,15000,38.892,,59.264,280,,,,,,,,,,80,wg-a,,,,AAXX 02154 07168 02565 72821 10070 20030 30047 40192 58002 61000 78086 85202 91500 333 //// 91032=
07168,1996-12-02 18:00:00,6,1020.3,1,87,4,0,22.224,,,260,4.2,8.9,,1,,,,,,,wg-a,,,,AAXX 02184 07168 12/// /2612 10060 20040 30057 40203 51010 60017 91800 333 10089 20042=
07168,1996-12-03 00:00:00,6,1019.5,-0.9,93,5,0,22.224,,,240,,,,,,,,,,,wg-a,,,,AAXX 03004 07168 12/// /2412 10060 20050 30050 40195 58009 60006 90000=
07168,1996-12-03 06:00:00,5,1016,-1.7,93,4,7000,18.52,,,190,4.5,6.4,,,,,1,,,,wg-a,,,,AAXX 03064 07168 02/57 71910 10050 20040 30015 40160 56017 60006 8707/ 90600 333 10064 20045 60014=
07168,1996-12-03 09:00:00,6,1013.4,-2.5,93,5,10000,22.224,,,180,,,,,,,,,,50,wg-a,,,,AAXX 03094 07168 02460 81812 10060 20050 39990 40134 57025 61000 75052 8377/ 90900 333 ////=
07168,1996-12-03 12:00:00,7,1010,-3.3,87,5,0,25.928,,,190,,,,,,,,,,,wg-a,,,,AAXX 03124 07168 12/// /1914 10070 20050 39957 40100 56033 60016 91200=
07168,1996-12-03 15:00:00,8,1005.7,-4.2,81,5,18000,29.632,,,180,,,,1,,,,,,21,wg-a,,,,AAXX 03154 07168 12468 71816 10080 20050 39915 40057 56042 60017 72162 8457/ 91500=
07168,1996-12-03 18:00:00,8,1003.8,-1.9,81,5,0,35.188,,,180,5.1,8.6,,,,,,,,,wg-a,,,,AAXX 03184 07168 32/// /1819 10080 20050 39896 40038 56019 91800 333 10086 20051=
07168,1996-12-04 00:00:00,8,1003,0.6,93,7,0,31.484,,,200,,,,,,,,,,,wg-a,,,,AAXX 04004 07168 12/// /2017 10080 20070 39888 40030 53006 60006 90000=
07168,1996-12-04 06:00:00,7,1006.5,2.1,100,7,10000,14.816,,,220,7.3,9.7,,0,,,2,,,,wg-a,,,,AAXX 04064 07168 02560 82208 10070 20070 39922 40065 53021 60024 885// 90600 333 10097 20073 60007=
07168,1996-12-04 09:00:00,7,1008.2,1.7,100,7,12000,7.408,,,180,,,,0,,,,,,60,wg-a,,,,AAXX 04094 07168 12462 81804 10070 20070 39939 40082 51017 60007 76062 885// 90900=
07168,1996-12-04 12:00:00,7,1008.3,0.1,93,6,12000,0,,,0,,,,0,,,,,,60,wg-a,,,,AAXX 04124 07168 02362 80000 10070 20060 39940 40083 50001 60016 76062 885// 91200 333 60007=
07168,1996-12-04 15:00:00,6,1009,0.6,100,6,4000,7.408,,,360,,,,0,,,,,,10,wg-a,,,,AAXX 04154 07168 12240 83604 10060 20060 39946 40090 52006 60007 71062 885// 91500=
07168,1996-12-04 18:00:00,6,1009.3,0.3,93,5,0,7.408,,,300,5.9,7.4,,,,,,,,,wg-a,,,,AAXX 04184 07168 32/// /3004 10060 20050 39949 40093 53003 91800 333 10074 20059=
07168,1996-12-05 00:00:00,6,1010.6,0.8,100,6,0,7.408,,,340,,,,,,,,,,,wg-a,,,,AAXX 05004 07168 12/// /3404 10060 20060 39962 40106 51008 60056 90000=
07168,1996-12-05 06:00:00,6,1011.9,0.9,100,6,2000,3.704,,,360,5.6,5.9,,1,,,11,,,10,wg-a,,,,AAXX 05064 07168 02220 83602 10060 20060 39975 40119 51009 60114 71066 877// 90600 333 10059 20056 60017=
07168,1996-12-05 09:00:00,6,1013.5,1.5,100,6,2500,3.704,,,40,,,,3,,,,,,10,wg-a,,,,AAXX 05094 07168 12225 80402 10060 20060 39990 40135 51015 60037 71066 877// 90900=
07168,1996-12-05 12:00:00,7,1012.9,-0.5,93,6,3000,3.704,,,50,,,,1,,,,,,10,wg-a,,,,AAXX 05124 07168 02230 80502 10070 20060 39985 40129 58005 60046 71066 877// 91200 333 60017=
07168,1996-12-05 15:00:00,7,1012.6,-0.3,100,7,3000,3.704,,,80,,,,1,,,,,,10,wg-a,,,,AAXX 05154 07168 12230 80802 10070 20070 39982 40126 57003 60017 71062 877// 91500=
07168,1996-12-05 18:00:00,7,1013.2,0.6,100,7,0,3.704,,,300,5.6,7.4,,,,,,,,,wg-a,,,,AAXX 05184 07168 32/// /3002 10070 20070 39988 40132 52006 91800 333 10074 20056=
07168,1996-12-06 00:00:00,5,1014.1,0.2,93,4,0,11.112,,,300,,,,,,,,,,,wg-a,,,,AAXX 06004 07168 12/// /3006 10050 20040 39996 40141 53002 60016 90000=
07168,1996-12-06 06:00:00,4,1014.4,-0.2,100,4,800,3.704,,,40,1,6.7,,0,,,6,,,44,wg-a,,,,AAXX 06064 07168 02208 80402 10040 20040 39998 40144 58002 60064 74464 885// 90600 333 10067 20010 60007=
07168,1996-12-06 09:00:00,4,1016.3,1.9,100,4,6000,0,,,0,,,,,,,,,,1,wg-a,,,,AAXX 06094 07168 12256 70000 10040 20040 30017 40163 51019 60006 70142 8453/ 90900=
07168,1996-12-06 12:00:00,7,1016,-0.1,100,7,7000,0,,,0,,,,,,,,,,1,wg-a,,,,AAXX 06124 07168 12757 /0000 10070 20070 30016 40160 58001 60006 70142 82530 91200=
07168,1996-12-06 15:00:00,9,1016.3,0.4,87,7,6000,7.408,,,110,,,,,,,,,,,wg-a,,,,AAXX 06154 07168 12/56 71104 10090 20070 30020 40163 53004 60006 8703/ 91500=
07168,1996-12-06 18:00:00,6,1018.2,1.7,100,6,0,3.704,,,110,2.8,9.1,,,,,,,,,wg-a,,,,AAXX 06184 07168 12/// /1102 10060 20060 30037 40182 53017 60006 91800 333 10091 20028=
07168,1996-12-07 00:00:00,4,1019.5,0.7,100,4,0,0,,,0,,,,,,,,,,,wg-a,,,,AAXX 07004 07168 12/// /0000 10040 20040 30049 40195 50007 60006 90000=
07168,1996-12-07 06:00:00,0,1021.4,1.1,100,0,500,0,,,0,0.1,6.8,,,,,,,,,wg-a,,,,AAXX 07064 07168 02/00 00000 10000 20000 30065 40214 53011 60006 80000 90600 333 10068 20001 60004=
07168,1996-12-07 09:00:00,2,1023,1.7,93,1,500,3.704,,,80,,,,,,,,,,,wg-a,,,,AAXX 07094 07168 12/00 30802 10020 20010 30082 40230 51017 60006 80001 90900=
07168,1996-12-07 12:00:00,5,1023.5,0.7,87,3,500,7.408,,,50,,,,0,,,,,,,wg-a,,,,AAXX 07124 07168 02/00 40504 10050 20030 30089 40235 51007 60006 80001 91200 333 60007=
07168,1996-12-07 15:00:00,5,1024.3,0.7,87,3,500,11.112,,,50,,,,,,,,,,,wg-a,,,,AAXX 07154 07168 12/00 30506 10050 20030 30096 40243 53007 60006 80001 91500=
07168,1996-12-07 18:00:00,2,1025.3,0.8,100,2,0,3.704,,,360,0,6.2,,,,,,,,,wg-a,,,,AAXX 07184 07168 32/// /3602 10020 20020 30104 40253 51008 91800 333 10062 20000=
07168,1996-12-08 00:00:00,0,1026.4,0.3,100,0,0,11.112,,,50,,,,,,,,,,,wg-a,,,,AAXX 08004 07168 12/// /0506 10000 20000 30114 40264 51003 60006 90000=
07168,1996-12-08 09:00:00,0,1026.2,1,100,0,3000,11.112,,,90,,,,,,,,,,10,wg-a,,,,AAXX 08094 07168 12230 80906 10000 20000 30112 40262 53010 60006 71022 886// 90900=
07168,1996-12-08 12:00:00,1,1024.7,-1.4,86,-1,4000,14.816,,,50,,,,,,,,,,10,wg-a,,,,AAXX 08124 07168 12340 80508 10010 21010 30098 40247 58014 60006 71022 886// 91200=
07168,1996-12-08 15:00:00,1,1024.3,-0.4,86,-1,500,11.112,,,100,,,,,,,,,,,wg-a,,,,AAXX 08154 07168 12400 81006 10010 21010 30094 40243 55004 60006 886// 91500=
07168,1996-12-08 18:00:00,1,1024.3,-0,86,-1,0,11.112,,,80,-0.7,1.1,,,,,,,,,wg-a,,,,AAXX 08184 07168 12/// /0806 10010 21010 30094 40243 55000 60006 91800 333 10011 21007=
07168,1996-12-09 00:00:00,0,1023.8,-0.3,93,-1,0,7.408,,,70,,,,,,,,,,,wg-a,,,,AAXX 09004 07168 12/// /0704 10000 21010 30089 40238 58003 60006 90000=
07168,1996-12-09 06:00:00,-1,1021.4,-0.7,93,-2,4500,11.112,,,80,-0.8,0.7,,,,,,,,10,wg-a,,,,AAXX 09064 07168 02345 80806 11010 21020 30065 40214 57007 60006 71022 887// 90600 333 10007 21008 60004=
07168,1996-12-09 09:00:00,-1,1021.1,-0.3,93,-2,2500,11.112,,,100,,,,,,,,,,10,wg-a,,,,AAXX 09094 07168 12325 81006 11010 21020 30062 40211 56003 60006 71022 886// 90900=
07168,1996-12-09 12:00:00,0,1019.9,-1.2,93,-1,3000,7.408,,,60,,,,,,,,,,10,wg-a,,,,AAXX 09124 07168 12330 80604 10000 21010 30050 40199 57012 60006 71022 886// 91200=
07168,1996-12-09 15:00:00,0,1017.8,-2.1,93,-1,3500,11.112,,,30,,,,,,,,,,10,wg-a,,,,AAXX 09154 07168 12335 80306 10000 21010 30029 40178 57021 60006 71022 886// 91500=
07168,1996-12-09 18:00:00,0,1018.9,1.1,93,-1,0,7.408,,,40,-0.8,0.1,,,,,,,,,wg-a,,,,AAXX 09184 07168 12/// /0404 10000 21010 30040 40189 50011 60006 91800 333 10001 21008=
07168,1996-12-10 00:00:00,0,1018.4,-0.6,93,-1,0,11.112,,,100,,,,,,,,,,,wg-a,,,,AAXX 10004 07168 12/// /1006 10000 21010 30036 40184 58006 60006 90000=
07168,1996-12-10 06:00:00,0,1017.1,-0.7,93,-1,2500,11.112,,,80,-0.3,0.3,,,,,,,,10,wg-a,,,,AAXX 10064 07168 02225 80806 10000 21010 30022 40171 55007 60006 71022 886// 90600 333 10003 21003 60004=
07168,1996-12-10 09:00:00,-1,1016.9,-0.2,100,-1,2500,11.112,,,40,,,,,,,,,,10,wg-a,,,,AAXX 10094 07168 12225 80406 11010 21010 30020 40169 56002 60006 71022 886// 90900=
07168,1996-12-10 12:00:00,-1,1016.4,-0.5,100,-1,2500,7.408,,,20,,,,,,,,,,10,wg-a,,,,AAXX 10124 07168 12225 80204 11010 21010 30015 40164 58005 60006 71022 886// 91200=
07168,1996-12-10 15:00:00,0,1015.5,-0.8,93,-1,3000,11.112,,,10,,,,,,,,,,10,wg-a,,,,AAXX 10154 07168 12230 80106 10000 21010 30007 40155 56008 60006 71022 886// 91500=
07168,1996-12-10 18:00:00,0,1016.4,0.9,93,-1,0,11.112,,,20,-0.8,0,,,,,,,,,wg-a,,,,AAXX 10184 07168 12/// /0206 10000 21010 30016 40164 51009 60006 91800 333 10000 21008=
07168,1996-12-11 00:00:00,-1,1017,-0.2,100,-1,0,3.704,,,60,,,,,,,,,,,wg-a,,,,AAXX 11004 07168 12/// /0602 11010 21010 30021 40170 58002 60006 90000=
07168,1996-12-11 06:00:00,0,1016.7,0.3,93,-1,2000,3.704,,,120,-0.6,-0.2,,,,,,,,10,wg-a,,,,AAXX 11064 07168 02220 81202 10000 21010 30019 40167 52003 60006 71022 886// 90600 333 11002 21006 60004=
07168,1996-12-11 09:00:00,0,1017.1,0.4,93,-1,500,7.408,,,100,,,,,,,,,,,wg-a,,,,AAXX 11094 07168 12300 81004 10000 21010 30023 40171 53004 60006 886// 90900=
07168,1996-12-11 12:00:00,1,1016.1,-1,86,-1,6000,7.408,,,150,,,,,,,,,,,wg-a,,,,AAXX 11124 07168 12456 81504 10010 21010 30013 40161 58010 60006 886// 91200=
07168,1996-12-11 15:00:00,1,1015.1,-0.9,93,0,6000,11.112,,,180,,,,,,,,,,,wg-a,,,,AAXX 11154 07168 12356 81806 10010 20000 30004 40151 56009 60006 886// 91500=
07168,1996-12-11 18:00:00,1,1015.5,0.4,93,0,0,3.704,,,70,-0.3,1.2,,,,,,,,,wg-a,,,,AAXX 11184 07168 12/// /0702 10010 20000 30008 40155 51004 60006 91800 333 10012 21003=
07168,1996-12-12 00:00:00,1,1013.7,-1,100,1,0,7.408,,,120,,,,,,,,,,,wg-a,,,,AAXX 12004 07168 12/// /1204 10010 20010 39990 40137 56010 60006 90000=
07168,1996-12-12 06:00:00,-1,1012.9,-1,93,-2,300,3.704,,,110,-1.4,1.5,,,,,,,,44,wg-a,,,,AAXX 12064 07168 02103 81102 11010 21020 39980 40129 56010 60006 74442 886// 90600 333 10015 21014 60004=
07168,1996-12-12 09:00:00,-1,1012.9,-0,93,-2,200,3.704,,,190,,,,,,,,,,44,wg-a,,,,AAXX 12094 07168 12102 71902 11010 21020 39980 40129 54000 60006 74444 876// 90900=
07168,1996-12-12 12:00:00,3,1011.3,-1.3,100,3,7000,3.704,,,160,,,,,,,,,,28,wg-a,,,,AAXX 12124 07168 12/57 /1602 10030 20030 39967 40113 58013 60006 72842 80002 91200=
07168,1996-12-12 15:00:00,6,1009.2,-1.9,87,4,8000,0,,,0,,,,,,,,,,,wg-a,,,,AAXX 12154 07168 12/58 /0000 10060 20040 39948 40092 56019 60006 82031 91500=
07168,1996-12-12 18:00:00,1,1008.7,-0.7,100,1,0,3.704,,,160,-1.8,7.5,,,,,,,,,wg-a,,,,AAXX 12184 07168 12/// /1602 10010 20010 39941 40087 56007 60006 91800 333 10075 21018=
07168,1996-12-13 00:00:00,6,1005.7,-1.7,93,5,0,3.704,,,160,,,,,,,,,,,wg-a,,,,AAXX 13004 07168 12/// /1602 10060 20050 39913 40057 57017 60016 90000=
07168,1996-12-13 06:00:00,8,1002.2,-1.4,93,7,7000,11.112,,,160,1.3,8,,,,,1,,,3,wg-a,,,,AAXX 13064 07168 12457 71606 10080 20070 39880 40022 56014 60014 70362 875// 90600 333 10080 20013=
07168,1996-12-13 09:00:00,8,1001.6,-0.6,100,8,10000,11.112,,,170,,,,,,,,,,,wg-a,,,,AAXX 13094 07168 12460 71706 10080 20080 39874 40016 55006 60006 875// 90900=
07168,1996-12-13 12:00:00,10,1000.3,-1.1,93,9,15000,11.112,,,240,,,,,,,,,,,wg-a,,,,AAXX 13124 07168 12465 72406 10100 20090 39863 40003 58011 60006 875// 91200=
07168,1996-12-13 15:00:00,7,1000,-0.5,100,7,300,22.224,,,320,,,,,,,,,,45,wg-a,,,,AAXX 13154 07168 12/03 93212 10070 20070 39858 40000 55005 60006 74542 89/// 91500=
07168,1996-12-13 18:00:00,5,1000.8,0.7,100,5,0,11.112,,,340,4.9,10.7,,,,,,,,,wg-a,,,,AAXX 13184 07168 12/// /3406 10050 20050 39865 40008 51007 60006 91800 333 10107 20049=
07168,1996-12-14 00:00:00,3,1003.3,1,87,1,0,18.52,,,20,,,,,,,,,,,wg-a,,,,AAXX 14004 07168 12/// /0210 10030 20010 39888 40033 53010 60006 90000=
07168,1996-12-14 06:00:00,2,1005.8,1.7,80,-1,8000,18.52,,,30,1.7,4.9,,,,,,,,,wg-a,,,,AAXX 14064 07168 02458 80310 10020 21010 39912 40058 53017 60006 885// 90600 333 10049 20017 60004=
07168,1996-12-14 09:00:00,1,1008.1,2.2,86,-1,10000,22.224,,,20,,,,,,,,,,,wg-a,,,,AAXX 14094 07168 12560 70212 10010 21010 39934 40081 53022 60006 875// 90900=
07168,1996-12-14 12:00:00,3,1009.5,1.5,75,-1,10000,14.816,,,30,,,,,,,,,,,wg-a,,,,AAXX 14124 07168 12560 30308 10030 21010 39949 40095 51015 60006 83100 91200=
07168,1996-12-14 15:00:00,2,1011,1.5,69,-3,15000,11.112,,,20,,,,,,,,,,,wg-a,,,,AAXX 14154 07168 12565 /0206 10020 21030 39964 40110 52015 60006 81101 91500=
07168,1996-12-14 18:00:00,0,1013.4,2.2,74,-4,0,7.408,,,10,-1.2,3.1,,,,,,,,,wg-a,,,,AAXX 14184 07168 12/// /0104 10000 21040 39986 40134 51022 60006 91800 333 10031 21012=
07168,1996-12-15 00:00:00,-3,1016.1,1.3,86,-5,0,3.704,,,330,,,,,,,,,,,wg-a,,,,AAXX 15004 07168 12/// /3302 11030 21050 30011 40161 51013 60006 90000=
07168,1996-12-15 06:00:00,-4,1017.3,0.2,93,-5,10000,7.408,,,170,-6.1,-0.3,,,,,,,,,wg-a,,,,AAXX 15064 07168 02/60 01704 11040 21050 30022 40173 53002 60006 80000 90600 333 11003 21061 60004=
07168,1996-12-15 09:00:00,-2,1019,1.8,93,-3,15000,7.408,,,140,,,,,,,,,,,wg-a,,,,AAXX 15094 07168 12665 71404 11020 21030 30040 40190 51018 60006 875// 90900=
07168,1996-12-15 12:00:00,1,1019,0.2,80,-2,18000,7.408,,,160,,,,,,,,,,,wg-a,,,,AAXX 15124 07168 12668 71604 10010 21020 30042 40190 50002 60006 875// 91200=
07168,1996-12-15 15:00:00,2,1019,0.1,80,-1,18000,3.704,,,190,,,,,,,,,,,wg-a,,,,AAXX 15154 07168 12568 81902 10020 21010 30043 40190 53001 60006 885// 91500=
07168,1996-12-15 18:00:00,1,1019.8,0.7,86,-1,0,7.408,,,170,-4.7,2.3,,,,,,,,,wg-a,,,,AAXX 15184 07168 12/// /1704 10010 21010 30050 40198 52007 60006 91800 333 10023 21047=
07168,1996-12-16 00:00:00,2,1019.9,-0.5,87,0,0,0,,,0,,,,,,,,,,,wg-a,,,,AAXX 16004 07168 12/// /0000 10020 20000 30051 40199 58005 60006 90000=
07168,1996-12-16 06:00:00,1,1018.2,-0.5,93,0,10000,0,,,0,1,1.7,,,,,,,,,wg-a,,,,AAXX 16064 07168 02560 70000 10010 20000 30034 40182 57005 60006 875// 90600 333 10017 20010 60004=
07168,1996-12-16 09:00:00,3,1017.4,-0.7,87,1,20000,7.408,,,80,,,,,,,,,,,wg-a,,,,AAXX 16094 07168 12570 70804 10030 20010 30027 40174 57007 60006 875// 90900=
07168,1996-12-16 12:00:00,7,1014.8,-2.3,66,1,25000,18.52,,,150,,,,,,,,,,,wg-a,,,,AAXX 16124 07168 12575 31510 10070 20010 30004 40148 58023 60006 81101 91200=
07168,1996-12-16 15:00:00,4,1013.7,-1.3,81,1,12000,14.816,,,160,,,,,,,,,,,wg-a,,,,AAXX 16154 07168 12/62 71608 10040 20010 39991 40137 56013 60006 80002 91500=
07168,1996-12-16 18:00:00,2,1013.5,-0.3,93,1,0,11.112,,,140,1.1,7.2,,,,,,,,,wg-a,,,,AAXX 16184 07168 12/// /1406 10020 20010 39988 40135 55003 60006 91800 333 10072 20011=
07168,1996-12-17 00:00:00,0,1014.3,0.3,93,-1,0,3.704,,,340,,,,,,,,,,,wg-a,,,,AAXX 17004 07168 12/// /3402 10000 21010 39995 40143 51003 60006 90000=
07168,1996-12-17 06:00:00,0,1013.7,-0.9,93,-1,10000,0,,,0,-1.9,2.1,,,,,,,,,wg-a,,,,AAXX 17064 07168 02760 60000 10000 21010 39989 40137 56009 60006 86500 90600 333 10021 21019 60004=
07168,1996-12-17 12:00:00,6,1012.3,-1.1,93,5,12000,7.408,,,150,,,,2,,,,,,61,wg-a,,,,AAXX 17124 07168 02562 81504 10060 20050 39979 40123 58011 60026 76162 885// 91200 333 60027=
07168,1996-12-17 15:00:00,8,1011.5,-0.7,100,8,3000,22.224,,,210,,,,1,,,,,,51,wg-a,,,,AAXX 17154 07168 12230 82112 10080 20080 39972 40115 55007 60017 75165 887// 91500=
07168,1996-12-17 18:00:00,8,1011.9,0.4,100,8,0,3.704,,,140,-0.3,8.6,,,,,,,,,wg-a,,,,AAXX 17184 07168 32/// /1402 10080 20080 39976 40119 51004 91800 333 10086 21003=
07168,1996-12-18 00:00:00,9,1011.9,-0.3,93,8,0,0,,,0,,,,,,,,,,,wg-a,,,,AAXX 18004 07168 12/// /0000 10090 20080 39976 40119 58003 60016 90000=
07168,1996-12-18 06:00:00,8,1009.8,-1.2,93,7,8000,11.112,,,160,6.4,10.1,,,,,6,,,,wg-a,,,,AAXX 18064 07168 02658 71606 10080 20070 39955 40098 56012 60006 875// 90600 333 10101 20064 60064=
07168,1996-12-18 09:00:00,7,1009.3,-0.5,100,7,15000,7.408,,,110,,,,,,,,,,,wg-a,,,,AAXX 18094 07168 12665 31104 10070 20070 39950 40093 56005 60006 81501 90900=
07168,1996-12-18 12:00:00,12,1007.3,-1.8,76,8,15000,14.816,,,140,,,,,,,,,,,wg-a,,,,AAXX 18124 07168 12/65 31408 10120 20080 39932 40073 58018 60006 81031 91200=
07168,1996-12-18 15:00:00,12,1005.1,-2.1,76,8,20000,11.112,,,140,,,,,,,,,,,wg-a,,,,AAXX 18154 07168 12/70 51406 10120 20080 39911 40051 56021 60006 84031 91500=
07168,1996-12-18 18:00:00,10,1004.7,-0.5,82,7,0,11.112,,,160,3.8,12.7,,,,,,,,,wg-a,,,,AAXX 18184 07168 12/// /1606 10100 20070 39906 40047 57005 60006 91800 333 10127 20038=
07168,1996-12-19 00:00:00,9,1003.1,-0.6,87,7,0,11.112,,,150,,,,,,,,,,,wg-a,,,,AAXX 19004 07168 12/// /1506 10090 20070 39889 40031 56006 60006 90000=
07168,1996-12-19 06:00:00,8,1001.2,-1,100,8,6000,7.408,,,140,8,10.3,,,,,,,,21,wg-a,,,,AAXX 19064 07168 02456 81404 10080 20080 39871 40012 56010 61000 72162 875// 90600 333 10103 20080 6001=
07168,1996-12-19 09:00:00,10,1001.4,0.2,93,9,12000,14.816,,,190,,,,,,,,,,,wg-a,,,,AAXX 19094 07168 12462 81908 10100 20090 39873 40014 53002 60006 875// 90900=
07168,1996-12-19 12:00:00,11,1001.2,-0.1,94,10,7000,11.112,,,200,,,,,,,,,,,wg-a,,,,AAXX 19124 07168 12357 82006 10110 20100 39872 40012 58001 60006 876// 91200=
07168,1996-12-19 15:00:00,11,1000.4,-0.8,94,10,12000,3.704,,,170,,,,,,,,,,,wg-a,,,,AAXX 19154 07168 12362 81702 10110 20100 39864 40004 56008 60006 876// 91500=
07168,1996-12-19 18:00:00,10,1000.4,-0.1,93,9,0,0,,,0,8.4,11,,,,,,,,,wg-a,,,,AAXX 19184 07168 12/// /0000 10100 20090 39863 40004 58001 60006 91800 333 10110 20084=
07168,1996-12-20 00:00:00,9,999.9,-0.2,100,9,0,7.408,,,140,,,,,,,,,,,wg-a,,,,AAXX 20004 07168 12/// /1404 10090 20090 39858 49999 58002 60016 90000=
07168,1996-12-20 06:00:00,9,999.5,-0,100,9,3000,3.704,,,200,9,9.7,,,,,1,,,10,wg-a,,,,AAXX 20064 07168 02330 82002 10090 20090 39854 49995 55000 60006 71062 886// 90600 333 10097 20090 60014=
07168,1996-12-20 09:00:00,10,1001,1.5,93,9,6000,11.112,,,240,,,,,,,,,,,wg-a,,,,AAXX 20094 07168 12356 82406 10100 20090 39869 40010 53015 60006 886// 90900=
07168,1996-12-20 12:00:00,11,1001.8,0.9,87,9,16000,11.112,,,220,,,,,,,,,,,wg-a,,,,AAXX 20124 07168 12466 82206 10110 20090 39878 40018 51009 60006 885// 91200=
07168,1996-12-20 15:00:00,10,1002.2,0.3,93,9,16000,7.408,,,200,,,,,,,,,,,wg-a,,,,AAXX 20154 07168 12466 72004 10100 20090 39881 40022 53003 60006 878// 91500=
07168,1996-12-20 18:00:00,9,1003.4,1.1,93,8,0,0,,,0,8.4,10.9,,,,,,,,,wg-a,,,,AAXX 20184 07168 12/// /0000 10090 20080 39892 40034 53011 60006 91800 333 10109 20084=
07168,1996-12-21 00:00:00,4,1005.1,0.5,100,4,0,3.704,,,210,,,,,,,,,,,wg-a,,,,AAXX 21004 07168 12/// /2102 10040 20040 39906 40051 52005 60006 90000=
07168,1996-12-21 06:00:00,5,1006.4,0.5,100,5,2500,14.816,,,90,2.9,8.8,,,,,,,,10,wg-a,,,,AAXX 21064 07168 02125 80908 10050 20050 39920 40064 51005 60006 71042 886// 90600 333 10088 20029 60004=
07168,1996-12-21 09:00:00,6,1007.5,1.1,100,6,7000,14.816,,,100,,,,,,,,,,,wg-a,,,,AAXX 21094 07168 12357 81008 10060 20060 39931 40075 51011 60006 886// 90900=
07168,1996-12-21 12:00:00,6,1007.3,-0.2,93,5,7000,22.224,,,60,,,,,,,,,,,wg-a,,,,AAXX 21124 07168 12357 80612 10060 20050 39929 40073 58002 60006 885// 91200=
07168,1996-12-21 15:00:00,5,1007,-0.3,93,4,6000,18.52,,,70,,,,,,,,,,,wg-a,,,,AAXX 21154 07168 12356 80710 10050 20040 39926 40070 55003 60006 886// 91500=
07168,1996-12-21 18:00:00,4,1007.5,0.4,93,3,0,14.816,,,70,4.2,6.4,,,,,,,,,wg-a,,,,AAXX 21184 07168 12/// /0708 10040 20030 39930 40075 51004 60006 91800 333 10064 20042=
07168,1996-12-22 00:00:00,4,1008.4,0.4,100,4,0,14.816,,,70,,,,,,,,,,,wg-a,,,,AAXX 22004 07168 12/// /0708 10040 20040 39939 40084 51004 60026 90000=
07168,1996-12-22 06:00:00,5,1007.8,0.2,93,4,6000,14.816,,,80,4.1,4.9,,,,,2,,,,wg-a,,,,AAXX 22064 07168 02356 80808 10050 20040 39934 40078 51002 60006 887// 90600 333 10049 20041 60024=
07168,1996-12-22 09:00:00,5,1008.5,0.7,93,4,6000,14.816,,,70,,,,,,,,,,,wg-a,,,,AAXX 22094 07168 12356 80708 10050 20040 39941 40085 52007 60006 885// 90900=
07168,1996-12-22 12:00:00,6,1007.3,-1.2,93,5,7000,14.816,,,80,,,,0,,,,,,,wg-a,,,,AAXX 22124 07168 02657 80808 10060 20050 39929 40073 58012 60006 86502 91200 333 60007=
07168,1996-12-22 15:00:00,6,1006.3,-1,93,5,7000,14.816,,,80,,,,,,,,,,,wg-a,,,,AAXX 22154 07168 12757 80808 10060 20050 39919 40063 56010 60006 8657/ 91500=
07168,1996-12-22 18:00:00,5,1005,-1.3,100,5,0,7.408,,,70,4.7,6.4,,,,,,,,,wg-a,,,,AAXX 22184 07168 32/// /0704 10050 20050 39906 40050 58013 91800 333 10064 20047=
07168,1996-12-23 00:00:00,4,1002.3,-1.5,100,4,0,14.816,,,70,,,,,,,,,,,wg-a,,,,AAXX 23004 07168 12/// /0708 10040 20040 39879 40023 58015 60026 90000=
07168,1996-12-23 06:00:00,4,998.5,-1.6,93,3,2500,7.408,,,340,3.4,5.5,,,,,,,,10,wg-a,,,,AAXX 23064 07168 02125 83404 10040 20030 39841 49985 56016 61000 71062 887// 90600 333 10055 20034 6004=
07168,1996-12-23 09:00:00,3,998.7,0.2,93,2,1600,11.112,,,350,,,,0,,,,,,10,wg-a,,,,AAXX 23094 07168 12116 83506 10030 20020 39843 49987 53002 60007 71065 887// 90900=
07168,1996-12-23 12:00:00,3,998.3,-0.4,93,2,4000,11.112,,,10,,,,1,,,,,,10,wg-a,,,,AAXX 23124 07168 02240 80106 10030 20020 39839 49983 58004 60016 71065 887// 91200 333 60017=
07168,1996-12-23 15:00:00,2,999.3,0.9,93,1,3500,18.52,,,20,,,,0,,,,,,10,wg-a,,,,AAXX 23154 07168 12235 80210 10020 20010 39848 49993 53009 60007 71052 877// 91500=
07168,1996-12-23 18:00:00,1,1000.5,1.2,93,0,0,14.816,,,30,0.9,3.6,,,,,,,,,wg-a,,,,AAXX 23184 07168 32/// /0308 10010 20000 39860 40005 51012 91800 333 10036 20009=
07168,1996-12-24 00:00:00,-1,1001.9,0.2,93,-2,0,25.928,,,60,,,,,,,,,,,wg-a,,,,AAXX 24004 07168 02/// /0614 11010 21020 39872 40019 51002 61000 90000 333 ////=
07168,1996-12-24 06:00:00,-2,1001.3,-0.2,93,-3,500,22.224,,,70,-1.8,0.9,,,,,,,,70,wg-a,,1,,AAXX 24064 07168 02400 80712 11020 21030 39866 40013 58002 61000 77072 875// 90600 333 10009 21018 4/001 6002=
07168,1996-12-24 09:00:00,-1,1002.1,0.8,86,-3,8000,18.52,,,70,,,,0,,,,,,2,wg-a,,,,AAXX 24094 07168 12558 80710 11010 21030 39874 40021 51008 60007 70262 875// 90900=
07168,1996-12-24 12:00:00,-1,1002.7,0.6,86,-3,0,18.52,,,60,,,,,,,,,,,wg-a,,,,AAXX 24124 07168 12/// /0610 11010 21030 39880 40027 51006 60016 91200=
07168,1996-12-24 15:00:00,-1,1003.1,0.4,86,-3,500,22.224,,,60,,,,0,,,,,,66,wg-a,,,,AAXX 24154 07168 12400 80612 11010 21030 39884 40031 53004 60007 76665 875// 91500=
07168,1996-12-24 18:00:00,-1,1004.2,1.1,86,-3,0,18.52,,,60,-1.8,-0.9,,,,,,,,,wg-a,,,,AAXX 24184 07168 32/// /0610 11010 21030 39895 40042 51011 91800 333 11009 21018=
07168,1996-12-25 00:00:00,-2,1007.3,1.5,80,-5,0,14.816,,,40,,,,,,,,,,,wg-a,,,,AAXX 25004 07168 12/// /0408 11020 21050 39925 40073 51015 60006 90000=
07168,1996-12-25 06:00:00,-4,1010.3,1.7,86,-6,8000,18.52,,,40,-3.9,-1.2,,,,,1,,,,wg-a,,1,,AAXX 25064 07168 02458 80410 11040 21060 39953 40103 53017 60006 885// 90600 333 11012 21039 4/001 60014=
07168,1996-12-25 09:00:00,-6,1013.2,2.8,79,-9,9000,14.816,,,30,,,,,,,,,,,wg-a,,,,AAXX 25094 07168 12459 /0308 11060 21090 39981 40132 52028 60006 81500 90900=
07168,1996-12-25 12:00:00,-4,1014.9,1.8,74,-8,10000,22.224,,,40,,,,,,,,,,,wg-a,,,,AAXX 25124 07168 12/60 00412 11040 21080 39999 40149 51018 60006 80000 91200=
07168,1996-12-25 15:00:00,-2,1017.4,2.5,59,-9,12000,22.224,,,40,,,,,,,,,,,wg-a,,,,AAXX 25154 07168 12/62 00412 11020 21090 30024 40174 53025 60006 80000 91500=
07168,1996-12-25 18:00:00,-4,1020.9,3.4,68,-9,0,18.52,,,40,-6,-2.1,,,,,,,,,wg-a,,,,AAXX 25184 07168 12/// /0410 11040 21090 30058 40209 51034 60006 91800 333 11021 21060=
07168,1996-12-26 00:00:00,-5,1027.3,2.8,79,-8,0,7.408,,,40,,,,,,,,,,,wg-a,,,,AAXX 26004 07168 12/// /0404 11050 21080 30120 40273 51028 60006 90000=
07168,1996-12-26 06:00:00,-5,1033,2.6,73,-9,10000,25.928,,,50,-5.4,-3.8,,,,,,,,,wg-a,,1,,AAXX 26064 07168 02/60 00514 11050 21090 30176 40330 51026 60006 80000 90600 333 11038 21054 4/001 60004=
07168,1996-12-26 09:00:00,-5,1035.7,2.7,73,-9,16000,14.816,,,70,,,,,,,,,,,wg-a,,,,AAXX 26094 07168 12/66 00708 11050 21090 30203 40357 51027 60006 80000 90900=
07168,1996-12-26 12:00:00,-3,1036.9,1.3,63,-9,16000,25.928,,,60,,,,,,,,,,,wg-a,,,,AAXX 26124 07168 12/66 00614 11030 21090 30216 40369 51013 60006 80000 91200=
07168,1996-12-26 15:00:00,-3,1038.4,1.5,63,-9,16000,18.52,,,60,,,,,,,,,,,wg-a,,,,AAXX 26154 07168 12/66 00610 11030 21090 30231 40384 51015 60006 80000 91500=
07168,1996-12-26 18:00:00,-5,1039,0.4,73,-9,0,18.52,,,70,-6,-2.2,,,,,,,,,wg-a,,,,AAXX 26184 07168 12/// /0710 11050 21090 30235 40390 50004 60006 91800 333 11022 21060=
07168,1996-12-27 00:00:00,-8,1037.5,-2.3,79,-11,0,11.112,,,100,,,,,,,,,,,wg-a,,,,AAXX 27004 07168 12/// /1006 11080 21110 30219 40375 56023 60006 90000=
07168,1996-12-27 06:00:00,-8,1033.7,-2.2,79,-11,9000,3.704,,,70,-9.6,-5.5,,,,,,,,,wg-a,,,,AAXX 27064 07168 02/59 70702 11080 21110 30182 40337 56022 60006 80002 90600 333 11055 21096 60004=
07168,1996-12-27 09:00:00,-8,1032,-1.7,85,-10,20000,0,,,0,,,,,,,,,,,wg-a,,,,AAXX 27094 07168 12/70 50000 11080 21100 30165 40320 56017 60006 85030 90900=
07168,1996-12-27 12:00:00,-4,1028.2,-3.5,68,-9,25000,7.408,,,250,,,,,,,,,,,wg-a,,,,AAXX 27124 07168 12/75 52504 11040 21090 30130 40282 56035 60006 85030 91200=
07168,1996-12-27 15:00:00,-4,1025.4,-2.8,68,-9,25000,3.704,,,300,,,,,,,,,,,wg-a,,,,AAXX 27154 07168 12/75 73002 11040 21090 30102 40254 56028 60006 8703/ 91500=
07168,1996-12-27 18:00:00,-8,1023.9,-1.7,85,-10,0,0,,,0,-9.2,-3.5,,,,,,,,,wg-a,,,,AAXX 27184 07168 12/// /0000 11080 21100 30085 40239 58017 60006 91800 333 11035 21092=
07168,1996-12-28 00:00:00,-6,1020.4,-1.4,86,-8,0,7.408,,,360,,,,,,,,,,,wg-a,,,,AAXX 28004 07168 12/// /3604 11060 21080 30052 40204 57014 60006 90000=
07168,1996-12-28 06:00:00,-10,1020,-0.2,85,-12,8000,18.52,,,50,-9.5,-5.7,,,,,,,,,wg-a,,1,,AAXX 28064 07168 02/58 /0510 11100 21120 30046 40200 55002 60006 80002 90600 333 11057 21095 4/001 60004=
07168,1996-12-28 09:00:00,-10,1020.8,0.7,79,-13,10000,14.816,,,40,,,,,,,,,,,wg-a,,,,AAXX 28094 07168 12/60 20408 11100 21130 30053 40208 52007 60006 80001 90900=
07168,1996-12-28 12:00:00,-7,1019.9,-0.7,67,-12,12000,18.52,,,50,,,,,,,,,,,wg-a,,,,AAXX 28124 07168 12562 30510 11070 21120 30046 40199 58007 60006 82101 91200=
07168,1996-12-28 15:00:00,-7,1019.5,-0.4,57,-14,15000,22.224,,,50,,,,,,,,,,,wg-a,,,,AAXX 28154 07168 12/65 10512 11070 21140 30042 40195 55004 60006 80001 91500=
07168,1996-12-28 18:00:00,-9,1020.5,0.9,67,-14,0,7.408,,,10,-10.7,-6.4,,,,,,,,,wg-a,,,,AAXX 28184 07168 12/// /0104 11090 21140 30051 40205 52009 60006 91800 333 11064 21107=
07168,1996-12-29 00:00:00,-11,1020.3,-0.3,78,-14,0,7.408,,,40,,,,,,,,,,,wg-a,,,,AAXX 29004 07168 12/// /0404 11110 21140 30048 40203 58003 60006 90000=
07168,1996-12-29 06:00:00,-11,1019.8,-0.8,72,-15,7000,7.408,,,20,-11.7,-8.8,,,,,,,,,wg-a,,1,,AAXX 29064 07168 02/57 00204 11110 21150 30043 40198 58008 60006 80000 90600 333 11088 21117 4/001 60004=
07168,1996-12-29 09:00:00,-12,1020.7,0.8,85,-14,10000,7.408,,,310,,,,,,,,,,,wg-a,,,,AAXX 29094 07168 12/60 03104 11120 21140 30051 40207 51008 60006 80000 90900=
07168,1996-12-29 12:00:00,-7,1019.1,-1.3,62,-13,10000,14.816,,,60,,,,,,,,,,,wg-a,,,,AAXX 29124 07168 12/60 00608 11070 21130 30038 40191 58013 60006 80000 91200=
07168,1996-12-29 15:00:00,-5,1017.8,-1.2,53,-13,10000,11.112,,,30,,,,,,,,,,,wg-a,,,,AAXX 29154 07168 12/60 10306 11050 21130 30026 40178 56012 60006 80001 91500=
07168,1996-12-29 18:00:00,-10,1016.7,-1.3,85,-12,0,7.408,,,310,-14.3,-5.4,,,,,,,,,wg-a,,,,AAXX 29184 07168 12/// /3104 11100 21120 30013 40167 58013 60006 91800 333 11054 21143=
07168,1996-12-30 00:00:00,-6,1011.3,-3,79,-9,0,18.52,,,220,,,,,,,,,,,wg-a,,,,AAXX 30004 07168 12/// /2210 11060 21090 39962 40113 58030 60006 90000=
07168,1996-12-30 06:00:00,-4,1004.9,-2.5,93,-5,2000,31.484,,,280,-9.7,-3.7,,,,,,,,36,wg-a,,2,,AAXX 30064 07168 02420 82817 11040 21050 39900 40049 56025 61000 73673 887// 90600 333 11037 21097 4/002 6100=
07168,1996-12-30 09:00:00,-3,1006.2,1.4,100,-3,8000,18.52,,,10,,,,0,,,,,,2,wg-a,,,,AAXX 30094 07168 12458 80110 11030 21030 39914 40062 53014 60007 70273 885// 90900=
07168,1996-12-30 12:00:00,-2,1006.5,0.3,86,-4,10000,14.816,,,10,,,,,,,,,,1,wg-a,,,,AAXX 30124 07168 02560 50108 11020 21040 39917 40065 51003 60006 70173 85800 91200 333 61000=
07168,1996-12-30 15:00:00,-2,1006.5,-0,74,-6,15000,3.704,,,30,,,,,,,,,,,wg-a,,,,AAXX 30154 07168 12565 70302 11020 21060 39917 40065 55000 60006 875// 91500=
07168,1996-12-30 18:00:00,-3,1006.7,0.1,93,-4,0,14.816,,,280,-5.3,-1.7,,,,,,,,,wg-a,,,,AAXX 30184 07168 32/// /2808 11030 21040 39918 40067 51001 91800 333 11017 21053=
07168,1996-12-31 00:00:00,-4,1007.1,0.3,93,-5,0,14.816,,,300,,,,,,,,,,,wg-a,,,,AAXX 31004 07168 12/// /3008 11040 21050 39922 40071 51003 60006 90000=
07168,1996-12-31 06:00:00,-14,1010.3,1,85,-16,7000,11.112,,,280,-14.2,-2.7,,,,,,,,1,wg-a,,2,,AAXX 31064 07168 02457 /2806 11140 21160 39947 40103 53010 60006 70172 86500 90600 333 11027 21142 4/002 60004=
07168,1996-12-31 09:00:00,-15,1011.9,1.6,92,-16,500,11.112,,,330,,,,,,,,,,,wg-a,,,,AAXX 31094 07168 12700 23306 11150 21160 39963 40119 53016 60006 82500 90900=
07168,1996-12-31 12:00:00,-10,1012.8,1.2,85,-12,500,7.408,,,310,,,,,,,,,,,wg-a,,,,AAXX 31124 07168 12600 33104 11100 21120 39975 40128 51012 60006 83530 91200=
07168,1996-12-31 15:00:00,-10,1013.9,1.1,85,-12,500,3.704,,,300,,,,,,,,,,,wg-a,,,,AAXX 31154 07168 12500 33002 11100 21120 39986 40139 53011 60006 81530 91500=
07168,1996-12-31 18:00:00,-9,1014.7,0.8,92,-10,0,7.408,,,330,-15.1,-8.8,,,,,,,,,wg-a,,,,AAXX 31184 07168 12/// /3304 11090 21100 39994 40147 51008 60006 91800 333 11088 21151=
