station_id,dh_utc,temperature,pression,pression_variation_3h,humidite,point_de_rosee,visibilite,vent_moyen,vent_rafales,vent_rafales_10min,vent_direction,temperature_min,temperature_max,pluie_1h,pluie_3h,pluie_6h,pluie_12h,pluie_24h,ensoleillement,temperature_sol,temps_omm,source,radiations,neige_au_sol,nebulosite,raw_msg
07168,1997-01-01 00:00:00,-11,1014.4,-0.5,85,-13,0,11.112,,,20,,,,,,,,,,,wg-a,,,,AAXX 01004 07168 12/// /0206 11110 21130 39990 40144 58005 60006 90000=
07168,1997-01-01 06:00:00,-16,1015.8,1.1,92,-17,500,7.408,,,310,-17.2,-8.7,,,,,,,,,wg-a,,,,AAXX 01064 07168 02/00 /3104 11160 21170 30001 40158 53011 60006 80001 90600 333 11087 21172 60004=
07168,1997-01-01 09:00:00,-12,1017,1.4,78,-15,500,11.112,,,50,,,,,,,,,,,wg-a,,,,AAXX 01094 07168 12/00 70506 11120 21150 30015 40170 53014 60006 85031 90900=
07168,1997-01-01 12:00:00,-10,1017.5,0.6,72,-14,3000,14.816,,,60,,,,,,,,,,71,wg-a,,,,AAXX 01124 07168 02430 80608 11100 21140 30021 40175 50006 61000 77172 885// 91200 333 6100=
07168,1997-01-01 18:00:00,-11,1019.7,0.9,92,-12,0,3.704,,,350,-15.6,-9.1,,,,,,,,,wg-a,,,,AAXX 01184 07168 32/// /3502 11110 21120 30042 40197 53009 91800 333 11091 21156=
07168,1997-01-02 00:00:00,-9,1021.1,0.7,85,-11,0,3.704,,,120,,,,,,,,,,,wg-a,,,,AAXX 02004 07168 12/// /1202 11090 21110 30057 40211 51007 60006 90000=
07168,1997-01-02 06:00:00,-21,1020.7,-0.8,77,-24,1100,3.704,,,350,-21.3,-9.1,,,,,1,,,40,wg-a,,5,,AAXX 02064 07168 02111 /3502 11210 21240 30045 40207 57008 60006 74022 85600 90600 333 11091 21213 4/005 60014=
07168,1997-01-02 09:00:00,-18,1020.4,-0.1,84,-20,1200,3.704,,,340,,,,,,,,,,10,wg-a,,,,AAXX 02094 07168 12112 83402 11180 21200 30044 40204 58001 60006 71022 886// 90900=
07168,1997-01-02 12:00:00,-13,1018.2,-1.8,92,-14,3000,3.704,,,300,,,,,,,,,,10,wg-a,,,,AAXX 02124 07168 12230 /3002 11130 21140 30026 40182 58018 60006 71022 83602 91200=
07168,1997-01-02 15:00:00,-12,1016,-2.1,92,-13,4500,11.112,,,310,,,,,,,,,,10,wg-a,,,,AAXX 02154 07168 12/45 73106 11120 21130 30005 40160 56021 60006 71022 86032 91500=
07168,1997-01-02 18:00:00,-10,1014.3,-1.6,92,-11,0,11.112,,,330,-21.8,-9.1,,,,,,,,,wg-a,,,,AAXX 02184 07168 12/// /3306 11100 21110 39989 40143 58016 60006 91800 333 11091 21218=
07168,1997-01-03 00:00:00,-7,1011.6,-0.5,79,-10,0,7.408,,,10,,,,,,,,,,,wg-a,,,,AAXX 03004 07168 12/// /0104 11070 21100 39964 40116 57005 60006 90000=
07168,1997-01-03 06:00:00,-8,1009,-1.1,92,-9,4000,14.816,,,310,-10.3,-7.2,,,,,1,,,10,wg-a,,8,,AAXX 03064 07168 02540 73108 11080 21090 39938 40090 55011 60006 71072 875// 90600 333 11072 21103 4/008 60014=
07168,1997-01-03 09:00:00,-7,1008.7,-0.2,93,-8,2800,7.408,,,40,,,,,,,,,,10,wg-a,,,,AAXX 03094 07168 12428 80404 11070 21080 39936 40087 58002 60006 71022 885// 90900=
07168,1997-01-03 12:00:00,-5,1006.9,-1.7,86,-7,3000,14.816,,,40,,,,,,,,,,10,wg-a,,,,AAXX 03124 07168 12430 80408 11050 21070 39919 40069 58017 60006 71022 885// 91200=
07168,1997-01-03 15:00:00,-4,1005.1,-1.7,86,-6,3000,14.816,,,40,,,,,,,,,,10,wg-a,,,,AAXX 03154 07168 12430 80408 11040 21060 39902 40051 56017 60006 71022 885// 91500=
07168,1997-01-03 18:00:00,-3,1003.3,-1.7,86,-5,0,11.112,,,60,-8.2,-2.9,,,,,,,,,wg-a,,,,AAXX 03184 07168 12/// /0606 11030 21050 39885 40033 56017 60006 91800 333 11029 21082=
07168,1997-01-04 00:00:00,-3,1001.7,-0.4,93,-4,0,11.112,,,20,,,,,,,,,,,wg-a,,,,AAXX 04004 07168 12/// /0206 11030 21040 39869 40017 58004 60006 90000=
07168,1997-01-04 06:00:00,-4,1000.8,-0,93,-5,4000,14.816,,,20,-3.8,-2.7,,,,,,,,10,wg-a,,7,,AAXX 04064 07168 02440 80208 11040 21050 39860 40008 55000 60006 71022 885// 90600 333 11027 21038 4/007 60004=
07168,1997-01-04 09:00:00,-4,1002.2,1.3,86,-6,4000,11.112,,,10,,,,,,,,,,10,wg-a,,,,AAXX 04094 07168 12440 80106 11040 21060 39873 40022 51013 60006 71022 885// 90900=
07168,1997-01-04 12:00:00,-4,1001.6,-0.5,93,-5,4000,11.112,,,10,,,,,,,,,,10,wg-a,,,,AAXX 04124 07168 12340 80106 11040 21050 39868 40016 58005 60006 71022 887// 91200=
07168,1997-01-04 15:00:00,-3,1002.9,1.3,93,-4,3500,7.408,,,340,,,,,,,,,,10,wg-a,,,,AAXX 04154 07168 02335 83404 11030 21040 39881 40029 53013 61000 71072 887// 91500 333 ////=
07168,1997-01-04 18:00:00,-5,1003.8,0.8,100,-5,0,14.816,,,310,-4.6,-3.3,,,,,,,,,wg-a,,,,AAXX 04184 07168 32/// /3108 11050 21050 39889 40038 52008 91800 333 11033 21046=
07168,1997-01-05 00:00:00,-4,1006.7,1.3,93,-5,0,11.112,,,270,,,,,,,,,,,wg-a,,,,AAXX 05004 07168 12/// /2706 11040 21050 39918 40067 53013 60016 90000=
07168,1997-01-05 06:00:00,-4,1008.5,0.4,100,-4,1500,3.704,,,170,-4.7,-3.7,,,,,1,,,10,wg-a,,8,,AAXX 05064 07168 02315 81702 11040 21040 39936 40085 53004 60006 71022 886// 90600 333 11037 21047 4/008 60014=
07168,1997-01-05 09:00:00,-3,1010.7,2.2,93,-4,2500,3.704,,,160,,,,,,,,,,10,wg-a,,,,AAXX 05094 07168 12425 81602 11030 21040 39958 40107 51022 60006 71022 886// 90900=
07168,1997-01-05 12:00:00,-3,1011.5,0.8,86,-5,3000,7.408,,,100,,,,0,,,,,,10,wg-a,,,,AAXX 05124 07168 02430 81004 11030 21050 39966 40115 51008 60006 71022 885// 91200 333 60007=
07168,1997-01-05 15:00:00,-2,1012,0.5,80,-5,4000,7.408,,,80,,,,,,,,,,10,wg-a,,,,AAXX 05154 07168 12440 80804 11020 21050 39971 40120 53005 60006 71022 885// 91500=
07168,1997-01-05 18:00:00,-2,1013.4,1.4,80,-5,0,7.408,,,80,-3.8,-2.1,,,,,,,,,wg-a,,,,AAXX 05184 07168 12/// /0804 11020 21050 39985 40134 52014 60006 91800 333 11021 21038=
07168,1997-01-06 00:00:00,-6,1015.7,0.9,93,-7,0,11.112,,,90,,,,,,,,,,,wg-a,,,,AAXX 06004 07168 12/// /0906 11060 21070 30006 40157 52009 60006 90000=
07168,1997-01-06 06:00:00,-13,1017.5,0.5,,,1200,3.704,,,190,-14,-1.7,,,,,,,,10,wg-a,,8,,AAXX 06064 07168 02112 71902 11130 2//// 30019 40175 53005 60006 71041 876// 90600 333 11017 21140 4/008 60004=
07168,1997-01-06 09:00:00,-9,1018.3,1,92,-10,800,7.408,,,350,,,,,,,,,,42,wg-a,,,,AAXX 06094 07168 12108 83504 11090 21100 30029 40183 53010 60006 74242 885// 90900=
07168,1997-01-06 12:00:00,-5,1017.6,-0.4,93,-6,1800,11.112,,,310,,,,,,,,,,10,wg-a,,,,AAXX 06124 07168 12718 83106 11050 21060 30025 40176 58004 60006 71042 885// 91200=
07168,1997-01-06 15:00:00,-4,1018.1,0.5,93,-5,1000,14.816,,,30,,,,,,,,,,10,wg-a,,,,AAXX 06154 07168 12210 80308 11040 21050 30030 40181 53005 60006 71022 886// 91500=
07168,1997-01-06 18:00:00,-5,1018.9,0.8,93,-6,0,7.408,,,20,-15,-3.7,,,,,,,,,wg-a,,,,AAXX 06184 07168 12/// /0204 11050 21060 30038 40189 51008 60006 91800 333 11037 21150=
07168,1997-01-07 00:00:00,-5,1019,-0.3,93,-6,0,14.816,,,300,,,,,,,,,,,wg-a,,,,AAXX 07004 07168 12/// /3008 11050 21060 30038 40190 57003 60006 90000=
07168,1997-01-07 06:00:00,-5,1019.1,-0,93,-6,500,7.408,,,330,-5.3,-4.6,,,,,,,,,wg-a,,8,,AAXX 07064 07168 02400 83304 11050 21060 30040 40191 55000 60006 875// 90600 333 11046 21053 4/008 60004=
07168,1997-01-07 12:00:00,-4,1019.5,-0.3,86,-6,6000,3.704,,,360,,,,,,,,,,,wg-a,,,,AAXX 07124 07168 12/56 /3602 11040 21060 30044 40195 58003 60006 91200=
07168,1997-01-07 15:00:00,-4,1018.7,-0.8,86,-6,500,3.704,,,40,,,,,,,,,,,wg-a,,,,AAXX 07154 07168 12400 80402 11040 21060 30036 40187 56008 60006 875// 91500=
07168,1997-01-07 18:00:00,-4,1018.2,-0.5,93,-5,0,7.408,,,70,-5.1,-3.6,,,,,,,,,wg-a,,,,AAXX 07184 07168 12/// /0704 11040 21050 30031 40182 56005 60006 91800 333 11036 21051=
07168,1997-01-08 00:00:00,-3,1015,-1.7,86,-5,0,7.408,,,90,,,,,,,,,,,wg-a,,,,AAXX 08004 07168 12/// /0904 11030 21050 30000 40150 56017 60006 90000=
07168,1997-01-08 06:00:00,-2,1010.5,-2.5,86,-4,500,14.816,,,90,-3.6,-2.3,,,,,,,,,wg-a,,7,,AAXX 08064 07168 02400 80908 11020 21040 39956 40105 56025 60006 885// 90600 333 11023 21036 4/007 60004=
07168,1997-01-08 09:00:00,-3,1009,-1.5,93,-4,500,18.52,,,80,,,,,,,,,,,wg-a,,,,AAXX 08094 07168 12400 80810 11030 21040 39941 40090 56015 60006 886// 90900=
07168,1997-01-08 12:00:00,-1,1007,-1.8,93,-2,500,14.816,,,90,,,,,,,,,,,wg-a,,,,AAXX 08124 07168 12400 80908 11010 21020 39923 40070 58018 60006 86502 91200=
07168,1997-01-08 15:00:00,-1,1005.2,-1.8,93,-2,6000,3.704,,,300,,,,,,,,,,,wg-a,,,,AAXX 08154 07168 12656 83002 11010 21020 39905 40052 56018 60006 84572 91500=
07168,1997-01-08 18:00:00,2,1004.7,-0.4,93,1,0,7.408,,,130,-2.8,1.8,,,,,,,,,wg-a,,,,AAXX 08184 07168 32/// /1304 10020 20010 39901 40047 56004 91800 333 10018 21028=
07168,1997-01-09 00:00:00,1,1003.8,-0.5,93,0,0,14.816,,,90,,,,,,,,,,,wg-a,,,,AAXX 09004 07168 12/// /0908 10010 20000 39892 40038 56005 60026 90000=
07168,1997-01-09 06:00:00,0,1003.2,-0.3,100,0,2500,3.704,,,80,0.2,2.5,,,,,3,,,10,wg-a,,5,,AAXX 09064 07168 02225 80802 10000 20000 39886 40032 55003 60006 71022 885// 90600 333 10025 20002 4/005 60034=
07168,1997-01-09 09:00:00,1,1004.5,1.3,93,0,3000,3.704,,,50,,,,,,,,,,10,wg-a,,,,AAXX 09094 07168 12430 80502 10010 20000 39899 40045 53013 60006 71022 885// 90900=
07168,1997-01-09 12:00:00,1,1005,0.5,93,0,3000,7.408,,,50,,,,0,,,,,,10,wg-a,,,,AAXX 09124 07168 02330 80504 10010 20000 39904 40050 50005 60006 71022 885// 91200 333 60007=
07168,1997-01-09 15:00:00,1,1006.5,1.4,93,0,2500,3.704,,,330,,,,,,,,,,10,wg-a,,,,AAXX 09154 07168 12225 83302 10010 20000 39918 40065 53014 60006 71022 886// 91500=
07168,1997-01-09 18:00:00,0,1008,1.5,93,-1,0,3.704,,,340,-0.1,1,,,,,,,,,wg-a,,,,AAXX 09184 07168 32/// /3402 10000 21010 39933 40080 51015 91800 333 10010 21001=
07168,1997-01-10 00:00:00,-1,1011.2,1.8,100,-1,0,11.112,,,350,,,,,,,,,,,wg-a,,,,AAXX 10004 07168 12/// /3506 11010 21010 39964 40112 51018 60006 90000=
07168,1997-01-10 06:00:00,-1,1014.6,2,93,-2,2000,11.112,,,340,-1.1,0.1,,,,,,,,10,wg-a,,2,,AAXX 10064 07168 02320 83406 11010 21020 39998 40146 51020 60006 71022 886// 90600 333 10001 21011 4/002 60004=
07168,1997-01-10 09:00:00,-2,1017.7,3,93,-3,2500,14.816,,,360,,,,,,,,,,10,wg-a,,,,AAXX 10094 07168 12425 83608 11020 21030 30028 40177 53030 60006 71022 885// 90900=
07168,1997-01-10 12:00:00,-2,1019.2,1.4,93,-3,3000,11.112,,,30,,,,,,,,,,10,wg-a,,,,AAXX 10124 07168 12230 80306 11020 21030 30042 40192 51014 60006 71022 886// 91200=
07168,1997-01-10 15:00:00,-3,1021.3,2,93,-4,2000,11.112,,,50,,,,,,,,,,10,wg-a,,,,AAXX 10154 07168 12220 80506 11030 21040 30062 40213 53020 60006 71022 886// 91500=
07168,1997-01-10 18:00:00,-3,1022.4,1.1,93,-4,0,7.408,,,80,-3.6,-0.8,,,,,,,,,wg-a,,,,AAXX 10184 07168 12/// /0804 11030 21040 30073 40224 50011 60006 91800 333 11008 21036=
07168,1997-01-11 00:00:00,-3,1025.3,1.3,93,-4,0,3.704,,,10,,,,,,,,,,,wg-a,,,,AAXX 11004 07168 12/// /0102 11030 21040 30102 40253 51013 60006 90000=
07168,1997-01-11 06:00:00,-3,1026.2,0.7,100,-3,2000,3.704,,,200,-3.6,-2.9,,,,,,,,10,wg-a,,2,,AAXX 11064 07168 02220 82002 11030 21030 30111 40262 53007 60006 71022 886// 90600 333 11029 21036 4/002 60004=
07168,1997-01-11 09:00:00,-2,1028,1.8,93,-3,4500,3.704,,,270,,,,,,,,,,10,wg-a,,,,AAXX 11094 07168 12345 82702 11020 21030 30129 40280 53018 60006 71022 886// 90900=
07168,1997-01-11 12:00:00,-1,1028.1,0.2,93,-2,500,3.704,,,160,,,,,,,,,,,wg-a,,,,AAXX 11124 07168 12300 81602 11010 21020 30131 40281 50002 60006 886// 91200=
07168,1997-01-11 15:00:00,0,1028.3,0.2,86,-2,4000,7.408,,,150,,,,,,,,,,10,wg-a,,,,AAXX 11154 07168 12440 71504 10000 21020 30133 40283 53002 60006 71022 8763/ 91500=
07168,1997-01-11 18:00:00,-1,1029.4,1,93,-2,0,3.704,,,110,-2.9,0,,,,,,,,,wg-a,,,,AAXX 11184 07168 12/// /1102 11010 21020 30143 40294 51010 60006 91800 333 10000 21029=
07168,1997-01-12 00:00:00,-5,1030.4,0.5,93,-6,0,3.704,,,130,,,,,,,,,,,wg-a,,,,AAXX 12004 07168 12/// /1302 11050 21060 30151 40304 52005 60006 90000=
07168,1997-01-12 06:00:00,-8,1030.5,-0.1,100,-8,3000,7.408,,,180,-7.9,-0.7,,,,,,,,10,wg-a,,2,,AAXX 12064 07168 02/30 01804 11080 21080 30150 40305 57001 60006 71000 80000 90600 333 11007 21079 4/002 60004=
07168,1997-01-12 09:00:00,-5,1031.2,0.9,93,-6,3000,7.408,,,120,,,,,,,,,,10,wg-a,,,,AAXX 12094 07168 12/30 21204 11050 21060 30159 40312 51009 60006 71000 80001 90900=
07168,1997-01-12 12:00:00,-2,1030.3,-0.7,80,-5,4000,3.704,,,60,,,,,,,,,,10,wg-a,,,,AAXX 12124 07168 12740 20602 11020 21050 30152 40303 58007 60006 71000 81501 91200=
07168,1997-01-12 15:00:00,0,1029.5,-0.7,74,-4,500,7.408,,,70,,,,,,,,,,,wg-a,,,,AAXX 12154 07168 12/00 /0704 10000 21040 30145 40295 56007 60006 80001 91500=
07168,1997-01-12 18:00:00,-4,1029.5,-0.2,93,-5,0,0,,,0,-7.8,0.2,,,,,,,,,wg-a,,,,AAXX 12184 07168 12/// /0000 11040 21050 30143 40295 55002 60006 91800 333 10002 21078=
07168,1997-01-13 00:00:00,-5,1029.1,-0.6,93,-6,0,7.408,,,110,,,,,,,,,,,wg-a,,,,AAXX 13004 07168 12/// /1104 11050 21060 30138 40291 58006 60006 90000=
07168,1997-01-13 06:00:00,-7,1028.1,-0.5,93,-8,7000,3.704,,,120,-7.4,-3.5,,,,,,,,,wg-a,,1,,AAXX 13064 07168 02/57 01202 11070 21080 30127 40281 55005 60006 80000 90600 333 11035 21074 4/001 60004=
07168,1997-01-13 09:00:00,-5,1028.6,0.6,86,-7,4000,3.704,,,160,,,,,,,,,,10,wg-a,,,,AAXX 13094 07168 12/40 /1602 11050 21070 30133 40286 53006 60006 71000 80001 90900=
07168,1997-01-13 12:00:00,-1,1027.7,-0.6,74,-5,500,7.408,,,80,,,,,,,,,,,wg-a,,,,AAXX 13124 07168 12/00 /0804 11010 21050 30127 40277 58006 60006 80001 91200=
07168,1997-01-13 15:00:00,1,1026.2,-1.4,69,-4,6000,7.408,,,50,,,,,,,,,,,wg-a,,,,AAXX 13154 07168 12/56 /0504 10010 21040 30113 40262 56014 60006 80001 91500=
07168,1997-01-13 18:00:00,-4,1026.3,-0.2,86,-6,0,3.704,,,90,-8,0.8,,,,,,,,,wg-a,,,,AAXX 13184 07168 12/// /0902 11040 21060 30111 40263 58002 60006 91800 333 10008 21080=
07168,1997-01-14 00:00:00,-6,1025.7,-0.7,86,-8,0,7.408,,,160,,,,,,,,,,,wg-a,,,,AAXX 14004 07168 12/// /1604 11060 21080 30104 40257 58007 60006 90000=
07168,1997-01-14 06:00:00,-8,1025.2,-0.2,85,-10,4000,3.704,,,130,-8.5,-2.4,,,,,,,,10,wg-a,,1,,AAXX 14064 07168 02/40 01302 11080 21100 30098 40252 55002 60006 71000 80000 90600 333 11024 21085 4/001 60004=
07168,1997-01-14 09:00:00,-6,1025.3,0.2,86,-8,500,11.112,,,180,,,,,,,,,,,wg-a,,,,AAXX 14094 07168 12/00 01806 11060 21080 30100 40253 53002 60006 80000 90900=
07168,1997-01-14 12:00:00,1,1024.4,-0.5,75,-3,500,7.408,,,180,,,,,,,,,,,wg-a,,,,AAXX 14124 07168 12/00 01804 10010 21030 30095 40244 58005 60006 80000 91200=
07168,1997-01-14 15:00:00,4,1023.4,-0.8,65,-2,6000,3.704,,,190,,,,,,,,,,,wg-a,,,,AAXX 14154 07168 12/56 01902 10040 21020 30087 40234 56008 60006 80000 91500=
07168,1997-01-14 18:00:00,-4,1024.4,0.5,86,-6,0,3.704,,,130,-8.9,4.7,,,,,,,,,wg-a,,,,AAXX 14184 07168 12/// /1302 11040 21060 30092 40244 52005 60006 91800 333 10047 21089=
07168,1997-01-15 06:00:00,-7,1025.5,0.3,100,-7,6000,0,,,0,-7.2,-4.1,,,,,,,,,wg-a,,1,,AAXX 15064 07168 02/56 00000 11070 21070 30102 40255 53003 60006 80000 90600 333 11041 21072 4/001 60004=
07168,1997-01-15 09:00:00,-2,1026.3,1,86,-4,8000,3.704,,,150,,,,,,,,,,,wg-a,,,,AAXX 15094 07168 12/58 01502 11020 21040 30112 40263 53010 60006 80000 90900=
07168,1997-01-15 12:00:00,5,1025.5,-0.4,65,-1,8000,3.704,,,250,,,,,,,,,,,wg-a,,,,AAXX 15124 07168 12/58 02502 10050 21010 30108 40255 58004 60006 80000 91200=
07168,1997-01-15 15:00:00,3,1024.6,-1,75,-1,7000,7.408,,,300,,,,,,,,,,,wg-a,,,,AAXX 15154 07168 12/57 03004 10030 21010 30098 40246 56010 60006 80000 91500=
07168,1997-01-15 18:00:00,-1,1025,0.2,86,-3,0,7.408,,,290,-7.5,6,,,,,,,,,wg-a,,,,AAXX 15184 07168 12/// /2904 11010 21030 30100 40250 52002 60006 91800 333 10060 21075=
07168,1997-01-16 00:00:00,-4,1024.7,-0.1,93,-5,0,11.112,,,170,,,,,,,,,,,wg-a,,,,AAXX 16004 07168 12/// /1706 11040 21050 30095 40247 58001 60006 90000=
07168,1997-01-16 06:00:00,-5,1022.5,-1.1,93,-6,6000,7.408,,,150,-6.3,-0.7,,,,,,,,,wg-a,,,,AAXX 16064 07168 02/56 /1504 11050 21060 30073 40225 56011 60006 90600 333 11007 21063 60004=
07168,1997-01-16 09:00:00,-2,1022.9,0.5,86,-4,9000,7.408,,,180,,,,,,,,,,,wg-a,,,,AAXX 16094 07168 12/59 01804 11020 21040 30078 40229 51005 60006 80000 90900=
07168,1997-01-16 12:00:00,6,1021.4,-1,61,-1,9000,3.704,,,220,,,,,,,,,,,wg-a,,,,AAXX 16124 07168 12/59 02202 10060 21010 30068 40214 58010 60006 80000 91200=
07168,1997-01-16 15:00:00,8,1019.8,-1.5,61,1,9000,0,,,0,,,,,,,,,,,wg-a,,,,AAXX 16154 07168 12/59 00000 10080 20010 30053 40198 56015 60006 80000 91500=
07168,1997-01-16 18:00:00,-1,1019.5,-0.7,93,-2,0,11.112,,,160,-6.7,8.7,,,,,,,,,wg-a,,,,AAXX 16184 07168 12/// /1606 11010 21020 30046 40195 56007 60006 91800 333 10087 21067=
07168,1997-01-17 00:00:00,2,1018.5,-0.6,80,-1,0,11.112,,,130,,,,,,,,,,,wg-a,,,,AAXX 17004 07168 12/// /1306 10020 21010 30038 40185 58006 60006 90000=
07168,1997-01-17 06:00:00,1,1016.9,-0.7,86,-1,8000,14.816,,,140,-2.5,2.2,,,,,,,,,wg-a,,0,,AAXX 17064 07168 02/58 01408 10010 21010 30021 40169 56007 60006 80000 90600 333 10022 21025 4/9999 60004=
07168,1997-01-17 09:00:00,2,1016.9,0.1,87,0,10000,14.816,,,160,,,,,,,,,,,wg-a,,,,AAXX 17094 07168 12/60 21608 10020 20000 30022 40169 53001 60006 81031 90900=
07168,1997-01-17 12:00:00,7,1016.4,-0.2,66,1,12000,18.52,,,180,,,,,,,,,,,wg-a,,,,AAXX 17124 07168 12/62 31810 10070 20010 30020 40164 56002 60006 81031 91200=
07168,1997-01-17 15:00:00,8,1016.3,-0.1,71,3,14000,11.112,,,150,,,,,,,,,,,wg-a,,,,AAXX 17154 07168 12664 /1506 10080 20030 30019 40163 55001 60006 81551 91500=
07168,1997-01-17 18:00:00,5,1017.2,0.7,87,3,0,11.112,,,160,-1.5,8.7,,,,,,,,,wg-a,,,,AAXX 17184 07168 12/// /1606 10050 20030 30026 40172 51007 60006 91800 333 10087 21015=
07168,1997-01-18 06:00:00,4,1020.2,0.6,100,4,1500,11.112,,,280,2.8,5.7,,,,,,,,10,wg-a,,,,AAXX 18064 07168 02315 82806 10040 20040 30055 40202 52006 60006 71042 876// 90600 333 10057 20028 61000=
07168,1997-01-18 09:00:00,3,1021.2,1,100,3,300,3.704,,,70,,,,,,,,,,44,wg-a,,,,AAXX 18094 07168 12103 80702 10030 20030 30065 40212 51010 60006 74442 886// 90900=
07168,1997-01-18 12:00:00,5,1020.1,-1,100,5,1000,0,,,0,,,,,,,,,,10,wg-a,,,,AAXX 18124 07168 12210 80000 10050 20050 30055 40201 58010 60006 71042 886// 91200=
07168,1997-01-18 15:00:00,5,1017.5,-2.6,100,5,500,11.112,,,80,,,,,,,,,,,wg-a,,,,AAXX 18154 07168 12400 80806 10050 20050 30029 40175 56026 60006 885// 91500=
07168,1997-01-18 18:00:00,4,1015.8,-1.7,100,4,0,11.112,,,90,2.4,5,,,,,,,,,wg-a,,,,AAXX 18184 07168 12/// /0906 10040 20040 30012 40158 57017 60006 91800 333 10050 20024=
07168,1997-01-19 00:00:00,3,1012.2,-1.9,93,2,0,14.816,,,160,,,,,,,,,,,wg-a,,,,AAXX 19004 07168 12/// /1608 10030 20020 39976 40122 57019 60006 90000=
07168,1997-01-19 06:00:00,4,1010.7,-0.6,100,4,500,11.112,,,160,2.3,5.4,,,,,2,,,2,wg-a,,,,AAXX 19064 07168 02600 71606 10040 20040 39962 40107 56006 60006 70262 875// 90600 333 10054 20023 60024=
07168,1997-01-19 09:00:00,4,1011.7,0.9,100,4,6000,11.112,,,160,,,,,,,,,,,wg-a,,,,AAXX 19094 07168 12556 81606 10040 20040 39971 40117 53009 60006 875// 90900=
07168,1997-01-19 12:00:00,6,1011.6,0.1,93,5,8000,14.816,,,190,,,,1,,,,,,61,wg-a,,,,AAXX 19124 07168 02558 81908 10060 20050 39972 40116 50001 60016 76162 875// 91200 333 60017=
07168,1997-01-19 15:00:00,6,1011.7,0.1,93,5,10000,3.704,,,180,,,,3,,,,,,61,wg-a,,,,AAXX 19154 07168 12560 81802 10060 20050 39973 40117 53001 60037 76166 875// 91500=
07168,1997-01-19 18:00:00,3,1013.3,1.4,100,3,0,3.704,,,280,3.1,6.1,,,,,,,,,wg-a,,,,AAXX 19184 07168 32/// /2802 10030 20030 39987 40133 53014 91800 333 10061 20031=
07168,1997-01-20 00:00:00,1,1016.4,1.1,100,1,0,7.408,,,170,,,,,,,,,,,wg-a,,,,AAXX 20004 07168 12/// /1704 10010 20010 30016 40164 53011 60006 90000=
07168,1997-01-20 06:00:00,0,1017.5,0.8,100,0,100,11.112,,,300,0,3.5,,,,,6,,,45,wg-a,,,,AAXX 20064 07168 02/01 93006 10000 20000 30027 40175 53008 60006 74542 89/// 90600 333 10035 20000 60064=
07168,1997-01-20 09:00:00,2,1019.3,1.8,100,2,400,7.408,,,330,,,,,,,,,,44,wg-a,,,,AAXX 20094 07168 12104 83304 10020 20020 30045 40193 53018 60006 74444 886// 90900=
07168,1997-01-20 12:00:00,5,1021.2,2.1,100,5,500,11.112,,,330,,,,,,,,,,1,wg-a,,,,AAXX 20124 07168 12200 73306 10050 20050 30066 40212 51021 60006 70142 875// 91200=
07168,1997-01-20 15:00:00,6,1021.6,0.4,93,5,6000,11.112,,,20,,,,,,,,,,,wg-a,,,,AAXX 20154 07168 12356 70206 10060 20050 30070 40216 53004 60006 878// 91500=
07168,1997-01-20 18:00:00,5,1023.3,1.6,93,4,0,14.816,,,20,0.2,7.4,,,,,,,,,wg-a,,,,AAXX 20184 07168 12/// /0208 10050 20040 30086 40233 51016 60006 91800 333 10074 20002=
07168,1997-01-21 00:00:00,2,1025.1,0.5,100,2,0,7.408,,,30,,,,,,,,,,,wg-a,,,,AAXX 21004 07168 12/// /0304 10020 20020 30103 40251 51005 60006 90000=
07168,1997-01-21 06:00:00,3,1024,-0.2,93,2,500,14.816,,,50,2,4.6,,,,,,,,,wg-a,,,,AAXX 21064 07168 02400 70508 10030 20020 30092 40240 55002 60006 875// 90600 333 10046 20020 60004=
07168,1997-01-21 09:00:00,4,1024,0.1,93,3,6000,11.112,,,70,,,,,,,,,,,wg-a,,,,AAXX 21094 07168 12456 70706 10040 20030 30093 40240 53001 60006 8357/ 90900=
07168,1997-01-21 12:00:00,7,1022.8,-1.1,81,4,8000,18.52,,,90,,,,,,,,,,,wg-a,,,,AAXX 21124 07168 12458 /0910 10070 20040 30082 40228 58011 60006 83830 91200=
07168,1997-01-21 15:00:00,7,1021.1,-1.6,76,3,9000,14.816,,,90,,,,,,,,,,,wg-a,,,,AAXX 21154 07168 12659 /0908 10070 20030 30066 40211 56016 60006 85500 91500=
07168,1997-01-21 18:00:00,5,1020.3,-0.9,81,2,0,7.408,,,100,2.8,7,,,,,,,,,wg-a,,,,AAXX 21184 07168 12/// /1004 10050 20020 30057 40203 55009 60006 91800 333 10070 20028=
07168,1997-01-22 00:00:00,7,1018.7,-0.5,81,4,0,14.816,,,120,,,,,,,,,,,wg-a,,,,AAXX 22004 07168 12/// /1208 10070 20040 30042 40187 55005 60006 90000=
07168,1997-01-22 06:00:00,3,1018.3,-0.5,93,2,10000,14.816,,,180,2.8,7.8,,,,,,,,,wg-a,,,,AAXX 22064 07168 02/60 51808 10030 20020 30036 40183 55005 60006 85030 90600 333 10078 20028 60004=
07168,1997-01-22 09:00:00,6,1019.3,1.2,87,4,16000,14.816,,,180,,,,,,,,,,,wg-a,,,,AAXX 22094 07168 12/66 81808 10060 20040 30048 40193 53012 60006 85038 90900=
07168,1997-01-22 12:00:00,11,1019.5,0.4,76,7,18000,7.408,,,140,,,,,,,,,,,wg-a,,,,AAXX 22124 07168 12/68 71404 10110 20070 30052 40195 50004 60006 8707/ 91200=
07168,1997-01-22 15:00:00,12,1018.8,-0.6,76,8,18000,11.112,,,160,,,,,,,,,,,wg-a,,,,AAXX 22154 07168 12768 71606 10120 20080 30046 40188 55006 60006 8357/ 91500=
07168,1997-01-22 18:00:00,8,1019.4,0.3,87,6,0,11.112,,,170,2.5,12.7,,,,,,,,,wg-a,,,,AAXX 22184 07168 32/// /1706 10080 20060 30049 40194 53003 91800 333 10127 20025=
07168,1997-01-23 00:00:00,6,1021,0.7,93,5,0,3.704,,,190,,,,,,,,,,,wg-a,,,,AAXX 23004 07168 02/// /1902 10060 20050 30064 40210 50007 61000 90000 333 ////=
07168,1997-01-23 06:00:00,3,1021.9,0.3,100,3,1500,3.704,,,140,3.4,7.7,,,,,1,,,11,wg-a,,,,AAXX 23064 07168 02615 41402 10030 20030 30072 40219 51003 60006 71100 84500 90600 333 10077 20034 60014=
07168,1997-01-23 09:00:00,6,1023,1.2,93,5,4000,0,,,0,,,,,,,,,,10,wg-a,,,,AAXX 23094 07168 12640 80000 10060 20050 30084 40230 51012 60006 71041 8/57/ 90900=
07168,1997-01-23 12:00:00,10,1022.7,-0.1,93,9,4000,3.704,,,160,,,,0,,,,,,10,wg-a,,,,AAXX 23124 07168 02640 71602 10100 20090 30083 40227 58001 60006 71054 8357/ 91200 333 60007=
07168,1997-01-23 15:00:00,12,1021.7,-0.9,88,10,7000,7.408,,,70,,,,,,,,,,,wg-a,,,,AAXX 23154 07168 12/57 70704 10120 20100 30074 40217 56009 60006 85032 91500=
07168,1997-01-23 18:00:00,9,1022.4,0.6,93,8,0,3.704,,,150,3.4,12.4,,,,,,,,,wg-a,,,,AAXX 23184 07168 32/// /1502 10090 20080 30080 40224 53006 91800 333 10124 20034=
07168,1997-01-24 00:00:00,8,1024.3,1.2,93,7,0,11.112,,,170,,,,,,,,,,,wg-a,,,,AAXX 24004 07168 12/// /1706 10080 20070 30098 40243 53012 60016 90000=
07168,1997-01-24 06:00:00,7,1024.8,0.5,93,6,4500,7.408,,,110,5.7,9,,,,,1,,,10,wg-a,,,,AAXX 24064 07168 02745 71104 10070 20060 30102 40248 53005 60006 71062 875// 90600 333 10090 20057 60014=
07168,1997-01-24 09:00:00,8,1026.2,1.5,93,7,9000,3.704,,,350,,,,,,,,,,,wg-a,,,,AAXX 24094 07168 12759 83502 10080 20070 30117 40262 51015 60006 875// 90900=
07168,1997-01-24 15:00:00,11,1027.1,0.3,82,8,500,0,,,0,,,,,,,,,,,wg-a,,,,AAXX 24154 07168 12700 70000 10110 20080 30127 40271 53003 60006 8351/ 91500=
07168,1997-01-25 00:00:00,2,1030.3,0.7,100,2,0,7.408,,,320,,,,,,,,,,,wg-a,,,,AAXX 25004 07168 12/// /3204 10020 20020 30154 40303 53007 60006 90000=
07168,1997-01-25 06:00:00,2,1030.5,0.4,100,2,100,3.704,,,20,1,6.8,,,,,,,,45,wg-a,,,,AAXX 25064 07168 02/01 90202 10020 20020 30156 40305 53004 60006 74542 89/// 90600 333 10068 20010 60004=
07168,1997-01-25 09:00:00,2,1031.9,1.4,100,2,300,11.112,,,80,,,,,,,,,,42,wg-a,,,,AAXX 25094 07168 12103 80806 10020 20020 30170 40319 53014 60006 74244 886// 90900=
07168,1997-01-25 12:00:00,4,1030.7,-1.1,100,4,2000,7.408,,,60,,,,,,,,,,10,wg-a,,,,AAXX 25124 07168 12220 80604 10040 20040 30159 40307 58011 60006 71042 886// 91200=
07168,1997-01-25 15:00:00,8,1029.7,-0.8,87,6,4000,11.112,,,40,,,,,,,,,,10,wg-a,,,,AAXX 25154 07168 12340 80406 10080 20060 30151 40297 58008 60006 71022 886// 91500=
07168,1997-01-25 18:00:00,7,1030.3,0.6,93,6,0,7.408,,,60,1.6,7.9,,,,,,,,,wg-a,,,,AAXX 25184 07168 12/// /0604 10070 20060 30157 40303 52006 60006 91800 333 10079 20016=
07168,1997-01-26 00:00:00,0,1030.2,-0.5,93,-1,0,11.112,,,310,,,,,,,,,,,wg-a,,,,AAXX 26004 07168 12/// /3106 10000 21010 30152 40302 58005 60006 90000=
07168,1997-01-26 06:00:00,2,1029.2,-0.6,93,1,1500,11.112,,,70,-0.6,7.1,,,,,,,,40,wg-a,,,,AAXX 26064 07168 02215 80706 10020 20010 30143 40292 56006 60006 74022 886// 90600 333 10071 21006 60004=
07168,1997-01-26 09:00:00,3,1029.4,0.2,87,1,8000,11.112,,,40,,,,,,,,,,,wg-a,,,,AAXX 26094 07168 12458 80406 10030 20010 30145 40294 53002 60006 885// 90900=
07168,1997-01-26 12:00:00,4,1029.2,-0.1,81,1,12000,7.408,,,40,,,,,,,,,,,wg-a,,,,AAXX 26124 07168 12462 80404 10040 20010 30144 40292 58001 60006 885// 91200=
07168,1997-01-26 15:00:00,4,1028.4,-0.8,81,1,12000,7.408,,,10,,,,,,,,,,,wg-a,,,,AAXX 26154 07168 12462 80104 10040 20010 30136 40284 56008 60006 885// 91500=
07168,1997-01-26 18:00:00,3,1029,0.6,87,1,0,7.408,,,10,2.1,3.9,,,,,,,,,wg-a,,,,AAXX 26184 07168 12/// /0104 10030 20010 30142 40290 53006 60006 91800 333 10039 20021=
07168,1997-01-27 00:00:00,2,1029.4,0.1,93,1,0,11.112,,,320,,,,,,,,,,,wg-a,,,,AAXX 27004 07168 12/// /3206 10020 20010 30145 40294 51001 60006 90000=
07168,1997-01-27 06:00:00,1,1030.6,0.7,93,0,6000,7.408,,,320,1.2,3,,,,,,,,,wg-a,,,,AAXX 27064 07168 02356 83204 10010 20000 30156 40306 53007 60006 885// 90600 333 10030 20012 60004=
07168,1997-01-27 09:00:00,2,1032,1.4,87,0,1500,7.408,,,350,,,,,,,,,,10,wg-a,,,,AAXX 27094 07168 12215 83504 10020 20000 30170 40320 53014 60006 71022 885// 90900=
07168,1997-01-27 12:00:00,2,1032.9,0.9,87,0,6000,18.52,,,320,,,,,,,,,,,wg-a,,,,AAXX 27124 07168 12356 83210 10020 20000 30179 40329 51009 60006 886// 91200=
07168,1997-01-27 15:00:00,1,1033.1,0.2,80,-2,8000,18.52,,,330,,,,,,,,,,,wg-a,,,,AAXX 27154 07168 12458 83310 10010 21020 30181 40331 53002 60006 885// 91500=
07168,1997-01-27 18:00:00,1,1034.6,1.4,69,-4,0,11.112,,,340,0.5,1.9,,,,,,,,,wg-a,,,,AAXX 27184 07168 12/// /3406 10010 21040 30195 40346 51014 60006 91800 333 10019 20005=
07168,1997-01-28 00:00:00,0,1035.2,-0.2,86,-2,0,7.408,,,320,,,,,,,,,,,wg-a,,,,AAXX 28004 07168 12/// /3204 10000 21020 30201 40352 58002 60006 90000=
07168,1997-01-28 06:00:00,0,1035.8,0.3,80,-3,6000,11.112,,,30,-0.2,0.6,,,,,,,,,wg-a,,,,AAXX 28064 07168 02556 70306 10000 21030 30207 40358 53003 60006 875// 90600 333 10006 21002 60004=
07168,1997-01-28 09:00:00,-1,1037.3,1.4,86,-3,500,11.112,,,20,,,,,,,,,,,wg-a,,,,AAXX 28094 07168 12700 /0206 11010 21030 30221 40373 51014 60006 85500 90900=
07168,1997-01-28 12:00:00,2,1037.5,0.4,80,-1,6000,14.816,,,50,,,,,,,,,,,wg-a,,,,AAXX 28124 07168 12456 70508 10020 21010 30225 40375 50004 60006 875// 91200=
07168,1997-01-28 15:00:00,4,1037,-0.4,75,0,6000,14.816,,,20,,,,,,,,,,,wg-a,,,,AAXX 28154 07168 12456 40208 10040 20000 30221 40370 56004 60006 84500 91500=
07168,1997-01-28 18:00:00,1,1038.3,1.1,86,-1,0,11.112,,,20,-1.1,4,,,,,,,,,wg-a,,,,AAXX 28184 07168 12/// /0206 10010 21010 30232 40383 53011 60006 91800 333 10040 21011=
07168,1997-01-29 00:00:00,0,1039.5,0.5,86,-2,0,11.112,,,50,,,,,,,,,,,wg-a,,,,AAXX 29004 07168 12/// /0506 10000 21020 30243 40395 51005 60006 90000=
07168,1997-01-29 06:00:00,0,1040.1,0.1,86,-2,6000,7.408,,,80,-1.3,1.3,,,,,,,,,wg-a,,,,AAXX 29064 07168 02456 80804 10000 21020 30249 40401 50001 60006 885// 90600 333 10013 21013 60004=
07168,1997-01-29 09:00:00,1,1040.2,0.2,80,-2,7000,11.112,,,70,,,,,,,,,,,wg-a,,,,AAXX 29094 07168 12457 80706 10010 21020 30251 40402 51002 60006 885// 90900=
07168,1997-01-29 12:00:00,1,1039.4,-0.8,80,-2,7000,14.816,,,50,,,,,,,,,,,wg-a,,,,AAXX 29124 07168 12457 80508 10010 21020 30243 40394 58008 60006 885// 91200=
07168,1997-01-29 15:00:00,2,1038.4,-1,75,-2,8000,11.112,,,70,,,,,,,,,,,wg-a,,,,AAXX 29154 07168 12458 70706 10020 21020 30233 40384 56010 60006 875// 91500=
07168,1997-01-29 18:00:00,-1,1038.3,-0.2,86,-3,0,3.704,,,70,-0.9,1.6,,,,,,,,,wg-a,,,,AAXX 29184 07168 12/// /0702 11010 21030 30231 40383 55002 60006 91800 333 10016 21009=
07168,1997-01-30 00:00:00,-3,1037.5,-0.6,93,-4,0,3.704,,,90,,,,,,,,,,,wg-a,,,,AAXX 30004 07168 12/// /0902 11030 21040 30222 40375 56006 60006 90000=
07168,1997-01-30 06:00:00,-2,1036.8,-0.6,93,-3,6000,0,,,0,-4.5,-0.9,,,,,,,,,wg-a,,,,AAXX 30064 07168 02456 70000 11020 21030 30216 40368 56006 60006 875// 90600 333 11009 21045 60004=
07168,1997-01-30 09:00:00,0,1037.5,0.8,86,-2,6000,11.112,,,110,,,,,,,,,,,wg-a,,,,AAXX 30094 07168 12456 81106 10000 21020 30224 40375 53008 60006 885// 90900=
07168,1997-01-30 12:00:00,0,1037,-0.5,86,-2,6000,11.112,,,70,,,,,,,,,,,wg-a,,,,AAXX 30124 07168 12456 80706 10000 21020 30219 40370 58005 60006 885// 91200=
07168,1997-01-30 15:00:00,1,1036,-1,80,-2,6000,11.112,,,70,,,,,,,,,,,wg-a,,,,AAXX 30154 07168 12456 80706 10010 21020 30209 40360 58010 60006 885// 91500=
07168,1997-01-30 18:00:00,-1,1036,-0.1,86,-3,0,0,,,0,-2,0.7,,,,,,,,,wg-a,,,,AAXX 30184 07168 12/// /0000 11010 21030 30208 40360 55001 60006 91800 333 10007 21020=
07168,1997-01-31 00:00:00,-4,1035.5,-0.1,93,-5,0,3.704,,,320,,,,,,,,,,,wg-a,,,,AAXX 31004 07168 12/// /3202 11040 21050 30201 40355 58001 60006 90000=
07168,1997-01-31 09:00:00,-1,1035,0.2,86,-3,2500,11.112,,,120,,,,,,,,,,10,wg-a,,,,AAXX 31094 07168 12325 81206 11010 21030 30198 40350 53002 60006 71022 886// 90900=
07168,1997-01-31 12:00:00,-1,1034.3,-0.6,93,-2,3000,11.112,,,80,,,,,,,,,,10,wg-a,,,,AAXX 31124 07168 12330 80806 11010 21020 30192 40343 58006 60006 71022 886// 91200=
07168,1997-01-31 15:00:00,0,1033.1,-1.2,86,-2,500,14.816,,,70,,,,,,,,,,,wg-a,,,,AAXX 31154 07168 12300 80708 10000 21020 30180 40331 56012 60006 886// 91500=
07168,1997-01-31 18:00:00,0,1033.1,0,80,-3,0,11.112,,,70,-1.4,-0.1,,,,,,,,,wg-a,,,,AAXX 31184 07168 12/// /0706 10000 21030 30180 40331 50000 60006 91800 333 11001 21014=
07168,1997-02-01 00:00:00,-1,1032.7,-0.3,93,-2,0,7.408,,,80,,,,,,,,,,,wg-a,,,,AAXX 01004 07168 12/// /0804 11010 21020 30176 40327 58003 60006 90000=
07168,1997-02-01 06:00:00,-1,1031.7,-0.4,93,-2,3000,7.408,,,70,-3.9,0.1,,,,,,,,10,wg-a,,,,AAXX 01064 07168 02430 80704 11010 21020 30166 40317 55004 60006 71022 886// 90600 333 10001 21039 60004=
07168,1997-02-01 09:00:00,0,1031.8,0.1,93,-1,3000,7.408,,,80,,,,,,,,,,10,wg-a,,,,AAXX 01094 07168 12430 80804 10000 21010 30167 40318 50001 60006 71022 886// 90900=
07168,1997-02-01 15:00:00,1,1030.4,-0.6,80,-2,7000,11.112,,,100,,,,,,,,,,,wg-a,,,,AAXX 01154 07168 12457 81006 10010 21020 30154 40304 56006 60006 886// 91500=
07168,1997-02-01 18:00:00,0,1030.4,-0,86,-2,0,14.816,,,130,-1,1.5,,,,,,,,,wg-a,,,,AAXX 01184 07168 12/// /1308 10000 21020 30154 40304 55000 60006 91800 333 10015 21010=
07168,1997-02-02 06:00:00,-2,1027.9,-0.7,93,-3,1500,7.408,,,180,-2.1,0.3,,,,,,,,10,wg-a,,,,AAXX 02064 07168 02215 81804 11020 21030 30128 40279 56007 60006 71022 886// 90600 333 10003 21021 60004=
07168,1997-02-02 09:00:00,-2,1028.5,0.6,93,-3,2000,3.704,,,160,,,,,,,,,,10,wg-a,,,,AAXX 02094 07168 12220 81602 11020 21030 30134 40285 52006 60006 71022 886// 90900=
07168,1997-02-02 12:00:00,-2,1028.7,0.2,93,-3,3000,3.704,,,170,,,,,,,,,,10,wg-a,,,,AAXX 02124 07168 12230 81702 11020 21030 30136 40287 51002 60006 71022 886// 91200=
07168,1997-02-02 15:00:00,-1,1028.6,-0.1,86,-3,4000,0,,,0,,,,,,,,,,10,wg-a,,,,AAXX 02154 07168 12340 80000 11010 21030 30135 40286 55001 60006 71022 886// 91500=
07168,1997-02-02 18:00:00,-1,1029.1,0.5,86,-3,0,0,,,0,-2.1,-0.9,,,,,,,,,wg-a,,,,AAXX 02184 07168 12/// /0000 11010 21030 30140 40291 53005 60006 91800 333 11009 21021=
07168,1997-02-03 06:00:00,-1,1029.6,0.3,93,-2,800,7.408,,,170,-1.5,-0.8,,,,,,,,44,wg-a,,,,AAXX 03064 07168 02108 81704 11010 21020 30145 40296 50003 60006 74442 886// 90600 333 11008 21015 60004=
07168,1997-02-03 09:00:00,-1,1030.5,0.9,93,-2,2000,3.704,,,200,,,,,,,,,,10,wg-a,,,,AAXX 03094 07168 12220 82002 11010 21020 30154 40305 52009 60006 71042 886// 90900=
07168,1997-02-03 12:00:00,0,1030.6,0.2,93,-1,1500,3.704,,,290,,,,,,,,,,10,wg-a,,,,AAXX 03124 07168 12215 82902 10000 21010 30156 40306 50002 60006 71042 876// 91200=
07168,1997-02-03 15:00:00,1,1030.1,-0.5,93,0,1000,3.704,,,310,,,,,,,,,,10,wg-a,,,,AAXX 03154 07168 12110 83102 10010 20000 30151 40301 55005 60006 71022 876// 91500=
07168,1997-02-03 18:00:00,1,1030.1,-0,93,0,0,3.704,,,200,-1.2,1.1,,,,,,,,,wg-a,,,,AAXX 03184 07168 12/// /2002 10010 20000 30151 40301 55000 60006 91800 333 10011 21012=
07168,1997-02-04 00:00:00,1,1029.4,-0.3,100,1,0,3.704,,,230,,,,,,,,,,,wg-a,,,,AAXX 04004 07168 12/// /2302 10010 20010 30145 40294 58003 60006 90000=
07168,1997-02-04 06:00:00,2,1027.3,-1.2,93,1,2500,14.816,,,180,0.4,1.9,,,,,,,,10,wg-a,,,,AAXX 04064 07168 02325 81808 10020 20010 30124 40273 57012 60006 71022 886// 90600 333 10019 20004 60004=
07168,1997-02-04 12:00:00,5,1025.4,-1.5,81,2,6000,18.52,,,180,,,,,,,,,,,wg-a,,,,AAXX 04124 07168 12456 /1810 10050 20020 30107 40254 58015 60006 84502 91200=
07168,1997-02-04 15:00:00,7,1022.9,-2.4,76,3,10000,22.224,,,200,,,,,,,,,,,wg-a,,,,AAXX 04154 07168 12660 72012 10070 20030 30083 40229 56024 60006 81532 91500=
07168,1997-02-04 18:00:00,5,1021.8,-1.1,81,2,0,25.928,,,190,1.9,6.8,,,,,,,,,wg-a,,,,AAXX 04184 07168 12/// /1914 10050 20020 30072 40218 58011 60006 91800 333 10068 20019=
07168,1997-02-05 00:00:00,5,1019.9,-1.2,87,3,0,31.484,,,200,,,,,,,,,,,wg-a,,,,AAXX 05004 07168 12/// /2017 10050 20030 30053 40199 58012 60016 90000=
07168,1997-02-05 06:00:00,6,1015.2,-2.3,87,4,500,38.892,,,210,4.3,5.7,,,,,,,,50,wg-a,,,,AAXX 05064 07168 02300 82121 10060 20040 30007 40152 56023 61000 75065 885// 90600 333 10057 20043 6002=
07168,1997-02-05 09:00:00,7,1015.8,0.7,93,6,8000,29.632,,,230,,,,1,,,,,,60,wg-a,,,,AAXX 05094 07168 12358 82316 10070 20060 30014 40158 53007 60017 76065 885// 90900=
07168,1997-02-05 12:00:00,9,1018.9,3.1,87,7,15000,29.632,,,290,,,,,,,,,,1,wg-a,,,,AAXX 05124 07168 02465 72916 10090 20070 30045 40189 51031 60016 70165 872// 91200 333 61000=
07168,1997-02-05 15:00:00,8,1022.6,3.6,81,5,12000,29.632,,,320,,,,1,,,,,,25,wg-a,,,,AAXX 05154 07168 12462 /3216 10080 20050 30081 40226 53036 60017 72586 85200 91500=
07168,1997-02-05 18:00:00,5,1027.7,4.9,87,3,0,14.816,,,330,5.3,9.7,,,,,,,,,wg-a,,,,AAXX 05184 07168 32/// /3308 10050 20030 30130 40277 53049 91800 333 10097 20053=
07168,1997-02-06 00:00:00,-1,1033,1.3,93,-2,0,3.704,,,150,,,,,,,,,,,wg-a,,,,AAXX 06004 07168 12/// /1502 11010 21020 30179 40330 51013 60006 90000=
07168,1997-02-06 06:00:00,0,1034.4,0.5,100,0,200,18.52,,,150,-3.1,5.3,,,,,2,,,45,wg-a,,,,AAXX 06064 07168 02/02 91510 10000 20000 30193 40344 53005 60006 74542 89/// 90600 333 10053 21031 60024=
07168,1997-02-06 09:00:00,2,1034.5,0.2,93,1,2000,11.112,,,140,,,,,,,,,,10,wg-a,,,,AAXX 06094 07168 12/20 /1406 10020 20010 30195 40345 50002 60006 71042 85030 90900=
07168,1997-02-06 12:00:00,8,1033.9,-0.3,66,2,12000,14.816,,,170,,,,,,,,,,1,wg-a,,,,AAXX 06124 07168 12/62 01708 10080 20020 30192 40339 58003 60006 70141 80000 91200=
07168,1997-02-06 15:00:00,10,1032.4,-1.3,53,1,20000,18.52,,,190,,,,,,,,,,,wg-a,,,,AAXX 06154 07168 12/70 01910 10100 20010 30179 40324 56013 60006 80000 91500=
07168,1997-02-06 18:00:00,1,1032.1,-0.8,86,-1,0,3.704,,,190,0.1,10.1,,,,,,,,,wg-a,,,,AAXX 06184 07168 12/// /1902 10010 21010 30171 40321 56008 60006 91800 333 10101 20001=
07168,1997-02-07 00:00:00,-1,1031.1,-0.5,80,-4,0,3.704,,,140,,,,,,,,,,,wg-a,,,,AAXX 07004 07168 12/// /1402 11010 21040 30160 40311 57005 60006 90000=
07168,1997-02-07 06:00:00,-3,1030.5,-0.2,93,-4,10000,7.408,,,150,-4.5,1.5,,,,,,,,,wg-a,,,,AAXX 07064 07168 02/60 01504 11030 21040 30153 40305 57002 60006 80000 90600 333 10015 21045 60004=
07168,1997-02-07 09:00:00,2,1031.4,1.2,80,-1,15000,3.704,,,190,,,,,,,,,,,wg-a,,,,AAXX 07094 07168 12/65 11902 10020 21010 30165 40314 53012 60006 81030 90900=
07168,1997-02-07 12:00:00,10,1031,0,46,-1,15000,0,,,0,,,,,,,,,,,wg-a,,,,AAXX 07124 07168 12/65 10000 10100 21010 30165 40310 50000 60006 81031 91200=
07168,1997-02-07 15:00:00,12,1030.5,-0.4,54,3,15000,14.816,,,280,,,,,,,,,,,wg-a,,,,AAXX 07154 07168 12/65 12808 10120 20030 30161 40305 55004 60006 81030 91500=
07168,1997-02-07 18:00:00,6,1032.1,1.3,65,0,0,0,,,0,-3.2,13,,,,,,,,,wg-a,,,,AAXX 07184 07168 12/// /0000 10060 20000 30174 40321 53013 60006 91800 333 10130 21032=
07168,1997-02-08 06:00:00,-1,1034.5,0.4,93,-2,8000,7.408,,,170,-1.6,5.6,,,,,,,,,wg-a,,,,AAXX 08064 07168 02/58 01704 11010 21020 30194 40345 53004 60006 80000 90600 333 10056 21016 60004=
07168,1997-02-08 09:00:00,2,1034.5,0.1,87,0,10000,3.704,,,90,,,,,,,,,,,wg-a,,,,AAXX 08094 07168 12/60 30902 10020 20000 30195 40345 53001 60006 80001 90900=
07168,1997-02-08 12:00:00,11,1033.3,-0.7,58,3,10000,7.408,,,180,,,,,,,,,,,wg-a,,,,AAXX 08124 07168 12/60 31804 10110 20030 30188 40333 58007 60006 80001 91200=
07168,1997-02-08 15:00:00,13,1031.6,-1.6,51,3,15000,7.408,,,180,,,,,,,,,,,wg-a,,,,AAXX 08154 07168 12/65 31804 10130 20030 30172 40316 56016 60006 80001 91500=
07168,1997-02-08 18:00:00,4,1031.9,-0.1,81,1,0,0,,,0,-1.4,13.3,,,,,,,,,wg-a,,,,AAXX 08184 07168 12/// /0000 10040 20010 30171 40319 55001 60006 91800 333 10133 21014=
07168,1997-02-09 00:00:00,-1,1032.5,0.5,93,-2,0,0,,,0,,,,,,,,,,,wg-a,,,,AAXX 09004 07168 12/// /0000 11010 21020 30174 40325 53005 60006 90000=
07168,1997-02-09 06:00:00,-3,1031,-0.5,93,-4,8000,0,,,0,-2.9,4.1,,,,,,,,,wg-a,,,,AAXX 09064 07168 02/58 00000 11030 21040 30158 40310 56005 60006 80000 90600 333 10041 21029 60004=
07168,1997-02-09 09:00:00,2,1031.4,0.7,87,0,8000,7.408,,,150,,,,,,,,,,,wg-a,,,,AAXX 09094 07168 12/58 /1504 10020 20000 30165 40314 51007 60006 80001 90900=
07168,1997-02-09 12:00:00,12,1030.8,-0.1,58,4,10000,11.112,,,270,,,,,,,,,,,wg-a,,,,AAXX 09124 07168 12/60 02706 10120 20040 30164 40308 58001 60006 80000 91200=
07168,1997-02-09 15:00:00,12,1029.1,-1.7,58,4,12000,11.112,,,150,,,,,,,,,,,wg-a,,,,AAXX 09154 07168 12/62 01506 10120 20040 30147 40291 56017 60006 80000 91500=
07168,1997-02-09 18:00:00,5,1029.3,-0.1,81,2,0,3.704,,,190,-3.4,13,,,,,,,,,wg-a,,,,AAXX 09184 07168 32/// /1902 10050 20020 30146 40293 55001 91800 333 10130 21034=
07168,1997-02-10 00:00:00,0,1028.4,-0.9,93,-1,0,3.704,,,150,,,,,,,,,,,wg-a,,,,AAXX 10004 07168 12/// /1502 10000 21010 30134 40284 56009 60006 90000=
07168,1997-02-10 06:00:00,6,1025.4,-1.4,87,4,6000,18.52,,,200,-0.3,6.3,,,,,,,,,wg-a,,,,AAXX 10064 07168 02456 72010 10060 20040 30108 40254 58014 60006 875// 90600 333 10063 21003 60004=
07168,1997-02-10 09:00:00,6,1024.5,-0.9,87,4,500,14.816,,,160,,,,,,,,,,,wg-a,,,,AAXX 10094 07168 12300 /1608 10060 20040 30099 40245 58009 60006 85530 90900=
07168,1997-02-10 12:00:00,13,1021.7,-2.4,58,5,10000,31.484,,,200,,,,,,,,,,,wg-a,,,,AAXX 10124 07168 12/60 62017 10130 20050 30075 40217 58024 60006 83032 91200=
07168,1997-02-10 15:00:00,14,1019.4,-2.2,55,5,15000,31.484,,,200,,,,,,,,,,,wg-a,,,,AAXX 10154 07168 12/65 62017 10140 20050 30053 40194 56022 60006 83032 91500=
07168,1997-02-10 18:00:00,12,1018.9,-0.6,58,4,0,29.632,,,220,5.1,15.4,,,,,,,,,wg-a,,,,AAXX 10184 07168 12/// /2216 10120 20040 30047 40189 55006 60006 91800 333 10154 20051=
07168,1997-02-11 00:00:00,7,1024,3.4,87,5,0,18.52,,,280,,,,0,,,,,,,wg-a,,,,AAXX 11004 07168 02/// /2810 10070 20050 30095 40240 53034 60016 90000 333 60007=
07168,1997-02-11 06:00:00,2,1025.8,0.3,93,1,10000,14.816,,,230,2.3,12.5,,,,,1,,,,wg-a,,,,AAXX 11064 07168 02660 82308 10020 20010 30110 40258 52003 60006 8257/ 90600 333 10125 20023 60014=
07168,1997-02-11 09:00:00,4,1026.5,0.8,87,2,15000,11.112,,,170,,,,,,,,,,,wg-a,,,,AAXX 11094 07168 12/65 61706 10040 20020 30118 40265 51008 60006 81032 90900=
07168,1997-02-11 12:00:00,9,1025.8,-0.5,61,2,18000,18.52,,,220,,,,,,,,,,,wg-a,,,,AAXX 11124 07168 12/68 72210 10090 20020 30113 40258 58005 60006 80008 91200=
07168,1997-02-11 18:00:00,7,1022.2,-0.9,87,5,0,11.112,,,180,0.8,11.1,,,,,,,,,wg-a,,,,AAXX 11184 07168 32/// /1806 10070 20050 30077 40222 58009 91800 333 10111 20008=
07168,1997-02-12 00:00:00,10,1017.4,-1.2,93,9,0,31.484,,,220,,,,2,,,,,,,wg-a,,,,AAXX 12004 07168 02/// /2217 10100 20090 30031 40174 56012 60046 90000 333 60027=
07168,1997-02-12 06:00:00,11,1018.9,0.7,87,9,10000,31.484,,,230,6.6,11,,,,,5,,,2,wg-a,,,,AAXX 12064 07168 02560 82317 10110 20090 30046 40189 51007 60006 70262 875// 90600 333 10110 20066 60054=
07168,1997-02-12 09:00:00,11,1019.1,0.2,87,9,12000,35.188,,,230,,,,,,,,,,,wg-a,,,,AAXX 12094 07168 12462 82319 10110 20090 30048 40191 52002 60006 885// 90900=
07168,1997-02-12 12:00:00,12,1018,-1,82,9,15000,31.484,,,240,,,,,,,,,,,wg-a,,,,AAXX 12124 07168 12565 82417 10120 20090 30038 40180 58010 60006 8787/ 91200=
07168,1997-02-12 15:00:00,12,1015.6,-2.4,76,8,20000,29.632,,,210,,,,,,,,,,,wg-a,,,,AAXX 12154 07168 12570 82116 10120 20080 30014 40156 56024 60006 878// 91500=
07168,1997-02-12 18:00:00,11,1013.6,-2,82,8,0,31.484,,,200,10.4,12.9,,,,,,,,,wg-a,,,,AAXX 12184 07168 32/// /2017 10110 20080 39994 40136 58020 91800 333 10129 20104=
07168,1997-02-13 00:00:00,10,1007.6,-3.2,87,8,0,42.596,,,210,,,,,,,,,,,wg-a,,,,AAXX 13004 07168 12/// /2123 10100 20080 39935 40076 56032 60016 90000=
07168,1997-02-13 06:00:00,9,1004.6,-3.5,81,6,20000,46.3,,,220,8.5,11.2,,,,,2,,,,wg-a,,,,AAXX 13064 07168 02570 32225 10090 20060 39904 40046 58035 60006 83200 90600 333 10112 20085 60024=
07168,1997-02-13 09:00:00,7,1005.9,1.2,70,2,20000,50.004,,70.376,270,,,,5,,,,,,21,wg-a,,,,AAXX 13094 07168 12470 72727 10070 20020 39916 40059 53012 60057 72161 878// 90900 333 91038=
07168,1997-02-13 12:00:00,8,1008.5,2.6,66,2,25000,50.004,,72.228,260,,,,,,,,,,3,wg-a,,,,AAXX 13124 07168 12575 72627 10080 20020 39942 40085 51026 60056 70361 878// 91200 333 91039=
07168,1997-02-13 18:00:00,6,1013.8,2.6,70,1,0,35.188,,,250,4,9.3,,0,,,,,,,wg-a,,,,AAXX 13184 07168 12/// /2519 10060 20010 39993 40138 51026 60007 91800 333 10093 20040=
07168,1997-02-14 00:00:00,5,1012.8,-1.5,81,2,0,22.224,,,220,,,,,,,,,,,wg-a,,,,AAXX 14004 07168 12/// /2212 10050 20020 39983 40128 58015 60006 90000=
07168,1997-02-14 06:00:00,3,1007.2,-2.8,93,2,8000,18.52,,,160,3.4,5.8,,,,,,,,61,wg-a,,,,AAXX 14064 07168 02358 81610 10030 20020 39927 40072 58028 61000 76162 877// 90600 333 10058 20034 6008=
07168,1997-02-14 09:00:00,4,1004.3,-2.8,93,3,9000,18.52,,,160,,,,0,,,,,,60,wg-a,,,,AAXX 14094 07168 12259 81610 10040 20030 39899 40043 56028 60007 76062 887// 90900=
07168,1997-02-14 12:00:00,10,1001.8,-2.2,93,9,8000,25.928,,,250,,,,0,,,,,,3,wg-a,,,,AAXX 14124 07168 02358 82514 10100 20090 39877 40018 58022 60016 70362 877// 91200 333 60007=
07168,1997-02-14 15:00:00,13,1000.6,-1,77,9,14000,29.632,,,250,,,,0,,,,,,21,wg-a,,,,AAXX 14154 07168 12464 72516 10130 20090 39867 40006 56010 60007 72162 878// 91500=
07168,1997-02-14 18:00:00,10,1000.1,-0.7,82,7,0,22.224,,,220,3.1,12.9,,,,,,,,,wg-a,,,,AAXX 14184 07168 32/// /2212 10100 20070 39860 40001 55007 91800 333 10129 20031=
07168,1997-02-15 00:00:00,8,1001.6,1,93,7,0,7.408,,,300,,,,,,,,,,,wg-a,,,,AAXX 15004 07168 12/// /3004 10080 20070 39874 40016 53010 60056 90000=
07168,1997-02-15 06:00:00,4,1011.6,6.2,87,2,10000,22.224,,,350,3.7,10.2,,,,,10,,,1,wg-a,,,,AAXX 15064 07168 02560 73512 10040 20020 39971 40116 53062 60006 70162 875// 90600 333 10102 20037 60104=
07168,1997-02-15 09:00:00,3,1017.9,6.1,81,0,10000,22.224,,,350,,,,,,,,,,,wg-a,,,,AAXX 15094 07168 12460 33512 10030 20000 30032 40179 51061 60006 83200 90900=
07168,1997-02-15 12:00:00,6,1021.8,4,65,0,15000,25.928,,,340,,,,,,,,,,,wg-a,,,,AAXX 15124 07168 12565 /3414 10060 20000 30072 40218 51040 60006 86200 91200=
07168,1997-02-15 15:00:00,7,1023.7,1.9,61,0,15000,11.112,,,330,,,,,,,,,,,wg-a,,,,AAXX 15154 07168 12665 33306 10070 20000 30091 40237 53019 60006 83200 91500=
07168,1997-02-16 00:00:00,-1,1027.3,0.2,93,-2,0,3.704,,,130,,,,,,,,,,,wg-a,,,,AAXX 16004 07168 12/// /1302 11010 21020 30123 40273 50002 60006 90000=
07168,1997-02-16 06:00:00,-2,1026,-0.7,93,-3,8000,3.704,,,140,-2.3,,,,,,,,,,wg-a,,,,AAXX 16064 07168 02/58 31402 11020 21030 30109 40260 56007 60006 80001 90600 333 10023 21023 60004=
07168,1997-02-16 09:00:00,1,1025.8,0,93,0,12000,7.408,,,170,,,,,,,,,,,wg-a,,,,AAXX 16094 07168 12/62 71704 10010 20000 30109 40258 50000 60006 80001 90900=
07168,1997-02-16 12:00:00,8,1023.4,-2,53,-1,20000,22.224,,,150,,,,0,,,,,,,wg-a,,,,AAXX 16124 07168 02/70 71512 10080 21010 30089 40234 58020 60006 80001 91200 333 60007=
07168,1997-02-16 15:00:00,8,1021.8,-1.6,57,0,20000,14.816,,,160,,,,,,,,,,,wg-a,,,,AAXX 16154 07168 12/70 71608 10080 20000 30073 40218 57016 60006 81032 91500=
07168,1997-02-17 06:00:00,5,1022.2,1,93,4,7000,11.112,,,170,0.4,6.5,,,,,1,,,,wg-a,,,,AAXX 17064 07168 02357 81706 10050 20040 30076 40222 53010 60006 877// 90600 333 10065 20004 60014=
07168,1997-02-17 09:00:00,7,1022.9,0.8,93,6,8000,29.632,,,220,,,,,,,,,,,wg-a,,,,AAXX 17094 07168 12458 /2216 10070 20060 30084 40229 53008 60006 84101 90900=
07168,1997-02-17 12:00:00,10,1022.8,0,82,7,15000,22.224,,,200,,,,,,,,,,,wg-a,,,,AAXX 17124 07168 12465 72012 10100 20070 30084 40228 50000 60006 86201 91200=
07168,1997-02-17 15:00:00,10,1022.3,-0.5,76,6,3000,25.928,,,210,,,,,,,,,,,wg-a,,,,AAXX 17154 07168 12530 72114 10100 20060 30079 40223 55005 60006 83802 91500=
07168,1997-02-17 18:00:00,7,1022.7,0.3,87,5,0,11.112,,,190,4.9,12,,,,,,,,,wg-a,,,,AAXX 17184 07168 12/// /1906 10070 20050 30082 40227 52003 60006 91800 333 10120 20049=
07168,1997-02-18 00:00:00,9,1020.8,-1.8,81,6,0,31.484,,,210,,,,,,,,,,,wg-a,,,,AAXX 18004 07168 12/// /2117 10090 20060 30064 40208 58018 60006 90000=
07168,1997-02-18 06:00:00,9,1017.1,-1.9,87,7,6000,31.484,,,200,7.2,9,,,,,,,,51,wg-a,,,,AAXX 18064 07168 02456 82017 10090 20070 30027 40171 56019 61000 75165 885// 90600 333 10090 20072 6001=
07168,1997-02-18 09:00:00,9,1015.9,-1.1,93,8,500,38.892,,,210,,,,0,,,,,,51,wg-a,,,,AAXX 18094 07168 12300 82121 10090 20080 30016 40159 56011 60007 75166 877// 90900=
07168,1997-02-18 12:00:00,13,1015.2,-0.5,72,8,25000,46.3,,77.784,240,,,,1,,,,,,3,wg-a,,,,AAXX 18124 07168 02575 82425 10130 20080 30011 40152 58005 60016 70365 878// 91200 333 60017 91042=
07168,1997-02-18 15:00:00,9,1016.1,0.7,81,6,15000,31.484,,,290,,,,2,,,,,,3,wg-a,,,,AAXX 18154 07168 12565 /2917 10090 20060 30018 40161 53007 60027 70398 86800 91500=
07168,1997-02-19 06:00:00,3,1032.7,1.6,87,1,10000,22.224,,,250,2.2,,,,,,5,,,,wg-a,,,,AAXX 19064 07168 02660 22512 10030 20010 30178 40327 51016 60006 82100 90600 333 10070 20022 60054=
07168,1997-02-19 09:00:00,5,1032.4,-0.2,87,3,15000,14.816,,,180,,,,,,,,,,,wg-a,,,,AAXX 19094 07168 12/65 11808 10050 20030 30176 40324 58002 60006 80001 90900=
07168,1997-02-19 12:00:00,8,1030.3,-1.9,76,4,15000,29.632,,,180,,,,,,,,,,,wg-a,,,,AAXX 19124 07168 12465 81816 10080 20040 30157 40303 58019 60006 81137 91200=
07168,1997-02-19 15:00:00,8,1026.3,-3.9,66,2,25000,25.928,,,180,,,,,,,,,,,wg-a,,,,AAXX 19154 07168 12/75 71814 10080 20020 30118 40263 58039 60006 85056 91500=
07168,1997-02-19 18:00:00,8,1022.4,-3.9,66,2,0,35.188,,,180,2.5,9.3,,,,,,,,,wg-a,,,,AAXX 19184 07168 12/// /1819 10080 20020 30079 40224 56039 60006 91800 333 10093 20025=
07168,1997-02-20 00:00:00,10,1021,1.5,87,8,0,38.892,,,240,,,,,,,,,,,wg-a,,,,AAXX 20004 07168 12/// /2421 10100 20080 30067 40210 53015 60006 90000=
07168,1997-02-20 06:00:00,7,1027.4,2.6,87,5,15000,22.224,,,240,6.3,10.8,,,,,2,,,1,wg-a,,,,AAXX 20064 07168 02765 42412 10070 20050 30128 40274 51026 60006 70161 84500 90600 333 10108 20063 60024=
07168,1997-02-20 09:00:00,9,1029.5,2.2,87,7,15000,25.928,,,250,,,,,,,,,,,wg-a,,,,AAXX 20094 07168 12565 42514 10090 20070 30150 40295 51022 60006 82101 90900=
07168,1997-02-20 12:00:00,12,1029.4,0,62,5,20000,25.928,,,240,,,,,,,,,,,wg-a,,,,AAXX 20124 07168 12570 52414 10120 20050 30150 40294 50000 60006 84201 91200=
07168,1997-02-20 18:00:00,4,1028.4,-0.2,87,2,0,14.816,,,210,4.2,12.4,,,,,,,,,wg-a,,,,AAXX 20184 07168 12/// /2108 10040 20020 30136 40284 56002 60006 91800 333 10124 20042=
07168,1997-02-21 00:00:00,8,1028.3,0.1,76,4,0,14.816,,,210,,,,,,,,,,,wg-a,,,,AAXX 21004 07168 12/// /2108 10080 20040 30137 40283 53001 60006 90000=
07168,1997-02-21 06:00:00,6,1028.9,0.8,93,5,10000,22.224,,,220,3.9,8,,,,,,,,,wg-a,,,,AAXX 21064 07168 02660 72212 10060 20050 30142 40289 51008 60006 875// 90600 333 10080 20039 60004=
07168,1997-02-21 12:00:00,11,1030.9,0.4,66,5,12000,31.484,,,250,,,,,,,,,,,wg-a,,,,AAXX 21124 07168 12662 72517 10110 20050 30165 40309 51004 60006 875// 91200=
07168,1997-02-21 15:00:00,11,1030.9,-0,71,6,20000,25.928,,,250,,,,,,,,,,,wg-a,,,,AAXX 21154 07168 12670 /2514 10110 20060 30165 40309 55000 60006 86500 91500=
07168,1997-02-21 18:00:00,10,1031.8,0.8,76,6,0,25.928,,,250,6.3,11.9,,,,,,,,,wg-a,,,,AAXX 21184 07168 12/// /2514 10100 20060 30173 40318 53008 60006 91800 333 10119 20063=
07168,1997-02-22 00:00:00,8,1033,0.3,87,6,0,11.112,,,190,,,,,,,,,,,wg-a,,,,AAXX 22004 07168 12/// /1906 10080 20060 30184 40330 53003 60006 90000=
07168,1997-02-22 06:00:00,5,1032.1,-0.3,93,4,10000,7.408,,,150,3.1,10.2,,,,,,,,,wg-a,,,,AAXX 22064 07168 02560 /1504 10050 20040 30173 40321 58003 60006 86500 90600 333 10102 20031 60004=
07168,1997-02-22 09:00:00,10,1031.3,-0.5,71,5,15000,11.112,,,150,,,,,,,,,,,wg-a,,,,AAXX 22094 07168 12665 /1506 10100 20050 30168 40313 58005 60006 81500 90900=
07168,1997-02-22 12:00:00,14,1029.1,-2,55,5,20000,7.408,,,140,,,,,,,,,,,wg-a,,,,AAXX 22124 07168 12670 /1404 10140 20050 30148 40291 58020 60006 81100 91200=
07168,1997-02-22 15:00:00,15,1026.3,-2.7,55,6,20000,7.408,,,140,,,,,,,,,,,wg-a,,,,AAXX 22154 07168 12/70 31404 10150 20060 30121 40263 56027 60006 80004 91500=
07168,1997-02-22 18:00:00,11,1024.4,-2.1,76,7,0,11.112,,,90,4.6,15.8,,,,,,,,,wg-a,,,,AAXX 22184 07168 12/// /0906 10110 20070 30100 40244 56021 60006 91800 333 10158 20046=
07168,1997-02-23 00:00:00,4,1021.5,-1.4,93,3,0,14.816,,,160,,,,,,,,,,,wg-a,,,,AAXX 23004 07168 12/// /1608 10040 20030 30068 40215 56014 60006 90000=
07168,1997-02-23 06:00:00,4,1019.4,-0.6,93,3,8000,14.816,,,170,3,10.8,,,,,,,,,wg-a,,,,AAXX 23064 07168 02/58 71708 10040 20030 30048 40194 56006 60006 83051 90600 333 10108 20030 60004=
07168,1997-02-23 09:00:00,9,1018.8,-0.4,76,5,15000,14.816,,,160,,,,,,,,,,,wg-a,,,,AAXX 23094 07168 12/65 71608 10090 20050 30044 40188 57004 60006 85031 90900=
07168,1997-02-23 12:00:00,12,1018.1,-0.5,71,7,15000,22.224,,,230,,,,,,,,,,,wg-a,,,,AAXX 23124 07168 12565 72312 10120 20070 30039 40181 58005 60006 8513/ 91200=
07168,1997-02-23 15:00:00,13,1016,-2,72,8,16000,18.52,,,190,,,,,,,,,,,wg-a,,,,AAXX 23154 07168 12/66 81910 10130 20080 30019 40160 56020 60006 8805/ 91500=
07168,1997-02-23 18:00:00,11,1014.7,-1.4,82,8,0,14.816,,,170,4.1,13.6,,,,,,,,,wg-a,,,,AAXX 23184 07168 32/// /1708 10110 20080 30005 40147 56014 91800 333 10136 20041=
07168,1997-02-24 00:00:00,11,1011.9,-1.6,87,9,0,29.632,,,210,,,,,,,,,,,wg-a,,,,AAXX 24004 07168 12/// /2116 10110 20090 39977 40119 58016 60016 90000=
07168,1997-02-24 06:00:00,10,1008.7,-1.4,87,8,8000,29.632,,,180,9.9,11.7,,,,,1,,,,wg-a,,,,AAXX 24064 07168 02458 81816 10100 20080 39945 40087 58014 60006 885// 90600 333 10117 20099 60014=
07168,1997-02-24 09:00:00,11,1008.3,-0.3,82,8,8000,35.188,,,190,,,,1,,,,,,61,wg-a,,,,AAXX 24094 07168 12458 71919 10110 20080 39942 40083 55003 60017 76162 8377/ 90900=
07168,1997-02-24 12:00:00,12,1006.9,-1.4,82,9,7000,38.892,,,200,,,,0,,,,,,61,wg-a,,,,AAXX 24124 07168 02457 82021 10120 20090 39928 40069 58014 60016 76162 875// 91200 333 60007=
07168,1997-02-24 15:00:00,12,1005.4,-1.4,82,9,20000,46.3,,,210,,,,0,,,,,,60,wg-a,,,,AAXX 24154 07168 12570 82125 10120 20090 39914 40054 57014 60007 76066 875// 91500=
07168,1997-02-25 00:00:00,12,1002.5,-1.7,88,10,0,50.004,,,210,,,,1,,,,,,,wg-a,,,,AAXX 25004 07168 02/// /2127 10120 20100 39885 40025 55017 60026 90000 333 60017=
07168,1997-02-25 06:00:00,13,1003.3,1.1,88,11,6000,42.596,,,220,11.5,13.1,,,,,,,,61,wg-a,,,,AAXX 25064 07168 02456 82223 10130 20110 39894 40033 51011 61000 76166 885// 90600 333 10131 20115 6007=
07168,1997-02-25 12:00:00,13,1006.3,1.7,88,11,10000,46.3,,,230,,,,3,,,,,,61,wg-a,,,,AAXX 25124 07168 02460 82325 10130 20110 39923 40063 51017 60056 76166 885// 91200 333 60037=
07168,1997-02-25 15:00:00,10,1007,0.5,93,9,12000,29.632,,,290,,,,4,,,,,,61,wg-a,,,,AAXX 25154 07168 12362 82916 10100 20090 39928 40070 53005 60047 76166 885// 91500=
07168,1997-02-25 18:00:00,9,1008.6,1.6,93,8,0,22.224,,,270,9.2,13.4,,11,,,,,,,wg-a,,,,AAXX 25184 07168 12/// /2712 10090 20080 39944 40086 53016 60117 91800 333 10134 20092=
07168,1997-02-26 00:00:00,12,1009.9,1.3,82,9,0,38.892,,,240,,,,0,,,,,,,wg-a,,,,AAXX 26004 07168 02/// /2421 10120 20090 39958 40099 53013 60086 90000 333 60007=
07168,1997-02-26 09:00:00,10,1014.8,3.3,76,6,20000,46.3,,,260,,,,,,,,,,,wg-a,,,,AAXX 26094 07168 12570 32625 10100 20060 30005 40148 53033 60006 83200 90900=
07168,1997-02-26 12:00:00,12,1016.2,1.5,62,5,20000,38.892,,,250,,,,,,,,,,,wg-a,,,,AAXX 26124 07168 12570 /2521 10120 20050 30020 40162 50015 60006 85200 91200=
07168,1997-02-26 15:00:00,8,1016.4,-0,76,4,6000,29.632,,66.672,250,,,,,,,,,,81,wg-a,,,,AAXX 26154 07168 02456 72516 10080 20040 30020 40164 55000 61000 78198 879// 91500 333 //// 91036=
07168,1997-02-27 00:00:00,6,1027,3.4,81,3,0,31.484,,,270,,,,,,,,,,,wg-a,,,,AAXX 27004 07168 12/// /2717 10060 20030 30124 40270 53034 60006 90000=
07168,1997-02-27 06:00:00,4,1034.2,2.8,87,2,20000,18.52,,,240,3.8,7.4,,,,,2,,,,wg-a,,,,AAXX 27064 07168 02570 42410 10040 20020 30193 40342 51028 60006 84500 90600 333 10074 20038 60024=
07168,1997-02-27 09:00:00,7,1036.5,2.5,87,5,20000,22.224,,,270,,,,,,,,,,,wg-a,,,,AAXX 27094 07168 12470 /2712 10070 20050 30218 40365 51025 60006 81100 90900=
07168,1997-02-27 12:00:00,10,1036.9,0.5,62,3,500,18.52,,,270,,,,,,,,,,,wg-a,,,,AAXX 27124 07168 12500 52710 10100 20030 30223 40369 52005 60006 82132 91200=
07168,1997-02-27 18:00:00,8,1037.4,-0,76,4,0,3.704,,,150,3.8,11.3,,,,,,,,,wg-a,,,,AAXX 27184 07168 12/// /1502 10080 20040 30227 40374 55000 60006 91800 333 10113 20038=
07168,1997-02-28 00:00:00,4,1035.8,-1,81,1,0,3.704,,,210,,,,,,,,,,,wg-a,,,,AAXX 28004 07168 12/// /2102 10040 20010 30209 40358 56010 60006 90000=
07168,1997-02-28 06:00:00,3,1033.1,-0.6,70,-2,12000,11.112,,,150,1.5,7.5,,,,,,,,,wg-a,,,,AAXX 28064 07168 02/62 31506 10030 21020 30182 40331 56006 60006 81031 90600 333 10075 20015 60004=
07168,1997-02-28 09:00:00,8,1032.9,0.1,49,-2,500,22.224,,,160,,,,,,,,,,,wg-a,,,,AAXX 28094 07168 12/00 41612 10080 21020 30183 40329 50001 60006 81031 90900=
07168,1997-02-28 12:00:00,15,1030.8,-1.8,41,2,500,25.928,,,170,,,,,,,,,,,wg-a,,,,AAXX 28124 07168 12/00 51714 10150 20020 30165 40308 58018 60006 80001 91200=
07168,1997-02-28 15:00:00,18,1027.1,-3.4,45,6,500,18.52,,,180,,,,,,,,,,,wg-a,,,,AAXX 28154 07168 12/00 51810 10180 20060 30131 40271 56034 60006 80001 91500=
07168,1997-02-28 18:00:00,13,1027,-0.4,51,3,0,18.52,,,180,2.4,18.4,,,,,,,,,wg-a,,,,AAXX 28184 07168 12/// /1810 10130 20030 30127 40270 55004 60006 91800 333 10184 20024=
07168,1997-03-01 00:00:00,9,1027.4,0.5,71,4,0,3.704,,,270,,,,,,,,,,,wg-a,,,,AAXX 01004 07168 12/// /2702 10090 20040 30129 40274 53005 60006 90000=
07168,1997-03-01 06:00:00,8,1029.3,1.3,87,6,12000,3.704,,,170,7.5,13.2,,,,,,,,,wg-a,,,,AAXX 01064 07168 02662 71702 10080 20060 30147 40293 52013 60006 8353/ 90600 333 10132 20075 60004=
07168,1997-03-01 09:00:00,11,1029.8,0.7,82,8,12000,7.408,,,160,,,,,,,,,,,wg-a,,,,AAXX 01094 07168 12462 71604 10110 20080 30154 40298 53007 60006 81131 90900=
07168,1997-03-01 12:00:00,16,1029,-0.6,68,10,20000,11.112,,,210,,,,,,,,,,,wg-a,,,,AAXX 01124 07168 12570 42106 10160 20100 30148 40290 58006 60006 82101 91200=
07168,1997-03-01 15:00:00,18,1026.6,-2.2,56,9,20000,18.52,,,230,,,,,,,,,,,wg-a,,,,AAXX 01154 07168 12670 32310 10180 20090 30126 40266 56022 60006 83100 91500=
07168,1997-03-01 18:00:00,11,1026.6,-0.4,82,8,0,7.408,,,210,6.4,17.9,,,,,,,,,wg-a,,,,AAXX 01184 07168 12/// /2104 10110 20080 30122 40266 56004 60006 91800 333 10179 20064=
07168,1997-03-02 00:00:00,5,1025.4,-1.1,93,4,0,3.704,,,150,,,,,,,,,,,wg-a,,,,AAXX 02004 07168 12/// /1502 10050 20040 30107 40254 58011 60006 90000=
07168,1997-03-02 06:00:00,2,1025.1,0.8,93,1,15000,3.704,,,150,1.8,11.4,,,,,,,,,wg-a,,,,AAXX 02064 07168 02/65 01502 10020 20010 30102 40251 51008 60006 80000 90600 333 10114 20018 60004=
07168,1997-03-02 09:00:00,12,1025.6,1.1,71,7,20000,14.816,,,200,,,,0,,,,,,,wg-a,,,,AAXX 02094 07168 12/70 32008 10120 20070 30113 40256 53011 60007 80001 90900=
07168,1997-03-02 12:00:00,15,1026.2,0.7,63,8,20000,29.632,,,270,,,,,,,,,,,wg-a,,,,AAXX 02124 07168 12670 /2716 10150 20080 30120 40262 53007 60006 81101 91200=
07168,1997-03-02 15:00:00,13,1027.6,1.3,72,8,20000,22.224,,,250,,,,,,,,,,,wg-a,,,,AAXX 02154 07168 12570 72512 10130 20080 30133 40276 53013 60006 875// 91500=
07168,1997-03-02 18:00:00,13,1028.4,0.8,77,9,0,14.816,,,200,1.8,15.9,,,,,,,,,wg-a,,,,AAXX 02184 07168 32/// /2008 10130 20090 30141 40284 53008 91800 333 10159 20018=
07168,1997-03-03 00:00:00,13,1029.7,0.2,82,10,0,25.928,,,230,,,,,,,,,,,wg-a,,,,AAXX 03004 07168 12/// /2314 10130 20100 30154 40297 51002 60006 90000=
07168,1997-03-03 06:00:00,8,1033.2,2,93,7,2000,7.408,,,10,7.6,13.4,,,,,,,,10,wg-a,,,,AAXX 03064 07168 02220 80104 10080 20070 30186 40332 52020 61000 71052 887// 90600 333 10134 20076 6001=
07168,1997-03-03 09:00:00,8,1035,1.8,93,7,500,7.408,,,50,,,,0,,,,,,1,wg-a,,,,AAXX 03094 07168 12200 80504 10080 20070 30204 40350 52018 60007 70152 887// 90900=
07168,1997-03-03 12:00:00,11,1034.5,-0.4,82,8,12000,7.408,,,90,,,,,,,,,,1,wg-a,,,,AAXX 03124 07168 12462 80904 10110 20080 30200 40345 56004 60016 70152 885// 91200=
07168,1997-03-03 15:00:00,12,1033,-1.4,88,10,10000,7.408,,,150,,,,,,,,,,,wg-a,,,,AAXX 03154 07168 12360 81504 10120 20100 30186 40330 56014 60006 886// 91500=
07168,1997-03-03 18:00:00,12,1032.5,-0.5,88,10,0,7.408,,,130,7.5,12.4,,,,,,,,,wg-a,,,,AAXX 03184 07168 32/// /1304 10120 20100 30181 40325 55005 91800 333 10124 20075=
07168,1997-03-04 00:00:00,9,1030.9,-0.9,93,8,0,3.704,,,140,,,,,,,,,,,wg-a,,,,AAXX 04004 07168 12/// /1402 10090 20080 30164 40309 55009 60006 90000=
07168,1997-03-04 06:00:00,10,1030,-0.1,87,8,9000,3.704,,,150,8.9,12,,,,,,,,,wg-a,,,,AAXX 04064 07168 02759 71502 10100 20080 30155 40300 57001 60006 87502 90600 333 10120 20089 60004=
07168,1997-03-04 09:00:00,13,1029.8,-0,77,9,15000,14.816,,,150,,,,,,,,,,,wg-a,,,,AAXX 04094 07168 12765 71508 10130 20090 30155 40298 54000 60006 815/2 90900=
07168,1997-03-04 12:00:00,17,1028.8,-0.8,63,10,15000,14.816,,,170,,,,,,,,,,,wg-a,,,,AAXX 04124 07168 12/65 71708 10170 20100 30147 40288 55008 60006 81032 91200=
07168,1997-03-04 18:00:00,14,1026.9,-0,77,10,0,14.816,,,290,9.5,17.9,,,,,,,,,wg-a,,,,AAXX 04184 07168 12/// /2908 10140 20100 30127 40269 55000 60006 91800 333 10179 20095=
07168,1997-03-05 00:00:00,11,1027.4,0.3,87,9,0,14.816,,,280,,,,,,,,,,,wg-a,,,,AAXX 05004 07168 12/// /2808 10110 20090 30130 40274 53003 60006 90000=
07168,1997-03-05 06:00:00,9,1027.9,1.1,87,7,12000,18.52,,,270,8.1,15,,,,,,,,1,wg-a,,,,AAXX 05064 07168 02662 /2710 10090 20070 30134 40279 52011 60006 70162 86500 90600 333 10150 20081 60004=
07168,1997-03-05 09:00:00,9,1029.4,1.5,87,7,8000,14.816,,,280,,,,0,,,,,,25,wg-a,,,,AAXX 05094 07168 12458 72808 10090 20070 30149 40294 52015 60007 72586 878// 90900=
07168,1997-03-05 12:00:00,9,1029.9,0.5,81,6,11000,18.52,,,270,,,,,,,,,,,wg-a,,,,AAXX 05124 07168 12/61 /2710 10090 20060 30154 40299 53005 60006 91200=
07168,1997-03-05 15:00:00,10,1029.6,-0.3,71,5,20000,25.928,,,260,,,,,,,,,,,wg-a,,,,AAXX 05154 07168 12570 72614 10100 20050 30151 40296 56003 60006 8523/ 91500=
07168,1997-03-05 18:00:00,8,1030.3,0.6,76,4,0,14.816,,,260,7.7,9.8,,,,,,,,,wg-a,,,,AAXX 05184 07168 32/// /2608 10080 20040 30157 40303 51006 91800 333 10098 20077=
07168,1997-03-06 00:00:00,7,1030.4,-0.5,76,3,0,11.112,,,160,,,,,,,,,,,wg-a,,,,AAXX 06004 07168 12/// /1606 10070 20030 30157 40304 57005 60006 90000=
07168,1997-03-06 06:00:00,7,1030.6,0.4,93,6,3000,11.112,,,160,5.2,7.8,,,,,,,,10,wg-a,,,,AAXX 06064 07168 02230 81606 10070 20060 30159 40306 53004 61000 71065 887// 90600 333 10078 20052 6005=
07168,1997-03-06 09:00:00,8,1031.7,1.2,93,7,3000,11.112,,,160,,,,2,,,,,,50,wg-a,,,,AAXX 06094 07168 12230 81606 10080 20070 30171 40317 51012 60027 75065 887// 90900=
07168,1997-03-06 15:00:00,11,1031.8,-0.3,87,9,8000,7.408,,,110,,,,0,,,,,,,wg-a,,,,AAXX 06154 07168 12458 81104 10110 20090 30174 40318 55003 60007 875// 91500=
07168,1997-03-06 18:00:00,11,1032.5,0.6,87,9,0,0,,,0,6.8,11.4,,,,,,,,,wg-a,,,,AAXX 06184 07168 32/// /0000 10110 20090 30180 40325 53006 91800 333 10114 20068=
07168,1997-03-07 00:00:00,6,1033.2,-0.4,93,5,0,7.408,,,330,,,,,,,,,,,wg-a,,,,AAXX 07004 07168 12/// /3304 10060 20050 30184 40332 58004 60006 90000=
07168,1997-03-07 06:00:00,2,1032.9,0.1,93,1,8000,0,,,0,1.3,10.8,,,,,2,,,28,wg-a,,,,AAXX 07064 07168 02/58 00000 10020 20010 30179 40329 53001 60006 72840 80000 90600 333 10108 20013 60024=
07168,1997-03-07 09:00:00,9,1032.7,0.2,76,5,7000,3.704,,,110,,,,0,,,,,,,wg-a,,,,AAXX 07094 07168 12/57 21102 10090 20050 30181 40327 51002 60007 80001 90900=
07168,1997-03-07 12:00:00,13,1031.6,-0.9,54,4,12000,7.408,,,50,,,,,,,,,,,wg-a,,,,AAXX 07124 07168 12/62 40504 10130 20040 30172 40316 58009 60006 80001 91200=
07168,1997-03-07 15:00:00,14,1030,-1.5,51,4,20000,11.112,,,60,,,,,,,,,,,wg-a,,,,AAXX 07154 07168 12/70 30606 10140 20040 30157 40300 56015 60006 80001 91500=
07168,1997-03-08 00:00:00,4,1031.4,0.5,93,3,0,11.112,,,300,,,,,,,,,,,wg-a,,,,AAXX 08004 07168 12/// /3006 10040 20030 30166 40314 53005 60006 90000=
07168,1997-03-08 09:00:00,4,1034.4,1.1,100,4,700,3.704,,,360,,,,,,,,,,42,wg-a,,,,AAXX 08094 07168 12/07 03602 10040 20040 30195 40344 52011 60006 74244 80000 90900=
07168,1997-03-08 12:00:00,12,1033.5,-0.4,67,6,6000,7.408,,,40,,,,,,,,,,3,wg-a,,,,AAXX 08124 07168 12556 /0404 10120 20060 30191 40335 58004 60006 70341 81100 91200=
07168,1997-03-08 15:00:00,14,1032.7,-0.7,63,7,6000,14.816,,,30,,,,,,,,,,,wg-a,,,,AAXX 08154 07168 12/56 00308 10140 20070 30184 40327 56007 60006 80000 91500=
07168,1997-03-08 18:00:00,11,1033.2,0.3,71,6,0,7.408,,,350,-0.5,14.2,,,,,,,,,wg-a,,,,AAXX 08184 07168 12/// /3504 10110 20060 30187 40332 53003 60006 91800 333 10142 21005=
07168,1997-03-09 00:00:00,5,1033.4,-0.1,93,4,0,3.704,,,30,,,,,,,,,,,wg-a,,,,AAXX 09004 07168 12/// /0302 10050 20040 30186 40334 57001 60006 90000=
07168,1997-03-09 06:00:00,1,1033.5,0.6,100,1,2000,0,,,0,0.3,11.3,,,,,,,,10,wg-a,,,,AAXX 09064 07168 02/20 00000 10010 20010 30185 40335 53006 60006 71000 80000 90600 333 10113 20003 60004=
07168,1997-03-09 09:00:00,7,1033.9,0.7,87,5,3500,11.112,,,90,,,,,,,,,,10,wg-a,,,,AAXX 09094 07168 12/35 00906 10070 20050 30192 40339 53007 60006 71000 80000 90900=
07168,1997-03-09 12:00:00,13,1032.5,-1.1,67,7,500,7.408,,,60,,,,,,,,,,,wg-a,,,,AAXX 09124 07168 12/00 00604 10130 20070 30181 40325 58011 60006 80000 91200=
07168,1997-03-10 00:00:00,2,1031.7,-0.2,93,1,0,3.704,,,130,,,,,,,,,,,wg-a,,,,AAXX 10004 07168 12/// /1302 10020 20010 30168 40317 56002 60006 90000=
07168,1997-03-10 06:00:00,1,1033.1,1,93,0,4000,7.408,,,150,-0.4,9.5,,,,,,,,10,wg-a,,,,AAXX 10064 07168 02/40 01504 10010 20000 30181 40331 53010 60006 71000 80000 90600 333 10095 21004 60004=
07168,1997-03-10 09:00:00,8,1034.1,1.3,76,4,4000,3.704,,,90,,,,,,,,,,10,wg-a,,,,AAXX 10094 07168 12/40 00902 10080 20040 30194 40341 51013 60006 71000 80000 90900=
07168,1997-03-10 12:00:00,15,1033.3,-0.4,63,8,500,3.704,,,300,,,,,,,,,,,wg-a,,,,AAXX 10124 07168 12/00 03002 10150 20080 30190 40333 58004 60006 80000 91200=
07168,1997-03-10 15:00:00,17,1032.3,-0.9,52,7,8000,7.408,,,300,,,,,,,,,,,wg-a,,,,AAXX 10154 07168 12/58 03004 10170 20070 30181 40323 57009 60006 80000 91500=
07168,1997-03-10 18:00:00,12,1032.9,0.4,67,6,0,3.704,,,10,0.8,17.4,,,,,,,,,wg-a,,,,AAXX 10184 07168 12/// /0102 10120 20060 30185 40329 53004 60006 91800 333 10174 20008=
07168,1997-03-11 00:00:00,3,1033.5,-0.3,93,2,0,0,,,0,,,,,,,,,,,wg-a,,,,AAXX 11004 07168 12/// /0000 10030 20020 30186 40335 58003 60006 90000=
07168,1997-03-11 09:00:00,8,1033.8,0.4,81,5,4000,0,,,0,,,,,,,,,,10,wg-a,,,,AAXX 11094 07168 12/40 00000 10080 20050 30192 40338 51004 60006 71040 80000 90900=
07168,1997-03-11 12:00:00,16,1032.3,-1.1,59,8,6000,11.112,,,60,,,,,,,,,,2,wg-a,,,,AAXX 11124 07168 12/56 00606 10160 20080 30181 40323 58011 60006 70240 80000 91200=
07168,1997-03-11 15:00:00,19,1030.6,-1.6,43,6,7000,14.816,,,30,,,,,,,,,,,wg-a,,,,AAXX 11154 07168 12/57 00308 10190 20060 30165 40306 56016 60006 80000 91500=
07168,1997-03-11 18:00:00,10,1030.7,-0.3,76,6,0,11.112,,,340,-0.8,18.7,,,,,,,,,wg-a,,,,AAXX 11184 07168 12/// /3406 10100 20060 30162 40307 55003 60006 91800 333 10187 21008=
07168,1997-03-12 00:00:00,5,1031.3,0.1,81,2,0,11.112,,,320,,,,,,,,,,,wg-a,,,,AAXX 12004 07168 12/// /3206 10050 20020 30165 40313 52001 60006 90000=
07168,1997-03-12 06:00:00,0,1031,0.3,93,-1,4000,3.704,,,160,0.2,10.4,,,,,,,,10,wg-a,,,,AAXX 12064 07168 02/40 01602 10000 21010 30160 40310 51003 60006 71000 80000 90600 333 10104 20002 60004=
07168,1997-03-12 09:00:00,8,1030.7,0.1,81,5,6000,7.408,,,180,,,,,,,,,,,wg-a,,,,AAXX 12094 07168 12/56 01804 10080 20050 30161 40307 51001 60006 80000 90900=
07168,1997-03-12 12:00:00,18,1029.8,-0.4,52,8,8000,18.52,,,280,,,,,,,,,,,wg-a,,,,AAXX 12124 07168 12/58 /2810 10180 20080 30157 40298 56004 60006 80001 91200=
07168,1997-03-12 15:00:00,19,1028.7,-1,43,6,8000,18.52,,,260,,,,,,,,,,,wg-a,,,,AAXX 12154 07168 12/58 /2610 10190 20060 30147 40287 56010 60006 80000 91500=
07168,1997-03-12 18:00:00,11,1029.4,0.3,76,7,0,18.52,,,240,0.3,19.3,,,,,,,,,wg-a,,,,AAXX 12184 07168 12/// /2410 10110 20070 30150 40294 52003 60006 91800 333 10193 20003=
07168,1997-03-13 00:00:00,7,1031.1,0.7,87,5,0,18.52,,,290,,,,,,,,,,,wg-a,,,,AAXX 13004 07168 12/// /2910 10070 20050 30165 40311 51007 60006 90000=
07168,1997-03-13 06:00:00,8,1031.5,0.4,93,7,3000,7.408,,,310,6.2,11.8,,,,,,,,10,wg-a,,,,AAXX 13064 07168 02430 83104 10080 20070 30169 40315 53004 60006 71022 875// 90600 333 10118 20062 60004=
07168,1997-03-13 15:00:00,14,1029.5,-1.9,58,6,7000,3.704,,,80,,,,,,,,,,,wg-a,,,,AAXX 13154 07168 12557 40802 10140 20060 30152 40295 58019 60006 84200 91500=
07168,1997-03-14 00:00:00,3,1027.5,-1,93,2,0,0,,,0,,,,,,,,,,,wg-a,,,,AAXX 14004 07168 12/// /0000 10030 20020 30127 40275 56010 60006 90000=
07168,1997-03-14 06:00:00,4,1026,-0,100,4,2000,3.704,,,310,0.1,11.5,,,,,,,,10,wg-a,,,,AAXX 14064 07168 02120 83102 10040 20040 30113 40260 55000 60006 71022 885// 90600 333 10115 20001 60004=
07168,1997-03-14 09:00:00,7,1026.1,0.2,93,6,2000,22.224,,,260,,,,,,,,,,10,wg-a,,,,AAXX 14094 07168 12320 82612 10070 20060 30115 40261 53002 60006 71022 885// 90900=
07168,1997-03-14 12:00:00,9,1025.1,-0.8,87,7,6000,22.224,,,250,,,,,,,,,,,wg-a,,,,AAXX 14124 07168 12356 82512 10090 20070 30107 40251 56008 60006 885// 91200=
07168,1997-03-14 18:00:00,9,1024.4,-0,87,7,0,18.52,,,260,4.1,10.3,,,,,,,,,wg-a,,,,AAXX 14184 07168 32/// /2610 10090 20070 30100 40244 55000 91800 333 10103 20041=
07168,1997-03-15 00:00:00,8,1026.5,0.5,87,6,0,14.816,,,270,,,,,,,,,,,wg-a,,,,AAXX 15004 07168 12/// /2708 10080 20060 30120 40265 50005 60006 90000=
07168,1997-03-15 06:00:00,4,1027.6,0.8,93,3,500,3.704,,,110,3.6,9.1,,,,,,,,,wg-a,,,,AAXX 15064 07168 02300 /1102 10040 20030 30128 40276 53008 60006 86500 90600 333 10091 20036 60004=
07168,1997-03-15 09:00:00,9,1028.1,0.8,87,7,8000,0,,,0,,,,,,,,,,,wg-a,,,,AAXX 15094 07168 12458 70000 10090 20070 30136 40281 53008 60006 878// 90900=
07168,1997-03-15 12:00:00,13,1027.5,-0.4,72,8,18000,22.224,,,240,,,,,,,,,,,wg-a,,,,AAXX 15124 07168 12568 72412 10130 20080 30132 40275 58004 60006 8587/ 91200=
07168,1997-03-15 15:00:00,12,1026.9,-0.6,82,9,16000,22.224,,,260,,,,,,,,,,,wg-a,,,,AAXX 15154 07168 12466 82612 10120 20090 30126 40269 55006 60006 885// 91500=
07168,1997-03-15 18:00:00,11,1027.4,0.4,94,10,0,18.52,,,260,3.4,13.2,,,,,,,,,wg-a,,,,AAXX 15184 07168 32/// /2610 10110 20100 30130 40274 53004 91800 333 10132 20034=
07168,1997-03-16 00:00:00,10,1028.6,0.2,87,8,0,14.816,,,280,,,,,,,,,,,wg-a,,,,AAXX 16004 07168 12/// /2808 10100 20080 30141 40286 50002 60006 90000=
07168,1997-03-16 06:00:00,9,1030,1.3,93,8,3000,11.112,,,320,8.5,11,,,,,,,,10,wg-a,,,,AAXX 16064 07168 02330 83206 10090 20080 30155 40300 53013 60006 71022 886// 90600 333 10110 20085 60004=
07168,1997-03-16 12:00:00,12,1030.2,-0.3,82,9,10000,14.816,,,280,,,,,,,,,,,wg-a,,,,AAXX 16124 07168 12460 72808 10120 20090 30158 40302 58003 60006 871// 91200=
07168,1997-03-17 00:00:00,10,1028.5,0.4,87,8,0,11.112,,,330,,,,,,,,,,,wg-a,,,,AAXX 17004 07168 12/// /3306 10100 20080 30140 40285 53004 60006 90000=
07168,1997-03-17 06:00:00,6,1029.3,1,93,5,7000,3.704,,,310,5.4,11.1,,,,,,,,,wg-a,,,,AAXX 17064 07168 02457 73102 10060 20050 30146 40293 53010 60006 85501 90600 333 10111 20054 60004=
07168,1997-03-17 09:00:00,9,1029.8,0.7,87,7,7000,3.704,,,310,,,,,,,,,,,wg-a,,,,AAXX 17094 07168 12457 73102 10090 20070 30153 40298 51007 60006 875// 90900=
07168,1997-03-17 12:00:00,13,1028.9,-0.7,72,8,6000,3.704,,,270,,,,,,,,,,,wg-a,,,,AAXX 17124 07168 12556 32702 10130 20080 30146 40289 58007 60006 83100 91200=
07168,1997-03-17 15:00:00,15,1027.1,-1.7,67,9,8000,3.704,,,300,,,,,,,,,,,wg-a,,,,AAXX 17154 07168 12558 /3002 10150 20090 30129 40271 56017 60006 81100 91500=
07168,1997-03-17 18:00:00,12,1026.7,-0.5,82,9,0,7.408,,,80,6.1,15.4,,,,,,,,,wg-a,,,,AAXX 17184 07168 12/// /0804 10120 20090 30124 40267 56005 60006 91800 333 10154 20061=
07168,1997-03-18 00:00:00,5,1024.8,-1.7,93,4,0,7.408,,,160,,,,,,,,,,,wg-a,,,,AAXX 18004 07168 12/// /1604 10050 20040 30101 40248 58017 60006 90000=
07168,1997-03-18 06:00:00,4,1020.2,-1.8,100,4,4000,3.704,,,90,3,11.9,,,,,,,,10,wg-a,,,,AAXX 18064 07168 02/40 20902 10040 20040 30055 40202 56018 60006 71000 80001 90600 333 10119 20030 60004=
07168,1997-03-18 09:00:00,13,1017.9,-1.8,82,10,8000,14.816,,,220,,,,,,,,,,,wg-a,,,,AAXX 18094 07168 12458 /2208 10130 20100 30037 40179 58018 60006 81100 90900=
07168,1997-03-18 15:00:00,11,1015.3,-1.3,76,7,8000,29.632,,,250,,,,,,,,,,,wg-a,,,,AAXX 18154 07168 12558 72516 10110 20070 30011 40153 58013 60006 875// 91500=
07168,1997-03-18 18:00:00,10,1013.1,-2.2,76,6,0,29.632,,,240,3.8,14.2,,,,,,,,,wg-a,,,,AAXX 18184 07168 12/// /2416 10100 20060 39989 40131 58022 60006 91800 333 10142 20038=
07168,1997-03-19 00:00:00,8,1012.4,-0.4,81,5,0,25.928,,,260,,,,,,,,,,,wg-a,,,,AAXX 19004 07168 12/// /2614 10080 20050 39980 40124 58004 60006 90000=
07168,1997-03-19 06:00:00,6,1010.1,-1,87,4,15000,31.484,,,250,6.1,10.3,,,,,,,,,wg-a,,,,AAXX 19064 07168 02565 72517 10060 20040 39957 40101 57010 60006 878// 90600 333 10103 20061 60004=
07168,1997-03-19 09:00:00,7,1009.7,-0.3,87,5,12000,35.188,,,260,,,,1,,,,,,25,wg-a,,,,AAXX 19094 07168 12462 72619 10070 20050 39954 40097 58003 60017 72586 872// 90900=
07168,1997-03-19 12:00:00,11,1008.8,-0.7,82,8,12000,38.892,,,270,,,,0,,,,,,25,wg-a,,,,AAXX 19124 07168 02462 72721 10110 20080 39947 40088 58007 60016 72586 872// 91200 333 60007=
07168,1997-03-19 15:00:00,10,1009.4,0.5,76,6,15000,35.188,,57.412,310,,,,1,,,,,,2,wg-a,,,,AAXX 19154 07168 12465 73119 10100 20060 39952 40094 53005 60017 70286 872// 91500 333 91031=
07168,1997-03-19 18:00:00,8,1013.1,3.5,71,3,0,31.484,,,330,6.1,10.6,,,,,,,,,wg-a,,,,AAXX 19184 07168 32/// /3317 10080 20030 39987 40131 53035 91800 333 10106 20061=
07168,1997-03-20 00:00:00,5,1017.4,1.6,81,2,0,25.928,,,320,,,,,,,,,,,wg-a,,,,AAXX 20004 07168 12/// /3214 10050 20020 30028 40174 51016 60006 90000=
07168,1997-03-20 06:00:00,4,1019.8,1,87,2,12000,18.52,,,310,4,8,,,,,2,,,,wg-a,,,,AAXX 20064 07168 02562 73110 10040 20020 30051 40198 53010 60006 875// 90600 333 10080 20040 60024=
07168,1997-03-20 09:00:00,6,1021.5,1.8,75,2,10000,14.816,,,340,,,,,,,,,,,wg-a,,,,AAXX 20094 07168 12460 43408 10060 20020 30069 40215 51018 60006 84800 90900=
07168,1997-03-20 12:00:00,8,1021.6,0.2,66,2,10000,14.816,,,330,,,,,,,,,,,wg-a,,,,AAXX 20124 07168 12560 /3308 10080 20020 30071 40216 50002 60006 86500 91200=
07168,1997-03-20 18:00:00,7,1021.3,0.1,81,4,0,3.704,,,200,3.8,10.1,,,,,,,,,wg-a,,,,AAXX 20184 07168 12/// /2002 10070 20040 30068 40213 53001 60006 91800 333 10101 20038=
07168,1997-03-21 06:00:00,5,1021.6,0.6,87,3,6000,7.408,,,220,2.6,6.7,,,,,,,,,wg-a,,,,AAXX 21064 07168 02656 72204 10050 20030 30070 40216 52006 60006 875// 90600 333 10067 20026 60004=
07168,1997-03-21 09:00:00,8,1022.5,1,76,4,10000,11.112,,,270,,,,,,,,,,,wg-a,,,,AAXX 21094 07168 12660 82706 10080 20040 30080 40225 53010 60006 885// 90900=
07168,1997-03-21 15:00:00,11,1023.3,-0.1,66,5,7000,7.408,,,30,,,,,,,,,,,wg-a,,,,AAXX 21154 07168 12557 70304 10110 20050 30089 40233 58001 60006 8523/ 91500=
07168,1997-03-21 18:00:00,8,1024.4,1,66,2,0,7.408,,,20,4.6,10.7,,,,,,,,,wg-a,,,,AAXX 21184 07168 32/// /0204 10080 20020 30099 40244 53010 91800 333 10107 20046=
07168,1997-03-22 00:00:00,1,1026.7,0.6,86,-1,0,11.112,,,320,,,,,,,,,,,wg-a,,,,AAXX 22004 07168 12/// /3206 10010 21010 30118 40267 50006 60006 90000=
07168,1997-03-22 06:00:00,-2,1027.4,0.7,93,-3,8000,11.112,,,300,-2.2,7.8,,,,,,,,,wg-a,,,,AAXX 22064 07168 02/58 03006 11020 21030 30123 40274 51007 60006 80000 90600 333 10078 21022 61000=
07168,1997-03-22 09:00:00,5,1027.8,0.8,81,2,7000,3.704,,,350,,,,,,,,,,,wg-a,,,,AAXX 22094 07168 12/57 03502 10050 20020 30131 40278 50008 60006 80000 90900=
07168,1997-03-22 12:00:00,10,1026.8,-0.8,50,0,10000,11.112,,,50,,,,,,,,,,,wg-a,,,,AAXX 22124 07168 12560 20506 10100 20000 30123 40268 58008 60006 82100 91200=
07168,1997-03-22 15:00:00,11,1025.1,-1.6,47,0,10000,11.112,,,40,,,,,,,,,,,wg-a,,,,AAXX 22154 07168 12/60 00406 10110 20000 30107 40251 56016 60006 80000 91500=
07168,1997-03-22 18:00:00,9,1024.2,-1,61,2,0,11.112,,,350,-1.7,11.1,,,,,,,,,wg-a,,,,AAXX 22184 07168 12/// /3506 10090 20020 30097 40242 56010 60006 91800 333 10111 21017=
07168,1997-03-23 00:00:00,-1,1022.9,-1.3,93,-2,0,11.112,,,180,,,,,,,,,,,wg-a,,,,AAXX 23004 07168 12/// /1806 11010 21020 30079 40229 58013 60006 90000=
07168,1997-03-23 06:00:00,1,1018.3,-1.9,86,-1,8000,0,,,0,-1.3,8.8,,,,,,,,,wg-a,,,,AAXX 23064 07168 02/58 /0000 10010 21010 30035 40183 56019 60006 80001 90600 333 10088 21013 60004=
07168,1997-03-23 09:00:00,8,1015.9,-2,71,3,12000,11.112,,,190,,,,,,,,,,,wg-a,,,,AAXX 23094 07168 12/62 71906 10080 20030 30015 40159 56020 60006 83032 90900=
07168,1997-03-23 12:00:00,13,1012.7,-2.9,44,1,12000,29.632,,,260,,,,,,,,,,,wg-a,,,,AAXX 23124 07168 12/62 72616 10130 20010 39986 40127 58029 60006 84032 91200=
07168,1997-03-23 18:00:00,9,1011.3,0.8,81,6,0,18.52,,,310,0.5,13.3,,,,,,,,,wg-a,,,,AAXX 23184 07168 32/// /3110 10090 20060 39970 40113 53008 91800 333 10133 20005=
07168,1997-03-24 00:00:00,6,1011.7,-0.5,87,4,0,11.112,,,280,,,,,,,,,,,wg-a,,,,AAXX 24004 07168 12/// /2806 10060 20040 39973 40117 58005 60006 90000=
07168,1997-03-24 06:00:00,7,1011.6,0.2,87,5,6000,18.52,,,280,5,8.8,,,,,,,,80,wg-a,,,,AAXX 24064 07168 02456 82810 10070 20050 39972 40116 53002 61000 78086 875// 90600 333 10088 20050 6001=
07168,1997-03-24 09:00:00,9,1012.2,0.7,81,6,500,11.112,,,280,,,,,,,,,,3,wg-a,,,,AAXX 24094 07168 02300 82806 10090 20060 39979 40122 51007 61000 70386 875// 90900 333 ////=
07168,1997-03-24 12:00:00,10,1011.8,-0.3,82,7,6000,14.816,,,260,,,,,,,,,,1,wg-a,,,,AAXX 24124 07168 02456 82608 10100 20070 39976 40118 58003 61000 70186 878// 91200 333 ////=
07168,1997-03-24 15:00:00,10,1011.1,-0.7,82,7,10000,11.112,,,290,,,,,,,,,,,wg-a,,,,AAXX 24154 07168 12560 82906 10100 20070 39969 40111 56007 60006 878// 91500=
07168,1997-03-24 18:00:00,10,1011.4,0.3,76,6,0,0,,,0,6.8,11.3,,,,,,,,,wg-a,,,,AAXX 24184 07168 32/// /0000 10100 20060 39972 40114 53003 91800 333 10113 20068=
07168,1997-03-25 00:00:00,7,1013.2,0.6,93,6,0,3.704,,,290,,,,,,,,,,,wg-a,,,,AAXX 25004 07168 12/// /2902 10070 20060 39988 40132 50006 60016 90000=
07168,1997-03-25 06:00:00,7,1015.4,1.7,93,6,3000,18.52,,,290,6.5,9.9,,,,,1,,,10,wg-a,,,,AAXX 25064 07168 02330 82910 10070 20060 30010 40154 53017 60006 71022 875// 90600 333 10099 20065 60014=
07168,1997-03-25 09:00:00,9,1016.8,1.4,87,7,7000,18.52,,,310,,,,,,,,,,,wg-a,,,,AAXX 25094 07168 12457 83110 10090 20070 30024 40168 52014 60006 8583/ 90900=
07168,1997-03-25 12:00:00,10,1017.8,1.1,82,7,10000,18.52,,,320,,,,,,,,,,,wg-a,,,,AAXX 25124 07168 12460 83210 10100 20070 30035 40178 53011 60006 888// 91200=
07168,1997-03-25 15:00:00,12,1017.9,0.2,62,5,10000,14.816,,,350,,,,,,,,,,,wg-a,,,,AAXX 25154 07168 12560 53508 10120 20050 30037 40179 53002 60006 83201 91500=
07168,1997-03-25 18:00:00,10,1019.6,1.6,76,6,0,3.704,,,40,7.3,12.7,,,,,,,,,wg-a,,,,AAXX 25184 07168 12/// /0402 10100 20060 30053 40196 53016 60006 91800 333 10127 20073=
07168,1997-03-26 00:00:00,1,1022.2,0.5,100,1,0,3.704,,,100,,,,,,,,,,,wg-a,,,,AAXX 26004 07168 12/// /1002 10010 20010 30074 40222 51005 60006 90000=
07168,1997-03-26 06:00:00,0,1023.4,1.3,93,-1,200,7.408,,,180,-1,10.4,,,,,,,,45,wg-a,,,,AAXX 26064 07168 02/02 91804 10000 21010 30085 40234 50013 60006 74542 89/// 90600 333 10104 21010 60004=
07168,1997-03-26 09:00:00,7,1023,-0,100,7,2000,7.408,,,160,,,,,,,,,,10,wg-a,,,,AAXX 26094 07168 12220 31604 10070 20070 30085 40230 55000 60006 71041 83600 90900=
07168,1997-03-26 12:00:00,15,1021.7,-0.9,55,6,8000,14.816,,,260,,,,,,,,,,2,wg-a,,,,AAXX 26124 07168 12658 /2608 10150 20060 30076 40217 58009 60006 70241 83104 91200=
07168,1997-03-26 18:00:00,13,1021.3,0.2,72,8,0,11.112,,,220,-0.1,16.1,,,,,,,,,wg-a,,,,AAXX 26184 07168 12/// /2206 10130 20080 30071 40213 53002 60006 91800 333 10161 21001=
07168,1997-03-27 00:00:00,11,1022.3,-0.1,76,7,0,11.112,,,220,,,,,,,,,,,wg-a,,,,AAXX 27004 07168 12/// /2206 10110 20070 30080 40223 56001 60006 90000=
07168,1997-03-27 06:00:00,10,1023.6,0.7,93,9,500,18.52,,,250,8.8,12.7,,,,,,,,,wg-a,,,,AAXX 27064 07168 02300 72510 10100 20090 30092 40236 53007 60006 875// 90600 333 10127 20088 60004=
07168,1997-03-27 09:00:00,12,1024.4,0.9,88,10,4000,22.224,,,250,,,,,,,,,,10,wg-a,,,,AAXX 27094 07168 12340 82512 10120 20100 30101 40244 51009 60006 71022 876// 90900=
07168,1997-03-27 12:00:00,14,1023.8,-0.5,82,11,10000,18.52,,,260,,,,,,,,,,,wg-a,,,,AAXX 27124 07168 12460 82610 10140 20110 30096 40238 58005 60006 878// 91200=
07168,1997-03-27 15:00:00,14,1022.4,-1.3,82,11,15000,14.816,,,240,,,,,,,,,,,wg-a,,,,AAXX 27154 07168 12565 82408 10140 20110 30083 40224 57013 60006 878// 91500=
07168,1997-03-27 18:00:00,14,1021.5,-1,82,11,0,18.52,,,240,10.4,14.7,,,,,,,,,wg-a,,,,AAXX 27184 07168 12/// /2410 10140 20110 30073 40215 56010 60006 91800 333 10147 20104=
07168,1997-03-28 00:00:00,13,1018.8,-1.4,82,10,0,25.928,,,260,,,,,,,,,,,wg-a,,,,AAXX 28004 07168 12/// /2614 10130 20100 30047 40188 58014 60006 90000=
07168,1997-03-28 06:00:00,10,1018.3,1.3,76,6,20000,31.484,,,300,9.9,13.9,,0,,,,,,1,wg-a,,,,AAXX 28064 07168 02570 73017 10100 20060 30040 40183 53013 60004 70162 878// 90600 333 10139 20099 60007=
07168,1997-03-28 09:00:00,11,1020.4,2.1,62,4,500,35.188,,,320,,,,,,,,,,,wg-a,,,,AAXX 28094 07168 12500 43219 10110 20040 30061 40204 51021 60006 84200 90900=
07168,1997-03-28 12:00:00,11,1021.5,1.1,54,2,500,31.484,,,310,,,,,,,,,,,wg-a,,,,AAXX 28124 07168 12600 /3117 10110 20020 30072 40215 53011 60006 85200 91200=
07168,1997-03-28 15:00:00,12,1022.2,0.7,40,-1,500,29.632,,,320,,,,,,,,,,,wg-a,,,,AAXX 28154 07168 12700 53216 10120 21010 30079 40222 51007 60006 85200 91500=
07168,1997-03-28 18:00:00,8,1023.1,0.7,57,0,0,18.52,,,330,8.3,13.2,,,,,,,,,wg-a,,,,AAXX 28184 07168 12/// /3310 10080 20000 30086 40231 53007 60006 91800 333 10132 20083=
07168,1997-03-29 09:00:00,7,1026.2,0.4,76,3,16000,14.816,,,320,,,,,,,,,,,wg-a,,,,AAXX 29094 07168 12566 /3208 10070 20030 30116 40262 52004 60006 81100 90900=
07168,1997-03-29 12:00:00,9,1025.8,-0.3,57,1,18000,18.52,,,320,,,,,,,,,,,wg-a,,,,AAXX 29124 07168 12668 /3210 10090 20010 30113 40258 58003 60006 85230 91200=
07168,1997-03-29 15:00:00,10,1024.7,-1,53,1,20000,22.224,,,330,,,,,,,,,,,wg-a,,,,AAXX 29154 07168 12670 73312 10100 20010 30103 40247 56010 60006 8327/ 91500=
07168,1997-03-29 18:00:00,9,1025.3,0.5,57,1,0,3.704,,,20,0.8,11.1,,,,,,,,,wg-a,,,,AAXX 29184 07168 12/// /0202 10090 20010 30108 40253 53005 60006 91800 333 10111 20008=
07168,1997-03-30 00:00:00,3,1027.1,0.6,87,1,0,11.112,,,300,,,,,,,,,,,wg-a,,,,AAXX 30004 07168 12/// /3006 10030 20010 30123 40271 51006 60006 90000=
07168,1997-03-30 09:00:00,10,1027.8,0.6,66,4,14000,0,,,0,,,,,,,,,,,wg-a,,,,AAXX 30094 07168 12764 10000 10100 20040 30133 40278 51006 60006 81500 90900=
07168,1997-03-30 12:00:00,12,1027.1,-0.5,58,4,14000,14.816,,,50,,,,,,,,,,,wg-a,,,,AAXX 30124 07168 12564 /0508 10120 20040 30128 40271 58005 60006 85200 91200=
07168,1997-03-30 15:00:00,13,1026.5,-0.6,47,2,16000,14.816,,,30,,,,,,,,,,,wg-a,,,,AAXX 30154 07168 12666 70308 10130 20020 30122 40265 55006 60006 878// 91500=
07168,1997-03-30 18:00:00,11,1026.7,0.1,58,3,0,3.704,,,30,0,13.6,,,,,,,,,wg-a,,,,AAXX 30184 07168 12/// /0302 10110 20030 30123 40267 53001 60006 91800 333 10136 20000=
07168,1997-03-31 06:00:00,-1,1027.3,0.4,93,-2,8000,7.408,,,330,-0.9,10.7,,,,,,,,,wg-a,,,,AAXX 31064 07168 02/58 03304 11010 21020 30123 40273 53004 60006 80000 90600 333 10107 21009 60004=
07168,1997-03-31 09:00:00,11,1026.9,0.2,62,4,10000,7.408,,,340,,,,,,,,,,,wg-a,,,,AAXX 31094 07168 12/60 03404 10110 20040 30125 40269 50002 60006 80000 90900=
07168,1997-03-31 12:00:00,15,1025.7,-1,48,4,15000,18.52,,,70,,,,,,,,,,,wg-a,,,,AAXX 31124 07168 12/65 00710 10150 20040 30115 40257 58010 60006 80000 91200=
07168,1997-03-31 18:00:00,15,1023.2,-0.8,51,5,0,7.408,,,40,-0.7,16.6,,,,,,,,,wg-a,,,,AAXX 31184 07168 12/// /0404 10150 20050 30090 40232 56008 60006 91800 333 10166 21007=
07168,1997-04-01 00:00:00,6,1023.4,-0.2,81,3,0,0,,,0,,,,,,,,,,,wg-a,,,,AAXX 01004 07168 12/// /0000 10060 20030 30088 40234 58002 60006 90000=
07168,1997-04-01 06:00:00,0,1023.4,0.7,93,-1,8000,7.408,,,310,-0.9,14.5,,,,,,,,,wg-a,,,,AAXX 01064 07168 02/58 03104 10000 21010 30085 40234 53007 60006 80000 90600 333 10145 21009 60004=
07168,1997-04-01 09:00:00,11,1023.1,0.3,71,6,10000,3.704,,,340,,,,,,,,,,,wg-a,,,,AAXX 01094 07168 12/60 03402 10110 20060 30088 40231 51003 60006 80000 90900=
07168,1997-04-01 12:00:00,17,1021.9,-0.9,52,7,12000,11.112,,,350,,,,,,,,,,,wg-a,,,,AAXX 01124 07168 12/62 03506 10170 20070 30079 40219 58009 60006 80000 91200=
07168,1997-04-01 15:00:00,20,1020.3,-1.5,43,7,18000,11.112,,,20,,,,,,,,,,,wg-a,,,,AAXX 01154 07168 12/68 00206 10200 20070 30064 40203 56015 60006 80000 91500=
07168,1997-04-01 18:00:00,17,1019.7,-0.7,48,6,0,11.112,,,360,0,19.8,,,,,,,,,wg-a,,,,AAXX 01184 07168 12/// /3606 10170 20060 30057 40197 56007 60006 91800 333 10198 20000=
07168,1997-04-02 00:00:00,7,1020.6,-0.2,81,4,0,14.816,,,300,,,,,,,,,,,wg-a,,,,AAXX 02004 07168 12/// /3008 10070 20040 30061 40206 58002 60006 90000=
07168,1997-04-02 06:00:00,5,1020,-0.1,87,3,500,11.112,,,320,3.7,16.7,,,,,,,,,wg-a,,,,AAXX 02064 07168 02/00 33206 10050 20030 30054 40200 55001 60006 81031 90600 333 10167 20037 60004=
07168,1997-04-02 09:00:00,12,1019.8,0.2,71,7,500,7.408,,,300,,,,,,,,,,,wg-a,,,,AAXX 02094 07168 12/00 /3004 10120 20070 30056 40198 50002 60006 81031 90900=
07168,1997-04-02 15:00:00,19,1017.3,-1.5,49,8,7000,11.112,,,360,,,,,,,,,,,wg-a,,,,AAXX 02154 07168 12/57 33606 10190 20080 30034 40173 56015 60006 83030 91500=
07168,1997-04-02 18:00:00,14,1017.2,-0.3,72,9,0,7.408,,,300,4.5,18.9,,,,,,,,,wg-a,,,,AAXX 02184 07168 12/// /3004 10140 20090 30031 40172 56003 60006 91800 333 10189 20045=
07168,1997-04-03 00:00:00,3,1018,-0.5,93,2,0,0,,,0,,,,,,,,,,,wg-a,,,,AAXX 03004 07168 12/// /0000 10030 20020 30033 40180 57005 60006 90000=
07168,1997-04-03 06:00:00,3,1017.2,0.3,93,2,500,3.704,,,320,0.9,14.1,,,,,,,,,wg-a,,,,AAXX 03064 07168 02/00 03202 10030 20020 30025 40172 51003 60006 80000 90600 333 10141 20009 60004=
07168,1997-04-03 09:00:00,11,1017.4,0.7,71,6,6000,11.112,,,300,,,,,,,,,,,wg-a,,,,AAXX 03094 07168 12/56 03006 10110 20060 30032 40174 52007 60006 80000 90900=
07168,1997-04-03 12:00:00,14,1017,-0.3,63,7,8000,18.52,,,320,,,,,,,,,,,wg-a,,,,AAXX 03124 07168 12658 /3210 10140 20070 30029 40170 58003 60006 86200 91200=
07168,1997-04-03 15:00:00,14,1017.1,0.1,55,5,9000,29.632,,,310,,,,,,,,,,,wg-a,,,,AAXX 03154 07168 12659 73116 10140 20050 30030 40171 53001 60006 83104 91500=
07168,1997-04-03 18:00:00,11,1017.7,0.5,71,6,0,11.112,,,290,3,15.2,,,,,,,,,wg-a,,,,AAXX 03184 07168 12/// /2906 10110 20060 30035 40177 51005 60006 91800 333 10152 20030=
07168,1997-04-04 00:00:00,6,1019.9,0.7,93,5,0,11.112,,,300,,,,,,,,,,,wg-a,,,,AAXX 04004 07168 12/// /3006 10060 20050 30054 40199 53007 60006 90000=
07168,1997-04-04 06:00:00,2,1024.4,2.9,87,0,18000,14.816,,,300,2.4,11.2,,,,,,,,,wg-a,,,,AAXX 04064 07168 02668 53008 10020 20000 30096 40244 53029 60006 81501 90600 333 10112 20024 60004=
07168,1997-04-04 09:00:00,8,1026.2,2.1,66,2,18000,22.224,,,340,,,,,,,,,,,wg-a,,,,AAXX 04094 07168 12568 43412 10080 20020 30117 40262 51021 60006 82101 90900=
07168,1997-04-04 15:00:00,10,1027.1,0.1,43,-2,25000,18.52,,,360,,,,,,,,,,,wg-a,,,,AAXX 04154 07168 12775 63610 10100 21020 30126 40271 50001 60006 84202 91500=
07168,1997-04-05 00:00:00,-1,1028.6,-0.3,80,-4,0,0,,,0,,,,,,,,,,,wg-a,,,,AAXX 05004 07168 12/// /0000 11010 21040 30135 40286 55003 60006 90000=
07168,1997-04-05 06:00:00,3,1025.4,-1.2,65,-3,25000,11.112,,,180,-3.3,8.8,,,,,,,,,wg-a,,,,AAXX 05064 07168 02/75 71806 10030 21030 30106 40254 56012 60006 8703/ 90600 333 10088 21033 60004=
07168,1997-04-05 09:00:00,10,1024.2,-0.8,62,3,25000,25.928,,,230,,,,,,,,,,,wg-a,,,,AAXX 05094 07168 12/75 62314 10100 20030 30098 40242 58008 60006 86030 90900=
07168,1997-04-05 12:00:00,14,1021.3,-2.6,55,5,25000,38.892,,57.412,260,,,,,,,,,,,wg-a,,,,AAXX 05124 07168 12/75 62621 10140 20050 30072 40213 58026 60006 80001 91200 333 91031=
07168,1997-04-05 15:00:00,15,1019.5,-1.8,59,7,25000,35.188,,,270,,,,,,,,,,,wg-a,,,,AAXX 05154 07168 12675 /2719 10150 20070 30054 40195 58018 60006 84101 91500=
07168,1997-04-05 18:00:00,14,1018.8,-0.7,63,7,0,29.632,,,310,2.5,16.4,,,,,,,,,wg-a,,,,AAXX 05184 07168 12/// /3116 10140 20070 30047 40188 55007 60006 91800 333 10164 20025=
07168,1997-04-06 00:00:00,11,1020.7,0.2,76,7,0,25.928,,,280,,,,,,,,,,,wg-a,,,,AAXX 06004 07168 12/// /2814 10110 20070 30064 40207 52002 60006 90000=
07168,1997-04-06 06:00:00,9,1022.3,1.3,93,8,6000,14.816,,,300,8.7,13.8,,,,,,,,1,wg-a,,,,AAXX 06064 07168 02556 83008 10090 20080 30079 40223 53013 60006 70152 885// 90600 333 10138 20087 61000=
07168,1997-04-06 09:00:00,13,1023.4,1.3,72,8,9000,22.224,,,360,,,,,,,,,,,wg-a,,,,AAXX 06094 07168 12459 /3612 10130 20080 30092 40234 53013 60006 86800 90900=
07168,1997-04-06 12:00:00,13,1025.1,1.6,47,2,15000,18.52,,,10,,,,,,,,,,,wg-a,,,,AAXX 06124 07168 12/65 00110 10130 20020 30108 40251 51016 60006 80000 91200=
07168,1997-04-06 15:00:00,13,1025.3,0.2,41,0,25000,22.224,,,20,,,,,,,,,,,wg-a,,,,AAXX 06154 07168 12/75 00212 10130 20000 30110 40253 51002 60006 80000 91500=
07168,1997-04-06 18:00:00,11,1026.4,1,40,-2,0,14.816,,,30,9,14,,,,,,,,,wg-a,,,,AAXX 06184 07168 12/// /0308 10110 21020 30120 40264 53010 60006 91800 333 10140 20090=
07168,1997-04-07 00:00:00,3,1029.6,0.9,65,-3,0,11.112,,,70,,,,,,,,,,,wg-a,,,,AAXX 07004 07168 12/// /0706 10030 21030 30148 40296 51009 60006 90000=
07168,1997-04-07 09:00:00,8,1030.1,0.1,49,-2,500,22.224,,,70,,,,,,,,,,,wg-a,,,,AAXX 07094 07168 12/00 10712 10080 21020 30155 40301 53001 60006 80001 90900=
07168,1997-04-07 12:00:00,12,1029.1,-0.8,40,-1,500,25.928,,,50,,,,,,,,,,,wg-a,,,,AAXX 07124 07168 12/00 10514 10120 21010 30147 40291 58008 60006 80001 91200=
07168,1997-04-07 18:00:00,11,1027.7,-0.3,35,-4,0,22.224,,,60,2.3,14.2,,,,,,,,,wg-a,,,,AAXX 07184 07168 12/// /0612 10110 21040 30133 40277 55003 60006 91800 333 10142 20023=
07168,1997-04-08 06:00:00,0,1028.4,0.5,64,-6,500,3.704,,,360,-1.6,11,,,,,,,,,wg-a,,,,AAXX 08064 07168 02/00 13602 10000 21060 30134 40284 53005 60006 80001 90600 333 10110 21016 60004=
07168,1997-04-08 09:00:00,9,1027.3,-0.6,37,-5,500,14.816,,,100,,,,,,,,,,,wg-a,,,,AAXX 08094 07168 12/00 11008 10090 21050 30128 40273 58006 60006 80001 90900=
07168,1997-04-08 12:00:00,14,1026,-1,33,-2,500,14.816,,,80,,,,,,,,,,,wg-a,,,,AAXX 08124 07168 12/00 00808 10140 21020 30118 40260 58010 60006 80000 91200=
07168,1997-04-08 15:00:00,18,1024.3,-1.5,30,0,500,11.112,,,70,,,,,,,,,,,wg-a,,,,AAXX 08154 07168 12/00 00706 10180 20000 30103 40243 57015 60006 80000 91500=
07168,1997-04-08 18:00:00,15,1024.6,0.1,36,0,0,14.816,,,60,0.3,18,,,,,,,,,wg-a,,,,AAXX 08184 07168 12/// /0608 10150 20000 30104 40246 53001 60006 91800 333 10180 20003=
07168,1997-04-09 00:00:00,5,1026.8,1.1,60,-2,0,7.408,,,120,,,,,,,,,,,wg-a,,,,AAXX 09004 07168 12/// /1204 10050 21020 30121 40268 51011 60006 90000=
07168,1997-04-09 06:00:00,1,1027.6,0.7,86,-1,20000,3.704,,,160,0.3,15.2,,,,,,,,,wg-a,,,,AAXX 09064 07168 02/70 31602 10010 21010 30127 40276 53007 60006 80001 90600 333 10152 20003 60004=
07168,1997-04-09 09:00:00,13,1028.1,1.1,54,4,20000,7.408,,,160,,,,,,,,,,,wg-a,,,,AAXX 09094 07168 12/70 21604 10130 20040 30138 40281 52011 60006 80001 90900=
07168,1997-04-09 15:00:00,21,1026.6,-0.8,38,6,25000,3.704,,,340,,,,,,,,,,,wg-a,,,,AAXX 09154 07168 12/75 53402 10210 20060 30127 40266 58008 60006 80001 91500=
07168,1997-04-10 00:00:00,5,1030.4,0.9,81,2,0,3.704,,,260,,,,,,,,,,,wg-a,,,,AAXX 10004 07168 12/// /2602 10050 20020 30156 40304 51009 60006 90000=
07168,1997-04-10 06:00:00,1,1031.4,0.8,93,0,10000,3.704,,,310,0.6,18.3,,,,,,,,,wg-a,,,,AAXX 10064 07168 02/60 03102 10010 20000 30164 40314 53008 60006 80000 90600 333 10183 20006 60004=
07168,1997-04-10 09:00:00,13,1031.6,0.8,62,6,10000,7.408,,,340,,,,,,,,,,,wg-a,,,,AAXX 10094 07168 12/60 03404 10130 20060 30172 40316 53008 60006 80000 90900=
07168,1997-04-10 12:00:00,19,1030.2,-1,34,3,12000,11.112,,,30,,,,,,,,,,,wg-a,,,,AAXX 10124 07168 12/62 30306 10190 20030 30162 40302 58010 60006 80001 91200=
07168,1997-04-10 15:00:00,21,1028.7,-1.5,23,-1,20000,14.816,,,360,,,,,,,,,,,wg-a,,,,AAXX 10154 07168 12/70 43608 10210 21010 30147 40287 57015 60006 80001 91500=
07168,1997-04-10 18:00:00,18,1028.6,-0.2,34,2,0,7.408,,,20,1.5,21.1,,,,,,,,,wg-a,,,,AAXX 10184 07168 12/// /0204 10180 20020 30145 40286 56002 60006 91800 333 10211 20015=
07168,1997-04-11 00:00:00,5,1029.1,-0.6,75,1,0,14.816,,,300,,,,,,,,,,,wg-a,,,,AAXX 11004 07168 12/// /3008 10050 20010 30144 40291 57006 60006 90000=
07168,1997-04-11 06:00:00,1,1027.4,-0.9,86,-1,10000,3.704,,,150,0.1,17.7,,,,,,,,,wg-a,,,,AAXX 11064 07168 02/60 21502 10010 21010 30124 40274 56009 60006 80001 90600 333 10177 20001 60004=
07168,1997-04-11 09:00:00,15,1025.5,-1.1,51,5,10000,11.112,,,310,,,,,,,,,,,wg-a,,,,AAXX 11094 07168 12/60 03106 10150 20050 30113 40255 58011 60006 80000 90900=
07168,1997-04-11 12:00:00,19,1023.3,-2,43,6,10000,29.632,,,310,,,,,,,,,,,wg-a,,,,AAXX 11124 07168 12/60 03116 10190 20060 30093 40233 58020 60006 80000 91200=
07168,1997-04-12 00:00:00,3,1028.1,0.7,70,-2,0,11.112,,,20,,,,,,,,,,,wg-a,,,,AAXX 12004 07168 12/// /0206 10030 21020 30133 40281 53007 60006 90000=
07168,1997-04-12 09:00:00,7,1028.2,-0.1,53,-2,12000,22.224,,,50,,,,,,,,,,,wg-a,,,,AAXX 12094 07168 12562 /0512 10070 21020 30136 40282 58001 60006 81101 90900=
07168,1997-04-12 12:00:00,9,1027,-1.1,49,-1,20000,18.52,,,20,,,,,,,,,,,wg-a,,,,AAXX 12124 07168 12770 60210 10090 21010 30125 40270 56011 60006 854/1 91200=
07168,1997-04-12 15:00:00,10,1026.5,-0.5,46,-1,25000,18.52,,,10,,,,,,,,,,,wg-a,,,,AAXX 12154 07168 12775 70110 10100 21010 30120 40265 57005 60006 875// 91500=
07168,1997-04-12 18:00:00,9,1026.4,-0.1,53,0,0,18.52,,,20,0.7,10.4,,,,,,,,,wg-a,,,,AAXX 12184 07168 12/// /0210 10090 20000 30119 40264 57001 60006 91800 333 10104 20007=
07168,1997-04-13 00:00:00,0,1027.5,0.1,86,-2,0,14.816,,,300,,,,,,,,,,,wg-a,,,,AAXX 13004 07168 12/// /3008 10000 21020 30125 40275 52001 60006 90000=
07168,1997-04-13 06:00:00,0,1027.5,0.6,93,-1,8000,7.408,,,320,-1.6,8.6,,,,,,,,,wg-a,,,,AAXX 13064 07168 02/58 03204 10000 21010 30125 40275 53006 60006 80000 90600 333 10086 21016 60004=
07168,1997-04-13 09:00:00,7,1027.3,0.2,70,2,10000,3.704,,,310,,,,,,,,,,,wg-a,,,,AAXX 13094 07168 12560 23102 10070 20020 30127 40273 50002 60006 82100 90900=
07168,1997-04-13 12:00:00,11,1026,-1.1,43,-1,18000,14.816,,,10,,,,,,,,,,,wg-a,,,,AAXX 13124 07168 12668 20108 10110 21010 30116 40260 56011 60006 82100 91200=
07168,1997-04-13 15:00:00,12,1024.6,-1.3,44,0,25000,14.816,,,30,,,,,,,,,,,wg-a,,,,AAXX 13154 07168 12/75 20308 10120 20000 30103 40246 56013 60006 80001 91500=
07168,1997-04-13 18:00:00,11,1023.9,-0.8,50,1,0,11.112,,,350,0.2,12.6,,,,,,,,,wg-a,,,,AAXX 13184 07168 12/// /3506 10110 20010 30095 40239 56008 60006 91800 333 10126 20002=
07168,1997-04-14 00:00:00,2,1024.3,-0.3,87,0,0,14.816,,,300,,,,,,,,,,,wg-a,,,,AAXX 14004 07168 12/// /3008 10020 20000 30095 40243 58003 60006 90000=
07168,1997-04-14 09:00:00,10,1025,0.6,57,2,18000,3.704,,,10,,,,,,,,,,,wg-a,,,,AAXX 14094 07168 12/68 00102 10100 20020 30106 40250 51006 60006 80000 90900=
07168,1997-04-14 18:00:00,14,1022.9,0.4,55,5,0,7.408,,,30,0.6,16.2,,,,,,,,,wg-a,,,,AAXX 14184 07168 12/// /0304 10140 20050 30087 40229 53004 60006 91800 333 10162 20006=
07168,1997-04-15 00:00:00,7,1024.5,0.4,87,5,0,7.408,,,330,,,,,,,,,,,wg-a,,,,AAXX 15004 07168 12/// /3304 10070 20050 30099 40245 53004 60006 90000=
07168,1997-04-15 06:00:00,5,1026.2,1.3,75,1,12000,14.816,,,10,2.8,13.9,,,,,,,,,wg-a,,,,AAXX 15064 07168 02562 40108 10050 20010 30115 40262 52013 60006 84500 90600 333 10139 20028 60004=
07168,1997-04-15 09:00:00,8,1027.1,1,61,1,15000,14.816,,,30,,,,,,,,,,,wg-a,,,,AAXX 15094 07168 12565 /0308 10080 20010 30125 40271 52010 60006 86200 90900=
07168,1997-04-15 12:00:00,11,1026.6,-0.3,43,-1,20000,22.224,,,20,,,,,,,,,,,wg-a,,,,AAXX 15124 07168 12670 /0212 10110 21010 30122 40266 58003 60006 81100 91200=
07168,1997-04-15 15:00:00,12,1025.5,-1,40,-1,25000,22.224,,,30,,,,,,,,,,,wg-a,,,,AAXX 15154 07168 12/75 00312 10120 21010 30112 40255 56010 60006 80000 91500=
07168,1997-04-16 06:00:00,0,1027.5,0.2,86,-2,12000,11.112,,,320,-1.6,10.7,,,,,,,,,wg-a,,,,AAXX 16064 07168 02/62 13206 10000 21020 30125 40275 53002 60006 80001 90600 333 10107 21016 60004=
07168,1997-04-16 09:00:00,7,1027,-0.1,57,-1,12000,18.52,,,50,,,,,,,,,,,wg-a,,,,AAXX 16094 07168 12/62 10510 10070 21010 30124 40270 58001 60006 80001 90900=
07168,1997-04-16 15:00:00,12,1023.5,-1.7,35,-3,18000,18.52,,35.188,30,,,,,,,,,,,wg-a,,,,AAXX 16154 07168 12768 30310 10120 21030 30092 40235 58017 60006 81101 91500 333 91019=
07168,1997-04-16 18:00:00,10,1022.3,-1.3,46,-1,0,14.816,,,10,-0.1,12.3,,,,,,,,,wg-a,,,,AAXX 16184 07168 12/// /0108 10100 21010 30079 40223 56013 60006 91800 333 10123 21001=
07168,1997-04-17 00:00:00,3,1021.5,-0.7,75,-1,0,14.816,,,310,,,,,,,,,,,wg-a,,,,AAXX 17004 07168 12/// /3108 10030 21010 30068 40215 58007 60006 90000=
07168,1997-04-17 06:00:00,4,1020.9,0.7,65,-2,12000,11.112,,,50,0.1,9.7,,,,,,,,,wg-a,,,,AAXX 17064 07168 02/62 10506 10040 21020 30062 40209 51007 60006 80001 90600 333 10097 20001 60004=
07168,1997-04-17 09:00:00,8,1021.3,0.6,46,-3,20000,25.928,,,60,,,,,,,,,,,wg-a,,,,AAXX 17094 07168 12/70 50614 10080 21030 30068 40213 51006 60006 80001 90900=
07168,1997-04-17 12:00:00,12,1020.3,-0.8,26,-7,25000,29.632,,48.152,60,,,,,,,,,,,wg-a,,,,AAXX 17124 07168 12775 10616 10120 21070 30060 40203 58008 60006 81100 91200 333 91026=
07168,1997-04-17 15:00:00,13,1019.2,-1,24,-7,10000,25.928,,42.596,70,,,,,,,,,,,wg-a,,,,AAXX 17154 07168 12/60 /0714 10130 21070 30050 40192 56010 60006 91500 333 91023=
07168,1997-04-17 18:00:00,11,1020,0.7,35,-4,0,22.224,,,70,3.6,13.4,,,,,,,,,wg-a,,,,AAXX 17184 07168 12/// /0712 10110 21040 30057 40200 53007 60006 91800 333 10134 20036=
07168,1997-04-18 06:00:00,3,1021.6,0.3,70,-2,25000,3.704,,,70,-0.8,11.4,,,,,,,,,wg-a,,,,AAXX 18064 07168 02/75 00702 10030 21020 30069 40216 53003 60006 80000 90600 333 10114 21008 60004=
07168,1997-04-18 09:00:00,11,1020.6,-0.6,47,0,500,14.816,,,60,,,,,,,,,,,wg-a,,,,AAXX 18094 07168 12/00 00608 10110 20000 30063 40206 58006 60006 80000 90900=
07168,1997-04-18 12:00:00,14,1018.6,-1.8,36,-1,500,14.816,,,60,,,,,,,,,,,wg-a,,,,AAXX 18124 07168 12/00 00608 10140 21010 30045 40186 58018 60006 80000 91200=
07168,1997-04-18 18:00:00,14,1014.9,-1.2,36,-1,0,7.408,,,10,3.2,16.4,,,,,,,,,wg-a,,,,AAXX 18184 07168 12/// /0104 10140 21010 30008 40149 56012 60006 91800 333 10164 20032=
07168,1997-04-19 00:00:00,5,1015.3,-0.4,75,1,0,14.816,,,330,,,,,,,,,,,wg-a,,,,AAXX 19004 07168 12/// /3308 10050 20010 30007 40153 57004 60006 90000=
07168,1997-04-19 06:00:00,2,1013.9,-0.4,93,1,4000,11.112,,,310,0.1,14.4,,,,,,,,10,wg-a,,,,AAXX 19064 07168 02/40 /3106 10020 20010 39992 40139 55004 60006 71000 80001 90600 333 10144 20001 60004=
07168,1997-04-19 12:00:00,13,1011.3,-1.4,51,3,8000,22.224,,,350,,,,,,,,,,,wg-a,,,,AAXX 19124 07168 12658 33512 10130 20030 39972 40113 58014 60006 83100 91200=
07168,1997-04-19 15:00:00,13,1009.5,-1.8,51,3,10000,22.224,,42.596,10,,,,,,,,,,,wg-a,,,,AAXX 19154 07168 12660 /0112 10130 20030 39954 40095 58018 60006 85100 91500 333 91023=
07168,1997-04-19 18:00:00,10,1010,0.4,53,1,0,18.52,,,10,1.9,13.6,,,,,,,,,wg-a,,,,AAXX 19184 07168 12/// /0110 10100 20010 39958 40100 51004 60006 91800 333 10136 20019=
07168,1997-04-20 00:00:00,4,1013,1.1,60,-3,0,22.224,,,360,,,,,,,,,,,wg-a,,,,AAXX 20004 07168 12/// /3612 10040 21030 39984 40130 51011 60006 90000=
07168,1997-04-20 06:00:00,2,1013.7,0.8,80,-1,14000,18.52,,,10,0.8,10.5,,,,,,,,,wg-a,,,,AAXX 20064 07168 02664 30110 10020 21010 39990 40137 53008 60006 83800 90600 333 10105 20008 60004=
07168,1997-04-20 09:00:00,8,1014.8,1.4,53,-1,14000,22.224,,,30,,,,,,,,,,,wg-a,,,,AAXX 20094 07168 12564 /0312 10080 21010 30004 40148 53014 60006 85100 90900=
07168,1997-04-20 12:00:00,11,1014.3,-0.4,40,-2,16000,25.928,,,50,,,,,,,,,,,wg-a,,,,AAXX 20124 07168 12666 /0514 10110 21020 30000 40143 58004 60006 85200 91200=
07168,1997-04-20 15:00:00,11,1013.9,-0.3,37,-3,16000,25.928,,,60,,,,,,,,,,,wg-a,,,,AAXX 20154 07168 12766 50614 10110 21030 39997 40139 58003 60006 84260 91500=
07168,1997-04-20 18:00:00,9,1014.6,0.6,46,-2,0,18.52,,,40,1.9,11.4,,,,,,,,,wg-a,,,,AAXX 20184 07168 12/// /0410 10090 21020 30003 40146 51006 60006 91800 333 10114 20019=
07168,1997-04-21 00:00:00,2,1016.4,0.2,75,-2,0,18.52,,,60,,,,,,,,,,,wg-a,,,,AAXX 21004 07168 12/// /0610 10020 21020 30017 40164 50002 60006 90000=
07168,1997-04-21 06:00:00,0,1015.8,-0.1,80,-3,15000,7.408,,,320,-3,8.9,,,,,,,,,wg-a,,,,AAXX 21064 07168 02/65 03204 10000 21030 30010 40158 56001 60006 80000 90600 333 10089 21030 60004=
07168,1997-04-21 09:00:00,8,1014.6,-0.8,42,-4,15000,22.224,,,60,,,,,,,,,,,wg-a,,,,AAXX 21094 07168 12/65 00612 10080 21040 30002 40146 58008 60006 80000 90900=
07168,1997-04-21 12:00:00,10,1012.8,-1.6,32,-6,25000,22.224,,,50,,,,,,,,,,,wg-a,,,,AAXX 21124 07168 12/75 00512 10100 21060 39986 40128 58016 60006 80000 91200=
07168,1997-04-21 15:00:00,12,1010.9,-1.8,30,-5,500,22.224,,,30,,,,,,,,,,,wg-a,,,,AAXX 21154 07168 12/00 00312 10120 21050 39968 40109 58018 60006 80000 91500=
07168,1997-04-21 18:00:00,11,1010.6,-0.4,30,-6,0,14.816,,,30,0.1,12.4,,,,,,,,,wg-a,,,,AAXX 21184 07168 12/// /0308 10110 21060 39964 40106 55004 60006 91800 333 10124 20001=
07168,1997-04-22 00:00:00,0,1012,-0.1,69,-5,0,18.52,,,290,,,,,,,,,,,wg-a,,,,AAXX 22004 07168 12/// /2910 10000 21050 39972 40120 55001 60006 90000=
07168,1997-04-22 06:00:00,1,1014,1.6,75,-3,12000,14.816,,,300,-1.6,10.9,,,,,,,,,wg-a,,,,AAXX 22064 07168 02/62 13008 10010 21030 39992 40140 53016 60006 81030 90600 333 10109 21016 60004=
07168,1997-04-22 09:00:00,8,1014.4,0.8,49,-2,12000,14.816,,,10,,,,,,,,,,,wg-a,,,,AAXX 22094 07168 12762 20108 10080 21020 30000 40144 51008 60006 82500 90900=
07168,1997-04-22 12:00:00,12,1014.2,-0,35,-3,14000,18.52,,,20,,,,,,,,,,,wg-a,,,,AAXX 22124 07168 12664 20210 10120 21030 30000 40142 54000 60006 82100 91200=
07168,1997-04-22 15:00:00,11,1014.3,0.1,47,0,16000,18.52,,,30,,,,,,,,,,,wg-a,,,,AAXX 22154 07168 12666 /0310 10110 20000 30001 40143 50001 60006 85100 91500=
07168,1997-04-22 18:00:00,10,1015.3,0.9,43,-2,0,18.52,,,10,0.8,12.4,,,,,,,,,wg-a,,,,AAXX 22184 07168 12/// /0110 10100 21020 30010 40153 53009 60006 91800 333 10124 20008=
07168,1997-04-23 00:00:00,0,1018.7,0.8,80,-3,0,14.816,,,300,,,,,,,,,,,wg-a,,,,AAXX 23004 07168 12/// /3008 10000 21030 30038 40187 51008 60006 90000=
07168,1997-04-23 06:00:00,0,1020.2,1.4,86,-2,18000,11.112,,,310,-3,10.3,,,,,,,,,wg-a,,,,AAXX 23064 07168 02/68 13106 10000 21020 30053 40202 53014 60006 80001 90600 333 10103 21030 60004=
07168,1997-04-23 09:00:00,10,1020.2,0.5,50,0,18000,3.704,,,40,,,,,,,,,,,wg-a,,,,AAXX 23094 07168 12668 /0402 10100 20000 30058 40202 51005 60006 81100 90900=
07168,1997-04-23 15:00:00,14,1018.6,-0.8,33,-2,18000,7.408,,,360,,,,,,,,,,,wg-a,,,,AAXX 23154 07168 12/68 13604 10140 21020 30045 40186 56008 60006 80001 91500=
07168,1997-04-24 00:00:00,0,1021.6,0.3,80,-3,0,3.704,,,130,,,,,,,,,,,wg-a,,,,AAXX 24004 07168 12/// /1302 10000 21030 30067 40216 50003 60006 90000=
07168,1997-04-24 06:00:00,-1,1022.6,0.6,93,-2,10000,7.408,,,180,-4.1,10.8,,,,,,,,,wg-a,,,,AAXX 24064 07168 02/60 21804 11010 21020 30076 40226 53006 60006 80001 90600 333 10108 21041 60004=
07168,1997-04-24 09:00:00,14,1022.2,0.4,38,0,12000,7.408,,,160,,,,,,,,,,,wg-a,,,,AAXX 24094 07168 12/62 11604 10140 20000 30080 40222 52004 60006 80001 90900=
07168,1997-04-24 12:00:00,17,1020.7,-1.4,25,-3,15000,11.112,,,210,,,,,,,,,,,wg-a,,,,AAXX 24124 07168 12/65 02106 10170 21030 30066 40207 58014 60006 80000 91200=
07168,1997-04-24 15:00:00,19,1018.7,-1.8,24,-2,18000,14.816,,,230,,,,,,,,,,,wg-a,,,,AAXX 24154 07168 12/68 12308 10190 21020 30048 40187 58018 60006 80001 91500=
07168,1997-04-25 00:00:00,2,1019.7,0.2,87,0,0,3.704,,,150,,,,,,,,,,,wg-a,,,,AAXX 25004 07168 12/// /1502 10020 20000 30049 40197 50002 60006 90000=
07168,1997-04-25 09:00:00,17,1017.9,-0.6,42,4,15000,14.816,,,170,,,,,,,,,,,wg-a,,,,AAXX 25094 07168 12/65 71708 10170 20040 30039 40179 58006 60006 83032 90900=
07168,1997-04-25 12:00:00,22,1015.6,-2,29,3,18000,22.224,,,210,,,,,,,,,,,wg-a,,,,AAXX 25124 07168 12/68 72112 10220 20030 30019 40156 57020 60006 84032 91200=
07168,1997-04-25 18:00:00,11,1016.6,2.2,94,10,0,14.816,,,310,2.7,22.7,,,,,,,,,wg-a,,,,AAXX 25184 07168 32/// /3108 10110 20100 30024 40166 51022 91800 333 10227 20027=
07168,1997-04-26 00:00:00,11,1016.5,-0.4,87,9,0,14.816,,,230,,,,,,,,,,,wg-a,,,,AAXX 26004 07168 12/// /2308 10110 20090 30023 40165 58004 60016 90000=
07168,1997-04-26 06:00:00,11,1016.2,0.4,94,10,500,7.408,,,180,10.4,11.4,,,,,2,,,,wg-a,,,,AAXX 26064 07168 02200 71804 10110 20100 30020 40162 53004 60006 875// 90600 333 10114 20104 60024=
07168,1997-04-26 09:00:00,15,1015.7,-0.3,77,11,9000,18.52,,,220,,,,,,,,,,,wg-a,,,,AAXX 26094 07168 12559 72210 10150 20110 30017 40157 57003 60006 86201 90900=
07168,1997-04-26 12:00:00,14,1014.1,-1.6,77,10,10000,18.52,,,190,,,,,,,,,,,wg-a,,,,AAXX 26124 07168 12560 81910 10140 20100 30001 40141 58016 60006 81172 91200=
07168,1997-04-26 15:00:00,14,1011.2,-2.9,88,12,8000,14.816,,,180,,,,0,,,,,,60,wg-a,,,,AAXX 26154 07168 12658 81808 10140 20120 39972 40112 57029 60007 76062 8587/ 91500=
07168,1997-04-26 18:00:00,12,1008.5,-2.7,94,11,0,14.816,,,150,11.1,15.4,,,,,,,,,wg-a,,,,AAXX 26184 07168 32/// /1508 10120 20110 39945 40085 58027 91800 333 10154 20111=
07168,1997-04-27 06:00:00,11,1008.3,1.3,94,10,12000,18.52,,,260,9.8,12.3,,,,,,,,21,wg-a,,,,AAXX 27064 07168 02462 72610 10110 20100 39942 40083 53013 61000 72162 878// 90600 333 10123 20098 6017=
07168,1997-04-27 09:00:00,13,1009.7,1.5,82,10,11000,22.224,,,280,,,,,,,,,,,wg-a,,,,AAXX 27094 07168 12/61 /2812 10130 20100 39957 40097 53015 60006 90900=
07168,1997-04-27 12:00:00,12,1011.1,1.3,88,10,15000,29.632,,,280,,,,0,,,,,,80,wg-a,,,,AAXX 27124 07168 02465 82816 10120 20100 39970 40111 53013 60006 78086 878// 91200 333 60007=
07168,1997-04-28 00:00:00,10,1016.1,0.4,87,8,0,18.52,,,240,,,,,,,,,,,wg-a,,,,AAXX 28004 07168 12/// /2410 10100 20080 30018 40161 51004 60006 90000=
07168,1997-04-28 06:00:00,11,1015.1,-0.4,94,10,500,22.224,,,190,8.3,12.8,,,,,,,,51,wg-a,,,,AAXX 28064 07168 02300 81912 10110 20100 30009 40151 58004 61000 75165 887// 90600 333 10128 20083 6001=
07168,1997-04-28 12:00:00,15,1014,-0.9,88,13,20000,22.224,,,250,,,,1,,,,,,1,wg-a,,,,AAXX 28124 07168 02470 82512 10150 20130 30000 40140 56009 60016 70186 888// 91200 333 60017=
07168,1997-04-28 15:00:00,16,1012.9,-1,72,11,20000,29.632,,,260,,,,,,,,,,,wg-a,,,,AAXX 28154 07168 12570 82616 10160 20110 39990 40129 58010 60006 8513/ 91500=
07168,1997-04-28 18:00:00,15,1011.8,-1.2,72,10,0,18.52,,,230,10.6,16.7,,,,,,,,,wg-a,,,,AAXX 28184 07168 32/// /2310 10150 20100 39978 40118 58012 91800 333 10167 20106=
07168,1997-04-29 06:00:00,11,1013.8,1.2,87,9,12000,29.632,,,260,10.1,14.7,,,,,1,,,,wg-a,,,,AAXX 29064 07168 02462 82616 10110 20090 39996 40138 53012 60006 875// 90600 333 10147 20101 60014=
07168,1997-04-29 12:00:00,14,1015.7,0.7,82,11,12000,29.632,,,290,,,,1,,,,,,25,wg-a,,,,AAXX 29124 07168 02462 /2916 10140 20110 30016 40157 50007 60016 72586 86200 91200 333 60017=
07168,1997-04-30 06:00:00,9,1023.1,2.1,93,8,8000,7.408,,,330,6.8,11.7,,,,,1,,,,wg-a,,,,AAXX 30064 07168 02658 /3304 10090 20080 30087 40231 52021 60006 81500 90600 333 10117 20068 60014=
07168,1997-04-30 09:00:00,12,1024.6,1.6,82,9,8000,18.52,,,320,,,,,,,,,,,wg-a,,,,AAXX 30094 07168 12458 73210 10120 20090 30103 40246 51016 60006 878// 90900=
07168,1997-04-30 15:00:00,14,1026,0.2,72,9,9000,11.112,,,350,,,,,,,,,,,wg-a,,,,AAXX 30154 07168 12559 73506 10140 20090 30118 40260 50002 60006 878// 91500=
07168,1997-04-30 18:00:00,14,1026.4,0.4,67,8,0,3.704,,,360,9,15.1,,,,,,,,,wg-a,,,,AAXX 30184 07168 12/// /3602 10140 20080 30122 40264 53004 60006 91800 333 10151 20090=
07168,1997-05-01 00:00:00,7,1028.7,0.7,87,5,0,7.408,,,310,,,,,,,,,,,wg-a,,,,AAXX 01004 07168 12/// /3104 10070 20050 30141 40287 52007 60006 90000=
07168,1997-05-01 12:00:00,18,1028.5,-0.8,49,7,12000,22.224,,,50,,,,,,,,,,,wg-a,,,,AAXX 01124 07168 12662 /0512 10180 20070 30144 40285 58008 60006 81100 91200=
07168,1997-05-01 15:00:00,19,1027,-1.4,49,8,11000,18.52,,,60,,,,,,,,,,,wg-a,,,,AAXX 01154 07168 12761 10610 10190 20080 30130 40270 58014 60006 81100 91500=
07168,1997-05-02 00:00:00,7,1027.4,-0.1,93,6,0,3.704,,,60,,,,,,,,,,,wg-a,,,,AAXX 02004 07168 12/// /0602 10070 20060 30128 40274 58001 60006 90000=
07168,1997-05-02 06:00:00,8,1027.9,0.6,93,7,6000,3.704,,,310,4.3,18,,,,,,,,,wg-a,,,,AAXX 02064 07168 02/56 /3102 10080 20070 30133 40279 53006 60006 80001 90600 333 10180 20043 60004=
07168,1997-05-02 12:00:00,22,1024.6,-1.9,41,8,18000,3.704,,,140,,,,,,,,,,,wg-a,,,,AAXX 02124 07168 12/68 01402 10220 20080 30108 40246 58019 60006 80000 91200=
07168,1997-05-02 15:00:00,24,1022.3,-2.2,41,10,20000,14.816,,,100,,,,,,,,,,,wg-a,,,,AAXX 02154 07168 12/70 01008 10240 20100 30086 40223 58022 60006 80000 91500=
07168,1997-05-02 18:00:00,23,1021.2,-1.1,38,8,0,14.816,,,110,8,24.1,,,,,,,,,wg-a,,,,AAXX 02184 07168 12/// /1108 10230 20080 30075 40212 56011 60006 91800 333 10241 20080=
07168,1997-05-03 06:00:00,11,1019.6,-0.2,82,8,25000,3.704,,,70,6,22.7,,,,,,,,,wg-a,,,,AAXX 03064 07168 02/75 00702 10110 20080 30053 40196 55002 60006 80000 90600 333 10227 20060 60004=
07168,1997-05-03 09:00:00,22,1018.3,-0.8,43,9,25000,7.408,,,230,,,,,,,,,,,wg-a,,,,AAXX 03094 07168 12/75 12304 10220 20090 30045 40183 57008 60006 80001 90900=
07168,1997-05-03 18:00:00,22,1013.8,-1.1,53,12,0,11.112,,,230,11.4,26.4,,,,,,,,,wg-a,,,,AAXX 03184 07168 12/// /2306 10220 20120 30001 40138 56011 60006 91800 333 10264 20114=
07168,1997-05-04 00:00:00,17,1015.1,-0.3,77,13,0,11.112,,,270,,,,,,,,,,,wg-a,,,,AAXX 04004 07168 12/// /2706 10170 20130 30012 40151 58003 60006 90000=
07168,1997-05-04 06:00:00,15,1013.1,-0.7,82,12,15000,11.112,,31.484,220,11.7,21.9,,,,,,,,,wg-a,,,,AAXX 04064 07168 02465 22206 10150 20120 39991 40131 55007 60006 81101 90600 333 10219 20117 60004 91017=
07168,1997-05-04 09:00:00,20,1011.7,-1.1,68,14,500,22.224,,,230,,,,,,,,,,,wg-a,,,,AAXX 04094 07168 12500 42312 10200 20140 39980 40117 58011 60006 83101 90900=
07168,1997-05-04 12:00:00,22,1009.8,-1.8,53,12,500,14.816,,,250,,,,,,,,,,,wg-a,,,,AAXX 04124 07168 12600 42508 10220 20120 39962 40098 58018 60006 83131 91200=
07168,1997-05-04 15:00:00,24,1006.9,-2.8,44,11,500,22.224,,,210,,,,,,,,,,,wg-a,,,,AAXX 04154 07168 12700 52112 10240 20110 39934 40069 56028 60006 81130 91500=
07168,1997-05-04 18:00:00,21,1004.5,-2.5,60,13,0,11.112,,,210,14.9,24.6,,,,,,,,,wg-a,,,,AAXX 04184 07168 12/// /2106 10210 20130 39909 40045 58025 60006 91800 333 10246 20149=
07168,1997-05-05 00:00:00,13,1001.7,-1.7,88,11,0,11.112,,,210,,,,,,,,,,,wg-a,,,,AAXX 05004 07168 12/// /2106 10130 20110 39878 40017 58017 60006 90000=
07168,1997-05-05 06:00:00,12,998.7,-1.8,94,11,18000,18.52,,,190,11.4,20.8,,,,,,,,21,wg-a,,,,AAXX 05064 07168 02468 81910 10120 20110 39848 49987 56018 61000 72196 8277/ 90600 333 10208 20114 6011=
07168,1997-05-05 12:00:00,16,997.2,-1.1,77,12,15000,31.484,,,200,,,,1,,,,,,25,wg-a,,,,AAXX 05124 07168 02565 /2017 10160 20120 39835 49972 58011 60016 72586 85260 91200 333 60017=
07168,1997-05-05 15:00:00,18,995.8,-1.3,59,10,15000,38.892,,68.524,210,,,,,,,,,,,wg-a,,,,AAXX 05154 07168 12565 72121 10180 20100 39822 49958 56013 60006 86303 91500 333 91037=
07168,1997-05-05 18:00:00,14,995.6,-0.4,82,11,0,18.52,,,180,11.9,19.6,,0,,,,,,,wg-a,,,,AAXX 05184 07168 12/// /1810 10140 20110 39818 49956 58004 60007 91800 333 10196 20119=
07168,1997-05-06 00:00:00,12,993.8,-0.6,88,10,0,18.52,,,190,,,,,,,,,,,wg-a,,,,AAXX 06004 07168 12/// /1910 10120 20100 39799 49938 58006 60006 90000=
07168,1997-05-06 09:00:00,10,990.4,0.5,82,7,20000,31.484,,,210,,,,0,,,,,,1,wg-a,,,,AAXX 06094 07168 12570 72117 10100 20070 39765 49904 53005 60007 70162 872// 90900=
07168,1997-05-06 12:00:00,11,991.6,1.2,82,8,20000,29.632,,,270,,,,1,,,,,,21,wg-a,,,,AAXX 06124 07168 02470 82716 10110 20080 39777 49916 53012 60026 72162 872// 91200 333 60017=
07168,1997-05-06 15:00:00,11,991.8,0.2,76,7,8000,18.52,,,240,,,,0,,,,,,61,wg-a,,,,AAXX 06154 07168 12558 82410 10110 20070 39779 49918 52002 60007 76162 878// 91500=
07168,1997-05-07 00:00:00,3,1004.4,1.7,93,2,0,7.408,,,260,,,,,,,,,,,wg-a,,,,AAXX 07004 07168 12/// /2604 10030 20020 39899 40044 51017 60016 90000=
07168,1997-05-07 06:00:00,4,1003.6,-0.4,93,3,15000,7.408,,,190,2,5.9,,,,,9,,,1,wg-a,,,,AAXX 07064 07168 02365 71904 10040 20030 39892 40036 56004 60006 70186 8623/ 90600 333 10059 20020 60094=
07168,1997-05-07 09:00:00,6,1003.1,-0.4,81,3,12000,7.408,,,150,,,,0,,,,,,60,wg-a,,,,AAXX 07094 07168 12462 71504 10060 20030 39888 40031 58004 60007 76062 872// 90900=
07168,1997-05-07 12:00:00,5,1002.8,-0.3,87,3,12000,7.408,,,140,,,,1,,,,,,61,wg-a,,,,AAXX 07124 07168 02462 81404 10050 20030 39885 40028 58003 60016 76162 8/27/ 91200 333 60017=
07168,1997-05-07 15:00:00,6,1002,-0.8,87,4,15000,7.408,,,20,,,,0,,,,,,21,wg-a,,,,AAXX 07154 07168 12465 80204 10060 20040 39877 40020 57008 60007 72162 8/27/ 91500=
07168,1997-05-07 18:00:00,5,1003.1,1,93,4,0,22.224,,,340,4,6.9,,,,,,,,,wg-a,,,,AAXX 07184 07168 32/// /3412 10050 20040 39887 40031 53010 91800 333 10069 20040=
07168,1997-05-08 00:00:00,2,1007,1.1,93,1,0,18.52,,,270,,,,,,,,,,,wg-a,,,,AAXX 08004 07168 12/// /2710 10020 20010 39924 40070 51011 60006 90000=
07168,1997-05-08 06:00:00,4,1008.1,0.7,87,2,9000,14.816,,,180,1.1,4.8,,,,,5,,,,wg-a,,,,AAXX 08064 07168 02259 31808 10040 20020 39936 40081 53007 60006 81601 90600 333 10048 20011 60054=
07168,1997-05-08 09:00:00,9,1007.4,-0.4,71,4,20000,29.632,,,220,,,,,,,,,,,wg-a,,,,AAXX 08094 07168 12570 42216 10090 20040 39932 40074 58004 60006 84201 90900=
07168,1997-05-08 15:00:00,11,1005.2,-1.4,71,6,15000,22.224,,,190,,,,1,,,,,,25,wg-a,,,,AAXX 08154 07168 12665 71912 10110 20060 39911 40052 57014 60017 72586 878// 91500=
07168,1997-05-09 00:00:00,9,1001.4,-2,93,8,0,29.632,,,200,,,,,,,,,,,wg-a,,,,AAXX 09004 07168 12/// /2016 10090 20080 39873 40014 56020 60026 90000=
07168,1997-05-09 09:00:00,11,1003.3,1.1,76,7,18000,29.632,,,250,,,,0,,,,,,25,wg-a,,,,AAXX 09094 07168 12568 72516 10110 20070 39893 40033 52011 60007 72586 878// 90900=
07168,1997-05-09 12:00:00,13,1004.3,1,77,9,500,35.188,,,260,,,,2,,,,,,25,wg-a,,,,AAXX 09124 07168 02500 62619 10130 20090 39903 40043 53010 60026 72598 86800 91200 333 60027=
07168,1997-05-09 18:00:00,12,1007.8,2,82,9,0,22.224,,,230,7.1,15.9,,,,,,,,,wg-a,,,,AAXX 09184 07168 32/// /2312 10120 20090 39937 40078 53020 91800 333 10159 20071=
07168,1997-05-10 00:00:00,8,1011.6,1.4,87,6,0,25.928,,,220,,,,,,,,,,,wg-a,,,,AAXX 10004 07168 12/// /2214 10080 20060 39973 40116 53014 60006 90000=
07168,1997-05-10 09:00:00,14,1012.9,0.4,72,9,500,25.928,,,190,,,,,,,,,,,wg-a,,,,AAXX 10094 07168 12500 71914 10140 20090 39988 40129 51004 60006 86801 90900=
07168,1997-05-10 12:00:00,16,1012.2,-0.5,59,8,500,31.484,,,200,,,,,,,,,,1,wg-a,,,,AAXX 10124 07168 02600 72017 10160 20080 39983 40122 58005 61000 70162 84102 91200 333 6100=
07168,1997-05-10 15:00:00,17,1010.9,-1.2,63,10,500,29.632,,,180,,,,,,,,,,,wg-a,,,,AAXX 10154 07168 12600 71816 10170 20100 39971 40109 58012 60006 83802 91500=
07168,1997-05-10 18:00:00,16,1009.7,-1.3,72,11,0,14.816,,,180,8.7,18.2,,,,,,,,,wg-a,,,,AAXX 10184 07168 32/// /1808 10160 20110 39958 40097 56013 91800 333 10182 20087=
07168,1997-05-11 00:00:00,13,1011.4,0.7,88,11,0,18.52,,,170,,,,,,,,,,,wg-a,,,,AAXX 11004 07168 12/// /1710 10130 20110 39973 40114 50007 60006 90000=
07168,1997-05-11 06:00:00,12,1011.4,0.7,94,11,15000,14.816,,,180,11.6,16.2,,,,,,,,60,wg-a,,,,AAXX 11064 07168 02765 81808 10120 20110 39973 40114 53007 61000 76062 8457/ 90600 333 10162 20116 6000=
07168,1997-05-11 12:00:00,14,1012.6,0.2,77,10,11000,18.52,,,180,,,,,,,,,,,wg-a,,,,AAXX 11124 07168 12/61 /1810 10140 20100 39986 40126 53002 60006 91200=
07168,1997-05-11 15:00:00,13,1013.4,0.7,88,11,18000,22.224,,,220,,,,,,,,,,61,wg-a,,,,AAXX 11154 07168 02468 82212 10130 20110 39993 40134 53007 61000 76162 878// 91500 333 ////=
07168,1997-05-11 18:00:00,12,1014.3,0.8,88,10,0,18.52,,,180,11.5,13.9,,,,,,,,,wg-a,,,,AAXX 11184 07168 32/// /1810 10120 20100 30001 40143 52008 91800 333 10139 20115=
07168,1997-05-12 00:00:00,8,1018.4,1.8,93,7,0,14.816,,,180,,,,,,,,,,,wg-a,,,,AAXX 12004 07168 02/// /1808 10080 20070 30040 40184 51018 61000 90000 333 ////=
07168,1997-05-12 09:00:00,14,1022.2,1.3,77,10,25000,11.112,,,200,,,,,,,,,,,wg-a,,,,AAXX 12094 07168 12475 42006 10140 20100 30080 40222 51013 60006 84100 90900=
07168,1997-05-12 12:00:00,17,1022.3,0.3,55,8,25000,18.52,,,210,,,,,,,,,,,wg-a,,,,AAXX 12124 07168 12675 42110 10170 20080 30083 40223 50003 60006 84100 91200=
07168,1997-05-12 15:00:00,17,1021.6,-0.7,52,7,25000,18.52,,,210,,,,,,,,,,,wg-a,,,,AAXX 12154 07168 12775 42110 10170 20070 30076 40216 56007 60006 84100 91500=
07168,1997-05-12 18:00:00,17,1021,-0.6,59,9,0,11.112,,,180,8.9,18.8,,,,,,,,,wg-a,,,,AAXX 12184 07168 12/// /1806 10170 20090 30070 40210 56006 60006 91800 333 10188 20089=
07168,1997-05-13 00:00:00,8,1022.5,-0,93,7,0,3.704,,,170,,,,,,,,,,,wg-a,,,,AAXX 13004 07168 12/// /1702 10080 20070 30080 40225 55000 60006 90000=
07168,1997-05-13 06:00:00,11,1022.4,0.3,94,10,15000,3.704,,,140,7.1,16.7,,,,,,,,,wg-a,,,,AAXX 13064 07168 02665 /1402 10110 20100 30081 40224 53003 60006 83501 90600 333 10167 20071 60004=
07168,1997-05-13 12:00:00,21,1020.3,-1.1,60,13,25000,14.816,,,160,,,,,,,,,,,wg-a,,,,AAXX 13124 07168 12675 71608 10210 20130 30065 40203 58011 60006 85201 91200=
07168,1997-05-13 15:00:00,19,1018.7,-1.6,60,11,20000,22.224,,,130,,,,,,,,,,80,wg-a,,,,AAXX 13154 07168 02670 71312 10190 20110 30049 40187 57016 61000 78086 83231 91500 333 ////=
07168,1997-05-13 18:00:00,20,1017,-1.7,64,13,0,7.408,,,70,11.2,22.6,,,,,,,,,wg-a,,,,AAXX 13184 07168 32/// /0704 10200 20130 30032 40170 56017 91800 333 10226 20112=
07168,1997-05-14 00:00:00,14,1018.3,0.7,94,13,0,7.408,,,20,,,,,,,,,,,wg-a,,,,AAXX 14004 07168 12/// /0204 10140 20130 30042 40183 50007 60016 90000=
07168,1997-05-14 06:00:00,13,1019.8,1.5,94,12,4000,18.52,,,280,12.3,19.6,,,,,,,,10,wg-a,,,,AAXX 14064 07168 02240 82810 10130 20120 30056 40198 53015 60006 71022 877// 90600 333 10196 20123 60004=
07168,1997-05-14 09:00:00,14,1022.3,2.6,88,12,15000,11.112,,,310,,,,,,,,,,,wg-a,,,,AAXX 14094 07168 12465 83106 10140 20120 30082 40223 53026 60006 8427/ 90900=
07168,1997-05-14 12:00:00,17,1022.5,0.3,68,11,20000,3.704,,,340,,,,,,,,,,,wg-a,,,,AAXX 14124 07168 12570 83402 10170 20110 30085 40225 53003 60006 878// 91200=
07168,1997-05-14 15:00:00,17,1021.1,-1.4,72,12,20000,11.112,,,30,,,,,,,,,,,wg-a,,,,AAXX 14154 07168 12570 70306 10170 20120 30071 40211 58014 60006 85202 91500=
07168,1997-05-14 18:00:00,16,1021.2,-0,77,12,0,11.112,,,80,12.9,17,,,,,,,,,wg-a,,,,AAXX 14184 07168 12/// /0806 10160 20120 30071 40212 55000 60006 91800 333 10170 20129=
07168,1997-05-15 00:00:00,13,1021,-0.3,88,11,0,11.112,,,40,,,,,,,,,,,wg-a,,,,AAXX 15004 07168 12/// /0406 10130 20110 30068 40210 58003 60006 90000=
07168,1997-05-15 06:00:00,13,1018.4,-0.6,88,11,7000,7.408,,,100,11.5,15.6,,,,,1,,,,wg-a,,,,AAXX 15064 07168 02/57 71004 10130 20110 30043 40184 55006 60006 83032 90600 333 10156 20115 60014=
07168,1997-05-15 09:00:00,19,1017.2,-0.9,78,15,15000,11.112,,,110,,,,,,,,,,,wg-a,,,,AAXX 15094 07168 12/65 31106 10190 20150 30034 40172 57009 60006 82081 90900=
07168,1997-05-15 12:00:00,24,1015.5,-1.5,61,16,500,11.112,,,120,,,,,,,,,,,wg-a,,,,AAXX 15124 07168 12600 31206 10240 20160 30019 40155 58015 60006 81101 91200=
07168,1997-05-15 15:00:00,26,1013.6,-1.8,58,17,500,7.408,,,80,,,,,,,,,,,wg-a,,,,AAXX 15154 07168 12600 70804 10260 20170 30001 40136 56018 60006 82132 91500=
07168,1997-05-15 18:00:00,24,1013.2,-0.4,78,20,0,7.408,,,320,13.2,26.3,,,,,,,,,wg-a,,,,AAXX 15184 07168 12/// /3204 10240 20200 39997 40132 55004 60006 91800 333 10263 20132=
07168,1997-05-16 00:00:00,20,1013.3,-0.6,60,12,0,14.816,,,130,,,,,,,,,,,wg-a,,,,AAXX 16004 07168 12/// /1308 10200 20120 39996 40133 58006 60006 90000=
07168,1997-05-16 06:00:00,15,1014.5,0.2,94,14,18000,7.408,,,300,12.4,24.1,,,,,,,,,wg-a,,,,AAXX 16064 07168 02/68 73004 10150 20140 30005 40145 53002 60006 85031 90600 333 10241 20124 60004=
07168,1997-05-16 09:00:00,20,1014.4,0.2,78,16,20000,11.112,,,100,,,,,,,,,,,wg-a,,,,AAXX 16094 07168 12/70 51006 10200 20160 30007 40144 50002 60006 82031 90900=
07168,1997-05-16 12:00:00,26,1013.2,-0.9,51,15,25000,14.816,,,70,,,,,,,,,,,wg-a,,,,AAXX 16124 07168 12675 50708 10260 20150 39998 40132 58009 60006 81291 91200=
07168,1997-05-16 15:00:00,24,1012.3,-1,61,16,25000,18.52,,,80,,,,,,,,,,2,wg-a,,,,AAXX 16154 07168 02675 70810 10240 20160 39988 40123 56010 61000 70298 8499/ 91500 333 ////=
07168,1997-05-16 18:00:00,19,1012.6,0,73,14,0,18.52,,,90,15,26.3,,,,,,,,,wg-a,,,,AAXX 16184 07168 32/// /0910 10190 20140 39988 40126 50000 91800 333 10263 20150=
07168,1997-05-17 00:00:00,14,1013.9,-0,94,13,0,7.408,,,120,,,,,,,,,,,wg-a,,,,AAXX 17004 07168 12/// /1204 10140 20130 39999 40139 55000 60026 90000=
07168,1997-05-17 06:00:00,16,1013.1,-0,88,14,12000,7.408,,,160,11.8,19.2,,,,,3,,,,wg-a,,,,AAXX 17064 07168 02/62 61604 10160 20140 39992 40131 55000 60006 86070 90600 333 10192 20118 60034=
07168,1997-05-17 12:00:00,26,1011.7,-0.9,51,15,20000,18.52,,,160,,,,,,,,,,,wg-a,,,,AAXX 17124 07168 12670 41610 10260 20150 39983 40117 58009 60006 82280 91200=
07168,1997-05-17 15:00:00,22,1010.6,-1.3,57,13,20000,25.928,,55.56,90,,,,,,,,,,17,wg-a,,,,AAXX 17154 07168 12670 70914 10220 20130 39970 40106 56013 60006 71791 8534/ 91500 333 91030=
07168,1997-05-17 18:00:00,19,1012.3,1.5,78,15,0,11.112,,,260,15.5,26.5,,,,,,,,,wg-a,,,,AAXX 17184 07168 32/// /2606 10190 20150 39985 40123 53015 91800 333 10265 20155=
07168,1997-05-18 00:00:00,16,1013.2,-0.1,94,15,0,7.408,,,160,,,,,,,,,,,wg-a,,,,AAXX 18004 07168 12/// /1604 10160 20150 39993 40132 58001 60016 90000=
07168,1997-05-18 06:00:00,15,1013.3,1.1,88,13,12000,11.112,,,250,14.6,18.9,,,,,3,,,1,wg-a,,,,AAXX 18064 07168 02462 /2506 10150 20130 39993 40133 53011 60006 70162 86200 90600 333 10189 20146 60034=
07168,1997-05-18 09:00:00,17,1013.5,0.3,77,13,20000,14.816,,,220,,,,,,,,,,,wg-a,,,,AAXX 18094 07168 12570 /2208 10170 20130 39996 40135 50003 60006 86200 90900=
07168,1997-05-18 12:00:00,18,1013.6,0.2,73,13,500,14.816,,,190,,,,,,,,,,,wg-a,,,,AAXX 18124 07168 12500 71908 10180 20130 39998 40136 52002 60006 878// 91200=
07168,1997-05-18 18:00:00,19,1011.8,-1,64,12,0,7.408,,,220,14.8,19.8,,,,,,,,,wg-a,,,,AAXX 18184 07168 12/// /2204 10190 20120 39980 40118 56010 60006 91800 333 10198 20148=
07168,1997-05-19 00:00:00,9,1012.1,-0.3,93,8,0,3.704,,,100,,,,,,,,,,,wg-a,,,,AAXX 19004 07168 12/// /1002 10090 20080 39978 40121 58003 60006 90000=
07168,1997-05-19 06:00:00,12,1009.4,-1.3,94,11,12000,11.112,,,160,7.2,19.1,,,,,,,,,wg-a,,,,AAXX 19064 07168 02/62 41606 10120 20110 39953 40094 56013 60006 80001 90600 333 10191 20072 60004=
07168,1997-05-19 12:00:00,21,1007.9,-0.3,60,13,25000,18.52,,,210,,,,,,,,,,,wg-a,,,,AAXX 19124 07168 12675 72110 10210 20130 39943 40079 58003 60006 82132 91200=
07168,1997-05-19 15:00:00,21,1008.4,0.5,69,15,500,18.52,,,260,,,,,,,,,,,wg-a,,,,AAXX 19154 07168 12600 72610 10210 20150 39948 40084 51005 60006 83272 91500=
07168,1997-05-19 18:00:00,18,1008.6,0.1,83,15,0,7.408,,,230,11.9,22.9,,,,,,,,,wg-a,,,,AAXX 19184 07168 12/// /2304 10180 20150 39949 40086 53001 60006 91800 333 10229 20119=
07168,1997-05-20 00:00:00,15,1008.7,-0.2,82,12,0,14.816,,,170,,,,,,,,,,,wg-a,,,,AAXX 20004 07168 12/// /1708 10150 20120 39948 40087 58002 60006 90000=
07168,1997-05-20 09:00:00,17,1007.5,-0.3,72,12,500,18.52,,,220,,,,,,,,,,,wg-a,,,,AAXX 20094 07168 12500 72210 10170 20120 39937 40075 56003 60006 878// 90900=
07168,1997-05-20 12:00:00,19,1007,-0.4,56,10,500,25.928,,,210,,,,,,,,,,1,wg-a,,,,AAXX 20124 07168 02500 52114 10190 20100 39933 40070 58004 61000 70186 84201 91200 333 6100=
07168,1997-05-20 15:00:00,17,1007,-0.1,59,9,500,35.188,,,240,,,,0,,,,,,3,wg-a,,,,AAXX 20154 07168 12600 /2419 10170 20090 39932 40070 58001 60007 70386 83903 91500=
07168,1997-05-20 18:00:00,15,1007.9,0.8,67,9,0,29.632,,,220,14.1,20,,,,,,,,,wg-a,,,,AAXX 20184 07168 02/// /2216 10150 20090 39940 40079 51008 61000 91800 333 10200 20141 ////=
07168,1997-05-21 00:00:00,12,1009.7,0.3,88,10,0,14.816,,,200,,,,,,,,,,,wg-a,,,,AAXX 21004 07168 12/// /2008 10120 20100 39956 40097 53003 60016 90000=
07168,1997-05-21 06:00:00,12,1008.8,-0,88,10,16000,22.224,,,210,11,15.2,,,,,1,,,,wg-a,,,,AAXX 21064 07168 02466 72112 10120 20100 39947 40088 55000 60006 872// 90600 333 10152 20110 60014=
07168,1997-05-21 12:00:00,16,1009.2,0.4,77,12,20000,31.484,,,260,,,,,,,,,,3,wg-a,,,,AAXX 21124 07168 12470 72617 10160 20120 39953 40092 53004 60006 70386 86201 91200=
07168,1997-05-21 15:00:00,16,1009.3,0.1,72,11,20000,38.892,,,270,,,,0,,,,,,1,wg-a,,,,AAXX 21154 07168 12570 /2721 10160 20110 39954 40093 50001 60007 70186 86200 91500=
07168,1997-05-21 18:00:00,15,1010.8,1.4,77,11,0,18.52,,,280,11.9,17.4,,,,,,,,,wg-a,,,,AAXX 21184 07168 32/// /2810 10150 20110 39968 40108 51014 91800 333 10174 20119=
07168,1997-05-22 00:00:00,10,1014.3,0.9,100,10,0,3.704,,,300,,,,,,,,,,,wg-a,,,,AAXX 22004 07168 12/// /3002 10100 20100 30001 40143 51009 60086 90000=
07168,1997-05-22 06:00:00,12,1015.1,1,94,11,4000,7.408,,,220,9.2,14.7,,,,,9,,,10,wg-a,,,,AAXX 22064 07168 02540 72204 10120 20110 30009 40151 52010 60006 71022 875// 90600 333 10147 20092 60094=
07168,1997-05-22 09:00:00,15,1015.9,1,82,12,10000,7.408,,,290,,,,,,,,,,,wg-a,,,,AAXX 22094 07168 12460 72904 10150 20120 30019 40159 51010 60006 878// 90900=
07168,1997-05-22 12:00:00,15,1016.1,0.2,82,12,12000,11.112,,,280,,,,0,,,,,,80,wg-a,,,,AAXX 22124 07168 02562 72806 10150 20120 30021 40161 51002 60016 78086 878// 91200 333 60007=
07168,1997-05-22 18:00:00,15,1015.7,-0,82,12,0,3.704,,,170,11.6,18.9,,,,,,,,,wg-a,,,,AAXX 22184 07168 32/// /1702 10150 20120 30017 40157 54000 91800 333 10189 20116=
07168,1997-05-23 00:00:00,11,1016.4,-0.4,94,10,0,0,,,0,,,,,,,,,,,wg-a,,,,AAXX 23004 07168 12/// /0000 10110 20100 30022 40164 57004 60046 90000=
07168,1997-05-23 06:00:00,12,1017.1,0.7,88,10,4000,7.408,,,340,10.4,14.7,,,,,4,,,10,wg-a,,,,AAXX 23064 07168 12440 73404 10120 20100 30029 40171 53007 60044 71022 875// 90600 333 10147 20104=
07168,1997-05-23 09:00:00,15,1017.7,0.7,77,11,8000,11.112,,,10,,,,,,,,,,,wg-a,,,,AAXX 23094 07168 12458 70106 10150 20110 30036 40177 51007 60006 878// 90900=
07168,1997-05-23 12:00:00,17,1017.4,-0.1,68,11,15000,14.816,,,10,,,,,,,,,,,wg-a,,,,AAXX 23124 07168 12565 70108 10170 20110 30035 40174 58001 60006 878// 91200=
07168,1997-05-23 15:00:00,17,1017.2,-0.2,63,10,18000,14.816,,,20,,,,,,,,,,,wg-a,,,,AAXX 23154 07168 12568 /0208 10170 20100 30033 40172 56002 60006 85200 91500=
07168,1997-05-23 18:00:00,17,1017.3,-0,63,10,0,18.52,,,20,11.5,18.4,,,,,,,,,wg-a,,,,AAXX 23184 07168 12/// /0210 10170 20100 30033 40173 55000 60006 91800 333 10184 20115=
07168,1997-05-24 00:00:00,10,1018.8,0.3,87,8,0,11.112,,,320,,,,,,,,,,,wg-a,,,,AAXX 24004 07168 12/// /3206 10100 20080 30045 40188 53003 60006 90000=
07168,1997-05-24 06:00:00,10,1020.1,0.9,76,6,10000,18.52,,,40,9,16.8,,,,,,,,,wg-a,,,,AAXX 24064 07168 02/60 50410 10100 20060 30058 40201 51009 60006 80001 90600 333 10168 20090 60004=
07168,1997-05-24 09:00:00,16,1020.8,0.9,59,8,15000,22.224,,,70,,,,,,,,,,,wg-a,,,,AAXX 24094 07168 12/65 50712 10160 20080 30067 40208 51009 60006 80001 90900=
07168,1997-05-24 12:00:00,18,1020.5,-0.1,52,8,20000,29.632,,,40,,,,,,,,,,,wg-a,,,,AAXX 24124 07168 12/70 30416 10180 20080 30066 40205 58001 60006 80001 91200=
07168,1997-05-24 15:00:00,20,1020.7,0.2,43,7,25000,25.928,,,50,,,,,,,,,,,wg-a,,,,AAXX 24154 07168 12/75 40514 10200 20070 30068 40207 53002 60006 80001 91500=
07168,1997-05-25 06:00:00,11,1024.2,0.4,66,5,20000,7.408,,,50,7.6,18,,,,,,,,,wg-a,,,,AAXX 25064 07168 02/70 10504 10110 20050 30098 40242 50004 60006 80001 90600 333 10180 20076 60004=
07168,1997-05-25 09:00:00,16,1023.9,0,55,7,25000,18.52,,,60,,,,,,,,,,,wg-a,,,,AAXX 25094 07168 12/75 10610 10160 20070 30098 40239 50000 60006 80001 90900=
07168,1997-05-25 12:00:00,20,1023.1,-0.6,37,5,25000,25.928,,,50,,,,,,,,,,,wg-a,,,,AAXX 25124 07168 12/75 20514 10200 20050 30092 40231 57006 60006 80001 91200=
07168,1997-05-25 15:00:00,20,1022.1,-1,40,6,500,18.52,,,40,,,,,,,,,,,wg-a,,,,AAXX 25154 07168 12/00 30410 10200 20060 30082 40221 57010 60006 80001 91500=
07168,1997-05-25 18:00:00,19,1022.1,-0,43,6,0,18.52,,,40,10.7,20.6,,,,,,,,,wg-a,,,,AAXX 25184 07168 12/// /0410 10190 20060 30082 40221 55000 60006 91800 333 10206 20107=
07168,1997-05-26 00:00:00,7,1024.6,0.5,81,4,0,14.816,,,300,,,,,,,,,,,wg-a,,,,AAXX 26004 07168 12/// /3008 10070 20040 30100 40246 53005 60006 90000=
07168,1997-05-26 09:00:00,18,1024.1,0.3,45,6,500,11.112,,,40,,,,,,,,,,,wg-a,,,,AAXX 26094 07168 12/00 10406 10180 20060 30101 40241 50003 60006 80001 90900=
07168,1997-05-26 18:00:00,20,1021.4,-0.3,37,5,0,7.408,,,360,8.5,21.7,,,,,,,,,wg-a,,,,AAXX 26184 07168 12/// /3604 10200 20050 30075 40214 56003 60006 91800 333 10217 20085=
07168,1997-05-27 00:00:00,11,1021.7,-0.4,76,7,0,11.112,,,340,,,,,,,,,,,wg-a,,,,AAXX 27004 07168 12/// /3406 10110 20070 30074 40217 58004 60006 90000=
07168,1997-05-27 06:00:00,12,1022.1,0.6,76,8,8000,11.112,,,320,6.6,20.4,,,,,,,,,wg-a,,,,AAXX 27064 07168 02/58 03206 10120 20080 30078 40221 52006 60006 80000 90600 333 10204 20066 60004=
07168,1997-05-27 09:00:00,17,1021.9,0.1,52,7,12000,14.816,,,20,,,,,,,,,,,wg-a,,,,AAXX 27094 07168 12/62 00208 10170 20070 30079 40219 50001 60006 80000 90900=
07168,1997-05-27 12:00:00,19,1021.2,-0.6,52,9,20000,18.52,,,30,,,,,,,,,,,wg-a,,,,AAXX 27124 07168 12/70 00310 10190 20090 30073 40212 58006 60006 80000 91200=
07168,1997-05-27 18:00:00,19,1019.8,-0.3,52,9,0,18.52,,,20,11.5,20.2,,,,,,,,,wg-a,,,,AAXX 27184 07168 12/// /0210 10190 20090 30059 40198 56003 60006 91800 333 10202 20115=
07168,1997-05-28 00:00:00,10,1022.8,1.3,76,6,0,11.112,,,350,,,,,,,,,,,wg-a,,,,AAXX 28004 07168 12/// /3506 10100 20060 30084 40228 51013 60006 90000=
07168,1997-05-28 06:00:00,10,1025.1,1.2,71,5,12000,18.52,,,40,6.3,18.6,,,,,,,,,wg-a,,,,AAXX 28064 07168 02/62 00410 10100 20050 30107 40251 52012 60006 80000 90600 333 10186 20063 60004=
07168,1997-05-28 09:00:00,13,1025.2,0.2,51,3,500,25.928,,,50,,,,,,,,,,,wg-a,,,,AAXX 28094 07168 12/00 00514 10130 20030 30109 40252 53002 60006 80000 90900=
07168,1997-05-28 12:00:00,16,1024.9,-0.1,39,2,500,22.224,,,70,,,,,,,,,,,wg-a,,,,AAXX 28124 07168 12/00 00712 10160 20020 30108 40249 58001 60006 80000 91200=
07168,1997-05-28 18:00:00,17,1023.8,-0.1,45,5,0,22.224,,,60,9.5,18.7,,,,,,,,,wg-a,,,,AAXX 28184 07168 12/// /0612 10170 20050 30098 40238 56001 60006 91800 333 10187 20095=
07168,1997-05-29 00:00:00,9,1026.1,0.6,76,5,0,7.408,,,30,,,,,,,,,,,wg-a,,,,AAXX 29004 07168 12/// /0304 10090 20050 30116 40261 51006 60006 90000=
07168,1997-05-29 09:00:00,17,1025.3,0.4,48,6,25000,18.52,,,70,,,,,,,,,,,wg-a,,,,AAXX 29094 07168 12/75 20710 10170 20060 30112 40253 51004 60006 80001 90900=
07168,1997-05-29 12:00:00,21,1024.7,-0.4,35,5,500,18.52,,,70,,,,,,,,,,,wg-a,,,,AAXX 29124 07168 12/00 30710 10210 20050 30108 40247 58004 60006 80001 91200=
07168,1997-05-29 15:00:00,22,1023.6,-1,35,6,500,18.52,,,60,,,,,,,,,,,wg-a,,,,AAXX 29154 07168 12/00 30610 10220 20060 30098 40236 57010 60006 80001 91500=
07168,1997-05-29 18:00:00,21,1023.6,-0,40,7,0,18.52,,,60,10.2,22.7,,,,,,,,,wg-a,,,,AAXX 29184 07168 12/// /0610 10210 20070 30098 40236 55000 60006 91800 333 10227 20102=
07168,1997-05-30 00:00:00,8,1025.5,0.6,87,6,0,11.112,,,310,,,,,,,,,,,wg-a,,,,AAXX 30004 07168 12/// /3106 10080 20060 30110 40255 53006 60006 90000=
07168,1997-05-30 06:00:00,14,1025.5,-0.1,67,8,20000,7.408,,,40,7.7,21.3,,,,,,,,,wg-a,,,,AAXX 30064 07168 02/70 40404 10140 20080 30113 40255 56001 60006 80001 90600 333 10213 20077 60004=
07168,1997-05-30 09:00:00,19,1025.3,0,49,8,18000,18.52,,,50,,,,,,,,,,,wg-a,,,,AAXX 30094 07168 12/68 40510 10190 20080 30113 40253 50000 60006 80001 90900=
07168,1997-05-30 12:00:00,22,1024.2,-0.9,38,7,500,18.52,,,60,,,,,,,,,,,wg-a,,,,AAXX 30124 07168 12/00 30610 10220 20070 30104 40242 58009 60006 80001 91200=
07168,1997-05-30 15:00:00,23,1022.7,-1.5,31,5,500,22.224,,,50,,,,,,,,,,,wg-a,,,,AAXX 30154 07168 12/00 30512 10230 20050 30089 40227 56015 60006 80001 91500=
07168,1997-05-30 18:00:00,21,1021.6,-1.1,38,6,0,22.224,,,50,13.5,23.2,,,,,,,,,wg-a,,,,AAXX 30184 07168 12/// /0512 10210 20060 30078 40216 56011 60006 91800 333 10232 20135=
07168,1997-05-31 00:00:00,12,1021.9,-0.4,58,4,0,7.408,,,70,,,,,,,,,,,wg-a,,,,AAXX 31004 07168 12/// /0704 10120 20040 30076 40219 58004 60006 90000=
07168,1997-05-31 06:00:00,13,1020.4,-0.5,58,5,25000,18.52,,,60,9.6,20.8,,,,,,,,,wg-a,,,,AAXX 31064 07168 02/75 10610 10130 20050 30062 40204 57005 60006 80001 90600 333 10208 20096 60004=
07168,1997-05-31 09:00:00,17,1019.4,-0.8,39,3,500,29.632,,,60,,,,,,,,,,,wg-a,,,,AAXX 31094 07168 12/00 10616 10170 20030 30054 40194 58008 60006 80001 90900=
07168,1997-05-31 15:00:00,21,1016.4,-1.5,28,2,500,31.484,,,60,,,,,,,,,,,wg-a,,,,AAXX 31154 07168 12/00 30617 10210 20020 30026 40164 56015 60006 80001 91500=
07168,1997-06-01 00:00:00,12,1015.8,-1.2,44,0,0,22.224,,,60,,,,,,,,,,,wg-a,,,,AAXX 01004 07168 12/// /0612 10120 20000 30016 40158 58012 60006 90000=
07168,1997-06-01 06:00:00,10,1014.7,-0.3,53,1,500,25.928,,,50,7.8,18.6,,,,,,,,,wg-a,,,,AAXX 01064 07168 02/00 10514 10100 20010 30004 40147 57003 60006 80002 90600 333 10186 20078 60004=
07168,1997-06-01 09:00:00,14,1013.2,-1.2,38,0,500,38.892,,,60,,,,,,,,,,,wg-a,,,,AAXX 01094 07168 12/00 10621 10140 20000 39992 40132 58012 60006 80002 90900=
07168,1997-06-01 12:00:00,16,1011.7,-1.4,36,1,500,31.484,,,60,,,,,,,,,,,wg-a,,,,AAXX 01124 07168 12700 50617 10160 20010 39978 40117 57014 60006 84102 91200=
07168,1997-06-01 15:00:00,17,1009.6,-2.1,36,2,500,29.632,,,60,,,,,,,,,,,wg-a,,,,AAXX 01154 07168 12700 50616 10170 20020 39957 40096 58021 60006 84102 91500=
07168,1997-06-02 00:00:00,13,1010.2,0,67,7,0,11.112,,,80,,,,,,,,,,,wg-a,,,,AAXX 02004 07168 12/// /0806 10130 20070 39961 40102 50000 60006 90000=
07168,1997-06-02 06:00:00,13,1010.7,0.9,72,8,15000,14.816,,,80,10.7,16,,,,,,,,,wg-a,,,,AAXX 02064 07168 02/65 40808 10130 20080 39966 40107 53009 60006 83031 90600 333 10160 20107 60004=
07168,1997-06-02 09:00:00,18,1010.8,0.4,59,10,500,14.816,,,90,,,,,,,,,,,wg-a,,,,AAXX 02094 07168 12600 30908 10180 20100 39970 40108 51004 60006 82131 90900=
07168,1997-06-02 12:00:00,20,1011,0.3,56,11,500,11.112,,,70,,,,,,,,,,,wg-a,,,,AAXX 02124 07168 12600 70706 10200 20110 39973 40110 51003 60006 878// 91200=
07168,1997-06-02 15:00:00,19,1011.9,0.8,64,12,500,11.112,,,50,,,,,,,,,,,wg-a,,,,AAXX 02154 07168 12600 80506 10190 20120 39981 40119 51008 60006 878// 91500=
07168,1997-06-02 18:00:00,17,1012.5,0.5,82,14,0,3.704,,,40,12.9,20.8,,,,,,,,,wg-a,,,,AAXX 02184 07168 12/// /0402 10170 20140 39986 40125 51005 60006 91800 333 10208 20129=
07168,1997-06-03 00:00:00,12,1013.8,0.3,94,11,0,3.704,,,300,,,,,,,,,,,wg-a,,,,AAXX 03004 07168 12/// /3002 10120 20110 39997 40138 53003 60006 90000=
07168,1997-06-03 06:00:00,12,1014.7,0.7,94,11,400,0,,,0,6.6,17.4,,,,,,,,44,wg-a,,,,AAXX 03064 07168 02/04 20000 10120 20110 30005 40147 51007 60006 74440 80001 90600 333 10174 20066 60004=
07168,1997-06-03 09:00:00,16,1015.1,0.7,88,14,8000,11.112,,,290,,,,,,,,,,1,wg-a,,,,AAXX 03094 07168 12358 82906 10160 20140 30012 40151 51007 60006 70141 876// 90900=
07168,1997-06-03 12:00:00,22,1014.9,0,57,13,25000,11.112,,,310,,,,,,,,,,1,wg-a,,,,AAXX 03124 07168 12475 43106 10220 20130 30012 40149 50000 60006 70141 84201 91200=
07168,1997-06-03 15:00:00,23,1014.7,-0.1,50,12,25000,14.816,,,280,,,,,,,,,,,wg-a,,,,AAXX 03154 07168 12675 32808 10230 20120 30011 40147 57001 60006 82101 91500=
07168,1997-06-03 18:00:00,22,1014.7,-0.1,53,12,0,3.704,,,30,11.5,23.8,,,,,,,,,wg-a,,,,AAXX 03184 07168 12/// /0302 10220 20120 30010 40147 55001 60006 91800 333 10238 20115=
07168,1997-06-04 00:00:00,10,1016.9,0.1,93,9,0,7.408,,,190,,,,,,,,,,,wg-a,,,,AAXX 04004 07168 12/// /1904 10100 20090 30026 40169 50001 60006 90000=
07168,1997-06-04 06:00:00,13,1016.3,-0.1,94,12,7000,7.408,,,180,7.8,21.9,,,,,,,,,wg-a,,,,AAXX 04064 07168 02/57 41804 10130 20120 30022 40163 55001 60006 80001 90600 333 10219 20078 60004=
07168,1997-06-04 09:00:00,21,1015.4,-0.5,56,12,15000,7.408,,,70,,,,,,,,,,,wg-a,,,,AAXX 04094 07168 12665 40704 10210 20120 30017 40154 58005 60006 81101 90900=
07168,1997-06-04 15:00:00,24,1012.7,-1.6,44,11,25000,11.112,,,60,,,,,,,,,,,wg-a,,,,AAXX 04154 07168 12675 30606 10240 20110 39991 40127 56016 60006 81101 91500=
07168,1997-06-04 18:00:00,24,1010.5,-2.1,50,13,0,11.112,,,50,12.5,24.7,,,,,,,,,wg-a,,,,AAXX 04184 07168 12/// /0506 10240 20130 39970 40105 56021 60006 91800 333 10247 20125=
07168,1997-06-05 00:00:00,16,1009,-1.7,72,11,0,7.408,,,110,,,,,,,,,,,wg-a,,,,AAXX 05004 07168 12/// /1104 10160 20110 39951 40090 58017 60006 90000=
07168,1997-06-05 06:00:00,15,1006.9,-0.5,88,13,12000,7.408,,,190,14.2,23.4,,,,,,,,,wg-a,,,,AAXX 05064 07168 02762 71904 10150 20130 39930 40069 55005 60006 8453/ 90600 333 10234 20142 60004=
07168,1997-06-05 09:00:00,22,1006.2,-0.3,60,14,500,22.224,,,170,,,,,,,,,,,wg-a,,,,AAXX 05094 07168 12500 71712 10220 20140 39927 40062 55003 60006 8387/ 90900=
07168,1997-06-05 15:00:00,24,1004.8,-0.7,50,13,500,14.816,,,170,,,,,,,,,,,wg-a,,,,AAXX 05154 07168 12600 71708 10240 20130 39914 40048 58007 60006 8227/ 91500=
07168,1997-06-05 18:00:00,23,1004.8,-0.1,61,15,0,7.408,,,190,15.4,24.8,,,,,,,,,wg-a,,,,AAXX 05184 07168 32/// /1904 10230 20150 39913 40048 55001 91800 333 10248 20154=
07168,1997-06-06 00:00:00,17,1006.8,0.3,88,15,0,3.704,,,190,,,,,,,,,,,wg-a,,,,AAXX 06004 07168 12/// /1902 10170 20150 39930 40068 52003 60016 90000=
07168,1997-06-06 09:00:00,22,1010.1,1.3,73,17,25000,14.816,,,160,,,,,,,,,,,wg-a,,,,AAXX 06094 07168 12575 71608 10220 20170 39965 40101 51013 60006 845// 90900=
07168,1997-06-06 12:00:00,25,1010,0.1,57,16,25000,14.816,,,160,,,,,,,,,,,wg-a,,,,AAXX 06124 07168 12675 /1608 10250 20160 39966 40100 50001 60006 82101 91200=
07168,1997-06-06 15:00:00,25,1009.4,-0.6,54,15,500,11.112,,,150,,,,,,,,,,,wg-a,,,,AAXX 06154 07168 12600 /1506 10250 20150 39960 40094 56006 60006 81101 91500=
07168,1997-06-07 00:00:00,14,1009.8,-0.5,94,13,0,11.112,,,180,,,,,,,,,,,wg-a,,,,AAXX 07004 07168 12/// /1806 10140 20130 39958 40098 58005 60006 90000=
07168,1997-06-07 06:00:00,19,1009.1,0.4,83,16,500,3.704,,,160,13.2,24.9,,,,,,,,,wg-a,,,,AAXX 07064 07168 02/00 51602 10190 20160 39954 40091 53004 60006 81082 90600 333 10249 20132 60004=
07168,1997-06-07 09:00:00,25,1008.3,-0.5,61,17,500,18.52,,,150,,,,,,,,,,,wg-a,,,,AAXX 07094 07168 12/00 51510 10250 20170 39949 40083 58005 60006 81082 90900=
07168,1997-06-07 12:00:00,28,1009.5,1.3,48,16,500,22.224,,,250,,,,,,,,,,,wg-a,,,,AAXX 07124 07168 12600 62512 10280 20160 39962 40095 50013 60006 82132 91200=
07168,1997-06-07 18:00:00,25,1009.2,-0.3,65,18,0,3.704,,,320,19.1,27.9,,,,,,,,,wg-a,,,,AAXX 07184 07168 12/// /3202 10250 20180 39958 40092 58003 60006 91800 333 10279 20191=
07168,1997-06-08 00:00:00,17,1011.5,0.1,88,15,0,11.112,,,130,,,,,,,,,,,wg-a,,,,AAXX 08004 07168 12/// /1306 10170 20150 39977 40115 53001 60046 90000=
07168,1997-06-08 06:00:00,18,1014.3,1.9,88,16,500,14.816,,,260,15.2,25.1,,,,,4,,,,wg-a,,,,AAXX 08064 07168 02400 22608 10180 20160 30005 40143 53019 60006 81630 90600 333 10251 20152 60044=
07168,1997-06-08 09:00:00,22,1015.7,1.6,69,16,500,11.112,,,280,,,,,,,,,,,wg-a,,,,AAXX 08094 07168 12500 42806 10220 20160 30021 40157 51016 60006 83230 90900=
07168,1997-06-08 12:00:00,22,1016.4,0.6,60,14,500,11.112,,,240,,,,,,,,,,17,wg-a,,,,AAXX 08124 07168 12600 72406 10220 20140 30027 40164 53006 60006 71791 8693/ 91200=
07168,1997-06-08 15:00:00,24,1016.8,0.5,50,13,500,14.816,,,270,,,,,,,,,,1,wg-a,,,,AAXX 08154 07168 12600 52708 10240 20130 30032 40168 51005 60006 70192 83230 91500=
07168,1997-06-08 18:00:00,22,1018.4,1.5,57,13,0,18.52,,,280,18.3,24.5,,,,,,,,,wg-a,,,,AAXX 08184 07168 12/// /2810 10220 20130 30047 40184 53015 60006 91800 333 10245 20183=
07168,1997-06-09 00:00:00,11,1022.3,0.9,94,10,0,0,,,0,,,,,,,,,,,wg-a,,,,AAXX 09004 07168 12/// /0000 10110 20100 30080 40223 51009 60006 90000=
07168,1997-06-09 06:00:00,16,1023.4,0.8,82,13,500,0,,,0,9.4,22.3,,,,,,,,,wg-a,,,,AAXX 09064 07168 02600 /0000 10160 20130 30093 40234 51008 60006 81100 90600 333 10223 20094 60004=
07168,1997-06-09 09:00:00,22,1023.6,0.5,57,13,500,7.408,,,90,,,,,,,,,,,wg-a,,,,AAXX 09094 07168 12600 30904 10220 20130 30098 40236 51005 60006 81101 90900=
07168,1997-06-09 12:00:00,25,1022.7,-0.7,44,12,500,11.112,,,140,,,,,,,,,,,wg-a,,,,AAXX 09124 07168 12600 31406 10250 20120 30091 40227 58007 60006 83101 91200=
07168,1997-06-09 15:00:00,24,1021.6,-1.1,50,13,500,11.112,,,80,,,,,,,,,,,wg-a,,,,AAXX 09154 07168 12600 70806 10240 20130 30080 40216 56011 60006 82102 91500=
07168,1997-06-09 18:00:00,23,1021,-0.7,57,14,0,11.112,,,50,15.7,25.3,,,,,,,,,wg-a,,,,AAXX 09184 07168 12/// /0506 10230 20140 30073 40210 55007 60006 91800 333 10253 20157=
07168,1997-06-10 00:00:00,16,1020.3,-0.7,88,14,0,0,,,0,,,,,,,,,,,wg-a,,,,AAXX 10004 07168 12/// /0000 10160 20140 30063 40203 58007 60006 90000=
07168,1997-06-10 06:00:00,17,1018.4,-0.5,82,14,16000,3.704,,,110,11.5,22.6,,,,,,,,,wg-a,,,,AAXX 10064 07168 02/66 31102 10170 20140 30045 40184 56005 60006 80001 90600 333 10226 20115 60004=
07168,1997-06-10 09:00:00,24,1016.9,-1.2,57,15,500,7.408,,,70,,,,,,,,,,,wg-a,,,,AAXX 10094 07168 12/00 30704 10240 20150 30033 40169 58012 60006 80001 90900=
07168,1997-06-10 12:00:00,27,1014.6,-2.1,51,16,500,18.52,,,90,,,,,,,,,,,wg-a,,,,AAXX 10124 07168 12/00 30910 10270 20160 30012 40146 58021 60006 80001 91200=
07168,1997-06-10 18:00:00,27,1010.7,-1.6,58,18,0,7.408,,,90,17.3,29.4,,,,,,,,,wg-a,,,,AAXX 10184 07168 12/// /0904 10270 20180 39973 40107 56016 60006 91800 333 10294 20173=
07168,1997-06-11 06:00:00,21,1009.3,0.7,83,18,20000,7.408,,,170,19.6,26.9,,,,,,,,60,wg-a,,,,AAXX 11064 07168 02/70 81704 10210 20180 39957 40093 53007 61000 76062 8707/ 90600 333 10269 20196 6100=
07168,1997-06-11 09:00:00,20,1009.9,0.6,94,19,9000,7.408,,,160,,,,1,,,,,,61,wg-a,,,,AAXX 11094 07168 12359 81604 10200 20190 39963 40099 50006 60017 76166 8117/ 90900=
07168,1997-06-11 15:00:00,28,1007.1,-1.6,55,18,500,11.112,,,180,,,,,,,,,,,wg-a,,,,AAXX 11154 07168 12600 51806 10280 20180 39939 40071 56016 60006 83230 91500=
07168,1997-06-11 18:00:00,17,1008.6,0.9,88,15,0,3.704,,,110,16.3,28.6,,,,,,,,,wg-a,,,,AAXX 11184 07168 32/// /1102 10170 20150 39948 40086 50009 91800 333 10286 20163=
07168,1997-06-12 00:00:00,15,1011.8,0.3,94,14,0,7.408,,,170,,,,,,,,,,,wg-a,,,,AAXX 12004 07168 12/// /1704 10150 20140 39978 40118 53003 60006 90000=
07168,1997-06-12 06:00:00,17,1012.4,0.5,88,15,12000,7.408,,,150,13.2,17.8,,,,,9,,,,wg-a,,,,AAXX 12064 07168 02/62 41504 10170 20150 39985 40124 50005 60006 81031 90600 333 10178 20132 60094=
07168,1997-06-12 09:00:00,21,1012.2,0,73,16,25000,18.52,,,210,,,,,,,,,,,wg-a,,,,AAXX 12094 07168 12575 52110 10210 20160 39985 40122 50000 60006 84101 90900=
07168,1997-06-12 12:00:00,23,1011.6,-0.5,61,15,0,14.816,,,230,,,,,,,,,,,wg-a,,,,AAXX 12124 07168 12/// /2308 10230 20150 39980 40116 58005 60006 91200=
07168,1997-06-12 15:00:00,24,1010.3,-1.2,57,15,25000,11.112,,,250,,,,,,,,,,,wg-a,,,,AAXX 12154 07168 12675 72506 10240 20150 39968 40103 58012 60006 84232 91500=
07168,1997-06-12 18:00:00,21,1009.6,-0.8,69,15,0,14.816,,,300,16.9,25,,,,,,,,,wg-a,,,,AAXX 12184 07168 12/// /3008 10210 20150 39960 40096 58008 60006 91800 333 10250 20169=
07168,1997-06-13 06:00:00,17,1009.3,-0.6,82,14,500,3.704,,,180,14.6,20.7,,,,,,,,,wg-a,,,,AAXX 13064 07168 02600 71802 10170 20140 39955 40093 56006 60006 83531 90600 333 10207 20146 60004=
07168,1997-06-13 09:00:00,21,1008.8,-0.3,69,15,500,7.408,,,210,,,,,,,,,,,wg-a,,,,AAXX 13094 07168 12500 72104 10210 20150 39952 40088 58003 60006 83202 90900=
07168,1997-06-13 12:00:00,23,1007.9,-0.8,65,16,500,3.704,,,250,,,,,,,,,,,wg-a,,,,AAXX 13124 07168 12600 72502 10230 20160 39944 40079 58008 60006 85202 91200=
07168,1997-06-13 15:00:00,23,1006.6,-1.3,61,15,500,11.112,,,270,,,,,,,,,,,wg-a,,,,AAXX 13154 07168 12600 72706 10230 20150 39931 40066 57013 60006 8623/ 91500=
07168,1997-06-13 18:00:00,20,1006.4,-0.3,78,16,0,11.112,,,260,16.9,23.6,,,,,,,,,wg-a,,,,AAXX 13184 07168 32/// /2606 10200 20160 39928 40064 55003 91800 333 10236 20169=
07168,1997-06-14 00:00:00,15,1008,0.4,94,14,0,7.408,,,230,,,,,,,,,,,wg-a,,,,AAXX 14004 07168 12/// /2304 10150 20140 39941 40080 52004 60056 90000=
07168,1997-06-14 06:00:00,16,1009.3,1.3,94,15,7000,7.408,,,180,15,20.3,,,,,5,,,,wg-a,,,,AAXX 14064 07168 02457 71804 10160 20150 39955 40093 53013 60006 875// 90600 333 10203 20150 60054=
07168,1997-06-14 09:00:00,19,1009.6,0.4,83,16,12000,25.928,,,230,,,,,,,,,,,wg-a,,,,AAXX 14094 07168 12462 72314 10190 20160 39959 40096 52004 60006 878// 90900=
07168,1997-06-14 12:00:00,17,1012.1,2.4,88,15,18000,29.632,,,280,,,,1,,,,,,29,wg-a,,,,AAXX 14124 07168 02468 72816 10170 20150 39983 40121 53024 60016 72998 878// 91200 333 60017=
07168,1997-06-14 15:00:00,20,1013.4,1.4,60,12,25000,29.632,,,270,,,,,,,,,,,wg-a,,,,AAXX 14154 07168 12575 72716 10200 20120 39997 40134 51014 60006 878// 91500=
07168,1997-06-14 18:00:00,18,1015,1.4,68,12,0,18.52,,,270,16,20.7,,,,,,,,,wg-a,,,,AAXX 14184 07168 32/// /2710 10180 20120 30011 40150 52014 91800 333 10207 20160=
07168,1997-06-15 00:00:00,14,1018.1,0.7,94,13,0,3.704,,,190,,,,,,,,,,,wg-a,,,,AAXX 15004 07168 12/// /1902 10140 20130 30040 40181 51007 60006 90000=
07168,1997-06-15 06:00:00,14,1019.3,1.2,88,12,18000,3.704,,,320,12.8,17.6,,,,,1,,,,wg-a,,,,AAXX 15064 07168 02768 53202 10140 20120 30052 40193 52012 60006 85500 90600 333 10176 20128 60014=
07168,1997-06-15 09:00:00,18,1019.6,0.5,59,10,500,3.704,,,10,,,,,,,,,,,wg-a,,,,AAXX 15094 07168 12600 40102 10180 20100 30057 40196 50005 60006 84800 90900=
07168,1997-06-15 15:00:00,21,1018.3,-0.8,53,11,500,11.112,,,40,,,,,,,,,,,wg-a,,,,AAXX 15154 07168 12700 50406 10210 20110 30045 40183 56008 60006 85200 91500=
07168,1997-06-16 06:00:00,14,1017.7,-0.1,82,11,500,7.408,,,80,11.2,20.5,,,,,,,,,wg-a,,,,AAXX 16064 07168 02600 /0804 10140 20110 30036 40177 56001 60006 86800 90600 333 10205 20112 60004=
07168,1997-06-16 09:00:00,20,1017,-0.4,64,13,500,11.112,,,80,,,,,,,,,,,wg-a,,,,AAXX 16094 07168 12700 50806 10200 20130 30032 40170 56004 60006 815/2 90900=
07168,1997-06-16 12:00:00,23,1015.5,-1.3,53,13,500,11.112,,,90,,,,,,,,,,,wg-a,,,,AAXX 16124 07168 12600 70906 10230 20130 30019 40155 58013 60006 85802 91200=
07168,1997-06-16 15:00:00,21,1015.1,-0.5,64,14,500,14.816,,,300,,,,,,,,,,,wg-a,,,,AAXX 16154 07168 12600 /3008 10210 20140 30014 40151 58005 60006 85202 91500=
07168,1997-06-16 18:00:00,20,1014.7,-0.5,68,14,0,14.816,,,100,14.4,23.3,,,,,,,,,wg-a,,,,AAXX 16184 07168 12/// /1008 10200 20140 30009 40147 55005 60006 91800 333 10233 20144=
07168,1997-06-17 00:00:00,14,1016.2,0.5,94,13,0,22.224,,,220,,,,,,,,,,,wg-a,,,,AAXX 17004 07168 12/// /2212 10140 20130 30022 40162 53005 60016 90000=
07168,1997-06-17 06:00:00,15,1016.8,1.1,88,13,15000,7.408,,,280,13.1,19.7,,,,,9,,,1,wg-a,,,,AAXX 17064 07168 02465 72804 10150 20130 30028 40168 53011 60006 70198 875// 90600 333 10197 20131 60094=
07168,1997-06-17 09:00:00,17,1017.4,0.7,77,13,15000,14.816,,,250,,,,,,,,,,,wg-a,,,,AAXX 17094 07168 12465 72508 10170 20130 30035 40174 51007 60006 878// 90900=
07168,1997-06-17 12:00:00,17,1017.6,0.2,82,14,15000,14.816,,,300,,,,1,,,,,,3,wg-a,,,,AAXX 17124 07168 02465 73008 10170 20140 30037 40176 50002 60016 70386 878// 91200 333 60017=
07168,1997-06-17 15:00:00,16,1017.9,0.2,88,14,12000,11.112,,,310,,,,3,,,,,,25,wg-a,,,,AAXX 17154 07168 12462 73106 10160 20140 30039 40179 52002 60037 72586 878// 91500=
07168,1997-06-17 18:00:00,16,1018,0.1,82,13,0,7.408,,,320,14.4,17.9,,,,,,,,,wg-a,,,,AAXX 17184 07168 32/// /3204 10160 20130 30040 40180 53001 91800 333 10179 20144=
07168,1997-06-18 00:00:00,13,1019.5,0.2,94,12,0,7.408,,,330,,,,,,,,,,,wg-a,,,,AAXX 18004 07168 12/// /3304 10130 20120 30054 40195 53002 60006 90000=
07168,1997-06-18 09:00:00,18,1019.6,0.1,64,11,12000,7.408,,,340,,,,,,,,,,1,wg-a,,,,AAXX 18094 07168 12562 33404 10180 20110 30057 40196 50001 60006 70141 83200 90900=
07168,1997-06-18 12:00:00,20,1018.8,-0.7,56,11,15000,11.112,,,320,,,,,,,,,,1,wg-a,,,,AAXX 18124 07168 12665 43206 10200 20110 30050 40188 57007 60006 70141 84200 91200=
07168,1997-06-18 18:00:00,20,1016.7,-0.9,43,7,0,7.408,,,40,11.8,21.4,,,,,,,,,wg-a,,,,AAXX 18184 07168 12/// /0404 10200 20070 30029 40167 56009 60006 91800 333 10214 20118=
07168,1997-06-19 00:00:00,11,1015.3,-1.3,87,9,0,7.408,,,180,,,,,,,,,,,wg-a,,,,AAXX 19004 07168 12/// /1804 10110 20090 30011 40153 58013 60006 90000=
07168,1997-06-19 06:00:00,11,1012.1,-0.9,94,10,10000,11.112,,,180,8,20.2,,,,,,,,,wg-a,,,,AAXX 19064 07168 02/60 41806 10110 20100 39979 40121 56009 60006 80001 90600 333 10202 20080 60004=
07168,1997-06-19 15:00:00,18,1007.1,-0.7,73,13,18000,14.816,,,170,,,,1,,,,,,25,wg-a,,,,AAXX 19154 07168 12668 71708 10180 20130 39934 40071 56007 60017 72586 85202 91500=
07168,1997-06-20 06:00:00,13,1008.8,0.5,88,11,9000,14.816,,,210,10.5,16.1,,,,,9,,,,wg-a,,,,AAXX 20064 07168 02459 82108 10130 20110 39948 40088 52005 60006 878// 90600 333 10161 20105 60094=
07168,1997-06-20 09:00:00,17,1008.2,-0.4,68,11,500,25.928,,,230,,,,,,,,,,,wg-a,,,,AAXX 20094 07168 12500 /2314 10170 20110 39944 40082 58004 60006 85201 90900=
07168,1997-06-20 12:00:00,20,1007.1,-1,53,10,500,29.632,,,230,,,,,,,,,,,wg-a,,,,AAXX 20124 07168 12600 72316 10200 20100 39934 40071 58010 60006 84201 91200=
07168,1997-06-20 15:00:00,17,1006.2,-1,82,14,10000,25.928,,,190,,,,,,,,,,80,wg-a,,,,AAXX 20154 07168 02560 71914 10170 20140 39924 40062 56010 61000 78086 878// 91500 333 ////=
07168,1997-06-20 18:00:00,15,1005.4,-0.9,88,13,0,18.52,,,200,12.8,20.1,,,,,,,,,wg-a,,,,AAXX 20184 07168 32/// /2010 10150 20130 39915 40054 56009 91800 333 10201 20128=
07168,1997-06-21 00:00:00,14,1002.5,-1.6,94,13,0,22.224,,,180,,,,,,,,,,,wg-a,,,,AAXX 21004 07168 12/// /1812 10140 20130 39887 40025 56016 60016 90000=
07168,1997-06-21 09:00:00,16,1002.5,0.5,77,12,18000,29.632,,,210,,,,,,,,,,,wg-a,,,,AAXX 21094 07168 12568 82116 10160 20120 39887 40025 51005 60006 86802 90900=
07168,1997-06-21 12:00:00,17,1001.9,-0.5,68,11,20000,29.632,,,220,,,,,,,,,,,wg-a,,,,AAXX 21124 07168 12570 82216 10170 20110 39882 40019 58005 60006 8687/ 91200=
07168,1997-06-21 18:00:00,16,1000.7,-0.8,77,12,0,25.928,,,200,14.4,17.1,,,,,,,,,wg-a,,,,AAXX 21184 07168 32/// /2014 10160 20120 39869 40007 56008 91800 333 10171 20144=
07168,1997-06-22 00:00:00,11,1003.3,0.5,94,10,0,11.112,,,220,,,,,,,,,,,wg-a,,,,AAXX 22004 07168 12/// /2206 10110 20100 39893 40033 51005 60006 90000=
07168,1997-06-22 06:00:00,13,1004.2,0.2,88,11,20000,25.928,,,210,8.9,15.5,,,,,,,,,wg-a,,,,AAXX 22064 07168 02470 32114 10130 20110 39902 40042 50002 60006 83800 90600 333 10155 20089 60004=
07168,1997-06-22 09:00:00,17,1004.2,0.2,68,11,20000,31.484,,,220,,,,,,,,,,,wg-a,,,,AAXX 22094 07168 12570 /2217 10170 20110 39904 40042 50002 60006 86800 90900=
07168,1997-06-22 12:00:00,14,1004.2,-0.1,88,12,10000,25.928,,,230,,,,1,,,,,,29,wg-a,,,,AAXX 22124 07168 02560 72314 10140 20120 39903 40042 55001 60016 72998 879// 91200 333 60017=
07168,1997-06-22 15:00:00,20,1003.5,-0.4,56,11,25000,25.928,,,260,,,,0,,,,,,3,wg-a,,,,AAXX 22154 07168 12675 42614 10200 20110 39899 40035 58004 60007 70386 84200 91500=
07168,1997-06-22 18:00:00,17,1004.5,0.8,72,12,0,18.52,,,210,12.8,20.3,,0,,,,,,,wg-a,,,,AAXX 22184 07168 12/// /2110 10170 20120 39907 40045 51008 60007 91800 333 10203 20128=
07168,1997-06-23 00:00:00,13,1007.8,1.2,88,11,0,22.224,,,220,,,,,,,,,,,wg-a,,,,AAXX 23004 07168 12/// /2212 10130 20110 39938 40078 51012 60006 90000=
07168,1997-06-23 06:00:00,14,1008.9,0.9,88,12,15000,25.928,,,250,12.3,16.8,,,,,3,,,,wg-a,,,,AAXX 23064 07168 02465 72514 10140 20120 39949 40089 53009 60006 878// 90600 333 10168 20123 60034=
07168,1997-06-23 09:00:00,16,1010.2,1.4,72,11,25000,25.928,,,260,,,,,,,,,,,wg-a,,,,AAXX 23094 07168 12575 /2614 10160 20110 39963 40102 51014 60006 86200 90900=
07168,1997-06-23 12:00:00,17,1011.1,0.9,68,11,25000,29.632,,,260,,,,,,,,,,25,wg-a,,,,AAXX 23124 07168 02575 /2616 10170 20110 39972 40111 51009 61000 72586 86800 91200 333 6100=
07168,1997-06-23 15:00:00,20,1011,0.1,56,11,500,29.632,,,260,,,,,,,,,,,wg-a,,,,AAXX 23154 07168 12500 72616 10200 20110 39973 40110 53001 60006 87830 91500=
07168,1997-06-23 18:00:00,14,1012.6,1.3,88,12,0,11.112,,,280,12.9,20.7,,,,,,,,,wg-a,,,,AAXX 23184 07168 32/// /2806 10140 20120 39986 40126 50013 91800 333 10207 20129=
07168,1997-06-24 00:00:00,13,1015,0.8,94,12,0,7.408,,,320,,,,,,,,,,,wg-a,,,,AAXX 24004 07168 12/// /3204 10130 20120 30009 40150 51008 60006 90000=
07168,1997-06-24 06:00:00,13,1016.1,0.9,88,11,11000,18.52,,,270,11.6,14.3,,,,,4,,,,wg-a,,,,AAXX 24064 07168 02461 72710 10130 20110 30020 40161 52009 60006 878// 90600 333 10143 20116 60044=
07168,1997-06-24 09:00:00,14,1017,0.9,82,11,500,22.224,,,240,,,,,,,,,,,wg-a,,,,AAXX 24094 07168 12500 72412 10140 20110 30029 40170 51009 60006 878// 90900=
07168,1997-06-24 12:00:00,17,1017.1,0.2,68,11,500,22.224,,,270,,,,,,,,,,,wg-a,,,,AAXX 24124 07168 12500 72712 10170 20110 30031 40171 51002 60006 878// 91200=
07168,1997-06-24 18:00:00,16,1016.5,-0.5,72,11,0,14.816,,,280,12.9,17.7,,,,,,,,,wg-a,,,,AAXX 24184 07168 12/// /2808 10160 20110 30025 40165 56005 60006 91800 333 10177 20129=
07168,1997-06-25 00:00:00,10,1016.1,-0.9,93,9,0,3.704,,,170,,,,,,,,,,,wg-a,,,,AAXX 25004 07168 12/// /1702 10100 20090 30018 40161 58009 60006 90000=
07168,1997-06-25 09:00:00,16,1011,-1.7,68,10,20000,14.816,,,220,,,,,,,,,,,wg-a,,,,AAXX 25094 07168 12570 82208 10160 20100 39971 40110 56017 60006 81272 90900=
07168,1997-06-25 12:00:00,17,1009.2,-1.7,68,11,15000,22.224,,,210,,,,,,,,,,60,wg-a,,,,AAXX 25124 07168 02665 82112 10170 20110 39954 40092 58017 61000 76062 8687/ 91200 333 6100=
07168,1997-06-25 15:00:00,17,1006.7,-2.5,63,10,20000,25.928,,,180,,,,,,,,,,2,wg-a,,,,AAXX 25154 07168 02670 81814 10170 20100 39929 40067 58025 61000 70262 8487/ 91500 333 ////=
07168,1997-06-25 18:00:00,14,1005,-1.8,88,12,0,14.816,,,220,11.8,17.5,,,,,,,,,wg-a,,,,AAXX 25184 07168 32/// /2208 10140 20120 39911 40050 56018 91800 333 10175 20118=
07168,1997-06-26 00:00:00,13,1000.1,-2.6,94,12,0,22.224,,,200,,,,,,,,,,,wg-a,,,,AAXX 26004 07168 12/// /2012 10130 20120 39862 40001 57026 60056 90000=
07168,1997-06-26 06:00:00,13,997.7,-0.8,94,12,12000,18.52,,,200,11.8,13.4,,,,,6,,,3,wg-a,,,,AAXX 26064 07168 02462 82010 10130 20120 39839 49977 56008 60006 70362 8557/ 90600 333 10134 20118 60064=
07168,1997-06-26 12:00:00,15,996.4,-0.6,88,13,15000,25.928,,,200,,,,0,,,,,,1,wg-a,,,,AAXX 26124 07168 02465 82014 10150 20130 39827 49964 56006 60036 70162 8677/ 91200 333 60007=
07168,1997-06-26 15:00:00,16,994.9,-1.5,88,14,4000,25.928,,,220,,,,2,,,,,,81,wg-a,,,,AAXX 26154 07168 12440 72214 10160 20140 39812 49949 56015 60027 78186 8623/ 91500=
07168,1997-06-27 00:00:00,13,996.3,0.1,94,12,0,18.52,,,190,,,,,,,,,,,wg-a,,,,AAXX 27004 07168 12/// /1910 10130 20120 39825 49963 51001 60016 90000=
07168,1997-06-27 09:00:00,11,997.9,0.3,94,10,2000,22.224,,,180,,,,1,,,,,,25,wg-a,,,,AAXX 27094 07168 12420 71812 10110 20100 39840 49979 53003 60017 72586 878// 90900=
07168,1997-06-27 12:00:00,14,998.4,0.6,88,12,20000,18.52,,,220,,,,2,,,,,,80,wg-a,,,,AAXX 27124 07168 02470 72210 10140 20120 39846 49984 53006 60026 78086 879// 91200 333 60027=
07168,1997-06-27 18:00:00,15,999.5,1.2,82,12,0,25.928,,,190,11.4,17.5,,,,,,,,,wg-a,,,,AAXX 27184 07168 32/// /1914 10150 20120 39857 49995 51012 91800 333 10175 20114=
07168,1997-06-28 00:00:00,13,1003,1.3,88,11,0,18.52,,,200,,,,,,,,,,,wg-a,,,,AAXX 28004 07168 02/// /2010 10130 20110 39891 40030 51013 61000 90000 333 ////=
07168,1997-06-28 06:00:00,13,1006.2,1.6,88,11,25000,22.224,,,200,12.2,14.6,,,,,6,,,,wg-a,,,,AAXX 28064 07168 02475 72012 10130 20110 39922 40062 52016 60006 878// 90600 333 10146 20122 60064=
07168,1997-06-28 09:00:00,16,1007.6,1.5,72,11,500,18.52,,,200,,,,,,,,,,,wg-a,,,,AAXX 28094 07168 12500 /2010 10160 20110 39937 40076 51015 60006 86200 90900=
07168,1997-06-28 15:00:00,22,1008,0.1,43,9,500,14.816,,,200,,,,,,,,,,,wg-a,,,,AAXX 28154 07168 12600 /2008 10220 20090 39944 40080 52001 60006 85101 91500=
07168,1997-06-28 18:00:00,20,1007.8,-0.3,46,8,0,11.112,,,170,13.2,21.7,,,,,,,,,wg-a,,,,AAXX 28184 07168 12/// /1706 10200 20080 39941 40078 56003 60006 91800 333 10217 20132=
07168,1997-06-29 00:00:00,15,1006.4,-1.8,72,10,0,0,,,0,,,,,,,,,,,wg-a,,,,AAXX 29004 07168 12/// /0000 10150 20100 39925 40064 56018 60006 90000=
07168,1997-06-29 06:00:00,13,1004.1,-1.4,88,11,18000,11.112,,,20,12.4,20.4,,,,,,,,21,wg-a,,,,AAXX 29064 07168 02268 70206 10130 20110 39901 40041 58014 61000 72162 8357/ 90600 333 10204 20124 6005=
07168,1997-06-29 09:00:00,15,1003.6,-0.3,82,12,20000,18.52,,,70,,,,,,,,,,,wg-a,,,,AAXX 29094 07168 12470 70710 10150 20120 39898 40036 58003 60006 8657/ 90900=
07168,1997-06-29 12:00:00,18,1001.9,-1.5,83,15,20000,11.112,,,110,,,,,,,,,,,wg-a,,,,AAXX 29124 07168 12470 71106 10180 20150 39883 40019 56015 60006 8323/ 91200=
07168,1997-06-29 15:00:00,21,1000.4,-1.4,73,16,20000,14.816,,,100,,,,,,,,,,,wg-a,,,,AAXX 29154 07168 12470 71008 10210 20160 39869 40004 58014 60006 85204 91500=
07168,1997-06-29 18:00:00,16,1001.3,0.6,82,13,0,7.408,,,200,12.6,22.2,,,,,,,,,wg-a,,,,AAXX 29184 07168 32/// /2004 10160 20130 39875 40013 52006 91800 333 10222 20126=
07168,1997-06-30 00:00:00,12,1003,0.8,94,11,0,7.408,,,230,,,,,,,,,,,wg-a,,,,AAXX 30004 07168 12/// /2304 10120 20110 39890 40030 53008 60006 90000=
07168,1997-06-30 06:00:00,13,1001.8,0.1,94,12,8000,18.52,,,190,11.2,15.6,,,,,,,,,wg-a,,,,AAXX 30064 07168 02358 81910 10130 20120 39879 40018 50001 60006 876// 90600 333 10156 20112 60004=
07168,1997-06-30 09:00:00,14,1002.7,0.9,88,12,7000,22.224,,,220,,,,0,,,,,,60,wg-a,,,,AAXX 30094 07168 12357 82212 10140 20120 39888 40027 50009 60007 76062 875// 90900=
07168,1997-06-30 12:00:00,15,1003.4,0.7,82,12,500,31.484,,,210,,,,0,,,,,,60,wg-a,,,,AAXX 30124 07168 02300 82117 10150 20120 39895 40034 51007 60016 76062 875// 91200 333 60007=
07168,1997-06-30 15:00:00,14,1003.6,0.2,94,13,6000,29.632,,,230,,,,1,,,,,,60,wg-a,,,,AAXX 30154 07168 12256 82316 10140 20130 39897 40036 53002 60017 76066 875// 91500=
07168,1997-06-30 18:00:00,14,1005.7,2.1,88,12,0,18.52,,,240,13.4,15.7,,0,,,,,,,wg-a,,,,AAXX 30184 07168 12/// /2410 10140 20120 39918 40057 52021 60007 91800 333 10157 20134=
07168,1997-07-01 00:00:00,13,1007.9,0.3,94,12,0,3.704,,,170,,,,,,,,,,,wg-a,,,,AAXX 01004 07168 12/// /1702 10130 20120 39939 40079 50003 60016 90000=
07168,1997-07-01 06:00:00,13,1009.7,1.3,94,12,8000,11.112,,,190,12.2,13.7,,,,,,,,21,wg-a,,,,AAXX 01064 07168 02458 81906 10130 20120 39957 40097 53013 61000 72162 877// 90600 333 10137 20122 6003=
07168,1997-07-01 12:00:00,17,1010.4,-0,77,13,15000,25.928,,,210,,,,1,,,,,,80,wg-a,,,,AAXX 01124 07168 02565 72114 10170 20130 39965 40104 55000 60016 78086 8423/ 91200 333 60017=
07168,1997-07-02 00:00:00,12,1011.3,0.1,88,10,0,11.112,,,200,,,,,,,,,,,wg-a,,,,AAXX 02004 07168 12/// /2006 10120 20100 39972 40113 51001 60006 90000=
07168,1997-07-02 06:00:00,13,1010.2,-0.6,94,12,8000,7.408,,,130,10.1,16,,,,,,,,61,wg-a,,,,AAXX 02064 07168 02458 81304 10130 20120 39962 40102 58006 61000 76162 8372/ 90600 333 10160 20101 6003=
07168,1997-07-02 09:00:00,14,1008.7,-1.4,94,13,9000,7.408,,,100,,,,0,,,,,,2,wg-a,,,,AAXX 02094 07168 12459 81004 10140 20130 39948 40087 58014 60007 70262 8487/ 90900=
07168,1997-07-02 15:00:00,16,1008.9,1.4,88,14,10000,18.52,,,190,,,,2,,,,,,61,wg-a,,,,AAXX 02154 07168 12460 81910 10160 20140 39950 40089 53014 60027 76162 8757/ 91500=
07168,1997-07-02 18:00:00,17,1010.6,1.7,77,13,0,18.52,,,210,12.4,16.9,,,,,,,,,wg-a,,,,AAXX 02184 07168 32/// /2110 10170 20130 39967 40106 51017 91800 333 10169 20124=
07168,1997-07-03 00:00:00,10,1013.8,0.7,93,9,0,18.52,,,180,,,,,,,,,,,wg-a,,,,AAXX 03004 07168 02/// /1810 10100 20090 39996 40138 51007 61000 90000 333 ////=
07168,1997-07-03 09:00:00,16,1015.7,0.7,68,10,500,22.224,,,210,,,,,,,,,,,wg-a,,,,AAXX 03094 07168 12400 42112 10160 20100 30017 40157 50007 60006 84800 90900=
07168,1997-07-03 12:00:00,19,1015,-0.5,56,10,500,25.928,,,200,,,,,,,,,,,wg-a,,,,AAXX 03124 07168 12600 52014 10190 20100 30012 40150 56005 60006 8/800 91200=
07168,1997-07-03 15:00:00,21,1015.1,0.2,43,8,25000,25.928,,,210,,,,,,,,,,1,wg-a,,,,AAXX 03154 07168 02675 52114 10210 20080 30014 40151 53002 61000 70186 8/800 91500 333 ////=
07168,1997-07-03 18:00:00,16,1015.9,0.6,82,13,0,3.704,,,330,12.1,20.9,,,,,,,,,wg-a,,,,AAXX 03184 07168 32/// /3302 10160 20130 30020 40159 51006 91800 333 10209 20121=
07168,1997-07-04 00:00:00,11,1018.1,0.7,94,10,0,7.408,,,150,,,,,,,,,,,wg-a,,,,AAXX 04004 07168 12/// /1504 10110 20100 30038 40181 51007 60006 90000=
07168,1997-07-04 06:00:00,13,1018.6,0.6,88,11,25000,7.408,,,160,7.8,16.4,,,,,,,,,wg-a,,,,AAXX 04064 07168 02775 41604 10130 20110 30045 40186 53006 60006 81531 90600 333 10164 20078 60004=
07168,1997-07-04 12:00:00,21,1017.8,-0.7,53,11,500,14.816,,,220,,,,,,,,,,,wg-a,,,,AAXX 04124 07168 12600 /2208 10210 20110 30041 40178 58007 60006 85202 91200=
07168,1997-07-04 15:00:00,21,1017.7,-0.2,53,11,500,18.52,,,240,,,,,,,,,,,wg-a,,,,AAXX 04154 07168 12600 72410 10210 20110 30039 40177 56002 60006 8523/ 91500=
07168,1997-07-04 18:00:00,16,1018.6,0.7,72,11,0,3.704,,,280,13.2,22.2,,,,,,,,,wg-a,,,,AAXX 04184 07168 32/// /2802 10160 20110 30046 40186 50007 91800 333 10222 20132=
07168,1997-07-05 00:00:00,13,1020.6,0.8,94,12,0,3.704,,,180,,,,,,,,,,,wg-a,,,,AAXX 05004 07168 02/// /1802 10130 20120 30064 40206 51008 61000 90000 333 ////=
07168,1997-07-05 06:00:00,13,1021.3,1.2,94,12,7000,14.816,,,300,10.6,17.2,,,,,,,,,wg-a,,,,AAXX 05064 07168 02357 83008 10130 20120 30071 40213 52012 60006 886// 90600 333 10172 20106 60004=
07168,1997-07-05 09:00:00,16,1022.1,1,82,13,12000,14.816,,,330,,,,,,,,,,,wg-a,,,,AAXX 05094 07168 12462 73308 10160 20130 30081 40221 51010 60006 878// 90900=
07168,1997-07-05 12:00:00,19,1022.5,0.5,64,12,20000,25.928,,,290,,,,,,,,,,,wg-a,,,,AAXX 05124 07168 12570 72914 10190 20120 30086 40225 50005 60006 878// 91200=
07168,1997-07-05 15:00:00,21,1022.7,0.3,53,11,25000,22.224,,,320,,,,,,,,,,,wg-a,,,,AAXX 05154 07168 12675 63212 10210 20110 30089 40227 53003 60006 86800 91500=
07168,1997-07-05 18:00:00,16,1024.5,1.5,82,13,0,7.408,,,20,13.1,21.2,,,,,,,,,wg-a,,,,AAXX 05184 07168 32/// /0204 10160 20130 30104 40245 53015 91800 333 10212 20131=
07168,1997-07-06 00:00:00,14,1027.5,1.1,94,13,0,14.816,,,320,,,,,,,,,,,wg-a,,,,AAXX 06004 07168 12/// /3208 10140 20130 30133 40275 51011 60006 90000=
07168,1997-07-06 06:00:00,13,1028.8,0.5,88,11,8000,14.816,,,330,9.2,16,,,,,,,,,wg-a,,,,AAXX 06064 07168 02558 73308 10130 20110 30145 40288 52005 60006 875// 90600 333 10160 20092 60004=
07168,1997-07-06 09:00:00,15,1029.2,0.5,72,10,12000,11.112,,,330,,,,,,,,,,,wg-a,,,,AAXX 06094 07168 12562 73306 10150 20100 30150 40292 53005 60006 878// 90900=
07168,1997-07-06 12:00:00,18,1029,-0.1,59,10,11000,14.816,,,340,,,,,,,,,,,wg-a,,,,AAXX 06124 07168 12/61 /3408 10180 20100 30149 40290 58001 60006 91200=
07168,1997-07-06 15:00:00,20,1028.1,-0.7,60,12,15000,7.408,,,10,,,,,,,,,,,wg-a,,,,AAXX 06154 07168 12665 70104 10200 20120 30142 40281 56007 60006 8553/ 91500=
07168,1997-07-06 18:00:00,20,1027.8,-0.4,56,11,0,3.704,,,110,13,20.6,,,,,,,,,wg-a,,,,AAXX 06184 07168 12/// /1102 10200 20110 30138 40278 58004 60006 91800 333 10206 20130=
07168,1997-07-07 00:00:00,13,1028,-0.2,94,12,0,3.704,,,340,,,,,,,,,,,wg-a,,,,AAXX 07004 07168 12/// /3402 10130 20120 30137 40280 55002 60006 90000=
07168,1997-07-07 06:00:00,14,1027.9,0.5,94,13,6000,11.112,,,320,11,19.6,,,,,,,,,wg-a,,,,AAXX 07064 07168 02556 33206 10140 20130 30137 40279 53005 60006 81550 90600 333 10196 20110 60004=
07168,1997-07-07 09:00:00,19,1027.3,-0.4,73,14,15000,11.112,,,50,,,,,,,,,,,wg-a,,,,AAXX 07094 07168 12565 /0506 10190 20140 30133 40273 58004 60006 85100 90900=
07168,1997-07-07 15:00:00,24,1025,-1.1,47,12,500,14.816,,,20,,,,,,,,,,,wg-a,,,,AAXX 07154 07168 12600 /0208 10240 20120 30113 40250 58011 60006 85200 91500=
07168,1997-07-07 18:00:00,23,1024.5,-0.6,57,14,0,11.112,,,60,13.9,24.8,,,,,,,,,wg-a,,,,AAXX 07184 07168 12/// /0606 10230 20140 30107 40245 57006 60006 91800 333 10248 20139=
07168,1997-07-08 00:00:00,16,1024.9,0.1,77,12,0,11.112,,,40,,,,,,,,,,,wg-a,,,,AAXX 08004 07168 12/// /0406 10160 20120 30108 40249 50001 60006 90000=
07168,1997-07-08 09:00:00,22,1023.3,-0.6,69,16,10000,14.816,,,50,,,,,,,,,,,wg-a,,,,AAXX 08094 07168 12560 20508 10220 20160 30095 40233 58006 60006 82100 90900=
07168,1997-07-08 12:00:00,24,1022.1,-1.1,50,13,15000,22.224,,,40,,,,,,,,,,,wg-a,,,,AAXX 08124 07168 12665 30412 10240 20130 30084 40221 58011 60006 83200 91200=
07168,1997-07-08 15:00:00,26,1020.5,-1.5,48,14,20000,18.52,,,20,,,,,,,,,,,wg-a,,,,AAXX 08154 07168 12770 30210 10260 20140 30069 40205 58015 60006 83200 91500=
07168,1997-07-08 18:00:00,24,1019.3,-1.2,50,13,0,18.52,,,20,14.9,26,,,,,,,,,wg-a,,,,AAXX 08184 07168 12/// /0210 10240 20130 30057 40193 56012 60006 91800 333 10260 20149=
07168,1997-07-09 00:00:00,16,1019.5,-0.2,82,13,0,7.408,,,50,,,,,,,,,,,wg-a,,,,AAXX 09004 07168 12/// /0504 10160 20130 30055 40195 58002 60006 90000=
07168,1997-07-09 06:00:00,15,1018.5,0.1,88,13,6000,7.408,,,350,10.7,23.7,,,,,,,,,wg-a,,,,AAXX 09064 07168 02/56 /3504 10150 20130 30044 40185 53001 60006 80001 90600 333 10237 20107 60004=
07168,1997-07-09 15:00:00,26,1014.5,-1.4,48,14,20000,18.52,,,50,,,,,,,,,,,wg-a,,,,AAXX 09154 07168 12670 40510 10260 20140 30010 40145 57014 60006 84100 91500=
07168,1997-07-09 18:00:00,25,1013.9,-0.6,50,14,0,18.52,,,30,14.9,26.2,,,,,,,,,wg-a,,,,AAXX 09184 07168 12/// /0310 10250 20140 30004 40139 56006 60006 91800 333 10262 20149=
07168,1997-07-10 06:00:00,15,1013.5,-0.3,94,14,4000,7.408,,,320,12.4,25,,,,,,,,10,wg-a,,,,AAXX 10064 07168 02/40 /3204 10150 20140 39995 40135 56003 60006 71000 80001 90600 333 10250 20124 60004=
07168,1997-07-10 09:00:00,22,1012.9,-0.2,65,15,10000,7.408,,,40,,,,,,,,,,,wg-a,,,,AAXX 10094 07168 12/60 10404 10220 20150 39993 40129 58002 60006 80001 90900=
07168,1997-07-10 12:00:00,26,1011.7,-1,51,15,15000,11.112,,,20,,,,,,,,,,,wg-a,,,,AAXX 10124 07168 12665 20206 10260 20150 39983 40117 58010 60006 81101 91200=
07168,1997-07-11 06:00:00,16,1013.7,0.8,94,15,9000,3.704,,,300,13.6,26,,,,,,,,,wg-a,,,,AAXX 11064 07168 02559 33002 10160 20150 39998 40137 51008 60006 82201 90600 333 10260 20136 60004=
07168,1997-07-11 12:00:00,27,1013.8,0.2,45,14,25000,14.816,,,300,,,,,,,,,,,wg-a,,,,AAXX 11124 07168 12675 43008 10270 20140 30004 40138 52002 60006 84200 91200=
07168,1997-07-11 15:00:00,28,1013.2,-0.6,37,12,25000,14.816,,,340,,,,,,,,,,,wg-a,,,,AAXX 11154 07168 12775 43408 10280 20120 39998 40132 58006 60006 82101 91500=
07168,1997-07-11 18:00:00,23,1013.8,0.4,65,16,0,14.816,,,280,16.5,28.4,,,,,,,,,wg-a,,,,AAXX 11184 07168 12/// /2808 10230 20160 30002 40138 52004 60006 91800 333 10284 20165=
07168,1997-07-12 00:00:00,16,1015.8,0.1,88,14,0,0,,,0,,,,,,,,,,,wg-a,,,,AAXX 12004 07168 12/// /0000 10160 20140 30019 40158 52001 60006 90000=
07168,1997-07-12 06:00:00,18,1016.6,0.5,88,16,10000,3.704,,,40,13.4,22.8,,,,,,,,,wg-a,,,,AAXX 12064 07168 02/60 60402 10180 20160 30027 40166 53005 60006 86050 90600 333 10228 20134 60004=
07168,1997-07-12 09:00:00,21,1017,0.6,78,17,12000,7.408,,,190,,,,,,,,,,,wg-a,,,,AAXX 12094 07168 12462 /1904 10210 20170 30033 40170 51006 60006 83130 90900=
07168,1997-07-12 12:00:00,25,1016.1,-0.7,57,16,15000,7.408,,,200,,,,,,,,,,,wg-a,,,,AAXX 12124 07168 12665 /2004 10250 20160 30026 40161 57007 60006 86200 91200=
07168,1997-07-12 15:00:00,27,1015.4,-0.6,51,16,16000,18.52,,,280,,,,,,,,,,,wg-a,,,,AAXX 12154 07168 12666 32810 10270 20160 30020 40154 56006 60006 83200 91500=
07168,1997-07-12 18:00:00,25,1015.3,-0.2,57,16,0,11.112,,,340,17.7,26.9,,,,,,,,,wg-a,,,,AAXX 12184 07168 12/// /3406 10250 20160 30018 40153 56002 60006 91800 333 10269 20177=
07168,1997-07-13 00:00:00,16,1016.9,0.3,94,15,0,14.816,,,290,,,,,,,,,,,wg-a,,,,AAXX 13004 07168 12/// /2908 10160 20150 30029 40169 51003 60006 90000=
07168,1997-07-13 06:00:00,17,1017.3,0.5,88,15,14000,0,,,0,13.2,25.1,,,,,,,,,wg-a,,,,AAXX 13064 07168 02/64 30000 10170 20150 30034 40173 53005 60006 80001 90600 333 10251 20132 60004=
07168,1997-07-13 09:00:00,24,1017.5,0.5,57,15,16000,7.408,,,10,,,,,,,,,,,wg-a,,,,AAXX 13094 07168 12/66 50104 10240 20150 30039 40175 51005 60006 80002 90900=
07168,1997-07-13 12:00:00,26,1016.8,-0.6,51,15,20000,11.112,,,280,,,,,,,,,,,wg-a,,,,AAXX 13124 07168 12670 72806 10260 20150 30033 40168 58006 60006 83102 91200=
07168,1997-07-13 15:00:00,27,1016.6,-0.2,42,13,20000,14.816,,,330,,,,,,,,,,,wg-a,,,,AAXX 13154 07168 12770 63308 10270 20130 30031 40166 55002 60006 82202 91500=
07168,1997-07-13 18:00:00,26,1016.2,-0.4,48,14,0,7.408,,,10,16.9,27.8,,,,,,,,,wg-a,,,,AAXX 13184 07168 12/// /0104 10260 20140 30027 40162 55004 60006 91800 333 10278 20169=
07168,1997-07-14 00:00:00,18,1018,0.2,88,16,0,3.704,,,300,,,,,,,,,,,wg-a,,,,AAXX 14004 07168 12/// /3002 10180 20160 30041 40180 50002 60006 90000=
07168,1997-07-14 09:00:00,24,1019.2,0.7,54,14,500,7.408,,,220,,,,,,,,,,,wg-a,,,,AAXX 14094 07168 12/00 72204 10240 20140 30056 40192 53007 60006 85032 90900=
07168,1997-07-14 12:00:00,25,1019,-0.2,54,15,500,14.816,,,240,,,,,,,,,,,wg-a,,,,AAXX 14124 07168 12600 /2408 10250 20150 30054 40190 58002 60006 82132 91200=
07168,1997-07-14 15:00:00,24,1018.4,-0.6,57,15,25000,11.112,,,340,,,,,,,,,,17,wg-a,,,,AAXX 14154 07168 12675 63406 10240 20150 30048 40184 55006 60006 71792 85902 91500=
07168,1997-07-15 09:00:00,18,1024.7,1.2,64,11,25000,11.112,,,340,,,,,,,,,,,wg-a,,,,AAXX 15094 07168 12575 23406 10180 20110 30107 40247 53012 60006 82100 90900=
07168,1997-07-15 12:00:00,22,1023.8,-0.7,46,10,500,11.112,,,320,,,,,,,,,,,wg-a,,,,AAXX 15124 07168 12600 /3206 10220 20100 30100 40238 58007 60006 81100 91200=
07168,1997-07-15 18:00:00,24,1021.4,-1,47,12,0,7.408,,,10,14.1,25,,,,,,,,,wg-a,,,,AAXX 15184 07168 12/// /0104 10240 20120 30077 40214 58010 60006 91800 333 10250 20141=
07168,1997-07-16 06:00:00,16,1020.4,-0,88,14,18000,3.704,,,200,11.7,24.2,,,,,,,,,wg-a,,,,AAXX 16064 07168 02/68 12002 10160 20140 30064 40204 55000 60006 80001 90600 333 10242 20117 60004=
07168,1997-07-16 12:00:00,26,1017.3,-1.8,45,13,25000,3.704,,,260,,,,,,,,,,,wg-a,,,,AAXX 16124 07168 12675 32602 10260 20130 30038 40173 56018 60006 81101 91200=
07168,1997-07-16 15:00:00,28,1015.3,-1.9,42,14,25000,7.408,,,50,,,,,,,,,,,wg-a,,,,AAXX 16154 07168 12675 40504 10280 20140 30019 40153 58019 60006 82101 91500=
07168,1997-07-16 18:00:00,27,1014.5,-0.8,48,15,0,14.816,,,350,15.6,28,,,,,,,,,wg-a,,,,AAXX 16184 07168 12/// /3508 10270 20150 30011 40145 57008 60006 91800 333 10280 20156=
07168,1997-07-17 00:00:00,16,1016.5,0.5,82,13,0,7.408,,,340,,,,,,,,,,,wg-a,,,,AAXX 17004 07168 12/// /3404 10160 20130 30025 40165 50005 60006 90000=
07168,1997-07-17 06:00:00,15,1014.4,-0.7,94,14,12000,11.112,,,330,12.7,26.7,,,,,,,,,wg-a,,,,AAXX 17064 07168 02462 43306 10150 20140 30004 40144 58007 60006 82130 90600 333 10267 20127 60004=
07168,1997-07-17 09:00:00,20,1013.3,-0.8,68,14,11000,11.112,,,340,,,,,,,,,,,wg-a,,,,AAXX 17094 07168 12/61 /3406 10200 20140 39996 40133 56008 60006 90900=
07168,1997-07-17 12:00:00,22,1012.7,-0.5,57,13,25000,14.816,,,340,,,,,,,,,,,wg-a,,,,AAXX 17124 07168 12675 73408 10220 20130 39991 40127 58005 60006 85102 91200=
07168,1997-07-17 15:00:00,23,1012,-0.7,50,12,25000,14.816,,,330,,,,,,,,,,,wg-a,,,,AAXX 17154 07168 12675 /3308 10230 20120 39984 40120 58007 60006 82102 91500=
07168,1997-07-17 18:00:00,21,1011.8,-0.2,64,14,0,11.112,,,320,15.3,23.6,,,,,,,,,wg-a,,,,AAXX 17184 07168 12/// /3206 10210 20140 39982 40118 55002 60006 91800 333 10236 20153=
07168,1997-07-18 00:00:00,16,1012.2,-0.4,94,15,0,14.816,,,280,,,,,,,,,,,wg-a,,,,AAXX 18004 07168 12/// /2808 10160 20150 39983 40122 55004 60016 90000=
07168,1997-07-18 06:00:00,14,1014,2,94,13,8000,22.224,,,320,13.9,21.4,,,,,1,,,3,wg-a,,,,AAXX 18064 07168 02458 73212 10140 20130 30000 40140 53020 60006 70361 872// 90600 333 10214 20139 60014=
07168,1997-07-18 09:00:00,17,1015,1.1,72,12,15000,29.632,,,330,,,,,,,,,,,wg-a,,,,AAXX 18094 07168 12465 /3316 10170 20120 30011 40150 51011 60006 86200 90900=
07168,1997-07-18 12:00:00,19,1015.4,0.5,64,12,20000,35.188,,,310,,,,,,,,,,,wg-a,,,,AAXX 18124 07168 12570 63119 10190 20120 30016 40154 53005 60006 84260 91200=
07168,1997-07-18 15:00:00,21,1015.9,0.6,60,13,20000,31.484,,,330,,,,,,,,,,,wg-a,,,,AAXX 18154 07168 12570 /3317 10210 20130 30022 40159 51006 60006 85260 91500=
07168,1997-07-18 18:00:00,19,1017.1,1,64,12,0,14.816,,,340,14.3,21,,,,,,,,,wg-a,,,,AAXX 18184 07168 12/// /3408 10190 20120 30032 40171 53010 60006 91800 333 10210 20143=
07168,1997-07-19 00:00:00,15,1019.2,0.2,82,12,0,14.816,,,290,,,,,,,,,,,wg-a,,,,AAXX 19004 07168 12/// /2908 10150 20120 30051 40192 51002 60006 90000=
07168,1997-07-19 06:00:00,15,1019.8,0.7,88,13,500,22.224,,,280,12.6,19.2,,,,,,,,,wg-a,,,,AAXX 19064 07168 02300 82812 10150 20130 30057 40198 51007 60006 886// 90600 333 10192 20126 60004=
07168,1997-07-19 12:00:00,23,1020.9,0.4,53,13,15000,22.224,,,10,,,,,,,,,,,wg-a,,,,AAXX 19124 07168 12665 /0112 10230 20130 30072 40209 50004 60016 85200 91200=
07168,1997-07-19 15:00:00,25,1020.8,0,47,13,20000,25.928,,,340,,,,,,,,,,,wg-a,,,,AAXX 19154 07168 12770 43414 10250 20130 30072 40208 50000 60006 84200 91500=
07168,1997-07-20 00:00:00,14,1023.5,0.1,88,12,0,14.816,,,290,,,,,,,,,,,wg-a,,,,AAXX 20004 07168 12/// /2908 10140 20120 30093 40235 53001 60006 90000=
07168,1997-07-20 06:00:00,14,1023.4,0.7,94,13,500,14.816,,,310,12.2,21.2,,,,,1,,,,wg-a,,,,AAXX 20064 07168 02400 33108 10140 20130 30092 40234 53007 60006 83600 90600 333 10212 20122 60014=
07168,1997-07-20 09:00:00,17,1023.6,0.4,82,14,500,14.816,,,340,,,,,,,,,,,wg-a,,,,AAXX 20094 07168 12400 73408 10170 20140 30096 40236 50004 60006 876// 90900=
07168,1997-07-20 12:00:00,22,1022,-1.4,50,11,15000,14.816,,,20,,,,,,,,,,,wg-a,,,,AAXX 20124 07168 12565 /0208 10220 20110 30082 40220 58014 60006 86200 91200=
07168,1997-07-20 15:00:00,23,1021,-0.9,44,10,20000,25.928,,,340,,,,,,,,,,,wg-a,,,,AAXX 20154 07168 12770 43414 10230 20100 30073 40210 56009 60006 84800 91500=
07168,1997-07-20 18:00:00,21,1020.8,-0.3,46,9,0,18.52,,,10,14,24.2,,,,,,,,,wg-a,,,,AAXX 20184 07168 12/// /0110 10210 20090 30070 40208 56003 60006 91800 333 10242 20140=
07168,1997-07-21 00:00:00,11,1021.7,-0.3,94,10,0,14.816,,,300,,,,,,,,,,,wg-a,,,,AAXX 21004 07168 12/// /3008 10110 20100 30074 40217 58003 60006 90000=
07168,1997-07-21 06:00:00,13,1021.7,0.2,94,12,8000,11.112,,,330,10.1,21,,,,,,,,,wg-a,,,,AAXX 21064 07168 02/58 03306 10130 20120 30075 40217 51002 60006 80000 90600 333 10210 20101 60004=
07168,1997-07-21 09:00:00,20,1021.3,-0.1,64,13,12000,11.112,,,10,,,,,,,,,,,wg-a,,,,AAXX 21094 07168 12562 20106 10200 20130 30074 40213 58001 60006 82100 90900=
07168,1997-07-21 15:00:00,25,1019,-1.1,39,10,25000,14.816,,,40,,,,,,,,,,,wg-a,,,,AAXX 21154 07168 12775 30408 10250 20100 30054 40190 58011 60006 83200 91500=
07168,1997-07-21 18:00:00,24,1018.3,-0.7,44,11,0,11.112,,,20,13.2,25.5,,,,,,,,,wg-a,,,,AAXX 21184 07168 12/// /0206 10240 20110 30047 40183 56007 60006 91800 333 10255 20132=
07168,1997-07-22 09:00:00,23,1019.4,0,61,15,10000,7.408,,,70,,,,,,,,,,,wg-a,,,,AAXX 22094 07168 12560 /0704 10230 20150 30057 40194 50000 60006 81101 90900=
07168,1997-07-22 12:00:00,26,1018.2,-1,42,12,25000,11.112,,,120,,,,,,,,,,,wg-a,,,,AAXX 22124 07168 12675 31206 10260 20120 30047 40182 58010 60006 83101 91200=
07168,1997-07-22 15:00:00,26,1017.4,-0.8,42,12,25000,11.112,,,60,,,,,,,,,,,wg-a,,,,AAXX 22154 07168 12775 30606 10260 20120 30039 40174 58008 60006 82101 91500=
07168,1997-07-22 18:00:00,26,1017,-0.4,39,11,0,3.704,,,70,13.9,27.2,,,,,,,,,wg-a,,,,AAXX 22184 07168 12/// /0702 10260 20110 30035 40170 55004 60006 91800 333 10272 20139=
07168,1997-07-23 09:00:00,24,1018.4,0.4,57,15,14000,3.704,,,80,,,,,,,,,,,wg-a,,,,AAXX 23094 07168 12/64 50802 10240 20150 30048 40184 51004 60006 81032 90900=
07168,1997-07-23 12:00:00,27,1017.8,-0.5,42,13,25000,7.408,,,80,,,,,,,,,,,wg-a,,,,AAXX 23124 07168 12675 30804 10270 20130 30043 40178 58005 60006 82201 91200=
07168,1997-07-23 18:00:00,27,1016,-0.8,42,13,0,7.408,,,80,16.4,28.5,,,,,,,,,wg-a,,,,AAXX 23184 07168 12/// /0804 10270 20130 30025 40160 55008 60006 91800 333 10285 20164=
07168,1997-07-24 00:00:00,16,1017.2,-0.4,82,13,0,11.112,,,330,,,,,,,,,,,wg-a,,,,AAXX 24004 07168 12/// /3306 10160 20130 30032 40172 58004 60006 90000=
07168,1997-07-24 06:00:00,17,1016,-0.2,88,15,10000,3.704,,,130,12.9,26.9,,,,,,,,,wg-a,,,,AAXX 24064 07168 02/60 41302 10170 20150 30021 40160 58002 60006 82031 90600 333 10269 20129 60004=
07168,1997-07-24 09:00:00,26,1015.2,-0.4,58,17,12000,3.704,,,150,,,,,,,,,,,wg-a,,,,AAXX 24094 07168 12/62 71502 10260 20170 30017 40152 58004 60006 86032 90900=
07168,1997-07-24 12:00:00,27,1014.1,-1,54,17,20000,14.816,,,240,,,,,,,,,,,wg-a,,,,AAXX 24124 07168 12770 72408 10270 20170 30007 40141 57010 60006 84231 91200=
07168,1997-07-24 15:00:00,22,1013.1,-1.2,88,20,15000,14.816,,,140,,,,5,,,,,,25,wg-a,,,,AAXX 24154 07168 12665 71408 10220 20200 39995 40131 58012 60057 72598 84232 91500=
07168,1997-07-24 18:00:00,25,1012.6,-0.4,69,19,0,3.704,,,340,17.2,28.7,,,,,,,,,wg-a,,,,AAXX 24184 07168 32/// /3402 10250 20190 39991 40126 55004 91800 333 10287 20172=
07168,1997-07-25 00:00:00,18,1014.6,0.2,77,14,0,22.224,,,260,,,,,,,,,,,wg-a,,,,AAXX 25004 07168 12/// /2612 10180 20140 30007 40146 50002 60016 90000=
07168,1997-07-25 06:00:00,16,1014.4,0.7,88,14,18000,35.188,,,290,16,24.7,,,,,6,,,1,wg-a,,,,AAXX 25064 07168 02568 72919 10160 20140 30005 40144 53007 60006 70165 8653/ 90600 333 10247 20160 60064=
07168,1997-07-25 09:00:00,17,1016.2,1.8,77,13,18000,29.632,,,270,,,,,,,,,,,wg-a,,,,AAXX 25094 07168 12568 72716 10170 20130 30023 40162 53018 60006 85202 90900=
07168,1997-07-25 12:00:00,19,1016.1,0,68,13,20000,25.928,,,270,,,,,,,,,,,wg-a,,,,AAXX 25124 07168 12570 72714 10190 20130 30023 40161 50000 60006 85102 91200=
07168,1997-07-25 18:00:00,16,1016.1,0,94,15,0,11.112,,,190,15.6,20.1,,,,,,,,,wg-a,,,,AAXX 25184 07168 32/// /1906 10160 20150 30021 40161 50000 91800 333 10201 20156=
07168,1997-07-26 00:00:00,15,1016.7,0.4,100,15,0,0,,,0,,,,,,,,,,,wg-a,,,,AAXX 26004 07168 12/// /0000 10150 20150 30027 40167 51004 60016 90000=
07168,1997-07-26 06:00:00,15,1020,1.7,100,15,7000,7.408,,,300,14.7,15.8,,,,,2,,,,wg-a,,,,AAXX 26064 07168 02257 23004 10150 20150 30060 40200 52017 60006 82600 90600 333 10158 20147 60024=
07168,1997-07-26 09:00:00,18,1021.1,1.2,83,15,500,3.704,,,280,,,,,,,,,,,wg-a,,,,AAXX 26094 07168 12500 /2802 10180 20150 30072 40211 51012 60006 86100 90900=
07168,1997-07-26 12:00:00,22,1020.7,-0.2,60,14,500,7.408,,,290,,,,,,,,,,,wg-a,,,,AAXX 26124 07168 12600 42904 10220 20140 30070 40207 58002 60006 84100 91200=
07168,1997-07-26 18:00:00,24,1018.7,-0.7,54,14,0,14.816,,,240,15.4,25.6,,,,,,,,,wg-a,,,,AAXX 26184 07168 12/// /2408 10240 20140 30051 40187 56007 60006 91800 333 10256 20154=
07168,1997-07-27 00:00:00,20,1019.1,-0.3,83,17,0,14.816,,,230,,,,,,,,,,,wg-a,,,,AAXX 27004 07168 12/// /2308 10200 20170 30053 40191 58003 60006 90000=
07168,1997-07-27 09:00:00,23,1019.9,0.5,73,18,500,22.224,,,270,,,,,,,,,,,wg-a,,,,AAXX 27094 07168 12500 72712 10230 20180 30062 40199 53005 60006 86801 90900=
07168,1997-07-27 12:00:00,26,1019.4,-0.3,54,16,500,18.52,,,250,,,,,,,,,,,wg-a,,,,AAXX 27124 07168 12600 /2510 10260 20160 30059 40194 58003 60006 85201 91200=
07168,1997-07-27 15:00:00,23,1020.5,0.9,73,18,500,18.52,,,260,,,,,,,,,,1,wg-a,,,,AAXX 27154 07168 02500 72610 10230 20180 30068 40205 52009 61000 70186 878// 91500 333 ////=
07168,1997-07-27 18:00:00,25,1020.1,-0.3,44,12,0,14.816,,,360,19.8,26,,,,,,,,,wg-a,,,,AAXX 27184 07168 32/// /3608 10250 20120 30065 40201 55003 91800 333 10260 20198=
07168,1997-07-28 00:00:00,14,1022.8,0.7,88,12,0,11.112,,,300,,,,,,,,,,,wg-a,,,,AAXX 28004 07168 12/// /3006 10140 20120 30087 40228 52007 60006 90000=
07168,1997-07-28 06:00:00,14,1023.4,0.7,94,13,18000,3.704,,,340,10.9,24.6,,,,,,,,,wg-a,,,,AAXX 28064 07168 02368 23402 10140 20130 30092 40234 51007 60006 82600 90600 333 10246 20109 61000=
07168,1997-07-28 09:00:00,23,1022.8,-0.1,61,15,25000,7.408,,,110,,,,,,,,,,3,wg-a,,,,AAXX 28094 07168 12575 21104 10230 20150 30091 40228 58001 60006 70341 81101 90900=
07168,1997-07-28 15:00:00,27,1020.5,-1.3,34,10,500,7.408,,,90,,,,,,,,,,,wg-a,,,,AAXX 28154 07168 12700 20904 10270 20100 30070 40205 58013 60006 81101 91500=
07168,1997-07-29 00:00:00,17,1021.4,0,77,13,0,0,,,0,,,,,,,,,,,wg-a,,,,AAXX 29004 07168 12/// /0000 10170 20130 30074 40214 50000 60006 90000=
07168,1997-07-29 06:00:00,15,1021.8,0.6,82,12,20000,7.408,,,320,12.6,26,,,,,,,,,wg-a,,,,AAXX 29064 07168 02/70 43204 10150 20120 30077 40218 53006 60006 81031 90600 333 10260 20126 60004=
07168,1997-07-29 09:00:00,25,1021.5,0.2,44,12,25000,11.112,,,50,,,,,,,,,,,wg-a,,,,AAXX 29094 07168 12/75 50506 10250 20120 30079 40215 50002 60006 80001 90900=
07168,1997-07-29 15:00:00,29,1019.5,-1.1,27,8,500,3.704,,,300,,,,,,,,,,,wg-a,,,,AAXX 29154 07168 12/00 33002 10290 20080 30061 40195 57011 60006 80002 91500=
07168,1997-07-29 18:00:00,28,1019,-0.6,32,10,0,11.112,,,360,14.9,28.9,,,,,,,,,wg-a,,,,AAXX 29184 07168 12/// /3606 10280 20100 30055 40190 55006 60006 91800 333 10289 20149=
07168,1997-07-30 00:00:00,15,1019.6,-0.6,77,11,0,7.408,,,150,,,,,,,,,,,wg-a,,,,AAXX 30004 07168 12/// /1504 10150 20110 30055 40196 58006 60006 90000=
07168,1997-07-30 06:00:00,16,1018.9,-0,82,13,20000,7.408,,,180,12.2,27.6,,,,,,,,,wg-a,,,,AAXX 30064 07168 02870 41804 10160 20130 30049 40189 55000 60006 81031 90600 333 10276 20122 60004=
07168,1997-07-30 12:00:00,29,1017.3,-0.8,35,12,20000,14.816,,,250,,,,,,,,,,,wg-a,,,,AAXX 30124 07168 12770 72508 10290 20120 30039 40173 58008 60006 85201 91200=
07168,1997-07-30 18:00:00,29,1015.8,-0.5,40,14,0,22.224,,,280,15.6,30.8,,,,,,,,,wg-a,,,,AAXX 30184 07168 12/// /2812 10290 20140 30024 40158 57005 60006 91800 333 10308 20156=
07168,1997-07-31 00:00:00,16,1019.8,0.9,68,10,0,14.816,,,300,,,,,,,,,,,wg-a,,,,AAXX 31004 07168 12/// /3008 10160 20100 30058 40198 53009 60006 90000=
07168,1997-07-31 06:00:00,15,1020.1,-0,77,11,500,14.816,,,260,11.4,28.7,,,,,,,,,wg-a,,,,AAXX 31064 07168 02/00 72608 10150 20110 30060 40201 55000 60006 86032 90600 333 10287 20114 60004=
07168,1997-07-31 09:00:00,19,1020,0.1,64,12,500,22.224,,,260,,,,,,,,,,,wg-a,,,,AAXX 31094 07168 12500 72612 10190 20120 30061 40200 51001 60006 81132 90900=
07168,1997-07-31 12:00:00,19,1019.5,-0.5,60,11,500,22.224,,,280,,,,,,,,,,,wg-a,,,,AAXX 31124 07168 12600 72812 10190 20110 30056 40195 56005 60006 84132 91200=
07168,1997-07-31 15:00:00,18,1019,-0.5,68,12,20000,14.816,,,310,,,,,,,,,,61,wg-a,,,,AAXX 31154 07168 02670 83108 10180 20120 30051 40190 58005 61000 76162 8117/ 91500 333 ////=
07168,1997-07-31 18:00:00,17,1018.3,-0.7,77,13,0,3.704,,,240,14.7,20.2,,,,,,,,,wg-a,,,,AAXX 31184 07168 32/// /2402 10170 20130 30044 40183 56007 91800 333 10202 20147=
07168,1997-08-01 06:00:00,14,1016.4,-0.4,100,14,6000,0,,,0,14.2,17.4,,,,,,,,21,wg-a,,,,AAXX 01064 07168 02356 80000 10140 20140 30024 40164 56004 61000 72162 885// 90600 333 10174 20142 6002=
07168,1997-08-01 09:00:00,16,1016.7,0.3,88,14,14000,3.704,,,310,,,,0,,,,,,1,wg-a,,,,AAXX 01094 07168 12364 83102 10160 20140 30027 40167 50003 60007 70162 885// 90900=
07168,1997-08-01 12:00:00,17,1016.8,0.2,82,14,18000,14.816,,,290,,,,,,,,,,3,wg-a,,,,AAXX 01124 07168 12468 82908 10170 20140 30029 40168 53002 60016 70362 885// 91200=
07168,1997-08-01 18:00:00,17,1016.8,0.1,88,15,0,7.408,,,100,14.3,17.5,,,,,,,,,wg-a,,,,AAXX 01184 07168 32/// /1004 10170 20150 30029 40168 53001 91800 333 10175 20143=
07168,1997-08-02 00:00:00,16,1017.5,-0.1,100,16,0,7.408,,,170,,,,,,,,,,,wg-a,,,,AAXX 02004 07168 12/// /1704 10160 20160 30035 40175 58001 60006 90000=
07168,1997-08-02 06:00:00,17,1017.2,0.3,100,17,9000,3.704,,,200,15.8,17.1,,,,,1,,,,wg-a,,,,AAXX 02064 07168 02459 82002 10170 20170 30033 40172 52003 60006 885// 90600 333 10171 20158 60014=
07168,1997-08-02 09:00:00,19,1017.7,0.6,88,17,8000,11.112,,,300,,,,,,,,,,,wg-a,,,,AAXX 02094 07168 12458 83006 10190 20170 30039 40177 51006 60006 885// 90900=
07168,1997-08-02 12:00:00,20,1018.1,0.4,88,18,7000,11.112,,,320,,,,,,,,,,,wg-a,,,,AAXX 02124 07168 12457 83206 10200 20180 30043 40181 51004 60006 885// 91200=
07168,1997-08-02 15:00:00,22,1017.7,-0.3,78,18,8000,7.408,,,20,,,,,,,,,,,wg-a,,,,AAXX 02154 07168 12458 80204 10220 20180 30040 40177 58003 60006 875// 91500=
07168,1997-08-02 18:00:00,22,1017.3,-0.4,83,19,0,7.408,,,50,17,22.5,,,,,,,,,wg-a,,,,AAXX 02184 07168 12/// /0504 10220 20190 30036 40173 56004 60006 91800 333 10225 20170=
07168,1997-08-03 00:00:00,19,1017.6,-0.3,94,18,0,3.704,,,80,,,,,,,,,,,wg-a,,,,AAXX 03004 07168 12/// /0802 10190 20180 30038 40176 58003 60006 90000=
07168,1997-08-03 06:00:00,19,1016.8,-0.1,94,18,500,3.704,,,100,17.6,22.1,,,,,,,,,wg-a,,,,AAXX 03064 07168 02500 71002 10190 20180 30030 40168 57001 60006 875// 90600 333 10221 20176 60004=
07168,1997-08-03 09:00:00,23,1016.8,0.2,73,18,12000,7.408,,,100,,,,,,,,,,,wg-a,,,,AAXX 03094 07168 12462 71004 10230 20180 30032 40168 52002 60006 85801 90900=
07168,1997-08-03 12:00:00,27,1015.9,-0.7,58,18,15000,7.408,,,60,,,,,,,,,,,wg-a,,,,AAXX 03124 07168 12665 70604 10270 20180 30025 40159 58007 60006 86801 91200=
07168,1997-08-03 15:00:00,28,1015,-0.9,55,18,25000,7.408,,,110,,,,,,,,,,,wg-a,,,,AAXX 03154 07168 12675 71104 10280 20180 30016 40150 56009 60006 84230 91500=
07168,1997-08-03 18:00:00,28,1014.8,-0.2,51,17,0,3.704,,,70,18.7,28.3,,,,,,,,,wg-a,,,,AAXX 03184 07168 12/// /0702 10280 20170 30014 40148 55002 60006 91800 333 10283 20187=
07168,1997-08-04 00:00:00,18,1015.5,-0.1,94,17,0,0,,,0,,,,,,,,,,,wg-a,,,,AAXX 04004 07168 12/// /0000 10180 20170 30017 40155 58001 60006 90000=
07168,1997-08-04 09:00:00,24,1016,0.6,74,19,18000,3.704,,,110,,,,,,,,,,,wg-a,,,,AAXX 04094 07168 12768 31102 10240 20190 30025 40160 50006 60006 835/1 90900=
07168,1997-08-04 12:00:00,30,1015,-0.8,49,18,25000,14.816,,,90,,,,,,,,,,,wg-a,,,,AAXX 04124 07168 12/75 20908 10300 20180 30017 40150 56008 60006 80001 91200=
07168,1997-08-04 15:00:00,32,1014.2,-0.7,41,17,500,11.112,,,40,,,,,,,,,,,wg-a,,,,AAXX 04154 07168 12700 30406 10320 20170 30010 40142 58007 60006 82203 91500=
07168,1997-08-04 18:00:00,30,1014,-0.3,49,18,0,11.112,,,70,20.2,32.7,,,,,,,,,wg-a,,,,AAXX 04184 07168 12/// /0706 10300 20180 30007 40140 55003 60006 91800 333 10327 20202=
07168,1997-08-05 09:00:00,,1,,,,15000,7.408,,,30,,,,,,,,,,,wg-a,,,,AAXX 05094 07168 32665 70304 1//// 2//// 82572 90900=
07168,1997-08-05 12:00:00,,1,,,,20000,11.112,,,100,,,,,,,,,,,wg-a,,,,AAXX 05124 07168 12870 41006 1//// 2//// 30013 60006 84031 91200=
07168,1997-08-05 15:00:00,,1,,,,20000,14.816,,,110,,,,,,,,,,,wg-a,,,,AAXX 05154 07168 12670 31108 1//// 2//// 30003 60006 82301 91500=
07168,1997-08-05 18:00:00,,1,,,,0,31.484,,,240,,,,,,,,,,,wg-a,,,,AAXX 05184 07168 32/// /2417 1//// 2//// 91800=
07168,1997-08-06 00:00:00,,1,,,,0,25.928,,,190,,,,,,,,,,,wg-a,,,,AAXX 06004 07168 12/// /1914 1//// 2//// 60086 90000=
07168,1997-08-06 06:00:00,19,1,,,,15000,0,,,0,,,,,,,,,,1,wg-a,,,,AAXX 06064 07168 12365 70000 10190 2//// 60006 70162 8217/ 90600=
07168,1997-08-06 09:00:00,,1,,,,18000,7.408,,,110,,,,,,,,,,,wg-a,,,,AAXX 06094 07168 12468 71104 1//// 2//// 60006 8117/ 90900=
07168,1997-08-06 12:00:00,,1,,,,20000,7.408,,,150,,,,,,,,,,,wg-a,,,,AAXX 06124 07168 12570 71504 1//// 2//// 60006 8323/ 91200=
07168,1997-08-06 15:00:00,,1,,,,20000,7.408,,,290,,,,,,,,,,,wg-a,,,,AAXX 06154 07168 12670 /2904 1//// 2//// 60006 86230 91500=
07168,1997-08-06 18:00:00,,1,,,,0,7.408,,,70,,,,,,,,,,,wg-a,,,,AAXX 06184 07168 32/// /0704 1//// 2//// 91800=
07168,1997-08-07 00:00:00,,1,,,,0,3.704,,,60,,,,,,,,,,,wg-a,,,,AAXX 07004 07168 12/// /0602 1//// 2//// 60016 90000=
07168,1997-08-07 06:00:00,,1,,,,500,0,,,0,,,,,,,2,,,,wg-a,,,,AAXX 07064 07168 02300 70000 1//// 2//// 39993 60006 875// 90600 333 60024=
07168,1997-08-07 09:00:00,23,1,,83,20,9000,11.112,,,150,,,,,,,,,,,wg-a,,,,AAXX 07094 07168 32459 81506 10230 20200 87201 90900=
07168,1997-08-07 12:00:00,27,1,,62,19,25000,11.112,,,190,,,,,,,,,,,wg-a,,,,AAXX 07124 07168 12575 41906 10270 20190 60006 84201 91200=
07168,1997-08-07 15:00:00,25,1,,74,20,25000,18.52,,,120,,,,,,,,,,,wg-a,,,,AAXX 07154 07168 12575 61210 10250 20200 60006 86900 91500=
07168,1997-08-07 18:00:00,20,1,,94,19,0,3.704,,,70,,,,,,,,,,,wg-a,,,,AAXX 07184 07168 32/// /0702 10200 20190 91800=
07168,1997-08-08 00:00:00,17,1,,100,17,0,0,,,0,,,,,,,,,,,wg-a,,,,AAXX 08004 07168 02/// /0000 10170 20170 61000 90000 333 ////=
07168,1997-08-08 06:00:00,17,1,,100,17,300,3.704,,,30,15.7,19.6,,0,,,,,,42,wg-a,,,,AAXX 08064 07168 02003 /0302 10170 20170 60006 74242 86600 90600 333 10196 20157 60007=
07168,1997-08-08 09:00:00,22,1,,83,19,6000,3.704,,,150,,,,,,,,,,1,wg-a,,,,AAXX 08094 07168 12456 31502 10220 20190 60006 70141 83100 90900=
07168,1997-08-08 12:00:00,27,1,,70,21,500,3.704,,,320,,,,,,,,,,3,wg-a,,,,AAXX 08124 07168 12500 23202 10270 20210 60006 70341 81130 91200=
07168,1997-08-08 15:00:00,29,1,,45,16,500,7.408,,,340,,,,,,,,,,,wg-a,,,,AAXX 08154 07168 12600 33404 10290 20160 60006 83200 91500=
07168,1997-08-08 18:00:00,28,1,,48,16,0,3.704,,,20,16.4,29.3,,,,,,,,,wg-a,,,,AAXX 08184 07168 12/// /0202 10280 20160 60006 91800 333 10293 20164=
07168,1997-08-09 09:00:00,27,1,,66,20,14000,7.408,,,160,,,,,,,,,,,wg-a,,,,AAXX 09094 07168 12564 /1604 10270 20200 60006 81100 90900=
07168,1997-08-09 12:00:00,30,1,,49,18,18000,7.408,,,80,,,,,,,,,,,wg-a,,,,AAXX 09124 07168 12668 20804 10300 20180 60006 82200 91200=
07168,1997-08-09 15:00:00,30,1,,46,17,20000,11.112,,,40,,,,,,,,,,,wg-a,,,,AAXX 09154 07168 12770 20406 10300 20170 60006 82200 91500=
07168,1997-08-09 18:00:00,29,1,,48,17,0,7.408,,,80,18.6,30.7,,,,,,,,,wg-a,,,,AAXX 09184 07168 12/// /0804 10290 20170 60006 91800 333 10307 20186=
07168,1997-08-10 06:00:00,18,1,,88,16,10000,7.408,,,120,13.7,29.2,,,,,,,,,wg-a,,,,AAXX 10064 07168 02/60 11204 10180 20160 60006 81030 90600 333 10292 20137 60004=
07168,1997-08-10 09:00:00,26,1,,54,16,18000,11.112,,,80,,,,,,,,,,,wg-a,,,,AAXX 10094 07168 12/68 00806 10260 20160 60006 80000 90900=
07168,1997-08-10 15:00:00,31,1,,33,13,20000,14.816,,,80,,,,,,,,,,,wg-a,,,,AAXX 10154 07168 12/70 00808 10310 20130 60006 80000 91500=
07168,1997-08-10 18:00:00,29,1,,40,14,0,14.816,,,100,18.1,31.4,,,,,,,,,wg-a,,,,AAXX 10184 07168 12/// /1008 10290 20140 60006 91800 333 10314 20181=
07168,1997-08-11 00:00:00,20,1,,78,16,0,7.408,,,110,,,,,,,,,,,wg-a,,,,AAXX 11004 07168 12/// /1104 10200 20160 60006 90000=
07168,1997-08-11 06:00:00,19,1013.1,,83,16,12000,11.112,,,80,16.5,29.4,,,,,,,,,wg-a,,,,AAXX 11064 07168 02/62 60806 10190 20160 39993 40131 60006 80002 90600 333 10294 20165 60004=
07168,1997-08-11 09:00:00,25,1,,69,19,20000,11.112,,,290,,,,,,,,,,,wg-a,,,,AAXX 11094 07168 32/70 42906 10250 20190 80001 90900=
07168,1997-08-11 12:00:00,29,1,,52,18,20000,7.408,,,360,,,,,,,,,,,wg-a,,,,AAXX 11124 07168 12/70 33604 10290 20180 60006 80001 91200=
07168,1997-08-11 18:00:00,28,1,,70,22,0,11.112,,,230,19.3,31.7,,,,,,,,,wg-a,,,,AAXX 11184 07168 32/// /2306 10280 20220 91800 333 10317 20193=
07168,1997-08-12 00:00:00,23,1,,83,20,0,0,,,0,,,,,,,,,,,wg-a,,,,AAXX 12004 07168 12/// /0000 10230 20200 60006 90000=
07168,1997-08-12 06:00:00,21,1,,94,20,15000,3.704,,,110,19.8,27.8,,,,,,,,,wg-a,,,,AAXX 12064 07168 12/65 31102 10210 20200 60006 80001 90600 333 10278 20198=
07168,1997-08-12 09:00:00,27,1,,70,21,15000,7.408,,,250,,,,,,,,,,,wg-a,,,,AAXX 12094 07168 12/65 32504 10270 20210 60006 80001 90900=
07168,1997-08-12 15:00:00,31,1,,52,20,15000,7.408,,,300,,,,,,,,,,,wg-a,,,,AAXX 12154 07168 12665 43004 10310 20200 60006 84200 91500=
07168,1997-08-13 06:00:00,22,1,,88,20,15000,3.704,,,70,19.9,29.7,,,,,,,,,wg-a,,,,AAXX 13064 07168 02/65 40702 10220 20200 60006 84080 90600 333 10297 20199 60004=
07168,1997-08-13 12:00:00,30,1,,59,21,10000,14.816,,,300,,,,,,,,,,,wg-a,,,,AAXX 13124 07168 12660 23008 10300 20210 60006 82130 91200=
07168,1997-08-13 18:00:00,30,1,,46,17,0,11.112,,,350,22.1,32.3,,,,,,,,,wg-a,,,,AAXX 13184 07168 12/// /3506 10300 20170 60006 91800 333 10323 20221=
07168,1997-08-14 09:00:00,23,1024.3,,61,15,500,3.704,,,360,,,,,,,,,,,wg-a,,,,AAXX 14094 07168 32600 53602 10230 20150 30106 40243 85800 90900=
07168,1997-08-14 12:00:00,27,1022.7,-1.4,48,15,500,11.112,,,330,,,,,,,,,,,wg-a,,,,AAXX 14124 07168 12/00 73306 10270 20150 30092 40227 57014 60006 80001 91200=
07168,1997-08-14 15:00:00,29,1021.1,-1.5,40,14,500,7.408,,,330,,,,,,,,,,,wg-a,,,,AAXX 14154 07168 12700 63304 10290 20140 30077 40211 57015 60006 82101 91500=
07168,1997-08-15 00:00:00,16,1022,0,88,14,0,0,,,0,,,,,,,,,,,wg-a,,,,AAXX 15004 07168 12/// /0000 10160 20140 30080 40220 50000 60006 90000=
07168,1997-08-15 06:00:00,16,1021.8,0.2,88,14,16000,3.704,,,330,13.2,27,,,,,,,,,wg-a,,,,AAXX 15064 07168 02866 33302 10160 20140 30077 40218 53002 60006 81031 90600 333 10270 20132 60004=
07168,1997-08-15 09:00:00,25,1021.6,0.3,54,15,20000,3.704,,,80,,,,,,,,,,,wg-a,,,,AAXX 15094 07168 12/70 50802 10250 20150 30080 40216 51003 60006 80002 90900=
07168,1997-08-15 12:00:00,27,1021.1,-0.4,42,13,20000,7.408,,,80,,,,,,,,,,,wg-a,,,,AAXX 15124 07168 12670 50804 10270 20130 30076 40211 56004 60006 83102 91200=
07168,1997-08-15 15:00:00,28,1020.1,-1,42,14,25000,7.408,,,40,,,,,,,,,,,wg-a,,,,AAXX 15154 07168 12775 50404 10280 20140 30066 40201 56010 60006 81106 91500=
07168,1997-08-15 18:00:00,26,1019.5,-0.6,51,15,0,7.408,,,70,15.6,28,,,,,,,,,wg-a,,,,AAXX 15184 07168 12/// /0704 10260 20150 30060 40195 57006 60006 91800 333 10280 20156=
07168,1997-08-16 00:00:00,16,1020.5,0.1,88,14,0,0,,,0,,,,,,,,,,,wg-a,,,,AAXX 16004 07168 12/// /0000 10160 20140 30065 40205 50001 60006 90000=
07168,1997-08-16 06:00:00,15,1019.3,-0.1,100,15,10000,3.704,,,300,12.6,26,,,,,,,,,wg-a,,,,AAXX 16064 07168 02/60 33002 10150 20150 30053 40193 58001 60006 80001 90600 333 10260 20126 60004=
07168,1997-08-16 09:00:00,24,1019.1,0.2,57,15,14000,3.704,,,70,,,,,,,,,,,wg-a,,,,AAXX 16094 07168 12/64 20702 10240 20150 30055 40191 50002 60006 80001 90900=
07168,1997-08-16 12:00:00,28,1018,-0.9,40,13,500,7.408,,,110,,,,,,,,,,,wg-a,,,,AAXX 16124 07168 12700 21104 10280 20130 30046 40180 57009 60006 82101 91200=
07168,1997-08-16 15:00:00,29,1017,-1,37,13,500,3.704,,,100,,,,,,,,,,,wg-a,,,,AAXX 16154 07168 12700 41002 10290 20130 30036 40170 57010 60006 83101 91500=
07168,1997-08-16 18:00:00,27,1016.5,-0.5,42,13,0,11.112,,,10,15,29.3,,,,,,,,,wg-a,,,,AAXX 16184 07168 12/// /0106 10270 20130 30031 40165 55005 60006 91800 333 10293 20150=
07168,1997-08-17 06:00:00,14,1018.4,0.5,100,14,8000,3.704,,,160,13.2,27.4,,,,,,,,,wg-a,,,,AAXX 17064 07168 02/58 01602 10140 20140 30043 40184 52005 60006 80000 90600 333 10274 20132 60004=
07168,1997-08-17 09:00:00,24,1018.5,0.6,61,16,12000,3.704,,,290,,,,,,,,,,,wg-a,,,,AAXX 17094 07168 12/62 02902 10240 20160 30049 40185 51006 60006 80000 90900=
07168,1997-08-17 12:00:00,29,1017.3,-1,35,12,500,7.408,,,300,,,,,,,,,,,wg-a,,,,AAXX 17124 07168 12700 13004 10290 20120 30039 40173 58010 60006 81100 91200=
07168,1997-08-17 15:00:00,30,1016,-1.2,33,12,500,3.704,,,360,,,,,,,,,,,wg-a,,,,AAXX 17154 07168 12800 13602 10300 20120 30027 40160 58012 60006 81100 91500=
07168,1997-08-17 18:00:00,27,1016.5,0.3,42,13,0,3.704,,,300,14.3,30.1,,,,,,,,,wg-a,,,,AAXX 17184 07168 12/// /3002 10270 20130 30030 40165 51003 60006 91800 333 10301 20143=
07168,1997-08-18 00:00:00,17,1017.7,-0.3,88,15,0,0,,,0,,,,,,,,,,,wg-a,,,,AAXX 18004 07168 12/// /0000 10170 20150 30038 40177 58003 60006 90000=
07168,1997-08-18 06:00:00,17,1017.7,-0.1,94,16,10000,0,,,0,14,26.6,,,,,,,,,wg-a,,,,AAXX 18064 07168 02/60 30000 10170 20160 30038 40177 55001 60006 83030 90600 333 10266 20140 60004=
07168,1997-08-18 09:00:00,25,1017.8,0.5,61,17,12000,7.408,,,340,,,,,,,,,,,wg-a,,,,AAXX 18094 07168 12/62 33404 10250 20170 30043 40178 53005 60006 83030 90900=
07168,1997-08-18 12:00:00,29,1017.3,-0.4,40,14,15000,11.112,,,340,,,,,,,,,,,wg-a,,,,AAXX 18124 07168 12765 33406 10290 20140 30039 40173 58004 60006 83200 91200=
07168,1997-08-18 15:00:00,31,1016.2,-1,31,12,15000,3.704,,,20,,,,,,,,,,,wg-a,,,,AAXX 18154 07168 12865 30202 10310 20120 30029 40162 58010 60006 83200 91500=
07168,1997-08-18 18:00:00,29,1016.3,-0,35,12,0,7.408,,,360,16.8,30.8,,,,,,,,,wg-a,,,,AAXX 18184 07168 12/// /3604 10290 20120 30029 40163 55000 60006 91800 333 10308 20168=
07168,1997-08-19 00:00:00,16,1017.5,0,82,13,0,7.408,,,310,,,,,,,,,,,wg-a,,,,AAXX 19004 07168 12/// /3104 10160 20130 30035 40175 50000 60006 90000=
07168,1997-08-19 06:00:00,15,1017.5,0.3,94,14,8000,3.704,,,200,12.9,28.5,,,,,,,,,wg-a,,,,AAXX 19064 07168 02/58 /2002 10150 20140 30035 40175 53003 60006 80001 90600 333 10285 20129 60004=
07168,1997-08-19 09:00:00,25,1017.2,0.1,61,17,9000,0,,,0,,,,,,,,,,,wg-a,,,,AAXX 19094 07168 12/59 /0000 10250 20170 30036 40172 53001 60006 80001 90900=
07168,1997-08-19 12:00:00,29,1016,-0.9,43,15,10000,7.408,,,90,,,,,,,,,,,wg-a,,,,AAXX 19124 07168 12760 60904 10290 20150 30027 40160 57009 60006 81101 91200=
07168,1997-08-19 15:00:00,29,1015.3,-0.7,40,14,12000,11.112,,,10,,,,,,,,,,,wg-a,,,,AAXX 19154 07168 12762 70106 10290 20140 30020 40153 56007 60006 83201 91500=
07168,1997-08-19 18:00:00,27,1015.1,-0.3,48,15,0,7.408,,,10,14.5,30.9,,,,,,,,,wg-a,,,,AAXX 19184 07168 12/// /0104 10270 20150 30017 40151 55003 60006 91800 333 10309 20145=
07168,1997-08-20 00:00:00,17,1016.6,0,82,14,0,11.112,,,300,,,,,,,,,,,wg-a,,,,AAXX 20004 07168 12/// /3006 10170 20140 30027 40166 50000 60006 90000=
07168,1997-08-20 06:00:00,14,1017.8,1.1,100,14,10000,0,,,0,12.5,27.2,,,,,,,,,wg-a,,,,AAXX 20064 07168 02/60 30000 10140 20140 30037 40178 53011 60006 80001 90600 333 10272 20125 60004=
07168,1997-08-20 09:00:00,24,1017.6,0.3,57,15,12000,3.704,,,310,,,,,,,,,,,wg-a,,,,AAXX 20094 07168 12/62 03102 10240 20150 30040 40176 50003 60006 80000 90900=
07168,1997-08-20 15:00:00,30,1016.3,-0.4,27,9,18000,11.112,,,300,,,,,,,,,,,wg-a,,,,AAXX 20154 07168 12868 13006 10300 20090 30030 40163 57004 60006 81130 91500=
07168,1997-08-20 18:00:00,28,1016.2,-0.2,30,9,0,7.408,,,360,14.3,30.7,,,,,,,,,wg-a,,,,AAXX 20184 07168 12/// /3604 10280 20090 30028 40162 58002 60006 91800 333 10307 20143=
07168,1997-08-21 00:00:00,14,1018.6,0.3,88,12,0,0,,,0,,,,,,,,,,,wg-a,,,,AAXX 21004 07168 12/// /0000 10140 20120 30045 40186 53003 60006 90000=
07168,1997-08-21 06:00:00,16,1019.4,1,88,14,12000,3.704,,,190,12.3,28.4,,,,,,,,,wg-a,,,,AAXX 21064 07168 02/62 71902 10160 20140 30054 40194 51010 60006 85032 90600 333 10284 20123 60004=
07168,1997-08-21 09:00:00,26,1019.5,0.5,45,13,15000,3.704,,,140,,,,,,,,,,,wg-a,,,,AAXX 21094 07168 12/65 61402 10260 20130 30059 40195 51005 60006 82032 90900=
07168,1997-08-21 12:00:00,30,1018.5,-0.7,31,11,25000,7.408,,,160,,,,,,,,,,,wg-a,,,,AAXX 21124 07168 12/75 61604 10300 20110 30052 40185 58007 60006 80001 91200=
07168,1997-08-21 15:00:00,31,1017.9,-0.6,29,11,500,11.112,,,170,,,,,,,,,,,wg-a,,,,AAXX 21154 07168 12700 31706 10310 20110 30046 40179 56006 60006 81101 91500=
07168,1997-08-21 18:00:00,29,1017.9,-0.1,37,13,0,7.408,,,170,15.7,31.8,,,,,,,,,wg-a,,,,AAXX 21184 07168 12/// /1704 10290 20130 30045 40179 55001 60006 91800 333 10318 20157=
07168,1997-08-22 00:00:00,16,1019.9,0.2,88,14,0,3.704,,,160,,,,,,,,,,,wg-a,,,,AAXX 22004 07168 12/// /1602 10160 20140 30059 40199 53002 60006 90000=
07168,1997-08-22 06:00:00,17,1020.9,1.1,88,15,15000,0,,,0,16,28.6,,,,,,,,,wg-a,,,,AAXX 22064 07168 02/65 70000 10170 20150 30070 40209 53011 60006 8703/ 90600 333 10286 20160 60004=
07168,1997-08-22 12:00:00,28,1020.6,-0.6,51,17,12000,7.408,,,340,,,,,,,,,,,wg-a,,,,AAXX 22124 07168 12/62 53404 10280 20170 30071 40206 58006 60006 85030 91200=
07168,1997-08-22 15:00:00,29,1019.4,-1.1,52,18,12000,11.112,,,60,,,,,,,,,,,wg-a,,,,AAXX 22154 07168 12662 /0606 10290 20180 30060 40194 56011 60006 81230 91500=
07168,1997-08-22 18:00:00,28,1019,-0.4,58,19,0,7.408,,,80,17.4,29.9,,,,,,,,,wg-a,,,,AAXX 22184 07168 12/// /0804 10280 20190 30056 40190 56004 60006 91800 333 10299 20174=
07168,1997-08-23 06:00:00,18,1018.4,-0,94,17,8000,3.704,,,190,16.1,27.8,,,,,,,,,wg-a,,,,AAXX 23064 07168 02/58 /1902 10180 20170 30045 40184 54000 60006 85030 90600 333 10278 20161 60004=
07168,1997-08-23 09:00:00,26,1017.9,-0.1,61,18,12000,11.112,,,150,,,,,,,,,,,wg-a,,,,AAXX 23094 07168 12/62 41506 10260 20180 30044 40179 57001 60006 84030 90900=
07168,1997-08-23 12:00:00,32,1016.1,-1.5,36,15,18000,11.112,,,150,,,,,,,,,,,wg-a,,,,AAXX 23124 07168 12768 21506 10320 20150 30029 40161 58015 60006 82200 91200=
07168,1997-08-23 15:00:00,33,1014.7,-1.4,34,15,20000,7.408,,,270,,,,,,,,,,,wg-a,,,,AAXX 23154 07168 12770 32704 10330 20150 30015 40147 56014 60006 83200 91500=
07168,1997-08-23 18:00:00,31,1013.8,-0.9,43,17,0,7.408,,,180,17.8,33.5,,,,,,,,,wg-a,,,,AAXX 23184 07168 12/// /1804 10310 20170 30006 40138 57009 60006 91800 333 10335 20178=
07168,1997-08-24 00:00:00,20,1014.5,-0,83,17,0,7.408,,,170,,,,,,,,,,,wg-a,,,,AAXX 24004 07168 12/// /1704 10200 20170 30008 40145 55000 60006 90000=
07168,1997-08-24 06:00:00,19,1015.1,0.6,88,17,15000,7.408,,,160,16.2,30.9,,,,,,,,,wg-a,,,,AAXX 24064 07168 02/65 01604 10190 20170 30013 40151 52006 60006 80000 90600 333 10309 20162 60004=
07168,1997-08-24 09:00:00,29,1014.5,-0.1,48,17,25000,7.408,,,120,,,,,,,,,,,wg-a,,,,AAXX 24094 07168 12/75 11204 10290 20170 30012 40145 56001 60006 81030 90900=
07168,1997-08-24 12:00:00,34,1013.3,-1,34,16,500,14.816,,,200,,,,,,,,,,,wg-a,,,,AAXX 24124 07168 12800 32008 10340 20160 30002 40133 57010 60006 83200 91200=
07168,1997-08-24 15:00:00,33,1012,-1.3,39,17,500,7.408,,,300,,,,,,,,,,,wg-a,,,,AAXX 24154 07168 12800 33004 10330 20170 39989 40120 56013 60006 83200 91500=
07168,1997-08-24 18:00:00,31,1010.6,-1.5,43,17,0,7.408,,,200,18.8,34.6,,,,,,,,,wg-a,,,,AAXX 24184 07168 12/// /2004 10310 20170 39974 40106 56015 60006 91800 333 10346 20188=
07168,1997-08-25 00:00:00,20,1010.6,-0.8,83,17,0,7.408,,,160,,,,,,,,,,,wg-a,,,,AAXX 25004 07168 12/// /1604 10200 20170 39969 40106 57008 60006 90000=
07168,1997-08-25 06:00:00,19,1009.1,-0.8,83,16,12000,7.408,,,160,16.8,30.8,,,,,,,,,wg-a,,,,AAXX 25064 07168 02/62 21604 10190 20160 39954 40091 56008 60006 82080 90600 333 10308 20168 60004=
07168,1997-08-25 09:00:00,28,1009,0.3,48,16,15000,18.52,,,220,,,,,,,,,,,wg-a,,,,AAXX 25094 07168 12/65 22210 10280 20160 39957 40090 53003 60006 82030 90900=
07168,1997-08-25 12:00:00,32,1007.8,-1,29,12,20000,25.928,,,210,,,,,,,,,,,wg-a,,,,AAXX 25124 07168 12/70 12114 10320 20120 39947 40078 56010 60006 81030 91200=
07168,1997-08-25 15:00:00,33,1006.6,-1.2,28,12,20000,22.224,,,230,,,,,,,,,,,wg-a,,,,AAXX 25154 07168 12/70 12312 10330 20120 39935 40066 58012 60006 80001 91500=
07168,1997-08-25 18:00:00,27,1007.8,1,54,17,0,29.632,,,290,18.6,32.9,,,,,,,,,wg-a,,,,AAXX 25184 07168 12/// /2916 10270 20170 39945 40078 53010 60006 91800 333 10329 20186=
07168,1997-08-26 00:00:00,19,1011.4,0.9,88,17,0,11.112,,,320,,,,,,,,,,,wg-a,,,,AAXX 26004 07168 12/// /3206 10190 20170 39977 40114 51009 60006 90000=
07168,1997-08-26 06:00:00,17,1012.1,0.3,100,17,500,11.112,,,10,17.2,26.8,,,,,,,,60,wg-a,,,,AAXX 26064 07168 02200 80106 10170 20170 39983 40121 53003 61000 76062 875// 90600 333 10268 20172 6004=
07168,1997-08-26 09:00:00,17,1012.7,0.6,100,17,8000,3.704,,,360,,,,3,,,,,,60,wg-a,,,,AAXX 26094 07168 12358 83602 10170 20170 39989 40127 51006 60037 76066 875// 90900=
07168,1997-08-26 12:00:00,20,1012.1,-0.5,78,16,15000,3.704,,,330,,,,0,,,,,,1,wg-a,,,,AAXX 26124 07168 02465 73302 10200 20160 39984 40121 58005 60036 70162 878// 91200 333 60007=
07168,1997-08-27 00:00:00,15,1009.4,-1,100,15,0,3.704,,,140,,,,,,,,,,,wg-a,,,,AAXX 27004 07168 12/// /1402 10150 20150 39955 40094 56010 60006 90000=
07168,1997-08-27 06:00:00,17,1007,-0.8,100,17,12000,7.408,,,170,13.9,20.8,,,,,3,,,,wg-a,,,,AAXX 27064 07168 02562 71704 10170 20170 39932 40070 56008 60006 8583/ 90600 333 10208 20139 60034=
07168,1997-08-27 12:00:00,24,1004.8,-0.9,74,19,500,25.928,,,190,,,,,,,,,,60,wg-a,,,,AAXX 27124 07168 02500 81914 10240 20190 39914 40048 56009 61000 76062 878// 91200 333 6100=
07168,1997-08-27 15:00:00,25,1003.6,-1.2,57,16,500,31.484,,,210,,,,,,,,,,1,wg-a,,,,AAXX 27154 07168 02500 72117 10250 20160 39902 40036 58012 61000 70186 8387/ 91500 333 ////=
07168,1997-08-28 00:00:00,16,1004,-1.1,94,15,0,7.408,,,130,,,,,,,,,,,wg-a,,,,AAXX 28004 07168 12/// /1304 10160 20150 39902 40040 56011 60266 90000=
07168,1997-08-28 06:00:00,14,1002,-0.2,94,13,10000,18.52,,,270,14,22.6,,,,,,,,61,wg-a,,,,AAXX 28064 07168 02260 82710 10140 20130 39881 40020 55002 61000 76162 875// 90600 333 10226 20140 6056=
07168,1997-08-28 09:00:00,16,1004.4,2.5,88,14,25000,22.224,,,200,,,,0,,,,,,1,wg-a,,,,AAXX 28094 07168 12375 72012 10160 20140 39906 40044 51025 60007 70162 875// 90900=
07168,1997-08-28 12:00:00,20,1004.5,0.3,68,14,500,29.632,,,220,,,,,,,,,,1,wg-a,,,,AAXX 28124 07168 12500 42216 10200 20140 39909 40045 52003 60006 70161 84200 91200=
07168,1997-08-28 15:00:00,19,1005.2,0.6,64,12,10000,29.632,,50.004,220,,,,,,,,,,81,wg-a,,,,AAXX 28154 07168 02660 /2216 10190 20120 39915 40052 53006 61000 78186 85201 91500 333 //// 91027=
07168,1997-08-28 18:00:00,17,1006.4,1.1,77,13,0,18.52,,,200,13.9,22.4,,,,,,,,,wg-a,,,,AAXX 28184 07168 32/// /2010 10170 20130 39926 40064 53011 91800 333 10224 20139=
07168,1997-08-29 00:00:00,15,1010.7,1.3,82,12,0,25.928,,,230,,,,,,,,,,,wg-a,,,,AAXX 29004 07168 12/// /2314 10150 20120 39967 40107 51013 60006 90000=
07168,1997-08-29 06:00:00,13,1014.6,1.8,88,11,20000,18.52,,,230,12.3,16.9,,,,,,,,,wg-a,,,,AAXX 29064 07168 02/70 32310 10130 20110 30005 40146 51018 60006 83030 90600 333 10169 20123 60004=
07168,1997-08-29 09:00:00,17,1015.6,1.2,68,11,500,31.484,,,240,,,,,,,,,,,wg-a,,,,AAXX 29094 07168 12500 62417 10170 20110 30017 40156 52012 60006 86800 90900=
07168,1997-08-29 12:00:00,20,1016.1,0.6,56,11,500,31.484,,,240,,,,,,,,,,,wg-a,,,,AAXX 29124 07168 12600 /2417 10200 20110 30023 40161 51006 60006 86800 91200=
07168,1997-08-29 15:00:00,21,1016.7,0.6,53,11,500,18.52,,,270,,,,,,,,,,,wg-a,,,,AAXX 29154 07168 12600 /2710 10210 20110 30029 40167 52006 60006 86800 91500=
07168,1997-08-29 18:00:00,19,1017.2,0.4,68,13,0,11.112,,,200,13.2,22.1,,,,,,,,,wg-a,,,,AAXX 29184 07168 12/// /2006 10190 20130 30033 40172 53004 60006 91800 333 10221 20132=
07168,1997-08-30 00:00:00,16,1017.9,-0.1,88,14,0,18.52,,,160,,,,,,,,,,,wg-a,,,,AAXX 30004 07168 12/// /1610 10160 20140 30039 40179 58001 60006 90000=
07168,1997-08-30 06:00:00,15,1015.1,-1.4,94,14,500,29.632,,,170,14.3,18.4,,,,,,,,61,wg-a,,,,AAXX 30064 07168 02200 81716 10150 20140 30011 40151 58014 61000 76162 885// 90600 333 10184 20143 6007=
07168,1997-08-30 09:00:00,17,1015,-0,94,16,7000,29.632,,,210,,,,2,,,,,,51,wg-a,,,,AAXX 30094 07168 12457 82116 10170 20160 30011 40150 55000 60027 75165 887// 90900=
07168,1997-08-30 12:00:00,20,1015.6,0.8,88,18,15000,25.928,,,220,,,,,,,,,,1,wg-a,,,,AAXX 30124 07168 02465 82214 10200 20180 30019 40156 53008 60026 70165 885// 91200 333 61000=
07168,1997-08-30 15:00:00,22,1016.7,1.1,78,18,25000,29.632,,,220,,,,,,,,,,,wg-a,,,,AAXX 30154 07168 12575 72216 10220 20180 30030 40167 51011 60006 875// 91500=
07168,1997-08-30 18:00:00,21,1017.2,0.5,83,18,0,22.224,,,220,14.8,22.8,,,,,,,,,wg-a,,,,AAXX 30184 07168 32/// /2212 10210 20180 30035 40172 51005 91800 333 10228 20148=
07168,1997-08-31 00:00:00,17,1018.6,0.1,94,16,0,11.112,,,160,,,,,,,,,,,wg-a,,,,AAXX 31004 07168 12/// /1606 10170 20160 30047 40186 53001 60006 90000=
07168,1997-08-31 15:00:00,30,1012.5,-1.4,49,18,500,14.816,,,160,,,,,,,,,,,wg-a,,,,AAXX 31154 07168 12/00 51608 10300 20180 39993 40125 56014 60006 81032 91500=
07168,1997-08-31 18:00:00,24,1013,0.2,78,20,0,11.112,,,220,14.3,30.2,,,,,,,,,wg-a,,,,AAXX 31184 07168 32/// /2206 10240 20200 39995 40130 53002 91800 333 10302 20143=
07168,1997-09-01 09:00:00,20,1018.7,0.7,78,16,500,7.408,,,300,,,,,,,,,,,wg-a,,,,AAXX 01094 07168 12400 73004 10200 20160 30049 40187 51007 60006 8118/ 90900=
07168,1997-09-01 15:00:00,18,1018.5,,94,17,20000,11.112,,,290,,,,,,,,,,3,wg-a,,,,AAXX 01154 07168 32470 82906 10180 20170 30046 40185 70398 889// 91500=
07168,1997-09-01 18:00:00,16,1018.5,-0,100,16,0,11.112,,,320,,,,,,,,,,,wg-a,,,,AAXX 01184 07168 32/// /3206 10160 20160 30045 40185 54000 91800=
07168,1997-09-02 06:00:00,15,1019.9,0.2,100,15,7000,14.816,,,320,14.9,16.1,,,,,,,,3,wg-a,,,,AAXX 02064 07168 02257 83208 10150 20150 30058 40199 53002 60006 70352 8577/ 90600 333 10161 20149 61000=
07168,1997-09-02 09:00:00,16,1021.4,1.6,88,14,1500,11.112,,,350,,,,0,,,,,,20,wg-a,,,,AAXX 02094 07168 12415 83506 10160 20140 30074 40214 53016 60007 72052 8587/ 90900=
07168,1997-09-02 12:00:00,18,1021.8,0.5,73,13,20000,14.816,,,340,,,,,,,,,,3,wg-a,,,,AAXX 02124 07168 02570 83408 10180 20130 30079 40218 53005 60016 70352 8217/ 91200 333 61000=
07168,1997-09-02 18:00:00,19,1021.5,0.2,68,13,0,7.408,,,10,14.9,19.4,,,,,,,,,wg-a,,,,AAXX 02184 07168 32/// /0104 10190 20130 30076 40215 52002 91800 333 10194 20149=
07168,1997-09-03 00:00:00,12,1022.6,-0.1,100,12,0,7.408,,,340,,,,,,,,,,,wg-a,,,,AAXX 03004 07168 12/// /3404 10120 20120 30084 40226 58001 60006 90000=
07168,1997-09-03 06:00:00,11,1022.4,0.3,100,11,10000,3.704,,,60,10.7,19.1,,,,,,,,,wg-a,,,,AAXX 03064 07168 02760 20602 10110 20110 30081 40224 53003 60006 82500 90600 333 10191 20107 60004=
07168,1997-09-03 09:00:00,18,1022,0,77,14,12000,3.704,,,360,,,,,,,,,,,wg-a,,,,AAXX 03094 07168 12/62 43602 10180 20140 30081 40220 50000 60006 84031 90900=
07168,1997-09-03 12:00:00,22,1020.7,-1.1,57,13,11000,3.704,,,90,,,,,,,,,,,wg-a,,,,AAXX 03124 07168 12/61 /0902 10220 20130 30070 40207 58011 60006 91200=
07168,1997-09-03 15:00:00,23,1019.9,-0.8,61,15,20000,3.704,,,140,,,,,,,,,,,wg-a,,,,AAXX 03154 07168 12670 /1402 10230 20150 30062 40199 58008 60006 85100 91500=
07168,1997-09-03 18:00:00,20,1019.9,-0.1,78,16,0,3.704,,,50,11.4,23.6,,,,,,,,,wg-a,,,,AAXX 03184 07168 12/// /0502 10200 20160 30061 40199 56001 60006 91800 333 10236 20114=
07168,1997-09-04 00:00:00,13,1020.5,-0.5,100,13,0,7.408,,,180,,,,,,,,,,,wg-a,,,,AAXX 04004 07168 12/// /1804 10130 20130 30063 40205 56005 60006 90000=
07168,1997-09-04 06:00:00,14,1020.6,0.4,100,14,10000,7.408,,,160,11.7,20.4,,,,,,,,,wg-a,,,,AAXX 04064 07168 02/60 61604 10140 20140 30065 40206 53004 60006 85032 90600 333 10204 20117 60004=
07168,1997-09-04 09:00:00,20,1020.7,0.4,83,17,12000,7.408,,,160,,,,,,,,,,,wg-a,,,,AAXX 04094 07168 12/62 51604 10200 20170 30069 40207 53004 60006 84032 90900=
07168,1997-09-04 12:00:00,25,1019.6,-0.9,61,17,25000,11.112,,,210,,,,,,,,,,,wg-a,,,,AAXX 04124 07168 12675 32106 10250 20170 30060 40196 58009 60006 82130 91200=
07168,1997-09-04 15:00:00,25,1018.7,-0.9,57,16,25000,7.408,,,280,,,,,,,,,,,wg-a,,,,AAXX 04154 07168 12675 52804 10250 20160 30051 40187 56009 60006 83130 91500=
07168,1997-09-04 18:00:00,22,1018.8,-0,73,17,0,3.704,,,320,13.6,25.5,,,,,,,,,wg-a,,,,AAXX 04184 07168 12/// /3202 10220 20170 30051 40188 55000 60006 91800 333 10255 20136=
07168,1997-09-05 00:00:00,16,1019.8,0.3,94,15,0,18.52,,,290,,,,,,,,,,,wg-a,,,,AAXX 05004 07168 12/// /2910 10160 20150 30058 40198 53003 60006 90000=
07168,1997-09-05 06:00:00,13,1019.9,-0.1,94,12,12000,7.408,,,340,12.1,22.4,,,,,,,,,wg-a,,,,AAXX 05064 07168 02/62 33404 10130 20120 30057 40199 55001 60006 82031 90600 333 10224 20121 60004=
07168,1997-09-05 09:00:00,18,1020.1,0.5,83,15,10000,7.408,,,10,,,,,,,,,,,wg-a,,,,AAXX 05094 07168 12460 40104 10180 20150 30062 40201 51005 60006 82130 90900=
07168,1997-09-05 12:00:00,23,1019,-0.8,69,17,10000,7.408,,,290,,,,,,,,,,,wg-a,,,,AAXX 05124 07168 12/60 42904 10230 20170 30054 40190 58008 60006 83031 91200=
07168,1997-09-05 15:00:00,24,1018.2,-0.8,61,16,16000,11.112,,,330,,,,,,,,,,,wg-a,,,,AAXX 05154 07168 12666 63306 10240 20160 30046 40182 57008 60006 84280 91500=
07168,1997-09-05 18:00:00,21,1018.8,0.5,78,17,0,11.112,,,340,13.1,24.9,,,,,,,,,wg-a,,,,AAXX 05184 07168 12/// /3406 10210 20170 30051 40188 53005 60006 91800 333 10249 20131=
07168,1997-09-06 00:00:00,16,1021.7,0.9,88,14,0,7.408,,,310,,,,,,,,,,,wg-a,,,,AAXX 06004 07168 12/// /3104 10160 20140 30077 40217 52009 60006 90000=
07168,1997-09-06 06:00:00,14,1024,1.5,94,13,20000,11.112,,,300,13.5,21.2,,,,,,,,,wg-a,,,,AAXX 06064 07168 02770 73006 10140 20130 30098 40240 53015 60006 8553/ 90600 333 10212 20135 60004=
07168,1997-09-06 09:00:00,17,1025.1,1.2,77,13,25000,7.408,,,10,,,,,,,,,,,wg-a,,,,AAXX 06094 07168 12475 60104 10170 20130 30110 40251 53012 60006 82831 90900=
07168,1997-09-06 12:00:00,20,1024.9,-0,53,10,500,11.112,,,340,,,,,,,,,,,wg-a,,,,AAXX 06124 07168 12600 53406 10200 20100 30110 40249 54000 60006 83130 91200=
07168,1997-09-06 18:00:00,19,1024.3,-0.2,56,10,0,3.704,,,320,13.6,21.3,,,,,,,,,wg-a,,,,AAXX 06184 07168 12/// /3202 10190 20100 30103 40243 56002 60006 91800 333 10213 20136=
07168,1997-09-07 00:00:00,10,1025.8,0.1,100,10,0,7.408,,,330,,,,,,,,,,,wg-a,,,,AAXX 07004 07168 12/// /3304 10100 20100 30114 40258 52001 60006 90000=
07168,1997-09-07 06:00:00,10,1026.7,0.5,100,10,20000,3.704,,,150,7.6,18.6,,,,,,,,,wg-a,,,,AAXX 07064 07168 02/70 51502 10100 20100 30123 40267 53005 60006 83031 90600 333 10186 20076 60004=
07168,1997-09-07 09:00:00,15,1028,1.5,77,11,20000,3.704,,,330,,,,,,,,,,,wg-a,,,,AAXX 07094 07168 12570 73302 10150 20110 30138 40280 51015 60006 81531 90900=
07168,1997-09-07 15:00:00,20,1026.9,-0.2,53,10,25000,11.112,,,360,,,,,,,,,,,wg-a,,,,AAXX 07154 07168 12675 73606 10200 20100 30130 40269 58002 60006 85431 91500=
07168,1997-09-07 18:00:00,19,1027.4,0.4,64,12,0,7.408,,,350,9.6,20.6,,,,,,,,,wg-a,,,,AAXX 07184 07168 12/// /3504 10190 20120 30134 40274 53004 60006 91800 333 10206 20096=
07168,1997-09-08 00:00:00,13,1028.7,0.3,100,13,0,7.408,,,300,,,,,,,,,,,wg-a,,,,AAXX 08004 07168 12/// /3004 10130 20130 30144 40287 51003 60006 90000=
07168,1997-09-08 06:00:00,11,1028.2,-0.2,100,11,400,3.704,,,180,10.6,18.9,,,,,,,,42,wg-a,,,,AAXX 08064 07168 02/04 01802 10110 20110 30138 40282 57002 60006 74240 80000 90600 333 10189 20106 60004=
07168,1997-09-08 15:00:00,22,1025.7,-1.6,57,13,25000,7.408,,,360,,,,,,,,,,,wg-a,,,,AAXX 08154 07168 12675 /3604 10220 20130 30119 40257 57016 60006 81100 91500=
07168,1997-09-08 18:00:00,21,1024.7,-1.1,64,14,0,3.704,,,250,10.8,22.4,,,,,,,,,wg-a,,,,AAXX 08184 07168 12/// /2502 10210 20140 30108 40247 56011 60006 91800 333 10224 20108=
07168,1997-09-09 06:00:00,12,1024.6,-0,100,12,4000,3.704,,,350,9.6,20.5,,,,,,,,10,wg-a,,,,AAXX 09064 07168 02340 83502 10120 20120 30103 40246 55000 60006 71011 886// 90600 333 10205 20096 60004=
07168,1997-09-09 09:00:00,13,1025.1,0.6,82,10,8000,11.112,,,330,,,,,,,,,,,wg-a,,,,AAXX 09094 07168 12358 83306 10130 20100 30109 40251 53006 60006 886// 90900=
07168,1997-09-09 18:00:00,17,1023.1,-0,68,11,0,11.112,,,350,11.9,20,,,,,,,,,wg-a,,,,AAXX 09184 07168 12/// /3506 10170 20110 30091 40231 55000 60006 91800 333 10200 20119=
07168,1997-09-10 00:00:00,12,1025.1,0.6,82,9,0,14.816,,,10,,,,,,,,,,,wg-a,,,,AAXX 10004 07168 12/// /0108 10120 20090 30108 40251 51006 60006 90000=
07168,1997-09-10 06:00:00,9,1025.4,0.4,93,8,10000,7.408,,,40,6.9,17.4,,,,,,,,,wg-a,,,,AAXX 10064 07168 02/60 00404 10090 20080 30109 40254 53004 60006 80000 90600 333 10174 20069 60004=
07168,1997-09-10 09:00:00,15,1024.7,-0.3,67,9,16000,22.224,,,80,,,,,,,,,,,wg-a,,,,AAXX 10094 07168 12566 /0812 10150 20090 30106 40247 58003 60006 81100 90900=
07168,1997-09-10 12:00:00,18,1023.6,-1,49,7,20000,18.52,,,60,,,,,,,,,,,wg-a,,,,AAXX 10124 07168 12/70 10610 10180 20070 30096 40236 58010 60006 80001 91200=
07168,1997-09-10 18:00:00,17,1020.7,-0.6,55,8,0,11.112,,,40,9.1,19.8,,,,,,,,,wg-a,,,,AAXX 10184 07168 12/// /0406 10170 20080 30067 40207 56006 60006 91800 333 10198 20091=
07168,1997-09-12 06:00:00,16,1011.6,0.9,94,15,10000,7.408,,,220,14.8,20.9,,,,,,,,,wg-a,,,,AAXX 12064 07168 02/60 72204 10160 20150 39977 40116 53009 60006 84052 90600 333 10209 20148 60004=
07168,1997-09-12 09:00:00,19,1011.8,0.3,83,16,8000,14.816,,,220,,,,0,,,,,,,wg-a,,,,AAXX 12094 07168 12558 72208 10190 20160 39980 40118 50003 60007 82172 90900=
07168,1997-09-13 00:00:00,15,1011.8,0.4,94,14,0,22.224,,,230,,,,,,,,,,,wg-a,,,,AAXX 13004 07168 02/// /2312 10150 20140 39978 40118 51004 61000 90000 333 ////=
07168,1997-09-13 06:00:00,12,1014.3,1.6,88,10,500,25.928,,,290,11.8,15.7,,,,,12,,,,wg-a,,,,AAXX 13064 07168 02600 42914 10120 20100 30001 40143 53016 60006 82501 90600 333 10157 20118 60124=
07168,1997-09-13 09:00:00,15,1016.5,2.4,72,10,500,25.928,,,280,,,,,,,,,,,wg-a,,,,AAXX 13094 07168 12500 32814 10150 20100 30025 40165 53024 60006 82101 90900=
07168,1997-09-13 12:00:00,16,1018.5,2,63,9,500,22.224,,,290,,,,,,,,,,,wg-a,,,,AAXX 13124 07168 12500 /2912 10160 20090 30045 40185 52020 60006 85200 91200=
07168,1997-09-13 15:00:00,18,1019.3,0.8,49,7,500,22.224,,,300,,,,,,,,,,2,wg-a,,,,AAXX 13154 07168 02600 43012 10180 20070 30053 40193 53008 61000 70286 84200 91500 333 ////=
07168,1997-09-13 18:00:00,12,1021.2,1.7,82,9,0,7.408,,,270,11.8,17.8,,,,,,,,,wg-a,,,,AAXX 13184 07168 32/// /2704 10120 20090 30070 40212 52017 91800 333 10178 20118=
07168,1997-09-14 06:00:00,4,1026.6,1.4,93,3,500,0,,,0,2.2,12.1,,,,,,,,,wg-a,,,,AAXX 14064 07168 02/00 40000 10040 20030 30118 40266 53014 60006 80001 90600 333 10121 20022 60004=
07168,1997-09-14 09:00:00,12,1027.2,1.1,76,8,500,7.408,,,330,,,,,,,,,,,wg-a,,,,AAXX 14094 07168 12400 73304 10120 20080 30129 40272 53011 60006 81102 90900=
07168,1997-09-14 15:00:00,17,1026.4,-0.7,45,5,500,7.408,,,40,,,,,,,,,,,wg-a,,,,AAXX 14154 07168 12600 30404 10170 20050 30123 40264 56007 60006 81101 91500=
07168,1997-09-14 18:00:00,14,1026.8,0.3,63,7,0,7.408,,,40,3.5,16.9,,,,,,,,,wg-a,,,,AAXX 14184 07168 12/// /0404 10140 20070 30126 40268 52003 60006 91800 333 10169 20035=
07168,1997-09-15 06:00:00,3,1026.8,-0.3,100,3,18000,3.704,,,330,2,14.1,,,,,,,,,wg-a,,,,AAXX 15064 07168 02/68 13302 10030 20030 30120 40268 55003 60006 80001 90600 333 10141 20020 60004=
07168,1997-09-15 09:00:00,13,1027.3,1,77,9,18000,3.704,,,350,,,,,,,,,,,wg-a,,,,AAXX 15094 07168 12/68 23502 10130 20090 30130 40273 51010 60006 80001 90900=
07168,1997-09-15 12:00:00,18,1025.5,-1.5,45,6,18000,7.408,,,40,,,,,,,,,,,wg-a,,,,AAXX 15124 07168 12/68 20404 10180 20060 30115 40255 56015 60006 80001 91200=
07168,1997-09-15 15:00:00,21,1023.9,-1.5,38,6,20000,7.408,,,50,,,,,,,,,,,wg-a,,,,AAXX 15154 07168 12/70 50504 10210 20060 30100 40239 56015 60006 80004 91500=
07168,1997-09-15 18:00:00,18,1023.3,-0.7,59,10,0,7.408,,,20,2.9,20.6,,,,,,,,,wg-a,,,,AAXX 15184 07168 12/// /0204 10180 20100 30093 40233 56007 60006 91800 333 10206 20029=
07168,1997-09-16 00:00:00,9,1024.2,-0.3,93,8,0,3.704,,,140,,,,,,,,,,,wg-a,,,,AAXX 16004 07168 12/// /1402 10090 20080 30098 40242 58003 60006 90000=
07168,1997-09-16 06:00:00,7,1023.8,-0,100,7,7000,7.408,,,170,5.6,17.5,,,,,,,,,wg-a,,,,AAXX 16064 07168 02/57 41704 10070 20070 30093 40238 55000 60006 80001 90600 333 10175 20056 60004=
07168,1997-09-16 09:00:00,16,1023.4,0,68,10,15000,7.408,,,150,,,,,,,,,,,wg-a,,,,AAXX 16094 07168 12/65 61504 10160 20100 30093 40234 50000 60006 81031 90900=
07168,1997-09-16 15:00:00,23,1019.9,-1.7,57,14,18000,11.112,,,180,,,,,,,,,,,wg-a,,,,AAXX 16154 07168 12/68 41806 10230 20140 30062 40199 56017 60006 81031 91500=
07168,1997-09-16 18:00:00,17,1020,-0.2,88,15,0,3.704,,,160,7.5,23.8,,,,,,,,,wg-a,,,,AAXX 16184 07168 12/// /1602 10170 20150 30060 40200 56002 60006 91800 333 10238 20075=
07168,1997-09-17 06:00:00,11,1022.3,0.9,100,11,8000,3.704,,,140,10,16.9,,,,,,,,,wg-a,,,,AAXX 17064 07168 02/58 /1402 10110 20110 30080 40223 53009 60006 80004 90600 333 10169 20100 60004=
07168,1997-09-17 12:00:00,26,1022.7,0.1,51,15,20000,3.704,,,190,,,,,,,,,,,wg-a,,,,AAXX 17124 07168 12670 /1902 10260 20150 30091 40227 51001 60006 81102 91200=
07168,1997-09-17 15:00:00,26,1022.1,-0.6,48,14,20000,11.112,,,240,,,,,,,,,,,wg-a,,,,AAXX 17154 07168 12770 22406 10260 20140 30085 40221 57006 60006 82101 91500=
07168,1997-09-17 18:00:00,19,1022.5,0.1,78,15,0,3.704,,,250,10.8,26.4,,,,,,,,,wg-a,,,,AAXX 17184 07168 12/// /2502 10190 20150 30086 40225 53001 60006 91800 333 10264 20108=
07168,1997-09-18 00:00:00,13,1023.6,-0.1,94,12,0,3.704,,,130,,,,,,,,,,,wg-a,,,,AAXX 18004 07168 12/// /1302 10130 20120 30094 40236 58001 60006 90000=
07168,1997-09-18 09:00:00,21,1024.3,0.5,73,16,15000,0,,,0,,,,,,,,,,,wg-a,,,,AAXX 18094 07168 12/65 20000 10210 20160 30105 40243 52005 60006 80001 90900=
07168,1997-09-18 12:00:00,26,1023.2,-0.9,51,15,20000,7.408,,,240,,,,,,,,,,,wg-a,,,,AAXX 18124 07168 12670 /2404 10260 20150 30096 40232 58009 60006 81100 91200=
07168,1997-09-18 15:00:00,27,1021.7,-1.4,45,14,25000,3.704,,,50,,,,,,,,,,,wg-a,,,,AAXX 18154 07168 12775 10502 10270 20140 30082 40217 56014 60006 81100 91500=
07168,1997-09-18 18:00:00,22,1022.1,0.1,65,15,0,3.704,,,190,10.3,27.5,,,,,,,,,wg-a,,,,AAXX 18184 07168 12/// /1902 10220 20150 30083 40221 53001 60006 91800 333 10275 20103=
07168,1997-09-19 00:00:00,13,1023,-0,94,12,0,3.704,,,180,,,,,,,,,,,wg-a,,,,AAXX 19004 07168 12/// /1802 10130 20120 30088 40230 54000 60006 90000=
07168,1997-09-19 06:00:00,11,1023.4,0.3,100,11,15000,3.704,,,140,11,21.7,,,,,,,,,wg-a,,,,AAXX 19064 07168 02765 31402 10110 20110 30091 40234 53003 60006 83500 90600 333 10217 20110 60004=
07168,1997-09-19 09:00:00,21,1023.4,0.5,64,14,15000,3.704,,,170,,,,,,,,,,,wg-a,,,,AAXX 19094 07168 12765 31702 10210 20140 30096 40234 51005 60006 83500 90900=
07168,1997-09-19 12:00:00,25,1022.6,-0.6,57,16,25000,11.112,,,320,,,,,,,,,,,wg-a,,,,AAXX 19124 07168 12775 53206 10250 20160 30090 40226 58006 60006 85500 91200=
07168,1997-09-19 18:00:00,23,1022.1,0.4,65,16,0,14.816,,,30,11.3,27.1,,,,,,,,,wg-a,,,,AAXX 19184 07168 12/// /0308 10230 20160 30084 40221 53004 60006 91800 333 10271 20113=
07168,1997-09-20 00:00:00,16,1023.8,0.2,82,13,0,14.816,,,50,,,,,,,,,,,wg-a,,,,AAXX 20004 07168 12/// /0508 10160 20130 30097 40238 52002 60006 90000=
07168,1997-09-20 06:00:00,12,1024.3,0.5,88,10,8000,7.408,,,30,12.3,22.7,,,,,,,,,wg-a,,,,AAXX 20064 07168 02/58 /0304 10120 20100 30100 40243 52005 60006 80001 90600 333 10227 20123 60004=
07168,1997-09-20 09:00:00,15,1024.8,0.7,72,10,15000,14.816,,,50,,,,,,,,,,,wg-a,,,,AAXX 20094 07168 12/65 00508 10150 20100 30107 40248 51007 60006 80000 90900=
07168,1997-09-20 15:00:00,21,1022.5,-1.3,46,9,20000,18.52,,,40,,,,,,,,,,,wg-a,,,,AAXX 20154 07168 12/70 30410 10210 20090 30087 40225 56013 60006 83050 91500=
07168,1997-09-20 18:00:00,18,1022.9,0.2,56,9,0,14.816,,,30,12.4,21.5,,,,,,,,,wg-a,,,,AAXX 20184 07168 12/// /0308 10180 20090 30089 40229 53002 60006 91800 333 10215 20124=
07168,1997-09-21 00:00:00,10,1023.8,-0.1,66,4,0,3.704,,,10,,,,,,,,,,,wg-a,,,,AAXX 21004 07168 12/// /0102 10100 20040 30094 40238 57001 60006 90000=
07168,1997-09-21 06:00:00,5,1023.5,-0.1,93,4,18000,11.112,,,300,5,17.4,,,,,,,,,wg-a,,,,AAXX 21064 07168 02668 /3006 10050 20040 30089 40235 55001 60006 81501 90600 333 10174 20050 60004=
07168,1997-09-21 09:00:00,14,1023.2,0.1,67,8,20000,3.704,,,40,,,,,,,,,,,wg-a,,,,AAXX 21094 07168 12/70 10402 10140 20080 30090 40232 51001 60006 80001 90900=
07168,1997-09-21 15:00:00,21,1020.9,-0.9,49,10,20000,7.408,,,50,,,,,,,,,,,wg-a,,,,AAXX 21154 07168 12/70 50504 10210 20100 30071 40209 56009 60006 80004 91500=
07168,1997-09-22 09:00:00,15,1022.6,0.5,72,10,10000,3.704,,,360,,,,,,,,,,,wg-a,,,,AAXX 22094 07168 12/60 13602 10150 20100 30085 40226 51005 60006 80001 90900=
07168,1997-09-22 12:00:00,21,1021.7,-0.6,64,14,12000,7.408,,,60,,,,,,,,,,,wg-a,,,,AAXX 22124 07168 12662 /0604 10210 20140 30079 40217 57006 60006 81101 91200=
07168,1997-09-22 15:00:00,23,1020.7,-0.9,53,13,20000,3.704,,,80,,,,,,,,,,,wg-a,,,,AAXX 22154 07168 12670 /0802 10230 20130 30070 40207 57009 60006 81100 91500=
07168,1997-09-22 18:00:00,19,1021,0.1,64,12,0,7.408,,,30,6.8,23.2,,,,,,,,,wg-a,,,,AAXX 22184 07168 12/// /0304 10190 20120 30071 40210 53001 60006 91800 333 10232 20068=
07168,1997-09-23 00:00:00,11,1022.2,-0.2,87,9,0,3.704,,,290,,,,,,,,,,,wg-a,,,,AAXX 23004 07168 12/// /2902 10110 20090 30079 40222 57002 60006 90000=
07168,1997-09-23 06:00:00,8,1022.6,0.4,93,7,10000,3.704,,,320,7.2,19.3,,,,,,,,,wg-a,,,,AAXX 23064 07168 02/60 03202 10080 20070 30081 40226 53004 60006 80000 90600 333 10193 20072 60004=
07168,1997-09-23 09:00:00,15,1022.8,0.6,77,11,10000,3.704,,,30,,,,,,,,,,,wg-a,,,,AAXX 23094 07168 12/60 00302 10150 20110 30087 40228 51006 60006 80000 90900=
07168,1997-09-23 12:00:00,21,1021.7,-0.8,53,11,18000,11.112,,,30,,,,,,,,,,,wg-a,,,,AAXX 23124 07168 12/68 00306 10210 20110 30079 40217 58008 60006 80000 91200=
07168,1997-09-23 15:00:00,23,1020.7,-0.9,47,11,20000,14.816,,,40,,,,,,,,,,,wg-a,,,,AAXX 23154 07168 12770 10408 10230 20110 30070 40207 56009 60006 81100 91500=
07168,1997-09-23 18:00:00,19,1021.3,0.4,46,7,0,11.112,,,30,7.7,23,,,,,,,,,wg-a,,,,AAXX 23184 07168 12/// /0306 10190 20070 30074 40213 53004 60006 91800 333 10230 20077=
07168,1997-09-24 00:00:00,8,1023,0.2,87,6,0,14.816,,,320,,,,,,,,,,,wg-a,,,,AAXX 24004 07168 12/// /3208 10080 20060 30085 40230 51002 60006 90000=
07168,1997-09-24 06:00:00,7,1023.7,0.8,100,7,8000,11.112,,,300,6.6,19,,,,,,,,,wg-a,,,,AAXX 24064 07168 02/58 03006 10070 20070 30092 40237 53008 60006 80000 90600 333 10190 20066 60004=
07168,1997-09-24 09:00:00,16,1023.5,0.2,68,10,9000,7.408,,,60,,,,,,,,,,,wg-a,,,,AAXX 24094 07168 12/59 00604 10160 20100 30094 40235 51002 60006 80000 90900=
07168,1997-09-24 12:00:00,21,1022.4,-0.8,53,11,10000,14.816,,,30,,,,,,,,,,,wg-a,,,,AAXX 24124 07168 12/60 20308 10210 20110 30086 40224 58008 60006 80001 91200=
07168,1997-09-24 15:00:00,23,1021,-1.3,44,10,20000,14.816,,,40,,,,,,,,,,,wg-a,,,,AAXX 24154 07168 12/70 20408 10230 20100 30073 40210 56013 60006 80001 91500=
07168,1997-09-24 18:00:00,19,1021.5,0.3,56,10,0,14.816,,,40,7.1,23.3,,,,,,,,,wg-a,,,,AAXX 24184 07168 12/// /0408 10190 20100 30076 40215 53003 60006 91800 333 10233 20071=
07168,1997-09-25 00:00:00,10,1022.9,0.1,87,8,0,3.704,,,340,,,,,,,,,,,wg-a,,,,AAXX 25004 07168 12/// /3402 10100 20080 30085 40229 53001 60006 90000=
07168,1997-09-25 06:00:00,6,1023.9,0.9,100,6,9000,11.112,,,310,5.5,18.6,,,,,,,,,wg-a,,,,AAXX 25064 07168 02/59 03106 10060 20060 30093 40239 53009 60006 80000 90600 333 10186 20055 60004=
07168,1997-09-25 09:00:00,15,1024.1,0.7,77,11,9000,3.704,,,40,,,,,,,,,,,wg-a,,,,AAXX 25094 07168 12/59 00402 10150 20110 30100 40241 51007 60006 80000 90900=
07168,1997-09-25 12:00:00,21,1023.3,-0.5,53,11,15000,14.816,,,50,,,,,,,,,,,wg-a,,,,AAXX 25124 07168 12/65 00508 10210 20110 30095 40233 58005 60006 80000 91200=
07168,1997-09-25 15:00:00,23,1022.4,-0.8,41,9,20000,14.816,,,70,,,,,,,,,,,wg-a,,,,AAXX 25154 07168 12/70 00708 10230 20090 30087 40224 56008 60006 80000 91500=
07168,1997-09-26 00:00:00,9,1024.1,-0.2,93,8,0,0,,,0,,,,,,,,,,,wg-a,,,,AAXX 26004 07168 12/// /0000 10090 20080 30097 40241 58002 60006 90000=
07168,1997-09-26 06:00:00,6,1024.2,0.1,100,6,4500,7.408,,,300,5.3,19,,,,,,,,10,wg-a,,,,AAXX 26064 07168 02/45 03004 10060 20060 30096 40242 53001 60006 71040 80000 90600 333 10190 20053 60004=
07168,1997-09-26 09:00:00,15,1023.9,0.2,77,11,9000,3.704,,,20,,,,,,,,,,,wg-a,,,,AAXX 26094 07168 12/59 00202 10150 20110 30098 40239 51002 60006 80000 90900=
07168,1997-09-26 12:00:00,22,1021.9,-1.7,50,11,12000,7.408,,,20,,,,,,,,,,,wg-a,,,,AAXX 26124 07168 12/62 00204 10220 20110 30081 40219 56017 60006 80000 91200=
07168,1997-09-26 15:00:00,23,1020,-1.8,50,12,12000,11.112,,,80,,,,,,,,,,,wg-a,,,,AAXX 26154 07168 12/62 00806 10230 20120 30063 40200 57018 60006 80000 91500=
07168,1997-09-26 18:00:00,17,1019.7,-0.6,72,12,0,3.704,,,320,5.9,23.5,,,,,,,,,wg-a,,,,AAXX 26184 07168 12/// /3202 10170 20120 30057 40197 56006 60006 91800 333 10235 20059=
07168,1997-09-27 00:00:00,8,1019.3,-0.5,100,8,0,7.408,,,180,,,,,,,,,,,wg-a,,,,AAXX 27004 07168 12/// /1804 10080 20080 30049 40193 56005 60006 90000=
07168,1997-09-27 09:00:00,17,1017.3,-0.4,72,12,10000,7.408,,,80,,,,0,,,,,,28,wg-a,,,,AAXX 27094 07168 12/60 10804 10170 20120 30033 40173 58004 60007 72840 80001 90900=
07168,1997-09-27 12:00:00,23,1015.4,-1.5,53,13,12000,7.408,,,60,,,,,,,,,,1,wg-a,,,,AAXX 27124 07168 12/62 00604 10230 20130 30018 40154 58015 60006 70140 80000 91200=
07168,1997-09-27 15:00:00,24,1014.3,-1.1,44,11,15000,7.408,,,360,,,,,,,,,,,wg-a,,,,AAXX 27154 07168 12/65 03604 10240 20110 30007 40143 56011 60006 80000 91500=
07168,1997-09-27 18:00:00,19,1014.5,-0,60,11,0,3.704,,,40,5.5,24.4,,,,,,,,,wg-a,,,,AAXX 27184 07168 32/// /0402 10190 20110 30007 40145 55000 91800 333 10244 20055=
07168,1997-09-28 00:00:00,10,1014.9,-0.3,100,10,0,0,,,0,,,,,,,,,,,wg-a,,,,AAXX 28004 07168 12/// /0000 10100 20100 30006 40149 58003 60006 90000=
07168,1997-09-28 06:00:00,7,1015.2,0.5,100,7,500,7.408,,,180,5.7,18.9,,,,,,,,11,wg-a,,,,AAXX 28064 07168 02/00 31804 10070 20070 30008 40152 52005 60006 71100 80001 90600 333 10189 20057 60004=
07168,1997-09-28 09:00:00,15,1015.8,1,82,12,10000,0,,,0,,,,,,,,,,,wg-a,,,,AAXX 28094 07168 12/60 20000 10150 20120 30018 40158 51010 60006 80001 90900=
07168,1997-09-28 12:00:00,22,1014.7,-0.8,57,13,12000,3.704,,,320,,,,,,,,,,,wg-a,,,,AAXX 28124 07168 12/62 13202 10220 20130 30010 40147 58008 60006 80001 91200=
07168,1997-09-28 15:00:00,24,1014,-0.6,44,11,15000,3.704,,,330,,,,,,,,,,,wg-a,,,,AAXX 28154 07168 12/65 23302 10240 20110 30004 40140 56006 60006 81031 91500=
07168,1997-09-28 18:00:00,15,1015.4,1,77,11,0,3.704,,,280,6.9,24.8,,,,,,,,,wg-a,,,,AAXX 28184 07168 12/// /2802 10150 20110 30014 40154 53010 60006 91800 333 10248 20069=
07168,1997-09-29 00:00:00,9,1017.6,0.8,93,8,0,0,,,0,,,,,,,,,,,wg-a,,,,AAXX 29004 07168 12/// /0000 10090 20080 30033 40176 51008 60006 90000=
07168,1997-09-29 12:00:00,23,1021.2,0.4,50,12,15000,7.408,,,80,,,,,,,,,,,wg-a,,,,AAXX 29124 07168 12/65 60804 10230 20120 30075 40212 53004 60006 80002 91200=
07168,1997-09-29 15:00:00,24,1021,-0.2,44,11,18000,3.704,,,360,,,,,,,,,,,wg-a,,,,AAXX 29154 07168 12/68 63602 10240 20110 30073 40210 56002 60006 80002 91500=
07168,1997-09-29 18:00:00,16,1022.2,0.9,77,12,0,3.704,,,320,7.7,24.3,,,,,,,,,wg-a,,,,AAXX 29184 07168 12/// /3202 10160 20120 30082 40222 53009 60006 91800 333 10243 20077=
07168,1997-09-30 06:00:00,8,1025,0.3,100,8,500,3.704,,,180,8,16.2,,,,,,,,,wg-a,,,,AAXX 30064 07168 02/00 51802 10080 20080 30105 40250 53003 60006 81031 90600 333 10162 20080 60004=
07168,1997-09-30 09:00:00,18,1025.6,1.1,73,13,7000,0,,,0,,,,,,,,,,,wg-a,,,,AAXX 30094 07168 12/57 30000 10180 20130 30116 40256 51011 60006 80001 90900=
07168,1997-09-30 12:00:00,23,1024.6,-0.8,53,13,9000,3.704,,,70,,,,,,,,,,,wg-a,,,,AAXX 30124 07168 12/59 00702 10230 20130 30108 40246 58008 60006 80000 91200=
07168,1997-09-30 18:00:00,17,1023.6,-0.1,77,13,0,0,,,0,7.8,24.4,,,,,,,,,wg-a,,,,AAXX 30184 07168 12/// /0000 10170 20130 30096 40236 57001 60006 91800 333 10244 20078=
07168,1997-10-01 00:00:00,11,1023.1,-0.7,94,10,0,3.704,,,170,,,,,,,,,,,wg-a,,,,AAXX 01004 07168 12/// /1702 10110 20100 30088 40231 58007 60006 90000=
07168,1997-10-01 06:00:00,9,1022.6,-0.2,100,9,500,0,,,0,7.2,16.9,,,,,,,,,wg-a,,,,AAXX 01064 07168 02/00 /0000 10090 20090 30082 40226 55002 60006 80001 90600 333 10169 20072 60004=
07168,1997-10-01 12:00:00,23,1021.1,-0.9,65,16,15000,3.704,,,270,,,,,,,,,,,wg-a,,,,AAXX 01124 07168 12665 32702 10230 20160 30074 40211 58009 60006 81101 91200=
07168,1997-10-01 15:00:00,24,1019,-2,61,16,25000,11.112,,,310,,,,,,,,,,,wg-a,,,,AAXX 01154 07168 12675 23106 10240 20160 30054 40190 56020 60006 82100 91500=
07168,1997-10-02 00:00:00,16,1018,-0.7,94,15,0,7.408,,,300,,,,,,,,,,,wg-a,,,,AAXX 02004 07168 12/// /3004 10160 20150 30040 40180 58007 60006 90000=
07168,1997-10-02 06:00:00,16,1017.5,0.7,94,15,500,14.816,,,290,13.9,19,,,,,,,,,wg-a,,,,AAXX 02064 07168 02400 72908 10160 20150 30035 40175 51007 60006 875// 90600 333 10190 20139 60004=
07168,1997-10-02 09:00:00,18,1018.2,0.8,83,15,8000,14.816,,,290,,,,,,,,,,,wg-a,,,,AAXX 02094 07168 12458 72908 10180 20150 30043 40182 53008 60006 875// 90900=
07168,1997-10-02 12:00:00,21,1017.5,-0.5,64,14,12000,18.52,,,290,,,,,,,,,,,wg-a,,,,AAXX 02124 07168 12562 /2910 10210 20140 30038 40175 58005 60006 85200 91200=
07168,1997-10-02 15:00:00,22,1017,-0.5,53,12,25000,18.52,,,330,,,,,,,,,,,wg-a,,,,AAXX 02154 07168 12675 /3310 10220 20120 30033 40170 56005 60006 81100 91500=
07168,1997-10-02 18:00:00,15,1018.3,0.9,72,10,0,11.112,,,320,14.8,22.7,,,,,,,,,wg-a,,,,AAXX 02184 07168 12/// /3206 10150 20100 30042 40183 51009 60006 91800 333 10227 20148=
07168,1997-10-03 00:00:00,10,1020.7,0.7,87,8,0,11.112,,,320,,,,,,,,,,,wg-a,,,,AAXX 03004 07168 12/// /3206 10100 20080 30063 40207 51007 60006 90000=
07168,1997-10-03 06:00:00,6,1021.4,0.5,93,5,7000,11.112,,,310,5.1,14.7,,,,,,,,,wg-a,,,,AAXX 03064 07168 02/57 /3106 10060 20050 30068 40214 53005 60006 80001 90600 333 10147 20051 60004=
07168,1997-10-03 09:00:00,13,1021.9,0.9,77,9,10000,3.704,,,50,,,,,,,,,,,wg-a,,,,AAXX 03094 07168 12/60 00502 10130 20090 30077 40219 53009 60006 80000 90900=
07168,1997-10-03 12:00:00,17,1021.2,-0.5,52,7,10000,11.112,,,50,,,,,,,,,,,wg-a,,,,AAXX 03124 07168 12/60 /0506 10170 20070 30072 40212 58005 60006 91200=
07168,1997-10-03 15:00:00,18,1020.4,-0.8,49,7,20000,11.112,,,20,,,,,,,,,,,wg-a,,,,AAXX 03154 07168 12/70 10206 10180 20070 30064 40204 56008 60006 80001 91500=
07168,1997-10-03 18:00:00,12,1021.3,0.6,67,6,0,7.408,,,350,5.5,18.1,,,,,,,,,wg-a,,,,AAXX 03184 07168 12/// /3504 10120 20060 30070 40213 53006 60006 91800 333 10181 20055=
07168,1997-10-04 00:00:00,7,1023,0.3,87,5,0,7.408,,,310,,,,,,,,,,,wg-a,,,,AAXX 04004 07168 12/// /3104 10070 20050 30085 40230 51003 60006 90000=
07168,1997-10-04 06:00:00,3,1023.9,0.7,100,3,8000,0,,,0,2.9,12.6,,,,,,,,,wg-a,,,,AAXX 04064 07168 02/58 00000 10030 20030 30091 40239 52007 60006 80000 90600 333 10126 20029 60004=
07168,1997-10-04 09:00:00,12,1024.4,1,71,7,10000,0,,,0,,,,,,,,,,,wg-a,,,,AAXX 04094 07168 12/60 00000 10120 20070 30101 40244 53010 60006 80000 90900=
07168,1997-10-04 12:00:00,17,1023.3,-0.8,52,7,20000,7.408,,,50,,,,,,,,,,,wg-a,,,,AAXX 04124 07168 12/70 00504 10170 20070 30093 40233 58008 60006 80000 91200=
07168,1997-10-04 18:00:00,11,1021.9,-0.2,76,7,0,3.704,,,310,2.9,18.6,,,,,,,,,wg-a,,,,AAXX 04184 07168 12/// /3102 10110 20070 30076 40219 55002 60006 91800 333 10186 20029=
07168,1997-10-05 00:00:00,4,1021.1,-1,100,4,0,7.408,,,170,,,,,,,,,,,wg-a,,,,AAXX 05004 07168 12/// /1704 10040 20040 30064 40211 58010 60006 90000=
07168,1997-10-05 06:00:00,2,1019.3,-0.9,100,2,800,3.704,,,160,2,11.1,,,,,,,,42,wg-a,,,,AAXX 05064 07168 02/08 01602 10020 20020 30046 40193 56009 60006 74240 80000 90600 333 10111 20020 60004=
07168,1997-10-05 09:00:00,12,1018.6,-0.2,76,8,9000,7.408,,,100,,,,,,,,,,2,wg-a,,,,AAXX 05094 07168 12/59 01004 10120 20080 30044 40186 58002 60006 70240 80000 90900=
07168,1997-10-05 15:00:00,21,1014,-2.5,49,10,25000,3.704,,,340,,,,,,,,,,,wg-a,,,,AAXX 05154 07168 12/75 03402 10210 20100 30003 40140 56025 60006 80000 91500=
07168,1997-10-05 18:00:00,15,1013.1,-1.2,72,10,0,3.704,,,350,2.2,21.8,,,,,,,,,wg-a,,,,AAXX 05184 07168 12/// /3502 10150 20100 39991 40131 56012 60006 91800 333 10218 20022=
07168,1997-10-06 06:00:00,10,1009,-0.9,100,10,10000,14.816,,,170,5.5,15.1,,,,,,,,,wg-a,,,,AAXX 06064 07168 02/60 41708 10100 20100 39948 40090 56009 60006 80001 90600 333 10151 20055 60004=
07168,1997-10-06 09:00:00,20,1008.5,-0,68,14,16000,11.112,,,160,,,,,,,,,,,wg-a,,,,AAXX 06094 07168 12/66 51606 10200 20140 39948 40085 54000 60006 83081 90900=
07168,1997-10-06 12:00:00,24,1006.8,-1.5,54,14,25000,25.928,,,180,,,,,,,,,,,wg-a,,,,AAXX 06124 07168 12/75 51814 10240 20140 39933 40068 57015 60006 82032 91200=
07168,1997-10-06 18:00:00,21,1004.4,-0.7,64,14,0,31.484,,,180,9.9,26.5,,,,,,,,,wg-a,,,,AAXX 06184 07168 12/// /1817 10210 20140 39908 40044 55007 60006 91800 333 10265 20099=
07168,1997-10-07 06:00:00,15,1003.5,0.4,94,14,12000,18.52,,,180,15.2,21.1,,,,,,,,21,wg-a,,,,AAXX 07064 07168 02762 71810 10150 20140 39897 40035 53004 61000 72162 85571 90600 333 10211 20152 6004=
07168,1997-10-07 09:00:00,19,1004.7,1.3,83,16,15000,31.484,,,220,,,,,,,,,,,wg-a,,,,AAXX 07094 07168 12465 72217 10190 20160 39910 40047 51013 60006 84231 90900=
07168,1997-10-07 12:00:00,21,1004.2,-0.3,73,16,15000,29.632,,,220,,,,,,,,,,,wg-a,,,,AAXX 07124 07168 12565 72216 10210 20160 39907 40042 58003 60006 83801 91200=
07168,1997-10-07 15:00:00,19,1006.1,1.7,83,16,500,22.224,,,230,,,,2,,,,,,1,wg-a,,,,AAXX 07154 07168 12500 72312 10190 20160 39924 40061 51017 60027 70186 878// 91500=
07168,1997-10-07 18:00:00,15,1009,2.7,94,14,0,14.816,,,190,15.1,21.4,,0,,,,,,,wg-a,,,,AAXX 07184 07168 12/// /1908 10150 20140 39951 40090 53027 60007 91800 333 10214 20151=
07168,1997-10-08 00:00:00,14,1012.1,1.2,88,12,0,18.52,,,210,,,,,,,,,,,wg-a,,,,AAXX 08004 07168 12/// /2110 10140 20120 39981 40121 51012 60006 90000=
07168,1997-10-08 06:00:00,15,1012.4,0,88,13,15000,22.224,,,200,12.8,15.4,,,,,2,,,,wg-a,,,,AAXX 08064 07168 02/65 72012 10150 20130 39984 40124 50000 60006 85072 90600 333 10154 20128 60024=
07168,1997-10-08 09:00:00,17,1013.3,1,82,14,20000,22.224,,,190,,,,,,,,,,,wg-a,,,,AAXX 08094 07168 12570 71912 10170 20140 39994 40133 53010 60006 8115/ 90900=
07168,1997-10-08 12:00:00,19,1012.3,-0.9,78,15,20000,22.224,,,190,,,,,,,,,,1,wg-a,,,,AAXX 08124 07168 02570 81912 10190 20150 39985 40123 58009 61000 70162 8117/ 91200 333 6100=
07168,1997-10-08 18:00:00,18,1010.6,-0.5,88,16,0,18.52,,,190,14.7,19.7,,,,,,,,,wg-a,,,,AAXX 08184 07168 32/// /1910 10180 20160 39968 40106 55005 91800 333 10197 20147=
07168,1997-10-09 00:00:00,19,1011.1,0.2,73,14,0,29.632,,,220,,,,,,,,,,,wg-a,,,,AAXX 09004 07168 12/// /2216 10190 20140 39973 40111 50002 60006 90000=
07168,1997-10-09 06:00:00,18,1011.6,1.1,73,13,10000,25.928,,,210,17.4,19.5,,,,,1,,,,wg-a,,,,AAXX 09064 07168 02/60 /2114 10180 20130 39978 40116 53011 60006 90600 333 10195 20174 60014=
07168,1997-10-09 12:00:00,22,1013.3,0.9,69,16,500,35.188,,,240,,,,,,,,,,,wg-a,,,,AAXX 09124 07168 12500 42419 10220 20160 39997 40133 53009 60006 84100 91200=
07168,1997-10-09 15:00:00,22,1013.1,-0.2,69,16,500,31.484,,,220,,,,,,,,,,,wg-a,,,,AAXX 09154 07168 12500 /2217 10220 20160 39995 40131 55002 60006 85100 91500=
07168,1997-10-09 18:00:00,19,1013.6,0.3,83,16,0,25.928,,,220,18,22.7,,,,,,,,,wg-a,,,,AAXX 09184 07168 12/// /2214 10190 20160 39998 40136 53003 60006 91800 333 10227 20180=
07168,1997-10-10 00:00:00,18,1013.4,-1,83,15,0,25.928,,,230,,,,,,,,,,,wg-a,,,,AAXX 10004 07168 12/// /2314 10180 20150 39996 40134 56010 60006 90000=
07168,1997-10-10 06:00:00,17,1009.2,-2.3,94,16,9000,25.928,,,220,16.8,19.4,,,,,,,,61,wg-a,,,,AAXX 10064 07168 02459 82214 10170 20160 39954 40092 58023 61000 76162 8557/ 90600 333 10194 20168 6001=
07168,1997-10-10 09:00:00,17,1006.8,-2.4,94,16,6000,29.632,,,230,,,,1,,,,,,61,wg-a,,,,AAXX 10094 07168 12456 82316 10170 20160 39930 40068 58024 60017 76166 8557/ 90900=
07168,1997-10-10 12:00:00,18,1006.3,-0.4,100,18,7000,31.484,,50.004,280,,,,2,,,,,,60,wg-a,,,,AAXX 10124 07168 02457 82817 10180 20180 39926 40063 55004 60046 76066 855// 91200 333 60027 91027=
07168,1997-10-10 15:00:00,17,1007.9,1.5,88,15,500,22.224,,,310,,,,0,,,,,,3,wg-a,,,,AAXX 10154 07168 12400 53112 10170 20150 39941 40079 53015 60007 70386 84830 91500=
07168,1997-10-10 18:00:00,13,1010.8,2.6,88,11,0,18.52,,,280,12.6,19.8,,,,,,,,,wg-a,,,,AAXX 10184 07168 32/// /2810 10130 20110 39967 40108 53026 91800 333 10198 20126=
07168,1997-10-11 00:00:00,11,1013.7,0.2,82,8,0,22.224,,,260,,,,,,,,,,,wg-a,,,,AAXX 11004 07168 12/// /2612 10110 20080 39995 40137 50002 60006 90000=
07168,1997-10-11 06:00:00,9,1013.1,-0.2,93,8,15000,25.928,,,240,9,12.6,,,,,4,,,,wg-a,,,,AAXX 11064 07168 02465 22414 10090 20080 39988 40131 58002 60006 81130 90600 333 10126 20090 60044=
07168,1997-10-11 09:00:00,12,1012.7,-0.2,88,10,15000,22.224,,,230,,,,,,,,,,,wg-a,,,,AAXX 11094 07168 12465 72312 10120 20100 39986 40127 58002 60006 8113/ 90900=
07168,1997-10-11 12:00:00,14,1009.9,-2.7,77,10,18000,18.52,,,210,,,,,,,,,,,wg-a,,,,AAXX 11124 07168 12568 72110 10140 20100 39959 40099 58027 60006 8523/ 91200=
07168,1997-10-11 15:00:00,14,1005.3,-4.5,88,12,18000,18.52,,,180,,,,,,,,,,21,wg-a,,,,AAXX 11154 07168 02568 71810 10140 20120 39914 40053 58045 61000 72162 8583/ 91500 333 ////=
07168,1997-10-11 18:00:00,14,1001.5,-3.8,94,13,0,29.632,,,210,9,15.3,,,,,,,,,wg-a,,,,AAXX 11184 07168 32/// /2116 10140 20130 39876 40015 56038 91800 333 10153 20090=
07168,1997-10-12 00:00:00,15,998.9,0.1,94,14,0,31.484,,,270,,,,2,,,,,,,wg-a,,,,AAXX 12004 07168 02/// /2717 10150 20140 39851 49989 53001 60226 90000 333 60027=
07168,1997-10-12 09:00:00,12,1003.6,4.2,88,10,15000,18.52,,,20,,,,1,,,,,,21,wg-a,,,,AAXX 12094 07168 12465 80210 10120 20100 39896 40036 53042 60017 72162 8572/ 90900=
07168,1997-10-12 12:00:00,14,1008,4.4,63,7,500,29.632,,,10,,,,,,,,,,1,wg-a,,,,AAXX 12124 07168 12500 /0116 10140 20070 39940 40080 51044 60016 70162 85200 91200=
07168,1997-10-12 18:00:00,11,1014.5,3.6,87,9,0,25.928,,,340,10.3,15.2,,,,,,,,,wg-a,,,,AAXX 12184 07168 32/// /3414 10110 20090 30003 40145 53036 91800 333 10152 20103=
07168,1997-10-13 00:00:00,6,1017,0.3,93,5,0,14.816,,,300,,,,,,,,,,,wg-a,,,,AAXX 13004 07168 12/// /3008 10060 20050 30025 40170 50003 60006 90000=
07168,1997-10-13 06:00:00,6,1017.2,0.2,87,4,15000,18.52,,,280,4.9,10.7,,,,,2,,,,wg-a,,,,AAXX 13064 07168 02765 72810 10060 20040 30027 40172 50002 60006 865/1 90600 333 10107 20049 60024=
07168,1997-10-13 09:00:00,8,1017.7,0.6,87,6,500,18.52,,,260,,,,,,,,,,,wg-a,,,,AAXX 13094 07168 12400 72610 10080 20060 30033 40177 53006 60006 878// 90900=
07168,1997-10-13 12:00:00,10,1016.7,-0.9,82,7,500,22.224,,,280,,,,,,,,,,,wg-a,,,,AAXX 13124 07168 12400 72812 10100 20070 30024 40167 57009 60006 8783/ 91200=
07168,1997-10-13 15:00:00,11,1016,-0.6,71,6,500,22.224,,,290,,,,,,,,,,,wg-a,,,,AAXX 13154 07168 12500 82912 10110 20060 30018 40160 57006 60006 8617/ 91500=
07168,1997-10-13 18:00:00,8,1017.5,1.3,93,7,0,22.224,,,340,5.9,11.2,,,,,,,,,wg-a,,,,AAXX 13184 07168 32/// /3412 10080 20070 30031 40175 53013 91800 333 10112 20059=
07168,1997-10-14 00:00:00,4,1020.7,1.2,93,3,0,11.112,,,300,,,,,,,,,,,wg-a,,,,AAXX 14004 07168 12/// /3006 10040 20030 30060 40207 52012 60006 90000=
07168,1997-10-14 06:00:00,6,1022.5,1,100,6,10000,14.816,,,300,3.6,7.8,,,,,1,,,1,wg-a,,,,AAXX 14064 07168 02460 73008 10060 20060 30079 40225 53010 60006 70186 875// 90600 333 10078 20036 60014=
07168,1997-10-14 09:00:00,9,1024,1.7,87,7,15000,22.224,,,310,,,,,,,,,,,wg-a,,,,AAXX 14094 07168 12465 43112 10090 20070 30096 40240 51017 60006 84800 90900=
07168,1997-10-14 15:00:00,12,1023.1,-1,67,6,20000,22.224,,,320,,,,,,,,,,,wg-a,,,,AAXX 14154 07168 12570 73212 10120 20060 30088 40231 56010 60006 83202 91500=
07168,1997-10-14 18:00:00,9,1023.1,-0.1,87,7,0,11.112,,,280,5.5,12.6,,,,,,,,,wg-a,,,,AAXX 14184 07168 12/// /2806 10090 20070 30087 40231 55001 60006 91800 333 10126 20055=
07168,1997-10-15 00:00:00,7,1022.1,-1.4,93,6,0,14.816,,,240,,,,,,,,,,,wg-a,,,,AAXX 15004 07168 12/// /2408 10070 20060 30076 40221 58014 60006 90000=
07168,1997-10-15 06:00:00,7,1017.4,-2.7,93,6,8000,18.52,,,190,6.6,8.8,,,,,,,,61,wg-a,,,,AAXX 15064 07168 02558 81910 10070 20060 30029 40174 56027 61000 76162 885// 90600 333 10088 20066 6000=
07168,1997-10-15 09:00:00,8,1015.4,-1.9,93,7,500,18.52,,,180,,,,4,,,,,,61,wg-a,,,,AAXX 15094 07168 12400 81810 10080 20070 30010 40154 58019 60047 76166 887// 90900=
07168,1997-10-15 12:00:00,9,1012.7,-2.6,93,8,6000,22.224,,,170,,,,6,,,,,,61,wg-a,,,,AAXX 15124 07168 02456 81712 10090 20080 39984 40127 57026 60106 76166 887// 91200 333 60067=
07168,1997-10-15 18:00:00,10,1010.8,0.2,100,10,0,7.408,,,150,6.9,10.1,,,,,,,,,wg-a,,,,AAXX 15184 07168 32/// /1504 10100 20100 39966 40108 53002 91800 333 10101 20069=
07168,1997-10-16 00:00:00,12,1012.1,0.6,94,11,0,7.408,,,350,,,,,,,,,,,wg-a,,,,AAXX 16004 07168 12/// /3504 10120 20110 39980 40121 51006 60006 90000=
07168,1997-10-16 06:00:00,9,1014.3,1.5,100,9,500,11.112,,,310,8.9,11.6,,,,,13,,,,wg-a,,,,AAXX 16064 07168 02400 83106 10090 20090 30000 40143 52015 60006 885// 90600 333 10116 20089 60134=
07168,1997-10-16 09:00:00,11,1015.9,1.7,87,9,9000,11.112,,,330,,,,,,,,,,,wg-a,,,,AAXX 16094 07168 12359 /3306 10110 20090 30017 40159 51017 60006 86800 90900=
07168,1997-10-16 15:00:00,14,1015.8,-0.2,72,9,12000,3.704,,,290,,,,,,,,,,,wg-a,,,,AAXX 16154 07168 12462 72902 10140 20090 30017 40158 57002 60006 85801 91500=
07168,1997-10-17 00:00:00,7,1017.3,-0.5,100,7,0,7.408,,,170,,,,,,,,,,,wg-a,,,,AAXX 17004 07168 12/// /1704 10070 20070 30028 40173 56005 60006 90000=
07168,1997-10-17 06:00:00,6,1017.2,-0.2,100,6,1500,3.704,,,130,4.4,11.2,,,,,,,,40,wg-a,,,,AAXX 17064 07168 02/15 /1302 10060 20060 30027 40172 55002 60006 74000 81030 90600 333 10112 20044 60004=
07168,1997-10-17 09:00:00,12,1018,1.1,88,10,10000,7.408,,,160,,,,,,,,,,,wg-a,,,,AAXX 17094 07168 12460 21604 10120 20100 30038 40180 51011 60006 81131 90900=
07168,1997-10-17 12:00:00,18,1016.9,-0.8,64,11,20000,18.52,,,120,,,,,,,,,,,wg-a,,,,AAXX 17124 07168 12/70 31210 10180 20110 30030 40169 58008 60006 80001 91200=
07168,1997-10-17 15:00:00,18,1015.9,-1,59,10,20000,22.224,,,130,,,,,,,,,,,wg-a,,,,AAXX 17154 07168 12/70 51312 10180 20100 30020 40159 56010 60006 80001 91500=
07168,1997-10-17 18:00:00,14,1016.4,0.3,77,10,0,14.816,,,120,4.9,19.2,,,,,,,,,wg-a,,,,AAXX 17184 07168 12/// /1208 10140 20100 30023 40164 53003 60006 91800 333 10192 20049=
07168,1997-10-18 00:00:00,8,1018.8,0.9,100,8,0,3.704,,,110,,,,,,,,,,,wg-a,,,,AAXX 18004 07168 12/// /1102 10080 20080 30044 40188 51009 60006 90000=
07168,1997-10-18 06:00:00,6,1020.3,0.8,100,6,500,7.408,,,140,5.6,13.8,,,,,,,,11,wg-a,,,,AAXX 18064 07168 02/00 21404 10060 20060 30058 40203 53008 60006 71100 80001 90600 333 10138 20056 60004=
07168,1997-10-18 09:00:00,15,1021.1,1.2,82,12,12000,7.408,,,170,,,,,,,,,,,wg-a,,,,AAXX 18094 07168 12/62 11704 10150 20120 30070 40211 51012 60006 80001 90900=
07168,1997-10-18 12:00:00,21,1019.9,-0.9,64,14,25000,18.52,,,180,,,,,,,,,,,wg-a,,,,AAXX 18124 07168 12/75 11810 10210 20140 30061 40199 58009 60006 80001 91200=
07168,1997-10-18 15:00:00,21,1019.3,-0.5,64,14,25000,11.112,,,150,,,,,,,,,,,wg-a,,,,AAXX 18154 07168 12/75 01506 10210 20140 30056 40193 56005 60006 80000 91500=
07168,1997-10-18 18:00:00,16,1020.1,0.5,82,13,0,0,,,0,5.7,21.6,,,,,,,,,wg-a,,,,AAXX 18184 07168 12/// /0000 10160 20130 30061 40201 53005 60006 91800 333 10216 20057=
07168,1997-10-19 00:00:00,10,1019.8,-0.6,100,10,0,7.408,,,130,,,,,,,,,,,wg-a,,,,AAXX 19004 07168 12/// /1304 10100 20100 30055 40198 58006 60006 90000=
07168,1997-10-19 06:00:00,10,1018.7,-0.5,100,10,8000,14.816,,,150,6.8,15.4,,,,,,,,,wg-a,,,,AAXX 19064 07168 02/58 01508 10100 20100 30044 40187 56005 60006 80000 90600 333 10154 20068 60004=
07168,1997-10-19 09:00:00,15,1018.3,-0.1,82,12,12000,18.52,,,160,,,,,,,,,,,wg-a,,,,AAXX 19094 07168 12/62 01610 10150 20120 30043 40183 58001 60006 80000 90900=
07168,1997-10-19 15:00:00,21,1015.6,-1.1,60,13,25000,7.408,,,170,,,,,,,,,,,wg-a,,,,AAXX 19154 07168 12/75 21704 10210 20130 30019 40156 56011 60006 80001 91500=
07168,1997-10-19 18:00:00,13,1015.8,-0.2,94,12,0,7.408,,,190,9.2,20.9,,,,,,,,,wg-a,,,,AAXX 19184 07168 12/// /1904 10130 20120 30017 40158 55002 60006 91800 333 10209 20092=
07168,1997-10-20 00:00:00,9,1015.3,-0.4,100,9,0,3.704,,,90,,,,,,,,,,,wg-a,,,,AAXX 20004 07168 12/// /0902 10090 20090 30010 40153 56004 60006 90000=
07168,1997-10-20 12:00:00,17,1012.3,-1,82,14,8000,7.408,,,310,,,,,,,,,,,wg-a,,,,AAXX 20124 07168 12/58 73104 10170 20140 39984 40123 57010 60006 85032 91200=
07168,1997-10-20 15:00:00,16,1011.5,-0.8,94,15,8000,7.408,,,10,,,,,,,,,,,wg-a,,,,AAXX 20154 07168 12658 80104 10160 20150 39976 40115 56008 60006 8357/ 91500=
07168,1997-10-20 18:00:00,15,1011.8,0.3,94,14,0,14.816,,,50,6.8,17.1,,,,,,,,,wg-a,,,,AAXX 20184 07168 12/// /0508 10150 20140 39979 40118 51003 60006 91800 333 10171 20068=
07168,1997-10-21 00:00:00,13,1011.8,-0.6,88,11,0,18.52,,,60,,,,,,,,,,,wg-a,,,,AAXX 21004 07168 12/// /0610 10130 20110 39977 40118 58006 60016 90000=
07168,1997-10-21 06:00:00,11,1012.2,0.2,82,8,8000,18.52,,,60,10.5,15.4,,,,,1,,,,wg-a,,,,AAXX 21064 07168 02458 80610 10110 20080 39980 40122 51002 60006 885// 90600 333 10154 20105 60014=
07168,1997-10-21 09:00:00,11,1013.1,0.9,82,8,8000,18.52,,,70,,,,,,,,,,,wg-a,,,,AAXX 21094 07168 12458 80710 10110 20080 39989 40131 51009 60006 885// 90900=
07168,1997-10-21 12:00:00,12,1013,-0,82,9,12000,22.224,,,50,,,,,,,,,,,wg-a,,,,AAXX 21124 07168 12462 70512 10120 20090 39989 40130 54000 60006 875// 91200=
07168,1997-10-21 15:00:00,14,1013,0,72,9,12000,18.52,,,60,,,,,,,,,,,wg-a,,,,AAXX 21154 07168 12/62 20610 10140 20090 39989 40130 50000 60006 80001 91500=
07168,1997-10-21 18:00:00,10,1014.2,1.1,82,7,0,18.52,,,60,10.1,13.8,,,,,,,,,wg-a,,,,AAXX 21184 07168 12/// /0610 10100 20070 30000 40142 53011 60006 91800 333 10138 20101=
07168,1997-10-22 00:00:00,5,1014.4,-0.3,87,3,0,7.408,,,90,,,,,,,,,,,wg-a,,,,AAXX 22004 07168 12/// /0904 10050 20030 39999 40144 58003 60006 90000=
07168,1997-10-22 06:00:00,0,1013.3,-0.9,100,0,10000,0,,,0,0.2,10.2,,,,,,,,,wg-a,,,,AAXX 22064 07168 02/60 00000 10000 20000 39985 40133 58009 60006 80000 90600 333 10102 20002 60004=
07168,1997-10-22 09:00:00,7,1013.2,0.3,81,4,8000,7.408,,,110,,,,,,,,,,,wg-a,,,,AAXX 22094 07168 12/58 31104 10070 20040 39988 40132 50003 60006 83051 90900=
07168,1997-10-22 12:00:00,10,1012,-1,82,7,8000,7.408,,,70,,,,,,,,,,,wg-a,,,,AAXX 22124 07168 12/58 70704 10100 20070 39978 40120 58010 60006 8703/ 91200=
07168,1997-10-22 18:00:00,8,1012.1,0.4,93,7,0,3.704,,,10,0.2,11.5,,,,,,,,,wg-a,,,,AAXX 22184 07168 12/// /0102 10080 20070 39978 40121 51004 60006 91800 333 10115 20002=
07168,1997-10-23 00:00:00,8,1012.6,0,100,8,0,3.704,,,290,,,,,,,,,,,wg-a,,,,AAXX 23004 07168 12/// /2902 10080 20080 39983 40126 50000 60006 90000=
07168,1997-10-23 06:00:00,6,1012.8,0.2,100,6,500,7.408,,,40,6.1,8.8,,,,,,,,,wg-a,,,,AAXX 23064 07168 02200 /0404 10060 20060 39984 40128 53002 60006 86500 90600 333 10088 20061 60004=
07168,1997-10-23 09:00:00,5,1014,1.1,100,5,1200,11.112,,,50,,,,,,,,,,10,wg-a,,,,AAXX 23094 07168 12112 80506 10050 20050 39995 40140 51011 60006 71042 886// 90900=
07168,1997-10-23 12:00:00,6,1014.3,0.3,93,5,1500,11.112,,,50,,,,,,,,,,10,wg-a,,,,AAXX 23124 07168 12215 80506 10060 20050 39998 40143 50003 60006 71042 886// 91200=
07168,1997-10-23 18:00:00,4,1015.2,1.4,100,4,0,11.112,,,320,4.2,10.9,,,,,,,,,wg-a,,,,AAXX 23184 07168 12/// /3206 10040 20040 30006 40152 53014 60006 91800 333 10109 20042=
07168,1997-10-24 00:00:00,1,1018.7,1.6,86,-1,0,7.408,,,330,,,,,,,,,,,wg-a,,,,AAXX 24004 07168 12/// /3304 10010 21010 30039 40187 51016 60006 90000=
07168,1997-10-24 06:00:00,2,1021.2,1.5,100,2,500,3.704,,,320,-0.7,6.2,,,,,,,,,wg-a,,,,AAXX 24064 07168 02600 73202 10020 20020 30064 40212 52015 60006 875// 90600 333 10062 21007 60004=
07168,1997-10-24 09:00:00,7,1022.9,1.9,87,5,8000,3.704,,,320,,,,,,,,,,,wg-a,,,,AAXX 24094 07168 12658 /3202 10070 20050 30083 40229 51019 60006 86500 90900=
07168,1997-10-24 12:00:00,11,1023.3,0.7,58,3,12000,22.224,,,40,,,,,,,,,,,wg-a,,,,AAXX 24124 07168 12662 40412 10110 20030 30090 40233 51007 60006 84800 91200=
07168,1997-10-24 18:00:00,6,1025.8,1.3,70,1,0,7.408,,,10,1.8,12.1,,,,,,,,,wg-a,,,,AAXX 24184 07168 12/// /0104 10060 20010 30112 40258 51013 60006 91800 333 10121 20018=
07168,1997-10-25 00:00:00,0,1027.5,0.2,93,-1,0,11.112,,,310,,,,,,,,,,,wg-a,,,,AAXX 25004 07168 12/// /3106 10000 21010 30125 40275 53002 60006 90000=
07168,1997-10-25 06:00:00,-1,1029.2,0.9,93,-2,12000,7.408,,,310,-1.8,6.2,,,,,,,,,wg-a,,,,AAXX 25064 07168 02/62 03104 11010 21020 30141 40292 53009 60006 80000 90600 333 10062 21018 60004=
07168,1997-10-25 09:00:00,5,1029.4,0.6,70,0,20000,0,,,0,,,,,,,,,,,wg-a,,,,AAXX 25094 07168 12/70 00000 10050 20000 30147 40294 50006 60006 80000 90900=
07168,1997-10-25 12:00:00,10,1028.5,-0.7,57,2,25000,11.112,,,70,,,,,,,,,,,wg-a,,,,AAXX 25124 07168 12575 /0706 10100 20020 30140 40285 58007 60006 81101 91200=
07168,1997-10-25 15:00:00,10,1027.6,-0.8,57,2,500,14.816,,,50,,,,,,,,,,,wg-a,,,,AAXX 25154 07168 12/00 00508 10100 20020 30132 40276 56008 60006 80000 91500=
07168,1997-10-25 18:00:00,7,1027.7,-0.1,76,3,0,7.408,,,20,-1.5,10.8,,,,,,,,,wg-a,,,,AAXX 25184 07168 12/// /0204 10070 20030 30131 40277 56001 60006 91800 333 10108 21015=
07168,1997-10-26 00:00:00,0,1027.9,-0.5,100,0,0,0,,,0,,,,,,,,,,,wg-a,,,,AAXX 26004 07168 12/// /0000 10000 20000 30129 40279 57005 60006 90000=
07168,1997-10-26 06:00:00,-3,1026.7,-0.3,100,-3,1200,3.704,,,170,-2.7,6.9,,,,,,,,10,wg-a,,,,AAXX 26064 07168 02/12 31702 11030 21030 30116 40267 55003 60006 71040 80001 90600 333 10069 21027 60004=
07168,1997-10-26 09:00:00,4,1027.1,0.7,93,3,500,0,,,0,,,,0,,,,,,28,wg-a,,,,AAXX 26094 07168 12/00 /0000 10040 20030 30123 40271 51007 60007 72840 80001 90900=
07168,1997-10-26 12:00:00,11,1025.6,-1.1,66,5,12000,11.112,,,50,,,,,,,,,,2,wg-a,,,,AAXX 26124 07168 12/62 00506 10110 20050 30112 40256 58011 60006 70240 80000 91200=
07168,1997-10-26 15:00:00,13,1023.6,-1.9,62,6,20000,11.112,,,50,,,,,,,,,,,wg-a,,,,AAXX 26154 07168 12/70 10506 10130 20060 30093 40236 56019 60006 80001 91500=
07168,1997-10-26 18:00:00,8,1024.2,0.4,81,5,0,7.408,,,30,-2.7,12.5,,,,,,,,,wg-a,,,,AAXX 26184 07168 32/// /0304 10080 20050 30097 40242 53004 91800 333 10125 21027=
07168,1997-10-27 00:00:00,5,1023.6,-0.7,87,3,0,0,,,0,,,,,,,,,,,wg-a,,,,AAXX 27004 07168 12/// /0000 10050 20030 30089 40236 56007 60006 90000=
07168,1997-10-27 06:00:00,4,1023.8,0.8,87,2,8000,11.112,,,70,2.3,8,,,,,,,,,wg-a,,,,AAXX 27064 07168 02/58 00706 10040 20020 30091 40238 53008 60006 80000 90600 333 10080 20023 60004=
07168,1997-10-27 09:00:00,7,1024.2,0.6,76,3,12000,18.52,,,70,,,,,,,,,,,wg-a,,,,AAXX 27094 07168 12/62 00710 10070 20030 30097 40242 51006 60006 80000 90900=
07168,1997-10-27 12:00:00,12,1023.1,-0.9,58,4,20000,22.224,,,70,,,,,,,,,,,wg-a,,,,AAXX 27124 07168 12/70 00712 10120 20040 30088 40231 58009 60006 80000 91200=
07168,1997-10-27 15:00:00,10,1023,-0.2,71,5,20000,29.632,,,50,,,,,,,,,,,wg-a,,,,AAXX 27154 07168 12670 /0516 10100 20050 30086 40230 55002 60006 81100 91500=
07168,1997-10-27 18:00:00,6,1024.3,1.1,70,1,0,22.224,,,50,2.7,12.6,,,,,,,,,wg-a,,,,AAXX 27184 07168 12/// /0512 10060 20010 30097 40243 52011 60006 91800 333 10126 20027=
07168,1997-10-28 00:00:00,1,1025.4,0.2,64,-5,0,11.112,,,30,,,,,,,,,,,wg-a,,,,AAXX 28004 07168 12/// /0306 10010 21050 30105 40254 53002 60006 90000=
07168,1997-10-28 06:00:00,-1,1026,0.5,69,-6,25000,18.52,,,60,-0.9,6.1,,,,,,,,,wg-a,,,,AAXX 28064 07168 02/75 00610 11010 21060 30110 40260 51005 60006 80000 90600 333 10061 21009 60004=
07168,1997-10-28 12:00:00,7,1027.3,-0.1,36,-7,25000,29.632,,,70,,,,,,,,,,,wg-a,,,,AAXX 28124 07168 12/75 00716 10070 21070 30127 40273 58001 60006 80000 91200=
07168,1997-10-28 15:00:00,8,1028.3,1,31,-8,25000,29.632,,,60,,,,,,,,,,,wg-a,,,,AAXX 28154 07168 12/75 00616 10080 21080 30137 40283 52010 60006 80000 91500=
07168,1997-10-28 18:00:00,4,1030.8,2.3,41,-8,0,18.52,,,50,-0.9,8.1,,,,,,,,,wg-a,,,,AAXX 28184 07168 12/// /0510 10040 21080 30160 40308 53023 60006 91800 333 10081 21009=
07168,1997-10-29 00:00:00,0,1032.7,0.8,59,-7,0,11.112,,,20,,,,,,,,,,,wg-a,,,,AAXX 29004 07168 12/// /0206 10000 21070 30176 40327 53008 60006 90000=
07168,1997-10-29 06:00:00,-2,1033.3,0.1,69,-7,20000,3.704,,,20,-3.7,4.2,,,,,,,,,wg-a,,,,AAXX 29064 07168 02/70 00202 11020 21070 30181 40333 53001 60006 80000 90600 333 10042 21037 60004=
07168,1997-10-29 09:00:00,2,1033.8,0.7,51,-7,20000,18.52,,,50,,,,,,,,,,,wg-a,,,,AAXX 29094 07168 12/70 00510 10020 21070 30188 40338 51007 60006 80000 90900=
07168,1997-10-29 12:00:00,7,1032.1,-1.4,33,-8,20000,18.52,,,60,,,,,,,,,,,wg-a,,,,AAXX 29124 07168 12/70 10610 10070 21080 30174 40321 58014 60006 81030 91200=
07168,1997-10-29 15:00:00,9,1031.2,-0.8,31,-7,20000,14.816,,,40,,,,,,,,,,,wg-a,,,,AAXX 29154 07168 12/70 10408 10090 21070 30166 40312 56008 60006 80001 91500=
07168,1997-10-29 18:00:00,5,1032,0.6,38,-8,0,7.408,,,30,-4.3,9.5,,,,,,,,,wg-a,,,,AAXX 29184 07168 12/// /0304 10050 21080 30172 40320 53006 60006 91800 333 10095 21043=
07168,1997-10-30 00:00:00,-4,1032.3,-0.3,86,-6,0,11.112,,,320,,,,,,,,,,,wg-a,,,,AAXX 30004 07168 12/// /3206 11040 21060 30170 40323 58003 60006 90000=
07168,1997-10-30 06:00:00,-5,1030.5,-0.7,86,-7,20000,14.816,,,310,-4.9,5.2,,,,,,,,,wg-a,,,,AAXX 30064 07168 02/70 03108 11050 21070 30152 40305 56007 60006 80000 90600 333 10052 21049 60004=
07168,1997-10-30 12:00:00,8,1028.2,-1.3,36,-6,500,14.816,,,30,,,,,,,,,,,wg-a,,,,AAXX 30124 07168 12/00 00308 10080 21060 30136 40282 58013 60006 80000 91200=
07168,1997-10-30 18:00:00,6,1027.6,1,61,-1,0,7.408,,,360,-4.7,11,,,,,,,,,wg-a,,,,AAXX 30184 07168 12/// /3604 10060 21010 30129 40276 53010 60006 91800 333 10110 21047=
07168,1997-10-31 15:00:00,7,1026.4,-0.5,66,1,10000,11.112,,,40,,,,,,,,,,,wg-a,,,,AAXX 31154 07168 12560 30406 10070 20010 30118 40264 55005 60006 83100 91500=
07168,1997-10-31 18:00:00,0,1027.3,0.5,86,-2,0,7.408,,,300,-2.8,7.4,,,,,,,,,wg-a,,,,AAXX 31184 07168 12/// /3004 10000 21020 30123 40273 53005 60006 91800 333 10074 21028=
07168,1997-11-01 00:00:00,-3,1026.4,-0.3,93,-4,0,3.704,,,330,,,,,,,,,,,wg-a,,,,AAXX 01004 07168 12/// /3302 11030 21040 30113 40264 57003 60006 90000=
07168,1997-11-01 06:00:00,-6,1025.6,-0.4,100,-6,1500,0,,,0,-7,0.4,,,,,,,,10,wg-a,,,,AAXX 01064 07168 02215 /0000 11060 21060 30103 40256 56004 60006 71000 81600 90600 333 10004 21070 60004=
07168,1997-11-01 09:00:00,0,1025.8,0.5,93,-1,500,3.704,,,130,,,,,,,,,,,wg-a,,,,AAXX 01094 07168 12/00 01302 10000 21010 30108 40258 50005 60006 80000 90900=
07168,1997-11-01 12:00:00,6,1024.2,-1.2,65,0,6000,3.704,,,30,,,,0,,,,,,,wg-a,,,,AAXX 01124 07168 02/56 /0302 10060 20000 30096 40242 58012 60006 80001 91200 333 60007=
07168,1997-11-01 15:00:00,8,1023,-1.1,49,-2,8000,7.408,,,10,,,,,,,,,,,wg-a,,,,AAXX 01154 07168 12/58 /0104 10080 21020 30085 40230 56011 60006 80001 91500=
07168,1997-11-01 18:00:00,-1,1023.4,-0.1,93,-2,0,0,,,0,-6.2,7.7,,,,,,,,,wg-a,,,,AAXX 01184 07168 12/// /0000 11010 21020 30084 40234 55001 60006 91800 333 10077 21062=
07168,1997-11-02 00:00:00,-4,1022.6,-0.5,100,-4,0,0,,,0,,,,,,,,,,,wg-a,,,,AAXX 02004 07168 12/// /0000 11040 21040 30075 40226 56005 60006 90000=
07168,1997-11-02 06:00:00,-6,1021.7,-0.4,93,-7,700,3.704,,,180,-6.2,0.5,,,,,,,,44,wg-a,,,,AAXX 02064 07168 02/07 01802 11060 21070 30064 40217 56004 60006 74440 80000 90600 333 10005 21062 60004=
07168,1997-11-02 15:00:00,9,1018,-1.9,66,3,500,7.408,,,320,,,,,,,,,,,wg-a,,,,AAXX 02154 07168 12/00 03204 10090 20030 30036 40180 56019 60006 80000 91500=
07168,1997-11-02 18:00:00,2,1018.2,-0.2,93,1,0,14.816,,,290,-7.1,9,,,,,,,,,wg-a,,,,AAXX 02184 07168 12/// /2908 10020 20010 30034 40182 57002 60006 91800 333 10090 21071=
07168,1997-11-03 00:00:00,-2,1017.9,-0.2,93,-3,0,0,,,0,,,,,,,,,,,wg-a,,,,AAXX 03004 07168 12/// /0000 11020 21030 30029 40179 58002 60006 90000=
07168,1997-11-03 09:00:00,4,1015.5,0,81,1,3000,7.408,,,110,,,,,,,,,,10,wg-a,,,,AAXX 03094 07168 32/30 01104 10040 20010 30009 40155 50000 71040 80000 90900=
07168,1997-11-03 15:00:00,14,1011.1,-2,55,5,8000,14.816,,,70,,,,,,,,,,,wg-a,,,,AAXX 03154 07168 12/58 00708 10140 20050 39971 40111 56020 60006 80000 91500=
07168,1997-11-03 18:00:00,9,1011,-0.4,71,4,0,11.112,,,80,-4.4,13.9,,,,,,,,,wg-a,,,,AAXX 03184 07168 32/// /0806 10090 20040 39967 40110 55004 91800 333 10139 21044=
07168,1997-11-04 00:00:00,3,1010.3,-0.8,87,1,0,7.408,,,90,,,,,,,,,,,wg-a,,,,AAXX 04004 07168 12/// /0904 10030 20010 39957 40103 58008 60006 90000=
07168,1997-11-04 06:00:00,5,1008.1,-0.9,87,3,7000,7.408,,,100,3,9.1,,,,,,,,,wg-a,,,,AAXX 04064 07168 02/57 81004 10050 20030 39937 40081 58009 60006 8707/ 90600 333 10091 20030 60004=
07168,1997-11-04 15:00:00,13,1006.3,-0.6,88,11,7000,18.52,,,160,,,,1,,,,,,61,wg-a,,,,AAXX 04154 07168 12657 81610 10130 20110 39923 40063 56006 60017 76162 8657/ 91500=
07168,1997-11-05 00:00:00,12,1007.5,0.2,94,11,0,18.52,,,180,,,,,,,,,,,wg-a,,,,AAXX 05004 07168 12/// /1810 10120 20110 39934 40075 51002 60026 90000=
07168,1997-11-05 06:00:00,11,1006,-0.8,100,11,8000,14.816,,,160,11,11.8,,,,,9,,,2,wg-a,,,,AAXX 05064 07168 02358 81608 10110 20110 39919 40060 57008 60006 70262 887// 90600 333 10118 20110 60094=
07168,1997-11-05 09:00:00,12,1005.9,0,94,11,15000,18.52,,,170,,,,,,,,,,,wg-a,,,,AAXX 05094 07168 12465 71710 10120 20110 39919 40059 50000 60006 8653/ 90900=
07168,1997-11-05 15:00:00,14,999.9,-2.9,82,11,20000,14.816,,,160,,,,,,,,,,,wg-a,,,,AAXX 05154 07168 12570 81608 10140 20110 39861 49999 56029 60006 82137 91500=
07168,1997-11-05 18:00:00,12,997.5,-2.5,88,10,0,11.112,,,150,11,14.5,,,,,,,,,wg-a,,,,AAXX 05184 07168 12/// /1506 10120 20100 39836 49975 57025 60006 91800 333 10145 20110=
07168,1997-11-06 00:00:00,12,993.6,-1.9,100,12,0,14.816,,,170,,,,,,,,,,,wg-a,,,,AAXX 06004 07168 12/// /1708 10120 20120 39797 49936 57019 60016 90000=
07168,1997-11-06 06:00:00,12,989.7,-2.2,94,11,500,7.408,,,150,11.1,12.1,,1,,,3,,,61,wg-a,,,,AAXX 06064 07168 02400 81504 10120 20110 39759 49897 58022 60034 76166 875// 90600 333 10121 20111 60017=
07168,1997-11-06 12:00:00,12,990.8,-0.9,94,11,10000,7.408,,,350,,,,5,,,,,,61,wg-a,,,,AAXX 06124 07168 02360 83504 10120 20110 39770 49908 58009 60076 76166 885// 91200 333 60057=
07168,1997-11-06 15:00:00,11,987.9,-2.9,100,11,500,11.112,,,50,,,,4,,,,,,21,wg-a,,,,AAXX 06154 07168 12200 80506 10110 20110 39741 49879 58029 60047 72162 875// 91500=
07168,1997-11-06 18:00:00,12,984.8,-3,100,12,0,7.408,,,80,10.7,12.4,,,,,,,,,wg-a,,,,AAXX 06184 07168 32/// /0804 10120 20120 39711 49848 56030 91800 333 10124 20107=
07168,1997-11-07 00:00:00,10,988.9,4.4,93,9,0,35.188,,,240,,,,,,,,,,,wg-a,,,,AAXX 07004 07168 02/// /2419 10100 20090 39750 49889 53044 60006 90000 333 61000=
07168,1997-11-07 06:00:00,9,994.7,2.6,93,8,12000,31.484,,,200,8.5,14.9,,,,,14,,,,wg-a,,,,AAXX 07064 07168 02462 72017 10090 20080 39807 49947 53026 60006 878// 90600 333 10149 20085 60144=
07168,1997-11-07 09:00:00,11,997.9,3.2,82,8,18000,29.632,,,200,,,,,,,,,,1,wg-a,,,,AAXX 07094 07168 02468 72016 10110 20080 39839 49979 51032 61000 70186 872// 90900 333 ////=
07168,1997-11-07 12:00:00,13,997.7,-0.1,82,10,500,25.928,,,200,,,,,,,,,,25,wg-a,,,,AAXX 07124 07168 02500 42014 10130 20100 39838 49977 58001 61000 72586 84201 91200 333 6100=
07168,1997-11-07 18:00:00,12,997.8,0.5,76,8,0,18.52,,,160,9.2,13.9,,,,,,,,,wg-a,,,,AAXX 07184 07168 32/// /1610 10120 20080 39839 49978 51005 91800 333 10139 20092=
07168,1997-11-08 00:00:00,7,996.2,-1.3,93,6,0,14.816,,,140,,,,,,,,,,,wg-a,,,,AAXX 08004 07168 12/// /1408 10070 20060 39821 49962 57013 60006 90000=
07168,1997-11-08 06:00:00,10,997.5,2.8,93,9,20000,25.928,,,230,5.8,12.4,,,,,1,,,,wg-a,,,,AAXX 08064 07168 02570 82314 10100 20090 39835 49975 53028 60006 8557/ 90600 333 10124 20058 60014=
07168,1997-11-08 09:00:00,11,1000.2,2.7,87,9,20000,29.632,,,230,,,,,,,,,,,wg-a,,,,AAXX 08094 07168 12570 52316 10110 20090 39862 40002 51027 60006 8213/ 90900=
07168,1997-11-08 12:00:00,13,1001,0.9,72,8,25000,31.484,,,240,,,,,,,,,,,wg-a,,,,AAXX 08124 07168 12575 52417 10130 20080 39871 40010 50009 60006 8423/ 91200=
07168,1997-11-09 06:00:00,9,997.5,0.7,93,8,20000,18.52,,,160,8.7,11,,,,,3,,,,wg-a,,,,AAXX 09064 07168 02570 /1610 10090 20080 39834 49975 51007 60006 81130 90600 333 10110 20087 60034=
07168,1997-11-09 09:00:00,9,998.4,0.9,87,7,20000,25.928,,,200,,,,,,,,,,,wg-a,,,,AAXX 09094 07168 12570 72014 10090 20070 39843 49984 51009 60006 8223/ 90900=
07168,1997-11-09 12:00:00,13,998.2,0,62,6,500,42.596,,,220,,,,,,,,,,,wg-a,,,,AAXX 09124 07168 12500 52223 10130 20060 39843 49982 50000 60006 82231 91200=
07168,1997-11-09 15:00:00,11,997.8,-0.5,71,6,500,42.596,,61.116,200,,,,,,,,,,,wg-a,,,,AAXX 09154 07168 12500 72023 10110 20060 39838 49978 58005 60006 82231 91500 333 91033=
07168,1997-11-09 18:00:00,9,997.2,-0.7,76,5,0,46.3,,,200,8.1,12.7,,,,,,,,,wg-a,,,,AAXX 09184 07168 12/// /2025 10090 20050 39831 49972 56007 60006 91800 333 10127 20081=
07168,1997-11-10 00:00:00,9,1001.3,1.2,87,7,0,31.484,,,200,,,,1,,,,,,,wg-a,,,,AAXX 10004 07168 02/// /2017 10090 20070 39872 40013 51012 60016 90000 333 60017=
07168,1997-11-10 06:00:00,8,1001.7,0.2,87,6,20000,25.928,,,200,7.8,10.2,,,,,1,,,,wg-a,,,,AAXX 10064 07168 12570 52014 10080 20060 39875 40017 53002 60014 85500 90600 333 10102 20078=
07168,1997-11-10 15:00:00,11,999.6,-0.7,76,7,500,22.224,,,200,,,,,,,,,,1,wg-a,,,,AAXX 10154 07168 02500 62012 10110 20070 39856 49996 56007 61000 70162 85802 91500 333 ////=
07168,1997-11-10 18:00:00,8,1000.9,1.1,87,6,0,18.52,,,190,7.6,10.9,,,,,,,,,wg-a,,,,AAXX 10184 07168 32/// /1910 10080 20060 39867 40009 53011 91800 333 10109 20076=
07168,1997-11-11 00:00:00,7,1001.2,-0.4,87,5,0,22.224,,,180,,,,,,,,,,,wg-a,,,,AAXX 11004 07168 12/// /1812 10070 20050 39870 40012 58004 60006 90000=
07168,1997-11-11 06:00:00,7,998.6,-1.5,93,6,7000,14.816,,,170,6.4,8.3,,,,,,,,61,wg-a,,,,AAXX 11064 07168 02357 81708 10070 20060 39844 49986 56015 61000 76162 8667/ 90600 333 10083 20064 6004=
07168,1997-11-11 09:00:00,8,999.4,0.9,87,6,18000,18.52,,,180,,,,1,,,,,,1,wg-a,,,,AAXX 11094 07168 12568 71810 10080 20060 39853 49994 51009 60017 70162 875// 90900=
07168,1997-11-11 12:00:00,10,999.2,-0.1,82,7,25000,25.928,,,190,,,,,,,,,,1,wg-a,,,,AAXX 11124 07168 12575 71914 10100 20070 39852 49992 58001 60016 70162 86802 91200=
07168,1997-11-11 18:00:00,8,998,-0.1,93,7,0,3.704,,,90,6.4,11.6,,,,,,,,,wg-a,,,,AAXX 11184 07168 32/// /0902 10080 20070 39839 49980 55001 91800 333 10116 20064=
07168,1997-11-12 00:00:00,8,997.9,-0.4,93,7,0,7.408,,,230,,,,,,,,,,,wg-a,,,,AAXX 12004 07168 12/// /2304 10080 20070 39838 49979 55004 60036 90000=
07168,1997-11-12 06:00:00,7,998.6,0.6,100,7,7000,7.408,,,300,6.4,8.3,,,,,,,,61,wg-a,,,,AAXX 12064 07168 02357 83004 10070 20070 39844 49986 51006 61000 76162 885// 90600 333 10083 20064 6006=
07168,1997-11-12 09:00:00,8,1000.3,1.7,100,8,500,7.408,,,290,,,,1,,,,,,61,wg-a,,,,AAXX 12094 07168 12200 82904 10080 20080 39861 40003 51017 60017 76166 885// 90900=
07168,1997-11-12 12:00:00,9,1000.9,0.7,93,8,10000,18.52,,,300,,,,0,,,,,,1,wg-a,,,,AAXX 12124 07168 02360 73010 10090 20080 39868 40009 51007 60016 70162 878// 91200 333 60007=
07168,1997-11-12 15:00:00,10,1002.5,1.6,87,8,9000,18.52,,,290,,,,,,,,,,,wg-a,,,,AAXX 12154 07168 12459 /2910 10100 20080 39884 40025 53016 60006 86800 91500=
07168,1997-11-13 00:00:00,8,1007.1,0.9,93,7,0,11.112,,,220,,,,,,,,,,,wg-a,,,,AAXX 13004 07168 12/// /2206 10080 20070 39928 40071 51009 60006 90000=
07168,1997-11-13 06:00:00,8,1007.5,0.2,87,6,7000,11.112,,,240,7.2,8,,,,,1,,,,wg-a,,,,AAXX 13064 07168 02357 82406 10080 20060 39932 40075 53002 60006 876// 90600 333 10080 20072 60014=
07168,1997-11-13 09:00:00,8,1008.2,0.7,93,7,9000,7.408,,,160,,,,,,,,,,,wg-a,,,,AAXX 13094 07168 12359 81604 10080 20070 39939 40082 52007 60006 875// 90900=
07168,1997-11-13 15:00:00,10,1007.5,-0.3,76,6,25000,11.112,,,210,,,,,,,,,,,wg-a,,,,AAXX 13154 07168 12575 42106 10100 20060 39933 40075 55003 60006 82201 91500=
07168,1997-11-14 09:00:00,6,1014.6,2,100,6,9000,7.408,,,150,,,,,,,,,,,wg-a,,,,AAXX 14094 07168 12359 71504 10060 20060 30002 40146 52020 60006 875// 90900=
07168,1997-11-14 12:00:00,8,1015.6,1,87,6,10000,11.112,,,220,,,,,,,,,,,wg-a,,,,AAXX 14124 07168 12460 72206 10080 20060 30012 40156 51010 60006 8553/ 91200=
07168,1997-11-14 15:00:00,8,1016.5,0.9,87,6,10000,11.112,,,190,,,,,,,,,,,wg-a,,,,AAXX 14154 07168 12460 71906 10080 20060 30021 40165 53009 60006 875// 91500=
07168,1997-11-15 06:00:00,3,1020.5,0.4,100,3,8000,3.704,,,150,2.9,7.3,,,,,,,,,wg-a,,,,AAXX 15064 07168 02758 /1502 10030 20030 30058 40205 53004 60006 86500 90600 333 10073 20029 60004=
07168,1997-11-15 09:00:00,6,1020.5,0.2,87,4,16000,22.224,,,170,,,,0,,,,,,,wg-a,,,,AAXX 15094 07168 12666 71712 10060 20040 30060 40205 53002 60007 875// 90900=
07168,1997-11-15 12:00:00,11,1020.2,-0.1,66,5,18000,11.112,,,170,,,,,,,,,,,wg-a,,,,AAXX 15124 07168 12668 71706 10110 20050 30059 40202 58001 60006 8355/ 91200=
07168,1997-11-15 15:00:00,11,1019.3,-0.9,76,7,20000,11.112,,,140,,,,,,,,,,,wg-a,,,,AAXX 15154 07168 12570 81406 10110 20070 30050 40193 56009 60006 8657/ 91500=
07168,1997-11-16 06:00:00,12,1016.6,-0.4,100,12,3000,7.408,,,310,9.4,11.9,,,,,14,,,10,wg-a,,,,AAXX 16064 07168 02130 83104 10120 20120 30024 40166 56004 60006 71062 886// 90600 333 10119 20094 60144=
07168,1997-11-16 09:00:00,11,1017.5,0.9,100,11,2000,3.704,,,100,,,,2,,,,,,10,wg-a,,,,AAXX 16094 07168 12220 81002 10110 20110 30033 40175 53009 60027 71052 887// 90900=
07168,1997-11-16 12:00:00,13,1016.7,-0.7,100,13,4000,3.704,,,200,,,,0,,,,,,10,wg-a,,,,AAXX 16124 07168 02240 82002 10130 20130 30026 40167 58007 60026 71052 886// 91200 333 60007=
07168,1997-11-16 15:00:00,13,1016.6,-0.1,100,13,500,3.704,,,140,,,,0,,,,,,44,wg-a,,,,AAXX 16154 07168 12105 81402 10130 20130 30025 40166 55001 60007 74442 886// 91500=
07168,1997-11-17 06:00:00,9,1018,0.4,100,9,8000,7.408,,,110,9,11.9,,,,,2,,,,wg-a,,,,AAXX 17064 07168 02358 71104 10090 20090 30036 40180 51004 60006 875// 90600 333 10119 20090 60024=
07168,1997-11-17 12:00:00,13,1016.3,-1.6,77,9,18000,18.52,,,110,,,,,,,,,,,wg-a,,,,AAXX 17124 07168 12/68 51110 10130 20090 30022 40163 58016 60006 80002 91200=
07168,1997-11-17 15:00:00,11,1014.8,-1.6,87,9,25000,14.816,,,70,,,,,,,,,,,wg-a,,,,AAXX 17154 07168 12/75 60708 10110 20090 30006 40148 56016 60006 80002 91500=
07168,1997-11-17 18:00:00,8,1015.5,0.5,87,6,0,18.52,,,80,7.5,13.4,,,,,,,,,wg-a,,,,AAXX 17184 07168 12/// /0810 10080 20060 30011 40155 53005 60006 91800 333 10134 20075=
07168,1997-11-18 06:00:00,6,1009.9,-1.2,93,5,8000,14.816,,,120,4.1,7.5,,,,,,,,,wg-a,,,,AAXX 18064 07168 02458 /1208 10060 20050 39955 40099 58012 60006 85500 90600 333 10075 20041 60004=
07168,1997-11-18 09:00:00,8,1009.8,0,87,6,8000,14.816,,,150,,,,,,,,,,,wg-a,,,,AAXX 18094 07168 12/58 31508 10080 20060 39955 40098 50000 60006 80001 90900=
07168,1997-11-18 12:00:00,13,1008.3,-1.2,72,8,12000,18.52,,,150,,,,,,,,,,,wg-a,,,,AAXX 18124 07168 12/62 31510 10130 20080 39943 40083 58012 60006 80001 91200=
07168,1997-11-18 15:00:00,13,1008.1,-0.2,72,8,15000,11.112,,,160,,,,,,,,,,,wg-a,,,,AAXX 18154 07168 12/65 21606 10130 20080 39941 40081 55002 60006 81031 91500=
07168,1997-11-19 09:00:00,9,1002.3,-0.2,100,9,1500,14.816,,,130,,,,0,,,,,,10,wg-a,,,,AAXX 19094 07168 12215 81308 10090 20090 39882 40023 58002 60007 71055 877// 90900=
07168,1997-11-19 12:00:00,9,1001.5,-0.8,100,9,2000,11.112,,,150,,,,0,,,,,,10,wg-a,,,,AAXX 19124 07168 02220 81506 10090 20090 39874 40015 58008 60016 71055 877// 91200 333 60007=
07168,1997-11-19 15:00:00,10,1001.2,-0.3,100,10,1200,11.112,,,110,,,,1,,,,,,10,wg-a,,,,AAXX 19154 07168 12212 81106 10100 20100 39871 40012 58003 60017 71052 877// 91500=
07168,1997-11-20 06:00:00,9,999.1,-0.9,93,8,12000,18.52,,,170,8.2,10.4,,,,,2,,,,wg-a,,,,AAXX 20064 07168 02462 81710 10090 20080 39850 49991 56009 60006 8557/ 90600 333 10104 20082 60024=
07168,1997-11-20 09:00:00,10,998.5,-0.5,87,8,18000,18.52,,,150,,,,1,,,,,,21,wg-a,,,,AAXX 20094 07168 12668 71510 10100 20080 39845 49985 58005 60017 72162 8553/ 90900=
07168,1997-11-20 12:00:00,12,998.4,0,82,9,20000,29.632,,,200,,,,,,,,,,1,wg-a,,,,AAXX 20124 07168 02570 72016 10120 20090 39845 49984 50000 60016 70162 8583/ 91200 333 61000=
07168,1997-11-20 15:00:00,11,999.8,1.3,82,8,25000,22.224,,,200,,,,,,,,,,,wg-a,,,,AAXX 20154 07168 12575 52012 10110 20080 39858 49998 53013 60006 83201 91500=
07168,1997-11-21 00:00:00,6,1005.5,1.4,93,5,0,14.816,,,200,,,,,,,,,,,wg-a,,,,AAXX 21004 07168 12/// /2008 10060 20050 39912 40055 53014 60006 90000=
07168,1997-11-21 09:00:00,9,1009.8,1.3,87,7,25000,7.408,,,190,,,,,,,,,,,wg-a,,,,AAXX 21094 07168 12575 51904 10090 20070 39955 40098 52013 60006 84201 90900=
07168,1997-11-21 12:00:00,11,1009.7,0.1,82,8,25000,11.112,,,190,,,,,,,,,,,wg-a,,,,AAXX 21124 07168 12575 /1906 10110 20080 39956 40097 52001 60006 81130 91200=
07168,1997-11-21 15:00:00,12,1009.8,0.1,82,9,25000,11.112,,,190,,,,,,,,,,,wg-a,,,,AAXX 21154 07168 12575 /1906 10120 20090 39957 40098 53001 60006 85800 91500=
07168,1997-11-22 06:00:00,3,1012.5,0.4,100,3,9000,3.704,,,130,2.9,7.3,,,,,,,,,wg-a,,,,AAXX 22064 07168 02459 71302 10030 20030 39979 40125 53004 60006 8553/ 90600 333 10073 20029 60004=
07168,1997-11-22 09:00:00,6,1013.8,1.4,100,6,9000,3.704,,,110,,,,,,,,,,,wg-a,,,,AAXX 22094 07168 12759 71102 10060 20060 39993 40138 51014 60006 875// 90900=
07168,1997-11-22 12:00:00,9,1013.5,-0.1,87,7,10000,3.704,,,50,,,,,,,,,,,wg-a,,,,AAXX 22124 07168 12460 /0502 10090 20070 39992 40135 58001 60006 86800 91200=
07168,1997-11-22 15:00:00,9,1014.3,0.8,87,7,9000,7.408,,,310,,,,,,,,,,,wg-a,,,,AAXX 22154 07168 12459 /3104 10090 20070 30000 40143 53008 60006 86500 91500=
07168,1997-11-23 06:00:00,4,1019.2,0.9,100,4,300,7.408,,,100,3.8,6.4,,,,,,,,42,wg-a,,,,AAXX 23064 07168 02103 81004 10040 20040 30046 40192 53009 60006 74242 886// 90600 333 10064 20038 60004=
07168,1997-11-23 15:00:00,4,1021.1,-0,100,4,1000,3.704,,,100,,,,,,,,,,10,wg-a,,,,AAXX 23154 07168 12210 81002 10040 20040 30064 40211 55000 60006 71022 886// 91500=
07168,1997-11-24 00:00:00,4,1019.6,-1.2,93,3,0,11.112,,,100,,,,,,,,,,,wg-a,,,,AAXX 24004 07168 12/// /1006 10040 20030 30050 40196 58012 60006 90000=
07168,1997-11-24 06:00:00,1,1017,-2.2,100,1,8000,11.112,,,90,1.1,4.5,,,,,,,,,wg-a,,,,AAXX 24064 07168 02/58 /0906 10010 20010 30022 40170 56022 60006 81031 90600 333 10045 20011 60004=
07168,1997-11-24 09:00:00,2,1015.8,-1.1,93,1,6000,11.112,,,90,,,,,,,,,,,wg-a,,,,AAXX 24094 07168 12/56 70906 10020 20010 30011 40158 58011 60006 8702/ 90900=
07168,1997-11-24 15:00:00,6,1009.9,-2.8,75,2,14000,14.816,,,90,,,,,,,,,,,wg-a,,,,AAXX 24154 07168 12/64 70908 10060 20020 39955 40099 57028 60006 85072 91500=
07168,1997-11-25 00:00:00,2,1006.8,-0.5,93,1,0,11.112,,,170,,,,,,,,,,,wg-a,,,,AAXX 25004 07168 12/// /1706 10020 20010 39922 40068 56005 60006 90000=
07168,1997-11-25 06:00:00,4,1007,-0.2,87,2,8000,14.816,,,180,1.1,5.5,,,,,,,,,wg-a,,,,AAXX 25064 07168 02/58 81808 10040 20020 39925 40070 55002 60006 8807/ 90600 333 10055 20011 60004=
07168,1997-11-25 09:00:00,8,1007.3,0.5,76,4,15000,14.816,,,150,,,,,,,,,,,wg-a,,,,AAXX 25094 07168 12/65 41508 10080 20040 39930 40073 53005 60006 84032 90900=
07168,1997-11-25 12:00:00,12,1006.3,-0.7,67,6,20000,11.112,,,110,,,,,,,,,,,wg-a,,,,AAXX 25124 07168 12/70 61106 10120 20060 39923 40063 58007 60006 85032 91200=
07168,1997-11-26 00:00:00,5,1005.4,-0.4,87,3,0,3.704,,,100,,,,,,,,,,,wg-a,,,,AAXX 26004 07168 12/// /1002 10050 20030 39910 40054 56004 60006 90000=
07168,1997-11-26 06:00:00,5,1005.5,0.1,87,3,12000,7.408,,,110,3.1,7,,,,,,,,,wg-a,,,,AAXX 26064 07168 02762 61104 10050 20030 39911 40055 53001 60006 86500 90600 333 10070 20031 60004=
07168,1997-11-26 09:00:00,7,1006.7,1.3,87,5,16000,7.408,,,190,,,,,,,,,,,wg-a,,,,AAXX 26094 07168 12766 71904 10070 20050 39924 40067 53013 60006 875// 90900=
07168,1997-11-26 15:00:00,13,1007.4,0.7,62,6,20000,11.112,,,150,,,,,,,,,,,wg-a,,,,AAXX 26154 07168 12570 81506 10130 20060 39934 40074 53007 60006 8117/ 91500=
07168,1997-11-27 06:00:00,7,1012.1,0.5,81,4,9000,11.112,,,120,6.2,10.4,,,,,,,,,wg-a,,,,AAXX 27064 07168 02/59 71206 10070 20040 39977 40121 53005 60006 8707/ 90600 333 10104 20062 60004=
07168,1997-11-27 09:00:00,8,1012.8,0.8,81,5,12000,11.112,,,140,,,,0,,,,,,60,wg-a,,,,AAXX 27094 07168 12762 71406 10080 20050 39985 40128 53008 60007 76062 8557/ 90900=
07168,1997-11-27 12:00:00,9,1012.5,-0.3,87,7,9000,14.816,,,150,,,,1,,,,,,60,wg-a,,,,AAXX 27124 07168 02659 81508 10090 20070 39982 40125 58003 60016 76062 875// 91200 333 60017=
07168,1997-11-27 15:00:00,11,1013,0.6,87,9,9000,11.112,,,170,,,,,,,,,,1,wg-a,,,,AAXX 27154 07168 02559 71706 10110 20090 39988 40130 53006 61000 70162 8357/ 91500 333 ////=
07168,1997-11-28 06:00:00,7,1012.4,-0.8,100,7,500,14.816,,,160,4.6,8.9,,,,,1,,,,wg-a,,,,AAXX 28064 07168 02500 81608 10070 20070 39980 40124 55008 60006 8757/ 90600 333 10089 20046 60014=
07168,1997-11-28 09:00:00,8,1011.3,-1,93,7,500,11.112,,,150,,,,0,,,,,,61,wg-a,,,,AAXX 28094 07168 12400 81506 10080 20070 39970 40113 55010 60007 76162 8557/ 90900=
07168,1997-11-28 12:00:00,9,1009.8,-1.4,93,8,6000,18.52,,,170,,,,3,,,,,,61,wg-a,,,,AAXX 28124 07168 02456 81710 10090 20080 39956 40098 58014 60036 76162 875// 91200 333 60037=
07168,1997-11-28 15:00:00,10,1009.3,-0.5,93,9,8000,18.52,,,200,,,,,,,,,,3,wg-a,,,,AAXX 28154 07168 02458 82010 10100 20090 39951 40093 56005 61000 70362 875// 91500 333 ////=
07168,1997-11-29 06:00:00,10,1007.6,1,93,9,15000,22.224,,,220,8.5,11.2,,,,,5,,,,wg-a,,,,AAXX 29064 07168 02465 /2212 10100 20090 39935 40076 53010 60006 85800 90600 333 10112 20085 60054=
07168,1997-11-29 09:00:00,11,1008.6,1,87,9,25000,25.928,,,230,,,,,,,,,,,wg-a,,,,AAXX 29094 07168 12575 72314 10110 20090 39945 40086 53010 60006 878// 90900=
07168,1997-11-29 15:00:00,11,1006.9,-1,87,9,20000,18.52,,,210,,,,,,,,,,,wg-a,,,,AAXX 29154 07168 12570 72110 10110 20090 39928 40069 55010 60006 878// 91500=
07168,1997-11-30 06:00:00,8,1008.1,0.1,93,7,15000,25.928,,,240,4.9,,,,,,1,,,,wg-a,,,,AAXX 30064 07168 02465 72414 10080 20070 39938 40081 53001 60006 878// 90600 333 10082 20049 60014=
07168,1997-11-30 09:00:00,9,1008.9,0.9,87,7,12000,22.224,,,250,,,,0,,,,,,1,wg-a,,,,AAXX 30094 07168 12462 72512 10090 20070 39947 40089 52009 60007 70186 8583/ 90900=
07168,1997-11-30 12:00:00,9,1009.1,0.2,93,8,12000,25.928,,,260,,,,0,,,,,,80,wg-a,,,,AAXX 30124 07168 02462 82614 10090 20080 39949 40091 50002 60016 78086 878// 91200 333 60007=
07168,1997-12-01 00:00:00,7,1014.7,1.5,93,6,0,22.224,,,300,,,,,,,,,,,wg-a,,,,AAXX 01004 07168 12/// /3012 10070 20060 30003 40147 51015 60006 90000=
07168,1997-12-01 06:00:00,6,1016.9,1.2,93,5,15000,14.816,,,320,5.8,8.4,,,,,1,,,,wg-a,,,,AAXX 01064 07168 02665 73208 10060 20050 30024 40169 53012 60006 875// 90600 333 10084 20058 60014=
07168,1997-12-01 09:00:00,6,1018,1.1,87,4,10000,11.112,,,300,,,,,,,,,,,wg-a,,,,AAXX 01094 07168 12460 /3006 10060 20040 30035 40180 51011 60006 84501 90900=
07168,1997-12-01 12:00:00,8,1016.9,-1,76,4,12000,3.704,,,250,,,,,,,,,,,wg-a,,,,AAXX 01124 07168 12462 22502 10080 20040 30025 40169 58010 60006 82101 91200=
07168,1997-12-01 15:00:00,8,1015.1,-1.8,71,3,18000,0,,,0,,,,,,,,,,,wg-a,,,,AAXX 01154 07168 12568 40000 10080 20030 30007 40151 58018 60006 81101 91500=
07168,1997-12-01 18:00:00,5,1013.7,-1.5,75,1,0,11.112,,,110,4.4,8.6,,,,,,,,,wg-a,,,,AAXX 01184 07168 12/// /1106 10050 20010 39992 40137 58015 60006 91800 333 10086 20044=
07168,1997-12-02 00:00:00,4,1007,-3.9,75,0,0,7.408,,,110,,,,,,,,,,,wg-a,,,,AAXX 02004 07168 12/// /1104 10040 20000 39925 40070 56039 60006 90000=
07168,1997-12-02 06:00:00,1,994.8,-6.1,93,0,2000,18.52,,,90,0.4,4.6,,,,,,,,71,wg-a,,0,,AAXX 02064 07168 02220 80910 10010 20000 39803 49948 56061 61000 77176 885// 90600 333 10046 20004 4/9999 6006=
07168,1997-12-02 12:00:00,1,995.5,2,93,0,4000,31.484,,,360,,,,6,,,,,,71,wg-a,,,,AAXX 02124 07168 02240 83617 10010 20000 39810 49955 52020 60086 77177 885// 91200 333 60067=
07168,1997-12-02 15:00:00,0,1000.3,4.7,100,0,500,31.484,,,340,,,,2,,,,,,71,wg-a,,,,AAXX 02154 07168 12105 83417 10000 20000 39857 40003 52047 60027 77177 885// 91500=
07168,1997-12-02 18:00:00,0,1002.8,2.5,100,0,0,22.224,,,330,0.2,1,,,,,,,,,wg-a,,,,AAXX 02184 07168 32/// /3312 10000 20000 39882 40028 51025 91800 333 10010 20002=
07168,1997-12-03 00:00:00,0,1005.7,1.1,100,0,0,22.224,,,330,,,,,,,,,,,wg-a,,,,AAXX 03004 07168 12/// /3312 10000 20000 39910 40057 51011 60016 90000=
07168,1997-12-03 06:00:00,0,1008.6,1.7,100,0,1500,22.224,,,350,-0.4,0.2,,,,,,,,71,wg-a,,5,,AAXX 03064 07168 02215 83512 10000 20000 39939 40086 53017 61000 77172 877// 90600 333 10002 21004 4/005 6013=
07168,1997-12-03 09:00:00,-1,1011.4,2.7,100,-1,1500,22.224,,,360,,,,1,,,,,,71,wg-a,,,,AAXX 03094 07168 12315 83612 11010 21010 39966 40114 53027 60017 77177 877// 90900=
07168,1997-12-03 12:00:00,0,1012.9,1.5,100,0,500,14.816,,,350,,,,0,,,,,,22,wg-a,,,,AAXX 03124 07168 02300 73508 10000 20000 39981 40129 51015 60016 72272 85502 91200 333 60007=
07168,1997-12-03 15:00:00,0,1014.6,1.7,100,0,6000,11.112,,,340,,,,,,,,,,,wg-a,,,,AAXX 03154 07168 12556 83406 10000 20000 39998 40146 53017 60006 84572 91500=
07168,1997-12-04 06:00:00,-1,1016.2,-0.1,100,-1,2000,11.112,,,340,-3.9,0,,,,,1,,,10,wg-a,,4,,AAXX 04064 07168 02420 83406 11010 21010 30013 40162 55001 60006 71022 885// 90600 333 10000 21039 4/004 60014=
07168,1997-12-04 09:00:00,0,1017.1,1,93,-1,8000,7.408,,,20,,,,,,,,,,,wg-a,,,,AAXX 04094 07168 12558 80204 10000 21010 30023 40171 53010 60006 875// 90900=
07168,1997-12-04 12:00:00,0,1017.2,0.1,93,-1,7000,7.408,,,20,,,,,,,,,,,wg-a,,,,AAXX 04124 07168 12757 70204 10000 21010 30024 40172 50001 60006 85502 91200=
07168,1997-12-04 15:00:00,0,1018,0.8,93,-1,6000,11.112,,,360,,,,,,,,,,,wg-a,,,,AAXX 04154 07168 12456 83606 10000 21010 30032 40180 52008 60006 875// 91500=
07168,1997-12-04 18:00:00,1,1019.2,1.2,93,0,0,7.408,,,20,-0.5,0.5,,,,,,,,,wg-a,,,,AAXX 04184 07168 12/// /0204 10010 20000 30044 40192 52012 60006 91800 333 10005 21005=
07168,1997-12-05 06:00:00,0,1022.8,0.5,100,0,6000,7.408,,,330,-0.2,1,,,,,,,,,wg-a,,3,,AAXX 05064 07168 02456 83304 10000 20000 30079 40228 53005 60006 885// 90600 333 10010 21002 4/003 60004=
07168,1997-12-05 09:00:00,1,1024.7,1.9,100,1,4000,7.408,,,10,,,,,,,,,,10,wg-a,,,,AAXX 05094 07168 12240 80104 10010 20010 30098 40247 51019 60006 71022 885// 90900=
07168,1997-12-05 12:00:00,2,1024.6,-0.1,93,1,500,7.408,,,20,,,,,,,,,,,wg-a,,,,AAXX 05124 07168 12400 80204 10020 20010 30097 40246 58001 60006 885// 91200=
07168,1997-12-05 15:00:00,2,1025.5,0.9,87,0,10000,11.112,,,360,,,,,,,,,,,wg-a,,,,AAXX 05154 07168 12460 83606 10020 20000 30106 40255 53009 60006 885// 91500=
07168,1997-12-06 09:00:00,1,1027.2,0,86,-1,8000,7.408,,,180,,,,,,,,,,,wg-a,,,,AAXX 06094 07168 12458 71804 10010 21010 30123 40272 50000 60006 8253/ 90900=
07168,1997-12-06 12:00:00,2,1026.5,-0.7,80,-1,10000,11.112,,,240,,,,,,,,,,,wg-a,,,,AAXX 06124 07168 12460 /2406 10020 21010 30116 40265 58007 60006 86500 91200=
07168,1997-12-06 15:00:00,2,1026,-0.5,87,0,10000,3.704,,,190,,,,,,,,,,,wg-a,,,,AAXX 06154 07168 12460 /1902 10020 20000 30111 40260 55005 60006 81501 91500=
07168,1997-12-07 06:00:00,-5,1023.1,-1.1,100,-5,2000,7.408,,,160,-5.1,-1.3,,,,,,,,10,wg-a,,1,,AAXX 07064 07168 02/20 31604 11050 21050 30079 40231 58011 60006 71000 80001 90600 333 11013 21051 4/001 60004=
07168,1997-12-07 09:00:00,-2,1021.6,-1.3,100,-2,500,3.704,,,160,,,,,,,,,,,wg-a,,,,AAXX 07094 07168 12/00 21602 11020 21020 30066 40216 56013 60006 80001 90900=
07168,1997-12-07 12:00:00,2,1019,-2.3,75,-2,8000,14.816,,,150,,,,,,,,,,,wg-a,,,,AAXX 07124 07168 12/58 31508 10020 21020 30043 40190 58023 60006 80001 91200=
07168,1997-12-07 15:00:00,4,1016.8,-2.1,70,-1,11000,7.408,,,170,,,,,,,,,,,wg-a,,,,AAXX 07154 07168 12/61 31704 10040 21010 30022 40168 56021 60006 80001 91500=
07168,1997-12-08 06:00:00,3,1012.2,-0,70,-2,10000,7.408,,,150,-2.3,3.7,,,,,,,,,wg-a,,0,,AAXX 08064 07168 02460 81504 10030 21020 39976 40122 55000 60006 875// 90600 333 10037 21023 4/9999 60004=
07168,1997-12-08 09:00:00,5,1012.4,0.3,70,0,15000,18.52,,,160,,,,,,,,,,,wg-a,,,,AAXX 08094 07168 12565 21610 10050 20000 39979 40124 50003 60006 82500 90900=
07168,1997-12-08 12:00:00,8,1011.3,-0.9,71,3,15000,22.224,,,190,,,,,,,,,,,wg-a,,,,AAXX 08124 07168 12565 11912 10080 20030 39970 40113 58009 60006 81500 91200=
07168,1997-12-08 15:00:00,9,1009.5,-1.8,81,6,20000,22.224,,,190,,,,,,,,,,,wg-a,,,,AAXX 08154 07168 12570 21912 10090 20060 39952 40095 56018 60006 82500 91500=
07168,1997-12-09 06:00:00,6,1012.7,1.5,93,5,9000,11.112,,,200,6,8.2,,,,,,,,1,wg-a,,,,AAXX 09064 07168 02559 72006 10060 20050 39983 40127 53015 60006 70186 875// 90600 333 10082 20060 60004=
07168,1997-12-09 09:00:00,9,1014.5,1.9,87,7,12000,22.224,,,230,,,,,,,,,,25,wg-a,,,,AAXX 09094 07168 02462 42312 10090 20070 30002 40145 53019 61000 72511 82801 90900 333 ////=
07168,1997-12-09 12:00:00,10,1014.7,0.2,82,7,20000,22.224,,,220,,,,,,,,,,2,wg-a,,,,AAXX 09124 07168 02470 72212 10100 20070 30004 40147 50002 61000 70286 8683/ 91200 333 ////=
07168,1997-12-09 15:00:00,10,1015.6,0.9,82,7,25000,18.52,,,220,,,,,,,,,,,wg-a,,,,AAXX 09154 07168 12575 72210 10100 20070 30013 40156 53009 60006 878// 91500=
07168,1997-12-10 00:00:00,10,1015.8,-0.6,87,8,0,25.928,,,210,,,,,,,,,,,wg-a,,,,AAXX 10004 07168 12/// /2114 10100 20080 30015 40158 58006 60006 90000=
07168,1997-12-10 06:00:00,9,1013.8,-1.7,93,8,10000,18.52,,,180,7.7,9.9,,,,,,,,,wg-a,,,,AAXX 10064 07168 02460 81810 10090 20080 39995 40138 56017 60006 875// 90600 333 10099 20077 61000=
07168,1997-12-10 09:00:00,9,1012.3,-1.5,93,8,12000,29.632,,,190,,,,,,,,,,61,wg-a,,,,AAXX 10094 07168 02462 81916 10090 20080 39980 40123 56015 61000 76162 8257/ 90900 333 ////=
07168,1997-12-11 06:00:00,12,1009.3,-1.5,100,12,7000,25.928,,,210,11.3,12.4,,,,,,,,61,wg-a,,,,AAXX 11064 07168 02457 82114 10120 20120 39953 40093 56015 61000 76162 885// 90600 333 10124 20113 6006=
07168,1997-12-11 09:00:00,14,1009.8,0.5,94,13,8000,29.632,,,250,,,,0,,,,,,21,wg-a,,,,AAXX 11094 07168 12458 82516 10140 20130 39958 40098 53005 60007 72162 885// 90900=
07168,1997-12-11 12:00:00,14,1008.7,-1,94,13,9000,25.928,,,240,,,,1,,,,,,60,wg-a,,,,AAXX 11124 07168 02459 82414 10140 20130 39948 40087 58010 60016 76062 888// 91200 333 60017=
07168,1997-12-11 15:00:00,14,1007.2,-1.5,94,13,15000,31.484,,,230,,,,2,,,,,,61,wg-a,,,,AAXX 11154 07168 12465 82317 10140 20130 39933 40072 56015 60027 76166 888// 91500=
07168,1997-12-11 18:00:00,13,1007,-0.3,88,11,0,25.928,,,250,12.4,14.6,,0,,,,,,,wg-a,,,,AAXX 11184 07168 12/// /2514 10130 20110 39930 40070 58003 60007 91800 333 10146 20124=
07168,1997-12-12 06:00:00,9,1012.6,1.3,81,6,10000,35.188,,,250,8.3,13.3,,,,,5,,,,wg-a,,,,AAXX 12064 07168 02560 72519 10090 20060 39983 40126 53013 60006 875// 90600 333 10133 20083 60054=
07168,1997-12-12 09:00:00,8,1015.6,2.9,87,6,12000,31.484,,,280,,,,0,,,,,,21,wg-a,,,,AAXX 12094 07168 12562 72817 10080 20060 30012 40156 53029 60007 72162 875// 90900=
07168,1997-12-12 18:00:00,7,1024,3,87,5,0,29.632,,,310,6.8,8.5,,,,,,,,,wg-a,,,,AAXX 12184 07168 32/// /3116 10070 20050 30094 40240 53030 91800 333 10085 20068=
07168,1997-12-13 06:00:00,4,1030.2,1.3,93,3,10000,18.52,,,300,3.6,6.9,,,,,1,,,,wg-a,,,,AAXX 13064 07168 02460 73010 10040 20030 30154 40302 53013 60006 875// 90600 333 10069 20036 60014=
07168,1997-12-13 09:00:00,4,1032.1,1.9,93,3,9000,11.112,,,290,,,,,,,,,,,wg-a,,,,AAXX 13094 07168 12359 32906 10040 20030 30173 40321 53019 60006 83100 90900=
07168,1997-12-13 12:00:00,7,1032.3,0.3,81,4,15000,11.112,,,320,,,,,,,,,,,wg-a,,,,AAXX 13124 07168 12465 43206 10070 20040 30176 40323 50003 60006 84100 91200=
07168,1997-12-13 15:00:00,6,1032.8,0.5,81,3,15000,14.816,,,320,,,,,,,,,,,wg-a,,,,AAXX 13154 07168 12565 33208 10060 20030 30181 40328 53005 60006 83400 91500=
07168,1997-12-14 06:00:00,-2,1032.6,-1.2,100,-2,6000,3.704,,,140,-2.9,,,,,,,,,,wg-a,,,,AAXX 14064 07168 02656 /1402 11020 21020 30174 40326 56012 60006 85500 90600 333 10017 21029 60004=
07168,1997-12-14 09:00:00,0,1032.1,-0.4,100,0,6000,0,,,0,,,,,,,,,,,wg-a,,,,AAXX 14094 07168 12556 60000 10000 20000 30170 40321 55004 60006 84550 90900=
07168,1997-12-14 12:00:00,3,1029.8,-2,93,2,7000,3.704,,,190,,,,,,,,,,,wg-a,,,,AAXX 14124 07168 12557 71902 10030 20020 30150 40298 58020 60006 8553/ 91200=
07168,1997-12-14 15:00:00,5,1027.6,-2.1,93,4,8000,14.816,,,320,,,,,,,,,,,wg-a,,,,AAXX 14154 07168 12358 83208 10050 20040 30129 40276 56021 60006 885// 91500=
07168,1997-12-15 06:00:00,1,1024.2,-0.2,86,-1,10000,11.112,,,10,-0.3,4.4,,,,,,,,,wg-a,,,,AAXX 15064 07168 02/60 30106 10010 21010 30093 40242 57002 60006 83030 90600 333 10044 21003 60004=
07168,1997-12-15 09:00:00,2,1024.3,0.2,80,-1,15000,14.816,,,20,,,,,,,,,,,wg-a,,,,AAXX 15094 07168 12665 /0208 10020 21010 30095 40243 53002 60006 86500 90900=
07168,1997-12-15 12:00:00,3,1023.8,-0.5,75,-1,18000,25.928,,,50,,,,,,,,,,,wg-a,,,,AAXX 15124 07168 12568 /0514 10030 21010 30090 40238 58005 60006 86500 91200=
07168,1997-12-15 15:00:00,3,1023.4,-0.4,70,-2,15000,25.928,,,60,,,,,,,,,,,wg-a,,,,AAXX 15154 07168 12665 /0614 10030 21020 30086 40234 57004 60006 85500 91500=
07168,1997-12-16 00:00:00,1,1022.5,-1.1,75,-3,0,29.632,,,60,,,,,,,,,,,wg-a,,,,AAXX 16004 07168 12/// /0616 10010 21030 30076 40225 58011 60006 90000=
07168,1997-12-16 06:00:00,-1,1019.7,-1.9,69,-6,12000,29.632,,,80,-0.7,2.6,,,,,,,,,wg-a,,,,AAXX 16064 07168 02662 80816 11010 21060 30048 40197 56019 60006 875// 90600 333 10026 21007 60004=
07168,1997-12-16 15:00:00,0,1014.7,-1.7,74,-4,10000,18.52,,,70,,,,,,,,,,,wg-a,,,,AAXX 16154 07168 12/60 60710 10000 21040 39999 40147 56017 60006 82052 91500=
07168,1997-12-16 18:00:00,-2,1013.1,-1.7,80,-5,0,18.52,,,80,-1.7,0.6,,,,,,,,,wg-a,,,,AAXX 16184 07168 12/// /0810 11020 21050 39982 40131 56017 60006 91800 333 10006 21017=
07168,1997-12-17 06:00:00,0,1005.3,-1.9,93,-1,500,11.112,,,110,-2.1,0.4,,,,,,,,66,wg-a,,,,AAXX 17064 07168 02300 81106 10000 21010 39907 40053 55019 61000 76676 875// 90600 333 10004 21021 6005=
07168,1997-12-17 09:00:00,1,1005.1,-0.2,93,0,500,18.52,,,120,,,,6,,,,,,61,wg-a,,,,AAXX 17094 07168 12300 81210 10010 20000 39905 40051 56002 60067 76166 875// 90900=
07168,1997-12-17 15:00:00,3,1003.5,-0.6,93,2,7000,14.816,,,110,,,,1,,,,,,60,wg-a,,,,AAXX 17154 07168 12657 81108 10030 20020 39890 40035 56006 60017 76066 8357/ 91500=
07168,1997-12-18 06:00:00,12,1001,0.3,82,9,12000,22.224,,,150,5.5,12.1,,,,,,,,61,wg-a,,,,AAXX 18064 07168 02762 71512 10120 20090 39870 40010 53003 61000 76162 8757/ 90600 333 10121 20055 6010=
07168,1997-12-18 09:00:00,12,1000.7,-0.3,88,10,10000,31.484,,,150,,,,1,,,,,,61,wg-a,,,,AAXX 18094 07168 12760 81517 10120 20100 39867 40007 55003 60017 76166 8/57/ 90900=
07168,1997-12-18 15:00:00,10,1000.9,-0.3,100,10,12000,18.52,,,140,,,,2,,,,,,61,wg-a,,,,AAXX 18154 07168 12762 81410 10100 20100 39869 40009 56003 60027 76166 8/57/ 91500=
07168,1997-12-19 06:00:00,9,999.1,0.9,93,8,12000,22.224,,,190,8.9,10.7,,,,,9,,,,wg-a,,,,AAXX 19064 07168 02462 71912 10090 20080 39850 49991 53009 60006 878// 90600 333 10107 20089 60094=
07168,1997-12-19 09:00:00,8,1000.6,1.5,87,6,25000,11.112,,,180,,,,,,,,,,,wg-a,,,,AAXX 19094 07168 12575 /1806 10080 20060 39865 40006 53015 60006 85501 90900=
07168,1997-12-19 12:00:00,11,1000.8,0.3,82,8,500,11.112,,,140,,,,,,,,,,,wg-a,,,,AAXX 19124 07168 12500 /1406 10110 20080 39868 40008 50003 60006 81552 91200=
07168,1997-12-19 15:00:00,11,1000.3,-0.5,82,8,500,14.816,,,170,,,,,,,,,,,wg-a,,,,AAXX 19154 07168 12/00 61708 10110 20080 39863 40003 55005 60006 86070 91500=
07168,1997-12-20 06:00:00,4,1000.8,0.2,100,4,500,3.704,,,160,1.4,,,,,,,,,,wg-a,,,,AAXX 20064 07168 02/00 71602 10040 20040 39864 40008 53002 60006 83032 90600 333 10055 20014 60004=
07168,1997-12-20 09:00:00,4,1002.4,1.6,100,4,10000,7.408,,,190,,,,,,,,,,,wg-a,,,,AAXX 20094 07168 12/60 71904 10040 20040 39880 40024 53016 60006 85032 90900=
07168,1997-12-20 15:00:00,9,1003.7,0.9,93,8,12000,3.704,,,210,,,,,,,,,,,wg-a,,,,AAXX 20154 07168 12462 72102 10090 20080 39895 40037 53009 60006 8553/ 91500=
07168,1997-12-20 18:00:00,5,1005.3,1.4,100,5,0,7.408,,,290,2.6,9.1,,,,,,,,,wg-a,,,,AAXX 20184 07168 12/// /2904 10050 20050 39909 40053 53014 60006 91800 333 10091 20026=
07168,1997-12-21 00:00:00,5,1007,0.7,100,5,0,7.408,,,250,,,,,,,,,,,wg-a,,,,AAXX 21004 07168 12/// /2504 10050 20050 39926 40070 52007 60006 90000=
07168,1997-12-21 06:00:00,5,1008.7,0.8,100,5,2000,14.816,,,290,4.6,6.3,,,,,,,,10,wg-a,,,,AAXX 21064 07168 02220 82908 10050 20050 39942 40087 52008 60006 71022 886// 90600 333 10063 20046 60004=
07168,1997-12-21 09:00:00,6,1010,1.4,100,6,3000,22.224,,,300,,,,,,,,,,10,wg-a,,,,AAXX 21094 07168 12230 83012 10060 20060 39956 40100 53014 60006 71022 886// 90900=
07168,1997-12-21 15:00:00,5,1011.3,0.2,100,5,4000,22.224,,,290,,,,,,,,,,10,wg-a,,,,AAXX 21154 07168 12240 82912 10050 20050 39968 40113 53002 60006 71022 886// 91500=
07168,1997-12-22 00:00:00,6,1013.7,0.6,93,5,0,14.816,,,300,,,,,,,,,,,wg-a,,,,AAXX 22004 07168 12/// /3008 10060 20050 39992 40137 51006 60006 90000=
07168,1997-12-22 06:00:00,5,1014.1,-0.2,100,5,9000,0,,,0,5.3,6.1,,,,,,,,,wg-a,,,,AAXX 22064 07168 02459 80000 10050 20050 39996 40141 55002 60006 886// 90600 333 10061 20053 60004=
07168,1997-12-22 09:00:00,6,1014.9,0.8,93,5,7000,3.704,,,50,,,,,,,,,,,wg-a,,,,AAXX 22094 07168 12457 80502 10060 20050 30004 40149 51008 60006 886// 90900=
07168,1997-12-22 12:00:00,7,1014,-0.8,87,5,7000,3.704,,,210,,,,,,,,,,,wg-a,,,,AAXX 22124 07168 12457 82102 10070 20050 39996 40140 58008 60006 886// 91200=
07168,1997-12-22 15:00:00,7,1014.3,0.3,87,5,8000,7.408,,,160,,,,,,,,,,,wg-a,,,,AAXX 22154 07168 12458 81604 10070 20050 39999 40143 53003 60006 886// 91500=
07168,1997-12-22 18:00:00,6,1014.3,-0,93,5,0,7.408,,,90,5.2,7.4,,,,,,,,,wg-a,,,,AAXX 22184 07168 12/// /0904 10060 20050 39999 40143 55000 60006 91800 333 10074 20052=
07168,1997-12-23 00:00:00,5,1015.1,0.2,100,5,0,7.408,,,120,,,,,,,,,,,wg-a,,,,AAXX 23004 07168 12/// /1204 10050 20050 30006 40151 51002 60006 90000=
07168,1997-12-23 06:00:00,4,1017.7,1.1,93,3,7000,7.408,,,200,2.9,6.4,,,,,,,,,wg-a,,,,AAXX 23064 07168 02457 82004 10040 20030 30031 40177 53011 60006 875// 90600 333 10064 20029 60004=
07168,1997-12-23 09:00:00,5,1020.5,2.8,93,4,7000,7.408,,,210,,,,,,,,,,,wg-a,,,,AAXX 23094 07168 12457 82104 10050 20040 30059 40205 52028 60006 875// 90900=
07168,1997-12-23 12:00:00,6,1021.8,1.3,93,5,8000,7.408,,,220,,,,,,,,,,,wg-a,,,,AAXX 23124 07168 12458 82204 10060 20050 30072 40218 51013 60006 875// 91200=
07168,1997-12-23 15:00:00,7,1023.1,1.3,87,5,6000,14.816,,,180,,,,,,,,,,,wg-a,,,,AAXX 23154 07168 12456 71808 10070 20050 30085 40231 53013 60006 875// 91500=
07168,1997-12-24 00:00:00,9,1024.9,0.2,93,8,0,25.928,,,200,,,,,,,,,,,wg-a,,,,AAXX 24004 07168 12/// /2014 10090 20080 30104 40249 53002 60016 90000=
07168,1997-12-24 09:00:00,11,1025.8,1.5,94,10,8000,18.52,,,180,,,,,,,,,,,wg-a,,,,AAXX 24094 07168 12458 81810 10110 20100 30114 40258 52015 60006 887// 90900=
07168,1997-12-24 12:00:00,12,1024.4,-1.3,88,10,18000,25.928,,,220,,,,,,,,,,,wg-a,,,,AAXX 24124 07168 12568 82214 10120 20100 30101 40244 58013 60006 8657/ 91200=
07168,1997-12-24 15:00:00,12,1022.3,-2.1,88,10,18000,25.928,,,180,,,,,,,,,,,wg-a,,,,AAXX 24154 07168 12568 71814 10120 20100 30080 40223 56021 60006 83552 91500=
07168,1997-12-24 18:00:00,11,1021.8,-0.5,87,9,0,25.928,,,200,10.4,13.7,,,,,,,,,wg-a,,,,AAXX 24184 07168 32/// /2014 10110 20090 30075 40218 57005 91800 333 10137 20104=
07168,1997-12-25 00:00:00,11,1021.8,1,94,10,0,18.52,,,220,,,,,,,,,,,wg-a,,,,AAXX 25004 07168 12/// /2210 10110 20100 30075 40218 51010 60016 90000=
07168,1997-12-25 06:00:00,10,1020.4,-0.8,93,9,10000,14.816,,,180,9.8,11.5,,,,,2,,,,wg-a,,,,AAXX 25064 07168 02460 71808 10100 20090 30061 40204 57008 60006 878// 90600 333 10115 20098 60024=
07168,1997-12-25 09:00:00,12,1018.3,-2,94,11,15000,29.632,,,190,,,,,,,,,,,wg-a,,,,AAXX 25094 07168 12465 71916 10120 20110 30041 40183 56020 60006 877// 90900=
07168,1997-12-25 12:00:00,14,1014.9,-3.3,82,11,25000,38.892,,,200,,,,,,,,,,,wg-a,,,,AAXX 25124 07168 12575 72021 10140 20110 30008 40149 58033 60006 8553/ 91200=
07168,1997-12-25 18:00:00,14,1011,-0.5,82,11,0,50.004,,,230,10.1,15.3,,,,,,,,,wg-a,,,,AAXX 25184 07168 32/// /2327 10140 20110 39970 40110 55005 91800 333 10153 20101=
07168,1997-12-26 00:00:00,11,1012.1,-0.5,71,6,0,42.596,,,240,,,,,,,,,,,wg-a,,,,AAXX 26004 07168 12/// /2423 10110 20060 39979 40121 58005 60006 90000=
07168,1997-12-26 06:00:00,10,1010.7,-0.8,76,6,10000,31.484,,,240,9.4,13.9,,,,,1,,,,wg-a,,,,AAXX 26064 07168 02660 32417 10100 20060 39965 40107 57008 60006 83500 90600 333 10139 20094 60014=
07168,1997-12-26 09:00:00,10,1010.6,-0.1,76,6,15000,31.484,,,220,,,,,,,,,,,wg-a,,,,AAXX 26094 07168 12565 42217 10100 20060 39964 40106 58001 60006 84200 90900=
07168,1997-12-26 12:00:00,11,1008.5,-2,71,6,15000,38.892,,,230,,,,,,,,,,,wg-a,,,,AAXX 26124 07168 12565 42321 10110 20060 39944 40085 58020 60006 83201 91200=
07168,1997-12-26 18:00:00,8,1008.3,1.3,81,5,0,31.484,,,250,7.8,11.4,,,,,,,,,wg-a,,,,AAXX 26184 07168 32/// /2517 10080 20050 39940 40083 53013 91800 333 10114 20078=
07168,1997-12-27 00:00:00,6,1010.7,0.5,93,5,0,29.632,,,250,,,,,,,,,,,wg-a,,,,AAXX 27004 07168 12/// /2516 10060 20050 39963 40107 50005 60006 90000=
07168,1997-12-27 09:00:00,7,1012.1,0.8,93,6,7000,18.52,,,230,,,,,,,,,,,wg-a,,,,AAXX 27094 07168 12457 72310 10070 20060 39977 40121 52008 60006 875// 90900=
07168,1997-12-27 12:00:00,8,1012.1,0.1,87,6,15000,22.224,,,280,,,,0,,,,,,2,wg-a,,,,AAXX 27124 07168 02465 72812 10080 20060 39978 40121 51001 60006 70286 878// 91200 333 60007=
07168,1997-12-27 15:00:00,7,1012.3,0.1,93,6,11000,18.52,,,240,,,,,,,,,,,wg-a,,,,AAXX 27154 07168 32/61 /2410 10070 20060 39979 40123 53001 91500=
07168,1997-12-27 18:00:00,7,1013.3,1,87,5,0,25.928,,,250,5.8,8.3,,,,,,,,,wg-a,,,,AAXX 27184 07168 32/// /2514 10070 20050 39989 40133 53010 91800 333 10083 20058=
07168,1997-12-28 00:00:00,5,1014.6,0.5,93,4,0,25.928,,,260,,,,,,,,,,,wg-a,,,,AAXX 28004 07168 12/// /2614 10050 20040 30001 40146 53005 60016 90000=
07168,1997-12-28 12:00:00,4,1016.1,-0.7,93,3,10000,11.112,,,220,,,,,,,,,,,wg-a,,,,AAXX 28124 07168 12360 72206 10040 20030 30015 40161 58007 60006 876// 91200=
07168,1997-12-28 15:00:00,5,1015.4,-0.6,93,4,12000,11.112,,,200,,,,,,,,,,,wg-a,,,,AAXX 28154 07168 12462 72006 10050 20040 30009 40154 56006 60006 875// 91500=
07168,1997-12-28 18:00:00,4,1015.2,-0.3,93,3,0,14.816,,,190,3.4,5,,,,,,,,,wg-a,,,,AAXX 28184 07168 12/// /1908 10040 20030 30006 40152 55003 60006 91800 333 10050 20034=
07168,1997-12-29 06:00:00,4,1013.5,-0.1,87,2,12000,14.816,,,230,1.5,4,,,,,,,,,wg-a,,,,AAXX 29064 07168 02362 82308 10040 20020 39989 40135 55001 60006 886// 90600 333 10040 20015 60004=
07168,1997-12-29 09:00:00,4,1014.2,0.7,87,2,15000,7.408,,,200,,,,,,,,,,,wg-a,,,,AAXX 29094 07168 12465 72004 10040 20020 39996 40142 53007 60006 875// 90900=
07168,1997-12-29 15:00:00,7,1012.6,-1.1,81,4,16000,3.704,,,120,,,,,,,,,,,wg-a,,,,AAXX 29154 07168 12566 31202 10070 20040 39982 40126 56011 60006 83501 91500=
07168,1997-12-29 18:00:00,3,1012.7,-0.1,93,2,0,7.408,,,100,2.7,7.5,,,,,,,,,wg-a,,,,AAXX 29184 07168 12/// /1004 10030 20020 39981 40127 58001 60006 91800 333 10075 20027=
07168,1997-12-30 00:00:00,1,1012.2,-0.3,86,-1,0,11.112,,,150,,,,,,,,,,,wg-a,,,,AAXX 30004 07168 12/// /1506 10010 21010 39975 40122 58003 60006 90000=
07168,1997-12-31 09:00:00,9,1008.3,1.2,87,7,12000,14.816,,,170,,,,0,,,,,,60,wg-a,,,,AAXX 31094 07168 12662 71708 10090 20070 39941 40083 53012 60007 76062 8357/ 90900=
07168,1997-12-31 12:00:00,11,1008,-0.2,82,8,18000,22.224,,,200,,,,,,,,,,2,wg-a,,,,AAXX 31124 07168 02568 72012 10110 20080 39939 40080 58002 60006 70262 8357/ 91200 333 61000=
07168,1997-12-31 18:00:00,8,1011.7,2.5,93,7,0,7.408,,,250,7.5,11.2,,,,,,,,,wg-a,,,,AAXX 31184 07168 32/// /2504 10080 20070 39974 40117 51025 91800 333 10112 20075=
