station_id,dh_utc,temperature,pression,pression_variation_3h,humidite,point_de_rosee,visibilite,vent_moyen,vent_rafales,vent_rafales_10min,vent_direction,temperature_min,temperature_max,pluie_1h,pluie_3h,pluie_6h,pluie_12h,pluie_24h,ensoleillement,temperature_sol,temps_omm,source,radiations,neige_au_sol,nebulosite,raw_msg
07037,1997-01-01 00:00:00,-10,1017,0.1,85,-12,0,22.224,,,60,,,,,,,,,,,wg-a,,,,AAXX 01004 07037 12/// /0612 11100 21120 39972 40170 50001 60006 90000=
07037,1997-01-01 09:00:00,-13,1018.9,1.5,85,-15,2000,14.816,,,60,,,,,,,,,,10,wg-a,,,,AAXX 01094 07037 12420 /0608 11130 21150 39989 40189 53015 60006 71011 83601 90900=
07037,1997-01-01 12:00:00,-11,1018.9,0.1,78,-14,3000,18.52,,,60,,,,,,,,,,10,wg-a,,,,AAXX 01124 07037 12330 60610 11110 21140 39990 40189 50001 60006 71011 86500 91200=
07037,1997-01-01 15:00:00,-10,1019.6,0.7,72,-14,4000,14.816,,,80,,,,,,,,,,10,wg-a,,,,AAXX 01154 07037 12/40 /0808 11100 21140 39997 40196 53007 60006 71022 86070 91500=
07037,1997-01-01 18:00:00,-10,1020.4,0.8,79,-13,0,11.112,,,60,-12.9,-9.7,,,,,,,,,wg-a,,,,AAXX 01184 07037 12/// /0606 11100 21130 30005 40204 51008 60006 91800 333 11097 21129=
07037,1997-01-02 00:00:00,-9,1021.8,0.4,73,-13,0,11.112,,,60,,,,,,,,,,,wg-a,,,,AAXX 02004 07037 12/// /0606 11090 21130 30020 40218 53004 60006 90000=
07037,1997-01-02 06:00:00,-11,1020.2,-1.1,85,-13,6000,11.112,,,50,-11.7,-9.2,,,,,,,,,wg-a,,,,AAXX 02064 07037 02456 /0506 11110 21130 30003 40202 57011 60006 85500 90600 333 11092 21117 60004=
07037,1997-01-02 09:00:00,-11,1020.4,0.2,92,-12,2000,11.112,,,80,,,,,,,,,,10,wg-a,,,,AAXX 02094 07037 12320 50806 11110 21120 30005 40204 52002 60006 71011 85800 90900=
07037,1997-01-02 12:00:00,-8,1018.9,-1.3,85,-10,3000,7.408,,,60,,,,,,,,,,10,wg-a,,,,AAXX 02124 07037 12330 40604 11080 21100 39992 40189 58013 60006 71011 84700 91200=
07037,1997-01-02 15:00:00,-7,1017,-1.8,86,-9,3000,18.52,,,90,,,,,,,,,,,wg-a,,,,AAXX 02154 07037 12/30 /0910 11070 21090 39974 40170 56018 60006 91500=
07037,1997-01-02 18:00:00,-8,1016.3,-0.7,92,-9,500,18.52,,,70,-12.1,-6.4,,,,,,,,,wg-a,,,,AAXX 02184 07037 12300 70710 11080 21090 39967 40163 58007 60006 876// 91800 333 11064 21121=
07037,1997-01-03 00:00:00,-6,1013.3,-1.2,86,-8,0,14.816,,,20,,,,,,,,,,,wg-a,,,,AAXX 03004 07037 12/// /0208 11060 21080 39939 40133 58012 60006 90000=
07037,1997-01-03 06:00:00,-9,1010.9,-1.2,92,-10,4000,14.816,,,30,-8.6,-5.5,,,,,,,,10,wg-a,,,,AAXX 03064 07037 02340 80308 11090 21100 39913 40109 55012 60006 71022 886// 90600 333 11055 21086 60004=
07037,1997-01-03 09:00:00,-10,1010.8,-0.2,92,-11,1000,11.112,,,80,,,,,,,,,,10,wg-a,,,,AAXX 03094 07037 12110 80806 11100 21110 39911 40108 55002 60006 71022 886// 90900=
07037,1997-01-03 12:00:00,-9,1009.7,-1,92,-10,1000,14.816,,,60,,,,,,,,,,10,wg-a,,,,AAXX 03124 07037 12110 80608 11090 21100 39901 40097 58010 60006 71022 886// 91200=
07037,1997-01-03 18:00:00,-7,1006.5,-0.8,93,-8,1500,18.52,,,30,-10.2,-6.1,,,,,,,,10,wg-a,,,,AAXX 03184 07037 12115 80310 11070 21080 39871 40065 58008 60006 71022 886// 91800 333 11061 21102=
07037,1997-01-04 00:00:00,-6,1005.2,-0.3,86,-8,0,22.224,,,60,,,,,,,,,,,wg-a,,,,AAXX 04004 07037 12/// /0612 11060 21080 39859 40052 58003 60006 90000=
07037,1997-01-04 06:00:00,-6,1004.5,-0.1,93,-7,3000,18.52,,,10,-7.4,-5.5,,,,,,,,10,wg-a,,,,AAXX 04064 07037 02230 80110 11060 21070 39853 40045 55001 60006 71022 876// 90600 333 11055 21074 60004=
07037,1997-01-04 09:00:00,-5,1005.4,0.9,93,-6,2000,18.52,,,20,,,,,,,,,,10,wg-a,,,,AAXX 04094 07037 12220 80210 11050 21060 39862 40054 53009 60006 71022 876// 90900=
07037,1997-01-04 12:00:00,-4,1004.8,-0.5,93,-5,2000,22.224,,,30,,,,,,,,,,10,wg-a,,,,AAXX 04124 07037 12220 80312 11040 21050 39857 40048 58005 60006 71022 876// 91200=
07037,1997-01-04 15:00:00,-5,1005.5,0.6,93,-6,1500,14.816,,,40,,,,,,,,,,10,wg-a,,,,AAXX 04154 07037 12215 80408 11050 21060 39863 40055 53006 60006 71022 876// 91500=
07037,1997-01-04 18:00:00,-5,1006.5,1,93,-6,0,14.816,,,50,-5.7,-4.3,,,,,,,,,wg-a,,,,AAXX 04184 07037 12/// /0508 11050 21060 39873 40065 53010 60006 91800 333 11043 21057=
07037,1997-01-05 00:00:00,-5,1008.5,1.3,93,-6,0,14.816,,,50,,,,,,,,,,,wg-a,,,,AAXX 05004 07037 12/// /0508 11050 21060 39892 40085 51013 60006 90000=
07037,1997-01-05 06:00:00,-4,1009.4,0.2,93,-5,3000,14.816,,,40,-5,-4.1,,,,,,,,10,wg-a,,,,AAXX 05064 07037 02230 80408 11040 21050 39902 40094 51002 60006 71022 886// 90600 333 11041 21050 60004=
07037,1997-01-05 09:00:00,-4,1010.8,1.3,93,-5,1500,11.112,,,60,,,,,,,,,,10,wg-a,,,,AAXX 05094 07037 02215 80606 11040 21050 39915 40108 51013 61000 71072 887// 90900 333 ////=
07037,1997-01-05 12:00:00,-4,1011.4,0.7,93,-5,2500,11.112,,,80,,,,,,,,,,10,wg-a,,,,AAXX 05124 07037 02225 80806 11040 21050 39922 40114 50007 61000 71072 887// 91200 333 6100=
07037,1997-01-05 15:00:00,-4,1012.1,0.7,93,-5,2500,11.112,,,90,,,,,,,,,,10,wg-a,,,,AAXX 05154 07037 02225 80906 11040 21050 39929 40121 53007 61000 71072 887// 91500 333 ////=
07037,1997-01-05 18:00:00,-4,1013.6,1.4,93,-5,0,14.816,,,90,-4.6,-3.3,,,,,,,,,wg-a,,,,AAXX 05184 07037 32/// /0908 11040 21050 39943 40136 51014 91800 333 11033 21046=
07037,1997-01-06 00:00:00,-3,1015.9,1.1,93,-4,0,14.816,,,60,,,,,,,,,,,wg-a,,,,AAXX 06004 07037 12/// /0608 11030 21040 39966 40159 53011 60006 90000=
07037,1997-01-06 06:00:00,-3,1016.8,0.8,93,-4,4000,22.224,,,70,-3.6,-2.6,,,,,,,,10,wg-a,,,,AAXX 06064 07037 02340 80712 11030 21040 39976 40168 53008 60006 71022 876// 90600 333 11026 21036 61000=
07037,1997-01-06 09:00:00,-3,1018.3,1.4,86,-5,4000,18.52,,,70,,,,,,,,,,10,wg-a,,,,AAXX 06094 07037 12640 70710 11030 21050 39990 40183 52014 60006 71022 875// 90900=
07037,1997-01-06 12:00:00,-1,1018.9,0.7,74,-5,4000,14.816,,,70,,,,,,,,,,10,wg-a,,,,AAXX 06124 07037 12640 20708 11010 21050 39997 40189 50007 60006 71011 82500 91200=
07037,1997-01-06 15:00:00,-2,1019,-0,80,-5,4000,11.112,,,60,,,,,,,,,,10,wg-a,,,,AAXX 06154 07037 12/40 00606 11020 21050 39997 40190 55000 60006 71000 80000 91500=
07037,1997-01-06 18:00:00,-4,1020.1,1,86,-6,4500,14.816,,,60,-4.4,-0.6,,,,,,,,10,wg-a,,,,AAXX 06184 07037 12345 /0608 11040 21060 30007 40201 51010 60006 71011 85600 91800 333 11006 21044=
07037,1997-01-07 00:00:00,-5,1020.4,-0.2,93,-6,0,11.112,,,40,,,,,,,,,,,wg-a,,,,AAXX 07004 07037 12/// /0406 11050 21060 30009 40204 56002 60006 90000=
07037,1997-01-07 06:00:00,-6,1020.1,-0.4,86,-8,2000,11.112,,,50,-6.5,-3.6,,,,,,,,10,wg-a,,,,AAXX 07064 07037 02220 80506 11060 21080 30005 40201 56004 60006 71022 887// 90600 333 11036 21065 60004=
07037,1997-01-07 09:00:00,-7,1020.8,0.7,93,-8,2000,7.408,,,130,,,,,,,,,,10,wg-a,,,,AAXX 07094 07037 12220 81304 11070 21080 30012 40208 53007 60006 71022 887// 90900=
07037,1997-01-07 12:00:00,-6,1020.2,-0.6,86,-8,1500,11.112,,,100,,,,,,,,,,10,wg-a,,,,AAXX 07124 07037 02215 81006 11060 21080 30006 40202 58006 61000 71072 887// 91200 333 6100=
07037,1997-01-07 15:00:00,-6,1018.7,-1.4,79,-9,4500,14.816,,,110,,,,,,,,,,10,wg-a,,,,AAXX 07154 07037 02345 81108 11060 21090 39992 40187 56014 61000 71072 887// 91500 333 ////=
07037,1997-01-07 18:00:00,-7,1018.8,-0,86,-9,3500,14.816,,,110,-7,-5.7,,,,,,,,10,wg-a,,,,AAXX 07184 07037 02335 81108 11070 21090 39992 40188 55000 61000 71072 887// 91800 333 11057 21070 ////=
07037,1997-01-08 00:00:00,-5,1014.9,-1.8,86,-7,0,22.224,,,110,,,,,,,,,,,wg-a,,,,AAXX 08004 07037 12/// /1112 11050 21070 39955 40149 58018 60006 90000=
07037,1997-01-08 06:00:00,-5,1011,-2,86,-7,4000,22.224,,,100,-7.2,-4.9,,,,,,,,10,wg-a,,,,AAXX 08064 07037 02440 81012 11050 21070 39917 40110 56020 60006 71022 8/500 90600 333 11049 21072 61000=
07037,1997-01-08 12:00:00,-4,1007.3,-2.3,93,-5,4000,22.224,,,80,,,,,,,,,,10,wg-a,,,,AAXX 08124 07037 12440 80812 11040 21050 39881 40073 58023 60006 71022 8/500 91200=
07037,1997-01-08 15:00:00,-4,1006,-1.3,93,-5,4000,14.816,,,100,,,,,,,,,,10,wg-a,,,,AAXX 08154 07037 12440 81008 11040 21050 39868 40060 58013 60006 71022 875// 91500=
07037,1997-01-08 18:00:00,-4,1004.9,-1,93,-5,3000,14.816,,,80,-5.4,-3.8,,,,,,,,10,wg-a,,,,AAXX 08184 07037 12430 80808 11040 21050 39858 40049 56010 60006 71022 886// 91800 333 11038 21054=
07037,1997-01-09 12:00:00,0,1005.5,0.7,100,0,1000,7.408,,,80,,,,1,,,,,,61,wg-a,,,,AAXX 09124 07037 02110 80804 10000 20000 39867 40055 51007 60016 76176 887// 91200 333 60017=
07037,1997-01-09 15:00:00,0,1006.8,1.2,100,0,1500,7.408,,,50,,,,1,,,,,,61,wg-a,,,,AAXX 09154 07037 12115 80504 10000 20000 39879 40068 53012 60017 76177 887// 91500=
07037,1997-01-09 18:00:00,0,1008.6,1.8,100,0,2000,7.408,,,50,-2.6,0.5,,,,,,,,66,wg-a,,,,AAXX 09184 07037 02220 80504 10000 20000 39897 40086 53018 61000 76676 887// 91800 333 10005 21026 6000=
07037,1997-01-10 06:00:00,-3,1016.3,1.6,93,-4,2500,11.112,,,340,-3.2,0.4,,,,,3,,,10,wg-a,,2,,AAXX 10064 07037 02225 83406 11030 21040 39970 40163 53016 60006 71022 886// 90600 333 10004 21032 4/002 60034=
07037,1997-01-10 09:00:00,-4,1018.6,2.2,100,-4,800,7.408,,,20,,,,,,,,,,10,wg-a,,,,AAXX 10094 07037 12108 80204 11040 21040 39992 40186 51022 60006 71042 886// 90900=
07037,1997-01-10 12:00:00,-4,1020.4,1.8,100,-4,1000,3.704,,,70,,,,,,,,,,10,wg-a,,,,AAXX 10124 07037 12210 80702 11040 21040 30010 40204 51018 60006 71042 886// 91200=
07037,1997-01-10 15:00:00,-3,1020.9,0.5,93,-4,1000,3.704,,,70,,,,,,,,,,10,wg-a,,,,AAXX 10154 07037 12210 80702 11030 21040 30015 40209 50005 60006 71022 886// 91500=
07037,1997-01-10 18:00:00,-3,1022,1.1,93,-4,800,7.408,,,150,-4.2,-2.7,,,,,,,,44,wg-a,,2,,AAXX 10184 07037 12108 81504 11030 21040 30026 40220 51011 60006 74442 886// 91800 333 11027 21042 4/002=
07037,1997-01-11 00:00:00,-3,1024.1,1.3,100,-3,0,0,,,0,,,,,,,,,,,wg-a,,,,AAXX 11004 07037 12/// /0000 11030 21030 30047 40241 51013 60006 90000=
07037,1997-01-11 06:00:00,-1,1024.2,0.8,100,-1,300,0,,,0,-3.5,-1.3,,,,,,,,45,wg-a,,0,,AAXX 11064 07037 02/03 90000 11010 21010 30049 40242 53008 60006 74542 89/// 90600 333 11013 21035 4/000 60004=
07037,1997-01-11 09:00:00,-1,1025.3,1.1,100,-1,100,0,,,0,,,,,,,,,,45,wg-a,,,,AAXX 11094 07037 12/01 90000 11010 21010 30060 40253 51011 60006 74544 89/// 90900=
07037,1997-01-11 12:00:00,0,1025.8,0.6,100,0,500,14.816,,,170,,,,,,,,,,45,wg-a,,,,AAXX 11124 07037 12/05 91708 10000 20000 30066 40258 51006 60006 74544 89/// 91200=
07037,1997-01-11 15:00:00,1,1025.9,0.2,100,1,2500,14.816,,,180,,,,,,,,,,10,wg-a,,,,AAXX 11154 07037 02225 81808 10010 20010 30068 40259 53002 61000 71054 886// 91500 333 ////=
07037,1997-01-11 18:00:00,1,1026.3,0.3,100,1,0,14.816,,,170,-1.4,1.4,,,,,,,,,wg-a,,,,AAXX 11184 07037 32/// /1708 10010 20010 30071 40263 50003 91800 333 10014 21014=
07037,1997-01-12 00:00:00,1,1027.8,0.8,100,1,0,14.816,,,170,,,,,,,,,,,wg-a,,,,AAXX 12004 07037 12/// /1708 10010 20010 30086 40278 53008 60006 90000=
07037,1997-01-12 06:00:00,2,1027.8,-0,93,1,500,14.816,,,170,0.8,1.6,,,,,,,,,wg-a,,,,AAXX 12064 07037 02300 81708 10020 20010 30086 40278 55000 60006 887// 90600 333 10016 20008 61000=
07037,1997-01-12 09:00:00,1,1029,1.2,100,1,1500,14.816,,,170,,,,,,,,,,10,wg-a,,,,AAXX 12094 07037 02215 81708 10010 20010 30098 40290 53012 61000 71052 887// 90900 333 ////=
07037,1997-01-12 12:00:00,3,1028.5,-0.4,93,2,1500,11.112,,,160,,,,,,,,,,10,wg-a,,,,AAXX 12124 07037 02215 81606 10030 20020 30094 40285 58004 61000 71052 887// 91200 333 6100=
07037,1997-01-12 15:00:00,6,1027.4,-0.9,75,2,8000,7.408,,,140,,,,,,,,,,20,wg-a,,,,AAXX 12154 07037 02558 /1404 10060 20020 30085 40274 55009 61000 72052 86530 91500 333 ////=
07037,1997-01-12 18:00:00,3,1028,0.5,87,1,0,11.112,,,130,0.8,5.8,,,,,,,,,wg-a,,,,AAXX 12184 07037 32/// /1306 10030 20010 30090 40280 51005 91800 333 10058 20008=
07037,1997-01-13 00:00:00,0,1027.6,-0.6,86,-2,0,11.112,,,150,,,,,,,,,,,wg-a,,,,AAXX 13004 07037 12/// /1506 10000 21020 30083 40276 58006 60006 90000=
07037,1997-01-13 06:00:00,-2,1026.6,-0.5,86,-4,10000,7.408,,,110,-2.2,3.4,,,,,,,,,wg-a,,,,AAXX 13064 07037 02/60 01104 11020 21040 30072 40266 58005 60006 80000 90600 333 10034 21022 61000=
07037,1997-01-13 09:00:00,1,1027.1,0.7,75,-3,500,14.816,,,130,,,,,,,,,,,wg-a,,,,AAXX 13094 07037 12/00 21308 10010 21030 30079 40271 53007 60006 80001 90900=
07037,1997-01-13 12:00:00,6,1026.1,-0.7,56,-2,10000,11.112,,,110,,,,,,,,,,,wg-a,,,,AAXX 13124 07037 12/60 21106 10060 21020 30072 40261 58007 60006 80001 91200=
07037,1997-01-13 15:00:00,5,1024.9,-1.2,60,-2,10000,11.112,,,100,,,,,,,,,,,wg-a,,,,AAXX 13154 07037 12/60 31006 10050 21020 30060 40249 56012 60006 80001 91500=
07037,1997-01-13 18:00:00,2,1024.9,-0.2,69,-3,10000,18.52,,,120,-2.4,6.6,,,,,,,,,wg-a,,,,AAXX 13184 07037 12/60 21210 10020 21030 30058 40249 58002 60006 80001 91800 333 10066 21024=
07037,1997-01-14 00:00:00,-2,1024.4,-0.7,86,-4,0,11.112,,,110,,,,,,,,,,,wg-a,,,,AAXX 14004 07037 12/// /1106 11020 21040 30051 40244 56007 60006 90000=
07037,1997-01-14 06:00:00,-4,1022.8,-0.8,86,-6,8000,3.704,,24.076,120,-3.5,1.9,,,,,,,,,wg-a,,,,AAXX 14064 07037 02/58 01202 11040 21060 30034 40228 57008 60006 80000 90600 333 10019 21035 60004 91013=
07037,1997-01-14 12:00:00,2,1022.4,-0.3,69,-3,6000,11.112,,,160,,,,,,,,,,,wg-a,,,,AAXX 14124 07037 12/56 01606 10020 21030 30034 40224 58003 60006 80000 91200=
07037,1997-01-14 15:00:00,4,1022,-0.3,65,-2,6000,11.112,,,140,,,,,,,,,,,wg-a,,,,AAXX 14154 07037 12/56 01406 10040 21020 30031 40220 55003 60006 80000 91500=
07037,1997-01-14 18:00:00,1,1022.4,0.2,75,-3,6000,11.112,,,130,-3.8,4.5,,,,,,,,,wg-a,,,,AAXX 14184 07037 12/56 01306 10010 21030 30033 40224 53002 60006 80000 91800 333 10045 21038=
07037,1997-01-15 06:00:00,-2,1023.2,-0.1,86,-4,6000,11.112,,,130,-3.4,0.7,,,,,,,,,wg-a,,,,AAXX 15064 07037 02/56 01306 11020 21040 30039 40232 55001 60006 80000 90600 333 10007 21034 60004=
07037,1997-01-15 09:00:00,-1,1024.3,1.1,86,-3,500,7.408,,,150,,,,,,,,,,,wg-a,,,,AAXX 15094 07037 12/00 01504 11010 21030 30050 40243 53011 60006 80000 90900=
07037,1997-01-15 12:00:00,5,1023.7,-0.2,65,-1,6000,11.112,,,150,,,,,,,,,,,wg-a,,,,AAXX 15124 07037 12/56 01506 10050 21010 30048 40237 58002 60006 80000 91200=
07037,1997-01-15 15:00:00,7,1022.8,-0.7,66,1,7000,11.112,,,150,,,,,,,,,,,wg-a,,,,AAXX 15154 07037 12/57 01506 10070 20010 30041 40228 56007 60006 80000 91500=
07037,1997-01-15 18:00:00,3,1023.2,0.1,81,0,500,11.112,,,150,-3,7,,,,,,,,,wg-a,,,,AAXX 15184 07037 12/00 /1506 10030 20000 30042 40232 51001 60006 91800 333 10070 21030=
07037,1997-01-16 00:00:00,1,1022.9,-0.3,86,-1,0,14.816,,,140,,,,,,,,,,,wg-a,,,,AAXX 16004 07037 12/// /1408 10010 21010 30038 40229 56003 60006 90000=
07037,1997-01-16 06:00:00,-1,1020.2,-1.2,86,-3,10000,11.112,,,130,-1.5,3,,,,,,,,,wg-a,,,,AAXX 16064 07037 02/60 01306 11010 21030 30010 40202 56012 60006 80000 90600 333 10030 21015 60004=
07037,1997-01-16 09:00:00,1,1020.4,0.3,80,-2,500,11.112,,,140,,,,,,,,,,,wg-a,,,,AAXX 16094 07037 12/00 01406 10010 21020 30013 40204 53003 60006 80000 90900=
07037,1997-01-16 12:00:00,6,1019.2,-0.8,75,2,8000,14.816,,,140,,,,,,,,,,,wg-a,,,,AAXX 16124 07037 12/58 01408 10060 20020 30005 40192 58008 60006 80000 91200=
07037,1997-01-16 15:00:00,7,1017.3,-1.8,70,2,12000,18.52,,,160,,,,,,,,,,,wg-a,,,,AAXX 16154 07037 12/62 01610 10070 20020 39987 40173 56018 60006 80000 91500=
07037,1997-01-16 18:00:00,5,1017.2,-0.3,75,1,10000,11.112,,,160,-1.6,7.5,,,,,,,,,wg-a,,,,AAXX 16184 07037 12/60 /1606 10050 20010 39984 40172 55003 60006 91800 333 10075 21016=
07037,1997-01-17 00:00:00,3,1015.2,-1.2,75,-1,0,18.52,,,160,,,,,,,,,,,wg-a,,,,AAXX 17004 07037 12/// /1610 10030 21010 39964 40152 57012 60006 90000=
07037,1997-01-17 06:00:00,2,1013.2,-1.4,87,0,12000,18.52,,,130,1.5,4.7,,,,,,,,,wg-a,,,,AAXX 17064 07037 02/62 31310 10020 20000 39943 40132 58014 60006 80001 90600 333 10047 20015 60004=
07037,1997-01-17 09:00:00,4,1013.1,0.1,75,0,10000,22.224,,,160,,,,,,,,,,,wg-a,,,,AAXX 17094 07037 12760 61612 10040 20000 39944 40131 51001 60006 86530 90900=
07037,1997-01-17 12:00:00,6,1012.9,-0.1,75,2,15000,18.52,,,180,,,,,,,,,,,wg-a,,,,AAXX 17124 07037 12565 71810 10060 20020 39943 40129 58001 60006 8353/ 91200=
07037,1997-01-17 15:00:00,5,1013.4,0.5,93,4,10000,11.112,,,200,,,,,,,,,,60,wg-a,,,,AAXX 17154 07037 02360 82006 10050 20040 39948 40134 53005 61000 76062 8657/ 91500 333 ////=
07037,1997-01-17 18:00:00,5,1015.3,1.8,100,5,2000,7.408,,,180,1.7,6.1,,0,,,,,,10,wg-a,,,,AAXX 17184 07037 02220 71804 10050 20050 39966 40153 52018 60006 71062 8677/ 91800 333 10061 20017 60007=
07037,1997-01-18 00:00:00,4,1017.9,0.7,93,3,0,11.112,,,180,,,,,,,,,,,wg-a,,,,AAXX 18004 07037 12/// /1806 10040 20030 39991 40179 50007 60006 90000=
07037,1997-01-18 06:00:00,4,1018.3,-0.2,100,4,300,14.816,,,210,2.7,4.9,,,,,,,,45,wg-a,,,,AAXX 18064 07037 02/03 92108 10040 20040 39995 40183 55002 61000 74554 89/// 90600 333 10049 20027 6001=
07037,1997-01-18 09:00:00,4,1019.2,0.9,100,4,500,14.816,,,200,,,,,,,,,,43,wg-a,,,,AAXX 18094 07037 32/05 92008 10040 20040 30004 40192 52009 74354 89/// 90900=
07037,1997-01-18 12:00:00,5,1017.1,-2,100,5,1800,18.52,,,150,,,,,,,,,,10,wg-a,,,,AAXX 18124 07037 12118 81510 10050 20050 39984 40171 58020 60006 71054 876// 91200=
07037,1997-01-18 15:00:00,5,1015.1,-2,100,5,700,14.816,,,150,,,,,,,,,,,wg-a,,,,AAXX 18154 07037 12/07 /1508 10050 20050 39964 40151 56020 60006 91500=
07037,1997-01-18 18:00:00,5,1012.8,-2.2,100,5,0,22.224,,,140,3.2,4.8,,,,,,,,,wg-a,,,,AAXX 18184 07037 32/// /1412 10050 20050 39942 40128 56022 91800 333 10048 20032=
07037,1997-01-19 00:00:00,4,1008.9,-2.2,100,4,0,22.224,,,120,,,,,,,,,,,wg-a,,,,AAXX 19004 07037 12/// /1212 10040 20040 39902 40089 58022 60016 90000=
07037,1997-01-19 06:00:00,5,1007.4,0.1,100,5,10000,18.52,,,170,3,5.7,,,,,2,,,,wg-a,,,,AAXX 19064 07037 02260 81710 10050 20050 39889 40074 53001 60006 887// 90600 333 10057 20030 60024=
07037,1997-01-19 09:00:00,5,1009,1.6,100,5,500,11.112,,,160,,,,,,,,,,,wg-a,,,,AAXX 19094 07037 12200 81606 10050 20050 39905 40090 53016 60006 887// 90900=
07037,1997-01-19 12:00:00,7,1009.6,0.6,93,6,6000,7.408,,,170,,,,,,,,,,,wg-a,,,,AAXX 19124 07037 12256 81704 10070 20060 39911 40096 50006 60006 887// 91200=
07037,1997-01-19 15:00:00,7,1010,0.5,100,7,6000,7.408,,,180,,,,,,,,,,,wg-a,,,,AAXX 19154 07037 12/56 /1804 10070 20070 39916 40100 53005 60006 91500=
07037,1997-01-19 18:00:00,5,1011.8,1.6,100,5,0,7.408,,,190,4.9,7.5,,,,,,,,,wg-a,,,,AAXX 19184 07037 12/// /1904 10050 20050 39932 40118 53016 60006 91800 333 10075 20049=
07037,1997-01-20 00:00:00,1,1015.4,1.2,100,1,0,3.704,,,120,,,,,,,,,,,wg-a,,,,AAXX 20004 07037 12/// /1202 10010 20010 39964 40154 51012 60006 90000=
07037,1997-01-20 06:00:00,2,1018,1.2,100,2,400,14.816,,,40,0.2,5.4,,,,,,,,45,wg-a,,,,AAXX 20064 07037 02/04 90408 10020 20020 39990 40180 53012 60006 74542 89/// 90600 333 10054 20002 60004=
07037,1997-01-20 09:00:00,3,1020.7,2.8,100,3,300,18.52,,,40,,,,,,,,,,45,wg-a,,,,AAXX 20094 07037 12/03 90410 10030 20030 30018 40207 53028 60006 74544 89/// 90900=
07037,1997-01-20 12:00:00,3,1022.9,2.2,100,3,3500,18.52,,,50,,,,,,,,,,10,wg-a,,,,AAXX 20124 07037 12235 70510 10030 20030 30040 40229 51022 60006 71042 876// 91200=
07037,1997-01-21 00:00:00,3,1026.9,0,87,1,0,22.224,,,60,,,,,,,,,,,wg-a,,,,AAXX 21004 07037 12/// /0612 10030 20010 30078 40269 50000 60006 90000=
07037,1997-01-21 06:00:00,1,1025.8,-0.8,100,1,4500,18.52,,,40,1.3,3.4,,,,,,,,10,wg-a,,,,AAXX 21064 07037 02245 80410 10010 20010 30067 40258 56008 60006 71022 877// 90600 333 10034 20013 60004=
07037,1997-01-21 09:00:00,1,1025.7,-0.2,100,1,3500,22.224,,,70,,,,,,,,,,10,wg-a,,,,AAXX 21094 07037 12235 80712 10010 20010 30065 40257 58002 60006 71022 877// 90900=
07037,1997-01-21 12:00:00,2,1023.5,-2,93,1,4500,25.928,,,80,,,,,,,,,,10,wg-a,,,,AAXX 21124 07037 12245 80814 10020 20010 30045 40235 58020 60006 71022 877// 91200=
07037,1997-01-21 15:00:00,3,1020.8,-2.6,93,2,8000,29.632,,,90,,,,,,,,,,,wg-a,,,,AAXX 21154 07037 12458 80916 10030 20020 30019 40208 56026 60006 877// 91500=
07037,1997-01-21 18:00:00,4,1018.5,-2.2,87,2,8000,25.928,,,90,0.6,3.8,,,,,,,,,wg-a,,,,AAXX 21184 07037 12458 60914 10040 20020 39997 40185 56022 60006 81531 91800 333 10038 20006=
07037,1997-01-22 00:00:00,4,1015.4,-1.6,93,3,0,29.632,,,130,,,,,,,,,,,wg-a,,,,AAXX 22004 07037 12/// /1316 10040 20030 39966 40154 56016 60006 90000=
07037,1997-01-22 06:00:00,6,1014.4,0.5,93,5,15000,18.52,,,170,3.2,6.3,,,,,,,,21,wg-a,,,,AAXX 22064 07037 02565 81710 10060 20050 39958 40144 51005 61000 72162 8557/ 90600 333 10063 20032 6000=
07037,1997-01-22 12:00:00,9,1016.3,0.8,87,7,15000,18.52,,,200,,,,,,,,,,,wg-a,,,,AAXX 22124 07037 12365 72010 10090 20070 39979 40163 50008 60006 878// 91200=
07037,1997-01-22 15:00:00,10,1016.3,0.1,82,7,15000,25.928,,,210,,,,,,,,,,,wg-a,,,,AAXX 22154 07037 12465 /2114 10100 20070 39980 40163 53001 60006 84201 91500=
07037,1997-01-22 18:00:00,7,1016.7,0.2,93,6,15000,14.816,,,170,6,10.6,,,,,,,,,wg-a,,,,AAXX 22184 07037 12665 31708 10070 20060 39982 40167 53002 60006 81130 91800 333 10106 20060=
07037,1997-01-23 00:00:00,5,1018.7,0.9,100,5,0,18.52,,,170,,,,,,,,,,,wg-a,,,,AAXX 23004 07037 12/// /1710 10050 20050 30000 40187 51009 60006 90000=
07037,1997-01-23 06:00:00,2,1020.8,0.8,100,2,15000,11.112,,,180,1.9,7.5,,,,,,,,3,wg-a,,,,AAXX 23064 07037 02365 41806 10020 20020 30018 40208 52008 60006 70386 84500 90600 333 10075 20019 60004=
07037,1997-01-23 09:00:00,3,1022.9,2.1,100,3,100,7.408,,,160,,,,,,,,,,44,wg-a,,,,AAXX 23094 07037 12101 81604 10030 20030 30039 40229 51021 60006 74441 887// 90900=
07037,1997-01-23 12:00:00,5,1023.1,0.4,100,5,100,7.408,,,130,,,,,,,,,,45,wg-a,,,,AAXX 23124 07037 12/01 91304 10050 20050 30043 40231 50004 60006 74541 89/// 91200=
07037,1997-01-23 15:00:00,5,1022.3,-0.8,100,5,700,7.408,,,40,,,,,,,,,,45,wg-a,,,,AAXX 23154 07037 12/07 90404 10050 20050 30035 40223 56008 60006 74544 89/// 91500=
07037,1997-01-23 18:00:00,4,1022.9,0.5,100,4,3000,7.408,,,70,1.7,4.9,,,,,,,,10,wg-a,,,,AAXX 23184 07037 12630 80704 10040 20040 30040 40229 53005 60006 71042 8/73/ 91800 333 10049 20017=
07037,1997-01-24 00:00:00,5,1023.8,0.1,100,5,0,3.704,,,50,,,,,,,,,,,wg-a,,,,AAXX 24004 07037 12/// /0502 10050 20050 30050 40238 50001 60016 90000=
07037,1997-01-24 06:00:00,5,1024.3,0.3,100,5,300,11.112,,,110,3.9,5.6,,,,,,,,45,wg-a,,,,AAXX 24064 07037 02/03 91106 10050 20050 30055 40243 53003 61000 74564 89/// 90600 333 10056 20039 6002=
07037,1997-01-24 09:00:00,5,1026.3,1.9,100,5,200,14.816,,,60,,,,,,,,,,45,wg-a,,,,AAXX 24094 07037 32/02 90608 10050 20050 30074 40263 51019 74566 89/// 90900=
07037,1997-01-24 12:00:00,6,1026.9,0.7,100,6,1600,11.112,,,90,,,,3,,,,,,10,wg-a,,,,AAXX 24124 07037 02116 80906 10060 20060 30081 40269 50007 60036 71066 886// 91200 333 60037=
07037,1997-01-24 15:00:00,7,1027.2,0.3,100,7,1500,7.408,,,120,,,,0,,,,,,10,wg-a,,,,AAXX 24154 07037 12115 81204 10070 20070 30084 40272 53003 60007 71062 875// 91500=
07037,1997-01-25 00:00:00,5,1030.4,0.7,100,5,0,7.408,,,90,,,,,,,,,,,wg-a,,,,AAXX 25004 07037 12/// /0904 10050 20050 30115 40304 51007 60006 90000=
07037,1997-01-25 06:00:00,5,1030.4,0.1,100,5,400,11.112,,,100,4.1,6.1,,,,,3,,,44,wg-a,,,,AAXX 25064 07037 02104 91006 10050 20050 30114 40304 50001 60006 74442 896// 90600 333 10061 20041 60034=
07037,1997-01-25 09:00:00,5,1031.4,1,100,5,100,11.112,,,70,,,,,,,,,,,wg-a,,,,AAXX 25094 07037 12/01 /0706 10050 20050 30124 40314 52010 60006 90900=
07037,1997-01-25 12:00:00,6,1031.3,0,100,6,600,18.52,,,70,,,,,,,,,,43,wg-a,,,,AAXX 25124 07037 12/06 90710 10060 20060 30124 40313 50000 60006 74344 89/// 91200=
07037,1997-01-25 15:00:00,6,1030.7,-0.6,100,6,1500,14.816,,,110,,,,,,,,,,10,wg-a,,,,AAXX 25154 07037 12115 81108 10060 20060 30118 40307 55006 60006 71042 887// 91500=
07037,1997-01-25 18:00:00,6,1031.2,0.5,100,6,0,14.816,,,100,4.5,6.1,,,,,,,,,wg-a,,,,AAXX 25184 07037 12/// /1008 10060 20060 30123 40312 53005 60006 91800 333 10061 20045=
07037,1997-01-26 00:00:00,1,1031.2,-0.3,100,1,0,14.816,,,80,,,,,,,,,,,wg-a,,,,AAXX 26004 07037 12/// /0808 10010 20010 30120 40312 57003 60006 90000=
07037,1997-01-26 06:00:00,0,1030.1,-0.6,100,0,15000,14.816,,,60,0,5.8,,,,,,,,,wg-a,,,,AAXX 26064 07037 02/65 00608 10000 20000 30108 40301 56006 60006 80000 90600 333 10058 20000 60004=
07037,1997-01-26 09:00:00,1,1030.4,0.4,93,0,15000,14.816,,,70,,,,,,,,,,,wg-a,,,,AAXX 26094 07037 12/65 00708 10010 20000 30112 40304 53004 60006 80000 90900=
07037,1997-01-26 12:00:00,1,1031,0.5,93,0,1200,14.816,,,80,,,,,,,,,,10,wg-a,,,,AAXX 26124 07037 12112 80808 10010 20000 30117 40310 52005 60006 71011 887// 91200=
07037,1997-01-26 15:00:00,0,1030.4,-0.6,93,-1,1200,14.816,,,70,,,,,,,,,,10,wg-a,,,,AAXX 26154 07037 12112 80708 10000 21010 30111 40304 57006 60006 71022 887// 91500=
07037,1997-01-26 18:00:00,0,1030.8,0.4,100,0,0,3.704,,,20,-0.6,3.4,,,,,,,,,wg-a,,,,AAXX 26184 07037 12/// /0202 10000 20000 30115 40308 53004 60006 91800 333 10034 21006=
07037,1997-01-27 00:00:00,1,1031,-0.2,93,0,0,14.816,,,30,,,,,,,,,,,wg-a,,,,AAXX 27004 07037 12/// /0308 10010 20000 30117 40310 55002 60006 90000=
07037,1997-01-27 06:00:00,-1,1031.8,0.4,100,-1,3000,7.408,,,30,-0.6,1.2,,,,,,,,10,wg-a,,,,AAXX 27064 07037 02130 80304 11010 21010 30124 40318 53004 61000 71052 877// 90600 333 10012 21006 6100=
07037,1997-01-27 09:00:00,0,1033.6,1.8,93,-1,3500,7.408,,,40,,,,,,,,,,10,wg-a,,,,AAXX 27094 07037 02235 80404 10000 21010 30142 40336 51018 61000 71052 877// 90900 333 ////=
07037,1997-01-27 12:00:00,1,1034.1,0.6,93,0,3000,7.408,,,280,,,,,,,,,,10,wg-a,,,,AAXX 27124 07037 02230 82804 10010 20000 30148 40341 51006 61000 71052 876// 91200 333 ////=
07037,1997-01-27 15:00:00,2,1034,-0,100,2,2500,14.816,,,340,,,,,,,,,,,wg-a,,,,AAXX 27154 07037 32/25 /3408 10020 20020 30148 40340 55000 91500=
07037,1997-01-27 18:00:00,2,1035.4,1.4,93,1,6000,3.704,,,340,-0.7,2.7,,,,,,,,1,wg-a,,,,AAXX 27184 07037 12256 83402 10020 20010 30162 40354 51014 60006 70154 876// 91800 333 10027 21007=
07037,1997-01-28 00:00:00,3,1036.4,0.2,100,3,0,7.408,,,330,,,,,,,,,,,wg-a,,,,AAXX 28004 07037 12/// /3304 10030 20030 30172 40364 50002 60006 90000=
07037,1997-01-28 06:00:00,3,1037,0.4,100,3,1800,14.816,,,30,2.3,3.7,,,,,,,,10,wg-a,,,,AAXX 28064 07037 02218 80308 10030 20030 30178 40370 53004 60006 71042 886// 90600 333 10037 20023 61000=
07037,1997-01-28 09:00:00,3,1038.6,1.5,93,2,3000,14.816,,,70,,,,,,,,,,10,wg-a,,,,AAXX 28094 07037 12230 80708 10030 20020 30193 40386 51015 60006 71022 886// 90900=
07037,1997-01-28 12:00:00,3,1039.3,0.7,93,2,3500,18.52,,,70,,,,,,,,,,10,wg-a,,,,AAXX 28124 07037 12235 80710 10030 20020 30200 40393 51007 60006 71022 886// 91200=
07037,1997-01-28 15:00:00,3,1039.1,-0.2,93,2,3500,18.52,,,70,,,,,,,,,,10,wg-a,,,,AAXX 28154 07037 12235 80710 10030 20020 30198 40391 56002 60006 71022 886// 91500=
07037,1997-01-28 18:00:00,3,1039.7,0.6,87,1,6000,18.52,,,60,2.5,3.4,,,,,,,,,wg-a,,,,AAXX 28184 07037 12356 80610 10030 20010 30204 40397 53006 60006 886// 91800 333 10034 20025=
07037,1997-01-29 00:00:00,1,1040.9,0.6,93,0,0,18.52,,,70,,,,,,,,,,,wg-a,,,,AAXX 29004 07037 12/// /0710 10010 20000 30215 40409 51006 60006 90000=
07037,1997-01-29 06:00:00,0,1040.1,-0.4,100,0,2500,18.52,,,80,-0.1,2.6,,,,,,,,10,wg-a,,,,AAXX 29064 07037 02125 80810 10000 20000 30206 40401 55004 60006 71022 886// 90600 333 10026 21001 60004=
07037,1997-01-29 09:00:00,-1,1040.8,0.6,100,-1,2000,18.52,,,100,,,,,,,,,,10,wg-a,,,,AAXX 29094 07037 12120 81010 11010 21010 30212 40408 51006 60006 71022 886// 90900=
07037,1997-01-29 12:00:00,0,1040.1,-0.6,93,-1,3000,22.224,,,90,,,,,,,,,,10,wg-a,,,,AAXX 29124 07037 12230 80912 10000 21010 30206 40401 58006 60006 71022 886// 91200=
07037,1997-01-29 15:00:00,2,1038.5,-1.4,87,0,12000,22.224,,,100,,,,,,,,,,,wg-a,,,,AAXX 29154 07037 12462 81012 10020 20000 30192 40385 56014 60006 875// 91500=
07037,1997-01-29 18:00:00,0,1038.9,0.2,93,-1,15000,11.112,,,100,-1.2,2,,,,,,,,,wg-a,,,,AAXX 29184 07037 12465 51006 10000 21010 30194 40389 51002 60006 84501 91800 333 10020 21012=
07037,1997-01-30 00:00:00,0,1038,-0.4,93,-1,0,14.816,,,80,,,,,,,,,,,wg-a,,,,AAXX 30004 07037 12/// /0808 10000 21010 30185 40380 55004 60006 90000=
07037,1997-01-30 06:00:00,0,1037.2,-0.2,93,-1,10000,18.52,,,100,-2,1.3,,,,,,,,,wg-a,,,,AAXX 30064 07037 02460 71010 10000 21010 30178 40372 55002 60006 875// 90600 333 10013 21020 60004=
07037,1997-01-30 09:00:00,0,1037.9,0.6,86,-2,7000,11.112,,,100,,,,,,,,,,,wg-a,,,,AAXX 30094 07037 12357 71006 10000 21020 30184 40379 53006 60006 875// 90900=
07037,1997-01-30 12:00:00,0,1037.7,-0.1,86,-2,4500,14.816,,,100,,,,,,,,,,10,wg-a,,,,AAXX 30124 07037 12345 71008 10000 21020 30183 40377 58001 60006 71022 875// 91200=
07037,1997-01-30 15:00:00,0,1036.3,-1.4,86,-2,500,14.816,,,80,,,,,,,,,,,wg-a,,,,AAXX 30154 07037 12300 70808 10000 21020 30169 40363 57014 60006 875// 91500=
07037,1997-01-30 18:00:00,-1,1036.5,0.1,93,-2,500,14.816,,,90,-0.5,0.3,,,,,,,,,wg-a,,,,AAXX 30184 07037 12/00 /0908 11010 21020 30170 40365 53001 60006 91800 333 10003 21005=
07037,1997-01-31 00:00:00,-1,1035.9,-0.4,93,-2,0,14.816,,,110,,,,,,,,,,,wg-a,,,,AAXX 31004 07037 12/// /1108 11010 21020 30164 40359 58004 60006 90000=
07037,1997-01-31 12:00:00,0,1034.1,-1,93,-1,3000,22.224,,,80,,,,,,,,,,10,wg-a,,,,AAXX 31124 07037 12230 80812 10000 21010 30147 40341 58010 60006 71022 886// 91200=
07037,1997-01-31 15:00:00,-1,1033.4,-0.7,93,-2,3000,22.224,,,100,,,,,,,,,,10,wg-a,,,,AAXX 31154 07037 12230 81012 11010 21020 30140 40334 56007 60006 71022 886// 91500=
07037,1997-01-31 18:00:00,-1,1033.5,0,93,-2,2500,18.52,,,110,-1.4,0.2,,,,,,,,10,wg-a,,,,AAXX 31184 07037 12225 81110 11010 21020 30140 40335 50000 60006 71022 886// 91800 333 10002 21014=
07037,1997-02-01 00:00:00,0,1032.7,0,93,-1,0,18.52,,,120,,,,,,,,,,,wg-a,,,,AAXX 01004 07037 12/// /1210 10000 21010 30133 40327 50000 60006 90000=
07037,1997-02-01 06:00:00,-2,1031.2,-0.6,93,-3,4000,14.816,,,130,-2.3,0.2,,,,,,,,10,wg-a,,,,AAXX 01064 07037 02/40 01308 11020 21030 30117 40312 55006 60006 71000 80000 90600 333 10002 21023 60004=
07037,1997-02-01 09:00:00,-1,1030.9,-0.2,100,-1,2500,14.816,,,140,,,,,,,,,,10,wg-a,,,,AAXX 01094 07037 12225 71408 11010 21010 30115 40309 55002 60006 71011 85531 90900=
07037,1997-02-01 12:00:00,-1,1030.7,-0.2,100,-1,1200,18.52,,,150,,,,,,,,,,10,wg-a,,,,AAXX 01124 07037 12112 81510 11010 21010 30113 40307 58002 60006 71011 886// 91200=
07037,1997-02-01 15:00:00,0,1029.5,-1.1,93,-1,1500,14.816,,,170,,,,,,,,,,10,wg-a,,,,AAXX 01154 07037 12115 81708 10000 21010 30102 40295 56011 60006 71022 886// 91500=
07037,1997-02-01 18:00:00,-1,1029.5,-0,100,-1,0,11.112,,,150,-2.1,-0.2,,,,,,,,,wg-a,,,,AAXX 01184 07037 12/// /1506 11010 21010 30102 40295 54000 60006 91800 333 11002 21021=
07037,1997-02-02 06:00:00,-2,1026.9,-0.4,100,-2,200,7.408,,,180,-2.1,-0.4,,,,,,,,45,wg-a,,,,AAXX 02064 07037 02/02 91804 11020 21020 30075 40269 58004 60006 74542 89/// 90600 333 11004 21021 60004=
07037,1997-02-02 09:00:00,-1,1027.1,0.3,100,-1,200,7.408,,,160,,,,,,,,,,45,wg-a,,,,AAXX 02094 07037 12/02 91604 11010 21010 30078 40271 52003 60006 74544 89/// 90900=
07037,1997-02-02 12:00:00,0,1027.7,0.7,100,0,200,7.408,,,210,,,,,,,,,,45,wg-a,,,,AAXX 02124 07037 12/02 92104 10000 20000 30085 40277 51007 60006 74544 89/// 91200=
07037,1997-02-02 15:00:00,1,1027.3,-0.4,100,1,200,3.704,,,190,,,,,,,,,,45,wg-a,,,,AAXX 02154 07037 12/02 91902 10010 20010 30081 40273 58004 60006 74544 89/// 91500=
07037,1997-02-02 18:00:00,1,1028.1,0.8,100,1,0,3.704,,,190,-1.7,1.2,,,,,,,,,wg-a,,,,AAXX 02184 07037 12/// /1902 10010 20010 30089 40281 53008 60006 91800 333 10012 21017=
07037,1997-02-03 06:00:00,2,1029.5,0.7,100,2,100,14.816,,,20,0.8,3.4,,,,,1,,,45,wg-a,,,,AAXX 03064 07037 02/01 90208 10020 20020 30103 40295 51007 60006 74542 89/// 90600 333 10034 20008 60014=
07037,1997-02-03 09:00:00,1,1030.4,0.8,100,1,500,3.704,,,50,,,,,,,,,,45,wg-a,,,,AAXX 03094 07037 12/00 90502 10010 20010 30111 40304 51008 60006 74544 89/// 90900=
07037,1997-02-03 12:00:00,1,1030.4,0.1,100,1,100,3.704,,,210,,,,,,,,,,43,wg-a,,,,AAXX 03124 07037 12/01 92102 10010 20010 30112 40304 50001 60006 74344 89/// 91200=
07037,1997-02-03 15:00:00,2,1029.3,-1.1,100,2,200,7.408,,,180,,,,,,,,,,,wg-a,,,,AAXX 03154 07037 12/02 /1804 10020 20020 30101 40293 56011 60006 91500=
07037,1997-02-03 18:00:00,2,1028.7,-0.5,100,2,6000,14.816,,,200,-0.2,1.9,,,,,,,,1,wg-a,,,,AAXX 03184 07037 12256 82008 10020 20020 30096 40287 55005 60006 70142 886// 91800 333 10019 21002=
07037,1997-02-04 00:00:00,1,1026.8,-1.5,100,1,0,14.816,,,200,,,,,,,,,,,wg-a,,,,AAXX 04004 07037 12/// /2008 10010 20010 30076 40268 58015 60006 90000=
07037,1997-02-04 06:00:00,3,1023,-2,100,3,500,25.928,,,220,0.7,3.1,,,,,,,,,wg-a,,,,AAXX 04064 07037 02300 82214 10030 20030 30040 40230 56020 60006 885// 90600 333 10031 20007 60004=
07037,1997-02-04 09:00:00,4,1022.4,-0.4,100,4,3500,31.484,,,220,,,,,,,,,,10,wg-a,,,,AAXX 04094 07037 12235 82217 10040 20040 30036 40224 55004 60006 71022 885// 90900=
07037,1997-02-04 12:00:00,6,1020.7,-1.6,93,5,6000,35.188,,,210,,,,,,,,,,,wg-a,,,,AAXX 04124 07037 12356 82119 10060 20050 30020 40207 58016 60006 885// 91200=
07037,1997-02-04 15:00:00,6,1018.3,-2.3,93,5,10000,29.632,,,220,,,,,,,,,,,wg-a,,,,AAXX 04154 07037 12460 82216 10060 20050 39997 40183 56023 60006 885// 91500=
07037,1997-02-04 18:00:00,6,1016.9,-1.4,100,6,500,31.484,,,210,3,6.9,,,,,,,,61,wg-a,,,,AAXX 04184 07037 02300 82117 10060 20060 39983 40169 58014 61000 76162 888// 91800 333 10069 20030 6001=
07037,1997-02-05 00:00:00,6,1013.7,-1.8,93,5,0,35.188,,,210,,,,0,,,,,,,wg-a,,,,AAXX 05004 07037 02/// /2119 10060 20050 39951 40137 58018 60026 90000 333 60007=
07037,1997-02-05 06:00:00,8,1013.1,1.8,93,7,10000,25.928,,,310,5.5,7.9,,,,,,,,21,wg-a,,,,AAXX 05064 07037 02260 83114 10080 20070 39946 40131 53018 61000 72162 887// 90600 333 10079 20055 6007=
07037,1997-02-05 09:00:00,7,1017.5,4.3,100,7,3500,22.224,,,300,,,,,,,,,,10,wg-a,,,,AAXX 05094 07037 12235 83012 10070 20070 39989 40175 53043 60006 71022 887// 90900=
07037,1997-02-05 12:00:00,6,1021.9,4.3,93,5,10000,18.52,,,340,,,,,,,,,,,wg-a,,,,AAXX 05124 07037 12360 73410 10060 20050 30032 40219 51043 60006 878// 91200=
07037,1997-02-05 15:00:00,7,1024.6,2.7,76,3,20000,22.224,,,310,,,,,,,,,,,wg-a,,,,AAXX 05154 07037 12570 43112 10070 20030 30059 40246 51027 60006 84200 91500=
07037,1997-02-05 18:00:00,3,1028.6,3.7,93,2,20000,14.816,,,280,3.3,7.6,,,,,,,,,wg-a,,,,AAXX 05184 07037 12470 42808 10030 20020 30096 40286 53037 60006 84200 91800 333 10076 20033=
07037,1997-02-06 00:00:00,1,1031.5,1.1,100,1,0,11.112,,,180,,,,,,,,,,,wg-a,,,,AAXX 06004 07037 12/// /1806 10010 20010 30123 40315 52011 60006 90000=
07037,1997-02-06 06:00:00,2,1031.7,0.9,100,2,15000,18.52,,,170,0.3,3.4,,,,,,,,,wg-a,,,,AAXX 06064 07037 02765 61710 10020 20020 30125 40317 53009 60006 86530 90600 333 10034 20003 60004=
07037,1997-02-06 09:00:00,2,1031.8,0.1,100,2,6000,18.52,,,170,,,,,,,,,,,wg-a,,,,AAXX 06094 07037 12756 31710 10020 20020 30126 40318 53001 60006 83530 90900=
07037,1997-02-06 12:00:00,9,1030.5,-0.8,71,4,20000,29.632,,,210,,,,,,,,,,,wg-a,,,,AAXX 06124 07037 12/70 22116 10090 20040 30118 40305 58008 60006 81031 91200=
07037,1997-02-06 15:00:00,10,1029.1,-1.3,66,4,20000,25.928,,,210,,,,,,,,,,,wg-a,,,,AAXX 06154 07037 12/70 12114 10100 20040 30105 40291 56013 60006 80001 91500=
07037,1997-02-06 18:00:00,7,1029.2,-0.1,70,2,25000,14.816,,,210,1.9,10.8,,,,,,,,,wg-a,,,,AAXX 06184 07037 12/75 22108 10070 20020 30104 40292 55001 60006 80001 91800 333 10108 20019=
07037,1997-02-07 00:00:00,5,1028.5,-0.3,75,1,0,14.816,,,170,,,,,,,,,,,wg-a,,,,AAXX 07004 07037 12/// /1708 10050 20010 30095 40285 55003 60006 90000=
07037,1997-02-07 06:00:00,4,1028.2,0.1,81,1,15000,11.112,,,180,3.3,6.5,,,,,,,,,wg-a,,,,AAXX 07064 07037 02565 /1806 10040 20010 30092 40282 53001 60006 86500 90600 333 10065 20033 60004=
07037,1997-02-07 09:00:00,4,1029.4,1.2,87,2,6000,7.408,,,170,,,,,,,,,,,wg-a,,,,AAXX 07094 07037 12656 71704 10040 20020 30104 40294 53012 60006 875// 90900=
07037,1997-02-07 12:00:00,8,1029.2,0.1,76,4,8000,7.408,,,190,,,,,,,,,,,wg-a,,,,AAXX 07124 07037 12758 /1904 10080 20040 30105 40292 50001 60006 86500 91200=
07037,1997-02-07 15:00:00,11,1028.7,-0.3,71,6,10000,11.112,,,180,,,,,,,,,,,wg-a,,,,AAXX 07154 07037 12760 51806 10110 20060 30102 40287 55003 60006 85501 91500=
07037,1997-02-07 18:00:00,9,1030.3,1.4,81,6,12000,11.112,,,210,2.8,11.4,,,,,,,,,wg-a,,,,AAXX 07184 07037 12662 /2106 10090 20060 30116 40303 53014 60006 85500 91800 333 10114 20028=
07037,1997-02-08 00:00:00,8,1032.4,1,87,6,0,7.408,,,250,,,,,,,,,,,wg-a,,,,AAXX 08004 07037 12/// /2504 10080 20060 30136 40324 53010 60006 90000=
07037,1997-02-08 06:00:00,6,1032.4,-0,100,6,2500,7.408,,,180,6.2,9.8,,,,,,,,,wg-a,,,,AAXX 08064 07037 02/25 /1804 10060 20060 30135 40324 55000 60006 90600 333 10098 20062 60004=
07037,1997-02-08 09:00:00,6,1033,0.6,100,6,3000,7.408,,,170,,,,,,,,,,10,wg-a,,,,AAXX 08094 07037 12530 81704 10060 20060 30141 40330 53006 60006 71022 8553/ 90900=
07037,1997-02-08 12:00:00,8,1032.5,-0.4,93,7,3500,3.704,,,210,,,,,,,,,,10,wg-a,,,,AAXX 08124 07037 12235 82102 10080 20070 30137 40325 58004 60006 71022 876// 91200=
07037,1997-02-08 15:00:00,11,1030.8,-1.4,87,9,4500,3.704,,,190,,,,,,,,,,10,wg-a,,,,AAXX 08154 07037 12445 71902 10110 20090 30123 40308 57014 60006 71022 875// 91500=
07037,1997-02-08 18:00:00,9,1030.6,-0.4,93,8,0,7.408,,,200,5.8,11.1,,,,,,,,,wg-a,,,,AAXX 08184 07037 12/// /2004 10090 20080 30119 40306 55004 60006 91800 333 10111 20058=
07037,1997-02-09 00:00:00,7,1030.6,0,100,7,0,11.112,,,210,,,,,,,,,,,wg-a,,,,AAXX 09004 07037 12/// /2106 10070 20070 30118 40306 50000 60006 90000=
07037,1997-02-09 06:00:00,4,1028.8,-0.7,100,4,800,7.408,,,170,3.9,8.9,,,,,,,,44,wg-a,,,,AAXX 09064 07037 02608 /1704 10040 20040 30098 40288 56007 60006 74441 83500 90600 333 10089 20039 60004=
07037,1997-02-09 09:00:00,5,1029.1,0.4,100,5,3000,11.112,,,180,,,,,,,,,,10,wg-a,,,,AAXX 09094 07037 12630 31806 10050 20050 30102 40291 52004 60006 71041 83500 90900=
07037,1997-02-09 12:00:00,12,1028.2,-0.5,67,6,10000,14.816,,,220,,,,,,,,,,1,wg-a,,,,AAXX 09124 07037 12/60 02208 10120 20060 30097 40282 58005 60006 70141 80000 91200=
07037,1997-02-09 18:00:00,9,1026.6,-0.2,71,4,0,14.816,,,190,3.1,14,,,,,,,,,wg-a,,,,AAXX 09184 07037 12/// /1908 10090 20040 30080 40266 55002 60006 91800 333 10140 20031=
07037,1997-02-10 00:00:00,5,1025,-1.3,93,4,0,18.52,,,220,,,,,,,,,,,wg-a,,,,AAXX 10004 07037 12/// /2210 10050 20040 30062 40250 56013 60006 90000=
07037,1997-02-10 06:00:00,7,1020.7,-1.9,93,6,10000,31.484,,,210,4.9,8.9,,,,,,,,,wg-a,,,,AAXX 10064 07037 02460 72117 10070 20060 30021 40207 57019 60006 875// 90600 333 10089 20049 60004=
07037,1997-02-10 09:00:00,8,1018.1,-2.5,87,6,6000,29.632,,,200,,,,,,,,,,,wg-a,,,,AAXX 10094 07037 12456 82016 10080 20060 39996 40181 56025 60006 875// 90900=
07037,1997-02-10 12:00:00,11,1015.3,-2.6,76,7,6000,42.596,,,210,,,,0,,,,,,,wg-a,,,,AAXX 10124 07037 02456 82123 10110 20070 39970 40153 58026 60006 8457/ 91200 333 60007=
07037,1997-02-10 15:00:00,9,1014.1,-1.2,100,9,4000,38.892,,,210,,,,2,,,,,,10,wg-a,,,,AAXX 10154 07037 12340 82121 10090 20090 39958 40141 56012 60027 71062 8657/ 91500=
07037,1997-02-10 18:00:00,8,1017.1,2.8,93,7,7000,25.928,,,290,7,10.7,,,,,,,,21,wg-a,,,,AAXX 10184 07037 02357 72914 10080 20070 39986 40171 53028 61000 72162 875// 91800 333 10107 20070 6002=
07037,1997-02-11 00:00:00,3,1023.2,1.9,87,1,0,11.112,,,230,,,,,,,,,,,wg-a,,,,AAXX 11004 07037 12/// /2306 10030 20010 30042 40232 51019 60006 90000=
07037,1997-02-11 06:00:00,1,1023.8,-0,93,0,15000,11.112,,,210,1.4,7.8,,,,,4,,,,wg-a,,,,AAXX 11064 07037 02/65 62106 10010 20000 30047 40238 54000 60006 80002 90600 333 10078 20014 60044=
07037,1997-02-11 09:00:00,3,1024.2,0.5,93,2,15000,14.816,,,200,,,,,,,,,,,wg-a,,,,AAXX 11094 07037 12665 82008 10030 20020 30052 40242 51005 60006 8557/ 90900=
07037,1997-02-11 12:00:00,8,1021.9,-1.9,81,5,15000,25.928,,,220,,,,,,,,,,,wg-a,,,,AAXX 11124 07037 12565 82214 10080 20050 30033 40219 58019 60006 8252/ 91200=
07037,1997-02-11 18:00:00,7,1015.7,-4,100,7,4000,31.484,,,190,1.5,9.4,,,,,,,,10,wg-a,,,,AAXX 11184 07037 02240 81917 10070 20070 39971 40157 58040 61000 71062 887// 91800 333 10094 20015 6003=
07037,1997-02-12 00:00:00,11,1014.2,0.5,100,11,0,29.632,,,250,,,,,,,,,,,wg-a,,,,AAXX 12004 07037 12/// /2516 10110 20110 39959 40142 53005 60046 90000=
07037,1997-02-12 06:00:00,10,1014.9,0.3,100,10,3500,29.632,,,250,6.8,10.9,,,,,,,,51,wg-a,,,,AAXX 12064 07037 02335 82516 10100 20100 39966 40149 53003 61000 75152 877// 90600 333 10109 20068 6008=
07037,1997-02-12 09:00:00,11,1014.7,-0.1,94,10,15000,25.928,,,240,,,,,,,,,,1,wg-a,,,,AAXX 12094 07037 02465 82414 10110 20100 39965 40147 56001 61000 70152 875// 90900 333 ////=
07037,1997-02-12 12:00:00,12,1012.8,-1.9,76,8,11000,42.596,,,230,,,,,,,,,,,wg-a,,,,AAXX 12124 07037 02/61 /2323 10120 20080 39946 40128 58019 61000 91200 333 ////=
07037,1997-02-12 15:00:00,13,1009.2,-3.5,67,7,25000,42.596,,61.116,230,,,,,,,,,,,wg-a,,,,AAXX 12154 07037 12675 72323 10130 20070 39911 40092 56035 60006 8683/ 91500 333 91033=
07037,1997-02-12 18:00:00,10,1007.3,-2,93,9,6000,35.188,,,220,10.1,13.1,,,,,,,,51,wg-a,,,,AAXX 12184 07037 02456 82219 10100 20090 39891 40073 56020 61000 75165 875// 91800 333 10131 20101 6000=
07037,1997-02-13 00:00:00,9,1004.5,0.2,87,7,0,35.188,,,280,,,,1,,,,,,,wg-a,,,,AAXX 13004 07037 02/// /2819 10090 20070 39863 40045 53002 60036 90000 333 60017=
07037,1997-02-13 06:00:00,5,1001,-1.7,87,3,15000,42.596,,68.524,270,5.1,10.5,,,,,,,,61,wg-a,,,,AAXX 13064 07037 02565 82723 10050 20030 39826 40010 56017 61000 76162 885// 90600 333 10105 20051 6006 91037=
07037,1997-02-13 09:00:00,6,1003.3,2.3,75,2,20000,42.596,,,270,,,,0,,,,,,1,wg-a,,,,AAXX 13094 07037 12570 72723 10060 20020 39849 40033 53023 60007 70186 86830 90900=
07037,1997-02-13 12:00:00,7,1006.6,3.3,61,0,25000,50.004,,85.192,280,,,,,,,,,,25,wg-a,,,,AAXX 13124 07037 12575 62827 10070 20000 39882 40066 53033 60006 72586 86800 91200 333 91046=
07037,1997-02-13 18:00:00,6,1011.8,2,70,1,25000,31.484,,,280,4.1,8.1,,,,,,,,1,wg-a,,,,AAXX 13184 07037 12575 32817 10060 20010 39932 40118 53020 60006 70186 82530 91800 333 10081 20041=
07037,1997-02-14 00:00:00,4,1009.9,-1.8,87,2,0,18.52,,,220,,,,,,,,,,,wg-a,,,,AAXX 14004 07037 12/// /2210 10040 20020 39913 40099 58018 60006 90000=
07037,1997-02-14 06:00:00,3,1004,-2.8,100,3,10000,18.52,,,160,3.1,5.9,,,,,1,,,3,wg-a,,,,AAXX 14064 07037 02260 81610 10030 20030 39854 40040 56028 60006 70362 887// 90600 333 10059 20031 60014=
07037,1997-02-14 12:00:00,5,1000.3,-1.6,100,5,3000,7.408,,,150,,,,1,,,,,,51,wg-a,,,,AAXX 14124 07037 02130 81504 10050 20050 39819 40003 56016 60026 75165 887// 91200 333 60017=
07037,1997-02-14 15:00:00,6,998.6,-1.6,100,6,1500,7.408,,,50,,,,3,,,,,,10,wg-a,,,,AAXX 14154 07037 12115 80504 10060 20060 39803 49986 57016 60037 71065 887// 91500=
07037,1997-02-14 18:00:00,6,998.5,-0.1,100,6,2000,7.408,,,70,2.8,6.7,,,,,,,,10,wg-a,,,,AAXX 14184 07037 02120 80704 10060 20060 39802 49985 55001 61000 71065 887// 91800 333 10067 20028 6006=
07037,1997-02-15 00:00:00,4,1005.8,4.8,93,3,0,25.928,,,30,,,,,,,,,,,wg-a,,,,AAXX 15004 07037 12/// /0314 10040 20030 39872 40058 53048 60016 90000=
07037,1997-02-15 06:00:00,2,1016.2,5,93,1,15000,11.112,,,330,1.6,6.3,,,,,12,,,,wg-a,,,,AAXX 15064 07037 02/65 43306 10020 20010 39973 40162 53050 60006 80001 90600 333 10063 20016 60124=
07037,1997-02-15 09:00:00,4,1020.5,4.3,93,3,12000,18.52,,,330,,,,,,,,,,,wg-a,,,,AAXX 15094 07037 12362 43310 10040 20030 30016 40205 53043 60006 84800 90900=
07037,1997-02-15 12:00:00,7,1022.9,2.6,76,3,20000,22.224,,,340,,,,,,,,,,,wg-a,,,,AAXX 15124 07037 12570 73412 10070 20030 30042 40229 51026 60006 878// 91200=
07037,1997-02-15 15:00:00,7,1023.8,0.9,61,0,500,18.52,,,300,,,,,,,,,,,wg-a,,,,AAXX 15154 07037 12500 43010 10070 20000 30051 40238 51009 60006 84200 91500=
07037,1997-02-16 00:00:00,0,1025.5,-0.9,100,0,0,11.112,,,170,,,,,,,,,,,wg-a,,,,AAXX 16004 07037 12/// /1706 10000 20000 30063 40255 56009 60006 90000=
07037,1997-02-16 06:00:00,0,1023.1,-1.3,93,-1,15000,11.112,,,160,-0.9,3.5,,,,,,,,,wg-a,,,,AAXX 16064 07037 02/65 31606 10000 21010 30039 40231 56013 60006 80001 90600 333 10035 21009 60004=
07037,1997-02-16 09:00:00,2,1021.8,-1.1,87,0,15000,22.224,,,160,,,,,,,,,,,wg-a,,,,AAXX 16094 07037 12/65 61612 10020 20000 30028 40218 56011 60006 82031 90900=
07037,1997-02-16 12:00:00,6,1020.5,-1,61,-1,20000,35.188,,,190,,,,,,,,,,,wg-a,,,,AAXX 16124 07037 12/70 71919 10060 21010 30018 40205 58010 60006 83037 91200=
07037,1997-02-16 15:00:00,7,1018,-2.4,61,0,25000,29.632,,,180,,,,,,,,,,,wg-a,,,,AAXX 16154 07037 12/75 81816 10070 20000 39994 40180 56024 60006 83037 91500=
07037,1997-02-16 18:00:00,4,1018.4,0.2,93,3,0,14.816,,,180,-0.7,6.7,,,,,,,,,wg-a,,,,AAXX 16184 07037 32/// /1808 10040 20030 39996 40184 53002 91800 333 10067 21007=
07037,1997-02-17 00:00:00,5,1017.7,0,100,5,0,25.928,,,200,,,,,,,,,,,wg-a,,,,AAXX 17004 07037 12/// /2014 10050 20050 39990 40177 50000 60006 90000=
07037,1997-02-17 06:00:00,5,1018,0.5,100,5,15000,18.52,,,200,3.6,6.4,,,,,3,,,,wg-a,,,,AAXX 17064 07037 02665 62010 10050 20050 39993 40180 50005 60006 84530 90600 333 10064 20036 60034=
07037,1997-02-17 09:00:00,7,1019.3,1.4,93,6,15000,22.224,,,210,,,,,,,,,,,wg-a,,,,AAXX 17094 07037 12565 72112 10070 20060 30007 40193 51014 60006 82530 90900=
07037,1997-02-17 12:00:00,10,1018.8,-0.3,76,6,12000,29.632,,,230,,,,,,,,,,,wg-a,,,,AAXX 17124 07037 12562 72316 10100 20060 30004 40188 58003 60006 878// 91200=
07037,1997-02-17 15:00:00,10,1018,-0.8,82,7,12000,29.632,,,220,,,,,,,,,,,wg-a,,,,AAXX 17154 07037 12562 72216 10100 20070 39996 40180 56008 60006 85801 91500=
07037,1997-02-17 18:00:00,10,1017.3,-0.7,82,7,12000,31.484,,,210,4.9,10.5,,,,,,,,60,wg-a,,,,AAXX 17184 07037 02662 72117 10100 20070 39989 40173 55007 61000 76062 878// 91800 333 10105 20049 ////=
07037,1997-02-18 00:00:00,9,1014.1,-2,93,8,0,29.632,,,210,,,,,,,,,,,wg-a,,,,AAXX 18004 07037 12/// /2116 10090 20080 39957 40141 58020 60036 90000=
07037,1997-02-18 06:00:00,10,1010.5,-1,93,9,11000,31.484,,,230,8.4,9.8,,,,,6,,,,wg-a,,,,AAXX 18064 07037 02/61 /2317 10100 20090 39922 40105 55010 60006 90600 333 10098 20084 60064=
07037,1997-02-18 09:00:00,11,1010.6,0.2,71,6,20000,38.892,,61.116,260,,,,,,,,,,3,wg-a,,,,AAXX 18094 07037 02370 62621 10110 20060 39924 40106 50002 61000 70362 86800 90900 333 //// 91033=
07037,1997-02-18 12:00:00,7,1012.9,2,76,3,25000,38.892,,68.524,260,,,,1,,,,,,25,wg-a,,,,AAXX 18124 07037 02475 /2621 10070 20030 39944 40129 51020 60016 72586 86200 91200 333 60017 91037=
07037,1997-02-18 15:00:00,9,1015,2.2,61,2,11000,42.596,,,280,,,,0,,,,,,,wg-a,,,,AAXX 18154 07037 12/61 /2823 10090 20020 39966 40150 53022 60007 91500=
07037,1997-02-19 00:00:00,4,1027.5,3.1,81,1,0,14.816,,,270,,,,,,,,,,,wg-a,,,,AAXX 19004 07037 12/// /2708 10040 20010 30085 40275 51031 60006 90000=
07037,1997-02-19 06:00:00,3,1029.2,0,93,2,15000,11.112,,,200,2.5,,,,,,2,,,,wg-a,,,,AAXX 19064 07037 02/65 72006 10030 20020 30101 40292 50000 60006 8703/ 90600 333 10053 20025 60024=
07037,1997-02-19 09:00:00,4,1028.1,-1,87,2,10000,22.224,,,180,,,,,,,,,,,wg-a,,,,AAXX 19094 07037 12560 71812 10040 20020 30091 40281 58010 60006 8257/ 90900=
07037,1997-02-19 12:00:00,8,1024.3,-3.5,76,4,25000,29.632,,,190,,,,,,,,,,,wg-a,,,,AAXX 19124 07037 12575 71916 10080 20040 30056 40243 58035 60006 8127/ 91200=
07037,1997-02-19 15:00:00,10,1019.8,-4.2,71,5,25000,46.3,,,210,,,,,,,,,,,wg-a,,,,AAXX 19154 07037 12575 72125 10100 20050 30014 40198 58042 60006 8557/ 91500=
07037,1997-02-19 18:00:00,10,1015.3,-4.4,76,6,15000,35.188,,,210,2.6,10,,,,,,,,,wg-a,,,,AAXX 19184 07037 12565 82119 10100 20060 39970 40153 56044 60006 875// 91800 333 10100 20026=
07037,1997-02-20 00:00:00,8,1020,5.8,81,5,0,31.484,,,280,,,,0,,,,,,,wg-a,,,,AAXX 20004 07037 02/// /2817 10080 20050 30015 40200 51058 60026 90000 333 60007=
07037,1997-02-20 09:00:00,7,1027,1.7,87,5,15000,18.52,,,230,,,,,,,,,,,wg-a,,,,AAXX 20094 07037 12565 62310 10070 20050 30083 40270 53017 60006 84831 90900=
07037,1997-02-20 15:00:00,10,1025.5,-1.5,62,3,20000,25.928,,,240,,,,,,,,,,,wg-a,,,,AAXX 20154 07037 12670 82414 10100 20030 30070 40255 58015 60006 888// 91500=
07037,1997-02-20 18:00:00,10,1024.6,-0.9,66,4,11000,25.928,,,230,5,12,,,,,,,,,wg-a,,,,AAXX 20184 07037 12/61 /2314 10100 20040 30061 40246 56009 60006 91800 333 10120 20050=
07037,1997-02-21 00:00:00,9,1024.4,0,76,5,0,25.928,,,240,,,,,,,,,,,wg-a,,,,AAXX 21004 07037 12/// /2414 10090 20050 30058 40244 50000 60006 90000=
07037,1997-02-21 06:00:00,9,1024.8,1,76,5,20000,25.928,,,230,8.4,9.8,,,,,,,,,wg-a,,,,AAXX 21064 07037 02570 82314 10090 20050 30062 40248 51010 60006 885// 90600 333 10098 20084 60004=
07037,1997-02-21 12:00:00,10,1027.9,1.3,82,7,20000,25.928,,,260,,,,,,,,,,,wg-a,,,,AAXX 21124 07037 12470 82614 10100 20070 30094 40279 51013 60006 885// 91200=
07037,1997-02-21 15:00:00,10,1028,0.1,87,8,15000,29.632,,,240,,,,,,,,,,,wg-a,,,,AAXX 21154 07037 12465 82416 10100 20080 30095 40280 53001 60006 885// 91500=
07037,1997-02-21 18:00:00,10,1029.7,1.6,87,8,10000,22.224,,,250,8.4,10.6,,0,,,,,,20,wg-a,,,,AAXX 21184 07037 12460 82512 10100 20080 30111 40297 53016 60007 72052 887// 91800 333 10106 20084=
07037,1997-02-22 00:00:00,10,1030.7,0,87,8,0,14.816,,,250,,,,,,,,,,,wg-a,,,,AAXX 22004 07037 12/// /2508 10100 20080 30121 40307 50000 60006 90000=
07037,1997-02-22 06:00:00,8,1029.7,-0.6,93,7,20000,11.112,,,200,7.8,10.1,,,,,,,,,wg-a,,,,AAXX 22064 07037 02670 72006 10080 20070 30110 40297 58006 60006 875// 90600 333 10101 20078 60004=
07037,1997-02-22 09:00:00,9,1029.7,-0,93,8,20000,11.112,,,190,,,,,,,,,,,wg-a,,,,AAXX 22094 07037 12570 71906 10090 20080 30110 40297 55000 60006 875// 90900=
07037,1997-02-22 12:00:00,12,1027.8,-1.6,71,7,25000,14.816,,,220,,,,,,,,,,,wg-a,,,,AAXX 22124 07037 12575 72208 10120 20070 30094 40278 58016 60006 878// 91200=
07037,1997-02-22 15:00:00,13,1024.7,-3,67,7,25000,14.816,,,170,,,,,,,,,,,wg-a,,,,AAXX 22154 07037 12575 /1708 10130 20070 30064 40247 56030 60006 83102 91500=
07037,1997-02-22 18:00:00,10,1023.3,-1.6,82,7,0,11.112,,,170,7.6,14.3,,,,,,,,,wg-a,,,,AAXX 22184 07037 12/// /1706 10100 20070 30048 40233 56016 60006 91800 333 10143 20076=
07037,1997-02-23 00:00:00,8,1019,-2.4,93,7,0,3.704,,,230,,,,,,,,,,,wg-a,,,,AAXX 23004 07037 12/// /2302 10080 20070 30005 40190 56024 60006 90000=
07037,1997-02-23 06:00:00,5,1015.7,-1.5,100,5,15000,11.112,,,170,4,10.1,,,,,,,,,wg-a,,,,AAXX 23064 07037 02665 31706 10050 20050 39970 40157 56015 60006 81501 90600 333 10101 20040 60004=
07037,1997-02-23 09:00:00,8,1015.2,-0.3,93,7,8000,25.928,,,220,,,,,,,,,,,wg-a,,,,AAXX 23094 07037 12558 /2214 10080 20070 39967 40152 55003 60006 83530 90900=
07037,1997-02-23 12:00:00,10,1014.2,-0.8,87,8,8000,31.484,,,220,,,,,,,,,,,wg-a,,,,AAXX 23124 07037 12458 72217 10100 20080 39959 40142 58008 60006 875// 91200=
07037,1997-02-23 15:00:00,12,1011.6,-2.5,76,8,15000,29.632,,,220,,,,,,,,,,,wg-a,,,,AAXX 23154 07037 12565 72216 10120 20080 39934 40116 58025 60006 8553/ 91500=
07037,1997-02-23 18:00:00,12,1009.3,-2.2,76,8,0,25.928,,,200,4.6,12.1,,,,,,,,,wg-a,,,,AAXX 23184 07037 12/// /2014 10120 20080 39912 40093 58022 60006 91800 333 10121 20046=
07037,1997-02-24 00:00:00,11,1004.7,-2.5,82,8,0,42.596,,,200,,,,,,,,,,,wg-a,,,,AAXX 24004 07037 12/// /2023 10110 20080 39866 40047 58025 60006 90000=
07037,1997-02-24 09:00:00,9,1001.3,0.4,93,8,12000,22.224,,,240,,,,8,,,,,,61,wg-a,,,,AAXX 24094 07037 12262 82412 10090 20080 39832 40013 51004 60087 76162 878// 90900=
07037,1997-02-24 12:00:00,10,1001.7,0.4,82,7,20000,29.632,,,230,,,,0,,,,,,1,wg-a,,,,AAXX 24124 07037 02570 82316 10100 20070 39836 40017 52004 60096 70162 8252/ 91200 333 60007=
07037,1997-02-24 15:00:00,10,999.4,-2.2,82,7,18000,31.484,,,220,,,,,,,,,,,wg-a,,,,AAXX 24154 07037 12568 82217 10100 20070 39814 49994 57022 60006 876// 91500=
07037,1997-02-25 00:00:00,13,994.8,1,88,11,0,42.596,,,230,,,,0,,,,,,,wg-a,,,,AAXX 25004 07037 02/// /2323 10130 20110 39770 49948 53010 60016 90000 333 60007=
07037,1997-02-25 06:00:00,10,997.9,1.4,87,8,15000,22.224,,,240,9.2,13.2,,,,,,,,61,wg-a,,,,AAXX 25064 07037 02565 72412 10100 20080 39799 49979 51014 61000 76162 875// 90600 333 10132 20092 6016=
07037,1997-02-25 12:00:00,11,1001.8,2.5,76,7,15000,38.892,,59.264,240,,,,,,,,,,21,wg-a,,,,AAXX 25124 07037 02565 82421 10110 20070 39837 40018 53025 61000 72162 8352/ 91200 333 6100 91032=
07037,1997-02-25 18:00:00,11,1002.4,0.8,76,7,11000,29.632,,,240,9.3,12.3,,,,,,,,,wg-a,,,,AAXX 25184 07037 02/61 /2416 10110 20070 39843 40024 52008 60006 91800 333 10123 20093 61000=
07037,1997-02-26 00:00:00,9,1005.4,1.5,87,7,0,31.484,,,270,,,,2,,,,,,,wg-a,,,,AAXX 26004 07037 02/// /2717 10090 20070 39872 40054 53015 60026 90000 333 60027=
07037,1997-02-26 12:00:00,11,1013.4,1.6,58,3,15000,35.188,,,270,,,,,,,,,,,wg-a,,,,AAXX 26124 07037 12665 72719 10110 20030 39951 40134 51016 60006 872// 91200=
07037,1997-02-27 00:00:00,6,1027.6,3.9,87,4,0,25.928,,,290,,,,,,,,,,,wg-a,,,,AAXX 27004 07037 12/// /2914 10060 20040 30088 40276 52039 60006 90000=
07037,1997-02-27 06:00:00,4,1033.4,2.5,100,4,9000,11.112,,,290,4,7.5,,,,,3,,,,wg-a,,,,AAXX 27064 07037 02259 32906 10040 20040 30143 40334 52025 60006 83600 90600 333 10075 20040 60034=
07037,1997-02-27 12:00:00,9,1035.4,0.1,76,5,20000,22.224,,,210,,,,,,,,,,,wg-a,,,,AAXX 27124 07037 12470 /2112 10090 20050 30166 40354 52001 60006 82230 91200=
07037,1997-02-27 18:00:00,10,1033.8,-0.1,66,4,10000,22.224,,,190,3.8,12.6,,,,,,,,,wg-a,,,,AAXX 27184 07037 12/60 /1912 10100 20040 30151 40338 55001 60006 91800 333 10126 20038=
07037,1997-02-28 00:00:00,7,1031,-1.9,81,4,0,18.52,,,180,,,,,,,,,,,wg-a,,,,AAXX 28004 07037 12/// /1810 10070 20040 30121 40310 58019 60006 90000=
07037,1997-02-28 06:00:00,5,1029,-0.4,75,1,25000,22.224,,,180,5.1,9.9,,,,,,,,,wg-a,,,,AAXX 28064 07037 02775 71812 10050 20010 30101 40290 55004 60006 8753/ 90600 333 10099 20051 60004=
07037,1997-02-28 15:00:00,14,1024.5,-1.3,47,3,10000,22.224,,,200,,,,,,,,,,,wg-a,,,,AAXX 28154 07037 12/60 /2012 10140 20030 30062 40245 56013 60006 91500=
07037,1997-02-28 18:00:00,11,1025.2,0.5,66,5,500,18.52,,,240,4.6,15.7,,,,,,,,,wg-a,,,,AAXX 28184 07037 12/00 42410 10110 20050 30067 40252 53005 60006 83031 91800 333 10157 20046=
07037,1997-03-01 00:00:00,9,1026.8,1.2,93,8,0,14.816,,,300,,,,,,,,,,,wg-a,,,,AAXX 01004 07037 12/// /3008 10090 20080 30082 40268 52012 60006 90000=
07037,1997-03-01 06:00:00,7,1027.2,-0.2,93,6,500,3.704,,,180,6.4,10.9,,,,,,,,,wg-a,,,,AAXX 01064 07037 02200 51802 10070 20060 30084 40272 58002 60006 85500 90600 333 10109 20064 60004=
07037,1997-03-01 09:00:00,8,1028.4,1.3,100,8,10000,11.112,,,180,,,,,,,,,,,wg-a,,,,AAXX 01094 07037 12260 71806 10080 20080 30097 40284 51013 60006 875// 90900=
07037,1997-03-01 12:00:00,12,1026.6,-1.5,82,9,15000,29.632,,,200,,,,,,,,,,,wg-a,,,,AAXX 01124 07037 12465 72016 10120 20090 30082 40266 56015 60006 878// 91200=
07037,1997-03-01 15:00:00,13,1024.9,-1.6,82,10,20000,22.224,,,220,,,,,,,,,,,wg-a,,,,AAXX 01154 07037 12470 72212 10130 20100 30066 40249 56016 60006 878// 91500=
07037,1997-03-01 18:00:00,12,1024.7,-0.3,88,10,0,22.224,,,210,6.4,13.2,,,,,,,,,wg-a,,,,AAXX 01184 07037 12/// /2112 10120 20100 30063 40247 56003 60006 91800 333 10132 20064=
07037,1997-03-02 00:00:00,8,1022.6,-1.1,100,8,0,18.52,,,190,,,,,,,,,,,wg-a,,,,AAXX 02004 07037 12/// /1910 10080 20080 30040 40226 58011 60006 90000=
07037,1997-03-02 06:00:00,8,1021.5,0.6,93,7,15000,14.816,,,250,7.6,11.8,,,,,,,,21,wg-a,,,,AAXX 02064 07037 02465 72508 10080 20070 30029 40215 51006 61000 72161 875// 90600 333 10118 20076 6000=
07037,1997-03-02 09:00:00,10,1021.9,0.6,93,9,15000,14.816,,,210,,,,,,,,,,,wg-a,,,,AAXX 02094 07037 12465 72108 10100 20090 30035 40219 50006 60006 875// 90900=
07037,1997-03-02 12:00:00,13,1022.9,1.1,77,9,15000,29.632,,48.152,240,,,,,,,,,,,wg-a,,,,AAXX 02124 07037 12465 72416 10130 20090 30046 40229 53011 60006 875// 91200 333 91026=
07037,1997-03-02 15:00:00,13,1023.8,0.9,82,10,12000,29.632,,,240,,,,,,,,,,50,wg-a,,,,AAXX 02154 07037 02462 82416 10130 20100 30055 40238 53009 61000 75052 885// 91500 333 ////=
07037,1997-03-02 18:00:00,9,1026.5,2.4,100,9,0,14.816,,,310,7.8,13.1,,,,,,,,,wg-a,,,,AAXX 02184 07037 32/// /3108 10090 20090 30079 40265 53024 91800 333 10131 20078=
07037,1997-03-03 00:00:00,7,1030.5,1.6,87,5,0,11.112,,,260,,,,,,,,,,,wg-a,,,,AAXX 03004 07037 12/// /2606 10070 20050 30117 40305 51016 60016 90000=
07037,1997-03-03 06:00:00,6,1032.5,1,100,6,20000,7.408,,,190,6,9.3,,,,,2,,,,wg-a,,,,AAXX 03064 07037 02470 71904 10060 20060 30136 40325 51010 60006 878// 90600 333 10093 20060 60024=
07037,1997-03-03 09:00:00,7,1033.6,1.2,100,7,15000,7.408,,,170,,,,,,,,,,,wg-a,,,,AAXX 03094 07037 12665 81704 10070 20070 30148 40336 53012 60006 885// 90900=
07037,1997-03-03 12:00:00,9,1032.5,-1,87,7,20000,18.52,,,140,,,,,,,,,,,wg-a,,,,AAXX 03124 07037 12470 81410 10090 20070 30138 40325 58010 60006 888// 91200=
07037,1997-03-03 15:00:00,8,1031.3,-1.2,100,8,3000,18.52,,,160,,,,,,,,,,51,wg-a,,,,AAXX 03154 07037 02130 81610 10080 20080 30126 40313 58012 61000 75165 887// 91500 333 ////=
07037,1997-03-03 18:00:00,9,1030,-1.2,100,9,2000,14.816,,,160,6,9.4,,,,,,,,10,wg-a,,,,AAXX 03184 07037 02120 81608 10090 20090 30114 40300 55012 61000 71065 877// 91800 333 10094 20060 6001=
07037,1997-03-04 00:00:00,10,1028,-1.1,100,10,0,14.816,,,170,,,,,,,,,,,wg-a,,,,AAXX 04004 07037 12/// /1708 10100 20100 30095 40280 56011 60006 90000=
07037,1997-03-04 06:00:00,9,1026.6,-0.6,93,8,15000,7.408,,,170,8.9,10.6,,,,,1,,,,wg-a,,,,AAXX 04064 07037 02/65 71704 10090 20080 30080 40266 58006 60006 8707/ 90600 333 10106 20089 60014=
07037,1997-03-04 12:00:00,13,1026.3,-0,82,10,8000,18.52,,,230,,,,,,,,,,,wg-a,,,,AAXX 04124 07037 12/58 82310 10130 20100 30080 40263 55000 60006 8802/ 91200=
07037,1997-03-04 15:00:00,13,1024.4,-1.9,82,10,12000,14.816,,,160,,,,,,,,,,60,wg-a,,,,AAXX 04154 07037 02762 81608 10130 20100 30061 40244 56019 61000 76062 8352/ 91500 333 ////=
07037,1997-03-04 18:00:00,12,1024.5,0,94,11,11000,14.816,,,180,9,14,,,,,,,,21,wg-a,,,,AAXX 04184 07037 02/61 /1808 10120 20110 30061 40245 50000 61000 72162 91800 333 10140 20090 ////=
07037,1997-03-05 00:00:00,8,1026.3,0.2,93,7,0,11.112,,,270,,,,,,,,,,,wg-a,,,,AAXX 05004 07037 12/// /2706 10080 20070 30076 40263 51002 60006 90000=
07037,1997-03-05 06:00:00,6,1027.1,0.6,100,6,15000,22.224,,,260,6.3,11.8,,,,,,,,60,wg-a,,,,AAXX 05064 07037 02265 82612 10060 20060 30083 40271 51006 61000 76062 877// 90600 333 10118 20063 6001=
07037,1997-03-05 09:00:00,6,1028.7,1.5,93,5,11000,14.816,,,280,,,,,,,,,,,wg-a,,,,AAXX 05094 07037 32/61 /2808 10060 20050 30098 40287 53015 90900=
07037,1997-03-05 12:00:00,8,1028.9,0.4,81,5,20000,14.816,,,250,,,,,,,,,,1,wg-a,,,,AAXX 05124 07037 02570 72508 10080 20050 30102 40289 51004 60006 70186 875// 91200 333 61000=
07037,1997-03-05 15:00:00,10,1028.3,-0.5,66,4,500,18.52,,,270,,,,,,,,,,,wg-a,,,,AAXX 05154 07037 12500 72710 10100 20040 30097 40283 56005 60006 878// 91500=
07037,1997-03-05 18:00:00,9,1028.3,-0,71,4,20000,14.816,,,240,5.9,10.1,,,,,,,,,wg-a,,,,AAXX 05184 07037 12570 72408 10090 20040 30097 40283 55000 60006 875// 91800 333 10101 20059=
07037,1997-03-06 00:00:00,8,1027.9,-0.3,100,8,0,11.112,,,220,,,,,,,,,,,wg-a,,,,AAXX 06004 07037 12/// /2206 10080 20080 30092 40279 57003 60016 90000=
07037,1997-03-06 06:00:00,9,1029.3,1.2,100,9,1200,14.816,,,320,7.5,9.7,,,,,,,,50,wg-a,,,,AAXX 06064 07037 02112 83208 10090 20090 30107 40293 53012 61000 75065 887// 90600 333 10097 20075 6003=
07037,1997-03-06 09:00:00,9,1031.6,2.2,100,9,8000,11.112,,,30,,,,,,,,,,1,wg-a,,,,AAXX 06094 07037 02258 70306 10090 20090 30129 40316 53022 61000 70154 876// 90900 333 ////=
07037,1997-03-06 15:00:00,11,1031.8,-0.4,87,9,7000,7.408,,,70,,,,,,,,,,,wg-a,,,,AAXX 06154 07037 12457 70704 10110 20090 30132 40318 56004 60006 875// 91500=
07037,1997-03-06 18:00:00,10,1031.2,0.2,93,9,10000,7.408,,,20,8.4,13.7,,,,,,,,0,wg-a,,,,AAXX 06184 07037 12660 50204 10100 20090 30229 40312 53002 60006 700// 83502 91800 333 10137 20084=
07037,1997-03-07 00:00:00,8,1032,-0.6,93,7,0,14.816,,,140,,,,,,,,,,,wg-a,,,,AAXX 07004 07037 12/// /1408 10080 20070 30132 40320 58006 60006 90000=
07037,1997-03-07 06:00:00,9,1031.1,-0.3,93,8,800,7.408,,,150,6.5,8.7,,,,,,,,44,wg-a,,,,AAXX 07064 07037 02108 81504 10090 20080 30124 40311 56003 60006 74442 876// 90600 333 10087 20065 60004=
07037,1997-03-07 09:00:00,8,1032.1,0.9,100,8,100,14.816,,,150,,,,,,,,,,45,wg-a,,,,AAXX 07094 07037 12/01 91508 10080 20080 30133 40321 53009 60006 74544 89/// 90900=
07037,1997-03-07 12:00:00,10,1031.6,-0.3,100,10,2500,11.112,,,170,,,,,,,,,,10,wg-a,,,,AAXX 07124 07037 12225 81706 10100 20100 30130 40316 58003 60006 71042 886// 91200=
07037,1997-03-07 15:00:00,14,1029.6,-1.7,72,9,10000,7.408,,,190,,,,,,,,,,,wg-a,,,,AAXX 07154 07037 12460 51904 10140 20090 30113 40296 56017 60006 82201 91500=
07037,1997-03-08 00:00:00,7,1031.1,0.1,93,6,0,7.408,,,170,,,,,,,,,,,wg-a,,,,AAXX 08004 07037 12/// /1704 10070 20060 30123 40311 51001 60006 90000=
07037,1997-03-08 06:00:00,7,1033.4,1.6,100,7,3000,11.112,,,10,5.1,11.2,,,,,,,,10,wg-a,,,,AAXX 08064 07037 02530 70106 10070 20070 30146 40334 53016 60006 71011 8753/ 90600 333 10112 20051 60004=
07037,1997-03-08 09:00:00,9,1034.6,1.2,93,8,4000,7.408,,,20,,,,,,,,,,10,wg-a,,,,AAXX 08094 07037 12340 80204 10090 20080 30158 40346 53012 60006 71022 886// 90900=
07037,1997-03-08 12:00:00,11,1034.6,0.2,87,9,9000,3.704,,,30,,,,,,,,,,,wg-a,,,,AAXX 08124 07037 12/59 /0302 10110 20090 30160 40346 51002 60006 91200=
07037,1997-03-08 15:00:00,13,1033.8,-0.7,77,9,12000,7.408,,,30,,,,,,,,,,,wg-a,,,,AAXX 08154 07037 12562 70304 10130 20090 30153 40338 56007 60006 8752/ 91500=
07037,1997-03-08 18:00:00,12,1034,0.1,82,9,0,11.112,,,40,6.9,13,,,,,,,,,wg-a,,,,AAXX 08184 07037 12/// /0406 10120 20090 30154 40340 53001 60006 91800 333 10130 20069=
07037,1997-03-09 00:00:00,8,1034.3,-0.3,93,7,0,14.816,,,70,,,,,,,,,,,wg-a,,,,AAXX 09004 07037 12/// /0708 10080 20070 30155 40343 56003 60006 90000=
07037,1997-03-09 06:00:00,5,1033.3,-0.2,100,5,500,7.408,,,70,4.3,11.4,,,,,1,,,45,wg-a,,,,AAXX 09064 07037 02/00 90704 10050 20050 30143 40333 56002 60006 74542 89/// 90600 333 10114 20043 60014=
07037,1997-03-09 09:00:00,6,1034,0.7,100,6,400,7.408,,,110,,,,,,,,,,43,wg-a,,,,AAXX 09094 07037 12/04 91104 10060 20060 30150 40340 51007 60006 74344 89/// 90900=
07037,1997-03-09 12:00:00,12,1032.6,-0.9,76,8,4500,11.112,,,120,,,,,,,,,,10,wg-a,,,,AAXX 09124 07037 12/45 01206 10120 20080 30141 40326 58009 60006 71041 80000 91200=
07037,1997-03-10 00:00:00,6,1031.5,-0.2,93,5,0,7.408,,,120,,,,,,,,,,,wg-a,,,,AAXX 10004 07037 12/// /1204 10060 20050 30126 40315 55002 60006 90000=
07037,1997-03-10 06:00:00,3,1032.6,1,100,3,900,3.704,,,140,2.9,10.9,,,,,,,,10,wg-a,,,,AAXX 10064 07037 02/09 01402 10030 20030 30135 40326 53010 60006 71040 80000 90600 333 10109 20029 60004=
07037,1997-03-10 09:00:00,9,1033.6,1.4,93,8,3500,3.704,,,210,,,,,,,,,,10,wg-a,,,,AAXX 10094 07037 12/35 02102 10090 20080 30149 40336 51014 60006 71040 80000 90900=
07037,1997-03-10 12:00:00,14,1033.1,-0.2,67,8,500,3.704,,,210,,,,,,,,,,1,wg-a,,,,AAXX 10124 07037 12/00 02102 10140 20080 30147 40331 58002 60006 70140 80000 91200=
07037,1997-03-10 15:00:00,17,1032.1,-0.8,39,3,10000,0,,,0,,,,,,,,,,,wg-a,,,,AAXX 10154 07037 12/60 00000 10170 20030 30139 40321 56008 60006 80000 91500=
07037,1997-03-10 18:00:00,13,1032.6,0.3,58,5,10000,7.408,,,90,2.6,17.7,,,,,,,,,wg-a,,,,AAXX 10184 07037 12/60 00904 10130 20050 30142 40326 53003 60006 80000 91800 333 10177 20026=
07037,1997-03-11 00:00:00,7,1033.8,0.3,93,6,0,7.408,,,80,,,,,,,,,,,wg-a,,,,AAXX 11004 07037 12/// /0804 10070 20060 30149 40338 51003 60006 90000=
07037,1997-03-11 09:00:00,11,1034.2,0.7,76,7,4000,11.112,,,110,,,,,,,,,,10,wg-a,,,,AAXX 11094 07037 32/40 01106 10110 20070 30156 40342 51007 71000 80000 90900=
07037,1997-03-11 12:00:00,17,1033.3,-0.5,45,5,8000,18.52,,,110,,,,,,,,,,,wg-a,,,,AAXX 11124 07037 12/58 01110 10170 20050 30151 40333 58005 60006 80000 91200=
07037,1997-03-11 15:00:00,19,1031.5,-1.7,37,4,15000,18.52,,,100,,,,,,,,,,,wg-a,,,,AAXX 11154 07037 12/65 01010 10190 20040 30134 40315 58017 60006 80000 91500=
07037,1997-03-11 18:00:00,14,1031.4,-0.4,55,5,10000,11.112,,,80,5.8,19,,,,,,,,,wg-a,,,,AAXX 11184 07037 12/60 /0806 10140 20050 30130 40314 55004 60006 91800 333 10190 20058=
07037,1997-03-12 00:00:00,7,1031.3,-0.6,87,5,0,7.408,,,110,,,,,,,,,,,wg-a,,,,AAXX 12004 07037 12/// /1104 10070 20050 30124 40313 58006 60006 90000=
07037,1997-03-12 06:00:00,5,1030.1,-0.3,93,4,1200,3.704,,,140,3.6,13.6,,,,,,,,10,wg-a,,,,AAXX 12064 07037 02/12 01402 10050 20040 30112 40301 57003 60006 71000 80000 90600 333 10136 20036 60004=
07037,1997-03-12 09:00:00,10,1030,0.2,82,7,2500,7.408,,,180,,,,,,,,,,10,wg-a,,,,AAXX 12094 07037 12/25 01804 10100 20070 30114 40300 50002 60006 71000 80000 90900=
07037,1997-03-12 12:00:00,16,1029.5,-0.1,55,7,4500,14.816,,,300,,,,,,,,,,10,wg-a,,,,AAXX 12124 07037 12/45 03008 10160 20070 30113 40295 58001 60006 71000 80000 91200=
07037,1997-03-12 15:00:00,16,1029.1,-0.4,55,7,12000,25.928,,,270,,,,,,,,,,,wg-a,,,,AAXX 12154 07037 12/62 02714 10160 20070 30109 40291 56004 60006 80000 91500=
07037,1997-03-12 18:00:00,10,1030.9,1.4,87,8,12000,22.224,,,300,4.4,17.1,,,,,,,,,wg-a,,,,AAXX 12184 07037 12462 /3012 10100 20080 30123 40309 51014 60006 86530 91800 333 10171 20044=
07037,1997-03-13 00:00:00,8,1031.9,0.1,100,8,0,11.112,,,300,,,,,,,,,,,wg-a,,,,AAXX 13004 07037 12/// /3006 10080 20080 30132 40319 50001 60006 90000=
07037,1997-03-13 06:00:00,8,1031.6,-0.3,93,7,3500,7.408,,,280,7.7,10,,,,,,,,10,wg-a,,,,AAXX 13064 07037 02135 82804 10080 20070 30128 40316 56003 60006 71022 875// 90600 333 10100 20077 60004=
07037,1997-03-13 15:00:00,10,1030.1,-1.8,82,7,7000,7.408,,,240,,,,,,,,,,,wg-a,,,,AAXX 13154 07037 12457 82404 10100 20070 30115 40301 57018 60006 885// 91500=
07037,1997-03-14 00:00:00,7,1027.5,-1.1,93,6,0,11.112,,,280,,,,,,,,,,,wg-a,,,,AAXX 14004 07037 12/// /2806 10070 20060 30088 40275 56011 60006 90000=
07037,1997-03-14 06:00:00,7,1025.2,-0.9,93,6,12000,11.112,,,260,5.6,9.7,,,,,,,,,wg-a,,,,AAXX 14064 07037 02462 82606 10070 20060 30065 40252 56009 60006 875// 90600 333 10097 20056 60004=
07037,1997-03-14 09:00:00,9,1024.4,-0.7,87,7,6000,18.52,,,250,,,,,,,,,,,wg-a,,,,AAXX 14094 07037 12456 82510 10090 20070 30058 40244 57007 60006 876// 90900=
07037,1997-03-14 12:00:00,11,1023.8,-0.5,82,8,12000,29.632,,,290,,,,0,,,,,,1,wg-a,,,,AAXX 14124 07037 02462 72916 10110 20080 30053 40238 58005 60006 70162 878// 91200 333 60007=
07037,1997-03-14 15:00:00,12,1023.6,-0.1,71,7,15000,29.632,,,310,,,,,,,,,,,wg-a,,,,AAXX 14154 07037 12565 73116 10120 20070 30052 40236 55001 60006 8683/ 91500=
07037,1997-03-14 18:00:00,9,1024.8,1,87,7,20000,22.224,,,290,7,12.5,,,,,,,,,wg-a,,,,AAXX 14184 07037 12470 42912 10090 20070 30062 40248 51010 60006 83231 91800 333 10125 20070=
07037,1997-03-15 00:00:00,7,1026.6,0.5,100,7,0,18.52,,,280,,,,,,,,,,,wg-a,,,,AAXX 15004 07037 12/// /2810 10070 20070 30079 40266 51005 60006 90000=
07037,1997-03-15 06:00:00,7,1026.2,-0.2,100,7,500,11.112,,,220,5.4,9.4,,,,,,,,45,wg-a,,,,AAXX 15064 07037 02/05 92206 10070 20070 30074 40262 57002 60006 74542 89/// 90600 333 10094 20054 60004=
07037,1997-03-15 09:00:00,9,1026.5,0.5,100,9,400,11.112,,,250,,,,,,,,,,45,wg-a,,,,AAXX 15094 07037 32/04 92506 10090 20090 30079 40265 51005 74554 89/// 90900=
07037,1997-03-15 12:00:00,10,1027.3,0.8,100,10,700,14.816,,,300,,,,,,,,,,,wg-a,,,,AAXX 15124 07037 12/07 /3008 10100 20100 30087 40273 51008 60006 91200=
07037,1997-03-15 15:00:00,10,1026.7,-0.5,100,10,4000,22.224,,,290,,,,,,,,,,10,wg-a,,,,AAXX 15154 07037 02240 82912 10100 20100 30082 40267 57005 61000 71054 886// 91500 333 ////=
07037,1997-03-15 18:00:00,10,1027.6,0.8,87,8,0,22.224,,,300,6.7,10.7,,,,,,,,,wg-a,,,,AAXX 15184 07037 32/// /3012 10100 20080 30090 40276 53008 91800 333 10107 20067=
07037,1997-03-16 00:00:00,9,1029.3,0.7,100,9,0,11.112,,,280,,,,,,,,,,,wg-a,,,,AAXX 16004 07037 12/// /2806 10090 20090 30106 40293 50007 60006 90000=
07037,1997-03-16 06:00:00,9,1029.6,0.6,100,9,1500,14.816,,,290,8.5,10,,,,,,,,10,wg-a,,,,AAXX 16064 07037 02215 82908 10090 20090 30109 40296 53006 60006 71042 886// 90600 333 10100 20085 60004=
07037,1997-03-16 09:00:00,10,1030.2,0.7,93,9,10000,11.112,,,260,,,,,,,,,,,wg-a,,,,AAXX 16094 07037 12360 82606 10100 20090 30116 40302 50007 60006 886// 90900=
07037,1997-03-16 12:00:00,12,1029.7,-0.3,88,10,10000,18.52,,,280,,,,,,,,,,,wg-a,,,,AAXX 16124 07037 12360 72810 10120 20100 30113 40297 58003 60006 878// 91200=
07037,1997-03-16 18:00:00,9,1028.4,-0.3,93,8,0,22.224,,,290,8.6,13.3,,,,,,,,,wg-a,,,,AAXX 16184 07037 12/// /2912 10090 20080 30098 40284 58003 60006 91800 333 10133 20086=
07037,1997-03-17 00:00:00,8,1029.3,0.2,93,7,0,11.112,,,320,,,,,,,,,,,wg-a,,,,AAXX 17004 07037 12/// /3206 10080 20070 30106 40293 50002 60006 90000=
07037,1997-03-17 06:00:00,7,1029.3,0.5,100,7,2000,3.704,,,330,7.1,8.9,,,,,,,,10,wg-a,,,,AAXX 17064 07037 02120 83302 10070 20070 30105 40293 53005 60006 71022 886// 90600 333 10089 20071 60004=
07037,1997-03-17 09:00:00,8,1029.8,0.6,100,8,700,11.112,,,230,,,,,,,,,,44,wg-a,,,,AAXX 17094 07037 12107 82306 10080 20080 30111 40298 51006 60006 74442 886// 90900=
07037,1997-03-17 12:00:00,10,1029.2,-0.5,93,9,3500,7.408,,,230,,,,,,,,,,10,wg-a,,,,AAXX 17124 07037 12335 82304 10100 20090 30106 40292 58005 60006 71042 886// 91200=
07037,1997-03-17 15:00:00,13,1026.9,-2,77,9,4500,11.112,,,120,,,,,,,,,,10,wg-a,,,,AAXX 17154 07037 12445 41206 10130 20090 30086 40269 58020 60006 71011 84500 91500=
07037,1997-03-17 18:00:00,11,1025.7,-1.4,82,8,4500,7.408,,,170,7,13.5,,,,,,,,10,wg-a,,,,AAXX 17184 07037 12/45 31704 10110 20080 30072 40257 56014 60006 71011 80001 91800 333 10135 20070=
07037,1997-03-18 00:00:00,7,1023.1,-1.8,100,7,0,11.112,,,180,,,,,,,,,,,wg-a,,,,AAXX 18004 07037 12/// /1806 10070 20070 30044 40231 58018 60006 90000=
07037,1997-03-18 06:00:00,7,1019.5,-1.3,93,6,300,7.408,,,260,5.7,11.1,,,,,,,,43,wg-a,,,,AAXX 18064 07037 02/03 92604 10070 20060 30009 40195 56013 60006 74342 89/// 90600 333 10111 20057 60004=
07037,1997-03-18 09:00:00,8,1018,-1.4,93,7,500,22.224,,,280,,,,,,,,,,1,wg-a,,,,AAXX 18094 07037 12300 82812 10080 20070 39995 40180 58014 60006 70142 887// 90900=
07037,1997-03-18 12:00:00,10,1015.6,-2.2,82,7,15000,25.928,,,260,,,,,,,,,,1,wg-a,,,,AAXX 18124 07037 12465 72614 10100 20070 39973 40156 58022 60006 70142 875// 91200=
07037,1997-03-18 15:00:00,10,1013.2,-2.4,82,7,12000,29.632,,,270,,,,,,,,,,21,wg-a,,,,AAXX 18154 07037 02562 82716 10100 20070 39949 40132 58024 61000 72162 878// 91500 333 ////=
07037,1997-03-18 18:00:00,9,1012.9,-0.4,76,5,20000,35.188,,55.56,290,6.4,11.5,,,,,,,,3,wg-a,,,,AAXX 18184 07037 12570 72919 10090 20050 39945 40129 55004 60006 70362 872// 91800 333 10115 20064 91030=
07037,1997-03-19 00:00:00,7,1011.6,-0.9,87,5,0,29.632,,,280,,,,,,,,,,,wg-a,,,,AAXX 19004 07037 12/// /2816 10070 20050 39931 40116 58009 60006 90000=
07037,1997-03-19 06:00:00,8,1009.4,-0.6,81,5,12000,31.484,,51.856,300,6.6,9.2,,,,,,,,,wg-a,,,,AAXX 19064 07037 02462 73017 10080 20050 39910 40094 55006 60006 878// 90600 333 10092 20066 60004 91028=
07037,1997-03-19 09:00:00,8,1010,0.6,87,6,12000,31.484,,,310,,,,0,,,,,,61,wg-a,,,,AAXX 19094 07037 12462 83117 10080 20060 39916 40100 53006 60007 76162 872// 90900=
07037,1997-03-19 12:00:00,10,1011.2,1.3,76,6,20000,35.188,,,320,,,,,,,,,,25,wg-a,,,,AAXX 19124 07037 02570 83219 10100 20060 39929 40112 51013 60006 72586 872// 91200 333 61000=
07037,1997-03-19 15:00:00,10,1013.4,2.2,53,1,25000,35.188,,,340,,,,,,,,,,,wg-a,,,,AAXX 19154 07037 12575 /3419 10100 20010 39951 40134 52022 60006 86800 91500=
07037,1997-03-19 18:00:00,9,1015.8,2.2,61,2,25000,25.928,,,350,7.4,11.2,,,,,,,,,wg-a,,,,AAXX 19184 07037 12675 33514 10090 20020 39973 40158 51022 60006 8/800 91800 333 10112 20074=
07037,1997-03-20 00:00:00,7,1019.1,1.2,87,5,0,7.408,,,20,,,,,,,,,,,wg-a,,,,AAXX 20004 07037 12/// /0204 10070 20050 30005 40191 53012 60006 90000=
07037,1997-03-20 06:00:00,3,1020.5,0.4,100,3,4000,7.408,,,260,3,8.6,,,,,,,,10,wg-a,,,,AAXX 20064 07037 02640 42604 10030 20030 30016 40205 53004 60006 71011 84500 90600 333 10086 20030 60004=
07037,1997-03-20 09:00:00,7,1021.4,1.1,93,6,6000,11.112,,,300,,,,,,,,,,,wg-a,,,,AAXX 20094 07037 12356 /3006 10070 20060 30027 40214 52011 60006 86800 90900=
07037,1997-03-20 15:00:00,11,1020.6,-0.6,54,2,25000,11.112,,,290,,,,,,,,,,,wg-a,,,,AAXX 20154 07037 12675 32906 10110 20020 30022 40206 56006 60006 83100 91500=
07037,1997-03-20 18:00:00,7,1021.4,0.5,70,2,25000,14.816,,,310,3,11.4,,,,,,,,,wg-a,,,,AAXX 20184 07037 12/75 13108 10070 20020 30027 40214 53005 60006 80001 91800 333 10114 20030=
07037,1997-03-21 06:00:00,4,1021.8,0.5,100,4,4500,7.408,,,320,3.5,6.8,,,,,,,,10,wg-a,,,,AAXX 21064 07037 02245 /3204 10040 20040 30030 40218 53005 60006 71022 86600 90600 333 10068 20035 60004=
07037,1997-03-21 09:00:00,8,1023,1.4,93,7,2500,7.408,,,300,,,,,,,,,,10,wg-a,,,,AAXX 21094 07037 12225 /3004 10080 20070 30044 40230 51014 60006 71022 86600 90900=
07037,1997-03-21 18:00:00,8,1025.6,0.9,57,0,500,18.52,,,20,4.3,11.9,,,,,,,,,wg-a,,,,AAXX 21184 07037 12/00 40210 10080 20000 30069 40256 53009 60006 80001 91800 333 10119 20043=
07037,1997-03-22 00:00:00,2,1028.1,0.6,87,0,0,11.112,,,50,,,,,,,,,,,wg-a,,,,AAXX 22004 07037 12/// /0506 10020 20000 30090 40281 52006 60006 90000=
07037,1997-03-22 06:00:00,0,1028.5,0.5,93,-1,10000,7.408,,,80,-0.4,7.7,,,,,,,,,wg-a,,,,AAXX 22064 07037 02/60 20804 10000 21010 30092 40285 53005 60006 80001 90600 333 10077 21004 60004=
07037,1997-03-22 09:00:00,6,1028.5,0.4,75,2,12000,11.112,,,90,,,,,,,,,,,wg-a,,,,AAXX 22094 07037 12/62 20906 10060 20020 30096 40285 51004 60006 80001 90900=
07037,1997-03-22 12:00:00,9,1027.3,-0.9,53,0,15000,11.112,,,80,,,,,,,,,,,wg-a,,,,AAXX 22124 07037 12665 /0806 10090 20000 30087 40273 58009 60006 81100 91200=
07037,1997-03-22 15:00:00,12,1024.9,-2.2,35,-3,20000,7.408,,,150,,,,,,,,,,,wg-a,,,,AAXX 22154 07037 12/70 01504 10120 21030 30065 40249 56022 60006 80000 91500=
07037,1997-03-22 18:00:00,9,1023.8,-1.3,46,-2,0,7.408,,,160,-0.3,11.9,,,,,,,,,wg-a,,,,AAXX 22184 07037 12/// /1604 10090 21020 30052 40238 56013 60006 91800 333 10119 21003=
07037,1997-03-23 00:00:00,3,1020.7,-2.9,75,-1,0,14.816,,,170,,,,,,,,,,,wg-a,,,,AAXX 23004 07037 12/// /1708 10030 21010 30018 40207 56029 60006 90000=
07037,1997-03-23 06:00:00,5,1016,-2.5,70,0,15000,7.408,,,270,2.1,8.6,,,,,,,,,wg-a,,,,AAXX 23064 07037 02/65 62704 10050 20000 39973 40160 55025 60006 86030 90600 333 10086 20021 60004=
07037,1997-03-23 09:00:00,8,1013.2,-2.5,76,4,15000,22.224,,,260,,,,,,,,,,,wg-a,,,,AAXX 23094 07037 12265 72612 10080 20040 39948 40132 56025 60006 876// 90900=
07037,1997-03-23 12:00:00,10,1011.5,-1.6,76,6,15000,29.632,,,300,,,,,,,,,,25,wg-a,,,,AAXX 23124 07037 02565 73016 10100 20060 39932 40115 56016 61000 72586 878// 91200 333 6100=
07037,1997-03-23 18:00:00,8,1012,0.6,81,5,0,22.224,,,290,4.9,10.7,,,,,,,,,wg-a,,,,AAXX 23184 07037 32/// /2912 10080 20050 39936 40120 53006 91800 333 10107 20049=
07037,1997-03-24 00:00:00,8,1011.8,-0.6,87,6,0,18.52,,,280,,,,,,,,,,,wg-a,,,,AAXX 24004 07037 12/// /2810 10080 20060 39934 40118 56006 60006 90000=
07037,1997-03-24 06:00:00,7,1011.3,-0.3,100,7,4000,11.112,,,280,7.1,8.3,,,,,,,,10,wg-a,,,,AAXX 24064 07037 02240 72806 10070 20070 39929 40113 58003 60006 71022 876// 90600 333 10083 20071 61000=
07037,1997-03-24 09:00:00,8,1011.7,0.4,87,6,3500,18.52,,,280,,,,,,,,,,10,wg-a,,,,AAXX 24094 07037 12335 82810 10080 20060 39933 40117 51004 60006 71022 875// 90900=
07037,1997-03-24 12:00:00,10,1011,-0.6,71,5,12000,14.816,,,280,,,,,,,,,,,wg-a,,,,AAXX 24124 07037 12462 72808 10100 20050 39927 40110 56006 60006 85830 91200=
07037,1997-03-24 15:00:00,9,1010.9,-0.2,87,7,7000,11.112,,,270,,,,0,,,,,,61,wg-a,,,,AAXX 24154 07037 12457 82706 10090 20070 39925 40109 56002 60007 76162 86830 91500=
07037,1997-03-24 18:00:00,8,1011.5,0.6,93,7,4000,3.704,,,330,7.2,10.3,,,,,,,,10,wg-a,,,,AAXX 24184 07037 02240 83302 10080 20070 39931 40115 53006 61000 71062 86530 91800 333 10103 20072 6000=
07037,1997-03-25 00:00:00,5,1014.6,0.9,100,5,0,11.112,,,300,,,,,,,,,,,wg-a,,,,AAXX 25004 07037 12/// /3006 10050 20050 39959 40146 53009 60006 90000=
07037,1997-03-25 06:00:00,7,1016.3,1.5,100,7,800,11.112,,,320,4.8,8.2,,,,,1,,,42,wg-a,,,,AAXX 25064 07037 02208 83206 10070 20070 39978 40163 52015 60006 74242 886// 90600 333 10082 20048 60014=
07037,1997-03-25 09:00:00,9,1017.9,1.7,87,7,8000,18.52,,,340,,,,,,,,,,1,wg-a,,,,AAXX 25094 07037 12458 53410 10090 20070 39995 40179 51017 60006 70141 85500 90900=
07037,1997-03-25 12:00:00,11,1018.4,0.6,66,5,20000,18.52,,,330,,,,,,,,,,1,wg-a,,,,AAXX 25124 07037 12570 53310 10110 20050 30001 40184 51006 60006 70141 84230 91200=
07037,1997-03-25 15:00:00,13,1019,0.6,51,3,20000,18.52,,,330,,,,,,,,,,,wg-a,,,,AAXX 25154 07037 12670 53310 10130 20030 30007 40190 53006 60006 84401 91500=
07037,1997-03-25 18:00:00,9,1020.5,1.3,71,4,11000,11.112,,,310,6.8,13.4,,,,,,,,,wg-a,,,,AAXX 25184 07037 12/61 /3106 10090 20040 30020 40205 53013 60006 91800 333 10134 20068=
07037,1997-03-26 00:00:00,7,1021.5,0.2,87,5,0,7.408,,,250,,,,,,,,,,,wg-a,,,,AAXX 26004 07037 12/// /2504 10070 20050 30029 40215 50002 60006 90000=
07037,1997-03-26 06:00:00,6,1021.2,0,87,4,15000,3.704,,,180,5.6,9.3,,,,,,,,,wg-a,,,,AAXX 26064 07037 02/65 71802 10060 20040 30025 40212 50000 60006 85031 90600 333 10093 20056 60004=
07037,1997-03-26 09:00:00,10,1020.4,-0.5,76,6,15000,14.816,,,190,,,,,,,,,,,wg-a,,,,AAXX 26094 07037 12765 61908 10100 20060 30020 40204 58005 60006 86530 90900=
07037,1997-03-26 12:00:00,14,1020,-0.2,51,4,25000,29.632,,,240,,,,,,,,,,,wg-a,,,,AAXX 26124 07037 12775 72416 10140 20040 30018 40200 57002 60006 8753/ 91200=
07037,1997-03-26 18:00:00,12,1019.5,0.3,82,9,15000,25.928,,,240,5.6,14.8,,,,,,,,60,wg-a,,,,AAXX 26184 07037 02465 82414 10120 20090 30012 40195 53003 61000 76062 878// 91800 333 10148 20056 6100=
07037,1997-03-27 00:00:00,11,1021.3,0.5,100,11,0,18.52,,,270,,,,,,,,,,,wg-a,,,,AAXX 27004 07037 12/// /2710 10110 20110 30029 40213 51005 60006 90000=
07037,1997-03-27 06:00:00,11,1022.5,0.9,94,10,2500,18.52,,,290,10.3,11.8,,,,,,,,51,wg-a,,,,AAXX 27064 07037 02125 82910 10110 20100 30041 40225 53009 61000 75155 887// 90600 333 10118 20103 6000=
07037,1997-03-27 09:00:00,11,1023.1,0.6,94,10,500,25.928,,,280,,,,0,,,,,,50,wg-a,,,,AAXX 27094 07037 12200 82814 10110 20100 30047 40231 51006 60007 75052 887// 90900=
07037,1997-03-27 12:00:00,11,1022.7,-0.4,94,10,15000,14.816,,,280,,,,,,,,,,1,wg-a,,,,AAXX 27124 07037 02465 82808 10110 20100 30043 40227 58004 60006 70152 875// 91200 333 61000=
07037,1997-03-27 15:00:00,14,1020.9,-1.6,77,10,25000,22.224,,,270,,,,,,,,,,,wg-a,,,,AAXX 27154 07037 12575 72712 10140 20100 30027 40209 58016 60006 875// 91500=
07037,1997-03-27 18:00:00,13,1019.5,-1.4,82,10,20000,22.224,,,240,10.4,13.7,,,,,,,,,wg-a,,,,AAXX 27184 07037 12470 72412 10130 20100 30013 40195 56014 60006 875// 91800 333 10137 20104=
07037,1997-03-28 00:00:00,11,1018.1,-0.4,87,9,0,35.188,,,280,,,,,,,,,,,wg-a,,,,AAXX 28004 07037 12/// /2819 10110 20090 39998 40181 56004 60006 90000=
07037,1997-03-28 06:00:00,7,1020.8,1.9,76,3,20000,29.632,,,330,6.8,13.4,,,,,,,,,wg-a,,,,AAXX 28064 07037 02470 53316 10070 20030 30021 40208 53019 60006 85800 90600 333 10134 20068 60004=
07037,1997-03-28 09:00:00,8,1023.1,2.4,66,2,20000,29.632,,,340,,,,,,,,,,,wg-a,,,,AAXX 28094 07037 12570 /3416 10080 20020 30045 40231 51024 60006 85200 90900=
07037,1997-03-28 12:00:00,10,1023.9,0.9,57,2,500,25.928,,,330,,,,,,,,,,,wg-a,,,,AAXX 28124 07037 12600 /3314 10100 20020 30054 40239 51009 60006 85200 91200=
07037,1997-03-28 18:00:00,8,1025.3,0.3,57,0,11000,22.224,,,320,6.5,10.3,,,,,,,,,wg-a,,,,AAXX 28184 07037 12/61 /3212 10080 20000 30066 40253 53003 60006 91800 333 10103 20065=
07037,1997-03-29 00:00:00,4,1026.4,-0.1,81,1,0,14.816,,,340,,,,,,,,,,,wg-a,,,,AAXX 29004 07037 12/// /3408 10040 20010 30075 40264 58001 60006 90000=
07037,1997-03-29 09:00:00,7,1027.4,0.1,76,3,20000,18.52,,,330,,,,,,,,,,,wg-a,,,,AAXX 29094 07037 12470 /3310 10070 20030 30086 40274 53001 60006 85500 90900=
07037,1997-03-29 12:00:00,10,1027.2,0,62,3,20000,18.52,,,350,,,,,,,,,,,wg-a,,,,AAXX 29124 07037 12570 53510 10100 20030 30086 40272 50000 60006 85800 91200=
07037,1997-03-29 15:00:00,10,1026.2,-0.9,57,2,500,22.224,,,360,,,,,,,,,,,wg-a,,,,AAXX 29154 07037 12600 43612 10100 20020 30077 40262 56009 60006 84130 91500=
07037,1997-03-29 18:00:00,8,1026.9,0.5,66,2,0,11.112,,,10,0.5,10.6,,,,,,,,,wg-a,,,,AAXX 29184 07037 12/// /0106 10080 20020 30082 40269 53005 60006 91800 333 10106 20005=
07037,1997-03-30 00:00:00,3,1028.2,-0.1,93,2,0,7.408,,,310,,,,,,,,,,,wg-a,,,,AAXX 30004 07037 12/// /3104 10030 20020 30091 40282 58001 60006 90000=
07037,1997-03-30 09:00:00,6,1029.1,1.3,100,6,1200,7.408,,,310,,,,,,,,,,28,wg-a,,,,AAXX 30094 07037 12/12 03104 10060 20060 30103 40291 51013 60006 72841 80000 90900=
07037,1997-03-30 12:00:00,11,1028.2,-0.6,50,1,20000,18.52,,,360,,,,,,,,,,1,wg-a,,,,AAXX 30124 07037 12670 /3610 10110 20010 30097 40282 58006 60006 70141 86200 91200=
07037,1997-03-30 15:00:00,12,1027.5,-0.7,47,1,11000,14.816,,,40,,,,,,,,,,,wg-a,,,,AAXX 30154 07037 12/61 /0408 10120 20010 30090 40275 58007 60006 91500=
07037,1997-03-30 18:00:00,10,1027.7,0.1,53,1,0,11.112,,,20,2.6,12.3,,,,,,,,,wg-a,,,,AAXX 30184 07037 12/// /0206 10100 20010 30091 40277 52001 60006 91800 333 10123 20026=
07037,1997-03-31 09:00:00,11,1027.7,1,66,5,10000,7.408,,,130,,,,,,,,,,,wg-a,,,,AAXX 31094 07037 12/60 01304 10110 20050 30092 40277 51010 60006 80000 90900=
07037,1997-03-31 12:00:00,15,1026.4,-1.1,44,3,15000,3.704,,,270,,,,,,,,,,,wg-a,,,,AAXX 31124 07037 12/65 02702 10150 20030 30081 40264 58011 60006 80000 91200=
07037,1997-03-31 18:00:00,14,1023.7,-1,51,4,0,7.408,,,70,2,16.1,,,,,,,,,wg-a,,,,AAXX 31184 07037 12/// /0704 10140 20040 30054 40237 56010 60006 91800 333 10161 20020=
07037,1997-04-01 00:00:00,6,1024,-0.1,87,4,0,11.112,,,40,,,,,,,,,,,wg-a,,,,AAXX 01004 07037 12/// /0406 10060 20040 30053 40240 58001 60006 90000=
07037,1997-04-01 06:00:00,5,1023.8,0.5,81,2,500,7.408,,,40,4.5,13.9,,,,,,,,,wg-a,,,,AAXX 01064 07037 02/00 00404 10050 20020 30050 40238 53005 60006 80000 90600 333 10139 20045 60004=
07037,1997-04-01 09:00:00,13,1023.5,0.2,58,5,8000,7.408,,,90,,,,,,,,,,,wg-a,,,,AAXX 01094 07037 12/58 00904 10130 20050 30052 40235 52002 60006 80000 90900=
07037,1997-04-01 12:00:00,17,1022.7,-0.5,45,5,12000,7.408,,,50,,,,,,,,,,,wg-a,,,,AAXX 01124 07037 12/62 00504 10170 20050 30047 40227 58005 60006 80000 91200=
07037,1997-04-01 15:00:00,19,1021,-1.6,37,4,12000,7.408,,,300,,,,,,,,,,,wg-a,,,,AAXX 01154 07037 12/62 03004 10190 20040 30031 40210 57016 60006 80000 91500=
07037,1997-04-01 18:00:00,14,1021.4,0.1,55,5,0,18.52,,,10,4.6,19.9,,,,,,,,,wg-a,,,,AAXX 01184 07037 12/// /0110 10140 20050 30032 40214 53001 60006 91800 333 10199 20046=
07037,1997-04-02 00:00:00,7,1022.5,-0.2,66,1,0,11.112,,,10,,,,,,,,,,,wg-a,,,,AAXX 02004 07037 12/// /0106 10070 20010 30038 40225 57002 60006 90000=
07037,1997-04-02 06:00:00,5,1021.7,-0.1,87,3,6000,11.112,,,30,3.7,13.8,,,,,,,,,wg-a,,,,AAXX 02064 07037 02/56 00306 10050 20030 30029 40217 56001 60006 80000 90600 333 10138 20037 60004=
07037,1997-04-02 09:00:00,12,1021.2,-0,62,5,6000,7.408,,,70,,,,,,,,,,,wg-a,,,,AAXX 02094 07037 12/56 00704 10120 20050 30029 40212 54000 60006 80000 90900=
07037,1997-04-02 12:00:00,17,1019.9,-1,45,5,10000,7.408,,,280,,,,,,,,,,,wg-a,,,,AAXX 02124 07037 12/60 02804 10170 20050 30019 40199 58010 60006 80000 91200=
07037,1997-04-02 18:00:00,14,1018,-0.4,58,6,0,14.816,,,330,4.8,18.1,,,,,,,,,wg-a,,,,AAXX 02184 07037 12/// /3308 10140 20060 39998 40180 55004 60006 91800 333 10181 20048=
07037,1997-04-03 00:00:00,5,1018.5,-0.7,81,2,0,7.408,,,270,,,,,,,,,,,wg-a,,,,AAXX 03004 07037 12/// /2704 10050 20020 39998 40185 56007 60006 90000=
07037,1997-04-03 06:00:00,6,1017.5,0.1,100,6,900,14.816,,,290,3.4,13.7,,,,,,,,44,wg-a,,,,AAXX 03064 07037 02109 82908 10060 20060 39989 40175 53001 60006 74441 886// 90600 333 10137 20034 60004=
07037,1997-04-03 09:00:00,9,1018.3,0.9,87,7,500,18.52,,,290,,,,,,,,,,1,wg-a,,,,AAXX 03094 07037 12300 72910 10090 20070 39998 40183 51009 60006 70142 876// 90900=
07037,1997-04-03 12:00:00,12,1018.1,-0,62,5,15000,25.928,,,300,,,,,,,,,,1,wg-a,,,,AAXX 03124 07037 12565 /3014 10120 20050 39998 40181 54000 60006 70142 86800 91200=
07037,1997-04-03 15:00:00,12,1018.3,0.2,62,5,20000,29.632,,,310,,,,,,,,,,,wg-a,,,,AAXX 03154 07037 12670 /3116 10120 20050 30000 40183 51002 60006 86800 91500=
07037,1997-04-03 18:00:00,10,1018.9,0.5,76,6,0,25.928,,,300,6.1,13,,,,,,,,,wg-a,,,,AAXX 03184 07037 12/// /3014 10100 20060 30005 40189 53005 60006 91800 333 10130 20061=
07037,1997-04-04 00:00:00,8,1022,1.5,76,4,0,18.52,,,350,,,,,,,,,,,wg-a,,,,AAXX 04004 07037 12/// /3510 10080 20040 30034 40220 53015 60006 90000=
07037,1997-04-04 06:00:00,5,1026.4,2.6,75,1,20000,11.112,,,350,4.2,9.5,,,,,,,,,wg-a,,,,AAXX 04064 07037 02570 33506 10050 20010 30075 40264 53026 60006 83500 90600 333 10095 20042 60004=
07037,1997-04-04 09:00:00,7,1028.5,2.2,66,1,20000,18.52,,,350,,,,,,,,,,,wg-a,,,,AAXX 04094 07037 12570 33510 10070 20010 30097 40285 53022 60006 83200 90900=
07037,1997-04-04 15:00:00,10,1028.5,-0.3,34,-5,25000,18.52,,,340,,,,,,,,,,,wg-a,,,,AAXX 04154 07037 12775 33410 10100 21050 30099 40285 58003 60006 81101 91500=
07037,1997-04-05 00:00:00,3,1028,-0.7,87,1,0,11.112,,,240,,,,,,,,,,,wg-a,,,,AAXX 05004 07037 12/// /2406 10030 20010 30089 40280 58007 60006 90000=
07037,1997-04-05 06:00:00,7,1023.4,-1.6,93,6,6000,31.484,,,260,2.2,8.2,,,,,,,,,wg-a,,,,AAXX 05064 07037 02256 82617 10070 20060 30047 40234 56016 60006 886// 90600 333 10082 20022 60004=
07037,1997-04-05 09:00:00,9,1023,-0.2,87,7,15000,35.188,,,280,,,,,,,,,,,wg-a,,,,AAXX 05094 07037 12465 82819 10090 20070 30045 40230 58002 60006 886// 90900=
07037,1997-04-05 12:00:00,11,1021.8,-1.1,76,7,15000,31.484,,,280,,,,,,,,,,,wg-a,,,,AAXX 05124 07037 12465 82817 10110 20070 30034 40218 58011 60006 886// 91200=
07037,1997-04-05 15:00:00,11,1021,-0.8,76,7,15000,31.484,,,280,,,,,,,,,,,wg-a,,,,AAXX 05154 07037 12465 82817 10110 20070 30026 40210 58008 60006 886// 91500=
07037,1997-04-05 18:00:00,11,1020.3,-0.7,76,7,0,35.188,,,290,6.9,11.7,,,,,,,,,wg-a,,,,AAXX 05184 07037 12/// /2919 10110 20070 30019 40203 58007 60006 91800 333 10117 20069=
07037,1997-04-06 00:00:00,9,1022.1,0.6,93,8,0,25.928,,,300,,,,,,,,,,,wg-a,,,,AAXX 06004 07037 12/// /3014 10090 20080 30036 40221 53006 60006 90000=
07037,1997-04-06 06:00:00,9,1024,1.6,93,8,6000,14.816,,,320,8.6,10.7,,,,,,,,,wg-a,,,,AAXX 06064 07037 02456 83208 10090 20080 30054 40240 53016 60006 875// 90600 333 10107 20086 60004=
07037,1997-04-06 09:00:00,11,1025.6,1.7,87,9,6000,11.112,,,10,,,,,,,,,,,wg-a,,,,AAXX 06094 07037 12356 70106 10110 20090 30071 40256 52017 60006 875// 90900=
07037,1997-04-06 12:00:00,13,1026.5,1.1,62,6,12000,14.816,,,50,,,,,,,,,,,wg-a,,,,AAXX 06124 07037 12562 40508 10130 20060 30082 40265 51011 60006 84200 91200=
07037,1997-04-06 15:00:00,14,1026.4,-0.1,38,0,20000,18.52,,,70,,,,,,,,,,,wg-a,,,,AAXX 06154 07037 12770 10710 10140 20000 30081 40264 55001 60006 81201 91500=
07037,1997-04-06 18:00:00,11,1027.5,0.9,43,-1,0,18.52,,,70,9,14,,,,,,,,,wg-a,,,,AAXX 06184 07037 12/// /0710 10110 21010 30090 40275 53009 60006 91800 333 10140 20090=
07037,1997-04-07 00:00:00,5,1030.7,0.9,60,-2,0,18.52,,,90,,,,,,,,,,,wg-a,,,,AAXX 07004 07037 12/// /0910 10050 21020 30117 40307 53009 60006 90000=
07037,1997-04-07 06:00:00,3,1031.4,0.9,70,-2,20000,18.52,,,100,1.6,10.7,,,,,,,,,wg-a,,,,AAXX 07064 07037 02/70 21010 10030 21020 30122 40314 53009 60006 80001 90600 333 10107 20016 60004=
07037,1997-04-07 09:00:00,8,1031.1,0.1,49,-2,25000,25.928,,,90,,,,,,,,,,,wg-a,,,,AAXX 07094 07037 12/75 40914 10080 21020 30123 40311 51001 60006 80001 90900=
07037,1997-04-07 12:00:00,11,1030.4,-0.5,32,-5,25000,25.928,,,80,,,,,,,,,,,wg-a,,,,AAXX 07124 07037 12/75 40814 10110 21050 30118 40304 58005 60006 80001 91200=
07037,1997-04-07 15:00:00,13,1028.9,-1.3,28,-5,25000,29.632,,,90,,,,,,,,,,,wg-a,,,,AAXX 07154 07037 12/75 20916 10130 21050 30105 40289 58013 60006 80001 91500=
07037,1997-04-07 18:00:00,11,1028.3,-0.8,35,-4,0,22.224,,,80,2.6,13.3,,,,,,,,,wg-a,,,,AAXX 07184 07037 12/// /0812 10110 21040 30097 40283 55008 60006 91800 333 10133 20026=
07037,1997-04-08 06:00:00,3,1027.9,-0.1,52,-6,25000,18.52,,,90,2.5,10.8,,,,,,,,,wg-a,,,,AAXX 08064 07037 02/75 10910 10030 21060 30088 40279 58001 60006 80001 90600 333 10108 20025 60004=
07037,1997-04-08 09:00:00,9,1027.1,-0.3,37,-5,25000,22.224,,,110,,,,,,,,,,,wg-a,,,,AAXX 08094 07037 12/75 11112 10090 21050 30085 40271 55003 60006 80001 90900=
07037,1997-04-08 12:00:00,14,1026.2,-0.6,28,-4,25000,22.224,,,90,,,,,,,,,,,wg-a,,,,AAXX 08124 07037 12/75 20912 10140 21040 30079 40262 58006 60006 80001 91200=
07037,1997-04-08 15:00:00,16,1024.7,-1.4,29,-2,25000,22.224,,,110,,,,,,,,,,,wg-a,,,,AAXX 08154 07037 12/75 21112 10160 21020 30065 40247 58014 60006 80001 91500=
07037,1997-04-09 00:00:00,7,1026.6,0.6,49,-3,0,11.112,,,80,,,,,,,,,,,wg-a,,,,AAXX 09004 07037 12/// /0806 10070 21030 30078 40266 50006 60006 90000=
07037,1997-04-09 06:00:00,5,1027.3,0.7,52,-4,10000,3.704,,,70,3.3,13.1,,,,,,,,,wg-a,,,,AAXX 09064 07037 02/60 /0702 10050 21040 30084 40273 53007 60006 90600 333 10131 20033 60004=
07037,1997-04-09 09:00:00,12,1027.9,1.1,40,-1,20000,3.704,,,60,,,,,,,,,,,wg-a,,,,AAXX 09094 07037 12/70 50602 10120 21010 30095 40279 52011 60006 80001 90900=
07037,1997-04-09 15:00:00,20,1026.7,-0.7,26,0,15000,7.408,,,90,,,,,,,,,,,wg-a,,,,AAXX 09154 07037 12/65 40904 10200 20000 30088 40267 58007 60006 80001 91500=
07037,1997-04-09 18:00:00,17,1027.8,0.9,42,4,0,14.816,,,10,4.6,20.8,,,,,,,,,wg-a,,,,AAXX 09184 07037 12/// /0108 10170 20040 30097 40278 52009 60006 91800 333 10208 20046=
07037,1997-04-10 00:00:00,8,1031.4,1.2,61,1,0,14.816,,,60,,,,,,,,,,,wg-a,,,,AAXX 10004 07037 12/// /0608 10080 20010 30126 40314 53012 60006 90000=
07037,1997-04-10 06:00:00,6,1032,0.7,70,1,15000,14.816,,,60,4.5,17.4,,,,,,,,,wg-a,,,,AAXX 10064 07037 02/65 00608 10060 20010 30131 40320 53007 60006 80000 90600 333 10174 20045 60004=
07037,1997-04-10 09:00:00,15,1032.3,0.9,44,3,14000,11.112,,,70,,,,,,,,,,,wg-a,,,,AAXX 10094 07037 12/64 00706 10150 20030 30140 40323 53009 60006 80000 90900=
07037,1997-04-10 12:00:00,20,1031.4,-0.6,30,2,14000,7.408,,,90,,,,,,,,,,,wg-a,,,,AAXX 10124 07037 12/64 00904 10200 20020 30134 40314 58006 60006 80000 91200=
07037,1997-04-10 15:00:00,20,1029.9,-1.5,28,1,14000,11.112,,,30,,,,,,,,,,,wg-a,,,,AAXX 10154 07037 12/64 40306 10200 20010 30119 40299 58015 60006 80001 91500=
07037,1997-04-10 18:00:00,18,1029.7,-0.3,37,3,0,11.112,,,30,6.2,20.5,,,,,,,,,wg-a,,,,AAXX 10184 07037 12/// /0306 10180 20030 30116 40297 57003 60006 91800 333 10205 20062=
07037,1997-04-11 00:00:00,8,1030.2,-0.7,66,2,0,7.408,,,340,,,,,,,,,,,wg-a,,,,AAXX 11004 07037 12/// /3404 10080 20020 30115 40302 57007 60006 90000=
07037,1997-04-11 06:00:00,4,1028,-1.1,87,2,4500,11.112,,,310,3.6,17.5,,,,,,,,10,wg-a,,,,AAXX 11064 07037 02/45 23106 10040 20020 30090 40280 55011 60006 71000 80001 90600 333 10175 20036 60004=
07037,1997-04-11 09:00:00,12,1026.9,-0.5,62,5,4500,14.816,,,300,,,,,,,,,,10,wg-a,,,,AAXX 11094 07037 12/45 /3008 10120 20050 30085 40269 56005 60006 71000 80001 90900=
07037,1997-04-11 12:00:00,15,1026,-0.7,59,7,15000,25.928,,,350,,,,,,,,,,,wg-a,,,,AAXX 11124 07037 12/65 13514 10150 20070 30078 40260 55007 60006 80001 91200=
07037,1997-04-11 15:00:00,13,1026.6,0.4,67,7,15000,29.632,,,40,,,,,,,,,,,wg-a,,,,AAXX 11154 07037 12565 70416 10130 20070 30082 40266 52004 60006 875// 91500=
07037,1997-04-12 00:00:00,2,1031.1,0.7,80,-1,0,14.816,,,30,,,,,,,,,,,wg-a,,,,AAXX 12004 07037 12/// /0308 10020 21010 30119 40311 51007 60006 90000=
07037,1997-04-12 15:00:00,9,1028.7,-0.6,53,0,25000,22.224,,,20,,,,,,,,,,,wg-a,,,,AAXX 12154 07037 12675 40212 10090 20000 30100 40287 56006 60006 84200 91500=
07037,1997-04-12 18:00:00,8,1028.6,-0.1,61,1,0,18.52,,,20,-0.1,10.1,,,,,,,,,wg-a,,,,AAXX 12184 07037 12/// /0210 10080 20010 30099 40286 56001 60006 91800 333 10101 21001=
07037,1997-04-13 00:00:00,3,1029.8,0.3,75,-1,0,7.408,,,350,,,,,,,,,,,wg-a,,,,AAXX 13004 07037 12/// /3504 10030 21010 30107 40298 51003 60006 90000=
07037,1997-04-13 06:00:00,2,1029.3,0.4,93,1,15000,7.408,,,20,0.7,7.9,,,,,,,,,wg-a,,,,AAXX 13064 07037 02/65 10204 10020 20010 30101 40293 53004 60006 80001 90600 333 10079 20007 60004=
07037,1997-04-13 09:00:00,7,1029,0.1,70,2,20000,14.816,,,60,,,,,,,,,,,wg-a,,,,AAXX 13094 07037 12570 50608 10070 20020 30102 40290 50001 60006 85500 90900=
07037,1997-04-13 12:00:00,10,1027.6,-1.2,53,1,25000,14.816,,,10,,,,,,,,,,,wg-a,,,,AAXX 13124 07037 12675 30108 10100 20010 30090 40276 58012 60006 83100 91200=
07037,1997-04-13 15:00:00,12,1025.9,-1.5,47,1,25000,14.816,,,50,,,,,,,,,,,wg-a,,,,AAXX 13154 07037 12675 /0508 10120 20010 30075 40259 57015 60006 81100 91500=
07037,1997-04-13 18:00:00,10,1025.3,-0.7,57,2,0,11.112,,,70,1.7,12.2,,,,,,,,,wg-a,,,,AAXX 13184 07037 12/// /0706 10100 20020 30068 40253 55007 60006 91800 333 10122 20017=
07037,1997-04-14 00:00:00,4,1026,-0.1,93,3,0,11.112,,,40,,,,,,,,,,,wg-a,,,,AAXX 14004 07037 12/// /0406 10040 20030 30071 40260 58001 60006 90000=
07037,1997-04-14 06:00:00,2,1026,0.3,93,1,12000,3.704,,,20,1.7,10.3,,,,,,,,,wg-a,,,,AAXX 14064 07037 02/62 20202 10020 20010 30069 40260 53003 60006 80001 90600 333 10103 20017 60004=
07037,1997-04-14 09:00:00,10,1026.2,0.8,62,3,12000,11.112,,,360,,,,,,,,,,,wg-a,,,,AAXX 14094 07037 12/62 03606 10100 20030 30077 40262 51008 60006 80000 90900=
07037,1997-04-14 15:00:00,16,1024,-1.2,42,3,15000,14.816,,,40,,,,,,,,,,,wg-a,,,,AAXX 14154 07037 12665 40408 10160 20030 30058 40240 58012 60006 84100 91500=
07037,1997-04-14 18:00:00,13,1024.9,0.7,58,5,0,18.52,,,20,2.2,16.4,,,,,,,,,wg-a,,,,AAXX 14184 07037 12/// /0210 10130 20050 30065 40249 52007 60006 91800 333 10164 20022=
07037,1997-04-15 00:00:00,7,1026.7,0.2,93,6,0,18.52,,,20,,,,,,,,,,,wg-a,,,,AAXX 15004 07037 12/// /0210 10070 20060 30080 40267 53002 60006 90000=
07037,1997-04-15 06:00:00,4,1028.4,1,93,3,15000,14.816,,,30,3.9,12.5,,,,,,,,,wg-a,,,,AAXX 15064 07037 02465 30308 10040 20030 30094 40284 53010 60006 83800 90600 333 10125 20039 60004=
07037,1997-04-15 09:00:00,7,1029.5,1.3,61,0,15000,25.928,,,60,,,,,,,,,,,wg-a,,,,AAXX 15094 07037 12565 40614 10070 20000 30107 40295 51013 60006 84500 90900=
07037,1997-04-15 12:00:00,10,1029.2,-0.1,50,0,15000,18.52,,,40,,,,,,,,,,,wg-a,,,,AAXX 15124 07037 12665 20410 10100 20000 30106 40292 58001 60006 82500 91200=
07037,1997-04-15 15:00:00,12,1027.9,-1.2,47,1,15000,22.224,,,30,,,,,,,,,,,wg-a,,,,AAXX 15154 07037 12665 30312 10120 20010 30094 40279 56012 60006 83500 91500=
07037,1997-04-15 18:00:00,9,1028.5,0.5,61,2,0,22.224,,,20,4,12.5,,,,,,,,,wg-a,,,,AAXX 15184 07037 12/// /0212 10090 20020 30099 40285 53005 60006 91800 333 10125 20040=
07037,1997-04-16 00:00:00,3,1030.1,-0.2,75,-1,0,7.408,,,40,,,,,,,,,,,wg-a,,,,AAXX 16004 07037 12/// /0404 10030 21010 30110 40301 57002 60006 90000=
07037,1997-04-16 06:00:00,2,1029.1,-0.2,87,0,14000,11.112,,,50,0.5,9.3,,,,,,,,,wg-a,,,,AAXX 16064 07037 02/64 10506 10020 20000 30099 40291 55002 60006 81030 90600 333 10093 20005 60004=
07037,1997-04-16 09:00:00,7,1029.1,0.4,66,1,20000,25.928,,,60,,,,,,,,,,,wg-a,,,,AAXX 16094 07037 12570 40614 10070 20010 30103 40291 51004 60006 84200 90900=
07037,1997-04-16 15:00:00,11,1025.6,-2,54,2,20000,22.224,,,70,,,,,,,,,,,wg-a,,,,AAXX 16154 07037 12670 /0712 10110 20020 30071 40256 58020 60006 86200 91500=
07037,1997-04-16 18:00:00,9,1024.7,-1,61,2,0,18.52,,,40,1.5,11.7,,,,,,,,,wg-a,,,,AAXX 16184 07037 12/// /0410 10090 20020 30061 40247 58010 60006 91800 333 10117 20015=
07037,1997-04-17 00:00:00,6,1024.3,-0.4,75,2,0,18.52,,,40,,,,,,,,,,,wg-a,,,,AAXX 17004 07037 12/// /0410 10060 20020 30055 40243 55004 60006 90000=
07037,1997-04-17 06:00:00,5,1022.5,-0.1,93,4,12000,14.816,,,50,3.2,9.2,,,,,,,,1,wg-a,,,,AAXX 17064 07037 02362 20508 10050 20040 30037 40225 57001 60006 70161 82800 90600 333 10092 20032 61000=
07037,1997-04-17 12:00:00,11,1022.5,-0.3,37,-3,12000,22.224,,,80,,,,,,,,,,,wg-a,,,,AAXX 17124 07037 12562 30812 10110 21030 30041 40225 58003 60006 83130 91200=
07037,1997-04-17 15:00:00,13,1021.3,-1.1,33,-3,15000,29.632,,,60,,,,,,,,,,,wg-a,,,,AAXX 17154 07037 12665 20616 10130 21030 30030 40213 57011 60006 82100 91500=
07037,1997-04-17 18:00:00,11,1021.8,0.4,37,-3,0,22.224,,,70,5.4,12.9,,,,,,,,,wg-a,,,,AAXX 17184 07037 12/// /0712 10110 21030 30034 40218 53004 60006 91800 333 10129 20054=
07037,1997-04-18 00:00:00,4,1023.7,0.4,70,-1,0,14.816,,,50,,,,,,,,,,,wg-a,,,,AAXX 18004 07037 12/// /0508 10040 21010 30048 40237 50004 60006 90000=
07037,1997-04-18 06:00:00,3,1022.9,-0.3,81,0,7000,14.816,,,60,1,10.8,,,,,,,,,wg-a,,,,AAXX 18064 07037 02/57 00608 10030 20000 30039 40229 56003 60006 80000 90600 333 10108 20010 60004=
07037,1997-04-18 09:00:00,11,1022.1,-0.3,50,1,10000,18.52,,,60,,,,,,,,,,,wg-a,,,,AAXX 18094 07037 12/60 00610 10110 20010 30036 40221 58003 60006 80000 90900=
07037,1997-04-18 12:00:00,14,1020.2,-1.6,33,-2,12000,14.816,,,60,,,,,,,,,,,wg-a,,,,AAXX 18124 07037 12662 /0608 10140 21020 30020 40202 58016 60006 81200 91200=
07037,1997-04-18 18:00:00,11,1017.5,-0.8,58,3,0,22.224,,,20,2.7,14.7,,,,,,,,,wg-a,,,,AAXX 18184 07037 12/// /0212 10110 20030 39992 40175 56008 60006 91800 333 10147 20027=
07037,1997-04-19 00:00:00,4,1017.8,-0.5,87,2,0,11.112,,,30,,,,,,,,,,,wg-a,,,,AAXX 19004 07037 12/// /0306 10040 20020 39990 40178 57005 60006 90000=
07037,1997-04-19 06:00:00,6,1015.6,-0.7,75,2,15000,18.52,,,40,3.3,10.9,,,,,,,,,wg-a,,,,AAXX 19064 07037 02465 80410 10060 20020 39970 40156 56007 60006 885// 90600 333 10109 20033 60004=
07037,1997-04-19 12:00:00,10,1014.5,-0.8,62,3,20000,25.928,,,50,,,,,,,,,,,wg-a,,,,AAXX 19124 07037 12570 80514 10100 20030 39961 40145 58008 60006 88800 91200=
07037,1997-04-19 15:00:00,10,1013.4,-1,46,-1,20000,31.484,,,30,,,,,,,,,,,wg-a,,,,AAXX 19154 07037 12670 40317 10100 21010 39951 40134 56010 60006 84230 91500=
07037,1997-04-19 18:00:00,8,1014.6,1,46,-3,0,31.484,,,40,5.6,12.1,,,,,,,,,wg-a,,,,AAXX 19184 07037 12/// /0417 10080 21030 39961 40146 53010 60006 91800 333 10121 20056=
07037,1997-04-20 00:00:00,2,1016.9,0.3,69,-3,0,11.112,,,20,,,,,,,,,,,wg-a,,,,AAXX 20004 07037 12/// /0206 10020 21030 39980 40169 51003 60006 90000=
07037,1997-04-20 06:00:00,2,1017.8,1.1,75,-2,20000,22.224,,,30,0.8,7.6,,,,,,,,,wg-a,,,,AAXX 20064 07037 02670 /0312 10020 21020 39989 40178 53011 60006 81500 90600 333 10076 20008 60004=
07037,1997-04-20 09:00:00,6,1018.1,0.5,49,-4,25000,35.188,,,50,,,,,,,,,,,wg-a,,,,AAXX 20094 07037 12675 20519 10060 21040 39994 40181 50005 60006 82100 90900=
07037,1997-04-20 12:00:00,9,1017.9,0,37,-5,25000,29.632,,,60,,,,,,,,,,,wg-a,,,,AAXX 20124 07037 12675 20616 10090 21050 39994 40179 50000 60006 82100 91200=
07037,1997-04-20 15:00:00,10,1017,-0.8,34,-5,25000,29.632,,,60,,,,,,,,,,,wg-a,,,,AAXX 20154 07037 12775 10616 10100 21050 39986 40170 58008 60006 81100 91500=
07037,1997-04-20 18:00:00,8,1017.2,0.1,34,-7,0,22.224,,,60,1.9,10.4,,,,,,,,,wg-a,,,,AAXX 20184 07037 12/// /0612 10080 21070 39987 40172 53001 60006 91800 333 10104 20019=
07037,1997-04-21 00:00:00,2,1018.8,-0,69,-3,0,14.816,,,40,,,,,,,,,,,wg-a,,,,AAXX 21004 07037 12/// /0408 10020 21030 39998 40188 54000 60006 90000=
07037,1997-04-21 06:00:00,0,1017.7,-0.2,74,-4,25000,14.816,,,60,-1.1,8.5,,,,,,,,,wg-a,,,,AAXX 21064 07037 02/75 00608 10000 21040 39986 40177 55002 60006 80000 90600 333 10085 21011 60004=
07037,1997-04-21 09:00:00,7,1017,-0.2,33,-8,25000,14.816,,,60,,,,,,,,,,,wg-a,,,,AAXX 21094 07037 12/75 00608 10070 21080 39984 40170 58002 60006 80000 90900=
07037,1997-04-21 12:00:00,10,1015.1,-1.7,29,-7,25000,22.224,,,40,,,,,,,,,,,wg-a,,,,AAXX 21124 07037 12/75 00412 10100 21070 39967 40151 58017 60006 80000 91200=
07037,1997-04-21 15:00:00,11,1013.4,-1.6,37,-3,25000,22.224,,,360,,,,,,,,,,,wg-a,,,,AAXX 21154 07037 12/75 03612 10110 21030 39951 40134 58016 60006 80000 91500=
07037,1997-04-21 18:00:00,8,1013.7,0.1,49,-2,0,25.928,,,20,-0.1,11.5,,,,,,,,,wg-a,,,,AAXX 21184 07037 12/// /0214 10080 21020 39952 40137 53001 60006 91800 333 10115 21001=
07037,1997-04-22 00:00:00,3,1015.1,0.1,81,0,0,14.816,,,20,,,,,,,,,,,wg-a,,,,AAXX 22004 07037 12/// /0208 10030 20000 39962 40151 50001 60006 90000=
07037,1997-04-22 06:00:00,5,1015.9,0.9,81,2,13000,7.408,,,30,2.3,8.1,,,,,,,,,wg-a,,,,AAXX 22064 07037 02663 70304 10050 20020 39972 40159 53009 60006 875// 90600 333 10081 20023 60004=
07037,1997-04-22 09:00:00,9,1016.5,0.8,61,2,13000,18.52,,,20,,,,,,,,,,,wg-a,,,,AAXX 22094 07037 12563 30210 10090 20020 39980 40165 53008 60006 83200 90900=
07037,1997-04-22 12:00:00,11,1016.5,0.2,40,-2,20000,18.52,,,40,,,,,,,,,,,wg-a,,,,AAXX 22124 07037 12670 /0410 10110 21020 39982 40165 51002 60006 85100 91200=
07037,1997-04-22 15:00:00,11,1016.1,-0.4,37,-3,25000,14.816,,,30,,,,,,,,,,,wg-a,,,,AAXX 22154 07037 12775 50308 10110 21030 39978 40161 56004 60006 85100 91500=
07037,1997-04-22 18:00:00,9,1016.9,0.7,57,1,0,22.224,,,20,4.5,11.6,,,,,,,,,wg-a,,,,AAXX 22184 07037 12/// /0212 10090 20010 39985 40169 53007 60006 91800 333 10116 20045=
07037,1997-04-23 00:00:00,4,1019.5,0.6,70,-1,0,14.816,,,60,,,,,,,,,,,wg-a,,,,AAXX 23004 07037 12/// /0608 10040 21010 30007 40195 52006 60006 90000=
07037,1997-04-23 06:00:00,3,1020.5,1.1,75,-1,20000,7.408,,,50,0.5,9.3,,,,,,,,,wg-a,,,,AAXX 23064 07037 02770 30504 10030 21010 30016 40205 53011 60006 83500 90600 333 10093 20005 60004=
07037,1997-04-23 09:00:00,9,1020.6,0.5,46,-2,25000,3.704,,,100,,,,,,,,,,,wg-a,,,,AAXX 23094 07037 12575 31002 10090 21020 30021 40206 51005 60006 81101 90900=
07037,1997-04-23 15:00:00,13,1018.9,-0.7,35,-2,25000,3.704,,,60,,,,,,,,,,,wg-a,,,,AAXX 23154 07037 12775 40602 10130 21020 30007 40189 57007 60006 83201 91500=
07037,1997-04-23 18:00:00,12,1019.5,0.5,47,1,0,14.816,,,10,2.6,14.3,,,,,,,,,wg-a,,,,AAXX 23184 07037 12/// /0108 10120 20010 30012 40195 53005 60006 91800 333 10143 20026=
07037,1997-04-24 00:00:00,4,1021.1,0,75,0,0,7.408,,,170,,,,,,,,,,,wg-a,,,,AAXX 24004 07037 12/// /1704 10040 20000 30022 40211 50000 60006 90000=
07037,1997-04-24 06:00:00,2,1021,0.1,87,0,15000,3.704,,,170,0.9,11.9,,,,,,,,,wg-a,,,,AAXX 24064 07037 02/65 21702 10020 20000 30020 40210 53001 60006 80001 90600 333 10119 20009 60004=
07037,1997-04-24 09:00:00,13,1020.6,0.3,47,2,15000,14.816,,,220,,,,,,,,,,,wg-a,,,,AAXX 24094 07037 12/65 12208 10130 20020 30023 40206 51003 60006 80001 90900=
07037,1997-04-24 12:00:00,17,1019.1,-1.2,32,0,20000,18.52,,,230,,,,,,,,,,,wg-a,,,,AAXX 24124 07037 12770 32310 10170 20000 30011 40191 58012 60006 81101 91200=
07037,1997-04-24 18:00:00,15,1017.3,-0.8,39,1,0,14.816,,,210,2,17.8,,,,,,,,,wg-a,,,,AAXX 24184 07037 12/// /2108 10150 20010 39992 40173 56008 60006 91800 333 10178 20020=
07037,1997-04-25 00:00:00,7,1018,-0.5,66,1,0,11.112,,,90,,,,,,,,,,,wg-a,,,,AAXX 25004 07037 12/// /0906 10070 20010 39994 40180 58005 60006 90000=
07037,1997-04-25 09:00:00,13,1016.2,-0.3,58,5,12000,11.112,,,260,,,,,,,,,,,wg-a,,,,AAXX 25094 07037 12/62 72606 10130 20050 39980 40162 56003 60006 84032 90900=
07037,1997-04-25 12:00:00,12,1015.9,-0.3,76,8,6000,14.816,,,280,,,,,,,,,,61,wg-a,,,,AAXX 25124 07037 02456 82808 10120 20080 39977 40159 56003 61000 76162 8557/ 91200 333 6100=
07037,1997-04-25 15:00:00,10,1015.4,-0.6,100,10,1800,14.816,,,230,,,,5,,,,,,61,wg-a,,,,AAXX 25154 07037 12218 82308 10100 20100 39971 40154 58006 60057 76166 877// 91500=
07037,1997-04-25 18:00:00,10,1014.7,-0.7,100,10,0,18.52,,,220,4.5,14.4,,,,,,,,,wg-a,,,,AAXX 25184 07037 32/// /2210 10100 20100 39964 40147 57007 91800 333 10144 20045=
07037,1997-04-26 00:00:00,10,1015.3,0.1,100,10,0,18.52,,,260,,,,,,,,,,,wg-a,,,,AAXX 26004 07037 12/// /2610 10100 20100 39970 40153 51001 60006 90000=
07037,1997-04-26 06:00:00,9,1014.7,-0.3,100,9,8000,7.408,,,200,9.2,10.6,,,,,7,,,,wg-a,,,,AAXX 26064 07037 02458 82004 10090 20090 39963 40147 55003 60006 878// 90600 333 10106 20092 60074=
07037,1997-04-26 12:00:00,12,1010.6,-3,94,11,7000,22.224,,,170,,,,,,,,,,3,wg-a,,,,AAXX 26124 07037 12457 81712 10120 20110 39925 40106 58030 60016 70362 8753/ 91200=
07037,1997-04-26 15:00:00,12,1006.9,-3.6,100,12,10000,22.224,,,170,,,,1,,,,,,21,wg-a,,,,AAXX 26154 07037 12460 81712 10120 20120 39889 40069 56036 60017 72162 8553/ 91500=
07037,1997-04-26 18:00:00,10,1006,-1.1,93,9,0,18.52,,,200,9.3,12.8,,,,,,,,,wg-a,,,,AAXX 26184 07037 32/// /2010 10100 20090 39878 40060 56011 91800 333 10128 20093=
07037,1997-04-27 06:00:00,9,1007.5,1.7,100,9,2000,18.52,,,290,8.4,9.9,,1,,,9,,,60,wg-a,,,,AAXX 27064 07037 02220 82910 10090 20090 39893 40075 53017 60094 76086 878// 90600 333 10099 20084 60017=
07037,1997-04-27 09:00:00,10,1010,2.5,100,10,6000,22.224,,,290,,,,1,,,,,,3,wg-a,,,,AAXX 27094 07037 12356 82912 10100 20100 39918 40100 53025 60017 70362 878// 90900=
07037,1997-04-27 12:00:00,14,1011,1.2,82,11,12000,22.224,,,300,,,,1,,,,,,3,wg-a,,,,AAXX 27124 07037 02462 53012 10140 20110 39930 40110 51012 60026 70365 85800 91200 333 60017=
07037,1997-04-27 18:00:00,13,1013.6,1.6,72,8,0,18.52,,,300,9.3,15.2,,,,,,,,,wg-a,,,,AAXX 27184 07037 32/// /3010 10130 20080 39955 40136 53016 91800 333 10152 20093=
07037,1997-04-28 00:00:00,10,1013.2,-1.1,100,10,0,18.52,,,200,,,,,,,,,,,wg-a,,,,AAXX 28004 07037 12/// /2010 10100 20100 39949 40132 58011 60006 90000=
07037,1997-04-28 09:00:00,12,1012.4,-0.1,100,12,18000,29.632,,,260,,,,0,,,,,,1,wg-a,,,,AAXX 28094 07037 12268 72616 10120 20120 39943 40124 58001 60007 70152 877// 90900=
07037,1997-04-28 12:00:00,14,1012.2,-0.1,77,10,20000,29.632,,,280,,,,,,,,,,1,wg-a,,,,AAXX 28124 07037 12470 72816 10140 20100 39942 40122 55001 60016 70152 8683/ 91200=
07037,1997-04-28 15:00:00,15,1011.8,-0.4,67,9,25000,35.188,,64.82,270,,,,,,,,,,25,wg-a,,,,AAXX 28154 07037 02575 /2719 10150 20090 39938 40118 58004 61000 72586 86800 91500 333 //// 91035=
07037,1997-04-28 18:00:00,13,1011.1,-0.7,72,8,0,42.596,,,280,11.5,15.3,,,,,,,,,wg-a,,,,AAXX 28184 07037 32/// /2823 10130 20080 39931 40111 56007 91800 333 10153 20115=
07037,1997-04-29 06:00:00,10,1014,2,93,9,12000,25.928,,,300,10,13.3,,,,,1,,,3,wg-a,,,,AAXX 29064 07037 02462 73014 10100 20090 39957 40140 53020 60006 70386 875// 90600 333 10133 20100 60014=
07037,1997-04-29 09:00:00,12,1015.4,1.5,76,8,12000,31.484,,55.56,300,,,,,,,,,,,wg-a,,,,AAXX 29094 07037 12562 73017 10120 20080 39972 40154 51015 60006 878// 90900 333 91030=
07037,1997-04-29 12:00:00,13,1016.4,1,67,7,20000,31.484,,,300,,,,,,,,,,,wg-a,,,,AAXX 29124 07037 12570 73017 10130 20070 39982 40164 51010 60006 878// 91200=
07037,1997-04-30 06:00:00,8,1024.9,2,93,7,15000,7.408,,,320,5.4,12.5,,,,,,,,,wg-a,,,,AAXX 30064 07037 02/65 03204 10080 20070 30062 40249 53020 60006 80000 90600 333 10125 20054 60004=
07037,1997-04-30 09:00:00,13,1025.8,1.3,72,8,15000,11.112,,,360,,,,,,,,,,,wg-a,,,,AAXX 30094 07037 12565 33606 10130 20080 30075 40258 51013 60006 83200 90900=
07037,1997-04-30 15:00:00,17,1026.1,0.1,52,7,15000,7.408,,,20,,,,,,,,,,,wg-a,,,,AAXX 30154 07037 12665 50204 10170 20070 30080 40261 51001 60006 85800 91500=
07037,1997-04-30 18:00:00,15,1026.8,0.6,67,9,0,14.816,,,40,7.8,17.6,,,,,,,,,wg-a,,,,AAXX 30184 07037 12/// /0408 10150 20090 30086 40268 52006 60006 91800 333 10176 20078=
07037,1997-05-01 00:00:00,8,1029.2,0.4,93,7,0,11.112,,,60,,,,,,,,,,,wg-a,,,,AAXX 01004 07037 12/// /0606 10080 20070 30105 40292 52004 60006 90000=
07037,1997-05-01 12:00:00,18,1029,-1.1,59,10,15000,14.816,,,110,,,,,,,,,,,wg-a,,,,AAXX 01124 07037 12/65 01108 10180 20100 30109 40290 57011 60006 80000 91200=
07037,1997-05-01 15:00:00,20,1027.2,-1.6,46,8,20000,18.52,,,80,,,,,,,,,,,wg-a,,,,AAXX 01154 07037 12/70 00810 10200 20080 30093 40272 58016 60006 80000 91500=
07037,1997-05-02 00:00:00,11,1027.2,-0.3,82,8,0,14.816,,,90,,,,,,,,,,,wg-a,,,,AAXX 02004 07037 12/// /0908 10110 20080 30087 40272 57003 60006 90000=
07037,1997-05-02 06:00:00,11,1027.1,0.2,87,9,15000,14.816,,,110,7.8,17.9,,,,,,,,,wg-a,,,,AAXX 02064 07037 02/65 01108 10110 20090 30086 40271 51002 60006 80000 90600 333 10179 20078 60004=
07037,1997-05-02 09:00:00,17,1026.3,-0.4,59,9,15000,18.52,,,110,,,,,,,,,,,wg-a,,,,AAXX 02094 07037 12/65 01110 10170 20090 30082 40263 58004 60006 80000 90900=
07037,1997-05-02 12:00:00,21,1023.9,-2.1,40,7,20000,18.52,,,110,,,,,,,,,,,wg-a,,,,AAXX 02124 07037 12/70 01110 10210 20070 30061 40239 58021 60006 80000 91200=
07037,1997-05-02 15:00:00,23,1021.5,-2.2,38,8,20000,22.224,,,120,,,,,,,,,,,wg-a,,,,AAXX 02154 07037 12/70 01212 10230 20080 30039 40215 56022 60006 80000 91500=
07037,1997-05-02 18:00:00,21,1020.5,-1.2,40,7,0,14.816,,,120,11,22.9,,,,,,,,,wg-a,,,,AAXX 02184 07037 12/// /1208 10210 20070 30027 40205 56012 60006 91800 333 10229 20110=
07037,1997-05-03 06:00:00,12,1017.5,-0.8,82,9,20000,11.112,,,140,10.5,20.4,,,,,,,,,wg-a,,,,AAXX 03064 07037 02/70 01406 10120 20090 39993 40175 56008 60006 80000 90600 333 10204 20105 60004=
07037,1997-05-03 09:00:00,19,1016.3,-0.8,64,12,20000,7.408,,,220,,,,,,,,,,,wg-a,,,,AAXX 03094 07037 12/70 22204 10190 20120 39985 40163 56008 60006 80001 90900=
07037,1997-05-03 18:00:00,16,1014.9,0.1,82,13,0,25.928,,,300,12.4,25.3,,,,,,,,,wg-a,,,,AAXX 03184 07037 32/// /3014 10160 20130 39970 40149 50001 91800 333 10253 20124=
07037,1997-05-04 00:00:00,11,1014.7,-1.1,94,10,0,3.704,,,200,,,,,,,,,,,wg-a,,,,AAXX 04004 07037 12/// /2002 10110 20100 39965 40147 57011 60006 90000=
07037,1997-05-04 06:00:00,12,1011.2,-1.2,100,12,15000,18.52,,,210,10.6,15.7,,,,,,,,,wg-a,,,,AAXX 04064 07037 02465 72110 10120 20120 39931 40112 56012 60006 8583/ 90600 333 10157 20106 60004=
07037,1997-05-04 09:00:00,16,1009.5,-1.4,82,13,20000,25.928,,,220,,,,,,,,,,,wg-a,,,,AAXX 04094 07037 12470 72214 10160 20130 39917 40095 58014 60006 8683/ 90900=
07037,1997-05-04 12:00:00,16,1007.3,-2.2,88,14,20000,18.52,,,200,,,,1,,,,,,21,wg-a,,,,AAXX 04124 07037 02470 82010 10160 20140 39895 40073 58022 60016 72165 8484/ 91200 333 60017=
07037,1997-05-04 15:00:00,16,1005.5,-1.8,82,13,18000,31.484,,,240,,,,0,,,,,,,wg-a,,,,AAXX 04154 07037 12568 82417 10160 20130 39877 40055 56018 60007 8582/ 91500=
07037,1997-05-04 18:00:00,16,1002.4,-3,77,12,0,25.928,,,230,12.3,17.2,,,,,,,,,wg-a,,,,AAXX 04184 07037 32/// /2314 10160 20120 39847 40024 56030 91800 333 10172 20123=
07037,1997-05-05 00:00:00,13,998.5,-2.5,82,10,0,25.928,,,210,,,,,,,,,,,wg-a,,,,AAXX 05004 07037 12/// /2114 10130 20100 39807 49985 58025 60006 90000=
07037,1997-05-05 06:00:00,12,994.6,-1.2,94,11,15000,18.52,,,190,11.9,16.2,,,,,1,,,,wg-a,,,,AAXX 05064 07037 02365 71910 10120 20110 39768 49946 58012 60006 8583/ 90600 333 10162 20119 60014=
07037,1997-05-05 09:00:00,13,993.1,-1.4,88,11,3000,29.632,,,220,,,,0,,,,,,81,wg-a,,,,AAXX 05094 07037 12430 72216 10130 20110 39754 49931 57014 60007 78186 878// 90900=
07037,1997-05-05 12:00:00,14,993.3,0.3,82,11,20000,22.224,,,240,,,,3,,,,,,3,wg-a,,,,AAXX 05124 07037 02470 /2412 10140 20110 39757 49933 50003 60036 70386 86200 91200 333 60037=
07037,1997-05-05 15:00:00,14,991.5,-1.8,88,12,20000,18.52,,,210,,,,3,,,,,,26,wg-a,,,,AAXX 05154 07037 12570 72110 10140 20120 39739 49915 56018 60037 72687 879// 91500=
07037,1997-05-05 18:00:00,14,989.5,-2,82,11,0,35.188,,,210,11.3,17.7,,2,,,,,,,wg-a,,,,AAXX 05184 07037 12/// /2119 10140 20110 39719 49895 58020 60027 91800 333 10177 20113=
07037,1997-05-06 00:00:00,10,990.5,0.4,93,9,0,14.816,,,270,,,,,,,,,,,wg-a,,,,AAXX 06004 07037 12/// /2708 10100 20090 39726 49905 51004 60036 90000=
07037,1997-05-06 06:00:00,8,987.6,-1.7,100,8,15000,7.408,,,300,8,13.9,,0,,,11,,,,wg-a,,,,AAXX 06064 07037 02465 73004 10080 20080 39697 49876 56017 60114 8457/ 90600 333 10139 20080 60007=
07037,1997-05-06 09:00:00,6,989.7,1.9,93,5,500,29.632,,,10,,,,0,,,,,,61,wg-a,,,,AAXX 06094 07037 12300 80116 10060 20050 39716 49897 53019 60007 76162 887// 90900=
07037,1997-05-06 12:00:00,5,994.5,4.6,93,4,15000,29.632,,55.56,360,,,,2,,,,,,61,wg-a,,,,AAXX 06124 07037 02365 83616 10050 20040 39762 49945 53046 60026 76162 888// 91200 333 60027 91030=
07037,1997-05-06 15:00:00,5,997.8,3.2,87,3,15000,25.928,,,360,,,,1,,,,,,25,wg-a,,,,AAXX 06154 07037 12565 83614 10050 20030 39794 49978 51032 60017 72586 8682/ 91500=
07037,1997-05-06 18:00:00,4,1000.8,2.9,87,2,0,29.632,,,10,4.3,9.2,,,,,,,,,wg-a,,,,AAXX 06184 07037 02/// /0116 10040 20020 39823 40008 53029 61000 91800 333 10092 20043 ////=
07037,1997-05-07 00:00:00,1,1004,0.5,100,1,0,11.112,,,260,,,,,,,,,,,wg-a,,,,AAXX 07004 07037 12/// /2606 10010 20010 39853 40040 51005 60016 90000=
07037,1997-05-07 06:00:00,2,1002.8,0.2,93,1,500,11.112,,,170,0,4.4,,,,,3,,,45,wg-a,,,,AAXX 07064 07037 02/05 91706 10020 20010 39841 40028 53002 60006 74586 89/// 90600 333 10044 20000 60034=
07037,1997-05-07 09:00:00,6,1002.5,0,87,4,8000,3.704,,,290,,,,,,,,,,1,wg-a,,,,AAXX 07094 07037 12458 72902 10060 20040 39841 40025 50000 60006 70142 875// 90900=
07037,1997-05-07 12:00:00,7,1002.4,-0,53,-2,20000,7.408,,,50,,,,,,,,,,1,wg-a,,,,AAXX 07124 07037 12670 70504 10070 21020 39841 40024 55000 60006 70142 872// 91200=
07037,1997-05-07 15:00:00,6,1003.4,0.9,70,1,11000,14.816,,,270,,,,,,,,,,,wg-a,,,,AAXX 07154 07037 32/61 /2708 10060 20010 39850 40034 53009 91500=
07037,1997-05-07 18:00:00,8,1003.6,0.3,61,1,0,18.52,,,280,1.5,8.8,,,,,,,,1,wg-a,,,,AAXX 07184 07037 32/// /2810 10080 20010 39853 40036 53003 70162 91800 333 10088 20015=
07037,1997-05-08 00:00:00,2,1005.4,-0.3,93,1,0,14.816,,,230,,,,,,,,,,,wg-a,,,,AAXX 08004 07037 12/// /2308 10020 20010 39867 40054 58003 60006 90000=
07037,1997-05-08 06:00:00,4,1003.2,-0.5,93,3,10000,22.224,,,230,1.6,7.8,,,,,,,,61,wg-a,,,,AAXX 08064 07037 02260 82312 10040 20030 39847 40032 55005 61000 76162 887// 90600 333 10078 20016 6000=
07037,1997-05-08 09:00:00,7,1002.6,-0.4,87,5,15000,25.928,,,230,,,,0,,,,,,3,wg-a,,,,AAXX 08094 07037 12465 72314 10070 20050 39843 40026 55004 60007 70362 875// 90900=
07037,1997-05-08 15:00:00,11,1000.4,-1.7,76,7,10000,25.928,,,210,,,,0,,,,,,21,wg-a,,,,AAXX 08154 07037 12560 82114 10110 20070 39824 40004 58017 60007 72186 8682/ 91500=
07037,1997-05-09 00:00:00,7,997.6,-0,100,7,0,22.224,,,240,,,,0,,,,,,,wg-a,,,,AAXX 09004 07037 02/// /2412 10070 20070 39794 49976 55000 60016 90000 333 60007=
07037,1997-05-09 06:00:00,6,999.1,1.3,93,5,25000,18.52,,,240,5.7,9.3,,,,,,,,25,wg-a,,,,AAXX 09064 07037 02475 72410 10060 20050 39808 49991 53013 61000 72586 878// 90600 333 10093 20057 6001=
07037,1997-05-09 12:00:00,9,1002.9,2.2,87,7,25000,22.224,,,250,,,,3,,,,,,25,wg-a,,,,AAXX 09124 07037 02375 72512 10090 20070 39847 40029 53022 60036 72586 879// 91200 333 60037=
07037,1997-05-09 15:00:00,13,1003.9,1.2,72,8,20000,22.224,,,290,,,,1,,,,,,1,wg-a,,,,AAXX 09154 07037 12570 /2912 10130 20080 39859 40039 51012 60017 70186 86200 91500=
07037,1997-05-09 18:00:00,12,1005,1.1,71,7,0,14.816,,,280,5.7,13.7,,0,,,,,,,wg-a,,,,AAXX 09184 07037 12/// /2808 10120 20070 39870 40050 53011 60007 91800 333 10137 20057=
07037,1997-05-10 12:00:00,14,1006.3,-1.1,77,10,25000,35.188,,,200,,,,,,,,,,1,wg-a,,,,AAXX 10124 07037 02575 72019 10140 20100 39884 40063 56011 61000 70162 878// 91200 333 ////=
07037,1997-05-10 15:00:00,13,1005.5,-0.8,94,12,20000,31.484,,,190,,,,0,,,,,,1,wg-a,,,,AAXX 10154 07037 12470 71917 10130 20120 39876 40055 56008 60007 70186 872// 91500=
07037,1997-05-10 18:00:00,13,1006,0.4,82,10,0,35.188,,,220,7.7,15.6,,1,,,,,,,wg-a,,,,AAXX 10184 07037 12/// /2219 10130 20100 39880 40060 53004 60017 91800 333 10156 20077=
07037,1997-05-11 00:00:00,11,1007.4,0.3,87,9,0,18.52,,,210,,,,,,,,,,,wg-a,,,,AAXX 11004 07037 12/// /2110 10110 20090 39892 40074 53003 60006 90000=
07037,1997-05-11 06:00:00,10,1007.7,0.4,93,9,15000,22.224,,,190,9.3,13.3,,,,,,,,60,wg-a,,,,AAXX 11064 07037 02465 71912 10100 20090 39895 40077 53004 61000 76062 875// 90600 333 10133 20093 6002=
07037,1997-05-11 12:00:00,16,1008.2,-0.1,59,8,20000,35.188,,,220,,,,,,,,,,3,wg-a,,,,AAXX 11124 07037 12670 /2219 10160 20080 39903 40082 55001 60016 70362 86801 91200=
07037,1997-05-11 15:00:00,16,1008.8,0.6,51,6,11000,31.484,,,210,,,,,,,,,,,wg-a,,,,AAXX 11154 07037 12/61 /2117 10160 20060 39909 40088 51006 60006 91500=
07037,1997-05-11 18:00:00,11,1010.5,1.4,82,8,0,22.224,,,210,9.7,16.2,,1,,,,,,,wg-a,,,,AAXX 11184 07037 12/// /2112 10110 20080 39923 40105 53014 60017 91800 333 10162 20097=
07037,1997-05-12 00:00:00,8,1014.4,1.3,87,6,0,18.52,,,200,,,,,,,,,,,wg-a,,,,AAXX 12004 07037 12/// /2010 10080 20060 39960 40144 51013 60006 90000=
07037,1997-05-12 06:00:00,8,1017.9,1.7,93,7,20000,18.52,,,210,6.3,10.9,,,,,2,,,1,wg-a,,,,AAXX 12064 07037 02470 /2110 10080 20070 39994 40179 53017 60006 70186 81200 90600 333 10109 20063 60024=
07037,1997-05-12 09:00:00,13,1019.1,1.5,72,8,25000,25.928,,,230,,,,,,,,,,,wg-a,,,,AAXX 12094 07037 12575 62314 10130 20080 30009 40191 51015 60006 86200 90900=
07037,1997-05-12 12:00:00,15,1019.6,0.6,67,9,25000,22.224,,,230,,,,1,,,,,,25,wg-a,,,,AAXX 12124 07037 02575 /2312 10150 20090 30015 40196 50006 60016 72586 85900 91200 333 60017=
07037,1997-05-12 15:00:00,13,1020.3,0.5,72,8,20000,31.484,,,220,,,,1,,,,,,3,wg-a,,,,AAXX 12154 07037 12570 /2217 10130 20080 30020 40203 51005 60017 70386 86900 91500=
07037,1997-05-13 00:00:00,7,1021.7,0.1,93,6,0,3.704,,,220,,,,,,,,,,,wg-a,,,,AAXX 13004 07037 12/// /2202 10070 20060 30030 40217 51001 60006 90000=
07037,1997-05-13 12:00:00,18,1020.3,-0.6,49,7,20000,14.816,,,230,,,,,,,,,,,wg-a,,,,AAXX 13124 07037 12670 52308 10180 20070 30024 40203 58006 60006 84201 91200=
07037,1997-05-13 15:00:00,19,1018.9,-1.4,46,7,20000,7.408,,,210,,,,,,,,,,,wg-a,,,,AAXX 13154 07037 12770 62104 10190 20070 30010 40189 56014 60006 83201 91500=
07037,1997-05-13 18:00:00,15,1018.4,-0.6,72,10,0,18.52,,,10,7.3,19.6,,,,,,,,,wg-a,,,,AAXX 13184 07037 12/// /0110 10150 20100 30004 40184 56006 60006 91800 333 10196 20073=
07037,1997-05-14 00:00:00,10,1019.7,0.3,87,8,0,14.816,,,20,,,,,,,,,,,wg-a,,,,AAXX 14004 07037 12/// /0208 10100 20080 30013 40197 50003 60016 90000=
07037,1997-05-14 06:00:00,9,1021.3,1.5,93,8,12000,3.704,,,240,7.9,15.3,,,,,2,,,1,wg-a,,,,AAXX 14064 07037 02662 62402 10090 20080 30028 40213 53015 60006 70162 84531 90600 333 10153 20079 60024=
07037,1997-05-14 09:00:00,14,1022.1,1.1,72,9,11000,7.408,,,60,,,,,,,,,,,wg-a,,,,AAXX 14094 07037 12/61 /0604 10140 20090 30039 40221 51011 60006 90900=
07037,1997-05-14 15:00:00,18,1020.7,-1,52,8,15000,3.704,,,50,,,,,,,,,,,wg-a,,,,AAXX 14154 07037 12765 60502 10180 20080 30028 40207 58010 60006 86230 91500=
07037,1997-05-14 18:00:00,16,1020.9,0.1,68,10,0,14.816,,,30,8.6,18.6,,,,,,,,,wg-a,,,,AAXX 14184 07037 12/// /0308 10160 20100 30029 40209 53001 60006 91800 333 10186 20086=
07037,1997-05-15 00:00:00,10,1021.6,-0.4,93,9,0,11.112,,,80,,,,,,,,,,,wg-a,,,,AAXX 15004 07037 12/// /0806 10100 20090 30032 40216 58004 60006 90000=
07037,1997-05-15 06:00:00,11,1019.2,-1.1,94,10,6000,18.52,,,60,9.8,16.2,,,,,,,,61,wg-a,,,,AAXX 15064 07037 02656 70610 10110 20100 30009 40192 58011 61000 76162 8352/ 90600 333 10162 20098 6000=
07037,1997-05-15 09:00:00,12,1018,-1.1,88,10,6000,18.52,,,80,,,,1,,,,,,61,wg-a,,,,AAXX 15094 07037 12256 70810 10120 20100 39998 40180 58011 60017 76162 8352/ 90900=
07037,1997-05-15 12:00:00,15,1016.8,-1,88,13,7000,22.224,,,70,,,,2,,,,,,3,wg-a,,,,AAXX 15124 07037 02457 70712 10150 20130 39988 40168 58010 60036 70362 8357/ 91200 333 60027=
07037,1997-05-15 15:00:00,18,1015,-1.6,83,15,500,14.816,,,80,,,,,,,,,,,wg-a,,,,AAXX 15154 07037 12400 /0808 10180 20150 39972 40150 56016 60006 85200 91500=
07037,1997-05-15 18:00:00,19,1014.1,-0.8,83,16,0,11.112,,,20,10.9,19.8,,,,,,,,,wg-a,,,,AAXX 15184 07037 32/// /0206 10190 20160 39964 40141 56008 91800 333 10198 20109=
07037,1997-05-16 00:00:00,15,1014.1,-0.5,94,14,0,0,,,0,,,,,,,,,,,wg-a,,,,AAXX 16004 07037 12/// ///// 10150 20140 39961 40141 58005 60006 90000=
07037,1997-05-16 06:00:00,14,1013.8,0.9,100,14,4000,11.112,,,130,13,19.3,,,,,9,,,28,wg-a,,,,AAXX 16064 07037 02/40 91306 10140 20140 39958 40138 53009 60006 72898 8900/ 90600 333 10193 20130 60094=
07037,1997-05-16 09:00:00,18,1013.2,-0.4,83,15,15000,7.408,,,100,,,,,,,,,,,wg-a,,,,AAXX 16094 07037 12/65 71004 10180 20150 39954 40132 58004 60006 84031 90900=
07037,1997-05-16 12:00:00,24,1012,-0.8,69,18,20000,22.224,,,120,,,,,,,,,,,wg-a,,,,AAXX 16124 07037 12/70 41212 10240 20180 39946 40120 57008 60006 81081 91200=
07037,1997-05-16 15:00:00,24,1010.4,-1.5,54,14,20000,25.928,,,140,,,,,,,,,,,wg-a,,,,AAXX 16154 07037 12670 61414 10240 20140 39931 40104 57015 60006 83281 91500=
07037,1997-05-16 18:00:00,23,1010.6,0.1,53,13,0,18.52,,,180,14,25,,,,,,,,,wg-a,,,,AAXX 16184 07037 12/// /1810 10230 20130 39932 40106 53001 60006 91800 333 10250 20140=
07037,1997-05-17 00:00:00,14,1012.5,0.4,94,13,0,7.408,,,150,,,,,,,,,,,wg-a,,,,AAXX 17004 07037 12/// /1504 10140 20130 39945 40125 50004 60086 90000=
07037,1997-05-17 06:00:00,15,1011.1,-0.3,100,15,15000,18.52,,,110,12.6,22.6,,,,,8,,,,wg-a,,,,AAXX 17064 07037 02/65 51110 10150 20150 39932 40111 56003 60006 80001 90600 333 10226 20126 60084=
07037,1997-05-17 09:00:00,20,1011,0.2,83,17,15000,11.112,,,160,,,,,,,,,,,wg-a,,,,AAXX 17094 07037 12/65 51606 10200 20170 39934 40110 52002 60006 83031 90900=
07037,1997-05-17 12:00:00,23,1010.3,-0.5,61,15,15000,25.928,,,160,,,,,,,,,,,wg-a,,,,AAXX 17124 07037 12565 41614 10230 20150 39929 40103 58005 60006 82201 91200=
07037,1997-05-17 15:00:00,22,1010,-0.4,69,16,15000,18.52,,,180,,,,,,,,,,,wg-a,,,,AAXX 17154 07037 12665 71810 10220 20160 39925 40100 58004 60006 82201 91500=
07037,1997-05-17 18:00:00,21,1010.2,0.1,69,15,0,14.816,,,190,15.3,23,,,,,,,,,wg-a,,,,AAXX 17184 07037 12/// /1908 10210 20150 39926 40102 53001 60006 91800 333 10230 20153=
07037,1997-05-18 00:00:00,14,1011.7,-0.3,100,14,0,3.704,,,200,,,,,,,,,,,wg-a,,,,AAXX 18004 07037 12/// /2002 10140 20140 39937 40117 58003 60006 90000=
07037,1997-05-18 06:00:00,13,1011.6,0.6,100,13,9000,7.408,,,190,12.2,20.5,,,,,,,,,wg-a,,,,AAXX 18064 07037 02359 61904 10130 20130 39936 40116 53006 60006 86530 90600 333 10205 20122 60004=
07037,1997-05-18 09:00:00,15,1011.6,0.1,82,12,20000,14.816,,,170,,,,,,,,,,,wg-a,,,,AAXX 18094 07037 12470 61708 10150 20120 39937 40116 50001 60006 86800 90900=
07037,1997-05-18 12:00:00,16,1011,-0.5,82,13,25000,18.52,,,190,,,,,,,,,,,wg-a,,,,AAXX 18124 07037 12575 71910 10160 20130 39932 40110 56005 60006 878// 91200=
07037,1997-05-18 18:00:00,16,1010.4,-0.5,88,14,0,7.408,,,290,13.2,18.2,,,,,,,,,wg-a,,,,AAXX 18184 07037 32/// /2904 10160 20140 39926 40104 55005 91800 333 10182 20132=
07037,1997-05-19 00:00:00,11,1010.6,-0.4,94,10,0,11.112,,,140,,,,,,,,,,,wg-a,,,,AAXX 19004 07037 02/// /1406 10110 20100 39924 40106 58004 61000 90000 333 ////=
07037,1997-05-19 06:00:00,13,1007,-2,94,12,15000,18.52,,,110,9.9,15.9,,,,,4,,,1,wg-a,,,,AAXX 19064 07037 02/65 41110 10130 20120 39890 40070 56020 60006 70186 82031 90600 333 10159 20099 60044=
07037,1997-05-19 12:00:00,15,1006.9,0.3,88,13,20000,11.112,,,170,,,,0,,,,,,61,wg-a,,,,AAXX 19124 07037 02370 81706 10150 20130 39891 40069 50003 60006 76161 8783/ 91200 333 60007=
07037,1997-05-19 15:00:00,18,1006.1,-0.6,73,13,20000,25.928,,,200,,,,0,,,,,,3,wg-a,,,,AAXX 19154 07037 12570 /2014 10180 20130 39885 40061 57006 60007 70362 86200 91500=
07037,1997-05-20 00:00:00,10,1007.1,-0.4,100,10,0,7.408,,,150,,,,,,,,,,,wg-a,,,,AAXX 20004 07037 12/// /1504 10100 20100 39889 40071 58004 60006 90000=
07037,1997-05-20 06:00:00,11,1005,-0.8,100,11,10000,11.112,,,150,8.5,14.7,,,,,,,,61,wg-a,,,,AAXX 20064 07037 02260 71506 10110 20110 39869 40050 56008 61000 76162 877// 90600 333 10147 20085 6001=
07037,1997-05-20 15:00:00,14,1003.2,-0.9,82,11,15000,18.52,,,220,,,,1,,,,,,80,wg-a,,,,AAXX 20154 07037 12565 72210 10140 20110 39853 40032 56009 60017 78086 8586/ 91500=
07037,1997-05-20 18:00:00,12,1004.6,1.3,94,11,0,11.112,,,200,10.9,16.4,,,,,,,,,wg-a,,,,AAXX 20184 07037 32/// /2006 10120 20110 39866 40046 51013 91800 333 10164 20109=
07037,1997-05-21 00:00:00,11,1005,-0.4,94,10,0,22.224,,,210,,,,,,,,,,,wg-a,,,,AAXX 21004 07037 12/// /2112 10110 20100 39869 40050 58004 60016 90000=
07037,1997-05-21 06:00:00,11,1004.2,0.3,100,11,15000,22.224,,,260,10.4,12.2,,,,,,,,21,wg-a,,,,AAXX 21064 07037 02265 82612 10110 20110 39861 40042 53003 61000 72162 877// 90600 333 10122 20104 6015=
07037,1997-05-21 09:00:00,13,1006.3,2.2,88,11,15000,18.52,,,290,,,,,,,,,,60,wg-a,,,,AAXX 21094 07037 02465 82910 10130 20110 39883 40063 53022 61000 76062 877// 90900 333 ////=
07037,1997-05-21 12:00:00,13,1008.4,2.1,94,12,8000,22.224,,,280,,,,2,,,,,,61,wg-a,,,,AAXX 21124 07037 02258 72812 10130 20120 39904 40084 51021 60026 76186 877// 91200 333 60027=
07037,1997-05-21 15:00:00,14,1010,1.6,82,11,12000,18.52,,,320,,,,1,,,,,,1,wg-a,,,,AAXX 21154 07037 12462 73210 10140 20110 39920 40100 53016 60017 70186 872// 91500=
07037,1997-05-21 18:00:00,13,1011.6,1.5,82,10,0,18.52,,,310,10.8,15.1,,,,,,,,,wg-a,,,,AAXX 21184 07037 32/// /3110 10130 20100 39935 40116 51015 91800 333 10151 20108=
07037,1997-05-22 00:00:00,10,1014.1,0.5,100,10,0,7.408,,,280,,,,,,,,,,,wg-a,,,,AAXX 22004 07037 12/// /2804 10100 20100 39958 40141 51005 60006 90000=
07037,1997-05-22 06:00:00,11,1014.5,0.6,100,11,1500,7.408,,,260,9.3,13.5,,,,,2,,,10,wg-a,,,,AAXX 22064 07037 02115 82604 10110 20110 39963 40145 53006 60006 71022 886// 90600 333 10135 20093 60024=
07037,1997-05-22 09:00:00,11,1015.9,1.3,94,10,2000,11.112,,,80,,,,,,,,,,20,wg-a,,,,AAXX 22094 07037 02120 80806 10110 20100 39976 40159 51013 61000 72052 887// 90900 333 ////=
07037,1997-05-22 12:00:00,12,1016.2,0.4,94,11,6000,11.112,,,60,,,,1,,,,,,10,wg-a,,,,AAXX 22124 07037 02256 80606 10120 20110 39980 40162 51004 60016 71065 887// 91200 333 60017=
07037,1997-05-22 15:00:00,14,1015.8,-0.3,82,11,8000,11.112,,,30,,,,,,,,,,,wg-a,,,,AAXX 22154 07037 12458 70306 10140 20110 39977 40158 56003 60006 878// 91500=
07037,1997-05-23 00:00:00,10,1017.3,-0.3,93,9,0,14.816,,,60,,,,,,,,,,,wg-a,,,,AAXX 23004 07037 12/// /0608 10100 20090 39989 40173 58003 60006 90000=
07037,1997-05-23 06:00:00,8,1018.5,0.8,93,7,500,14.816,,,70,7.5,13.6,,,,,1,,,,wg-a,,,,AAXX 23064 07037 02400 /0708 10080 20070 30000 40185 53008 60006 84801 90600 333 10136 20075 60014=
07037,1997-05-23 09:00:00,14,1018.8,0.6,55,5,15000,22.224,,,50,,,,,,,,,,,wg-a,,,,AAXX 23094 07037 12665 /0512 10140 20050 30006 40188 50006 60006 82131 90900=
07037,1997-05-23 12:00:00,15,1018.7,0,55,6,25000,22.224,,,50,,,,,,,,,,,wg-a,,,,AAXX 23124 07037 12675 /0512 10150 20060 30006 40187 50000 60006 85200 91200=
07037,1997-05-23 15:00:00,15,1019.2,0.5,55,6,25000,18.52,,,70,,,,,,,,,,,wg-a,,,,AAXX 23154 07037 12675 70710 10150 20060 30011 40192 51005 60006 878// 91500=
07037,1997-05-23 18:00:00,14,1019.5,0.2,67,8,0,22.224,,,60,8.5,15.5,,,,,,,,,wg-a,,,,AAXX 23184 07037 12/// /0612 10140 20080 30013 40195 53002 60006 91800 333 10155 20085=
07037,1997-05-24 00:00:00,7,1022,0.8,81,4,0,18.52,,,60,,,,,,,,,,,wg-a,,,,AAXX 24004 07037 12/// /0610 10070 20040 30033 40220 51008 60006 90000=
07037,1997-05-24 06:00:00,8,1022.8,0.8,76,4,14000,25.928,,,70,6.5,14,,,,,,,,,wg-a,,,,AAXX 24064 07037 02764 30714 10080 20040 30042 40228 53008 60006 815/1 90600 333 10140 20065 60004=
07037,1997-05-24 09:00:00,13,1023.6,1.1,67,7,15000,29.632,,,70,,,,,,,,,,,wg-a,,,,AAXX 24094 07037 12/65 50716 10130 20070 30053 40236 53011 60006 80001 90900=
07037,1997-05-24 12:00:00,15,1023.5,-0,55,6,18000,29.632,,,50,,,,,,,,,,,wg-a,,,,AAXX 24124 07037 12668 /0516 10150 20060 30053 40235 54000 60006 81101 91200=
07037,1997-05-24 15:00:00,16,1023.8,0.4,51,6,25000,25.928,,,70,,,,,,,,,,,wg-a,,,,AAXX 24154 07037 12675 /0714 10160 20060 30057 40238 53004 60006 81101 91500=
07037,1997-05-24 18:00:00,15,1024.4,0.5,48,4,0,29.632,,,60,7.6,16.3,,,,,,,,,wg-a,,,,AAXX 24184 07037 12/// /0616 10150 20040 30062 40244 51005 60006 91800 333 10163 20076=
07037,1997-05-25 06:00:00,8,1026.9,0.7,76,4,15000,18.52,,,60,5.7,15,,,,,,,,,wg-a,,,,AAXX 25064 07037 02/65 00610 10080 20040 30082 40269 53007 60006 80000 90600 333 10150 20057 60004=
07037,1997-05-25 09:00:00,14,1026.5,0,58,6,15000,18.52,,,50,,,,,,,,,,,wg-a,,,,AAXX 25094 07037 12/65 00510 10140 20060 30082 40265 50000 60006 80000 90900=
07037,1997-05-25 12:00:00,17,1025.6,-0.7,42,4,15000,22.224,,,60,,,,,,,,,,,wg-a,,,,AAXX 25124 07037 12/65 00612 10170 20040 30075 40256 58007 60006 80000 91200=
07037,1997-05-25 15:00:00,18,1024.5,-1,39,4,15000,25.928,,,70,,,,,,,,,,,wg-a,,,,AAXX 25154 07037 12/65 00714 10180 20040 30065 40245 57010 60006 80000 91500=
07037,1997-05-25 18:00:00,18,1024.1,-0.4,39,4,0,18.52,,,60,8.3,19,,,,,,,,,wg-a,,,,AAXX 25184 07037 12/// /0610 10180 20040 30061 40241 58004 60006 91800 333 10190 20083=
07037,1997-05-26 00:00:00,9,1026.1,-0,81,6,0,14.816,,,50,,,,,,,,,,,wg-a,,,,AAXX 26004 07037 12/// /0508 10090 20060 30075 40261 55000 60006 90000=
07037,1997-05-26 09:00:00,16,1025.4,0.3,48,5,20000,14.816,,,80,,,,,,,,,,,wg-a,,,,AAXX 26094 07037 12/70 00808 10160 20050 30073 40254 52003 60006 80000 90900=
07037,1997-05-26 15:00:00,20,1022.9,-1.4,37,5,15000,14.816,,,40,,,,,,,,,,,wg-a,,,,AAXX 26154 07037 12/65 00408 10200 20050 30051 40229 56014 60006 80000 91500=
07037,1997-05-26 18:00:00,19,1022.6,-0.4,52,9,0,14.816,,,20,9.4,20.6,,,,,,,,,wg-a,,,,AAXX 26184 07037 12/// /0208 10190 20090 30047 40226 56004 60006 91800 333 10206 20094=
07037,1997-05-27 00:00:00,12,1022.6,-0.9,58,4,0,22.224,,,60,,,,,,,,,,,wg-a,,,,AAXX 27004 07037 12/// /0612 10120 20040 30042 40226 56009 60006 90000=
07037,1997-05-27 06:00:00,12,1023.5,0.6,54,3,20000,3.704,,,20,8.4,18.8,,,,,,,,,wg-a,,,,AAXX 27064 07037 02770 10202 10120 20030 30051 40235 53006 60006 81500 90600 333 10188 20084 60004=
07037,1997-05-27 09:00:00,14,1023.9,0.6,77,10,10000,25.928,,,60,,,,,,,,,,,wg-a,,,,AAXX 27094 07037 12460 /0614 10140 20100 30057 40239 51006 60006 85200 90900=
07037,1997-05-27 12:00:00,17,1023.5,-0.3,55,8,20000,22.224,,,70,,,,,,,,,,,wg-a,,,,AAXX 27124 07037 12570 20712 10170 20080 30054 40235 57003 60006 82100 91200=
07037,1997-05-27 18:00:00,16,1022.5,0.1,59,8,0,25.928,,,60,11.9,18.3,,,,,,,,,wg-a,,,,AAXX 27184 07037 12/// /0614 10160 20080 30044 40225 53001 60006 91800 333 10183 20119=
07037,1997-05-28 00:00:00,8,1025.7,1,81,5,0,18.52,,,60,,,,,,,,,,,wg-a,,,,AAXX 28004 07037 12/// /0610 10080 20050 30070 40257 52010 60006 90000=
07037,1997-05-28 06:00:00,8,1027.1,1.1,81,5,18000,22.224,,,80,5.3,15.9,,,,,,,,,wg-a,,,,AAXX 28064 07037 02/68 00812 10080 20050 30084 40271 52011 60006 80000 90600 333 10159 20053 60004=
07037,1997-05-28 09:00:00,12,1026.9,0.1,58,4,25000,29.632,,,70,,,,,,,,,,,wg-a,,,,AAXX 28094 07037 12675 20716 10120 20040 30085 40269 51001 60006 82400 90900=
07037,1997-05-28 12:00:00,15,1026.8,-0,51,5,0,22.224,,,70,,,,,,,,,,,wg-a,,,,AAXX 28124 07037 12/// /0712 10150 20050 30085 40268 54000 60006 91200=
07037,1997-05-28 15:00:00,16,1025.9,-0.7,48,5,25000,22.224,,,80,,,,,,,,,,,wg-a,,,,AAXX 28154 07037 12/75 00812 10160 20050 30078 40259 58007 60006 80000 91500=
07037,1997-05-28 18:00:00,16,1025.3,-0.6,51,6,0,22.224,,,80,8.1,17.2,,,,,,,,,wg-a,,,,AAXX 28184 07037 12/// /0812 10160 20060 30072 40253 57006 60006 91800 333 10172 20081=
07037,1997-05-29 00:00:00,10,1027,0.1,76,6,0,18.52,,,90,,,,,,,,,,,wg-a,,,,AAXX 29004 07037 12/// /0910 10100 20060 30084 40270 50001 60006 90000=
07037,1997-05-29 09:00:00,16,1026.8,0.5,51,6,20000,25.928,,,100,,,,,,,,,,,wg-a,,,,AAXX 29094 07037 12/70 01014 10160 20060 30086 40268 51005 60006 80000 90900=
07037,1997-05-29 12:00:00,19,1026,-0.5,52,9,10000,25.928,,,100,,,,,,,,,,,wg-a,,,,AAXX 29124 07037 12/60 /1014 10190 20090 30081 40260 58005 60006 91200=
07037,1997-05-29 15:00:00,21,1025.1,-0.8,40,7,25000,22.224,,,80,,,,,,,,,,,wg-a,,,,AAXX 29154 07037 12/75 20812 10210 20070 30073 40251 56008 60006 80001 91500=
07037,1997-05-29 18:00:00,20,1024.6,-0.6,43,7,0,18.52,,,80,9.6,21.3,,,,,,,,,wg-a,,,,AAXX 29184 07037 12/// /0810 10200 20070 30067 40246 56006 60006 91800 333 10213 20096=
07037,1997-05-30 00:00:00,11,1026.4,0.5,87,9,0,18.52,,,70,,,,,,,,,,,wg-a,,,,AAXX 30004 07037 12/// /0710 10110 20090 30080 40264 51005 60006 90000=
07037,1997-05-30 06:00:00,13,1026.6,0.4,72,8,15000,18.52,,,80,10.7,19.7,,,,,,,,,wg-a,,,,AAXX 30064 07037 02/65 10810 10130 20080 30083 40266 52004 60006 80001 90600 333 10197 20107 60004=
07037,1997-05-30 09:00:00,19,1026.5,0.2,56,10,20000,25.928,,,110,,,,,,,,,,,wg-a,,,,AAXX 30094 07037 12/70 41114 10190 20100 30085 40265 51002 60006 80001 90900=
07037,1997-05-30 12:00:00,22,1025.4,-0.9,53,12,25000,22.224,,,90,,,,,,,,,,,wg-a,,,,AAXX 30124 07037 12/75 50912 10220 20120 30076 40254 58009 60006 80001 91200=
07037,1997-05-30 15:00:00,23,1024,-1.3,44,10,25000,25.928,,,70,,,,,,,,,,,wg-a,,,,AAXX 30154 07037 12/75 30714 10230 20100 30063 40240 56013 60006 80001 91500=
07037,1997-05-30 18:00:00,22,1023.1,-1,41,8,0,22.224,,,60,13.2,23.4,,,,,,,,,wg-a,,,,AAXX 30184 07037 12/// /0612 10220 20080 30053 40231 56010 60006 91800 333 10234 20132=
07037,1997-05-31 00:00:00,13,1023.2,-0.3,58,5,0,22.224,,,90,,,,,,,,,,,wg-a,,,,AAXX 31004 07037 12/// /0912 10130 20050 30049 40232 57003 60006 90000=
07037,1997-05-31 06:00:00,13,1022.1,-0.4,62,6,20000,22.224,,,90,9.6,21.5,,,,,,,,,wg-a,,,,AAXX 31064 07037 02/70 00912 10130 20060 30038 40221 56004 60006 80000 90600 333 10215 20096 60004=
07037,1997-05-31 09:00:00,17,1021.5,-0.3,45,5,20000,31.484,,,90,,,,,,,,,,,wg-a,,,,AAXX 31094 07037 12/70 00917 10170 20050 30035 40215 58003 60006 80000 90900=
07037,1997-05-31 15:00:00,21,1018.6,-1.4,35,5,20000,31.484,,,60,,,,,,,,,,,wg-a,,,,AAXX 31154 07037 12/70 40617 10210 20050 30008 40186 58014 60006 80001 91500=
07037,1997-06-01 00:00:00,12,1018.6,-0.3,47,1,0,25.928,,,80,,,,,,,,,,,wg-a,,,,AAXX 01004 07037 12/// /0814 10120 20010 30003 40186 58003 60006 90000=
07037,1997-06-01 06:00:00,11,1018.2,0.4,50,1,500,25.928,,,70,8.8,18.6,,,,,,,,,wg-a,,,,AAXX 01064 07037 02/00 10714 10110 20010 39998 40182 51004 60006 81031 90600 333 10186 20088 60004=
07037,1997-06-01 09:00:00,14,1017.3,-0.6,41,1,500,42.596,,,70,,,,,,,,,,,wg-a,,,,AAXX 01094 07037 12600 /0723 10140 20010 39992 40173 58006 60006 81101 90900=
07037,1997-06-01 12:00:00,16,1015.5,-1.7,36,1,500,35.188,,51.856,60,,,,,,,,,,,wg-a,,,,AAXX 01124 07037 12600 40619 10160 20010 39975 40155 58017 60006 84101 91200 333 91028=
07037,1997-06-01 15:00:00,10,1014.5,-1.3,76,6,20000,35.188,,61.116,100,,,,1,,,,,,25,wg-a,,,,AAXX 01154 07037 12570 61019 10100 20060 39962 40145 56013 60017 72586 86900 91500 333 91033=
07037,1997-06-02 00:00:00,11,1011.1,-1.1,87,9,0,14.816,,,30,,,,,,,,,,,wg-a,,,,AAXX 02004 07037 12/// /0308 10110 20090 39929 40111 58011 60006 90000=
07037,1997-06-02 06:00:00,12,1011.4,0.8,76,8,15000,25.928,,,80,9.5,12,,,,,3,,,1,wg-a,,,,AAXX 02064 07037 02665 70814 10120 20080 39932 40114 53008 60006 70162 8553/ 90600 333 10120 20095 60034=
07037,1997-06-02 09:00:00,15,1011.8,0.7,67,9,15000,22.224,,,100,,,,,,,,,,,wg-a,,,,AAXX 02094 07037 12/65 61012 10150 20090 39939 40118 51007 60006 86030 90900=
07037,1997-06-02 12:00:00,18,1012,0.3,59,10,20000,22.224,,,60,,,,,,,,,,,wg-a,,,,AAXX 02124 07037 12570 /0612 10180 20100 39942 40120 50003 60006 81230 91200=
07037,1997-06-02 15:00:00,18,1012.6,0.6,68,12,15000,18.52,,,90,,,,,,,,,,60,wg-a,,,,AAXX 02154 07037 02665 70910 10180 20120 39948 40126 52006 61000 76062 8328/ 91500 333 ////=
07037,1997-06-02 18:00:00,16,1013.3,0.6,82,13,0,11.112,,,130,11.7,18.5,,,,,,,,,wg-a,,,,AAXX 02184 07037 32/// /1306 10160 20130 39954 40133 53006 91800 333 10185 20117=
07037,1997-06-03 00:00:00,13,1014.2,0.1,94,12,0,11.112,,,60,,,,,,,,,,,wg-a,,,,AAXX 03004 07037 12/// /0606 10130 20120 39961 40142 50001 60006 90000=
07037,1997-06-03 06:00:00,13,1014.8,0.6,94,12,10000,3.704,,,140,11.8,16.4,,,,,1,,,,wg-a,,,,AAXX 03064 07037 02560 51402 10130 20120 39967 40148 53006 60006 83830 90600 333 10164 20118 60014=
07037,1997-06-03 09:00:00,17,1015,0.5,82,14,10000,0,,,0,,,,,,,,,,,wg-a,,,,AAXX 03094 07037 12460 /0000 10170 20140 39972 40150 51005 60006 86200 90900=
07037,1997-06-03 12:00:00,21,1015,0.2,60,13,16000,7.408,,,160,,,,,,,,,,,wg-a,,,,AAXX 03124 07037 12566 /1604 10210 20130 39974 40150 50002 60006 85201 91200=
07037,1997-06-03 15:00:00,22,1014.9,-0.1,50,11,20000,7.408,,,20,,,,,,,,,,,wg-a,,,,AAXX 03154 07037 12670 /0204 10220 20110 39973 40149 58001 60006 85201 91500=
07037,1997-06-03 18:00:00,20,1014.6,-0.4,64,13,0,11.112,,,60,13.5,22.7,,,,,,,,,wg-a,,,,AAXX 03184 07037 12/// /0606 10200 20130 39969 40146 57004 60006 91800 333 10227 20135=
07037,1997-06-04 00:00:00,,1,-0.2,,,0,7.408,,,40,,,,3,,,,,,,wg-a,,,,AAXX 04004 07037 02/// /0404 1//// 2//// 39986 57002 60086 90000 333 60037=
07037,1997-06-04 06:00:00,,1,-0.3,,,3000,3.704,,,60,,,,,,,18,,,10,wg-a,,,,AAXX 04064 07037 02/30 /0602 1//// 2//// 39977 56003 60006 71042 80001 90600 333 60184=
07037,1997-06-04 12:00:00,22,1014,-1,50,11,18000,18.52,,,120,,,,,,,,,,,wg-a,,,,AAXX 04124 07037 12668 51210 10220 20110 39964 40140 56010 60006 84401 91200=
07037,1997-06-04 15:00:00,22,1012.6,-1.3,46,10,20000,11.112,,,130,,,,,,,,,,,wg-a,,,,AAXX 04154 07037 12670 /1306 10220 20100 39951 40126 57013 60006 83231 91500=
07037,1997-06-04 18:00:00,22,1010.6,-2,53,12,0,11.112,,,80,,,,,,,,,,,wg-a,,,,AAXX 04184 07037 12/// /0806 10220 20120 39931 40106 58020 60006 91800=
07037,1997-06-05 00:00:00,15,1008.7,-1.9,77,11,0,14.816,,,60,,,,,,,,,,,wg-a,,,,AAXX 05004 07037 12/// /0608 10150 20110 39908 40087 58019 60006 90000=
07037,1997-06-05 06:00:00,16,1004.8,-1.6,72,11,15000,18.52,,,90,14.6,21.8,,,,,,,,,wg-a,,,,AAXX 05064 07037 02/65 60910 10160 20110 39870 40048 56016 60006 86030 90600 333 10218 20146 60004=
07037,1997-06-05 09:00:00,20,1003.4,-1.1,64,13,10000,18.52,,,120,,,,,,,,,,,wg-a,,,,AAXX 05094 07037 12/60 /1210 10200 20130 39859 40034 58011 60006 90900=
07037,1997-06-05 15:00:00,20,1001.8,-0.8,73,15,2500,38.892,,57.412,160,,,,,,,,,,81,wg-a,,,,AAXX 05154 07037 02525 71621 10200 20150 39844 40018 56008 61000 78186 879// 91500 333 //// 91031=
07037,1997-06-05 18:00:00,21,1002.2,0.4,60,13,0,22.224,,,170,15.7,23.1,,,,,,,,,wg-a,,,,AAXX 05184 07037 32/// /1712 10210 20130 39848 40022 53004 91800 333 10231 20157=
07037,1997-06-06 00:00:00,16,1005.3,1.2,88,14,0,7.408,,,190,,,,,,,,,,,wg-a,,,,AAXX 06004 07037 12/// /1904 10160 20140 39875 40053 51012 60006 90000=
07037,1997-06-06 06:00:00,16,1006.8,1,100,16,15000,14.816,,,140,12.9,20.6,,,,,,,,,wg-a,,,,AAXX 06064 07037 02/65 51408 10160 20160 39890 40068 53010 60006 83031 90600 333 10206 20129 61000=
07037,1997-06-06 09:00:00,20,1006.9,0.4,78,16,15000,22.224,,,150,,,,,,,,,,,wg-a,,,,AAXX 06094 07037 12/65 61512 10200 20160 39894 40069 52004 60006 86032 90900=
07037,1997-06-06 12:00:00,25,1006.2,-0.4,54,15,25000,31.484,,,170,,,,,,,,,,,wg-a,,,,AAXX 06124 07037 12675 51717 10250 20150 39890 40062 56004 60006 83230 91200=
07037,1997-06-06 15:00:00,25,1005.9,-0.3,54,15,25000,29.632,,,170,,,,,,,,,,,wg-a,,,,AAXX 06154 07037 12675 /1716 10250 20150 39887 40059 58003 60006 83230 91500=
07037,1997-06-06 18:00:00,25,1006.2,0.2,54,15,0,25.928,,,170,15.9,26.1,,,,,,,,,wg-a,,,,AAXX 06184 07037 12/// /1714 10250 20150 39889 40062 53002 60006 91800 333 10261 20159=
07037,1997-06-07 00:00:00,21,1006.2,-0.6,69,15,0,18.52,,,150,,,,,,,,,,,wg-a,,,,AAXX 07004 07037 12/// /1510 10210 20150 39887 40062 55006 60006 90000=
07037,1997-06-07 06:00:00,17,1006.7,-0.8,94,16,15000,11.112,,,80,16.1,24.8,,,,,5,,,1,wg-a,,,,AAXX 07064 07037 02365 /0806 10170 20160 39890 40067 56008 60006 70186 85800 90600 333 10248 20161 60054=
07037,1997-06-07 12:00:00,22,1008.4,-0.8,69,16,25000,18.52,,,200,,,,1,,,,,,1,wg-a,,,,AAXX 07124 07037 02575 42010 10220 20160 39910 40084 56008 60036 70198 84800 91200 333 60017=
07037,1997-06-07 18:00:00,23,1008.5,-0.2,53,13,0,11.112,,,210,16.4,24.1,,,,,,,,,wg-a,,,,AAXX 07184 07037 32/// /2106 10230 20130 39911 40085 55002 91800 333 10241 20164=
07037,1997-06-08 00:00:00,14,1011,0.9,94,13,0,0,,,0,,,,,,,,,,,wg-a,,,,AAXX 08004 07037 12/// /0000 10140 20130 39930 40110 51009 60016 90000=
07037,1997-06-08 06:00:00,14,1014.4,2,100,14,20000,11.112,,,200,11.5,23.1,,,,,4,,,1,wg-a,,,,AAXX 08064 07037 02/70 02006 10140 20140 39964 40144 53020 60006 70186 80000 90600 333 10231 20115 60044=
07037,1997-06-08 09:00:00,19,1014.7,0.5,68,13,25000,22.224,,,240,,,,,,,,,,,wg-a,,,,AAXX 08094 07037 12575 42412 10190 20130 39969 40147 51005 60006 84230 90900=
07037,1997-06-08 12:00:00,20,1015.5,0.9,60,12,25000,22.224,,,240,,,,,,,,,,,wg-a,,,,AAXX 08124 07037 12575 72412 10200 20120 39978 40155 53009 60006 873// 91200=
07037,1997-06-08 15:00:00,19,1016.7,1.1,64,12,500,25.928,,,240,,,,3,,,,,,2,wg-a,,,,AAXX 08154 07037 12500 /2414 10190 20120 39989 40167 51011 60037 70298 86200 91500=
07037,1997-06-08 18:00:00,18,1017.9,1.2,73,13,0,14.816,,,250,13.4,20.9,,,,,,,,,wg-a,,,,AAXX 08184 07037 32/// /2508 10180 20130 30001 40179 53012 91800 333 10209 20134=
07037,1997-06-09 00:00:00,12,1021.7,1.1,100,12,0,3.704,,,170,,,,,,,,,,,wg-a,,,,AAXX 09004 07037 12/// /1702 10120 20120 30034 40217 51011 60006 90000=
07037,1997-06-09 06:00:00,14,1023,1.1,100,14,8000,3.704,,,120,9.6,18.4,,,,,3,,,1,wg-a,,,,AAXX 09064 07037 02/58 31202 10140 20140 30048 40230 51011 60006 70140 80001 90600 333 10184 20096 60034=
07037,1997-06-09 09:00:00,19,1023.4,0.7,64,12,20000,11.112,,,170,,,,,,,,,,,wg-a,,,,AAXX 09094 07037 12570 51706 10190 20120 30055 40234 51007 60006 84201 90900=
07037,1997-06-09 12:00:00,22,1022.6,-0.6,53,12,25000,11.112,,,130,,,,,,,,,,,wg-a,,,,AAXX 09124 07037 12675 71306 10220 20120 30049 40226 56006 60006 85201 91200=
07037,1997-06-09 15:00:00,22,1021.7,-0.9,53,12,25000,11.112,,,180,,,,,,,,,,,wg-a,,,,AAXX 09154 07037 12675 71806 10220 20120 30040 40217 57009 60006 85201 91500=
07037,1997-06-09 18:00:00,21,1020.9,-0.8,64,14,0,3.704,,,130,13.9,22.5,,,,,,,,,wg-a,,,,AAXX 09184 07037 12/// /1302 10210 20140 30032 40209 56008 60006 91800 333 10225 20139=
07037,1997-06-10 00:00:00,16,1020.3,-0.8,82,13,0,7.408,,,60,,,,,,,,,,,wg-a,,,,AAXX 10004 07037 12/// /0604 10160 20130 30023 40203 58008 60006 90000=
07037,1997-06-10 06:00:00,17,1018,-0.6,82,14,20000,18.52,,,80,14.5,21,,,,,,,,,wg-a,,,,AAXX 10064 07037 02770 60810 10170 20140 30001 40180 56006 60006 825/1 90600 333 10210 20145 60004=
07037,1997-06-10 09:00:00,23,1016.4,-1.2,61,15,10000,22.224,,,110,,,,,,,,,,,wg-a,,,,AAXX 10094 07037 12/60 /1112 10230 20150 39989 40164 58012 60006 90900=
07037,1997-06-10 12:00:00,24,1014.4,-1.9,57,15,15000,29.632,,,110,,,,,,,,,,,wg-a,,,,AAXX 10124 07037 12/65 71116 10240 20150 39970 40144 56019 60006 83031 91200=
07037,1997-06-10 15:00:00,24,1012.8,-1.6,57,15,15000,18.52,,,110,,,,,,,,,,,wg-a,,,,AAXX 10154 07037 12765 71110 10240 20150 39954 40128 56016 60006 8753/ 91500=
07037,1997-06-10 18:00:00,23,1010.3,-2.5,65,16,0,14.816,,,80,17.5,25.9,,,,,,,,,wg-a,,,,AAXX 10184 07037 12/// /0808 10230 20160 39929 40103 56025 60006 91800 333 10259 20175=
07037,1997-06-11 06:00:00,18,1008.1,0.1,94,17,8000,3.704,,,250,17.1,22.6,,,,,7,,,,wg-a,,,,AAXX 11064 07037 02/58 /2502 10180 20170 39904 40081 51001 60006 90600 333 10226 20171 60074=
07037,1997-06-11 09:00:00,20,1008.1,0.2,88,18,18000,22.224,,,260,,,,,,,,,,21,wg-a,,,,AAXX 11094 07037 02468 /2612 10200 20180 39906 40081 53002 61000 72162 85230 90900 333 ////=
07037,1997-06-11 12:00:00,22,1007.4,-0.6,69,16,25000,7.408,,,250,,,,,,,,,,3,wg-a,,,,AAXX 11124 07037 02575 72504 10220 20160 39900 40074 58006 61000 70362 85930 91200 333 ////=
07037,1997-06-11 15:00:00,16,1007.4,-0.4,88,14,18000,14.816,,,330,,,,3,,,,,,29,wg-a,,,,AAXX 11154 07037 12268 73308 10160 20140 39896 40074 55004 60037 72996 859// 91500=
07037,1997-06-11 18:00:00,17,1008.2,0.9,88,15,0,7.408,,,60,15.9,24,,,,,,,,,wg-a,,,,AAXX 11184 07037 32/// /0604 10170 20150 39905 40082 51009 91800 333 10240 20159=
07037,1997-06-12 00:00:00,15,1009.2,0.3,88,13,0,14.816,,,220,,,,,,,,,,,wg-a,,,,AAXX 12004 07037 12/// /2208 10150 20130 39913 40092 51003 60006 90000=
07037,1997-06-12 06:00:00,15,1009.5,0.2,94,14,20000,11.112,,,200,13.6,17.4,,,,,3,,,,wg-a,,,,AAXX 12064 07037 02570 62006 10150 20140 39916 40095 52002 60006 85801 90600 333 10174 20136 60034=
07037,1997-06-12 09:00:00,18,1009.5,0.2,77,14,20000,22.224,,,220,,,,,,,,,,,wg-a,,,,AAXX 12094 07037 12070 72212 10180 20140 39918 40095 50002 60006 8783/ 90900=
07037,1997-06-12 12:00:00,19,1009.7,0.2,78,15,20000,25.928,,,210,,,,,,,,,,25,wg-a,,,,AAXX 12124 07037 02570 72114 10190 20150 39920 40097 50002 61000 72586 872// 91200 333 6100=
07037,1997-06-12 15:00:00,21,1008.3,-1.2,60,13,15000,22.224,,,230,,,,,,,,,,,wg-a,,,,AAXX 12154 07037 12565 /2312 10210 20130 39908 40083 58012 60006 86300 91500=
07037,1997-06-12 18:00:00,17,1009,0.5,94,16,0,7.408,,,190,14.9,22,,,,,,,,,wg-a,,,,AAXX 12184 07037 32/// /1904 10170 20160 39913 40090 51005 91800 333 10220 20149=
07037,1997-06-13 06:00:00,15,1007.7,-0.2,94,14,12000,18.52,,,220,13.8,16.7,,,,,2,,,3,wg-a,,,,AAXX 13064 07037 02362 72210 10150 20140 39898 40077 56002 60006 70386 8583/ 90600 333 10167 20138 60024=
07037,1997-06-13 09:00:00,18,1007.4,-0.1,77,14,20000,18.52,,,230,,,,,,,,,,,wg-a,,,,AAXX 13094 07037 12470 /2310 10180 20140 39897 40074 58001 60006 86800 90900=
07037,1997-06-13 12:00:00,17,1007.1,-0.3,88,15,20000,18.52,,,230,,,,,,,,,,25,wg-a,,,,AAXX 13124 07037 02470 /2310 10170 20150 39894 40071 58003 61000 72522 86900 91200 333 ////=
07037,1997-06-13 15:00:00,18,1006.2,-0.8,83,15,20000,18.52,,,200,,,,2,,,,,,,wg-a,,,,AAXX 13154 07037 12570 /2010 10180 20150 39886 40062 58008 60027 86900 91500=
07037,1997-06-13 18:00:00,16,1006.5,0.1,94,15,0,7.408,,,240,14.4,19.7,,,,,,,,,wg-a,,,,AAXX 13184 07037 32/// /2404 10160 20150 39887 40065 50001 91800 333 10197 20144=
07037,1997-06-14 00:00:00,15,1006.6,-0.1,100,15,0,7.408,,,240,,,,,,,,,,,wg-a,,,,AAXX 14004 07037 12/// /2404 10150 20150 39888 40066 57001 60016 90000=
07037,1997-06-14 06:00:00,13,1008.6,1.9,100,13,10000,14.816,,,290,12.6,15.8,,,,,,,,21,wg-a,,,,AAXX 14064 07037 02160 72908 10130 20130 39906 40086 53019 61000 72162 875// 90600 333 10158 20126 6019=
07037,1997-06-14 09:00:00,14,1010.2,1.6,88,12,20000,18.52,,,270,,,,,,,,,,,wg-a,,,,AAXX 14094 07037 12470 82710 10140 20120 39922 40102 51016 60006 878// 90900=
07037,1997-06-14 12:00:00,16,1011.7,1.6,77,12,25000,18.52,,,290,,,,0,,,,,,1,wg-a,,,,AAXX 14124 07037 02475 72910 10160 20120 39938 40117 51016 60006 70186 878// 91200 333 60007=
07037,1997-06-14 15:00:00,16,1013.2,1.5,77,12,25000,22.224,,,300,,,,,,,,,,,wg-a,,,,AAXX 14154 07037 12575 73012 10160 20120 39953 40132 53015 60006 878// 91500=
07037,1997-06-14 18:00:00,15,1015.1,1.8,67,9,0,18.52,,,310,12.6,17.9,,,,,,,,,wg-a,,,,AAXX 14184 07037 32/// /3110 10150 20090 39971 40151 52018 91800 333 10179 20126=
07037,1997-06-15 00:00:00,8,1018.2,0.6,93,7,0,11.112,,,220,,,,,,,,,,,wg-a,,,,AAXX 15004 07037 12/// /2206 10080 20070 39997 40182 51006 60006 90000=
07037,1997-06-15 06:00:00,11,1018.9,0.7,94,10,15000,3.704,,,180,7.3,15.9,,,,,,,,,wg-a,,,,AAXX 15064 07037 02/65 61802 10110 20100 30005 40189 52007 60006 86030 90600 333 10159 20073 60004=
07037,1997-06-15 09:00:00,16,1019.3,0.8,68,10,15000,7.408,,,200,,,,,,,,,,,wg-a,,,,AAXX 15094 07037 12465 /2004 10160 20100 30013 40193 52008 60006 82130 90900=
07037,1997-06-15 12:00:00,18,1019.1,-0.1,59,10,500,3.704,,,160,,,,,,,,,,,wg-a,,,,AAXX 15124 07037 12600 /1602 10180 20100 30012 40191 58001 60006 86800 91200=
07037,1997-06-15 15:00:00,18,1018.7,-0.4,59,10,500,7.408,,,60,,,,,,,,,,,wg-a,,,,AAXX 15154 07037 12600 /0604 10180 20100 30008 40187 56004 60006 84830 91500=
07037,1997-06-16 06:00:00,14,1018.1,-0.1,94,13,25000,7.408,,,70,12.6,18.1,,,,,,,,,wg-a,,,,AAXX 16064 07037 02675 /0704 10140 20130 30000 40181 56001 60006 85501 90600 333 10181 20126 60004=
07037,1997-06-16 09:00:00,18,1017.7,-0.2,77,14,25000,18.52,,,80,,,,,,,,,,,wg-a,,,,AAXX 16094 07037 12575 50810 10180 20140 39998 40177 58002 60006 85800 90900=
07037,1997-06-16 12:00:00,20,1016.9,-0.6,64,13,25000,18.52,,,70,,,,,,,,,,,wg-a,,,,AAXX 16124 07037 12575 /0710 10200 20130 39992 40169 58006 60006 86200 91200=
07037,1997-06-16 15:00:00,20,1015,-1.9,64,13,25000,25.928,,,100,,,,,,,,,,,wg-a,,,,AAXX 16154 07037 12575 71014 10200 20130 39973 40150 58019 60006 872// 91500=
07037,1997-06-16 18:00:00,14,1016.1,0.8,88,12,0,18.52,,,340,13.7,21.2,,,,,,,,,wg-a,,,,AAXX 16184 07037 12/// /3410 10140 20120 39981 40161 52008 60006 91800 333 10212 20137=
07037,1997-06-17 00:00:00,13,1016.7,-0.8,94,12,0,14.816,,,40,,,,,,,,,,,wg-a,,,,AAXX 17004 07037 12/// /0408 10130 20120 39985 40167 56008 60066 90000=
07037,1997-06-17 06:00:00,12,1017.5,0.9,100,12,3000,14.816,,,40,12.1,14.6,,,,,,,,10,wg-a,,,,AAXX 17064 07037 02230 80408 10120 20120 39993 40175 52009 61000 71062 888// 90600 333 10146 20121 6013=
07037,1997-06-17 09:00:00,12,1018.5,1,100,12,500,11.112,,,30,,,,1,,,,,,61,wg-a,,,,AAXX 17094 07037 12200 80306 10120 20120 30003 40185 52010 60017 76162 888// 90900=
07037,1997-06-17 12:00:00,17,1019,0.7,72,12,8000,11.112,,,50,,,,,,,,,,2,wg-a,,,,AAXX 17124 07037 02558 80506 10170 20120 30010 40190 51007 60016 70262 875// 91200 333 61000=
07037,1997-06-17 15:00:00,17,1019,0.1,68,11,12000,22.224,,,10,,,,,,,,,,,wg-a,,,,AAXX 17154 07037 12662 80112 10170 20110 30011 40190 53001 60006 875// 91500=
07037,1997-06-17 18:00:00,17,1019,-0,68,11,0,18.52,,,360,12,18.7,,,,,,,,,wg-a,,,,AAXX 17184 07037 32/// /3610 10170 20110 30011 40190 55000 91800 333 10187 20120=
07037,1997-06-18 00:00:00,11,1021.1,0.3,87,9,0,11.112,,,30,,,,,,,,,,,wg-a,,,,AAXX 18004 07037 12/// /0306 10110 20090 30027 40211 51003 60006 90000=
07037,1997-06-18 06:00:00,11,1020.7,-0.1,94,10,12000,3.704,,,50,7.7,17.4,,,,,1,,,,wg-a,,,,AAXX 18064 07037 02/62 10502 10110 20100 30023 40207 55001 60006 80001 90600 333 10174 20077 60014=
07037,1997-06-18 12:00:00,20,1018.6,-1.1,56,11,15000,7.408,,,270,,,,,,,,,,,wg-a,,,,AAXX 18124 07037 12665 42704 10200 20110 30008 40186 58011 60006 84200 91200=
07037,1997-06-18 18:00:00,18,1015.8,-1,68,12,0,11.112,,,210,10.7,20.9,,,,,,,,,wg-a,,,,AAXX 18184 07037 12/// /2106 10180 20120 39980 40158 56010 60006 91800 333 10209 20107=
07037,1997-06-19 00:00:00,13,1013.6,-1.6,94,12,0,7.408,,,160,,,,,,,,,,,wg-a,,,,AAXX 19004 07037 12/// /1604 10130 20120 39955 40136 58016 60006 90000=
07037,1997-06-19 06:00:00,13,1010,-1.4,94,12,4000,11.112,,,190,12.2,17.7,,,,,,,,10,wg-a,,,,AAXX 19064 07037 02340 81906 10130 20120 39920 40100 56014 61000 71062 8653/ 90600 333 10177 20122 6001=
07037,1997-06-19 15:00:00,14,1007.5,-0.1,82,11,8000,22.224,,51.856,290,,,,2,,,,,,80,wg-a,,,,AAXX 19154 07037 12458 82912 10140 20110 39896 40075 57001 60027 78086 8682/ 91500 333 91028=
07037,1997-06-20 00:00:00,12,1006.2,-0.6,94,11,0,18.52,,,250,,,,,,,,,,,wg-a,,,,AAXX 20004 07037 12/// /2510 10120 20110 39882 40062 56006 60006 90000=
07037,1997-06-20 06:00:00,11,1006.2,0.3,94,10,15000,14.816,,,210,9.8,12.4,,,,,5,,,,wg-a,,,,AAXX 20064 07037 02265 /2108 10110 20100 39881 40062 51003 60006 84830 90600 333 10124 20098 60054=
07037,1997-06-20 09:00:00,14,1005.7,-0.3,67,8,25000,22.224,,,230,,,,,,,,,,,wg-a,,,,AAXX 20094 07037 12575 /2312 10140 20080 39878 40057 58003 60006 84231 90900=
07037,1997-06-20 12:00:00,16,1003.9,-1.7,72,11,25000,29.632,,,210,,,,,,,,,,,wg-a,,,,AAXX 20124 07037 12575 72116 10160 20110 39861 40039 58017 60006 8683/ 91200=
07037,1997-06-20 15:00:00,15,1001.1,-2.7,94,14,10000,31.484,,,190,,,,1,,,,,,21,wg-a,,,,AAXX 20154 07037 12460 81917 10150 20140 39834 40011 58027 60017 72162 878// 91500=
07037,1997-06-20 18:00:00,15,999.1,-2,82,12,0,35.188,,,200,11.1,15.8,,,,,,,,,wg-a,,,,AAXX 20184 07037 32/// /2019 10150 20120 39814 49991 56020 91800 333 10158 20111=
07037,1997-06-21 09:00:00,15,998.3,0.6,67,9,15000,29.632,,,240,,,,,,,,,,,wg-a,,,,AAXX 21094 07037 12565 /2416 10150 20090 39806 49983 51006 60006 86800 90900=
07037,1997-06-21 12:00:00,17,997.7,-0.5,52,7,15000,18.52,,,250,,,,,,,,,,,wg-a,,,,AAXX 21124 07037 12665 /2510 10170 20070 39801 49977 58005 60006 86800 91200=
07037,1997-06-21 15:00:00,13,997.9,-0,77,9,15000,29.632,,,290,,,,0,,,,,,80,wg-a,,,,AAXX 21154 07037 12565 /2916 10130 20090 39801 49979 55000 60007 78086 86900 91500=
07037,1997-06-21 18:00:00,14,997.8,-0.1,67,8,0,22.224,,,260,12.3,18,,1,,,,,,,wg-a,,,,AAXX 21184 07037 12/// /2612 10140 20080 39800 49978 55001 60017 91800 333 10180 20123=
07037,1997-06-22 00:00:00,9,1000,0.3,93,8,0,18.52,,,220,,,,,,,,,,,wg-a,,,,AAXX 22004 07037 02/// /2210 10090 20080 39819 40000 51003 61000 90000 333 ////=
07037,1997-06-22 06:00:00,11,1000.1,0.3,87,9,20000,25.928,,,220,8.6,13.6,,,,,1,,,,wg-a,,,,AAXX 22064 07037 02370 72214 10110 20090 39821 40001 53003 60006 8683/ 90600 333 10136 20086 60014=
07037,1997-06-22 09:00:00,13,1001.1,1.1,88,11,20000,29.632,,,230,,,,0,,,,,,,wg-a,,,,AAXX 22094 07037 12470 72316 10130 20110 39832 40011 52011 60007 878// 90900=
07037,1997-06-22 12:00:00,16,1001.1,0.2,68,10,20000,29.632,,,250,,,,,,,,,,80,wg-a,,,,AAXX 22124 07037 02570 72516 10160 20100 39834 40011 51002 60006 78086 878// 91200 333 61000=
07037,1997-06-22 15:00:00,15,1001.7,0.6,94,14,20000,22.224,,,280,,,,3,,,,,,25,wg-a,,,,AAXX 22154 07037 12570 /2812 10150 20140 39840 40017 51006 60037 72586 86200 91500=
07037,1997-06-22 18:00:00,13,1003.1,1.2,88,11,0,25.928,,,260,10.6,16.7,,0,,,,,,,wg-a,,,,AAXX 22184 07037 12/// /2614 10130 20110 39852 40031 52012 60007 91800 333 10167 20106=
07037,1997-06-23 00:00:00,13,1006.1,1.3,94,12,0,18.52,,,280,,,,,,,,,,,wg-a,,,,AAXX 23004 07037 12/// /2810 10130 20120 39881 40061 53013 60016 90000=
07037,1997-06-23 06:00:00,13,1007.8,1,94,12,10000,18.52,,,280,11.9,13.2,,,,,4,,,1,wg-a,,,,AAXX 23064 07037 02360 72810 10130 20120 39898 40078 52010 60006 70186 872// 90600 333 10132 20119 60044=
07037,1997-06-23 09:00:00,15,1009.5,1.8,88,13,11000,11.112,,,280,,,,,,,,,,,wg-a,,,,AAXX 23094 07037 32/61 /2806 10150 20130 39916 40095 52018 90900=
07037,1997-06-23 12:00:00,16,1010.6,1.2,88,14,15000,22.224,,,290,,,,6,,,,,,1,wg-a,,,,AAXX 23124 07037 02465 72912 10160 20140 39928 40106 51012 60066 70186 86830 91200 333 60067=
07037,1997-06-23 15:00:00,17,1011.6,1,72,12,25000,29.632,,,300,,,,,,,,,,1,wg-a,,,,AAXX 23154 07037 12575 73016 10170 20120 39938 40116 53010 60006 70192 878// 91500=
07037,1997-06-23 18:00:00,16,1012.6,0.9,68,10,0,25.928,,,300,12.6,18.4,,,,,,,,,wg-a,,,,AAXX 23184 07037 32/// /3014 10160 20100 39947 40126 53009 91800 333 10184 20126=
07037,1997-06-24 00:00:00,11,1014.9,0.3,94,10,0,14.816,,,280,,,,,,,,,,,wg-a,,,,AAXX 24004 07037 12/// /2808 10110 20100 39966 40149 50003 60006 90000=
07037,1997-06-24 06:00:00,12,1015.7,1,88,10,10000,14.816,,,290,10.3,16,,,,,6,,,,wg-a,,,,AAXX 24064 07037 02460 82908 10120 20100 39975 40157 52010 60006 888// 90600 333 10160 20103 60064=
07037,1997-06-24 09:00:00,14,1016.9,1.3,77,10,10000,22.224,,,310,,,,,,,,,,,wg-a,,,,AAXX 24094 07037 12460 83112 10140 20100 39988 40169 51013 60006 888// 90900=
07037,1997-06-24 12:00:00,15,1017.1,0.3,63,8,20000,14.816,,,310,,,,,,,,,,,wg-a,,,,AAXX 24124 07037 12670 63108 10150 20080 39991 40171 50003 60006 86800 91200=
07037,1997-06-24 15:00:00,15,1017,-0.1,67,9,11000,14.816,,,310,,,,,,,,,,,wg-a,,,,AAXX 24154 07037 12/61 /3108 10150 20090 39990 40170 58001 60006 91500=
07037,1997-06-24 18:00:00,15,1016.2,-0.8,77,11,0,11.112,,,280,12.1,17.3,,,,,,,,,wg-a,,,,AAXX 24184 07037 32/// /2806 10150 20110 39982 40162 58008 91800 333 10173 20121=
07037,1997-06-25 00:00:00,11,1014.8,-1.3,94,10,0,7.408,,,180,,,,,,,,,,,wg-a,,,,AAXX 25004 07037 12/// /1804 10110 20100 39965 40148 58013 60006 90000=
07037,1997-06-25 06:00:00,12,1009.7,-2.1,94,11,12000,11.112,,,170,10.6,14.7,,,,,,,,21,wg-a,,,,AAXX 25064 07037 02662 81706 10120 20110 39916 40097 58021 61000 72162 8753/ 90600 333 10147 20106 6100=
07037,1997-06-25 09:00:00,13,1008,-1.6,94,12,12000,25.928,,,220,,,,0,,,,,,61,wg-a,,,,AAXX 25094 07037 12362 82214 10130 20120 39900 40080 58016 60007 76162 8/73/ 90900=
07037,1997-06-25 12:00:00,14,1005.2,-2.7,82,11,12000,29.632,,,190,,,,0,,,,,,1,wg-a,,,,AAXX 25124 07037 02462 81916 10140 20110 39873 40052 58027 60016 70162 875// 91200 333 60007=
07037,1997-06-25 15:00:00,12,1002.4,-2.8,100,12,2500,25.928,,,180,,,,8,,,,,,62,wg-a,,,,AAXX 25154 07037 12225 81814 10120 20120 39845 40024 58028 60087 76262 887// 91500=
07037,1997-06-25 18:00:00,13,999,-3.3,100,13,0,22.224,,,180,11.8,14.2,,,,,,,,,wg-a,,,,AAXX 25184 07037 32/// /1812 10130 20130 39812 49990 56033 91800 333 10142 20118=
07037,1997-06-26 00:00:00,12,997.3,-1.2,100,12,0,14.816,,,230,,,,,,,,,,,wg-a,,,,AAXX 26004 07037 12/// /2308 10120 20120 39794 49973 58012 60046 90000=
07037,1997-06-26 06:00:00,12,993.8,-1.6,100,12,2500,18.52,,,210,11.7,13.2,,,,,,,,10,wg-a,,,,AAXX 26064 07037 02125 82110 10120 20120 39760 49938 56016 61000 71062 887// 90600 333 10132 20117 6021=
07037,1997-06-26 09:00:00,13,992.8,-0.9,100,13,3000,14.816,,,210,,,,4,,,,,,61,wg-a,,,,AAXX 26094 07037 12130 82108 10130 20130 39751 49928 57009 60047 76166 887// 90900=
07037,1997-06-26 12:00:00,15,992.6,-0.1,94,14,15000,11.112,,,290,,,,3,,,,,,21,wg-a,,,,AAXX 26124 07037 02365 /2906 10150 20140 39750 49926 56001 60066 72162 85770 91200 333 60037=
07037,1997-06-26 15:00:00,14,992.7,0.1,94,13,8000,7.408,,,230,,,,1,,,,,,80,wg-a,,,,AAXX 26154 07037 12558 /2304 10140 20130 39751 49927 53001 60017 78062 85270 91500=
07037,1997-06-26 18:00:00,14,993.4,0.6,94,13,0,7.408,,,280,12,16.6,,,,,,,,,wg-a,,,,AAXX 26184 07037 32/// /2804 10140 20130 39757 49934 53006 91800 333 10166 20120=
07037,1997-06-27 09:00:00,12,994.6,0.6,100,12,7000,14.816,,,190,,,,0,,,,,,21,wg-a,,,,AAXX 27094 07037 12357 81908 10120 20120 39768 49946 51006 60007 72162 878// 90900=
07037,1997-06-27 12:00:00,16,995,0.6,77,12,20000,11.112,,,210,,,,,,,,,,3,wg-a,,,,AAXX 27124 07037 12570 72106 10160 20120 39774 49950 51006 60006 70362 8683/ 91200=
07037,1997-06-27 15:00:00,15,996.1,1.1,77,11,20000,11.112,,,170,,,,,,,,,,,wg-a,,,,AAXX 27154 07037 12570 71706 10150 20110 39785 49961 51011 60006 878// 91500=
07037,1997-06-27 18:00:00,15,997.4,1.2,82,12,0,7.408,,,180,10.8,17.2,,,,,,,,,wg-a,,,,AAXX 27184 07037 32/// /1804 10150 20120 39797 49974 51012 91800 333 10172 20108=
07037,1997-06-28 00:00:00,12,1000.4,0.7,100,12,0,3.704,,,210,,,,,,,,,,,wg-a,,,,AAXX 28004 07037 12/// /2102 10120 20120 39825 40004 53007 60006 90000=
07037,1997-06-28 06:00:00,12,1002.2,0.9,100,12,4500,18.52,,,190,10.7,14.9,,,,,,,,10,wg-a,,,,AAXX 28064 07037 02345 81910 10120 20120 39843 40022 51009 61000 71065 877// 90600 333 10149 20107 6001=
07037,1997-06-28 09:00:00,13,1004,1.8,94,12,14000,14.816,,,190,,,,,,,,,,,wg-a,,,,AAXX 28094 07037 12464 81908 10130 20120 39861 40040 53018 60006 875// 90900=
07037,1997-06-28 12:00:00,15,1005.5,1.5,82,12,12000,22.224,,,200,,,,,,,,,,,wg-a,,,,AAXX 28124 07037 12462 82012 10150 20120 39876 40055 51015 60006 872// 91200=
07037,1997-06-28 15:00:00,15,1006.2,0.8,88,13,20000,18.52,,,220,,,,0,,,,,,1,wg-a,,,,AAXX 28154 07037 12470 82210 10150 20130 39884 40062 51008 60007 70186 878// 91500=
07037,1997-06-28 18:00:00,16,1006.9,0.7,82,13,0,0,,,0,12.2,17.8,,,,,,,,,wg-a,,,,AAXX 28184 07037 32/// /0000 10160 20130 39891 40069 51007 91800 333 10178 20122=
07037,1997-06-29 00:00:00,12,1007.1,-0.8,100,12,0,11.112,,,60,,,,,,,,,,,wg-a,,,,AAXX 29004 07037 12/// /0606 10120 20120 39891 40071 58008 60006 90000=
07037,1997-06-29 06:00:00,13,1006.7,0.6,100,13,12000,11.112,,,60,11.8,15.8,,,,,,,,61,wg-a,,,,AAXX 29064 07037 02662 80606 10130 20130 39887 40067 50006 61000 76162 8/53/ 90600 333 10158 20118 6002=
07037,1997-06-29 09:00:00,15,1004.9,-1.6,88,13,15000,11.112,,,30,,,,0,,,,,,21,wg-a,,,,AAXX 29094 07037 12465 /0306 10150 20130 39871 40049 56016 60007 72162 8683/ 90900=
07037,1997-06-29 12:00:00,14,1004.7,-0.3,94,13,8000,11.112,,,10,,,,4,,,,,,63,wg-a,,,,AAXX 29124 07037 02358 70106 10140 20130 39868 40047 58003 60046 76362 8783/ 91200 333 60047=
07037,1997-06-29 15:00:00,13,1003.7,-1,100,13,8000,18.52,,,350,,,,3,,,,,,60,wg-a,,,,AAXX 29154 07037 12258 73510 10130 20130 39858 40037 56010 60037 76066 877// 91500=
07037,1997-06-29 18:00:00,14,1002.7,-0.9,94,13,0,14.816,,,10,12.5,15.5,,,,,,,,,wg-a,,,,AAXX 29184 07037 32/// /0108 10140 20130 39849 40027 56009 91800 333 10155 20125=
07037,1997-06-30 00:00:00,13,1001.8,-0.8,100,13,0,14.816,,,10,,,,,,,,,,,wg-a,,,,AAXX 30004 07037 12/// /0108 10130 20130 39839 40018 58008 60006 90000=
07037,1997-06-30 06:00:00,13,1001.4,0.5,94,12,500,14.816,,,350,12.7,14.1,,,,,7,,,3,wg-a,,,,AAXX 30064 07037 02200 83508 10130 20120 39835 40014 53005 60006 70362 887// 90600 333 10141 20127 60074=
07037,1997-06-30 15:00:00,13,1004.6,0.8,94,12,6000,14.816,,,300,,,,1,,,,,,21,wg-a,,,,AAXX 30154 07037 12356 83008 10130 20120 39866 40046 52008 60017 72165 887// 91500=
07037,1997-06-30 18:00:00,12,1005.3,0.7,94,11,0,14.816,,,280,12,13.4,,,,,,,,,wg-a,,,,AAXX 30184 07037 32/// /2808 10120 20110 39873 40053 53007 91800 333 10134 20120=
07037,1997-07-01 00:00:00,11,1006.4,0.1,100,11,0,14.816,,,240,,,,,,,,,,,wg-a,,,,AAXX 01004 07037 12/// /2408 10110 20110 39883 40064 53001 60006 90000=
07037,1997-07-01 06:00:00,11,1006.6,0.5,100,11,500,14.816,,,200,10.4,12.3,,,,,,,,21,wg-a,,,,AAXX 01064 07037 02200 82008 10110 20110 39885 40066 52005 61000 72162 888// 90600 333 10123 20104 6004=
07037,1997-07-01 09:00:00,13,1007.3,0.8,88,11,15000,18.52,,,240,,,,,,,,,,,wg-a,,,,AAXX 01094 07037 12465 /2410 10130 20110 39893 40073 51008 60006 86800 90900=
07037,1997-07-01 15:00:00,15,1007.6,-0.1,67,9,15000,18.52,,,320,,,,2,,,,,,25,wg-a,,,,AAXX 01154 07037 12565 /3210 10150 20090 39897 40076 58001 60027 72586 86800 91500=
07037,1997-07-01 18:00:00,15,1007.9,0.3,82,12,0,7.408,,,290,10.8,17.1,,,,,,,,,wg-a,,,,AAXX 01184 07037 32/// /2904 10150 20120 39900 40079 53003 91800 333 10171 20108=
07037,1997-07-02 00:00:00,11,1008.6,-0.1,94,10,0,7.408,,,150,,,,,,,,,,,wg-a,,,,AAXX 02004 07037 12/// /1504 10110 20100 39905 40086 58001 60006 90000=
07037,1997-07-02 06:00:00,11,1007.9,-0.4,100,11,15000,11.112,,,180,10.3,15.2,,,,,4,,,,wg-a,,,,AAXX 02064 07037 02265 51806 10110 20110 39898 40079 58004 60006 83230 90600 333 10152 20103 60044=
07037,1997-07-02 12:00:00,13,1007.4,-0.4,82,10,20000,14.816,,,220,,,,0,,,,,,2,wg-a,,,,AAXX 02124 07037 02470 82208 10130 20100 39894 40074 58004 60006 70286 8327/ 91200 333 60007=
07037,1997-07-02 15:00:00,15,1007.2,-0.1,72,10,20000,14.816,,,210,,,,1,,,,,,1,wg-a,,,,AAXX 02154 07037 12570 62108 10150 20100 39893 40072 58001 60017 70162 86830 91500=
07037,1997-07-02 18:00:00,15,1007.3,0.1,77,11,0,14.816,,,180,11.1,15.9,,,,,,,,,wg-a,,,,AAXX 02184 07037 32/// /1808 10150 20110 39894 40073 53001 91800 333 10159 20111=
07037,1997-07-03 00:00:00,11,1010.9,1,94,10,0,11.112,,,200,,,,,,,,,,,wg-a,,,,AAXX 03004 07037 12/// /2006 10110 20100 39927 40109 51010 60026 90000=
07037,1997-07-03 06:00:00,11,1011.8,0.9,94,10,20000,18.52,,,200,8,15.3,,,,,3,,,3,wg-a,,,,AAXX 03064 07037 02570 72010 10110 20100 39936 40118 53009 60006 70386 878// 90600 333 10153 20080 60034=
07037,1997-07-03 09:00:00,13,1012.4,0.7,82,10,20000,22.224,,,190,,,,,,,,,,,wg-a,,,,AAXX 03094 07037 12470 71912 10130 20100 39943 40124 51007 60006 872// 90900=
07037,1997-07-03 12:00:00,17,1012.2,0.1,68,11,25000,22.224,,,200,,,,,,,,,,,wg-a,,,,AAXX 03124 07037 12575 /2012 10170 20110 39944 40122 50001 60006 86200 91200=
07037,1997-07-03 15:00:00,15,1013.3,0.9,72,10,25000,18.52,,,210,,,,,,,,,,81,wg-a,,,,AAXX 03154 07037 02575 72110 10150 20100 39953 40133 53009 61000 78186 878// 91500 333 ////=
07037,1997-07-03 18:00:00,12,1013.9,0.5,94,11,0,14.816,,,230,10.3,17.3,,,,,,,,,wg-a,,,,AAXX 03184 07037 32/// /2308 10120 20110 39958 40139 53005 91800 333 10173 20103=
07037,1997-07-04 00:00:00,12,1015.6,0.5,94,11,0,14.816,,,200,,,,,,,,,,,wg-a,,,,AAXX 04004 07037 12/// /2008 10120 20110 39974 40156 51005 60006 90000=
07037,1997-07-04 06:00:00,12,1016,0.7,100,12,10000,14.816,,,180,11.1,12.6,,,,,4,,,3,wg-a,,,,AAXX 04064 07037 02260 81808 10120 20120 39978 40160 53007 60006 70362 8757/ 90600 333 10126 20111 60044=
07037,1997-07-04 09:00:00,14,1016.5,0.6,88,12,20000,18.52,,,230,,,,,,,,,,21,wg-a,,,,AAXX 04094 07037 02470 82310 10140 20120 39984 40165 51006 61000 72162 8687/ 90900 333 ////=
07037,1997-07-04 12:00:00,15,1016.9,0.5,82,12,15000,11.112,,,300,,,,,,,,,,1,wg-a,,,,AAXX 04124 07037 02465 83006 10150 20120 39989 40169 51005 61000 70162 8587/ 91200 333 ////=
07037,1997-07-04 15:00:00,16,1017.7,0.8,82,13,15000,7.408,,,260,,,,0,,,,,,25,wg-a,,,,AAXX 04154 07037 12465 72604 10160 20130 39997 40177 51008 60007 72586 8583/ 91500=
07037,1997-07-04 18:00:00,14,1018.5,0.7,94,13,0,7.408,,,360,11.9,16.9,,,,,,,,,wg-a,,,,AAXX 04184 07037 32/// /3604 10140 20130 30004 40185 51007 91800 333 10169 20119=
07037,1997-07-05 00:00:00,11,1021.4,0.9,100,11,0,7.408,,,290,,,,,,,,,,,wg-a,,,,AAXX 05004 07037 12/// /2904 10110 20110 30030 40214 51009 60006 90000=
07037,1997-07-05 06:00:00,13,1022.3,1.1,100,13,1500,11.112,,,310,9.7,14.6,,,,,3,,,10,wg-a,,,,AAXX 05064 07037 02115 83106 10130 20130 30040 40223 53011 60006 71086 8773/ 90600 333 10146 20097 60034=
07037,1997-07-05 12:00:00,19,1024.7,1.3,56,10,15000,22.224,,,340,,,,,,,,,,,wg-a,,,,AAXX 05124 07037 12665 /3412 10190 20100 30067 40247 51013 60006 86200 91200=
07037,1997-07-05 15:00:00,19,1025.2,0.6,68,13,15000,22.224,,,360,,,,,,,,,,,wg-a,,,,AAXX 05154 07037 12565 /3612 10190 20130 30073 40252 53006 60006 86200 91500=
07037,1997-07-05 18:00:00,17,1026.5,1.1,68,11,0,22.224,,,340,12.8,19.5,,,,,,,,,wg-a,,,,AAXX 05184 07037 12/// /3412 10170 20110 30084 40265 52011 60006 91800 333 10195 20128=
07037,1997-07-06 00:00:00,11,1029.4,0.5,100,11,0,7.408,,,270,,,,,,,,,,,wg-a,,,,AAXX 06004 07037 12/// /2704 10110 20110 30109 40294 51005 60006 90000=
07037,1997-07-06 06:00:00,11,1029.6,0.5,100,11,1200,3.704,,,270,9,17,,,,,,,,28,wg-a,,,,AAXX 06064 07037 02/12 02702 10110 20110 30111 40296 53005 60006 72840 80000 90600 333 10170 20090 60004=
07037,1997-07-06 09:00:00,18,1029.2,0.1,77,14,8000,11.112,,,290,,,,,,,,,,,wg-a,,,,AAXX 06094 07037 12/58 02906 10180 20140 30112 40292 50001 60006 80000 90900=
07037,1997-07-06 12:00:00,21,1028.7,-0.4,56,12,15000,18.52,,,310,,,,,,,,,,,wg-a,,,,AAXX 06124 07037 12665 43110 10210 20120 30108 40287 58004 60006 84200 91200=
07037,1997-07-06 15:00:00,21,1028.3,-0.3,60,13,20000,18.52,,,320,,,,,,,,,,,wg-a,,,,AAXX 06154 07037 12670 43210 10210 20130 30105 40283 57003 60006 84200 91500=
07037,1997-07-06 18:00:00,21,1028.5,0.1,53,11,0,14.816,,,310,11,22.8,,,,,,,,,wg-a,,,,AAXX 06184 07037 12/// /3108 10210 20110 30106 40285 53001 60006 91800 333 10228 20110=
07037,1997-07-07 00:00:00,14,1029.3,-0.3,88,12,0,7.408,,,340,,,,,,,,,,,wg-a,,,,AAXX 07004 07037 12/// /3404 10140 20120 30110 40293 58003 60006 90000=
07037,1997-07-07 06:00:00,14,1028.7,0.2,88,12,12000,11.112,,,330,11.1,20.5,,,,,,,,,wg-a,,,,AAXX 07064 07037 02/62 13306 10140 20120 30104 40287 53002 60006 80001 90600 333 10205 20111 60004=
07037,1997-07-07 09:00:00,21,1028,-0.3,69,15,12000,7.408,,,20,,,,,,,,,,,wg-a,,,,AAXX 07094 07037 12562 50204 10210 20150 30101 40280 58003 60006 83101 90900=
07037,1997-07-07 12:00:00,22,1027.1,-0.7,65,15,20000,14.816,,,360,,,,,,,,,,,wg-a,,,,AAXX 07124 07037 12570 /3608 10220 20150 30094 40271 56007 60006 85201 91200=
07037,1997-07-07 15:00:00,23,1026.5,-0.6,61,15,20000,14.816,,,50,,,,,,,,,,,wg-a,,,,AAXX 07154 07037 12670 /0508 10230 20150 30088 40265 56006 60006 86800 91500=
07037,1997-07-07 18:00:00,22,1025.8,-0.7,69,16,0,11.112,,,20,14.3,23.9,,,,,,,,,wg-a,,,,AAXX 07184 07037 12/// /0206 10220 20160 30081 40258 56007 60006 91800 333 10239 20143=
07037,1997-07-08 00:00:00,16,1026.2,-0.1,88,14,0,11.112,,,60,,,,,,,,,,,wg-a,,,,AAXX 08004 07037 12/// /0606 10160 20140 30081 40262 58001 60006 90000=
07037,1997-07-08 06:00:00,16,1025.4,-0,94,15,8000,11.112,,,60,13.5,22.8,,,,,,,,,wg-a,,,,AAXX 08064 07037 02758 /0606 10160 20150 30073 40254 55000 60006 81500 90600 333 10228 20135 60004=
07037,1997-07-08 09:00:00,21,1025.1,0,69,15,14000,14.816,,,70,,,,,,,,,,,wg-a,,,,AAXX 08094 07037 12464 30708 10210 20150 30073 40251 50000 60006 83100 90900=
07037,1997-07-08 12:00:00,23,1023.8,-1.1,57,14,20000,18.52,,,70,,,,,,,,,,,wg-a,,,,AAXX 08124 07037 12670 40710 10230 20140 30062 40238 58011 60006 84200 91200=
07037,1997-07-08 15:00:00,24,1022.5,-1.3,50,13,25000,18.52,,,70,,,,,,,,,,,wg-a,,,,AAXX 08154 07037 12675 30710 10240 20130 30049 40225 58013 60006 83200 91500=
07037,1997-07-08 18:00:00,23,1021.2,-1.3,57,14,0,18.52,,,90,16.2,24.8,,,,,,,,,wg-a,,,,AAXX 08184 07037 12/// /0910 10230 20140 30036 40212 56013 60006 91800 333 10248 20162=
07037,1997-07-09 00:00:00,16,1021.4,-0.3,88,14,0,11.112,,,50,,,,,,,,,,,wg-a,,,,AAXX 09004 07037 12/// /0506 10160 20140 30034 40214 57003 60006 90000=
07037,1997-07-09 06:00:00,15,1020.4,-0,88,13,10000,11.112,,,40,13.5,22.8,,,,,,,,,wg-a,,,,AAXX 09064 07037 02/60 00406 10150 20130 30023 40204 55000 60006 80000 90600 333 10228 20135 60004=
07037,1997-07-09 12:00:00,23,1018.5,-1,53,13,20000,22.224,,,60,,,,,,,,,,,wg-a,,,,AAXX 09124 07037 12670 40612 10230 20130 30009 40185 58010 60006 84400 91200=
07037,1997-07-09 18:00:00,22,1016.3,-0.8,60,14,0,18.52,,,70,15,23.9,,,,,,,,,wg-a,,,,AAXX 09184 07037 12/// /0710 10220 20140 39987 40163 56008 60006 91800 333 10239 20150=
07037,1997-07-10 06:00:00,15,1015.4,-0.2,82,12,500,18.52,,,60,12.1,22.3,,,,,,,,,wg-a,,,,AAXX 10064 07037 02/00 00610 10150 20120 39974 40154 55002 60006 80000 90600 333 10223 20121 60004=
07037,1997-07-10 09:00:00,19,1014.9,-0.2,73,14,8000,14.816,,,50,,,,,,,,,,,wg-a,,,,AAXX 10094 07037 12/58 00508 10190 20140 39972 40149 58002 60006 80000 90900=
07037,1997-07-10 12:00:00,22,1014,-0.7,65,15,9000,11.112,,,50,,,,,,,,,,,wg-a,,,,AAXX 10124 07037 12659 40506 10220 20150 39965 40140 58007 60006 84100 91200=
07037,1997-07-10 15:00:00,25,1013.2,-0.7,50,14,15000,11.112,,,30,,,,,,,,,,,wg-a,,,,AAXX 10154 07037 12665 40306 10250 20140 39958 40132 57007 60006 84100 91500=
07037,1997-07-11 06:00:00,15,1014.4,0.5,100,15,3000,3.704,,,60,13,23.6,,,,,,,,10,wg-a,,,,AAXX 11064 07037 02/30 /0602 10150 20150 39965 40144 51005 60006 71040 81030 90600 333 10236 20130 60004=
07037,1997-07-11 12:00:00,25,1014.3,-0,57,16,12000,7.408,,,200,,,,,,,,,,,wg-a,,,,AAXX 11124 07037 12662 /2004 10250 20160 39970 40143 54000 60006 85200 91200=
07037,1997-07-11 15:00:00,26,1013.9,-0.4,54,16,7000,14.816,,,310,,,,,,,,,,,wg-a,,,,AAXX 11154 07037 12657 /3108 10260 20160 39966 40139 56004 60006 85200 91500=
07037,1997-07-11 18:00:00,22,1015,0.9,73,17,0,14.816,,,310,15.4,26,,,,,,,,,wg-a,,,,AAXX 11184 07037 12/// /3108 10220 20170 39975 40150 53009 60006 91800 333 10260 20154=
07037,1997-07-12 00:00:00,14,1016.6,0.2,100,14,0,14.816,,,320,,,,,,,,,,,wg-a,,,,AAXX 12004 07037 12/// /3208 10140 20140 39986 40166 51002 60006 90000=
07037,1997-07-12 06:00:00,14,1016.9,0.1,94,13,1000,0,,,0,13.2,22,,,,,,,,10,wg-a,,,,AAXX 12064 07037 02110 70000 10140 20130 39988 40169 51001 60006 71011 876// 90600 333 10220 20132 60004=
07037,1997-07-12 09:00:00,17,1017.2,0.5,88,15,2500,7.408,,,280,,,,,,,,,,10,wg-a,,,,AAXX 12094 07037 12225 /2804 10170 20150 39993 40172 51005 60006 71022 86600 90900=
07037,1997-07-12 12:00:00,23,1016.3,-0.5,69,17,3000,3.704,,,190,,,,,,,,,,10,wg-a,,,,AAXX 12124 07037 12530 21902 10230 20170 39988 40163 58005 60006 71011 82100 91200=
07037,1997-07-12 15:00:00,23,1015.8,-0.5,61,15,0,7.408,,,80,,,,,,,,,,,wg-a,,,,AAXX 12154 07037 126// 30804 10230 20150 39983 40158 56005 60006 83200 91500=
07037,1997-07-12 18:00:00,23,1014.8,-1,65,16,0,3.704,,,180,13.7,24.1,,,,,,,,,wg-a,,,,AAXX 12184 07037 12/// /1802 10230 20160 39973 40148 56010 60006 91800 333 10241 20137=
07037,1997-07-13 00:00:00,15,1016.8,0.2,88,13,0,7.408,,,30,,,,,,,,,,,wg-a,,,,AAXX 13004 07037 12/// /0304 10150 20130 39988 40168 53002 60006 90000=
07037,1997-07-13 06:00:00,15,1016.9,0.7,94,14,6000,3.704,,,200,12.4,23.3,,,,,,,,,wg-a,,,,AAXX 13064 07037 02/56 /2002 10150 20140 39989 40169 53007 60006 80001 90600 333 10233 20124 60004=
07037,1997-07-13 09:00:00,22,1017.2,0.7,69,16,10000,11.112,,,240,,,,,,,,,,,wg-a,,,,AAXX 13094 07037 12/60 52406 10220 20160 39996 40172 52007 60006 80001 90900=
07037,1997-07-13 12:00:00,24,1016.7,-0.4,57,15,20000,7.408,,,230,,,,,,,,,,,wg-a,,,,AAXX 13124 07037 12670 /2304 10240 20150 39992 40167 58004 60006 83201 91200=
07037,1997-07-13 15:00:00,25,1016.2,-0.4,54,15,20000,11.112,,,240,,,,,,,,,,,wg-a,,,,AAXX 13154 07037 12770 52406 10250 20150 39988 40162 58004 60006 83201 91500=
07037,1997-07-13 18:00:00,21,1016.8,0.4,78,17,0,14.816,,,20,14.8,25.9,,,,,,,,,wg-a,,,,AAXX 13184 07037 12/// /0208 10210 20170 39992 40168 53004 60006 91800 333 10259 20148=
07037,1997-07-14 09:00:00,17,1020.6,0.8,82,14,7000,14.816,,,330,,,,,,,,,,,wg-a,,,,AAXX 14094 07037 12457 83308 10170 20140 30027 40206 53008 60006 885// 90900=
07037,1997-07-14 12:00:00,19,1020.5,0,78,15,12000,14.816,,,300,,,,,,,,,,,wg-a,,,,AAXX 14124 07037 12462 73008 10190 20150 30027 40205 50000 60006 878// 91200=
07037,1997-07-14 15:00:00,21,1020.3,-0.1,60,13,20000,18.52,,,310,,,,,,,,,,,wg-a,,,,AAXX 14154 07037 12670 53110 10210 20130 30026 40203 58001 60006 84201 91500=
07037,1997-07-15 09:00:00,17,1024.4,0.9,72,12,15000,7.408,,,310,,,,,,,,,,,wg-a,,,,AAXX 15094 07037 12465 73104 10170 20120 30063 40244 52009 60006 85201 90900=
07037,1997-07-15 12:00:00,20,1023.6,-0.5,68,14,20000,11.112,,,260,,,,,,,,,,,wg-a,,,,AAXX 15124 07037 12570 72606 10200 20140 30058 40236 58005 60006 878// 91200=
07037,1997-07-15 18:00:00,21,1021.6,-1.2,69,15,0,11.112,,,280,12,23,,,,,,,,,wg-a,,,,AAXX 15184 07037 12/// /2806 10210 20150 30039 40216 56012 60006 91800 333 10230 20120=
07037,1997-07-16 00:00:00,18,1021.7,-0.2,88,16,0,7.408,,,300,,,,,,,,,,,wg-a,,,,AAXX 16004 07037 12/// /3004 10180 20160 30038 40217 58002 60006 90000=
07037,1997-07-16 06:00:00,16,1020.5,-0,94,15,4000,14.816,,,290,15.6,21.6,,,,,,,,10,wg-a,,,,AAXX 16064 07037 02240 82908 10160 20150 30025 40205 55000 60006 71022 886// 90600 333 10216 20156 60004=
07037,1997-07-16 09:00:00,16,1020.5,0,94,15,3000,7.408,,,280,,,,,,,,,,10,wg-a,,,,AAXX 16094 07037 02230 82804 10160 20150 30025 40205 50000 61000 71052 886// 90900 333 ////=
07037,1997-07-16 12:00:00,19,1019.5,-0.9,68,13,15000,14.816,,,300,,,,,,,,,,1,wg-a,,,,AAXX 16124 07037 02565 /3008 10190 20130 30016 40195 58009 61000 70152 86800 91200 333 6100=
07037,1997-07-16 15:00:00,18,1018.7,-0.8,68,12,15000,14.816,,,300,,,,,,,,,,,wg-a,,,,AAXX 16154 07037 12565 73008 10180 20120 30008 40187 56008 60006 875// 91500=
07037,1997-07-16 18:00:00,17,1018.1,-0.6,72,12,0,14.816,,,350,14.6,19.8,,,,,,,,,wg-a,,,,AAXX 16184 07037 32/// /3508 10170 20120 30002 40181 56006 91800 333 10198 20146=
07037,1997-07-17 00:00:00,12,1018.2,-0.2,100,12,0,3.704,,,350,,,,,,,,,,,wg-a,,,,AAXX 17004 07037 12/// /3502 10120 20120 30000 40182 57002 60006 90000=
07037,1997-07-17 06:00:00,14,1015.8,-0.8,100,14,2000,11.112,,,310,10.4,17,,,,,,,,10,wg-a,,,,AAXX 17064 07037 02120 /3106 10140 20140 39977 40158 56008 60006 71000 81601 90600 333 10170 20104 61000=
07037,1997-07-17 12:00:00,20,1014,-1.2,73,15,15000,18.52,,,290,,,,,,,,,,,wg-a,,,,AAXX 17124 07037 12565 /2910 10200 20150 39963 40140 58012 60006 86800 91200=
07037,1997-07-17 15:00:00,18,1013.7,-0.4,88,16,10000,18.52,,,290,,,,,,,,,,,wg-a,,,,AAXX 17154 07037 12360 72910 10180 20160 39959 40137 58004 60006 875// 91500=
07037,1997-07-17 18:00:00,17,1013,-0.7,94,16,0,14.816,,,290,13.8,20.3,,,,,,,,,wg-a,,,,AAXX 17184 07037 32/// /2908 10170 20160 39952 40130 56007 91800 333 10203 20138=
07037,1997-07-18 00:00:00,14,1014.4,0.6,100,14,0,11.112,,,330,,,,,,,,,,,wg-a,,,,AAXX 18004 07037 12/// /3306 10140 20140 39964 40144 51006 60006 90000=
07037,1997-07-18 06:00:00,14,1016.5,1.1,88,12,12000,18.52,,,340,13.1,17.4,,,,,1,,,,wg-a,,,,AAXX 18064 07037 02462 /3410 10140 20120 39984 40165 53011 60006 85800 90600 333 10174 20131 60014=
07037,1997-07-18 09:00:00,15,1017.6,1.1,82,12,12000,25.928,,,340,,,,,,,,,,,wg-a,,,,AAXX 18094 07037 12462 73414 10150 20120 39995 40176 51011 60006 878// 90900=
07037,1997-07-18 15:00:00,17,1018.6,0.6,72,12,15000,25.928,,,340,,,,,,,,,,,wg-a,,,,AAXX 18154 07037 12565 73414 10170 20120 30007 40186 53006 60006 872// 91500=
07037,1997-07-18 18:00:00,15,1019.4,0.6,88,13,0,18.52,,,320,13.8,19.7,,,,,,,,,wg-a,,,,AAXX 18184 07037 02/// /3210 10150 20130 30013 40194 53006 61000 91800 333 10197 20138 ////=
07037,1997-07-19 00:00:00,15,1020.7,0.4,94,14,0,14.816,,,340,,,,,,,,,,,wg-a,,,,AAXX 19004 07037 12/// /3408 10150 20140 30026 40207 51004 60006 90000=
07037,1997-07-19 06:00:00,15,1022.6,1.2,94,14,6000,18.52,,,350,14.2,15.5,,,,,,,,,wg-a,,,,AAXX 19064 07037 02356 /3510 10150 20140 30045 40226 51012 60006 86700 90600 333 10155 20142 60004=
07037,1997-07-19 09:00:00,17,1023.9,1.4,82,14,8000,22.224,,,10,,,,,,,,,,,wg-a,,,,AAXX 19094 07037 12458 /0112 10170 20140 30059 40239 51014 60006 86200 90900=
07037,1997-07-19 12:00:00,21,1024.3,0.6,69,15,15000,18.52,,,10,,,,,,,,,,,wg-a,,,,AAXX 19124 07037 12565 /0110 10210 20150 30065 40243 51006 60006 85200 91200=
07037,1997-07-19 15:00:00,21,1024.3,0,69,15,15000,22.224,,,350,,,,,,,,,,,wg-a,,,,AAXX 19154 07037 12565 43512 10210 20150 30065 40243 50000 60006 84200 91500=
07037,1997-07-19 18:00:00,19,1024.7,0.3,56,10,0,22.224,,,10,15.4,21.2,,,,,,,,,wg-a,,,,AAXX 19184 07037 12/// /0112 10190 20100 30068 40247 53003 60006 91800 333 10212 20154=
07037,1997-07-20 00:00:00,14,1026.1,-0.1,100,14,0,11.112,,,360,,,,,,,,,,,wg-a,,,,AAXX 20004 07037 12/// /3606 10140 20140 30079 40261 57001 60006 90000=
07037,1997-07-20 06:00:00,13,1025.3,-0,94,12,500,18.52,,,30,12.6,19.3,,,,,,,,,wg-a,,,,AAXX 20064 07037 02200 70310 10130 20120 30070 40253 55000 60006 877// 90600 333 10193 20126 60004=
07037,1997-07-20 09:00:00,17,1025.7,0.6,77,13,15000,11.112,,,10,,,,,,,,,,,wg-a,,,,AAXX 20094 07037 12465 40106 10170 20130 30076 40257 50006 60006 841// 90900=
07037,1997-07-20 12:00:00,20,1024.3,-1.2,56,11,25000,14.816,,,30,,,,,,,,,,,wg-a,,,,AAXX 20124 07037 12675 40308 10200 20110 30064 40243 58012 60006 83201 91200=
07037,1997-07-20 15:00:00,22,1022.9,-1.2,43,9,25000,14.816,,,20,,,,,,,,,,,wg-a,,,,AAXX 20154 07037 12775 40208 10220 20090 30052 40229 56012 60006 84200 91500=
07037,1997-07-20 18:00:00,20,1022.8,-0.2,64,13,0,25.928,,,20,13.2,22.4,,,,,,,,,wg-a,,,,AAXX 20184 07037 12/// /0214 10200 20130 30050 40228 55002 60006 91800 333 10224 20132=
07037,1997-07-21 00:00:00,14,1023.5,-0.4,88,12,0,11.112,,,20,,,,,,,,,,,wg-a,,,,AAXX 21004 07037 12/// /0206 10140 20120 30053 40235 58004 60006 90000=
07037,1997-07-21 06:00:00,12,1023.4,0.4,100,12,400,14.816,,,30,10.9,20,,,,,,,,10,wg-a,,,,AAXX 21064 07037 02004 70308 10120 20120 30051 40234 53004 60006 71041 876// 90600 333 10200 20109 60004=
07037,1997-07-21 09:00:00,17,1023.2,0.1,77,13,10000,11.112,,,60,,,,,,,,,,1,wg-a,,,,AAXX 21094 07037 12260 /0606 10170 20130 30052 40232 50001 60006 70141 81600 90900=
07037,1997-07-21 12:00:00,23,1021.9,-1,41,9,20000,18.52,,,40,,,,,,,,,,2,wg-a,,,,AAXX 21124 07037 12670 20410 10230 20090 30042 40219 58010 60006 70241 81101 91200=
07037,1997-07-21 15:00:00,23,1020.8,-1,44,10,20000,11.112,,,30,,,,,,,,,,,wg-a,,,,AAXX 21154 07037 12770 40306 10230 20100 30032 40208 56010 60006 84400 91500=
07037,1997-07-21 18:00:00,21,1020.3,-0.6,46,9,0,18.52,,,20,11.7,23.7,,,,,,,,,wg-a,,,,AAXX 21184 07037 12/// /0210 10210 20090 30026 40203 56006 60006 91800 333 10237 20117=
07037,1997-07-22 00:00:00,14,1021.2,-0.1,82,11,0,11.112,,,40,,,,,,,,,,,wg-a,,,,AAXX 22004 07037 12/// /0406 10140 20110 30030 40212 58001 60006 90000=
07037,1997-07-22 06:00:00,13,1020.6,-0.1,94,12,15000,11.112,,,30,11.1,20.8,,,,,,,,,wg-a,,,,AAXX 22064 07037 02/65 00306 10130 20120 30024 40206 58001 60006 80000 90600 333 10208 20111 60004=
07037,1997-07-22 15:00:00,25,1018.6,-0.8,44,12,20000,11.112,,,110,,,,,,,,,,,wg-a,,,,AAXX 22154 07037 12770 21106 10250 20120 30011 40186 56008 60006 82200 91500=
07037,1997-07-22 18:00:00,25,1018.1,-0.5,39,10,0,11.112,,,60,13.1,25.1,,,,,,,,,wg-a,,,,AAXX 22184 07037 12/// /0606 10250 20100 30006 40181 56005 60006 91800 333 10251 20131=
07037,1997-07-23 06:00:00,16,1019.5,0.3,88,14,20000,7.408,,,100,13.4,24.5,,,,,,,,,wg-a,,,,AAXX 23064 07037 02/70 11004 10160 20140 30015 40195 53003 60006 81080 90600 333 10245 20134 60004=
07037,1997-07-23 09:00:00,23,1019,-0.1,57,14,25000,14.816,,,130,,,,,,,,,,,wg-a,,,,AAXX 23094 07037 12/75 41308 10230 20140 30014 40190 58001 60006 80001 90900=
07037,1997-07-23 12:00:00,26,1018.5,-0.3,39,11,25000,3.704,,,80,,,,,,,,,,,wg-a,,,,AAXX 23124 07037 12675 /0802 10260 20110 30011 40185 58003 60006 85200 91200=
07037,1997-07-23 18:00:00,24,1017,-0.5,57,15,0,18.52,,,20,16.3,27.2,,,,,,,,,wg-a,,,,AAXX 23184 07037 12/// /0210 10240 20150 39996 40170 55005 60006 91800 333 10272 20163=
07037,1997-07-24 00:00:00,18,1017.6,-0.6,68,12,0,3.704,,,330,,,,,,,,,,,wg-a,,,,AAXX 24004 07037 12/// /3302 10180 20120 39997 40176 56006 60006 90000=
07037,1997-07-24 06:00:00,16,1016.9,0.3,88,14,4000,7.408,,,330,13.9,24.6,,,,,,,,10,wg-a,,,,AAXX 24064 07037 02740 73304 10160 20140 39989 40169 53003 60006 71022 84501 90600 333 10246 20139 60004=
07037,1997-07-24 09:00:00,20,1016,-0.6,60,12,10000,11.112,,,280,,,,,,,,,,,wg-a,,,,AAXX 24094 07037 12760 72806 10200 20120 39983 40160 56006 60006 84301 90900=
07037,1997-07-24 12:00:00,22,1015.4,-0.5,53,12,12000,14.816,,,300,,,,,,,,,,,wg-a,,,,AAXX 24124 07037 12762 53008 10220 20120 39978 40154 57005 60006 82531 91200=
07037,1997-07-24 15:00:00,21,1014.8,-0.6,53,11,12000,14.816,,,280,,,,,,,,,,21,wg-a,,,,AAXX 24154 07037 02/62 72808 10210 20110 39972 40148 58006 61000 72162 8707/ 91500 333 ////=
07037,1997-07-24 18:00:00,20,1013.4,-1.4,64,13,0,14.816,,,260,15.7,22.7,,,,,,,,,wg-a,,,,AAXX 24184 07037 32/// /2608 10200 20130 39958 40134 56014 91800 333 10227 20157=
07037,1997-07-25 00:00:00,16,1013.6,-0.1,94,15,0,29.632,,,290,,,,,,,,,,,wg-a,,,,AAXX 25004 07037 12/// /2916 10160 20150 39957 40136 55001 60016 90000=
07037,1997-07-25 06:00:00,15,1014.3,0.8,94,14,15000,14.816,,,250,14.7,20.4,,,,,1,,,,wg-a,,,,AAXX 25064 07037 02465 82508 10150 20140 39963 40143 51008 60006 875// 90600 333 10204 20147 60014=
07037,1997-07-25 09:00:00,17,1014.8,0.6,82,14,20000,18.52,,,270,,,,,,,,,,,wg-a,,,,AAXX 25094 07037 12470 72710 10170 20140 39969 40148 51006 60006 878// 90900=
07037,1997-07-25 12:00:00,16,1015.2,0.4,94,15,12000,11.112,,,280,,,,0,,,,,,21,wg-a,,,,AAXX 25124 07037 02562 82806 10160 20150 39973 40152 52004 60016 72165 8422/ 91200 333 60007=
07037,1997-07-25 15:00:00,16,1014.8,-0.4,94,15,4000,7.408,,,240,,,,1,,,,,,20,wg-a,,,,AAXX 25154 07037 12240 82404 10160 20150 39969 40148 58004 60017 72052 877// 91500=
07037,1997-07-25 18:00:00,16,1014.7,-0.1,94,15,0,0,,,0,14.9,18.2,,,,,,,,,wg-a,,,,AAXX 25184 07037 32/// /0000 10160 20150 39968 40147 55001 91800 333 10182 20149=
07037,1997-07-26 00:00:00,13,1018,1.4,94,12,0,11.112,,,280,,,,,,,,,,,wg-a,,,,AAXX 26004 07037 12/// /2806 10130 20120 39998 40180 51014 60006 90000=
07037,1997-07-26 06:00:00,13,1019.5,1.1,100,13,100,7.408,,,240,11,16.4,,,,,2,,,45,wg-a,,,,AAXX 26064 07037 02/01 92404 10130 20130 30013 40195 53011 60006 74541 89/// 90600 333 10164 20110 60024=
07037,1997-07-26 09:00:00,16,1020,0.7,100,16,6000,7.408,,,240,,,,,,,,,,1,wg-a,,,,AAXX 26094 07037 12256 /2404 10160 20160 30020 40200 51007 60006 70142 84130 90900=
07037,1997-07-26 12:00:00,22,1018.9,-0.7,60,14,15000,18.52,,,230,,,,,,,,,,3,wg-a,,,,AAXX 26124 07037 12565 72310 10220 20140 30013 40189 58007 60006 70342 878// 91200=
07037,1997-07-26 18:00:00,20,1017.8,-0.8,94,19,0,11.112,,,230,13.1,21.9,,,,,,,,,wg-a,,,,AAXX 26184 07037 32/// /2306 10200 20190 30001 40178 56008 91800 333 10219 20131=
07037,1997-07-27 00:00:00,18,1017.8,-0.3,100,18,0,14.816,,,260,,,,,,,,,,,wg-a,,,,AAXX 27004 07037 12/// /2608 10180 20180 30000 40178 56003 60036 90000=
07037,1997-07-27 06:00:00,15,1019.3,1.1,94,14,15000,18.52,,,270,15.3,19.5,,,,,6,,,,wg-a,,,,AAXX 27064 07037 02465 72710 10150 20140 30013 40193 53011 60006 878// 90600 333 10195 20153 60064=
07037,1997-07-27 09:00:00,18,1020.1,0.9,83,15,15000,14.816,,,260,,,,,,,,,,,wg-a,,,,AAXX 27094 07037 12465 /2608 10180 20150 30022 40201 52009 60006 86800 90900=
07037,1997-07-27 12:00:00,21,1020.6,0.7,73,16,15000,22.224,,,290,,,,,,,,,,,wg-a,,,,AAXX 27124 07037 12465 52912 10210 20160 30029 40206 51007 60006 85800 91200=
07037,1997-07-27 15:00:00,21,1021.2,0.6,60,13,15000,14.816,,,310,,,,,,,,,,,wg-a,,,,AAXX 27154 07037 12265 43108 10210 20130 30035 40212 51006 60006 84200 91500=
07037,1997-07-27 18:00:00,21,1021.8,0.5,53,11,0,11.112,,,320,15.4,22.1,,,,,,,,,wg-a,,,,AAXX 27184 07037 12/// /3206 10210 20110 30040 40218 53005 60006 91800 333 10221 20154=
07037,1997-07-28 00:00:00,11,1023.8,0.4,94,10,0,0,,,0,,,,,,,,,,,wg-a,,,,AAXX 28004 07037 12/// /0000 10110 20100 30054 40238 51004 60006 90000=
07037,1997-07-28 06:00:00,11,1024,0.4,100,11,10000,0,,,0,8.5,20.8,,,,,,,,,wg-a,,,,AAXX 28064 07037 02/60 30000 10110 20110 30056 40240 51004 60006 80001 90600 333 10208 20085 60004=
07037,1997-07-28 12:00:00,23,1022.9,-0.6,50,12,15000,7.408,,,350,,,,,,,,,,,wg-a,,,,AAXX 28124 07037 12665 /3504 10230 20120 30052 40229 58006 60006 82101 91200=
07037,1997-07-28 15:00:00,24,1021.8,-1,41,10,20000,11.112,,,350,,,,,,,,,,,wg-a,,,,AAXX 28154 07037 12770 73506 10240 20100 30042 40218 56010 60006 82101 91500=
07037,1997-07-28 18:00:00,20,1022.2,0.2,64,13,0,18.52,,,20,11.4,24.1,,,,,,,,,wg-a,,,,AAXX 28184 07037 12/// /0210 10200 20130 30044 40222 52002 60006 91800 333 10241 20114=
07037,1997-07-29 00:00:00,13,1023.3,0.3,88,11,0,7.408,,,20,,,,,,,,,,,wg-a,,,,AAXX 29004 07037 12/// /0204 10130 20110 30050 40233 52003 60006 90000=
07037,1997-07-29 06:00:00,13,1022.4,-0,88,11,15000,7.408,,,50,10.4,19.7,,,,,,,,,wg-a,,,,AAXX 29064 07037 02/65 50504 10130 20110 30042 40224 54000 60006 80001 90600 333 10197 20104 60004=
07037,1997-07-29 12:00:00,25,1021.1,-0.7,44,12,20000,7.408,,,290,,,,,,,,,,,wg-a,,,,AAXX 29124 07037 12770 52904 10250 20120 30036 40211 58007 60006 81201 91200=
07037,1997-07-29 18:00:00,25,1018.9,-0.7,47,13,0,18.52,,,10,13.2,27.5,,,,,,,,,wg-a,,,,AAXX 29184 07037 12/// /0110 10250 20130 30014 40189 55007 60006 91800 333 10275 20132=
07037,1997-07-30 00:00:00,15,1018.7,-1,82,12,0,7.408,,,100,,,,,,,,,,,wg-a,,,,AAXX 30004 07037 12/// /1004 10150 20120 30007 40187 58010 60006 90000=
07037,1997-07-30 06:00:00,16,1017.7,0.1,88,14,15000,7.408,,,250,13.8,24.4,,,,,,,,,wg-a,,,,AAXX 30064 07037 02/65 62504 10160 20140 39997 40177 53001 60006 85032 90600 333 10244 20138 60004=
07037,1997-07-30 09:00:00,20,1018.4,1,78,16,15000,14.816,,,310,,,,,,,,,,,wg-a,,,,AAXX 30094 07037 12565 /3108 10200 20160 30007 40184 51010 60006 83530 90900=
07037,1997-07-30 12:00:00,19,1019.1,0.6,88,17,6000,18.52,,,290,,,,,,,,,,,wg-a,,,,AAXX 30124 07037 12356 82910 10190 20170 30013 40191 53006 60006 8653/ 91200=
07037,1997-07-30 15:00:00,22,1019,0,57,13,15000,22.224,,,290,,,,,,,,,,,wg-a,,,,AAXX 30154 07037 12565 42912 10220 20130 30013 40190 50000 60006 84800 91500=
07037,1997-07-30 18:00:00,19,1019.5,0.4,49,8,0,18.52,,,310,15.8,21.8,,,,,,,,,wg-a,,,,AAXX 30184 07037 12/// /3110 10190 20080 30017 40195 53004 60006 91800 333 10218 20158=
07037,1997-07-31 00:00:00,12,1020.8,0.2,94,11,0,7.408,,,290,,,,,,,,,,,wg-a,,,,AAXX 31004 07037 12/// /2904 10120 20110 30025 40208 52002 60006 90000=
07037,1997-07-31 12:00:00,19,1019.5,0.1,64,12,20000,25.928,,,290,,,,,,,,,,,wg-a,,,,AAXX 31124 07037 12570 72914 10190 20120 30016 40195 50001 60006 85831 91200=
07037,1997-07-31 18:00:00,17,1018.2,-0.7,68,11,0,22.224,,,300,13,19,,,,,,,,,wg-a,,,,AAXX 31184 07037 12/// /3012 10170 20110 30003 40182 58007 60006 91800 333 10190 20130=
07037,1997-08-01 06:00:00,15,1015.5,-0.5,82,12,20000,18.52,,,290,14.8,16.8,,,,,,,,,wg-a,,,,AAXX 01064 07037 02470 72910 10150 20120 39975 40155 56005 60006 8683/ 90600 333 10168 20148 60004=
07037,1997-08-01 12:00:00,18,1015.9,0.2,77,14,15000,25.928,,,280,,,,,,,,,,20,wg-a,,,,AAXX 01124 07037 02465 82814 10180 20140 39981 40159 50002 61000 72052 875// 91200 333 6100=
07037,1997-08-01 15:00:00,20,1015.7,-0.1,73,15,20000,18.52,,,300,,,,,,,,,,,wg-a,,,,AAXX 01154 07037 12570 83010 10200 20150 39980 40157 55001 60006 875// 91500=
07037,1997-08-01 18:00:00,19,1016,0.2,78,15,0,22.224,,,290,15.3,20.2,,,,,,,,,wg-a,,,,AAXX 01184 07037 32/// /2912 10190 20150 39982 40160 53002 91800 333 10202 20153=
07037,1997-08-02 00:00:00,17,1017.2,0.1,94,16,0,11.112,,,300,,,,,,,,,,,wg-a,,,,AAXX 02004 07037 12/// /3006 10170 20160 39993 40172 51001 60006 90000=
07037,1997-08-02 06:00:00,17,1017.4,0.5,100,17,1100,11.112,,,300,16.9,18.8,,,,,,,,28,wg-a,,,,AAXX 02064 07037 02011 83006 10170 20170 39995 40174 52005 60006 72842 886// 90600 333 10188 20169 61000=
07037,1997-08-02 09:00:00,18,1018,0.7,94,17,1500,7.408,,,310,,,,,,,,,,10,wg-a,,,,AAXX 02094 07037 12115 83104 10180 20170 30002 40180 53007 60006 71022 886// 90900=
07037,1997-08-02 12:00:00,19,1018.4,0.4,94,18,1800,7.408,,,270,,,,,,,,,,10,wg-a,,,,AAXX 02124 07037 12218 82704 10190 20180 30006 40184 51004 60006 71022 886// 91200=
07037,1997-08-02 15:00:00,19,1018.3,-0.1,94,18,4000,7.408,,,340,,,,,,,,,,10,wg-a,,,,AAXX 02154 07037 12240 83404 10190 20180 30005 40183 57001 60006 71022 886// 91500=
07037,1997-08-02 18:00:00,19,1018.1,-0.2,94,18,0,11.112,,,40,17,19.4,,,,,,,,,wg-a,,,,AAXX 02184 07037 12/// /0406 10190 20180 30003 40181 55002 60006 91800 333 10194 20170=
07037,1997-08-03 00:00:00,16,1018.1,-0.3,94,15,0,7.408,,,70,,,,,,,,,,,wg-a,,,,AAXX 03004 07037 12/// /0704 10160 20150 30002 40181 58003 60006 90000=
07037,1997-08-03 06:00:00,15,1017.6,-0.1,94,14,15000,14.816,,,70,14.6,19.1,,,,,,,,50,wg-a,,,,AAXX 03064 07037 02465 70708 10150 20140 39996 40176 55001 61000 75052 877// 90600 333 10191 20146 6000=
07037,1997-08-03 09:00:00,15,1018,0.4,100,15,8000,14.816,,,100,,,,1,,,,,,50,wg-a,,,,AAXX 03094 07037 12458 71008 10150 20150 30000 40180 53004 60017 75055 877// 90900=
07037,1997-08-03 12:00:00,20,1017,-0.7,88,18,500,14.816,,,90,,,,1,,,,,,21,wg-a,,,,AAXX 03124 07037 02200 70908 10200 20180 39993 40170 58007 60026 72165 877// 91200 333 60017=
07037,1997-08-03 15:00:00,22,1016.1,-0.7,78,18,15000,11.112,,,80,,,,,,,,,,21,wg-a,,,,AAXX 03154 07037 02465 /0806 10220 20180 39986 40161 58007 61000 72122 86231 91500 333 ////=
07037,1997-08-03 18:00:00,22,1015.4,-0.7,78,18,0,14.816,,,100,15,23.2,,,,,,,,,wg-a,,,,AAXX 03184 07037 32/// /1008 10220 20180 39979 40154 55007 91800 333 10232 20150=
07037,1997-08-04 00:00:00,18,1015.8,-0.1,88,16,0,14.816,,,70,,,,,,,,,,,wg-a,,,,AAXX 04004 07037 12/// /0708 10180 20160 39980 40158 58001 60006 90000=
07037,1997-08-04 06:00:00,19,1015.3,-0,88,17,10000,22.224,,,90,18.1,22.3,,,,,2,,,,wg-a,,,,AAXX 04064 07037 02760 70912 10190 20170 39976 40153 55000 60006 8358/ 90600 333 10223 20181 60024=
07037,1997-08-04 12:00:00,28,1015.3,0.4,62,20,20000,22.224,,,110,,,,,,,,,,3,wg-a,,,,AAXX 04124 07037 02/70 31112 10280 20200 39981 40153 53004 61000 70361 83081 91200 333 ////=
07037,1997-08-04 18:00:00,25,1014.7,-0.3,79,21,0,7.408,,,60,19.2,29.4,,,,,,,,,wg-a,,,,AAXX 04184 07037 32/// /0604 10250 20210 39974 40147 55003 91800 333 10294 20192=
07037,1997-08-06 15:00:00,22,1012.8,,88,20,8000,7.408,,,10,,,,,,,,,,1,wg-a,,,,AAXX 06154 07037 32358 70104 10220 20200 39953 40128 70142 878// 91500=
07037,1997-08-06 18:00:00,21,1012.6,-0.2,88,19,0,11.112,,,290,,,,,,,,,,,wg-a,,,,AAXX 06184 07037 32/// /2906 10210 20190 39951 40126 56002 91800=
07037,1997-08-07 00:00:00,17,1013.9,-0.4,100,17,0,7.408,,,320,,,,,,,,,,,wg-a,,,,AAXX 07004 07037 12/// /3204 10170 20170 39961 40139 58004 60006 90000=
07037,1997-08-07 06:00:00,18,1013.7,0.2,100,18,300,7.408,,,320,17.1,20.8,,,,,,,,43,wg-a,,,,AAXX 07064 07037 12/03 93204 10180 20180 39959 40137 50002 60006 74342 89/// 90600 333 10208 20171=
07037,1997-08-07 09:00:00,19,1013.4,-0.2,100,19,600,7.408,,,350,,,,,,,,,,43,wg-a,,,,AAXX 07094 07037 12/06 93504 10190 20190 39957 40134 58002 60006 74344 89/// 90900=
07037,1997-08-07 12:00:00,22,1013.3,0.1,88,20,6000,7.408,,,310,,,,,,,,,,1,wg-a,,,,AAXX 07124 07037 12456 73104 10220 20200 39958 40133 50001 60006 70142 8683/ 91200=
07037,1997-08-07 15:00:00,24,1012.6,-0.5,74,19,6000,7.408,,,320,,,,,,,,,,13,wg-a,,,,AAXX 07154 07037 12556 73204 10240 20190 39953 40126 56005 60006 71322 8793/ 91500=
07037,1997-08-07 18:00:00,21,1013.5,0.6,94,20,0,11.112,,,350,17.5,25.2,,,,,,,,,wg-a,,,,AAXX 07184 07037 32/// /3506 10210 20200 39959 40135 53006 91800 333 10252 20175=
07037,1997-08-08 00:00:00,19,1014.8,0.2,100,19,0,7.408,,,320,,,,,,,,,,,wg-a,,,,AAXX 08004 07037 12/// /3204 10190 20190 39971 40148 50002 60006 90000=
07037,1997-08-08 06:00:00,18,1016.8,1.3,100,18,500,7.408,,,310,17.8,20.9,,,,,1,,,45,wg-a,,,,AAXX 08064 07037 02/00 93104 10180 20180 39990 40168 53013 60006 74542 89/// 90600 333 10209 20178 60014=
07037,1997-08-08 09:00:00,19,1017.7,1,100,19,500,7.408,,,320,,,,,,,,,,42,wg-a,,,,AAXX 08094 07037 12105 93204 10190 20190 30000 40177 51010 60006 74244 896// 90900=
07037,1997-08-08 12:00:00,24,1017.7,0.2,69,18,500,11.112,,,340,,,,,,,,,,1,wg-a,,,,AAXX 08124 07037 12500 /3406 10240 20180 30002 40177 50002 60006 70142 81101 91200=
07037,1997-08-08 15:00:00,27,1016.8,-0.7,45,14,15000,11.112,,,280,,,,,,,,,,,wg-a,,,,AAXX 08154 07037 12665 42806 10270 20140 39995 40168 58007 60006 82801 91500=
07037,1997-08-08 18:00:00,25,1017.3,0.4,50,14,0,11.112,,,280,17.5,27,,,,,,,,,wg-a,,,,AAXX 08184 07037 12/// /2806 10250 20140 39999 40173 53004 60006 91800 333 10270 20175=
07037,1997-08-09 06:00:00,15,1020,0.2,100,15,100,3.704,,,320,14.4,25.3,,,,,,,,45,wg-a,,,,AAXX 09064 07037 02/01 93202 10150 20150 30020 40200 51002 60006 74542 89/// 90600 333 10253 20144 60004=
07037,1997-08-09 09:00:00,20,1020.3,0.6,94,19,12000,7.408,,,360,,,,,,,,,,1,wg-a,,,,AAXX 09094 07037 12/62 03604 10200 20190 30026 40203 51006 60006 70141 80000 90900=
07037,1997-08-09 12:00:00,26,1019.2,-0.8,58,17,15000,7.408,,,310,,,,,,,,,,2,wg-a,,,,AAXX 09124 07037 12/65 03104 10260 20170 30018 40192 58008 60006 70241 80000 91200=
07037,1997-08-09 15:00:00,28,1018.1,-0.9,51,17,15000,7.408,,,330,,,,,,,,,,,wg-a,,,,AAXX 09154 07037 12765 33304 10280 20170 30009 40181 58009 60006 83200 91500=
07037,1997-08-09 18:00:00,26,1018,-0.3,58,17,0,14.816,,,10,15.3,28.8,,,,,,,,,wg-a,,,,AAXX 09184 07037 12/// /0108 10260 20170 30006 40180 55003 60006 91800 333 10288 20153=
07037,1997-08-10 06:00:00,19,1016.9,-0.1,88,17,15000,11.112,,,80,16.7,25.5,,,,,,,,,wg-a,,,,AAXX 10064 07037 02/65 00806 10190 20170 39991 40169 55001 60006 80000 90600 333 10255 20167 60004=
07037,1997-08-10 09:00:00,26,1016.5,0.1,54,16,15000,18.52,,,140,,,,,,,,,,,wg-a,,,,AAXX 10094 07037 12/65 01410 10260 20160 39992 40165 50001 60006 80000 90900=
07037,1997-08-10 15:00:00,30,1013.1,-2,38,14,15000,22.224,,,110,,,,,,,,,,,wg-a,,,,AAXX 10154 07037 12/65 31112 10300 20140 39960 40131 58020 60006 80001 91500=
07037,1997-08-10 18:00:00,26,1013,-0.3,51,15,0,11.112,,,100,18.7,29.7,,,,,,,,,wg-a,,,,AAXX 10184 07037 12/// /1006 10260 20150 39957 40130 55003 60006 91800 333 10297 20187=
07037,1997-08-11 00:00:00,21,1012.9,0,64,14,0,14.816,,,170,,,,,,,,,,,wg-a,,,,AAXX 11004 07037 12/// /1708 10210 20140 39953 40129 50000 60006 90000=
07037,1997-08-11 06:00:00,20,1013.5,1.4,83,17,20000,7.408,,,140,18.6,25.6,,,,,,,,,wg-a,,,,AAXX 11064 07037 02670 71404 10200 20170 39959 40135 53014 60006 84131 90600 333 10256 20186 60004=
07037,1997-08-11 09:00:00,25,1013.7,0.5,65,18,20000,3.704,,,130,,,,,,,,,,,wg-a,,,,AAXX 11094 07037 12670 61302 10250 20180 39964 40137 51005 60006 81131 90900=
07037,1997-08-11 12:00:00,30,1013.8,0.3,46,17,20000,7.408,,,240,,,,,,,,,,,wg-a,,,,AAXX 11124 07037 12/70 42404 10300 20170 39967 40138 52003 60006 82031 91200=
07037,1997-08-11 15:00:00,31,1014.6,0.9,40,16,20000,3.704,,,10,,,,,,,,,,,wg-a,,,,AAXX 11154 07037 12770 50102 10310 20160 39976 40146 51009 60006 81181 91500=
07037,1997-08-11 18:00:00,25,1016.9,1.9,69,19,0,18.52,,,330,20.1,31.2,,,,,,,,,wg-a,,,,AAXX 11184 07037 12/// /3310 10250 20190 39995 40169 53019 60006 91800 333 10312 20201=
07037,1997-08-12 00:00:00,19,1019.4,0.4,88,17,0,7.408,,,340,,,,,,,,,,,wg-a,,,,AAXX 12004 07037 12/// /3404 10190 20170 30016 40194 51004 60006 90000=
07037,1997-08-12 06:00:00,18,1021,1.2,94,17,4000,11.112,,,310,17.9,24.7,,,,,,,,10,wg-a,,,,AAXX 12064 07037 02/40 73106 10180 20170 30031 40210 53012 60006 71062 8707/ 90600 333 10247 20179 61000=
07037,1997-08-12 09:00:00,23,1021.2,0.5,69,17,8000,7.408,,,10,,,,,,,,,,,wg-a,,,,AAXX 12094 07037 12/58 /0104 10230 20170 30036 40212 51005 60006 8503/ 90900=
07037,1997-08-12 12:00:00,26,1020.8,-0.2,65,19,10000,11.112,,,350,,,,,,,,,,,wg-a,,,,AAXX 12124 07037 12/60 03506 10260 20190 30034 40208 58002 60006 80000 91200=
07037,1997-08-12 15:00:00,28,1020.3,-0.4,55,18,10000,11.112,,,360,,,,,,,,,,,wg-a,,,,AAXX 12154 07037 12/60 33606 10280 20180 30030 40203 58004 60006 80001 91500=
07037,1997-08-12 18:00:00,24,1020.2,-0.3,69,18,0,14.816,,,360,18.2,28.7,,,,,,,,,wg-a,,,,AAXX 12184 07037 12/// /3608 10240 20180 30027 40202 55003 60006 91800 333 10287 20182=
07037,1997-08-13 00:00:00,21,1020.6,-0,78,17,0,14.816,,,350,,,,,,,,,,,wg-a,,,,AAXX 13004 07037 12/// /3508 10210 20170 30029 40206 55000 60006 90000=
07037,1997-08-13 06:00:00,19,1021.8,1.2,94,18,6000,11.112,,,290,18.1,24.4,,,,,,,,3,wg-a,,,,AAXX 13064 07037 02456 72906 10190 20180 30040 40218 53012 60006 70362 8573/ 90600 333 10244 20181 61000=
07037,1997-08-13 12:00:00,26,1022.2,0.4,65,19,15000,18.52,,,280,,,,,,,,,,,wg-a,,,,AAXX 13124 07037 12665 32810 10260 20190 30048 40222 53004 60006 83200 91200=
07037,1997-08-13 18:00:00,22,1023.7,0.5,73,17,0,14.816,,,320,18.7,26.6,,,,,,,,,wg-a,,,,AAXX 13184 07037 12/// /3208 10220 20170 30060 40237 53005 60006 91800 333 10266 20187=
07037,1997-08-14 00:00:00,15,1025.5,0.1,94,14,0,11.112,,,320,,,,,,,,,,,wg-a,,,,AAXX 14004 07037 12/// /3206 10150 20140 30073 40255 53001 60006 90000=
07037,1997-08-14 09:00:00,18,1025.3,-0.1,88,16,4500,7.408,,,290,,,,,,,,,,10,wg-a,,,,AAXX 14094 07037 12345 72904 10180 20160 30073 40253 58001 60006 71042 82601 90900=
07037,1997-08-14 12:00:00,24,1023.7,-1.2,61,16,14000,7.408,,,240,,,,,,,,,,3,wg-a,,,,AAXX 14124 07037 12564 /2404 10240 20160 30061 40237 58012 60006 70342 81101 91200=
07037,1997-08-14 15:00:00,24,1022.7,-1,57,15,20000,11.112,,,280,,,,,,,,,,,wg-a,,,,AAXX 14154 07037 12670 /2806 10240 20150 30051 40227 57010 60006 82101 91500=
07037,1997-08-14 18:00:00,22,1022.1,-0.7,73,17,0,11.112,,,10,14.7,24.5,,,,,,,,,wg-a,,,,AAXX 14184 07037 12/// /0106 10220 20170 30044 40221 56007 60006 91800 333 10245 20147=
07037,1997-08-15 00:00:00,15,1022.6,-0.6,88,13,0,3.704,,,80,,,,,,,,,,,wg-a,,,,AAXX 15004 07037 12/// /0802 10150 20130 30045 40226 58006 60006 90000=
07037,1997-08-15 06:00:00,15,1022.5,0.4,88,13,20000,7.408,,,50,13.1,22,,,,,,,,,wg-a,,,,AAXX 15064 07037 02/70 40504 10150 20130 30044 40225 53004 60006 80001 90600 333 10220 20131 60004=
07037,1997-08-15 12:00:00,24,1021.8,-0.5,47,12,20000,7.408,,,260,,,,,,,,,,,wg-a,,,,AAXX 15124 07037 12/70 42604 10240 20120 30043 40218 56005 60006 80001 91200=
07037,1997-08-15 15:00:00,26,1020.8,-0.9,42,12,20000,11.112,,,360,,,,,,,,,,,wg-a,,,,AAXX 15154 07037 12/70 43606 10260 20120 30034 40208 58009 60006 80001 91500=
07037,1997-08-16 00:00:00,17,1020.8,0,82,14,0,14.816,,,60,,,,,,,,,,,wg-a,,,,AAXX 16004 07037 12/// /0608 10170 20140 30028 40208 50000 60006 90000=
07037,1997-08-16 06:00:00,18,1019.4,-0.2,83,15,15000,7.408,,,70,15.1,24.7,,,,,,,,,wg-a,,,,AAXX 16064 07037 02765 30704 10180 20150 30015 40194 56002 60006 83500 90600 333 10247 20151 60004=
07037,1997-08-16 09:00:00,24,1019.5,0.5,65,17,15000,11.112,,,150,,,,,,,,,,,wg-a,,,,AAXX 16094 07037 12/65 01506 10240 20170 30020 40195 53005 60006 80000 90900=
07037,1997-08-16 12:00:00,28,1018.6,-0.7,45,15,15000,11.112,,,150,,,,,,,,,,,wg-a,,,,AAXX 16124 07037 12665 /1506 10280 20150 30013 40186 56007 60006 81100 91200=
07037,1997-08-16 15:00:00,28,1017.5,-1.1,45,15,15000,7.408,,,40,,,,,,,,,,,wg-a,,,,AAXX 16154 07037 12765 20404 10280 20150 30002 40175 56011 60006 82100 91500=
07037,1997-08-16 18:00:00,27,1017,-0.5,45,14,0,7.408,,,50,17.5,28.4,,,,,,,,,wg-a,,,,AAXX 16184 07037 12/// /0504 10270 20140 39997 40170 56005 60006 91800 333 10284 20175=
07037,1997-08-17 00:00:00,18,1018.3,-0.1,77,14,0,3.704,,,100,,,,,,,,,,,wg-a,,,,AAXX 17004 07037 12/// /1002 10180 20140 30005 40183 58001 60006 90000=
07037,1997-08-17 06:00:00,18,1017.9,0.2,83,15,15000,11.112,,,100,15.4,26.6,,,,,,,,,wg-a,,,,AAXX 17064 07037 02/65 11006 10180 20150 30001 40179 53002 60006 80001 90600 333 10266 20154 60004=
07037,1997-08-17 09:00:00,23,1018.3,0.7,65,16,15000,7.408,,,180,,,,,,,,,,,wg-a,,,,AAXX 17094 07037 12/65 31804 10230 20160 30008 40183 52007 60006 80001 90900=
07037,1997-08-17 12:00:00,28,1017.4,-0.7,48,16,14000,11.112,,,190,,,,,,,,,,,wg-a,,,,AAXX 17124 07037 12664 41906 10280 20160 30001 40174 58007 60006 81131 91200=
07037,1997-08-17 15:00:00,28,1016.3,-1,45,15,15000,3.704,,,40,,,,,,,,,,,wg-a,,,,AAXX 17154 07037 12665 70402 10280 20150 39991 40163 58010 60006 86231 91500=
07037,1997-08-17 18:00:00,24,1016.8,0.3,69,18,0,11.112,,,280,17.8,29.1,,,,,,,,,wg-a,,,,AAXX 17184 07037 12/// /2806 10240 20180 39994 40168 52003 60006 91800 333 10291 20178=
07037,1997-08-18 00:00:00,18,1018.4,-0.1,94,17,0,11.112,,,340,,,,,,,,,,,wg-a,,,,AAXX 18004 07037 12/// /3406 10180 20170 30006 40184 56001 60006 90000=
07037,1997-08-18 06:00:00,16,1018.2,0.2,100,16,200,3.704,,,330,15.5,24.3,,,,,,,,10,wg-a,,,,AAXX 18064 07037 02102 63302 10160 20160 30003 40182 53002 60006 71041 86600 90600 333 10243 20155 60004=
07037,1997-08-18 09:00:00,21,1018.5,0.6,78,17,500,7.408,,,330,,,,,,,,,,1,wg-a,,,,AAXX 18094 07037 12/00 03304 10210 20170 30009 40185 52006 60006 70141 80000 90900=
07037,1997-08-18 12:00:00,27,1017.9,-0.3,54,17,12000,3.704,,,300,,,,,,,,,,3,wg-a,,,,AAXX 18124 07037 12662 /3002 10270 20170 30006 40179 58003 60006 70341 81100 91200=
07037,1997-08-18 15:00:00,29,1016.9,-0.9,43,15,15000,3.704,,,280,,,,,,,,,,,wg-a,,,,AAXX 18154 07037 12765 32802 10290 20150 39997 40169 58009 60006 83200 91500=
07037,1997-08-18 18:00:00,24,1017.3,0.2,74,19,0,14.816,,,20,16.2,29.8,,,,,,,,,wg-a,,,,AAXX 18184 07037 12/// /0208 10240 20190 39999 40173 53002 60006 91800 333 10298 20162=
07037,1997-08-19 00:00:00,18,1018,-0.2,94,17,0,11.112,,,90,,,,,,,,,,,wg-a,,,,AAXX 19004 07037 12/// /0906 10180 20170 30002 40180 58002 60006 90000=
07037,1997-08-19 06:00:00,18,1017.3,-0.1,88,16,4000,11.112,,,80,17.7,24.4,,,,,,,,10,wg-a,,,,AAXX 19064 07037 02/40 /0806 10180 20160 39995 40173 56001 60006 71011 80001 90600 333 10244 20177 60004=
07037,1997-08-19 12:00:00,28,1017.1,-0.3,51,17,10000,7.408,,,130,,,,,,,,,,,wg-a,,,,AAXX 19124 07037 12/60 71304 10280 20170 39999 40171 56003 60006 84072 91200=
07037,1997-08-19 15:00:00,29,1016.3,-0.8,45,16,12000,7.408,,,90,,,,,,,,,,,wg-a,,,,AAXX 19154 07037 12662 /0904 10290 20160 39991 40163 56008 60006 85272 91500=
07037,1997-08-19 18:00:00,27,1016,-0.4,51,16,0,7.408,,,70,18.2,29.2,,,,,,,,,wg-a,,,,AAXX 19184 07037 12/// /0704 10270 20160 39987 40160 55004 60006 91800 333 10292 20182=
07037,1997-08-20 00:00:00,20,1017.1,-0.2,78,16,0,11.112,,,70,,,,,,,,,,,wg-a,,,,AAXX 20004 07037 12/// /0706 10200 20160 39994 40171 58002 60006 90000=
07037,1997-08-20 09:00:00,25,1017.7,0.3,57,16,10000,7.408,,,220,,,,,,,,,,,wg-a,,,,AAXX 20094 07037 12/60 /2204 10250 20160 30003 40177 51003 60006 90900=
07037,1997-08-20 15:00:00,27,1017.2,-0.1,54,17,15000,3.704,,,310,,,,,,,,,,80,wg-a,,,,AAXX 20154 07037 02765 73102 10270 20170 39999 40172 58001 61000 78086 875// 91500 333 ////=
07037,1997-08-21 00:00:00,18,1018,-0.1,83,15,0,7.408,,,130,,,,,,,,,,,wg-a,,,,AAXX 21004 07037 12/// /1304 10180 20150 30002 40180 55001 60006 90000=
07037,1997-08-21 06:00:00,17,1018.6,0.4,94,16,6000,7.408,,,160,16.6,26.3,,,,,,,,,wg-a,,,,AAXX 21064 07037 02556 61604 10170 20160 30007 40186 53004 60006 84831 90600 333 10263 20166 61000=
07037,1997-08-21 09:00:00,25,1018.5,0.4,57,16,10000,7.408,,,180,,,,,,,,,,,wg-a,,,,AAXX 21094 07037 12560 51804 10250 20160 30011 40185 52004 60006 81231 90900=
07037,1997-08-21 12:00:00,29,1017.7,-0.6,52,18,10000,11.112,,,230,,,,,,,,,,,wg-a,,,,AAXX 21124 07037 12/60 62306 10290 20180 30005 40177 57006 60006 82031 91200=
07037,1997-08-21 15:00:00,28,1017.2,-0.5,62,20,10000,14.816,,,300,,,,,,,,,,,wg-a,,,,AAXX 21154 07037 12660 /3008 10280 20200 30000 40172 55005 60006 81231 91500=
07037,1997-08-21 18:00:00,23,1018.7,1.1,73,18,0,14.816,,,340,17.4,30.2,,,,,,,,,wg-a,,,,AAXX 21184 07037 12/// /3408 10230 20180 30011 40187 53011 60006 91800 333 10302 20174=
07037,1997-08-22 00:00:00,18,1020.5,0.1,94,17,0,3.704,,,250,,,,,,,,,,,wg-a,,,,AAXX 22004 07037 12/// /2502 10180 20170 30026 40205 52001 60006 90000=
07037,1997-08-22 06:00:00,17,1021.4,0.6,100,17,2500,7.408,,,250,15.8,22.6,,,,,,,,10,wg-a,,,,AAXX 22064 07037 02/25 /2504 10170 20170 30034 40214 53006 60006 71011 86030 90600 333 10226 20158 60004=
07037,1997-08-22 09:00:00,20,1021.8,0.6,83,17,12000,7.408,,,280,,,,,,,,,,,wg-a,,,,AAXX 22094 07037 12/62 52804 10200 20170 30040 40218 51006 60006 85030 90900=
07037,1997-08-22 12:00:00,26,1020.8,-0.6,61,18,15000,3.704,,,240,,,,,,,,,,,wg-a,,,,AAXX 22124 07037 12565 52402 10260 20180 30034 40208 57006 60006 83830 91200=
07037,1997-08-22 15:00:00,25,1020,-0.8,69,19,15000,11.112,,,320,,,,,,,,,,,wg-a,,,,AAXX 22154 07037 12765 63206 10250 20190 30026 40200 57008 60006 83830 91500=
07037,1997-08-22 18:00:00,24,1019.7,-0.4,74,19,0,11.112,,,350,16.8,26.1,,,,,,,,,wg-a,,,,AAXX 22184 07037 12/// /3506 10240 20190 30022 40197 58004 60006 91800 333 10261 20168=
07037,1997-08-23 00:00:00,19,1019.4,-0.6,94,18,0,7.408,,,50,,,,,,,,,,,wg-a,,,,AAXX 23004 07037 12/// /0504 10190 20180 30016 40194 58006 60006 90000=
07037,1997-08-23 06:00:00,19,1017.5,-0.9,100,19,12000,7.408,,,120,16.8,24.4,,,,,,,,1,wg-a,,,,AAXX 23064 07037 02762 41204 10190 20190 39997 40175 56009 60006 70141 83581 90600 333 10244 20168 60004=
07037,1997-08-23 09:00:00,25,1016.7,-0.4,69,19,12000,11.112,,,170,,,,,,,,,,,wg-a,,,,AAXX 23094 07037 12/62 11706 10250 20190 39993 40167 58004 60006 80001 90900=
07037,1997-08-23 12:00:00,29,1015,-1.4,55,19,12000,3.704,,,230,,,,,,,,,,,wg-a,,,,AAXX 23124 07037 12662 42302 10290 20190 39979 40150 56014 60006 84200 91200=
07037,1997-08-23 15:00:00,31,1013.2,-1.7,38,15,15000,18.52,,,230,,,,,,,,,,,wg-a,,,,AAXX 23154 07037 12765 52310 10310 20150 39962 40132 56017 60006 85200 91500=
07037,1997-08-23 18:00:00,26,1013.3,-0.1,70,20,0,11.112,,,350,18.7,31.9,,,,,,,,,wg-a,,,,AAXX 23184 07037 12/// /3506 10260 20200 39961 40133 55001 60006 91800 333 10319 20187=
07037,1997-08-24 00:00:00,18,1014.7,0.1,100,18,0,7.408,,,20,,,,,,,,,,,wg-a,,,,AAXX 24004 07037 12/// /0204 10180 20180 39969 40147 52001 60006 90000=
07037,1997-08-24 06:00:00,17,1014.4,0.2,100,17,100,7.408,,,130,16.7,26.2,,,,,,,,45,wg-a,,,,AAXX 24064 07037 02/01 91304 10170 20170 39966 40144 53002 60006 74542 89/// 90600 333 10262 20167 60004=
07037,1997-08-24 09:00:00,21,1014,-0.1,100,21,3000,11.112,,,200,,,,,,,,,,10,wg-a,,,,AAXX 24094 07037 12230 /2006 10210 20210 39965 40140 58001 60006 71042 86600 90900=
07037,1997-08-24 12:00:00,28,1012.8,-0.9,62,20,12000,14.816,,,250,,,,,,,,,,1,wg-a,,,,AAXX 24124 07037 12762 52508 10280 20200 39956 40128 58009 60006 70141 84801 91200=
07037,1997-08-24 18:00:00,25,1011,-0.8,74,20,0,11.112,,,10,17.3,29.3,,,,,,,,,wg-a,,,,AAXX 24184 07037 12/// /0106 10250 20200 39937 40110 58008 60006 91800 333 10293 20173=
07037,1997-08-25 00:00:00,19,1011,-0.5,94,18,0,7.408,,,60,,,,,,,,,,,wg-a,,,,AAXX 25004 07037 12/// /0604 10190 20180 39934 40110 58005 60006 90000=
07037,1997-08-25 06:00:00,19,1007.8,-1.2,88,17,12000,7.408,,,350,18.6,24.4,,,,,,,,1,wg-a,,,,AAXX 25064 07037 02562 /3504 10190 20170 39902 40078 58012 60006 70191 81930 90600 333 10244 20186 60004=
07037,1997-08-25 09:00:00,23,1007.6,-0,78,19,8000,3.704,,,180,,,,,,,,,,29,wg-a,,,,AAXX 25094 07037 12658 71802 10230 20190 39902 40076 55000 60006 72992 8793/ 90900=
07037,1997-08-25 15:00:00,21,1009.6,1.4,78,17,20000,14.816,,,300,,,,,,,,,,,wg-a,,,,AAXX 25154 07037 12470 73008 10210 20170 39921 40096 51014 60006 8483/ 91500=
07037,1997-08-25 18:00:00,18,1010.6,0.8,88,16,0,14.816,,,310,18.4,22.7,,,,,,,,,wg-a,,,,AAXX 25184 07037 32/// /3108 10180 20160 39929 40106 52008 91800 333 10227 20184=
07037,1997-08-26 00:00:00,15,1012.8,0.3,94,14,0,14.816,,,290,,,,,,,,,,,wg-a,,,,AAXX 26004 07037 12/// /2908 10150 20140 39948 40128 53003 60006 90000=
07037,1997-08-26 06:00:00,11,1013.2,0.4,100,11,800,7.408,,,290,10.9,18.5,,,,,,,,44,wg-a,,,,AAXX 26064 07037 02/08 42904 10110 20110 39950 40132 50004 60006 74440 80001 90600 333 10185 20109 60004=
07037,1997-08-26 09:00:00,18,1013.3,0.5,77,14,15000,7.408,,,280,,,,,,,,,,1,wg-a,,,,AAXX 26094 07037 12565 32804 10180 20140 39955 40133 51005 60006 70140 81201 90900=
07037,1997-08-26 12:00:00,21,1012.1,-1,46,9,15000,7.408,,,170,,,,,,,,,,3,wg-a,,,,AAXX 26124 07037 12665 /1704 10210 20090 39945 40121 58010 60006 70341 83201 91200=
07037,1997-08-26 15:00:00,23,1010.8,-1.2,47,11,15000,3.704,,,60,,,,,,,,,,,wg-a,,,,AAXX 26154 07037 12665 /0602 10230 20110 39933 40108 56012 60006 84201 91500=
07037,1997-08-26 18:00:00,20,1009.7,-1.2,56,11,0,7.408,,,350,11,23,,,,,,,,,wg-a,,,,AAXX 26184 07037 12/// /3504 10200 20110 39921 40097 56012 60006 91800 333 10230 20110=
07037,1997-08-27 00:00:00,16,1006.7,-2.1,82,13,0,18.52,,,110,,,,,,,,,,,wg-a,,,,AAXX 27004 07037 12/// /1110 10160 20130 39889 40067 58021 60006 90000=
07037,1997-08-27 06:00:00,17,1004,-1.1,88,15,15000,14.816,,,170,15.4,20.2,,,,,,,,,wg-a,,,,AAXX 27064 07037 02765 71708 10170 20150 39863 40040 56011 60006 875// 90600 333 10202 20154 60004=
07037,1997-08-27 09:00:00,18,1003.3,-0.6,83,15,12000,7.408,,,200,,,,0,,,,,,61,wg-a,,,,AAXX 27094 07037 12662 82004 10180 20150 39857 40033 56006 60007 76162 875// 90900=
07037,1997-08-27 12:00:00,17,1002,-1.3,100,17,3000,14.816,,,140,,,,8,,,,,,61,wg-a,,,,AAXX 27124 07037 02530 81408 10170 20170 39844 40020 57013 60086 76162 875// 91200 333 60087=
07037,1997-08-27 15:00:00,19,1001.2,-0.7,88,17,8000,25.928,,,210,,,,1,,,,,,21,wg-a,,,,AAXX 27154 07037 12358 82114 10190 20170 39837 40012 55007 60017 72162 878// 91500=
07037,1997-08-27 18:00:00,17,1001,-0.3,94,16,0,0,,,0,15.3,19.2,,,,,,,,,wg-a,,,,AAXX 27184 07037 32/// /0000 10170 20160 39834 40010 55003 91800 333 10192 20153=
07037,1997-08-28 00:00:00,17,1000.5,-0.6,94,16,0,14.816,,,180,,,,,,,,,,,wg-a,,,,AAXX 28004 07037 12/// /1808 10170 20160 39829 40005 55006 60006 90000=
07037,1997-08-28 06:00:00,14,999.3,-0.4,100,14,25000,11.112,,,180,13.7,16.9,,,,,,,,21,wg-a,,,,AAXX 28064 07037 02375 71806 10140 20140 39815 49993 58004 61000 72162 8683/ 90600 333 10169 20137 6012=
07037,1997-08-28 09:00:00,17,999.6,0.5,77,13,11000,25.928,,,210,,,,,,,,,,,wg-a,,,,AAXX 28094 07037 12/61 /2114 10170 20130 39820 49996 51005 60006 90900=
07037,1997-08-28 12:00:00,19,1000.7,1.2,56,10,25000,31.484,,,240,,,,,,,,,,1,wg-a,,,,AAXX 28124 07037 02675 /2417 10190 20100 39832 40007 52012 61000 70186 85200 91200 333 6100=
07037,1997-08-28 15:00:00,17,1001.2,0.4,72,12,500,42.596,,64.82,220,,,,,,,,,,81,wg-a,,,,AAXX 28154 07037 02400 72223 10170 20120 39836 40012 53004 61000 78186 86230 91500 333 //// 91035=
07037,1997-08-28 18:00:00,16,1003.3,2,77,12,0,29.632,,,250,14,20.4,,0,,,,,,,wg-a,,,,AAXX 28184 07037 12/// /2516 10160 20120 39856 40033 51020 60007 91800 333 10204 20140=
07037,1997-08-29 00:00:00,13,1008.5,2.4,88,11,0,29.632,,,260,,,,,,,,,,,wg-a,,,,AAXX 29004 07037 12/// /2616 10130 20110 39905 40085 51024 60006 90000=
07037,1997-08-29 06:00:00,12,1011.3,1.9,94,11,20000,25.928,,,240,11.9,15.7,,,,,1,,,,wg-a,,,,AAXX 29064 07037 02470 62414 10120 20110 39932 40113 53019 60006 86800 90600 333 10157 20119 60014=
07037,1997-08-29 09:00:00,16,1013.5,2.4,72,11,25000,29.632,,,260,,,,,,,,,,,wg-a,,,,AAXX 29094 07037 12575 /2616 10160 20110 39956 40135 52024 60006 86800 90900=
07037,1997-08-29 12:00:00,18,1013.9,0.5,64,11,25000,25.928,,,260,,,,,,,,,,,wg-a,,,,AAXX 29124 07037 12575 52614 10180 20110 39961 40139 53005 60006 85800 91200=
07037,1997-08-29 15:00:00,19,1014.7,0.8,64,12,500,18.52,,,260,,,,,,,,,,,wg-a,,,,AAXX 29154 07037 12600 72610 10190 20120 39969 40147 51008 60006 878// 91500=
07037,1997-08-29 18:00:00,18,1014.7,-0,64,11,0,7.408,,,230,12.2,19.9,,,,,,,,,wg-a,,,,AAXX 29184 07037 12/// /2304 10180 20110 39969 40147 55000 60006 91800 333 10199 20122=
07037,1997-08-30 00:00:00,15,1013.4,-1.8,94,14,0,18.52,,,170,,,,,,,,,,,wg-a,,,,AAXX 30004 07037 12/// /1710 10150 20140 39954 40134 58018 60036 90000=
07037,1997-08-30 06:00:00,16,1009.8,-0.5,100,16,3000,18.52,,,220,14.3,17.6,,,,,,,,10,wg-a,,,,AAXX 30064 07037 02130 82210 10160 20160 39920 40098 55005 61000 71062 887// 90600 333 10176 20143 6015=
07037,1997-08-30 09:00:00,19,1010.9,1.3,100,19,20000,22.224,,,240,,,,3,,,,,,21,wg-a,,,,AAXX 30094 07037 12470 /2412 10190 20190 39933 40109 53013 60037 72165 85801 90900=
07037,1997-08-30 12:00:00,22,1011.8,1,73,17,500,31.484,,51.856,260,,,,,,,,,,1,wg-a,,,,AAXX 30124 07037 12400 72617 10220 20170 39943 40118 53010 60036 70165 872// 91200 333 91028=
07037,1997-08-30 15:00:00,22,1014.5,2.7,69,16,500,22.224,,,300,,,,,,,,,,,wg-a,,,,AAXX 30154 07037 12500 53012 10220 20160 39970 40145 52027 60006 84101 91500=
07037,1997-08-31 00:00:00,17,1017,0.3,94,16,0,3.704,,,180,,,,,,,,,,,wg-a,,,,AAXX 31004 07037 12/// /1802 10170 20160 39991 40170 52003 60006 90000=
07037,1997-08-31 06:00:00,17,1014.6,-1.1,100,17,1800,22.224,,,140,15.5,19.8,,,,,3,,,28,wg-a,,,,AAXX 31064 07037 02118 91412 10170 20170 39968 40146 56011 60006 72842 896// 90600 333 10198 20155 60034=
07037,1997-08-31 09:00:00,21,1012.8,-1.5,78,17,25000,25.928,,,150,,,,,,,,,,,wg-a,,,,AAXX 31094 07037 12475 51514 10210 20170 39953 40128 58015 60006 81131 90900=
07037,1997-08-31 12:00:00,25,1010.7,-1.9,65,18,25000,25.928,,,150,,,,,,,,,,,wg-a,,,,AAXX 31124 07037 12/75 21514 10250 20180 39934 40107 57019 60006 82031 91200=
07037,1997-08-31 15:00:00,28,1010.4,-0.1,45,15,25000,29.632,,,220,,,,,,,,,,,wg-a,,,,AAXX 31154 07037 12675 32216 10280 20150 39933 40104 55001 60006 81131 91500=
07037,1997-08-31 18:00:00,24,1011.4,0.8,57,15,0,22.224,,,230,16.6,28.2,,,,,,,,,wg-a,,,,AAXX 31184 07037 12/// /2312 10240 20150 39941 40114 53008 60006 91800 333 10282 20166=
07037,1997-09-01 00:00:00,16,1015.6,1.2,82,13,0,18.52,,,250,,,,,,,,,,,wg-a,,,,AAXX 01004 07037 12/// /2510 10160 20130 39977 40156 51012 60006 90000=
07037,1997-09-01 06:00:00,13,1018,1.3,100,13,20000,3.704,,,290,11.5,24.4,,,,,,,,,wg-a,,,,AAXX 01064 07037 02/70 62902 10130 20130 39998 40180 51013 60006 85031 90600 333 10244 20115 60004=
07037,1997-09-01 09:00:00,16,1018.5,0.7,82,13,15000,7.408,,,320,,,,,,,,,,,wg-a,,,,AAXX 01094 07037 12665 73204 10160 20130 30005 40185 50007 60006 8783/ 90900=
07037,1997-09-01 12:00:00,19,1018.8,0.5,60,11,15000,3.704,,,50,,,,,,,,,,,wg-a,,,,AAXX 01124 07037 12565 80502 10190 20110 30010 40188 50005 60006 8723/ 91200=
07037,1997-09-01 15:00:00,18,1018.2,-0.6,73,13,15000,11.112,,,310,,,,,,,,,,,wg-a,,,,AAXX 01154 07037 12765 83106 10180 20130 30004 40182 58006 60006 8553/ 91500=
07037,1997-09-01 18:00:00,17,1019.1,0.7,77,13,0,7.408,,,10,13,19.1,,,,,,,,,wg-a,,,,AAXX 01184 07037 12/// /0104 10170 20130 30011 40191 52007 60006 91800 333 10191 20130=
07037,1997-09-02 06:00:00,10,1021.2,0.6,100,10,1500,7.408,,,250,9.5,16.7,,,,,,,,10,wg-a,,,,AAXX 02064 07037 02215 42504 10100 20100 30028 40212 51006 60006 71041 82601 90600 333 10167 20095 60004=
07037,1997-09-02 09:00:00,14,1022.2,1.2,100,14,6000,3.704,,,220,,,,,,,,,,,wg-a,,,,AAXX 02094 07037 12256 52202 10140 20140 30040 40222 51012 60006 85100 90900=
07037,1997-09-02 12:00:00,18,1022.2,0.3,64,11,15000,11.112,,,270,,,,,,,,,,,wg-a,,,,AAXX 02124 07037 12565 52706 10180 20110 30043 40222 52003 60006 83231 91200=
07037,1997-09-02 15:00:00,20,1021.8,-0.3,43,7,15000,7.408,,,290,,,,,,,,,,,wg-a,,,,AAXX 02154 07037 12765 42904 10200 20070 30040 40218 55003 60006 83501 91500=
07037,1997-09-02 18:00:00,18,1021.7,-0.2,64,11,0,3.704,,,330,9.5,20.9,,,,,,,,,wg-a,,,,AAXX 02184 07037 12/// /3302 10180 20110 30038 40217 56002 60006 91800 333 10209 20095=
07037,1997-09-03 00:00:00,11,1022.9,-0.1,87,9,0,11.112,,,150,,,,,,,,,,,wg-a,,,,AAXX 03004 07037 12/// /1506 10110 20090 30045 40229 56001 60006 90000=
07037,1997-09-03 06:00:00,10,1021.8,-0.2,100,10,15000,7.408,,,150,9.3,17.9,,,,,,,,,wg-a,,,,AAXX 03064 07037 02/65 31504 10100 20100 30034 40218 55002 60006 80001 90600 333 10179 20093 60004=
07037,1997-09-03 09:00:00,17,1021.2,-0.2,77,13,20000,18.52,,,170,,,,,,,,,,,wg-a,,,,AAXX 03094 07037 12/70 51710 10170 20130 30032 40212 58002 60006 80001 90900=
07037,1997-09-03 12:00:00,22,1019.5,-1.3,50,11,25000,18.52,,,200,,,,,,,,,,,wg-a,,,,AAXX 03124 07037 12675 /2010 10220 20110 30019 40195 58013 60006 81131 91200=
07037,1997-09-03 15:00:00,23,1018.4,-1.1,44,10,25000,22.224,,,200,,,,,,,,,,,wg-a,,,,AAXX 03154 07037 12/75 72012 10230 20100 30008 40184 56011 60006 86031 91500=
07037,1997-09-03 18:00:00,20,1018.3,-0.2,60,12,0,11.112,,,210,10.2,23.3,,,,,,,,,wg-a,,,,AAXX 03184 07037 12/// /2106 10200 20120 30006 40183 56002 60006 91800 333 10233 20102=
07037,1997-09-04 00:00:00,17,1018.9,-0,72,12,0,7.408,,,220,,,,,,,,,,,wg-a,,,,AAXX 04004 07037 12/// /2204 10170 20120 30009 40189 55000 60006 90000=
07037,1997-09-04 06:00:00,13,1018.7,0.3,100,13,15000,7.408,,,160,12.4,20.4,,,,,,,,61,wg-a,,,,AAXX 04064 07037 02765 /1604 10130 20130 30005 40187 53003 61000 76161 82530 90600 333 10204 20124 6000=
07037,1997-09-04 09:00:00,19,1019.1,0.8,78,15,15000,14.816,,,200,,,,0,,,,,,3,wg-a,,,,AAXX 04094 07037 12565 /2008 10190 20150 30013 40191 51008 60007 70362 83830 90900=
07037,1997-09-04 12:00:00,21,1019,0,69,15,10000,11.112,,,210,,,,,,,,,,21,wg-a,,,,AAXX 04124 07037 02560 62106 10210 20150 30013 40190 50000 60016 72162 84530 91200 333 61000=
07037,1997-09-04 15:00:00,17,1019.2,0,100,17,1500,11.112,,,280,,,,1,,,,,,51,wg-a,,,,AAXX 04154 07037 12115 82806 10170 20170 30013 40192 50000 60017 75152 887// 91500=
07037,1997-09-04 18:00:00,15,1020,0.7,100,15,0,7.408,,,320,13.4,21.4,,,,,,,,,wg-a,,,,AAXX 04184 07037 32/// /3204 10150 20150 30020 40200 52007 91800 333 10214 20134=
07037,1997-09-05 00:00:00,13,1021.1,0.3,94,12,0,7.408,,,330,,,,,,,,,,,wg-a,,,,AAXX 05004 07037 12/// /3304 10130 20120 30028 40211 50003 60006 90000=
07037,1997-09-05 06:00:00,10,1020.5,-0.3,100,10,10000,3.704,,,230,9.1,15.4,,,,,2,,,28,wg-a,,,,AAXX 05064 07037 02760 /2302 10100 20100 30021 40205 57003 60006 72841 86530 90600 333 10154 20091 60024=
07037,1997-09-05 09:00:00,16,1021,0.8,77,12,15000,11.112,,,280,,,,,,,,,,,wg-a,,,,AAXX 05094 07037 12565 72806 10160 20120 30029 40210 50008 60006 8783/ 90900=
07037,1997-09-05 12:00:00,18,1020.5,-0.3,64,11,15000,7.408,,,320,,,,,,,,,,,wg-a,,,,AAXX 05124 07037 12565 73204 10180 20110 30026 40205 58003 60006 8723/ 91200=
07037,1997-09-05 15:00:00,18,1020.4,-0.1,68,12,20000,7.408,,,300,,,,,,,,,,,wg-a,,,,AAXX 05154 07037 12570 73004 10180 20120 30025 40204 58001 60006 8723/ 91500=
07037,1997-09-05 18:00:00,15,1021.4,0.8,82,12,0,11.112,,,310,10.2,18.2,,,,,,,,,wg-a,,,,AAXX 05184 07037 12/// /3106 10150 20120 30033 40214 53008 60006 91800 333 10182 20102=
07037,1997-09-06 00:00:00,9,1023.3,0.6,100,9,0,3.704,,,210,,,,,,,,,,,wg-a,,,,AAXX 06004 07037 12/// /2102 10090 20090 30048 40233 53006 60006 90000=
07037,1997-09-06 06:00:00,9,1024.4,0.9,100,9,400,7.408,,,210,8.2,15.4,,,,,,,,44,wg-a,,,,AAXX 06064 07037 02/04 /2104 10090 20090 30058 40244 53009 60006 74440 81030 90600 333 10154 20082 60004=
07037,1997-09-06 09:00:00,15,1025.5,1.5,88,13,15000,14.816,,,300,,,,0,,,,,,3,wg-a,,,,AAXX 06094 07037 12565 33008 10150 20130 30073 40255 51015 60007 70340 82101 90900=
07037,1997-09-06 12:00:00,18,1025.3,0,64,11,25000,7.408,,,340,,,,,,,,,,3,wg-a,,,,AAXX 06124 07037 12575 /3404 10180 20110 30073 40253 50000 60006 70341 85200 91200=
07037,1997-09-06 18:00:00,16,1025.4,0.2,68,10,0,14.816,,,290,8.5,19.4,,,,,,,,,wg-a,,,,AAXX 06184 07037 32/// /2908 10160 20100 30073 40254 53002 91800 333 10194 20085=
07037,1997-09-07 00:00:00,10,1026.2,-0.2,100,10,0,7.408,,,240,,,,,,,,,,,wg-a,,,,AAXX 07004 07037 12/// /2404 10100 20100 30077 40262 57002 60006 90000=
07037,1997-09-07 06:00:00,12,1026.1,0.4,100,12,6000,11.112,,,260,9.3,15.9,,,,,,,,,wg-a,,,,AAXX 07064 07037 02556 /2606 10120 20120 30077 40261 53004 60006 82530 90600 333 10159 20093 60004=
07037,1997-09-07 09:00:00,15,1027.1,1.2,88,13,15000,14.816,,,250,,,,0,,,,,,,wg-a,,,,AAXX 07094 07037 12565 72508 10150 20130 30089 40271 51012 60007 875// 90900=
07037,1997-09-07 12:00:00,16,1027.5,0.5,94,15,11000,11.112,,,300,,,,,,,,,,,wg-a,,,,AAXX 07124 07037 12/61 /3006 10160 20150 30094 40275 51005 60006 91200=
07037,1997-09-07 15:00:00,16,1027.8,0.3,88,14,15000,11.112,,,320,,,,0,,,,,,1,wg-a,,,,AAXX 07154 07037 12565 73206 10160 20140 30097 40278 53003 60007 70165 878// 91500=
07037,1997-09-07 18:00:00,17,1028.2,0.4,72,12,0,11.112,,,360,11.6,18.1,,,,,,,,,wg-a,,,,AAXX 07184 07037 32/// /3606 10170 20120 30101 40282 53004 91800 333 10181 20116=
07037,1997-09-08 00:00:00,11,1029.5,0.1,94,10,0,7.408,,,320,,,,,,,,,,,wg-a,,,,AAXX 08004 07037 12/// /3204 10110 20100 30110 40295 50001 60006 90000=
07037,1997-09-08 06:00:00,10,1029,0.1,100,10,1200,3.704,,,260,8.2,16.6,,,,,1,,,28,wg-a,,,,AAXX 08064 07037 02312 82602 10100 20100 30104 40290 53001 60006 72841 876// 90600 333 10166 20082 60014=
07037,1997-09-08 09:00:00,14,1028.5,-0.2,100,14,400,7.408,,,280,,,,,,,,,,42,wg-a,,,,AAXX 08094 07037 12104 92804 10140 20140 30102 40285 55002 60006 74242 896// 90900=
07037,1997-09-08 12:00:00,18,1028.1,-0.1,83,15,4000,11.112,,,290,,,,,,,,,,10,wg-a,,,,AAXX 08124 07037 12540 82906 10180 20150 30101 40281 58001 60006 71042 878// 91200=
07037,1997-09-08 15:00:00,20,1026.3,-1.7,64,13,18000,14.816,,,270,,,,,,,,,,,wg-a,,,,AAXX 08154 07037 12568 42708 10200 20130 30084 40263 57017 60006 84500 91500=
07037,1997-09-08 18:00:00,16,1026.1,-0.4,77,12,0,14.816,,,310,9.9,20.4,,,,,,,,,wg-a,,,,AAXX 08184 07037 12/// /3108 10160 20120 30080 40261 56004 60006 91800 333 10204 20099=
07037,1997-09-09 09:00:00,16,1025.3,0.8,77,12,10000,14.816,,,10,,,,0,,,,,,3,wg-a,,,,AAXX 09094 07037 12460 70108 10160 20120 30072 40253 53008 60007 70342 875// 90900=
07037,1997-09-09 12:00:00,17,1025.2,-0,68,11,15000,18.52,,,360,,,,,,,,,,1,wg-a,,,,AAXX 09124 07037 12565 /3610 10170 20110 30072 40252 54000 60006 70142 86800 91200=
07037,1997-09-09 15:00:00,18,1024.5,-0.7,64,11,20000,18.52,,,360,,,,,,,,,,,wg-a,,,,AAXX 09154 07037 12570 43610 10180 20110 30065 40245 56007 60006 84400 91500=
07037,1997-09-09 18:00:00,15,1025,0.3,77,11,0,11.112,,,10,12,18.9,,,,,,,,,wg-a,,,,AAXX 09184 07037 32/// /0106 10150 20110 30068 40250 53003 91800 333 10189 20120=
07037,1997-09-10 00:00:00,10,1026.8,0.4,87,8,0,14.816,,,50,,,,,,,,,,,wg-a,,,,AAXX 10004 07037 12/// /0508 10100 20080 30083 40268 51004 60006 90000=
07037,1997-09-10 06:00:00,7,1026.5,-0.1,100,7,20000,11.112,,,60,6.6,15,,,,,,,,,wg-a,,,,AAXX 10064 07037 02/70 00606 10070 20070 30078 40265 55001 60006 80000 90600 333 10150 20066 60004=
07037,1997-09-10 09:00:00,15,1026,-0,67,9,20000,22.224,,,90,,,,,,,,,,,wg-a,,,,AAXX 10094 07037 12/70 20912 10150 20090 30078 40260 54000 60006 80001 90900=
07037,1997-09-10 12:00:00,18,1024.5,-1.3,52,8,20000,22.224,,,110,,,,,,,,,,,wg-a,,,,AAXX 10124 07037 12/70 31112 10180 20080 30065 40245 56013 60006 80001 91200=
07037,1997-09-10 18:00:00,16,1020.9,-1.4,59,8,0,14.816,,,90,7.4,19.6,,,,,,,,,wg-a,,,,AAXX 10184 07037 12/// /0908 10160 20080 30028 40209 56014 60006 91800 333 10196 20074=
07037,1997-09-11 06:00:00,8,1015.1,-1.7,93,7,15000,14.816,,,130,7.4,15.5,,,,,,,,,wg-a,,,,AAXX 11064 07037 02/65 51308 10080 20070 39966 40151 58017 60006 82031 90600 333 10155 20074 60004=
07037,1997-09-11 09:00:00,14,1013.4,-1.2,77,10,13000,11.112,,,160,,,,,,,,,,,wg-a,,,,AAXX 11094 07037 12/63 51606 10140 20100 39954 40134 58012 60006 82031 90900=
07037,1997-09-11 12:00:00,21,1010.5,-2.5,53,11,15000,14.816,,,170,,,,,,,,,,,wg-a,,,,AAXX 11124 07037 12/65 71708 10210 20110 39929 40105 58025 60006 80001 91200=
07037,1997-09-11 15:00:00,24,1008.5,-1.7,41,10,20000,22.224,,,260,,,,,,,,,,,wg-a,,,,AAXX 11154 07037 12/70 72612 10240 20100 39912 40085 56017 60006 80001 91500=
07037,1997-09-11 18:00:00,19,1008.6,-0.2,68,13,0,11.112,,,300,8.2,25.7,,,,,,,,,wg-a,,,,AAXX 11184 07037 12/// /3006 10190 20130 39910 40086 58002 60006 91800 333 10257 20082=
07037,1997-09-12 00:00:00,16,1009.4,0.8,94,15,0,11.112,,,300,,,,,,,,,,,wg-a,,,,AAXX 12004 07037 12/// /3006 10160 20150 39916 40094 53008 60006 90000=
07037,1997-09-12 06:00:00,14,1010.2,0.4,88,12,12000,14.816,,,240,13.6,18.7,,,,,,,,,wg-a,,,,AAXX 12064 07037 02562 72408 10140 20120 39922 40102 53004 60006 8253/ 90600 333 10187 20136 60004=
07037,1997-09-12 09:00:00,15,1010.3,0.2,88,13,20000,18.52,,,240,,,,,,,,,,,wg-a,,,,AAXX 12094 07037 12470 72410 10150 20130 39924 40103 50002 60006 8683/ 90900=
07037,1997-09-12 15:00:00,18,1008,-1.5,73,13,11000,25.928,,,220,,,,,,,,,,,wg-a,,,,AAXX 12154 07037 12/61 /2214 10180 20130 39903 40080 57015 60006 91500=
07037,1997-09-12 18:00:00,15,1008.1,-0.1,94,14,0,18.52,,,240,13.7,19.2,,,,,,,,,wg-a,,,,AAXX 12184 07037 32/// /2410 10150 20140 39902 40081 56001 91800 333 10192 20137=
07037,1997-09-13 00:00:00,11,1011.5,1.6,94,10,0,14.816,,,260,,,,,,,,,,,wg-a,,,,AAXX 13004 07037 12/// /2608 10110 20100 39933 40115 51016 60016 90000=
07037,1997-09-13 06:00:00,8,1013.3,0.9,100,8,500,18.52,,,240,8.3,14.9,,,,,,,,25,wg-a,,,,AAXX 13064 07037 02500 52410 10080 20080 39949 40133 51009 61000 72586 85200 90600 333 10149 20083 6007=
07037,1997-09-13 09:00:00,9,1017.5,4.1,93,8,2000,14.816,,,270,,,,,,,,,,,wg-a,,,,AAXX 13094 07037 32/20 /2708 10090 20080 39990 40175 53041 90900=
07037,1997-09-13 12:00:00,13,1019.4,2.2,72,8,20000,18.52,,,300,,,,1,,,,,,81,wg-a,,,,AAXX 13124 07037 02470 73010 10130 20080 30012 40194 53022 60106 78198 879// 91200 333 60017=
07037,1997-09-13 18:00:00,12,1021.8,1.7,71,7,0,14.816,,,300,8.3,15.5,,,,,,,,,wg-a,,,,AAXX 13184 07037 32/// /3008 10120 20070 30035 40218 53017 91800 333 10155 20083=
07037,1997-09-14 00:00:00,7,1024.5,0.3,93,6,0,11.112,,,230,,,,,,,,,,,wg-a,,,,AAXX 14004 07037 12/// /2306 10070 20060 30058 40245 53003 60006 90000=
07037,1997-09-14 06:00:00,6,1025.8,1,100,6,15000,7.408,,,210,5.6,11.8,,,,,11,,,,wg-a,,,,AAXX 14064 07037 02465 /2104 10060 20060 30070 40258 51010 60006 82802 90600 333 10118 20056 60114=
07037,1997-09-14 12:00:00,16,1027.1,0.4,51,6,15000,7.408,,,340,,,,,,,,,,,wg-a,,,,AAXX 14124 07037 12665 43404 10160 20060 30089 40271 50004 60006 84200 91200=
07037,1997-09-14 15:00:00,16,1026.5,-0.5,55,7,15000,7.408,,,350,,,,,,,,,,,wg-a,,,,AAXX 14154 07037 12765 53504 10160 20070 30084 40265 56005 60006 85200 91500=
07037,1997-09-14 18:00:00,15,1026.5,-0.1,55,6,0,3.704,,,30,5.7,18.7,,,,,,,,,wg-a,,,,AAXX 14184 07037 12/// /0302 10150 20060 30083 40265 55001 60006 91800 333 10187 20057=
07037,1997-09-15 00:00:00,8,1027.4,-0.3,93,7,0,11.112,,,80,,,,,,,,,,,wg-a,,,,AAXX 15004 07037 12/// /0806 10080 20070 30087 40274 58003 60006 90000=
07037,1997-09-15 06:00:00,6,1026.6,-0.2,100,6,15000,7.408,,,150,6.2,14.7,,,,,,,,,wg-a,,,,AAXX 15064 07037 02/65 11504 10060 20060 30078 40266 55002 60006 81031 90600 333 10147 20062 60004=
07037,1997-09-15 09:00:00,13,1026.8,0.7,77,9,15000,7.408,,,180,,,,,,,,,,,wg-a,,,,AAXX 15094 07037 12/65 31804 10130 20090 30085 40268 51007 60006 80001 90900=
07037,1997-09-15 12:00:00,17,1026.1,-0.5,55,8,15000,11.112,,,190,,,,,,,,,,,wg-a,,,,AAXX 15124 07037 12/65 51906 10170 20080 30080 40261 58005 60006 80001 91200=
07037,1997-09-15 18:00:00,16,1023.7,-1,68,10,0,7.408,,,60,6.3,19.3,,,,,,,,,wg-a,,,,AAXX 15184 07037 12/// /0604 10160 20100 30056 40237 56010 60006 91800 333 10193 20063=
07037,1997-09-16 00:00:00,11,1024.4,-0.1,82,8,0,11.112,,,70,,,,,,,,,,,wg-a,,,,AAXX 16004 07037 12/// /0706 10110 20080 30059 40244 58001 60006 90000=
07037,1997-09-16 06:00:00,8,1023,-0.2,93,7,20000,7.408,,,140,7.4,16.2,,,,,,,,,wg-a,,,,AAXX 16064 07037 02/70 61404 10080 20070 30044 40230 55002 60006 83031 90600 333 10162 20074 60004=
07037,1997-09-16 09:00:00,16,1022.1,-0.4,63,9,20000,14.816,,,170,,,,,,,,,,,wg-a,,,,AAXX 16094 07037 12/70 41708 10160 20090 30040 40221 58004 60006 80001 90900=
07037,1997-09-16 15:00:00,23,1018.2,-1.9,41,9,25000,11.112,,,200,,,,,,,,,,,wg-a,,,,AAXX 16154 07037 12/75 72006 10230 20090 30006 40182 56019 60006 80001 91500=
07037,1997-09-16 18:00:00,19,1018.1,-0.3,56,10,0,11.112,,,230,7.8,23.3,,,,,,,,,wg-a,,,,AAXX 16184 07037 12/// /2306 10190 20100 30003 40181 55003 60006 91800 333 10233 20078=
07037,1997-09-17 06:00:00,10,1020.8,0.8,93,9,18000,3.704,,,130,9,19.4,,,,,,,,,wg-a,,,,AAXX 17064 07037 02668 71302 10100 20090 30024 40208 53008 60006 82531 90600 333 10194 20090 60004=
07037,1997-09-17 12:00:00,23,1021.4,0.2,53,13,25000,3.704,,,240,,,,,,,,,,,wg-a,,,,AAXX 17124 07037 12/75 42402 10230 20130 30038 40214 51002 60006 80001 91200=
07037,1997-09-17 15:00:00,25,1020.9,-0.4,50,14,25000,3.704,,,300,,,,,,,,,,,wg-a,,,,AAXX 17154 07037 12/75 43002 10250 20140 30034 40209 57004 60006 80001 91500=
07037,1997-09-17 18:00:00,22,1021.2,0.1,57,13,0,7.408,,,10,9.6,25,,,,,,,,,wg-a,,,,AAXX 17184 07037 12/// /0104 10220 20130 30035 40212 53001 60006 91800 333 10250 20096=
07037,1997-09-18 00:00:00,14,1022.4,-0.1,100,14,0,7.408,,,130,,,,,,,,,,,wg-a,,,,AAXX 18004 07037 12/// /1304 10140 20140 30043 40224 56001 60006 90000=
07037,1997-09-18 09:00:00,20,1022.9,0.6,78,16,12000,7.408,,,170,,,,,,,,,,,wg-a,,,,AAXX 18094 07037 12/62 01704 10200 20160 30051 40229 51006 60006 80000 90900=
07037,1997-09-18 12:00:00,26,1022,-0.5,54,16,14000,14.816,,,220,,,,,,,,,,,wg-a,,,,AAXX 18124 07037 12864 42208 10260 20160 30046 40220 58005 60006 84080 91200=
07037,1997-09-18 15:00:00,27,1020.9,-1,48,15,15000,11.112,,,300,,,,,,,,,,,wg-a,,,,AAXX 18154 07037 12765 33006 10270 20150 30036 40209 56010 60006 81130 91500=
07037,1997-09-18 18:00:00,22,1021.3,0.1,65,15,0,3.704,,,320,12.7,27.6,,,,,,,,,wg-a,,,,AAXX 18184 07037 12/// /3202 10220 20150 30037 40213 53001 60006 91800 333 10276 20127=
07037,1997-09-19 00:00:00,17,1022.4,-0.1,94,16,0,3.704,,,170,,,,,,,,,,,wg-a,,,,AAXX 19004 07037 12/// /1702 10170 20160 30044 40224 58001 60006 90000=
07037,1997-09-19 06:00:00,15,1022.7,0.5,94,14,3000,3.704,,,180,14.7,22.4,,,,,,,,10,wg-a,,,,AAXX 19064 07037 02730 31802 10150 20140 30046 40227 53005 60006 71000 82501 90600 333 10224 20147 60004=
07037,1997-09-19 09:00:00,21,1023.1,0.8,78,17,500,7.408,,,50,,,,,,,,,,,wg-a,,,,AAXX 19094 07037 12/00 20504 10210 20170 30054 40231 51008 60006 82080 90900=
07037,1997-09-19 12:00:00,25,1022.9,0,57,16,15000,7.408,,,40,,,,,,,,,,,wg-a,,,,AAXX 19124 07037 12/65 20404 10250 20160 30054 40229 50000 60006 82080 91200=
07037,1997-09-19 15:00:00,25,1022.3,-0.6,57,16,15000,14.816,,,60,,,,,,,,,,,wg-a,,,,AAXX 19154 07037 12665 20608 10250 20160 30048 40223 56006 60006 82180 91500=
07037,1997-09-19 18:00:00,20,1023.6,1,73,15,0,18.52,,,70,14.8,26.3,,,,,,,,,wg-a,,,,AAXX 19184 07037 12/// /0710 10200 20150 30058 40236 53010 60006 91800 333 10263 20148=
07037,1997-09-20 00:00:00,14,1025.1,-0.1,82,11,0,22.224,,,80,,,,,,,,,,,wg-a,,,,AAXX 20004 07037 12/// /0812 10140 20110 30069 40251 58001 60006 90000=
07037,1997-09-20 06:00:00,12,1025.6,0.5,82,9,20000,22.224,,,80,11.7,20.2,,,,,,,,,wg-a,,,,AAXX 20064 07037 02/70 60812 10120 20090 30072 40256 53005 60006 86030 90600 333 10202 20117 60004=
07037,1997-09-20 09:00:00,15,1026.5,1.1,63,8,15000,22.224,,,80,,,,,,,,,,,wg-a,,,,AAXX 20094 07037 12/65 60812 10150 20080 30083 40265 52011 60006 82031 90900=
07037,1997-09-20 15:00:00,20,1024.3,-1.1,37,5,20000,18.52,,,60,,,,,,,,,,,wg-a,,,,AAXX 20154 07037 12/70 50610 10200 20050 30064 40243 56011 60006 80001 91500=
07037,1997-09-20 18:00:00,16,1024.4,-0.1,55,7,0,11.112,,,50,12.1,20.5,,,,,,,,,wg-a,,,,AAXX 20184 07037 12/// /0506 10160 20070 30063 40244 55001 60006 91800 333 10205 20121=
07037,1997-09-21 00:00:00,10,1024.9,-0.2,76,6,0,14.816,,,70,,,,,,,,,,,wg-a,,,,AAXX 21004 07037 12/// /0708 10100 20060 30064 40249 57002 60006 90000=
07037,1997-09-21 06:00:00,7,1024.2,-0.3,81,4,15000,14.816,,,60,6.3,16.1,,,,,,,,,wg-a,,,,AAXX 21064 07037 02/65 10608 10070 20040 30055 40242 55003 60006 81031 90600 333 10161 20063 60004=
07037,1997-09-21 09:00:00,14,1024.1,0.3,55,5,15000,11.112,,,80,,,,,,,,,,,wg-a,,,,AAXX 21094 07037 12/65 40806 10140 20050 30058 40241 50003 60006 80001 90900=
07037,1997-09-21 12:00:00,18,1022.9,-0.9,45,6,20000,14.816,,,90,,,,,,,,,,,wg-a,,,,AAXX 21124 07037 12/70 30908 10180 20060 30049 40229 57009 60006 81031 91200=
07037,1997-09-21 15:00:00,19,1021.9,-0.9,40,5,20000,11.112,,,60,,,,,,,,,,,wg-a,,,,AAXX 21154 07037 12/70 10606 10190 20050 30040 40219 56009 60006 81011 91500=
07037,1997-09-22 06:00:00,8,1023.2,0.2,87,6,18000,11.112,,,60,7.4,16.3,,,,,,,,,wg-a,,,,AAXX 22064 07037 02/68 20606 10080 20060 30046 40232 53002 60006 82030 90600 333 10163 20074 60004=
07037,1997-09-22 09:00:00,15,1023.3,0.6,67,9,25000,11.112,,,80,,,,,,,,,,,wg-a,,,,AAXX 22094 07037 12/75 20806 10150 20090 30052 40233 52006 60006 82030 90900=
07037,1997-09-22 12:00:00,20,1022.8,-0.2,46,8,25000,7.408,,,80,,,,,,,,,,,wg-a,,,,AAXX 22124 07037 12/75 10804 10200 20080 30050 40228 57002 60006 81030 91200=
07037,1997-09-22 15:00:00,20,1022.2,-0.6,37,5,25000,7.408,,,50,,,,,,,,,,,wg-a,,,,AAXX 22154 07037 12/75 00504 10200 20050 30044 40222 56006 60006 80000 91500=
07037,1997-09-23 00:00:00,10,1023.7,-0.1,82,7,0,14.816,,,60,,,,,,,,,,,wg-a,,,,AAXX 23004 07037 12/// /0608 10100 20070 30052 40237 57001 60006 90000=
07037,1997-09-23 06:00:00,9,1023.4,0.4,87,7,15000,14.816,,,50,8,17.1,,,,,,,,,wg-a,,,,AAXX 23064 07037 02/65 00508 10090 20070 30049 40234 53004 60006 80000 90600 333 10171 20080 60004=
07037,1997-09-23 09:00:00,16,1023.8,0.8,59,8,15000,14.816,,,60,,,,,,,,,,,wg-a,,,,AAXX 23094 07037 12/65 00608 10160 20080 30057 40238 52008 60006 80000 90900=
07037,1997-09-23 12:00:00,21,1023,-0.5,40,7,15000,18.52,,,70,,,,,,,,,,,wg-a,,,,AAXX 23124 07037 12/65 00710 10210 20070 30052 40230 58005 60006 80000 91200=
07037,1997-09-23 15:00:00,22,1022.2,-0.7,35,6,15000,22.224,,,60,,,,,,,,,,,wg-a,,,,AAXX 23154 07037 12/65 00612 10220 20060 30045 40222 56007 60006 80000 91500=
07037,1997-09-23 18:00:00,18,1022.8,0.3,45,6,0,11.112,,,50,9.3,22,,,,,,,,,wg-a,,,,AAXX 23184 07037 12/// /0506 10180 20060 30048 40228 53003 60006 91800 333 10220 20093=
07037,1997-09-24 00:00:00,12,1024.7,0.3,82,9,0,22.224,,,60,,,,,,,,,,,wg-a,,,,AAXX 24004 07037 12/// /0612 10120 20090 30063 40247 50003 60006 90000=
07037,1997-09-24 06:00:00,9,1024.8,0.2,93,8,3500,14.816,,,60,8.9,17.8,,,,,,,,10,wg-a,,,,AAXX 24064 07037 02/35 /0608 10090 20080 30062 40248 53002 60006 71000 80001 90600 333 10178 20089 60004=
07037,1997-09-24 12:00:00,19,1023.8,-0.9,56,10,15000,18.52,,,60,,,,,,,,,,,wg-a,,,,AAXX 24124 07037 12/65 30610 10190 20100 30059 40238 58009 60006 80001 91200=
07037,1997-09-24 15:00:00,20,1022.8,-0.9,49,9,15000,22.224,,,70,,,,,,,,,,,wg-a,,,,AAXX 24154 07037 12/65 30712 10200 20090 30050 40228 57009 60006 80001 91500=
07037,1997-09-24 18:00:00,15,1022.9,-0.2,72,10,0,14.816,,,70,9,20.2,,,,,,,,,wg-a,,,,AAXX 24184 07037 12/// /0708 10150 20100 30048 40229 55002 60006 91800 333 10202 20090=
07037,1997-09-25 00:00:00,10,1023.7,-0.2,93,9,0,14.816,,,70,,,,,,,,,,,wg-a,,,,AAXX 25004 07037 12/// /0708 10100 20090 30052 40237 58002 60006 90000=
07037,1997-09-25 06:00:00,8,1024.1,0.3,100,8,3000,14.816,,,70,7.6,15.5,,,,,,,,10,wg-a,,,,AAXX 25064 07037 02/30 00708 10080 20080 30055 40241 53003 60006 71000 80000 90600 333 10155 20076 60004=
07037,1997-09-25 09:00:00,14,1024.8,1.1,82,11,12000,14.816,,,80,,,,,,,,,,,wg-a,,,,AAXX 25094 07037 12/62 00808 10140 20110 30066 40248 52011 60006 80000 90900=
07037,1997-09-25 12:00:00,20,1024.2,-0.2,53,10,15000,14.816,,,80,,,,,,,,,,,wg-a,,,,AAXX 25124 07037 12/65 00808 10200 20100 30064 40242 58002 60006 80000 91200=
07037,1997-09-25 15:00:00,21,1023.4,-0.8,49,10,15000,11.112,,,80,,,,,,,,,,,wg-a,,,,AAXX 25154 07037 12/65 00806 10210 20100 30056 40234 57008 60006 80000 91500=
07037,1997-09-26 00:00:00,12,1024.8,-0.6,82,9,0,14.816,,,50,,,,,,,,,,,wg-a,,,,AAXX 26004 07037 12/// /0508 10120 20090 30064 40248 57006 60006 90000=
07037,1997-09-26 06:00:00,9,1024.4,-0,93,8,3000,7.408,,,70,9.2,17.4,,,,,,,,10,wg-a,,,,AAXX 26064 07037 02/30 00704 10090 20080 30059 40244 55000 60006 71000 80000 90600 333 10174 20092 60004=
07037,1997-09-26 09:00:00,16,1024.3,0.3,72,11,8000,7.408,,,80,,,,,,,,,,,wg-a,,,,AAXX 26094 07037 12/58 00804 10160 20110 30062 40243 53003 60006 80000 90900=
07037,1997-09-26 12:00:00,22,1022.4,-1.5,50,11,15000,14.816,,,80,,,,,,,,,,,wg-a,,,,AAXX 26124 07037 12/65 00808 10220 20110 30047 40224 58015 60006 80000 91200=
07037,1997-09-26 15:00:00,23,1020.5,-1.8,47,11,15000,14.816,,,80,,,,,,,,,,,wg-a,,,,AAXX 26154 07037 12/65 00808 10230 20110 30029 40205 56018 60006 80000 91500=
07037,1997-09-26 18:00:00,20,1020.1,-0.6,56,11,0,7.408,,,40,9.3,23,,,,,,,,,wg-a,,,,AAXX 26184 07037 12/// /0404 10200 20110 30023 40201 57006 60006 91800 333 10230 20093=
07037,1997-09-27 00:00:00,12,1019.5,-0.7,82,9,0,11.112,,,60,,,,,,,,,,,wg-a,,,,AAXX 27004 07037 12/// /0606 10120 20090 30012 40195 56007 60006 90000=
07037,1997-09-27 06:00:00,10,1017.9,-0.5,93,9,500,3.704,,,360,10.1,19.4,,,,,,,,,wg-a,,,,AAXX 27064 07037 02/00 23602 10100 20090 39995 40179 55005 60006 80001 90600 333 10194 20101 60004=
07037,1997-09-27 09:00:00,18,1016.9,-0.4,64,11,15000,7.408,,,140,,,,,,,,,,,wg-a,,,,AAXX 27094 07037 12/65 31404 10180 20110 39991 40169 58004 60006 80001 90900=
07037,1997-09-27 12:00:00,23,1015.9,-0.8,41,9,20000,11.112,,,120,,,,,,,,,,,wg-a,,,,AAXX 27124 07037 12/70 21206 10230 20090 39983 40159 58008 60006 80001 91200=
07037,1997-09-27 15:00:00,24,1014.4,-1.4,36,8,20000,14.816,,,70,,,,,,,,,,,wg-a,,,,AAXX 27154 07037 12/70 20708 10240 20080 39969 40144 56014 60006 80001 91500=
07037,1997-09-27 18:00:00,19,1014.8,0.1,49,8,0,3.704,,,70,10,24.3,,,,,,,,,wg-a,,,,AAXX 27184 07037 12/// /0702 10190 20080 39970 40148 53001 60006 91800 333 10243 20100=
07037,1997-09-28 00:00:00,13,1014.7,-0.6,88,11,0,14.816,,,60,,,,,,,,,,,wg-a,,,,AAXX 28004 07037 12/// /0608 10130 20110 39966 40147 56006 60006 90000=
07037,1997-09-28 06:00:00,10,1015.3,0.5,93,9,2000,3.704,,,40,9.7,19.1,,,,,,,,10,wg-a,,,,AAXX 28064 07037 02/20 20402 10100 20090 39970 40153 53005 60006 71000 80001 90600 333 10191 20097 60004=
07037,1997-09-28 09:00:00,11,1016.4,1.1,100,11,500,7.408,,,80,,,,,,,,,,43,wg-a,,,,AAXX 28094 07037 32/05 90804 10110 20110 39981 40164 53011 74341 89/// 90900=
07037,1997-09-28 12:00:00,19,1015.2,-0.6,68,13,8000,3.704,,,110,,,,,,,,,,2,wg-a,,,,AAXX 28124 07037 12/58 01102 10190 20130 39975 40152 56006 60006 70241 80000 91200=
07037,1997-09-28 15:00:00,23,1014.4,-0.6,50,12,10000,3.704,,,70,,,,,,,,,,,wg-a,,,,AAXX 28154 07037 12/60 00702 10230 20120 39969 40144 58006 60006 80000 91500=
07037,1997-09-29 00:00:00,13,1017.8,0.7,88,11,0,3.704,,,130,,,,,,,,,,,wg-a,,,,AAXX 29004 07037 12/// /1302 10130 20110 39996 40178 51007 60006 90000=
07037,1997-09-29 06:00:00,9,1019.9,1.3,100,9,500,0,,,0,8.5,17.8,,,,,,,,44,wg-a,,,,AAXX 29064 07037 02100 50000 10090 20090 30014 40199 52013 60006 74441 83601 90600 333 10178 20085 60004=
07037,1997-09-29 09:00:00,14,1021.3,1.7,100,14,1200,7.408,,,280,,,,0,,,,,,10,wg-a,,,,AAXX 29094 07037 12/12 52804 10140 20140 30031 40213 51017 60007 71042 80002 90900=
07037,1997-09-29 12:00:00,21,1021.6,0.7,56,12,500,3.704,,,200,,,,,,,,,,3,wg-a,,,,AAXX 29124 07037 12/00 /2002 10210 20120 30038 40216 51007 60006 70342 80002 91200=
07037,1997-09-29 15:00:00,21,1021.5,-0,60,13,8000,7.408,,,280,,,,,,,,,,,wg-a,,,,AAXX 29154 07037 12/58 /2804 10210 20130 30038 40215 55000 60006 81032 91500=
07037,1997-09-29 18:00:00,17,1022.5,0.7,63,10,0,7.408,,,320,8.3,22,,,,,,,,,wg-a,,,,AAXX 29184 07037 32/// /3204 10170 20100 30045 40225 52007 91800 333 10220 20083=
07037,1997-09-30 00:00:00,12,1024,0.4,100,12,0,7.408,,,170,,,,,,,,,,,wg-a,,,,AAXX 30004 07037 12/// /1704 10120 20120 30056 40240 50004 60006 90000=
07037,1997-09-30 06:00:00,9,1025,0.3,100,9,500,3.704,,,310,8.9,17,,,,,,,,42,wg-a,,,,AAXX 30064 07037 02/05 03102 10090 20090 30064 40250 53003 60006 74240 80000 90600 333 10170 20089 60004=
07037,1997-09-30 12:00:00,21,1024.7,-0.6,40,7,8000,11.112,,,310,,,,,,,,,,2,wg-a,,,,AAXX 30124 07037 12/58 03106 10210 20070 30069 40247 58006 60006 70241 80000 91200=
07037,1997-09-30 15:00:00,23,1023.9,-0.7,50,12,15000,11.112,,,280,,,,,,,,,,,wg-a,,,,AAXX 30154 07037 12/65 22806 10230 20120 30062 40239 56007 60006 80001 91500=
07037,1997-09-30 18:00:00,18,1024.1,-0.1,77,14,0,7.408,,,290,8.9,23.8,,,,,,,,,wg-a,,,,AAXX 30184 07037 32/// /2904 10180 20140 30061 40241 57001 91800 333 10238 20089=
07037,1997-10-01 00:00:00,13,1023.9,-0.5,94,12,0,7.408,,,300,,,,,,,,,,,wg-a,,,,AAXX 01004 07037 12/// /3004 10130 20120 30056 40239 58005 60006 90000=
07037,1997-10-01 06:00:00,13,1022.9,-0.2,100,13,100,7.408,,,310,10.7,17.9,,,,,1,,,45,wg-a,,,,AAXX 01064 07037 02/01 93104 10130 20130 30046 40229 55002 60006 74542 89/// 90600 333 10179 20107 60014=
07037,1997-10-01 09:00:00,15,1022.9,0.2,100,15,100,11.112,,,310,,,,,,,,,,45,wg-a,,,,AAXX 01094 07037 12/01 93106 10150 20150 30048 40229 53002 60006 74544 89/// 90900=
07037,1997-10-01 12:00:00,17,1022.1,-0.7,100,17,2500,11.112,,,290,,,,,,,,,,10,wg-a,,,,AAXX 01124 07037 12225 82906 10170 20170 30041 40221 58007 60006 71042 876// 91200=
07037,1997-10-01 15:00:00,20,1020.4,-1.5,83,17,4000,14.816,,,290,,,,,,,,,,10,wg-a,,,,AAXX 01154 07037 12440 /2908 10200 20170 30026 40204 57015 60006 71022 85600 91500=
07037,1997-10-01 18:00:00,17,1019.8,-0.7,94,16,0,11.112,,,280,12.7,20.1,,,,,,,,,wg-a,,,,AAXX 01184 07037 12/// /2806 10170 20160 30019 40198 56007 60006 91800 333 10201 20127=
07037,1997-10-02 00:00:00,17,1018.3,-0.8,94,16,0,18.52,,,310,,,,,,,,,,,wg-a,,,,AAXX 02004 07037 12/// /3110 10170 20160 30004 40183 58008 60006 90000=
07037,1997-10-02 06:00:00,16,1018.1,0.2,94,15,6000,11.112,,,330,15.7,17.3,,,,,,,,,wg-a,,,,AAXX 02064 07037 02456 73306 10160 20150 30001 40181 53002 60006 875// 90600 333 10173 20157 60004=
07037,1997-10-02 09:00:00,17,1019.1,1.1,77,13,12000,14.816,,,340,,,,,,,,,,,wg-a,,,,AAXX 02094 07037 12462 /3408 10170 20130 30012 40191 53011 60006 85100 90900=
07037,1997-10-02 12:00:00,19,1018.9,-0.1,64,12,18000,14.816,,,330,,,,,,,,,,,wg-a,,,,AAXX 02124 07037 12568 /3308 10190 20120 30011 40189 58001 60006 85100 91200=
07037,1997-10-02 15:00:00,19,1018.5,-0.4,64,12,20000,14.816,,,340,,,,,,,,,,,wg-a,,,,AAXX 02154 07037 12670 33408 10190 20120 30007 40185 58004 60006 83100 91500=
07037,1997-10-02 18:00:00,15,1019.8,1,77,11,0,7.408,,,20,14.7,19.4,,,,,,,,,wg-a,,,,AAXX 02184 07037 12/// /0204 10150 20110 30017 40198 51010 60006 91800 333 10194 20147=
07037,1997-10-03 00:00:00,9,1021.3,0.4,100,9,0,7.408,,,60,,,,,,,,,,,wg-a,,,,AAXX 03004 07037 12/// /0604 10090 20090 30028 40213 51004 60006 90000=
07037,1997-10-03 06:00:00,7,1021.9,0.3,100,7,4000,7.408,,,70,6.7,14.7,,0,,,,,,10,wg-a,,,,AAXX 03064 07037 02640 40704 10070 20070 30032 40219 53003 60004 71000 84500 90600 333 10147 20067 60007=
07037,1997-10-03 09:00:00,11,1022.4,0.8,87,9,15000,7.408,,,170,,,,,,,,,,,wg-a,,,,AAXX 03094 07037 12765 71704 10110 20090 30040 40224 51008 60006 875// 90900=
07037,1997-10-03 12:00:00,16,1021.9,-0.1,63,9,15000,7.408,,,170,,,,,,,,,,,wg-a,,,,AAXX 03124 07037 12/65 51704 10160 20090 30039 40219 58001 60006 85030 91200=
07037,1997-10-03 15:00:00,17,1021,-0.9,59,9,15000,7.408,,,330,,,,,,,,,,,wg-a,,,,AAXX 03154 07037 12765 63304 10170 20090 30030 40210 56009 60006 86500 91500=
07037,1997-10-03 18:00:00,15,1021.4,0.3,67,9,0,7.408,,,40,6.8,18.2,,,,,,,,,wg-a,,,,AAXX 03184 07037 12/// /0404 10150 20090 30033 40214 53003 60006 91800 333 10182 20068=
07037,1997-10-04 00:00:00,13,1022.6,0.1,88,11,0,7.408,,,330,,,,,,,,,,,wg-a,,,,AAXX 04004 07037 12/// /3304 10130 20110 30043 40226 50001 60006 90000=
07037,1997-10-04 06:00:00,11,1022.9,0.1,100,11,2500,3.704,,,230,9.8,15.1,,,,,,,,10,wg-a,,,,AAXX 04064 07037 02625 72302 10110 20110 30045 40229 50001 60006 71022 875// 90600 333 10151 20098 60004=
07037,1997-10-04 09:00:00,14,1023.7,1,82,11,12000,7.408,,,250,,,,,,,,,,,wg-a,,,,AAXX 04094 07037 12762 62504 10140 20110 30055 40237 53010 60006 86500 90900=
07037,1997-10-04 12:00:00,18,1022.6,-0.8,68,12,11000,11.112,,,310,,,,,,,,,,,wg-a,,,,AAXX 04124 07037 12/61 /3106 10180 20120 30047 40226 58008 60006 91200=
07037,1997-10-04 18:00:00,15,1021.4,-0.4,88,13,0,7.408,,,300,11.1,18.9,,,,,,,,,wg-a,,,,AAXX 04184 07037 12/// /3004 10150 20130 30033 40214 55004 60006 91800 333 10189 20111=
07037,1997-10-05 00:00:00,9,1020.5,-0.8,100,9,0,0,,,0,,,,,,,,,,,wg-a,,,,AAXX 05004 07037 12/// /0000 10090 20090 30020 40205 58008 60006 90000=
07037,1997-10-05 06:00:00,11,1018.1,-1,100,11,2000,3.704,,,190,8.7,15.3,,,,,,,,10,wg-a,,,,AAXX 05064 07037 02420 71902 10110 20110 39998 40181 56010 60006 71022 876// 90600 333 10153 20087 60004=
07037,1997-10-05 09:00:00,13,1018.2,0.2,100,13,6000,7.408,,,200,,,,,,,,,,,wg-a,,,,AAXX 05094 07037 12556 72004 10130 20130 30000 40182 53002 60006 876// 90900=
07037,1997-10-05 12:00:00,17,1016.7,-1.2,68,11,0,0,,,0,,,,,,,,,,,wg-a,,,,AAXX 05124 07037 12/// /0000 10170 20110 39988 40167 58012 60006 91200=
07037,1997-10-05 15:00:00,19,1014.2,-2.4,60,11,15000,3.704,,,120,,,,,,,,,,,wg-a,,,,AAXX 05154 07037 12565 /1202 10190 20110 39964 40142 58024 60006 81600 91500=
07037,1997-10-05 18:00:00,13,1013.1,-1.4,88,11,0,14.816,,,80,10.6,18.8,,,,,,,,,wg-a,,,,AAXX 05184 07037 12/// /0808 10130 20110 39950 40131 56014 60006 91800 333 10188 20106=
07037,1997-10-06 00:00:00,10,1010.2,-1.9,93,9,0,14.816,,,120,,,,,,,,,,,wg-a,,,,AAXX 06004 07037 12/// /1208 10100 20090 39920 40102 58019 60006 90000=
07037,1997-10-06 06:00:00,9,1006.4,-1.9,93,8,3500,14.816,,,130,8.7,13,,,,,,,,10,wg-a,,,,AAXX 06064 07037 02/35 31308 10090 20080 39882 40064 56019 60006 71000 83030 90600 333 10130 20087 60004=
07037,1997-10-06 09:00:00,16,1004.9,-1.1,82,13,8000,18.52,,,160,,,,,,,,,,,wg-a,,,,AAXX 06094 07037 12/58 31610 10160 20130 39871 40049 58011 60006 80001 90900=
07037,1997-10-06 12:00:00,21,1002.8,-1.7,69,15,15000,18.52,,,170,,,,,,,,,,,wg-a,,,,AAXX 06124 07037 12/65 61710 10210 20150 39854 40028 57017 60006 85082 91200=
07037,1997-10-06 18:00:00,19,1001.5,-0.4,83,16,0,18.52,,,250,9,22.4,,,,,,,,,wg-a,,,,AAXX 06184 07037 32/// /2510 10190 20160 39840 40015 55004 91800 333 10224 20090=
07037,1997-10-07 06:00:00,15,998.5,-0.3,94,14,15000,29.632,,,210,15.1,18.9,,,,,2,,,,wg-a,,,,AAXX 07064 07037 02465 52116 10150 20140 39808 49985 56003 60006 85500 90600 333 10189 20151 60024=
07037,1997-10-07 09:00:00,15,1000.4,1.9,82,12,15000,31.484,,,220,,,,,,,,,,,wg-a,,,,AAXX 07094 07037 12565 /2217 10150 20120 39827 40004 51019 60006 83230 90900=
07037,1997-10-07 12:00:00,17,1001.7,1.3,63,10,15000,31.484,,51.856,270,,,,,,,,,,2,wg-a,,,,AAXX 07124 07037 02565 62717 10170 20100 39840 40017 53013 61000 70286 8/800 91200 333 6100 91028=
07037,1997-10-07 15:00:00,18,1003.6,2,49,7,15000,29.632,,,260,,,,,,,,,,,wg-a,,,,AAXX 07154 07037 12665 52616 10180 20070 39860 40036 52020 60006 84201 91500=
07037,1997-10-07 18:00:00,14,1005.7,1.8,67,8,0,11.112,,,220,13.3,19.2,,,,,,,,,wg-a,,,,AAXX 07184 07037 32/// /2206 10140 20080 39878 40057 53018 91800 333 10192 20133=
07037,1997-10-08 00:00:00,13,1007.9,0.5,88,11,0,18.52,,,200,,,,,,,,,,,wg-a,,,,AAXX 08004 07037 12/// /2010 10130 20110 39899 40079 50005 60006 90000=
07037,1997-10-08 06:00:00,16,1006.7,0.2,88,14,20000,35.188,,,210,12.4,15.6,,,,,1,,,3,wg-a,,,,AAXX 08064 07037 02470 82119 10160 20140 39889 40067 53002 60006 70362 875// 90600 333 10156 20124 60014=
07037,1997-10-08 09:00:00,16,1007.5,0.8,88,14,15000,31.484,,,210,,,,,,,,,,,wg-a,,,,AAXX 08094 07037 12465 82117 10160 20140 39897 40075 51008 60006 875// 90900=
07037,1997-10-08 12:00:00,16,1006.6,-0.9,94,15,10000,29.632,,,190,,,,2,,,,,,61,wg-a,,,,AAXX 08124 07037 02460 81916 10160 20150 39888 40066 58009 60026 76162 885// 91200 333 60027=
07037,1997-10-08 15:00:00,16,1004,-2.5,100,16,10000,46.3,,64.82,210,,,,7,,,,,,61,wg-a,,,,AAXX 08154 07037 12460 82125 10160 20160 39863 40040 56025 60077 76166 885// 91500 333 91035=
07037,1997-10-08 18:00:00,16,1004.7,0.7,100,16,0,38.892,,,220,15.5,16.6,,2,,,,,,,wg-a,,,,AAXX 08184 07037 12/// /2221 10160 20160 39870 40047 53007 60027 91800 333 10166 20155=
07037,1997-10-09 00:00:00,17,1004.7,-0.4,94,16,0,31.484,,,210,,,,2,,,,,,,wg-a,,,,AAXX 09004 07037 02/// /2117 10170 20160 39870 40047 58004 60046 90000 333 60027=
07037,1997-10-09 06:00:00,18,1005.6,1.3,94,17,15000,31.484,,50.004,240,16.4,17.9,,,,,15,,,1,wg-a,,,,AAXX 09064 07037 02465 72417 10180 20170 39880 40056 53013 60006 70162 875// 90600 333 10179 20164 60154 91027=
07037,1997-10-09 09:00:00,19,1008.1,2.5,78,15,20000,29.632,,,260,,,,,,,,,,,wg-a,,,,AAXX 09094 07037 12470 /2616 10190 20150 39905 40081 51025 60006 85230 90900=
07037,1997-10-09 12:00:00,19,1009.7,1.6,73,14,25000,31.484,,,250,,,,,,,,,,,wg-a,,,,AAXX 09124 07037 12575 72517 10190 20140 39921 40097 51016 60006 8683/ 91200=
07037,1997-10-09 15:00:00,20,1009.5,-0.2,64,13,25000,35.188,,,250,,,,,,,,,,,wg-a,,,,AAXX 09154 07037 12575 62519 10200 20130 39919 40095 58002 60006 86800 91500=
07037,1997-10-10 00:00:00,17,1008.7,-1.5,82,14,0,29.632,,,230,,,,,,,,,,,wg-a,,,,AAXX 10004 07037 12/// /2316 10170 20140 39910 40087 58015 60006 90000=
07037,1997-10-10 06:00:00,16,1004.4,-2.2,94,15,7000,29.632,,,230,15.7,18.4,,,,,,,,61,wg-a,,,,AAXX 10064 07037 02357 72316 10160 20150 39867 40044 56022 61000 76162 877// 90600 333 10184 20157 6001=
07037,1997-10-10 09:00:00,14,1006.2,1.6,94,13,15000,22.224,,,310,,,,3,,,,,,80,wg-a,,,,AAXX 10094 07037 12265 73112 10140 20130 39883 40062 53016 60037 78086 8523/ 90900=
07037,1997-10-10 12:00:00,16,1007.8,1.7,68,10,20000,25.928,,,300,,,,0,,,,,,1,wg-a,,,,AAXX 10124 07037 02670 43014 10160 20100 39900 40078 51017 60036 70186 84200 91200 333 60007=
07037,1997-10-10 15:00:00,15,1009.3,1.4,63,8,20000,29.632,,,310,,,,,,,,,,,wg-a,,,,AAXX 10154 07037 12670 43116 10150 20080 39914 40093 52014 60006 84200 91500=
07037,1997-10-10 18:00:00,13,1011.3,1.8,77,9,0,18.52,,,280,12.7,17,,,,,,,,,wg-a,,,,AAXX 10184 07037 32/// /2810 10130 20090 39932 40113 53018 91800 333 10170 20127=
07037,1997-10-11 00:00:00,12,1012.7,0.1,88,10,0,22.224,,,270,,,,,,,,,,,wg-a,,,,AAXX 11004 07037 12/// /2712 10120 20100 39945 40127 53001 60006 90000=
07037,1997-10-11 06:00:00,10,1011,-1,93,9,20000,14.816,,,250,9.5,12.9,,,,,3,,,,wg-a,,,,AAXX 11064 07037 02570 72508 10100 20090 39928 40110 57010 60006 8253/ 90600 333 10129 20095 60034=
07037,1997-10-11 09:00:00,12,1009.8,-1.1,88,10,25000,22.224,,,240,,,,,,,,,,,wg-a,,,,AAXX 11094 07037 12575 72412 10120 20100 39917 40098 58011 60006 8213/ 90900=
07037,1997-10-11 12:00:00,12,1006,-3.7,94,11,20000,18.52,,,200,,,,0,,,,,,60,wg-a,,,,AAXX 11124 07037 02470 82010 10120 20110 39880 40060 58037 60016 76062 8452/ 91200 333 60007=
07037,1997-10-11 15:00:00,13,1001.4,-4.5,94,12,2500,22.224,,,210,,,,1,,,,,,61,wg-a,,,,AAXX 11154 07037 12225 82112 10130 20120 39835 40014 56045 60017 76162 887// 91500=
07037,1997-10-11 18:00:00,15,998.4,-2.8,100,15,0,22.224,,,250,9.9,15.1,,,,,,,,,wg-a,,,,AAXX 11184 07037 32/// /2512 10150 20150 39807 49984 56028 91800 333 10151 20099=
07037,1997-10-12 06:00:00,10,1001.3,4.4,93,9,15000,31.484,,,40,10.4,15.1,,,,,,,,21,wg-a,,,,AAXX 12064 07037 02365 70417 10100 20090 39833 40013 53044 61000 72162 878// 90600 333 10151 20104 6009=
07037,1997-10-12 09:00:00,12,1008.6,7.2,82,9,15000,14.816,,,340,,,,,,,,,,21,wg-a,,,,AAXX 12094 07037 02465 /3408 10120 20090 39905 40086 51072 61000 72122 85800 90900 333 ////=
07037,1997-10-12 12:00:00,13,1012,3.4,77,9,15000,31.484,,,340,,,,0,,,,,,25,wg-a,,,,AAXX 12124 07037 02465 /3417 10130 20090 39939 40120 51034 60016 72586 86800 91200 333 60007=
07037,1997-10-12 15:00:00,12,1014.4,2.3,76,8,15000,25.928,,,350,,,,0,,,,,,25,wg-a,,,,AAXX 12154 07037 12565 53514 10120 20080 39962 40144 51023 60007 72586 85800 91500=
07037,1997-10-12 18:00:00,8,1016.7,2,81,5,0,11.112,,,340,8,13.8,,,,,,,,,wg-a,,,,AAXX 12184 07037 32/// /3406 10080 20050 39982 40167 53020 91800 333 10138 20080=
07037,1997-10-13 06:00:00,6,1017.3,-0.3,93,5,15000,11.112,,,270,5,9.7,,,,,1,,,,wg-a,,,,AAXX 13064 07037 02665 72706 10060 20050 39987 40173 58003 60006 875// 90600 333 10097 20050 60014=
07037,1997-10-13 09:00:00,10,1017.8,0.7,76,6,25000,25.928,,,330,,,,0,,,,,,3,wg-a,,,,AAXX 13094 07037 12575 53314 10100 20060 39994 40178 52007 60007 70386 85800 90900=
07037,1997-10-13 12:00:00,10,1017.3,-0.5,87,8,12000,18.52,,,300,,,,0,,,,,,25,wg-a,,,,AAXX 13124 07037 02562 73010 10100 20080 39989 40173 58005 60016 72586 873// 91200 333 60007=
07037,1997-10-13 15:00:00,9,1017.3,-0,87,7,15000,18.52,,,340,,,,1,,,,,,25,wg-a,,,,AAXX 13154 07037 12465 73410 10090 20070 39989 40173 55000 60017 72586 873// 91500=
07037,1997-10-13 18:00:00,8,1019.9,2.5,81,5,0,18.52,,,360,6.2,11.9,,,,,,,,,wg-a,,,,AAXX 13184 07037 32/// /3610 10080 20050 30014 40199 53025 91800 333 10119 20062=
07037,1997-10-14 00:00:00,7,1023.3,1,87,5,0,18.52,,,350,,,,,,,,,,,wg-a,,,,AAXX 14004 07037 12/// /3510 10070 20050 30046 40233 51010 60016 90000=
07037,1997-10-14 06:00:00,4,1025.4,1.2,100,4,8000,14.816,,,310,3.2,8.3,,,,,2,,,,wg-a,,,,AAXX 14064 07037 02458 33108 10040 20040 30065 40254 53012 60006 82101 90600 333 10083 20032 60024=
07037,1997-10-14 09:00:00,10,1026,0.9,76,6,12000,22.224,,,340,,,,0,,,,,,,wg-a,,,,AAXX 14094 07037 12462 33412 10100 20060 30074 40260 53009 60007 82101 90900=
07037,1997-10-14 12:00:00,11,1025.8,-0.1,66,5,20000,18.52,,,320,,,,,,,,,,,wg-a,,,,AAXX 14124 07037 12570 43210 10110 20050 30073 40258 58001 60006 82101 91200=
07037,1997-10-14 18:00:00,8,1024,-0.5,81,5,0,11.112,,,300,3.9,11.5,,,,,,,,,wg-a,,,,AAXX 14184 07037 32/// /3006 10080 20050 30054 40240 55005 91800 333 10115 20039=
07037,1997-10-15 00:00:00,7,1020.4,-2.7,87,5,0,14.816,,,200,,,,,,,,,,,wg-a,,,,AAXX 15004 07037 12/// /2008 10070 20050 30018 40204 58027 60016 90000=
07037,1997-10-15 09:00:00,10,1010.3,-2.3,100,10,2500,18.52,,,250,,,,1,,,,,,51,wg-a,,,,AAXX 15094 07037 12125 82510 10100 20100 39921 40103 56023 60017 75155 877// 90900=
07037,1997-10-15 12:00:00,14,1009.7,-0.4,100,14,900,11.112,,,300,,,,2,,,,,,51,wg-a,,,,AAXX 15124 07037 02109 83006 10140 20140 39917 40097 56004 60046 75155 887// 91200 333 60027=
07037,1997-10-15 15:00:00,14,1010.7,,94,13,15000,18.52,,,350,,,,,,,,,,28,wg-a,,,,AAXX 15154 07037 32365 83510 10140 20130 39927 40107 72854 875// 91500=
07037,1997-10-15 18:00:00,12,1011.4,1.1,100,12,0,11.112,,,340,7.7,15,,,,,,,,,wg-a,,,,AAXX 15184 07037 32/// /3406 10120 20120 39933 40114 53011 91800 333 10150 20077=
07037,1997-10-16 00:00:00,11,1013.2,0.7,94,10,0,3.704,,,330,,,,,,,,,,,wg-a,,,,AAXX 16004 07037 12/// /3302 10110 20100 39950 40132 51007 60006 90000=
07037,1997-10-16 06:00:00,10,1014.3,1.1,100,10,900,7.408,,,100,9.8,12.2,,,,,4,,,44,wg-a,,,,AAXX 16064 07037 02109 81004 10100 20100 39960 40143 52011 60006 74442 885// 90600 333 10122 20098 60044=
07037,1997-10-16 09:00:00,12,1015.4,1.2,94,11,3500,7.408,,,170,,,,,,,,,,10,wg-a,,,,AAXX 16094 07037 12335 81704 10120 20110 39972 40154 52012 60006 71042 876// 90900=
07037,1997-10-16 15:00:00,16,1014,-0.6,82,13,15000,14.816,,,220,,,,,,,,,,,wg-a,,,,AAXX 16154 07037 12465 72208 10160 20130 39961 40140 56006 60006 875// 91500=
07037,1997-10-16 18:00:00,15,1014.4,0.3,88,13,0,7.408,,,180,9.9,16.5,,,,,,,,,wg-a,,,,AAXX 16184 07037 12/// /1804 10150 20130 39964 40144 53003 60006 91800 333 10165 20099=
07037,1997-10-17 00:00:00,14,1014.2,-0.5,94,13,0,14.816,,,190,,,,,,,,,,,wg-a,,,,AAXX 17004 07037 12/// /1908 10140 20130 39961 40142 57005 60006 90000=
07037,1997-10-17 06:00:00,13,1013.8,0.1,94,12,6000,14.816,,,160,12.6,14.4,,,,,,,,,wg-a,,,,AAXX 17064 07037 02356 71608 10130 20120 39957 40138 52001 60006 875// 90600 333 10144 20126 60004=
07037,1997-10-17 09:00:00,14,1014.7,0.9,88,12,15000,18.52,,,160,,,,,,,,,,,wg-a,,,,AAXX 17094 07037 12/65 61610 10140 20120 39966 40147 51009 60006 80001 90900=
07037,1997-10-17 12:00:00,17,1013.8,-0.7,68,11,15000,29.632,,,160,,,,,,,,,,,wg-a,,,,AAXX 17124 07037 12/65 71616 10170 20110 39959 40138 58007 60006 80001 91200=
07037,1997-10-17 15:00:00,18,1012.7,-1,64,11,20000,22.224,,,140,,,,,,,,,,,wg-a,,,,AAXX 17154 07037 12/70 71412 10180 20110 39949 40127 56010 60006 80001 91500=
07037,1997-10-17 18:00:00,15,1013.6,0.7,82,12,0,18.52,,,140,12.6,18.7,,,,,,,,,wg-a,,,,AAXX 17184 07037 12/// /1410 10150 20120 39956 40136 53007 60006 91800 333 10187 20126=
07037,1997-10-18 00:00:00,12,1015.8,0.9,94,11,0,11.112,,,140,,,,,,,,,,,wg-a,,,,AAXX 18004 07037 12/// /1406 10120 20110 39976 40158 53009 60006 90000=
07037,1997-10-18 06:00:00,9,1017.6,0.9,100,9,3000,14.816,,,120,8.5,14.7,,,,,,,,,wg-a,,,,AAXX 18064 07037 02/30 01208 10090 20090 39992 40176 52009 60006 80000 90600 333 10147 20085 60004=
07037,1997-10-18 09:00:00,14,1018.9,1.6,82,11,10000,14.816,,,150,,,,,,,,,,,wg-a,,,,AAXX 18094 07037 12/60 21508 10140 20110 30008 40189 51016 60006 80001 90900=
07037,1997-10-18 12:00:00,19,1018.1,-0.5,64,12,20000,18.52,,,150,,,,,,,,,,,wg-a,,,,AAXX 18124 07037 12/70 21510 10190 20120 30003 40181 58005 60006 80001 91200=
07037,1997-10-18 15:00:00,21,1017.4,-0.6,60,13,10000,18.52,,,140,,,,,,,,,,,wg-a,,,,AAXX 18154 07037 12/60 /1410 10210 20130 39997 40174 56006 60006 91500=
07037,1997-10-18 18:00:00,15,1018.6,0.9,82,12,0,11.112,,,140,8.9,20.8,,,,,,,,,wg-a,,,,AAXX 18184 07037 12/// /1406 10150 20120 30006 40186 53009 60006 91800 333 10208 20089=
07037,1997-10-19 00:00:00,11,1017.8,-0.8,100,11,0,7.408,,,120,,,,,,,,,,,wg-a,,,,AAXX 19004 07037 12/// /1204 10110 20110 39995 40178 58008 60006 90000=
07037,1997-10-19 06:00:00,10,1017.2,-0,100,10,3000,7.408,,,120,9.8,15.4,,,,,,,,,wg-a,,,,AAXX 19064 07037 02/30 /1204 10100 20100 39988 40172 55000 60006 90600 333 10154 20098 60004=
07037,1997-10-19 09:00:00,13,1017.1,0.2,100,13,2500,7.408,,,150,,,,0,,,,,,10,wg-a,,,,AAXX 19094 07037 12325 21504 10130 20130 39990 40171 53002 60007 71041 82700 90900=
07037,1997-10-19 15:00:00,20,1014.1,-1.4,68,14,25000,14.816,,,150,,,,,,,,,,,wg-a,,,,AAXX 19154 07037 12/75 51508 10200 20140 39965 40141 58014 60006 81031 91500=
07037,1997-10-19 18:00:00,15,1014.9,0.4,88,13,0,11.112,,,160,9.9,20.8,,,,,,,,,wg-a,,,,AAXX 19184 07037 32/// /1606 10150 20130 39969 40149 53004 91800 333 10208 20099=
07037,1997-10-20 00:00:00,14,1014,-1,94,13,0,7.408,,,100,,,,,,,,,,,wg-a,,,,AAXX 20004 07037 12/// /1004 10140 20130 39959 40140 56010 60006 90000=
07037,1997-10-20 06:00:00,13,1012.8,-0.6,100,13,6000,18.52,,,100,12.7,15.3,,,,,,,,,wg-a,,,,AAXX 20064 07037 02/56 71010 10130 20130 39947 40128 58006 60006 8703/ 90600 333 10153 20127 60004=
07037,1997-10-20 09:00:00,14,1013.4,0.7,94,13,3000,11.112,,,60,,,,,,,,,,10,wg-a,,,,AAXX 20094 07037 12/30 80606 10140 20130 39954 40134 51007 60006 71022 8703/ 90900=
07037,1997-10-20 12:00:00,15,1012.9,-0.5,94,14,500,18.52,,,70,,,,,,,,,,,wg-a,,,,AAXX 20124 07037 12/00 /0710 10150 20140 39949 40129 58005 60016 91200=
07037,1997-10-20 15:00:00,14,1012.5,-0.4,100,14,2500,18.52,,,80,,,,1,,,,,,10,wg-a,,,,AAXX 20154 07037 12225 80810 10140 20140 39945 40125 55004 60017 71066 8657/ 91500=
07037,1997-10-20 18:00:00,13,1013.5,0.9,94,12,1500,22.224,,,70,12.7,14.8,,,,,,,,10,wg-a,,,,AAXX 20184 07037 12/15 /0712 10130 20120 39954 40135 53009 60006 710// 91800 333 10148 20127=
07037,1997-10-21 00:00:00,9,1014.3,0.3,93,8,0,29.632,,,70,,,,,,,,,,,wg-a,,,,AAXX 21004 07037 12/// /0716 10090 20080 39959 40143 51003 60046 90000=
07037,1997-10-21 06:00:00,6,1013.9,-0.2,93,5,8000,22.224,,,70,6.2,12.7,,,,,9,,,,wg-a,,,,AAXX 21064 07037 02458 70712 10060 20050 39953 40139 55002 60006 878// 90600 333 10127 20062 60094=
07037,1997-10-21 09:00:00,7,1014.8,1,93,6,8000,22.224,,,80,,,,,,,,,,,wg-a,,,,AAXX 21094 07037 12458 /0812 10070 20060 39963 40148 51010 60006 86800 90900=
07037,1997-10-21 15:00:00,10,1014.3,-0.3,87,8,12000,18.52,,,90,,,,,,,,,,,wg-a,,,,AAXX 21154 07037 12462 /0910 10100 20080 39960 40143 58003 60006 86500 91500=
07037,1997-10-21 18:00:00,8,1014.9,0.4,87,6,0,14.816,,,70,5.7,10.3,,,,,,,,,wg-a,,,,AAXX 21184 07037 12/// /0708 10080 20060 39964 40149 53004 60006 91800 333 10103 20057=
07037,1997-10-22 00:00:00,5,1014.4,-0.3,87,3,0,14.816,,,100,,,,,,,,,,,wg-a,,,,AAXX 22004 07037 12/// /1008 10050 20030 39958 40144 56003 60006 90000=
07037,1997-10-22 06:00:00,4,1012.8,-0.6,87,2,15000,14.816,,,120,2.8,7.6,,,,,,,,,wg-a,,,,AAXX 22064 07037 02/65 61208 10040 20020 39941 40128 56006 60006 86030 90600 333 10076 20028 60004=
07037,1997-10-22 09:00:00,6,1013.1,0.4,87,4,15000,11.112,,,100,,,,,,,,,,,wg-a,,,,AAXX 22094 07037 12/65 61006 10060 20040 39945 40131 53004 60006 86030 90900=
07037,1997-10-22 12:00:00,12,1011.6,-1,76,8,15000,11.112,,,110,,,,,,,,,,,wg-a,,,,AAXX 22124 07037 12/65 41106 10120 20080 39935 40116 58010 60006 84030 91200=
07037,1997-10-22 18:00:00,8,1012.9,0.8,87,6,0,22.224,,,70,4.3,14.2,,,,,,,,,wg-a,,,,AAXX 22184 07037 12/// /0712 10080 20060 39945 40129 53008 60006 91800 333 10142 20043=
07037,1997-10-23 00:00:00,4,1014.1,0.2,93,3,0,11.112,,,60,,,,,,,,,,,wg-a,,,,AAXX 23004 07037 12/// /0606 10040 20030 39954 40141 51002 60006 90000=
07037,1997-10-23 06:00:00,2,1014.4,0.3,93,1,3500,14.816,,,60,1.5,8.3,,,,,,,,10,wg-a,,,,AAXX 23064 07037 02/35 /0608 10020 20010 39955 40144 53003 60006 71000 81030 90600 333 10083 20015 60004=
07037,1997-10-23 09:00:00,5,1015.1,0.9,87,3,500,14.816,,,60,,,,,,,,,,,wg-a,,,,AAXX 23094 07037 12100 /0608 10050 20030 39964 40151 51009 60006 81600 90900=
07037,1997-10-23 12:00:00,11,1015,0.3,50,1,15000,18.52,,,70,,,,,,,,,,,wg-a,,,,AAXX 23124 07037 12/65 10710 10110 20010 39967 40150 50003 60006 80001 91200=
07037,1997-10-23 15:00:00,12,1015,0.1,58,4,20000,22.224,,,60,,,,,,,,,,,wg-a,,,,AAXX 23154 07037 12/70 00612 10120 20040 39968 40150 53001 60006 80000 91500=
07037,1997-10-23 18:00:00,8,1016.8,1.5,76,4,0,14.816,,,50,1.2,12.4,,,,,,,,,wg-a,,,,AAXX 23184 07037 12/// /0508 10080 20040 39983 40168 53015 60006 91800 333 10124 20012=
07037,1997-10-24 00:00:00,5,1020.2,1.1,93,4,0,11.112,,,30,,,,,,,,,,,wg-a,,,,AAXX 24004 07037 12/// /0306 10050 20040 30014 40202 51011 60006 90000=
07037,1997-10-24 06:00:00,7,1022.6,1.5,87,5,18000,11.112,,,40,3.9,7.8,,,,,,,,,wg-a,,,,AAXX 24064 07037 02668 /0406 10070 20050 30039 40226 53015 60006 86500 90600 333 10078 20039 60004=
07037,1997-10-24 09:00:00,9,1024.4,2,81,6,11000,14.816,,,60,,,,,,,,,,,wg-a,,,,AAXX 24094 07037 12/61 /0608 10090 20060 30059 40244 53020 60006 90900=
07037,1997-10-24 12:00:00,11,1025.6,1.2,66,5,20000,22.224,,,70,,,,,,,,,,,wg-a,,,,AAXX 24124 07037 12570 70712 10110 20050 30071 40256 51012 60006 878// 91200=
07037,1997-10-24 15:00:00,10,1026.1,0.5,71,5,20000,11.112,,,60,,,,,,,,,,,wg-a,,,,AAXX 24154 07037 12670 70606 10100 20050 30076 40261 53005 60006 875// 91500=
07037,1997-10-24 18:00:00,6,1027.5,1.1,87,4,0,7.408,,,60,6,11.5,,,,,,,,,wg-a,,,,AAXX 24184 07037 12/// /0604 10060 20040 30087 40275 53011 60006 91800 333 10115 20060=
07037,1997-10-25 00:00:00,4,1028.6,0.1,93,3,0,7.408,,,60,,,,,,,,,,,wg-a,,,,AAXX 25004 07037 12/// /0604 10040 20030 30096 40286 51001 60006 90000=
07037,1997-10-25 06:00:00,1,1029.5,0.6,100,1,4000,7.408,,,40,1,5.9,,,,,,,,10,wg-a,,,,AAXX 25064 07037 02/40 00404 10010 20010 30103 40295 51006 60006 71000 80000 90600 333 10059 20010 60004=
07037,1997-10-25 09:00:00,8,1029.8,0.7,81,5,10000,7.408,,,130,,,,,,,,,,,wg-a,,,,AAXX 25094 07037 12560 /1304 10080 20050 30110 40298 51007 60006 81200 90900=
07037,1997-10-25 12:00:00,11,1029.2,-0.3,62,4,25000,11.112,,,110,,,,,,,,,,,wg-a,,,,AAXX 25124 07037 12575 /1106 10110 20040 30107 40292 58003 60006 86200 91200=
07037,1997-10-25 15:00:00,11,1027.9,-1.3,58,3,15000,11.112,,,80,,,,,,,,,,,wg-a,,,,AAXX 25154 07037 12565 20806 10110 20030 30094 40279 56013 60006 82500 91500=
07037,1997-10-25 18:00:00,6,1028.5,0.2,81,3,0,7.408,,,120,0.5,12.2,,,,,,,,,wg-a,,,,AAXX 25184 07037 12/// /1204 10060 20030 30096 40285 52002 60006 91800 333 10122 20005=
07037,1997-10-26 00:00:00,3,1027.8,-0.8,100,3,0,11.112,,,90,,,,,,,,,,,wg-a,,,,AAXX 26004 07037 12/// /0906 10030 20030 30088 40278 57008 60006 90000=
07037,1997-10-26 06:00:00,1,1026.7,-0.4,100,1,15000,11.112,,,70,0.8,5.7,,,,,,,,,wg-a,,,,AAXX 26064 07037 02/65 00706 10010 20010 30075 40267 56004 60006 80000 90600 333 10057 20008 60004=
07037,1997-10-26 09:00:00,7,1027.1,0.8,87,5,10000,11.112,,,80,,,,,,,,,,,wg-a,,,,AAXX 26094 07037 12/60 00806 10070 20050 30083 40271 51008 60006 80000 90900=
07037,1997-10-26 12:00:00,11,1025.6,-1.2,71,6,12000,18.52,,,140,,,,,,,,,,,wg-a,,,,AAXX 26124 07037 12462 21410 10110 20060 30071 40256 58012 60006 82100 91200=
07037,1997-10-26 15:00:00,12,1024.2,-1.3,58,4,12000,14.816,,,90,,,,,,,,,,,wg-a,,,,AAXX 26154 07037 12/62 20908 10120 20040 30058 40242 56013 60006 80001 91500=
07037,1997-10-26 18:00:00,7,1024.6,0.1,81,4,0,14.816,,,90,0.2,12.2,,,,,,,,,wg-a,,,,AAXX 26184 07037 12/// /0908 10070 20040 30059 40246 53001 60006 91800 333 10122 20002=
07037,1997-10-27 00:00:00,5,1024.3,-0.3,93,4,0,14.816,,,80,,,,,,,,,,,wg-a,,,,AAXX 27004 07037 12/// /0808 10050 20040 30054 40243 57003 60006 90000=
07037,1997-10-27 06:00:00,2,1024.4,0.1,100,2,500,14.816,,,80,1.9,6.8,,,,,,,,,wg-a,,,,AAXX 27064 07037 02/00 00808 10020 20020 30053 40244 52001 60006 80000 90600 333 10068 20019 60004=
07037,1997-10-27 09:00:00,8,1024.9,0.9,76,4,15000,22.224,,,90,,,,,,,,,,,wg-a,,,,AAXX 27094 07037 12/65 10912 10080 20040 30062 40249 51009 60006 80001 90900=
07037,1997-10-27 12:00:00,12,1024.2,-0.4,67,6,15000,29.632,,,90,,,,,,,,,,,wg-a,,,,AAXX 27124 07037 12565 /0916 10120 20060 30058 40242 58004 60006 81100 91200=
07037,1997-10-27 18:00:00,7,1025.1,0.6,81,4,12000,22.224,,,60,1.9,12.7,,,,,,,,,wg-a,,,,AAXX 27184 07037 12/62 00612 10070 20040 30064 40251 53006 60006 80000 91800 333 10127 20019=
07037,1997-10-28 00:00:00,2,1027,0.5,80,-1,0,22.224,,,80,,,,,,,,,,,wg-a,,,,AAXX 28004 07037 12/// /0812 10020 21010 30079 40270 51005 60006 90000=
07037,1997-10-28 06:00:00,-1,1028.5,0.5,74,-5,500,25.928,,,80,-1.2,6.9,,,,,,,,,wg-a,,,,AAXX 28064 07037 02/00 00814 11010 21050 30091 40285 53005 60006 80000 90600 333 10069 21012 60004=
07037,1997-10-28 12:00:00,6,1030.1,0.6,42,-6,500,38.892,,,90,,,,,,,,,,,wg-a,,,,AAXX 28124 07037 12/00 00921 10060 21060 30112 40301 51006 60006 80000 91200=
07037,1997-10-28 15:00:00,7,1031,0.9,31,-9,500,29.632,,,90,,,,,,,,,,,wg-a,,,,AAXX 28154 07037 12/00 00916 10070 21090 30121 40310 53009 60006 80000 91500=
07037,1997-10-28 18:00:00,2,1032.7,1.4,47,-8,500,18.52,,,50,-1.1,7.1,,,,,,,,,wg-a,,,,AAXX 28184 07037 12/00 00510 10020 21080 30135 40327 53014 60006 80000 91800 333 10071 21011=
07037,1997-10-29 00:00:00,-1,1034.9,0.8,64,-7,0,14.816,,,80,,,,,,,,,,,wg-a,,,,AAXX 29004 07037 12/// /0808 11010 21070 30154 40349 53008 60006 90000=
07037,1997-10-29 06:00:00,-3,1035.1,0.2,74,-7,25000,11.112,,,80,-3.2,2.9,,,,,,,,,wg-a,,,,AAXX 29064 07037 02/75 00806 11030 21070 30155 40351 51002 60006 80000 90600 333 10029 21032 60004=
07037,1997-10-29 09:00:00,2,1035.5,0.7,55,-6,25000,18.52,,,80,,,,,,,,,,,wg-a,,,,AAXX 29094 07037 12/75 00810 10020 21060 30162 40355 50007 60006 80000 90900=
07037,1997-10-29 12:00:00,8,1034.3,-0.8,31,-8,25000,14.816,,,80,,,,,,,,,,,wg-a,,,,AAXX 29124 07037 12/75 00808 10080 21080 30154 40343 58008 60006 80000 91200=
07037,1997-10-29 15:00:00,9,1033,-1.2,31,-7,25000,14.816,,,70,,,,,,,,,,,wg-a,,,,AAXX 29154 07037 12/75 50708 10090 21070 30142 40330 56012 60006 80001 91500=
07037,1997-10-29 18:00:00,3,1033.6,0.2,52,-6,25000,18.52,,,60,-3.2,9.1,,,,,,,,,wg-a,,,,AAXX 29184 07037 12/75 50610 10030 21060 30144 40336 51002 60006 80001 91800 333 10091 21032=
07037,1997-10-30 00:00:00,0,1033.6,-0.7,69,-5,0,7.408,,,50,,,,,,,,,,,wg-a,,,,AAXX 30004 07037 12/// /0504 10000 21050 30142 40336 56007 60006 90000=
07037,1997-10-30 06:00:00,-1,1032.4,-0.5,64,-7,15000,11.112,,,50,-3.2,3,,,,,,,,,wg-a,,,,AAXX 30064 07037 02/65 00506 11010 21070 30129 40324 57005 60006 80000 90600 333 10030 21032 60004=
07037,1997-10-30 12:00:00,9,1030.7,-1.1,31,-7,20000,14.816,,,50,,,,,,,,,,,wg-a,,,,AAXX 30124 07037 12/70 20508 10090 21070 30120 40307 58011 60006 80002 91200=
07037,1997-10-30 15:00:00,11,1029.2,-1.4,32,-5,20000,18.52,,,40,,,,,,,,,,,wg-a,,,,AAXX 30154 07037 12/70 30410 10110 21050 30106 40292 56014 60006 80002 91500=
07037,1997-10-30 18:00:00,5,1029.9,0.4,60,-2,20000,18.52,,,30,-2.9,11.3,,,,,,,,,wg-a,,,,AAXX 30184 07037 12/70 40310 10050 21020 30110 40299 53004 60006 80002 91800 333 10113 21029=
07037,1997-10-31 06:00:00,1,1029.9,-0,86,-1,15000,14.816,,,40,1.3,8.5,,,,,,,,,wg-a,,,,AAXX 31064 07037 02/65 00408 10010 21010 30107 40299 55000 60006 80000 90600 333 10085 20013 60004=
07037,1997-10-31 09:00:00,5,1030.3,0.7,75,1,15000,18.52,,,60,,,,,,,,,,,wg-a,,,,AAXX 31094 07037 12/65 00610 10050 20010 30114 40303 53007 60006 80000 90900=
07037,1997-10-31 15:00:00,11,1027.7,-1,50,1,20000,22.224,,,30,,,,,,,,,,,wg-a,,,,AAXX 31154 07037 12/70 10312 10110 20010 30092 40277 56010 60006 81031 91500=
07037,1997-10-31 18:00:00,7,1028,0,70,2,20000,11.112,,,10,0.3,11.2,,,,,,,,,wg-a,,,,AAXX 31184 07037 12/70 10106 10070 20020 30092 40280 50000 60006 81031 91800 333 10112 20003=
07037,1997-11-01 00:00:00,4,1027.3,-0.6,87,2,0,14.816,,,20,,,,,,,,,,,wg-a,,,,AAXX 01004 07037 12/// /0208 10040 20020 30083 40273 58006 60006 90000=
07037,1997-11-01 06:00:00,1,1025.6,-0.8,93,0,6000,11.112,,,30,0.3,6.6,,,,,,,,,wg-a,,,,AAXX 01064 07037 02/56 /0306 10010 20000 30064 40256 56008 60006 80001 90600 333 10066 20003 60004=
07037,1997-11-01 09:00:00,3,1026.1,0.6,93,2,4000,11.112,,,60,,,,,,,,,,10,wg-a,,,,AAXX 01094 07037 12/40 /0606 10030 20020 30070 40261 51006 60006 71000 80000 90900=
07037,1997-11-01 12:00:00,8,1024.5,-1.1,71,3,7000,11.112,,,80,,,,,,,,,,,wg-a,,,,AAXX 01124 07037 12/57 00806 10080 20030 30059 40245 58011 60006 80000 91200=
07037,1997-11-01 15:00:00,9,1023.2,-1.3,57,1,10000,3.704,,,80,,,,,,,,,,,wg-a,,,,AAXX 01154 07037 12/60 00802 10090 20010 30046 40232 56013 60006 80000 91500=
07037,1997-11-01 18:00:00,4,1023.3,-0.2,75,0,0,7.408,,,80,-0.1,10,,,,,,,,,wg-a,,,,AAXX 01184 07037 12/// /0804 10040 20000 30044 40233 55002 60006 91800 333 10100 21001=
07037,1997-11-02 00:00:00,-1,1023,-0.2,100,-1,0,11.112,,,50,,,,,,,,,,,wg-a,,,,AAXX 02004 07037 12/// /0506 11010 21010 30038 40230 56002 60006 90000=
07037,1997-11-02 06:00:00,-3,1021.7,-0.5,93,-4,1500,3.704,,,110,-3.4,3.4,,,,,,,,10,wg-a,,,,AAXX 02064 07037 02/15 01102 11030 21040 30023 40217 56005 60006 71000 80000 90600 333 10034 21034 60004=
07037,1997-11-02 15:00:00,8,1018.4,-1.8,61,1,9000,14.816,,,80,,,,,,,,,,,wg-a,,,,AAXX 02154 07037 12/59 00808 10080 20010 39999 40184 56018 60006 80000 91500=
07037,1997-11-02 18:00:00,2,1018.9,0,87,0,0,11.112,,,70,-3.4,9.1,,,,,,,,,wg-a,,,,AAXX 02184 07037 12/// /0706 10020 20000 39999 40189 50000 60006 91800 333 10091 21034=
07037,1997-11-03 00:00:00,-2,1018.3,-0.3,93,-3,0,11.112,,,80,,,,,,,,,,,wg-a,,,,AAXX 03004 07037 12/// /0806 11020 21030 39991 40183 58003 60006 90000=
07037,1997-11-03 06:00:00,-3,1015.7,-0.9,93,-4,2000,11.112,,,80,-4,2.1,,,,,,,,10,wg-a,,,,AAXX 03064 07037 02/20 00806 11030 21040 39964 40157 58009 60006 71000 80000 90600 333 10021 21040 60004=
07037,1997-11-03 18:00:00,7,1010.1,-0.6,70,2,12000,25.928,,,80,-3.4,7,,,,,,,,,wg-a,,,,AAXX 03184 07037 12/62 10814 10070 20020 39917 40101 56006 60006 81030 91800 333 10380 21034=
07037,1997-11-04 06:00:00,4,1005.6,-1,81,1,15000,22.224,,,120,3.6,11.8,,,,,,,,,wg-a,,,,AAXX 04064 07037 02/65 01212 10040 20010 39870 40056 56010 60006 80000 90600 333 10118 20036 60004=
07037,1997-11-04 15:00:00,10,1002.8,-0.8,100,10,1200,22.224,,,160,,,,1,,,,,,10,wg-a,,,,AAXX 04154 07037 12112 71612 10100 20100 39847 40028 56008 60017 71066 877// 91500=
07037,1997-11-04 18:00:00,11,1003,0.3,100,11,1200,18.52,,,170,4.4,11.5,,,,,,,,10,wg-a,,,,AAXX 04184 07037 02/12 /1710 10110 20110 39850 40030 53003 61000 71066 91800 333 10115 20044 ////=
07037,1997-11-05 00:00:00,12,1003.1,-0,94,11,0,22.224,,,180,,,,,,,,,,,wg-a,,,,AAXX 05004 07037 02/// /1812 10120 20110 39851 40031 55000 61000 90000 333 ////=
07037,1997-11-05 06:00:00,11,1001.8,-0.4,100,11,12000,14.816,,,180,10.6,13.6,,,,,1,,,,wg-a,,,,AAXX 05064 07037 02562 51808 10110 20110 39838 40018 58004 60006 85530 90600 333 10136 20106 60014=
07037,1997-11-05 09:00:00,12,1001.3,-0.5,94,11,12000,22.224,,,180,,,,0,,,,,,3,wg-a,,,,AAXX 05094 07037 12362 81812 10120 20110 39833 40013 56005 60007 70352 875// 90900=
07037,1997-11-05 15:00:00,13,996.3,-2.9,82,10,15000,22.224,,,170,,,,,,,,,,1,wg-a,,,,AAXX 05154 07037 02/65 71712 10130 20100 39785 49963 56029 61000 70186 85031 91500 333 ////=
07037,1997-11-05 18:00:00,12,993.8,-2.5,94,11,15000,22.224,,,160,10.6,14.6,,,,,,,,80,wg-a,,,,AAXX 05184 07037 02565 71612 10120 20110 39760 49938 58025 61000 78086 8783/ 91800 333 10146 20106 6100=
07037,1997-11-06 00:00:00,11,989.6,-1.7,94,10,0,22.224,,,170,,,,,,,,,,,wg-a,,,,AAXX 06004 07037 12/// /1712 10110 20100 39718 49896 56017 60086 90000=
07037,1997-11-06 06:00:00,9,987.1,-1.6,100,9,15000,14.816,,,210,7,14.3,,,,,8,,,1,wg-a,,,,AAXX 06064 07037 02365 52108 10090 20090 39692 49871 58016 60006 70186 85600 90600 333 10143 20070 60084=
07037,1997-11-06 12:00:00,12,988.7,-0.5,88,10,20000,18.52,,,200,,,,,,,,,,,wg-a,,,,AAXX 06124 07037 12470 /2010 10120 20100 39710 49887 58005 60006 85230 91200=
07037,1997-11-06 15:00:00,13,987.5,-1.2,82,10,20000,7.408,,,210,,,,,,,,,,,wg-a,,,,AAXX 06154 07037 12470 /2104 10130 20100 39698 49875 55012 60006 82230 91500=
07037,1997-11-06 18:00:00,10,987.6,-0,93,9,11000,7.408,,,190,7.9,18.1,,,,,,,,,wg-a,,,,AAXX 06184 07037 12/61 /1904 10100 20090 39698 49876 55000 60006 91800 333 10181 20079=
07037,1997-11-07 00:00:00,10,986.9,0.3,93,9,0,18.52,,,200,,,,,,,,,,,wg-a,,,,AAXX 07004 07037 12/// /2010 10100 20090 39691 49869 53003 60086 90000=
07037,1997-11-07 06:00:00,9,989.2,1.8,93,8,15000,29.632,,,220,5.9,15.7,,,,,9,,,,wg-a,,,,AAXX 07064 07037 02465 72216 10090 20080 39713 49892 53018 60006 877// 90600 333 10157 20059 60094=
07037,1997-11-07 09:00:00,10,991.9,2.7,87,8,15000,31.484,,,220,,,,,,,,,,,wg-a,,,,AAXX 07094 07037 12465 /2217 10100 20080 39740 49919 51027 60006 86800 90900=
07037,1997-11-07 12:00:00,12,993.3,1.5,76,8,20000,31.484,,,220,,,,,,,,,,,wg-a,,,,AAXX 07124 07037 12570 /2217 10120 20080 39755 49933 51015 60006 85800 91200=
07037,1997-11-07 18:00:00,10,992.9,-0.3,87,8,20000,25.928,,,170,8,17.7,,,,,,,,,wg-a,,,,AAXX 07184 07037 12670 /1714 10100 20080 39750 49929 56003 60006 83501 91800 333 10177 20080=
07037,1997-11-08 00:00:00,10,989.8,-1.8,93,9,0,25.928,,,180,,,,0,,,,,,,wg-a,,,,AAXX 08004 07037 02/// /1814 10100 20090 39719 49898 56018 60016 90000 333 60007=
07037,1997-11-08 06:00:00,11,992.6,1.9,87,9,15000,29.632,,,220,4,14.9,,,,,1,,,,wg-a,,,,AAXX 08064 07037 02465 52216 10110 20090 39747 49926 53019 60006 82501 90600 333 10149 20040 60014=
07037,1997-11-08 09:00:00,10,995.2,2.5,82,7,15000,31.484,,,230,,,,0,,,,,,,wg-a,,,,AAXX 08094 07037 12565 /2317 10100 20070 39772 49952 53025 60007 83801 90900=
07037,1997-11-08 12:00:00,13,996,1,62,6,20000,38.892,,,230,,,,,,,,,,,wg-a,,,,AAXX 08124 07037 12570 42321 10130 20060 39782 49960 50010 60006 83201 91200=
07037,1997-11-09 06:00:00,8,992.4,0.2,93,7,15000,25.928,,,190,1.2,17.3,,,,,5,,,,wg-a,,,,AAXX 09064 07037 02565 /1914 10080 20070 39743 49924 51002 60006 85500 90600 333 10173 20012 60054=
07037,1997-11-09 09:00:00,8,993.1,0.7,81,5,20000,22.224,,,210,,,,,,,,,,,wg-a,,,,AAXX 09094 07037 12470 42112 10080 20050 39750 49931 53007 60006 84800 90900=
07037,1997-11-09 12:00:00,12,991.8,-1,71,7,20000,42.596,,,200,,,,,,,,,,,wg-a,,,,AAXX 09124 07037 12570 /2023 10120 20070 39740 49918 58010 60006 85200 91200=
07037,1997-11-09 15:00:00,9,989,-2.9,81,6,20000,31.484,,,180,,,,,,,,,,80,wg-a,,,,AAXX 09154 07037 02470 71817 10090 20060 39711 49890 56029 61000 78086 878// 91500 333 ////=
07037,1997-11-09 18:00:00,16,990.4,1.8,100,16,0,31.484,,,250,4.2,16.4,,2,,,,,,,wg-a,,,,AAXX 09184 07037 12/// /2517 10160 20160 39729 49904 53018 60027 91800 333 10164 20042=
07037,1997-11-10 00:00:00,7,995.9,0.5,93,6,0,25.928,,,210,,,,,,,,,,,wg-a,,,,AAXX 10004 07037 02/// /2114 10070 20060 39777 49959 51005 61000 90000 333 6100=
07037,1997-11-10 06:00:00,6,996.1,0.4,93,5,20000,25.928,,,200,,,,,,,2,,,,wg-a,,,,AAXX 10064 07037 02670 /2014 10060 20050 39779 49961 53004 60006 81500 90600 333 60024=
07037,1997-11-10 09:00:00,3,996.2,-0.1,93,2,20000,18.52,,,180,,,,0,,,,,,,wg-a,,,,AAXX 10094 07037 12370 71810 10030 20020 39778 49962 58001 60007 8673/ 90900=
07037,1997-11-10 12:00:00,,1,-0.7,,,20000,31.484,,,220,,,,,,,,,,,wg-a,,,,AAXX 10124 07037 12570 62217 1//// 2//// 39771 58007 60006 85801 91200=
07037,1997-11-10 15:00:00,,1,-0.8,,,25000,29.632,,,210,,,,,,,,,,,wg-a,,,,AAXX 10154 07037 12575 72116 1//// 2//// 39763 56008 60006 86801 91500=
07037,1997-11-10 18:00:00,,1,0.8,,,25000,25.928,,,210,,,,,,,,,,,wg-a,,,,AAXX 10184 07037 12575 52114 1//// 2//// 39771 53008 60006 84801 91800=
07037,1997-11-11 00:00:00,,1,0.3,,,0,18.52,,,190,,,,,,,,,,,wg-a,,,,AAXX 11004 07037 12/// /1910 1//// 2//// 39780 51003 60006 90000=
07037,1997-11-11 06:00:00,,1,-0.8,,,15000,18.52,,,190,,,,,,,,,,,wg-a,,,,AAXX 11064 07037 02465 71910 1//// 2//// 39763 56008 60006 875// 90600 333 60004=
07037,1997-11-12 09:00:00,,1,1.9,,,300,3.704,,,310,,,,,,,,,,43,wg-a,,,,AAXX 12094 07037 12/03 93102 1//// 2//// 39827 51019 60006 74342 89/// 90900=
07037,1997-11-12 12:00:00,,1,0.9,,,2500,7.408,,,280,,,,,,,,,,10,wg-a,,,,AAXX 12124 07037 12225 72804 1//// 2//// 39836 51009 60006 71042 875// 91200=
07037,1997-11-12 15:00:00,9,1002.9,1.1,93,8,4500,3.704,,,280,,,,,,,,,,10,wg-a,,,,AAXX 12154 07037 32645 72802 10090 20080 39847 40029 53011 71022 878// 91500=
07037,1997-11-12 18:00:00,6,1004.6,1.5,100,6,15000,7.408,,,270,,,,,,,,,,,wg-a,,,,AAXX 12184 07037 12565 42704 10060 20060 39862 40046 53015 60006 84500 91800=
07037,1997-11-13 00:00:00,2,1006.5,0.4,100,2,0,7.408,,,220,,,,,,,,,,,wg-a,,,,AAXX 13004 07037 12/// /2204 10020 20020 39877 40065 52004 60006 90000=
07037,1997-11-13 06:00:00,2,1006.2,-0.2,100,2,300,7.408,,,160,0.2,6.1,,,,,,,,43,wg-a,,,,AAXX 13064 07037 12/03 91604 10020 20020 39875 40062 56002 60006 74342 89/// 90600 333 10061 20002=
07037,1997-11-13 09:00:00,5,1006.7,0.7,100,5,200,14.816,,,180,,,,,,,,,,45,wg-a,,,,AAXX 13094 07037 32/02 91808 10050 20050 39882 40067 53007 74544 89/// 90900=
07037,1997-11-13 15:00:00,6,1005.9,-0.6,100,6,4000,14.816,,,160,,,,,,,,,,10,wg-a,,,,AAXX 13154 07037 12240 81608 10060 20060 39875 40059 55006 60006 71022 876// 91500=
07037,1997-11-13 18:00:00,7,1006.9,1,100,7,8000,18.52,,,170,2.2,6.8,,,,,,,,,wg-a,,,,AAXX 13184 07037 32558 71710 10070 20070 39885 40069 53010 875// 91800 333 10068 20022=
07037,1997-11-14 00:00:00,6,1008.9,0.6,93,5,0,11.112,,,200,,,,,,,,,,,wg-a,,,,AAXX 14004 07037 12/// /2006 10060 20050 39904 40089 53006 60006 90000=
07037,1997-11-14 09:00:00,4,1013.1,2,100,4,100,7.408,,,160,,,,,,,,,,45,wg-a,,,,AAXX 14094 07037 32/01 91604 10040 20040 39944 40131 51020 74544 89/// 90900=
07037,1997-11-14 12:00:00,8,1013.5,0.7,100,8,8000,14.816,,,190,,,,,,,,,,1,wg-a,,,,AAXX 14124 07037 12258 51908 10080 20080 39951 40135 52007 60006 70141 82630 91200=
07037,1997-11-14 15:00:00,10,1013.6,0.2,82,7,20000,11.112,,,170,,,,,,,,,,,wg-a,,,,AAXX 14154 07037 12/70 51706 10100 20070 39953 40136 53002 60006 85030 91500=
07037,1997-11-14 18:00:00,8,1014.7,0.9,87,6,20000,18.52,,,190,2,11.1,,,,,,,,,wg-a,,,,AAXX 14184 07037 12/70 41910 10080 20060 39962 40147 53009 60006 84030 91800 333 10111 20020=
07037,1997-11-15 00:00:00,8,1016.3,0.5,93,7,0,11.112,,,180,,,,,,,,,,,wg-a,,,,AAXX 15004 07037 12/// /1806 10080 20070 39978 40163 51005 60006 90000=
07037,1997-11-15 06:00:00,8,1015.1,-0.6,100,8,3000,22.224,,,170,6.7,8.4,,,,,,,,50,wg-a,,,,AAXX 15064 07037 02230 71712 10080 20080 39967 40151 56006 61000 75052 877// 90600 333 10084 20067 6001=
07037,1997-11-15 09:00:00,10,1016.3,1.2,100,10,1500,18.52,,,180,,,,0,,,,,,20,wg-a,,,,AAXX 15094 07037 12115 71810 10100 20100 39979 40163 51012 60007 72052 877// 90900=
07037,1997-11-15 12:00:00,13,1016,0,94,12,15000,25.928,,,220,,,,,,,,,,1,wg-a,,,,AAXX 15124 07037 12465 72214 10130 20120 39979 40160 50000 60006 70152 878// 91200=
07037,1997-11-15 15:00:00,12,1015.4,-0.7,100,12,1500,14.816,,,170,,,,1,,,,,,61,wg-a,,,,AAXX 15154 07037 12315 71708 10120 20120 39972 40154 57007 60017 76162 877// 91500=
07037,1997-11-15 18:00:00,12,1015.6,0.2,100,12,0,14.816,,,200,8.2,13.2,,,,,,,,,wg-a,,,,AAXX 15184 07037 32/// /2008 10120 20120 39974 40156 52002 91800 333 10132 20082=
07037,1997-11-16 00:00:00,13,1015.8,0.4,100,13,0,11.112,,,250,,,,,,,,,,,wg-a,,,,AAXX 16004 07037 12/// /2506 10130 20130 39977 40158 51004 60016 90000=
07037,1997-11-16 06:00:00,13,1015.6,-0.3,100,13,500,7.408,,,210,12.4,13.8,,,,,3,,,2,wg-a,,,,AAXX 16064 07037 02300 72104 10130 20130 39975 40156 58003 60006 70262 876// 90600 333 10138 20124 60034=
07037,1997-11-16 09:00:00,14,1016.1,0.5,100,14,200,11.112,,,160,,,,,,,,,,44,wg-a,,,,AAXX 16094 07037 12002 71606 10140 20140 39980 40161 51005 60006 74442 876// 90900=
07037,1997-11-16 12:00:00,15,1015.7,-0.3,100,15,6000,11.112,,,200,,,,,,,,,,3,wg-a,,,,AAXX 16124 07037 12256 72006 10150 20150 39977 40157 58003 60006 70342 8563/ 91200=
07037,1997-11-16 15:00:00,15,1015.2,-0.5,94,14,10000,11.112,,,150,,,,,,,,,,,wg-a,,,,AAXX 16154 07037 12360 71506 10150 20140 39972 40152 56005 60006 8557/ 91500=
07037,1997-11-16 18:00:00,14,1014.9,-0.3,100,14,0,14.816,,,160,11.7,15,,,,,,,,,wg-a,,,,AAXX 16184 07037 12/// /1608 10140 20140 39969 40149 58003 60006 91800 333 10150 20117=
07037,1997-11-17 00:00:00,12,1015.6,-0.4,100,12,0,11.112,,,160,,,,,,,,,,,wg-a,,,,AAXX 17004 07037 12/// /1606 10120 20120 39974 40156 58004 60016 90000=
07037,1997-11-17 06:00:00,11,1015.2,-0.1,100,11,200,18.52,,,170,11.1,13.9,,,,,1,,,44,wg-a,,,,AAXX 17064 07037 02/02 91710 10110 20110 39970 40152 57001 60006 74442 89/// 90600 333 10139 20111 60014=
07037,1997-11-17 09:00:00,11,1015.2,0,100,11,100,14.816,,,150,,,,,,,,,,45,wg-a,,,,AAXX 17094 07037 12/01 91508 10110 20110 39970 40152 50000 60006 74544 89/// 90900=
07037,1997-11-17 12:00:00,13,1013.9,-1.2,100,13,4500,14.816,,,160,,,,,,,,,,10,wg-a,,,,AAXX 17124 07037 12245 81608 10130 20130 39958 40139 58012 60006 71042 877// 91200=
07037,1997-11-17 15:00:00,13,1012.4,-1.4,100,13,6000,22.224,,,140,,,,,,,,,,,wg-a,,,,AAXX 17154 07037 12256 81412 10130 20130 39944 40124 56014 60006 877// 91500=
07037,1997-11-17 18:00:00,12,1011.5,-1,100,12,6000,29.632,,,140,11.1,13.9,,,,,,,,,wg-a,,,,AAXX 17184 07037 12256 81416 10120 20120 39934 40115 58010 60006 877// 91800 333 10139 20111=
07037,1997-11-18 00:00:00,8,1007.5,-1.9,93,7,0,25.928,,,140,,,,,,,,,,,wg-a,,,,AAXX 18004 07037 12/// /1414 10080 20070 39892 40075 58019 60006 90000=
07037,1997-11-18 06:00:00,5,1006.1,-0.5,93,4,10000,25.928,,,140,5.1,11.9,,,,,,,,,wg-a,,,,AAXX 18064 07037 02/60 51414 10050 20040 39876 40061 58005 60006 85070 90600 333 10119 20051 60004=
07037,1997-11-18 09:00:00,6,1006.1,0.1,93,5,500,29.632,,,150,,,,,,,,,,,wg-a,,,,AAXX 18094 07037 12300 /1516 10060 20050 39877 40061 50001 60006 86830 90900=
07037,1997-11-18 12:00:00,9,1005.4,-0.5,87,7,7000,22.224,,,160,,,,,,,,,,,wg-a,,,,AAXX 18124 07037 12457 81612 10090 20070 39872 40054 58005 60006 8557/ 91200=
07037,1997-11-18 15:00:00,9,1005,-0.4,100,9,2000,22.224,,,170,,,,1,,,,,,10,wg-a,,,,AAXX 18154 07037 12220 81712 10090 20090 39868 40050 56004 60017 71065 887// 91500=
07037,1997-11-19 09:00:00,10,1000.1,-0.2,100,10,9000,18.52,,,180,,,,,,,,,,,wg-a,,,,AAXX 19094 07037 12/59 /1810 10100 20100 39821 40001 57002 60006 90900=
07037,1997-11-19 12:00:00,10,999.1,-1,100,10,3000,22.224,,,180,,,,1,,,,,,61,wg-a,,,,AAXX 19124 07037 02230 81812 10100 20100 39811 49991 56010 60016 76161 875// 91200 333 60017=
07037,1997-11-19 15:00:00,11,997.6,-1.4,100,11,8000,22.224,,,170,,,,0,,,,,,1,wg-a,,,,AAXX 19154 07037 12258 71712 10110 20110 39797 49976 56014 60007 70162 875// 91500=
07037,1997-11-19 18:00:00,10,997.8,0.1,100,10,10000,14.816,,,180,7.9,11.8,,,,,,,,1,wg-a,,,,AAXX 19184 07037 12360 51808 10100 20100 39798 49978 53001 60006 70162 8373/ 91800 333 10118 20079=
07037,1997-11-20 00:00:00,9,996.7,-0.6,93,8,0,22.224,,,180,,,,,,,,,,,wg-a,,,,AAXX 20004 07037 12/// /1812 10090 20080 39786 49967 58006 60006 90000=
07037,1997-11-20 06:00:00,9,992,-2.5,93,8,20000,29.632,,,180,8.2,10.4,,,,,,,,25,wg-a,,,,AAXX 20064 07037 02470 /1816 10090 20080 39741 49920 56025 61000 72586 86800 90600 333 10104 20082 6002=
07037,1997-11-20 09:00:00,10,992.3,0.3,87,8,15000,29.632,,,210,,,,2,,,,,,25,wg-a,,,,AAXX 20094 07037 12465 82116 10100 20080 39744 49923 53003 60027 72586 8687/ 90900=
07037,1997-11-20 12:00:00,11,993.4,1.1,76,7,20000,31.484,,,240,,,,,,,,,,3,wg-a,,,,AAXX 20124 07037 12570 82417 10110 20070 39755 49934 51011 60026 70386 8627/ 91200=
07037,1997-11-20 15:00:00,11,995.1,1.7,76,7,15000,25.928,,,230,,,,,,,,,,,wg-a,,,,AAXX 20154 07037 12565 72314 10110 20070 39772 49951 53017 60006 8687/ 91500=
07037,1997-11-21 00:00:00,7,1002.3,2.1,93,6,0,18.52,,,220,,,,,,,,,,,wg-a,,,,AAXX 21004 07037 12/// /2210 10070 20060 39840 40023 51021 60006 90000=
07037,1997-11-21 09:00:00,6,1006.7,1.3,100,6,800,18.52,,,180,,,,,,,,,,10,wg-a,,,,AAXX 21094 07037 12/08 91810 10060 20060 39882 40067 51013 60006 71042 89/// 90900=
07037,1997-11-21 12:00:00,8,1007.4,0.8,100,8,4500,14.816,,,160,,,,,,,,,,10,wg-a,,,,AAXX 21124 07037 02245 81608 10080 20080 39890 40074 51008 61000 71064 875// 91200 333 6100=
07037,1997-11-22 00:00:00,4,1010.7,0.4,100,4,0,3.704,,,130,,,,,,,,,,,wg-a,,,,AAXX 22004 07037 12/// /1302 10040 20040 39921 40107 51004 60006 90000=
07037,1997-11-22 06:00:00,3,1012.3,0.8,100,3,100,7.408,,,120,2.2,6.6,,,,,1,,,45,wg-a,,,,AAXX 22064 07037 02/01 91204 10030 20030 39935 40123 53008 60006 74542 89/// 90600 333 10066 20022 60014=
07037,1997-11-22 09:00:00,4,1013.5,1.3,100,4,500,3.704,,,150,,,,,,,,,,45,wg-a,,,,AAXX 22094 07037 32/00 91502 10040 20040 39948 40135 51013 74544 89/// 90900=
07037,1997-11-22 12:00:00,6,1014,0.6,100,6,100,3.704,,,210,,,,,,,,,,43,wg-a,,,,AAXX 22124 07037 12/01 92102 10060 20060 39954 40140 51006 60006 74344 89/// 91200=
07037,1997-11-22 15:00:00,6,1014.6,0.6,100,6,100,11.112,,,150,,,,,,,,,,45,wg-a,,,,AAXX 22154 07037 12/01 91506 10060 20060 39960 40146 53006 60006 74544 89/// 91500=
07037,1997-11-22 18:00:00,5,1015.8,1.1,100,5,0,7.408,,,180,2.4,6.6,,,,,,,,,wg-a,,,,AAXX 22184 07037 32/// /1804 10050 20050 39971 40158 53011 91800 333 10066 20024=
07037,1997-11-23 06:00:00,3,1018.7,0.6,100,3,500,7.408,,,190,3.1,5,,,,,1,,,45,wg-a,,,,AAXX 23064 07037 02/00 91904 10030 20030 39998 40187 53006 60006 74544 89/// 90600 333 10050 20031 60014=
07037,1997-11-23 15:00:00,5,1018.9,-0.6,100,5,200,14.816,,,160,,,,,,,,,,45,wg-a,,,,AAXX 23154 07037 12/02 91608 10050 20050 30001 40189 56006 60006 74544 89/// 91500=
07037,1997-11-23 18:00:00,5,1018.3,-0.5,100,5,0,18.52,,,150,1.8,5.1,,,,,,,,,wg-a,,,,AAXX 23184 07037 32/// /1510 10050 20050 39996 40183 55005 91800 333 10051 20018=
07037,1997-11-24 00:00:00,4,1017.7,-0.4,100,4,0,18.52,,,150,,,,,,,,,,,wg-a,,,,AAXX 24004 07037 12/// /1510 10040 20040 39989 40177 58004 60006 90000=
07037,1997-11-24 06:00:00,4,1014.2,-2.1,100,4,2500,25.928,,,130,3.9,5.2,,,,,,,,10,wg-a,,,,AAXX 24064 07037 02125 81314 10040 20040 39955 40142 56021 60006 71022 876// 90600 333 10052 20039 60004=
07037,1997-11-24 09:00:00,3,1013.4,-0.9,100,3,1500,29.632,,,130,,,,,,,,,,10,wg-a,,,,AAXX 24094 07037 12115 81316 10030 20030 39946 40134 58009 60006 71022 886// 90900=
07037,1997-11-24 12:00:00,4,1010.6,-2.7,100,4,4500,25.928,,,130,,,,,,,,,,10,wg-a,,,,AAXX 24124 07037 02345 81314 10040 20040 39919 40106 58027 61000 71062 8472/ 91200 333 6100=
07037,1997-11-24 15:00:00,4,1007.8,-2.7,93,3,7000,25.928,,,120,,,,,,,,,,1,wg-a,,,,AAXX 24154 07037 02/57 71214 10040 20030 39892 40078 56027 61000 70162 85031 91500 333 ////=
07037,1997-11-24 18:00:00,4,1006.4,-1.4,87,2,8000,22.224,,,120,3.1,4.7,,,,,,,,,wg-a,,,,AAXX 24184 07037 12/58 /1212 10040 20020 39878 40064 58014 60006 91800 333 10047 20031=
07037,1997-11-25 00:00:00,3,1004.7,-0.6,93,2,0,18.52,,,130,,,,,,,,,,,wg-a,,,,AAXX 25004 07037 12/// /1310 10030 20020 39861 40047 56006 60006 90000=
07037,1997-11-25 06:00:00,3,1003.7,-0.5,93,2,15000,14.816,,,140,2.1,3.7,,,,,,,,,wg-a,,,,AAXX 25064 07037 02465 61408 10030 20020 39851 40037 57005 60006 84532 90600 333 10037 20021 61000=
07037,1997-11-25 09:00:00,6,1004.2,0.7,87,4,10000,14.816,,,140,,,,,,,,,,,wg-a,,,,AAXX 25094 07037 12560 /1408 10060 20040 39858 40042 53007 60006 82540 90900=
07037,1997-11-25 12:00:00,9,1003.7,-0.3,87,7,10000,14.816,,,140,,,,,,,,,,,wg-a,,,,AAXX 25124 07037 12/60 71408 10090 20070 39855 40037 58003 60006 87030 91200=
07037,1997-11-25 18:00:00,8,1003.3,0.5,93,7,15000,7.408,,,110,3.1,9.9,,,,,,,,,wg-a,,,,AAXX 25184 07037 12/65 61104 10080 20070 39851 40033 51005 60006 86030 91800 333 10099 20031=
07037,1997-11-26 00:00:00,6,1004,-0,100,6,0,11.112,,,90,,,,,,,,,,,wg-a,,,,AAXX 26004 07037 12/// /0906 10060 20060 39856 40040 54000 60006 90000=
07037,1997-11-26 06:00:00,5,1003.4,-0.2,100,5,20000,22.224,,,100,4.6,8.3,,,,,,,,,wg-a,,,,AAXX 26064 07037 02770 51012 10050 20050 39850 40034 56002 60006 85530 90600 333 10083 20046 60004=
07037,1997-11-26 09:00:00,6,1004.7,1.3,93,5,10000,18.52,,,110,,,,,,,,,,,wg-a,,,,AAXX 26094 07037 12/60 71110 10060 20050 39863 40047 51013 60006 8707/ 90900=
07037,1997-11-26 15:00:00,9,1005.4,0.6,87,7,12000,14.816,,,140,,,,,,,,,,,wg-a,,,,AAXX 26154 07037 12/62 61408 10090 20070 39872 40054 53006 60006 84031 91500=
07037,1997-11-26 18:00:00,9,1006.6,1.2,87,7,12000,14.816,,,120,4.8,9.9,,,,,,,,21,wg-a,,,,AAXX 26184 07037 02762 81208 10090 20070 39884 40066 52012 61000 72162 8753/ 91800 333 10099 20048 6100=
07037,1997-11-27 00:00:00,11,1007.5,0.2,94,10,0,22.224,,,160,,,,,,,,,,,wg-a,,,,AAXX 27004 07037 12/// /1612 10110 20100 39894 40075 50002 60026 90000=
07037,1997-11-27 06:00:00,10,1007.7,0.1,100,10,9000,18.52,,,170,8.8,10.6,,,,,,,,61,wg-a,,,,AAXX 27064 07037 02359 81710 10100 20100 39895 40077 53001 61000 76162 877// 90600 333 10106 20088 6003=
07037,1997-11-27 09:00:00,10,1008.8,1.1,100,10,1300,18.52,,,180,,,,3,,,,,,21,wg-a,,,,AAXX 27094 07037 12113 81810 10100 20100 39906 40088 53011 60037 72162 877// 90900=
07037,1997-11-27 12:00:00,10,1010.1,1.3,100,10,6000,18.52,,,230,,,,,,,,,,3,wg-a,,,,AAXX 27124 07037 12456 72310 10100 20100 39919 40101 51013 60036 70362 875// 91200=
07037,1997-11-27 15:00:00,11,1011.1,1,87,9,15000,18.52,,,240,,,,,,,,,,,wg-a,,,,AAXX 27154 07037 12465 72410 10110 20090 39929 40111 53010 60006 8725/ 91500=
07037,1997-11-27 18:00:00,9,1012.2,1,93,8,15000,7.408,,,200,8.9,11,,,,,,,,,wg-a,,,,AAXX 27184 07037 12565 /2004 10090 20080 39939 40122 53010 60006 82530 91800 333 10110 20089=
07037,1997-11-28 00:00:00,9,1011,-0.8,93,8,0,14.816,,,180,,,,,,,,,,,wg-a,,,,AAXX 28004 07037 12/// /1808 10090 20080 39927 40110 58008 60006 90000=
07037,1997-11-28 06:00:00,9,1007,-2.3,100,9,4500,25.928,,,170,8.2,8.9,,,,,,,,63,wg-a,,,,AAXX 28064 07037 02145 81714 10090 20090 39887 40070 58023 61000 76362 885// 90600 333 10089 20082 6010=
07037,1997-11-28 09:00:00,9,1005.7,-1.2,100,9,4500,22.224,,,190,,,,5,,,,,,61,wg-a,,,,AAXX 28094 07037 12145 81912 10090 20090 39875 40057 55012 60057 76166 887// 90900=
07037,1997-11-28 12:00:00,12,1005.1,-0.4,94,11,15000,25.928,,,210,,,,,,,,,,1,wg-a,,,,AAXX 28124 07037 02465 72114 10120 20110 39871 40051 58004 60056 70162 878// 91200 333 61000=
07037,1997-11-28 15:00:00,12,1004.6,-0.5,76,8,15000,22.224,,,230,,,,,,,,,,,wg-a,,,,AAXX 28154 07037 12465 /2312 10120 20080 39866 40046 56005 60006 8583/ 91500=
07037,1997-11-28 18:00:00,11,1004.4,-0.3,82,8,15000,14.816,,,180,8.4,13.2,,,,,,,,,wg-a,,,,AAXX 28184 07037 12465 /1808 10110 20080 39863 40044 58003 60006 86800 91800 333 10132 20084=
07037,1997-11-29 00:00:00,8,1003.4,-0.7,100,8,0,18.52,,,220,,,,,,,,,,,wg-a,,,,AAXX 29004 07037 12/// /2210 10080 20080 39852 40034 56007 60006 90000=
07037,1997-11-29 06:00:00,9,1004.4,0.4,93,8,15000,22.224,,,240,7.7,11.2,,,,,5,,,,wg-a,,,,AAXX 29064 07037 02465 72412 10090 20080 39862 40044 52004 60006 875// 90600 333 10112 20077 60054=
07037,1997-11-29 09:00:00,9,1005.1,0.7,93,8,15000,22.224,,,230,,,,,,,,,,,wg-a,,,,AAXX 29094 07037 12465 72312 10090 20080 39869 40051 51007 60006 878// 90900=
07037,1997-11-29 15:00:00,10,1004.1,-0.3,82,7,20000,29.632,,,250,,,,,,,,,,,wg-a,,,,AAXX 29154 07037 12570 72516 10100 20070 39860 40041 56003 60006 86201 91500=
07037,1997-11-29 18:00:00,8,1005.1,0.8,93,7,0,14.816,,,250,8.3,11.9,,,,,,,,,wg-a,,,,AAXX 29184 07037 12/// /2508 10080 20070 39868 40051 53008 60006 91800 333 10119 20083=
07037,1997-11-30 06:00:00,8,1006.7,0.6,100,8,10000,14.816,,,290,7,8.3,,,,,,,,21,wg-a,,,,AAXX 30064 07037 02260 72908 10080 20080 39884 40067 53006 61000 72162 878// 90600 333 10083 20070 6007=
07037,1997-11-30 09:00:00,9,1008.7,2,93,8,12000,14.816,,,290,,,,,,,,,,25,wg-a,,,,AAXX 30094 07037 32462 /2908 10090 20080 39904 40087 53020 72586 86800 90900=
07037,1997-11-30 12:00:00,10,1010.2,1.6,87,8,12000,25.928,,,330,,,,0,,,,,,25,wg-a,,,,AAXX 30124 07037 02462 53314 10100 20080 39920 40102 51016 60016 72586 85800 91200 333 60007=
07037,1997-11-30 18:00:00,8,1014.2,1.9,87,6,0,22.224,,,350,7.4,10.4,,,,,,,,,wg-a,,,,AAXX 30184 07037 32/// /3512 10080 20060 39957 40142 53019 91800 333 10104 20074=
07037,1997-12-01 00:00:00,6,1017.4,1.3,93,5,0,11.112,,,340,,,,,,,,,,,wg-a,,,,AAXX 01004 07037 12/// /3406 10060 20050 39987 40174 53013 60006 90000=
07037,1997-12-01 06:00:00,3,1017.8,-0,93,2,25000,3.704,,,240,2.5,7.6,,,,,,,,,wg-a,,,,AAXX 01064 07037 02575 22402 10030 20020 39989 40178 55000 60006 82500 90600 333 10076 20025 60004=
07037,1997-12-01 09:00:00,4,1017.4,-0.3,100,4,2000,7.408,,,160,,,,,,,,,,10,wg-a,,,,AAXX 01094 07037 12620 51604 10040 20040 39986 40174 58003 60006 71011 84531 90900=
07037,1997-12-01 12:00:00,8,1015.5,-1.6,81,5,15000,14.816,,,180,,,,,,,,,,,wg-a,,,,AAXX 01124 07037 12565 /1808 10080 20050 39970 40155 58016 60006 8683/ 91200=
07037,1997-12-01 18:00:00,6,1010.6,-2.5,93,5,20000,18.52,,,150,2.1,8.6,,,,,,,,61,wg-a,,,,AAXX 01184 07037 02470 81510 10060 20050 39921 40106 58025 61000 76162 875// 91800 333 10086 20021 6100=
07037,1997-12-02 00:00:00,3,1003.4,-4.3,100,3,0,25.928,,,120,,,,,,,,,,,wg-a,,,,AAXX 02004 07037 12/// /1214 10030 20030 39848 40034 58043 60136 90000=
07037,1997-12-02 06:00:00,1,1002,0.6,93,0,10000,25.928,,,50,0.2,6,,,,,,,,22,wg-a,,,,AAXX 02064 07037 02360 80514 10010 20000 39833 40020 53006 61000 72276 887// 90600 333 10060 20002 6019=
07037,1997-12-02 09:00:00,1,1004.1,2.1,100,1,10000,22.224,,,360,,,,1,,,,,,68,wg-a,,,,AAXX 02094 07037 12260 73612 10010 20010 39854 40041 53021 60017 76876 85272 90900=
07037,1997-12-02 12:00:00,3,1005.2,1.1,87,1,15000,25.928,,,10,,,,1,,,,,,3,wg-a,,,,AAXX 02124 07037 02365 /0114 10030 20010 39865 40052 51011 60026 70376 85820 91200 333 60017=
07037,1997-12-02 15:00:00,3,1006.3,1.2,87,1,15000,14.816,,,350,,,,,,,,,,,wg-a,,,,AAXX 02154 07037 12465 83508 10030 20010 39877 40063 53012 60006 878// 91500=
07037,1997-12-02 18:00:00,1,1007.9,1.4,100,1,7000,11.112,,,360,0.5,3.4,,,,,,,,21,wg-a,,,,AAXX 02184 07037 02257 83606 10010 20010 39891 40079 53014 61000 72162 877// 91800 333 10034 20005 6001=
07037,1997-12-03 00:00:00,2,1010.8,1.5,80,-1,0,14.816,,,350,,,,,,,,,,,wg-a,,,,AAXX 03004 07037 12/// /3508 10020 21010 39920 40108 53015 60006 90000=
07037,1997-12-03 06:00:00,-1,1013.9,1.3,93,-2,20000,11.112,,,350,-0.7,2.3,,,,,3,,,,wg-a,,,,AAXX 03064 07037 02/70 23506 11010 21020 39949 40139 53013 60006 82030 90600 333 10023 21007 60034=
07037,1997-12-03 09:00:00,1,1015.4,1.6,86,-1,25000,14.816,,,350,,,,,,,,,,,wg-a,,,,AAXX 03094 07037 12775 33508 10010 21010 39965 40154 51016 60006 81531 90900=
07037,1997-12-03 12:00:00,4,1016.3,1,70,-1,25000,14.816,,,20,,,,,,,,,,,wg-a,,,,AAXX 03124 07037 12575 30208 10040 21010 39975 40163 50010 60006 81831 91200=
07037,1997-12-03 15:00:00,4,1017.3,1,70,-1,25000,7.408,,,30,,,,,,,,,,,wg-a,,,,AAXX 03154 07037 12575 50304 10040 21010 39985 40173 51010 60006 83831 91500=
07037,1997-12-03 18:00:00,3,1018,0.6,75,-1,25000,3.704,,,340,-0.9,5.2,,,,,,,,,wg-a,,,,AAXX 03184 07037 12675 73402 10030 21010 39991 40180 51006 60006 8553/ 91800 333 10052 21009=
07037,1997-12-04 00:00:00,1,1018.4,-0.1,100,1,0,7.408,,,340,,,,,,,,,,,wg-a,,,,AAXX 04004 07037 12/// /3404 10010 20010 39994 40184 58001 60006 90000=
07037,1997-12-04 06:00:00,2,1018.6,0.3,93,1,15000,14.816,,,40,0.8,3.3,,,,,,,,1,wg-a,,,,AAXX 04064 07037 02365 60408 10020 20010 39997 40186 53003 60006 70162 84530 90600 333 10033 20008 60004=
07037,1997-12-04 09:00:00,1,1019.6,0.9,93,0,15000,11.112,,,30,,,,,,,,,,,wg-a,,,,AAXX 04094 07037 12665 70306 10010 20000 30006 40196 53009 60006 875// 90900=
07037,1997-12-04 12:00:00,3,1019.8,0.3,81,0,12000,18.52,,,30,,,,,,,,,,,wg-a,,,,AAXX 04124 07037 12462 60310 10030 20000 30009 40198 50003 60006 86800 91200=
07037,1997-12-04 15:00:00,3,1020.2,0.4,75,-1,20000,18.52,,,60,,,,,,,,,,,wg-a,,,,AAXX 04154 07037 12470 70610 10030 21010 30013 40202 53004 60006 875// 91500=
07037,1997-12-05 00:00:00,1,1023.3,0.8,93,0,0,11.112,,,70,,,,,,,,,,,wg-a,,,,AAXX 05004 07037 12/// /0706 10010 20000 30042 40233 51008 60006 90000=
07037,1997-12-05 06:00:00,0,1024.4,0.7,93,-1,3500,3.704,,,30,-0.4,1,,,,,,,,10,wg-a,,,,AAXX 05064 07037 02235 70302 10000 21010 30052 40244 51007 60006 71022 876// 90600 333 10010 21004 60004=
07037,1997-12-05 09:00:00,0,1025.8,1.4,93,-1,3000,3.704,,,150,,,,,,,,,,10,wg-a,,,,AAXX 05094 07037 12230 81502 10000 21010 30066 40258 53014 60006 71022 876// 90900=
07037,1997-12-05 12:00:00,2,1025.6,-0.1,87,0,8000,3.704,,,230,,,,,,,,,,,wg-a,,,,AAXX 05124 07037 12358 /2302 10020 20000 30065 40256 58001 60006 86600 91200=
07037,1997-12-05 15:00:00,2,1025.2,-0.4,80,-1,500,7.408,,,180,,,,,,,,,,,wg-a,,,,AAXX 05154 07037 12/00 /1804 10020 21010 30061 40252 55004 60006 80001 91500=
07037,1997-12-05 18:00:00,-1,1026.6,1.2,100,-1,6000,7.408,,,220,-0.8,3.8,,,,,,,,,wg-a,,,,AAXX 05184 07037 12/56 /2204 11010 21010 30073 40266 51012 60006 80001 91800 333 10038 21008=
07037,1997-12-06 00:00:00,-2,1026.6,-0.5,100,-2,0,14.816,,,170,,,,,,,,,,,wg-a,,,,AAXX 06004 07037 12/// /1708 11020 21020 30072 40266 58005 60006 90000=
07037,1997-12-06 09:00:00,-1,1025.4,0.1,100,-1,1300,14.816,,,180,,,,,,,,,,10,wg-a,,,,AAXX 06094 07037 12113 61808 11010 21010 30061 40254 50001 60006 71042 84601 90900=
07037,1997-12-06 12:00:00,3,1024.2,-0.9,87,1,6000,18.52,,,200,,,,,,,,,,1,wg-a,,,,AAXX 06124 07037 12356 22010 10030 20010 30052 40242 58009 60006 70141 81601 91200=
07037,1997-12-06 15:00:00,4,1023.5,-0.6,81,1,10000,14.816,,,200,,,,,,,,,,,wg-a,,,,AAXX 06154 07037 12/60 42008 10040 20010 30046 40235 57006 60006 80001 91500=
07037,1997-12-06 18:00:00,1,1023.6,-0.1,93,0,0,18.52,,,190,-1.2,4.3,,,,,,,,,wg-a,,,,AAXX 06184 07037 12/// /1910 10010 20000 30045 40236 56001 60006 91800 333 10043 21012=
07037,1997-12-07 00:00:00,0,1022.8,-0.6,100,0,0,14.816,,,180,,,,,,,,,,,wg-a,,,,AAXX 07004 07037 12/// /1808 10000 20000 30036 40228 58006 60006 90000=
07037,1997-12-07 06:00:00,-1,1019.6,-1.9,100,-1,15000,18.52,,,180,-1.9,0.6,,,,,,,,,wg-a,,,,AAXX 07064 07037 02/65 01810 11010 21010 30004 40196 58019 60006 80000 90600 333 10006 21019 60004=
07037,1997-12-07 09:00:00,-1,1018.7,-0.8,100,-1,8000,18.52,,,160,,,,,,,,,,,wg-a,,,,AAXX 07094 07037 12/58 /1610 11010 21010 39996 40187 57008 60006 80001 90900=
07037,1997-12-07 12:00:00,3,1016.2,-2.3,75,-1,12000,18.52,,,170,,,,,,,,,,,wg-a,,,,AAXX 07124 07037 12/62 51710 10030 21010 39973 40162 58023 60006 80001 91200=
07037,1997-12-07 15:00:00,4,1012.8,-3.2,70,-1,15000,22.224,,,160,,,,,,,,,,,wg-a,,,,AAXX 07154 07037 12/65 51612 10040 21010 39941 40128 56032 60006 84031 91500=
07037,1997-12-07 18:00:00,2,1011.8,-1.1,80,-1,0,18.52,,,180,-1.7,5,,,,,,,,,wg-a,,,,AAXX 07184 07037 12/// /1810 10020 21010 39930 40118 55011 60006 91800 333 10050 21017=
07037,1997-12-08 00:00:00,3,1008.1,-1.5,100,3,0,25.928,,,170,,,,,,,,,,,wg-a,,,,AAXX 08004 07037 12/// /1714 10030 20030 39894 40081 58015 60036 90000=
07037,1997-12-08 06:00:00,7,1006.7,-0.6,100,7,4000,25.928,,,200,1.4,6.9,,,,,3,,,10,wg-a,,,,AAXX 08064 07037 02240 /2014 10070 20070 39883 40067 56006 60006 71062 86700 90600 333 10069 20014 60034=
07037,1997-12-08 09:00:00,8,1006.7,0.1,100,8,12000,25.928,,,190,,,,,,,,,,,wg-a,,,,AAXX 08094 07037 12362 71914 10080 20080 39884 40067 53001 60006 875// 90900=
07037,1997-12-08 12:00:00,10,1005.5,-1,93,9,15000,31.484,,,200,,,,,,,,,,,wg-a,,,,AAXX 08124 07037 12465 72017 10100 20090 39874 40055 58010 60006 875// 91200=
07037,1997-12-08 15:00:00,10,1004.6,-1,93,9,2500,31.484,,,220,,,,1,,,,,,10,wg-a,,,,AAXX 08154 07037 12325 82217 10100 20090 39864 40046 55010 60017 71062 882// 91500=
07037,1997-12-08 18:00:00,9,1005,0.4,100,9,20000,18.52,,,200,6.7,10.6,,1,,,,,,1,wg-a,,,,AAXX 08184 07037 02470 72010 10090 20090 39868 40050 53004 60006 70162 878// 91800 333 10106 20067 60017=
07037,1997-12-09 00:00:00,6,1007.7,1.4,100,6,0,14.816,,,230,,,,,,,,,,,wg-a,,,,AAXX 09004 07037 12/// /2308 10060 20060 39893 40077 51014 60006 90000=
07037,1997-12-09 06:00:00,6,1010.4,1.3,100,6,15000,11.112,,,240,5.3,9.1,,,,,2,,,,wg-a,,,,AAXX 09064 07037 02665 32406 10060 20060 39919 40104 53013 60006 83500 90600 333 10091 20053 60024=
07037,1997-12-09 09:00:00,7,1012,1.6,93,6,15000,14.816,,,200,,,,0,,,,,,1,wg-a,,,,AAXX 09094 07037 12565 /2008 10070 20060 39935 40120 53016 60007 70161 83530 90900=
07037,1997-12-09 12:00:00,10,1011.4,-0.4,87,8,20000,22.224,,,230,,,,,,,,,,3,wg-a,,,,AAXX 09124 07037 12470 72312 10100 20080 39931 40114 58004 60006 70361 85530 91200=
07037,1997-12-09 15:00:00,10,1011.3,-0.1,87,8,15000,22.224,,,210,,,,,,,,,,,wg-a,,,,AAXX 09154 07037 12465 82112 10100 20080 39930 40113 56001 60006 875// 91500=
07037,1997-12-09 18:00:00,11,1011.4,0.2,87,9,15000,25.928,,,220,5.6,10.7,,,,,,,,,wg-a,,,,AAXX 09184 07037 12465 82214 10110 20090 39932 40114 50002 60006 888// 91800 333 10107 20056=
07037,1997-12-10 00:00:00,11,1010.9,0,87,9,0,25.928,,,230,,,,,,,,,,,wg-a,,,,AAXX 10004 07037 12/// /2314 10110 20090 39927 40109 50000 60006 90000=
07037,1997-12-10 06:00:00,11,1006.6,-2.8,94,10,10000,31.484,,,200,10.2,10.9,,,,,,,,61,wg-a,,,,AAXX 10064 07037 02360 82017 10110 20100 39885 40066 58028 61000 76162 887// 90600 333 10109 20102 6001=
07037,1997-12-10 09:00:00,11,1004.6,-2,100,11,3000,38.892,,,210,,,,8,,,,,,63,wg-a,,,,AAXX 10094 07037 12230 82121 10110 20110 39865 40046 56020 60087 76366 887// 90900=
07037,1997-12-10 18:00:00,13,1008.5,2,88,11,25000,25.928,,,270,10.4,13.6,,,,,,,,1,wg-a,,,,AAXX 10184 07037 12475 /2714 10130 20110 39905 40085 53020 60006 70152 85400 91800 333 10136 20104=
07037,1997-12-11 06:00:00,13,1005.7,-1.1,100,13,12000,18.52,,,230,10.5,12.6,,,,,,,,20,wg-a,,,,AAXX 11064 07037 02262 82310 10130 20130 39877 40057 58011 61000 72065 877// 90600 333 10126 20105 6017=
07037,1997-12-11 12:00:00,13,1005,-1.1,94,12,15000,25.928,,,250,,,,,,,,,,3,wg-a,,,,AAXX 11124 07037 12565 72514 10130 20120 39871 40050 58011 60016 70362 8687/ 91200=
07037,1997-12-11 15:00:00,13,1004.5,-0.5,77,9,20000,29.632,,,270,,,,,,,,,,,wg-a,,,,AAXX 11154 07037 12570 62716 10130 20090 39866 40045 55005 60006 85801 91500=
07037,1997-12-11 18:00:00,10,1004.8,0.1,87,8,15000,29.632,,,260,10.3,14.5,,0,,,,,,3,wg-a,,,,AAXX 11184 07037 02565 72616 10100 20080 39867 40048 53001 60006 70386 8683/ 91800 333 10145 20103 60007=
07037,1997-12-12 00:00:00,9,1008.1,1.8,87,7,0,25.928,,,260,,,,0,,,,,,,wg-a,,,,AAXX 12004 07037 02/// /2614 10090 20070 39898 40081 51018 60006 90000 333 60007=
07037,1997-12-12 06:00:00,8,1014.3,3.6,81,5,18000,25.928,,,320,7.3,10.6,,,,,,,,21,wg-a,,,,AAXX 12064 07037 02468 73214 10080 20050 39958 40143 53036 61000 72186 878// 90600 333 10106 20073 6004=
07037,1997-12-12 09:00:00,7,1018.5,4.1,87,5,20000,29.632,,,330,,,,,,,,,,,wg-a,,,,AAXX 12094 07037 12470 73316 10070 20050 39999 40185 52041 60006 878// 90900=
07037,1997-12-12 18:00:00,5,1026.5,2.7,93,4,25000,14.816,,,300,5.2,8.9,,,,,,,,,wg-a,,,,AAXX 12184 07037 12575 23008 10050 20040 30076 40265 51027 60006 82400 91800 333 10089 20052=
07037,1997-12-13 00:00:00,4,1029.1,1,87,2,0,11.112,,,320,,,,,,,,,,,wg-a,,,,AAXX 13004 07037 12/// /3206 10040 20020 30101 40291 53010 60006 90000=
07037,1997-12-13 06:00:00,3,1031.5,1,87,1,20000,7.408,,,340,0.9,5.4,,,,,,,,,wg-a,,,,AAXX 13064 07037 02670 /3404 10030 20010 30123 40315 53010 60006 81500 90600 333 10054 20009 60004=
07037,1997-12-13 09:00:00,1,1033,1.4,100,1,10000,7.408,,,290,,,,,,,,,,,wg-a,,,,AAXX 13094 07037 12660 /2904 10010 20010 30137 40330 53014 60006 81501 90900=
07037,1997-12-13 12:00:00,8,1033.3,0.8,71,3,10000,7.408,,,310,,,,,,,,,,,wg-a,,,,AAXX 13124 07037 12660 33104 10080 20030 30145 40333 51008 60006 81501 91200=
07037,1997-12-13 15:00:00,6,1033.1,-0.3,75,2,15000,7.408,,,300,,,,,,,,,,,wg-a,,,,AAXX 13154 07037 12665 73004 10060 20020 30142 40331 55003 60006 81501 91500=
07037,1997-12-13 18:00:00,3,1033.8,0.4,87,1,0,7.408,,,230,0.3,8.3,,,,,,,,,wg-a,,,,AAXX 13184 07037 12/// /2304 10030 20010 30146 40338 50004 60006 91800 333 10083 20003=
07037,1997-12-14 00:00:00,2,1034.1,-0.3,93,1,0,7.408,,,230,,,,,,,,,,,wg-a,,,,AAXX 14004 07037 12/// /2304 10020 20010 30149 40341 55003 60006 90000=
07037,1997-12-14 06:00:00,1,1032.1,-1.2,100,1,20000,3.704,,,230,0.2,3.2,,,,,,,,,wg-a,,,,AAXX 14064 07037 02/70 62302 10010 20010 30128 40321 56012 60006 86030 90600 333 10032 20002 60004=
07037,1997-12-14 09:00:00,2,1032.2,0.2,100,2,12000,3.704,,,330,,,,,,,,,,,wg-a,,,,AAXX 14094 07037 12462 73302 10020 20020 30130 40322 53002 60006 8753/ 90900=
07037,1997-12-14 12:00:00,7,1030.2,-1.6,87,5,12000,11.112,,,320,,,,,,,,,,,wg-a,,,,AAXX 14124 07037 12/62 33206 10070 20050 30114 40302 58016 60006 83030 91200=
07037,1997-12-14 15:00:00,8,1028.5,-1.6,81,5,15000,14.816,,,20,,,,,,,,,,,wg-a,,,,AAXX 14154 07037 12465 /0208 10080 20050 30098 40285 56016 60006 85200 91500=
07037,1997-12-14 18:00:00,6,1027.9,-0.7,93,5,0,14.816,,,10,0.7,8.7,,,,,,,,,wg-a,,,,AAXX 14184 07037 12/// /0108 10060 20050 30091 40279 56007 60006 91800 333 10087 20007=
07037,1997-12-15 00:00:00,3,1027.3,-0.5,100,3,0,7.408,,,20,,,,,,,,,,,wg-a,,,,AAXX 15004 07037 12/// /0204 10030 20030 30083 40273 56005 60006 90000=
07037,1997-12-15 06:00:00,1,1027.7,-0,93,0,15000,29.632,,,60,1.4,6.3,,,,,,,,,wg-a,,,,AAXX 15064 07037 02465 20616 10010 20000 30085 40277 55000 60006 82500 90600 333 10063 20014 60004=
07037,1997-12-15 09:00:00,1,1028.3,0.6,86,-1,9000,25.928,,,50,,,,,,,,,,,wg-a,,,,AAXX 15094 07037 12459 /0514 10010 21010 30091 40283 51006 60006 85400 90900=
07037,1997-12-15 15:00:00,3,1026.9,-0.9,75,-1,11000,25.928,,,50,,,,,,,,,,,wg-a,,,,AAXX 15154 07037 12/61 /0514 10030 21010 30078 40269 56009 60006 91500=
07037,1997-12-16 06:00:00,0,1021.2,-2.2,74,-4,15000,25.928,,,90,-0.3,1.9,,,,,,,,,wg-a,,,,AAXX 16064 07037 02565 70914 10000 21040 30020 40212 56022 60006 875// 90600 333 10019 21003 60004=
07037,1997-12-16 18:00:00,-3,1012.3,-1.9,80,-6,15000,38.892,,,90,-2.7,-0.2,,,,,,,,1,wg-a,,,,AAXX 16184 07037 12565 50921 11030 21060 39931 40123 58019 60006 70172 83530 91800 333 11002 21027=
07037,1997-12-17 00:00:00,-2,1007.4,-1.9,74,-6,0,29.632,,,100,,,,,,,,,,,wg-a,,,,AAXX 17004 07037 12/// /1016 11020 21060 39883 40074 58019 60006 90000=
07037,1997-12-17 06:00:00,-1,1001.4,-2.7,93,-2,4000,35.188,,61.116,120,-3.2,-1.1,,,,,,,,61,wg-a,,6,,AAXX 17064 07037 02340 81219 11010 21020 39826 40014 56027 61000 76177 887// 90600 333 11011 21032 4/006 6100 91033=
07037,1997-12-17 09:00:00,1,1000.7,-0.6,100,1,4000,29.632,,,140,,,,,,,,,,10,wg-a,,,,AAXX 17094 07037 02240 81416 10010 20010 39820 40007 56006 61000 71076 887// 90900 333 ////=
07037,1997-12-17 18:00:00,3,999,-0.6,100,3,4000,25.928,,,120,-1.1,2.6,,,,,,,,10,wg-a,,,,AAXX 17184 07037 12140 81214 10030 20030 39805 49990 56006 60006 71062 887// 91800 333 10026 21011=
07037,1997-12-18 00:00:00,5,997.7,-0.8,100,5,0,29.632,,,120,,,,,,,,,,,wg-a,,,,AAXX 18004 07037 12/// /1216 10050 20050 39794 49977 58008 60016 90000=
07037,1997-12-18 06:00:00,8,996,-0.7,93,7,15000,25.928,,,130,2.5,7.8,,,,,5,,,,wg-a,,,,AAXX 18064 07037 02665 81314 10080 20070 39779 49960 55007 60006 875// 90600 333 10078 20025 60054=
07037,1997-12-18 09:00:00,9,996.8,0.8,100,9,3000,22.224,,,130,,,,6,,,,,,63,wg-a,,,,AAXX 18094 07037 12330 81312 10090 20090 39787 49968 53008 60067 76362 887// 90900=
07037,1997-12-18 12:00:00,10,996.4,-0.3,100,10,7000,25.928,,,160,,,,6,,,,,,61,wg-a,,,,AAXX 18124 07037 02257 81614 10100 20100 39784 49964 55003 60126 76162 887// 91200 333 60067=
07037,1997-12-18 15:00:00,10,996.4,-0,100,10,6000,14.816,,,160,,,,1,,,,,,21,wg-a,,,,AAXX 18154 07037 12256 81608 10100 20100 39784 49964 55000 60017 72162 887// 91500=
07037,1997-12-18 18:00:00,10,996.1,-0.2,100,10,3000,18.52,,,160,7.8,10.7,,,,,,,,61,wg-a,,,,AAXX 18184 07037 02230 81610 10100 20100 39782 49961 56002 61000 76162 887// 91800 333 10107 20078 6004=
07037,1997-12-19 00:00:00,9,995.3,-0.9,100,9,0,3.704,,,350,,,,,,,,,,,wg-a,,,,AAXX 19004 07037 12/// /3502 10090 20090 39773 49953 58009 60076 90000=
07037,1997-12-19 06:00:00,8,996.1,0.6,100,8,1000,3.704,,,290,8.1,10.4,,,,,,,,60,wg-a,,,,AAXX 19064 07037 02110 82902 10080 20080 39780 49961 51006 61000 76066 887// 90600 333 10104 20081 6038=
07037,1997-12-19 09:00:00,8,997.9,1.8,100,8,900,18.52,,,200,,,,,,,,,,42,wg-a,,,,AAXX 19094 07037 02109 82010 10080 20080 39798 49979 53018 61000 74264 887// 90900 333 ////=
07037,1997-12-19 12:00:00,8,998.7,0.7,100,8,1200,22.224,,,180,,,,,,,,,,10,wg-a,,,,AAXX 19124 07037 02112 81812 10080 20080 39805 49987 50007 61000 71064 887// 91200 333 ////=
07037,1997-12-19 15:00:00,8,998,-0.6,100,8,500,11.112,,,150,,,,,,,,,,,wg-a,,,,AAXX 19154 07037 12100 81506 10080 20080 39799 49980 56006 60006 887// 91500=
07037,1997-12-19 18:00:00,8,998.4,0.3,93,7,15000,14.816,,,150,7.3,8.4,,,,,,,,,wg-a,,,,AAXX 19184 07037 12365 /1508 10080 20070 39802 49984 53003 60006 81730 91800 333 10084 20073=
07037,1997-12-20 00:00:00,6,998.7,-0.3,100,6,0,14.816,,,150,,,,,,,,,,,wg-a,,,,AAXX 20004 07037 12/// /1508 10060 20060 39804 49987 57003 60006 90000=
07037,1997-12-20 06:00:00,6,999.3,0.9,100,6,500,14.816,,,160,4.5,8.1,,,,,,,,,wg-a,,,,AAXX 20064 07037 02400 81608 10060 20060 39810 49993 53009 60006 8657/ 90600 333 10081 20045 60004=
07037,1997-12-20 09:00:00,5,1001.2,1.8,100,5,1000,3.704,,,140,,,,,,,,,,10,wg-a,,,,AAXX 20094 07037 12210 71402 10050 20050 39828 40012 53018 60006 71022 8667/ 90900=
07037,1997-12-20 18:00:00,5,1005.2,1.8,100,5,0,11.112,,,190,4.6,8.2,,,,,,,,,wg-a,,,,AAXX 20184 07037 12/// /1906 10050 20050 39867 40052 51018 60006 91800 333 10082 20046=
07037,1997-12-21 00:00:00,5,1007.9,1,100,5,0,7.408,,,350,,,,,,,,,,,wg-a,,,,AAXX 21004 07037 12/// /3504 10050 20050 39894 40079 51010 60006 90000=
07037,1997-12-21 06:00:00,6,1010,1.1,100,6,1000,11.112,,,350,4.8,6,,,,,,,,10,wg-a,,,,AAXX 21064 07037 02110 83506 10060 20060 39915 40100 52011 60006 71022 887// 90600 333 10060 20048 60004=
07037,1997-12-21 09:00:00,5,1012.2,2.1,100,5,800,11.112,,,350,,,,,,,,,,44,wg-a,,,,AAXX 21094 07037 12108 83506 10050 20050 39936 40122 53021 60006 74442 887// 90900=
07037,1997-12-21 15:00:00,8,1012.5,0.2,93,7,6000,7.408,,,360,,,,,,,,,,3,wg-a,,,,AAXX 21154 07037 12456 /3604 10080 20070 39941 40125 53002 60006 70342 86700 91500=
07037,1997-12-22 00:00:00,7,1014.6,0.2,87,5,0,3.704,,,60,,,,,,,,,,,wg-a,,,,AAXX 22004 07037 12/// /0602 10070 20050 39960 40146 50002 60006 90000=
07037,1997-12-22 06:00:00,5,1013.4,-0.5,93,4,15000,7.408,,,110,5.1,7.7,,,,,,,,,wg-a,,,,AAXX 22064 07037 02465 81104 10050 20040 39948 40134 56005 60006 875// 90600 333 10077 20051 60004=
07037,1997-12-22 09:00:00,6,1014,0.6,93,5,6000,14.816,,,150,,,,,,,,,,,wg-a,,,,AAXX 22094 07037 12356 81508 10060 20050 39954 40140 53006 60006 887// 90900=
07037,1997-12-22 12:00:00,6,1013.5,-0.5,93,5,12000,14.816,,,160,,,,,,,,,,,wg-a,,,,AAXX 22124 07037 12362 81608 10060 20050 39949 40135 58005 60006 887// 91200=
07037,1997-12-22 15:00:00,5,1013.1,-0.4,93,4,12000,14.816,,,140,,,,,,,,,,,wg-a,,,,AAXX 22154 07037 12362 81408 10050 20040 39945 40131 55004 60006 887// 91500=
07037,1997-12-22 18:00:00,6,1013.3,0.2,87,4,15000,14.816,,,160,5.2,5.9,,,,,,,,,wg-a,,,,AAXX 22184 07037 12465 81608 10060 20040 39947 40133 53002 60006 887// 91800 333 10059 20052=
07037,1997-12-23 00:00:00,5,1014.8,0.8,93,4,0,11.112,,,180,,,,,,,,,,,wg-a,,,,AAXX 23004 07037 12/// /1806 10050 20040 39961 40148 51008 60006 90000=
07037,1997-12-23 06:00:00,5,1016.2,0.7,100,5,2500,11.112,,,190,4.5,5.5,,,,,2,,,10,wg-a,,,,AAXX 23064 07037 02125 81906 10050 20050 39975 40162 53007 60006 71062 887// 90600 333 10055 20045 60024=
07037,1997-12-23 09:00:00,5,1018.5,2.3,100,5,1000,11.112,,,210,,,,,,,,,,28,wg-a,,,,AAXX 23094 07037 12210 82106 10050 20050 39998 40185 51023 60006 72842 887// 90900=
07037,1997-12-23 12:00:00,9,1019.3,1,93,8,15000,11.112,,,220,,,,,,,,,,3,wg-a,,,,AAXX 23124 07037 12665 72206 10090 20080 30008 40193 50010 60006 70342 875// 91200=
07037,1997-12-23 15:00:00,9,1019.7,0.4,87,7,15000,18.52,,,200,,,,,,,,,,,wg-a,,,,AAXX 23154 07037 12465 72010 10090 20070 30012 40197 52004 60006 8557/ 91500=
07037,1997-12-23 18:00:00,8,1019.7,-0.1,93,7,4500,22.224,,,170,4.6,9.8,,,,,,,,61,wg-a,,,,AAXX 23184 07037 02145 81712 10080 20070 30011 40197 55001 61000 76162 887// 91800 333 10098 20046 6003=
07037,1997-12-24 00:00:00,11,1020.4,1.1,94,10,0,22.224,,,220,,,,,,,,,,,wg-a,,,,AAXX 24004 07037 12/// /2212 10110 20100 30021 40204 52011 60016 90000=
07037,1997-12-24 09:00:00,12,1020.7,0.8,94,11,12000,22.224,,,210,,,,,,,,,,,wg-a,,,,AAXX 24094 07037 12462 82112 10120 20110 30024 40207 50008 60006 875// 90900=
07037,1997-12-24 12:00:00,12,1018.7,-1.9,94,11,12000,29.632,,,200,,,,,,,,,,,wg-a,,,,AAXX 24124 07037 12462 82016 10120 20110 30005 40187 58019 60006 875// 91200=
07037,1997-12-24 15:00:00,11,1016.2,-2.6,94,10,10000,38.892,,,200,,,,5,,,,,,63,wg-a,,,,AAXX 24154 07037 12460 82021 10110 20100 39979 40162 57026 60057 76365 8552/ 91500=
07037,1997-12-24 18:00:00,11,1015.8,-0.4,94,10,8000,42.596,,,220,10.6,12.5,,,,,,,,60,wg-a,,,,AAXX 24184 07037 02458 82223 10110 20100 39975 40158 57004 61000 76065 8452/ 91800 333 10125 20106 6002=
07037,1997-12-25 00:00:00,9,1018.1,1.3,81,6,0,18.52,,,240,,,,,,,,,,,wg-a,,,,AAXX 25004 07037 12/// /2410 10090 20060 39997 40181 53013 60016 90000=
07037,1997-12-25 06:00:00,8,1015.1,-2.5,93,7,14000,22.224,,,200,7.4,10.9,,,,,7,,,,wg-a,,,,AAXX 25064 07037 02564 42012 10080 20070 39966 40151 58025 60006 84500 90600 333 10109 20074 60074=
07037,1997-12-25 09:00:00,10,1011.2,-3.6,100,10,10000,22.224,,,170,,,,0,,,,,,21,wg-a,,,,AAXX 25094 07037 12160 81712 10100 20100 39930 40112 56036 60007 72161 886// 90900=
07037,1997-12-25 12:00:00,14,1006.7,-4.2,88,12,20000,38.892,,,220,,,,1,,,,,,1,wg-a,,,,AAXX 25124 07037 02470 82221 10140 20120 39888 40067 56042 60026 70161 888// 91200 333 60017=
07037,1997-12-25 18:00:00,10,1006.4,1.4,82,7,0,31.484,,,260,7.8,14.5,,1,,,,,,,wg-a,,,,AAXX 25184 07037 12/// /2617 10100 20070 39882 40064 53014 60017 91800 333 10145 20078=
07037,1997-12-26 00:00:00,9,1007.7,-0.2,81,6,0,31.484,,,230,,,,,,,,,,,wg-a,,,,AAXX 26004 07037 02/// /2317 10090 20060 39894 40077 58002 60016 90000 333 61000=
07037,1997-12-26 06:00:00,8,1005.7,-1.3,81,5,25000,29.632,,,220,7.4,9.7,,,,,,,,25,wg-a,,,,AAXX 26064 07037 02575 42216 10080 20050 39874 40057 57013 61000 72586 84200 90600 333 10097 20074 6006=
07037,1997-12-26 09:00:00,8,1005.1,-0.6,81,5,15000,31.484,,51.856,230,,,,,,,,,,,wg-a,,,,AAXX 26094 07037 12565 42317 10080 20050 39868 40051 58006 60006 84800 90900 333 91028=
07037,1997-12-26 12:00:00,7,1003.2,-1.9,93,6,15000,25.928,,,250,,,,1,,,,,,25,wg-a,,,,AAXX 26124 07037 02565 72514 10070 20060 39849 40032 58019 60016 72586 872// 91200 333 60017=
07037,1997-12-26 18:00:00,7,1006.8,2.1,93,6,20000,18.52,,,270,6.6,9.1,,2,,,,,,1,wg-a,,,,AAXX 26184 07037 02570 72710 10070 20060 39884 40068 51021 60006 70187 872// 91800 333 10091 20066 60027=
07037,1997-12-27 00:00:00,5,1008.8,0.5,100,5,0,11.112,,,250,,,,,,,,,,,wg-a,,,,AAXX 27004 07037 12/// /2506 10050 20050 39903 40088 50005 60016 90000=
07037,1997-12-27 06:00:00,6,1009.6,0.6,100,6,18000,11.112,,,250,4.6,7.5,,,,,,,,21,wg-a,,,,AAXX 27064 07037 02268 72506 10060 20060 39911 40096 53006 61000 72162 878// 90600 333 10075 20046 6007=
07037,1997-12-27 09:00:00,6,1011.1,1.5,100,6,12000,14.816,,,260,,,,1,,,,,,61,wg-a,,,,AAXX 27094 07037 12262 72608 10060 20060 39926 40111 53015 60017 76186 878// 90900=
07037,1997-12-27 12:00:00,6,1011.3,0.2,100,6,10000,18.52,,,280,,,,2,,,,,,61,wg-a,,,,AAXX 27124 07037 02260 72810 10060 20060 39928 40113 50002 60036 76186 878// 91200 333 60027=
07037,1997-12-27 15:00:00,6,1011.3,-0,93,5,15000,18.52,,,270,,,,4,,,,,,21,wg-a,,,,AAXX 27154 07037 12365 72710 10060 20050 39928 40113 55000 60047 72162 86301 91500=
07037,1997-12-27 18:00:00,5,1012.9,1.5,100,5,0,18.52,,,260,5,6.9,,,,,,,,,wg-a,,,,AAXX 27184 07037 32/// /2610 10050 20050 39943 40129 51015 91800 333 10069 20050=
07037,1997-12-28 00:00:00,3,1014.2,0.6,100,3,0,14.816,,,260,,,,,,,,,,,wg-a,,,,AAXX 28004 07037 12/// /2608 10030 20030 39954 40142 51006 60026 90000=
07037,1997-12-28 09:00:00,1,1015.5,0.5,100,1,1500,7.408,,,200,,,,,,,,,,10,wg-a,,,,AAXX 28094 07037 12415 62004 10010 20010 39966 40155 53005 60006 71011 84811 90900=
07037,1997-12-28 12:00:00,6,1014.1,-1.1,93,5,15000,14.816,,,240,,,,,,,,,,,wg-a,,,,AAXX 28124 07037 12365 72408 10060 20050 39955 40141 58011 60006 83511 91200=
07037,1997-12-28 15:00:00,7,1012.9,-1.1,81,4,15000,14.816,,,230,,,,,,,,,,,wg-a,,,,AAXX 28154 07037 12565 62308 10070 20040 39944 40129 56011 60006 84201 91500=
07037,1997-12-28 18:00:00,4,1012.9,-0.2,93,3,0,14.816,,,220,0.9,7.8,,,,,,,,,wg-a,,,,AAXX 28184 07037 32/// /2208 10040 20030 39942 40129 55002 91800 333 10078 20009=
07037,1997-12-29 06:00:00,3,1011.7,-0.2,100,3,4500,18.52,,,210,2,4.4,,,,,,,,10,wg-a,,,,AAXX 29064 07037 02145 82110 10030 20030 39929 40117 55002 60006 71022 876// 90600 333 10044 20020 60004=
07037,1997-12-29 09:00:00,3,1012.4,0.7,100,3,2000,11.112,,,190,,,,,,,,,,10,wg-a,,,,AAXX 29094 07037 12120 81906 10030 20030 39936 40124 53007 60006 71022 876// 90900=
07037,1997-12-29 15:00:00,5,1010.3,-1.2,93,4,8000,18.52,,,160,,,,,,,,,,,wg-a,,,,AAXX 29154 07037 12158 81610 10050 20040 39917 40103 56012 60006 875// 91500=
07037,1997-12-29 18:00:00,5,1010.2,-0.1,93,4,12000,14.816,,,150,2.5,4.8,,,,,,,,,wg-a,,,,AAXX 29184 07037 12562 81508 10050 20040 39916 40102 56001 60006 8753/ 91800 333 10048 20025=
07037,1997-12-30 00:00:00,5,1008.7,-0.8,81,2,0,25.928,,,150,,,,,,,,,,,wg-a,,,,AAXX 30004 07037 12/// /1514 10050 20020 39901 40087 58008 60006 90000=
07037,1997-12-30 06:00:00,4,1007.6,-1,93,3,8000,25.928,,,160,3.7,5.4,,,,,,,,21,wg-a,,,,AAXX 30064 07037 02558 71614 10040 20030 39890 40076 56010 61000 72162 875// 90600 333 10054 20037 6001=
07037,1997-12-30 09:00:00,5,1008,0.5,93,4,10000,22.224,,,170,,,,,,,,,,3,wg-a,,,,AAXX 30094 07037 02460 71712 10050 20040 39895 40080 53005 61000 70352 8553/ 90900 333 ////=
07037,1997-12-30 12:00:00,6,1007.5,-0.5,93,5,10000,14.816,,,180,,,,,,,,,,3,wg-a,,,,AAXX 30124 07037 02460 81808 10060 20050 39890 40075 58005 61000 70352 875// 91200 333 ////=
07037,1997-12-30 15:00:00,8,1005.8,-1.5,93,7,9000,18.52,,,190,,,,,,,,,,,wg-a,,,,AAXX 30154 07037 12259 81910 10080 20070 39875 40058 56015 60006 885// 91500=
07037,1997-12-30 18:00:00,8,1005.6,-0.2,93,7,10000,25.928,,,200,3.8,7.9,,,,,,,,,wg-a,,,,AAXX 30184 07037 12260 82014 10080 20070 39873 40056 55002 60006 875// 91800 333 10079 20038=
07037,1997-12-31 00:00:00,8,1002.3,-1.7,93,7,0,29.632,,,190,,,,,,,,,,,wg-a,,,,AAXX 31004 07037 12/// /1916 10080 20070 39841 40023 58017 60006 90000=
07037,1997-12-31 09:00:00,8,1004.2,3,100,8,15000,11.112,,,260,,,,2,,,,,,21,wg-a,,,,AAXX 31094 07037 12465 72606 10080 20080 39860 40042 53030 60027 72162 8353/ 90900=
07037,1997-12-31 18:00:00,5,1010.7,2,93,4,20000,11.112,,,220,5.2,9.1,,,,,,,,,wg-a,,,,AAXX 31184 07037 12770 32206 10050 20040 39921 40107 51020 60006 81530 91800 333 10091 20052=
