station_id,dh_utc,temperature,pression,pression_variation_3h,humidite,point_de_rosee,visibilite,vent_moyen,vent_rafales,vent_rafales_10min,vent_direction,temperature_min,temperature_max,pluie_1h,pluie_3h,pluie_6h,pluie_12h,pluie_24h,ensoleillement,temperature_sol,temps_omm,source,radiations,neige_au_sol,nebulosite,raw_msg
07314,1996-01-01 00:00:00,10,1000.5,-1.1,100,10,500,7.408,,,150,,,,,,,,,,,wg-a,,,,AAXX 01004 07314 12400 51504 10100 20100 39977 40005 58011 60006 85500 90000=
07314,1996-01-01 06:00:00,9,995.6,-3.1,100,9,100,14.816,,,110,8.5,11.3,,0,,,,,,46,wg-a,,,,AAXX 01064 07314 12201 81108 10090 20090 39928 49956 56031 60007 74664 886// 90600 333 10113 20085=
07314,1996-01-01 12:00:00,10,992.7,-1.5,93,9,9000,18.52,,,110,,,,2,,,,,,61,wg-a,,,,AAXX 01124 07314 02559 81110 10100 20090 39900 49927 57015 60026 76164 885// 91200 333 60027=
07314,1996-01-01 18:00:00,12,991.9,-0.2,94,11,6000,35.188,,,210,8.9,12.3,,1,,,,,,51,wg-a,,,,AAXX 01184 07314 12456 82119 10120 20110 39892 49919 55002 60017 75186 887// 91800 333 10123 20089=
07314,1996-01-02 00:00:00,12,993,1.1,94,11,20000,50.004,,,240,,,,,,,,,,20,wg-a,,,,AAXX 02004 07314 02570 72427 10120 20110 39903 49930 53011 61000 72052 8483/ 90000 333 ////=
07314,1996-01-02 06:00:00,11,1007.5,5.3,87,9,25000,42.596,,75.932,310,10.4,12.5,,,,,,,,20,wg-a,,,,AAXX 02064 07314 02575 83123 10110 20090 30047 40075 53053 61000 72052 8457/ 90600 333 10125 20104 //// 91041=
07314,1996-01-02 12:00:00,11,1015.7,3.3,94,10,20000,29.632,,,300,,,,0,,,,,,25,wg-a,,,,AAXX 02124 07314 02470 63016 10110 20100 30129 40157 51033 60006 72582 82330 91200 333 60007=
07314,1996-01-02 18:00:00,10,1019.1,1.5,93,9,20000,11.112,,,290,10.2,11.9,,,,,,,,,wg-a,,,,AAXX 02184 07314 32670 12906 10100 20090 30163 40191 51015 81500 91800 333 10119 20102=
07314,1996-01-03 00:00:00,8,1020.4,0.1,100,8,200,7.408,,,100,,,,0,,,,,,46,wg-a,,,,AAXX 03004 07314 02/02 01004 10080 20080 30176 40204 50001 60006 74640 80000 90000 333 60007=
07314,1996-01-03 06:00:00,5,1019.6,0.3,93,4,200,7.408,,,110,4.6,10.5,,0,,,,,,44,wg-a,,,,AAXX 03064 07314 12202 41104 10050 20040 30167 40196 51003 60007 74444 84600 90600 333 10105 20046=
07314,1996-01-03 18:00:00,8,1017.1,-0.8,93,7,18000,18.52,,,90,4.7,8.6,,,,,,,,,wg-a,,,,AAXX 03184 07314 12/68 60910 10080 20070 30143 40171 56008 60006 84011 91800 333 10086 20047=
07314,1996-01-04 00:00:00,6,1015,-1.6,93,5,20000,11.112,,,120,,,,,,,,,,,wg-a,,,,AAXX 04004 07314 12870 41206 10060 20050 30122 40150 58016 60006 83031 90000=
07314,1996-01-04 06:00:00,6,1009.2,-2.6,81,3,500,22.224,,,130,6,8.2,,,,,,,,,wg-a,,,,AAXX 04064 07314 12600 41312 10060 20030 30064 40092 56026 60006 83570 90600 333 10082 20060=
07314,1996-01-04 12:00:00,9,1006.5,-1.5,76,5,25000,25.928,,,140,,,,1,,,,,,2,wg-a,,,,AAXX 04124 07314 02675 71414 10090 20050 30037 40065 58015 60016 70261 8457/ 91200 333 60017=
07314,1996-01-04 18:00:00,10,1005.7,0.3,93,9,25000,22.224,,,150,6.2,11.1,,0,,,,,,60,wg-a,,,,AAXX 04184 07314 12675 61512 10100 20090 30029 40057 50003 60007 76062 8557/ 91800 333 10111 20062=
07314,1996-01-05 00:00:00,8,1002.4,-2.7,93,7,500,22.224,,,120,,,,,,,,,,2,wg-a,,,,AAXX 05004 07314 02600 61212 10080 20070 39996 40024 58027 61000 70262 84540 90000 333 ////=
07314,1996-01-05 06:00:00,9,997.4,-2.3,87,7,500,22.224,,,140,6.9,10.3,,,,,,,,,wg-a,,,,AAXX 05064 07314 32600 61412 10090 20070 39946 49974 56023 84540 90600 333 10103 20069=
07314,1996-01-05 12:00:00,10,999.7,1.5,93,9,18000,11.112,,,210,,,,2,,,,,,61,wg-a,,,,AAXX 05124 07314 02568 82106 10100 20090 39969 49997 51015 60026 76186 885// 91200 333 60027=
07314,1996-01-05 18:00:00,11,1000.4,0.6,82,8,500,18.52,,,280,9,11.5,,,,,,,,1,wg-a,,,,AAXX 05184 07314 32600 32810 10110 20080 39976 40004 50006 70161 81541 91800 333 10115 20090=
07314,1996-01-06 00:00:00,7,1000.1,-1.6,93,6,20000,18.52,,,140,,,,0,,,,,,,wg-a,,,,AAXX 06004 07314 02870 21410 10070 20060 39973 40001 58016 60006 82041 90000 333 60007=
07314,1996-01-06 06:00:00,6,994.5,-3.6,93,5,25000,25.928,,,130,5.6,10.6,,,,,,,,,wg-a,,,,AAXX 06064 07314 32575 81314 10060 20050 39917 49945 58036 885// 90600 333 10106 20056=
07314,1996-01-06 12:00:00,7,990.9,-1.1,93,6,7000,18.52,,57.412,150,,,,3,,,,,,61,wg-a,,,,AAXX 06124 07314 02557 81510 10070 20060 39881 49909 55011 60036 76162 855// 91200 333 60037 91031=
07314,1996-01-06 18:00:00,11,986.4,-0,94,10,20000,42.596,,,160,5.6,11,,0,,,,,,21,wg-a,,,,AAXX 06184 07314 12570 81623 10110 20100 39837 49864 55000 60007 72162 8452/ 91800 333 10110 20056=
07314,1996-01-07 00:00:00,12,989.5,1.9,88,10,20000,35.188,,,210,,,,,,,,,,,wg-a,,,,AAXX 07004 07314 12870 62119 10120 20100 39868 49895 51019 60006 82014 90000=
07314,1996-01-07 06:00:00,12,994.1,2.3,88,10,25000,25.928,,68.524,220,10.4,12.7,,1,,,,,,2,wg-a,,,,AAXX 07064 07314 12675 62214 10120 20100 39914 49941 51023 60017 70282 82532 90600 333 10127 20104 91037=
07314,1996-01-07 12:00:00,11,999.5,2.3,82,8,18000,42.596,,57.412,210,,,,,,,,,,2,wg-a,,,,AAXX 07124 07314 12468 72123 10110 20080 39968 49995 51023 60006 70282 8633/ 91200 333 91031=
07314,1996-01-07 18:00:00,11,1004.6,3,87,9,20000,25.928,,68.524,230,10,12.6,,1,,,,,,25,wg-a,,,,AAXX 07184 07314 12570 42314 10110 20090 30018 40046 53030 60017 72581 8/400 91800 333 10126 20100 91037=
07314,1996-01-08 00:00:00,11,1008.6,1.2,94,10,9000,18.52,,57.412,180,,,,,,,,,,3,wg-a,,,,AAXX 08004 07314 12559 71810 10110 20100 30058 40086 51012 60016 70381 875// 90000 333 91031=
07314,1996-01-08 06:00:00,8,1006.6,-1.4,87,6,25000,18.52,,,140,7.8,11.2,,0,,,,,,2,wg-a,,,,AAXX 08064 07314 12675 61410 10080 20060 30038 40066 56014 60007 70281 82570 90600 333 10112 20078=
07314,1996-01-08 12:00:00,12,1003.9,-1.8,67,6,25000,25.928,,68.524,140,,,,,,,,,,,wg-a,,,,AAXX 08124 07314 12675 71414 10120 20060 30011 40039 58018 60006 8357/ 91200 333 91037=
07314,1996-01-08 18:00:00,11,999.7,-2,71,6,25000,25.928,,61.116,130,7.6,12.3,,,,,,,,,wg-a,,,,AAXX 08184 07314 12675 81314 10110 20060 39970 49997 58020 60006 8457/ 91800 333 10123 20076 91033=
07314,1996-01-09 00:00:00,10,998.2,-1.6,93,9,25000,7.408,,,90,,,,1,,,,,,21,wg-a,,,,AAXX 09004 07314 02675 80904 10100 20090 39954 49982 58016 60016 72162 8557/ 90000 333 60017=
07314,1996-01-09 06:00:00,10,999.3,2.1,100,10,8000,7.408,,,190,9.7,12.6,,3,,,,,,61,wg-a,,,,AAXX 09064 07314 12458 81904 10100 20100 39966 49993 53021 60037 76162 885// 90600 333 10126 20097=
07314,1996-01-09 12:00:00,12,1001.1,0.7,94,11,12000,22.224,,,160,,,,,,,,,,1,wg-a,,,,AAXX 09124 07314 12662 51612 10120 20110 39984 40011 53007 60016 70151 82511 91200=
07314,1996-01-09 18:00:00,10,1002.9,1.3,93,9,18000,11.112,,,150,9.3,13.4,,,,,,,,,wg-a,,,,AAXX 09184 07314 32668 51506 10100 20090 30001 40029 53013 82511 91800 333 10134 20093=
07314,1996-01-10 00:00:00,10,1004.4,0.1,93,9,12000,3.704,,,250,,,,,,,,,,,wg-a,,,,AAXX 10004 07314 12662 82502 10100 20090 30016 40044 50001 60006 855// 90000=
07314,1996-01-10 06:00:00,10,1004.4,-0.4,100,10,10000,3.704,,,300,9.8,11.1,,,,,,,,,wg-a,,,,AAXX 10064 07314 12560 83002 10100 20100 30016 40044 57004 60006 83518 90600 333 10111 20098=
07314,1996-01-10 12:00:00,10,1006.1,0.1,100,10,500,0,,,0,,,,,,,,,,,wg-a,,,,AAXX 10124 07314 12300 60000 10100 20100 30033 40061 50001 60006 8461/ 91200=
07314,1996-01-10 18:00:00,10,1007.8,1.4,93,9,20000,11.112,,,240,9.5,11.5,,,,,,,,,wg-a,,,,AAXX 10184 07314 12670 22406 10100 20090 30050 40078 53014 60006 82500 91800 333 10115 20095=
07314,1996-01-11 00:00:00,9,1008.1,0.3,93,8,20000,7.408,,,180,,,,0,,,,,,2,wg-a,,,,AAXX 11004 07314 12/70 01804 10090 20080 30053 40081 50003 60007 70260 80000 90000=
07314,1996-01-11 06:00:00,9,1000.5,-2,87,7,25000,38.892,,68.524,160,7.7,10.5,,0,,,,,,25,wg-a,,,,AAXX 11064 07314 12575 81621 10090 20070 39977 40005 58020 60007 72511 8457/ 90600 333 10105 20077 91037=
07314,1996-01-11 12:00:00,10,996.7,-1.1,93,9,7000,57.412,,83.34,170,,,,3,,,,,,81,wg-a,,,,AAXX 11124 07314 02457 81731 10100 20090 39940 49967 56011 60036 78182 888// 91200 333 60037 91045=
07314,1996-01-11 18:00:00,12,995.9,-0.2,88,10,25000,29.632,,,180,8.5,11.6,,0,,,,,,2,wg-a,,,,AAXX 11184 07314 12475 71816 10120 20100 39932 49959 56002 60007 70286 8487/ 91800 333 10116 20085=
07314,1996-01-12 00:00:00,12,996.6,-0.1,88,10,25000,25.928,,,180,,,,,,,,,,,wg-a,,,,AAXX 12004 07314 12575 61814 10120 20100 39939 49966 58001 60006 86500 90000=
07314,1996-01-12 06:00:00,11,997.6,0.2,87,9,18000,22.224,,,190,9.1,12,,1,,,,,,25,wg-a,,,,AAXX 12064 07314 12568 61912 10110 20090 39949 49976 53002 60017 72581 86900 90600 333 10120 20091=
07314,1996-01-12 12:00:00,12,1000.7,1.4,82,9,18000,29.632,,,210,,,,,,,,,,,wg-a,,,,AAXX 12124 07314 12568 32116 10120 20090 39980 40007 51014 60006 83202 91200=
07314,1996-01-12 18:00:00,12,1005.1,2.2,82,9,14000,31.484,,,220,10.4,12.5,,0,,,,,,25,wg-a,,,,AAXX 12184 07314 12564 32217 10120 20090 30023 40051 51022 60007 72581 82202 91800 333 10125 20104=
07314,1996-01-13 00:00:00,11,1009.9,2.1,87,9,20000,22.224,,,220,,,,1,,,,,,2,wg-a,,,,AAXX 13004 07314 02570 22212 10110 20090 30071 40099 51021 60016 70280 81202 90000 333 60017=
07314,1996-01-13 06:00:00,11,1012.4,1.2,87,9,20000,14.816,,,210,10.1,11.6,,0,,,,,,25,wg-a,,,,AAXX 13064 07314 12570 22108 10110 20090 30096 40124 51012 60007 72580 82200 90600 333 10116 20101=
07314,1996-01-13 12:00:00,12,1013.9,0.2,88,10,2500,25.928,,,160,,,,,,,,,,10,wg-a,,,,AAXX 13124 07314 12525 31614 10120 20100 30111 40139 50002 60006 71011 83400 91200=
07314,1996-01-13 18:00:00,9,1013.3,0.2,93,8,8000,11.112,,,110,9.1,12.5,,,,,,,,,wg-a,,,,AAXX 13184 07314 12/58 21106 10090 20080 30105 40133 51002 60006 82040 91800 333 10125 20091=
07314,1996-01-14 00:00:00,8,1010.9,-1.4,93,7,20000,22.224,,,130,,,,,,,,,,,wg-a,,,,AAXX 14004 07314 12/70 01312 10080 20070 30081 40109 56014 60006 80000 90000=
07314,1996-01-14 06:00:00,8,1009.3,-0.5,93,7,20000,25.928,,,130,7.4,9.5,,,,,,,,,wg-a,,,,AAXX 14064 07314 32/70 51314 10080 20070 30065 40093 58005 82042 90600 333 10095 20074=
07314,1996-01-14 12:00:00,12,1009.8,-0.2,82,9,0,29.632,,,130,,,,,,,,,,,wg-a,,,,AAXX 14124 07314 12/// /1316 10120 20090 30070 40098 58002 60006 91200=
07314,1996-01-14 18:00:00,12,1011.9,1.6,88,10,20000,18.52,,,130,8.3,12.6,,,,,,,,,wg-a,,,,AAXX 14184 07314 32570 81310 10120 20100 30091 40119 53016 885// 91800 333 10126 20083=
07314,1996-01-15 00:00:00,11,1015.5,1.7,87,9,20000,14.816,,,120,,,,,,,,,,,wg-a,,,,AAXX 15004 07314 12/70 81208 10110 20090 30127 40155 53017 60006 8803/ 90000=
07314,1996-01-15 06:00:00,9,1017.8,1.4,93,8,25000,11.112,,,120,9.1,12.3,,,,,,,,,wg-a,,,,AAXX 15064 07314 12675 51206 10090 20080 30150 40178 52014 60006 83530 90600 333 10123 20091=
07314,1996-01-15 12:00:00,12,1020.8,1,82,9,15000,3.704,,,110,,,,,,,,,,,wg-a,,,,AAXX 15124 07314 12665 71102 10120 20090 30180 40208 50010 60006 8351/ 91200=
07314,1996-01-15 18:00:00,12,1022.7,1.4,88,10,20000,11.112,,,100,9,13,,,,,,,,,wg-a,,,,AAXX 15184 07314 12670 71006 10120 20100 30199 40227 53014 60006 8357/ 91800 333 10130 20090=
07314,1996-01-16 00:00:00,11,1024.5,0.5,87,9,0,7.408,,,90,,,,,,,,,,,wg-a,,,,AAXX 16004 07314 12/// /0904 10110 20090 30217 40245 51005 60006 90000=
07314,1996-01-16 06:00:00,9,1025.2,-0,93,8,12000,7.408,,,100,8.7,11.6,,0,,,,,,,wg-a,,,,AAXX 16064 07314 12/62 21004 10090 20080 30224 40252 55000 60007 80001 90600 333 10116 20087=
07314,1996-01-16 12:00:00,11,1026.2,-0.3,94,10,2500,3.704,,,110,,,,,,,,,,10,wg-a,,,,AAXX 16124 07314 12/25 41102 10110 20100 30234 40262 58003 60006 71000 80002 91200=
07314,1996-01-16 18:00:00,11,1025.7,0.6,94,10,2000,11.112,,,30,8.4,12.4,,,,,,,,10,wg-a,,,,AAXX 16184 07314 12/20 20306 10110 20100 30229 40257 52006 60006 71000 80002 91800 333 10124 20084=
07314,1996-01-17 00:00:00,9,1024.8,-1.1,100,9,8000,11.112,,,70,,,,0,,,,,,,wg-a,,,,AAXX 17004 07314 02/58 00706 10090 20090 30220 40248 57011 60006 80000 90000 333 60007=
07314,1996-01-17 06:00:00,8,1023.5,-0.4,93,7,8000,7.408,,,100,7.8,10.5,,0,,,,,,2,wg-a,,,,AAXX 17064 07314 12558 21004 10080 20070 30207 40235 55004 60007 70260 82500 90600 333 10105 20078=
07314,1996-01-17 12:00:00,12,1022.7,-1.1,88,10,10000,7.408,,,90,,,,,,,,,,,wg-a,,,,AAXX 17124 07314 12560 30904 10120 20100 30199 40227 58011 60006 81102 91200=
07314,1996-01-17 18:00:00,10,1021.3,0.2,87,8,20000,11.112,,,140,7.8,13.8,,,,,,,,,wg-a,,,,AAXX 17184 07314 12670 21406 10100 20080 30185 40213 53002 60006 81102 91800 333 10138 20078=
07314,1996-01-18 00:00:00,8,1020.4,-0.6,87,6,25000,11.112,,,110,,,,,,,,,,,wg-a,,,,AAXX 18004 07314 12/75 21106 10080 20060 30176 40204 56006 60006 80002 90000=
07314,1996-01-18 06:00:00,6,1018.7,-1.1,87,4,25000,22.224,,,130,5.6,10,,,,,,,,,wg-a,,,,AAXX 18064 07314 12/75 01312 10060 20040 30158 40187 56011 60006 80000 90600 333 10100 20056=
07314,1996-01-18 12:00:00,12,1018.6,-0.3,71,7,16000,22.224,,,150,,,,,,,,,,,wg-a,,,,AAXX 18124 07314 12/66 11512 10120 20070 30158 40186 58003 60006 80001 91200=
07314,1996-01-18 18:00:00,9,1018,0.2,81,6,20000,18.52,,,130,5.3,13,,,,,,,,,wg-a,,,,AAXX 18184 07314 12/70 01310 10090 20060 30152 40180 53002 60006 80000 91800 333 10130 20053=
07314,1996-01-19 00:00:00,6,1017.6,-0.4,93,5,20000,14.816,,,140,,,,,,,,,,,wg-a,,,,AAXX 19004 07314 12/70 01408 10060 20050 30148 40176 56004 60006 80000 90000=
07314,1996-01-19 06:00:00,5,1015.4,-1.3,93,4,20000,18.52,,,120,4.5,8.9,,,,,,,,,wg-a,,,,AAXX 19064 07314 32/70 01210 10050 20040 30125 40154 56013 80000 90600 333 10089 20045=
07314,1996-01-19 12:00:00,9,1012.9,-1.8,81,6,0,11.112,,,110,,,,,,,,,,,wg-a,,,,AAXX 19124 07314 12/// /1106 10090 20060 30101 40129 58018 60006 91200=
07314,1996-01-19 18:00:00,9,1009.3,-1.2,87,7,18000,11.112,,,110,4.6,11,,,,,,,,,wg-a,,,,AAXX 19184 07314 12668 31106 10090 20070 30065 40093 56012 60006 82502 91800 333 10110 20046=
07314,1996-01-20 00:00:00,6,1005.8,-2,93,5,7000,18.52,,,130,,,,,,,,,,,wg-a,,,,AAXX 20004 07314 12/57 01310 10060 20050 30030 40058 58020 60006 80000 90000=
07314,1996-01-20 06:00:00,7,1003.3,-1.2,93,6,20000,22.224,,,140,5.6,8.6,,,,,,,,3,wg-a,,,,AAXX 20064 07314 32670 51412 10070 20060 30005 40033 57012 70361 82512 90600 333 10086 20056=
07314,1996-01-20 12:00:00,12,1003.1,-0.5,71,7,15000,29.632,,,150,,,,,,,,,,1,wg-a,,,,AAXX 20124 07314 12565 31516 10120 20070 30004 40031 58005 60006 70151 82330 91200=
07314,1996-01-20 18:00:00,9,1003,0.6,81,6,20000,18.52,,,120,6.9,12.6,,,,,,,,,wg-a,,,,AAXX 20184 07314 32670 31210 10090 20060 30002 40030 52006 82501 91800 333 10126 20069=
07314,1996-01-21 00:00:00,7,1003.9,0,87,5,500,18.52,,,100,,,,,,,,,,,wg-a,,,,AAXX 21004 07314 12/00 01010 10070 20050 30011 40039 50000 60006 80000 90000=
07314,1996-01-21 06:00:00,7,1003.4,-0.4,87,5,25000,18.52,,,100,7.2,9.3,,,,,,,,,wg-a,,,,AAXX 21064 07314 12/75 21010 10070 20050 30006 40034 56004 60006 80002 90600 333 10093 20072=
07314,1996-01-21 12:00:00,10,1002.7,-1.4,82,7,0,22.224,,,90,,,,,,,,,,,wg-a,,,,AAXX 21124 07314 12/// /0912 10100 20070 39999 40027 58014 60006 91200=
07314,1996-01-21 18:00:00,11,1001.7,0,87,9,25000,14.816,,,70,7.2,11.7,,,,,,,,,wg-a,,,,AAXX 21184 07314 12675 70708 10110 20090 39989 40017 50000 60006 875// 91800 333 10117 20072=
07314,1996-01-22 00:00:00,10,1000.4,-0.7,82,7,500,14.816,,,90,,,,,,,,,,,wg-a,,,,AAXX 22004 07314 12600 80908 10100 20070 39976 40004 58007 60006 885// 90000=
07314,1996-01-22 06:00:00,11,997.1,-1.2,82,8,500,22.224,,,80,9.7,11,,,,,,,,,wg-a,,,,AAXX 22064 07314 12800 80812 10110 20080 39944 49971 58012 60006 8802/ 90600 333 10110 20097=
07314,1996-01-22 12:00:00,10,998.5,1.4,87,8,16000,42.596,,,220,,,,0,,,,,,61,wg-a,,,,AAXX 22124 07314 02466 82223 10100 20080 39958 49985 53014 60016 76162 8672/ 91200 333 60007=
07314,1996-01-22 18:00:00,9,1000.1,0.9,93,8,18000,14.816,,,100,9.3,12.1,,,,,,,,2,wg-a,,,,AAXX 22184 07314 32568 51008 10090 20080 39973 40001 51009 70262 83402 91800 333 10121 20093=
07314,1996-01-23 00:00:00,9,998.4,-1.7,93,8,25000,22.224,,,60,,,,2,,,,,,2,wg-a,,,,AAXX 23004 07314 02575 40612 10090 20080 39956 49984 58017 60026 70262 84500 90000 333 60027=
07314,1996-01-23 06:00:00,9,993.3,-2.9,100,9,25000,14.816,,,70,8.4,9.6,,0,,,,,,61,wg-a,,,,AAXX 23064 07314 12575 80708 10090 20090 39906 49933 56029 60007 76162 885// 90600 333 10096 20084=
07314,1996-01-23 12:00:00,11,992.4,-0.1,87,9,18000,25.928,,,180,,,,3,,,,,,80,wg-a,,,,AAXX 23124 07314 02568 71814 10110 20090 39897 49924 58001 60136 78086 8683/ 91200 333 60037=
07314,1996-01-24 00:00:00,11,997.3,1.9,94,10,0,31.484,,,210,,,,,,,,,,,wg-a,,,,AAXX 24004 07314 12/// /2117 10110 20100 39946 49973 51019 60026 90000=
07314,1996-01-24 06:00:00,11,998.9,0.9,87,9,20000,14.816,,,200,10.1,11.6,,,,,,,,2,wg-a,,,,AAXX 24064 07314 32570 12008 10110 20090 39962 49989 53009 70282 81200 90600 333 10116 20101=
07314,1996-01-24 12:00:00,12,1001.1,0.4,94,11,20000,0,,,0,,,,,,,,,,,wg-a,,,,AAXX 24124 07314 12570 70000 10120 20110 39984 40011 50004 60006 81148 91200=
07314,1996-01-24 18:00:00,10,1001.5,0.7,93,9,20000,11.112,,,340,8.4,12.7,,,,,,,,,wg-a,,,,AAXX 24184 07314 12/70 33406 10100 20090 39987 40015 51007 60006 82042 91800 333 10127 20084=
07314,1996-01-25 00:00:00,8,1001.3,-0.3,93,7,16000,7.408,,,30,,,,,,,,,,,wg-a,,,,AAXX 25004 07314 12/66 10304 10080 20070 39985 40013 56003 60006 80002 90000=
07314,1996-01-25 06:00:00,6,1000.1,-0.1,93,5,100,14.816,,,30,5.7,10.3,,,,,,,,47,wg-a,,,,AAXX 25064 07314 12/01 90308 10060 20050 39973 40001 56001 60006 74741 89/// 90600 333 10103 20057=
07314,1996-01-25 12:00:00,8,1001.1,0.2,93,7,4000,11.112,,,60,,,,,,,,,,2,wg-a,,,,AAXX 25124 07314 12440 80606 10080 20070 39983 40011 50002 60006 70242 886// 91200=
07314,1996-01-25 18:00:00,8,1002.6,1.5,93,7,500,7.408,,,60,5.4,8.3,,,,,,,,,wg-a,,,,AAXX 25184 07314 12400 80604 10080 20070 39998 40026 51015 60006 8561/ 91800 333 10083 20054=
07314,1996-01-26 00:00:00,7,1004.9,0.9,93,6,6000,14.816,,,80,,,,,,,,,,2,wg-a,,,,AAXX 26004 07314 12456 80808 10070 20060 30021 40049 51009 60006 70262 8462/ 90000=
07314,1996-01-26 06:00:00,6,1005.6,0.2,100,6,6000,11.112,,,70,6.4,7.8,,,,,,,,,wg-a,,,,AAXX 26064 07314 32456 80706 10060 20060 30028 40056 53002 8461/ 90600 333 10078 20064=
07314,1996-01-26 12:00:00,6,1007.7,0.4,93,5,1500,11.112,,,30,,,,,,,,,,10,wg-a,,,,AAXX 26124 07314 12215 80306 10060 20050 30049 40077 53004 60006 71022 886// 91200=
07314,1996-01-26 18:00:00,5,1008.1,1,100,5,1500,22.224,,,40,4.8,6.4,,,,,,,,10,wg-a,,,,AAXX 26184 07314 12215 80412 10050 20050 30053 40081 53010 60006 71022 886// 91800 333 10064 20048=
07314,1996-01-27 00:00:00,3,1009,-0.3,100,3,500,25.928,,,40,,,,,,,,,,,wg-a,,,,AAXX 27004 07314 12300 80414 10030 20030 30061 40090 58003 60006 886// 90000=
07314,1996-01-27 06:00:00,2,1008.3,-0.4,100,2,500,29.632,,,50,2.1,4.9,,,,,,,,45,wg-a,,,,AAXX 27064 07314 12/05 90516 10020 20020 30054 40083 56004 60006 74542 89/// 90600 333 10049 20021=
07314,1996-01-27 12:00:00,5,1008.5,-0.4,,,2000,14.816,,,80,,,,,,,,,,28,wg-a,,,,AAXX 27124 07314 12220 80808 10050 2//// 30057 40085 58004 60006 72842 886// 91200=
07314,1996-01-27 18:00:00,8,1007.5,0.2,,,6000,22.224,,,70,2.3,10.9,,,,,,,,,wg-a,,,,AAXX 27184 07314 12/56 20712 10080 2//// 30047 40075 50002 60006 82040 91800 333 10109 20023=
07314,1996-01-28 00:00:00,7,1007.1,-0.3,,,16000,25.928,,50.004,80,,,,,,,,,,,wg-a,,,,AAXX 28004 07314 12/66 20814 10070 2//// 30043 40071 58003 60006 80002 90000 333 91027=
07314,1996-01-28 06:00:00,7,1004.5,-1,,,16000,22.224,,,80,7,8,,,,,,,,,wg-a,,,,AAXX 28064 07314 12/66 30812 10070 2//// 30017 40045 56010 60006 82042 90600 333 10080 20070=
07314,1996-01-28 12:00:00,10,1003.6,-0.1,,,16000,25.928,,53.708,90,,,,,,,,,,,wg-a,,,,AAXX 28124 07314 12566 70914 10100 2//// 30008 40036 58001 60006 84542 91200 333 91029=
07314,1996-01-28 18:00:00,10,1003.7,0.7,,,0,18.52,,,80,7.2,11.3,,,,,,,,,wg-a,,,,AAXX 28184 07314 12/// /0810 10100 2//// 30009 40037 53007 60006 91800 333 10113 20072=
07314,1996-01-29 00:00:00,9,1004.8,0.4,,,14000,14.816,,,70,,,,,,,,,,,wg-a,,,,AAXX 29004 07314 12/64 10708 10090 2//// 30020 40048 50004 60006 80001 90000=
07314,1996-01-29 06:00:00,8,1005.5,0.7,,,15000,14.816,,,70,7.7,9.5,,,,,,,,,wg-a,,,,AAXX 29064 07314 12865 50708 10080 2//// 30027 40055 53007 60006 84071 90600 333 10095 20077=
07314,1996-01-29 12:00:00,10,1007.8,0.6,,,15000,18.52,,,60,,,,,,,,,,,wg-a,,,,AAXX 29124 07314 12565 50610 10100 2//// 30050 40078 50006 60006 83501 91200=
07314,1996-01-29 18:00:00,9,1009.7,1.8,,,10000,29.632,,,40,7.2,11.1,,,,,,,,,wg-a,,,,AAXX 29184 07314 12560 30416 10090 2//// 30069 40097 53018 60006 81501 91800 333 10111 20072=
07314,1996-01-30 00:00:00,9,1012,1.1,,,15000,14.816,,,70,,,,,,,,,,,wg-a,,,,AAXX 30004 07314 12665 70708 10090 2//// 30092 40120 51011 60006 875// 90000=
07314,1996-01-30 06:00:00,9,1014,1.4,,,15000,14.816,,,80,8.2,9.1,,,,,,,,,wg-a,,,,AAXX 30064 07314 12665 80808 10090 2//// 30112 40140 53014 60006 885// 90600 333 10091 20082=
07314,1996-01-30 12:00:00,11,1016.6,0.8,,,6000,11.112,,,40,,,,,,,,,,,wg-a,,,,AAXX 30124 07314 12/56 40406 10110 2//// 30138 40166 50008 60006 82042 91200=
07314,1996-01-30 18:00:00,10,1016.5,0.8,,,6000,14.816,,,60,8,11.8,,,,,,,,,wg-a,,,,AAXX 30184 07314 12/56 60608 10100 2//// 30137 40165 53008 60006 82042 91800 333 10118 20080=
07314,1996-01-31 00:00:00,6,1017.1,-0.1,,,6000,22.224,,,70,,,,,,,,,,,wg-a,,,,AAXX 31004 07314 12/56 00712 10060 2//// 30142 40171 58001 60006 80000 90000=
07314,1996-01-31 06:00:00,2,1015.6,-0.8,,,0,25.928,,,50,2.2,10.3,,,,,,,,,wg-a,,,,AAXX 31064 07314 12/// /0514 10020 2//// 30127 40156 56008 60006 90600 333 10103 20022=
07314,1996-01-31 12:00:00,2,1014.8,-1.2,,,4000,22.224,,,60,,,,,,,,,,,wg-a,,,,AAXX 31124 07314 12340 70612 10020 2//// 30119 40148 58012 60006 876// 91200=
07314,1996-01-31 18:00:00,1,1013.1,-0.3,,,4000,25.928,,,50,1,2.4,,,,,,,,,wg-a,,,,AAXX 31184 07314 12340 70514 10010 2//// 30102 40131 55003 60006 876// 91800 333 10024 20010=
07314,1996-02-01 00:00:00,3,1011.3,-1,,,7000,18.52,,,90,,,,,,,,,,,wg-a,,,,AAXX 01004 07314 12457 10910 10030 2//// 30084 40113 56010 60006 81100 90000=
07314,1996-02-01 06:00:00,4,1010.5,-0.7,,,500,18.52,,,130,0.9,3.9,,,,,,,,,wg-a,,,,AAXX 01064 07314 12/00 01310 10040 2//// 30076 40105 57007 60006 80000 90600 333 10039 20009=
07314,1996-02-01 12:00:00,9,1010.3,-0.5,66,3,18000,18.52,,,110,,,,,,,,,,,wg-a,,,,AAXX 01124 07314 12/68 01110 10090 20030 30075 40103 58005 60006 80000 91200=
07314,1996-02-01 18:00:00,8,1009.2,0.5,87,6,20000,7.408,,,90,3.7,10.5,,,,,,,,,wg-a,,,,AAXX 01184 07314 12/70 40904 10080 20060 30064 40092 53005 60006 84050 91800 333 10105 20037=
07314,1996-02-02 00:00:00,8,1008.8,-0.3,93,7,20000,11.112,,,90,,,,,,,,,,,wg-a,,,,AAXX 02004 07314 12/70 40906 10080 20070 30060 40088 57003 60006 84030 90000=
07314,1996-02-02 06:00:00,8,1008.3,-0.2,93,7,18000,7.408,,,80,7,9.1,,,,,,,,,wg-a,,,,AAXX 02064 07314 12868 80804 10080 20070 30055 40083 58002 60006 8802/ 90600 333 10091 20070=
07314,1996-02-02 12:00:00,9,1009.6,0.3,93,8,10000,11.112,,,60,,,,,,,,,,,wg-a,,,,AAXX 02124 07314 12660 80606 10090 20080 30068 40096 50003 60006 8557/ 91200=
07314,1996-02-02 18:00:00,9,1010.4,1.3,93,8,10000,25.928,,,50,7.8,9.6,,,,,,,,21,wg-a,,,,AAXX 02184 07314 02560 80514 10090 20080 30076 40104 53013 61000 72162 885// 91800 333 10096 20078 ////=
07314,1996-02-03 00:00:00,6,1012.7,0.8,87,4,12000,25.928,,,50,,,,,,,,,,,wg-a,,,,AAXX 03004 07314 12662 30514 10060 20040 30099 40127 53008 60006 82530 90000=
07314,1996-02-03 06:00:00,5,1013.4,0.7,87,3,10000,25.928,,,40,4.3,9.2,,,,,,,,,wg-a,,,,AAXX 03064 07314 12/60 00414 10050 20030 30105 40134 53007 60006 80000 90600 333 10092 20043=
07314,1996-02-03 12:00:00,3,1014.9,0.2,93,2,2000,29.632,,,30,,,,,,,,,,10,wg-a,,,,AAXX 03124 07314 12320 70316 10030 20020 30120 40149 50002 60006 71022 87600 91200=
07314,1996-02-03 18:00:00,5,1014.6,0.7,75,1,10000,25.928,,,50,2.3,5.8,,,,,,,,,wg-a,,,,AAXX 03184 07314 12860 20514 10050 20010 30118 40146 53007 60006 82030 91800 333 10058 20023=
07314,1996-02-04 00:00:00,4,1016,0.8,81,1,7000,29.632,,,40,,,,,,,,,,,wg-a,,,,AAXX 04004 07314 12457 40416 10040 20010 30131 40160 52008 60006 84600 90000=
07314,1996-02-04 06:00:00,3,1016,0.6,87,1,7000,29.632,,,20,3.1,5.5,,,,,,,,,wg-a,,,,AAXX 04064 07314 12457 80216 10030 20010 30131 40160 51006 60006 886// 90600 333 10055 20031=
07314,1996-02-04 12:00:00,5,1018.3,0.6,56,-3,16000,25.928,,,10,,,,,,,,,,,wg-a,,,,AAXX 04124 07314 12566 70114 10050 21030 30154 40183 51006 60006 878// 91200=
07314,1996-02-04 18:00:00,3,1019,1.2,65,-3,18000,31.484,,,360,2.9,5.2,,,,,,,,,wg-a,,,,AAXX 04184 07314 12568 83617 10030 21030 30161 40190 53012 60006 888// 91800 333 10052 20029=
07314,1996-02-05 00:00:00,2,1019.1,-0.1,69,-3,0,7.408,,,10,,,,,,,,,,,wg-a,,,,AAXX 05004 07314 12/// /0104 10020 21030 30162 40191 58001 60006 90000=
07314,1996-02-05 06:00:00,-1,1016.7,-1.2,80,-4,20000,11.112,,,130,-1.2,3,,,,,,,,,wg-a,,,,AAXX 05064 07314 12/70 01306 11010 21040 30138 40167 56012 60006 80000 90600 333 10030 21012=
07314,1996-02-05 12:00:00,4,1012.7,-2.8,70,-1,8000,14.816,,,140,,,,,,,,,,,wg-a,,,,AAXX 05124 07314 12558 61408 10040 21010 30098 40127 58028 60006 86105 91200=
07314,1996-02-05 18:00:00,4,1002.3,-5,70,-1,15000,29.632,,,130,-1.2,5.1,,,,,,,,,wg-a,,,,AAXX 05184 07314 12/65 71316 10040 21010 39995 40023 56050 60006 85056 91800 333 10051 21012=
07314,1996-02-06 00:00:00,4,991.6,-5.6,100,4,6000,35.188,,57.412,160,,,,4,,,,,,50,wg-a,,,,AAXX 06004 07314 02256 81619 10040 20040 39888 49916 56056 60076 75065 8372/ 90000 333 60047 91031=
07314,1996-02-06 06:00:00,8,986,-1.9,87,6,18000,53.708,,94.452,280,2.3,10.2,,3,,,,,,20,wg-a,,,,AAXX 06064 07314 12468 82829 10080 20060 39833 49860 56019 60037 72086 883// 90600 333 10102 20023 91051=
07314,1996-02-06 12:00:00,10,995.1,3.9,66,4,15000,57.412,,100.008,310,,,,,,,,,,2,wg-a,,,,AAXX 06124 07314 12565 63131 10100 20040 39923 49951 51039 60026 70282 83271 91200 333 91054=
07314,1996-02-06 18:00:00,9,1003.2,4.2,53,0,18000,57.412,,100.008,320,7.8,10,,,,,,,,,wg-a,,,,AAXX 06184 07314 32568 43231 10090 20000 30004 40032 51042 84800 91800 333 10100 20078 91054=
07314,1996-02-07 00:00:00,8,1007,0.3,66,2,25000,25.928,,83.34,320,,,,,,,,,,,wg-a,,,,AAXX 07004 07314 12875 83214 10080 20020 30042 40070 51003 60006 8807/ 90000 333 91045=
07314,1996-02-07 06:00:00,5,999,-5.9,93,4,8000,18.52,,,140,5,9,,1,,,,,,61,wg-a,,,,AAXX 07064 07314 12758 81410 10050 20040 39962 49990 58059 60017 76162 8808/ 90600 333 10090 20050=
07314,1996-02-07 12:00:00,11,990.5,-1,71,6,15000,57.412,,107.416,290,,,,4,,,,,,21,wg-a,,,,AAXX 07124 07314 02465 62931 10110 20060 39878 49905 55010 60126 72186 83960 91200 333 60047 91058=
07314,1996-02-07 18:00:00,9,987.2,-2.9,93,8,500,0,,125.936,0,4.9,12,,2,,,,,,25,wg-a,,,,AAXX 07184 07314 12400 70000 10090 20080 39845 49872 56029 60027 72582 85960 91800 333 10120 20049 91068=
07314,1996-02-08 00:00:00,6,1006.9,0.2,75,2,25000,0,,,0,,,,,,,,,,2,wg-a,,,,AAXX 08004 07314 12/75 00000 10060 20020 30041 40069 51102 60016 70282 80000 90000=
07314,1996-02-08 06:00:00,8,1015.1,3.5,76,4,500,0,,,0,5.9,9.3,,,,,,,,,wg-a,,,,AAXX 08064 07314 32500 30000 10080 20040 30123 40151 53035 83200 90600 333 10093 20059=
07314,1996-02-08 12:00:00,9,1020.8,2.1,61,2,25000,0,,,0,,,,,,,,,,,wg-a,,,,AAXX 08124 07314 12575 2//// 10090 20020 30180 40208 51021 60006 82200 91200=
07314,1996-02-08 18:00:00,8,1023.3,,71,3,500,11.112,,,320,7.4,9.1,,,,,,,,,wg-a,,,,AAXX 08184 07314 12500 23206 10080 20030 30205 40233 60006 82500 91800 333 10091 20074=
07314,1996-02-09 00:00:00,6,1021.5,-1.4,87,4,25000,22.224,,,160,,,,,,,,,,,wg-a,,,,AAXX 09004 07314 12/75 01612 10060 20040 30186 40215 56014 60006 80000 90000=
07314,1996-02-09 06:00:00,3,1016.7,-2.5,87,1,25000,14.816,,,140,2.9,8.3,,,,,,,,,wg-a,,,,AAXX 09064 07314 12675 81408 10030 20010 30138 40167 56025 60006 885// 90600 333 10083 20029=
07314,1996-02-09 12:00:00,8,1013.2,-1.5,61,1,20000,35.188,,,160,,,,,,,,,,,wg-a,,,,AAXX 09124 07314 12870 71619 10080 20010 30104 40132 58015 60006 8701/ 91200=
07314,1996-02-09 18:00:00,11,1010.3,-0.1,87,9,0,31.484,,,220,3,10.5,,,,,,,,,wg-a,,,,AAXX 09184 07314 32/// /2217 10110 20090 30075 40103 55001 91800 333 10105 20030=
07314,1996-02-10 00:00:00,10,1012.8,1.3,71,5,500,31.484,,61.116,250,,,,,,,,,,,wg-a,,,,AAXX 10004 07314 12500 22517 10100 20050 30100 40128 51013 60006 82100 90000 333 91033=
07314,1996-02-10 06:00:00,9,1013.4,0.1,76,5,25000,38.892,,72.228,240,7.7,10.6,,,,,,,,25,wg-a,,,,AAXX 10064 07314 32575 32421 10090 20050 30106 40134 53001 72580 82160 90600 333 10106 20077 91039=
07314,1996-02-10 12:00:00,11,1014.1,-0.1,71,6,18000,31.484,,72.228,240,,,,0,,,,,,25,wg-a,,,,AAXX 10124 07314 02568 52417 10110 20060 30113 40141 58001 60016 72581 84960 91200 333 60007 91039=
07314,1996-02-10 18:00:00,9,1014.9,0.8,76,5,15000,31.484,,68.524,260,8,10.9,,1,,,,,,15,wg-a,,,,AAXX 10184 07314 12565 52617 10090 20050 30121 40149 53008 60017 71582 84960 91800 333 10109 20080 91037=
07314,1996-02-11 00:00:00,8,1016.3,0.4,87,6,25000,14.816,,57.412,240,,,,2,,,,,,2,wg-a,,,,AAXX 11004 07314 02/75 22408 10080 20060 30135 40163 50004 60026 70280 80002 90000 333 60027 91031=
07314,1996-02-11 06:00:00,9,1017,0.8,81,6,25000,29.632,,,270,6.8,9.4,,1,,,,,,2,wg-a,,,,AAXX 11064 07314 12/75 22716 10090 20060 30142 40170 52008 60017 70280 82900 90600 333 10094 20068=
07314,1996-02-11 12:00:00,9,1019.3,1,81,6,20000,22.224,,,330,,,,1,,,,,,25,wg-a,,,,AAXX 11124 07314 02570 63312 10090 20060 30165 40193 51010 60016 72581 85960 91200 333 60017=
07314,1996-02-11 18:00:00,10,1019.1,0.2,87,8,20000,22.224,,,260,7.6,10.6,,0,,,,,,15,wg-a,,,,AAXX 11184 07314 12570 62612 10100 20080 30163 40191 53002 60007 71582 84462 91800 333 10106 20076=
07314,1996-02-12 00:00:00,10,1017,-1.7,87,8,20000,22.224,,,230,,,,1,,,,,,60,wg-a,,,,AAXX 12004 07314 02770 82312 10100 20080 30142 40170 56017 60016 76062 8802/ 90000 333 60017=
07314,1996-02-12 06:00:00,11,1009.4,-3.7,94,10,0,46.3,,,230,9.5,11.1,,,,,,,,,wg-a,,,,AAXX 12064 07314 32/// /2325 10110 20100 30066 40094 56037 90600 333 10111 20095=
07314,1996-02-12 12:00:00,11,1004.6,-1.3,94,10,6000,46.3,,,260,,,,5,,,,,,21,wg-a,,,,AAXX 12124 07314 02456 72625 10110 20100 30018 40046 56013 60056 72186 8696/ 91200 333 60057=
07314,1996-02-12 18:00:00,11,1006.4,0.7,71,6,6000,53.708,,,270,9.7,11.6,,,,,,,,,wg-a,,,,AAXX 12184 07314 32556 32729 10110 20060 30036 40064 53007 83100 91800 333 10116 20097=
07314,1996-02-13 00:00:00,10,1009.8,1.5,82,7,25000,35.188,,72.228,290,,,,,,,,,,,wg-a,,,,AAXX 13004 07314 12/75 02919 10100 20070 30070 40098 51015 60006 80000 90000 333 91039=
07314,1996-02-13 06:00:00,9,1010.8,1,87,7,25000,35.188,,68.524,310,8.1,10.8,,1,,,,,,25,wg-a,,,,AAXX 13064 07314 12575 33119 10090 20070 30080 40108 53010 60017 72580 83400 90600 333 10108 20081 91037=
07314,1996-02-13 12:00:00,9,1013.2,0.5,71,4,8000,22.224,,,340,,,,,,,,,,,wg-a,,,,AAXX 13124 07314 12558 23412 10090 20040 30104 40132 50005 60006 82100 91200=
07314,1996-02-13 18:00:00,8,1015.1,1.6,66,2,25000,31.484,,,360,8,10,,,,,,,,,wg-a,,,,AAXX 13184 07314 12575 33617 10080 20020 30123 40151 53016 60006 82140 91800 333 10100 20080=
07314,1996-02-14 00:00:00,5,1020.6,2.5,81,2,18000,38.892,,,20,,,,,,,,,,,wg-a,,,,AAXX 14004 07314 12/68 00221 10050 20020 30177 40206 53025 60006 80000 90000=
07314,1996-02-14 06:00:00,4,1023.4,1.6,87,2,20000,46.3,,,360,4.2,8,,,,,,,,,wg-a,,,,AAXX 14064 07314 12570 33625 10040 20020 30205 40234 53016 60006 83500 90600 333 10080 20042=
07314,1996-02-14 12:00:00,6,1027.7,1.6,75,2,12000,42.596,,,20,,,,,,,,,,,wg-a,,,,AAXX 14124 07314 12562 70223 10060 20020 30248 40277 51016 60006 875// 91200=
07314,1996-02-14 18:00:00,5,1030.7,2.4,70,0,16000,31.484,,,40,4.4,6.1,,,,,,,,,wg-a,,,,AAXX 14184 07314 12566 80417 10050 20000 30278 40307 53024 60006 885// 91800 333 10061 20044=
07314,1996-02-15 00:00:00,4,1034,1.3,70,-1,20000,38.892,,,40,,,,,,,,,,,wg-a,,,,AAXX 15004 07314 12570 80421 10040 21010 30311 40340 51013 60006 885// 90000=
07314,1996-02-15 06:00:00,2,1035.5,0.7,75,-2,0,29.632,,,40,1.9,5.2,,,,,,,,,wg-a,,,,AAXX 15064 07314 12/// /0416 10020 21020 30326 40355 51007 60006 90600 333 10052 20019=
07314,1996-02-15 12:00:00,3,1036.9,-0.3,70,-2,10000,22.224,,,30,,,,,,,,,,,wg-a,,,,AAXX 15124 07314 12560 70312 10030 21020 30340 40369 58003 60006 875// 91200=
07314,1996-02-15 18:00:00,4,1035.8,0.5,70,-1,6000,25.928,,,30,1.3,4.4,,,,,,,,,wg-a,,,,AAXX 15184 07314 12556 20314 10040 21010 30329 40358 53005 60006 82500 91800 333 10044 20013=
07314,1996-02-16 00:00:00,3,1036.7,0.6,75,-1,12000,14.816,,,20,,,,,,,,,,,wg-a,,,,AAXX 16004 07314 12/62 20208 10030 21010 30338 40367 53006 60006 82030 90000=
07314,1996-02-16 06:00:00,5,1035.1,-0.5,75,1,12000,14.816,,,310,2.9,4.7,,,,,,,,,wg-a,,,,AAXX 16064 07314 12/62 23108 10050 20010 30322 40351 55005 60006 82030 90600 333 10047 20029=
07314,1996-02-16 12:00:00,8,1034.9,-0.3,81,5,16000,14.816,,,280,,,,,,,,,,,wg-a,,,,AAXX 16124 07314 12566 72808 10080 20050 30320 40349 58003 60006 875// 91200=
07314,1996-02-16 18:00:00,9,1033.3,0.3,87,7,18000,18.52,,,290,4.7,8.9,,,,,,,,,wg-a,,,,AAXX 16184 07314 12568 82910 10090 20070 30304 40333 53003 60006 885// 91800 333 10089 20047=
07314,1996-02-17 00:00:00,9,1032.6,-0.2,93,8,4000,25.928,,,300,,,,,,,,,,50,wg-a,,,,AAXX 17004 07314 02540 83014 10090 20080 30297 40326 57002 61000 75052 885// 90000 333 6100=
07314,1996-02-17 06:00:00,9,1031,-0.6,81,6,20000,25.928,,,320,8.4,9.4,,,,,,,,20,wg-a,,,,AAXX 17064 07314 02570 23214 10090 20060 30281 40310 56006 61000 72000 82500 90600 333 10094 20084 ////=
07314,1996-02-17 12:00:00,10,1032.1,0.3,76,6,10000,22.224,,,300,,,,,,,,,,,wg-a,,,,AAXX 17124 07314 12560 33012 10100 20060 30292 40321 50003 60006 83500 91200=
07314,1996-02-17 18:00:00,9,1030.6,-0.1,76,5,16000,14.816,,,290,8.3,9.8,,,,,,,,,wg-a,,,,AAXX 17184 07314 12566 72908 10090 20050 30277 40306 58001 60006 875// 91800 333 10098 20083=
07314,1996-02-18 00:00:00,9,1027.1,-2.9,87,7,25000,22.224,,,210,,,,,,,,,,,wg-a,,,,AAXX 18004 07314 12575 82112 10090 20070 30243 40271 58029 60006 885// 90000=
07314,1996-02-18 06:00:00,9,1020.4,-3.6,81,6,25000,29.632,,,260,8.7,9.6,,,,,,,,,wg-a,,,,AAXX 18064 07314 12575 82616 10090 20060 30176 40204 57036 60006 888// 90600 333 10096 20087=
07314,1996-02-18 12:00:00,10,1013.3,-4.4,87,8,15000,46.3,,,240,,,,,,,,,,,wg-a,,,,AAXX 18124 07314 12565 82425 10100 20080 30105 40133 56044 60006 885// 91200=
07314,1996-02-18 18:00:00,9,1008.3,-1.7,81,6,12000,31.484,,75.932,290,8.1,10.3,,0,,,,,,21,wg-a,,,,AAXX 18184 07314 12562 82917 10090 20060 30055 40083 55017 60007 72162 888// 91800 333 10103 20081 91041=
07314,1996-02-19 06:00:00,8,999,-3,87,6,18000,38.892,,75.932,260,6.6,9.3,,,,,,,,60,wg-a,,,,AAXX 19064 07314 02368 82621 10080 20060 39962 49990 56030 61000 76062 8/72/ 90600 333 10093 20066 //// 91041=
07314,1996-02-19 12:00:00,6,1004.1,3.9,75,2,20000,50.004,,72.228,10,,,,,,,,,,2,wg-a,,,,AAXX 19124 07314 12570 70127 10060 20020 30013 40041 53039 60016 70282 8653/ 91200 333 91039=
07314,1996-02-19 18:00:00,4,1009.9,3.4,60,-3,20000,50.004,,,350,3.9,8.6,,,,,,,,,wg-a,,,,AAXX 19184 07314 32570 63527 10040 21030 30070 40099 52034 86500 91800 333 10086 20039=
07314,1996-02-20 00:00:00,3,1012.9,0,75,-1,25000,31.484,,72.228,340,,,,,,,,,,,wg-a,,,,AAXX 20004 07314 12/75 03417 10030 21010 30100 40129 50000 60006 80000 90000 333 91039=
07314,1996-02-20 06:00:00,1,1012.7,0.7,80,-2,25000,35.188,,53.708,340,0.6,4.1,,0,,,,,,2,wg-a,,,,AAXX 20064 07314 12575 23419 10010 21020 30098 40127 53007 60007 70280 82100 90600 333 10041 20006 91029=
07314,1996-02-20 12:00:00,2,1013.2,0.6,87,0,8000,46.3,,68.524,10,,,,,,,,,,22,wg-a,,,,AAXX 20124 07314 02558 70125 10020 20000 30103 40132 53006 61000 72272 878// 91200 333 6100 91037=
07314,1996-02-20 18:00:00,2,1016.9,1.8,75,-2,8000,38.892,,72.228,20,0.7,3.1,,,,,,,,,wg-a,,,,AAXX 20184 07314 32558 70221 10020 21020 30140 40169 53018 878// 91800 333 10031 20007 91039=
07314,1996-02-21 00:00:00,1,1018.4,0.7,75,-3,25000,42.596,,,20,,,,,,,,,,,wg-a,,,,AAXX 21004 07314 12575 80223 10010 21030 30155 40184 52007 60006 888// 90000=
07314,1996-02-21 06:00:00,1,1018.5,0.1,80,-2,25000,42.596,,,10,0.3,2.2,,,,,,,,,wg-a,,,,AAXX 21064 07314 12575 80123 10010 21020 30156 40185 52001 60006 888// 90600 333 10022 20003=
07314,1996-02-21 12:00:00,0,1020.6,0.4,74,-4,20000,35.188,,,10,,,,,,,,,,,wg-a,,,,AAXX 21124 07314 12570 60119 10000 21040 30177 40206 50004 60006 86500 91200=
07314,1996-02-21 18:00:00,2,1022.7,1.8,47,-8,25000,42.596,,,20,-0.7,2,,,,,,,,,wg-a,,,,AAXX 21184 07314 12575 10223 10020 21080 30198 40227 53018 60006 81500 91800 333 10020 21007=
07314,1996-02-22 00:00:00,0,1026.1,1.3,74,-4,500,31.484,,,10,,,,,,,,,,,wg-a,,,,AAXX 22004 07314 12500 20117 10000 21040 30232 40261 51013 60006 82500 90000=
07314,1996-02-22 06:00:00,1,1027.2,0.5,69,-4,500,18.52,,,360,0,1.6,,,,,,,,,wg-a,,,,AAXX 22064 07314 12500 23610 10010 21040 30243 40272 53005 60006 82500 90600 333 10016 20000=
07314,1996-02-22 12:00:00,3,1027.5,-0.6,75,-1,18000,14.816,,,200,,,,,,,,,,,wg-a,,,,AAXX 22124 07314 12668 82008 10030 21010 30246 40275 58006 60006 8802/ 91200=
07314,1996-02-22 18:00:00,7,1021.4,-2.1,93,6,6000,22.224,,,240,1.2,7.3,,4,,,,,,60,wg-a,,,,AAXX 22184 07314 12356 82412 10070 20060 30186 40214 57021 60047 76062 8/77/ 91800 333 10073 20012=
07314,1996-02-23 00:00:00,7,1019.2,-0.3,87,5,25000,29.632,,,330,,,,2,,,,,,25,wg-a,,,,AAXX 23004 07314 02575 63316 10070 20050 30164 40192 56003 60026 72586 84460 90000 333 60027=
07314,1996-02-23 06:00:00,6,1018.7,-0.3,81,3,25000,25.928,,,340,6.2,8.7,,,,,,,,,wg-a,,,,AAXX 23064 07314 32/75 43414 10060 20030 30159 40187 57003 83042 90600 333 10087 20062=
07314,1996-02-23 12:00:00,9,1019.1,-0.5,57,1,25000,7.408,,,220,,,,,,,,,,,wg-a,,,,AAXX 23124 07314 12775 62204 10090 20010 30163 40191 58005 60006 83570 91200=
07314,1996-02-23 18:00:00,8,1017.9,-0,76,4,500,18.52,,,190,6.3,9,,,,,,,,,wg-a,,,,AAXX 23184 07314 12700 41910 10080 20040 30151 40179 55000 60006 83531 91800 333 10090 20063=
07314,1996-02-24 00:00:00,8,1016.2,-1.1,93,7,500,18.52,,,180,,,,,,,,,,,wg-a,,,,AAXX 24004 07314 12600 81810 10080 20070 30134 40162 58011 60006 8557/ 90000=
07314,1996-02-24 06:00:00,9,1013,-1.6,93,8,500,25.928,,,180,7.6,8.6,,,,,,,,,wg-a,,,,AAXX 24064 07314 12600 71814 10090 20080 30102 40130 56016 60006 8557/ 90600 333 10086 20076=
07314,1996-02-24 12:00:00,10,1011.7,-0.8,82,7,20000,35.188,,,200,,,,0,,,,,,25,wg-a,,,,AAXX 24124 07314 02470 72019 10100 20070 30089 40117 58008 60016 72582 8587/ 91200 333 60007=
07314,1996-02-24 18:00:00,10,1009.4,-0.7,87,8,15000,38.892,,61.116,190,8.5,10.2,,,,,,,,2,wg-a,,,,AAXX 24184 07314 32465 81921 10100 20080 30066 40094 55007 70282 8587/ 91800 333 10102 20085 91033=
07314,1996-02-25 00:00:00,10,1007.6,-1,82,7,500,31.484,,53.708,180,,,,,,,,,,,wg-a,,,,AAXX 25004 07314 12600 81817 10100 20070 30048 40076 57010 60006 8557/ 90000 333 91029=
07314,1996-02-25 06:00:00,9,1005.2,-0.8,87,7,25000,38.892,,,180,9.1,9.8,,,,,,,,,wg-a,,,,AAXX 25064 07314 12575 41821 10090 20070 30024 40052 56008 60006 8251/ 90600 333 10098 20091=
07314,1996-02-25 12:00:00,10,1004.9,-0.6,87,8,15000,35.188,,94.452,170,,,,,,,,,,,wg-a,,,,AAXX 25124 07314 12665 61719 10100 20080 30021 40049 56006 60006 82531 91200 333 91051=
07314,1996-02-25 18:00:00,10,1003,-0.5,87,8,12000,22.224,,,180,9,11.2,,,,,,,,,wg-a,,,,AAXX 25184 07314 12662 71812 10100 20080 30002 40030 56005 60006 8257/ 91800 333 10112 20090=
07314,1996-02-26 00:00:00,8,1005.8,1,93,7,20000,7.408,,,340,,,,,,,,,,,wg-a,,,,AAXX 26004 07314 12570 83404 10080 20070 30030 40058 53010 60006 8457/ 90000=
07314,1996-02-26 06:00:00,6,1008.3,2,93,5,25000,25.928,,,10,6.1,10.3,,,,,,,,21,wg-a,,,,AAXX 26064 07314 02275 80114 10060 20050 30055 40083 53020 61000 72162 8/77/ 90600 333 10103 20061 ////=
07314,1996-02-26 12:00:00,8,1012.3,1.8,76,4,25000,11.112,,,310,,,,,,,,,,,wg-a,,,,AAXX 26124 07314 12575 83106 10080 20040 30095 40123 51018 60006 888// 91200=
07314,1996-02-26 18:00:00,8,1014.2,1.7,81,5,25000,7.408,,,250,6.3,9.3,,,,,,,,,wg-a,,,,AAXX 26184 07314 12575 42504 10080 20050 30114 40142 53017 60006 82402 91800 333 10093 20063=
07314,1996-02-27 00:00:00,7,1016.5,0.9,87,5,25000,7.408,,,340,,,,,,,,,,,wg-a,,,,AAXX 27004 07314 12/75 03404 10070 20050 30137 40165 51009 60006 80000 90000=
07314,1996-02-27 06:00:00,3,1017.7,0.7,100,3,25000,7.408,,,130,3.4,7.9,,,,,,,,2,wg-a,,,,AAXX 27064 07314 32675 21304 10030 20030 30148 40177 53007 70260 82500 90600 333 10079 20034=
07314,1996-02-27 12:00:00,9,1019.2,0.3,71,4,25000,7.408,,,70,,,,,,,,,,,wg-a,,,,AAXX 27124 07314 12575 10704 10090 20040 30164 40192 50003 60006 81100 91200=
07314,1996-02-27 18:00:00,8,1019,0.5,76,4,25000,3.704,,,340,2.8,10.4,,,,,,,,,wg-a,,,,AAXX 27184 07314 12575 43402 10080 20040 30162 40190 53005 60006 81201 91800 333 10104 20028=
07314,1996-02-28 00:00:00,5,1020.2,0.1,93,4,25000,11.112,,,90,,,,,,,,,,,wg-a,,,,AAXX 28004 07314 12/75 40906 10050 20040 30173 40202 52001 60006 80001 90000=
07314,1996-02-28 06:00:00,5,1020.6,0.6,93,4,400,14.816,,,80,4.8,8,,,,,,,,47,wg-a,,,,AAXX 28064 07314 32/04 90808 10050 20040 30177 40206 53006 74741 89/// 90600 333 10080 20048=
07314,1996-02-28 12:00:00,5,1022.6,0.3,100,5,800,18.52,,,60,,,,,,,,,,43,wg-a,,,,AAXX 28124 07314 12/08 90610 10050 20050 30197 40226 51003 60006 74342 89/// 91200=
07314,1996-02-28 18:00:00,7,1024,1.2,87,5,500,22.224,,,30,3.8,7.6,,,,,,,,,wg-a,,,,AAXX 28184 07314 12300 80312 10070 20050 30211 40240 53012 60006 886// 91800 333 10076 20038=
07314,1996-02-29 06:00:00,5,1025.5,0.4,81,2,20000,31.484,,,30,5.1,6.9,,,,,,,,,wg-a,,,,AAXX 29064 07314 12570 80317 10050 20020 30226 40255 53004 60006 885// 90600 333 10069 20051=
07314,1996-02-29 12:00:00,7,1027,0.6,81,4,9000,25.928,,,30,,,,,,,,,,,wg-a,,,,AAXX 29124 07314 12459 80314 10070 20040 30241 40270 50006 60006 885// 91200=
07314,1996-02-29 18:00:00,8,1028.7,1.6,87,6,6000,18.52,,,50,5,8.5,,,,,,,,,wg-a,,,,AAXX 29184 07314 12356 80510 10080 20060 30258 40287 53016 60006 886// 91800 333 10085 20050=
07314,1996-03-01 00:00:00,7,1030.1,0.5,87,5,7000,22.224,,,20,,,,,,,,,,,wg-a,,,,AAXX 01004 07314 12357 30212 10070 20050 30272 40301 51005 60006 83600 90000=
07314,1996-03-01 06:00:00,5,1030.8,0.5,81,2,7000,29.632,,,40,5,8.3,,,,,,,,,wg-a,,,,AAXX 01064 07314 12857 50416 10050 20020 30279 40308 53005 60006 85030 90600 333 10083 20050=
07314,1996-03-01 12:00:00,9,1031.8,-0.3,76,5,8000,29.632,,,20,,,,,,,,,,,wg-a,,,,AAXX 01124 07314 12/58 10216 10090 20050 30289 40318 58003 60006 81040 91200=
07314,1996-03-01 18:00:00,9,1029.9,-0.2,81,6,8000,11.112,,,350,5,10.4,,,,,,,,,wg-a,,,,AAXX 01184 07314 12458 63506 10090 20060 30270 40299 55002 60006 86500 91800 333 10104 20050=
07314,1996-03-02 00:00:00,8,1028.6,-0.7,81,5,12000,31.484,,,360,,,,,,,,,,,wg-a,,,,AAXX 02004 07314 12562 73617 10080 20050 30257 40286 58007 60006 875// 90000=
07314,1996-03-02 06:00:00,6,1025.8,-0.7,87,4,12000,31.484,,,10,6.3,9.1,,,,,,,,,wg-a,,,,AAXX 02064 07314 12562 60117 10060 20040 30229 40258 56007 60006 86500 90600 333 10091 20063=
07314,1996-03-02 12:00:00,8,1025.5,-0.6,66,2,20000,35.188,,,20,,,,,,,,,,,wg-a,,,,AAXX 02124 07314 12470 20219 10080 20020 30226 40255 58006 60006 82100 91200=
07314,1996-03-02 18:00:00,7,1024.3,0.1,57,-1,0,31.484,,,30,6.3,7.8,,,,,,,,,wg-a,,,,AAXX 02184 07314 12/// /0317 10070 21010 30214 40243 53001 60006 91800 333 10078 20063=
07314,1996-03-03 00:00:00,4,1024.4,-0.6,70,-1,25000,14.816,,,30,,,,,,,,,,,wg-a,,,,AAXX 03004 07314 12/75 00308 10040 21010 30215 40244 57006 60006 80000 90000=
07314,1996-03-03 06:00:00,4,1022.2,-0.9,65,-2,25000,3.704,,,30,4,6.6,,,,,,,,,wg-a,,,,AAXX 03064 07314 12575 70302 10040 21020 30193 40222 56009 60006 875// 90600 333 10066 20040=
07314,1996-03-03 12:00:00,6,1022.3,-0.1,70,1,8000,7.408,,,340,,,,,,,,,,,wg-a,,,,AAXX 03124 07314 12858 63404 10060 20010 30194 40223 58001 60006 86030 91200=
07314,1996-03-03 18:00:00,7,1021.1,0.3,81,4,0,18.52,,,10,3.7,6.7,,,,,,,,,wg-a,,,,AAXX 03184 07314 12/// /0110 10070 20040 30182 40211 53003 60006 91800 333 10067 20037=
07314,1996-03-04 00:00:00,7,1021,-0.2,93,6,6000,22.224,,,350,,,,,,,,,,,wg-a,,,,AAXX 04004 07314 12556 83512 10070 20060 30182 40210 58002 60006 885// 90000=
07314,1996-03-04 06:00:00,6,1021.1,0.6,87,4,7000,25.928,,,20,5.7,6.9,,,,,,,,,wg-a,,,,AAXX 04064 07314 12557 80214 10060 20040 30182 40211 53006 60006 885// 90600 333 10069 20057=
07314,1996-03-04 12:00:00,7,1023.3,0.3,70,2,18000,18.52,,,50,,,,,,,,,,,wg-a,,,,AAXX 04124 07314 12468 40510 10070 20020 30204 40233 52003 60006 84100 91200=
07314,1996-03-04 18:00:00,6,1023.7,0.8,70,1,11000,25.928,,,350,5,7.2,,,,,,,,,wg-a,,,,AAXX 04184 07314 12561 53514 10060 20010 30208 40237 53008 60006 85500 91800 333 10072 20050=
07314,1996-03-05 00:00:00,5,1025.6,0.6,81,2,9000,14.816,,,10,,,,,,,,,,,wg-a,,,,AAXX 05004 07314 12/59 00108 10050 20020 30227 40256 53006 60006 80000 90000=
07314,1996-03-05 06:00:00,6,1026.4,0.8,87,4,6000,18.52,,,20,5,6.2,,,,,,,,,wg-a,,,,AAXX 05064 07314 12556 80210 10060 20040 30235 40264 53008 60006 885// 90600 333 10062 20050=
07314,1996-03-05 12:00:00,7,1027.9,0,81,4,6000,7.408,,,50,,,,,,,,,,,wg-a,,,,AAXX 05124 07314 12556 80504 10070 20040 30250 40279 50000 60006 885// 91200=
07314,1996-03-05 18:00:00,7,1027.1,0.1,70,2,8000,18.52,,,30,5.6,8.2,,,,,,,,,wg-a,,,,AAXX 05184 07314 12558 60310 10070 20020 30242 40271 53001 60006 86500 91800 333 10082 20056=
07314,1996-03-06 00:00:00,7,1027.1,-0.4,81,4,12000,18.52,,,30,,,,,,,,,,,wg-a,,,,AAXX 06004 07314 12562 60310 10070 20040 30242 40271 58004 60006 86500 90000=
07314,1996-03-06 06:00:00,6,1025.2,-0.9,81,3,12000,29.632,,,40,5.9,7.4,,,,,,,,,wg-a,,,,AAXX 06064 07314 12562 80416 10060 20030 30223 40252 56009 60006 88500 90600 333 10074 20059=
07314,1996-03-06 12:00:00,7,1023.6,-1.3,81,4,8000,29.632,,,40,,,,,,,,,,,wg-a,,,,AAXX 06124 07314 12458 80416 10070 20040 30207 40236 58013 60006 88600 91200=
07314,1996-03-06 18:00:00,7,1021,-0.7,76,3,12000,31.484,,,50,5.7,8.2,,,,,,,,,wg-a,,,,AAXX 06184 07314 12562 50517 10070 20030 30182 40210 55007 60006 84530 91800 333 10082 20057=
07314,1996-03-07 00:00:00,5,1019.9,-1.1,75,1,20000,35.188,,,30,,,,,,,,,,,wg-a,,,,AAXX 07004 07314 12570 80319 10050 20010 30170 40199 58011 60006 885// 90000=
07314,1996-03-07 06:00:00,3,1016,-1.7,87,1,8000,35.188,,,40,3.2,7.1,,,,,,,,,wg-a,,,,AAXX 07064 07314 12/58 00419 10030 20010 30131 40160 58017 60006 80000 90600 333 10071 20032=
07314,1996-03-07 12:00:00,6,1013.8,-1.5,75,2,8000,25.928,,,20,,,,,,,,,,,wg-a,,,,AAXX 07124 07314 12558 60214 10060 20020 30110 40138 58015 60006 86500 91200=
07314,1996-03-07 18:00:00,6,1012.1,-0.3,70,1,0,14.816,,,30,3.2,6.8,,,,,,,,,wg-a,,,,AAXX 07184 07314 12/// /0308 10060 20010 30093 40121 55003 60006 91800 333 10068 20032=
07314,1996-03-08 00:00:00,5,1012.5,-0,75,1,18000,7.408,,,90,,,,,,,,,,,wg-a,,,,AAXX 08004 07314 12568 60904 10050 20010 30096 40125 54000 60006 86500 90000=
07314,1996-03-08 06:00:00,2,1012.6,0.5,87,0,500,14.816,,,130,1.6,5.8,,,,,,,,,wg-a,,,,AAXX 08064 07314 12/00 11308 10020 20000 30097 40126 53005 60006 81040 90600 333 10058 20016=
07314,1996-03-08 12:00:00,8,1014.1,0.3,76,4,18000,11.112,,,130,,,,,,,,,,,wg-a,,,,AAXX 08124 07314 12668 71306 10080 20040 30113 40141 51003 60006 8553/ 91200=
07314,1996-03-08 18:00:00,8,1014,0.4,81,5,11000,14.816,,,80,1.5,9.9,,,,,,,,,wg-a,,,,AAXX 08184 07314 12561 80808 10080 20050 30112 40140 52004 60006 8457/ 91800 333 10099 20015=
07314,1996-03-09 00:00:00,7,1014.4,0.1,93,6,7000,7.408,,,60,,,,,,,,,,,wg-a,,,,AAXX 09004 07314 12557 80604 10070 20060 30116 40144 50001 60006 885// 90000=
07314,1996-03-09 06:00:00,7,1013.9,0.3,87,5,18000,18.52,,,140,6.7,7.7,,,,,,,,,wg-a,,,,AAXX 09064 07314 12568 21410 10070 20050 30111 40139 51003 60006 82500 90600 333 10077 20067=
07314,1996-03-09 12:00:00,16,1014.6,-0.1,51,6,20000,22.224,,,160,,,,,,,,,,,wg-a,,,,AAXX 09124 07314 12570 31612 10160 20060 30119 40146 57001 60006 82530 91200=
07314,1996-03-09 18:00:00,13,1014.9,0.8,58,5,25000,14.816,,,120,6.6,17,,,,,,,,,wg-a,,,,AAXX 09184 07314 12/75 11208 10130 20050 30121 40149 53008 60006 80001 91800 333 10170 20066=
07314,1996-03-10 00:00:00,8,1017.5,1.1,81,5,500,14.816,,,90,,,,,,,,,,,wg-a,,,,AAXX 10004 07314 12/00 00908 10080 20050 30147 40175 51011 60006 80000 90000=
07314,1996-03-10 06:00:00,7,1019.3,1.1,87,5,9000,11.112,,,60,7.1,13.2,,,,,,,,,wg-a,,,,AAXX 10064 07314 12/59 10606 10070 20050 30165 40193 53011 60006 80001 90600 333 10132 20071=
07314,1996-03-10 12:00:00,12,1020.7,-0,76,8,12000,14.816,,,20,,,,,,,,,,,wg-a,,,,AAXX 10124 07314 12/62 30208 10120 20080 30179 40207 54000 60006 80001 91200=
07314,1996-03-10 18:00:00,11,1020.3,0.2,66,5,15000,14.816,,,20,7.1,13.7,,,,,,,,,wg-a,,,,AAXX 10184 07314 12/65 00208 10110 20050 30175 40203 53002 60006 80000 91800 333 10137 20071=
07314,1996-03-11 06:00:00,4,1020.7,0.1,81,1,2500,29.632,,,20,4.1,10.8,,,,,,,,10,wg-a,,,,AAXX 11064 07314 12/25 00216 10040 20010 30178 40207 53001 60006 71000 80000 90600 333 10108 20041=
07314,1996-03-11 12:00:00,7,1020.3,-0.6,57,-1,2500,7.408,,,30,,,,,,,,,,10,wg-a,,,,AAXX 11124 07314 12/25 00304 10070 21010 30175 40203 58006 60006 71000 80000 91200=
07314,1996-03-12 00:00:00,5,1014.7,-1.7,87,3,6000,3.704,,,20,,,,,,,,,,,wg-a,,,,AAXX 12004 07314 12/56 00202 10050 20030 30119 40147 58017 60006 80000 90000=
07314,1996-03-12 06:00:00,4,1010,-1.9,93,3,0,11.112,,,100,2.8,7.3,,,,,,,,,wg-a,,,,AAXX 12064 07314 12/// /1006 10040 20030 30071 40100 56019 60006 90600 333 10073 20028=
07314,1996-03-12 12:00:00,10,1007,-2.1,62,3,7000,11.112,,,70,,,,,,,,,,,wg-a,,,,AAXX 12124 07314 12/57 70706 10100 20030 30042 40070 58021 60006 84011 91200=
07314,1996-03-12 18:00:00,10,1002,-2.1,66,4,9000,7.408,,,60,3.2,12.1,,,,,,,,,wg-a,,,,AAXX 12184 07314 12859 80604 10100 20040 39992 40020 56021 60006 8807/ 91800 333 10121 20032=
07314,1996-03-13 00:00:00,6,1000.6,-0.6,65,0,18000,18.52,,,80,,,,,,,,,,,wg-a,,,,AAXX 13004 07314 12868 60810 10060 20000 39978 40006 58006 60006 86070 90000=
07314,1996-03-13 06:00:00,4,998.3,-0.5,65,-2,18000,25.928,,,70,3.5,9.5,,,,,,,,,wg-a,,,,AAXX 13064 07314 12/68 20714 10040 21020 39955 49983 56005 60006 80001 90600 333 10095 20035=
07314,1996-03-13 12:00:00,10,997.6,-0.4,62,3,8000,22.224,,,80,,,,,,,,,,,wg-a,,,,AAXX 13124 07314 12/58 40812 10100 20030 39948 49976 56004 60006 80001 91200=
07314,1996-03-13 18:00:00,11,997.2,1,66,5,0,14.816,,,80,3.2,14.3,,,,,,,,,wg-a,,,,AAXX 13184 07314 12/// /0808 10110 20050 39945 49972 53010 60006 91800 333 10143 20032=
07314,1996-03-14 00:00:00,7,998.3,0.1,76,3,6000,11.112,,,130,,,,,,,,,,,wg-a,,,,AAXX 14004 07314 12/56 01306 10070 20030 39955 49983 52001 60006 80000 90000=
07314,1996-03-14 06:00:00,9,999.1,0.6,93,8,0,11.112,,,140,7.1,11.2,,,,,,,,,wg-a,,,,AAXX 14064 07314 12/// /1406 10090 20080 39963 49991 52006 60006 90600 333 10112 20071=
07314,1996-03-14 12:00:00,10,1001.6,,93,9,12000,14.816,,,210,,,,0,,,,,,2,wg-a,,,,AAXX 14124 07314 02462 82108 10100 20090 39988 40016 60016 70252 8352/ 91200 333 60007=
07314,1996-03-14 18:00:00,10,1002.8,0.8,93,9,15000,14.816,,,230,,,,0,,,,,,2,wg-a,,,,AAXX 14184 07314 12465 82308 10100 20090 30000 40028 53008 60007 70252 8552/ 91800=
07314,1996-03-15 00:00:00,9,1004.8,0.5,93,8,4000,14.816,,,290,,,,,,,,,,,wg-a,,,,AAXX 15004 07314 12440 42908 10090 20080 30020 40048 52005 60006 82520 90000=
07314,1996-03-15 06:00:00,8,1005.2,0.4,93,7,6000,18.52,,,310,8,9.7,,,,,,,,,wg-a,,,,AAXX 15064 07314 12856 33110 10080 20070 30024 40052 53004 60006 83030 90600 333 10097 20080=
07314,1996-03-15 12:00:00,10,1006.6,0.2,82,7,2500,11.112,,,290,,,,,,,,,,10,wg-a,,,,AAXX 15124 07314 12/25 32906 10100 20070 30038 40066 50002 60006 71000 83030 91200=
07314,1996-03-15 18:00:00,10,1007.5,0.7,82,7,0,7.408,,,200,8,11.2,,,,,,,,,wg-a,,,,AAXX 15184 07314 12/// /2004 10100 20070 30047 40075 52007 60006 91800 333 10112 20080=
07314,1996-03-16 00:00:00,9,1008.5,0.4,87,7,500,18.52,,,260,,,,,,,,,,,wg-a,,,,AAXX 16004 07314 12/00 02610 10090 20070 30057 40085 53004 60006 80000 90000=
07314,1996-03-16 06:00:00,9,1010.4,1.3,81,6,20000,22.224,,,280,8.3,9.5,,,,,,,,,wg-a,,,,AAXX 16064 07314 12570 62812 10090 20060 30076 40104 53013 60006 84242 90600 333 10095 20083=
07314,1996-03-16 12:00:00,10,1013.3,1.3,82,7,18000,25.928,,,300,,,,,,,,,,,wg-a,,,,AAXX 16124 07314 12568 63014 10100 20070 30105 40133 51013 60006 83432 91200=
07314,1996-03-16 18:00:00,9,1016,1.9,76,5,0,25.928,,,300,8.4,9.9,,,,,,,,,wg-a,,,,AAXX 16184 07314 12/// /3014 10090 20050 30132 40160 53019 60006 91800 333 10099 20084=
07314,1996-03-17 00:00:00,8,1018.1,0.7,81,5,25000,11.112,,,290,,,,,,,,,,,wg-a,,,,AAXX 17004 07314 12/75 02906 10080 20050 30153 40181 52007 60006 80000 90000=
07314,1996-03-17 06:00:00,5,1018.4,0.3,100,5,4000,14.816,,,140,4.5,8.8,,,,,,,,,wg-a,,,,AAXX 17064 07314 12540 11408 10050 20050 30155 40184 53003 60006 81100 90600 333 10088 20045=
07314,1996-03-17 12:00:00,11,1018.6,-0.1,76,7,16000,22.224,,,180,,,,,,,,,,,wg-a,,,,AAXX 17124 07314 12566 11812 10110 20070 30158 40186 58001 60006 81100 91200=
07314,1996-03-17 18:00:00,10,1017.8,0.2,87,8,0,14.816,,,180,5,11.6,,,,,,,,,wg-a,,,,AAXX 17184 07314 12/// /1808 10100 20080 30150 40178 53002 60006 91800 333 10116 20050=
07314,1996-03-18 00:00:00,8,1017.6,-0.3,93,7,20000,11.112,,,160,,,,,,,,,,,wg-a,,,,AAXX 18004 07314 12/70 31606 10080 20070 30148 40176 56003 60006 80002 90000=
07314,1996-03-18 06:00:00,9,1017.2,0.3,87,7,20000,7.408,,,200,7.4,9.7,,0,,,,,,3,wg-a,,,,AAXX 18064 07314 12670 62004 10090 20070 30144 40172 52003 60007 70361 86500 90600 333 10097 20074=
07314,1996-03-18 12:00:00,11,1017.9,-0.1,82,8,25000,14.816,,,190,,,,,,,,,,,wg-a,,,,AAXX 18124 07314 12475 51908 10110 20080 30151 40179 58001 60006 83231 91200=
07314,1996-03-18 18:00:00,10,1016.9,-0.1,87,8,25000,3.704,,,250,7.8,11.7,,,,,,,,,wg-a,,,,AAXX 18184 07314 12575 42502 10100 20080 30141 40169 55001 60006 81201 91800 333 10117 20078=
07314,1996-03-19 00:00:00,8,1016,-0.8,93,7,25000,14.816,,,50,,,,,,,,,,,wg-a,,,,AAXX 19004 07314 12/75 00508 10080 20070 30132 40160 56008 60006 80000 90000=
07314,1996-03-19 06:00:00,7,1013.3,-1,76,3,16000,11.112,,,100,6.5,9.6,,,,,,,,,wg-a,,,,AAXX 19064 07314 12/66 21006 10070 20030 30105 40133 56010 60006 80001 90600 333 10096 20065=
07314,1996-03-19 12:00:00,14,1010.8,-2,55,5,18000,14.816,,,90,,,,,,,,,,,wg-a,,,,AAXX 19124 07314 12/68 30908 10140 20050 30080 40108 58020 60006 80004 91200=
07314,1996-03-19 18:00:00,12,1006.9,-1.3,67,6,18000,18.52,,,80,6.4,14.5,,,,,,,,,wg-a,,,,AAXX 19184 07314 12868 70810 10120 20060 30041 40069 56013 60006 8705/ 91800 333 10145 20064=
07314,1996-03-20 00:00:00,12,1005.5,-0.4,76,8,20000,22.224,,,170,,,,,,,,,,61,wg-a,,,,AAXX 20004 07314 02770 81712 10120 20080 30027 40055 58004 61000 76162 8802/ 90000 333 6100=
07314,1996-03-20 06:00:00,10,1006.7,1.5,93,9,18000,14.816,,,210,10.3,12.4,,1,,,,,,21,wg-a,,,,AAXX 20064 07314 12468 62108 10100 20090 30039 40067 53015 60017 72186 85831 90600 333 10124 20103=
07314,1996-03-20 12:00:00,13,1009.2,0.8,82,10,25000,25.928,,,190,,,,,,,,,,,wg-a,,,,AAXX 20124 07314 12475 31914 10130 20100 30064 40092 51008 60006 83201 91200=
07314,1996-03-20 18:00:00,11,1009.5,0.1,87,9,16000,25.928,,,190,10.2,13.4,,,,,,,,,wg-a,,,,AAXX 20184 07314 12566 71914 10110 20090 30067 40095 50001 60006 8257/ 91800 333 10134 20102=
07314,1996-03-21 00:00:00,11,1007.8,-1.3,71,6,25000,29.632,,,150,,,,,,,,,,,wg-a,,,,AAXX 21004 07314 12575 61516 10110 20060 30050 40078 57013 60006 8257/ 90000=
07314,1996-03-21 06:00:00,11,1008.5,0.9,94,10,15000,31.484,,53.708,220,9.8,12.1,,,,,,,,,wg-a,,,,AAXX 21064 07314 12/65 62217 10110 20100 30057 40085 53009 60006 83042 90600 333 10121 20098 91029=
07314,1996-03-21 12:00:00,12,1013,1.4,88,10,15000,18.52,,,210,,,,,,,,,,,wg-a,,,,AAXX 21124 07314 12565 82110 10120 20100 30102 40130 51014 60006 8245/ 91200=
07314,1996-03-21 18:00:00,11,1014.4,0.7,94,10,15000,11.112,,,210,10.8,12.1,,,,,,,,,wg-a,,,,AAXX 21184 07314 12565 72106 10110 20100 30116 40144 53007 60006 8114/ 91800 333 10121 20108=
07314,1996-03-22 00:00:00,11,1015.3,0.2,94,10,20000,7.408,,,160,,,,,,,,,,21,wg-a,,,,AAXX 22004 07314 02870 81604 10110 20100 30125 40153 53002 60016 72162 8807/ 90000 333 61000=
07314,1996-03-22 06:00:00,9,1015.3,0.6,100,9,12000,7.408,,,110,9.1,11,,,,,,,,,wg-a,,,,AAXX 22064 07314 32/62 21104 10090 20090 30125 40153 51006 82040 90600 333 10110 20091=
07314,1996-03-22 12:00:00,14,1016.7,0.4,77,10,25000,14.816,,,180,,,,,,,,,,,wg-a,,,,AAXX 22124 07314 12675 21808 10140 20100 30139 40167 50004 60006 81501 91200=
07314,1996-03-22 18:00:00,14,1016,-0.3,77,10,500,3.704,,,10,9,14.9,,,,,,,,,wg-a,,,,AAXX 22184 07314 12/00 30102 10140 20100 30132 40160 56003 60006 80001 91800 333 10149 20090=
07314,1996-03-23 00:00:00,11,1015.8,-0.1,94,10,0,14.816,,,80,,,,,,,,,,,wg-a,,,,AAXX 23004 07314 12/// /0808 10110 20100 30130 40158 57001 60006 90000=
07314,1996-03-23 06:00:00,10,1014,-0.5,93,9,12000,18.52,,,80,10.1,13.6,,,,,,,,,wg-a,,,,AAXX 23064 07314 32862 20810 10100 20090 30112 40140 55005 82030 90600 333 10136 20101=
07314,1996-03-23 12:00:00,22,1013.1,-0.8,50,11,20000,14.816,,,120,,,,,,,,,,,wg-a,,,,AAXX 23124 07314 12/70 61208 10220 20110 30104 40131 57008 60006 85012 91200=
07314,1996-03-23 18:00:00,15,1012.4,0.1,72,10,25000,7.408,,,70,10.2,23.4,,,,,,,,,wg-a,,,,AAXX 23184 07314 12/75 70704 10150 20100 30097 40124 53001 60006 86081 91800 333 10234 20102=
07314,1996-03-24 00:00:00,14,1013.1,0.1,72,9,500,14.816,,,120,,,,,,,,,,,wg-a,,,,AAXX 24004 07314 12/00 51208 10140 20090 30103 40131 52001 60006 85030 90000=
07314,1996-03-24 06:00:00,11,1012.9,-0.2,87,9,12000,25.928,,,130,11.1,17,,,,,,,,,wg-a,,,,AAXX 24064 07314 12862 31314 10110 20090 30101 40129 55002 60006 81032 90600 333 10170 20111=
07314,1996-03-24 12:00:00,19,1014.3,1.1,56,10,25000,22.224,,50.004,130,,,,,,,,,,,wg-a,,,,AAXX 24124 07314 12675 71312 10190 20100 30116 40143 51011 60006 8357/ 91200 333 91027=
07314,1996-03-25 00:00:00,14,1012.6,0.2,88,12,20000,14.816,,57.412,140,,,,0,,,,,,21,wg-a,,,,AAXX 25004 07314 02870 81408 10140 20120 30099 40126 50002 60016 72186 8807/ 90000 333 60007 91031=
07314,1996-03-25 06:00:00,12,1013.6,1.2,94,11,8000,25.928,,,250,11.7,15.7,,,,,,,,,wg-a,,,,AAXX 25064 07314 32258 42514 10120 20110 30108 40136 53012 84600 90600 333 10157 20117=
07314,1996-03-25 12:00:00,14,1015.8,0.3,88,12,14000,18.52,,,190,,,,,,,,,,,wg-a,,,,AAXX 25124 07314 12564 21910 10140 20120 30130 40158 50003 60006 81102 91200=
07314,1996-03-25 18:00:00,13,1014.5,-0.7,88,11,25000,11.112,,,10,10.8,15.4,,,,,,,,,wg-a,,,,AAXX 25184 07314 12575 10106 10130 20110 30117 40145 56007 60006 81100 91800 333 10154 20108=
07314,1996-03-26 00:00:00,12,1013,-1,94,11,25000,7.408,,,60,,,,,,,,,,,wg-a,,,,AAXX 26004 07314 12575 40604 10120 20110 30102 40130 58010 60006 84900 90000=
07314,1996-03-26 06:00:00,12,1011.5,0,94,11,6000,11.112,,,140,12.1,13.3,,1,,,,,,60,wg-a,,,,AAXX 26064 07314 12856 81406 10120 20110 30087 40115 50000 60017 76062 8807/ 90600 333 10133 20121=
07314,1996-03-26 12:00:00,14,1012.3,0.3,94,13,2500,7.408,,,50,,,,,,,,,,10,wg-a,,,,AAXX 26124 07314 02225 60504 10140 20130 30096 40123 50003 61000 71062 81640 91200 333 ////=
07314,1996-03-26 18:00:00,12,1012.8,0.8,94,11,0,18.52,,,290,11.9,15.8,,,,,,,,,wg-a,,,,AAXX 26184 07314 32/// /2910 10120 20110 30100 40128 53008 91800 333 10158 20119=
07314,1996-03-27 00:00:00,12,1013.4,-0.2,94,11,6000,11.112,,,310,,,,,,,,,,,wg-a,,,,AAXX 27004 07314 12556 73106 10120 20110 30106 40134 58002 60006 85454 90000=
07314,1996-03-27 06:00:00,9,1013.1,0.5,100,9,2000,25.928,,,50,9.2,12.2,,1,,,,,,51,wg-a,,,,AAXX 27064 07314 12320 80514 10090 20090 30103 40131 53005 60017 75152 887// 90600 333 10122 20092=
07314,1996-03-27 12:00:00,7,1016.3,1.5,87,5,4000,31.484,,,40,,,,1,,,,,,21,wg-a,,,,AAXX 27124 07314 02340 80417 10070 20050 30135 40163 53015 60026 72165 886// 91200 333 60017=
07314,1996-03-27 18:00:00,9,1018.4,1.4,71,4,9000,22.224,,,40,6.6,9.1,,,,,,,,,wg-a,,,,AAXX 27184 07314 32559 70412 10090 20040 30156 40184 53014 875// 91800 333 10091 20066=
07314,1996-03-28 00:00:00,7,1019.8,0.2,66,1,0,25.928,,,40,,,,,,,,,,,wg-a,,,,AAXX 28004 07314 12/// /0414 10070 20010 30170 40198 53002 60006 90000=
07314,1996-03-28 06:00:00,4,1019.8,0.4,81,1,6000,11.112,,,60,3.9,8.8,,,,,,,,,wg-a,,,,AAXX 28064 07314 12/56 00606 10040 20010 30169 40198 53004 60006 80000 90600 333 10088 20039=
07314,1996-03-28 12:00:00,8,1020.7,-0.2,53,-1,0,7.408,,,280,,,,,,,,,,,wg-a,,,,AAXX 28124 07314 12/// /2804 10080 21010 30179 40207 58002 60006 91200=
07314,1996-03-28 18:00:00,8,1019.8,-0.1,61,1,8000,18.52,,,310,4,9.1,,,,,,,,,wg-a,,,,AAXX 28184 07314 12/58 03110 10080 20010 30170 40198 55001 60006 80000 91800 333 10091 20040=
07314,1996-03-29 06:00:00,6,1019.2,-0,75,2,0,7.408,,,70,6.1,9,,,,,,,,,wg-a,,,,AAXX 29064 07314 12/// /0704 10060 20020 30164 40192 55000 60006 90600 333 10090 20061=
07314,1996-03-29 12:00:00,10,1019.1,-0.7,57,2,12000,3.704,,,50,,,,,,,,,,,wg-a,,,,AAXX 29124 07314 12562 20502 10100 20020 30163 40191 58007 60006 82200 91200=
07314,1996-03-29 18:00:00,9,1015.9,-1.3,66,3,15000,7.408,,,340,6.4,9.9,,,,,,,,,wg-a,,,,AAXX 29184 07314 12/65 03404 10090 20030 30131 40159 56013 60006 80000 91800 333 10099 20064=
07314,1996-03-30 00:00:00,9,1014.8,-0.5,81,6,25000,18.52,,,30,,,,,,,,,,,wg-a,,,,AAXX 30004 07314 12/75 00310 10090 20060 30120 40148 56005 60006 80000 90000=
07314,1996-03-30 06:00:00,7,1014.1,0.5,76,3,25000,22.224,,,40,6.5,8.9,,,,,,,,,wg-a,,,,AAXX 30064 07314 12675 30412 10070 20030 30113 40141 53005 60006 82502 90600 333 10089 20065=
07314,1996-03-30 12:00:00,11,1016.1,0.8,66,5,15000,7.408,,,340,,,,,,,,,,,wg-a,,,,AAXX 30124 07314 12565 63404 10110 20050 30133 40161 51008 60006 82111 91200=
07314,1996-03-30 18:00:00,10,1017.1,0.8,50,0,20000,25.928,,,40,6.4,12.4,,,,,,,,,wg-a,,,,AAXX 30184 07314 12670 60414 10100 20000 30143 40171 53008 60006 85530 91800 333 10124 20064=
07314,1996-03-31 00:00:00,7,1018.6,0.6,61,0,500,25.928,,,80,,,,,,,,,,,wg-a,,,,AAXX 31004 07314 12/00 00814 10070 20000 30158 40186 51006 60006 80000 90000=
07314,1996-03-31 06:00:00,5,1016.7,-0.6,70,0,18000,11.112,,,110,4.5,10.4,,,,,,,,,wg-a,,,,AAXX 31064 07314 12868 41106 10050 20000 30138 40167 57006 60006 84030 90600 333 10104 20045=
07314,1996-03-31 12:00:00,9,1015.5,-1.3,46,-2,25000,11.112,,,90,,,,,,,,,,,wg-a,,,,AAXX 31124 07314 12875 70906 10090 21020 30127 40155 58013 60006 8707/ 91200=
07314,1996-03-31 18:00:00,10,1010.8,-2.2,50,0,25000,3.704,,,100,4.8,10.8,,,,,,,,,wg-a,,,,AAXX 31184 07314 12575 71002 10100 20000 30080 40108 58022 60006 875// 91800 333 10108 20048=
07314,1996-04-01 00:00:00,8,1007.1,-2.4,61,1,500,22.224,,,80,,,,,,,,,,,wg-a,,,,AAXX 01004 07314 12/00 70812 10080 20010 30043 40071 56024 60006 8701/ 90000=
07314,1996-04-01 06:00:00,6,1001.9,-1.5,75,2,14000,29.632,,,60,5.4,9.6,,1,,,,,,60,wg-a,,,,AAXX 01064 07314 12764 80616 10060 20020 39991 40019 56015 60017 76062 8802/ 90600 333 10096 20054=
07314,1996-04-01 12:00:00,6,1001.9,0.1,87,4,6000,42.596,,,40,,,,4,,,,,,60,wg-a,,,,AAXX 01124 07314 02756 80423 10060 20040 39991 40019 51001 60086 76062 8802/ 91200 333 60047=
07314,1996-04-01 18:00:00,9,1004.7,2.2,57,1,15000,42.596,,,20,4.4,9.3,,,,,,,,2,wg-a,,,,AAXX 01184 07314 32/65 70223 10090 20010 30019 40047 53022 70262 85042 91800 333 10093 20044=
07314,1996-04-02 00:00:00,6,1011.1,2.6,65,0,25000,38.892,,,10,,,,,,,,,,,wg-a,,,,AAXX 02004 07314 12/75 00121 10060 20000 30083 40111 51026 60006 80000 90000=
07314,1996-04-02 06:00:00,3,1015.6,2.6,70,-2,10000,35.188,,,20,3,9,,,,,,,,,wg-a,,,,AAXX 02064 07314 12860 20219 10030 21020 30127 40156 53026 60006 82030 90600 333 10090 20030=
07314,1996-04-02 12:00:00,8,1019.7,1.1,49,-2,8000,25.928,,,10,,,,,,,,,,,wg-a,,,,AAXX 02124 07314 12/58 00114 10080 21020 30169 40197 50011 60006 80000 91200=
07314,1996-04-02 18:00:00,8,1021,1.2,53,-1,20000,31.484,,,10,2.8,9.5,,,,,,,,,wg-a,,,,AAXX 02184 07314 12570 20117 10080 21010 30182 40210 53012 60006 82100 91800 333 10095 20028=
07314,1996-04-03 00:00:00,6,1024,0.8,61,-1,500,31.484,,,10,,,,,,,,,,,wg-a,,,,AAXX 03004 07314 12/00 00117 10060 21010 30211 40240 51008 60006 80000 90000=
07314,1996-04-03 06:00:00,4,1025.6,0.9,81,1,12000,31.484,,,20,3.4,8.2,,,,,,,,,wg-a,,,,AAXX 03064 07314 12/62 00217 10040 20010 30227 40256 53009 60006 80000 90600 333 10082 20034=
07314,1996-04-03 12:00:00,8,1026.1,-0.7,57,0,18000,29.632,,50.004,10,,,,,,,,,,,wg-a,,,,AAXX 03124 07314 12568 40116 10080 20000 30232 40261 58007 60006 84100 91200 333 91027=
07314,1996-04-03 18:00:00,8,1026.5,0.5,49,-2,18000,22.224,,,30,3.7,8.9,,,,,,,,,wg-a,,,,AAXX 03184 07314 12568 40312 10080 21020 30236 40265 53005 60006 84500 91800 333 10089 20037=
07314,1996-04-04 00:00:00,6,1028,-0.1,61,-1,18000,25.928,,,30,,,,,,,,,,,wg-a,,,,AAXX 04004 07314 12/68 00314 10060 21010 30251 40280 57001 60006 80000 90000=
07314,1996-04-04 06:00:00,4,1026.9,-0.5,70,-1,9000,22.224,,,50,4,7.8,,,,,,,,,wg-a,,,,AAXX 04064 07314 12/59 00512 10040 21010 30240 40269 55005 60006 80000 90600 333 10078 20040=
07314,1996-04-04 12:00:00,9,1024.7,-2,46,-2,9000,7.408,,,40,,,,,,,,,,,wg-a,,,,AAXX 04124 07314 12/59 00404 10090 21020 30219 40247 58020 60006 80000 91200=
07314,1996-04-04 18:00:00,10,1021.1,-1.3,57,2,9000,22.224,,,50,4.1,11.1,,,,,,,,,wg-a,,,,AAXX 04184 07314 12/59 40512 10100 20020 30183 40211 56013 60006 84010 91800 333 10111 20041=
07314,1996-04-05 00:00:00,7,1019.2,-0.8,66,1,11000,25.928,,,80,,,,,,,,,,,wg-a,,,,AAXX 05004 07314 12861 40814 10070 20010 30164 40192 58008 60006 84030 90000=
07314,1996-04-05 06:00:00,5,1016.5,-1.5,70,0,10000,31.484,,,50,4.8,10.2,,,,,,,,,wg-a,,,,AAXX 05064 07314 12/60 20517 10050 20000 30136 40165 56015 60006 80001 90600 333 10102 20048=
07314,1996-04-05 12:00:00,10,1014.5,-1.1,57,2,6000,22.224,,,40,,,,,,,,,,,wg-a,,,,AAXX 05124 07314 12/56 00412 10100 20020 30117 40145 56011 60006 80000 91200=
07314,1996-04-05 18:00:00,11,1012.8,-0.4,71,6,0,18.52,,,20,4.7,12.3,,,,,,,,,wg-a,,,,AAXX 05184 07314 12/// /0210 10110 20060 30100 40128 56004 60006 91800 333 10123 20047=
07314,1996-04-06 00:00:00,7,1014.3,0.4,76,3,500,18.52,,,50,,,,,,,,,,,wg-a,,,,AAXX 06004 07314 12/00 00510 10070 20030 30115 40143 53004 60006 80000 90000=
07314,1996-04-06 06:00:00,5,1014.5,0.8,87,3,4000,11.112,,,60,5.2,10.9,,,,,,,,,wg-a,,,,AAXX 06064 07314 12/40 20606 10050 20030 30117 40145 53008 60006 80002 90600 333 10109 20052=
07314,1996-04-06 12:00:00,11,1016.4,0.5,71,6,4000,7.408,,,310,,,,,,,,,,,wg-a,,,,AAXX 06124 07314 12/40 03104 10110 20060 30136 40164 53005 60006 80000 91200=
07314,1996-04-06 18:00:00,10,1017.7,1,82,7,0,18.52,,,290,5.3,11.6,,,,,,,,,wg-a,,,,AAXX 06184 07314 12/// /2910 10100 20070 30149 40177 53010 60006 91800 333 10116 20053=
07314,1996-04-07 00:00:00,9,1019.4,0.3,87,7,2500,11.112,,,310,,,,,,,,,,10,wg-a,,,,AAXX 07004 07314 12/25 03106 10090 20070 30166 40194 51003 60006 71000 80000 90000=
07314,1996-04-07 06:00:00,7,1020.5,1,87,5,2000,7.408,,,360,7.3,9.7,,,,,,,,10,wg-a,,,,AAXX 07064 07314 12/20 43604 10070 20050 30177 40205 53010 60006 71000 84040 90600 333 10097 20073=
07314,1996-04-07 12:00:00,11,1022.8,0.7,76,7,2000,11.112,,,310,,,,,,,,,,10,wg-a,,,,AAXX 07124 07314 12/20 73106 10110 20070 30200 40228 50007 60006 71022 8704/ 91200=
07314,1996-04-07 18:00:00,10,1023.8,1,87,8,2000,25.928,,,310,7.3,11.9,,,,,,,,10,wg-a,,,,AAXX 07184 07314 12/20 03114 10100 20080 30210 40238 53010 60006 71000 80000 91800 333 10119 20073=
07314,1996-04-08 00:00:00,10,1026.4,1.1,82,7,4000,14.816,,,360,,,,,,,,,,,wg-a,,,,AAXX 08004 07314 12540 83608 10100 20070 30236 40264 51011 60006 885// 90000=
07314,1996-04-08 06:00:00,10,1027.5,1,87,8,2500,14.816,,,10,9.7,10.2,,,,,,,,10,wg-a,,,,AAXX 08064 07314 12525 80108 10100 20080 30247 40275 53010 60006 71022 885// 90600 333 10102 20097=
07314,1996-04-08 12:00:00,13,1029.2,-0.2,77,9,2500,11.112,,,310,,,,,,,,,,10,wg-a,,,,AAXX 08124 07314 12/25 03106 10130 20090 30264 40292 58002 60006 71000 80000 91200=
07314,1996-04-08 18:00:00,11,1028.9,-0,87,9,2500,18.52,,,330,9.7,13.2,,,,,,,,10,wg-a,,,,AAXX 08184 07314 12/25 03310 10110 20090 30261 40289 55000 60006 71000 80000 91800 333 10132 20097=
07314,1996-04-09 06:00:00,8,1026.6,-0.7,87,6,2500,14.816,,,80,8.4,11.1,,,,,,,,10,wg-a,,,,AAXX 09064 07314 12/25 00808 10080 20060 30238 40266 56007 60006 71000 80000 90600 333 10111 20084=
07314,1996-04-09 12:00:00,15,1025.9,-0.9,63,8,4000,7.408,,,20,,,,,,,,,,,wg-a,,,,AAXX 09124 07314 12/40 00204 10150 20080 30231 40259 58009 60006 80000 91200=
07314,1996-04-09 18:00:00,12,1023,-1.1,82,9,4000,18.52,,,290,8.4,16.5,,,,,,,,10,wg-a,,,,AAXX 09184 07314 12/40 02910 10120 20090 30202 40230 56011 60006 71000 80000 91800 333 10165 20084=
07314,1996-04-10 00:00:00,10,1022.1,-1.1,87,8,6000,7.408,,,30,,,,,,,,,,,wg-a,,,,AAXX 10004 07314 12/56 00304 10100 20080 30193 40221 58011 60006 80000 90000=
07314,1996-04-10 06:00:00,11,1020.3,-0.9,87,9,2000,11.112,,,210,9.2,11.8,,,,,,,,10,wg-a,,,,AAXX 10064 07314 12520 82106 10110 20090 30175 40203 56009 60006 71022 8351/ 90600 333 10118 20092=
07314,1996-04-10 12:00:00,12,1019.7,-0.9,100,12,1500,18.52,,,210,,,,1,,,,,,60,wg-a,,,,AAXX 10124 07314 02615 82110 10120 20120 30169 40197 58009 60016 76062 8802/ 91200 333 60017=
07314,1996-04-10 18:00:00,11,1019.6,0.2,100,11,10000,14.816,,,270,10.6,12.3,,,,,,,,1,wg-a,,,,AAXX 10184 07314 32360 42708 10110 20110 30168 40196 52002 70164 82642 91800 333 10123 20106=
07314,1996-04-11 00:00:00,10,1019.4,-0.4,100,10,25000,11.112,,,290,,,,,,,,,,,wg-a,,,,AAXX 11004 07314 12/75 02906 10100 20100 30166 40194 58004 60006 80000 90000=
07314,1996-04-11 06:00:00,10,1018.4,0.2,93,9,15000,7.408,,,280,9.9,11.2,,,,,,,,,wg-a,,,,AAXX 11064 07314 12565 72804 10100 20090 30156 40184 53002 60006 875// 90600 333 10112 20099=
07314,1996-04-11 12:00:00,13,1018.1,-0.4,88,11,12000,7.408,,,300,,,,,,,,,,,wg-a,,,,AAXX 11124 07314 12362 53004 10130 20110 30153 40181 56004 60006 82602 91200=
07314,1996-04-11 18:00:00,11,1015.8,-1,87,9,10000,14.816,,,310,10.1,13.3,,,,,,,,,wg-a,,,,AAXX 11184 07314 12/60 33108 10110 20090 30130 40158 56010 60006 80002 91800 333 10133 20101=
07314,1996-04-12 00:00:00,11,1015.6,-0.2,94,10,0,14.816,,,10,,,,,,,,,,,wg-a,,,,AAXX 12004 07314 12/// /0108 10110 20100 30128 40156 58002 60006 90000=
07314,1996-04-12 06:00:00,10,1014.6,0.3,93,9,3000,11.112,,,40,9.8,11.1,,,,,,,,10,wg-a,,,,AAXX 12064 07314 12/30 20406 10100 20090 30118 40146 53003 60006 71000 80001 90600 333 10111 20098=
07314,1996-04-12 12:00:00,17,1013.5,-1.2,68,11,8000,7.408,,,30,,,,,,,,,,,wg-a,,,,AAXX 12124 07314 12/58 20304 10170 20110 30108 40135 58012 60006 82040 91200=
07314,1996-04-12 18:00:00,13,1012.8,-0.7,82,10,8000,14.816,,,330,9.9,16.7,,,,,,,,,wg-a,,,,AAXX 12184 07314 12/58 43308 10130 20100 30100 40128 56007 60006 80002 91800 333 10167 20099=
07314,1996-04-13 00:00:00,11,1013.9,0.1,94,10,0,11.112,,,340,,,,,,,,,,,wg-a,,,,AAXX 13004 07314 12/// /3406 10110 20100 30111 40139 53001 60006 90000=
07314,1996-04-13 06:00:00,11,1014.6,0.9,94,10,0,3.704,,,340,11,12.8,,,,,,,,,wg-a,,,,AAXX 13064 07314 12/// /3402 10110 20100 30118 40146 53009 60006 90600 333 10128 20110=
07314,1996-04-13 12:00:00,13,1017.2,1.2,88,11,8000,22.224,,,310,,,,,,,,,,,wg-a,,,,AAXX 13124 07314 12558 63112 10130 20110 30144 40172 51012 60006 84962 91200=
07314,1996-04-13 18:00:00,12,1017.9,1,94,11,6000,22.224,,,300,11,13.6,,,,,,,,,wg-a,,,,AAXX 13184 07314 12256 53012 10120 20110 30151 40179 51010 60006 83642 91800 333 10136 20110=
07314,1996-04-14 00:00:00,11,1020.1,0.6,100,11,0,18.52,,,280,,,,,,,,,,,wg-a,,,,AAXX 14004 07314 12/// /2810 10110 20110 30173 40201 52006 60006 90000=
07314,1996-04-14 06:00:00,11,1020.5,0.6,94,10,15000,14.816,,,290,10.6,12.1,,,,,,,,,wg-a,,,,AAXX 14064 07314 12565 32908 10110 20100 30177 40205 53006 60006 82501 90600 333 10121 20106=
07314,1996-04-14 12:00:00,12,1022.5,0.4,94,11,4000,11.112,,,290,,,,,,,,,,,wg-a,,,,AAXX 14124 07314 12440 82906 10120 20110 30197 40225 50004 60006 885// 91200=
07314,1996-04-14 18:00:00,11,1023.3,0.5,94,10,2000,18.52,,,300,10.6,12.5,,,,,,,,10,wg-a,,,,AAXX 14184 07314 12220 73010 10110 20100 30205 40233 51005 60006 71022 8463/ 91800 333 10125 20106=
07314,1996-04-15 00:00:00,11,1025.4,0.4,94,10,2500,11.112,,,340,,,,0,,,,,,10,wg-a,,,,AAXX 15004 07314 02425 83406 10110 20100 30226 40254 53004 60016 71062 885// 90000 333 60007=
07314,1996-04-15 06:00:00,11,1025.3,0.6,100,11,3000,7.408,,,320,10.5,11.3,,,,,,,,10,wg-a,,,,AAXX 15064 07314 32530 73204 10110 20110 30225 40253 53006 71062 875// 90600 333 10113 20105=
07314,1996-04-15 12:00:00,15,1025.9,-0.2,88,13,4000,7.408,,,340,,,,,,,,,,,wg-a,,,,AAXX 15124 07314 12540 43404 10150 20130 30231 40259 58002 60006 83502 91200=
07314,1996-04-15 18:00:00,12,1023.8,-1,100,12,20000,14.816,,,320,10.9,14.8,,,,,,,,,wg-a,,,,AAXX 15184 07314 12/70 43208 10120 20120 30210 40238 56010 60006 80002 91800 333 10148 20109=
07314,1996-04-16 00:00:00,11,1021.6,-1.9,94,10,12000,7.408,,,10,,,,,,,,,,,wg-a,,,,AAXX 16004 07314 12/62 20104 10110 20100 30188 40216 58019 60006 80002 90000=
07314,1996-04-16 06:00:00,9,1016.5,-2,87,7,12000,11.112,,,110,9,12.4,,,,,,,,,wg-a,,,,AAXX 16064 07314 32/62 61106 10090 20070 30137 40165 56020 80004 90600 333 10124 20090=
07314,1996-04-16 12:00:00,16,1012.4,-2.6,63,9,12000,3.704,,,230,,,,,,,,,,,wg-a,,,,AAXX 16124 07314 12/62 62302 10160 20090 30097 40124 58026 60006 80003 91200=
07314,1996-04-16 18:00:00,14,1009.5,-0.5,77,10,15000,29.632,,,230,9.3,18.2,,,,,,,,,wg-a,,,,AAXX 16184 07314 12/65 72316 10140 20100 30068 40095 55005 60006 85053 91800 333 10182 20093=
07314,1996-04-17 00:00:00,12,1011.7,0.9,88,10,18000,29.632,,,290,,,,0,,,,,,21,wg-a,,,,AAXX 17004 07314 02/68 22916 10120 20100 30089 40117 52009 60046 72161 82042 90000 333 60007=
07314,1996-04-17 06:00:00,11,1014.1,1.5,87,9,20000,22.224,,53.708,300,10.7,14,,,,,,,,,wg-a,,,,AAXX 17064 07314 32470 43012 10110 20090 30113 40141 53015 84903 90600 333 10140 20107 91029=
07314,1996-04-17 12:00:00,13,1017.8,1.5,82,10,25000,22.224,,,280,,,,,,,,,,2,wg-a,,,,AAXX 17124 07314 12475 32812 10130 20100 30150 40178 51015 60016 70280 82203 91200=
07314,1996-04-17 18:00:00,12,1020.2,1.6,88,10,25000,14.816,,,280,9.7,13.3,,,,,,,,,wg-a,,,,AAXX 17184 07314 32475 22808 10120 20100 30174 40202 51016 82200 91800 333 10133 20097=
07314,1996-04-18 00:00:00,11,1021.6,0,94,10,0,11.112,,,220,,,,,,,,,,,wg-a,,,,AAXX 18004 07314 12/// /2206 10110 20100 30188 40216 50000 60006 90000=
07314,1996-04-18 06:00:00,10,1021.5,0.1,93,9,6000,7.408,,,150,9.2,12.3,,,,,,,,,wg-a,,,,AAXX 18064 07314 12456 41504 10100 20090 30187 40215 53001 60006 84500 90600 333 10123 20092=
07314,1996-04-18 12:00:00,14,1021.3,-0.7,82,11,12000,18.52,,,180,,,,,,,,,,,wg-a,,,,AAXX 18124 07314 12562 41810 10140 20110 30185 40213 58007 60006 82101 91200=
07314,1996-04-18 18:00:00,13,1019.3,-0.9,88,11,12000,3.704,,,240,9.6,14.5,,,,,,,,,wg-a,,,,AAXX 18184 07314 12/62 52402 10130 20110 30165 40193 56009 60006 80002 91800 333 10145 20096=
07314,1996-04-19 00:00:00,11,1018.8,-0.5,94,10,20000,11.112,,,80,,,,,,,,,,,wg-a,,,,AAXX 19004 07314 12/70 00806 10110 20100 30160 40188 58005 60006 80000 90000=
07314,1996-04-19 06:00:00,10,1016.9,-0.8,93,9,12000,11.112,,,110,9.9,12.8,,,,,,,,,wg-a,,,,AAXX 19064 07314 12/62 31106 10100 20090 30141 40169 56008 60006 80001 90600 333 10128 20099=
07314,1996-04-19 12:00:00,19,1015.1,-1.2,60,11,0,3.704,,,50,,,,,,,,,,,wg-a,,,,AAXX 19124 07314 12/// /0502 10190 20110 30124 40151 58012 60006 91200=
07314,1996-04-19 18:00:00,16,1011.9,-1.5,68,10,0,7.408,,,70,10.2,19.3,,,,,,,,,wg-a,,,,AAXX 19184 07314 12/// /0704 10160 20100 30092 40119 57015 60006 91800 333 10193 20102=
07314,1996-04-20 00:00:00,17,1011.1,-0.6,52,7,500,29.632,,,160,,,,,,,,,,,wg-a,,,,AAXX 20004 07314 12/00 31616 10170 20070 30084 40111 56006 60006 80003 90000=
07314,1996-04-20 06:00:00,12,1010,-0.2,62,5,500,25.928,,,130,11.8,17.7,,,,,,,,,wg-a,,,,AAXX 20064 07314 12600 71314 10120 20050 30072 40100 57002 60006 8257/ 90600 333 10177 20118=
07314,1996-04-20 12:00:00,18,1010.4,0.1,56,9,500,35.188,,,170,,,,,,,,,,,wg-a,,,,AAXX 20124 07314 12800 71719 10180 20090 30077 40104 51001 60006 85072 91200=
07314,1996-04-20 18:00:00,17,1007.2,-1.7,63,10,500,3.704,,,70,12.2,19.2,,,,,,,,,wg-a,,,,AAXX 20184 07314 12/00 40702 10170 20100 30045 40072 57017 60006 80001 91800 333 10192 20122=
07314,1996-04-21 00:00:00,16,1005.4,-0.8,45,4,500,29.632,,,130,,,,,,,,,,,wg-a,,,,AAXX 21004 07314 12/00 01316 10160 20040 30027 40054 58008 60006 80000 90000=
07314,1996-04-21 06:00:00,14,1003.8,-0.5,58,6,20000,29.632,,,130,13.5,17.5,,,,,,,,,wg-a,,,,AAXX 21064 07314 12870 21316 10140 20060 30011 40038 56005 60006 82040 90600 333 10175 20135=
07314,1996-04-21 12:00:00,19,1005.3,1.2,64,12,20000,46.3,,68.524,170,,,,,,,,,,,wg-a,,,,AAXX 21124 07314 12870 61725 10190 20120 30026 40053 53012 60006 86030 91200 333 91037=
07314,1996-04-21 18:00:00,14,1008.5,1.5,82,11,18000,7.408,,64.82,340,13.8,20.8,,,,,,,,,wg-a,,,,AAXX 21184 07314 12668 73404 10140 20110 30058 40085 53015 60006 84582 91800 333 10208 20138 91035=
07314,1996-04-22 06:00:00,12,1006,-1.5,94,11,8000,7.408,,,100,11,13.8,,3,,,,,,28,wg-a,,,,AAXX 22064 07314 12558 81004 10120 20110 30032 40060 55015 60037 72898 8596/ 90600 333 10138 20110=
07314,1996-04-22 12:00:00,14,1002.5,-1.2,100,14,6000,14.816,,50.004,120,,,,5,,,,,,63,wg-a,,,,AAXX 22124 07314 02456 81208 10140 20140 39998 40025 56012 60056 76396 889// 91200 333 60057 91027=
07314,1996-04-22 18:00:00,14,1001.6,1.3,94,13,12000,25.928,,,170,11.5,17.8,,8,,,,,,15,wg-a,,,,AAXX 22184 07314 12462 71714 10140 20130 39989 40016 52013 60087 71598 8596/ 91800 333 10178 20115=
07314,1996-04-23 00:00:00,13,1006.1,1.6,88,11,20000,31.484,,,210,,,,,,,,,,,wg-a,,,,AAXX 23004 07314 12570 72117 10130 20110 30034 40061 53016 60006 85462 90000=
07314,1996-04-23 06:00:00,12,1009.3,2.5,88,10,15000,25.928,,,240,11.1,13.6,,1,,,,,,25,wg-a,,,,AAXX 23064 07314 12465 72414 10120 20100 30065 40093 53025 60017 72582 8536/ 90600 333 10136 20111=
07314,1996-04-23 12:00:00,13,1013.9,1.7,82,10,500,25.928,,,220,,,,,,,,,,25,wg-a,,,,AAXX 23124 07314 02400 52214 10130 20100 30111 40139 51017 61000 72581 8/400 91200 333 ////=
07314,1996-04-23 18:00:00,13,1015.7,0.9,72,8,0,25.928,,,220,11.6,14.1,,,,,,,,,wg-a,,,,AAXX 23184 07314 12/// /2214 10130 20080 30129 40157 51009 60006 91800 333 10141 20116=
07314,1996-04-24 00:00:00,12,1018.8,1,76,8,0,29.632,,,230,,,,,,,,,,,wg-a,,,,AAXX 24004 07314 02/// /2316 10120 20080 30160 40188 51010 60006 90000 333 61000=
07314,1996-04-24 06:00:00,12,1020.4,1.2,76,8,25000,18.52,,,260,11,12.6,,,,,,,,15,wg-a,,,,AAXX 24064 07314 32575 52610 10120 20080 30176 40204 53012 71522 85200 90600 333 10126 20110=
07314,1996-04-24 12:00:00,14,1023.8,1.5,77,10,25000,18.52,,,260,,,,,,,,,,,wg-a,,,,AAXX 24124 07314 12575 52610 10140 20100 30210 40238 51015 60006 85900 91200=
07314,1996-04-24 18:00:00,13,1024.9,0.8,77,9,500,22.224,,,290,12,14.2,,,,,,,,,wg-a,,,,AAXX 24184 07314 12500 32912 10130 20090 30221 40249 53008 60006 83200 91800 333 10142 20120=
07314,1996-04-25 00:00:00,11,1027.1,0.3,82,8,500,18.52,,,330,,,,,,,,,,,wg-a,,,,AAXX 25004 07314 12/00 03310 10110 20080 30243 40271 51003 60006 80000 90000=
07314,1996-04-25 06:00:00,10,1027.7,1,87,8,18000,14.816,,,30,9.5,13.1,,,,,,,,,wg-a,,,,AAXX 25064 07314 12/68 00308 10100 20080 30249 40277 53010 60006 80000 90600 333 10131 20095=
07314,1996-04-25 12:00:00,14,1028,-0.6,63,7,25000,11.112,,,340,,,,,,,,,,,wg-a,,,,AAXX 25124 07314 12575 23406 10140 20070 30252 40280 58006 60006 82100 91200=
07314,1996-04-25 18:00:00,14,1026.2,-0.9,63,7,25000,18.52,,,10,10.1,15.2,,,,,,,,,wg-a,,,,AAXX 25184 07314 12675 50110 10140 20070 30234 40262 56009 60006 85500 91800 333 10152 20101=
07314,1996-04-26 00:00:00,12,1025.6,-0.9,71,7,500,18.52,,,30,,,,,,,,,,,wg-a,,,,AAXX 26004 07314 12/00 00310 10120 20070 30228 40256 58009 60006 80000 90000=
07314,1996-04-26 06:00:00,10,1023.3,-0.6,76,6,20000,25.928,,,40,9.6,14,,,,,,,,,wg-a,,,,AAXX 26064 07314 12/70 00414 10100 20060 30205 40233 55006 60006 80000 90600 333 10140 20096=
07314,1996-04-26 12:00:00,16,1021.1,-1.8,68,10,18000,18.52,,,20,,,,,,,,,,,wg-a,,,,AAXX 26124 07314 12/68 00210 10160 20100 30183 40211 58018 60006 80000 91200=
07314,1996-04-26 18:00:00,16,1017.3,-1.5,68,10,20000,22.224,,,20,10.1,17.1,,,,,,,,,wg-a,,,,AAXX 26184 07314 12/70 00212 10160 20100 30146 40173 56015 60006 80000 91800 333 10171 20101=
07314,1996-04-27 00:00:00,13,1016.7,-0.8,77,9,25000,22.224,,,30,,,,,,,,,,,wg-a,,,,AAXX 27004 07314 12575 40312 10130 20090 30139 40167 58008 60006 84500 90000=
07314,1996-04-27 06:00:00,12,1014.4,-0.8,76,8,18000,25.928,,,30,11.6,15.6,,,,,,,,,wg-a,,,,AAXX 27064 07314 12568 40314 10120 20080 30116 40144 56008 60006 82501 90600 333 10156 20116=
07314,1996-04-27 12:00:00,17,1012.7,-1,72,12,12000,11.112,,,40,,,,,,,,,,,wg-a,,,,AAXX 27124 07314 12/62 00406 10170 20120 30100 40127 58010 60006 80000 91200=
07314,1996-04-27 18:00:00,17,1011.1,-0.4,72,12,15000,7.408,,,20,11.8,18.1,,,,,,,,,wg-a,,,,AAXX 27184 07314 12865 80204 10170 20120 30084 40111 56004 60006 8802/ 91800 333 10181 20118=
07314,1996-04-28 00:00:00,14,1011.5,-0.4,88,12,20000,3.704,,,250,,,,,,,,,,,wg-a,,,,AAXX 28004 07314 12870 82502 10140 20120 30088 40115 58004 60006 8802/ 90000=
07314,1996-04-28 06:00:00,14,1010.4,-0.3,82,11,3500,14.816,,,40,13.5,16.4,,,,,,,,10,wg-a,,,,AAXX 28064 07314 12535 80408 10140 20110 30077 40104 55003 60006 71022 885// 90600 333 10164 20135=
07314,1996-04-28 12:00:00,16,1010.1,-0.4,82,13,3000,11.112,,,300,,,,,,,,,,10,wg-a,,,,AAXX 28124 07314 12530 73006 10160 20130 30074 40101 58004 60006 71022 875// 91200=
07314,1996-04-28 18:00:00,16,1008.2,-0.7,82,13,3000,14.816,,,320,13.3,16.9,,,,,,,,10,wg-a,,,,AAXX 28184 07314 12530 73208 10160 20130 30055 40082 56007 60006 71022 875// 91800 333 10169 20133=
07314,1996-04-29 00:00:00,14,1009,-0,82,11,12000,31.484,,,10,,,,,,,,,,,wg-a,,,,AAXX 29004 07314 12562 30117 10140 20110 30063 40090 55000 60006 83500 90000=
07314,1996-04-29 06:00:00,12,1008.7,0.4,82,9,4000,25.928,,,20,11.1,16.1,,,,,,,,10,wg-a,,,,AAXX 29064 07314 12540 60214 10120 20090 30059 40087 53004 60006 71022 83502 90600 333 10161 20111=
07314,1996-04-29 12:00:00,15,1008.6,-0.5,77,11,12000,18.52,,,320,,,,,,,,,,,wg-a,,,,AAXX 29124 07314 12562 43210 10150 20110 30059 40086 58005 60006 84500 91200=
07314,1996-04-29 18:00:00,14,1006.8,-0.4,72,9,12000,35.188,,,320,11.4,15.7,,,,,,,,,wg-a,,,,AAXX 29184 07314 12562 23219 10140 20090 30041 40068 56004 60006 82100 91800 333 10157 20114=
07314,1996-04-30 00:00:00,12,1008.2,0,88,10,25000,22.224,,57.412,290,,,,,,,,,,,wg-a,,,,AAXX 30004 07314 12575 62912 10120 20100 30054 40082 50000 60006 86500 90000 333 91031=
07314,1996-04-30 06:00:00,12,1006.4,-0.3,76,8,0,18.52,,,240,11.8,14,,,,,,,,,wg-a,,,,AAXX 30064 07314 12/// /2410 10120 20080 30036 40064 55003 60006 90600 333 10140 20118=
07314,1996-04-30 12:00:00,13,1006.2,-0.6,67,7,8000,22.224,,,290,,,,,,,,,,,wg-a,,,,AAXX 30124 07314 12558 42912 10130 20070 30035 40062 58006 60006 84500 91200=
07314,1996-04-30 18:00:00,12,1004.6,-0.5,67,6,25000,25.928,,,260,10.5,12.9,,,,,,,,,wg-a,,,,AAXX 30184 07314 12575 62614 10120 20060 30018 40046 56005 60006 84404 91800 333 10129 20105=
07314,1996-05-01 00:00:00,11,1003.2,-1.1,76,7,16000,38.892,,61.116,210,,,,,,,,,,60,wg-a,,,,AAXX 01004 07314 02566 82121 10110 20070 30004 40032 56011 61000 76062 889// 90000 333 6100 91033=
07314,1996-05-01 06:00:00,12,1000.1,-0.9,71,7,25000,31.484,,,200,10.4,12.1,,,,,,,,21,wg-a,,,,AAXX 01064 07314 02475 72017 10120 20070 39974 40001 56009 61000 72162 84312 90600 333 10121 20104 ////=
07314,1996-05-01 12:00:00,11,999.1,-0.3,82,8,25000,29.632,,64.82,220,,,,0,,,,,,15,wg-a,,,,AAXX 01124 07314 02475 72216 10110 20080 39964 49991 57003 60036 71582 86903 91200 333 60007 91035=
07314,1996-05-01 18:00:00,13,994.8,-1.8,62,6,25000,25.928,,72.228,150,9.5,14,,,,,,,,2,wg-a,,,,AAXX 01184 07314 32475 71514 10130 20060 39921 49948 58018 70282 8587/ 91800 333 10140 20095 91039=
07314,1996-05-02 00:00:00,11,994.6,-0.8,76,7,0,38.892,,,230,,,,0,,,,,,,wg-a,,,,AAXX 02004 07314 02/// /2321 10110 20070 39919 49946 56008 60036 90000 333 60007=
07314,1996-05-02 06:00:00,11,994.3,0.1,76,7,25000,35.188,,68.524,220,9.4,13.6,,1,,,,,,25,wg-a,,,,AAXX 02064 07314 12475 72219 10110 20070 39916 49943 53001 60017 72582 86903 90600 333 10136 20094 91037=
07314,1996-05-02 12:00:00,11,993.9,-0.8,82,8,12000,53.708,,,220,,,,4,,,,,,62,wg-a,,,,AAXX 02124 07314 02462 82229 10110 20080 39912 49939 58008 60066 76286 888// 91200 333 60047=
07314,1996-05-02 18:00:00,11,992.2,-0.9,87,9,15000,38.892,,79.636,230,9.3,12.3,,0,,,,,,2,wg-a,,,,AAXX 02184 07314 12465 72321 10110 20090 39895 49922 58009 60007 70286 86903 91800 333 10123 20093 91043=
07314,1996-05-03 00:00:00,11,996.9,2.7,87,9,25000,46.3,,,310,,,,3,,,,,,25,wg-a,,,,AAXX 03004 07314 02475 63125 10110 20090 39942 49969 51027 60036 72586 85903 90000 333 60037=
07314,1996-05-03 06:00:00,11,1000.9,2.3,87,9,15000,31.484,,,320,9.6,11.8,,,,,,,,15,wg-a,,,,AAXX 03064 07314 32465 63217 10110 20090 39982 40009 53023 71522 86300 90600 333 10118 20096=
07314,1996-05-03 12:00:00,13,1005.2,1.9,77,9,15000,25.928,,,300,,,,,,,,,,,wg-a,,,,AAXX 03124 07314 12465 53014 10130 20090 30025 40052 51019 60006 85300 91200=
07314,1996-05-03 18:00:00,13,1008.1,1.4,77,9,20000,25.928,,,300,10.7,13.3,,,,,,,,,wg-a,,,,AAXX 03184 07314 12470 43014 10130 20090 30053 40081 53014 60006 82301 91800 333 10133 20107=
07314,1996-05-04 00:00:00,10,1011,1.1,87,8,0,14.816,,,30,,,,,,,,,,,wg-a,,,,AAXX 04004 07314 12/// /0308 10100 20080 30082 40110 51011 60006 90000=
07314,1996-05-04 06:00:00,9,1012.8,1.2,87,7,12000,18.52,,,50,9,12.6,,,,,,,,,wg-a,,,,AAXX 04064 07314 12/62 00510 10090 20070 30100 40128 53012 60006 80000 90600 333 10126 20090=
07314,1996-05-04 12:00:00,15,1014.3,0.4,67,9,15000,11.112,,,50,,,,,,,,,,,wg-a,,,,AAXX 04124 07314 12565 50506 10150 20090 30116 40143 50004 60006 81202 91200=
07314,1996-05-04 18:00:00,15,1013.7,-0.1,72,10,20000,14.816,,,30,9.2,16.2,,,,,,,,,wg-a,,,,AAXX 04184 07314 12570 60308 10150 20100 30110 40137 58001 60006 82202 91800 333 10162 20092=
07314,1996-05-05 00:00:00,11,1014.8,0.3,66,5,500,29.632,,,60,,,,,,,,,,,wg-a,,,,AAXX 05004 07314 12/00 00616 10110 20050 30120 40148 53003 60006 80000 90000=
07314,1996-05-05 06:00:00,9,1013.7,-0.1,76,5,18000,25.928,,,60,8.7,14.6,,,,,,,,,wg-a,,,,AAXX 05064 07314 12768 40614 10090 20050 30109 40137 55001 60006 82532 90600 333 10146 20087=
07314,1996-05-05 12:00:00,17,1012.1,-1.3,72,12,18000,18.52,,,50,,,,,,,,,,,wg-a,,,,AAXX 05124 07314 12868 10510 10170 20120 30094 40121 58013 60006 81040 91200=
07314,1996-05-05 18:00:00,16,1009,-1.4,77,12,500,22.224,,,40,9.1,18,,,,,,,,,wg-a,,,,AAXX 05184 07314 12/00 20412 10160 20120 30063 40090 56014 60006 80002 91800 333 10180 20091=
07314,1996-05-06 00:00:00,14,1008.2,-0.7,77,10,500,18.52,,,60,,,,,,,,,,,wg-a,,,,AAXX 06004 07314 12/00 30610 10140 20100 30055 40082 58007 60006 80002 90000=
07314,1996-05-06 06:00:00,13,1006,-0.4,82,10,20000,25.928,,,80,12.7,16.5,,,,,,,,,wg-a,,,,AAXX 06064 07314 12870 70814 10130 20100 30033 40060 56004 60006 87070 90600 333 10165 20127=
07314,1996-05-06 12:00:00,17,1006.2,-0.3,77,13,18000,11.112,,,70,,,,,,,,,,,wg-a,,,,AAXX 06124 07314 12868 60706 10170 20130 30035 40062 55003 60006 86080 91200=
07314,1996-05-06 18:00:00,17,1003.8,-0.9,77,13,18000,22.224,,,30,12.7,19.5,,,,,,,,,wg-a,,,,AAXX 06184 07314 12668 80312 10170 20130 30011 40038 57009 60006 885// 91800 333 10195 20127=
07314,1996-05-07 00:00:00,14,1004.7,1,77,10,18000,25.928,,,50,,,,,,,,,,,wg-a,,,,AAXX 07004 07314 12568 80514 10140 20100 30020 40047 51010 60006 885// 90000=
07314,1996-05-07 06:00:00,12,1004.6,0.1,82,9,15000,22.224,,,50,12.1,16.6,,,,,,,,,wg-a,,,,AAXX 07064 07314 12665 80512 10120 20090 30019 40046 53001 60006 8257/ 90600 333 10166 20121=
07314,1996-05-07 12:00:00,15,1005.2,0.4,82,12,15000,7.408,,,50,,,,,,,,,,,wg-a,,,,AAXX 07124 07314 12865 80504 10150 20120 30025 40052 51004 60006 8807/ 91200=
07314,1996-05-07 18:00:00,14,1006.3,0.7,94,13,500,3.704,,,20,12,16.1,,2,,,,,,21,wg-a,,,,AAXX 07184 07314 12500 80202 10140 20130 30036 40063 53007 60027 72162 8452/ 91800 333 10161 20120=
07314,1996-05-08 00:00:00,14,1009,1,94,13,15000,7.408,,,140,,,,3,,,,,,2,wg-a,,,,AAXX 08004 07314 02565 81404 10140 20130 30063 40090 51010 60036 70262 885// 90000 333 60037=
07314,1996-05-08 06:00:00,14,1010.7,1.2,94,13,3000,7.408,,,70,13.3,13.8,,,,,,,,21,wg-a,,,,AAXX 08064 07314 02430 80704 10140 20130 30080 40107 53012 61000 72162 885// 90600 333 10138 20133 ////=
07314,1996-05-08 12:00:00,14,1012.4,0.5,100,14,2000,22.224,,,10,,,,,,,,,,28,wg-a,,,,AAXX 08124 07314 12220 70112 10140 20140 30097 40124 51005 60006 72822 876// 91200=
07314,1996-05-08 18:00:00,14,1012.8,0.3,88,12,4000,38.892,,,10,13,16,,,,,,,,10,wg-a,,,,AAXX 08184 07314 12340 70121 10140 20120 30100 40128 53003 60006 71022 876// 91800 333 10160 20130=
07314,1996-05-09 00:00:00,11,1015,0.4,87,9,0,38.892,,,30,,,,,,,,,,,wg-a,,,,AAXX 09004 07314 12/// /0321 10110 20090 30122 40150 52004 60006 90000=
07314,1996-05-09 06:00:00,10,1014.3,0.1,87,8,6000,42.596,,,30,9.9,13.5,,,,,,,,,wg-a,,,,AAXX 09064 07314 32456 80323 10100 20080 30115 40143 53001 885// 90600 333 10135 20099=
07314,1996-05-09 12:00:00,12,1014.1,-0.9,76,8,6000,35.188,,64.82,40,,,,,,,,,,,wg-a,,,,AAXX 09124 07314 12456 80419 10120 20080 30113 40141 58009 60006 885// 91200 333 91035=
07314,1996-05-09 18:00:00,14,1012.7,-0.2,63,7,18000,31.484,,,40,8.9,14.4,,,,,,,,,wg-a,,,,AAXX 09184 07314 12568 80417 10140 20070 30099 40127 55002 60006 885// 91800 333 10144 20089=
07314,1996-05-10 00:00:00,10,1012.4,-0.6,76,6,0,38.892,,,20,,,,,,,,,,,wg-a,,,,AAXX 10004 07314 12/// /0221 10100 20060 30096 40124 58006 60006 90000=
07314,1996-05-10 06:00:00,7,1011.6,-0.1,87,5,8000,38.892,,,30,7.3,13.8,,,,,,,,,wg-a,,,,AAXX 10064 07314 12/58 00321 10070 20050 30088 40116 55001 60006 80000 90600 333 10138 20073=
07314,1996-05-10 12:00:00,13,1010.7,-0.7,62,6,8000,31.484,,,20,,,,,,,,,,,wg-a,,,,AAXX 10124 07314 12/58 10217 10130 20060 30079 40107 58007 60006 80001 91200=
07314,1996-05-10 18:00:00,14,1009.3,-0.2,51,4,20000,25.928,,,20,7.3,14.6,,,,,,,,,wg-a,,,,AAXX 10184 07314 12570 10214 10140 20040 30065 40093 55002 60006 81100 91800 333 10146 20073=
07314,1996-05-11 00:00:00,11,1010.6,-0.4,71,6,0,31.484,,,10,,,,,,,,,,,wg-a,,,,AAXX 11004 07314 12/// /0117 10110 20060 30078 40106 58004 60006 90000=
07314,1996-05-11 06:00:00,10,1010.9,0.8,71,5,10000,29.632,,,30,9.6,13.5,,,,,,,,,wg-a,,,,AAXX 11064 07314 12560 40316 10100 20050 30081 40109 53008 60006 84500 90600 333 10135 20096=
07314,1996-05-11 12:00:00,15,1011.8,0.5,51,5,8000,25.928,,,20,,,,,,,,,,,wg-a,,,,AAXX 11124 07314 12858 30214 10150 20050 30091 40118 51005 60006 81032 91200=
07314,1996-05-11 18:00:00,14,1013.3,1,63,7,15000,22.224,,,340,9.5,15.5,,,,,,,,,wg-a,,,,AAXX 11184 07314 12/65 23412 10140 20070 30105 40133 53010 60006 82100 91800 333 10155 20095=
07314,1996-05-12 00:00:00,10,1016.4,0.7,76,6,0,29.632,,,10,,,,,,,,,,,wg-a,,,,AAXX 12004 07314 12/// /0116 10100 20060 30136 40164 50007 60006 90000=
07314,1996-05-12 06:00:00,9,1019.6,2.2,87,7,3000,18.52,,,350,8.3,14.2,,,,,,,,10,wg-a,,,,AAXX 12064 07314 12/30 03510 10090 20070 30168 40196 53022 60006 71000 80000 90600 333 10142 20083=
07314,1996-05-12 12:00:00,12,1022.3,0.8,71,7,6000,29.632,,,300,,,,,,,,,,,wg-a,,,,AAXX 12124 07314 12/56 03016 10120 20070 30195 40223 52008 60006 80000 91200=
07314,1996-05-12 18:00:00,12,1024.3,1.2,76,8,20000,35.188,,,310,8.5,12.9,,,,,,,,,wg-a,,,,AAXX 12184 07314 12570 23119 10120 20080 30215 40243 51012 60006 82200 91800 333 10129 20085=
07314,1996-05-13 00:00:00,11,1026.1,0.3,82,8,20000,22.224,,,340,,,,,,,,,,,wg-a,,,,AAXX 13004 07314 12/70 03412 10110 20080 30233 40261 51003 60006 80000 90000=
07314,1996-05-13 06:00:00,10,1026.2,0.4,82,7,8000,18.52,,,30,9.1,12.1,,,,,,,,,wg-a,,,,AAXX 13064 07314 12/58 00310 10100 20070 30234 40262 53004 60006 80000 90600 333 10121 20091=
07314,1996-05-13 12:00:00,15,1025.2,-0.9,51,5,15000,14.816,,,20,,,,,,,,,,,wg-a,,,,AAXX 13124 07314 12665 70208 10150 20050 30224 40252 58009 60006 86502 91200=
07314,1996-05-13 18:00:00,13,1023,-1,72,8,0,22.224,,,310,9.5,15.1,,,,,,,,,wg-a,,,,AAXX 13184 07314 12/// /3112 10130 20080 30202 40230 56010 60006 91800 333 10151 20095=
07314,1996-05-14 00:00:00,13,1021.6,-1.3,77,9,18000,14.816,,,20,,,,,,,,,,,wg-a,,,,AAXX 14004 07314 12668 80208 10130 20090 30188 40216 58013 60006 855// 90000=
07314,1996-05-14 06:00:00,12,1018.8,-1.1,71,7,0,29.632,,,30,11.8,13,,,,,,,,,wg-a,,,,AAXX 14064 07314 12/// /0316 10120 20070 30160 40188 58011 60006 90600 333 10130 20118=
07314,1996-05-14 12:00:00,16,1015.9,-1.9,59,8,6000,22.224,,,20,,,,,,,,,,,wg-a,,,,AAXX 14124 07314 12556 10212 10160 20080 30132 40159 58019 60006 81100 91200=
07314,1996-05-14 18:00:00,16,1013.5,-0.9,72,11,8000,18.52,,,60,11.8,17.2,,,,,,,,,wg-a,,,,AAXX 14184 07314 12/58 00610 10160 20110 30108 40135 55009 60006 80000 91800 333 10172 20118=
07314,1996-05-15 00:00:00,12,1013.4,-1,82,9,8000,29.632,,,30,,,,,,,,,,,wg-a,,,,AAXX 15004 07314 12/58 00316 10120 20090 30106 40134 58010 60006 80000 90000=
07314,1996-05-15 06:00:00,11,1012.5,0.1,87,9,4000,29.632,,,40,10.9,15.6,,,,,,,,,wg-a,,,,AAXX 15064 07314 12340 70416 10110 20090 30097 40125 53001 60006 876// 90600 333 10156 20109=
07314,1996-05-15 12:00:00,16,1012,-0.6,77,12,4000,14.816,,,40,,,,,,,,,,,wg-a,,,,AAXX 15124 07314 12340 70408 10160 20120 30093 40120 58006 60006 876// 91200=
07314,1996-05-15 18:00:00,15,1009.5,-0.9,82,12,10000,29.632,,,40,11.2,17.2,,,,,,,,,wg-a,,,,AAXX 15184 07314 12360 20416 10150 20120 30068 40095 57009 60006 82600 91800 333 10172 20112=
07314,1996-05-16 00:00:00,11,1009.2,-0.9,94,10,6000,35.188,,,50,,,,,,,,,,,wg-a,,,,AAXX 16004 07314 12456 80519 10110 20100 30064 40092 58009 60006 885// 90000=
07314,1996-05-16 06:00:00,11,1006,-2,94,10,3000,31.484,,,50,10.8,15.2,,1,,,,,,51,wg-a,,,,AAXX 16064 07314 12430 80517 10110 20100 30032 40060 56020 60017 75152 885// 90600 333 10152 20108=
07314,1996-05-16 12:00:00,14,1005.4,0.8,100,14,2500,25.928,,,200,,,,,,,,,,21,wg-a,,,,AAXX 16124 07314 12425 72014 10140 20140 30027 40054 53008 60016 72196 879// 91200=
07314,1996-05-16 18:00:00,15,1006.4,-0,88,13,6000,14.816,,,230,11,15.7,,,,,,,,,wg-a,,,,AAXX 16184 07314 32/56 12308 10150 20130 30037 40064 55000 80001 91800 333 10157 20110=
07314,1996-05-17 00:00:00,13,1007.5,-0,100,13,0,22.224,,,190,,,,,,,,,,,wg-a,,,,AAXX 17004 07314 12/// /1912 10130 20130 30048 40075 54000 60006 90000=
07314,1996-05-17 06:00:00,13,1004.7,-1.2,100,13,3500,0,,,0,12.9,14.6,,1,,,,,,21,wg-a,,,,AAXX 17064 07314 12435 80000 10130 20130 30020 40047 55012 60017 72162 888// 90600 333 10146 20129=
07314,1996-05-17 12:00:00,17,1004.6,-0.3,82,14,12000,22.224,,,170,,,,,,,,,,,wg-a,,,,AAXX 17124 07314 12462 31712 10170 20140 30019 40046 58003 60006 82201 91200=
07314,1996-05-17 18:00:00,16,1002.1,-1.3,82,13,20000,7.408,,,80,13.3,17.4,,,,,,,,,wg-a,,,,AAXX 17184 07314 12670 80804 10160 20130 39994 40021 58013 60006 8157/ 91800 333 10174 20133=
07314,1996-05-18 00:00:00,14,1000.9,-0.9,88,12,500,11.112,,,130,,,,,,,,,,,wg-a,,,,AAXX 18004 07314 12600 81306 10140 20120 39982 40009 58009 60006 8257/ 90000=
07314,1996-05-18 06:00:00,14,999.5,0.1,100,14,11000,14.816,,,170,12.7,15.7,,,,,,,,,wg-a,,,,AAXX 18064 07314 12561 71708 10140 20140 39968 49995 53001 60006 8553/ 90600 333 10157 20127=
07314,1996-05-18 12:00:00,16,996.6,-2.3,82,13,10000,38.892,,64.82,170,,,,1,,,,,,61,wg-a,,,,AAXX 18124 07314 02860 81721 10160 20130 39939 49966 58023 60016 76162 8807/ 91200 333 60017 91035=
07314,1996-05-18 18:00:00,13,1001,3.2,77,9,18000,50.004,,90.748,220,12.9,17.8,,,,,,,,,wg-a,,,,AAXX 18184 07314 32568 62227 10130 20090 39983 40010 51032 86500 91800 333 10178 20129 91049=
07314,1996-05-19 00:00:00,11,1005.2,1.1,76,7,500,25.928,,,260,,,,,,,,,,,wg-a,,,,AAXX 19004 07314 12500 62614 10110 20070 30024 40052 50011 60006 86500 90000=
07314,1996-05-19 06:00:00,11,1006.1,1,76,7,500,22.224,,53.708,220,8.6,13.2,,0,,,,,,2,wg-a,,,,AAXX 19064 07314 12400 52212 10110 20070 30033 40061 51010 60007 70282 84903 90600 333 10132 20086 91029=
07314,1996-05-19 12:00:00,14,1008.9,1.1,63,7,500,29.632,,,220,,,,,,,,,,,wg-a,,,,AAXX 19124 07314 12400 62216 10140 20070 30062 40089 51011 60006 86300 91200=
07314,1996-05-19 18:00:00,13,1009.9,0.7,67,7,500,18.52,,,210,10.7,13.7,,,,,,,,,wg-a,,,,AAXX 19184 07314 12500 32110 10130 20070 30071 40099 51007 60006 83200 91800 333 10137 20107=
07314,1996-05-20 00:00:00,11,1011.9,0.6,76,7,500,3.704,,,80,,,,,,,,,,,wg-a,,,,AAXX 20004 07314 12800 50802 10110 20070 30091 40119 53006 60006 85040 90000=
07314,1996-05-20 06:00:00,11,1015.5,2,87,9,20000,11.112,,,160,8.5,13.2,,,,,,,,,wg-a,,,,AAXX 20064 07314 12570 61606 10110 20090 30127 40155 53020 60006 84960 90600 333 10132 20085=
07314,1996-05-20 12:00:00,14,1018.2,0.9,72,9,25000,22.224,,,240,,,,,,,,,,,wg-a,,,,AAXX 20124 07314 12575 42412 10140 20090 30154 40182 52009 60006 84960 91200=
07314,1996-05-20 18:00:00,14,1019.7,0.6,72,9,25000,18.52,,,260,10.7,15.1,,,,,,,,,wg-a,,,,AAXX 20184 07314 12575 32610 10140 20090 30169 40197 51006 60006 83100 91800 333 10151 20107=
07314,1996-05-21 00:00:00,13,1021.5,0.7,72,8,35000,29.632,,,220,,,,,,,,,,,wg-a,,,,AAXX 21004 07314 12581 22216 10130 20080 30187 40215 51007 60006 82100 90000=
07314,1996-05-21 06:00:00,13,1022.4,1,77,9,500,29.632,,,270,11.5,13.9,,1,,,,,,3,wg-a,,,,AAXX 21064 07314 12400 72716 10130 20090 30196 40224 53010 60017 70381 85943 90600 333 10139 20115=
07314,1996-05-21 12:00:00,14,1025.8,1.7,72,9,20000,18.52,,,250,,,,,,,,,,,wg-a,,,,AAXX 21124 07314 12470 62510 10140 20090 30230 40258 51017 60006 85330 91200=
07314,1996-05-21 18:00:00,14,1027.7,0.8,63,7,500,18.52,,,280,12.7,14.9,,,,,,,,,wg-a,,,,AAXX 21184 07314 12500 52810 10140 20070 30249 40277 51008 60006 83202 91800 333 10149 20127=
07314,1996-05-22 00:00:00,12,1028.4,-0.7,71,7,0,11.112,,,220,,,,,,,,,,,wg-a,,,,AAXX 22004 07314 12/// /2206 10120 20070 30256 40284 58007 60006 90000=
07314,1996-05-22 06:00:00,13,1026.2,-0.8,77,9,20000,22.224,,,180,10.5,13.6,,,,,,,,,wg-a,,,,AAXX 22064 07314 12470 61812 10130 20090 30234 40262 56008 60006 84532 90600 333 10136 20105=
07314,1996-05-22 12:00:00,15,1025.3,-0.6,77,11,25000,31.484,,,190,,,,,,,,,,,wg-a,,,,AAXX 22124 07314 12475 51917 10150 20110 30225 40253 58006 60006 82542 91200=
07314,1996-05-22 18:00:00,14,1023.9,-0.7,88,12,10000,31.484,,,200,13,15.2,,0,,,,,,60,wg-a,,,,AAXX 22184 07314 12760 82017 10140 20120 30211 40239 58007 60007 76062 8802/ 91800 333 10152 20130=
07314,1996-05-23 00:00:00,14,1023.9,-0,100,14,6000,29.632,,,240,,,,,,,,,,50,wg-a,,,,AAXX 23004 07314 02756 82416 10140 20140 30211 40239 55000 61000 75065 8802/ 90000 333 6100=
07314,1996-05-23 06:00:00,14,1024.3,0.9,94,13,6000,25.928,,,240,13.5,14.5,,0,,,,,,2,wg-a,,,,AAXX 23064 07314 12456 82414 10140 20130 30215 40243 53009 60007 70262 887// 90600 333 10145 20135=
07314,1996-05-23 12:00:00,15,1024.5,-0.5,88,13,6000,14.816,,,190,,,,,,,,,,15,wg-a,,,,AAXX 23124 07314 12256 81908 10150 20130 30217 40245 58005 60006 71522 887// 91200=
07314,1996-05-23 18:00:00,15,1021.4,-1.4,88,13,25000,7.408,,,280,13.3,16.3,,,,,,,,,wg-a,,,,AAXX 23184 07314 12575 52804 10150 20130 30186 40214 56014 60006 84501 91800 333 10163 20133=
07314,1996-05-24 00:00:00,13,1019.2,-1.1,94,12,500,7.408,,,330,,,,,,,,,,,wg-a,,,,AAXX 24004 07314 12500 33304 10130 20120 30164 40192 56011 60006 81231 90000=
07314,1996-05-24 06:00:00,13,1017.5,-0.2,94,12,10000,14.816,,,320,12.8,15.1,,,,,,,,,wg-a,,,,AAXX 24064 07314 12460 73208 10130 20120 30147 40175 55002 60006 875// 90600 333 10151 20128=
07314,1996-05-24 12:00:00,15,1017.3,-0.1,82,12,10000,18.52,,,230,,,,,,,,,,,wg-a,,,,AAXX 24124 07314 12460 52310 10150 20120 30146 40173 58001 60006 83102 91200=
07314,1996-05-24 18:00:00,15,1016.1,-0.2,82,12,18000,22.224,,,230,13.3,16.2,,,,,,,,,wg-a,,,,AAXX 24184 07314 12568 42312 10150 20120 30134 40161 58002 60006 82130 91800 333 10162 20133=
07314,1996-05-25 00:00:00,14,1016,-0.5,100,14,0,29.632,,,230,,,,,,,,,,,wg-a,,,,AAXX 25004 07314 12/// /2316 10140 20140 30132 40160 58005 60016 90000=
07314,1996-05-25 06:00:00,15,1013.9,-0.7,94,14,2000,38.892,,,210,14.1,15,,1,,,,,,50,wg-a,,,,AAXX 25064 07314 12620 82121 10150 20140 30112 40139 58007 60017 75052 8802/ 90600 333 10150 20141=
07314,1996-05-25 12:00:00,15,1014.8,-0,94,14,2000,35.188,,,210,,,,2,,,,,,60,wg-a,,,,AAXX 25124 07314 02220 82119 10150 20140 30121 40148 55000 60056 76065 877// 91200 333 60027=
07314,1996-05-25 18:00:00,15,1016.2,1.2,94,14,6000,29.632,,,250,13.6,14.9,,0,,,,,,50,wg-a,,,,AAXX 25184 07314 12356 82516 10150 20140 30134 40162 53012 60007 75065 877// 91800 333 10149 20136=
07314,1996-05-26 00:00:00,14,1019,0.8,100,14,0,29.632,,,260,,,,,,,,,,,wg-a,,,,AAXX 26004 07314 12/// /2616 10140 20140 30162 40190 51008 60006 90000=
07314,1996-05-26 06:00:00,13,1021.3,1.6,94,12,3000,25.928,,,270,13.1,14.5,,,,,,,,50,wg-a,,,,AAXX 26064 07314 02430 82714 10130 20120 30185 40213 53016 61000 75052 885// 90600 333 10145 20131 ////=
07314,1996-05-26 12:00:00,15,1023.1,0.8,88,13,20000,29.632,,,220,,,,,,,,,,,wg-a,,,,AAXX 26124 07314 02470 62216 10150 20130 30203 40231 51008 61000 86500 91200 333 ////=
07314,1996-05-26 18:00:00,15,1021.7,-0.7,94,14,8000,29.632,,,230,13,15.5,,0,,,,,,21,wg-a,,,,AAXX 26184 07314 12558 82316 10150 20140 30189 40217 56007 60007 72162 885// 91800 333 10155 20130=
07314,1996-05-27 00:00:00,14,1020.6,-0.2,88,12,20000,35.188,,,270,,,,,,,,,,,wg-a,,,,AAXX 27004 07314 12570 82719 10140 20120 30178 40206 56002 60006 885// 90000=
07314,1996-05-27 06:00:00,14,1020.9,0.6,82,11,15000,35.188,,,280,13.6,14.8,,,,,,,,,wg-a,,,,AAXX 27064 07314 12565 82819 10140 20110 30181 40209 53006 60006 885// 90600 333 10148 20136=
07314,1996-05-27 12:00:00,14,1022.7,0.7,82,11,15000,35.188,,,280,,,,,,,,,,,wg-a,,,,AAXX 27124 07314 12565 82819 10140 20110 30199 40227 53007 60006 885// 91200=
07314,1996-05-27 18:00:00,14,1024.2,0.6,88,12,18000,31.484,,,300,13.6,14.4,,,,,,,,,wg-a,,,,AAXX 27184 07314 12568 83017 10140 20120 30214 40242 53006 60006 885// 91800 333 10144 20136=
07314,1996-05-28 00:00:00,13,1026.6,1.1,88,11,500,22.224,,,300,,,,,,,,,,3,wg-a,,,,AAXX 28004 07314 12800 43012 10130 20110 30238 40266 51011 60006 70361 84055 90000=
07314,1996-05-28 06:00:00,13,1027,0.7,94,12,18000,11.112,,,280,12.8,13.7,,,,,,,,,wg-a,,,,AAXX 28064 07314 32468 62806 10130 20120 30242 40270 53007 86500 90600 333 10137 20128=
07314,1996-05-28 12:00:00,16,1027.6,0.1,82,13,18000,11.112,,,290,,,,,,,,,,,wg-a,,,,AAXX 28124 07314 12668 52906 10160 20130 30248 40276 50001 60006 85500 91200=
07314,1996-05-28 18:00:00,16,1025.6,-1.2,77,12,35000,14.816,,,300,13.4,16.3,,,,,,,,,wg-a,,,,AAXX 28184 07314 12/81 03008 10160 20120 30228 40256 56012 60006 80000 91800 333 10163 20134=
07314,1996-05-29 00:00:00,14,1024.9,-1.1,88,12,0,11.112,,,20,,,,,,,,,,,wg-a,,,,AAXX 29004 07314 12/// /0206 10140 20120 30221 40249 58011 60006 90000=
07314,1996-05-29 06:00:00,14,1023.7,0.1,88,12,18000,11.112,,,70,13.3,15.5,,,,,,,,,wg-a,,,,AAXX 29064 07314 12/68 00706 10140 20120 30209 40237 52001 60006 80000 90600 333 10155 20133=
07314,1996-05-29 12:00:00,20,1022.7,-1.1,68,14,16000,7.408,,,20,,,,,,,,,,,wg-a,,,,AAXX 29124 07314 12/66 00204 10200 20140 30200 40227 58011 60006 80000 91200=
07314,1996-05-29 18:00:00,18,1019.6,-1.6,77,14,25000,18.52,,,330,14.3,20.6,,,,,,,,,wg-a,,,,AAXX 29184 07314 12/75 03310 10180 20140 30169 40196 56016 60006 80000 91800 333 10206 20143=
07314,1996-05-30 00:00:00,17,1018.2,-1.7,88,15,0,11.112,,,70,,,,,,,,,,,wg-a,,,,AAXX 30004 07314 12/// /0706 10170 20150 30155 40182 58017 60006 90000=
07314,1996-05-30 06:00:00,16,1015.9,-0.4,88,14,18000,14.816,,,80,15.1,17.6,,,,,,,,,wg-a,,,,AAXX 30064 07314 12/68 10808 10160 20140 30132 40159 56004 60006 80001 90600 333 10176 20151=
07314,1996-05-30 12:00:00,24,1014.4,-1.2,61,16,18000,11.112,,,170,,,,,,,,,,,wg-a,,,,AAXX 30124 07314 12/68 21706 10240 20160 30117 40144 58012 60006 80004 91200=
07314,1996-05-30 18:00:00,19,1014.7,0.8,78,15,20000,18.52,,,250,16.1,26.7,,,,,,,,,wg-a,,,,AAXX 30184 07314 12/70 22510 10190 20150 30120 40147 53008 60006 80002 91800 333 10267 20161=
07314,1996-05-31 00:00:00,15,1020,2.8,94,14,0,29.632,,,290,,,,,,,,,,,wg-a,,,,AAXX 31004 07314 12/// /2916 10150 20140 30172 40200 51028 60006 90000=
07314,1996-05-31 06:00:00,15,1022.9,1.7,88,13,14000,18.52,,,300,14.4,18.9,,,,,,,,,wg-a,,,,AAXX 31064 07314 12464 73010 10150 20130 30201 40229 53017 60006 8788/ 90600 333 10189 20144=
07314,1996-05-31 12:00:00,17,1024.8,0.4,77,13,18000,14.816,,,290,,,,,,,,,,,wg-a,,,,AAXX 31124 07314 12868 52908 10170 20130 30220 40248 50004 60006 85030 91200=
07314,1996-05-31 18:00:00,15,1024.6,-0.1,77,11,18000,29.632,,,300,14.5,16.9,,,,,,,,,wg-a,,,,AAXX 31184 07314 12668 83016 10150 20110 30218 40246 55001 60006 8452/ 91800 333 10169 20145=
07314,1996-06-01 00:00:00,14,1026.2,0.7,77,10,500,22.224,,,290,,,,,,,,,,,wg-a,,,,AAXX 01004 07314 12500 22912 10140 20100 30234 40262 51007 60006 82100 90000=
07314,1996-06-01 06:00:00,14,1026.4,0.9,77,10,20000,14.816,,,270,13.4,14.6,,,,,,,,,wg-a,,,,AAXX 01064 07314 12570 72708 10140 20100 30236 40264 53009 60006 83402 90600 333 10146 20134=
07314,1996-06-01 12:00:00,16,1025.9,-0.6,68,10,25000,14.816,,,240,,,,,,,,,,,wg-a,,,,AAXX 01124 07314 12575 72408 10160 20100 30231 40259 55006 60006 84812 91200=
07314,1996-06-01 18:00:00,14,1024.1,-1.2,77,10,25000,18.52,,,260,13.8,16.1,,,,,,,,,wg-a,,,,AAXX 01184 07314 12575 72610 10140 20100 30213 40241 58012 60006 84812 91800 333 10161 20138=
07314,1996-06-02 00:00:00,13,1021.9,-1.4,72,8,0,14.816,,,310,,,,,,,,,,,wg-a,,,,AAXX 02004 07314 12/// /3108 10130 20080 30191 40219 58014 60006 90000=
07314,1996-06-02 06:00:00,13,1019.3,-0.8,77,9,12000,7.408,,,340,12.4,14.4,,,,,,,,15,wg-a,,,,AAXX 02064 07314 12462 73404 10130 20090 30165 40193 56008 60006 71522 85332 90600 333 10144 20124=
07314,1996-06-02 12:00:00,15,1019,-0.3,72,10,25000,14.816,,,290,,,,,,,,,,,wg-a,,,,AAXX 02124 07314 12475 62908 10150 20100 30162 40190 55003 60006 82212 91200=
07314,1996-06-02 18:00:00,14,1018.8,0.1,77,10,25000,31.484,,,310,12.7,15.7,,,,,,,,,wg-a,,,,AAXX 02184 07314 12675 33117 10140 20100 30160 40188 53001 60006 82511 91800 333 10157 20127=
07314,1996-06-03 00:00:00,14,1020.8,0.3,82,11,500,25.928,,,330,,,,,,,,,,,wg-a,,,,AAXX 03004 07314 12/00 03314 10140 20110 30180 40208 50003 60006 80000 90000=
07314,1996-06-03 06:00:00,13,1023.1,1.8,88,11,16000,14.816,,,360,12,14.5,,,,,,,,,wg-a,,,,AAXX 03064 07314 12/66 03608 10130 20110 30203 40231 53018 60006 80000 90600 333 10145 20120=
07314,1996-06-03 12:00:00,16,1024.8,0.4,68,10,18000,18.52,,,290,,,,,,,,,,,wg-a,,,,AAXX 03124 07314 12568 12910 10160 20100 30220 40248 51004 60006 81100 91200=
07314,1996-06-04 00:00:00,14,1026.5,0.3,88,12,25000,14.816,,,350,,,,,,,,,,,wg-a,,,,AAXX 04004 07314 12/75 03508 10140 20120 30237 40265 50003 60006 80000 90000=
07314,1996-06-04 06:00:00,14,1027.6,1.2,88,12,0,14.816,,,20,12.7,15.5,,,,,,,,,wg-a,,,,AAXX 04064 07314 12/// /0208 10140 20120 30248 40276 51012 60006 90600 333 10155 20127=
07314,1996-06-04 12:00:00,20,1026.9,-0.8,60,12,20000,7.408,,,310,,,,,,,,,,,wg-a,,,,AAXX 04124 07314 12/70 03104 10200 20120 30242 40269 58008 60006 80000 91200=
07314,1996-06-04 18:00:00,18,1024.5,-1.1,73,13,25000,25.928,,,330,13.7,19.8,,,,,,,,,wg-a,,,,AAXX 04184 07314 12/75 03314 10180 20130 30218 40245 56011 60006 80000 91800 333 10198 20137=
07314,1996-06-05 00:00:00,17,1024.1,-0.7,82,14,500,7.408,,,60,,,,,,,,,,,wg-a,,,,AAXX 05004 07314 12/00 00604 10170 20140 30213 40241 58007 60006 80000 90000=
07314,1996-06-05 06:00:00,17,1022.3,-0.4,77,13,15000,14.816,,,80,15.5,18.2,,,,,,,,,wg-a,,,,AAXX 05064 07314 12/65 00808 10170 20130 30196 40223 58004 60006 80000 90600 333 10182 20155=
07314,1996-06-05 12:00:00,25,1021.2,-0.8,57,16,15000,7.408,,,40,,,,,,,,,,,wg-a,,,,AAXX 05124 07314 12/65 00404 10250 20160 30185 40212 58008 60006 80000 91200=
07314,1996-06-05 18:00:00,22,1018.9,-1,69,16,25000,3.704,,,310,16.6,26.8,,,,,,,,,wg-a,,,,AAXX 05184 07314 12/75 03102 10220 20160 30162 40189 56010 60006 80000 91800 333 10268 20166=
07314,1996-06-06 00:00:00,21,1018.2,-0.8,69,15,25000,14.816,,,110,,,,,,,,,,,wg-a,,,,AAXX 06004 07314 12/75 01108 10210 20150 30155 40182 58008 60006 80000 90000=
07314,1996-06-06 06:00:00,20,1017.8,0.3,78,16,12000,18.52,,,120,18.2,22.2,,,,,,,,,wg-a,,,,AAXX 06064 07314 12/62 21210 10200 20160 30151 40178 53003 60006 80002 90600 333 10222 20182=
07314,1996-06-06 12:00:00,23,1018.2,0.3,73,18,15000,22.224,,,170,,,,,,,,,,,wg-a,,,,AAXX 06124 07314 12/65 31712 10230 20180 30155 40182 51003 60006 80002 91200=
07314,1996-06-06 18:00:00,23,1016.8,-1.1,65,16,11000,0,,,0,20.2,24.8,,,,,,,,,wg-a,,,,AAXX 06184 07314 12/61 20000 10230 20160 30141 40168 56011 60006 80002 91800 333 10248 20202=
07314,1996-06-07 00:00:00,23,1015.9,-0.6,65,16,25000,22.224,,,130,,,,,,,,,,,wg-a,,,,AAXX 07004 07314 12/75 01312 10230 20160 30132 40159 58006 60006 80000 90000=
07314,1996-06-07 06:00:00,21,1015.3,-0,73,16,11000,22.224,,,130,20.1,23.7,,,,,,,,,wg-a,,,,AAXX 07064 07314 12/61 01312 10210 20160 30126 40153 55000 60006 80000 90600 333 10237 20201=
07314,1996-06-07 12:00:00,26,1015.2,-0.1,61,18,18000,25.928,,,170,,,,,,,,,,,wg-a,,,,AAXX 07124 07314 12/68 01714 10260 20180 30126 40152 58001 60006 80000 91200=
07314,1996-06-07 18:00:00,18,1015.1,-0.4,88,16,2500,22.224,,,270,17.7,28.4,,,,,,,,10,wg-a,,,,AAXX 07184 07314 12/25 42712 10180 20160 30124 40151 57004 60006 71000 80004 91800 333 10284 20177=
07314,1996-06-08 00:00:00,18,1020.1,4,88,16,0,14.816,,,220,,,,,,,,,,,wg-a,,,,AAXX 08004 07314 12/// /2208 10180 20160 30174 40201 53040 60006 90000=
07314,1996-06-08 06:00:00,17,1020,1.3,94,16,12000,18.52,,,220,16.8,18.3,,,,,,,,15,wg-a,,,,AAXX 08064 07314 32462 62210 10170 20160 30173 40200 51013 71598 85960 90600 333 10183 20168=
07314,1996-06-08 12:00:00,17,1023.2,1.1,88,15,12000,14.816,,,270,,,,,,,,,,15,wg-a,,,,AAXX 08124 07314 12462 72708 10170 20150 30205 40232 51011 60006 71582 8596/ 91200=
07314,1996-06-08 18:00:00,17,1023.2,-0.3,82,14,18000,14.816,,,310,16.5,18.2,,,,,,,,,wg-a,,,,AAXX 08184 07314 32568 13108 10170 20140 30204 40232 57003 81100 91800 333 10182 20165=
07314,1996-06-09 00:00:00,16,1023.5,-0.3,88,14,0,18.52,,,40,,,,,,,,,,,wg-a,,,,AAXX 09004 07314 12/// /0410 10160 20140 30207 40235 58003 60006 90000=
07314,1996-06-09 06:00:00,16,1022.6,0.1,94,15,0,11.112,,,70,14.8,16.5,,,,,,,,,wg-a,,,,AAXX 09064 07314 12/// /0706 10160 20150 30198 40226 52001 60006 90600 333 10165 20148=
07314,1996-06-09 12:00:00,21,1022.1,-0.5,83,18,2500,7.408,,,350,,,,,,,,,,10,wg-a,,,,AAXX 09124 07314 12325 43504 10210 20180 30194 40221 57005 60006 71011 84600 91200=
07314,1996-06-09 18:00:00,19,1020,-0.8,88,17,12000,14.816,,,310,15.5,21.7,,,,,,,,,wg-a,,,,AAXX 09184 07314 12/62 03108 10190 20170 30173 40200 56008 60006 80000 91800 333 10217 20155=
07314,1996-06-10 00:00:00,18,1020.5,-0.1,88,16,20000,22.224,,,310,,,,,,,,,,,wg-a,,,,AAXX 10004 07314 12/70 03112 10180 20160 30178 40205 58001 60006 80000 90000=
07314,1996-06-10 06:00:00,17,1021.3,0.6,88,15,25000,18.52,,,340,16.7,19.5,,,,,,,,,wg-a,,,,AAXX 10064 07314 12575 23410 10170 20150 30186 40213 51006 60006 82200 90600 333 10195 20167=
07314,1996-06-10 12:00:00,18,1023,0.4,83,15,20000,22.224,,,300,,,,3,,,,,,,wg-a,,,,AAXX 10124 07314 02670 53012 10180 20150 30203 40230 50004 60006 83530 91200 333 60037=
07314,1996-06-10 18:00:00,18,1022.6,-0.1,88,16,20000,22.224,,,300,17.1,19.1,,,,,,,,,wg-a,,,,AAXX 10184 07314 12870 63012 10180 20160 30199 40226 55001 60006 83032 91800 333 10191 20171=
07314,1996-06-11 00:00:00,17,1023.9,-0.1,94,16,25000,18.52,,,340,,,,,,,,,,,wg-a,,,,AAXX 11004 07314 12/75 23410 10170 20160 30211 40239 58001 60006 80002 90000=
07314,1996-06-11 06:00:00,17,1024.8,0.5,94,16,12000,11.112,,,350,15.9,17.7,,0,,,,,,,wg-a,,,,AAXX 11064 07314 12/62 03506 10170 20160 30220 40248 53005 60007 80000 90600 333 10177 20159=
07314,1996-06-11 12:00:00,19,1025.8,0.2,83,16,14000,14.816,,,310,,,,,,,,,,,wg-a,,,,AAXX 11124 07314 12/64 03108 10190 20160 30231 40258 50002 60006 80000 91200=
07314,1996-06-11 18:00:00,19,1026,0.1,83,16,20000,22.224,,,310,16.6,19.9,,,,,,,,,wg-a,,,,AAXX 11184 07314 12/70 03112 10190 20160 30233 40260 53001 60006 80000 91800 333 10199 20166=
07314,1996-06-12 00:00:00,17,1028.1,0.7,94,16,25000,18.52,,,320,,,,,,,,,,,wg-a,,,,AAXX 12004 07314 12/75 03210 10170 20160 30253 40281 51007 60006 80000 90000=
07314,1996-06-12 06:00:00,17,1030.1,1.6,88,15,25000,14.816,,,20,16.5,18.7,,,,,,,,,wg-a,,,,AAXX 12064 07314 12575 80208 10170 20150 30273 40301 53016 60006 885// 90600 333 10187 20165=
07314,1996-06-12 12:00:00,20,1030.6,-0,78,16,25000,18.52,,,290,,,,,,,,,,,wg-a,,,,AAXX 12124 07314 12575 22910 10200 20160 30279 40306 55000 60006 82500 91200=
07314,1996-06-12 18:00:00,19,1028.8,-1.1,78,15,25000,31.484,,,320,17.1,20.5,,,,,,,,,wg-a,,,,AAXX 12184 07314 12575 13217 10190 20150 30261 40288 56011 60006 81500 91800 333 10205 20171=
07314,1996-06-13 00:00:00,17,1030.3,0.4,82,14,20000,29.632,,,30,,,,,,,,,,,wg-a,,,,AAXX 13004 07314 12/70 00316 10170 20140 30275 40303 50004 60006 80000 90000=
07314,1996-06-13 06:00:00,16,1030.1,0.2,82,13,0,29.632,,,40,15.6,18.9,,,,,,,,,wg-a,,,,AAXX 13064 07314 12/// /0416 10160 20130 30273 40301 53002 60006 90600 333 10189 20156=
07314,1996-06-13 12:00:00,22,1029.4,-0.8,60,14,12000,25.928,,,40,,,,,,,,,,,wg-a,,,,AAXX 13124 07314 12/62 00414 10220 20140 30267 40294 58008 60006 80000 91200=
07314,1996-06-13 18:00:00,23,1026.3,-1.2,50,12,0,29.632,,,50,15.9,23.1,,,,,,,,,wg-a,,,,AAXX 13184 07314 12/// /0516 10230 20120 30236 40263 56012 60006 91800 333 10231 20159=
07314,1996-06-14 00:00:00,18,1027.1,-0.4,64,11,25000,31.484,,,50,,,,,,,,,,,wg-a,,,,AAXX 14004 07314 12/75 00517 10180 20110 30243 40271 58004 60006 80000 90000=
07314,1996-06-14 06:00:00,16,1026.2,0.1,68,10,15000,35.188,,,50,15.4,22.5,,,,,,,,,wg-a,,,,AAXX 14064 07314 12/65 00519 10160 20100 30234 40262 53001 60006 80000 90600 333 10225 20154=
07314,1996-06-14 12:00:00,22,1024.7,-1.1,53,12,20000,25.928,,,40,,,,,,,,,,,wg-a,,,,AAXX 14124 07314 12/70 00414 10220 20120 30220 40247 58011 60006 80000 91200=
07314,1996-06-14 18:00:00,23,1022.1,-0.7,57,14,25000,29.632,,,50,15.7,23.5,,,,,,,,,wg-a,,,,AAXX 14184 07314 12/75 00516 10230 20140 30194 40221 56007 60006 80000 91800 333 10235 20157=
07314,1996-06-15 00:00:00,18,1022.5,-0.5,68,12,25000,29.632,,,30,,,,,,,,,,,wg-a,,,,AAXX 15004 07314 12/75 00316 10180 20120 30198 40225 58005 60006 80000 90000=
07314,1996-06-15 06:00:00,16,1021.2,-0.3,72,11,25000,31.484,,,50,16.2,22.8,,,,,,,,,wg-a,,,,AAXX 15064 07314 12/75 20517 10160 20110 30184 40212 55003 60006 80002 90600 333 10228 20162=
07314,1996-06-15 12:00:00,24,1020.5,-0.6,50,13,25000,18.52,,,60,,,,,,,,,,,wg-a,,,,AAXX 15124 07314 12/75 30610 10240 20130 30178 40205 56006 60006 80003 91200=
07314,1996-06-15 18:00:00,23,1018.4,-1.1,57,14,25000,22.224,,,50,16.4,24.9,,,,,,,,,wg-a,,,,AAXX 15184 07314 12/75 30512 10230 20140 30157 40184 56011 60006 80001 91800 333 10249 20164=
07314,1996-06-16 00:00:00,18,1019.6,0.1,73,13,500,22.224,,,40,,,,,,,,,,,wg-a,,,,AAXX 16004 07314 12/00 00412 10180 20130 30169 40196 50001 60006 80000 90000=
07314,1996-06-16 06:00:00,17,1018.7,0.2,72,12,20000,22.224,,,60,16.6,23.4,,,,,,,,,wg-a,,,,AAXX 16064 07314 12/70 10612 10170 20120 30160 40187 53002 60006 80001 90600 333 10234 20166=
07314,1996-06-16 12:00:00,24,1018.8,-0.2,57,15,20000,18.52,,,50,,,,,,,,,,,wg-a,,,,AAXX 16124 07314 12/70 10510 10240 20150 30161 40188 57002 60006 80001 91200=
07314,1996-06-16 18:00:00,23,1016.8,-0.8,57,14,20000,14.816,,,40,17.4,25.7,,,,,,,,,wg-a,,,,AAXX 16184 07314 12/70 10408 10230 20140 30141 40168 56008 60006 80001 91800 333 10257 20174=
07314,1996-06-17 00:00:00,19,1018.1,0.4,73,14,500,18.52,,,40,,,,,,,,,,,wg-a,,,,AAXX 17004 07314 12/00 10410 10190 20140 30154 40181 50004 60006 80001 90000=
07314,1996-06-17 06:00:00,18,1017.8,0.4,73,13,20000,11.112,,,60,17,23.5,,,,,,,,,wg-a,,,,AAXX 17064 07314 12/70 20606 10180 20130 30151 40178 53004 60006 80002 90600 333 10235 20170=
07314,1996-06-17 12:00:00,26,1017.4,-0.3,51,15,20000,11.112,,,20,,,,,,,,,,,wg-a,,,,AAXX 17124 07314 12/70 30206 10260 20150 30148 40174 57003 60006 80002 91200=
07314,1996-06-17 18:00:00,23,1016.2,-0.6,61,15,25000,22.224,,,330,18.1,27.8,,,,,,,,,wg-a,,,,AAXX 17184 07314 12/75 43312 10230 20150 30135 40162 56006 60006 80002 91800 333 10278 20181=
07314,1996-06-18 00:00:00,21,1016.6,-0.3,64,14,25000,11.112,,,70,,,,,,,,,,,wg-a,,,,AAXX 18004 07314 12/75 00706 10210 20140 30139 40166 56003 60006 80000 90000=
07314,1996-06-18 06:00:00,18,1016.2,0.2,94,17,20000,7.408,,,20,18,22.8,,,,,,,,,wg-a,,,,AAXX 18064 07314 12/70 60204 10180 20170 30135 40162 53002 60006 80002 90600 333 10228 20180=
07314,1996-06-18 12:00:00,26,1016.5,0.1,39,11,20000,7.408,,,290,,,,,,,,,,,wg-a,,,,AAXX 18124 07314 12/70 12904 10260 20110 30139 40165 50001 60006 80002 91200=
07314,1996-06-18 18:00:00,22,1015,-1.1,73,17,25000,11.112,,,290,18.4,26.7,,,,,,,,,wg-a,,,,AAXX 18184 07314 12/75 22906 10220 20170 30123 40150 56011 60006 80002 91800 333 10267 20184=
07314,1996-06-19 00:00:00,19,1015.3,0.2,88,17,25000,7.408,,,310,,,,,,,,,,,wg-a,,,,AAXX 19004 07314 12/75 53104 10190 20170 30126 40153 52002 60006 80002 90000=
07314,1996-06-19 12:00:00,20,1015.4,0.4,88,18,12000,18.52,,,250,,,,,,,,,,2,wg-a,,,,AAXX 19124 07314 12462 72510 10200 20180 30127 40154 51004 60006 70242 85963 91200=
07314,1996-06-19 18:00:00,18,1013.7,-1.1,88,16,8000,18.52,,,280,18.4,20.8,,,,,,,,,wg-a,,,,AAXX 19184 07314 12358 72810 10180 20160 30110 40137 56011 60006 86682 91800 333 10208 20184=
07314,1996-06-20 00:00:00,18,1013.7,-0.3,88,16,25000,18.52,,,260,,,,0,,,,,,,wg-a,,,,AAXX 20004 07314 02575 62610 10180 20160 30110 40137 58003 60006 82482 90000 333 60007=
07314,1996-06-20 06:00:00,18,1012.6,-0.1,77,14,25000,18.52,,,270,17.1,18.6,,,,,,,,,wg-a,,,,AAXX 20064 07314 32575 62710 10180 20140 30099 40126 56001 82232 90600 333 10186 20171=
07314,1996-06-20 12:00:00,20,1012.6,-0.3,73,15,25000,14.816,,,250,,,,,,,,,,,wg-a,,,,AAXX 20124 07314 12575 32508 10200 20150 30099 40126 58003 60006 82230 91200=
07314,1996-06-20 18:00:00,20,1011,-1,68,14,500,11.112,,,270,17.8,20.9,,,,,,,,,wg-a,,,,AAXX 20184 07314 12500 52706 10200 20140 30083 40110 57010 60006 82232 91800 333 10209 20178=
07314,1996-06-21 00:00:00,17,1009.8,-1.1,88,15,500,11.112,,,330,,,,,,,,,,,wg-a,,,,AAXX 21004 07314 12800 43306 10170 20150 30071 40098 58011 60006 83031 90000=
07314,1996-06-21 06:00:00,16,1008,0.2,94,15,18000,7.408,,,40,16.1,19.7,,1,,,,,,21,wg-a,,,,AAXX 21064 07314 12568 80404 10160 20150 30053 40080 50002 60017 72162 888// 90600 333 10197 20161=
07314,1996-06-21 12:00:00,17,1008.7,0.2,88,15,20000,14.816,,,260,,,,1,,,,,,2,wg-a,,,,AAXX 21124 07314 02570 82608 10170 20150 30060 40087 52002 60016 70262 888// 91200 333 60017=
07314,1996-06-21 18:00:00,18,1010,1.3,83,15,18000,38.892,,,310,16.1,18.8,,,,,,,,,wg-a,,,,AAXX 21184 07314 32568 63121 10180 20150 30073 40100 53013 85960 91800 333 10188 20161=
07314,1996-06-22 00:00:00,17,1013.7,1.4,68,11,0,25.928,,,360,,,,,,,,,,,wg-a,,,,AAXX 22004 07314 12/// /3614 10170 20110 30110 40137 51014 60006 90000=
07314,1996-06-22 06:00:00,14,1018.3,2.3,72,9,14000,22.224,,,20,13.8,18,,,,,,,,,wg-a,,,,AAXX 22064 07314 12564 30212 10140 20090 30155 40183 53023 60006 83500 90600 333 10180 20138=
07314,1996-06-22 12:00:00,18,1022,1.2,59,10,14000,22.224,,,290,,,,,,,,,,,wg-a,,,,AAXX 22124 07314 12564 12912 10180 20100 30193 40220 51012 60006 81100 91200=
07314,1996-06-22 18:00:00,17,1022.6,0.2,63,10,18000,29.632,,,300,13.9,18.5,,,,,,,,,wg-a,,,,AAXX 22184 07314 12/68 13016 10170 20100 30199 40226 53002 60006 80001 91800 333 10185 20139=
07314,1996-06-23 00:00:00,16,1023.4,-0.2,68,10,0,31.484,,,340,,,,,,,,,,,wg-a,,,,AAXX 23004 07314 12/// /3417 10160 20100 30206 40234 57002 60006 90000=
07314,1996-06-23 06:00:00,13,1023.4,0.5,77,9,14000,25.928,,,350,13,17.3,,,,,,,,,wg-a,,,,AAXX 23064 07314 12/64 13514 10130 20090 30206 40234 53005 60006 81040 90600 333 10173 20130=
07314,1996-06-23 12:00:00,20,1025,0.7,49,9,16000,18.52,,,20,,,,,,,,,,,wg-a,,,,AAXX 23124 07314 12566 30210 10200 20090 30223 40250 51007 60006 82101 91200=
07314,1996-06-23 18:00:00,18,1024.9,0.3,73,13,18000,29.632,,,310,13.2,21.4,,,,,,,,,wg-a,,,,AAXX 23184 07314 12568 33116 10180 20130 30222 40249 51003 60006 83500 91800 333 10214 20132=
07314,1996-06-24 00:00:00,16,1026.7,0.6,68,10,0,29.632,,,20,,,,,,,,,,,wg-a,,,,AAXX 24004 07314 12/// /0216 10160 20100 30239 40267 53006 60006 90000=
07314,1996-06-24 06:00:00,14,1027.8,0.9,77,10,18000,29.632,,,30,13.4,17.6,,,,,,,,,wg-a,,,,AAXX 24064 07314 12/68 00316 10140 20100 30250 40278 53009 60006 80000 90600 333 10176 20134=
07314,1996-06-24 12:00:00,20,1028,-0.2,53,10,18000,14.816,,,30,,,,,,,,,,,wg-a,,,,AAXX 24124 07314 12568 10308 10200 20100 30253 40280 58002 60006 81100 91200=
07314,1996-06-24 18:00:00,17,1026.2,-1.1,72,12,12000,38.892,,,320,13.6,21,,,,,,,,,wg-a,,,,AAXX 24184 07314 12562 43221 10170 20120 30234 40262 56011 60006 82540 91800 333 10210 20136=
07314,1996-06-25 00:00:00,17,1026.7,-0.1,72,12,0,29.632,,,40,,,,,,,,,,,wg-a,,,,AAXX 25004 07314 12/// /0416 10170 20120 30239 40267 56001 60006 90000=
07314,1996-06-25 06:00:00,15,1027.3,0.7,77,11,18000,18.52,,,20,14.5,17.5,,,,,,,,,wg-a,,,,AAXX 25064 07314 12/68 20210 10150 20110 30245 40273 51007 60006 80001 90600 333 10175 20145=
07314,1996-06-25 12:00:00,19,1026.7,-0.6,56,10,25000,14.816,,,30,,,,,,,,,,,wg-a,,,,AAXX 25124 07314 12575 70308 10190 20100 30240 40267 58006 60006 87800 91200=
07314,1996-06-25 18:00:00,17,1025.1,-1,82,14,12000,25.928,,,300,14.8,21.3,,,,,,,,,wg-a,,,,AAXX 25184 07314 12562 33014 10170 20140 30223 40251 58010 60006 83500 91800 333 10213 20148=
07314,1996-06-26 00:00:00,16,1024.9,-0.3,88,14,0,29.632,,,320,,,,,,,,,,,wg-a,,,,AAXX 26004 07314 12/// /3216 10160 20140 30221 40249 56003 60006 90000=
07314,1996-06-26 06:00:00,16,1024.1,0.3,82,13,8000,11.112,,,10,15.1,17.1,,,,,,,,,wg-a,,,,AAXX 26064 07314 12558 50106 10160 20130 30213 40241 51003 60006 85500 90600 333 10171 20151=
07314,1996-06-26 12:00:00,17,1025.3,0.2,72,12,8000,22.224,,,310,,,,,,,,,,,wg-a,,,,AAXX 26124 07314 12/58 23112 10170 20120 30225 40253 53002 60006 80002 91200=
07314,1996-06-26 18:00:00,17,1024.6,-0.6,72,12,20000,25.928,,,300,15.7,17.5,,,,,,,,,wg-a,,,,AAXX 26184 07314 12/70 23014 10170 20120 30218 40246 56006 60006 80002 91800 333 10175 20157=
07314,1996-06-27 00:00:00,15,1025.8,0.6,94,14,0,18.52,,,340,,,,,,,,,,,wg-a,,,,AAXX 27004 07314 12/// /3410 10150 20140 30230 40258 51006 60006 90000=
07314,1996-06-27 06:00:00,15,1025.9,0.6,94,14,500,0,,,0,14.4,16.8,,,,,,,,45,wg-a,,,,AAXX 27064 07314 12/00 90000 10150 20140 30231 40259 52006 60006 74522 89/// 90600 333 10168 20144=
07314,1996-06-27 12:00:00,18,1026.8,0.1,94,17,300,11.112,,,280,,,,,,,,,,44,wg-a,,,,AAXX 27124 07314 12/03 02806 10180 20170 30241 40268 50001 60006 74422 80000 91200=
07314,1996-06-27 18:00:00,19,1025.1,-0.7,83,16,20000,14.816,,,300,14.1,20.1,,,,,,,,,wg-a,,,,AAXX 27184 07314 12/70 13008 10190 20160 30224 40251 56007 60006 80002 91800 333 10201 20141=
07314,1996-06-28 00:00:00,16,1024.4,-0.7,94,15,0,11.112,,,340,,,,,,,,,,,wg-a,,,,AAXX 28004 07314 12/// /3406 10160 20150 30216 40244 58007 60006 90000=
07314,1996-06-28 06:00:00,16,1023.4,-0.2,94,15,0,7.408,,,10,15,18.7,,,,,,,,,wg-a,,,,AAXX 28064 07314 12/// /0104 10160 20150 30206 40234 55002 60006 90600 333 10187 20150=
07314,1996-06-28 12:00:00,19,1023.3,-0,83,16,16000,11.112,,,280,,,,,,,,,,,wg-a,,,,AAXX 28124 07314 12566 42806 10190 20160 30206 40233 55000 60006 82802 91200=
07314,1996-06-28 18:00:00,20,1021.4,-1,73,15,25000,7.408,,,290,16.2,20.5,,,,,,,,,wg-a,,,,AAXX 28184 07314 12575 52904 10200 20150 30187 40214 56010 60006 82483 91800 333 10205 20162=
07314,1996-06-29 00:00:00,18,1021.2,-0.3,88,16,0,22.224,,,250,,,,,,,,,,,wg-a,,,,AAXX 29004 07314 12/// /2512 10180 20160 30185 40212 58003 60006 90000=
07314,1996-06-29 06:00:00,16,1022,1.4,82,13,20000,25.928,,,320,15.7,19.6,,,,,,,,20,wg-a,,,,AAXX 29064 07314 02570 73214 10160 20130 30192 40220 53014 61000 72052 875// 90600 333 10196 20157 ////=
07314,1996-06-29 12:00:00,18,1023.7,0.5,73,13,0,22.224,,,300,,,,,,,,,,,wg-a,,,,AAXX 29124 07314 12/// /3012 10180 20130 30210 40237 51005 60006 91200=
07314,1996-06-29 18:00:00,17,1023.6,0.2,72,12,25000,29.632,,,310,16.2,18.3,,,,,,,,,wg-a,,,,AAXX 29184 07314 12575 23116 10170 20120 30209 40236 52002 60006 81140 91800 333 10183 20162=
07314,1996-06-30 00:00:00,15,1024.5,-0.2,94,14,0,18.52,,,300,,,,,,,,,,,wg-a,,,,AAXX 30004 07314 12/// /3010 10150 20140 30217 40245 58002 60006 90000=
07314,1996-06-30 06:00:00,15,1023.6,-0,82,12,18000,7.408,,,30,13.3,17.1,,,,,,,,,wg-a,,,,AAXX 30064 07314 12/68 10304 10150 20120 30208 40236 55000 60006 80001 90600 333 10171 20133=
07314,1996-06-30 12:00:00,18,1022.5,-0.8,73,13,16000,11.112,,,200,,,,,,,,,,,wg-a,,,,AAXX 30124 07314 12566 62006 10180 20130 30198 40225 57008 60006 86500 91200=
07314,1996-06-30 18:00:00,17,1019.9,-1.3,82,14,0,22.224,,,260,15.1,18.6,,,,,,,,,wg-a,,,,AAXX 30184 07314 12/// /2612 10170 20140 30172 40199 56013 60006 91800 333 10186 20151=
07314,1996-07-01 00:00:00,16,1017,-1.7,94,15,0,22.224,,,230,,,,,,,,,,,wg-a,,,,AAXX 01004 07314 12/// /2312 10160 20150 30143 40170 58017 60006 90000=
07314,1996-07-01 06:00:00,15,1015.7,-0.1,88,13,20000,7.408,,,310,13.7,17.3,,,,,,,,2,wg-a,,,,AAXX 01064 07314 32570 73104 10150 20130 30130 40157 55001 70262 878// 90600 333 10173 20137=
07314,1996-07-01 12:00:00,16,1015.7,-0.4,88,14,20000,14.816,,,200,,,,,,,,,,,wg-a,,,,AAXX 01124 07314 12570 52008 10160 20140 30130 40157 56004 60006 85800 91200=
07314,1996-07-01 18:00:00,16,1,-0.6,82,13,0,14.816,,,310,14.4,18.1,,,,,,,,15,wg-a,,,,AAXX 01184 07314 128// 63108 10160 20130 30160 57006 60006 71522 86400 91800 333 10181 20144=
07314,1996-07-02 00:00:00,15,1015.4,-0.5,82,12,0,7.408,,,280,,,,,,,,,,,wg-a,,,,AAXX 02004 07314 12/// /2804 10150 20120 30127 40154 56005 60006 90000=
07314,1996-07-02 06:00:00,14,1014.7,-0,94,13,20000,18.52,,,350,13.5,16.1,,0,,,,,,15,wg-a,,,,AAXX 02064 07314 12470 83510 10140 20130 30119 40147 55000 60007 71582 878// 90600 333 10161 20135=
07314,1996-07-02 12:00:00,18,1015.7,-0.2,73,13,20000,11.112,,,240,,,,,,,,,,,wg-a,,,,AAXX 02124 07314 12570 52406 10180 20130 30130 40157 56002 60006 84462 91200=
07314,1996-07-02 18:00:00,18,1015.1,-0.6,68,12,500,14.816,,,240,14,18.6,,,,,,,,,wg-a,,,,AAXX 02184 07314 12500 32408 10180 20120 30124 40151 57006 60006 82102 91800 333 10186 20140=
07314,1996-07-03 00:00:00,17,1014.1,-0.9,77,13,0,22.224,,,190,,,,,,,,,,,wg-a,,,,AAXX 03004 07314 12/// /1912 10170 20130 30114 40141 58009 60006 90000=
07314,1996-07-03 06:00:00,17,1011.6,-0.8,94,16,8000,35.188,,,190,16.1,17.6,,,,,,,,80,wg-a,,,,AAXX 03064 07314 02458 71919 10170 20160 30089 40116 56008 61000 78082 8796/ 90600 333 10176 20161 ////=
07314,1996-07-03 12:00:00,19,1012.4,0.4,94,18,16000,29.632,,,220,,,,2,,,,,,25,wg-a,,,,AAXX 03124 07314 02466 62216 10190 20180 30097 40124 52004 60036 72582 8496/ 91200 333 60027=
07314,1996-07-03 18:00:00,18,1012.3,-0.4,88,16,20000,25.928,,,230,17.1,19.4,,,,,,,,15,wg-a,,,,AAXX 03184 07314 32570 62314 10180 20160 30096 40123 56004 71522 84962 91800 333 10194 20171=
07314,1996-07-04 00:00:00,18,1012.9,0,94,17,0,35.188,,,230,,,,,,,,,,,wg-a,,,,AAXX 04004 07314 12/// /2319 10180 20170 30102 40129 50000 60016 90000=
07314,1996-07-04 06:00:00,18,1014.1,1,88,16,18000,29.632,,,240,16.5,18.4,,0,,,,,,25,wg-a,,,,AAXX 04064 07314 12568 72416 10180 20160 30114 40141 51010 60007 72582 86462 90600 333 10184 20165=
07314,1996-07-04 18:00:00,18,1014.8,-0.9,94,17,0,18.52,,,200,17.6,19.5,,,,,,,,,wg-a,,,,AAXX 04184 07314 12/// /2010 10180 20170 30121 40148 57009 60006 91800 333 10195 20176=
07314,1996-07-05 00:00:00,18,1012.3,-1.7,94,17,20000,31.484,,,200,,,,1,,,,,,20,wg-a,,,,AAXX 05004 07314 02570 82017 10180 20170 30096 40123 58017 60016 72052 888// 90000 333 60017=
07314,1996-07-05 06:00:00,17,1009.6,-0.3,94,16,7000,31.484,,,260,16.9,18.4,,2,,,,,,80,wg-a,,,,AAXX 05064 07314 12557 82617 10170 20160 30069 40096 55003 60027 78082 888// 90600 333 10184 20169=
07314,1996-07-05 12:00:00,17,1011.9,0.9,82,14,15000,18.52,,,300,,,,,,,,,,2,wg-a,,,,AAXX 05124 07314 12565 73010 10170 20140 30092 40119 53009 60006 70282 86501 91200=
07314,1996-07-05 18:00:00,17,1012,0.1,72,12,25000,25.928,,,300,15.8,17.9,,,,,,,,,wg-a,,,,AAXX 05184 07314 32575 73014 10170 20120 30093 40120 50001 8223/ 91800 333 10179 20158=
07314,1996-07-06 00:00:00,15,1013.1,0.1,88,13,0,22.224,,,300,,,,,,,,,,,wg-a,,,,AAXX 06004 07314 12/// /3012 10150 20130 30104 40131 53001 60046 90000=
07314,1996-07-06 06:00:00,15,1015,1,77,11,25000,14.816,,,330,12.6,16.6,,,,,,,,1,wg-a,,,,AAXX 06064 07314 02475 73308 10150 20110 30122 40150 53010 61000 70181 84831 90600 333 10166 20126 ////=
07314,1996-07-06 12:00:00,17,1014.8,-0.6,72,12,500,7.408,,,210,,,,,,,,,,,wg-a,,,,AAXX 06124 07314 12400 72104 10170 20120 30121 40148 58006 60006 86831 91200=
07314,1996-07-06 18:00:00,16,1012.7,-1.5,68,10,500,11.112,,,270,14.5,17.2,,,,,,,,,wg-a,,,,AAXX 06184 07314 12400 82706 10160 20100 30100 40127 58015 60006 8327/ 91800 333 10172 20145=
07314,1996-07-07 00:00:00,14,1009.3,-2.3,82,11,0,7.408,,,110,,,,,,,,,,,wg-a,,,,AAXX 07004 07314 12/// /1104 10140 20110 30066 40093 58023 60006 90000=
07314,1996-07-07 06:00:00,13,1005.4,-1.8,88,11,15000,31.484,,,40,12.4,16,,5,,,,,,62,wg-a,,,,AAXX 07064 07314 12465 80417 10130 20110 30027 40054 56018 60057 76286 8272/ 90600 333 10160 20124=
07314,1996-07-07 12:00:00,16,1007.1,1.5,68,10,25000,29.632,,,340,,,,,,,,,,2,wg-a,,,,AAXX 07124 07314 12475 83416 10160 20100 30044 40071 52015 60016 70262 8322/ 91200=
07314,1996-07-07 18:00:00,16,1011.7,2.8,82,13,25000,31.484,,61.116,310,12.4,17.6,,,,,,,,25,wg-a,,,,AAXX 07184 07314 32475 73117 10160 20130 30090 40117 51028 72582 879// 91800 333 10176 20124 91033=
07314,1996-07-08 00:00:00,15,1017.4,2.1,67,9,0,35.188,,,340,,,,,,,,,,,wg-a,,,,AAXX 08004 07314 12/// /3419 10150 20090 30146 40174 51021 60006 90000=
07314,1996-07-08 06:00:00,15,1021.7,2.6,88,13,25000,29.632,,,320,14.1,16.4,,,,,,,,,wg-a,,,,AAXX 08064 07314 12575 33216 10150 20130 30189 40217 53026 60006 83200 90600 333 10164 20141=
07314,1996-07-08 12:00:00,17,1025.7,1.7,77,13,25000,29.632,,,300,,,,,,,,,,,wg-a,,,,AAXX 08124 07314 12575 33016 10170 20130 30229 40257 51017 60006 82201 91200=
07314,1996-07-08 18:00:00,17,1026.9,0.5,82,14,25000,31.484,,,310,14.8,18.1,,,,,,,,,wg-a,,,,AAXX 08184 07314 12575 23117 10170 20140 30241 40269 53005 60006 81101 91800 333 10181 20148=
07314,1996-07-09 00:00:00,16,1028.4,0.3,82,13,0,29.632,,,300,,,,,,,,,,,wg-a,,,,AAXX 09004 07314 12/// /3016 10160 20130 30256 40284 50003 60006 90000=
07314,1996-07-09 06:00:00,15,1029.1,0.8,88,13,15000,18.52,,,20,14.3,17.1,,,,,,,,,wg-a,,,,AAXX 09064 07314 12465 30210 10150 20130 30263 40291 52008 60006 83200 90600 333 10171 20143=
07314,1996-07-09 12:00:00,18,1030.4,0.1,68,12,25000,11.112,,,280,,,,,,,,,,,wg-a,,,,AAXX 09124 07314 12475 12806 10180 20120 30276 40304 50001 60006 81100 91200=
07314,1996-07-09 18:00:00,17,1029.5,-0.6,82,14,25000,14.816,,,270,14.5,18.7,,,,,,,,,wg-a,,,,AAXX 09184 07314 12575 82708 10170 20140 30267 40295 58006 60006 88500 91800 333 10187 20145=
07314,1996-07-10 00:00:00,17,1028.5,-0.6,94,16,0,22.224,,,260,,,,,,,,,,,wg-a,,,,AAXX 10004 07314 12/// /2612 10170 20160 30257 40285 56006 60006 90000=
07314,1996-07-10 06:00:00,16,1027.9,0.2,94,15,15000,22.224,,,310,16,17.4,,,,,,,,2,wg-a,,,,AAXX 10064 07314 32565 83112 10160 20150 30251 40279 53002 70262 885// 90600 333 10174 20160=
07314,1996-07-10 12:00:00,17,1028,-0.4,88,15,18000,18.52,,,310,,,,,,,,,,,wg-a,,,,AAXX 10124 07314 12468 83110 10170 20150 30252 40280 58004 60006 888// 91200=
07314,1996-07-10 18:00:00,18,1026.6,-0.8,88,16,15000,14.816,,,270,16,19.2,,,,,,,,,wg-a,,,,AAXX 10184 07314 12865 12708 10180 20160 30239 40266 56008 60006 81030 91800 333 10192 20160=
07314,1996-07-11 00:00:00,16,1026.4,-0.2,94,15,0,22.224,,,320,,,,,,,,,,,wg-a,,,,AAXX 11004 07314 12/// /3212 10160 20150 30236 40264 57002 60006 90000=
07314,1996-07-11 06:00:00,16,1025.7,0.1,94,15,9000,11.112,,,30,15.5,18.2,,,,,,,,,wg-a,,,,AAXX 11064 07314 12/59 00306 10160 20150 30229 40257 53001 60006 80000 90600 333 10182 20155=
07314,1996-07-11 12:00:00,19,1025.2,-0.5,83,16,9000,14.816,,,270,,,,,,,,,,,wg-a,,,,AAXX 11124 07314 12/59 02708 10190 20160 30225 40252 58005 60006 80000 91200=
07314,1996-07-11 18:00:00,17,1023.3,-0.6,94,16,7000,25.928,,,300,16.4,19.5,,,,,,,,,wg-a,,,,AAXX 11184 07314 12/57 03014 10170 20160 30206 40233 55006 60006 80000 91800 333 10195 20164=
07314,1996-07-12 00:00:00,16,1023.3,-0.6,94,15,0,11.112,,,320,,,,,,,,,,,wg-a,,,,AAXX 12004 07314 12/// /3206 10160 20150 30205 40233 58006 60006 90000=
07314,1996-07-12 06:00:00,16,1022.4,0.2,94,15,9000,11.112,,,20,15.5,17.6,,0,,,,,,,wg-a,,,,AAXX 12064 07314 12/59 10206 10160 20150 30196 40224 52002 60007 80001 90600 333 10176 20155=
07314,1996-07-12 12:00:00,18,1022.4,-0.6,88,16,12000,14.816,,,290,,,,,,,,,,,wg-a,,,,AAXX 12124 07314 12862 32908 10180 20160 30197 40224 58006 60006 82031 91200=
07314,1996-07-12 18:00:00,17,1022.1,-0.3,82,14,25000,31.484,,,310,16,18.7,,,,,,,,,wg-a,,,,AAXX 12184 07314 12775 73117 10170 20140 30194 40221 56003 60006 81536 91800 333 10187 20160=
07314,1996-07-13 00:00:00,16,1023.2,0.4,94,15,0,14.816,,,330,,,,,,,,,,,wg-a,,,,AAXX 13004 07314 12/// /3308 10160 20150 30204 40232 51004 60006 90000=
07314,1996-07-13 06:00:00,17,1023.1,0.5,94,16,15000,7.408,,,40,15.7,17,,,,,,,,,wg-a,,,,AAXX 13064 07314 12765 60404 10170 20160 30203 40231 53005 60006 83531 90600 333 10170 20157=
07314,1996-07-13 12:00:00,20,1024.6,0.6,88,18,15000,11.112,,,280,,,,,,,,,,,wg-a,,,,AAXX 13124 07314 12865 42806 10200 20180 30219 40246 51006 60006 82031 91200=
07314,1996-07-13 18:00:00,18,1024.2,-0.3,88,16,25000,25.928,,,320,16.6,22,,,,,,,,,wg-a,,,,AAXX 13184 07314 12/75 33214 10180 20160 30215 40242 55003 60006 80001 91800 333 10220 20166=
07314,1996-07-14 00:00:00,16,1025.6,0.6,100,16,0,14.816,,,330,,,,,,,,,,,wg-a,,,,AAXX 14004 07314 12/// /3308 10160 20160 30228 40256 51006 60006 90000=
07314,1996-07-14 06:00:00,18,1026,0.7,94,17,15000,7.408,,,20,16.2,18.2,,,,,,,,,wg-a,,,,AAXX 14064 07314 12/65 00204 10180 20170 30233 40260 53007 60006 80000 90600 333 10182 20162=
07314,1996-07-14 12:00:00,23,1026.4,-0.3,73,18,0,11.112,,,290,,,,,,,,,,,wg-a,,,,AAXX 14124 07314 12/// /2906 10230 20180 30237 40264 58003 60006 91200=
07314,1996-07-14 18:00:00,20,1024.7,-0.9,83,17,25000,22.224,,,320,17.6,24.3,,,,,,,,,wg-a,,,,AAXX 14184 07314 12/75 53212 10200 20170 30220 40247 56009 60006 80001 91800 333 10243 20176=
07314,1996-07-15 00:00:00,19,1024.6,-0.2,88,17,0,18.52,,,10,,,,,,,,,,,wg-a,,,,AAXX 15004 07314 12/// /0110 10190 20170 30219 40246 58002 60006 90000=
07314,1996-07-15 06:00:00,19,1024.4,0.3,88,17,20000,14.816,,,40,17.6,20.2,,,,,,,,,wg-a,,,,AAXX 15064 07314 12/70 30408 10190 20170 30217 40244 53003 60006 80001 90600 333 10202 20176=
07314,1996-07-15 12:00:00,26,1023.5,-0.9,65,19,20000,7.408,,,320,,,,,,,,,,,wg-a,,,,AAXX 15124 07314 12/70 13204 10260 20190 30208 40235 58009 60006 80001 91200=
07314,1996-07-15 18:00:00,24,1021.8,-0.8,69,18,25000,22.224,,,30,18.9,26.1,,,,,,,,,wg-a,,,,AAXX 15184 07314 12/75 00312 10240 20180 30191 40218 56008 60006 80000 91800 333 10261 20189=
07314,1996-07-16 00:00:00,19,1023,0.1,88,17,0,18.52,,,20,,,,,,,,,,,wg-a,,,,AAXX 16004 07314 12/// /0210 10190 20170 30203 40230 50001 60006 90000=
07314,1996-07-16 06:00:00,19,1022.4,0.2,78,15,11000,29.632,,,40,18.1,24,,,,,,,,,wg-a,,,,AAXX 16064 07314 12/61 00416 10190 20150 30197 40224 53002 60006 80000 90600 333 10240 20181=
07314,1996-07-16 12:00:00,25,1021.4,-0.8,65,18,11000,18.52,,,30,,,,,,,,,,,wg-a,,,,AAXX 16124 07314 12/61 00310 10250 20180 30187 40214 58008 60006 80000 91200=
07314,1996-07-16 18:00:00,24,1019.2,-0.7,65,17,20000,22.224,,,40,18.9,26.4,,,,,,,,,wg-a,,,,AAXX 16184 07314 12/70 00412 10240 20170 30165 40192 56007 60006 80000 91800 333 10264 20189=
07314,1996-07-17 00:00:00,20,1020.2,-0.1,68,14,0,25.928,,,40,,,,,,,,,,,wg-a,,,,AAXX 17004 07314 12/// /0414 10200 20140 30175 40202 58001 60006 90000=
07314,1996-07-17 06:00:00,18,1020.2,0.6,68,12,20000,29.632,,,50,17.8,23.9,,,,,,,,,wg-a,,,,AAXX 17064 07314 12/70 00516 10180 20120 30175 40202 53006 60006 80000 90600 333 10239 20178=
07314,1996-07-17 12:00:00,24,1019.5,-0.5,65,17,25000,18.52,,,40,,,,,,,,,,,wg-a,,,,AAXX 17124 07314 12/75 00410 10240 20170 30168 40195 58005 60006 80000 91200=
07314,1996-07-17 18:00:00,24,1017.7,-0.8,57,15,25000,18.52,,,50,18.2,26.5,,,,,,,,,wg-a,,,,AAXX 17184 07314 12/75 00510 10240 20150 30150 40177 56008 60006 80000 91800 333 10265 20182=
07314,1996-07-18 00:00:00,20,1019.7,0.8,64,13,0,25.928,,,30,,,,,,,,,,,wg-a,,,,AAXX 18004 07314 12/// /0314 10200 20130 30170 40197 51008 60006 90000=
07314,1996-07-18 06:00:00,18,1020.1,0.9,68,12,20000,29.632,,,40,17.6,24.1,,,,,,,,,wg-a,,,,AAXX 18064 07314 12/70 20416 10180 20120 30174 40201 51009 60006 80001 90600 333 10241 20176=
07314,1996-07-18 12:00:00,25,1020.4,-0.1,47,13,25000,14.816,,,40,,,,,,,,,,,wg-a,,,,AAXX 18124 07314 12/75 30408 10250 20130 30177 40204 58001 60006 80001 91200=
07314,1996-07-18 18:00:00,24,1019.5,-0.4,65,17,500,3.704,,,330,18,27.2,,,,,,,,,wg-a,,,,AAXX 18184 07314 12/00 13302 10240 20170 30168 40195 56004 60006 80001 91800 333 10272 20180=
07314,1996-07-19 00:00:00,20,1021.3,0.8,68,14,0,18.52,,,40,,,,,,,,,,,wg-a,,,,AAXX 19004 07314 12/// /0410 10200 20140 30186 40213 51008 60006 90000=
07314,1996-07-19 06:00:00,18,1021.8,0.6,64,11,25000,11.112,,,60,17.7,24.8,,,,,,,,,wg-a,,,,AAXX 19064 07314 12/75 30606 10180 20110 30191 40218 51006 60006 80001 90600 333 10248 20177=
07314,1996-07-19 12:00:00,27,1021.4,-0.5,48,15,25000,11.112,,,40,,,,,,,,,,,wg-a,,,,AAXX 19124 07314 12/75 30406 10270 20150 30187 40214 58005 60006 80001 91200=
07314,1996-07-19 18:00:00,22,1020.4,-0.4,65,15,25000,29.632,,,320,18.3,28.2,,,,,,,,,wg-a,,,,AAXX 19184 07314 12/75 23216 10220 20150 30177 40204 57004 60006 80001 91800 333 10282 20183=
07314,1996-07-20 00:00:00,20,1020.9,-0.1,68,14,0,7.408,,,60,,,,,,,,,,,wg-a,,,,AAXX 20004 07314 12/// /0604 10200 20140 30182 40209 58001 60006 90000=
07314,1996-07-20 06:00:00,19,1021.2,0.7,68,13,20000,11.112,,,70,17.5,22.1,,,,,,,,,wg-a,,,,AAXX 20064 07314 12/70 20706 10190 20130 30185 40212 53007 60006 80001 90600 333 10221 20175=
07314,1996-07-20 12:00:00,25,1021.8,0,50,14,20000,7.408,,,320,,,,,,,,,,,wg-a,,,,AAXX 20124 07314 12/70 33204 10250 20140 30191 40218 50000 60006 80001 91200=
07314,1996-07-20 18:00:00,22,1020.6,-0.6,65,15,500,22.224,,,320,18.6,28.3,,,,,,,,,wg-a,,,,AAXX 20184 07314 12/00 03212 10220 20150 30179 40206 57006 60006 80000 91800 333 10283 20186=
07314,1996-07-21 00:00:00,20,1021.2,0.1,78,16,0,7.408,,,40,,,,,,,,,,,wg-a,,,,AAXX 21004 07314 12/// /0404 10200 20160 30185 40212 50001 60006 90000=
07314,1996-07-21 06:00:00,19,1020.8,0.5,73,14,25000,14.816,,,80,18.1,21.8,,,,,,,,,wg-a,,,,AAXX 21064 07314 12/75 10808 10190 20140 30181 40208 51005 60006 80001 90600 333 10218 20181=
07314,1996-07-21 12:00:00,27,1020.2,-0.9,45,14,25000,7.408,,,350,,,,,,,,,,,wg-a,,,,AAXX 21124 07314 12/75 13504 10270 20140 30176 40202 58009 60006 80001 91200=
07314,1996-07-21 18:00:00,23,1017.3,-1.3,65,16,25000,25.928,,,330,19.1,28.8,,,,,,,,,wg-a,,,,AAXX 21184 07314 12/75 03314 10230 20160 30146 40173 56013 60006 80000 91800 333 10288 20191=
07314,1996-07-22 00:00:00,22,1016.6,-0.5,53,12,0,18.52,,,90,,,,,,,,,,,wg-a,,,,AAXX 22004 07314 12/// /0910 10220 20120 30139 40166 58005 60006 90000=
07314,1996-07-22 06:00:00,19,1015.2,-0.3,73,14,20000,14.816,,,80,18.5,23,,,,,,,,,wg-a,,,,AAXX 22064 07314 12/70 00808 10190 20140 30125 40152 58003 60006 80000 90600 333 10230 20185=
07314,1996-07-22 12:00:00,26,1013.4,-0.9,65,19,0,7.408,,,270,,,,,,,,,,,wg-a,,,,AAXX 22124 07314 12/// /2704 10260 20190 30108 40134 56009 60006 91200=
07314,1996-07-22 18:00:00,25,1012.4,-0,74,20,18000,14.816,,,180,19.2,30.8,,,,,,,,,wg-a,,,,AAXX 22184 07314 12/68 01808 10250 20200 30098 40124 55000 60006 80000 91800 333 10308 20192=
07314,1996-07-23 00:00:00,21,1015,1.4,100,21,14000,18.52,,,210,,,,,,,,,,,wg-a,,,,AAXX 23004 07314 12/64 02110 10210 20210 30123 40150 53014 60006 80000 90000=
07314,1996-07-23 06:00:00,20,1015.7,0.6,94,19,9000,11.112,,,220,19.7,24.8,,,,,,,,,wg-a,,,,AAXX 23064 07314 12859 12206 10200 20190 30130 40157 53006 60006 81080 90600 333 10248 20197=
07314,1996-07-23 12:00:00,22,1016.6,0.1,78,18,0,14.816,,,280,,,,,,,,,,,wg-a,,,,AAXX 23124 07314 12/// /2808 10220 20180 30139 40166 50001 60006 91200=
07314,1996-07-23 18:00:00,21,1017.2,0.2,78,17,15000,22.224,,,290,,,,,,,,,,,wg-a,,,,AAXX 23184 07314 12565 32912 10210 20170 30145 40172 53002 60006 81102 91800=
07314,1996-07-24 00:00:00,19,1018.4,0.3,83,16,25000,22.224,,,320,,,,,,,,,,,wg-a,,,,AAXX 24004 07314 12575 53212 10190 20160 30157 40184 53003 60006 83102 90000=
07314,1996-07-24 06:00:00,18,1018.6,0.7,83,15,18000,22.224,,,350,17.5,20.8,,,,,,,,,wg-a,,,,AAXX 24064 07314 12568 23512 10180 20150 30159 40186 53007 60006 81101 90600 333 10208 20175=
07314,1996-07-24 12:00:00,21,1019.8,0.2,69,15,18000,14.816,,,290,,,,,,,,,,,wg-a,,,,AAXX 24124 07314 12568 22908 10210 20150 30171 40198 50002 60006 81101 91200=
07314,1996-07-24 18:00:00,20,1019,-0.9,78,16,20000,29.632,,,310,17.7,21.3,,,,,,,,,wg-a,,,,AAXX 24184 07314 12/70 13116 10200 20160 30163 40190 56009 60006 80001 91800 333 10213 20177=
07314,1996-07-25 00:00:00,19,1020.1,0,78,15,25000,35.188,,,20,,,,,,,,,,,wg-a,,,,AAXX 25004 07314 12/75 00219 10190 20150 30174 40201 50000 60006 80000 90000=
07314,1996-07-25 06:00:00,17,1020.2,-0.1,77,13,25000,25.928,,,50,16.7,20,,,,,,,,,wg-a,,,,AAXX 25064 07314 12875 60514 10170 20130 30175 40202 57001 60006 83032 90600 333 10200 20167=
07314,1996-07-25 12:00:00,23,1020.4,-0.3,65,16,25000,11.112,,,10,,,,,,,,,,,wg-a,,,,AAXX 25124 07314 12875 70106 10230 20160 30177 40204 58003 60006 8701/ 91200=
07314,1996-07-25 18:00:00,23,1016.8,-1,61,15,25000,22.224,,,40,17,24.8,,,,,,,,,wg-a,,,,AAXX 25184 07314 12675 40412 10230 20150 30141 40168 55010 60006 83581 91800 333 10248 20170=
07314,1996-07-26 00:00:00,21,1017.1,-0.7,60,13,25000,29.632,,,40,,,,,,,,,,,wg-a,,,,AAXX 26004 07314 12675 60416 10210 20130 30144 40171 55007 60006 83510 90000=
07314,1996-07-26 06:00:00,19,1017.3,0.7,73,14,14000,38.892,,,20,18.6,23.4,,,,,,,,,wg-a,,,,AAXX 26064 07314 12564 60221 10190 20140 30146 40173 50007 60006 84483 90600 333 10234 20186=
07314,1996-07-26 12:00:00,24,1017.3,-0.6,57,15,14000,29.632,,,20,,,,,,,,,,,wg-a,,,,AAXX 26124 07314 12/64 50216 10240 20150 30146 40173 58006 60006 84082 91200=
07314,1996-07-26 18:00:00,25,1016.7,-0.1,57,16,20000,22.224,,,20,18.6,26.7,,,,,,,,,wg-a,,,,AAXX 26184 07314 12/70 10212 10250 20160 30140 40167 55001 60006 80001 91800 333 10267 20186=
07314,1996-07-27 00:00:00,20,1018.3,0.6,73,15,0,25.928,,,360,,,,,,,,,,,wg-a,,,,AAXX 27004 07314 12/// /3614 10200 20150 30156 40183 50006 60006 90000=
07314,1996-07-27 06:00:00,19,1018.6,1.3,73,14,10000,25.928,,,20,18.3,24.9,,,,,,,,,wg-a,,,,AAXX 27064 07314 12/60 10214 10190 20140 30159 40186 53013 60006 81030 90600 333 10249 20183=
07314,1996-07-27 12:00:00,21,1019.6,-0.2,78,17,8000,29.632,,,310,,,,,,,,,,,wg-a,,,,AAXX 27124 07314 12/58 03116 10210 20170 30169 40196 57002 60006 80000 91200=
07314,1996-07-27 18:00:00,20,1019.3,0.1,88,18,20000,31.484,,,310,18.4,21.8,,,,,,,,,wg-a,,,,AAXX 27184 07314 12/70 03117 10200 20180 30166 40193 53001 60006 80000 91800 333 10218 20184=
07314,1996-07-28 00:00:00,18,1020.9,0.1,94,17,0,22.224,,,310,,,,,,,,,,,wg-a,,,,AAXX 28004 07314 12/// /3112 10180 20170 30182 40209 52001 60006 90000=
07314,1996-07-28 06:00:00,18,1021.3,1,88,16,18000,11.112,,,360,17.2,19.7,,,,,,,,,wg-a,,,,AAXX 28064 07314 12568 43606 10180 20160 30186 40213 51010 60006 84500 90600 333 10197 20172=
07314,1996-07-28 12:00:00,20,1021.7,-0.1,83,17,20000,14.816,,,290,,,,,,,,,,,wg-a,,,,AAXX 28124 07314 12570 12908 10200 20170 30190 40217 58001 60006 81100 91200=
07314,1996-07-28 18:00:00,20,1019.8,-1.2,73,15,0,14.816,,,290,17.6,20.8,,,,,,,,,wg-a,,,,AAXX 28184 07314 12/// /2908 10200 20150 30171 40198 56012 60006 91800 333 10208 20176=
07314,1996-07-29 00:00:00,17,1019.4,-0.8,94,16,0,7.408,,,230,,,,,,,,,,,wg-a,,,,AAXX 29004 07314 12/// /2304 10170 20160 30167 40194 58008 60006 90000=
07314,1996-07-29 06:00:00,18,1018.7,0.1,94,17,20000,3.704,,,170,16.3,19.9,,,,,,,,,wg-a,,,,AAXX 29064 07314 12570 41702 10180 20170 30160 40187 53001 60006 82541 90600 333 10199 20163=
07314,1996-07-29 12:00:00,21,1019,-0.1,78,17,20000,11.112,,,220,,,,,,,,,,,wg-a,,,,AAXX 29124 07314 12570 62206 10210 20170 30163 40190 58001 60006 84444 91200=
07314,1996-07-29 18:00:00,20,1018.5,-0.1,83,17,25000,11.112,,,280,17.6,21.4,,,,,,,,,wg-a,,,,AAXX 29184 07314 12575 42806 10200 20170 30158 40185 55001 60006 82462 91800 333 10214 20176=
07314,1996-07-30 00:00:00,18,1020,0.7,94,17,0,11.112,,,240,,,,,,,,,,,wg-a,,,,AAXX 30004 07314 12/// /2406 10180 20170 30173 40200 51007 60006 90000=
07314,1996-07-30 06:00:00,18,1020,0.4,94,17,18000,7.408,,,320,17.5,20.5,,,,,,,,,wg-a,,,,AAXX 30064 07314 12568 73204 10180 20170 30173 40200 53004 60006 878// 90600 333 10205 20175=
07314,1996-07-30 12:00:00,21,1021.7,0.5,78,17,20000,7.408,,,270,,,,,,,,,,,wg-a,,,,AAXX 30124 07314 12570 22704 10210 20170 30190 40217 51005 60006 82400 91200=
07314,1996-07-30 18:00:00,21,1021.4,-0.4,73,16,25000,7.408,,,280,18.2,21.4,,,,,,,,,wg-a,,,,AAXX 30184 07314 12575 12804 10210 20160 30187 40214 58004 60006 81100 91800 333 10214 20182=
07314,1996-07-31 00:00:00,17,1021.5,-0.5,94,16,0,7.408,,,310,,,,,,,,,,,wg-a,,,,AAXX 31004 07314 12/// /3104 10170 20160 30188 40215 57005 60006 90000=
07314,1996-07-31 06:00:00,18,1021,0.4,77,14,18000,11.112,,,10,17,21,,,,,,,,,wg-a,,,,AAXX 31064 07314 12568 80106 10180 20140 30183 40210 53004 60006 885// 90600 333 10210 20170=
07314,1996-07-31 12:00:00,20,1021.2,-0,64,13,25000,11.112,,,290,,,,,,,,,,,wg-a,,,,AAXX 31124 07314 12575 22906 10200 20130 30185 40212 54000 60006 82400 91200=
07314,1996-07-31 18:00:00,20,1019.5,-0.8,68,14,500,14.816,,,290,17.5,20.8,,,,,,,,,wg-a,,,,AAXX 31184 07314 12/00 02908 10200 20140 30168 40195 56008 60006 80000 91800 333 10208 20175=
07314,1996-08-01 00:00:00,17,1019.1,-0.5,94,16,0,11.112,,,330,,,,,,,,,,,wg-a,,,,AAXX 01004 07314 12/// /3306 10170 20160 30164 40191 58005 60006 90000=
07314,1996-08-01 06:00:00,18,1019.1,0.4,94,17,18000,3.704,,,330,16.9,19.9,,,,,,,,,wg-a,,,,AAXX 01064 07314 12568 13302 10180 20170 30164 40191 51004 60006 81100 90600 333 10199 20169=
07314,1996-08-01 12:00:00,21,1020.2,0.3,78,17,25000,11.112,,,260,,,,,,,,,,,wg-a,,,,AAXX 01124 07314 12575 22606 10210 20170 30175 40202 53003 60006 82100 91200=
07314,1996-08-01 18:00:00,19,1020.4,0.3,73,14,500,29.632,,,310,17.7,21.5,,,,,,,,,wg-a,,,,AAXX 01184 07314 12500 23116 10190 20140 30177 40204 51003 60006 81102 91800 333 10215 20177=
07314,1996-08-02 00:00:00,18,1022,0.4,83,15,0,18.52,,,300,,,,,,,,,,,wg-a,,,,AAXX 02004 07314 12/// /3010 10180 20150 30193 40220 51004 60006 90000=
07314,1996-08-02 06:00:00,18,1022.2,0.5,77,14,25000,25.928,,,20,17.2,18.8,,,,,,,,,wg-a,,,,AAXX 02064 07314 12/75 40214 10180 20140 30195 40222 51005 60006 84080 90600 333 10188 20172=
07314,1996-08-02 12:00:00,21,1024,0.1,73,16,25000,22.224,,,310,,,,,,,,,,,wg-a,,,,AAXX 02124 07314 12/75 23112 10210 20160 30213 40240 50001 60006 81032 91200=
07314,1996-08-02 18:00:00,19,1023.8,0.1,78,15,20000,31.484,,,310,17.6,23,,,,,,,,,wg-a,,,,AAXX 02184 07314 12570 13117 10190 20150 30211 40238 53001 60006 81100 91800 333 10230 20176=
07314,1996-08-03 00:00:00,18,1025.2,0.3,73,13,0,25.928,,,20,,,,,,,,,,,wg-a,,,,AAXX 03004 07314 12/// /0214 10180 20130 30225 40252 53003 60006 90000=
07314,1996-08-03 06:00:00,16,1026.1,0.8,77,12,0,22.224,,,20,15.5,18.6,,,,,,,,,wg-a,,,,AAXX 03064 07314 12/// /0212 10160 20120 30233 40261 53008 60006 90600 333 10186 20155=
07314,1996-08-03 12:00:00,24,1025.2,-0.7,57,15,20000,11.112,,,340,,,,,,,,,,,wg-a,,,,AAXX 03124 07314 12/70 03406 10240 20150 30225 40252 58007 60006 80000 91200=
07314,1996-08-03 18:00:00,19,1022.9,-1.3,78,15,20000,25.928,,,320,15.9,23.7,,,,,,,,,wg-a,,,,AAXX 03184 07314 12/70 13214 10190 20150 30202 40229 56013 60006 80002 91800 333 10237 20159=
07314,1996-08-04 00:00:00,20,1021.5,-1.3,68,14,0,18.52,,,40,,,,,,,,,,,wg-a,,,,AAXX 04004 07314 12/// /0410 10200 20140 30188 40215 58013 60006 90000=
07314,1996-08-04 06:00:00,18,1019.1,-0.8,68,12,16000,18.52,,,80,17.8,19.5,,,,,,,,,wg-a,,,,AAXX 04064 07314 12/66 20810 10180 20120 30164 40191 56008 60006 80004 90600 333 10195 20178=
07314,1996-08-04 12:00:00,26,1016.2,-2.2,45,13,16000,11.112,,,80,,,,,,,,,,,wg-a,,,,AAXX 04124 07314 12/66 50806 10260 20130 30136 40162 58022 60006 80002 91200=
07314,1996-08-04 18:00:00,23,1013,-1.3,61,15,18000,11.112,,,50,18.4,27.2,,,,,,,,,wg-a,,,,AAXX 04184 07314 12/68 50506 10230 20150 30103 40130 56013 60006 80002 91800 333 10272 20184=
07314,1996-08-05 00:00:00,20,1011.9,-0.9,68,14,0,11.112,,,70,,,,,,,,,,,wg-a,,,,AAXX 05004 07314 12/// /0706 10200 20140 30092 40119 58009 60006 90000=
07314,1996-08-05 06:00:00,19,1010.6,0.1,94,18,0,18.52,,,170,17.9,22.7,,,,,,,,,wg-a,,,,AAXX 05064 07314 12/// /1710 10190 20180 30079 40106 53001 60006 90600 333 10227 20179=
07314,1996-08-05 12:00:00,20,1012,0.5,88,18,8000,11.112,,,190,,,,,,,,,,17,wg-a,,,,AAXX 05124 07314 12558 81906 10200 20180 30093 40120 51005 60006 71796 889// 91200=
07314,1996-08-05 18:00:00,20,1012.4,-0.2,88,18,16000,14.816,,,230,18.5,21.5,,0,,,,,,,wg-a,,,,AAXX 05184 07314 12566 32308 10200 20180 30097 40124 56002 60007 81130 91800 333 10215 20185=
07314,1996-08-06 00:00:00,19,1012.4,-0.5,94,18,0,11.112,,,190,,,,,,,,,,,wg-a,,,,AAXX 06004 07314 12/// /1906 10190 20180 30097 40124 58005 60006 90000=
07314,1996-08-06 06:00:00,19,1012.3,0.4,100,19,12000,14.816,,,240,19,20.2,,0,,,,,,2,wg-a,,,,AAXX 06064 07314 12462 82408 10190 20190 30096 40123 53004 60007 70262 888// 90600 333 10202 20190=
07314,1996-08-06 12:00:00,18,1015.5,1.9,88,16,16000,25.928,,,310,,,,0,,,,,,21,wg-a,,,,AAXX 06124 07314 02366 83114 10180 20160 30128 40155 51019 60056 72162 8477/ 91200 333 60007=
07314,1996-08-06 18:00:00,18,1017.5,0.6,73,13,20000,31.484,,,310,16.9,19.6,,,,,,,,,wg-a,,,,AAXX 06184 07314 32570 43117 10180 20130 30148 40175 53006 81133 91800 333 10196 20169=
07314,1996-08-07 00:00:00,17,1019.4,0.4,77,13,0,25.928,,,320,,,,,,,,,,,wg-a,,,,AAXX 07004 07314 12/// /3214 10170 20130 30167 40194 51004 60006 90000=
07314,1996-08-07 06:00:00,15,1021,1.3,72,10,0,18.52,,,50,14.9,18,,,,,,,,,wg-a,,,,AAXX 07064 07314 12/// /0510 10150 20100 30182 40210 53013 60006 90600 333 10180 20149=
07314,1996-08-07 12:00:00,19,1021,-0.3,60,11,25000,14.816,,,310,,,,,,,,,,,wg-a,,,,AAXX 07124 07314 12575 63108 10190 20110 30183 40210 56003 60006 81142 91200=
07314,1996-08-07 18:00:00,18,1018.5,-1.1,68,12,25000,25.928,,,320,15,19.8,,,,,,,,,wg-a,,,,AAXX 07184 07314 12/75 43214 10180 20120 30158 40185 56011 60006 80002 91800 333 10198 20150=
07314,1996-08-08 00:00:00,17,1017.6,-1.5,82,14,0,25.928,,,350,,,,,,,,,,,wg-a,,,,AAXX 08004 07314 12/// /3514 10170 20140 30149 40176 58015 60006 90000=
07314,1996-08-08 06:00:00,16,1016.2,-0.6,88,14,18000,3.704,,,80,14.7,17.7,,,,,,,,,wg-a,,,,AAXX 08064 07314 12/68 10802 10160 20140 30135 40162 56006 60006 80001 90600 333 10177 20147=
07314,1996-08-08 12:00:00,19,1017.5,0.7,78,15,18000,11.112,,,270,,,,,,,,,,,wg-a,,,,AAXX 08124 07314 12/68 32706 10190 20150 30148 40175 51007 60006 80004 91200=
07314,1996-08-08 18:00:00,19,1016.8,0.2,78,15,500,14.816,,,260,15.7,20.3,,,,,,,,,wg-a,,,,AAXX 08184 07314 12/00 22608 10190 20150 30141 40168 53002 60006 80002 91800 333 10203 20157=
07314,1996-08-09 00:00:00,17,1016.7,-0.7,88,15,0,7.408,,,170,,,,,,,,,,,wg-a,,,,AAXX 09004 07314 12/// /1704 10170 20150 30140 40167 57007 60006 90000=
07314,1996-08-09 06:00:00,17,1015.2,-0.4,94,16,18000,14.816,,,150,16.3,19,,,,,,,,,wg-a,,,,AAXX 09064 07314 12468 71508 10170 20160 30125 40152 55004 60006 82552 90600 333 10190 20163=
07314,1996-08-09 12:00:00,21,1014.7,-0.1,83,18,14000,14.816,,,190,,,,,,,,,,,wg-a,,,,AAXX 09124 07314 12464 41908 10210 20180 30120 40147 58001 60006 82132 91200=
07314,1996-08-09 18:00:00,21,1013.3,-0.7,83,18,0,7.408,,,240,17.3,22.8,,,,,,,,,wg-a,,,,AAXX 09184 07314 12/// /2404 10210 20180 30106 40133 55007 60006 91800 333 10228 20173=
07314,1996-08-10 00:00:00,20,1012.9,-0.5,88,18,0,22.224,,,200,,,,,,,,,,,wg-a,,,,AAXX 10004 07314 12/// /2012 10200 20180 30102 40129 58005 60006 90000=
07314,1996-08-10 06:00:00,19,1011,-0.2,100,19,0,11.112,,,180,19.2,20.6,,,,,,,,,wg-a,,,,AAXX 10064 07314 12/// /1806 10190 20190 30083 40110 55002 60006 90600 333 10206 20192=
07314,1996-08-10 12:00:00,20,1011,-0.4,88,18,8000,25.928,,,210,,,,2,,,,,,21,wg-a,,,,AAXX 10124 07314 02558 62114 10200 20180 30083 40110 58004 60036 72186 85962 91200 333 60027=
07314,1996-08-10 18:00:00,19,1011.2,-0.6,73,14,18000,29.632,,,240,17.6,20,,0,,,,,,2,wg-a,,,,AAXX 10184 07314 12568 52416 10190 20140 30085 40112 58006 60007 70282 83463 91800 333 10200 20176=
07314,1996-08-11 00:00:00,18,1010.1,-1.6,88,16,0,38.892,,,210,,,,1,,,,,,,wg-a,,,,AAXX 11004 07314 02/// /2121 10180 20160 30074 40101 58016 60036 90000 333 60017=
07314,1996-08-11 06:00:00,19,1007.8,-0.5,88,17,18000,29.632,,,230,16.6,19.2,,,,,,,,21,wg-a,,,,AAXX 11064 07314 02568 42316 10190 20170 30051 40078 57005 61000 72161 83960 90600 333 10192 20166 ////=
07314,1996-08-11 12:00:00,19,1010.6,1,78,15,20000,29.632,,64.82,260,,,,,,,,,,,wg-a,,,,AAXX 11124 07314 12570 22616 10190 20150 30079 40106 51010 60016 82100 91200 333 91035=
07314,1996-08-11 18:00:00,19,1011.6,0.3,83,16,16000,31.484,,,280,17,19.6,,,,,,,,15,wg-a,,,,AAXX 11184 07314 32566 62817 10190 20160 30089 40116 53003 71581 85260 91800 333 10196 20170=
07314,1996-08-12 00:00:00,18,1013.5,0.7,77,14,20000,31.484,,,300,,,,,,,,,,,wg-a,,,,AAXX 12004 07314 12/70 03017 10180 20140 30108 40135 51007 60006 80000 90000=
07314,1996-08-12 06:00:00,17,1014.5,1.3,77,13,25000,22.224,,,310,16.4,18.7,,,,,,,,,wg-a,,,,AAXX 12064 07314 12575 33112 10170 20130 30118 40145 52013 60006 83200 90600 333 10187 20164=
07314,1996-08-12 12:00:00,19,1016.4,0.9,78,15,25000,22.224,,,290,,,,,,,,,,,wg-a,,,,AAXX 12124 07314 12575 22912 10190 20150 30137 40164 52009 60006 82200 91200=
07314,1996-08-12 18:00:00,19,1016.2,-0.2,78,15,25000,22.224,,,290,16.6,19.6,,,,,,,,,wg-a,,,,AAXX 12184 07314 12575 12912 10190 20150 30135 40162 55002 60006 81200 91800 333 10196 20166=
07314,1996-08-13 00:00:00,18,1017.1,-0.4,88,16,25000,18.52,,,280,,,,,,,,,,,wg-a,,,,AAXX 13004 07314 12575 32810 10180 20160 30144 40171 58004 60006 83200 90000=
07314,1996-08-13 06:00:00,17,1016.8,0.2,94,16,3000,3.704,,,270,17.4,18.8,,,,,,,,10,wg-a,,,,AAXX 13064 07314 12/30 02702 10170 20160 30141 40168 53002 60006 71000 80000 90600 333 10188 20174=
07314,1996-08-13 12:00:00,19,1018.5,0.4,83,16,8000,11.112,,,280,,,,,,,,,,,wg-a,,,,AAXX 13124 07314 12558 22806 10190 20160 30158 40185 52004 60006 81101 91200=
07314,1996-08-13 18:00:00,18,1017.7,-0.6,88,16,10000,22.224,,,300,17.4,19.9,,,,,,,,,wg-a,,,,AAXX 13184 07314 12/60 23012 10180 20160 30150 40177 56006 60006 80002 91800 333 10199 20174=
07314,1996-08-14 00:00:00,17,1018.9,0.1,94,16,18000,11.112,,,320,,,,,,,,,,,wg-a,,,,AAXX 14004 07314 12/68 03206 10170 20160 30162 40189 50001 60006 80000 90000=
07314,1996-08-14 06:00:00,17,1018.4,0.2,94,16,7000,14.816,,,40,17.1,18.4,,,,,,,,,wg-a,,,,AAXX 14064 07314 12/57 00408 10170 20160 30157 40184 53002 60006 80000 90600 333 10184 20171=
07314,1996-08-14 12:00:00,22,1018.9,-0.6,65,15,11000,7.408,,,290,,,,,,,,,,,wg-a,,,,AAXX 14124 07314 12/61 12904 10220 20150 30162 40189 58006 60006 80002 91200=
07314,1996-08-14 18:00:00,20,1017.3,-0.8,78,16,11000,25.928,,,310,17.3,23,,,,,,,,,wg-a,,,,AAXX 14184 07314 12/61 03114 10200 20160 30146 40173 58008 60006 80000 91800 333 10230 20173=
07314,1996-08-15 00:00:00,19,1018.6,0.3,88,17,20000,7.408,,,30,,,,,,,,,,,wg-a,,,,AAXX 15004 07314 12/70 00304 10190 20170 30159 40186 50003 60006 80000 90000=
07314,1996-08-15 06:00:00,18,1019.3,0.7,88,16,2500,11.112,,,80,17.7,19.8,,,,,,,,10,wg-a,,,,AAXX 15064 07314 12/25 00806 10180 20160 30166 40193 53007 60006 71000 80000 90600 333 10198 20177=
07314,1996-08-15 12:00:00,24,1020,-0.4,65,17,8000,7.408,,,360,,,,,,,,,,,wg-a,,,,AAXX 15124 07314 12/58 03604 10240 20170 30173 40200 58004 60006 80000 91200=
07314,1996-08-15 18:00:00,21,1018.6,-0.7,83,18,4000,18.52,,,320,17.8,24.9,,,,,,,,,wg-a,,,,AAXX 15184 07314 12540 13210 10210 20180 30159 40186 56007 60006 81100 91800 333 10249 20178=
07314,1996-08-16 00:00:00,19,1020.1,0.6,83,16,20000,7.408,,,80,,,,,,,,,,,wg-a,,,,AAXX 16004 07314 12/70 00804 10190 20160 30174 40201 51006 60006 80000 90000=
07314,1996-08-16 06:00:00,19,1019.9,0.7,78,15,11000,11.112,,,60,18,20.9,,,,,,,,,wg-a,,,,AAXX 16064 07314 12/61 00606 10190 20150 30172 40199 53007 60006 80000 90600 333 10209 20180=
07314,1996-08-16 12:00:00,26,1019.6,-0.5,54,16,11000,7.408,,,350,,,,,,,,,,,wg-a,,,,AAXX 16124 07314 12/61 03504 10260 20160 30169 40196 58005 60006 80000 91200=
07314,1996-08-16 18:00:00,22,1018.8,-0.1,73,17,15000,29.632,,,330,18.5,27,,,,,,,,,wg-a,,,,AAXX 16184 07314 12/65 03316 10220 20170 30161 40188 55001 60006 80000 91800 333 10270 20185=
07314,1996-08-17 00:00:00,19,1019.9,0.2,88,17,0,7.408,,,360,,,,,,,,,,,wg-a,,,,AAXX 17004 07314 12/// /3604 10190 20170 30172 40199 51002 60006 90000=
07314,1996-08-17 06:00:00,19,1020.5,0.5,83,16,15000,11.112,,,60,18.9,21.5,,,,,,,,,wg-a,,,,AAXX 17064 07314 12/65 00606 10190 20160 30178 40205 53005 60006 80000 90600 333 10215 20189=
07314,1996-08-17 12:00:00,27,1020.6,-0.6,58,18,15000,3.704,,,350,,,,,,,,,,,wg-a,,,,AAXX 17124 07314 12/65 03502 10270 20180 30180 40206 57006 60006 80000 91200=
07314,1996-08-17 18:00:00,23,1019,-0.5,78,19,18000,11.112,,,320,19.4,27.9,,,,,,,,,wg-a,,,,AAXX 17184 07314 12/68 03206 10230 20190 30163 40190 58005 60006 80000 91800 333 10279 20194=
07314,1996-08-18 00:00:00,21,1019,-0.2,69,15,0,14.816,,,80,,,,,,,,,,,wg-a,,,,AAXX 18004 07314 12/// /0808 10210 20150 30163 40190 58002 60006 90000=
07314,1996-08-18 06:00:00,20,1018,-0.3,73,15,20000,11.112,,,70,19.1,23.3,,,,,,,,,wg-a,,,,AAXX 18064 07314 12/70 00706 10200 20150 30153 40180 55003 60006 80000 90600 333 10233 20191=
07314,1996-08-18 12:00:00,29,1017,-1.1,37,13,20000,7.408,,,20,,,,,,,,,,,wg-a,,,,AAXX 18124 07314 12/70 00204 10290 20130 30144 40170 58011 60006 80000 91200=
07314,1996-08-18 18:00:00,24,1014.1,-1.4,65,17,20000,18.52,,,310,19.5,29,,,,,,,,,wg-a,,,,AAXX 18184 07314 12870 13110 10240 20170 30114 40141 56014 60006 81080 91800 333 10290 20195=
07314,1996-08-19 00:00:00,21,1013.5,-0.7,78,17,0,14.816,,,50,,,,,,,,,,,wg-a,,,,AAXX 19004 07314 12/// /0508 10210 20170 30108 40135 58007 60006 90000=
07314,1996-08-19 06:00:00,20,1012.4,-0.2,83,17,15000,11.112,,,80,19.6,23.6,,,,,,,,,wg-a,,,,AAXX 19064 07314 12765 20806 10200 20170 30097 40124 56002 60006 81580 90600 333 10236 20196=
07314,1996-08-19 12:00:00,23,1012.8,-0.1,89,21,12000,11.112,,,170,,,,1,,,,,,25,wg-a,,,,AAXX 19124 07314 02662 71706 10230 20210 30101 40128 58001 60016 72582 8552/ 91200 333 60017=
07314,1996-08-19 18:00:00,21,1012.5,0.3,94,20,7000,22.224,,,230,20.2,23.8,,,,,,,,,wg-a,,,,AAXX 19184 07314 32657 72312 10210 20200 30098 40125 53003 8558/ 91800 333 10238 20202=
07314,1996-08-20 00:00:00,19,1013.3,-1.1,94,18,0,14.816,,,280,,,,,,,,,,,wg-a,,,,AAXX 20004 07314 12/// /2808 10190 20180 30106 40133 56011 60026 90000=
07314,1996-08-20 06:00:00,20,1013.8,0.3,88,18,9000,14.816,,,300,19.1,21,,,,,,,,,wg-a,,,,AAXX 20064 07314 32459 73008 10200 20180 30111 40138 51003 8257/ 90600 333 10210 20191=
07314,1996-08-20 12:00:00,21,1014.7,0.2,83,18,20000,7.408,,,280,,,,,,,,,,,wg-a,,,,AAXX 20124 07314 12470 82804 10210 20180 30120 40147 53002 60006 8351/ 91200=
07314,1996-08-20 18:00:00,20,1014,-0.3,88,18,20000,11.112,,,240,19.5,22.2,,,,,,,,,wg-a,,,,AAXX 20184 07314 12470 72406 10200 20180 30113 40140 58003 60006 82331 91800 333 10222 20195=
07314,1996-08-21 00:00:00,18,1015.2,0.2,88,16,0,14.816,,,340,,,,,,,,,,,wg-a,,,,AAXX 21004 07314 12/// /3408 10180 20160 30125 40152 50002 60006 90000=
07314,1996-08-21 06:00:00,18,1013.9,-0.4,88,16,20000,18.52,,,340,17.6,20.1,,,,,,,,,wg-a,,,,AAXX 21064 07314 12470 83410 10180 20160 30112 40139 56004 60006 8327/ 90600 333 10201 20176=
07314,1996-08-21 12:00:00,21,1015.3,0.2,73,16,500,11.112,,,270,,,,,,,,,,,wg-a,,,,AAXX 21124 07314 12400 72706 10210 20160 30126 40153 52002 60006 83272 91200=
07314,1996-08-21 18:00:00,20,1015.5,0.5,73,15,35000,18.52,,,280,17.8,20.9,,,,,,,,,wg-a,,,,AAXX 21184 07314 12481 32810 10200 20150 30128 40155 53005 60006 82871 91800 333 10209 20178=
07314,1996-08-22 00:00:00,19,1016.9,0.3,83,16,0,14.816,,,340,,,,,,,,,,,wg-a,,,,AAXX 22004 07314 12/// /3408 10190 20160 30142 40169 50003 60006 90000=
07314,1996-08-22 06:00:00,16,1016.4,-0.1,94,15,35000,7.408,,,100,16,19.8,,,,,,,,,wg-a,,,,AAXX 22064 07314 12581 31004 10160 20150 30137 40164 55001 60006 83200 90600 333 10198 20160=
07314,1996-08-22 12:00:00,22,1016,-0.8,69,16,35000,25.928,,,170,,,,,,,,,,,wg-a,,,,AAXX 22124 07314 12581 31714 10220 20160 30133 40160 58008 60006 83400 91200=
07314,1996-08-22 18:00:00,21,1013.8,-1.4,69,15,35000,22.224,,,190,16.3,22.3,,,,,,,,,wg-a,,,,AAXX 22184 07314 12881 21912 10210 20150 30111 40138 58014 60006 81032 91800 333 10223 20163=
07314,1996-08-23 00:00:00,19,1011.4,-1.7,78,15,0,14.816,,,140,,,,,,,,,,,wg-a,,,,AAXX 23004 07314 12/// /1408 10190 20150 30087 40114 58017 60006 90000=
07314,1996-08-23 06:00:00,19,1010.3,-0.1,88,17,0,50.004,,,270,18.1,21.1,,,,,,,,,wg-a,,,,AAXX 23064 07314 12/// /2727 10190 20170 30076 40103 55001 60006 90600 333 10211 20181=
07314,1996-08-23 12:00:00,21,1014.2,1.4,69,15,25000,31.484,,,250,,,,,,,,,,,wg-a,,,,AAXX 23124 07314 12575 32517 10210 20150 30115 40142 51014 60006 83200 91200=
07314,1996-08-23 18:00:00,20,1014.3,-0.2,68,14,25000,35.188,,,240,19.1,21.1,,,,,,,,15,wg-a,,,,AAXX 23184 07314 12475 62419 10200 20140 30116 40143 55002 60006 71511 86400 91800 333 10211 20191=
07314,1996-08-24 00:00:00,19,1014.4,-0.5,83,16,0,31.484,,,220,,,,,,,,,,,wg-a,,,,AAXX 24004 07314 12/// /2217 10190 20160 30117 40144 55005 60006 90000=
07314,1996-08-24 06:00:00,19,1012.7,-0.3,78,15,15000,35.188,,,240,17.9,19.8,,1,,,,,,80,wg-a,,,,AAXX 24064 07314 12465 62419 10190 20150 30100 40127 55003 60017 78081 85903 90600 333 10198 20179=
07314,1996-08-24 12:00:00,20,1014.6,0.8,73,15,20000,31.484,,,260,,,,,,,,,,2,wg-a,,,,AAXX 24124 07314 02470 42617 10200 20150 30119 40146 52008 61000 70281 84300 91200 333 ////=
07314,1996-08-24 18:00:00,19,1015,0.3,73,14,25000,29.632,,,260,18,20.1,,,,,,,,16,wg-a,,,,AAXX 24184 07314 32475 42616 10190 20140 30123 40150 53003 71611 84300 91800 333 10201 20180=
07314,1996-08-25 00:00:00,18,1016.3,0.3,83,15,0,25.928,,,280,,,,,,,,,,,wg-a,,,,AAXX 25004 07314 12/// /2814 10180 20150 30136 40163 51003 60006 90000=
07314,1996-08-25 06:00:00,18,1015.7,0.2,83,15,25000,14.816,,,260,17.6,19,,0,,,,,,80,wg-a,,,,AAXX 25064 07314 12475 62608 10180 20150 30130 40157 53002 60007 78022 85301 90600 333 10190 20176=
07314,1996-08-25 12:00:00,19,1016.2,-0.1,78,15,25000,11.112,,,270,,,,2,,,,,,16,wg-a,,,,AAXX 25124 07314 02475 72706 10190 20150 30135 40162 58001 60026 71682 8537/ 91200 333 60027=
07314,1996-08-25 18:00:00,19,1015.4,-0.4,78,15,0,7.408,,,220,17.2,20.6,,,,,,,,,wg-a,,,,AAXX 25184 07314 32/// /2204 10190 20150 30127 40154 58004 91800 333 10206 20172=
07314,1996-08-26 00:00:00,18,1015.8,-0.3,77,14,0,14.816,,,340,,,,,,,,,,,wg-a,,,,AAXX 26004 07314 12/// /3408 10180 20140 30131 40158 56003 60006 90000=
07314,1996-08-26 06:00:00,16,1016.1,0.4,82,13,25000,11.112,,,50,16.2,19,,,,,,,,,wg-a,,,,AAXX 26064 07314 12675 60506 10160 20130 30134 40161 53004 60006 85501 90600 333 10190 20162=
07314,1996-08-26 12:00:00,20,1017.4,-0.1,64,13,500,3.704,,,320,,,,,,,,,,,wg-a,,,,AAXX 26124 07314 12600 63202 10200 20130 30147 40174 58001 60006 86500 91200=
07314,1996-08-26 18:00:00,19,1016.8,0.1,68,13,500,22.224,,,310,16.3,20.6,,,,,,,,,wg-a,,,,AAXX 26184 07314 12600 63112 10190 20130 30141 40168 50001 60006 85530 91800 333 10206 20163=
07314,1996-08-27 00:00:00,17,1017.8,0,77,13,0,22.224,,,340,,,,,,,,,,,wg-a,,,,AAXX 27004 07314 12/// /3412 10170 20130 30151 40178 50000 60006 90000=
07314,1996-08-27 06:00:00,17,1017.7,0.3,77,13,25000,11.112,,,340,16.1,18.5,,,,,,,,,wg-a,,,,AAXX 27064 07314 12475 63406 10170 20130 30150 40177 53003 60006 86800 90600 333 10185 20161=
07314,1996-08-27 12:00:00,19,1019.1,0.5,68,13,25000,18.52,,,290,,,,,,,,,,,wg-a,,,,AAXX 27124 07314 12475 52910 10190 20130 30164 40191 51005 60006 84230 91200=
07314,1996-08-28 00:00:00,17,1020.9,-0.3,72,12,0,18.52,,,310,,,,,,,,,,,wg-a,,,,AAXX 28004 07314 12/// /3110 10170 20120 30182 40209 58003 60006 90000=
07314,1996-08-28 06:00:00,16,1020.8,0.6,82,13,20000,22.224,,,350,15.7,17.7,,,,,,,,,wg-a,,,,AAXX 28064 07314 32470 33512 10160 20130 30180 40208 53006 82401 90600 333 10177 20157=
07314,1996-08-28 12:00:00,19,1021.1,-0.3,68,13,25000,22.224,,,300,,,,,,,,,,,wg-a,,,,AAXX 28124 07314 12475 53012 10190 20130 30184 40211 58003 60006 85200 91200=
07314,1996-08-28 18:00:00,18,1020.1,-0.3,77,14,25000,29.632,,,310,15.9,18.9,,,,,,,,,wg-a,,,,AAXX 28184 07314 12475 33116 10180 20140 30174 40201 56003 60006 83200 91800 333 10189 20159=
07314,1996-08-29 00:00:00,17,1020.1,-0.5,77,13,0,25.928,,,340,,,,,,,,,,,wg-a,,,,AAXX 29004 07314 12/// /3414 10170 20130 30174 40201 56005 60006 90000=
07314,1996-08-29 06:00:00,16,1019.7,0.1,82,13,12000,18.52,,,320,15.8,17.9,,,,,,,,,wg-a,,,,AAXX 29064 07314 12462 63210 10160 20130 30170 40197 53001 60006 86200 90600 333 10179 20158=
07314,1996-08-29 12:00:00,19,1020.2,0,68,13,20000,18.52,,,290,,,,,,,,,,,wg-a,,,,AAXX 29124 07314 12470 62910 10190 20130 30175 40202 50000 60006 84202 91200=
07314,1996-08-29 18:00:00,18,1019.9,0.3,77,14,25000,31.484,,,310,16.1,19.1,,,,,,,,,wg-a,,,,AAXX 29184 07314 12575 53117 10180 20140 30172 40199 53003 60006 83502 91800 333 10191 20161=
07314,1996-08-30 00:00:00,17,1021.1,0,82,14,0,29.632,,,300,,,,,,,,,,,wg-a,,,,AAXX 30004 07314 12/// /3016 10170 20140 30184 40211 50000 60006 90000=
07314,1996-08-30 06:00:00,16,1022.3,1.1,72,11,25000,22.224,,,350,15.5,18.1,,,,,,,,,wg-a,,,,AAXX 30064 07314 12475 73512 10160 20110 30195 40223 53011 60006 83831 90600 333 10181 20155=
07314,1996-08-30 12:00:00,19,1024.1,0.4,52,9,25000,11.112,,,350,,,,,,,,,,,wg-a,,,,AAXX 30124 07314 12475 63506 10190 20090 30214 40241 52004 60006 83831 91200=
07314,1996-08-30 18:00:00,18,1024,0,73,13,500,31.484,,,310,15.2,18.9,,,,,,,,,wg-a,,,,AAXX 30184 07314 12800 33117 10180 20130 30213 40240 50000 60006 82032 91800 333 10189 20152=
07314,1996-08-31 00:00:00,17,1026,0.5,72,12,0,25.928,,,10,,,,,,,,,,,wg-a,,,,AAXX 31004 07314 12/// /0114 10170 20120 30232 40260 53005 60006 90000=
07314,1996-08-31 06:00:00,16,1026.8,1,88,14,25000,22.224,,,30,15.8,17.9,,,,,,,,,wg-a,,,,AAXX 31064 07314 12575 60312 10160 20140 30240 40268 53010 60006 86500 90600 333 10179 20158=
07314,1996-08-31 12:00:00,19,1027,-0.4,68,13,25000,11.112,,,270,,,,,,,,,,,wg-a,,,,AAXX 31124 07314 12575 32706 10190 20130 30243 40270 58004 60006 81201 91200=
07314,1996-08-31 18:00:00,18,1026.2,-0.4,83,15,25000,29.632,,,300,16,20,,,,,,,,,wg-a,,,,AAXX 31184 07314 12/75 53016 10180 20150 30235 40262 56004 60006 80001 91800 333 10200 20160=
07314,1996-09-01 00:00:00,16,1026.5,-0.2,77,12,0,31.484,,,20,,,,,,,,,,,wg-a,,,,AAXX 01004 07314 12/// /0217 10160 20120 30237 40265 56002 60006 90000=
07314,1996-09-01 06:00:00,15,1026.5,-0,77,11,25000,18.52,,,30,14.5,18.4,,,,,,,,,wg-a,,,,AAXX 01064 07314 12875 60310 10150 20110 30237 40265 55000 60006 82032 90600 333 10184 20145=
07314,1996-09-01 12:00:00,21,1026.5,-0.5,60,13,25000,11.112,,,360,,,,,,,,,,,wg-a,,,,AAXX 01124 07314 12/75 73606 10210 20130 30238 40265 58005 60006 84012 91200=
07314,1996-09-01 18:00:00,19,1024.6,-0.4,78,15,20000,22.224,,,320,14.5,21.6,,,,,,,,,wg-a,,,,AAXX 01184 07314 12670 73212 10190 20150 30219 40246 56004 60006 83511 91800 333 10216 20145=
07314,1996-09-02 00:00:00,17,1025.7,0.1,59,9,25000,18.52,,,70,,,,,,,,,,,wg-a,,,,AAXX 02004 07314 12/75 30710 10170 20090 30229 40257 52001 60006 80001 90000=
07314,1996-09-02 06:00:00,15,1025.2,-0.1,72,10,20000,25.928,,,50,14.5,19.8,,,,,,,,,wg-a,,,,AAXX 02064 07314 12/70 10514 10150 20100 30224 40252 56001 60006 81040 90600 333 10198 20145=
07314,1996-09-02 12:00:00,21,1023.8,-1.7,49,10,20000,25.928,,,20,,,,,,,,,,,wg-a,,,,AAXX 02124 07314 12/70 00214 10210 20100 30211 40238 58017 60006 80000 91200=
07314,1996-09-02 18:00:00,21,1021.4,-0.8,56,12,20000,25.928,,,40,14.7,22.6,,,,,,,,,wg-a,,,,AAXX 02184 07314 12570 20414 10210 20120 30187 40214 56008 60006 82100 91800 333 10226 20147=
07314,1996-09-03 00:00:00,18,1022.1,-0.4,64,11,25000,25.928,,,30,,,,,,,,,,,wg-a,,,,AAXX 03004 07314 12/75 00314 10180 20110 30194 40221 57004 60006 80000 90000=
07314,1996-09-03 06:00:00,15,1020.3,-0.5,72,10,18000,25.928,,,30,14.7,20.7,,,,,,,,,wg-a,,,,AAXX 03064 07314 12/68 00314 10150 20100 30175 40203 55005 60006 80000 90600 333 10207 20147=
07314,1996-09-03 12:00:00,22,1018.3,-1.5,46,10,18000,22.224,,,20,,,,,,,,,,,wg-a,,,,AAXX 03124 07314 12/68 10212 10220 20100 30156 40183 58015 60006 80002 91200=
07314,1996-09-03 18:00:00,20,1016.4,-0.5,56,11,25000,29.632,,,20,14.8,22.6,,,,,,,,,wg-a,,,,AAXX 03184 07314 12675 70216 10200 20110 30137 40164 56005 60006 83582 91800 333 10226 20148=
07314,1996-09-04 00:00:00,18,1017.1,-0.3,68,12,0,14.816,,,60,,,,,,,,,,,wg-a,,,,AAXX 04004 07314 12/// /0608 10180 20120 30144 40171 56003 60006 90000=
07314,1996-09-04 06:00:00,17,1016.2,-0.4,77,13,12000,31.484,,,50,16.8,20.4,,,,,,,,,wg-a,,,,AAXX 04064 07314 12/62 00517 10170 20130 30135 40162 55004 60006 80000 90600 333 10204 20168=
07314,1996-09-04 12:00:00,22,1016,-0.5,60,14,12000,7.408,,,30,,,,,,,,,,,wg-a,,,,AAXX 04124 07314 12/62 00304 10220 20140 30133 40160 58005 60006 80000 91200=
07314,1996-09-04 18:00:00,20,1014,-0.5,83,17,12000,7.408,,,320,16.8,22.7,,,,,,,,,wg-a,,,,AAXX 04184 07314 12/62 03204 10200 20170 30113 40140 55005 60006 80000 91800 333 10227 20168=
07314,1996-09-05 00:00:00,19,1015,-0,83,16,25000,14.816,,,30,,,,,,,,,,,wg-a,,,,AAXX 05004 07314 12/75 00308 10190 20160 30123 40150 54000 60006 80000 90000=
07314,1996-09-05 06:00:00,18,1015.5,0.5,77,14,12000,18.52,,,50,17.5,20.1,,,,,,,,,wg-a,,,,AAXX 05064 07314 12862 20510 10180 20140 30128 40155 53005 60006 82030 90600 333 10201 20175=
07314,1996-09-05 12:00:00,22,1016.5,-0.3,65,15,12000,7.408,,,290,,,,,,,,,,,wg-a,,,,AAXX 05124 07314 12/62 02904 10220 20150 30138 40165 56003 60006 80000 91200=
07314,1996-09-06 00:00:00,19,1017.5,0.5,94,18,18000,7.408,,,310,,,,,,,,,,,wg-a,,,,AAXX 06004 07314 12/68 03104 10190 20180 30148 40175 52005 60006 80000 90000=
07314,1996-09-06 06:00:00,17,1018.1,0.8,82,14,8000,11.112,,,70,17.1,19.5,,,,,,,,,wg-a,,,,AAXX 06064 07314 12/58 00706 10170 20140 30154 40181 53008 60006 80000 90600 333 10195 20171=
07314,1996-09-06 12:00:00,24,1018.8,-0.2,57,15,8000,3.704,,,330,,,,,,,,,,,wg-a,,,,AAXX 06124 07314 12/58 03302 10240 20150 30161 40188 58002 60006 80000 91200=
07314,1996-09-06 18:00:00,20,1017.3,-0.3,83,17,8000,18.52,,,300,17.1,24.1,,,,,,,,,wg-a,,,,AAXX 06184 07314 12/58 03010 10200 20170 30146 40173 56003 60006 80000 91800 333 10241 20171=
07314,1996-09-07 00:00:00,19,1018.6,0.4,73,14,0,11.112,,,30,,,,,,,,,,,wg-a,,,,AAXX 07004 07314 12/// /0306 10190 20140 30159 40186 53004 60006 90000=
07314,1996-09-07 06:00:00,16,1019.7,1,68,10,18000,14.816,,,60,15.6,19.9,,,,,,,,,wg-a,,,,AAXX 07064 07314 12/68 00608 10160 20100 30169 40197 53010 60006 80000 90600 333 10199 20156=
07314,1996-09-07 12:00:00,22,1020.4,-0.3,46,10,20000,11.112,,,50,,,,,,,,,,,wg-a,,,,AAXX 07124 07314 12/70 00506 10220 20100 30177 40204 58003 60006 80000 91200=
07314,1996-09-07 18:00:00,21,1019,-0.4,60,13,25000,14.816,,,40,15.7,23.3,,,,,,,,,wg-a,,,,AAXX 07184 07314 12/75 00408 10210 20130 30163 40190 56004 60006 80000 91800 333 10233 20157=
07314,1996-09-08 00:00:00,18,1020.3,0.5,49,7,0,25.928,,,60,,,,,,,,,,,wg-a,,,,AAXX 08004 07314 12/// /0614 10180 20070 30176 40203 52005 60006 90000=
07314,1996-09-08 06:00:00,14,1019.6,-0.1,63,7,25000,29.632,,,50,13.7,21.1,,,,,,,,,wg-a,,,,AAXX 08064 07314 12/75 20516 10140 20070 30168 40196 55001 60006 80001 90600 333 10211 20137=
07314,1996-09-08 12:00:00,20,1019.3,-0.8,40,6,25000,29.632,,,50,,,,,,,,,,,wg-a,,,,AAXX 08124 07314 12/75 20516 10200 20060 30166 40193 58008 60006 80001 91200=
07314,1996-09-08 18:00:00,20,1017.8,-0,53,10,500,31.484,,,30,13.8,21.9,,,,,,,,,wg-a,,,,AAXX 08184 07314 12/00 20317 10200 20100 30151 40178 55000 60006 80001 91800 333 10219 20138=
07314,1996-09-09 00:00:00,16,1019.3,-0.1,59,8,500,31.484,,,30,,,,,,,,,,,wg-a,,,,AAXX 09004 07314 12/00 00317 10160 20080 30166 40193 58001 60006 80000 90000=
07314,1996-09-09 06:00:00,14,1020.3,0.9,67,8,20000,35.188,,,30,13.7,19.8,,,,,,,,,wg-a,,,,AAXX 09064 07314 12670 60319 10140 20080 30175 40203 53009 60006 82530 90600 333 10198 20137=
07314,1996-09-09 12:00:00,20,1019.6,-1.2,46,8,0,35.188,,,20,,,,,,,,,,,wg-a,,,,AAXX 09124 07314 12/// /0219 10200 20080 30169 40196 57012 60006 91200=
07314,1996-09-09 18:00:00,20,1018.5,0.1,49,9,25000,31.484,,,30,13.6,21,,,,,,,,,wg-a,,,,AAXX 09184 07314 12575 30317 10200 20090 30158 40185 53001 60006 83100 91800 333 10210 20136=
07314,1996-09-10 00:00:00,17,1020.3,-0.1,59,9,500,29.632,,,40,,,,,,,,,,,wg-a,,,,AAXX 10004 07314 12/00 00416 10170 20090 30176 40203 58001 60006 80000 90000=
07314,1996-09-10 06:00:00,14,1020,0.2,72,9,18000,31.484,,,40,13.6,19.9,,,,,,,,,wg-a,,,,AAXX 10064 07314 12/68 00417 10140 20090 30172 40200 53002 60006 80000 90600 333 10199 20136=
07314,1996-09-10 12:00:00,20,1019.6,-1,53,10,18000,18.52,,,50,,,,,,,,,,,wg-a,,,,AAXX 10124 07314 12568 10510 10200 20100 30169 40196 58010 60006 81100 91200=
07314,1996-09-10 18:00:00,20,1017.8,-0.4,60,12,20000,14.816,,,40,13.5,21.6,,,,,,,,,wg-a,,,,AAXX 10184 07314 12/70 10408 10200 20120 30151 40178 55004 60006 80001 91800 333 10216 20135=
07314,1996-09-11 00:00:00,16,1018,-0.4,68,10,25000,31.484,,,30,,,,,,,,,,,wg-a,,,,AAXX 11004 07314 12/75 00317 10160 20100 30153 40180 56004 60006 80000 90000=
07314,1996-09-11 06:00:00,14,1017,-0.7,77,10,18000,25.928,,,50,13.8,19.6,,,,,,,,,wg-a,,,,AAXX 11064 07314 12/68 20514 10140 20100 30142 40170 55007 60006 80002 90600 333 10196 20138=
07314,1996-09-11 12:00:00,21,1015.4,-1.5,53,11,18000,22.224,,,20,,,,,,,,,,,wg-a,,,,AAXX 11124 07314 12/68 00212 10210 20110 30127 40154 58015 60006 80000 91200=
07314,1996-09-11 18:00:00,19,1013.3,-0.9,60,11,500,22.224,,,10,13.7,21.2,,,,,,,,,wg-a,,,,AAXX 11184 07314 12600 30112 10190 20110 30106 40133 56009 60006 81502 91800 333 10212 20137=
07314,1996-09-12 00:00:00,15,1013.8,-0.1,72,10,500,25.928,,,30,,,,,,,,,,,wg-a,,,,AAXX 12004 07314 12/00 00314 10150 20100 30111 40138 56001 60006 80000 90000=
07314,1996-09-12 06:00:00,14,1012.7,0.2,77,10,14000,25.928,,,30,13.6,19.1,,,,,,,,,wg-a,,,,AAXX 12064 07314 12/64 00314 10140 20100 30099 40127 53002 60006 80000 90600 333 10191 20136=
07314,1996-09-12 12:00:00,18,1013,-0.3,73,13,18000,22.224,,,300,,,,,,,,,,,wg-a,,,,AAXX 12124 07314 12/68 23012 10180 20130 30103 40130 58003 60006 80001 91200=
07314,1996-09-12 18:00:00,17,1012.7,0.2,82,14,18000,35.188,,,320,13.7,18.5,,,,,,,,,wg-a,,,,AAXX 12184 07314 12568 33219 10170 20140 30100 40127 53002 60006 82530 91800 333 10185 20137=
07314,1996-09-13 00:00:00,16,1015.2,0.7,82,13,25000,22.224,,,340,,,,,,,,,,,wg-a,,,,AAXX 13004 07314 12/75 43412 10160 20130 30125 40152 52007 60006 84030 90000=
07314,1996-09-13 06:00:00,14,1016.8,1.1,88,12,10000,14.816,,,10,14,17.4,,,,,,,,,wg-a,,,,AAXX 13064 07314 12860 60108 10140 20120 30140 40168 53011 60006 86030 90600 333 10174 20140=
07314,1996-09-13 12:00:00,18,1018.2,0.2,68,12,18000,11.112,,,260,,,,,,,,,,,wg-a,,,,AAXX 13124 07314 12568 32606 10180 20120 30155 40182 51002 60006 81230 91200=
07314,1996-09-13 18:00:00,17,1018.3,0.5,72,12,25000,29.632,,,320,13.8,18.4,,,,,,,,,wg-a,,,,AAXX 13184 07314 12/75 03216 10170 20120 30156 40183 53005 60006 80000 91800 333 10184 20138=
07314,1996-09-14 00:00:00,15,1021,0.8,59,7,500,22.224,,,50,,,,,,,,,,,wg-a,,,,AAXX 14004 07314 12/00 00512 10150 20070 30182 40210 52008 60006 80000 90000=
07314,1996-09-14 06:00:00,13,1022.2,0.8,72,8,25000,14.816,,,60,12.5,17.3,,,,,,,,,wg-a,,,,AAXX 14064 07314 12/75 00608 10130 20080 30194 40222 53008 60006 80000 90600 333 10173 20125=
07314,1996-09-14 12:00:00,19,1023.1,-0.4,46,7,25000,11.112,,,40,,,,,,,,,,,wg-a,,,,AAXX 14124 07314 12/75 00406 10190 20070 30204 40231 58004 60006 80000 91200=
07314,1996-09-14 18:00:00,17,1021.2,-0.7,72,12,25000,22.224,,,320,12.5,19.8,,,,,,,,,wg-a,,,,AAXX 14184 07314 12/75 03212 10170 20120 30185 40212 56007 60006 80000 91800 333 10198 20125=
07314,1996-09-15 00:00:00,15,1022.7,0.3,67,9,500,11.112,,,70,,,,,,,,,,,wg-a,,,,AAXX 15004 07314 12/00 00706 10150 20090 30199 40227 51003 60006 80000 90000=
07314,1996-09-15 12:00:00,20,1021.8,-1,49,9,25000,18.52,,,50,,,,,,,,,,,wg-a,,,,AAXX 15124 07314 12/75 20510 10200 20090 30191 40218 58010 60006 80002 91200=
07314,1996-09-15 18:00:00,19,1019.9,-0.6,64,12,500,11.112,,,60,13.4,20.8,,,,,,,,,wg-a,,,,AAXX 15184 07314 12/00 20606 10190 20120 30172 40199 57006 60006 80002 91800 333 10208 20134=
07314,1996-09-16 00:00:00,16,1020.2,-0.4,63,9,500,22.224,,,80,,,,,,,,,,,wg-a,,,,AAXX 16004 07314 12/00 00812 10160 20090 30174 40202 56004 60006 80000 90000=
07314,1996-09-16 06:00:00,14,1018,-1.4,72,9,20000,22.224,,,60,13.8,19.3,,,,,,,,,wg-a,,,,AAXX 16064 07314 12/70 00612 10140 20090 30152 40180 58014 60006 80000 90600 333 10193 20138=
07314,1996-09-16 12:00:00,21,1016.4,-0.9,53,11,20000,11.112,,,60,,,,,,,,,,,wg-a,,,,AAXX 16124 07314 12/70 00606 10210 20110 30137 40164 56009 60006 80000 91200=
07314,1996-09-16 18:00:00,19,1012,-1.6,68,13,25000,7.408,,,30,13.8,22.9,,,,,,,,,wg-a,,,,AAXX 16184 07314 12/75 00304 10190 20130 30093 40120 57016 60006 80000 91800 333 10229 20138=
07314,1996-09-17 00:00:00,16,1009.9,-1.7,63,9,500,14.816,,,90,,,,,,,,,,,wg-a,,,,AAXX 17004 07314 12/00 30908 10160 20090 30072 40099 56017 60006 80004 90000=
07314,1996-09-17 06:00:00,14,1008.5,-0.3,72,9,20000,14.816,,,80,14.2,19.2,,,,,,,,,wg-a,,,,AAXX 17064 07314 12870 50808 10140 20090 30058 40085 55003 60006 83032 90600 333 10192 20142=
07314,1996-09-17 18:00:00,16,1009.7,1,88,14,15000,14.816,,,260,14.1,20.3,,,,,,,,,wg-a,,,,AAXX 17184 07314 12/65 32608 10160 20140 30070 40097 53010 60006 80002 91800 333 10203 20141=
07314,1996-09-18 00:00:00,13,1008.6,-1.1,100,13,500,7.408,,,180,,,,,,,,,,,wg-a,,,,AAXX 18004 07314 12/00 01804 10130 20130 30059 40086 57011 60006 80000 90000=
07314,1996-09-18 06:00:00,13,1006.2,-1.4,100,13,600,11.112,,,130,13,16.4,,,,,,,,46,wg-a,,,,AAXX 18064 07314 12106 41306 10130 20130 30035 40062 55014 60006 74641 83602 90600 333 10164 20130=
07314,1996-09-18 12:00:00,17,1005,-0.8,88,15,12000,22.224,,,170,,,,0,,,,,,2,wg-a,,,,AAXX 18124 07314 02362 71712 10170 20150 30023 40050 58008 60006 70242 875// 91200 333 60007=
07314,1996-09-18 18:00:00,16,1002.7,-0.5,94,15,18000,0,,,0,13.3,17.7,,1,,,,,,,wg-a,,,,AAXX 18184 07314 12468 80000 10160 20150 30000 40027 55005 60017 888// 91800 333 10177 20133=
07314,1996-09-19 00:00:00,15,1001.4,-0.7,100,15,14000,11.112,,,80,,,,,,,,,,,wg-a,,,,AAXX 19004 07314 12/64 30806 10150 20150 39987 40014 56007 60006 80002 90000=
07314,1996-09-19 06:00:00,13,1001.7,0.5,94,12,8000,29.632,,,20,12.7,15.7,,1,,,,,,63,wg-a,,,,AAXX 19064 07314 12458 80216 10130 20120 39990 40017 53005 60017 76361 887// 90600 333 10157 20127=
07314,1996-09-19 12:00:00,13,1004.1,1.1,88,11,10000,14.816,,,320,,,,,,,,,,2,wg-a,,,,AAXX 19124 07314 12560 83208 10130 20110 30014 40041 51011 60036 70262 885// 91200=
07314,1996-09-19 18:00:00,14,1005.3,1.1,77,10,10000,18.52,,,290,11.4,14.3,,,,,,,,,wg-a,,,,AAXX 19184 07314 32460 72910 10140 20100 30026 40053 51011 873// 91800 333 10143 20114=
07314,1996-09-20 00:00:00,15,1005.7,0.2,77,11,25000,22.224,,,300,,,,,,,,,,,wg-a,,,,AAXX 20004 07314 12575 23012 10150 20110 30030 40057 51002 60006 82200 90000=
07314,1996-09-20 06:00:00,14,1003.9,-0.6,77,10,16000,7.408,,,310,13.6,15.6,,,,,,,,,wg-a,,,,AAXX 20064 07314 12566 43104 10140 20100 30012 40039 56006 60006 82202 90600 333 10156 20136=
07314,1996-09-20 12:00:00,17,1003.3,-0.8,77,13,12000,11.112,,,50,,,,,,,,,,,wg-a,,,,AAXX 20124 07314 12562 70506 10170 20130 30006 40033 58008 60006 82107 91200=
07314,1996-09-20 18:00:00,17,1002,-0.5,68,11,16000,14.816,,,130,14.1,18.8,,,,,,,,,wg-a,,,,AAXX 20184 07314 12566 81308 10170 20110 39993 40020 56005 60006 885// 91800 333 10188 20141=
07314,1996-09-21 00:00:00,15,1000.3,-1.4,82,12,0,14.816,,,100,,,,,,,,,,,wg-a,,,,AAXX 21004 07314 12/// /1008 10150 20120 39976 40003 58014 60006 90000=
07314,1996-09-21 06:00:00,14,999,-0.3,94,13,6000,14.816,,,100,14,16.7,,0,,,,,,60,wg-a,,,,AAXX 21064 07314 12456 81008 10140 20130 39963 49990 55003 60007 76062 8472/ 90600 333 10167 20140=
07314,1996-09-21 12:00:00,16,1000.4,0.4,88,14,6000,18.52,,,80,,,,,,,,,,21,wg-a,,,,AAXX 21124 07314 12456 80810 10160 20140 39977 40004 51004 60016 72162 8472/ 91200=
07314,1996-09-21 18:00:00,17,1002.2,1.3,72,12,14000,22.224,,,30,14.1,17.4,,,,,,,,,wg-a,,,,AAXX 21184 07314 32464 80312 10170 20120 39995 40022 53013 885// 91800 333 10174 20141=
07314,1996-09-22 00:00:00,15,1005.9,1.4,77,11,0,35.188,,,20,,,,,,,,,,,wg-a,,,,AAXX 22004 07314 12/// /0219 10150 20110 30032 40059 52014 60006 90000=
07314,1996-09-22 06:00:00,12,1009.2,1.6,94,11,2500,25.928,,,10,12.1,17.8,,,,,,,,10,wg-a,,,,AAXX 22064 07314 12/25 20114 10120 20110 30064 40092 53016 60006 71000 82030 90600 333 10178 20121=
07314,1996-09-22 12:00:00,15,1011.3,0.3,77,11,3000,14.816,,,310,,,,,,,,,,10,wg-a,,,,AAXX 22124 07314 12/30 23108 10150 20110 30086 40113 50003 60006 71000 82030 91200=
07314,1996-09-22 18:00:00,15,1011.6,0.6,82,12,8000,29.632,,,310,12.2,16,,,,,,,,,wg-a,,,,AAXX 22184 07314 12/58 63116 10150 20120 30089 40116 52006 60006 85042 91800 333 10160 20122=
07314,1996-09-23 00:00:00,14,1012.3,-0.2,77,10,0,22.224,,,330,,,,,,,,,,,wg-a,,,,AAXX 23004 07314 12/// /3312 10140 20100 30096 40123 58002 60006 90000=
07314,1996-09-23 06:00:00,12,1011.9,0.2,88,10,8000,0,,,0,12,15.5,,,,,,,,,wg-a,,,,AAXX 23064 07314 12/58 40000 10120 20100 30091 40119 53002 60006 80002 90600 333 10155 20120=
07314,1996-09-23 12:00:00,16,1012.3,-0.2,68,10,6000,3.704,,,240,,,,,,,,,,,wg-a,,,,AAXX 23124 07314 12556 42402 10160 20100 30096 40123 57002 60006 81102 91200=
07314,1996-09-23 18:00:00,16,1012.1,0.4,68,10,16000,11.112,,,240,11.4,17.5,,,,,,,,,wg-a,,,,AAXX 23184 07314 12566 62406 10160 20100 30094 40121 53004 60006 84542 91800 333 10175 20114=
07314,1996-09-24 00:00:00,14,1012.4,-0.4,94,13,0,7.408,,,80,,,,,,,,,,,wg-a,,,,AAXX 24004 07314 12/// /0804 10140 20130 30097 40124 56004 60016 90000=
07314,1996-09-24 06:00:00,14,1012.4,-0.4,94,13,16000,7.408,,,80,,,,0,,,,,,21,wg-a,,,,AAXX 24064 07314 02866 80804 10140 20130 30097 40124 56004 60016 72165 8807/ 90600 333 60007=
07314,1996-09-24 12:00:00,18,1013.7,0.1,77,14,6000,11.112,,,180,,,,,,,,,,,wg-a,,,,AAXX 24124 07314 12556 51806 10180 20140 30110 40137 50001 60006 85800 91200=
07314,1996-09-24 18:00:00,17,1011.8,-0.7,82,14,0,7.408,,,150,14,19.1,,,,,,,,,wg-a,,,,AAXX 24184 07314 12/// /1504 10170 20140 30091 40118 56007 60006 91800 333 10191 20140=
07314,1996-09-25 00:00:00,16,1011,-1.1,88,14,0,25.928,,,260,,,,,,,,,,,wg-a,,,,AAXX 25004 07314 12/// /2614 10160 20140 30083 40110 58011 60016 90000=
07314,1996-09-25 06:00:00,16,1011,-1.1,88,14,12000,25.928,,,260,,,,,,,,,,21,wg-a,,,,AAXX 25064 07314 12562 82614 10160 20140 30083 40110 58011 60016 72162 8577/ 90600=
07314,1996-09-25 12:00:00,17,1010.6,0.7,82,14,0,14.816,,,220,,,,,,,,,,,wg-a,,,,AAXX 25124 07314 12/// /2208 10170 20140 30079 40106 51007 60056 91200=
07314,1996-09-25 18:00:00,16,1014.8,2.9,88,14,0,31.484,,,310,15.1,17.7,,,,,,,,,wg-a,,,,AAXX 25184 07314 32/// /3117 10160 20140 30121 40148 53029 91800 333 10177 20151=
07314,1996-09-26 00:00:00,16,1018.8,1.5,88,14,0,18.52,,,290,,,,,,,,,,,wg-a,,,,AAXX 26004 07314 12/// /2910 10160 20140 30161 40188 52015 60006 90000=
07314,1996-09-26 06:00:00,16,1018.8,1.5,88,14,25000,18.52,,,290,,,,,,,,,,,wg-a,,,,AAXX 26064 07314 12/75 02910 10160 20140 30161 40188 52015 60006 80000 90600=
07314,1996-09-26 12:00:00,19,1020.2,-0.2,83,16,25000,18.52,,,180,,,,,,,,,,,wg-a,,,,AAXX 26124 07314 12575 21810 10190 20160 30175 40202 55002 60006 81141 91200=
07314,1996-09-26 18:00:00,16,1018.2,-0.6,94,15,12000,29.632,,,190,14.9,19,,4,,,,,,60,wg-a,,,,AAXX 26184 07314 12462 81916 10160 20150 30155 40182 55006 60047 76062 888// 91800 333 10190 20149=
07314,1996-09-27 00:00:00,17,1016.6,-0.7,100,17,0,29.632,,,250,,,,2,,,,,,,wg-a,,,,AAXX 27004 07314 02/// /2516 10170 20170 30139 40166 56007 60056 90000 333 60027=
07314,1996-09-27 06:00:00,17,1016.6,-0.7,100,17,6000,29.632,,53.708,250,,,,2,,,,,,21,wg-a,,,,AAXX 27064 07314 02356 82516 10170 20170 30139 40166 56007 60056 72162 887// 90600 333 60027 91029=
07314,1996-09-27 12:00:00,18,1020.8,1.9,83,15,8000,29.632,,,270,,,,,,,,,,,wg-a,,,,AAXX 27124 07314 12558 32716 10180 20150 30181 40208 53019 60006 81102 91200=
07314,1996-09-27 18:00:00,17,1023.4,1.8,88,15,10000,22.224,,,280,16.7,18.2,,,,,,,,,wg-a,,,,AAXX 27184 07314 12560 32812 10170 20150 30207 40234 53018 60006 81102 91800 333 10182 20167=
07314,1996-09-28 00:00:00,16,1026.3,0.8,82,13,0,14.816,,,300,,,,,,,,,,,wg-a,,,,AAXX 28004 07314 12/// /3008 10160 20130 30235 40263 50008 60006 90000=
07314,1996-09-28 06:00:00,16,1026.3,0.8,82,13,20000,14.816,,,300,,,,,,,,,,,wg-a,,,,AAXX 28064 07314 12/70 03008 10160 20130 30235 40263 50008 60006 80000 90600=
07314,1996-09-28 12:00:00,18,1028.1,-0.1,73,13,0,11.112,,,200,,,,,,,,,,,wg-a,,,,AAXX 28124 07314 12/// /2006 10180 20130 30253 40281 58001 60006 91200=
07314,1996-09-28 18:00:00,16,1027,0.1,82,13,0,7.408,,,290,11.6,18.3,,,,,,,,,wg-a,,,,AAXX 28184 07314 12/// /2904 10160 20130 30242 40270 50001 60006 91800 333 10183 20116=
07314,1996-09-29 00:00:00,14,1026.2,-0.9,94,13,0,7.408,,,90,,,,,,,,,,,wg-a,,,,AAXX 29004 07314 12/// /0904 10140 20130 30234 40262 58009 60006 90000=
07314,1996-09-29 06:00:00,14,1026.2,-0.9,94,13,20000,7.408,,,90,,,,,,,,,,,wg-a,,,,AAXX 29064 07314 12/70 00904 10140 20130 30234 40262 58009 60006 80000 90600=
07314,1996-09-29 12:00:00,18,1026.5,0.2,83,15,18000,18.52,,,200,,,,,,,,,,,wg-a,,,,AAXX 29124 07314 12568 12010 10180 20150 30238 40265 52002 60006 81100 91200=
07314,1996-09-29 18:00:00,17,1024.2,-1,94,16,18000,7.408,,,230,10.9,19,,,,,,,,,wg-a,,,,AAXX 29184 07314 12568 12304 10170 20160 30215 40242 56010 60006 81100 91800 333 10190 20109=
07314,1996-09-30 00:00:00,16,1022.7,-1.1,94,15,0,11.112,,,220,,,,,,,,,,,wg-a,,,,AAXX 30004 07314 12/// /2206 10160 20150 30199 40227 56011 60006 90000=
07314,1996-09-30 06:00:00,17,1019,-1.7,77,13,18000,11.112,,,220,15.9,17,,,,,,,,,wg-a,,,,AAXX 30064 07314 12568 82206 10170 20130 30163 40190 56017 60006 875// 90600 333 10170 20159=
07314,1996-09-30 12:00:00,19,1014.2,-3.4,78,15,0,18.52,,,180,,,,,,,,,,,wg-a,,,,AAXX 30124 07314 12/// /1810 10190 20150 30115 40142 56034 60006 91200=
07314,1996-09-30 18:00:00,17,1009.4,-1.9,82,14,8000,11.112,,,250,16.4,19.1,,,,,,,,,wg-a,,,,AAXX 30184 07314 12558 62506 10170 20140 30067 40094 56019 60006 83480 91800 333 10191 20164=
07314,1996-10-01 00:00:00,16,1007,-1.3,94,15,0,22.224,,,280,,,,,,,,,,,wg-a,,,,AAXX 01004 07314 12/// /2812 10160 20150 30043 40070 58013 60026 90000=
07314,1996-10-01 06:00:00,14,1006,-0.1,94,13,8000,35.188,,,360,13.4,17,,5,,,,,,60,wg-a,,,,AAXX 01064 07314 12458 83619 10140 20130 30033 40060 55001 60057 76062 8577/ 90600 333 10170 20134=
07314,1996-10-01 12:00:00,16,1014.2,3.3,77,12,0,31.484,,,320,,,,,,,,,,,wg-a,,,,AAXX 01124 07314 12/// /3217 10160 20120 30115 40142 51033 60056 91200=
07314,1996-10-01 18:00:00,16,1017.4,1.5,77,12,25000,31.484,,,280,12.4,16.4,,,,,,,,,wg-a,,,,AAXX 01184 07314 32575 22817 10160 20120 30147 40174 53015 82100 91800 333 10164 20124=
07314,1996-10-02 00:00:00,15,1017.2,-1,77,11,0,31.484,,,260,,,,,,,,,,,wg-a,,,,AAXX 02004 07314 12/// /2617 10150 20110 30145 40172 57010 60006 90000=
07314,1996-10-02 06:00:00,15,1017.2,-1,77,11,20000,31.484,,,260,,,,,,,,,,,wg-a,,,,AAXX 02064 07314 12570 32617 10150 20110 30145 40172 57010 60006 83200 90600=
07314,1996-10-02 12:00:00,16,1017.9,2.3,82,13,20000,35.188,,61.116,310,,,,,,,,,,2,wg-a,,,,AAXX 02124 07314 12570 53119 10160 20130 30152 40179 51023 60016 70282 8/100 91200 333 91033=
07314,1996-10-02 18:00:00,15,1023.5,2.6,77,11,25000,18.52,,,20,14,17.1,,,,,,,,,wg-a,,,,AAXX 02184 07314 32575 30210 10150 20110 30207 40235 53026 83400 91800 333 10171 20140=
07314,1996-10-03 00:00:00,16,1027.6,1.3,77,12,0,18.52,,,310,,,,,,,,,,,wg-a,,,,AAXX 03004 07314 12/// /3110 10160 20120 30248 40276 51013 60006 90000=
07314,1996-10-03 06:00:00,16,1027.6,1.3,77,12,500,18.52,,,310,,,,,,,,,,,wg-a,,,,AAXX 03064 07314 12/00 03110 10160 20120 30248 40276 51013 60006 80000 90600=
07314,1996-10-03 12:00:00,18,1,-0.3,73,13,8000,11.112,,,230,,,,,,,,,,,wg-a,,,,AAXX 03124 07314 12/58 32306 10180 20130 30265 58003 60006 80002 91200=
07314,1996-10-03 18:00:00,16,1027.5,-0.7,82,13,25000,22.224,,,220,12.1,18,,,,,,,,,wg-a,,,,AAXX 03184 07314 12575 42212 10160 20130 30247 40275 56007 60006 82102 91800 333 10180 20121=
07314,1996-10-04 00:00:00,16,1026.5,-1,77,12,0,14.816,,,240,,,,,,,,,,,wg-a,,,,AAXX 04004 07314 12/// /2408 10160 20120 30237 40265 58010 60006 90000=
07314,1996-10-04 06:00:00,16,1026.5,-1,77,12,500,14.816,,,240,,,,,,,,,,,wg-a,,,,AAXX 04064 07314 12500 22408 10160 20120 30237 40265 58010 60006 82500 90600=
07314,1996-10-04 12:00:00,15,1023.8,-0.4,82,12,18000,18.52,,,340,,,,,,,,,,21,wg-a,,,,AAXX 04124 07314 02568 83410 10150 20120 30210 40238 58004 61000 72162 888// 91200 333 ////=
07314,1996-10-04 18:00:00,15,1022,-0.6,67,9,25000,31.484,,,300,13.1,16.8,,,,,,,,,wg-a,,,,AAXX 04184 07314 12575 23017 10150 20090 30192 40220 56006 60006 81104 91800 333 10168 20131=
07314,1996-10-05 00:00:00,15,1020.3,-1.7,72,10,0,35.188,,,290,,,,,,,,,,,wg-a,,,,AAXX 05004 07314 12/// /2919 10150 20100 30175 40203 58017 60006 90000=
07314,1996-10-05 06:00:00,15,1020.3,-1.7,72,10,20000,35.188,,,290,,,,0,,,,,,,wg-a,,,,AAXX 05064 07314 02/70 52919 10150 20100 30175 40203 58017 60006 85054 90600 333 60007=
07314,1996-10-05 12:00:00,16,1021.1,-0.2,63,9,20000,18.52,,,330,,,,,,,,,,,wg-a,,,,AAXX 05124 07314 12570 13310 10160 20090 30183 40211 58002 60006 81200 91200=
07314,1996-10-05 18:00:00,14,1021.7,1.4,72,9,20000,29.632,,61.116,330,13,15.8,,0,,,,,,15,wg-a,,,,AAXX 05184 07314 12570 63316 10140 20090 30189 40217 53014 60007 71522 85960 91800 333 10158 20130 91033=
07314,1996-10-06 00:00:00,12,1022.9,0.1,76,8,0,38.892,,,360,,,,,,,,,,,wg-a,,,,AAXX 06004 07314 12/// /3621 10120 20080 30201 40229 51001 60006 90000=
07314,1996-10-06 06:00:00,11,1023.4,0.3,82,8,500,29.632,,,10,,,,,,,,,,,wg-a,,,,AAXX 06064 07314 12/00 20116 10110 20080 30206 40234 53003 60006 82040 90600=
07314,1996-10-06 12:00:00,15,1024.2,-0.5,63,8,20000,25.928,,,10,,,,,,,,,,,wg-a,,,,AAXX 06124 07314 12570 20114 10150 20080 30214 40242 58005 60006 81141 91200=
07314,1996-10-06 18:00:00,14,1023.9,0.7,67,8,20000,31.484,,,350,11,16,,,,,,,,,wg-a,,,,AAXX 06184 07314 12570 63517 10140 20080 30211 40239 53007 60006 84542 91800 333 10160 20110=
07314,1996-10-07 00:00:00,12,1024.4,-0.1,82,9,25000,25.928,,,30,,,,,,,,,,,wg-a,,,,AAXX 07004 07314 12/75 00314 10120 20090 30216 40244 58001 60006 80000 90000=
07314,1996-10-07 06:00:00,11,1023.4,-0.2,87,9,12000,11.112,,,30,10.7,13.8,,,,,,,,,wg-a,,,,AAXX 07064 07314 12862 20306 10110 20090 30206 40234 55002 60006 81031 90600 333 10138 20107=
07314,1996-10-07 12:00:00,15,1023.5,-0.9,67,9,15000,7.408,,,320,,,,,,,,,,,wg-a,,,,AAXX 07124 07314 12865 23204 10150 20090 30207 40235 58009 60006 82030 91200=
07314,1996-10-07 18:00:00,14,1023,0.5,88,12,15000,22.224,,,330,10.4,15.3,,,,,,,,,wg-a,,,,AAXX 07184 07314 12565 73312 10140 20120 30202 40230 53005 60006 878// 91800 333 10153 20104=
07314,1996-10-08 00:00:00,14,1023.1,-0.1,88,12,20000,11.112,,,350,,,,,,,,,,,wg-a,,,,AAXX 08004 07314 12670 83506 10140 20120 30203 40231 58001 60006 8457/ 90000=
07314,1996-10-08 06:00:00,14,1022.7,0.2,94,13,2500,11.112,,,10,13.8,14.5,,,,,,,,50,wg-a,,,,AAXX 08064 07314 02525 80106 10140 20130 30199 40227 53002 61000 75052 885// 90600 333 10145 20138 ////=
07314,1996-10-08 12:00:00,16,1023.3,-0.5,88,14,8000,11.112,,,320,,,,,,,,,,,wg-a,,,,AAXX 08124 07314 12458 73206 10160 20140 30205 40233 58005 60016 878// 91200=
07314,1996-10-08 18:00:00,16,1023.2,0.3,82,13,20000,22.224,,,310,13.4,16.4,,,,,,,,,wg-a,,,,AAXX 08184 07314 32570 73112 10160 20130 30204 40232 53003 875// 91800 333 10164 20134=
07314,1996-10-09 00:00:00,15,1023.5,-0.3,88,13,500,14.816,,,330,,,,,,,,,,,wg-a,,,,AAXX 09004 07314 12/00 33308 10150 20130 30207 40235 58003 60006 83040 90000=
07314,1996-10-09 06:00:00,15,1022.7,0.1,82,12,25000,11.112,,,320,14.6,15.6,,,,,,,,,wg-a,,,,AAXX 09064 07314 12475 73206 10150 20120 30199 40227 53001 60006 878// 90600 333 10156 20146=
07314,1996-10-09 12:00:00,17,1023.3,-0.5,72,12,25000,7.408,,,240,,,,,,,,,,,wg-a,,,,AAXX 09124 07314 12475 72404 10170 20120 30205 40233 58005 60006 8587/ 91200=
07314,1996-10-09 18:00:00,15,1023.3,0.6,88,13,25000,11.112,,,300,14.7,17.4,,,,,,,,,wg-a,,,,AAXX 09184 07314 12475 73006 10150 20130 30205 40233 53006 60006 878// 91800 333 10174 20147=
07314,1996-10-10 00:00:00,14,1024,-0.2,82,11,0,25.928,,,20,,,,,,,,,,,wg-a,,,,AAXX 10004 07314 12/// /0214 10140 20110 30212 40240 58002 60006 90000=
07314,1996-10-10 06:00:00,12,1024.2,0.7,88,10,8000,25.928,,,20,11.5,15.3,,,,,,,,,wg-a,,,,AAXX 10064 07314 12/58 20214 10120 20100 30214 40242 51007 60006 82040 90600 333 10153 20115=
07314,1996-10-10 12:00:00,16,1024.8,-0.6,68,10,20000,11.112,,,20,,,,,,,,,,,wg-a,,,,AAXX 10124 07314 12/70 20206 10160 20100 30220 40248 58006 60006 80002 91200=
07314,1996-10-10 18:00:00,16,1023.7,0.3,68,10,12000,18.52,,,40,11.4,17.4,,,,,,,,,wg-a,,,,AAXX 10184 07314 12562 60410 10160 20100 30209 40237 53003 60006 86500 91800 333 10174 20114=
07314,1996-10-11 00:00:00,13,1023.1,-1.1,82,10,0,7.408,,,70,,,,,,,,,,,wg-a,,,,AAXX 11004 07314 12/// /0704 10130 20100 30203 40231 58011 60006 90000=
07314,1996-10-11 06:00:00,10,1021,-0.7,100,10,4000,14.816,,,70,10.4,15.5,,,,,,,,,wg-a,,,,AAXX 11064 07314 12440 80708 10100 20100 30182 40210 56007 60006 886// 90600 333 10155 20104=
07314,1996-10-11 12:00:00,12,1020.1,-1.4,94,11,2000,11.112,,,80,,,,,,,,,,10,wg-a,,,,AAXX 11124 07314 12420 80806 10120 20110 30173 40201 58014 60006 71022 886// 91200=
07314,1996-10-11 18:00:00,12,1017.7,-1,88,10,12000,7.408,,,80,9.6,13.7,,,,,,,,,wg-a,,,,AAXX 11184 07314 12462 60804 10120 20100 30149 40177 56010 60006 83602 91800 333 10137 20096=
07314,1996-10-12 00:00:00,10,1015.5,-1.3,100,10,20000,14.816,,,130,,,,,,,,,,,wg-a,,,,AAXX 12004 07314 12/70 01308 10100 20100 30127 40155 58013 60006 80000 90000=
07314,1996-10-12 06:00:00,10,1012.8,-1.1,93,9,18000,18.52,,,130,9.4,12.2,,,,,,,,,wg-a,,,,AAXX 12064 07314 12/68 21310 10100 20090 30100 40128 56011 60006 80002 90600 333 10122 20094=
07314,1996-10-12 12:00:00,18,1011.5,-1.2,83,15,12000,18.52,,,180,,,,,,,,,,,wg-a,,,,AAXX 12124 07314 12/62 01810 10180 20150 30088 40115 58012 60006 80000 91200=
07314,1996-10-12 18:00:00,16,1008.5,-1,77,12,18000,14.816,,,140,9.4,19.8,,,,,,,,,wg-a,,,,AAXX 12184 07314 12/68 01408 10160 20120 30058 40085 58010 60006 80000 91800 333 10198 20094=
07314,1996-10-13 00:00:00,15,1005.7,-1.6,82,12,0,22.224,,,140,,,,,,,,,,,wg-a,,,,AAXX 13004 07314 12/// /1412 10150 20120 30030 40057 57016 60006 90000=
07314,1996-10-13 06:00:00,15,1005.7,-1.6,82,12,25000,22.224,,,140,,,,,,,,,,,wg-a,,,,AAXX 13064 07314 12/75 01412 10150 20120 30030 40057 57016 60006 80000 90600=
07314,1996-10-13 12:00:00,22,1001.3,-1.3,50,11,18000,38.892,,61.116,150,,,,,,,,,,,wg-a,,,,AAXX 13124 07314 12868 41521 10220 20110 39987 40013 58013 60006 84080 91200 333 91033=
07314,1996-10-13 18:00:00,18,1000,-0.6,68,12,18000,18.52,,64.82,130,13.8,22.4,,,,,,,,,wg-a,,,,AAXX 13184 07314 12868 61310 10180 20120 39973 40000 56006 60006 84012 91800 333 10224 20138 91035=
07314,1996-10-14 00:00:00,17,1000.5,0.2,72,12,500,29.632,,50.004,130,,,,,,,,,,,wg-a,,,,AAXX 14004 07314 12800 71316 10170 20120 39978 40005 53002 60006 8701/ 90000 333 91027=
07314,1996-10-14 06:00:00,15,1001.1,0.7,88,13,18000,18.52,,,150,15.3,18.1,,,,,,,,,wg-a,,,,AAXX 14064 07314 12868 81510 10150 20130 39984 40011 53007 60006 8802/ 90600 333 10181 20153=
07314,1996-10-14 12:00:00,17,1003.7,0.8,88,15,16000,22.224,,57.412,190,,,,0,,,,,,21,wg-a,,,,AAXX 14124 07314 02566 71912 10170 20150 30010 40037 51008 60016 72162 86462 91200 333 60007 91031=
07314,1996-10-14 18:00:00,16,1005,0.9,88,14,18000,22.224,,,240,14.5,17,,,,,,,,15,wg-a,,,,AAXX 14184 07314 32568 62412 10160 20140 30023 40050 53009 71522 84962 91800 333 10170 20145=
07314,1996-10-15 00:00:00,15,1008.6,1.6,82,12,25000,25.928,,,270,,,,,,,,,,,wg-a,,,,AAXX 15004 07314 12575 12714 10150 20120 30059 40086 51016 60006 81100 90000=
07314,1996-10-15 06:00:00,15,1011.2,1.8,77,11,25000,25.928,,,290,14.7,16.3,,,,,,,,,wg-a,,,,AAXX 15064 07314 12575 42914 10150 20110 30085 40112 51018 60006 84200 90600 333 10163 20147=
07314,1996-10-15 12:00:00,17,1013.3,0.3,72,12,25000,22.224,,,240,,,,,,,,,,,wg-a,,,,AAXX 15124 07314 12475 22412 10170 20120 30106 40133 50003 60006 82200 91200=
07314,1996-10-15 18:00:00,15,1015,0.9,63,8,25000,31.484,,,310,13.9,17.5,,,,,,,,2,wg-a,,,,AAXX 15184 07314 32475 53117 10150 20080 30122 40150 53009 70281 85800 91800 333 10175 20139=
07314,1996-10-16 00:00:00,13,1015.4,-0.6,72,8,25000,22.224,,,250,,,,,,,,,,,wg-a,,,,AAXX 16004 07314 12475 32512 10130 20080 30126 40154 58006 60006 83800 90000=
07314,1996-10-16 06:00:00,14,1014,-0.4,72,9,25000,25.928,,,250,13.2,14.7,,0,,,,,,2,wg-a,,,,AAXX 16064 07314 12575 42514 10140 20090 30112 40140 58004 60007 70281 84200 90600 333 10147 20132=
07314,1996-10-16 12:00:00,15,1013.2,-0.6,77,11,0,22.224,,,290,,,,,,,,,,,wg-a,,,,AAXX 16124 07314 12/// /2912 10150 20110 30105 40132 55006 60016 91200=
07314,1996-10-16 18:00:00,15,1011.8,-0.4,77,11,25000,29.632,,,240,12.5,16,,,,,,,,,wg-a,,,,AAXX 16184 07314 32575 52416 10150 20110 30091 40118 56004 84460 91800 333 10160 20125=
07314,1996-10-17 00:00:00,14,1009.4,-1.7,88,12,16000,35.188,,,240,,,,1,,,,,,60,wg-a,,,,AAXX 17004 07314 02466 82419 10140 20120 30067 40094 57017 60026 76062 8377/ 90000 333 60017=
07314,1996-10-17 06:00:00,14,1010.9,0.9,67,8,25000,22.224,,72.228,280,11.6,15.1,,,,,,,,21,wg-a,,,,AAXX 17064 07314 02475 52812 10140 20080 30081 40109 51009 61000 72181 85400 90600 333 10151 20116 //// 91039=
07314,1996-10-17 12:00:00,15,1012.5,0.1,63,8,25000,3.704,,,250,,,,,,,,,,,wg-a,,,,AAXX 17124 07314 12475 32502 10150 20080 30098 40125 50001 60006 83400 91200=
07314,1996-10-17 18:00:00,14,1012.8,0.3,63,7,25000,7.408,,,210,12.6,16.4,,,,,,,,,wg-a,,,,AAXX 17184 07314 12475 32104 10140 20070 30100 40128 53003 60006 83100 91800 333 10164 20126=
07314,1996-10-18 00:00:00,10,1012.8,-0.1,82,7,25000,14.816,,,120,,,,,,,,,,,wg-a,,,,AAXX 18004 07314 12/75 01208 10100 20070 30100 40128 58001 60006 80000 90000=
07314,1996-10-18 06:00:00,13,1011.4,-0.4,94,12,4000,22.224,,,160,8.9,14.1,,,,,,,,50,wg-a,,,,AAXX 18064 07314 02440 81612 10130 20120 30086 40114 58004 61000 75052 885// 90600 333 10141 20089 ////=
07314,1996-10-18 12:00:00,17,1014,1.4,88,15,1400,29.632,,,260,,,,,,,,,,2,wg-a,,,,AAXX 18124 07314 02514 72616 10170 20150 30113 40140 51014 60016 70265 875// 91200 333 61000=
07314,1996-10-18 18:00:00,16,1016.5,1.2,88,14,12000,29.632,,,220,13.3,17.3,,,,,,,,,wg-a,,,,AAXX 18184 07314 32/62 12216 10160 20140 30138 40165 53012 81040 91800 333 10173 20133=
07314,1996-10-19 00:00:00,16,1019.6,1.3,88,14,0,31.484,,,270,,,,,,,,,,,wg-a,,,,AAXX 19004 07314 12/// /2717 10160 20140 30169 40196 53013 60006 90000=
07314,1996-10-19 06:00:00,16,1019.6,1.3,88,14,16000,31.484,,,270,,,,,,,,,,,wg-a,,,,AAXX 19064 07314 12/66 32717 10160 20140 30169 40196 53013 60006 83040 90600=
07314,1996-10-19 12:00:00,17,1027.6,1.7,82,14,14000,11.112,,,280,,,,,,,,,,,wg-a,,,,AAXX 19124 07314 12564 32806 10170 20140 30248 40276 51017 60006 82340 91200=
07314,1996-10-19 18:00:00,16,1028.8,1.1,88,14,8000,11.112,,,230,15.4,17.3,,,,,,,,,wg-a,,,,AAXX 19184 07314 12558 52306 10160 20140 30260 40288 53011 60006 83102 91800 333 10173 20154=
07314,1996-10-20 00:00:00,14,1028.4,-0.6,100,14,0,11.112,,,170,,,,,,,,,,,wg-a,,,,AAXX 20004 07314 12/// /1706 10140 20140 30256 40284 58006 60006 90000=
07314,1996-10-20 06:00:00,14,1028.4,-0.6,100,14,3000,11.112,,,170,,,,,,,,,,10,wg-a,,,,AAXX 20064 07314 12/30 01706 10140 20140 30256 40284 58006 60006 71000 80000 90600=
07314,1996-10-20 12:00:00,17,1026,-1.2,82,14,8000,25.928,,,170,,,,,,,,,,,wg-a,,,,AAXX 20124 07314 12/58 41714 10170 20140 30232 40260 58012 60006 83042 91200=
07314,1996-10-20 18:00:00,16,1025.2,0.3,94,15,6000,22.224,,,200,10.4,17.7,,,,,,,,,wg-a,,,,AAXX 20184 07314 12856 82012 10160 20150 30224 40252 53003 60006 8705/ 91800 333 10177 20104=
07314,1996-10-21 00:00:00,17,1024.9,-0.1,94,16,18000,22.224,,,220,,,,,,,,,,,wg-a,,,,AAXX 21004 07314 12768 82212 10170 20160 30221 40249 58001 60006 8802/ 90000=
07314,1996-10-21 06:00:00,17,1024.3,0.2,94,16,10000,22.224,,,240,16.4,16.9,,,,,,,,,wg-a,,,,AAXX 21064 07314 12860 82412 10170 20160 30216 40243 51002 60006 8807/ 90600 333 10169 20164=
07314,1996-10-21 12:00:00,17,1025.4,-0.2,94,16,500,11.112,,,270,,,,,,,,,,51,wg-a,,,,AAXX 21124 07314 02305 82706 10170 20160 30226 40254 57002 60016 75122 887// 91200 333 61000=
07314,1996-10-21 18:00:00,16,1025.1,0.4,100,16,800,0,,,0,16.2,17,,,,,,,,42,wg-a,,,,AAXX 21184 07314 32308 80000 10160 20160 30223 40251 53004 74254 886// 91800 333 10170 20162=
07314,1996-10-22 00:00:00,15,1024.5,-0.7,100,15,500,3.704,,,70,,,,,,,,,,47,wg-a,,,,AAXX 22004 07314 12/00 90702 10150 20150 30217 40245 58007 60006 74742 89/// 90000=
07314,1996-10-22 06:00:00,15,1023.4,-0,94,14,500,14.816,,,90,14.4,16.3,,,,,,,,45,wg-a,,,,AAXX 22064 07314 32/00 90908 10150 20140 30206 40234 54000 74542 89/// 90600 333 10163 20144=
07314,1996-10-22 12:00:00,16,1022.5,-1.3,94,15,3000,11.112,,,80,,,,,,,,,,28,wg-a,,,,AAXX 22124 07314 12130 70806 10160 20150 30197 40225 58013 60006 72842 876// 91200=
07314,1996-10-22 18:00:00,17,1019.8,-0.4,88,15,20000,11.112,,,70,14,18.4,,,,,,,,,wg-a,,,,AAXX 22184 07314 32/70 00706 10170 20150 30171 40198 55004 80000 91800 333 10184 20140=
07314,1996-10-23 00:00:00,14,1018.2,-1.1,88,12,25000,18.52,,,80,,,,,,,,,,,wg-a,,,,AAXX 23004 07314 12/75 00810 10140 20120 30154 40182 56011 60006 80000 90000=
07314,1996-10-23 06:00:00,13,1017,-0.8,88,11,20000,14.816,,,90,12.5,16.4,,,,,,,,,wg-a,,,,AAXX 23064 07314 12/70 10908 10130 20110 30142 40170 56008 60006 80001 90600 333 10164 20125=
07314,1996-10-23 12:00:00,18,1017.1,-0.9,77,14,25000,11.112,,,70,,,,,,,,,,,wg-a,,,,AAXX 23124 07314 12/75 10706 10180 20140 30144 40171 58009 60006 80001 91200=
07314,1996-10-23 18:00:00,16,1017.5,1.2,94,15,25000,3.704,,,350,12.2,20.2,,,,,,,,,wg-a,,,,AAXX 23184 07314 12875 23502 10160 20150 30148 40175 51012 60006 82032 91800 333 10202 20122=
07314,1996-10-24 00:00:00,14,1018.3,-0.1,100,14,12000,3.704,,,170,,,,,,,,,,,wg-a,,,,AAXX 24004 07314 12/62 61702 10140 20140 30155 40183 55001 60006 84012 90000=
07314,1996-10-24 06:00:00,13,1017.9,0.2,94,12,8000,14.816,,,140,12.7,16.2,,,,,,,,,wg-a,,,,AAXX 24064 07314 12/58 31408 10130 20120 30151 40179 52002 60006 80002 90600 333 10162 20127=
07314,1996-10-24 12:00:00,18,1017.9,-0.5,83,15,3000,14.816,,,200,,,,,,,,,,10,wg-a,,,,AAXX 24124 07314 12/30 52008 10180 20150 30152 40179 58005 60006 71011 80002 91200=
07314,1996-10-24 18:00:00,17,1017,-0.2,82,14,0,14.816,,,120,12.5,18.6,,,,,,,,,wg-a,,,,AAXX 24184 07314 32/// /1208 10170 20140 30143 40170 55002 91800 333 10186 20125=
07314,1996-10-25 00:00:00,16,1018.2,1.8,94,15,16000,7.408,,,170,,,,,,,,,,,wg-a,,,,AAXX 25004 07314 12/66 31704 10160 20150 30154 40182 51018 60006 83030 90000=
07314,1996-10-25 06:00:00,16,1021,2.2,88,14,25000,25.928,,,250,14.9,17.9,,0,,,,,,21,wg-a,,,,AAXX 25064 07314 12575 82514 10160 20140 30182 40210 53022 60007 72161 8357/ 90600 333 10179 20149=
07314,1996-10-25 12:00:00,17,1024,1,82,14,25000,25.928,,,220,,,,,,,,,,1,wg-a,,,,AAXX 25124 07314 12575 32214 10170 20140 30212 40240 51010 60016 70161 83500 91200=
07314,1996-10-25 18:00:00,16,1025.6,1.1,82,13,25000,22.224,,,220,15.3,17.4,,,,,,,,,wg-a,,,,AAXX 25184 07314 32575 52212 10160 20130 30228 40256 53011 84230 91800 333 10174 20153=
07314,1996-10-26 00:00:00,16,1026.6,0.3,77,12,25000,29.632,,,230,,,,,,,,,,,wg-a,,,,AAXX 26004 07314 12575 32316 10160 20120 30238 40266 51003 60006 82201 90000=
07314,1996-10-26 06:00:00,16,1026.5,0.1,82,13,25000,29.632,,,240,15.8,16.2,,,,,,,,,wg-a,,,,AAXX 26064 07314 12575 62416 10160 20130 30237 40265 53001 60006 83231 90600 333 10162 20158=
07314,1996-10-26 12:00:00,16,1027.7,0.1,82,13,25000,11.112,,,230,,,,1,,,,,,15,wg-a,,,,AAXX 26124 07314 02575 72306 10160 20130 30249 40277 50001 60026 71582 8551/ 91200 333 60017=
07314,1996-10-26 18:00:00,16,1027.1,0.2,88,14,25000,18.52,,,230,14.4,16.2,,,,,,,,,wg-a,,,,AAXX 26184 07314 32575 52310 10160 20140 30243 40271 53002 81542 91800 333 10162 20144=
07314,1996-10-27 00:00:00,16,1025.9,-0.3,88,14,25000,14.816,,,190,,,,,,,,,,,wg-a,,,,AAXX 27004 07314 12/75 81908 10160 20140 30231 40259 58003 60006 8801/ 90000=
07314,1996-10-27 06:00:00,14,1023.9,0,94,13,25000,11.112,,,150,13.5,15.8,,,,,,,,,wg-a,,,,AAXX 27064 07314 12675 81506 10140 20130 30211 40239 50000 60006 885// 90600 333 10158 20135=
07314,1996-10-27 12:00:00,17,1022.8,-0.9,88,15,12000,14.816,,,180,,,,,,,,,,,wg-a,,,,AAXX 27124 07314 12862 71808 10170 20150 30201 40228 58009 60006 8707/ 91200=
07314,1996-10-27 18:00:00,16,1020.8,-0.9,82,13,25000,22.224,,,200,13.4,17.3,,,,,,,,,wg-a,,,,AAXX 27184 07314 12575 42012 10160 20130 30180 40208 58009 60006 82202 91800 333 10173 20134=
07314,1996-10-28 00:00:00,15,1019.6,-0.8,88,13,25000,22.224,,,200,,,,,,,,,,,wg-a,,,,AAXX 28004 07314 12575 42012 10150 20130 30168 40196 58008 60006 82201 90000=
07314,1996-10-28 06:00:00,16,1016.1,-1.2,88,14,18000,31.484,,,200,15.1,16.1,,,,,,,,,wg-a,,,,AAXX 28064 07314 12868 82017 10160 20140 30134 40161 56012 60006 8802/ 90600 333 10161 20151=
07314,1996-10-28 12:00:00,17,1015.2,-1.1,94,16,6000,35.188,,,230,,,,1,,,,,,60,wg-a,,,,AAXX 28124 07314 02356 82319 10170 20160 30125 40152 58011 60016 76062 8672/ 91200 333 60017=
07314,1996-10-28 18:00:00,16,1014.9,0.1,94,15,0,31.484,,,230,15.1,17,,,,,,,,,wg-a,,,,AAXX 28184 07314 02/// /2317 10160 20150 30122 40149 53001 61000 91800 333 10170 20151 ////=
07314,1996-10-29 00:00:00,16,1015.3,0.1,72,11,20000,46.3,,100.008,250,,,,,,,,,,,wg-a,,,,AAXX 29004 07314 12570 32525 10160 20110 30126 40153 52001 60006 82240 90000 333 91054=
07314,1996-10-29 06:00:00,15,1017.2,1.4,72,10,0,50.004,,,280,14.2,16.1,,0,,,,,,,wg-a,,,,AAXX 29064 07314 12/// /2827 10150 20100 30144 40172 53014 60007 90600 333 10161 20142=
07314,1996-10-29 12:00:00,15,1021.6,1.7,59,7,20000,38.892,,,310,,,,,,,,,,,wg-a,,,,AAXX 29124 07314 12470 63121 10150 20070 30188 40216 51017 60006 84801 91200=
07314,1996-10-29 18:00:00,14,1024.8,2.3,67,8,25000,29.632,,,340,13.6,15.3,,,,,,,,,wg-a,,,,AAXX 29184 07314 12475 33416 10140 20080 30220 40248 53023 60006 83200 91800 333 10153 20136=
07314,1996-10-30 00:00:00,11,1028.9,1.3,66,5,25000,25.928,,,10,,,,,,,,,,,wg-a,,,,AAXX 30004 07314 12/75 /0114 10110 20050 30261 40289 51013 60006 90000=
07314,1996-10-30 06:00:00,11,1030.2,0.1,66,5,25000,14.816,,,350,10.9,13.6,,,,,,,,,wg-a,,,,AAXX 30064 07314 12875 23508 10110 20050 30274 40302 53001 60006 82030 90600 333 10136 20109=
07314,1996-10-30 12:00:00,13,1031.9,-0.2,58,5,20000,7.408,,,30,,,,,,,,,,,wg-a,,,,AAXX 30124 07314 12570 40304 10130 20050 30291 40319 56002 60006 81130 91200=
07314,1996-10-30 18:00:00,10,1030.6,-0.2,66,4,20000,0,,,0,9.5,14.4,,,,,,,,,wg-a,,,,AAXX 30184 07314 12/70 00000 10100 20040 30278 40306 55002 60006 80000 91800 333 10144 20095=
07314,1996-10-31 00:00:00,8,1029.3,-0.9,87,6,25000,14.816,,,130,,,,,,,,,,,wg-a,,,,AAXX 31004 07314 12/75 01308 10080 20060 30264 40293 57009 60006 80000 90000=
07314,1996-10-31 06:00:00,13,1027.1,-1.2,72,8,25000,22.224,,,190,7.2,13.5,,,,,,,,,wg-a,,,,AAXX 31064 07314 12575 71912 10130 20080 30243 40271 58012 60006 875// 90600 333 10135 20072=
07314,1996-10-31 12:00:00,15,1026.7,-0.6,77,11,25000,31.484,,,220,,,,,,,,,,,wg-a,,,,AAXX 31124 07314 12575 62217 10150 20110 30239 40267 58006 60006 86501 91200=
07314,1996-10-31 18:00:00,16,1025.9,0.2,94,15,15000,29.632,,,240,13.5,16,,,,,,,,16,wg-a,,,,AAXX 31184 07314 32465 82416 10160 20150 30231 40259 53002 71665 885// 91800 333 10160 20135=
07314,1996-11-01 00:00:00,15,1028.1,0.8,94,14,25000,29.632,,,290,,,,,,,,,,,wg-a,,,,AAXX 01004 07314 12575 82916 10150 20140 30253 40281 51008 60006 885// 90000=
07314,1996-11-01 06:00:00,16,1029.9,1.4,88,14,20000,22.224,,,290,15.1,16.4,,,,,,,,,wg-a,,,,AAXX 01064 07314 12570 72912 10160 20140 30271 40299 51014 60006 875// 90600 333 10164 20151=
07314,1996-11-01 12:00:00,16,1032.5,0.4,88,14,0,22.224,,,300,,,,,,,,,,,wg-a,,,,AAXX 01124 07314 12/// /3012 10160 20140 30297 40325 50004 60006 91200=
07314,1996-11-01 18:00:00,15,1032.8,0.7,82,12,25000,11.112,,,300,15,16.5,,,,,,,,,wg-a,,,,AAXX 01184 07314 12575 73006 10150 20120 30300 40328 53007 60006 875// 91800 333 10165 20150=
07314,1996-11-02 00:00:00,14,1033.1,-0.2,94,13,6000,3.704,,,270,,,,,,,,,,50,wg-a,,,,AAXX 02004 07314 02556 82702 10140 20130 30303 40331 57002 61000 75052 885// 90000 333 6100=
07314,1996-11-02 06:00:00,13,1031.7,-0.3,94,12,500,11.112,,,140,12.5,15.1,,,,,,,,20,wg-a,,,,AAXX 02064 07314 02500 81406 10130 20120 30289 40317 56003 61000 72022 885// 90600 333 10151 20125 ////=
07314,1996-11-02 12:00:00,15,1031.7,-0.6,94,14,20000,11.112,,,180,,,,,,,,,,,wg-a,,,,AAXX 02124 07314 12570 71806 10150 20140 30289 40317 58006 60006 875// 91200=
07314,1996-11-02 18:00:00,15,1030.8,0.3,82,12,500,0,,,0,12.9,15.4,,,,,,,,,wg-a,,,,AAXX 02184 07314 12500 70000 10150 20120 30280 40308 53003 60006 875// 91800 333 10154 20129=
07314,1996-11-03 00:00:00,14,1029.4,-1.3,77,10,0,7.408,,,150,,,,,,,,,,,wg-a,,,,AAXX 03004 07314 12/// /1504 10140 20100 30266 40294 58013 60006 90000=
07314,1996-11-03 06:00:00,14,1029.4,-1.3,77,10,500,7.408,,,150,,,,,,,,,,,wg-a,,,,AAXX 03064 07314 12500 71504 10140 20100 30266 40294 58013 60006 875// 90600=
07314,1996-11-03 12:00:00,16,1028.3,0.1,82,13,16000,18.52,,,240,,,,,,,,,,,wg-a,,,,AAXX 03124 07314 12566 72410 10160 20130 30255 40283 50001 60006 878// 91200=
07314,1996-11-05 12:00:00,14,1022.3,2,72,9,20000,25.928,,,320,,,,,,,,,,,wg-a,,,,AAXX 05124 07314 12470 33214 10140 20090 30195 40223 51020 60006 83200 91200=
07314,1996-11-05 18:00:00,14,1024.6,1.2,67,8,25000,22.224,,,260,13.1,14.7,,,,,,,,,wg-a,,,,AAXX 05184 07314 12575 32612 10140 20080 30218 40246 53012 60006 83500 91800 333 10147 20131=
07314,1996-11-06 00:00:00,15,1024.2,-0.9,72,10,25000,31.484,,,240,,,,,,,,,,,wg-a,,,,AAXX 06004 07314 12875 32417 10150 20100 30214 40242 58009 60006 83040 90000=
07314,1996-11-06 06:00:00,16,1022,-0.7,82,13,25000,38.892,,,230,13.7,15.7,,,,,,,,,wg-a,,,,AAXX 06064 07314 12575 82321 10160 20130 30192 40220 57007 60006 8457/ 90600 333 10157 20137=
07314,1996-11-06 12:00:00,16,1021.3,-0.9,94,15,10000,46.3,,,220,,,,,,,,,,,wg-a,,,,AAXX 06124 07314 12460 82225 10160 20150 30185 40213 58009 60006 885// 91200=
07314,1996-11-06 18:00:00,16,1020.4,-0.3,94,15,12000,38.892,,,220,15.4,16.1,,,,,,,,,wg-a,,,,AAXX 06184 07314 12462 82221 10160 20150 30177 40204 58003 60006 885// 91800 333 10161 20154=
07314,1996-11-07 00:00:00,16,1018.7,-1.3,100,16,0,38.892,,,230,,,,,,,,,,,wg-a,,,,AAXX 07004 07314 12/// /2321 10160 20160 30160 40187 58013 60006 90000=
07314,1996-11-07 06:00:00,17,1016.5,-0.4,88,15,16000,46.3,,68.524,230,16.1,16.7,,,,,,,,2,wg-a,,,,AAXX 07064 07314 32466 82325 10170 20150 30138 40165 57004 70262 885// 90600 333 10167 20161 91037=
07314,1996-11-07 12:00:00,15,1021,1.8,82,12,18000,31.484,,68.524,250,,,,,,,,,,25,wg-a,,,,AAXX 07124 07314 12568 72517 10150 20120 30182 40210 51018 60016 72582 878// 91200 333 91037=
07314,1996-11-07 18:00:00,14,1024.5,2,77,10,25000,29.632,,,280,12.8,16.7,,0,,,,,,,wg-a,,,,AAXX 07184 07314 12575 12816 10140 20100 30217 40245 53020 60007 81100 91800 333 10167 20128=
07314,1996-11-08 00:00:00,14,1027.1,1.2,72,9,25000,29.632,,,280,,,,,,,,,,,wg-a,,,,AAXX 08004 07314 12/75 02816 10140 20090 30243 40271 51012 60006 80000 90000=
07314,1996-11-08 06:00:00,13,1028.2,0.6,72,8,25000,18.52,,,280,13,14.5,,,,,,,,,wg-a,,,,AAXX 08064 07314 12475 42810 10130 20080 30254 40282 52006 60006 81241 90600 333 10145 20130=
07314,1996-11-08 12:00:00,15,1030.4,0.4,67,9,25000,14.816,,,250,,,,0,,,,,,2,wg-a,,,,AAXX 08124 07314 02475 42508 10150 20090 30276 40304 50004 60006 70280 83331 91200 333 60007=
07314,1996-11-08 18:00:00,14,1030.6,0.4,67,8,25000,14.816,,,280,12.2,15.3,,,,,,,,3,wg-a,,,,AAXX 08184 07314 32475 52808 10140 20080 30278 40306 53004 70381 83241 91800 333 10153 20122=
07314,1996-11-09 00:00:00,10,1031.9,0.3,87,8,0,7.408,,,160,,,,,,,,,,,wg-a,,,,AAXX 09004 07314 12/// /1604 10100 20080 30291 40319 50003 60006 90000=
07314,1996-11-09 06:00:00,10,1030.8,-0.3,93,9,25000,18.52,,,140,9.4,13.8,,,,,,,,,wg-a,,,,AAXX 09064 07314 12575 41410 10100 20090 30280 40308 57003 60006 82201 90600 333 10138 20094=
07314,1996-11-09 12:00:00,14,1030,-1.2,82,11,20000,22.224,,,170,,,,,,,,,,,wg-a,,,,AAXX 09124 07314 12570 71712 10140 20110 30272 40300 58012 60006 84811 91200=
07314,1996-11-09 18:00:00,12,1026.8,-1.2,88,10,25000,7.408,,,140,9.5,14.7,,,,,,,,,wg-a,,,,AAXX 09184 07314 12575 81404 10120 20100 30240 40268 57012 60006 8687/ 91800 333 10147 20095=
07314,1996-11-10 00:00:00,10,1022.6,-2.8,93,9,0,14.816,,,140,,,,,,,,,,,wg-a,,,,AAXX 10004 07314 12/// /1408 10100 20090 30198 40226 58028 60006 90000=
07314,1996-11-10 06:00:00,10,1022.6,-2.8,93,9,25000,14.816,,,140,,,,,,,,,,,wg-a,,,,AAXX 10064 07314 12675 41408 10100 20090 30198 40226 58028 60006 83570 90600=
07314,1996-11-10 12:00:00,13,1011.3,-3,88,11,20000,38.892,,64.82,200,,,,2,,,,,,21,wg-a,,,,AAXX 10124 07314 02470 72021 10130 20110 30085 40113 58030 60066 72161 8382/ 91200 333 60027 91035=
07314,1996-11-10 18:00:00,12,1007.8,-1.5,76,8,20000,7.408,,,300,11.1,14.1,,,,,,,,2,wg-a,,,,AAXX 10184 07314 32470 83004 10120 20080 30050 40078 56015 70262 888// 91800 333 10141 20111=
07314,1996-11-11 00:00:00,10,1001.2,-4,87,8,15000,11.112,,,30,,,,3,,,,,,63,wg-a,,,,AAXX 11004 07314 02465 80306 10100 20080 39984 40012 56040 60036 76362 888// 90000 333 60037=
07314,1996-11-11 06:00:00,9,993.2,-3,100,9,18000,11.112,,,100,8.9,12.5,,1,,,,,,21,wg-a,,,,AAXX 11064 07314 12468 81006 10090 20090 39905 49932 56030 60017 72162 888// 90600 333 10125 20089=
07314,1996-11-11 12:00:00,10,987.7,-2.8,100,10,18000,22.224,,,120,,,,2,,,,,,2,wg-a,,,,AAXX 11124 07314 02468 71212 10100 20100 39850 49877 58028 60036 70262 878// 91200 333 60027=
07314,1996-11-11 18:00:00,11,989.3,1.3,87,9,25000,7.408,,,110,9.1,14.1,,,,,,,,,wg-a,,,,AAXX 11184 07314 32575 21104 10110 20090 39866 49893 52013 82200 91800 333 10141 20091=
07314,1996-11-12 00:00:00,9,990.8,0.4,100,9,500,18.52,,,140,,,,3,,,,,,25,wg-a,,,,AAXX 12004 07314 02500 21410 10090 20090 39881 49908 51004 60036 72598 82900 90000 333 60037=
07314,1996-11-12 06:00:00,9,992.5,1.4,100,9,25000,11.112,,,140,8.3,11.4,,,,,,,,17,wg-a,,,,AAXX 12064 07314 32475 71406 10090 20090 39898 49925 53014 71762 8496/ 90600 333 10114 20083=
07314,1996-11-12 12:00:00,14,996.1,1.7,82,11,25000,29.632,,,240,,,,,,,,,,15,wg-a,,,,AAXX 12124 07314 12475 62416 10140 20110 39934 49961 51017 60006 71598 85963 91200=
07314,1996-11-12 18:00:00,12,1001,2.6,82,9,25000,11.112,,,20,8.8,14.3,,,,,,,,21,wg-a,,,,AAXX 12184 07314 02475 70206 10120 20090 39983 40010 53026 61000 72165 879// 91800 333 10143 20088 ////=
07314,1996-11-13 00:00:00,11,1005.3,2.1,94,10,20000,29.632,,,20,,,,,,,,,,,wg-a,,,,AAXX 13004 07314 12670 50216 10110 20100 30025 40053 52021 60006 82570 90000=
07314,1996-11-13 06:00:00,11,1009.2,2.1,94,10,8000,35.188,,,10,10.5,12.2,,0,,,,,,21,wg-a,,,,AAXX 13064 07314 12758 80119 10110 20100 30064 40092 53021 60007 72162 8802/ 90600 333 10122 20105=
07314,1996-11-13 12:00:00,11,1014,1.9,87,9,12000,31.484,,,20,,,,1,,,,,,2,wg-a,,,,AAXX 13124 07314 02562 60217 10110 20090 30112 40140 51019 60016 70262 85830 91200 333 60017=
07314,1996-11-13 18:00:00,10,1016.8,2.1,82,7,25000,42.596,,,20,10,11.2,,,,,,,,,wg-a,,,,AAXX 13184 07314 32575 60223 10100 20070 30140 40168 51021 86500 91800 333 10112 20100=
07314,1996-11-14 00:00:00,8,1019.3,1,81,5,500,35.188,,,30,,,,,,,,,,,wg-a,,,,AAXX 14004 07314 12/00 00319 10080 20050 30165 40193 53010 60006 80000 90000=
07314,1996-11-14 06:00:00,7,1020.2,0.3,87,5,20000,25.928,,,20,6.5,10.6,,,,,,,,,wg-a,,,,AAXX 14064 07314 12/70 00214 10070 20050 30174 40202 53003 60006 80000 90600 333 10106 20065=
07314,1996-11-14 12:00:00,8,1021.4,-0.3,81,5,12000,18.52,,,40,,,,,,,,,,,wg-a,,,,AAXX 14124 07314 12462 30410 10080 20050 30186 40214 58003 60006 83500 91200=
07314,1996-11-14 18:00:00,9,1020.9,0.3,66,3,25000,31.484,,,30,6.1,9.7,,,,,,,,,wg-a,,,,AAXX 14184 07314 12575 50317 10090 20030 30181 40209 50003 60006 82202 91800 333 10097 20061=
07314,1996-11-15 00:00:00,7,1021.4,-0.2,70,2,500,31.484,,,30,,,,,,,,,,,wg-a,,,,AAXX 15004 07314 12800 20317 10070 20020 30185 40214 55002 60006 82040 90000=
07314,1996-11-15 06:00:00,6,1019.6,-0.5,81,3,20000,29.632,,,30,5.8,8.8,,,,,,,,,wg-a,,,,AAXX 15064 07314 12/70 10316 10060 20030 30167 40196 55005 60006 81040 90600 333 10088 20058=
07314,1996-11-15 12:00:00,7,1018.4,-1.3,70,2,16000,22.224,,,30,,,,,,,,,,,wg-a,,,,AAXX 15124 07314 12566 40312 10070 20020 30156 40184 58013 60006 81140 91200=
07314,1996-11-15 18:00:00,5,1019.5,1.4,81,2,20000,18.52,,,60,5.3,6.9,,,,,,,,,wg-a,,,,AAXX 15184 07314 12470 80610 10050 20020 30166 40195 51014 60006 885// 91800 333 10069 20053=
07314,1996-11-16 00:00:00,5,1020.6,0.3,87,3,0,25.928,,,40,,,,,,,,,,,wg-a,,,,AAXX 16004 07314 12/// /0414 10050 20030 30177 40206 50003 60006 90000=
07314,1996-11-16 06:00:00,5,1020.6,0.3,87,3,18000,25.928,,,40,,,,,,,,,,,wg-a,,,,AAXX 16064 07314 12468 80414 10050 20030 30177 40206 50003 60006 885// 90600=
07314,1996-11-16 12:00:00,7,1021.7,-0.4,87,5,8000,7.408,,,90,,,,,,,,,,,wg-a,,,,AAXX 16124 07314 12458 80904 10070 20050 30189 40217 58004 60006 885// 91200=
07314,1996-11-16 18:00:00,7,1021.1,-0.3,87,5,10000,18.52,,,10,6,7.2,,,,,,,,,wg-a,,,,AAXX 16184 07314 12560 80110 10070 20050 30182 40211 58003 60006 885// 91800 333 10072 20060=
07314,1996-11-17 00:00:00,6,1019.2,-1.7,93,5,0,14.816,,,350,,,,,,,,,,,wg-a,,,,AAXX 17004 07314 12/// /3508 10060 20050 30164 40192 56017 60006 90000=
07314,1996-11-17 06:00:00,6,1019.2,-1.7,93,5,8000,14.816,,,350,,,,,,,,,,,wg-a,,,,AAXX 17064 07314 12458 83508 10060 20050 30164 40192 56017 60006 885// 90600=
07314,1996-11-17 12:00:00,5,1012.6,-2.5,93,4,3000,18.52,,,350,,,,,,,,,,10,wg-a,,,,AAXX 17124 07314 12330 83510 10050 20040 30098 40126 58025 60006 71022 885// 91200=
07314,1996-11-17 18:00:00,6,1009.7,-1.3,93,5,4000,3.704,,,90,4.1,7.3,,,,,,,,10,wg-a,,,,AAXX 17184 07314 12240 80902 10060 20050 30069 40097 56013 60006 71022 886// 91800 333 10073 20041=
07314,1996-11-18 00:00:00,8,1008.9,0.3,93,7,8000,31.484,,,340,,,,4,,,,,,60,wg-a,,,,AAXX 18004 07314 02458 83417 10080 20070 30061 40089 50003 60066 76062 885// 90000 333 60047=
07314,1996-11-18 06:00:00,8,1011.1,1.4,76,4,20000,42.596,,,330,4.8,8.4,,,,,,,,21,wg-a,,,,AAXX 18064 07314 02870 33323 10080 20040 30083 40111 53014 61000 72162 83070 90600 333 10084 20048 ////=
07314,1996-11-18 12:00:00,10,1013.1,0.5,62,3,25000,38.892,,,330,,,,,,,,,,,wg-a,,,,AAXX 18124 07314 12475 43321 10100 20030 30103 40131 50005 60006 82202 91200=
07314,1996-11-18 18:00:00,9,1013,0.1,71,4,25000,22.224,,,330,8,10.2,,,,,,,,15,wg-a,,,,AAXX 18184 07314 12475 43312 10090 20040 30102 40130 53001 60006 71511 83903 91800 333 10102 20080=
07314,1996-11-19 00:00:00,10,1010.8,-1.9,62,3,25000,22.224,,,230,,,,1,,,,,,2,wg-a,,,,AAXX 19004 07314 02475 62312 10100 20030 30080 40108 58019 60016 70282 86800 90000 333 60017=
07314,1996-11-19 06:00:00,11,997.4,-7.9,94,10,8000,61.116,,,190,5.8,11,,2,,,,,,61,wg-a,,,,AAXX 19064 07314 12458 81933 10110 20100 39947 49974 58079 60027 76162 8677/ 90600 333 10110 20058=
07314,1996-11-19 12:00:00,11,988.7,-3.4,82,8,8000,61.116,,114.824,260,,,,19,,,,,,60,wg-a,,,,AAXX 19124 07314 02458 82633 10110 20080 39860 49887 55034 60296 76062 8477/ 91200 333 60197 91062=
07314,1996-11-19 18:00:00,12,987,-0.2,71,7,12000,68.524,,118.528,250,7.2,12.6,,0,,,,,,25,wg-a,,,,AAXX 19184 07314 12562 62537 10120 20070 39843 49870 58002 60007 72582 86900 91800 333 10126 20072 91064=
07314,1996-11-20 00:00:00,11,988.2,0.6,71,6,20000,61.116,,122.232,250,,,,1,,,,,,27,wg-a,,,,AAXX 20004 07314 02570 52533 10110 20060 39855 49882 51006 60026 72782 85900 90000 333 60017 91066=
07314,1996-11-20 06:00:00,11,992.5,2.7,62,4,20000,61.116,,96.304,280,7.4,12.4,,1,,,,,,25,wg-a,,,,AAXX 20064 07314 12470 52833 10110 20040 39898 49925 53027 60017 72598 84903 90600 333 10124 20074 91052=
07314,1996-11-20 12:00:00,11,1000.3,3,66,5,15000,57.412,,107.416,280,,,,1,,,,,,25,wg-a,,,,AAXX 20124 07314 02465 62831 10110 20050 39975 40003 51030 60016 72582 86300 91200 333 60017 91058=
07314,1996-11-21 00:00:00,10,1009.6,1.5,66,4,500,29.632,,,290,,,,,,,,,,,wg-a,,,,AAXX 21004 07314 12400 52916 10100 20040 30068 40096 51015 60006 83202 90000=
07314,1996-11-21 06:00:00,7,1011.9,1.2,76,3,25000,11.112,,,220,5.5,10.8,,,,,,,,,wg-a,,,,AAXX 21064 07314 12/75 12206 10070 20030 30091 40119 51012 60006 81040 90600 333 10108 20055=
07314,1996-11-21 12:00:00,9,1010.2,-2.2,81,6,8000,11.112,,,230,,,,,,,,,,,wg-a,,,,AAXX 21124 07314 12458 82306 10090 20060 30074 40102 58022 60006 8242/ 91200=
07314,1996-11-21 18:00:00,5,1001.2,-4.9,93,4,8000,35.188,,61.116,70,4.9,9,,7,,,,,,61,wg-a,,,,AAXX 21184 07314 12458 80719 10050 20040 39984 40012 58049 60077 76162 8372/ 91800 333 10090 20049 91033=
07314,1996-11-22 00:00:00,5,1009.1,5.8,87,3,25000,42.596,,94.452,350,,,,0,,,,,,21,wg-a,,,,AAXX 22004 07314 02575 23523 10050 20030 30063 40091 51058 60026 72162 82100 90000 333 60007 91051=
07314,1996-11-22 06:00:00,4,1017.1,2.8,93,3,25000,3.704,,,230,3.8,5.3,,,,,,,,,wg-a,,,,AAXX 22064 07314 32575 42302 10040 20030 30142 40171 51028 84200 90600 333 10053 20038=
07314,1996-11-22 12:00:00,5,1018.2,-0.4,93,4,2500,14.816,,,200,,,,,,,,,,10,wg-a,,,,AAXX 22124 07314 12225 62008 10050 20040 30153 40182 58004 60006 71022 86600 91200=
07314,1996-11-22 18:00:00,4,1014.9,-1,87,2,25000,7.408,,,210,3.6,7.1,,,,,,,,,wg-a,,,,AAXX 22184 07314 12575 62104 10040 20020 30120 40149 58010 60006 81532 91800 333 10071 20036=
07314,1996-11-23 00:00:00,4,1012.9,-1.1,87,2,0,14.816,,,180,,,,,,,,,,,wg-a,,,,AAXX 23004 07314 12/// /1808 10040 20020 30100 40129 58011 60006 90000=
07314,1996-11-23 06:00:00,4,1012.9,-1.1,87,2,25000,14.816,,,180,,,,,,,,,,,wg-a,,,,AAXX 23064 07314 12/75 31808 10040 20020 30100 40129 58011 60006 83010 90600=
07314,1996-11-23 12:00:00,10,1018.3,1.8,71,5,20000,35.188,,,290,,,,1,,,,,,3,wg-a,,,,AAXX 23124 07314 02570 62919 10100 20050 30155 40183 51018 60016 70381 86500 91200 333 60017=
07314,1996-11-23 18:00:00,9,1023.4,3.3,71,4,500,29.632,,,300,8.4,10.7,,,,,,,,,wg-a,,,,AAXX 23184 07314 32400 23016 10090 20040 30206 40234 53033 82200 91800 333 10107 20084=
07314,1996-11-24 00:00:00,9,1026.4,1.2,66,3,500,11.112,,,240,,,,,,,,,,,wg-a,,,,AAXX 24004 07314 12800 32406 10090 20030 30236 40264 52012 60006 81032 90000=
07314,1996-11-24 06:00:00,5,1027.7,0.2,87,3,500,11.112,,,200,4.8,9.1,,,,,,,,,wg-a,,,,AAXX 24064 07314 12600 32006 10050 20030 30248 40277 53002 60006 82542 90600 333 10091 20048=
07314,1996-11-24 12:00:00,10,1025.4,-2.3,71,5,20000,25.928,,,200,,,,,,,,,,,wg-a,,,,AAXX 24124 07314 12670 72014 10100 20050 30226 40254 58023 60006 8251/ 91200=
07314,1996-11-24 18:00:00,12,1019.9,-2.2,67,6,25000,31.484,,,230,4.3,11.6,,,,,,,,,wg-a,,,,AAXX 24184 07314 12675 82317 10120 20060 30171 40199 56022 60006 8457/ 91800 333 10116 20043=
07314,1996-11-25 00:00:00,12,1014.3,-2.1,94,11,7000,38.892,,,250,,,,4,,,,,,63,wg-a,,,,AAXX 25004 07314 02457 82521 10120 20110 30115 40143 58021 60046 76362 885// 90000 333 60047=
07314,1996-11-25 06:00:00,14,1006.9,-2.9,94,13,7000,50.004,,72.228,250,11.5,13.6,,1,,,,,,21,wg-a,,,,AAXX 25064 07314 12457 82527 10140 20130 30042 40069 56029 60017 72165 885// 90600 333 10136 20115 91039=
07314,1996-11-25 12:00:00,13,1007.5,-0.9,94,12,12000,29.632,,79.636,250,,,,0,,,,,,20,wg-a,,,,AAXX 25124 07314 02562 82516 10130 20120 30048 40075 58009 60016 72052 8357/ 91200 333 60007 91043=
07314,1996-11-25 18:00:00,13,1005.8,0.5,82,10,18000,31.484,,,260,11.3,13.8,,,,,,,,2,wg-a,,,,AAXX 25184 07314 32568 62617 10130 20100 30031 40058 53005 70252 84530 91800 333 10138 20113=
07314,1996-11-26 00:00:00,11,1010.5,2.4,87,9,25000,31.484,,64.82,280,,,,,,,,,,,wg-a,,,,AAXX 26004 07314 12575 12817 10110 20090 30077 40105 53024 60016 81500 90000 333 91035=
07314,1996-11-26 06:00:00,11,1014.3,2.3,82,8,0,35.188,,,290,10.8,12.8,,,,,,,,,wg-a,,,,AAXX 26064 07314 32/// /2919 10110 20080 30115 40143 53023 90600 333 10128 20108=
07314,1996-11-26 12:00:00,11,1016.7,0.3,71,6,18000,11.112,,,240,,,,,,,,,,,wg-a,,,,AAXX 26124 07314 12868 72406 10110 20060 30139 40167 50003 60006 84032 91200=
07314,1996-11-26 18:00:00,9,1015.8,-0.5,76,5,25000,3.704,,,220,8.8,11,,,,,,,,,wg-a,,,,AAXX 26184 07314 12675 82202 10090 20050 30130 40158 58005 60006 8457/ 91800 333 10110 20088=
07314,1996-11-27 00:00:00,8,1014.5,-1.1,93,7,20000,11.112,,,200,,,,1,,,,,,50,wg-a,,,,AAXX 27004 07314 02570 82006 10080 20070 30117 40145 58011 60016 75052 885// 90000 333 60017=
07314,1996-11-27 06:00:00,9,1008,-3.8,93,8,4000,18.52,,,210,7.2,8.7,,3,,,,,,53,wg-a,,,,AAXX 27064 07314 12340 82110 10090 20080 30052 40080 56038 60037 75352 887// 90600 333 10087 20072=
07314,1996-11-27 12:00:00,12,1004.3,-1.1,100,12,8000,46.3,,79.636,270,,,,,,,,,,21,wg-a,,,,AAXX 27124 07314 12458 82725 10120 20120 30016 40043 55011 60026 72165 887// 91200 333 91043=
07314,1996-11-27 18:00:00,12,1007.8,1.6,62,5,20000,53.708,,87.044,280,8.5,13.6,,,,,,,,2,wg-a,,,,AAXX 27184 07314 32470 62829 10120 20050 30050 40078 51016 70282 86801 91800 333 10136 20085 91047=
07314,1996-11-28 00:00:00,5,1013.6,7,87,3,20000,50.004,,90.748,340,,,,1,,,,,,2,wg-a,,,,AAXX 28004 07314 02470 83427 10050 20030 30107 40136 53070 60016 70282 888// 90000 333 60017 91049=
07314,1996-11-28 06:00:00,7,1020.9,2.6,81,4,20000,29.632,,,300,4.7,12,,,,,,,,,wg-a,,,,AAXX 28064 07314 32570 83016 10070 20040 30180 40209 51026 885// 90600 333 10120 20047=
07314,1996-11-28 12:00:00,9,1023.8,1.1,76,5,20000,7.408,,,250,,,,,,,,,,,wg-a,,,,AAXX 28124 07314 12470 42504 10090 20050 30210 40238 50011 60006 82232 91200=
07314,1996-11-28 18:00:00,9,1025.1,1.2,71,4,25000,18.52,,,260,6.5,9.2,,,,,,,,,wg-a,,,,AAXX 28184 07314 32475 22610 10090 20040 30223 40251 53012 82200 91800 333 10092 20065=
07314,1996-11-29 00:00:00,7,1025,-0.4,81,4,25000,7.408,,,230,,,,,,,,,,,wg-a,,,,AAXX 29004 07314 12475 52304 10070 20040 30221 40250 58004 60006 83832 90000=
07314,1996-11-29 06:00:00,12,1020.2,-2.5,76,8,25000,35.188,,,250,6.5,12.1,,,,,,,,2,wg-a,,,,AAXX 29064 07314 32575 82519 10120 20080 30174 40202 57025 70262 885// 90600 333 10121 20065=
07314,1996-11-29 12:00:00,13,1018.2,-1,82,10,14000,42.596,,64.82,260,,,,,,,,,,21,wg-a,,,,AAXX 29124 07314 02464 82623 10130 20100 30154 40182 58010 60016 72162 888// 91200 333 61000 91035=
07314,1996-11-29 18:00:00,13,1015.1,-1.3,94,12,12000,46.3,,72.228,250,11.6,13.1,,,,,,,,2,wg-a,,,,AAXX 29184 07314 32462 82525 10130 20120 30123 40151 56013 70262 888// 91800 333 10131 20116 91039=
07314,1996-11-30 00:00:00,13,1013.2,-0.9,94,12,18000,42.596,,68.524,260,,,,1,,,,,,20,wg-a,,,,AAXX 30004 07314 02768 82623 10130 20120 30104 40132 57009 60016 72065 8802/ 90000 333 60017 91037=
07314,1996-11-30 06:00:00,13,1012.2,-0.7,94,12,8000,35.188,,57.412,260,12.5,13.1,,,,,,,,2,wg-a,,,,AAXX 30064 07314 32758 82619 10130 20120 30094 40122 56007 70262 8802/ 90600 333 10131 20125 91031=
07314,1996-11-30 12:00:00,13,1013.9,0.3,94,12,8000,35.188,,64.82,260,,,,,,,,,,,wg-a,,,,AAXX 30124 07314 12558 72619 10130 20120 30111 40139 50003 60006 8547/ 91200 333 91035=
07314,1996-11-30 18:00:00,13,1016.2,2.2,94,12,8000,42.596,,,290,12.7,13.3,,,,,,,,,wg-a,,,,AAXX 30184 07314 32558 62923 10130 20120 30134 40162 53022 85442 91800 333 10133 20127=
07314,1996-12-01 00:00:00,11,1022.1,2,87,9,20000,22.224,,,280,,,,,,,,,,,wg-a,,,,AAXX 01004 07314 12/70 32812 10110 20090 30193 40221 52020 60006 83040 90000=
07314,1996-12-01 06:00:00,11,1024.4,1,82,8,20000,7.408,,,230,10.2,12.8,,,,,,,,,wg-a,,,,AAXX 01064 07314 32/70 52304 10110 20080 30216 40244 53010 85030 90600 333 10128 20102=
07314,1996-12-01 12:00:00,12,1024.4,-0.8,94,11,2500,14.816,,,240,,,,,,,,,,50,wg-a,,,,AAXX 01124 07314 02625 82408 10120 20110 30216 40244 58008 61000 75052 8802/ 91200 333 6100=
07314,1996-12-01 18:00:00,13,1022.8,-0.3,100,13,4000,31.484,,,260,9.7,12.9,,0,,,,,,50,wg-a,,,,AAXX 01184 07314 12540 82617 10130 20130 30200 40228 56003 60007 75052 885// 91800 333 10129 20097=
07314,1996-12-02 00:00:00,12,1024,0.6,88,10,20000,25.928,,,270,,,,,,,,,,20,wg-a,,,,AAXX 02004 07314 02570 42714 10120 20100 30212 40240 53006 61000 72051 82142 90000 333 6100=
07314,1996-12-02 06:00:00,11,1026,1.2,87,9,25000,14.816,,,240,11.2,12.9,,,,,,,,,wg-a,,,,AAXX 02064 07314 32675 52408 10110 20090 30232 40260 51012 8351/ 90600 333 10129 20112=
07314,1996-12-02 12:00:00,12,1027.6,-0.1,67,6,18000,18.52,,,250,,,,,,,,,,,wg-a,,,,AAXX 02124 07314 12568 72510 10120 20060 30248 40276 58001 60006 8453/ 91200=
07314,1996-12-02 18:00:00,11,1025.8,-0.6,82,8,20000,11.112,,,230,10.7,12.1,,,,,,,,,wg-a,,,,AAXX 02184 07314 12570 82306 10110 20080 30230 40258 58006 60006 8557/ 91800 333 10121 20107=
07314,1996-12-03 00:00:00,12,1022.3,-2.5,71,7,20000,18.52,,,250,,,,,,,,,,,wg-a,,,,AAXX 03004 07314 12670 42510 10120 20070 30195 40223 58025 60006 82530 90000=
07314,1996-12-03 06:00:00,12,1016.4,-2.9,76,8,25000,31.484,,,230,11.4,12,,,,,,,,,wg-a,,,,AAXX 03064 07314 12/75 32317 10120 20080 30136 40164 56029 60006 83030 90600 333 10120 20114=
07314,1996-12-03 12:00:00,13,1010.3,-3,82,10,0,42.596,,,220,,,,,,,,,,,wg-a,,,,AAXX 03124 07314 02/// /2223 10130 20100 30075 40103 58030 61000 91200 333 ////=
07314,1996-12-03 18:00:00,12,1003.8,-2.6,100,12,8000,42.596,,,220,11.9,12.7,,0,,,,,,50,wg-a,,,,AAXX 03184 07314 12458 82223 10120 20120 30011 40038 57026 60007 75052 8672/ 91800 333 10127 20119=
07314,1996-12-04 00:00:00,11,1005.2,0.9,94,10,12000,22.224,,,250,,,,3,,,,,,60,wg-a,,,,AAXX 04004 07314 02462 82512 10110 20100 30024 40052 51009 60036 76065 8672/ 90000 333 60037=
07314,1996-12-04 06:00:00,8,1005.5,0.2,93,7,0,7.408,,,230,8.3,12.5,,,,,,,,,wg-a,,,,AAXX 04064 07314 32/// /2304 10080 20070 30027 40055 52002 90600 333 10125 20083=
07314,1996-12-04 12:00:00,9,1007,0.4,100,9,18000,3.704,,,110,,,,1,,,,,,20,wg-a,,,,AAXX 04124 07314 02468 81102 10090 20090 30042 40070 50004 60016 72065 8372/ 91200 333 60017=
07314,1996-12-04 18:00:00,9,1008.3,1.4,87,7,20000,18.52,,,350,8.1,9.3,,,,,,,,2,wg-a,,,,AAXX 04184 07314 32470 83510 10090 20070 30055 40083 52014 70265 8387/ 91800 333 10093 20081=
07314,1996-12-05 00:00:00,9,1010.5,1.2,87,7,20000,18.52,,,20,,,,,,,,,,,wg-a,,,,AAXX 05004 07314 12470 70210 10090 20070 30077 40105 53012 60006 8321/ 90000=
07314,1996-12-05 06:00:00,8,1010.9,-0,87,6,20000,22.224,,,30,7.9,9.3,,,,,,,,,wg-a,,,,AAXX 05064 07314 12/70 80312 10080 20060 30081 40109 55000 60006 8801/ 90600 333 10093 20079=
07314,1996-12-05 12:00:00,9,1012,-0.2,87,7,15000,29.632,,,20,,,,,,,,,,,wg-a,,,,AAXX 05124 07314 12365 40216 10090 20070 30092 40120 58002 60006 84642 91200=
07314,1996-12-05 18:00:00,8,1010.1,-0.5,87,6,20000,42.596,,,10,7.6,9.1,,,,,,,,,wg-a,,,,AAXX 05184 07314 12470 80123 10080 20060 30073 40101 58005 60006 8251/ 91800 333 10091 20076=
07314,1996-12-06 00:00:00,7,1009.8,-1.3,100,7,6000,46.3,,,20,,,,5,,,,,,61,wg-a,,,,AAXX 06004 07314 02756 80225 10070 20070 30070 40098 56013 60066 76162 8802/ 90000 333 60057=
07314,1996-12-06 06:00:00,8,1009.1,-0.1,93,7,8000,31.484,,,30,7,8.2,,1,,,,,,21,wg-a,,,,AAXX 06064 07314 12458 80317 10080 20070 30063 40091 55001 60017 72162 885// 90600 333 10082 20070=
07314,1996-12-06 12:00:00,9,1011.8,0.8,100,9,6000,11.112,,,40,,,,2,,,,,,52,wg-a,,,,AAXX 06124 07314 02356 80406 10090 20090 30090 40118 50008 60026 75265 887// 91200 333 60027=
07314,1996-12-06 18:00:00,9,1015.2,2.4,93,8,18000,7.408,,,60,7.7,10.4,,0,,,,,,1,wg-a,,,,AAXX 06184 07314 12668 30604 10090 20080 30124 40152 53024 60007 70165 83500 91800 333 10104 20077=
07314,1996-12-07 00:00:00,8,1016.9,0.1,93,7,100,22.224,,,330,,,,,,,,,,44,wg-a,,,,AAXX 07004 07314 12201 83312 10080 20070 30141 40169 50001 60006 74441 886// 90000=
07314,1996-12-07 06:00:00,8,1017.6,0.3,93,7,6000,25.928,,,20,7.4,8.7,,0,,,,,,60,wg-a,,,,AAXX 07064 07314 12456 80214 10080 20070 30148 40176 53003 60007 76064 887// 90600 333 10087 20074=
07314,1996-12-07 12:00:00,11,1018.9,0.6,87,9,12000,18.52,,,60,,,,,,,,,,2,wg-a,,,,AAXX 07124 07314 12562 70610 10110 20090 30161 40189 50006 60016 70262 875// 91200=
07314,1996-12-07 18:00:00,10,1021.2,2,93,9,15000,11.112,,,60,7.5,11.4,,,,,,,,,wg-a,,,,AAXX 07184 07314 32665 30606 10100 20090 30184 40212 53020 83500 91800 333 10114 20075=
07314,1996-12-08 00:00:00,10,1022.4,0.3,93,9,0,14.816,,,50,,,,,,,,,,,wg-a,,,,AAXX 08004 07314 12/// /0508 10100 20090 30196 40224 50003 60006 90000=
07314,1996-12-08 06:00:00,8,1021.3,-0.8,87,6,18000,22.224,,,40,8.1,10.3,,,,,,,,,wg-a,,,,AAXX 08064 07314 12/68 00412 10080 20060 30185 40213 56008 60006 80000 90600 333 10103 20081=
07314,1996-12-08 12:00:00,10,1021.5,-0.4,76,6,0,18.52,,,30,,,,,,,,,,,wg-a,,,,AAXX 08124 07314 12/// /0310 10100 20060 30187 40215 58004 60006 91200=
07314,1996-12-08 18:00:00,8,1020.2,0.2,81,5,18000,25.928,,,60,7.9,11.3,,,,,,,,,wg-a,,,,AAXX 08184 07314 12/68 10614 10080 20050 30174 40202 53002 60006 80002 91800 333 10113 20079=
07314,1996-12-09 00:00:00,3,1020.7,-0.2,93,2,3000,18.52,,,70,,,,,,,,,,10,wg-a,,,,AAXX 09004 07314 12330 80710 10030 20020 30178 40207 58002 60006 71011 886// 90000=
07314,1996-12-09 06:00:00,2,1019.5,-0.8,100,2,3000,22.224,,,30,1.9,8.2,,,,,,,,10,wg-a,,,,AAXX 09064 07314 12330 80312 10020 20020 30166 40195 56008 60006 71011 886// 90600 333 10082 20019=
07314,1996-12-09 12:00:00,2,1018.6,-1.2,100,2,4000,18.52,,,30,,,,,,,,,,10,wg-a,,,,AAXX 09124 07314 12340 70310 10020 20020 30157 40186 58012 60006 71022 876// 91200=
07314,1996-12-09 18:00:00,2,1017.4,0.3,93,1,8000,18.52,,,60,1.6,2.8,,,,,,,,,wg-a,,,,AAXX 09184 07314 12358 80610 10020 20010 30145 40174 53003 60006 886// 91800 333 10028 20016=
07314,1996-12-10 00:00:00,2,1015.9,-1,93,1,15000,14.816,,,50,,,,,,,,,,,wg-a,,,,AAXX 10004 07314 12565 80508 10020 20010 30130 40159 56010 60006 885// 90000=
07314,1996-12-10 06:00:00,2,1013.7,-1.1,100,2,6000,14.816,,,40,1.2,2.5,,,,,,,,,wg-a,,,,AAXX 10064 07314 12456 80408 10020 20020 30108 40137 56011 60006 885// 90600 333 10025 20012=
07314,1996-12-10 12:00:00,4,1013.9,-0.3,93,3,9000,11.112,,,130,,,,,,,,,,,wg-a,,,,AAXX 10124 07314 12459 81306 10040 20030 30110 40139 58003 60006 885// 91200=
07314,1996-12-10 18:00:00,7,1013.4,0.8,93,6,7000,18.52,,,80,2.3,7.2,,,,,,,,,wg-a,,,,AAXX 10184 07314 12457 30810 10070 20060 30106 40134 51008 60006 83500 91800 333 10072 20023=
07314,1996-12-11 00:00:00,5,1013.4,-0.4,100,5,0,18.52,,,70,,,,,,,,,,,wg-a,,,,AAXX 11004 07314 12/// /0710 10050 20050 30106 40134 58004 60006 90000=
07314,1996-12-11 06:00:00,4,1012.2,-0.8,93,3,16000,25.928,,,80,3.6,7.6,,,,,,,,,wg-a,,,,AAXX 11064 07314 32/66 00814 10040 20030 30093 40122 55008 80000 90600 333 10076 20036=
07314,1996-12-11 12:00:00,6,1010.9,-1.7,93,5,8000,22.224,,,70,,,,,,,,,,,wg-a,,,,AAXX 11124 07314 12258 30712 10060 20050 30081 40109 58017 60006 83600 91200=
07314,1996-12-11 18:00:00,6,1008.7,-1.6,93,5,12000,25.928,,,80,3.1,7.3,,,,,,,,,wg-a,,,,AAXX 11184 07314 12/62 60814 10060 20050 30059 40087 56016 60006 80005 91800 333 10073 20031=
07314,1996-12-12 00:00:00,7,1007.7,-0.9,93,6,18000,14.816,,,100,,,,,,,,,,,wg-a,,,,AAXX 12004 07314 12568 41008 10070 20060 30049 40077 56009 60006 82532 90000=
07314,1996-12-12 06:00:00,9,1007.1,0.1,93,8,12000,18.52,,,140,5.1,8.9,,1,,,,,,63,wg-a,,,,AAXX 12064 07314 12562 81410 10090 20080 30043 40071 53001 60017 76362 885// 90600 333 10089 20051=
07314,1996-12-12 12:00:00,12,1006.1,-1.1,88,10,15000,31.484,,,170,,,,1,,,,,,21,wg-a,,,,AAXX 12124 07314 02565 61717 10120 20100 30033 40061 58011 60016 72162 84502 91200 333 60017=
07314,1996-12-12 18:00:00,10,1005.5,-0.1,93,9,20000,7.408,,,170,8.5,12.3,,,,,,,,,wg-a,,,,AAXX 12184 07314 32570 31704 10100 20090 30027 40055 58001 82502 91800 333 10123 20085=
07314,1996-12-13 00:00:00,10,1003.6,-1.6,93,9,10000,11.112,,,90,,,,,,,,,,,wg-a,,,,AAXX 13004 07314 12560 70906 10100 20090 30008 40036 57016 60006 8451/ 90000=
07314,1996-12-13 06:00:00,9,1000.6,-1.7,100,9,6000,7.408,,,110,8.7,10.2,,,,,,,,,wg-a,,,,AAXX 13064 07314 12/56 21104 10090 20090 39978 40006 57017 60006 82040 90600 333 10102 20087=
07314,1996-12-13 12:00:00,10,1000.2,-0.4,100,10,2500,11.112,,,50,,,,,,,,,,10,wg-a,,,,AAXX 13124 07314 12/25 60506 10100 20100 39974 40002 58004 60006 71022 85042 91200=
07314,1996-12-13 18:00:00,10,998.8,0.1,100,10,16000,25.928,,,30,9,10.7,,0,,,,,,,wg-a,,,,AAXX 13184 07314 12566 70314 10100 20100 39961 49988 53001 60007 875// 91800 333 10107 20090=
07314,1996-12-14 00:00:00,9,1000.6,1.2,93,8,0,31.484,,,30,,,,,,,,,,,wg-a,,,,AAXX 14004 07314 12/// /0317 10090 20080 39978 40006 53012 60006 90000=
07314,1996-12-14 12:00:00,5,1009.3,2.1,87,3,6000,35.188,,,20,,,,,,,,,,,wg-a,,,,AAXX 14124 07314 12556 40219 10050 20030 30065 40093 51021 60006 84500 91200=
07314,1996-12-14 18:00:00,5,1013.8,2.4,75,1,20000,29.632,,,20,4.2,6.1,,,,,,,,,wg-a,,,,AAXX 14184 07314 12/70 00216 10050 20010 30109 40138 51024 60006 80000 91800 333 10061 20042=
07314,1996-12-15 00:00:00,3,1016.7,1,70,-2,0,25.928,,,30,,,,,,,,,,,wg-a,,,,AAXX 15004 07314 12/// /0314 10030 21020 30138 40167 51010 60006 90000=
07314,1996-12-15 06:00:00,3,1017.7,0.4,75,-1,25000,14.816,,,60,2.6,4.9,,,,,,,,,wg-a,,,,AAXX 15064 07314 12/75 00608 10030 21010 30148 40177 51004 60006 80000 90600 333 10049 20026=
07314,1996-12-15 12:00:00,5,1018.1,-0.7,75,1,16000,14.816,,,60,,,,,,,,,,,wg-a,,,,AAXX 15124 07314 12/66 00608 10050 20010 30152 40181 58007 60006 80000 91200=
07314,1996-12-15 18:00:00,4,1017.6,0.3,70,-1,20000,11.112,,,100,2.3,5.5,,,,,,,,,wg-a,,,,AAXX 15184 07314 12/70 01006 10040 21010 30147 40176 53003 60006 80000 91800 333 10055 20023=
07314,1996-12-16 00:00:00,2,1015.9,-1.4,87,0,0,11.112,,,100,,,,,,,,,,,wg-a,,,,AAXX 16004 07314 12/// /1006 10020 20000 30130 40159 58014 60006 90000=
07314,1996-12-16 06:00:00,3,1014.6,-0.9,93,2,18000,14.816,,,130,0.7,4.2,,,,,,,,,wg-a,,,,AAXX 16064 07314 12868 81308 10030 20020 30117 40146 55009 60006 8802/ 90600 333 10042 20007=
07314,1996-12-16 12:00:00,4,1013.4,-1.1,93,3,8000,18.52,,,130,,,,,,,,,,,wg-a,,,,AAXX 16124 07314 12558 81310 10040 20030 30105 40134 58011 60006 885// 91200=
07314,1996-12-16 18:00:00,5,1011.4,-0.5,93,4,0,14.816,,,130,2.8,5.5,,,,,,,,,wg-a,,,,AAXX 16184 07314 12/// /1308 10050 20040 30086 40114 58005 60006 91800 333 10055 20028=
07314,1996-12-17 00:00:00,8,1011.1,-0.6,87,6,0,25.928,,,160,,,,,,,,,,,wg-a,,,,AAXX 17004 07314 12/// /1614 10080 20060 30083 40111 58006 60006 90000=
07314,1996-12-17 06:00:00,8,1011,-0.2,93,7,16000,25.928,,,160,4.7,8.9,,0,,,,,,,wg-a,,,,AAXX 17064 07314 12/66 21614 10080 20070 30082 40110 57002 60007 82040 90600 333 10089 20047=
07314,1996-12-17 12:00:00,12,1011.8,-0.3,76,8,12000,22.224,,,160,,,,,,,,,,,wg-a,,,,AAXX 17124 07314 12562 51612 10120 20080 30090 40118 58003 60016 83432 91200=
07314,1996-12-17 18:00:00,10,1009.5,-0.2,87,8,18000,22.224,,,120,8.2,14.5,,,,,,,,,wg-a,,,,AAXX 17184 07314 32/68 01212 10100 20080 30067 40095 58002 80000 91800 333 10145 20082=
07314,1996-12-18 00:00:00,10,1007.8,-1.5,87,8,0,22.224,,,140,,,,,,,,,,,wg-a,,,,AAXX 18004 07314 12/// /1412 10100 20080 30050 40078 57015 60006 90000=
07314,1996-12-18 06:00:00,9,1004.7,-1.6,93,8,20000,25.928,,,130,8.8,10.4,,,,,,,,,wg-a,,,,AAXX 18064 07314 12/70 31314 10090 20080 30019 40047 56016 60006 82032 90600 333 10104 20088=
07314,1996-12-18 12:00:00,13,1002.6,-1.6,82,10,18000,29.632,,,150,,,,0,,,,,,60,wg-a,,,,AAXX 18124 07314 02568 81516 10130 20100 39999 40026 58016 60006 76022 8655/ 91200 333 60007=
07314,1996-12-18 18:00:00,12,1002.6,1.7,94,11,8000,18.52,,,240,9.4,13.9,,0,,,,,,20,wg-a,,,,AAXX 18184 07314 12558 82410 10120 20110 39999 40026 51017 60007 72065 885// 91800 333 10139 20094=
07314,1996-12-19 00:00:00,12,1002.6,-0.5,94,11,0,11.112,,,160,,,,,,,,,,,wg-a,,,,AAXX 19004 07314 12/// /1606 10120 20110 39999 40026 56005 60006 90000=
07314,1996-12-19 06:00:00,10,1000.1,-1.8,93,9,500,11.112,,,110,9.3,12,,0,,,,,,45,wg-a,,,,AAXX 19064 07314 12/00 91106 10100 20090 39973 40001 58018 60007 74542 89/// 90600 333 10120 20093=
07314,1996-12-19 12:00:00,13,999,-1.2,100,13,3000,25.928,,,170,,,,,,,,,,10,wg-a,,,,AAXX 19124 07314 12230 71714 10130 20130 39963 49990 58012 60006 71042 8463/ 91200=
07314,1996-12-19 18:00:00,12,999.6,0.8,94,11,20000,18.52,,,230,9.5,13.3,,,,,,,,,wg-a,,,,AAXX 19184 07314 12570 32310 10120 20110 39969 49996 51008 60006 82960 91800 333 10133 20095=
07314,1996-12-20 00:00:00,11,999.8,-0.3,94,10,0,14.816,,,220,,,,,,,,,,,wg-a,,,,AAXX 20004 07314 12/// /2208 10110 20100 39971 49998 58003 60006 90000=
07314,1996-12-20 06:00:00,6,998.6,-0.6,100,6,500,14.816,,,130,6.2,11.8,,,,,,,,47,wg-a,,,,AAXX 20064 07314 12/00 91308 10060 20060 39958 49986 55006 60006 74742 89/// 90600 333 10118 20062=
07314,1996-12-20 12:00:00,9,999.5,-0.2,100,9,16000,18.52,,,140,,,,,,,,,,2,wg-a,,,,AAXX 20124 07314 12466 61410 10090 20090 39967 49995 58002 60006 70242 84542 91200=
07314,1996-12-20 18:00:00,10,999,-0.2,93,9,20000,18.52,,,100,6.3,10.4,,,,,,,,,wg-a,,,,AAXX 20184 07314 32/70 31010 10100 20090 39962 49990 56002 83040 91800 333 10104 20063=
07314,1996-12-21 06:00:00,9,997.4,-0.2,87,7,18000,25.928,,,80,8.4,9.6,,,,,,,,21,wg-a,,,,AAXX 21064 07314 32868 80814 10090 20070 39946 49974 56002 72122 8802/ 90600 333 10096 20084=
07314,1996-12-21 12:00:00,9,998.5,0.5,87,7,14000,25.928,,,80,,,,,,,,,,60,wg-a,,,,AAXX 21124 07314 02564 80814 10090 20070 39957 49985 51005 60006 76065 8352/ 91200 333 61000=
07314,1996-12-21 18:00:00,9,999.5,1.7,93,8,4000,25.928,,,80,8.6,9.3,,0,,,,,,10,wg-a,,,,AAXX 21184 07314 12/40 40814 10090 20080 39967 49995 53017 60007 71062 84030 91800 333 10093 20086=
07314,1996-12-22 00:00:00,8,1001,0.5,100,8,0,18.52,,,80,,,,,,,,,,,wg-a,,,,AAXX 22004 07314 12/// /0810 10080 20080 39982 40010 50005 60006 90000=
07314,1996-12-22 06:00:00,9,1000.5,-0.3,93,8,8000,18.52,,,70,7.8,8.7,,,,,,,,60,wg-a,,,,AAXX 22064 07314 02858 80710 10090 20080 39977 40005 55003 61000 76062 8807/ 90600 333 10087 20078 ////=
07314,1996-12-22 12:00:00,10,1000.5,-0.7,93,9,3000,14.816,,,90,,,,0,,,,,,60,wg-a,,,,AAXX 22124 07314 02830 80908 10100 20090 39977 40005 58007 60006 76062 8807/ 91200 333 60007=
07314,1996-12-22 18:00:00,10,999.2,0.3,100,10,20000,11.112,,,100,8.5,11.2,,,,,,,,1,wg-a,,,,AAXX 22184 07314 32/70 21006 10100 20100 39964 49992 53003 70161 80002 91800 333 10112 20085=
07314,1996-12-23 00:00:00,9,998.3,-0.6,100,9,0,18.52,,,150,,,,,,,,,,,wg-a,,,,AAXX 23004 07314 12/// /1510 10090 20090 39955 49983 56006 60006 90000=
07314,1996-12-23 06:00:00,8,997.3,-0.5,100,8,4000,11.112,,,130,8.1,10.1,,,,,,,,10,wg-a,,,,AAXX 23064 07314 32/40 01306 10080 20080 39945 49973 56005 71000 80000 90600 333 10101 20081=
07314,1996-12-23 12:00:00,10,997,-0.5,93,9,3500,11.112,,,80,,,,0,,,,,,10,wg-a,,,,AAXX 23124 07314 02/35 60806 10100 20090 39942 49970 58005 60006 71042 86040 91200 333 60007=
07314,1996-12-23 18:00:00,10,996.5,0.3,100,10,3500,14.816,,,60,6.5,10.7,,0,,,,,,10,wg-a,,,,AAXX 23184 07314 12/35 50608 10100 20100 39938 49965 52003 60007 71042 85040 91800 333 10107 20065=
07314,1996-12-24 00:00:00,8,996,-0.4,100,8,0,25.928,,,50,,,,,,,,,,,wg-a,,,,AAXX 24004 07314 12/// /0514 10080 20080 39932 49960 58004 60006 90000=
07314,1996-12-24 06:00:00,4,995.2,-0.4,100,4,2000,31.484,,,40,3.6,10.1,,,,,,,,50,wg-a,,,,AAXX 24064 07314 02220 80417 10040 20040 39924 49952 57004 61000 75054 886// 90600 333 10101 20036 ////=
07314,1996-12-24 12:00:00,4,996.3,0.3,100,4,8000,29.632,,,40,,,,,,,,,,2,wg-a,,,,AAXX 24124 07314 02458 80416 10040 20040 39935 49963 51003 61000 70252 885// 91200 333 6100=
07314,1996-12-24 18:00:00,4,999.6,2.6,100,4,3000,25.928,,,30,3.3,5,,0,,,,,,10,wg-a,,,,AAXX 24184 07314 12430 80314 10040 20040 39968 49996 51026 60007 71022 885// 91800 333 10050 20033=
07314,1996-12-25 00:00:00,4,1004.9,2.6,93,3,0,18.52,,,330,,,,,,,,,,,wg-a,,,,AAXX 25004 07314 12/// /3310 10040 20030 30021 40049 51026 60006 90000=
07314,1996-12-25 06:00:00,3,1008.9,1.7,93,2,12000,29.632,,,340,2.7,4.2,,0,,,,,,,wg-a,,,,AAXX 25064 07314 12562 83416 10030 20020 30060 40089 51017 60007 885// 90600 333 10042 20027=
07314,1996-12-25 12:00:00,2,1014.3,2.4,93,1,3500,29.632,,,10,,,,,,,,,,26,wg-a,,,,AAXX 25124 07314 02535 80116 10020 20010 30114 40143 51024 61000 72672 888// 91200 333 6100=
07314,1996-12-25 18:00:00,1,1020.9,4.3,86,-1,8000,31.484,,,20,0.7,3,,,,,,,,,wg-a,,,,AAXX 25184 07314 32558 20217 10010 21010 30180 40209 51043 82100 91800 333 10030 20007=
07314,1996-12-26 00:00:00,0,1026.1,2.2,64,-6,0,31.484,,,30,,,,,,,,,,,wg-a,,,,AAXX 26004 07314 12/// /0317 10000 21060 30232 40261 51022 60006 90000=
07314,1996-12-26 06:00:00,-1,1030.4,1.7,69,-6,25000,31.484,,,40,-1.1,1,,,,,,,,,wg-a,,,,AAXX 26064 07314 32/75 00417 11010 21060 30274 40304 53017 80000 90600 333 10010 21011=
07314,1996-12-26 12:00:00,0,1034,0.9,80,-3,18000,25.928,,,30,,,,,,,,,,,wg-a,,,,AAXX 26124 07314 12/68 00314 10000 21030 30310 40340 51009 60006 80000 91200=
07314,1996-12-26 18:00:00,0,1035.2,1.4,69,-5,25000,29.632,,50.004,50,-1.6,1.5,,,,,,,,,wg-a,,,,AAXX 26184 07314 32/75 00516 10000 21050 30322 40352 51014 80000 91800 333 10015 21016 91027=
07314,1996-12-27 00:00:00,-2,1033.5,-1.4,80,-5,0,22.224,,,70,,,,,,,,,,,wg-a,,,,AAXX 27004 07314 12/// /0712 11020 21050 30305 40335 58014 60006 90000=
07314,1996-12-27 06:00:00,-2,1029.5,-2.9,80,-5,25000,14.816,,,90,-2.4,-0.2,,,,,,,,,wg-a,,,,AAXX 27064 07314 12/75 10908 11020 21050 30265 40295 58029 60006 81030 90600 333 11002 21024=
07314,1996-12-27 12:00:00,0,1026.1,-1.9,74,-4,18000,11.112,,,80,,,,,,,,,,,wg-a,,,,AAXX 27124 07314 12/68 20806 10000 21040 30232 40261 58019 60006 81041 91200=
07314,1996-12-27 18:00:00,2,1022.2,-1.4,69,-3,18000,25.928,,,30,-2.6,2,,,,,,,,,wg-a,,,,AAXX 27184 07314 12/68 20314 10020 21030 30193 40222 56014 60006 80002 91800 333 10020 21026=
07314,1996-12-28 00:00:00,-1,1020.5,-1,69,-6,20000,29.632,,,40,,,,,,,,,,,wg-a,,,,AAXX 28004 07314 12/70 00416 11010 21060 30176 40205 56010 60006 80000 90000=
07314,1996-12-28 06:00:00,1,1018.1,-1,75,-3,20000,11.112,,,360,-1.3,1.7,,,,,,,,,wg-a,,,,AAXX 28064 07314 12/70 33606 10010 21030 30152 40181 58010 60006 80002 90600 333 10017 21013=
07314,1996-12-28 12:00:00,0,1017.7,-0.6,80,-3,9000,31.484,,,40,,,,0,,,,,,1,wg-a,,,,AAXX 28124 07314 02559 40417 10000 21030 30148 40177 58006 60006 70161 82510 91200 333 60007=
07314,1996-12-28 18:00:00,-2,1016.4,-0,69,-7,20000,38.892,,53.708,40,-1.9,2.3,,,,,,,,,wg-a,,,,AAXX 28184 07314 32570 20421 11020 21070 30135 40164 55000 82500 91800 333 10023 21019 91029=
07314,1996-12-29 00:00:00,-6,1016.2,-0.8,73,-10,0,35.188,,,50,,,,,,,,,,,wg-a,,,,AAXX 29004 07314 12/// /0519 11060 21100 30132 40162 56008 60006 90000=
07314,1996-12-29 06:00:00,-7,1014.8,-0.3,79,-10,20000,31.484,,64.82,60,-6.9,-1.8,,,,,,,,,wg-a,,,,AAXX 29064 07314 12570 70617 11070 21100 30118 40148 55003 60006 872// 90600 333 11018 21069 91035=
07314,1996-12-29 12:00:00,-4,1014.3,-0.3,74,-8,12000,29.632,,64.82,50,,,,,,,,,,,wg-a,,,,AAXX 29124 07314 12462 40516 11040 21080 30114 40143 58003 60006 84200 91200 333 91035=
07314,1996-12-29 18:00:00,-3,1014.4,0.2,74,-7,20000,25.928,,,60,-7.1,-2.2,,,,,,,,,wg-a,,,,AAXX 29184 07314 12/70 00614 11030 21070 30115 40144 50002 60006 80000 91800 333 11022 21071=
07314,1996-12-30 00:00:00,-4,1012.7,-0.7,86,-6,0,35.188,,,50,,,,,,,,,,,wg-a,,,,AAXX 30004 07314 12/// /0519 11040 21060 30098 40127 58007 60006 90000=
07314,1996-12-30 06:00:00,-3,1010.3,-1.6,80,-6,20000,14.816,,,50,-4.5,-2.6,,,,,,,,,wg-a,,,,AAXX 30064 07314 12870 10508 11030 21060 30074 40103 58016 60006 81040 90600 333 11026 21045=
07314,1996-12-30 12:00:00,2,1008.5,-1,87,0,15000,18.52,,,350,,,,,,,,,,,wg-a,,,,AAXX 30124 07314 12565 83510 10020 20000 30056 40085 58010 60006 885// 91200=
07314,1996-12-30 18:00:00,2,1008.4,0.7,80,-1,20000,18.52,,,30,-2.7,2.2,,,,,,,,,wg-a,,,,AAXX 30184 07314 12670 40310 10020 21010 30055 40084 53007 60006 84500 91800 333 10022 21027=
07314,1996-12-31 00:00:00,-1,1009,0.8,74,-5,0,18.52,,,70,,,,,,,,,,,wg-a,,,,AAXX 31004 07314 12/// /0710 11010 21050 30061 40090 53008 60006 90000=
07314,1996-12-31 06:00:00,-1,1009,-0.2,74,-5,20000,11.112,,,80,-3.9,2.1,,,,,,,,,wg-a,,,,AAXX 31064 07314 12/70 00806 11010 21050 30061 40090 57002 60006 80000 90600 333 10021 21039=
07314,1996-12-31 12:00:00,0,1009.3,-0.3,74,-4,20000,25.928,,,50,,,,,,,,,,,wg-a,,,,AAXX 31124 07314 12870 10514 10000 21040 30064 40093 58003 60006 81030 91200=
07314,1996-12-31 18:00:00,-1,1009.6,0.6,80,-4,20000,35.188,,,50,-1.8,0.7,,,,,,,,,wg-a,,,,AAXX 31184 07314 12470 50519 11010 21040 30067 40096 51006 60006 83232 91800 333 10007 21018=
