station_id,dh_utc,temperature,pression,pression_variation_3h,humidite,point_de_rosee,visibilite,vent_moyen,vent_rafales,vent_rafales_10min,vent_direction,temperature_min,temperature_max,pluie_1h,pluie_3h,pluie_6h,pluie_12h,pluie_24h,ensoleillement,temperature_sol,temps_omm,source,radiations,neige_au_sol,nebulosite,raw_msg
07314,1998-01-01 00:00:00,10,1015,1.4,82,7,0,14.816,,,230,,,,,,,,,,,wg-a,,,,AAXX 01004 07314 12/// /2308 10100 20070 30122 40150 51014 60006 90000=
07314,1998-01-01 06:00:00,9,1016.6,0.7,71,4,20000,3.704,,,250,7.6,10.9,,,,,,,,,wg-a,,,,AAXX 01064 07314 12/70 02502 10090 20040 30138 40166 53007 60006 80000 90600 333 10109 20076=
07314,1998-01-01 12:00:00,11,1017.1,-0.8,71,6,20000,25.928,,,210,,,,,,,,,,,wg-a,,,,AAXX 01124 07314 12570 52114 10110 20060 30143 40171 58008 60006 84202 91200=
07314,1998-01-01 18:00:00,12,1012.3,-1.9,76,8,20000,46.3,,,200,6.1,11.6,,,,,,,,,wg-a,,,,AAXX 01184 07314 32570 82025 10120 20080 30095 40123 56019 8227/ 91800 333 10116 20061=
07314,1998-01-02 06:00:00,14,999.3,-6.4,82,11,9000,61.116,,90.748,210,10.8,13.5,,0,,,,,,2,wg-a,,,,AAXX 02064 07314 12859 82133 10140 20110 39966 49993 58064 60007 70282 8802/ 90600 333 10135 20108 91049=
07314,1998-01-02 12:00:00,13,1002,3.3,62,6,6000,53.708,,103.712,280,,,,1,,,,,,25,wg-a,,,,AAXX 02124 07314 02556 52829 10130 20060 39993 40020 51033 60086 72598 84902 91200 333 60017 91056=
07314,1998-01-02 18:00:00,12,1010.5,4.1,71,7,10000,38.892,,87.044,270,7.7,13.7,,,,,,,,2,wg-a,,,,AAXX 02184 07314 32560 82721 10120 20070 30077 40105 51041 70282 83908 91800 333 10137 20077 91047=
07314,1998-01-03 00:00:00,12,1011.7,-0.7,88,10,0,22.224,,,220,,,,,,,,,,,wg-a,,,,AAXX 03004 07314 12/// /2212 10120 20100 30089 40117 58007 60016 90000=
07314,1998-01-03 06:00:00,13,1009,-1.6,94,12,500,38.892,,,220,11.7,13.1,,1,,,,,,25,wg-a,,,,AAXX 03064 07314 12500 82221 10130 20120 30063 40090 55016 60017 72582 888// 90600 333 10131 20117=
07314,1998-01-03 12:00:00,13,1008.3,-0.3,94,12,0,50.004,,,230,,,,1,,,,,,,wg-a,,,,AAXX 03124 07314 02/// /2327 10130 20120 30056 40083 58003 60016 91200 333 60017=
07314,1998-01-04 00:00:00,12,1018.3,0.7,71,7,0,25.928,,,240,,,,,,,,,,,wg-a,,,,AAXX 04004 07314 12/// /2414 10120 20070 30155 40183 50007 60006 90000=
07314,1998-01-04 12:00:00,13,1009,-0.7,77,9,500,50.004,,94.452,250,,,,3,,,,,,25,wg-a,,,,AAXX 04124 07314 02500 82527 10130 20090 30062 40090 55007 60046 72581 885// 91200 333 60037 91051=
07314,1998-01-04 18:00:00,12,1012.4,2.5,67,6,8000,50.004,,90.748,250,9.9,13.6,,,,,,,,,wg-a,,,,AAXX 04184 07314 32558 42527 10120 20060 30096 40124 51025 84200 91800 333 10136 20099 91049=
07314,1998-01-05 00:00:00,12,1016.8,2,67,6,0,35.188,,,250,,,,,,,,,,,wg-a,,,,AAXX 05004 07314 12/// /2519 10120 20060 30140 40168 51020 60006 90000=
07314,1998-01-05 06:00:00,12,1013.9,-2.2,76,8,13000,42.596,,,210,10.2,12.3,,,,,,,,,wg-a,,,,AAXX 05064 07314 12563 82123 10120 20080 30111 40139 56022 60006 888// 90600 333 10123 20102=
07314,1998-01-05 12:00:00,13,1011.3,-1.9,77,9,500,61.116,,87.044,220,,,,0,,,,,,81,wg-a,,,,AAXX 05124 07314 02500 72233 10130 20090 30085 40113 58019 60016 78182 878// 91200 333 60007 91047=
07314,1998-01-06 00:00:00,11,1017.5,1.9,87,9,0,18.52,,,260,,,,,,,,,,,wg-a,,,,AAXX 06004 07314 12/// /2610 10110 20090 30147 40175 50019 60016 90000=
07314,1998-01-06 06:00:00,12,1016.9,-0.2,94,11,6000,38.892,,61.116,220,10.4,12.5,,0,,,,,,2,wg-a,,,,AAXX 06064 07314 12556 32221 10120 20110 30141 40169 55002 60007 70282 82230 90600 333 10125 20104 91033=
07314,1998-01-06 12:00:00,13,1018.6,0.5,88,11,8000,38.892,,,220,,,,,,,,,,2,wg-a,,,,AAXX 06124 07314 12558 82221 10130 20110 30158 40186 50005 60006 70282 885// 91200=
07314,1998-01-06 18:00:00,13,1018.7,0.2,88,11,0,29.632,,,200,12.1,13.3,,,,,,,,,wg-a,,,,AAXX 06184 07314 32/// /2016 10130 20110 30159 40187 51002 91800 333 10133 20121=
07314,1998-01-07 06:00:00,13,1017.7,0.3,82,10,0,35.188,,,220,11.4,13.5,,3,,,,,,,wg-a,,,,AAXX 07064 07314 12/// /2219 10130 20100 30149 40177 53003 60037 90600 333 10135 20114=
07314,1998-01-07 12:00:00,13,1021.2,1.8,82,10,11000,29.632,,,230,,,,,,,,,,1,wg-a,,,,AAXX 07124 07314 12561 22316 10130 20100 30184 40212 51018 60016 70181 81230 91200=
07314,1998-01-07 18:00:00,12,1023.1,1.3,88,10,10000,25.928,,,210,11.7,13.3,,,,,,,,,wg-a,,,,AAXX 07184 07314 32/60 62114 10120 20100 30203 40231 51013 81032 91800 333 10133 20117=
07314,1998-01-08 00:00:00,12,1025.3,1.1,88,10,0,29.632,,,200,,,,,,,,,,,wg-a,,,,AAXX 08004 07314 12/// /2016 10120 20100 30225 40253 53011 60006 90000=
07314,1998-01-08 06:00:00,12,1026,-0.1,88,10,15000,18.52,,,180,11.3,12.3,,,,,,,,,wg-a,,,,AAXX 08064 07314 12/65 21810 10120 20100 30232 40260 56001 60006 80002 90600 333 10123 20113=
07314,1998-01-08 18:00:00,12,1027.7,1,88,10,500,25.928,,,170,11.4,12.5,,,,,,,,,wg-a,,,,AAXX 08184 07314 12/00 61714 10120 20100 30249 40277 53010 60006 85032 91800 333 10125 20114=
07314,1998-01-09 00:00:00,9,1029.1,0.5,87,7,0,11.112,,,150,,,,,,,,,,,wg-a,,,,AAXX 09004 07314 12/// /1506 10090 20070 30262 40291 51005 60006 90000=
07314,1998-01-09 12:00:00,13,1027.1,-0.5,72,8,10000,22.224,,,150,,,,,,,,,,,wg-a,,,,AAXX 09124 07314 12/60 21512 10130 20080 30243 40271 58005 60006 80001 91200=
07314,1998-01-09 18:00:00,11,1025.1,-0.1,76,7,15000,18.52,,,130,6.6,14.6,,,,,,,,,wg-a,,,,AAXX 09184 07314 12/65 51310 10110 20070 30223 40251 55001 60006 80002 91800 333 10146 20066=
07314,1998-01-10 00:00:00,8,1024.7,-0.3,93,7,0,11.112,,,140,,,,,,,,,,,wg-a,,,,AAXX 10004 07314 12/// /1406 10080 20070 30219 40247 57003 60006 90000=
07314,1998-01-10 06:00:00,8,1023.8,-0.6,93,7,0,18.52,,,140,7.7,10.6,,,,,,,,,wg-a,,,,AAXX 10064 07314 12/// /1410 10080 20070 30210 40238 58006 60006 90600 333 10106 20077=
07314,1998-01-10 12:00:00,14,1022.9,-1.4,72,9,12000,18.52,,,140,,,,,,,,,,,wg-a,,,,AAXX 10124 07314 12/62 61410 10140 20090 30201 40229 58014 60006 80002 91200=
07314,1998-01-10 18:00:00,11,1019.7,-1,82,8,18000,11.112,,,130,7.6,15.1,,,,,,,,,wg-a,,,,AAXX 10184 07314 12/68 31306 10110 20080 30169 40197 56010 60006 81032 91800 333 10151 20076=
07314,1998-01-11 00:00:00,9,1018.3,-0.5,87,7,0,18.52,,,150,,,,,,,,,,,wg-a,,,,AAXX 11004 07314 12/// /1510 10090 20070 30155 40183 58005 60006 90000=
07314,1998-01-11 06:00:00,9,1017.9,-0,87,7,20000,18.52,,,150,8.4,10.6,,,,,,,,,wg-a,,,,AAXX 11064 07314 12/70 51510 10090 20070 30151 40179 55000 60006 81032 90600 333 10106 20084=
07314,1998-01-11 12:00:00,13,1017.5,-0.6,72,8,20000,29.632,,50.004,150,,,,,,,,,,,wg-a,,,,AAXX 11124 07314 12/70 71516 10130 20080 30147 40175 58006 60006 84048 91200 333 91027=
07314,1998-01-11 18:00:00,11,1017.3,0.2,87,9,20000,14.816,,,140,9.1,14.3,,,,,,,,,wg-a,,,,AAXX 11184 07314 12/70 61408 10110 20090 30145 40173 53002 60006 82038 91800 333 10143 20091=
07314,1998-01-12 00:00:00,11,1017.3,-0.3,87,9,0,22.224,,,130,,,,,,,,,,,wg-a,,,,AAXX 12004 07314 12/// /1312 10110 20090 30145 40173 58003 60006 90000=
07314,1998-01-12 06:00:00,11,1015.5,-1.2,87,9,25000,25.928,,,130,10.9,11.6,,,,,,,,,wg-a,,,,AAXX 12064 07314 12/75 81314 10110 20090 30127 40155 57012 60006 88010 90600 333 10116 20109=
07314,1998-01-12 12:00:00,15,1014.2,-1.2,67,9,18000,29.632,,,150,,,,,,,,,,,wg-a,,,,AAXX 12124 07314 12/68 41516 10150 20090 30115 40142 58012 60006 83032 91200=
07314,1998-01-12 18:00:00,13,1009.9,-2,77,9,18000,25.928,,50.004,130,11.3,15.9,,,,,,,,,wg-a,,,,AAXX 12184 07314 12/68 31314 10130 20090 30071 40099 58020 60006 82044 91800 333 10159 20113 91027=
07314,1998-01-13 00:00:00,13,1003.2,-2.8,77,9,20000,38.892,,72.228,140,,,,0,,,,,,21,wg-a,,,,AAXX 13004 07314 02870 81421 10130 20090 30005 40032 56028 60006 72162 8802/ 90000 333 60007 91039=
07314,1998-01-13 12:00:00,13,1002,0.6,72,8,17000,75.932,,103.712,200,,,,,,,,,,,wg-a,,,,AAXX 13124 07314 12567 32041 10130 20080 39993 40020 50006 60006 82240 91200 333 91056=
07314,1998-01-14 00:00:00,11,1009.1,2.5,82,8,15000,46.3,,,260,,,,1,,,,,,2,wg-a,,,,AAXX 14004 07314 02565 72625 10110 20080 30063 40091 53025 60026 70282 873// 90000 333 60017=
07314,1998-01-14 12:00:00,12,1020.7,2.5,71,7,18000,18.52,,61.116,280,,,,,,,,,,15,wg-a,,,,AAXX 14124 07314 12568 52810 10120 20070 30179 40207 51025 60016 71582 85090 91200 333 91033=
07314,1998-01-14 18:00:00,11,1023.6,1.3,71,6,20000,18.52,,,260,8.8,12.2,,,,,,,,,wg-a,,,,AAXX 14184 07314 32570 62610 10110 20060 30208 40236 53013 82142 91800 333 10122 20088=
07314,1998-01-15 00:00:00,12,1023.7,-0.3,82,9,20000,25.928,,,220,,,,,,,,,,,wg-a,,,,AAXX 15004 07314 12/70 82214 10120 20090 30209 40237 57003 60016 8801/ 90000=
07314,1998-01-15 06:00:00,12,1021.6,-1.1,94,11,10000,35.188,,,230,10.4,12.1,,2,,,,,,62,wg-a,,,,AAXX 15064 07314 12560 82319 10120 20110 30188 40216 56011 60027 76262 8802/ 90600 333 10121 20104=
07314,1998-01-15 12:00:00,12,1021.2,-0.4,94,11,8000,46.3,,,220,,,,2,,,,,,62,wg-a,,,,AAXX 15124 07314 02558 82225 10120 20110 30184 40212 58004 60036 76266 885// 91200 333 60027=
07314,1998-01-15 18:00:00,12,1017.9,-1.5,94,11,3000,50.004,,68.524,220,11.7,12.7,,5,,,,,,63,wg-a,,,,AAXX 15184 07314 12530 82227 10120 20110 30151 40179 58015 60057 76366 8802/ 91800 333 10127 20117 91037=
07314,1998-01-16 00:00:00,11,1016.7,-1.8,100,11,18000,18.52,,,200,,,,2,,,,,,20,wg-a,,,,AAXX 16004 07314 02568 82010 10110 20110 30139 40167 58018 60056 72065 885// 90000 333 60027=
07314,1998-01-16 06:00:00,12,1013.2,-1.7,82,9,20000,42.596,,75.932,250,10.1,12.6,,2,,,,,,25,wg-a,,,,AAXX 16064 07314 12570 52523 10120 20090 30104 40132 56017 60027 72581 84960 90600 333 10126 20101 91041=
07314,1998-01-16 12:00:00,11,1019.6,3.7,76,7,16000,46.3,,90.748,300,,,,1,,,,,,25,wg-a,,,,AAXX 16124 07314 02566 53025 10110 20070 30168 40196 53037 60046 72582 85960 91200 333 60017 91049=
07314,1998-01-17 00:00:00,10,1030.2,1.7,82,7,25000,22.224,,61.116,320,,,,,,,,,,,wg-a,,,,AAXX 17004 07314 12575 13212 10100 20070 30274 40302 51017 60006 81100 90000 333 91033=
07314,1998-01-17 06:00:00,8,1030.9,0.1,81,5,25000,3.704,,,20,8.3,11.2,,,,,,,,,wg-a,,,,AAXX 17064 07314 12/75 00202 10080 20050 30280 40309 52001 60006 80000 90600 333 10112 20083=
07314,1998-01-17 12:00:00,10,1029.7,-1.4,76,6,18000,22.224,,,170,,,,,,,,,,,wg-a,,,,AAXX 17124 07314 12/68 21712 10100 20060 30269 40297 58014 60006 80004 91200=
07314,1998-01-18 00:00:00,7,1019.7,-3,93,6,0,25.928,,,150,,,,,,,,,,,wg-a,,,,AAXX 18004 07314 12/// /1514 10070 20060 30169 40197 58030 60006 90000=
07314,1998-01-18 06:00:00,12,1012.8,-3.1,94,11,500,46.3,,68.524,200,5.6,11.8,,3,,,,,,63,wg-a,,,,AAXX 18064 07314 12400 82025 10120 20110 30100 40128 56031 60037 76362 8677/ 90600 333 10118 20056 91037=
07314,1998-01-18 12:00:00,12,1011.4,1,82,9,16000,42.596,,79.636,240,,,,0,,,,,,60,wg-a,,,,AAXX 18124 07314 02466 82423 10120 20090 30086 40114 50010 60066 76062 8677/ 91200 333 60007 91043=
07314,1998-01-18 18:00:00,12,1009.4,-2,88,10,8000,42.596,,79.636,230,10.8,13.1,,1,,,,,,60,wg-a,,,,AAXX 18184 07314 12458 82323 10120 20100 30066 40094 58020 60017 76062 8677/ 91800 333 10131 20108 91043=
07314,1998-01-19 00:00:00,10,1005.1,-0.1,93,9,8000,50.004,,107.416,310,,,,3,,,,,,60,wg-a,,,,AAXX 19004 07314 02458 83127 10100 20090 30023 40051 55001 60066 76062 8677/ 90000 333 60037 91058=
07314,1998-01-19 06:00:00,10,1006.7,0.3,87,8,8000,14.816,,,280,9.3,13.1,,5,,,,,,63,wg-a,,,,AAXX 19064 07314 12458 82808 10100 20080 30039 40067 52003 60057 76366 8172/ 90600 333 10131 20093=
07314,1998-01-19 18:00:00,11,1015.3,1.5,82,8,20000,25.928,,,290,8.4,11.6,,,,,,,,,wg-a,,,,AAXX 19184 07314 32470 62914 10110 20080 30125 40153 53015 84342 91800 333 10116 20084=
07314,1998-01-20 00:00:00,10,1018.8,2.6,76,6,20000,42.596,,,350,,,,0,,,,,,2,wg-a,,,,AAXX 20004 07314 02570 53523 10100 20060 30160 40188 53026 60016 70281 81202 90000 333 60007=
07314,1998-01-20 06:00:00,5,1027,3.4,65,-1,500,35.188,,90.748,360,4.5,11.7,,,,,,,,,wg-a,,,,AAXX 20064 07314 32/00 03619 10050 21010 30241 40270 51034 80000 90600 333 10117 20045 91049=
07314,1998-01-20 12:00:00,7,1032.1,1.8,66,1,20000,22.224,,,340,,,,,,,,,,,wg-a,,,,AAXX 20124 07314 12570 13412 10070 20010 30292 40321 51018 60006 81100 91200=
07314,1998-01-21 00:00:00,6,1035.4,0.3,61,-1,25000,22.224,,,10,,,,,,,,,,,wg-a,,,,AAXX 21004 07314 12/75 00112 10060 21010 30325 40354 53003 60006 80000 90000=
07314,1998-01-21 06:00:00,4,1035.5,-0,81,1,25000,7.408,,,60,3.8,6.3,,,,,,,,,wg-a,,,,AAXX 21064 07314 12/75 00604 10040 20010 30326 40355 55000 60006 80000 90600 333 10063 20038=
07314,1998-01-21 12:00:00,6,1036.2,0.1,75,2,20000,7.408,,,80,,,,,,,,,,,wg-a,,,,AAXX 21124 07314 12/70 10804 10060 20020 30333 40362 50001 60006 80001 91200=
07314,1998-01-22 00:00:00,3,1033,-0.9,75,-1,0,18.52,,,60,,,,,,,,,,,wg-a,,,,AAXX 22004 07314 12/// /0610 10030 21010 30301 40330 58009 60006 90000=
07314,1998-01-22 06:00:00,1,1030.8,-0.9,80,-2,20000,14.816,,,60,1,6.2,,,,,,,,,wg-a,,,,AAXX 22064 07314 12570 10608 10010 21020 30279 40308 56009 60006 81100 90600 333 10062 20010=
07314,1998-01-22 18:00:00,3,1024.8,-1,70,-2,20000,31.484,,,50,0.8,4.2,,,,,,,,,wg-a,,,,AAXX 22184 07314 12/70 00517 10030 21020 30219 40248 56010 60006 80000 91800 333 10042 20008=
07314,1998-01-23 06:00:00,1,1020.9,-1.2,80,-2,20000,31.484,,53.708,50,0.6,3.2,,,,,,,,,wg-a,,,,AAXX 23064 07314 12/70 00517 10010 21020 30180 40209 56012 60006 80000 90600 333 10032 20006 91029=
07314,1998-01-23 12:00:00,3,1019.9,-0.8,75,-1,17000,22.224,,57.412,70,,,,,,,,,,,wg-a,,,,AAXX 23124 07314 12567 40712 10030 21010 30170 40199 58008 60006 84200 91200 333 91031=
07314,1998-01-23 18:00:00,5,1019.5,0.5,75,1,15000,29.632,,,60,0.1,5.6,,,,,,,,,wg-a,,,,AAXX 23184 07314 12/65 00616 10050 20010 30166 40195 53005 60006 80000 91800 333 10056 20001=
07314,1998-01-24 00:00:00,3,1021.9,1,81,0,20000,25.928,,57.412,60,,,,,,,,,,,wg-a,,,,AAXX 24004 07314 12/70 00614 10030 20000 30190 40219 53010 60006 80000 90000 333 91031=
07314,1998-01-24 06:00:00,2,1022.6,0.3,80,-1,18000,31.484,,,50,1.9,4.5,,,,,,,,,wg-a,,,,AAXX 24064 07314 12/68 00517 10020 21010 30197 40226 53003 60006 80000 90600 333 10045 20019=
07314,1998-01-24 12:00:00,3,1024.1,-0,87,1,10000,38.892,,,40,,,,,,,,,,,wg-a,,,,AAXX 24124 07314 12560 80421 10030 20010 30212 40241 55000 60006 885// 91200=
07314,1998-01-24 18:00:00,3,1023.7,-0,81,0,0,42.596,,,40,1.8,3.8,,,,,,,,,wg-a,,,,AAXX 24184 07314 12/// /0423 10030 20000 30208 40237 55000 60006 91800 333 10038 20018=
07314,1998-01-25 00:00:00,4,1023.8,0,65,-2,0,46.3,,,40,,,,,,,,,,,wg-a,,,,AAXX 25004 07314 12/// /0425 10040 21020 30209 40238 50000 60006 90000=
07314,1998-01-25 06:00:00,3,1022.8,-0.6,75,-1,20000,42.596,,,20,2.6,4.4,,,,,,,,,wg-a,,,,AAXX 25064 07314 12570 70223 10030 21010 30199 40228 55006 60006 8453/ 90600 333 10044 20026=
07314,1998-01-25 12:00:00,4,1022.8,-0.6,70,-1,20000,35.188,,,30,,,,,,,,,,,wg-a,,,,AAXX 25124 07314 12570 60319 10040 21010 30199 40228 58006 60006 85230 91200=
07314,1998-01-25 18:00:00,2,1021.9,0.2,87,0,12000,31.484,,,40,2.3,4.2,,,,,,,,27,wg-a,,,,AAXX 25184 07314 02562 80417 10020 20000 30190 40219 53002 61000 72782 8723/ 91800 333 10042 20023 ////=
07314,1998-01-26 00:00:00,3,1023.6,0.6,81,0,15000,22.224,,57.412,70,,,,,,,,,,1,wg-a,,,,AAXX 26004 07314 12565 10712 10030 20000 30207 40236 53006 60006 70181 81200 90000 333 91031=
07314,1998-01-26 06:00:00,1,1024.7,0.7,86,-1,12000,18.52,,,70,1.1,2.6,,,,,,,,,wg-a,,,,AAXX 26064 07314 12562 10710 10010 21010 30218 40247 53007 60006 81101 90600 333 10026 20011=
07314,1998-01-26 12:00:00,4,1024.9,-0.2,81,1,8000,18.52,,,60,,,,,,,,,,,wg-a,,,,AAXX 26124 07314 12558 20610 10040 20010 30220 40249 58002 60006 81130 91200=
07314,1998-01-26 18:00:00,4,1022.7,-0.6,81,1,8000,38.892,,,40,1,5.4,,,,,,,,,wg-a,,,,AAXX 26184 07314 12/58 10421 10040 20010 30198 40227 55006 60006 80001 91800 333 10054 20010=
07314,1998-01-27 00:00:00,1,1021.6,-0.4,80,-2,12000,25.928,,64.82,60,,,,,,,,,,,wg-a,,,,AAXX 27004 07314 12/62 00614 10010 21020 30187 40216 58004 60006 80000 90000 333 91035=
07314,1998-01-27 06:00:00,1,1018.5,-1.3,80,-2,12000,25.928,,,70,0.5,4,,,,,,,,,wg-a,,,,AAXX 27064 07314 12/62 00714 10010 21020 30156 40185 56013 60006 80000 90600 333 10040 20005=
07314,1998-01-27 12:00:00,4,1017.3,-1.1,75,0,10000,22.224,,,60,,,,,,,,,,,wg-a,,,,AAXX 27124 07314 12/60 10612 10040 20000 30144 40173 58011 60006 80001 91200=
07314,1998-01-27 18:00:00,4,1015.8,-0.1,75,0,8000,18.52,,,60,0.2,5.1,,,,,,,,,wg-a,,,,AAXX 27184 07314 12/58 10610 10040 20000 30129 40158 55001 60006 81030 91800 333 10051 20002=
07314,1998-01-28 00:00:00,2,1015.6,0,87,0,10000,22.224,,,70,,,,,,,,,,,wg-a,,,,AAXX 28004 07314 12/60 00712 10020 20000 30127 40156 50000 60006 80000 90000=
07314,1998-01-28 06:00:00,3,1014.4,-0.7,93,2,3000,18.52,,,80,1.9,3.6,,,,,,,,10,wg-a,,,,AAXX 28064 07314 12830 80810 10030 20020 30115 40144 58007 60006 71022 8801/ 90600 333 10036 20019=
07314,1998-01-28 12:00:00,4,1015.6,-0.1,93,3,2500,18.52,,,60,,,,,,,,,,10,wg-a,,,,AAXX 28124 07314 12225 60610 10040 20030 30127 40156 58001 60006 71022 86600 91200=
07314,1998-01-28 18:00:00,3,1014.7,0.8,93,2,3000,25.928,,,60,1.9,6.8,,,,,,,,10,wg-a,,,,AAXX 28184 07314 12230 40614 10030 20020 30118 40147 53008 60006 71011 83601 91800 333 10068 20019=
07314,1998-01-29 00:00:00,1,1015.4,0.5,100,1,3000,25.928,,,70,,,,,,,,,,10,wg-a,,,,AAXX 29004 07314 12230 80714 10010 20010 30125 40154 52005 60006 71022 886// 90000=
07314,1998-01-29 06:00:00,1,1015.5,0.2,100,1,2000,22.224,,,70,1.1,3.3,,,,,,,,10,wg-a,,,,AAXX 29064 07314 12120 80712 10010 20010 30126 40155 51002 60006 71022 886// 90600 333 10033 20011=
07314,1998-01-29 12:00:00,2,1017.5,0.6,100,2,1500,25.928,,,70,,,,,,,,,,28,wg-a,,,,AAXX 29124 07314 12215 80714 10020 20020 30146 40175 51006 60006 72842 886// 91200=
07314,1998-01-29 18:00:00,3,1017.2,0.6,87,1,3000,22.224,,,60,1.1,3.8,,,,,,,,,wg-a,,,,AAXX 29184 07314 12530 70612 10030 20010 30143 40172 53006 60006 875// 91800 333 10038 20011=
07314,1998-01-30 00:00:00,1,1017.3,0.1,86,-1,500,25.928,,,80,,,,,,,,,,,wg-a,,,,AAXX 30004 07314 12500 10814 10010 21010 30144 40173 52001 60006 811// 90000=
07314,1998-01-30 06:00:00,1,1016.3,-1,93,0,6000,22.224,,,80,0.6,2.9,,,,,,,,,wg-a,,,,AAXX 30064 07314 12/56 00812 10010 20000 30134 40163 58010 60006 80000 90600 333 10029 20006=
07314,1998-01-31 06:00:00,1,1011.8,-0.8,93,0,500,25.928,,,60,0.4,2.5,,,,,,,,45,wg-a,,,,AAXX 31064 07314 32/05 90614 10010 20000 30089 40118 56008 74542 89/// 90600 333 10025 20004=
07314,1998-01-31 12:00:00,1,1012,-0.5,93,0,800,31.484,,,50,,,,,,,,,,45,wg-a,,,,AAXX 31124 07314 12/08 90517 10010 20000 30091 40120 58005 60006 74542 89/// 91200=
07314,1998-01-31 18:00:00,1,1011.8,0.6,93,0,2000,25.928,,,60,0.2,1.6,,,,,,,,10,wg-a,,,,AAXX 31184 07314 12220 70614 10010 20000 30089 40118 53006 60006 71042 876// 91800 333 10016 20002=
07314,1998-02-01 00:00:00,1,1011.6,-0.4,93,0,0,25.928,,,70,,,,,,,,,,,wg-a,,,,AAXX 01004 07314 12/// /0714 10010 20000 30087 40116 58004 60006 90000=
07314,1998-02-01 06:00:00,1,1011.1,-0.2,93,0,4000,25.928,,,60,0.6,2,,,,,,,,10,wg-a,,,,AAXX 01064 07314 12/40 00614 10010 20000 30082 40111 55002 60006 71000 80000 90600 333 10020 20006=
07314,1998-02-01 12:00:00,4,1012.5,0.3,81,1,3500,22.224,,,60,,,,,,,,,,10,wg-a,,,,AAXX 01124 07314 12/35 00612 10040 20010 30096 40125 50003 60006 71000 80000 91200=
07314,1998-02-01 18:00:00,5,1011.8,-0.1,81,2,3500,31.484,,,50,1.1,5.7,,,,,,,,10,wg-a,,,,AAXX 01184 07314 12/35 00517 10050 20020 30090 40118 55001 60006 71000 80000 91800 333 10057 20011=
07314,1998-02-02 00:00:00,1,1012,-0.5,86,-1,8000,35.188,,,50,,,,,,,,,,,wg-a,,,,AAXX 02004 07314 12/58 00519 10010 21010 30091 40120 58005 60006 80000 90000=
07314,1998-02-02 06:00:00,0,1009.8,-1,93,-1,500,22.224,,,60,-0.5,4.4,,,,,,,,,wg-a,,,,AAXX 02064 07314 12100 80612 10000 21010 30069 40098 58010 60006 886// 90600 333 10044 21005=
07314,1998-02-02 12:00:00,0,1009.9,-0.4,93,-1,900,22.224,,,60,,,,,,,,,,47,wg-a,,,,AAXX 02124 07314 12/09 90612 10000 21010 30070 40099 58004 60006 74722 89/// 91200=
07314,1998-02-02 18:00:00,1,1009.6,0.9,80,-2,0,42.596,,,50,-0.6,2.2,,,,,,,,,wg-a,,,,AAXX 02184 07314 12/// /0523 10010 21020 30067 40096 53009 60006 91800 333 10022 21006=
07314,1998-02-03 00:00:00,0,1009.6,-0.1,80,-3,10000,38.892,,64.82,50,,,,,,,,,,,wg-a,,,,AAXX 03004 07314 12/60 10521 10000 21030 30067 40096 58001 60006 80001 90000 333 91035=
07314,1998-02-03 06:00:00,0,1008.5,-0.4,59,-7,16000,42.596,,,40,-0.8,1,,,,,,,,,wg-a,,,,AAXX 03064 07314 12/66 00423 10000 21070 30056 40085 55004 60006 80000 90600 333 10010 21008=
07314,1998-02-03 12:00:00,4,1008.4,-0.3,41,-8,16000,42.596,,,40,,,,,,,,,,,wg-a,,,,AAXX 03124 07314 12/66 20423 10040 21080 30056 40084 55003 60006 80002 91200=
07314,1998-02-03 18:00:00,4,1009,1.9,65,-2,18000,38.892,,,40,0.1,6.1,,,,,,,,,wg-a,,,,AAXX 03184 07314 12/68 10421 10040 21020 30062 40090 53019 60006 81040 91800 333 10061 20001=
07314,1998-02-04 00:00:00,2,1010.1,0.3,80,-1,15000,35.188,,,40,,,,,,,,,,,wg-a,,,,AAXX 04004 07314 12/65 00419 10020 21010 30072 40101 53003 60006 80000 90000=
07314,1998-02-04 06:00:00,1,1010.9,0.9,80,-2,10000,31.484,,57.412,30,0.7,4.2,,,,,,,,,wg-a,,,,AAXX 04064 07314 12/60 00317 10010 21020 30080 40109 51009 60006 80000 90600 333 10042 20007 91031=
07314,1998-02-04 12:00:00,4,1013.8,0.7,65,-2,12000,29.632,,,30,,,,,,,,,,,wg-a,,,,AAXX 04124 07314 12/62 00316 10040 21020 30109 40138 51007 60006 80000 91200=
07314,1998-02-04 18:00:00,5,1016.7,2.2,60,-2,15000,31.484,,,20,0.2,5.9,,,,,,,,,wg-a,,,,AAXX 04184 07314 12/65 00217 10050 21020 30138 40167 53022 60006 80000 91800 333 10059 20002=
07314,1998-02-05 00:00:00,3,1020.3,0.8,75,-1,0,25.928,,,20,,,,,,,,,,,wg-a,,,,AAXX 05004 07314 12/// /0214 10030 21010 30174 40203 51008 60006 90000=
07314,1998-02-05 06:00:00,2,1021.2,0.5,87,0,8000,25.928,,,20,2.2,4.9,,,,,,,,,wg-a,,,,AAXX 05064 07314 12/58 00214 10020 20000 30183 40212 53005 60006 80000 90600 333 10049 20022=
07314,1998-02-05 18:00:00,6,1022.5,0.9,87,4,10000,25.928,,,40,2.2,7.8,,,,,,,,,wg-a,,,,AAXX 05184 07314 12/60 00414 10060 20040 30196 40225 52009 60006 80000 91800 333 10078 20022=
07314,1998-02-06 00:00:00,4,1023.3,0.3,87,2,8000,25.928,,,50,,,,,,,,,,,wg-a,,,,AAXX 06004 07314 12/58 00514 10040 20020 30204 40233 52003 60006 80000 90000=
07314,1998-02-06 06:00:00,3,1022.8,-0.2,87,1,7000,18.52,,,60,2.6,6.4,,,,,,,,,wg-a,,,,AAXX 06064 07314 12/57 00610 10030 20010 30199 40228 55002 60006 80000 90600 333 10064 20026=
07314,1998-02-06 12:00:00,5,1023.6,0,75,1,500,11.112,,,80,,,,,,,,,,,wg-a,,,,AAXX 06124 07314 12/00 00806 10050 20010 30207 40236 50000 60006 80000 91200=
07314,1998-02-06 18:00:00,4,1022.7,-0,70,-1,500,3.704,,,150,1.8,6.9,,,,,,,,,wg-a,,,,AAXX 06184 07314 12/00 11502 10040 21010 30198 40227 55000 60006 80002 91800 333 10069 20018=
07314,1998-02-07 00:00:00,5,1023.6,0.6,87,3,4000,18.52,,,170,,,,,,,,,,,wg-a,,,,AAXX 07004 07314 12/40 01710 10050 20030 30207 40236 50006 60006 80000 90000=
07314,1998-02-07 06:00:00,9,1023.5,-0,87,7,15000,14.816,,,210,2.2,8.9,,,,,,,,,wg-a,,,,AAXX 07064 07314 12565 72108 10090 20070 30207 40235 55000 60006 876// 90600 333 10089 20022=
07314,1998-02-07 12:00:00,10,1026.8,1.5,87,8,18000,22.224,,,230,,,,,,,,,,,wg-a,,,,AAXX 07124 07314 12/68 82312 10100 20080 30240 40268 52015 60006 88071 91200=
07314,1998-02-07 18:00:00,7,1028.7,1.4,93,6,18000,3.704,,,290,6.9,10.4,,0,,,,,,20,wg-a,,,,AAXX 07184 07314 12568 62902 10070 20060 30258 40287 53014 60007 72052 81532 91800 333 10104 20069=
07314,1998-02-08 00:00:00,4,1030.9,0.8,100,4,100,11.112,,,90,,,,,,,,,,47,wg-a,,,,AAXX 08004 07314 12/01 90906 10040 20040 30280 40309 53008 60006 74742 89/// 90000=
07314,1998-02-08 06:00:00,4,1029.6,-0.5,93,3,500,11.112,,,100,3.2,7.4,,,,,,,,45,wg-a,,,,AAXX 08064 07314 32/00 91006 10040 20030 30267 40296 56005 74542 89/// 90600 333 10074 20032=
07314,1998-02-08 12:00:00,4,1028.8,-0.6,100,4,100,11.112,,,110,,,,,,,,,,45,wg-a,,,,AAXX 08124 07314 12/01 91106 10040 20040 30259 40288 58006 60006 74542 89/// 91200=
07314,1998-02-08 18:00:00,6,1027.4,-0.8,100,6,3000,14.816,,,60,3.4,6.1,,,,,,,,10,wg-a,,,,AAXX 08184 07314 32/30 30608 10060 20060 30245 40274 56008 71011 80002 91800 333 10061 20034=
07314,1998-02-09 00:00:00,5,1025.8,-0.8,93,4,0,14.816,,,70,,,,,,,,,,,wg-a,,,,AAXX 09004 07314 12/// /0708 10050 20040 30229 40258 58008 60006 90000=
07314,1998-02-09 06:00:00,3,1024.9,-0,93,2,12000,11.112,,,100,3.1,6.1,,,,,,,,,wg-a,,,,AAXX 09064 07314 32/62 01006 10030 20020 30220 40249 55000 80000 90600 333 10061 20031=
07314,1998-02-09 12:00:00,13,1025.6,-0.2,54,4,18000,22.224,,,150,,,,,,,,,,,wg-a,,,,AAXX 09124 07314 12/68 01512 10130 20040 30228 40256 58002 60006 80000 91200=
07314,1998-02-09 18:00:00,11,1026.1,1,62,4,16000,14.816,,,140,2.8,15.4,,,,,,,,,wg-a,,,,AAXX 09184 07314 32/66 01408 10110 20040 30233 40261 53010 80000 91800 333 10154 20028=
07314,1998-02-10 00:00:00,10,1027.7,0.7,76,6,0,22.224,,,160,,,,,,,,,,,wg-a,,,,AAXX 10004 07314 12/// /1612 10100 20060 30249 40277 53007 60006 90000=
07314,1998-02-10 06:00:00,7,1028.5,0.6,87,5,18000,22.224,,,160,6.8,11.1,,,,,,,,,wg-a,,,,AAXX 10064 07314 12/68 01612 10070 20050 30256 40285 53006 60006 80000 90600 333 10111 20068=
07314,1998-02-10 12:00:00,11,1030.2,0,82,8,0,11.112,,,170,,,,,,,,,,,wg-a,,,,AAXX 10124 07314 12/// /1706 10110 20080 30274 40302 50000 60006 91200=
07314,1998-02-10 18:00:00,10,1029.7,0.7,76,6,12000,3.704,,,110,5.5,12.6,,,,,,,,,wg-a,,,,AAXX 10184 07314 12/62 01102 10100 20060 30269 40297 53007 60006 80000 91800 333 10126 20055=
07314,1998-02-11 00:00:00,8,1030.4,0.1,81,5,0,11.112,,,120,,,,,,,,,,,wg-a,,,,AAXX 11004 07314 12/// /1206 10080 20050 30275 40304 50001 60006 90000=
07314,1998-02-11 06:00:00,6,1030.5,0.7,93,5,8000,11.112,,,120,5.4,9.6,,,,,,,,,wg-a,,,,AAXX 11064 07314 12/58 01206 10060 20050 30276 40305 53007 60006 80000 90600 333 10096 20054=
07314,1998-02-11 12:00:00,12,1030.8,-1,82,9,8000,11.112,,,180,,,,,,,,,,,wg-a,,,,AAXX 11124 07314 12/58 21806 10120 20090 30280 40308 56010 60006 80001 91200=
07314,1998-02-11 18:00:00,9,1031,0.4,87,7,8000,3.704,,,140,5.5,14.1,,,,,,,,,wg-a,,,,AAXX 11184 07314 12/58 21402 10090 20070 30281 40310 53004 60006 80001 91800 333 10141 20055=
07314,1998-02-12 00:00:00,8,1031.4,-0.2,87,6,0,18.52,,,140,,,,,,,,,,,wg-a,,,,AAXX 12004 07314 12/// /1410 10080 20060 30285 40314 57002 60006 90000=
07314,1998-02-12 06:00:00,6,1031.9,-0.2,93,5,6000,14.816,,,130,5.5,9.7,,0,,,,,,,wg-a,,,,AAXX 12064 07314 12/56 01308 10060 20050 30290 40319 55002 60007 80000 90600 333 10097 20055=
07314,1998-02-12 12:00:00,11,1032.7,-0.3,82,8,4000,11.112,,,80,,,,,,,,,,10,wg-a,,,,AAXX 12124 07314 12/40 00806 10110 20080 30299 40327 58003 60006 71000 80000 91200=
07314,1998-02-12 18:00:00,8,1032.4,0.4,93,7,2000,3.704,,,350,5.4,12,,,,,,,,10,wg-a,,,,AAXX 12184 07314 12/20 23502 10080 20070 30295 40324 53004 60006 71000 80002 91800 333 10120 20054=
07314,1998-02-13 00:00:00,9,1033,0.4,87,7,0,14.816,,,110,,,,,,,,,,,wg-a,,,,AAXX 13004 07314 12/// /1108 10090 20070 30301 40330 52004 60006 90000=
07314,1998-02-13 12:00:00,11,1033.7,-0.2,82,8,3000,7.408,,,60,,,,,,,,,,10,wg-a,,,,AAXX 13124 07314 12/30 00604 10110 20080 30309 40337 58002 60006 71000 80000 91200=
07314,1998-02-13 18:00:00,10,1032.3,0.2,87,8,4000,7.408,,,40,6.6,13.1,,,,,,,,10,wg-a,,,,AAXX 13184 07314 32/40 00404 10100 20080 30295 40323 53002 71000 80000 91800 333 10131 20066=
07314,1998-02-14 00:00:00,9,1032.9,-0,81,6,0,11.112,,,60,,,,,,,,,,,wg-a,,,,AAXX 14004 07314 12/// /0606 10090 20060 30300 40329 55000 60006 90000=
07314,1998-02-14 06:00:00,7,1032.8,0.4,93,6,8000,11.112,,,70,7.1,11.8,,,,,,,,,wg-a,,,,AAXX 14064 07314 12/58 10706 10070 20060 30299 40328 53004 60006 81030 90600 333 10118 20071=
07314,1998-02-14 12:00:00,13,1033.6,0.3,72,8,2500,3.704,,,200,,,,,,,,,,10,wg-a,,,,AAXX 14124 07314 12/25 22002 10130 20080 30308 40336 50003 60006 71000 82030 91200=
07314,1998-02-14 18:00:00,10,1033,0.3,82,7,3000,3.704,,,10,6.7,14.4,,,,,,,,10,wg-a,,,,AAXX 14184 07314 12/30 20102 10100 20070 30301 40330 52003 60006 71000 81041 91800 333 10144 20067=
07314,1998-02-15 00:00:00,9,1033.2,-0.2,87,7,0,14.816,,,60,,,,,,,,,,,wg-a,,,,AAXX 15004 07314 12/// /0608 10090 20070 30303 40332 58002 60006 90000=
07314,1998-02-15 06:00:00,8,1031.6,-0.4,93,7,8000,7.408,,,90,7.6,10.2,,,,,,,,,wg-a,,,,AAXX 15064 07314 12/58 10904 10080 20070 30287 40316 58004 60006 80001 90600 333 10102 20076=
07314,1998-02-15 12:00:00,12,1031.9,-0.4,76,8,3000,7.408,,,70,,,,,,,,,,10,wg-a,,,,AAXX 15124 07314 12/30 10704 10120 20080 30291 40319 58004 60006 71000 80001 91200=
07314,1998-02-15 18:00:00,11,1030.4,-0.2,82,8,0,3.704,,,310,7.3,14.5,,,,,,,,,wg-a,,,,AAXX 15184 07314 32/// /3102 10110 20080 30276 40304 55002 91800 333 10145 20073=
07314,1998-02-16 00:00:00,11,1029.6,-0.2,71,6,0,7.408,,,250,,,,,,,,,,,wg-a,,,,AAXX 16004 07314 12/// /2504 10110 20060 30268 40296 58002 60006 90000=
07314,1998-02-16 06:00:00,11,1029.5,0.1,100,11,800,11.112,,,260,10.3,11.5,,,,,,,,46,wg-a,,,,AAXX 16064 07314 12308 72606 10110 20110 30267 40295 53001 60006 74642 8365/ 90600 333 10115 20103=
07314,1998-02-16 12:00:00,11,1031.9,1.1,87,9,0,18.52,,,290,,,,,,,,,,,wg-a,,,,AAXX 16124 07314 12/// /2910 10110 20090 30291 40319 51011 60006 91200=
07314,1998-02-16 18:00:00,10,1032.3,1.1,87,8,15000,29.632,,,310,9.9,11.4,,,,,,,,,wg-a,,,,AAXX 16184 07314 12/65 63116 10100 20080 30295 40323 53011 60006 82042 91800 333 10114 20099=
07314,1998-02-17 00:00:00,9,1034.7,1,87,7,0,29.632,,,20,,,,,,,,,,,wg-a,,,,AAXX 17004 07314 12/// /0216 10090 20070 30318 40347 51010 60006 90000=
07314,1998-02-17 06:00:00,7,1035.5,0.5,87,5,20000,14.816,,,20,7.1,9.8,,,,,,,,,wg-a,,,,AAXX 17064 07314 12/70 00208 10070 20050 30326 40355 52005 60006 80000 90600 333 10098 20071=
07314,1998-02-17 12:00:00,10,1036.6,-0.2,82,7,12000,11.112,,,60,,,,,,,,,,,wg-a,,,,AAXX 17124 07314 12/62 10606 10100 20070 30337 40366 58002 60006 81040 91200=
07314,1998-02-17 18:00:00,10,1034.4,-0.5,82,7,12000,18.52,,,60,7.1,12.6,,,,,,,,,wg-a,,,,AAXX 17184 07314 12/62 10610 10100 20070 30315 40344 56005 60006 80001 91800 333 10126 20071=
07314,1998-02-18 00:00:00,7,1032.7,-1.1,87,5,16000,14.816,,,80,,,,,,,,,,,wg-a,,,,AAXX 18004 07314 12/66 00808 10070 20050 30298 40327 58011 60006 80000 90000=
07314,1998-02-18 06:00:00,5,1030.6,-0.5,87,3,0,14.816,,,90,5,9.9,,,,,,,,,wg-a,,,,AAXX 18064 07314 12/// /0908 10050 20030 30277 40306 56005 60006 90600 333 10099 20050=
07314,1998-02-18 12:00:00,10,1030.2,-0.9,76,6,9000,14.816,,,80,,,,,,,,,,,wg-a,,,,AAXX 18124 07314 12859 30808 10100 20060 30274 40302 58009 60006 81074 91200=
07314,1998-02-18 18:00:00,10,1030.9,1.2,82,7,6000,11.112,,,270,4.4,12.8,,,,,,,,,wg-a,,,,AAXX 18184 07314 12856 42706 10100 20070 30281 40309 53012 60006 84070 91800 333 10128 20044=
07314,1998-02-19 00:00:00,9,1032.5,0.4,93,8,8000,7.408,,,190,,,,,,,,,,,wg-a,,,,AAXX 19004 07314 12/58 01904 10090 20080 30296 40325 51004 60006 80000 90000=
07314,1998-02-19 06:00:00,8,1032.6,0.1,93,7,300,7.408,,,90,7.3,9.5,,,,,,,,44,wg-a,,,,AAXX 19064 07314 32/03 00904 10080 20070 30297 40326 53001 74400 80000 90600 333 10095 20073=
07314,1998-02-19 12:00:00,9,1031.9,-1.1,100,9,3000,14.816,,,80,,,,,,,,,,28,wg-a,,,,AAXX 19124 07314 12/30 40808 10090 20090 30290 40319 58011 60006 72841 80002 91200=
07314,1998-02-19 18:00:00,11,1027.1,-1.7,87,9,8000,14.816,,,90,7.4,13.6,,,,,,,,,wg-a,,,,AAXX 19184 07314 12/58 60908 10110 20090 30243 40271 57017 60006 81042 91800 333 10136 20074=
07314,1998-02-20 00:00:00,9,1024.2,-1.8,93,8,15000,18.52,,,90,,,,,,,,,,,wg-a,,,,AAXX 20004 07314 12/65 00910 10090 20080 30214 40242 58018 60006 80000 90000=
07314,1998-02-20 06:00:00,9,1020.3,-1.6,87,7,15000,14.816,,,100,8.8,11.2,,0,,,,,,,wg-a,,,,AAXX 20064 07314 12865 21008 10090 20070 30175 40203 56016 60007 82030 90600 333 10112 20088=
07314,1998-02-20 12:00:00,17,1018,-1,45,5,8000,38.892,,,170,,,,,,,,,,,wg-a,,,,AAXX 20124 07314 12558 71721 10170 20050 30153 40180 58010 60006 81142 91200=
07314,1998-02-20 18:00:00,12,1018.4,1.4,88,10,500,7.408,,,240,8.5,17.5,,,,,,,,,wg-a,,,,AAXX 20184 07314 12800 62404 10120 20100 30156 40184 53014 60006 83042 91800 333 10175 20085=
07314,1998-02-21 00:00:00,10,1018.5,-0.5,93,9,8000,18.52,,,130,,,,,,,,,,,wg-a,,,,AAXX 21004 07314 12858 31310 10100 20090 30157 40185 58005 60006 82042 90000=
07314,1998-02-21 06:00:00,12,1014.3,-1.8,76,8,0,29.632,,,160,8.8,11.7,,,,,,,,,wg-a,,,,AAXX 21064 07314 12/// /1616 10120 20080 30115 40143 56018 60006 90600 333 10117 20088=
07314,1998-02-21 12:00:00,10,1019.3,2.3,93,9,7000,18.52,,64.82,190,,,,2,,,,,,21,wg-a,,,,AAXX 21124 07314 02557 81910 10100 20090 30165 40193 51023 60026 72162 8672/ 91200 333 60027 91035=
07314,1998-02-21 18:00:00,11,1020,0.8,87,9,10000,25.928,,,210,9.7,12.2,,3,,,,,,2,wg-a,,,,AAXX 21184 07314 12560 72114 10110 20090 30172 40200 53008 60037 70262 8672/ 91800 333 10122 20097=
07314,1998-02-22 00:00:00,10,1020.4,-0,82,7,16000,38.892,,,250,,,,2,,,,,,2,wg-a,,,,AAXX 22004 07314 02566 72521 10100 20070 30176 40204 54000 60026 70262 8674/ 90000 333 60027=
07314,1998-02-22 06:00:00,8,1021.4,0.2,76,4,16000,46.3,,72.228,260,7.6,10.8,,0,,,,,,,wg-a,,,,AAXX 22064 07314 12666 62625 10080 20040 30186 40214 52002 60007 8478/ 90600 333 10108 20076 91039=
07314,1998-02-22 12:00:00,9,1028.2,2.6,76,5,18000,46.3,,,310,,,,,,,,,,2,wg-a,,,,AAXX 22124 07314 12568 53125 10090 20050 30254 40282 51026 60026 70262 84302 91200=
07314,1998-02-22 18:00:00,9,1032.3,2.5,81,6,6000,29.632,,,330,6.7,9.7,,0,,,,,,2,wg-a,,,,AAXX 22184 07314 12456 63316 10090 20060 30294 40323 53025 60007 70262 8472/ 91800 333 10097 20067=
07314,1998-02-23 00:00:00,8,1036.9,1.7,81,5,0,25.928,,,330,,,,,,,,,,,wg-a,,,,AAXX 23004 07314 12/// /3314 10080 20050 30340 40369 51017 60006 90000=
07314,1998-02-23 06:00:00,7,1038.1,0.8,87,5,20000,22.224,,,340,7.3,9.2,,,,,,,,,wg-a,,,,AAXX 23064 07314 12/70 03412 10070 20050 30352 40381 53008 60006 80000 90600 333 10092 20073=
07314,1998-02-23 12:00:00,10,1039.9,0.3,76,6,15000,18.52,,,300,,,,,,,,,,,wg-a,,,,AAXX 23124 07314 12/65 23010 10100 20060 30370 40399 50003 60006 81041 91200=
07314,1998-02-23 18:00:00,9,1039,0.2,93,8,15000,22.224,,,330,7.2,9.9,,,,,,,,,wg-a,,,,AAXX 23184 07314 12/65 53312 10090 20080 30361 40390 53002 60006 85042 91800 333 10099 20072=
07314,1998-02-24 00:00:00,10,1039.5,-0.4,87,8,20000,18.52,,,320,,,,,,,,,,,wg-a,,,,AAXX 24004 07314 12570 83210 10100 20080 30366 40395 57004 60006 885// 90000=
07314,1998-02-24 06:00:00,9,1038.7,0.3,93,8,20000,18.52,,,340,9,9.7,,,,,,,,,wg-a,,,,AAXX 24064 07314 12570 83410 10090 20080 30358 40387 53003 60006 885// 90600 333 10097 20090=
07314,1998-02-24 12:00:00,11,1039.3,-0.5,87,9,7000,18.52,,,350,,,,0,,,,,,21,wg-a,,,,AAXX 24124 07314 02557 73510 10110 20090 30364 40393 58005 60006 72122 875// 91200 333 60007=
07314,1998-02-24 18:00:00,11,1038.5,0.4,82,8,6000,14.816,,,10,8.8,11.7,,,,,,,,,wg-a,,,,AAXX 24184 07314 32556 80108 10110 20080 30356 40385 53004 885// 91800 333 10117 20088=
07314,1998-02-25 00:00:00,10,1038.4,-0.9,82,7,10000,11.112,,,20,,,,,,,,,,,wg-a,,,,AAXX 25004 07314 12560 80206 10100 20070 30355 40384 57009 60006 885// 90000=
07314,1998-02-25 06:00:00,8,1037.2,-0.2,87,6,10000,18.52,,,30,7.9,10.8,,,,,,,,,wg-a,,,,AAXX 25064 07314 12660 30310 10080 20060 30343 40372 56002 60006 83500 90600 333 10108 20079=
07314,1998-02-25 12:00:00,11,1036.9,-0.8,82,8,0,22.224,,,20,,,,,,,,,,,wg-a,,,,AAXX 25124 07314 12/// /0212 10110 20080 30340 40369 58008 60006 91200=
07314,1998-02-25 18:00:00,11,1033.9,-0.4,87,9,8000,22.224,,,50,7.9,11.8,,,,,,,,,wg-a,,,,AAXX 25184 07314 12558 80512 10110 20090 30311 40339 56004 60006 885// 91800 333 10118 20079=
07314,1998-02-26 00:00:00,11,1034.4,-0.2,82,8,10000,11.112,,,70,,,,,,,,,,,wg-a,,,,AAXX 26004 07314 12560 80706 10110 20080 30316 40344 58002 60006 886// 90000=
07314,1998-02-26 06:00:00,9,1033.3,-0.4,87,7,6000,18.52,,,20,8.7,11.1,,,,,,,,,wg-a,,,,AAXX 26064 07314 12/56 00210 10090 20070 30304 40333 56004 60006 80000 90600 333 10111 20087=
07314,1998-02-26 12:00:00,8,1034.4,0.4,93,7,0,7.408,,,80,,,,,,,,,,,wg-a,,,,AAXX 26124 07314 12/// /0804 10080 20070 30315 40344 53004 60006 91200=
07314,1998-02-27 00:00:00,8,1032.9,-0.3,93,7,3000,3.704,,,40,,,,,,,,,,10,wg-a,,,,AAXX 27004 07314 12230 80402 10080 20070 30300 40329 57003 60006 71022 886// 90000=
07314,1998-02-27 06:00:00,9,1031.2,-0.8,93,8,2000,7.408,,,300,7.6,8.9,,,,,,,,10,wg-a,,,,AAXX 27064 07314 12220 83004 10090 20080 30283 40312 58008 60006 71022 886// 90600 333 10089 20076=
07314,1998-02-27 12:00:00,10,1030.9,-0.3,87,8,8000,7.408,,,260,,,,,,,,,,,wg-a,,,,AAXX 27124 07314 12558 82604 10100 20080 30281 40309 58003 60006 886// 91200=
07314,1998-02-27 18:00:00,10,1027.6,-0.9,93,9,0,22.224,,,190,8.7,10.3,,,,,,,,,wg-a,,,,AAXX 27184 07314 12/// /1912 10100 20090 30248 40276 57009 60006 91800 333 10103 20087=
07314,1998-02-28 00:00:00,10,1025.3,-1.8,93,9,0,14.816,,,230,,,,,,,,,,,wg-a,,,,AAXX 28004 07314 12/// /2308 10100 20090 30225 40253 57018 60006 90000=
07314,1998-02-28 06:00:00,9,1022.8,-0.7,93,8,20000,22.224,,,260,9.4,10.9,,0,,,,,,25,wg-a,,,,AAXX 28064 07314 12570 82612 10090 20080 30200 40228 56007 60007 72522 888// 90600 333 10109 20094=
07314,1998-02-28 12:00:00,12,1023.3,-0.1,76,8,20000,18.52,,,250,,,,,,,,,,2,wg-a,,,,AAXX 28124 07314 12570 62510 10120 20080 30205 40233 58001 60016 70282 82231 91200=
07314,1998-02-28 18:00:00,10,1021.6,-0,87,8,20000,18.52,,,280,9,12,,,,,,,,,wg-a,,,,AAXX 28184 07314 32570 72810 10100 20080 30188 40216 54000 8484/ 91800 333 10120 20090=
07314,1998-03-01 00:00:00,10,1022,0.1,71,5,20000,18.52,,,290,,,,,,,,,,,wg-a,,,,AAXX 01004 07314 12870 72910 10100 20050 30192 40220 50001 60006 83032 90000=
07314,1998-03-01 06:00:00,9,1022,0.2,81,6,20000,11.112,,,230,8.7,10.3,,,,,,,,,wg-a,,,,AAXX 01064 07314 32570 42306 10090 20060 30192 40220 52002 84500 90600 333 10103 20087=
07314,1998-03-01 12:00:00,11,1024.2,1.2,76,7,25000,25.928,,,270,,,,,,,,,,,wg-a,,,,AAXX 01124 07314 12575 62714 10110 20070 30214 40242 51012 60006 82232 91200=
07314,1998-03-01 18:00:00,10,1023.9,0.1,87,8,25000,14.816,,,210,9.1,11.8,,,,,,,,,wg-a,,,,AAXX 01184 07314 12575 42108 10100 20080 30211 40239 53001 60006 83831 91800 333 10118 20091=
07314,1998-03-02 00:00:00,10,1025.5,0.7,82,7,25000,7.408,,,240,,,,0,,,,,,,wg-a,,,,AAXX 02004 07314 02/75 42404 10100 20070 30227 40255 51007 60006 82032 90000 333 60007=
07314,1998-03-02 06:00:00,10,1024.7,0.4,87,8,16000,11.112,,,230,8.5,10.1,,,,,,,,,wg-a,,,,AAXX 02064 07314 32/66 72306 10100 20080 30219 40247 53004 84032 90600 333 10101 20085=
07314,1998-03-02 18:00:00,11,1022.9,-0.9,87,9,0,25.928,,,170,9.9,12.7,,,,,,,,,wg-a,,,,AAXX 02184 07314 12/// /1714 10110 20090 30201 40229 56009 60006 91800 333 10127 20099=
07314,1998-03-03 00:00:00,11,1020.6,-1.5,76,7,0,38.892,,,170,,,,,,,,,,,wg-a,,,,AAXX 03004 07314 12/// /1721 10110 20070 30178 40206 56015 60006 90000=
07314,1998-03-03 06:00:00,11,1018.6,-0.6,87,9,20000,31.484,,,170,10,11.4,,,,,,,,,wg-a,,,,AAXX 03064 07314 12670 71717 10110 20090 30158 40186 56006 60006 875// 90600 333 10114 20100=
07314,1998-03-03 12:00:00,13,1018.7,-0.2,88,11,13000,31.484,,,170,,,,,,,,,,,wg-a,,,,AAXX 03124 07314 12/63 71717 10130 20110 30159 40187 58002 60006 84037 91200=
07314,1998-03-03 18:00:00,13,1017.3,-0.6,82,10,12000,29.632,,,170,10.9,14,,,,,,,,,wg-a,,,,AAXX 03184 07314 12/62 81716 10130 20100 30145 40173 55006 60006 8802/ 91800 333 10140 20109=
07314,1998-03-04 00:00:00,13,1013.7,-1.6,77,9,0,31.484,,,180,,,,,,,,,,,wg-a,,,,AAXX 04004 07314 12/// /1817 10130 20090 30109 40137 56016 60006 90000=
07314,1998-03-04 06:00:00,14,1010.7,-1,77,10,16000,35.188,,,200,12.3,14.5,,,,,,,,,wg-a,,,,AAXX 04064 07314 12566 82019 10140 20100 30080 40107 58010 60006 885// 90600 333 10145 20123=
07314,1998-03-04 12:00:00,14,1012,0.4,77,10,8000,35.188,,,210,,,,,,,,,,,wg-a,,,,AAXX 04124 07314 12558 72119 10140 20100 30093 40120 53004 60006 875// 91200=
07314,1998-03-04 18:00:00,12,1013.8,1.8,94,11,8000,31.484,,68.524,240,12,14.4,,0,,,,,,15,wg-a,,,,AAXX 04184 07314 12558 72417 10120 20110 30110 40138 53018 60007 71562 878// 91800 333 10144 20120 91037=
07314,1998-03-05 00:00:00,11,1020.6,2.7,76,7,18000,31.484,,,280,,,,,,,,,,,wg-a,,,,AAXX 05004 07314 12/68 42817 10110 20070 30178 40206 53027 60006 82042 90000=
07314,1998-03-05 06:00:00,10,1025.9,2.6,71,5,20000,22.224,,,290,10,11.7,,,,,,,,,wg-a,,,,AAXX 05064 07314 12/70 22912 10100 20050 30231 40259 53026 60006 80002 90600 333 10117 20100=
07314,1998-03-05 12:00:00,13,1029.5,0.5,67,7,20000,3.704,,,10,,,,,,,,,,,wg-a,,,,AAXX 05124 07314 12670 10102 10130 20070 30267 40295 50005 60006 81101 91200=
07314,1998-03-05 18:00:00,11,1028.5,-0.2,71,6,500,11.112,,,190,10.1,13.3,,,,,,,,,wg-a,,,,AAXX 05184 07314 12600 51906 10110 20060 30257 40285 55002 60006 81232 91800 333 10133 20101=
07314,1998-03-06 00:00:00,11,1028.6,0,82,8,0,11.112,,,240,,,,,,,,,,,wg-a,,,,AAXX 06004 07314 12/// /2406 10110 20080 30258 40286 50000 60006 90000=
07314,1998-03-06 06:00:00,11,1027.1,-0.8,82,8,14000,14.816,,,210,10.1,10.9,,,,,,,,,wg-a,,,,AAXX 06064 07314 12864 52108 10110 20080 30243 40271 56008 60006 85042 90600 333 10109 20101=
07314,1998-03-06 12:00:00,12,1027.4,-0.4,88,10,18000,18.52,,,210,,,,,,,,,,,wg-a,,,,AAXX 06124 07314 12568 42110 10120 20100 30246 40274 55004 60006 82142 91200=
07314,1998-03-06 18:00:00,12,1024.6,-1.1,88,10,14000,22.224,,,190,10.5,12.9,,,,,,,,,wg-a,,,,AAXX 06184 07314 12/64 51912 10120 20100 30218 40246 56011 60006 80004 91800 333 10129 20105=
07314,1998-03-07 00:00:00,12,1023.5,-0.7,88,10,0,22.224,,,230,,,,,,,,,,,wg-a,,,,AAXX 07004 07314 12/// /2312 10120 20100 30207 40235 58007 60006 90000=
07314,1998-03-07 06:00:00,12,1021.8,-0.4,88,10,18000,31.484,,,230,11.2,12,,,,,,,,,wg-a,,,,AAXX 07064 07314 12568 82317 10120 20100 30190 40218 56004 60006 8372/ 90600 333 10120 20112=
07314,1998-03-07 12:00:00,13,1022.4,0.3,94,12,8000,31.484,,,250,,,,0,,,,,,2,wg-a,,,,AAXX 07124 07314 02558 62517 10130 20120 30196 40224 53003 60006 70262 86800 91200 333 60007=
07314,1998-03-07 18:00:00,12,1021.7,-0,88,10,8000,31.484,,,240,12,13.1,,,,,,,,,wg-a,,,,AAXX 07184 07314 32558 62417 10120 20100 30189 40217 55000 82242 91800 333 10131 20120=
07314,1998-03-08 00:00:00,12,1020.8,-1.2,88,10,0,35.188,,,240,,,,,,,,,,,wg-a,,,,AAXX 08004 07314 12/// /2419 10120 20100 30180 40208 58012 60006 90000=
07314,1998-03-08 06:00:00,11,1016.9,-2.6,94,10,8000,25.928,,61.116,230,10.7,12.1,,3,,,,,,21,wg-a,,,,AAXX 08064 07314 12458 82314 10110 20100 30141 40169 56026 60037 72162 8372/ 90600 333 10121 20107 91033=
07314,1998-03-08 12:00:00,13,1013.7,0.6,82,10,12000,46.3,,75.932,260,,,,,,,,,,2,wg-a,,,,AAXX 08124 07314 02562 52625 10130 20100 30109 40137 53006 60046 70265 84260 91200 333 61000 91041=
07314,1998-03-08 18:00:00,11,1014.5,1.3,94,10,4000,29.632,,,300,10.3,13.1,,0,,,,,,21,wg-a,,,,AAXX 08184 07314 12440 73016 10110 20100 30117 40145 53013 60007 72186 868// 91800 333 10131 20103=
07314,1998-03-09 00:00:00,10,1019.4,2.1,87,8,0,29.632,,,330,,,,1,,,,,,,wg-a,,,,AAXX 09004 07314 02/// /3316 10100 20080 30166 40194 51021 60016 90000 333 60017=
07314,1998-03-09 06:00:00,10,1021.4,1.1,82,7,0,22.224,,,340,9.5,11.1,,,,,,,,,wg-a,,,,AAXX 09064 07314 32/// /3412 10100 20070 30186 40214 53011 90600 333 10111 20095=
07314,1998-03-09 12:00:00,11,1025.4,2,87,9,14000,14.816,,,350,,,,,,,,,,21,wg-a,,,,AAXX 09124 07314 02564 63508 10110 20090 30226 40254 53020 60006 72162 85740 91200 333 61000=
07314,1998-03-09 18:00:00,9,1028.7,2.3,49,-1,14000,29.632,,,50,8.6,12.1,,,,,,,,,wg-a,,,,AAXX 09184 07314 32/64 30516 10090 21010 30258 40287 53023 80002 91800 333 10121 20086=
07314,1998-03-10 00:00:00,6,1032.2,1.1,52,-3,13000,14.816,,,110,,,,,,,,,,,wg-a,,,,AAXX 10004 07314 12/63 31108 10060 21030 30293 40322 51011 60006 80002 90000=
07314,1998-03-10 06:00:00,3,1032.1,-0.2,60,-4,20000,14.816,,,120,3,8.6,,,,,,,,,wg-a,,,,AAXX 10064 07314 12/70 11208 10030 21040 30292 40321 57002 60006 80001 90600 333 10086 20030=
07314,1998-03-10 12:00:00,8,1030.5,-1.7,46,-3,20000,18.52,,,180,,,,,,,,,,,wg-a,,,,AAXX 10124 07314 12/70 51810 10080 21030 30276 40305 58017 60006 85054 91200=
07314,1998-03-10 18:00:00,9,1025.4,-2.1,76,5,12000,25.928,,,190,1.7,9,,0,,,,,,60,wg-a,,,,AAXX 10184 07314 12762 81914 10090 20050 30226 40254 56021 60007 76062 8802/ 91800 333 10090 20017=
07314,1998-03-11 00:00:00,11,1017.3,-4.1,94,10,20000,25.928,,57.412,250,,,,1,,,,,,21,wg-a,,,,AAXX 11004 07314 02570 72514 10110 20100 30145 40173 56041 60036 72162 878// 90000 333 60017 91031=
07314,1998-03-11 06:00:00,11,1013.6,-1,87,9,20000,35.188,,61.116,290,8.4,11.5,,2,,,,,,2,wg-a,,,,AAXX 11064 07314 12570 72919 10110 20090 30108 40136 55010 60027 70282 875// 90600 333 10115 20084 91033=
07314,1998-03-11 12:00:00,10,1019.3,3.5,76,6,18000,61.116,,75.932,320,,,,,,,,,,,wg-a,,,,AAXX 11124 07314 12568 63233 10100 20060 30165 40193 53035 60006 85330 91200 333 91041=
07314,1998-03-11 18:00:00,9,1021.2,2.2,81,6,18000,50.004,,,340,8.8,10.9,,,,,,,,,wg-a,,,,AAXX 11184 07314 12568 83427 10090 20060 30184 40212 53022 60006 8752/ 91800 333 10109 20088=
07314,1998-03-12 00:00:00,8,1024.5,1,76,4,0,38.892,,,340,,,,,,,,,,,wg-a,,,,AAXX 12004 07314 12/// /3421 10080 20040 30217 40245 51010 60006 90000=
07314,1998-03-12 06:00:00,7,1026.2,1.1,87,5,14000,35.188,,,350,7.2,9,,,,,,,,,wg-a,,,,AAXX 12064 07314 12864 43519 10070 20050 30233 40262 53011 60006 8403/ 90600 333 10090 20072=
07314,1998-03-12 12:00:00,9,1028.7,1,71,4,18000,25.928,,,350,,,,,,,,,,,wg-a,,,,AAXX 12124 07314 12568 53514 10090 20040 30259 40287 51010 60006 85200 91200=
07314,1998-03-12 18:00:00,9,1029.2,1,57,1,18000,29.632,,,350,6.9,9.9,,,,,,,,,wg-a,,,,AAXX 12184 07314 12568 73516 10090 20010 30263 40292 53010 60006 83250 91800 333 10099 20069=
07314,1998-03-13 00:00:00,7,1031.1,0.5,70,2,0,25.928,,,20,,,,,,,,,,,wg-a,,,,AAXX 13004 07314 12/// /0214 10070 20020 30282 40311 53005 60006 90000=
07314,1998-03-13 06:00:00,5,1030.7,-0.2,81,2,20000,3.704,,,110,5.1,8.7,,,,,,,,,wg-a,,,,AAXX 13064 07314 12/70 41102 10050 20020 30278 40307 55002 60006 82042 90600 333 10087 20051=
07314,1998-03-13 12:00:00,9,1031.2,-0.2,71,4,16000,11.112,,,190,,,,,,,,,,,wg-a,,,,AAXX 13124 07314 12866 71906 10090 20040 30283 40312 58002 60006 8703/ 91200=
07314,1998-03-13 18:00:00,9,1029.7,-0.3,71,4,20000,11.112,,,210,5.1,9.4,,,,,,,,,wg-a,,,,AAXX 13184 07314 12570 72106 10090 20040 30269 40297 55003 60006 875// 91800 333 10094 20051=
07314,1998-03-14 00:00:00,8,1030.9,0.2,76,4,25000,7.408,,,110,,,,,,,,,,,wg-a,,,,AAXX 14004 07314 12/75 41104 10080 20040 30280 40309 53002 60006 84030 90000=
07314,1998-03-14 06:00:00,8,1031.3,0.5,87,6,15000,3.704,,,360,7,9.4,,0,,,,,,2,wg-a,,,,AAXX 14064 07314 12565 83602 10080 20060 30284 40313 53005 60007 70281 885// 90600 333 10094 20070=
07314,1998-03-14 12:00:00,11,1032.8,0.4,87,9,2500,11.112,,,30,,,,,,,,,,10,wg-a,,,,AAXX 14124 07314 12525 80306 10110 20090 30300 40328 51004 60006 71022 886// 91200=
07314,1998-03-14 18:00:00,11,1032.4,0.2,82,8,12000,11.112,,,30,8.4,12.4,,,,,,,,,wg-a,,,,AAXX 14184 07314 12/62 80306 10110 20080 30296 40324 53002 60006 8807/ 91800 333 10124 20084=
07314,1998-03-15 00:00:00,9,1033.7,0.3,87,7,10000,18.52,,,30,,,,,,,,,,,wg-a,,,,AAXX 15004 07314 12/60 00310 10090 20070 30308 40337 50003 60006 80000 90000=
07314,1998-03-15 06:00:00,9,1034.1,0.5,87,7,8000,14.816,,,30,8.6,11,,,,,,,,,wg-a,,,,AAXX 15064 07314 12658 80308 10090 20070 30312 40341 53005 60006 885// 90600 333 10110 20086=
07314,1998-03-15 12:00:00,13,1034.7,0.1,77,9,500,7.408,,,320,,,,,,,,,,,wg-a,,,,AAXX 15124 07314 12/00 03204 10130 20090 30319 40347 50001 60006 80000 91200=
07314,1998-03-15 18:00:00,12,1033.2,-0.4,76,8,9000,22.224,,,10,8.8,13.6,,,,,,,,,wg-a,,,,AAXX 15184 07314 12/59 10112 10120 20080 30304 40332 55004 60006 80001 91800 333 10136 20088=
07314,1998-03-16 00:00:00,9,1033.9,0.2,81,6,12000,18.52,,,30,,,,,,,,,,,wg-a,,,,AAXX 16004 07314 12662 80310 10090 20060 30310 40339 52002 60006 885// 90000=
07314,1998-03-16 06:00:00,9,1032.6,-0.1,76,5,15000,22.224,,,50,8.6,11.6,,,,,,,,,wg-a,,,,AAXX 16064 07314 12665 80512 10090 20050 30297 40326 58001 60006 885// 90600 333 10116 20086=
07314,1998-03-16 12:00:00,10,1033.3,-0.1,76,6,8000,18.52,,,40,,,,,,,,,,,wg-a,,,,AAXX 16124 07314 12558 80410 10100 20060 30304 40333 56001 60006 885// 91200=
07314,1998-03-16 18:00:00,10,1031.5,-0.2,82,7,6000,25.928,,,20,8.6,10.4,,,,,,,,,wg-a,,,,AAXX 16184 07314 12/56 00214 10100 20070 30287 40315 55002 60006 80000 91800 333 10104 20086=
07314,1998-03-17 00:00:00,8,1032,-0.2,87,6,4000,22.224,,,20,,,,,,,,,,10,wg-a,,,,AAXX 17004 07314 12/40 00212 10080 20060 30291 40320 58002 60006 71000 80000 90000=
07314,1998-03-17 06:00:00,8,1032.1,0.2,81,5,6000,29.632,,,30,7.6,10.1,,,,,,,,,wg-a,,,,AAXX 17064 07314 12/56 00316 10080 20050 30292 40321 53002 60006 80000 90600 333 10101 20076=
07314,1998-03-17 12:00:00,12,1033.2,-0.2,71,7,6000,18.52,,,30,,,,,,,,,,,wg-a,,,,AAXX 17124 07314 12/56 00310 10120 20070 30302 40332 58002 60006 80000 91200=
07314,1998-03-17 18:00:00,12,1032,0.2,82,9,9000,22.224,,,10,7.7,13.5,,,,,,,,,wg-a,,,,AAXX 17184 07314 12/59 00112 10120 20090 30292 40320 53002 60006 80000 91800 333 10135 20077=
07314,1998-03-18 00:00:00,9,1033.8,0.7,87,7,8000,22.224,,,30,,,,,,,,,,,wg-a,,,,AAXX 18004 07314 12/58 00312 10090 20070 30309 40338 51007 60006 80000 90000=
07314,1998-03-18 06:00:00,9,1034.3,0.5,81,6,0,25.928,,,30,8,12.1,,,,,,,,,wg-a,,,,AAXX 18064 07314 12/// /0314 10090 20060 30314 40343 53005 60006 90600 333 10121 20080=
07314,1998-03-18 12:00:00,12,1034.5,-0.5,71,7,4000,31.484,,,40,,,,,,,,,,10,wg-a,,,,AAXX 18124 07314 12/40 50417 10120 20070 30317 40345 58005 60006 71022 85070 91200=
07314,1998-03-18 18:00:00,11,1034.4,0.5,82,8,6000,29.632,,,30,8.4,12.7,,,,,,,,,wg-a,,,,AAXX 18184 07314 12/56 30316 10110 20080 30316 40344 53005 60006 83070 91800 333 10127 20084=
07314,1998-03-19 00:00:00,9,1036,0.5,81,6,6000,25.928,,,40,,,,,,,,,,,wg-a,,,,AAXX 19004 07314 12/56 20414 10090 20060 30331 40360 53005 60006 82070 90000=
07314,1998-03-19 06:00:00,8,1036.2,0.7,81,5,3500,38.892,,,50,7.4,11.3,,,,,,,,10,wg-a,,,,AAXX 19064 07314 12/35 00521 10080 20050 30333 40362 53007 60006 71000 80000 90600 333 10113 20074=
07314,1998-03-19 12:00:00,13,1037.4,-0.1,67,7,6000,29.632,,,50,,,,,,,,,,,wg-a,,,,AAXX 19124 07314 12/56 00516 10130 20070 30346 40374 57001 60006 80000 91200=
07314,1998-03-19 18:00:00,13,1036.2,-0,67,7,12000,29.632,,,30,7.8,14.3,,,,,,,,,wg-a,,,,AAXX 19184 07314 12/62 20316 10130 20070 30334 40362 55000 60006 80001 91800 333 10143 20078=
07314,1998-03-20 00:00:00,10,1036.9,0.3,71,5,15000,29.632,,,40,,,,,,,,,,,wg-a,,,,AAXX 20004 07314 12/65 00416 10100 20050 30340 40369 50003 60006 80000 90000=
07314,1998-03-20 06:00:00,8,1036.7,0.2,66,2,10000,29.632,,,40,7.4,12.8,,,,,,,,,wg-a,,,,AAXX 20064 07314 12/60 00416 10080 20020 30338 40367 51002 60006 80000 90600 333 10128 20074=
07314,1998-03-20 12:00:00,12,1035.8,-0.9,58,4,18000,31.484,,,50,,,,,,,,,,,wg-a,,,,AAXX 20124 07314 12/68 00517 10120 20040 30330 40358 56009 60006 80000 91200=
07314,1998-03-20 18:00:00,12,1033.4,-0.8,62,5,18000,25.928,,,40,7.3,13.5,,,,,,,,,wg-a,,,,AAXX 20184 07314 12/68 00414 10120 20050 30306 40334 55008 60006 80000 91800 333 10135 20073=
07314,1998-03-21 00:00:00,10,1033.7,-0.4,66,4,20000,35.188,,,50,,,,,,,,,,,wg-a,,,,AAXX 21004 07314 12/70 00519 10100 20040 30308 40337 58004 60006 80000 90000=
07314,1998-03-21 06:00:00,8,1032.6,-0.3,76,4,0,25.928,,,50,7.5,12.2,,,,,,,,,wg-a,,,,AAXX 21064 07314 12/// /0514 10080 20040 30297 40326 56003 60006 90600 333 10122 20075=
07314,1998-03-21 12:00:00,13,1031.5,-1.5,62,6,18000,31.484,,,40,,,,,,,,,,,wg-a,,,,AAXX 21124 07314 12568 30417 10130 20060 30287 40315 57015 60006 83230 91200=
07314,1998-03-21 18:00:00,11,1030.1,-0,71,6,0,31.484,,,50,7.4,13.3,,,,,,,,,wg-a,,,,AAXX 21184 07314 12/// /0517 10110 20060 30273 40301 55000 60006 91800 333 10133 20074=
07314,1998-03-22 00:00:00,9,1030.1,-0.6,81,6,0,31.484,,,40,,,,,,,,,,,wg-a,,,,AAXX 22004 07314 12/// /0417 10090 20060 30272 40301 58006 60006 90000=
07314,1998-03-22 06:00:00,6,1029.4,0.1,81,3,6000,31.484,,,40,6.3,10.8,,,,,,,,,wg-a,,,,AAXX 22064 07314 12/56 10417 10060 20030 30265 40294 53001 60006 81030 90600 333 10108 20063=
07314,1998-03-22 12:00:00,11,1028.5,-1.2,43,-1,16000,42.596,,90.748,50,,,,,,,,,,,wg-a,,,,AAXX 22124 07314 12/66 00523 10110 21010 30257 40285 58012 60006 80000 91200 333 91049=
07314,1998-03-22 18:00:00,12,1027.6,0.1,47,1,0,31.484,,,50,6.1,12.9,,,,,,,,,wg-a,,,,AAXX 22184 07314 12/// /0517 10120 20010 30248 40276 53001 60006 91800 333 10129 20061=
07314,1998-03-23 00:00:00,9,1028.4,0.1,53,0,0,35.188,,,50,,,,,,,,,,,wg-a,,,,AAXX 23004 07314 12/// /0519 10090 20000 30255 40284 52001 60006 90000=
07314,1998-03-23 06:00:00,6,1028,0.2,75,2,12000,35.188,,,50,6.1,11.8,,,,,,,,,wg-a,,,,AAXX 23064 07314 12/62 00519 10060 20020 30251 40280 53002 60006 80000 90600 333 10118 20061=
07314,1998-03-23 18:00:00,11,1028,0.6,62,4,20000,29.632,,,30,6,12.4,,,,,,,,,wg-a,,,,AAXX 23184 07314 12/70 20316 10110 20040 30252 40280 53006 60006 82030 91800 333 10124 20060=
07314,1998-03-24 00:00:00,9,1029.1,0.2,81,6,18000,29.632,,,360,,,,,,,,,,,wg-a,,,,AAXX 24004 07314 12868 63616 10090 20060 30263 40291 53002 60006 86020 90000=
07314,1998-03-24 06:00:00,6,1029.6,0.5,87,4,6000,22.224,,,40,6.2,10.9,,,,,,,,,wg-a,,,,AAXX 24064 07314 12656 50412 10060 20040 30267 40296 53005 60006 82520 90600 333 10109 20062=
07314,1998-03-24 12:00:00,9,1032,0.4,66,3,0,18.52,,,20,,,,,,,,,,,wg-a,,,,AAXX 24124 07314 12/// /0210 10090 20030 30291 40320 51004 60006 91200=
07314,1998-03-24 18:00:00,9,1031.7,0.6,46,-2,0,14.816,,,20,6.1,10.9,,,,,,,,,wg-a,,,,AAXX 24184 07314 12/// /0208 10090 21020 30288 40317 53006 60006 91800 333 10109 20061=
07314,1998-03-25 00:00:00,7,1032.1,-0.4,53,-2,10000,7.408,,,70,,,,,,,,,,,wg-a,,,,AAXX 25004 07314 12/60 50704 10070 21020 30292 40321 58004 60006 82032 90000=
07314,1998-03-25 06:00:00,5,1031.3,-0,75,1,12000,7.408,,,80,5.1,9.4,,,,,,,,,wg-a,,,,AAXX 25064 07314 12/62 10804 10050 20010 30284 40313 55000 60006 80001 90600 333 10094 20051=
07314,1998-03-25 12:00:00,10,1030.1,-0.7,46,-1,16000,3.704,,,40,,,,,,,,,,,wg-a,,,,AAXX 25124 07314 12/66 40402 10100 21010 30273 40301 58007 60006 82044 91200=
07314,1998-03-25 18:00:00,10,1026.9,-1.1,62,3,0,18.52,,,330,5.1,11,,,,,,,,,wg-a,,,,AAXX 25184 07314 12/// /3310 10100 20030 30241 40269 56011 60006 91800 333 10110 20051=
07314,1998-03-26 00:00:00,9,1025,-1.4,66,3,16000,11.112,,,30,,,,,,,,,,,wg-a,,,,AAXX 26004 07314 12/66 00306 10090 20030 30222 40250 56014 60006 80000 90000=
07314,1998-03-26 06:00:00,6,1023.9,-0.1,75,2,8000,7.408,,,120,6.4,9.5,,,,,,,,,wg-a,,,,AAXX 26064 07314 12/58 51204 10060 20020 30210 40239 56001 60006 80002 90600 333 10095 20064=
07314,1998-03-26 12:00:00,12,1023.3,-0.2,58,4,10000,18.52,,,200,,,,,,,,,,,wg-a,,,,AAXX 26124 07314 12/60 52010 10120 20040 30205 40233 58002 60006 82032 91200=
07314,1998-03-26 18:00:00,11,1022.1,-0.3,76,7,12000,11.112,,,210,6.2,12.4,,,,,,,,,wg-a,,,,AAXX 26184 07314 12/62 72106 10110 20070 30193 40221 55003 60006 8707/ 91800 333 10124 20062=
07314,1998-03-27 00:00:00,11,1022.2,0.1,87,9,15000,7.408,,,210,,,,,,,,,,,wg-a,,,,AAXX 27004 07314 12/65 82104 10110 20090 30194 40222 53001 60006 8807/ 90000=
07314,1998-03-27 06:00:00,9,1021.2,-0.4,93,8,2000,11.112,,,160,9,11.2,,,,,,,,,wg-a,,,,AAXX 27064 07314 12/20 41606 10090 20080 30184 40212 55004 60006 82032 90600 333 10112 20090=
07314,1998-03-27 12:00:00,16,1020.9,-0.4,63,9,10000,3.704,,,160,,,,,,,,,,,wg-a,,,,AAXX 27124 07314 12/60 51602 10160 20090 30181 40209 58004 60006 81032 91200=
07314,1998-03-27 18:00:00,14,1016.9,-1.4,72,9,12000,11.112,,,50,8.8,16.5,,,,,,,,,wg-a,,,,AAXX 27184 07314 12/62 40506 10140 20090 30141 40169 56014 60006 83042 91800 333 10165 20088=
07314,1998-03-28 00:00:00,13,1014.6,-1.4,72,8,0,14.816,,,100,,,,,,,,,,,wg-a,,,,AAXX 28004 07314 12/// /1008 10130 20080 30118 40146 55014 60006 90000=
07314,1998-03-28 06:00:00,11,1012.1,-0.7,76,7,18000,11.112,,,120,11,14.7,,,,,,,,,wg-a,,,,AAXX 28064 07314 12/68 41206 10110 20070 30093 40121 56007 60006 82042 90600 333 10147 20110=
07314,1998-03-28 12:00:00,19,1011.3,-0.8,52,9,18000,42.596,,,170,,,,,,,,,,,wg-a,,,,AAXX 28124 07314 12/68 61723 10190 20090 30086 40113 56008 60006 83042 91200=
07314,1998-03-28 18:00:00,13,1010.6,-0.6,94,12,8000,18.52,,,170,11.4,19.7,,,,,,,,,wg-a,,,,AAXX 28184 07314 12/58 71710 10130 20120 30078 40106 58006 60006 84082 91800 333 10197 20114=
07314,1998-03-29 00:00:00,14,1009.1,-1.2,77,10,0,18.52,,,140,,,,,,,,,,,wg-a,,,,AAXX 29004 07314 12/// /1410 10140 20100 30064 40091 58012 60006 90000=
07314,1998-03-29 06:00:00,13,1005.3,-1.7,72,8,12000,29.632,,,130,12.2,15.4,,,,,,,,,wg-a,,,,AAXX 29064 07314 12/62 61316 10130 20080 30026 40053 56017 60006 85042 90600 333 10154 20122=
07314,1998-03-29 12:00:00,19,1005.3,-0.2,60,11,15000,25.928,,,130,,,,,,,,,,,wg-a,,,,AAXX 29124 07314 12/65 61314 10190 20110 30026 40053 56002 60006 85042 91200=
07314,1998-03-29 18:00:00,14,1007.3,1.6,82,11,12000,14.816,,,170,12.4,19.8,,,,,,,,,wg-a,,,,AAXX 29184 07314 12862 81708 10140 20110 30046 40073 51016 60006 8802/ 91800 333 10198 20124=
07314,1998-03-30 00:00:00,12,1010.7,1.5,100,12,8000,18.52,,53.708,180,,,,6,,,,,,60,wg-a,,,,AAXX 30004 07314 02758 81810 10120 20120 30079 40107 53015 60086 76062 8802/ 90000 333 60067 91029=
07314,1998-03-30 18:00:00,13,1018.4,0.2,77,9,18000,3.704,,,290,11.7,13.9,,,,,,,,,wg-a,,,,AAXX 30184 07314 12868 72902 10130 20090 30156 40184 51002 60006 86042 91800 333 10139 20117=
07314,1998-03-31 00:00:00,11,1018.2,-0.4,87,9,16000,7.408,,,60,,,,,,,,,,,wg-a,,,,AAXX 31004 07314 12866 60604 10110 20090 30154 40182 58004 60006 83042 90000=
07314,1998-03-31 06:00:00,11,1015.2,-1.2,94,10,2000,11.112,,,90,10.3,12.8,,0,,,,,,10,wg-a,,,,AAXX 31064 07314 12/20 20906 10110 20100 30124 40152 56012 60007 71000 82041 90600 333 10128 20103=
07314,1998-03-31 12:00:00,16,1012.7,-1.6,82,13,8000,11.112,,,80,,,,,,,,,,,wg-a,,,,AAXX 31124 07314 12458 40806 10160 20130 30100 40127 58016 60006 84100 91200=
07314,1998-03-31 18:00:00,16,1011.1,-0.7,72,11,20000,11.112,,,170,10.6,18.6,,,,,,,,,wg-a,,,,AAXX 31184 07314 12570 11706 10160 20110 30084 40111 57007 60006 81100 91800 333 10186 20106=
07314,1998-04-01 00:00:00,12,1014.6,1.4,100,12,8000,11.112,,,260,,,,,,,,,,,wg-a,,,,AAXX 01004 07314 12758 82606 10120 20120 30118 40146 51014 60006 8802/ 90000=
07314,1998-04-01 12:00:00,14,1015.6,-0.4,88,12,20000,25.928,,,190,,,,3,,,,,,1,wg-a,,,,AAXX 01124 07314 02570 61914 10140 20120 30128 40156 58004 60036 70182 82332 91200 333 60037=
07314,1998-04-01 18:00:00,13,1014.5,-0.6,94,12,20000,22.224,,,210,11.9,14.5,,1,,,,,,2,wg-a,,,,AAXX 01184 07314 12570 72112 10130 20120 30117 40145 58006 60017 70282 82578 91800 333 10145 20119=
07314,1998-04-02 00:00:00,12,1012.1,-2.1,94,11,0,22.224,,,180,,,,,,,,,,,wg-a,,,,AAXX 02004 07314 12/// /1812 10120 20110 30093 40121 56021 60026 90000=
07314,1998-04-02 06:00:00,12,1007.7,-0.6,94,11,9000,31.484,,,240,11.1,12.9,,2,,,,,,80,wg-a,,,,AAXX 02064 07314 12559 82417 10120 20110 30049 40077 55006 60027 78062 8572/ 90600 333 10129 20111=
07314,1998-04-02 12:00:00,14,1007.9,0,88,12,10000,29.632,,,220,,,,,,,,,,,wg-a,,,,AAXX 02124 07314 02560 72216 10140 20120 30052 40079 50000 61000 82342 91200 333 ////=
07314,1998-04-02 18:00:00,12,1003.5,-2.6,100,12,4000,42.596,,68.524,180,12.1,13.9,,4,,,,,,60,wg-a,,,,AAXX 02184 07314 12540 81823 10120 20120 30008 40035 57026 60047 76064 887// 91800 333 10139 20121 91037=
07314,1998-04-03 00:00:00,14,1000.9,-0.9,88,12,8000,46.3,,68.524,200,,,,2,,,,,,63,wg-a,,,,AAXX 03004 07314 02558 82025 10140 20120 39982 40009 55009 60026 76362 887// 90000 333 60027 91037=
07314,1998-04-03 06:00:00,12,999.9,0.4,94,11,8000,31.484,,79.636,230,11.4,14,,3,,,,,,60,wg-a,,,,AAXX 03064 07314 12558 82317 10120 20110 39972 49999 53004 60037 76062 887// 90600 333 10140 20114 91043=
07314,1998-04-03 12:00:00,12,998.4,-1.5,94,11,8000,42.596,,,200,,,,3,,,,,,60,wg-a,,,,AAXX 03124 07314 02458 82023 10120 20110 39957 49984 58015 60136 76062 887// 91200 333 60037=
07314,1998-04-03 18:00:00,10,998.4,-0.3,87,8,8000,46.3,,75.932,220,9.9,11.9,,4,,,,,,60,wg-a,,,,AAXX 03184 07314 12458 82225 10100 20080 39956 49984 55003 60047 76062 887// 91800 333 10119 20099 91041=
07314,1998-04-04 00:00:00,12,998.3,0.7,71,7,25000,46.3,,90.748,210,,,,0,,,,,,2,wg-a,,,,AAXX 04004 07314 02575 32125 10120 20070 39956 49983 50007 60066 70262 83900 90000 333 60007 91049=
07314,1998-04-04 06:00:00,12,999.9,1.4,82,9,6000,53.708,,94.452,220,9.8,12.7,,0,,,,,,81,wg-a,,,,AAXX 04064 07314 12556 82229 10120 20090 39972 49999 52014 60007 78182 888// 90600 333 10127 20098 91051=
07314,1998-04-04 12:00:00,13,1003,1.1,72,8,10000,50.004,,83.34,230,,,,,,,,,,2,wg-a,,,,AAXX 04124 07314 12560 72327 10130 20080 30003 40030 53011 60006 70282 8693/ 91200 333 91045=
07314,1998-04-04 18:00:00,12,1004.3,0.8,71,7,16000,42.596,,94.452,230,10.1,13.1,,1,,,,,,25,wg-a,,,,AAXX 04184 07314 12566 62323 10120 20070 30015 40043 51008 60017 72582 82232 91800 333 10131 20101 91051=
07314,1998-04-05 00:00:00,11,1002.4,-1.7,82,8,0,42.596,,,210,,,,2,,,,,,,wg-a,,,,AAXX 05004 07314 02/// /2123 10110 20080 39996 40024 58017 60026 90000 333 60027=
07314,1998-04-05 06:00:00,9,1003.5,1.7,87,7,12000,42.596,,68.524,270,8.6,11.8,,1,,,,,,87,wg-a,,,,AAXX 05064 07314 12562 82723 10090 20070 30007 40035 53017 60017 78782 883// 90600 333 10118 20086 91037=
07314,1998-04-05 12:00:00,13,1007.7,1.8,72,8,20000,35.188,,,230,,,,,,,,,,,wg-a,,,,AAXX 05124 07314 02570 32319 10130 20080 30049 40077 51018 61000 83900 91200 333 ////=
07314,1998-04-05 18:00:00,12,1009.7,0.8,88,10,20000,38.892,,,230,9,13.2,,,,,,,,,wg-a,,,,AAXX 05184 07314 32570 62321 10120 20100 30069 40097 53008 84340 91800 333 10132 20090=
07314,1998-04-06 00:00:00,12,1010.5,-0.2,88,10,20000,35.188,,61.116,240,,,,,,,,,,,wg-a,,,,AAXX 06004 07314 12570 62419 10120 20100 30077 40105 57002 60006 82202 90000 333 91033=
07314,1998-04-06 06:00:00,11,1009.1,-0.9,82,8,14000,42.596,,,220,9.8,12.3,,1,,,,,,,wg-a,,,,AAXX 06064 07314 12564 72223 10110 20080 30063 40091 58009 60017 8472/ 90600 333 10123 20098=
07314,1998-04-06 12:00:00,11,1009,0.2,82,8,20000,29.632,,,240,,,,0,,,,,,60,wg-a,,,,AAXX 06124 07314 02570 72416 10110 20080 30062 40090 50002 60016 76022 8272/ 91200 333 60007=
07314,1998-04-06 18:00:00,9,1005.2,-2.6,93,8,12000,0,,,0,9.3,12,,3,,,,,,50,wg-a,,,,AAXX 06184 07314 12562 80000 10090 20080 30024 40052 58026 60037 75065 8672/ 91800 333 10120 20093=
07314,1998-04-07 00:00:00,9,1000.3,-1.1,93,8,0,18.52,,,350,,,,,,,,,,,wg-a,,,,AAXX 07004 07314 12/// /3510 10090 20080 39975 40003 55011 60116 90000=
07314,1998-04-07 06:00:00,8,1003.5,2.4,93,7,500,25.928,,,300,8.1,10.3,,2,,,,,,62,wg-a,,,,AAXX 07064 07314 12500 73014 10080 20070 30007 40035 53024 60027 76286 8272/ 90600 333 10103 20081=
07314,1998-04-07 18:00:00,12,1008,1.2,76,8,20000,31.484,,,270,8.4,12,,0,,,,,,1,wg-a,,,,AAXX 07184 07314 12570 62717 10120 20080 30052 40080 53012 60007 70182 85202 91800 333 10120 20084=
07314,1998-04-08 00:00:00,10,1009.4,-0.1,82,7,0,11.112,,,230,,,,,,,,,,,wg-a,,,,AAXX 08004 07314 12/// /2306 10100 20070 30066 40094 56001 60016 90000=
07314,1998-04-08 06:00:00,10,1007,-1.2,82,7,16000,18.52,,,220,9,11.6,,2,,,,,,25,wg-a,,,,AAXX 08064 07314 12566 72210 10100 20070 30042 40070 56012 60027 72562 8794/ 90600 333 10116 20090=
07314,1998-04-08 12:00:00,12,1007.7,0.3,76,8,16000,22.224,,,290,,,,,,,,,,80,wg-a,,,,AAXX 08124 07314 02566 62912 10120 20080 30049 40077 50003 61000 78062 86940 91200 333 6100=
07314,1998-04-08 18:00:00,11,1004.9,-1.4,76,7,20000,29.632,,,260,10.1,12.1,,,,,,,,2,wg-a,,,,AAXX 08184 07314 32570 52616 10110 20070 30021 40049 58014 70262 85300 91800 333 10121 20101=
07314,1998-04-09 00:00:00,10,1000.5,-2.9,76,6,0,35.188,,,250,,,,1,,,,,,,wg-a,,,,AAXX 09004 07314 02/// /2519 10100 20060 39977 40005 56029 60016 90000 333 60017=
07314,1998-04-09 06:00:00,8,996.1,-1.7,81,5,15000,25.928,,72.228,230,8,11.4,,1,,,,,,25,wg-a,,,,AAXX 09064 07314 12565 72314 10080 20050 39933 49961 56017 60017 72582 82722 90600 333 10114 20080 91039=
07314,1998-04-09 12:00:00,10,994.2,-0.6,71,5,20000,35.188,,61.116,210,,,,2,,,,,,2,wg-a,,,,AAXX 09124 07314 02570 72119 10100 20050 39915 49942 58006 60056 70282 873// 91200 333 60027 91033=
07314,1998-04-09 18:00:00,9,994.5,0.1,71,4,25000,22.224,,,220,7.4,10.2,,,,,,,,2,wg-a,,,,AAXX 09184 07314 32575 62212 10090 20040 39917 49945 53001 70282 85302 91800 333 10102 20074=
07314,1998-04-10 00:00:00,8,992.5,-1.7,81,5,20000,46.3,,68.524,200,,,,0,,,,,,81,wg-a,,,,AAXX 10004 07314 02570 82025 10080 20050 39897 49925 58017 60016 78182 8272/ 90000 333 60007 91037=
07314,1998-04-10 06:00:00,9,990.2,-0.4,76,5,18000,25.928,,,260,7,9.5,,2,,,,,,25,wg-a,,,,AAXX 10064 07314 12568 82614 10090 20050 39875 49902 55004 60027 72522 8796/ 90600 333 10095 20070=
07314,1998-04-10 12:00:00,10,992.8,1.7,71,5,0,31.484,,,280,,,,,,,,,,,wg-a,,,,AAXX 10124 07314 02/// /2817 10100 20050 39901 49928 51017 60016 91200 333 61000=
07314,1998-04-10 18:00:00,9,996.6,2,76,5,16000,35.188,,57.412,280,6,9.9,,0,,,,,,60,wg-a,,,,AAXX 10184 07314 12566 82819 10090 20050 39938 49966 53020 60007 76082 86942 91800 333 10099 20060 91031=
07314,1998-04-11 00:00:00,7,999,0.2,81,4,0,38.892,,,270,,,,2,,,,,,,wg-a,,,,AAXX 11004 07314 02/// /2721 10070 20040 39962 49990 50002 60056 90000 333 60027=
07314,1998-04-11 06:00:00,6,998.6,0.5,87,4,8000,42.596,,72.228,240,4.4,9.2,,3,,,,,,62,wg-a,,,,AAXX 11064 07314 12558 72423 10060 20040 39958 49986 53005 60037 76262 877// 90600 333 10092 20044 91039=
07314,1998-04-11 12:00:00,10,1000.5,1.2,76,6,25000,25.928,,75.932,300,,,,,,,,,,2,wg-a,,,,AAXX 11124 07314 02575 63014 10100 20060 39977 40005 52012 60046 70262 85942 91200 333 61000 91041=
07314,1998-04-11 18:00:00,9,1003.2,1.5,76,5,22000,35.188,,,320,6,10.2,,,,,,,,,wg-a,,,,AAXX 11184 07314 32572 73219 10090 20050 30004 40032 53015 8536/ 91800 333 10102 20060=
07314,1998-04-12 00:00:00,8,1006.6,0.9,76,4,0,31.484,,,330,,,,,,,,,,,wg-a,,,,AAXX 12004 07314 12/// /3317 10080 20040 30038 40066 51009 60006 90000=
07314,1998-04-12 06:00:00,5,1008.4,1.4,87,3,16000,46.3,,72.228,330,4.6,9.6,,2,,,,,,80,wg-a,,,,AAXX 12064 07314 12566 83325 10050 20030 30056 40084 53014 60027 78022 888// 90600 333 10096 20046 91039=
07314,1998-04-12 12:00:00,8,1012.3,0.8,71,3,0,18.52,,,290,,,,,,,,,,,wg-a,,,,AAXX 12124 07314 12/// /2910 10080 20030 30095 40123 51008 60026 91200=
07314,1998-04-12 18:00:00,7,1011.6,0.1,70,2,18000,29.632,,72.228,270,4,9.1,,1,,,,,,25,wg-a,,,,AAXX 12184 07314 12468 72716 10070 20020 30088 40116 52001 60017 72522 8537/ 91800 333 10091 20040 91039=
07314,1998-04-13 00:00:00,4,1011.7,-0.4,81,1,18000,31.484,,64.82,320,,,,2,,,,,,81,wg-a,,,,AAXX 13004 07314 02468 73217 10040 20010 30088 40117 58004 60026 78122 8637/ 90000 333 60027 91035=
07314,1998-04-13 06:00:00,4,1011.8,0.6,87,2,18000,18.52,,,350,3.5,7.4,,,,,,,,25,wg-a,,,,AAXX 13064 07314 02568 73510 10040 20020 30090 40118 53006 61000 72582 86202 90600 333 10074 20035 ////=
07314,1998-04-13 12:00:00,8,1014.4,0.6,61,1,22000,18.52,,,300,,,,,,,,,,,wg-a,,,,AAXX 13124 07314 12572 53010 10080 20010 30116 40144 50006 60006 85200 91200=
07314,1998-04-13 18:00:00,8,1012.6,-0.7,49,-2,22000,25.928,,,280,4.3,8.4,,,,,,,,,wg-a,,,,AAXX 13184 07314 12572 42814 10080 21020 30098 40126 56007 60006 82202 91800 333 10084 20043=
07314,1998-04-14 00:00:00,5,1010.5,-1.5,75,1,20000,0,,,0,,,,1,,,,,,25,wg-a,,,,AAXX 14004 07314 02570 70000 10050 20010 30077 40105 56015 60016 72511 84202 90000 333 60017=
07314,1998-04-14 06:00:00,4,1006.5,-1.6,93,3,20000,14.816,,50.004,130,3.9,8,,,,,,,,,wg-a,,,,AAXX 14064 07314 32570 51308 10040 20030 30037 40065 56016 83241 90600 333 10080 20039 91027=
07314,1998-04-14 12:00:00,11,1003.2,-1.7,71,6,20000,35.188,,,170,,,,0,,,,,,50,wg-a,,,,AAXX 14124 07314 02470 71719 10110 20060 30004 40032 58017 60016 75082 86741 91200 333 60007=
07314,1998-04-14 18:00:00,11,998.7,-2.5,76,7,20000,31.484,,,180,4.1,12,,0,,,,,,80,wg-a,,,,AAXX 14184 07314 12570 81817 10110 20070 39960 49987 56025 60007 78022 8477/ 91800 333 10120 20041=
07314,1998-04-15 00:00:00,11,997.4,-0.8,82,8,0,31.484,,,200,,,,,,,,,,,wg-a,,,,AAXX 15004 07314 12/// /2017 10110 20080 39947 49974 58008 60106 90000=
07314,1998-04-15 06:00:00,10,995.9,-0.2,87,8,20000,18.52,,,210,9.4,10.7,,2,,,,,,21,wg-a,,,,AAXX 15064 07314 12570 62110 10100 20080 39932 49959 55002 60027 72182 85330 90600 333 10107 20094=
07314,1998-04-15 12:00:00,8,1000,3,61,1,23000,29.632,,,330,,,,,,,,,,2,wg-a,,,,AAXX 15124 07314 12473 83316 10080 20010 39972 40000 51030 60036 70282 8115/ 91200=
07314,1998-04-15 18:00:00,9,1003.7,2.3,66,3,23000,38.892,,,290,6.5,11.4,,,,,,,,,wg-a,,,,AAXX 15184 07314 32573 52921 10090 20030 30009 40037 52023 84202 91800 333 10114 20065=
07314,1998-04-16 00:00:00,9,1005.2,-0.7,61,2,20000,25.928,,,270,,,,,,,,,,,wg-a,,,,AAXX 16004 07314 12570 52714 10090 20020 30024 40052 58007 60006 82208 90000=
07314,1998-04-16 06:00:00,10,998.9,-4.3,71,5,15000,42.596,,,190,7.4,9.8,,0,,,,,,60,wg-a,,,,AAXX 16064 07314 12565 81923 10100 20050 39961 49989 56043 60007 76022 8252/ 90600 333 10098 20074=
07314,1998-04-16 12:00:00,10,989.9,-4.6,87,8,15000,61.116,,90.748,180,,,,6,,,,,,63,wg-a,,,,AAXX 16124 07314 02565 81833 10100 20080 39872 49899 58046 60086 76322 8552/ 91200 333 60067 91049=
07314,1998-04-16 18:00:00,11,982.5,-5.4,87,9,10000,53.708,,94.452,200,8.9,12.7,,4,,,,,,63,wg-a,,,,AAXX 16184 07314 12560 72029 10110 20090 39798 49825 58054 60047 76322 8572/ 91800 333 10127 20089 91051=
07314,1998-04-17 00:00:00,10,988.3,4.6,82,7,0,64.82,,,300,,,,1,,,,,,,wg-a,,,,AAXX 17004 07314 02/// /3035 10100 20070 39856 49883 53046 60016 90000 333 60017=
07314,1998-04-17 06:00:00,9,995.7,2.6,71,4,17000,53.708,,96.304,300,8.1,11.8,,,,,,,,2,wg-a,,,,AAXX 17064 07314 32567 63029 10090 20040 39929 49957 51026 70282 86200 90600 333 10118 20081 91052=
07314,1998-04-17 12:00:00,10,998.8,1.2,66,4,20000,46.3,,79.636,290,,,,0,,,,,,25,wg-a,,,,AAXX 17124 07314 02570 72925 10100 20040 39960 49988 51012 60006 72522 85302 91200 333 60007 91043=
07314,1998-04-17 18:00:00,9,1004.2,3.2,71,4,17000,46.3,,79.636,340,8.3,10.9,,,,,,,,2,wg-a,,,,AAXX 17184 07314 32567 83425 10090 20040 30014 40042 53032 70282 86308 91800 333 10109 20083 91043=
07314,1998-04-18 00:00:00,9,1009,1.7,66,3,0,42.596,,,320,,,,,,,,,,,wg-a,,,,AAXX 18004 07314 12/// /3223 10090 20030 30062 40090 52017 60006 90000=
07314,1998-04-18 12:00:00,12,1011.5,0.2,62,5,20000,25.928,,61.116,290,,,,0,,,,,,80,wg-a,,,,AAXX 18124 07314 02470 62914 10120 20050 30087 40115 50002 60006 78011 84232 91200 333 60007 91033=
07314,1998-04-18 18:00:00,11,1011.7,0.3,71,6,25000,25.928,,,270,8.6,12,,,,,,,,,wg-a,,,,AAXX 18184 07314 32575 42714 10110 20060 30089 40117 53003 83202 91800 333 10120 20086=
07314,1998-04-19 00:00:00,11,1012,-0.4,71,6,25000,18.52,,,250,,,,,,,,,,,wg-a,,,,AAXX 19004 07314 12575 12510 10110 20060 30092 40120 57004 60006 81100 90000=
07314,1998-04-19 06:00:00,11,1010.7,-0.1,82,8,25000,14.816,,,210,9.6,11,,,,,,,,,wg-a,,,,AAXX 19064 07314 12575 82108 10110 20080 30079 40107 55001 60006 8227/ 90600 333 10110 20096=
07314,1998-04-19 12:00:00,13,1011,0.1,82,10,25000,22.224,,,210,,,,0,,,,,,21,wg-a,,,,AAXX 19124 07314 02475 72112 10130 20100 30082 40110 52001 60016 72162 82232 91200 333 60007=
07314,1998-04-19 18:00:00,12,1010.8,-0,88,10,20000,25.928,,,190,10.5,13.8,,,,,,,,,wg-a,,,,AAXX 19184 07314 32870 81914 10120 20100 30080 40108 54000 8807/ 91800 333 10138 20105=
07314,1998-04-20 00:00:00,12,1011.6,0,94,11,0,22.224,,,190,,,,,,,,,,,wg-a,,,,AAXX 20004 07314 12/// /1912 10120 20110 30088 40116 50000 60006 90000=
07314,1998-04-20 06:00:00,10,1013,2,100,10,18000,7.408,,,270,10.2,12.4,,3,,,,,,,wg-a,,,,AAXX 20064 07314 12868 52704 10100 20100 30102 40130 53020 60037 84042 90600 333 10124 20102=
07314,1998-04-20 12:00:00,13,1016.2,1.3,94,12,18000,14.816,,,220,,,,,,,,,,,wg-a,,,,AAXX 20124 07314 12568 62208 10130 20120 30134 40162 51013 60006 82242 91200=
07314,1998-04-20 18:00:00,13,1017.2,0.5,88,11,25000,11.112,,,230,10.3,14,,,,,,,,,wg-a,,,,AAXX 20184 07314 12575 62306 10130 20110 30144 40172 50005 60006 82242 91800 333 10140 20103=
07314,1998-04-21 00:00:00,10,1018.4,-0.2,87,8,0,7.408,,,160,,,,,,,,,,,wg-a,,,,AAXX 21004 07314 12/// /1604 10100 20080 30156 40184 58002 60006 90000=
07314,1998-04-21 06:00:00,10,1016.7,-0.5,93,9,8000,18.52,,,130,8.9,12.9,,0,,,,,,2,wg-a,,,,AAXX 21064 07314 12458 61310 10100 20090 30139 40167 58005 60007 70282 81671 90600 333 10129 20089=
07314,1998-04-21 12:00:00,17,1014.4,-1.7,77,13,20000,11.112,,,110,,,,,,,,,,,wg-a,,,,AAXX 21124 07314 12570 61106 10170 20130 30117 40144 56017 60006 81232 91200=
07314,1998-04-21 18:00:00,15,1012.5,-0.6,77,11,20000,3.704,,,200,9.4,19,,,,,,,,,wg-a,,,,AAXX 21184 07314 12570 52002 10150 20110 30098 40125 58006 60006 81202 91800 333 10190 20094=
07314,1998-04-22 00:00:00,13,1011.1,-1.1,94,12,0,11.112,,,50,,,,,,,,,,,wg-a,,,,AAXX 22004 07314 12/// /0506 10130 20120 30083 40111 56011 60006 90000=
07314,1998-04-22 06:00:00,12,1008.9,-0.5,94,11,8000,18.52,,,130,12.2,15.5,,0,,,,,,2,wg-a,,,,AAXX 22064 07314 12558 41310 10120 20110 30061 40089 57005 60007 70261 84400 90600 333 10155 20122=
07314,1998-04-22 12:00:00,15,1008.9,0.3,77,11,18000,31.484,,,170,,,,,,,,,,,wg-a,,,,AAXX 22124 07314 12/68 61717 10150 20110 30062 40089 50003 60006 86080 91200=
07314,1998-04-22 18:00:00,13,1012.3,2.2,94,12,8000,25.928,,,250,12.4,18.6,,,,,,,,,wg-a,,,,AAXX 22184 07314 12558 62514 10130 20120 30095 40123 53022 60006 82180 91800 333 10186 20124=
07314,1998-04-23 00:00:00,12,1016,1.6,94,11,20000,18.52,,,250,,,,,,,,,,,wg-a,,,,AAXX 23004 07314 12/70 22510 10120 20110 30132 40160 51016 60006 82040 90000=
07314,1998-04-23 06:00:00,12,1017.4,0.9,88,10,20000,18.52,,,230,11.8,13.2,,,,,,,,,wg-a,,,,AAXX 23064 07314 12470 32310 10120 20100 30146 40174 53009 60006 82140 90600 333 10132 20118=
07314,1998-04-23 12:00:00,13,1017.8,-0.3,88,11,0,42.596,,,200,,,,,,,,,,,wg-a,,,,AAXX 23124 07314 12/// /2023 10130 20110 30150 40178 58003 60006 91200=
07314,1998-04-23 18:00:00,13,1019.4,1.3,94,12,8000,22.224,,,250,11.7,13.8,,0,,,,,,1,wg-a,,,,AAXX 23184 07314 12558 42512 10130 20120 30166 40194 53013 60007 70162 84841 91800 333 10138 20117=
07314,1998-04-24 00:00:00,13,1022.1,1,88,11,0,22.224,,,230,,,,,,,,,,,wg-a,,,,AAXX 24004 07314 12/// /2312 10130 20110 30193 40221 51010 60006 90000=
07314,1998-04-24 06:00:00,12,1023.1,0.8,94,11,8000,22.224,,,220,12.3,13.1,,,,,,,,,wg-a,,,,AAXX 24064 07314 12/58 72212 10120 20110 30203 40231 53008 60006 8707/ 90600 333 10131 20123=
07314,1998-04-24 18:00:00,13,1024,-0.3,94,12,500,22.224,,,220,12.1,14.2,,,,,,,,,wg-a,,,,AAXX 24184 07314 32500 82212 10130 20120 30212 40240 56003 886// 91800 333 10142 20121=
07314,1998-04-25 00:00:00,13,1022.3,-0.6,94,12,10000,25.928,,,190,,,,,,,,,,,wg-a,,,,AAXX 25004 07314 12/60 31914 10130 20120 30195 40223 58006 60006 80002 90000=
07314,1998-04-25 06:00:00,13,1019.5,-1.5,94,12,8000,14.816,,,180,12.6,13.1,,1,,,,,,2,wg-a,,,,AAXX 25064 07314 12558 81808 10130 20120 30167 40195 56015 60017 70262 888// 90600 333 10131 20126=
07314,1998-04-25 12:00:00,14,1017.2,-1.1,94,13,12000,11.112,,,150,,,,2,,,,,,21,wg-a,,,,AAXX 25124 07314 02562 81506 10140 20130 30144 40172 58011 60056 72162 888// 91200 333 60027=
07314,1998-04-25 18:00:00,14,1014,-0.6,94,13,8000,18.52,,,220,12.7,15.4,,0,,,,,,2,wg-a,,,,AAXX 25184 07314 12558 82210 10140 20130 30112 40140 56006 60007 70262 888// 91800 333 10154 20127=
07314,1998-04-26 00:00:00,12,1013,-0.8,94,11,0,14.816,,,270,,,,,,,,,,,wg-a,,,,AAXX 26004 07314 12/// /2708 10120 20110 30102 40130 55008 60106 90000=
07314,1998-04-26 06:00:00,11,1011.1,-0.4,94,10,15000,22.224,,,200,10.7,13.9,,2,,,,,,60,wg-a,,,,AAXX 26064 07314 12465 82012 10110 20100 30083 40111 58004 60027 76062 8577/ 90600 333 10139 20107=
07314,1998-04-26 12:00:00,13,1010.1,-0.9,82,10,2000,18.52,,,240,,,,,,,,,,2,wg-a,,,,AAXX 26124 07314 12520 72410 10130 20100 30073 40101 58009 60016 70262 8322/ 91200=
07314,1998-04-26 18:00:00,12,1008.4,-0.7,82,9,20000,25.928,,,270,10.7,13.1,,,,,,,,,wg-a,,,,AAXX 26184 07314 32570 62714 10120 20090 30056 40084 58007 83202 91800 333 10131 20107=
07314,1998-04-27 00:00:00,10,1007.3,-1.1,82,7,20000,18.52,,,280,,,,0,,,,,,60,wg-a,,,,AAXX 27004 07314 02670 82810 10100 20070 30045 40073 56011 60016 76062 8807/ 90000 333 60007=
07314,1998-04-27 06:00:00,11,1006.1,-0.2,76,7,20000,25.928,,,270,10.3,12.5,,,,,,,,21,wg-a,,,,AAXX 27064 07314 02470 62714 10110 20070 30033 40061 55002 61000 72122 85901 90600 333 10125 20103 ////=
07314,1998-04-27 12:00:00,13,1007.9,0.8,72,8,20000,25.928,,,260,,,,,,,,,,2,wg-a,,,,AAXX 27124 07314 12470 62614 10130 20080 30051 40079 51008 60006 70282 85902 91200=
07314,1998-04-27 18:00:00,12,1009.3,0.9,76,8,25000,29.632,,,280,10.4,13,,,,,,,,,wg-a,,,,AAXX 27184 07314 32475 42816 10120 20080 30065 40093 53009 84300 91800 333 10130 20104=
07314,1998-04-28 00:00:00,10,1010.1,-0.3,76,6,20000,29.632,,,250,,,,0,,,,,,,wg-a,,,,AAXX 28004 07314 02470 62516 10100 20060 30073 40101 58003 60006 86300 90000 333 60007=
07314,1998-04-28 06:00:00,10,1009.5,0.1,82,7,20000,14.816,,,290,9.4,12.2,,0,,,,,,25,wg-a,,,,AAXX 28064 07314 12570 62908 10100 20070 30067 40095 53001 60007 72582 85960 90600 333 10122 20094=
07314,1998-04-28 12:00:00,13,1008.6,-0.7,77,9,20000,22.224,,,190,,,,,,,,,,,wg-a,,,,AAXX 28124 07314 12570 41912 10130 20090 30059 40086 58007 60006 82460 91200=
07314,1998-04-28 18:00:00,13,1005.1,-1.9,77,9,20000,18.52,,,180,10.1,14.1,,,,,,,,,wg-a,,,,AAXX 28184 07314 12570 61810 10130 20090 30024 40051 58019 60006 81152 91800 333 10141 20101=
07314,1998-04-29 00:00:00,13,1000.7,-2.6,94,12,25000,22.224,,,230,,,,2,,,,,,60,wg-a,,,,AAXX 29004 07314 02475 82312 10130 20120 39980 40007 56026 60036 76062 8277/ 90000 333 60027=
07314,1998-04-29 06:00:00,10,998.6,0.5,93,9,12000,25.928,,75.932,170,9.2,13,,7,,,,,,21,wg-a,,,,AAXX 29064 07314 12462 81714 10100 20090 39958 49986 51005 60077 72162 8272/ 90600 333 10130 20092 91041=
07314,1998-04-29 12:00:00,12,999.4,0.7,88,10,19000,35.188,,,170,,,,0,,,,,,2,wg-a,,,,AAXX 29124 07314 02569 61719 10120 20100 39967 49994 51007 60016 70286 8224/ 91200 333 60007=
07314,1998-04-29 18:00:00,13,1000.6,0.4,82,10,25000,11.112,,,240,10.1,14.5,,,,,,,,,wg-a,,,,AAXX 29184 07314 32475 52406 10130 20100 39979 40006 52004 83231 91800 333 10145 20101=
07314,1998-04-30 00:00:00,11,1002.6,0.6,87,9,0,3.704,,,350,,,,,,,,,,,wg-a,,,,AAXX 30004 07314 12/// /3502 10110 20090 39998 40026 52006 60006 90000=
07314,1998-04-30 06:00:00,11,1003.4,0.9,94,10,12000,11.112,,,10,10.3,12.7,,,,,,,,,wg-a,,,,AAXX 30064 07314 12562 70106 10110 20100 30006 40034 52009 60006 8127/ 90600 333 10127 20103=
07314,1998-04-30 12:00:00,13,1005.2,0.7,82,10,20000,14.816,,,360,,,,0,,,,,,,wg-a,,,,AAXX 30124 07314 02570 73608 10130 20100 30025 40052 51007 60006 8327/ 91200 333 60007=
07314,1998-04-30 18:00:00,13,1007.4,1.7,82,10,25000,11.112,,,310,11.2,14.8,,,,,,,,2,wg-a,,,,AAXX 30184 07314 32575 53106 10130 20100 30047 40074 53017 70282 81232 91800 333 10148 20112=
07314,1998-05-01 00:00:00,13,1010.7,1.2,94,12,20000,18.52,,,360,,,,,,,,,,,wg-a,,,,AAXX 01004 07314 12870 63610 10130 20120 30079 40107 51012 60006 81032 90000=
07314,1998-05-01 06:00:00,11,1012.9,1.4,87,9,3500,29.632,,,30,11,13.3,,0,,,,,,50,wg-a,,,,AAXX 01064 07314 12535 80316 10110 20090 30101 40129 53014 60007 75065 885// 90600 333 10133 20110=
07314,1998-05-01 12:00:00,13,1014.2,0.1,82,10,14000,18.52,,,20,,,,,,,,,,2,wg-a,,,,AAXX 01124 07314 02564 80210 10130 20100 30114 40142 50001 61000 70252 88500 91200 333 ////=
07314,1998-05-01 18:00:00,13,1013.3,-0.2,82,10,18000,29.632,,,10,10.8,14.1,,,,,,,,,wg-a,,,,AAXX 01184 07314 32568 70116 10130 20100 30105 40133 55002 875// 91800 333 10141 20108=
07314,1998-05-02 00:00:00,11,1014.6,0.3,82,8,16000,31.484,,,10,,,,,,,,,,,wg-a,,,,AAXX 02004 07314 12566 80117 10110 20080 30118 40146 50003 60006 885// 90000=
07314,1998-05-02 06:00:00,10,1014.9,1,87,8,7000,18.52,,,20,9.7,12.8,,,,,,,,,wg-a,,,,AAXX 02064 07314 12557 70210 10100 20080 30121 40149 53010 60006 875// 90600 333 10128 20097=
07314,1998-05-02 12:00:00,14,1015.7,0.1,77,10,8000,14.816,,,340,,,,,,,,,,,wg-a,,,,AAXX 02124 07314 12558 63408 10140 20100 30129 40157 50001 60006 86500 91200=
07314,1998-05-02 18:00:00,13,1015.1,0.1,82,10,10000,22.224,,,350,10,14.2,,,,,,,,,wg-a,,,,AAXX 02184 07314 12560 73512 10130 20100 30123 40151 53001 60006 87500 91800 333 10142 20100=
07314,1998-05-03 06:00:00,8,1013.4,-0.3,93,7,8000,35.188,,,20,8.2,13.2,,,,,,,,61,wg-a,,,,AAXX 03064 07314 02558 80219 10080 20070 30106 40134 55003 61000 76165 887// 90600 333 10132 20082 ////=
07314,1998-05-03 12:00:00,10,1014.1,0.1,82,7,14000,38.892,,,30,,,,,,,,,,61,wg-a,,,,AAXX 03124 07314 02564 80321 10100 20070 30113 40141 51001 61000 76165 887// 91200 333 6100=
07314,1998-05-03 18:00:00,12,1013.9,0.1,76,8,18000,18.52,,,50,8.2,12.2,,,,,,,,2,wg-a,,,,AAXX 03184 07314 32568 80510 10120 20080 30111 40139 53001 70262 885// 91800 333 10122 20082=
07314,1998-05-04 00:00:00,10,1015.6,0.6,87,8,0,38.892,,,10,,,,,,,,,,,wg-a,,,,AAXX 04004 07314 12/// /0121 10100 20080 30128 40156 53006 60006 90000=
07314,1998-05-04 06:00:00,9,1016.4,1,81,6,18000,38.892,,,10,8.6,12.3,,,,,,,,,wg-a,,,,AAXX 04064 07314 12568 20121 10090 20060 30136 40164 53010 60006 82500 90600 333 10123 20086=
07314,1998-05-04 12:00:00,11,1017.7,0.3,71,6,18000,25.928,,,350,,,,,,,,,,,wg-a,,,,AAXX 04124 07314 12568 83514 10110 20060 30149 40177 50003 60006 885// 91200=
07314,1998-05-04 18:00:00,14,1017.1,-0.1,77,10,20000,14.816,,,330,8.8,14.3,,,,,,,,,wg-a,,,,AAXX 04184 07314 12/70 23308 10140 20100 30143 40171 55001 60006 80002 91800 333 10143 20088=
07314,1998-05-05 00:00:00,11,1018.8,0.4,76,7,25000,29.632,,,360,,,,,,,,,,,wg-a,,,,AAXX 05004 07314 12/75 03616 10110 20070 30160 40188 50004 60006 80000 90000=
07314,1998-05-05 06:00:00,9,1018.8,0.4,87,7,8000,14.816,,,350,8.9,14,,,,,,,,,wg-a,,,,AAXX 05064 07314 12/58 13508 10090 20070 30160 40188 53004 60006 80001 90600 333 10140 20089=
07314,1998-05-05 18:00:00,13,1018.4,-0.2,82,10,18000,29.632,,,290,9.4,13.7,,,,,,,,,wg-a,,,,AAXX 05184 07314 12468 22916 10130 20100 30156 40184 56002 60006 82101 91800 333 10137 20094=
07314,1998-05-06 00:00:00,12,1018.2,-0.7,82,9,0,29.632,,,270,,,,,,,,,,,wg-a,,,,AAXX 06004 07314 12/// /2716 10120 20090 30154 40182 58007 60006 90000=
07314,1998-05-06 06:00:00,12,1017.4,0.3,82,9,15000,25.928,,,250,11.6,12.6,,,,,,,,,wg-a,,,,AAXX 06064 07314 12565 82514 10120 20090 30146 40174 53003 60006 885// 90600 333 10126 20116=
07314,1998-05-06 12:00:00,13,1018.6,0.6,82,10,15000,25.928,,,230,,,,,,,,,,,wg-a,,,,AAXX 06124 07314 12565 82314 10130 20100 30158 40186 51006 60006 888// 91200=
07314,1998-05-06 18:00:00,13,1018.7,0.1,82,10,20000,18.52,,,240,12.1,14,,,,,,,,,wg-a,,,,AAXX 06184 07314 12570 32410 10130 20100 30159 40187 53001 60006 81231 91800 333 10140 20121=
07314,1998-05-07 00:00:00,12,1019,-0.2,88,10,20000,14.816,,,220,,,,,,,,,,,wg-a,,,,AAXX 07004 07314 12570 32208 10120 20100 30162 40190 58002 60006 83100 90000=
07314,1998-05-07 06:00:00,11,1018.9,0.6,87,9,18000,11.112,,,130,10.1,13.1,,,,,,,,,wg-a,,,,AAXX 07064 07314 12568 41306 10110 20090 30161 40189 53006 60006 84500 90600 333 10131 20101=
07314,1998-05-07 12:00:00,17,1018.2,-0.7,77,13,16000,7.408,,,20,,,,,,,,,,,wg-a,,,,AAXX 07124 07314 12/66 00204 10170 20130 30155 40182 58007 60006 80000 91200=
07314,1998-05-07 18:00:00,20,1015.9,-0.9,53,10,16000,11.112,,,90,10.6,22.8,,,,,,,,,wg-a,,,,AAXX 07184 07314 12/66 00906 10200 20100 30132 40159 56009 60006 80000 91800 333 10228 20106=
07314,1998-05-08 00:00:00,15,1016.7,-0.2,67,9,25000,14.816,,,140,,,,,,,,,,,wg-a,,,,AAXX 08004 07314 12/75 01408 10150 20090 30139 40167 56002 60006 80000 90000=
07314,1998-05-08 06:00:00,14,1017,0.5,67,8,25000,18.52,,,140,13.1,20.3,,,,,,,,,wg-a,,,,AAXX 08064 07314 12875 31410 10140 20080 30142 40170 53005 60006 83040 90600 333 10203 20131=
07314,1998-05-08 12:00:00,23,1017.4,-0.2,47,11,20000,18.52,,,150,,,,,,,,,,,wg-a,,,,AAXX 08124 07314 12870 51510 10230 20110 30147 40174 58002 60006 85040 91200=
07314,1998-05-08 18:00:00,21,1016.7,-0.2,64,14,16000,18.52,,,140,14,25.2,,,,,,,,,wg-a,,,,AAXX 08184 07314 12866 71410 10210 20140 30140 40167 57002 60006 83042 91800 333 10252 20140=
07314,1998-05-09 00:00:00,16,1018.8,0.7,77,12,0,14.816,,,140,,,,,,,,,,,wg-a,,,,AAXX 09004 07314 12/// /1408 10160 20120 30161 40188 51007 60006 90000=
07314,1998-05-09 06:00:00,15,1020.1,0.8,72,10,20000,14.816,,,150,14.8,21.4,,,,,,,,,wg-a,,,,AAXX 09064 07314 12/70 51508 10150 20100 30173 40201 53008 60006 84072 90600 333 10214 20148=
07314,1998-05-09 12:00:00,17,1020.8,0.3,82,14,20000,14.816,,,190,,,,,,,,,,,wg-a,,,,AAXX 09124 07314 12/70 21908 10170 20140 30181 40208 50003 60006 82030 91200=
07314,1998-05-09 18:00:00,16,1018.1,-1.7,88,14,12000,7.408,,,330,15.2,19.2,,,,,,,,,wg-a,,,,AAXX 09184 07314 12/62 23304 10160 20140 30154 40181 58017 60006 80002 91800 333 10192 20152=
07314,1998-05-10 00:00:00,15,1017.1,-1.1,82,12,18000,11.112,,,50,,,,,,,,,,,wg-a,,,,AAXX 10004 07314 12/68 40506 10150 20120 30144 40171 56011 60006 80002 90000=
07314,1998-05-10 06:00:00,15,1015.3,-0.6,82,12,18000,14.816,,,100,14.4,16.2,,,,,,,,,wg-a,,,,AAXX 10064 07314 12568 31008 10150 20120 30126 40153 58006 60006 81202 90600 333 10162 20144=
07314,1998-05-10 12:00:00,20,1014.9,0.8,73,15,18000,7.408,,,180,,,,,,,,,,,wg-a,,,,AAXX 10124 07314 12/68 61804 10200 20150 30122 40149 50008 60006 80002 91200=
07314,1998-05-10 18:00:00,20,1012.7,-1,64,13,18000,3.704,,,70,15.2,22.4,,,,,,,,,wg-a,,,,AAXX 10184 07314 12/68 70702 10200 20130 30100 40127 57010 60006 81032 91800 333 10224 20152=
07314,1998-05-11 00:00:00,19,1010.9,-0.4,78,15,18000,14.816,,,90,,,,,,,,,,,wg-a,,,,AAXX 11004 07314 12/68 70908 10190 20150 30082 40109 56004 60006 85032 90000=
07314,1998-05-11 06:00:00,17,1011.4,-0,82,14,10000,7.408,,,110,16,20.3,,,,,,,,,wg-a,,,,AAXX 11064 07314 12/60 71104 10170 20140 30087 40114 55000 60006 8704/ 90600 333 10203 20160=
07314,1998-05-11 12:00:00,24,1012.9,0.6,44,11,22000,14.816,,,180,,,,,,,,,,,wg-a,,,,AAXX 11124 07314 12/72 31808 10240 20110 30102 40129 51006 60006 80002 91200=
07314,1998-05-11 18:00:00,17,1013.8,-0,82,14,22000,7.408,,,270,17,23.7,,,,,,,,,wg-a,,,,AAXX 11184 07314 12/72 72704 10170 20140 30111 40138 55000 60006 84042 91800 333 10237 20170=
07314,1998-05-12 00:00:00,15,1015.2,0.1,82,12,0,11.112,,,80,,,,,,,,,,,wg-a,,,,AAXX 12004 07314 12/// /0806 10150 20120 30125 40152 53001 60006 90000=
07314,1998-05-12 06:00:00,15,1015.8,0.7,82,12,20000,11.112,,,100,13.9,17.1,,,,,,,,,wg-a,,,,AAXX 12064 07314 12/70 51006 10150 20120 30131 40158 53007 60006 81032 90600 333 10171 20139=
07314,1998-05-12 12:00:00,23,1016.2,-0.2,65,16,20000,7.408,,,10,,,,,,,,,,,wg-a,,,,AAXX 12124 07314 12/70 60104 10230 20160 30135 40162 58002 60006 81038 91200=
07314,1998-05-12 18:00:00,18,1016.2,-0.1,77,14,20000,25.928,,,320,15.1,22.8,,,,,,,,,wg-a,,,,AAXX 12184 07314 12/70 83214 10180 20140 30135 40162 55001 60006 86078 91800 333 10228 20151=
07314,1998-05-13 00:00:00,16,1017.1,0,94,15,20000,7.408,,,10,,,,,,,,,,,wg-a,,,,AAXX 13004 07314 12/70 20104 10160 20150 30144 40171 50000 60006 80002 90000=
07314,1998-05-13 06:00:00,16,1017.5,0.3,94,15,7000,7.408,,,140,14.3,17.8,,,,,,,,,wg-a,,,,AAXX 13064 07314 12/57 61404 10160 20150 30148 40175 53003 60006 8604/ 90600 333 10178 20143=
07314,1998-05-13 12:00:00,19,1018.5,-0,83,16,7000,3.704,,,260,,,,,,,,,,,wg-a,,,,AAXX 13124 07314 12/57 72602 10190 20160 30158 40185 55000 60006 8704/ 91200=
07314,1998-05-13 18:00:00,18,1016.7,-0.8,88,16,16000,22.224,,,310,15.5,19.9,,,,,,,,,wg-a,,,,AAXX 13184 07314 12/66 33112 10180 20160 30140 40167 56008 60006 81032 91800 333 10199 20155=
07314,1998-05-14 00:00:00,17,1016.9,-0.9,88,15,12000,11.112,,,350,,,,,,,,,,,wg-a,,,,AAXX 14004 07314 12/62 33506 10170 20150 30142 40169 57009 60006 80002 90000=
07314,1998-05-14 06:00:00,16,1017,0.5,94,15,7000,7.408,,,70,15.5,18,,,,,,,,,wg-a,,,,AAXX 14064 07314 32/57 20704 10160 20150 30143 40170 53005 80001 90600 333 10180 20155=
07314,1998-05-14 12:00:00,25,1017.3,0,61,17,15000,7.408,,,350,,,,,,,,,,,wg-a,,,,AAXX 14124 07314 12/65 13504 10250 20170 30146 40173 50000 60006 80001 91200=
07314,1998-05-14 18:00:00,20,1015.9,-0.4,83,17,7000,22.224,,,320,16.2,24.9,,,,,,,,,wg-a,,,,AAXX 14184 07314 12557 33212 10200 20170 30132 40159 55004 60006 81932 91800 333 10249 20162=
07314,1998-05-15 00:00:00,19,1016.1,-0.1,88,17,0,18.52,,,10,,,,,,,,,,,wg-a,,,,AAXX 15004 07314 12/// /0110 10190 20170 30134 40161 58001 60016 90000=
07314,1998-05-15 06:00:00,18,1016.6,1.5,88,16,8000,11.112,,,70,17.1,21.9,,,,,,,,,wg-a,,,,AAXX 15064 07314 32/58 20706 10180 20160 30139 40166 53015 80001 90600 333 10219 20171=
07314,1998-05-15 12:00:00,19,1016.9,-0.6,94,18,3000,11.112,,,300,,,,,,,,,,10,wg-a,,,,AAXX 15124 07314 12/30 23006 10190 20180 30142 40169 57006 60006 71022 80001 91200=
07314,1998-05-15 18:00:00,20,1015,-1,78,16,14000,25.928,,,330,17.3,21.1,,,,,,,,2,wg-a,,,,AAXX 15184 07314 12564 63314 10200 20160 30123 40150 55010 60006 70292 8332/ 91800 333 10211 20173=
07314,1998-05-16 06:00:00,15,1017.5,0.8,94,14,14000,7.408,,,40,13.9,20.5,,,,,,,,,wg-a,,,,AAXX 16064 07314 32/64 20404 10150 20140 30148 40175 53008 80001 90600 333 10205 20139=
07314,1998-05-16 12:00:00,20,1017.6,-0.3,78,16,0,14.816,,,300,,,,,,,,,,,wg-a,,,,AAXX 16124 07314 12/// /3008 10200 20160 30149 40176 58003 60006 91200=
07314,1998-05-16 18:00:00,22,1016.9,-0.3,60,14,16000,7.408,,,360,15.4,23.4,,,,,,,,,wg-a,,,,AAXX 16184 07314 12/66 13604 10220 20140 30142 40169 56003 60006 80001 91800 333 10234 20154=
07314,1998-05-17 00:00:00,17,1018.4,0.4,88,15,0,7.408,,,50,,,,,,,,,,,wg-a,,,,AAXX 17004 07314 12/// /0504 10170 20150 30157 40184 51004 60006 90000=
07314,1998-05-17 06:00:00,16,1019.5,1,88,14,16000,11.112,,,40,15.5,21.5,,0,,,,,,,wg-a,,,,AAXX 17064 07314 12/66 30406 10160 20140 30168 40195 53010 60007 80001 90600 333 10215 20155=
07314,1998-05-17 12:00:00,21,1020,-0.2,73,16,16000,11.112,,,290,,,,,,,,,,,wg-a,,,,AAXX 17124 07314 12466 22906 10210 20160 30173 40200 58002 60006 81140 91200=
07314,1998-05-17 18:00:00,21,1019.2,-0.2,64,14,10000,18.52,,,20,16.2,21.2,,,,,,,,,wg-a,,,,AAXX 17184 07314 12/60 00210 10210 20140 30165 40192 56002 60006 80000 91800 333 10212 20162=
07314,1998-05-18 00:00:00,17,1020.8,0.4,77,13,0,14.816,,,40,,,,,,,,,,,wg-a,,,,AAXX 18004 07314 12/// /0408 10170 20130 30181 40208 51004 60006 90000=
07314,1998-05-18 06:00:00,15,1022,1.1,77,11,18000,11.112,,,70,14.9,20.5,,,,,,,,,wg-a,,,,AAXX 18064 07314 12/68 00706 10150 20110 30192 40220 53011 60006 80000 90600 333 10205 20149=
07314,1998-05-18 12:00:00,22,1022,-0.5,57,13,18000,11.112,,,60,,,,,,,,,,,wg-a,,,,AAXX 18124 07314 12/68 00606 10220 20130 30193 40220 58005 60006 80000 91200=
07314,1998-05-18 18:00:00,20,1020.8,-0.5,60,12,25000,22.224,,,40,15.4,23.2,,,,,,,,,wg-a,,,,AAXX 18184 07314 12/75 20412 10200 20120 30181 40208 56005 60006 80002 91800 333 10232 20154=
07314,1998-05-19 00:00:00,17,1022,-0.2,68,11,25000,25.928,,,30,,,,,,,,,,,wg-a,,,,AAXX 19004 07314 12/75 00314 10170 20110 30193 40220 56002 60006 80000 90000=
07314,1998-05-19 06:00:00,15,1022.2,0.4,77,11,14000,25.928,,,40,15,20.1,,,,,,,,,wg-a,,,,AAXX 19064 07314 12864 10414 10150 20110 30194 40222 52004 60006 81050 90600 333 10201 20150=
07314,1998-05-19 12:00:00,23,1021.1,-0.9,47,11,14000,14.816,,,60,,,,,,,,,,,wg-a,,,,AAXX 19124 07314 12864 10608 10230 20110 30184 40211 58009 60006 81040 91200=
07314,1998-05-19 18:00:00,21,1019.4,-0.5,53,11,24000,18.52,,,50,15.4,23.3,,,,,,,,,wg-a,,,,AAXX 19184 07314 12/74 00510 10210 20110 30167 40194 56005 60006 80000 91800 333 10233 20154=
07314,1998-05-20 00:00:00,17,1019.8,-0.6,77,13,24000,22.224,,,30,,,,,,,,,,,wg-a,,,,AAXX 20004 07314 12/74 00312 10170 20130 30171 40198 58006 60006 80000 90000=
07314,1998-05-20 06:00:00,16,1019.5,0.2,72,11,0,29.632,,,40,15.6,21.5,,,,,,,,,wg-a,,,,AAXX 20064 07314 12/// /0416 10160 20110 30167 40195 52002 60006 90600 333 10215 20156=
07314,1998-05-20 12:00:00,22,1018.9,-0.3,57,13,18000,18.52,,,50,,,,,,,,,,,wg-a,,,,AAXX 20124 07314 12/68 00510 10220 20130 30162 40189 56003 60006 80000 91200=
07314,1998-05-20 18:00:00,21,1017.8,-0.3,60,13,20000,22.224,,,30,15.7,23.5,,,,,,,,,wg-a,,,,AAXX 20184 07314 12/70 00312 10210 20130 30151 40178 55003 60006 80000 91800 333 10235 20157=
07314,1998-05-21 00:00:00,18,1019.3,0.3,73,13,20000,22.224,,,30,,,,,,,,,,,wg-a,,,,AAXX 21004 07314 12/70 00312 10180 20130 30166 40193 51003 60006 80000 90000=
07314,1998-05-21 06:00:00,16,1020.4,1.2,82,13,10000,18.52,,,30,15.5,21.3,,,,,,,,,wg-a,,,,AAXX 21064 07314 12/60 10310 10160 20130 30177 40204 52012 60006 80001 90600 333 10213 20155=
07314,1998-05-21 12:00:00,22,1021.2,-0.1,69,16,10000,14.816,,,330,,,,,,,,,,,wg-a,,,,AAXX 21124 07314 12/60 03308 10220 20160 30185 40212 58001 60006 80000 91200=
07314,1998-05-21 18:00:00,19,1019.8,-0.5,78,15,10000,35.188,,,320,16.1,22.1,,,,,,,,,wg-a,,,,AAXX 21184 07314 12660 13219 10190 20150 30171 40198 57005 60006 81200 91800 333 10221 20161=
07314,1998-05-22 00:00:00,17,1021.4,0.1,82,14,0,22.224,,,10,,,,,,,,,,,wg-a,,,,AAXX 22004 07314 12/// /0112 10170 20140 30187 40214 50001 60006 90000=
07314,1998-05-22 06:00:00,15,1022,0.4,88,13,8000,29.632,,,40,14.9,18.8,,,,,,,,,wg-a,,,,AAXX 22064 07314 12558 20416 10150 20130 30192 40220 53004 60006 82100 90600 333 10188 20149=
07314,1998-05-22 12:00:00,19,1022.7,0.3,68,13,10000,25.928,,,20,,,,,,,,,,,wg-a,,,,AAXX 22124 07314 12/60 00214 10190 20130 30200 40227 50003 60006 80000 91200=
07314,1998-05-22 18:00:00,18,1021.3,-0.7,64,11,18000,22.224,,,20,14.9,19.4,,,,,,,,,wg-a,,,,AAXX 22184 07314 12/68 00212 10180 20110 30186 40213 56007 60006 80000 91800 333 10194 20149=
07314,1998-05-23 00:00:00,14,1022.6,0.3,67,8,0,29.632,,,40,,,,,,,,,,,wg-a,,,,AAXX 23004 07314 12/// /0416 10140 20080 30198 40226 51003 60006 90000=
07314,1998-05-23 06:00:00,12,1022.4,0.2,76,8,16000,29.632,,,40,11.5,18.1,,,,,,,,,wg-a,,,,AAXX 23064 07314 12/66 00416 10120 20080 30196 40224 53002 60006 80000 90600 333 10181 20115=
07314,1998-05-23 12:00:00,17,1021.1,-1.1,52,7,16000,29.632,,,20,,,,,,,,,,,wg-a,,,,AAXX 23124 07314 12/66 00216 10170 20070 30184 40211 58011 60006 80000 91200=
07314,1998-05-23 18:00:00,18,1018.3,-1.2,49,7,25000,22.224,,,30,11.8,18.7,,,,,,,,,wg-a,,,,AAXX 23184 07314 12/75 00312 10180 20070 30156 40183 56012 60006 80000 91800 333 10187 20118=
07314,1998-05-24 00:00:00,14,1019.1,-0.4,82,11,0,22.224,,,10,,,,,,,,,,,wg-a,,,,AAXX 24004 07314 12/// /0112 10140 20110 30163 40191 58004 60006 90000=
07314,1998-05-24 06:00:00,13,1017.9,-0.1,82,10,15000,22.224,,,30,12.6,18.2,,,,,,,,,wg-a,,,,AAXX 24064 07314 12/65 10312 10130 20100 30151 40179 55001 60006 81040 90600 333 10182 20126=
07314,1998-05-24 12:00:00,16,1017.4,-0.7,77,12,0,18.52,,,300,,,,,,,,,,,wg-a,,,,AAXX 24124 07314 12/// /3010 10160 20120 30147 40174 58007 60006 91200=
07314,1998-05-24 18:00:00,16,1015.5,-0.8,82,13,16000,25.928,,,330,12.9,16.7,,,,,,,,,wg-a,,,,AAXX 24184 07314 12566 73314 10160 20130 30128 40155 56008 60006 8546/ 91800 333 10167 20129=
07314,1998-05-25 00:00:00,14,1016,-0.3,94,13,20000,18.52,,,340,,,,,,,,,,,wg-a,,,,AAXX 25004 07314 12/70 03410 10140 20130 30132 40160 58003 60006 80000 90000=
07314,1998-05-25 06:00:00,13,1015.3,0.2,94,12,7000,7.408,,,360,12.6,15.6,,,,,,,,,wg-a,,,,AAXX 25064 07314 12/57 03604 10130 20120 30125 40153 53002 60006 80000 90600 333 10156 20126=
07314,1998-05-25 12:00:00,17,1015.3,-0.2,82,14,7000,11.112,,,290,,,,,,,,,,,wg-a,,,,AAXX 25124 07314 12/57 02906 10170 20140 30126 40153 58002 60006 80000 91200=
07314,1998-05-25 18:00:00,16,1013.5,-0.9,77,12,20000,18.52,,,310,13.1,17.1,,,,,,,,,wg-a,,,,AAXX 25184 07314 12670 53110 10160 20120 30108 40135 57009 60006 83241 91800 333 10171 20131=
07314,1998-05-26 00:00:00,14,1012.6,-1,88,12,0,7.408,,,270,,,,,,,,,,,wg-a,,,,AAXX 26004 07314 12/// /2704 10140 20120 30099 40126 56010 60006 90000=
07314,1998-05-26 06:00:00,14,1010.8,-0.1,88,12,15000,7.408,,,180,13.2,15.8,,1,,,,,,15,wg-a,,,,AAXX 26064 07314 12565 71804 10140 20120 30081 40108 56001 60017 71562 878// 90600 333 10158 20132=
07314,1998-05-26 12:00:00,17,1011.1,0,77,13,18000,14.816,,,240,,,,,,,,,,2,wg-a,,,,AAXX 26124 07314 12568 62408 10170 20130 30084 40111 50000 60086 70282 84262 91200=
07314,1998-05-26 18:00:00,16,1010.2,-0.6,77,12,25000,22.224,,,270,13.4,16.8,,0,,,,,,2,wg-a,,,,AAXX 26184 07314 12575 62712 10160 20120 30075 40102 57006 60007 70282 84963 91800 333 10168 20134=
07314,1998-05-27 00:00:00,14,1009.5,-0.8,88,12,25000,22.224,,,220,,,,0,,,,,,50,wg-a,,,,AAXX 27004 07314 02575 82212 10140 20120 30068 40095 58008 60006 75052 885// 90000 333 60007=
07314,1998-05-27 06:00:00,15,1007,-0.7,82,12,16000,18.52,,,200,13.1,15.5,,1,,,,,,20,wg-a,,,,AAXX 27064 07314 12566 72010 10150 20120 30043 40070 56007 60017 72022 84212 90600 333 10155 20131=
07314,1998-05-27 12:00:00,14,1006.7,-0.2,88,12,6000,22.224,,,230,,,,7,,,,,,62,wg-a,,,,AAXX 27124 07314 02556 82312 10140 20120 30040 40067 58002 60076 76262 877// 91200 333 60077=
07314,1998-05-27 18:00:00,14,1005.6,-0.6,88,12,16000,3.704,,,190,12.5,15.7,,0,,,,,,21,wg-a,,,,AAXX 27184 07314 12566 81902 10140 20120 30029 40056 58006 60007 72162 8374/ 91800 333 10157 20125=
07314,1998-05-28 00:00:00,14,1005.9,-0.3,88,12,0,11.112,,,210,,,,,,,,,,,wg-a,,,,AAXX 28004 07314 12/// /2106 10140 20120 30032 40059 56003 60066 90000=
07314,1998-05-28 06:00:00,13,1006.4,0.8,88,11,25000,7.408,,,330,11.4,14.4,,,,,,,,,wg-a,,,,AAXX 28064 07314 32575 53304 10130 20110 30037 40064 53008 84962 90600 333 10144 20114=
07314,1998-05-28 12:00:00,16,1007.9,0.6,72,11,25000,22.224,,,240,,,,,,,,,,,wg-a,,,,AAXX 28124 07314 12575 32412 10160 20110 30052 40079 51006 60006 82960 91200=
07314,1998-05-28 18:00:00,15,1009.4,1,63,8,25000,25.928,,,250,12.7,16.4,,,,,,,,,wg-a,,,,AAXX 28184 07314 12575 32514 10150 20080 30067 40094 51010 60006 82260 91800 333 10164 20127=
07314,1998-05-29 00:00:00,12,1011,0.2,82,9,0,25.928,,,270,,,,,,,,,,,wg-a,,,,AAXX 29004 07314 12/// /2714 10120 20090 30082 40110 52002 60006 90000=
07314,1998-05-29 06:00:00,14,1011.6,0.8,72,9,25000,11.112,,,230,10.6,14.9,,,,,,,,,wg-a,,,,AAXX 29064 07314 32575 52306 10140 20090 30089 40116 53008 83261 90600 333 10149 20106=
07314,1998-05-29 12:00:00,16,1012.1,-0.1,68,10,25000,11.112,,,180,,,,,,,,,,25,wg-a,,,,AAXX 29124 07314 02575 71806 10160 20100 30094 40121 58001 61000 72582 83761 91200 333 6100=
07314,1998-05-29 18:00:00,17,1008.8,-1.6,77,13,25000,7.408,,,30,14.1,18,,,,,,,,,wg-a,,,,AAXX 29184 07314 32575 70304 10170 20130 30061 40088 58016 84240 91800 333 10180 20141=
07314,1998-05-30 00:00:00,14,1007.4,-2.3,94,13,0,22.224,,,10,,,,,,,,,,,wg-a,,,,AAXX 30004 07314 12/// /0112 10140 20130 30047 40074 58023 60036 90000=
07314,1998-05-30 06:00:00,14,1005.9,0.8,94,13,6000,25.928,,,150,13.6,16.9,,5,,,,,,61,wg-a,,,,AAXX 30064 07314 12556 81514 10140 20130 30032 40059 53008 60057 76122 887// 90600 333 10169 20136=
07314,1998-05-30 12:00:00,17,1007.3,0.9,88,15,22000,29.632,,,180,,,,0,,,,,,1,wg-a,,,,AAXX 30124 07314 02572 51816 10170 20150 30046 40073 53009 60076 70162 83342 91200 333 60007=
07314,1998-05-30 18:00:00,15,1010.5,1.6,77,11,22000,25.928,,,230,13.5,17.3,,0,,,,,,,wg-a,,,,AAXX 30184 07314 12572 62314 10150 20110 30078 40105 51016 60007 84240 91800 333 10173 20135=
07314,1998-05-31 00:00:00,15,1011.8,-0.3,77,11,0,29.632,,,200,,,,,,,,,,,wg-a,,,,AAXX 31004 07314 12/// /2016 10150 20110 30091 40118 55003 60006 90000=
07314,1998-05-31 06:00:00,12,1012.3,0.7,88,10,7000,35.188,,57.412,240,12.3,15.1,,2,,,,,,80,wg-a,,,,AAXX 31064 07314 12557 82419 10120 20100 30095 40123 53007 60027 78022 887// 90600 333 10151 20123 91031=
07314,1998-05-31 12:00:00,16,1013.6,0.4,77,12,20000,18.52,,,180,,,,,,,,,,,wg-a,,,,AAXX 31124 07314 12570 61810 10160 20120 30109 40136 51004 60036 85201 91200=
07314,1998-05-31 18:00:00,16,1013.3,-0.6,72,11,24000,18.52,,,200,11.9,16.8,,,,,,,,,wg-a,,,,AAXX 31184 07314 32574 22010 10160 20110 30106 40133 57006 81201 91800 333 10168 20119=
07314,1998-06-01 00:00:00,14,1012.3,-1.3,88,12,24000,11.112,,,100,,,,,,,,,,,wg-a,,,,AAXX 01004 07314 12574 61006 10140 20120 30095 40123 57013 60006 82201 90000=
07314,1998-06-01 06:00:00,15,1008.5,-1.4,82,12,16000,14.816,,,120,12.2,16,,0,,,,,,21,wg-a,,,,AAXX 01064 07314 12566 81208 10150 20120 30058 40085 56014 60007 72162 875// 90600 333 10160 20122=
07314,1998-06-01 12:00:00,19,1008.4,0.2,78,15,18000,38.892,,,170,,,,,,,,,,,wg-a,,,,AAXX 01124 07314 12/68 61721 10190 20150 30057 40084 52002 60006 82042 91200=
07314,1998-06-01 18:00:00,18,1006.3,-1,88,16,20000,29.632,,,170,14.6,20.4,,0,,,,,,,wg-a,,,,AAXX 01184 07314 12570 61716 10180 20160 30036 40063 57010 60007 82242 91800 333 10204 20146=
07314,1998-06-02 00:00:00,17,1007,-0.5,94,16,20000,25.928,,,170,,,,,,,,,,,wg-a,,,,AAXX 02004 07314 12570 61714 10170 20160 30043 40070 55005 60006 83962 90000=
07314,1998-06-02 06:00:00,16,1010.9,1.9,88,14,20000,29.632,,,260,15.8,18.6,,,,,,,,,wg-a,,,,AAXX 02064 07314 12470 72616 10160 20140 30082 40109 53019 60006 84222 90600 333 10186 20158=
07314,1998-06-02 12:00:00,17,1013.7,0.7,77,13,20000,22.224,,,240,,,,,,,,,,2,wg-a,,,,AAXX 02124 07314 12470 72412 10170 20130 30110 40137 51007 60006 70282 84722 91200=
07314,1998-06-02 18:00:00,17,1014.5,0.3,72,12,25000,25.928,,,220,15.5,17.8,,,,,,,,,wg-a,,,,AAXX 02184 07314 32575 22214 10170 20120 30118 40145 53003 82100 91800 333 10178 20155=
07314,1998-06-03 00:00:00,21,1013.3,-2.4,94,20,10000,5.556,,,230,,,,,,,,,,,wg-a,,,,AAXX 03004 07314 12360 52303 10210 20200 30106 40133 57024 60006 81/9/ 90000=
07314,1998-06-03 06:00:00,16,1017.1,0.8,82,13,25000,22.224,,,220,15.8,16.7,,,,,,,,,wg-a,,,,AAXX 03064 07314 12575 42212 10160 20130 30144 40171 51008 60006 81230 90600 333 10167 20158=
07314,1998-06-03 12:00:00,18,1018.3,0.3,77,14,25000,14.816,,,270,,,,,,,,,,,wg-a,,,,AAXX 03124 07314 12575 62708 10180 20140 30156 40183 51003 60006 81202 91200=
07314,1998-06-03 18:00:00,18,1017.9,-0.2,77,14,25000,14.816,,,320,16.3,19,,,,,,,,,wg-a,,,,AAXX 03184 07314 12875 53208 10180 20140 30152 40179 55002 60006 81032 91800 333 10190 20163=
07314,1998-06-04 00:00:00,16,1018.3,-0.3,82,13,20000,25.928,,,10,,,,,,,,,,,wg-a,,,,AAXX 04004 07314 12/70 30114 10160 20130 30156 40183 58003 60006 80002 90000=
07314,1998-06-04 06:00:00,16,1017.7,-0.5,72,11,16000,25.928,,,40,14.8,17.7,,,,,,,,,wg-a,,,,AAXX 04064 07314 12/66 50414 10160 20110 30150 40177 56005 60006 80004 90600 333 10177 20148=
07314,1998-06-04 12:00:00,21,1016,-2.4,73,16,16000,14.816,,,60,,,,0,,,,,,,wg-a,,,,AAXX 04124 07314 02566 70608 10210 20160 30133 40160 56024 60006 8598/ 91200 333 60007=
07314,1998-06-04 18:00:00,22,1012.3,-1.4,69,16,25000,14.816,,,60,15.4,22.7,,,,,,,,,wg-a,,,,AAXX 04184 07314 32/75 40608 10220 20160 30096 40123 56014 82083 91800 333 10227 20154=
07314,1998-06-05 00:00:00,17,1010.4,-1.3,94,16,0,14.816,,,330,,,,,,,,,,,wg-a,,,,AAXX 05004 07314 12/// /3308 10170 20160 30077 40104 58013 60236 90000=
07314,1998-06-05 06:00:00,17,1011.4,1.2,100,17,14000,18.52,,,170,16.2,21.7,,,,,,,,,wg-a,,,,AAXX 05064 07314 32864 61710 10170 20170 30087 40114 53012 86040 90600 333 10217 20162=
07314,1998-06-05 12:00:00,20,1011.9,0.8,88,18,14000,11.112,,,240,,,,,,,,,,,wg-a,,,,AAXX 05124 07314 12864 82406 10200 20180 30092 40119 51008 60006 88040 91200=
07314,1998-06-05 18:00:00,19,1010.8,-0.6,88,17,25000,11.112,,,260,17.1,21.2,,,,,,,,,wg-a,,,,AAXX 05184 07314 12575 82606 10190 20170 30081 40108 58006 60006 82240 91800 333 10212 20171=
07314,1998-06-06 00:00:00,17,1012,0.2,94,16,0,22.224,,,300,,,,,,,,,,,wg-a,,,,AAXX 06004 07314 12/// /3012 10170 20160 30093 40120 50002 60006 90000=
07314,1998-06-06 06:00:00,16,1012.3,0.4,94,15,12000,14.816,,,320,16.2,18.8,,,,,,,,,wg-a,,,,AAXX 06064 07314 12562 73208 10160 20150 30096 40123 53004 60006 8157/ 90600 333 10188 20162=
07314,1998-06-06 12:00:00,18,1014.1,0.5,83,15,18000,11.112,,,250,,,,,,,,,,,wg-a,,,,AAXX 06124 07314 12568 72506 10180 20150 30114 40141 51005 60006 82230 91200=
07314,1998-06-06 18:00:00,18,1013.9,-0.1,83,15,18000,18.52,,,240,16.3,19,,,,,,,,,wg-a,,,,AAXX 06184 07314 12568 32410 10180 20150 30112 40139 55001 60006 81102 91800 333 10190 20163=
07314,1998-06-07 00:00:00,17,1014.4,-0.7,94,16,0,29.632,,,250,,,,,,,,,,,wg-a,,,,AAXX 07004 07314 12/// /2516 10170 20160 30117 40144 58007 60006 90000=
07314,1998-06-07 06:00:00,16,1017.3,1.4,72,11,20000,25.928,,53.708,270,15.7,17.8,,,,,,,,,wg-a,,,,AAXX 07064 07314 32570 52714 10160 20110 30146 40173 51014 84260 90600 333 10178 20157 91029=
07314,1998-06-07 12:00:00,17,1019.7,0.9,72,12,20000,31.484,,,260,,,,,,,,,,,wg-a,,,,AAXX 07124 07314 12570 82617 10170 20120 30170 40197 52009 60006 8323/ 91200=
07314,1998-06-07 18:00:00,17,1020.9,0.6,77,13,25000,29.632,,,260,15.7,17.6,,,,,,,,,wg-a,,,,AAXX 07184 07314 12575 82616 10170 20130 30182 40209 53006 60006 8127/ 91800 333 10176 20157=
07314,1998-06-08 00:00:00,16,1022.4,0.1,82,13,25000,22.224,,,250,,,,,,,,,,2,wg-a,,,,AAXX 08004 07314 12575 62512 10160 20130 30196 40224 50001 60006 70282 83232 90000=
07314,1998-06-08 06:00:00,16,1022.1,0.3,82,13,20000,14.816,,,270,15.5,16.6,,,,,,,,,wg-a,,,,AAXX 08064 07314 32570 62708 10160 20130 30193 40221 53003 84403 90600 333 10166 20155=
07314,1998-06-08 12:00:00,18,1022.9,-0.1,73,13,20000,18.52,,,210,,,,,,,,,,,wg-a,,,,AAXX 08124 07314 12570 42110 10180 20130 30202 40229 58001 60006 82262 91200=
07314,1998-06-08 18:00:00,17,1021.7,-0.4,77,13,20000,22.224,,,230,16,18.1,,,,,,,,,wg-a,,,,AAXX 08184 07314 12570 42312 10170 20130 30190 40217 58004 60006 82262 91800 333 10181 20160=
07314,1998-06-09 06:00:00,18,1018.1,-0.9,83,15,15000,22.224,,,210,16.5,17.5,,,,,,,,,wg-a,,,,AAXX 09064 07314 12/65 62112 10180 20150 30154 40181 58009 60006 85031 90600 333 10175 20165=
07314,1998-06-09 12:00:00,19,1016,-1.6,88,17,18000,25.928,,,200,,,,,,,,,,,wg-a,,,,AAXX 09124 07314 12/68 42014 10190 20170 30133 40160 56016 60006 82032 91200=
07314,1998-06-09 18:00:00,18,1012.9,-1,88,16,17000,25.928,,,250,17.4,20.5,,,,,,,,,wg-a,,,,AAXX 09184 07314 12/67 62514 10180 20160 30102 40129 58010 60006 85032 91800 333 10205 20174=
07314,1998-06-10 00:00:00,17,1012.1,-1,94,16,20000,31.484,,,250,,,,2,,,,,,2,wg-a,,,,AAXX 10004 07314 02570 82517 10170 20160 30094 40121 58010 60036 70282 8723/ 90000 333 60027=
07314,1998-06-10 06:00:00,17,1012.2,0.4,77,13,0,31.484,,,250,16.3,18.4,,,,,,,,,wg-a,,,,AAXX 10064 07314 32/// /2517 10170 20130 30095 40122 52004 90600 333 10184 20163=
07314,1998-06-10 12:00:00,17,1012.9,-0,72,12,18000,35.188,,57.412,240,,,,,,,,,,,wg-a,,,,AAXX 10124 07314 12568 42419 10170 20120 30102 40129 54000 60006 84200 91200 333 91031=
07314,1998-06-10 18:00:00,16,1011.7,-0.6,82,13,18000,35.188,,68.524,270,15.1,17.7,,1,,,,,,25,wg-a,,,,AAXX 10184 07314 12568 72719 10160 20130 30090 40117 55006 60017 72582 8696/ 91800 333 10177 20151 91037=
07314,1998-06-11 00:00:00,15,1012,0,72,10,20000,42.596,,61.116,300,,,,,,,,,,25,wg-a,,,,AAXX 11004 07314 12570 63023 10150 20100 30093 40120 50000 60016 72582 8690/ 90000 333 91033=
07314,1998-06-11 06:00:00,14,1012.8,0.6,77,10,18000,42.596,,72.228,300,12.7,16.3,,2,,,,,,2,wg-a,,,,AAXX 11064 07314 12568 73023 10140 20100 30101 40128 53006 60027 70282 873// 90600 333 10163 20127 91039=
07314,1998-06-11 12:00:00,14,1016.2,1.7,72,9,20000,42.596,,68.524,300,,,,0,,,,,,2,wg-a,,,,AAXX 11124 07314 02570 73023 10140 20090 30134 40162 51017 60026 70282 873// 91200 333 60007 91037=
07314,1998-06-11 18:00:00,14,1018.7,1.6,63,7,20000,53.708,,,310,12.2,15.4,,,,,,,,,wg-a,,,,AAXX 11184 07314 32570 63129 10140 20070 30159 40187 53016 86300 91800 333 10154 20122=
07314,1998-06-12 00:00:00,13,1023,1.8,67,7,20000,46.3,,,330,,,,,,,,,,,wg-a,,,,AAXX 12004 07314 12570 63325 10130 20070 30202 40230 52018 60006 84230 90000=
07314,1998-06-12 06:00:00,13,1025.2,1.4,72,8,0,31.484,,,340,12.6,14.3,,,,,,,,,wg-a,,,,AAXX 12064 07314 12/// /3417 10130 20080 30224 40252 53014 60006 90600 333 10143 20126=
07314,1998-06-12 12:00:00,16,1026.8,0.1,68,10,20000,22.224,,,270,,,,,,,,,,,wg-a,,,,AAXX 12124 07314 12570 42712 10160 20100 30240 40268 50001 60006 83102 91200=
07314,1998-06-12 18:00:00,15,1025.4,-1,67,9,20000,22.224,,,280,13.2,16.1,,,,,,,,,wg-a,,,,AAXX 12184 07314 12570 72812 10150 20090 30226 40254 57010 60006 83254 91800 333 10161 20132=
07314,1998-06-13 00:00:00,14,1023.5,-1.3,72,9,0,18.52,,,220,,,,,,,,,,,wg-a,,,,AAXX 13004 07314 12/// /2210 10140 20090 30207 40235 58013 60006 90000=
07314,1998-06-13 06:00:00,14,1019.5,-1.5,77,10,12000,31.484,,,210,13.9,15,,1,,,,,,60,wg-a,,,,AAXX 13064 07314 12562 82117 10140 20100 30167 40195 55015 60017 76062 8542/ 90600 333 10150 20139=
07314,1998-06-13 12:00:00,15,1016,-1.6,94,14,4000,38.892,,68.524,200,,,,1,,,,,,63,wg-a,,,,AAXX 13124 07314 02340 82021 10150 20140 30133 40160 56016 60056 76362 8477/ 91200 333 60017 91037=
07314,1998-06-13 18:00:00,16,1015.8,0.3,82,13,18000,31.484,,,270,12.4,17.1,,,,,,,,,wg-a,,,,AAXX 13184 07314 32568 42717 10160 20130 30131 40158 51003 8440/ 91800 333 10171 20124=
07314,1998-06-14 00:00:00,15,1016,-0.3,88,13,0,22.224,,,250,,,,,,,,,,,wg-a,,,,AAXX 14004 07314 12/// /2512 10150 20130 30133 40160 58003 60006 90000=
07314,1998-06-14 06:00:00,14,1015.4,-0.2,88,12,14000,31.484,,,270,14,16.1,,0,,,,,,80,wg-a,,,,AAXX 14064 07314 12564 62717 10140 20120 30126 40154 56002 60007 78082 85960 90600 333 10161 20140=
07314,1998-06-14 12:00:00,16,1015.8,0.5,88,14,18000,29.632,,53.708,260,,,,0,,,,,,2,wg-a,,,,AAXX 14124 07314 02568 62616 10160 20140 30131 40158 53005 60016 70282 85960 91200 333 60007 91029=
07314,1998-06-14 18:00:00,16,1015.7,-0.3,77,12,20000,29.632,,,250,13.9,17.1,,1,,,,,,15,wg-a,,,,AAXX 14184 07314 12570 42516 10160 20120 30130 40157 55003 60017 71581 84900 91800 333 10171 20139=
07314,1998-06-15 00:00:00,14,1015.9,-0,88,12,20000,29.632,,,270,,,,1,,,,,,,wg-a,,,,AAXX 15004 07314 02570 42716 10140 20120 30131 40159 55000 60016 84200 90000 333 60017=
07314,1998-06-15 06:00:00,14,1016.3,0.6,88,12,14000,25.928,,,280,13.3,15.8,,0,,,,,,25,wg-a,,,,AAXX 15064 07314 12564 72814 10140 20120 30135 40163 53006 60007 72582 8672/ 90600 333 10158 20133=
07314,1998-06-15 12:00:00,16,1018.5,1.3,77,12,18000,25.928,,,290,,,,,,,,,,,wg-a,,,,AAXX 15124 07314 12568 32914 10160 20120 30158 40185 51013 60016 83200 91200=
07314,1998-06-15 18:00:00,16,1020.7,1,77,12,18000,29.632,,,290,14.3,16.5,,,,,,,,,wg-a,,,,AAXX 15184 07314 32568 12916 10160 20120 30179 40207 53010 81200 91800 333 10165 20143=
07314,1998-06-16 00:00:00,15,1023,0.8,82,12,0,29.632,,,300,,,,,,,,,,,wg-a,,,,AAXX 16004 07314 12/// /3016 10150 20120 30202 40230 51008 60006 90000=
07314,1998-06-16 06:00:00,14,1024.5,1.4,82,11,20000,22.224,,,300,13.8,15.8,,,,,,,,,wg-a,,,,AAXX 16064 07314 12570 73012 10140 20110 30217 40245 52014 60006 87200 90600 333 10158 20138=
07314,1998-06-16 12:00:00,17,1026.6,0.9,68,11,20000,11.112,,,270,,,,,,,,,,,wg-a,,,,AAXX 16124 07314 12570 32706 10170 20110 30238 40266 51009 60006 82201 91200=
07314,1998-06-16 18:00:00,16,1027.3,0.3,72,11,20000,18.52,,,280,14.2,17.1,,,,,,,,,wg-a,,,,AAXX 16184 07314 12570 22810 10160 20110 30245 40273 53003 60006 81202 91800 333 10171 20142=
07314,1998-06-17 00:00:00,14,1028.5,0.2,77,10,0,14.816,,,320,,,,,,,,,,,wg-a,,,,AAXX 17004 07314 12/// /3208 10140 20100 30257 40285 50002 60006 90000=
07314,1998-06-17 06:00:00,14,1029.2,0.6,77,10,22000,3.704,,,300,12.9,16.4,,,,,,,,,wg-a,,,,AAXX 17064 07314 12572 43002 10140 20100 30264 40292 53006 60006 81140 90600 333 10164 20129=
07314,1998-06-17 12:00:00,17,1029.7,0.2,68,11,25000,7.408,,,260,,,,,,,,,,,wg-a,,,,AAXX 17124 07314 12575 32604 10170 20110 30269 40297 50002 60006 81141 91200=
07314,1998-06-17 18:00:00,17,1027.9,-1,68,11,25000,11.112,,,320,14.3,17.7,,,,,,,,,wg-a,,,,AAXX 17184 07314 12875 43206 10170 20110 30251 40279 56010 60006 82041 91800 333 10177 20143=
07314,1998-06-18 00:00:00,15,1027.2,-0.6,82,12,0,11.112,,,20,,,,,,,,,,,wg-a,,,,AAXX 18004 07314 12/// /0206 10150 20120 30244 40272 58006 60006 90000=
07314,1998-06-18 06:00:00,15,1026.8,0.4,88,13,20000,7.408,,,70,14.2,16.7,,,,,,,,,wg-a,,,,AAXX 18064 07314 12870 70704 10150 20130 30240 40268 53004 60006 85072 90600 333 10167 20142=
07314,1998-06-18 12:00:00,20,1026.4,0,68,14,18000,3.704,,,10,,,,,,,,,,,wg-a,,,,AAXX 18124 07314 12868 70102 10200 20140 30237 40264 50000 60006 81038 91200=
07314,1998-06-18 18:00:00,20,1024.6,-1,73,15,20000,11.112,,,340,15.4,22.1,,,,,,,,,wg-a,,,,AAXX 18184 07314 12/70 53406 10200 20150 30219 40246 58010 60006 80002 91800 333 10221 20154=
07314,1998-06-19 00:00:00,17,1023.6,-0.9,82,14,20000,11.112,,,60,,,,,,,,,,,wg-a,,,,AAXX 19004 07314 12/70 10606 10170 20140 30209 40236 57009 60006 80002 90000=
07314,1998-06-19 06:00:00,18,1022.2,-0.1,77,14,25000,14.816,,,90,16.9,20.4,,,,,,,,,wg-a,,,,AAXX 19064 07314 12/75 30908 10180 20140 30195 40222 56001 60006 80001 90600 333 10204 20169=
07314,1998-06-19 12:00:00,26,1021.5,-0.7,54,16,25000,7.408,,,70,,,,,,,,,,,wg-a,,,,AAXX 19124 07314 12/75 40704 10260 20160 30188 40215 58007 60006 80001 91200=
07314,1998-06-19 18:00:00,26,1018.8,-1,58,17,25000,7.408,,,70,18.1,29.1,,,,,,,,,wg-a,,,,AAXX 19184 07314 12/75 40704 10260 20170 30162 40188 56010 60006 80001 91800 333 10291 20181=
07314,1998-06-20 00:00:00,21,1017.9,-0.6,69,15,0,11.112,,,90,,,,,,,,,,,wg-a,,,,AAXX 20004 07314 12/// /0906 10210 20150 30152 40179 58006 60006 90000=
07314,1998-06-20 06:00:00,19,1016.6,-0.2,73,14,25000,18.52,,,110,18.3,26.3,,,,,,,,,wg-a,,,,AAXX 20064 07314 12/75 51110 10190 20140 30139 40166 58002 60006 80001 90600 333 10263 20183=
07314,1998-06-20 12:00:00,30,1016,-0.6,49,18,25000,22.224,,,170,,,,,,,,,,,wg-a,,,,AAXX 20124 07314 12/75 51712 10300 20180 30134 40160 58006 60006 80001 91200=
07314,1998-06-20 18:00:00,24,1016.5,0.8,74,19,25000,11.112,,,200,19.3,32.9,,,,,,,,,wg-a,,,,AAXX 20184 07314 12/75 52006 10240 20190 30138 40165 53008 60006 80001 91800 333 10329 20193=
07314,1998-06-21 00:00:00,19,1019.5,1.3,88,17,25000,7.408,,,260,,,,,,,,,,,wg-a,,,,AAXX 21004 07314 12/75 52604 10190 20170 30168 40195 53013 60006 80001 90000=
07314,1998-06-21 06:00:00,18,1020.8,0.8,88,16,8000,14.816,,,270,17.8,23.7,,,,,,,,,wg-a,,,,AAXX 21064 07314 12658 82708 10180 20160 30181 40208 53008 60006 885// 90600 333 10237 20178=
07314,1998-06-21 12:00:00,19,1023.1,1,83,16,8000,11.112,,,280,,,,,,,,,,,wg-a,,,,AAXX 21124 07314 12658 82806 10190 20160 30204 40231 51010 60006 885// 91200=
07314,1998-06-21 18:00:00,18,1025.4,1.2,83,15,18000,22.224,,,290,17.9,19.2,,,,,,,,,wg-a,,,,AAXX 21184 07314 12668 82912 10180 20150 30227 40254 51012 60006 882// 91800 333 10192 20179=
07314,1998-06-22 00:00:00,17,1027.7,0.6,82,14,18000,22.224,,,290,,,,,,,,,,,wg-a,,,,AAXX 22004 07314 12568 12912 10170 20140 30249 40277 50006 60006 81100 90000=
07314,1998-06-22 06:00:00,17,1027.5,0.2,82,14,0,14.816,,,340,,,,,,,,,,,wg-a,,,,AAXX 22064 07314 12/// /3408 10170 20140 30247 40275 53002 60006 90600=
07314,1998-06-22 12:00:00,19,1027.9,-0.3,78,15,20000,14.816,,,270,,,,,,,,,,,wg-a,,,,AAXX 22124 07314 12570 42708 10190 20150 30252 40279 58003 60006 82230 91200=
07314,1998-06-22 18:00:00,19,1026.6,-0.6,78,15,25000,22.224,,,300,17.4,19.8,,,,,,,,,wg-a,,,,AAXX 22184 07314 12575 23012 10190 20150 30239 40266 56006 60006 81202 91800 333 10198 20174=
07314,1998-06-23 00:00:00,17,1027,0.1,77,13,0,25.928,,,320,,,,,,,,,,,wg-a,,,,AAXX 23004 07314 12/// /3214 10170 20130 30242 40270 52001 60006 90000=
07314,1998-06-23 06:00:00,16,1025.9,0.1,88,14,20000,11.112,,,340,15.5,18.6,,,,,,,,,wg-a,,,,AAXX 23064 07314 12570 43406 10160 20140 30231 40259 53001 60006 81201 90600 333 10186 20155=
07314,1998-06-23 12:00:00,19,1024.7,-0.8,68,13,20000,14.816,,,270,,,,,,,,,,,wg-a,,,,AAXX 23124 07314 12/70 42708 10190 20130 30220 40247 58008 60006 80002 91200=
07314,1998-06-24 00:00:00,17,1019.4,-1.8,82,14,20000,11.112,,,20,,,,,,,,,,,wg-a,,,,AAXX 24004 07314 12/70 20206 10170 20140 30167 40194 57018 60006 80002 90000=
07314,1998-06-24 06:00:00,17,1017.8,-0.2,88,15,20000,7.408,,,300,15.5,18.3,,,,,,,,,wg-a,,,,AAXX 24064 07314 12670 23004 10170 20150 30151 40178 55002 60006 81102 90600 333 10183 20155=
07314,1998-06-24 12:00:00,20,1017,-0.4,73,15,25000,14.816,,,260,,,,,,,,,,,wg-a,,,,AAXX 24124 07314 12575 42608 10200 20150 30143 40170 58004 60006 82130 91200=
07314,1998-06-24 18:00:00,19,1015.4,-0.6,78,15,25000,22.224,,,270,16.8,19.8,,,,,,,,,wg-a,,,,AAXX 24184 07314 12575 62712 10190 20150 30127 40154 56006 60006 82142 91800 333 10198 20168=
07314,1998-06-25 00:00:00,17,1015.2,-0.3,88,15,0,22.224,,,310,,,,,,,,,,,wg-a,,,,AAXX 25004 07314 12/// /3112 10170 20150 30125 40152 56003 60006 90000=
07314,1998-06-25 06:00:00,17,1016.8,1.3,77,13,0,18.52,,,300,16.8,18.8,,,,,,,,,wg-a,,,,AAXX 25064 07314 12/// /3010 10170 20130 30141 40168 53013 60006 90600 333 10188 20168=
07314,1998-06-25 12:00:00,20,1018,0.5,68,14,20000,14.816,,,280,,,,,,,,,,,wg-a,,,,AAXX 25124 07314 12570 62808 10200 20140 30153 40180 51005 60006 82202 91200=
07314,1998-06-25 18:00:00,19,1017.9,0.1,68,13,20000,18.52,,,280,17,20.2,,,,,,,,,wg-a,,,,AAXX 25184 07314 12570 72810 10190 20130 30152 40179 53001 60006 82208 91800 333 10202 20170=
07314,1998-06-26 00:00:00,17,1018,-0.3,68,11,20000,14.816,,,260,,,,,,,,,,,wg-a,,,,AAXX 26004 07314 12/70 42608 10170 20110 30153 40180 58003 60006 80008 90000=
07314,1998-06-26 06:00:00,17,1017.2,0.1,77,13,20000,3.704,,,300,16.6,18.5,,,,,,,,,wg-a,,,,AAXX 26064 07314 12570 63002 10170 20130 30145 40172 53001 60006 84232 90600 333 10185 20166=
07314,1998-06-26 12:00:00,20,1017.7,0.2,64,13,25000,11.112,,,270,,,,,,,,,,,wg-a,,,,AAXX 26124 07314 12575 62706 10200 20130 30150 40177 50002 60006 84202 91200=
07314,1998-06-26 18:00:00,19,1016.9,-0.3,,,0,14.816,,,250,16.2,21.2,,,,,,,,,wg-a,,,,AAXX 26184 07314 12/// /2508 10190 2//// 30142 40169 57003 60006 91800 333 10212 20162=
07314,1998-06-27 00:00:00,17,1016.7,-0.4,68,11,0,14.816,,,260,,,,,,,,,,,wg-a,,,,AAXX 27004 07314 12/// /2608 10170 20110 30140 40167 56004 60006 90000=
07314,1998-06-27 06:00:00,18,1015.4,-0.2,68,12,22000,22.224,,,240,17,18.9,,,,,,,,,wg-a,,,,AAXX 27064 07314 12572 62412 10180 20120 30127 40154 55002 60006 83232 90600 333 10189 20170=
07314,1998-06-27 12:00:00,20,1016.2,0.6,73,15,22000,29.632,,,230,,,,,,,,,,,wg-a,,,,AAXX 27124 07314 12572 62316 10200 20150 30135 40162 51006 60006 8324/ 91200=
07314,1998-06-27 18:00:00,18,1017.1,0.6,83,15,20000,25.928,,,270,16.6,20.3,,1,,,,,,,wg-a,,,,AAXX 27184 07314 12570 82714 10180 20150 30144 40171 53006 60017 8574/ 91800 333 10203 20166=
07314,1998-06-28 00:00:00,16,1019.9,1.1,77,12,0,14.816,,,290,,,,,,,,,,,wg-a,,,,AAXX 28004 07314 12/// /2908 10160 20120 30172 40199 51011 60006 90000=
07314,1998-06-28 06:00:00,17,1021.3,1,68,11,20000,11.112,,,310,16.2,18.1,,,,,,,,,wg-a,,,,AAXX 28064 07314 12570 43106 10170 20110 30186 40213 51010 60006 81240 90600 333 10181 20162=
07314,1998-06-28 12:00:00,19,1023,0.5,68,13,20000,14.816,,,300,,,,,,,,,,,wg-a,,,,AAXX 28124 07314 12570 23008 10190 20130 30203 40230 52005 60006 82100 91200=
07314,1998-06-28 18:00:00,18,1022.7,-0.3,73,13,20000,22.224,,,300,16.7,19.8,,,,,,,,,wg-a,,,,AAXX 28184 07314 12/70 23012 10180 20130 30200 40227 56003 60006 80001 91800 333 10198 20167=
07314,1998-06-29 00:00:00,16,1023.3,-0.2,77,12,0,18.52,,,350,,,,,,,,,,,wg-a,,,,AAXX 29004 07314 12/// /3510 10160 20120 30205 40233 58002 60006 90000=
07314,1998-06-29 06:00:00,16,1023.1,0.1,82,13,18000,18.52,,,360,15.4,18.3,,,,,,,,,wg-a,,,,AAXX 29064 07314 12568 63610 10160 20130 30203 40231 53001 60006 86200 90600 333 10183 20154=
07314,1998-06-29 12:00:00,20,1022.5,-0.5,60,12,20000,18.52,,,300,,,,,,,,,,,wg-a,,,,AAXX 29124 07314 12570 33010 10200 20120 30198 40225 58005 60006 82201 91200=
07314,1998-06-29 18:00:00,18,1020.7,-0.8,68,12,25000,31.484,,,310,16,19.9,,,,,,,,,wg-a,,,,AAXX 29184 07314 12575 33117 10180 20120 30180 40207 56008 60006 81202 91800 333 10199 20160=
07314,1998-06-30 00:00:00,16,1021,-0.7,77,12,25000,22.224,,,320,,,,,,,,,,,wg-a,,,,AAXX 30004 07314 12/75 13212 10160 20120 30182 40210 57007 60006 80002 90000=
07314,1998-06-30 06:00:00,17,1019.6,-0.4,63,10,25000,18.52,,,300,15.8,18.2,,,,,,,,,wg-a,,,,AAXX 30064 07314 12675 73010 10170 20100 30169 40196 56004 60006 874// 90600 333 10182 20158=
07314,1998-06-30 12:00:00,19,1019.6,-0.3,73,14,25000,14.816,,,240,,,,,,,,,,,wg-a,,,,AAXX 30124 07314 12675 62408 10190 20140 30169 40196 58003 60006 82242 91200=
07314,1998-06-30 18:00:00,18,1017.2,-1.6,83,15,0,14.816,,,260,16.6,19.7,,,,,,,,,wg-a,,,,AAXX 30184 07314 12/// /2608 10180 20150 30145 40172 56016 60006 91800 333 10197 20166=
07314,1998-07-01 00:00:00,18,1015.2,-1.7,77,14,0,3.704,,,230,,,,,,,,,,,wg-a,,,,AAXX 01004 07314 12/// /2302 10180 20140 30125 40152 58017 60006 90000=
07314,1998-07-01 06:00:00,17,1010.8,-1.6,94,16,18000,11.112,,,70,15.6,18.3,,,,,,,,,wg-a,,,,AAXX 01064 07314 12568 80706 10170 20160 30081 40108 58016 60006 87508 90600 333 10183 20156=
07314,1998-07-01 12:00:00,20,1008.4,-1.1,83,17,0,22.224,,,20,,,,,,,,,,,wg-a,,,,AAXX 01124 07314 12/// /0212 10200 20170 30057 40084 58011 60006 91200=
07314,1998-07-01 18:00:00,20,1006.6,-0.8,88,18,18000,14.816,,,70,17.1,20.4,,1,,,,,,21,wg-a,,,,AAXX 01184 07314 12568 70708 10200 20180 30039 40066 55008 60017 72162 8127/ 91800 333 10204 20171=
07314,1998-07-02 00:00:00,19,1007.8,0.1,94,18,0,7.408,,,140,,,,,,,,,,,wg-a,,,,AAXX 02004 07314 12/// /1404 10190 20180 30051 40078 50001 60006 90000=
07314,1998-07-02 06:00:00,18,1009.1,1.6,88,16,20000,18.52,,,250,18,19.5,,,,,,,,,wg-a,,,,AAXX 02064 07314 32670 82510 10180 20160 30064 40091 53016 8/32/ 90600 333 10195 20180=
07314,1998-07-02 12:00:00,20,1011.7,1.1,73,15,22000,14.816,,,200,,,,,,,,,,2,wg-a,,,,AAXX 02124 07314 12572 72008 10200 20150 30090 40117 53011 60016 70282 8497/ 91200=
07314,1998-07-02 18:00:00,19,1013.2,0.6,78,15,22000,11.112,,,310,18.4,21,,,,,,,,,wg-a,,,,AAXX 02184 07314 32572 53106 10190 20150 30105 40132 50006 8297/ 91800 333 10210 20184=
07314,1998-07-03 00:00:00,18,1014.9,0.5,83,15,0,11.112,,,10,,,,,,,,,,,wg-a,,,,AAXX 03004 07314 12/// /0106 10180 20150 30122 40149 53005 60006 90000=
07314,1998-07-03 06:00:00,16,1017,1.8,94,15,10000,11.112,,,310,15.4,19.6,,,,,,,,1,wg-a,,,,AAXX 03064 07314 12460 73106 10160 20150 30143 40170 53018 60006 70142 876// 90600 333 10196 20154=
07314,1998-07-03 12:00:00,21,1020.5,1.8,73,16,12000,18.52,,,330,,,,,,,,,,,wg-a,,,,AAXX 03124 07314 12562 43310 10210 20160 30178 40205 53018 60006 82230 91200=
07314,1998-07-03 18:00:00,21,1022.4,1.2,69,15,15000,18.52,,,350,16,21.9,,,,,,,,,wg-a,,,,AAXX 03184 07314 12/65 03510 10210 20150 30197 40224 51012 60006 80000 91800 333 10219 20160=
07314,1998-07-04 00:00:00,17,1025.3,0.9,77,13,0,25.928,,,20,,,,,,,,,,,wg-a,,,,AAXX 04004 07314 12/// /0214 10170 20130 30225 40253 51009 60006 90000=
07314,1998-07-04 06:00:00,16,1026,0.7,77,12,15000,18.52,,,20,15.2,20.5,,,,,,,,,wg-a,,,,AAXX 04064 07314 12/65 40210 10160 20120 30232 40260 53007 60006 84030 90600 333 10205 20152=
07314,1998-07-04 12:00:00,19,1027.3,0.5,60,11,18000,18.52,,,290,,,,,,,,,,,wg-a,,,,AAXX 04124 07314 12/68 02910 10190 20110 30246 40273 50005 60006 80000 91200=
07314,1998-07-04 18:00:00,18,1025.6,-0.7,77,14,16000,31.484,,,300,15.5,19.8,,,,,,,,,wg-a,,,,AAXX 04184 07314 12/66 03017 10180 20140 30229 40256 55007 60006 80000 91800 333 10198 20155=
07314,1998-07-05 00:00:00,17,1025.9,0,82,14,0,25.928,,,340,,,,,,,,,,,wg-a,,,,AAXX 05004 07314 12/// /3414 10170 20140 30231 40259 50000 60006 90000=
07314,1998-07-05 06:00:00,16,1025.2,0.1,88,14,0,11.112,,,30,15.2,18.4,,,,,,,,,wg-a,,,,AAXX 05064 07314 12/// /0306 10160 20140 30224 40252 53001 60006 90600 333 10184 20152=
07314,1998-07-05 12:00:00,18,1025,-0.3,73,13,15000,22.224,,,310,,,,,,,,,,,wg-a,,,,AAXX 05124 07314 12/65 03112 10180 20130 30223 40250 57003 60006 80000 91200=
07314,1998-07-05 18:00:00,17,1021.9,-1.7,77,13,20000,22.224,,,320,16,19.4,,,,,,,,,wg-a,,,,AAXX 05184 07314 12/70 03212 10170 20130 30192 40219 56017 60006 80000 91800 333 10194 20160=
07314,1998-07-06 00:00:00,17,1020,-1.1,82,14,0,14.816,,,350,,,,,,,,,,,wg-a,,,,AAXX 06004 07314 12/// /3508 10170 20140 30173 40200 58011 60006 90000=
07314,1998-07-06 06:00:00,16,1017.5,-0.6,82,13,15000,14.816,,,60,15.4,17.2,,,,,,,,,wg-a,,,,AAXX 06064 07314 12/65 00608 10160 20130 30148 40175 56006 60006 80000 90600 333 10172 20154=
07314,1998-07-06 12:00:00,20,1015.2,-1.3,78,16,18000,22.224,,,310,,,,,,,,,,,wg-a,,,,AAXX 06124 07314 12/68 03112 10200 20160 30125 40152 58013 60006 80000 91200=
07314,1998-07-06 18:00:00,19,1011.1,-1.9,83,16,17000,29.632,,,320,16.3,21.3,,,,,,,,,wg-a,,,,AAXX 06184 07314 12/67 03216 10190 20160 30084 40111 56019 60006 80000 91800 333 10213 20163=
07314,1998-07-07 00:00:00,17,1011.9,0.1,82,14,0,22.224,,,10,,,,,,,,,,,wg-a,,,,AAXX 07004 07314 12/// /0112 10170 20140 30092 40119 50001 60006 90000=
07314,1998-07-07 06:00:00,17,1012.7,-0,82,14,15000,25.928,,,330,16.2,19.5,,,,,,,,,wg-a,,,,AAXX 07064 07314 12565 83314 10170 20140 30100 40127 55000 60006 8117/ 90600 333 10195 20162=
07314,1998-07-07 12:00:00,17,1016.1,1.5,88,15,20000,25.928,,,300,,,,,,,,,,,wg-a,,,,AAXX 07124 07314 12570 83014 10170 20150 30134 40161 51015 60006 8227/ 91200=
07314,1998-07-07 18:00:00,19,1016.7,0.2,88,17,12000,22.224,,,290,16.8,19.3,,,,,,,,,wg-a,,,,AAXX 07184 07314 12562 72912 10190 20170 30140 40167 53002 60006 8323/ 91800 333 10193 20168=
07314,1998-07-08 00:00:00,17,1018.8,0.4,88,15,0,22.224,,,290,,,,,,,,,,,wg-a,,,,AAXX 08004 07314 12/// /2912 10170 20150 30161 40188 50004 60006 90000=
07314,1998-07-08 06:00:00,16,1019.4,0.9,88,14,8000,22.224,,,340,15.9,18.7,,,,,,,,,wg-a,,,,AAXX 08064 07314 12758 83412 10160 20140 30167 40194 53009 60006 885// 90600 333 10187 20159=
07314,1998-07-08 12:00:00,18,1021,0.4,73,13,16000,29.632,,,300,,,,,,,,,,,wg-a,,,,AAXX 08124 07314 12566 33016 10180 20130 30183 40210 51004 60006 82101 91200=
07314,1998-07-08 18:00:00,18,1020.6,-0.3,77,14,20000,31.484,,,310,16,17.9,,,,,,,,,wg-a,,,,AAXX 08184 07314 12/70 13117 10180 20140 30179 40206 58003 60006 80002 91800 333 10179 20160=
07314,1998-07-09 00:00:00,16,1021.3,-0.1,88,14,0,18.52,,,310,,,,,,,,,,,wg-a,,,,AAXX 09004 07314 12/// /3110 10160 20140 30185 40213 58001 60006 90000=
07314,1998-07-09 06:00:00,16,1020.7,0.4,82,13,18000,14.816,,,320,15.8,17.6,,,,,,,,,wg-a,,,,AAXX 09064 07314 12568 83208 10160 20130 30180 40207 51004 60006 888// 90600 333 10176 20158=
07314,1998-07-09 12:00:00,18,1021.8,0.4,68,12,20000,3.704,,,290,,,,,,,,,,,wg-a,,,,AAXX 09124 07314 12570 82902 10180 20120 30191 40218 51004 60006 8657/ 91200=
07314,1998-07-09 18:00:00,18,1020.9,-0.6,77,14,25000,18.52,,,270,16,18.4,,,,,,,,,wg-a,,,,AAXX 09184 07314 12575 72710 10180 20140 30182 40209 58006 60006 8323/ 91800 333 10184 20160=
07314,1998-07-10 00:00:00,17,1021,-0.5,82,14,0,14.816,,,250,,,,,,,,,,,wg-a,,,,AAXX 10004 07314 12/// /2508 10170 20140 30183 40210 57005 60006 90000=
07314,1998-07-10 06:00:00,18,1019.6,-0.3,83,15,0,22.224,,,260,16.4,18.3,,,,,,,,,wg-a,,,,AAXX 10064 07314 12/// /2612 10180 20150 30169 40196 56003 60006 90600 333 10183 20164=
07314,1998-07-10 12:00:00,17,1020.9,0.6,94,16,12000,11.112,,,300,,,,1,,,,,,20,wg-a,,,,AAXX 10124 07314 02362 73006 10170 20160 30182 40209 51006 60016 72052 8587/ 91200 333 60017=
07314,1998-07-10 18:00:00,19,1019.9,-0.4,83,16,20000,14.816,,,270,16.7,20,,,,,,,,,wg-a,,,,AAXX 10184 07314 32570 32708 10190 20160 30172 40199 58004 81231 91800 333 10200 20167=
07314,1998-07-11 00:00:00,17,1020.4,-0.5,94,16,0,22.224,,,250,,,,,,,,,,,wg-a,,,,AAXX 11004 07314 12/// /2512 10170 20160 30177 40204 58005 60006 90000=
07314,1998-07-11 06:00:00,17,1020.8,0.9,82,14,18000,18.52,,,290,16.2,19,,,,,,,,,wg-a,,,,AAXX 11064 07314 32568 82910 10170 20140 30181 40208 53009 888// 90600 333 10190 20162=
07314,1998-07-11 12:00:00,20,1022.1,0.3,64,13,25000,11.112,,,250,,,,,,,,,,,wg-a,,,,AAXX 11124 07314 12575 72506 10200 20130 30194 40221 53003 60006 81132 91200=
07314,1998-07-11 18:00:00,18,1021,-0.6,77,14,25000,18.52,,,260,16.8,20.1,,,,,,,,,wg-a,,,,AAXX 11184 07314 12575 62610 10180 20140 30183 40210 55006 60006 81138 91800 333 10201 20168=
07314,1998-07-12 00:00:00,17,1019.6,-1.5,88,15,0,18.52,,,250,,,,,,,,,,,wg-a,,,,AAXX 12004 07314 12/// /2510 10170 20150 30169 40196 56015 60006 90000=
07314,1998-07-12 12:00:00,19,1018.1,-0.4,83,16,18000,18.52,,,210,,,,,,,,,,,wg-a,,,,AAXX 12124 07314 12668 82110 10190 20160 30154 40181 58004 60006 885// 91200=
07314,1998-07-12 18:00:00,19,1016.1,-1.4,88,17,18000,14.816,,,220,17.8,20.1,,,,,,,,,wg-a,,,,AAXX 12184 07314 12668 82208 10190 20170 30134 40161 56014 60006 885// 91800 333 10201 20178=
07314,1998-07-13 00:00:00,18,1014.3,-1.4,88,16,0,22.224,,,230,,,,,,,,,,,wg-a,,,,AAXX 13004 07314 12/// /2312 10180 20160 30116 40143 58014 60006 90000=
07314,1998-07-13 06:00:00,18,1013.2,0.2,88,16,13000,18.52,,,230,17.9,18.8,,,,,,,,,wg-a,,,,AAXX 13064 07314 12663 82310 10180 20160 30105 40132 51002 60006 885// 90600 333 10188 20179=
07314,1998-07-13 12:00:00,18,1014.7,1.2,77,14,12000,25.928,,,310,,,,1,,,,,,1,wg-a,,,,AAXX 13124 07314 02562 73114 10180 20140 30120 40147 53012 60016 70182 82238 91200 333 60017=
07314,1998-07-13 18:00:00,17,1016.8,0.5,77,13,0,35.188,,,310,15.9,18.6,,,,,,,,,wg-a,,,,AAXX 13184 07314 32/// /3119 10170 20130 30141 40168 51005 91800 333 10186 20159=
07314,1998-07-14 00:00:00,16,1018.5,0,82,13,0,31.484,,,320,,,,,,,,,,,wg-a,,,,AAXX 14004 07314 12/// /3217 10160 20130 30158 40185 50000 60006 90000=
07314,1998-07-14 06:00:00,15,1020.2,1.4,72,10,20000,22.224,,,350,14.7,17.3,,,,,,,,,wg-a,,,,AAXX 14064 07314 12570 63512 10150 20100 30174 40202 51014 60006 81130 90600 333 10173 20147=
07314,1998-07-14 12:00:00,18,1021.3,0.2,64,11,25000,18.52,,,290,,,,,,,,,,,wg-a,,,,AAXX 14124 07314 12575 22910 10180 20110 30186 40213 51002 60006 81231 91200=
07314,1998-07-14 18:00:00,17,1020.3,-0.5,72,12,25000,29.632,,,300,14.8,18.7,,,,,,,,,wg-a,,,,AAXX 14184 07314 12575 33016 10170 20120 30176 40203 56005 60006 81202 91800 333 10187 20148=
07314,1998-07-15 00:00:00,16,1021,0,77,12,0,22.224,,,300,,,,,,,,,,,wg-a,,,,AAXX 15004 07314 12/// /3012 10160 20120 30182 40210 50000 60006 90000=
07314,1998-07-15 12:00:00,18,1021.7,0.3,68,12,25000,11.112,,,240,,,,,,,,,,,wg-a,,,,AAXX 15124 07314 12575 52406 10180 20120 30190 40217 50003 60006 81248 91200=
07314,1998-07-15 18:00:00,18,1020.4,-0.8,73,13,25000,11.112,,,270,15.2,19.6,,,,,,,,,wg-a,,,,AAXX 15184 07314 12575 72706 10180 20130 30177 40204 56008 60006 8115/ 91800 333 10196 20152=
07314,1998-07-16 00:00:00,17,1019,-1,77,13,0,14.816,,,230,,,,,,,,,,,wg-a,,,,AAXX 16004 07314 12/// /2308 10170 20130 30163 40190 56010 60006 90000=
07314,1998-07-16 06:00:00,18,1016.8,-0.5,77,14,20000,29.632,,,230,16.9,18.4,,,,,,,,,wg-a,,,,AAXX 16064 07314 12570 72316 10180 20140 30141 40168 56005 60006 8217/ 90600 333 10184 20169=
07314,1998-07-16 12:00:00,18,1018,0.6,94,17,4000,25.928,,50.004,240,,,,1,,,,,,50,wg-a,,,,AAXX 16124 07314 02440 82414 10180 20170 30153 40180 53006 60016 75052 887// 91200 333 60017 91027=
07314,1998-07-16 18:00:00,18,1018.4,0.1,88,16,15000,25.928,,,270,17.2,19,,,,,,,,2,wg-a,,,,AAXX 16184 07314 32565 82714 10180 20160 30157 40184 53001 70282 8372/ 91800 333 10190 20172=
07314,1998-07-17 00:00:00,17,1019.8,0,88,15,0,11.112,,,280,,,,,,,,,,,wg-a,,,,AAXX 17004 07314 12/// /2806 10170 20150 30171 40198 50000 60006 90000=
07314,1998-07-17 06:00:00,18,1019,-0,88,16,18000,14.816,,,220,16.9,17.8,,,,,,,,,wg-a,,,,AAXX 17064 07314 12568 82208 10180 20160 30163 40190 55000 60006 885// 90600 333 10178 20169=
07314,1998-07-17 12:00:00,20,1019.7,0.2,83,17,22000,18.52,,,230,,,,,,,,,,,wg-a,,,,AAXX 17124 07314 12572 72310 10200 20170 30170 40197 51002 60006 8117/ 91200=
07314,1998-07-17 18:00:00,19,1019,-0.6,88,17,20000,18.52,,,230,17.5,20.8,,,,,,,,,wg-a,,,,AAXX 17184 07314 12570 82310 10190 20170 30163 40190 56006 60006 8657/ 91800 333 10208 20175=
07314,1998-07-18 00:00:00,17,1018.8,-0.6,100,17,0,7.408,,,260,,,,,,,,,,,wg-a,,,,AAXX 18004 07314 12/// /2604 10170 20170 30161 40188 57006 60016 90000=
07314,1998-07-18 06:00:00,18,1017.8,0,94,17,20000,3.704,,,160,16.7,19.4,,,,,,,,,wg-a,,,,AAXX 18064 07314 32570 81602 10180 20170 30151 40178 50000 8272/ 90600 333 10194 20167=
07314,1998-07-18 12:00:00,21,1017.6,-0.2,78,17,20000,11.112,,,220,,,,,,,,,,,wg-a,,,,AAXX 18124 07314 12570 72206 10210 20170 30149 40176 58002 60006 82331 91200=
07314,1998-07-18 18:00:00,20,1016.7,-0.4,83,17,500,11.112,,,310,17.6,21.5,,,,,,,,,wg-a,,,,AAXX 18184 07314 12500 63106 10200 20170 30140 40167 56004 60006 81132 91800 333 10215 20176=
07314,1998-07-19 00:00:00,18,1016,-1,83,15,0,11.112,,,350,,,,,,,,,,,wg-a,,,,AAXX 19004 07314 12/// /3506 10180 20150 30133 40160 58010 60006 90000=
07314,1998-07-19 06:00:00,18,1013.9,-0.6,88,16,22000,7.408,,,60,16.5,19.9,,,,,,,,,wg-a,,,,AAXX 19064 07314 12/72 30604 10180 20160 30112 40139 56006 60006 81032 90600 333 10199 20165=
07314,1998-07-19 12:00:00,23,1012.7,-0.7,73,18,20000,14.816,,,310,,,,,,,,,,,wg-a,,,,AAXX 19124 07314 12/70 23108 10230 20180 30100 40127 58007 60006 80002 91200=
07314,1998-07-19 18:00:00,20,1011.8,-0.2,78,16,20000,22.224,,,310,18.3,23.6,,,,,,,,,wg-a,,,,AAXX 19184 07314 12/70 23112 10200 20160 30091 40118 58002 60006 80002 91800 333 10236 20183=
07314,1998-07-20 00:00:00,18,1013.7,1.3,88,16,0,11.112,,,310,,,,,,,,,,,wg-a,,,,AAXX 20004 07314 12/// /3106 10180 20160 30110 40137 53013 60006 90000=
07314,1998-07-20 06:00:00,18,1010.3,-1.2,83,15,20000,14.816,,,20,17.2,19.7,,,,,,,,17,wg-a,,,,AAXX 20064 07314 12670 70208 10180 20150 30076 40103 56012 60006 71722 8433/ 90600 333 10197 20172=
07314,1998-07-20 12:00:00,22,1008,-1.1,78,18,16000,14.816,,,240,,,,,,,,,,,wg-a,,,,AAXX 20124 07314 12666 52408 10220 20180 30053 40080 56011 60006 82130 91200=
07314,1998-07-20 18:00:00,19,1007.6,-0.3,88,17,20000,22.224,,,290,17.5,22.7,,,,,,,,80,wg-a,,,,AAXX 20184 07314 02670 72912 10190 20170 30049 40076 55003 61000 78011 86730 91800 333 10227 20175 ////=
07314,1998-07-21 00:00:00,19,1011,1.1,94,18,0,18.52,,,180,,,,,,,,,,,wg-a,,,,AAXX 21004 07314 12/// /1810 10190 20180 30083 40110 53011 60056 90000=
07314,1998-07-21 06:00:00,18,1014.1,2.5,83,15,20000,18.52,,,300,17.5,19.7,,,,,,,,25,wg-a,,,,AAXX 21064 07314 02570 43010 10180 20150 30114 40141 51025 61000 72522 83240 90600 333 10197 20175 ////=
07314,1998-07-21 12:00:00,20,1017.8,1.7,68,14,24000,18.52,,,250,,,,,,,,,,,wg-a,,,,AAXX 21124 07314 12574 62510 10200 20140 30151 40178 51017 60006 83240 91200=
07314,1998-07-21 18:00:00,20,1019,0.3,73,15,24000,11.112,,,250,17.8,20.9,,,,,,,,,wg-a,,,,AAXX 21184 07314 12574 42506 10200 20150 30163 40190 53003 60006 83242 91800 333 10209 20178=
07314,1998-07-22 00:00:00,16,1020,-0.3,88,14,0,3.704,,,130,,,,,,,,,,,wg-a,,,,AAXX 22004 07314 12/// /1302 10160 20140 30172 40200 58003 60006 90000=
07314,1998-07-22 06:00:00,16,1019.2,0.1,94,15,24000,14.816,,,130,14.2,20,,0,,,,,,,wg-a,,,,AAXX 22064 07314 12574 31308 10160 20150 30165 40192 51001 60007 81242 90600 333 10200 20142=
07314,1998-07-22 12:00:00,21,1018.4,-0.6,73,16,24000,18.52,,,200,,,,,,,,,,,wg-a,,,,AAXX 22124 07314 12/74 62010 10210 20160 30157 40184 56006 60006 81042 91200=
07314,1998-07-22 18:00:00,20,1017.8,-0,88,18,24000,11.112,,,240,16,23.4,,,,,,,,,wg-a,,,,AAXX 22184 07314 12/74 72406 10200 20180 30151 40178 55000 60006 8704/ 91800 333 10234 20160=
07314,1998-07-23 00:00:00,19,1018.2,0,88,17,0,18.52,,,250,,,,,,,,,,,wg-a,,,,AAXX 23004 07314 12/// /2510 10190 20170 30155 40182 50000 60006 90000=
07314,1998-07-23 06:00:00,19,1018,0.5,88,17,0,11.112,,,220,18.7,20.6,,,,,,,,,wg-a,,,,AAXX 23064 07314 12/// /2206 10190 20170 30153 40180 53005 60006 90600 333 10206 20187=
07314,1998-07-23 12:00:00,22,1019.2,0.6,78,18,24000,18.52,,,210,,,,,,,,,,,wg-a,,,,AAXX 23124 07314 12674 72110 10220 20180 30165 40192 51006 60006 8323/ 91200=
07314,1998-07-23 18:00:00,20,1018.8,-0.2,88,18,24000,25.928,,,210,19.3,23.2,,,,,,,,,wg-a,,,,AAXX 23184 07314 12674 82114 10200 20180 30161 40188 55002 60006 887// 91800 333 10232 20193=
07314,1998-07-24 00:00:00,19,1020.2,0.3,94,18,0,22.224,,,280,,,,,,,,,,,wg-a,,,,AAXX 24004 07314 12/// /2812 10190 20180 30175 40202 50003 60006 90000=
07314,1998-07-24 06:00:00,17,1021,0.9,88,15,24000,25.928,,,350,16.7,19.9,,1,,,,,,2,wg-a,,,,AAXX 24064 07314 12674 83514 10170 20150 30183 40210 53009 60017 70252 887// 90600 333 10199 20167=
07314,1998-07-24 12:00:00,20,1022,0.3,83,17,16000,22.224,,,310,,,,,,,,,,,wg-a,,,,AAXX 24124 07314 12666 63112 10200 20170 30193 40220 52003 60006 86700 91200=
07314,1998-07-24 18:00:00,19,1021.3,-0.5,83,16,18000,29.632,,,290,17,20.5,,,,,,,,,wg-a,,,,AAXX 24184 07314 12668 72916 10190 20160 30186 40213 56005 60006 85420 91800 333 10205 20170=
07314,1998-07-25 00:00:00,19,1022,-0.2,78,15,0,25.928,,,10,,,,,,,,,,,wg-a,,,,AAXX 25004 07314 12/// /0114 10190 20150 30193 40220 58002 60006 90000=
07314,1998-07-25 06:00:00,18,1021.8,0.1,77,14,18000,18.52,,,30,17,19.3,,,,,,,,,wg-a,,,,AAXX 25064 07314 12668 70310 10180 20140 30191 40218 53001 60006 83420 90600 333 10193 20170=
07314,1998-07-25 12:00:00,23,1021.1,-0.5,69,17,18000,7.408,,,290,,,,,,,,,,,wg-a,,,,AAXX 25124 07314 12668 22904 10230 20170 30184 40211 58005 60006 81202 91200=
07314,1998-07-25 18:00:00,21,1018.2,-1.5,78,17,20000,22.224,,,320,17.6,23.5,,,,,,,,,wg-a,,,,AAXX 25184 07314 12670 53212 10210 20170 30155 40182 56015 60006 82302 91800 333 10235 20176=
07314,1998-07-26 00:00:00,20,1017.4,-0.7,78,16,0,11.112,,,40,,,,,,,,,,,wg-a,,,,AAXX 26004 07314 12/// /0406 10200 20160 30147 40174 58007 60006 90000=
07314,1998-07-26 06:00:00,19,1015.4,-1,73,14,0,3.704,,,90,18.4,20.8,,,,,,,,,wg-a,,,,AAXX 26064 07314 12/// /0902 10190 20140 30127 40154 56010 60006 90600 333 10208 20184=
07314,1998-07-26 12:00:00,22,1014.9,-0.5,69,16,20000,7.408,,,300,,,,,,,,,,,wg-a,,,,AAXX 26124 07314 12670 73004 10220 20160 30122 40149 58005 60006 8233/ 91200=
07314,1998-07-26 18:00:00,20,1013.6,-0.7,78,16,20000,11.112,,,300,18.6,22.9,,,,,,,,,wg-a,,,,AAXX 26184 07314 12/70 73006 10200 20160 30109 40136 56007 60006 8703/ 91800 333 10229 20186=
07314,1998-07-27 00:00:00,18,1014.3,-0.4,83,15,0,29.632,,,300,,,,,,,,,,,wg-a,,,,AAXX 27004 07314 12/// /3016 10180 20150 30116 40143 58004 60006 90000=
07314,1998-07-27 06:00:00,18,1015.2,1,88,16,20000,7.408,,,270,17.6,19.5,,,,,,,,,wg-a,,,,AAXX 27064 07314 12/70 72704 10180 20160 30125 40152 51010 60006 8703/ 90600 333 10195 20176=
07314,1998-07-27 12:00:00,18,1017.2,1.5,88,16,20000,11.112,,,290,,,,1,,,,,,20,wg-a,,,,AAXX 27124 07314 02670 72906 10180 20160 30145 40172 51015 60016 72052 83920 91200 333 60017=
07314,1998-07-27 18:00:00,19,1018.7,0.6,78,15,20000,31.484,,,300,17.3,20.3,,,,,,,,2,wg-a,,,,AAXX 27184 07314 32670 33017 10190 20150 30160 40187 52006 70252 82940 91800 333 10203 20173=
07314,1998-07-28 00:00:00,18,1020.1,0.5,77,14,0,25.928,,,300,,,,,,,,,,,wg-a,,,,AAXX 28004 07314 12/// /3014 10180 20140 30174 40201 50005 60006 90000=
07314,1998-07-28 06:00:00,18,1019.1,-0.5,77,14,20000,18.52,,,260,17.1,18.6,,,,,,,,,wg-a,,,,AAXX 28064 07314 12670 72610 10180 20140 30164 40191 55005 60006 82240 90600 333 10186 20171=
07314,1998-07-28 12:00:00,18,1018.1,-0.6,83,15,20000,31.484,,,220,,,,0,,,,,,60,wg-a,,,,AAXX 28124 07314 02670 82217 10180 20150 30154 40181 58006 60016 76022 887// 91200 333 60007=
07314,1998-07-28 18:00:00,19,1016.7,0.5,88,17,12000,25.928,,,280,17.2,19.2,,0,,,,,,2,wg-a,,,,AAXX 28184 07314 12662 82814 10190 20170 30140 40167 51005 60007 70262 887// 91800 333 10192 20172=
07314,1998-07-29 00:00:00,18,1017.8,0.1,83,15,0,22.224,,,300,,,,,,,,,,,wg-a,,,,AAXX 29004 07314 12/// /3012 10180 20150 30151 40178 50001 60006 90000=
07314,1998-07-29 06:00:00,18,1017.6,0.3,73,13,12000,18.52,,,270,17.4,18.8,,,,,,,,2,wg-a,,,,AAXX 29064 07314 12662 82710 10180 20130 30149 40176 53003 60006 70262 887// 90600 333 10188 20174=
07314,1998-07-29 12:00:00,20,1018.2,0,68,14,20000,14.816,,,250,,,,,,,,,,,wg-a,,,,AAXX 29124 07314 12/70 42508 10200 20140 30155 40182 50000 60006 84040 91200=
07314,1998-07-29 18:00:00,19,1016.3,-0.9,83,16,16000,29.632,,,240,17.6,20.7,,,,,,,,,wg-a,,,,AAXX 29184 07314 12666 82416 10190 20160 30136 40163 56009 60006 887// 91800 333 10207 20176=
07314,1998-07-30 00:00:00,19,1015.4,-0.8,94,18,0,22.224,,,230,,,,,,,,,,,wg-a,,,,AAXX 30004 07314 12/// /2312 10190 20180 30127 40154 58008 60006 90000=
07314,1998-07-30 06:00:00,16,1015.1,0.4,94,15,0,25.928,,,350,15.7,19,,,,,,,,,wg-a,,,,AAXX 30064 07314 32/// /3514 10160 20150 30124 40151 53004 90600 333 10190 20157=
07314,1998-07-30 12:00:00,19,1016.9,0.6,68,13,20000,18.52,,,300,,,,,,,,,,,wg-a,,,,AAXX 30124 07314 12670 43010 10190 20130 30142 40169 51006 60026 8324/ 91200=
07314,1998-07-30 18:00:00,19,1017.2,-0,73,14,20000,25.928,,,300,15.3,20.1,,,,,,,,,wg-a,,,,AAXX 30184 07314 32670 33014 10190 20140 30145 40172 55000 82102 91800 333 10201 20153=
07314,1998-07-31 00:00:00,17,1,,82,14,0,22.224,,,290,,,,0,,,,,,,wg-a,,,,AAXX 31004 07314 02/// /2912 10170 20140 60006 90000 333 60007=
07314,1998-07-31 06:00:00,17,1018.8,0.6,77,13,20000,14.816,,,330,16.6,18.6,,,,,,,,,wg-a,,,,AAXX 31064 07314 12670 63308 10170 20130 30161 40188 53006 60006 86202 90600 333 10186 20166=
07314,1998-07-31 12:00:00,19,1019.8,0.1,68,13,20000,14.816,,,260,,,,,,,,,,,wg-a,,,,AAXX 31124 07314 12670 42608 10190 20130 30171 40198 50001 60006 83240 91200=
07314,1998-07-31 18:00:00,18,1019.2,-0.5,77,14,20000,18.52,,,290,17,20.1,,,,,,,,,wg-a,,,,AAXX 31184 07314 12670 62910 10180 20140 30165 40192 56005 60006 81202 91800 333 10201 20170=
07314,1998-08-01 00:00:00,17,1019,-0.8,82,14,0,18.52,,,310,,,,,,,,,,,wg-a,,,,AAXX 01004 07314 12/// /3110 10170 20140 30163 40190 55008 60006 90000=
07314,1998-08-01 06:00:00,17,1017.1,-0.4,82,14,0,7.408,,,360,16.4,18.5,,,,,,,,,wg-a,,,,AAXX 01064 07314 12/// /3604 10170 20140 30144 40171 58004 60006 90600 333 10185 20164=
07314,1998-08-01 12:00:00,20,1017.5,0.1,68,14,16000,18.52,,,300,,,,,,,,,,,wg-a,,,,AAXX 01124 07314 12666 53010 10200 20140 30148 40175 50001 60006 82240 91200=
07314,1998-08-01 18:00:00,18,1017.7,0.3,77,14,22000,29.632,,,300,16.5,20,,,,,,,,,wg-a,,,,AAXX 01184 07314 12672 33016 10180 20140 30150 40177 52003 60006 82341 91800 333 10200 20165=
07314,1998-08-02 00:00:00,17,1019,0.2,77,13,0,18.52,,,310,,,,,,,,,,,wg-a,,,,AAXX 02004 07314 12/// /3110 10170 20130 30163 40190 50002 60006 90000=
07314,1998-08-02 06:00:00,16,1019.7,0.9,82,13,16000,18.52,,,10,15.7,18.4,,,,,,,,,wg-a,,,,AAXX 02064 07314 12566 70110 10160 20130 30169 40197 53009 60006 8222/ 90600 333 10184 20157=
07314,1998-08-02 12:00:00,19,1020.8,0.2,78,15,18000,22.224,,,300,,,,,,,,,,,wg-a,,,,AAXX 02124 07314 12568 43012 10190 20150 30181 40208 50002 60006 8222/ 91200=
07314,1998-08-02 18:00:00,18,1022.2,0.9,83,15,12000,38.892,,,330,15.7,20.3,,0,,,,,,,wg-a,,,,AAXX 02184 07314 12562 63321 10180 20150 30195 40222 53009 60007 85310 91800 333 10203 20157=
07314,1998-08-03 00:00:00,18,1024.5,0.7,88,16,0,25.928,,,310,,,,,,,,,,,wg-a,,,,AAXX 03004 07314 12/// /3114 10180 20160 30218 40245 50007 60016 90000=
07314,1998-08-03 06:00:00,17,1025.9,0.9,88,15,15000,3.704,,,330,15.8,18,,,,,,,,,wg-a,,,,AAXX 03064 07314 32/65 13302 10170 20150 30231 40259 51009 80001 90600 333 10180 20158=
07314,1998-08-03 12:00:00,20,1027.6,0.3,83,17,17000,18.52,,,280,,,,,,,,,,,wg-a,,,,AAXX 03124 07314 12567 42810 10200 20170 30249 40276 50003 60006 81282 91200=
07314,1998-08-03 18:00:00,19,1027.4,-0.1,78,15,20000,25.928,,,290,16.8,20.6,,,,,,,,,wg-a,,,,AAXX 03184 07314 12670 42914 10190 20150 30247 40274 55001 60006 81102 91800 333 10206 20168=
07314,1998-08-04 00:00:00,18,1027.8,-0.3,83,15,0,22.224,,,290,,,,,,,,,,,wg-a,,,,AAXX 04004 07314 12/// /2912 10180 20150 30251 40278 58003 60006 90000=
07314,1998-08-04 06:00:00,19,1027.3,-0,88,17,20000,14.816,,,250,17.7,19,,,,,,,,,wg-a,,,,AAXX 04064 07314 12570 82508 10190 20170 30246 40273 55000 60006 8252/ 90600 333 10190 20177=
07314,1998-08-04 12:00:00,19,1028.5,0.7,94,18,4000,14.816,,,220,,,,1,,,,,,52,wg-a,,,,AAXX 04124 07314 02440 82208 10190 20180 30258 40285 51007 60016 75252 887// 91200 333 60017=
07314,1998-08-04 18:00:00,19,1028.4,0,94,18,6000,7.408,,,290,17.9,20.2,,,,,,,,2,wg-a,,,,AAXX 04184 07314 32556 82904 10190 20180 30257 40284 50000 70252 885// 91800 333 10202 20179=
07314,1998-08-05 00:00:00,18,1030,-0,83,15,0,31.484,,,10,,,,,,,,,,,wg-a,,,,AAXX 05004 07314 12/// /0117 10180 20150 30272 40300 55000 60006 90000=
07314,1998-08-05 06:00:00,16,1030.5,0.5,77,12,22000,29.632,,,40,16.1,19.6,,,,,,,,,wg-a,,,,AAXX 05064 07314 12/72 00416 10160 20120 30277 40305 53005 60006 80000 90600 333 10196 20161=
07314,1998-08-05 12:00:00,22,1030.6,-0.7,60,14,25000,18.52,,,10,,,,,,,,,,,wg-a,,,,AAXX 05124 07314 12/75 00110 10220 20140 30279 40306 58007 60006 80000 91200=
07314,1998-08-05 18:00:00,24,1027.9,-1.3,57,15,25000,18.52,,,20,16.3,25.1,,,,,,,,,wg-a,,,,AAXX 05184 07314 12/75 00210 10240 20150 30252 40279 56013 60006 80000 91800 333 10251 20163=
07314,1998-08-06 00:00:00,18,1027.6,-0.8,83,15,0,18.52,,,20,,,,,,,,,,,wg-a,,,,AAXX 06004 07314 12/// /0210 10180 20150 30249 40276 58008 60006 90000=
07314,1998-08-06 06:00:00,17,1026.9,-0.1,77,13,25000,25.928,,,50,17.2,23.8,,,,,,,,,wg-a,,,,AAXX 06064 07314 12/75 00514 10170 20130 30241 40269 57001 60006 80000 90600 333 10238 20172=
07314,1998-08-06 12:00:00,24,1025.5,-1.3,57,15,25000,11.112,,,20,,,,,,,,,,,wg-a,,,,AAXX 06124 07314 12/75 10206 10240 20150 30228 40255 58013 60006 80001 91200=
07314,1998-08-06 18:00:00,24,1022.8,-0.8,61,16,25000,18.52,,,30,17.4,26.2,,,,,,,,,wg-a,,,,AAXX 06184 07314 12/75 10310 10240 20160 30201 40228 58008 60006 80002 91800 333 10262 20174=
07314,1998-08-07 00:00:00,19,1022.7,-0.8,78,15,0,14.816,,,30,,,,,,,,,,,wg-a,,,,AAXX 07004 07314 12/// /0308 10190 20150 30200 40227 58008 60006 90000=
07314,1998-08-07 06:00:00,18,1022.2,0.2,68,12,25000,18.52,,,50,17.9,24.4,,,,,,,,,wg-a,,,,AAXX 07064 07314 12/75 10510 10180 20120 30195 40222 53002 60006 80002 90600 333 10244 20179=
07314,1998-08-07 12:00:00,27,1020.7,-1.2,48,15,25000,14.816,,,40,,,,,,,,,,,wg-a,,,,AAXX 07124 07314 12/75 10408 10270 20150 30181 40207 58012 60006 80002 91200=
07314,1998-08-07 18:00:00,27,1018,-1.1,48,15,20000,11.112,,,30,18.1,29.6,,,,,,,,,wg-a,,,,AAXX 07184 07314 12/70 10306 10270 20150 30154 40180 56011 60006 80002 91800 333 10296 20181=
07314,1998-08-08 00:00:00,21,1017.6,-0.6,69,15,0,11.112,,,30,,,,,,,,,,,wg-a,,,,AAXX 08004 07314 12/// /0306 10210 20150 30149 40176 58006 60006 90000=
07314,1998-08-08 12:00:00,26,1016.5,0.1,54,16,16000,7.408,,,210,,,,,,,,,,,wg-a,,,,AAXX 08124 07314 12/66 02104 10260 20160 30139 40165 50001 60006 80000 91200=
07314,1998-08-09 00:00:00,19,1015.2,-0.2,94,18,0,7.408,,,310,,,,,,,,,,,wg-a,,,,AAXX 09004 07314 12/// /3104 10190 20180 30125 40152 57002 60006 90000=
07314,1998-08-09 06:00:00,20,1014.6,-0.1,88,18,8000,7.408,,,20,18.7,22.9,,0,,,,,,,wg-a,,,,AAXX 09064 07314 12/58 10204 10200 20180 30119 40146 55001 60007 81031 90600 333 10229 20187=
07314,1998-08-10 18:00:00,22,1017.1,0.2,88,20,10000,11.112,,,290,20.1,25.2,,,,,,,,,wg-a,,,,AAXX 10184 07314 12/60 02906 10220 20200 30144 40171 53002 60006 80000 91800 333 10252 20201=
07314,1998-08-11 00:00:00,19,1018.4,0.2,100,19,0,14.816,,,330,,,,,,,,,,,wg-a,,,,AAXX 11004 07314 12/// /3308 10190 20190 30157 40184 50002 60006 90000=
07314,1998-08-11 06:00:00,18,1018.8,0.7,100,18,200,7.408,,,280,17.8,22.3,,,,,,,,2,wg-a,,,,AAXX 11064 07314 32/02 02804 10180 20180 30161 40188 53007 70240 80000 90600 333 10223 20178=
07314,1998-08-11 12:00:00,21,1019.5,-0.1,83,18,8000,11.112,,,310,,,,,,,,,,2,wg-a,,,,AAXX 11124 07314 12/58 13106 10210 20180 30168 40195 58001 60006 70240 81030 91200=
07314,1998-08-11 18:00:00,20,1018.6,-0.4,88,18,8000,18.52,,,310,18,22.4,,0,,,,,,,wg-a,,,,AAXX 11184 07314 12/58 23110 10200 20180 30159 40186 58004 60007 81031 91800 333 10224 20180=
07314,1998-08-12 00:00:00,20,1018.7,-0.1,88,18,0,11.112,,,300,,,,,,,,,,,wg-a,,,,AAXX 12004 07314 12/// /3006 10200 20180 30160 40187 58001 60006 90000=
07314,1998-08-12 06:00:00,20,1018.2,0.1,88,18,4000,7.408,,,360,19.4,20.2,,,,,,,,,wg-a,,,,AAXX 12064 07314 12/40 73604 10200 20180 30155 40182 53001 60006 85072 90600 333 10202 20194=
07314,1998-08-12 12:00:00,22,1019.5,0.4,78,18,11000,22.224,,,310,,,,,,,,,,,wg-a,,,,AAXX 12124 07314 12/61 73112 10220 20180 30168 40195 52004 60006 80002 91200=
07314,1998-08-12 18:00:00,20,1018.4,-0.2,83,17,14000,35.188,,,320,19.6,22.5,,,,,,,,,wg-a,,,,AAXX 12184 07314 12/64 63219 10200 20170 30157 40184 56002 60006 84032 91800 333 10225 20196=
07314,1998-08-13 00:00:00,19,1020,-0.4,83,16,0,29.632,,,10,,,,,,,,,,,wg-a,,,,AAXX 13004 07314 12/// /0116 10190 20160 30173 40200 58004 60006 90000=
07314,1998-08-13 06:00:00,17,1020.8,0.7,82,14,20000,22.224,,,20,16.2,19.6,,,,,,,,,wg-a,,,,AAXX 13064 07314 12/70 30212 10170 20140 30181 40208 53007 60006 82071 90600 333 10196 20162=
07314,1998-08-13 12:00:00,22,1020.8,-0.6,57,13,25000,14.816,,,340,,,,,,,,,,,wg-a,,,,AAXX 13124 07314 12/75 23408 10220 20130 30181 40208 57006 60006 80001 91200=
07314,1998-08-13 18:00:00,19,1018.1,-1.8,78,15,25000,29.632,,,310,16.5,22.7,,,,,,,,,wg-a,,,,AAXX 13184 07314 12/75 23116 10190 20150 30154 40181 57018 60006 80002 91800 333 10227 20165=
07314,1998-08-14 00:00:00,19,1018.6,-0.4,68,13,0,22.224,,,30,,,,,,,,,,,wg-a,,,,AAXX 14004 07314 12/// /0312 10190 20130 30159 40186 58004 60006 90000=
07314,1998-08-14 06:00:00,17,1017.2,-0.2,72,12,0,14.816,,,50,16.9,19.2,,,,,,,,,wg-a,,,,AAXX 14064 07314 12/// /0508 10170 20120 30145 40172 56002 60006 90600 333 10192 20169=
07314,1998-08-14 12:00:00,23,1015.9,-0.8,61,15,25000,11.112,,,320,,,,,,,,,,,wg-a,,,,AAXX 14124 07314 12/75 13206 10230 20150 30132 40159 58008 60006 80001 91200=
07314,1998-08-15 06:00:00,18,1014.4,0.6,88,16,0,11.112,,,340,17.4,20.2,,,,,,,,,wg-a,,,,AAXX 15064 07314 12/// /3406 10180 20160 30117 40144 53006 60006 90600 333 10202 20174=
07314,1998-08-15 12:00:00,21,1016.9,1.2,78,17,15000,18.52,,,300,,,,,,,,,,,wg-a,,,,AAXX 15124 07314 12/65 33010 10210 20170 30142 40169 51012 60006 80002 91200=
07314,1998-08-15 18:00:00,20,1017.7,0.6,83,17,18000,22.224,,,300,17.6,22.1,,,,,,,,,wg-a,,,,AAXX 15184 07314 12/68 53012 10200 20170 30150 40177 53006 60006 80002 91800 333 10221 20176=
07314,1998-08-17 00:00:00,19,1019.8,-0.8,88,17,0,18.52,,,330,,,,,,,,,,,wg-a,,,,AAXX 17004 07314 12/// /3310 10190 20170 30171 40198 56008 60006 90000=
07314,1998-08-17 06:00:00,18,1019.6,0.4,83,15,16000,14.816,,,360,17.8,20.1,,,,,,,,,wg-a,,,,AAXX 17064 07314 12/66 03608 10180 20150 30169 40196 53004 60006 80000 90600 333 10201 20178=
07314,1998-08-17 12:00:00,20,1020.3,0.3,83,17,16000,18.52,,,280,,,,,,,,,,,wg-a,,,,AAXX 17124 07314 12/66 02810 10200 20170 30176 40203 51003 60006 80000 91200=
07314,1998-08-17 18:00:00,19,1018.3,-1.1,68,13,18000,25.928,,,310,17.9,21.6,,,,,,,,,wg-a,,,,AAXX 17184 07314 12/68 53114 10190 20130 30156 40183 56011 60006 80002 91800 333 10216 20179=
07314,1998-08-18 00:00:00,17,1019.6,-0.4,94,16,0,29.632,,,320,,,,,,,,,,,wg-a,,,,AAXX 18004 07314 12/// /3216 10170 20160 30169 40196 56004 60006 90000=
07314,1998-08-18 06:00:00,17,1019.7,0.5,82,14,0,14.816,,,350,16.8,18.8,,,,,,,,,wg-a,,,,AAXX 18064 07314 12/// /3508 10170 20140 30170 40197 53005 60006 90600 333 10188 20168=
07314,1998-08-18 12:00:00,20,1020.4,-0.1,78,16,18000,18.52,,,290,,,,,,,,,,,wg-a,,,,AAXX 18124 07314 12/68 22910 10200 20160 30177 40204 58001 60006 80002 91200=
07314,1998-08-18 18:00:00,19,1019.2,-0.5,83,16,18000,29.632,,,300,16.8,20.6,,,,,,,,,wg-a,,,,AAXX 18184 07314 12/68 23016 10190 20160 30165 40192 56005 60006 80002 91800 333 10206 20168=
07314,1998-08-19 00:00:00,18,1020.7,0.2,94,17,0,14.816,,,340,,,,,,,,,,,wg-a,,,,AAXX 19004 07314 12/// /3408 10180 20170 30180 40207 51002 60006 90000=
07314,1998-08-19 06:00:00,18,1020.7,0.4,83,15,14000,14.816,,,30,17.6,19.2,,,,,,,,,wg-a,,,,AAXX 19064 07314 12664 60308 10180 20150 30180 40207 53004 60006 83235 90600 333 10192 20176=
07314,1998-08-19 12:00:00,22,1020.9,-0.2,78,18,16000,11.112,,,290,,,,,,,,,,,wg-a,,,,AAXX 19124 07314 12566 52906 10220 20180 30182 40209 58002 60006 82202 91200=
07314,1998-08-19 18:00:00,20,1019.5,-0.5,83,17,16000,25.928,,,320,17.8,22.5,,,,,,,,,wg-a,,,,AAXX 19184 07314 12566 43214 10200 20170 30168 40195 56005 60006 81202 91800 333 10225 20178=
07314,1998-08-20 00:00:00,18,1020.9,0.4,88,16,0,18.52,,,330,,,,,,,,,,,wg-a,,,,AAXX 20004 07314 12/// /3310 10180 20160 30182 40209 51004 60006 90000=
07314,1998-08-20 06:00:00,18,1021,0.5,83,15,8000,11.112,,,350,17.2,20.2,,0,,,,,,,wg-a,,,,AAXX 20064 07314 12858 53506 10180 20150 30183 40210 53005 60007 85030 90600 333 10202 20172=
07314,1998-08-20 12:00:00,19,1022.3,0.2,83,16,8000,22.224,,,290,,,,,,,,,,,wg-a,,,,AAXX 20124 07314 12858 42912 10190 20160 30196 40223 53002 60006 84020 91200=
07314,1998-08-20 18:00:00,18,1021.5,-0.7,83,15,18000,25.928,,,300,17.7,20.4,,,,,,,,,wg-a,,,,AAXX 20184 07314 12868 63014 10180 20150 30188 40215 56007 60006 81024 91800 333 10204 20177=
07314,1998-08-21 00:00:00,17,1021.6,-0.6,88,15,0,11.112,,,280,,,,,,,,,,,wg-a,,,,AAXX 21004 07314 12/// /2806 10170 20150 30189 40216 55006 60006 90000=
07314,1998-08-21 06:00:00,18,1019.6,-0.4,83,15,15000,29.632,,,250,17,18.2,,,,,,,,,wg-a,,,,AAXX 21064 07314 12865 72516 10180 20150 30169 40196 57004 60006 85022 90600 333 10182 20170=
07314,1998-08-21 12:00:00,18,1019.6,-0.4,94,17,12000,29.632,,,250,,,,,,,,,,,wg-a,,,,AAXX 21124 07314 12862 82516 10180 20170 30169 40196 58004 60006 86022 91200=
07314,1998-08-21 18:00:00,18,1018.6,-0.4,94,17,7000,29.632,,,260,17.9,19,,,,,,,,60,wg-a,,,,AAXX 21184 07314 02457 82616 10180 20170 30159 40186 58004 61000 76062 887// 91800 333 10190 20179 ////=
07314,1998-08-22 00:00:00,18,1020.1,0.7,94,17,0,22.224,,,270,,,,,,,,,,,wg-a,,,,AAXX 22004 07314 32/// /2712 10180 20170 30174 40201 51007 90000=
07314,1998-08-22 12:00:00,19,1019.6,0.3,94,18,4000,22.224,,,260,,,,,,,,,,10,wg-a,,,,AAXX 22124 07314 12440 72612 10190 20180 30169 40196 53003 60006 71062 877// 91200=
07314,1998-08-22 18:00:00,19,1019,-0,88,17,7000,25.928,,,260,17.5,19.4,,,,,,,,,wg-a,,,,AAXX 22184 07314 32457 82614 10190 20170 30163 40190 55000 877// 91800 333 10194 20175=
07314,1998-08-23 00:00:00,18,1020.3,0.4,94,17,0,18.52,,,280,,,,,,,,,,,wg-a,,,,AAXX 23004 07314 12/// /2810 10180 20170 30176 40203 53004 60006 90000=
07314,1998-08-23 06:00:00,17,1020.5,0.5,94,16,0,14.816,,,310,17,18.7,,,,,,,,,wg-a,,,,AAXX 23064 07314 32/// /3108 10170 20160 30178 40205 53005 90600 333 10187 20170=
07314,1998-08-23 12:00:00,20,1021.6,0,78,16,20000,14.816,,,280,,,,,,,,,,,wg-a,,,,AAXX 23124 07314 12670 42808 10200 20160 30189 40216 50000 60006 8226/ 91200=
07314,1998-08-23 18:00:00,19,1020.6,-0.6,83,16,24000,14.816,,,290,17.3,19.8,,,,,,,,,wg-a,,,,AAXX 23184 07314 12574 32908 10190 20160 30179 40206 56006 60006 81202 91800 333 10198 20173=
07314,1998-08-24 00:00:00,18,1019.8,-1,94,17,0,22.224,,,230,,,,,,,,,,,wg-a,,,,AAXX 24004 07314 12/// /2312 10180 20170 30171 40198 56010 60006 90000=
07314,1998-08-24 06:00:00,19,1018.7,-0.3,88,17,7000,25.928,,,250,17.9,18.8,,,,,,,,,wg-a,,,,AAXX 24064 07314 12457 72514 10190 20170 30160 40187 55003 60006 877// 90600 333 10188 20179=
07314,1998-08-24 12:00:00,20,1021,0.9,83,17,18000,18.52,,,280,,,,,,,,,,1,wg-a,,,,AAXX 24124 07314 12568 42810 10200 20170 30183 40210 51009 60016 70152 81242 91200=
07314,1998-08-24 18:00:00,19,1021.1,-0.1,83,16,20000,18.52,,,290,17.1,20,,,,,,,,,wg-a,,,,AAXX 24184 07314 32/70 12910 10190 20160 30184 40211 56001 81030 91800 333 10200 20171=
07314,1998-08-25 00:00:00,17,1022.4,0.4,88,15,25000,11.112,,,300,,,,0,,,,,,,wg-a,,,,AAXX 25004 07314 02/75 03006 10170 20150 30197 40224 51004 60006 80000 90000 333 60007=
07314,1998-08-25 12:00:00,20,1022.3,-0.4,78,16,16000,11.112,,,270,,,,,,,,,,,wg-a,,,,AAXX 25124 07314 12566 22706 10200 20160 30196 40223 58004 60006 82100 91200=
07314,1998-08-25 18:00:00,18,1020.5,-0.9,83,15,18000,25.928,,,320,16.3,20.9,,,,,,,,,wg-a,,,,AAXX 25184 07314 12/68 03214 10180 20150 30178 40205 57009 60006 80000 91800 333 10209 20163=
07314,1998-08-26 00:00:00,17,1020.4,-0.5,77,13,0,11.112,,,350,,,,,,,,,,,wg-a,,,,AAXX 26004 07314 12/// /3506 10170 20130 30177 40204 58005 60006 90000=
07314,1998-08-26 06:00:00,16,1019,-0.4,88,14,18000,14.816,,,340,16,18.3,,,,,,,,,wg-a,,,,AAXX 26064 07314 12/68 23408 10160 20140 30163 40190 56004 60006 80001 90600 333 10183 20160=
07314,1998-08-26 12:00:00,20,1019.1,-0.4,78,16,8000,14.816,,,300,,,,,,,,,,2,wg-a,,,,AAXX 26124 07314 12/58 13008 10200 20160 30164 40191 58004 60006 70240 80001 91200=
07314,1998-08-26 18:00:00,18,1016.6,-0.7,83,15,20000,29.632,,,310,16.4,20.2,,,,,,,,,wg-a,,,,AAXX 26184 07314 12/70 53116 10180 20150 30139 40166 56007 60006 80002 91800 333 10202 20164=
07314,1998-08-27 06:00:00,16,1018.7,1.6,88,14,16000,25.928,,,30,16,18.3,,,,,,,,,wg-a,,,,AAXX 27064 07314 12/66 20314 10160 20140 30160 40187 53016 60006 80001 90600 333 10183 20160=
07314,1998-08-27 12:00:00,22,1019.7,0.2,57,13,16000,25.928,,,40,,,,,,,,,,,wg-a,,,,AAXX 27124 07314 12/66 20414 10220 20130 30170 40197 50002 60006 80001 91200=
07314,1998-08-27 18:00:00,20,1019.6,0,60,12,16000,18.52,,,30,16.3,23.1,,,,,,,,,wg-a,,,,AAXX 27184 07314 12/66 10310 10200 20120 30169 40196 50000 60006 80001 91800 333 10231 20163=
07314,1998-08-28 00:00:00,16,1022.5,1,59,8,0,31.484,,,30,,,,,,,,,,,wg-a,,,,AAXX 28004 07314 12/// /0317 10160 20080 30197 40225 51010 60006 90000=
07314,1998-08-28 06:00:00,13,1023.9,1.2,72,8,20000,29.632,,,40,13.2,20.4,,,,,,,,,wg-a,,,,AAXX 28064 07314 12/70 10416 10130 20080 30211 40239 53012 60006 80001 90600 333 10204 20132=
07314,1998-08-28 12:00:00,20,1024,-0.7,46,8,22000,11.112,,,40,,,,,,,,,,,wg-a,,,,AAXX 28124 07314 12672 10406 10200 20080 30213 40240 58007 60006 81100 91200=
07314,1998-08-28 18:00:00,20,1021.9,-0.2,53,10,25000,18.52,,,30,13.2,21.6,,,,,,,,,wg-a,,,,AAXX 28184 07314 12/75 10310 10200 20100 30192 40219 56002 60006 80001 91800 333 10216 20132=
07314,1998-08-29 00:00:00,17,1022.1,-0.5,68,11,20000,25.928,,,40,,,,,,,,,,,wg-a,,,,AAXX 29004 07314 12/70 00414 10170 20110 30194 40221 58005 60006 80000 90000=
07314,1998-08-29 06:00:00,15,1021.6,0.2,72,10,20000,11.112,,,70,14.5,19.7,,,,,,,,,wg-a,,,,AAXX 29064 07314 12/70 10706 10150 20100 30188 40216 52002 60006 80001 90600 333 10197 20145=
07314,1998-08-29 12:00:00,21,1021.1,-1,43,8,22000,7.408,,,20,,,,,,,,,,,wg-a,,,,AAXX 29124 07314 12/72 10204 10210 20080 30184 40211 58010 60006 80001 91200=
07314,1998-08-29 18:00:00,18,1018.9,-0.6,73,13,25000,22.224,,,330,14.8,22.4,,,,,,,,,wg-a,,,,AAXX 29184 07314 12/75 43312 10180 20130 30162 40189 56006 60006 80002 91800 333 10224 20148=
07314,1998-08-30 00:00:00,17,1018.7,-0.4,59,9,25000,22.224,,,70,,,,,,,,,,,wg-a,,,,AAXX 30004 07314 12/75 20712 10170 20090 30160 40187 56004 60006 80001 90000=
07314,1998-08-30 06:00:00,15,1017.7,-0.5,63,8,20000,18.52,,,70,15.1,19.1,,,,,,,,,wg-a,,,,AAXX 30064 07314 12/70 70710 10150 20080 30149 40177 55005 60006 82032 90600 333 10191 20151=
07314,1998-08-30 18:00:00,20,1014.7,-0.8,68,14,25000,3.704,,,280,15.2,27.3,,,,,,,,,wg-a,,,,AAXX 30184 07314 12/75 22802 10200 20140 30120 40147 56008 60006 80002 91800 333 10273 20152=
07314,1998-08-31 00:00:00,19,1013.7,-0.8,60,11,25000,14.816,,,80,,,,,,,,,,,wg-a,,,,AAXX 31004 07314 12/75 40808 10190 20110 30110 40137 57008 60006 82032 90000=
07314,1998-08-31 06:00:00,18,1011.8,-0.7,64,11,0,18.52,,,90,17.2,20.2,,,,,,,,,wg-a,,,,AAXX 31064 07314 12/// /0910 10180 20110 30091 40118 55007 60006 90600 333 10202 20172=
07314,1998-08-31 12:00:00,24,1010.6,-1.3,57,15,18000,14.816,,,80,,,,,,,,,,,wg-a,,,,AAXX 31124 07314 12/68 60808 10240 20150 30079 40106 58013 60006 85032 91200=
07314,1998-08-31 18:00:00,27,1008.5,-0.6,45,14,18000,7.408,,,120,17.6,30.5,,,,,,,,,wg-a,,,,AAXX 31184 07314 12/68 61204 10270 20140 30059 40085 58006 60006 8603/ 91800 333 10305 20176=
07314,1998-09-01 00:00:00,19,1009.8,-0,88,17,0,11.112,,,280,,,,,,,,,,,wg-a,,,,AAXX 01004 07314 12/// /2806 10190 20170 30071 40098 54000 60006 90000=
07314,1998-09-01 06:00:00,19,1010.7,-0.6,94,18,0,31.484,,,170,18.3,27.3,,,,,,,,,wg-a,,,,AAXX 01064 07314 32/// /1717 10190 20180 30080 40107 55006 90600 333 10273 20183=
07314,1998-09-01 12:00:00,22,1013,0.9,78,18,10000,3.704,,,20,,,,,,,,,,1,wg-a,,,,AAXX 01124 07314 12660 70202 10220 20180 30103 40130 50009 60016 70196 877// 91200=
07314,1998-09-01 18:00:00,21,1013.1,-0,83,18,10000,7.408,,,310,18.6,24,,,,,,,,,wg-a,,,,AAXX 01184 07314 32660 73104 10210 20180 30104 40131 55000 8223/ 91800 333 10240 20186=
07314,1998-09-02 00:00:00,19,1011.8,-1.5,94,18,0,11.112,,,60,,,,,,,,,,,wg-a,,,,AAXX 02004 07314 12/// /0606 10190 20180 30091 40118 58015 60006 90000=
07314,1998-09-02 06:00:00,19,1010.9,-0.7,100,19,500,7.408,,,70,18.7,21.1,,,,,,,,2,wg-a,,,,AAXX 02064 07314 32/00 70704 10190 20190 30082 40109 55007 70292 8707/ 90600 333 10211 20187=
07314,1998-09-02 12:00:00,21,1011.1,0.3,88,19,7000,25.928,,,190,,,,,,,,,,,wg-a,,,,AAXX 02124 07314 12/57 81914 10210 20190 30084 40111 51003 60006 8807/ 91200=
07314,1998-09-02 18:00:00,20,1012,0.2,94,19,10000,25.928,,,210,19.3,21.6,,,,,,,,,wg-a,,,,AAXX 02184 07314 12/60 72114 10200 20190 30093 40120 50002 60006 85072 91800 333 10216 20193=
07314,1998-09-03 00:00:00,18,1015.5,2.3,83,15,18000,38.892,,,270,,,,,,,,,,,wg-a,,,,AAXX 03004 07314 12568 82721 10180 20150 30128 40155 51023 60006 888// 90000=
07314,1998-09-03 06:00:00,17,1018,1.5,88,15,0,25.928,,,310,17.1,19.9,,,,,,,,,wg-a,,,,AAXX 03064 07314 12/// /3114 10170 20150 30153 40180 52015 60006 90600 333 10199 20171=
07314,1998-09-03 12:00:00,19,1019.1,0,73,14,20000,7.408,,,260,,,,,,,,,,,wg-a,,,,AAXX 03124 07314 12570 52604 10190 20140 30164 40191 50000 60006 82206 91200=
07314,1998-09-03 18:00:00,19,1016.3,-1.2,83,16,20000,11.112,,,330,17.1,20.4,,,,,,,,,wg-a,,,,AAXX 03184 07314 12570 63306 10190 20160 30136 40163 57012 60006 82242 91800 333 10204 20171=
07314,1998-09-04 00:00:00,18,1013.7,-1.8,88,16,0,11.112,,,70,,,,,,,,,,,wg-a,,,,AAXX 04004 07314 12/// /0706 10180 20160 30110 40137 56018 60006 90000=
07314,1998-09-04 06:00:00,17,1010,-1.3,94,16,10000,7.408,,,100,16.6,18.5,,2,,,,,,25,wg-a,,,,AAXX 04064 07314 12560 81004 10170 20160 30073 40100 58013 60027 72582 8672/ 90600 333 10185 20166=
07314,1998-09-04 12:00:00,19,1008.9,-0.1,94,18,10000,25.928,,,220,,,,1,,,,,,81,wg-a,,,,AAXX 04124 07314 02460 82214 10190 20180 30062 40089 57001 60016 78122 8682/ 91200 333 60017=
07314,1998-09-04 18:00:00,18,1008.1,0.7,94,17,15000,22.224,,,240,16.9,20.8,,0,,,,,,1,wg-a,,,,AAXX 04184 07314 12465 42412 10180 20170 30054 40081 51007 60007 70186 83202 91800 333 10208 20169=
07314,1998-09-05 00:00:00,18,1010.9,1.1,88,16,20000,25.928,,,240,,,,,,,,,,,wg-a,,,,AAXX 05004 07314 12570 22414 10180 20160 30082 40109 51011 60006 81202 90000=
07314,1998-09-05 06:00:00,18,1012.3,1,88,16,18000,22.224,,50.004,250,17.7,18.4,,0,,,,,,25,wg-a,,,,AAXX 05064 07314 12568 62512 10180 20160 30096 40123 53010 60007 72511 84331 90600 333 10184 20177 91027=
07314,1998-09-05 12:00:00,19,1015.3,1.1,78,15,20000,22.224,,,260,,,,,,,,,,,wg-a,,,,AAXX 05124 07314 12570 62612 10190 20150 30126 40153 53011 60006 82232 91200=
07314,1998-09-05 18:00:00,18,1016.3,0.2,88,16,20000,11.112,,,250,17.3,19.5,,,,,,,,,wg-a,,,,AAXX 05184 07314 12570 72506 10180 20160 30136 40163 51002 60006 86302 91800 333 10195 20173=
07314,1998-09-06 00:00:00,17,1015.5,-1.2,94,16,12000,14.816,,,190,,,,,,,,,,,wg-a,,,,AAXX 06004 07314 12/62 11908 10170 20160 30128 40155 57012 60006 80002 90000=
07314,1998-09-06 06:00:00,16,1012.7,-1.2,94,15,2000,14.816,,,130,15.4,18.2,,,,,,,,10,wg-a,,,,AAXX 06064 07314 32320 71308 10160 20150 30100 40127 56012 71011 85602 90600 333 10182 20154=
07314,1998-09-06 12:00:00,25,1010.1,-1.7,44,12,18000,18.52,,,160,,,,,,,,,,,wg-a,,,,AAXX 06124 07314 12/68 41610 10250 20120 30075 40101 58017 60006 80002 91200=
07314,1998-09-06 18:00:00,20,1008.9,-0,83,17,20000,11.112,,,250,15.7,26.1,,,,,,,,,wg-a,,,,AAXX 06184 07314 32870 72506 10200 20170 30062 40089 55000 85056 91800 333 10261 20157=
07314,1998-09-07 00:00:00,19,1007.7,-0.5,94,18,18000,22.224,,,200,,,,,,,,,,13,wg-a,,,,AAXX 07004 07314 12568 72012 10190 20180 30050 40077 58005 60006 71398 81978 90000=
07314,1998-09-07 06:00:00,19,1006.7,0.1,83,16,18000,11.112,,,260,18.5,19.5,,,,,,,,2,wg-a,,,,AAXX 07064 07314 32568 62606 10190 20160 30040 40067 53001 70282 83372 90600 333 10195 20185=
07314,1998-09-07 12:00:00,21,1008.3,0.6,78,17,20000,18.52,,,220,,,,,,,,,,,wg-a,,,,AAXX 07124 07314 12570 52210 10210 20170 30056 40083 51006 60006 82202 91200=
07314,1998-09-07 18:00:00,19,1009.9,0.9,83,16,20000,25.928,,,250,18,20.9,,,,,,,,,wg-a,,,,AAXX 07184 07314 12570 32514 10190 20160 30072 40099 51009 60006 81231 91800 333 10209 20180=
07314,1998-09-08 00:00:00,18,1012.7,0.8,83,15,18000,22.224,,,230,,,,0,,,,,,2,wg-a,,,,AAXX 08004 07314 02568 72312 10180 20150 30100 40127 51008 60006 70281 8225/ 90000 333 60007=
07314,1998-09-08 06:00:00,18,1012.5,-0,88,16,12000,29.632,,,240,17.3,19,,,,,,,,60,wg-a,,,,AAXX 08064 07314 02662 82416 10180 20160 30098 40125 55000 61000 76022 887// 90600 333 10190 20173 ////=
07314,1998-09-08 12:00:00,20,1013.6,0.4,88,18,10000,31.484,,,220,,,,,,,,,,2,wg-a,,,,AAXX 08124 07314 02660 82217 10200 20180 30109 40136 53004 61000 70262 888// 91200 333 ////=
07314,1998-09-08 18:00:00,19,1013.8,0.2,94,18,1000,29.632,,57.412,230,18,20.4,,0,,,,,,61,wg-a,,,,AAXX 08184 07314 12610 82316 10190 20180 30111 40138 52002 60007 76162 887// 91800 333 10204 20180 91031=
07314,1998-09-09 00:00:00,19,1012.4,-1.4,94,18,0,31.484,,,190,,,,,,,,,,,wg-a,,,,AAXX 09004 07314 12/// /1917 10190 20180 30097 40124 58014 60006 90000=
07314,1998-09-09 06:00:00,19,1009.8,-0.8,88,17,0,22.224,,,180,18.4,19.1,,,,,,,,,wg-a,,,,AAXX 09064 07314 32/// /1812 10190 20170 30071 40098 56008 90600 333 10191 20184=
07314,1998-09-09 12:00:00,20,1010.2,-0,88,18,10000,29.632,,,210,,,,,,,,,,,wg-a,,,,AAXX 09124 07314 12860 82116 10200 20180 30075 40102 55000 60006 8803/ 91200=
07314,1998-09-09 18:00:00,20,1009.6,-0.6,88,18,10000,29.632,,,200,18.6,21.1,,,,,,,,,wg-a,,,,AAXX 09184 07314 12860 62016 10200 20180 30069 40096 58006 60006 8603/ 91800 333 10211 20186=
07314,1998-09-10 00:00:00,19,1010.4,-0.3,88,17,0,29.632,,,240,,,,,,,,,,,wg-a,,,,AAXX 10004 07314 12/// /2416 10190 20170 30077 40104 55003 60006 90000=
07314,1998-09-10 06:00:00,19,1010.6,0.1,83,16,17000,29.632,,,230,18.7,19.6,,,,,,,,,wg-a,,,,AAXX 10064 07314 12567 62316 10190 20160 30079 40106 53001 60006 83202 90600 333 10196 20187=
07314,1998-09-10 12:00:00,21,1012.1,0.5,78,17,18000,25.928,,,230,,,,,,,,,,,wg-a,,,,AAXX 10124 07314 12568 32314 10210 20170 30094 40121 50005 60006 83200 91200=
07314,1998-09-10 18:00:00,19,1013,0.6,83,16,15000,25.928,,,260,18.5,20.9,,,,,,,,,wg-a,,,,AAXX 10184 07314 12565 52614 10190 20160 30103 40130 53006 60006 85200 91800 333 10209 20185=
07314,1998-09-11 00:00:00,17,1013,-1,82,14,20000,18.52,,,250,,,,,,,,,,,wg-a,,,,AAXX 11004 07314 12570 32510 10170 20140 30103 40130 58010 60006 81272 90000=
07314,1998-09-11 06:00:00,18,1009.5,-1.9,73,13,0,22.224,,,240,17.2,18.6,,,,,,,,,wg-a,,,,AAXX 11064 07314 12/// /2412 10180 20130 30068 40095 58019 60006 90600 333 10186 20172=
07314,1998-09-11 12:00:00,15,1006.1,-2.2,88,13,18000,31.484,,68.524,220,,,,3,,,,,,61,wg-a,,,,AAXX 11124 07314 02568 82217 10150 20130 30034 40061 58022 60046 76122 8377/ 91200 333 60037 91037=
07314,1998-09-11 18:00:00,16,1004.3,0.8,72,11,18000,38.892,,,310,14.3,17.8,,,,,,,,,wg-a,,,,AAXX 11184 07314 32568 63121 10160 20110 30016 40043 53008 86200 91800 333 10178 20143=
07314,1998-09-12 00:00:00,14,1008.6,1.8,82,11,0,31.484,,,340,,,,1,,,,,,,wg-a,,,,AAXX 12004 07314 02/// /3417 10140 20110 30059 40086 51018 60016 90000 333 60017=
07314,1998-09-12 06:00:00,16,1009.8,1,68,10,0,35.188,,,300,14,16.7,,,,,,,,,wg-a,,,,AAXX 12064 07314 32/// /3019 10160 20100 30071 40098 53010 90600 333 10167 20140=
07314,1998-09-12 12:00:00,16,1008.6,-1.4,77,12,18000,42.596,,61.116,270,,,,1,,,,,,2,wg-a,,,,AAXX 12124 07314 02668 82723 10160 20120 30059 40086 58014 60016 70262 887// 91200 333 60017 91033=
07314,1998-09-12 18:00:00,15,1005.2,-0.3,88,13,12000,38.892,,83.34,310,14.1,16.8,,3,,,,,,81,wg-a,,,,AAXX 12184 07314 12662 83121 10150 20130 30025 40052 55003 60037 78162 887// 91800 333 10168 20141 91045=
07314,1998-09-13 00:00:00,14,1005.8,0.2,63,7,0,25.928,,,330,,,,,,,,,,,wg-a,,,,AAXX 13004 07314 02/// /3314 10140 20070 30031 40058 53002 61000 90000 333 ////=
07314,1998-09-13 06:00:00,14,1004.6,-0.6,77,10,12000,31.484,,,280,12.4,15.4,,2,,,,,,80,wg-a,,,,AAXX 13064 07314 12662 72817 10140 20100 30019 40046 57006 60027 78062 877// 90600 333 10154 20124=
07314,1998-09-13 12:00:00,16,1006.3,0.9,68,10,12000,50.004,,87.044,310,,,,0,,,,,,80,wg-a,,,,AAXX 13124 07314 02662 73127 10160 20100 30036 40063 53009 60026 78062 877// 91200 333 60007 91047=
07314,1998-09-13 18:00:00,16,1009.5,1.3,72,11,12000,42.596,,,300,13.8,16.8,,,,,,,,,wg-a,,,,AAXX 13184 07314 32562 53023 10160 20110 30068 40095 51013 82202 91800 333 10168 20138=
07314,1998-09-14 00:00:00,15,1010.7,0.2,72,10,0,35.188,,,310,,,,,,,,,,,wg-a,,,,AAXX 14004 07314 12/// /3119 10150 20100 30080 40107 50002 60006 90000=
07314,1998-09-14 06:00:00,15,1010.4,0.3,72,10,12000,22.224,,,290,14.5,15.7,,,,,,,,,wg-a,,,,AAXX 14064 07314 12562 72912 10150 20100 30077 40104 53003 60006 8324/ 90600 333 10157 20145=
07314,1998-09-14 12:00:00,16,1013.3,1.6,72,11,20000,38.892,,,300,,,,,,,,,,,wg-a,,,,AAXX 14124 07314 12570 43021 10160 20110 30106 40133 51016 60006 8424/ 91200=
07314,1998-09-14 18:00:00,16,1015.2,1.2,63,9,20000,42.596,,,300,14.6,16.9,,,,,,,,,wg-a,,,,AAXX 14184 07314 12570 33023 10160 20090 30125 40152 53012 60006 83202 91800 333 10169 20146=
07314,1998-09-15 00:00:00,15,1017.9,0.7,77,11,0,35.188,,,300,,,,,,,,,,,wg-a,,,,AAXX 15004 07314 12/// /3019 10150 20110 30151 40179 51007 60006 90000=
07314,1998-09-15 06:00:00,16,1018,0.3,82,13,14000,11.112,,,250,14.9,15.7,,,,,,,,,wg-a,,,,AAXX 15064 07314 12564 82506 10160 20130 30153 40180 53003 60006 8524/ 90600 333 10157 20149=
07314,1998-09-15 12:00:00,17,1018.3,-0.5,94,16,14000,31.484,,,220,,,,0,,,,,,61,wg-a,,,,AAXX 15124 07314 02564 82217 10170 20160 30156 40183 58005 60006 76122 8524/ 91200 333 60007=
07314,1998-09-15 18:00:00,17,1016.4,-0.4,94,16,4000,31.484,,,250,15.7,17.8,,1,,,,,,61,wg-a,,,,AAXX 15184 07314 12440 82517 10170 20160 30137 40164 56004 60017 76122 887// 91800 333 10178 20157=
07314,1998-09-16 00:00:00,17,1017,-0,88,15,0,18.52,,,270,,,,,,,,,,,wg-a,,,,AAXX 16004 07314 02/// /2710 10170 20150 30143 40170 55000 61000 90000 333 ////=
07314,1998-09-16 06:00:00,16,1017.4,0.8,77,12,20000,29.632,,,320,15.1,17,,,,,,,,,wg-a,,,,AAXX 16064 07314 32570 83216 10160 20120 30147 40174 53008 885// 90600 333 10170 20151=
07314,1998-09-16 12:00:00,17,1018.9,0.4,77,13,20000,29.632,,,300,,,,,,,,,,,wg-a,,,,AAXX 16124 07314 12570 63016 10170 20130 30162 40189 51004 60006 82230 91200=
07314,1998-09-16 18:00:00,16,1018.7,0.1,77,12,25000,29.632,,,300,15.7,17.4,,,,,,,,,wg-a,,,,AAXX 16184 07314 12/75 23016 10160 20120 30160 40187 53001 60006 80002 91800 333 10174 20157=
07314,1998-09-17 00:00:00,16,1019.6,0.1,88,14,25000,25.928,,,320,,,,,,,,,,,wg-a,,,,AAXX 17004 07314 12/75 03214 10160 20140 30168 40196 53001 60006 80000 90000=
07314,1998-09-17 06:00:00,15,1019.6,0.2,88,13,16000,18.52,,,340,14.9,15.7,,,,,,,,,wg-a,,,,AAXX 17064 07314 12/66 63410 10150 20130 30168 40196 53002 60006 80002 90600 333 10157 20149=
07314,1998-09-17 12:00:00,18,1020.5,-0.1,77,14,18000,11.112,,,300,,,,,,,,,,,wg-a,,,,AAXX 17124 07314 12668 43006 10180 20140 30178 40205 58001 60006 82202 91200=
07314,1998-09-17 18:00:00,16,1020.2,0.1,88,14,18000,18.52,,,310,15,18.1,,,,,,,,,wg-a,,,,AAXX 17184 07314 12/68 43110 10160 20140 30175 40202 53001 60006 80002 91800 333 10181 20150=
07314,1998-09-18 00:00:00,15,1021.7,0.4,88,13,0,7.408,,,20,,,,,,,,,,,wg-a,,,,AAXX 18004 07314 12/// /0204 10150 20130 30189 40217 51004 60006 90000=
07314,1998-09-18 12:00:00,20,1024,0.2,64,13,20000,3.704,,,20,,,,,,,,,,,wg-a,,,,AAXX 18124 07314 12/70 10202 10200 20130 30213 40240 50002 60006 80001 91200=
07314,1998-09-18 18:00:00,19,1023.5,0.7,78,15,20000,11.112,,,360,14.9,21,,,,,,,,,wg-a,,,,AAXX 18184 07314 12/70 23606 10190 20150 30208 40235 53007 60006 80002 91800 333 10210 20149=
07314,1998-09-19 00:00:00,17,1024.7,-0.3,72,12,0,11.112,,,70,,,,,,,,,,,wg-a,,,,AAXX 19004 07314 12/// /0706 10170 20120 30219 40247 58003 60006 90000=
07314,1998-09-19 06:00:00,15,1025.4,0.8,77,11,20000,18.52,,,60,15.2,19.3,,,,,,,,,wg-a,,,,AAXX 19064 07314 12/70 10610 10150 20110 30226 40254 53008 60006 80002 90600 333 10193 20152=
07314,1998-09-19 12:00:00,21,1025.7,-0.4,64,14,20000,14.816,,,50,,,,,,,,,,,wg-a,,,,AAXX 19124 07314 12/70 10508 10210 20140 30230 40257 58004 60006 80002 91200=
07314,1998-09-19 18:00:00,20,1024.6,0.5,64,13,25000,18.52,,,60,15.2,22,,,,,,,,,wg-a,,,,AAXX 19184 07314 12/75 10610 10200 20130 30219 40246 53005 60006 80002 91800 333 10220 20152=
07314,1998-09-20 00:00:00,17,1025.4,-0.2,68,11,0,18.52,,,60,,,,,,,,,,,wg-a,,,,AAXX 20004 07314 12/// /0610 10170 20110 30226 40254 58002 60006 90000=
07314,1998-09-20 06:00:00,15,1026.3,0.9,77,11,20000,18.52,,,70,15.2,20.2,,,,,,,,,wg-a,,,,AAXX 20064 07314 12/70 00710 10150 20110 30235 40263 53009 60006 80000 90600 333 10202 20152=
07314,1998-09-20 12:00:00,21,1025.6,-1.2,56,12,22000,29.632,,,40,,,,,,,,,,,wg-a,,,,AAXX 20124 07314 12/72 10416 10210 20120 30229 40256 58012 60006 80001 91200=
07314,1998-09-20 18:00:00,20,1024.3,0.1,68,14,25000,22.224,,,50,15.2,22.3,,,,,,,,,wg-a,,,,AAXX 20184 07314 12/75 00512 10200 20140 30216 40243 53001 60006 80000 91800 333 10223 20152=
07314,1998-09-21 00:00:00,17,1024.1,-0.8,72,12,0,31.484,,,30,,,,,,,,,,,wg-a,,,,AAXX 21004 07314 12/// /0317 10170 20120 30213 40241 58008 60006 90000=
07314,1998-09-21 06:00:00,15,1023.8,0.5,77,11,25000,22.224,,,60,14.7,20.3,,,,,,,,,wg-a,,,,AAXX 21064 07314 12/75 00612 10150 20110 30210 40238 53005 60006 80000 90600 333 10203 20147=
07314,1998-09-21 12:00:00,21,1022.3,-1.5,64,14,25000,14.816,,,60,,,,,,,,,,,wg-a,,,,AAXX 21124 07314 12/75 00608 10210 20140 30196 40223 58015 60006 80000 91200=
07314,1998-09-21 18:00:00,20,1019.9,-0.6,64,13,25000,25.928,,,40,14.4,21.3,,,,,,,,,wg-a,,,,AAXX 21184 07314 12/75 00414 10200 20130 30172 40199 56006 60006 80000 91800 333 10213 20144=
07314,1998-09-22 00:00:00,17,1019.4,-0.7,72,12,0,14.816,,,60,,,,,,,,,,,wg-a,,,,AAXX 22004 07314 12/// /0608 10170 20120 30167 40194 57007 60006 90000=
07314,1998-09-22 06:00:00,15,1018,-0.1,82,12,20000,14.816,,,70,14.6,19.6,,,,,,,,,wg-a,,,,AAXX 22064 07314 12870 20708 10150 20120 30152 40180 55001 60006 82030 90600 333 10196 20146=
07314,1998-09-22 12:00:00,22,1016.4,-1.2,60,14,16000,7.408,,,70,,,,,,,,,,,wg-a,,,,AAXX 22124 07314 12/66 20704 10220 20140 30137 40164 58012 60006 80002 91200=
07314,1998-09-22 18:00:00,20,1014.9,-0.2,64,13,18000,3.704,,,230,14.5,22,,,,,,,,,wg-a,,,,AAXX 22184 07314 12868 52302 10200 20130 30122 40149 55002 60006 85080 91800 333 10220 20145=
07314,1998-09-23 00:00:00,18,1014.9,-0,83,15,0,14.816,,,110,,,,,,,,,,,wg-a,,,,AAXX 23004 07314 12/// /1108 10180 20150 30122 40149 55000 60006 90000=
07314,1998-09-23 06:00:00,16,1015.3,0.5,88,14,12000,7.408,,,140,15.8,19.9,,,,,,,,,wg-a,,,,AAXX 23064 07314 12562 81404 10160 20140 30126 40153 53005 60006 8224/ 90600 333 10199 20158=
07314,1998-09-23 12:00:00,21,1015.7,-0.5,69,15,10000,14.816,,,140,,,,,,,,,,,wg-a,,,,AAXX 23124 07314 12560 71408 10210 20150 30130 40157 57005 60016 8574/ 91200=
07314,1998-09-23 18:00:00,18,1015.1,-0.6,83,15,14000,3.704,,,60,15.3,21.6,,,,,,,,,wg-a,,,,AAXX 23184 07314 32564 70602 10180 20150 30124 40151 56006 8424/ 91800 333 10216 20153=
07314,1998-09-24 00:00:00,16,1014.4,-1.4,94,15,0,11.112,,,110,,,,,,,,,,,wg-a,,,,AAXX 24004 07314 12/// /1106 10160 20150 30117 40144 56014 60006 90000=
07314,1998-09-24 06:00:00,16,1013.4,-0.1,94,15,0,14.816,,,120,15,17.8,,,,,,,,,wg-a,,,,AAXX 24064 07314 32/// /1208 10160 20150 30107 40134 57001 90600 333 10178 20150=
07314,1998-09-24 12:00:00,20,1012.7,-0.6,83,17,13000,18.52,,,180,,,,,,,,,,2,wg-a,,,,AAXX 24124 07314 12563 71810 10200 20170 30100 40127 58006 60056 70262 8623/ 91200=
07314,1998-09-24 18:00:00,18,1010.6,-0.7,88,16,17000,11.112,,,150,15.5,20.3,,,,,,,,,wg-a,,,,AAXX 24184 07314 32567 41506 10180 20160 30079 40106 58007 82308 91800 333 10203 20155=
07314,1998-09-25 00:00:00,16,1008.8,-1.5,94,15,0,22.224,,,130,,,,,,,,,,,wg-a,,,,AAXX 25004 07314 12/// /1312 10160 20150 30061 40088 58015 60006 90000=
07314,1998-09-25 06:00:00,16,1007.1,-0.4,94,15,0,18.52,,,140,15.9,17.7,,,,,,,,,wg-a,,,,AAXX 25064 07314 32/// /1410 10160 20150 30044 40071 55004 90600 333 10177 20159=
07314,1998-09-25 12:00:00,21,1006.2,-0.7,73,16,12000,35.188,,53.708,170,,,,,,,,,,25,wg-a,,,,AAXX 25124 07314 12562 71719 10210 20160 30035 40062 55007 60066 72596 8372/ 91200 333 91029=
07314,1998-09-25 18:00:00,20,1002.9,-2.1,68,14,18000,14.816,,,120,16,21.7,,,,,,,,,wg-a,,,,AAXX 25184 07314 32568 61208 10200 20140 30002 40029 56021 8224/ 91800 333 10217 20160=
07314,1998-09-26 00:00:00,19,998.9,-2,83,16,0,22.224,,,120,,,,,,,,,,,wg-a,,,,AAXX 26004 07314 12/// /1212 10190 20160 39962 49989 58020 60006 90000=
07314,1998-09-26 06:00:00,18,999.1,0.6,77,14,18000,25.928,,68.524,210,17.1,19.5,,1,,,,,,,wg-a,,,,AAXX 26064 07314 12568 72114 10180 20140 39964 49991 51006 60017 8217/ 90600 333 10195 20171 91037=
07314,1998-09-26 12:00:00,20,998.7,-0.6,68,14,18000,31.484,,50.004,190,,,,,,,,,,,wg-a,,,,AAXX 26124 07314 12568 61917 10200 20140 39960 49987 58006 60006 8424/ 91200 333 91027=
07314,1998-09-26 18:00:00,17,996.3,-1.4,77,13,18000,50.004,,68.524,210,17.2,20.9,,,,,,,,,wg-a,,,,AAXX 26184 07314 12568 72127 10170 20130 39936 49963 56014 60006 8337/ 91800 333 10209 20172 91037=
07314,1998-09-27 00:00:00,18,990.7,-2.5,83,15,0,79.636,,,220,,,,2,,,,,,,wg-a,,,,AAXX 27004 07314 02/// /2243 10180 20150 39880 49907 58025 60126 90000 333 60027=
07314,1998-09-27 06:00:00,17,1000.2,5.6,88,15,75000,53.708,,103.712,260,15.7,18.2,,,,,,,,,wg-a,,,,AAXX 27064 07314 32589 82629 10170 20150 39975 40002 51056 8577/ 90600 333 10182 20157 91056=
07314,1998-09-27 12:00:00,18,1005.4,1.9,83,15,10000,35.188,,68.524,260,,,,,,,,,,,wg-a,,,,AAXX 27124 07314 12560 62619 10180 20150 30027 40054 51019 60006 8437/ 91200 333 91037=
07314,1998-09-27 18:00:00,18,1007.4,1.1,88,16,10000,35.188,,,250,17.2,18.5,,,,,,,,81,wg-a,,,,AAXX 27184 07314 02560 82519 10180 20160 30047 40074 53011 61000 78122 887// 91800 333 10185 20172 ////=
07314,1998-09-28 00:00:00,17,1008.3,-0.2,94,16,0,31.484,,,270,,,,,,,,,,,wg-a,,,,AAXX 28004 07314 02/// /2717 10170 20160 30056 40083 58002 61000 90000 333 ////=
07314,1998-09-28 06:00:00,17,1009.3,1,82,14,8000,22.224,,,280,16.7,17.7,,,,,,,,,wg-a,,,,AAXX 28064 07314 32558 82812 10170 20140 30066 40093 53010 887// 90600 333 10177 20167=
07314,1998-09-28 12:00:00,18,1011.1,0.5,83,15,13000,22.224,,,260,,,,,,,,,,,wg-a,,,,AAXX 28124 07314 12563 62612 10180 20150 30084 40111 51005 60006 86200 91200=
07314,1998-09-28 18:00:00,17,1011.6,0.6,88,15,13000,22.224,,,270,16.7,18.4,,,,,,,,,wg-a,,,,AAXX 28184 07314 12563 52712 10170 20150 30089 40116 53006 60006 84242 91800 333 10184 20167=
07314,1998-09-29 00:00:00,16,1012.5,-0.3,88,14,0,11.112,,,280,,,,,,,,,,,wg-a,,,,AAXX 29004 07314 12/// /2806 10160 20140 30098 40125 58003 60006 90000=
07314,1998-09-29 06:00:00,14,1009.3,-1.7,94,13,9000,7.408,,,110,14.1,17.2,,,,,,,,,wg-a,,,,AAXX 29064 07314 12559 81104 10140 20130 30066 40093 58017 60006 8624/ 90600 333 10172 20141=
07314,1998-09-29 12:00:00,16,1005.4,-2.4,88,14,11000,11.112,,,130,,,,0,,,,,,,wg-a,,,,AAXX 29124 07314 02561 81306 10160 20140 30027 40054 56024 60016 8424/ 91200 333 60007=
07314,1998-09-29 18:00:00,17,999.5,-2.1,94,16,4000,35.188,,,160,14.4,17.2,,1,,,,,,81,wg-a,,,,AAXX 29184 07314 12640 81619 10170 20160 39968 49995 56021 60017 78122 887// 91800 333 10172 20144=
07314,1998-09-30 00:00:00,18,1002.5,1.5,77,14,0,46.3,,,240,,,,,,,,,,,wg-a,,,,AAXX 30004 07314 12/// /2425 10180 20140 39998 40025 51015 60016 90000=
07314,1998-09-30 06:00:00,17,1003.1,-0.1,72,12,12000,42.596,,64.82,240,16.1,18.2,,0,,,,,,,wg-a,,,,AAXX 30064 07314 12662 62423 10170 20120 30004 40031 57001 60007 86700 90600 333 10182 20161 91035=
07314,1998-09-30 12:00:00,18,1003.2,-0.5,73,13,14000,53.708,,79.636,220,,,,1,,,,,,,wg-a,,,,AAXX 30124 07314 02664 52229 10180 20130 30005 40032 58005 60016 85900 91200 333 60017 91043=
07314,1998-09-30 18:00:00,17,1003.1,0.2,77,13,14000,38.892,,75.932,230,15.1,17.9,,0,,,,,,81,wg-a,,,,AAXX 30184 07314 12664 62321 10170 20130 30004 40031 53002 60007 78182 86940 91800 333 10179 20151 91041=
07314,1998-10-01 00:00:00,15,1001.6,-1.2,82,12,0,46.3,,,230,,,,1,,,,,,,wg-a,,,,AAXX 01004 07314 02/// /2325 10150 20120 39989 40016 58012 60016 90000 333 60017=
07314,1998-10-01 06:00:00,16,1000,-0.4,82,13,0,29.632,,,230,14.7,17,,2,,,,,,,wg-a,,,,AAXX 01064 07314 12/// /2316 10160 20130 39973 40000 56004 60027 90600 333 10170 20147=
07314,1998-10-01 12:00:00,17,1000.4,0,82,14,11000,29.632,,,240,,,,0,,,,,,,wg-a,,,,AAXX 01124 07314 02661 62416 10170 20140 39977 40004 50000 60016 8577/ 91200 333 60007=
07314,1998-10-01 18:00:00,17,1000,0.1,82,14,11000,42.596,,,260,15.1,17.5,,1,,,,,,,wg-a,,,,AAXX 01184 07314 12661 72623 10170 20140 39973 40000 53001 60017 8677/ 91800 333 10175 20151=
07314,1998-10-02 00:00:00,16,999.7,0.4,88,14,0,46.3,,,320,,,,2,,,,,,,wg-a,,,,AAXX 02004 07314 02/// /3225 10160 20140 39970 49997 53004 60026 90000 333 60027=
07314,1998-10-02 06:00:00,15,1004.9,2.7,82,12,0,38.892,,,330,14.6,16.8,,,,,,,,,wg-a,,,,AAXX 02064 07314 32/// /3321 10150 20120 30022 40049 53027 90600 333 10168 20146=
07314,1998-10-02 12:00:00,16,1008.6,1.4,77,12,14000,25.928,,,340,,,,,,,,,,,wg-a,,,,AAXX 02124 07314 02664 83414 10160 20120 30059 40086 51014 61000 887// 91200 333 ////=
07314,1998-10-02 18:00:00,17,1011.5,2,82,14,0,22.224,,,330,14.6,18.1,,,,,,,,,wg-a,,,,AAXX 02184 07314 32/// /3312 10170 20140 30088 40115 53020 91800 333 10181 20146=
07314,1998-10-03 00:00:00,15,1014.6,1.2,82,12,0,14.816,,,10,,,,,,,,,,,wg-a,,,,AAXX 03004 07314 12/// /0108 10150 20120 30119 40146 51012 60006 90000=
07314,1998-10-03 06:00:00,12,1015.2,0.2,88,10,500,3.704,,,160,11.8,17.2,,,,,,,,,wg-a,,,,AAXX 03064 07314 12/00 01602 10120 20100 30124 40152 53002 60006 80000 90600 333 10172 20118=
07314,1998-10-03 12:00:00,17,1014.6,-0.5,77,13,10000,11.112,,,300,,,,,,,,,,,wg-a,,,,AAXX 03124 07314 12560 53006 10170 20130 30119 40146 58005 60006 85300 91200=
07314,1998-10-03 18:00:00,16,1012.4,-0.6,77,12,16000,14.816,,,280,11.5,17.9,,,,,,,,,wg-a,,,,AAXX 03184 07314 12566 72808 10160 20120 30097 40124 55006 60006 83330 91800 333 10179 20115=
07314,1998-10-04 00:00:00,15,1009.7,-2,82,12,0,14.816,,,310,,,,,,,,,,,wg-a,,,,AAXX 04004 07314 12/// /3108 10150 20120 30070 40097 58020 60006 90000=
07314,1998-10-04 06:00:00,14,1006.3,-1.1,88,12,0,11.112,,,10,13.5,15.8,,,,,,,,,wg-a,,,,AAXX 04064 07314 32/// /0106 10140 20120 30036 40063 56011 90600 333 10158 20135=
07314,1998-10-04 12:00:00,15,1005.5,-0.6,72,10,12000,7.408,,,50,,,,,,,,,,,wg-a,,,,AAXX 04124 07314 12562 70504 10150 20100 30028 40055 58006 60006 8473/ 91200=
07314,1998-10-04 18:00:00,14,1004.6,-0,82,11,12000,11.112,,,50,13.5,16.2,,0,,,,,,,wg-a,,,,AAXX 04184 07314 12562 70506 10140 20110 30019 40046 55000 60007 8373/ 91800 333 10162 20135=
07314,1998-10-05 00:00:00,13,1004.8,-0.3,88,11,0,7.408,,,90,,,,,,,,,,,wg-a,,,,AAXX 05004 07314 12/// /0904 10130 20110 30021 40048 58003 60016 90000=
07314,1998-10-05 06:00:00,12,1005.2,0.7,94,11,10000,14.816,,,60,12.1,13.7,,,,,,,,,wg-a,,,,AAXX 05064 07314 32560 70608 10120 20110 30025 40052 53007 8113/ 90600 333 10137 20121=
07314,1998-10-05 12:00:00,16,1006.7,0.4,63,9,18000,14.816,,,40,,,,,,,,,,,wg-a,,,,AAXX 05124 07314 12/68 30408 10160 20090 30040 40067 51004 60006 81032 91200=
07314,1998-10-05 18:00:00,16,1007.3,1,63,9,22000,22.224,,,20,11.8,17,,,,,,,,,wg-a,,,,AAXX 05184 07314 12572 70212 10160 20090 30046 40073 53010 60006 81172 91800 333 10170 20118=
07314,1998-10-06 06:00:00,11,1009.6,0.8,87,9,0,18.52,,,30,11.1,15.5,,,,,,,,,wg-a,,,,AAXX 06064 07314 12/// /0310 10110 20090 30068 40096 53008 60006 90600 333 10155 20111=
07314,1998-10-06 12:00:00,15,1012.4,1.1,77,11,6000,11.112,,,20,,,,,,,,,,,wg-a,,,,AAXX 06124 07314 12556 40206 10150 20110 30097 40124 51011 60006 81140 91200=
07314,1998-10-06 18:00:00,15,1014.5,1.5,72,10,9000,18.52,,,320,10.9,16.1,,,,,,,,,wg-a,,,,AAXX 06184 07314 12559 53210 10150 20100 30118 40145 53015 60006 83341 91800 333 10161 20109=
07314,1998-10-07 00:00:00,14,1016.4,0.9,77,10,0,14.816,,,10,,,,,,,,,,,wg-a,,,,AAXX 07004 07314 12/// /0108 10140 20100 30136 40164 51009 60006 90000=
07314,1998-10-07 06:00:00,13,1018.1,1.1,82,10,7000,14.816,,,360,12.4,15.4,,,,,,,,,wg-a,,,,AAXX 07064 07314 12857 13608 10130 20100 30153 40181 53011 60006 81030 90600 333 10154 20124=
07314,1998-10-07 12:00:00,16,1020.8,1,59,8,15000,11.112,,,10,,,,,,,,,,,wg-a,,,,AAXX 07124 07314 12/65 20106 10160 20080 30180 40208 51010 60006 81032 91200=
07314,1998-10-07 18:00:00,14,1022,1.2,77,10,10000,38.892,,,10,11.9,16,,,,,,,,,wg-a,,,,AAXX 07184 07314 12560 60121 10140 20100 30192 40220 53012 60006 85230 91800 333 10160 20119=
07314,1998-10-08 00:00:00,13,1023.2,-0.1,77,9,0,31.484,,,340,,,,,,,,,,,wg-a,,,,AAXX 08004 07314 12/// /3417 10130 20090 30204 40232 55001 60006 90000=
07314,1998-10-08 06:00:00,13,1023.1,0.1,82,10,12000,35.188,,,350,12.8,13.7,,,,,,,,,wg-a,,,,AAXX 08064 07314 12562 83519 10130 20100 30203 40231 51001 60006 888// 90600 333 10137 20128=
07314,1998-10-08 12:00:00,14,1024.7,0.3,77,10,12000,31.484,,,340,,,,,,,,,,,wg-a,,,,AAXX 08124 07314 12562 83417 10140 20100 30219 40247 51003 60006 888// 91200=
07314,1998-10-08 18:00:00,12,1024.2,-0.1,94,11,6000,35.188,,,340,12.1,14.8,,4,,,,,,61,wg-a,,,,AAXX 08184 07314 12556 83419 10120 20110 30214 40242 55001 60047 76122 888// 91800 333 10148 20121=
07314,1998-10-09 00:00:00,12,1022.4,-1.4,88,10,0,38.892,,,350,,,,,,,,,,,wg-a,,,,AAXX 09004 07314 12/// /3521 10120 20100 30196 40224 57014 60016 90000=
07314,1998-10-09 06:00:00,12,1021.4,0.2,88,10,17000,38.892,,,10,11.9,12.9,,,,,,,,,wg-a,,,,AAXX 09064 07314 32567 80121 10120 20100 30186 40214 53002 888// 90600 333 10129 20119=
07314,1998-10-09 12:00:00,13,1022.9,0.1,77,9,17000,11.112,,,30,,,,,,,,,,,wg-a,,,,AAXX 09124 07314 12567 80306 10130 20090 30201 40229 50001 60006 885// 91200=
07314,1998-10-09 18:00:00,13,1021.9,-0.1,77,9,17000,3.704,,,310,11.7,13.1,,,,,,,,,wg-a,,,,AAXX 09184 07314 12567 83102 10130 20090 30191 40219 55001 60006 888// 91800 333 10131 20117=
07314,1998-10-10 00:00:00,14,1020,-2.1,82,11,0,18.52,,,210,,,,,,,,,,,wg-a,,,,AAXX 10004 07314 12/// /2110 10140 20110 30172 40200 58021 60006 90000=
07314,1998-10-10 06:00:00,16,1016.3,-1.9,94,15,500,35.188,,,230,12.6,15.6,,1,,,,,,63,wg-a,,,,AAXX 10064 07314 12500 82319 10160 20150 30136 40163 58019 60017 76386 8802/ 90600 333 10156 20126=
07314,1998-10-10 12:00:00,16,1017.1,1,72,11,18000,25.928,,,320,,,,0,,,,,,21,wg-a,,,,AAXX 10124 07314 02568 83214 10160 20110 30144 40171 51010 60036 72162 8112/ 91200 333 60007=
07314,1998-10-10 18:00:00,16,1019.3,1.7,72,11,20000,35.188,,,310,15.2,16.9,,,,,,,,,wg-a,,,,AAXX 10184 07314 32470 73119 10160 20110 30165 40193 53017 8227/ 91800 333 10169 20152=
07314,1998-10-11 00:00:00,16,1021.4,0.3,77,12,20000,22.224,,,310,,,,,,,,,,2,wg-a,,,,AAXX 11004 07314 12470 63112 10160 20120 30186 40214 52003 60006 70282 8433/ 90000=
07314,1998-10-11 06:00:00,15,1021.8,0.2,72,10,0,22.224,,,270,14.7,16.1,,,,,,,,,wg-a,,,,AAXX 11064 07314 32/// /2712 10150 20100 30190 40218 51002 90600 333 10161 20147=
07314,1998-10-11 12:00:00,16,1021.3,-1.5,94,15,8000,35.188,,,240,,,,,,,,,,51,wg-a,,,,AAXX 11124 07314 02558 82419 10160 20150 30185 40213 58015 61000 75151 887// 91200 333 6100=
07314,1998-10-11 18:00:00,17,1018.7,-0.8,94,16,500,38.892,,,260,15.3,16.9,,1,,,,,,53,wg-a,,,,AAXX 11184 07314 12500 82621 10170 20160 30160 40187 56008 60017 75355 887// 91800 333 10169 20153=
07314,1998-10-12 00:00:00,15,1019.1,0.3,82,12,18000,35.188,,,330,,,,,,,,,,1,wg-a,,,,AAXX 12004 07314 12568 23319 10150 20120 30163 40191 51003 60026 70185 81301 90000=
07314,1998-10-12 06:00:00,14,1021.1,1.3,67,8,14000,25.928,,,350,12.9,16.7,,,,,,,,,wg-a,,,,AAXX 12064 07314 32664 73514 10140 20080 30183 40211 51013 877// 90600 333 10167 20129=
07314,1998-10-12 12:00:00,16,1023.6,0.5,68,10,20000,22.224,,,310,,,,,,,,,,,wg-a,,,,AAXX 12124 07314 12570 23112 10160 20100 30208 40236 51005 60006 82100 91200=
07314,1998-10-12 18:00:00,15,1024.4,0.7,67,9,20000,25.928,,,310,13.5,16.4,,,,,,,,,wg-a,,,,AAXX 12184 07314 12570 43114 10150 20090 30216 40244 52007 60006 82142 91800 333 10164 20135=
07314,1998-10-13 00:00:00,14,1025.5,0.1,82,11,0,7.408,,,350,,,,,,,,,,,wg-a,,,,AAXX 13004 07314 12/// /3504 10140 20110 30227 40255 50001 60006 90000=
07314,1998-10-13 06:00:00,15,1024.7,-0.3,67,9,0,14.816,,,250,12.6,15.4,,,,,,,,,wg-a,,,,AAXX 13064 07314 12/// /2508 10150 20090 30219 40247 58003 60006 90600 333 10154 20126=
07314,1998-10-13 12:00:00,17,1026.4,0.3,68,11,20000,14.816,,,230,,,,,,,,,,,wg-a,,,,AAXX 13124 07314 12570 52308 10170 20110 30236 40264 51003 60006 83108 91200=
07314,1998-10-13 18:00:00,16,1025.6,0.1,77,12,20000,22.224,,,230,14.9,17.2,,,,,,,,,wg-a,,,,AAXX 13184 07314 12570 72312 10160 20120 30228 40256 53001 60006 8117/ 91800 333 10172 20149=
07314,1998-10-14 00:00:00,16,1025.7,-0.2,88,14,18000,22.224,,,240,,,,,,,,,,,wg-a,,,,AAXX 14004 07314 12/68 82412 10160 20140 30229 40257 58002 60006 8802/ 90000=
07314,1998-10-14 06:00:00,17,1025.4,0.6,88,15,0,22.224,,,220,16,16.6,,,,,,,,,wg-a,,,,AAXX 14064 07314 32/// /2212 10170 20150 30226 40254 52006 90600 333 10166 20160=
07314,1998-10-14 12:00:00,17,1026.8,0,88,15,10000,18.52,,,220,,,,,,,,,,,wg-a,,,,AAXX 14124 07314 12560 82210 10170 20150 30240 40268 50000 60016 887// 91200=
07314,1998-10-14 18:00:00,17,1027.4,0.8,88,15,20000,14.816,,,240,15.4,18.3,,,,,,,,,wg-a,,,,AAXX 14184 07314 32570 72408 10170 20150 30246 40274 53008 8113/ 91800 333 10183 20154=
07314,1998-10-15 00:00:00,16,1027.2,-0.4,94,15,0,14.816,,,240,,,,,,,,,,,wg-a,,,,AAXX 15004 07314 12/// /2408 10160 20150 30244 40272 58004 60006 90000=
07314,1998-10-15 06:00:00,16,1025.8,-0.2,94,15,0,11.112,,,210,15.9,16.8,,,,,,,,,wg-a,,,,AAXX 15064 07314 32/// /2106 10160 20150 30230 40258 58002 90600 333 10168 20159=
07314,1998-10-15 12:00:00,17,1025.9,-0.4,88,15,20000,11.112,,,230,,,,,,,,,,,wg-a,,,,AAXX 15124 07314 12570 42306 10170 20150 30231 40259 58004 60006 8213/ 91200=
07314,1998-10-15 18:00:00,16,1024.2,-0.3,88,14,20000,3.704,,,340,15.9,18.2,,,,,,,,,wg-a,,,,AAXX 15184 07314 12570 73402 10160 20140 30214 40242 55003 60006 878// 91800 333 10182 20159=
07314,1998-10-16 00:00:00,15,1022.9,-1.1,94,14,0,7.408,,,60,,,,,,,,,,,wg-a,,,,AAXX 16004 07314 12/// /0604 10150 20140 30201 40229 58011 60006 90000=
07314,1998-10-16 06:00:00,13,1019.9,-1.2,94,12,20000,11.112,,,120,13.3,16.4,,0,,,,,,,wg-a,,,,AAXX 16064 07314 12/70 41206 10130 20120 30171 40199 58012 60007 80002 90600 333 10164 20133=
07314,1998-10-16 12:00:00,18,1017.4,-2.1,83,15,20000,14.816,,,190,,,,,,,,,,,wg-a,,,,AAXX 16124 07314 12/70 31908 10180 20150 30147 40174 58021 60006 80002 91200=
07314,1998-10-16 18:00:00,17,1013.9,-1,82,14,18000,22.224,,,210,13,19.2,,,,,,,,,wg-a,,,,AAXX 16184 07314 12568 72112 10170 20140 30112 40139 56010 60006 875// 91800 333 10192 20130=
07314,1998-10-17 00:00:00,17,1012.7,-0.9,82,14,20000,25.928,,,210,,,,,,,,,,,wg-a,,,,AAXX 17004 07314 12/70 82114 10170 20140 30100 40127 58009 60006 8802/ 90000=
07314,1998-10-17 06:00:00,17,1010.9,-0.6,88,15,7000,35.188,,,200,16.3,17.3,,,,,,,,,wg-a,,,,AAXX 17064 07314 12657 82019 10170 20150 30082 40109 58006 60006 885// 90600 333 10173 20163=
07314,1998-10-17 12:00:00,16,1013.3,1.8,88,14,18000,29.632,,61.116,320,,,,3,,,,,,25,wg-a,,,,AAXX 17124 07314 02568 83216 10160 20140 30106 40133 53018 60036 72582 885// 91200 333 60037 91033=
07314,1998-10-17 18:00:00,15,1017.5,2.2,59,7,20000,29.632,,,290,15,17.4,,,,,,,,,wg-a,,,,AAXX 17184 07314 32570 42916 10150 20070 30147 40175 53022 84200 91800 333 10174 20150=
07314,1998-10-18 00:00:00,15,1020.7,0.9,63,8,20000,22.224,,,300,,,,,,,,,,,wg-a,,,,AAXX 18004 07314 12570 43012 10150 20080 30179 40207 51009 60006 81201 90000=
07314,1998-10-18 06:00:00,14,1020.9,0.1,67,8,20000,7.408,,,270,14.1,15.1,,,,,,,,,wg-a,,,,AAXX 18064 07314 12570 62704 10140 20080 30181 40209 52001 60006 85201 90600 333 10151 20141=
07314,1998-10-18 12:00:00,15,1021.3,-0.5,72,10,20000,3.704,,,240,,,,,,,,,,,wg-a,,,,AAXX 18124 07314 12570 72402 10150 20100 30185 40213 58005 60006 85208 91200=
07314,1998-10-18 18:00:00,14,1019.5,-0.2,67,8,20000,11.112,,,310,13.6,17.6,,,,,,,,,wg-a,,,,AAXX 18184 07314 32570 53106 10140 20080 30167 40195 55002 83230 91800 333 10176 20136=
07314,1998-10-19 00:00:00,13,1019.4,-0.2,77,9,20000,14.816,,,20,,,,,,,,,,,wg-a,,,,AAXX 19004 07314 12/70 00208 10130 20090 30166 40194 55002 60006 80000 90000=
07314,1998-10-19 06:00:00,12,1020,1,82,9,16000,14.816,,,360,12.2,14.2,,,,,,,,,wg-a,,,,AAXX 19064 07314 12/66 13608 10120 20090 30172 40200 53010 60006 81010 90600 333 10142 20122=
07314,1998-10-19 12:00:00,15,1023.4,1.1,67,9,20000,11.112,,,350,,,,,,,,,,,wg-a,,,,AAXX 19124 07314 12670 23506 10150 20090 30206 40234 50011 60006 82200 91200=
07314,1998-10-19 18:00:00,14,1024.5,1.1,67,8,20000,25.928,,,320,12.3,15.5,,,,,,,,,wg-a,,,,AAXX 19184 07314 12570 33214 10140 20080 30217 40245 53011 60006 83340 91800 333 10155 20123=
07314,1998-10-20 00:00:00,13,1025.9,0.1,77,9,0,18.52,,,350,,,,,,,,,,,wg-a,,,,AAXX 20004 07314 12/// /3510 10130 20090 30231 40259 50001 60006 90000=
07314,1998-10-20 06:00:00,11,1026,0.4,82,8,18000,7.408,,,130,10.4,14.1,,,,,,,,,wg-a,,,,AAXX 20064 07314 32568 61304 10110 20080 30232 40260 53004 82270 90600 333 10141 20104=
07314,1998-10-20 12:00:00,16,1026,-0.8,68,10,25000,18.52,,,180,,,,,,,,,,,wg-a,,,,AAXX 20124 07314 12575 51810 10160 20100 30232 40260 58008 60006 83230 91200=
07314,1998-10-20 18:00:00,12,1024.4,-0.7,82,9,25000,14.816,,,140,10.4,16.4,,,,,,,,,wg-a,,,,AAXX 20184 07314 12575 21408 10120 20090 30216 40244 55007 60006 81231 91800 333 10164 20104=
07314,1998-10-21 00:00:00,14,1022.7,-0.4,82,11,0,29.632,,,180,,,,,,,,,,,wg-a,,,,AAXX 21004 07314 12/// /1816 10140 20110 30199 40227 56004 60006 90000=
07314,1998-10-21 06:00:00,15,1020.9,-0.5,77,11,0,35.188,,,180,11.2,15.1,,,,,,,,,wg-a,,,,AAXX 21064 07314 12/// /1819 10150 20110 30181 40209 56005 60006 90600 333 10151 20112=
07314,1998-10-21 12:00:00,18,1022.1,-0.3,77,14,18000,25.928,,,210,,,,,,,,,,,wg-a,,,,AAXX 21124 07314 12568 32114 10180 20140 30194 40221 58003 60006 82602 91200=
07314,1998-10-21 18:00:00,17,1023,1,82,14,14000,18.52,,,180,14.3,18.2,,,,,,,,,wg-a,,,,AAXX 21184 07314 12664 71810 10170 20140 30203 40230 53010 60006 876// 91800 333 10182 20143=
07314,1998-10-22 00:00:00,15,1024.2,0.4,88,13,0,22.224,,,170,,,,,,,,,,,wg-a,,,,AAXX 22004 07314 12/// /1712 10150 20130 30214 40242 51004 60006 90000=
07314,1998-10-22 06:00:00,13,1024,0.4,88,11,13000,18.52,,,160,12.9,16.8,,,,,,,,,wg-a,,,,AAXX 22064 07314 12863 71610 10130 20110 30212 40240 50004 60006 87070 90600 333 10168 20129=
07314,1998-10-22 12:00:00,17,1024.8,-0.4,82,14,15000,29.632,,,170,,,,,,,,,,,wg-a,,,,AAXX 22124 07314 12865 71716 10170 20140 30220 40248 58004 60006 8707/ 91200=
07314,1998-10-22 18:00:00,17,1024.7,0.4,94,16,15000,14.816,,,190,13.3,18.3,,,,,,,,,wg-a,,,,AAXX 22184 07314 12565 21908 10170 20160 30219 40247 52004 60006 81232 91800 333 10183 20133=
07314,1998-10-23 00:00:00,16,1023.6,-1.1,88,14,13000,18.52,,,170,,,,,,,,,,,wg-a,,,,AAXX 23004 07314 12/63 11710 10160 20140 30208 40236 58011 60006 80001 90000=
07314,1998-10-23 06:00:00,17,1021.3,-1,88,15,0,22.224,,,180,15.2,17.1,,,,,,,,,wg-a,,,,AAXX 23064 07314 12/// /1812 10170 20150 30186 40213 56010 60006 90600 333 10171 20152=
07314,1998-10-23 12:00:00,18,1022.2,-0.2,88,16,10000,29.632,,53.708,210,,,,,,,,,,,wg-a,,,,AAXX 23124 07314 12560 82116 10180 20160 30195 40222 56002 60006 888// 91200 333 91029=
07314,1998-10-23 18:00:00,17,1022.4,1.8,88,15,500,35.188,,,280,16.6,18.3,,1,,,,,,62,wg-a,,,,AAXX 23184 07314 12500 82819 10170 20150 30197 40224 53018 60017 76222 887// 91800 333 10183 20166=
07314,1998-10-24 00:00:00,16,1024.3,0.6,82,13,0,22.224,,,270,,,,,,,,,,,wg-a,,,,AAXX 24004 07314 02/// /2712 10160 20130 30215 40243 51006 61000 90000 333 ////=
07314,1998-10-24 06:00:00,16,1020.7,-2.3,82,13,12000,25.928,,,190,15.7,16.7,,,,,,,,,wg-a,,,,AAXX 24064 07314 32562 81914 10160 20130 30179 40207 58023 887// 90600 333 10167 20157=
07314,1998-10-24 12:00:00,18,1014.6,-4.3,88,16,12000,50.004,,,210,,,,1,,,,,,62,wg-a,,,,AAXX 24124 07314 02562 82127 10180 20160 30119 40146 56043 60026 76262 887// 91200 333 60017=
07314,1998-10-24 18:00:00,18,1007.1,-3.8,88,16,12000,68.524,,94.452,220,13.9,18.3,,,,,,,,62,wg-a,,,,AAXX 24184 07314 02562 82237 10180 20160 30044 40071 56038 61000 76262 887// 91800 333 10183 20139 //// 91051=
07314,1998-10-25 00:00:00,14,1007.3,1.1,88,12,0,50.004,,,260,,,,2,,,,,,,wg-a,,,,AAXX 25004 07314 02/// /2627 10140 20120 30046 40073 51011 60066 90000 333 60027=
07314,1998-10-25 06:00:00,16,1009.2,1.2,77,12,12000,42.596,,64.82,280,14.1,18.3,,,,,,,,,wg-a,,,,AAXX 25064 07314 32562 82823 10160 20120 30065 40092 51012 887// 90600 333 10183 20141 91035=
07314,1998-10-25 12:00:00,16,1013,1.3,77,12,12000,42.596,,64.82,280,,,,,,,,,,,wg-a,,,,AAXX 25124 07314 12562 72823 10160 20120 30103 40130 51013 60006 877// 91200 333 91035=
07314,1998-10-25 18:00:00,15,1014.9,1.5,77,11,0,35.188,,,280,14.5,16.3,,,,,,,,,wg-a,,,,AAXX 25184 07314 12/// /2819 10150 20110 30122 40149 52015 60006 91800 333 10163 20145=
07314,1998-10-26 00:00:00,15,1016.7,0.6,67,9,0,29.632,,,280,,,,,,,,,,,wg-a,,,,AAXX 26004 07314 12/// /2816 10150 20090 30139 40167 51006 60006 90000=
07314,1998-10-26 06:00:00,15,1017.3,0.2,67,9,12000,31.484,,,260,14.4,15.4,,,,,,,,,wg-a,,,,AAXX 26064 07314 12562 72617 10150 20090 30145 40173 53002 60006 87700 90600 333 10154 20144=
07314,1998-10-26 12:00:00,15,1019.7,1.4,77,11,25000,38.892,,68.524,300,,,,2,,,,,,81,wg-a,,,,AAXX 26124 07314 02575 53021 10150 20110 30169 40197 51014 60026 78182 85960 91200 333 60027 91037=
07314,1998-10-26 18:00:00,13,1024.5,2.9,82,10,15000,46.3,,72.228,310,12.9,16.2,,1,,,,,,62,wg-a,,,,AAXX 26184 07314 12565 73125 10130 20100 30217 40245 53029 60017 76282 87300 91800 333 10162 20129 91039=
07314,1998-10-27 00:00:00,15,1026.6,0.6,72,10,0,25.928,,,270,,,,,,,,,,,wg-a,,,,AAXX 27004 07314 12/// /2714 10150 20100 30238 40266 51006 60006 90000=
07314,1998-10-27 06:00:00,15,1025.5,-0.5,77,11,16000,29.632,,,240,12.9,15.3,,,,,,,,,wg-a,,,,AAXX 27064 07314 32566 62416 10150 20110 30227 40255 56005 86200 90600 333 10153 20129=
07314,1998-10-27 12:00:00,16,1024.7,-1.1,72,11,20000,38.892,,,220,,,,,,,,,,,wg-a,,,,AAXX 27124 07314 12570 82221 10160 20110 30219 40247 58011 60006 8622/ 91200=
07314,1998-10-27 18:00:00,16,1022.6,-1.1,77,12,15000,38.892,,,230,15.2,16.3,,,,,,,,,wg-a,,,,AAXX 27184 07314 12565 82321 10160 20120 30198 40226 57011 60006 8322/ 91800 333 10163 20152=
07314,1998-10-28 00:00:00,15,1020.2,-1.6,94,14,0,53.708,,,230,,,,,,,,,,,wg-a,,,,AAXX 28004 07314 12/// /2329 10150 20140 30174 40202 56016 60006 90000=
07314,1998-10-28 06:00:00,17,1020.2,0.6,94,16,0,38.892,,,230,15.2,16.5,,0,,,,,,,wg-a,,,,AAXX 28064 07314 12/// /2321 10170 20160 30175 40202 52006 60007 90600 333 10165 20152=
07314,1998-10-28 12:00:00,17,1021.4,-0.5,88,15,8000,46.3,,68.524,230,,,,,,,,,,2,wg-a,,,,AAXX 28124 07314 12558 82325 10170 20150 30187 40214 55005 60006 70262 8472/ 91200 333 91037=
07314,1998-10-28 18:00:00,17,1020.2,-0.3,88,15,6000,38.892,,68.524,230,16.5,17.6,,,,,,,,,wg-a,,,,AAXX 28184 07314 32556 82321 10170 20150 30175 40202 56003 8372/ 91800 333 10176 20165 91037=
07314,1998-10-29 00:00:00,17,1017.9,-1.7,94,16,0,42.596,,,230,,,,,,,,,,,wg-a,,,,AAXX 29004 07314 12/// /2323 10170 20160 30152 40179 58017 60006 90000=
07314,1998-10-29 06:00:00,13,1019.8,2.7,88,11,3000,38.892,,,300,12.1,17.1,,2,,,,,,10,wg-a,,,,AAXX 29064 07314 12430 83021 10130 20110 30170 40198 51027 60027 71022 887// 90600 333 10171 20121=
07314,1998-10-29 12:00:00,15,1027.2,3.3,67,9,25000,31.484,,75.932,300,,,,,,,,,,1,wg-a,,,,AAXX 29124 07314 12475 43017 10150 20090 30244 40272 51033 60036 70162 83210 91200 333 91041=
07314,1998-10-29 18:00:00,14,1029.8,1,63,7,20000,25.928,,,310,11.7,15.1,,,,,,,,,wg-a,,,,AAXX 29184 07314 32470 63114 10140 20070 30270 40298 53010 86200 91800 333 10151 20117=
07314,1998-10-30 00:00:00,14,1030.2,0,63,7,0,25.928,,,290,,,,,,,,,,,wg-a,,,,AAXX 30004 07314 12/// /2914 10140 20070 30274 40302 50000 60006 90000=
07314,1998-10-30 06:00:00,14,1028,-1,63,7,20000,31.484,,,280,13.5,14.1,,,,,,,,,wg-a,,,,AAXX 30064 07314 12470 52817 10140 20070 30252 40280 57010 60006 81222 90600 333 10141 20135=
07314,1998-10-30 12:00:00,15,1027.8,-0.5,67,9,20000,31.484,,,270,,,,,,,,,,,wg-a,,,,AAXX 30124 07314 12470 72717 10150 20090 30250 40278 58005 60006 83250 91200=
07314,1998-10-30 18:00:00,14,1026.5,-0.3,82,11,8000,25.928,,,290,13.6,14.9,,,,,,,,60,wg-a,,,,AAXX 30184 07314 02458 82914 10140 20110 30237 40265 56003 61000 76022 8572/ 91800 333 10149 20136 ////=
07314,1998-10-31 00:00:00,15,1024.9,-1.2,72,10,0,22.224,,,270,,,,,,,,,,,wg-a,,,,AAXX 31004 07314 12/// /2712 10150 20100 30221 40249 56012 60006 90000=
07314,1998-10-31 06:00:00,15,1021.3,-1.6,72,10,18000,22.224,,,240,13.5,14.7,,,,,,,,2,wg-a,,,,AAXX 31064 07314 32868 72412 10150 20100 30185 40213 56016 70262 8702/ 90600 333 10147 20135=
07314,1998-10-31 12:00:00,15,1017.9,-2.3,72,10,18000,35.188,,,230,,,,,,,,,,,wg-a,,,,AAXX 31124 07314 12468 72319 10150 20100 30151 40179 58023 60006 8612/ 91200=
07314,1998-10-31 18:00:00,15,1013.3,-2.4,77,11,22000,38.892,,,230,13,15.6,,,,,,,,,wg-a,,,,AAXX 31184 07314 12572 72321 10150 20110 30106 40133 56024 60006 8441/ 91800 333 10156 20130=
07314,1998-11-01 00:00:00,16,1007.7,-3.1,88,14,10000,53.708,,75.932,230,,,,3,,,,,,62,wg-a,,,,AAXX 01004 07314 02560 82329 10160 20140 30050 40077 56031 60036 76262 8572/ 90000 333 60037 91041=
07314,1998-11-01 06:00:00,16,1007.7,0.5,88,14,12000,35.188,,79.636,270,14.6,16,,,,,,,,21,wg-a,,,,AAXX 01064 07314 02562 82719 10160 20140 30050 40077 53005 61000 72122 8372/ 90600 333 10160 20146 //// 91043=
07314,1998-11-01 12:00:00,15,1012.8,2,77,11,20000,22.224,,53.708,340,,,,0,,,,,,1,wg-a,,,,AAXX 01124 07314 02470 63412 10150 20110 30101 40128 51020 60016 70162 8341/ 91200 333 60007 91029=
07314,1998-11-02 00:00:00,12,1014.3,-1,82,9,18000,11.112,,,130,,,,,,,,,,,wg-a,,,,AAXX 02004 07314 12468 61306 10120 20090 30115 40143 58010 60006 82230 90000=
07314,1998-11-02 06:00:00,12,1010,-2.2,94,11,10000,14.816,,,150,11.2,,,2,,,,,,61,wg-a,,,,AAXX 02064 07314 12460 81508 10120 20110 30072 40100 56022 60027 76162 887// 90600 333 10137 20112=
07314,1998-11-02 12:00:00,15,1005.4,-2.9,94,14,20000,25.928,,,210,,,,,,,,,,21,wg-a,,,,AAXX 02124 07314 02470 72114 10150 20140 30027 40054 56029 60006 72162 8373/ 91200 333 61000=
07314,1998-11-02 18:00:00,16,1002.9,-0.4,82,13,22000,38.892,,,240,11.4,16.3,,0,,,,,,2,wg-a,,,,AAXX 02184 07314 12472 72421 10160 20130 30002 40029 55004 60007 70282 838// 91800 333 10163 20114=
07314,1998-11-03 00:00:00,15,1004.2,0.3,67,9,22000,46.3,,,260,,,,,,,,,,2,wg-a,,,,AAXX 03004 07314 12472 62625 10150 20090 30015 40042 50003 60026 70282 82160 90000=
07314,1998-11-03 06:00:00,,1,-0.6,,,20000,0,,,0,13.1,15.9,,0,,,,,,2,wg-a,,,,AAXX 03064 07314 12570 7//// 1//// 2//// 56006 60007 70282 81132 90600 333 10159 20131=
07314,1998-11-03 12:00:00,14,1003.7,-0.4,58,6,0,29.632,,,240,,,,,,,,,,,wg-a,,,,AAXX 03124 07314 12/// /2416 10140 20060 30010 40037 58004 60016 91200=
07314,1998-11-03 18:00:00,13,1002.5,-0,72,8,20000,38.892,,,240,11.8,14.4,,,,,,,,,wg-a,,,,AAXX 03184 07314 32570 82421 10130 20080 39998 40025 55000 8322/ 91800 333 10144 20118=
07314,1998-11-04 00:00:00,13,1004,1,62,6,0,35.188,,,280,,,,,,,,,,,wg-a,,,,AAXX 04004 07314 12/// /2819 10130 20060 30013 40040 51010 60016 90000=
07314,1998-11-04 06:00:00,13,1005,1.3,62,6,20000,25.928,,50.004,280,12.2,13.8,,,,,,,,,wg-a,,,,AAXX 04064 07314 32570 52814 10130 20060 30023 40050 53013 85200 90600 333 10138 20122 91027=
07314,1998-11-04 12:00:00,14,1008.3,1.4,67,8,0,25.928,,,300,,,,,,,,,,,wg-a,,,,AAXX 04124 07314 12/// /3014 10140 20080 30056 40083 51014 60006 91200=
07314,1998-11-04 18:00:00,12,1012.2,2.7,67,6,25000,22.224,,,330,12,14.1,,,,,,,,,wg-a,,,,AAXX 04184 07314 12475 33312 10120 20060 30094 40122 53027 60006 81960 91800 333 10141 20120=
07314,1998-11-05 00:00:00,10,1017.6,2.7,71,5,20000,18.52,,,10,,,,,,,,,,,wg-a,,,,AAXX 05004 07314 12570 70110 10100 20050 30148 40176 53027 60006 83230 90000=
07314,1998-11-05 06:00:00,8,1021.1,2,76,4,0,18.52,,,20,8.3,12.3,,,,,,,,,wg-a,,,,AAXX 05064 07314 12/// /0210 10080 20040 30183 40211 53020 60006 90600 333 10123 20083=
07314,1998-11-05 12:00:00,11,1025.2,1.1,66,5,25000,7.408,,,50,,,,,,,,,,,wg-a,,,,AAXX 05124 07314 12475 10504 10110 20050 30224 40252 51011 60006 81130 91200=
07314,1998-11-05 18:00:00,10,1026.2,0.9,57,2,25000,11.112,,,340,8.3,12.1,,,,,,,,,wg-a,,,,AAXX 05184 07314 12575 23406 10100 20020 30234 40262 53009 60006 82130 91800 333 10121 20083=
07314,1998-11-06 00:00:00,9,1028,0.5,66,3,0,3.704,,,270,,,,,,,,,,,wg-a,,,,AAXX 06004 07314 12/// /2702 10090 20030 30252 40280 51005 60006 90000=
07314,1998-11-06 06:00:00,9,1029.2,0.9,81,6,500,7.408,,,160,7.5,10.8,,,,,,,,,wg-a,,,,AAXX 06064 07314 12800 51604 10090 20060 30264 40292 53009 60006 85040 90600 333 10108 20075=
07314,1998-11-06 12:00:00,14,1030.3,-0.1,63,7,25000,14.816,,,190,,,,,,,,,,,wg-a,,,,AAXX 06124 07314 12875 61908 10140 20070 30275 40303 58001 60006 86050 91200=
07314,1998-11-06 18:00:00,11,1030.7,0.7,66,5,500,0,,,0,7.1,14.6,,,,,,,,,wg-a,,,,AAXX 06184 07314 12500 40000 10110 20050 30279 40307 53007 60006 81130 91800 333 10146 20071=
07314,1998-11-07 00:00:00,7,1030.1,-0.7,93,6,20000,14.816,,,140,,,,,,,,,,,wg-a,,,,AAXX 07004 07314 12/70 01408 10070 20060 30272 40301 58007 60006 80000 90000=
07314,1998-11-07 06:00:00,9,1028.5,-0.6,87,7,16000,11.112,,,100,6.6,10.9,,0,,,,,,,wg-a,,,,AAXX 07064 07314 12/66 31006 10090 20070 30256 40285 56006 60007 80001 90600 333 10109 20066=
07314,1998-11-07 12:00:00,14,1025.4,-2,63,7,25000,18.52,,,130,,,,,,,,,,,wg-a,,,,AAXX 07124 07314 12/75 11310 10140 20070 30226 40254 58020 60006 80001 91200=
07314,1998-11-07 18:00:00,11,1023.5,-0.3,76,7,25000,14.816,,,120,8.1,14.4,,,,,,,,,wg-a,,,,AAXX 07184 07314 12/75 21208 10110 20070 30207 40235 58003 60006 80001 91800 333 10144 20081=
07314,1998-11-08 00:00:00,11,1022.6,-0.7,76,7,25000,31.484,,,160,,,,,,,,,,,wg-a,,,,AAXX 08004 07314 12/75 31617 10110 20070 30198 40226 56007 60006 80002 90000=
07314,1998-11-08 06:00:00,11,1022.6,0.3,76,7,20000,25.928,,,160,7.9,11.6,,,,,,,,,wg-a,,,,AAXX 08064 07314 12870 61614 10110 20070 30198 40226 53003 60006 86070 90600 333 10116 20079=
07314,1998-11-08 12:00:00,14,1024.3,-0.3,72,9,0,29.632,,,160,,,,,,,,,,,wg-a,,,,AAXX 08124 07314 12/// /1616 10140 20090 30215 40243 58003 60006 91200=
07314,1998-11-08 18:00:00,14,1024.1,0.6,77,10,0,22.224,,,160,10.5,16.5,,,,,,,,,wg-a,,,,AAXX 08184 07314 12/// /1612 10140 20100 30213 40241 53006 60006 91800 333 10165 20105=
07314,1998-11-09 00:00:00,14,1022.8,-0.8,77,10,20000,31.484,,,160,,,,,,,,,,,wg-a,,,,AAXX 09004 07314 12/70 01617 10140 20100 30200 40228 57008 60006 80000 90000=
07314,1998-11-09 06:00:00,14,1022.1,-0.5,88,12,18000,31.484,,,170,13.2,14.9,,,,,,,,,wg-a,,,,AAXX 09064 07314 12/68 71717 10140 20120 30193 40221 58005 60006 8707/ 90600 333 10149 20132=
07314,1998-11-09 12:00:00,15,1023.1,-0.5,94,14,8000,25.928,,,180,,,,,,,,,,2,wg-a,,,,AAXX 09124 07314 12858 81814 10150 20140 30203 40231 58005 60006 70282 8807/ 91200=
07314,1998-11-09 18:00:00,16,1022.9,0.4,94,15,4000,25.928,,,230,13.5,15.9,,3,,,,,,21,wg-a,,,,AAXX 09184 07314 12240 82314 10160 20150 30201 40229 53004 60037 72165 887// 91800 333 10159 20135=
07314,1998-11-10 00:00:00,15,1020.8,-0.9,94,14,0,18.52,,,290,,,,,,,,,,,wg-a,,,,AAXX 10004 07314 12/// /2910 10150 20140 30180 40208 56009 60066 90000=
07314,1998-11-10 06:00:00,15,1021.6,0.8,94,14,6000,29.632,,,270,14.3,15.8,,1,,,,,,20,wg-a,,,,AAXX 10064 07314 12856 72716 10150 20140 30188 40216 53008 60017 72055 8707/ 90600 333 10158 20143=
07314,1998-11-10 12:00:00,15,1024.5,1.6,72,10,20000,31.484,,57.412,320,,,,,,,,,,,wg-a,,,,AAXX 10124 07314 12570 23217 10150 20100 30217 40245 51016 60006 81230 91200 333 91031=
07314,1998-11-10 18:00:00,13,1027.4,1.9,72,8,20000,29.632,,,330,12.8,15.5,,,,,,,,,wg-a,,,,AAXX 10184 07314 12570 33316 10130 20080 30246 40274 53019 60006 83100 91800 333 10155 20128=
07314,1998-11-11 00:00:00,11,1030.1,1,76,7,22000,22.224,,,350,,,,,,,,,,,wg-a,,,,AAXX 11004 07314 12572 13512 10110 20070 30273 40301 51010 60006 81100 90000=
07314,1998-11-11 06:00:00,9,1029.8,-0.2,87,7,15000,18.52,,,40,9.1,12.9,,,,,,,,,wg-a,,,,AAXX 11064 07314 12/65 00410 10090 20070 30270 40298 56002 60006 80000 90600 333 10129 20091=
07314,1998-11-11 12:00:00,13,1027.4,-2.2,67,7,25000,7.408,,,130,,,,,,,,,,,wg-a,,,,AAXX 11124 07314 12575 31304 10130 20070 30246 40274 58022 60006 81201 91200=
07314,1998-11-11 18:00:00,8,1021.7,-2.2,76,4,25000,11.112,,,130,7.8,14,,,,,,,,,wg-a,,,,AAXX 11184 07314 32575 51306 10080 20040 30189 40217 58022 82104 91800 333 10140 20078=
07314,1998-11-12 00:00:00,10,1014.5,-3.7,93,9,15000,35.188,,,170,,,,1,,,,,,63,wg-a,,,,AAXX 12004 07314 02865 81719 10100 20090 30117 40145 58037 60016 76322 8802/ 90000 333 60017=
07314,1998-11-12 12:00:00,14,1017.5,0.9,63,7,20000,31.484,,79.636,310,,,,,,,,,,15,wg-a,,,,AAXX 12124 07314 12570 63117 10140 20070 30147 40175 51009 60006 71562 82470 91200 333 91043=
07314,1998-11-12 18:00:00,11,1019.2,0.9,76,7,18000,29.632,,68.524,320,10.8,13.8,,1,,,,,,1,wg-a,,,,AAXX 12184 07314 12568 53216 10110 20070 30164 40192 53009 60017 70162 83370 91800 333 10138 20108 91037=
07314,1998-11-13 00:00:00,10,1018.1,-1.1,87,8,15000,3.704,,,110,,,,2,,,,,,21,wg-a,,,,AAXX 13004 07314 02565 71102 10100 20080 30153 40181 58011 60026 72162 83370 90000 333 60027=
07314,1998-11-13 06:00:00,10,1012,-2.5,87,8,18000,14.816,,,150,8.4,12.5,,,,,,,,,wg-a,,,,AAXX 13064 07314 32868 61508 10100 20080 30092 40120 56025 86020 90600 333 10125 20084=
07314,1998-11-13 12:00:00,11,1005.3,-3.2,94,10,500,42.596,,,160,,,,6,,,,,,63,wg-a,,,,AAXX 13124 07314 02400 81623 10110 20100 30025 40053 58032 60076 76386 8802/ 91200 333 60067=
07314,1998-11-13 18:00:00,15,1000.6,-1.1,94,14,6000,25.928,,,250,9.7,14.7,,1,,,,,,21,wg-a,,,,AAXX 13184 07314 12856 82514 10150 20140 39979 40006 56011 60017 72166 8802/ 91800 333 10147 20097=
07314,1998-11-14 00:00:00,13,1005.2,3.3,88,11,16000,61.116,,,310,,,,,,,,,,,wg-a,,,,AAXX 14004 07314 12866 83133 10130 20110 30025 40052 53033 60016 8802/ 90000=
07314,1998-11-14 06:00:00,12,1010.4,2,76,8,0,35.188,,,300,11.2,14.9,,1,,,,,,,wg-a,,,,AAXX 14064 07314 12/// /3019 10120 20080 30076 40104 53020 60017 90600 333 10149 20112=
07314,1998-11-14 12:00:00,13,1012.9,0.7,58,5,15000,42.596,,64.82,300,,,,1,,,,,,2,wg-a,,,,AAXX 14124 07314 02465 63023 10130 20050 30101 40129 50007 60016 70286 83360 91200 333 60017 91035=
07314,1998-11-14 18:00:00,11,1014.8,1.7,66,5,20000,31.484,,72.228,310,10.6,13.1,,0,,,,,,2,wg-a,,,,AAXX 14184 07314 12470 43117 10110 20050 30120 40148 53017 60007 70281 84900 91800 333 10131 20106 91039=
07314,1998-11-15 00:00:00,12,1016.9,0.8,67,6,22000,25.928,,,290,,,,,,,,,,2,wg-a,,,,AAXX 15004 07314 12472 32914 10120 20060 30141 40169 51008 60016 70280 83300 90000=
07314,1998-11-15 06:00:00,11,1018.1,0.9,71,6,18000,29.632,,,300,9.8,12.3,,,,,,,,,wg-a,,,,AAXX 15064 07314 32468 73016 10110 20060 30153 40181 51009 8326/ 90600 333 10123 20098=
07314,1998-11-15 12:00:00,13,1021.4,1.5,72,8,28000,14.816,,,340,,,,,,,,,,1,wg-a,,,,AAXX 15124 07314 12578 23408 10130 20080 30186 40214 51015 60016 70181 82200 91200=
07314,1998-11-16 00:00:00,10,1025.9,0.6,82,7,0,18.52,,,20,,,,,,,,,,,wg-a,,,,AAXX 16004 07314 12/// /0210 10100 20070 30231 40259 52006 60006 90000=
07314,1998-11-16 06:00:00,9,1027.1,0.8,76,5,25000,14.816,,,350,8.8,11.8,,,,,,,,,wg-a,,,,AAXX 16064 07314 12/75 03508 10090 20050 30243 40271 53008 60006 80000 90600 333 10118 20088=
07314,1998-11-16 12:00:00,10,1029.1,0.4,57,2,500,18.52,,,30,,,,,,,,,,,wg-a,,,,AAXX 16124 07314 12/00 10310 10100 20020 30263 40291 50004 60006 80001 91200=
07314,1998-11-16 18:00:00,9,1029.6,0.8,57,1,22000,14.816,,,40,8.6,10,,,,,,,,,wg-a,,,,AAXX 16184 07314 12/72 20408 10090 20010 30267 40296 53008 60006 80002 91800 333 10100 20086=
07314,1998-11-17 00:00:00,7,1029.9,-0.2,66,1,20000,14.816,,,100,,,,,,,,,,,wg-a,,,,AAXX 17004 07314 12/70 11008 10070 20010 30270 40299 58002 60006 80002 90000=
07314,1998-11-17 06:00:00,5,1028.1,-0.8,75,1,20000,11.112,,,100,5.2,8.6,,,,,,,,,wg-a,,,,AAXX 17064 07314 12/70 31006 10050 20010 30252 40281 58008 60006 80002 90600 333 10086 20052=
07314,1998-11-17 12:00:00,7,1027.2,-1.5,70,2,20000,14.816,,,90,,,,,,,,,,,wg-a,,,,AAXX 17124 07314 12/70 80908 10070 20020 30243 40272 58015 60006 86078 91200=
07314,1998-11-17 18:00:00,7,1024.6,-0.4,76,3,15000,18.52,,,60,5.2,7.6,,,,,,,,,wg-a,,,,AAXX 17184 07314 12/65 80610 10070 20030 30217 40246 55004 60006 86028 91800 333 10076 20052=
07314,1998-11-18 00:00:00,5,1024.7,0.2,75,1,20000,18.52,,,70,,,,,,,,,,,wg-a,,,,AAXX 18004 07314 12/70 20710 10050 20010 30218 40247 51002 60006 82030 90000=
07314,1998-11-18 06:00:00,4,1023.8,-0.5,70,-1,20000,35.188,,,50,3.5,7.1,,,,,,,,,wg-a,,,,AAXX 18064 07314 12/70 70519 10040 21010 30209 40238 55005 60006 87070 90600 333 10071 20035=
07314,1998-11-18 12:00:00,5,1024.7,-0.1,56,-3,25000,35.188,,,40,,,,,,,,,,,wg-a,,,,AAXX 18124 07314 12/75 50419 10050 21030 30218 40247 58001 60006 85070 91200=
07314,1998-11-18 18:00:00,4,1026,1.5,65,-2,25000,35.188,,,40,3.3,5.6,,,,,,,,,wg-a,,,,AAXX 18184 07314 12/75 10419 10040 21020 30231 40260 53015 60006 80002 91800 333 10056 20033=
07314,1998-11-19 00:00:00,2,1027.3,0.4,75,-2,25000,25.928,,,50,,,,,,,,,,,wg-a,,,,AAXX 19004 07314 12/75 00514 10020 21020 30244 40273 53004 60006 80000 90000=
07314,1998-11-19 06:00:00,2,1027,0.2,75,-2,20000,25.928,,,50,1.8,4,,,,,,,,,wg-a,,,,AAXX 19064 07314 12/70 00514 10020 21020 30241 40270 53002 60006 80000 90600 333 10040 20018=
07314,1998-11-19 12:00:00,6,1027.6,0.1,61,-1,20000,14.816,,,70,,,,,,,,,,,wg-a,,,,AAXX 19124 07314 12/70 50708 10060 21010 30247 40276 50001 60006 80002 91200=
07314,1998-11-19 18:00:00,6,1027.3,0.8,56,-2,18000,14.816,,,80,1.8,6.6,,,,,,,,,wg-a,,,,AAXX 19184 07314 12/68 60808 10060 21020 30244 40273 53008 60006 82034 91800 333 10066 20018=
07314,1998-11-20 00:00:00,4,1028.3,-0.1,70,-1,20000,11.112,,,90,,,,,,,,,,,wg-a,,,,AAXX 20004 07314 12/70 10906 10040 21010 30254 40283 55001 60006 80001 90000=
07314,1998-11-20 06:00:00,5,1029.6,1,70,0,20000,14.816,,,90,3.4,5.7,,,,,,,,,wg-a,,,,AAXX 20064 07314 12/70 60908 10050 20000 30267 40296 53010 60006 86030 90600 333 10057 20034=
07314,1998-11-20 12:00:00,6,1031.9,0.7,70,1,20000,11.112,,,80,,,,,,,,,,,wg-a,,,,AAXX 20124 07314 12/70 50806 10060 20010 30290 40319 50007 60006 85030 91200=
07314,1998-11-20 18:00:00,5,1032.7,1.3,70,0,12000,18.52,,,60,4.3,7.1,,,,,,,,,wg-a,,,,AAXX 20184 07314 12/62 00610 10050 20000 30298 40327 51013 60006 80000 91800 333 10071 20043=
07314,1998-11-21 00:00:00,1,1034.4,0.9,80,-2,0,22.224,,,70,,,,,,,,,,,wg-a,,,,AAXX 21004 07314 12/// /0712 10010 21020 30314 40344 53009 60006 90000=
07314,1998-11-21 06:00:00,1,1033.4,-0.3,80,-2,15000,25.928,,,80,0.2,4.7,,,,,,,,,wg-a,,,,AAXX 21064 07314 12/65 00814 10010 21020 30304 40334 58003 60006 80000 90600 333 10047 20002=
07314,1998-11-21 12:00:00,4,1032.8,-1,60,-3,17000,14.816,,,60,,,,,,,,,,,wg-a,,,,AAXX 21124 07314 12/67 00608 10040 21030 30299 40328 58010 60006 80000 91200=
07314,1998-11-21 18:00:00,4,1030.3,-0.2,52,-5,20000,29.632,,,50,0.3,5.5,,,,,,,,,wg-a,,,,AAXX 21184 07314 12/70 00516 10040 21050 30274 40303 57002 60006 80000 91800 333 10055 20003=
07314,1998-11-22 00:00:00,4,1030.3,-0.2,,,20000,29.632,,,50,0.3,,,,,,,,,,wg-a,,,,AAXX 22004 07314 12/70 00516 10040 2//// 30274 40303 57002 60006 80000 90000 333 20003=
07314,1998-11-22 06:00:00,0,1025.5,-1.1,80,-3,20000,22.224,,,80,-0.2,4,,,,,,,,,wg-a,,,,AAXX 22064 07314 12/70 00812 10000 21030 30226 40255 56011 60006 80000 90600 333 10040 21002=
07314,1998-11-22 12:00:00,2,1023.5,-1.5,64,-4,18000,14.816,,,90,,,,,,,,,,,wg-a,,,,AAXX 22124 07314 12/68 20908 10020 21040 30206 40235 58015 60006 80002 91200=
07314,1998-11-22 18:00:00,2,1021.8,-0.2,64,-4,16000,14.816,,,80,-0.4,3.1,,,,,,,,,wg-a,,,,AAXX 22184 07314 12/66 60808 10020 21040 30189 40218 58002 60006 80002 91800 333 10031 21004=
07314,1998-11-23 00:00:00,1,1021,-0.7,75,-3,16000,11.112,,,90,,,,,,,,,,,wg-a,,,,AAXX 23004 07314 12/66 70906 10010 21030 30181 40210 57007 60006 80008 90000=
07314,1998-11-23 06:00:00,2,1021.1,0.6,80,-1,15000,7.408,,,60,0.7,2.1,,,,,,,,,wg-a,,,,AAXX 23064 07314 12/65 70604 10020 21010 30182 40211 53006 60006 80008 90600 333 10021 20007=
07314,1998-11-23 12:00:00,4,1023.3,0.8,60,-3,14000,7.408,,,50,,,,,,,,,,,wg-a,,,,AAXX 23124 07314 12/64 30504 10040 21030 30204 40233 50008 60006 82032 91200=
07314,1998-11-23 18:00:00,4,1024.2,1.2,65,-2,13000,11.112,,,10,1,5.3,,,,,,,,,wg-a,,,,AAXX 23184 07314 12/63 10106 10040 21020 30213 40242 52012 60006 80001 91800 333 10053 20010=
07314,1998-11-24 00:00:00,0,1025,0.3,80,-3,8000,14.816,,,140,,,,,,,,,,,wg-a,,,,AAXX 24004 07314 12/58 41408 10000 21030 30221 40250 53003 60006 80002 90000=
07314,1998-11-24 06:00:00,0,1025.1,0.2,80,-3,10000,11.112,,,110,-1.3,3.8,,,,,,,,,wg-a,,,,AAXX 24064 07314 12/60 11106 10000 21030 30222 40251 53002 60006 80002 90600 333 10038 21013=
07314,1998-11-24 12:00:00,9,1023.5,-1.4,81,6,6000,25.928,,,170,,,,,,,,,,,wg-a,,,,AAXX 24124 07314 12856 81714 10090 20060 30207 40235 58014 60006 87072 91200=
07314,1998-11-24 18:00:00,11,1021.9,-0.2,94,10,4000,25.928,,,230,-0.1,12.1,,1,,,,,,63,wg-a,,,,AAXX 24184 07314 12540 82314 10110 20100 30191 40219 58002 60017 76362 8802/ 91800 333 10121 21001=
07314,1998-11-25 00:00:00,12,1017,-2.4,88,10,0,35.188,,,300,,,,4,,,,,,,wg-a,,,,AAXX 25004 07314 02/// /3019 10120 20100 30142 40170 56024 60086 90000 333 60047=
07314,1998-11-25 06:00:00,11,1017.4,-0.1,71,6,18000,31.484,,,320,10.2,12.7,,,,,,,,,wg-a,,,,AAXX 25064 07314 32868 63217 10110 20060 30146 40174 56001 8/070 90600 333 10127 20102=
07314,1998-11-25 12:00:00,11,1019.5,1.1,76,7,18000,31.484,,,310,,,,,,,,,,,wg-a,,,,AAXX 25124 07314 12568 23117 10110 20070 30167 40195 53011 60006 81232 91200=
07314,1998-11-25 18:00:00,11,1022.6,2.2,76,7,18000,29.632,,,320,10.3,11.4,,,,,,,,,wg-a,,,,AAXX 25184 07314 12568 43216 10110 20070 30198 40226 53022 60006 81232 91800 333 10114 20103=
07314,1998-11-26 00:00:00,11,1023.6,0.4,87,9,15000,35.188,,,320,,,,,,,,,,21,wg-a,,,,AAXX 26004 07314 02865 33219 10110 20090 30208 40236 53004 60016 72161 83020 90000 333 61000=
07314,1998-11-26 06:00:00,10,1025.6,1.5,87,8,20000,29.632,,,330,9.6,11.3,,,,,,,,,wg-a,,,,AAXX 26064 07314 32/70 63316 10100 20080 30228 40256 51015 86070 90600 333 10113 20096=
07314,1998-11-26 12:00:00,11,1028.2,0.8,87,9,20000,25.928,,,320,,,,,,,,,,,wg-a,,,,AAXX 26124 07314 12870 43214 10110 20090 30254 40282 50008 60006 81039 91200=
07314,1998-11-26 18:00:00,11,1028.1,0.4,87,9,20000,11.112,,,270,9.6,11.5,,,,,,,,,wg-a,,,,AAXX 26184 07314 12870 62706 10110 20090 30253 40281 50004 60006 83072 91800 333 10115 20096=
07314,1998-11-27 00:00:00,12,1026.6,-1.3,82,9,20000,18.52,,,310,,,,0,,,,,,51,wg-a,,,,AAXX 27004 07314 02570 83110 10120 20090 30238 40266 58013 60006 75122 887// 90000 333 60007=
07314,1998-11-27 06:00:00,11,1025.5,-0.5,94,10,15000,25.928,,,320,10.7,12.5,,1,,,,,,20,wg-a,,,,AAXX 27064 07314 12865 83214 10110 20100 30227 40255 55005 60017 72062 8207/ 90600 333 10125 20107=
07314,1998-11-27 12:00:00,12,1026,0,94,11,15000,14.816,,,300,,,,,,,,,,,wg-a,,,,AAXX 27124 07314 12865 73008 10120 20110 30232 40260 50000 60006 8707/ 91200=
07314,1998-11-27 18:00:00,12,1023.7,-0.4,94,11,6000,31.484,,,310,10.9,12.5,,1,,,,,,2,wg-a,,,,AAXX 27184 07314 12456 83117 10120 20110 30209 40237 56004 60017 70252 886// 91800 333 10125 20109=
07314,1998-11-28 00:00:00,12,1023.2,-0.4,88,10,15000,18.52,,,320,,,,,,,,,,,wg-a,,,,AAXX 28004 07314 12865 83210 10120 20100 30204 40232 57004 60006 8802/ 90000=
07314,1998-11-28 06:00:00,11,1021.9,-0.4,94,10,15000,14.816,,,200,10.5,11.9,,0,,,,,,51,wg-a,,,,AAXX 28064 07314 12465 82008 10110 20100 30191 40219 58004 60007 75122 887// 90600 333 10119 20105=
07314,1998-11-28 12:00:00,13,1019.7,-1.5,94,12,18000,22.224,,,240,,,,,,,,,,2,wg-a,,,,AAXX 28124 07314 12568 82412 10130 20120 30169 40197 58015 60006 70252 818// 91200=
07314,1998-11-28 18:00:00,11,1018.4,1.2,87,9,18000,22.224,,61.116,310,9.5,13.6,,3,,,,,,21,wg-a,,,,AAXX 28184 07314 12568 73112 10110 20090 30156 40184 51012 60037 72162 8653/ 91800 333 10136 20095 91033=
07314,1998-11-29 00:00:00,11,1019.2,0.5,71,6,20000,35.188,,,300,,,,,,,,,,2,wg-a,,,,AAXX 29004 07314 12570 53019 10110 20060 30164 40192 50005 60016 70262 84902 90000=
07314,1998-11-29 06:00:00,9,1019.9,0.3,81,6,20000,29.632,,,340,8.4,11.4,,,,,,,,2,wg-a,,,,AAXX 29064 07314 32570 33416 10090 20060 30171 40199 53003 70262 82230 90600 333 10114 20084=
07314,1998-11-29 12:00:00,9,1021,0.1,76,5,25000,29.632,,,350,,,,,,,,,,,wg-a,,,,AAXX 29124 07314 12575 33516 10090 20050 30182 40210 50001 60006 81202 91200=
07314,1998-11-29 18:00:00,9,1022.8,1.7,81,6,25000,29.632,,,340,7.8,10.1,,,,,,,,,wg-a,,,,AAXX 29184 07314 12575 23416 10090 20060 30200 40228 52017 60006 82200 91800 333 10101 20078=
07314,1998-11-30 00:00:00,8,1025.1,1,81,5,25000,31.484,,,350,,,,,,,,,,,wg-a,,,,AAXX 30004 07314 12575 33517 10080 20050 30222 40251 51010 60006 82230 90000=
07314,1998-11-30 06:00:00,7,1025.1,-0.1,87,5,25000,29.632,,,350,7.2,8.8,,,,,,,,,wg-a,,,,AAXX 30064 07314 12875 43516 10070 20050 30222 40251 55001 60006 84030 90600 333 10088 20072=
07314,1998-11-30 12:00:00,9,1025,-1,76,5,16000,29.632,,,350,,,,,,,,,,,wg-a,,,,AAXX 30124 07314 12866 53516 10090 20050 30222 40250 58010 60006 85030 91200=
07314,1998-11-30 18:00:00,5,1025.5,1.6,81,2,14000,42.596,,94.452,20,4.5,8.8,,,,,,,,,wg-a,,,,AAXX 30184 07314 12564 80223 10050 20020 30226 40255 53016 60006 828// 91800 333 10088 20045 91051=
07314,1998-12-01 00:00:00,4,1026.6,-0,75,0,12000,35.188,,61.116,20,,,,,,,,,,,wg-a,,,,AAXX 01004 07314 12862 80219 10040 20000 30237 40266 55000 60006 8806/ 90000 333 91033=
07314,1998-12-01 06:00:00,4,1026,0.1,75,0,8000,38.892,,61.116,30,3.4,4.7,,,,,,,,,wg-a,,,,AAXX 01064 07314 12858 70321 10040 20000 30231 40260 53001 60006 8702/ 90600 333 10047 20034 91033=
07314,1998-12-01 12:00:00,4,1027.9,-0.1,75,0,15000,25.928,,61.116,60,,,,,,,,,,,wg-a,,,,AAXX 01124 07314 12865 80614 10040 20000 30250 40279 58001 60006 8802/ 91200 333 91033=
07314,1998-12-01 18:00:00,4,1027.3,0.1,75,0,18000,29.632,,57.412,40,2.5,4.8,,,,,,,,,wg-a,,,,AAXX 01184 07314 12568 80416 10040 20000 30244 40273 50001 60006 885// 91800 333 10048 20025 91031=
07314,1998-12-02 00:00:00,3,1026.8,-0.6,75,-1,12000,18.52,,53.708,60,,,,,,,,,,,wg-a,,,,AAXX 02004 07314 12562 80610 10030 21010 30239 40268 57006 60006 885// 90000 333 91029=
07314,1998-12-02 06:00:00,3,1024.8,-1,75,-1,15000,29.632,,,40,2.4,4.1,,,,,,,,,wg-a,,,,AAXX 02064 07314 12565 80416 10030 21010 30219 40248 56010 60006 885// 90600 333 10041 20024=
07314,1998-12-02 12:00:00,3,1024.4,-0.7,81,0,6000,29.632,,,30,,,,,,,,,,,wg-a,,,,AAXX 02124 07314 12556 80316 10030 20000 30215 40244 58007 60006 886// 91200=
07314,1998-12-02 18:00:00,2,1022.8,-0,80,-1,8000,18.52,,,50,2.2,3.1,,,,,,,,,wg-a,,,,AAXX 02184 07314 12558 80510 10020 21010 30199 40228 55000 60006 886// 91800 333 10031 20022=
07314,1998-12-03 00:00:00,2,1021.7,-0.7,80,-1,8000,11.112,,,70,,,,,,,,,,,wg-a,,,,AAXX 03004 07314 12558 80706 10020 21010 30188 40217 58007 60006 886// 90000=
07314,1998-12-03 06:00:00,2,1019.2,-1.2,87,0,6000,18.52,,,40,1.7,2.3,,,,,,,,,wg-a,,,,AAXX 03064 07314 12556 80410 10020 20000 30163 40192 56012 60006 886// 90600 333 10023 20017=
07314,1998-12-03 12:00:00,3,1018.2,-1,81,0,6000,18.52,,,30,,,,,,,,,,,wg-a,,,,AAXX 03124 07314 12556 80310 10030 20000 30153 40182 58010 60006 886// 91200=
07314,1998-12-04 00:00:00,3,1015.9,-0.9,87,1,500,14.816,,,340,,,,,,,,,,,wg-a,,,,AAXX 04004 07314 12500 83408 10030 20010 30130 40159 57009 60006 886// 90000=
07314,1998-12-04 06:00:00,2,1014.6,-0.6,87,0,500,18.52,,,10,1.6,3.2,,,,,,,,,wg-a,,,,AAXX 04064 07314 12500 80110 10020 20000 30117 40146 56006 60006 886// 90600 333 10032 20016=
07314,1998-12-04 12:00:00,4,1015.9,0.2,81,1,8000,22.224,,,350,,,,,,,,,,,wg-a,,,,AAXX 04124 07314 12558 73512 10040 20010 30130 40159 50002 60006 8217/ 91200=
07314,1998-12-04 18:00:00,7,1016.8,1.3,81,4,15000,7.408,,,260,1.8,6.8,,,,,,,,,wg-a,,,,AAXX 04184 07314 12565 72604 10070 20040 30140 40168 53013 60006 8217/ 91800 333 10068 20018=
07314,1998-12-05 00:00:00,5,1019,1.3,87,3,10000,18.52,,,20,,,,,,,,,,1,wg-a,,,,AAXX 05004 07314 12560 60210 10050 20030 30161 40190 51013 60016 70162 81160 90000=
07314,1998-12-05 06:00:00,3,1020.8,0.8,93,2,8000,11.112,,,20,3.3,6.8,,,,,,,,,wg-a,,,,AAXX 05064 07314 32558 70206 10030 20020 30179 40208 53008 82160 90600 333 10068 20033=
07314,1998-12-05 12:00:00,8,1023.1,0.4,71,3,22000,7.408,,,250,,,,,,,,,,,wg-a,,,,AAXX 05124 07314 12572 22504 10080 20030 30203 40231 50004 60006 81131 91200=
07314,1998-12-05 18:00:00,9,1023,0.3,57,1,22000,18.52,,,270,2.5,9,,,,,,,,,wg-a,,,,AAXX 05184 07314 12572 52710 10090 20010 30202 40230 53003 60006 82141 91800 333 10090 20025=
07314,1998-12-06 00:00:00,8,1023.9,0.4,76,4,0,18.52,,,330,,,,,,,,,,,wg-a,,,,AAXX 06004 07314 12/// /3310 10080 20040 30211 40239 53004 60016 90000=
07314,1998-12-06 06:00:00,9,1024.4,0.6,76,5,25000,22.224,,,340,7.7,9.3,,,,,,,,1,wg-a,,,,AAXX 06064 07314 32575 33412 10090 20050 30216 40244 53006 70161 83200 90600 333 10093 20077=
07314,1998-12-06 12:00:00,8,1027.5,1.1,81,5,25000,14.816,,,350,,,,,,,,,,,wg-a,,,,AAXX 06124 07314 12575 73508 10080 20050 30246 40275 51011 60006 81238 91200=
07314,1998-12-06 18:00:00,6,1029.2,1.2,70,1,22000,18.52,,,20,6,8.7,,,,,,,,,wg-a,,,,AAXX 06184 07314 12872 30210 10060 20010 30263 40292 53012 60006 81038 91800 333 10087 20060=
07314,1998-12-07 00:00:00,3,1031,0.8,75,-1,25000,7.408,,,110,,,,,,,,,,,wg-a,,,,AAXX 07004 07314 12/75 01104 10030 21010 30281 40310 53008 60006 80000 90000=
07314,1998-12-07 06:00:00,1,1031.5,-0.1,80,-2,25000,14.816,,,140,1,6,,,,,,,,,wg-a,,,,AAXX 07064 07314 12/75 01408 10010 21020 30286 40315 55001 60006 80000 90600 333 10060 20010=
07314,1998-12-07 12:00:00,8,1033,-0.4,61,1,0,14.816,,,170,,,,,,,,,,,wg-a,,,,AAXX 07124 07314 12/// /1708 10080 20010 30301 40330 58004 60006 91200=
07314,1998-12-07 18:00:00,4,1033.2,0.2,75,0,22000,14.816,,,150,0.9,7.8,,,,,,,,,wg-a,,,,AAXX 07184 07314 12872 31508 10040 20000 30303 40332 50002 60006 81032 91800 333 10078 20009=
07314,1998-12-08 00:00:00,4,1032.9,-0.7,87,2,22000,14.816,,,170,,,,,,,,,,,wg-a,,,,AAXX 08004 07314 12872 61708 10040 20020 30300 40329 56007 60006 85031 90000=
07314,1998-12-08 06:00:00,2,1031.5,-1,87,0,22000,14.816,,,140,1.8,4.7,,,,,,,,,wg-a,,,,AAXX 08064 07314 12872 61408 10020 20000 30286 40315 56010 60006 86031 90600 333 10047 20018=
07314,1998-12-08 12:00:00,7,1030.4,-1.5,70,2,16000,29.632,,,170,,,,,,,,,,,wg-a,,,,AAXX 08124 07314 12866 61716 10070 20020 30275 40304 58015 60006 84032 91200=
07314,1998-12-08 18:00:00,5,1029,0,75,1,16000,11.112,,,130,2.1,8.4,,,,,,,,,wg-a,,,,AAXX 08184 07314 12866 71306 10050 20010 30261 40290 50000 60006 85032 91800 333 10084 20021=
07314,1998-12-09 00:00:00,6,1026.5,-1.4,81,3,18000,18.52,,,150,,,,,,,,,,,wg-a,,,,AAXX 09004 07314 12868 71510 10060 20030 30236 40265 57014 60006 85032 90000=
07314,1998-12-09 06:00:00,8,1023.9,-1.2,87,6,12000,22.224,,,160,4.3,7.7,,0,,,,,,61,wg-a,,,,AAXX 09064 07314 12562 81612 10080 20060 30211 40239 56012 60007 76162 887// 90600 333 10077 20043=
07314,1998-12-09 12:00:00,12,1024.9,0.4,94,11,12000,14.816,,,240,,,,,,,,,,1,wg-a,,,,AAXX 09124 07314 12462 52408 10120 20110 30221 40249 51004 60076 70162 81532 91200=
07314,1998-12-09 18:00:00,11,1024.7,0.2,100,11,15000,18.52,,,210,7.7,12.5,,,,,,,,,wg-a,,,,AAXX 09184 07314 32565 72110 10110 20110 30219 40247 52002 87500 91800 333 10125 20077=
07314,1998-12-10 00:00:00,11,1024.6,-0,100,11,15000,18.52,,,240,,,,,,,,,,1,wg-a,,,,AAXX 10004 07314 12865 32410 10110 20110 30218 40246 55000 60006 70161 83030 90000=
07314,1998-12-10 06:00:00,11,1023.2,-0.8,100,11,500,14.816,,,180,9.9,11.9,,,,,,,,2,wg-a,,,,AAXX 10064 07314 32500 81808 10110 20110 30204 40232 56008 70281 885// 90600 333 10119 20099=
07314,1998-12-10 12:00:00,12,1020.9,-1.8,94,11,3000,25.928,,,190,,,,3,,,,,,63,wg-a,,,,AAXX 10124 07314 02430 81914 10120 20110 30181 40209 58018 60036 76362 887// 91200 333 60037=
07314,1998-12-10 18:00:00,13,1018.6,0,94,12,4000,25.928,,,230,11,12.7,,1,,,,,,60,wg-a,,,,AAXX 10184 07314 12440 82314 10130 20120 30158 40186 50000 60017 76066 887// 91800 333 10127 20110=
07314,1998-12-11 00:00:00,11,1021.8,1.4,87,9,17000,22.224,,,290,,,,,,,,,,,wg-a,,,,AAXX 11004 07314 02/67 02912 10110 20090 30190 40218 51014 61000 80000 90000 333 ////=
07314,1998-12-11 06:00:00,11,1023.3,0.7,87,9,15000,14.816,,,270,10.4,12.8,,,,,,,,,wg-a,,,,AAXX 11064 07314 32865 32708 10110 20090 30205 40233 53007 83030 90600 333 10128 20104=
07314,1998-12-11 12:00:00,11,1024.2,-0.2,94,10,12000,14.816,,,210,,,,,,,,,,,wg-a,,,,AAXX 11124 07314 12562 72108 10110 20100 30214 40242 58002 60006 8/030 91200=
07314,1998-12-11 18:00:00,11,1023.8,0.7,87,9,8000,22.224,,,210,10.4,11.7,,0,,,,,,51,wg-a,,,,AAXX 11184 07314 12558 82112 10110 20090 30210 40238 53007 60007 75152 8222/ 91800 333 10117 20104=
07314,1998-12-12 00:00:00,12,1024,0.2,100,12,1000,18.52,,,210,,,,0,,,,,,51,wg-a,,,,AAXX 12004 07314 02410 82110 10120 20120 30212 40240 52002 60036 75152 887// 90000 333 60007=
07314,1998-12-12 06:00:00,12,1025.3,0.8,100,12,500,25.928,,,220,10.3,12.6,,0,,,,,,20,wg-a,,,,AAXX 12064 07314 12400 82214 10120 20120 30225 40253 53008 60007 72022 887// 90600 333 10126 20103=
07314,1998-12-12 12:00:00,13,1026.9,0.6,94,12,7000,31.484,,,230,,,,,,,,,,,wg-a,,,,AAXX 12124 07314 12657 82317 10130 20120 30241 40269 50006 60006 885// 91200=
07314,1998-12-12 18:00:00,13,1027.9,0.9,94,12,8000,31.484,,,220,12.4,13.5,,,,,,,,,wg-a,,,,AAXX 12184 07314 12658 72217 10130 20120 30251 40279 53009 60006 875// 91800 333 10135 20124=
07314,1998-12-13 00:00:00,13,1030.8,1.9,94,12,8000,29.632,,,260,,,,,,,,,,,wg-a,,,,AAXX 13004 07314 12658 72616 10130 20120 30280 40308 53019 60006 875// 90000=
07314,1998-12-13 06:00:00,12,1034.5,2.2,94,11,6000,14.816,,,230,11.1,14.2,,,,,,,,2,wg-a,,,,AAXX 13064 07314 32456 82308 10120 20110 30317 40345 53022 70252 886// 90600 333 10142 20111=
07314,1998-12-13 12:00:00,13,1035.8,-0.4,94,12,200,3.704,,,220,,,,,,,,,,47,wg-a,,,,AAXX 13124 07314 12/02 92202 10130 20120 30330 40358 58004 60006 74742 89/// 91200=
07314,1998-12-13 18:00:00,11,1035,-0.4,100,11,2000,11.112,,,160,10.3,13.7,,,,,,,,28,wg-a,,,,AAXX 13184 07314 32420 81606 10110 20110 30322 40350 56004 72842 886// 91800 333 10137 20103=
07314,1998-12-14 00:00:00,12,1034.6,-0.5,94,11,4000,3.704,,,160,,,,,,,,,,,wg-a,,,,AAXX 14004 07314 12440 81602 10120 20110 30318 40346 58005 60006 886// 90000=
07314,1998-12-14 06:00:00,10,1033.2,-0.4,93,9,6000,11.112,,,120,9.6,12.3,,0,,,,,,,wg-a,,,,AAXX 14064 07314 12856 31206 10100 20090 30303 40332 55004 60007 8303/ 90600 333 10123 20096=
07314,1998-12-14 12:00:00,12,1033.1,-0.7,88,10,9000,14.816,,,170,,,,,,,,,,,wg-a,,,,AAXX 14124 07314 12859 31708 10120 20100 30303 40331 58007 60006 82032 91200=
07314,1998-12-14 18:00:00,9,1032.9,0.5,100,9,200,11.112,,,190,8.9,13.6,,,,,,,,47,wg-a,,,,AAXX 14184 07314 32/02 91906 10090 20090 30300 40329 53005 74740 89/// 91800 333 10136 20089=
07314,1998-12-15 00:00:00,7,1032.5,-0.4,100,7,0,3.704,,,80,,,,,,,,,,,wg-a,,,,AAXX 15004 07314 12/// /0802 10070 20070 30296 40325 58004 60006 90000=
07314,1998-12-15 06:00:00,6,1031.2,-0.1,100,6,100,3.704,,,60,5.7,9.1,,0,,,,,,45,wg-a,,,,AAXX 15064 07314 12/01 90602 10060 20060 30283 40312 55001 60007 74544 89/// 90600 333 10091 20057=
07314,1998-12-15 12:00:00,10,1030.2,-1.6,93,9,4000,3.704,,,50,,,,,,,,,,10,wg-a,,,,AAXX 15124 07314 12840 20502 10100 20090 30274 40302 58016 60006 71040 82070 91200=
07314,1998-12-15 18:00:00,9,1031.5,1.7,93,8,8000,14.816,,,350,5.3,10.9,,,,,,,,,wg-a,,,,AAXX 15184 07314 12/58 33508 10090 20080 30286 40315 53017 60006 80002 91800 333 10109 20053=
07314,1998-12-16 00:00:00,8,1032.9,0.5,93,7,800,14.816,,,20,,,,,,,,,,45,wg-a,,,,AAXX 16004 07314 12/08 90208 10080 20070 30300 40329 52005 60006 74544 89/// 90000=
07314,1998-12-16 12:00:00,11,1031.6,-2.3,94,10,0,14.816,,,90,,,,,,,,,,,wg-a,,,,AAXX 16124 07314 12/// /0908 10110 20100 30288 40316 58023 60006 91200=
07314,1998-12-16 18:00:00,9,1030.3,0,93,8,0,25.928,,,60,7.4,11.6,,,,,,,,,wg-a,,,,AAXX 16184 07314 12/// /0614 10090 20080 30274 40303 50000 60006 91800 333 10116 20074=
07314,1998-12-17 00:00:00,8,1028,-1.9,87,6,10000,18.52,,,80,,,,,,,,,,,wg-a,,,,AAXX 17004 07314 12560 30810 10080 20060 30251 40280 57019 60006 83102 90000=
07314,1998-12-17 06:00:00,6,1026.7,0.2,93,5,8000,3.704,,,110,4.1,8.8,,0,,,,,,,wg-a,,,,AAXX 17064 07314 12858 71102 10060 20050 30238 40267 53002 60007 8707/ 90600 333 10088 20041=
07314,1998-12-17 12:00:00,7,1026,-0.5,93,6,0,18.52,,,190,,,,,,,,,,,wg-a,,,,AAXX 17124 07314 12/// /1910 10070 20060 30231 40260 58005 60006 91200=
07314,1998-12-17 18:00:00,7,1026,0.4,93,6,1200,14.816,,,140,3.6,9,,,,,,,,28,wg-a,,,,AAXX 17184 07314 12412 81408 10070 20060 30231 40260 53004 60006 72842 886// 91800 333 10090 20036=
07314,1998-12-18 00:00:00,10,1026.5,0.2,93,9,7000,11.112,,,170,,,,,,,,,,,wg-a,,,,AAXX 18004 07314 12857 81706 10100 20090 30237 40265 51002 60006 8803/ 90000=
07314,1998-12-18 06:00:00,12,1025.4,-0.7,94,11,7000,18.52,,,180,6.7,11.8,,,,,,,,,wg-a,,,,AAXX 18064 07314 12857 81810 10120 20110 30226 40254 56007 60006 8803/ 90600 333 10118 20067=
07314,1998-12-18 12:00:00,11,1024.6,-0.8,94,10,1500,31.484,,,170,,,,0,,,,,,51,wg-a,,,,AAXX 18124 07314 02415 81717 10110 20100 30218 40246 58008 60006 75154 886// 91200 333 60007=
07314,1998-12-18 18:00:00,12,1022.6,-0.4,94,11,3000,29.632,,61.116,220,10,12.6,,1,,,,,,51,wg-a,,,,AAXX 18184 07314 12430 82216 10120 20110 30198 40226 55004 60017 75154 886// 91800 333 10126 20100 91033=
07314,1998-12-19 00:00:00,11,1022.8,-0.1,94,10,0,25.928,,,250,,,,0,,,,,,,wg-a,,,,AAXX 19004 07314 02/// /2514 10110 20100 30200 40228 55001 60016 90000 333 60007=
07314,1998-12-19 06:00:00,12,1025,1.5,76,8,18000,31.484,,,300,10.4,12.6,,,,,,,,0,wg-a,,,,AAXX 19064 07314 32868 33017 10120 20080 30222 40250 53015 70051 83020 90600 333 10126 20104=
07314,1998-12-19 12:00:00,12,1026.8,0,71,7,18000,14.816,,,300,,,,,,,,,,,wg-a,,,,AAXX 19124 07314 12568 43008 10120 20070 30240 40268 50000 60006 84220 91200=
07314,1998-12-19 18:00:00,11,1022.5,-2,76,7,20000,14.816,,,240,10.1,11.9,,,,,,,,,wg-a,,,,AAXX 19184 07314 12570 72408 10110 20070 30197 40225 58020 60006 82232 91800 333 10119 20101=
07314,1998-12-20 00:00:00,11,1011.8,-7,82,8,12000,46.3,,,210,,,,0,,,,,,62,wg-a,,,,AAXX 20004 07314 02562 82125 10110 20080 30090 40118 58070 60016 76262 8222/ 90000 333 60007=
07314,1998-12-20 06:00:00,11,990.5,-10.7,87,9,4000,72.228,,111.12,260,9.9,12,,3,,,,,,81,wg-a,,,,AAXX 20064 07314 12540 82639 10110 20090 39878 49905 57107 60037 78182 887// 90600 333 10120 20099 91060=
07314,1998-12-20 12:00:00,6,1003.8,8,87,4,500,72.228,,107.416,340,,,,,,,,,,21,wg-a,,,,AAXX 20124 07314 02500 83439 10060 20040 30010 40038 51080 60006 72162 887// 91200 333 61000 91058=
07314,1998-12-20 18:00:00,8,1015.8,5.9,71,3,16000,50.004,,100.008,350,5.7,11.1,,,,,,,,,wg-a,,,,AAXX 20184 07314 32566 83527 10080 20030 30130 40158 53059 887// 91800 333 10111 20057 91054=
07314,1998-12-21 00:00:00,6,1022.1,2.4,81,3,0,42.596,,,360,,,,,,,,,,,wg-a,,,,AAXX 21004 07314 12/// /3623 10060 20030 30192 40221 51024 60006 90000=
07314,1998-12-21 06:00:00,5,1025.1,1.1,81,2,20000,25.928,,,360,5,7.7,,,,,,,,,wg-a,,,,AAXX 21064 07314 12/70 03614 10050 20020 30222 40251 51011 60006 80000 90600 333 10077 20050=
07314,1998-12-21 12:00:00,7,1028.5,0.8,66,1,22000,14.816,,,340,,,,,,,,,,,wg-a,,,,AAXX 21124 07314 12672 23408 10070 20010 30256 40285 50008 60006 81232 91200=
07314,1998-12-21 18:00:00,5,1029.7,0.9,65,-1,25000,0,,,0,4.7,7.1,,,,,,,,,wg-a,,,,AAXX 21184 07314 12575 20000 10050 21010 30268 40297 53009 60006 81102 91800 333 10071 20047=
07314,1998-12-22 00:00:00,3,1029.5,-0.4,70,-2,25000,11.112,,,130,,,,,,,,,,,wg-a,,,,AAXX 22004 07314 12/75 01306 10030 21020 30266 40295 58004 60006 80000 90000=
07314,1998-12-22 06:00:00,2,1028.9,-0.4,87,0,0,14.816,,,140,1.7,4.7,,,,,,,,,wg-a,,,,AAXX 22064 07314 12/// /1408 10020 20000 30260 40289 55004 60006 90600 333 10047 20017=
07314,1998-12-22 12:00:00,7,1028.8,-0.4,76,3,18000,18.52,,,170,,,,,,,,,,,wg-a,,,,AAXX 22124 07314 12/68 31710 10070 20030 30259 40288 58004 60006 81032 91200=
07314,1998-12-22 18:00:00,4,1026.7,-0.8,87,2,17000,11.112,,,100,1.8,7.6,,,,,,,,,wg-a,,,,AAXX 22184 07314 12667 71006 10040 20020 30238 40267 58008 60006 81132 91800 333 10076 20018=
07314,1998-12-23 00:00:00,2,1025,-1.2,87,0,0,11.112,,,60,,,,,,,,,,,wg-a,,,,AAXX 23004 07314 12/// /0606 10020 20000 30221 40250 56012 60006 90000=
07314,1998-12-23 06:00:00,0,1022.6,-0.6,93,-1,0,11.112,,,130,-0.4,4.3,,,,,,,,,wg-a,,,,AAXX 23064 07314 12/// /1306 10000 21010 30197 40226 56006 60006 90600 333 10043 21004=
07314,1998-12-23 12:00:00,7,1021.1,-1.5,76,3,12000,22.224,,,170,,,,,,,,,,,wg-a,,,,AAXX 23124 07314 12862 61712 10070 20030 30183 40211 58015 60006 82032 91200=
07314,1998-12-23 18:00:00,4,1020.8,0.2,87,2,10000,14.816,,,130,-0.3,7.9,,,,,,,,,wg-a,,,,AAXX 23184 07314 32/60 71308 10040 20020 30179 40208 52002 83032 91800 333 10079 21003=
07314,1998-12-24 00:00:00,10,1020.9,0.6,87,8,15000,25.928,,,310,,,,1,,,,,,,wg-a,,,,AAXX 24004 07314 12/65 73114 10100 20080 30181 40209 53006 60017 85032 90000=
07314,1998-12-24 06:00:00,8,1025.3,2.5,81,5,18000,25.928,,,340,4,10.5,,,,,,,,,wg-a,,,,AAXX 24064 07314 32/68 53414 10080 20050 30225 40253 53025 82032 90600 333 10105 20040=
07314,1998-12-24 12:00:00,9,1029,1,76,5,20000,3.704,,,330,,,,,,,,,,,wg-a,,,,AAXX 24124 07314 32570 43302 10090 20050 30262 40290 50010 81152 91200=
07314,1998-12-24 18:00:00,9,1029.8,0.7,87,7,20000,11.112,,,180,7.1,10,,,,,,,,,wg-a,,,,AAXX 24184 07314 32570 61806 10090 20070 30270 40298 51007 81150 91800 333 10100 20071=
07314,1998-12-25 00:00:00,11,1029.8,-0.2,82,8,0,18.52,,,220,,,,,,,,,,,wg-a,,,,AAXX 25004 07314 32/// /2210 10110 20080 30270 40298 58002 90000=
07314,1998-12-25 06:00:00,11,1029.6,-0.1,87,9,16000,14.816,,,220,9.4,11.1,,,,,,,,,wg-a,,,,AAXX 25064 07314 32566 72208 10110 20090 30268 40296 55001 81150 90600 333 10111 20094=
07314,1998-12-25 12:00:00,12,1029.4,-1.1,82,9,18000,22.224,,,190,,,,0,,,,,,20,wg-a,,,,AAXX 25124 07314 12568 61912 10120 20090 30266 40294 58011 60007 72052 84231 91200=
07314,1998-12-25 18:00:00,11,1028.1,-0.6,87,9,16000,29.632,,,220,10.2,12.3,,,,,,,,,wg-a,,,,AAXX 25184 07314 32566 62216 10110 20090 30253 40281 55006 83231 91800 333 10123 20102=
07314,1998-12-26 00:00:00,11,1027.4,-0.4,87,9,0,29.632,,,210,,,,,,,,,,,wg-a,,,,AAXX 26004 07314 12/// /2116 10110 20090 30246 40274 55004 60006 90000=
07314,1998-12-26 06:00:00,12,1025.3,-1.4,88,10,7000,29.632,,,220,11.2,11.8,,,,,,,,,wg-a,,,,AAXX 26064 07314 12557 82216 10120 20100 30225 40253 58014 60006 8227/ 90600 333 10118 20112=
07314,1998-12-26 12:00:00,12,1023.2,-1.3,88,10,9000,31.484,,,200,,,,,,,,,,,wg-a,,,,AAXX 26124 07314 12859 82017 10120 20100 30204 40232 58013 60006 8807/ 91200=
07314,1998-12-26 18:00:00,12,1019.3,-0.8,82,9,15000,35.188,,,200,11.5,12.5,,,,,,,,,wg-a,,,,AAXX 26184 07314 12865 82019 10120 20090 30165 40193 58008 60006 8407/ 91800 333 10125 20115=
07314,1998-12-27 00:00:00,11,1016.9,-1.3,94,10,8000,38.892,,,200,,,,3,,,,,,63,wg-a,,,,AAXX 27004 07314 02858 82021 10110 20100 30141 40169 58013 60046 76362 8807/ 90000 333 60037=
07314,1998-12-27 06:00:00,11,1012.8,-2.3,94,10,6000,31.484,,,170,10.9,12.9,,0,,,,,,61,wg-a,,,,AAXX 27064 07314 12856 81717 10110 20100 30100 40128 58023 60007 76162 8807/ 90600 333 10129 20109=
07314,1998-12-27 12:00:00,13,1011.1,-0.5,82,10,6000,31.484,,,190,,,,0,,,,,,61,wg-a,,,,AAXX 27124 07314 02856 71917 10130 20100 30083 40111 56005 60016 76162 8707/ 91200 333 60007=
07314,1998-12-27 18:00:00,13,1010.1,0.6,82,10,10000,31.484,,,210,10.9,12.6,,0,,,,,,2,wg-a,,,,AAXX 27184 07314 12860 82117 10130 20100 30073 40101 51006 60007 70262 8807/ 91800 333 10126 20109=
07314,1998-12-28 00:00:00,12,1010.9,0.6,88,10,10000,25.928,,,200,,,,,,,,,,,wg-a,,,,AAXX 28004 07314 12560 82014 10120 20100 30081 40109 51006 60006 8227/ 90000=
07314,1998-12-28 06:00:00,10,1012.5,1.5,82,7,14000,25.928,,,270,9.7,12.9,,1,,,,,,60,wg-a,,,,AAXX 28064 07314 12564 82714 10100 20070 30097 40125 51015 60017 76022 8222/ 90600 333 10129 20097=
07314,1998-12-28 12:00:00,10,1014.8,0.6,71,5,12000,35.188,,,230,,,,1,,,,,,60,wg-a,,,,AAXX 28124 07314 02462 82319 10100 20050 30120 40148 51006 60046 76066 8172/ 91200 333 60017=
07314,1998-12-28 18:00:00,9,1016.3,0.8,87,7,14000,14.816,,53.708,170,7.8,10.7,,,,,,,,,wg-a,,,,AAXX 28184 07314 32464 51708 10090 20070 30135 40163 51008 85202 91800 333 10107 20078 91029=
07314,1998-12-29 00:00:00,6,1014.4,-2.2,93,5,6000,14.816,,,140,,,,0,,,,,,,wg-a,,,,AAXX 29004 07314 02456 41408 10060 20050 30116 40144 58022 60016 84201 90000 333 60007=
07314,1998-12-29 06:00:00,6,1008.6,-2.9,93,5,18000,25.928,,,130,5.2,9.1,,0,,,,,,2,wg-a,,,,AAXX 29064 07314 12/68 01314 10060 20050 30058 40086 56029 60007 70280 80000 90600 333 10091 20052=
07314,1998-12-29 12:00:00,10,1005.1,-2,82,7,12000,31.484,,53.708,140,,,,,,,,,,,wg-a,,,,AAXX 29124 07314 12462 71417 10100 20070 30023 40051 58020 60006 81108 91200 333 91029=
07314,1998-12-29 18:00:00,12,1002.7,-0.2,67,6,20000,38.892,,61.116,150,5.3,11.7,,,,,,,,,wg-a,,,,AAXX 29184 07314 12870 81521 10120 20060 30000 40027 58002 60006 87078 91800 333 10117 20053 91033=
07314,1998-12-30 00:00:00,11,1003.7,0.7,71,6,0,31.484,,,150,,,,,,,,,,,wg-a,,,,AAXX 30004 07314 32/// /1517 10110 20060 30009 40037 51007 90000=
07314,1998-12-30 06:00:00,10,1006.4,1.4,87,8,12000,29.632,,,160,9.6,11.8,,2,,,,,,61,wg-a,,,,AAXX 30064 07314 12662 81616 10100 20080 30036 40064 53014 60027 76122 8802/ 90600 333 10118 20096=
07314,1998-12-30 12:00:00,10,1007.4,-0.4,93,9,500,25.928,,,150,,,,2,,,,,,21,wg-a,,,,AAXX 30124 07314 12800 81514 10100 20090 30046 40074 58004 60027 72162 8802/ 91200=
07314,1998-12-30 18:00:00,10,1006.4,-0,93,9,14000,31.484,,,160,9,12.2,,0,,,,,,61,wg-a,,,,AAXX 30184 07314 12864 81617 10100 20090 30036 40064 55000 60007 76162 8802/ 91800 333 10122 20090=
07314,1998-12-31 00:00:00,11,1005.8,-0.9,94,10,6000,29.632,,,170,,,,0,,,,,,60,wg-a,,,,AAXX 31004 07314 12856 81716 10110 20100 30030 40058 58009 60007 76062 8802/ 90000=
07314,1998-12-31 06:00:00,10,1002.3,-1.5,93,9,17000,22.224,,,160,9.6,10.8,,2,,,,,,21,wg-a,,,,AAXX 31064 07314 12567 71612 10100 20090 39995 40023 56015 60027 72182 8623/ 90600 333 10108 20096=
07314,1998-12-31 12:00:00,12,999.5,-1.3,76,8,20000,38.892,,,160,,,,0,,,,,,,wg-a,,,,AAXX 31124 07314 12770 31621 10120 20080 39968 49995 58013 60007 81502 91200=
07314,1998-12-31 18:00:00,10,999.6,0.8,87,8,20000,22.224,,68.524,170,8.3,12.2,,0,,,,,,1,wg-a,,,,AAXX 31184 07314 12570 51712 10100 20080 39968 49996 53008 60007 70181 83202 91800 333 10122 20083 91037=
