station_id,dh_utc,temperature,pression,pression_variation_3h,humidite,point_de_rosee,visibilite,vent_moyen,vent_rafales,vent_rafales_10min,vent_direction,temperature_min,temperature_max,pluie_1h,pluie_3h,pluie_6h,pluie_12h,pluie_24h,ensoleillement,temperature_sol,temps_omm,source,radiations,neige_au_sol,nebulosite,raw_msg
07314,1999-01-01 00:00:00,9,1003.5,2.6,87,7,16000,11.112,,,130,,,,,,,,,,,wg-a,,,,AAXX 01004 07314 32566 71306 10090 20070 30007 40035 51026 872// 90000=
07314,1999-01-01 06:00:00,7,1006.6,2.6,93,6,12000,14.816,,,160,5.8,11.1,,,,,,,,,wg-a,,,,AAXX 01064 07314 32562 51608 10070 20060 30038 40066 53026 85200 90600 333 10111 20058=
07314,1999-01-01 12:00:00,12,1010.7,1.5,82,9,20000,18.52,,,200,,,,0,,,,,,,wg-a,,,,AAXX 01124 07314 12570 22010 10120 20090 30079 40107 51015 60007 81102 91200=
07314,1999-01-01 18:00:00,11,1011.4,0.7,87,9,22000,14.816,,,190,7.2,12.3,,,,,,,,,wg-a,,,,AAXX 01184 07314 32572 51908 10110 20090 30086 40114 51007 84202 91800 333 10123 20072=
07314,1999-01-02 00:00:00,11,1010.7,-1,82,8,0,31.484,,,190,,,,,,,,,,,wg-a,,,,AAXX 02004 07314 32/// /1917 10110 20080 30079 40107 58010 90000=
07314,1999-01-02 06:00:00,12,1008.1,-1.1,82,9,18000,50.004,,68.524,210,10.5,12.4,,0,,,,,,25,wg-a,,,,AAXX 02064 07314 12568 82127 10120 20090 30053 40081 56011 60007 72522 885// 90600 333 10124 20105 91037=
07314,1999-01-02 12:00:00,12,1009.3,-0.2,88,10,15000,35.188,,75.932,220,,,,1,,,,,,1,wg-a,,,,AAXX 02124 07314 12465 32219 10120 20100 30065 40093 58002 60017 70198 83200 91200 333 91041=
07314,1999-01-02 18:00:00,12,1012.3,2.5,71,7,20000,50.004,,90.748,270,8.6,12.7,,1,,,,,,25,wg-a,,,,AAXX 02184 07314 12470 32727 10120 20070 30095 40123 53025 60017 72581 83200 91800 333 10127 20086 91049=
07314,1999-01-03 00:00:00,12,1015.8,1.5,82,9,0,35.188,,,250,,,,,,,,,,,wg-a,,,,AAXX 03004 07314 32/// /2519 10120 20090 30130 40158 51015 90000=
07314,1999-01-03 06:00:00,12,1014,-1.5,88,10,12000,38.892,,75.932,230,11,12.7,,1,,,,,,60,wg-a,,,,AAXX 03064 07314 12662 82321 10120 20100 30112 40140 56015 60017 76062 8802/ 90600 333 10127 20110 91041=
07314,1999-01-03 12:00:00,13,1016,2,94,12,4000,38.892,,75.932,250,,,,1,,,,,,60,wg-a,,,,AAXX 03124 07314 12640 82521 10130 20120 30132 40160 51020 60017 76066 8802/ 91200 333 91041=
07314,1999-01-03 18:00:00,12,1018.1,0.4,100,12,4000,38.892,,,240,11.2,12.9,,1,,,,,,60,wg-a,,,,AAXX 03184 07314 12640 82421 10120 20120 30153 40181 50004 60017 76066 8802/ 91800 333 10129 20112=
07314,1999-01-04 00:00:00,12,1018.6,-0.2,94,11,0,35.188,,,210,,,,,,,,,,,wg-a,,,,AAXX 04004 07314 32/// /2119 10120 20110 30158 40186 58002 90000=
07314,1999-01-04 06:00:00,13,1018.5,-0.4,88,11,18000,29.632,,79.636,200,11.8,14.4,,1,,,,,,25,wg-a,,,,AAXX 04064 07314 12568 82016 10130 20110 30157 40185 56004 60017 72582 885// 90600 333 10144 20118 91043=
07314,1999-01-04 12:00:00,15,1019.9,0.7,77,11,10000,22.224,,,220,,,,,,,,,,2,wg-a,,,,AAXX 04124 07314 32560 82212 10150 20110 30171 40199 51007 70262 885// 91200=
07314,1999-01-04 18:00:00,12,1019.9,0.3,88,10,4000,18.52,,,170,11.4,14.9,,,,,,,,,wg-a,,,,AAXX 04184 07314 32840 71710 10120 20100 30171 40199 52003 81038 91800 333 10149 20114=
07314,1999-01-05 00:00:00,10,1018.1,-1.2,87,8,0,7.408,,,110,,,,,,,,,,,wg-a,,,,AAXX 05004 07314 32/// /1104 10100 20080 30153 40181 56012 90000=
07314,1999-01-05 06:00:00,10,1015.8,-1,87,8,14000,18.52,,,160,7.6,11.7,,0,,,,,,,wg-a,,,,AAXX 05064 07314 12/64 61610 10100 20080 30130 40158 56010 60007 86030 90600 333 10117 20076=
07314,1999-01-05 12:00:00,15,1017.1,0.3,67,9,15000,29.632,,,160,,,,,,,,,,,wg-a,,,,AAXX 05124 07314 32/65 31616 10150 20090 30143 40171 50003 80002 91200=
07314,1999-01-05 18:00:00,11,1017.8,0.8,76,7,14000,14.816,,,140,9.7,15.3,,,,,,,,,wg-a,,,,AAXX 05184 07314 32/64 01408 10110 20070 30150 40178 52008 80000 91800 333 10153 20097=
07314,1999-01-06 06:00:00,7,1016.4,-1,93,6,14000,14.816,,,140,7,11.1,,0,,,,,,,wg-a,,,,AAXX 06064 07314 12/64 01408 10070 20060 30136 40164 56010 60007 80000 90600 333 10111 20070=
07314,1999-01-06 18:00:00,12,1017.9,0.9,88,10,17000,22.224,,,170,7.1,13.5,,,,,,,,,wg-a,,,,AAXX 06184 07314 32/67 01712 10120 20100 30151 40179 53009 80000 91800 333 10135 20071=
07314,1999-01-07 00:00:00,10,1017.8,-0.8,93,9,0,25.928,,,170,,,,,,,,,,,wg-a,,,,AAXX 07004 07314 32/// /1714 10100 20090 30150 40178 56008 90000=
07314,1999-01-07 06:00:00,12,1016.6,-0.9,94,11,12000,22.224,,,200,9.6,12.2,,0,,,,,,,wg-a,,,,AAXX 07064 07314 12/62 02012 10120 20110 30138 40166 55009 60007 80000 90600 333 10122 20096=
07314,1999-01-07 12:00:00,12,1017.5,0.6,88,10,20000,25.928,,,270,,,,,,,,,,25,wg-a,,,,AAXX 07124 07314 02570 82714 10120 20100 30147 40175 50006 61000 72581 888// 91200 333 ////=
07314,1999-01-07 18:00:00,12,1017.3,-0.5,82,9,22000,25.928,,,240,11.4,14,,,,,,,,,wg-a,,,,AAXX 07184 07314 32572 82414 10120 20090 30145 40173 58005 8317/ 91800 333 10140 20114=
07314,1999-01-08 00:00:00,11,1015.7,-0.8,82,8,0,35.188,,,260,,,,,,,,,,,wg-a,,,,AAXX 08004 07314 32/// /2619 10110 20080 30129 40157 58008 90000=
07314,1999-01-08 06:00:00,12,1012.7,-1.2,94,11,20000,31.484,,,250,10.7,12.1,,0,,,,,,21,wg-a,,,,AAXX 08064 07314 12570 82517 10120 20110 30099 40127 56012 60007 72162 885// 90600 333 10121 20107=
07314,1999-01-08 12:00:00,11,1013.4,0,82,8,20000,11.112,,64.82,250,,,,,,,,,,2,wg-a,,,,AAXX 08124 07314 32670 72506 10110 20080 30106 40134 50000 70252 875// 91200 333 91035=
07314,1999-01-08 18:00:00,10,1013.2,0.1,71,5,25000,35.188,,64.82,280,8.2,12.2,,1,,,,,,15,wg-a,,,,AAXX 08184 07314 12575 42819 10100 20050 30104 40132 50001 60017 71582 84200 91800 333 10122 20082 91035=
07314,1999-01-09 00:00:00,10,1012.5,-0.6,71,5,0,35.188,,,270,,,,,,,,,,,wg-a,,,,AAXX 09004 07314 32/// /2719 10100 20050 30097 40125 58006 90000=
07314,1999-01-09 06:00:00,9,1011.4,-0.1,81,6,22000,22.224,,64.82,310,8.4,10.9,,1,,,,,,3,wg-a,,,,AAXX 09064 07314 12572 53112 10090 20060 30086 40114 55001 60017 70382 85200 90600 333 10109 20084 91035=
07314,1999-01-09 12:00:00,8,1012.3,-0.3,71,3,20000,14.816,,,40,,,,,,,,,,,wg-a,,,,AAXX 09124 07314 32/70 70408 10080 20030 30095 40123 58003 80008 91200=
07314,1999-01-09 18:00:00,7,1011.1,0.2,76,3,20000,31.484,,,40,7.1,9.3,,,,,,,,,wg-a,,,,AAXX 09184 07314 32570 70417 10070 20030 30083 40111 52002 81208 91800 333 10093 20071=
07314,1999-01-11 00:00:00,2,1010.6,0.1,69,-3,0,29.632,,,20,,,,,,,,,,,wg-a,,,,AAXX 11004 07314 32/// /0216 10020 21030 30077 40106 53001 90000=
07314,1999-01-11 06:00:00,2,1011.4,0.5,80,-1,16000,31.484,,,360,1.5,3.8,,,,,,,,,wg-a,,,,AAXX 11064 07314 32/66 43617 10020 21010 30085 40114 53005 80002 90600 333 10038 20015=
07314,1999-01-11 12:00:00,4,1014.6,1.4,65,-2,20000,35.188,,,360,,,,,,,,,,1,wg-a,,,,AAXX 11124 07314 32570 73619 10040 21020 30117 40146 50014 70162 8117/ 91200=
07314,1999-01-11 18:00:00,5,1018.5,2.6,70,0,20000,35.188,,,350,1.1,5.1,,,,,,,,,wg-a,,,,AAXX 11184 07314 32570 73519 10050 20000 30156 40185 53026 8217/ 91800 333 10051 20011=
07314,1999-01-12 00:00:00,3,1022,0.8,56,-5,0,3.704,,,40,,,,,,,,,,,wg-a,,,,AAXX 12004 07314 32/// /0402 10030 21050 30191 40220 50008 90000=
07314,1999-01-12 06:00:00,0,1021.9,-0.4,86,-2,20000,18.52,,,140,0,4.6,,,,,,,,,wg-a,,,,AAXX 12064 07314 32/70 31410 10000 21020 30190 40219 58004 83030 90600 333 10046 20000=
07314,1999-01-12 12:00:00,7,1018.2,-2.7,70,2,19000,42.596,,68.524,190,,,,,,,,,,80,wg-a,,,,AAXX 12124 07314 02569 81923 10070 20020 30154 40182 58027 61000 78022 8771/ 91200 333 //// 91037=
07314,1999-01-12 18:00:00,9,1012.9,-2.3,81,6,15000,50.004,,,220,0.3,9.2,,1,,,,,,63,wg-a,,,,AAXX 12184 07314 12565 82227 10090 20060 30101 40129 56023 60017 76362 887// 91800 333 10092 20003=
07314,1999-01-13 00:00:00,10,1013.3,2,87,8,0,22.224,,,300,,,,5,,,,,,,wg-a,,,,AAXX 13004 07314 12/// /3012 10100 20080 30105 40133 53020 60057 90000=
07314,1999-01-13 06:00:00,9,1017.4,1.7,81,6,20000,22.224,,,320,8.5,10.3,,,,,,,,,wg-a,,,,AAXX 13064 07314 32/70 03212 10090 20060 30146 40174 53017 80000 90600 333 10103 20085=
07314,1999-01-13 12:00:00,10,1020.1,,71,5,22000,11.112,,,290,,,,,,,,,,,wg-a,,,,AAXX 13124 07314 32872 72906 10100 20050 30173 40201 86072 91200=
07314,1999-01-13 18:00:00,11,1018.5,-0.8,76,7,20000,22.224,,,240,8.9,11,,,,,,,,21,wg-a,,,,AAXX 13184 07314 02870 72412 10110 20070 30157 40185 58008 61000 72122 8703/ 91800 333 10110 20089 ////=
07314,1999-01-14 00:00:00,11,1016.2,-1.1,94,10,0,25.928,,,250,,,,,,,,,,,wg-a,,,,AAXX 14004 07314 32/// /2514 10110 20100 30134 40162 58011 90000=
07314,1999-01-14 06:00:00,10,1016.4,1,87,8,20000,14.816,,,330,10.1,11.3,,,,,,,,21,wg-a,,,,AAXX 14064 07314 02870 83308 10100 20080 30136 40164 53010 61000 72162 8802/ 90600 333 10113 20101 ////=
07314,1999-01-14 12:00:00,11,1020.2,1,76,7,18000,18.52,,,300,,,,,,,,,,,wg-a,,,,AAXX 14124 07314 32568 13010 10110 20070 30174 40202 50010 81100 91200=
07314,1999-01-14 18:00:00,10,1021,0.9,82,7,20000,7.408,,,230,9.6,11,,,,,,,,,wg-a,,,,AAXX 14184 07314 32870 72304 10100 20070 30182 40210 53009 87070 91800 333 10110 20096=
07314,1999-01-15 00:00:00,10,1022,-0.1,87,8,0,18.52,,,200,,,,,,,,,,,wg-a,,,,AAXX 15004 07314 32/// /2010 10100 20080 30192 40220 57001 90000=
07314,1999-01-15 06:00:00,11,1020.6,-0.3,82,8,22000,7.408,,,230,9.9,11.1,,0,,,,,,,wg-a,,,,AAXX 15064 07314 12872 82304 10110 20080 30178 40206 55003 60007 88070 90600 333 10111 20099=
07314,1999-01-15 18:00:00,10,1014.8,-0.9,87,8,14000,25.928,,,180,10.3,11.7,,,,,,,,,wg-a,,,,AAXX 15184 07314 32764 71814 10100 20080 30120 40148 56009 877// 91800 333 10117 20103=
07314,1999-01-16 00:00:00,11,1012.9,-1.1,87,9,0,38.892,,,200,,,,,,,,,,,wg-a,,,,AAXX 16004 07314 32/// /2021 10110 20090 30101 40129 58011 90000=
07314,1999-01-16 06:00:00,11,1010.3,-1.8,87,9,18000,31.484,,57.412,190,10.2,11.5,,,,,,,,,wg-a,,,,AAXX 16064 07314 32768 71917 10110 20090 30075 40103 56018 8252/ 90600 333 10115 20102 91031=
07314,1999-01-16 12:00:00,12,1009.6,-0.3,82,9,7000,35.188,,64.82,170,,,,,,,,,,,wg-a,,,,AAXX 16124 07314 32757 71719 10120 20090 30068 40096 58003 8652/ 91200 333 91035=
07314,1999-01-16 18:00:00,12,1008,-0,82,9,500,35.188,,61.116,210,11.2,11.9,,2,,,,,,63,wg-a,,,,AAXX 16184 07314 12800 82119 10120 20090 30052 40080 55000 60027 76362 8807/ 91800 333 10119 20112 91033=
07314,1999-01-17 00:00:00,9,1008.6,-0.4,87,7,0,14.816,,,230,,,,,,,,,,,wg-a,,,,AAXX 17004 07314 32/// /2308 10090 20070 30058 40086 58004 90000=
07314,1999-01-17 06:00:00,8,1009.2,0.5,93,7,12000,18.52,,,170,8.1,11.5,,3,,,,,,61,wg-a,,,,AAXX 17064 07314 12862 81710 10080 20070 30064 40092 53005 60037 76162 8807/ 90600 333 10115 20081=
07314,1999-01-17 12:00:00,8,1012.9,2,93,7,12000,7.408,,,150,,,,5,,,,,,21,wg-a,,,,AAXX 17124 07314 12562 71504 10080 20070 30101 40129 51020 60057 72162 878// 91200=
07314,1999-01-17 18:00:00,8,1016.6,2.7,87,6,18000,7.408,,,280,7.3,10.2,,,,,,,,2,wg-a,,,,AAXX 17184 07314 32568 72804 10080 20060 30138 40166 53027 70262 873// 91800 333 10102 20073=
07314,1999-01-18 00:00:00,8,1021.4,2,81,5,0,11.112,,,290,,,,,,,,,,,wg-a,,,,AAXX 18004 07314 32/// /2906 10080 20050 30186 40214 51020 90000=
07314,1999-01-18 06:00:00,4,1024.3,1.3,93,3,20000,14.816,,,150,3.9,8.4,,0,,,,,,,wg-a,,,,AAXX 18064 07314 12/70 11508 10040 20030 30214 40243 51013 60007 80002 90600 333 10084 20039=
07314,1999-01-18 12:00:00,10,1025.4,0.1,82,7,16000,31.484,,,170,,,,,,,,,,,wg-a,,,,AAXX 18124 07314 32566 21717 10100 20070 30226 40254 50001 81101 91200=
07314,1999-01-18 18:00:00,11,1024.4,0.1,82,8,25000,29.632,,,200,3.4,10.8,,,,,,,,,wg-a,,,,AAXX 18184 07314 32575 72016 10110 20080 30216 40244 53001 8523/ 91800 333 10108 20034=
07314,1999-01-19 00:00:00,11,1023.9,-0.6,82,8,0,29.632,,,190,,,,,,,,,,,wg-a,,,,AAXX 19004 07314 32/// /1916 10110 20080 30211 40239 56006 90000=
07314,1999-01-19 06:00:00,10,1021.9,-0.9,93,9,15000,35.188,,,170,10.3,11,,,,,,,,,wg-a,,,,AAXX 19064 07314 32865 81719 10100 20090 30191 40219 58009 8802/ 90600 333 10110 20103=
07314,1999-01-19 12:00:00,10,1021.4,-0.5,87,8,10000,35.188,,,180,,,,,,,,,,20,wg-a,,,,AAXX 19124 07314 02460 81819 10100 20080 30186 40214 57005 61000 72052 8277/ 91200 333 ////=
07314,1999-01-19 18:00:00,11,1020.4,0.1,82,8,14000,22.224,,,160,9.2,10.8,,,,,,,,21,wg-a,,,,AAXX 19184 07314 02864 71612 10110 20080 30176 40204 53001 61000 72162 8707/ 91800 333 10108 20092 ////=
07314,1999-01-20 00:00:00,9,1018.7,-1.1,81,6,0,25.928,,,150,,,,,,,,,,,wg-a,,,,AAXX 20004 07314 32/// /1514 10090 20060 30159 40187 58011 90000=
07314,1999-01-20 06:00:00,8,1017.3,-0.9,81,5,20000,14.816,,,140,7.6,10.6,,,,,,,,,wg-a,,,,AAXX 20064 07314 32870 71408 10080 20050 30145 40173 58009 8707/ 90600 333 10106 20076=
07314,1999-01-20 12:00:00,10,1017.6,-0.5,82,7,16000,35.188,,,170,,,,,,,,,,,wg-a,,,,AAXX 20124 07314 32866 71719 10100 20070 30148 40176 58005 8707/ 91200=
07314,1999-01-20 18:00:00,11,1018,0.7,82,8,18000,22.224,,,160,7.1,11.3,,,,,,,,,wg-a,,,,AAXX 20184 07314 32868 81612 10110 20080 30152 40180 53007 8807/ 91800 333 10113 20071=
07314,1999-01-21 00:00:00,9,1018.4,-0.2,81,6,0,14.816,,,150,,,,,,,,,,,wg-a,,,,AAXX 21004 07314 32/// /1508 10090 20060 30156 40184 55002 90000=
07314,1999-01-21 06:00:00,8,1018.1,-0,87,6,16000,14.816,,,130,7.8,11.2,,,,,,,,,wg-a,,,,AAXX 21064 07314 32866 81308 10080 20060 30153 40181 55000 8807/ 90600 333 10112 20078=
07314,1999-01-21 12:00:00,11,1019.7,0.5,82,8,15000,14.816,,,170,,,,,,,,,,,wg-a,,,,AAXX 21124 07314 32865 81708 10110 20080 30169 40197 50005 8807/ 91200=
07314,1999-01-21 18:00:00,10,1020.7,1.2,87,8,16000,7.408,,,70,7.2,12.8,,,,,,,,,wg-a,,,,AAXX 21184 07314 32866 80704 10100 20080 30179 40207 53012 8807/ 91800 333 10128 20072=
07314,1999-01-22 00:00:00,9,1022.1,0.2,87,7,0,14.816,,,60,,,,,,,,,,,wg-a,,,,AAXX 22004 07314 32/// /0608 10090 20070 30193 40221 50002 90000=
07314,1999-01-22 06:00:00,9,1022.8,0.3,87,7,0,11.112,,,60,8.3,9.7,,,,,,,,,wg-a,,,,AAXX 22064 07314 32/// /0606 10090 20070 30200 40228 53003 90600 333 10097 20083=
07314,1999-01-22 12:00:00,10,1024,0.1,82,7,10000,7.408,,,50,,,,,,,,,,,wg-a,,,,AAXX 22124 07314 32860 60504 10100 20070 30212 40240 50001 8107/ 91200=
07314,1999-01-22 18:00:00,9,1023.6,0.4,93,8,10000,7.408,,,40,8.4,11,,,,,,,,,wg-a,,,,AAXX 22184 07314 32/60 50404 10090 20080 30208 40236 53004 80002 91800 333 10110 20084=
07314,1999-01-23 00:00:00,6,1023.5,-0.2,93,5,0,14.816,,,80,,,,,,,,,,,wg-a,,,,AAXX 23004 07314 32/// /0808 10060 20050 30206 40235 58002 90000=
07314,1999-01-23 06:00:00,5,1022.2,-0.6,93,4,500,11.112,,,100,4.8,9.6,,,,,,,,43,wg-a,,,,AAXX 23064 07314 32/05 91006 10050 20040 30193 40222 57006 74344 89/// 90600 333 10096 20048=
07314,1999-01-23 12:00:00,6,1023,0,100,6,200,11.112,,,140,,,,,,,,,,45,wg-a,,,,AAXX 23124 07314 32/02 91406 10060 20060 30201 40230 50000 74544 89/// 91200=
07314,1999-01-23 18:00:00,7,1022.6,0.4,93,6,900,14.816,,,130,4.3,7.1,,,,,,,,47,wg-a,,,,AAXX 23184 07314 32/09 91308 10070 20060 30197 40226 51004 74742 89/// 91800 333 10071 20043=
07314,1999-01-24 00:00:00,7,1023,0.1,100,7,0,18.52,,,160,,,,,,,,,,,wg-a,,,,AAXX 24004 07314 32/// /1610 10070 20070 30202 40230 52001 90000=
07314,1999-01-24 06:00:00,11,1023.4,0.4,94,10,20000,14.816,,,220,6.7,10.6,,0,,,,,,2,wg-a,,,,AAXX 24064 07314 12570 82208 10110 20100 30206 40234 53004 60007 70242 886// 90600 333 10106 20067=
07314,1999-01-24 12:00:00,11,1025.8,0.9,94,10,10000,18.52,,,170,,,,,,,,,,,wg-a,,,,AAXX 24124 07314 32660 81710 10110 20100 30230 40258 51009 885// 91200=
07314,1999-01-24 18:00:00,11,1026.5,0.7,94,10,12000,22.224,,,170,10.5,11.8,,,,,,,,,wg-a,,,,AAXX 24184 07314 32662 81712 10110 20100 30237 40265 51007 885// 91800 333 10118 20105=
07314,1999-01-25 00:00:00,11,1027.7,0.6,94,10,0,18.52,,,180,,,,,,,,,,,wg-a,,,,AAXX 25004 07314 32/// /1810 10110 20100 30249 40277 51006 90000=
07314,1999-01-25 12:00:00,13,1027.4,-0.8,88,11,14000,29.632,,,210,,,,,,,,,,,wg-a,,,,AAXX 25124 07314 32664 52116 10130 20110 30246 40274 58008 85500 91200=
07314,1999-01-25 18:00:00,12,1025.7,-0.6,88,10,20000,29.632,,,210,11.1,12.9,,,,,,,,,wg-a,,,,AAXX 25184 07314 32670 72116 10120 20100 30229 40257 58006 875// 91800 333 10129 20111=
07314,1999-01-26 00:00:00,13,1022.7,-2,82,10,0,38.892,,,220,,,,,,,,,,,wg-a,,,,AAXX 26004 07314 32/// /2221 10130 20100 30199 40227 56020 90000=
07314,1999-01-26 06:00:00,9,1020.7,-1,93,8,10000,14.816,,72.228,320,8.8,13,,3,,,,,,63,wg-a,,,,AAXX 26064 07314 12860 83208 10090 20080 30179 40207 56010 60037 76322 8802/ 90600 333 10130 20088 91039=
07314,1999-01-26 12:00:00,10,1021.6,0,87,8,20000,14.816,,,270,,,,,,,,,,2,wg-a,,,,AAXX 26124 07314 32470 72708 10100 20080 30188 40216 50000 70262 8253/ 91200=
07314,1999-01-26 18:00:00,11,1020.7,-0,71,6,20000,31.484,,,260,8,11.5,,,,,,,,,wg-a,,,,AAXX 26184 07314 32470 32617 10110 20060 30179 40207 55000 8223/ 91800 333 10115 20080=
07314,1999-01-27 00:00:00,11,1018.3,-1.3,82,8,0,42.596,,,250,,,,,,,,,,,wg-a,,,,AAXX 27004 07314 32/// /2523 10110 20080 30155 40183 56013 90000=
07314,1999-01-27 06:00:00,10,1018,1.7,82,7,20000,35.188,,68.524,330,8.5,11.7,,2,,,,,,21,wg-a,,,,AAXX 27064 07314 12470 83319 10100 20070 30152 40180 53017 60027 72186 8/72/ 90600 333 10117 20085 91037=
07314,1999-01-27 12:00:00,10,1023.3,2,71,5,20000,22.224,,,320,,,,,,,,,,,wg-a,,,,AAXX 27124 07314 32470 73212 10100 20050 30205 40233 51020 8117/ 91200=
07314,1999-01-27 18:00:00,8,1023.2,0.1,93,7,10000,14.816,,,180,7.7,10.3,,0,,,,,,2,wg-a,,,,AAXX 27184 07314 12460 81808 10080 20070 30204 40232 53001 60007 70252 8112/ 91800 333 10103 20077=
07314,1999-01-28 00:00:00,11,1024,0.3,87,9,0,29.632,,,290,,,,,,,,,,,wg-a,,,,AAXX 28004 07314 32/// /2916 10110 20090 30212 40240 53003 90000=
07314,1999-01-28 06:00:00,11,1023.8,0.2,94,10,20000,31.484,,,290,8,11.3,,,,,,,,,wg-a,,,,AAXX 28064 07314 32570 82917 10110 20100 30210 40238 53002 885// 90600 333 10113 20080=
07314,1999-01-28 12:00:00,12,1024,-0.5,88,10,12000,38.892,,,280,,,,,,,,,,,wg-a,,,,AAXX 28124 07314 32562 72821 10120 20100 30212 40240 58005 875// 91200=
07314,1999-01-28 18:00:00,11,1023.6,0.6,94,10,20000,42.596,,64.82,300,11.3,12,,,,,,,,,wg-a,,,,AAXX 28184 07314 32570 83023 10110 20100 30208 40236 52006 885// 91800 333 10120 20113 91035=
07314,1999-01-29 00:00:00,11,1025.3,1,87,9,0,35.188,,,310,,,,,,,,,,,wg-a,,,,AAXX 29004 07314 32/// /3119 10110 20090 30225 40253 53010 90000=
07314,1999-01-29 12:00:00,11,1029,1,82,8,20000,14.816,,,360,,,,,,,,,,,wg-a,,,,AAXX 29124 07314 32570 53608 10110 20080 30262 40290 50010 8323/ 91200=
07314,1999-01-29 18:00:00,9,1031.2,1.7,76,5,25000,18.52,,,20,8.9,11.5,,,,,,,,,wg-a,,,,AAXX 29184 07314 32575 20210 10090 20050 30283 40312 53017 81130 91800 333 10115 20089=
07314,1999-01-30 00:00:00,8,1033.7,1,76,4,0,14.816,,,30,,,,,,,,,,,wg-a,,,,AAXX 30004 07314 32/// /0308 10080 20040 30308 40337 52010 90000=
07314,1999-01-30 06:00:00,2,1035.2,1.1,75,-2,20000,18.52,,,70,2,9.2,,,,,,,,,wg-a,,,,AAXX 30064 07314 32/70 00710 10020 21020 30323 40352 53011 80000 90600 333 10092 20020=
07314,1999-01-30 12:00:00,5,1036.8,0.5,60,-2,20000,18.52,,,80,,,,,,,,,,,wg-a,,,,AAXX 30124 07314 32/70 20810 10050 21020 30339 40368 50005 82040 91200=
07314,1999-01-30 18:00:00,4,1036.6,1,52,-5,20000,18.52,,,60,1.7,5.6,,,,,,,,,wg-a,,,,AAXX 30184 07314 32/70 20610 10040 21050 30337 40366 51010 82040 91800 333 10056 20017=
07314,1999-01-31 00:00:00,2,1038.3,0.5,55,-6,0,22.224,,,60,,,,,,,,,,,wg-a,,,,AAXX 31004 07314 32/// /0612 10020 21060 30353 40383 53005 90000=
07314,1999-01-31 06:00:00,0,1037.9,-0,74,-4,25000,22.224,,,60,0.4,4.4,,,,,,,,,wg-a,,,,AAXX 31064 07314 32/75 10612 10000 21040 30349 40379 55000 81030 90600 333 10044 20004=
07314,1999-01-31 12:00:00,3,1039.2,-0.1,60,-4,0,29.632,,,40,,,,,,,,,,,wg-a,,,,AAXX 31124 07314 32/// /0416 10030 21040 30363 40392 58001 91200=
07314,1999-01-31 18:00:00,4,1038.2,0.6,65,-2,25000,35.188,,,20,0.1,4.5,,,,,,,,,wg-a,,,,AAXX 31184 07314 32675 10219 10040 21020 30353 40382 53006 81130 91800 333 10045 20001=
07314,1999-02-01 00:00:00,3,1037.8,-0.1,65,-3,0,35.188,,,30,,,,,,,,,,,wg-a,,,,AAXX 01004 07314 32/// /0319 10030 21030 30349 40378 58001 90000=
07314,1999-02-01 06:00:00,2,1037.2,-0.4,69,-3,22000,42.596,,61.116,40,2.1,4.2,,,,,,,,,wg-a,,,,AAXX 01064 07314 32/72 60423 10020 21030 30343 40372 57004 80002 90600 333 10042 20021 91033=
07314,1999-02-01 12:00:00,5,1038.4,-0.2,60,-2,20000,31.484,,,20,,,,,,,,,,,wg-a,,,,AAXX 01124 07314 32/70 50217 10050 21020 30355 40384 58002 85030 91200=
07314,1999-02-01 18:00:00,7,1037.5,0.2,81,4,15000,31.484,,,10,2.2,7.1,,,,,,,,,wg-a,,,,AAXX 01184 07314 32/65 70117 10070 20040 30346 40375 53002 86032 91800 333 10071 20022=
07314,1999-02-02 00:00:00,7,1037.9,0.2,93,6,0,29.632,,,360,,,,,,,,,,,wg-a,,,,AAXX 02004 07314 32/// /3616 10070 20060 30350 40379 53002 90000=
07314,1999-02-02 06:00:00,7,1037.8,0.2,81,4,18000,29.632,,,30,6.4,7.7,,,,,,,,,wg-a,,,,AAXX 02064 07314 32/68 80316 10070 20040 30349 40378 53002 8807/ 90600 333 10077 20064=
07314,1999-02-02 12:00:00,7,1039.5,-0.2,76,3,16000,29.632,,,10,,,,,,,,,,,wg-a,,,,AAXX 02124 07314 32/66 80116 10070 20030 30366 40395 58002 8807/ 91200=
07314,1999-02-03 00:00:00,8,1041.5,0.5,81,5,0,18.52,,,30,,,,,,,,,,,wg-a,,,,AAXX 03004 07314 32/// /0310 10080 20050 30386 40415 50005 90000=
07314,1999-02-03 06:00:00,8,1041.2,0.2,81,5,0,25.928,,,40,7.7,8.1,,,,,,,,,wg-a,,,,AAXX 03064 07314 32/// /0414 10080 20050 30383 40412 53002 90600 333 10081 20077=
07314,1999-02-03 12:00:00,9,1042.6,0.1,76,5,10000,7.408,,,30,,,,,,,,,,,wg-a,,,,AAXX 03124 07314 32560 70304 10090 20050 30397 40426 50001 875// 91200=
07314,1999-02-03 18:00:00,9,1040.7,-0.6,81,6,9000,25.928,,,320,7.4,9.2,,,,,,,,,wg-a,,,,AAXX 03184 07314 32859 73214 10090 20060 30378 40407 55006 8705/ 91800 333 10092 20074=
07314,1999-02-04 00:00:00,8,1040.9,0.3,87,6,0,18.52,,,360,,,,,,,,,,,wg-a,,,,AAXX 04004 07314 32/// /3610 10080 20060 30380 40409 51003 90000=
07314,1999-02-04 06:00:00,8,1039.6,-0.2,87,6,0,14.816,,,330,7.1,8.8,,,,,,,,,wg-a,,,,AAXX 04064 07314 32/// /3308 10080 20060 30367 40396 56002 90600 333 10088 20071=
07314,1999-02-04 12:00:00,9,1039.9,-0.4,76,5,6000,3.704,,,350,,,,,,,,,,,wg-a,,,,AAXX 04124 07314 32656 83502 10090 20050 30370 40399 58004 885// 91200=
07314,1999-02-04 18:00:00,10,1037.4,-0.6,87,8,18000,18.52,,,280,8.1,10.1,,,,,,,,,wg-a,,,,AAXX 04184 07314 32768 82810 10100 20080 30345 40374 55006 885// 91800 333 10101 20081=
07314,1999-02-05 00:00:00,10,1035.7,-1.2,87,8,0,22.224,,,270,,,,,,,,,,,wg-a,,,,AAXX 05004 07314 32/// /2712 10100 20080 30328 40357 58012 90000=
07314,1999-02-05 06:00:00,10,1031.5,-1.9,93,9,500,31.484,,,270,9.9,10.8,,,,,,,,51,wg-a,,,,AAXX 05064 07314 02400 82717 10100 20090 30287 40315 56019 61000 75152 887// 90600 333 10108 20099 ////=
07314,1999-02-05 12:00:00,10,1031,0,71,5,18000,31.484,,,320,,,,,,,,,,3,wg-a,,,,AAXX 05124 07314 32668 83217 10100 20050 30282 40310 50000 70352 885// 91200=
07314,1999-02-05 18:00:00,10,1028.8,-0.4,82,7,20000,35.188,,,310,9.6,10.7,,,,,,,,,wg-a,,,,AAXX 05184 07314 32670 83119 10100 20070 30260 40288 55004 885// 91800 333 10107 20096=
07314,1999-02-06 00:00:00,10,1028.7,-0.2,76,6,0,29.632,,,310,,,,,,,,,,,wg-a,,,,AAXX 06004 07314 32/// /3116 10100 20060 30259 40287 58002 90000=
07314,1999-02-06 06:00:00,10,1026.4,-1.2,66,4,18000,31.484,,,320,9.6,10,,,,,,,,,wg-a,,,,AAXX 06064 07314 32668 83217 10100 20040 30236 40264 56012 885// 90600 333 10100 20096=
07314,1999-02-06 12:00:00,10,1025.4,-0.9,76,6,20000,25.928,,,290,,,,,,,,,,,wg-a,,,,AAXX 06124 07314 32670 82914 10100 20060 30226 40254 58009 885// 91200=
07314,1999-02-06 18:00:00,10,1021.7,-1.5,76,6,20000,25.928,,,280,9.7,10.5,,,,,,,,,wg-a,,,,AAXX 06184 07314 32870 72814 10100 20060 30189 40217 56015 87070 91800 333 10105 20097=
07314,1999-02-07 00:00:00,10,1018.3,-2.2,87,8,0,29.632,,,260,,,,,,,,,,,wg-a,,,,AAXX 07004 07314 32/// /2616 10100 20080 30155 40183 58022 90000=
07314,1999-02-07 06:00:00,10,1013.3,-2.1,87,8,22000,35.188,,53.708,290,9.7,10.4,,,,,,,,2,wg-a,,,,AAXX 07064 07314 32572 72919 10100 20080 30105 40133 56021 70282 8113/ 90600 333 10104 20097 91029=
07314,1999-02-07 12:00:00,10,1013.4,0.4,76,6,25000,31.484,,64.82,330,,,,1,,,,,,2,wg-a,,,,AAXX 07124 07314 12475 63317 10100 20060 30106 40134 50004 60017 70282 82232 91200 333 91035=
07314,1999-02-07 18:00:00,8,1015.8,1.7,61,1,28000,38.892,,,330,8.3,10.5,,,,,,,,,wg-a,,,,AAXX 07184 07314 32478 73321 10080 20010 30130 40158 53017 825// 91800 333 10105 20083=
07314,1999-02-08 00:00:00,7,1018.4,0.7,66,1,0,25.928,,,340,,,,,,,,,,,wg-a,,,,AAXX 08004 07314 32/// /3414 10070 20010 30156 40184 51007 90000=
07314,1999-02-08 06:00:00,8,1017.1,-0.8,57,0,28000,18.52,,,290,6.8,8.3,,,,,,,,,wg-a,,,,AAXX 08064 07314 32678 82910 10080 20000 30143 40171 56008 8653/ 90600 333 10083 20068=
07314,1999-02-08 12:00:00,9,1011.8,-3.8,87,7,0,46.3,,,230,,,,3,,,,,,,wg-a,,,,AAXX 08124 07314 12/// /2325 10090 20070 30090 40118 58038 60037 91200=
07314,1999-02-08 18:00:00,11,1006.5,-2,82,8,18000,46.3,,83.34,270,7.1,11.1,,0,,,,,,25,wg-a,,,,AAXX 08184 07314 12568 82725 10110 20080 30037 40065 56020 60007 72586 8127/ 91800 333 10111 20071 91045=
07314,1999-02-09 00:00:00,11,1001.3,-3.7,87,9,0,46.3,,,240,,,,3,,,,,,,wg-a,,,,AAXX 09004 07314 12/// /2425 10110 20090 39985 40013 58037 60037 90000=
07314,1999-02-09 06:00:00,8,997.2,-0.9,87,6,25000,29.632,,83.34,340,7.7,11.2,,5,,,,,,21,wg-a,,,,AAXX 09064 07314 12475 83416 10080 20060 39944 49972 56009 60057 72162 8172/ 90600 333 10112 20077 91045=
07314,1999-02-09 12:00:00,6,1004.7,3.9,75,2,18000,46.3,,,360,,,,,,,,,,2,wg-a,,,,AAXX 09124 07314 32468 73625 10060 20020 30019 40047 51039 70262 858// 91200=
07314,1999-02-09 18:00:00,4,1010.8,3.2,65,-2,25000,35.188,,,360,3.5,8,,,,,,,,,wg-a,,,,AAXX 09184 07314 32575 43619 10040 21020 30079 40108 53032 8/400 91800 333 10080 20035=
07314,1999-02-10 00:00:00,4,1015,1.1,70,-1,0,25.928,,,340,,,,,,,,,,,wg-a,,,,AAXX 10004 07314 32/// /3414 10040 21010 30121 40150 51011 90000=
07314,1999-02-10 06:00:00,4,1013.9,-0.4,70,-1,28000,29.632,,,340,2.6,4.6,,,,,,,,,wg-a,,,,AAXX 10064 07314 32578 13416 10040 21010 30110 40139 56004 81100 90600 333 10046 20026=
07314,1999-02-10 12:00:00,5,1015,0.9,70,0,28000,31.484,,,10,,,,,,,,,,,wg-a,,,,AAXX 10124 07314 32578 50117 10050 20000 30121 40150 53009 85200 91200=
07314,1999-02-10 18:00:00,5,1017.6,2.1,56,-3,28000,29.632,,,340,3.7,5.7,,,,,,,,,wg-a,,,,AAXX 10184 07314 32578 43416 10050 21030 30147 40176 53021 84200 91800 333 10057 20037=
07314,1999-02-11 00:00:00,5,1020.8,1.4,70,0,0,31.484,,,340,,,,,,,,,,,wg-a,,,,AAXX 11004 07314 32/// /3417 10050 20000 30179 40208 51014 90000=
07314,1999-02-11 06:00:00,4,1022,0.6,65,-2,500,22.224,,,350,4.1,5.7,,,,,,,,,wg-a,,,,AAXX 11064 07314 32/00 03512 10040 21020 30191 40220 52006 80000 90600 333 10057 20041=
07314,1999-02-11 12:00:00,7,1024.1,0.5,61,0,500,18.52,,,320,,,,,,,,,,,wg-a,,,,AAXX 11124 07314 32500 43210 10070 20000 30212 40241 50005 81230 91200=
07314,1999-02-11 18:00:00,6,1024.1,0.9,61,-1,20000,18.52,,,20,4.3,7.6,,,,,,,,,wg-a,,,,AAXX 11184 07314 32570 40210 10060 21010 30212 40241 53009 81430 91800 333 10076 20043=
07314,1999-02-12 00:00:00,4,1025.4,0.2,65,-2,0,11.112,,,30,,,,,,,,,,,wg-a,,,,AAXX 12004 07314 32/// /0306 10040 21020 30225 40254 53002 90000=
07314,1999-02-12 06:00:00,2,1025.7,0.4,80,-1,22000,11.112,,,100,1.7,5.5,,,,,,,,,wg-a,,,,AAXX 12064 07314 32/72 21006 10020 21010 30228 40257 53004 82030 90600 333 10055 20017=
07314,1999-02-12 12:00:00,5,1027.9,0.2,75,1,15000,7.408,,,70,,,,,,,,,,,wg-a,,,,AAXX 12124 07314 32565 70704 10050 20010 30250 40279 51002 8715/ 91200=
07314,1999-02-12 18:00:00,5,1028.3,1,60,-2,17000,18.52,,,30,0.4,6.1,,,,,,,,,wg-a,,,,AAXX 12184 07314 32/67 30310 10050 21020 30254 40283 53010 82031 91800 333 10061 20004=
07314,1999-02-13 00:00:00,3,1030.1,0.1,65,-3,0,11.112,,,80,,,,,,,,,,,wg-a,,,,AAXX 13004 07314 32/// /0806 10030 21030 30272 40301 53001 90000=
07314,1999-02-13 06:00:00,1,1031.2,1,69,-4,20000,11.112,,,80,1.4,4.8,,,,,,,,,wg-a,,,,AAXX 13064 07314 32/70 70806 10010 21040 30283 40312 52010 87030 90600 333 10048 20014=
07314,1999-02-13 12:00:00,3,1033,0,52,-6,22000,18.52,,,60,,,,,,,,,,,wg-a,,,,AAXX 13124 07314 32/72 10610 10030 21060 30301 40330 50000 81030 91200=
07314,1999-02-13 18:00:00,3,1033,0.8,48,-7,18000,29.632,,,20,1.3,4.4,,,,,,,,,wg-a,,,,AAXX 13184 07314 32/68 10216 10030 21070 30301 40330 53008 80001 91800 333 10044 20013=
07314,1999-02-14 00:00:00,3,1034.1,0.5,56,-5,0,29.632,,,30,,,,,,,,,,,wg-a,,,,AAXX 14004 07314 32/// /0316 10030 21050 30312 40341 51005 90000=
07314,1999-02-14 06:00:00,1,1033.6,0.1,64,-5,20000,22.224,,,40,0.7,3.4,,,,,,,,,wg-a,,,,AAXX 14064 07314 32/70 30412 10010 21050 30306 40336 53001 83030 90600 333 10034 20007=
07314,1999-02-14 12:00:00,4,1034.7,0,56,-4,25000,14.816,,,30,,,,,,,,,,,wg-a,,,,AAXX 14124 07314 32/75 00308 10040 21040 30318 40347 50000 80000 91200=
07314,1999-02-14 18:00:00,4,1033.2,-0.5,60,-3,18000,3.704,,,290,0.1,5.3,,,,,,,,,wg-a,,,,AAXX 14184 07314 32/68 42902 10040 21030 30303 40332 58005 80002 91800 333 10053 20001=
07314,1999-02-15 00:00:00,6,1033.1,-0.4,52,-3,0,14.816,,,260,,,,,,,,,,,wg-a,,,,AAXX 15004 07314 32/// /2608 10060 21030 30302 40331 58004 90000=
07314,1999-02-15 06:00:00,9,1028.2,-2.5,87,7,17000,29.632,,,240,3.7,9,,0,,,,,,,wg-a,,,,AAXX 15064 07314 12/67 82416 10090 20070 30254 40282 58025 60007 88030 90600 333 10090 20037=
07314,1999-02-15 12:00:00,10,1026.1,-1.2,93,9,2000,29.632,,,270,,,,1,,,,,,60,wg-a,,,,AAXX 15124 07314 12420 82716 10100 20090 30233 40261 58012 60017 76066 8/72/ 91200=
07314,1999-02-15 18:00:00,9,1023.8,-0.7,100,9,18000,11.112,,,280,8.6,10.1,,,,,,,,1,wg-a,,,,AAXX 15184 07314 32668 62806 10090 20090 30210 40238 58007 70162 8253/ 91800 333 10101 20086=
07314,1999-02-16 00:00:00,9,1023.7,-0,93,8,0,18.52,,,330,,,,,,,,,,,wg-a,,,,AAXX 16004 07314 32/// /3310 10090 20080 30209 40237 54000 90000=
07314,1999-02-16 06:00:00,9,1023.2,-0.1,81,6,16000,11.112,,,300,8,9.4,,,,,,,,,wg-a,,,,AAXX 16064 07314 32866 83006 10090 20060 30204 40232 55001 8802/ 90600 333 10094 20080=
07314,1999-02-16 12:00:00,10,1023.8,-0.5,87,8,0,22.224,,,270,,,,,,,,,,,wg-a,,,,AAXX 16124 07314 32/// /2712 10100 20080 30210 40238 58005 91200=
07314,1999-02-16 18:00:00,10,1022.5,0.3,87,8,16000,29.632,,,300,8.2,10.1,,,,,,,,,wg-a,,,,AAXX 16184 07314 32566 73016 10100 20080 30197 40225 53003 855// 91800 333 10101 20082=
07314,1999-02-17 00:00:00,8,1023.9,0.7,81,5,0,18.52,,,350,,,,,,,,,,,wg-a,,,,AAXX 17004 07314 32/// /3510 10080 20050 30211 40239 51007 90000=
07314,1999-02-17 06:00:00,9,1024.4,0.6,81,6,25000,29.632,,,310,7.8,9.5,,,,,,,,,wg-a,,,,AAXX 17064 07314 32575 83116 10090 20060 30216 40244 53006 885// 90600 333 10095 20078=
07314,1999-02-17 12:00:00,10,1026.1,0.6,76,6,28000,25.928,,,310,,,,,,,,,,,wg-a,,,,AAXX 17124 07314 32578 63114 10100 20060 30233 40261 50006 81230 91200=
07314,1999-02-17 18:00:00,10,1025.9,0.2,82,7,22000,25.928,,,290,8.6,10.7,,,,,,,,,wg-a,,,,AAXX 17184 07314 32572 72914 10100 20070 30231 40259 53002 828// 91800 333 10107 20086=
07314,1999-02-18 00:00:00,10,1025.1,-1.1,93,9,0,25.928,,,240,,,,,,,,,,,wg-a,,,,AAXX 18004 07314 32/// /2414 10100 20090 30223 40251 58011 90000=
07314,1999-02-18 06:00:00,10,1023.7,-0,93,9,22000,35.188,,61.116,290,9.4,9.9,,,,,,,,2,wg-a,,,,AAXX 18064 07314 32572 82919 10100 20090 30209 40237 54000 70282 818// 90600 333 10099 20094 91033=
07314,1999-02-18 12:00:00,11,1027.7,1.6,87,9,18000,29.632,,,300,,,,,,,,,,,wg-a,,,,AAXX 18124 07314 32868 83016 10110 20090 30249 40277 51016 8807/ 91200=
07314,1999-02-18 18:00:00,10,1028.6,1,87,8,0,22.224,,,280,9.6,10.6,,,,,,,,,wg-a,,,,AAXX 18184 07314 32/// /2812 10100 20080 30258 40286 53010 91800 333 10106 20096=
07314,1999-02-19 00:00:00,10,1029.4,0,93,9,0,11.112,,,250,,,,,,,,,,,wg-a,,,,AAXX 19004 07314 32/// /2506 10100 20090 30266 40294 50000 90000=
07314,1999-02-19 06:00:00,10,1028.1,-0.3,93,9,18000,29.632,,,270,9.5,10.3,,,,,,,,20,wg-a,,,,AAXX 19064 07314 02668 82716 10100 20090 30253 40281 55003 61000 72022 885// 90600 333 10103 20095 ////=
07314,1999-02-19 12:00:00,11,1029,0.3,87,9,16000,25.928,,,240,,,,,,,,,,,wg-a,,,,AAXX 19124 07314 32566 82414 10110 20090 30262 40290 50003 8/22/ 91200=
07314,1999-02-19 18:00:00,11,1028.4,0.2,94,10,16000,29.632,,,240,10.1,11.2,,,,,,,,,wg-a,,,,AAXX 19184 07314 32666 82416 10110 20100 30256 40284 53002 885// 91800 333 10112 20101=
07314,1999-02-20 00:00:00,11,1027.5,-0.4,94,10,0,29.632,,,240,,,,,,,,,,,wg-a,,,,AAXX 20004 07314 32/// /2416 10110 20100 30247 40275 58004 90000=
07314,1999-02-20 06:00:00,11,1025.3,-0.9,94,10,0,31.484,,,240,10.2,11,,,,,,,,,wg-a,,,,AAXX 20064 07314 32/// /2417 10110 20100 30225 40253 56009 90600 333 10110 20102=
07314,1999-02-20 12:00:00,11,1024.6,-0.3,94,10,0,31.484,,,250,,,,,,,,,,,wg-a,,,,AAXX 20124 07314 32/// /2517 10110 20100 30218 40246 58003 91200=
07314,1999-02-20 18:00:00,11,1024,0.2,94,10,900,29.632,,,250,10.7,11.2,,,,,,,,47,wg-a,,,,AAXX 20184 07314 32/09 92516 10110 20100 30212 40240 53002 74744 89/// 91800 333 10112 20107=
07314,1999-02-21 00:00:00,10,1024.3,-0,100,10,0,25.928,,,290,,,,,,,,,,,wg-a,,,,AAXX 21004 07314 32/// /2914 10100 20100 30215 40243 55000 90000=
07314,1999-02-21 06:00:00,10,1022.9,-1.2,93,9,16000,18.52,,,230,9.8,11,,,,,,,,,wg-a,,,,AAXX 21064 07314 32566 72310 10100 20090 30201 40229 58012 875// 90600 333 10110 20098=
07314,1999-02-21 12:00:00,11,1021.9,-1.4,100,11,6000,35.188,,,260,,,,0,,,,,,2,wg-a,,,,AAXX 21124 07314 12656 82619 10110 20110 30191 40219 57014 60007 70252 885// 91200=
07314,1999-02-21 18:00:00,11,1019.1,-1.3,94,10,10000,29.632,,,260,9.8,11.4,,0,,,,,,2,wg-a,,,,AAXX 21184 07314 12660 82616 10110 20100 30163 40191 56013 60007 70252 885// 91800 333 10114 20098=
07314,1999-02-22 00:00:00,10,1017.3,-1.3,93,9,0,42.596,,,280,,,,,,,,,,,wg-a,,,,AAXX 22004 07314 32/// /2823 10100 20090 30145 40173 56013 90000=
07314,1999-02-22 06:00:00,10,1016.8,0.1,76,6,20000,31.484,,,290,10,11.2,,,,,,,,,wg-a,,,,AAXX 22064 07314 32670 72917 10100 20060 30140 40168 53001 8553/ 90600 333 10112 20100=
07314,1999-02-22 12:00:00,10,1019.5,1.1,76,6,22000,42.596,,87.044,300,,,,1,,,,,,2,wg-a,,,,AAXX 22124 07314 12572 73023 10100 20060 30167 40195 51011 60017 70282 8283/ 91200 333 91047=
07314,1999-02-22 18:00:00,10,1020.8,1.7,66,4,18000,42.596,,,310,8,10.2,,,,,,,,2,wg-a,,,,AAXX 22184 07314 32568 63123 10100 20040 30180 40208 52017 70282 83201 91800 333 10102 20080=
07314,1999-02-23 00:00:00,8,1023.2,0.4,71,3,0,22.224,,,330,,,,,,,,,,,wg-a,,,,AAXX 23004 07314 32/// /3312 10080 20030 30204 40232 51004 90000=
07314,1999-02-23 06:00:00,9,1022,0.2,76,5,25000,22.224,,,340,7.6,9.7,,1,,,,,,2,wg-a,,,,AAXX 23064 07314 12875 73412 10090 20050 30192 40220 53002 60017 70262 8703/ 90600 333 10097 20076=
07314,1999-02-23 12:00:00,9,1023.9,0.4,66,3,25000,25.928,,,320,,,,,,,,,,,wg-a,,,,AAXX 23124 07314 32575 73214 10090 20030 30211 40239 51004 81272 91200=
07314,1999-02-23 18:00:00,8,1021.5,-1.1,81,5,15000,11.112,,,220,8,9.8,,0,,,,,,,wg-a,,,,AAXX 23184 07314 12565 82206 10080 20050 30187 40215 58011 60007 885// 91800 333 10098 20080=
07314,1999-02-24 00:00:00,10,1016.6,-2.9,93,9,0,22.224,,,240,,,,,,,,,,,wg-a,,,,AAXX 24004 07314 32/// /2412 10100 20090 30138 40166 58029 90000=
07314,1999-02-24 06:00:00,10,1008.6,-4.1,100,10,0,31.484,,,210,7.8,10.6,,,,,,,,,wg-a,,,,AAXX 24064 07314 32/// /2117 10100 20100 30058 40086 58041 90600 333 10106 20078=
07314,1999-02-24 12:00:00,11,1005.7,-0.8,94,10,8000,18.52,,,220,,,,1,,,,,,21,wg-a,,,,AAXX 24124 07314 12758 82210 10110 20100 30029 40057 57008 60017 72162 8802/ 91200=
07314,1999-02-24 18:00:00,10,1008.4,2.2,93,9,12000,11.112,,,150,10.2,11.4,,,,,,,,,wg-a,,,,AAXX 24184 07314 32562 71506 10100 20090 30056 40084 53022 8272/ 91800 333 10114 20102=
07314,1999-02-25 00:00:00,8,1014,2,100,8,0,11.112,,,130,,,,,,,,,,,wg-a,,,,AAXX 25004 07314 32/// /1306 10080 20080 30112 40140 51020 90000=
07314,1999-02-25 06:00:00,8,1018.2,1.9,93,7,0,11.112,,,50,6.7,10.1,,,,,,,,,wg-a,,,,AAXX 25064 07314 32/// /0506 10080 20070 30154 40182 53019 90600 333 10101 20067=
07314,1999-02-25 12:00:00,9,1021.6,1.3,93,8,12000,14.816,,,10,,,,,,,,,,2,wg-a,,,,AAXX 25124 07314 32862 80108 10090 20080 30188 40216 51013 70242 8802/ 91200=
07314,1999-02-25 18:00:00,9,1022.5,1.1,87,7,8000,11.112,,,20,7.5,10.1,,,,,,,,,wg-a,,,,AAXX 25184 07314 32858 80206 10090 20070 30197 40225 53011 8802/ 91800 333 10101 20075=
07314,1999-02-26 00:00:00,8,1023.1,-0.2,87,6,0,3.704,,,50,,,,,,,,,,,wg-a,,,,AAXX 26004 07314 32/// /0502 10080 20060 30203 40231 58002 90000=
07314,1999-02-26 06:00:00,8,1021.5,-0.7,87,6,15000,3.704,,,70,7.6,8.8,,,,,,,,,wg-a,,,,AAXX 26064 07314 32865 80702 10080 20060 30187 40215 56007 8802/ 90600 333 10088 20076=
07314,1999-02-26 12:00:00,8,1020.4,-1,87,6,9000,11.112,,,140,,,,,,,,,,,wg-a,,,,AAXX 26124 07314 32859 81406 10080 20060 30176 40204 58010 8802/ 91200=
07314,1999-02-26 18:00:00,8,1016.1,-1.4,87,6,8000,11.112,,,130,7.2,8.7,,,,,,,,,wg-a,,,,AAXX 26184 07314 32858 81306 10080 20060 30133 40161 56014 8802/ 91800 333 10087 20072=
07314,1999-02-27 00:00:00,6,1013.1,-1.2,93,5,0,11.112,,,140,,,,,,,,,,,wg-a,,,,AAXX 27004 07314 32/// /1406 10060 20050 30103 40131 58012 90000=
07314,1999-02-27 06:00:00,7,1012.4,0.7,93,6,7000,14.816,,,150,6.1,8.2,,,,,,,,,wg-a,,,,AAXX 27064 07314 32857 81508 10070 20060 30096 40124 53007 8802/ 90600 333 10082 20061=
07314,1999-02-27 12:00:00,10,1015.5,1.2,93,9,0,14.816,,,190,,,,,,,,,,,wg-a,,,,AAXX 27124 07314 32/// /1908 10100 20090 30127 40155 52012 91200=
07314,1999-02-27 18:00:00,9,1019.6,2.9,87,7,15000,7.408,,,320,6.4,10.4,,0,,,,,,21,wg-a,,,,AAXX 27184 07314 12565 73204 10090 20070 30168 40196 51029 60007 72186 8123/ 91800 333 10104 20064=
07314,1999-02-28 00:00:00,9,1024.2,1.8,81,6,0,22.224,,,310,,,,,,,,,,,wg-a,,,,AAXX 28004 07314 32/// /3112 10090 20060 30214 40242 52018 90000=
07314,1999-02-28 06:00:00,9,1026.1,1.1,87,7,25000,11.112,,,280,9,9.5,,,,,,,,,wg-a,,,,AAXX 28064 07314 32575 12806 10090 20070 30233 40261 53011 81100 90600 333 10095 20090=
07314,1999-02-28 12:00:00,11,1028.1,0.5,82,8,18000,11.112,,,220,,,,,,,,,,,wg-a,,,,AAXX 28124 07314 32468 42206 10110 20080 30253 40281 51005 81102 91200=
07314,1999-02-28 18:00:00,10,1028,0.7,87,8,25000,14.816,,,220,8.8,11.5,,,,,,,,,wg-a,,,,AAXX 28184 07314 32475 22208 10100 20080 30252 40280 53007 81102 91800 333 10115 20088=
07314,1999-03-01 00:00:00,10,1028.6,0.2,93,9,0,18.52,,,220,,,,,,,,,,,wg-a,,,,AAXX 01004 07314 32/// /2210 10100 20090 30258 40286 50002 90000=
07314,1999-03-01 06:00:00,10,1026.8,-1,87,8,14000,25.928,,,220,9.5,10.2,,,,,,,,,wg-a,,,,AAXX 01064 07314 32/64 62214 10100 20080 30240 40268 56010 86030 90600 333 10102 20095=
07314,1999-03-01 12:00:00,11,1027.6,0.1,87,9,16000,31.484,,,220,,,,,,,,,,,wg-a,,,,AAXX 01124 07314 32/66 72217 10110 20090 30248 40276 51001 87030 91200=
07314,1999-03-01 18:00:00,10,1027,-0.1,100,10,0,29.632,,,220,10.1,11.4,,,,,,,,,wg-a,,,,AAXX 01184 07314 32/// /2216 10100 20100 30242 40270 55001 91800 333 10114 20101=
07314,1999-03-02 00:00:00,11,1026.6,-0.9,94,10,0,29.632,,,220,,,,,,,,,,,wg-a,,,,AAXX 02004 07314 32/// /2216 10110 20100 30238 40266 58009 90000=
07314,1999-03-02 12:00:00,11,1021.8,-1.4,100,11,8000,29.632,,,220,,,,0,,,,,,2,wg-a,,,,AAXX 02124 07314 12858 82216 10110 20110 30190 40218 58014 60007 70265 8802/ 91200=
07314,1999-03-02 18:00:00,11,1016.7,-2.1,94,10,12000,29.632,,,210,11,11.3,,,,,,,,,wg-a,,,,AAXX 02184 07314 32862 82116 10110 20100 30139 40167 57021 8807/ 91800 333 10113 20110=
07314,1999-03-03 00:00:00,11,1009.6,-4.1,100,11,0,50.004,,,220,,,,2,,,,,,,wg-a,,,,AAXX 03004 07314 12/// /2227 10110 20110 30068 40096 56041 60027 90000=
07314,1999-03-03 06:00:00,11,1006.6,-2,82,8,16000,29.632,,72.228,250,10.2,11.4,,,,,,,,2,wg-a,,,,AAXX 03064 07314 32866 82516 10110 20080 30038 40066 58020 70262 8207/ 90600 333 10114 20102 91039=
07314,1999-03-03 12:00:00,8,1002.6,-2.1,93,7,0,35.188,,,250,,,,5,,,,,,,wg-a,,,,AAXX 03124 07314 12/// /2519 10080 20070 39998 40026 58021 60057 91200=
07314,1999-03-03 18:00:00,10,996.9,-1.5,76,6,18000,42.596,,,240,7.1,10.7,,,,,,,,15,wg-a,,,,AAXX 03184 07314 32468 52423 10100 20060 39941 49969 56015 71562 85300 91800 333 10107 20071=
07314,1999-03-04 00:00:00,8,995.1,0.3,87,6,0,22.224,,,280,,,,2,,,,,,,wg-a,,,,AAXX 04004 07314 12/// /2812 10080 20060 39923 49951 53003 60027 90000=
07314,1999-03-04 06:00:00,10,992.9,-1.2,76,6,20000,38.892,,64.82,240,7.4,10,,0,,,,,,2,wg-a,,,,AAXX 04064 07314 12470 72421 10100 20060 39902 49929 57012 60007 70282 83212 90600 333 10100 20074 91035=
07314,1999-03-04 12:00:00,10,993.4,1,76,6,18000,29.632,,72.228,280,,,,,,,,,,2,wg-a,,,,AAXX 04124 07314 32468 72816 10100 20060 39907 49934 53010 70286 82362 91200 333 91039=
07314,1999-03-04 18:00:00,9,996,2.2,76,5,0,46.3,,,300,7.2,10.4,,,,,,,,,wg-a,,,,AAXX 04184 07314 32/// /3025 10090 20050 39932 49960 53022 91800 333 10104 20072=
07314,1999-03-05 00:00:00,7,998.6,0.6,76,3,0,35.188,,,320,,,,3,,,,,,,wg-a,,,,AAXX 05004 07314 12/// /3219 10070 20030 39958 49986 51006 60037 90000=
07314,1999-03-05 06:00:00,8,998.6,0.6,76,4,18000,31.484,,61.116,290,5.4,9.1,,,,,,,,,wg-a,,,,AAXX 05064 07314 32568 72917 10080 20040 39958 49986 53006 874// 90600 333 10091 20054 91033=
07314,1999-03-05 12:00:00,9,1001.7,1.3,71,4,0,29.632,,,310,,,,,,,,,,,wg-a,,,,AAXX 05124 07314 32/// /3116 10090 20040 39989 40017 51013 91200=
07314,1999-03-05 18:00:00,8,1003.3,1.1,76,4,17000,31.484,,,280,5.8,9.2,,,,,,,,16,wg-a,,,,AAXX 05184 07314 32467 72817 10080 20040 30005 40033 53011 71622 84720 91800 333 10092 20058=
07314,1999-03-06 00:00:00,6,1004.9,0.4,70,1,0,18.52,,,330,,,,1,,,,,,,wg-a,,,,AAXX 06004 07314 12/// /3310 10060 20010 30021 40049 52004 60017 90000=
07314,1999-03-06 06:00:00,7,1005.9,0.8,70,2,20000,29.632,,,330,4.2,8,,,,,,,,2,wg-a,,,,AAXX 06064 07314 32570 63316 10070 20020 30031 40059 53008 70286 83220 90600 333 10080 20042=
07314,1999-03-06 12:00:00,6,1008.6,1.4,81,3,22000,25.928,,,250,,,,0,,,,,,25,wg-a,,,,AAXX 06124 07314 12472 62514 10060 20030 30058 40086 51014 60007 72582 8/300 91200=
07314,1999-03-06 18:00:00,7,1008.8,0.5,70,2,20000,35.188,,64.82,280,5.3,8.6,,,,,,,,15,wg-a,,,,AAXX 06184 07314 32470 62819 10070 20020 30060 40088 53005 71582 8/300 91800 333 10086 20053 91035=
07314,1999-03-07 00:00:00,6,1009.7,0,70,1,0,25.928,,,270,,,,,,,,,,,wg-a,,,,AAXX 07004 07314 32/// /2714 10060 20010 30069 40097 50000 90000=
07314,1999-03-07 06:00:00,7,1009.2,0.3,70,2,20000,18.52,,,230,5.3,7.3,,0,,,,,,2,wg-a,,,,AAXX 07064 07314 12470 72310 10070 20020 30064 40092 52003 60007 70282 8336/ 90600 333 10073 20053=
07314,1999-03-07 12:00:00,8,1010.2,0.4,71,3,25000,11.112,,,240,,,,0,,,,,,80,wg-a,,,,AAXX 07124 07314 12575 72406 10080 20030 30074 40102 50004 60007 78082 8372/ 91200=
07314,1999-03-07 18:00:00,9,1008.6,-0.7,81,6,25000,22.224,,,200,7.2,9.8,,,,,,,,,wg-a,,,,AAXX 07184 07314 32575 82012 10090 20060 30058 40086 56007 8322/ 91800 333 10098 20072=
07314,1999-03-08 00:00:00,9,1005,-2.4,87,7,0,25.928,,,160,,,,,,,,,,,wg-a,,,,AAXX 08004 07314 32/// /1614 10090 20070 30022 40050 58024 90000=
07314,1999-03-08 06:00:00,10,998.6,-2.8,93,9,6000,42.596,,,180,6.9,10.4,,1,,,,,,63,wg-a,,,,AAXX 08064 07314 12756 81823 10100 20090 39959 49986 56028 60017 76365 8802/ 90600 333 10104 20069=
07314,1999-03-08 12:00:00,12,1001.2,1.4,82,9,20000,35.188,,72.228,220,,,,0,,,,,,21,wg-a,,,,AAXX 08124 07314 12570 72219 10120 20090 39985 40012 53014 60007 72162 81232 91200 333 91039=
07314,1999-03-08 18:00:00,9,1002.9,1,93,8,8000,29.632,,,230,8.7,11.9,,3,,,,,,63,wg-a,,,,AAXX 08184 07314 12558 82316 10090 20080 30001 40029 53010 60037 76362 8802/ 91800 333 10119 20087=
07314,1999-03-09 00:00:00,9,1003.9,0.4,87,7,0,22.224,,,220,,,,,,,,,,,wg-a,,,,AAXX 09004 07314 32/// /2212 10090 20070 30011 40039 51004 90000=
07314,1999-03-09 06:00:00,9,1003.6,0.3,87,7,14000,7.408,,,140,8.5,9.4,,1,,,,,,60,wg-a,,,,AAXX 09064 07314 12564 81404 10090 20070 30008 40036 53003 60017 76062 885// 90600 333 10094 20085=
07314,1999-03-09 12:00:00,10,1004.9,0.7,93,9,22000,7.408,,,70,,,,,,,,,,2,wg-a,,,,AAXX 09124 07314 32572 80704 10100 20090 30021 40049 51007 70262 8182/ 91200=
07314,1999-03-09 18:00:00,10,1005.6,0.3,93,9,15000,7.408,,,50,8.1,11.6,,,,,,,,,wg-a,,,,AAXX 09184 07314 32565 80504 10100 20090 30028 40056 53003 8182/ 91800 333 10116 20081=
07314,1999-03-10 00:00:00,10,1007.4,0.6,93,9,0,7.408,,,70,,,,,,,,,,,wg-a,,,,AAXX 10004 07314 32/// /0704 10100 20090 30046 40074 50006 90000=
07314,1999-03-10 12:00:00,13,1008.3,-0.1,82,10,16000,11.112,,,60,,,,,,,,,,,wg-a,,,,AAXX 10124 07314 32/66 50606 10130 20100 30055 40083 56001 80005 91200=
07314,1999-03-10 18:00:00,13,1007.8,0.2,82,10,16000,11.112,,,70,9.4,16.5,,,,,,,,,wg-a,,,,AAXX 10184 07314 32/66 70706 10130 20100 30051 40078 53002 80002 91800 333 10165 20094=
07314,1999-03-11 00:00:00,11,1008.5,0.5,94,10,0,14.816,,,90,,,,,,,,,,,wg-a,,,,AAXX 11004 07314 32/// /0908 10110 20100 30057 40085 51005 90000=
07314,1999-03-11 06:00:00,10,1008.2,0.7,87,8,12000,7.408,,,100,9.6,13.3,,0,,,,,,,wg-a,,,,AAXX 11064 07314 12/62 51004 10100 20080 30054 40082 53007 60007 80002 90600 333 10133 20096=
07314,1999-03-11 12:00:00,15,1008.8,-0.1,77,11,16000,22.224,,,170,,,,,,,,,,,wg-a,,,,AAXX 11124 07314 32866 71712 10150 20110 30061 40088 58001 82032 91200=
07314,1999-03-11 18:00:00,15,1007.5,-0.2,72,10,16000,7.408,,,130,9.3,17.9,,,,,,,,,wg-a,,,,AAXX 11184 07314 32/66 61304 10150 20100 30048 40075 55002 80002 91800 333 10179 20093=
07314,1999-03-12 00:00:00,14,1007.4,0.1,82,11,0,14.816,,,150,,,,,,,,,,,wg-a,,,,AAXX 12004 07314 32/// /1508 10140 20110 30047 40074 53001 90000=
07314,1999-03-12 06:00:00,11,1006.8,0.8,87,9,18000,14.816,,,140,10.8,15,,,,,,,,,wg-a,,,,AAXX 12064 07314 32/68 41408 10110 20090 30040 40068 53008 84030 90600 333 10150 20108=
07314,1999-03-12 12:00:00,13,1008.9,1,82,10,20000,35.188,,,170,,,,,,,,,,,wg-a,,,,AAXX 12124 07314 32870 71719 10130 20100 30062 40089 53010 84038 91200=
07314,1999-03-12 18:00:00,12,1011.5,1.2,82,9,25000,25.928,,,170,10.8,15.7,,,,,,,,,wg-a,,,,AAXX 12184 07314 32/75 61714 10120 20090 30087 40115 53012 80002 91800 333 10157 20108=
07314,1999-03-13 00:00:00,10,1013.3,0.5,87,8,0,11.112,,,220,,,,,,,,,,,wg-a,,,,AAXX 13004 07314 32/// /2206 10100 20080 30105 40133 50005 90000=
07314,1999-03-13 06:00:00,8,1014.7,1.4,87,6,18000,7.408,,,140,7.3,11.9,,,,,,,,,wg-a,,,,AAXX 13064 07314 32868 31404 10080 20060 30119 40147 51014 82031 90600 333 10119 20073=
07314,1999-03-13 12:00:00,14,1016.6,0.6,82,11,22000,7.408,,,40,,,,,,,,,,,wg-a,,,,AAXX 13124 07314 32872 60404 10140 20110 30138 40166 51006 81032 91200=
07314,1999-03-13 18:00:00,11,1017.1,1,94,10,15000,25.928,,,330,7.7,14.5,,,,,,,,,wg-a,,,,AAXX 13184 07314 32865 83314 10110 20100 30143 40171 53010 8307/ 91800 333 10145 20077=
07314,1999-03-14 00:00:00,11,1019.2,0.7,94,10,0,11.112,,,10,,,,,,,,,,,wg-a,,,,AAXX 14004 07314 32/// /0106 10110 20100 30164 40192 51007 90000=
07314,1999-03-14 06:00:00,11,1020.3,1,94,10,6000,11.112,,,20,10.7,12,,,,,,,,,wg-a,,,,AAXX 14064 07314 32856 80206 10110 20100 30175 40203 53010 8107/ 90600 333 10120 20107=
07314,1999-03-14 12:00:00,15,1022.3,0.4,82,12,13000,14.816,,,20,,,,,,,,,,,wg-a,,,,AAXX 14124 07314 32/63 10208 10150 20120 30195 40223 50004 80001 91200=
07314,1999-03-14 18:00:00,14,1022.5,0.8,77,10,20000,25.928,,,20,10.8,15.9,,,,,,,,,wg-a,,,,AAXX 14184 07314 32/70 20214 10140 20100 30197 40225 53008 80002 91800 333 10159 20108=
07314,1999-03-15 00:00:00,11,1024.3,0.4,82,8,0,25.928,,,30,,,,,,,,,,,wg-a,,,,AAXX 15004 07314 32/// /0314 10110 20080 30215 40243 51004 90000=
07314,1999-03-15 06:00:00,10,1024.4,0.6,76,6,12000,25.928,,,50,9.6,13.6,,,,,,,,,wg-a,,,,AAXX 15064 07314 32/62 30514 10100 20060 30216 40244 53006 83030 90600 333 10136 20096=
07314,1999-03-15 12:00:00,14,1025.3,0.2,77,10,15000,18.52,,,40,,,,,,,,,,,wg-a,,,,AAXX 15124 07314 32/65 00410 10140 20100 30225 40253 50002 80000 91200=
07314,1999-03-15 18:00:00,14,1024.7,0.3,77,10,15000,29.632,,,20,9.6,15.8,,,,,,,,,wg-a,,,,AAXX 15184 07314 32/65 00216 10140 20100 30219 40247 53003 80000 91800 333 10158 20096=
07314,1999-03-16 00:00:00,11,1026.4,0.4,87,9,0,22.224,,,10,,,,,,,,,,,wg-a,,,,AAXX 16004 07314 32/// /0112 10110 20090 30236 40264 53004 90000=
07314,1999-03-16 06:00:00,9,1026.1,0.4,87,7,500,25.928,,,30,9,13.7,,,,,,,,,wg-a,,,,AAXX 16064 07314 32/00 00314 10090 20070 30233 40261 53004 80000 90600 333 10137 20090=
07314,1999-03-16 12:00:00,14,1026.7,-0.6,77,10,7000,22.224,,,20,,,,,,,,,,,wg-a,,,,AAXX 16124 07314 32/57 20212 10140 20100 30239 40267 58006 80001 91200=
07314,1999-03-16 18:00:00,13,1025.7,0.1,72,8,0,25.928,,,20,8.9,15,,,,,,,,,wg-a,,,,AAXX 16184 07314 32/// /0214 10130 20080 30229 40257 53001 91800 333 10150 20089=
07314,1999-03-17 00:00:00,10,1026.1,0,82,7,0,22.224,,,30,,,,,,,,,,,wg-a,,,,AAXX 17004 07314 32/// /0312 10100 20070 30233 40261 50000 90000=
07314,1999-03-17 06:00:00,9,1025,-0.2,81,6,3000,29.632,,,30,8.7,13,,,,,,,,10,wg-a,,,,AAXX 17064 07314 32/30 10316 10090 20060 30222 40250 58002 71000 80001 90600 333 10130 20087=
07314,1999-03-17 12:00:00,14,1025.5,-0.5,67,8,9000,18.52,,,40,,,,,,,,,,,wg-a,,,,AAXX 17124 07314 32/59 00410 10140 20080 30227 40255 57005 80000 91200=
07314,1999-03-17 18:00:00,13,1024,-0.1,77,9,7000,29.632,,,10,8.2,15,,,,,,,,,wg-a,,,,AAXX 17184 07314 32/57 00116 10130 20090 30212 40240 55001 80000 91800 333 10150 20082=
07314,1999-03-18 00:00:00,10,1025.1,0.1,82,7,0,18.52,,,20,,,,,,,,,,,wg-a,,,,AAXX 18004 07314 32/// /0210 10100 20070 30223 40251 50001 90000=
07314,1999-03-18 06:00:00,9,1024.7,0.6,76,5,500,22.224,,,20,8.7,12.9,,,,,,,,,wg-a,,,,AAXX 18064 07314 32/00 10212 10090 20050 30219 40247 53006 81030 90600 333 10129 20087=
07314,1999-03-18 09:00:00,10.6,1025.8,1.1,75,6.4,,14.816,,,10,,,,,,,,,,,og-post,,,,AAXX 18094 07314 36/// /0108 10106 20064 30230 40258 51011=
07314,1999-03-18 12:00:00,13,1025.6,-0.2,77,9,8000,11.112,,,300,,,,,,,,,,,wg-a,,,,AAXX 18124 07314 32/58 03006 10130 20090 30228 40256 58002 80000 91200=
07314,1999-03-18 18:00:00,11,1022.8,-1.2,94,10,6000,25.928,,,310,8.6,13.2,,,,,,,,,wg-a,,,,AAXX 18184 07314 32/56 13114 10110 20100 30200 40228 56012 80002 91800 333 10132 20086=
07314,1999-03-19 00:00:00,10,1024.4,0.8,87,8,0,25.928,,,350,,,,,,,,,,,wg-a,,,,AAXX 19004 07314 32/// /3514 10100 20080 30216 40244 51008 90000=
07314,1999-03-19 06:00:00,8,1025.9,1.8,87,6,0,38.892,,,20,8.1,11.5,,,,,,,,,wg-a,,,,AAXX 19064 07314 32/// /0221 10080 20060 30231 40259 53018 90600 333 10115 20081=
07314,1999-03-19 12:00:00,12,1028.3,0.5,67,6,10000,14.816,,,360,,,,,,,,,,,wg-a,,,,AAXX 19124 07314 32560 23608 10120 20060 30255 40283 50005 82100 91200=
07314,1999-03-19 18:00:00,11,1027.8,0.1,71,6,15000,22.224,,,360,7.8,12.4,,,,,,,,,wg-a,,,,AAXX 19184 07314 32565 73612 10110 20060 30250 40278 53001 87200 91800 333 10124 20078=
07314,1999-03-20 00:00:00,8,1029.1,0.1,81,5,0,29.632,,,20,,,,,,,,,,,wg-a,,,,AAXX 20004 07314 32/// /0216 10080 20050 30262 40291 53001 90000=
07314,1999-03-20 06:00:00,7,1028.6,0.3,81,4,15000,18.52,,,40,6.7,11,,,,,,,,,wg-a,,,,AAXX 20064 07314 32/65 20410 10070 20040 30257 40286 53003 80001 90600 333 10110 20067=
07314,1999-03-20 12:00:00,11,1028.7,-0.4,66,5,14000,7.408,,,40,,,,,,,,,,,wg-a,,,,AAXX 20124 07314 32/64 00404 10110 20050 30259 40287 58004 80000 91200=
07314,1999-03-20 18:00:00,10,1026.2,-0.6,82,7,15000,18.52,,,310,6.4,12.6,,,,,,,,,wg-a,,,,AAXX 20184 07314 32/65 03110 10100 20070 30234 40262 56006 80000 91800 333 10126 20064=
07314,1999-03-21 00:00:00,9,1025.9,-0.5,81,6,0,14.816,,,360,,,,,,,,,,,wg-a,,,,AAXX 21004 07314 32/// /3608 10090 20060 30231 40259 56005 90000=
07314,1999-03-21 06:00:00,8,1023.3,-0.8,81,5,8000,11.112,,,330,7.4,10.3,,,,,,,,,wg-a,,,,AAXX 21064 07314 32/58 03306 10080 20050 30205 40233 56008 80000 90600 333 10103 20074=
07314,1999-03-21 12:00:00,10,1021.1,-1.4,71,5,20000,25.928,,,260,,,,,,,,,,,wg-a,,,,AAXX 21124 07314 32670 82614 10100 20050 30183 40211 58014 885// 91200=
07314,1999-03-21 18:00:00,10,1015.3,-2.5,93,9,10000,38.892,,,250,8.2,11.1,,,,,,,,20,wg-a,,,,AAXX 21184 07314 32660 82521 10100 20090 30125 40153 56025 72052 885// 91800 333 10111 20082=
07314,1999-03-22 00:00:00,10,1016.3,0.7,82,7,0,29.632,,,310,,,,,,,,,,,wg-a,,,,AAXX 22004 07314 32/// /3116 10100 20070 30135 40163 51007 90000=
07314,1999-03-22 06:00:00,10,1017.5,0.9,82,7,20000,31.484,,,320,9.3,10.6,,,,,,,,,wg-a,,,,AAXX 22064 07314 32470 63217 10100 20070 30147 40175 53009 85201 90600 333 10106 20093=
07314,1999-03-22 12:00:00,10,1020.4,0.8,76,6,22000,25.928,,,310,,,,,,,,,,,wg-a,,,,AAXX 22124 07314 32572 73114 10100 20060 30176 40204 51008 828// 91200=
07314,1999-03-22 18:00:00,10,1020.9,0.7,82,7,20000,29.632,,,310,9.7,11.2,,,,,,,,,wg-a,,,,AAXX 22184 07314 32570 73116 10100 20070 30181 40209 53007 81832 91800 333 10112 20097=
07314,1999-03-23 00:00:00,9,1022.5,0.3,76,5,0,7.408,,,330,,,,,,,,,,,wg-a,,,,AAXX 23004 07314 32/// /3304 10090 20050 30197 40225 50003 90000=
07314,1999-03-23 06:00:00,9,1021.1,-0.3,76,5,19000,7.408,,,340,6.9,10.3,,,,,,,,,wg-a,,,,AAXX 23064 07314 32769 73404 10090 20050 30183 40211 56003 8552/ 90600 333 10103 20069=
07314,1999-03-23 12:00:00,10,1021.7,-0.5,82,7,25000,7.408,,,270,,,,,,,,,,,wg-a,,,,AAXX 23124 07314 32775 82704 10100 20070 30189 40217 58005 885// 91200=
07314,1999-03-23 18:00:00,10,1019.3,-0.8,82,7,20000,0,,,0,8.6,10.8,,,,,,,,,wg-a,,,,AAXX 23184 07314 32870 70000 10100 20070 30165 40193 56008 8703/ 91800 333 10108 20086=
07314,1999-03-24 00:00:00,9,1017,-1.3,87,7,0,11.112,,,90,,,,,,,,,,,wg-a,,,,AAXX 24004 07314 32/// /0906 10090 20070 30142 40170 58013 90000=
07314,1999-03-24 06:00:00,8,1012.5,-1.8,87,6,15000,18.52,,,80,7.7,9.8,,,,,,,,2,wg-a,,,,AAXX 24064 07314 32/65 10810 10080 20060 30097 40125 56018 70260 80001 90600 333 10098 20077=
07314,1999-03-24 12:00:00,14,1008.8,-2.4,77,10,20000,11.112,,,80,,,,,,,,,,,wg-a,,,,AAXX 24124 07314 32/70 20806 10140 20100 30061 40088 58024 80002 91200=
07314,1999-03-24 18:00:00,15,1003.6,-1.6,67,9,0,3.704,,,170,8,18,,,,,,,,,wg-a,,,,AAXX 24184 07314 32/// /1702 10150 20090 30009 40036 56016 91800 333 10180 20080=
07314,1999-03-25 00:00:00,13,1002.3,-0.5,77,9,0,35.188,,,170,,,,,,,,,,,wg-a,,,,AAXX 25004 07314 32/// /1719 10130 20090 39996 40023 58005 90000=
07314,1999-03-25 06:00:00,11,1000.4,0.1,87,9,18000,31.484,,,170,11.3,15,,,,,,,,,wg-a,,,,AAXX 25064 07314 32668 81717 10110 20090 39977 40004 53001 886// 90600 333 10150 20113=
07314,1999-03-25 12:00:00,12,1000.8,-0.3,88,10,10000,11.112,,,200,,,,0,,,,,,20,wg-a,,,,AAXX 25124 07314 12660 82006 10120 20100 39981 40008 58003 60007 72052 886// 91200=
07314,1999-03-25 18:00:00,11,1000.9,0.4,87,9,20000,14.816,,,210,11,12.1,,0,,,,,,24,wg-a,,,,AAXX 25184 07314 12570 72108 10110 20090 39982 40009 52004 60007 72452 816// 91800 333 10121 20110=
07314,1999-03-26 00:00:00,10,1002.1,0.2,87,8,0,18.52,,,260,,,,,,,,,,,wg-a,,,,AAXX 26004 07314 32/// /2610 10100 20080 39993 40021 51002 90000=
07314,1999-03-26 06:00:00,10,1003,0.9,76,6,25000,31.484,,,310,8.4,11,,0,,,,,,20,wg-a,,,,AAXX 26064 07314 12475 73117 10100 20060 30002 40030 53009 60007 72082 84366 90600 333 10110 20084=
07314,1999-03-26 12:00:00,11,1007.5,1.8,62,4,27000,22.224,,,290,,,,,,,,,,,wg-a,,,,AAXX 26124 07314 32477 32912 10110 20040 30047 40075 51018 82932 91200=
07314,1999-03-26 18:00:00,10,1007.6,0.1,71,5,27000,22.224,,,250,8.7,11.2,,,,,,,,,wg-a,,,,AAXX 26184 07314 32577 42512 10100 20050 30048 40076 53001 83232 91800 333 10112 20087=
07314,1999-03-27 00:00:00,10,1005.2,-1.4,76,6,0,22.224,,,170,,,,,,,,,,,wg-a,,,,AAXX 27004 07314 32/// /1712 10100 20060 30024 40052 58014 90000=
07314,1999-03-27 06:00:00,9,1003.6,-0,81,6,20000,31.484,,,270,8,10.1,,0,,,,,,63,wg-a,,,,AAXX 27064 07314 12470 62717 10090 20060 30008 40036 55000 60007 76386 82302 90600 333 10101 20080=
07314,1999-03-27 12:00:00,11,1005.2,0.5,71,6,25000,29.632,,,230,,,,,,,,,,2,wg-a,,,,AAXX 27124 07314 32475 42316 10110 20060 30024 40052 51005 70280 84932 91200=
07314,1999-03-27 18:00:00,10,1006.4,1.1,76,6,25000,7.408,,,150,8.6,11.2,,,,,,,,,wg-a,,,,AAXX 27184 07314 32475 21504 10100 20060 30036 40064 53011 81331 91800 333 10112 20086=
07314,1999-03-28 00:00:00,9,1010.9,2.3,87,7,0,11.112,,,360,,,,,,,,,,,wg-a,,,,AAXX 28004 07314 32/// /3606 10090 20070 30081 40109 51023 90000=
07314,1999-03-28 06:00:00,8,1015.4,2.7,87,6,20000,11.112,,,360,6.9,9.9,,,,,,,,,wg-a,,,,AAXX 28064 07314 32/70 13606 10080 20060 30126 40154 53027 80001 90600 333 10099 20069=
07314,1999-03-28 12:00:00,12,1019.3,1.1,76,8,22000,14.816,,,290,,,,,,,,,,,wg-a,,,,AAXX 28124 07314 32572 22908 10120 20080 30165 40193 51011 81201 91200=
07314,1999-03-28 18:00:00,11,1020.1,0.7,82,8,0,22.224,,,260,7.8,12.2,,,,,,,,,wg-a,,,,AAXX 28184 07314 32/// /2612 10110 20080 30173 40201 53007 91800 333 10122 20078=
07314,1999-03-29 00:00:00,11,1020.8,-0.3,87,9,0,14.816,,,220,,,,,,,,,,,wg-a,,,,AAXX 29004 07314 32/// /2208 10110 20090 30180 40208 58003 90000=
07314,1999-03-29 06:00:00,11,1020.2,0.3,87,9,8000,18.52,,,180,10.5,11.1,,,,,,,,50,wg-a,,,,AAXX 29064 07314 02558 81810 10110 20090 30174 40202 53003 61000 75052 885// 90600 333 10111 20105 ////=
07314,1999-03-29 12:00:00,12,1020.7,-0.1,94,11,12000,29.632,,,190,,,,,,,,,,20,wg-a,,,,AAXX 29124 07314 02562 81916 10120 20110 30179 40207 58001 61000 72052 885// 91200 333 ////=
07314,1999-03-29 18:00:00,12,1019.9,-0.2,88,10,16000,14.816,,,180,10.4,12,,,,,,,,,wg-a,,,,AAXX 29184 07314 32566 71808 10120 20100 30171 40199 56002 875// 91800 333 10120 20104=
07314,1999-03-30 00:00:00,11,1019.8,-0.5,94,10,0,18.52,,,170,,,,,,,,,,,wg-a,,,,AAXX 30004 07314 32/// /1710 10110 20100 30170 40198 57005 90000=
07314,1999-03-30 06:00:00,9,1019,0.1,93,8,0,7.408,,,140,9.3,11.5,,,,,,,,,wg-a,,,,AAXX 30064 07314 32/// /1404 10090 20080 30162 40190 53001 90600 333 10115 20093=
07314,1999-03-30 12:00:00,15,1018.8,-0.5,77,11,18000,11.112,,,180,,,,,,,,,,,wg-a,,,,AAXX 30124 07314 32568 61806 10150 20110 30160 40188 56005 82270 91200=
07314,1999-03-30 18:00:00,13,1017.4,-0.3,77,9,20000,7.408,,,340,9.3,16.1,,,,,,,,,wg-a,,,,AAXX 30184 07314 32870 73404 10130 20090 30146 40174 56003 82072 91800 333 10161 20093=
07314,1999-03-31 00:00:00,11,1017.3,-0.5,94,10,0,11.112,,,70,,,,,,,,,,,wg-a,,,,AAXX 31004 07314 32/// /0706 10110 20100 30145 40173 58005 90000=
07314,1999-03-31 06:00:00,10,1015.7,-0.6,93,9,12000,11.112,,,80,9.5,12.5,,,,,,,,,wg-a,,,,AAXX 31064 07314 32/62 20806 10100 20090 30129 40157 56006 80002 90600 333 10125 20095=
07314,1999-03-31 12:00:00,18,1014.1,-1.5,59,10,17000,14.816,,,80,,,,,,,,,,,wg-a,,,,AAXX 31124 07314 32/67 30808 10180 20100 30114 40141 58015 80002 91200=
07314,1999-03-31 18:00:00,18,1010.2,-1.4,52,8,22000,11.112,,,100,10.2,19.3,,,,,,,,,wg-a,,,,AAXX 31184 07314 32/72 61006 10180 20080 30075 40102 56014 80002 91800 333 10193 20102=
07314,1999-04-01 00:00:00,13,1008.5,-1.2,72,8,0,14.816,,,110,,,,,,,,,,,wg-a,,,,AAXX 01004 07314 32/// /1108 10130 20080 30057 40085 58012 90000=
07314,1999-04-01 06:00:00,12,1006.5,-0.5,67,6,20000,25.928,,,130,11.5,17.5,,,,,,,,,wg-a,,,,AAXX 01064 07314 32/70 61314 10120 20060 30037 40065 56005 80002 90600 333 10175 20115=
07314,1999-04-01 12:00:00,16,1008,0.7,68,10,18000,31.484,,,180,,,,,,,,,,,wg-a,,,,AAXX 01124 07314 32/68 61817 10160 20100 30053 40080 53007 81038 91200=
07314,1999-04-01 18:00:00,12,1012.3,2.1,82,9,20000,25.928,,,280,11.5,17.5,,,,,,,,25,wg-a,,,,AAXX 01184 07314 32570 72814 10120 20090 30095 40123 51021 72522 82552 91800 333 10175 20115=
07314,1999-04-02 00:00:00,9,1014.9,0.8,100,9,0,14.816,,,150,,,,,,,,,,,wg-a,,,,AAXX 02004 07314 32/// /1508 10090 20090 30121 40149 53008 90000=
07314,1999-04-02 06:00:00,9,1015.7,1.2,93,8,20000,11.112,,,130,8.2,11.9,,0,,,,,,,wg-a,,,,AAXX 02064 07314 12/70 61306 10090 20080 30129 40157 51012 60007 85032 90600 333 10119 20082=
07314,1999-04-02 12:00:00,14,1019,1.5,88,12,18000,11.112,,,190,,,,,,,,,,,wg-a,,,,AAXX 02124 07314 32568 71906 10140 20120 30162 40190 51015 8127/ 91200=
07314,1999-04-02 18:00:00,13,1020.9,1.2,88,11,16000,11.112,,,220,8.6,14.6,,0,,,,,,50,wg-a,,,,AAXX 02184 07314 12/66 82206 10130 20110 30181 40209 53012 60007 75052 8807/ 91800 333 10146 20086=
07314,1999-04-03 00:00:00,12,1021.7,-0.1,94,11,0,25.928,,,170,,,,,,,,,,,wg-a,,,,AAXX 03004 07314 32/// /1714 10120 20110 30189 40217 58001 90000=
07314,1999-04-03 06:00:00,13,1021.7,0.4,94,12,14000,31.484,,,240,11.5,13.2,,0,,,,,,50,wg-a,,,,AAXX 03064 07314 12/64 82417 10130 20120 30189 40217 53004 60007 75052 8807/ 90600 333 10132 20115=
07314,1999-04-03 12:00:00,13,1024.3,1.2,100,13,6000,25.928,,,260,,,,,,,,,,2,wg-a,,,,AAXX 03124 07314 32756 82614 10130 20130 30215 40243 51012 70252 8802/ 91200=
07314,1999-04-03 18:00:00,12,1026.3,1.1,100,12,4000,18.52,,,270,12.3,13.5,,,,,,,,2,wg-a,,,,AAXX 03184 07314 32540 82710 10120 20120 30235 40263 53011 70242 887// 91800 333 10135 20123=
07314,1999-04-04 00:00:00,11,1028.8,1.1,100,11,0,22.224,,,270,,,,,,,,,,,wg-a,,,,AAXX 04004 07314 32/// /2712 10110 20110 30260 40288 53011 90000=
07314,1999-04-04 06:00:00,12,1028.9,0.5,100,12,6000,11.112,,,160,11.4,12.8,,,,,,,,,wg-a,,,,AAXX 04064 07314 32556 81606 10120 20120 30261 40289 53005 887// 90600 333 10128 20114=
07314,1999-04-04 12:00:00,14,1030.1,0,94,13,15000,11.112,,,230,,,,,,,,,,,wg-a,,,,AAXX 04124 07314 32665 72306 10140 20130 30273 40301 50000 8752/ 91200=
07314,1999-04-04 18:00:00,13,1028.4,-0.8,94,12,16000,7.408,,,50,11.3,14.3,,,,,,,,,wg-a,,,,AAXX 04184 07314 32866 70504 10130 20120 30256 40284 57008 8707/ 91800 333 10143 20113=
07314,1999-04-05 00:00:00,12,1029.1,-0.2,100,12,0,3.704,,,90,,,,,,,,,,,wg-a,,,,AAXX 05004 07314 32/// /0902 10120 20120 30263 40291 58002 90000=
07314,1999-04-05 06:00:00,11,1028.9,0.1,94,10,18000,7.408,,,70,10.6,13,,0,,,,,,,wg-a,,,,AAXX 05064 07314 12/68 30704 10110 20100 30261 40289 53001 60007 81031 90600 333 10130 20106=
07314,1999-04-05 12:00:00,15,1029.5,-0.1,82,12,18000,7.408,,,300,,,,,,,,,,,wg-a,,,,AAXX 05124 07314 32/68 43004 10150 20120 30267 40295 58001 80002 91200=
07314,1999-04-05 18:00:00,15,1027.6,-1,88,13,15000,7.408,,,200,10.6,16.1,,,,,,,,,wg-a,,,,AAXX 05184 07314 32/65 72004 10150 20130 30248 40276 56010 81032 91800 333 10161 20106=
07314,1999-04-06 00:00:00,12,1027,-1.1,100,12,0,7.408,,,60,,,,,,,,,,,wg-a,,,,AAXX 06004 07314 32/// /0604 10120 20120 30242 40270 58011 90000=
07314,1999-04-06 06:00:00,11,1026.3,-0,100,11,4000,0,,,0,10.3,14.5,,,,,,,,,wg-a,,,,AAXX 06064 07314 32640 70000 10110 20110 30235 40263 55000 82232 90600 333 10145 20103=
07314,1999-04-06 12:00:00,12,1027.7,0.4,100,12,16000,22.224,,,330,,,,,,,,,,21,wg-a,,,,AAXX 06124 07314 02566 73312 10120 20120 30249 40277 50004 61000 72164 82838 91200 333 ////=
07314,1999-04-06 18:00:00,13,1027.1,-0.3,100,13,4000,25.928,,,280,11.1,14.3,,,,,,,,10,wg-a,,,,AAXX 06184 07314 32540 82814 10130 20130 30243 40271 56003 71022 883// 91800 333 10143 20111=
07314,1999-04-07 00:00:00,12,1027.1,-0.2,88,10,0,29.632,,,280,,,,,,,,,,,wg-a,,,,AAXX 07004 07314 32/// /2816 10120 20100 30243 40271 58002 90000=
07314,1999-04-07 06:00:00,11,1024.7,-0.2,87,9,20000,38.892,,64.82,310,9.5,12.9,,3,,,,,,25,wg-a,,,,AAXX 07064 07314 12570 63121 10110 20090 30219 40247 55002 60037 72582 85230 90600 333 10129 20095 91035=
07314,1999-04-07 18:00:00,12,1025.7,-1.1,82,9,20000,38.892,,,300,11,13.2,,,,,,,,,wg-a,,,,AAXX 07184 07314 32570 23021 10120 20090 30229 40257 58011 82100 91800 333 10132 20110=
07314,1999-04-08 00:00:00,12,1025.9,-0,76,8,0,35.188,,,330,,,,,,,,,,,wg-a,,,,AAXX 08004 07314 32/// /3319 10120 20080 30231 40259 55000 90000=
07314,1999-04-08 06:00:00,10,1026.5,0.7,82,7,20000,29.632,,,350,10,11.8,,,,,,,,,wg-a,,,,AAXX 08064 07314 32/70 23516 10100 20070 30237 40265 53007 80001 90600 333 10118 20100=
07314,1999-04-09 00:00:00,12,1028.3,0.1,88,10,0,18.52,,,340,,,,,,,,,,,wg-a,,,,AAXX 09004 07314 32/// /3410 10120 20100 30255 40283 50001 90000=
07314,1999-04-09 06:00:00,10,1027.3,0.4,93,9,15000,3.704,,,350,9.7,12.2,,0,,,,,,,wg-a,,,,AAXX 09064 07314 12865 23502 10100 20090 30245 40273 53004 60007 82030 90600 333 10122 20097=
07314,1999-04-09 12:00:00,14,1027.7,0.1,82,11,12000,7.408,,,260,,,,,,,,,,,wg-a,,,,AAXX 09124 07314 32862 62604 10140 20110 30249 40277 51001 82251 91200=
07314,1999-04-09 18:00:00,13,1026.1,-0.6,88,11,16000,14.816,,,300,9.8,14.8,,,,,,,,,wg-a,,,,AAXX 09184 07314 32/66 23008 10130 20110 30233 40261 56006 81031 91800 333 10148 20098=
07314,1999-04-10 00:00:00,12,1026.3,-0.2,94,11,0,14.816,,,300,,,,,,,,,,,wg-a,,,,AAXX 10004 07314 32/// /3008 10120 20110 30235 40263 58002 90000=
07314,1999-04-10 06:00:00,12,1024.7,-0.2,88,10,0,14.816,,,240,11.4,13.1,,,,,,,,,wg-a,,,,AAXX 10064 07314 32/// /2408 10120 20100 30219 40247 58002 90600 333 10131 20114=
07314,1999-04-10 12:00:00,12,1025.1,-0.2,82,9,25000,18.52,,,300,,,,,,,,,,2,wg-a,,,,AAXX 10124 07314 32675 83010 10120 20090 30223 40251 58002 70262 885// 91200=
07314,1999-04-10 18:00:00,12,1024.1,-0.3,94,11,8000,25.928,,,270,10.8,12.2,,,,,,,,,wg-a,,,,AAXX 10184 07314 32558 82714 10120 20110 30213 40241 56003 885// 91800 333 10122 20108=
07314,1999-04-11 00:00:00,11,1026.5,1.3,76,7,0,42.596,,,320,,,,,,,,,,,wg-a,,,,AAXX 11004 07314 32/// /3223 10110 20070 30237 40265 53013 90000=
07314,1999-04-11 06:00:00,11,1027.2,0.7,76,7,22000,25.928,,,310,10.5,12,,,,,,,,,wg-a,,,,AAXX 11064 07314 32572 73114 10110 20070 30244 40272 53007 82270 90600 333 10120 20105=
07314,1999-04-11 12:00:00,11,1026.6,-1.4,94,10,0,31.484,,,240,,,,,,,,,,,wg-a,,,,AAXX 11124 07314 32/// /2417 10110 20100 30238 40266 58014 91200=
07314,1999-04-11 18:00:00,12,1024.6,-0.8,82,9,27000,35.188,,,300,10.1,13.4,,,,,,,,,wg-a,,,,AAXX 11184 07314 32477 43019 10120 20090 30218 40246 55008 81262 91800 333 10134 20101=
07314,1999-04-12 00:00:00,11,1022,-2.3,76,7,0,29.632,,,270,,,,,,,,,,,wg-a,,,,AAXX 12004 07314 32/// /2716 10110 20070 30192 40220 58023 90000=
07314,1999-04-12 06:00:00,11,1013.2,-4.1,94,10,6000,42.596,,64.82,240,10.6,11.8,,2,,,,,,63,wg-a,,,,AAXX 12064 07314 12556 82423 10110 20100 30104 40132 56041 60027 76362 887// 90600 333 10118 20106 91035=
07314,1999-04-12 12:00:00,12,1009.5,-0.8,82,9,18000,31.484,,72.228,280,,,,1,,,,,,25,wg-a,,,,AAXX 12124 07314 12568 62817 10120 20090 30067 40095 58008 60017 72586 81231 91200 333 91039=
07314,1999-04-12 18:00:00,11,1008,0.1,82,8,14000,38.892,,90.748,290,9.2,12.8,,2,,,,,,15,wg-a,,,,AAXX 12184 07314 12564 72921 10110 20080 30052 40080 53001 60027 71582 85530 91800 333 10128 20092 91049=
07314,1999-04-13 00:00:00,12,1011.1,1,82,9,0,50.004,,,290,,,,0,,,,,,,wg-a,,,,AAXX 13004 07314 12/// /2927 10120 20090 30083 40111 53010 60007 90000=
07314,1999-04-13 06:00:00,11,1014.1,1.8,76,7,18000,38.892,,72.228,310,9.4,11.5,,0,,,,,,21,wg-a,,,,AAXX 13064 07314 12568 63121 10110 20070 30113 40141 53018 60007 72186 83230 90600 333 10115 20094 91039=
07314,1999-04-13 11:00:00,11.3,1016.8,1.3,67,5.4,,35.188,,,310,,,,,,,,,,,og-post,,,,AAXX 13114 07314 36/// /3119 10113 20054 30140 40168 51013=
07314,1999-04-13 12:00:00,11,1016.5,0.2,66,5,22000,38.892,,64.82,300,,,,,,,,,,,wg-a,,,,AAXX 13124 07314 32472 43021 10110 20050 30137 40165 50002 83202 91200 333 91035=
07314,1999-04-13 18:00:00,11,1014.8,-1,66,5,25000,38.892,,57.412,290,9.7,11.5,,,,,,,,1,wg-a,,,,AAXX 13184 07314 32475 42921 10110 20050 30120 40148 57010 70161 83231 91800 333 10115 20097 91031=
07314,1999-04-14 00:00:00,11,1012.4,-2.9,76,7,0,31.484,,,250,,,,,,,,,,,wg-a,,,,AAXX 14004 07314 32/// /2517 10110 20070 30096 40124 58029 90000=
07314,1999-04-14 06:00:00,11,1003.9,-4.3,87,9,0,46.3,,,230,9.9,11.2,,1,,,,,,,wg-a,,,,AAXX 14064 07314 12/// /2325 10110 20090 30011 40039 56043 60017 90600 333 10112 20099=
07314,1999-04-14 12:00:00,11,995.3,-4.6,94,10,3000,57.412,,90.748,210,,,,3,,,,,,63,wg-a,,,,AAXX 14124 07314 12430 82131 10110 20100 39926 49953 58046 60037 76322 8177/ 91200 333 91049=
07314,1999-04-14 18:00:00,9,1000.8,2.1,53,0,18000,50.004,,,300,7.1,11.2,,0,,,,,,1,wg-a,,,,AAXX 14184 07314 12468 53027 10090 20000 39980 40008 52021 60007 70162 8277/ 91800 333 10112 20071=
07314,1999-04-15 00:00:00,8,1004.5,0.9,61,1,0,29.632,,,280,,,,0,,,,,,,wg-a,,,,AAXX 15004 07314 12/// /2816 10080 20010 30017 40045 51009 60007 90000=
07314,1999-04-15 06:00:00,4,1006.4,1.1,87,2,25000,0,,,0,3.6,8.7,,1,,,,,,1,wg-a,,,,AAXX 15064 07314 12475 50000 10040 20020 30036 40064 53011 60017 70186 82930 90600 333 10087 20036=
07314,1999-04-15 12:00:00,9,1007.3,0.6,76,5,28000,42.596,,68.524,280,,,,1,,,,,,1,wg-a,,,,AAXX 15124 07314 12578 52823 10090 20050 30045 40073 51006 60017 70162 83972 91200 333 91037=
07314,1999-04-15 18:00:00,10,1008.3,1,66,4,28000,35.188,,,290,4.2,10.4,,,,,,,,,wg-a,,,,AAXX 15184 07314 32578 52919 10100 20040 30055 40083 51010 85200 91800 333 10104 20042=
07314,1999-04-16 00:00:00,9,1008.5,-0.8,61,2,0,22.224,,,250,,,,,,,,,,,wg-a,,,,AAXX 16004 07314 32/// /2512 10090 20020 30057 40085 58008 90000=
07314,1999-04-16 06:00:00,6,1006.5,-0.8,87,4,0,11.112,,,170,5.8,10.1,,,,,,,,,wg-a,,,,AAXX 16064 07314 32/// /1706 10060 20040 30037 40065 55008 90600 333 10101 20058=
07314,1999-04-16 12:00:00,9,1004.3,-1.6,87,7,20000,35.188,,,190,,,,0,,,,,,81,wg-a,,,,AAXX 16124 07314 12470 71919 10090 20070 30015 40043 56016 60007 78182 83972 91200=
07314,1999-04-16 18:00:00,11,1000.7,-1.4,62,4,20000,22.224,,,180,5.6,11.4,,,,,,,,,wg-a,,,,AAXX 16184 07314 32570 61812 10110 20040 39979 40007 56014 81202 91800 333 10114 20056=
07314,1999-04-17 00:00:00,8,1000.2,-0.8,87,6,0,14.816,,,290,,,,,,,,,,,wg-a,,,,AAXX 17004 07314 32/// /2908 10080 20060 39974 40002 58008 90000=
07314,1999-04-17 06:00:00,7,1002.2,1.7,93,6,20000,18.52,,,10,6.6,10.7,,2,,,,,,61,wg-a,,,,AAXX 17064 07314 12570 80110 10070 20060 39994 40022 53017 60027 76162 8277/ 90600 333 10107 20066=
07314,1999-04-17 12:00:00,11,1008.1,2.7,82,8,25000,31.484,,,310,,,,,,,,,,2,wg-a,,,,AAXX 17124 07314 32575 53117 10110 20080 30053 40081 51027 70262 82276 91200=
07314,1999-04-17 18:00:00,12,1013.3,3.1,67,6,25000,35.188,,,330,7.4,12,,,,,,,,,wg-a,,,,AAXX 17184 07314 32475 53319 10120 20060 30105 40133 53031 82972 91800 333 10120 20074=
07314,1999-04-18 00:00:00,9,1018,1.4,76,5,0,22.224,,,330,,,,,,,,,,,wg-a,,,,AAXX 18004 07314 32/// /3312 10090 20050 30152 40180 51014 90000=
07314,1999-04-18 06:00:00,10,1020,0.9,71,5,22000,29.632,,,300,6.5,11.4,,,,,,,,,wg-a,,,,AAXX 18064 07314 32572 63016 10100 20050 30172 40200 53009 86200 90600 333 10114 20065=
07314,1999-04-18 12:00:00,9,1020.5,-0.1,87,7,10000,38.892,,,280,,,,2,,,,,,81,wg-a,,,,AAXX 18124 07314 12460 82821 10090 20070 30177 40205 55001 60027 78186 8377/ 91200=
07314,1999-04-18 18:00:00,11,1021,0.4,82,8,2000,29.632,,,280,8.8,10.9,,,,,,,,,wg-a,,,,AAXX 18184 07314 32420 82816 10110 20080 30182 40210 51004 82772 91800 333 10109 20088=
07314,1999-04-19 00:00:00,10,1021.6,-0.5,87,8,0,22.224,,,270,,,,,,,,,,,wg-a,,,,AAXX 19004 07314 32/// /2712 10100 20080 30188 40216 57005 90000=
07314,1999-04-19 06:00:00,9,1020.4,-0.5,93,8,20000,3.704,,,60,9.1,10.7,,0,,,,,,2,wg-a,,,,AAXX 19064 07314 12470 80602 10090 20080 30176 40204 56005 60007 70282 8327/ 90600 333 10107 20091=
07314,1999-04-19 12:00:00,12,1019,-0.9,88,10,25000,14.816,,,190,,,,,,,,,,2,wg-a,,,,AAXX 19124 07314 32475 81908 10120 20100 30162 40190 58009 70262 8427/ 91200=
07314,1999-04-19 18:00:00,10,1016.4,-1,87,8,12000,25.928,,,190,9,13.6,,1,,,,,,61,wg-a,,,,AAXX 19184 07314 12462 81914 10100 20080 30136 40164 57010 60017 76162 888// 91800 333 10136 20090=
07314,1999-04-20 00:00:00,11,1013,-2.5,94,10,0,29.632,,,180,,,,,,,,,,,wg-a,,,,AAXX 20004 07314 32/// /1816 10110 20100 30102 40130 57025 90000=
07314,1999-04-20 06:00:00,12,1009.9,-1.6,94,11,15000,38.892,,,190,10.3,11.6,,1,,,,,,52,wg-a,,,,AAXX 20064 07314 12465 81921 10120 20110 30071 40099 56016 60017 75285 827// 90600 333 10116 20103=
07314,1999-04-20 12:00:00,12,1005.8,-2.3,100,12,10000,42.596,,68.524,160,,,,4,,,,,,63,wg-a,,,,AAXX 20124 07314 12760 81623 10120 20120 30031 40058 58023 60047 76365 882// 91200 333 91037=
07314,1999-04-20 18:00:00,13,1004.2,0.5,94,12,8000,29.632,,64.82,210,11.4,13.1,,6,,,,,,60,wg-a,,,,AAXX 20184 07314 12758 82116 10130 20120 30015 40042 50005 60067 76065 882// 91800 333 10131 20114 91035=
07314,1999-04-21 00:00:00,12,1006.7,1.1,94,11,0,29.632,,,210,,,,,,,,,,,wg-a,,,,AAXX 21004 07314 32/// /2116 10120 20110 30039 40067 51011 90000=
07314,1999-04-21 06:00:00,12,1006.7,-0.1,94,11,6000,31.484,,,200,11.7,12.5,,,,,,,,,wg-a,,,,AAXX 21064 07314 32556 62017 10120 20110 30039 40067 55001 85230 90600 333 10125 20117=
07314,1999-04-21 12:00:00,13,1007.5,0.7,88,11,13000,46.3,,79.636,220,,,,0,,,,,,,wg-a,,,,AAXX 21124 07314 12563 42225 10130 20110 30048 40075 53007 60007 83870 91200 333 91043=
07314,1999-04-21 18:00:00,13,1009.8,1.3,82,10,15000,35.188,,,230,11,13.9,,,,,,,,,wg-a,,,,AAXX 21184 07314 32565 62319 10130 20100 30070 40098 53013 81232 91800 333 10139 20110=
07314,1999-04-22 00:00:00,12,1011.6,0.5,94,11,0,29.632,,,220,,,,,,,,,,,wg-a,,,,AAXX 22004 07314 32/// /2216 10120 20110 30088 40116 52005 90000=
07314,1999-04-22 06:00:00,12,1012.7,0.8,88,10,13000,31.484,,,240,11.7,12.6,,,,,,,,,wg-a,,,,AAXX 22064 07314 32463 62417 10120 20100 30099 40127 53008 83272 90600 333 10126 20117=
07314,1999-04-22 12:00:00,13,1015.7,0.8,94,12,18000,29.632,,,220,,,,,,,,,,,wg-a,,,,AAXX 22124 07314 32568 22216 10130 20120 30129 40157 51008 81230 91200=
07314,1999-04-22 18:00:00,13,1015.7,-0.3,88,11,12000,25.928,,,220,11.6,13.7,,,,,,,,,wg-a,,,,AAXX 22184 07314 32562 72214 10130 20110 30129 40157 58003 83370 91800 333 10137 20116=
07314,1999-04-23 00:00:00,11,1011,-3.3,94,10,0,22.224,,,150,,,,,,,,,,,wg-a,,,,AAXX 23004 07314 32/// /1512 10110 20100 30082 40110 58033 90000=
07314,1999-04-23 06:00:00,12,1006.9,-0.4,82,9,12000,57.412,,100.008,220,10.3,12.9,,1,,,,,,25,wg-a,,,,AAXX 23064 07314 12562 82231 10120 20090 30041 40069 55004 60017 72582 885// 90600 333 10129 20103 91054=
07314,1999-04-23 12:00:00,12,1012.5,3.3,76,8,14000,53.708,,96.304,260,,,,0,,,,,,2,wg-a,,,,AAXX 23124 07314 12464 72629 10120 20080 30097 40125 51033 60007 70262 875// 91200 333 91052=
07314,1999-04-23 18:00:00,12,1016.9,1.7,76,8,18000,42.596,,75.932,270,9.9,12.7,,,,,,,,,wg-a,,,,AAXX 23184 07314 32468 32723 10120 20080 30141 40169 52017 83302 91800 333 10127 20099 91041=
07314,1999-04-24 00:00:00,11,1019.4,0.5,82,8,0,29.632,,,270,,,,,,,,,,,wg-a,,,,AAXX 24004 07314 32/// /2716 10110 20080 30166 40194 51005 90000=
07314,1999-04-24 06:00:00,11,1019.6,0.5,82,8,25000,18.52,,53.708,290,9.6,12.1,,1,,,,,,3,wg-a,,,,AAXX 24064 07314 12475 32910 10110 20080 30168 40196 53005 60017 70380 83200 90600 333 10121 20096 91029=
07314,1999-04-24 12:00:00,12.7,1020.4,-0.4,74,8.2,25000,18.52,,,240,,,,,,,,,,,og-post,,,,AAXX 24124 07314 32575 22410 10127 20082 30176 40204 58004 81202 222// 328// 333 92438=
07314,1999-04-24 18:00:00,12,1018.7,-1,82,9,25000,11.112,,,200,11,13.8,,,,,,,,,wg-a,,,,AAXX 24184 07314 32575 32006 10120 20090 30159 40187 58010 81104 91800 333 10138 20110=
07314,1999-04-25 00:00:00,9,1017,-1.5,93,8,0,11.112,,,130,,,,,,,,,,,wg-a,,,,AAXX 25004 07314 32/// /1306 10090 20080 30142 40170 56015 90000=
07314,1999-04-25 06:00:00,10,1013.4,-1.3,93,9,25000,18.52,,,130,8.7,12.4,,,,,,,,,wg-a,,,,AAXX 25064 07314 32875 71310 10100 20090 30106 40134 55013 8707/ 90600 333 10124 20087=
07314,1999-04-25 12:00:00,13,1012.2,-0.2,82,10,25000,18.52,,,240,,,,,,,,,,,wg-a,,,,AAXX 25124 07314 32475 82410 10130 20100 30094 40122 58002 8153/ 91200=
07314,1999-04-25 18:00:00,12,1011.8,-0.1,94,11,20000,18.52,,,230,9.8,17,,0,,,,,,2,wg-a,,,,AAXX 25184 07314 12570 82310 10120 20110 30090 40118 56001 60007 70262 8322/ 91800 333 10170 20098=
07314,1999-04-26 00:00:00,12,1011.6,-0.4,94,11,0,22.224,,,210,,,,,,,,,,,wg-a,,,,AAXX 26004 07314 32/// /2112 10120 20110 30088 40116 57004 90000=
07314,1999-04-26 06:00:00,11,1010.1,-0.1,100,11,16000,14.816,,,140,9.7,12,,,,,,,,,wg-a,,,,AAXX 26064 07314 32566 61408 10110 20110 30073 40101 56001 82270 90600 333 10120 20097=
07314,1999-04-26 12:00:00,15,1010.4,-0.3,77,11,0,3.704,,,290,,,,,,,,,,,wg-a,,,,AAXX 26124 07314 32/// /2902 10150 20110 30077 40104 58003 91200=
07314,1999-04-26 18:00:00,14,1009.9,-0.1,82,11,15000,22.224,,,350,10.9,15.8,,,,,,,,,wg-a,,,,AAXX 26184 07314 32465 53512 10140 20110 30072 40099 57001 81932 91800 333 10158 20109=
07314,1999-04-27 00:00:00,12,1011.8,0.3,94,11,0,11.112,,,60,,,,,,,,,,,wg-a,,,,AAXX 27004 07314 32/// /0606 10120 20110 30090 40118 51003 90000=
07314,1999-04-27 12:00:00,17,1013.9,0.4,77,13,25000,7.408,,,30,,,,,,,,,,,wg-a,,,,AAXX 27124 07314 32575 40304 10170 20130 30112 40139 51004 82202 91200=
07314,1999-04-27 18:00:00,16,1013.3,-0.2,77,12,25000,11.112,,,60,12.1,17.9,,,,,,,,,wg-a,,,,AAXX 27184 07314 32575 50606 10160 20120 30106 40133 55002 82341 91800 333 10179 20121=
07314,1999-04-28 00:00:00,13,1014.9,-0.3,94,12,0,22.224,,,40,,,,,,,,,,,wg-a,,,,AAXX 28004 07314 32/// /0412 10130 20120 30121 40149 58003 90000=
07314,1999-04-28 06:00:00,12,1013.7,0.3,94,11,10000,18.52,,,70,12.4,16.5,,,,,,,,,wg-a,,,,AAXX 28064 07314 32860 60710 10120 20110 30109 40137 53003 85031 90600 333 10165 20124=
07314,1999-04-28 12:00:00,17,1011.5,-2.1,72,12,15000,29.632,,,50,,,,,,,,,,,wg-a,,,,AAXX 28124 07314 32/65 70516 10170 20120 30088 40115 58021 81032 91200=
07314,1999-04-28 18:00:00,15.4,1007.4,-2,83,12.5,14000,29.632,,,30,12.4,17,,0.4,,0.4,,,,2,og-post,,,,AAXX 28184 07314 /1564 80316 10154 20125 30047 40074 58020 69942 70282 8122/ 222// 328// 333 10170 20124 69947 92437=
07314,1999-04-29 00:00:00,15,1005,-0.8,82,12,0,18.52,,,60,,,,,,,,,,,wg-a,,,,AAXX 29004 07314 32/// /0610 10150 20120 30023 40050 58008 90000=
07314,1999-04-29 06:00:00,14.3,1004.9,1.4,81,11.1,15000,18.52,,,100,14.2,15.6,,,,1,,,,2,og-post,,,,AAXX 29064 07314 11665 81010 10143 20111 30022 40049 53014 60012 70262 885// 222// 328// 333 10156 20142 92437=
07314,1999-04-29 12:00:00,13,1007.9,1.6,100,13,6000,25.928,,,190,,,,3,,,,,,63,wg-a,,,,AAXX 29124 07314 12456 81914 10130 20130 30052 40079 51016 60037 76386 888// 91200=
07314,1999-04-29 18:00:00,14,1010,0.6,88,12,20000,11.112,,,170,12.5,15.4,,,,,,,,2,wg-a,,,,AAXX 29184 07314 32470 71706 10140 20120 30073 40100 53006 70282 81232 91800 333 10154 20125=
07314,1999-04-30 00:00:00,11,1012.9,1.1,94,10,0,7.408,,,120,,,,,,,,,,,wg-a,,,,AAXX 30004 07314 32/// /1204 10110 20100 30101 40129 50011 90000=
07314,1999-04-30 06:00:00,12,1014.4,1.1,94,11,16000,11.112,,,110,10.1,13.5,,,,,,,,,wg-a,,,,AAXX 30064 07314 32/66 51106 10120 20110 30116 40144 53011 84031 90600 333 10135 20101=
07314,1999-04-30 12:00:00,19,1015.9,0.2,60,11,25000,7.408,,,230,,,,,,,,,,,wg-a,,,,AAXX 30124 07314 32575 32304 10190 20110 30132 40159 50002 82230 91200=
07314,1999-04-30 18:00:00,16,1015.3,-0.2,77,12,500,11.112,,,350,11.6,20.9,,,,,,,,,wg-a,,,,AAXX 30184 07314 32500 33506 10160 20120 30126 40153 58002 81232 91800 333 10209 20116=
07314,1999-05-01 00:00:00,14,1016.2,-0.2,82,11,0,7.408,,,30,,,,,,,,,,,wg-a,,,,AAXX 01004 07314 32/// /0304 10140 20110 30134 40162 58002 90000=
07314,1999-05-01 06:00:00,14,1016.6,1.1,94,13,20000,7.408,,,210,13.1,16.3,,,,,,,,29,wg-a,,,,AAXX 01064 07314 32570 72104 10140 20130 30138 40166 53011 72992 84720 90600 333 10163 20131=
07314,1999-05-01 12:00:00,19,1016.3,-0.1,78,15,22000,11.112,,,50,,,,,,,,,,1,wg-a,,,,AAXX 01124 07314 32572 60506 10190 20150 30136 40163 58001 70162 8123/ 91200=
07314,1999-05-01 18:00:00,16,1015.1,-0.4,88,14,22000,22.224,,,330,13.9,21.4,,,,,,,,,wg-a,,,,AAXX 01184 07314 32572 83312 10160 20140 30124 40151 58004 82232 91800 333 10214 20139=
07314,1999-05-02 00:00:00,15,1016.2,0.3,88,13,0,18.52,,,20,,,,,,,,,,,wg-a,,,,AAXX 02004 07314 32/// /0210 10150 20130 30134 40162 50003 90000=
07314,1999-05-02 06:00:00,14,1015.3,0.3,88,12,22000,14.816,,,40,13.5,16.1,,,,,,,,,wg-a,,,,AAXX 02064 07314 32/72 60408 10140 20120 30125 40153 53003 81035 90600 333 10161 20135=
07314,1999-05-02 12:00:00,21,1014.6,-0.7,69,15,22000,11.112,,,70,,,,,,,,,,,wg-a,,,,AAXX 02124 07314 32/72 50706 10210 20150 30119 40146 58007 83032 91200=
07314,1999-05-02 18:00:00,21,1013.3,-0.4,56,12,25000,7.408,,,70,14.2,23.1,,,,,,,,,wg-a,,,,AAXX 02184 07314 32575 70704 10210 20120 30106 40133 57004 81388 91800 333 10231 20142=
07314,1999-05-03 00:00:00,15,1015.1,-0,88,13,0,18.52,,,160,,,,,,,,,,,wg-a,,,,AAXX 03004 07314 32/// /1610 10150 20130 30124 40151 55000 90000=
07314,1999-05-03 06:00:00,15,1013.6,0.2,94,14,15000,14.816,,,30,14.3,21.4,,,,,,,,2,wg-a,,,,AAXX 03064 07314 32/65 50308 10150 20140 30109 40136 53002 70282 82037 90600 333 10214 20143=
07314,1999-05-03 12:00:00,20,1014.6,0.2,78,16,16000,11.112,,,80,,,,,,,,,,,wg-a,,,,AAXX 03124 07314 32566 80806 10200 20160 30119 40146 52002 81137 91200=
07314,1999-05-03 18:00:00,15,1013.4,-0.3,94,14,12000,18.52,,,210,14.6,21.1,,1,,,,,,63,wg-a,,,,AAXX 03184 07314 12562 82110 10150 20140 30107 40134 55003 60017 76362 8112/ 91800 333 10211 20146=
07314,1999-05-04 00:00:00,15,1011.8,-1.3,94,14,0,25.928,,,300,,,,,,,,,,,wg-a,,,,AAXX 04004 07314 32/// /3014 10150 20140 30091 40118 58013 90000=
07314,1999-05-04 06:00:00,14,1009.2,-0.8,100,14,4000,25.928,,,320,14.2,15.1,,1,,,,,,60,wg-a,,,,AAXX 04064 07314 12840 83214 10140 20140 30065 40092 56008 60017 76066 8802/ 90600 333 10151 20142=
07314,1999-05-04 12:00:00,16,1009.5,-0,88,14,10000,11.112,,,320,,,,,,,,,,2,wg-a,,,,AAXX 04124 07314 32860 83206 10160 20140 30068 40095 55000 70262 8807/ 91200=
07314,1999-05-04 18:00:00,14,1008.8,0.3,100,14,2500,22.224,,,290,13.9,16.9,,,,,,,,10,wg-a,,,,AAXX 04184 07314 32/25 62912 10140 20140 30061 40088 51003 71022 86030 91800 333 10169 20139=
07314,1999-05-05 00:00:00,13,1010.6,0.6,100,13,0,14.816,,,230,,,,,,,,,,,wg-a,,,,AAXX 05004 07314 32/// /2308 10130 20130 30078 40106 52006 90000=
07314,1999-05-05 06:00:00,13,1010.5,0.7,94,12,4000,18.52,,,210,12.4,14,,,,,,,,,wg-a,,,,AAXX 05064 07314 32440 82110 10130 20120 30077 40105 53007 886// 90600 333 10140 20124=
07314,1999-05-05 12:00:00,14,1012.6,1.3,94,13,10000,25.928,,,200,,,,,,,,,,,wg-a,,,,AAXX 05124 07314 32560 82014 10140 20130 30099 40126 53013 8/77/ 91200=
07314,1999-05-05 18:00:00,15,1014,1.1,88,13,24000,14.816,,,210,12.6,16,,,,,,,,,wg-a,,,,AAXX 05184 07314 32574 62108 10150 20130 30113 40140 51011 86230 91800 333 10160 20126=
07314,1999-05-06 00:00:00,14,1016.6,0.5,94,13,0,18.52,,,210,,,,,,,,,,,wg-a,,,,AAXX 06004 07314 32/// /2110 10140 20130 30138 40166 51005 90000=
07314,1999-05-06 06:00:00,14,1016.2,-0.1,94,13,12000,3.704,,,120,13.2,14.7,,0,,,,,,2,wg-a,,,,AAXX 06064 07314 12562 71202 10140 20130 30134 40162 55001 60007 70262 8377/ 90600 333 10147 20132=
07314,1999-05-06 12:00:00,19,1014.5,-1.5,73,14,22000,11.112,,,70,,,,,,,,,,,wg-a,,,,AAXX 06124 07314 32572 50706 10190 20140 30118 40145 56015 81230 91200=
07314,1999-05-06 18:00:00,20,1011.2,-1.4,68,14,15000,0,,,0,13.7,21.4,,,,,,,,,wg-a,,,,AAXX 06184 07314 32565 60000 10200 20140 30085 40112 56014 81330 91800 333 10214 20137=
07314,1999-05-07 00:00:00,16,1010.5,-0.2,94,15,0,18.52,,,320,,,,,,,,,,,wg-a,,,,AAXX 07004 07314 32/// /3210 10160 20150 30078 40105 58002 90000=
07314,1999-05-07 06:00:00,16,1007.9,-0.1,100,16,25000,7.408,,,170,14.5,20.1,,,,,,,,2,wg-a,,,,AAXX 07064 07314 32/75 41704 10160 20160 30052 40079 55001 70298 84060 90600 333 10201 20145=
07314,1999-05-07 12:00:00,16,1009.6,1.2,94,15,15000,31.484,,,290,,,,,,,,,,2,wg-a,,,,AAXX 07124 07314 32565 82917 10160 20150 30069 40096 51012 70282 888// 91200=
07314,1999-05-07 18:00:00,14,1011.8,1.2,94,13,22000,11.112,,,250,13.8,17.3,,0,,,,,,25,wg-a,,,,AAXX 07184 07314 12572 82506 10140 20130 30091 40118 51012 60007 72562 8377/ 91800 333 10173 20138=
07314,1999-05-08 00:00:00,14,1014.7,0.4,88,12,0,22.224,,,210,,,,,,,,,,,wg-a,,,,AAXX 08004 07314 32/// /2112 10140 20120 30119 40147 53004 90000=
07314,1999-05-08 06:00:00,14,1016,1,88,12,25000,18.52,,,210,13.5,14.1,,,,,,,,,wg-a,,,,AAXX 08064 07314 32/75 22110 10140 20120 30132 40160 53010 80002 90600 333 10141 20135=
07314,1999-05-08 12:00:00,14,1016,2,88,12,25000,18.52,,,210,13.5,14.1,,,,,,,,,wg-a,,,,AAXX 08124 07314 32/75 22110 10140 20120 30132 40160 53020 80002 91200 333 10141 20135=
07314,1999-05-08 18:00:00,16,1017.7,-0.2,72,11,25000,11.112,,,310,14.1,17.3,,,,,,,,,wg-a,,,,AAXX 08184 07314 32/75 63106 10160 20110 30150 40177 55002 80002 91800 333 10173 20141=
07314,1999-05-09 00:00:00,14,1017.7,-0.7,77,10,0,7.408,,,70,,,,,,,,,,,wg-a,,,,AAXX 09004 07314 32/// /0704 10140 20100 30149 40177 58007 90000=
07314,1999-05-09 06:00:00,13,1015.1,-0.8,82,10,25000,22.224,,,120,12.3,15.9,,,,,,,,,wg-a,,,,AAXX 09064 07314 32/75 31212 10130 20100 30123 40151 56008 81032 90600 333 10159 20123=
07314,1999-05-09 12:00:00,24,1012.6,-1.7,41,10,25000,25.928,,,160,,,,,,,,,,,wg-a,,,,AAXX 09124 07314 32/75 71614 10240 20100 30099 40126 56017 81034 91200=
07314,1999-05-09 18:00:00,18,1011.7,-0,77,14,25000,7.408,,,250,13.4,24,,,,,,,,,wg-a,,,,AAXX 09184 07314 32575 72504 10180 20140 30090 40117 55000 8117/ 91800 333 10240 20134=
07314,1999-05-10 00:00:00,16,1013.7,-0.1,88,14,0,3.704,,,220,,,,,,,,,,,wg-a,,,,AAXX 10004 07314 32/// /2202 10160 20140 30110 40137 55001 90000=
07314,1999-05-10 06:00:00,16,1014.9,0.9,88,14,18000,7.408,,,200,14.6,18.5,,,,,,,,,wg-a,,,,AAXX 10064 07314 32868 82004 10160 20140 30122 40149 53009 83037 90600 333 10185 20146=
07314,1999-05-10 12:00:00,17,1018,0.9,72,12,20000,14.816,,,230,,,,,,,,,,,wg-a,,,,AAXX 10124 07314 32870 82308 10170 20120 30153 40180 51009 83038 91200=
07314,1999-05-10 18:00:00,16,1019.5,0.9,77,12,20000,18.52,,,210,15.5,17.2,,,,,,,,,wg-a,,,,AAXX 10184 07314 32570 82110 10160 20120 30168 40195 53009 81137 91800 333 10172 20155=
07314,1999-05-11 00:00:00,15,1018.3,-0.4,77,11,0,14.816,,,200,,,,,,,,,,,wg-a,,,,AAXX 11004 07314 32/// /2008 10150 20110 30155 40183 58004 90000=
07314,1999-05-11 06:00:00,14,1015.8,-0.9,94,13,20000,11.112,,,100,13.3,16,,0,,,,,,21,wg-a,,,,AAXX 11064 07314 12/70 81006 10140 20130 30130 40158 56009 60007 72162 82038 90600 333 10160 20133=
07314,1999-05-11 12:00:00,17,1014.8,-0.2,82,14,20000,22.224,,,180,,,,,,,,,,2,wg-a,,,,AAXX 11124 07314 32870 81812 10170 20140 30121 40148 57002 70262 84038 91200=
07314,1999-05-11 18:00:00,16,1015,-0.2,94,15,20000,31.484,,,230,13.5,19.9,,,,,,,,,wg-a,,,,AAXX 11184 07314 32870 82317 10160 20150 30123 40150 56002 8807/ 91800 333 10199 20135=
07314,1999-05-12 00:00:00,14,1017.4,1,100,14,0,11.112,,,280,,,,,,,,,,,wg-a,,,,AAXX 12004 07314 32/// /2806 10140 20140 30146 40174 53010 90000=
07314,1999-05-12 06:00:00,14,1016.1,-0,100,14,20000,3.704,,,240,13.9,16.3,,1,,,,,,2,wg-a,,,,AAXX 12064 07314 12470 82402 10140 20140 30133 40161 55000 60017 70286 83147 90600 333 10163 20139=
07314,1999-05-12 12:00:00,17,1015.6,-0.7,88,15,25000,7.408,,,340,,,,,,,,,,2,wg-a,,,,AAXX 12124 07314 32475 83404 10170 20150 30129 40156 57007 70282 8322/ 91200=
07314,1999-05-12 18:00:00,14,1015.9,-0.1,94,13,25000,7.408,,,360,13.8,17.1,,0,,,,,,2,wg-a,,,,AAXX 12184 07314 12475 73604 10140 20130 30131 40159 58001 60007 70282 8312/ 91800 333 10171 20138=
07314,1999-05-13 00:00:00,14,1017.1,0.1,88,12,0,11.112,,,300,,,,,,,,,,,wg-a,,,,AAXX 13004 07314 32/// /3006 10140 20120 30143 40171 50001 90000=
07314,1999-05-13 06:00:00,14,1016.4,0,88,12,25000,11.112,,,360,13.4,14.6,,,,,,,,,wg-a,,,,AAXX 13064 07314 32575 73606 10140 20120 30136 40164 50000 8112/ 90600 333 10146 20134=
07314,1999-05-13 12:00:00,16,1015.2,-1.1,82,13,0,7.408,,,10,,,,,,,,,,,wg-a,,,,AAXX 13124 07314 32/// /0104 10160 20130 30125 40152 58011 91200=
07314,1999-05-13 18:00:00,13,1013.8,-1,94,12,18000,3.704,,,80,12.6,16.3,,3,,,,,,60,wg-a,,,,AAXX 13184 07314 12568 80802 10130 20120 30110 40138 58010 60037 76065 8272/ 91800 333 10163 20126=
07314,1999-05-14 06:00:00,13,1015.4,1.1,88,11,25000,18.52,,,350,12.4,13.7,,,,,,,,,wg-a,,,,AAXX 14064 07314 32575 73510 10130 20110 30126 40154 53011 82272 90600 333 10137 20124=
07314,1999-05-14 12:00:00,16,1016.2,0.2,72,11,25000,14.816,,,290,,,,,,,,,,,wg-a,,,,AAXX 14124 07314 32575 32908 10160 20110 30135 40162 50002 82231 91200=
07314,1999-05-14 18:00:00,15,1014.5,-1.1,77,11,25000,22.224,,,310,13.3,16.1,,,,,,,,,wg-a,,,,AAXX 14184 07314 32575 23112 10150 20110 30118 40145 58011 81202 91800 333 10161 20133=
07314,1999-05-15 00:00:00,13,1015.1,0.1,88,11,0,22.224,,,340,,,,,,,,,,,wg-a,,,,AAXX 15004 07314 32/// /3412 10130 20110 30123 40151 50001 90000=
07314,1999-05-15 06:00:00,13,1014.4,-0,94,12,25000,14.816,,,350,12.7,14.9,,,,,,,,,wg-a,,,,AAXX 15064 07314 32/75 63508 10130 20120 30116 40144 55000 86070 90600 333 10149 20127=
07314,1999-05-15 12:00:00,16,1015.3,0,72,11,25000,7.408,,,310,,,,,,,,,,,wg-a,,,,AAXX 15124 07314 32575 53104 10160 20110 30126 40153 50000 82932 91200=
07314,1999-05-15 18:00:00,16,1015.1,0.4,77,12,25000,29.632,,,340,13.3,18.2,,,,,,,,2,wg-a,,,,AAXX 15184 07314 32575 43416 10160 20120 30124 40151 51004 70292 82230 91800 333 10182 20133=
07314,1999-05-16 00:00:00,14,1016.7,0.4,88,12,0,18.52,,,30,,,,,,,,,,,wg-a,,,,AAXX 16004 07314 32/// /0310 10140 20120 30139 40167 51004 90000=
07314,1999-05-16 06:00:00,13,1015.4,-0.1,82,10,25000,29.632,,,50,12.5,16.1,,,,,,,,,wg-a,,,,AAXX 16064 07314 32/75 00516 10130 20100 30126 40154 55001 80000 90600 333 10161 20125=
07314,1999-05-16 12:00:00,19,1013.6,-1.5,64,12,25000,25.928,,,40,,,,,,,,,,,wg-a,,,,AAXX 16124 07314 32575 10414 10190 20120 30109 40136 58015 81100 91200=
07314,1999-05-16 18:00:00,17,1009.8,-1.8,68,11,22000,38.892,,,30,12.9,19.2,,,,,,,,,wg-a,,,,AAXX 16184 07314 32/72 80321 10170 20110 30071 40098 58018 83077 91800 333 10192 20129=
07314,1999-05-17 00:00:00,14,1009.6,-0.7,63,7,0,42.596,,,40,,,,,,,,,,,wg-a,,,,AAXX 17004 07314 32/// /0423 10140 20070 30069 40096 55007 90000=
07314,1999-05-17 06:00:00,11,1006.5,-0.4,87,9,10000,35.188,,,30,10,17.2,,4,,,,,,21,wg-a,,,,AAXX 17064 07314 12460 80319 10110 20090 30037 40065 55004 60047 72186 8272/ 90600 333 10172 20100=
07314,1999-05-17 12:00:00,13,1004.7,-0.6,88,11,16000,14.816,,,90,,,,,,,,,,,wg-a,,,,AAXX 17124 07314 32566 80908 10130 20110 30020 40047 55006 818// 91200=
07314,1999-05-17 18:00:00,16,1003.9,-0.3,82,13,16000,7.408,,,120,10.6,15.5,,,,,,,,,wg-a,,,,AAXX 17184 07314 32566 51204 10160 20130 30012 40039 55003 8332/ 91800 333 10155 20106=
07314,1999-05-18 00:00:00,12,1004.9,-0.3,100,12,0,11.112,,,120,,,,,,,,,,,wg-a,,,,AAXX 18004 07314 32/// /1206 10120 20120 30022 40049 58003 90000=
07314,1999-05-18 06:00:00,12,1006.1,0.8,94,11,18000,14.816,,,120,11,15.5,,0,,,,,,60,wg-a,,,,AAXX 18064 07314 12568 71208 10120 20110 30033 40061 53008 60007 76022 8377/ 90600 333 10155 20110=
07314,1999-05-18 12:00:00,17,1007.9,0.8,77,13,20000,22.224,,,190,,,,,,,,,,2,wg-a,,,,AAXX 18124 07314 32570 61912 10170 20130 30052 40079 53008 70262 82272 91200=
07314,1999-05-18 18:00:00,16,1008.3,0.4,72,11,28000,3.704,,,220,11.7,17,,,,,,,,,wg-a,,,,AAXX 18184 07314 32578 52202 10160 20110 30056 40083 53004 82262 91800 333 10170 20117=
07314,1999-05-19 00:00:00,14,1009.5,0.1,88,12,0,14.816,,,290,,,,,,,,,,,wg-a,,,,AAXX 19004 07314 32/// /2908 10140 20120 30068 40095 53001 90000=
07314,1999-05-19 06:00:00,14,1010.1,0.7,88,12,22000,18.52,,,280,13.8,16.6,,,,,,,,,wg-a,,,,AAXX 19064 07314 32572 72810 10140 20120 30074 40101 53007 8217/ 90600 333 10166 20138=
07314,1999-05-19 12:00:00,16,1012.2,0.6,82,13,22000,22.224,,,270,,,,,,,,,,,wg-a,,,,AAXX 19124 07314 32572 72712 10160 20130 30095 40122 53006 85232 91200=
07314,1999-05-19 18:00:00,14,1013.7,0.6,94,13,0,29.632,,,260,13.8,16.3,,,,,,,,,wg-a,,,,AAXX 19184 07314 32/// /2616 10140 20130 30110 40137 50006 91800 333 10163 20138=
07314,1999-05-20 00:00:00,14,1015.4,0.2,94,13,0,29.632,,,280,,,,,,,,,,,wg-a,,,,AAXX 20004 07314 32/// /2816 10140 20130 30126 40154 50002 90000=
07314,1999-05-20 06:00:00,14,1017.4,1.4,82,11,8000,25.928,,,290,13.4,14.5,,,,,,,,15,wg-a,,,,AAXX 20064 07314 32558 82914 10140 20110 30146 40174 52014 71522 885// 90600 333 10145 20134=
07314,1999-05-20 12:00:00,14,1018.2,-0,88,12,10000,35.188,,,280,,,,,,,,,,15,wg-a,,,,AAXX 20124 07314 32460 82819 10140 20120 30154 40182 54000 71522 8272/ 91200=
07314,1999-05-20 18:00:00,14,1018.7,0.4,94,13,12000,31.484,,50.004,290,13.1,14.8,,0,,,,,,21,wg-a,,,,AAXX 20184 07314 12562 82917 10140 20130 30159 40187 53004 60007 72162 885// 91800 333 10148 20131 91027=
07314,1999-05-21 00:00:00,14,1021,0.6,94,13,0,31.484,,,300,,,,,,,,,,,wg-a,,,,AAXX 21004 07314 32/// /3017 10140 20130 30182 40210 51006 90000=
07314,1999-05-21 06:00:00,14,1023,1.5,82,11,16000,35.188,,,300,13.2,14.1,,,,,,,,,wg-a,,,,AAXX 21064 07314 32566 73019 10140 20110 30202 40230 53015 8523/ 90600 333 10141 20132=
07314,1999-05-21 12:00:00,15,1025,0.7,88,13,22000,25.928,,,280,,,,,,,,,,,wg-a,,,,AAXX 21124 07314 32572 52814 10150 20130 30222 40250 53007 82232 91200=
07314,1999-05-21 18:00:00,14,1025.4,0.5,88,12,18000,25.928,,,290,13.7,15.9,,,,,,,,,wg-a,,,,AAXX 21184 07314 32568 82914 10140 20120 30226 40254 51005 8523/ 91800 333 10159 20137=
07314,1999-05-22 00:00:00,14,1025.6,-0.8,94,13,0,29.632,,,260,,,,,,,,,,,wg-a,,,,AAXX 22004 07314 32/// /2616 10140 20130 30228 40256 58008 90000=
07314,1999-05-22 06:00:00,14,1025.1,0.4,100,14,15000,25.928,,,270,13.7,14.3,,0,,,,,,2,wg-a,,,,AAXX 22064 07314 12465 82714 10140 20140 30223 40251 53004 60007 70252 8572/ 90600 333 10143 20137=
07314,1999-05-22 12:00:00,15,1025.8,0.2,94,14,20000,22.224,,,270,,,,,,,,,,2,wg-a,,,,AAXX 22124 07314 32470 82712 10150 20140 30230 40258 50002 70252 8683/ 91200=
07314,1999-05-22 18:00:00,15,1025.5,-0.1,88,13,22000,18.52,,,280,13.4,15.9,,,,,,,,,wg-a,,,,AAXX 22184 07314 32572 52810 10150 20130 30227 40255 55001 82231 91800 333 10159 20134=
07314,1999-05-23 06:00:00,14,1025.8,0.2,88,12,14000,7.408,,,280,12.5,15.2,,,,,,,,,wg-a,,,,AAXX 23064 07314 32564 42804 10140 20120 30230 40258 53002 83201 90600 333 10152 20125=
07314,1999-05-23 12:00:00,16,1025.9,0,82,13,20000,11.112,,,290,,,,,,,,,,,wg-a,,,,AAXX 23124 07314 32570 12906 10160 20130 30231 40259 50000 81100 91200=
07314,1999-05-23 18:00:00,16,1024.1,-0.7,82,13,16000,11.112,,,280,13.5,16.9,,,,,,,,,wg-a,,,,AAXX 23184 07314 32566 12806 10160 20130 30213 40241 56007 81100 91800 333 10169 20135=
07314,1999-05-24 00:00:00,14,1023.3,-0.8,94,13,0,14.816,,,360,,,,,,,,,,,wg-a,,,,AAXX 24004 07314 32/// /3608 10140 20130 30205 40233 58008 90000=
07314,1999-05-24 06:00:00,15,1022.1,-0.3,94,14,15000,7.408,,,50,13.7,15.6,,,,,,,,,wg-a,,,,AAXX 24064 07314 32865 20504 10150 20140 30193 40221 55003 82030 90600 333 10156 20137=
07314,1999-05-24 12:00:00,18,1021.8,-0.3,83,15,18000,18.52,,,310,,,,,,,,,,,wg-a,,,,AAXX 24124 07314 32568 53110 10180 20150 30191 40218 58003 81230 91200=
07314,1999-05-24 18:00:00,16,1020.9,-0.3,82,13,20000,25.928,,,320,14.8,18.4,,,,,,,,,wg-a,,,,AAXX 24184 07314 32/70 03214 10160 20130 30182 40209 56003 80000 91800 333 10184 20148=
07314,1999-05-25 00:00:00,15,1021.7,-0.4,94,14,0,18.52,,,350,,,,,,,,,,,wg-a,,,,AAXX 25004 07314 32/// /3510 10150 20140 30189 40217 58004 90000=
07314,1999-05-25 06:00:00,14,1022.1,0.6,88,12,20000,18.52,,,20,13.6,16.3,,,,,,,,,wg-a,,,,AAXX 25064 07314 32870 50210 10140 20120 30193 40221 53006 85030 90600 333 10163 20136=
07314,1999-05-25 12:00:00,19,1021.8,-0.5,78,15,20000,18.52,,,340,,,,,,,,,,,wg-a,,,,AAXX 25124 07314 32570 13410 10190 20150 30191 40218 58005 81100 91200=
07314,1999-05-25 18:00:00,18,1020.1,-1,83,15,18000,18.52,,,320,13.6,18.9,,,,,,,,,wg-a,,,,AAXX 25184 07314 32/68 03210 10180 20150 30174 40201 56010 80000 91800 333 10189 20136=
07314,1999-05-26 00:00:00,16,1019.4,-0.8,94,15,0,11.112,,,50,,,,,,,,,,,wg-a,,,,AAXX 26004 07314 32/// /0506 10160 20150 30167 40194 58008 90000=
07314,1999-05-26 06:00:00,16,1017.9,-0.2,88,14,16000,11.112,,,70,15,17.6,,,,,,,,,wg-a,,,,AAXX 26064 07314 32/66 10706 10160 20140 30152 40179 55002 80001 90600 333 10176 20150=
07314,1999-05-26 12:00:00,22,1016.4,-1.4,69,16,18000,7.408,,,40,,,,,,,,,,,wg-a,,,,AAXX 26124 07314 32/68 20404 10220 20160 30137 40164 58014 80001 91200=
07314,1999-05-26 18:00:00,24,1012.9,-1.6,57,15,25000,11.112,,,70,16,24.5,,,,,,,,,wg-a,,,,AAXX 26184 07314 32/75 30706 10240 20150 30102 40129 56016 80001 91800 333 10245 20160=
07314,1999-05-27 00:00:00,18,1011.5,-1.2,88,16,0,11.112,,,70,,,,,,,,,,,wg-a,,,,AAXX 27004 07314 32/// /0706 10180 20160 30088 40115 58012 90000=
07314,1999-05-27 06:00:00,19,1008.9,-0.2,78,15,15000,14.816,,,120,17.5,23.5,,,,,,,,,wg-a,,,,AAXX 27064 07314 32665 61208 10190 20150 30062 40089 55002 84320 90600 333 10235 20175=
07314,1999-05-27 12:00:00,18,1012.8,3.3,83,15,0,29.632,,,240,,,,,,,,,,,wg-a,,,,AAXX 27124 07314 32/// /2416 10180 20150 30101 40128 53033 91200=
07314,1999-05-27 18:00:00,18,1017.7,3,77,14,14000,3.704,,,180,17.5,23.4,,,,,,,,,wg-a,,,,AAXX 27184 07314 32/64 71802 10180 20140 30150 40177 53030 8703/ 91800 333 10234 20175=
07314,1999-05-28 00:00:00,15,1020.5,0.9,88,13,0,7.408,,,130,,,,,,,,,,,wg-a,,,,AAXX 28004 07314 32/// /1304 10150 20130 30177 40205 51009 90000=
07314,1999-05-28 06:00:00,16,1021,0.4,94,15,15000,11.112,,,70,14.2,18,,,,,,,,,wg-a,,,,AAXX 28064 07314 32/65 10706 10160 20150 30183 40210 50004 8103/ 90600 333 10180 20142=
07314,1999-05-28 12:00:00,23,1018.9,-1.6,69,17,22000,7.408,,,70,,,,,,,,,,,wg-a,,,,AAXX 28124 07314 32/72 40704 10230 20170 30162 40189 56016 80002 91200=
07314,1999-05-28 18:00:00,23,1014.6,-1.7,69,17,20000,14.816,,,80,16.3,24.2,,,,,,,,,wg-a,,,,AAXX 28184 07314 32/70 60808 10230 20170 30119 40146 56017 80004 91800 333 10242 20163=
07314,1999-05-29 00:00:00,19,1013.8,-0.8,88,17,0,11.112,,,110,,,,,,,,,,,wg-a,,,,AAXX 29004 07314 32/// /1106 10190 20170 30111 40138 58008 90000=
07314,1999-05-29 06:00:00,18,1013.1,0.5,73,13,22000,18.52,,,150,16.4,23.6,,,,,,,,,wg-a,,,,AAXX 29064 07314 32572 71510 10180 20130 30104 40131 53005 81132 90600 333 10236 20164=
07314,1999-05-29 12:00:00,19,1015.5,1.5,88,17,8000,25.928,,,200,,,,,,,,,,,wg-a,,,,AAXX 29124 07314 32258 82014 10190 20170 30128 40155 51015 886// 91200=
07314,1999-05-29 18:00:00,18,1016.2,-0.1,88,16,22000,18.52,,,300,17.3,19.7,,,,,,,,,wg-a,,,,AAXX 29184 07314 32/72 43010 10180 20160 30135 40162 58001 80002 91800 333 10197 20173=
07314,1999-05-30 00:00:00,17,1013.4,-2.3,88,15,0,25.928,,,350,,,,,,,,,,,wg-a,,,,AAXX 30004 07314 32/// /3514 10170 20150 30107 40134 58023 90000=
07314,1999-05-30 06:00:00,16,1013.6,0.8,94,15,20000,18.52,,,80,15,18,,,,,,,,1,wg-a,,,,AAXX 30064 07314 32870 30810 10160 20150 30109 40136 53008 70191 83060 90600 333 10180 20150=
07314,1999-05-30 12:00:00,22,1015.9,0.3,73,17,20000,11.112,,,50,,,,,,,,,,,wg-a,,,,AAXX 30124 07314 32570 10506 10220 20170 30132 40159 53003 81200 91200=
07314,1999-05-30 18:00:00,19,1017.1,0.1,83,16,22000,25.928,,,320,16.3,23.1,,,,,,,,,wg-a,,,,AAXX 30184 07314 32572 53214 10190 20160 30144 40171 51001 81205 91800 333 10231 20163=
07314,1999-05-31 00:00:00,17,1019.4,1.1,88,15,0,3.704,,,70,,,,,,,,,,,wg-a,,,,AAXX 31004 07314 32/// /0702 10170 20150 30167 40194 53011 90000=
07314,1999-05-31 06:00:00,17,1018,-0.7,94,16,12000,11.112,,,350,16.1,18.6,,1,,,,,,17,wg-a,,,,AAXX 31064 07314 12462 63506 10170 20160 30153 40180 56007 60017 71798 82932 90600 333 10186 20161=
07314,1999-05-31 12:00:00,22,1018.8,-0.6,73,17,20000,11.112,,,360,,,,,,,,,,21,wg-a,,,,AAXX 31124 07314 02570 53606 10220 20170 30161 40188 58006 61000 72196 8146/ 91200 333 ////=
07314,1999-05-31 18:00:00,22,1016.1,-0.9,78,18,22000,14.816,,,40,16.9,23.8,,,,,,,,,wg-a,,,,AAXX 31184 07314 32572 50408 10220 20180 30134 40161 58009 82232 91800 333 10238 20169=
07314,1999-06-01 00:00:00,19,1017.3,0.1,88,17,0,18.52,,,150,,,,,,,,,,,wg-a,,,,AAXX 01004 07314 32/// /1510 10190 20170 30146 40173 50001 90000=
07314,1999-06-01 06:00:00,20,1015.9,-0.2,94,19,10000,11.112,,,110,17.6,21.8,,,,,,,,,wg-a,,,,AAXX 01064 07314 32/60 61106 10200 20190 30132 40159 56002 80002 90600 333 10218 20176=
07314,1999-06-01 12:00:00,24,1015,-1,78,20,14000,18.52,,,150,,,,,,,,,,,wg-a,,,,AAXX 01124 07314 32/64 81510 10240 20200 30123 40150 56010 82077 91200=
07314,1999-06-01 18:00:00,22,1012.1,-1.9,73,17,22000,3.704,,,250,19.7,26.5,,,,,,,,,wg-a,,,,AAXX 01184 07314 32/72 72502 10220 20170 30094 40121 55019 85075 91800 333 10265 20197=
07314,1999-06-02 00:00:00,19,1010.3,-0.5,94,18,0,25.928,,,160,,,,,,,,,,,wg-a,,,,AAXX 02004 07314 32/// /1614 10190 20180 30076 40103 58005 90000=
07314,1999-06-02 06:00:00,18,1013.1,1.3,83,15,20000,35.188,,,220,17.4,22.2,,,,,,,,,wg-a,,,,AAXX 02064 07314 32570 72219 10180 20150 30104 40131 53013 872// 90600 333 10222 20174=
07314,1999-06-02 12:00:00,17,1015.3,1.3,88,15,12000,38.892,,64.82,240,,,,2,,,,,,25,wg-a,,,,AAXX 02124 07314 12562 72421 10170 20150 30126 40153 53013 60027 72586 8622/ 91200 333 91035=
07314,1999-06-02 18:00:00,17,1017.8,0.5,72,12,20000,29.632,,,240,16.3,18.3,,,,,,,,,wg-a,,,,AAXX 02184 07314 32570 62416 10170 20120 30151 40178 51005 86100 91800 333 10183 20163=
07314,1999-06-03 00:00:00,16,1016.4,-1.5,82,13,0,18.52,,,200,,,,,,,,,,,wg-a,,,,AAXX 03004 07314 32/// /2010 10160 20130 30137 40164 58015 90000=
07314,1999-06-03 06:00:00,17,1012.6,-2.3,77,13,16000,11.112,,,170,14.6,16.6,,,,,,,,,wg-a,,,,AAXX 03064 07314 32866 71706 10170 20130 30099 40126 56023 8706/ 90600 333 10166 20146=
07314,1999-06-03 12:00:00,18,1015.1,1.5,68,12,20000,38.892,,,230,,,,,,,,,,,wg-a,,,,AAXX 03124 07314 32570 72321 10180 20120 30124 40151 53015 878// 91200=
07314,1999-06-04 12:00:00,16,1017.1,-0.9,94,15,14000,38.892,,,220,,,,1,,,,,,61,wg-a,,,,AAXX 04124 07314 12464 82221 10160 20150 30144 40171 58009 60017 76122 837// 91200=
07314,1999-06-04 18:00:00,16,1014.6,-1.4,88,14,12000,35.188,,61.116,230,14.6,17.1,,0,,,,,,52,wg-a,,,,AAXX 04184 07314 12462 82319 10160 20140 30119 40146 57014 60007 75252 8477/ 91800 333 10171 20146 91033=
07314,1999-06-05 00:00:00,14,1012.3,-1.2,100,14,0,22.224,,,230,,,,,,,,,,,wg-a,,,,AAXX 05004 07314 32/// /2312 10140 20140 30096 40123 58012 90000=
07314,1999-06-05 06:00:00,15,1009.9,-0.5,82,12,16000,35.188,,,230,13.7,16,,1,,,,,,2,wg-a,,,,AAXX 05064 07314 12566 82319 10150 20120 30072 40099 56005 60017 70262 8572/ 90600 333 10160 20137=
07314,1999-06-05 12:00:00,17,1009.7,-0.3,72,12,22000,35.188,,,230,,,,0,,,,,,25,wg-a,,,,AAXX 05124 07314 12572 52319 10170 20120 30070 40097 58003 60007 72585 83732 91200=
07314,1999-06-05 18:00:00,16,1008.3,-0.6,72,11,22000,46.3,,64.82,230,13.5,17,,0,,,,,,81,wg-a,,,,AAXX 05184 07314 12572 72325 10160 20110 30056 40083 58006 60007 78122 8673/ 91800 333 10170 20135 91035=
07314,1999-06-06 00:00:00,15,1008.8,-0,72,10,0,46.3,,,250,,,,,,,,,,,wg-a,,,,AAXX 06004 07314 02/// /2525 10150 20100 30061 40088 55000 61000 90000 333 ////=
07314,1999-06-06 06:00:00,15,1011.1,1.7,67,9,18000,29.632,,,260,12.9,15.7,,,,,,,,,wg-a,,,,AAXX 06064 07314 32568 42616 10150 20090 30084 40111 53017 83230 90600 333 10157 20129=
07314,1999-06-06 12:00:00,16,1013,0.5,72,11,22000,22.224,,,220,,,,,,,,,,,wg-a,,,,AAXX 06124 07314 32572 52212 10160 20110 30103 40130 50005 83231 91200=
07314,1999-06-06 18:00:00,16,1013.3,-0.1,77,12,23000,22.224,,,230,14.6,17.1,,0,,,,,,,wg-a,,,,AAXX 06184 07314 12473 62312 10160 20120 30106 40133 58001 60007 81332 91800 333 10171 20146=
07314,1999-06-07 00:00:00,15,1014,-0.3,82,12,0,25.928,,,230,,,,,,,,,,,wg-a,,,,AAXX 07004 07314 32/// /2314 10150 20120 30113 40140 58003 90000=
07314,1999-06-07 06:00:00,15,1014.2,0.4,77,11,22000,31.484,,,230,13.8,15.7,,,,,,,,15,wg-a,,,,AAXX 07064 07314 32572 72317 10150 20110 30115 40142 53004 71562 86232 90600 333 10157 20138=
07314,1999-06-07 12:00:00,15,1016.8,1.3,82,12,15000,25.928,,53.708,230,,,,2,,,,,,15,wg-a,,,,AAXX 07124 07314 12565 72314 10150 20120 30140 40168 53013 60027 71582 86230 91200 333 91029=
07314,1999-06-07 18:00:00,15,1018.9,1.3,63,8,25000,29.632,,,260,13.7,16.3,,,,,,,,,wg-a,,,,AAXX 07184 07314 32575 72616 10150 20080 30161 40189 53013 85202 91800 333 10163 20137=
07314,1999-06-08 00:00:00,15,1022.2,1.1,67,9,0,22.224,,,270,,,,,,,,,,,wg-a,,,,AAXX 08004 07314 32/// /2712 10150 20090 30194 40222 51011 90000=
07314,1999-06-08 06:00:00,14,1024.9,1.7,67,8,22000,11.112,,,270,13.5,15,,,,,,,,15,wg-a,,,,AAXX 08064 07314 32572 72706 10140 20080 30221 40249 53017 71522 8227/ 90600 333 10150 20135=
07314,1999-06-08 12:00:00,16,1027.3,0.8,63,9,24000,7.408,,,20,,,,,,,,,,,wg-a,,,,AAXX 08124 07314 32574 60204 10160 20090 30245 40273 51008 85230 91200=
07314,1999-06-08 18:00:00,16,1027.1,-0.2,55,7,25000,14.816,,,290,13.6,18.3,,,,,,,,,wg-a,,,,AAXX 08184 07314 32575 32908 10160 20070 30243 40271 56002 83300 91800 333 10183 20136=
07314,1999-06-09 00:00:00,14,1027.7,-0.7,67,8,0,11.112,,,330,,,,,,,,,,,wg-a,,,,AAXX 09004 07314 32/// /3306 10140 20080 30249 40277 58007 90000=
07314,1999-06-09 12:00:00,17,1027.1,-0.4,68,11,28000,14.816,,,300,,,,,,,,,,,wg-a,,,,AAXX 09124 07314 32578 43008 10170 20110 30243 40271 58004 81131 91200=
07314,1999-06-09 18:00:00,16,1025.4,-0.9,68,10,28000,25.928,,,310,14.7,17.8,,,,,,,,,wg-a,,,,AAXX 09184 07314 32/78 23114 10160 20100 30226 40254 56009 81032 91800 333 10178 20147=
07314,1999-06-10 00:00:00,15,1026.2,-0.6,82,12,0,22.224,,,350,,,,,,,,,,,wg-a,,,,AAXX 10004 07314 32/// /3512 10150 20120 30234 40262 58006 90000=
07314,1999-06-10 06:00:00,15,1025.8,0.3,88,13,20000,22.224,,,350,14.8,16.6,,,,,,,,,wg-a,,,,AAXX 10064 07314 32570 73512 10150 20130 30230 40258 53003 8117/ 90600 333 10166 20148=
07314,1999-06-10 12:00:00,18,1026,-0.3,68,12,25000,25.928,,,300,,,,,,,,,,,wg-a,,,,AAXX 10124 07314 32575 33014 10180 20120 30232 40260 58003 81132 91200=
07314,1999-06-10 18:00:00,18,1025.1,-0.3,77,14,22000,22.224,,,310,15.2,18.1,,,,,,,,,wg-a,,,,AAXX 10184 07314 32572 33112 10180 20140 30224 40251 56003 81130 91800 333 10181 20152=
07314,1999-06-11 00:00:00,16,1025,-0.5,88,14,0,22.224,,,360,,,,,,,,,,,wg-a,,,,AAXX 11004 07314 32/// /3612 10160 20140 30222 40250 58005 90000=
07314,1999-06-11 06:00:00,15,1024.2,0.1,88,13,14000,14.816,,,40,14.9,17.6,,,,,,,,,wg-a,,,,AAXX 11064 07314 32664 70408 10150 20130 30214 40242 53001 872// 90600 333 10176 20149=
07314,1999-06-11 12:00:00,19,1024.1,-0.5,78,15,16000,14.816,,,300,,,,,,,,,,,wg-a,,,,AAXX 11124 07314 32666 13008 10190 20150 30214 40241 58005 811// 91200=
07314,1999-06-11 18:00:00,18,1022.2,-1,83,15,15000,25.928,,,310,15.3,19.7,,,,,,,,,wg-a,,,,AAXX 11184 07314 32665 23114 10180 20150 30195 40222 57010 82200 91800 333 10197 20153=
07314,1999-06-12 00:00:00,16,1021.7,-1,94,15,0,11.112,,,320,,,,,,,,,,,wg-a,,,,AAXX 12004 07314 32/// /3206 10160 20150 30190 40217 58010 90000=
07314,1999-06-12 06:00:00,16,1021.2,-0,88,14,12000,3.704,,,200,15.1,18.1,,,,,,,,,wg-a,,,,AAXX 12064 07314 32/62 02002 10160 20140 30184 40212 55000 80000 90600 333 10181 20151=
07314,1999-06-12 12:00:00,18,1021.7,0.1,77,14,11000,11.112,,,250,,,,,,,,,,,wg-a,,,,AAXX 12124 07314 32561 12506 10180 20140 30190 40217 50001 81200 91200=
07314,1999-06-12 18:00:00,17,1020.7,-0.7,72,12,18000,31.484,,,310,15.9,19,,,,,,,,,wg-a,,,,AAXX 12184 07314 32/68 03117 10170 20120 30180 40207 56007 80000 91800 333 10190 20159=
07314,1999-06-13 00:00:00,16,1022,-0.2,88,14,0,22.224,,,310,,,,,,,,,,,wg-a,,,,AAXX 13004 07314 32/// /3112 10160 20140 30192 40220 58002 90000=
07314,1999-06-13 06:00:00,13,1022.6,0.6,82,10,18000,31.484,,,10,12.6,17.3,,,,,,,,,wg-a,,,,AAXX 13064 07314 32868 40117 10130 20100 30198 40226 53006 84030 90600 333 10173 20126=
07314,1999-06-13 12:00:00,17,1024,0.5,72,12,20000,25.928,,,300,,,,,,,,,,,wg-a,,,,AAXX 13124 07314 32570 43014 10170 20120 30213 40240 50005 81130 91200=
07314,1999-06-13 18:00:00,17,1023.1,-0.5,82,14,20000,29.632,,,320,13.3,18.5,,,,,,,,,wg-a,,,,AAXX 13184 07314 32870 33216 10170 20140 30204 40231 56005 81032 91800 333 10185 20133=
07314,1999-06-14 00:00:00,16,1024.6,-0.1,82,13,0,22.224,,,10,,,,,,,,,,,wg-a,,,,AAXX 14004 07314 32/// /0112 10160 20130 30218 40246 58001 90000=
07314,1999-06-14 06:00:00,15,1024.9,0.5,82,12,17000,22.224,,,30,14.3,17,,,,,,,,,wg-a,,,,AAXX 14064 07314 32/67 30312 10150 20120 30221 40249 53005 80002 90600 333 10170 20143=
07314,1999-06-14 12:00:00,18,1025.1,-0.2,77,14,16000,14.816,,,290,,,,,,,,,,,wg-a,,,,AAXX 14124 07314 32566 32908 10180 20140 30224 40251 58002 82202 91200=
07314,1999-06-14 18:00:00,18,1023.8,-0.6,83,15,18000,29.632,,,310,15,20,,,,,,,,,wg-a,,,,AAXX 14184 07314 32/68 13116 10180 20150 30211 40238 56006 80001 91800 333 10200 20150=
07314,1999-06-15 00:00:00,17,1025.3,0,82,14,0,18.52,,,360,,,,,,,,,,,wg-a,,,,AAXX 15004 07314 32/// /3610 10170 20140 30225 40253 50000 90000=
07314,1999-06-15 06:00:00,16,1025.8,0.5,77,12,14000,18.52,,,30,15.3,17.6,,,,,,,,,wg-a,,,,AAXX 15064 07314 32/64 00310 10160 20120 30230 40258 53005 80000 90600 333 10176 20153=
07314,1999-06-15 12:00:00,20,1025.5,-0.5,78,16,14000,11.112,,,280,,,,,,,,,,,wg-a,,,,AAXX 15124 07314 32/64 12806 10200 20160 30228 40255 58005 80001 91200=
07314,1999-06-15 18:00:00,19,1023.3,-0.8,83,16,0,25.928,,,320,15.9,21.1,,,,,,,,,wg-a,,,,AAXX 15184 07314 32/// /3214 10190 20160 30206 40233 56008 91800 333 10211 20159=
07314,1999-06-16 00:00:00,18,1023,-0.4,88,16,0,11.112,,,50,,,,,,,,,,,wg-a,,,,AAXX 16004 07314 32/// /0506 10180 20160 30203 40230 57004 90000=
07314,1999-06-16 06:00:00,18,1022.3,-0.2,83,15,0,11.112,,,60,16.9,18.6,,,,,,,,,wg-a,,,,AAXX 16064 07314 32/// /0606 10180 20150 30196 40223 55002 90600 333 10186 20169=
07314,1999-06-16 12:00:00,25,1022.1,-0.3,50,14,12000,7.408,,,330,,,,,,,,,,,wg-a,,,,AAXX 16124 07314 32562 23304 10250 20140 30194 40221 56003 81102 91200=
07314,1999-06-16 18:00:00,20,1020.5,-0.4,78,16,0,22.224,,,320,17.5,26,,,,,,,,,wg-a,,,,AAXX 16184 07314 32/// /3212 10200 20160 30178 40205 55004 91800 333 10260 20175=
07314,1999-06-17 06:00:00,19,1020.8,0.5,83,16,10000,7.408,,,70,17.3,20,,,,,,,,,wg-a,,,,AAXX 17064 07314 32560 60704 10190 20160 30181 40208 53005 82160 90600 333 10200 20173=
07314,1999-06-17 18:00:00,19,1021.7,-0.1,88,17,14000,25.928,,,310,18.6,22.1,,,,,,,,,wg-a,,,,AAXX 17184 07314 32664 63114 10190 20170 30190 40217 55001 82230 91800 333 10221 20186=
07314,1999-06-18 00:00:00,18,1023.8,0.6,83,15,0,25.928,,,10,,,,,,,,,,,wg-a,,,,AAXX 18004 07314 32/// /0114 10180 20150 30211 40238 51006 90000=
07314,1999-06-18 06:00:00,16,1024.6,0.9,88,14,17000,18.52,,,20,15.1,19.7,,,,,,,,,wg-a,,,,AAXX 18064 07314 32/67 30210 10160 20140 30218 40246 51009 80002 90600 333 10197 20151=
07314,1999-06-18 12:00:00,19,1024.5,-0.5,83,16,16000,22.224,,,300,,,,,,,,,,,wg-a,,,,AAXX 18124 07314 32/66 33012 10190 20160 30218 40245 56005 80002 91200=
07314,1999-06-18 18:00:00,18,1022.7,-0.7,88,16,15000,29.632,,,310,15.7,19.6,,,,,,,,,wg-a,,,,AAXX 18184 07314 32/65 33116 10180 20160 30200 40227 56007 82031 91800 333 10196 20157=
07314,1999-06-19 00:00:00,18,1023.6,0.3,88,16,0,22.224,,,360,,,,,,,,,,,wg-a,,,,AAXX 19004 07314 32/// /3612 10180 20160 30209 40236 50003 90000=
07314,1999-06-19 06:00:00,17,1024.1,0.6,82,14,14000,7.408,,,60,16.1,18.1,,,,,,,,,wg-a,,,,AAXX 19064 07314 32/64 00604 10170 20140 30214 40241 53006 80000 90600 333 10181 20161=
07314,1999-06-19 12:00:00,21,1024.4,-0.3,73,16,18000,11.112,,,280,,,,,,,,,,,wg-a,,,,AAXX 19124 07314 32568 12806 10210 20160 30217 40244 58003 81100 91200=
07314,1999-06-19 18:00:00,19,1023.1,-0.5,78,15,20000,22.224,,,300,17.3,21.7,,,,,,,,,wg-a,,,,AAXX 19184 07314 32/70 13012 10190 20150 30204 40231 55005 80001 91800 333 10217 20173=
07314,1999-06-20 00:00:00,17,1023,-0.4,94,16,0,18.52,,,300,,,,,,,,,,,wg-a,,,,AAXX 20004 07314 32/// /3010 10170 20160 30203 40230 58004 90000=
07314,1999-06-20 06:00:00,16,1022.4,0.5,94,15,18000,25.928,,,320,15.6,18.7,,,,,,,,,wg-a,,,,AAXX 20064 07314 32568 63214 10160 20150 30196 40224 53005 81131 90600 333 10187 20156=
07314,1999-06-20 12:00:00,17,1022.5,-0.7,82,14,18000,22.224,,,260,,,,,,,,,,,wg-a,,,,AAXX 20124 07314 32568 82612 10170 20140 30198 40225 57007 818// 91200=
07314,1999-06-20 18:00:00,17,1020.6,-1.2,88,15,20000,22.224,,,250,16.4,18.8,,,,,,,,,wg-a,,,,AAXX 20184 07314 32570 82512 10170 20150 30179 40206 56012 8327/ 91800 333 10188 20164=
07314,1999-06-21 00:00:00,16,1019.8,-0.3,82,13,0,38.892,,,300,,,,,,,,,,,wg-a,,,,AAXX 21004 07314 32/// /3021 10160 20130 30170 40198 58003 90000=
07314,1999-06-21 06:00:00,14,1021.7,1.3,77,10,20000,29.632,,,350,13.1,17.1,,,,,,,,,wg-a,,,,AAXX 21064 07314 32570 23516 10140 20100 30189 40217 51013 8/400 90600 333 10171 20131=
07314,1999-06-21 12:00:00,17,1023.1,0.3,63,10,25000,29.632,,,310,,,,,,,,,,,wg-a,,,,AAXX 21124 07314 32575 53116 10170 20100 30203 40231 50003 83230 91200=
07314,1999-06-21 18:00:00,16,1023.4,-0,72,11,27000,31.484,,,310,13.7,17.3,,,,,,,,,wg-a,,,,AAXX 21184 07314 32/77 23117 10160 20110 30206 40234 55000 82030 91800 333 10173 20137=
07314,1999-06-22 00:00:00,14,1024.7,0.3,67,8,0,31.484,,,20,,,,,,,,,,,wg-a,,,,AAXX 22004 07314 32/// /0217 10140 20080 30219 40247 50003 90000=
07314,1999-06-22 06:00:00,13,1024.5,-0.1,77,9,25000,18.52,,,30,12.5,16.3,,,,,,,,,wg-a,,,,AAXX 22064 07314 32/75 00310 10130 20090 30217 40245 55001 80000 90600 333 10163 20125=
07314,1999-06-22 12:00:00,17,1024.1,-0.6,55,8,25000,14.816,,,290,,,,,,,,,,,wg-a,,,,AAXX 22124 07314 32575 12908 10170 20080 30213 40241 58006 81100 91200=
07314,1999-06-22 18:00:00,17,1021.1,-1.1,72,12,25000,25.928,,,310,13.4,17.5,,,,,,,,,wg-a,,,,AAXX 22184 07314 32/75 13114 10170 20120 30184 40211 56011 81032 91800 333 10175 20134=
07314,1999-06-23 00:00:00,17,1020.8,-0.5,68,11,0,11.112,,,80,,,,,,,,,,,wg-a,,,,AAXX 23004 07314 32/// /0806 10170 20110 30181 40208 58005 90000=
07314,1999-06-23 06:00:00,15,1020.5,0.3,72,10,22000,11.112,,,70,15.1,17,,,,,,,,,wg-a,,,,AAXX 23064 07314 32572 50706 10150 20100 30177 40205 53003 81232 90600 333 10170 20151=
07314,1999-06-23 12:00:00,22,1020.4,-0.4,43,9,25000,11.112,,,60,,,,,,,,,,,wg-a,,,,AAXX 23124 07314 32/75 50606 10220 20090 30177 40204 58004 80002 91200=
07314,1999-06-23 18:00:00,19,1019.5,-0.2,73,14,25000,18.52,,,330,15.4,23.1,,,,,,,,,wg-a,,,,AAXX 23184 07314 32/75 53310 10190 20140 30168 40195 55002 81032 91800 333 10231 20154=
07314,1999-06-24 00:00:00,17,1020.9,0,72,12,0,22.224,,,30,,,,,,,,,,,wg-a,,,,AAXX 24004 07314 32/// /0312 10170 20120 30182 40209 50000 90000=
07314,1999-06-24 06:00:00,17,1020.3,0.4,68,11,25000,22.224,,,50,16,19.1,,,,,,,,,wg-a,,,,AAXX 24064 07314 32/75 10512 10170 20110 30176 40203 50004 80001 90600 333 10191 20160=
07314,1999-06-24 12:00:00,23,1019.1,-1.2,57,14,25000,18.52,,,50,,,,,,,,,,,wg-a,,,,AAXX 24124 07314 32/75 00510 10230 20140 30164 40191 58012 80000 91200=
07314,1999-06-24 18:00:00,23,1016.6,-1.3,57,14,25000,22.224,,,40,17,24.9,,,,,,,,,wg-a,,,,AAXX 24184 07314 32/75 00412 10230 20140 30139 40166 56013 80000 91800 333 10249 20170=
07314,1999-06-25 00:00:00,18,1016.8,-0.6,73,13,0,18.52,,,40,,,,,,,,,,,wg-a,,,,AAXX 25004 07314 32/// /0410 10180 20130 30141 40168 57006 90000=
07314,1999-06-25 06:00:00,17,1015.5,-0.2,77,13,18000,18.52,,,70,17.1,23.3,,,,,,,,,wg-a,,,,AAXX 25064 07314 32/68 70710 10170 20130 30128 40155 56002 82012 90600 333 10233 20171=
07314,1999-06-25 12:00:00,25,1014.3,-0.6,54,15,18000,7.408,,,60,,,,,,,,,,29,wg-a,,,,AAXX 25124 07314 32568 60604 10250 20150 30117 40143 56006 72922 82932 91200=
07314,1999-06-25 18:00:00,25,1011.4,-1.6,69,19,18000,11.112,,,150,17.2,27.1,,0,,,,,,2,wg-a,,,,AAXX 25184 07314 12568 71506 10250 20190 30088 40114 57016 60007 70292 81382 91800 333 10271 20172=
07314,1999-06-26 00:00:00,18,1012.9,0.7,94,17,0,25.928,,,190,,,,,,,,,,,wg-a,,,,AAXX 26004 07314 32/// /1914 10180 20170 30102 40129 51007 90000=
07314,1999-06-26 06:00:00,18,1011.2,-0.1,94,17,500,22.224,,,250,17.2,24.9,,,,,,,,,wg-a,,,,AAXX 26064 07314 32500 82512 10180 20170 30085 40112 55001 81208 90600 333 10249 20172=
07314,1999-06-26 18:00:00,18,1011.2,-0.9,88,16,0,22.224,,,220,16.9,19.6,,,,,,,,,wg-a,,,,AAXX 26184 07314 32/// /2212 10180 20160 30085 40112 56009 91800 333 10196 20169=
07314,1999-06-27 00:00:00,18,1009.9,-1.3,88,16,0,29.632,,,220,,,,,,,,,,,wg-a,,,,AAXX 27004 07314 32/// /2216 10180 20160 30072 40099 57013 90000=
07314,1999-06-27 06:00:00,18,1007.4,-0.9,88,16,10000,29.632,,,220,17.1,18.3,,,,,,,,3,wg-a,,,,AAXX 27064 07314 32560 82216 10180 20160 30047 40074 56009 70362 8372/ 90600 333 10183 20171=
07314,1999-06-27 12:00:00,17,1009.8,1.8,72,12,17000,35.188,,61.116,260,,,,1,,,,,,15,wg-a,,,,AAXX 27124 07314 12567 72619 10170 20120 30071 40098 53018 60017 71582 87202 91200 333 91033=
07314,1999-06-27 18:00:00,16,1012.8,0.8,77,12,18000,29.632,,57.412,270,14.5,17.9,,0,,,,,,15,wg-a,,,,AAXX 27184 07314 12468 62716 10160 20120 30101 40128 53008 60007 71522 81370 91800 333 10179 20145 91031=
07314,1999-06-28 00:00:00,16,1015,0.8,77,12,0,22.224,,,250,,,,,,,,,,,wg-a,,,,AAXX 28004 07314 32/// /2512 10160 20120 30123 40150 51008 90000=
07314,1999-06-28 06:00:00,17,1016.4,1.4,77,13,22000,25.928,,,240,15.6,16.7,,,,,,,,,wg-a,,,,AAXX 28064 07314 32472 42414 10170 20130 30137 40164 51014 82270 90600 333 10167 20156=
07314,1999-06-28 12:00:00,19,1019.1,0.9,73,14,22000,22.224,,,210,,,,,,,,,,,wg-a,,,,AAXX 28124 07314 32472 62112 10190 20140 30164 40191 51009 82230 91200=
07314,1999-06-28 18:00:00,18,1018.9,-0.3,83,15,20000,14.816,,,210,16.7,19.2,,,,,,,,,wg-a,,,,AAXX 28184 07314 32470 72108 10180 20150 30162 40189 57003 82270 91800 333 10192 20167=
07314,1999-06-29 00:00:00,17,1018.7,-0.5,88,15,0,18.52,,,210,,,,,,,,,,,wg-a,,,,AAXX 29004 07314 32/// /2110 10170 20150 30160 40187 56005 90000=
07314,1999-06-29 06:00:00,18,1018.5,0.4,88,16,15000,18.52,,,200,16.9,17.6,,,,,,,,,wg-a,,,,AAXX 29064 07314 32865 72010 10180 20160 30158 40185 53004 83038 90600 333 10176 20169=
07314,1999-06-29 12:00:00,19,1020.5,0.5,88,17,15000,25.928,,,220,,,,,,,,,,,wg-a,,,,AAXX 29124 07314 32565 82214 10190 20170 30178 40205 50005 818// 91200=
07314,1999-06-29 18:00:00,18,1020.9,0.3,88,16,17000,22.224,,,240,17.4,18.9,,,,,,,,,wg-a,,,,AAXX 29184 07314 32567 72412 10180 20160 30182 40209 53003 8127/ 91800 333 10189 20174=
07314,1999-06-30 00:00:00,17,1022.4,0.4,94,16,0,22.224,,,230,,,,,,,,,,,wg-a,,,,AAXX 30004 07314 32/// /2312 10170 20160 30197 40224 51004 90000=
07314,1999-06-30 06:00:00,15,1024,1.5,94,14,12000,25.928,,,330,15.3,18.2,,0,,,,,,20,wg-a,,,,AAXX 30064 07314 12462 83314 10150 20140 30212 40240 53015 60007 72052 887// 90600 333 10182 20153=
07314,1999-06-30 12:00:00,18,1025.5,0.7,68,12,22000,14.816,,,300,,,,,,,,,,,wg-a,,,,AAXX 30124 07314 32572 73008 10180 20120 30228 40255 51007 824// 91200=
07314,1999-06-30 18:00:00,18,1024.8,-0.9,64,11,500,11.112,,,320,15.3,18.9,,,,,,,,,wg-a,,,,AAXX 30184 07314 32800 23206 10180 20110 30221 40248 58009 82030 91800 333 10189 20153=
07314,1999-07-01 00:00:00,15,1023.9,-1,82,12,0,3.704,,,310,,,,,,,,,,,wg-a,,,,AAXX 01004 07314 32/// /3102 10150 20120 30211 40239 56010 90000=
07314,1999-07-01 06:00:00,15,1022.3,-0.6,94,14,25000,3.704,,,110,13.6,17.6,,,,,,,,,wg-a,,,,AAXX 01064 07314 32/75 21102 10150 20140 30195 40223 55006 80002 90600 333 10176 20136=
07314,1999-07-01 12:00:00,20,1021.6,-0.6,68,14,500,11.112,,,330,,,,,,,,,,,wg-a,,,,AAXX 01124 07314 32/00 13306 10200 20140 30189 40216 58006 80001 91200=
07314,1999-07-01 18:00:00,20,1017.7,-2.1,78,16,500,18.52,,,310,15.5,20.9,,,,,,,,,wg-a,,,,AAXX 01184 07314 32/00 03110 10200 20160 30150 40177 56021 80000 91800 333 10209 20155=
07314,1999-07-02 00:00:00,18,1016.2,-0.9,94,17,0,11.112,,,40,,,,,,,,,,,wg-a,,,,AAXX 02004 07314 32/// /0406 10180 20170 30135 40162 58009 90000=
07314,1999-07-02 06:00:00,19,1012.8,-1.2,78,15,20000,18.52,,,90,17.8,19.7,,,,,,,,,wg-a,,,,AAXX 02064 07314 32570 20910 10190 20150 30101 40128 55012 81202 90600 333 10197 20178=
07314,1999-07-02 12:00:00,31,1010.6,-1,52,20,25000,11.112,,,80,,,,,,,,,,,wg-a,,,,AAXX 02124 07314 32575 20806 10310 20200 30080 40106 56010 81230 91200=
07314,1999-07-02 18:00:00,20,1011.5,0.9,94,19,25000,29.632,,,250,19.1,32,,,,,,,,,wg-a,,,,AAXX 02184 07314 32/75 22516 10200 20190 30088 40115 53009 80002 91800 333 10320 20191=
07314,1999-07-03 00:00:00,18,1014.6,0.7,88,16,0,22.224,,,250,,,,,,,,,,,wg-a,,,,AAXX 03004 07314 32/// /2512 10180 20160 30119 40146 50007 90000=
07314,1999-07-03 06:00:00,18,1014.4,-0,88,16,18000,14.816,,,210,17.6,20.2,,,,,,,,,wg-a,,,,AAXX 03064 07314 32668 72108 10180 20160 30117 40144 55000 875// 90600 333 10202 20176=
07314,1999-07-03 12:00:00,18,1014.4,-0,88,16,18000,14.816,,,210,17.6,20.2,,,,,,,,,wg-a,,,,AAXX 03124 07314 32668 72108 10180 20160 30117 40144 55000 875// 91200 333 10202 20176=
07314,1999-07-03 18:00:00,21,1013.5,-1.4,78,17,22000,7.408,,,290,18.2,21.6,,,,,,,,,wg-a,,,,AAXX 03184 07314 32/72 52904 10210 20170 30108 40135 56014 80002 91800 333 10216 20182=
07314,1999-07-04 00:00:00,18,1013.7,-1,94,17,0,11.112,,,270,,,,,,,,,,,wg-a,,,,AAXX 04004 07314 32/// /2706 10180 20170 30110 40137 58010 90000=
07314,1999-07-04 06:00:00,17,1011.7,-0.8,94,16,2000,7.408,,,60,16.7,20.9,,13,,,,,,95,wg-a,,,,AAXX 04064 07314 12520 80604 10170 20160 30090 40117 56008 60137 79586 8192/ 90600 333 10209 20167=
07314,1999-07-04 12:00:00,16,1012.1,-0,100,16,2500,14.816,,,330,,,,5,,,,,,63,wg-a,,,,AAXX 04124 07314 12425 83308 10160 20160 30094 40121 55000 60057 76398 8/73/ 91200=
07314,1999-07-04 18:00:00,17,1011.3,-0.2,88,15,18000,7.408,,,260,15.7,17.5,,0,,,,,,2,wg-a,,,,AAXX 04184 07314 12468 82604 10170 20150 30086 40113 55002 60007 70282 8117/ 91800 333 10175 20157=
07314,1999-07-05 00:00:00,18,1011,-0.6,88,16,0,22.224,,,210,,,,,,,,,,,wg-a,,,,AAXX 05004 07314 32/// /2112 10180 20160 30083 40110 56006 90000=
07314,1999-07-05 06:00:00,17,1010.8,0.2,94,16,12000,22.224,,,170,16.5,18.1,,6,,,,,,25,wg-a,,,,AAXX 05064 07314 12462 71712 10170 20160 30081 40108 53002 60067 72582 8532/ 90600 333 10181 20165=
07314,1999-07-07 12:00:00,20,1028,0.3,73,15,20000,22.224,,,310,,,,,,,,,,,wg-a,,,,AAXX 07124 07314 32570 73112 10200 20150 30253 40280 50003 81132 91200=
07314,1999-07-07 18:00:00,19,1027.7,-0.1,78,15,27000,25.928,,,310,17.3,20.4,,,,,,,,,wg-a,,,,AAXX 07184 07314 32577 53114 10190 20150 30250 40277 57001 81102 91800 333 10204 20173=
07314,1999-07-08 00:00:00,18,1028.3,0,88,16,0,22.224,,,10,,,,,,,,,,,wg-a,,,,AAXX 08004 07314 32/// /0112 10180 20160 30255 40283 50000 90000=
07314,1999-07-08 06:00:00,17,1028.2,0.3,82,14,20000,18.52,,,50,16.8,18.9,,,,,,,,,wg-a,,,,AAXX 08064 07314 32/70 70510 10170 20140 30254 40282 52003 80002 90600 333 10189 20168=
07314,1999-07-08 12:00:00,23,1027.3,-1.1,69,17,25000,11.112,,,20,,,,,,,,,,,wg-a,,,,AAXX 08124 07314 32575 70206 10230 20170 30246 40273 58011 81102 91200=
07314,1999-07-08 18:00:00,24,1024.8,-1.3,65,17,22000,18.52,,,40,17.1,25.3,,,,,,,,,wg-a,,,,AAXX 08184 07314 32572 50410 10240 20170 30221 40248 58013 81102 91800 333 10253 20171=
07314,1999-07-09 00:00:00,20,1024,-0.7,83,17,0,22.224,,,40,,,,,,,,,,,wg-a,,,,AAXX 09004 07314 32/// /0412 10200 20170 30213 40240 58007 90000=
07314,1999-07-09 06:00:00,19,1023,-0.2,83,16,0,29.632,,,40,18.7,24,,,,,,,,,wg-a,,,,AAXX 09064 07314 32/// /0416 10190 20160 30203 40230 56002 90600 333 10240 20187=
07314,1999-07-09 12:00:00,24,1021.4,-1.2,65,17,20000,11.112,,,40,,,,,,,,,,,wg-a,,,,AAXX 09124 07314 32570 10406 10240 20170 30187 40214 58012 81100 91200=
07314,1999-07-09 18:00:00,24,1018.7,-0.9,65,17,24000,14.816,,,40,18.8,26.5,,,,,,,,,wg-a,,,,AAXX 09184 07314 32574 20408 10240 20170 30160 40187 56009 81101 91800 333 10265 20188=
07314,1999-07-10 00:00:00,19,1018.6,-0.5,83,16,0,22.224,,,20,,,,,,,,,,,wg-a,,,,AAXX 10004 07314 32/// /0212 10190 20160 30159 40186 58005 90000=
07314,1999-07-10 06:00:00,19,1018.5,0.5,78,15,18000,29.632,,,40,18.4,24.3,,,,,,,,,wg-a,,,,AAXX 10064 07314 32/68 00416 10190 20150 30158 40185 53005 80000 90600 333 10243 20184=
07314,1999-07-10 12:00:00,24,1016.7,-1.5,61,16,24000,25.928,,,20,,,,,,,,,,,wg-a,,,,AAXX 10124 07314 32574 30214 10240 20160 30140 40167 56015 82201 91200=
07314,1999-07-10 18:00:00,24,1015.8,-0,69,18,24000,18.52,,,20,18.7,25.4,,,,,,,,,wg-a,,,,AAXX 10184 07314 32574 60210 10240 20180 30131 40158 55000 86270 91800 333 10254 20187=
07314,1999-07-11 00:00:00,20,1016.1,-0.4,83,17,0,7.408,,,360,,,,,,,,,,,wg-a,,,,AAXX 11004 07314 32/// /3604 10200 20170 30134 40161 58004 90000=
07314,1999-07-11 06:00:00,20,1015.4,-0,88,18,18000,18.52,,,20,19.4,23.9,,,,,,,,,wg-a,,,,AAXX 11064 07314 32568 70210 10200 20180 30127 40154 55000 81270 90600 333 10239 20194=
07314,1999-07-11 12:00:00,22,1014.7,-0.7,83,19,16000,14.816,,,350,,,,,,,,,,,wg-a,,,,AAXX 11124 07314 32/66 73508 10220 20190 30120 40147 58007 87070 91200=
07314,1999-07-11 18:00:00,21,1013.3,-0.1,88,19,10000,11.112,,,300,19.3,23.5,,1,,,,,,17,wg-a,,,,AAXX 11184 07314 12460 73006 10210 20190 30106 40133 56001 60017 71798 83970 91800 333 10235 20193=
07314,1999-07-12 06:00:00,20,1012.1,0.2,94,19,14000,18.52,,,40,19.1,20.9,,0,,,,,,,wg-a,,,,AAXX 12064 07314 12/64 40410 10200 20190 30094 40121 50002 60007 84030 90600 333 10209 20191=
07314,1999-07-12 12:00:00,24,1011.7,-0.4,83,21,8000,14.816,,,250,,,,,,,,,,,wg-a,,,,AAXX 12124 07314 32458 62508 10240 20210 30091 40117 58004 83930 91200=
07314,1999-07-12 18:00:00,20,1010.7,-0.6,94,19,15000,14.816,,,340,20,25.1,,1,,,,,,29,wg-a,,,,AAXX 12184 07314 12465 83408 10200 20190 30080 40107 55006 60017 72998 8296/ 91800 333 10251 20200=
07314,1999-07-13 06:00:00,20,1010.6,-0,94,19,0,7.408,,,320,19.2,21.2,,,,,,,,,wg-a,,,,AAXX 13064 07314 32/// /3204 10200 20190 30079 40106 55000 90600 333 10212 20192=
07314,1999-07-13 12:00:00,21,1011.9,0.9,88,19,6000,18.52,,,290,,,,,,,,,,,wg-a,,,,AAXX 13124 07314 32856 72910 10210 20190 30092 40119 51009 8706/ 91200=
07314,1999-07-13 18:00:00,20,1013.1,0.8,88,18,15000,31.484,,,300,19.1,21.3,,,,,,,,,wg-a,,,,AAXX 13184 07314 32865 53017 10200 20180 30104 40131 53008 85060 91800 333 10213 20191=
07314,1999-07-14 00:00:00,18,1016.1,1.2,88,16,0,31.484,,,290,,,,,,,,,,,wg-a,,,,AAXX 14004 07314 32/// /2917 10180 20160 30134 40161 51012 90000=
07314,1999-07-14 06:00:00,17,1017.2,0.6,100,17,16000,11.112,,,270,16.8,20.4,,0,,,,,,2,wg-a,,,,AAXX 14064 07314 12566 72706 10170 20170 30145 40172 51006 60007 70262 874// 90600 333 10204 20168=
07314,1999-07-14 12:00:00,20,1018.7,0.7,73,15,25000,22.224,,,270,,,,,,,,,,,wg-a,,,,AAXX 14124 07314 32575 42712 10200 20150 30160 40187 51007 82230 91200=
07314,1999-07-14 18:00:00,19,1018.4,-0.5,83,16,25000,18.52,,,270,17.4,20.4,,,,,,,,,wg-a,,,,AAXX 14184 07314 32575 22710 10190 20160 30157 40184 56005 82230 91800 333 10204 20174=
07314,1999-07-15 00:00:00,18,1019,-0.2,88,16,0,11.112,,,280,,,,,,,,,,,wg-a,,,,AAXX 15004 07314 32/// /2806 10180 20160 30163 40190 55002 90000=
07314,1999-07-15 06:00:00,18,1018.1,-0,94,17,20000,18.52,,,220,17.7,19.1,,,,,,,,,wg-a,,,,AAXX 15064 07314 32570 62210 10180 20170 30154 40181 55000 84720 90600 333 10191 20177=
07314,1999-07-15 12:00:00,18,1019.2,0.5,100,18,4000,14.816,,,300,,,,0,,,,,,50,wg-a,,,,AAXX 15124 07314 12440 73008 10180 20180 30165 40192 53005 60007 75052 8472/ 91200=
07314,1999-07-15 18:00:00,20,1019.7,0.3,83,17,25000,14.816,,,290,17.8,20.3,,,,,,,,,wg-a,,,,AAXX 15184 07314 32575 32908 10200 20170 30170 40197 53003 82230 91800 333 10203 20178=
07314,1999-07-16 00:00:00,17,1021.2,0.6,100,17,0,14.816,,,270,,,,,,,,,,,wg-a,,,,AAXX 16004 07314 32/// /2708 10170 20170 30185 40212 51006 90000=
07314,1999-07-16 06:00:00,17,1021,0.5,82,14,25000,18.52,,,50,16.4,19.6,,,,,,,,,wg-a,,,,AAXX 16064 07314 32/75 20510 10170 20140 30183 40210 53005 80001 90600 333 10196 20164=
07314,1999-07-16 12:00:00,22,1021.6,-0.2,65,15,25000,7.408,,,360,,,,,,,,,,,wg-a,,,,AAXX 16124 07314 32575 13604 10220 20150 30189 40216 58002 81101 91200=
07314,1999-07-16 18:00:00,21,1018.6,-1.5,83,18,25000,22.224,,,330,16.6,22.5,,,,,,,,,wg-a,,,,AAXX 16184 07314 32575 13312 10210 20180 30159 40186 58015 81101 91800 333 10225 20166=
07314,1999-07-17 00:00:00,20,1018.3,-0.5,83,17,0,14.816,,,50,,,,,,,,,,,wg-a,,,,AAXX 17004 07314 32/// /0508 10200 20170 30156 40183 58005 90000=
07314,1999-07-17 06:00:00,19,1016.8,-0.4,83,16,18000,18.52,,,40,18.1,21,,,,,,,,,wg-a,,,,AAXX 17064 07314 32/68 10410 10190 20160 30141 40168 55004 80001 90600 333 10210 20181=
07314,1999-07-17 12:00:00,24,1016.7,-0.1,74,19,25000,11.112,,,300,,,,,,,,,,,wg-a,,,,AAXX 17124 07314 32/75 13006 10240 20190 30140 40167 58001 80001 91200=
07314,1999-07-17 18:00:00,22,1015.4,-0.9,73,17,25000,25.928,,,320,18.6,24.8,,,,,,,,,wg-a,,,,AAXX 17184 07314 32575 53214 10220 20170 30127 40154 56009 84230 91800 333 10248 20186=
07314,1999-07-18 00:00:00,20,1016.1,-0.1,88,18,0,14.816,,,270,,,,,,,,,,,wg-a,,,,AAXX 18004 07314 32/// /2708 10200 20180 30134 40161 58001 90000=
07314,1999-07-18 06:00:00,20,1015.1,-0,94,19,12000,18.52,,,270,19.1,21.9,,,,,,,,,wg-a,,,,AAXX 18064 07314 32862 52710 10200 20190 30124 40151 55000 8/070 90600 333 10219 20191=
07314,1999-07-18 12:00:00,21,1015.8,0.1,94,20,10000,14.816,,,230,,,,,,,,,,,wg-a,,,,AAXX 18124 07314 32860 82308 10210 20200 30131 40158 53001 88070 91200=
07314,1999-07-18 18:00:00,20,1015.1,-0.7,83,17,14000,22.224,,,260,19.7,21.1,,,,,,,,,wg-a,,,,AAXX 18184 07314 32864 82612 10200 20170 30124 40151 56007 88070 91800 333 10211 20197=
07314,1999-07-19 00:00:00,19,1016.3,1,88,17,0,14.816,,,290,,,,,,,,,,,wg-a,,,,AAXX 19004 07314 32/// /2908 10190 20170 30136 40163 50010 90000=
07314,1999-07-19 06:00:00,19,1016.6,0.3,78,15,0,7.408,,,200,17.8,19.9,,,,,,,,,wg-a,,,,AAXX 19064 07314 32/// /2004 10190 20150 30139 40166 53003 90600 333 10199 20178=
07314,1999-07-19 12:00:00,22,1017.8,0.8,73,17,25000,11.112,,,230,,,,,,,,,,,wg-a,,,,AAXX 19124 07314 32675 52306 10220 20170 30151 40178 51008 82260 91200=
07314,1999-07-19 18:00:00,21,1016.9,-0.3,73,16,25000,22.224,,,250,18.5,22.4,,,,,,,,,wg-a,,,,AAXX 19184 07314 32675 22512 10210 20160 30142 40169 56003 82200 91800 333 10224 20185=
07314,1999-07-20 00:00:00,20,1016.6,-0.5,83,17,0,22.224,,,210,,,,,,,,,,,wg-a,,,,AAXX 20004 07314 32/// /2112 10200 20170 30139 40166 58005 90000=
07314,1999-07-20 06:00:00,20,1016.5,0.3,88,18,25000,29.632,,,220,19.6,20.8,,,,,,,,,wg-a,,,,AAXX 20064 07314 32675 72216 10200 20180 30138 40165 53003 874// 90600 333 10208 20196=
07314,1999-07-20 12:00:00,19,1017.9,0.5,100,19,0,14.816,,,260,,,,,,,,,,,wg-a,,,,AAXX 20124 07314 32/// /2608 10190 20190 30152 40179 52005 91200=
07314,1999-07-20 18:00:00,21,1018.3,0.5,88,19,18000,18.52,,,240,19.3,22,,,,,,,,,wg-a,,,,AAXX 20184 07314 32568 42410 10210 20190 30156 40183 51005 84230 91800 333 10220 20193=
07314,1999-07-21 00:00:00,20,1019.2,0.3,94,19,0,22.224,,,260,,,,,,,,,,,wg-a,,,,AAXX 21004 07314 32/// /2612 10200 20190 30165 40192 53003 90000=
07314,1999-07-21 06:00:00,19,1020.5,1.3,88,17,15000,11.112,,,350,18.5,21.2,,,,,,,,,wg-a,,,,AAXX 21064 07314 32565 73506 10190 20170 30178 40205 53013 877// 90600 333 10212 20185=
07314,1999-07-21 12:00:00,21,1022.8,1,64,14,25000,14.816,,,300,,,,,,,,,,,wg-a,,,,AAXX 21124 07314 32575 33008 10210 20140 30201 40228 51010 83130 91200=
07314,1999-07-21 18:00:00,19,1022.1,-0.5,60,11,25000,25.928,,,300,17.7,20.7,,,,,,,,,wg-a,,,,AAXX 21184 07314 32575 23014 10190 20110 30194 40221 56005 82100 91800 333 10207 20177=
07314,1999-07-22 00:00:00,18,1022.8,0.4,73,13,0,22.224,,,330,,,,,,,,,,,wg-a,,,,AAXX 22004 07314 32/// /3312 10180 20130 30201 40228 50004 90000=
07314,1999-07-22 06:00:00,17,1023.7,0.7,68,11,20000,22.224,,,340,16.7,19.4,,,,,,,,,wg-a,,,,AAXX 22064 07314 32570 73412 10170 20110 30209 40237 53007 824// 90600 333 10194 20167=
07314,1999-07-22 12:00:00,19,1024.9,0.3,64,12,0,25.928,,,310,,,,,,,,,,,wg-a,,,,AAXX 22124 07314 32/// /3114 10190 20120 30222 40249 50003 91200=
07314,1999-07-22 18:00:00,18,1024,-0.4,73,13,25000,29.632,,,310,16.9,19.5,,,,,,,,,wg-a,,,,AAXX 22184 07314 32575 53116 10180 20130 30213 40240 56004 81230 91800 333 10195 20169=
07314,1999-07-23 00:00:00,17,1025.5,0.5,72,12,0,25.928,,,10,,,,,,,,,,,wg-a,,,,AAXX 23004 07314 32/// /0114 10170 20120 30227 40255 51005 90000=
07314,1999-07-23 06:00:00,15,1025.5,0.4,88,13,25000,18.52,,,50,14.8,18.3,,,,,,,,,wg-a,,,,AAXX 23064 07314 32/75 40510 10150 20130 30227 40255 53004 80002 90600 333 10183 20148=
07314,1999-07-23 12:00:00,20,1025.7,-0.4,64,13,25000,7.408,,,310,,,,,,,,,,,wg-a,,,,AAXX 23124 07314 32575 63104 10200 20130 30230 40257 58004 82260 91200=
07314,1999-07-23 18:00:00,22,1023.2,-1,65,15,25000,22.224,,,50,15.3,22.8,,,,,,,,,wg-a,,,,AAXX 23184 07314 32875 10512 10220 20150 30205 40232 56010 81020 91800 333 10228 20153=
07314,1999-07-24 00:00:00,19,1023.7,0.1,64,12,0,11.112,,,80,,,,,,,,,,,wg-a,,,,AAXX 24004 07314 32/// /0806 10190 20120 30210 40237 50001 90000=
07314,1999-07-24 06:00:00,18,1022.3,-0,64,11,18000,18.52,,,60,17,22,,,,,,,,,wg-a,,,,AAXX 24064 07314 32/68 00610 10180 20110 30196 40223 55000 80000 90600 333 10220 20170=
07314,1999-07-24 12:00:00,23,1019.9,-1.6,53,13,25000,22.224,,,50,,,,,,,,,,,wg-a,,,,AAXX 24124 07314 32/75 00512 10230 20130 30172 40199 58016 80000 91200=
07314,1999-07-24 18:00:00,24,1016.9,-1.2,57,15,25000,22.224,,,40,17.4,25,,,,,,,,,wg-a,,,,AAXX 24184 07314 32/75 00412 10240 20150 30142 40169 56012 80000 91800 333 10250 20174=
07314,1999-07-25 00:00:00,20,1016.2,-0.8,68,14,0,14.816,,,60,,,,,,,,,,,wg-a,,,,AAXX 25004 07314 32/// /0608 10200 20140 30135 40162 58008 90000=
07314,1999-07-25 06:00:00,19,1015.6,0.5,68,13,0,11.112,,,60,18,24,,,,,,,,,wg-a,,,,AAXX 25064 07314 32/// /0606 10190 20130 30129 40156 53005 90600 333 10240 20180=
07314,1999-07-25 12:00:00,28,1014.6,-0.8,40,13,0,7.408,,,30,,,,,,,,,,,wg-a,,,,AAXX 25124 07314 32/// /0304 10280 20130 30120 40146 56008 91200=
07314,1999-07-25 18:00:00,23,1012.7,-0.7,73,18,28000,18.52,,,310,18.6,27.7,,,,,,,,,wg-a,,,,AAXX 25184 07314 32/78 03110 10230 20180 30100 40127 55007 80000 91800 333 10277 20186=
07314,1999-07-26 00:00:00,20,1013,-0.4,78,16,0,11.112,,,70,,,,,,,,,,,wg-a,,,,AAXX 26004 07314 32/// /0706 10200 20160 30103 40130 56004 90000=
07314,1999-07-26 06:00:00,20,1012.8,0.2,78,16,22000,14.816,,,70,19,23,,,,,,,,,wg-a,,,,AAXX 26064 07314 32/72 20708 10200 20160 30101 40128 53002 81031 90600 333 10230 20190=
07314,1999-07-26 12:00:00,29,1012.9,-0.1,48,17,0,11.112,,,80,,,,,,,,,,,wg-a,,,,AAXX 26124 07314 32/// /0806 10290 20170 30103 40129 58001 91200=
07314,1999-07-26 18:00:00,25,1011.1,-0.9,65,18,25000,18.52,,,310,20.2,30.9,,,,,,,,,wg-a,,,,AAXX 26184 07314 32875 53110 10250 20180 30085 40111 56009 82032 91800 333 10309 20202=
07314,1999-07-27 00:00:00,22,1012.4,0.8,73,17,0,11.112,,,60,,,,,,,,,,,wg-a,,,,AAXX 27004 07314 32/// /0606 10220 20170 30097 40124 53008 90000=
07314,1999-07-27 06:00:00,21,1010.6,-1.1,78,17,18000,22.224,,,50,20.6,27.6,,,,,,,,,wg-a,,,,AAXX 27064 07314 32868 70512 10210 20170 30079 40106 55011 86052 90600 333 10276 20206=
07314,1999-07-27 12:00:00,27,1011.2,-0.3,62,19,18000,14.816,,,140,,,,,,,,,,,wg-a,,,,AAXX 27124 07314 32868 71408 10270 20190 30086 40112 55003 85072 91200=
07314,1999-07-27 18:00:00,21,1012.3,0.2,88,19,20000,18.52,,,200,21.1,27.6,,,,,,,,,wg-a,,,,AAXX 27184 07314 32870 82010 10210 20190 30096 40123 50002 8807/ 91800 333 10276 20211=
07314,1999-07-28 06:00:00,19,1014.6,0.4,100,19,15000,3.704,,,80,18.3,21.2,,,,,,,,,wg-a,,,,AAXX 28064 07314 32865 70802 10190 20190 30119 40146 53004 82032 90600 333 10212 20183=
07314,1999-07-28 12:00:00,23,1015.9,0.3,78,19,20000,7.408,,,20,,,,,,,,,,,wg-a,,,,AAXX 28124 07314 32570 70204 10230 20190 30132 40159 53003 81231 91200=
07314,1999-07-28 17:00:00,22.2,1015.9,0.2,87,19.9,,14.816,,,290,,,,,,,,,,,og-post,,,,AAXX 28174 07314 36/// /2908 10222 20199 30132 40159 53002=
07314,1999-07-28 18:00:00,22,1016.1,0.4,94,21,16000,7.408,,,290,19,24.3,,,,,,,,,wg-a,,,,AAXX 28184 07314 32/66 72904 10220 20210 30134 40161 53004 8203/ 91800 333 10243 20190=
07314,1999-07-29 00:00:00,20,1017,0.1,100,20,0,14.816,,,270,,,,,,,,,,,wg-a,,,,AAXX 29004 07314 32/// /2708 10200 20200 30143 40170 50001 90000=
07314,1999-07-29 06:00:00,20,1017,0.4,100,20,500,7.408,,,330,20,21.9,,,,,,,,,wg-a,,,,AAXX 29064 07314 32/00 23304 10200 20200 30143 40170 53004 8203/ 90600 333 10219 20200=
07314,1999-07-29 12:00:00,24,1017.1,-0.4,78,20,12000,7.408,,,280,,,,,,,,,,,wg-a,,,,AAXX 29124 07314 32/62 02804 10240 20200 30144 40171 58004 80000 91200=
07314,1999-07-30 00:00:00,20,1016.5,-0.1,94,19,0,11.112,,,320,,,,,,,,,,,wg-a,,,,AAXX 30004 07314 32/// /3206 10200 20190 30138 40165 57001 90000=
07314,1999-07-30 06:00:00,20,1015.8,0.2,94,19,6000,14.816,,,330,19.1,22,,,,,,,,,wg-a,,,,AAXX 30064 07314 32856 63308 10200 20190 30131 40158 53002 84012 90600 333 10220 20191=
07314,1999-07-30 12:00:00,22,1016,-0.1,88,20,6000,18.52,,,280,,,,,,,,,,,wg-a,,,,AAXX 30124 07314 32/56 32810 10220 20200 30133 40160 58001 80002 91200=
07314,1999-07-30 18:00:00,21,1014.7,-0.4,88,19,10000,25.928,,,300,19.7,22.1,,,,,,,,,wg-a,,,,AAXX 30184 07314 32560 33014 10210 20190 30120 40147 55004 81902 91800 333 10221 20197=
07314,1999-07-31 00:00:00,19,1014.7,-0.7,94,18,0,14.816,,,320,,,,,,,,,,,wg-a,,,,AAXX 31004 07314 32/// /3208 10190 20180 30120 40147 58007 90000=
07314,1999-07-31 06:00:00,20,1014.2,0.2,94,19,8000,11.112,,,330,18.7,20.6,,,,,,,,,wg-a,,,,AAXX 31064 07314 32/58 33306 10200 20190 30115 40142 53002 80002 90600 333 10206 20187=
07314,1999-07-31 12:00:00,23,1014.2,-0.1,83,20,7000,14.816,,,260,,,,,,,,,,,wg-a,,,,AAXX 31124 07314 32/57 52608 10230 20200 30115 40142 58001 80002 91200=
07314,1999-07-31 18:00:00,21,1013.6,0.1,88,19,500,18.52,,,300,19.4,22.9,,,,,,,,,wg-a,,,,AAXX 31184 07314 32500 43010 10210 20190 30109 40136 53001 81202 91800 333 10229 20194=
07314,1999-08-01 00:00:00,19,1014.6,0.2,94,18,0,7.408,,,270,,,,,,,,,,,wg-a,,,,AAXX 01004 07314 32/// /2704 10190 20180 30119 40146 51002 90000=
07314,1999-08-01 06:00:00,20,1015.3,0.8,88,18,16000,7.408,,,270,19,20.9,,,,,,,,,wg-a,,,,AAXX 01064 07314 32/66 22704 10200 20180 30126 40153 53008 80001 90600 333 10209 20190=
07314,1999-08-01 18:00:00,22,1014,-0.9,83,19,6000,22.224,,,320,19.9,23.4,,,,,,,,,wg-a,,,,AAXX 01184 07314 32/56 43212 10220 20190 30113 40140 56009 80002 91800 333 10234 20199=
07314,1999-08-02 00:00:00,20,1014.4,-0.1,94,19,0,7.408,,,350,,,,,,,,,,,wg-a,,,,AAXX 02004 07314 32/// /3504 10200 20190 30117 40144 58001 90000=
07314,1999-08-02 06:00:00,20,1013.2,-0.4,88,18,18000,14.816,,,330,19.1,21.5,,,,,,,,,wg-a,,,,AAXX 02064 07314 32/68 73308 10200 20180 30105 40132 56004 84032 90600 333 10215 20191=
07314,1999-08-02 12:00:00,20,1014.1,-0.5,88,18,18000,3.704,,,260,,,,4,,,,,,21,wg-a,,,,AAXX 02124 07314 12568 82602 10200 20180 30114 40141 55005 60047 72198 8117/ 91200=
07314,1999-08-02 18:00:00,20,1013.3,-0.3,88,18,20000,14.816,,,220,18.1,20.6,,0,,,,,,25,wg-a,,,,AAXX 02184 07314 12470 42208 10200 20180 30106 40133 58003 60007 72581 82132 91800 333 10206 20181=
07314,1999-08-03 00:00:00,20,1014,0,88,18,0,11.112,,,260,,,,,,,,,,,wg-a,,,,AAXX 03004 07314 32/// /2606 10200 20180 30113 40140 50000 90000=
07314,1999-08-03 06:00:00,20,1013.8,0.4,83,17,22000,7.408,,,250,19,20.6,,,,,,,,,wg-a,,,,AAXX 03064 07314 32572 62504 10200 20170 30111 40138 51004 82262 90600 333 10206 20190=
07314,1999-08-03 12:00:00,24,1013.2,-0.8,69,18,25000,3.704,,,230,,,,,,,,,,,wg-a,,,,AAXX 03124 07314 32575 72302 10240 20180 30105 40132 57008 82202 91200=
07314,1999-08-03 18:00:00,23,1011,-1.3,73,18,28000,11.112,,,340,20.2,24.1,,,,,,,,,wg-a,,,,AAXX 03184 07314 32/78 33406 10230 20180 30083 40110 56013 80001 91800 333 10241 20202=
07314,1999-08-04 00:00:00,21,1009.5,-0.9,88,19,0,11.112,,,80,,,,,,,,,,,wg-a,,,,AAXX 04004 07314 32/// /0806 10210 20190 30068 40095 56009 90000=
07314,1999-08-04 06:00:00,20,1006.2,-1.4,94,19,18000,14.816,,,120,19.7,23.1,,,,,,,,,wg-a,,,,AAXX 04064 07314 32868 81208 10200 20190 30035 40062 56014 8805/ 90600 333 10231 20197=
07314,1999-08-04 18:00:00,22,1008.5,1.8,88,20,12000,29.632,,,260,20.1,24.9,,0,,,,,,25,wg-a,,,,AAXX 04184 07314 12462 82616 10220 20200 30058 40085 51018 60007 72582 888// 91800 333 10249 20201=
07314,1999-08-05 00:00:00,20,1012.2,1.2,83,17,0,29.632,,,250,,,,,,,,,,,wg-a,,,,AAXX 05004 07314 32/// /2516 10200 20170 30095 40122 51012 90000=
07314,1999-08-05 06:00:00,20,1013.3,0.7,83,17,22000,14.816,,,240,19.9,21.6,,,,,,,,,wg-a,,,,AAXX 05064 07314 32572 62408 10200 20170 30106 40133 53007 82202 90600 333 10216 20199=
07314,1999-08-05 12:00:00,23,1014.2,0,69,17,25000,11.112,,,230,,,,,,,,,,,wg-a,,,,AAXX 05124 07314 32575 72306 10230 20170 30115 40142 50000 82232 91200=
07314,1999-08-05 18:00:00,22,1012.5,-1.1,73,17,28000,14.816,,,340,20.3,23.7,,,,,,,,,wg-a,,,,AAXX 05184 07314 32578 43408 10220 20170 30098 40125 56011 81232 91800 333 10237 20203=
07314,1999-08-06 00:00:00,20,1011.5,-1,83,17,0,18.52,,,30,,,,,,,,,,,wg-a,,,,AAXX 06004 07314 32/// /0310 10200 20170 30088 40115 58010 90000=
07314,1999-08-06 06:00:00,20,1007.2,-2.2,83,17,22000,14.816,,,80,19.4,22,,,,,,,,,wg-a,,,,AAXX 06064 07314 32572 30808 10200 20170 30045 40072 56022 82230 90600 333 10220 20194=
07314,1999-08-06 12:00:00,21,1006.4,-1.2,88,19,16000,7.408,,68.524,70,,,,2,,,,,,29,wg-a,,,,AAXX 06124 07314 12566 80704 10210 20190 30037 40064 58012 60027 72998 8497/ 91200 333 91037=
07314,1999-08-06 18:00:00,21,1007.5,0.9,83,18,22000,29.632,,,260,18.6,22.5,,,,,,,,2,wg-a,,,,AAXX 06184 07314 32472 42616 10210 20180 30048 40075 51009 70298 81102 91800 333 10225 20186=
07314,1999-08-07 00:00:00,20,1010,0.3,88,18,0,18.52,,,250,,,,,,,,,,,wg-a,,,,AAXX 07004 07314 32/// /2510 10200 20180 30073 40100 50003 90000=
07314,1999-08-07 06:00:00,19,1008,-1,94,18,18000,7.408,,,110,17.8,20.9,,,,,,,,,wg-a,,,,AAXX 07064 07314 32568 41104 10190 20180 30053 40080 58010 82232 90600 333 10209 20178=
07314,1999-08-07 12:00:00,23,1004.5,-2.6,78,19,20000,18.52,,,80,,,,,,,,,,,wg-a,,,,AAXX 07124 07314 32570 60810 10230 20190 30019 40045 58026 83202 91200=
07314,1999-08-07 18:00:00,21,998.7,-2.8,88,19,10000,11.112,,,200,19.2,27.7,,9,,,,,,97,wg-a,,,,AAXX 07184 07314 12560 82006 10210 20190 39961 49987 56028 60097 79798 8691/ 91800 333 10277 20192=
07314,1999-08-08 00:00:00,21,999.6,0.5,88,19,25000,22.224,,,240,,,,,,,,,,1,wg-a,,,,AAXX 08004 07314 32575 12412 10210 20190 39970 49996 53005 70198 81101 90000=
07314,1999-08-08 06:00:00,21,1000.7,1.1,73,16,20000,35.188,,68.524,220,19.1,21.5,,,,,,,,2,wg-a,,,,AAXX 08064 07314 32470 72219 10210 20160 39980 40007 53011 70282 82963 90600 333 10215 20191 91037=
07314,1999-08-08 12:00:00,21,1002.4,0.7,78,17,20000,14.816,,64.82,180,,,,3,,,,,,29,wg-a,,,,AAXX 08124 07314 12470 31808 10210 20170 39997 40024 51007 60037 72998 82932 91200 333 91035=
07314,1999-08-08 18:00:00,23,1002.3,-0.7,65,16,25000,7.408,,,230,16.9,23.6,,,,,,,,,wg-a,,,,AAXX 08184 07314 32575 32304 10230 20160 39997 40023 58007 81230 91800 333 10236 20169=
07314,1999-08-09 00:00:00,15,1004,0.3,94,14,0,7.408,,,120,,,,,,,,,,,wg-a,,,,AAXX 09004 07314 32/// /1204 10150 20140 30013 40040 51003 90000=
07314,1999-08-09 06:00:00,16,1002.9,0.2,100,16,18000,18.52,,,140,14.4,22.6,,,,,,,,17,wg-a,,,,AAXX 09064 07314 32568 61410 10160 20160 30002 40029 53002 71711 84932 90600 333 10226 20144=
07314,1999-08-09 12:00:00,22,1005.1,0.9,78,18,22000,38.892,,,220,,,,,,,,,,,wg-a,,,,AAXX 09124 07314 32572 72221 10220 20180 30024 40051 51009 8637/ 91200=
07314,1999-08-09 18:00:00,20,1007,1,88,18,16000,35.188,,,240,15.9,21.7,,0,,,,,,25,wg-a,,,,AAXX 09184 07314 12566 52419 10200 20180 30043 40070 51010 60007 72522 8297/ 91800 333 10217 20159=
07314,1999-08-10 00:00:00,20,1010.6,0.8,83,17,0,31.484,,,250,,,,,,,,,,,wg-a,,,,AAXX 10004 07314 32/// /2517 10200 20170 30079 40106 51008 90000=
07314,1999-08-10 06:00:00,20,1013,1.8,83,17,20000,29.632,,,280,19,20.4,,1,,,,,,,wg-a,,,,AAXX 10064 07314 12570 72816 10200 20170 30103 40130 53018 60017 86730 90600 333 10204 20190=
07314,1999-08-10 12:00:00,21,1017,1.8,78,17,22000,29.632,,,290,,,,,,,,,,25,wg-a,,,,AAXX 10124 07314 02572 52916 10210 20170 30143 40170 51018 61000 72582 83232 91200 333 ////=
07314,1999-08-10 18:00:00,20,1019.5,1,73,15,25000,29.632,,,280,18.4,21.2,,,,,,,,,wg-a,,,,AAXX 10184 07314 32575 62816 10200 20150 30168 40195 53010 83232 91800 333 10212 20184=
07314,1999-08-11 00:00:00,19,1021.6,0.3,83,16,0,22.224,,,310,,,,,,,,,,,wg-a,,,,AAXX 11004 07314 32/// /3112 10190 20160 30189 40216 51003 90000=
07314,1999-08-11 06:00:00,19,1021.8,0.4,78,15,20000,3.704,,,290,18.7,20.3,,,,,,,,,wg-a,,,,AAXX 11064 07314 32570 62902 10190 20150 30191 40218 53004 84201 90600 333 10203 20187=
07314,1999-08-11 12:00:00,21,1022.1,-0.2,69,15,22000,3.704,,,230,,,,,,,,,,,wg-a,,,,AAXX 11124 07314 32572 72302 10210 20150 30194 40221 58002 83272 91200=
07314,1999-08-11 18:00:00,20,1020.3,-0.7,68,14,20000,14.816,,,320,19,21.7,,,,,,,,,wg-a,,,,AAXX 11184 07314 32570 73208 10200 20140 30176 40203 58007 83232 91800 333 10217 20190=
07314,1999-08-12 00:00:00,19,1019.9,-0.6,73,14,0,14.816,,,350,,,,,,,,,,,wg-a,,,,AAXX 12004 07314 32/// /3508 10190 20140 30172 40199 58006 90000=
07314,1999-08-12 06:00:00,18,1019.4,-0,73,13,20000,11.112,,,30,17.9,19.7,,,,,,,,,wg-a,,,,AAXX 12064 07314 32670 70306 10180 20130 30167 40194 55000 82230 90600 333 10197 20179=
07314,1999-08-12 12:00:00,21,1020,-0.2,69,15,25000,7.408,,,310,,,,,,,,,,,wg-a,,,,AAXX 12124 07314 32575 63104 10210 20150 30173 40200 58002 82232 91200=
07314,1999-08-12 18:00:00,21,1019.1,-0.2,69,15,0,18.52,,,290,18.1,21.5,,,,,,,,,wg-a,,,,AAXX 12184 07314 32/// /2910 10210 20150 30164 40191 58002 91800 333 10215 20181=
07314,1999-08-13 00:00:00,19,1019.3,-0.9,83,16,0,18.52,,,350,,,,,,,,,,,wg-a,,,,AAXX 13004 07314 32/// /3510 10190 20160 30166 40193 56009 90000=
07314,1999-08-13 06:00:00,18,1018.6,0.3,88,16,20000,11.112,,,330,17.8,20.7,,,,,,,,,wg-a,,,,AAXX 13064 07314 32570 53306 10180 20160 30159 40186 53003 81232 90600 333 10207 20178=
07314,1999-08-13 12:00:00,21,1018.3,-0.5,73,16,24000,7.408,,,270,,,,,,,,,,,wg-a,,,,AAXX 13124 07314 32574 42704 10210 20160 30156 40183 58005 81202 91200=
07314,1999-08-13 18:00:00,21,1016.2,-1.2,73,16,28000,18.52,,,260,18.1,22,,,,,,,,,wg-a,,,,AAXX 13184 07314 32578 52610 10210 20160 30135 40162 58012 81102 91800 333 10220 20181=
07314,1999-08-14 00:00:00,20,1014.8,-0.9,83,17,0,22.224,,,240,,,,,,,,,,,wg-a,,,,AAXX 14004 07314 32/// /2412 10200 20170 30121 40148 57009 90000=
07314,1999-08-14 06:00:00,20,1012.5,-0.9,83,17,20000,29.632,,,230,19.8,21,,,,,,,,,wg-a,,,,AAXX 14064 07314 32570 72316 10200 20170 30098 40125 56009 877// 90600 333 10210 20198=
07314,1999-08-14 12:00:00,19,1012,-0.4,94,18,16000,38.892,,57.412,240,,,,,,,,,,50,wg-a,,,,AAXX 14124 07314 02566 82421 10190 20180 30093 40120 58004 61000 75052 8172/ 91200 333 //// 91031=
07314,1999-08-14 18:00:00,20,1011.8,0.4,78,16,0,35.188,,,270,18.7,21,,,,,,,,,wg-a,,,,AAXX 14184 07314 32/// /2719 10200 20160 30091 40118 53004 91800 333 10210 20187=
07314,1999-08-15 00:00:00,19,1013.8,0.8,68,13,0,29.632,,,290,,,,,,,,,,,wg-a,,,,AAXX 15004 07314 32/// /2916 10190 20130 30111 40138 52008 90000=
07314,1999-08-15 06:00:00,19,1014.4,0.5,73,14,18000,14.816,,,260,18.5,20.4,,,,,,,,,wg-a,,,,AAXX 15064 07314 32568 62608 10190 20140 30117 40144 51005 82460 90600 333 10204 20185=
07314,1999-08-15 12:00:00,21,1014.6,-0,73,16,20000,11.112,,,300,,,,,,,,,,,wg-a,,,,AAXX 15124 07314 32570 63006 10210 20160 30119 40146 55000 85230 91200=
07314,1999-08-15 18:00:00,20,1012.6,-1,73,15,20000,11.112,,,260,18.9,21.2,,,,,,,,,wg-a,,,,AAXX 15184 07314 32570 62606 10200 20150 30099 40126 58010 85264 91800 333 10212 20189=
07314,1999-08-16 00:00:00,19,1012.2,-0.6,73,14,0,7.408,,,310,,,,,,,,,,,wg-a,,,,AAXX 16004 07314 32/// /3104 10190 20140 30095 40122 56006 90000=
07314,1999-08-16 06:00:00,17,1011.1,0.1,88,15,0,7.408,,,100,16.4,20.3,,,,,,,,,wg-a,,,,AAXX 16064 07314 32/// /1004 10170 20150 30084 40111 53001 90600 333 10203 20164=
07314,1999-08-16 12:00:00,17,1011.9,0.2,94,16,10000,11.112,,,50,,,,1,,,,,,61,wg-a,,,,AAXX 16124 07314 12560 70506 10170 20160 30092 40119 51002 60017 76162 8272/ 91200=
07314,1999-08-16 18:00:00,20,1012,0.1,78,16,0,22.224,,,300,16.5,20.5,,,,,,,,,wg-a,,,,AAXX 16184 07314 32/// /3012 10200 20160 30093 40120 53001 91800 333 10205 20165=
07314,1999-08-17 00:00:00,18,1012.9,0,73,13,0,18.52,,,310,,,,,,,,,,,wg-a,,,,AAXX 17004 07314 32/// /3110 10180 20130 30102 40129 50000 90000=
07314,1999-08-17 06:00:00,19,1012.1,-0,68,13,20000,14.816,,,230,17.8,19.5,,,,,,,,,wg-a,,,,AAXX 17064 07314 32570 72308 10190 20130 30094 40121 54000 8622/ 90600 333 10195 20178=
07314,1999-08-17 12:00:00,21,1011.6,-0.5,64,14,20000,22.224,,,230,,,,,,,,,,,wg-a,,,,AAXX 17124 07314 32570 62312 10210 20140 30089 40116 58005 84232 91200=
07314,1999-08-17 18:00:00,20,1009,-1.5,68,14,20000,29.632,,,220,18.7,21.4,,,,,,,,,wg-a,,,,AAXX 17184 07314 32570 72216 10200 20140 30063 40090 58015 84262 91800 333 10214 20187=
07314,1999-08-18 00:00:00,20,1006,-1.9,78,16,0,50.004,,,220,,,,,,,,,,,wg-a,,,,AAXX 18004 07314 32/// /2227 10200 20160 30033 40060 58019 90000=
07314,1999-08-18 06:00:00,20,1006,1,73,15,17000,38.892,,75.932,240,17.6,20.3,,,,,,,,81,wg-a,,,,AAXX 18064 07314 02567 82421 10200 20150 30033 40060 51010 61000 78122 8372/ 90600 333 10203 20176 //// 91041=
07314,1999-08-18 12:00:00,20,1009.2,2,73,15,20000,35.188,,64.82,250,,,,0,,,,,,,wg-a,,,,AAXX 18124 07314 12570 62519 10200 20150 30065 40092 52020 60007 8476/ 91200 333 91035=
07314,1999-08-18 18:00:00,20,1011.9,1.1,60,12,20000,38.892,,,270,17.3,20.5,,,,,,,,25,wg-a,,,,AAXX 18184 07314 02470 62721 10200 20120 30092 40119 53011 61000 72582 84721 91800 333 10205 20173 ////=
07314,1999-08-19 00:00:00,19,1014.6,0.7,73,14,0,22.224,,,270,,,,,,,,,,,wg-a,,,,AAXX 19004 07314 32/// /2712 10190 20140 30119 40146 52007 90000=
07314,1999-08-19 06:00:00,18,1015.9,0.5,73,13,20000,18.52,,,260,17.7,19.8,,0,,,,,,,wg-a,,,,AAXX 19064 07314 12570 62610 10180 20130 30132 40159 53005 60007 85202 90600 333 10198 20177=
07314,1999-08-19 12:00:00,21,1017.7,0.4,73,16,20000,11.112,,,290,,,,,,,,,,,wg-a,,,,AAXX 19124 07314 32570 62906 10210 20160 30150 40177 51004 84231 91200=
07314,1999-08-19 18:00:00,20,1018.1,0.2,64,13,25000,18.52,,,300,18.3,21,,,,,,,,,wg-a,,,,AAXX 19184 07314 32575 43010 10200 20130 30154 40181 51002 83231 91800 333 10210 20183=
07314,1999-08-20 00:00:00,18,1020.3,0.7,68,12,0,18.52,,,330,,,,,,,,,,,wg-a,,,,AAXX 20004 07314 32/// /3310 10180 20120 30176 40203 51007 90000=
07314,1999-08-20 06:00:00,17,1020.6,0.3,82,14,0,18.52,,,10,16.3,19.7,,,,,,,,,wg-a,,,,AAXX 20064 07314 32/// /0110 10170 20140 30179 40206 53003 90600 333 10197 20163=
07314,1999-08-20 12:00:00,20,1021.5,-0.3,64,13,25000,11.112,,,310,,,,,,,,,,,wg-a,,,,AAXX 20124 07314 32575 23106 10200 20130 30188 40215 58003 82102 91200=
07314,1999-08-20 18:00:00,20,1020,-0.9,64,13,25000,22.224,,,310,16.8,21.2,,,,,,,,,wg-a,,,,AAXX 20184 07314 32/75 33112 10200 20130 30173 40200 58009 80003 91800 333 10212 20168=
07314,1999-08-21 00:00:00,18,1020.5,-0.5,83,15,0,22.224,,,20,,,,,,,,,,,wg-a,,,,AAXX 21004 07314 32/// /0212 10180 20150 30178 40205 58005 90000=
07314,1999-08-21 06:00:00,18,1019.3,-0.3,68,12,22000,11.112,,,70,16.9,19.8,,,,,,,,,wg-a,,,,AAXX 21064 07314 32/72 20706 10180 20120 30166 40193 55003 80003 90600 333 10198 20169=
07314,1999-08-21 12:00:00,23,1019.2,-0.7,65,16,25000,11.112,,,350,,,,,,,,,,,wg-a,,,,AAXX 21124 07314 32/75 23506 10230 20160 30165 40192 58007 80002 91200=
07314,1999-08-21 18:00:00,24,1017.2,-0.9,61,16,25000,18.52,,,40,17.6,25.9,,,,,,,,,wg-a,,,,AAXX 21184 07314 32/75 20410 10240 20160 30145 40172 57009 80002 91800 333 10259 20176=
07314,1999-08-22 00:00:00,20,1017.8,-0.1,64,13,0,25.928,,,80,,,,,,,,,,,wg-a,,,,AAXX 22004 07314 32/// /0814 10200 20130 30151 40178 58001 90000=
07314,1999-08-22 06:00:00,17,1016.9,0.1,72,12,25000,22.224,,,80,17,23.6,,,,,,,,,wg-a,,,,AAXX 22064 07314 32/75 20812 10170 20120 30142 40169 53001 80002 90600 333 10236 20170=
07314,1999-08-22 12:00:00,23,1016.6,-0.1,61,15,25000,7.408,,,40,,,,,,,,,,,wg-a,,,,AAXX 22124 07314 32/75 40404 10230 20150 30139 40166 58001 80002 91200=
07314,1999-08-22 18:00:00,23,1015.6,-0.4,78,19,0,11.112,,,280,17.4,24.8,,,,,,,,,wg-a,,,,AAXX 22184 07314 32/// /2806 10230 20190 30129 40156 57004 91800 333 10248 20174=
07314,1999-08-23 06:00:00,20,1016.4,0.6,88,18,20000,14.816,,,300,20,22.6,,,,,,,,,wg-a,,,,AAXX 23064 07314 32570 73008 10200 20180 30137 40164 53006 8416/ 90600 333 10226 20200=
07314,1999-08-23 12:00:00,22,1017.3,0.3,78,18,25000,7.408,,,240,,,,,,,,,,,wg-a,,,,AAXX 23124 07314 32575 62404 10220 20180 30146 40173 51003 82232 91200=
07314,1999-08-23 18:00:00,22,1016,-0.6,78,18,20000,7.408,,,310,20.2,23.6,,,,,,,,,wg-a,,,,AAXX 23184 07314 32/70 33104 10220 20180 30133 40160 56006 80003 91800 333 10236 20202=
07314,1999-08-24 00:00:00,20,1015.4,-0.9,94,19,0,14.816,,,50,,,,,,,,,,,wg-a,,,,AAXX 24004 07314 32/// /0508 10200 20190 30127 40154 56009 90000=
07314,1999-08-24 06:00:00,20,1013.7,-0.4,83,17,20000,14.816,,,80,19.8,21.9,,,,,,,,,wg-a,,,,AAXX 24064 07314 32/70 00808 10200 20170 30110 40137 56004 80000 90600 333 10219 20198=
07314,1999-08-24 12:00:00,25,1013.1,-1.1,74,20,18000,7.408,,,10,,,,,,,,,,,wg-a,,,,AAXX 24124 07314 32/68 10104 10250 20200 30105 40131 58011 81030 91200=
07314,1999-08-24 18:00:00,25,1011.3,-0.9,79,21,0,11.112,,,340,20.2,26.7,,,,,,,,,wg-a,,,,AAXX 24184 07314 32/// /3406 10250 20210 30087 40113 56009 91800 333 10267 20202=
07314,1999-08-25 00:00:00,22,1010.9,-1.3,94,21,0,11.112,,,70,,,,,,,,,,,wg-a,,,,AAXX 25004 07314 32/// /0706 10220 20210 30082 40109 58013 90000=
07314,1999-08-25 06:00:00,22,1009.4,-0.2,94,21,12000,18.52,,,130,21.3,25,,,,,,,,,wg-a,,,,AAXX 25064 07314 32/62 41310 10220 20210 30067 40094 55002 84030 90600 333 10250 20213=
07314,1999-08-25 12:00:00,22,1011.3,0.9,94,21,500,29.632,,,200,,,,,,,,,,,wg-a,,,,AAXX 25124 07314 32/00 72016 10220 20210 30086 40113 51009 87030 91200=
07314,1999-08-25 18:00:00,22,1013.6,1,88,20,12000,7.408,,,220,21.6,23.2,,,,,,,,,wg-a,,,,AAXX 25184 07314 32/62 72204 10220 20200 30109 40136 53010 87030 91800 333 10232 20216=
07314,1999-08-26 00:00:00,21,1014.2,-0,94,20,0,11.112,,,320,,,,,,,,,,,wg-a,,,,AAXX 26004 07314 32/// /3206 10210 20200 30115 40142 55000 90000=
07314,1999-08-26 06:00:00,21,1016.1,1.5,88,19,22000,7.408,,,290,20.5,21.8,,,,,,,,,wg-a,,,,AAXX 26064 07314 32572 32904 10210 20190 30134 40161 53015 82230 90600 333 10218 20205=
07314,1999-08-26 12:00:00,23,1017.7,0.7,78,19,25000,14.816,,,280,,,,,,,,,,,wg-a,,,,AAXX 26124 07314 32575 52808 10230 20190 30150 40177 50007 82230 91200=
07314,1999-08-27 00:00:00,19,1020.1,0.6,88,17,0,18.52,,,340,,,,,,,,,,,wg-a,,,,AAXX 27004 07314 32/// /3410 10190 20170 30174 40201 52006 90000=
07314,1999-08-27 06:00:00,18,1019.8,-0,83,15,22000,14.816,,,30,18,20.9,,,,,,,,,wg-a,,,,AAXX 27064 07314 32/72 40308 10180 20150 30171 40198 55000 84030 90600 333 10209 20180=
07314,1999-08-27 12:00:00,23,1020.5,-0.5,65,16,25000,11.112,,,300,,,,,,,,,,,wg-a,,,,AAXX 27124 07314 32/75 43006 10230 20160 30178 40205 57005 82082 91200=
07314,1999-08-27 18:00:00,22,1020.1,0.1,73,17,25000,29.632,,,320,18.4,24.3,,,,,,,,,wg-a,,,,AAXX 27184 07314 32/75 73216 10220 20170 30174 40201 53001 86072 91800 333 10243 20184=
07314,1999-08-28 00:00:00,21,1021.5,0.3,73,16,0,18.52,,,40,,,,,,,,,,,wg-a,,,,AAXX 28004 07314 32/// /0410 10210 20160 30188 40215 52003 90000=
07314,1999-08-28 06:00:00,19,1022,0.3,78,15,20000,18.52,,,60,18.8,21.8,,,,,,,,,wg-a,,,,AAXX 28064 07314 32/70 20610 10190 20150 30193 40220 51003 82030 90600 333 10218 20188=
07314,1999-08-28 12:00:00,25,1022,-0.5,61,17,25000,11.112,,,20,,,,,,,,,,,wg-a,,,,AAXX 28124 07314 32/75 20206 10250 20170 30193 40220 58005 81031 91200=
07314,1999-08-28 18:00:00,23,1020.2,-1,65,16,25000,25.928,,,360,19.2,25.6,,,,,,,,,wg-a,,,,AAXX 28184 07314 32/75 13614 10230 20160 30175 40202 56010 80002 91800 333 10256 20192=
07314,1999-08-29 00:00:00,20,1021.1,-0.5,78,16,0,18.52,,,30,,,,,,,,,,,wg-a,,,,AAXX 29004 07314 32/// /0310 10200 20160 30184 40211 58005 90000=
07314,1999-08-29 06:00:00,19,1020,-0.3,73,14,18000,18.52,,,50,18.7,23.1,,,,,,,,,wg-a,,,,AAXX 29064 07314 32/68 10510 10190 20140 30173 40200 56003 80001 90600 333 10231 20187=
07314,1999-08-29 12:00:00,23,1020,-0.6,69,17,22000,11.112,,,300,,,,,,,,,,,wg-a,,,,AAXX 29124 07314 32/72 13006 10230 20170 30173 40200 58006 80001 91200=
07314,1999-08-29 18:00:00,22,1019.2,-0.3,83,19,18000,22.224,,,320,18.8,24,,,,,,,,,wg-a,,,,AAXX 29184 07314 32/68 53212 10220 20190 30165 40192 56003 80004 91800 333 10240 20188=
07314,1999-08-30 00:00:00,21,1019.3,-0.5,73,16,0,18.52,,,360,,,,,,,,,,,wg-a,,,,AAXX 30004 07314 32/// /3610 10210 20160 30166 40193 58005 90000=
07314,1999-08-30 06:00:00,19,1019,0.1,83,16,16000,11.112,,,40,19.4,21.9,,,,,,,,,wg-a,,,,AAXX 30064 07314 32/66 60406 10190 20160 30163 40190 53001 83032 90600 333 10219 20194=
07314,1999-08-30 12:00:00,24,1019,-0.7,61,16,18000,11.112,,,300,,,,,,,,,,,wg-a,,,,AAXX 30124 07314 32/68 23006 10240 20160 30163 40190 58007 80002 91200=
07314,1999-08-30 18:00:00,22,1017.6,-0.3,83,19,20000,25.928,,,320,19.4,25.1,,,,,,,,,wg-a,,,,AAXX 30184 07314 32/70 13214 10220 20190 30149 40176 56003 80002 91800 333 10251 20194=
07314,1999-08-31 00:00:00,20,1018.7,0.2,83,17,0,25.928,,,20,,,,,,,,,,,wg-a,,,,AAXX 31004 07314 32/// /0214 10200 20170 30160 40187 53002 90000=
07314,1999-08-31 06:00:00,19,1018.6,0.4,83,16,18000,22.224,,,30,18.5,22,,,,,,,,,wg-a,,,,AAXX 31064 07314 32568 70312 10190 20160 30159 40186 53004 8213/ 90600 333 10220 20185=
07314,1999-08-31 12:00:00,25,1019.5,-0.1,65,18,20000,7.408,,,360,,,,,,,,,,,wg-a,,,,AAXX 31124 07314 32570 13604 10250 20180 30168 40195 58001 81100 91200=
07314,1999-08-31 18:00:00,22,1018.2,-0.5,83,19,18000,25.928,,,320,18.6,25.2,,,,,,,,,wg-a,,,,AAXX 31184 07314 32/68 13214 10220 20190 30155 40182 56005 80001 91800 333 10252 20186=
07314,1999-09-01 00:00:00,16.6,1015,0.6,78,12.7,,23,,,280,,,,,,,,,,,,,,,
07314,1999-09-01 01:00:00,15.8,1015.3,0.4,80,12.4,,25,61.116,,280,,,0.2,,,,,,,,,,,,
07314,1999-09-01 02:00:00,15.1,1016,0.9,87,13,,25,64.82,64.82,280,,,,,,,,,,,,,,,
07314,1999-09-01 03:00:00,16.5,1015.1,0.1,82,13.4,,25,64.82,,270,,,,0.2,,,,,,,,,,,
07314,1999-09-01 04:00:00,16.7,1015.2,-0.1,81,13.4,,17,,,270,,,,,,,,,,,,,,,
07314,1999-09-01 05:00:00,16.6,1015.5,-0.5,80,13.1,,19,61.116,,260,,,,,,,,,,,,,,,
07314,1999-09-01 06:00:00,15.6,1015.9,0.8,91,14.1,9260,16,64.82,,250,14.7,17.9,,0.2,,,,,,25,,,,8,
07314,1999-09-01 07:00:00,15.3,1016.6,1.4,94,14.3,,17,,,260,,,0.8,,,,,,,,,,,,
07314,1999-09-01 08:00:00,16.4,1016.9,1.4,84,13.7,,21,,,260,,,,,,,,,,,,,,,
07314,1999-09-01 09:00:00,17.1,1016.9,1,76,12.8,,17,,,250,,,,0.8,,,,,,15,,,,8,
07314,1999-09-01 10:00:00,17.3,1017,0.4,81,14,,21,,,260,,,,,,,,,,,,,,,
07314,1999-09-01 11:00:00,17,1016.7,-0.2,82,13.9,,19,,,250,,,,,,,,,,,,,,,
07314,1999-09-01 12:00:00,16.8,1016.4,-0.5,78,13,24076,17,,,250,,,,,,,,,,2,,,,7,
07314,1999-09-01 15:00:00,17.4,1014.9,-1.5,79,13.7,14816,16,,,250,,,,0.2,,,,,,15,,,,7,
07314,1999-09-01 16:00:00,17.5,1014.8,-1,78,13.6,,16,,,250,,,,,,,,,,,,,,,
07314,1999-09-01 17:00:00,17.3,1014.3,-1.1,84,14.6,,16,,,230,,,,,,,,,,,,,,,
07314,1999-09-01 18:00:00,16.9,1014.1,-0.8,82,13.8,24076,19,,,220,15,17.8,,,,,,,,15,,,,7,
07314,1999-09-02 00:00:00,21,1018.9,-0.5,78,17,0,22.224,,,40,,,,,,,,,,,wg-a,,,,AAXX 02004 07314 32/// /0412 10210 20170 30162 40189 56005 90000=
07314,1999-09-02 06:00:00,20,1018,-0.2,73,15,16000,14.816,,,60,19.5,23.8,,,,,,,,,wg-a,,,,AAXX 02064 07314 32/66 20608 10200 20150 30153 40180 55002 80001 90600 333 10238 20195=
07314,1999-09-02 12:00:00,26,1016.8,-1.4,54,16,20000,18.52,,,50,,,,,,,,,,,wg-a,,,,AAXX 02124 07314 32/70 10510 10260 20160 30142 40168 58014 80001 91200=
07314,1999-09-02 18:00:00,24,1013.9,-1,65,17,20000,18.52,,,40,19.6,26.9,,,,,,,,,wg-a,,,,AAXX 02184 07314 32/70 00410 10240 20170 30112 40139 57010 80000 91800 333 10269 20196=
07314,1999-09-03 00:00:00,22,1013.6,-0.7,73,17,0,25.928,,,40,,,,,,,,,,,wg-a,,,,AAXX 03004 07314 32/// /0414 10220 20170 30109 40136 56007 90000=
07314,1999-09-03 06:00:00,19,1012.5,-0.1,64,12,20000,25.928,,,40,18.8,24.1,,,,,,,,,wg-a,,,,AAXX 03064 07314 32/70 10414 10190 20120 30098 40125 55001 80001 90600 333 10241 20188=
07314,1999-09-03 12:00:00,22,1013.4,0,57,13,25000,18.52,,,10,,,,,,,,,,,wg-a,,,,AAXX 03124 07314 32/75 60110 10220 20130 30107 40134 50000 85042 91200=
07314,1999-09-03 18:00:00,21,1013.1,0.2,83,18,20000,25.928,,,330,18.7,23,,,,,,,,,wg-a,,,,AAXX 03184 07314 32/70 53314 10210 20180 30104 40131 53002 80002 91800 333 10230 20187=
07314,1999-09-04 00:00:00,20,1014.6,-0.1,68,14,0,18.52,,,30,,,,,,,,,,,wg-a,,,,AAXX 04004 07314 32/// /0310 10200 20140 30119 40146 58001 90000=
07314,1999-09-04 06:00:00,18,1015.3,0.8,73,13,22000,11.112,,,70,17.5,20.8,,,,,,,,,wg-a,,,,AAXX 04064 07314 32/72 20706 10180 20130 30126 40153 53008 80002 90600 333 10208 20175=
07314,1999-09-04 12:00:00,23,1015.8,-0.6,65,16,22000,7.408,,,360,,,,,,,,,,,wg-a,,,,AAXX 04124 07314 32/72 13604 10230 20160 30131 40158 58006 80002 91200=
07314,1999-09-04 18:00:00,21,1014.2,-0.7,88,19,22000,14.816,,,310,17.6,23.7,,,,,,,,,wg-a,,,,AAXX 04184 07314 32/72 13108 10210 20190 30115 40142 56007 81030 91800 333 10237 20176=
07314,1999-09-05 00:00:00,20,1013.7,-1.3,88,18,0,3.704,,,10,,,,,,,,,,,wg-a,,,,AAXX 05004 07314 32/// /0102 10200 20180 30110 40137 58013 90000=
07314,1999-09-05 06:00:00,18,1012.6,-0.1,88,16,18000,11.112,,,110,17.9,21.4,,,,,,,,,wg-a,,,,AAXX 05064 07314 32/68 11106 10180 20160 30099 40126 55001 80002 90600 333 10214 20179=
07314,1999-09-05 12:00:00,23,1012.8,-0.6,73,18,18000,14.816,,,190,,,,,,,,,,,wg-a,,,,AAXX 05124 07314 32568 51908 10230 20180 30101 40128 58006 82232 91200=
07314,1999-09-05 18:00:00,22,1010.9,-0.5,88,20,13000,3.704,,,200,17.9,24.5,,,,,,,,,wg-a,,,,AAXX 05184 07314 32/63 32002 10220 20200 30082 40109 55005 81032 91800 333 10245 20179=
07314,1999-09-06 00:00:00,21,1011.8,0.6,94,20,0,14.816,,,240,,,,,,,,,,,wg-a,,,,AAXX 06004 07314 32/// /2408 10210 20200 30091 40118 53006 90000=
07314,1999-09-06 06:00:00,20,1012.1,0.7,94,19,16000,11.112,,,220,20.1,22.1,,0,,,,,,,wg-a,,,,AAXX 06064 07314 12/66 22206 10200 20190 30094 40121 53007 60007 80001 90600 333 10221 20201=
07314,1999-09-06 12:00:00,23,1014.2,1,73,18,18000,14.816,,,270,,,,,,,,,,,wg-a,,,,AAXX 06124 07314 32568 12708 10230 20180 30115 40142 51010 81100 91200=
07314,1999-09-06 18:00:00,21,1014.3,0.1,83,18,18000,18.52,,,300,20.2,22.7,,,,,,,,,wg-a,,,,AAXX 06184 07314 32568 23010 10210 20180 30116 40143 53001 82100 91800 333 10227 20202=
07314,1999-09-07 00:00:00,20,1015.8,-0.1,83,17,0,22.224,,,250,,,,,,,,,,,wg-a,,,,AAXX 07004 07314 32/// /2512 10200 20170 30131 40158 58001 90000=
07314,1999-09-07 06:00:00,19,1016.4,0.8,78,15,14000,14.816,,,280,19.1,20.5,,,,,,,,,wg-a,,,,AAXX 07064 07314 32564 32808 10190 20150 30137 40164 53008 82130 90600 333 10205 20191=
07314,1999-09-07 12:00:00,22,1018.9,0.7,65,15,18000,18.52,,,250,,,,,,,,,,,wg-a,,,,AAXX 07124 07314 32568 42510 10220 20150 30162 40189 51007 82230 91200=
07314,1999-09-07 18:00:00,21,1019.6,0.1,73,16,0,11.112,,,310,19.1,22.6,,,,,,,,,wg-a,,,,AAXX 07184 07314 32/// /3106 10210 20160 30169 40196 51001 91800 333 10226 20191=
07314,1999-09-08 00:00:00,19,1020.7,-0.3,83,16,0,7.408,,,280,,,,,,,,,,,wg-a,,,,AAXX 08004 07314 32/// /2804 10190 20160 30180 40207 58003 90000=
07314,1999-09-08 06:00:00,16,1019.4,-0.6,100,16,15000,7.408,,,110,16.1,20.5,,,,,,,,,wg-a,,,,AAXX 08064 07314 32/65 21104 10160 20160 30167 40194 58006 80002 90600 333 10205 20161=
07314,1999-09-08 12:00:00,22,1018.8,-0.8,69,16,20000,7.408,,,210,,,,,,,,,,,wg-a,,,,AAXX 08124 07314 32/70 02104 10220 20160 30161 40188 58008 80000 91200=
07314,1999-09-08 18:00:00,22,1018.4,0.1,73,17,22000,7.408,,,320,16.3,22.9,,,,,,,,,wg-a,,,,AAXX 08184 07314 32/72 03204 10220 20170 30157 40184 53001 80000 91800 333 10229 20163=
07314,1999-09-09 00:00:00,19,1020,0.5,88,17,0,3.704,,,60,,,,,,,,,,,wg-a,,,,AAXX 09004 07314 32/// /0602 10190 20170 30173 40200 52005 90000=
07314,1999-09-09 12:00:00,24,1024.4,0.5,69,18,8000,7.408,,,20,,,,,,,,,,,wg-a,,,,AAXX 09124 07314 32558 60204 10240 20180 30217 40244 51005 81202 91200=
07314,1999-09-09 18:00:00,22,1023.5,-0.4,88,20,10000,18.52,,,320,17.7,24.7,,,,,,,,,wg-a,,,,AAXX 09184 07314 32/60 63210 10220 20200 30208 40235 56004 80002 91800 333 10247 20177=
07314,1999-09-10 00:00:00,21,1023.9,-0.1,88,19,0,14.816,,,50,,,,,,,,,,,wg-a,,,,AAXX 10004 07314 32/// /0508 10210 20190 30212 40239 58001 90000=
07314,1999-09-10 06:00:00,20,1023.1,-0.1,88,18,0,11.112,,,90,19.6,21.6,,,,,,,,,wg-a,,,,AAXX 10064 07314 32/// /0906 10200 20180 30204 40231 55001 90600 333 10216 20196=
07314,1999-09-10 12:00:00,27,1022.3,-1.2,54,17,11000,7.408,,,40,,,,,,,,,,,wg-a,,,,AAXX 10124 07314 32/61 30404 10270 20170 30196 40223 58012 80002 91200=
07314,1999-09-10 18:00:00,24,1019,-1.2,74,19,0,14.816,,,350,19.7,27.3,,,,,,,,,wg-a,,,,AAXX 10184 07314 32/// /3508 10240 20190 30163 40190 56012 91800 333 10273 20197=
07314,1999-09-11 00:00:00,22,1018.1,-0.8,69,16,0,11.112,,,100,,,,,,,,,,,wg-a,,,,AAXX 11004 07314 32/// /1006 10220 20160 30154 40181 58008 90000=
07314,1999-09-11 06:00:00,19,1016.9,-0.2,83,16,16000,11.112,,,120,19.1,23.5,,,,,,,,,wg-a,,,,AAXX 11064 07314 32/66 31206 10190 20160 30142 40169 55002 80002 90600 333 10235 20191=
07314,1999-09-11 12:00:00,24,1016.9,-0,74,19,16000,18.52,,,190,,,,,,,,,,,wg-a,,,,AAXX 11124 07314 32/66 41910 10240 20190 30142 40169 54000 80002 91200=
07314,1999-09-11 18:00:00,22,1016.6,0.1,94,21,0,22.224,,,300,19.1,26.1,,,,,,,,,wg-a,,,,AAXX 11184 07314 32/// /3012 10220 20210 30139 40166 53001 91800 333 10261 20191=
07314,1999-09-12 00:00:00,20,1018.5,0.6,88,18,0,14.816,,,280,,,,,,,,,,,wg-a,,,,AAXX 12004 07314 32/// /2808 10200 20180 30158 40185 51006 90000=
07314,1999-09-12 06:00:00,21,1017.7,-0.1,88,19,20000,11.112,,,180,20.1,21.9,,,,,,,,15,wg-a,,,,AAXX 12064 07314 32470 71806 10210 20190 30150 40177 55001 71511 8472/ 90600 333 10219 20201=
07314,1999-09-12 12:00:00,21,1016.9,-1.1,88,19,22000,7.408,,,40,,,,,,,,,,25,wg-a,,,,AAXX 12124 07314 02472 70404 10210 20190 30142 40169 58011 61000 72582 8472/ 91200 333 ////=
07314,1999-09-12 18:00:00,20,1014.9,-0.6,73,15,0,31.484,,,350,19.2,22.9,,,,,,,,,wg-a,,,,AAXX 12184 07314 32/// /3517 10200 20150 30122 40149 56006 91800 333 10229 20192=
07314,1999-09-13 00:00:00,16,1013.6,-0.8,94,15,20000,29.632,,,350,,,,3,,,,,,29,wg-a,,,,AAXX 13004 07314 12470 73516 10160 20150 30109 40136 58008 60037 72998 8292/ 90000=
07314,1999-09-13 06:00:00,14,1012.3,-0.6,94,13,0,25.928,,,10,14.2,19.6,,,,,,,,,wg-a,,,,AAXX 13064 07314 32/// /0114 10140 20130 30096 40123 55006 90600 333 10196 20142=
07314,1999-09-14 00:00:00,15,1009.6,-0.2,100,15,0,46.3,,,340,,,,,,,,,,,wg-a,,,,AAXX 14004 07314 32/// /3425 10150 20150 30069 40096 58002 90000=
07314,1999-09-14 06:00:00,15,1012.6,1.4,94,14,20000,29.632,,,330,14.4,16.2,,,,,,,,21,wg-a,,,,AAXX 14064 07314 02470 73316 10150 20140 30099 40126 53014 61000 72182 86130 90600 333 10162 20144 ////=
07314,1999-09-14 12:00:00,18,1015.1,0.5,73,13,25000,14.816,,,310,,,,,,,,,,,wg-a,,,,AAXX 14124 07314 32475 63108 10180 20130 30124 40151 51005 84102 91200=
07314,1999-09-14 15:00:00,18.1,1015.2,0.1,64,11.2,25000,14.816,,,310,,,,,,,,,,,og-post,,,,AAXX 14154 07314 32575 63108 10181 20112 30125 40152 53001 83202 222// 328// 333 92448=
07314,1999-09-14 16:00:00,18,1015.5,0.4,63,10.9,,14.816,,,300,,,,,,,,,,,og-post,,,,AAXX 14164 07314 36/// /3008 10180 20109 30128 40155 53004=
07314,1999-09-14 17:00:00,18.1,1015.5,0.5,65,11.4,,14.816,,,300,,,,,,,,,,,og-post,,,,AAXX 14174 07314 36/// /3008 10181 20114 30128 40155 51005=
07314,1999-09-14 18:00:00,17.5,1015.5,0.3,70,12,25000,14.816,,,310,14.9,18.9,,,,,,,,,og-post,,,,AAXX 14184 07314 32975 33108 10175 20120 30128 40155 51003 82032 222// 328// 333 10189 20149 92438=
07314,1999-09-14 19:00:00,17.3,1015.8,0.3,72,12.2,,18.52,,,310,,,,,,,,,,,og-post,,,,AAXX 14194 07314 36/// /3110 10173 20122 30131 40158 53003=
07314,1999-09-14 20:00:00,17.5,1016.2,0.7,72,12.4,,18.52,,,310,,,,,,,,,,,og-post,,,,AAXX 14204 07314 36/// /3110 10175 20124 30135 40162 53007=
07314,1999-09-14 21:00:00,17.4,1016.1,0.6,73,12.5,25000,22.224,,,10,,,,,,,,,,,og-post,,,,AAXX 14214 07314 32975 20112 10174 20125 30134 40161 50006 81031 222// 328// 333 92438=
07314,1999-09-14 22:00:00,16.7,1016.2,0.4,79,13,,22.224,,,30,,,,,,,,,,,og-post,,,,AAXX 14224 07314 36/// /0312 10167 20130 30135 40162 51004=
07314,1999-09-14 23:00:00,16.3,1016.5,0.3,74,11.7,,22.224,,,30,,,,,,,,,,,og-post,,,,AAXX 14234 07314 36/// /0312 10163 20117 30138 40165 53003=
07314,1999-09-15 00:00:00,15.8,1016.5,0.4,80,12.4,,18.52,,,50,,,,,,,,,,,og-post,,,,AAXX 15004 07314 36/// /0510 10158 20124 30138 40165 51004=
07314,1999-09-15 01:00:00,15.4,1016.2,0,81,12.2,,14.816,,,50,,,,,,,,,,,og-post,,,,AAXX 15014 07314 36/// /0508 10154 20122 30135 40162 50000=
07314,1999-09-15 02:00:00,14.9,1016.1,-0.4,85,12.4,,18.52,,,30,,,,,,,,,,,og-post,,,,AAXX 15024 07314 36/// /0310 10149 20124 30134 40161 58004=
07314,1999-09-15 03:00:00,15.1,1015.8,-0.7,78,11.3,,22.224,,,30,,,,,,,,,,,og-post,,,,AAXX 15034 07314 36/// /0312 10151 20113 30131 40158 57007=
07314,1999-09-15 06:00:00,14,1016.1,0.2,82,11,25000,18.52,,,30,14.4,17.6,,,,,,,,,wg-a,,,,AAXX 15064 07314 32/75 10310 10140 20110 30133 40161 53002 81030 90600 333 10176 20144=
07314,1999-09-15 12:00:00,19,1017.2,-0.1,60,11,25000,7.408,,,340,,,,,,,,,,,wg-a,,,,AAXX 15124 07314 32575 23404 10190 20110 30145 40172 58001 81101 91200=
07314,1999-09-15 18:00:00,18,1016.5,0.2,56,9,25000,7.408,,,270,14.4,19,,,,,,,,,wg-a,,,,AAXX 15184 07314 32575 22704 10180 20090 30138 40165 52002 81101 91800 333 10190 20144=
07314,1999-09-16 00:00:00,14,1016,-0.7,63,7,0,11.112,,,140,,,,,,,,,,,wg-a,,,,AAXX 16004 07314 32/// /1406 10140 20070 30132 40160 57007 90000=
07314,1999-09-16 06:00:00,13,1013.7,-1.1,94,12,25000,18.52,,,140,12.3,17.9,,,,,,,,,wg-a,,,,AAXX 16064 07314 32575 21410 10130 20120 30109 40137 56011 81101 90600 333 10179 20123=
07314,1999-09-16 12:00:00,20,1013,-1.1,83,17,18000,31.484,,,170,,,,,,,,,,15,wg-a,,,,AAXX 16124 07314 32568 81717 10200 20170 30103 40130 56011 71511 8112/ 91200=
07314,1999-09-16 18:00:00,17.6,1013,0.2,76,13.3,,7.408,,,250,12.7,20.8,,,,0.2,,,,,og-post,,,,AAXX 16184 07314 16/// /2504 10176 20133 30103 40130 53002 69922 333 10208 20127=
07314,1999-09-16 19:00:00,18,1013,-0,80,14.5,,7.408,,,220,,,,,,,,,,,og-post,,,,AAXX 16194 07314 36/// /2204 10180 20145 30103 40130 55000=
07314,1999-09-16 20:00:00,17.1,1013.2,0.5,82,14,,7.408,,,150,,,,,,,,,,,og-post,,,,AAXX 16204 07314 36/// /1504 10171 20140 30105 40132 51005=
07314,1999-09-16 21:00:00,16.1,1012.7,-0.3,92,14.8,22000,7.408,,,140,,,,,,,,,,,og-post,,,,AAXX 16214 07314 32572 71404 10161 20148 30100 40127 58003 82230 222// 328// 333 92437=
07314,1999-09-16 22:00:00,16.2,1012.1,-0.9,93,15.1,,7.408,,,150,,,0.6,,,,,,,,og-post,,,,AAXX 16224 07314 26/// /1504 10162 20151 30094 40121 58009 333 69965=
07314,1999-09-16 23:00:00,16.8,1012.2,-1,83,13.9,,18.52,,,200,,,1,,,,,,,,og-post,,,,AAXX 16234 07314 26/// /2010 10168 20139 30095 40122 55010 333 60015=
07314,1999-09-17 00:00:00,16.4,1012.4,-0.3,91,14.9,12000,25.928,,,190,,,,4,4,,,,,,og-post,,,,AAXX 17004 07314 /2662 71914 10164 20149 30097 40124 55003 60041 8702/ 222// 328// 333 60047 92437=
07314,1999-09-17 01:00:00,16.4,1011.8,-0.3,96,15.8,,22.224,,,200,,,2,,,,,,,,og-post,,,,AAXX 17014 07314 26/// /2012 10164 20158 30091 40118 58003 333 60025=
07314,1999-09-17 02:00:00,16.7,1011.2,-1,86,14.3,,18.52,,,210,,,0.8,,,,,,,,og-post,,,,AAXX 17024 07314 26/// /2110 10167 20143 30085 40112 58010 333 69985=
07314,1999-09-17 03:00:00,17.6,1011,-1.4,84,14.9,,22.224,,,200,,,,3,,,,,,,og-post,,,,AAXX 17034 07314 26/// /2012 10176 20149 30083 40110 56014 333 60037=
07314,1999-09-17 04:00:00,17.8,1011,-0.8,82,14.7,,25.928,,,240,,,,,,,,,,,og-post,,,,AAXX 17044 07314 36/// /2414 10178 20147 30083 40110 56008=
07314,1999-09-17 05:00:00,18.2,1010.9,-0.3,78,14.3,,14.816,,,280,,,,,,,,,,,og-post,,,,AAXX 17054 07314 36/// /2808 10182 20143 30082 40109 56003=
07314,1999-09-17 06:00:00,18,1011.2,0.2,75,13.5,20000,25.928,,,310,16,18.2,,,,7,,,,,og-post,,,,AAXX 17064 07314 12570 73114 10180 20135 30085 40112 53002 60072 8332/ 222// 328// 333 10182 20160 92438=
07314,1999-09-17 07:00:00,18.1,1011.7,0.7,73,13.2,,14.816,,,280,,,,,,,,,,,og-post,,,,AAXX 17074 07314 36/// /2808 10181 20132 30090 40117 53007=
07314,1999-09-17 08:00:00,18.7,1011.7,0.8,71,13.3,,14.816,,,270,,,,,,,,,,,og-post,,,,AAXX 17084 07314 36/// /2708 10187 20133 30090 40117 51008=
07314,1999-09-17 09:00:00,19.1,1011.9,0.7,69,13.3,22000,14.816,,,260,,,,,,,,,,,og-post,,,,AAXX 17094 07314 32572 42608 10191 20133 30092 40119 51007 83201 222// 328// 333 92438=
07314,1999-09-17 11:00:00,19.5,1011.7,0,64,12.5,,14.816,,,240,,,,,,,,,,,og-post,,,,AAXX 17114 07314 36/// /2408 10195 20125 30090 40117 50000=
07314,1999-09-17 12:00:00,18.7,1011.5,-0.4,71,13.3,22000,14.816,,,240,,,,,,,,,,,og-post,,,,AAXX 17124 07314 32472 72408 10187 20133 30088 40115 58004 84202 222// 328// 333 92438=
07314,1999-09-17 13:00:00,19.4,1011.7,-0.2,69,13.6,,18.52,,,220,,,,,,,,,,,og-post,,,,AAXX 17134 07314 36/// /2210 10194 20136 30090 40117 55002=
07314,1999-09-17 14:00:00,19.4,1011.3,-0.4,70,13.8,,18.52,,,230,,,,,,,,,,,og-post,,,,AAXX 17144 07314 36/// /2310 10194 20138 30086 40113 58004=
07314,1999-09-17 15:00:00,19.2,1011.2,-0.3,74,14.5,25000,18.52,,,240,,,,,,,,,,,og-post,,,,AAXX 17154 07314 32475 72410 10192 20145 30085 40112 58003 82262 222// 328// 333 92438=
07314,1999-09-17 16:00:00,17.9,1011,-0.7,70,12.4,,31.484,,,240,,,,,,,,,,,og-post,,,,AAXX 17164 07314 36/// /2417 10179 20124 30083 40110 56007=
07314,1999-09-17 17:00:00,18,1011.1,-0.2,70,12.4,,14.816,,,230,,,0.2,,,,,,,,og-post,,,,AAXX 17174 07314 26/// /2308 10180 20124 30084 40111 55002 333 69925=
07314,1999-09-17 18:00:00,18.2,1010.8,-0.4,65,11.5,25000,22.224,,,250,16.9,20,,0.2,,0.2,,,,,og-post,,,,AAXX 17184 07314 /2475 52512 10182 20115 30081 40108 58004 69922 81262 222// 328// 333 10200 20169 69927 92438=
07314,1999-09-17 19:00:00,18.2,1011.1,0.1,71,12.9,,22.224,,,240,,,,,,,,,,,og-post,,,,AAXX 17194 07314 36/// /2412 10182 20129 30084 40111 53001=
07314,1999-09-18 00:00:00,18,1009.7,-1.5,77,14,0,18.52,,,220,,,,,,,,,,,wg-a,,,,AAXX 18004 07314 32/// /2210 10180 20140 30070 40097 56015 90000=
07314,1999-09-18 06:00:00,17,1007.4,-1,88,15,10000,14.816,,,140,16,18.4,,,,,,,,15,wg-a,,,,AAXX 18064 07314 32460 71408 10170 20150 30047 40074 56010 71522 86270 90600 333 10184 20160=
07314,1999-09-18 12:00:00,21,1004.5,-1.9,60,13,20000,35.188,,,170,,,,,,,,,,,wg-a,,,,AAXX 18124 07314 32870 71719 10210 20130 30018 40045 56019 8407/ 91200=
07314,1999-09-18 18:00:00,20,999.5,-2.3,68,14,15000,31.484,,,160,16.6,21.4,,,,,,,,15,wg-a,,,,AAXX 18184 07314 32865 81617 10200 20140 39968 49995 56023 71522 8802/ 91800 333 10214 20166=
07314,1999-09-19 00:00:00,17,996.2,-1.6,94,16,0,25.928,,,190,,,,7,,,,,,,wg-a,,,,AAXX 19004 07314 12/// /1914 10170 20160 39935 49962 56016 60077 90000=
07314,1999-09-19 06:00:00,16,993.6,-0.5,94,15,12000,18.52,,,150,15.9,20,,0,,,,,,15,wg-a,,,,AAXX 19064 07314 12462 71510 10160 20150 39909 49936 55005 60007 71562 8272/ 90600 333 10200 20159=
07314,1999-09-19 12:00:00,19,990.1,-1.9,78,15,15000,29.632,,,170,,,,,,,,,,15,wg-a,,,,AAXX 19124 07314 32465 71716 10190 20150 39875 49901 58019 71522 8422/ 91200=
07314,1999-09-19 18:00:00,17,988.5,-0.7,88,15,18000,31.484,,,280,13.9,20.8,,10,,,,,,29,wg-a,,,,AAXX 19184 07314 12468 72817 10170 20150 39858 49885 55007 60107 72998 8297/ 91800 333 10208 20139=
07314,1999-09-20 00:00:00,18,991.1,1.5,73,13,0,35.188,,,260,,,,,,,,,,,wg-a,,,,AAXX 20004 07314 32/// /2619 10180 20130 39884 49911 51015 90000=
07314,1999-09-20 06:00:00,16,992.2,0.9,88,14,18000,31.484,,,220,15.9,17.8,,1,,,,,,81,wg-a,,,,AAXX 20064 07314 12568 72217 10160 20140 39895 49922 53009 60017 78182 8237/ 90600 333 10178 20159=
07314,1999-09-20 18:00:00,17,993.9,-0.8,94,16,6000,61.116,,100.008,220,14.7,18.5,,8,,,,,,92,wg-a,,,,AAXX 20184 07314 12456 82233 10170 20160 39912 49939 55008 60087 79298 8537/ 91800 333 10185 20147 91054=
07314,1999-09-21 00:00:00,18,998.5,2.9,83,15,0,38.892,,,250,,,,,,,,,,,wg-a,,,,AAXX 21004 07314 32/// /2521 10180 20150 39958 49985 51029 90000=
07314,1999-09-21 06:00:00,18,1000.1,0.2,77,14,16000,31.484,,,220,15.5,18.5,,,,,,,,,wg-a,,,,AAXX 21064 07314 32566 72217 10180 20140 39974 40001 51002 83270 90600 333 10185 20155=
07314,1999-09-21 12:00:00,18,999.3,-0.7,100,18,4000,35.188,,79.636,180,,,,11,,,,,,65,wg-a,,,,AAXX 21124 07314 12540 81819 10180 20180 39966 49993 56007 60117 76586 8372/ 91200 333 91043=
07314,1999-09-21 18:00:00,19,1002,1.8,94,18,0,38.892,,,220,16.7,19.9,,,,,,,,,wg-a,,,,AAXX 21184 07314 02/// /2221 10190 20180 39993 40020 53018 61000 91800 333 10199 20167 ////=
07314,1999-09-22 00:00:00,19,1003.8,0.5,94,18,0,14.816,,,180,,,,,,,,,,,wg-a,,,,AAXX 22004 07314 32/// /1808 10190 20180 30011 40038 51005 90000=
07314,1999-09-22 06:00:00,20,1002.2,-1.1,88,18,15000,31.484,,,180,17.4,19.6,,,,,,,,,wg-a,,,,AAXX 22064 07314 32865 81817 10200 20180 39995 40022 56011 8407/ 90600 333 10196 20174=
07314,1999-09-22 12:00:00,21,1003.8,0.4,78,17,18000,38.892,,,170,,,,,,,,,,,wg-a,,,,AAXX 22124 07314 32868 81721 10210 20170 30011 40038 50004 8807/ 91200=
07314,1999-09-22 18:00:00,20,1005.6,1,88,18,18000,0,,,0,19.6,22,,,,,,,,17,wg-a,,,,AAXX 22184 07314 32468 80000 10200 20180 30029 40056 51010 71722 8/97/ 91800 333 10220 20196=
07314,1999-09-23 00:00:00,18,1008.4,2,88,16,0,18.52,,,240,,,,,,,,,,,wg-a,,,,AAXX 23004 07314 32/// /2410 10180 20160 30057 40084 51020 90000=
07314,1999-09-23 06:00:00,18,1010.4,1.4,94,17,9000,14.816,,,180,17.3,19.7,,1,,,,,,15,wg-a,,,,AAXX 23064 07314 12459 61808 10180 20170 30077 40104 51014 60017 71582 85820 90600 333 10197 20173=
07314,1999-09-23 12:00:00,21,1012.8,0.7,88,19,20000,25.928,,,190,,,,,,,,,,2,wg-a,,,,AAXX 23124 07314 32470 21914 10210 20190 30101 40128 53007 70260 82230 91200=
07314,1999-09-23 18:00:00,20,1014.7,0.7,83,17,20000,14.816,,,200,16.5,23.7,,,,,,,,,wg-a,,,,AAXX 23184 07314 32470 32008 10200 20170 30120 40147 53007 81232 91800 333 10237 20165=
07314,1999-09-24 00:00:00,16,1016.1,0.2,94,15,0,14.816,,,130,,,,,,,,,,,wg-a,,,,AAXX 24004 07314 32/// /1308 10160 20150 30134 40161 51002 90000=
07314,1999-09-24 06:00:00,16,1015.3,-0.3,94,15,20000,14.816,,,160,15.4,20,,,,,,,,,wg-a,,,,AAXX 24064 07314 32/70 61608 10160 20150 30126 40153 56003 84072 90600 333 10200 20154=
07314,1999-09-24 12:00:00,21,1016.9,0.1,78,17,0,7.408,,,240,,,,,,,,,,,wg-a,,,,AAXX 24124 07314 32/// /2404 10210 20170 30142 40169 51001 91200=
07314,1999-09-24 18:00:00,19,1015.9,-0.7,83,16,22000,0,,,0,15.6,22.7,,,,,,,,,wg-a,,,,AAXX 24184 07314 32/72 80000 10190 20160 30132 40159 56007 86072 91800 333 10227 20156=
07314,1999-09-25 00:00:00,19,1015.8,-0.4,94,18,0,3.704,,,290,,,,,,,,,,,wg-a,,,,AAXX 25004 07314 32/// /2902 10190 20180 30131 40158 58004 90000=
07314,1999-09-25 06:00:00,17,1014,-0.7,94,16,11000,14.816,,,150,16.8,19.3,,1,,,,,,,wg-a,,,,AAXX 25064 07314 12/61 71508 10170 20160 30113 40140 58007 60017 86072 90600 333 10193 20168=
07314,1999-09-25 12:00:00,18,1012.3,-1.6,94,17,8000,46.3,,,210,,,,1,,,,,,95,wg-a,,,,AAXX 25124 07314 12558 82125 10180 20170 30096 40123 58016 60017 79522 839// 91200=
07314,1999-09-25 18:00:00,18,1010.3,-0.9,88,16,9000,31.484,,,230,16.8,19.9,,0,,,,,,81,wg-a,,,,AAXX 25184 07314 12559 72317 10180 20160 30076 40103 56009 60007 78182 8577/ 91800 333 10199 20168=
07314,1999-09-26 00:00:00,17,1011.7,0.4,82,14,0,14.816,,,250,,,,,,,,,,,wg-a,,,,AAXX 26004 07314 32/// /2508 10170 20140 30090 40117 50004 90000=
07314,1999-09-26 12:00:00,19,1011.8,0.3,78,15,20000,29.632,,,230,,,,,,,,,,,wg-a,,,,AAXX 26124 07314 32570 72316 10190 20150 30091 40118 51003 85231 91200=
07314,1999-09-26 18:00:00,18,1010.7,-0.5,83,15,25000,31.484,,,230,16.5,19.2,,,,,,,,,wg-a,,,,AAXX 26184 07314 32575 62317 10180 20150 30080 40107 56005 83732 91800 333 10192 20165=
07314,1999-09-27 00:00:00,19,1010.2,-0.6,78,15,0,29.632,,,210,,,,,,,,,,,wg-a,,,,AAXX 27004 07314 32/// /2116 10190 20150 30075 40102 58006 90000=
07314,1999-09-27 06:00:00,19,1006.6,-1.2,83,16,17000,25.928,,,190,17.8,19.2,,1,,,,,,25,wg-a,,,,AAXX 27064 07314 12567 81914 10190 20160 30039 40066 56012 60017 72522 8177/ 90600 333 10192 20178=
07314,1999-09-27 12:00:00,19,1008.3,1.2,78,15,18000,31.484,,,260,,,,7,,,,,,25,wg-a,,,,AAXX 27124 07314 12468 72617 10190 20150 30056 40083 51012 60077 72598 81320 91200=
07314,1999-09-27 18:00:00,19,1008.7,0.2,78,15,7000,31.484,,,250,17.2,19.7,,0,,,,,,25,wg-a,,,,AAXX 27184 07314 12457 72517 10190 20150 30060 40087 53002 60007 72522 8622/ 91800 333 10197 20172=
07314,1999-09-27 20:00:00,18.7,1008.9,0.5,80,15.2,,35.188,,,240,,,,,,,,,,,og-post,,,,AAXX 27204 07314 36/// /2419 10187 20152 30062 40089 51005=
07314,1999-09-27 21:00:00,18.7,1009.2,0.5,80,15.2,17000,38.892,,,240,,,,,,,,,,,og-post,,,,AAXX 27214 07314 32467 82421 10187 20152 30065 40092 53005 882// 222// 328// 333 92457=
07314,1999-09-27 22:00:00,18.8,1009.1,0.3,79,15.1,,46.3,64.82,64.82,240,,,,,,,,,,,og-post,,,,AAXX 27224 07314 36/// /2425 10188 20151 30064 40091 50003 333 91035 91135=
07314,1999-09-27 23:00:00,18.7,1009,0.1,79,15,,42.596,,,230,,,,,,,,,,,og-post,,,,AAXX 27234 07314 36/// /2323 10187 20150 30063 40090 50001=
07314,1999-09-28 00:00:00,18.8,1008.8,-0.4,79,15.1,,42.596,64.82,,240,,,,,,,,,,,og-post,,,,AAXX 28004 07314 36/// /2423 10188 20151 30061 40088 58004 333 91135=
07314,1999-09-28 01:00:00,18.7,1009.1,-0,80,15.2,,46.3,64.82,,240,,,,,,,,,,,og-post,,,,AAXX 28014 07314 36/// /2425 10187 20152 30064 40091 55000 333 91135=
07314,1999-09-28 02:00:00,18.7,1008.9,-0.1,82,15.6,,46.3,68.524,,250,,,,,,,,,,,og-post,,,,AAXX 28024 07314 36/// /2525 10187 20156 30062 40089 57001 333 91137=
07314,1999-09-28 03:00:00,18.7,1008.8,0,81,15.4,,42.596,68.524,,260,,,,0.2,,,,,,,og-post,,,,AAXX 28034 07314 26/// /2623 10187 20154 30061 40088 50000 333 69927 91137=
07314,1999-09-28 04:00:00,18.8,1009.2,0.1,81,15.5,,46.3,,,260,,,,,,,,,,,og-post,,,,AAXX 28044 07314 36/// /2625 10188 20155 30065 40092 53001=
07314,1999-09-28 05:00:00,18.8,1009.2,0.3,80,15.3,,46.3,,,260,,,,,,,,,,,og-post,,,,AAXX 28054 07314 36/// /2625 10188 20153 30065 40092 53003=
07314,1999-09-28 06:00:00,18.8,1010.3,1.5,81,15.5,10000,42.596,68.524,,260,18.5,18.9,,,,0.2,,,,,og-post,,,,AAXX 28064 07314 12460 82623 10188 20155 30076 40103 53015 69922 848// 222// 328// 333 10189 20185 91137 92447=
07314,1999-09-28 09:00:00,18.1,1013.1,2.8,86,15.7,16000,22.224,,,280,,,,,,,,,,21,og-post,,,,AAXX 28094 07314 31666 82812 10181 20157 30104 40131 51028 72162 8242/ 222// 328// 333 92447=
07314,1999-09-28 12:00:00,19.2,1013.8,0.7,87,17,12000,31.484,,,250,,,,0.2,0.2,,,,,25,og-post,,,,AAXX 28124 07314 /1462 82517 10192 20170 30111 40138 51007 69921 72586 888// 222// 328// 333 69927 92457=
07314,1999-09-28 14:00:00,19.4,1013.7,-0.1,84,16.6,,35.188,,,240,,,,,,,,,,,og-post,,,,AAXX 28144 07314 36/// /2419 10194 20166 30110 40137 55001=
07314,1999-09-28 16:00:00,19.2,1013.5,-0.1,83,16.2,,38.892,,,240,,,,,,,,,,,og-post,,,,AAXX 28164 07314 36/// /2421 10192 20162 30108 40135 58001=
07314,1999-09-28 18:00:00,19.1,1014,0.4,81,15.8,14000,38.892,,,230,17.3,19.6,,,,0.2,,,,,og-post,,,,AAXX 28184 07314 12564 72321 10191 20158 30113 40140 53004 69922 8383/ 222// 328// 333 10196 20173 92457=
07314,1999-09-28 20:00:00,19,1014.1,0.3,82,15.9,,35.188,,,230,,,,,,,,,,,og-post,,,,AAXX 28204 07314 36/// /2319 10190 20159 30114 40141 51003=
07314,1999-09-28 21:00:00,19.1,1014.3,0.3,84,16.3,16000,35.188,,,230,,,,,,,,,,,og-post,,,,AAXX 28214 07314 32566 52319 10191 20163 30116 40143 53003 8223/ 222// 328// 333 92457=
07314,1999-09-28 22:00:00,19.2,1014.2,0.2,83,16.2,,31.484,,,230,,,,,,,,,,,og-post,,,,AAXX 28224 07314 36/// /2317 10192 20162 30115 40142 50002=
07314,1999-09-28 23:00:00,19.2,1014.1,0,85,16.6,,31.484,,,220,,,,,,,,,,,og-post,,,,AAXX 28234 07314 36/// /2217 10192 20166 30114 40141 50000=
07314,1999-09-29 00:00:00,19,1013.5,-0.8,86,16.6,,31.484,,,210,,,,,,,,,,,og-post,,,,AAXX 29004 07314 36/// /2117 10190 20166 30108 40135 58008=
07314,1999-09-29 01:00:00,19.1,1013.3,-0.9,87,16.9,,35.188,,,210,,,,,,,,,,,og-post,,,,AAXX 29014 07314 36/// /2119 10191 20169 30106 40133 58009=
07314,1999-09-29 02:00:00,19.3,1012.9,-1.2,85,16.7,,38.892,,,210,,,,,,,,,,,og-post,,,,AAXX 29024 07314 36/// /2121 10193 20167 30102 40129 56012=
07314,1999-09-29 03:00:00,19.2,1012.2,-1.3,86,16.8,,42.596,,,200,,,,,,,,,,,og-post,,,,AAXX 29034 07314 36/// /2023 10192 20168 30095 40122 58013=
07314,1999-09-29 04:00:00,19.3,1011.5,-1.8,84,16.5,,42.596,,,200,,,,,,,,,,,og-post,,,,AAXX 29044 07314 36/// /2023 10193 20165 30088 40115 58018=
07314,1999-09-29 05:00:00,19.4,1011.2,-1.7,81,16.1,,42.596,,,200,,,,,,,,,,,og-post,,,,AAXX 29054 07314 36/// /2023 10194 20161 30085 40112 56017=
07314,1999-09-29 07:00:00,19.6,1011.4,-0.1,81,16.2,,42.596,,,200,,,,,,,,,,,og-post,,,,AAXX 29074 07314 36/// /2023 10196 20162 30087 40114 55001=
07314,1999-09-29 08:00:00,19.7,1011.3,0.1,82,16.5,,42.596,,,200,,,,,,,,,,,og-post,,,,AAXX 29084 07314 36/// /2023 10197 20165 30086 40113 50001=
07314,1999-09-29 09:00:00,19.7,1011.3,0.1,80,16.2,17000,42.596,,,210,,,,,,,,,,,og-post,,,,AAXX 29094 07314 32967 82123 10197 20162 30086 40113 51001 8805/ 222// 328// 333 92447=
07314,1999-09-29 10:00:00,19.5,1011.3,-0.1,83,16.5,,42.596,,,220,,,0.2,,,,,,,,og-post,,,,AAXX 29104 07314 26/// /2223 10195 20165 30086 40113 56001 333 69925=
07314,1999-09-29 11:00:00,19.1,1011.2,-0.1,86,16.7,,38.892,61.116,,230,,,0.2,,,,,,,,og-post,,,,AAXX 29114 07314 26/// /2321 10191 20167 30085 40112 58001 333 69925 91133=
07314,1999-09-29 12:00:00,18.1,1010.8,-0.5,97,17.6,4000,46.3,,,220,,,,3,3,,,,,63,og-post,,,,AAXX 29124 07314 /1540 82225 10181 20176 30081 40108 58005 60031 76362 8272/ 222// 328// 333 60037 92446=
07314,1999-09-29 13:00:00,18.5,1010.3,-1,95,17.7,,42.596,,,220,,,,,,,,,,,og-post,,,,AAXX 29134 07314 26/// /2223 10185 20177 30076 40103 58010 333 69905=
07314,1999-09-29 14:00:00,18.3,1009.3,-1.9,95,17.5,,38.892,,,220,,,0.4,,,,,,,,og-post,,,,AAXX 29144 07314 26/// /2221 10183 20175 30066 40093 58019 333 69945=
07314,1999-09-29 15:00:00,18.9,1008.4,-2.4,90,17.2,6000,42.596,,,220,,,,0.6,,,,,,63,og-post,,,,AAXX 29154 07314 21556 82223 10189 20172 30057 40084 58024 76362 8272/ 222// 328// 333 69967 92446=
07314,1999-09-29 16:00:00,18.2,1008,-2.3,98,17.9,,42.596,72.228,,220,,,1,,,,,,,,og-post,,,,AAXX 29164 07314 26/// /2223 10182 20179 30053 40080 56023 333 60015 91139=
07314,1999-09-29 17:00:00,18.2,1007.6,-1.7,98,17.9,,46.3,,,220,,,3,,,,,,,,og-post,,,,AAXX 29174 07314 26/// /2225 10182 20179 30049 40076 56017 333 60035=
07314,1999-09-29 18:00:00,17.3,1007.6,-0.8,98,17,3000,38.892,72.228,,260,17.2,19.9,,12,,16,,,,63,og-post,,,,AAXX 29184 07314 /1530 82621 10173 20170 30049 40076 56008 60162 76362 8372/ 222// 328// 333 10199 20172 60127 91139 92445=
07314,1999-09-29 19:00:00,17.6,1007.4,-0.6,97,17.1,,31.484,,,220,,,4,,,,,,,,og-post,,,,AAXX 29194 07314 26/// /2217 10176 20171 30047 40074 56006 333 60045=
07314,1999-09-29 20:00:00,17.6,1007,-0.6,95,16.8,,35.188,,,230,,,3,,,,,,,,og-post,,,,AAXX 29204 07314 26/// /2319 10176 20168 30043 40070 58006 333 60035=
07314,1999-09-29 21:00:00,17.5,1005.6,-2,93,16.4,,25.928,,,240,,,,7,,,,,,,og-post,,,,AAXX 29214 07314 26/// /2414 10175 20164 30029 40056 58020 333 60077=
07314,1999-09-29 22:00:00,16.6,1004.4,-3,93,15.5,,18.52,,,220,,,4,,,,,,,,og-post,,,,AAXX 29224 07314 26/// /2210 10166 20155 30017 40044 58030 333 60045=
07314,1999-09-29 23:00:00,16,1003.8,-3.2,97,15.5,,14.816,,,180,,,9,,,,,,,,og-post,,,,AAXX 29234 07314 26/// /1808 10160 20155 30011 40038 56032 333 60095=
07314,1999-09-30 00:00:00,16,1003.8,-1.8,98,15.7,,14.816,,,190,,,,27,34,,,,,,og-post,,,,AAXX 30004 07314 /6/// /1908 10160 20157 30011 40038 56018 60341 333 60277=
07314,1999-09-30 01:00:00,17.2,1002.6,-1.8,99,17,,31.484,,,190,,,8,,,,,,,,og-post,,,,AAXX 30014 07314 26/// /1917 10172 20170 39999 40026 58018 333 60085=
07314,1999-09-30 02:00:00,17.7,1001.3,-2.5,92,16.4,,35.188,,,230,,,1,,,,,,,,og-post,,,,AAXX 30024 07314 26/// /2319 10177 20164 39986 40013 58025 333 60015=
07314,1999-09-30 03:00:00,18.1,1000.3,-3.5,85,15.5,,50.004,,,230,,,,9,,,,,,,og-post,,,,AAXX 30034 07314 26/// /2327 10181 20155 39976 40003 56035 333 60097=
07314,1999-09-30 04:00:00,17.4,1000.8,-1.8,80,13.9,,53.708,83.34,,260,,,0.2,,,,,,,,og-post,,,,AAXX 30044 07314 26/// /2629 10174 20139 39981 40008 55018 333 69925 91145=
07314,1999-09-30 05:00:00,17.8,1001.2,-0.1,69,12,,53.708,,,260,,,,,,,,,,,og-post,,,,AAXX 30054 07314 36/// /2629 10178 20120 39985 40012 55001=
07314,1999-09-30 06:00:00,16.6,1001.7,1.4,82,13.5,16000,50.004,83.34,72.228,240,15.9,18.3,,0.2,,44,,,,2,og-post,,,,AAXX 30064 07314 /1566 62427 10166 20135 39990 40017 52014 60442 70262 85770 222// 328// 333 10183 20159 69927 91039 91145 92457=
07314,1999-09-30 07:00:00,16.3,1001.8,1,88,14.3,,46.3,,,250,,,0.4,,,,,,,,og-post,,,,AAXX 30074 07314 26/// /2525 10163 20143 39991 40018 51010 333 69945=
07314,1999-09-30 08:00:00,17.9,1002.5,,77,13.8,,46.3,,,270,,,,,,,,,,,og-post,,,,AAXX 30084 07314 36/// /2725 10179 20138 39998 4002553013=
07314,1999-09-30 09:00:00,18.1,1003.8,2.1,76,13.8,16000,53.708,75.932,,280,,,,1,,,,,,2,og-post,,,,AAXX 30094 07314 21466 62829 10181 20138 30011 40038 53021 70282 81330 222// 328// 333 60017 91141 92457=
07314,1999-09-30 10:00:00,17.8,1004.8,3,80,14.3,,53.708,75.932,,270,,,,,,,,,,,og-post,,,,AAXX 30104 07314 36/// /2729 10178 20143 30021 40048 53030 333 91141=
07314,1999-09-30 11:00:00,18.2,1005.8,3.3,83,15.3,,46.3,,,280,,,,,,,,,,,og-post,,,,AAXX 30114 07314 36/// /2825 10182 20153 30031 40058 51033=
07314,1999-09-30 12:00:00,17.5,1006.4,2.6,87,15.3,16000,50.004,75.932,68.524,270,,,,,1,,,,,2,og-post,,,,AAXX 30124 07314 11466 62727 10175 20153 30037 40064 51026 60011 70282 82330 222// 328// 333 91037 91141 92457=
07314,1999-09-30 13:00:00,17.6,1007.6,2.8,89,15.8,,42.596,,,280,,,0.2,,,,,,,,og-post,,,,AAXX 30134 07314 26/// /2823 10176 20158 30049 40076 53028 333 69925=
07314,1999-09-30 14:00:00,18.5,1008.5,2.7,82,15.4,,46.3,68.524,68.524,290,,,,,,,,,,,og-post,,,,AAXX 30144 07314 36/// /2925 10185 20154 30058 40085 53027 333 91037 91137=
07314,1999-09-30 15:00:00,18,1009.6,3.2,78,14.1,12000,42.596,,68.524,290,,,,0.2,,,,,,2,og-post,,,,AAXX 30154 07314 21462 72923 10180 20141 30069 40096 51032 70282 8337/ 222// 328// 333 69927 91037 92457=
07314,1999-09-30 16:00:00,18.2,1010.4,2.8,81,14.9,,46.3,68.524,,290,,,,,,,,,,,og-post,,,,AAXX 30164 07314 36/// /2925 10182 20149 30077 40104 51028 333 91137=
07314,1999-09-30 17:00:00,17.7,1011.2,2.7,80,14.2,,42.596,,,290,,,,,,,,,,,og-post,,,,AAXX 30174 07314 36/// /2923 10177 20142 30085 40112 51027=
07314,1999-09-30 18:00:00,17.7,1012.1,2.5,80,14.2,10000,46.3,,,270,16.2,18.8,,,,1,,,,2,og-post,,,,AAXX 30184 07314 11460 82725 10177 20142 30094 40121 53025 60012 70282 8237/ 222// 328// 333 10188 20162 92457=
07314,1999-09-30 19:00:00,16.4,1013.1,2.7,82,13.3,,46.3,,,290,,,,,,,,,,,og-post,,,,AAXX 30194 07314 36/// /2925 10164 20133 30104 40131 53027=
07314,1999-09-30 20:00:00,16.8,1014.3,3.1,83,13.9,,35.188,,,290,,,,,,,,,,,og-post,,,,AAXX 30204 07314 36/// /2919 10168 20139 30116 40143 53031=
07314,1999-09-30 21:00:00,17.5,1014.4,2.3,71,12.2,15000,46.3,,,280,,,,,,,,,,,og-post,,,,AAXX 30214 07314 32465 72825 10175 20122 30117 40144 51023 8137/ 222// 328// 333 92457=
07314,1999-09-30 22:00:00,17.4,1014.9,1.8,71,12.1,,42.596,,,280,,,,,,,,,,,og-post,,,,AAXX 30224 07314 36/// /2823 10174 20121 30122 40149 51018=
07314,1999-09-30 23:00:00,17.3,1015.1,0.8,73,12.4,,42.596,,,270,,,,,,,,,,,og-post,,,,AAXX 30234 07314 36/// /2723 10173 20124 30124 40151 53008=
07314,1999-10-01 00:00:00,16.6,1015,0.6,78,12.7,,42.596,,,280,,,,,,,,,,,og-post,,,,AAXX 01004 07314 36/// /2823 10166 20127 30123 40150 50006=
07314,1999-10-01 01:00:00,15.8,1015.3,0.4,80,12.4,,46.3,61.116,,280,,,0.2,,,,,,,,og-post,,,,AAXX 01014 07314 26/// /2825 10158 20124 30126 40153 53004 333 69925 91133=
07314,1999-10-01 02:00:00,15.1,1016,0.9,87,13,,46.3,64.82,64.82,280,,,,,,,,,,,og-post,,,,AAXX 01024 07314 36/// /2825 10151 20130 30133 40160 53009 333 91035 91135=
07314,1999-10-01 03:00:00,16.5,1015.1,0.1,82,13.4,,46.3,64.82,,270,,,,0.2,,,,,,,og-post,,,,AAXX 01034 07314 26/// /2725 10165 20134 30124 40151 50001 333 69927 91135=
07314,1999-10-01 04:00:00,16.7,1015.2,-0.1,81,13.4,,31.484,,,270,,,,,,,,,,,og-post,,,,AAXX 01044 07314 36/// /2717 10167 20134 30125 40152 58001=
07314,1999-10-01 05:00:00,16.6,1015.5,-0.5,80,13.1,,35.188,61.116,,260,,,,,,,,,,,og-post,,,,AAXX 01054 07314 36/// /2619 10166 20131 30128 40155 55005 333 91133=
07314,1999-10-01 06:00:00,15.6,1015.9,0.8,91,14.1,8000,29.632,64.82,,250,14.7,17.9,,0.2,,0.4,,,,25,og-post,,,,AAXX 01064 07314 /1458 82516 10156 20141 30132 40159 53008 69942 72522 888// 222// 328// 333 10179 20147 69927 91135 92456=
07314,1999-10-01 07:00:00,15.3,1016.6,1.4,94,14.3,,31.484,,,260,,,0.8,,,,,,,,og-post,,,,AAXX 01074 07314 26/// /2617 10153 20143 30139 40166 53014 333 69985=
07314,1999-10-01 08:00:00,16.4,1016.9,1.4,84,13.7,,38.892,,,260,,,,,,,,,,,og-post,,,,AAXX 01084 07314 36/// /2621 10164 20137 30142 40169 51014=
07314,1999-10-01 09:00:00,17.1,1016.9,1,76,12.8,15000,31.484,,,250,,,,0.8,,,,,,15,og-post,,,,AAXX 01094 07314 21465 82517 10171 20128 30142 40169 51010 71582 888// 222// 328// 333 69987 92457=
07314,1999-10-01 10:00:00,17.3,1017,0.4,81,14,,38.892,,,260,,,,,,,,,,,og-post,,,,AAXX 01104 07314 36/// /2621 10173 20140 30143 40170 51004=
07314,1999-10-01 11:00:00,17,1016.7,-0.2,82,13.9,,35.188,,,250,,,,,,,,,,,og-post,,,,AAXX 01114 07314 36/// /2519 10170 20139 30140 40167 58002=
07314,1999-10-01 12:00:00,16.8,1016.4,-0.5,78,13,20000,31.484,,,250,,,,,0.8,,,,,2,og-post,,,,AAXX 01124 07314 11470 72517 10168 2013 30137 40164 58005 69981 70282 8786/ 222// 328// 333 92458=
07314,1999-10-01 15:00:00,17.4,1014.9,-1.5,79,13.7,12000,29.632,,,250,,,,0.2,,,,,,15,og-post,,,,AAXX 01154 07314 21462 72516 10174 20137 30122 40149 56015 71522 8682/ 222// 328// 333 69927 92448=
07314,1999-10-01 16:00:00,17.5,1014.8,-1,78,13.6,,29.632,,,250,,,,,,,,,,,og-post,,,,AAXX 01164 07314 36/// /2516 10175 20136 30121 40148 56010=
07314,1999-10-01 17:00:00,17.3,1014.3,-1.1,84,14.6,,29.632,,,230,,,,,,,,,,,og-post,,,,AAXX 01174 07314 36/// /2316 10173 20146 30116 40143 57011=
07314,1999-10-01 18:00:00,16.9,1014.1,-0.8,82,13.8,20000,35.188,,,220,15,17.8,,,,1,,,,15,og-post,,,,AAXX 01184 07314 11470 72219 10169 20138 30114 40141 58008 60012 71582 8682/ 222// 328// 333 10178 20150 92448=
07314,1999-10-02 00:00:00,17.7,1011.4,-1.9,79,14,,35.188,,,230,,,,,,,,,,,og-post,,,,AAXX 02004 07314 36/// /2319 10177 20140 30087 40114 58019=
07314,1999-10-02 01:00:00,17.7,1011,-1.8,83,14.8,,31.484,,,230,,,,,,,,,,,og-post,,,,AAXX 02014 07314 36/// /2317 10177 20148 30083 40110 56018=
07314,1999-10-02 02:00:00,17.1,1010.2,-2,87,14.9,,31.484,,,240,,,,,,,,,,,og-post,,,,AAXX 02024 07314 36/// /2417 10171 20149 30075 40102 57020=
07314,1999-10-02 03:00:00,17.4,1009.4,-2,84,14.7,,38.892,,,230,,,,,,,,,,,og-post,,,,AAXX 02034 07314 36/// /2321 10174 20147 30067 40094 58020=
07314,1999-10-02 04:00:00,16.5,1008.8,-2.2,90,14.9,,35.188,,,240,,,0.2,,,,,,,,og-post,,,,AAXX 02044 07314 26/// /2419 10165 20149 30061 40088 56022 333 69925=
07314,1999-10-02 05:00:00,17.4,1008.3,-1.9,85,14.9,,38.892,57.412,,230,,,,,,,,,,,og-post,,,,AAXX 02054 07314 36/// /2321 10174 20149 30056 40083 56019 333 91131=
07314,1999-10-02 07:00:00,16.4,1008.4,-0.4,90,14.8,,38.892,61.116,,250,,,1,,,,,,,,og-post,,,,AAXX 02074 07314 26/// /2521 10164 20148 30057 40084 55004 333 60015 91133=
07314,1999-10-02 08:00:00,17.3,1008.2,-0.1,93,16.2,,35.188,,,230,,,0.2,,,,,,,,og-post,,,,AAXX 02084 07314 26/// /2319 10173 20162 30055 40082 58001 333 69925=
07314,1999-10-02 09:00:00,17.5,1008.4,0.2,89,15.7,18000,42.596,,,220,,,,2,,,,,,25,og-post,,,,AAXX 02094 07314 21468 82223 10175 20157 30057 40084 52002 72586 8292/ 222// 328// 333 60027 92457=
07314,1999-10-02 10:00:00,17,1007.9,-0.5,94,16,,42.596,,,220,,,,,,,,,,,og-post,,,,AAXX 02104 07314 36/// /2223 10170 20160 30052 40079 58005=
07314,1999-10-02 11:00:00,17.5,1007.4,-0.8,94,16.5,,42.596,,,220,,,,,,,,,,,og-post,,,,AAXX 02114 07314 36/// /2223 10175 20165 30047 40074 58008=
07314,1999-10-02 12:00:00,17.7,1006.4,-2,93,16.6,5000,50.004,,,220,,,,0.2,2,,,,,81,og-post,,,,AAXX 02124 07314 /1550 82227 10177 20166 30037 40064 58020 60021 78182 885// 222// 328// 333 69927 92456=
07314,1999-10-02 13:00:00,19,1006,-1.9,84,16.2,,50.004,,,220,,,,,,,,,,,og-post,,,,AAXX 02134 07314 26/// /2227 1019 20162 30033 40060 56019 333 69905=
07314,1999-10-02 14:00:00,17.4,1005.6,-1.8,96,16.8,,53.708,79.636,,220,,,0.2,,,,,,,,og-post,,,,AAXX 02144 07314 26/// /2229 10174 20168 30029 40056 56018 333 69925 91143=
07314,1999-10-02 15:00:00,15.8,1006.5,0.1,94,14.8,16000,38.892,79.636,,270,,,,1,,,,,,25,og-post,,,,AAXX 02154 07314 21566 82721 10158 20148 30038 40065 53001 72586 885// 222// 328// 333 60017 91143 92457=
07314,1999-10-02 16:00:00,15.2,1006.7,0.7,95,14.4,,35.188,,,280,,,0.6,,,,,,,,og-post,,,,AAXX 02164 07314 26/// /2819 10152 20144 30040 40067 53007 333 69965=
07314,1999-10-02 17:00:00,15.7,1007.4,1.8,90,14.1,,25.928,,,270,,,0.4,,,,,,,,og-post,,,,AAXX 02174 07314 26/// /2714 10157 20141 30047 40074 51018 333 69945=
07314,1999-10-02 18:00:00,16.4,1007.6,1.1,85,13.9,16000,29.632,79.636,,260,14.6,18.2,,1,,4,,,,15,og-post,,,,AAXX 02184 07314 /1466 72616 10164 20139 30049 40076 52011 60042 71586 8756/ 222// 328// 333 10182 20146 60017 91143 92447=
07314,1999-10-02 19:00:00,16.6,1008.2,1.5,67,10.5,,31.484,,,280,,,,,,,,,,,og-post,,,,AAXX 02194 07314 36/// /2817 10166 20105 30055 40082 51015=
07314,1999-10-02 20:00:00,16,1008.6,1.2,68,10.1,,35.188,,,270,,,,,,,,,,,og-post,,,,AAXX 02204 07314 36/// /2719 10160 20101 30059 40086 53012=
07314,1999-10-02 21:00:00,15.7,1009.2,1.6,73,10.9,16000,35.188,,,280,,,,,,,,,,,og-post,,,,AAXX 02214 07314 32466 62819 10157 20109 30065 40092 52016 8626/ 222// 328// 333 92447=
07314,1999-10-02 22:00:00,16.2,1009.4,1.2,60,8.4,,35.188,,,280,,,,,,,,,,,og-post,,,,AAXX 02224 07314 36/// /2819 10162 20084 30067 40094 51012=
07314,1999-10-02 23:00:00,16,1009.7,1.1,61,8.5,,31.484,,,270,,,,,,,,,,,og-post,,,,AAXX 02234 07314 36/// /2717 10160 20085 30070 40097 51011=
07314,1999-10-03 00:00:00,15.7,1009.7,0.5,61,8.2,,35.188,,,270,,,,,,,,,,,og-post,,,,AAXX 03004 07314 36/// /2719 10157 20082 30070 40097 51005=
07314,1999-10-03 01:00:00,15.7,1009.4,0,60,8,,31.484,,,280,,,,,,,,,,,og-post,,,,AAXX 03014 07314 36/// /2817 10157 20080 30067 40094 50000=
07314,1999-10-03 02:00:00,15.4,1009.4,-0.3,66,9.1,,31.484,,,270,,,,,,,,,,,og-post,,,,AAXX 03024 07314 36/// /2717 10154 20091 30067 40094 57003=
07314,1999-10-03 03:00:00,15.3,1009.3,-0.4,61,7.8,,35.188,,,280,,,,,,,,,,,og-post,,,,AAXX 03034 07314 36/// /2819 10153 20078 30066 40093 56004=
07314,1999-10-03 04:00:00,15.4,1009.4,-0,57,6.9,,35.188,,,270,,,,,,,,,,,og-post,,,,AAXX 03044 07314 36/// /2719 10154 20069 30067 40094 55000=
07314,1999-10-03 05:00:00,15.5,1009.4,-0,67,9.4,,35.188,,,270,,,,,,,,,,,og-post,,,,AAXX 03054 07314 36/// /2719 10155 20094 30067 40094 55000=
07314,1999-10-03 06:00:00,15.6,1009.8,0.5,61,8.1,25000,38.892,94.452,,270,15.2,16.7,,,,,,,,15,og-post,,,,AAXX 03064 07314 31475 32721 10156 20081 30071 40098 53005 71500 81320 222// 328// 333 10167 20152 91151 92448=
07314,1999-10-03 07:00:00,15.3,1010.5,1.1,67,9.2,,31.484,,,250,,,0.2,,,,,,,,og-post,,,,AAXX 03074 07314 26/// /2517 10153 20092 30078 40105 53011 333 69925=
07314,1999-10-03 08:00:00,15.4,1011.2,1.8,68,9.5,,38.892,64.82,,270,,,,,,,,,,,og-post,,,,AAXX 03084 07314 26/// /2721 10154 20095 30085 40112 53018 333 69905 91135=
07314,1999-10-03 09:00:00,15.4,1012.1,2.3,70,10,12000,29.632,68.524,,280,,,,0.2,,,,,,16,og-post,,,,AAXX 03094 07314 21462 72816 10154 20100 30094 40121 53023 71682 8693/ 222// 328// 333 69927 91137 92457=
07314,1999-10-03 10:00:00,15.2,1012.7,2.2,68,9.3,,42.596,57.412,,280,,,,,,,,,,,og-post,,,,AAXX 03104 07314 36/// /2823 10152 20093 30100 40127 51022 333 91131=
07314,1999-10-03 11:00:00,15.9,1013.5,2.3,65,9.3,,29.632,64.82,,280,,,0.2,,,,,,,,og-post,,,,AAXX 03114 07314 26/// /2816 10159 20093 30108 40135 51023 333 69925 91135=
07314,1999-10-03 12:00:00,16,1013.8,1.7,68,10.1,20000,38.892,68.524,,300,,,,0.6,0.8,,,,,15,og-post,,,,AAXX 03124 07314 /1470 63021 10160 20101 30111 40138 51017 69981 71586 86902 222// 328// 333 69967 91137 92448=
07314,1999-10-03 13:00:00,16.2,1014.1,1.4,70,10.7,,35.188,,,290,,,,,,,,,,,og-post,,,,AAXX 03134 07314 36/// /2919 10162 20107 30114 40141 51014=
07314,1999-10-03 14:00:00,16.5,1014.7,1.2,65,9.9,,31.484,57.412,,290,,,,,,,,,,,og-post,,,,AAXX 03144 07314 36/// /2917 10165 20099 30120 40147 53012 333 91131=
07314,1999-10-03 15:00:00,16.7,1015,1.2,64,9.9,20000,35.188,57.412,,280,,,,,,,,,,,og-post,,,,AAXX 03154 07314 32570 52819 10167 20099 30123 40150 52012 85200 222// 328// 333 91131 92448=
07314,1999-10-03 16:00:00,16.7,1015.6,1.5,66,10.3,,31.484,,,290,,,,,,,,,,,og-post,,,,AAXX 03164 07314 36/// /2917 10167 20103 30129 40156 52015=
07314,1999-10-03 17:00:00,16.4,1015.9,1.2,64,9.6,,38.892,53.708,,280,,,,,,,,,,,og-post,,,,AAXX 03174 07314 36/// /2821 10164 20096 30132 40159 52012 333 91129=
07314,1999-10-03 18:00:00,16.2,1016,1,65,9.6,20000,38.892,57.412,,280,14,17.1,,,,0.8,,,,16,og-post,,,,AAXX 03184 07314 11470 42821 10162 20096 30133 40160 51010 69982 71611 84200 222// 328// 333 10171 20140 91131 92458=
07314,1999-10-03 19:00:00,16.2,1016.5,0.9,74,11.6,,38.892,,,270,,,,,,,,,,,og-post,,,,AAXX 03194 07314 36/// /2721 10162 20116 30138 40165 53009=
07314,1999-10-03 20:00:00,16.3,1016.7,0.8,71,11,,38.892,,,280,,,0.2,,,,,,,,og-post,,,,AAXX 03204 07314 26/// /2821 10163 20110 30140 40167 53008 333 69925=
07314,1999-10-03 21:00:00,16.2,1017.1,1.1,75,11.8,,38.892,,,280,,,,0.2,,,,,,,og-post,,,,AAXX 03214 07314 26/// /2821 10162 20118 30144 40171 51011 333 69927=
07314,1999-10-03 22:00:00,15.1,1017.7,1.1,83,12.2,,31.484,,,270,,,,,,,,,,,og-post,,,,AAXX 03224 07314 36/// /2717 10151 20122 30149 40177 53011=
07314,1999-10-03 23:00:00,16.1,1017.8,1.1,69,10.4,,38.892,,,300,,,,,,,,,,,og-post,,,,AAXX 03234 07314 36/// /3021 10161 20104 30151 40178 51011=
07314,1999-10-04 00:00:00,15.3,1018.3,1.1,76,11.1,,25.928,,,340,,,,,0.2,,,,,,og-post,,,,AAXX 04004 07314 16/// /3414 10153 20111 30155 40183 51011 69921=
07314,1999-10-04 01:00:00,14.8,1018.5,0.8,79,11.2,,22.224,,,340,,,1,,,,,,,,og-post,,,,AAXX 04014 07314 26/// /3412 10148 20112 30157 40185 52008 333 60015=
07314,1999-10-04 02:00:00,13.8,1018.6,0.7,81,10.6,,25.928,61.116,,290,,,0.8,,,,,,,,og-post,,,,AAXX 04024 07314 26/// /2914 10138 20106 30158 40186 51007 333 69985 91133=
07314,1999-10-04 03:00:00,14.5,1018.4,0.1,72,9.5,,29.632,61.116,,330,,,,2,,,,,,,og-post,,,,AAXX 04034 07314 26/// /3316 10145 20095 30156 40184 50001 333 60027 91133=
07314,1999-10-04 04:00:00,13.9,1018.6,0.1,76,9.7,,29.632,50.004,,300,,,0.2,,,,,,,,og-post,,,,AAXX 04044 07314 26/// /3016 10139 20097 30158 40186 53001 333 69925 91127=
07314,1999-10-04 05:00:00,13.6,1018.9,0.3,77,9.6,,18.52,,,350,,,,,,,,,,,og-post,,,,AAXX 04054 07314 36/// /3510 10136 20096 30161 40189 53003=
07314,1999-10-04 06:00:00,13.5,1019,0.6,76,9.4,20000,14.816,61.116,,360,13.3,16.4,,0.2,,2,,,,2,og-post,,,,AAXX 04064 07314 /1470 53608 10135 20094 30162 40190 51006 60022 70282 8423/ 222// 328// 333 10164 20133 69927 91133 92448=
07314,1999-10-04 07:00:00,13.4,1019.7,1.1,75,9.1,,22.224,,,330,,,,,,,,,,,og-post,,,,AAXX 04074 07314 36/// /3312 10134 20091 30169 40197 53011=
07314,1999-10-04 08:00:00,14.3,1019.9,1,74,9.7,,11.112,,,340,,,,,,,,,,,og-post,,,,AAXX 04084 07314 36/// /3406 10143 20097 30171 40199 53010=
07314,1999-10-04 09:00:00,12.2,1020.8,1.8,83,9.4,6000,18.52,,,280,,,,3,,,,,,2,og-post,,,,AAXX 04094 07314 21556 72810 10122 20094 30180 40208 53018 70262 8422/ 222// 328// 333 60037 92436=
07314,1999-10-04 10:00:00,13.8,1021,1.3,83,11,,14.816,,,320,,,1,,,,,,,,og-post,,,,AAXX 04104 07314 26/// /3208 10138 20110 30182 40210 52013 333 60015=
07314,1999-10-04 12:00:00,15.2,1021.1,0.3,63,8.2,20000,29.632,,,340,,,,1,4,,,,,1,og-post,,,,AAXX 04124 07314 /1570 43416 10152 20082 30183 40211 51003 60041 70162 83230 222// 328// 333 60017 92438=
07314,1999-10-04 13:00:00,15.4,1021.2,0.2,58,7.2,,25.928,,,330,,,,,,,,,,,og-post,,,,AAXX 04134 07314 36/// /3314 10154 20072 30184 40212 52002=
07314,1999-10-04 15:00:00,15.5,1021.5,0.4,59,7.5,28000,29.632,,,320,,,,,,,,,,,og-post,,,,AAXX 04154 07314 32578 23216 10155 20075 30187 40215 53004 82100 222// 328// 333 92448=
07314,1999-10-04 17:00:00,14.8,1022,0.8,59,6.9,,29.632,,,330,,,,,,,,,,,og-post,,,,AAXX 04174 07314 36/// /3316 10148 20069 30192 40220 53008=
07314,1999-10-04 18:00:00,14.4,1022.5,1,63,7.5,28000,29.632,,,320,11.9,15.6,,,,4,,,,,og-post,,,,AAXX 04184 07314 12578 23216 10144 20075 30197 40225 53010 60042 81201 222// 328// 333 10156 20119 92448=
07314,1999-10-04 19:00:00,14.2,1023.1,1.5,60,6.6,,25.928,,,340,,,,,,,,,,,og-post,,,,AAXX 04194 07314 36/// /3414 10142 20066 30203 40231 53015=
07314,1999-10-04 21:00:00,14,1024,1.5,67,8,25000,18.52,,,360,,,,,,,,,,,og-post,,,,AAXX 04214 07314 32575 33610 10140 20080 30212 40240 51015 82201 222// 328// 333 92448=
07314,1999-10-04 22:00:00,13.8,1024.2,1.1,64,7.1,,18.52,,,10,,,,,,,,,,,og-post,,,,AAXX 04224 07314 36/// /0110 10138 20071 30214 40242 51011=
07314,1999-10-04 23:00:00,13.5,1024,0.4,62,6.4,,14.816,,,30,,,,,,,,,,,og-post,,,,AAXX 04234 07314 36/// /0308 10135 20064 30212 40240 50004=
07314,1999-10-05 00:00:00,13.4,1023.9,-0.1,64,6.7,,18.52,,,40,,,,,,,,,,,og-post,,,,AAXX 05004 07314 36/// /0410 10134 20067 30211 40239 58001=
07314,1999-10-05 01:00:00,12.5,1023.9,-0.3,66,6.3,,11.112,,,70,,,,,,,,,,,og-post,,,,AAXX 05014 07314 36/// /0706 10125 20063 30211 40239 56003=
07314,1999-10-05 02:00:00,12.1,1023.7,-0.3,67,6.2,,11.112,,,90,,,,,,,,,,,og-post,,,,AAXX 05024 07314 36/// /0906 10121 20062 30209 40237 58003=
07314,1999-10-05 03:00:00,10.7,1023.5,-0.4,76,6.6,,7.408,,,110,,,,,,,,,,,og-post,,,,AAXX 05034 07314 36/// /1104 10107 20066 30207 40235 58004=
07314,1999-10-05 04:00:00,9.8,1023.6,-0.3,83,7.1,,11.112,,,110,,,,,,,,,,,og-post,,,,AAXX 05044 07314 36/// /1106 10098 20071 30208 40236 55003=
07314,1999-10-05 05:00:00,11,1024,0.3,78,7.3,,11.112,,,80,,,,,,,,,,,og-post,,,,AAXX 05054 07314 36/// /0806 10110 20073 30212 40240 53003=
07314,1999-10-05 06:00:00,10.9,1024.5,1,80,7.6,,11.112,,,80,9.3,14.4,,,,,,,,,og-post,,,,AAXX 05064 07314 36/// /0806 10109 20076 30217 40245 53010 333 10144 20093=
07314,1999-10-05 07:00:00,11.6,1024.7,1.1,77,7.7,,11.112,,,80,,,,,,,,,,,og-post,,,,AAXX 05074 07314 36/// /0806 10116 20077 30219 40247 51011=
07314,1999-10-05 08:00:00,12.6,1025.1,1.1,73,7.9,,14.816,,,90,,,,,,,,,,,og-post,,,,AAXX 05084 07314 36/// /0908 10126 20079 30223 40251 51011=
07314,1999-10-05 09:00:00,13.1,1025.4,0.9,74,8.6,25000,18.52,,,90,,,,,,,,,,,og-post,,,,AAXX 05094 07314 32975 30910 10131 20086 30226 40254 53009 83050 222// 328// 333 92438=
07314,1999-10-05 10:00:00,13.6,1025.4,0.7,70,8.2,,11.112,,,90,,,,,,,,,,,og-post,,,,AAXX 05104 07314 36/// /0906 10136 20082 30226 40254 51007=
07314,1999-10-05 11:00:00,14.9,1025.3,0.2,61,7.5,,11.112,,,90,,,,,,,,,,,og-post,,,,AAXX 05114 07314 36/// /0906 10149 20075 30225 40253 50002=
07314,1999-10-05 12:00:00,15.3,1025.2,-0.2,57,6.8,28000,7.408,,,70,,,,,,,,,,,og-post,,,,AAXX 05124 07314 32678 20704 10153 20068 30224 40252 58002 81230 222// 328// 333 92438=
07314,1999-10-05 13:00:00,15.6,1024.9,-0.5,58,7.4,,7.408,,,50,,,,,,,,,,,og-post,,,,AAXX 05134 07314 36/// /0504 10156 20074 30221 40249 58005=
07314,1999-10-05 14:00:00,16.2,1024.7,-0.6,51,6.1,,7.408,,,40,,,,,,,,,,,og-post,,,,AAXX 05144 07314 36/// /0404 10162 20061 30219 40247 58006=
07314,1999-10-05 15:00:00,16.1,1024.6,-0.6,51,6,28000,11.112,,,60,,,,,,,,,,,og-post,,,,AAXX 05154 07314 32678 30606 10161 20060 30218 40246 56006 82230 222// 328// 333 92438=
07314,1999-10-05 16:00:00,16,1024.3,-0.6,49,5.3,,7.408,,,70,,,,,,,,,,,og-post,,,,AAXX 05164 07314 36/// /0704 10160 20053 30215 40243 58006=
07314,1999-10-05 17:00:00,15.4,1024.4,-0.3,51,5.3,,11.112,,,60,,,,,,,,,,,og-post,,,,AAXX 05174 07314 36/// /0606 10154 20053 30216 40244 55003=
07314,1999-10-05 18:00:00,14.1,1024.8,0.2,57,5.7,22000,11.112,,,60,10.7,16.5,,,,,,,,,og-post,,,,AAXX 05184 07314 32672 40606 10141 20057 30220 40248 53002 82230 222// 328// 333 10165 20107 92438=
07314,1999-10-05 19:00:00,14.3,1025.2,0.9,59,6.4,,18.52,,,60,,,,,,,,,,,og-post,,,,AAXX 05194 07314 36/// /0610 10143 20064 30224 40252 53009=
07314,1999-10-05 20:00:00,13.9,1025.6,1.2,58,5.8,,18.52,,,60,,,,,,,,,,,og-post,,,,AAXX 05204 07314 36/// /0610 10139 20058 30228 40256 52012=
07314,1999-10-05 21:00:00,13.1,1026,1.2,63,6.2,,14.816,,,70,,,,,,,,,,,og-post,,,,AAXX 05214 07314 36/// /0708 10131 20062 30232 40260 52012=
07314,1999-10-05 22:00:00,12.9,1026.1,0.9,65,6.5,,18.52,,,80,,,,,,,,,,,og-post,,,,AAXX 05224 07314 36/// /0810 10129 20065 30233 40261 51009=
07314,1999-10-05 23:00:00,12.4,1026.4,0.8,66,6.2,,14.816,,,80,,,,,,,,,,,og-post,,,,AAXX 05234 07314 36/// /0808 10124 20062 30236 40264 51008=
07314,1999-10-06 00:00:00,12.3,1026.3,0.3,67,6.4,,14.816,,,80,,,,,,,,,,,og-post,,,,AAXX 06004 07314 36/// /0808 10123 20064 30235 40263 50003=
07314,1999-10-06 01:00:00,11.4,1026.1,0,71,6.3,,14.816,,,80,,,,,,,,,,,og-post,,,,AAXX 06014 07314 36/// /0808 10114 20063 30233 40261 50000=
07314,1999-10-06 02:00:00,11.4,1025.9,-0.5,74,6.9,,14.816,,,80,,,,,,,,,,,og-post,,,,AAXX 06024 07314 36/// /0808 10114 20069 30231 40259 58005=
07314,1999-10-06 03:00:00,10.8,1025.8,-0.5,77,6.9,,14.816,,,80,,,,,,,,,,,og-post,,,,AAXX 06034 07314 36/// /0808 10108 20069 30230 40258 56005=
07314,1999-10-06 04:00:00,10.7,1025.8,-0.3,74,6.3,,14.816,,,70,,,,,,,,,,,og-post,,,,AAXX 06044 07314 36/// /0708 10107 20063 30230 40258 56003=
07314,1999-10-06 05:00:00,10.4,1025.9,-0,77,6.5,,14.816,,,70,,,,,,,,,,,og-post,,,,AAXX 06054 07314 36/// /0708 10104 20065 30231 40259 55000=
07314,1999-10-06 06:00:00,9.9,1026.3,0.5,80,6.6,,14.816,,,70,9.9,14.4,,,,,,,,,og-post,,,,AAXX 06064 07314 36/// /0708 10099 20066 30235 40263 53005 333 10144 20099=
07314,1999-10-06 07:00:00,10.6,1026.8,1,77,6.7,,14.816,,,70,,,,,,,,,,,og-post,,,,AAXX 06074 07314 36/// /0708 10106 20067 30240 40268 53010=
07314,1999-10-06 08:00:00,11,1027.1,1.2,74,6.6,,25.928,,,50,,,,,,,,,,,og-post,,,,AAXX 06084 07314 36/// /0514 10110 20066 30243 40271 51012=
07314,1999-10-06 09:00:00,11.7,1027.1,0.8,75,7.4,20000,22.224,,,60,,,,,,,,,,,og-post,,,,AAXX 06094 07314 32970 10612 10117 20074 30243 40271 51008 80001 222// 328// 333 92438=
07314,1999-10-06 10:00:00,12.5,1026.8,0,71,7.4,,25.928,,,50,,,,,,,,,,,og-post,,,,AAXX 06104 07314 36/// /0514 10125 20074 30240 40268 50000=
07314,1999-10-06 11:00:00,13.6,1026.7,-0.4,65,7.2,,29.632,,,50,,,,,,,,,,,og-post,,,,AAXX 06114 07314 36/// /0516 10136 20072 30239 40267 58004=
07314,1999-10-06 12:00:00,14.1,1026,-1.1,62,6.9,25000,25.928,,,50,,,,,,,,,,,og-post,,,,AAXX 06124 07314 32575 10514 10141 20069 30232 40260 58011 81101 222// 328// 333 92428=
07314,1999-10-06 13:00:00,14.9,1025.5,-1.3,59,7,,31.484,,,40,,,,,,,,,,,og-post,,,,AAXX 06134 07314 36/// /0417 10149 20070 30227 40255 58013=
07314,1999-10-06 14:00:00,15.3,1024.8,-1.9,58,7.1,,29.632,,,50,,,,,,,,,,,og-post,,,,AAXX 06144 07314 36/// /0516 10153 20071 30220 40248 57019=
07314,1999-10-06 15:00:00,15.6,1024.7,-1.3,54,6.3,25000,31.484,,,50,,,,,,,,,,,og-post,,,,AAXX 06154 07314 32575 10517 10156 20063 30219 40247 56013 81101 222// 328// 333 92438=
07314,1999-10-06 16:00:00,15.7,1024.6,-0.9,56,7,,31.484,,,50,,,,,,,,,,,og-post,,,,AAXX 06164 07314 36/// /0517 10157 20070 30218 40246 56009=
07314,1999-10-06 17:00:00,15.4,1024.4,-0.4,54,6.1,,31.484,,,50,,,,,,,,,,,og-post,,,,AAXX 06174 07314 36/// /0517 10154 20061 30216 40244 58004=
07314,1999-10-06 18:00:00,14.9,1025.1,0.4,58,6.7,25000,29.632,,,50,9.9,15.7,,,,,,,,,og-post,,,,AAXX 06184 07314 32575 20516 10149 20067 30223 40251 53004 81101 222// 328// 333 10157 20099 92438=
07314,1999-10-06 19:00:00,14.3,1025.6,1,60,6.6,,31.484,,,50,,,,,,,,,,,og-post,,,,AAXX 06194 07314 36/// /0517 10143 20066 30228 40256 53010=
07314,1999-10-06 20:00:00,13.7,1026,1.6,67,7.7,,31.484,,,40,,,,,,,,,,,og-post,,,,AAXX 06204 07314 36/// /0417 10137 20077 30232 40260 51016=
07314,1999-10-06 21:00:00,12.9,1026.3,1.2,70,7.6,,31.484,,,40,,,,,,,,,,,og-post,,,,AAXX 06214 07314 36/// /0417 10129 20076 30235 40263 51012=
07314,1999-10-06 22:00:00,12.6,1026.7,1.1,73,7.9,,29.632,,,40,,,,,,,,,,,og-post,,,,AAXX 06224 07314 36/// /0416 10126 20079 30239 40267 52011=
07314,1999-10-06 23:00:00,12.6,1026.6,0.6,72,7.7,,25.928,,,60,,,,,,,,,,,og-post,,,,AAXX 06234 07314 36/// /0614 10126 20077 30238 40266 50006=
07314,1999-10-07 00:00:00,12.2,1026.3,0,75,7.9,,22.224,,,70,,,,,,,,,,,og-post,,,,AAXX 07004 07314 36/// /0712 10122 20079 30235 40263 50000=
07314,1999-10-07 01:00:00,12,1026.5,-0.2,77,8.1,,29.632,,,50,,,,,,,,,,,og-post,,,,AAXX 07014 07314 36/// /0516 10120 20081 30237 40265 55002=
07314,1999-10-07 02:00:00,11.6,1026.2,-0.4,78,7.9,,25.928,,,50,,,,,,,,,,,og-post,,,,AAXX 07024 07314 36/// /0514 10116 20079 30234 40262 57004=
07314,1999-10-07 03:00:00,11,1026.4,0.1,80,7.7,,25.928,,,50,,,,,,,,,,,og-post,,,,AAXX 07034 07314 36/// /0514 10110 20077 30236 40264 52001=
07314,1999-10-07 04:00:00,10.7,1026.8,0.3,81,7.6,,22.224,,,40,,,,,,,,,,,og-post,,,,AAXX 07044 07314 36/// /0412 10107 20076 30240 40268 53003=
07314,1999-10-07 06:00:00,10.3,1027.3,0.9,83,7.5,20000,25.928,,,30,10.3,14.9,,,,,,,,,og-post,,,,AAXX 07064 07314 32970 10314 10103 20075 30245 40273 51009 80001 222// 328// 333 10149 20103 92438=
07314,1999-10-07 09:00:00,11.5,1028.7,1.4,79,8,,18.52,,,50,,,,,,,,,,,og-post,,,,AAXX 07094 07314 36/// /0510 10115 20080 30259 40287 51014=
07314,1999-10-07 12:00:00,15.1,1028.9,0.2,65,8.6,22000,22.224,,,30,,,,,,,,,,,og-post,,,,AAXX 07124 07314 32972 20312 10151 20086 30261 40289 50002 80001 222// 328// 333 92438=
07314,1999-10-07 13:00:00,16.1,1028.7,-0.4,57,7.6,,14.816,,,50,,,,,,,,,,,og-post,,,,AAXX 07134 07314 36/// /0508 10161 20076 30259 40287 58004=
07314,1999-10-07 14:00:00,16.9,1028.6,-0.4,54,7.5,,11.112,,,30,,,,,,,,,,,og-post,,,,AAXX 07144 07314 36/// /0306 10169 20075 30258 40286 57004=
07314,1999-10-07 15:00:00,16.5,1028.5,-0.4,52,6.6,25000,22.224,,,360,,,,,,,,,,,og-post,,,,AAXX 07154 07314 32975 13612 10165 20066 30257 40285 56004 80001 222// 328// 333 92438=
07314,1999-10-07 16:00:00,16.3,1028.7,-0,53,6.7,,14.816,,,20,,,,,,,,,,,og-post,,,,AAXX 07164 07314 36/// /0208 10163 20067 30259 40287 55000=
07314,1999-10-07 17:00:00,15.8,1029.2,0.6,57,7.3,,18.52,,,360,,,,,,,,,,,og-post,,,,AAXX 07174 07314 36/// /3610 10158 20073 30264 40292 53006=
07314,1999-10-07 18:00:00,15.3,1029.8,1.3,61,7.8,25000,18.52,,,360,9.8,16.9,,,,,,,,,og-post,,,,AAXX 07184 07314 32975 23610 10153 20078 30270 40298 53013 80001 222// 328// 333 10169 20098 92428=
07314,1999-10-07 19:00:00,14.8,1030.1,1.4,65,8.3,,25.928,,,360,,,,,,,,,,,og-post,,,,AAXX 07194 07314 36/// /3614 10148 20083 30273 40301 51014=
07314,1999-10-07 20:00:00,14.2,1030.8,1.6,62,7,,25.928,,,10,,,,,,,,,,,og-post,,,,AAXX 07204 07314 36/// /0114 10142 20070 30280 40308 53016=
07314,1999-10-07 21:00:00,13.8,1031.1,1.3,69,8.2,25000,22.224,,,10,,,,,,,,,,,og-post,,,,AAXX 07214 07314 32975 10112 10138 20082 30283 40311 52013 80001 222// 328// 333 92428=
07314,1999-10-07 22:00:00,13.4,1031.5,1.4,69,7.8,,22.224,,,10,,,,,,,,,,,og-post,,,,AAXX 07224 07314 36/// /0112 10134 20078 30287 40315 51014=
07314,1999-10-07 23:00:00,13.5,1031.5,0.7,70,8.1,,22.224,,,10,,,,,,,,,,,og-post,,,,AAXX 07234 07314 36/// /0112 10135 20081 30287 40315 51007=
07314,1999-10-08 00:00:00,13.2,1031.3,0.2,70,7.9,,14.816,,,20,,,,,,,,,,,og-post,,,,AAXX 08004 07314 36/// /0208 10132 20079 30285 40313 50002=
07314,1999-10-08 01:00:00,13.3,1031.4,-0.1,74,8.8,,14.816,,,360,,,,,,,,,,,og-post,,,,AAXX 08014 07314 36/// /3608 10133 20088 30286 40314 55001=
07314,1999-10-08 02:00:00,13.3,1031.2,-0.3,75,9,,14.816,,,10,,,,,,,,,,,og-post,,,,AAXX 08024 07314 36/// /0108 10133 20090 30284 40312 57003=
07314,1999-10-08 03:00:00,13,1031.1,-0.2,75,8.7,,14.816,,,20,,,,,,,,,,,og-post,,,,AAXX 08034 07314 36/// /0208 10130 20087 30283 40311 58002=
07314,1999-10-08 04:00:00,12.7,1031.1,-0.3,75,8.4,,11.112,,,20,,,,,,,,,,,og-post,,,,AAXX 08044 07314 36/// /0206 10127 20084 30283 40311 56003=
07314,1999-10-08 05:00:00,12.1,1031.3,0.1,77,8.2,,3.704,,,40,,,,,,,,,,,og-post,,,,AAXX 08054 07314 36/// /0402 10121 20082 30285 40313 53001=
07314,1999-10-08 06:00:00,11.8,1031.3,0.2,76,7.7,22000,,,,,11.7,15.3,,,,,,,,,og-post,,,,AAXX 08064 07314 32972 20000 10118 20077 30285 40313 52002 80001 222// 328// 333 10153 20117 92428=
07314,1999-10-08 07:00:00,10.9,1031.8,0.7,86,8.7,,11.112,,,150,,,,,,,,,,,og-post,,,,AAXX 08074 07314 36/// /1506 10109 20087 30290 40318 53007=
07314,1999-10-08 08:00:00,14,1032.1,0.8,79,10.4,,11.112,,,150,,,,,,,,,,,og-post,,,,AAXX 08084 07314 36/// /1506 10140 20104 30293 40321 53008=
07314,1999-10-08 09:00:00,15.6,1031.9,0.6,76,11.4,20000,22.224,,,170,,,,,,,,,,,og-post,,,,AAXX 08094 07314 32970 51712 10156 20114 30291 40319 50006 80004 222// 328// 333 92428=
07314,1999-10-08 10:00:00,15.8,1032.2,0.4,70,10.3,,14.816,,,180,,,,,,,,,,,og-post,,,,AAXX 08104 07314 36/// /1808 10158 20103 30294 40322 52004=
07314,1999-10-08 11:00:00,15.7,1032.2,0.1,72,10.7,,18.52,,,200,,,,,,,,,,,og-post,,,,AAXX 08114 07314 36/// /2010 10157 20107 30294 40322 53001=
07314,1999-10-08 12:00:00,16.6,1032,0.1,70,11.1,17000,18.52,,,200,,,,,,,,,,,og-post,,,,AAXX 08124 07314 32567 62010 10166 20111 30292 40320 50001 83262 222// 328// 333 92437=
07314,1999-10-08 13:00:00,16.7,1030.9,-1.3,71,11.4,,14.816,,,240,,,,,,,,,,,og-post,,,,AAXX 08134 07314 36/// /2408 10167 20114 30281 40309 58013=
07314,1999-10-08 14:00:00,16.9,1030.4,-1.8,72,11.8,,18.52,,,260,,,,,,,,,,,og-post,,,,AAXX 08144 07314 36/// /2610 10169 20118 30276 40304 58018=
07314,1999-10-08 15:00:00,16.8,1030.3,-1.7,77,12.7,20000,22.224,,,260,,,,,,,,,,,og-post,,,,AAXX 08154 07314 32570 62612 10168 20127 30275 40303 56017 83262 222// 328// 333 92428=
07314,1999-10-08 16:00:00,16.5,1030,-0.9,79,12.8,,22.224,,,250,,,,,,,,,,,og-post,,,,AAXX 08164 07314 36/// /2512 10165 20128 30272 40300 56009=
07314,1999-10-08 17:00:00,16.5,1029.9,-0.5,81,13.2,,22.224,,,260,,,,,,,,,,,og-post,,,,AAXX 08174 07314 36/// /2612 10165 20132 30271 40299 57005=
07314,1999-10-08 18:00:00,16.3,1029.8,-0.5,84,13.6,20000,22.224,,,280,10.3,17.1,,,,,,,,,og-post,,,,AAXX 08184 07314 32570 62812 10163 20136 30270 40298 56005 83262 222// 328// 333 10171 20103 92428=
07314,1999-10-08 19:00:00,16,1029.8,-0.2,83,13.1,,25.928,,,290,,,,,,,,,,,og-post,,,,AAXX 08194 07314 36/// /2914 10160 20131 30270 40298 56002=
07314,1999-10-08 20:00:00,15.7,1030.1,0.2,81,12.4,,18.52,,,300,,,,,,,,,,,og-post,,,,AAXX 08204 07314 36/// /3010 10157 20124 30273 40301 53002=
07314,1999-10-08 21:00:00,15.6,1030.2,0.4,82,12.5,,14.816,,,300,,,,,,,,,,,og-post,,,,AAXX 08214 07314 36/// /3008 10156 20125 30274 40302 53004=
07314,1999-10-08 22:00:00,16.1,1030.5,0.7,82,13,,14.816,,,290,,,,,,,,,,,og-post,,,,AAXX 08224 07314 36/// /2908 10161 20130 30277 40305 52007=
07314,1999-10-08 23:00:00,16.3,1030.4,0.3,80,12.8,,14.816,,,300,,,,,,,,,,,og-post,,,,AAXX 08234 07314 36/// /3008 10163 20128 30276 40304 50003=
07314,1999-10-09 00:00:00,16.2,1030.1,-0.1,78,12.4,,3.704,,,300,,,,,,,,,,,og-post,,,,AAXX 09004 07314 36/// /3002 10162 20124 30273 40301 58001=
07314,1999-10-09 01:00:00,16.7,1029.9,-0.6,72,11.6,,11.112,,,270,,,,,,,,,,,og-post,,,,AAXX 09014 07314 36/// /2706 10167 20116 30271 40299 58006=
07314,1999-10-09 02:00:00,16.8,1029.8,-0.6,75,12.3,,14.816,,,290,,,,,,,,,,,og-post,,,,AAXX 09024 07314 36/// /2908 10168 20123 30270 40298 56006=
07314,1999-10-09 03:00:00,16.9,1029.1,-1,70,11.4,,11.112,,,280,,,,,,,,,,,og-post,,,,AAXX 09034 07314 36/// /2806 10169 20114 30263 40291 58010=
07314,1999-10-09 04:00:00,16.7,1028.9,-1,73,11.8,,14.816,,,290,,,,,,,,,,,og-post,,,,AAXX 09044 07314 36/// /2908 10167 20118 30261 40289 58010=
07314,1999-10-09 05:00:00,16.5,1028.8,-1,77,12.5,,14.816,,,300,,,,,,,,,,,og-post,,,,AAXX 09054 07314 36/// /3008 10165 20125 30260 40288 56010=
07314,1999-10-09 06:00:00,16.4,1028.9,-0.2,74,11.8,14000,14.816,,,290,15.6,16.9,,,,,,,,,og-post,,,,AAXX 09064 07314 32564 72908 10164 20118 30261 40289 55002 872// 222// 328// 333 10169 20156 92427=
07314,1999-10-09 07:00:00,16.3,1029.3,0.4,69,10.6,,14.816,,,280,,,,,,,,,,,og-post,,,,AAXX 09074 07314 36/// /2808 10163 20106 30265 40293 53004=
07314,1999-10-09 08:00:00,16.3,1029.7,0.9,68,10.4,,11.112,,,280,,,,,,,,,,,og-post,,,,AAXX 09084 07314 36/// /2806 10163 20104 30269 40297 53009=
07314,1999-10-09 09:00:00,16.4,1029.8,0.9,68,10.5,16000,14.816,,,260,,,,,,,,,,,og-post,,,,AAXX 09094 07314 32566 72608 10164 20105 30270 40298 51009 875// 222// 328// 333 92427=
07314,1999-10-09 10:00:00,16.8,1029.9,0.6,67,10.6,,14.816,,,250,,,,,,,,,,,og-post,,,,AAXX 09104 07314 36/// /2508 10168 20106 30271 40299 51006=
07314,1999-10-09 11:00:00,17.4,1029.9,0.2,66,11,,7.408,,,280,,,,,,,,,,,og-post,,,,AAXX 09114 07314 36/// /2804 10174 20110 30271 40299 51002=
07314,1999-10-09 12:00:00,17.3,1029.9,0.1,63,10.2,18000,11.112,,,290,,,,,,,,,,,og-post,,,,AAXX 09124 07314 32968 72906 10173 20102 30271 40299 51001 8706/ 222// 328// 333 92437=
07314,1999-10-09 13:00:00,17.8,1029.5,-0.4,62,10.4,,11.112,,,280,,,,,,,,,,,og-post,,,,AAXX 09134 07314 36/// /2806 10178 20104 30267 40295 58004=
07314,1999-10-09 14:00:00,17.1,1029.1,-0.8,66,10.7,,14.816,,,270,,,,,,,,,,,og-post,,,,AAXX 09144 07314 36/// /2708 10171 20107 30263 40291 58008=
07314,1999-10-09 15:00:00,17.1,1029,-0.9,69,11.4,18000,11.112,,,270,,,,,,,,,,,og-post,,,,AAXX 09154 07314 32568 72706 10171 20114 30262 40290 56009 8226/ 222// 328// 333 92437=
07314,1999-10-09 16:00:00,17.3,1028.8,-0.7,65,10.7,,11.112,,,270,,,,,,,,,,,og-post,,,,AAXX 09164 07314 36/// /2706 10173 20107 30260 40288 56007=
07314,1999-10-09 17:00:00,16.8,1028.8,-0.3,62,9.5,,7.408,,,240,,,,,,,,,,,og-post,,,,AAXX 09174 07314 36/// /2404 10168 20095 30260 40288 56003=
07314,1999-10-09 18:00:00,15.8,1029,-0,65,9.2,16000,,,,,15.8,18.1,,,,,,,,,og-post,,,,AAXX 09184 07314 32566 50000 10158 20092 30262 40290 55000 85250 222// 328// 333 10181 20158 92437=
07314,1999-10-09 19:00:00,14.5,1029,0.2,74,9.9,,,,,,,,,,,,,,,,og-post,,,,AAXX 09194 07314 36/// /0000 10145 20099 30262 40290 52002=
07314,1999-10-09 20:00:00,14.5,1029.2,0.4,75,10.1,,3.704,,,140,,,,,,,,,,,og-post,,,,AAXX 09204 07314 36/// /1402 10145 20101 30264 40292 52004=
07314,1999-10-09 21:00:00,15.8,1029,-0,65,9.2,16000,,,,,15.8,18.1,,,,,,,,,og-post,,,,AAXX 09214 07314 32566 50000 10158 20092 30262 40290 55000 85250 222// 328// 333 10181 20158 92437=
07314,1999-10-09 22:00:00,13.7,1029,0,79,10.1,,3.704,,,160,,,,,,,,,,,og-post,,,,AAXX 09224 07314 36/// /1602 10137 20101 30262 40290 50000=
07314,1999-10-09 23:00:00,15.3,1029,-0.2,79,11.7,,7.408,,,30,,,,,,,,,,,og-post,,,,AAXX 09234 07314 36/// /0304 10153 20117 30262 40290 56002=
07314,1999-10-10 00:00:00,15.6,1028.9,-0.2,77,11.6,,7.408,,,40,,,,,,,,,,,og-post,,,,AAXX 10004 07314 36/// /0404 10156 20116 30261 40289 57002=
07314,1999-10-10 01:00:00,15,1028.8,-0.2,80,11.6,,7.408,,,80,,,,,,,,,,,og-post,,,,AAXX 10014 07314 36/// /0804 10150 20116 30260 40288 58002=
07314,1999-10-10 02:00:00,14.9,1028.3,-0.7,81,11.7,,3.704,,,100,,,,,,,,,,,og-post,,,,AAXX 10024 07314 36/// /1002 10149 20117 30255 40283 58007=
07314,1999-10-10 03:00:00,13.8,1027.8,-1.1,83,11,,7.408,,,110,,,,,,,,,,,og-post,,,,AAXX 10034 07314 36/// /1104 10138 20110 30250 40278 58011=
07314,1999-10-10 04:00:00,12.9,1027.8,-1,84,10.3,,7.408,,,130,,,,,,,,,,,og-post,,,,AAXX 10044 07314 36/// /1304 10129 20103 30250 40278 56010=
07314,1999-10-10 05:00:00,13.4,1027.7,-0.6,90,11.8,,7.408,,,130,,,,,,,,,,,og-post,,,,AAXX 10054 07314 36/// /1304 10134 20118 30249 40277 56006=
07314,1999-10-10 06:00:00,13.7,1027.8,-0,87,11.6,16000,,,,,12.9,15.8,,,,,,,,,og-post,,,,AAXX 10064 07314 32566 70000 10137 20116 30250 40278 55000 8115/ 222// 328// 333 10158 20129 92437=
07314,1999-10-10 07:00:00,14.6,1028.2,0.4,86,12.3,,7.408,,,30,,,,,,,,,,,og-post,,,,AAXX 10074 07314 36/// /0304 10146 20123 30254 40282 53004=
07314,1999-10-10 08:00:00,16.8,1028.5,0.8,79,13.1,,7.408,,,140,,,,,,,,,,,og-post,,,,AAXX 10084 07314 36/// /1404 10168 20131 30257 40285 53008=
07314,1999-10-10 09:00:00,16.1,1028.8,1,78,12.3,18000,3.704,,,120,,,,,,,,,,,og-post,,,,AAXX 10094 07314 32868 71202 10161 20123 30260 40288 51010 8705/ 222// 328// 333 92437=
07314,1999-10-10 10:00:00,17,1028.6,0.4,72,11.9,,7.408,,,130,,,,,,,,,,,og-post,,,,AAXX 10104 07314 36/// /1304 10170 20119 30258 40286 50004=
07314,1999-10-10 11:00:00,17.5,1028.5,0,69,11.8,,3.704,,,130,,,,,,,,,,,og-post,,,,AAXX 10114 07314 36/// /1302 10175 20118 30257 40285 50000=
07314,1999-10-10 12:00:00,17,1028.4,-0.4,68,11.1,20000,7.408,,,180,,,,,,,,,,,og-post,,,,AAXX 10124 07314 32870 71804 10170 20111 30256 40284 56004 8705/ 222// 328// 333 92438=
07314,1999-10-10 13:00:00,17.2,1028,-0.6,70,11.7,,7.408,,,200,,,,,,,,,,,og-post,,,,AAXX 10134 07314 36/// /2004 10172 20117 30252 40280 58006=
07314,1999-10-10 14:00:00,17.8,1027.7,-0.8,67,11.6,,,,,,,,,,,,,,,,og-post,,,,AAXX 10144 07314 36/// /0000 10178 20116 30249 40277 58008=
07314,1999-10-10 15:00:00,17.2,1027.3,-1.1,69,11.5,20000,7.408,,,340,,,,,,,,,,,og-post,,,,AAXX 10154 07314 32870 83404 10172 20115 30245 40273 57011 8805/ 222// 328// 333 92438=
07314,1999-10-10 16:00:00,16.7,1027.1,-0.9,72,11.6,,7.408,,,340,,,,,,,,,,,og-post,,,,AAXX 10164 07314 36/// /3404 10167 20116 30243 40271 56009=
07314,1999-10-10 17:00:00,16.5,1027.3,-0.4,72,11.4,,11.112,,,340,,,,,,,,,,,og-post,,,,AAXX 10174 07314 36/// /3406 10165 20114 30245 40273 55004=
07314,1999-10-10 18:00:00,16.5,1027.4,0.1,75,12.1,18000,14.816,,,340,13.6,17.8,,,,,,,,,og-post,,,,AAXX 10184 07314 32868 73408 10165 20121 30246 40274 53001 8705/ 222// 328// 333 10178 20136 92437=
07314,1999-10-10 19:00:00,16.5,1027.4,0.3,76,12.3,,14.816,,,360,,,,,,,,,,,og-post,,,,AAXX 10194 07314 36/// /3608 10165 20123 30246 40274 51003=
07314,1999-10-10 20:00:00,16.4,1027.5,0.2,78,12.6,,11.112,,,360,,,,,,,,,,,og-post,,,,AAXX 10204 07314 36/// /3606 10164 20126 30247 40275 52002=
07314,1999-10-10 21:00:00,16.3,1027.7,0.3,81,13,18000,11.112,,,360,,,,,,,,,,,og-post,,,,AAXX 10214 07314 32868 73606 10163 20130 30249 40277 53003 8705/ 222// 328// 333 92437=
07314,1999-10-10 22:00:00,16.1,1028,0.6,83,13.2,,3.704,,,20,,,,,,,,,,,og-post,,,,AAXX 10224 07314 36/// /0202 10161 20132 30252 40280 53006=
07314,1999-10-10 23:00:00,16.1,1027.8,0.3,84,13.4,,7.408,,,10,,,,,,,,,,,og-post,,,,AAXX 10234 07314 36/// /0104 10161 20134 30250 40278 50003=
07314,1999-10-11 00:00:00,16.2,1027.1,-0.6,82,13.1,,14.816,,,10,,,,,,,,,,,og-post,,,,AAXX 11004 07314 36/// /0108 10162 20131 30243 40271 58006=
07314,1999-10-11 01:00:00,16.3,1027.1,-0.9,84,13.6,,14.816,,,10,,,,,,,,,,,og-post,,,,AAXX 11014 07314 36/// /0108 10163 20136 30243 40271 56009=
07314,1999-10-11 02:00:00,16,1026.7,-1.1,84,13.3,,11.112,,,30,,,,,,,,,,,og-post,,,,AAXX 11024 07314 36/// /0306 10160 20133 30239 40267 56011=
07314,1999-10-11 03:00:00,16,1026.8,-0.3,84,13.3,,7.408,,,40,,,,,,,,,,,og-post,,,,AAXX 11034 07314 36/// /0404 10160 20133 30240 40268 55003=
07314,1999-10-11 04:00:00,15.9,1027.1,-0,85,13.4,,7.408,,,20,,,,,,,,,,,og-post,,,,AAXX 11044 07314 36/// /0204 10159 20134 30243 40271 55000=
07314,1999-10-11 05:00:00,15.8,1026.9,0.2,87,13.6,,7.408,,,30,,,,,,,,,,,og-post,,,,AAXX 11054 07314 36/// /0304 10158 20136 30241 40269 50002=
07314,1999-10-11 06:00:00,15.7,1027.2,0.4,85,13.2,17000,7.408,,,40,15.7,16.6,,,,,,,,,og-post,,,,AAXX 11064 07314 32567 80404 10157 20132 30244 40272 52004 888// 222// 328// 333 10166 20157 92437=
07314,1999-10-11 07:00:00,15.8,1027.1,-0,83,12.9,,7.408,,,50,,,,,,,,,,,og-post,,,,AAXX 11074 07314 36/// /0504 10158 20129 30243 40271 55000=
07314,1999-10-11 08:00:00,16,1027.6,0.7,85,13.5,,7.408,,,60,,,,,,,,,,,og-post,,,,AAXX 11084 07314 36/// /0604 10160 20135 30248 40276 53007=
07314,1999-10-11 09:00:00,16.6,1027.8,0.6,85,14.1,12000,7.408,,,80,,,,,,,,,,,og-post,,,,AAXX 11094 07314 32562 80804 10166 20141 30250 40278 53006 885// 222// 328// 333 92437=
07314,1999-10-11 10:00:00,17,1028.1,1,82,13.9,,3.704,,,70,,,,,,,,,,,og-post,,,,AAXX 11104 07314 36/// /0702 10170 20139 30253 40281 51010=
07314,1999-10-11 11:00:00,17.3,1028,0.4,82,14.2,,3.704,,,360,,,,,,,,,,,og-post,,,,AAXX 11114 07314 36/// /3602 10173 20142 30252 40280 50004=
07314,1999-10-11 12:00:00,17.6,1027,-0.8,81,14.3,16000,7.408,,,10,,,,,,,,,,,og-post,,,,AAXX 11124 07314 32566 70104 10176 20143 30242 40270 58008 8227/ 222// 328// 333 92427=
07314,1999-10-11 13:00:00,17.7,1026.7,-1.3,83,14.8,,11.112,,,330,,,,,,,,,,,og-post,,,,AAXX 11134 07314 36/// /3306 10177 20148 30240 40267 58013=
07314,1999-10-11 14:00:00,17.5,1026.3,-1.6,88,15.5,,14.816,,,320,,,,,,,,,,,og-post,,,,AAXX 11144 07314 36/// /3208 10175 20155 30236 40263 56016=
07314,1999-10-11 15:00:00,17.6,1025.7,-1.2,89,15.8,18000,18.52,,,330,,,,,,,,,,,og-post,,,,AAXX 11154 07314 32568 73310 10176 20158 30230 40257 58012 8223/ 222// 328// 333 92427=
07314,1999-10-11 16:00:00,17.2,1025.9,-0.9,92,15.9,,22.224,,,330,,,,,,,,,,,og-post,,,,AAXX 11164 07314 36/// /3312 10172 20159 30231 40259 55009=
07314,1999-10-11 17:00:00,17.3,1025.8,-0.5,92,16,,18.52,,,340,,,,,,,,,,,og-post,,,,AAXX 11174 07314 36/// /3410 10173 20160 30231 40258 56005=
07314,1999-10-11 18:00:00,17.3,1026.1,0.4,94,16.3,17000,18.52,,,340,15.7,18,,,,,,,,,og-post,,,,AAXX 11184 07314 32567 73410 10173 20163 30234 40261 53004 8353/ 222// 328// 333 10180 20157 92437=
07314,1999-10-11 19:00:00,17.3,1025.9,0.1,94,16.3,,14.816,,,360,,,,,,,,,,,og-post,,,,AAXX 11194 07314 36/// /3608 10173 20163 30232 40259 50001=
07314,1999-10-11 20:00:00,17.1,1026.5,0.6,91,15.6,,14.816,,,20,,,,,,,,,,,og-post,,,,AAXX 11204 07314 36/// /0208 10171 20156 30237 40265 53006=
07314,1999-10-11 21:00:00,16.6,1026.2,0,91,15.1,,18.52,,,30,,,,,,,,,,,og-post,,,,AAXX 11214 07314 36/// /0310 10166 20151 30234 40262 50000=
07314,1999-10-11 22:00:00,16.5,1026.5,0.5,91,15,,18.52,,,30,,,,,,,,,,,og-post,,,,AAXX 11224 07314 36/// /0310 10165 20150 30237 40265 51005=
07314,1999-10-11 23:00:00,16.2,1026.4,-0.1,92,14.9,,18.52,,,40,,,,,,,,,,,og-post,,,,AAXX 11234 07314 36/// /0410 10162 20149 30236 40264 56001=
07314,1999-10-12 00:00:00,15.6,1025.9,-0.3,93,14.5,,18.52,,,30,,,,,,,,,,,og-post,,,,AAXX 12004 07314 36/// /0310 10156 20145 30231 40259 58003=
07314,1999-10-12 01:00:00,15.4,1025.7,-0.8,96,14.8,,22.224,,,30,,,,,,,,,,,og-post,,,,AAXX 12014 07314 36/// /0312 10154 20148 30229 40257 58008=
07314,1999-10-12 02:00:00,15.5,1025.3,-1.1,95,14.7,,22.224,,,30,,,,,,,,,,,og-post,,,,AAXX 12024 07314 36/// /0312 10155 20147 30225 40253 56011=
07314,1999-10-12 03:00:00,15.6,1025,-0.9,95,14.8,,29.632,,,40,,,,,,,,,,,og-post,,,,AAXX 12034 07314 36/// /0416 10156 20148 30222 40250 58009=
07314,1999-10-12 06:00:00,15,1024.7,-0.3,94,14,15000,29.632,,,40,14.9,17.5,,,,,,,,,og-post,,,,AAXX 12064 07314 32565 50416 10150 20140 30219 40247 56003 81270 222// 328// 333 10175 20149 92437=
07314,1999-10-12 07:00:00,15.4,1024.6,-0.1,93,14.3,,29.632,,,50,,,,,,,,,,,og-post,,,,AAXX 12074 07314 36/// /0516 10154 20143 30218 40246 58001=
07314,1999-10-12 08:00:00,15.3,1024.6,-0.2,93,14.2,,31.484,,,40,,,,,,,,,,,og-post,,,,AAXX 12084 07314 36/// /0417 10153 20142 30218 40246 56002=
07314,1999-10-12 09:00:00,16,1024.9,0.2,90,14.4,14000,29.632,,,40,,,,,,,,,,,og-post,,,,AAXX 12094 07314 32564 50416 10160 20144 30221 40249 53002 83202 222// 328// 333 92437=
07314,1999-10-12 10:00:00,17,1025.1,0.5,85,14.5,,25.928,,,50,,,,,,,,,,,og-post,,,,AAXX 12104 07314 36/// /0514 10170 20145 30223 40251 53005=
07314,1999-10-12 11:00:00,18.1,1024.7,0.2,76,13.8,,18.52,,,60,,,,,,,,,,,og-post,,,,AAXX 12114 07314 36/// /0610 10181 20138 30220 40247 50002=
07314,1999-10-12 12:00:00,18.9,1024.2,-0.6,76,14.6,20000,18.52,,,60,,,,,,,,,,,og-post,,,,AAXX 12124 07314 32570 40610 10189 20146 30215 40242 58006 81102 222// 328// 333 92438=
07314,1999-10-12 13:00:00,18.9,1023.4,-1.6,75,14.4,,18.52,,,60,,,,,,,,,,,og-post,,,,AAXX 12134 07314 36/// /0610 10189 20144 30207 40234 58016=
07314,1999-10-12 14:00:00,19,1023,-1.7,76,14.7,,18.52,,,50,,,,,,,,,,,og-post,,,,AAXX 12144 07314 36/// /0510 10190 20147 30203 40230 56017=
07314,1999-10-12 15:00:00,18.7,1022.7,-1.5,77,14.6,22000,18.52,,,50,,,,,,,,,,,og-post,,,,AAXX 12154 07314 32972 60510 10187 20146 30200 40227 56015 80005 222// 328// 333 92438=
07314,1999-10-12 16:00:00,18.5,1022.4,-1,76,14.2,,22.224,,,50,,,,,,,,,,,og-post,,,,AAXX 12164 07314 36/// /0512 10185 20142 30197 40224 56010=
07314,1999-10-12 17:00:00,18.1,1022.5,-0.5,81,14.8,,14.816,,,50,,,,,,,,,,,og-post,,,,AAXX 12174 07314 36/// /0508 10181 20148 30198 40225 55005=
07314,1999-10-12 18:00:00,17.9,1022.7,-0,79,14.2,18000,22.224,,,50,14.9,19.1,,,,,,,,,og-post,,,,AAXX 12184 07314 32968 70512 10179 20142 30200 40227 55000 82032 222// 328// 333 10191 20149 92437=
07314,1999-10-12 19:00:00,17.5,1022.8,4,80,14,,18.52,,,60,,,,,,,,,,,og-post,,,,AAXX 12194 07314 36/// /0610 10175 20140 30201 40228 5204=
07314,1999-10-12 20:00:00,16.8,1022.6,0.1,84,14.1,,25.928,,,40,,,,,,,,,,,og-post,,,,AAXX 12204 07314 36/// /0414 10168 20141 30199 40226 50001=
07314,1999-10-12 21:00:00,16.2,1023.1,0.3,86,13.9,15000,25.928,,,50,,,,,,,,,,,og-post,,,,AAXX 12214 07314 32965 80514 10162 20139 30203 40231 53003 80002 222// 328// 333 92437=
07314,1999-10-12 22:00:00,15.7,1023.1,0.2,87,13.5,,18.52,,,60,,,,,,,,,,,og-post,,,,AAXX 12224 07314 36/// /0610 10157 20135 30203 40231 53002=
07314,1999-10-12 23:00:00,15.5,1022.7,0,88,13.5,,18.52,,,60,,,,,,,,,,,og-post,,,,AAXX 12234 07314 36/// /0610 10155 20135 30199 40227 50000=
07314,1999-10-13 00:00:00,15.2,1022.4,-0.7,88,13.2,,22.224,,,60,,,,,,,,,,,og-post,,,,AAXX 13004 07314 36/// /0612 10152 20132 30196 40224 58007=
07314,1999-10-13 01:00:00,14.9,1022.2,-0.9,89,13.1,,22.224,,,60,,,,,,,,,,,og-post,,,,AAXX 13014 07314 36/// /0612 10149 20131 30194 40222 56009=
07314,1999-10-13 02:00:00,14.6,1021.8,-0.9,91,13.1,,22.224,,,60,,,,,,,,,,,og-post,,,,AAXX 13024 07314 36/// /0612 10146 20131 30190 40218 58009=
07314,1999-10-13 03:00:00,14.3,1021.4,-1,92,13,,22.224,,,50,,,,,,,,,,,og-post,,,,AAXX 13034 07314 36/// /0512 10143 20130 30186 40214 58010=
07314,1999-10-13 04:00:00,14.3,1021.1,-1.1,92,13,,22.224,,,50,,,,,,,,,,,og-post,,,,AAXX 13044 07314 36/// /0512 10143 20130 30183 40211 56011=
07314,1999-10-13 05:00:00,14.1,1021.1,-0.7,93,13,,25.928,,,50,,,,,,,,,,,og-post,,,,AAXX 13054 07314 36/// /0514 10141 20130 30183 40211 56007=
07314,1999-10-13 06:00:00,14,1021,-0.4,93,12.9,12000,18.52,,,60,13.9,17.9,,,,,,,,,og-post,,,,AAXX 13064 07314 32862 70610 10140 20129 30182 40210 56004 8702/ 222// 328// 333 10179 20139 92437=
07314,1999-10-13 07:00:00,14,1021.1,-0,94,13,,22.224,,,60,,,,,,,,,,,og-post,,,,AAXX 13074 07314 36/// /0612 10140 20130 30183 40211 55000=
07314,1999-10-13 08:00:00,14.1,1021.9,0.8,93,13,,18.52,,,60,,,,,,,,,,,og-post,,,,AAXX 13084 07314 36/// /0610 10141 20130 30191 40219 53008=
07314,1999-10-13 09:00:00,14.6,1022,1,92,13.3,8000,18.52,,,70,,,,,,,,,,,og-post,,,,AAXX 13094 07314 32858 70710 10146 20133 30192 40220 52010 8702/ 222// 328// 333 92436=
07314,1999-10-13 10:00:00,15.8,1021.8,0.7,90,14.2,,14.816,,,70,,,,,,,,,,,og-post,,,,AAXX 13104 07314 36/// /0708 10158 20142 30190 40218 50007=
07314,1999-10-13 11:00:00,16.2,1021.9,-0,87,14,,14.816,,,70,,,,,,,,,,,og-post,,,,AAXX 13114 07314 36/// /0708 10162 20140 30191 40219 54000=
07314,1999-10-13 12:00:00,18,1021.7,-0.2,83,15.1,,11.112,,,70,,,,,,,,,,,og-post,,,,AAXX 13124 07314 36/// /0706 10180 20151 30190 40217 56002=
07314,1999-10-13 13:00:00,18,1021.3,-0.4,84,15.3,,11.112,,,60,,,,,,,,,,,og-post,,,,AAXX 13134 07314 36/// /0606 10180 20153 30186 40213 58004=
07314,1999-10-13 14:00:00,18.1,1021.1,-0.7,85,15.5,,11.112,,,60,,,,,,,,,,,og-post,,,,AAXX 13144 07314 36/// /0606 10181 20155 30184 40211 58007=
07314,1999-10-13 15:00:00,18.1,1020.9,-0.8,86,15.7,10000,14.816,,,60,,,,,,,,,,,og-post,,,,AAXX 13154 07314 32860 80608 10181 20157 30182 40209 56008 8802/ 222// 328// 333 92437=
07314,1999-10-13 16:00:00,18,1021,-0.3,85,15.4,,14.816,,,60,,,,,,,,,,,og-post,,,,AAXX 13164 07314 36/// /0608 10180 20154 30183 40210 55003=
07314,1999-10-13 17:00:00,17.6,1021.2,0.1,87,15.4,,18.52,,,60,,,,,,,,,,,og-post,,,,AAXX 13174 07314 36/// /0610 10176 20154 30185 40212 53001=
07314,1999-10-13 18:00:00,16.6,1021.6,0.7,89,14.8,12000,22.224,,,60,13.8,18.2,,,,,,,,,og-post,,,,AAXX 13184 07314 32862 80612 10166 20148 30189 40216 53007 88020 222// 328// 333 10182 20138 92437=
07314,1999-10-13 19:00:00,15.8,1022.1,1,91,14.3,,18.52,,,70,,,,,,,,,,,og-post,,,,AAXX 13194 07314 36/// /0710 10158 20143 30193 40221 53010=
07314,1999-10-13 20:00:00,15.7,1022.1,0.8,92,14.4,,22.224,,,80,,,,,,,,,,,og-post,,,,AAXX 13204 07314 36/// /0812 10157 20144 30193 40221 51008=
07314,1999-10-13 21:00:00,15.4,1022.3,0.6,93,14.3,,18.52,,,80,,,,,,,,,,,og-post,,,,AAXX 13214 07314 36/// /0810 10154 20143 30195 40223 51006=
07314,1999-10-13 22:00:00,15,1022.2,0.1,96,14.4,,18.52,,,70,,,2,,,,,,,,og-post,,,,AAXX 13224 07314 26/// /0710 10150 20144 30194 40222 50001 333 60025=
07314,1999-10-13 23:00:00,14.8,1022.1,0,97,14.3,,18.52,,,70,,,,,,,,,,,og-post,,,,AAXX 13234 07314 36/// /0710 10148 20143 30193 40221 50000=
07314,1999-10-14 00:00:00,14.9,1021.8,-0.5,96,14.3,,18.52,,,80,,,,2,2,,,,,,og-post,,,,AAXX 14004 07314 /6/// /0810 10149 20143 30190 40218 58005 60021 333 60027=
07314,1999-10-14 01:00:00,15.1,1021.7,-0.5,96,14.5,,18.52,,,90,,,,,,,,,,,og-post,,,,AAXX 14014 07314 36/// /0910 10151 20145 30189 40217 57005=
07314,1999-10-14 02:00:00,14.9,1021.4,-0.7,96,14.3,,14.816,,,90,,,,,,,,,,,og-post,,,,AAXX 14024 07314 36/// /0908 10149 20143 30186 40214 57007=
07314,1999-10-14 03:00:00,14.8,1021.1,-0.7,97,14.3,,18.52,,,80,,,,,,,,,,,og-post,,,,AAXX 14034 07314 36/// /0810 10148 20143 30183 40211 58007=
07314,1999-10-14 04:00:00,15,1021,-0.7,97,14.5,,18.52,,,90,,,,,,,,,,,og-post,,,,AAXX 14044 07314 36/// /0910 10150 20145 30182 40210 56007=
07314,1999-10-14 05:00:00,14.9,1021,-0.4,97,14.4,,14.816,,,100,,,,,,,,,,,og-post,,,,AAXX 14054 07314 36/// /1008 10149 20144 30182 40210 56004=
07314,1999-10-14 06:00:00,14.9,1020.8,-0.3,97,14.4,8000,11.112,,,100,14.7,16.6,,,,2,,,,,og-post,,,,AAXX 14064 07314 12558 81006 10149 20144 30180 40208 58003 60022 8372/ 222// 328// 333 10166 20147 92436=
07314,1999-10-14 07:00:00,15.1,1021.2,0.2,98,14.8,,11.112,,,110,,,0.2,,,,,,,,og-post,,,,AAXX 14074 07314 26/// /1106 10151 20148 30184 40212 53002 333 69925=
07314,1999-10-14 08:00:00,15.2,1021.7,0.7,98,14.9,,11.112,,,110,,,0.2,,,,,,,,og-post,,,,AAXX 14084 07314 26/// /1106 10152 20149 30189 40217 53007 333 69925=
07314,1999-10-14 09:00:00,15.7,1021.7,0.9,98,15.4,,11.112,,,120,,,,0.4,,,,,,,og-post,,,,AAXX 14094 07314 26/// /1206 10157 20154 30189 40217 51009 333 69947=
07314,1999-10-14 10:00:00,17,1021.5,0.4,99,16.8,,7.408,,,120,,,,,,,,,,,og-post,,,,AAXX 14104 07314 36/// /1204 10170 20168 30188 40215 50004=
07314,1999-10-14 11:00:00,18.3,1021.9,0.3,98,18,,14.816,,,160,,,,,,,,,,,og-post,,,,AAXX 14114 07314 36/// /1608 10183 20180 30192 40219 53003=
07314,1999-10-14 12:00:00,18,1021.6,0,94,17,14000,18.52,,,150,,,,,0.4,,,,,,og-post,,,,AAXX 14124 07314 12564 81510 10180 20170 30189 40216 50000 69941 8372/ 222// 328// 333 92437=
07314,1999-10-14 13:00:00,18.1,1021.4,-0.1,93,16.9,,18.52,,,150,,,,,,,,,,,og-post,,,,AAXX 14134 07314 36/// /1510 10181 20169 30187 40214 58001=
07314,1999-10-14 14:00:00,18.3,1021,-0.9,93,17.1,,14.816,,,140,,,,,,,,,,,og-post,,,,AAXX 14144 07314 36/// /1408 10183 20171 30183 40210 58009=
07314,1999-10-14 15:00:00,18.2,1021.1,-0.5,90,16.5,,18.52,,,160,,,,,,,,,,,og-post,,,,AAXX 14154 07314 36/// /1610 10182 20165 30184 40211 55005=
07314,1999-10-14 16:00:00,18,1021,-0.4,92,16.7,,25.928,,,160,,,,,,,,,,,og-post,,,,AAXX 14164 07314 36/// /1614 10180 20167 30183 40210 56004=
07314,1999-10-14 17:00:00,17.4,1020.9,-0.1,97,16.9,,22.224,,,170,,,1,,,,,,,,og-post,,,,AAXX 14174 07314 26/// /1712 10174 20169 30182 40209 58001 333 60015=
07314,1999-10-14 18:00:00,17.1,1021.1,-0,97,16.6,,18.52,,,190,14.9,19,,1,,2,,,,,og-post,,,,AAXX 14184 07314 /6/// /1910 10171 20166 30184 40211 55000 60022 333 10190 20149 60017=
07314,1999-10-14 19:00:00,17.1,1021.1,0.1,93,16,,18.52,,,210,,,,,,,,,,,og-post,,,,AAXX 14194 07314 36/// /2110 10171 20160 30184 40211 53001=
07314,1999-10-14 20:00:00,17.1,1021.1,0.2,91,15.6,,18.52,,,210,,,,,,,,,,,og-post,,,,AAXX 14204 07314 36/// /2110 10171 20156 30184 40211 51002=
07314,1999-10-14 21:00:00,17.2,1021.2,0.1,92,15.9,,14.816,,,200,,,,,,,,,,,og-post,,,,AAXX 14214 07314 36/// /2008 10172 20159 30185 40212 53001=
07314,1999-10-14 22:00:00,16.9,1021.1,0,93,15.8,,14.816,,,200,,,,,,,,,,,og-post,,,,AAXX 14224 07314 36/// /2008 10169 20158 30184 40211 50000=
07314,1999-10-14 23:00:00,17,1020.9,-0.2,90,15.3,,18.52,,,210,,,,,,,,,,,og-post,,,,AAXX 14234 07314 36/// /2110 10170 20153 30182 40209 58002=
07314,1999-10-15 00:00:00,17,1021,-0.2,89,15.2,,18.52,,,220,,,,,,,,,,,og-post,,,,AAXX 15004 07314 36/// /2210 10170 20152 30183 40210 55002=
07314,1999-10-15 01:00:00,16.9,1020.8,-0.3,90,15.2,,18.52,,,230,,,,,,,,,,,og-post,,,,AAXX 15014 07314 36/// /2310 10169 20152 30181 40208 57003=
07314,1999-10-15 02:00:00,16.8,1020.4,-0.5,89,15,,22.224,,,220,,,,,,,,,,,og-post,,,,AAXX 15024 07314 36/// /2212 10168 20150 30177 40204 58005=
07314,1999-10-15 03:00:00,16.9,1020,-1,89,15.1,,22.224,,,230,,,,,,,,,,,og-post,,,,AAXX 15034 07314 36/// /2312 10169 20151 30173 40200 58010=
07314,1999-10-15 04:00:00,17,1019.8,-1,88,15,,22.224,,,220,,,,,,,,,,,og-post,,,,AAXX 15044 07314 36/// /2212 10170 20150 30171 40198 56010=
07314,1999-10-15 05:00:00,17,1019.9,-0.5,89,15.2,,22.224,,,230,,,,,,,,,,,og-post,,,,AAXX 15054 07314 36/// /2312 10170 20152 30172 40199 55005=
07314,1999-10-15 06:00:00,17,1019.9,-0.1,88,15,18000,22.224,,,230,16.8,17.2,,,,,,,,,og-post,,,,AAXX 15064 07314 32568 32312 10170 20150 30172 40199 56001 82260 222// 328// 333 10172 20168 92437=
07314,1999-10-15 07:00:00,17.1,1020.1,0.3,85,14.6,,22.224,,,250,,,,,,,,,,,og-post,,,,AAXX 15074 07314 36/// /2512 10171 20146 30174 40201 53003=
07314,1999-10-15 08:00:00,17.3,1020.3,0.4,85,14.8,,22.224,,,260,,,,,,,,,,,og-post,,,,AAXX 15084 07314 36/// /2612 10173 20148 30176 40203 53004=
07314,1999-10-15 09:00:00,17.7,1020.4,0.5,83,14.8,20000,14.816,,,260,,,,,,,,,,,og-post,,,,AAXX 15094 07314 32570 32608 10177 20148 30177 40204 51005 83200 222// 328// 333 92438=
07314,1999-10-15 10:00:00,18.1,1020.6,0.5,82,15,,11.112,,,250,,,,,,,,,,,og-post,,,,AAXX 15104 07314 36/// /2506 10181 20150 30179 40206 52005=
07314,1999-10-15 11:00:00,18.4,1020.7,0.4,82,15.3,,14.816,,,260,,,,,,,,,,,og-post,,,,AAXX 15114 07314 36/// /2608 10184 20153 30180 40207 52004=
07314,1999-10-15 12:00:00,18.7,1020.2,-0.2,81,15.4,25000,11.112,,,250,,,,,,,,,,,og-post,,,,AAXX 15124 07314 32575 22506 10187 20154 30175 40202 58002 82200 222// 328// 333 92438=
07314,1999-10-15 13:00:00,18.7,1019.9,-0.7,78,14.8,,11.112,,,260,,,,,,,,,,,og-post,,,,AAXX 15134 07314 36/// /2606 10187 20148 30172 40199 58007=
07314,1999-10-15 14:00:00,18.6,1019.8,-0.9,77,14.5,,7.408,,,260,,,,,,,,,,,og-post,,,,AAXX 15144 07314 36/// /2604 10186 20145 30171 40198 56009=
07314,1999-10-15 15:00:00,18.9,1019.3,-0.9,74,14.2,25000,3.704,,,250,,,,,,,,,,,og-post,,,,AAXX 15154 07314 32575 12502 10189 20142 30166 40193 58009 81200 222// 328// 333 92438=
07314,1999-10-15 16:00:00,18.4,1019.4,-0.5,77,14.3,,3.704,,,240,,,,,,,,,,,og-post,,,,AAXX 15164 07314 36/// /2402 10184 20143 30167 40194 55005=
07314,1999-10-15 17:00:00,17.4,1019.4,-0.4,82,14.3,,3.704,,,220,,,,,,,,,,,og-post,,,,AAXX 15174 07314 36/// /2202 10174 20143 30167 40194 56004=
07314,1999-10-15 18:00:00,16.3,1019.7,0.4,89,14.5,20000,3.704,,,220,16.2,19,,,,,,,,,og-post,,,,AAXX 15184 07314 32570 12202 10163 20145 30170 40197 53004 81101 222// 328// 333 10190 20162 92428=
07314,1999-10-15 19:00:00,15.9,1019.8,0.4,89,14.1,,,,,,,,,,,,,,,,og-post,,,,AAXX 15194 07314 36/// /0000 10159 20141 30171 40198 53004=
07314,1999-10-15 20:00:00,15.4,1019.7,0.2,92,14.1,,,,,,,,,,,,,,,,og-post,,,,AAXX 15204 07314 36/// /0000 10154 20141 30169 40197 50002=
07314,1999-10-15 21:00:00,15.5,1019.7,-0.1,94,14.5,22000,7.408,,,50,,,,,,,,,,,og-post,,,,AAXX 15214 07314 32572 10504 10155 20145 30169 40197 58001 81100 222// 328// 333 92428=
07314,1999-10-15 22:00:00,15.8,1019.4,-0.4,93,14.7,,11.112,,,60,,,,,,,,,,,og-post,,,,AAXX 15224 07314 36/// /0606 10158 20147 30167 40194 57004=
07314,1999-10-15 23:00:00,15.7,1019.3,-0.3,93,14.6,,7.408,,,70,,,,,,,,,,,og-post,,,,AAXX 15234 07314 36/// /0704 10157 20146 30166 40193 58003=
07314,1999-10-16 01:00:00,14.9,1019.3,-0.2,96,14.3,,7.408,,,70,,,,,,,,,,,og-post,,,,AAXX 16014 07314 36/// /0704 10149 20143 30165 40193 56002=
07314,1999-10-16 02:00:00,14.9,1018.7,-0.7,96,14.3,,14.816,,,70,,,0.2,,,,,,,,og-post,,,,AAXX 16024 07314 26/// /0708 10149 20143 30159 40187 58007 333 69925=
07314,1999-10-16 03:00:00,14.6,1018.2,-1.1,96,14,,11.112,,,80,,,,0.2,,,,,,,og-post,,,,AAXX 16034 07314 26/// /0806 10146 20140 30154 40182 58011 333 69927=
07314,1999-10-16 04:00:00,14.7,1018.4,-0.9,95,13.9,,11.112,,,90,,,,,,,,,,,og-post,,,,AAXX 16044 07314 36/// /0906 10147 20139 30156 40184 55009=
07314,1999-10-16 05:00:00,14.5,1018.4,-0.3,95,13.7,,11.112,,,90,,,,,,,,,,,og-post,,,,AAXX 16054 07314 36/// /0906 10145 20137 30156 40184 56003=
07314,1999-10-16 06:00:00,14.4,1018.1,-0.1,96,13.8,18000,11.112,,,90,14.1,16.5,,,,0.2,,,,,og-post,,,,AAXX 16064 07314 12/68 10906 10144 20138 30153 40181 58001 69922 80002 222// 328// 333 10165 20141 92437=
07314,1999-10-16 07:00:00,14.3,1018.1,-0.3,96,13.7,,7.408,,,100,,,,,,,,,,,og-post,,,,AAXX 16074 07314 36/// /1004 10143 20137 30153 40181 57003=
07314,1999-10-16 08:00:00,15.4,1018.1,-0.2,93,14.3,,11.112,,,100,,,,,,,,,,,og-post,,,,AAXX 16084 07314 36/// /1006 10154 20143 30154 40181 55002=
07314,1999-10-16 09:00:00,16.3,1017.7,-0.3,85,13.8,17000,14.816,,,90,,,,,,,,,,,og-post,,,,AAXX 16094 07314 32/67 50908 10163 20138 30150 40177 58003 80001 222// 328// 333 92437=
07314,1999-10-16 10:00:00,17,1017.5,-0.5,81,13.7,,14.816,,,90,,,,,,,,,,,og-post,,,,AAXX 16104 07314 36/// /0908 10170 20137 30148 40175 58005=
07314,1999-10-16 11:00:00,18.4,1017.1,-1,77,14.3,,14.816,,,90,,,,,,,,,,,og-post,,,,AAXX 16114 07314 36/// /0908 10184 20143 30144 40171 57010=
07314,1999-10-16 12:00:00,19,1016.1,-1.6,74,14.3,22000,14.816,,,80,,,,,,,,,,,og-post,,,,AAXX 16124 07314 32972 40808 10190 20143 30134 40161 58016 80001 222// 328// 333 92438=
07314,1999-10-16 13:00:00,19.5,1015.2,-2.3,74,14.7,,14.816,,,80,,,,,,,,,,,og-post,,,,AAXX 16134 07314 36/// /0808 10195 20147 30125 40152 58023=
07314,1999-10-16 14:00:00,19.1,1014.4,-2.7,78,15.2,,11.112,,,70,,,,,,,,,,,og-post,,,,AAXX 16144 07314 36/// /0706 10191 20152 30117 40144 56027=
07314,1999-10-16 15:00:00,20.2,1014.3,-1.8,74,15.4,20000,7.408,,,80,,,,,,,,,,,og-post,,,,AAXX 16154 07314 32970 50804 10202 20154 30116 40143 56018 80002 222// 328// 333 92428=
07314,1999-10-16 16:00:00,18.6,1014.1,-1.1,81,15.3,,7.408,,,60,,,,,,,,,,,og-post,,,,AAXX 16164 07314 36/// /0604 10186 20153 30114 40141 56011=
07314,1999-10-16 18:00:00,17.2,1013.8,-0.5,82,14.1,12000,18.52,,,60,14.2,20.2,,,,,,,,,og-post,,,,AAXX 16184 07314 32962 70610 10172 20141 30111 40138 55005 80002 222// 328// 333 10202 20142 92427=
07314,1999-10-16 19:00:00,15.7,1014,-0.1,86,13.4,,18.52,,,70,,,,,,,,,,,og-post,,,,AAXX 16194 07314 36/// /0710 10157 20134 30113 40140 55001=
07314,1999-10-16 20:00:00,14.7,1013.6,-0.1,89,12.9,,22.224,,,70,,,,,,,,,,,og-post,,,,AAXX 16204 07314 36/// /0712 10147 20129 30109 40136 58001=
07314,1999-10-16 21:00:00,14.3,1013.7,-0.1,91,12.9,,22.224,,,80,,,,,,,,,,,og-post,,,,AAXX 16214 07314 36/// /0812 10143 20129 30110 40137 58001=
07314,1999-10-16 22:00:00,14.1,1013.2,-0.8,92,12.8,,22.224,,,80,,,,,,,,,,,og-post,,,,AAXX 16224 07314 36/// /0812 10141 20128 30105 40132 58008=
07314,1999-10-16 23:00:00,13.9,1012.7,-0.9,92,12.6,,22.224,,,80,,,,,,,,,,,og-post,,,,AAXX 16234 07314 36/// /0812 10139 20126 30100 40127 58009=
07314,1999-10-17 00:00:00,13.8,1012.4,-1.3,93,12.7,,22.224,,,80,,,,,,,,,,,og-post,,,,AAXX 17004 07314 36/// /0812 10138 20127 30097 40124 56013=
07314,1999-10-17 01:00:00,13.7,1012.5,-0.8,94,12.8,,18.52,,,90,,,,,,,,,,,og-post,,,,AAXX 17014 07314 36/// /0910 10137 20128 30097 40125 56008=
07314,1999-10-17 02:00:00,13.4,1012.1,-0.7,93,12.3,,14.816,,,100,,,,,,,,,,,og-post,,,,AAXX 17024 07314 36/// /1008 10134 20123 30093 40121 58007=
07314,1999-10-17 03:00:00,13.4,1011.6,-0.9,94,12.5,,14.816,,,90,,,,,,,,,,,og-post,,,,AAXX 17034 07314 36/// /0908 10134 20125 30088 40116 58009=
07314,1999-10-17 04:00:00,13.4,1011.5,-1,95,12.6,,14.816,,,90,,,,,,,,,,,og-post,,,,AAXX 17044 07314 36/// /0908 10134 20126 30087 40115 56010=
07314,1999-10-17 05:00:00,13.3,1011.5,-0.6,94,12.4,,11.112,,,100,,,,,,,,,,,og-post,,,,AAXX 17054 07314 36/// /1006 10133 20124 30087 40115 56006=
07314,1999-10-17 06:00:00,13.5,1011.5,-0,95,12.7,15000,11.112,,,120,13.2,17.1,,,,,,,,,og-post,,,,AAXX 17064 07314 32565 81206 10135 20127 30088 40115 55000 8352/ 222// 328// 333 10171 20132 92427=
07314,1999-10-17 07:00:00,13.4,1011.7,0.2,94,12.5,,11.112,,,120,,,,,,,,,,,og-post,,,,AAXX 17074 07314 36/// /1206 10134 20125 30089 40117 53002=
07314,1999-10-17 08:00:00,13.7,1012,0.6,94,12.8,,14.816,,,130,,,,,,,,,,,og-post,,,,AAXX 17084 07314 36/// /1308 10137 20128 30093 40120 53006=
07314,1999-10-17 09:00:00,14.6,1012,0.5,96,14,10000,11.112,,,140,,,,,,,,,,,og-post,,,,AAXX 17094 07314 32860 81406 10146 20140 30093 40120 51005 8807/ 222// 328// 333 92427=
07314,1999-10-17 10:00:00,17.2,1012,0.4,93,16.1,,11.112,,,190,,,,,,,,,,,og-post,,,,AAXX 17104 07314 36/// /1906 10172 20161 30093 40120 51004=
07314,1999-10-17 11:00:00,17.2,1012.4,0.4,89,15.4,,7.408,,,250,,,,,,,,,,,og-post,,,,AAXX 17114 07314 36/// /2504 10172 20154 30097 40124 53004=
07314,1999-10-17 12:00:00,16.4,1011.8,-0.2,93,15.3,10000,7.408,,,90,,,,0.2,0.2,,,,,,og-post,,,,AAXX 17124 07314 /2560 80904 10164 20153 30091 40118 58002 69921 8127/ 222// 328// 333 69927 92427=
07314,1999-10-17 13:00:00,16.5,1012,0,95,15.7,,7.408,,,170,,,0.2,,,,,,,,og-post,,,,AAXX 17134 07314 26/// /1704 10165 20157 30093 40120 50000 333 69925=
07314,1999-10-17 14:00:00,16.5,1012.1,-0.3,92,15.2,,22.224,,,200,,,0.4,,,,,,,,og-post,,,,AAXX 17144 07314 26/// /2012 10165 20152 30094 40121 55003 333 69945=
07314,1999-10-17 15:00:00,15.7,1011.6,-0.2,93,14.6,5000,14.816,,,180,,,,0.8,,,,,,16,og-post,,,,AAXX 17154 07314 21550 81808 10157 20146 30089 40116 58002 71682 8377/ 222// 328// 333 69987 92436=
07314,1999-10-17 16:00:00,15.1,1010.7,-1.3,96,14.5,,11.112,,,90,,,2,,,,,,,,og-post,,,,AAXX 17164 07314 26/// /0906 10151 20145 30080 40107 58013 333 60025=
07314,1999-10-17 17:00:00,15.3,1010.9,-1.2,96,14.7,,3.704,,,80,,,0.2,,,,,,,,og-post,,,,AAXX 17174 07314 26/// /0802 10153 20147 30082 40109 55012 333 69925=
07314,1999-10-17 18:00:00,14.4,1011.4,-0.2,96,13.8,15000,7.408,,,140,13.4,17.4,,2,,3,,,,2,og-post,,,,AAXX 17184 07314 /1465 61404 10144 20138 30087 40114 55002 60032 70282 82232 222// 328// 333 10174 20134 60027 92437=
07314,1999-10-17 19:00:00,14.9,1011.2,0.5,97,14.4,,11.112,,,90,,,,,,,,,,,og-post,,,,AAXX 17194 07314 36/// /0906 10149 20144 30085 40112 50005=
07314,1999-10-17 20:00:00,15.2,1011.5,0.6,97,14.7,,7.408,,,110,,,,,,,,,,,og-post,,,,AAXX 17204 07314 36/// /1104 10152 20147 30088 40115 51006=
07314,1999-10-17 21:00:00,14.6,1011.3,-0.1,97,14.1,18000,,,,,,,,,,,,,,,og-post,,,,AAXX 17214 07314 32868 80000 10146 20141 30086 40113 57001 8807/ 222// 328// 333 92437=
07314,1999-10-17 22:00:00,15.1,1010.4,-0.8,98,14.8,,7.408,,,50,,,,,,,,,,,og-post,,,,AAXX 17224 07314 36/// /0504 10151 20148 30077 40104 58008=
07314,1999-10-17 23:00:00,14.9,1009.6,-1.9,97,14.4,,22.224,,,40,,,,,,,,,,,og-post,,,,AAXX 17234 07314 36/// /0412 10149 20144 30069 40096 58019=
07314,1999-10-18 00:00:00,14.4,1009.2,-2.1,97,13.9,,22.224,,,30,,,,,,,,,,,og-post,,,,AAXX 18004 07314 36/// /0312 10144 20139 30065 40092 56021=
07314,1999-10-18 01:00:00,14.3,1008.8,-1.6,97,13.8,,25.928,,,30,,,,,,,,,,,og-post,,,,AAXX 18014 07314 36/// /0314 10143 20138 30061 40088 56016=
07314,1999-10-18 02:00:00,13.8,1007.5,-2.1,96,13.2,,29.632,,,20,,,,,,,,,,,og-post,,,,AAXX 18024 07314 36/// /0216 10138 20132 30048 40075 58021=
07314,1999-10-18 03:00:00,13.6,1006.6,-2.6,96,13,,31.484,,,20,,,,,,,,,,,og-post,,,,AAXX 18034 07314 36/// /0217 10136 20130 30039 40066 58026=
07314,1999-10-18 04:00:00,13.7,1006,-2.8,94,12.8,,31.484,,,20,,,,,,,,,,,og-post,,,,AAXX 18044 07314 36/// /0217 10137 20128 30033 40060 56028=
07314,1999-10-18 05:00:00,13.3,1005.8,-1.7,94,12.4,,29.632,,,30,,,,,,,,,,,og-post,,,,AAXX 18054 07314 36/// /0316 10133 20124 30031 40058 56017=
07314,1999-10-18 06:00:00,12.9,1005.9,-0.7,95,12.1,6000,25.928,,,40,12.8,15.4,,,,,,,,13,og-post,,,,AAXX 18064 07314 31456 80414 10129 20121 30032 40059 55007 71322 8232/ 222// 328// 333 10154 20128 92436=
07314,1999-10-18 07:00:00,12.4,1005.7,-0.3,95,11.6,,31.484,,,40,,,0.2,,,,,,,,og-post,,,,AAXX 18074 07314 26/// /0417 10124 20116 30030 40057 57003 333 69925=
07314,1999-10-18 08:00:00,12.2,1006.6,0.7,94,11.3,,25.928,,,50,,,,,,,,,,,og-post,,,,AAXX 18084 07314 36/// /0514 10122 20113 30038 40066 53007=
07314,1999-10-18 09:00:00,11.7,1006.5,0.5,97,11.2,6000,25.928,,,40,,,,2,,,,,,60,og-post,,,,AAXX 18094 07314 21756 80414 10117 20112 30037 40065 53005 76062 8802/ 222// 328// 333 60027 92436=
07314,1999-10-18 10:00:00,11.6,1006.6,0.8,97,11.1,,29.632,,,40,,,0.2,,,,,,,,og-post,,,,AAXX 18104 07314 26/// /0416 10116 20111 30038 40066 51008 333 69925=
07314,1999-10-18 11:00:00,11.8,1006.3,-0.3,97,11.3,,29.632,,,30,,,0.4,,,,,,,,og-post,,,,AAXX 18114 07314 26/// /0316 10118 20113 30035 40063 58003 333 69945=
07314,1999-10-18 14:00:00,12.2,1006.5,0.2,95,11.4,,22.224,,,30,,,,,,,,,,,og-post,,,,AAXX 18144 07314 26/// /0312 10122 20114 30037 40065 53002 333 69905=
07314,1999-10-18 15:00:00,12.4,1006.4,0.2,93,11.3,8000,25.928,,,20,,,,,,,,,,21,og-post,,,,AAXX 18154 07314 21558 80214 10124 20113 30037 40064 53002 72162 8172/ 222// 328// 333 69907 92436=
07314,1999-10-18 16:00:00,12.4,1006.7,0.6,92,11.1,,29.632,,,20,,,,,,,,,,,og-post,,,,AAXX 18164 07314 36/// /0216 10124 20111 30040 40067 52006=
07314,1999-10-18 17:00:00,12.3,1007.3,0.8,91,10.9,,22.224,,,10,,,,,,,,,,,og-post,,,,AAXX 18174 07314 36/// /0112 10123 20109 30045 40073 53008=
07314,1999-10-18 18:00:00,12.4,1008,1.5,90,10.8,10000,25.928,,,360,11.6,12.9,,,,3,,,,2,og-post,,,,AAXX 18184 07314 11560 83614 10124 20108 30052 40080 53015 60032 70262 8372/ 222// 328// 333 10129 20116 92437=
07314,1999-10-18 19:00:00,12.7,1008.3,1.5,89,10.9,,25.928,,,10,,,,,,,,,,,og-post,,,,AAXX 18194 07314 36/// /0114 10127 20109 30055 40083 51015=
07314,1999-10-18 20:00:00,12.8,1008.1,0.9,87,10.7,,25.928,,,20,,,,,,,,,,,og-post,,,,AAXX 18204 07314 36/// /0214 10128 20107 30054 40081 50009=
07314,1999-10-18 21:00:00,12.9,1008.3,0.4,84,10.3,12000,22.224,,,30,,,,,,,,,,,og-post,,,,AAXX 18214 07314 32562 80312 10129 20103 30056 40083 51004 8222/ 222// 328// 333 92437=
07314,1999-10-18 22:00:00,12.5,1008.6,0.3,81,9.3,,22.224,,,40,,,,,,,,,,,og-post,,,,AAXX 18224 07314 36/// /0412 10125 20093 30058 40086 53003=
07314,1999-10-18 23:00:00,12.2,1008.6,0.4,79,8.7,,18.52,,,40,,,,,,,,,,,og-post,,,,AAXX 18234 07314 36/// /0410 10122 20087 30058 40086 51004=
07314,1999-10-19 00:00:00,12,1008.5,0.1,75,7.7,,18.52,,,40,,,,,,,,,,,og-post,,,,AAXX 19004 07314 36/// /0410 10120 20077 30057 40085 50001=
07314,1999-10-19 02:00:00,11.9,1008.2,-0.4,75,7.6,,11.112,,,10,,,,,,,,,,,og-post,,,,AAXX 19024 07314 36/// /0106 10119 20076 30054 40082 58004=
07314,1999-10-19 04:00:00,11.4,1007.3,-1.2,75,7.1,,11.112,,,20,,,,,,,,,,,og-post,,,,AAXX 19044 07314 36/// /0206 10114 20071 30045 40073 58012=
07314,1999-10-19 05:00:00,11.2,1007.1,-1.1,76,7.1,,7.408,,,20,,,,,,,,,,,og-post,,,,AAXX 19054 07314 36/// /0204 10112 20071 30043 40071 56011=
07314,1999-10-19 06:00:00,11.1,1006.8,-1,76,7,,7.408,,,30,11.1,13,,,,,,,,,og-post,,,,AAXX 19064 07314 36/// /0304 10111 20070 30040 40068 56010 333 10130 20111=
07314,1999-10-19 07:00:00,10.9,1006.8,-0.5,79,7.4,,7.408,,,70,,,,,,,,,,,og-post,,,,AAXX 19074 07314 36/// /0704 10109 20074 30040 40068 56005=
07314,1999-10-19 08:00:00,10.8,1006.7,-0.4,81,7.7,,7.408,,,80,,,,,,,,,,,og-post,,,,AAXX 19084 07314 36/// /0804 10108 20077 30039 40067 56004=
07314,1999-10-19 09:00:00,10.6,1006.5,-0.3,86,8.4,18000,7.408,,,110,,,,,,,,,,,og-post,,,,AAXX 19094 07314 32968 81104 10106 20084 30037 40065 58003 88030 222// 328// 333 92437=
07314,1999-10-19 10:00:00,10.2,1006.4,-0.4,90,8.6,,11.112,,,150,,,0.2,,,,,,,,og-post,,,,AAXX 19104 07314 26/// /1506 10102 20086 30036 40064 57004 333 69925=
07314,1999-10-19 11:00:00,10,1006.3,-0.4,94,9.1,,7.408,,,100,,,0.6,,,,,,,,og-post,,,,AAXX 19114 07314 26/// /1004 10100 20091 30035 40063 56004 333 69965=
07314,1999-10-19 12:00:00,10.6,1005.9,-0.6,96,10,6000,7.408,,,120,,,,1,1,,,,,60,og-post,,,,AAXX 19124 07314 /1556 81204 10106 20100 30031 40059 58006 60011 76062 82730 222// 328// 333 60017 92436=
07314,1999-10-19 13:00:00,10.9,1005.5,-0.9,97,10.4,,7.408,,,120,,,2,,,,,,,,og-post,,,,AAXX 19134 07314 26/// /1204 10109 20104 30027 40055 58009 333 60025=
07314,1999-10-19 14:00:00,11.4,1005.2,-1.1,98,11.1,,7.408,,,90,,,1,,,,,,,,og-post,,,,AAXX 19144 07314 26/// /0904 10114 20111 30024 40052 56011 333 60015=
07314,1999-10-19 15:00:00,12,1005.2,-0.6,98,11.7,7000,7.408,,,100,,,,4,,,,,,21,og-post,,,,AAXX 19154 07314 21557 81004 10120 20117 30025 40052 55006 72122 82730 222// 328// 333 60047 92436=
07314,1999-10-19 16:00:00,12.7,1004.7,,98,12.4,,11.112,,,100,,,,,,,,,,,og-post,,,,AAXX 19164 07314 36/// /1006 10127 20124 30020 4004758007=
07314,1999-10-19 17:00:00,12.2,1004.7,-0.4,97,11.7,,3.704,,,120,,,,,,,,,,,og-post,,,,AAXX 19174 07314 36/// /1202 10122 20117 30020 40047 58004=
07314,1999-10-19 18:00:00,11.8,1004.6,-0.6,98,11.5,5000,7.408,,,110,9.9,12.8,,,,5,,,,,og-post,,,,AAXX 19184 07314 12550 81104 10118 20115 30019 40046 56006 60052 82730 222// 328// 333 10128 20099 92439=
07314,1999-10-19 19:00:00,12.4,1004.6,-0.1,98,12.1,,3.704,,,60,,,6,,,,,,,,og-post,,,,AAXX 19194 07314 26/// /0602 10124 20121 30019 40046 57001 333 60065=
07314,1999-10-19 20:00:00,12.1,1004.4,-0.3,98,11.8,,11.112,,,130,,,0.2,,,,,,,,og-post,,,,AAXX 19204 07314 26/// /1306 10121 20118 30017 40044 58003 333 69925=
07314,1999-10-19 21:00:00,11.8,1004.2,-0.4,99,11.6,,11.112,,,130,,,,7,,,,,,,og-post,,,,AAXX 19214 07314 26/// /1306 10118 20116 30015 40042 58004 333 60077=
07314,1999-10-19 22:00:00,11.6,1003.6,-1,99,11.4,,7.408,,,140,,,0.2,,,,,,,,og-post,,,,AAXX 19224 07314 26/// /1404 10116 20114 30009 40036 58010 333 69925=
07314,1999-10-19 23:00:00,12,1003.2,-1.2,99,11.8,,14.816,,,130,,,,,,,,,,,og-post,,,,AAXX 19234 07314 36/// /1308 10120 20118 30005 40032 58012=
07314,1999-10-20 00:00:00,12,1002.2,-2,99,11.8,,14.816,,,130,,,,0.2,7,,,,,,og-post,,,,AAXX 20004 07314 /6/// /1308 10120 20118 39995 40022 58020 60071 333 69927=
07314,1999-10-20 01:00:00,11.9,1001.7,-1.9,99,11.7,,18.52,,,130,,,,,,,,,,,og-post,,,,AAXX 20014 07314 36/// /1310 10119 20117 39990 40017 58019=
07314,1999-10-20 02:00:00,11.9,1001,-2.2,99,11.7,,14.816,,,130,,,,,,,,,,,og-post,,,,AAXX 20024 07314 36/// /1308 10119 20117 39983 40010 56022=
07314,1999-10-20 03:00:00,12.3,999.8,-2.4,99,12.1,,18.52,,,130,,,,,,,,,,,og-post,,,,AAXX 20034 07314 36/// /1310 10123 20121 39971 49998 58024=
07314,1999-10-20 04:00:00,12.3,999.2,-2.5,100,12.3,,18.52,,,120,,,,,,,,,,,og-post,,,,AAXX 20044 07314 36/// /1210 10123 20123 39965 49992 56025=
07314,1999-10-20 05:00:00,12.2,998,-3,99,12,,14.816,,,110,,,,,,,,,,,og-post,,,,AAXX 20054 07314 36/// /1108 10122 20120 39953 49980 57030=
07314,1999-10-20 06:00:00,12.4,997.2,-2.6,99,12.2,12000,18.52,,,110,11.4,12.5,,0.2,,7,,,,60,og-post,,,,AAXX 20064 07314 /1562 81110 10124 20122 39945 49972 58026 60072 76022 82720 222// 328// 333 10125 20114 69927 92437=
07314,1999-10-20 07:00:00,12.4,996.5,-2.7,99,12.2,,18.52,,,110,,,0.2,,,,,,,,og-post,,,,AAXX 20074 07314 26/// /1110 10124 20122 39938 49965 56027 333 69925=
07314,1999-10-20 08:00:00,12.3,995.8,-2.2,98,12,,18.52,,,120,,,,,,,,,,,og-post,,,,AAXX 20084 07314 26/// /1210 10123 20120 39931 49958 56022 333 69905=
07314,1999-10-20 09:00:00,12.6,995.1,-2.1,97,12.1,,18.52,,,110,,,,0.8,,,,,,,og-post,,,,AAXX 20094 07314 26/// /1110 10126 20121 39924 49951 57021 333 69987=
07314,1999-10-20 10:00:00,12.6,994.4,-2.1,97,12.1,,22.224,,,110,,,0.8,,,,,,,,og-post,,,,AAXX 20104 07314 26/// /1112 10126 20121 39917 49944 57021 333 69985=
07314,1999-10-20 11:00:00,12.8,994,-1.8,97,12.3,,18.52,,,100,,,2,,,,,,,,og-post,,,,AAXX 20114 07314 26/// /1010 10128 20123 39913 49940 56018 333 60025=
07314,1999-10-20 12:00:00,13,993.1,-2,97,12.5,10000,14.816,,,110,,,,4,4,,,,,60,og-post,,,,AAXX 20124 07314 /1560 81108 10130 20125 39904 49931 58020 60041 76062 885// 222// 328// 333 60047 92437=
07314,1999-10-20 13:00:00,13.3,992.6,-1.8,97,12.8,,18.52,,,100,,,2,,,,,,,,og-post,,,,AAXX 20134 07314 26/// /1010 10133 20128 39899 49926 58018 333 60025=
07314,1999-10-20 14:00:00,13.4,992.4,-1.6,97,12.9,,18.52,,,100,,,1,,,,,,,,og-post,,,,AAXX 20144 07314 26/// /1010 10134 20129 39897 49924 56016 333 60015=
07314,1999-10-20 15:00:00,13.6,992.1,-1,97,13.1,8000,18.52,,,90,,,,4,,,,,,61,og-post,,,,AAXX 20154 07314 21558 80910 10136 20131 39894 49921 56010 76162 835// 222// 328// 333 60047 92436=
07314,1999-10-20 16:00:00,13.5,991.9,-0.7,97,13,,14.816,,,110,,,0.8,,,,,,,,og-post,,,,AAXX 20164 07314 26/// /1108 10135 20130 39892 49919 57007 333 69985=
07314,1999-10-20 17:00:00,13.5,992,-0.4,98,13.2,,18.52,,,120,,,0.4,,,,,,,,og-post,,,,AAXX 20174 07314 26/// /1210 10135 20132 39893 49920 55004 333 69945=
07314,1999-10-20 18:00:00,13,992.4,0.3,98,12.7,12000,14.816,,,120,12.2,13.7,,1,,10,,,,21,og-post,,,,AAXX 20184 07314 /1562 71208 10130 20127 39897 49924 53003 60102 72162 83772 222// 328// 333 10137 20122 60017 92437=
07314,1999-10-20 19:00:00,12.4,992.4,0.5,98,12.1,,14.816,,,130,,,,,,,,,,,og-post,,,,AAXX 20194 07314 36/// /1308 10124 20121 39897 49924 51005=
07314,1999-10-20 20:00:00,13,992.8,0.8,99,12.8,,18.52,,,160,,,0.2,,,,,,,,og-post,,,,AAXX 20204 07314 26/// /1610 10130 20128 39901 49928 52008 333 69925=
07314,1999-10-20 21:00:00,12.5,993,0.6,98,12.2,,14.816,,,150,,,,0.8,,,,,,,og-post,,,,AAXX 20214 07314 26/// /1508 10125 20122 39903 49930 53006 333 69987=
07314,1999-10-20 22:00:00,11.7,993.3,0.9,98,11.4,,14.816,,,150,,,,,,,,,,,og-post,,,,AAXX 20224 07314 36/// /1508 10117 20114 39906 49933 51009=
07314,1999-10-20 23:00:00,12.4,993.6,0.8,98,12.1,,14.816,,,140,,,,,,,,,,,og-post,,,,AAXX 20234 07314 36/// /1408 10124 20121 39909 49936 53008=
07314,1999-10-21 00:00:00,15.8,993.7,0.7,83,12.9,,25.928,,,220,,,,,0.8,,,,,,og-post,,,,AAXX 21004 07314 16/// /2214 10158 20129 39910 49937 51007 69981=
07314,1999-10-21 01:00:00,16.1,993.8,0.5,77,12.1,,25.928,,,210,,,,,,,,,,,og-post,,,,AAXX 21014 07314 36/// /2114 10161 20121 39911 49938 51005=
07314,1999-10-21 02:00:00,16.1,993.9,0.3,81,12.8,,25.928,,,200,,,,,,,,,,,og-post,,,,AAXX 21024 07314 36/// /2014 10161 20128 39912 49939 52003=
07314,1999-10-21 03:00:00,16.2,994,0.3,81,12.9,,22.224,,,200,,,,,,,,,,,og-post,,,,AAXX 21034 07314 36/// /2012 10162 20129 39913 49940 52003=
07314,1999-10-21 04:00:00,15.5,994.2,0.4,85,13,,18.52,,,180,,,0.2,,,,,,,,og-post,,,,AAXX 21044 07314 26/// /1810 10155 20130 39915 49942 53004 333 69925=
07314,1999-10-21 05:00:00,13.8,994.6,0.7,93,12.7,,11.112,,,160,,,0.2,,,,,,,,og-post,,,,AAXX 21054 07314 26/// /1606 10138 20127 39919 49946 53007 333 69925=
07314,1999-10-21 06:00:00,15.4,994.8,0.8,92,14.1,20000,22.224,,,200,11.4,16.3,,0.6,,1,,,,80,og-post,,,,AAXX 21064 07314 /1470 82012 10154 20141 39921 49948 52008 60012 78081 882// 222// 328// 333 10163 20114 69967 92448=
07314,1999-10-21 07:00:00,16,995.1,0.9,86,13.7,,18.52,,,230,,,,,,,,,,,og-post,,,,AAXX 21074 07314 26/// /2310 10160 20137 39924 49951 51009 333 69905=
07314,1999-10-21 08:00:00,16.5,996,1.4,83,13.6,,22.224,,,250,,,,,,,,,,,og-post,,,,AAXX 21084 07314 26/// /2512 10165 20136 39933 49960 53014 333 69905=
07314,1999-10-21 09:00:00,17,996.9,2.1,84,14.3,22000,25.928,,,250,,,,,,,,,,25,og-post,,,,AAXX 21094 07314 21472 52514 10170 20143 39942 49969 53021 72522 85200 222// 328// 333 69907 92448=
07314,1999-10-21 10:00:00,17,997.6,2.5,79,13.3,,29.632,,,240,,,,,,,,,,,og-post,,,,AAXX 21104 07314 36/// /2416 10170 20133 39949 49976 51025=
07314,1999-10-21 11:00:00,17.3,998,2,79,13.6,,25.928,,,230,,,,,,,,,,,og-post,,,,AAXX 21114 07314 36/// /2314 10173 20136 39953 49980 51020=
07314,1999-10-21 12:00:00,17.4,998.2,1.3,78,13.5,23000,29.632,,,220,,,,,,,,,,1,og-post,,,,AAXX 21124 07314 11473 52216 10174 20135 39955 49982 51013 69901 70162 84230 222// 328// 333 92448=
07314,1999-10-21 14:00:00,17.3,997.7,-0.3,81,14,,29.632,,,180,,,,,,,,,,,og-post,,,,AAXX 21144 07314 36/// /1816 10173 20140 39950 49977 58003=
07314,1999-10-21 15:00:00,17.4,997.9,-0.3,82,14.3,20000,31.484,53.708,53.708,180,,,,,,,,,,,og-post,,,,AAXX 21154 07314 32570 71817 10174 20143 39952 49979 55003 8125/ 222// 328// 333 91029 91129 92448=
07314,1999-10-21 16:00:00,17,997.5,-0.6,78,13.1,,38.892,,,170,,,,,,,,,,,og-post,,,,AAXX 21164 07314 36/// /1721 10170 20131 39948 49975 57006=
07314,1999-10-21 17:00:00,16.9,998.1,0.4,80,13.4,,38.892,,,170,,,,,,,,,,,og-post,,,,AAXX 21174 07314 36/// /1721 10169 20134 39954 49981 53004=
07314,1999-10-21 18:00:00,16.8,998.4,0.5,78,12.9,17000,25.928,,,160,15.5,17.8,,,,,,,,,og-post,,,,AAXX 21184 07314 12867 71614 10168 20129 39957 49984 53005 69902 8707/ 222// 328// 333 10178 20155 92457=
07314,1999-10-21 19:00:00,16.8,998.9,1.4,78,12.9,,29.632,,,170,,,,,,,,,,,og-post,,,,AAXX 21194 07314 36/// /1716 10168 20129 39962 49989 51014=
07314,1999-10-21 20:00:00,16.5,998.7,0.6,84,13.8,,29.632,,,170,,,,,,,,,,,og-post,,,,AAXX 21204 07314 36/// /1716 10165 20138 39960 49987 50006=
07314,1999-10-21 21:00:00,16.3,999.5,1.1,87,14.1,18000,22.224,,,170,,,,,,,,,,,og-post,,,,AAXX 21214 07314 32868 81712 10163 20141 39968 49995 53011 88070 222// 328// 333 92447=
07314,1999-10-21 22:00:00,16,998.6,-0.3,90,14.4,,7.408,,,150,,,,,,,,,,,og-post,,,,AAXX 21224 07314 36/// /1504 10160 20144 39959 49986 58003=
07314,1999-10-21 23:00:00,15.6,999.2,0.5,92,14.3,,11.112,,,170,,,,,,,,,,,og-post,,,,AAXX 21234 07314 36/// /1706 10156 20143 39965 49992 51005=
07314,1999-10-22 00:00:00,15.7,999,-0.5,85,13.2,,25.928,,,260,,,,0.8,0.8,,,,,,og-post,,,,AAXX 22004 07314 /6/// /2614 10157 20132 39963 49990 56005 69981 333 69987=
07314,1999-10-22 01:00:00,15.2,998.5,-0.1,87,13.1,,11.112,,,250,,,0.8,,,,,,,,og-post,,,,AAXX 22014 07314 26/// /2506 10152 20131 39958 49985 58001 333 69985=
07314,1999-10-22 02:00:00,15.1,998.3,-0.9,96,14.5,,11.112,,,240,,,0.6,,,,,,,,og-post,,,,AAXX 22024 07314 26/// /2406 10151 20145 39956 49983 57009 333 69965=
07314,1999-10-22 03:00:00,14.5,996.5,-2.5,97,14,,11.112,,,80,,,,1,,,,,,,og-post,,,,AAXX 22034 07314 26/// /0806 10145 20140 39938 49965 58025 333 60017=
07314,1999-10-22 05:00:00,14.3,995.5,-2.8,98,14,,18.52,,,100,,,3,,,,,,,,og-post,,,,AAXX 22054 07314 26/// /1010 10143 20140 39928 49955 56028 333 60035=
07314,1999-10-22 06:00:00,14.2,994.4,-2.1,97,13.7,12000,18.52,,,90,14.1,16.9,,8,,10,,,,17,og-post,,,,AAXX 22064 07314 /1462 70910 10142 20137 39917 49944 58021 60102 71762 8337/ 222// 328// 333 10169 20141 60087 92447=
07314,1999-10-22 07:00:00,14.5,994.6,-2.6,97,14,,7.408,,,130,,,10,,,,,,,,og-post,,,,AAXX 22074 07314 26/// /1304 10145 20140 39919 49946 55026 333 60105=
07314,1999-10-22 08:00:00,13.9,995.2,-0.3,98,13.6,,14.816,,,340,,,29,,,,,,,,og-post,,,,AAXX 22084 07314 26/// /3408 10139 20136 39925 49952 55003 333 60295=
07314,1999-10-22 09:00:00,14.3,995.5,1.1,98,14,,7.408,,,150,,,,40,,,,,,,og-post,,,,AAXX 22094 07314 26/// /1504 10143 20140 39928 49955 53011 333 60407=
07314,1999-10-22 10:00:00,14.8,996.4,1.8,97,14.3,,18.52,,,190,,,,,,,,,,,og-post,,,,AAXX 22104 07314 36/// /1910 10148 20143 39937 49964 53018=
07314,1999-10-22 11:00:00,16.2,996.7,1.5,94,15.2,,25.928,,,180,,,,,,,,,,,og-post,,,,AAXX 22114 07314 36/// /1814 10162 20152 39940 49967 52015=
07314,1999-10-22 12:00:00,16.9,996.7,1.2,84,14.2,16000,31.484,,,200,,,,,40,,,,,2,og-post,,,,AAXX 22124 07314 11466 72017 10169 20142 39940 49967 51012 60401 70298 8317/ 222// 328// 333 92437=
07314,1999-10-22 13:00:00,17.9,996.8,0.4,79,14.2,,29.632,,,200,,,,,,,,,,,og-post,,,,AAXX 22134 07314 36/// /2016 10179 20142 39941 49968 51004=
07314,1999-10-22 14:00:00,17.9,996.4,-0.3,70,12.4,,29.632,,,220,,,,,,,,,,,og-post,,,,AAXX 22144 07314 36/// /2216 10179 20124 39937 49964 58003=
07314,1999-10-22 15:00:00,18,997,0.3,72,12.9,22000,29.632,,,210,,,,,,,,,,,og-post,,,,AAXX 22154 07314 32472 42116 10180 20129 39943 49970 53003 82222 222// 328// 333 92438=
07314,1999-10-22 16:00:00,17.9,996.7,-0.1,77,13.8,,29.632,,,190,,,,,,,,,,,og-post,,,,AAXX 22164 07314 36/// /1916 10179 20138 39940 49967 56001=
07314,1999-10-22 17:00:00,16.5,996.8,0.4,83,13.6,,29.632,,,170,,,,,,,,,,,og-post,,,,AAXX 22174 07314 36/// /1716 10165 20136 39941 49968 51004=
07314,1999-10-22 18:00:00,16,997.1,0.1,90,14.4,15000,22.224,,,160,13.7,18.1,,,,40,,,,,og-post,,,,AAXX 22184 07314 12465 51612 10160 20144 39944 49971 53001 60402 82972 222// 328// 333 10181 20137 92447=
07314,1999-10-22 19:00:00,15,997.2,0.5,94,14,,18.52,,,150,,,,,,,,,,,og-post,,,,AAXX 22194 07314 36/// /1510 10150 20140 39945 49972 52005=
07314,1999-10-22 20:00:00,15.6,997.2,0.4,96,15,,18.52,,,170,,,,,,,,,,,og-post,,,,AAXX 22204 07314 36/// /1710 10156 20150 39945 49972 51004=
07314,1999-10-22 21:00:00,16.5,997.2,0.1,94,15.5,12000,22.224,,,180,,,,,,,,,,,og-post,,,,AAXX 22214 07314 32462 71812 10165 20155 39945 49972 51001 8137/ 222// 328// 333 92447=
07314,1999-10-22 22:00:00,16.9,997.3,0.1,81,13.6,,25.928,,,230,,,,,,,,,,,og-post,,,,AAXX 22224 07314 36/// /2314 10169 20136 39946 49973 53001=
07314,1999-10-22 23:00:00,17.1,997.3,0.1,78,13.2,,29.632,,,210,,,,,,,,,,,og-post,,,,AAXX 22234 07314 36/// /2116 10171 20132 39946 49973 52001=
07314,1999-10-23 00:00:00,17.8,997,-0.2,70,12.3,,42.596,64.82,,220,,,,,,,,,,,og-post,,,,AAXX 23004 07314 36/// /2223 10178 20123 39943 49970 58002 333 91135=
07314,1999-10-23 01:00:00,18,997,-0.3,69,12.2,,42.596,94.452,,220,,,,,,,,,,,og-post,,,,AAXX 23014 07314 36/// /2223 10180 20122 39943 49970 57003 333 91151=
07314,1999-10-23 02:00:00,17.5,997.2,-0.1,78,13.6,,38.892,,,200,,,,,,,,,,,og-post,,,,AAXX 23024 07314 36/// /2021 10175 20136 39945 49972 55001=
07314,1999-10-23 03:00:00,17.1,997.4,0.4,76,12.8,,50.004,94.452,72.228,220,,,,,,,,,,,og-post,,,,AAXX 23034 07314 36/// /2227 10171 20128 39947 49974 53004 333 91039 91151=
07314,1999-10-23 04:00:00,17.3,997.4,0.4,73,12.4,,50.004,,,220,,,,,,,,,,,og-post,,,,AAXX 23044 07314 36/// /2227 10173 20124 39947 49974 51004=
07314,1999-10-23 05:00:00,17.4,997.5,0.3,72,12.3,,46.3,72.228,,220,,,,,,,,,,,og-post,,,,AAXX 23054 07314 36/// /2225 10174 20123 39948 49975 51003 333 91139=
07314,1999-10-23 06:00:00,16.5,998.1,0.7,82,13.4,,46.3,94.452,64.82,230,14.8,18,,0.4,,0.4,,,,,og-post,,,,AAXX 23064 07314 /6/// /2325 10165 20134 39954 49981 53007 69942 333 10180 20148 69947 91035 91151=
07314,1999-10-23 09:00:00,16,999.7,1.6,80,12.6,,42.596,90.748,,220,,,,3,,,,,,,og-post,,,,AAXX 23094 07314 26/// /2223 10160 20126 39970 49997 51016 333 60037 91149=
07314,1999-10-23 10:00:00,16,999.7,1.6,80,12.6,11000,42.596,90.748,,220,,,,3,,,,,,,og-post,,,,AAXX 23104 07314 22461 72223 10160 20126 39970 49997 51016 8537/ 222// 328// 333 60037 91149 92457=
07314,1999-10-23 11:00:00,17.2,1000.2,1,80,13.7,,46.3,,,220,,,,,,,,,,,og-post,,,,AAXX 23114 07314 36/// /2225 10172 20137 39975 40002 51010=
07314,1999-10-23 12:00:00,17,1000,0.3,79,13.3,16000,42.596,90.748,,220,,,,,3,,,,,,og-post,,,,AAXX 23124 07314 12466 72223 10170 20133 39973 40000 50003 60031 8537/ 222// 328// 333 91149 92457=
07314,1999-10-23 14:00:00,17.6,999.6,-0.6,72,12.5,,46.3,64.82,64.82,220,,,0.2,,,,,,,,og-post,,,,AAXX 23144 07314 26/// /2225 10176 20125 39969 49996 58006 333 69925 91035 91135=
07314,1999-10-23 15:00:00,17.5,999.5,-0.5,73,12.6,16000,38.892,68.524,,220,,,,0.2,,,,,,,og-post,,,,AAXX 23154 07314 22466 72221 10175 20126 39968 49995 58005 8437/ 222// 328// 333 69927 91137 92457=
07314,1999-10-23 16:00:00,17.4,999.1,-0.9,75,12.9,,35.188,,,200,,,,,,,,,,,og-post,,,,AAXX 23164 07314 36/// /2019 10174 20129 39964 49991 57009=
07314,1999-10-23 17:00:00,17,997.6,-2,79,13.3,,18.52,,,180,,,,,,,,,,,og-post,,,,AAXX 23174 07314 36/// /1810 10170 20133 39949 49976 58020=
07314,1999-10-23 18:00:00,15.7,996.2,-3.3,84,13,17000,14.816,68.524,,130,13.9,17.7,,,,3,,,,,og-post,,,,AAXX 23184 07314 12467 71308 10157 20130 39935 49962 58033 60032 8537/ 222// 328// 333 10177 20139 91137 92447=
07314,1999-10-23 19:00:00,15.3,994.4,-4.7,89,13.5,,22.224,,,130,,,,,,,,,,,og-post,,,,AAXX 23194 07314 36/// /1312 10153 20135 39917 49944 58047=
07314,1999-10-23 20:00:00,16.3,993,-4.6,76,12.1,,35.188,53.708,,160,,,,,,,,,,,og-post,,,,AAXX 23204 07314 36/// /1619 10163 20121 39903 49930 57046 333 91129=
07314,1999-10-23 21:00:00,15.2,990.7,-5.5,83,12.3,,29.632,68.524,,150,,,,0.4,,,,,,,og-post,,,,AAXX 23214 07314 26/// /1516 10152 20123 39880 49907 58055 333 69947 91137=
07314,1999-10-23 22:00:00,16.1,988.9,-5.5,73,11.3,,38.892,68.524,64.82,150,,,,,,,,,,,og-post,,,,AAXX 23224 07314 36/// /1521 10161 20113 39862 49889 58055 333 91035 91137=
07314,1999-10-23 23:00:00,17,987.9,-5.1,70,11.5,,46.3,83.34,72.228,160,,,,,,,,,,,og-post,,,,AAXX 23234 07314 36/// /1625 10170 20115 39852 49879 56051 333 91039 91145=
07314,1999-10-24 00:00:00,16.3,987,-3.7,87,14.1,,61.116,96.304,94.452,180,,,,1,2,,,,,,og-post,,,,AAXX 24004 07314 /6/// /1833 10163 20141 39843 49870 56037 60021 333 60017 91051 91152=
07314,1999-10-24 01:00:00,16.4,988.5,-0.4,88,14.4,,53.708,90.748,,210,,,0.2,,,,,,,,og-post,,,,AAXX 24014 07314 26/// /2129 10164 20144 39858 49885 55004 333 69925 91149=
07314,1999-10-24 02:00:00,16.6,988.7,0.8,79,12.9,,46.3,,,230,,,,,,,,,,,og-post,,,,AAXX 24024 07314 36/// /2325 10166 20129 39860 49887 53008=
07314,1999-10-24 03:00:00,16.7,988.9,1.9,75,12.2,,46.3,90.748,,230,,,,0.2,,,,,,,og-post,,,,AAXX 24034 07314 26/// /2325 10167 20122 39862 49889 51019 333 69927 91149=
07314,1999-10-24 04:00:00,16.3,989.4,0.9,78,12.5,,38.892,,,220,,,,,,,,,,,og-post,,,,AAXX 24044 07314 36/// /2221 10163 20125 39867 49894 53009=
07314,1999-10-24 05:00:00,15.7,989.1,0.4,82,12.6,,35.188,,,230,,,,,,,,,,,og-post,,,,AAXX 24054 07314 36/// /2319 10157 20126 39864 49891 50004=
07314,1999-10-24 06:00:00,15.7,989.6,0.7,74,11.1,16000,46.3,90.748,72.228,230,15.1,17.7,,,,2,,,,13,og-post,,,,AAXX 24064 07314 11466 62325 10157 20111 39869 49896 52007 60022 71382 8237/ 222// 328// 333 10177 20151 91039 91149 92447=
07314,1999-10-24 07:00:00,15.6,989.8,0.4,81,12.4,,35.188,75.932,,230,,,,,,,,,,,og-post,,,,AAXX 24074 07314 36/// /2319 10156 20124 39871 49898 53004 333 91141=
07314,1999-10-24 08:00:00,15.2,990.8,1.7,76,11,,46.3,72.228,72.228,240,,,,,,,,,,,og-post,,,,AAXX 24084 07314 36/// /2425 10152 20110 39881 49908 53017 333 91039 91139=
07314,1999-10-24 09:00:00,16,991.5,1.9,70,10.5,18000,38.892,75.932,,230,,,,,,,,,,,og-post,,,,AAXX 24094 07314 32468 62321 10160 20105 39888 49915 53019 83300 222// 328// 333 91141 92457=
07314,1999-10-24 10:00:00,15.3,991.8,2,76,11.1,,46.3,,,230,,,,,,,,,,,og-post,,,,AAXX 24104 07314 36/// /2325 10153 20111 39891 49918 51020=
07314,1999-10-24 11:00:00,16,992.2,1.4,75,11.6,,38.892,,,220,,,,,,,,,,,og-post,,,,AAXX 24114 07314 36/// /2221 10160 20116 39895 49922 51014=
07314,1999-10-24 12:00:00,15.1,992.3,0.8,82,12.1,20000,29.632,75.932,,240,,,,,,,,,,,og-post,,,,AAXX 24124 07314 32470 62416 10151 20121 39896 49923 51008 84300 222// 328// 333 91141 92458=
07314,1999-10-24 13:00:00,16.4,991.6,-0.2,72,11.3,,50.004,,,220,,,,,,,,,,,og-post,,,,AAXX 24134 07314 36/// /2227 10164 20113 39889 49916 58002=
07314,1999-10-24 14:00:00,16.9,991.4,-0.8,70,11.4,,38.892,,,220,,,,,,,,,,,og-post,,,,AAXX 24144 07314 36/// /2221 10169 20114 39887 49914 58008=
07314,1999-10-24 15:00:00,16.9,991,-1.3,72,11.8,20000,38.892,,,200,,,,,,,,,,,og-post,,,,AAXX 24154 07314 32570 62021 10169 20118 39883 49910 56013 84270 222// 328// 333 92458=
07314,1999-10-24 16:00:00,16.8,990.9,-0.7,75,12.3,,31.484,,,180,,,,,,,,,,,og-post,,,,AAXX 24164 07314 36/// /1817 10168 20123 39882 49909 56007=
07314,1999-10-24 17:00:00,17.2,990.8,-0.6,70,11.7,,42.596,,,200,,,,,,,,,,,og-post,,,,AAXX 24174 07314 36/// /2023 10172 20117 39881 49908 56006=
07314,1999-10-24 18:00:00,17.3,991.1,0.1,73,12.4,15000,31.484,,,210,13.7,17.4,,,,,,,,,og-post,,,,AAXX 24184 07314 32465 62117 10173 20124 39884 49911 53001 82370 222// 328// 333 10174 20137 92457=
07314,1999-10-24 19:00:00,17.2,991.5,0.6,79,13.5,,29.632,,,220,,,,,,,,,,,og-post,,,,AAXX 24194 07314 36/// /2216 10172 20135 39888 49915 53006=
07314,1999-10-24 20:00:00,16.5,991.6,0.8,71,11.2,,31.484,,,230,,,,,,,,,,,og-post,,,,AAXX 24204 07314 36/// /2317 10165 20112 39889 49916 51008=
07314,1999-10-24 21:00:00,16.3,991.7,0.6,75,11.9,,29.632,,,220,,,,,,,,,,,og-post,,,,AAXX 24214 07314 36/// /2216 10163 20119 39890 49917 51006=
07314,1999-10-24 22:00:00,16.3,992,0.5,68,10.4,,35.188,,,210,,,,,,,,,,,og-post,,,,AAXX 24224 07314 36/// /2119 10163 20104 39893 49920 53005=
07314,1999-10-24 23:00:00,16.5,992,0.4,68,10.6,,38.892,,,210,,,,,,,,,,,og-post,,,,AAXX 24234 07314 36/// /2121 10165 20106 39893 49920 51004=
07314,1999-10-25 00:00:00,16.3,991.8,0.1,72,11.2,,53.708,75.932,75.932,220,,,,,,,,,,,og-post,,,,AAXX 25004 07314 36/// /2229 10163 20112 39891 49918 50001 333 91041 91141=
07314,1999-10-25 01:00:00,16.2,992.5,0.5,76,12,,50.004,,,230,,,0.2,,,,,,,,og-post,,,,AAXX 25014 07314 26/// /2327 10162 20120 39898 49925 53005 333 69925=
07314,1999-10-25 02:00:00,16.4,992.8,0.8,75,12,,53.708,72.228,72.228,220,,,,,,,,,,,og-post,,,,AAXX 25024 07314 36/// /2229 10164 20120 39901 49928 53008 333 91039 91139=
07314,1999-10-25 03:00:00,14.8,993.5,1.7,89,13,,46.3,,,200,,,,0.2,,,,,,,og-post,,,,AAXX 25034 07314 26/// /2025 10148 20130 39908 49935 52017 333 69927=
07314,1999-10-25 04:00:00,15.1,993.7,1.2,87,13,,42.596,72.228,,220,,,,,,,,,,,og-post,,,,AAXX 25044 07314 36/// /2223 10151 20130 39910 49937 51012 333 91139=
07314,1999-10-25 05:00:00,15,994.1,1.3,91,13.5,,38.892,68.524,,210,,,,,,,,,,,og-post,,,,AAXX 25054 07314 36/// /2121 10150 20135 39914 49941 51013 333 91137=
07314,1999-10-25 06:00:00,16.2,994.1,0.6,81,12.9,12000,46.3,,,230,14,17.3,,,,0.2,,,,80,og-post,,,,AAXX 25064 07314 /1462 72325 10162 20129 39914 49941 51006 69922 78022 8532/ 222// 328// 333 10173 20140 69907 92447=
07314,1999-10-25 07:00:00,16.2,994.9,1.2,81,12.9,,46.3,68.524,,220,,,,,,,,,,,og-post,,,,AAXX 25074 07314 26/// /2225 10162 20129 39922 49949 53012 333 69905 91137=
07314,1999-10-25 08:00:00,16.5,996.1,2,78,12.7,,46.3,,,220,,,,,,,,,,,og-post,,,,AAXX 25084 07314 26/// /2225 10165 20127 39934 49961 53020 333 69905=
07314,1999-10-25 09:00:00,16.5,997.3,3.2,79,12.8,15000,46.3,68.524,,220,,,,,,,,,,80,og-post,,,,AAXX 25094 07314 21465 72225 10165 20128 39946 49973 53032 78022 8532/ 222// 328// 333 69907 91137 92447=
07314,1999-10-25 10:00:00,16.7,998.3,3.4,76,12.5,,46.3,,,220,,,,,,,,,,,og-post,,,,AAXX 25104 07314 26/// /2225 10167 20125 39956 49983 51034 333 69905=
07314,1999-10-25 11:00:00,17.2,999.2,3.1,75,12.7,,42.596,,,220,,,,,,,,,,,og-post,,,,AAXX 25114 07314 26/// /2223 10172 20127 39965 49992 51031 333 69905=
07314,1999-10-25 12:00:00,17,999.9,2.6,76,12.7,17000,46.3,68.524,,220,,,,,,,,,,25,og-post,,,,AAXX 25124 07314 /1467 62225 10170 20127 39972 49999 51026 69901 72522 85332 222// 328// 333 69907 91137 92447=
07314,1999-10-25 13:00:00,16.8,1000.5,2.2,80,13.3,,46.3,,,220,,,0.4,,,,,,,,og-post,,,,AAXX 25134 07314 26/// /2225 10168 20133 39978 40005 51022 333 69945=
07314,1999-10-25 14:00:00,17.2,1001,1.8,77,13.1,,46.3,68.524,,220,,,,,,,,,,,og-post,,,,AAXX 25144 07314 36/// /2225 10172 20131 39983 40010 51018 333 91137=
07314,1999-10-25 17:00:00,16.6,1003.7,2.7,84,13.9,,35.188,,,230,,,,,,,,,,,og-post,,,,AAXX 25174 07314 36/// /2319 10166 20139 30010 40037 53027=
07314,1999-10-25 18:00:00,16.4,1005,3.2,81,13.1,20000,31.484,68.524,,230,15,17.5,,,,0.4,,,,,og-post,,,,AAXX 25184 07314 12470 62317 10164 20131 30023 40050 53032 69942 85332 222// 328// 333 10175 20150 91137 92448=
07314,1999-10-25 21:00:00,16.2,1008,3,82,13.1,20000,31.484,,,220,,,,,,,,,,,og-post,,,,AAXX 25214 07314 32470 52217 10162 20131 30053 40080 51030 84330 222// 328// 333 92448=
07314,1999-10-25 23:00:00,15.9,1009.6,2.5,84,13.2,,25.928,,,230,,,,,,,,,,,og-post,,,,AAXX 25234 07314 36/// /2314 10159 20132 30069 40096 51025=
07314,1999-10-26 00:00:00,16,1010.4,2.4,85,13.5,,25.928,,,230,,,,,,,,,,,og-post,,,,AAXX 26004 07314 36/// /2314 10160 20135 30077 40104 51024=
07314,1999-10-26 02:00:00,16.2,1011.5,1.9,85,13.7,,22.224,,,240,,,,,,,,,,,og-post,,,,AAXX 26024 07314 36/// /2412 10162 20137 30088 40115 51019=
07314,1999-10-26 03:00:00,16.3,1012.2,1.8,83,13.4,,18.52,,,240,,,,,,,,,,,og-post,,,,AAXX 26034 07314 36/// /2410 10163 20134 30095 40122 53018=
07314,1999-10-26 06:00:00,16,1014.2,2,84,13.3,18000,11.112,,,220,15.9,16.4,,,,,,,,,og-post,,,,AAXX 26064 07314 32568 32206 10160 20133 30115 40142 53020 83200 222// 328// 333 10164 20159 92447=
07314,1999-10-26 07:00:00,16.2,1015.2,2.6,84,13.5,,14.816,,,220,,,,,,,,,,,og-post,,,,AAXX 26074 07314 36/// /2208 10162 20135 30125 40152 53026=
07314,1999-10-26 08:00:00,16,1016.3,2.8,87,13.8,,11.112,,,210,,,0.8,,,,,,,,og-post,,,,AAXX 26084 07314 26/// /2106 10160 20138 30136 40163 53028 333 69985=
07314,1999-10-26 09:00:00,17.9,1017.5,3.3,79,14.2,,7.408,,,180,,,,0.8,,,,,,,og-post,,,,AAXX 26094 07314 26/// /1804 10179 20142 30148 40175 53033 333 69987=
07314,1999-10-26 10:00:00,17.8,1018.2,3,78,13.9,,7.408,,,210,,,,,,,,,,,og-post,,,,AAXX 26104 07314 36/// /2104 10178 20139 30155 40182 51030=
07314,1999-10-26 11:00:00,18.4,1018.9,2.6,74,13.7,,7.408,,,240,,,,,,,,,,,og-post,,,,AAXX 26114 07314 36/// /2404 10184 20137 30162 40189 51026=
07314,1999-10-26 12:00:00,18.3,1019.1,1.6,75,13.8,20000,7.408,,,290,,,,,0.8,,,,,,og-post,,,,AAXX 26124 07314 12570 32904 10183 20138 30164 40191 51016 69981 83200 222// 328// 333 92438=
07314,1999-10-26 13:00:00,18.5,1019.1,0.9,80,15,,7.408,,,340,,,,,,,,,,,og-post,,,,AAXX 26134 07314 36/// /3404 10185 20150 30164 40191 51009=
07314,1999-10-26 14:00:00,18.3,1019.5,0.6,80,14.8,,3.704,,,310,,,,,,,,,,,og-post,,,,AAXX 26144 07314 36/// /3102 10183 20148 30168 40195 53006=
07314,1999-10-26 15:00:00,18.3,1019.9,0.8,79,14.6,20000,3.704,,,340,,,,,,,,,,,og-post,,,,AAXX 26154 07314 32570 23402 10183 20146 30172 40199 53008 82200 222// 328// 333 92438=
07314,1999-10-26 16:00:00,17.5,1020.7,1.6,82,14.4,,7.408,,,350,,,,,,,,,,,og-post,,,,AAXX 26164 07314 36/// /3504 10175 20144 30180 40207 53016=
07314,1999-10-26 17:00:00,16.1,1021,1.5,87,13.9,,3.704,,,340,,,,,,,,,,,og-post,,,,AAXX 26174 07314 36/// /3402 10161 20139 30183 40210 51015=
07314,1999-10-26 18:00:00,15.7,1021.8,1.8,89,13.9,20000,7.408,,,350,14.8,18.7,,,,0.8,,,,,og-post,,,,AAXX 26184 07314 12570 23504 10157 20139 30190 40218 51018 69982 82200 222// 328// 333 10187 20148 92438=
07314,1999-10-26 19:00:00,15.6,1022.6,1.8,91,14.1,,7.408,,,10,,,,,,,,,,,og-post,,,,AAXX 26194 07314 36/// /0104 10156 20141 30198 40226 53018=
07314,1999-10-26 20:00:00,15.4,1022.9,1.8,91,13.9,,14.816,,,10,,,,,,,,,,,og-post,,,,AAXX 26204 07314 36/// /0108 10154 20139 30201 40229 51018=
07314,1999-10-26 21:00:00,15.2,1023.5,1.7,90,13.6,20000,14.816,,,20,,,,,,,,,,,og-post,,,,AAXX 26214 07314 32570 10208 10152 20136 30207 40235 51017 81200 222// 328// 333 92438=
07314,1999-10-26 22:00:00,14.8,1023.9,1.3,91,13.3,,11.112,,,40,,,,,,,,,,,og-post,,,,AAXX 26224 07314 36/// /0406 10148 20133 30211 40239 53013=
07314,1999-10-26 23:00:00,14.7,1024.2,1.3,92,13.4,,7.408,,,60,,,0.2,,,,,,,,og-post,,,,AAXX 26234 07314 26/// /0604 10147 20134 30214 40242 51013 333 69925=
07314,1999-10-27 00:00:00,14.4,1024.5,1,92,13.1,,11.112,,,70,,,,0.2,0.2,,,,,,og-post,,,,AAXX 27004 07314 /6/// /0706 10144 20131 30217 40245 51010 69921 333 69927=
07314,1999-10-27 01:00:00,14.3,1024.6,0.7,92,13,,11.112,,,60,,,,,,,,,,,og-post,,,,AAXX 27014 07314 36/// /0606 10143 20130 30218 40246 51007=
07314,1999-10-27 02:00:00,13.9,1024.6,0.4,92,12.6,,11.112,,,90,,,,,,,,,,,og-post,,,,AAXX 27024 07314 36/// /0906 10139 20126 30218 40246 51004=
07314,1999-10-27 03:00:00,14.3,1024.8,0.3,93,13.2,,11.112,,,60,,,,,,,,,,,og-post,,,,AAXX 27034 07314 36/// /0606 10143 20132 30220 40248 53003=
07314,1999-10-27 04:00:00,13.9,1024.7,0.1,94,12.9,,11.112,,,70,,,,,,,,,,,og-post,,,,AAXX 27044 07314 36/// /0706 10139 20129 30219 40247 50001=
07314,1999-10-27 05:00:00,14.1,1024.4,-0.2,93,13,,11.112,,,70,,,,,,,,,,,og-post,,,,AAXX 27054 07314 36/// /0706 10141 20130 30216 40244 58002=
07314,1999-10-27 06:00:00,13.7,1025,0.2,91,12.3,,14.816,,,80,13.6,15.9,,,,0.2,,,,,og-post,,,,AAXX 27064 07314 16/// /0808 10137 20123 30222 40250 53002 69922 333 10159 20136=
07314,1999-10-27 07:00:00,13.5,1024.9,0.2,91,12.1,,14.816,,,90,,,,,,,,,,,og-post,,,,AAXX 27074 07314 36/// /0908 10135 20121 30221 40249 53002=
07314,1999-10-27 08:00:00,14.2,1025.4,1,86,11.9,,11.112,,,70,,,,,,,,,,,og-post,,,,AAXX 27084 07314 36/// /0706 10142 20119 30226 40254 51010=
07314,1999-10-27 09:00:00,15.5,1025.6,0.6,81,12.3,20000,14.816,,,90,,,,,,,,,,,og-post,,,,AAXX 27094 07314 32570 20908 10155 20123 30228 40256 53006 81102 222// 328// 333 92438=
07314,1999-10-27 10:00:00,15.5,1025.5,0.6,80,12.1,,14.816,,,90,,,,,,,,,,,og-post,,,,AAXX 27104 07314 36/// /0908 10155 20121 30227 40255 50006=
07314,1999-10-27 11:00:00,16.4,1025.3,-0.1,78,12.6,,14.816,,,100,,,,,,,,,,,og-post,,,,AAXX 27114 07314 36/// /1008 10164 20126 30225 40253 58001=
07314,1999-10-27 12:00:00,18.2,1025.2,-0.3,74,13.5,22000,7.408,,,100,,,,,,,,,,,og-post,,,,AAXX 27124 07314 32972 11004 10182 20135 30225 40252 56003 80002 222// 328// 333 92428=
07314,1999-10-27 13:00:00,17.6,1024.6,-0.8,79,13.9,,11.112,,,90,,,,,,,,,,,og-post,,,,AAXX 27134 07314 36/// /0906 10176 20139 30219 40246 58008=
07314,1999-10-27 14:00:00,18,1023.6,-1.6,79,14.3,,11.112,,,80,,,,,,,,,,,og-post,,,,AAXX 27144 07314 36/// /0806 10180 20143 30209 40236 58016=
07314,1999-10-27 15:00:00,18.7,1023.4,-1.8,75,14.2,22000,7.408,,,90,,,,,,,,,,,og-post,,,,AAXX 27154 07314 32972 30904 10187 20142 30207 40234 56018 80002 222// 328// 333 92428=
07314,1999-10-27 16:00:00,18.4,1023,-1.6,79,14.7,,7.408,,,80,,,,,,,,,,,og-post,,,,AAXX 27164 07314 36/// /0804 10184 20147 30203 40230 56016=
07314,1999-10-27 17:00:00,17.1,1022.5,-1.1,88,15.1,,11.112,,,80,,,,,,,,,,,og-post,,,,AAXX 27174 07314 36/// /0806 10171 20151 30198 40225 58011=
07314,1999-10-27 18:00:00,16.8,1022.4,-1,90,15.1,22000,11.112,,,80,13.4,19.1,,,,,,,,,og-post,,,,AAXX 27184 07314 32972 30806 10168 20151 30197 40224 56010 80002 222// 328// 333 10191 20134 92428=
07314,1999-10-27 19:00:00,16.7,1022.5,-0.5,87,14.5,,14.816,,,80,,,,,,,,,,,og-post,,,,AAXX 27194 07314 36/// /0808 10167 20145 30198 40225 55005=
07314,1999-10-27 20:00:00,15.7,1022.6,-0,89,13.9,,11.112,,,110,,,,,,,,,,,og-post,,,,AAXX 27204 07314 36/// /1106 10157 20139 30198 40226 55000=
07314,1999-10-27 21:00:00,15.4,1022.8,0.3,89,13.6,,7.408,,,100,,,,,,,,,,,og-post,,,,AAXX 27214 07314 36/// /1004 10154 20136 30200 40228 53003=
07314,1999-10-27 22:00:00,15.5,1022.6,0,87,13.3,,11.112,,,100,,,,,,,,,,,og-post,,,,AAXX 27224 07314 36/// /1006 10155 20133 30198 40226 50000=
07314,1999-10-27 23:00:00,14.4,1022.6,0,91,12.9,,14.816,,,130,,,,,,,,,,,og-post,,,,AAXX 27234 07314 36/// /1308 10144 20129 30198 40226 50000=
07314,1999-10-28 00:00:00,13.9,1022.7,-0.1,93,12.8,,14.816,,,150,,,,,,,,,,,og-post,,,,AAXX 28004 07314 36/// /1508 10139 20128 30199 40227 55001=
07314,1999-10-28 01:00:00,15.5,1023,0.4,97,15,,22.224,,,160,,,,,,,,,,,og-post,,,,AAXX 28014 07314 36/// /1612 10155 20150 30202 40230 53004=
07314,1999-10-28 02:00:00,16.4,1022.6,0.1,97,15.9,,11.112,,,160,,,,,,,,,,,og-post,,,,AAXX 28024 07314 36/// /1606 10164 20159 30199 40226 50001=
07314,1999-10-28 03:00:00,16.7,1022.7,0.1,97,16.2,,18.52,,,170,,,,0.2,,,,,,,og-post,,,,AAXX 28034 07314 26/// /1710 10167 20162 30200 40227 51001 333 69927=
07314,1999-10-28 04:00:00,16.5,1023.1,0.2,97,16,,14.816,,,170,,,,,,,,,,,og-post,,,,AAXX 28044 07314 36/// /1708 10165 20160 30204 40231 53002=
07314,1999-10-28 05:00:00,16.4,1022.9,0.3,97,15.9,,11.112,,,140,,,,,,,,,,,og-post,,,,AAXX 28054 07314 36/// /1406 10164 20159 30202 40229 50003=
07314,1999-10-28 06:00:00,16.4,1024,1.2,98,16.1,16000,14.816,,,170,13.8,16.8,,,,0.2,,,,,og-post,,,,AAXX 28064 07314 12666 81708 10164 20161 30212 40240 53012 69922 8322/ 222// 328// 333 10168 20138 92427=
07314,1999-10-28 07:00:00,16.6,1024.4,1.2,98,16.3,,7.408,,,170,,,,,,,,,,,og-post,,,,AAXX 28074 07314 36/// /1704 10166 20163 30216 40244 53012=
07314,1999-10-28 08:00:00,16.7,1024.7,1.7,98,16.4,,,,,,,,,,,,,,,,og-post,,,,AAXX 28084 07314 36/// /0000 10167 20164 30219 40247 51017=
07314,1999-10-28 09:00:00,17.9,1024.7,0.8,98,17.6,10000,11.112,,,140,,,,,,,,,,,og-post,,,,AAXX 28094 07314 32960 61406 10179 20176 30220 40247 51008 83032 222// 328// 333 92427=
07314,1999-10-28 10:00:00,18.1,1024.7,0.4,97,17.6,,7.408,,,130,,,,,,,,,,,og-post,,,,AAXX 28104 07314 36/// /1304 10181 20176 30220 40247 51004=
07314,1999-10-28 11:00:00,18.7,1024.3,-0.3,92,17.4,,11.112,,,90,,,,,,,,,,,og-post,,,,AAXX 28114 07314 36/// /0906 10187 20174 30216 40243 58003=
07314,1999-10-28 12:00:00,20.2,1024.3,-0.4,84,17.4,,3.704,,,110,,,,,,,,,,,og-post,,,,AAXX 28124 07314 36/// /1102 10202 20174 30216 40243 57004=
07314,1999-10-28 13:00:00,19.9,1024,-0.7,85,17.3,,3.704,,,210,,,,,,,,,,,og-post,,,,AAXX 28134 07314 36/// /2102 10199 20173 30213 40240 56007=
07314,1999-10-28 14:00:00,18.4,1023.1,-1.2,90,16.7,,,,,,,,,,,,,,,,og-post,,,,AAXX 28144 07314 36/// /0000 10184 20167 30204 40231 58012=
07314,1999-10-28 15:00:00,18.5,1023.3,-1,89,16.7,,,,,,,,,,,,,,,,og-post,,,,AAXX 28154 07314 36/// /0000 10185 20167 30206 40233 55010=
07314,1999-10-28 16:00:00,17.7,1023.3,-0.7,93,16.6,,3.704,,,360,,,,,,,,,,,og-post,,,,AAXX 28164 07314 36/// /3602 10177 20166 30206 40233 56007=
07314,1999-10-28 17:00:00,17.5,1023.7,0.6,95,16.7,,11.112,,,320,,,,,,,,,,,og-post,,,,AAXX 28174 07314 36/// /3206 10175 20167 30210 40237 53006=
07314,1999-10-28 19:00:00,17.1,1024.6,1.3,97,16.6,,11.112,,,10,,,,,,,,,,,og-post,,,,AAXX 28194 07314 36/// /0106 10171 20166 30219 40246 51013=
07314,1999-10-28 20:00:00,17.1,1024.4,0.7,97,16.6,,14.816,,,50,,,,,,,,,,,og-post,,,,AAXX 28204 07314 36/// /0508 10171 20166 30217 40244 50007=
07314,1999-10-28 21:00:00,17,1024.5,0.2,97,16.5,,14.816,,,40,,,,,,,,,,,og-post,,,,AAXX 28214 07314 36/// /0408 10170 20165 30218 40245 51002=
07314,1999-10-28 22:00:00,16.7,1024.8,0.1,97,16.2,,11.112,,,60,,,,,,,,,,,og-post,,,,AAXX 28224 07314 36/// /0606 10167 20162 30220 40248 53001=
07314,1999-10-28 23:00:00,16.5,1024.4,-0.1,97,16,,11.112,,,80,,,0.2,,,,,,,,og-post,,,,AAXX 28234 07314 26/// /0806 10165 20160 30216 40244 58001 333 69925=
07314,1999-10-29 00:00:00,16.3,1024.2,-0.4,97,15.8,,11.112,,,100,,,,0.2,0.2,,,,,,og-post,,,,AAXX 29004 07314 /6/// /1006 10163 20158 30214 40242 58004 69921 333 69927=
07314,1999-10-29 01:00:00,16.4,1023.5,-1.3,97,15.9,,11.112,,,80,,,,,,,,,,,og-post,,,,AAXX 29014 07314 36/// /0806 10164 20159 30207 40235 58013=
07314,1999-10-29 02:00:00,16.1,1023.3,-1.1,97,15.6,,14.816,,,80,,,,,,,,,,,og-post,,,,AAXX 29024 07314 36/// /0808 10161 20156 30205 40233 57011=
07314,1999-10-29 03:00:00,15.8,1022.8,-1.4,97,15.3,,11.112,,,90,,,,,,,,,,,og-post,,,,AAXX 29034 07314 36/// /0906 10158 20153 30200 40228 56014=
07314,1999-10-29 04:00:00,15.8,1022.3,-1.2,97,15.3,,14.816,,,90,,,,,,,,,,,og-post,,,,AAXX 29044 07314 36/// /0908 10158 20153 30195 40223 58012=
07314,1999-10-29 05:00:00,15.6,1021.8,-1.5,96,15,,11.112,,,90,,,,,,,,,,,og-post,,,,AAXX 29054 07314 36/// /0906 10156 20150 30190 40218 57015=
07314,1999-10-29 06:00:00,15.4,1021.7,-1.1,95,14.6,,14.816,,,90,15.4,17.2,,,,0.2,,,,,og-post,,,,AAXX 29064 07314 16/// /0908 10154 20146 30189 40217 56011 69922 333 10172 20154=
07314,1999-10-29 07:00:00,14.6,1022.2,-0.1,96,14,,7.408,,,100,,,,,,,,,,,og-post,,,,AAXX 29074 07314 36/// /1004 10146 20140 30194 40222 55001=
07314,1999-10-29 08:00:00,15.8,1022.3,0.5,93,14.7,,14.816,,,90,,,,,,,,,,,og-post,,,,AAXX 29084 07314 36/// /0908 10158 20147 30195 40223 53005=
07314,1999-10-29 09:00:00,16.1,1022.2,0.5,90,14.5,12000,11.112,,,100,,,,,,,,,,,og-post,,,,AAXX 29094 07314 32862 61006 10161 20145 30194 40222 50005 86030 222// 328// 333 92427=
07314,1999-10-29 10:00:00,16.2,1021.5,-0.6,90,14.6,,14.816,,,90,,,,,,,,,,,og-post,,,,AAXX 29104 07314 36/// /0908 10162 20146 30188 40215 58006=
07314,1999-10-29 11:00:00,16.8,1020.8,-1.4,89,15,,14.816,,,80,,,,,,,,,,,og-post,,,,AAXX 29114 07314 36/// /0808 10168 20150 30181 40208 58014=
07314,1999-10-29 12:00:00,17.5,1019.5,-2.6,87,15.3,15000,14.816,,,90,,,,,,,,,,,og-post,,,,AAXX 29124 07314 32565 80908 10175 20153 30168 40195 58026 8172/ 222// 328// 333 92427=
07314,1999-10-29 13:00:00,17.9,1017.7,-3.8,88,15.9,,14.816,,,70,,,,,,,,,,,og-post,,,,AAXX 29134 07314 36/// /0708 10179 20159 30150 40177 58038=
07314,1999-10-29 14:00:00,19.1,1017.5,-3.3,82,16,,7.408,,,100,,,,,,,,,,,og-post,,,,AAXX 29144 07314 36/// /1004 10191 20160 30148 40175 56033=
07314,1999-10-29 15:00:00,19.1,1016.2,-3.3,76,14.8,14000,14.816,,,100,,,,,,,,,,,og-post,,,,AAXX 29154 07314 32864 81008 10191 20148 30135 40162 56033 8802/ 222// 328// 333 92427=
07314,1999-10-29 16:00:00,18,1015.5,-2.2,86,15.6,,18.52,,,90,,,,,,,,,,,og-post,,,,AAXX 29164 07314 36/// /0910 10180 20156 30128 40155 58022=
07314,1999-10-29 17:00:00,17.3,1015.9,-1.6,85,14.8,,11.112,,,130,,,,,,,,,,,og-post,,,,AAXX 29174 07314 36/// /1306 10173 20148 30132 40159 55016=
07314,1999-10-29 18:00:00,17.1,1015.4,-0.8,88,15.1,14000,11.112,,,130,14.6,20.6,,,,,,,,,og-post,,,,AAXX 29184 07314 32864 81306 10171 20151 30127 40154 56008 8802/ 222// 328// 333 10206 20146 92427=
07314,1999-10-29 19:00:00,16.2,1015.2,-0.3,91,14.7,,7.408,,,150,,,,,,,,,,,og-post,,,,AAXX 29194 07314 36/// /1504 10162 20147 30125 40152 58003=
07314,1999-10-29 20:00:00,17.1,1015.1,-0.8,92,15.8,,18.52,,,170,,,,,,,,,,,og-post,,,,AAXX 29204 07314 36/// /1710 10171 20158 30124 40151 56008=
07314,1999-10-29 21:00:00,15.8,1014.9,-0.5,91,14.3,16000,14.816,,,150,,,,,,,,,,,og-post,,,,AAXX 29214 07314 32866 81508 10158 20143 30122 40149 57005 8802/ 222// 328// 333 92427=
07314,1999-10-29 22:00:00,15.9,1014.3,-0.9,91,14.4,,18.52,,,150,,,,,,,,,,,og-post,,,,AAXX 29224 07314 36/// /1510 10159 20144 30116 40143 58009=
07314,1999-10-29 23:00:00,16.8,1014.2,-0.9,86,14.4,,25.928,,,160,,,,,,,,,,,og-post,,,,AAXX 29234 07314 36/// /1614 10168 20144 30115 40142 56009=
07314,1999-10-30 00:00:00,17.1,1014.2,-0.7,90,15.4,,22.224,,,180,,,,,,,,,,,og-post,,,,AAXX 30004 07314 36/// /1812 10171 20154 30115 40142 56007=
07314,1999-10-30 01:00:00,16.7,1013.7,-0.6,94,15.7,,14.816,,,180,,,,,,,,,,,og-post,,,,AAXX 30014 07314 36/// /1808 10167 20157 30110 40137 58006=
07314,1999-10-30 02:00:00,16.2,1013.2,-1,96,15.6,,14.816,,,160,,,,,,,,,,,og-post,,,,AAXX 30024 07314 36/// /1608 10162 20156 30105 40132 58010=
07314,1999-10-30 03:00:00,16.1,1012.9,-1.3,97,15.6,,18.52,,,170,,,,,,,,,,,og-post,,,,AAXX 30034 07314 36/// /1710 10161 20156 30102 40129 56013=
07314,1999-10-30 04:00:00,15.7,1012.3,-1.4,97,15.2,,14.816,,,160,,,,,,,,,,,og-post,,,,AAXX 30044 07314 36/// /1608 10157 20152 30096 40123 58014=
07314,1999-10-30 05:00:00,14.1,1012.1,-1.1,97,13.6,,18.52,,,150,,,,,,,,,,,og-post,,,,AAXX 30054 07314 36/// /1510 10141 20136 30094 40121 56011=
07314,1999-10-30 06:00:00,15.1,1011.8,-1.1,98,14.8,15000,25.928,,,160,13.9,17.3,,,,,,,,,og-post,,,,AAXX 30064 07314 32865 31614 10151 20148 30091 40118 56011 83030 222// 328// 333 10173 20139 92437=
07314,1999-10-30 07:00:00,15.5,1011.9,-0.4,96,14.9,,25.928,,,160,,,0.2,,,,,,,,og-post,,,,AAXX 30074 07314 26/// /1614 10155 20149 30092 40119 55004 333 69925=
07314,1999-10-30 09:00:00,17.9,1012.5,0.7,90,16.2,14000,29.632,,,180,,,,0.2,,,,,,,og-post,,,,AAXX 30094 07314 22864 61816 10179 20162 30098 40125 53007 85031 222// 328// 333 69927 92437=
07314,1999-10-30 12:00:00,18.2,1012.7,0.2,90,16.5,17000,18.52,,,200,,,,,0.2,,,,,,og-post,,,,AAXX 30124 07314 12867 72010 10182 20165 30100 40127 50002 69921 8703/ 222// 328// 333 92437=
07314,1999-10-30 13:00:00,18.8,1011.9,-0.9,89,16.9,,22.224,,,180,,,,,,,,,,,og-post,,,,AAXX 30134 07314 36/// /1812 10188 20169 30092 40119 58009=
07314,1999-10-30 14:00:00,18,1012.8,-0.2,92,16.7,,18.52,,,190,,,,,,,,,,,og-post,,,,AAXX 30144 07314 36/// /1910 10180 20167 30101 40128 55002=
07314,1999-10-30 15:00:00,17.8,1013.7,1,85,15.2,,31.484,,57.412,220,,,,,,,,,,,og-post,,,,AAXX 30154 07314 36/// /2217 10178 20152 30110 40137 53010 333 91031=
07314,1999-10-30 16:00:00,16.8,1014,2.1,90,15.1,,35.188,,,230,,,0.6,,,,,,,,og-post,,,,AAXX 30164 07314 26/// /2319 10168 20151 30113 40140 51021 333 69965=
07314,1999-10-30 17:00:00,15.8,1015,2.2,91,14.3,,38.892,64.82,64.82,240,,,2,,,,,,,,og-post,,,,AAXX 30174 07314 26/// /2421 10158 20143 30123 40150 53022 333 60025 91035 91135=
07314,1999-10-30 18:00:00,15.4,1016.7,3,83,12.5,16000,38.892,72.228,,260,14.2,19.1,,3,,4,,,,25,og-post,,,,AAXX 30184 07314 /1466 72621 10154 20125 30140 40167 53030 60042 72582 8237/ 222// 328// 333 10191 20142 60037 91139 92437=
07314,1999-10-30 19:00:00,16.1,1017.5,3.5,78,12.3,,42.596,,,260,,,,,,,,,,,og-post,,,,AAXX 30194 07314 36/// /2623 10161 20123 30148 40175 51035=
07314,1999-10-30 20:00:00,16.1,1018.6,3.6,70,10.6,,42.596,,,260,,,,,,,,,,,og-post,,,,AAXX 30204 07314 36/// /2623 10161 20106 30159 40186 51036=
07314,1999-10-30 21:00:00,16.1,1019.6,2.9,72,11.1,18000,38.892,,,260,,,,,,,,,,2,og-post,,,,AAXX 30214 07314 31968 32621 10161 20111 30169 40196 53029 70281 83030 222// 328// 333 92447=
07314,1999-10-30 22:00:00,15.9,1020.7,3.1,73,11.1,,38.892,,,260,,,,,,,,,,,og-post,,,,AAXX 30224 07314 36/// /2621 10159 20111 30179 40207 51031=
07314,1999-10-30 23:00:00,16,1021.4,2.7,71,10.7,,35.188,,,260,,,,,,,,,,,og-post,,,,AAXX 30234 07314 36/// /2619 10160 20107 30186 40214 51027=
07314,1999-10-31 00:00:00,15.9,1021.9,2.2,71,10.7,,35.188,,,260,,,,,,,,,,,og-post,,,,AAXX 31004 07314 36/// /2619 10159 20107 30191 40219 51022=
07314,1999-10-31 01:00:00,15.6,1022.3,1.6,72,10.6,,29.632,,,260,,,,,,,,,,,og-post,,,,AAXX 31014 07314 36/// /2616 10156 20106 30195 40223 51016=
07314,1999-10-31 02:00:00,15.5,1022.6,1.2,66,9.2,,29.632,,,260,,,,,,,,,,,og-post,,,,AAXX 31024 07314 36/// /2616 10155 20092 30198 40226 51012=
07314,1999-10-31 03:00:00,15.7,1023,1.1,72,10.7,,25.928,,,240,,,,,,,,,,,og-post,,,,AAXX 31034 07314 36/// /2414 10157 20107 30202 40230 52011=
07314,1999-10-31 04:00:00,15.7,1023.7,1.4,71,10.5,,22.224,,,240,,,,,,,,,,,og-post,,,,AAXX 31044 07314 36/// /2412 10157 20105 30209 40237 53014=
07314,1999-10-31 05:00:00,15.3,1024.3,1.7,77,11.3,,25.928,,,220,,,0.2,,,,,,,,og-post,,,,AAXX 31054 07314 26/// /2214 10153 20113 30215 40243 53017 333 69925=
07314,1999-10-31 06:00:00,15.6,1024.5,1.5,70,10.2,,22.224,,,260,15.2,16.2,,0.2,,0.2,,,,,og-post,,,,AAXX 31064 07314 /6/// /2612 10156 20102 30217 40245 51015 69922 333 10162 20152 69927=
07314,1999-10-31 07:00:00,15.6,1025.1,1.4,65,9,,18.52,,,240,,,,,,,,,,,og-post,,,,AAXX 31074 07314 36/// /2410 10156 20090 30223 40251 52014=
07314,1999-10-31 08:00:00,16,1025.7,1.4,67,9.9,,14.816,,,240,,,,,,,,,,,og-post,,,,AAXX 31084 07314 36/// /2408 10160 20099 30229 40257 53014=
07314,1999-10-31 09:00:00,16.6,1026,1.5,67,10.5,18000,11.112,,,210,,,,,,,,,,,og-post,,,,AAXX 31094 07314 32568 22106 10166 20105 30232 40260 51015 81230 222// 328// 333 92437=
07314,1999-10-31 10:00:00,16.7,1025.9,0.8,69,11,,11.112,,,170,,,,,,,,,,,og-post,,,,AAXX 31104 07314 36/// /1706 10167 20110 30231 40259 50008=
07314,1999-10-31 11:00:00,18.3,1025.7,0.1,64,11.4,,14.816,,,160,,,,,,,,,,,og-post,,,,AAXX 31114 07314 36/// /1608 10183 20114 30230 40257 50001=
07314,1999-10-31 12:00:00,18.4,1025,-0.9,65,11.7,18000,18.52,,,170,,,,,,,,,,,og-post,,,,AAXX 31124 07314 32568 51710 10184 20117 30223 40250 58009 84230 222// 328// 333 92438=
07314,1999-10-31 13:00:00,18,1024.7,-1.1,69,12.2,,18.52,,,160,,,,,,,,,,,og-post,,,,AAXX 31134 07314 36/// /1610 10180 20122 30220 40247 58011=
07314,1999-10-31 14:00:00,17.8,1023.8,-1.9,65,11.1,,22.224,,,170,,,,,,,,,,,og-post,,,,AAXX 31144 07314 36/// /1712 10178 20111 30211 40238 58019=
07314,1999-10-31 15:00:00,18.3,1023.1,-1.9,68,12.3,18000,14.816,,,150,,,,,,,,,,,og-post,,,,AAXX 31154 07314 32568 11508 10183 20123 30204 40231 58019 81230 222// 328// 333 92437=
07314,1999-10-31 16:00:00,17,1022.5,-2.2,66,10.6,,11.112,,,140,,,,,,,,,,,og-post,,,,AAXX 31164 07314 36/// /1406 10170 20106 30198 40225 56022=
07314,1999-10-31 17:00:00,14.5,1022.6,-1.3,75,10.1,,7.408,,,130,,,,,,,,,,,og-post,,,,AAXX 31174 07314 36/// /1304 10145 20101 30198 40226 56013=
07314,1999-10-31 18:00:00,13.3,1022.4,-0.8,84,10.7,18000,11.112,,,120,13.3,18.4,,,,,,,,,og-post,,,,AAXX 31184 07314 32568 11206 10133 20107 30196 40224 56008 81230 222// 328// 333 10184 20133 92437=
07314,1999-10-31 19:00:00,13.6,1021.9,-0.7,85,11.1,,14.816,,,120,,,,,,,,,,,og-post,,,,AAXX 31194 07314 36/// /1208 10136 20111 30191 40219 58007=
07314,1999-10-31 20:00:00,13.4,1021.5,-1.1,85,10.9,,14.816,,,120,,,,,,,,,,,og-post,,,,AAXX 31204 07314 36/// /1208 10134 20109 30187 40215 58011=
07314,1999-10-31 21:00:00,12.9,1020.8,-1.6,88,11,22000,22.224,,,120,,,,,,,,,,,og-post,,,,AAXX 31214 07314 32572 11212 10129 20110 30180 40208 58016 81200 222// 328// 333 92438=
07314,1999-10-31 22:00:00,12.6,1020.4,-1.5,88,10.7,,18.52,,,130,,,,,,,,,,,og-post,,,,AAXX 31224 07314 36/// /1310 10126 20107 30176 40204 57015=
07314,1999-10-31 23:00:00,12.2,1019.7,-1.8,90,10.6,,14.816,,,140,,,,,,,,,,,og-post,,,,AAXX 31234 07314 36/// /1408 10122 20106 30169 40197 57018=
07314,1999-11-01 00:00:00,12.4,1018.9,-1.9,92,11.1,,18.52,,,150,,,,,,,,,,,og-post,,,,AAXX 01004 07314 36/// /1510 10124 20111 30161 40189 58019=
07314,1999-11-01 01:00:00,13.4,1018.1,-2.3,90,11.8,,18.52,,,140,,,,,,,,,,,og-post,,,,AAXX 01014 07314 36/// /1410 10134 20118 30153 40181 58023=
07314,1999-11-01 02:00:00,14.8,1017.9,-1.8,88,12.8,,18.52,,,150,,,,,,,,,,,og-post,,,,AAXX 01024 07314 36/// /1510 10148 20128 30151 40179 56018=
07314,1999-11-01 03:00:00,15.7,1016.9,-1.9,81,12.4,,25.928,,,160,,,,,,,,,,,og-post,,,,AAXX 01034 07314 36/// /1614 10157 20124 30142 40169 58019=
07314,1999-11-01 04:00:00,15.6,1016.5,-1.5,81,12.4,,29.632,,,160,,,,,,,,,,,og-post,,,,AAXX 01044 07314 36/// /1616 10156 20124 30138 40165 58015=
07314,1999-11-01 05:00:00,15.8,1016.4,-1.4,82,12.7,,31.484,,,160,,,,,,,,,,,og-post,,,,AAXX 01054 07314 36/// /1617 10158 20127 30137 40164 56014=
07314,1999-11-01 06:00:00,15.6,1015.9,-1,86,13.3,20000,31.484,,,170,12.1,15.9,,,,,,,,,og-post,,,,AAXX 01064 07314 32570 71717 10156 20133 30132 40159 58010 8523/ 222// 328// 333 10159 20121 92438=
07314,1999-11-01 07:00:00,16.3,1016,-0.5,88,14.3,,35.188,,,170,,,,,,,,,,,og-post,,,,AAXX 01074 07314 36/// /1719 10163 20143 30133 40160 55005=
07314,1999-11-01 08:00:00,17.3,1016.5,0.1,87,15.1,,38.892,,,170,,,,,,,,,,,og-post,,,,AAXX 01084 07314 36/// /1721 10173 20151 30138 40165 53001=
07314,1999-11-01 09:00:00,17.5,1017.1,1.2,88,15.5,20000,35.188,,57.412,180,,,,,,,,,,80,og-post,,,,AAXX 01094 07314 21570 71819 10175 20155 30144 40171 53012 78022 8572/ 222// 328// 333 69907 91031 92438=
07314,1999-11-01 10:00:00,17.6,1017.1,1.1,89,15.8,,38.892,,,170,,,0.2,,,,,,,,og-post,,,,AAXX 01104 07314 26/// /1721 10176 20158 30144 40171 51011 333 69925=
07314,1999-11-01 11:00:00,17.8,1017.5,1,91,16.3,,31.484,,,170,,,,,,,,,,,og-post,,,,AAXX 01114 07314 26/// /1717 10178 20163 30148 40175 51010 333 69905=
07314,1999-11-01 12:00:00,18,1017.5,0.4,92,16.7,20000,29.632,,,190,,,,0.6,0.6,,,,,80,og-post,,,,AAXX 01124 07314 /1570 71916 10180 20167 30148 40175 52004 69961 78022 8572/ 222// 328// 333 69967 92438=
07314,1999-11-01 13:00:00,17.8,1017.9,0.8,93,16.7,,14.816,,,180,,,0.4,,,,,,,,og-post,,,,AAXX 01134 07314 26/// /1808 10178 20167 30152 40179 52008 333 69945=
07314,1999-11-01 14:00:00,18,1016.8,-0.7,96,17.4,,22.224,,,160,,,1,,,,,,,,og-post,,,,AAXX 01144 07314 26/// /1612 10180 20174 30141 40168 58007 333 60015=
07314,1999-11-01 15:00:00,18,1016.7,-0.8,95,17.2,15000,22.224,,,160,,,,2,,,,,,25,og-post,,,,AAXX 01154 07314 21565 71612 10180 20172 30140 40167 58008 72586 8572/ 222// 328// 333 60027 92447=
07314,1999-11-01 16:00:00,17.9,1016.8,-1.1,90,16.2,,29.632,,,160,,,,,,,,,,,og-post,,,,AAXX 01164 07314 36/// /1616 10179 20162 30141 40168 55011=
07314,1999-11-01 17:00:00,17.4,1017.5,0.7,94,16.4,,25.928,,,180,,,0.4,,,,,,,,og-post,,,,AAXX 01174 07314 26/// /1814 10174 20164 30148 40175 53007 333 69945=
07314,1999-11-01 18:00:00,17.4,1017.9,1.2,96,16.8,15000,14.816,,,190,15.6,18.1,,0.6,,3,,,,2,og-post,,,,AAXX 01184 07314 /1565 71908 10174 20168 30152 40179 53012 60032 70286 8572/ 222// 328// 333 10181 20156 69967 92447=
07314,1999-11-01 19:00:00,17.4,1018.3,1.5,98,17.1,,22.224,,,210,,,5,,,,,,,,og-post,,,,AAXX 01194 07314 26/// /2112 10174 20171 30156 40183 51015 333 60055=
07314,1999-11-01 20:00:00,17.1,1017.7,0.2,98,16.8,,14.816,,,190,,,2,,,,,,,,og-post,,,,AAXX 01204 07314 26/// /1908 10171 20168 30150 40177 50002 333 60025=
07314,1999-11-01 21:00:00,17,1017.9,0,99,16.8,15000,14.816,,,190,,,,7,,,,,,2,og-post,,,,AAXX 01214 07314 21565 71908 10170 20168 30152 40179 50000 70286 8572/ 222// 328// 333 60077 92447=
07314,1999-11-01 22:00:00,17,1018.1,-0.2,99,16.8,,18.52,,,180,,,,,,,,,,,og-post,,,,AAXX 01224 07314 36/// /1810 10170 20168 30154 40181 55002=
07314,1999-11-01 23:00:00,16.9,1017.7,0,99,16.7,,22.224,,,230,,,0.4,,,,,,,,og-post,,,,AAXX 01234 07314 26/// /2312 10169 20167 30150 40177 50000 333 69945=
07314,1999-11-02 00:00:00,16.6,1016.3,-1.6,98,16.3,,11.112,,,190,,,,2,9,,,,,,og-post,,,,AAXX 02004 07314 /6/// /1906 10166 20163 30136 40163 58016 60091 333 60027=
07314,1999-11-02 01:00:00,16,1016.4,-1.7,98,15.7,,14.816,,,210,,,4,,,,,,,,og-post,,,,AAXX 02014 07314 26/// /2108 10160 20157 30137 40164 55017 333 60045=
07314,1999-11-02 02:00:00,15.7,1016.4,-1.3,97,15.2,,11.112,,,250,,,6,,,,,,,,og-post,,,,AAXX 02024 07314 26/// /2506 10157 20152 30137 40164 56013 333 60065=
07314,1999-11-02 03:00:00,15.3,1016.9,0.6,97,14.8,,18.52,,,280,,,,13,,,,,,,og-post,,,,AAXX 02034 07314 26/// /2810 10153 20148 30142 40169 53006 333 60137=
07314,1999-11-02 04:00:00,14.1,1017.7,1.2,98,13.8,,35.188,,,340,,,4,,,,,,,,og-post,,,,AAXX 02044 07314 26/// /3419 10141 20138 30149 40177 53012 333 60045=
07314,1999-11-02 05:00:00,13.7,1017.7,1.2,96,13.1,,22.224,,,360,,,2,,,,,,,,og-post,,,,AAXX 02054 07314 26/// /3612 10137 20131 30149 40177 51012 333 60025=
07314,1999-11-02 06:00:00,13.6,1018.5,1.5,97,13.1,12000,14.816,,,360,13.5,17.5,,8,,30,,,,61,og-post,,,,AAXX 02064 07314 /1562 83608 10136 20131 30157 40185 53015 60302 76186 8472/ 222// 328// 333 10175 20135 60087 92447=
07314,1999-11-02 07:00:00,13.3,1020.1,2.4,97,12.8,,14.816,,,360,,,3,,,,,,,,og-post,,,,AAXX 02074 07314 26/// /3608 10133 20128 30173 40201 53024 333 60035=
07314,1999-11-02 08:00:00,13.2,1021.6,3.9,97,12.7,,22.224,,,350,,,1,,,,,,,,og-post,,,,AAXX 02084 07314 26/// /3512 10132 20127 30188 40216 53039 333 60015=
07314,1999-11-02 09:00:00,13.1,1022.3,3.8,96,12.5,8000,22.224,,,360,,,,6,,,,,,61,og-post,,,,AAXX 02094 07314 21558 83612 10131 20125 30195 40223 51038 76186 8272/ 222// 328// 333 60067 92446=
07314,1999-11-02 11:00:00,14.2,1024.3,2.7,88,12.2,,29.632,,,350,,,,,,,,,,,og-post,,,,AAXX 02114 07314 26/// /3516 10142 20122 30215 40243 53027 333 69905=
07314,1999-11-02 12:00:00,14.5,1025.1,2.8,81,11.3,20000,31.484,,,340,,,,0.2,6,,,,,21,og-post,,,,AAXX 02124 07314 /1570 73417 10145 20113 30223 40251 51028 60061 72186 8272/ 222// 328// 333 69927 92448=
07314,1999-11-02 13:00:00,14.6,1025.8,2.6,77,10.6,,35.188,,,330,,,,,,,,,,,og-post,,,,AAXX 02134 07314 36/// /3319 10146 20106 30230 40258 51026=
07314,1999-11-02 14:00:00,14.7,1026.4,2.1,70,9.3,,35.188,,,330,,,,,,,,,,,og-post,,,,AAXX 02144 07314 36/// /3319 10147 20093 30236 40264 51021=
07314,1999-11-02 15:00:00,14.6,1027.4,2.3,62,7.4,20000,35.188,,,330,,,,,,,,,,,og-post,,,,AAXX 02154 07314 32570 73319 10146 20074 30246 40274 53023 8272/ 222// 328// 333 92448=
07314,1999-11-02 16:00:00,14.6,1028.4,2.6,67,8.5,,31.484,,,330,,,,,,,,,,,og-post,,,,AAXX 02164 07314 36/// /3317 10146 20085 30256 40284 53026=
07314,1999-11-02 17:00:00,14.1,1029.1,2.7,70,8.7,,31.484,,,330,,,,,,,,,,,og-post,,,,AAXX 02174 07314 36/// /3317 10141 20087 30263 40291 51027=
07314,1999-11-02 18:00:00,14.1,1030,2.6,68,8.3,20000,29.632,,,340,13,14.8,,,,6,,,,,og-post,,,,AAXX 02184 07314 12570 73416 10141 20083 30272 40300 51026 60062 8272/ 222// 328// 333 10148 20130 92448=
07314,1999-11-02 19:00:00,14.2,1030.5,2.1,68,8.4,,29.632,,,330,,,,,,,,,,,og-post,,,,AAXX 02194 07314 36/// /3316 10142 20084 30277 40305 51021=
07314,1999-11-02 20:00:00,13.9,1031.2,2.1,70,8.5,,29.632,,,330,,,,,,,,,,,og-post,,,,AAXX 02204 07314 36/// /3316 10139 20085 30284 40312 51021=
07314,1999-11-02 21:00:00,13.5,1032.1,2.1,65,7.1,22000,25.928,,,330,,,,,,,,,,,og-post,,,,AAXX 02214 07314 32572 63314 10135 20071 30293 40321 53021 8172/ 222// 328// 333 92438=
07314,1999-11-02 22:00:00,13.6,1032.6,2.1,74,9.1,,22.224,,,340,,,,,,,,,,,og-post,,,,AAXX 02224 07314 36/// /3412 10136 20091 30298 40326 51021=
07314,1999-11-02 23:00:00,13.4,1032.7,1.5,71,8.3,,22.224,,,350,,,,,,,,,,,og-post,,,,AAXX 02234 07314 36/// /3512 10134 20083 30299 40327 51015=
07314,1999-11-03 00:00:00,13.2,1032.8,0.7,72,8.3,,22.224,,,350,,,,,,,,,,,og-post,,,,AAXX 03004 07314 36/// /3512 10132 20083 30300 40328 51007=
07314,1999-11-03 01:00:00,12.9,1032.8,0.2,71,7.8,,22.224,,,10,,,,,,,,,,,og-post,,,,AAXX 03014 07314 36/// /0112 10129 20078 30300 40328 51002=
07314,1999-11-03 02:00:00,12.1,1032.8,0.1,76,8,,18.52,,,20,,,,,,,,,,,og-post,,,,AAXX 03024 07314 36/// /0210 10121 20080 30300 40328 51001=
07314,1999-11-03 03:00:00,11.9,1032.6,-0.2,76,7.8,,14.816,,,30,,,,,,,,,,,og-post,,,,AAXX 03034 07314 36/// /0308 10119 20078 30298 40326 58002=
07314,1999-11-03 04:00:00,11.6,1032.7,-0.1,78,7.9,,11.112,,,40,,,,,,,,,,,og-post,,,,AAXX 03044 07314 36/// /0406 10116 20079 30299 40327 55001=
07314,1999-11-03 05:00:00,11.4,1033,0.2,78,7.7,,11.112,,,40,,,,,,,,,,,og-post,,,,AAXX 03054 07314 36/// /0406 10114 20077 30302 40330 53002=
07314,1999-11-03 06:00:00,10.6,1033.2,0.6,84,8,25000,7.408,,,60,10.6,14.2,,,,,,,,,og-post,,,,AAXX 03064 07314 32975 10604 10106 20080 30304 40332 53006 81030 222// 328// 333 10142 20106 92438=
07314,1999-11-03 07:00:00,9.9,1033.6,0.8,87,7.8,,7.408,,,70,,,,,,,,,,,og-post,,,,AAXX 03074 07314 36/// /0704 10099 20078 30307 40336 52008=
07314,1999-11-03 08:00:00,11.6,1034.2,1.2,83,8.8,,7.408,,,80,,,,,,,,,,,og-post,,,,AAXX 03084 07314 36/// /0804 10116 20088 30314 40342 53012=
07314,1999-11-03 09:00:00,12.5,1034.1,0.9,78,8.8,18000,7.408,,,80,,,,,,,,,,,og-post,,,,AAXX 03094 07314 32968 10804 10125 20088 30313 40341 50009 81030 222// 328// 333 92438=
07314,1999-11-03 10:00:00,13.2,1034,0.5,74,8.7,,11.112,,,80,,,,,,,,,,,og-post,,,,AAXX 03104 07314 36/// /0806 10132 20087 30312 40340 50005=
07314,1999-11-03 11:00:00,14.3,1033.6,-0.6,67,8.3,,7.408,,,100,,,,,,,,,,,og-post,,,,AAXX 03114 07314 36/// /1004 10143 20083 30308 40336 58006=
07314,1999-11-03 12:00:00,14,1032.9,-1.2,66,7.8,18000,11.112,,,80,,,,,,,,,,,og-post,,,,AAXX 03124 07314 32568 20806 10140 20078 30301 40329 58012 81230 222// 328// 333 92438=
07314,1999-11-03 13:00:00,13.9,1032,-2,67,7.9,,7.408,,,80,,,,,,,,,,,og-post,,,,AAXX 03134 07314 36/// /0804 10139 20079 30292 40320 58020=
07314,1999-11-03 14:00:00,14,1031.2,-2.4,68,8.2,,3.704,,,80,,,,,,,,,,,og-post,,,,AAXX 03144 07314 36/// /0802 10140 20082 30284 40312 58024=
07314,1999-11-03 15:00:00,14,1031,-1.9,68,8.2,28000,3.704,,,60,,,,,,,,,,,og-post,,,,AAXX 03154 07314 32578 20602 10140 20082 30282 40310 56019 81230 222// 328// 333 92438=
07314,1999-11-03 16:00:00,13.5,1030.5,-1.5,66,7.3,,7.408,,,50,,,,,,,,,,,og-post,,,,AAXX 03164 07314 36/// /0504 10135 20073 30277 40305 56015=
07314,1999-11-03 17:00:00,12.3,1030.2,-1,73,7.6,,7.408,,,20,,,,,,,,,,,og-post,,,,AAXX 03174 07314 36/// /0204 10123 20076 30274 40302 58010=
07314,1999-11-03 18:00:00,12.5,1029.7,-1.3,71,7.4,25000,11.112,,,60,9.8,14.8,,,,,,,,,og-post,,,,AAXX 03184 07314 32575 30606 10125 20074 30269 40297 57013 82230 222// 328// 333 10148 20098 92438=
07314,1999-11-03 19:00:00,12.2,1029.3,-1.2,68,6.5,,14.816,,,80,,,,,,,,,,,og-post,,,,AAXX 03194 07314 36/// /0808 10122 20065 30265 40293 58012=
07314,1999-11-03 20:00:00,11.9,1029,-1.2,72,7,,14.816,,,80,,,,,,,,,,,og-post,,,,AAXX 03204 07314 36/// /0808 10119 20070 30262 40290 56012=
07314,1999-11-03 21:00:00,11.6,1028.9,-0.8,75,7.3,25000,14.816,,,80,,,,,,,,,,,og-post,,,,AAXX 03214 07314 32875 20808 10116 20073 30261 40289 56008 82030 222// 328// 333 92438=
07314,1999-11-03 22:00:00,11.5,1028.5,-0.8,76,7.4,,14.816,,,80,,,,,,,,,,,og-post,,,,AAXX 03224 07314 36/// /0808 10115 20074 30257 40285 58008=
07314,1999-11-03 23:00:00,11.4,1028.1,-0.9,76,7.3,,18.52,,,90,,,,,,,,,,,og-post,,,,AAXX 03234 07314 36/// /0910 10114 20073 30253 40281 58009=
07314,1999-11-04 00:00:00,11.2,1027.4,-1.5,79,7.7,,18.52,,,90,,,,,,,,,,,og-post,,,,AAXX 04004 07314 36/// /0910 10112 20077 30246 40274 58015=
07314,1999-11-04 01:00:00,10.8,1026.9,-1.6,81,7.7,,18.52,,,90,,,,,,,,,,,og-post,,,,AAXX 04014 07314 36/// /0910 10108 20077 30241 40269 58016=
07314,1999-11-04 02:00:00,10.9,1026.4,-1.7,82,8,,18.52,,,90,,,,,,,,,,,og-post,,,,AAXX 04024 07314 36/// /0910 10109 20080 30236 40264 56017=
07314,1999-11-04 03:00:00,9.9,1026.1,-1.3,83,7.2,,11.112,,,100,,,,,,,,,,,og-post,,,,AAXX 04034 07314 36/// /1006 10099 20072 30233 40261 56013=
07314,1999-11-04 04:00:00,9.6,1025.7,-1.2,86,7.4,,14.816,,,90,,,,,,,,,,,og-post,,,,AAXX 04044 07314 36/// /0908 10096 20074 30229 40257 56012=
07314,1999-11-04 05:00:00,9.5,1024.8,-1.6,86,7.3,,14.816,,,90,,,,,,,,,,,og-post,,,,AAXX 04054 07314 36/// /0908 10095 20073 30220 40248 58016=
07314,1999-11-04 06:00:00,9.4,1024.8,-1.3,86,7.2,,18.52,,,80,9.3,12.6,,,,,,,,,og-post,,,,AAXX 04064 07314 36/// /0810 10094 20072 30220 40248 56013 333 10126 20093=
07314,1999-11-04 07:00:00,9,1024.6,-1.1,89,7.3,,14.816,,,80,,,,,,,,,,,og-post,,,,AAXX 04074 07314 36/// /0808 10090 20073 30218 40246 56011=
07314,1999-11-04 08:00:00,9.8,1024.6,-0.2,85,7.4,,14.816,,,90,,,,,,,,,,,og-post,,,,AAXX 04084 07314 36/// /0908 10098 20074 30218 40246 57002=
07314,1999-11-04 09:00:00,10.8,1024.1,-0.7,80,7.5,,14.816,,,90,,,,,,,,,,,og-post,,,,AAXX 04094 07314 36/// /0908 10108 20075 30213 40241 58007=
07314,1999-11-04 10:00:00,11.7,1023.8,-0.8,73,7,,11.112,,,90,,,,,,,,,,,og-post,,,,AAXX 04104 07314 36/// /0906 10117 20070 30210 40238 58008=
07314,1999-11-04 11:00:00,12,1023.3,-1.3,67,6.1,,14.816,,,80,,,,,,,,,,,og-post,,,,AAXX 04114 07314 36/// /0808 10120 20061 30205 40233 57013=
07314,1999-11-04 12:00:00,12.5,1022.5,-1.6,64,5.9,22000,11.112,,,80,,,,,,,,,,,og-post,,,,AAXX 04124 07314 32972 50806 10125 20059 30197 40225 58016 80002 222// 328// 333 92438=
07314,1999-11-04 13:00:00,12.6,1021.8,-2,64,6,,11.112,,,80,,,,,,,,,,,og-post,,,,AAXX 04134 07314 36/// /0806 10126 20060 30190 40218 58020=
07314,1999-11-04 14:00:00,13.3,1021,-2.3,63,6.4,,7.408,,,70,,,,,,,,,,,og-post,,,,AAXX 04144 07314 36/// /0704 10133 20064 30182 40210 57023=
07314,1999-11-04 17:00:00,11.8,1020.2,-0.8,60,4.3,,11.112,,,70,,,,,,,,,,,og-post,,,,AAXX 04174 07314 36/// /0706 10118 20043 30174 40202 56008=
07314,1999-11-04 18:00:00,11.3,1020.2,-0.5,66,5.2,22000,11.112,,,80,8.8,13.6,,,,,,,,,og-post,,,,AAXX 04184 07314 32972 60806 10113 20052 30174 40202 56005 80002 222// 328// 333 10136 20088 92438=
07314,1999-11-04 19:00:00,10.8,1019.8,-0.6,69,5.3,,14.816,,,80,,,,,,,,,,,og-post,,,,AAXX 04194 07314 36/// /0808 10108 20053 30170 40198 58006=
07314,1999-11-04 20:00:00,9.3,1019.4,-0.8,83,6.6,,14.816,,,100,,,,,,,,,,,og-post,,,,AAXX 04204 07314 36/// /1008 10093 20066 30166 40194 58008=
07314,1999-11-04 21:00:00,8.4,1018.9,-1.3,89,6.7,18000,11.112,,,120,,,,,,,,,,,og-post,,,,AAXX 04214 07314 32868 71206 10084 20067 30161 40189 58013 84032 222// 328// 333 92437=
07314,1999-11-05 01:00:00,6.5,1017.1,-1.3,97,6.1,,14.816,,,130,,,,,,,,,,,og-post,,,,AAXX 05014 07314 36/// /1308 10065 20061 30143 40171 56013=
07314,1999-11-05 02:00:00,7.4,1016.7,-1.2,98,7.1,,14.816,,,130,,,,,,,,,,,og-post,,,,AAXX 05024 07314 36/// /1308 10074 20071 30139 40167 56012=
07314,1999-11-05 03:00:00,7.8,1016,-1.4,98,7.5,,18.52,,,130,,,,,,,,,,,og-post,,,,AAXX 05034 07314 36/// /1310 10078 20075 30132 40160 58014=
07314,1999-11-05 04:00:00,8.1,1015.4,-1.7,97,7.7,,18.52,,,130,,,,,,,,,,,og-post,,,,AAXX 05044 07314 36/// /1310 10081 20077 30126 40154 58017=
07314,1999-11-05 05:00:00,8.3,1015.2,-1.5,97,7.9,,18.52,,,150,,,,,,,,,,,og-post,,,,AAXX 05054 07314 36/// /1510 10083 20079 30124 40152 56015=
07314,1999-11-05 06:00:00,8.8,1013.3,-2.7,97,8.3,18000,22.224,,,140,6.5,11.3,,,,,,,,,og-post,,,,AAXX 05064 07314 32868 61412 10088 20083 30105 40133 58027 85032 222// 328// 333 10113 20065 92437=
07314,1999-11-05 07:00:00,9.4,1013.2,-2.2,97,8.9,,22.224,,,150,,,,,,,,,,,og-post,,,,AAXX 05074 07314 36/// /1512 10094 20089 30104 40132 56022=
07314,1999-11-05 08:00:00,11.5,1013,-2.2,97,11,,29.632,,,160,,,,,,,,,,,og-post,,,,AAXX 05084 07314 36/// /1616 10115 20110 30102 40130 56022=
07314,1999-11-05 09:00:00,13.9,1013.1,-0.2,89,12.1,18000,35.188,,,190,,,,,,,,,,,og-post,,,,AAXX 05094 07314 32568 71919 10139 20121 30103 40131 55002 82232 222// 328// 333 92437=
07314,1999-11-05 10:00:00,15.4,1012.6,-0.5,82,12.3,,35.188,,,200,,,,,,,,,,,og-post,,,,AAXX 05104 07314 36/// /2019 10154 20123 30099 40126 58005=
07314,1999-11-05 11:00:00,15.7,1012.1,-0.8,85,13.2,,38.892,,,200,,,,,,,,,,,og-post,,,,AAXX 05114 07314 36/// /2021 10157 20132 30094 40121 58008=
07314,1999-11-05 12:00:00,16.4,1011.2,-1.8,85,13.9,18000,35.188,,,200,,,,,,,,,,,og-post,,,,AAXX 05124 07314 32868 72019 10164 20139 30085 40112 58018 86032 222// 328// 333 92437=
07314,1999-11-05 13:00:00,16.5,1010.6,-2,84,13.8,,35.188,,,200,,,,,,,,,,,og-post,,,,AAXX 05134 07314 36/// /2019 10165 20138 30079 40106 58020=
07314,1999-11-05 14:00:00,16.8,1010.1,-2,85,14.3,,38.892,,,200,,,,,,,,,,,og-post,,,,AAXX 05144 07314 36/// /2021 10168 20143 30074 40101 56020=
07314,1999-11-05 15:00:00,17.3,1009.5,-1.7,78,13.4,18000,46.3,,,210,,,,,,,,,,,og-post,,,,AAXX 05154 07314 32868 82125 10173 20134 30068 40095 57017 8307/ 222// 328// 333 92447=
07314,1999-11-05 16:00:00,17.4,1009.2,-1.4,79,13.7,,46.3,,,220,,,,,,,,,,,og-post,,,,AAXX 05164 07314 36/// /2225 10174 20137 30065 40092 56014=
07314,1999-11-05 17:00:00,17.2,1008.7,-1.4,83,14.3,,53.708,75.932,75.932,220,,,,,,,,,,,og-post,,,,AAXX 05174 07314 36/// /2229 10172 20143 30060 40087 56014 333 91041 91141=
07314,1999-11-05 18:00:00,13.7,1010.5,1,95,12.9,12000,38.892,83.34,,290,8.8,17.5,,4,,4,,,,61,og-post,,,,AAXX 05184 07314 /1762 82921 10137 20129 30078 40105 53010 60042 76162 8707/ 222// 328// 333 10175 20088 60047 91145 92447=
07314,1999-11-05 19:00:00,13,1011.6,2.3,79,9.4,,38.892,75.932,,280,,,0.2,,,,,,,,og-post,,,,AAXX 05194 07314 26/// /2821 10130 20094 30088 40116 53023 333 69925 91141=
07314,1999-11-05 20:00:00,13.5,1012.2,3.4,82,10.5,,38.892,,,270,,,0.4,,,,,,,,og-post,,,,AAXX 05204 07314 26/// /2721 10135 20105 30094 40122 51034 333 69945=
07314,1999-11-05 21:00:00,13.3,1012.4,1.8,88,11.4,15000,35.188,75.932,,250,,,,1,,,,,,62,og-post,,,,AAXX 05214 07314 21765 82519 10133 20114 30096 40124 51018 76262 8707/ 222// 328// 333 60017 91141 92447=
07314,1999-11-05 23:00:00,14.6,1012.5,0.4,66,8.3,,38.892,,,270,,,,,,,,,,,og-post,,,,AAXX 05234 07314 26/// /2721 10146 20083 30098 40125 51004 333 69905=
07314,1999-11-06 00:00:00,14.6,1012.4,0.1,65,8.1,,38.892,75.932,,260,,,,0.2,1,,,,,,og-post,,,,AAXX 06004 07314 /6/// /2621 10146 20081 30097 40124 50001 60011 333 69927 91141=
07314,1999-11-06 01:00:00,14.6,1012.2,-0.3,63,7.6,,42.596,,,270,,,,,,,,,,,og-post,,,,AAXX 06014 07314 26/// /2723 10146 20076 30095 40122 58003 333 69905=
07314,1999-11-06 02:00:00,13.8,1012.7,0.1,76,9.6,,38.892,68.524,61.116,270,,,,,,,,,,,og-post,,,,AAXX 06024 07314 26/// /2721 10138 20096 30099 40127 53001 333 69905 91033 91137=
07314,1999-11-06 03:00:00,14.2,1011.9,-0.5,70,8.8,,50.004,79.636,79.636,280,,,,0.4,,,,,,,og-post,,,,AAXX 06034 07314 26/// /2827 10142 20088 30092 40119 58005 333 69947 91043 91143=
07314,1999-11-06 04:00:00,14,1012.6,0.3,77,10,,46.3,103.712,,280,,,1,,,,,,,,og-post,,,,AAXX 06044 07314 26/// /2825 10140 20100 30098 40126 53003 333 60015 91156=
07314,1999-11-06 05:00:00,12.1,1014.4,1.7,80,8.8,,46.3,90.748,,310,,,0.2,,,,,,,,og-post,,,,AAXX 06054 07314 26/// /3125 10121 20088 30116 40144 53017 333 69925 91149=
07314,1999-11-06 06:00:00,10.8,1015.4,3.4,87,8.7,12000,42.596,103.712,64.82,310,10.4,14.7,,3,,4,,,,61,og-post,,,,AAXX 06064 07314 /1562 83123 10108 20087 30126 40154 53034 60042 76162 8772/ 222// 328// 333 10147 20104 60037 91035 91156 92457=
07314,1999-11-06 07:00:00,11.8,1016.5,3.9,76,7.7,,35.188,,,340,,,0.4,,,,,,,,og-post,,,,AAXX 06074 07314 26/// /3419 10118 20077 30137 40165 51039 333 69945=
07314,1999-11-06 08:00:00,12.2,1018,3.6,75,7.9,,31.484,,,340,,,,,,,,,,,og-post,,,,AAXX 06084 07314 26/// /3417 10122 20079 30152 40180 53036 333 69905=
07314,1999-11-06 09:00:00,12.5,1018.9,3.5,74,8,18000,31.484,,,330,,,,0.6,,,,,,61,og-post,,,,AAXX 06094 07314 21568 33317 10125 20080 30161 40189 51035 76162 8322/ 222// 328// 333 69967 92447=
07314,1999-11-06 10:00:00,12.7,1020.1,3.6,70,7.4,,42.596,68.524,,340,,,,,,,,,,,og-post,,,,AAXX 06104 07314 26/// /3423 10127 20074 30173 40201 51036 333 69905 91137=
07314,1999-11-06 11:00:00,13,1021,3,71,7.9,,35.188,,,340,,,,,,,,,,,og-post,,,,AAXX 06114 07314 26/// /3419 10130 20079 30182 40210 52030 333 69905=
07314,1999-11-06 12:00:00,13.2,1021.4,2.5,64,6.5,22000,35.188,68.524,,330,,,,,0.6,,,,,21,og-post,,,,AAXX 06124 07314 /1572 33319 10132 20065 30186 40214 51025 69961 72161 8323/ 222// 328// 333 69907 91137 92448=
07314,1999-11-06 13:00:00,13.5,1021.5,1.4,66,7.3,,31.484,,,320,,,,,,,,,,,og-post,,,,AAXX 06134 07314 36/// /3217 10135 20073 30187 40215 51014=
07314,1999-11-06 14:00:00,13.5,1021.7,0.7,65,7.1,,29.632,,,320,,,,,,,,,,,og-post,,,,AAXX 06144 07314 36/// /3216 10135 20071 30189 40217 51007=
07314,1999-11-06 15:00:00,13.5,1022,0.6,61,6.1,22000,31.484,,,320,,,,,,,,,,,og-post,,,,AAXX 06154 07314 32572 33217 10135 20061 30192 40220 53006 8323/ 222// 328// 333 92448=
07314,1999-11-06 16:00:00,13.1,1022.6,1.1,61,5.8,,35.188,,,320,,,,,,,,,,,og-post,,,,AAXX 06164 07314 36/// /3219 10131 20058 30198 40226 53011=
07314,1999-11-06 17:00:00,12.9,1023.2,1.5,65,6.5,,35.188,,,320,,,,,,,,,,,og-post,,,,AAXX 06174 07314 36/// /3219 10129 20065 30204 40232 53015=
07314,1999-11-06 18:00:00,12.7,1024.2,2.2,67,6.7,20000,31.484,,,340,10.7,13.6,,,,0.6,,,,,og-post,,,,AAXX 06184 07314 12570 53417 10127 20067 30214 40242 53022 69962 84230 222// 328// 333 10136 20107 92448=
07314,1999-11-06 19:00:00,12.2,1024.8,2.2,67,6.3,,29.632,,,340,,,,,,,,,,,og-post,,,,AAXX 06194 07314 36/// /3416 10122 20063 30220 40248 52022=
07314,1999-11-06 20:00:00,11.9,1025.4,2.2,68,6.2,,22.224,,,350,,,,,,,,,,,og-post,,,,AAXX 06204 07314 36/// /3512 10119 20062 30226 40254 51022=
07314,1999-11-06 21:00:00,11.7,1026.1,1.9,65,5.3,24000,22.224,,,350,,,,,,,,,,,og-post,,,,AAXX 06214 07314 32574 43512 10117 20053 30233 40261 53019 83230 222// 328// 333 92448=
07314,1999-11-06 22:00:00,11.4,1026.5,1.7,64,4.8,,29.632,,,360,,,,,,,,,,,og-post,,,,AAXX 06224 07314 36/// /3616 10114 20048 30237 40265 51017=
07314,1999-11-06 23:00:00,11.1,1026.9,1.5,64,4.6,,25.928,,,350,,,,,,,,,,,og-post,,,,AAXX 06234 07314 36/// /3514 10111 20046 30241 40269 51015=
07314,1999-11-07 00:00:00,11,1027.4,1.3,66,4.9,,25.928,,,350,,,,,,,,,,,og-post,,,,AAXX 07004 07314 36/// /3514 10110 20049 30246 40274 53013=
07314,1999-11-07 01:00:00,11.1,1027.3,0.8,64,4.6,,25.928,,,350,,,,,,,,,,,og-post,,,,AAXX 07014 07314 36/// /3514 10111 20046 30245 40273 50008=
07314,1999-11-07 02:00:00,11.2,1027.7,0.8,69,5.7,,25.928,,,340,,,,,,,,,,,og-post,,,,AAXX 07024 07314 36/// /3414 10112 20057 30249 40277 51008=
07314,1999-11-07 03:00:00,11.2,1027.6,0.2,65,4.9,,22.224,,,350,,,,,,,,,,,og-post,,,,AAXX 07034 07314 36/// /3512 10112 20049 30248 40276 52002=
07314,1999-11-07 04:00:00,11.4,1028,0.7,68,5.7,,18.52,,,350,,,,,,,,,,,og-post,,,,AAXX 07044 07314 36/// /3510 10114 20057 30252 40280 52007=
07314,1999-11-07 05:00:00,11.1,1028.4,0.7,71,6,,22.224,,,360,,,,,,,,,,,og-post,,,,AAXX 07054 07314 36/// /3612 10111 20060 30256 40284 53007=
07314,1999-11-07 06:00:00,11,1029,1.4,75,6.7,20000,22.224,,,10,10.9,12.6,,,,,,,,,og-post,,,,AAXX 07064 07314 32870 20112 10110 20067 30262 40290 53014 82030 222// 328// 333 10126 20109 92448=
07314,1999-11-07 07:00:00,10.5,1029.5,1.5,78,6.8,,18.52,,,20,,,,,,,,,,,og-post,,,,AAXX 07074 07314 36/// /0210 10105 20068 30267 40295 53015=
07314,1999-11-07 08:00:00,10.9,1030.3,1.9,75,6.6,,14.816,,,10,,,,,,,,,,,og-post,,,,AAXX 07084 07314 36/// /0108 10109 20066 30275 40303 53019=
07314,1999-11-07 09:00:00,11.5,1030.9,1.9,75,7.2,22000,11.112,,,20,,,,,,,,,,,og-post,,,,AAXX 07094 07314 32872 30206 10115 20072 30281 40309 53019 82031 222// 328// 333 92438=
07314,1999-11-07 10:00:00,11.4,1031.4,1.9,73,6.7,,11.112,,,360,,,,,,,,,,,og-post,,,,AAXX 07104 07314 36/// /3606 10114 20067 30286 40314 51019=
07314,1999-11-07 11:00:00,12.4,1031.7,1.4,67,6.5,,14.816,,,360,,,,,,,,,,,og-post,,,,AAXX 07114 07314 36/// /3608 10124 20065 30289 40317 51014=
07314,1999-11-07 12:00:00,13,1031.5,0.6,62,5.9,22000,11.112,,,350,,,,,,,,,,,og-post,,,,AAXX 07124 07314 32872 43506 10130 20059 30287 40315 50006 82031 222// 328// 333 92438=
07314,1999-11-07 13:00:00,13.4,1031.4,0,65,7,,11.112,,,340,,,,,,,,,,,og-post,,,,AAXX 07134 07314 36/// /3406 10134 20070 30286 40314 50000=
07314,1999-11-07 14:00:00,13.5,1031.2,-0.5,63,6.6,,14.816,,,330,,,,,,,,,,,og-post,,,,AAXX 07144 07314 36/// /3308 10135 20066 30284 40312 57005=
07314,1999-11-07 15:00:00,13.1,1031.4,-0.1,68,7.3,25000,18.52,,,330,,,,,,,,,,,og-post,,,,AAXX 07154 07314 32575 63310 10131 20073 30286 40314 55001 82231 222// 328// 333 92438=
07314,1999-11-07 16:00:00,12.8,1031.4,-0,69,7.3,,18.52,,,330,,,,,,,,,,,og-post,,,,AAXX 07164 07314 36/// /3310 10128 20073 30286 40314 55000=
07314,1999-11-07 17:00:00,12.7,1031.9,0.7,72,7.8,,18.52,,,350,,,,,,,,,,,og-post,,,,AAXX 07174 07314 36/// /3510 10127 20078 30291 40319 53007=
07314,1999-11-07 18:00:00,12.6,1032.3,0.9,73,7.9,25000,14.816,,,360,10.3,13.7,,,,,,,,,og-post,,,,AAXX 07184 07314 32575 63608 10126 20079 30295 40323 53009 82231 222// 328// 333 10137 20103 92438=
07314,1999-11-07 19:00:00,12.3,1032.7,1.3,74,7.8,,18.52,,,20,,,,,,,,,,,og-post,,,,AAXX 07194 07314 36/// /0210 10123 20078 30299 40327 51013=
07314,1999-11-07 20:00:00,11.5,1033,1.1,76,7.4,,11.112,,,20,,,,,,,,,,,og-post,,,,AAXX 07204 07314 36/// /0206 10115 20074 30302 40330 51011=
07314,1999-11-07 21:00:00,11.4,1033.1,0.8,77,7.5,25000,14.816,,,30,,,,,,,,,,,og-post,,,,AAXX 07214 07314 32575 60308 10114 20075 30303 40331 51008 82231 222// 328// 333 92438=
07314,1999-11-07 22:00:00,11.1,1033.5,0.8,81,8,,14.816,,,20,,,,,,,,,,,og-post,,,,AAXX 07224 07314 36/// /0208 10111 20080 30307 40335 53008=
07314,1999-11-07 23:00:00,11,1033.5,0.5,79,7.5,,11.112,,,40,,,,,,,,,,,og-post,,,,AAXX 07234 07314 36/// /0406 10110 20075 30307 40335 51005=
07314,1999-11-08 01:00:00,9.8,1033.7,0.1,85,7.4,,7.408,,,70,,,,,,,,,,,og-post,,,,AAXX 08014 07314 36/// /0704 10098 20074 30308 40337 50001=
07314,1999-11-08 02:00:00,9.8,1033.7,0.1,83,7.1,,3.704,,,70,,,,,,,,,,,og-post,,,,AAXX 08024 07314 36/// /0702 10098 20071 30308 40337 51001=
07314,1999-11-08 03:00:00,8.5,1033.7,-0.1,86,6.3,,3.704,,,120,,,,,,,,,,,og-post,,,,AAXX 08034 07314 36/// /1202 10085 20063 30308 40337 56001=
07314,1999-11-08 04:00:00,9.8,1033.5,-0.2,84,7.2,,3.704,,,360,,,,,,,,,,,og-post,,,,AAXX 08044 07314 36/// /3602 10098 20072 30306 40335 58002=
07314,1999-11-08 05:00:00,8.9,1033.7,-0,90,7.4,,7.408,,,360,,,,,,,,,,,og-post,,,,AAXX 08054 07314 36/// /3604 10089 20074 30308 40337 55000=
07314,1999-11-08 06:00:00,8.1,1033.7,-0,87,6.1,25000,3.704,,,90,8.1,12.7,,,,,,,,,og-post,,,,AAXX 08064 07314 32875 30902 10081 20061 30308 40337 55000 83031 222// 328// 333 10127 20081 92438=
07314,1999-11-08 07:00:00,8.3,1034.2,0.7,89,6.6,,7.408,,,130,,,,,,,,,,,og-post,,,,AAXX 08074 07314 36/// /1304 10083 20066 30313 40342 53007=
07314,1999-11-08 08:00:00,8.9,1034.3,0.6,89,7.2,,7.408,,,170,,,,,,,,,,,og-post,,,,AAXX 08084 07314 36/// /1704 10089 20072 30314 40343 53006=
07314,1999-11-08 09:00:00,11.8,1034.4,0.8,83,9,25000,7.408,,,230,,,,,,,,,,,og-post,,,,AAXX 08094 07314 32875 72304 10118 20090 30316 40344 51008 86031 222// 328// 333 92438=
07314,1999-11-08 10:00:00,12.9,1034.4,0.3,68,7.1,,3.704,,,230,,,,,,,,,,,og-post,,,,AAXX 08104 07314 36/// /2302 10129 20071 30316 40344 51003=
07314,1999-11-08 11:00:00,13.2,1034.4,0.2,66,7,,3.704,,,30,,,,,,,,,,,og-post,,,,AAXX 08114 07314 36/// /0302 10132 20070 30316 40344 51002=
07314,1999-11-08 12:00:00,13,1034.1,-0.3,81,9.8,25000,7.408,,,30,,,,,,,,,,,og-post,,,,AAXX 08124 07314 32875 70304 10130 20098 30313 40341 58003 8703/ 222// 328// 333 92438=
07314,1999-11-08 13:00:00,13.1,1033.8,-0.6,80,9.7,,7.408,,,20,,,,,,,,,,,og-post,,,,AAXX 08134 07314 36/// /0204 10131 20097 30310 40338 58006=
07314,1999-11-08 14:00:00,13.2,1033.5,-0.9,81,10,,11.112,,,350,,,,,,,,,,,og-post,,,,AAXX 08144 07314 36/// /3506 10132 20100 30307 40335 57009=
07314,1999-11-08 15:00:00,13.5,1033.4,-0.7,70,8.1,25000,14.816,,,330,,,,,,,,,,,og-post,,,,AAXX 08154 07314 32875 83308 10135 20081 30306 40334 56007 8803/ 222// 328// 333 92438=
07314,1999-11-08 16:00:00,13.4,1033.4,-0.4,73,8.7,,14.816,,,310,,,,,,,,,,,og-post,,,,AAXX 08164 07314 36/// /3108 10134 20087 30306 40334 56004=
07314,1999-11-08 17:00:00,13.5,1033.5,-0,77,9.6,,18.52,,,340,,,,,,,,,,,og-post,,,,AAXX 08174 07314 36/// /3410 10135 20096 30307 40335 55000=
07314,1999-11-08 18:00:00,13.5,1033.8,0.4,78,9.7,25000,18.52,,,340,7.7,13.5,,,,,,,,,og-post,,,,AAXX 08184 07314 32875 83410 10135 20097 30310 40338 53004 8803/ 222// 328// 333 10135 20077 92438=
07314,1999-11-08 19:00:00,13.3,1033.7,0.3,78,9.5,,18.52,,,360,,,,,,,,,,,og-post,,,,AAXX 08194 07314 36/// /3610 10133 20095 30309 40337 50003=
07314,1999-11-08 20:00:00,13.2,1034,0.5,77,9.3,,14.816,,,350,,,,,,,,,,,og-post,,,,AAXX 08204 07314 36/// /3508 10132 20093 30312 40340 52005=
07314,1999-11-08 21:00:00,13.1,1033.9,0.1,76,9,25000,18.52,,,360,,,,,,,,,,,og-post,,,,AAXX 08214 07314 32875 83610 10131 20090 30311 40339 52001 8803/ 222// 328// 333 92438=
07314,1999-11-08 22:00:00,13,1033.9,0.2,77,9.1,,18.52,,,360,,,,,,,,,,,og-post,,,,AAXX 08224 07314 36/// /3610 10130 20091 30311 40339 51002=
07314,1999-11-08 23:00:00,12.8,1033.5,-0.5,79,9.3,,18.52,,,360,,,,,,,,,,,og-post,,,,AAXX 08234 07314 36/// /3610 10128 20093 30307 40335 58005=
07314,1999-11-09 00:00:00,12.6,1033.5,-0.4,85,10.1,,22.224,,,10,,,,,,,,,,,og-post,,,,AAXX 09004 07314 36/// /0112 10126 20101 30307 40335 57004=
07314,1999-11-09 01:00:00,12.3,1033.3,-0.6,89,10.5,,18.52,,,20,,,,,,,,,,,og-post,,,,AAXX 09014 07314 36/// /0210 10123 20105 30305 40333 56006=
07314,1999-11-09 02:00:00,12.3,1033.2,-0.3,90,10.7,,14.816,,,30,,,,,,,,,,,og-post,,,,AAXX 09024 07314 36/// /0308 10123 20107 30304 40332 58003=
07314,1999-11-09 03:00:00,12,1033,-0.5,91,10.6,,14.816,,,20,,,,,,,,,,,og-post,,,,AAXX 09034 07314 36/// /0208 10120 20106 30302 40330 57005=
07314,1999-11-09 04:00:00,11.9,1033,-0.3,91,10.5,,18.52,,,30,,,,,,,,,,,og-post,,,,AAXX 09044 07314 36/// /0310 10119 20105 30302 40330 56003=
07314,1999-11-09 05:00:00,12,1033.2,-0,89,10.2,,18.52,,,30,,,,,,,,,,,og-post,,,,AAXX 09054 07314 36/// /0310 10120 20102 30304 40332 55000=
07314,1999-11-09 06:00:00,12,1033.2,0.2,90,10.4,17000,14.816,,,40,11.9,13.5,,,,,,,,,og-post,,,,AAXX 09064 07314 32867 80408 10120 20104 30304 40332 52002 8802/ 222// 328// 333 10135 20119 92437=
07314,1999-11-09 07:00:00,11.9,1033.5,0.5,83,9.1,,18.52,,,40,,,,,,,,,,,og-post,,,,AAXX 09074 07314 36/// /0410 10119 20091 30307 40335 53005=
07314,1999-11-09 08:00:00,11.8,1033.9,0.7,88,9.9,,18.52,,,30,,,,,,,,,,,og-post,,,,AAXX 09084 07314 36/// /0310 10118 20099 30311 40339 53007=
07314,1999-11-09 09:00:00,11.9,1034.2,1,90,10.3,13000,18.52,,,40,,,,,,,,,,,og-post,,,,AAXX 09094 07314 32863 80410 10119 20103 30314 40342 52010 8802/ 222// 328// 333 92437=
07314,1999-11-09 10:00:00,11.6,1034.5,1,88,9.7,,25.928,,,40,,,,,,,,,,,og-post,,,,AAXX 09104 07314 36/// /0414 10116 20097 30317 40345 51010=
07314,1999-11-09 11:00:00,12.8,1034.2,0.3,81,9.6,,18.52,,,40,,,,,,,,,,,og-post,,,,AAXX 09114 07314 36/// /0410 10128 20096 30314 40342 50003=
07314,1999-11-09 12:00:00,13.5,1033.9,-0.3,77,9.6,18000,22.224,,,30,,,,,,,,,,,og-post,,,,AAXX 09124 07314 32568 10312 10135 20096 30311 40339 58003 81101 222// 328// 333 92437=
07314,1999-11-09 13:00:00,14.3,1033.3,-1.2,70,8.9,,18.52,,,30,,,,,,,,,,,og-post,,,,AAXX 09134 07314 36/// /0310 10143 20089 30305 40333 58012=
07314,1999-11-09 14:00:00,14.3,1032.9,-1.3,69,8.7,,22.224,,,20,,,,,,,,,,,og-post,,,,AAXX 09144 07314 36/// /0212 10143 20087 30301 40329 58013=
07314,1999-11-09 15:00:00,14.9,1033,-0.9,69,9.3,20000,22.224,,,20,,,,,,,,,,,og-post,,,,AAXX 09154 07314 32570 70212 10149 20093 30302 40330 55009 86202 222// 328// 333 92438=
07314,1999-11-09 16:00:00,14.2,1033.1,-0.2,73,9.4,,29.632,,,20,,,,,,,,,,,og-post,,,,AAXX 09164 07314 36/// /0216 10142 20094 30303 40331 55002=
07314,1999-11-09 17:00:00,13.4,1033.4,0.5,80,10,,29.632,,,20,,,,,,,,,,,og-post,,,,AAXX 09174 07314 36/// /0216 10134 20100 30306 40334 53005=
07314,1999-11-09 18:00:00,12.9,1033.7,0.7,83,10.1,20000,31.484,,,20,11.5,14.9,,,,,,,,,og-post,,,,AAXX 09184 07314 32570 70217 10129 20101 30309 40337 53007 8323/ 222// 328// 333 10149 20115 92438=
07314,1999-11-09 19:00:00,12.6,1033.6,0.5,85,10.1,,31.484,,,10,,,,,,,,,,,og-post,,,,AAXX 09194 07314 36/// /0117 10126 20101 30308 40336 50005=
07314,1999-11-09 20:00:00,12.2,1033.8,0.4,83,9.4,,31.484,,,20,,,,,,,,,,,og-post,,,,AAXX 09204 07314 36/// /0217 10122 20094 30310 40338 51004=
07314,1999-11-09 21:00:00,11.9,1033.8,0.1,79,8.4,22000,31.484,,,10,,,,,,,,,,,og-post,,,,AAXX 09214 07314 32872 10117 10119 20084 30310 40338 53001 81031 222// 328// 333 92438=
07314,1999-11-09 22:00:00,11.6,1033.5,-0.1,76,7.5,,38.892,,,10,,,,,,,,,,,og-post,,,,AAXX 09224 07314 36/// /0121 10116 20075 30307 40335 58001=
07314,1999-11-09 23:00:00,11,1033.2,-0.6,81,7.9,,38.892,,,20,,,,,,,,,,,og-post,,,,AAXX 09234 07314 36/// /0221 10110 20079 30304 40332 58006=
07314,1999-11-10 00:00:00,10.5,1033.4,-0.4,83,7.7,,38.892,,,20,,,,,,,,,,,og-post,,,,AAXX 10004 07314 36/// /0221 10105 20077 30306 40334 55004=
07314,1999-11-10 03:00:00,10.5,1032.9,-0.5,86,8.3,,38.892,,,20,,,,,,,,,,,og-post,,,,AAXX 10034 07314 36/// /0221 10105 20083 30301 40329 58005=
07314,1999-11-10 04:00:00,10,1033.3,-0,87,7.9,,35.188,,,20,,,,,,,,,,,og-post,,,,AAXX 10044 07314 36/// /0219 10100 20079 30305 40333 55000=
07314,1999-11-10 05:00:00,9.6,1033.4,-0.2,88,7.7,,38.892,,,20,,,,,,,,,,,og-post,,,,AAXX 10054 07314 36/// /0221 10096 20077 30305 40334 56002=
07314,1999-11-10 06:00:00,9.2,1033.4,0.4,89,7.5,20000,35.188,,,20,9.1,13,,,,,,,,,og-post,,,,AAXX 10064 07314 32970 10219 10092 20075 30305 40334 51004 81030 222// 328// 333 10130 20091 92448=
07314,1999-11-10 07:00:00,9.2,1033.7,0.3,91,7.8,,35.188,,,20,,,,,,,,,,,og-post,,,,AAXX 10074 07314 36/// /0219 10092 20078 30308 40337 53003=
07314,1999-11-10 08:00:00,9.4,1033.8,0.4,90,7.8,,31.484,,,20,,,,,,,,,,,og-post,,,,AAXX 10084 07314 36/// /0217 10094 20078 30309 40338 53004=
07314,1999-11-10 09:00:00,9.8,1033.6,0.2,89,8.1,,38.892,,,20,,,,,,,,,,,og-post,,,,AAXX 10094 07314 36/// /0221 10098 20081 30307 40336 50002=
07314,1999-11-10 10:00:00,11,1033.3,-0.3,84,8.4,,38.892,,,20,,,,,,,,,,,og-post,,,,AAXX 10104 07314 36/// /0221 10110 20084 30305 40333 58003=
07314,1999-11-10 11:00:00,11.3,1032.7,-1,82,8.3,,42.596,,,20,,,,,,,,,,,og-post,,,,AAXX 10114 07314 36/// /0223 10113 20083 30299 40327 58010=
07314,1999-11-10 12:00:00,11.6,1031.8,-1.7,79,8.1,,35.188,,,360,,,,,,,,,,,og-post,,,,AAXX 10124 07314 36/// /3619 10116 20081 30290 40318 58017=
07314,1999-11-10 13:00:00,11.7,1031.2,-2.1,74,7.2,,35.188,,,20,,,,,,,,,,,og-post,,,,AAXX 10134 07314 36/// /0219 10117 20072 30284 40312 57021=
07314,1999-11-10 14:00:00,11.7,1030.8,-1.9,75,7.4,,35.188,,,10,,,,,,,,,,,og-post,,,,AAXX 10144 07314 36/// /0119 10117 20074 30280 40308 56019=
07314,1999-11-10 15:00:00,11.6,1030.1,-1.7,81,8.5,,38.892,,,360,,,,,,,,,,,og-post,,,,AAXX 10154 07314 36/// /3621 10116 20085 30273 40301 58017=
07314,1999-11-10 16:00:00,10.8,1029.6,-1.6,84,8.2,,42.596,,,10,,,,,,,,,,,og-post,,,,AAXX 10164 07314 36/// /0123 10108 20082 30268 40296 58016=
07314,1999-11-10 17:00:00,10.7,1029.1,-1.7,83,7.9,,38.892,,,360,,,,,,,,,,,og-post,,,,AAXX 10174 07314 36/// /3621 10107 20079 30263 40291 56017=
07314,1999-11-10 18:00:00,10.3,1029.4,-0.7,84,7.7,18000,42.596,,,10,8.9,12.1,,,,,,,,,og-post,,,,AAXX 10184 07314 32568 70123 10103 20077 30266 40294 55007 8427/ 222// 328// 333 10121 20089 92447=
07314,1999-11-10 19:00:00,10.1,1029.4,-0.2,84,7.5,,38.892,,,20,,,,,,,,,,,og-post,,,,AAXX 10194 07314 36/// /0221 10101 20075 30266 40294 56002=
07314,1999-11-10 20:00:00,10.2,1029.2,0.1,81,7.1,,42.596,,,10,,,,,,,,,,,og-post,,,,AAXX 10204 07314 36/// /0123 10102 20071 30264 40292 50001=
07314,1999-11-10 21:00:00,9.9,1029.1,-0.3,85,7.5,20000,46.3,,,20,,,,,,,,,,,og-post,,,,AAXX 10214 07314 32570 50225 10099 20075 30263 40291 58003 82230 222// 328// 333 92448=
07314,1999-11-10 22:00:00,9.8,1029.2,-0.2,84,7.2,,38.892,,,20,,,,,,,,,,,og-post,,,,AAXX 10224 07314 36/// /0221 10098 20072 30264 40292 55002=
07314,1999-11-10 23:00:00,9.4,1029,-0.2,84,6.8,,35.188,,,30,,,,,,,,,,,og-post,,,,AAXX 10234 07314 36/// /0319 10094 20068 30262 40290 58002=
07314,1999-11-11 00:00:00,9,1029.2,0.1,84,6.4,,35.188,,,20,,,,,,,,,,,og-post,,,,AAXX 11004 07314 36/// /0219 10090 20064 30264 40292 53001=
07314,1999-11-11 01:00:00,8.5,1028.8,-0.5,84,6,,38.892,,,20,,,,,,,,,,,og-post,,,,AAXX 11014 07314 36/// /0221 10085 20060 30259 40288 58005=
07314,1999-11-11 02:00:00,8.4,1028.5,-0.6,83,5.7,,38.892,,,20,,,,,,,,,,,og-post,,,,AAXX 11024 07314 36/// /0221 10084 20057 30256 40285 58006=
07314,1999-11-11 03:00:00,8.3,1028.3,-1,78,4.7,,38.892,,,30,,,,,,,,,,,og-post,,,,AAXX 11034 07314 36/// /0321 10083 20047 30254 40283 56010=
07314,1999-11-11 04:00:00,8.3,1028.2,-0.6,81,5.2,,35.188,,,30,,,,,,,,,,,og-post,,,,AAXX 11044 07314 36/// /0319 10083 20052 30253 40282 56006=
07314,1999-11-11 05:00:00,8.2,1028.1,-0.4,84,5.7,,31.484,,,30,,,,,,,,,,,og-post,,,,AAXX 11054 07314 36/// /0317 10082 20057 30252 40281 56004=
07314,1999-11-11 06:00:00,8.3,1028.1,-0.2,81,5.2,18000,31.484,,,20,7.9,10.4,,,,,,,,,og-post,,,,AAXX 11064 07314 32568 70217 10083 20052 30252 40281 56002 8223/ 222// 328// 333 10104 20079 92447=
07314,1999-11-11 07:00:00,8.4,1028.2,-0,84,5.9,,31.484,,,30,,,,,,,,,,,og-post,,,,AAXX 11074 07314 36/// /0317 10084 20059 30253 40282 55000=
07314,1999-11-11 08:00:00,8.7,1027.9,-0.1,85,6.3,,35.188,,,20,,,,,,,,,,,og-post,,,,AAXX 11084 07314 36/// /0219 10087 20063 30251 40279 58001=
07314,1999-11-11 09:00:00,8.9,1027.9,-0.1,84,6.3,15000,35.188,,,30,,,,,,,,,,,og-post,,,,AAXX 11094 07314 32565 80319 10089 20063 30251 40279 58001 8277/ 222// 328// 333 92447=
07314,1999-11-11 10:00:00,9.2,1027.6,-0.5,83,6.5,,31.484,,,30,,,,,,,,,,,og-post,,,,AAXX 11104 07314 36/// /0317 10092 20065 30248 40276 58005=
07314,1999-11-11 11:00:00,9.2,1027.1,-0.8,80,5.9,,38.892,,,20,,,,,,,,,,,og-post,,,,AAXX 11114 07314 36/// /0221 10092 20059 30243 40271 58008=
07314,1999-11-11 12:00:00,9.8,1026.7,-1.2,79,6.3,14000,38.892,,,30,,,,,,,,,,,og-post,,,,AAXX 11124 07314 32564 70321 10098 20063 30239 40267 58012 8327/ 222// 328// 333 92447=
07314,1999-11-11 13:00:00,9.5,1026.2,-1.4,80,6.2,,42.596,,,30,,,,,,,,,,,og-post,,,,AAXX 11134 07314 36/// /0323 10095 20062 30234 40262 57014=
07314,1999-11-11 14:00:00,9.6,1025.6,-1.5,80,6.3,,38.892,,,30,,,,,,,,,,,og-post,,,,AAXX 11144 07314 36/// /0321 10096 20063 30228 40256 58015=
07314,1999-11-11 15:00:00,9.6,1025.1,-1.6,80,6.3,14000,35.188,,,20,,,,,,,,,,,og-post,,,,AAXX 11154 07314 32564 70219 10096 20063 30223 40251 57016 8527/ 222// 328// 333 92447=
07314,1999-11-11 16:00:00,9.4,1024.6,-1.6,81,6.3,,38.892,,,20,,,,,,,,,,,og-post,,,,AAXX 11164 07314 36/// /0221 10094 20063 30218 40246 56016=
07314,1999-11-11 17:00:00,9.3,1024.7,-0.9,81,6.2,,38.892,,,30,,,,,,,,,,,og-post,,,,AAXX 11174 07314 36/// /0321 10093 20062 30219 40247 55009=
07314,1999-11-11 18:00:00,9,1024.5,-0.6,84,6.4,14000,35.188,61.116,,20,8.2,9.9,,,,,,,,,og-post,,,,AAXX 11184 07314 32564 70219 10090 20064 30217 40245 56006 8527/ 222// 328// 333 10099 20082 91133 92447=
07314,1999-11-11 19:00:00,8.9,1024.2,-0.4,82,6,,38.892,61.116,,30,,,,,,,,,,,og-post,,,,AAXX 11194 07314 36/// /0321 10089 20060 30214 40242 58004 333 91133=
07314,1999-11-11 20:00:00,8.4,1024,-0.7,81,5.3,,35.188,,,40,,,,,,,,,,,og-post,,,,AAXX 11204 07314 36/// /0419 10084 20053 30212 40240 57007=
07314,1999-11-11 21:00:00,8.3,1023.7,-0.8,82,5.4,18000,35.188,61.116,,40,,,,,,,,,,,og-post,,,,AAXX 11214 07314 32568 70419 10083 20054 30209 40237 57008 8327/ 222// 328// 333 91133 92447=
07314,1999-11-11 22:00:00,7.8,1023.4,-0.8,81,4.7,,35.188,,,40,,,,,,,,,,,og-post,,,,AAXX 11224 07314 36/// /0419 10078 20047 30206 40234 58008=
07314,1999-11-11 23:00:00,7.7,1023,-1,82,4.8,,35.188,,,40,,,,,,,,,,,og-post,,,,AAXX 11234 07314 36/// /0419 10077 20048 30202 40230 58010=
07314,1999-11-12 00:00:00,7.4,1022.4,-1.3,83,4.7,,35.188,61.116,,40,,,,,,,,,,,og-post,,,,AAXX 12004 07314 36/// /0419 10074 20047 30196 40224 58013 333 91133=
07314,1999-11-12 01:00:00,7.3,1021.8,-1.6,83,4.6,,38.892,61.116,61.116,40,,,,,,,,,,,og-post,,,,AAXX 12014 07314 36/// /0421 10073 20046 30190 40218 58016 333 91033 91133=
07314,1999-11-12 02:00:00,7,1021.9,-1.2,83,4.3,,35.188,,,40,,,,,,,,,,,og-post,,,,AAXX 12024 07314 36/// /0419 10070 20043 30190 40219 56012=
07314,1999-11-12 03:00:00,7.1,1021.4,-1,85,4.8,,35.188,61.116,,40,,,,,,,,,,,og-post,,,,AAXX 12034 07314 36/// /0419 10071 20048 30186 40214 56010 333 91133=
07314,1999-11-12 04:00:00,6.8,1020.9,-0.9,85,4.5,,38.892,,,40,,,,,,,,,,,og-post,,,,AAXX 12044 07314 36/// /0421 10068 20045 30181 40209 58009=
07314,1999-11-12 05:00:00,6.8,1020.6,-1.2,85,4.5,,35.188,,,50,,,,,,,,,,,og-post,,,,AAXX 12054 07314 36/// /0519 10068 20045 30178 40206 56012=
07314,1999-11-12 06:00:00,6.8,1020.6,-0.8,87,4.8,18000,35.188,61.116,,50,6.7,9.1,,,,,,,,,og-post,,,,AAXX 12064 07314 32568 60519 10068 20048 30178 40206 56008 8127/ 222// 328// 333 10091 20067 91133 92447=
07314,1999-11-12 07:00:00,6.9,1020.9,-0,88,5.1,,22.224,,,70,,,,,,,,,,,og-post,,,,AAXX 12074 07314 36/// /0712 10069 20051 30181 40209 55000=
07314,1999-11-12 08:00:00,7,1021.3,0.7,87,5,,18.52,,,80,,,,,,,,,,,og-post,,,,AAXX 12084 07314 36/// /0810 10070 20050 30185 40213 53007=
07314,1999-11-12 09:00:00,7.6,1021.2,0.6,87,5.6,17000,22.224,,,70,,,,,,,,,,,og-post,,,,AAXX 12094 07314 32567 70712 10076 20056 30184 40212 50006 87200 222// 328// 333 92437=
07314,1999-11-12 10:00:00,8.1,1021,0.1,84,5.6,,18.52,,,80,,,,,,,,,,,og-post,,,,AAXX 12104 07314 36/// /0810 10081 20056 30182 40210 50001=
07314,1999-11-12 11:00:00,8.4,1021.2,-0.1,83,5.7,,18.52,,,70,,,,,,,,,,,og-post,,,,AAXX 12114 07314 36/// /0710 10084 20057 30184 40212 55001=
07314,1999-11-12 12:00:00,8.7,1020.6,-0.6,82,5.8,18000,18.52,,,70,,,,0.2,0.2,,,,,,og-post,,,,AAXX 12124 07314 /2568 70710 10087 20058 30178 40206 58006 69921 81116 222// 328// 333 69927 92437=
07314,1999-11-12 13:00:00,8.5,1019.8,-1.2,82,5.6,,29.632,,,50,,,,,,,,,,,og-post,,,,AAXX 12134 07314 36/// /0516 10085 20056 30170 40198 58012=
07314,1999-11-12 14:00:00,8.3,1018.7,-2.5,91,6.9,,31.484,,,40,,,0.2,,,,,,,,og-post,,,,AAXX 12144 07314 26/// /0417 10083 20069 30159 40187 58025 333 69925=
07314,1999-11-12 15:00:00,8.5,1018.1,-2.5,94,7.6,14000,38.892,,,50,,,,1,,,,,,80,og-post,,,,AAXX 12154 07314 21564 80521 10085 20076 30153 40181 56025 78082 8372/ 222// 328// 333 60017 92437=
07314,1999-11-12 16:00:00,8.8,1017.2,-2.6,96,8.2,,38.892,,,40,,,1,,,,,,,,og-post,,,,AAXX 12164 07314 26/// /0421 10088 20082 30144 40172 56026 333 60015=
07314,1999-11-12 17:00:00,9.4,1016.2,-2.5,95,8.6,,38.892,61.116,57.412,50,,,0.6,,,,,,,,og-post,,,,AAXX 12174 07314 26/// /0521 10094 20086 30134 40162 58025 333 69965 91031 91133=
07314,1999-11-12 18:00:00,9.8,1015.5,-2.6,93,8.7,14000,50.004,,,50,6.7,9.9,,3,,4,,,,61,og-post,,,,AAXX 12184 07314 /1564 80527 10098 20087 30127 40155 56026 60042 76186 8372/ 222// 328// 333 10099 20067 60037 92447=
07314,1999-11-12 19:00:00,9.5,1014.7,-2.5,92,8.3,,53.708,79.636,79.636,50,,,3,,,,,,,,og-post,,,,AAXX 12194 07314 26/// /0529 10095 20083 30119 40147 56025 333 60035 91043 91143=
07314,1999-11-12 20:00:00,9.1,1014.8,-1.4,93,8,,38.892,83.34,72.228,60,,,5,,,,,,,,og-post,,,,AAXX 12204 07314 26/// /0621 10091 20080 30120 40148 55014 333 60055 91039 91145=
07314,1999-11-12 21:00:00,8.6,1013.9,-1.6,90,7.1,10000,50.004,83.34,83.34,60,,,,12,,,,,,61,og-post,,,,AAXX 12214 07314 21560 80627 10086 20071 30111 40139 58016 76186 8572/ 222// 328// 333 60127 91045 91145 92447=
07314,1999-11-12 22:00:00,8.8,1013.5,-1.2,94,7.9,,46.3,83.34,72.228,60,,,2,,,,,,,,og-post,,,,AAXX 12224 07314 26/// /0625 10088 20079 30107 40135 58012 333 60025 91039 91145=
07314,1999-11-12 23:00:00,8.9,1013.6,-1.2,94,8,,46.3,79.636,75.932,50,,,0.4,,,,,,,,og-post,,,,AAXX 12234 07314 26/// /0525 10089 20080 30108 40136 55012 333 69945 91041 91143=
07314,1999-11-13 00:00:00,9.4,1013.2,-0.7,93,8.3,,38.892,83.34,61.116,60,,,,3,14,,,,,,og-post,,,,AAXX 13004 07314 /6/// /0621 10094 20083 30104 40132 57007 60141 333 60037 91033 91145=
07314,1999-11-13 01:00:00,9.5,1013,-0.5,96,8.9,,31.484,64.82,,60,,,0.4,,,,,,,,og-post,,,,AAXX 13014 07314 26/// /0617 10095 20089 30102 40130 58005 333 69945 91135=
07314,1999-11-13 02:00:00,9.7,1013,-0.6,94,8.8,,31.484,61.116,,60,,,0.2,,,,,,,,og-post,,,,AAXX 13024 07314 26/// /0617 10097 20088 30102 40130 56006 333 69925 91133=
07314,1999-11-13 03:00:00,10,1012.8,-0.4,92,8.8,,25.928,64.82,,70,,,,0.6,,,,,,,og-post,,,,AAXX 13034 07314 26/// /0714 10100 20088 30100 40128 57004 333 69967 91135=
07314,1999-11-13 04:00:00,10.3,1012.9,-0.1,90,8.7,,29.632,53.708,50.004,80,,,,,,,,,,,og-post,,,,AAXX 13044 07314 36/// /0816 10103 20087 30101 40129 55001 333 91027 91129=
07314,1999-11-13 05:00:00,9.8,1012.7,-0.3,90,8.2,,18.52,,,70,,,,,,,,,,,og-post,,,,AAXX 13054 07314 36/// /0710 10098 20082 30099 40127 57003=
07314,1999-11-13 06:00:00,9.7,1013.3,0.5,89,8,18000,29.632,64.82,,80,8.5,10.4,,,,15,,,,2,og-post,,,,AAXX 13064 07314 11868 80816 10097 20080 30105 40133 53005 60152 70282 8802/ 222// 328// 333 10104 20085 91135 92447=
07314,1999-11-13 07:00:00,9.7,1013.4,0.5,89,8,,22.224,,,70,,,,,,,,,,,og-post,,,,AAXX 13074 07314 36/// /0712 10097 20080 30106 40134 53005=
07314,1999-11-13 08:00:00,9.8,1013.7,1,88,7.9,,18.52,,,70,,,,,,,,,,,og-post,,,,AAXX 13084 07314 36/// /0710 10098 20079 30109 40137 51010=
07314,1999-11-13 09:00:00,9.8,1013.6,0.3,92,8.6,10000,18.52,,,70,,,,0.2,,,,,,61,og-post,,,,AAXX 13094 07314 21560 80710 10098 20086 30108 40136 50003 76122 8277/ 222// 328// 333 69927 92437=
07314,1999-11-13 10:00:00,10,1013.3,-0.1,93,8.9,,25.928,,,60,,,,,,,,,,,og-post,,,,AAXX 13104 07314 26/// /0614 10100 20089 30105 40133 58001 333 69905=
07314,1999-11-13 11:00:00,10.1,1013.5,-0.2,90,8.5,,25.928,,,60,,,,,,,,,,,og-post,,,,AAXX 13114 07314 26/// /0614 10101 20085 30107 40135 55002 333 69905=
07314,1999-11-13 12:00:00,10.8,1012.8,-0.8,88,8.9,14000,25.928,,,50,,,,,0.2,,,,,21,og-post,,,,AAXX 13124 07314 /1864 80514 10108 20089 30100 40128 58008 69921 72162 8407/ 222// 328// 333 69907 92437=
07314,1999-11-13 13:00:00,11.4,1012.5,-0.8,86,9.1,,22.224,,,50,,,,,,,,,,,og-post,,,,AAXX 13134 07314 36/// /0512 10114 20091 30097 40125 58008=
07314,1999-11-13 14:00:00,12,1012.4,-1.1,86,9.7,,25.928,,,50,,,,,,,,,,,og-post,,,,AAXX 13144 07314 36/// /0514 10120 20097 30096 40124 56011=
07314,1999-11-13 15:00:00,11.4,1012.2,-0.6,87,9.3,15000,35.188,,,40,,,,,,,,,,60,og-post,,,,AAXX 13154 07314 21865 80419 10114 20093 30094 40122 56006 76062 8807/ 222// 328// 333 69907 92437=
07314,1999-11-13 16:00:00,10.7,1012,-0.5,88,8.8,,35.188,,,30,,,,,,,,,,,og-post,,,,AAXX 13164 07314 26/// /0319 10107 20088 30092 40120 58005 333 69905=
07314,1999-11-13 17:00:00,10.3,1012.2,-0.2,82,7.4,,35.188,,,30,,,,,,,,,,,og-post,,,,AAXX 13174 07314 26/// /0319 10103 20074 30094 40122 55002 333 69905=
07314,1999-11-13 18:00:00,9.8,1012.2,-0,80,6.5,15000,38.892,,,40,9.6,12,,,,0.2,,,,21,og-post,,,,AAXX 13184 07314 /1865 80421 10098 20065 30094 40122 55000 69922 72162 8807/ 222// 328// 333 10120 20096 69907 92447=
07314,1999-11-13 19:00:00,9.5,1012.3,0.3,77,5.7,,42.596,,,40,,,,,,,,,,,og-post,,,,AAXX 13194 07314 36/// /0423 10095 20057 30095 40123 51003=
07314,1999-11-13 20:00:00,9.5,1012.6,0.4,79,6,,38.892,,,40,,,,,,,,,,,og-post,,,,AAXX 13204 07314 36/// /0421 10095 20060 30098 40126 53004=
07314,1999-11-13 21:00:00,8.8,1013.1,0.9,79,5.4,15000,38.892,,,50,,,,,,,,,,,og-post,,,,AAXX 13214 07314 32865 30521 10088 20054 30103 40131 53009 83030 222// 328// 333 92447=
07314,1999-11-14 00:00:00,6.2,1012.3,-0.8,84,3.7,,46.3,,,40,,,,,,,,,,,og-post,,,,AAXX 14004 07314 36/// /0425 10062 20037 30095 40123 58008=
07314,1999-11-14 03:00:00,4.9,1012.3,0,89,3.2,,38.892,,,50,,,,,,,,,,,og-post,,,,AAXX 14034 07314 36/// /0521 10049 20032 30095 40123 50000=
07314,1999-11-14 04:00:00,4.6,1012.2,0,86,2.5,,38.892,,,50,,,,,,,,,,,og-post,,,,AAXX 14044 07314 36/// /0521 10046 20025 30094 40122 50000=
07314,1999-11-14 05:00:00,4.4,1012.3,-0.3,88,2.6,,42.596,,,50,,,,,,,,,,,og-post,,,,AAXX 14054 07314 36/// /0523 10044 20026 30094 40123 56003=
07314,1999-11-14 07:00:00,4.3,1012.6,0.3,89,2.7,,46.3,64.82,64.82,40,,,,,,,,,,,og-post,,,,AAXX 14074 07314 36/// /0425 10043 20027 30097 40126 53003 333 91035 91135=
07314,1999-11-14 08:00:00,4.1,1013.2,0.9,88,2.3,,42.596,,,40,,,,,,,,,,,og-post,,,,AAXX 14084 07314 36/// /0423 10041 20023 30103 40132 53009=
07314,1999-11-14 09:00:00,4.2,1013,0.7,89,2.6,12000,42.596,,,40,,,,,,,,,,,og-post,,,,AAXX 14094 07314 32562 70423 10042 20026 30101 40130 50007 872// 222// 328// 333 92447=
07314,1999-11-14 10:00:00,4.3,1013.4,0.8,87,2.3,,42.596,,,40,,,,,,,,,,,og-post,,,,AAXX 14104 07314 36/// /0423 10043 20023 30105 40134 51008=
07314,1999-11-14 11:00:00,5.6,1013.3,0.2,80,2.4,,42.596,,,40,,,,,,,,,,,og-post,,,,AAXX 14114 07314 36/// /0423 10056 20024 30105 40133 53002=
07314,1999-11-14 12:00:00,6.7,1013,0.1,79,3.3,15000,35.188,,,50,,,,,,,,,,,og-post,,,,AAXX 14124 07314 32565 40519 10067 20033 30102 40130 50001 841// 222// 328// 333 92447=
07314,1999-11-14 13:00:00,7.4,1012.1,-1.2,80,4.2,,53.708,,,30,,,,,,,,,,,og-post,,,,AAXX 14134 07314 36/// /0329 10074 20042 30093 40121 58012=
07314,1999-11-14 14:00:00,7.9,1011.8,-1.5,83,5.2,,57.412,83.34,79.636,30,,,,,,,,,,,og-post,,,,AAXX 14144 07314 36/// /0331 10079 20052 30090 40118 57015 333 91043 91145=
07314,1999-11-14 15:00:00,8.2,1012.1,-0.9,84,5.7,16000,46.3,83.34,,40,,,,,,,,,,,og-post,,,,AAXX 14154 07314 32566 70425 10082 20057 30093 40121 55009 872// 222// 301// 333 91145 92447=
07314,1999-11-14 16:00:00,8.5,1012.5,0.4,83,5.8,,42.596,64.82,,40,,,,,,,,,,,og-post,,,,AAXX 14164 07314 36/// /0423 10085 20058 30097 40125 53004 333 91135=
07314,1999-11-14 17:00:00,8.7,1012.8,1,81,5.6,,42.596,64.82,64.82,40,,,,,,,,,,,og-post,,,,AAXX 14174 07314 36/// /0423 10087 20056 30100 40128 52010 333 91035 91135=
07314,1999-11-14 18:00:00,9,1013.2,1.1,80,5.7,16000,46.3,83.34,,40,3.9,9.1,,,,,,,,,og-post,,,,AAXX 14184 07314 32566 60425 10090 20057 30104 40132 52011 8623/ 222// 301// 333 10091 20039 91145 92447=
07314,1999-11-14 19:00:00,9.4,1013.7,1.2,82,6.5,,46.3,,,40,,,,,,,,,,,og-post,,,,AAXX 14194 07314 36/// /0425 10094 20065 30109 40137 53012=
07314,1999-11-14 20:00:00,9.3,1014.1,1.3,81,6.2,,46.3,72.228,,40,,,,,,,,,,,og-post,,,,AAXX 14204 07314 36/// /0425 10093 20062 30113 40141 52013 333 91139=
07314,1999-11-14 21:00:00,9.1,1013.9,0.7,81,6,18000,46.3,72.228,72.228,40,,,,,,,,,,,og-post,,,,AAXX 14214 07314 32568 80425 10091 20060 30111 40139 50007 8523/ 222// 301// 333 91039 91139 92447=
07314,1999-11-14 22:00:00,9.1,1014.4,0.7,83,6.4,,46.3,94.452,,40,,,,,,,,,,,og-post,,,,AAXX 14224 07314 36/// /0425 10091 20064 30116 40144 53007 333 91151=
07314,1999-11-14 23:00:00,9,1014.2,0.1,83,6.3,,46.3,68.524,,40,,,,,,,,,,,og-post,,,,AAXX 14234 07314 36/// /0425 10090 20063 30114 40142 52001 333 91137=
07314,1999-11-15 00:00:00,9.1,1014.5,0.6,83,6.4,,42.596,94.452,68.524,30,,,,,,,,,,,og-post,,,,AAXX 15004 07314 36/// /0323 10091 20064 30117 40145 51006 333 91037 91151=
07314,1999-11-15 01:00:00,9.1,1014.3,-0.1,83,6.4,,46.3,68.524,,30,,,,,,,,,,,og-post,,,,AAXX 15014 07314 36/// /0325 10091 20064 30115 40143 57001 333 91137=
07314,1999-11-15 02:00:00,9.2,1014.7,0.5,83,6.5,,42.596,,,30,,,,,,,,,,,og-post,,,,AAXX 15024 07314 36/// /0323 10092 20065 30119 40147 53005=
07314,1999-11-15 03:00:00,9.5,1015,0.5,85,7.1,,42.596,68.524,,30,,,,,,,,,,,og-post,,,,AAXX 15034 07314 36/// /0323 10095 20071 30122 40150 53005 333 91137=
07314,1999-11-15 04:00:00,9.2,1015.4,1.1,87,7.2,,31.484,,,30,,,,,,,,,,,og-post,,,,AAXX 15044 07314 36/// /0317 10092 20072 30126 40154 52011=
07314,1999-11-15 05:00:00,9.1,1016.1,1.4,91,7.7,,29.632,,,40,,,,,,,,,,,og-post,,,,AAXX 15054 07314 36/// /0416 10091 20077 30133 40161 53014=
07314,1999-11-15 06:00:00,8.7,1016.1,1.1,87,6.7,18000,35.188,68.524,,20,8.7,9.6,,,,,,,,,og-post,,,,AAXX 15064 07314 32568 60219 10087 20067 30133 40161 51011 86200 222// 301// 333 10096 20087 91137 92447=
07314,1999-11-15 07:00:00,8.2,1016.3,0.9,84,5.7,,38.892,,,20,,,,,,,,,,,og-post,,,,AAXX 15074 07314 36/// /0221 10082 20057 30135 40163 51009=
07314,1999-11-15 08:00:00,8.4,1017,0.9,85,6,,35.188,,,20,,,,,,,,,,,og-post,,,,AAXX 15084 07314 36/// /0219 10084 20060 30142 40170 53009=
07314,1999-11-15 09:00:00,8.4,1017.5,1.4,79,5,20000,35.188,,,20,,,,,,,,,,,og-post,,,,AAXX 15094 07314 32570 60219 10084 20050 30147 40175 53014 86130 222// 328// 333 92448=
07314,1999-11-15 10:00:00,8.4,1017.8,1.5,80,5.2,,35.188,,,30,,,,,,,,,,,og-post,,,,AAXX 15104 07314 36/// /0319 10084 20052 30150 40178 51015=
07314,1999-11-15 11:00:00,9.1,1018.2,1.2,77,5.3,,29.632,,,30,,,,,,,,,,,og-post,,,,AAXX 15114 07314 36/// /0316 10091 20053 30154 40182 51012=
07314,1999-11-15 12:00:00,10.3,1017.6,0.1,70,5.1,20000,31.484,,,30,,,,,,,,,,,og-post,,,,AAXX 15124 07314 32570 10317 10103 20051 30148 40176 50001 81100 222// 328// 333 92448=
07314,1999-11-15 13:00:00,10,1017.3,-0.5,78,6.3,,35.188,,,20,,,,,,,,,,,og-post,,,,AAXX 15134 07314 36/// /0219 10100 20063 30145 40173 58005=
07314,1999-11-15 14:00:00,9.9,1017.2,-1,75,5.7,,35.188,,,10,,,,,,,,,,,og-post,,,,AAXX 15144 07314 36/// /0119 10099 20057 30144 40172 56010=
07314,1999-11-15 15:00:00,9.9,1017.6,-0,53,0.8,20000,38.892,,,20,,,,,,,,,,,og-post,,,,AAXX 15154 07314 32570 10221 10099 20008 30148 40176 55000 81100 222// 328// 333 92448=
07314,1999-11-15 16:00:00,9.5,1018,0.7,56,1.2,,38.892,,,20,,,,,,,,,,,og-post,,,,AAXX 15164 07314 36/// /0221 10095 20012 30152 40180 53007=
07314,1999-11-15 17:00:00,9.1,1018.4,1.2,55,0.6,,42.596,,,20,,,,,,,,,,,og-post,,,,AAXX 15174 07314 36/// /0223 10091 20006 30156 40184 52012=
07314,1999-11-15 18:00:00,7.6,1019,1.4,48,-2.7,20000,38.892,,,40,7.6,10.5,,,,,,,,,og-post,,,,AAXX 15184 07314 32570 20421 10076 21027 30162 40190 53014 82100 222// 328// 333 10105 20076 92448=
07314,1999-11-15 19:00:00,7,1019.6,1.6,51,-2.4,,38.892,61.116,,40,,,,,,,,,,,og-post,,,,AAXX 15194 07314 36/// /0421 10070 21024 30168 40196 53016 333 91133=
07314,1999-11-15 20:00:00,6.6,1020.6,2.1,55,-1.8,,31.484,,,40,,,,,,,,,,,og-post,,,,AAXX 15204 07314 36/// /0417 10066 21018 30177 40206 53021=
07314,1999-11-15 21:00:00,6,1020.9,1.8,58,-1.6,20000,35.188,61.116,,40,,,,,,,,,,,og-post,,,,AAXX 15214 07314 32570 10419 10060 21016 30180 40209 51018 81100 222// 328// 333 91133 92438=
07314,1999-11-15 22:00:00,5.5,1021,1.3,56,-2.6,,29.632,,,30,,,,,,,,,,,og-post,,,,AAXX 15224 07314 36/// /0316 10055 21026 30181 40210 51013=
07314,1999-11-15 23:00:00,5,1020.7,0.1,58,-2.6,,25.928,,,40,,,,,,,,,,,og-post,,,,AAXX 15234 07314 36/// /0414 10050 21026 30178 40207 50001=
07314,1999-11-16 00:00:00,4.7,1020.7,-0.2,60,-2.4,,25.928,61.116,,40,,,,,,,,,,,og-post,,,,AAXX 16004 07314 36/// /0414 10047 21024 30178 40207 58002 333 91133=
07314,1999-11-16 01:00:00,4.2,1020.4,-0.6,63,-2.2,,25.928,,,30,,,,,,,,,,,og-post,,,,AAXX 16014 07314 36/// /0314 10042 21022 30175 40204 57006=
07314,1999-11-16 02:00:00,4,1020.6,-0.1,63,-2.4,,25.928,,,20,,,,,,,,,,,og-post,,,,AAXX 16024 07314 36/// /0214 10040 21024 30177 40206 55001=
07314,1999-11-16 03:00:00,3.8,1020.2,-0.5,59,-3.5,,22.224,,,30,,,,,,,,,,,og-post,,,,AAXX 16034 07314 36/// /0312 10038 21035 30173 40202 58005=
07314,1999-11-16 04:00:00,3.7,1020.6,0.2,67,-1.8,,22.224,,,20,,,,,,,,,,,og-post,,,,AAXX 16044 07314 36/// /0212 10037 21018 30177 40206 53002=
07314,1999-11-16 05:00:00,3.7,1020.6,-0,69,-1.4,,22.224,,,360,,,,,,,,,,,og-post,,,,AAXX 16054 07314 36/// /3612 10037 21014 30177 40206 55000=
07314,1999-11-16 06:00:00,3.7,1020.8,0.6,70,-1.3,20000,22.224,,,10,3.6,7.6,,,,,,,,,og-post,,,,AAXX 16064 07314 32970 00112 10037 21013 30179 40208 51006 222// 328// 333 10076 20036 92448=
07314,1999-11-16 07:00:00,3.5,1020.9,0.3,68,-1.8,,22.224,,,20,,,,,,,,,,,og-post,,,,AAXX 16074 07314 36/// /0212 10035 21018 30180 40209 53003=
07314,1999-11-16 08:00:00,3.8,1021.4,0.8,66,-2,,18.52,,,20,,,,,,,,,,,og-post,,,,AAXX 16084 07314 36/// /0210 10038 21020 30185 40214 53008=
07314,1999-11-16 09:00:00,4.8,1022,1.2,66,-1,20000,11.112,,,10,,,,,,,,,,,og-post,,,,AAXX 16094 07314 32970 10106 10048 21010 30191 40220 53012 80001 222// 328// 333 92438=
07314,1999-11-16 10:00:00,5.7,1022.1,1.2,64,-0.6,,7.408,,,10,,,,,,,,,,,og-post,,,,AAXX 16104 07314 36/// /0104 10057 21006 30192 40221 51012=
07314,1999-11-16 11:00:00,7.2,1021.9,0.5,59,-0.3,,,,,,,,,,,,,,,,og-post,,,,AAXX 16114 07314 36/// /0000 10072 21003 30190 40219 50005=
07314,1999-11-16 12:00:00,7.8,1021.5,-0.4,53,-1.2,20000,3.704,,,260,,,,,,,,,,,og-post,,,,AAXX 16124 07314 32870 32602 10078 21012 30187 40215 58004 83050 222// 328// 333 92438=
07314,1999-11-16 13:00:00,6.6,1021.2,-0.9,58,-1.1,,7.408,,,230,,,,,,,,,,,og-post,,,,AAXX 16134 07314 36/// /2304 10066 21011 30183 40212 58009=
07314,1999-11-16 14:00:00,7,1021,-0.8,66,1.1,,11.112,,,290,,,,,,,,,,,og-post,,,,AAXX 16144 07314 36/// /2906 10070 20011 30182 40210 56008=
07314,1999-11-16 15:00:00,8.6,1020.6,-0.9,62,1.7,20000,11.112,,,250,,,,,,,,,,,og-post,,,,AAXX 16154 07314 32870 62506 10086 20017 30178 40206 57009 86050 222// 328// 333 92438=
07314,1999-11-16 16:00:00,9.1,1020.5,-0.6,67,3.3,,14.816,,,260,,,,,,,,,,,og-post,,,,AAXX 16164 07314 36/// /2608 10091 20033 30177 40205 57006=
07314,1999-11-16 17:00:00,9.6,1020.2,-0.8,75,5.4,,14.816,,,250,,,,,,,,,,,og-post,,,,AAXX 16174 07314 36/// /2508 10096 20054 30174 40202 56008=
07314,1999-11-16 18:00:00,9.8,1020.6,-0,77,6,20000,18.52,,,360,3.5,10.2,,,,,,,,,og-post,,,,AAXX 16184 07314 32870 73610 10098 20060 30178 40206 55000 87050 222// 328// 333 10102 20035 92438=
07314,1999-11-16 19:00:00,10,1020.6,0.1,74,5.6,,22.224,,,340,,,,,,,,,,,og-post,,,,AAXX 16194 07314 36/// /3412 10100 20056 30178 40206 53001=
07314,1999-11-16 20:00:00,10.1,1020.7,0.5,70,4.9,,25.928,,,340,,,,,,,,,,,og-post,,,,AAXX 16204 07314 36/// /3414 10101 20049 30179 40207 51005=
07314,1999-11-16 21:00:00,10.1,1020.8,0.2,73,5.5,20000,31.484,,,330,,,,,,,,,,,og-post,,,,AAXX 16214 07314 32870 73317 10101 20055 30180 40208 53002 87050 222// 328// 333 92438=
07314,1999-11-16 22:00:00,9.9,1020.7,0.1,74,5.5,,31.484,,,340,,,,,,,,,,,og-post,,,,AAXX 16224 07314 36/// /3417 10099 20055 30179 40207 50001=
07314,1999-11-16 23:00:00,9.8,1020.2,-0.5,74,5.4,,38.892,61.116,61.116,320,,,,,,,,,,,og-post,,,,AAXX 16234 07314 36/// /3221 10098 20054 30174 40202 58005 333 91033 91133=
07314,1999-11-17 00:00:00,9.1,1020.5,-0.3,73,4.5,,35.188,72.228,,330,,,,0.2,0.2,,,,,,og-post,,,,AAXX 17004 07314 /6/// /3319 10091 20045 30177 40205 55003 69921 333 69927 91139=
07314,1999-11-17 01:00:00,8.5,1020.6,-0.1,75,4.3,,38.892,,,340,,,,,,,,,,,og-post,,,,AAXX 17014 07314 36/// /3421 10085 20043 30178 40206 55001=
07314,1999-11-17 02:00:00,8.5,1020.8,0.6,79,5.1,,35.188,,,330,,,,,,,,,,,og-post,,,,AAXX 17024 07314 36/// /3319 10085 20051 30180 40208 51006=
07314,1999-11-17 03:00:00,8.8,1020.6,0.1,76,4.8,,35.188,,,330,,,,,,,,,,,og-post,,,,AAXX 17034 07314 36/// /3319 10088 20048 30178 40206 50001=
07314,1999-11-17 04:00:00,8.9,1021,0.4,73,4.3,,35.188,,,330,,,,,,,,,,,og-post,,,,AAXX 17044 07314 36/// /3319 10089 20043 30182 40210 53004=
07314,1999-11-17 05:00:00,8.7,1021.1,0.3,76,4.7,,31.484,,,340,,,,,,,,,,,og-post,,,,AAXX 17054 07314 36/// /3417 10087 20047 30183 40211 53003=
07314,1999-11-17 06:00:00,8.8,1021.4,0.8,77,5,22000,25.928,,,340,8.3,10.3,,,,0.2,,,,,og-post,,,,AAXX 17064 07314 12872 23414 10088 20050 30186 40214 51008 69922 82050 222// 328// 333 10103 20083 92438=
07314,1999-11-17 07:00:00,8.9,1021.6,0.6,75,4.7,,31.484,,,340,,,,,,,,,,,og-post,,,,AAXX 17074 07314 36/// /3417 10089 20047 30188 40216 53006=
07314,1999-11-17 08:00:00,9.5,1022.2,1.1,75,5.3,,29.632,,,330,,,,,,,,,,,og-post,,,,AAXX 17084 07314 36/// /3316 10095 20053 30194 40222 53011=
07314,1999-11-17 09:00:00,10.5,1022.3,0.9,69,5.1,20000,29.632,,,320,,,,,,,,,,,og-post,,,,AAXX 17094 07314 32570 33216 10105 20051 30195 40223 51009 82230 222// 328// 333 92438=
07314,1999-11-17 10:00:00,9.5,1022.5,0.9,78,5.9,,31.484,,,340,,,0.2,,,,,,,,og-post,,,,AAXX 17104 07314 26/// /3417 10095 20059 30197 40225 51009 333 69925=
07314,1999-11-17 11:00:00,10.2,1022.6,0.4,72,5.4,,35.188,53.708,,320,,,0.2,,,,,,,,og-post,,,,AAXX 17114 07314 26/// /3219 10102 20054 30198 40226 52004 333 69925 91129=
07314,1999-11-17 12:00:00,,1022,-0.3,,5.5,22000,18.52,53.708,,10,,,,0.4,0.4,,,,,25,og-post,,,,AAXX 17124 07314 /157263221 10110 20055 30192 40220 58003 69941 72581 83731 222// 328// 333 69947 91129 92438=
07314,1999-11-17 13:00:00,10.6,1022.2,-0.3,71,5.6,,38.892,,,330,,,,,,,,,,,og-post,,,,AAXX 17134 07314 36/// /3321 10106 20056 30194 40222 55003=
07314,1999-11-17 14:00:00,10.4,1021.9,-0.7,69,5,,31.484,,,330,,,0.2,,,,,,,,og-post,,,,AAXX 17144 07314 26/// /3317 10104 20050 30191 40219 56007 333 69925=
07314,1999-11-17 15:00:00,10.7,1022.2,0.2,69,5.3,22000,31.484,,,330,,,,0.2,,,,,,25,og-post,,,,AAXX 17154 07314 21572 43317 10107 20053 30194 40222 53002 72581 83230 222// 328// 333 69927 92448=
07314,1999-11-17 16:00:00,10.3,1022.4,0.2,69,4.9,,31.484,,,320,,,,,,,,,,,og-post,,,,AAXX 17164 07314 36/// /3217 10103 20049 30196 40224 53002=
07314,1999-11-17 17:00:00,9.4,1022.9,1,72,4.6,,31.484,,,330,,,,,,,,,,,og-post,,,,AAXX 17174 07314 36/// /3317 10094 20046 30201 40229 53010=
07314,1999-11-17 18:00:00,9.6,1023.5,1.3,74,5.2,22000,31.484,,,340,8.8,11,,,,0.6,,,,,og-post,,,,AAXX 17184 07314 12572 53417 10096 20052 30207 40235 53013 69962 83230 222// 328// 333 10110 20088 92448=
07314,1999-11-17 19:00:00,9.7,1023.9,1.5,73,5.1,,35.188,,,340,,,,,,,,,,,og-post,,,,AAXX 17194 07314 36/// /3419 10097 20051 30211 40239 51015=
07314,1999-11-17 20:00:00,9.6,1024.4,1.5,76,5.6,,31.484,,,340,,,,,,,,,,,og-post,,,,AAXX 17204 07314 36/// /3417 10096 20056 30216 40244 51015=
07314,1999-11-17 21:00:00,9.5,1024.5,1,73,4.9,22000,29.632,,,340,,,,,,,,,,,og-post,,,,AAXX 17214 07314 32572 73416 10095 20049 30217 40245 51010 83230 222// 328// 333 92448=
07314,1999-11-17 22:00:00,9.8,1024.5,0.6,71,4.8,,31.484,,,330,,,,,,,,,,,og-post,,,,AAXX 17224 07314 36/// /3317 10098 20048 30217 40245 51006=
07314,1999-11-17 23:00:00,9.8,1024.4,0,70,4.6,,31.484,,,320,,,,,,,,,,,og-post,,,,AAXX 17234 07314 36/// /3217 10098 20046 30216 40244 50000=
07314,1999-11-18 00:00:00,9.9,1024.3,-0.2,73,5.3,,25.928,,,330,,,,,,,,,,,og-post,,,,AAXX 18004 07314 36/// /3314 10099 20053 30215 40243 58002=
07314,1999-11-18 01:00:00,10.1,1023.5,-1,72,5.3,,18.52,,,320,,,,,,,,,,,og-post,,,,AAXX 18014 07314 36/// /3210 10101 20053 30207 40235 58010=
07314,1999-11-18 02:00:00,10.5,1022.9,-1.5,68,4.9,,18.52,,,300,,,,,,,,,,,og-post,,,,AAXX 18024 07314 36/// /3010 10105 20049 30201 40229 58015=
07314,1999-11-18 03:00:00,10.8,1021.9,-2.4,74,6.4,,18.52,,,270,,,,,,,,,,,og-post,,,,AAXX 18034 07314 36/// /2710 10108 20064 30191 40219 58024=
07314,1999-11-18 04:00:00,10.3,1020.8,-2.7,85,7.9,,18.52,,,260,,,0.2,,,,,,,,og-post,,,,AAXX 18044 07314 26/// /2610 10103 20079 30180 40208 58027 333 69925=
07314,1999-11-18 05:00:00,10.6,1019.2,-3.7,94,9.7,,18.52,,,220,,,1,,,,,,,,og-post,,,,AAXX 18054 07314 26/// /2210 10106 20097 30164 40192 58037 333 60015=
07314,1999-11-18 06:00:00,11.2,1018.6,-3.3,91,9.8,16000,31.484,,,310,9.4,11.2,,4,,4,,,,61,og-post,,,,AAXX 18064 07314 /1566 73117 10112 20098 30158 40186 56033 60042 76165 8423/ 222// 328// 333 10112 20094 60047 92437=
07314,1999-11-18 07:00:00,11.9,1017.3,-3.5,94,11,,25.928,,,280,,,2,,,,,,,,og-post,,,,AAXX 18074 07314 26/// /2814 10119 20110 30145 40173 56035 333 60025=
07314,1999-11-18 08:00:00,12.6,1016.1,-3.1,87,10.5,,46.3,72.228,72.228,280,,,0.2,,,,,,,,og-post,,,,AAXX 18084 07314 26/// /2825 10126 20105 30133 40161 58031 333 69925 91039 91139=
07314,1999-11-18 09:00:00,13.1,1015.7,-2.9,83,10.3,,46.3,72.228,68.524,280,,,,3,,,,,,,og-post,,,,AAXX 18094 07314 26/// /2825 10131 20103 30129 40157 56029 333 60037 91037 91139=
07314,1999-11-18 10:00:00,12.5,1014.9,-2.4,94,11.6,,46.3,75.932,,280,,,0.8,,,,,,,,og-post,,,,AAXX 18104 07314 26/// /2825 10125 20116 30121 40149 56024 333 69985 91141=
07314,1999-11-18 11:00:00,13,1014.1,-2,90,11.4,,38.892,64.82,61.116,290,,,0.2,,,,,,,,og-post,,,,AAXX 18114 07314 26/// /2921 10130 20114 30113 40141 58020 333 69925 91033 91135=
07314,1999-11-18 12:00:00,12.4,1012.8,-2.9,94,11.5,16000,50.004,75.932,75.932,280,,,,1,4,,,,,62,og-post,,,,AAXX 18124 07314 /1566 82827 10124 20115 30100 40128 58029 60041 76265 8672/ 222// 328// 333 60017 91041 91141 92437=
07314,1999-11-18 13:00:00,13.5,1011.3,-3.6,84,10.9,,50.004,72.228,,280,,,0.2,,,,,,,,og-post,,,,AAXX 18134 07314 26/// /2827 10135 20109 30085 40113 58036 333 69925 91139=
07314,1999-11-18 14:00:00,12.5,1009.7,-4.4,97,12,,46.3,,68.524,270,,,0.8,,,,,,,,og-post,,,,AAXX 18144 07314 26/// /2725 10125 20120 30069 40097 58044 333 69985 91037=
07314,1999-11-18 15:00:00,12.8,1007.8,-4.9,97,12.3,8000,53.708,79.636,,260,,,,2,,,,,,62,og-post,,,,AAXX 18154 07314 21558 82629 10128 20123 30051 40078 58049 76265 8272/ 222// 328// 333 60027 91143 92446=
07314,1999-11-18 16:00:00,13.3,1006.9,-4.3,98,13,,46.3,,68.524,280,,,1,,,,,,,,og-post,,,,AAXX 18164 07314 26/// /2825 10133 20130 30042 40069 56043 333 60015 91037=
07314,1999-11-18 19:00:00,10.3,1011.2,4.2,77,6.5,,46.3,75.932,,350,,,,,,,,,,,og-post,,,,AAXX 18194 07314 36/// /3525 10103 20065 30084 40112 53042 333 91141=
07314,1999-11-18 20:00:00,8.7,1012.6,5.1,70,3.5,,53.708,79.636,,360,,,,,,,,,,,og-post,,,,AAXX 18204 07314 36/// /3629 10087 20035 30098 40126 51051 333 91143=
07314,1999-11-18 21:00:00,7.6,1014.4,4.5,69,2.3,20000,50.004,79.636,,360,,,,,,,,,,,og-post,,,,AAXX 18214 07314 32570 43627 10076 20023 30116 40144 53045 82230 222// 328// 333 91143 92448=
07314,1999-11-18 22:00:00,7.3,1015.1,3.9,67,1.6,,38.892,,,360,,,,,,,,,,,og-post,,,,AAXX 18224 07314 36/// /3621 10073 20016 30123 40151 51039=
07314,1999-11-18 23:00:00,6.9,1015.8,3.2,66,1,,42.596,,,360,,,,,,,,,,,og-post,,,,AAXX 18234 07314 36/// /3623 10069 20010 30130 40158 51032=
07314,1999-11-19 00:00:00,6.7,1016.7,2.3,65,0.6,,42.596,79.636,,360,,,,,,,,,,,og-post,,,,AAXX 19004 07314 36/// /3623 10067 20006 30139 40167 53023 333 91143=
07314,1999-11-19 01:00:00,6.8,1017,1.9,70,1.7,,38.892,,,350,,,,,,,,,,,og-post,,,,AAXX 19014 07314 36/// /3521 10068 20017 30142 40170 51019=
07314,1999-11-19 02:00:00,6.8,1017.3,1.5,68,1.3,,38.892,64.82,,350,,,,,,,,,,,og-post,,,,AAXX 19024 07314 36/// /3521 10068 20013 30145 40173 51015 333 91135=
07314,1999-11-19 03:00:00,7,1017.9,1.2,71,2.1,,42.596,64.82,,350,,,,,,,,,,,og-post,,,,AAXX 19034 07314 36/// /3523 10070 20021 30151 40179 53012 333 91135=
07314,1999-11-19 04:00:00,7,1018.1,1.1,71,2.1,,38.892,,,350,,,,,,,,,,,og-post,,,,AAXX 19044 07314 36/// /3521 10070 20021 30153 40181 51011=
07314,1999-11-19 06:00:00,6.8,1018.4,0.5,76,2.9,23000,35.188,64.82,,340,6.7,11,,,,,,,,,og-post,,,,AAXX 19064 07314 32873 23419 10068 20029 30156 40184 51005 82030 222// 328// 333 10110 20067 91135 92448=
07314,1999-11-19 07:00:00,6.7,1018.5,0.4,77,3,,38.892,,,350,,,,,,,,,,,og-post,,,,AAXX 19074 07314 36/// /3521 10067 20030 30157 40185 51004=
07314,1999-11-19 08:00:00,6.9,1018.6,0.3,76,3,,31.484,,,350,,,,,,,,,,,og-post,,,,AAXX 19084 07314 36/// /3517 10069 20030 30158 40186 52003=
07314,1999-11-19 09:00:00,7.7,1018.1,-0.3,76,3.7,20000,35.188,,,340,,,,,,,,,,,og-post,,,,AAXX 19094 07314 32570 23419 10077 20037 30153 40181 58003 82100 222// 328// 333 92448=
07314,1999-11-19 10:00:00,8.3,1018.1,-0.4,69,3,,38.892,,,330,,,,,,,,,,,og-post,,,,AAXX 19104 07314 36/// /3321 10083 20030 30153 40181 58004=
07314,1999-11-19 11:00:00,9.2,1017.6,-1,68,3.6,,38.892,,,330,,,,,,,,,,,og-post,,,,AAXX 19114 07314 36/// /3321 10092 20036 30148 40176 57010=
07314,1999-11-19 12:00:00,9.3,1016.9,-1.2,63,2.6,20000,38.892,,,330,,,,,,,,,,,og-post,,,,AAXX 19124 07314 32570 53321 10093 20026 30141 40169 58012 83130 222// 328// 333 92448=
07314,1999-11-19 13:00:00,9.3,1016.5,-1.6,69,3.9,,38.892,,,340,,,,,,,,,,,og-post,,,,AAXX 19134 07314 36/// /3421 10093 20039 30137 40165 56016=
07314,1999-11-19 14:00:00,9.3,1016.2,-1.4,67,3.5,,35.188,,,340,,,,,,,,,,,og-post,,,,AAXX 19144 07314 36/// /3419 10093 20035 30134 40162 56014=
07314,1999-11-19 15:00:00,9.1,1015.4,-1.5,61,2,20000,31.484,,,340,,,,,,,,,,15,og-post,,,,AAXX 19154 07314 31470 53417 10091 20020 30126 40154 58015 71522 85900 222// 328// 333 92448=
07314,1999-11-19 16:00:00,7.2,1015.5,-1,79,3.8,,22.224,57.412,,340,,,2,,,,,,,,og-post,,,,AAXX 19164 07314 26/// /3412 10072 20038 30127 40155 55010 333 60025 91131=
07314,1999-11-19 17:00:00,8,1015.2,-1,70,2.9,,42.596,,,350,,,,,,,,,,,og-post,,,,AAXX 19174 07314 36/// /3523 10080 20029 30124 40152 56010=
07314,1999-11-19 18:00:00,7.7,1015.4,-0,69,2.4,25000,42.596,,,350,5.9,9.6,,2,,2,,,,,og-post,,,,AAXX 19184 07314 /2475 13523 10077 20024 30126 40154 55000 60022 81200 222// 328// 333 10096 20059 60027 92458=
07314,1999-11-19 19:00:00,7.2,1015.7,0.2,78,3.6,,46.3,,,360,,,,,,,,,,,og-post,,,,AAXX 19194 07314 36/// /3625 10072 20036 30129 40157 53002=
07314,1999-11-19 20:00:00,6.2,1016.3,1.1,80,3,,38.892,75.932,,10,,,,,,,,,,,og-post,,,,AAXX 19204 07314 36/// /0121 10062 20030 30135 40163 53011 333 91141=
07314,1999-11-19 21:00:00,5.7,1016.4,1,81,2.7,,42.596,75.932,,10,,,,,,,,,,,og-post,,,,AAXX 19214 07314 36/// /0123 10057 20027 30136 40164 51010 333 91141=
07314,1999-11-19 22:00:00,5.7,1016.8,1.1,85,3.4,,38.892,,,10,,,,,,,,,,,og-post,,,,AAXX 19224 07314 36/// /0121 10057 20034 30140 40168 51011=
07314,1999-11-19 23:00:00,5,1017.6,1.2,84,2.5,,38.892,,,20,,,,,,,,,,,og-post,,,,AAXX 19234 07314 36/// /0221 10050 20025 30147 40176 53012=
07314,1999-11-20 00:00:00,4.8,1018.1,1.6,82,2,,35.188,75.932,,20,,,,,,,,,,,og-post,,,,AAXX 20004 07314 36/// /0219 10048 20020 30152 40181 53016 333 91141=
07314,1999-11-20 01:00:00,4.2,1018.2,1.3,73,-0.2,,35.188,,,30,,,,,,,,,,,og-post,,,,AAXX 20014 07314 36/// /0319 10042 21002 30153 40182 51013=
07314,1999-11-20 02:00:00,3.6,1018.6,1,76,-0.2,,35.188,,,20,,,,,,,,,,,og-post,,,,AAXX 20024 07314 36/// /0219 10036 21002 30157 40186 51010=
07314,1999-11-20 03:00:00,3.6,1018.3,0.2,76,-0.2,,35.188,,,20,,,,,,,,,,,og-post,,,,AAXX 20034 07314 36/// /0219 10036 21002 30154 40183 50002=
07314,1999-11-20 04:00:00,3.2,1018.3,0.1,80,0.1,,35.188,,,10,,,,,,,,,,,og-post,,,,AAXX 20044 07314 36/// /0119 10032 20001 30154 40183 51001=
07314,1999-11-20 05:00:00,3.1,1018.1,-0.5,80,0,,35.188,,,10,,,,,,,,,,,og-post,,,,AAXX 20054 07314 36/// /0119 10031 20000 30152 40181 56005=
07314,1999-11-20 06:00:00,3.3,1018.2,-0.1,80,0.2,25000,31.484,,,10,3,7.7,,,,,,,,,og-post,,,,AAXX 20064 07314 32975 10117 10033 20002 30153 40182 55001 80001 222// 328// 333 10077 20030 92448=
07314,1999-11-20 07:00:00,3.3,1018.1,-0.2,78,-0.2,,31.484,,,10,,,,,,,,,,,og-post,,,,AAXX 20074 07314 36/// /0117 10033 21002 30152 40181 56002=
07314,1999-11-20 08:00:00,4,1018.1,0,76,0.2,,31.484,,,360,,,,,,,,,,,og-post,,,,AAXX 20084 07314 36/// /3617 10040 20002 30152 40181 50000=
07314,1999-11-20 09:00:00,4.5,1017.7,-0.5,88,2.7,,31.484,,,360,,,,,,,,,,,og-post,,,,AAXX 20094 07314 36/// /3617 10045 20027 30148 40177 58005=
07314,1999-11-20 10:00:00,4.9,1017.6,-0.5,84,2.4,,31.484,,,360,,,,,,,,,,,og-post,,,,AAXX 20104 07314 36/// /3617 10049 20024 30147 40176 58005=
07314,1999-11-20 11:00:00,5.7,1017.3,-0.8,78,2.2,,38.892,,,360,,,,,,,,,,,og-post,,,,AAXX 20114 07314 36/// /3621 10057 20022 30144 40173 56008=
07314,1999-11-20 12:00:00,6,1016.5,-1.1,77,2.3,20000,38.892,,,360,,,,,,,,,,,og-post,,,,AAXX 20124 07314 32570 73621 10060 20023 30137 40165 58011 8621/ 222// 328// 333 92448=
07314,1999-11-20 13:00:00,5.6,1015.9,-1.6,80,2.4,,35.188,,,360,,,,,,,,,,,og-post,,,,AAXX 20134 07314 36/// /3619 10056 20024 30131 40159 58016=
07314,1999-11-20 14:00:00,5.4,1015.3,-1.9,79,2.1,,35.188,,,360,,,,,,,,,,,og-post,,,,AAXX 20144 07314 36/// /3619 10054 20021 30125 40153 56019=
07314,1999-11-20 15:00:00,5.1,1015.1,-1.5,78,1.6,20000,35.188,,,10,,,,,,,,,,,og-post,,,,AAXX 20154 07314 32570 70119 10051 20016 30122 40151 56015 8621/ 222// 328// 333 92448=
07314,1999-11-20 16:00:00,5.1,1015,-1,81,2.1,,31.484,,,20,,,,,,,,,,,og-post,,,,AAXX 20164 07314 36/// /0217 10051 20021 30121 40150 56010=
07314,1999-11-20 17:00:00,4.5,1015,-0.4,83,1.9,,35.188,,,20,,,0.2,,,,,,,,og-post,,,,AAXX 20174 07314 26/// /0219 10045 20019 30121 40150 56004 333 69925=
07314,1999-11-20 18:00:00,4,1014.9,-0.2,89,2.4,20000,31.484,,,20,3.1,6,,0.2,,0.2,,,,15,og-post,,,,AAXX 20184 07314 /1570 70217 10040 20024 30120 40149 57002 69922 71582 8622/ 222// 328// 333 10060 20031 69927 92448=
07314,1999-11-21 08:00:00,1.9,1016.4,1.2,79,-1.3,,35.188,,,20,,,,,,,,,,,og-post,,,,AAXX 21084 07314 36/// /0219 10019 21013 30135 40164 53012=
07314,1999-11-21 09:00:00,2.5,1015.4,-0.1,84,0.1,20000,31.484,,,30,2.2,3.9,,,,2,,,,,og-post,,,,AAXX 21094 07314 12870 50317 10025 20001 30125 40154 55001 60022 85030 222// 328// 333 10039 20022 92448=
07314,1999-11-21 10:00:00,2,1016.7,1,77,-1.6,,29.632,,,20,,,,,,,,,,,og-post,,,,AAXX 21104 07314 36/// /0216 10020 21016 30138 40167 51010=
07314,1999-11-21 11:00:00,2.3,1016.8,0.4,76,-1.5,,25.928,,,30,,,,,,,,,,,og-post,,,,AAXX 21114 07314 36/// /0314 10023 21015 30139 40168 51004=
07314,1999-11-21 12:00:00,2.2,1016.8,0.2,75,-1.8,18000,29.632,,,20,,,,,,,,,,,og-post,,,,AAXX 21124 07314 32868 70216 10022 21018 30139 40168 51002 87030 222// 328// 333 92447=
07314,1999-11-21 13:00:00,3.1,1016.4,-0.3,77,-0.5,,22.224,,,30,,,,,,,,,,,og-post,,,,AAXX 21134 07314 36/// /0312 10031 21005 30135 40164 58003=
07314,1999-11-21 14:00:00,2.5,1016.2,-0.6,76,-1.3,,25.928,,,20,,,,,,,,,,,og-post,,,,AAXX 21144 07314 36/// /0214 10025 21013 30133 40162 58006=
07314,1999-11-21 15:00:00,2.4,1016.3,-0.5,74,-1.7,15000,25.928,,,10,,,,,,,,,,,og-post,,,,AAXX 21154 07314 32565 80114 10024 21017 30134 40163 55005 885// 222// 328// 333 92447=
07314,1999-11-21 16:00:00,2.1,1016.6,0.2,74,-2,,25.928,,,20,,,,,,,,,,,og-post,,,,AAXX 21164 07314 36/// /0214 10021 21020 30137 40166 53002=
07314,1999-11-21 17:00:00,2,1016.9,0.7,74,-2.1,,25.928,,,20,,,,,,,,,,,og-post,,,,AAXX 21174 07314 36/// /0214 10020 21021 30140 40169 53007=
07314,1999-11-21 18:00:00,1.9,1017.5,1.2,76,-1.9,17000,25.928,,,360,1.8,3.1,,,,,,,,,og-post,,,,AAXX 21184 07314 32567 83614 10019 21019 30146 40175 53012 88500 222// 328// 333 10031 20018 92447=
07314,1999-11-21 19:00:00,1.6,1018,1.4,73,-2.7,,22.224,,,20,,,,,,,,,,,og-post,,,,AAXX 21194 07314 36/// /0212 10016 21027 30151 40180 53014=
07314,1999-11-21 20:00:00,1.4,1018.2,1.3,71,-3.3,,11.112,,,30,,,,,,,,,,,og-post,,,,AAXX 21204 07314 36/// /0306 10014 21033 30153 40182 51013=
07314,1999-11-21 22:00:00,2.1,1018.6,0.6,67,-3.4,,22.224,,,20,,,,,,,,,,,og-post,,,,AAXX 21224 07314 36/// /0212 10021 21034 30157 40186 51006=
07314,1999-11-21 23:00:00,2.2,1018.8,0.6,62,-4.3,,18.52,,,20,,,,,,,,,,,og-post,,,,AAXX 21234 07314 36/// /0210 10022 21043 30159 40188 51006=
07314,1999-11-22 00:00:00,2.2,1019.2,0.7,64,-3.9,,25.928,,,360,,,,,,,,,,,og-post,,,,AAXX 22004 07314 36/// /3614 10022 21039 30163 40192 53007=
07314,1999-11-22 01:00:00,2,1019.2,0.6,61,-4.7,,18.52,,,10,,,,,,,,,,,og-post,,,,AAXX 22014 07314 36/// /0110 10020 21047 30163 40192 51006=
07314,1999-11-22 02:00:00,1.7,1019.6,0.8,62,-4.8,,14.816,,,20,,,,,,,,,,,og-post,,,,AAXX 22024 07314 36/// /0208 10017 21048 30167 40196 52008=
07314,1999-11-22 03:00:00,1.7,1019.8,0.6,65,-4.2,,18.52,,,10,,,,,,,,,,,og-post,,,,AAXX 22034 07314 36/// /0110 10017 21042 30169 40198 53006=
07314,1999-11-22 04:00:00,1.8,1020.1,0.9,68,-3.5,,18.52,,,10,,,,,,,,,,,og-post,,,,AAXX 22044 07314 36/// /0110 10018 21035 30172 40201 51009=
07314,1999-11-22 05:00:00,1.7,1020.1,0.5,71,-3,,14.816,,,10,,,,,,,,,,,og-post,,,,AAXX 22054 07314 36/// /0108 10017 21030 30172 40201 51005=
07314,1999-11-22 06:00:00,2,1020.6,0.8,71,-2.7,20000,14.816,,,350,1.3,2.4,,,,,,,,,og-post,,,,AAXX 22064 07314 32970 23508 10020 21027 30177 40206 53008 82032 222// 328// 333 10024 20013 92438=
07314,1999-11-22 07:00:00,2.8,1021.2,1.1,69,-2.3,,14.816,,,350,,,,,,,,,,,og-post,,,,AAXX 22074 07314 36/// /3508 10028 21023 30183 40212 53011=
07314,1999-11-22 08:00:00,3.6,1022.2,2.1,64,-2.6,,18.52,,,350,,,,,,,,,,,og-post,,,,AAXX 22084 07314 36/// /3510 10036 21026 30193 40222 53021=
07314,1999-11-22 09:00:00,3.8,1022.7,2.1,64,-2.4,15000,14.816,,,350,,,,,,,,,,,og-post,,,,AAXX 22094 07314 32565 83508 10038 21024 30198 40227 51021 837// 222// 328// 333 92437=
07314,1999-11-22 10:00:00,4.2,1023.2,2,69,-1,,3.704,,,60,,,,,,,,,,,og-post,,,,AAXX 22104 07314 36/// /0602 10042 21010 30203 40232 51020=
07314,1999-11-22 11:00:00,4.7,1023.3,1.1,67,-0.9,,3.704,,,130,,,,,,,,,,,og-post,,,,AAXX 22114 07314 36/// /1302 10047 21009 30204 40233 51011=
07314,1999-11-22 12:00:00,4.3,1023.2,0.5,73,-0.1,18000,7.408,,,140,,,,,,,,,,,og-post,,,,AAXX 22124 07314 32668 81404 10043 21001 30203 40232 50005 885// 222// 328// 333 92427=
07314,1999-11-22 13:00:00,4.6,1022.8,-0.4,83,2,,11.112,,,160,,,0.2,,,,,,,,og-post,,,,AAXX 22134 07314 26/// /1606 10046 20020 30199 40228 58004 333 69925=
07314,1999-11-22 14:00:00,6.9,1022.5,-0.8,78,3.3,,25.928,,,190,,,,,,,,,,,og-post,,,,AAXX 22144 07314 36/// /1914 10069 20033 30196 40225 58008=
07314,1999-11-22 15:00:00,7.2,1022.9,-0.3,82,4.3,,22.224,,,190,,,,0.2,,,,,,,og-post,,,,AAXX 22154 07314 26/// /1912 10072 20043 30200 40229 55003 333 69927=
07314,1999-11-22 16:00:00,7.7,1023,0.3,88,5.8,,22.224,,,200,,,,,,,,,,,og-post,,,,AAXX 22164 07314 36/// /2012 10077 20058 30202 40230 53003=
07314,1999-11-22 17:00:00,8.4,1023.3,0.9,84,5.9,,14.816,,,260,,,0.2,,,,,,,,og-post,,,,AAXX 22174 07314 26/// /2608 10084 20059 30205 40233 51009 333 69925=
07314,1999-11-22 18:00:00,8.3,1023.7,0.9,90,6.8,18000,18.52,,,230,2,8.9,,0.4,,0.6,,,,,og-post,,,,AAXX 22184 07314 /2668 82310 10083 20068 30209 40237 53009 69962 885// 222// 328// 333 10089 20020 69947 92427=
07314,1999-11-22 19:00:00,9,1023.9,0.9,91,7.6,,14.816,,,210,,,0.2,,,,,,,,og-post,,,,AAXX 22194 07314 26/// /2108 10090 20076 30211 40239 51009 333 69925=
07314,1999-11-22 20:00:00,9.4,1024.1,0.8,85,7,,7.408,,,250,,,,,,,,,,,og-post,,,,AAXX 22204 07314 36/// /2504 10094 20070 30213 40241 51008=
07314,1999-11-22 21:00:00,9.2,1024.2,0.5,87,7.2,18000,3.704,,,240,,,,0.2,,,,,,,og-post,,,,AAXX 22214 07314 22668 82402 10092 20072 30214 40242 51005 885// 222// 328// 333 69927 92437=
07314,1999-11-22 22:00:00,9.8,1024.5,0.6,88,7.9,,11.112,,,220,,,,,,,,,,,og-post,,,,AAXX 22224 07314 36/// /2206 10098 20079 30217 40245 53006=
07314,1999-11-22 23:00:00,11.1,1024.4,0.3,74,6.6,,18.52,,,250,,,,,,,,,,,og-post,,,,AAXX 22234 07314 36/// /2510 10111 20066 30216 40244 50003=
07314,1999-11-23 00:00:00,11,1024.4,0.2,84,8.4,,22.224,,,250,,,,,0.2,,,,,,og-post,,,,AAXX 23004 07314 16/// /2512 10110 20084 30216 40244 51002 69921=
07314,1999-11-23 01:00:00,11.6,1024.1,-0.4,91,10.2,,22.224,,,260,,,,,,,,,,,og-post,,,,AAXX 23014 07314 36/// /2612 10116 20102 30213 40241 58004=
07314,1999-11-23 02:00:00,11.6,1024.4,-0,95,10.8,,22.224,,,300,,,,,,,,,,,og-post,,,,AAXX 23024 07314 36/// /3012 10116 20108 30216 40244 55000=
07314,1999-11-23 03:00:00,10.3,1024.8,0.4,95,9.5,,25.928,,,330,,,,,,,,,,,og-post,,,,AAXX 23034 07314 36/// /3314 10103 20095 30220 40248 53004=
07314,1999-11-23 04:00:00,10.3,1025,0.9,94,9.4,,18.52,,,330,,,,,,,,,,,og-post,,,,AAXX 23044 07314 36/// /3310 10103 20094 30222 40250 51009=
07314,1999-11-23 05:00:00,9.9,1025.4,1,94,9,,14.816,,,340,,,,,,,,,,,og-post,,,,AAXX 23054 07314 36/// /3408 10099 20090 30226 40254 52010=
07314,1999-11-23 06:00:00,9.7,1025.9,1.1,95,8.9,13000,11.112,,,360,8.2,11.8,,,,0.2,,,,,og-post,,,,AAXX 23064 07314 12663 83606 10097 20089 30231 40259 53011 69922 8353/ 222// 328// 333 10118 20082 92427=
07314,1999-11-23 07:00:00,9,1026,1,96,8.4,,7.408,,,40,,,,,,,,,,,og-post,,,,AAXX 23074 07314 36/// /0404 10090 20084 30232 40260 51010=
07314,1999-11-23 08:00:00,8.5,1026.8,1.4,96,7.9,,3.704,,,70,,,,,,,,,,,og-post,,,,AAXX 23084 07314 36/// /0702 10085 20079 30240 40268 53014=
07314,1999-11-23 09:00:00,9.1,1027.2,1.3,97,8.6,13000,7.408,,,100,,,,,,,,,,,og-post,,,,AAXX 23094 07314 32663 41004 10091 20086 30244 40272 53013 8353/ 222// 328// 333 92427=
07314,1999-11-23 10:00:00,10.4,1027.6,1.6,91,9,,,,,,,,,,,,,,,,og-post,,,,AAXX 23104 07314 36/// /0000 10104 20090 30248 40276 51016=
07314,1999-11-23 11:00:00,10.7,1027.9,1.1,88,8.8,,7.408,,,60,,,,,,,,,,,og-post,,,,AAXX 23114 07314 36/// /0604 10107 20088 30251 40279 51011=
07314,1999-11-23 12:00:00,8.9,1027.6,0.4,95,8.1,,7.408,,,70,,,,,,,,,,,og-post,,,,AAXX 23124 07314 36/// /0704 10089 20081 30248 40276 50004=
07314,1999-11-23 13:00:00,9.6,1027.4,-0.2,94,8.7,,3.704,,,90,,,,,,,,,,,og-post,,,,AAXX 23134 07314 36/// /0902 10096 20087 30246 40274 58002=
07314,1999-11-23 14:00:00,9.3,1027.3,-0.6,91,7.9,,3.704,,,70,,,,,,,,,,,og-post,,,,AAXX 23144 07314 36/// /0702 10093 20079 30245 40273 56006=
07314,1999-11-23 15:00:00,9,1027.4,-0.2,92,7.8,8000,3.704,,,70,,,,,,,,,,28,og-post,,,,AAXX 23154 07314 31958 50702 10090 20078 30246 40274 55002 72842 85030 222// 328// 333 92426=
07314,1999-11-23 16:00:00,8.5,1027.7,0.3,93,7.4,,,,,,,,,,,,,,,,og-post,,,,AAXX 23164 07314 36/// /0000 10085 20074 30249 40277 53003=
07314,1999-11-23 17:00:00,8.3,1028,0.6,94,7.4,,3.704,,,150,,,,,,,,,,,og-post,,,,AAXX 23174 07314 36/// /1502 10083 20074 30251 40280 53006=
07314,1999-11-23 18:00:00,8,1028.3,0.8,95,7.2,16000,7.408,,,130,8,10.8,,,,,,,,2,og-post,,,,AAXX 23184 07314 31966 61304 10080 20072 30254 40283 52008 70241 86030 222// 328// 333 10108 20080 92427=
07314,1999-11-23 19:00:00,7.9,1028.4,0.6,93,6.8,,11.112,,,150,,,,,,,,,,,og-post,,,,AAXX 23194 07314 36/// /1506 10079 20068 30255 40284 51006=
07314,1999-11-23 20:00:00,8.3,1028.5,0.5,92,7.1,,11.112,,,160,,,,,,,,,,,og-post,,,,AAXX 23204 07314 36/// /1606 10083 20071 30256 40285 51005=
07314,1999-11-23 21:00:00,8.2,1028.7,0.4,92,7,15000,11.112,,,150,,,,,,,,,,,og-post,,,,AAXX 23214 07314 32965 71506 10082 20070 30258 40287 53004 87030 222// 328// 333 92427=
07314,1999-11-23 22:00:00,8.8,1028.6,0.3,94,7.9,,14.816,,,170,,,,,,,,,,,og-post,,,,AAXX 23224 07314 36/// /1708 10088 20079 30258 40286 51003=
07314,1999-11-23 23:00:00,9.1,1028.6,0.2,95,8.3,,14.816,,,170,,,,,,,,,,,og-post,,,,AAXX 23234 07314 36/// /1708 10091 20083 30258 40286 51002=
07314,1999-11-24 00:00:00,9.8,1028.7,0.1,96,9.2,,18.52,,,170,,,,,,,,,,,og-post,,,,AAXX 24004 07314 36/// /1710 10098 20092 30259 40287 53001=
07314,1999-11-24 01:00:00,9.7,1028.5,-0.1,97,9.2,,11.112,,,160,,,,,,,,,,,og-post,,,,AAXX 24014 07314 36/// /1606 10097 20092 30257 40285 58001=
07314,1999-11-24 02:00:00,10.1,1028.6,-0,97,9.6,,14.816,,,170,,,,,,,,,,,og-post,,,,AAXX 24024 07314 36/// /1708 10101 20096 30258 40286 54000=
07314,1999-11-24 03:00:00,10.1,1028.7,-0,96,9.5,,11.112,,,160,,,,,,,,,,,og-post,,,,AAXX 24034 07314 36/// /1606 10101 20095 30259 40287 55000=
07314,1999-11-24 04:00:00,10.8,1028.5,0,95,10,,11.112,,,170,,,,,,,,,,,og-post,,,,AAXX 24044 07314 36/// /1706 10108 20100 30257 40285 50000=
07314,1999-11-24 05:00:00,10.4,1028.5,-0.1,93,9.3,,11.112,,,220,,,,,,,,,,,og-post,,,,AAXX 24054 07314 36/// /2206 10104 20093 30257 40285 58001=
07314,1999-11-24 06:00:00,11.3,1028.8,0.1,88,9.4,25000,11.112,,,250,7.8,11.3,,0.2,,0.2,,,,,og-post,,,,AAXX 24064 07314 /2575 62506 10113 20094 30260 40288 53001 69922 85230 222// 328// 333 10113 20078 69927 92438=
07314,1999-11-24 07:00:00,11.3,1029.2,0.7,89,9.6,,11.112,,,250,,,,,,,,,,,og-post,,,,AAXX 24074 07314 36/// /2506 10113 20096 30264 40292 53007=
07314,1999-11-24 08:00:00,11.5,1029.7,1.2,88,9.6,,11.112,,,230,,,,,,,,,,,og-post,,,,AAXX 24084 07314 36/// /2306 10115 20096 30269 40297 53012=
07314,1999-11-24 09:00:00,12.6,1030.3,1.5,87,10.5,18000,14.816,,,170,,,,,,,,,,,og-post,,,,AAXX 24094 07314 32568 61708 10126 20105 30275 40303 53015 82230 222// 328// 333 92437=
07314,1999-11-24 11:00:00,12.5,1030.8,1.1,89,10.7,,11.112,,,180,,,,,,,,,,,og-post,,,,AAXX 24114 07314 36/// /1806 10125 20107 30280 40308 51011=
07314,1999-11-24 12:00:00,12.5,1030.5,0.2,85,10,,11.112,,,200,,,,,,,,,,,og-post,,,,AAXX 24124 07314 36/// /2006 10125 20100 30277 40305 50002=
07314,1999-11-24 13:00:00,13,1030.4,-0.4,85,10.5,,7.408,,,220,,,,,,,,,,,og-post,,,,AAXX 24134 07314 36/// /2204 10130 20105 30276 40304 58004=
07314,1999-11-24 16:00:00,11.5,1030.7,0.3,91,10.1,,7.408,,,170,,,,,,,,,,,og-post,,,,AAXX 24164 07314 36/// /1704 10115 20101 30279 40307 53003=
07314,1999-11-24 17:00:00,11.1,1031,0.9,94,10.2,,11.112,,,170,,,,,,,,,,,og-post,,,,AAXX 24174 07314 26/// /1706 10111 20102 30282 40310 52009=
07314,1999-11-24 19:00:00,9.7,1031.3,0.6,97,9.2,,7.408,,,170,,,,,,,,,,,og-post,,,,AAXX 24194 07314 36/// /1704 10097 20092 30285 40313 51006=
07314,1999-11-24 20:00:00,10.7,1031.7,0.7,97,10.2,,3.704,,,250,,,,,,,,,,,og-post,,,,AAXX 24204 07314 36/// /2502 10107 20102 30289 40317 53007=
07314,1999-11-24 23:00:00,9.7,1032.1,0.4,98,9.4,,7.408,,,160,,,,,,,,,,,og-post,,,,AAXX 24234 07314 26/// /1604 10097 20094 30293 40321 51004 333 69905=
07314,1999-11-25 01:00:00,9.2,1032.3,0.2,98,8.9,,11.112,,,160,,,,,,,,,,,og-post,,,,AAXX 25014 07314 26/// /1606 10092 20089 30294 40323 52002 333 69905=
07314,1999-11-25 02:00:00,8.7,1,,98,8.4,,7.408,,,160,,,,,,,,,,,og-post,,,,AAXX 25024 07314 26/// /1604 10087 20084=
07314,1999-11-25 03:00:00,8.5,1032.5,0.3,98,8.2,,7.408,,,120,,,,0.2,,,,,,,og-post,,,,AAXX 25034 07314 26/// /1204 10085 20082 30296 40325 52003 333 69927=
07314,1999-11-25 05:00:00,7.3,1032.4,0,98,7,,11.112,,,150,,,,,,,,,,,og-post,,,,AAXX 25054 07314 36/// /1506 10073 20070 30295 40324 50000=
07314,1999-11-25 08:00:00,5.3,1033.5,1.1,99,5.2,,18.52,,,150,,,,,,,,,,,og-post,,,,AAXX 25084 07314 36/// /1510 10053 20052 30306 40335 53011=
07314,1999-11-25 09:00:00,6.2,1034.3,1.7,99,6.1,200,11.112,,,120,,,,,,,,,,,og-post,,,,AAXX 25094 07314 32/02 91206 10062 20061 30314 40343 53017 222// 328// 333 92432=
07314,1999-11-25 10:00:00,7.1,1034.8,1.9,99,7,,11.112,,,150,,,,,,,,,,,og-post,,,,AAXX 25104 07314 36/// /1506 10071 20070 30319 40348 51019=
07314,1999-11-25 12:00:00,8.4,1034.2,-0.1,100,8.4,100,7.408,,,150,,,,,,,,,,2,og-post,,,,AAXX 25124 07314 31/01 91504 10084 20084 30313 40342 58001 70244 222// 328// 333 92431=
07314,1999-11-25 13:00:00,8.6,1033.8,-1,100,8.6,,7.408,,,140,,,,,,,,,,,og-post,,,,AAXX 25134 07314 36/// /1404 10086 20086 30309 40338 58010=
07314,1999-11-25 14:00:00,8.5,1033.6,-1.1,100,8.5,,7.408,,,130,,,,,,,,,,,og-post,,,,AAXX 25144 07314 36/// /1304 10085 20085 30307 40336 56011=
07314,1999-11-25 15:00:00,8.2,1033.5,-0.7,100,8.2,500,7.408,,,80,,,,,,,,,,45,og-post,,,,AAXX 25154 07314 31/05 90804 10082 20082 30306 40335 56007 74544 222// 328// 333 92433=
07314,1999-11-25 16:00:00,8,1033.7,-0.1,99,7.9,,11.112,,,70,,,,,,,,,,,og-post,,,,AAXX 25164 07314 36/// /0706 10080 20079 30308 40337 55001=
07314,1999-11-25 17:00:00,7.8,1033.6,-0,100,7.8,,7.408,,,80,,,,,,,,,,,og-post,,,,AAXX 25174 07314 36/// /0804 10078 20078 30307 40336 54000=
07314,1999-11-25 18:00:00,7.9,1033.5,0,100,7.9,200,11.112,,,90,5.1,8.7,,,,,,,,45,og-post,,,,AAXX 25184 07314 31/02 90906 10079 20079 30306 40335 50000 74544 222// 328// 333 10087 20051 92432=
07314,1999-11-25 19:00:00,8.3,1033.4,-0.3,100,8.3,,11.112,,,90,,,,,,,,,,,og-post,,,,AAXX 25194 07314 36/// /0906 10083 20083 30305 40334 57003=
07314,1999-11-25 20:00:00,8,1032.9,-0.7,100,8,,11.112,,,90,,,,,,,,,,,og-post,,,,AAXX 25204 07314 36/// /0906 10080 20080 30300 40329 58007=
07314,1999-11-25 21:00:00,7.6,1032.5,-1,99,7.5,3000,11.112,,,100,,,,,,,,,,28,og-post,,,,AAXX 25214 07314 31430 81006 10076 20075 30296 40325 58010 72842 886// 222// 328// 333 92436=
07314,1999-11-25 22:00:00,7.1,1032.1,-1.3,99,7,,18.52,,,80,,,,,,,,,,,og-post,,,,AAXX 25224 07314 36/// /0810 10071 20070 30292 40321 56013=
07314,1999-11-25 23:00:00,7.3,1031.3,-1.6,99,7.2,,18.52,,,80,,,,,,,,,,,og-post,,,,AAXX 25234 07314 36/// /0810 10073 20072 30284 40313 58016=
07314,1999-11-26 00:00:00,7.3,1030.6,-1.9,98,7,,18.52,,,80,,,,,,,,,,,og-post,,,,AAXX 26004 07314 36/// /0810 10073 20070 30277 40306 58019=
07314,1999-11-26 01:00:00,6.8,1030.2,-1.9,98,6.5,,18.52,,,80,,,,,,,,,,,og-post,,,,AAXX 26014 07314 36/// /0810 10068 20065 30273 40302 56019=
07314,1999-11-26 02:00:00,5.6,1029.7,-1.6,98,5.3,,14.816,,,110,,,,,,,,,,,og-post,,,,AAXX 26024 07314 36/// /1108 10056 20053 30268 40297 56016=
07314,1999-11-26 03:00:00,5,1029.1,-1.5,98,4.7,,14.816,,,100,,,,,,,,,,,og-post,,,,AAXX 26034 07314 36/// /1008 10050 20047 30262 40291 58015=
07314,1999-11-26 04:00:00,4.4,1028.7,-1.5,99,4.3,,18.52,,,130,,,,,,,,,,,og-post,,,,AAXX 26044 07314 36/// /1310 10044 20043 30258 40287 56015=
07314,1999-11-26 05:00:00,4.1,1028.7,-1,99,4,,14.816,,,130,,,,,,,,,,,og-post,,,,AAXX 26054 07314 36/// /1308 10041 20040 30258 40287 56010=
07314,1999-11-26 06:00:00,4.2,1028.1,-1,99,4.1,400,14.816,,,140,4.1,8.4,,,,,,,,46,og-post,,,,AAXX 26064 07314 31204 81408 10042 20041 30252 40281 58010 74622 886// 222// 328// 333 10084 20041 92432=
07314,1999-11-26 07:00:00,3.9,1027.5,-1.2,100,3.9,,14.816,,,140,,,,,,,,,,,og-post,,,,AAXX 26074 07314 36/// /1408 10039 20039 30246 40275 58012=
07314,1999-11-26 08:00:00,4.2,1027.3,-1.4,100,4.2,,14.816,,,140,,,,,,,,,,,og-post,,,,AAXX 26084 07314 36/// /1408 10042 20042 30244 40273 56014=
07314,1999-11-26 09:00:00,4.9,1027.4,-0.7,100,4.9,3000,18.52,,,140,,,,,,,,,,28,og-post,,,,AAXX 26094 07314 31630 81410 10049 20049 30245 40274 55007 72822 885// 222// 328// 333 92425=
07314,1999-11-26 10:00:00,6.4,1027.1,-0.4,100,6.4,,18.52,,,150,,,,,,,,,,,og-post,,,,AAXX 26104 07314 36/// /1510 10064 20064 30242 40271 58004=
07314,1999-11-26 11:00:00,8.1,1027,-0.3,91,6.7,,18.52,,,160,,,,,,,,,,,og-post,,,,AAXX 26114 07314 36/// /1610 10081 20067 30241 40270 58003=
07314,1999-11-26 12:00:00,8.3,1026.2,-1.1,85,5.9,16000,29.632,,,170,,,,,,,,,,,og-post,,,,AAXX 26124 07314 32566 31716 10083 20059 30234 40262 58011 81101 222// 328// 333 92427=
07314,1999-11-26 13:00:00,9.1,1025.4,-1.6,83,6.4,,29.632,,,170,,,,,,,,,,,og-post,,,,AAXX 26134 07314 36/// /1716 10091 20064 30226 40254 58016=
07314,1999-11-26 14:00:00,9.6,1025.1,-1.8,86,7.4,,22.224,,,160,,,,,,,,,,,og-post,,,,AAXX 26144 07314 36/// /1612 10096 20074 30223 40251 56018=
07314,1999-11-26 15:00:00,10.6,1025,-1.2,89,8.9,,25.928,,,170,,,,,,,,,,,og-post,,,,AAXX 26154 07314 36/// /1714 10106 20089 30222 40250 56012=
07314,1999-11-26 16:00:00,10.8,1024.8,-0.6,88,8.9,,22.224,,,160,,,,,,,,,,,og-post,,,,AAXX 26164 07314 36/// /1612 10108 20089 30220 40248 56006=
07314,1999-11-26 17:00:00,9.2,1024.8,-0.3,86,7,,14.816,,,130,,,,,,,,,,,og-post,,,,AAXX 26174 07314 36/// /1308 10092 20070 30220 40248 56003=
07314,1999-11-26 18:00:00,8.8,1025,-0,89,7.1,14000,14.816,,,140,3.9,10.9,,,,,,,,,og-post,,,,AAXX 26184 07314 32564 81408 10088 20071 30222 40250 55000 887// 222// 328// 333 10109 20039 92437=
07314,1999-11-26 19:00:00,12.5,1025.5,0.7,82,9.5,,18.52,,,240,,,,,,,,,,,og-post,,,,AAXX 26194 07314 36/// /2410 10125 20095 30227 40255 53007=
07314,1999-11-26 20:00:00,12.2,1025.5,0.7,88,10.3,,14.816,,,210,,,,,,,,,,,og-post,,,,AAXX 26204 07314 36/// /2108 10122 20103 30227 40255 51007=
07314,1999-11-26 21:00:00,12.1,1025.6,0.6,92,10.8,16000,14.816,,,190,,,,,,,,,,,og-post,,,,AAXX 26214 07314 32566 81908 10121 20108 30228 40256 51006 887// 222// 328// 333 92437=
07314,1999-11-26 22:00:00,12.5,1025.6,0.1,91,11.1,,22.224,,,220,,,,,,,,,,,og-post,,,,AAXX 26224 07314 36/// /2212 10125 20111 30228 40256 52001=
07314,1999-11-26 23:00:00,12.5,1025.8,0.3,83,9.7,,18.52,,,210,,,,,,,,,,,og-post,,,,AAXX 26234 07314 36/// /2110 10125 20097 30230 40258 53003=
07314,1999-11-27 00:00:00,12.2,1025.7,0.1,89,10.4,,22.224,,,190,,,,,,,,,,,og-post,,,,AAXX 27004 07314 36/// /1912 10122 20104 30229 40257 50001=
07314,1999-11-27 01:00:00,12.4,1025.7,0.1,92,11.1,,25.928,,,200,,,,,,,,,,,og-post,,,,AAXX 27014 07314 36/// /2014 10124 20111 30229 40257 51001=
07314,1999-11-27 02:00:00,12.5,1025.7,-0.1,93,11.4,,25.928,,,210,,,,,,,,,,,og-post,,,,AAXX 27024 07314 36/// /2114 10125 20114 30229 40257 56001=
07314,1999-11-27 03:00:00,12.8,1025.7,-0,91,11.4,,29.632,,,220,,,,,,,,,,,og-post,,,,AAXX 27034 07314 36/// /2216 10128 20114 30229 40257 54000=
07314,1999-11-27 04:00:00,12.5,1025.6,-0.1,93,11.4,,31.484,,,220,,,0.4,,,,,,,,og-post,,,,AAXX 27044 07314 26/// /2217 10125 20114 30228 40256 58001 333 69945=
07314,1999-11-27 05:00:00,12.7,1025.8,0.1,93,11.6,,31.484,,,210,,,,,,,,,,,og-post,,,,AAXX 27054 07314 36/// /2117 10127 20116 30230 40258 53001=
07314,1999-11-27 06:00:00,12.7,1026.2,0.5,93,11.6,15000,29.632,,,210,8.7,12.9,,0.4,,0.4,,,,2,og-post,,,,AAXX 27064 07314 /1565 82116 10127 20116 30234 40262 53005 69942 70282 827// 222// 328// 333 10129 20087 69947 92437=
07314,1999-11-27 07:00:00,12.4,1026.6,1,95,11.6,,29.632,,,210,,,0.6,,,,,,,,og-post,,,,AAXX 27074 07314 26/// /2116 10124 20116 30238 40266 53010 333 69965=
07314,1999-11-27 08:00:00,13,1026.9,1.1,88,11.1,,31.484,,,210,,,0.2,,,,,,,,og-post,,,,AAXX 27084 07314 26/// /2117 10130 20111 30241 40269 51011 333 69925=
07314,1999-11-27 09:00:00,12.8,1027.5,1.3,88,10.9,,31.484,,,210,,,,0.8,,,,,,,og-post,,,,AAXX 27094 07314 26/// /2117 10128 20109 30247 40275 53013 333 69987=
07314,1999-11-27 10:00:00,12.9,1028,1.4,87,10.8,,29.632,,,210,,,,,,,,,,,og-post,,,,AAXX 27104 07314 36/// /2116 10129 20108 30252 40280 53014=
07314,1999-11-27 11:00:00,13,1028.2,1.3,88,11.1,,25.928,,,210,,,,,,,,,,,og-post,,,,AAXX 27114 07314 36/// /2114 10130 20111 30254 40282 51013=
07314,1999-11-27 12:00:00,12.9,1027.9,0.4,88,11,15000,25.928,,,210,,,,,0.8,,,,,2,og-post,,,,AAXX 27124 07314 11565 82114 10129 20110 30251 40279 50004 69981 70282 847// 222// 328// 333 92437=
07314,1999-11-27 13:00:00,12.9,1027.8,-0.2,88,11,,25.928,,,210,,,,,,,,,,,og-post,,,,AAXX 27134 07314 36/// /2114 10129 20110 30250 40278 58002=
07314,1999-11-27 15:00:00,12.7,1027.7,-0.2,87,10.6,14000,25.928,,,200,,,,,,,,,,,og-post,,,,AAXX 27154 07314 32664 82014 10127 20106 30249 40277 56002 885// 222// 328// 333 92437=
07314,1999-11-27 18:00:00,11.9,1028.1,0.4,93,10.8,,18.52,,,160,11.9,13.1,,,,0.8,,,,,og-post,,,,AAXX 27184 07314 16/// /1610 10119 20108 30253 40281 51004 69982 333 10131 20119=
07314,1999-11-27 21:00:00,9.7,1027.6,-0.5,88,7.8,16000,22.224,,,160,,,,,,,,,,,og-post,,,,AAXX 27214 07314 32966 31612 10097 20078 30248 40276 58005 83030 222// 328// 333 92437=
07314,1999-11-28 00:00:00,8.6,1026.2,-1.4,83,5.9,,22.224,,,150,,,,,,,,,,,og-post,,,,AAXX 28004 07314 36/// /1512 10086 20059 30234 40262 58014=
07314,1999-11-28 06:00:00,6.6,1023.5,-1.4,97,6.2,,18.52,,,140,6.6,12,,,,,,,,,og-post,,,,AAXX 28064 07314 36/// /1410 10066 20062 30206 40235 56014 333 10120 20066=
07314,1999-11-28 09:00:00,9.1,1023.2,-0.2,92,7.9,12000,25.928,,,150,,,,,,,,,,,og-post,,,,AAXX 28094 07314 32962 71514 10091 20079 30204 40232 55002 80001 222// 328// 333 92437=
07314,1999-11-28 12:00:00,12.6,1021.9,-1.3,66,6.4,18000,25.928,,,160,,,,,,,,,,,og-post,,,,AAXX 28124 07314 42968 61614 10126 20064 30191 40219 58013 80001 222// 328// 333 92430=
07314,1999-11-28 15:00:00,13,1020.6,-1.3,66,6.8,16000,14.816,,,140,,,,,,,,,,,og-post,,,,AAXX 28154 07314 32866 11408 10130 20068 30178 40206 57013 83031 222// 328// 333 92437=
07314,1999-11-28 18:00:00,10.5,1020.2,-0.4,85,8.1,16000,18.52,,,140,6,13.6,,,,,,,,,og-post,,,,AAXX 28184 07314 32866 71410 10105 20081 30174 40202 58004 83031 222// 328// 333 10136 20060 92437=
07314,1999-11-28 21:00:00,11.2,1020.2,-0,83,8.4,17000,31.484,,,160,,,,,,,,,,,og-post,,,,AAXX 28214 07314 32867 71617 10112 20084 30174 40202 55000 84031 222// 328// 333 92437=
07314,1999-11-29 00:00:00,9.7,1019.8,-0.4,84,7.1,,22.224,,,150,,,,,,,,,,,og-post,,,,AAXX 29004 07314 36/// /1512 10097 20071 30170 40198 56004=
07314,1999-11-29 03:00:00,9.2,1019.7,-0.1,84,6.6,,22.224,,,150,,,,,,,,,,,og-post,,,,AAXX 29034 07314 36/// /1512 10092 20066 30169 40197 55001=
07314,1999-11-29 06:00:00,8.2,1020.9,1.2,89,6.5,,14.816,,,140,8.2,11.2,,,,,,,,,og-post,,,,AAXX 29064 07314 36/// /1408 10082 20065 30181 40209 53012 333 10112 20082=
07314,1999-11-29 09:00:00,9.4,1022.3,1.4,87,7.3,17000,22.224,,,150,,,,,,,,,,,og-post,,,,AAXX 29094 07314 32867 71512 10094 20073 30195 40223 53014 83032 222// 328// 333 92437=
07314,1999-11-29 12:00:00,12.6,1023.3,1,73,7.9,17000,29.632,,,170,,,,,,,,,,,og-post,,,,AAXX 29124 07314 32967 71716 10126 20079 30205 40233 51010 80002 222// 328// 333 92437=
07314,1999-11-29 14:00:00,13.2,1023.8,0.5,66,7,,18.52,,,150,,,,,,,,,,,og-post,,,,AAXX 29144 07314 46/// /1510 10132 20070 30210 40238 53005=
07314,1999-11-29 15:00:00,12.7,1024,0.7,74,8.2,17000,11.112,,,120,,,,,,,,,,,og-post,,,,AAXX 29154 07314 32967 71206 10127 20082 30212 40240 53007 80002 222// 328// 333 92437=
07314,1999-11-29 16:00:00,11.4,1024.6,1.2,80,8.1,,14.816,,,130,,,,,,,,,,,og-post,,,,AAXX 29164 07314 46/// /1308 10114 20081 30218 40246 53012=
07314,1999-11-29 17:00:00,10.2,1025.6,1.8,85,7.8,,14.816,,,130,,,,,,,,,,,og-post,,,,AAXX 29174 07314 46/// /1308 10102 20078 30228 40256 53018=
07314,1999-11-29 18:00:00,9.4,1026.4,2.4,87,7.3,7000,11.112,,,140,8.3,13.8,,,,,,,,,og-post,,,,AAXX 29184 07314 32957 71406 10094 20073 30236 40264 53024 80002 222// 328// 333 10138 20083 92437=
07314,1999-11-29 19:00:00,9.1,1027.2,2.6,90,7.5,,11.112,,,120,,,,,,,,,,,og-post,,,,AAXX 29194 07314 36/// /1206 10091 20075 30244 40272 51026=
07314,1999-11-29 20:00:00,8.9,1027.8,2.2,90,7.4,,14.816,,,130,,,,,,,,,,,og-post,,,,AAXX 29204 07314 36/// /1308 10089 20074 30250 40278 51022=
07314,1999-11-29 21:00:00,8.6,1028.3,1.9,91,7.2,17000,7.408,,,110,,,,,,,,,,,og-post,,,,AAXX 29214 07314 32967 71104 10086 20072 30255 40283 51019 80002 222// 328// 333 92437=
07314,1999-11-29 22:00:00,8.6,1028.3,1.1,93,7.5,,14.816,,,130,,,,,,,,,,,og-post,,,,AAXX 29224 07314 36/// /1308 10086 20075 30255 40283 51011=
07314,1999-11-29 23:00:00,8.2,1028.9,1,93,7.1,,14.816,,,130,,,,,,,,,,,og-post,,,,AAXX 29234 07314 36/// /1308 10082 20071 30260 40289 52010=
07314,1999-11-30 00:00:00,8.6,1029.6,1.2,93,7.5,,7.408,,,90,,,,,,,,,,,og-post,,,,AAXX 30004 07314 36/// /0904 10086 20075 30267 40296 53012=
07314,1999-11-30 01:00:00,8.3,1029.5,1.1,94,7.4,,11.112,,,90,,,,,,,,,,,og-post,,,,AAXX 30014 07314 36/// /0906 10083 20074 30266 40295 50011=
07314,1999-11-30 02:00:00,8.1,1029.7,0.8,94,7.2,,7.408,,,100,,,,,,,,,,,og-post,,,,AAXX 30024 07314 36/// /1004 10081 20072 30268 40297 51008=
07314,1999-11-30 03:00:00,7.4,1029.8,0.2,95,6.7,,11.112,,,110,,,,,,,,,,,og-post,,,,AAXX 30034 07314 36/// /1106 10074 20067 30269 40298 53002=
07314,1999-11-30 04:00:00,6.8,1030,0.5,95,6.1,,11.112,,,100,,,,,,,,,,,og-post,,,,AAXX 30044 07314 36/// /1006 10068 20061 30271 40300 52005=
07314,1999-11-30 06:00:00,5.9,1030.1,0.3,95,5.2,17000,18.52,,,130,5.9,9.4,,0.2,,0.2,,,,,og-post,,,,AAXX 30064 07314 /2967 01310 10059 20052 30272 40301 53003 69922 222// 328// 333 10094 20059 69927 92437=
07314,1999-11-30 07:00:00,6.5,1030.8,0.8,95,5.8,,7.408,,,100,,,,,,,,,,,og-post,,,,AAXX 30074 07314 36/// /1004 10065 20058 30279 40308 53008=
07314,1999-11-30 08:00:00,7.4,1031.4,1.8,95,6.7,,7.408,,,90,,,,,,,,,,,og-post,,,,AAXX 30084 07314 36/// /0904 10074 20067 30285 40314 53018=
07314,1999-11-30 09:00:00,9.1,1032.1,2,91,7.7,14000,7.408,,,110,,,,,,,,,,,og-post,,,,AAXX 30094 07314 32964 11104 10091 20077 30292 40321 52020 80001 222// 328// 333 92437=
07314,1999-11-30 10:00:00,10.5,1032.1,1.4,84,7.9,,7.408,,,120,,,,,,,,,,,og-post,,,,AAXX 30104 07314 36/// /1204 10105 20079 30293 40321 51014=
07314,1999-11-30 11:00:00,12.5,1032,0.7,77,8.6,,3.704,,,180,,,,,,,,,,,og-post,,,,AAXX 30114 07314 36/// /1802 10125 20086 30292 40320 50007=
07314,1999-11-30 12:00:00,11.7,1031.4,-0.6,80,8.4,14000,7.408,,,210,,,,,,,,,,,og-post,,,,AAXX 30124 07314 32964 22104 10117 20084 30286 40314 58006 80001 222// 328// 333 92437=
07314,1999-11-30 15:00:00,11.6,1030.6,-0.8,86,9.3,14000,3.704,,,320,,,,,,,,,,,og-post,,,,AAXX 30154 07314 32964 23202 10116 20093 30278 40306 56008 80001 222// 328// 333 92437=
07314,1999-11-30 16:00:00,10.7,1030.7,-0.2,90,9.1,,3.704,,,360,,,,,,,,,,,og-post,,,,AAXX 30164 07314 36/// /3602 10107 20091 30279 40307 55002=
07314,1999-11-30 17:00:00,9.8,1031.1,0.5,95,9,,3.704,,,350,,,,,,,,,,,og-post,,,,AAXX 30174 07314 36/// /3502 10098 20090 30283 40311 53005=
07314,1999-11-30 18:00:00,9.4,1031.3,0.7,97,8.9,14000,3.704,,,360,5.8,12.5,,,,,,,,,og-post,,,,AAXX 30184 07314 32964 13602 10094 20089 30285 40313 53007 80001 222// 328// 333 10125 20058 92437=
07314,1999-11-30 20:00:00,9.1,1031.8,0.6,97,8.6,,3.704,,,330,,,,,,,,,,,og-post,,,,AAXX 30204 07314 36/// /3302 10091 20086 30289 40318 52006=
07314,1999-11-30 21:00:00,9.6,1031.9,0.6,98,9.3,,3.704,,,330,,,,,,,,,,,og-post,,,,AAXX 30214 07314 36/// /3302 10096 20093 30291 40319 52006=
07314,1999-11-30 22:00:00,9.5,1031.7,0.2,98,9.2,,3.704,,,320,,,,,,,,,,,og-post,,,,AAXX 30224 07314 36/// /3202 10095 20092 30289 40317 50002=
07314,1999-11-30 23:00:00,9.6,1031.8,0.1,98,9.3,,,,,,,,,,,,,,,,og-post,,,,AAXX 30234 07314 36/// /0000 10096 20093 30290 40318 51001=
07314,1999-12-01 00:00:00,8.5,1031.7,-0.3,98,8.2,,3.704,,,180,,,,0.2,0.2,,,,,,og-post,,,,AAXX 01004 07314 /6/// /1802 10085 20082 30288 40317 57003 69921 333 69927=
07314,1999-12-01 01:00:00,8.3,1031.5,-0.3,99,8.2,,3.704,,,150,,,,,,,,,,,og-post,,,,AAXX 01014 07314 36/// /1502 10083 20082 30286 40315 58003=
07314,1999-12-01 02:00:00,8.1,1031.7,-0.2,99,8,,3.704,,,80,,,,,,,,,,,og-post,,,,AAXX 01024 07314 36/// /0802 10081 20080 30288 40317 55002=
07314,1999-12-01 03:00:00,9,1031.5,-0.2,99,8.9,,7.408,,,70,,,,,,,,,,,og-post,,,,AAXX 01034 07314 36/// /0704 10090 20089 30286 40315 57002=
07314,1999-12-01 04:00:00,9.1,1031.3,-0.2,99,9,,7.408,,,70,,,,,,,,,,,og-post,,,,AAXX 01044 07314 36/// /0704 10091 20090 30284 40313 58002=
07314,1999-12-01 05:00:00,8.3,1031.5,-0.2,99,8.2,,11.112,,,60,,,,,,,,,,,og-post,,,,AAXX 01054 07314 36/// /0606 10083 20082 30286 40315 55002=
07314,1999-12-01 06:00:00,8.2,1031.7,0.2,99,8.1,2000,7.408,,,60,7.5,10.1,,,,0.2,,,,10,og-post,,,,AAXX 01064 07314 11220 80604 10082 20081 30288 40317 53002 69922 71022 886// 222// 328// 333 10101 20075 92425=
07314,1999-12-01 07:00:00,7.7,1032.1,0.8,100,7.7,,7.408,,,50,,,,,,,,,,,og-post,,,,AAXX 01074 07314 36/// /0504 10077 20077 30292 40321 53008=
07314,1999-12-01 08:00:00,6.7,1032.4,0.9,99,6.6,,3.704,,,100,,,,,,,,,,,og-post,,,,AAXX 01084 07314 36/// /1002 10067 20066 30295 40324 53009=
07314,1999-12-01 09:00:00,8.3,1032.6,0.9,100,8.3,,7.408,,,100,,,,,,,,,,,og-post,,,,AAXX 01094 07314 36/// /1004 10083 20083 30297 40326 51009=
07314,1999-12-01 10:00:00,9.2,1032.8,0.7,100,9.2,,7.408,,,160,,,0.2,,,,,,,,og-post,,,,AAXX 01104 07314 26/// /1604 10092 20092 30299 40328 51007 333 69925=
07314,1999-12-01 12:00:00,10.7,1031.8,-0.7,89,9,14000,14.816,,,190,,,,0.2,0.2,,,,,1,og-post,,,,AAXX 01124 07314 /1264 61908 10107 20090 30290 40318 58007 69921 70142 86600 222// 328// 333 69927 92437=
07314,1999-12-01 13:00:00,10.8,1031.4,-1.3,86,8.6,,18.52,,,200,,,,,,,,,,,og-post,,,,AAXX 01134 07314 36/// /2010 10108 20086 30286 40314 58013=
07314,1999-12-01 15:00:00,11.3,1030.6,-1.2,85,8.9,17000,14.816,,,210,,,,,,,,,,,og-post,,,,AAXX 01154 07314 32667 72108 10113 20089 30278 40306 57012 875// 222// 328// 333 92427=
07314,1999-12-01 16:00:00,11.6,1030.7,-0.7,86,9.3,,14.816,,,230,,,,,,,,,,,og-post,,,,AAXX 01164 07314 36/// /2308 10116 20093 30279 40307 55007=
07314,1999-12-01 17:00:00,11.8,1030.7,-0.3,84,9.2,,14.816,,,240,,,,,,,,,,,og-post,,,,AAXX 01174 07314 36/// /2408 10118 20092 30279 40307 56003=
07314,1999-12-01 18:00:00,11.6,1031.1,0.5,90,10,15000,14.816,,,290,6.5,11.9,,,,0.2,,,,,og-post,,,,AAXX 01184 07314 12665 72908 10116 20100 30283 40311 53005 69922 875// 222// 328// 333 10119 20065 92427=
07314,1999-12-01 19:00:00,11.2,1031.3,0.6,93,10.1,,14.816,,,330,,,,,,,,,,,og-post,,,,AAXX 01194 07314 36/// /3308 10112 20101 30285 40313 53006=
07314,1999-12-01 20:00:00,10.9,1031.4,0.7,94,10,,7.408,,,320,,,,,,,,,,,og-post,,,,AAXX 01204 07314 36/// /3204 10109 20100 30286 40314 51007=
07314,1999-12-01 21:00:00,11.2,1031.5,0.4,94,10.3,,7.408,,,230,,,,,,,,,,,og-post,,,,AAXX 01214 07314 36/// /2304 10112 20103 30287 40315 51004=
07314,1999-12-01 22:00:00,10.7,1031.2,-0.1,94,9.8,,11.112,,,150,,,,,,,,,,,og-post,,,,AAXX 01224 07314 36/// /1506 10107 20098 30284 40312 58001=
07314,1999-12-01 23:00:00,11.2,1031.3,-0.1,94,10.3,,11.112,,,200,,,,,,,,,,,og-post,,,,AAXX 01234 07314 36/// /2006 10112 20103 30285 40313 57001=
07314,1999-12-02 00:00:00,11.7,1031.2,-0.3,87,9.6,,14.816,,,270,,,,,,,,,,,og-post,,,,AAXX 02004 07314 36/// /2708 10117 20096 30284 40312 56003=
07314,1999-12-02 01:00:00,11.3,1031,-0.2,88,9.4,,11.112,,,250,,,,,,,,,,,og-post,,,,AAXX 02014 07314 36/// /2506 10113 20094 30282 40310 58002=
07314,1999-12-02 02:00:00,11.7,1030.9,-0.4,91,10.3,,11.112,,,270,,,,,,,,,,,og-post,,,,AAXX 02024 07314 36/// /2706 10117 20103 30281 40309 57004=
07314,1999-12-02 06:00:00,11.7,1031.1,0.2,92,10.4,18000,14.816,,,280,10.6,11.8,,,,,,,,,og-post,,,,AAXX 02064 07314 32668 62808 10117 20104 30283 40311 53002 83530 222// 328// 333 10118 20106 92437=
07314,1999-12-02 09:00:00,12.3,1032.3,1.2,94,11.4,9000,11.112,,,260,,,,,,,,,,,og-post,,,,AAXX 02094 07314 32559 52606 10123 20114 30295 40323 51012 82530 222// 328// 333 92438=
07314,1999-12-02 12:00:00,12.6,1032,-0.3,92,11.3,16000,11.112,,,220,,,,,,,,,,,og-post,,,,AAXX 02124 07314 32566 72206 10126 20113 30292 40320 58003 815// 222// 328// 333 92438=
07314,1999-12-02 13:00:00,12.4,1031.5,-1,94,11.5,,14.816,,,260,,,,,,,,,,,og-post,,,,AAXX 02134 07314 36/// /2608 10124 20115 30287 40315 58010=
07314,1999-12-02 14:00:00,11.9,1031.3,-1.1,97,11.4,,18.52,,,230,,,0.2,,,,,,,,og-post,,,,AAXX 02144 07314 26/// /2310 10119 20114 30285 40313 56011 333 69925=
07314,1999-12-02 15:00:00,12.1,1031.3,-0.7,96,11.5,,14.816,,,240,,,,0.2,,,,,,,og-post,,,,AAXX 02154 07314 26/// /2408 10121 20115 30285 40313 56007 333 69927=
07314,1999-12-02 16:00:00,11.8,1031.2,-0.3,98,11.5,,14.816,,,220,,,,,,,,,,,og-post,,,,AAXX 02164 07314 36/// /2208 10118 20115 30284 40312 56003=
07314,1999-12-02 17:00:00,11.8,1031.2,-0.1,98,11.5,,7.408,,,270,,,,,,,,,,,og-post,,,,AAXX 02174 07314 36/// /2704 10118 20115 30284 40312 57001=
07314,1999-12-02 18:00:00,11.3,1031.3,-0,99,11.1,8000,,,,,11.3,13,,0.2,,0.4,,,,,og-post,,,,AAXX 02184 07314 /2558 70000 10113 20111 30285 40313 55000 69942 835// 222// 328// 333 10130 20113 69927 92436=
07314,1999-12-02 19:00:00,9.9,1031.2,0,99,9.7,,7.408,,,130,,,,,,,,,,,og-post,,,,AAXX 02194 07314 36/// /1304 10099 20097 30284 40312 50000=
07314,1999-12-02 20:00:00,10.3,1030.7,-0.5,99,10.1,,14.816,,,150,,,,,,,,,,,og-post,,,,AAXX 02204 07314 36/// /1508 10103 20101 30279 40307 58005=
07314,1999-12-02 21:00:00,11.3,1030.4,-0.9,99,11.1,16000,22.224,,,170,,,,,,,,,,,og-post,,,,AAXX 02214 07314 32566 71712 10113 20111 30276 40304 58009 815// 222// 328// 333 92437=
07314,1999-12-02 22:00:00,11.2,1029.9,-1.3,99,11,,18.52,,,180,,,,,,,,,,,og-post,,,,AAXX 02224 07314 36/// /1810 10112 20110 30271 40299 57013=
07314,1999-12-02 23:00:00,11.8,1029.5,-1.2,99,11.6,,22.224,,,210,,,,,,,,,,,og-post,,,,AAXX 02234 07314 36/// /2112 10118 20116 30267 40295 58012=
07314,1999-12-03 00:00:00,12,1029,-1.4,95,11.2,,18.52,,,250,,,,,,,,,,,og-post,,,,AAXX 03004 07314 36/// /2510 10120 20112 30262 40290 57014=
07314,1999-12-03 01:00:00,12.2,1028.2,-1.7,95,11.4,,11.112,,,240,,,,,,,,,,,og-post,,,,AAXX 03014 07314 36/// /2406 10122 20114 30254 40282 58017=
07314,1999-12-03 02:00:00,12.2,1027.9,-1.6,86,9.9,,11.112,,,210,,,,,,,,,,,og-post,,,,AAXX 03024 07314 36/// /2106 10122 20099 30251 40279 56016=
07314,1999-12-03 03:00:00,12.3,1027.4,-1.6,89,10.5,,14.816,,,190,,,,,,,,,,,og-post,,,,AAXX 03034 07314 36/// /1908 10123 20105 30246 40274 56016=
07314,1999-12-03 04:00:00,12.3,1026.5,-1.7,84,9.7,,18.52,,,190,,,,,,,,,,,og-post,,,,AAXX 03044 07314 36/// /1910 10123 20097 30237 40265 58017=
07314,1999-12-03 05:00:00,10.9,1025.7,-2.2,92,9.7,,22.224,,,160,,,,,,,,,,,og-post,,,,AAXX 03054 07314 36/// /1612 10109 20097 30229 40257 58022=
07314,1999-12-03 06:00:00,10.2,1025.5,-1.9,97,9.7,18000,18.52,,,170,9.9,12.4,,,,,,,,,og-post,,,,AAXX 03064 07314 32568 51710 10102 20097 30227 40255 56019 8112/ 222// 328// 333 10124 20099 92437=
07314,1999-12-03 07:00:00,10,1025.6,-0.9,97,9.5,,14.816,,,180,,,,,,,,,,,og-post,,,,AAXX 03074 07314 36/// /1808 10100 20095 30228 40256 55009=
07314,1999-12-03 08:00:00,11.1,1025.3,-0.4,93,10,,18.52,,,190,,,,,,,,,,,og-post,,,,AAXX 03084 07314 36/// /1910 10111 20100 30225 40253 58004=
07314,1999-12-03 09:00:00,12,1025.1,-0.4,80,8.7,18000,25.928,,,200,,,,,,,,,,,og-post,,,,AAXX 03094 07314 32568 72014 10120 20087 30223 40251 58004 86201 222// 328// 333 92437=
07314,1999-12-03 10:00:00,12.1,1025,-0.6,80,8.8,,29.632,,,200,,,,,,,,,,,og-post,,,,AAXX 03104 07314 36/// /2016 10121 20088 30222 40250 56006=
07314,1999-12-03 11:00:00,12,1024.5,-0.8,78,8.3,,29.632,,,210,,,,,,,,,,,og-post,,,,AAXX 03114 07314 36/// /2116 10120 20083 30217 40245 58008=
07314,1999-12-03 12:00:00,11.9,1024,-1.1,81,8.7,18000,25.928,,,210,,,,,,,,,,,og-post,,,,AAXX 03124 07314 32568 82114 10119 20087 30212 40240 58011 885// 222// 328// 333 9237=
07314,1999-12-03 13:00:00,12.2,1023.2,-1.8,78,8.5,,25.928,,,230,,,,,,,,,,,og-post,,,,AAXX 03134 07314 36/// /2314 10122 20085 30204 40232 58018=
07314,1999-12-03 14:00:00,12.4,1022.8,-1.7,78,8.7,,25.928,,,230,,,,,,,,,,,og-post,,,,AAXX 03144 07314 36/// /2314 10124 20087 30200 40228 56017=
07314,1999-12-03 15:00:00,12.5,1022.5,-1.5,78,8.8,18000,22.224,,,230,,,,,,,,,,,og-post,,,,AAXX 03154 07314 32568 82312 10125 20088 30197 40225 56015 885// 222// 328// 333 92437=
07314,1999-12-03 16:00:00,12.5,1022.6,-0.6,80,9.1,,25.928,,,230,,,,,,,,,,,og-post,,,,AAXX 03164 07314 36/// /2314 10125 20091 30198 40226 55006=
07314,1999-12-03 17:00:00,12.5,1022.6,-0.2,83,9.7,,25.928,,,230,,,,,,,,,,,og-post,,,,AAXX 03174 07314 36/// /2314 10125 20097 30198 40226 56002=
07314,1999-12-03 18:00:00,12.7,1022.5,0,84,10.1,18000,22.224,,,230,9.8,12.7,,,,,,,,,og-post,,,,AAXX 03184 07314 32568 82312 10127 20101 30197 40225 50000 885// 222// 328// 333 10127 20098 92437=
07314,1999-12-03 20:00:00,12.7,1022.6,-0,89,10.9,,22.224,,,240,,,,,,,,,,,og-post,,,,AAXX 03204 07314 36/// /2412 10127 20109 30198 40226 54000=
07314,1999-12-03 21:00:00,12.5,1022.7,0.2,90,10.9,18000,18.52,,,250,,,,,,,,,,,og-post,,,,AAXX 03214 07314 32868 52510 10125 20109 30199 40227 51002 8503/ 222// 328// 333 92437=
07314,1999-12-03 22:00:00,12.7,1022.4,-0.3,80,9.3,,25.928,,,270,,,,,,,,,,,og-post,,,,AAXX 03224 07314 36/// /2714 10127 20093 30196 40224 58003=
07314,1999-12-03 23:00:00,13.2,1021.9,-0.7,81,10,,29.632,,,230,,,,,,,,,,,og-post,,,,AAXX 03234 07314 36/// /2316 10132 20100 30191 40219 58007=
07314,1999-12-04 00:00:00,13.3,1021.3,-1.4,78,9.5,,29.632,,,220,,,,,,,,,,,og-post,,,,AAXX 04004 07314 36/// /2216 10133 20095 30185 40213 58014=
07314,1999-12-04 01:00:00,13.3,1020.7,-1.7,82,10.3,,29.632,,,230,,,,,,,,,,,og-post,,,,AAXX 04014 07314 36/// /2316 10133 20103 30179 40207 58017=
07314,1999-12-04 02:00:00,12.4,1020.5,-1.4,94,11.5,,29.632,50.004,,240,,,0.2,,,,,,,,og-post,,,,AAXX 04024 07314 26/// /2416 10124 20115 30177 40205 56014 333 69925 91127=
07314,1999-12-04 03:00:00,12.6,1019.7,-1.6,92,11.3,,31.484,,,230,,,,0.8,,,,,,,og-post,,,,AAXX 04034 07314 26/// /2317 10126 20113 30169 40197 58016 333 69987=
07314,1999-12-04 04:00:00,12.2,1018.9,-1.8,93,11.1,,35.188,,,220,,,,,,,,,,,og-post,,,,AAXX 04044 07314 36/// /2219 10122 20111 30161 40189 58018=
07314,1999-12-04 05:00:00,11.3,1018.3,-2.2,94,10.4,,35.188,53.708,,240,,,1,,,,,,,,og-post,,,,AAXX 04054 07314 26/// /2419 10113 20104 30155 40183 56022 333 60015 91129=
07314,1999-12-04 06:00:00,12.4,1018.1,-1.6,95,11.6,20000,29.632,,,240,11.2,13.3,,1,,2,,,,2,og-post,,,,AAXX 04064 07314 /1570 82416 10124 20116 30153 40181 56016 60022 70282 885// 222// 328// 333 10133 20112 60017 92448=
07314,1999-12-04 07:00:00,11.5,1017.9,-1,94,10.6,,38.892,53.708,,260,,,,,,,,,,,og-post,,,,AAXX 04074 07314 36/// /2621 10115 20106 30151 40179 56010 333 91129=
07314,1999-12-04 08:00:00,12.7,1017.9,-0.4,86,10.4,,31.484,61.116,,240,,,,,,,,,,,og-post,,,,AAXX 04084 07314 36/// /2417 10127 20104 30151 40179 56004 333 91133=
07314,1999-12-04 09:00:00,12,1018,-0.1,94,11.1,10000,35.188,61.116,,260,,,,1,,,,,,61,og-post,,,,AAXX 04094 07314 21660 82619 10120 20111 30152 40180 55001 76186 8802/ 222// 328// 333 60017 91133 92447=
07314,1999-12-04 10:00:00,12.3,1018.3,0.4,94,11.4,,35.188,,,260,,,0.2,,,,,,,,og-post,,,,AAXX 04104 07314 26/// /2619 10123 20114 30155 40183 53004 333 69925=
07314,1999-12-04 11:00:00,10.2,1019.3,1.4,97,9.7,,22.224,,,330,,,0.8,,,,,,,,og-post,,,,AAXX 04114 07314 26/// /3312 10102 20097 30165 40193 53014 333 69985=
07314,1999-12-04 13:00:00,11,1019.2,0.9,85,8.6,,25.928,,,310,,,,,,,,,,,og-post,,,,AAXX 04134 07314 36/// /3114 10110 20086 30164 40192 51009=
07314,1999-12-04 14:00:00,11.1,1019,-0.3,83,8.3,,25.928,,,320,,,,,,,,,,,og-post,,,,AAXX 04144 07314 36/// /3214 10111 20083 30162 40190 57003=
07314,1999-12-04 15:00:00,11.1,1019.4,0.3,79,7.6,20000,31.484,,,320,,,,,,,,,,,og-post,,,,AAXX 04154 07314 32570 73217 10111 20076 30166 40194 53003 878// 222// 328// 333 92448=
07314,1999-12-04 16:00:00,10.9,1019.8,0.6,83,8.1,,29.632,,,320,,,,,,,,,,,og-post,,,,AAXX 04164 07314 36/// /3216 10109 20081 30170 40198 53006=
07314,1999-12-04 17:00:00,10.9,1020.3,1.3,75,6.6,,29.632,,,320,,,,,,,,,,,og-post,,,,AAXX 04174 07314 36/// /3216 10109 20066 30175 40203 53013=
07314,1999-12-04 18:00:00,10.8,1021.1,1.7,77,6.9,20000,29.632,,,320,10,12.8,,,,2,,,,,og-post,,,,AAXX 04184 07314 12570 73216 10108 20069 30183 40211 53017 60022 8683/ 222// 328// 333 10128 20100 92448=
07314,1999-12-04 19:00:00,10.7,1021.8,2,77,6.8,,29.632,,,330,,,,,,,,,,,og-post,,,,AAXX 04194 07314 36/// /3316 10107 20068 30190 40218 53020=
07314,1999-12-04 20:00:00,10.2,1022.6,2.3,78,6.5,,25.928,,,340,,,,,,,,,,,og-post,,,,AAXX 04204 07314 36/// /3414 10102 20065 30198 40226 52023=
07314,1999-12-04 21:00:00,9.7,1023.4,2.3,76,5.7,25000,29.632,,,330,,,,,,,,,,,og-post,,,,AAXX 04214 07314 32975 23316 10097 20057 30206 40234 53023 82030 222// 328// 333 92448=
07314,1999-12-04 22:00:00,9.2,1024.2,2.4,77,5.4,,31.484,,,330,,,,,,,,,,,og-post,,,,AAXX 04224 07314 36/// /3317 10092 20054 30214 40242 52024=
07314,1999-12-04 23:00:00,9.2,1024.6,2,76,5.2,,29.632,,,340,,,,,,,,,,,og-post,,,,AAXX 04234 07314 36/// /3416 10092 20052 30218 40246 51020=
07314,1999-12-05 00:00:00,9,1025.3,1.9,72,4.2,,29.632,,,330,,,,,,,,,,,og-post,,,,AAXX 05004 07314 36/// /3316 10090 20042 30225 40253 51019=
07314,1999-12-05 01:00:00,9.2,1025.7,1.5,74,4.8,,29.632,,,330,,,,,,,,,,,og-post,,,,AAXX 05014 07314 36/// /3316 10092 20048 30229 40257 52015=
07314,1999-12-05 02:00:00,9,1026.1,1.5,71,4,,29.632,,,330,,,,,,,,,,,og-post,,,,AAXX 05024 07314 36/// /3316 10090 20040 30233 40261 51015=
07314,1999-12-05 03:00:00,8.8,1026.7,1.4,74,4.4,,25.928,,,340,,,,,,,,,,,og-post,,,,AAXX 05034 07314 36/// /3414 10088 20044 30239 40267 53014=
07314,1999-12-05 04:00:00,8.7,1027.2,1.5,72,3.9,,25.928,,,330,,,,,,,,,,,og-post,,,,AAXX 05044 07314 36/// /3314 10087 20039 30244 40272 53015=
07314,1999-12-05 05:00:00,8.5,1027.5,1.3,70,3.4,,25.928,,,350,,,,,,,,,,,og-post,,,,AAXX 05054 07314 36/// /3514 10085 20034 30246 40275 51013=
07314,1999-12-05 06:00:00,8.5,1028.3,1.5,71,3.6,25000,25.928,,,340,8.5,10.9,,,,,,,,,og-post,,,,AAXX 05064 07314 32975 03414 10085 20036 30254 40283 53015 222// 328// 333 10109 20085 92448=
07314,1999-12-05 07:00:00,8.1,1029,1.7,76,4.1,,25.928,,,350,,,,,,,,,,,og-post,,,,AAXX 05074 07314 36/// /3514 10081 20041 30261 40290 53017=
07314,1999-12-05 08:00:00,7.7,1029.6,2.1,78,4.1,,14.816,,,350,,,,,,,,,,,og-post,,,,AAXX 05084 07314 36/// /3508 10077 20041 30267 40296 51021=
07314,1999-12-05 09:00:00,7.8,1030.5,2.2,78,4.2,22000,11.112,,,20,,,,,,,,,,,og-post,,,,AAXX 05094 07314 32972 20206 10078 20042 30276 40305 53022 80001 222// 328// 333 92438=
07314,1999-12-05 10:00:00,8.6,1031.3,2.3,76,4.6,,11.112,,,10,,,,,,,,,,,og-post,,,,AAXX 05104 07314 36/// /0106 10086 20046 30284 40313 53023=
07314,1999-12-05 11:00:00,9.5,1031.6,2,73,4.9,,3.704,,,20,,,,,,,,,,,og-post,,,,AAXX 05114 07314 36/// /0202 10095 20049 30287 40316 51020=
07314,1999-12-05 12:00:00,9.8,1031.5,1.1,69,4.4,25000,7.408,,,340,,,,,,,,,,,og-post,,,,AAXX 05124 07314 32975 23404 10098 20044 30287 40315 51011 80001 222// 328// 333 92438=
07314,1999-12-05 14:00:00,10.3,1031.2,-0.3,62,3.3,,3.704,,,360,,,,,,,,,,,og-post,,,,AAXX 05144 07314 36/// /3602 10103 20033 30284 40312 57003=
07314,1999-12-05 15:00:00,9.8,1031.7,0.1,61,2.6,25000,3.704,,,300,,,,,,,,,,,og-post,,,,AAXX 05154 07314 32975 43002 10098 20026 30288 40317 53001 80004 222// 328// 333 92438=
07314,1999-12-05 16:00:00,8.7,1031.9,0.6,64,2.3,,3.704,,,300,,,,,,,,,,,og-post,,,,AAXX 05164 07314 36/// /3002 10087 20023 30290 40319 53006=
07314,1999-12-05 17:00:00,7,1032.2,0.9,73,2.5,,,,,,,,,,,,,,,,og-post,,,,AAXX 05174 07314 36/// /0000 10070 20025 30293 40322 51009=
07314,1999-12-05 18:00:00,6.6,1032.1,0.4,73,2.1,25000,,,,,6.6,10.4,,,,,,,,,og-post,,,,AAXX 05184 07314 32975 40000 10066 20021 30292 40321 50004 80002 222// 328// 333 10104 20066 92438=
07314,1999-12-05 19:00:00,6.5,1032.9,1,75,2.4,,,,,,,,,,,,,,,,og-post,,,,AAXX 05194 07314 36/// /0000 10065 20024 30300 40329 53010=
07314,1999-12-05 20:00:00,6.9,1033.1,0.9,74,2.6,,,,,,,,,,,,,,,,og-post,,,,AAXX 05204 07314 36/// /0000 10069 20026 30302 40331 53009=
07314,1999-12-05 21:00:00,5.9,1033.4,1.3,78,2.4,25000,,,,,,,,,,,,,,,og-post,,,,AAXX 05214 07314 32975 40000 10059 20024 30305 40334 51013 80002 222// 328// 333 92438=
07314,1999-12-05 22:00:00,5.7,1033.2,0.3,79,2.4,,3.704,,,140,,,,,,,,,,,og-post,,,,AAXX 05224 07314 36/// /1402 10057 20024 30303 40332 50003=
07314,1999-12-05 23:00:00,4.7,1033.5,0.4,84,2.2,,7.408,,,150,,,,,,,,,,,og-post,,,,AAXX 05234 07314 36/// /1504 10047 20022 30306 40335 52004=
07314,1999-12-06 00:00:00,4.7,1033.1,-0.3,85,2.4,,14.816,,,150,,,,,,,,,,,og-post,,,,AAXX 06004 07314 36/// /1508 10047 20024 30302 40331 58003=
07314,1999-12-06 01:00:00,5.1,1033.1,-0.1,85,2.8,,11.112,,,140,,,,,,,,,,,og-post,,,,AAXX 06014 07314 36/// /1406 10051 20028 30302 40331 58001=
07314,1999-12-06 02:00:00,4.8,1032.5,-1,89,3.1,,14.816,,,150,,,,,,,,,,,og-post,,,,AAXX 06024 07314 36/// /1508 10048 20031 30296 40325 58010=
07314,1999-12-06 03:00:00,8.9,1031.9,-1.2,83,6.2,,18.52,,,180,,,,,,,,,,,og-post,,,,AAXX 06034 07314 36/// /1810 10089 20062 30290 40319 58012=
07314,1999-12-06 05:00:00,9.7,1031.2,-1.2,78,6.1,,22.224,,,180,,,,,,,,,,,og-post,,,,AAXX 06054 07314 36/// /1812 10097 20061 30284 40312 56012=
07314,1999-12-06 06:00:00,9.9,1031.2,-0.6,76,5.9,20000,22.224,,,180,4.7,10,,,,,,,,,og-post,,,,AAXX 06064 07314 32970 21812 10099 20059 30284 40312 56006 82030 222// 328// 333 10100 20047 92438=
07314,1999-12-06 07:00:00,9.7,1031.1,-0.4,79,6.2,,25.928,,,180,,,,,,,,,,,og-post,,,,AAXX 06074 07314 36/// /1814 10097 20062 30283 40311 56004=
07314,1999-12-06 08:00:00,9.7,1031.1,-0.1,80,6.4,,22.224,,,180,,,,,,,,,,,og-post,,,,AAXX 06084 07314 36/// /1812 10097 20064 30283 40311 57001=
07314,1999-12-06 09:00:00,9.9,1031.1,-0.1,80,6.6,18000,29.632,,,170,,,,,,,,,,,og-post,,,,AAXX 06094 07314 32768 71716 10099 20066 30283 40311 56001 85501 222// 328// 333 92438=
07314,1999-12-06 11:00:00,10.1,1030.8,-0.3,80,6.8,,31.484,,,180,,,,,,,,,,,og-post,,,,AAXX 06114 07314 36/// /1817 10101 20068 30280 40308 58003=
07314,1999-12-06 12:00:00,10.5,1030.3,-0.8,73,5.9,18000,29.632,,,180,,,,,,,,,,,og-post,,,,AAXX 06124 07314 32768 71816 10105 20059 30275 40303 58008 87500 222// 328// 333 92437=
07314,1999-12-06 13:00:00,10.4,1029.7,-1.3,74,6,,29.632,,,180,,,,,,,,,,,og-post,,,,AAXX 06134 07314 36/// /1816 10104 20060 30269 40297 58013=
07314,1999-12-06 14:00:00,10.5,1029.5,-1.3,73,5.9,,22.224,,,180,,,,,,,,,,,og-post,,,,AAXX 06144 07314 36/// /1812 10105 20059 30267 40295 56013=
07314,1999-12-06 15:00:00,10.3,1029.2,-1.1,71,5.3,18000,18.52,,,190,,,,,,,,,,,og-post,,,,AAXX 06154 07314 32768 31910 10103 20053 30264 40292 56011 82501 222// 328// 333 92437=
07314,1999-12-06 16:00:00,9.7,1028.7,-1,72,4.9,,22.224,,,170,,,,,,,,,,,og-post,,,,AAXX 06164 07314 36/// /1712 10097 20049 30259 40287 58010=
07314,1999-12-06 17:00:00,7,1028.6,-1,78,3.4,,11.112,,,150,,,,,,,,,,,og-post,,,,AAXX 06174 07314 36/// /1506 10070 20034 30257 40286 56010=
07314,1999-12-06 18:00:00,5.7,1029.1,-0.2,82,2.9,18000,11.112,,,140,5.7,10.7,,,,,,,,,og-post,,,,AAXX 06184 07314 32968 11406 10057 20029 30262 40291 55002 81030 222// 328// 333 10107 20057 92437=
07314,1999-12-06 19:00:00,5.1,1028.6,-0.2,84,2.6,,14.816,,,140,,,,,,,,,,,og-post,,,,AAXX 06194 07314 36/// /1408 10051 20026 30257 40286 58002=
07314,1999-12-06 20:00:00,4.6,1028.3,-0.3,84,2.1,,14.816,,,140,,,,,,,,,,,og-post,,,,AAXX 06204 07314 36/// /1408 10046 20021 30254 40283 58003=
07314,1999-12-06 21:00:00,4.6,1028,-1.1,84,2.1,25000,18.52,,,150,,,,,,,,,,,og-post,,,,AAXX 06214 07314 32975 11510 10046 20021 30251 40280 56011 81030 222// 328// 333 92438=
07314,1999-12-06 22:00:00,4.2,1027.5,-1.1,88,2.4,,14.816,,,150,,,,,,,,,,,og-post,,,,AAXX 06224 07314 36/// /1508 10042 20024 30246 40275 58011=
07314,1999-12-06 23:00:00,4.3,1026.7,-1.6,89,2.7,,14.816,,,150,,,,,,,,,,,og-post,,,,AAXX 06234 07314 36/// /1508 10043 20027 30238 40267 58016=
07314,1999-12-07 00:00:00,6.9,1026.4,-1.6,90,5.4,,18.52,,,180,,,,,,,,,,,og-post,,,,AAXX 07004 07314 36/// /1810 10069 20054 30235 40264 56016=
07314,1999-12-07 01:00:00,5.5,1025.9,-1.6,88,3.7,,14.816,,,150,,,,,,,,,,,og-post,,,,AAXX 07014 07314 36/// /1508 10055 20037 30230 40259 56016=
07314,1999-12-07 02:00:00,4.5,1025.5,-1.2,90,3,,14.816,,,150,,,,,,,,,,,og-post,,,,AAXX 07024 07314 36/// /1508 10045 20030 30226 40255 58012=
07314,1999-12-07 03:00:00,4.2,1024.7,-1.7,93,3.2,,14.816,,,150,,,,,,,,,,,og-post,,,,AAXX 07034 07314 36/// /1508 10042 20032 30218 40247 58017=
07314,1999-12-07 04:00:00,4.7,1023.9,-2,95,4,,14.816,,,150,,,,,,,,,,,og-post,,,,AAXX 07044 07314 36/// /1508 10047 20040 30210 40239 58020=
07314,1999-12-07 05:00:00,11.1,1023.3,-2.1,80,7.8,,18.52,,,230,,,,,,,,,,,og-post,,,,AAXX 07054 07314 36/// /2310 10111 20078 30205 40233 56021=
07314,1999-12-07 06:00:00,11.7,1023.2,-1.4,75,7.4,20000,22.224,,,240,4.1,11.8,,,,,,,,,og-post,,,,AAXX 07064 07314 32570 72412 10117 20074 30204 40232 56014 83230 222// 328// 333 10118 20041 92438=
07314,1999-12-07 07:00:00,11.9,1023.2,-0.6,81,8.7,,25.928,,,230,,,,,,,,,,,og-post,,,,AAXX 07074 07314 36/// /2314 10119 20087 30204 40232 56006=
07314,1999-12-07 08:00:00,12,1023.4,0.1,83,9.2,,18.52,,,230,,,,,,,,,,,og-post,,,,AAXX 07084 07314 36/// /2310 10120 20092 30206 40234 53001=
07314,1999-12-07 09:00:00,12.3,1023.4,0.2,79,8.8,17000,25.928,,,250,,,,,,,,,,,og-post,,,,AAXX 07094 07314 32667 72514 10123 20088 30206 40234 52002 875// 222// 328// 333 92437=
07314,1999-12-07 10:00:00,12.5,1023.7,0.5,77,8.6,,22.224,,,250,,,,,,,,,,,og-post,,,,AAXX 07104 07314 36/// /2512 10125 20086 30209 40237 53005=
07314,1999-12-07 11:00:00,12.7,1023.4,0,80,9.3,,22.224,,,230,,,,,,,,,,,og-post,,,,AAXX 07114 07314 36/// /2312 10127 20093 30206 40234 50000=
07314,1999-12-07 12:00:00,12.8,1022.3,-1.1,80,9.4,18000,31.484,,,230,,,,,,,,,,,og-post,,,,AAXX 07124 07314 32668 82317 10128 20094 30195 40223 58011 885// 222// 328// 333 92437=
07314,1999-12-07 13:00:00,12.9,1022,-1.7,83,10.1,,31.484,,,230,,,,,,,,,,,og-post,,,,AAXX 07134 07314 36/// /2317 10129 20101 30192 40220 57017=
07314,1999-12-07 14:00:00,12.9,1021.2,-2.2,85,10.4,,35.188,,,230,,,,,,,,,,,og-post,,,,AAXX 07144 07314 36/// /2319 10129 20104 30184 40212 56022=
07314,1999-12-07 15:00:00,12.2,1021.5,-0.8,93,11.1,8000,38.892,57.412,,230,,,,,,,,,,81,og-post,,,,AAXX 07154 07314 21658 82321 10122 20111 30187 40215 55008 78122 887// 222// 328// 333 69907 91131 92436=
07314,1999-12-07 16:00:00,12.2,1021.2,-0.8,97,11.7,,31.484,,,230,,,0.2,,,,,,,,og-post,,,,AAXX 07164 07314 26/// /2317 10122 20117 30184 40212 56008 333 69925=
07314,1999-12-07 17:00:00,12.3,1021.5,0.3,98,12,,31.484,,,230,,,0.4,,,,,,,,og-post,,,,AAXX 07174 07314 26/// /2317 10123 20120 30187 40215 52003 333 69945=
07314,1999-12-07 18:00:00,12.1,1022.1,0.6,97,11.6,14000,22.224,57.412,,270,11.7,12.9,,1,,1,,,,25,og-post,,,,AAXX 07184 07314 /1664 82712 10121 20116 30193 40221 53006 60012 72582 887// 222// 328// 333 10129 20117 60017 91131 92437=
07314,1999-12-07 19:00:00,12,1022.5,1.3,94,11.1,,18.52,,,250,,,,,,,,,,,og-post,,,,AAXX 07194 07314 36/// /2510 10120 20111 30197 40225 53013=
07314,1999-12-07 20:00:00,11.9,1022.7,1.2,91,10.5,,18.52,,,230,,,,,,,,,,,og-post,,,,AAXX 07204 07314 36/// /2310 10119 20105 30199 40227 51012=
07314,1999-12-07 21:00:00,11.9,1022.9,0.8,93,10.8,,14.816,,,230,,,,,,,,,,,og-post,,,,AAXX 07214 07314 36/// /2308 10119 20108 30201 40229 51008=
07314,1999-12-07 22:00:00,11.8,1022.8,0.3,96,11.2,,18.52,,,210,,,,,,,,,,,og-post,,,,AAXX 07224 07314 36/// /2110 10118 20112 30200 40228 50003=
07314,1999-12-07 23:00:00,11.9,1022.6,-0.1,95,11.1,,18.52,,,210,,,,,,,,,,,og-post,,,,AAXX 07234 07314 36/// /2110 10119 20111 30198 40226 58001=
07314,1999-12-08 00:00:00,12,1022.4,-0.5,94,11.1,,18.52,,,220,,,,,,,,,,,og-post,,,,AAXX 08004 07314 36/// /2210 10120 20111 30196 40224 58005=
07314,1999-12-08 01:00:00,12.1,1022,-0.8,95,11.3,,18.52,,,220,,,,,,,,,,,og-post,,,,AAXX 08014 07314 36/// /2210 10121 20113 30192 40220 58008=
07314,1999-12-08 02:00:00,12.1,1021.9,-0.7,94,11.2,,18.52,,,230,,,,,,,,,,,og-post,,,,AAXX 08024 07314 36/// /2310 10121 20112 30191 40219 56007=
07314,1999-12-08 03:00:00,12.2,1021.4,-1,94,11.3,,14.816,,,200,,,,,,,,,,,og-post,,,,AAXX 08034 07314 36/// /2008 10122 20113 30186 40214 58010=
07314,1999-12-08 04:00:00,12.1,1021,-1,94,11.2,,18.52,,,220,,,,,,,,,,,og-post,,,,AAXX 08044 07314 36/// /2210 10121 20112 30182 40210 58010=
07314,1999-12-08 05:00:00,12.2,1020.5,-1.4,91,10.8,,22.224,,,210,,,,,,,,,,,og-post,,,,AAXX 08054 07314 36/// /2112 10122 20108 30177 40205 57014=
07314,1999-12-08 06:00:00,12.3,1020.2,-1.2,89,10.5,25000,22.224,,,220,11.7,12.4,,,,,,,,,og-post,,,,AAXX 08064 07314 32575 72212 10123 20105 30174 40202 56012 81102 222// 328// 333 10124 20117 92438=
07314,1999-12-08 07:00:00,12.2,1019.9,-1.1,94,11.3,,22.224,,,200,,,,,,,,,,,og-post,,,,AAXX 08074 07314 36/// /2012 10122 20113 30171 40199 56011=
07314,1999-12-08 08:00:00,11.3,1019.7,-0.8,96,10.7,,14.816,,,260,,,,,,,,,,,og-post,,,,AAXX 08084 07314 36/// /2608 10113 20107 30169 40197 56008=
07314,1999-12-08 09:00:00,11.7,1019.3,-0.9,98,11.4,17000,11.112,,,210,,,,0.2,,,,,,,og-post,,,,AAXX 08094 07314 22567 62106 10117 20114 30165 40193 58009 8626/ 222// 328// 333 69927 92437=
07314,1999-12-08 10:00:00,11.8,1019.1,-0.8,97,11.3,,22.224,,,220,,,0.2,,,,,,,,og-post,,,,AAXX 08104 07314 26/// /2212 10118 20113 30163 40191 57008 333 69925=
07314,1999-12-08 11:00:00,12.8,1018.2,-1.5,92,11.5,,25.928,,,230,,,,,,,,,,,og-post,,,,AAXX 08114 07314 36/// /2314 10128 20115 30154 40182 58015=
07314,1999-12-08 12:00:00,12.8,1017.3,-2,86,10.5,20000,29.632,,,230,,,,0.2,0.4,,,,,,og-post,,,,AAXX 08124 07314 /2570 62316 10128 20105 30145 40173 58020 69941 8626/ 222// 328// 333 69927 92438=
07314,1999-12-08 13:00:00,12.8,1016.7,-2.4,86,10.5,,29.632,,,230,,,,,,,,,,,og-post,,,,AAXX 08134 07314 36/// /2316 10128 20105 30139 40167 56024=
07314,1999-12-08 14:00:00,12.6,1015.7,-2.5,88,10.7,,35.188,,,220,,,,,,,,,,,og-post,,,,AAXX 08144 07314 36/// /2219 10126 20107 30129 40157 58025=
07314,1999-12-08 15:00:00,12.3,1015,-2.3,89,10.5,,29.632,,,210,,,,,,,,,,,og-post,,,,AAXX 08154 07314 36/// /2116 10123 20105 30122 40150 58023=
07314,1999-12-08 16:00:00,12.8,1014.5,-2.2,84,10.2,,35.188,,,230,,,,,,,,,,,og-post,,,,AAXX 08164 07314 36/// /2319 10128 20102 30117 40145 56022=
07314,1999-12-08 17:00:00,12.8,1014.2,-1.5,84,10.2,,35.188,,,230,,,,,,,,,,,og-post,,,,AAXX 08174 07314 36/// /2319 10128 20102 30114 40142 56015=
07314,1999-12-08 18:00:00,12.5,1013.8,-1.2,88,10.6,22000,29.632,,,230,11.2,13,,,,0.4,,,,,og-post,,,,AAXX 08184 07314 12572 72316 10125 20106 30110 40138 56012 69942 83202 222// 328// 333 10130 20112 92448=
07314,1999-12-08 19:00:00,12.4,1013.4,-1.1,83,9.6,,35.188,,,220,,,0.2,,,,,,,,og-post,,,,AAXX 08194 07314 26/// /2219 10124 20096 30106 40134 58011 333 69925=
07314,1999-12-08 21:00:00,12.6,1012.3,-1.5,85,10.1,,31.484,,,220,,,,0.2,,,,,,,og-post,,,,AAXX 08214 07314 26/// /2217 10126 20101 30095 40123 56015 333 69927=
07314,1999-12-08 22:00:00,12.3,1011.6,-1.8,88,10.4,,31.484,,,210,,,,,,,,,,,og-post,,,,AAXX 08224 07314 36/// /2117 10123 20104 30088 40116 56018=
07314,1999-12-08 23:00:00,12.6,1010.8,-1.8,89,10.8,,38.892,,,210,,,,,,,,,,,og-post,,,,AAXX 08234 07314 36/// /2121 10126 20108 30080 40108 58018=
07314,1999-12-09 00:00:00,12.7,1010.2,-2.1,88,10.8,,38.892,,,220,,,,,0.2,,,,,,og-post,,,,AAXX 09004 07314 16/// /2221 10127 20108 30074 40102 56021 69921=
07314,1999-12-09 01:00:00,12.2,1009,-2.6,94,11.3,,35.188,,,210,,,1,,,,,,,,og-post,,,,AAXX 09014 07314 26/// /2119 10122 20113 30062 40090 58026 333 60015=
07314,1999-12-09 02:00:00,12.6,1008.3,-2.5,89,10.8,,46.3,,,230,,,1,,,,,,,,og-post,,,,AAXX 09024 07314 26/// /2325 10126 20108 30055 40083 58025 333 60015=
07314,1999-12-09 03:00:00,11.6,1008,-2.2,94,10.7,,29.632,,,240,,,,4,,,,,,,og-post,,,,AAXX 09034 07314 26/// /2416 10116 20107 30052 40080 56022 333 60047=
07314,1999-12-09 04:00:00,11.7,1007.3,-1.7,93,10.6,,31.484,,,240,,,1,,,,,,,,og-post,,,,AAXX 09044 07314 26/// /2417 10117 20106 30045 40073 57017 333 60015=
07314,1999-12-09 05:00:00,10,1007.3,-1,93,8.9,,18.52,,,250,,,0.8,,,,,,,,og-post,,,,AAXX 09054 07314 26/// /2510 10100 20089 30045 40073 56010 333 69985=
07314,1999-12-09 06:00:00,10.3,1007,-1,95,9.5,5000,14.816,,,270,9.7,12.8,,3,,7,,,,63,og-post,,,,AAXX 09064 07314 /1650 82708 10103 20095 30042 40070 56010 60072 76386 8802/ 222// 328// 333 10128 20097 60037 92446=
07314,1999-12-09 07:00:00,10.7,1007.1,-0.2,96,10.1,,14.816,,,240,,,,,,,,,,,og-post,,,,AAXX 09074 07314 26/// /2408 10107 20101 30043 40071 55002 333 69905=
07314,1999-12-09 08:00:00,10.8,1007.2,-0.1,92,9.6,,22.224,,,280,,,1,,,,,,,,og-post,,,,AAXX 09084 07314 26/// /2812 10108 20096 30044 40072 55001 333 60015=
07314,1999-12-09 09:00:00,11.1,1007.2,0.2,86,8.8,5000,22.224,,,280,,,,1,,,,,,21,og-post,,,,AAXX 09094 07314 21450 72812 10111 20088 30044 40072 51002 72182 86802 222// 328// 333 60017 92447=
07314,1999-12-09 13:00:00,10.9,1005.4,-1.9,83,8.1,,29.632,,,240,,,0.2,,,,,,,,og-post,,,,AAXX 09134 07314 26/// /2416 10109 20081 30026 40054 58019 333 69925=
07314,1999-12-09 14:00:00,10.7,1004.7,-2.4,79,7.2,,25.928,,,260,,,0.2,,,,,,,,og-post,,,,AAXX 09144 07314 26/// /2614 10107 20072 30019 40047 57024 333 69925=
07314,1999-12-09 15:00:00,10,1004.5,-1.9,86,7.8,12000,29.632,,,260,,,,1,,,,,,62,og-post,,,,AAXX 09154 07314 21462 72616 10100 20078 30017 40045 56019 76286 8272/ 222// 328// 333 60017 92447=
07314,1999-12-09 16:00:00,11.1,1004.3,-1.1,71,6,,31.484,,,250,,,,,,,,,,,og-post,,,,AAXX 09164 07314 26/// /2517 10111 20060 30015 40043 56011 333 69905=
07314,1999-12-09 17:00:00,9.4,1004.8,0.1,87,7.3,,29.632,,,290,,,0.2,,,,,,,,og-post,,,,AAXX 09174 07314 26/// /2916 10094 20073 30020 40048 53001 333 69925=
07314,1999-12-09 18:00:00,10.2,1004.8,0.3,79,6.7,20000,29.632,,,270,9.2,12.4,,0.2,,,,,,21,og-post,,,,AAXX 09184 07314 21470 82716 10102 20067 30020 40048 53003 72186 8872/ 222// 328// 333 10124 20092 69927 92448=
07314,1999-12-09 19:00:00,10.2,1005.1,0.8,79,6.7,,25.928,,,260,,,,,,,,,,,og-post,,,,AAXX 09194 07314 36/// /2614 10102 20067 30023 40051 51008=
07314,1999-12-09 20:00:00,9.2,1005.9,1.1,87,7.2,,35.188,61.116,,320,,,0.2,,,,,,,,og-post,,,,AAXX 09204 07314 26/// /3219 10092 20072 30031 40059 53011 333 69925 91133=
07314,1999-12-09 21:00:00,9,1006.2,1.4,79,5.6,20000,18.52,61.116,,300,,,,0.4,,,,,,21,og-post,,,,AAXX 09214 07314 21470 83010 10090 20056 30034 40062 52014 72186 8872/ 222// 328// 333 69947 91133 92448=
07314,1999-12-09 22:00:00,9.7,1006.6,1.5,78,6.1,,22.224,,,300,,,1,,,,,,,,og-post,,,,AAXX 09224 07314 26/// /3012 10097 20061 30038 40066 51015 333 60015=
07314,1999-12-09 23:00:00,8.7,1007.2,1.3,88,6.8,,42.596,57.412,,300,,,0.4,,,,,,,,og-post,,,,AAXX 09234 07314 26/// /3023 10087 20068 30044 40072 53013 333 69945 91131=
07314,1999-12-10 00:00:00,9.4,1007.9,1.7,72,4.6,,29.632,61.116,,310,,,,1,2,,,,,,og-post,,,,AAXX 10004 07314 /6/// /3116 10094 20046 30051 40079 53017 60021 333 60017 91133=
07314,1999-12-10 01:00:00,8.1,1008.2,1.6,83,5.4,,38.892,,,340,,,0.4,,,,,,,,og-post,,,,AAXX 10014 07314 26/// /3421 10081 20054 30054 40082 51016 333 69945=
07314,1999-12-10 02:00:00,9.8,1008.5,1.3,74,5.4,,18.52,,,290,,,,,,,,,,,og-post,,,,AAXX 10024 07314 36/// /2910 10098 20054 30057 40085 51013=
07314,1999-12-10 03:00:00,7.5,1008.9,1,83,4.8,,14.816,,,340,,,,1,,,,,,,og-post,,,,AAXX 10034 07314 26/// /3408 10075 20048 30061 40089 53010 333 60017=
07314,1999-12-10 04:00:00,10,1009,0.8,70,4.8,,42.596,61.116,,300,,,,,,,,,,,og-post,,,,AAXX 10044 07314 36/// /3023 10100 20048 30062 40090 51008 333 91133=
07314,1999-12-10 05:00:00,10.4,1009.4,0.9,68,4.8,,38.892,57.412,,300,,,,,,,,,,,og-post,,,,AAXX 10054 07314 36/// /3021 10104 20048 30066 40094 52009 333 91131=
07314,1999-12-10 07:00:00,8.2,1011.4,2.4,73,3.7,,25.928,83.34,,310,,,0.8,,,,,,,,og-post,,,,AAXX 10074 07314 26/// /3114 10082 20037 30086 40114 53024 333 69985 91145=
07314,1999-12-10 08:00:00,7.9,1012.3,2.9,77,4.1,,29.632,,53.708,310,,,0.2,,,,,,,,og-post,,,,AAXX 10084 07314 26/// /3116 10079 20041 30095 40123 51029 333 69925 91029=
07314,1999-12-10 09:00:00,9.5,1013,2.6,76,5.5,,22.224,83.34,,280,,,,1,,,,,,,og-post,,,,AAXX 10094 07314 26/// /2812 10095 20055 30102 40130 51026 333 60017 91145=
07314,1999-12-10 10:00:00,9,1014.1,2.7,69,3.6,,22.224,,,330,,,,,,,,,,,og-post,,,,AAXX 10104 07314 26/// /3312 10090 20036 30113 40141 53027 333 69905=
07314,1999-12-10 11:00:00,10.9,1014.7,2.4,67,5,,18.52,,,290,,,,,,,,,,,og-post,,,,AAXX 10114 07314 26/// /2910 10109 20050 30119 40147 51024 333 69905=
07314,1999-12-10 12:00:00,10,1014.7,1.7,,,22000,18.52,83.34,,330,,,,10,11,,,,,25,og-post,,,,AAXX 10124 07314 /1572 63310 10100 2//// 30119 40147 51017 60111 72561 83232 222// 328// 333 60107 91145 92448=
07314,1999-12-10 13:00:00,11.5,1014.3,0.2,,,,29.632,,,280,,,,,,,,,,,og-post,,,,AAXX 10134 07314 36/// /2816 10115 2//// 30115 40143 50002=
07314,1999-12-10 14:00:00,11,1014.3,-0.4,65,4.7,,29.632,,,260,,,,,,,,,,,og-post,,,,AAXX 10144 07314 36/// /2616 10110 20047 30115 40143 57004=
07314,1999-12-10 15:00:00,11.2,1014,-0.7,67,5.3,20000,31.484,,,250,,,,,,,,,,1,og-post,,,,AAXX 10154 07314 31570 72517 10112 20053 30112 40140 56007 70182 8423/ 222// 328// 333 92448=
07314,1999-12-10 16:00:00,11.2,1013.7,-0.6,65,4.9,,31.484,,,250,,,,,,,,,,,og-post,,,,AAXX 10164 07314 36/// /2517 10112 20049 30109 40137 58006=
07314,1999-12-10 17:00:00,10.3,1013.3,-1,80,7,,29.632,,,230,,,0.2,,,,,,,,og-post,,,,AAXX 10174 07314 26/// /2316 10103 20070 30105 40133 58010 333 69925=
07314,1999-12-10 18:00:00,10.2,1012.6,-1.4,89,8.5,15000,31.484,,,200,7.2,11.6,,0.8,,2,,,,80,og-post,,,,AAXX 10184 07314 /1565 82017 10102 20085 30098 40126 58014 60022 78082 8523/ 222// 328// 333 10116 20072 69987 92457=
07314,1999-12-10 19:00:00,10.2,1012.3,-1.4,97,9.7,,38.892,,,200,,,2,,,,,,,,og-post,,,,AAXX 10194 07314 26/// /2021 10102 20097 30095 40123 56014 333 60025=
07314,1999-12-10 20:00:00,12.2,1011.7,-1.6,92,10.9,,38.892,57.412,,260,,,0.4,,,,,,,,og-post,,,,AAXX 10204 07314 26/// /2621 10122 20109 30089 40117 56016 333 69945 91131=
07314,1999-12-10 21:00:00,12.8,1011.3,-1.3,92,11.5,16000,29.632,57.412,,250,,,,4,,,,,,25,og-post,,,,AAXX 10214 07314 21566 82516 10128 20115 30085 40113 58013 72582 8523/ 222// 328// 333 60047 91131 92457=
07314,1999-12-10 22:00:00,13,1011.1,-1.2,90,11.4,,35.188,,,240,,,,,,,,,,,og-post,,,,AAXX 10224 07314 36/// /2419 10130 20114 30083 40111 56012=
07314,1999-12-10 23:00:00,13.1,1010.6,-1.1,91,11.7,,38.892,,,240,,,,,,,,,,,og-post,,,,AAXX 10234 07314 36/// /2421 10131 20117 30078 40106 58011=
07314,1999-12-11 00:00:00,13.2,1010.1,-1.1,91,11.8,,38.892,61.116,,240,,,,,4,,,,,,og-post,,,,AAXX 11004 07314 16/// /2421 10132 20118 30074 40101 58011 60041 333 91133=
07314,1999-12-11 01:00:00,13.1,1009.8,-1.2,92,11.8,,42.596,68.524,,250,,,,,,,,,,,og-post,,,,AAXX 11014 07314 36/// /2523 10131 20118 30071 40098 56012 333 91137=
07314,1999-12-11 02:00:00,13.1,1009.4,-1.1,92,11.8,,46.3,68.524,68.524,250,,,0.4,,,,,,,,og-post,,,,AAXX 11024 07314 26/// /2525 10131 20118 30067 40094 57011 333 69945 91037 91137=
07314,1999-12-11 03:00:00,13.4,1009.2,-0.9,90,11.8,,46.3,68.524,68.524,250,,,,0.4,,,,,,,og-post,,,,AAXX 11034 07314 26/// /2525 10134 20118 30065 40092 56009 333 69947 91037 91137=
07314,1999-12-11 04:00:00,13.2,1009.6,-0.2,93,12.1,,46.3,,,250,,,,,,,,,,,og-post,,,,AAXX 11044 07314 36/// /2525 10132 20121 30069 40096 55002=
07314,1999-12-11 05:00:00,13.5,1009.8,0.4,90,11.9,,46.3,68.524,,250,,,,,,,,,,,og-post,,,,AAXX 11054 07314 36/// /2525 10135 20119 30071 40098 53004 333 91137=
07314,1999-12-11 06:00:00,13.6,1010.2,1,89,11.8,12000,46.3,68.524,,260,10,13.6,,,,5,,,,,og-post,,,,AAXX 11064 07314 12462 82625 10136 20118 30075 40102 52010 60052 853// 222// 328// 333 10136 20100 91137 92457=
07314,1999-12-11 07:00:00,13.2,1010.4,0.7,93,12.1,,38.892,61.116,61.116,250,,,,,,,,,,,og-post,,,,AAXX 11074 07314 36/// /2521 10132 20121 30076 40104 51007 333 91033 91133=
07314,1999-12-11 08:00:00,13.6,1010.7,0.9,89,11.8,,38.892,,,250,,,,,,,,,,,og-post,,,,AAXX 11084 07314 36/// /2521 10136 20118 30080 40107 52009=
07314,1999-12-11 09:00:00,13.6,1011.3,1.1,89,11.8,6000,35.188,61.116,,250,,,,,,,,,,,og-post,,,,AAXX 11094 07314 32556 82519 10136 20118 30086 40113 53011 857// 222// 328// 333 91133 92456=
07314,1999-12-11 10:00:00,13.7,1011.4,1.1,88,11.7,,38.892,,,240,,,,,,,,,,,og-post,,,,AAXX 11104 07314 36/// /2421 10137 20117 30087 40114 51011=
07314,1999-12-11 11:00:00,13,1011.3,0.5,90,11.4,,50.004,72.228,72.228,240,,,,,,,,,,,og-post,,,,AAXX 11114 07314 26/// /2427 10130 20114 30085 40113 50005 333 69905 91039 91139=
07314,1999-12-11 12:00:00,13.5,1010.7,-0.6,90,11.9,10000,46.3,75.932,,240,,,,,,,,,,25,og-post,,,,AAXX 11124 07314 /1560 72425 10135 20119 30080 40107 58006 69901 72522 8277/ 222// 328// 333 69907 91141 92457=
07314,1999-12-11 13:00:00,13.8,1010.4,-1,88,11.8,,42.596,,,230,,,,,,,,,,,og-post,,,,AAXX 11134 07314 36/// /2323 10138 20118 30077 40104 58010=
07314,1999-12-11 14:00:00,13.6,1009.9,-1.3,86,11.3,,38.892,,,230,,,,,,,,,,,og-post,,,,AAXX 11144 07314 36/// /2321 10136 20113 30072 40099 57013=
07314,1999-12-11 15:00:00,13.9,1009.6,-1.1,85,11.4,,50.004,68.524,68.524,240,,,,,,,,,,,og-post,,,,AAXX 11154 07314 36/// /2427 10139 20114 0069 40096 57011 333 91037 91137=
07314,1999-12-11 16:00:00,13.7,1009.5,-0.9,87,11.6,,46.3,72.228,,240,,,,,,,,,,,og-post,,,,AAXX 11164 07314 36/// /2425 10137 20116 30068 40095 56009 333 91139=
07314,1999-12-11 17:00:00,13.7,1009.1,-0.8,88,11.7,,42.596,64.82,64.82,230,,,,,,,,,,,og-post,,,,AAXX 11174 07314 36/// /2323 10137 20117 30064 40091 58008 333 91035 91135=
07314,1999-12-11 18:00:00,13.9,1009,-0.6,87,11.8,10000,50.004,72.228,68.524,230,12.5,13.9,,,,,,,,,og-post,,,,AAXX 11184 07314 12560 72327 10139 20118 30063 40090 57006 69902 8277/ 222// 328// 333 10139 20125 91037 91139 92457=
07314,1999-12-11 19:00:00,13.9,1008.5,-1,88,11.9,,50.004,72.228,,230,,,,,,,,,,,og-post,,,,AAXX 11194 07314 36/// /2327 10139 20119 30058 40085 58010 333 91139=
07314,1999-12-11 20:00:00,13.9,1008.1,-1,89,12.1,,46.3,,68.524,230,,,,,,,,,,,og-post,,,,AAXX 11204 07314 36/// /2325 10139 20121 30054 40081 58010 333 91037=
07314,1999-12-11 21:00:00,13.8,1007.6,-1.4,90,12.2,10000,50.004,83.34,,240,,,,,,,,,,,og-post,,,,AAXX 11214 07314 32560 82427 10138 20122 30049 40076 57014 8277/ 222// 328// 333 91145 92457=
07314,1999-12-11 22:00:00,14.1,1006.7,-1.8,87,12,,57.412,79.636,79.636,230,,,,,,,,,,,og-post,,,,AAXX 11224 07314 36/// /2331 10141 20120 30040 40067 58018 333 91043 91143=
07314,1999-12-11 23:00:00,13.9,1005.9,-2.2,86,11.6,,50.004,83.34,,230,,,,,,,,,,,og-post,,,,AAXX 11234 07314 36/// /2327 10139 20116 30032 40059 58022 333 91145=
07314,1999-12-12 00:00:00,14.1,1004.8,-2.8,83,11.3,,50.004,83.34,,220,,,,0.2,0.2,,,,,,og-post,,,,AAXX 12004 07314 /6/// /2227 10141 20113 30021 40048 58028 69921 333 69927 91145=
07314,1999-12-12 01:00:00,14.3,1003.1,-3.6,81,11.1,,53.708,83.34,75.932,220,,,,,,,,,,,og-post,,,,AAXX 12014 07314 36/// /2229 10143 20111 30004 40031 58036 333 91041 91145=
07314,1999-12-12 02:00:00,13.4,1001.6,-4.3,89,11.6,,57.412,,,210,,,0.6,,,,,,,,og-post,,,,AAXX 12024 07314 26/// /2131 10134 20116 39989 40016 58043 333 69965=
07314,1999-12-12 03:00:00,12.7,1000,-4.8,91,11.3,,72.228,96.304,94.452,210,,,,2,,,,,,,og-post,,,,AAXX 12034 07314 26/// /2139 10127 20113 39973 40000 56048 333 60027 91051 91152=
07314,1999-12-12 04:00:00,12.5,998,-5.1,92,11.2,,68.524,100.008,94.452,210,,,2,,,,,,,,og-post,,,,AAXX 12044 07314 26/// /2137 10125 20112 39953 49980 58051 333 60025 91051 91154=
07314,1999-12-12 05:00:00,12.6,999.2,-2.4,88,10.7,,57.412,114.824,79.636,250,,,1,,,,,,,,og-post,,,,AAXX 12054 07314 26/// /2531 10126 20107 39965 49992 55024 333 60015 91043 91162=
07314,1999-12-12 06:00:00,13.1,999.7,-0.3,76,9,15000,68.524,,,250,,,,,,6,,,,2,og-post,,,,AAXX 12064 07314 /1565 42537 10131 20090 39970 49997 55003 60062 70281 82530 222// 328//=
07314,1999-12-12 07:00:00,12.4,1000.8,2.8,74,7.9,,68.524,96.304,94.452,260,,,,,,,,,,,og-post,,,,AAXX 12074 07314 36/// /2637 10124 20079 39981 40008 51028 333 91051 91152=
07314,1999-12-12 08:00:00,11.8,1003,3.8,72,6.9,,68.524,118.528,94.452,270,,,,,,,,,,,og-post,,,,AAXX 12084 07314 36/// /2737 10118 20069 30003 40030 53038 333 91051 91164=
07314,1999-12-12 09:00:00,12.3,1004.9,5.2,75,8,,64.82,118.528,,270,,,,0.2,,,,,,,og-post,,,,AAXX 12094 07314 26/// /2735 10123 20080 30022 40049 53052 333 69927 91164=
07314,1999-12-12 10:00:00,11.9,1006.8,5.9,70,6.6,,61.116,87.044,83.34,280,,,0.2,,,,,,,,og-post,,,,AAXX 12104 07314 26/// /2833 10119 20066 30040 40068 51059 333 69925 91045 91147=
07314,1999-12-12 11:00:00,12.1,1008.1,5,71,7,,53.708,87.044,75.932,270,,,,,,,,,,,og-post,,,,AAXX 12114 07314 36/// /2729 10121 20070 30053 40081 51050 333 91041 91147=
07314,1999-12-12 12:00:00,12.1,1009.5,4.5,70,6.8,,57.412,118.528,79.636,280,,,,0.2,0.4,,,,,,og-post,,,,AAXX 12124 07314 /6/// /2831 10121 20068 30067 40095 51045 69941 333 69927 91043 91164=
07314,1999-12-12 13:00:00,12,1010.1,3.3,65,5.6,,53.708,79.636,75.932,280,,,,,,,,,,,og-post,,,,AAXX 12134 07314 36/// /2829 10120 20056 30073 40101 51033 333 91041 91143=
07314,1999-12-12 14:00:00,11.2,1011.1,3,75,6.9,,53.708,83.34,83.34,290,,,,,,,,,,,og-post,,,,AAXX 12144 07314 36/// /2929 10112 20069 30083 40111 51030 333 91045 91145=
07314,1999-12-12 15:00:00,10.8,1011.9,2.4,78,7.1,12000,35.188,83.34,,280,,,,,,,,,,2,og-post,,,,AAXX 12154 07314 31462 62819 10108 20071 30091 40119 53024 70282 83903 222// 328// 333 91145 92457=
07314,1999-12-12 16:00:00,11.9,1012.3,2.2,69,6.4,,50.004,72.228,72.228,280,,,,,,,,,,,og-post,,,,AAXX 12164 07314 36/// /2827 10119 20064 30095 40123 51022 333 91039 91139=
07314,1999-12-12 17:00:00,11.5,1013.2,2.1,67,5.6,,50.004,,,280,,,,,,,,,,,og-post,,,,AAXX 12174 07314 36/// /2827 10115 20056 30104 40132 53021=
07314,1999-12-12 18:00:00,11.5,1014.3,2.4,64,4.9,15000,50.004,83.34,72.228,290,9.2,13.2,,,,0.4,,,,,og-post,,,,AAXX 12184 07314 12465 42927 10115 20049 30115 40143 53024 69942 82320 222// 328// 333 10132 20092 91039 91145 92457=
07314,1999-12-12 19:00:00,10.7,1015.3,3,65,4.4,,53.708,75.932,75.932,290,,,,,,,,,,,og-post,,,,AAXX 12194 07314 36/// /2929 10107 20044 30125 40153 53030 333 91041 91141=
07314,1999-12-12 20:00:00,9.8,1016,2.8,72,5,,53.708,79.636,,300,,,0.4,,,,,,,,og-post,,,,AAXX 12204 07314 26/// /3029 10098 20050 30132 40160 51028 333 69945 91143=
07314,1999-12-12 21:00:00,9.2,1017.1,2.8,79,5.8,12000,42.596,79.636,64.82,290,,,,0.6,,,,,,81,og-post,,,,AAXX 12214 07314 21562 62923 10092 20058 30143 40171 53028 78181 84230 222// 328// 333 69967 91035 91143 92457=
07314,1999-12-12 22:00:00,10.7,1017.2,1.9,65,4.4,,42.596,61.116,,280,,,,,,,,,,,og-post,,,,AAXX 12224 07314 26/// /2823 10107 20044 30144 40172 51019 333 69905 91133=
07314,1999-12-12 23:00:00,10.7,1018,2,72,5.9,,38.892,68.524,,280,,,0.2,,,,,,,,og-post,,,,AAXX 12234 07314 26/// /2821 10107 20059 30152 40180 51020 333 69925 91137=
07314,1999-12-13 00:00:00,10.6,1018.3,1.2,69,5.2,,31.484,79.636,,280,,,,0.2,0.8,,,,,,og-post,,,,AAXX 13004 07314 /6/// /2817 10106 20052 30155 40183 53012 69981 333 69927 91143=
07314,1999-12-13 01:00:00,10.8,1018.4,1.2,75,6.6,,31.484,68.524,,270,,,,,,,,,,,og-post,,,,AAXX 13014 07314 26/// /2717 10108 20066 30156 40184 51012 333 69905 91137=
07314,1999-12-13 02:00:00,11.2,1018.7,0.7,71,6.1,,35.188,,,280,,,,,,,,,,,og-post,,,,AAXX 13024 07314 26/// /2819 10112 20061 30159 40187 52007 333 69905=
07314,1999-12-13 03:00:00,9.7,1018.8,0.5,75,5.5,,46.3,68.524,68.524,250,,,,,,,,,,,og-post,,,,AAXX 13034 07314 26/// /2525 10097 20055 30160 40188 52005 333 69907 91037 91137=
07314,1999-12-13 04:00:00,10.2,1018.6,0.2,82,7.3,,31.484,61.116,,270,,,0.8,,,,,,,,og-post,,,,AAXX 13044 07314 26/// /2717 10102 20073 30158 40186 50002 333 69985 91133=
07314,1999-12-13 05:00:00,10.6,1018.5,-0.2,82,7.7,,29.632,,,240,,,0.2,,,,,,,,og-post,,,,AAXX 13054 07314 26/// /2416 10106 20077 30157 40185 58002 333 69925=
07314,1999-12-13 06:00:00,10.4,1018.1,-0.7,72,5.6,,31.484,68.524,,240,8.9,11.5,,1,,2,,,,,og-post,,,,AAXX 13064 07314 /6/// /2417 10104 20056 30153 40181 58007 60022 333 10115 20089 60017 91137=
07314,1999-12-13 07:00:00,10.1,1018.1,-0.5,81,7,,18.52,61.116,,260,,,1,,,,,,,,og-post,,,,AAXX 13074 07314 26/// /2610 10101 20070 30153 40181 56005 333 60015 91133=
07314,1999-12-13 08:00:00,11.1,1017.8,-0.7,74,6.6,,29.632,,,240,,,,,,,,,,,og-post,,,,AAXX 13084 07314 36/// /2416 10111 20066 30150 40178 56007=
07314,1999-12-13 09:00:00,11.2,1018,-0.1,80,7.9,18000,31.484,61.116,,230,,,,1,,,,,,2,og-post,,,,AAXX 13094 07314 21568 72317 10112 20079 30152 40180 55001 70282 84230 222// 328// 333 60017 91133 92447=
07314,1999-12-13 10:00:00,10.4,1018,-0.1,81,7.3,,25.928,61.116,,230,,,1,,,,,,,,og-post,,,,AAXX 13104 07314 26/// /2314 10104 20073 30152 40180 56001 333 60015 91133=
07314,1999-12-13 11:00:00,11.7,1017,-0.8,79,8.2,,25.928,,,240,,,,,,,,,,,og-post,,,,AAXX 13114 07314 36/// /2414 10117 20082 30142 40170 58008=
07314,1999-12-13 12:00:00,11.2,1016.1,-1.9,78,7.5,18000,35.188,90.748,,240,,,,2,3,,,,,2,og-post,,,,AAXX 13124 07314 /1568 72419 10112 20075 30133 40161 58019 60031 70282 84230 222// 328// 333 60027 91149 92447=
07314,1999-12-13 13:00:00,11.5,1015.3,-2.7,82,8.5,,29.632,53.708,,230,,,,,,,,,,,og-post,,,,AAXX 13134 07314 36/// /2316 10115 20085 30125 40153 56027 333 91129=
07314,1999-12-13 14:00:00,11.5,1014.6,-2.4,79,8,,31.484,,,240,,,,,,,,,,,og-post,,,,AAXX 13144 07314 36/// /2417 10115 20080 30118 40146 56024=
07314,1999-12-13 15:00:00,11.9,1013.7,-2.4,76,7.8,18000,35.188,53.708,,250,,,,,,,,,,,og-post,,,,AAXX 13154 07314 32568 72519 10119 20078 30109 40137 58024 84230 222// 328// 333 91129 92447=
07314,1999-12-13 16:00:00,12,1013.3,-2,73,7.3,,35.188,,,240,,,,,,,,,,,og-post,,,,AAXX 13164 07314 36/// /2419 10120 20073 30105 40133 56020=
07314,1999-12-13 17:00:00,11.7,1012.8,-1.8,82,8.7,,35.188,,,240,,,,,,,,,,,og-post,,,,AAXX 13174 07314 36/// /2419 10117 20087 30100 40128 56018=
07314,1999-12-13 19:00:00,12.4,1011.4,-1.9,77,8.5,,42.596,,,240,,,,,,,,,,,og-post,,,,AAXX 13194 07314 36/// /2423 10124 20085 30086 40114 58019=
07314,1999-12-13 20:00:00,11.9,1010.7,-2.1,85,9.5,,42.596,61.116,,230,,,0.4,,,,,,,,og-post,,,,AAXX 13204 07314 26/// /2323 10119 20095 30079 40107 58021 333 69945 91133=
07314,1999-12-13 21:00:00,11.7,1009.9,-2.4,86,9.4,16000,38.892,64.82,,250,,,,1,,,,,,61,og-post,,,,AAXX 13214 07314 21566 82521 10117 20094 30071 40099 56024 76162 85730 222// 328// 333 60017 91135 92447=
07314,1999-12-13 22:00:00,11.4,1009.4,-2,87,9.3,,35.188,64.82,,240,,,0.8,,,,,,,,og-post,,,,AAXX 13224 07314 26/// /2419 10114 20093 30066 40094 56020 333 69985 91135=
07314,1999-12-13 23:00:00,11.1,1008.6,-2.1,89,9.4,,42.596,64.82,,230,,,1,,,,,,,,og-post,,,,AAXX 13234 07314 26/// /2323 10111 20094 30058 40086 57021 333 60015 91135=
07314,1999-12-14 00:00:00,11.3,1007.6,-2.3,87,9.2,,38.892,64.82,,240,,,,2,4,,,,,,og-post,,,,AAXX 14004 07314 /6/// /2421 10113 20092 30048 40076 58023 60041 333 60027 91135=
07314,1999-12-14 01:00:00,11.1,1006.5,-2.9,92,9.8,,38.892,,,230,,,1,,,,,,,,og-post,,,,AAXX 14014 07314 26/// /2321 10111 20098 30037 40065 58029 333 60015=
07314,1999-12-14 02:00:00,11.2,1005.9,-2.7,95,10.4,,29.632,,,230,,,1,,,,,,,,og-post,,,,AAXX 14024 07314 26/// /2316 10112 20104 30031 40059 56027 333 60015=
07314,1999-12-14 03:00:00,10.9,1005.5,-2.1,95,10.1,,31.484,,,250,,,,4,,,,,,,og-post,,,,AAXX 14034 07314 26/// /2517 10109 20101 30027 40055 56021 333 60047=
07314,1999-12-14 04:00:00,11.3,1004.8,-1.7,92,10,,35.188,,,250,,,1,,,,,,,,og-post,,,,AAXX 14044 07314 26/// /2519 10113 20100 30020 40048 58017 333 60015=
07314,1999-12-14 05:00:00,10.2,1004.8,-1.1,94,9.3,,25.928,,,280,,,3,,,,,,,,og-post,,,,AAXX 14054 07314 26/// /2814 10102 20093 30020 40048 56011 333 60035=
07314,1999-12-14 06:00:00,10.4,1004.9,,95,9.6,15000,18.52,,,310,,,,,,,,,,,og-post,,,,AAXX 14064 07314 /1565 83110 10104 20096 30021 40049=
07314,1999-12-14 07:00:00,10,1005.3,0.5,96,9.4,,14.816,,,320,,,1,,,,,,,,og-post,,,,AAXX 14074 07314 26/// /3208 10100 20094 30025 40053 53005 333 60015=
07314,1999-12-14 08:00:00,10.3,1005,0.2,92,9.1,,18.52,,,280,,,0.6,,,,,,,,og-post,,,,AAXX 14084 07314 26/// /2810 10103 20091 30022 40050 50002 333 69965=
07314,1999-12-14 09:00:00,10.7,1005.1,0.2,81,7.6,18000,25.928,,,300,,,,2,,,,,,21,og-post,,,,AAXX 14094 07314 21568 83014 10107 20076 30023 40051 51002 72186 8802/ 222// 328// 333 60027 92447=
07314,1999-12-14 10:00:00,10.7,1005.8,0.5,80,7.4,,18.52,,,320,,,,,,,,,,,og-post,,,,AAXX 14104 07314 36/// /3210 10107 20074 30030 40058 53005=
07314,1999-12-14 11:00:00,9.8,1005.7,0.7,84,7.2,,22.224,,,350,,,,,,,,,,,og-post,,,,AAXX 14114 07314 36/// /3512 10098 20072 30029 40057 50007=
07314,1999-12-14 12:00:00,9.6,1005.2,0.1,80,6.3,20000,11.112,,,350,,,,,2,,,,,2,og-post,,,,AAXX 14124 07314 11570 83506 10096 20063 30024 40052 50001 60021 70286 8802/ 222// 328// 333 92448=
07314,1999-12-14 13:00:00,9.6,1004.9,-0.9,77,5.8,,11.112,,,360,,,,,,,,,,,og-post,,,,AAXX 14134 07314 36/// /3606 10096 20058 30021 40049 58009=
07314,1999-12-14 14:00:00,9.1,1005.4,-0.3,77,5.3,,18.52,,,330,,,,,,,,,,,og-post,,,,AAXX 14144 07314 36/// /3310 10091 20053 30026 40054 55003=
07314,1999-12-14 15:00:00,8.9,1005.1,-0.1,75,4.7,20000,11.112,,,330,,,,,,,,,,2,og-post,,,,AAXX 14154 07314 31570 73306 10089 20047 30023 40051 57001 70286 8717/ 222// 328// 333 92448=
07314,1999-12-14 16:00:00,8.7,1005.4,0.5,77,4.9,,7.408,,,350,,,,,,,,,,,og-post,,,,AAXX 14164 07314 36/// /3504 10087 20049 30026 40054 51005=
07314,1999-12-14 17:00:00,8.3,1005.2,-0.2,74,3.9,,7.408,,,360,,,,,,,,,,,og-post,,,,AAXX 14174 07314 36/// /3604 10083 20039 30024 40052 56002=
07314,1999-12-14 19:00:00,7.9,1005.7,0.3,74,3.6,,7.408,,,30,,,,,,,,,,,og-post,,,,AAXX 14194 07314 36/// /0304 10079 20036 30029 40057 53003=
07314,1999-12-14 20:00:00,7.6,1005.6,0.4,77,3.8,,11.112,,,10,,,0.2,,,,,,,,og-post,,,,AAXX 14204 07314 26/// /0106 10076 20038 30028 40056 50004 333 69925=
07314,1999-12-14 21:00:00,8.1,1005.7,0.5,71,3.2,20000,18.52,,,350,,,,0.2,,,,,,2,og-post,,,,AAXX 14214 07314 21570 73510 10081 20032 30029 40057 51005 70262 8717/ 222// 328// 333 69927 92448=
07314,1999-12-14 22:00:00,8.1,1005.9,0.2,74,3.8,,18.52,,,350,,,,,,,,,,,og-post,,,,AAXX 14224 07314 36/// /3510 10081 20038 30031 40059 53002=
07314,1999-12-14 23:00:00,7.4,1006.2,0.6,75,3.3,,14.816,,,320,,,,,,,,,,,og-post,,,,AAXX 14234 07314 36/// /3208 10074 20033 30034 40062 53006=
07314,1999-12-15 00:00:00,7.4,1006.5,0.8,73,2.9,,18.52,,,340,,,,,0.2,,,,,,og-post,,,,AAXX 15004 07314 16/// /3410 10074 20029 30037 40065 53008 69921=
07314,1999-12-15 01:00:00,7.5,1006.5,0.6,78,3.9,,22.224,,,350,,,,,,,,,,,og-post,,,,AAXX 15014 07314 36/// /3512 10075 20039 30037 40065 51006=
07314,1999-12-15 02:00:00,6.6,1006.9,0.7,78,3,,25.928,,,10,,,,,,,,,,,og-post,,,,AAXX 15024 07314 36/// /0114 10066 20030 30041 40069 53007=
07314,1999-12-15 03:00:00,6.3,1007.3,0.8,79,2.9,,25.928,,,360,,,,,,,,,,,og-post,,,,AAXX 15034 07314 36/// /3614 10063 20029 30045 40073 53008=
07314,1999-12-15 04:00:00,5.6,1007.8,1.3,81,2.6,,22.224,,,350,,,,,,,,,,,og-post,,,,AAXX 15044 07314 36/// /3512 10056 20026 30050 40078 53013=
07314,1999-12-15 05:00:00,5.2,1008.4,1.5,86,3.1,,25.928,,,360,,,,,,,,,,,og-post,,,,AAXX 15054 07314 36/// /3614 10052 20031 30056 40084 53015=
07314,1999-12-15 06:00:00,4.9,1008.9,1.6,88,3.1,,18.52,,,10,4.8,8.4,,,,0.2,,,,,og-post,,,,AAXX 15064 07314 16/// /0110 10049 20031 30061 40089 52016 69922 333 10084 20048=
07314,1999-12-15 07:00:00,5.1,1009.3,1.5,85,2.8,,22.224,,,20,,,,,,,,,,,og-post,,,,AAXX 15074 07314 36/// /0212 10051 20028 30065 40093 51015=
07314,1999-12-15 08:00:00,4.8,1009.7,1.3,86,2.7,,22.224,,,20,,,,,,,,,,,og-post,,,,AAXX 15084 07314 36/// /0212 10048 20027 30069 40097 51013=
07314,1999-12-15 09:00:00,4.6,1011,2.1,88,2.8,20000,29.632,,,10,,,,,,,,,,,og-post,,,,AAXX 15094 07314 32570 30116 10046 20028 30082 40110 53021 81130 222// 328// 333 92448=
07314,1999-12-15 12:00:00,5.6,1012.9,1.9,85,3.3,18000,35.188,,,10,,,,,,,,,,,og-post,,,,AAXX 15124 07314 32568 60119 10056 20033 30101 40129 51019 84130 222// 328// 333 92447=
07314,1999-12-15 13:00:00,5.5,1013.6,1.7,81,2.5,,38.892,,,10,,,,,,,,,,,og-post,,,,AAXX 15134 07314 36/// /0121 10055 20025 30108 40136 52017=
07314,1999-12-15 14:00:00,6.1,1014.4,1.8,71,1.2,,46.3,,,360,,,,,,,,,,,og-post,,,,AAXX 15144 07314 36/// /3625 10061 20012 30116 40144 53018=
07314,1999-12-15 15:00:00,6.3,1015,2.1,73,1.8,18000,42.596,,,360,,,,,,,,,,,og-post,,,,AAXX 15154 07314 32568 63623 10063 20018 30122 40150 51021 84130 222// 328// 333 92447=
07314,1999-12-15 16:00:00,6,1015.9,2.3,64,-0.3,,46.3,,,360,,,,,,,,,,,og-post,,,,AAXX 15164 07314 36/// /3625 10060 21003 30131 40159 53023=
07314,1999-12-15 18:00:00,5.8,1018.5,3.4,70,0.8,20000,50.004,,,360,4.5,6.5,,,,,,,,,og-post,,,,AAXX 15184 07314 32570 63627 10058 20008 30156 40185 53034 84130 222// 328// 333 10065 20045 92448=
07314,1999-12-15 19:00:00,5.2,1019.6,3.6,72,0.6,,57.412,,,360,,,,,,,,,,,og-post,,,,AAXX 15194 07314 36/// /3631 10052 20006 30167 40196 51036=
07314,1999-12-15 20:00:00,5.1,1020.7,3.3,72,0.5,,53.708,79.636,,360,,,,,,,,,,,og-post,,,,AAXX 15204 07314 36/// /3629 10051 20005 30178 40207 52033 333 91143=
07314,1999-12-15 21:00:00,5.1,1021.5,3,76,1.2,20000,46.3,79.636,,360,,,,,,,,,,,og-post,,,,AAXX 15214 07314 32570 33625 10051 20012 30186 40215 51030 82130 222// 328// 333 91143 92448=
07314,1999-12-15 22:00:00,4.9,1022.5,2.9,77,1.2,,50.004,,,350,,,,,,,,,,,og-post,,,,AAXX 15224 07314 36/// /3527 10049 20012 30196 40225 51029=
07314,1999-12-15 23:00:00,4.9,1023.3,2.6,77,1.2,,46.3,,,360,,,,,,,,,,,og-post,,,,AAXX 15234 07314 36/// /3625 10049 20012 30204 40233 52026=
07314,1999-12-16 00:00:00,4.8,1023.7,2.2,77,1.1,,42.596,79.636,,350,,,,,,,,,,,og-post,,,,AAXX 16004 07314 36/// /3523 10048 20011 30208 40237 51022 333 91143=
07314,1999-12-16 01:00:00,4.9,1023.9,1.4,82,2.1,,42.596,,,350,,,,,,,,,,,og-post,,,,AAXX 16014 07314 36/// /3523 10049 20021 30210 40239 51014=
07314,1999-12-16 02:00:00,4.7,1024.1,0.8,82,1.9,,42.596,,,350,,,,,,,,,,,og-post,,,,AAXX 16024 07314 36/// /3523 10047 20019 30212 40241 51008=
07314,1999-12-16 03:00:00,4.4,1024.5,0.8,80,1.3,,42.596,,,350,,,,,,,,,,,og-post,,,,AAXX 16034 07314 36/// /3523 10044 20013 30216 40245 53008=
07314,1999-12-16 04:00:00,4.6,1024.8,0.9,80,1.5,,42.596,,,350,,,,,,,,,,,og-post,,,,AAXX 16044 07314 36/// /3523 10046 20015 30219 40248 53009=
07314,1999-12-16 05:00:00,4.8,1025.6,1.5,79,1.5,,42.596,64.82,,360,,,,,,,,,,,og-post,,,,AAXX 16054 07314 36/// /3623 10048 20015 30227 40256 53015 333 91135=
07314,1999-12-16 06:00:00,4.7,1026.3,1.8,81,1.7,,38.892,,,360,4.4,5.8,,,,,,,,,og-post,,,,AAXX 16064 07314 36/// /3621 10047 20017 30234 40263 53018 333 10058 20044=
07314,1999-12-16 07:00:00,5,1026.9,2.1,79,1.7,,38.892,,,360,,,,,,,,,,,og-post,,,,AAXX 16074 07314 36/// /3621 10050 20017 30240 40269 51021=
07314,1999-12-16 08:00:00,5,1027.8,2.2,77,1.3,,35.188,,,360,,,,,,,,,,,og-post,,,,AAXX 16084 07314 36/// /3619 10050 20013 30249 40278 53022=
07314,1999-12-16 09:00:00,5.5,1028.3,2,77,1.8,22000,31.484,,,360,,,,,,,,,,,og-post,,,,AAXX 16094 07314 32572 63617 10055 20018 30254 40283 51020 82130 222// 328// 333 92438=
07314,1999-12-16 10:00:00,5.8,1029.1,2.2,77,2.1,,25.928,,,360,,,,,,,,,,,og-post,,,,AAXX 16104 07314 36/// /3614 10058 20021 30262 40291 51022=
07314,1999-12-16 11:00:00,6.3,1029.3,1.5,76,2.4,,29.632,,,350,,,,,,,,,,,og-post,,,,AAXX 16114 07314 36/// /3516 10063 20024 30264 40293 51015=
07314,1999-12-16 12:00:00,7,1029,0.7,77,3.3,22000,31.484,,,340,,,,,,,,,,,og-post,,,,AAXX 16124 07314 32572 63417 10070 20033 30261 40290 50007 82130 222// 328// 333 92448=
07314,1999-12-16 13:00:00,7.1,1028.4,-0.7,83,4.4,,31.484,,,340,,,,,,,,,,,og-post,,,,AAXX 16134 07314 36/// /3417 10071 20044 30255 40284 58007=
07314,1999-12-16 14:00:00,7.3,1028.3,-1,79,3.9,,31.484,,,340,,,,,,,,,,,og-post,,,,AAXX 16144 07314 36/// /3417 10073 20039 30254 40283 56010=
07314,1999-12-16 15:00:00,7.1,1029,-0,80,3.9,22000,31.484,,,350,,,,,,,,,,,og-post,,,,AAXX 16154 07314 32572 63517 10071 20039 30261 40290 55000 85230 222// 328// 333 92448=
07314,1999-12-16 16:00:00,7.1,1029.4,1,81,4.1,,29.632,,,360,,,,,,,,,,,og-post,,,,AAXX 16164 07314 36/// /3616 10071 20041 30265 40294 53010=
07314,1999-12-16 17:00:00,6.7,1030.1,1.8,82,3.9,,25.928,,,10,,,,,,,,,,,og-post,,,,AAXX 16174 07314 36/// /0114 10067 20039 30272 40301 52018=
07314,1999-12-16 18:00:00,6.8,1030.5,1.5,84,4.3,20000,22.224,,,360,4.7,7.6,,,,,,,,,og-post,,,,AAXX 16184 07314 32570 63612 10068 20043 30276 40305 52015 84230 222// 328// 333 10076 20047 92448=
07314,1999-12-16 19:00:00,6.9,1031,1.6,86,4.7,,22.224,,,350,,,,,,,,,,,og-post,,,,AAXX 16194 07314 36/// /3512 10069 20047 30281 40310 51016=
07314,1999-12-16 20:00:00,6.8,1031.5,1.4,87,4.8,,22.224,,,350,,,,,,,,,,,og-post,,,,AAXX 16204 07314 36/// /3512 10068 20048 30286 40315 53014=
07314,1999-12-16 21:00:00,7,1031.9,1.4,87,5,20000,22.224,,,350,,,,,,,,,,,og-post,,,,AAXX 16214 07314 32570 23512 10070 20050 30290 40319 51014 82100 222// 328// 333 92448=
07314,1999-12-16 22:00:00,6.6,1031.9,0.9,87,4.6,,14.816,,,350,,,,,,,,,,,og-post,,,,AAXX 16224 07314 36/// /3508 10066 20046 30290 40319 51009=
07314,1999-12-16 23:00:00,6.5,1032.2,0.7,85,4.2,,14.816,,,350,,,,,,,,,,,og-post,,,,AAXX 16234 07314 36/// /3508 10065 20042 30293 40322 51007=
07314,1999-12-17 00:00:00,6.5,1031.9,0,86,4.3,,7.408,,,350,,,,,,,,,,,og-post,,,,AAXX 17004 07314 36/// /3504 10065 20043 30290 40319 50000=
07314,1999-12-17 01:00:00,6.2,1031.7,-0.2,84,3.7,,3.704,,,340,,,,,,,,,,,og-post,,,,AAXX 17014 07314 36/// /3402 10062 20037 30288 40317 58002=
07314,1999-12-17 02:00:00,4.7,1031.7,-0.5,88,2.9,,3.704,,,260,,,,,,,,,,,og-post,,,,AAXX 17024 07314 36/// /2602 10047 20029 30288 40317 56005=
07314,1999-12-17 03:00:00,4.2,1031.5,,92,3,,7.408,,,140,,,,,,,,,,,og-post,,,,AAXX 17034 07314 36/// /1404 10042 20030 30286 4031557004=
07314,1999-12-17 04:00:00,4.1,1030.7,-1,94,3.2,,11.112,,,150,,,,,,,,,,,og-post,,,,AAXX 17044 07314 36/// /1506 10041 20032 30278 40307 58010=
07314,1999-12-17 05:00:00,4.1,1030.2,-1.5,96,3.5,,11.112,,,170,,,,,,,,,,,og-post,,,,AAXX 17054 07314 36/// /1706 10041 20035 30273 40302 58015=
07314,1999-12-17 06:00:00,7.6,1030.1,-1.4,84,5.1,22000,22.224,,,200,3.9,7.6,,,,,,,,,og-post,,,,AAXX 17064 07314 32572 72012 10076 20051 30272 40301 56014 82130 222// 328// 333 10076 20039 92438=
07314,1999-12-17 07:00:00,8.7,1030.1,-0.6,80,5.4,,18.52,,,210,,,,,,,,,,,og-post,,,,AAXX 17074 07314 36/// /2110 10087 20054 30272 40301 56006=
07314,1999-12-17 08:00:00,9.5,1029.8,-0.3,72,4.7,,22.224,,,230,,,,,,,,,,,og-post,,,,AAXX 17084 07314 36/// /2312 10095 20047 30270 40298 58003=
07314,1999-12-17 09:00:00,10.2,1029.7,-0.3,71,5.2,20000,22.224,,,250,,,,,,,,,,,og-post,,,,AAXX 17094 07314 32570 82512 10102 20052 30269 40297 58003 82170 222// 328// 333 92438=
07314,1999-12-17 10:00:00,10.5,1029.7,-0.3,70,5.3,,25.928,,,250,,,,,,,,,,,og-post,,,,AAXX 17104 07314 36/// /2514 10105 20053 30269 40297 56003=
07314,1999-12-17 11:00:00,10.7,1029.2,-0.6,74,6.3,,29.632,,,240,,,,,,,,,,,og-post,,,,AAXX 17114 07314 36/// /2416 10107 20063 30264 40292 58006=
07314,1999-12-17 12:00:00,11,1028.5,-1.2,73,6.4,20000,31.484,,,260,,,,,,,,,,,og-post,,,,AAXX 17124 07314 32570 82617 10110 20064 30257 40285 58012 82170 222// 328// 333 92438=
07314,1999-12-17 13:00:00,11.1,1027.4,-2.3,71,6,,29.632,,,250,,,,,,,,,,,og-post,,,,AAXX 17134 07314 36/// /2516 10111 20060 30246 40274 58023=
07314,1999-12-17 14:00:00,10.4,1027.2,-2,78,6.7,,29.632,53.708,,240,,,,,,,,,,,og-post,,,,AAXX 17144 07314 36/// /2416 10104 20067 30244 40272 56020 333 91129=
07314,1999-12-17 15:00:00,9.8,1026.8,-1.7,83,7.1,16000,31.484,53.708,,240,,,,0.6,,,,,,81,og-post,,,,AAXX 17154 07314 21566 82417 10098 20071 30240 40268 56017 78122 877// 222// 328// 333 69967 91129 92437=
07314,1999-12-17 16:00:00,10.1,1026,-1.4,91,8.7,,35.188,,,230,,,,,,,,,,,og-post,,,,AAXX 17164 07314 26/// /2319 10101 20087 30232 40260 58014 333 69905=
07314,1999-12-17 17:00:00,10.1,1025.4,-1.8,95,9.3,,38.892,,,230,,,,,,,,,,,og-post,,,,AAXX 17174 07314 26/// /2321 10101 20093 30226 40254 58018 333 69905=
07314,1999-12-17 18:00:00,10.3,1025.2,-1.6,97,9.8,16000,35.188,,,230,7.7,11.1,,0.8,,1,,,,81,og-post,,,,AAXX 17184 07314 /1566 82319 10103 20098 30224 40252 56016 60012 78122 877// 222// 328// 333 10111 20077 69987 92447=
07314,1999-12-17 19:00:00,10.4,1024.7,-1.3,98,10.1,,38.892,,,230,,,1,,,,,,,,og-post,,,,AAXX 17194 07314 26/// /2321 10104 20101 30219 40247 56013 333 60015=
07314,1999-12-17 21:00:00,11.1,1024,-1.2,99,10.9,6000,38.892,,,240,,,,4,,,,,,81,og-post,,,,AAXX 17214 07314 21556 82421 10111 20109 30212 40240 56012 78182 877// 222// 328// 333 60047 92446=
07314,1999-12-17 22:00:00,11.4,1023.5,-1.2,99,11.2,,38.892,,,240,,,3,,,,,,,,og-post,,,,AAXX 17224 07314 26/// /2421 10114 20112 30207 40235 57012 333 60035=
07314,1999-12-17 23:00:00,11.7,1023.2,-1,99,11.5,,38.892,,,250,,,3,,,,,,,,og-post,,,,AAXX 17234 07314 26/// /2521 10117 20115 30204 40232 58010 333 60035=
07314,1999-12-18 00:00:00,11.7,1022.9,-1.1,99,11.5,,31.484,,,250,,,,8,12,,,,,,og-post,,,,AAXX 18004 07314 /6/// /2517 10117 20115 30201 40229 56011 60121 333 60087=
07314,1999-12-18 01:00:00,11.7,1022.7,-0.8,99,11.5,,31.484,,,260,,,2,,,,,,,,og-post,,,,AAXX 18014 07314 26/// /2617 10117 20115 30199 40227 56008 333 60025=
07314,1999-12-18 02:00:00,11.7,1022.5,-0.7,99,11.5,,31.484,,,260,,,2,,,,,,,,og-post,,,,AAXX 18024 07314 26/// /2617 10117 20115 30197 40225 56007 333 60025=
07314,1999-12-18 03:00:00,11.6,1022,-0.9,99,11.4,,35.188,,,260,,,,5,,,,,,,og-post,,,,AAXX 18034 07314 26/// /2619 10116 20114 30192 40220 58009 333 60057=
07314,1999-12-18 04:00:00,11.6,1021.8,-0.9,100,11.6,,35.188,,,260,,,0.4,,,,,,,,og-post,,,,AAXX 18044 07314 26/// /2619 10116 20116 30190 40218 57009 333 69945=
07314,1999-12-18 05:00:00,11.6,1021.7,-0.8,100,11.6,,31.484,,,260,,,0.6,,,,,,,,og-post,,,,AAXX 18054 07314 26/// /2617 10116 20116 30189 40217 56008 333 69965=
07314,1999-12-18 06:00:00,11.7,1021.8,-0.2,100,11.7,8000,35.188,,,260,10.2,11.7,,1,,19,,,,60,og-post,,,,AAXX 18064 07314 /1558 82619 10117 20117 30190 40218 55002 60192 76086 8272/ 222// 328// 333 10117 20102 60017 92446=
07314,1999-12-18 07:00:00,12.1,1021.7,-0.1,99,11.9,,38.892,,,260,,,0.2,,,,,,,,og-post,,,,AAXX 18074 07314 26/// /2621 10121 20119 30189 40217 57001 333 69925=
07314,1999-12-18 08:00:00,12.2,1021.7,0,97,11.7,,38.892,,,260,,,0.2,,,,,,,,og-post,,,,AAXX 18084 07314 26/// /2621 10122 20117 30189 40217 50000 333 69925=
07314,1999-12-18 09:00:00,12.4,1021.8,-0,95,11.6,7000,42.596,,,260,,,,0.4,,,,,,60,og-post,,,,AAXX 18094 07314 21557 82623 10124 20116 30190 40218 55000 76086 8172/ 222// 328// 333 69947 92446=
07314,1999-12-18 10:00:00,12.5,1022.3,0.6,94,11.6,,42.596,,,260,,,,,,,,,,,og-post,,,,AAXX 18104 07314 26/// /2623 10125 20116 30195 40223 53006 333 69905=
07314,1999-12-18 11:00:00,12.1,1022.3,0.6,97,11.6,,42.596,,,260,,,0.4,,,,,,,,og-post,,,,AAXX 18114 07314 26/// /2623 10121 20116 30195 40223 51006 333 69945=
07314,1999-12-18 12:00:00,12.2,1021.9,0.1,97,11.7,7000,38.892,,,260,,,,0.4,0.8,,,,,60,og-post,,,,AAXX 18124 07314 /1557 82621 10122 20117 30191 40219 50001 69981 76086 8172/ 222// 328// 333 69947 92446=
07314,1999-12-18 13:00:00,12.3,1021.5,-0.8,97,11.8,,42.596,,,270,,,,,,,,,,,og-post,,,,AAXX 18134 07314 26/// /2723 10123 20118 30187 40215 58008 333 69905=
07314,1999-12-18 14:00:00,12.3,1021.3,-1,96,11.7,,38.892,,,270,,,,,,,,,,,og-post,,,,AAXX 18144 07314 26/// /2721 10123 20117 30185 40213 56010 333 69905=
07314,1999-12-18 15:00:00,12.2,1021.4,-0.5,97,11.7,,38.892,,,270,,,,,,,,,,,og-post,,,,AAXX 18154 07314 26/// /2721 10122 20117 30186 40214 55005 333 69907=
07314,1999-12-18 16:00:00,12.1,1021.6,0.1,97,11.6,,31.484,,,270,,,,,,,,,,,og-post,,,,AAXX 18164 07314 36/// /2717 10121 20116 30188 40216 53001=
07314,1999-12-18 17:00:00,12.1,1021.7,0.4,97,11.6,,35.188,,,260,,,,,,,,,,,og-post,,,,AAXX 18174 07314 36/// /2619 10121 20116 30189 40217 52004=
07314,1999-12-18 18:00:00,12,1021.5,0.1,97,11.5,8000,31.484,,,260,11.6,12.5,,,,0.8,,,,,og-post,,,,AAXX 18184 07314 12558 82617 10120 20115 30187 40215 50001 69982 8172/ 222// 328// 333 10125 20116 92446=
07314,1999-12-18 19:00:00,12.3,1021.5,-0.1,94,11.4,,35.188,,,260,,,,,,,,,,,og-post,,,,AAXX 18194 07314 36/// /2619 10123 20114 30187 40215 58001=
07314,1999-12-18 20:00:00,12.5,1021.1,-0.6,91,11.1,,35.188,,,250,,,,,,,,,,,og-post,,,,AAXX 18204 07314 36/// /2519 10125 20111 30183 40211 58006=
07314,1999-12-18 21:00:00,12.3,1021,-0.5,94,11.4,8000,31.484,,,240,,,,,,,,,,,og-post,,,,AAXX 18214 07314 32558 82417 10123 20114 30182 40210 58005 8172/ 222// 328// 333 92446=
07314,1999-12-18 22:00:00,12.3,1020.6,-0.9,94,11.4,,31.484,,,240,,,,,,,,,,,og-post,,,,AAXX 18224 07314 36/// /2417 10123 20114 30178 40206 57009=
07314,1999-12-18 23:00:00,12.3,1019.8,-1.3,93,11.2,,31.484,,,230,,,,,,,,,,,og-post,,,,AAXX 18234 07314 36/// /2317 10123 20112 30170 40198 58013=
07314,1999-12-19 00:00:00,12.6,1018.6,-2.4,90,11,,38.892,,,230,,,,,,,,,,,og-post,,,,AAXX 19004 07314 36/// /2321 10126 20110 30158 40186 58024=
07314,1999-12-19 01:00:00,12,1017.6,-3,97,11.5,,42.596,,,230,,,0.6,,,,,,,,og-post,,,,AAXX 19014 07314 26/// /2323 10120 20115 30148 40176 58030 333 69965=
07314,1999-12-19 02:00:00,12.1,1016.8,-3,98,11.8,,42.596,,,240,,,3,,,,,,,,og-post,,,,AAXX 19024 07314 26/// /2423 10121 20118 30140 40168 56030 333 60035=
07314,1999-12-19 03:00:00,12.2,1015.8,-2.8,99,12,,38.892,,,240,,,,4,,,,,,,og-post,,,,AAXX 19034 07314 26/// /2421 10122 20120 30130 40158 57028 333 60047=
07314,1999-12-19 04:00:00,12.2,1014.8,-2.8,99,12,,38.892,,,240,,,,,,,,,,,og-post,,,,AAXX 19044 07314 26/// /2421 10122 20120 30120 40148 58028 333 69905=
07314,1999-12-19 05:00:00,12.2,1014.3,-2.5,99,12,,35.188,,,250,,,0.2,,,,,,,,og-post,,,,AAXX 19054 07314 26/// /2519 10122 20120 30115 40143 56025 333 69925=
07314,1999-12-19 06:00:00,12.2,1014.1,-1.7,99,12,,31.484,,,250,12,12.6,,0.2,,4,,,,,og-post,,,,AAXX 19064 07314 /6/// /2517 10122 20120 30113 40141 56017 60042 333 10126 20120 69927=
07314,1999-12-19 07:00:00,12,1013.9,-0.9,99,11.8,,31.484,,,270,,,0.4,,,,,,,,og-post,,,,AAXX 19074 07314 26/// /2717 10120 20118 30111 40139 56009 333 69945=
07314,1999-12-19 08:00:00,11.6,1014.2,-0.1,99,11.4,,25.928,,,280,,,,,,,,,,,og-post,,,,AAXX 19084 07314 26/// /2814 10116 20114 30114 40142 55001 333 69905=
07314,1999-12-19 09:00:00,11.4,1014.5,0.4,97,10.9,8000,25.928,,,300,,,,0.6,,,,,,60,og-post,,,,AAXX 19094 07314 21558 83014 10114 20109 30117 40145 53004 76062 8172/ 222// 328// 333 69967 92446=
07314,1999-12-19 10:00:00,11.3,1014.8,0.9,95,10.5,,25.928,,,280,,,,,,,,,,,og-post,,,,AAXX 19104 07314 26/// /2814 10113 20105 30120 40148 52009 333 69905=
07314,1999-12-19 11:00:00,11.1,1014.7,0.5,96,10.5,,22.224,,,290,,,,,,,,,,,og-post,,,,AAXX 19114 07314 26/// /2912 10111 20105 30119 40147 50005 333 69905=
07314,1999-12-19 12:00:00,11.3,1014.4,-0.1,98,11,10000,22.224,,,320,,,,,0.6,,,,,21,og-post,,,,AAXX 19124 07314 /1860 73212 10113 20110 30116 40144 58001 69961 72162 8773/ 222// 328// 333 69907 92447=
07314,1999-12-19 13:00:00,10.7,1014.5,-0.3,97,10.2,,29.632,,,350,,,,,,,,,,,og-post,,,,AAXX 19134 07314 36/// /3516 10107 20102 30117 40145 55003=
07314,1999-12-19 14:00:00,8.5,1015.3,0.6,95,7.7,,50.004,,,20,,,,,,,,,,,og-post,,,,AAXX 19144 07314 36/// /0227 10085 20077 30125 40153 53006=
07314,1999-12-19 15:00:00,8.2,1016.5,2.1,88,6.3,14000,42.596,,64.82,30,,,,,,,,,,2,og-post,,,,AAXX 19154 07314 31564 70323 10082 20063 30137 40165 53021 70262 8373/ 222// 328// 333 91035 92447=
07314,1999-12-19 16:00:00,7.3,1017.3,2.8,82,4.4,,50.004,68.524,68.524,20,,,,,,,,,,,og-post,,,,AAXX 19164 07314 36/// /0227 10073 20044 30145 40173 52028 333 91037 91137=
07314,1999-12-19 17:00:00,6.1,1018.9,3.5,81,3.1,,46.3,75.932,75.932,30,,,,,,,,,,,og-post,,,,AAXX 19174 07314 36/// /0325 10061 20031 30160 40189 53035 333 91041 91141=
07314,1999-12-19 18:00:00,5.7,1020.5,3.9,81,2.7,18000,38.892,75.932,61.116,30,5.6,12.2,,,,0.6,,,,,og-post,,,,AAXX 19184 07314 12568 40321 10057 20027 30176 40205 53039 69962 82230 222// 328// 333 10122 20056 91033 91141 92457=
07314,1999-12-19 19:00:00,5.3,1021.8,4.4,76,1.4,,46.3,68.524,,30,,,,,,,,,,,og-post,,,,AAXX 19194 07314 36/// /0325 10053 20014 30189 40218 51044 333 91137=
07314,1999-12-19 20:00:00,4.9,1023,4.1,78,1.4,,38.892,,,30,,,,,,,,,,,og-post,,,,AAXX 19204 07314 36/// /0321 10049 20014 30201 40230 51041=
07314,1999-12-19 21:00:00,4.7,1023.8,3.3,80,1.6,20000,35.188,68.524,,30,,,,,,,,,,,og-post,,,,AAXX 19214 07314 32570 40319 10047 20016 30209 40238 51033 82232 222// 328// 333 91137 92448=
07314,1999-12-19 22:00:00,4.8,1024.2,2.4,78,1.3,,31.484,57.412,,30,,,,,,,,,,,og-post,,,,AAXX 19224 07314 36/// /0317 10048 20013 30213 40242 51024 333 91131=
07314,1999-12-19 23:00:00,4.1,1025.1,2.1,82,1.3,,38.892,,,20,,,,,,,,,,,og-post,,,,AAXX 19234 07314 36/// /0221 10041 20013 30222 40251 53021=
07314,1999-12-20 00:00:00,3.5,1025.5,1.7,80,0.4,,38.892,68.524,,30,,,,,,,,,,,og-post,,,,AAXX 20004 07314 36/// /0321 10035 20004 30226 40255 52017 333 91137=
07314,1999-12-20 01:00:00,3.1,1025.9,1.7,76,-0.7,,35.188,57.412,,30,,,,,,,,,,,og-post,,,,AAXX 20014 07314 36/// /0319 10031 21007 30230 40259 51017 333 91131=
07314,1999-12-20 02:00:00,2.5,1025.9,0.8,74,-1.7,,31.484,,,40,,,,,,,,,,,og-post,,,,AAXX 20024 07314 36/// /0417 10025 21017 30230 40259 51008=
07314,1999-12-20 03:00:00,1.9,1026.1,0.6,67,-3.6,,38.892,57.412,,40,,,,,,,,,,,og-post,,,,AAXX 20034 07314 36/// /0421 10019 21036 30232 40261 51006 333 91131=
07314,1999-12-20 04:00:00,1.5,1026.4,0.5,71,-3.2,,35.188,,,50,,,,,,,,,,,og-post,,,,AAXX 20044 07314 36/// /0519 10015 21032 30235 40264 53005=
07314,1999-12-20 05:00:00,1.3,1026.6,0.7,75,-2.6,,31.484,,,40,,,,,,,,,,,og-post,,,,AAXX 20054 07314 36/// /0417 10013 21026 30237 40266 52007=
07314,1999-12-20 06:00:00,1.4,1027,0.9,78,-2,20000,29.632,57.412,,50,1.1,5.7,,,,,,,,,og-post,,,,AAXX 20064 07314 32970 00516 10014 21020 30241 40270 53009 222// 328// 333 10057 20011 91131 92448=
07314,1999-12-20 07:00:00,1.6,1027.6,1.2,78,-1.8,,29.632,,,50,,,,,,,,,,,og-post,,,,AAXX 20074 07314 36/// /0516 10016 21018 30247 40276 53012=
07314,1999-12-20 08:00:00,1.4,1028.7,2.1,78,-2,,18.52,,,60,,,,,,,,,,,og-post,,,,AAXX 20084 07314 36/// /0610 10014 21020 30258 40287 53021=
07314,1999-12-20 09:00:00,2,1029.3,2.3,80,-1.1,,14.816,,,60,,,,,,,,,,,og-post,,,,AAXX 20094 07314 36/// /0608 10020 21011 30264 40293 52023=
07314,1999-12-20 10:00:00,2.7,1029.4,1.8,77,-0.9,,14.816,,,70,,,,,,,,,,,og-post,,,,AAXX 20104 07314 36/// /0708 10027 21009 30265 40294 51018=
07314,1999-12-20 11:00:00,3.1,1029.3,0.6,76,-0.7,,14.816,,,80,,,,,,,,,,,og-post,,,,AAXX 20114 07314 36/// /0808 10031 21007 30264 40293 50006=
07314,1999-12-20 12:00:00,3.6,1028.9,-0.4,76,-0.2,,11.112,,,70,,,,,,,,,,,og-post,,,,AAXX 20124 07314 36/// /0706 10036 21002 30260 40289 58004=
07314,1999-12-20 13:00:00,3.7,1028.5,-0.9,75,-0.3,,11.112,,,80,,,,,,,,,,,og-post,,,,AAXX 20134 07314 36/// /0806 10037 21003 30256 40285 58009=
07314,1999-12-20 15:00:00,3.5,1028.1,-0.8,78,0,20000,11.112,,,80,,,,,,,,,,,og-post,,,,AAXX 20154 07314 32570 30806 10035 20000 30252 40281 56008 83100 222// 328// 333 92438=
07314,1999-12-20 16:00:00,2.4,1028,-0.5,78,-1,,11.112,,,80,,,,,,,,,,,og-post,,,,AAXX 20164 07314 36/// /0806 10024 21010 30251 40280 56005=
07314,1999-12-20 17:00:00,1.8,1028,-0.1,82,-0.9,,14.816,,,80,,,,,,,,,,,og-post,,,,AAXX 20174 07314 36/// /0808 10018 21009 30251 40280 57001=
07314,1999-12-20 18:00:00,1.4,1028,-0.1,82,-1.3,18000,18.52,,,90,1.3,3.8,,,,,,,,,og-post,,,,AAXX 20184 07314 32568 60910 10014 21013 30251 40280 56001 83160 222// 328// 333 10038 20013 92437=
07314,1999-12-20 19:00:00,1,1027.8,-0.2,82,-1.7,,14.816,,,100,,,,,,,,,,,og-post,,,,AAXX 20194 07314 36/// /1008 10010 21017 30249 40278 58002=
07314,1999-12-20 20:00:00,0.9,1027.7,-0.3,84,-1.5,,14.816,,,100,,,,,,,,,,,og-post,,,,AAXX 20204 07314 36/// /1008 10009 21015 30248 40277 58003=
07314,1999-12-20 21:00:00,1,1027.3,-0.7,86,-1.1,18000,14.816,,,110,,,,,,,,,,,og-post,,,,AAXX 20214 07314 32568 71108 10010 21011 30244 40273 58007 83160 222// 328// 333 92437=
07314,1999-12-20 22:00:00,0.8,1027.9,0.1,85,-1.4,,14.816,,,120,,,,,,,,,,,og-post,,,,AAXX 20224 07314 36/// /1208 10008 21014 30250 40279 53001=
07314,1999-12-20 23:00:00,1.2,1027.6,-0.1,83,-1.4,,14.816,,,120,,,,,,,,,,,og-post,,,,AAXX 20234 07314 36/// /1208 10012 21014 30247 40276 56001=
07314,1999-12-21 00:00:00,0.5,1026.9,-0.4,85,-1.7,,14.816,,,120,,,,,,,,,,,og-post,,,,AAXX 21004 07314 36/// /1208 10005 21017 30240 40269 58004=
07314,1999-12-21 01:00:00,0.6,1026.4,-1.5,85,-1.6,,18.52,,,130,,,,,,,,,,,og-post,,,,AAXX 21014 07314 36/// /1310 10006 21016 30235 40264 58015=
07314,1999-12-21 02:00:00,0.8,1026.4,-1.2,82,-1.9,,18.52,,,130,,,,,,,,,,,og-post,,,,AAXX 21024 07314 36/// /1310 10008 21019 30235 40264 56012=
07314,1999-12-21 03:00:00,0.6,1026.4,-0.5,82,-2.1,,18.52,,,130,,,,,,,,,,,og-post,,,,AAXX 21034 07314 36/// /1310 10006 21021 30235 40264 56005=
07314,1999-12-21 04:00:00,0.5,1026.4,-0,81,-2.4,,14.816,,,130,,,,,,,,,,,og-post,,,,AAXX 21044 07314 36/// /1308 10005 21024 30235 40264 54000=
07314,1999-12-21 05:00:00,0.6,1025.6,-0.8,79,-2.6,,18.52,,,130,,,,,,,,,,,og-post,,,,AAXX 21054 07314 36/// /1310 10006 21026 30227 40256 58008=
07314,1999-12-21 06:00:00,0.2,1026.2,-0.2,83,-2.3,22000,14.816,,,130,0.2,1.4,,,,,,,,,og-post,,,,AAXX 21064 07314 32572 71308 10002 21023 30233 40262 55002 81130 222// 328// 333 10014 20002 92438=
07314,1999-12-21 08:00:00,0.3,1026.5,0.9,85,-1.9,,14.816,,,120,,,,,,,,,,,og-post,,,,AAXX 21084 07314 36/// /1208 10003 21019 30236 40265 51009=
07314,1999-12-21 09:00:00,1,1027,0.8,83,-1.6,20000,14.816,,,120,,,,,,,,,,,og-post,,,,AAXX 21094 07314 32870 71208 10010 21016 30241 40270 53008 87030 222// 328// 333 92438=
07314,1999-12-21 11:00:00,3.1,1025.9,-0.6,75,-0.9,,22.224,,,140,,,,,,,,,,,og-post,,,,AAXX 21114 07314 36/// /1412 10031 21009 30230 40259 58006=
07314,1999-12-21 12:00:00,4.3,1025.9,-1.1,69,-0.9,20000,14.816,,,140,,,,,,,,,,,og-post,,,,AAXX 21124 07314 32870 71408 10043 21009 30230 40259 56011 87030 222// 328// 333 92438=
07314,1999-12-21 13:00:00,4.7,1025.6,-1.3,71,-0.1,,11.112,,,120,,,,,,,,,,,og-post,,,,AAXX 21134 07314 36/// /1206 10047 21001 30227 40256 56013=
07314,1999-12-21 14:00:00,5.4,1025.5,-0.4,68,0,,11.112,,,120,,,,,,,,,,,og-post,,,,AAXX 21144 07314 36/// /1206 10054 20000 30226 40255 58004=
07314,1999-12-21 15:00:00,5.6,1025.3,-0.6,63,-0.9,,14.816,,,130,,,,,,,,,,,og-post,,,,AAXX 21154 07314 36/// /1308 10056 21009 30224 40253 56006=
07314,1999-12-21 17:00:00,4.7,1025.4,-0.1,73,0.3,,14.816,,,110,,,,,,,,,,,og-post,,,,AAXX 21174 07314 36/// /1108 10047 20003 30225 40254 56001=
07314,1999-12-21 18:00:00,4.5,1025.8,0.5,74,0.3,20000,18.52,,,120,-0.5,6.1,,,,,,,,,og-post,,,,AAXX 21184 07314 32870 71210 10045 20003 30229 40258 53005 87030 222// 328// 333 10061 21005 92438=
07314,1999-12-21 20:00:00,4.6,1025.8,0.4,72,0,,14.816,,,150,,,,,,,,,,,og-post,,,,AAXX 21204 07314 36/// /1508 10046 20000 30229 40258 51004=
07314,1999-12-21 21:00:00,4.8,1026.3,0.5,73,0.4,20000,11.112,,,150,,,,,,,,,,,og-post,,,,AAXX 21214 07314 32870 71506 10048 20004 30234 40263 53005 87030 222// 328// 333 92438=
07314,1999-12-22 01:00:00,7.1,1025.3,-0.8,77,3.3,,25.928,,,170,,,,,,,,,,,og-post,,,,AAXX 22014 07314 36/// /1714 10071 20033 30224 40253 58008=
07314,1999-12-22 02:00:00,6.9,1025,-1.3,78,3.3,,18.52,,,150,,,,,,,,,,,og-post,,,,AAXX 22024 07314 36/// /1510 10069 20033 30221 40250 56013=
07314,1999-12-22 03:00:00,6.6,1024.9,-0.6,79,3.2,,14.816,,,150,,,,,,,,,,,og-post,,,,AAXX 22034 07314 36/// /1508 10066 20032 30220 40249 56006=
07314,1999-12-22 04:00:00,5.2,1024.9,-0.4,81,2.2,,14.816,,,150,,,,,,,,,,,og-post,,,,AAXX 22044 07314 36/// /1508 10052 20022 30220 40249 56004=
07314,1999-12-22 05:00:00,4.5,1024.7,-0.3,84,2,,14.816,,,140,,,,,,,,,,,og-post,,,,AAXX 22054 07314 36/// /1408 10045 20020 30218 40247 58003=
07314,1999-12-22 06:00:00,4.4,1024.4,-0.5,85,2.1,20000,14.816,,,140,4.4,7.2,,,,,,,,,og-post,,,,AAXX 22064 07314 32870 71408 10044 20021 30215 40244 58005 87030 222// 328// 333 10072 20044 92438=
07314,1999-12-22 07:00:00,4.3,1024.2,-0.7,89,2.7,,18.52,,,150,,,,,,,,,,,og-post,,,,AAXX 22074 07314 36/// /1510 10043 20027 30213 40242 57007=
07314,1999-12-22 08:00:00,4.2,1024,-0.7,88,2.4,,22.224,,,150,,,,,,,,,,,og-post,,,,AAXX 22084 07314 36/// /1512 10042 20024 30211 40240 56007=
07314,1999-12-22 09:00:00,5.6,1024,-0.4,84,3.1,20000,22.224,,,150,,,,,,,,,,,og-post,,,,AAXX 22094 07314 32870 51512 10056 20031 30211 40240 56004 84032 222// 328// 333 92438=
07314,1999-12-22 10:00:00,8.4,1024.1,-0,75,4.2,,25.928,,,150,,,,,,,,,,,og-post,,,,AAXX 22104 07314 36/// /1514 10084 20042 30213 40241 55000=
07314,1999-12-22 11:00:00,10,1023.8,-0.1,69,4.6,,29.632,,,160,,,,,,,,,,,og-post,,,,AAXX 22114 07314 36/// /1616 10100 20046 30210 40238 58001=
07314,1999-12-22 12:00:00,9,1023.6,-0.3,76,5,16000,25.928,,,170,,,,,,,,,,,og-post,,,,AAXX 22124 07314 32866 71714 10090 20050 30208 40236 58003 8703/ 222// 328// 333 92437=
07314,1999-12-22 13:00:00,8.8,1023.4,-0.7,79,5.4,,29.632,,,170,,,,,,,,,,,og-post,,,,AAXX 22134 07314 36/// /1716 10088 20054 30206 40234 56007=
07314,1999-12-22 14:00:00,9.1,1023,-0.8,82,6.2,,22.224,,,170,,,,,,,,,,,og-post,,,,AAXX 22144 07314 36/// /1712 10091 20062 30202 40230 58008=
07314,1999-12-22 15:00:00,9.5,1022.3,-1.3,75,5.3,16000,18.52,,,150,,,,,,,,,,,og-post,,,,AAXX 22154 07314 32866 71510 10095 20053 30195 40223 58013 8703/ 222// 328// 333 92437=
07314,1999-12-22 16:00:00,9.7,1022.5,-0.9,71,4.7,,14.816,,,160,,,,,,,,,,,og-post,,,,AAXX 22164 07314 36/// /1608 10097 20047 30197 40225 55009=
07314,1999-12-22 17:00:00,8.7,1022.3,-0.7,73,4.1,,14.816,,,140,,,,,,,,,,,og-post,,,,AAXX 22174 07314 36/// /1408 10087 20041 30195 40223 56007=
07314,1999-12-22 18:00:00,8.3,1021.9,-0.4,72,3.6,16000,14.816,,,140,4.1,10.1,,,,,,,,,og-post,,,,AAXX 22184 07314 32866 71408 10083 20036 30191 40219 58004 8703/ 222// 328// 333 10101 20041 92437=
07314,1999-12-22 19:00:00,8.4,1021.5,-1,69,3.1,,18.52,,,150,,,,,,,,,,,og-post,,,,AAXX 22194 07314 36/// /1510 10084 20031 30187 40215 58010=
07314,1999-12-22 20:00:00,8.6,1021.7,-0.6,67,2.8,,18.52,,,160,,,,,,,,,,,og-post,,,,AAXX 22204 07314 36/// /1610 10086 20028 30189 40217 55006=
07314,1999-12-22 21:00:00,8.5,1021.8,-0.1,74,4.1,16000,22.224,,,160,,,,,,,,,,,og-post,,,,AAXX 22214 07314 32866 71612 10085 20041 30190 40218 55001 8703/ 222// 328// 333 92437=
07314,1999-12-22 22:00:00,8.4,1021.2,-0.3,72,3.7,,25.928,,,160,,,0.2,,,,,,,,og-post,,,,AAXX 22224 07314 26/// /1614 10084 20037 30184 40212 58003 333 69925=
07314,1999-12-22 23:00:00,8.4,1021.1,-0.6,74,4,,29.632,,,160,,,,,,,,,,,og-post,,,,AAXX 22234 07314 36/// /1616 10084 20040 30183 40211 58006=
07314,1999-12-23 00:00:00,7.9,1021.9,0.1,85,5.5,,31.484,,,170,,,,0.2,0.2,,,,,,og-post,,,,AAXX 23004 07314 /6/// /1717 10079 20055 30191 40219 53001 69921 333 69927=
07314,1999-12-23 01:00:00,8.7,1021.8,0.6,92,7.5,,35.188,,,170,,,1,,,,,,,,og-post,,,,AAXX 23014 07314 26/// /1719 10087 20075 30190 40218 52006 333 60015=
07314,1999-12-23 02:00:00,8.8,1022.4,1.3,94,7.9,,31.484,,,170,,,0.6,,,,,,,,og-post,,,,AAXX 23024 07314 26/// /1717 10088 20079 30196 40224 51013 333 69965=
07314,1999-12-23 03:00:00,9.7,1022.8,0.9,95,8.9,,11.112,,,180,,,,2,,,,,,,og-post,,,,AAXX 23034 07314 26/// /1806 10097 20089 30200 40228 53009 333 60027=
07314,1999-12-23 04:00:00,10.5,1023.4,1.6,94,9.6,,11.112,,,240,,,,,,,,,,,og-post,,,,AAXX 23044 07314 36/// /2406 10105 20096 30206 40234 52016=
07314,1999-12-23 06:00:00,10.4,1024.4,1.6,93,9.3,,14.816,,,240,7.9,10.7,,,,2,,,,,og-post,,,,AAXX 23064 07314 16/// /2408 10104 20093 30216 40244 52016 60022 333 10107 20079=
07314,1999-12-23 07:00:00,10,1025.1,1.7,95,9.2,,11.112,,,230,,,,,,,,,,,og-post,,,,AAXX 23074 07314 36/// /2306 10100 20092 30223 40251 53017=
07314,1999-12-23 08:00:00,9,1026.1,2.3,96,8.4,,11.112,,,170,,,,,,,,,,,og-post,,,,AAXX 23084 07314 36/// /1706 10090 20084 30233 40261 53023=
07314,1999-12-23 09:00:00,9.1,1026.6,2.2,97,8.6,,7.408,,,170,,,,0.2,,,,,,,og-post,,,,AAXX 23094 07314 26/// /1704 10091 20086 30238 40266 51022 333 69927=
07314,1999-12-23 10:00:00,10.7,1026.7,1.6,94,9.8,,,,,,,,,,,,,,,,og-post,,,,AAXX 23104 07314 36/// /0000 10107 20098 30239 40267 51016=
07314,1999-12-23 11:00:00,11.1,1027,0.9,92,9.8,,3.704,,,80,,,,,,,,,,,og-post,,,,AAXX 23114 07314 36/// /0802 10111 20098 30242 40270 51009=
07314,1999-12-23 12:00:00,11.7,1026.4,-0.2,91,10.3,16000,3.704,,,200,,,,,0.2,,,,,,og-post,,,,AAXX 23124 07314 12866 82002 10117 20103 30236 40264 58002 69921 8802/ 222// 328// 333 92437=
07314,1999-12-23 13:00:00,12.1,1025.5,-1.2,86,9.8,,7.408,,,190,,,,,,,,,,,og-post,,,,AAXX 23134 07314 36/// /1904 10121 20098 30227 40255 58012=
07314,1999-12-23 14:00:00,11.8,1025,-2,88,9.9,,7.408,,,180,,,,,,,,,,,og-post,,,,AAXX 23144 07314 36/// /1804 10118 20099 30222 40250 56020=
07314,1999-12-23 15:00:00,11,1024.6,-1.8,90,9.4,8000,11.112,,,170,,,,,,,,,,,og-post,,,,AAXX 23154 07314 32858 31706 10110 20094 30218 40246 56018 8302/ 222// 328// 333 92436=
07314,1999-12-23 16:00:00,10.3,1024.4,-1.1,93,9.2,,11.112,,,170,,,,,,,,,,,og-post,,,,AAXX 23164 07314 36/// /1706 10103 20092 30216 40244 56011=
07314,1999-12-23 17:00:00,10.2,1024.5,-0.5,96,9.6,,14.816,,,180,,,,,,,,,,,og-post,,,,AAXX 23174 07314 36/// /1808 10102 20096 30217 40245 55005=
07314,1999-12-23 20:00:00,10.4,1023.7,-0.8,90,8.8,,18.52,,,200,,,,,,,,,,,og-post,,,,AAXX 23204 07314 36/// /2010 10104 20088 30209 40237 58008=
07314,1999-12-23 21:00:00,10.2,1022.6,-2,90,8.6,,22.224,,,190,,,,,,,,,,,og-post,,,,AAXX 23214 07314 36/// /1912 10102 20086 30198 40226 58020=
07314,1999-12-23 22:00:00,10.6,1021.9,-2.6,88,8.7,,29.632,,,200,,,,,,,,,,,og-post,,,,AAXX 23224 07314 36/// /2016 10106 20087 30191 40219 56026=
07314,1999-12-23 23:00:00,11,1022.5,-1.2,87,8.9,,29.632,,,210,,,,,,,,,,,og-post,,,,AAXX 23234 07314 36/// /2116 10110 20089 30197 40225 55012=
07314,1999-12-24 00:00:00,10.9,1021.9,-0.7,81,7.8,,29.632,,,220,,,,,,,,,,,og-post,,,,AAXX 24004 07314 36/// /2216 10109 20078 30191 40219 56007=
07314,1999-12-24 01:00:00,11.1,1021.6,-0.3,82,8.1,,31.484,,,220,,,,,,,,,,,og-post,,,,AAXX 24014 07314 36/// /2217 10111 20081 30188 40216 58003=
07314,1999-12-24 02:00:00,11.3,1021,-1.5,81,8.2,,29.632,,,210,,,,,,,,,,,og-post,,,,AAXX 24024 07314 36/// /2116 10113 20082 30182 40210 57015=
07314,1999-12-24 03:00:00,11.4,1020.4,-1.5,82,8.4,,31.484,,,210,,,,,,,,,,,og-post,,,,AAXX 24034 07314 36/// /2117 10114 20084 30176 40204 58015=
07314,1999-12-24 04:00:00,11.7,1019.7,-1.9,79,8.2,,35.188,,,210,,,,,,,,,,,og-post,,,,AAXX 24044 07314 36/// /2119 10117 20082 30169 40197 58019=
07314,1999-12-24 05:00:00,11.8,1019.2,-1.8,78,8.1,,35.188,,,210,,,,,,,,,,,og-post,,,,AAXX 24054 07314 36/// /2119 10118 20081 30164 40192 56018=
07314,1999-12-24 06:00:00,11.9,1019.1,-1.3,78,8.2,18000,38.892,,,220,10.1,12,,,,,,,,,og-post,,,,AAXX 24064 07314 32868 82221 10119 20082 30163 40191 56013 8803/ 222// 328// 333 10120 20101 92447=
07314,1999-12-24 07:00:00,11.8,1018.9,-0.8,82,8.8,,38.892,,,210,,,,,,,,,,,og-post,,,,AAXX 24074 07314 36/// /2121 10118 20088 30161 40189 56008=
07314,1999-12-24 08:00:00,11.9,1018.8,-0.4,81,8.7,,38.892,,,210,,,,,,,,,,,og-post,,,,AAXX 24084 07314 36/// /2121 10119 20087 30160 40188 57004=
07314,1999-12-24 09:00:00,11.8,1018.7,-0.4,83,9,15000,38.892,,,200,,,,,,,,,,,og-post,,,,AAXX 24094 07314 32865 72021 10118 20090 30159 40187 56004 8703/ 222// 328// 333 92447=
07314,1999-12-24 10:00:00,12.1,1018.6,-0.3,81,8.9,,38.892,,,200,,,,,,,,,,,og-post,,,,AAXX 24104 07314 36/// /2021 10121 20089 30158 40186 57003=
07314,1999-12-24 11:00:00,12.1,1017.8,-1,80,8.8,,38.892,,,210,,,,,,,,,,,og-post,,,,AAXX 24114 07314 36/// /2121 10121 20088 30150 40178 58010=
07314,1999-12-24 12:00:00,12.2,1017.2,-1.5,79,8.7,,38.892,,,210,,,,,,,,,,,og-post,,,,AAXX 24124 07314 36/// /2121 10122 20087 30144 40172 58015=
07314,1999-12-24 13:00:00,12.3,1015.9,-2.7,75,8,,42.596,,,210,,,,,,,,,,,og-post,,,,AAXX 24134 07314 36/// /2123 10123 20080 30131 40159 58027=
07314,1999-12-24 14:00:00,11.9,1015.2,-2.6,82,8.9,,35.188,,,190,,,,,,,,,,,og-post,,,,AAXX 24144 07314 36/// /1919 10119 20089 30124 40152 58026=
07314,1999-12-24 15:00:00,12,1014.7,-2.5,83,9.2,15000,46.3,,,190,,,,,,,,,,,og-post,,,,AAXX 24154 07314 32865 71925 10120 20092 30119 40147 56025 8707/ 222// 328// 333 92447=
07314,1999-12-24 16:00:00,12.2,1014.4,-1.5,80,8.9,,50.004,,,190,,,,,,,,,,,og-post,,,,AAXX 24164 07314 36/// /1927 10122 20089 30116 40144 56015=
07314,1999-12-24 17:00:00,12.1,1013.4,-1.8,80,8.8,,42.596,,,200,,,,,,,,,,,og-post,,,,AAXX 24174 07314 36/// /2023 10121 20088 30106 40134 58018=
07314,1999-12-24 18:00:00,12.3,1012.7,-2,79,8.8,15000,50.004,,,200,11.7,12.5,,0.2,,0.2,,,,25,og-post,,,,AAXX 24184 07314 /1865 72027 10123 20088 30099 40127 58020 69922 72582 8707/ 222// 328// 333 10125 20117 69927 92457=
07314,1999-12-24 19:00:00,12.8,1011.9,-2.5,72,7.9,,50.004,,,200,,,0.2,,,,,,,,og-post,,,,AAXX 24194 07314 26/// /2027 10128 20079 30091 40119 56025 333 69925=
07314,1999-12-24 20:00:00,11.7,1010.4,-3,87,9.6,,42.596,,,180,,,,,,,,,,,og-post,,,,AAXX 24204 07314 36/// /1823 10117 20096 30076 40104 58030=
07314,1999-12-24 21:00:00,12,1011.1,-1.6,88,10.1,15000,38.892,,,190,,,,0.2,,,,,,2,og-post,,,,AAXX 24214 07314 21865 71921 10120 20101 30083 40111 55016 70262 8707/ 222// 328// 333 69927 92457=
07314,1999-12-24 22:00:00,11.8,1009.6,-2.3,88,9.9,,38.892,61.116,,190,,,,,,,,,,,og-post,,,,AAXX 24224 07314 36/// /1921 10118 20099 30068 40096 57023 333 91133=
07314,1999-12-24 23:00:00,13.9,1007.4,-2.9,70,8.5,,64.82,83.34,83.34,210,,,,,,,,,,,og-post,,,,AAXX 24234 07314 36/// /2135 10139 20085 30047 40074 58029 333 91045 91145=
07314,1999-12-25 00:00:00,13.2,1006.2,-4.8,75,8.9,,68.524,96.304,96.304,210,,,,,0.2,,,,,,og-post,,,,AAXX 25004 07314 16/// /2137 10132 20089 30035 40062 56048 69921 333 91052 91152=
07314,1999-12-25 05:00:00,11.5,1005.9,0.8,82,8.5,,53.708,,,230,,,0.8,,,,,,,,og-post,,,,AAXX 25054 07314 26/// /2329 10115 20085 30031 40059 50008 333 69985=
07314,1999-12-25 06:00:00,11.6,1006.4,-1,83,8.8,8000,46.3,118.528,,220,11,14,,2,,5,,,,2,og-post,,,,AAXX 25064 07314 /1558 72225 10116 20088 30036 40064 55010 60052 70262 877// 222// 328// 333 10140 20110 60027 91164 92456=
07314,1999-12-25 09:00:00,12.5,1004,-2.3,84,9.9,8000,50.004,5.556,72.228,210,,,,,,,,,,2,og-post,,,,AAXX 25094 07314 31558 72127 10125 20099 30013 40040 58023 70262 877// 222// 328// 333 91039 9113/ 92456=
07314,1999-12-25 10:00:00,10.9,1008,1.9,85,8.5,,42.596,125.936,64.82,280,,,,,,,,,,,og-post,,,,AAXX 25104 07314 36/// /2823 10109 20085 30052 40080 53019 333 91035 91168=
07314,1999-12-25 11:00:00,11.6,1008.9,3.2,82,8.6,,46.3,,,260,,,,,,,,,,,og-post,,,,AAXX 25114 07314 36/// /2625 10116 20086 30061 40089 53032=
07314,1999-12-25 12:00:00,12.5,1009.7,5.6,75,8.2,8000,53.708,125.936,79.636,260,,,,,,,,,,2,og-post,,,,AAXX 25124 07314 31558 72629 10125 20082 30069 40097 51056 70262 877// 222// 328// 333 91043 91168 92456=
07314,1999-12-25 13:00:00,12.5,1009.8,1.8,75,8.2,,46.3,,64.82,240,,,,,,,,,,,og-post,,,,AAXX 25134 07314 36/// /2425 10125 20082 30070 40098 51018 333 91035=
07314,1999-12-25 14:00:00,12.1,1010,1.1,76,8,,38.892,72.228,,240,,,,,,,,,,,og-post,,,,AAXX 25144 07314 36/// /2421 10121 20080 30072 40100 51011 333 91139=
07314,1999-12-25 15:00:00,11.1,1010.4,0.7,85,8.7,,38.892,,,250,,,,0.2,,,,,,,og-post,,,,AAXX 25154 07314 26/// /2521 10111 20087 30076 40104 53007 333 69927=
07314,1999-12-25 22:00:00,12.1,1009.9,-1.6,86,9.8,,25.928,,,220,,,,,,,,,,,og-post,,,,AAXX 25224 07314 36/// /2214 10121 20098 30071 40099 58016=
07314,1999-12-25 23:00:00,11.8,1008.2,-3.5,89,10,,31.484,,,190,,,,,,,,,,,og-post,,,,AAXX 25234 07314 36/// /1917 10118 20100 30054 40082 58035=
07314,1999-12-26 01:00:00,11.3,1003.3,-6.6,89,9.6,,61.116,87.044,87.044,210,,,2,,,,,,,,og-post,,,,AAXX 26014 07314 26/// /2133 10113 20096 30005 40033 58066 333 60025 91047 91147=
07314,1999-12-26 02:00:00,11.9,999.7,-8.4,87,9.8,,64.82,94.452,94.452,210,,,0.2,,,,,,,,og-post,,,,AAXX 26024 07314 26/// /2135 10119 20098 39970 49997 58084 333 69925 91051 91151=
07314,1999-12-26 03:00:00,11.7,998.5,-7.4,93,10.6,,64.82,94.452,87.044,200,,,,3,,,,,,,og-post,,,,AAXX 26034 07314 26/// /2035 10117 20106 39958 49985 56074 333 60037 91047 91151=
07314,1999-12-26 04:00:00,13,996.9,-6.3,94,12.1,,75.932,107.416,107.416,220,,,0.4,,,,,,,,og-post,,,,AAXX 26044 07314 26/// /2241 10130 20121 39942 49969 56063 333 69945 91058 91158=
07314,1999-12-26 05:00:00,13.4,996.9,-2.8,94,12.5,,68.524,103.712,96.304,240,,,0.8,,,,,,,,og-post,,,,AAXX 26054 07314 26/// /2437 10134 20125 39942 49969 56028 333 69985 91052 91156=
07314,1999-12-26 06:00:00,14.2,997.4,-1.1,84,11.5,5000,68.524,107.416,96.304,250,11.1,14.2,,1,,5,,,,62,og-post,,,,AAXX 26064 07314 /1550 82537 10142 20115 39947 49974 55011 60052 76262 887// 222// 328// 333 10142 20111 60017 91052 91158 92456=
07314,1999-12-26 07:00:00,13.4,1000.3,3.4,80,10,,61.116,100.008,87.044,280,,,0.2,,,,,,,,og-post,,,,AAXX 26074 07314 26/// /2833 10134 20100 39976 40003 53034 333 69925 91047 91154=
07314,1999-12-26 08:00:00,12.9,1002.2,5.3,75,8.6,,57.412,90.748,87.044,280,,,,,,,,,,,og-post,,,,AAXX 26084 07314 26/// /2831 10129 20086 39995 40022 53053 333 69905 91047 91149=
07314,1999-12-26 09:00:00,12.9,1004.8,7.4,76,8.8,7000,53.708,100.008,75.932,270,,,,0.2,,,,,,62,og-post,,,,AAXX 26094 07314 21557 82729 10129 20088 30021 40048 51074 76262 887// 222// 328// 333 69927 91041 91154 92456=
07314,1999-12-26 11:00:00,12.7,1007.2,5,79,9.2,,38.892,72.228,,260,,,,,,,,,,,og-post,,,,AAXX 26114 07314 26/// /2621 10127 20092 30045 40072 51050 333 69905 91139=
07314,1999-12-26 12:00:00,13,1006.3,1.5,81,9.8,7000,42.596,100.008,,240,,,,,0.2,,,,,21,og-post,,,,AAXX 26124 07314 /1557 72423 10130 20098 30036 40063 50015 69921 72162 877// 222// 328// 333 69907 91154 92456=
07314,1999-12-26 13:00:00,12.9,1005.6,-1.3,84,10.3,,46.3,64.82,,240,,,,,,,,,,,og-post,,,,AAXX 26134 07314 36/// /2425 10129 20103 30029 40056 58013 333 91135=
07314,1999-12-26 14:00:00,13.2,1004.8,-2.4,85,10.7,,53.708,75.932,,240,,,,,,,,,,,og-post,,,,AAXX 26144 07314 36/// /2429 10132 20107 30021 40048 56024 333 91141=
07314,1999-12-26 15:00:00,13.4,1004,-2.3,82,10.4,8000,57.412,90.748,83.34,250,,,,,,,,,,,og-post,,,,AAXX 26154 07314 32558 72531 10134 20104 30013 40040 58023 877// 222// 328// 333 91045 91149 92456=
07314,1999-12-26 16:00:00,13.3,1003.5,-2.1,80,9.9,,61.116,90.748,79.636,250,,,,,,,,,,,og-post,,,,AAXX 26164 07314 36/// /2533 10133 20099 30008 40035 56021 333 91043 91149=
07314,1999-12-26 17:00:00,13.3,1003.9,-0.9,80,9.9,,57.412,87.044,83.34,250,,,,,,,,,,,og-post,,,,AAXX 26174 07314 36/// /2531 10133 20099 30012 40039 55009 333 91045 91147=
07314,1999-12-26 18:00:00,13.3,1004.1,0.1,82,10.3,8000,53.708,90.748,79.636,250,12.3,14.3,,,,0.2,,,,,og-post,,,,AAXX 26184 07314 12858 72529 10133 20103 30014 40041 53001 69922 8707/ 222// 328// 333 10143 20123 91043 91149 92456=
07314,1999-12-26 19:00:00,13.2,1003.7,0.2,82,10.2,,50.004,83.34,72.228,250,,,,,,,,,,,og-post,,,,AAXX 26194 07314 36/// /2527 10132 20102 30010 40037 50002 333 91039 91145=
07314,1999-12-26 20:00:00,13,1003.8,-0.1,84,10.4,,61.116,94.452,94.452,250,,,,,,,,,,,og-post,,,,AAXX 26204 07314 36/// /2533 10130 20104 30011 40038 58001 333 91051 91151=
07314,1999-12-26 22:00:00,12,1004.6,0.9,84,9.4,,53.708,90.748,75.932,260,,,3,,,,,,,,og-post,,,,AAXX 26224 07314 26/// /2629 10120 20094 30019 40046 53009 333 60035 91041 91149=
07314,1999-12-26 23:00:00,11.7,1005.6,1.7,80,8.4,,38.892,90.748,,280,,,0.8,,,,,,,,og-post,,,,AAXX 26234 07314 26/// /2821 10117 20084 30028 40056 53017 333 69985 91149=
07314,1999-12-27 00:00:00,11.5,1006.2,2.1,80,8.2,,35.188,94.452,,280,,,,3,4,,,,,,og-post,,,,AAXX 27004 07314 /6/// /2819 10115 20082 30034 40062 52021 60041 333 60037 91151=
07314,1999-12-27 01:00:00,11.4,1006.9,2.2,74,6.9,,38.892,64.82,61.116,280,,,,,,,,,,,og-post,,,,AAXX 27014 07314 36/// /2821 10114 20069 30041 40069 51022 333 91033 91135=
07314,1999-12-27 03:00:00,11.2,1007.4,1.2,72,6.3,,35.188,64.82,,280,,,,,,,,,,,og-post,,,,AAXX 27034 07314 36/// /2819 10112 20063 30046 40074 51012 333 91135=
07314,1999-12-27 04:00:00,11.1,1007.8,0.9,73,6.4,,31.484,,,290,,,,,,,,,,,og-post,,,,AAXX 27044 07314 36/// /2917 10111 20064 30050 40078 53009=
07314,1999-12-27 05:00:00,10.5,1007.3,0.5,82,7.6,,18.52,,,280,,,,,,,,,,,og-post,,,,AAXX 27054 07314 36/// /2810 10105 20076 30045 40073 50005=
07314,1999-12-27 06:00:00,11,1006.4,-1,76,6.9,18000,22.224,64.82,,290,10.5,13.4,,,,4,,,,,og-post,,,,AAXX 27064 07314 12868 82912 10110 20069 30036 40064 58010 60042 8802/ 222// 328// 333 10134 20105 91135 92467=
07314,1999-12-27 07:00:00,10.8,1006,-1.8,77,6.9,,18.52,,,270,,,,,,,,,,,og-post,,,,AAXX 27074 07314 36/// /2710 10108 20069 30032 40060 56018=
07314,1999-12-27 08:00:00,10.7,1004.1,-3.2,78,7,,11.112,,,220,,,,,,,,,,,og-post,,,,AAXX 27084 07314 36/// /2206 10107 20070 30013 40041 58032=
07314,1999-12-27 09:00:00,10.8,1004.1,-2.3,79,7.3,6000,14.816,,,200,,,,,,,,,,,og-post,,,,AAXX 27094 07314 32656 82008 10108 20073 30013 40041 56023 885// 222// 328// 333 92456=
07314,1999-12-27 10:00:00,9.4,1001.9,-4.1,91,8,,35.188,,,190,,,2,,,,,,,,og-post,,,,AAXX 27104 07314 26/// /1919 10094 20080 39991 40019 58041 333 60025=
07314,1999-12-27 12:00:00,7.3,995.2,-8.9,94,6.4,5000,29.632,,,150,,,,7,7,,,,,63,og-post,,,,AAXX 27124 07314 /1650 81516 10073 20064 39924 49952 58089 60071 76362 8802/ 222// 328// 333 60077 92456=
07314,1999-12-27 13:00:00,7.1,990.1,-11.8,96,6.5,,38.892,64.82,64.82,150,,,6,,,,,,,,og-post,,,,AAXX 27134 07314 26/// /1521 10071 20065 39873 49901 58118 333 60065 91035 91135=
07314,1999-12-27 14:00:00,12.5,986.2,-13.4,96,11.9,,61.116,94.452,94.452,230,,,11,,,,,,,,og-post,,,,AAXX 27144 07314 26/// /2333 10125 20119 39835 49862 56134 333 60115 91051 91151=
07314,1999-12-27 15:00:00,13.6,980.4,-14.7,87,11.5,2000,79.636,107.416,103.712,220,,,,19,,,,,,21,og-post,,,,AAXX 27154 07314 21520 82243 10136 20115 39777 49804 58147 72162 885// 222// 328// 333 60197 91056 91158 92465=
07314,1999-12-27 16:00:00,13.5,977.4,-12.6,75,9.2,,,198.164,,,,,,,,,,,,,og-post,,,,AAXX 27164 07314 36/// /0000 10135 20092 39747 49774 56126 333 91199 00107=
07314,1999-12-27 17:00:00,10.7,975.2,-11,84,8.1,,,,,,,,,,,,,,,,og-post,,,,AAXX 27174 07314 36/// /0000 10107 20081 39725 49752 56110=
07314,1999-12-27 18:00:00,9.6,971.7,-8.7,92,8.4,,,198.164,,,6.8,13.9,,2,,27,,,,,og-post,,,,AAXX 27184 07314 /6/// /0000 10096 20084 39690 49717 58087 60272 333 10139 20068 60027 91199 00107=
07314,1999-12-27 19:00:00,7.7,974.9,-2.5,94,6.8,,,,,,,,2,,,,,,,,og-post,,,,AAXX 27194 07314 26/// /0000 10077 20068 39722 49749 55025 333 60025=
07314,1999-12-27 20:00:00,7.8,982.7,7.5,91,6.4,,,,,,,,7,,,,,,,,og-post,,,,AAXX 27204 07314 26/// /0000 10078 20064 39800 49827 53075 333 60075=
07314,1999-12-27 21:00:00,9.2,988.3,0.6,84,6.6,,,,,,,,,9,,,,,,,og-post,,,,AAXX 27214 07314 26/// /0000 10092 20066 39856 49883 53166 333 60097=
07314,1999-12-27 22:00:00,9.7,993.5,0.6,78,6.1,,,,,,,,,,,,,,,,og-post,,,,AAXX 27224 07314 36/// /0000 10097 20061 39908 49935 51186=
07314,1999-12-27 23:00:00,9.7,996.5,0.7,75,5.5,,,,,,,,,,,,,,,,og-post,,,,AAXX 27234 07314 36/// /0000 10097 20055 39937 49965 51137=
07314,1999-12-28 00:00:00,8.9,999.3,0.9,79,5.5,,,,,,,,,,9,,,,,,og-post,,,,AAXX 28004 07314 16/// /0000 10089 20055 39965 49993 51109 60091=
07314,1999-12-28 01:00:00,9.1,1001.3,7.7,73,4.5,,,,,,,,,,,,,,,,og-post,,,,AAXX 28014 07314 36/// /0000 10091 20045 39985 40013 51077=
07314,1999-12-28 02:00:00,9,1003.1,6.6,74,4.6,,,,,,,,,,,,,,,,og-post,,,,AAXX 28024 07314 36/// /0000 10090 20046 30003 40031 51066=
07314,1999-12-28 03:00:00,8.4,1004.7,5.4,79,5,,,,,,,,,,,,,,,,og-post,,,,AAXX 28034 07314 36/// /0000 10084 20050 30019 40047 51054=
07314,1999-12-28 04:00:00,8.9,1005,3.7,70,3.7,,,,,,,,,,,,,,,,og-post,,,,AAXX 28044 07314 36/// /0000 10089 20037 30022 40050 51037=
07314,1999-12-28 05:00:00,6.7,1006.2,3.1,84,4.2,,,,,,,,,,,,,,,,og-post,,,,AAXX 28054 07314 36/// /0000 10067 20042 30034 40062 51031=
07314,1999-12-28 06:00:00,8.3,1006.2,1.5,77,4.5,14000,,,,,6.1,10.1,,,,9,,,,88,og-post,,,,AAXX 28064 07314 /1564 50000 10083 20045 30034 40062 51015 60092 78882 83300 222// 328// 333 10101 20061 69907 92467=
07314,1999-12-28 07:00:00,9,1006.7,1.7,70,3.8,,,,,,,,,,,,,,,,og-post,,,,AAXX 28074 07314 26/// /0000 10090 20038 30039 40067 51017 333 69905=
07314,1999-12-28 08:00:00,5.7,1008,1.8,82,2.9,,,,,,,,,,,,,,,,og-post,,,,AAXX 28084 07314 26/// /0000 10057 20029 30052 40080 53018 333 69905=
07314,1999-12-28 09:00:00,7.6,1008.9,2.7,81,4.6,,,,,,,,,,,,,,,,og-post,,,,AAXX 28094 07314 26/// /0000 10076 20046 30061 40089 53027 333 69907=
07314,1999-12-28 10:00:00,7.1,1009.4,2.7,81,4.1,,,,,,,,,,,,,,,,og-post,,,,AAXX 28104 07314 26/// /0000 10071 20041 30066 40094 51027 333 69905=
07314,1999-12-28 11:00:00,8.9,1009.6,1.6,76,4.9,,,,,,,,,,,,,,,,og-post,,,,AAXX 28114 07314 26/// /0000 10089 20049 30068 40096 51016 333 69905=
07314,1999-12-28 12:00:00,8.1,1009.7,0.8,74,3.8,18000,,,,,,,,,,,,,,27,og-post,,,,AAXX 28124 07314 /1568 50000 10081 20038 30069 40097 51008 69901 72722 83333 222// 328// 333 69907 92467=
07314,1999-12-28 13:00:00,8.1,1009.7,0.3,79,4.7,,,,,,,,0.2,,,,,,,,og-post,,,,AAXX 28134 07314 26/// /0000 10081 20047 30069 40097 51003 333 69925=
07314,1999-12-28 14:00:00,8,1009.4,-0.2,76,4,,,,,,,,,,,,,,,,og-post,,,,AAXX 28144 07314 36/// /0000 10080 20040 30066 40094 58002=
07314,1999-12-28 15:00:00,7,1009.8,0.1,81,4,16000,,,,,,,,0.6,,,,,,15,og-post,,,,AAXX 28154 07314 21566 60000 10070 20040 30070 40098 53001 71582 83330 222// 328// 333 69967 92458=
07314,1999-12-28 16:00:00,7.6,1010.1,0.4,79,4.2,,,,,,,,,,,,,,,,og-post,,,,AAXX 28164 07314 36/// /0000 10076 20042 30073 40101 53004=
07314,1999-12-28 17:00:00,8.3,1010.6,1.2,74,3.9,,,,,,,,,,,,,,,,og-post,,,,AAXX 28174 07314 36/// /0000 10083 20039 30078 40106 53012=
07314,1999-12-28 18:00:00,7.8,1011.2,1.4,73,3.3,18000,,,,,5.5,9.4,,,,0.6,,,,2,og-post,,,,AAXX 28184 07314 11568 60000 10078 20033 30084 40112 53014 69962 70282 83330 222// 328// 333 10094 20055 92458=
07314,1999-12-28 19:00:00,7.8,1012.2,2.1,72,3.1,,,,,,,,,,,,,,,,og-post,,,,AAXX 28194 07314 36/// /0000 10078 20031 30094 40122 53021=
07314,1999-12-28 20:00:00,7.5,1013,2.4,75,3.4,,,,,,,,,,,,,,,,og-post,,,,AAXX 28204 07314 36/// /0000 10075 20034 30102 40130 53024=
07314,1999-12-28 21:00:00,7,1013.7,2.5,75,2.9,20000,,,,,,,,,,,,,,,og-post,,,,AAXX 28214 07314 32970 00000 10070 20029 30109 40137 51025 222// 328// 333 92448=
07314,1999-12-28 22:00:00,7.1,1014.4,2.2,76,3.2,,,,,,,,,,,,,,,,og-post,,,,AAXX 28224 07314 36/// /0000 10071 20032 30116 40144 51022=
07314,1999-12-28 23:00:00,6.9,1014.9,1.9,74,2.6,,,,,,,,,,,,,,,,og-post,,,,AAXX 28234 07314 36/// /0000 10069 20026 30121 40149 51019=
07314,1999-12-29 00:00:00,7,1015.2,1.5,73,2.5,,,,,,,,,,,,,,,,og-post,,,,AAXX 29004 07314 36/// /0000 10070 20025 30124 40152 51015=
07314,1999-12-29 01:00:00,6.7,1015.5,1.1,77,3,,,,,,,,,,,,,,,,og-post,,,,AAXX 29014 07314 36/// /0000 10067 20030 30127 40155 51011=
07314,1999-12-29 02:00:00,6.7,1015.7,0.8,79,3.3,,,,,,,,,,,,,,,,og-post,,,,AAXX 29024 07314 36/// /0000 10067 20033 30129 40157 51008=
07314,1999-12-29 03:00:00,6.3,1016.8,1.6,80,3.1,,,,,,,,,,,,,,,,og-post,,,,AAXX 29034 07314 36/// /0000 10063 20031 30140 40168 53016=
07314,1999-12-29 04:00:00,6.3,1017.1,1.6,80,3.1,,,,,,,,,,,,,,,,og-post,,,,AAXX 29044 07314 36/// /0000 10063 20031 30143 40171 53016=
07314,1999-12-29 05:00:00,6,1017.6,1.9,79,2.6,,,,,,,,,,,,,,,,og-post,,,,AAXX 29054 07314 36/// /0000 10060 20026 30148 40176 51019=
07314,1999-12-29 06:00:00,5.5,1018.4,1.5,79,2.2,20000,3.704,,,10,5.5,7.9,,,,,,,,,og-post,,,,AAXX 29064 07314 32970 00102 10055 20022 30155 40184 53015 222// 328// 333 10079 20055 92448=
07314,1999-12-29 07:00:00,5,1018.8,1.6,80,1.8,,14.816,,,10,,,,,,,,,,,og-post,,,,AAXX 29074 07314 36/// /0108 10050 20018 30159 40188 51016=
07314,1999-12-29 09:00:00,6,1020.7,2.3,80,2.8,18000,18.52,,,20,,,,,,,,,,,og-post,,,,AAXX 29094 07314 32568 10210 10060 20028 30178 40207 53023 81200 222// 328// 333 92448=
07314,1999-12-29 10:00:00,6.8,1021.3,2.5,77,3.1,,14.816,,,350,,,,,,,,,,,og-post,,,,AAXX 29104 07314 36/// /3508 10068 20031 30184 40213 51025=
07314,1999-12-29 11:00:00,7.3,1021.7,2.3,73,2.8,,7.408,,,300,,,,,,,,,,,og-post,,,,AAXX 29114 07314 36/// /3004 10073 20028 30189 40217 51023=
07314,1999-12-29 12:00:00,7.5,1022,1.4,73,3,,29.632,,140.752,300,,,,,,,,,,,og-post,,,,AAXX 29124 07314 36/// /3016 10075 20030 30192 40220 51014 333 91076=
07314,1999-12-29 13:00:00,8,1022.4,1.2,71,3.1,,3.704,,,310,,,,,,,,,,,og-post,,,,AAXX 29134 07314 36/// /3102 10080 20031 30196 40224 51012=
07314,1999-12-29 14:00:00,8.4,1022,0.3,70,3.3,,,,,,,,,,,,,,,,og-post,,,,AAXX 29144 07314 36/// /0000 10084 20033 30192 40220 50003=
07314,1999-12-29 15:00:00,8.7,1022.4,0.4,68,3.1,20000,,,,,,,,,,,,,,,og-post,,,,AAXX 29154 07314 32570 20000 10087 20031 30196 40224 52004 81230 222// 328// 333 92448=
07314,1999-12-29 16:00:00,8.4,1023,0.6,68,2.8,,7.408,,,300,,,,,,,,,,,og-post,,,,AAXX 29164 07314 36/// /3004 10084 20028 30202 40230 53006=
07314,1999-12-29 17:00:00,8.5,1023.3,1.3,70,3.4,,,,,,,,,,,,,,,,og-post,,,,AAXX 29174 07314 36/// /0000 10085 20034 30205 40233 51013=
07314,1999-12-29 18:00:00,8.4,1024.1,1.7,75,4.2,16000,,,,,5,8.7,,,,,,,,,og-post,,,,AAXX 29184 07314 32566 60000 10084 20042 30213 40241 53017 86200 222// 328// 333 10087 20050 92447=
07314,1999-12-29 19:00:00,8.3,1024.9,1.9,77,4.5,,,,,,,,,,,,,,,,og-post,,,,AAXX 29194 07314 36/// /0000 10083 20045 30221 40249 53019=
07314,1999-12-29 20:00:00,7.7,1025.8,2.4,79,4.3,,,,,,,,,,,,,,,,og-post,,,,AAXX 29204 07314 36/// /0000 10077 20043 30229 40258 52024=
07314,1999-12-29 22:00:00,7.2,1027,2,81,4.2,,,,,,,,,,,,,,,,og-post,,,,AAXX 29224 07314 36/// /0000 10072 20042 30241 40270 53020=
07314,1999-12-29 23:00:00,7.1,1027.3,1.5,82,4.2,,,,,,,,,,,,,,,,og-post,,,,AAXX 29234 07314 36/// /0000 10071 20042 30244 40273 53015=
07314,1999-12-30 00:00:00,7,1028.2,2.5,84,4.5,,,,,,,,,,,,,,,,og-post,,,,AAXX 30004 07314 36/// /0000 10070 20045 30253 40282 51025=
07314,1999-12-30 01:00:00,6.8,1028.8,1.8,84,4.3,,,,,,,,,,,,,,,,og-post,,,,AAXX 30014 07314 36/// /0000 10068 20043 30259 40288 53018=
07314,1999-12-30 02:00:00,6.1,1028.2,0.9,85,3.8,,,,,,,,,,,,,,,,og-post,,,,AAXX 30024 07314 36/// /0000 10061 20038 30253 40282 50009=
07314,1999-12-30 03:00:00,5.3,1028.1,-0.1,86,3.2,,,,,,,,,,,,,,,,og-post,,,,AAXX 30034 07314 36/// /0000 10053 20032 30252 40281 58001=
07314,1999-12-30 04:00:00,5.3,1028.4,-0.4,87,3.3,,,,,,,,,,,,,,,,og-post,,,,AAXX 30044 07314 36/// /0000 10053 20033 30255 40284 55004=
07314,1999-12-30 05:00:00,4.8,1028.7,0.5,88,3,,,,,,,,,,,,,,,,og-post,,,,AAXX 30054 07314 36/// /0000 10048 20030 30258 40287 53005=
07314,1999-12-30 06:00:00,3.7,1028.8,0.7,89,2.1,6000,,,,,3.5,8.5,,,,,,,,,og-post,,,,AAXX 30064 07314 32/56 40000 10037 20021 30259 40288 51007 84600 222// 328// 333 10085 20035 92436=
07314,1999-12-30 07:00:00,4.2,1029.5,1.1,90,2.7,,,,,,,,,,,,,,,,og-post,,,,AAXX 30074 07314 36/// /0000 10042 20027 30266 40295 53011=
07314,1999-12-30 08:00:00,4.7,1029.6,0.9,91,3.4,,,,,,,,,,,,,,,,og-post,,,,AAXX 30084 07314 36/// /0000 10047 20034 30267 40296 52009=
07314,1999-12-30 09:00:00,4.7,1030.1,1.3,91,3.4,14000,,,,,,,,,,,,,,,og-post,,,,AAXX 30094 07314 32564 70000 10047 20034 30272 40301 51013 81232 222// 328// 333 92437=
07314,1999-12-30 10:00:00,8.1,1030.1,0.6,86,5.9,,,,,,,,,,,,,,,,og-post,,,,AAXX 30104 07314 36/// /0000 10081 20059 30272 40301 51006=
07314,1999-12-30 11:00:00,8.6,1030.2,0.6,81,5.5,,,,,,,,,,,,,,,,og-post,,,,AAXX 30114 07314 36/// /0000 10086 20055 30273 40302 51006=
07314,1999-12-30 12:00:00,8.5,1029.6,-0.5,83,5.8,15000,,,,,,,,0.2,0.2,,,,,80,og-post,,,,AAXX 30124 07314 /1565 70000 10085 20058 30267 40296 58005 69921 78011 8422/ 222// 328// 333 69927 92437=
07314,1999-12-30 13:00:00,8.8,1028.8,-1.3,85,6.4,,,,,,,,0.8,,,,,,,,og-post,,,,AAXX 30134 07314 26/// /0000 10088 20064 30259 40288 58013 333 69985=
07314,1999-12-30 14:00:00,8.9,1027.7,-2.4,79,5.5,,,,,,,,,,,,,,,,og-post,,,,AAXX 30144 07314 26/// /0000 10089 20055 30249 40277 58024 333 69905=
07314,1999-12-30 15:00:00,9.4,1027.7,-1.8,80,6.1,16000,,,,,,,,0.8,,,,,,25,og-post,,,,AAXX 30154 07314 21566 80000 10094 20061 30249 40277 56018 72522 8422/ 222// 328// 333 69987 92437=
07314,1999-12-30 16:00:00,9.3,1027.1,-1.6,82,6.4,,,,,,,,,,,,,,,,og-post,,,,AAXX 30164 07314 36/// /0000 10093 20064 30243 40271 56016=
07314,1999-12-30 17:00:00,9.4,1027.1,-0.6,81,6.3,,,,,,,,,,,,,,,,og-post,,,,AAXX 30174 07314 36/// /0000 10094 20063 30243 40271 57006=
07314,1999-12-30 18:00:00,9.6,1026.4,-1.3,81,6.5,20000,,,,,3.7,9.6,,,,1,,,,,og-post,,,,AAXX 30184 07314 12570 50000 10096 20065 30236 40264 58013 60012 8222/ 222// 328// 333 10096 20037 92428=
07314,1999-12-30 19:00:00,9.8,1025.9,-1.2,79,6.3,,,,,,,,,,,,,,,,og-post,,,,AAXX 30194 07314 36/// /0000 10098 20063 30231 40259 58012=
07314,1999-12-30 20:00:00,9.6,1025.6,-1.5,82,6.7,,,,,,,,,,,,,,,,og-post,,,,AAXX 30204 07314 36/// /0000 10096 20067 30228 40256 56015=
07314,1999-12-30 21:00:00,10.2,1025.2,-1.2,79,6.7,22000,,,,,,,,,,,,,,,og-post,,,,AAXX 30214 07314 32572 70000 10102 20067 30224 40252 56012 8222/ 222// 328// 333 92428=
07314,1999-12-30 22:00:00,9.1,1025.3,-0.6,85,6.7,,,,,,,,,,,,,,,,og-post,,,,AAXX 30224 07314 36/// /0000 10091 20067 30225 40253 55006=
07314,1999-12-30 23:00:00,9.4,1024.7,-0.9,89,7.7,,,,,,,,0.8,,,,,,,,og-post,,,,AAXX 30234 07314 26/// /0000 10094 20077 30219 40247 58009 333 69985=
07314,1999-12-31 00:00:00,9.6,1024.2,-1,91,8.2,,,,,,,,,1,1,,,,,,og-post,,,,AAXX 31004 07314 /6/// /0000 10096 20082 30214 40242 58010 60011 333 60017=
07314,1999-12-31 01:00:00,9.7,1023.7,-1.6,92,8.5,,,,,,,,0.2,,,,,,,,og-post,,,,AAXX 31014 07314 26/// /0000 10097 20085 30209 40237 56016 333 69925=
07314,1999-12-31 02:00:00,9.7,1023.2,-1.5,93,8.6,,,,,,,,,,,,,,,,og-post,,,,AAXX 31024 07314 36/// /0000 10097 20086 30204 40232 57015=
07314,1999-12-31 03:00:00,9.8,1022.6,-1.6,94,8.9,,,,,,,,,0.2,,,,,,,og-post,,,,AAXX 31034 07314 26/// /0000 10098 20089 30198 40226 58016 333 69927=
07314,1999-12-31 04:00:00,10.1,1022.1,-1.6,94,9.2,,,,,,,,,,,,,,,,og-post,,,,AAXX 31044 07314 26/// /0000 10101 20092 30193 40221 57016 333 69905=
07314,1999-12-31 05:00:00,10.1,1021.6,-1.6,95,9.3,,,,,,,,0.4,,,,,,,,og-post,,,,AAXX 31054 07314 26/// /0000 10101 20093 30188 40216 56016 333 69945=
07314,1999-12-31 06:00:00,10.3,1021.9,-0.7,96,9.7,,,,,,9,10.3,,2,,3,,,,,og-post,,,,AAXX 31064 07314 /6/// /0000 10103 20097 30191 40219 55007 60032 333 10103 20090 60027=
07314,1999-12-31 07:00:00,10.3,1022.2,0.1,96,9.7,,,,,,,,,,,,,,,,og-post,,,,AAXX 31074 07314 36/// /0000 10103 20097 30194 40222 53001=
07314,1999-12-31 08:00:00,10.1,1022.7,1.1,96,9.5,,,,,,,,,,,,,,,,og-post,,,,AAXX 31084 07314 36/// /0000 10101 20095 30199 40227 53011=
07314,1999-12-31 09:00:00,10.3,1023.4,1.5,96,9.7,16000,,,,,,,,,,,,,,2,og-post,,,,AAXX 31094 07314 31566 60000 10103 20097 30206 40234 53015 70282 8127 222// 328// 333 92447=
07314,1999-12-31 10:00:00,10.3,1024,1.8,95,9.5,,,,,,,,,,,,,,,,og-post,,,,AAXX 31104 07314 36/// /0000 10103 20095 30212 40240 53018=
07314,1999-12-31 11:00:00,10.4,1024.2,1.5,95,9.6,,,,,,,,,,,,,,,,og-post,,,,AAXX 31114 07314 36/// /0000 10104 20096 30214 40242 51015=
07314,1999-12-31 12:00:00,10.5,1023.9,0.5,95,9.7,16000,,,,,,,,,,,,,,2,og-post,,,,AAXX 31124 07314 31566 60000 10105 20097 30211 40239 50005 70282 8227/ 222// 328// 333 92437=
07314,1999-12-31 13:00:00,10.6,1023.9,-0.1,95,9.8,,,,,,,,,,,,,,,,og-post,,,,AAXX 31134 07314 36/// /0000 10106 20098 30211 40239 58001=
07314,1999-12-31 14:00:00,10.8,1023.5,-0.7,93,9.7,,,,,,,,,,,,,,,,og-post,,,,AAXX 31144 07314 36/// /0000 10108 20097 30207 40235 58007=
07314,1999-12-31 15:00:00,10.5,1024.1,0.2,92,9.3,18000,,,,,,,,,,,,,,,og-post,,,,AAXX 31154 07314 32968 70000 10105 20093 30213 40241 53002 8707/ 222// 328// 333 92437=
07314,1999-12-31 16:00:00,10.1,1024.3,0.4,92,8.9,,,,,,,,,,,,,,,,og-post,,,,AAXX 31164 07314 36/// /0000 10101 20089 30215 40243 53004=
07314,1999-12-31 17:00:00,10.1,1024.8,1.3,93,9,,,,,,,,,,,,,,,,og-post,,,,AAXX 31174 07314 36/// /0000 10101 20090 30220 40248 51013=
07314,1999-12-31 18:00:00,10.1,1025.1,1,93,9,20000,,,,,10,10.8,,,,,,,,,og-post,,,,AAXX 31184 07314 32570 70000 10101 20090 30223 40251 53010 8127/ 222// 328// 333 10108 20100 92448=
07314,1999-12-31 19:00:00,10,1025.6,1.3,93,8.9,,,,,,,,,,,,,,,,og-post,,,,AAXX 31194 07314 36/// /0000 10100 20089 30228 40256 52013=
07314,1999-12-31 20:00:00,9.8,1026.1,1.3,94,8.9,,,,,,,,,,,,,,,,og-post,,,,AAXX 31204 07314 36/// /0000 10098 20089 30233 40261 53013=
07314,1999-12-31 21:00:00,9.6,1026.6,1.5,94,8.7,,,,,,,,,0.2,,,,,,,og-post,,,,AAXX 31214 07314 26/// /0000 10096 20087 30238 40266 52015 333 69927=
07314,1999-12-31 22:00:00,9.6,1026.8,1.2,95,8.8,,,,,,,,0.2,,,,,,,,og-post,,,,AAXX 31224 07314 26/// /0000 10096 20088 30240 40268 51012 333 69925=
07314,1999-12-31 23:00:00,9.6,1027.1,1,95,8.8,,,,,,,,,,,,,,,,og-post,,,,AAXX 31234 07314 26/// /0000 10096 20088 30243 40271 51010 333 69905=
