station_id,dh_utc,temperature,pression,pression_variation_3h,humidite,point_de_rosee,visibilite,vent_moyen,vent_rafales,vent_rafales_10min,vent_direction,temperature_min,temperature_max,pluie_1h,pluie_3h,pluie_6h,pluie_12h,pluie_24h,ensoleillement,temperature_sol,temps_omm,source,radiations,neige_au_sol,nebulosite,raw_msg
07005,1996-01-01 00:00:00,3,1000.3,1,100,3,0,7.408,,,170,,,,,,,,,,,wg-a,,,,AAXX 01004 07005 12/// /1704 10030 20030 39909 40003 51010 60006 90000=
07005,1996-01-01 06:00:00,3,1000.3,0.2,100,3,100,11.112,,,120,2.3,3.2,,,,,,,,45,wg-a,,,,AAXX 01064 07005 12/01 91206 10030 20030 39909 40003 53002 60006 745// 89/// 90600 333 10032 20023=
07005,1996-01-01 12:00:00,4,999.8,-0.7,100,4,1600,18.52,,,100,,,,,,,,,,10,wg-a,,,,AAXX 01124 07005 12216 81010 10040 20040 39904 49998 58007 60006 71022 886// 91200=
07005,1996-01-01 18:00:00,3,1001,0.9,100,3,0,14.816,,,100,2.8,4.8,,,,,,,,,wg-a,,,,AAXX 01184 07005 12/// /1008 10030 20030 39916 40010 51009 60006 91800 333 10048 20028=
07005,1996-01-02 00:00:00,4,1002.1,1,100,4,0,14.816,,,90,,,,,,,,,,,wg-a,,,,AAXX 02004 07005 12/// /0908 10040 20040 39927 40021 51010 60006 90000=
07005,1996-01-02 06:00:00,3,1005.8,2.2,100,3,300,7.408,,,60,2.8,3.9,,,,,,,,46,wg-a,,,,AAXX 02064 07005 12203 80604 10030 20030 39963 40058 53022 60006 74642 887// 90600 333 10039 20028=
07005,1996-01-02 12:00:00,2,1012.3,2.7,100,2,200,3.704,,,20,,,,,,,,,,45,wg-a,,,,AAXX 02124 07005 12/02 90202 10020 20020 30027 40123 51027 60006 74544 89/// 91200=
07005,1996-01-02 18:00:00,2,1017.8,3,100,2,200,11.112,,,20,1.3,2.9,,,,,,,,45,wg-a,,,,AAXX 02184 07005 12/02 90206 10020 20020 30082 40178 51030 60006 74544 89/// 91800 333 10029 20013=
07005,1996-01-03 00:00:00,3,1021.2,1.5,100,3,0,3.704,,,130,,,,,,,,,,,wg-a,,,,AAXX 03004 07005 12/// /1302 10030 20030 30115 40212 53015 60006 90000=
07005,1996-01-03 06:00:00,2,1022,0.1,100,2,100,11.112,,,140,1.6,2.7,,,,,,,,47,wg-a,,,,AAXX 03064 07005 12/01 91406 10020 20020 30123 40220 53001 60006 7474/ 89/// 90600 333 10027 20016=
07005,1996-01-03 12:00:00,0,1022.9,-0.4,100,0,100,18.52,,,150,,,,,,,,,,47,wg-a,,,,AAXX 03124 07005 12/01 91510 10000 20000 30131 40229 58004 60006 74744 89/// 91200=
07005,1996-01-03 18:00:00,1,1022.3,0.2,100,1,100,22.224,,,140,0.1,1.6,,,,,,,,45,wg-a,,,,AAXX 03184 07005 12/01 91412 10010 20010 30126 40223 50002 60006 74544 89/// 91800 333 10016 20001=
07005,1996-01-04 00:00:00,1,1020.5,-1.3,100,1,0,29.632,,,150,,,,,,,,,,,wg-a,,,,AAXX 04004 07005 12/// /1516 10010 20010 30108 40205 56013 60006 90000=
07005,1996-01-04 06:00:00,0,1016.6,-2.1,100,0,1600,29.632,,,140,0.1,1.6,,,,,,,,10,wg-a,,,,AAXX 04064 07005 12316 81416 10000 20000 30069 40166 56021 60006 71022 886// 90600 333 10016 20001=
07005,1996-01-04 12:00:00,2,1012.4,-2.4,93,1,500,29.632,,,130,,,,,,,,,,,wg-a,,,,AAXX 04124 07005 12400 81316 10020 20010 30028 40124 58024 60006 875// 91200=
07005,1996-01-04 18:00:00,2,1008.1,-1,93,1,500,31.484,,,150,0,2.8,,,,,,,,,wg-a,,,,AAXX 04184 07005 12600 81517 10020 20010 39986 40081 56010 60006 8557/ 91800 333 10028 20000=
07005,1996-01-05 00:00:00,2,1005.8,-1.3,93,1,0,29.632,,,150,,,,,,,,,,,wg-a,,,,AAXX 05004 07005 12/// /1516 10020 20010 39963 40058 56013 60016 90000=
07005,1996-01-05 06:00:00,2,1002.3,-1.6,93,1,6000,22.224,,,130,1.3,2.3,,,,,1,,,,wg-a,,,,AAXX 05064 07005 12556 81312 10020 20010 39928 40023 57016 60014 885// 90600 333 10023 20013=
07005,1996-01-05 12:00:00,5,999.2,-1.4,87,3,500,22.224,,,150,,,,,,,,,,,wg-a,,,,AAXX 05124 07005 12600 71512 10050 20030 39898 49992 58014 60006 875// 91200=
07005,1996-01-05 18:00:00,4,998.2,0.5,87,2,6000,18.52,,,130,1.7,4.9,,,,,,,,,wg-a,,,,AAXX 05184 07005 12656 81310 10040 20020 39888 49982 53005 60006 875// 91800 333 10049 20017=
07005,1996-01-06 00:00:00,4,998.1,-0.3,93,3,0,11.112,,,170,,,,,,,,,,,wg-a,,,,AAXX 06004 07005 12/// /1706 10040 20030 39887 49981 55003 60116 90000=
07005,1996-01-06 06:00:00,4,997.1,-0.6,93,3,100,11.112,,,130,3.1,4.2,,,,,11,,,47,wg-a,,,,AAXX 06064 07005 12/01 91306 10040 20030 39877 49971 56006 60114 7476/ 89/// 90600 333 10042 20031=
07005,1996-01-06 12:00:00,5,994.8,-1.9,100,5,1300,25.928,,,150,,,,,,,,,,28,wg-a,,,,AAXX 06124 07005 12213 81514 10050 20050 39855 49948 58019 60006 72842 886// 91200=
07005,1996-01-06 18:00:00,4,989.2,-3.1,93,3,0,31.484,,,130,3.7,5.5,,,,,,,,,wg-a,,,,AAXX 06184 07005 12/// /1317 10040 20030 39799 49892 58031 60006 91800 333 10055 20037=
07005,1996-01-07 00:00:00,6,986.7,-1.2,93,5,0,18.52,,,150,,,,,,,,,,,wg-a,,,,AAXX 07004 07005 12/// /1510 10060 20050 39775 49867 56012 60056 90000=
07005,1996-01-07 06:00:00,9,988.4,1.4,93,8,15000,18.52,,,190,4,9.3,,,,,5,,,,wg-a,,,,AAXX 07064 07005 12/65 71910 10090 20080 39793 49884 53014 60054 85072 90600 333 10093 20040=
07005,1996-01-07 12:00:00,11,994.5,3.6,82,8,15000,22.224,,,220,,,,,,,,,,,wg-a,,,,AAXX 07124 07005 12/65 52212 10110 20080 39854 49945 51036 60006 80002 91200=
07005,1996-01-07 18:00:00,9,1000.6,2.8,81,6,0,14.816,,,180,8.6,12.1,,,,,,,,,wg-a,,,,AAXX 07184 07005 12/// /1808 10090 20060 39914 40006 51028 60006 91800 333 10121 20086=
07005,1996-01-08 00:00:00,7,1004.7,1.6,93,6,0,14.816,,,150,,,,,,,,,,,wg-a,,,,AAXX 08004 07005 12/// /1508 10070 20060 39954 40047 51016 60006 90000=
07005,1996-01-08 06:00:00,6,1007.1,0.5,93,5,10000,18.52,,,160,5.8,9,,,,,,,,,wg-a,,,,AAXX 08064 07005 12460 71610 10060 20050 39977 40071 52005 60006 82502 90600 333 10090 20058=
07005,1996-01-08 12:00:00,10,1007,-0.7,87,8,15000,25.928,,,160,,,,,,,,,,,wg-a,,,,AAXX 08124 07005 12365 51614 10100 20080 39977 40070 58007 60006 83542 91200=
07005,1996-01-08 18:00:00,9,1003.8,-1.3,81,6,15000,35.188,,,150,6,11.1,,,,,,,,,wg-a,,,,AAXX 08184 07005 12/65 71519 10090 20060 39945 40038 56013 60006 85052 91800 333 10111 20060=
07005,1996-01-09 00:00:00,8,1000.4,-2.1,81,5,0,29.632,,,140,,,,,,,,,,,wg-a,,,,AAXX 09004 07005 12/// /1416 10080 20050 39911 40004 58021 60006 90000=
07005,1996-01-09 06:00:00,7,997.3,-1,87,5,8000,22.224,,,150,6.9,9.3,,1,,,1,,,61,wg-a,,,,AAXX 09064 07005 02358 81512 10070 20050 39880 49973 56010 60014 7616/ 8557/ 90600 333 10093 20069 60017=
07005,1996-01-09 12:00:00,9,1000,0.8,87,7,0,18.52,,,190,,,,,,,,,,,wg-a,,,,AAXX 09124 07005 12/// /1910 10090 20070 39908 40000 53008 60016 91200=
07005,1996-01-09 18:00:00,8,1003.8,2.1,93,7,15000,22.224,,,180,7.3,9.5,,,,,,,,,wg-a,,,,AAXX 09184 07005 32/65 41812 10080 20070 39945 40038 52021 82032 91800 333 10095 20073=
07005,1996-01-10 00:00:00,7,1005.7,1.3,100,7,0,18.52,,,150,,,,,,,,,,,wg-a,,,,AAXX 10004 07005 12/// /1510 10070 20070 39964 40057 51013 60006 90000=
07005,1996-01-10 06:00:00,7,1005.4,-0.5,93,6,100,11.112,,,130,5.6,8,,,,,1,,,45,wg-a,,,,AAXX 10064 07005 02/01 91306 10070 20060 39960 40054 55005 60006 74544 89/// 90600 333 10080 20056 60014=
07005,1996-01-10 12:00:00,8,1006.4,-0.1,100,8,900,11.112,,,150,,,,2,,,,,,61,wg-a,,,,AAXX 10124 07005 02009 81506 10080 20080 39971 40064 58001 60026 76164 877// 91200 333 60027=
07005,1996-01-10 18:00:00,8,1006.1,0.3,100,8,1200,7.408,,,140,6.5,8.5,,0,,,,,,60,wg-a,,,,AAXX 10184 07005 12112 81404 10080 20080 39968 40061 53003 60007 76064 877// 91800 333 10085 20065=
07005,1996-01-11 00:00:00,7,1004.2,-1.7,100,7,0,14.816,,,130,,,,,,,,,,,wg-a,,,,AAXX 11004 07005 12/// /1308 10070 20070 39949 40042 58017 60006 90000=
07005,1996-01-11 06:00:00,7,1000.8,-1.4,100,7,4000,18.52,,,180,7.2,8.4,,,,,5,,,,wg-a,,,,AAXX 11064 07005 12540 81810 10070 20070 39915 40008 56014 60054 885// 90600 333 10084 20072=
07005,1996-01-11 12:00:00,8,997.4,-2.5,87,6,15000,29.632,,96.304,160,,,,,,,,,,,wg-a,,,,AAXX 11124 07005 12465 81616 10080 20060 39882 49974 58025 60006 875// 91200 333 91052=
07005,1996-01-11 18:00:00,8,994.1,0.2,87,6,20000,31.484,,,170,7,8.5,,,,,,,,2,wg-a,,,,AAXX 11184 07005 32470 81717 10080 20060 39849 49941 51002 70262 875// 91800 333 10085 20070=
07005,1996-01-12 00:00:00,9,994.8,0.5,87,7,0,22.224,,,180,,,,,,,,,,,wg-a,,,,AAXX 12004 07005 12/// /1812 10090 20070 39856 49948 50005 60006 90000=
07005,1996-01-12 06:00:00,8,997,1.3,87,6,20000,22.224,,,160,7.8,9.4,,,,,,,,,wg-a,,,,AAXX 12064 07005 12770 51612 10080 20060 39878 49970 53013 60004 835/2 90600 333 10094 20078=
07005,1996-01-12 12:00:00,10,999.4,0.9,82,7,25000,25.928,,,170,,,,,,,,,,,wg-a,,,,AAXX 12124 07005 12475 61714 10100 20070 39902 49994 51009 60006 81802 91200=
07005,1996-01-12 18:00:00,8,1002.6,1.8,87,6,20000,22.224,,,180,7.5,11,,,,,,,,,wg-a,,,,AAXX 12184 07005 12/70 51812 10080 20060 39933 40026 53018 60006 80002 91800 333 10110 20075=
07005,1996-01-13 00:00:00,9,1006,1.9,87,7,0,22.224,,,190,,,,,,,,,,,wg-a,,,,AAXX 13004 07005 12/// /1912 10090 20070 39967 40060 53019 60006 90000=
07005,1996-01-13 06:00:00,7,1009.3,2.1,93,6,10000,22.224,,,170,7.1,9,,,,,,,,,wg-a,,,,AAXX 13064 07005 12460 21712 10070 20060 39999 40093 51021 60006 82500 90600 333 10090 20071=
07005,1996-01-13 12:00:00,11,1013.1,1.2,82,8,10000,25.928,,,180,,,,,,,,,,,wg-a,,,,AAXX 13124 07005 12560 51814 10110 20080 30038 40131 51012 60006 85501 91200=
07005,1996-01-13 18:00:00,8,1015.4,1.6,87,6,0,22.224,,,160,7.2,10.8,,,,,,,,,wg-a,,,,AAXX 13184 07005 12/// /1612 10080 20060 30060 40154 52016 60006 91800 333 10108 20072=
07005,1996-01-14 00:00:00,6,1016.2,-0.2,93,5,0,11.112,,,130,,,,,,,,,,,wg-a,,,,AAXX 14004 07005 12/// /1306 10060 20050 30067 40162 58002 60006 90000=
07005,1996-01-14 06:00:00,5,1015.8,0.1,93,4,7000,22.224,,,130,5,7.7,,,,,,,,,wg-a,,,,AAXX 14064 07005 12/57 01312 10050 20040 30063 40158 53001 60006 80000 90600 333 10077 20050=
07005,1996-01-14 12:00:00,9,1016.6,-0.3,81,6,15000,25.928,,,130,,,,,,,,,,,wg-a,,,,AAXX 14124 07005 12/65 11314 10090 20060 30072 40166 58003 60006 80001 91200=
07005,1996-01-14 18:00:00,7,1017.4,1.3,93,6,0,14.816,,,100,4.9,11.2,,,,,,,,,wg-a,,,,AAXX 14184 07005 12/// /1008 10070 20060 30080 40174 52013 60006 91800 333 10112 20049=
07005,1996-01-15 00:00:00,4,1019.9,0.9,100,4,0,29.632,,,150,,,,,,,,,,,wg-a,,,,AAXX 15004 07005 12/// /1516 10040 20040 30103 40199 51009 60006 90000=
07005,1996-01-15 06:00:00,3,1022.1,0.9,100,3,1400,14.816,,,140,3.1,7.4,,,,,,,,10,wg-a,,,,AAXX 15064 07005 12214 71408 10030 20030 30125 40221 52009 60006 710// 876// 90600 333 10074 20031=
07005,1996-01-15 12:00:00,7,1024.6,1,87,5,4500,11.112,,,150,,,,,,,,,,,wg-a,,,,AAXX 15124 07005 12/45 41506 10070 20050 30151 40246 52010 60006 80002 91200=
07005,1996-01-15 18:00:00,6,1025.8,0.9,93,5,500,18.52,,,130,2.3,8.7,,,,,,,,,wg-a,,,,AAXX 15184 07005 12/00 61310 10060 20050 30162 40258 51009 60006 80002 91800 333 10087 20023=
07005,1996-01-16 00:00:00,4,1027.3,0.1,93,3,0,18.52,,,140,,,,,,,,,,,wg-a,,,,AAXX 16004 07005 12/// /1410 10040 20030 30176 40273 50001 60006 90000=
07005,1996-01-16 06:00:00,1,1028.3,0.2,100,1,100,18.52,,,150,0.7,6,,,,,,,,45,wg-a,,,,AAXX 16064 07005 12/01 91510 10010 20010 30185 40283 53002 60004 745// 89/// 90600 333 10060 20007=
07005,1996-01-16 12:00:00,2,1029.4,-0.2,100,2,300,22.224,,,140,,,,,,,,,,44,wg-a,,,,AAXX 16124 07005 12103 81412 10020 20020 30197 40294 58002 60006 74444 886// 91200=
07005,1996-01-16 18:00:00,3,1029.1,0.5,93,2,500,14.816,,,140,0.8,3.4,,,,,,,,45,wg-a,,,,AAXX 16184 07005 12/00 91408 10030 20020 30194 40291 53005 60006 74544 89/// 91800 333 10034 20008=
07005,1996-01-17 00:00:00,2,1028.9,-0.5,93,1,0,18.52,,,140,,,,,,,,,,,wg-a,,,,AAXX 17004 07005 12/// /1410 10020 20010 30191 40289 57005 60006 90000=
07005,1996-01-17 06:00:00,1,1027.9,-0.7,93,0,100,18.52,,,140,0.4,2.7,,,,,,,,45,wg-a,,,,AAXX 17064 07005 12/01 91410 10010 20000 30181 40279 56007 60006 74544 89/// 90600 333 10027 20004=
07005,1996-01-17 12:00:00,1,1027.4,-1.1,100,1,100,22.224,,,150,,,,,,,,,,45,wg-a,,,,AAXX 17124 07005 12/01 91512 10010 20010 30176 40274 58011 60006 74544 89/// 91200=
07005,1996-01-17 18:00:00,2,1025.7,-0.6,93,1,500,25.928,,,140,0.2,2,,,,,,,,45,wg-a,,,,AAXX 17184 07005 12/00 91414 10020 20010 30160 40257 57006 60006 74544 89/// 91800 333 10020 20002=
07005,1996-01-18 00:00:00,0,1024.6,-0.7,100,0,0,25.928,,,160,,,,,,,,,,,wg-a,,,,AAXX 18004 07005 12/// /1614 10000 20000 30148 40246 58007 60006 90000=
07005,1996-01-18 06:00:00,1,1022.6,-0.9,100,1,1500,22.224,,,160,-0.4,1.5,,,,,,,,10,wg-a,,,,AAXX 18064 07005 12215 81612 10010 20010 30129 40226 56009 60006 710// 886// 90600 333 10015 21004=
07005,1996-01-18 12:00:00,3,1021.6,-0.7,100,3,2000,25.928,,,150,,,,,,,,,,10,wg-a,,,,AAXX 18124 07005 12220 81514 10030 20030 30120 40216 58007 60006 71022 886// 91200=
07005,1996-01-18 18:00:00,1,1021,-0.1,100,1,300,22.224,,,150,0.8,3.3,,,,,,,,45,wg-a,,,,AAXX 18184 07005 12/03 91512 10010 20010 30113 40210 55001 60006 74542 89/// 91800 333 10033 20008=
07005,1996-01-19 00:00:00,2,1020.1,-0.8,100,2,0,18.52,,,140,,,,,,,,,,,wg-a,,,,AAXX 19004 07005 12/// /1410 10020 20020 30104 40201 58008 60006 90000=
07005,1996-01-19 06:00:00,2,1017.5,-1.1,93,1,3000,22.224,,,140,0.9,2.1,,,,,,,,10,wg-a,,,,AAXX 19064 07005 12430 81412 10020 20010 30078 40175 56011 60006 71022 876// 90600 333 10021 20009=
07005,1996-01-19 12:00:00,3,1016,-1.2,93,2,4500,22.224,,,150,,,,,,,,,,,wg-a,,,,AAXX 19124 07005 12545 81512 10030 20020 30064 40160 58012 60006 875// 91200=
07005,1996-01-19 18:00:00,3,1013.3,-0.8,93,2,500,22.224,,,140,1.6,3.5,,,,,,,,,wg-a,,,,AAXX 19184 07005 12600 81412 10030 20020 30037 40133 56008 60006 875// 91800 333 10035 20016=
07005,1996-01-20 00:00:00,1,1011.3,-1.3,93,0,0,29.632,,,130,,,,,,,,,,,wg-a,,,,AAXX 20004 07005 12/// /1316 10010 20000 30017 40113 58013 60006 90000=
07005,1996-01-20 06:00:00,-1,1010,-0.5,100,-1,600,31.484,,,140,-0.9,3.1,,,,,,,,44,wg-a,,,,AAXX 20064 07005 12106 81417 11010 21010 30003 40100 57005 60006 7444/ 886// 90600 333 10031 21009=
07005,1996-01-20 12:00:00,-1,1009.8,-0.5,93,-2,2500,31.484,,,130,,,,,,,,,,10,wg-a,,,,AAXX 20124 07005 12225 81317 11010 21020 30001 40098 58005 60006 71042 886// 91200=
07005,1996-01-20 18:00:00,0,1011,0.8,93,-1,0,29.632,,,130,-1.5,0,,,,,,,,,wg-a,,,,AAXX 20184 07005 12/// /1316 10000 21010 30013 40110 53008 60006 91800 333 10000 21015=
07005,1996-01-21 00:00:00,-1,1013,0.8,93,-2,0,25.928,,,120,,,,,,,,,,,wg-a,,,,AAXX 21004 07005 12/// /1214 11010 21020 30033 40130 52008 60006 90000=
07005,1996-01-21 06:00:00,-1,1013.9,0.2,86,-3,3500,22.224,,,100,-1.1,0.3,,,,,,,,,wg-a,,,,AAXX 21064 07005 12435 81012 11010 21030 30042 40139 51002 60006 875// 90600 333 10003 21011=
07005,1996-01-21 12:00:00,1,1014.3,-0.5,80,-2,2000,25.928,,,100,,,,,,,,,,10,wg-a,,,,AAXX 21124 07005 12/20 01014 10010 21020 30047 40143 58005 60006 71011 80000 91200=
07005,1996-01-21 18:00:00,0,1013.9,0.1,93,-1,0,22.224,,,80,-1.4,1.9,,,,,,,,,wg-a,,,,AAXX 21184 07005 12/// /0812 10000 21010 30042 40139 53001 60006 91800 333 10019 21014=
07005,1996-01-22 00:00:00,0,1013.2,-0,86,-2,0,18.52,,,100,,,,,,,,,,,wg-a,,,,AAXX 22004 07005 12/// /1010 10000 21020 30035 40132 54000 60006 90000=
07005,1996-01-22 06:00:00,0,1011.1,-1.3,80,-3,500,29.632,,,120,-0.4,0.3,,,,,,,,,wg-a,,,,AAXX 22064 07005 12/00 71216 10000 21030 30015 40111 58013 60006 80002 90600 333 10003 21004=
07005,1996-01-22 12:00:00,3,1010.1,-1.1,70,-2,500,22.224,,,120,,,,,,,,,,,wg-a,,,,AAXX 22124 07005 12/00 71212 10030 21020 30006 40101 58011 60006 82012 91200=
07005,1996-01-22 18:00:00,3,1009.3,0.2,70,-2,6000,22.224,,,130,0.2,4,,,,,,,,,wg-a,,,,AAXX 22184 07005 12/56 81312 10030 21020 39998 40093 53002 60006 8707/ 91800 333 10040 20002=
07005,1996-01-23 00:00:00,2,1008.3,-0.8,80,-1,0,18.52,,,120,,,,,,,,,,,wg-a,,,,AAXX 23004 07005 12/// /1210 10020 21010 39987 40083 58008 60006 90000=
07005,1996-01-23 06:00:00,2,1006,-1.2,87,0,7000,22.224,,,110,1.6,3.4,,,,,,,,60,wg-a,,,,AAXX 23064 07005 02457 81112 10020 20000 39965 40060 58012 61000 760// 8457/ 90600 333 10034 20016 6100=
07005,1996-01-23 12:00:00,3,1004.3,-1.1,81,0,500,25.928,,,110,,,,,,,,,,,wg-a,,,,AAXX 23124 07005 12500 81114 10030 20000 39948 40043 58011 60016 8357/ 91200=
07005,1996-01-23 18:00:00,2,1003.7,0.5,93,1,2000,29.632,,,120,1.4,3.3,,3,,,,,,61,wg-a,,,,AAXX 23184 07005 12320 81216 10020 20010 39942 40037 53005 60037 76166 885// 91800 333 10033 20014=
07005,1996-01-24 00:00:00,1,1003.6,-0.4,86,-1,0,25.928,,,110,,,,,,,,,,,wg-a,,,,AAXX 24004 07005 12/// /1114 10010 21010 39941 40036 57004 60006 90000=
07005,1996-01-24 06:00:00,1,1004.4,0.7,86,-1,10000,25.928,,,120,0.6,2,,,,,4,,,,wg-a,,,,AAXX 24064 07005 02/60 01214 10010 21010 39948 40044 52007 60006 80000 90600 333 10020 20006 60044=
07005,1996-01-24 12:00:00,4,1006.4,0.3,87,2,2500,18.52,,,110,,,,,,,,,,10,wg-a,,,,AAXX 24124 07005 12/25 21110 10040 20020 39969 40064 51003 60006 71000 80002 91200=
07005,1996-01-24 18:00:00,2,1007.4,1,93,1,3000,22.224,,,90,0.3,5.6,,,,,,,,10,wg-a,,,,AAXX 24184 07005 12/30 20912 10020 20010 39979 40074 53010 60006 71000 80002 91800 333 10056 20003=
07005,1996-01-25 00:00:00,1,1008.1,-0.1,86,-1,0,22.224,,,90,,,,,,,,,,,wg-a,,,,AAXX 25004 07005 12/// /0912 10010 21010 39985 40081 55001 60006 90000=
07005,1996-01-25 06:00:00,-1,1008.4,,86,-3,500,25.928,,,80,,,,,,,,,,,wg-a,,,,AAXX 25064 07005 32400 80814 11010 21030 39987 40084 875// 90600=
07005,1996-01-25 12:00:00,-3,1009.5,0.3,80,-6,500,31.484,,,70,,,,,,,,,,,wg-a,,,,AAXX 25124 07005 12400 80717 11030 21060 39998 40095 50003 60006 875// 91200=
07005,1996-01-25 18:00:00,-4,1010.7,0.9,68,-9,3500,29.632,,,70,-4.4,-0.9,,,,,,,,,wg-a,,,,AAXX 25184 07005 12535 80716 11040 21090 30009 40107 53009 60006 885// 91800 333 11009 21044=
07005,1996-01-26 00:00:00,-5,1012.1,0.2,68,-10,0,29.632,,,70,,,,,,,,,,,wg-a,,,,AAXX 26004 07005 12/// /0716 11050 21100 30023 40121 50002 60006 90000=
07005,1996-01-26 06:00:00,-5,1012.1,-0,68,-10,6000,25.928,,,70,-5.4,-4.4,,,,,,,,,wg-a,,,,AAXX 26064 07005 12556 80714 11050 21100 30022 40121 54000 60006 885// 90600 333 11044 21054=
07005,1996-01-26 12:00:00,-5,1013.3,0.1,63,-11,500,22.224,,,40,,,,,,,,,,,wg-a,,,,AAXX 26124 07005 12500 60412 11050 21110 30034 40133 50001 60006 86500 91200=
07005,1996-01-26 18:00:00,-7,1014.1,1.1,79,-10,3000,14.816,,,40,-6.8,-4.9,,,,,,,,10,wg-a,,,,AAXX 26184 07005 12530 80408 11070 21100 30042 40141 53011 60006 71022 885// 91800 333 11049 21068=
07005,1996-01-27 00:00:00,-8,1014.8,0.3,79,-11,0,7.408,,,70,,,,,,,,,,,wg-a,,,,AAXX 27004 07005 12/// /0704 11080 21110 30048 40148 51003 60006 90000=
07005,1996-01-27 06:00:00,-7,1014.5,-0.2,79,-10,6000,14.816,,,90,-8.7,-6.7,,,,,,,,,wg-a,,,,AAXX 27064 07005 12556 80908 11070 21100 30045 40145 56002 60006 885// 90600 333 11067 21087=
07005,1996-01-27 12:00:00,-4,1016.2,0.2,80,-7,3000,11.112,,,110,,,,,,,,,,10,wg-a,,,,AAXX 27124 07005 12530 71106 11040 21070 30064 40162 53002 60006 71022 875// 91200=
07005,1996-01-27 18:00:00,-2,1017.9,1.6,93,-3,0,18.52,,,100,-7.2,-1.5,,,,,,,,,wg-a,,,,AAXX 27184 07005 12/// /1010 11020 21030 30081 40179 53016 60006 91800 333 11015 21072=
07005,1996-01-28 00:00:00,0,1019.1,0.4,100,0,0,25.928,,,90,,,,,,,,,,,wg-a,,,,AAXX 28004 07005 12/// /0914 10000 20000 30094 40191 53004 60006 90000=
07005,1996-01-28 06:00:00,-1,1018.7,-0.1,93,-2,500,22.224,,,90,-1.5,0.2,,,,,,,,45,wg-a,,,,AAXX 28064 07005 12/05 90912 11010 21020 30089 40187 56001 60006 74544 89/// 90600 333 10002 21015=
07005,1996-01-28 12:00:00,0,1017.4,-1.2,80,-3,2500,29.632,,,80,,,,,,,,,,10,wg-a,,,,AAXX 28124 07005 12/25 00816 10000 21030 30077 40174 58012 60006 71041 80000 91200=
07005,1996-01-28 18:00:00,-2,1016.3,0.1,86,-4,0,38.892,,,80,-2.6,1.9,,,,,,,,,wg-a,,,,AAXX 28184 07005 12/// /0821 11020 21040 30065 40163 53001 60006 91800 333 10019 21026=
07005,1996-01-29 00:00:00,-2,1016.3,-0.2,86,-4,0,25.928,,,90,,,,,,,,,,,wg-a,,,,AAXX 29004 07005 12/// /0914 11020 21040 30065 40163 58002 60006 90000=
07005,1996-01-29 06:00:00,-2,1015.9,-0.1,86,-4,6000,29.632,,,90,-2.7,-1.7,,,,,,,,,wg-a,,,,AAXX 29064 07005 12456 80916 11020 21040 30061 40159 55001 60006 885// 90600 333 11017 21027=
07005,1996-01-29 12:00:00,-1,1016.3,-0.2,80,-4,4000,22.224,,,90,,,,,,,,,,,wg-a,,,,AAXX 29124 07005 12540 80912 11010 21040 30065 40163 58002 60006 885// 91200=
07005,1996-01-29 18:00:00,-1,1017.2,1,86,-3,2500,22.224,,,100,-2.2,0.1,,,,,,,,10,wg-a,,,,AAXX 29184 07005 12725 71012 11010 21030 30075 40172 53010 60006 71022 875// 91800 333 10001 21022=
07005,1996-01-30 00:00:00,-2,1019.7,1.5,86,-4,0,18.52,,,110,,,,,,,,,,,wg-a,,,,AAXX 30004 07005 12/// /1110 11020 21040 30099 40197 52015 60006 90000=
07005,1996-01-30 06:00:00,-3,1021.3,0.8,86,-5,3000,14.816,,,110,-3.3,-0.4,,,,,,,,10,wg-a,,,,AAXX 30064 07005 12230 61108 11030 21050 30114 40213 53008 60006 710// 86600 90600 333 11004 21033=
07005,1996-01-30 12:00:00,2,1023.1,0.4,75,-2,3000,14.816,,,120,,,,,,,,,,10,wg-a,,,,AAXX 30124 07005 12/30 01208 10020 21020 30134 40231 50004 60006 71000 80000 91200=
07005,1996-01-30 18:00:00,-1,1024.1,1.1,86,-3,2500,11.112,,,70,-3.4,3.5,,,,,,,,10,wg-a,,,,AAXX 30184 07005 12/25 00706 11010 21030 30143 40241 53011 60006 71000 80000 91800 333 10035 21034=
07005,1996-01-31 00:00:00,-4,1024.5,0.1,93,-5,0,14.816,,,70,,,,,,,,,,,wg-a,,,,AAXX 31004 07005 12/// /0708 11040 21050 30146 40245 52001 60006 90000=
07005,1996-01-31 06:00:00,-5,1023.5,-0.5,93,-6,2500,14.816,,,60,-4.7,-1.1,,,,,,,,10,wg-a,,,,AAXX 31064 07005 12/25 00608 11050 21060 30136 40235 56005 60006 71000 80000 90600 333 11011 21047=
07005,1996-01-31 12:00:00,3,1022.4,-1,52,-6,7000,22.224,,,90,,,,,,,,,,,wg-a,,,,AAXX 31124 07005 12/57 00912 10030 21060 30127 40224 58010 60006 80000 91200=
07005,1996-01-31 18:00:00,1,1020,-0.7,64,-5,500,25.928,,,70,-5.3,4.2,,,,,,,,,wg-a,,,,AAXX 31184 07005 12/00 00714 10010 21050 30103 40200 58007 60006 80000 91800 333 10042 21053=
07005,1996-02-01 00:00:00,-3,1019.3,-0.6,74,-7,0,22.224,,,80,,,,,,,,,,,wg-a,,,,AAXX 01004 07005 12/// /0812 11030 21070 30095 40193 58006 60006 90000=
07005,1996-02-01 06:00:00,-4,1018,-0.5,74,-8,500,18.52,,,110,-4.3,0.8,,,,,,,,,wg-a,,,,AAXX 01064 07005 12/00 01110 11040 21080 30081 40180 58005 60006 80000 90600 333 10008 21043=
07005,1996-02-01 12:00:00,2,1017.1,-0.5,64,-4,7000,18.52,,,150,,,,,,,,,,,wg-a,,,,AAXX 01124 07005 12/57 01510 10020 21040 30075 40171 58005 60006 80000 91200=
07005,1996-02-01 18:00:00,1,1015.3,-0.4,80,-2,500,14.816,,,120,-3.9,5.1,,,,,,,,,wg-a,,,,AAXX 01184 07005 12700 11208 10010 21020 30056 40153 56004 60006 815/0 91800 333 10051 21039=
07005,1996-02-02 00:00:00,-1,1014.4,-0.8,86,-3,0,7.408,,,110,,,,,,,,,,,wg-a,,,,AAXX 02004 07005 12/// /1104 11010 21030 30047 40144 56008 60006 90000=
07005,1996-02-02 06:00:00,-2,1012.2,-1,93,-3,500,3.704,,,190,-1.9,1.1,,,,,,,,,wg-a,,,,AAXX 02064 07005 12700 61902 11020 21030 30025 40122 56010 60006 845/1 90600 333 10011 21019=
07005,1996-02-02 12:00:00,5,1011.9,-0.6,65,-1,3000,0,,,0,,,,,,,,,,,wg-a,,,,AAXX 02124 07005 12730 10000 10050 21010 30024 40119 58006 60006 815/0 91200=
07005,1996-02-02 18:00:00,2,1012.9,1.3,87,0,2500,14.816,,,330,-2.6,5.9,,,,,,,,10,wg-a,,,,AAXX 02184 07005 12/25 03308 10020 20000 30033 40129 53013 60006 71000 80000 91800 333 10059 21026=
07005,1996-02-03 00:00:00,0,1014.4,-0,93,-1,0,7.408,,,10,,,,,,,,,,,wg-a,,,,AAXX 03004 07005 12/// /0104 10000 21010 30047 40144 54000 60006 90000=
07005,1996-02-03 06:00:00,0,1015.4,0.8,86,-2,7000,3.704,,,250,-0.1,1.7,,,,,,,,,wg-a,,,,AAXX 03064 07005 12457 82502 10000 21020 30057 40154 53008 60006 885// 90600 333 10017 21001=
07005,1996-02-03 12:00:00,3,1017,0.4,75,-1,6000,11.112,,,30,,,,,,,,,,,wg-a,,,,AAXX 03124 07005 12456 30306 10030 21010 30074 40170 50004 60006 83800 91200=
07005,1996-02-03 18:00:00,1,1018,1.1,86,-1,0,11.112,,,30,0,4.2,,,,,,,,,wg-a,,,,AAXX 03184 07005 12/// /0306 10010 21010 30083 40180 53011 60006 91800 333 10042 20000=
07005,1996-02-04 00:00:00,0,1018.4,0.3,80,-3,0,11.112,,,30,,,,,,,,,,,wg-a,,,,AAXX 04004 07005 12/// /0306 10000 21030 30087 40184 52003 60006 90000=
07005,1996-02-04 06:00:00,-1,1019.3,0.6,86,-3,6000,18.52,,,30,-2.1,1.1,,,,,,,,,wg-a,,,,AAXX 04064 07005 12556 80310 11010 21030 30095 40193 53006 60006 885// 90600 333 10011 21021=
07005,1996-02-04 12:00:00,0,1020.5,0.3,74,-4,8000,18.52,,,40,,,,,,,,,,,wg-a,,,,AAXX 04124 07005 12558 70410 10000 21040 30107 40205 50003 60006 878// 91200=
07005,1996-02-04 18:00:00,-1,1020.4,0.5,69,-6,0,14.816,,,60,-1.4,0.5,,,,,,,,,wg-a,,,,AAXX 04184 07005 12/// /0608 11010 21060 30106 40204 53005 60006 91800 333 10005 21014=
07005,1996-02-05 00:00:00,-4,1020,-0.6,80,-7,0,7.408,,,120,,,,,,,,,,,wg-a,,,,AAXX 05004 07005 12/// /1204 11040 21070 30101 40200 58006 60006 90000=
07005,1996-02-05 06:00:00,-5,1017.5,-1.6,86,-7,10000,3.704,,,160,-4.9,-0.8,,,,,,,,,wg-a,,,,AAXX 05064 07005 12/60 01602 11050 21070 30076 40175 57016 60006 80000 90600 333 11008 21049=
07005,1996-02-05 12:00:00,0,1013.9,-2.9,59,-7,8000,29.632,,,160,,,,,,,,,,,wg-a,,,,AAXX 05124 07005 12558 21616 10000 21070 30042 40139 58029 60006 82100 91200=
07005,1996-02-05 18:00:00,-2,1007,-2.9,63,-8,15000,35.188,,,140,-5.7,0.7,,,,,,,,,wg-a,,,,AAXX 05184 07005 12/65 61419 11020 21080 39973 40070 58029 60006 80002 91800 333 10007 21057=
07005,1996-02-06 00:00:00,-4,999.3,-3.8,74,-8,0,31.484,,,140,,,,,,,,,,,wg-a,,,,AAXX 06004 07005 12/// /1417 11040 21080 39896 49993 56038 60006 90000=
07005,1996-02-06 06:00:00,-4,993.2,-1.5,74,-8,8000,31.484,,,130,-4.1,-1.7,,,,,,,,,wg-a,,,,AAXX 06064 07005 12458 71317 11040 21080 39836 49932 56015 60006 85502 90600 333 11017 21041=
07005,1996-02-06 12:00:00,-1,993.8,0.8,59,-8,10000,22.224,,,120,,,,,,,,,,,wg-a,,,,AAXX 06124 07005 12/60 81212 11010 21080 39843 49938 51008 60006 84018 91200=
07005,1996-02-06 18:00:00,-1,998.2,2.5,69,-6,10000,3.704,,,350,-3.8,-0.2,,,,,,,,,wg-a,,,,AAXX 06184 07005 12/60 73502 11010 21060 39886 49982 53025 60006 8707/ 91800 333 11002 21038=
07005,1996-02-07 00:00:00,-2,1000.4,0.2,80,-5,0,7.408,,,220,,,,,,,,,,,wg-a,,,,AAXX 07004 07005 12/// /2204 11020 21050 39908 40004 53002 60006 90000=
07005,1996-02-07 06:00:00,-1,997.4,-2,86,-3,6000,11.112,,,190,-2.1,-0.6,,,,,,,,,wg-a,,,,AAXX 07064 07005 12556 81906 11010 21030 39879 49974 58020 60006 885// 90600 333 11006 21021=
07005,1996-02-07 12:00:00,2,991.8,-2.1,80,-1,0,22.224,,,160,,,,,,,,,,,wg-a,,,,AAXX 07124 07005 12/// /1612 10020 21010 39824 49918 57021 60006 91200=
07005,1996-02-07 18:00:00,0,991.9,2.5,80,-3,2500,18.52,,,80,-0.7,1.8,,,,,,,,10,wg-a,,,,AAXX 07184 07005 12425 80810 10000 21030 39824 49919 53025 60006 71022 885// 91800 333 10018 21007=
07005,1996-02-08 00:00:00,0,1000.5,4.1,80,-3,0,14.816,,,360,,,,,,,,,,,wg-a,,,,AAXX 08004 07005 12/// /3608 10000 21030 39909 40005 51041 60006 90000=
07005,1996-02-08 06:00:00,1,1007.5,3.4,80,-2,500,18.52,,,330,-0.6,0.6,,,,,,,,,wg-a,,,,AAXX 08064 07005 12600 83310 10010 21020 39979 40075 52034 60006 875// 90600 333 10006 21006=
07005,1996-02-08 12:00:00,2,1014.5,3,80,-1,2500,29.632,,,310,,,,,,,,,,70,wg-a,,,,AAXX 08124 07005 02425 83116 10020 21010 30049 40145 51030 61000 77072 885// 91200 333 6100=
07005,1996-02-08 18:00:00,1,1019,2.8,86,-1,8000,7.408,,,270,0.6,2.8,,,,,,,,1,wg-a,,,,AAXX 08184 07005 32558 62704 10010 21010 30093 40190 51028 70171 86800 91800 333 10028 20006=
07005,1996-02-09 00:00:00,-2,1019.8,-0.1,93,-3,0,14.816,,,150,,,,,,,,,,,wg-a,,,,AAXX 09004 07005 12/// /1508 11020 21030 30100 40198 55001 60006 90000=
07005,1996-02-09 06:00:00,0,1016.9,-1.9,86,-2,8000,18.52,,,140,-2.3,1.3,,,,,,,,,wg-a,,,,AAXX 09064 07005 02458 81410 10000 21020 30072 40169 56019 60006 8457/ 90600 333 10013 21023 61000=
07005,1996-02-09 12:00:00,3,1013.3,-2.1,81,0,6000,31.484,,,160,,,,,,,,,,,wg-a,,,,AAXX 09124 07005 12556 81617 10030 20000 30037 40133 58021 60006 875// 91200=
07005,1996-02-09 18:00:00,3,1009.1,-2.2,70,-2,8000,35.188,,,150,-0.3,4.1,,,,,,,,,wg-a,,,,AAXX 09184 07005 12558 81519 10030 21020 39996 40091 56022 60006 875// 91800 333 10041 21003=
07005,1996-02-10 00:00:00,1,1007,-1.6,93,0,0,29.632,,,170,,,,,,,,,,,wg-a,,,,AAXX 10004 07005 12/// /1716 10010 20000 39974 40070 56016 60016 90000=
07005,1996-02-10 06:00:00,2,1006.7,0.1,93,1,15000,14.816,,,190,0.8,2.9,,,,,1,,,,wg-a,,,,AAXX 10064 07005 12/65 01908 10020 20010 39972 40067 53001 60014 80000 90600 333 10029 20008=
07005,1996-02-10 12:00:00,8,1007.3,0,66,2,20000,29.632,,,210,,,,,,,,,,,wg-a,,,,AAXX 10124 07005 12470 12116 10080 20020 39980 40073 50000 60006 81100 91200=
07005,1996-02-10 18:00:00,5,1008.3,1.2,87,3,0,14.816,,,210,2,9.1,,,,,,,,,wg-a,,,,AAXX 10184 07005 32/// /2108 10050 20030 39989 40083 53012 91800 333 10091 20020=
07005,1996-02-11 00:00:00,3,1009.1,0.3,87,1,0,14.816,,,220,,,,,,,,,,,wg-a,,,,AAXX 11004 07005 12/// /2208 10030 20010 39996 40091 53003 60006 90000=
07005,1996-02-11 06:00:00,3,1009.3,0.6,87,1,10000,22.224,,,220,2.5,5.3,,,,,,,,,wg-a,,,,AAXX 11064 07005 02560 72212 10030 20010 39998 40093 53006 60006 878// 90600 333 10053 20025 60004=
07005,1996-02-11 12:00:00,8,1010.2,0.4,76,4,20000,31.484,,,250,,,,,,,,,,,wg-a,,,,AAXX 11124 07005 12570 72517 10080 20040 30008 40102 50004 60006 872// 91200=
07005,1996-02-11 18:00:00,5,1011.1,0.9,87,3,0,18.52,,,230,2.9,8.4,,,,,,,,,wg-a,,,,AAXX 11184 07005 32/// /2310 10050 20030 30016 40111 51009 91800 333 10084 20029=
07005,1996-02-12 00:00:00,6,1008.6,-1.8,87,4,0,18.52,,,210,,,,,,,,,,,wg-a,,,,AAXX 12004 07005 12/// /2110 10060 20040 39992 40086 58018 60006 90000=
07005,1996-02-12 06:00:00,6,994.8,-8.8,87,4,10000,38.892,,,190,4.2,5.9,,4,,,4,,,61,wg-a,,,,AAXX 12064 07005 02360 81921 10060 20040 39855 49948 58088 60044 7616/ 887// 90600 333 10059 20042 60047=
07005,1996-02-12 12:00:00,6,987.7,-3.6,87,4,25000,29.632,,,220,,,,,,,,,,3,wg-a,,,,AAXX 12124 07005 12475 72216 10060 20040 39785 49877 58036 60066 70376 878// 91200=
07005,1996-02-12 18:00:00,4,985.7,3,87,2,20000,25.928,,,290,2.9,7.1,,0,,,,,,2,wg-a,,,,AAXX 12184 07005 12470 72914 10040 20020 39764 49857 51030 60007 70286 872// 91800 333 10071 20029=
07005,1996-02-13 00:00:00,4,994.8,3.7,87,2,0,29.632,,,300,,,,,,,,,,,wg-a,,,,AAXX 13004 07005 12/// /3016 10040 20020 39854 49948 51037 60006 90000=
07005,1996-02-13 06:00:00,3,1001,3.3,93,2,15000,42.596,,,340,2.5,4.2,,,,,12,,,0,wg-a,,,,AAXX 13064 07005 12565 83423 10030 20020 39916 40010 53033 60124 7006/ 875// 90600 333 10042 20025=
07005,1996-02-13 12:00:00,3,1008.3,3.2,93,2,500,35.188,,,340,,,,0,,,,,,60,wg-a,,,,AAXX 13124 07005 02400 83419 10030 20020 39988 40083 51032 60016 76066 887// 91200 333 60007=
07005,1996-02-13 18:00:00,3,1015.3,3.7,93,2,3500,25.928,,,360,3,3.9,,0,,,,,,61,wg-a,,,,AAXX 13184 07005 12435 83614 10030 20020 30057 40153 53037 60007 76166 887// 91800 333 10039 20030=
07005,1996-02-14 00:00:00,3,1021.2,2.1,87,1,0,22.224,,,30,,,,,,,,,,,wg-a,,,,AAXX 14004 07005 12/// /0312 10030 20010 30115 40212 52021 60016 90000=
07005,1996-02-14 06:00:00,2,1026.3,2.8,87,0,10000,18.52,,,30,2,3.3,,,,,2,,,,wg-a,,,,AAXX 14064 07005 12460 80310 10020 20000 30166 40263 53028 60024 885// 90600 333 10033 20020=
07005,1996-02-14 12:00:00,3,1031,1.5,75,-1,10000,29.632,,,40,,,,,,,,,,,wg-a,,,,AAXX 14124 07005 12560 70416 10030 21010 30213 40310 51015 60006 875// 91200=
07005,1996-02-14 18:00:00,1,1034.6,2.3,86,-1,12000,18.52,,,50,1.2,3.3,,,,,,,,,wg-a,,,,AAXX 14184 07005 12562 70510 10010 21010 30248 40346 53023 60006 8553/ 91800 333 10033 20012=
07005,1996-02-15 00:00:00,0,1037.3,1.2,86,-2,0,3.704,,,40,,,,,,,,,,,wg-a,,,,AAXX 15004 07005 12/// /0402 10000 21020 30274 40373 51012 60006 90000=
07005,1996-02-15 06:00:00,-1,1037.5,0.1,93,-2,7000,3.704,,,350,-0.5,1.2,,,,,,,,,wg-a,,,,AAXX 15064 07005 12557 83502 11010 21020 30276 40375 50001 60006 885// 90600 333 10012 21005=
07005,1996-02-15 12:00:00,2,1036.8,-1.4,80,-1,6000,7.408,,,250,,,,,,,,,,,wg-a,,,,AAXX 15124 07005 12556 82504 10020 21010 30270 40368 58014 60006 8151/ 91200=
07005,1996-02-15 18:00:00,3,1034.1,-1.3,81,0,15000,14.816,,,250,-0.6,3.7,,,,,,,,,wg-a,,,,AAXX 15184 07005 12/65 82508 10030 20000 30243 40341 56013 60006 8807/ 91800 333 10037 21006=
07005,1996-02-16 00:00:00,5,1030.7,-1.5,87,3,0,22.224,,,280,,,,,,,,,,,wg-a,,,,AAXX 16004 07005 12/// /2812 10050 20030 30210 40307 58015 60006 90000=
07005,1996-02-16 06:00:00,6,1027.7,-0.8,93,5,4000,18.52,,,290,2.9,5.9,,,,,,,,10,wg-a,,,,AAXX 16064 07005 12440 82910 10060 20050 30181 40277 57008 60006 71022 885// 90600 333 10059 20029=
07005,1996-02-16 12:00:00,8,1026.2,-0.6,87,6,7000,38.892,,,280,,,,,,,,,,3,wg-a,,,,AAXX 16124 07005 02457 82821 10080 20060 30167 40262 58006 61000 70352 885// 91200 333 6100=
07005,1996-02-16 18:00:00,7,1023.8,-0.6,93,6,8000,31.484,,,280,5.8,8,,,,,,,,,wg-a,,,,AAXX 16184 07005 32558 72817 10070 20060 30143 40238 57006 875// 91800 333 10080 20058=
07005,1996-02-17 00:00:00,6,1023.4,-0.1,75,2,0,25.928,,,310,,,,,,,,,,,wg-a,,,,AAXX 17004 07005 12/// /3114 10060 20020 30138 40234 56001 60006 90000=
07005,1996-02-17 06:00:00,6,1021.2,-0.8,81,3,8000,42.596,,,290,5.3,7.2,,,,,,,,,wg-a,,,,AAXX 17064 07005 02658 72923 10060 20030 30117 40212 55008 60006 875// 90600 333 10072 20053 61000=
07005,1996-02-17 12:00:00,8,1023.5,1,71,3,20000,42.596,,,300,,,,,,,,,,,wg-a,,,,AAXX 17124 07005 12570 73023 10080 20030 30140 40235 51010 60006 86802 91200=
07005,1996-02-17 18:00:00,7,1022.5,-0.6,87,5,0,25.928,,,280,6.3,8.5,,,,,,,,,wg-a,,,,AAXX 17184 07005 12/// /2814 10070 20050 30130 40225 58006 60006 91800 333 10085 20063=
07005,1996-02-18 00:00:00,7,1016.1,-4,81,4,0,31.484,,,260,,,,,,,,,,,wg-a,,,,AAXX 18004 07005 12/// /2617 10070 20040 30066 40161 58040 60006 90000=
07005,1996-02-18 06:00:00,7,1003.6,-6.6,93,6,3000,50.004,,,250,6,7.4,,1,,,3,,,63,wg-a,,,,AAXX 18064 07005 02330 82527 10070 20060 39943 40036 58066 60034 76366 887// 90600 333 10074 20060 60017=
07005,1996-02-18 12:00:00,7,998.5,-2.7,70,2,15000,46.3,,,280,,,,1,,,,,,1,wg-a,,,,AAXX 18124 07005 02565 32825 10070 20020 39892 49985 58027 60046 70162 83200 91200 333 60017=
07005,1996-02-18 18:00:00,6,994.4,-1.5,75,2,0,35.188,,,270,4.7,8.2,,,,,,,,,wg-a,,,,AAXX 18184 07005 32/// /2719 10060 20020 39851 49944 56015 91800 333 10082 20047=
07005,1996-02-19 00:00:00,4,992.6,-0.7,87,2,0,14.816,,,270,,,,,,,,,,,wg-a,,,,AAXX 19004 07005 12/// /2708 10040 20020 39833 49926 56007 60016 90000=
07005,1996-02-19 06:00:00,1,994.5,1.7,86,-1,8000,35.188,,,330,0.7,6.1,,1,,,5,,,26,wg-a,,,,AAXX 19064 07005 02458 83319 10010 21010 39850 49945 51017 60054 72686 885// 90600 333 10061 20007 60017=
07005,1996-02-19 12:00:00,0,1000.4,3.6,100,0,600,25.928,,,350,,,,0,,,,,,71,wg-a,,,,AAXX 19124 07005 02106 83514 10000 20000 39908 40004 51036 60016 77177 887// 91200 333 60007=
07005,1996-02-19 18:00:00,-1,1005,1.9,86,-3,10000,38.892,,72.228,340,-1.2,0.7,,,,,,,,3,wg-a,,1,,AAXX 19184 07005 02460 73421 11010 21030 39954 40050 51019 61000 70387 878// 91800 333 10007 21012 4/001 //// 91039=
07005,1996-02-20 00:00:00,-1,1004.9,-0.7,100,-1,0,14.816,,,330,,,,,,,,,,,wg-a,,,,AAXX 20004 07005 12/// /3308 11010 21010 39953 40049 57007 60006 90000=
07005,1996-02-20 06:00:00,-2,1012.2,3.9,93,-3,3500,46.3,,,40,-2.4,-0.7,,,,,4,,,37,wg-a,,7,,AAXX 20064 07005 12035 80425 11020 21030 30025 40122 53039 60044 737// 887// 90600 333 11007 21024 4/007=
07005,1996-02-20 12:00:00,-2,1018,2.2,86,-4,15000,38.892,,75.932,40,,,,,,,,,,22,wg-a,,,,AAXX 20124 07005 02365 80421 11020 21040 30082 40180 52022 61000 72272 877// 91200 333 6100 91041=
07005,1996-02-20 18:00:00,-3,1021.1,2.7,93,-4,2000,42.596,,68.524,40,-2.6,-2,,,,,,,,71,wg-a,,7,,AAXX 20184 07005 02320 80423 11030 21040 30113 40211 52027 61000 77177 887// 91800 333 11020 21026 4/007 //// 91037=
07005,1996-02-21 00:00:00,-4,1023.7,1,80,-7,0,42.596,,,40,,,,,,,,,,,wg-a,,,,AAXX 21004 07005 12/// /0423 11040 21070 30138 40237 51010 60006 90000=
07005,1996-02-21 06:00:00,-6,1024.3,-0,73,-10,10000,22.224,,,50,-5.6,-2.5,,,,,,,,,wg-a,,,,AAXX 21064 07005 02/60 00512 11060 21100 30143 40243 55000 61000 80000 90600 333 11025 21056 ////=
07005,1996-02-21 12:00:00,-2,1024.3,-0.4,74,-6,20000,22.224,,,50,,,,,,,,,,,wg-a,,,,AAXX 21124 07005 12470 20512 11020 21060 30144 40243 58004 60006 82100 91200=
07005,1996-02-21 18:00:00,-2,1023.5,0.3,80,-5,20000,11.112,,,10,-5.9,-0.4,,,,,,,,,wg-a,,3,,AAXX 21184 07005 12570 20106 11020 21050 30136 40235 53003 60006 82800 91800 333 11004 21059 4/003=
07005,1996-02-22 00:00:00,-5,1024.3,-0.2,86,-7,0,11.112,,,290,,,,,,,,,,,wg-a,,,,AAXX 22004 07005 12/// /2906 11050 21070 30143 40243 56002 60006 90000=
07005,1996-02-22 06:00:00,-5,1022.7,-0.6,93,-6,15000,11.112,,,230,-5.2,-2.2,,,,,,,,2,wg-a,,3,,AAXX 22064 07005 02765 22306 11050 21060 30128 40227 57006 61000 7027/ 818/1 90600 333 11022 21052 4/003 6100=
07005,1996-02-22 12:00:00,0,1021.4,-1.2,80,-3,15000,18.52,,,230,,,,,,,,,,,wg-a,,,,AAXX 22124 07005 12/65 82310 10000 21030 30117 40214 58012 60006 8702/ 91200=
07005,1996-02-22 18:00:00,0,1018.2,-0.8,93,-1,3000,18.52,,,180,-4.9,0.7,,,,,,,,71,wg-a,,2,,AAXX 22184 07005 02430 81810 10000 21010 30085 40182 56008 61000 77172 885// 91800 333 10007 21049 4/002 ////=
07005,1996-02-23 00:00:00,0,1016.2,-0.8,93,-1,0,11.112,,,180,,,,,,,,,,,wg-a,,,,AAXX 23004 07005 12/// /1806 10000 21010 30065 40162 58008 60006 90000=
07005,1996-02-23 06:00:00,0,1014.7,-0.3,93,-1,1600,7.408,,,170,-1.6,0.1,,,,,1,,,10,wg-a,,3,,AAXX 23064 07005 12316 81704 10000 21010 30050 40147 55003 60014 710// 886// 90600 333 10001 21016 4/003=
07005,1996-02-23 12:00:00,2,1015.1,0.2,93,1,1600,7.408,,,160,,,,0,,,,,,10,wg-a,,,,AAXX 23124 07005 02316 81604 10020 20010 30055 40151 50002 60006 71042 885// 91200 333 60007=
07005,1996-02-23 18:00:00,2,1014.6,0.1,93,1,4000,11.112,,,190,-0.3,3.2,,,,,,,,10,wg-a,,0,,AAXX 23184 07005 12640 61906 10020 20010 30050 40146 53001 60006 71022 83502 91800 333 10032 21003 4/000=
07005,1996-02-24 00:00:00,2,1012.4,-1.5,93,1,0,14.816,,,150,,,,,,,,,,,wg-a,,,,AAXX 24004 07005 12/// /1508 10020 20010 30028 40124 57015 60006 90000=
07005,1996-02-24 06:00:00,3,1008.2,-1.9,93,2,8000,22.224,,,180,1,3.3,,,,,1,,,1,wg-a,,,,AAXX 24064 07005 12358 81812 10030 20020 39987 40082 56019 60014 7016/ 885// 90600 333 10033 20010=
07005,1996-02-24 12:00:00,7,1004.7,-1.8,87,5,20000,31.484,,,200,,,,,,,,,,,wg-a,,,,AAXX 24124 07005 12370 72017 10070 20050 39954 40047 58018 60006 875// 91200=
07005,1996-02-24 18:00:00,8,1001.2,-1.3,87,6,0,31.484,,,180,3.3,8.2,,0,,,,,,,wg-a,,,,AAXX 24184 07005 12/// /1817 10080 20060 39919 40012 56013 60007 91800 333 10082 20033=
07005,1996-02-25 00:00:00,8,1000.6,0.1,87,6,0,29.632,,,210,,,,1,,,,,,,wg-a,,,,AAXX 25004 07005 02/// /2116 10080 20060 39913 40006 50001 60036 90000 333 60017=
07005,1996-02-25 06:00:00,7,1000.2,-0.3,87,5,12000,22.224,,,190,6.8,8,,1,,,4,,,2,wg-a,,,,AAXX 25064 07005 02462 81912 10070 20050 39909 40002 58003 60044 70262 878// 90600 333 10080 20068 60017=
07005,1996-02-25 12:00:00,10,999.2,-0.8,76,6,15000,35.188,,,190,,,,,,,,,,2,wg-a,,,,AAXX 25124 07005 02465 71919 10100 20060 39900 49992 58008 61000 70262 8413/ 91200 333 6100=
07005,1996-02-25 18:00:00,8,1001.4,1.6,87,6,0,25.928,,,210,7.1,10.3,,,,,,,,,wg-a,,,,AAXX 25184 07005 32/// /2114 10080 20060 39921 40014 53016 91800 333 10103 20071=
07005,1996-02-26 00:00:00,5,1004.4,1.7,93,4,0,14.816,,,190,,,,,,,,,,,wg-a,,,,AAXX 26004 07005 12/// /1908 10050 20040 39950 40044 52017 60046 90000=
07005,1996-02-26 06:00:00,4,1006.8,1.3,93,3,20000,14.816,,,200,4.4,7.9,,,,,5,,,1,wg-a,,,,AAXX 26064 07005 12470 82008 10040 20030 39973 40068 53013 60054 7016/ 885// 90600 333 10079 20044=
07005,1996-02-26 12:00:00,7,1011.2,2.1,76,3,20000,14.816,,,240,,,,,,,,,,,wg-a,,,,AAXX 26124 07005 12570 72408 10070 20030 30018 40112 51021 60006 872// 91200=
07005,1996-02-26 18:00:00,6,1014,1.9,75,2,25000,3.704,,,200,4.2,8.2,,,,,,,,1,wg-a,,,,AAXX 26184 07005 32575 72002 10060 20020 30045 40140 53019 70182 878// 91800 333 10082 20042=
07005,1996-02-27 00:00:00,4,1016.7,1.1,87,2,0,7.408,,,130,,,,,,,,,,,wg-a,,,,AAXX 27004 07005 12/// /1304 10040 20020 30071 40167 52011 60006 90000=
07005,1996-02-27 06:00:00,1,1018.4,0.9,93,0,3000,7.408,,,140,1.1,6,,,,,,,,10,wg-a,,,,AAXX 27064 07005 02/30 21404 10010 20000 30087 40184 51009 60006 710// 80001 90600 333 10060 20011 61000=
07005,1996-02-27 12:00:00,9,1020.6,0.8,71,4,6000,11.112,,,130,,,,,,,,,,,wg-a,,,,AAXX 27124 07005 12456 31306 10090 20040 30112 40206 51008 60006 83200 91200=
07005,1996-02-27 18:00:00,5,1021.7,1,75,1,20000,11.112,,,50,0.3,9.6,,,,,,,,,wg-a,,,,AAXX 27184 07005 12570 10506 10050 20010 30121 40217 53010 60006 81200 91800 333 10096 20003=
07005,1996-02-28 00:00:00,2,1023.6,0.6,87,0,0,14.816,,,60,,,,,,,,,,,wg-a,,,,AAXX 28004 07005 12/// /0608 10020 20000 30139 40236 51006 60006 90000=
07005,1996-02-28 06:00:00,0,1024.4,0.5,93,-1,2000,11.112,,,350,-0.4,5.4,,,,,,,,10,wg-a,,,,AAXX 28064 07005 12/20 03506 10000 21010 30146 40244 51005 60006 710// 80000 90600 333 10054 21004=
07005,1996-02-28 12:00:00,4,1025.9,0,87,2,500,22.224,,,20,,,,,,,,,,2,wg-a,,,,AAXX 28124 07005 12400 80212 10040 20020 30163 40259 50000 60006 70241 875// 91200=
07005,1996-02-28 18:00:00,2,1027.6,1.5,93,1,3000,18.52,,,50,-0.9,4.2,,,,,,,,10,wg-a,,,,AAXX 28184 07005 12430 80510 10020 20010 30179 40276 53015 60006 71022 885// 91800 333 10042 21009=
07005,1996-02-29 06:00:00,3,1029.6,0.7,87,1,2000,22.224,,,50,2.2,3.4,,,,,,,,10,wg-a,,,,AAXX 29064 07005 12220 80512 10030 20010 30199 40296 52007 60006 710// 886// 90600 333 10034 20022=
07005,1996-02-29 12:00:00,7,1031.7,0.6,76,3,500,22.224,,,60,,,,,,,,,,,wg-a,,,,AAXX 29124 07005 12/00 00612 10070 20030 30221 40317 50006 60006 80000 91200=
07005,1996-02-29 18:00:00,5,1033.1,1.1,70,0,10000,18.52,,,30,2,8.8,,,,,,,,,wg-a,,,,AAXX 29184 07005 12/60 50310 10050 20000 30234 40331 53011 60006 80001 91800 333 10088 20020=
07005,1996-03-01 00:00:00,3,1033.5,-0.5,93,2,0,11.112,,,330,,,,,,,,,,,wg-a,,,,AAXX 01004 07005 12/// /3306 10030 20020 30237 40335 56005 60006 90000=
07005,1996-03-01 06:00:00,4,1032.6,-0.2,93,3,8000,14.816,,,340,2.4,5.4,,,,,,,,60,wg-a,,,,AAXX 01064 07005 02458 83408 10040 20030 30229 40326 56002 61000 7606/ 8657/ 90600 333 10054 20024 6100=
07005,1996-03-01 12:00:00,7,1031.3,-0.7,87,5,500,22.224,,,350,,,,,,,,,,,wg-a,,,,AAXX 01124 07005 02400 83512 10070 20050 30217 40313 58007 61000 885// 91200 333 ////=
07005,1996-03-01 18:00:00,5,1029.2,-0.8,93,4,500,25.928,,,340,3.8,6.7,,,,,,,,,wg-a,,,,AAXX 01184 07005 32300 83414 10050 20040 30196 40292 56008 877// 91800 333 10067 20038=
07005,1996-03-02 00:00:00,3,1029.5,0.1,81,0,0,11.112,,,40,,,,,,,,,,,wg-a,,,,AAXX 02004 07005 12/// /0406 10030 20000 30198 40295 51001 60006 90000=
07005,1996-03-02 06:00:00,1,1029.6,0.3,80,-2,15000,7.408,,,40,-0.1,5.3,,,,,,,,,wg-a,,,,AAXX 02064 07005 02665 70404 10010 21020 30198 40296 53003 60006 875// 90600 333 10053 21001 61000=
07005,1996-03-02 12:00:00,3,1028.7,-0.9,65,-3,20000,14.816,,,60,,,,,,,,,,,wg-a,,,,AAXX 02124 07005 12570 70608 10030 21030 30190 40287 58009 60006 878// 91200=
07005,1996-03-02 18:00:00,3,1025.9,-1.2,75,-1,0,14.816,,,340,0.2,4,,,,,,,,,wg-a,,,,AAXX 02184 07005 12/// /3408 10030 21010 30162 40259 56012 60006 91800 333 10040 20002=
07005,1996-03-03 00:00:00,3,1021.5,-2.8,93,2,0,11.112,,,260,,,,,,,,,,,wg-a,,,,AAXX 03004 07005 12/// /2606 10030 20020 30119 40215 57028 60016 90000=
07005,1996-03-03 06:00:00,4,1019.3,-0.5,100,4,3000,14.816,,,330,2.3,4.5,,0,,,1,,,51,wg-a,,,,AAXX 03064 07005 02230 83308 10040 20040 30097 40193 56005 60014 7515/ 887// 90600 333 10045 20023 60007=
07005,1996-03-03 12:00:00,5,1020,-0,93,4,500,22.224,,,10,,,,0,,,,,,61,wg-a,,,,AAXX 03124 07005 02200 80112 10050 20040 30105 40200 54000 60006 76165 877// 91200 333 60007=
07005,1996-03-03 18:00:00,4,1022.1,1.5,87,2,0,7.408,,,90,3.6,6,,,,,,,,,wg-a,,,,AAXX 03184 07005 32/// /0904 10040 20020 30125 40221 53015 91800 333 10060 20036=
07005,1996-03-04 00:00:00,1,1023.6,0.2,86,-1,0,11.112,,,40,,,,,,,,,,,wg-a,,,,AAXX 04004 07005 12/// /0406 10010 21010 30139 40236 51002 60006 90000=
07005,1996-03-04 06:00:00,-2,1023.6,-0,93,-3,2500,0,,,0,-1.7,3.6,,,,,1,,,10,wg-a,,,,AAXX 04064 07005 02/25 70000 11020 21030 30138 40236 55000 60006 710// 85042 90600 333 10036 21017 60014=
07005,1996-03-04 12:00:00,3,1022.9,-0.6,93,2,2000,14.816,,,290,,,,,,,,,,10,wg-a,,,,AAXX 04124 07005 12220 82908 10030 20020 30133 40229 58006 60006 71022 876// 91200=
07005,1996-03-04 18:00:00,5,1023.2,1,87,3,20000,18.52,,,340,-1.6,5.6,,,,,,,,1,wg-a,,,,AAXX 04184 07005 02470 73410 10050 20030 30136 40232 53010 61000 70162 878// 91800 333 10056 21016 ////=
07005,1996-03-05 00:00:00,4,1023.9,-0,93,3,0,14.816,,,330,,,,,,,,,,,wg-a,,,,AAXX 05004 07005 12/// /3308 10040 20030 30143 40239 55000 60006 90000=
07005,1996-03-05 06:00:00,4,1024.7,0.9,93,3,6000,11.112,,,310,3.5,4.6,,0,,,,,,,wg-a,,,,AAXX 05064 07005 02456 83106 10040 20030 30151 40247 53009 60004 875// 90600 333 10046 20035 60007=
07005,1996-03-05 12:00:00,6,1026.9,0.8,81,3,20000,18.52,,,340,,,,,,,,,,,wg-a,,,,AAXX 05124 07005 12470 83410 10060 20030 30173 40269 52008 60006 878// 91200=
07005,1996-03-05 18:00:00,4,1028.1,0.9,93,3,15000,14.816,,,360,3.8,6.2,,,,,,,,2,wg-a,,,,AAXX 05184 07005 32465 83608 10040 20030 30184 40281 53009 70282 878// 91800 333 10062 20038=
07005,1996-03-06 00:00:00,3,1029,0.2,93,2,0,11.112,,,340,,,,,,,,,,,wg-a,,,,AAXX 06004 07005 12/// /3406 10030 20020 30193 40290 51002 60006 90000=
07005,1996-03-06 06:00:00,2,1028.8,0,93,1,10000,3.704,,,330,2.2,4.2,,,,,,,,,wg-a,,,,AAXX 06064 07005 02460 83302 10020 20010 30191 40288 50000 60006 885// 90600 333 10042 20022 61000=
07005,1996-03-06 12:00:00,5,1027.8,-1.1,87,3,15000,3.704,,,350,,,,,,,,,,3,wg-a,,,,AAXX 06124 07005 12465 83502 10050 20030 30182 40278 58011 60006 70362 888// 91200=
07005,1996-03-06 18:00:00,5,1025.5,-0.4,93,4,20000,7.408,,,350,2.2,6.2,,0,,,,,,1,wg-a,,,,AAXX 06184 07005 12570 83504 10050 20040 30159 40255 56004 60007 70162 885// 91800 333 10062 20022=
07005,1996-03-07 00:00:00,3,1022.9,-2.1,93,2,0,11.112,,,340,,,,,,,,,,,wg-a,,,,AAXX 07004 07005 12/// /3406 10030 20020 30132 40229 58021 60006 90000=
07005,1996-03-07 06:00:00,2,1018.4,-2.4,93,1,15000,18.52,,,340,1.9,4.9,,,,,,,,,wg-a,,,,AAXX 07064 07005 02465 73410 10020 20010 30088 40184 56024 60006 878// 90600 333 10049 20019 60004=
07005,1996-03-07 12:00:00,1,1017,-1,93,0,1800,29.632,,,50,,,,0,,,,,,71,wg-a,,,,AAXX 07124 07005 02218 80516 10010 20000 30073 40170 56010 60006 77176 877// 91200 333 60007=
07005,1996-03-07 18:00:00,4,1016.9,1.1,81,1,4000,29.632,,,70,0.4,4.6,,,,,,,,10,wg-a,,,,AAXX 07184 07005 32440 80716 10040 20010 30073 40169 53011 71076 888// 91800 333 10046 20004=
07005,1996-03-08 00:00:00,3,1018.3,0.2,81,0,0,22.224,,,100,,,,,,,,,,,wg-a,,,,AAXX 08004 07005 12/// /1012 10030 20000 30087 40183 51002 60006 90000=
07005,1996-03-08 06:00:00,2,1018.3,-0.3,80,-1,7000,22.224,,,110,0.7,4,,,,,,,,,wg-a,,,,AAXX 08064 07005 02757 41112 10020 21010 30086 40183 56003 60006 835/2 90600 333 10040 20007 60004=
07005,1996-03-08 12:00:00,7,1018.5,0.2,70,2,6000,29.632,,,130,,,,,,,,,,,wg-a,,,,AAXX 08124 07005 12/56 51316 10070 20020 30090 40185 50002 60006 83032 91200=
07005,1996-03-08 18:00:00,7,1017,-0.1,70,2,500,22.224,,,110,1.7,9.1,,,,,,,,,wg-a,,,,AAXX 08184 07005 32/00 61112 10070 20020 30075 40170 55001 84072 91800 333 10091 20017=
07005,1996-03-09 00:00:00,4,1018.7,1.4,93,3,0,3.704,,,340,,,,,,,,,,,wg-a,,,,AAXX 09004 07005 12/// /3402 10040 20030 30091 40187 51014 60006 90000=
07005,1996-03-09 06:00:00,3,1018.9,0.3,87,1,3000,22.224,,,120,3.3,7,,,,,,,,21,wg-a,,,,AAXX 09064 07005 02530 81212 10030 20010 30093 40189 53003 60004 7216/ 885// 90600 333 10070 20033 61000=
07005,1996-03-09 12:00:00,10,1019.8,-0.2,66,4,4500,14.816,,,140,,,,,,,,,,10,wg-a,,,,AAXX 09124 07005 12545 11408 10100 20040 30104 40198 58002 60006 71011 81100 91200=
07005,1996-03-10 00:00:00,5,1023.5,1.3,70,0,0,14.816,,,120,,,,,,,,,,,wg-a,,,,AAXX 10004 07005 12/// /1208 10050 20000 30139 40235 51013 60006 90000=
07005,1996-03-10 06:00:00,0,1025.5,1.1,86,-2,3000,11.112,,,80,-0.2,8.9,,,,,,,,10,wg-a,,,,AAXX 10064 07005 12/30 00806 10000 21020 30157 40255 52011 60006 710// 80000 90600 333 10089 21002=
07005,1996-03-10 12:00:00,7,1026.1,-0.3,66,1,500,22.224,,,70,,,,,,,,,,,wg-a,,,,AAXX 10124 07005 12/00 00712 10070 20010 30166 40261 57003 60006 80000 91200=
07005,1996-03-10 18:00:00,4,1025.4,0.3,70,-1,0,18.52,,,60,-0.3,8.2,,,,,,,,,wg-a,,,,AAXX 10184 07005 12/// /0610 10040 21010 30158 40254 53003 60006 91800 333 10082 21003=
07005,1996-03-11 06:00:00,-3,1023.3,-0.4,86,-5,2500,3.704,,,60,-3.1,4.4,,,,,,,,10,wg-a,,,,AAXX 11064 07005 12/25 00602 11030 21050 30134 40233 55004 60006 71000 80000 90600 333 10044 21031=
07005,1996-03-11 12:00:00,6,1020.6,-1.1,49,-4,4000,7.408,,,360,,,,,,,,,,10,wg-a,,,,AAXX 11124 07005 12/40 53604 10060 21040 30110 40206 58011 60006 71011 80001 91200=
07005,1996-03-12 00:00:00,-1,1017.4,-0.8,69,-6,0,25.928,,,100,,,,,,,,,,,wg-a,,,,AAXX 12004 07005 12/// /1014 11010 21060 30076 40174 58008 60006 90000=
07005,1996-03-12 06:00:00,-2,1016,-0.6,63,-8,9000,25.928,,,120,-2.1,3.1,,,,,,,,,wg-a,,,,AAXX 12064 07005 12/59 61214 11020 21080 30062 40160 56006 60006 84032 90600 333 10031 21021=
07005,1996-03-12 12:00:00,1,1014.5,-1.6,44,-10,12000,29.632,,,130,,,,,,,,,,,wg-a,,,,AAXX 12124 07005 12/62 71316 10010 21100 30048 40145 56016 60006 8703/ 91200=
07005,1996-03-12 18:00:00,1,1011.1,-1,51,-8,12000,18.52,,,110,-2.3,2.5,,,,,,,,,wg-a,,,,AAXX 12184 07005 12/62 41110 10010 21080 30015 40111 56010 60006 81031 91800 333 10025 21023=
07005,1996-03-13 00:00:00,-2,1011.5,-0.2,63,-8,0,25.928,,,100,,,,,,,,,,,wg-a,,,,AAXX 13004 07005 12/// /1014 11020 21080 30018 40115 57002 60006 90000=
07005,1996-03-13 06:00:00,-4,1010.9,-0.4,68,-9,6000,22.224,,,110,-3.6,0.8,,,,,,,,,wg-a,,,,AAXX 13064 07005 12/56 71112 11040 21090 30011 40109 56004 60006 8707/ 90600 333 10008 21036=
07005,1996-03-13 12:00:00,1,1009,,55,-7,7000,35.188,,,100,,,,,,,,,,,wg-a,,,,AAXX 13124 07005 32/57 01019 10010 21070 39994 40090 80000 91200=
07005,1996-03-13 18:00:00,1,1006.9,-0.3,64,-5,7000,18.52,,,90,-3.6,2.9,,,,,,,,,wg-a,,,,AAXX 13184 07005 12/57 30910 10010 21050 39973 40069 55003 60006 81132 91800 333 10029 21036=
07005,1996-03-14 00:00:00,0,1006.8,-0.3,64,-6,0,25.928,,,100,,,,,,,,,,,wg-a,,,,AAXX 14004 07005 12/// /1014 10000 21060 39972 40068 58003 60006 90000=
07005,1996-03-14 06:00:00,-3,1005.7,-0.4,80,-6,6000,22.224,,,90,-3.1,0.9,,,,,,,,,wg-a,,,,AAXX 14064 07005 12/56 50912 11030 21060 39960 40057 56004 60006 80002 90600 333 10009 21031=
07005,1996-03-14 12:00:00,5,1004.8,-0.3,56,-3,4000,25.928,,,100,,,,,,,,,,10,wg-a,,,,AAXX 14124 07005 12/40 71014 10050 21030 39954 40048 58003 60006 71011 80002 91200=
07005,1996-03-14 18:00:00,5,1005.1,0.9,65,-1,3500,14.816,,,90,-3.2,8.1,,,,,,,,10,wg-a,,,,AAXX 14184 07005 12/35 60908 10050 21010 39957 40051 51009 60006 71022 86030 91800 333 10081 21032=
07005,1996-03-15 00:00:00,3,1005.7,-0,75,-1,0,18.52,,,130,,,,,,,,,,,wg-a,,,,AAXX 15004 07005 12/// /1310 10030 21010 39962 40057 54000 60006 90000=
07005,1996-03-15 06:00:00,1,1006.2,0.4,80,-2,3000,11.112,,,130,1.2,4.7,,,,,,,,10,wg-a,,,,AAXX 15064 07005 12/30 51306 10010 21020 39966 40062 53004 60006 710// 83032 90600 333 10047 20012=
07005,1996-03-15 12:00:00,11,1006.7,0.3,58,3,4000,14.816,,,140,,,,,,,,,,10,wg-a,,,,AAXX 15124 07005 32/40 41408 10110 20030 39975 40067 52003 71011 80002 91200=
07005,1996-03-15 18:00:00,9,1006.7,0.8,71,4,500,14.816,,,90,1.1,12.1,,,,,,,,,wg-a,,,,AAXX 15184 07005 12/00 60908 10090 20040 39974 40067 53008 60006 83032 91800 333 10121 20011=
07005,1996-03-16 00:00:00,7,1007.1,-0.1,70,2,0,11.112,,,90,,,,,,,,,,,wg-a,,,,AAXX 16004 07005 12/// /0906 10070 20020 39977 40071 57001 60006 90000=
07005,1996-03-16 06:00:00,3,1007,0.2,81,0,3000,11.112,,,70,3,8.6,,,,,,,,10,wg-a,,,,AAXX 16064 07005 12/30 70706 10030 20000 39975 40070 51002 60006 710// 83032 90600 333 10086 20030=
07005,1996-03-16 12:00:00,10,1007.7,0.1,53,1,3000,11.112,,,300,,,,,,,,,,10,wg-a,,,,AAXX 16124 07005 12/30 73006 10100 20010 39984 40077 53001 60006 71022 80002 91200=
07005,1996-03-16 18:00:00,5,1011.6,2.7,81,2,0,22.224,,,300,2.9,10.2,,,,,,,,,wg-a,,,,AAXX 16184 07005 12/// /3012 10050 20020 30021 40116 53027 60006 91800 333 10102 20029=
07005,1996-03-17 00:00:00,4,1014.2,1,87,2,0,3.704,,,300,,,,,,,,,,,wg-a,,,,AAXX 17004 07005 12/// /3002 10040 20020 30047 40142 51010 60006 90000=
07005,1996-03-17 06:00:00,4,1016.2,1.1,87,2,800,3.704,,,190,3.7,4.5,,,,,,,,46,wg-a,,,,AAXX 17064 07005 12408 81902 10040 20020 30066 40162 53011 60006 7464/ 885// 90600 333 10045 20037=
07005,1996-03-17 12:00:00,9,1017.5,0.3,66,3,3500,14.816,,,320,,,,,,,,,,10,wg-a,,,,AAXX 17124 07005 12435 33208 10090 20030 30081 40175 50003 60006 71041 82102 91200=
07005,1996-03-17 18:00:00,7,1017.7,0.7,70,2,0,7.408,,,360,4,9.8,,,,,,,,,wg-a,,,,AAXX 17184 07005 12/// /3604 10070 20020 30082 40177 53007 60006 91800 333 10098 20040=
07005,1996-03-18 00:00:00,4,1018.3,0.2,87,2,0,14.816,,,120,,,,,,,,,,,wg-a,,,,AAXX 18004 07005 12/// /1208 10040 20020 30087 40183 50002 60006 90000=
07005,1996-03-18 06:00:00,2,1017.8,0.2,93,1,2000,14.816,,,110,2.3,7.2,,,,,,,,10,wg-a,,,,AAXX 18064 07005 12/20 61108 10020 20010 30082 40178 53002 60006 710// 82032 90600 333 10072 20023=
07005,1996-03-18 12:00:00,13,1017.6,-0.5,47,2,500,3.704,,,140,,,,,,,,,,,wg-a,,,,AAXX 18124 07005 12400 51402 10130 20020 30083 40176 58005 60006 81202 91200=
07005,1996-03-18 18:00:00,9,1017.4,0.7,61,2,10000,11.112,,,320,2.2,13.6,,,,,,,,,wg-a,,,,AAXX 18184 07005 12560 63206 10090 20020 30080 40174 53007 60006 83842 91800 333 10136 20022=
07005,1996-03-19 00:00:00,5,1018.3,0.1,87,3,0,11.112,,,100,,,,,,,,,,,wg-a,,,,AAXX 19004 07005 12/// /1006 10050 20030 30088 40183 50001 60006 90000=
07005,1996-03-19 06:00:00,2,1017.4,-0.3,93,1,900,14.816,,,60,1.6,9.1,,,,,,,,46,wg-a,,,,AAXX 19064 07005 12609 40608 10020 20010 30078 40174 55003 60006 746// 81530 90600 333 10091 20016=
07005,1996-03-19 12:00:00,12,1016,-1.5,50,2,3500,11.112,,,110,,,,,,,,,,10,wg-a,,,,AAXX 19124 07005 12/35 51106 10120 20020 30067 40160 58015 60006 71022 82032 91200=
07005,1996-03-19 18:00:00,8,1013.7,-0.5,76,4,3000,18.52,,,60,1.9,12.2,,,,,,,,10,wg-a,,,,AAXX 19184 07005 12/30 00610 10080 20040 30043 40137 56005 60006 71000 80000 91800 333 10122 20019=
07005,1996-03-20 00:00:00,2,1012.4,-1,93,1,0,22.224,,,70,,,,,,,,,,,wg-a,,,,AAXX 20004 07005 12/// /0712 10020 20010 30028 40124 58010 60006 90000=
07005,1996-03-20 06:00:00,1,1010.3,-1.1,100,1,200,25.928,,,90,0.7,8.1,,,,,,,,47,wg-a,,,,AAXX 20064 07005 12/02 90914 10010 20010 30007 40103 56011 60006 74742 89/// 90600 333 10081 20007=
07005,1996-03-20 12:00:00,9,1008.2,-1.5,76,5,2000,18.52,,,100,,,,,,,,,,10,wg-a,,,,AAXX 20124 07005 12/20 81010 10090 20050 39989 40082 57015 60006 71022 8801/ 91200=
07005,1996-03-20 18:00:00,9,1007.5,0.1,81,6,2000,14.816,,,150,1.3,10.3,,1,,,,,,10,wg-a,,,,AAXX 20184 07005 12/20 71508 10090 20060 39982 40075 50001 60017 71022 8703/ 91800 333 10103 20013=
07005,1996-03-21 00:00:00,6,1008,0.2,87,4,0,14.816,,,150,,,,,,,,,,,wg-a,,,,AAXX 21004 07005 12/// /1508 10060 20040 39986 40080 50002 60006 90000=
07005,1996-03-21 06:00:00,7,1006.7,-0.8,93,6,500,18.52,,,120,5.7,8.8,,4,,,5,,,61,wg-a,,,,AAXX 21064 07005 02400 81210 10070 20060 39973 40067 58008 60054 7616/ 875// 90600 333 10088 20057 60047=
07005,1996-03-21 12:00:00,11,1006.4,0.4,76,7,500,22.224,,,230,,,,0,,,,,,80,wg-a,,,,AAXX 21124 07005 02400 72312 10110 20070 39972 40064 53004 60056 78086 878// 91200 333 60007=
07005,1996-03-21 18:00:00,9,1009,1.4,76,5,15000,18.52,,,240,6.4,12.4,,,,,,,,3,wg-a,,,,AAXX 21184 07005 32465 72410 10090 20050 39997 40090 53014 70382 878// 91800 333 10124 20064=
07005,1996-03-22 00:00:00,7,1011.2,0.9,81,4,0,18.52,,,220,,,,,,,,,,,wg-a,,,,AAXX 22004 07005 12/// /2210 10070 20040 30018 40112 52009 60006 90000=
07005,1996-03-22 06:00:00,7,1013,1.3,87,5,4000,25.928,,,250,6.6,9.4,,,,,6,,,10,wg-a,,,,AAXX 22064 07005 02440 82514 10070 20050 30036 40130 53013 60006 71022 886// 90600 333 10094 20066 60064=
07005,1996-03-22 12:00:00,11,1014.9,0.4,66,5,10000,11.112,,,250,,,,,,,,,,,wg-a,,,,AAXX 22124 07005 12460 82506 10110 20050 30056 40149 50004 60006 878// 91200=
07005,1996-03-22 18:00:00,9,1014.4,-0.2,93,8,1700,18.52,,,130,7.2,10.9,,3,,,,,,58,wg-a,,,,AAXX 22184 07005 12217 81310 10090 20080 30050 40144 57002 60037 75862 887// 91800 333 10109 20072=
07005,1996-03-23 00:00:00,11,1015.6,0.9,94,10,0,22.224,,,270,,,,,,,,,,,wg-a,,,,AAXX 23004 07005 12/// /2712 10110 20100 30063 40156 53009 60016 90000=
07005,1996-03-23 06:00:00,10,1016.6,0.4,93,9,4000,3.704,,,260,8.7,10.5,,,,,5,,,10,wg-a,,,,AAXX 23064 07005 12340 82602 10100 20090 30072 40166 53004 60054 710// 886// 90600 333 10105 20087=
07005,1996-03-23 12:00:00,12,1017.5,-0.3,94,11,8000,7.408,,,340,,,,,,,,,,,wg-a,,,,AAXX 23124 07005 12358 83404 10120 20110 30082 40175 56003 60006 885// 91200=
07005,1996-03-23 18:00:00,12,1016.8,-0.3,94,11,0,7.408,,,40,9.7,13.5,,,,,,,,,wg-a,,,,AAXX 23184 07005 12/// /0404 10120 20110 30075 40168 55003 60006 91800 333 10135 20097=
07005,1996-03-24 00:00:00,8,1018.2,0.6,100,8,0,7.408,,,70,,,,,,,,,,,wg-a,,,,AAXX 24004 07005 12/// /0704 10080 20080 30088 40182 53006 60006 90000=
07005,1996-03-24 06:00:00,7,1019.9,1.5,100,7,100,18.52,,,50,7.4,12.1,,,,,,,,47,wg-a,,,,AAXX 24064 07005 12/01 90510 10070 20070 30104 40199 53015 60004 747// 89/// 90600 333 10121 20074=
07005,1996-03-24 12:00:00,14,1020.8,0,77,10,6000,29.632,,,90,,,,,,,,,,,wg-a,,,,AAXX 24124 07005 12456 60916 10140 20100 30115 40208 50000 60006 86201 91200=
07005,1996-03-25 00:00:00,7,1019.1,-1,87,5,0,18.52,,,90,,,,,,,,,,,wg-a,,,,AAXX 25004 07005 12/// /0910 10070 20050 30096 40191 56010 60006 90000=
07005,1996-03-25 06:00:00,6,1016.7,-0.6,93,5,2500,25.928,,,90,5.7,9.9,,,,,,,,10,wg-a,,,,AAXX 25064 07005 12/25 70914 10060 20050 30072 40167 56006 60006 710// 8703/ 90600 333 10099 20057=
07005,1996-03-25 12:00:00,12,1015.1,-0.5,82,9,4500,14.816,,,100,,,,,,,,,,10,wg-a,,,,AAXX 25124 07005 12/45 81008 10120 20090 30058 40151 56005 60006 71022 8707/ 91200=
07005,1996-03-25 18:00:00,11,1014.1,-0,94,10,3000,11.112,,,70,5.8,13.1,,1,,,,,,61,wg-a,,,,AAXX 25184 07005 12530 80706 10110 20100 30048 40141 55000 60017 76166 875// 91800 333 10131 20058=
07005,1996-03-26 00:00:00,10,1012.9,-0.6,93,9,0,3.704,,,130,,,,,,,,,,,wg-a,,,,AAXX 26004 07005 12/// /1302 10100 20090 30036 40129 58006 60016 90000=
07005,1996-03-26 06:00:00,8,1012.2,0.1,93,7,300,7.408,,,310,7.7,11.4,,1,,,3,,,50,wg-a,,,,AAXX 26064 07005 02003 83104 10080 20070 30028 40122 53001 60034 75054 887// 90600 333 10114 20077 60017=
07005,1996-03-26 12:00:00,7,1013.6,0.3,87,5,2000,22.224,,,40,,,,0,,,,,,10,wg-a,,,,AAXX 26124 07005 02220 80412 10070 20050 30042 40136 50003 60016 71065 886// 91200 333 60007=
07005,1996-03-26 18:00:00,3,1016.9,2.1,87,1,3000,35.188,,,40,3,8,,,,,,,,10,wg-a,,,,AAXX 26184 07005 32330 80419 10030 20010 30073 40169 53021 71022 875// 91800 333 10080 20030=
07005,1996-03-27 00:00:00,2,1020.2,1.4,80,-1,0,31.484,,,50,,,,,,,,,,,wg-a,,,,AAXX 27004 07005 12/// /0517 10020 21010 30105 40202 51014 60006 90000=
07005,1996-03-27 06:00:00,-1,1023,1.5,74,-5,25000,22.224,,,50,-1.1,2.9,,,,,1,,,,wg-a,,,,AAXX 27064 07005 02575 40512 11010 21050 30132 40230 53015 60006 81502 90600 333 10029 21011 60014=
07005,1996-03-27 12:00:00,4,1023.7,-0.2,38,-9,40000,35.188,,,60,,,,,,,,,,,wg-a,,,,AAXX 27124 07005 12/82 10619 10040 21090 30141 40237 55002 60006 80002 91200=
07005,1996-03-27 18:00:00,4,1022.6,-0.1,65,-2,40000,18.52,,,50,-1,6.3,,,,,,,,,wg-a,,,,AAXX 27184 07005 12/82 00510 10040 21020 30130 40226 55001 60006 80000 91800 333 10063 21010=
07005,1996-03-28 00:00:00,-1,1022.3,-0.7,86,-3,0,11.112,,,60,,,,,,,,,,,wg-a,,,,AAXX 28004 07005 12/// /0606 11010 21030 30125 40223 58007 60006 90000=
07005,1996-03-28 06:00:00,-3,1019.4,-0.9,93,-4,8000,3.704,,,270,-3,3.8,,,,,,,,,wg-a,,,,AAXX 28064 07005 12858 72702 11030 21040 30096 40194 56009 60006 81541 90600 333 10038 21030=
07005,1996-03-28 12:00:00,5,1016.8,-1,65,-1,20000,29.632,,,290,,,,,,,,,,,wg-a,,,,AAXX 28124 07005 12570 72916 10050 21010 30073 40168 57010 60006 872// 91200=
07005,1996-03-28 18:00:00,5,1015.6,-0.2,70,0,15000,25.928,,,280,-2.9,6.3,,,,,,,,,wg-a,,,,AAXX 28184 07005 12465 62814 10050 20000 30061 40156 55002 60006 86500 91800 333 10063 21029=
07005,1996-03-29 06:00:00,3,1016.3,-0,93,2,7000,7.408,,,250,2,5.4,,,,,,,,,wg-a,,,,AAXX 29064 07005 12457 72504 10030 20020 30067 40163 55000 60006 878// 90600 333 10054 20020=
07005,1996-03-29 12:00:00,8,1016.1,-0.4,61,1,20000,18.52,,,310,,,,,,,,,,1,wg-a,,,,AAXX 29124 07005 02170 73110 10080 20010 30067 40161 58004 61000 70181 878// 91200 333 6100=
07005,1996-03-29 18:00:00,5,1015.7,-0,75,1,25000,14.816,,,320,2.6,8.8,,,,,,,,,wg-a,,,,AAXX 29184 07005 32575 43208 10050 20010 30062 40157 55000 84800 91800 333 10088 20026=
07005,1996-03-30 00:00:00,2,1016.9,0.2,93,1,0,7.408,,,10,,,,,,,,,,,wg-a,,,,AAXX 30004 07005 12/// /0104 10020 20010 30073 40169 53002 60006 90000=
07005,1996-03-30 06:00:00,0,1017.1,0.5,93,-1,6000,7.408,,,340,-0.5,5.2,,,,,,,,,wg-a,,,,AAXX 30064 07005 02456 23404 10000 21010 30074 40171 53005 60006 82800 90600 333 10052 21005 61000=
07005,1996-03-30 12:00:00,6,1018.1,0.6,61,-1,25000,25.928,,,340,,,,,,,,,,1,wg-a,,,,AAXX 30124 07005 02575 53414 10060 21010 30086 40181 51006 61000 70181 85200 91200 333 6100=
07005,1996-03-30 18:00:00,5,1019.7,0.9,60,-2,0,18.52,,,20,-0.6,7,,,,,,,,,wg-a,,,,AAXX 30184 07005 32/// /0210 10050 21020 30101 40197 53009 91800 333 10070 21006=
07005,1996-03-31 00:00:00,1,1020.5,-0,86,-1,0,7.408,,,230,,,,,,,,,,,wg-a,,,,AAXX 31004 07005 12/// /2304 10010 21010 30108 40205 54000 60006 90000=
07005,1996-03-31 06:00:00,0,1019.1,-0.6,93,-1,7000,7.408,,,160,-0.7,4.7,,,,,,,,,wg-a,,,,AAXX 31064 07005 02657 71604 10000 21010 30094 40191 56006 60006 875// 90600 333 10047 21007 61000=
07005,1996-03-31 12:00:00,5,1017.7,-0.9,65,-1,20000,11.112,,,30,,,,,,,,,,,wg-a,,,,AAXX 31124 07005 12570 70306 10050 21010 30082 40177 58009 60006 878// 91200=
07005,1996-03-31 18:00:00,4,1015.6,-0.7,70,-1,0,11.112,,,60,0,6,,,,,,,,,wg-a,,,,AAXX 31184 07005 12/// /0606 10040 21010 30060 40156 56007 60006 91800 333 10060 20000=
07005,1996-04-01 00:00:00,0,1014.3,-0.9,86,-2,0,11.112,,,80,,,,,,,,,,,wg-a,,,,AAXX 01004 07005 12/// /0806 10000 21020 30046 40143 56009 60006 90000=
07005,1996-04-01 06:00:00,-1,1012.6,-0.4,93,-2,3000,14.816,,,60,-1.7,4.2,,,,,,,,10,wg-a,,,,AAXX 01064 07005 12/30 10608 11010 21020 30029 40126 55004 60006 710// 80002 90600 333 10042 21017=
07005,1996-04-01 12:00:00,6,1012.2,-0.6,52,-3,20000,25.928,,,80,,,,,,,,,,,wg-a,,,,AAXX 01124 07005 12570 50814 10060 21030 30027 40122 58006 60006 85200 91200=
07005,1996-04-01 18:00:00,4,1012.6,1,52,-5,20000,29.632,,,40,,,,,,,,,,,wg-a,,,,AAXX 01184 07005 32/70 00416 10040 21050 30031 40126 53010 80000 91800=
07005,1996-04-02 00:00:00,-1,1017,1.3,80,-4,0,18.52,,,40,,,,,,,,,,,wg-a,,,,AAXX 02004 07005 12/// /0410 11010 21040 30072 40170 52013 60006 90000=
07005,1996-04-02 06:00:00,-3,1019.3,1.5,86,-5,12000,7.408,,,30,-2.9,4.1,,,,,,,,,wg-a,,,,AAXX 02064 07005 12662 40304 11030 21050 30095 40193 53015 60006 84500 90600 333 10041 21029=
07005,1996-04-02 12:00:00,5,1021.4,0.5,65,-1,20000,25.928,,,20,,,,,,,,,,,wg-a,,,,AAXX 02124 07005 12570 70214 10050 21010 30118 40214 51005 60006 86802 91200=
07005,1996-04-02 18:00:00,3,1023.3,1.7,87,1,15000,25.928,,,10,-2.6,5.9,,,,,,,,25,wg-a,,,,AAXX 02184 07005 02465 60114 10030 20010 30136 40233 53017 61000 72582 86800 91800 333 10059 21026 ////=
07005,1996-04-03 00:00:00,-2,1025.8,0.7,93,-3,0,11.112,,,10,,,,,,,,,,,wg-a,,,,AAXX 03004 07005 12/// /0106 11020 21030 30159 40258 52007 60006 90000=
07005,1996-04-03 06:00:00,-3,1027.4,1.3,93,-4,3000,14.816,,,20,-3.3,2.6,,,,,,,,10,wg-a,,,,AAXX 03064 07005 02/30 00208 11030 21040 30175 40274 53013 60006 71000 80000 90600 333 10026 21033 60004=
07005,1996-04-03 12:00:00,7,1028.7,0,45,-4,6000,29.632,,,50,,,,,,,,,,,wg-a,,,,AAXX 03124 07005 12456 40516 10070 21040 30191 40287 50000 60006 84200 91200=
07005,1996-04-03 18:00:00,5,1029.2,0.8,56,-3,8000,25.928,,,30,-2.6,7.7,,,,,,,,,wg-a,,,,AAXX 03184 07005 12/58 00314 10050 21030 30195 40292 53008 60006 80000 91800 333 10077 21026=
07005,1996-04-04 00:00:00,-1,1031.1,0.3,93,-2,0,11.112,,,40,,,,,,,,,,,wg-a,,,,AAXX 04004 07005 12/// /0406 11010 21020 30212 40311 51003 60006 90000=
07005,1996-04-04 06:00:00,-1,1030.5,-0.3,86,-3,3500,11.112,,,50,-1.9,4.5,,,,,,,,10,wg-a,,,,AAXX 04064 07005 12/35 00506 11010 21030 30206 40305 55003 60006 710// 80000 90600 333 10045 21019=
07005,1996-04-04 12:00:00,8,1027.6,-1.9,61,1,6000,22.224,,,50,,,,,,,,,,,wg-a,,,,AAXX 04124 07005 12/56 00512 10080 20010 30181 40276 58019 60006 80000 91200=
07005,1996-04-04 18:00:00,8,1025.6,-0.2,53,-1,7000,25.928,,,80,-1.3,10.7,,,,,,,,,wg-a,,,,AAXX 04184 07005 12657 70814 10080 21010 30161 40256 58002 60006 878// 91800 333 10107 21013=
07005,1996-04-05 00:00:00,2,1025,-1,75,-2,0,14.816,,,70,,,,,,,,,,,wg-a,,,,AAXX 05004 07005 12/// /0708 10020 21020 30153 40250 58010 60006 90000=
07005,1996-04-05 06:00:00,3,1022.7,-0.6,81,0,3000,11.112,,,90,,,,,,,,,,10,wg-a,,,,AAXX 05064 07005 12730 80906 10030 20000 30130 40227 56006 60006 710// 875// 90600=
07005,1996-04-05 12:00:00,9,1019.4,-2.2,61,2,500,22.224,,,90,,,,,,,,,,,wg-a,,,,AAXX 05124 07005 12500 80912 10090 20020 30100 40194 58022 60006 885// 91200=
07005,1996-04-05 18:00:00,10,1017.1,-0.3,62,3,500,7.408,,,120,3.1,11.3,,,,,,,,,wg-a,,,,AAXX 05184 07005 12500 81204 10100 20030 30077 40171 56003 60006 885// 91800 333 10113 20031=
07005,1996-04-06 00:00:00,7,1017.1,-0.4,76,3,0,11.112,,,160,,,,,,,,,,,wg-a,,,,AAXX 06004 07005 12/// /1606 10070 20030 30076 40171 56004 60006 90000=
07005,1996-04-06 06:00:00,6,1016.6,-0.2,87,4,0,7.408,,,160,5.5,10,,,,,,,,,wg-a,,,,AAXX 06064 07005 12/// /1604 10060 20040 30071 40166 56002 60006 90600 333 10100 20055=
07005,1996-04-06 12:00:00,9,1016.8,-0.2,66,3,500,3.704,,,260,,,,,,,,,,,wg-a,,,,AAXX 06124 07005 12500 72602 10090 20030 30074 40168 58002 60006 85507 91200=
07005,1996-04-06 18:00:00,7,1018,0.9,81,4,0,14.816,,,330,5.5,9.6,,,,,,,,,wg-a,,,,AAXX 06184 07005 12/// /3308 10070 20040 30085 40180 53009 60006 91800 333 10096 20055=
07005,1996-04-07 00:00:00,6,1019.2,0.4,93,5,0,3.704,,,280,,,,,,,,,,,wg-a,,,,AAXX 07004 07005 12/// /2802 10060 20050 30097 40192 51004 60006 90000=
07005,1996-04-07 06:00:00,6,1020.3,0.9,93,5,800,3.704,,,280,5.3,7,,,,,,,,44,wg-a,,,,AAXX 07064 07005 12308 82802 10060 20050 30108 40203 53009 60006 74444 887// 90600 333 10070 20053=
07005,1996-04-07 12:00:00,6,1022.6,1,93,5,1500,11.112,,,310,,,,0,,,,,,28,wg-a,,,,AAXX 07124 07005 02315 83106 10060 20050 30131 40226 51010 60006 72842 887// 91200 333 60007=
07005,1996-04-07 18:00:00,6,1024.4,1,87,4,0,11.112,,,300,5.5,7,,,,,,,,,wg-a,,,,AAXX 07184 07005 32/// /3006 10060 20040 30149 40244 52010 91800 333 10070 20055=
07005,1996-04-08 00:00:00,6,1026.4,0.5,87,4,0,7.408,,,220,,,,,,,,,,,wg-a,,,,AAXX 08004 07005 12/// /2204 10060 20040 30168 40264 53005 60006 90000=
07005,1996-04-08 06:00:00,6,1027,0.4,87,4,2000,7.408,,,200,5.5,6.4,,,,,,,,10,wg-a,,,,AAXX 08064 07005 12320 72004 10060 20040 30174 40270 53004 60006 710// 875// 90600 333 10064 20055=
07005,1996-04-08 12:00:00,11,1028.3,0.1,71,6,3000,25.928,,,290,,,,,,,,,,10,wg-a,,,,AAXX 08124 07005 12730 72914 10110 20060 30189 40283 51001 60006 71022 875// 91200=
07005,1996-04-08 18:00:00,7,1029.1,0.5,93,6,0,7.408,,,290,5.8,13,,,,,,,,,wg-a,,,,AAXX 08184 07005 12/// /2904 10070 20060 30195 40291 51005 60006 91800 333 10130 20058=
07005,1996-04-09 06:00:00,3,1028.3,-0.2,93,2,800,11.112,,,170,2.8,7.3,,,,,,,,46,wg-a,,,,AAXX 09064 07005 12808 61706 10030 20020 30186 40283 55002 60006 74642 865/0 90600 333 10073 20028=
07005,1996-04-09 12:00:00,14,1027,-1,58,6,10000,3.704,,,310,,,,,,,,,,3,wg-a,,,,AAXX 09124 07005 12660 53102 10140 20060 30177 40270 58010 60006 70341 84202 91200=
07005,1996-04-09 18:00:00,13,1023.9,-1.2,58,5,7000,11.112,,,340,3,15.5,,,,,,,,,wg-a,,,,AAXX 09184 07005 12657 73406 10130 20050 30146 40239 58012 60006 85802 91800 333 10155 20030=
07005,1996-04-10 00:00:00,9,1022.8,-1.1,76,5,0,3.704,,,220,,,,,,,,,,,wg-a,,,,AAXX 10004 07005 12/// /2202 10090 20050 30133 40228 58011 60006 90000=
07005,1996-04-10 06:00:00,7,1020,-1,87,5,3500,7.408,,,130,6.3,12.9,,,,,,,,10,wg-a,,,,AAXX 10064 07005 12435 81304 10070 20050 30105 40200 56010 60006 710// 885// 90600 333 10129 20063=
07005,1996-04-10 12:00:00,15,1018.1,-1.5,55,6,4000,14.816,,,210,,,,,,,,,,10,wg-a,,,,AAXX 10124 07005 12640 82108 10150 20060 30089 40181 56015 60006 71022 8352/ 91200=
07005,1996-04-10 18:00:00,10,1017.6,-0.4,87,8,2000,3.704,,,350,7,14.8,,,,,,,,10,wg-a,,,,AAXX 10184 07005 02420 83502 10100 20080 30082 40176 57004 61000 71062 885// 91800 333 10148 20070 ////=
07005,1996-04-11 00:00:00,7,1017.4,-0.1,93,6,0,11.112,,,300,,,,,,,,,,,wg-a,,,,AAXX 11004 07005 12/// /3006 10070 20060 30080 40174 58001 60006 90000=
07005,1996-04-11 06:00:00,7,1017.5,0.2,100,7,500,11.112,,,280,6.1,10.2,,,,,,,,47,wg-a,,,,AAXX 11064 07005 02/00 92806 10070 20070 30080 40175 53002 60006 74744 89/// 90600 333 10102 20061 60004=
07005,1996-04-11 12:00:00,8,1018,0,93,7,2500,14.816,,,300,,,,,,,,,,10,wg-a,,,,AAXX 11124 07005 12125 83008 10080 20070 30086 40180 50000 60006 71042 886// 91200=
07005,1996-04-11 18:00:00,7,1017.6,0.1,93,6,1500,14.816,,,310,6.9,9.2,,,,,,,,10,wg-a,,,,AAXX 11184 07005 12115 83108 10070 20060 30081 40176 53001 60006 71022 886// 91800 333 10092 20069=
07005,1996-04-12 00:00:00,7,1017.3,-0.3,93,6,0,7.408,,,320,,,,,,,,,,,wg-a,,,,AAXX 12004 07005 12/// /3204 10070 20060 30078 40173 56003 60006 90000=
07005,1996-04-12 06:00:00,7,1016.6,0.2,93,6,900,7.408,,,340,5.9,7,,,,,,,,46,wg-a,,,,AAXX 12064 07005 12209 83404 10070 20060 30071 40166 53002 60006 7464/ 886// 90600 333 10070 20059=
07005,1996-04-12 12:00:00,8,1016.6,-0,87,6,1500,18.52,,,80,,,,,,,,,,10,wg-a,,,,AAXX 12124 07005 12215 80810 10080 20060 30072 40166 55000 60006 71042 887// 91200=
07005,1996-04-12 18:00:00,7,1015.6,-0.3,81,4,2500,18.52,,,90,6.7,8.5,,,,,,,,60,wg-a,,,,AAXX 12184 07005 02425 80910 10070 20040 30061 40156 56003 61000 76062 8557/ 91800 333 10085 20067 ////=
07005,1996-04-13 06:00:00,4,1017,0.6,81,1,4000,22.224,,,90,3.5,6.7,,1,,,7,,,21,wg-a,,,,AAXX 13064 07005 02640 80912 10040 20010 30074 40170 53006 60074 72162 885// 90600 333 10067 20035 60017=
07005,1996-04-13 12:00:00,10,1018.7,0.4,62,3,10000,22.224,,,100,,,,,,,,,,,wg-a,,,,AAXX 13124 07005 12560 71012 10100 20030 30093 40187 53004 60006 85102 91200=
07005,1996-04-13 18:00:00,10,1019.1,0.8,53,1,0,14.816,,,70,3.5,11.9,,,,,,,,,wg-a,,,,AAXX 13184 07005 12/// /0708 10100 20010 30097 40191 51008 60006 91800 333 10119 20035=
07005,1996-04-14 00:00:00,3,1021.7,0.8,81,0,0,14.816,,,60,,,,,,,,,,,wg-a,,,,AAXX 14004 07005 12/// /0608 10030 20000 30121 40217 51008 60006 90000=
07005,1996-04-14 06:00:00,2,1022.6,1.2,80,-1,6000,14.816,,,120,0.6,9.6,,,,,,,,,wg-a,,,,AAXX 14064 07005 12/56 51208 10020 21010 30129 40226 53012 60006 80002 90600 333 10096 20006=
07005,1996-04-14 12:00:00,11,1023.8,0.3,50,1,0,14.816,,,120,,,,,,,,,,,wg-a,,,,AAXX 14124 07005 12/// /1208 10110 20010 30144 40238 50003 60006 91200=
07005,1996-04-14 18:00:00,12,1023.7,0.6,47,1,0,0,,,0,2.1,12.8,,,,,,,,,wg-a,,,,AAXX 14184 07005 12/// /0000 10120 20010 30143 40237 53006 60006 91800 333 10128 20021=
07005,1996-04-15 00:00:00,6,1025.9,0.5,75,2,0,7.408,,,90,,,,,,,,,,,wg-a,,,,AAXX 15004 07005 12/// /0904 10060 20020 30163 40259 53005 60006 90000=
07005,1996-04-15 06:00:00,3,1026.7,0.8,75,-1,6000,14.816,,,120,3.2,11.8,,,,,,,,,wg-a,,,,AAXX 15064 07005 12/56 11208 10030 21010 30170 40267 53008 60006 80002 90600 333 10118 20032=
07005,1996-04-15 12:00:00,16,1026.4,-0.8,34,0,15000,11.112,,,200,,,,,,,,,,,wg-a,,,,AAXX 15124 07005 12/65 02006 10160 20000 30171 40264 58008 60006 80000 91200=
07005,1996-04-15 18:00:00,15,1024.4,-0.9,39,1,12000,11.112,,,170,3.3,17.1,,,,,,,,,wg-a,,,,AAXX 15184 07005 12/62 21706 10150 20010 30151 40244 56009 60006 80001 91800 333 10171 20033=
07005,1996-04-16 00:00:00,8,1023.2,-1.2,53,-1,0,14.816,,,140,,,,,,,,,,,wg-a,,,,AAXX 16004 07005 12/// /1408 10080 21010 30137 40232 58012 60006 90000=
07005,1996-04-16 06:00:00,5,1019.8,-1.5,65,-1,10000,14.816,,,140,5.3,14.6,,,,,,,,,wg-a,,,,AAXX 16064 07005 12/60 21408 10050 21010 30103 40198 56015 60006 80001 90600 333 10146 20053=
07005,1996-04-16 12:00:00,17,1015.2,-2.8,29,-1,15000,22.224,,,160,,,,,,,,,,,wg-a,,,,AAXX 16124 07005 12/65 31612 10170 21010 30061 40152 58028 60006 80002 91200=
07005,1996-04-16 18:00:00,17,1009.9,-2.2,32,0,15000,14.816,,,140,5.4,18.6,,,,,,,,,wg-a,,,,AAXX 16184 07005 12/65 71408 10170 20000 30008 40099 56022 60006 82038 91800 333 10186 20054=
07005,1996-04-17 00:00:00,11,1007.2,-1.6,47,0,0,11.112,,,130,,,,,,,,,,,wg-a,,,,AAXX 17004 07005 12/// /1306 10110 20000 39980 40072 56016 60006 90000=
07005,1996-04-17 06:00:00,9,1007.1,-0,87,7,7000,7.408,,,170,9.2,16.6,,1,,,1,,,61,wg-a,,,,AAXX 17064 07005 02457 81704 10090 20070 39978 40071 55000 60014 7616/ 8457/ 90600 333 10166 20092 60017=
07005,1996-04-17 12:00:00,11,1011.1,1.7,87,9,20000,29.632,,,280,,,,,,,,,,1,wg-a,,,,AAXX 17124 07005 02470 72816 10110 20090 30018 40111 51017 60016 70162 872// 91200 333 61000=
07005,1996-04-17 18:00:00,11,1014.8,2.5,71,6,20000,29.632,,,280,8.8,12.9,,,,,,,,,wg-a,,,,AAXX 17184 07005 32570 22816 10110 20060 30055 40148 51025 81202 91800 333 10129 20088=
07005,1996-04-18 00:00:00,6,1017.9,0.9,93,5,0,11.112,,,230,,,,,,,,,,,wg-a,,,,AAXX 18004 07005 12/// /2306 10060 20050 30084 40179 51009 60006 90000=
07005,1996-04-18 06:00:00,6,1019,0.6,93,5,6000,11.112,,,180,5,10.5,,,,,1,,,,wg-a,,,,AAXX 18064 07005 02/56 51806 10060 20050 30095 40190 53006 60006 80002 90600 333 10105 20050 60014=
07005,1996-04-18 12:00:00,15,1018.2,-0.8,55,6,500,25.928,,,210,,,,,,,,,,,wg-a,,,,AAXX 18124 07005 12500 72114 10150 20060 30090 40182 58008 60006 85102 91200=
07005,1996-04-18 18:00:00,14,1017.8,0.2,58,6,20000,25.928,,,200,5.7,16.1,,,,,,,,,wg-a,,,,AAXX 18184 07005 12770 72014 10140 20060 30086 40178 50002 60006 854/2 91800 333 10161 20057=
07005,1996-04-19 00:00:00,12,1018.3,0.2,71,7,0,11.112,,,180,,,,,,,,,,,wg-a,,,,AAXX 19004 07005 12/// /1806 10120 20070 30090 40183 51002 60006 90000=
07005,1996-04-19 06:00:00,9,1018.5,0.5,81,6,20000,14.816,,,180,8.3,13.6,,,,,,,,,wg-a,,,,AAXX 19064 07005 12/70 71808 10090 20060 30091 40185 53005 60006 81042 90600 333 10136 20083=
07005,1996-04-19 12:00:00,17,1017.2,-0.9,55,8,500,22.224,,,210,,,,,,,,,,,wg-a,,,,AAXX 19124 07005 12500 72112 10170 20080 30081 40172 58009 60006 85202 91200=
07005,1996-04-19 18:00:00,16,1014.4,-1,68,10,500,11.112,,,300,8.6,19.1,,,,,,,,,wg-a,,,,AAXX 19184 07005 12/00 63006 10160 20100 30053 40144 57010 60006 81082 91800 333 10191 20086=
07005,1996-04-20 00:00:00,10,1013.4,-1,82,7,0,11.112,,,110,,,,,,,,,,,wg-a,,,,AAXX 20004 07005 12/// /1106 10100 20070 30041 40134 58010 60006 90000=
07005,1996-04-20 06:00:00,12,1012,-0.1,67,6,10000,14.816,,,140,9.3,16.2,,,,,,,,,wg-a,,,,AAXX 20064 07005 12/60 61408 10120 20060 30027 40120 55001 60006 80002 90600 333 10162 20093=
07005,1996-04-20 12:00:00,22,1009.9,-1.1,33,5,25000,22.224,,,170,,,,,,,,,,,wg-a,,,,AAXX 20124 07005 12/75 61712 10220 20050 30010 40099 56011 60006 80002 91200=
07005,1996-04-20 18:00:00,20,1008.6,-0.3,43,7,0,11.112,,,210,11.5,22.7,,,,,,,,,wg-a,,,,AAXX 20184 07005 12/// /2106 10200 20070 39996 40086 56003 60006 91800 333 10227 20115=
07005,1996-04-21 00:00:00,15,1008.9,-0,51,5,0,14.816,,,130,,,,,,,,,,,wg-a,,,,AAXX 21004 07005 12/// /1308 10150 20050 39998 40089 55000 60006 90000=
07005,1996-04-21 06:00:00,11,1008,-0.3,66,5,20000,18.52,,,150,10.3,19.5,,,,,,,,,wg-a,,,,AAXX 21064 07005 12/70 51510 10110 20050 39987 40080 55003 60006 81032 90600 333 10195 20103=
07005,1996-04-21 12:00:00,22,1006,-0.9,31,4,25000,31.484,,,160,,,,,,,,,,,wg-a,,,,AAXX 21124 07005 32/75 11617 10220 20040 39971 40060 58009 81030 91200=
07005,1996-04-21 18:00:00,22,1005.4,0.3,35,6,0,18.52,,,180,10.7,23.6,,,,,,,,,wg-a,,,,AAXX 21184 07005 12/// /1810 10220 20060 39965 40054 53003 60006 91800 333 10236 20107=
07005,1996-04-22 00:00:00,14,1009.2,1.9,88,12,0,0,,,0,,,,,,,,,,,wg-a,,,,AAXX 22004 07005 12/// /0000 10140 20120 30000 40092 51019 60016 90000=
07005,1996-04-22 06:00:00,10,1009.2,-0,93,9,20000,7.408,,,80,10,22.1,,,,,1,,,,wg-a,,,,AAXX 22064 07005 12770 60804 10100 20090 39999 40092 54000 60014 81532 90600 333 10221 20100=
07005,1996-04-22 12:00:00,20,1005.7,-1.8,53,10,20000,18.52,,,130,,,,,,,,,,,wg-a,,,,AAXX 22124 07005 12570 61310 10200 20100 39968 40057 56018 60006 81102 91200=
07005,1996-04-22 18:00:00,17,1002.3,-1.2,72,12,15000,11.112,,,310,10.1,22.6,,,,,,,,,wg-a,,,,AAXX 22184 07005 12765 73106 10170 20120 39933 40023 56012 60006 8353/ 91800 333 10226 20101=
07005,1996-04-23 00:00:00,18,1000.6,-0.2,59,10,0,29.632,,,180,,,,,,,,,,,wg-a,,,,AAXX 23004 07005 12/// /1816 10180 20100 39916 40006 56002 60006 90000=
07005,1996-04-23 06:00:00,14,1003.4,1.4,72,9,500,25.928,,,200,13.6,17.9,,,,,,,,,wg-a,,,,AAXX 23064 07005 12400 72014 10140 20090 39943 40034 53014 60006 8587/ 90600 333 10179 20136=
07005,1996-04-23 12:00:00,11,1007.6,2.2,82,8,20000,35.188,,,280,,,,,,,,,,61,wg-a,,,,AAXX 23124 07005 02470 72819 10110 20080 39984 40076 51022 61000 76162 878// 91200 333 6100=
07005,1996-04-23 18:00:00,11,1012.1,1.6,76,7,500,18.52,,,280,9.7,15.8,,,,,,,,1,wg-a,,,,AAXX 23184 07005 32500 12810 10110 20070 30028 40121 51016 70161 81801 91800 333 10158 20097=
07005,1996-04-24 00:00:00,7,1015.6,1,87,5,0,11.112,,,200,,,,,,,,,,,wg-a,,,,AAXX 24004 07005 12/// /2006 10070 20050 30062 40156 51010 60006 90000=
07005,1996-04-24 06:00:00,7,1017.1,1.2,87,5,15000,11.112,,,180,5.3,10.5,,,,,1,,,,wg-a,,,,AAXX 24064 07005 12665 31806 10070 20050 30076 40171 53012 60014 82842 90600 333 10105 20053=
07005,1996-04-24 12:00:00,10,1019.6,1.1,87,8,15000,25.928,,,290,,,,,,,,,,91,wg-a,,,,AAXX 24124 07005 02465 72914 10100 20080 30102 40196 53011 61000 79196 8533/ 91200 333 6100=
07005,1996-04-24 18:00:00,10,1021.7,1.1,71,5,500,22.224,,,280,6.5,13.1,,,,,,,,2,wg-a,,,,AAXX 24184 07005 32500 32812 10100 20050 30123 40217 53011 70296 81201 91800 333 10131 20065=
07005,1996-04-25 00:00:00,5,1024.5,0.8,93,4,0,14.816,,,220,,,,,,,,,,,wg-a,,,,AAXX 25004 07005 12/// /2208 10050 20040 30149 40245 51008 60006 90000=
07005,1996-04-25 06:00:00,7,1025.8,1,93,6,10000,11.112,,,260,5.1,10.4,,,,,,,,,wg-a,,,,AAXX 25064 07005 02460 62606 10070 20060 30162 40258 53010 60006 81202 90600 333 10104 20051 60004=
07005,1996-04-25 12:00:00,12,1027,0.3,62,5,25000,22.224,,,290,,,,,,,,,,,wg-a,,,,AAXX 25124 07005 12575 42912 10120 20050 30176 40270 51003 60006 84200 91200=
07005,1996-04-25 18:00:00,11,1027,0.2,66,5,500,18.52,,,300,6.5,13.3,,,,,,,,,wg-a,,,,AAXX 25184 07005 12500 13010 10110 20050 30176 40270 53002 60006 81400 91800 333 10133 20065=
07005,1996-04-26 00:00:00,5,1026.6,-0.7,87,3,0,11.112,,,220,,,,,,,,,,,wg-a,,,,AAXX 26004 07005 12/// /2206 10050 20030 30170 40266 58007 60006 90000=
07005,1996-04-26 06:00:00,4,1025.5,-0.2,93,3,6000,7.408,,,160,2.8,10.6,,,,,,,,,wg-a,,,,AAXX 26064 07005 12/56 11604 10040 20030 30158 40255 55002 60006 80002 90600 333 10106 20028=
07005,1996-04-26 12:00:00,15,1023.6,-1.2,59,7,20000,7.408,,,300,,,,,,,,,,,wg-a,,,,AAXX 26124 07005 12570 33004 10150 20070 30144 40236 58012 60006 83200 91200=
07005,1996-04-26 18:00:00,13,1021,-0.9,77,9,20000,18.52,,,310,3.7,15.9,,,,,,,,,wg-a,,,,AAXX 26184 07005 12770 33110 10130 20090 30117 40210 56009 60006 825/2 91800 333 10159 20037=
07005,1996-04-27 00:00:00,7,1020.9,-0.7,93,6,0,7.408,,,320,,,,,,,,,,,wg-a,,,,AAXX 27004 07005 12/// /3204 10070 20060 30114 40209 58007 60006 90000=
07005,1996-04-27 06:00:00,5,1019.3,-0.4,93,4,3000,7.408,,,320,3.5,12.6,,,,,,,,10,wg-a,,,,AAXX 27064 07005 12/30 03204 10050 20040 30097 40193 55004 60006 710// 80000 90600 333 10126 20035=
07005,1996-04-27 12:00:00,19,1016.2,-1.8,49,8,10000,14.816,,,80,,,,,,,,,,,wg-a,,,,AAXX 27124 07005 12560 50808 10190 20080 30071 40162 58018 60006 85200 91200=
07005,1996-04-27 18:00:00,17,1013.8,-0.6,55,8,0,18.52,,,30,4.8,19.6,,,,,,,,,wg-a,,,,AAXX 27184 07005 12/// /0310 10170 20080 30047 40138 55006 60006 91800 333 10196 20048=
07005,1996-04-28 00:00:00,8,1014.2,-0.7,93,7,0,7.408,,,340,,,,,,,,,,,wg-a,,,,AAXX 28004 07005 12/// /3404 10080 20070 30048 40142 57007 60006 90000=
07005,1996-04-28 06:00:00,7,1012.9,-0.2,100,7,2500,7.408,,,80,5.3,17,,0,,,,,,10,wg-a,,,,AAXX 28064 07005 02/25 70804 10070 20070 30035 40129 58002 60004 71022 80002 90600 333 10170 20053 60007=
07005,1996-04-28 12:00:00,17,1012.2,-0.7,59,9,12000,18.52,,,50,,,,,,,,,,,wg-a,,,,AAXX 28124 07005 12562 50510 10170 20090 30031 40122 58007 60006 85100 91200=
07005,1996-04-28 18:00:00,12,1012,0.3,50,2,0,25.928,,,30,7.2,16.8,,,,,,,,,wg-a,,,,AAXX 28184 07005 12/// /0314 10120 20020 30028 40120 53003 60006 91800 333 10168 20072=
07005,1996-04-29 00:00:00,6,1014,0.2,87,4,0,18.52,,,30,,,,,,,,,,,wg-a,,,,AAXX 29004 07005 12/// /0310 10060 20040 30045 40140 51002 60006 90000=
07005,1996-04-29 06:00:00,4,1012.9,-0.1,93,3,15000,3.704,,,330,1.8,12.1,,,,,,,,,wg-a,,,,AAXX 29064 07005 12765 13302 10040 20030 30034 40129 55001 60006 815/1 90600 333 10121 20018=
07005,1996-04-29 12:00:00,12,1010.2,-1.8,50,2,500,11.112,,,20,,,,,,,,,,,wg-a,,,,AAXX 29124 07005 12500 20206 10120 20020 30010 40102 58018 60006 82201 91200=
07005,1996-04-29 18:00:00,10,1008.1,-0.7,57,2,500,18.52,,,330,3.6,12.5,,,,,,,,,wg-a,,,,AAXX 29184 07005 12600 73310 10100 20020 39988 40081 56007 60006 81508 91800 333 10125 20036=
07005,1996-04-30 00:00:00,3,1008,-0.5,87,1,0,7.408,,,230,,,,,,,,,,,wg-a,,,,AAXX 30004 07005 12/// /2304 10030 20010 39985 40080 58005 60006 90000=
07005,1996-04-30 06:00:00,3,1006.4,-0.1,93,2,3500,7.408,,,170,1.2,10.1,,,,,,,,10,wg-a,,,,AAXX 30064 07005 12/35 51704 10030 20020 39969 40064 55001 60006 710// 80002 90600 333 10101 20012=
07005,1996-04-30 12:00:00,10,1004.7,-1.2,71,5,20000,14.816,,,320,,,,,,,,,,,wg-a,,,,AAXX 30124 07005 12570 73208 10100 20050 39955 40047 58012 60006 878// 91200=
07005,1996-04-30 18:00:00,10,1002.4,-0.5,62,3,500,11.112,,,330,2.9,12.8,,,,,,,,,wg-a,,,,AAXX 30184 07005 12600 73306 10100 20030 39932 40024 57005 60006 875// 91800 333 10128 20029=
07005,1996-05-01 00:00:00,8,1000.8,-1.4,71,3,0,11.112,,,130,,,,,,,,,,,wg-a,,,,AAXX 01004 07005 12/// /1306 10080 20030 39915 40008 58014 60006 90000=
07005,1996-05-01 06:00:00,7,999.8,0.5,93,6,2000,7.408,,,240,7.4,10.4,,1,,,2,,,61,wg-a,,,,AAXX 01064 07005 02220 82404 10070 20060 39905 49998 53005 60024 7616/ 877// 90600 333 10104 20074 60017=
07005,1996-05-01 12:00:00,13,999.6,-0.2,54,4,25000,14.816,,,180,,,,,,,,,,3,wg-a,,,,AAXX 01124 07005 12575 71808 10130 20040 39905 49996 58002 60026 70362 878// 91200=
07005,1996-05-01 18:00:00,13,998.3,-0.2,62,6,0,22.224,,,150,7.3,14.9,,,,,,,,,wg-a,,,,AAXX 01184 07005 32/// /1512 10130 20060 39892 49983 55002 91800 333 10149 20073=
07005,1996-05-02 00:00:00,9,998,-0.7,76,5,0,14.816,,,90,,,,,,,,,,,wg-a,,,,AAXX 02004 07005 12/// /0908 10090 20050 39888 49980 58007 60016 90000=
07005,1996-05-02 06:00:00,8,996.6,-0.1,87,6,10000,14.816,,,90,6.4,12.6,,,,,3,,,,wg-a,,,,AAXX 02064 07005 12560 70908 10080 20060 39874 49966 55001 60034 81272 90600 333 10126 20064=
07005,1996-05-02 12:00:00,11,996.9,0,82,8,10000,7.408,,,300,,,,2,,,,,,21,wg-a,,,,AAXX 02124 07005 02560 83004 10110 20080 39878 49969 50000 60026 72162 878// 91200 333 60027=
07005,1996-05-02 18:00:00,10,997.2,0.1,93,9,7000,11.112,,,50,8.1,12.5,,,,,,,,,wg-a,,,,AAXX 02184 07005 32557 80506 10100 20090 39880 49972 53001 84872 91800 333 10125 20081=
07005,1996-05-03 00:00:00,7,999.2,0.7,93,6,0,25.928,,,30,,,,,,,,,,,wg-a,,,,AAXX 03004 07005 12/// /0314 10070 20060 39899 49992 53007 60076 90000=
07005,1996-05-03 06:00:00,6,1000.5,1,93,5,8000,14.816,,,10,5.6,10.4,,1,,,11,,,61,wg-a,,,,AAXX 03064 07005 02258 80108 10060 20050 39912 40005 53010 60114 76165 885// 90600 333 10104 20056 60017=
07005,1996-05-03 12:00:00,7,1003.7,1.8,93,6,15000,22.224,,,340,,,,1,,,,,,60,wg-a,,,,AAXX 03124 07005 02365 83412 10070 20060 39944 40037 53018 60056 76066 888// 91200 333 60017=
07005,1996-05-03 18:00:00,6,1008,2.3,87,4,12000,22.224,,,340,5.7,7.4,,1,,,,,,21,wg-a,,,,AAXX 03184 07005 12362 83412 10060 20040 39986 40080 52023 60017 72162 888// 91800 333 10074 20057=
07005,1996-05-04 00:00:00,3,1011.7,1.2,93,2,0,7.408,,,320,,,,,,,,,,,wg-a,,,,AAXX 04004 07005 12/// /3204 10030 20020 30022 40117 51012 60006 90000=
07005,1996-05-04 06:00:00,3,1014.4,1.6,93,2,20000,11.112,,,330,1.6,5.7,,,,,6,,,,wg-a,,,,AAXX 04064 07005 02470 23306 10030 20020 30048 40144 53016 60006 82800 90600 333 10057 20016 60064=
07005,1996-05-04 12:00:00,8,1017.2,1.1,61,1,20000,18.52,,,320,,,,,,,,,,,wg-a,,,,AAXX 04124 07005 12570 63210 10080 20010 30078 40172 52011 60006 86800 91200=
07005,1996-05-04 18:00:00,8,1018.9,1.1,66,2,0,7.408,,,40,3.5,9.7,,,,,,,,,wg-a,,,,AAXX 04184 07005 12/// /0404 10080 20020 30094 40189 53011 60006 91800 333 10097 20035=
07005,1996-05-05 00:00:00,2,1020.3,0.2,87,0,0,14.816,,,70,,,,,,,,,,,wg-a,,,,AAXX 05004 07005 12/// /0708 10020 20000 30106 40203 50002 60006 90000=
07005,1996-05-05 06:00:00,2,1020.7,0.4,93,1,10000,7.408,,,90,0.3,7.9,,,,,,,,,wg-a,,,,AAXX 05064 07005 12/60 60904 10020 20010 30110 40207 53004 60006 81031 90600 333 10079 20003=
07005,1996-05-05 12:00:00,10,1019.5,-1.1,53,1,500,11.112,,,90,,,,,,,,,,,wg-a,,,,AAXX 05124 07005 12500 70906 10100 20010 30101 40195 56011 60006 86201 91200=
07005,1996-05-05 18:00:00,9,1017.8,-0.7,61,2,0,18.52,,,70,1.7,11.1,,,,,,,,,wg-a,,,,AAXX 05184 07005 12/// /0710 10090 20020 30084 40178 58007 60006 91800 333 10111 20017=
07005,1996-05-06 00:00:00,4,1017.9,-0.3,87,2,0,11.112,,,50,,,,,,,,,,,wg-a,,,,AAXX 06004 07005 12/// /0506 10040 20020 30083 40179 56003 60006 90000=
07005,1996-05-06 06:00:00,5,1016.4,-0.1,81,2,10000,14.816,,,50,3.8,8.7,,,,,,,,,wg-a,,,,AAXX 06064 07005 12660 80508 10050 20020 30069 40164 55001 60006 875// 90600 333 10087 20038=
07005,1996-05-06 12:00:00,11,1015.2,-0.6,54,2,15000,25.928,,,70,,,,,,,,,,,wg-a,,,,AAXX 06124 07005 12/65 80714 10110 20020 30059 40152 58006 60006 84032 91200=
07005,1996-05-06 18:00:00,9,1014.9,-0.2,71,4,12000,14.816,,,50,4.9,11.1,,,,,,,,21,wg-a,,,,AAXX 06184 07005 02/62 70508 10090 20040 30055 40149 55002 61000 72162 8707/ 91800 333 10111 20049 ////=
07005,1996-05-07 00:00:00,5,1014.9,-0.2,81,2,0,18.52,,,50,,,,,,,,,,,wg-a,,,,AAXX 07004 07005 12/// /0510 10050 20020 30054 40149 58002 60006 90000=
07005,1996-05-07 06:00:00,6,1013.8,-0.2,81,3,500,22.224,,,60,3.9,9,,,,,,,,,wg-a,,,,AAXX 07064 07005 02700 60612 10060 20030 30043 40138 56002 60006 82530 90600 333 10090 20039 61000=
07005,1996-05-07 12:00:00,12,1013.5,-0.2,67,6,10000,35.188,,,70,,,,,,,,,,,wg-a,,,,AAXX 07124 07005 12660 80719 10120 20060 30042 40135 55002 60006 8257/ 91200=
07005,1996-05-07 18:00:00,12,1013.6,0.4,76,8,10000,22.224,,,40,6.3,12.5,,,,,,,,2,wg-a,,,,AAXX 07184 07005 32660 80412 10120 20080 30043 40136 53004 70262 8357/ 91800 333 10125 20063=
07005,1996-05-08 00:00:00,9,1015.9,0.8,81,6,0,14.816,,,50,,,,,,,,,,,wg-a,,,,AAXX 08004 07005 12/// /0508 10090 20060 30065 40159 53008 60016 90000=
07005,1996-05-08 06:00:00,6,1017.9,1.3,87,4,8000,22.224,,,40,6.1,11.8,,1,,,2,,,61,wg-a,,,,AAXX 08064 07005 02558 80412 10060 20040 30084 40179 53013 60024 7616/ 8557/ 90600 333 10118 20061 60017=
07005,1996-05-08 12:00:00,10,1019.8,0.5,82,7,7000,31.484,,,40,,,,0,,,,,,1,wg-a,,,,AAXX 08124 07005 02557 80417 10100 20070 30104 40198 51005 60016 70162 878// 91200 333 60007=
07005,1996-05-08 18:00:00,9,1020.2,0.3,71,4,0,31.484,,,30,6.1,11,,,,,,,,,wg-a,,,,AAXX 08184 07005 32/// /0317 10090 20040 30108 40202 53003 91800 333 10110 20061=
07005,1996-05-09 00:00:00,5,1022.7,0.6,87,3,0,25.928,,,30,,,,,,,,,,,wg-a,,,,AAXX 09004 07005 12/// /0314 10050 20030 30131 40227 52006 60006 90000=
07005,1996-05-09 06:00:00,5,1022.1,-0.1,87,3,15000,22.224,,,20,3.6,9.2,,,,,1,,,,wg-a,,,,AAXX 09064 07005 02465 40212 10050 20030 30125 40221 55001 60006 84100 90600 333 10092 20036 60014=
07005,1996-05-09 12:00:00,11,1020.4,-1.1,62,4,15000,35.188,,,40,,,,,,,,,,,wg-a,,,,AAXX 09124 07005 12465 50419 10110 20040 30110 40204 56011 60006 85200 91200=
07005,1996-05-09 18:00:00,8,1019.8,-0.2,71,3,15000,38.892,,,30,5.1,11.4,,,,,,,,,wg-a,,,,AAXX 09184 07005 12565 10321 10080 20030 30103 40198 55002 60006 81100 91800 333 10114 20051=
07005,1996-05-10 00:00:00,3,1018.5,-1.5,93,2,0,18.52,,,10,,,,,,,,,,,wg-a,,,,AAXX 10004 07005 12/// /0110 10030 20020 30089 40185 58015 60006 90000=
07005,1996-05-10 06:00:00,6,1015.7,-1,93,5,6000,18.52,,,10,1.2,7.9,,,,,,,,,wg-a,,,,AAXX 10064 07005 12456 60110 10060 20050 30062 40157 56010 60006 85830 90600 333 10079 20012=
07005,1996-05-10 12:00:00,9,1013.8,-1,76,5,20000,18.52,,,10,,,,,,,,,,80,wg-a,,,,AAXX 10124 07005 02570 70110 10090 20050 30044 40138 58010 60006 78082 878// 91200 333 61000=
07005,1996-05-10 18:00:00,8,1013.6,-0,76,4,15000,14.816,,,20,5.5,10,,,,,,,,2,wg-a,,,,AAXX 10184 07005 32565 70208 10080 20040 30042 40136 55000 70282 878// 91800 333 10100 20055=
07005,1996-05-11 00:00:00,5,1015.2,0.3,93,4,0,7.408,,,340,,,,,,,,,,,wg-a,,,,AAXX 11004 07005 12/// /3404 10050 20040 30057 40152 51003 60006 90000=
07005,1996-05-11 06:00:00,5,1015.2,0.5,100,5,3000,3.704,,,10,4.4,8,,,,,1,,,10,wg-a,,,,AAXX 11064 07005 02630 80102 10050 20050 30057 40152 53005 60006 71022 885// 90600 333 10080 20044 60014=
07005,1996-05-11 12:00:00,11,1015.2,-0.1,62,4,8000,11.112,,,100,,,,,,,,,,,wg-a,,,,AAXX 11124 07005 12758 81006 10110 20040 30059 40152 58001 60006 885// 91200=
07005,1996-05-11 18:00:00,10,1015.4,0.7,62,3,0,22.224,,,40,5.3,11.7,,,,,,,,,wg-a,,,,AAXX 11184 07005 12/// /0412 10100 20030 30061 40154 52007 60006 91800 333 10117 20053=
07005,1996-05-12 00:00:00,3,1017.6,-0,93,2,0,7.408,,,330,,,,,,,,,,,wg-a,,,,AAXX 12004 07005 12/// /3304 10030 20020 30080 40176 54000 60006 90000=
07005,1996-05-12 06:00:00,5,1018.9,0.9,100,5,2000,3.704,,,300,1.8,10.1,,,,,,,,10,wg-a,,,,AAXX 12064 07005 12520 83002 10050 20050 30094 40189 53009 60006 710// 885// 90600 333 10101 20018=
07005,1996-05-12 12:00:00,10,1021,0.6,82,7,6000,22.224,,,20,,,,,,,,,,,wg-a,,,,AAXX 12124 07005 12456 80212 10100 20070 30116 40210 53006 60006 888// 91200=
07005,1996-05-12 18:00:00,9,1023.2,1,81,6,0,11.112,,,40,5.3,10.2,,,,,,,,,wg-a,,,,AAXX 12184 07005 12/// /0406 10090 20060 30138 40232 51010 60006 91800 333 10102 20053=
07005,1996-05-13 00:00:00,5,1025.4,0.6,81,2,0,7.408,,,340,,,,,,,,,,,wg-a,,,,AAXX 13004 07005 12/// /3404 10050 20020 30158 40254 52006 60006 90000=
07005,1996-05-13 06:00:00,3,1025.9,0.3,93,2,8000,3.704,,,240,2.9,9.2,,,,,,,,,wg-a,,,,AAXX 13064 07005 12758 62402 10030 20020 30162 40259 53003 60006 815/2 90600 333 10092 20029=
07005,1996-05-13 12:00:00,13,1024.9,-0.6,54,4,20000,25.928,,,360,,,,,,,,,,,wg-a,,,,AAXX 13124 07005 12570 63614 10130 20040 30156 40249 56006 60006 84102 91200=
07005,1996-05-13 18:00:00,12,1024.9,0.2,58,4,20000,18.52,,,40,3.2,14.2,,,,,,,,,wg-a,,,,AAXX 13184 07005 12/70 50410 10120 20040 30155 40249 53002 60006 80002 91800 333 10142 20032=
07005,1996-05-14 00:00:00,5,1024.4,-0.6,93,4,0,11.112,,,350,,,,,,,,,,,wg-a,,,,AAXX 14004 07005 12/// /3506 10050 20040 30148 40244 58006 60006 90000=
07005,1996-05-14 06:00:00,7,1022.5,-1.1,93,6,4000,14.816,,,350,4.3,11.8,,,,,,,,10,wg-a,,,,AAXX 14064 07005 12440 83508 10070 20060 30130 40225 58011 60006 710// 875// 90600 333 10118 20043=
07005,1996-05-14 12:00:00,9,1021,-1,87,7,8000,18.52,,,30,,,,0,,,,,,60,wg-a,,,,AAXX 14124 07005 02458 80310 10090 20070 30116 40210 56010 60006 76062 877// 91200 333 60007=
07005,1996-05-14 18:00:00,9,1019.6,-0.9,93,8,3500,18.52,,,30,6.8,9.5,,5,,,,,,61,wg-a,,,,AAXX 14184 07005 12335 80310 10090 20080 30102 40196 56009 60057 76166 887// 91800 333 10095 20068=
07005,1996-05-15 00:00:00,8,1018.3,-1.1,93,7,0,22.224,,,50,,,,,,,,,,,wg-a,,,,AAXX 15004 07005 12/// /0512 10080 20070 30089 40183 56011 60026 90000=
07005,1996-05-15 06:00:00,7,1018.1,0.2,87,5,12000,25.928,,,60,7,8.8,,,,,9,,,,wg-a,,,,AAXX 15064 07005 12/62 80614 10070 20050 30086 40181 53002 60094 8807/ 90600 333 10088 20070=
07005,1996-05-15 12:00:00,10,1018.2,-0.1,76,6,15000,25.928,,,50,,,,,,,,,,2,wg-a,,,,AAXX 15124 07005 12465 80514 10100 20060 30088 40182 55001 60006 70262 8127/ 91200=
07005,1996-05-15 18:00:00,10,1017.2,-0.3,76,6,20000,29.632,,,30,6.9,11.9,,,,,,,,,wg-a,,,,AAXX 15184 07005 32670 70316 10100 20060 30078 40172 57003 8253/ 91800 333 10119 20069=
07005,1996-05-16 00:00:00,6,1017.9,-0.6,75,2,0,29.632,,,40,,,,,,,,,,,wg-a,,,,AAXX 16004 07005 12/// /0416 10060 20020 30084 40179 57006 60006 90000=
07005,1996-05-16 06:00:00,5,1015.7,-1.1,81,2,15000,29.632,,,60,3.9,9.9,,,,,,,,,wg-a,,,,AAXX 16064 07005 02765 70616 10050 20020 30062 40157 57011 60006 875// 90600 333 10099 20039 60004=
07005,1996-05-16 12:00:00,6,1011.6,-2.5,87,4,10000,35.188,,,60,,,,1,,,,,,21,wg-a,,,,AAXX 16124 07005 02460 80619 10060 20040 30022 40116 58025 60016 72162 8357/ 91200 333 60017=
07005,1996-05-16 18:00:00,6,1006.3,-3.3,87,4,0,25.928,,,60,5,6.6,,,,,,,,,wg-a,,,,AAXX 16184 07005 32/// /0614 10060 20040 39969 40063 56033 91800 333 10066 20050=
07005,1996-05-17 00:00:00,6,1005.4,-1,93,5,0,11.112,,,70,,,,,,,,,,,wg-a,,,,AAXX 17004 07005 12/// /0706 10060 20050 39960 40054 56010 60056 90000=
07005,1996-05-17 12:00:00,9,1006.1,0.2,87,7,6000,7.408,,,60,,,,,,,,,,,wg-a,,,,AAXX 17124 07005 12456 80604 10090 20070 39968 40061 50002 60016 885// 91200=
07005,1996-05-17 18:00:00,9,1005.7,-0.1,93,8,6000,18.52,,,60,6.1,10.4,,2,,,,,,61,wg-a,,,,AAXX 17184 07005 12456 80610 10090 20080 39964 40057 55001 60027 76162 885// 91800 333 10104 20061=
07005,1996-05-18 00:00:00,7,1005.9,-0.5,93,6,0,22.224,,,70,,,,,,,,,,,wg-a,,,,AAXX 18004 07005 12/// /0712 10070 20060 39966 40059 58005 60006 90000=
07005,1996-05-18 06:00:00,7,1002.2,-0.9,100,7,1800,11.112,,,100,7.1,8.7,,1,,,5,,,61,wg-a,,,,AAXX 18064 07005 02218 81006 10070 20070 39929 40022 55009 60054 7616/ 877// 90600 333 10087 20071 60017=
07005,1996-05-18 12:00:00,13,1000.6,-0.3,94,12,3000,3.704,,,100,,,,,,,,,,10,wg-a,,,,AAXX 18124 07005 02330 71002 10130 20120 39915 40006 57003 60056 71062 875// 91200 333 61000=
07005,1996-05-18 18:00:00,15,997.2,-1.4,88,13,0,18.52,,,60,7.3,16.9,,,,,,,,,wg-a,,,,AAXX 18184 07005 32/// /0610 10150 20130 39882 49972 58014 91800 333 10169 20073=
07005,1996-05-19 00:00:00,12,998.7,0.6,82,9,0,35.188,,,180,,,,,,,,,,,wg-a,,,,AAXX 19004 07005 12/// /1819 10120 20090 39896 49987 51006 60026 90000=
07005,1996-05-19 06:00:00,8,1001.7,2,76,4,40000,22.224,,,210,7.9,15.5,,,,,15,,,,wg-a,,,,AAXX 19064 07005 12482 72112 10080 20040 39924 40017 53020 60154 84202 90600 333 10155 20079=
07005,1996-05-19 12:00:00,14,1005.3,1.1,51,4,40000,29.632,,,230,,,,,,,,,,,wg-a,,,,AAXX 19124 07005 12582 62316 10140 20040 39962 40053 51011 60006 85202 91200=
07005,1996-05-19 18:00:00,10,1008,2.2,76,6,0,25.928,,,290,7.9,15.1,,,,,,,,,wg-a,,,,AAXX 19184 07005 32/// /2914 10100 20060 39987 40080 51022 91800 333 10151 20079=
07005,1996-05-20 00:00:00,6,1011.2,1.2,87,4,0,11.112,,,220,,,,,,,,,,,wg-a,,,,AAXX 20004 07005 12/// /2206 10060 20040 30017 40112 53012 60006 90000=
07005,1996-05-20 06:00:00,7,1014.2,1.8,87,5,20000,11.112,,,220,5,9.8,,,,,,,,,wg-a,,,,AAXX 20064 07005 02/70 52206 10070 20050 30048 40142 51018 60006 83031 90600 333 10098 20050 61000=
07005,1996-05-20 12:00:00,12,1015.8,0.7,71,7,500,14.816,,,320,,,,,,,,,,,wg-a,,,,AAXX 20124 07005 12500 63208 10120 20070 30065 40158 51007 60006 86802 91200=
07005,1996-05-20 18:00:00,12,1016.9,0.3,58,4,500,7.408,,,330,6.8,13.5,,,,,,,,,wg-a,,,,AAXX 20184 07005 12500 73304 10120 20040 30076 40169 53003 60006 85892 91800 333 10135 20068=
07005,1996-05-21 00:00:00,7,1018.2,0.3,87,5,0,7.408,,,160,,,,,,,,,,,wg-a,,,,AAXX 21004 07005 12/// /1604 10070 20050 30087 40182 53003 60006 90000=
07005,1996-05-21 06:00:00,8,1018.5,0.8,87,6,15000,11.112,,,220,5.8,11.5,,,,,,,,,wg-a,,,,AAXX 21064 07005 12/65 52206 10080 20060 30091 40185 53008 60004 85050 90600 333 10115 20058=
07005,1996-05-21 12:00:00,12,1020.3,0.8,76,8,25000,25.928,,,260,,,,0,,,,,,25,wg-a,,,,AAXX 21124 07005 02575 72614 10120 20080 30110 40203 51008 60016 72586 872// 91200 333 60007=
07005,1996-05-21 18:00:00,11,1022.8,1,66,5,500,25.928,,,270,8.3,12.8,,,,,,,,,wg-a,,,,AAXX 21184 07005 32500 12714 10110 20050 30134 40228 53010 81102 91800 333 10128 20083=
07005,1996-05-22 00:00:00,7,1024.6,0,87,5,0,14.816,,,240,,,,,,,,,,,wg-a,,,,AAXX 22004 07005 12/// /2408 10070 20050 30151 40246 50000 60006 90000=
07005,1996-05-22 06:00:00,9,1024.1,0,81,6,15000,11.112,,,200,6.4,11.3,,,,,1,,,3,wg-a,,,,AAXX 22064 07005 12665 82006 10090 20060 30146 40241 50000 60014 7036/ 82572 90600 333 10113 20064=
07005,1996-05-22 12:00:00,15,1021.1,-1.8,59,7,500,29.632,,,190,,,,,,,,,,,wg-a,,,,AAXX 22124 07005 12500 71916 10150 20070 30119 40211 58018 60006 8221/ 91200=
07005,1996-05-22 18:00:00,11,1017.5,-2.2,87,9,7000,25.928,,,180,8.9,15.3,,2,,,,,,61,wg-a,,,,AAXX 22184 07005 12357 81814 10110 20090 30082 40175 58022 60027 76162 8552/ 91800 333 10153 20089=
07005,1996-05-23 00:00:00,12,1015.1,-0.5,88,10,0,18.52,,,240,,,,,,,,,,,wg-a,,,,AAXX 23004 07005 12/// /2410 10120 20100 30058 40151 58005 60016 90000=
07005,1996-05-23 06:00:00,11,1017,1.4,94,10,20000,25.928,,,270,10.5,11.9,,1,,,4,,,21,wg-a,,,,AAXX 23064 07005 02270 82714 10110 20100 30077 40170 51014 60044 7216/ 877// 90600 333 10119 20105 60017=
07005,1996-05-23 12:00:00,13,1019.4,0.8,82,10,20000,31.484,,,270,,,,0,,,,,,1,wg-a,,,,AAXX 23124 07005 02470 82717 10130 20100 30101 40194 51008 60016 70152 872// 91200 333 60007=
07005,1996-05-23 18:00:00,13,1017.7,-0.8,94,12,8000,18.52,,,300,10.9,16.4,,,,,,,,60,wg-a,,,,AAXX 23184 07005 02358 83010 10130 20120 30085 40177 55008 61000 76062 8657/ 91800 333 10164 20109 ////=
07005,1996-05-24 00:00:00,13,1015.8,-0.9,94,12,0,14.816,,,240,,,,,,,,,,,wg-a,,,,AAXX 24004 07005 12/// /2408 10130 20120 30066 40158 56009 60006 90000=
07005,1996-05-24 06:00:00,13,1013.5,-0.8,88,11,15000,14.816,,,230,12,14.2,,,,,,,,,wg-a,,,,AAXX 24064 07005 02465 72308 10130 20110 30043 40135 56008 60006 85538 90600 333 10142 20120 60004=
07005,1996-05-24 12:00:00,14,1011.7,-0.8,77,10,20000,22.224,,,220,,,,0,,,,,,60,wg-a,,,,AAXX 24124 07005 02470 82212 10140 20100 30025 40117 58008 60006 76062 8557/ 91200 333 60007=
07005,1996-05-24 18:00:00,16,1009,-1.1,82,13,20000,11.112,,,220,12.7,17.1,,1,,,,,,21,wg-a,,,,AAXX 24184 07005 12470 72206 10160 20130 39999 40090 56011 60017 72162 8387/ 91800 333 10171 20127=
07005,1996-05-25 00:00:00,14,1008.5,-0.6,82,11,0,14.816,,,230,,,,,,,,,,,wg-a,,,,AAXX 25004 07005 12/// /2308 10140 20110 39993 40085 58006 60016 90000=
07005,1996-05-25 06:00:00,11,1008.2,0.8,94,10,20000,29.632,,,260,11.4,16,,0,,,3,,,3,wg-a,,,,AAXX 25064 07005 02470 82616 10110 20100 39990 40082 53008 60034 7036/ 871// 90600 333 10160 20114 60007=
07005,1996-05-25 12:00:00,12,1010.5,1.2,82,9,25000,29.632,,,270,,,,,,,,,,1,wg-a,,,,AAXX 25124 07005 12575 72716 10120 20090 30013 40105 53012 60016 70162 82132 91200=
07005,1996-05-25 18:00:00,12,1012.9,1.5,71,7,0,25.928,,,270,10.4,13.4,,,,,,,,,wg-a,,,,AAXX 25184 07005 32/// /2714 10120 20070 30037 40129 52015 91800 333 10134 20104=
07005,1996-05-26 00:00:00,8,1014.9,0.4,87,6,0,11.112,,,250,,,,,,,,,,,wg-a,,,,AAXX 26004 07005 12/// /2506 10080 20060 30055 40149 53004 60006 90000=
07005,1996-05-26 06:00:00,9,1016.4,1,93,8,25000,14.816,,,250,6.9,12.1,,,,,1,,,,wg-a,,,,AAXX 26064 07005 02675 62508 10090 20080 30070 40164 53010 60006 83531 90600 333 10121 20069 60014=
07005,1996-05-26 12:00:00,14,1015.1,-1.4,67,8,25000,18.52,,,210,,,,,,,,,,21,wg-a,,,,AAXX 26124 07005 02475 82110 10140 20080 30059 40151 58014 61000 72162 8587/ 91200 333 6100=
07005,1996-05-26 18:00:00,14,1010.5,-2.5,94,13,0,25.928,,,240,8.8,14.5,,,,,,,,,wg-a,,,,AAXX 26184 07005 32/// /2414 10140 20130 30013 40105 56025 91800 333 10145 20088=
07005,1996-05-27 00:00:00,11,1009.1,-1.1,94,10,0,29.632,,,250,,,,0,,,,,,,wg-a,,,,AAXX 27004 07005 02/// /2516 10110 20100 39999 40091 57011 60016 90000 333 60007=
07005,1996-05-27 06:00:00,11,1007.9,0.4,94,10,500,38.892,,,270,10.7,13.7,,2,,,11,,,61,wg-a,,,,AAXX 27064 07005 02200 82721 10110 20100 39987 40079 53004 60114 76166 887// 90600 333 10137 20107 60027=
07005,1996-05-27 12:00:00,13,1012.3,2.6,88,11,9000,35.188,,,280,,,,,,,,,,1,wg-a,,,,AAXX 27124 07005 12359 72819 10130 20110 30031 40123 53026 60006 70162 878// 91200=
07005,1996-05-27 18:00:00,11,1018.8,4,87,9,0,25.928,,,10,10.6,14,,,,,,,,,wg-a,,,,AAXX 27184 07005 32/// /0114 10110 20090 30095 40188 53040 91800 333 10140 20106=
07005,1996-05-28 00:00:00,6,1025.4,2.4,93,5,0,7.408,,,290,,,,,,,,,,,wg-a,,,,AAXX 28004 07005 12/// /2904 10060 20050 30158 40254 51024 60006 90000=
07005,1996-05-28 06:00:00,7,1027.2,1.4,100,7,20000,3.704,,,310,4.3,10.7,,,,,1,,,,wg-a,,,,AAXX 28064 07005 02/70 03102 10070 20070 30177 40272 51014 60006 80000 90600 333 10107 20043 60014=
07005,1996-05-28 12:00:00,15,1027.3,-0.2,63,8,35000,7.408,,,300,,,,,,,,,,,wg-a,,,,AAXX 28124 07005 12581 43004 10150 20080 30180 40273 58002 60006 84202 91200=
07005,1996-05-28 18:00:00,16,1024.4,-1.4,55,7,35000,11.112,,,230,7.1,17.1,,,,,,,,,wg-a,,,,AAXX 28184 07005 12/81 72306 10160 20070 30152 40244 56014 60006 8705/ 91800 333 10171 20071=
07005,1996-05-29 00:00:00,12,1023.8,-0.6,82,9,0,7.408,,,270,,,,,,,,,,,wg-a,,,,AAXX 29004 07005 12/// /2704 10120 20090 30145 40238 56006 60006 90000=
07005,1996-05-29 06:00:00,12,1023.2,0.9,88,10,10000,11.112,,,200,10.2,16.2,,,,,,,,,wg-a,,,,AAXX 29064 07005 12/60 72006 10120 20100 30139 40232 53009 60006 8705/ 90600 333 10162 20102=
07005,1996-05-29 12:00:00,19,1023.2,-0.4,73,14,15000,11.112,,,260,,,,,,,,,,,wg-a,,,,AAXX 29124 07005 12565 72606 10190 20140 30141 40232 58004 60006 8284/ 91200=
07005,1996-05-29 18:00:00,17,1022.1,-0.5,82,14,15000,11.112,,,310,12,19.4,,,,,,,,,wg-a,,,,AAXX 29184 07005 12665 73106 10170 20140 30129 40221 56005 60006 8584/ 91800 333 10194 20120=
07005,1996-05-30 00:00:00,13,1021.2,-1.4,94,12,0,3.704,,,140,,,,,,,,,,,wg-a,,,,AAXX 30004 07005 12/// /1402 10130 20120 30119 40212 57014 60006 90000=
07005,1996-05-30 06:00:00,15,1019.1,-0.1,88,13,2500,14.816,,,140,12.2,16.7,,,,,,,,10,wg-a,,,,AAXX 30064 07005 12725 61408 10150 20130 30099 40191 55001 60006 710// 815/1 90600 333 10167 20122=
07005,1996-05-30 12:00:00,24,1016.1,-1.9,47,12,25000,25.928,,,150,,,,,,,,,,,wg-a,,,,AAXX 30124 07005 12/75 51514 10240 20120 30072 40161 57019 60006 80001 91200=
07005,1996-05-30 18:00:00,24,1012.5,-1.9,57,15,20000,14.816,,,160,15.2,25.8,,,,,,,,,wg-a,,,,AAXX 30184 07005 12/70 61608 10240 20150 30037 40125 56019 60006 80004 91800 333 10258 20152=
07005,1996-05-31 00:00:00,15,1014.1,1.4,82,12,0,31.484,,,290,,,,,,,,,,,wg-a,,,,AAXX 31004 07005 12/// /2917 10150 20120 30049 40141 53014 60006 90000=
07005,1996-05-31 06:00:00,13,1018.9,2.5,88,11,15000,29.632,,,270,12.3,24.1,,,,,,,,,wg-a,,,,AAXX 31064 07005 12465 72716 10130 20110 30096 40189 53025 60006 86202 90600 333 10241 20123=
07005,1996-05-31 12:00:00,16,1022.6,1.3,72,11,20000,29.632,,,290,,,,,,,,,,,wg-a,,,,AAXX 31124 07005 12470 72916 10160 20110 30134 40226 51013 60006 85132 91200=
07005,1996-05-31 18:00:00,14,1022.3,-0.7,72,9,20000,25.928,,,300,13,16.2,,,,,,,,,wg-a,,,,AAXX 31184 07005 12/70 33014 10140 20090 30130 40223 57007 60006 81032 91800 333 10162 20130=
07005,1996-06-01 00:00:00,11,1022.2,-0.5,87,9,0,7.408,,,250,,,,,,,,,,,wg-a,,,,AAXX 01004 07005 12/// /2504 10110 20090 30128 40222 58005 60006 90000=
07005,1996-06-01 06:00:00,11,1022.5,0.4,82,8,20000,18.52,,,250,8.8,13.5,,,,,,,,,wg-a,,,,AAXX 01064 07005 12570 22510 10110 20080 30131 40225 53004 60006 82800 90600 333 10135 20088=
07005,1996-06-01 12:00:00,15,1022.2,-0.1,67,9,20000,25.928,,,270,,,,,,,,,,,wg-a,,,,AAXX 01124 07005 12570 42714 10150 20090 30130 40222 58001 60006 84800 91200=
07005,1996-06-01 18:00:00,13,1022.5,-0.1,67,7,0,18.52,,,280,10.8,15.3,,,,,,,,,wg-a,,,,AAXX 01184 07005 32/// /2810 10130 20070 30132 40225 56001 91800 333 10153 20108=
07005,1996-06-02 00:00:00,8,1021.6,-0.6,81,5,0,7.408,,,150,,,,,,,,,,,wg-a,,,,AAXX 02004 07005 12/// /1504 10080 20050 30121 40216 58006 60006 90000=
07005,1996-06-02 06:00:00,7,1020.1,-0.2,93,6,20000,7.408,,,170,5.4,13.3,,,,,,,,,wg-a,,,,AAXX 02064 07005 02770 71704 10070 20060 30106 40201 58002 60006 84572 90600 333 10133 20054 61000=
07005,1996-06-02 12:00:00,14,1019.3,-0.5,77,10,20000,11.112,,,320,,,,,,,,,,,wg-a,,,,AAXX 02124 07005 12570 63206 10140 20100 30101 40193 57005 60006 84832 91200=
07005,1996-06-02 18:00:00,14,1018.5,0.2,67,8,0,18.52,,,310,7.3,16.4,,,,,,,,,wg-a,,,,AAXX 02184 07005 12/// /3110 10140 20080 30093 40185 53002 60006 91800 333 10164 20073=
07005,1996-06-03 00:00:00,8,1020.6,0.1,100,8,0,7.408,,,290,,,,,,,,,,,wg-a,,,,AAXX 03004 07005 12/// /2904 10080 20080 30112 40206 50001 60006 90000=
07005,1996-06-03 06:00:00,10,1022.2,1.3,100,10,1500,0,,,0,7.9,14.2,,,,,,,,28,wg-a,,,,AAXX 03064 07005 12215 60000 10100 20100 30128 40222 52013 60006 72842 86500 90600 333 10142 20079=
07005,1996-06-03 12:00:00,17,1022.9,0.1,55,8,25000,11.112,,,290,,,,,,,,,,,wg-a,,,,AAXX 03124 07005 12575 22906 10170 20080 30137 40229 50001 60006 82200 91200=
07005,1996-06-04 00:00:00,11,1025.3,0.5,82,8,0,7.408,,,120,,,,,,,,,,,wg-a,,,,AAXX 04004 07005 12/// /1204 10110 20080 30159 40253 52005 60006 90000=
07005,1996-06-04 06:00:00,13,1027.5,1.3,77,9,20000,7.408,,,150,10.8,14.2,,,,,,,,,wg-a,,,,AAXX 04064 07005 12/70 71504 10130 20090 30181 40275 53013 60006 86/72 90600 333 10142 20108=
07005,1996-06-04 12:00:00,20,1027.9,-0.3,64,13,25000,7.408,,,270,,,,,,,,,,,wg-a,,,,AAXX 04124 07005 12775 22704 10200 20130 30188 40279 56003 60006 825/0 91200=
07005,1996-06-04 18:00:00,19,1027.6,0.1,68,13,20000,18.52,,,320,12.8,21.3,,,,,,,,,wg-a,,,,AAXX 04184 07005 12/70 03210 10190 20130 30184 40276 53001 60006 80000 91800 333 10213 20128=
07005,1996-06-05 00:00:00,13,1027.7,-0.6,94,12,0,7.408,,,60,,,,,,,,,,,wg-a,,,,AAXX 05004 07005 12/// /0604 10130 20120 30184 40277 58006 60006 90000=
07005,1996-06-05 06:00:00,14,1026.7,-0.3,88,12,500,11.112,,,130,12.4,18.6,,0,,,,,,,wg-a,,,,AAXX 05064 07005 02/00 01306 10140 20120 30174 40267 56003 60004 80000 90600 333 10186 20124 60007=
07005,1996-06-05 12:00:00,25,1024.4,-1.3,47,13,15000,14.816,,,130,,,,,,,,,,,wg-a,,,,AAXX 05124 07005 12/65 21308 10250 20130 30155 40244 57013 60006 80002 91200=
07005,1996-06-05 18:00:00,25,1021.9,-1.1,50,14,20000,11.112,,,100,14.4,26.4,,,,,,,,,wg-a,,,,AAXX 05184 07005 12/70 41006 10250 20140 30130 40219 56011 60006 80002 91800 333 10264 20144=
07005,1996-06-06 00:00:00,18,1021,-0.9,73,13,0,11.112,,,120,,,,,,,,,,,wg-a,,,,AAXX 06004 07005 12/// /1206 10180 20130 30119 40210 58009 60006 90000=
07005,1996-06-06 06:00:00,17,1019.9,-0,82,14,8000,7.408,,,150,14.9,25.1,,,,,,,,,wg-a,,,,AAXX 06064 07005 12/58 11504 10170 20140 30108 40199 54000 60006 80001 90600 333 10251 20149=
07005,1996-06-06 12:00:00,28,1018.9,-0.7,45,15,25000,7.408,,,210,,,,,,,,,,,wg-a,,,,AAXX 06124 07005 12675 22104 10280 20150 30101 40189 58007 60006 81101 91200=
07005,1996-06-06 18:00:00,29,1017.4,-0.9,45,16,25000,11.112,,,160,17.3,29,,,,,,,,,wg-a,,,,AAXX 06184 07005 12/75 51606 10290 20160 30086 40174 56009 60006 80001 91800 333 10290 20173=
07005,1996-06-07 00:00:00,21,1017.4,-0.2,78,17,0,14.816,,,130,,,,,,,,,,,wg-a,,,,AAXX 07004 07005 12/// /1308 10210 20170 30084 40174 58002 60006 90000=
07005,1996-06-07 06:00:00,21,1017,0.2,78,17,20000,14.816,,,150,18.7,28.5,,,,,,,,,wg-a,,,,AAXX 07064 07005 12/70 01508 10210 20170 30080 40170 53002 60006 80000 90600 333 10285 20187=
07005,1996-06-07 12:00:00,30,1016.2,-0.6,49,18,20000,22.224,,,190,,,,,,,,,,,wg-a,,,,AAXX 07124 07005 12770 41912 10300 20180 30075 40162 58006 60006 81280 91200=
07005,1996-06-07 18:00:00,30,1013.7,-0.9,43,16,20000,11.112,,,180,21.1,31.3,,,,,,,,,wg-a,,,,AAXX 07184 07005 12770 21806 10300 20160 30050 40137 56009 60006 82300 91800 333 10313 20211=
07005,1996-06-08 00:00:00,22,1013.2,-0.4,69,16,0,14.816,,,140,,,,,,,,,,,wg-a,,,,AAXX 08004 07005 12/// /1408 10220 20160 30043 40132 58004 60006 90000=
07005,1996-06-08 06:00:00,17,1015.6,1.9,88,15,4000,11.112,,,320,16.5,30.4,,,,,,,,10,wg-a,,,,AAXX 08064 07005 12/40 73206 10170 20150 30065 40156 53019 60006 710// 80002 90600 333 10304 20165=
07005,1996-06-08 12:00:00,16,1019.3,2,94,15,1800,7.408,,,300,,,,0,,,,,,25,wg-a,,,,AAXX 08124 07005 02318 83004 10160 20150 30101 40193 51020 60006 72582 887// 91200 333 60007=
07005,1996-06-08 18:00:00,13,1021.2,0.8,100,13,0,11.112,,,280,12.8,19.9,,,,,,,,,wg-a,,,,AAXX 08184 07005 32/// /2806 10130 20130 30119 40212 51008 91800 333 10199 20128=
07005,1996-06-09 00:00:00,12,1022.1,-0,100,12,0,7.408,,,60,,,,,,,,,,,wg-a,,,,AAXX 09004 07005 12/// /0604 10120 20120 30128 40221 55000 60016 90000=
07005,1996-06-09 06:00:00,12,1023.1,0.9,100,12,3000,11.112,,,280,11.6,13.5,,0,,,1,,,10,wg-a,,,,AAXX 09064 07005 02330 72806 10120 20120 30138 40231 51009 60014 71022 875// 90600 333 10135 20116 60007=
07005,1996-06-09 12:00:00,19,1022.9,-0.6,64,12,20000,3.704,,,220,14.7,,,,,,,,,,wg-a,,0,,AAXX 09124 07005 12570 52202 10190 20120 30138 40229 57006 60006 85200 91200 333 20147 4/9999=
07005,1996-06-09 18:00:00,16,1021.5,-0,77,12,0,18.52,,,300,12.1,22,,,,,,,,,wg-a,,,,AAXX 09184 07005 12/// /3010 10160 20120 30123 40215 55000 60006 91800 333 10220 20121=
07005,1996-06-10 00:00:00,13,1021.6,-0.4,82,10,0,11.112,,,60,,,,,,,,,,,wg-a,,,,AAXX 10004 07005 12/// /0606 10130 20100 30123 40216 58004 60006 90000=
07005,1996-06-10 06:00:00,14,1021.3,0.6,94,13,10000,7.408,,,150,11.5,16.5,,,,,,,,,wg-a,,,,AAXX 10064 07005 12660 31504 10140 20130 30121 40213 51006 60006 83500 90600 333 10165 20115=
07005,1996-06-10 12:00:00,22,1021.1,0.1,78,18,15000,18.52,,,320,,,,,,,,,,,wg-a,,,,AAXX 10124 07005 12665 33210 10220 20180 30121 40211 52001 60006 83200 91200=
07005,1996-06-10 18:00:00,16,1022,0.5,72,11,20000,22.224,,,310,14.1,25.2,,,,,,,,,wg-a,,,,AAXX 10184 07005 12770 73112 10160 20110 30128 40220 53005 60006 8554/ 91800 333 10252 20141=
07005,1996-06-11 00:00:00,13,1023.6,0.1,100,13,0,7.408,,,260,,,,,,,,,,,wg-a,,,,AAXX 11004 07005 12/// /2604 10130 20130 30143 40236 50001 60006 90000=
07005,1996-06-11 06:00:00,13,1024.5,1,100,13,500,3.704,,,310,11.5,15.7,,,,,,,,47,wg-a,,,,AAXX 11064 07005 12/00 93102 10130 20130 30152 40245 51010 60006 7474/ 89/// 90600 333 10157 20115=
07005,1996-06-11 12:00:00,23,1023.5,-1.1,65,16,20000,11.112,,,220,,,,,,,,,,3,wg-a,,,,AAXX 11124 07005 12570 42206 10230 20160 30145 40235 58011 60006 70341 84200 91200=
07005,1996-06-11 18:00:00,22,1022.7,-0.1,65,15,20000,14.816,,,310,13,25.3,,,,,,,,,wg-a,,,,AAXX 11184 07005 12/70 03108 10220 20150 30137 40227 55001 60006 80000 91800 333 10253 20130=
07005,1996-06-12 00:00:00,15,1025.2,0.8,94,14,0,18.52,,,280,,,,,,,,,,,wg-a,,,,AAXX 12004 07005 12/// /2810 10150 20140 30160 40252 50008 60006 90000=
07005,1996-06-12 06:00:00,14,1027.4,1.5,88,12,6000,18.52,,,280,13.6,21.7,,,,,,,,51,wg-a,,,,AAXX 12064 07005 02456 82810 10140 20120 30181 40274 53015 61000 75155 875// 90600 333 10217 20136 6100=
07005,1996-06-12 12:00:00,17,1030.6,1.4,72,12,15000,18.52,,,300,,,,,,,,,,1,wg-a,,,,AAXX 12124 07005 02565 63010 10170 20120 30214 40306 51014 61000 70152 86200 91200 333 ////=
07005,1996-06-12 18:00:00,16,1031.6,0.6,77,12,25000,22.224,,,310,13.1,18.2,,,,,,,,,wg-a,,,,AAXX 12184 07005 32575 13112 10160 20120 30223 40316 53006 81100 91800 333 10182 20131=
07005,1996-06-13 00:00:00,12,1034,0.5,94,11,0,0,,,0,,,,,,,,,,,wg-a,,,,AAXX 13004 07005 12/// /0000 10120 20110 30245 40340 51005 60006 90000=
07005,1996-06-13 06:00:00,10,1035,0.9,93,9,3000,0,,,0,8.4,16,,,,,,,,10,wg-a,,,,AAXX 13064 07005 02/30 10000 10100 20090 30255 40350 53009 60006 710// 80001 90600 333 10160 20084 61000=
07005,1996-06-13 12:00:00,19,1034.9,-0.2,49,8,25000,14.816,,,340,,,,,,,,,,,wg-a,,,,AAXX 13124 07005 12675 53408 10190 20080 30257 40349 58002 60006 85200 91200=
07005,1996-06-13 18:00:00,17,1033.5,-0.2,48,6,25000,22.224,,,40,10.5,19.4,,,,,,,,,wg-a,,,,AAXX 13184 07005 12/75 00412 10170 20060 30242 40335 55002 60006 80000 91800 333 10194 20105=
07005,1996-06-14 00:00:00,9,1034.5,-0.4,81,6,0,11.112,,,60,,,,,,,,,,,wg-a,,,,AAXX 14004 07005 12/// /0606 10090 20060 30249 40345 57004 60006 90000=
07005,1996-06-14 06:00:00,10,1033.8,-0,93,9,3500,14.816,,,60,5.3,16.6,,,,,,,,10,wg-a,,,,AAXX 14064 07005 12235 50608 10100 20090 30243 40338 55000 60006 710// 85100 90600 333 10166 20053=
07005,1996-06-14 12:00:00,18,1032.6,-0.7,56,9,0,22.224,,,60,,,,,,,,,,,wg-a,,,,AAXX 14124 07005 12/// /0612 10180 20090 30234 40326 58007 60006 91200=
07005,1996-06-14 18:00:00,17,1030.2,-0.7,63,10,500,25.928,,,30,9.7,19.4,,,,,,,,,wg-a,,,,AAXX 14184 07005 12/00 30314 10170 20100 30210 40302 56007 60006 8///1 91800 333 10194 20097=
07005,1996-06-15 00:00:00,10,1030.8,-0.2,87,8,0,14.816,,,60,,,,,,,,,,,wg-a,,,,AAXX 15004 07005 12/// /0608 10100 20080 30213 40308 58002 60006 90000=
07005,1996-06-15 06:00:00,11,1029.9,-0.2,82,8,6000,18.52,,,70,8.3,16.8,,,,,,,,,wg-a,,,,AAXX 15064 07005 12/56 00710 10110 20080 30205 40299 55002 60006 80000 90600 333 10168 20083=
07005,1996-06-15 12:00:00,20,1028.5,-0.8,53,10,15000,18.52,,,70,,,,,,,,,,,wg-a,,,,AAXX 15124 07005 12/65 20710 10200 20100 30194 40285 58008 60006 80001 91200=
07005,1996-06-15 18:00:00,20,1026.2,-1,53,10,0,22.224,,,40,11,22,,,,,,,,,wg-a,,,,AAXX 15184 07005 12/// /0412 10200 20100 30171 40262 56010 60006 91800 333 10220 20110=
07005,1996-06-16 00:00:00,11,1027.1,-0,94,10,0,14.816,,,70,,,,,,,,,,,wg-a,,,,AAXX 16004 07005 12/// /0708 10110 20100 30177 40271 54000 60006 90000=
07005,1996-06-16 06:00:00,12,1026.6,0.2,88,10,2000,14.816,,,70,9.6,20.2,,,,,,,,10,wg-a,,,,AAXX 16064 07005 12/20 00708 10120 20100 30172 40266 53002 60006 710// 80000 90600 333 10202 20096=
07005,1996-06-16 12:00:00,22,1025.5,-0.7,43,9,20000,22.224,,,70,,,,,,,,,,,wg-a,,,,AAXX 16124 07005 12/70 20712 10220 20090 30165 40255 58007 60006 80002 91200=
07005,1996-06-16 18:00:00,21,1023.2,-1,60,13,0,22.224,,,40,12.4,23.4,,,,,,,,,wg-a,,,,AAXX 16184 07005 12/// /0412 10210 20130 30142 40232 56010 60006 91800 333 10234 20124=
07005,1996-06-17 00:00:00,12,1023.3,-0.6,82,9,0,14.816,,,70,,,,,,,,,,,wg-a,,,,AAXX 17004 07005 12/// /0708 10120 20090 30139 40233 56006 60006 90000=
07005,1996-06-17 06:00:00,13,1021.7,-0.4,77,9,2500,3.704,,,130,10.1,20.9,,,,,,,,10,wg-a,,,,AAXX 17064 07005 12/25 41302 10130 20090 30124 40217 56004 60006 710// 80002 90600 333 10209 20101=
07005,1996-06-17 12:00:00,23,1019.9,-1.1,47,11,25000,7.408,,,350,,,,,,,,,,,wg-a,,,,AAXX 17124 07005 12/75 73504 10230 20110 30110 40199 58011 60006 80002 91200=
07005,1996-06-17 18:00:00,21,1017.8,-0.9,60,13,25000,11.112,,,320,10.1,24.1,,,,,,,,,wg-a,,,,AAXX 17184 07005 12/75 53206 10210 20130 30088 40178 56009 60006 80002 91800 333 10241 20101=
07005,1996-06-18 00:00:00,13,1016.8,-1,88,11,0,3.704,,,190,,,,,,,,,,,wg-a,,,,AAXX 18004 07005 12/// /1902 10130 20110 30076 40168 56010 60006 90000=
07005,1996-06-18 06:00:00,14,1015.3,-0.2,82,11,6000,7.408,,,310,10.1,21.1,,,,,,,,,wg-a,,,,AAXX 18064 07005 12/56 33104 10140 20110 30061 40153 55002 60006 80002 90600 333 10211 20101=
07005,1996-06-18 12:00:00,18,1016,0.6,64,11,20000,22.224,,,280,,,,,,,,,,,wg-a,,,,AAXX 18124 07005 12/70 62812 10180 20110 30069 40160 52006 60006 81042 91200=
07005,1996-06-18 18:00:00,18,1016,-0,59,10,15000,14.816,,,40,13.8,20.6,,,,,,,,,wg-a,,,,AAXX 18184 07005 12665 60408 10180 20100 30069 40160 54000 60006 81202 91800 333 10206 20138=
07005,1996-06-19 00:00:00,10,1017.4,-0,82,7,0,3.704,,,90,,,,,,,,,,,wg-a,,,,AAXX 19004 07005 12/// /0902 10100 20070 30080 40174 54000 60006 90000=
07005,1996-06-19 12:00:00,18,1015.6,-0.8,56,9,25000,7.408,,,150,,,,,,,,,,,wg-a,,,,AAXX 19124 07005 12675 71504 10180 20090 30065 40156 58008 60006 83232 91200=
07005,1996-06-19 18:00:00,21,1011.6,-1.8,53,11,500,11.112,,,100,10.7,21.6,,,,,,,,,wg-a,,,,AAXX 19184 07005 12/00 21006 10210 20110 30026 40116 57018 60006 81082 91800 333 10216 20107=
07005,1996-06-20 00:00:00,15,1009.5,-1.4,72,10,0,14.816,,,110,,,,,,,,,,,wg-a,,,,AAXX 20004 07005 12/// /1108 10150 20100 30004 40095 58014 60006 90000=
07005,1996-06-20 06:00:00,11,1007.5,-0.6,100,11,3000,14.816,,,90,11.2,20.9,,4,,,5,,,61,wg-a,,,,AAXX 20064 07005 02630 80908 10110 20110 39983 40075 55006 60054 76196 8557/ 90600 333 10209 20112 60047=
07005,1996-06-20 12:00:00,12,1009,0.9,94,11,2500,7.408,,,20,,,,2,,,,,,60,wg-a,,,,AAXX 20124 07005 02325 80204 10120 20110 39998 40090 53009 60026 76062 885// 91200 333 60027=
07005,1996-06-20 18:00:00,11,1009.3,-0.1,100,11,2000,11.112,,,50,11.2,12.6,,1,,,,,,60,wg-a,,,,AAXX 20184 07005 12320 80506 10110 20110 30001 40093 56001 60017 76062 877// 91800 333 10126 20112=
07005,1996-06-21 00:00:00,10,1010.1,-0.2,93,9,0,7.408,,,150,,,,,,,,,,,wg-a,,,,AAXX 21004 07005 12/// /1504 10100 20090 30008 40101 58002 60016 90000=
07005,1996-06-21 06:00:00,10,1010.3,0.6,93,9,2500,3.704,,,30,9.2,11.3,,,,,5,,,10,wg-a,,,,AAXX 21064 07005 12425 60302 10100 20090 30010 40103 53006 60054 7106/ 81132 90600 333 10113 20092=
07005,1996-06-21 12:00:00,15,1010.6,-0.1,59,7,25000,7.408,,,30,,,,,,,,,,,wg-a,,,,AAXX 21124 07005 12575 60304 10150 20070 30015 40106 58001 60006 84802 91200=
07005,1996-06-21 18:00:00,14,1011.5,0.5,58,6,25000,18.52,,,20,9.9,15.6,,,,,,,,1,wg-a,,,,AAXX 21184 07005 32675 50210 10140 20060 30023 40115 53005 70182 84807 91800 333 10156 20099=
07005,1996-06-22 00:00:00,8,1014.6,0.9,87,6,0,3.704,,,20,,,,,,,,,,,wg-a,,,,AAXX 22004 07005 12/// /0202 10080 20060 30052 40146 51009 60006 90000=
07005,1996-06-22 06:00:00,10,1016.7,1.2,87,8,20000,14.816,,,320,7.7,13.4,,,,,,,,,wg-a,,,,AAXX 22064 07005 02570 33208 10100 20080 30073 40167 53012 60006 83800 90600 333 10134 20077 61000=
07005,1996-06-22 12:00:00,14,1019.8,1.3,67,8,20000,25.928,,,330,,,,,,,,,,25,wg-a,,,,AAXX 22124 07005 02570 63314 10140 20080 30105 40198 53013 61000 72582 85230 91200 333 6100=
07005,1996-06-22 18:00:00,13,1021.6,1.1,72,8,0,18.52,,,310,9.7,16.8,,,,,,,,,wg-a,,,,AAXX 22184 07005 32/// /3110 10130 20080 30123 40216 51011 91800 333 10168 20097=
07005,1996-06-23 00:00:00,11,1023.4,0.6,94,10,0,11.112,,,70,,,,,,,,,,,wg-a,,,,AAXX 23004 07005 12/// /0706 10110 20100 30140 40234 53006 60006 90000=
07005,1996-06-23 06:00:00,10,1024.3,1.1,93,9,8000,3.704,,,80,9.4,13,,,,,,,,,wg-a,,,,AAXX 23064 07005 12658 70802 10100 20090 30149 40243 53011 60004 85202 90600 333 10130 20094=
07005,1996-06-23 12:00:00,12,1026.3,0.3,82,9,20000,14.816,,,350,,,,,,,,,,,wg-a,,,,AAXX 23124 07005 12570 83508 10120 20090 30169 40263 50003 60006 888// 91200=
07005,1996-06-23 18:00:00,13,1026.7,-0.2,72,8,0,11.112,,,20,9.9,14.2,,,,,,,,,wg-a,,,,AAXX 23184 07005 12/// /0206 10130 20080 30174 40267 58002 60006 91800 333 10142 20099=
07005,1996-06-24 00:00:00,9,1027.3,-0.4,93,8,0,7.408,,,10,,,,,,,,,,,wg-a,,,,AAXX 24004 07005 12/// /0104 10090 20080 30178 40273 58004 60006 90000=
07005,1996-06-24 06:00:00,10,1027.8,0.6,93,9,20000,7.408,,,10,7.6,13.6,,,,,,,,,wg-a,,,,AAXX 24064 07005 12470 70104 10100 20090 30184 40278 53006 60006 875// 90600 333 10136 20076=
07005,1996-06-24 12:00:00,13,1028,0.2,77,9,20000,14.816,,,10,,,,,,,,,,,wg-a,,,,AAXX 24124 07005 12570 80108 10130 20090 30186 40280 50002 60006 885// 91200=
07005,1996-06-24 18:00:00,14,1027.6,-0.1,77,10,20000,25.928,,,20,10.5,15.6,,,,,,,,3,wg-a,,,,AAXX 24184 07005 02570 80214 10140 20100 30183 40276 55001 61000 70386 878// 91800 333 10156 20105 ////=
07005,1996-06-25 00:00:00,11,1028,-0.2,94,10,0,7.408,,,330,,,,,,,,,,,wg-a,,,,AAXX 25004 07005 12/// /3304 10110 20100 30186 40280 56002 60006 90000=
07005,1996-06-25 06:00:00,12,1027.4,-0.3,88,10,10000,7.408,,,20,10.9,14,,,,,,,,,wg-a,,,,AAXX 25064 07005 02460 80204 10120 20100 30180 40274 57003 60006 875// 90600 333 10140 20109 61000=
07005,1996-06-25 12:00:00,16,1026.1,-1,72,11,20000,7.408,,,360,,,,,,,,,,,wg-a,,,,AAXX 25124 07005 12470 73604 10160 20110 30169 40261 58010 60006 878// 91200=
07005,1996-06-25 18:00:00,16,1024.3,-0.8,77,12,20000,14.816,,,310,12.2,17.9,,,,,,,,,wg-a,,,,AAXX 25184 07005 12570 73108 10160 20120 30151 40243 56008 60006 878// 91800 333 10179 20122=
07005,1996-06-26 00:00:00,13,1023.6,-0.6,94,12,0,3.704,,,210,,,,,,,,,,,wg-a,,,,AAXX 26004 07005 12/// /2102 10130 20120 30143 40236 58006 60006 90000=
07005,1996-06-26 06:00:00,13,1022.2,0,94,12,2000,7.408,,,200,11.3,15.6,,,,,,,,10,wg-a,,,,AAXX 26064 07005 12420 82004 10130 20120 30129 40222 50000 60006 71022 885// 90600 333 10156 20113=
07005,1996-06-26 12:00:00,18,1022.7,0.4,73,13,15000,22.224,,,290,,,,,,,,,,,wg-a,,,,AAXX 26124 07005 12565 72912 10180 20130 30136 40227 52004 60006 81132 91200=
07005,1996-06-26 18:00:00,16,1023.2,0.1,77,12,20000,18.52,,,290,12.9,18.5,,,,,,,,,wg-a,,,,AAXX 26184 07005 12/70 62910 10160 20120 30140 40232 53001 60006 80002 91800 333 10185 20129=
07005,1996-06-27 00:00:00,14,1024.1,0,94,13,0,14.816,,,280,,,,,,,,,,,wg-a,,,,AAXX 27004 07005 12/// /2808 10140 20130 30148 40241 50000 60006 90000=
07005,1996-06-27 06:00:00,15,1023.7,0.3,94,14,2500,14.816,,,280,12.6,15.5,,,,,,,,10,wg-a,,,,AAXX 27064 07005 12225 82808 10150 20140 30145 40237 53003 60006 710// 886// 90600 333 10155 20126=
07005,1996-06-27 12:00:00,20,1024.7,0.2,73,15,15000,14.816,,,290,,,,,,,,,,,wg-a,,,,AAXX 27124 07005 12465 72908 10200 20150 30156 40247 51002 60006 878// 91200=
07005,1996-06-27 18:00:00,17,1024.1,-0.2,77,13,20000,14.816,,,300,14.9,20.5,,,,,,,,,wg-a,,,,AAXX 27184 07005 12470 83008 10170 20130 30149 40241 56002 60006 888// 91800 333 10205 20149=
07005,1996-06-28 00:00:00,12,1023.3,-0.9,94,11,0,3.704,,,190,,,,,,,,,,,wg-a,,,,AAXX 28004 07005 12/// /1902 10120 20110 30140 40233 58009 60006 90000=
07005,1996-06-28 06:00:00,15,1021.1,-0.6,82,12,20000,14.816,,,240,11.5,17.2,,,,,,,,,wg-a,,,,AAXX 28064 07005 12/70 82408 10150 20120 30119 40211 57006 60006 873// 90600 333 10172 20115=
07005,1996-06-28 12:00:00,18,1019.6,-1.2,77,14,25000,18.52,,,290,,,,,,,,,,,wg-a,,,,AAXX 28124 07005 12475 62910 10180 20140 30105 40196 58012 60006 83232 91200=
07005,1996-06-28 18:00:00,17,1016.7,-1.7,72,12,25000,18.52,,,280,14.7,19.5,,,,,,,,1,wg-a,,,,AAXX 28184 07005 02675 72810 10170 20120 30076 40167 56017 61000 70182 8259/ 91800 333 10195 20147 ////=
07005,1996-06-29 00:00:00,15,1014.1,-1.6,94,14,0,22.224,,,260,,,,,,,,,,,wg-a,,,,AAXX 29004 07005 12/// /2612 10150 20140 30050 40141 56016 60036 90000=
07005,1996-06-29 06:00:00,13,1014.4,1.3,94,12,20000,11.112,,,310,12.2,16.8,,2,,,5,,,1,wg-a,,,,AAXX 29064 07005 02470 73106 10130 20120 30052 40144 53013 60054 70165 878// 90600 333 10168 20122 60027=
07005,1996-06-29 12:00:00,14,1016.1,0.6,67,8,25000,35.188,,,290,,,,,,,,,,,wg-a,,,,AAXX 29124 07005 12575 72919 10140 20080 30069 40161 51006 60006 878// 91200=
07005,1996-06-29 18:00:00,14,1017.6,0.9,77,10,0,31.484,,,280,12.6,15.2,,,,,,,,,wg-a,,,,AAXX 29184 07005 12/// /2817 10140 20100 30084 40176 51009 60006 91800 333 10152 20126=
07005,1996-06-30 00:00:00,14,1018.7,0.3,82,11,0,22.224,,,300,,,,,,,,,,,wg-a,,,,AAXX 30004 07005 12/// /3012 10140 20110 30095 40187 52003 60006 90000=
07005,1996-06-30 06:00:00,13,1017.7,-0.5,88,11,15000,14.816,,,240,11.4,14.1,,,,,,,,,wg-a,,,,AAXX 30064 07005 12465 82408 10130 20110 30084 40177 57005 60006 875// 90600 333 10141 20114=
07005,1996-06-30 12:00:00,14,1016.1,-0.7,82,11,8000,29.632,,,270,,,,0,,,,,,25,wg-a,,,,AAXX 30124 07005 02458 82716 10140 20110 30069 40161 55007 60006 72582 8527/ 91200 333 60007=
07005,1996-06-30 18:00:00,15,1012.1,-2,88,13,0,22.224,,,250,12.8,16,,,,,,,,,wg-a,,,,AAXX 30184 07005 32/// /2512 10150 20130 30030 40121 56020 91800 333 10160 20128=
07005,1996-07-01 00:00:00,13,1010.2,-1.3,88,11,0,22.224,,,260,,,,,,,,,,,wg-a,,,,AAXX 01004 07005 12/// /2612 10130 20110 30010 40102 57013 60006 90000=
07005,1996-07-01 06:00:00,13,1008.8,-0.3,88,11,25000,22.224,,,270,12.8,15,,,,,1,,,,wg-a,,,,AAXX 01064 07005 02475 82712 10130 20110 39996 40088 56003 60006 888// 90600 333 10150 20128 60014=
07005,1996-07-01 12:00:00,17,1008.1,-0.4,63,10,25000,38.892,,,260,,,,,,,,,,1,wg-a,,,,AAXX 01124 07005 02575 62621 10170 20100 39990 40081 57004 61000 70182 86800 91200 333 ////=
07005,1996-07-01 18:00:00,15,1007.4,-0.3,72,10,500,42.596,,,280,13.3,16.9,,,,,,,,,wg-a,,,,AAXX 01184 07005 32400 72823 10150 20100 39983 40074 57003 8624/ 91800 333 10169 20133=
07005,1996-07-02 00:00:00,13,1008,0.3,82,10,0,29.632,,,270,,,,,,,,,,,wg-a,,,,AAXX 02004 07005 12/// /2716 10130 20100 39988 40080 50003 60006 90000=
07005,1996-07-02 06:00:00,13,1009.1,1.1,88,11,25000,22.224,,,270,12.6,14.8,,,,,,,,25,wg-a,,,,AAXX 02064 07005 02475 72712 10130 20110 39999 40091 52011 61000 7258/ 878// 90600 333 10148 20126 6100=
07005,1996-07-02 12:00:00,18,1010.5,0.3,59,10,500,29.632,,,290,,,,,,,,,,1,wg-a,,,,AAXX 02124 07005 02500 62916 10180 20100 30015 40105 51003 61000 70182 86800 91200 333 ////=
07005,1996-07-02 18:00:00,15,1011.9,0.5,63,8,500,25.928,,,270,13.2,18,,,,,,,,,wg-a,,,,AAXX 02184 07005 32500 62714 10150 20080 30028 40119 53005 81230 91800 333 10180 20132=
07005,1996-07-03 00:00:00,11,1012.1,-0.5,87,9,0,11.112,,,190,,,,,,,,,,,wg-a,,,,AAXX 03004 07005 12/// /1906 10110 20090 30028 40121 58005 60006 90000=
07005,1996-07-03 06:00:00,12,1009.6,-1,88,10,25000,14.816,,,160,10.5,15,,,,,,,,,wg-a,,,,AAXX 03064 07005 02/75 61608 10120 20100 30004 40096 57010 60006 86074 90600 333 10150 20105 61000=
07005,1996-07-03 12:00:00,19,1006.4,-1.5,60,11,25000,38.892,,,200,,,,0,,,,,,2,wg-a,,,,AAXX 03124 07005 02675 72021 10190 20110 39974 40064 56015 60006 70262 8553/ 91200 333 60007=
07005,1996-07-03 18:00:00,17,1004.7,-0.9,94,16,12000,14.816,,,240,12.3,19.7,,3,,,,,,21,wg-a,,,,AAXX 03184 07005 12362 82408 10170 20160 39957 40047 56009 60037 72162 8687/ 91800 333 10197 20123=
07005,1996-07-04 00:00:00,15,1005.4,-0.5,94,14,0,11.112,,,200,,,,,,,,,,,wg-a,,,,AAXX 04004 07005 12/// /2006 10150 20140 39963 40054 58005 60016 90000=
07005,1996-07-04 06:00:00,13,1006.6,2.6,88,11,20000,29.632,,,270,12.6,16.7,,1,,,6,,,,wg-a,,,,AAXX 04064 07005 02470 12716 10130 20110 39975 40066 53026 60064 81800 90600 333 10167 20126 60017=
07005,1996-07-04 12:00:00,17,1009.1,1.1,68,11,25000,25.928,,,280,,,,,,,,,,,wg-a,,,,AAXX 04124 07005 12575 62814 10170 20110 30001 40091 51011 60006 86800 91200=
07005,1996-07-04 18:00:00,17,1010.6,0.2,59,9,25000,31.484,,,260,13.4,18.3,,,,,,,,1,wg-a,,,,AAXX 04184 07005 32775 52617 10170 20090 30015 40106 50002 70181 81530 91800 333 10183 20134=
07005,1996-07-05 00:00:00,13,1011,-0.1,82,10,0,11.112,,,250,,,,,,,,,,,wg-a,,,,AAXX 05004 07005 12/// /2506 10130 20100 30018 40110 56001 60006 90000=
07005,1996-07-05 06:00:00,13,1009,-0.7,88,11,25000,3.704,,,190,11.7,16.9,,,,,,,,,wg-a,,,,AAXX 05064 07005 02475 81902 10130 20110 39998 40090 56007 60006 8387/ 90600 333 10169 20117 61000=
07005,1996-07-05 12:00:00,16,1007.8,-0.5,72,11,25000,22.224,,,310,,,,,,,,,,,wg-a,,,,AAXX 05124 07005 02475 83112 10160 20110 39987 40078 56005 60006 8527/ 91200 333 61000=
07005,1996-07-05 18:00:00,15,1008,0.2,72,10,500,22.224,,,280,12.8,17.1,,,,,,,,,wg-a,,,,AAXX 05184 07005 32500 72812 10150 20100 39989 40080 53002 8223/ 91800 333 10171 20128=
07005,1996-07-06 00:00:00,10,1007.9,-0.5,93,9,0,14.816,,,250,,,,,,,,,,,wg-a,,,,AAXX 06004 07005 12/// /2508 10100 20090 39986 40079 56005 60006 90000=
07005,1996-07-06 06:00:00,12,1008.2,1,88,10,15000,11.112,,,280,10,14.5,,,,,4,,,1,wg-a,,,,AAXX 06064 07005 12565 52806 10120 20100 39990 40082 53010 60044 70182 85800 90600 333 10145 20100=
07005,1996-07-06 12:00:00,16,1009.7,0.6,59,8,20000,22.224,,,300,,,,,,,,,,1,wg-a,,,,AAXX 06124 07005 12570 53012 10160 20080 30006 40097 52006 60026 70198 85200 91200=
07005,1996-07-06 18:00:00,15,1010.2,-0.3,63,8,0,22.224,,,300,11.5,16.8,,,,,,,,,wg-a,,,,AAXX 06184 07005 32/// /3012 10150 20080 30011 40102 58003 91800 333 10168 20115=
07005,1996-07-07 00:00:00,9,1010.1,-0.5,93,8,0,7.408,,,210,,,,,,,,,,,wg-a,,,,AAXX 07004 07005 12/// /2104 10090 20080 30008 40101 56005 60006 90000=
07005,1996-07-07 06:00:00,8,1009.2,-0,93,7,0,7.408,,,150,6.1,14.8,,,,,3,,,,wg-a,,,,AAXX 07064 07005 12/// /1504 10080 20070 39999 40092 55000 60034 90600 333 10148 20061=
07005,1996-07-07 12:00:00,16,1008.4,-0.4,59,8,25000,14.816,,,330,,,,,,,,,,,wg-a,,,,AAXX 07124 07005 12675 63308 10160 20080 39993 40084 56004 60006 84202 91200=
07005,1996-07-07 18:00:00,15,1009.7,0.7,77,11,0,11.112,,,330,8.3,18,,,,,,,,,wg-a,,,,AAXX 07184 07005 32/// /3306 10150 20110 30006 40097 51007 91800 333 10180 20083=
07005,1996-07-08 00:00:00,8,1013.8,1.3,93,7,0,11.112,,,350,,,,,,,,,,,wg-a,,,,AAXX 08004 07005 12/// /3506 10080 20070 30044 40138 51013 60006 90000=
07005,1996-07-08 06:00:00,11,1016.4,2.1,94,10,7000,3.704,,,300,8.1,15.7,,,,,,,,,wg-a,,,,AAXX 08064 07005 12457 73002 10110 20100 30071 40164 53021 60004 878// 90600 333 10157 20081=
07005,1996-07-08 12:00:00,15,1020.6,1.8,77,11,20000,25.928,,,300,,,,,,,,,,,wg-a,,,,AAXX 08124 07005 12470 73014 10150 20110 30114 40206 53018 60006 872// 91200=
07005,1996-07-08 18:00:00,15,1023.3,1.1,72,10,25000,22.224,,,290,10.9,16.9,,,,,,,,,wg-a,,,,AAXX 08184 07005 12575 52912 10150 20100 30141 40233 53011 60006 81202 91800 333 10169 20109=
07005,1996-07-09 00:00:00,10,1024.6,0.1,93,9,0,7.408,,,220,,,,,,,,,,,wg-a,,,,AAXX 09004 07005 12/// /2204 10100 20090 30152 40246 51001 60006 90000=
07005,1996-07-09 06:00:00,12,1024.7,0.5,100,12,10000,11.112,,,230,9,15.1,,,,,,,,,wg-a,,,,AAXX 09064 07005 12460 72306 10120 20120 30154 40247 52005 60004 875// 90600 333 10151 20090=
07005,1996-07-09 12:00:00,17,1025.2,0.1,68,11,500,29.632,,,280,,,,,,,,,,,wg-a,,,,AAXX 09124 07005 12500 72816 10170 20110 30160 40252 51001 60006 878// 91200=
07005,1996-07-09 18:00:00,16,1023.8,-1.2,82,13,20000,18.52,,,280,12.1,17.3,,,,,,,,2,wg-a,,,,AAXX 09184 07005 02370 82810 10160 20130 30146 40238 57012 61000 70252 885// 91800 333 10173 20121 ////=
07005,1996-07-10 00:00:00,15,1022.9,-0.6,94,14,0,18.52,,,300,,,,,,,,,,,wg-a,,,,AAXX 10004 07005 12/// /3010 10150 20140 30137 40229 57006 60036 90000=
07005,1996-07-10 06:00:00,14,1024,1.1,94,13,6000,11.112,,,320,14,15.6,,,,,3,,,,wg-a,,,,AAXX 10064 07005 12456 83206 10140 20130 30147 40240 53011 60034 885// 90600 333 10156 20140=
07005,1996-07-10 12:00:00,18,1025.2,0.2,73,13,10000,11.112,,,290,,,,,,,,,,,wg-a,,,,AAXX 10124 07005 12560 62906 10180 20130 30160 40252 50002 60006 86800 91200=
07005,1996-07-10 18:00:00,17,1025.6,0.1,77,13,25000,14.816,,,290,14.2,19.5,,,,,,,,,wg-a,,,,AAXX 10184 07005 12/75 02908 10170 20130 30164 40256 52001 60006 80000 91800 333 10195 20142=
07005,1996-07-11 00:00:00,13,1025.4,-0.4,94,12,0,7.408,,,250,,,,,,,,,,,wg-a,,,,AAXX 11004 07005 12/// /2504 10130 20120 30161 40254 56004 60006 90000=
07005,1996-07-11 06:00:00,14,1024.5,0.1,94,13,3000,0,,,0,11.7,17.1,,,,,,,,10,wg-a,,,,AAXX 11064 07005 12/30 20000 10140 20130 30152 40245 53001 60006 710// 80002 90600 333 10171 20117=
07005,1996-07-11 12:00:00,15,1024.3,-0.5,94,14,2800,18.52,,,290,,,,,,,,,,10,wg-a,,,,AAXX 11124 07005 12228 82910 10150 20140 30151 40243 57005 60006 71041 886// 91200=
07005,1996-07-11 18:00:00,17,1022.6,-0.6,77,13,20000,18.52,,,290,13.6,16.6,,,,,,,,,wg-a,,,,AAXX 11184 07005 12470 52910 10170 20130 30134 40226 56006 60006 85500 91800 333 10166 20136=
07005,1996-07-12 00:00:00,12,1021.4,-1.5,100,12,0,11.112,,,220,,,,,,,,,,,wg-a,,,,AAXX 12004 07005 12/// /2206 10120 20120 30121 40214 58015 60006 90000=
07005,1996-07-12 06:00:00,14,1019.9,-0.2,94,13,3500,14.816,,,260,12,16.5,,,,,,,,10,wg-a,,,,AAXX 12064 07005 12335 82608 10140 20130 30107 40199 58002 60006 710// 886// 90600 333 10165 20120=
07005,1996-07-12 12:00:00,17,1020.3,-0,82,14,20000,18.52,,,280,,,,,,,,,,,wg-a,,,,AAXX 12124 07005 12570 82810 10170 20140 30112 40203 55000 60006 875// 91200=
07005,1996-07-12 18:00:00,16,1020.5,0,82,13,15000,18.52,,,280,14,17.8,,,,,,,,,wg-a,,,,AAXX 12184 07005 12465 82810 10160 20130 30113 40205 50000 60006 875// 91800 333 10178 20140=
07005,1996-07-13 00:00:00,15,1020.5,-0.7,94,14,0,11.112,,,280,,,,,,,,,,,wg-a,,,,AAXX 13004 07005 12/// /2806 10150 20140 30113 40205 58007 60006 90000=
07005,1996-07-13 06:00:00,15,1020.9,0.5,100,15,2000,7.408,,,230,14.5,15.6,,,,,,,,51,wg-a,,,,AAXX 13064 07005 02220 82304 10150 20150 30117 40209 53005 61000 7515/ 887// 90600 333 10156 20145 6100=
07005,1996-07-13 12:00:00,19,1022.3,0.7,78,15,500,14.816,,,260,,,,,,,,,,1,wg-a,,,,AAXX 13124 07005 02400 72608 10190 20150 30132 40223 50007 60006 70165 878// 91200 333 61000=
07005,1996-07-13 18:00:00,18,1023.4,0.6,88,16,0,18.52,,,270,15.3,21.8,,,,,,,,,wg-a,,,,AAXX 13184 07005 32/// /2710 10180 20160 30143 40234 53006 91800 333 10218 20153=
07005,1996-07-14 00:00:00,16,1024.8,0.5,88,14,0,14.816,,,260,,,,,,,,,,,wg-a,,,,AAXX 14004 07005 12/// /2608 10160 20140 30156 40248 51005 60006 90000=
07005,1996-07-14 06:00:00,16,1026.1,1.1,88,14,25000,14.816,,,260,15.6,17.9,,,,,,,,,wg-a,,,,AAXX 14064 07005 02275 82608 10160 20140 30169 40261 53011 60006 876// 90600 333 10179 20156 60004=
07005,1996-07-14 12:00:00,18,1027.6,0.3,94,17,3000,18.52,,,290,,,,0,,,,,,51,wg-a,,,,AAXX 14124 07005 02230 82910 10180 20170 30184 40276 51003 60006 75152 887// 91200 333 60007=
07005,1996-07-14 18:00:00,18,1027.3,-0.3,88,16,0,14.816,,,290,15.7,18.5,,,,,,,,,wg-a,,,,AAXX 14184 07005 32/// /2908 10180 20160 30181 40273 55003 91800 333 10185 20157=
07005,1996-07-15 00:00:00,16,1027.5,-0.1,94,15,0,7.408,,,300,,,,,,,,,,,wg-a,,,,AAXX 15004 07005 12/// /3004 10160 20150 30183 40275 58001 60006 90000=
07005,1996-07-15 06:00:00,16,1027.8,0.5,100,16,500,3.704,,,40,15.3,18.2,,,,,1,,,47,wg-a,,,,AAXX 15064 07005 02/05 90402 10160 20160 30186 40278 53005 60006 7474/ 89/// 90600 333 10182 20153 60014=
07005,1996-07-15 12:00:00,23,1028,-0.3,65,16,4000,14.816,,,40,,,,,,,,,,10,wg-a,,,,AAXX 15124 07005 12440 50408 10230 20160 30190 40280 58003 60006 71022 85200 91200=
07005,1996-07-15 18:00:00,20,1028.2,0.5,56,11,25000,25.928,,,30,16.3,24.4,,,,,,,,,wg-a,,,,AAXX 15184 07005 12/75 00314 10200 20110 30191 40282 53005 60006 80000 91800 333 10244 20163=
07005,1996-07-16 00:00:00,12,1031,1.1,88,10,0,14.816,,,50,,,,,,,,,,,wg-a,,,,AAXX 16004 07005 12/// /0508 10120 20100 30216 40310 51011 60006 90000=
07005,1996-07-16 06:00:00,12,1031.5,0.6,88,10,20000,14.816,,,60,9.8,19.6,,0,,,,,,,wg-a,,,,AAXX 16064 07005 02/70 20608 10120 20100 30221 40315 53006 60004 81031 90600 333 10196 20098 60007=
07005,1996-07-16 12:00:00,18,1030.5,-0.6,59,10,25000,25.928,,,70,,,,,,,,,,,wg-a,,,,AAXX 16124 07005 12575 60714 10180 20100 30213 40305 58006 60006 81102 91200=
07005,1996-07-16 18:00:00,19,1028.2,-0.8,60,11,25000,25.928,,,50,11.8,20.9,,,,,,,,,wg-a,,,,AAXX 16184 07005 12/75 00514 10190 20110 30190 40282 56008 60006 80000 91800 333 10209 20118=
07005,1996-07-17 00:00:00,11,1029.1,-0.1,94,10,0,18.52,,,70,,,,,,,,,,,wg-a,,,,AAXX 17004 07005 12/// /0710 10110 20100 30197 40291 56001 60006 90000=
07005,1996-07-17 06:00:00,11,1028.5,-0.2,87,9,10000,25.928,,,60,9.5,18.6,,0,,,,,,,wg-a,,,,AAXX 17064 07005 02/60 10614 10110 20090 30191 40285 56002 60004 80001 90600 333 10186 20095 60007=
07005,1996-07-17 12:00:00,21,1027.4,-1,53,11,25000,25.928,,,60,,,,,,,,,,,wg-a,,,,AAXX 17124 07005 12/75 10614 10210 20110 30183 40274 58010 60006 80001 91200=
07005,1996-07-17 18:00:00,22,1025.3,-0.8,46,10,25000,22.224,,,50,11.2,23,,,,,,,,,wg-a,,,,AAXX 17184 07005 12/75 00512 10220 20100 30162 40253 56008 60006 80000 91800 333 10230 20112=
07005,1996-07-18 00:00:00,12,1026.8,0.2,94,11,0,22.224,,,60,,,,,,,,,,,wg-a,,,,AAXX 18004 07005 12/// /0612 10120 20110 30174 40268 53002 60006 90000=
07005,1996-07-18 06:00:00,12,1026.7,0.1,94,11,500,11.112,,,70,9.4,21.6,,0,,,,,,,wg-a,,,,AAXX 18064 07005 02/00 00706 10120 20110 30173 40267 53001 60004 80000 90600 333 10216 20094 60007=
07005,1996-07-18 12:00:00,22,1026.4,-0.3,43,9,35000,22.224,,,40,,,,,,,,,,,wg-a,,,,AAXX 18124 07005 12/81 20412 10220 20090 30174 40264 58003 60006 80002 91200=
07005,1996-07-18 18:00:00,20,1025.8,-0,53,10,35000,22.224,,,50,12.3,23.4,,,,,,,,,wg-a,,,,AAXX 18184 07005 12/81 10512 10200 20100 30167 40258 54000 60006 80001 91800 333 10234 20123=
07005,1996-07-19 00:00:00,10,1027.1,0.2,87,8,0,11.112,,,90,,,,,,,,,,,wg-a,,,,AAXX 19004 07005 12/// /0906 10100 20080 30177 40271 51002 60006 90000=
07005,1996-07-19 06:00:00,10,1027.1,0.5,100,10,4000,7.408,,,60,7,19.7,,,,,,,,10,wg-a,,,,AAXX 19064 07005 12/40 50604 10100 20100 30177 40271 53005 60006 710// 80001 90600 333 10197 20070=
07005,1996-07-19 12:00:00,21,1026,-0.8,53,11,15000,11.112,,,100,,,,,,,,,,,wg-a,,,,AAXX 19124 07005 12/65 71006 10210 20110 30169 40260 58008 60006 80002 91200=
07005,1996-07-19 18:00:00,22,1024.7,-0.2,46,10,20000,14.816,,,60,10.2,23.4,,,,,,,,,wg-a,,,,AAXX 19184 07005 12/70 50608 10220 20100 30157 40247 57002 60006 80002 91800 333 10234 20102=
07005,1996-07-20 00:00:00,12,1025.1,-0.4,94,11,0,7.408,,,90,,,,,,,,,,,wg-a,,,,AAXX 20004 07005 12/// /0904 10120 20110 30158 40251 58004 60006 90000=
07005,1996-07-20 06:00:00,13,1025,0.3,94,12,1800,3.704,,,110,10.2,21.9,,0,,,,,,10,wg-a,,,,AAXX 20064 07005 02/18 51102 10130 20120 30157 40250 53003 60004 71022 81032 90600 333 10219 20102 60007=
07005,1996-07-20 12:00:00,25,1024.1,-0.7,36,9,25000,11.112,,,160,,,,,,,,,,,wg-a,,,,AAXX 20124 07005 12/75 21606 10250 20090 30151 40241 58007 60006 80001 91200=
07005,1996-07-20 18:00:00,26,1022.8,-0.8,42,12,0,14.816,,,360,12.6,26.9,,,,,,,,,wg-a,,,,AAXX 20184 07005 12/// /3608 10260 20120 30139 40228 56008 60006 91800 333 10269 20126=
07005,1996-07-21 00:00:00,14,1023.6,-0.2,82,11,0,11.112,,,90,,,,,,,,,,,wg-a,,,,AAXX 21004 07005 12/// /0906 10140 20110 30143 40236 58002 60006 90000=
07005,1996-07-21 06:00:00,15,1023.2,0.3,72,10,20000,11.112,,,140,12.9,25.5,,,,,,,,,wg-a,,,,AAXX 21064 07005 12570 11406 10150 20100 30139 40232 53003 60006 81501 90600 333 10255 20129=
07005,1996-07-21 12:00:00,28,1022,-0.9,30,9,35000,11.112,,,180,,,,,,,,,,,wg-a,,,,AAXX 21124 07005 12681 51806 10280 20090 30132 40220 58009 60006 81102 91200=
07005,1996-07-21 18:00:00,28,1019.8,-1.1,35,11,0,3.704,,,160,14.6,28.7,,,,,,,,,wg-a,,,,AAXX 21184 07005 12/// /1602 10280 20110 30110 40198 56011 60006 91800 333 10287 20146=
07005,1996-07-22 00:00:00,18,1020.6,-0,59,10,0,14.816,,,140,,,,,,,,,,,wg-a,,,,AAXX 22004 07005 12/// /1408 10180 20100 30115 40206 54000 60006 90000=
07005,1996-07-22 06:00:00,18,1020.3,0.1,52,8,500,18.52,,,140,15.3,28.3,,,,,,,,,wg-a,,,,AAXX 22064 07005 12/00 11410 10180 20080 30112 40203 53001 60006 80002 90600 333 10283 20153=
07005,1996-07-22 12:00:00,28,1017.4,-2.1,27,7,35000,25.928,,,140,,,,,,,,,,,wg-a,,,,AAXX 22124 07005 12/81 01414 10280 20070 30086 40174 58021 60006 80000 91200=
07005,1996-07-22 18:00:00,29,1014.2,-1.6,27,8,35000,18.52,,,130,17.6,29.5,,,,,,,,,wg-a,,,,AAXX 22184 07005 12/81 01310 10290 20080 30055 40142 56016 60006 80000 91800 333 10295 20176=
07005,1996-07-23 00:00:00,19,1012.2,-1.6,56,10,0,14.816,,,130,,,,,,,,,,,wg-a,,,,AAXX 23004 07005 12/// /1308 10190 20100 30032 40122 58016 60006 90000=
07005,1996-07-23 06:00:00,20,1009,-0.7,60,12,15000,14.816,,,160,17.9,28.8,,,,,,,,,wg-a,,,,AAXX 23064 07005 12/65 11608 10200 20120 30000 40090 56007 60006 80001 90600 333 10288 20179=
07005,1996-07-23 12:00:00,24,1010,1.3,47,12,15000,38.892,,,270,,,,,,,,,,,wg-a,,,,AAXX 23124 07005 12/65 62721 10240 20120 30012 40100 53013 60006 80002 91200=
07005,1996-07-23 18:00:00,19,1012.4,1,68,13,20000,35.188,,,270,17.6,26.1,,,,,,,,,wg-a,,,,AAXX 23184 07005 12570 62719 10190 20130 30034 40124 52010 60006 81332 91800 333 10261 20176=
07005,1996-07-24 00:00:00,16,1012.4,-0.2,82,13,0,25.928,,,260,,,,,,,,,,,wg-a,,,,AAXX 24004 07005 12/// /2614 10160 20130 30033 40124 58002 60006 90000=
07005,1996-07-24 06:00:00,17,1012.9,1,77,13,15000,25.928,,,300,15.3,18.6,,,,,,,,,wg-a,,,,AAXX 24064 07005 12465 73014 10170 20130 30038 40129 53010 60006 878// 90600 333 10186 20153=
07005,1996-07-24 12:00:00,18,1016.2,1.4,64,11,15000,31.484,,,310,,,,,,,,,,,wg-a,,,,AAXX 24124 07005 12565 83117 10180 20110 30071 40162 51014 60006 872// 91200=
07005,1996-07-24 18:00:00,17,1018.3,1.1,72,12,15000,18.52,,,320,16.5,19.7,,,,,,,,81,wg-a,,,,AAXX 24184 07005 02565 83210 10170 20120 30092 40183 53011 61000 78182 8523/ 91800 333 10197 20165 ////=
07005,1996-07-25 00:00:00,13,1020.7,0.8,94,12,0,7.408,,,300,,,,,,,,,,,wg-a,,,,AAXX 25004 07005 12/// /3004 10130 20120 30114 40207 53008 60016 90000=
07005,1996-07-25 06:00:00,13,1022.6,1,88,11,12000,11.112,,,290,10.6,17.1,,0,,,1,,,,wg-a,,,,AAXX 25064 07005 02562 12906 10130 20110 30133 40226 53010 60014 81101 90600 333 10171 20106 60007=
07005,1996-07-25 12:00:00,20,1023.8,0.6,60,12,20000,14.816,,,360,,,,,,,,,,,wg-a,,,,AAXX 25124 07005 12570 63608 10200 20120 30147 40238 52006 60006 86100 91200=
07005,1996-07-25 18:00:00,18,1023.4,-0.4,73,13,15000,14.816,,,50,12.6,21,,,,,,,,,wg-a,,,,AAXX 25184 07005 12565 10508 10180 20130 30143 40234 58004 60006 81100 91800 333 10210 20126=
07005,1996-07-26 00:00:00,12,1024.8,0.6,94,11,0,7.408,,,160,,,,,,,,,,,wg-a,,,,AAXX 26004 07005 12/// /1604 10120 20110 30154 40248 51006 60006 90000=
07005,1996-07-26 06:00:00,13,1023.5,-0.2,100,13,1500,3.704,,,40,10.7,15.6,,,,,,,,10,wg-a,,,,AAXX 26064 07005 02415 70402 10130 20130 30172 40235 56002 60006 71011 875// 90600 333 10156 20107 61000=
07005,1996-07-26 12:00:00,23,1022.1,-1.3,47,11,15000,7.408,,,140,,,,,,,,,,,wg-a,,,,AAXX 26124 07005 12/65 01404 10230 20110 30131 40221 58013 60006 80000 91200=
07005,1996-07-26 18:00:00,23,1020.9,-0.3,50,12,15000,22.224,,,340,9.3,25.8,,,,,,,,,wg-a,,,,AAXX 26184 07005 32/65 03412 10230 20120 30119 40209 55003 80000 91800 333 10258 20093=
07005,1996-07-27 00:00:00,13,1020.5,-0.9,94,12,0,3.704,,,190,,,,,,,,,,,wg-a,,,,AAXX 27004 07005 12/// /1902 10130 20120 30112 40205 58009 60006 90000=
07005,1996-07-27 06:00:00,13,1019.4,-0.3,94,12,2000,7.408,,,170,11.4,22.7,,,,,,,,10,wg-a,,,,AAXX 27064 07005 02/20 51704 10130 20120 30101 40194 56003 60006 710// 81042 90600 333 10227 20114 60004=
07005,1996-07-27 12:00:00,24,1019.1,-0.3,65,17,20000,14.816,,,300,,,,,,,,,,,wg-a,,,,AAXX 27124 07005 12570 73008 10240 20170 30102 40191 58003 60006 82242 91200=
07005,1996-07-27 18:00:00,22,1019,0.1,69,16,0,14.816,,,340,12.7,24.1,,,,,,,,,wg-a,,,,AAXX 27184 07005 12/// /3408 10220 20160 30100 40190 53001 60006 91800 333 10241 20127=
07005,1996-07-28 00:00:00,16,1020,-0.4,77,12,0,0,,,0,,,,,,,,,,,wg-a,,,,AAXX 28004 07005 12/// /0000 10160 20120 30108 40200 57004 60006 90000=
07005,1996-07-28 06:00:00,15,1019.3,0.4,82,12,25000,0,,,0,12.7,,,,,,,,,,wg-a,,,,AAXX 28064 07005 12575 70000 10150 20120 30101 40193 53004 60006 82542 90600 333 20127=
07005,1996-07-28 12:00:00,22,1018.8,-0.3,60,14,25000,18.52,,,300,,,,,,,,,,,wg-a,,,,AAXX 28124 07005 12575 73010 10220 20140 30098 40188 58003 60006 878// 91200=
07005,1996-07-28 18:00:00,19,1018.2,-0.7,68,13,0,14.816,,,300,15,22.1,,,,,,,,,wg-a,,,,AAXX 28184 07005 12/// /3008 10190 20130 30091 40182 56007 60006 91800 333 10221 20150=
07005,1996-07-29 00:00:00,15,1018.1,-0.4,88,13,0,3.704,,,180,,,,,,,,,,,wg-a,,,,AAXX 29004 07005 12/// /1802 10150 20130 30089 40181 58004 60006 90000=
07005,1996-07-29 06:00:00,16,1016.4,-0.2,88,14,12000,7.408,,,160,15.1,19.1,,,,,,,,21,wg-a,,,,AAXX 29064 07005 02562 81604 10160 20140 30073 40164 55002 61000 7216/ 875// 90600 333 10191 20151 6100=
07005,1996-07-29 12:00:00,19,1016,-0.2,83,16,4000,14.816,,,320,,,,,,,,,,95,wg-a,,,,AAXX 29124 07005 02440 73208 10190 20160 30070 40160 55002 60016 79598 879// 91200 333 61000=
07005,1996-07-29 18:00:00,20,1014.5,-0.6,68,14,500,18.52,,,290,15.7,22.7,,,,,,,,2,wg-a,,,,AAXX 29184 07005 32400 32910 10200 20140 30055 40145 56006 70298 82903 91800 333 10227 20157=
07005,1996-07-30 00:00:00,16,1015.4,0.1,94,15,0,14.816,,,280,,,,,,,,,,,wg-a,,,,AAXX 30004 07005 12/// /2808 10160 20150 30063 40154 50001 60006 90000=
07005,1996-07-30 06:00:00,17,1015.8,0.2,88,15,13000,7.408,,,250,16,20,,,,,1,,,,wg-a,,,,AAXX 30064 07005 02463 82504 10170 20150 30067 40158 53002 60006 885// 90600 333 10200 20160 60014=
07005,1996-07-30 12:00:00,21,1017.5,0.5,69,15,20000,31.484,,,290,,,,,,,,,,,wg-a,,,,AAXX 30124 07005 12470 62917 10210 20150 30085 40175 53005 60006 84842 91200=
07005,1996-07-30 18:00:00,18,1018.2,0.2,73,13,20000,29.632,,,270,16.6,21.8,,,,,,,,,wg-a,,,,AAXX 30184 07005 12570 62716 10180 20130 30091 40182 51002 60006 81242 91800 333 10218 20166=
07005,1996-07-31 00:00:00,14,1018.3,-0.8,88,12,0,11.112,,,260,,,,,,,,,,,wg-a,,,,AAXX 31004 07005 12/// /2606 10140 20120 30091 40183 58008 60006 90000=
07005,1996-07-31 06:00:00,15,1017.7,0.1,88,13,20000,14.816,,,210,12.6,18.1,,,,,,,,,wg-a,,,,AAXX 31064 07005 12370 82108 10150 20130 30085 40177 53001 60006 8457/ 90600 333 10181 20126=
07005,1996-07-31 12:00:00,20,1017.6,0.1,73,15,20000,18.52,,,250,,,,,,,,,,,wg-a,,,,AAXX 31124 07005 12370 82510 10200 20150 30086 40176 50001 60006 8483/ 91200=
07005,1996-07-31 18:00:00,19,1016.5,-0.4,78,15,20000,22.224,,,280,14.6,21.6,,,,,,,,1,wg-a,,,,AAXX 31184 07005 32470 72812 10190 20150 30075 40165 58004 70165 8683/ 91800 333 10216 20146=
07005,1996-08-01 00:00:00,15,1017,0,82,12,0,18.52,,,270,,,,,,,,,,,wg-a,,,,AAXX 01004 07005 12/// /2710 10150 20120 30078 40170 50000 60006 90000=
07005,1996-08-01 06:00:00,13,1017.2,0.5,94,12,25000,11.112,,,220,12.1,19.2,,,,,,,,,wg-a,,,,AAXX 01064 07005 02575 72206 10130 20120 30080 40172 53005 60006 84841 90600 333 10192 20121 61000=
07005,1996-08-01 12:00:00,20,1017.7,0.3,49,9,25000,25.928,,,280,,,,,,,,,,,wg-a,,,,AAXX 01124 07005 12575 72814 10200 20090 30087 40177 51003 60006 87832 91200=
07005,1996-08-01 18:00:00,19,1018.8,0.4,60,11,500,22.224,,,290,13.5,20.4,,,,,,,,,wg-a,,,,AAXX 01184 07005 12500 42912 10190 20110 30097 40188 52004 60006 81232 91800 333 10204 20135=
07005,1996-08-02 00:00:00,12,1020.4,0.3,94,11,0,7.408,,,230,,,,,,,,,,,wg-a,,,,AAXX 02004 07005 12/// /2304 10120 20110 30111 40204 51003 60006 90000=
07005,1996-08-02 06:00:00,14,1022.3,1.6,94,13,500,11.112,,,210,11.6,18.5,,,,,,,,40,wg-a,,,,AAXX 02064 07005 12500 72106 10140 20130 30130 40223 53016 60004 74022 83201 90600 333 10185 20116=
07005,1996-08-02 12:00:00,21,1023.4,0.3,53,11,500,22.224,,,300,,,,,,,,,,,wg-a,,,,AAXX 02124 07005 12500 43012 10210 20110 30143 40234 51003 60006 84201 91200=
07005,1996-08-02 18:00:00,18,1024.4,0.5,68,12,35000,18.52,,,300,13.7,21.3,,,,,,,,,wg-a,,,,AAXX 02184 07005 12581 13010 10180 20120 30152 40244 51005 60006 81100 91800 333 10213 20137=
07005,1996-08-03 00:00:00,12,1026.4,0.5,94,11,0,3.704,,,280,,,,,,,,,,,wg-a,,,,AAXX 03004 07005 12/// /2802 10120 20110 30170 40264 51005 60006 90000=
07005,1996-08-03 06:00:00,11,1027.5,0.9,100,11,2000,7.408,,,80,10,18,,,,,,,,28,wg-a,,,,AAXX 03064 07005 12620 40804 10110 20110 30181 40275 53009 60006 7284/ 84500 90600 333 10180 20100=
07005,1996-08-03 12:00:00,21,1027.2,-0.3,60,13,20000,18.52,,,320,,,,,,,,,,,wg-a,,,,AAXX 03124 07005 12570 63210 10210 20130 30181 40272 58003 60006 86800 91200=
07005,1996-08-03 18:00:00,21,1026.7,-0,53,11,0,22.224,,,30,11.2,23.5,,,,,,,,,wg-a,,,,AAXX 03184 07005 12/// /0312 10210 20110 30176 40267 55000 60006 91800 333 10235 20112=
07005,1996-08-04 00:00:00,12,1027.3,-0.2,94,11,0,18.52,,,70,,,,,,,,,,,wg-a,,,,AAXX 04004 07005 12/// /0710 10120 20110 30179 40273 58002 60006 90000=
07005,1996-08-04 06:00:00,11,1025.7,-0.3,94,10,500,11.112,,,80,9.8,20.6,,,,,,,,46,wg-a,,,,AAXX 04064 07005 12/00 00806 10110 20100 30163 40257 56003 60006 7464/ 80000 90600 333 10206 20098=
07005,1996-08-04 12:00:00,24,1022.2,-2.2,34,7,20000,18.52,,,90,,,,,,,,,,3,wg-a,,,,AAXX 04124 07005 12670 10910 10240 20070 30132 40222 57022 60006 70340 81100 91200=
07005,1996-08-04 18:00:00,24,1018,-1.8,34,7,0,25.928,,,90,10.6,25.1,,,,,,,,,wg-a,,,,AAXX 04184 07005 12/// /0914 10240 20070 30091 40180 56018 60006 91800 333 10251 20106=
07005,1996-08-05 00:00:00,13,1017.5,-0.6,67,7,0,11.112,,,90,,,,,,,,,,,wg-a,,,,AAXX 05004 07005 12/// /0906 10130 20070 30082 40175 58006 60006 90000=
07005,1996-08-05 06:00:00,13,1015.7,-0.9,67,7,500,11.112,,,110,11.3,23.8,,,,,,,,,wg-a,,,,AAXX 05064 07005 12/00 11106 10130 20070 30065 40157 57009 60006 80001 90600 333 10238 20113=
07005,1996-08-05 12:00:00,25,1012,-2.1,34,8,500,25.928,,,140,,,,,,,,,,,wg-a,,,,AAXX 05124 07005 12700 11414 10250 20080 30032 40120 56021 60006 81200 91200=
07005,1996-08-05 18:00:00,26,1009.5,-1,30,7,25000,7.408,,,110,13.2,26.8,,,,,,,,,wg-a,,,,AAXX 05184 07005 12/75 71104 10260 20070 30007 40095 56010 60006 80002 91800 333 10268 20132=
07005,1996-08-06 00:00:00,18,1008.7,-0.8,52,8,0,7.408,,,130,,,,,,,,,,,wg-a,,,,AAXX 06004 07005 12/// /1304 10180 20080 39997 40087 58008 60006 90000=
07005,1996-08-06 06:00:00,18,1009,0.8,68,12,15000,7.408,,,170,16.6,25.6,,,,,,,,,wg-a,,,,AAXX 06064 07005 12765 61704 10180 20120 30000 40090 51008 60006 8257/ 90600 333 10256 20166=
07005,1996-08-06 12:00:00,18,1011,1.5,68,12,25000,25.928,,,280,,,,,,,,,,,wg-a,,,,AAXX 06124 07005 12575 82814 10180 20120 30020 40110 53015 60006 888// 91200=
07005,1996-08-06 18:00:00,18,1013.2,0.9,56,9,25000,31.484,,,270,17.1,23.1,,,,,,,,1,wg-a,,,,AAXX 06184 07005 32575 12717 10180 20090 30041 40132 53009 70181 81100 91800 333 10231 20171=
07005,1996-08-07 00:00:00,15,1015.7,0.8,63,8,0,25.928,,,270,,,,,,,,,,,wg-a,,,,AAXX 07004 07005 12/// /2714 10150 20080 30065 40157 51008 60006 90000=
07005,1996-08-07 06:00:00,14,1016.5,0.8,77,10,20000,14.816,,,220,13,18,,,,,,,,,wg-a,,,,AAXX 07064 07005 02470 82208 10140 20100 30073 40165 51008 60006 885// 90600 333 10180 20130 60004=
07005,1996-08-07 12:00:00,19,1018.4,0.9,56,10,0,31.484,,,280,,,,,,,,,,,wg-a,,,,AAXX 07124 07005 12/// /2817 10190 20100 30093 40184 53009 60006 91200=
07005,1996-08-07 18:00:00,17,1018.7,-0.3,63,10,500,22.224,,,290,13.5,19.7,,,,,,,,,wg-a,,,,AAXX 07184 07005 12/00 12912 10170 20100 30095 40187 55003 60006 80002 91800 333 10197 20135=
07005,1996-08-08 00:00:00,11,1018.5,-0.6,87,9,0,14.816,,,180,,,,,,,,,,,wg-a,,,,AAXX 08004 07005 12/// /1808 10110 20090 30092 40185 56006 60006 90000=
07005,1996-08-08 06:00:00,10,1017.3,-0.5,93,9,6000,7.408,,,160,9.1,16.5,,0,,,,,,11,wg-a,,,,AAXX 08064 07005 02456 61604 10100 20090 30079 40173 57005 60004 711// 84501 90600 333 10165 20091 60007=
07005,1996-08-08 12:00:00,22,1016.2,-0.8,35,6,500,7.408,,,260,,,,,,,,,,,wg-a,,,,AAXX 08124 07005 12500 72604 10220 20060 30072 40162 56008 60006 81102 91200=
07005,1996-08-08 18:00:00,21,1014.5,-0.2,49,10,500,11.112,,,350,10,24.7,,,,,,,,,wg-a,,,,AAXX 08184 07005 12/00 73506 10210 20100 30055 40145 55002 60006 80002 91800 333 10247 20100=
07005,1996-08-09 00:00:00,15,1014.5,-0.4,77,11,0,14.816,,,130,,,,,,,,,,,wg-a,,,,AAXX 09004 07005 12/// /1308 10150 20110 30053 40145 58004 60006 90000=
07005,1996-08-09 06:00:00,15,1013.3,-0,67,9,20000,11.112,,,170,14.1,21.2,,,,,,,,,wg-a,,,,AAXX 09064 07005 12/70 71706 10150 20090 30042 40133 55000 60006 82032 90600 333 10212 20141=
07005,1996-08-09 12:00:00,23,1013.4,0.2,47,11,25000,22.224,,,320,,,,,,,,,,,wg-a,,,,AAXX 09124 07005 12675 73212 10230 20110 30045 40134 52002 60006 81256 91200=
07005,1996-08-09 18:00:00,24,1010.7,-1,44,11,25000,3.704,,,180,15.2,24.3,,,,,,,,,wg-a,,,,AAXX 09184 07005 12/75 71802 10240 20110 30019 40107 58010 60006 8707/ 91800 333 10243 20152=
07005,1996-08-10 00:00:00,17,1009.6,-1.2,82,14,0,14.816,,,260,,,,,,,,,,,wg-a,,,,AAXX 10004 07005 12/// /2608 10170 20140 30006 40096 55012 60006 90000=
07005,1996-08-10 06:00:00,17,1007.9,-0.4,82,14,15000,11.112,,,160,16,24,,,,,,,,2,wg-a,,,,AAXX 10064 07005 02/65 81606 10170 20140 39989 40079 56004 61000 70262 8707/ 90600 333 10240 20160 6100=
07005,1996-08-10 12:00:00,18,1008.2,0,94,17,15000,14.816,,,200,,,,1,,,,,,61,wg-a,,,,AAXX 10124 07005 02565 82008 10180 20170 39992 40082 50000 60016 76162 8657/ 91200 333 60017=
07005,1996-08-10 18:00:00,16,1006.8,-0.8,94,15,0,3.704,,,40,15.8,19.7,,,,,,,,,wg-a,,,,AAXX 10184 07005 32/// /0402 10160 20150 39978 40068 58008 91800 333 10197 20158=
07005,1996-08-11 00:00:00,15,1005.8,-1,100,15,0,11.112,,,170,,,,,,,,,,,wg-a,,,,AAXX 11004 07005 12/// /1706 10150 20150 39967 40058 56010 60026 90000=
07005,1996-08-11 06:00:00,15,1004.6,-0.2,88,13,12000,11.112,,,160,14,16.4,,0,,,6,,,3,wg-a,,,,AAXX 11064 07005 02662 71606 10150 20130 39955 40046 55002 60064 70362 8357/ 90600 333 10164 20140 60007=
07005,1996-08-11 12:00:00,19,1004,-0.1,64,12,25000,22.224,,,210,,,,,,,,,,2,wg-a,,,,AAXX 11124 07005 12475 72112 10190 20120 39951 40040 55001 60006 70262 8323/ 91200=
07005,1996-08-11 18:00:00,16,1004.4,0.6,82,13,0,7.408,,,240,14.4,19.7,,,,,,,,,wg-a,,,,AAXX 11184 07005 32/// /2404 10160 20130 39954 40044 53006 91800 333 10197 20144=
07005,1996-08-12 00:00:00,14,1006,0.3,94,13,0,3.704,,,170,,,,,,,,,,,wg-a,,,,AAXX 12004 07005 12/// /1702 10140 20130 39969 40060 52003 60006 90000=
07005,1996-08-12 06:00:00,13,1008.4,1.5,94,12,6000,0,,,0,11.7,16.4,,,,,1,,,,wg-a,,,,AAXX 12064 07005 02556 70000 10130 20120 39992 40084 53015 60006 872// 90600 333 10164 20117 60014=
07005,1996-08-12 12:00:00,16,1010.9,1.2,94,15,10000,18.52,,,320,,,,6,,,,,,29,wg-a,,,,AAXX 12124 07005 02460 83210 10160 20150 30018 40109 52012 60076 72996 879// 91200 333 60067=
07005,1996-08-12 18:00:00,18,1011.7,0.4,83,15,15000,18.52,,,330,12.8,19.5,,,,,,,,1,wg-a,,,,AAXX 12184 07005 32565 73310 10180 20150 30027 40117 53004 70196 87200 91800 333 10195 20128=
07005,1996-08-13 00:00:00,16,1012.7,-0.4,94,15,0,11.112,,,310,,,,,,,,,,,wg-a,,,,AAXX 13004 07005 12/// /3106 10160 20150 30036 40127 57004 60016 90000=
07005,1996-08-13 06:00:00,15,1012.1,-0,94,14,4000,14.816,,,320,14.8,17.7,,1,,,12,,,,wg-a,,,,AAXX 13064 07005 02440 83208 10150 20140 30030 40121 55000 60124 885// 90600 333 10177 20148 60017=
07005,1996-08-13 12:00:00,16,1012.6,0.4,88,14,6000,29.632,,,320,,,,,,,,,,50,wg-a,,,,AAXX 13124 07005 02356 83216 10160 20140 30035 40126 53004 61000 75065 887// 91200 333 6100=
07005,1996-08-13 18:00:00,17,1014.7,1,88,15,12000,22.224,,,320,14.7,17.2,,,,,,,,,wg-a,,,,AAXX 13184 07005 32462 83212 10170 20150 30056 40147 53010 885// 91800 333 10172 20147=
07005,1996-08-14 00:00:00,16,1016.4,0.2,94,15,0,18.52,,,310,,,,,,,,,,,wg-a,,,,AAXX 14004 07005 12/// /3110 10160 20150 30073 40164 51002 60006 90000=
07005,1996-08-14 06:00:00,16,1017,0.5,94,15,3000,14.816,,,330,15.8,17,,,,,,,,10,wg-a,,,,AAXX 14064 07005 02330 83308 10160 20150 30079 40170 53005 60006 71022 886// 90600 333 10170 20158 61000=
07005,1996-08-14 12:00:00,19,1018.8,0.6,83,16,6000,18.52,,,310,,,,,,,,,,,wg-a,,,,AAXX 14124 07005 12456 83110 10190 20160 30097 40188 53006 60006 885// 91200=
07005,1996-08-14 18:00:00,19,1018.8,-0.2,78,15,8000,14.816,,,330,16,20.1,,,,,,,,,wg-a,,,,AAXX 14184 07005 12/58 03308 10190 20150 30097 40188 58002 60006 80000 91800 333 10201 20160=
07005,1996-08-15 00:00:00,15,1020.5,0.1,94,14,0,11.112,,,20,,,,,,,,,,,wg-a,,,,AAXX 15004 07005 12/// /0206 10150 20140 30113 40205 53001 60006 90000=
07005,1996-08-15 06:00:00,15,1021.5,0.7,88,13,4000,3.704,,,50,13.9,19.2,,,,,,,,10,wg-a,,,,AAXX 15064 07005 12440 80502 10150 20130 30123 40215 53007 60006 710// 885// 90600 333 10192 20139=
07005,1996-08-15 12:00:00,21,1022.2,-0,64,14,10000,11.112,,,320,,,,,,,,,,,wg-a,,,,AAXX 15124 07005 12560 23206 10210 20140 30132 40222 54000 60006 82100 91200=
07005,1996-08-15 18:00:00,21,1021.3,-0.4,73,16,0,14.816,,,330,14.8,22.2,,,,,,,,,wg-a,,,,AAXX 15184 07005 12/// /3308 10210 20160 30123 40213 56004 60006 91800 333 10222 20148=
07005,1996-08-16 00:00:00,14,1022.9,0.2,94,13,0,11.112,,,140,,,,,,,,,,,wg-a,,,,AAXX 16004 07005 12/// /1406 10140 20130 30136 40229 51002 60006 90000=
07005,1996-08-16 06:00:00,11,1023,0.5,94,10,500,11.112,,,130,9.5,20.7,,0,,,1,,,47,wg-a,,,,AAXX 16064 07005 02/00 91306 10110 20100 30136 40230 53005 60014 74744 89/// 90600 333 10207 20095 60007=
07005,1996-08-16 12:00:00,24,1022.4,-0.8,44,11,12000,7.408,,,20,,,,,,,,,,3,wg-a,,,,AAXX 16124 07005 12662 10204 10240 20110 30134 40224 58008 60006 70341 81200 91200=
07005,1996-08-16 18:00:00,24,1021.4,0.1,50,13,15000,11.112,,,340,10.8,25.6,,,,,,,,,wg-a,,,,AAXX 16184 07005 12665 13406 10240 20130 30125 40214 53001 60006 81200 91800 333 10256 20108=
07005,1996-08-17 00:00:00,16,1022.5,0.1,82,13,0,7.408,,,140,,,,,,,,,,,wg-a,,,,AAXX 17004 07005 12/// /1404 10160 20130 30133 40225 52001 60006 90000=
07005,1996-08-17 06:00:00,14,1022.6,0.5,88,12,6000,11.112,,,130,13.3,24.1,,,,,,,,,wg-a,,,,AAXX 17064 07005 12756 21306 10140 20120 30134 40226 52005 60006 81201 90600 333 10241 20133=
07005,1996-08-17 12:00:00,26,1022.3,-0.6,45,13,20000,7.408,,,300,,,,,,,,,,,wg-a,,,,AAXX 17124 07005 12770 33004 10260 20130 30134 40223 56006 60006 83200 91200=
07005,1996-08-17 18:00:00,26,1021.4,-0,39,11,0,11.112,,,350,14.1,27.7,,,,,,,,,wg-a,,,,AAXX 17184 07005 12/// /3506 10260 20110 30125 40214 55000 60006 91800 333 10277 20141=
07005,1996-08-18 00:00:00,17,1021.8,0,77,13,0,11.112,,,130,,,,,,,,,,,wg-a,,,,AAXX 18004 07005 12/// /1306 10170 20130 30127 40218 50000 60006 90000=
07005,1996-08-18 06:00:00,14,1021.5,-0,88,12,500,11.112,,,150,13.8,25.7,,,,,,,,,wg-a,,,,AAXX 18064 07005 12/00 01506 10140 20120 30123 40215 55000 60006 80000 90600 333 10257 20138=
07005,1996-08-18 12:00:00,26,1020.2,-1.3,37,10,15000,11.112,,,110,,,,,,,,,,,wg-a,,,,AAXX 18124 07005 12/65 01106 10260 20100 30113 40202 58013 60006 80000 91200=
07005,1996-08-18 18:00:00,27,1017.4,-1.2,42,13,0,11.112,,,110,14.5,28.3,,,,,,,,,wg-a,,,,AAXX 18184 07005 12/// /1106 10270 20130 30086 40174 56012 60006 91800 333 10283 20145=
07005,1996-08-19 00:00:00,18,1017.5,-0.4,83,15,0,11.112,,,110,,,,,,,,,,,wg-a,,,,AAXX 19004 07005 12/// /1106 10180 20150 30084 40175 58004 60006 90000=
07005,1996-08-19 06:00:00,16,1016.4,-0.3,82,13,8000,7.408,,,140,15.7,26.4,,,,,,,,,wg-a,,,,AAXX 19064 07005 12/58 01404 10160 20130 30073 40164 55003 60006 80000 90600 333 10264 20157=
07005,1996-08-19 12:00:00,27,1014,-1.5,42,13,15000,18.52,,,110,,,,,,,,,,,wg-a,,,,AAXX 19124 07005 12765 11110 10270 20130 30052 40140 56015 60006 81100 91200=
07005,1996-08-19 18:00:00,27,1012,-0.6,45,14,15000,11.112,,,110,16.5,28.7,,,,,,,,,wg-a,,,,AAXX 19184 07005 12865 11106 10270 20140 30032 40120 56006 60006 814/0 91800 333 10287 20165=
07005,1996-08-20 00:00:00,19,1011.8,-0.5,68,13,0,11.112,,,130,,,,,,,,,,,wg-a,,,,AAXX 20004 07005 12/// /1306 10190 20130 30028 40118 58005 60006 90000=
07005,1996-08-20 06:00:00,17,1010.7,-0.3,77,13,0,14.816,,,130,16.8,26.7,,,,,,,,,wg-a,,,,AAXX 20064 07005 12/// /1308 10170 20130 30017 40107 58003 60006 90600 333 10267 20168=
07005,1996-08-20 12:00:00,26,1011.2,0.9,54,16,10000,22.224,,,300,,,,,,,,,,,wg-a,,,,AAXX 20124 07005 12/60 73012 10260 20160 30024 40112 53009 60006 8709/ 91200=
07005,1996-08-20 18:00:00,20,1012.5,0.5,78,16,7000,14.816,,,280,17.5,27.8,,,,,,,,2,wg-a,,,,AAXX 20184 07005 02/57 72808 10200 20160 30035 40125 52005 61000 70262 85072 91800 333 10278 20175 ////=
07005,1996-08-21 00:00:00,17,1013.1,0.2,88,15,0,11.112,,,290,,,,,,,,,,,wg-a,,,,AAXX 21004 07005 12/// /2906 10170 20150 30040 40131 53002 60006 90000=
07005,1996-08-21 06:00:00,15,1012.6,-0.3,94,14,10000,7.408,,,270,14.6,19.6,,,,,1,,,1,wg-a,,,,AAXX 21064 07005 12/60 62704 10150 20140 30035 40126 55003 60014 70162 86030 90600 333 10196 20146=
07005,1996-08-21 12:00:00,20,1013.8,0.6,68,14,500,22.224,,,290,,,,,,,,,,,wg-a,,,,AAXX 21124 07005 12500 72912 10200 20140 30048 40138 53006 60006 85842 91200=
07005,1996-08-21 18:00:00,19,1013.2,0.2,73,14,500,14.816,,,320,14.7,20.9,,,,,,,,,wg-a,,,,AAXX 21184 07005 12800 53208 10190 20140 30042 40132 52002 60006 81542 91800 333 10209 20147=
07005,1996-08-22 00:00:00,14,1014.4,0,94,13,0,11.112,,,290,,,,,,,,,,,wg-a,,,,AAXX 22004 07005 12/// /2906 10140 20130 30052 40144 50000 60006 90000=
07005,1996-08-22 06:00:00,13,1014.8,0.4,94,12,20000,7.408,,,230,11.9,18.9,,0,,,,,,,wg-a,,,,AAXX 22064 07005 02470 42304 10130 20120 30056 40148 53004 60004 81272 90600 333 10189 20119 60007=
07005,1996-08-22 12:00:00,22,1014.2,-0.8,46,10,40000,22.224,,,240,,,,,,,,,,,wg-a,,,,AAXX 22124 07005 12582 52412 10220 20100 30053 40142 56008 60006 84240 91200=
07005,1996-08-22 18:00:00,23,1011.4,-1.3,47,11,40000,22.224,,,160,12.7,24.3,,,,,,,,,wg-a,,,,AAXX 22184 07005 12682 11612 10230 20110 30025 40114 56013 60006 81200 91800 333 10243 20127=
07005,1996-08-23 00:00:00,17,1011,-1.4,82,14,0,22.224,,,150,,,,,,,,,,,wg-a,,,,AAXX 23004 07005 12/// /1512 10170 20140 30020 40110 58014 60006 90000=
07005,1996-08-23 06:00:00,17,1007.3,-1.6,77,13,20000,29.632,,,160,16.6,22.8,,,,,,,,,wg-a,,,,AAXX 23064 07005 12570 71616 10170 20130 39983 40073 56016 60006 82572 90600 333 10228 20166=
07005,1996-08-23 12:00:00,19,1006,0.5,88,17,15000,25.928,,,220,,,,1,,,,,,21,wg-a,,,,AAXX 23124 07005 02465 82214 10190 20170 39971 40060 53005 60016 72162 872// 91200 333 60017=
07005,1996-08-23 18:00:00,20,1007.8,-0.5,64,13,35000,3.704,,,280,16,22.7,,,,,,,,1,wg-a,,,,AAXX 23184 07005 32581 12802 10200 20130 39989 40078 57005 70161 81130 91800 333 10227 20160=
07005,1996-08-24 06:00:00,14,1007.9,-0.4,88,12,500,7.408,,,150,13.4,19.8,,,,,5,,,,wg-a,,,,AAXX 24064 07005 02400 31504 10140 20120 39988 40079 55004 60006 81942 90600 333 10198 20134 60054=
07005,1996-08-24 12:00:00,16,1007.7,-0.2,94,15,25000,18.52,,,220,,,,3,,,,,,25,wg-a,,,,AAXX 24124 07005 02575 62210 10160 20150 39987 40077 56002 60036 72581 85942 91200 333 60037=
07005,1996-08-24 18:00:00,18,1008.1,-0,73,13,0,22.224,,,270,13.8,18.2,,,,,,,,,wg-a,,,,AAXX 24184 07005 32/// /2712 10180 20130 39991 40081 55000 91800 333 10182 20138=
07005,1996-08-25 00:00:00,14,1009.7,0.2,88,12,0,18.52,,,230,,,,,,,,,,,wg-a,,,,AAXX 25004 07005 12/// /2310 10140 20120 30006 40097 53002 60006 90000=
07005,1996-08-25 06:00:00,14,1010.5,0.9,88,12,15000,14.816,,,200,13.3,17.7,,1,,,14,,,2,wg-a,,,,AAXX 25064 07005 02565 72008 10140 20120 30013 40105 53009 60144 70286 878// 90600 333 10177 20133 60017=
07005,1996-08-25 12:00:00,17,1012,0.4,82,14,25000,22.224,,,220,,,,1,,,,,,,wg-a,,,,AAXX 25124 07005 02575 82212 10170 20140 30029 40120 51004 60016 872// 91200 333 60017=
07005,1996-08-25 18:00:00,16,1012.6,0.3,82,13,0,14.816,,,270,13.7,18.3,,,,,,,,,wg-a,,,,AAXX 25184 07005 32/// /2708 10160 20130 30035 40126 53003 91800 333 10183 20137=
07005,1996-08-26 00:00:00,12,1013.7,-0.2,94,11,0,11.112,,,190,,,,,,,,,,,wg-a,,,,AAXX 26004 07005 12/// /1906 10120 20110 30044 40137 58002 60006 90000=
07005,1996-08-26 06:00:00,12,1014.1,0.3,88,10,15000,11.112,,,200,10.8,16.5,,0,,,8,,,,wg-a,,,,AAXX 26064 07005 02565 22006 10120 20100 30048 40141 53003 60084 82800 90600 333 10165 20108 60007=
07005,1996-08-26 12:00:00,17,1015.3,0.4,72,12,25000,14.816,,,290,,,,,,,,,,,wg-a,,,,AAXX 26124 07005 12575 72908 10170 20120 30062 40153 51004 60006 878// 91200=
07005,1996-08-26 18:00:00,16,1015.4,0.5,82,13,25000,11.112,,,300,11.7,18.9,,,,,,,,,wg-a,,,,AAXX 26184 07005 12675 63006 10160 20130 30063 40154 53005 60006 86800 91800 333 10189 20117=
07005,1996-08-27 00:00:00,12,1016.8,0,94,11,0,7.408,,,180,,,,,,,,,,,wg-a,,,,AAXX 27004 07005 12/// /1804 10120 20110 30075 40168 50000 60006 90000=
07005,1996-08-27 06:00:00,12,1016.8,0.3,94,11,15000,11.112,,,150,11.1,16.3,,1,,,1,,,61,wg-a,,,,AAXX 27064 07005 02465 71506 10120 20110 30075 40168 53003 60014 7618/ 8687/ 90600 333 10163 20111 60017=
07005,1996-08-27 12:00:00,18,1016.6,-0.5,68,12,0,3.704,,,280,,,,,,,,,,,wg-a,,,,AAXX 27124 07005 12/// /2802 10180 20120 30075 40166 58005 60006 91200=
07005,1996-08-28 00:00:00,11,1017.7,-0.3,94,10,0,7.408,,,220,,,,,,,,,,,wg-a,,,,AAXX 28004 07005 12/// /2204 10110 20100 30084 40177 58003 60006 90000=
07005,1996-08-28 06:00:00,11,1016.9,-0.2,94,10,500,14.816,,,270,9.9,16.7,,,,,,,,,wg-a,,,,AAXX 28064 07005 12400 72708 10110 20100 30076 40169 56002 60004 84902 90600 333 10167 20099=
07005,1996-08-28 12:00:00,18,1016.6,-0.7,64,11,15000,22.224,,,290,,,,,,,,,,2,wg-a,,,,AAXX 28124 07005 12465 62912 10180 20110 30075 40166 57007 60006 70232 83202 91200=
07005,1996-08-28 18:00:00,16,1015.5,-0.6,82,13,20000,22.224,,,290,11,19.2,,,,,,,,,wg-a,,,,AAXX 28184 07005 32570 62912 10160 20130 30064 40155 57006 82902 91800 333 10192 20110=
07005,1996-08-29 00:00:00,14,1013.9,-1.3,88,12,0,22.224,,,300,,,,,,,,,,,wg-a,,,,AAXX 29004 07005 12/// /3012 10140 20120 30047 40139 58013 60006 90000=
07005,1996-08-29 06:00:00,13,1011.7,-0.5,94,12,4500,31.484,,,310,12.9,16.3,,1,,,1,,,61,wg-a,,,,AAXX 29064 07005 02445 83117 10130 20120 30025 40117 55005 60014 761// 8777/ 90600 333 10163 20129 60017=
07005,1996-08-29 12:00:00,13,1012.1,0.7,94,12,4500,35.188,,,290,,,,8,,,,,,61,wg-a,,,,AAXX 29124 07005 02345 82919 10130 20120 30029 40121 51007 60166 76166 888// 91200 333 60087=
07005,1996-08-29 18:00:00,15,1012.9,0.3,72,10,12000,25.928,,,300,12.8,14.6,,0,,,,,,21,wg-a,,,,AAXX 29184 07005 12462 83014 10150 20100 30037 40129 51003 60007 72162 878// 91800 333 10146 20128=
07005,1996-08-30 00:00:00,13,1014.9,0.7,94,12,0,25.928,,,280,,,,,,,,,,,wg-a,,,,AAXX 30004 07005 12/// /2814 10130 20120 30057 40149 51007 60066 90000=
07005,1996-08-30 06:00:00,13,1017.2,1.7,94,12,9000,25.928,,,310,12.7,15,,4,,,32,,,2,wg-a,,,,AAXX 30064 07005 02459 73114 10130 20120 30080 40172 53017 60324 70262 878// 90600 333 10150 20127 60047=
07005,1996-08-30 12:00:00,15,1020.3,1.1,77,11,20000,29.632,,,300,,,,,,,,,,,wg-a,,,,AAXX 30124 07005 12570 73016 10150 20110 30111 40203 51011 60006 872// 91200=
07005,1996-08-30 18:00:00,16,1022.4,0.6,77,12,20000,14.816,,,290,13.3,16,,,,,,,,,wg-a,,,,AAXX 30184 07005 12570 72908 10160 20120 30132 40224 53006 60006 878// 91800 333 10160 20133=
07005,1996-08-31 00:00:00,13,1024.5,0.9,94,12,0,3.704,,,280,,,,,,,,,,,wg-a,,,,AAXX 31004 07005 12/// /2802 10130 20120 30152 40245 51009 60026 90000=
07005,1996-08-31 06:00:00,11,1025.9,0.8,94,10,4500,3.704,,,190,10.4,15.5,,0,,,2,,,10,wg-a,,,,AAXX 31064 07005 02645 71902 10110 20100 30165 40259 53008 60024 710// 8453/ 90600 333 10155 20104 60007=
07005,1996-08-31 12:00:00,17,1026.6,0,72,12,15000,18.52,,,300,,,,,,,,,,1,wg-a,,,,AAXX 31124 07005 02565 63010 10170 20120 30174 40266 50000 61000 70182 85801 91200 333 6100=
07005,1996-08-31 18:00:00,15,1027.5,0.3,82,12,0,11.112,,,80,10.8,17.7,,,,,,,,,wg-a,,,,AAXX 31184 07005 32/// /0806 10150 20120 30182 40275 53003 91800 333 10177 20108=
07005,1996-09-01 00:00:00,10,1028.8,0.1,93,9,0,0,,,0,,,,,,,,,,,wg-a,,,,AAXX 01004 07005 12/// /0000 10100 20090 30194 40288 51001 60006 90000=
07005,1996-09-01 06:00:00,9,1029.3,0.1,93,8,4000,3.704,,,150,8.4,14.8,,0,,,,,,28,wg-a,,,,AAXX 01064 07005 02/40 51502 10090 20080 30198 40293 53001 60004 7284/ 81031 90600 333 10148 20084 60007=
07005,1996-09-01 12:00:00,17,1029.1,-1,68,11,20000,11.112,,,330,,,,,,,,,,,wg-a,,,,AAXX 01124 07005 12570 63306 10170 20110 30199 40291 58010 60006 83801 91200=
07005,1996-09-01 18:00:00,15,1028.4,-0.4,77,11,0,11.112,,,340,8.5,17.1,,,,,,,,,wg-a,,,,AAXX 01184 07005 12/// /3406 10150 20110 30191 40284 56004 60006 91800 333 10171 20085=
07005,1996-09-02 00:00:00,11,1028.4,-0.5,94,10,0,7.408,,,80,,,,,,,,,,,wg-a,,,,AAXX 02004 07005 12/// /0804 10110 20100 30190 40284 58005 60006 90000=
07005,1996-09-02 06:00:00,9,1028.1,-0.2,100,9,2000,7.408,,,160,8.9,15.1,,0,,,,,,10,wg-a,,,,AAXX 02064 07005 02720 41604 10090 20090 30186 40281 55002 60004 710// 835/2 90600 333 10151 20089 60007=
07005,1996-09-02 12:00:00,19,1027.1,-0.8,49,8,20000,11.112,,,70,,,,,,,,,,,wg-a,,,,AAXX 02124 07005 12670 40706 10190 20080 30179 40271 57008 60006 84200 91200=
07005,1996-09-02 18:00:00,17,1025.5,-0.7,77,13,20000,14.816,,,330,9.4,20.2,,,,,,,,,wg-a,,,,AAXX 02184 07005 12/70 23308 10170 20130 30163 40255 56007 60006 81032 91800 333 10202 20094=
07005,1996-09-03 00:00:00,10,1025.6,-0.5,87,8,0,11.112,,,60,,,,,,,,,,,wg-a,,,,AAXX 03004 07005 12/// /0606 10100 20080 30162 40256 56005 60006 90000=
07005,1996-09-03 06:00:00,9,1024.5,-0.2,93,8,2500,14.816,,,60,8.6,16.6,,0,,,,,,10,wg-a,,,,AAXX 03064 07005 02/25 00608 10090 20080 30150 40245 55002 60004 71000 80000 90600 333 10166 20086 60007=
07005,1996-09-03 12:00:00,18,1023,-1.1,56,9,12000,25.928,,,70,,,,,,,,,,,wg-a,,,,AAXX 03124 07005 12662 20714 10180 20090 30139 40230 58011 60006 82100 91200=
07005,1996-09-03 18:00:00,18,1022.2,-0.2,59,10,10000,18.52,,,50,9,20.1,,,,,,,,,wg-a,,,,AAXX 03184 07005 12/60 10510 10180 20100 30130 40222 55002 60006 80001 91800 333 10201 20090=
07005,1996-09-04 00:00:00,13,1022.4,-0.7,88,11,0,14.816,,,50,,,,,,,,,,,wg-a,,,,AAXX 04004 07005 12/// /0508 10130 20110 30131 40224 58007 60006 90000=
07005,1996-09-04 06:00:00,12,1022.1,0.2,94,11,2000,22.224,,,50,11.9,17.5,,,,,,,,10,wg-a,,,,AAXX 04064 07005 12/20 00512 10120 20110 30128 40221 53002 60006 71000 80000 90600 333 10175 20119=
07005,1996-09-04 12:00:00,21,1021.3,-0.5,60,13,7000,25.928,,,50,,,,,,,,,,,wg-a,,,,AAXX 04124 07005 12/57 00514 10210 20130 30123 40213 57005 60006 80000 91200=
07005,1996-09-04 18:00:00,17,1020.8,0.3,72,12,7000,22.224,,,40,12.1,22,,,,,,,,,wg-a,,,,AAXX 04184 07005 12557 20412 10170 20120 30116 40208 52003 60006 82502 91800 333 10220 20121=
07005,1996-09-05 00:00:00,11,1021.5,-0.2,87,9,0,3.704,,,30,,,,,,,,,,,wg-a,,,,AAXX 05004 07005 12/// /0302 10110 20090 30121 40215 56002 60006 90000=
07005,1996-09-05 06:00:00,8,1021.3,-0.1,93,7,6000,11.112,,,30,8,16.5,,,,,,,,,wg-a,,,,AAXX 05064 07005 12656 10306 10080 20070 30119 40213 55001 60006 81500 90600 333 10165 20080=
07005,1996-09-05 12:00:00,19,1020.2,-1,56,10,20000,29.632,,,80,,,,,,,,,,,wg-a,,,,AAXX 05124 07005 12570 30816 10190 20100 30111 40202 58010 60006 83200 91200=
07005,1996-09-05 18:00:00,18,1019.3,-0.1,64,11,25000,11.112,,,90,8.4,20.5,,,,,,,,,wg-a,,,,AAXX 05184 07005 32775 10906 10180 20110 30102 40193 55001 814/0 91800 333 10205 20084=
07005,1996-09-06 00:00:00,11,1021.5,0.6,94,10,0,11.112,,,60,,,,,,,,,,,wg-a,,,,AAXX 06004 07005 12/// /0606 10110 20100 30121 40215 52006 60006 90000=
07005,1996-09-06 06:00:00,8,1022.1,0.5,100,8,2200,3.704,,,80,8,17.5,,0,,,,,,10,wg-a,,,,AAXX 06064 07005 02/22 10802 10080 20080 30126 40221 51005 60004 710// 80001 90600 333 10175 20080 60007=
07005,1996-09-06 12:00:00,19,1021.8,-0.7,49,8,13000,14.816,,,40,,,,,,,,,,,wg-a,,,,AAXX 06124 07005 12663 10408 10190 20080 30127 40218 57007 60006 81100 91200=
07005,1996-09-06 18:00:00,17,1021,0.1,63,10,12000,14.816,,,30,8.2,20.3,,,,,,,,,wg-a,,,,AAXX 06184 07005 12662 10308 10170 20100 30118 40210 53001 60006 81101 91800 333 10203 20082=
07005,1996-09-07 00:00:00,10,1023.4,0.8,93,9,0,7.408,,,50,,,,,,,,,,,wg-a,,,,AAXX 07004 07005 12/// /0504 10100 20090 30140 40234 51008 60006 90000=
07005,1996-09-07 06:00:00,9,1024.2,0.3,93,8,3500,14.816,,,70,8.1,17.2,,,,,,,,10,wg-a,,,,AAXX 07064 07005 12235 10708 10090 20080 30147 40242 53003 60004 710// 81500 90600 333 10172 20081=
07005,1996-09-07 12:00:00,18,1025.3,0.2,52,8,25000,11.112,,,100,,,,,,,,,,,wg-a,,,,AAXX 07124 07005 12575 51006 10180 20080 30161 40253 51002 60006 85200 91200=
07005,1996-09-07 18:00:00,16,1025,0.6,59,8,0,11.112,,,50,8.9,19.8,,,,,,,,,wg-a,,,,AAXX 07184 07005 12/// /0506 10160 20080 30158 40250 53006 60006 91800 333 10198 20089=
07005,1996-09-08 00:00:00,9,1026.3,0.2,87,7,0,14.816,,,70,,,,,,,,,,,wg-a,,,,AAXX 08004 07005 12/// /0708 10090 20070 30168 40263 53002 60006 90000=
07005,1996-09-08 06:00:00,7,1026.4,0.2,93,6,3000,14.816,,,70,7.1,15.9,,0,,,,,,10,wg-a,,,,AAXX 08064 07005 02730 30708 10070 20060 30169 40264 53002 60004 710// 815/2 90600 333 10159 20071 60007=
07005,1996-09-08 12:00:00,17,1025.9,-0.5,48,6,25000,25.928,,,50,,,,,,,,,,,wg-a,,,,AAXX 08124 07005 12675 20514 10170 20060 30167 40259 56005 60006 82200 91200=
07005,1996-09-08 18:00:00,15,1024.7,0.3,59,7,0,22.224,,,30,7.5,18,,,,,,,,,wg-a,,,,AAXX 08184 07005 12/// /0312 10150 20070 30155 40247 51003 60006 91800 333 10180 20075=
07005,1996-09-09 00:00:00,12,1024.2,-0.4,94,11,0,11.112,,,10,,,,,,,,,,,wg-a,,,,AAXX 09004 07005 12/// /0106 10120 20110 30149 40242 58004 60006 90000=
07005,1996-09-09 06:00:00,8,1024.7,0.8,100,8,600,7.408,,,50,8,15.4,,,,,,,,46,wg-a,,,,AAXX 09064 07005 12206 20504 10080 20080 30152 40247 53008 60006 74640 82530 90600 333 10154 20080=
07005,1996-09-09 12:00:00,17,1024.4,-0.5,59,9,20000,18.52,,,30,,,,,,,,,,,wg-a,,,,AAXX 09124 07005 12670 70310 10170 20090 30152 40244 58005 60006 8383/ 91200=
07005,1996-09-09 18:00:00,14,1024,0.6,94,13,6000,11.112,,,350,8,18.4,,0,,,,,,21,wg-a,,,,AAXX 09184 07005 12556 73506 10140 20130 30147 40240 53006 60007 72165 8683/ 91800 333 10184 20080=
07005,1996-09-10 00:00:00,12,1024,-0.4,100,12,0,7.408,,,310,,,,,,,,,,,wg-a,,,,AAXX 10004 07005 12/// /3104 10120 20120 30147 40240 58004 60006 90000=
07005,1996-09-10 06:00:00,11,1023,-0.3,94,10,15000,7.408,,,300,10.6,13.9,,,,,2,,,3,wg-a,,,,AAXX 10064 07005 12565 73004 10110 20100 30136 40230 55003 60024 70362 82532 90600 333 10139 20106=
07005,1996-09-10 12:00:00,15,1022.6,-0.5,72,10,25000,22.224,,,360,,,,,,,,,,,wg-a,,,,AAXX 10124 07005 12575 73612 10150 20100 30134 40226 58005 60006 878// 91200=
07005,1996-09-10 18:00:00,15,1021.1,-0.1,72,10,20000,14.816,,,10,10.5,17.5,,,,,,,,,wg-a,,,,AAXX 10184 07005 12570 60108 10150 20100 30119 40211 55001 60006 86800 91800 333 10175 20105=
07005,1996-09-11 00:00:00,12,1020.8,-0.7,88,10,0,7.408,,,320,,,,,,,,,,,wg-a,,,,AAXX 11004 07005 12/// /3204 10120 20100 30115 40208 58007 60006 90000=
07005,1996-09-11 06:00:00,11,1019.8,-0.4,100,11,3000,3.704,,,300,11.3,14.6,,0,,,1,,,61,wg-a,,,,AAXX 11064 07005 02330 83002 10110 20110 30105 40198 55004 60014 76164 878// 90600 333 10146 20113 60007=
07005,1996-09-11 12:00:00,16,1018.3,-1.3,77,12,20000,14.816,,,30,,,,,,,,,,1,wg-a,,,,AAXX 11124 07005 02570 70308 10160 20120 30091 40183 56013 61000 70162 858/2 91200 333 ////=
07005,1996-09-11 18:00:00,14,1016.2,-0.7,72,9,25000,14.816,,,320,11.4,16.6,,,,,,,,,wg-a,,,,AAXX 11184 07005 32575 73208 10140 20090 30070 40162 56007 878// 91800 333 10166 20114=
07005,1996-09-12 00:00:00,11,1013.7,-1.8,94,10,0,11.112,,,250,,,,,,,,,,,wg-a,,,,AAXX 12004 07005 12/// /2506 10110 20100 30044 40137 58018 60006 90000=
07005,1996-09-12 06:00:00,14,1010,-1.1,82,11,10000,18.52,,,320,10.4,14.3,,,,,,,,,wg-a,,,,AAXX 12064 07005 02460 83210 10140 20110 30008 40100 56011 60006 878// 90600 333 10143 20104 61000=
07005,1996-09-12 12:00:00,17,1009.8,0.2,55,8,15000,31.484,,,350,,,,,,,,,,,wg-a,,,,AAXX 12124 07005 12665 53517 10170 20080 30007 40098 50002 60006 85200 91200=
07005,1996-09-12 18:00:00,12,1010.8,0.3,88,10,14000,14.816,,,340,12.2,18,,1,,,,,,3,wg-a,,,,AAXX 12184 07005 12564 73408 10120 20100 30016 40108 51003 60017 70388 879// 91800 333 10180 20122=
07005,1996-09-13 00:00:00,10,1012.6,0.5,76,6,0,18.52,,,330,,,,,,,,,,,wg-a,,,,AAXX 13004 07005 12/// /3310 10100 20060 30033 40126 51005 60006 90000=
07005,1996-09-13 06:00:00,10,1013.3,0.3,82,7,13000,29.632,,,320,8.7,12.3,,,,,1,,,,wg-a,,,,AAXX 13064 07005 02563 33216 10100 20070 30040 40133 53003 60006 83800 90600 333 10123 20087 60014=
07005,1996-09-13 12:00:00,14,1015.7,0.9,67,8,15000,22.224,,,330,,,,,,,,,,25,wg-a,,,,AAXX 13124 07005 02565 63312 10140 20080 30065 40157 53009 61000 72582 86802 91200 333 6100=
07005,1996-09-13 18:00:00,14,1018.3,1.6,63,7,20000,22.224,,,350,9.7,15.5,,,,,,,,1,wg-a,,,,AAXX 13184 07005 02570 53512 10140 20070 30091 40183 53016 61000 70182 85800 91800 333 10155 20097 ////=
07005,1996-09-14 00:00:00,11,1020.7,0.9,82,8,0,22.224,,,350,,,,,,,,,,,wg-a,,,,AAXX 14004 07005 12/// /3512 10110 20080 30114 40207 51009 60006 90000=
07005,1996-09-14 06:00:00,9,1022.4,0.9,93,8,12000,14.816,,,320,8.7,13.6,,,,,,,,,wg-a,,,,AAXX 14064 07005 02562 13208 10090 20080 30130 40224 53009 60006 81130 90600 333 10136 20087 61000=
07005,1996-09-14 12:00:00,17,1023.7,-0.1,55,8,20000,18.52,,,10,,,,,,,,,,,wg-a,,,,AAXX 14124 07005 12570 40110 10170 20080 30145 40237 55001 60006 84800 91200=
07005,1996-09-14 18:00:00,14,1024.4,0.7,63,7,0,14.816,,,340,9.5,18.1,,,,,,,,,wg-a,,,,AAXX 14184 07005 12/// /3408 10140 20070 30151 40244 53007 60006 91800 333 10181 20095=
07005,1996-09-15 00:00:00,8,1025.6,0.3,93,7,0,7.408,,,290,,,,,,,,,,,wg-a,,,,AAXX 15004 07005 12/// /2904 10080 20070 30161 40256 53003 60006 90000=
07005,1996-09-15 06:00:00,7,1025.2,-0,93,6,12000,7.408,,,180,5.7,13.9,,0,,,,,,,wg-a,,,,AAXX 15064 07005 02/62 11804 10070 20060 30157 40252 55000 60004 80002 90600 333 10139 20057 60007=
07005,1996-09-15 12:00:00,17,1025.5,-0.3,68,11,20000,14.816,,,320,,,,,,,,,,,wg-a,,,,AAXX 15124 07005 12570 73208 10170 20110 30163 40255 57003 60006 878// 91200=
07005,1996-09-15 18:00:00,16,1024.9,-0,63,9,0,3.704,,,80,6.1,18.1,,,,,,,,,wg-a,,,,AAXX 15184 07005 12/// /0802 10160 20090 30157 40249 55000 60006 91800 333 10181 20061=
07005,1996-09-16 00:00:00,10,1025.4,-0.2,87,8,0,11.112,,,110,,,,,,,,,,,wg-a,,,,AAXX 16004 07005 12/// /1106 10100 20080 30160 40254 58002 60006 90000=
07005,1996-09-16 06:00:00,6,1024.8,-0.4,100,6,1100,11.112,,,100,6.1,15.8,,0,,,,,,10,wg-a,,,,AAXX 16064 07005 02/11 11006 10060 20060 30152 40248 56004 60004 710// 80001 90600 333 10158 20061 60007=
07005,1996-09-16 12:00:00,18,1023.1,-1.3,49,7,500,25.928,,,120,,,,,,,,,,,wg-a,,,,AAXX 16124 07005 12500 11214 10180 20070 30140 40231 58013 60006 81100 91200=
07005,1996-09-16 18:00:00,15,1020.2,-0.9,59,7,20000,18.52,,,90,6.4,18.8,,,,,,,,,wg-a,,,,AAXX 16184 07005 12/70 00910 10150 20070 30110 40202 56009 60006 80000 91800 333 10188 20064=
07005,1996-09-17 00:00:00,10,1018.9,-0.6,82,7,0,18.52,,,100,,,,,,,,,,,wg-a,,,,AAXX 17004 07005 12/// /1010 10100 20070 30095 40189 58006 60006 90000=
07005,1996-09-17 06:00:00,7,1018,-0.4,87,5,10000,11.112,,,90,7.2,14.7,,,,,,,,,wg-a,,,,AAXX 17064 07005 12/60 00906 10070 20050 30085 40180 55004 60006 80000 90600 333 10147 20072=
07005,1996-09-17 12:00:00,17,1016.2,-0.9,42,4,20000,31.484,,,90,,,,,,,,,,,wg-a,,,,AAXX 17124 07005 12/70 /0917 10170 20040 30071 40162 57009 60006 91200=
07005,1996-09-17 18:00:00,14,1014.8,,58,6,20000,22.224,,,70,7.3,18.2,,,,,,,,,wg-a,,,,AAXX 17184 07005 12/70 00712 10140 20060 30056 40148 60006 80000 91800 333 10182 20073=
07005,1996-09-18 00:00:00,9,1015.7,0.3,71,4,0,22.224,,,90,,,,,,,,,,,wg-a,,,,AAXX 18004 07005 12/// /0912 10090 20040 30063 40157 51003 60006 90000=
07005,1996-09-18 06:00:00,6,1014.1,-0.7,87,4,15000,22.224,,,80,5.7,14.1,,,,,,,,,wg-a,,,,AAXX 18064 07005 12/65 00812 10060 20040 30046 40141 56007 60006 80000 90600 333 10141 20057=
07005,1996-09-18 12:00:00,14,1012,-1.4,55,5,15000,38.892,,,80,,,,,,,,,,,wg-a,,,,AAXX 18124 07005 12665 30821 10140 20050 30028 40120 58014 60006 83100 91200=
07005,1996-09-18 18:00:00,12,1010.7,-0.3,67,6,12000,31.484,,,80,6.4,15.3,,,,,,,,,wg-a,,,,AAXX 18184 07005 12/62 70817 10120 20060 30015 40107 56003 60006 8703/ 91800 333 10153 20064=
07005,1996-09-19 00:00:00,10,1010.2,-0.9,71,5,0,31.484,,,60,,,,,,,,,,,wg-a,,,,AAXX 19004 07005 12/// /0617 10100 20050 30009 40102 57009 60006 90000=
07005,1996-09-19 06:00:00,9,1007.9,-1,81,6,500,25.928,,,60,8.4,12.4,,,,,,,,,wg-a,,,,AAXX 19064 07005 12500 80614 10090 20060 39986 40079 56010 60006 875// 90600 333 10124 20084=
07005,1996-09-19 12:00:00,10,1006.4,-0.6,93,9,2000,22.224,,,60,,,,3,,,,,,61,wg-a,,,,AAXX 19124 07005 02320 80612 10100 20090 39971 40064 56006 60036 76162 877// 91200 333 60037=
07005,1996-09-19 18:00:00,13,1003.7,-0.7,88,11,500,25.928,,,60,8.6,13.4,,,,,,,,1,wg-a,,,,AAXX 19184 07005 32400 80614 10130 20110 39946 40037 58007 70162 8653/ 91800 333 10134 20086=
07005,1996-09-20 00:00:00,12,1004.6,,88,10,0,22.224,,,80,,,,,,,,,,,wg-a,,,,AAXX 20004 07005 12/// /0812 10120 20100 39954 40046 60006 90000=
07005,1996-09-20 06:00:00,11,1004.5,0.2,87,9,4500,7.408,,,100,10.8,14,,,,,5,,,10,wg-a,,,,AAXX 20064 07005 02545 81004 10110 20090 39953 40045 53002 60006 710// 885// 90600 333 10140 20108 60054=
07005,1996-09-20 12:00:00,12,1005.5,0.1,82,9,10000,7.408,,,180,,,,,,,,,,1,wg-a,,,,AAXX 20124 07005 02460 81804 10120 20090 39963 40055 52001 61000 70162 878// 91200 333 6100=
07005,1996-09-20 18:00:00,12,1005.7,0.5,88,10,15000,11.112,,,80,10.8,14.2,,,,,,,,,wg-a,,,,AAXX 20184 07005 32665 80806 10120 20100 39965 40057 52005 8557/ 91800 333 10142 20108=
07005,1996-09-21 00:00:00,9,1005.9,-0.6,93,8,0,14.816,,,70,,,,,,,,,,,wg-a,,,,AAXX 21004 07005 12/// /0708 10090 20080 39966 40059 56006 60006 90000=
07005,1996-09-21 06:00:00,10,1005.7,0.1,100,10,900,7.408,,,50,8,12.3,,,,,,,,42,wg-a,,,,AAXX 21064 07005 02109 80504 10100 20100 39965 40057 53001 60006 7424/ 886// 90600 333 10123 20080 61000=
07005,1996-09-21 18:00:00,12,1007.6,1,82,9,0,14.816,,,50,10,15.2,,,,,,,,,wg-a,,,,AAXX 21184 07005 12/// /0508 10120 20090 39984 40076 53010 60006 91800 333 10152 20100=
07005,1996-09-22 00:00:00,10,1009.1,0.5,87,8,0,7.408,,,10,,,,,,,,,,,wg-a,,,,AAXX 22004 07005 12/// /0104 10100 20080 39998 40091 52005 60006 90000=
07005,1996-09-22 06:00:00,8,1009.8,0.5,93,7,2500,11.112,,,20,7.7,11.8,,,,,,,,10,wg-a,,,,AAXX 22064 07005 12325 80206 10080 20070 30004 40098 53005 60006 710// 886// 90600 333 10118 20077=
07005,1996-09-22 12:00:00,13,1010.7,0,67,7,500,14.816,,,50,,,,,,,,,,,wg-a,,,,AAXX 22124 07005 12400 70508 10130 20070 30015 40107 50000 60006 875// 91200=
07005,1996-09-22 18:00:00,11,1010.5,0.2,87,9,0,11.112,,,320,8.1,13.3,,,,,,,,,wg-a,,,,AAXX 22184 07005 12/// /3206 10110 20090 30012 40105 52002 60006 91800 333 10133 20081=
07005,1996-09-23 00:00:00,9,1009.9,-0.4,100,9,0,7.408,,,50,,,,,,,,,,,wg-a,,,,AAXX 23004 07005 12/// /0504 10090 20090 30006 40099 56004 60006 90000=
07005,1996-09-23 06:00:00,8,1009.5,-0,93,7,700,7.408,,,340,7,11.1,,,,,,,,44,wg-a,,,,AAXX 23064 07005 12107 83404 10080 20070 30001 40095 55000 60006 74442 886// 90600 333 10111 20070=
07005,1996-09-23 12:00:00,13,1009.5,-0.3,72,8,10000,3.704,,,10,,,,,,,,,,3,wg-a,,,,AAXX 23124 07005 12560 70102 10130 20080 30003 40095 58003 60006 70342 878// 91200=
07005,1996-09-23 18:00:00,12,1010.4,1,82,9,15000,7.408,,,310,7.7,13.8,,,,,,,,,wg-a,,,,AAXX 23184 07005 12565 73104 10120 20090 30012 40104 53010 60006 878// 91800 333 10138 20077=
07005,1996-09-24 00:00:00,8,1011.4,-0.1,93,7,0,7.408,,,220,,,,,,,,,,,wg-a,,,,AAXX 24004 07005 12/// /2204 10080 20070 30020 40114 58001 60006 90000=
07005,1996-09-24 06:00:00,5,1012,0.5,93,4,100,7.408,,,180,3.6,12.1,,0,,,,,,42,wg-a,,,,AAXX 24064 07005 02101 71804 10050 20040 30025 40120 53005 60004 742// 876// 90600 333 10121 20036 60007=
07005,1996-09-24 12:00:00,15,1011.9,0.1,72,10,7000,14.816,,,310,,,,,,,,,,,wg-a,,,,AAXX 24124 07005 12557 83108 10150 20100 30028 40119 51001 60006 888// 91200=
07005,1996-09-24 18:00:00,13,1011.3,0.1,77,9,12000,7.408,,,310,4.6,16.3,,,,,,,,,wg-a,,,,AAXX 24184 07005 12/62 73104 10130 20090 30021 40113 53001 60006 82032 91800 333 10163 20046=
07005,1996-09-25 00:00:00,11,1009.5,-1.3,87,9,0,14.816,,,140,,,,,,,,,,,wg-a,,,,AAXX 25004 07005 12/// /1408 10110 20090 30002 40095 56013 60006 90000=
07005,1996-09-25 06:00:00,11,1007.7,-0.5,87,9,3500,18.52,,,140,9.5,12.5,,,,,,,,10,wg-a,,,,AAXX 25064 07005 12535 71410 10110 20090 39985 40077 55005 60006 710// 875// 90600 333 10125 20095=
07005,1996-09-25 12:00:00,17,1009.6,0.7,68,11,6000,14.816,,,140,,,,,,,,,,,wg-a,,,,AAXX 25124 07005 02656 51408 10170 20110 30005 40096 51007 61000 82240 91200 333 6100=
07005,1996-09-25 18:00:00,15,1012.6,2.3,88,13,7000,0,,,0,11.3,18.2,,0,,,,,,,wg-a,,,,AAXX 25184 07005 12557 70000 10150 20130 30035 40126 53023 60007 878// 91800 333 10182 20113=
07005,1996-09-26 00:00:00,10,1015.4,0.8,100,10,0,11.112,,,160,,,,,,,,,,,wg-a,,,,AAXX 26004 07005 12/// /1606 10100 20100 30061 40154 53008 60006 90000=
07005,1996-09-26 06:00:00,10,1016,-0,93,9,0,14.816,,,190,9.1,14.6,,,,,1,,,,wg-a,,,,AAXX 26064 07005 12/// /1908 10100 20090 30067 40160 55000 60014 90600 333 10146 20091=
07005,1996-09-26 12:00:00,16,1016.2,-0.7,77,12,15000,22.224,,,220,,,,,,,,,,,wg-a,,,,AAXX 26124 07005 12565 62212 10160 20120 30071 40162 58007 60006 83202 91200=
07005,1996-09-26 18:00:00,16,1013.3,-0.8,72,11,20000,18.52,,,200,9.8,18.1,,,,,,,,,wg-a,,,,AAXX 26184 07005 12570 82010 10160 20110 30042 40133 56008 60006 8457/ 91800 333 10181 20098=
07005,1996-09-27 00:00:00,14,1010.2,-1.6,94,13,0,18.52,,,190,,,,,,,,,,,wg-a,,,,AAXX 27004 07005 12/// /1910 10140 20130 30010 40102 57016 60016 90000=
07005,1996-09-27 06:00:00,14,1010.5,0.6,94,13,15000,11.112,,,240,13.3,16.3,,0,,,2,,,2,wg-a,,,,AAXX 27064 07005 02465 72406 10140 20130 30013 40105 53006 60024 70286 878// 90600 333 10163 20133 60007=
07005,1996-09-27 12:00:00,16,1012,0.6,88,14,15000,29.632,,,270,,,,0,,,,,,1,wg-a,,,,AAXX 27124 07005 02465 72716 10160 20140 30029 40120 53006 60006 70182 878// 91200 333 60007=
07005,1996-09-27 18:00:00,15,1015.7,2.3,88,13,15000,25.928,,,270,13.9,17.2,,,,,,,,,wg-a,,,,AAXX 27184 07005 32465 72714 10150 20130 30065 40157 51023 872// 91800 333 10172 20139=
07005,1996-09-28 00:00:00,13,1020.7,1.8,82,10,0,14.816,,,280,,,,,,,,,,,wg-a,,,,AAXX 28004 07005 12/// /2808 10130 20100 30114 40207 52018 60006 90000=
07005,1996-09-28 06:00:00,11,1022.8,0.9,94,10,15000,18.52,,,210,11,15.1,,1,,,2,,,2,wg-a,,,,AAXX 28064 07005 02465 52110 10110 20100 30134 40228 51009 60024 7028/ 84201 90600 333 10151 20110 60017=
07005,1996-09-28 12:00:00,17,1024.8,0.4,68,11,20000,25.928,,,250,,,,,,,,,,,wg-a,,,,AAXX 28124 07005 12570 72514 10170 20110 30156 40248 52004 60006 868/2 91200=
07005,1996-09-28 18:00:00,14,1024.6,0.4,82,11,0,7.408,,,260,11.2,18.1,,,,,,,,,wg-a,,,,AAXX 28184 07005 12/// /2604 10140 20110 30153 40246 51004 60006 91800 333 10181 20112=
07005,1996-09-29 00:00:00,13,1022.1,-1.7,82,10,0,18.52,,,190,,,,,,,,,,,wg-a,,,,AAXX 29004 07005 12/// /1910 10130 20100 30128 40221 58017 60006 90000=
07005,1996-09-29 06:00:00,14,1019.2,-1.2,77,10,25000,22.224,,,220,11.4,14.1,,,,,,,,,wg-a,,,,AAXX 29064 07005 12/75 72212 10140 20100 30100 40192 56012 60006 8707/ 90600 333 10141 20114=
07005,1996-09-29 12:00:00,19,1018.7,-0.6,78,15,20000,31.484,,,240,,,,,,,,,,,wg-a,,,,AAXX 29124 07005 12470 72417 10190 20150 30096 40187 58006 60006 8557/ 91200=
07005,1996-09-29 18:00:00,19,1016.6,-0.6,78,15,0,29.632,,,240,13.9,21.6,,,,,,,,,wg-a,,,,AAXX 29184 07005 12/// /2416 10190 20150 30076 40166 56006 60006 91800 333 10216 20139=
07005,1996-09-30 00:00:00,18,1015.4,-0.8,83,15,0,29.632,,,230,,,,,,,,,,,wg-a,,,,AAXX 30004 07005 12/// /2316 10180 20150 30063 40154 58008 60006 90000=
07005,1996-09-30 06:00:00,15,1014.1,-0.3,94,14,2000,22.224,,,290,14.9,19.3,,3,,,3,,,51,wg-a,,,,AAXX 30064 07005 02120 82912 10150 20140 30050 40141 55003 60034 7515/ 877// 90600 333 10193 20149 60037=
07005,1996-09-30 12:00:00,16,1011.8,-2,94,15,12000,11.112,,,220,,,,2,,,,,,20,wg-a,,,,AAXX 30124 07005 02162 82206 10160 20150 30027 40118 58020 60026 72055 871// 91200 333 60027=
07005,1996-09-30 18:00:00,14,1007.2,-1.2,100,14,4000,7.408,,,330,14,16,,4,,,,,,51,wg-a,,,,AAXX 30184 07005 12040 83304 10140 20140 39981 40072 55012 60047 75165 877// 91800 333 10160 20140=
07005,1996-10-01 00:00:00,11,1006,-0.7,100,11,0,18.52,,,20,,,,,,,,,,,wg-a,,,,AAXX 01004 07005 12/// /0210 10110 20110 39968 40060 58007 60036 90000=
07005,1996-10-01 06:00:00,9,1006.8,0.4,93,8,10000,11.112,,,340,9,14.1,,1,,,13,,,58,wg-a,,,,AAXX 01064 07005 02260 83406 10090 20080 39975 40068 53004 60134 75865 877// 90600 333 10141 20090 60017=
07005,1996-10-01 12:00:00,14,1007.5,0,77,10,0,18.52,,,330,,,,,,,,,,,wg-a,,,,AAXX 01124 07005 12/// /3310 10140 20100 39984 40075 50000 60006 91200=
07005,1996-10-01 18:00:00,12,1010.7,2.2,82,9,25000,11.112,,,270,9,14.6,,,,,,,,,wg-a,,,,AAXX 01184 07005 32575 52706 10120 20090 30015 40107 51022 83232 91800 333 10146 20090=
07005,1996-10-02 00:00:00,9,1012.3,0.2,87,7,0,11.112,,,190,,,,,,,,,,,wg-a,,,,AAXX 02004 07005 12/// /1906 10090 20070 30030 40123 53002 60006 90000=
07005,1996-10-02 06:00:00,6,1014,1.4,93,5,500,7.408,,,150,5.7,11.5,,,,,,,,,wg-a,,,,AAXX 02064 07005 02600 21504 10060 20050 30045 40140 53014 60006 81502 90600 333 10115 20057 60004=
07005,1996-10-02 12:00:00,15,1018.8,2.1,67,9,25000,3.704,,,350,,,,,,,,,,,wg-a,,,,AAXX 02124 07005 12575 43502 10150 20090 30096 40188 51021 60006 84200 91200=
07005,1996-10-02 18:00:00,12,1022.9,2.1,82,9,20000,7.408,,,320,5.7,15.9,,,,,,,,,wg-a,,,,AAXX 02184 07005 12570 23204 10120 20090 30136 40229 53021 60006 81202 91800 333 10159 20057=
07005,1996-10-03 00:00:00,8,1026,0.7,93,7,0,11.112,,,190,,,,,,,,,,,wg-a,,,,AAXX 03004 07005 12/// /1906 10080 20070 30165 40260 51007 60006 90000=
07005,1996-10-03 06:00:00,7,1025.8,-0.2,93,6,2500,14.816,,,180,6.9,11.8,,0,,,,,,10,wg-a,,,,AAXX 03064 07005 02/25 21808 10070 20060 30163 40258 58002 60004 710// 81042 90600 333 10118 20069 60007=
07005,1996-10-03 12:00:00,16,1024.8,-1.4,68,10,25000,29.632,,,250,,,,,,,,,,,wg-a,,,,AAXX 03124 07005 12575 62516 10160 20100 30156 40248 58014 60006 86202 91200=
07005,1996-10-03 18:00:00,14,1022.5,-0.5,82,11,25000,14.816,,,260,6.9,16.8,,,,,,,,,wg-a,,,,AAXX 03184 07005 12575 72608 10140 20110 30132 40225 56005 60006 878// 91800 333 10168 20069=
07005,1996-10-04 00:00:00,14,1019.1,-2,77,10,0,25.928,,,240,,,,,,,,,,,wg-a,,,,AAXX 04004 07005 12/// /2414 10140 20100 30099 40191 56020 60006 90000=
07005,1996-10-04 06:00:00,10,1019,-0.8,100,10,25000,14.816,,,230,10.2,14.2,,,,,2,,,1,wg-a,,,,AAXX 04064 07005 02475 62308 10100 20100 30096 40190 58008 60024 7016/ 86800 90600 333 10142 20102 61000=
07005,1996-10-04 12:00:00,15,1018,-1.1,63,8,20000,31.484,,,270,,,,,,,,,,1,wg-a,,,,AAXX 04124 07005 02370 52717 10150 20080 30088 40180 57011 61000 70182 85200 91200 333 6100=
07005,1996-10-04 18:00:00,11,1015.5,-1.4,82,8,20000,18.52,,,230,10.2,15,,,,,,,,80,wg-a,,,,AAXX 04184 07005 02370 62310 10110 20080 30062 40155 56014 61000 78088 86900 91800 333 10150 20102 ////=
07005,1996-10-05 00:00:00,9,1012.7,-1.6,93,8,0,14.816,,,260,,,,,,,,,,,wg-a,,,,AAXX 05004 07005 12/// /2608 10090 20080 30034 40127 56016 60036 90000=
07005,1996-10-05 06:00:00,9,1013,1.4,87,7,20000,14.816,,,330,8.4,11,,0,,,10,,,1,wg-a,,,,AAXX 05064 07005 02570 33308 10090 20070 30036 40130 53014 60104 7018/ 83200 90600 333 10110 20084 60007=
07005,1996-10-05 12:00:00,12,1017.2,1.8,76,8,500,22.224,,,340,,,,,,,,,,,wg-a,,,,AAXX 05124 07005 12500 43412 10120 20080 30079 40172 51018 60006 84200 91200=
07005,1996-10-05 18:00:00,10,1020.9,2.5,76,6,0,22.224,,,10,8.5,13.1,,,,,,,,,wg-a,,,,AAXX 05184 07005 12/// /0112 10100 20060 30115 40209 53025 60006 91800 333 10131 20085=
07005,1996-10-06 00:00:00,6,1023,0.5,93,5,0,11.112,,,330,,,,,,,,,,,wg-a,,,,AAXX 06004 07005 12/// /3306 10060 20050 30135 40230 50005 60006 90000=
07005,1996-10-06 06:00:00,5,1024.2,1,93,4,15000,7.408,,,10,4.5,10.3,,0,,,,,,,wg-a,,,,AAXX 06064 07005 02465 40104 10050 20040 30146 40242 52010 60004 81231 90600 333 10103 20045 60007=
07005,1996-10-06 12:00:00,14,1024.7,-0.1,63,7,500,7.408,,,350,,,,,,,,,,,wg-a,,,,AAXX 06124 07005 12500 53504 10140 20070 30154 40247 58001 60006 83230 91200=
07005,1996-10-06 18:00:00,11,1024.7,0.6,82,8,0,7.408,,,330,5,14.8,,,,,,,,,wg-a,,,,AAXX 06184 07005 12/// /3304 10110 20080 30153 40247 53006 60006 91800 333 10148 20050=
07005,1996-10-07 00:00:00,10,1024.4,-0.4,87,8,0,7.408,,,150,,,,,,,,,,,wg-a,,,,AAXX 07004 07005 12/// /1504 10100 20080 30150 40244 57004 60006 90000=
07005,1996-10-07 06:00:00,9,1023.3,-0.4,93,8,6000,7.408,,,140,9.1,10.5,,,,,,,,,wg-a,,,,AAXX 07064 07005 12656 71404 10090 20080 30139 40233 56004 60006 875// 90600 333 10105 20091=
07005,1996-10-07 12:00:00,13,1022.8,-1,77,9,15000,7.408,,,210,,,,,,,,,,,wg-a,,,,AAXX 07124 07005 12565 62104 10130 20090 30135 40228 58010 60006 86800 91200=
07005,1996-10-07 18:00:00,12,1022.1,0.5,82,9,15000,3.704,,,340,9,16.4,,,,,,,,,wg-a,,,,AAXX 07184 07005 12665 13402 10120 20090 30128 40221 53005 60006 81500 91800 333 10164 20090=
07005,1996-10-08 00:00:00,10,1021.7,-0.7,93,9,0,7.408,,,170,,,,,,,,,,,wg-a,,,,AAXX 08004 07005 12/// /1704 10100 20090 30123 40217 57007 60006 90000=
07005,1996-10-08 06:00:00,10,1021.3,-0.2,93,9,1500,7.408,,,160,9.5,11.6,,,,,,,,10,wg-a,,,,AAXX 08064 07005 12715 81604 10100 20090 30119 40213 55002 60004 7106/ 875// 90600 333 10116 20095=
07005,1996-10-08 12:00:00,15,1021.9,-0.2,82,12,500,3.704,,,300,,,,,,,,,,,wg-a,,,,AAXX 08124 07005 12400 83002 10150 20120 30127 40219 57002 60006 878// 91200=
07005,1996-10-08 18:00:00,13,1021.6,0.1,88,11,15000,7.408,,,300,9.9,15.3,,,,,,,,,wg-a,,,,AAXX 08184 07005 12765 73004 10130 20110 30123 40216 53001 60006 875// 91800 333 10153 20099=
07005,1996-10-09 00:00:00,12,1021.1,-0.7,94,11,0,7.408,,,170,,,,,,,,,,,wg-a,,,,AAXX 09004 07005 12/// /1704 10120 20110 30118 40211 58007 60006 90000=
07005,1996-10-09 06:00:00,12,1019.7,-0.3,94,11,3000,7.408,,,200,11.9,13.4,,,,,,,,58,wg-a,,,,AAXX 09064 07005 02430 82004 10120 20110 30104 40197 56003 61000 75865 875// 90600 333 10134 20119 6100=
07005,1996-10-09 12:00:00,15,1019.9,-0.2,88,13,15000,18.52,,,280,,,,0,,,,,,21,wg-a,,,,AAXX 09124 07005 02465 82810 10150 20130 30107 40199 58002 60026 72162 875// 91200 333 60007=
07005,1996-10-09 18:00:00,12,1021.6,1.4,100,12,1600,14.816,,,340,11.5,15.2,,1,,,,,,51,wg-a,,,,AAXX 09184 07005 12216 83408 10120 20120 30123 40216 53014 60017 75155 887// 91800 333 10152 20115=
07005,1996-10-10 00:00:00,11,1023.1,0.3,100,11,0,7.408,,,350,,,,,,,,,,,wg-a,,,,AAXX 10004 07005 12/// /3504 10110 20110 30137 40231 51003 60026 90000=
07005,1996-10-10 06:00:00,10,1024.1,0.8,100,10,4000,11.112,,,350,10.4,12,,,,,5,,,10,wg-a,,,,AAXX 10064 07005 12640 73506 10100 20100 30147 40241 52008 60054 710// 875// 90600 333 10120 20104=
07005,1996-10-10 12:00:00,15,1025.2,0,77,11,12000,11.112,,,60,,,,,,,,,,,wg-a,,,,AAXX 10124 07005 12562 40606 10150 20110 30160 40252 50000 60006 83202 91200=
07005,1996-10-10 18:00:00,12,1025.3,0.4,88,10,10000,11.112,,,90,9.5,15.6,,,,,,,,,wg-a,,,,AAXX 10184 07005 12/60 70906 10120 20100 30160 40253 53004 60006 8703/ 91800 333 10156 20095=
07005,1996-10-11 00:00:00,8,1024.9,-0.8,87,6,0,11.112,,,80,,,,,,,,,,,wg-a,,,,AAXX 11004 07005 12/// /0806 10080 20060 30154 40249 58008 60006 90000=
07005,1996-10-11 06:00:00,10,1022.9,-0.5,93,9,100,7.408,,,150,7.4,12.4,,,,,,,,50,wg-a,,,,AAXX 11064 07005 02/01 91504 10100 20090 30135 40229 56005 61000 75054 89/// 90600 333 10124 20074 6100=
07005,1996-10-11 12:00:00,11,1021.5,-1.3,94,10,2000,7.408,,,200,,,,,,,,,,10,wg-a,,,,AAXX 11124 07005 02220 82004 10110 20100 30121 40215 58013 61000 71042 886// 91200 333 ////=
07005,1996-10-11 18:00:00,10,1018.8,-0.9,93,9,4000,11.112,,,130,9.4,12.1,,,,,,,,10,wg-a,,,,AAXX 11184 07005 32/40 61306 10100 20090 30094 40188 56009 71022 80002 91800 333 10121 20094=
07005,1996-10-12 00:00:00,10,1016.5,-1.5,93,9,0,14.816,,,140,,,,,,,,,,,wg-a,,,,AAXX 12004 07005 12/// /1408 10100 20090 30071 40165 57015 60006 90000=
07005,1996-10-12 06:00:00,10,1014.1,-0.6,93,9,2000,11.112,,,170,8.8,10.2,,,,,,,,10,wg-a,,,,AAXX 12064 07005 12220 81706 10100 20090 30048 40141 56006 60004 71022 886// 90600 333 10102 20088=
07005,1996-10-12 12:00:00,13,1012.5,-1.4,77,9,4000,22.224,,,170,,,,,,,,,,10,wg-a,,,,AAXX 12124 07005 12440 51712 10130 20090 30033 40125 58014 60006 71022 83102 91200=
07005,1996-10-12 18:00:00,12,1010.7,-0.3,88,10,0,14.816,,,140,10,15,,,,,,,,,wg-a,,,,AAXX 12184 07005 12/// /1408 10120 20100 30015 40107 56003 60006 91800 333 10150 20100=
07005,1996-10-13 00:00:00,11,1009.4,-0.6,87,9,0,22.224,,,140,,,,,,,,,,,wg-a,,,,AAXX 13004 07005 12/// /1412 10110 20090 30001 40094 56006 60006 90000=
07005,1996-10-13 06:00:00,9,1007.8,-0.5,93,8,500,18.52,,,130,9.2,12.2,,,,,,,,,wg-a,,,,AAXX 13064 07005 12/00 01310 10090 20080 39985 40078 58005 60006 80000 90600 333 10122 20092=
07005,1996-10-13 12:00:00,19,1006.4,-1,56,10,12000,29.632,,,150,,,,,,,,,,,wg-a,,,,AAXX 13124 07005 12/62 31516 10190 20100 39974 40064 58010 60006 80002 91200=
07005,1996-10-13 18:00:00,16,1005.3,0.1,72,11,0,18.52,,,120,9.3,20,,,,,,,,,wg-a,,,,AAXX 13184 07005 12/// /1210 10160 20110 39963 40053 53001 60006 91800 333 10200 20093=
07005,1996-10-14 00:00:00,13,1005.9,0.4,82,10,0,22.224,,,140,,,,,,,,,,,wg-a,,,,AAXX 14004 07005 12/// /1412 10130 20100 39968 40059 53004 60006 90000=
07005,1996-10-14 06:00:00,11,1006,0.5,82,8,8000,18.52,,,120,10.9,16.3,,,,,,,,,wg-a,,,,AAXX 14064 07005 12/58 31210 10110 20080 39968 40060 53005 60006 82031 90600 333 10163 20109=
07005,1996-10-14 12:00:00,19,1005.2,-0.7,60,11,15000,25.928,,,170,,,,,,,,,,,wg-a,,,,AAXX 14124 07005 12/65 71714 10190 20110 39962 40052 58007 60006 85031 91200=
07005,1996-10-14 18:00:00,16,1004.4,-0.2,82,13,12000,22.224,,,150,10.9,18.9,,0,,,,,,60,wg-a,,,,AAXX 14184 07005 12/62 81512 10160 20130 39954 40044 55002 60007 76062 8807/ 91800 333 10189 20109=
07005,1996-10-15 00:00:00,14,1004,-0.3,94,13,0,14.816,,,160,,,,,,,,,,,wg-a,,,,AAXX 15004 07005 12/// /1608 10140 20130 39949 40040 56003 60016 90000=
07005,1996-10-15 06:00:00,13,1005.7,1.7,94,12,10000,14.816,,,220,12.8,15.5,,,,,3,,,1,wg-a,,,,AAXX 15064 07005 02560 72208 10130 20120 39966 40057 53017 60034 7016/ 878// 90600 333 10155 20128 61000=
07005,1996-10-15 12:00:00,16,1008.3,1.1,68,10,500,22.224,,,240,,,,,,,,,,,wg-a,,,,AAXX 15124 07005 12500 52412 10160 20100 39992 40083 51011 60006 83201 91200=
07005,1996-10-15 18:00:00,11,1011.1,1.5,76,7,25000,11.112,,,220,10.5,16.1,,,,,,,,1,wg-a,,,,AAXX 15184 07005 32575 62206 10110 20070 30018 40111 53015 70182 86800 91800 333 10161 20105=
07005,1996-10-16 00:00:00,8,1011.2,-0.4,81,5,0,14.816,,,220,,,,,,,,,,,wg-a,,,,AAXX 16004 07005 12/// /2208 10080 20050 30018 40112 57004 60006 90000=
07005,1996-10-16 06:00:00,6,1010.6,-0.3,93,5,15000,11.112,,,190,6.1,10.6,,,,,,,,,wg-a,,,,AAXX 16064 07005 02/65 11906 10060 20050 30012 40106 58003 60006 80001 90600 333 10106 20061 61000=
07005,1996-10-16 12:00:00,14,1009.2,-0.9,63,7,500,22.224,,,240,,,,,,,,,,,wg-a,,,,AAXX 16124 07005 12500 52412 10140 20070 30001 40092 58009 60006 83801 91200=
07005,1996-10-16 18:00:00,8,1009.1,0.1,87,6,20000,7.408,,,10,6.3,14.5,,,,,,,,25,wg-a,,,,AAXX 16184 07005 02570 40104 10080 20060 39998 40091 53001 61000 72582 83202 91800 333 10145 20063 ////=
07005,1996-10-17 00:00:00,9,1007.8,-0.9,87,7,0,14.816,,,160,,,,,,,,,,,wg-a,,,,AAXX 17004 07005 12/// /1608 10090 20070 39985 40078 56009 60006 90000=
07005,1996-10-17 06:00:00,6,1007.6,0.2,100,6,500,7.408,,,120,6,8.7,,0,,,,,,,wg-a,,,,AAXX 17064 07005 02500 41204 10060 20060 39982 40076 53002 60004 82802 90600 333 10087 20060 60007=
07005,1996-10-17 12:00:00,11,1009.1,0.6,82,8,7000,3.704,,,200,,,,,,,,,,,wg-a,,,,AAXX 17124 07005 12557 62002 10110 20080 39999 40091 50006 60006 85202 91200=
07005,1996-10-17 18:00:00,9,1011,1.2,87,7,15000,3.704,,,300,5.5,13.1,,,,,,,,,wg-a,,,,AAXX 17184 07005 12565 13002 10090 20070 30017 40110 53012 60006 81801 91800 333 10131 20055=
07005,1996-10-18 00:00:00,5,1012.3,0.3,93,4,0,11.112,,,140,,,,,,,,,,,wg-a,,,,AAXX 18004 07005 12/// /1406 10050 20040 30028 40123 51003 60006 90000=
07005,1996-10-18 06:00:00,4,1011.3,-0.5,93,3,6000,14.816,,,160,4,9.4,,,,,,,,,wg-a,,,,AAXX 18064 07005 12/56 11608 10040 20030 30018 40113 56005 60004 81030 90600 333 10094 20040=
07005,1996-10-18 12:00:00,11,1009.4,-1,82,8,10000,29.632,,,190,,,,1,,,,,,61,wg-a,,,,AAXX 18124 07005 02/60 81916 10110 20080 30001 40094 57010 60016 76162 8807/ 91200 333 60017=
07005,1996-10-18 18:00:00,10,1008.9,0.1,93,9,20000,14.816,,,200,4.1,12.7,,,,,,,,3,wg-a,,,,AAXX 18184 07005 32/70 42008 10100 20090 39996 40089 53001 70361 84030 91800 333 10127 20041=
07005,1996-10-19 00:00:00,12,1010,1.1,88,10,0,22.224,,,240,,,,,,,,,,,wg-a,,,,AAXX 19004 07005 12/// /2412 10120 20100 30008 40100 52011 60016 90000=
07005,1996-10-19 06:00:00,11,1015,3.4,82,8,12000,22.224,,,300,10.1,12.4,,0,,,4,,,1,wg-a,,,,AAXX 19064 07005 02562 23012 10110 20080 30057 40150 53034 60044 70188 82201 90600 333 10124 20101 60007=
07005,1996-10-19 12:00:00,15,1021.1,2.2,67,9,15000,29.632,,,290,,,,,,,,,,3,wg-a,,,,AAXX 19124 07005 02565 42916 10150 20090 30119 40211 51022 61000 70380 83202 91200 333 6100=
07005,1996-10-19 18:00:00,12,1023.7,0.9,94,11,0,14.816,,,240,10.6,15.3,,,,,,,,,wg-a,,,,AAXX 19184 07005 32/// /2408 10120 20110 30144 40237 52009 91800 333 10153 20106=
07005,1996-10-20 00:00:00,13,1023.8,-0,94,12,0,25.928,,,250,,,,,,,,,,,wg-a,,,,AAXX 20004 07005 12/// /2514 10130 20120 30145 40238 55000 60006 90000=
07005,1996-10-20 06:00:00,13,1023.3,0.1,94,12,6000,18.52,,,260,12.4,13.8,,,,,,,,20,wg-a,,,,AAXX 20064 07005 02256 82610 10130 20120 30140 40233 53001 60004 72055 875// 90600 333 10138 20124 61000=
07005,1996-10-20 12:00:00,15,1022.4,-1,82,12,20000,14.816,,,210,,,,,,,,,,,wg-a,,,,AAXX 20124 07005 12670 82108 10150 20120 30132 40224 58010 60006 8357/ 91200=
07005,1996-10-20 18:00:00,14,1019.3,-1.2,82,11,0,11.112,,,200,12.7,15.1,,,,,,,,,wg-a,,,,AAXX 20184 07005 32/// /2006 10140 20110 30100 40193 56012 91800 333 10151 20127=
07005,1996-10-21 00:00:00,16,1016.5,-1,94,15,0,29.632,,,260,,,,,,,,,,,wg-a,,,,AAXX 21004 07005 12/// /2616 10160 20150 30074 40165 56010 60006 90000=
07005,1996-10-21 06:00:00,15,1018.2,1.6,94,14,10000,29.632,,,290,13,15.9,,1,,,2,,,2,wg-a,,,,AAXX 21064 07005 02260 82916 10150 20140 30090 40182 53016 60024 70265 886// 90600 333 10159 20130 60017=
07005,1996-10-21 12:00:00,15,1022.6,1.8,72,10,15000,25.928,,,330,,,,,,,,,,,wg-a,,,,AAXX 21124 07005 12565 33314 10150 20100 30134 40226 51018 60006 82202 91200=
07005,1996-10-21 18:00:00,11,1025.2,1.3,82,8,15000,7.408,,,300,11.3,15.7,,,,,,,,,wg-a,,,,AAXX 21184 07005 12/65 63004 10110 20080 30158 40252 53013 60006 81032 91800 333 10157 20113=
07005,1996-10-22 00:00:00,8,1026.4,0.2,93,7,0,7.408,,,140,,,,,,,,,,,wg-a,,,,AAXX 22004 07005 12/// /1404 10080 20070 30169 40264 52002 60006 90000=
07005,1996-10-22 06:00:00,6,1026.6,0.8,100,6,300,11.112,,,150,5.8,11.3,,0,,,,,,46,wg-a,,,,AAXX 22064 07005 02/03 51506 10060 20060 30170 40266 53008 60004 74641 80002 90600 333 10113 20058 60007=
07005,1996-10-22 12:00:00,15,1026,-0.7,,,7000,11.112,,,160,,,,,,,,,,,wg-a,,,,AAXX 22124 07005 12/57 51606 10150 2//// 30167 40260 58007 60006 80001 91200=
07005,1996-10-22 18:00:00,12,1024.8,-0,82,9,10000,14.816,,,100,5.9,16.7,,,,,,,,,wg-a,,,,AAXX 22184 07005 12/60 31008 10120 20090 30154 40248 55000 60006 80001 91800 333 10167 20059=
07005,1996-10-23 00:00:00,9,1024.2,-0.4,93,8,0,18.52,,,130,,,,,,,,,,,wg-a,,,,AAXX 23004 07005 12/// /1310 10090 20080 30147 40242 58004 60006 90000=
07005,1996-10-23 06:00:00,7,1023.2,-0.4,93,6,6000,25.928,,,140,7.2,11.8,,0,,,,,,,wg-a,,,,AAXX 23064 07005 02/56 11414 10070 20060 30137 40232 58004 60004 80002 90600 333 10118 20072 60007=
07005,1996-10-23 12:00:00,15,1022.6,-1,59,7,10000,22.224,,,130,,,,,,,,,,,wg-a,,,,AAXX 23124 07005 12/60 21312 10150 20070 30133 40226 58010 60006 80001 91200=
07005,1996-10-23 18:00:00,12,1021.1,-0,71,7,15000,18.52,,,120,7.1,16.4,,,,,,,,,wg-a,,,,AAXX 23184 07005 12/65 21210 10120 20070 30118 40211 55000 60006 82030 91800 333 10164 20071=
07005,1996-10-24 00:00:00,9,1020.4,-0.5,81,6,0,25.928,,,150,,,,,,,,,,,wg-a,,,,AAXX 24004 07005 12/// /1514 10090 20060 30110 40204 56005 60006 90000=
07005,1996-10-24 06:00:00,7,1020.1,-0,87,5,7000,14.816,,,170,6.7,12,,,,,,,,,wg-a,,,,AAXX 24064 07005 12/57 41708 10070 20050 30106 40201 55000 60006 80001 90600 333 10120 20067=
07005,1996-10-24 12:00:00,13,1019.4,-1,77,9,8000,14.816,,,140,,,,,,,,,,,wg-a,,,,AAXX 24124 07005 12/58 71408 10130 20090 30101 40194 58010 60006 80002 91200=
07005,1996-10-24 18:00:00,13,1017.6,-0.2,77,9,7000,18.52,,,150,6.4,16.1,,,,,,,,,wg-a,,,,AAXX 24184 07005 12/57 71510 10130 20090 30083 40176 55002 60006 82032 91800 333 10161 20064=
07005,1996-10-25 00:00:00,11,1016.4,-0.6,94,10,0,22.224,,,160,,,,,,,,,,,wg-a,,,,AAXX 25004 07005 12/// /1612 10110 20100 30071 40164 55006 60006 90000=
07005,1996-10-25 06:00:00,10,1017.1,0.6,93,9,2000,14.816,,,140,9.7,12.7,,,,,,,,10,wg-a,,,,AAXX 25064 07005 12/20 41408 10100 20090 30077 40171 53006 60006 710// 84030 90600 333 10127 20097=
07005,1996-10-25 12:00:00,13,1019.2,0.9,100,13,3000,14.816,,,140,,,,1,,,,,,21,wg-a,,,,AAXX 25124 07005 02/30 71408 10130 20130 30099 40192 50009 60026 72162 8707/ 91200 333 60017=
07005,1996-10-25 18:00:00,13,1020.5,0.8,82,10,20000,7.408,,,210,9.8,16.8,,,,,,,,1,wg-a,,,,AAXX 25184 07005 02570 12104 10130 20100 30112 40205 53008 61000 70186 81200 91800 333 10168 20098 ////=
07005,1996-10-26 00:00:00,11,1020.8,-0.1,82,8,0,18.52,,,200,,,,,,,,,,,wg-a,,,,AAXX 26004 07005 12/// /2010 10110 20080 30114 40208 58001 60006 90000=
07005,1996-10-26 06:00:00,10,1022,1.3,93,9,10000,14.816,,,240,9.7,12.8,,1,,,4,,,80,wg-a,,,,AAXX 26064 07005 02560 72408 10100 20090 30126 40220 53013 60044 780// 878// 90600 333 10128 20097 60017=
07005,1996-10-26 12:00:00,15,1024,0.9,63,8,25000,25.928,,,250,,,,,,,,,,,wg-a,,,,AAXX 26124 07005 12575 62514 10150 20080 30147 40240 51009 60016 82242 91200=
07005,1996-10-26 18:00:00,11,1024.7,0.6,76,7,0,7.408,,,190,9.4,15.2,,,,,,,,,wg-a,,,,AAXX 26184 07005 32/// /1904 10110 20070 30153 40247 53006 91800 333 10152 20094=
07005,1996-10-27 00:00:00,9,1023.3,-0.8,81,6,0,14.816,,,180,,,,,,,,,,,wg-a,,,,AAXX 27004 07005 12/// /1808 10090 20060 30139 40233 58008 60006 90000=
07005,1996-10-27 06:00:00,12,1019.8,1.2,88,10,15000,25.928,,,210,9,11.9,,,,,,,,,wg-a,,,,AAXX 27064 07005 32665 82114 10120 20100 30105 40198 52012 8357/ 90600 333 10119 20090=
07005,1996-10-27 12:00:00,14,1015.6,-2.6,88,12,20000,29.632,,,210,,,,1,,,,,,60,wg-a,,,,AAXX 27124 07005 02470 82116 10140 20120 30064 40156 58026 60016 7606/ 8377/ 91200 333 60017=
07005,1996-10-27 18:00:00,16,1014.8,0.7,77,12,0,25.928,,,240,11.8,15.9,,,,,,,,,wg-a,,,,AAXX 27184 07005 32/// /2414 10160 20120 30057 40148 52007 91800 333 10159 20118=
07005,1996-10-28 00:00:00,14,1013.2,-1.1,82,11,0,22.224,,,220,,,,,,,,,,,wg-a,,,,AAXX 28004 07005 12/// /2212 10140 20110 30040 40132 58011 60006 90000=
07005,1996-10-28 06:00:00,12,1008.3,-2.6,88,10,10000,25.928,,,200,11.5,15.7,,,,,1,,,,wg-a,,,,AAXX 28064 07005 02460 72014 10120 20100 39991 40083 56026 60006 878// 90600 333 10157 20115 60014=
07005,1996-10-28 12:00:00,15,1005.3,-0.9,82,12,17000,29.632,,,240,,,,,,,,,,80,wg-a,,,,AAXX 28124 07005 02467 72416 10150 20120 39962 40053 58009 61000 78082 878// 91200 333 6100=
07005,1996-10-28 18:00:00,14,1001.7,-2,63,7,25000,31.484,,,220,12.3,16.8,,,,,,,,1,wg-a,,,,AAXX 28184 07005 32675 42217 10140 20070 39926 40017 58020 70186 84500 91800 333 10168 20123=
07005,1996-10-29 00:00:00,13,996.2,-2.5,72,8,0,57.412,,,230,,,,,,,,,,,wg-a,,,,AAXX 29004 07005 12/// /2331 10130 20080 39871 49962 56025 60006 90000=
07005,1996-10-29 06:00:00,12,1000.4,4.3,88,10,10000,35.188,,,300,10.9,14.5,,2,,,4,,,80,wg-a,,,,AAXX 29064 07005 02560 73019 10120 20100 39913 40004 53043 60044 7808/ 872// 90600 333 10145 20109 60027=
07005,1996-10-29 12:00:00,11,1013.8,6.1,76,7,25000,35.188,,,340,,,,1,,,,,,1,wg-a,,,,AAXX 29124 07005 02575 73419 10110 20070 30045 40138 51061 60026 70162 8583/ 91200 333 60017=
07005,1996-10-29 18:00:00,7,1020.8,3.4,45,-4,20000,14.816,,,340,7.1,12.3,,,,,,,,,wg-a,,,,AAXX 29184 07005 32570 83408 10070 21040 30113 40208 53034 885// 91800 333 10123 20071=
07005,1996-10-30 00:00:00,9,1024.9,1.8,66,3,0,18.52,,,320,,,,,,,,,,,wg-a,,,,AAXX 30004 07005 12/// /3210 10090 20030 30154 40249 53018 60006 90000=
07005,1996-10-30 06:00:00,7,1026.6,1,81,4,15000,7.408,,,260,6.4,8.8,,,,,2,,,,wg-a,,,,AAXX 30064 07005 02665 72604 10070 20040 30171 40266 51010 60006 875// 90600 333 10088 20064 60024=
07005,1996-10-30 12:00:00,11,1028.3,0.1,62,4,20000,14.816,,,300,,,,,,,,,,,wg-a,,,,AAXX 30124 07005 12570 83008 10110 20040 30189 40283 50001 60006 885// 91200=
07005,1996-10-30 18:00:00,10,1028.6,0.1,82,7,15000,14.816,,,210,7.2,11.4,,,,,,,,,wg-a,,,,AAXX 30184 07005 12665 82108 10100 20070 30191 40286 52001 60006 885// 91800 333 10114 20072=
07005,1996-10-31 00:00:00,10,1027.5,-1.6,,,0,18.52,,,220,,,,,,,,,,,wg-a,,,,AAXX 31004 07005 12/// /2210 10100 2//// 30192 40275 58016 60006 90000=
07005,1996-10-31 06:00:00,6,1024.5,-1.6,87,4,10000,14.816,,,190,6.1,9.9,,,,,,,,,wg-a,,,,AAXX 31064 07005 12/60 61908 10060 20040 30149 40245 58016 60006 80002 90600 333 10099 20061=
07005,1996-10-31 12:00:00,8,1019.7,-2.7,87,6,12000,18.52,,,190,,,,3,,,,,,21,wg-a,,,,AAXX 31124 07005 02462 81910 10080 20060 30103 40197 58027 60036 72162 875// 91200 333 60037=
07005,1996-10-31 18:00:00,12,1014.6,-1.8,94,11,4000,31.484,,,220,5.8,11.7,,0,,,,,,61,wg-a,,,,AAXX 31184 07005 12340 82217 10120 20110 30053 40146 56018 60007 76166 877// 91800 333 10117 20058=
07005,1996-11-01 00:00:00,14,1015.9,1.2,88,12,0,38.892,,,280,,,,1,,,,,,,wg-a,,,,AAXX 01004 07005 02/// /2821 10140 20120 30067 40159 53012 60016 90000 333 60017=
07005,1996-11-01 06:00:00,13,1021.8,3.2,82,10,0,31.484,,,290,11.6,14.1,,,,,5,,,,wg-a,,,,AAXX 01064 07005 12/// /2917 10130 20100 30125 40218 51032 60054 90600 333 10141 20116=
07005,1996-11-01 12:00:00,13,1026.2,1.3,82,10,500,29.632,,,290,,,,,,,,,,,wg-a,,,,AAXX 01124 07005 12500 72916 10130 20100 30169 40262 51013 60006 872// 91200=
07005,1996-11-01 18:00:00,13,1027.5,1.2,94,12,0,18.52,,,260,12.2,13.9,,,,,,,,,wg-a,,,,AAXX 01184 07005 32/// /2610 10130 20120 30182 40275 52012 91800 333 10139 20122=
07005,1996-11-02 00:00:00,13,1027.7,-0.3,88,11,0,18.52,,,230,,,,,,,,,,,wg-a,,,,AAXX 02004 07005 12/// /2310 10130 20110 30183 40277 58003 60006 90000=
07005,1996-11-02 06:00:00,13,1026.3,-0.7,88,11,15000,18.52,,,240,11.4,13.1,,,,,1,,,,wg-a,,,,AAXX 02064 07005 12565 82410 10130 20110 30170 40263 56007 60014 885// 90600 333 10131 20114=
07005,1996-11-02 12:00:00,15,1026.1,-0.4,82,12,25000,22.224,,,240,,,,,,,,,,,wg-a,,,,AAXX 02124 07005 12575 82412 10150 20120 30168 40261 58004 60006 885// 91200=
07005,1996-11-02 18:00:00,15,1025.9,0.1,82,12,0,25.928,,,230,12.4,15.3,,,,,,,,,wg-a,,,,AAXX 02184 07005 12/// /2314 10150 20120 30166 40259 53001 60006 91800 333 10153 20124=
07005,1996-11-03 00:00:00,14,1024.3,-1.4,82,11,0,25.928,,,220,,,,,,,,,,,wg-a,,,,AAXX 03004 07005 12/// /2214 10140 20110 30150 40243 58014 60006 90000=
07005,1996-11-03 06:00:00,13,1022.1,-1.3,88,11,15000,25.928,,,230,13.2,14.5,,,,,,,,,wg-a,,,,AAXX 03064 07005 12465 82314 10130 20110 30128 40221 56013 60006 885// 90600 333 10145 20132=
07005,1996-11-03 12:00:00,14,1021.2,-0.6,88,12,25000,29.632,,,230,,,,,,,,,,,wg-a,,,,AAXX 03124 07005 12475 82316 10140 20120 30120 40212 58006 60006 886// 91200=
07005,1996-11-03 18:00:00,15,1018.9,-0.7,88,13,0,22.224,,,230,13,15,,,,,,,,,wg-a,,,,AAXX 03184 07005 12/// /2312 10150 20130 30097 40189 56007 60006 91800 333 10150 20130=
07005,1996-11-04 00:00:00,15,1015.8,-1.9,82,12,0,25.928,,,210,,,,,,,,,,,wg-a,,,,AAXX 04004 07005 12/// /2114 10150 20120 30066 40158 58019 60006 90000=
07005,1996-11-04 06:00:00,14,1009.3,-2.9,88,12,8000,29.632,,,200,13.7,14.9,,,,,,,,,wg-a,,,,AAXX 04064 07005 12558 82016 10140 20120 30002 40093 56029 60006 875// 90600 333 10149 20137=
07005,1996-11-04 12:00:00,14,1004.8,-2.1,88,12,10000,31.484,,,210,,,,1,,,,,,60,wg-a,,,,AAXX 04124 07005 02360 82117 10140 20120 39957 40048 57021 60016 76062 885// 91200 333 60017=
07005,1996-11-04 18:00:00,13,1000.6,-1.2,82,10,20000,25.928,,,220,12.4,14.1,,0,,,,,,3,wg-a,,,,AAXX 04184 07005 12470 72214 10130 20100 39915 40006 56012 60007 70362 878// 91800 333 10141 20124=
07005,1996-11-05 00:00:00,11,1001.8,1,76,7,0,31.484,,,240,,,,,,,,,,,wg-a,,,,AAXX 05004 07005 12/// /2417 10110 20070 39926 40018 52010 60006 90000=
07005,1996-11-05 06:00:00,11,1004.1,2.6,76,7,10000,31.484,,,290,9.6,12.5,,1,,,4,,,25,wg-a,,,,AAXX 05064 07005 02460 72917 10110 20070 39949 40041 51026 60044 7258/ 878// 90600 333 10125 20096 60017=
07005,1996-11-05 12:00:00,11,1012.9,3.7,62,4,20000,42.596,,,290,,,,,,,,,,3,wg-a,,,,AAXX 05124 07005 12570 52923 10110 20040 30036 40129 51037 60016 70381 85201 91200=
07005,1996-11-05 18:00:00,9,1017.5,1.3,81,6,20000,14.816,,,210,8.3,11.6,,,,,,,,,wg-a,,,,AAXX 05184 07005 32470 62108 10090 20060 30081 40175 51013 85830 91800 333 10116 20083=
07005,1996-11-06 00:00:00,9,1015.2,-2.3,71,4,0,25.928,,,210,,,,,,,,,,,wg-a,,,,AAXX 06004 07005 12/// /2114 10090 20040 30058 40152 58023 60006 90000=
07005,1996-11-06 06:00:00,13,1008.7,-2.7,82,10,10000,35.188,,,220,8.3,12.9,,,,,,,,,wg-a,,,,AAXX 06064 07005 02560 82219 10130 20100 39995 40087 56027 60006 8257/ 90600 333 10129 20083 60004=
07005,1996-11-06 12:00:00,14,1008.4,0.8,77,10,20000,38.892,,,270,,,,2,,,,,,2,wg-a,,,,AAXX 06124 07005 02470 82721 10140 20100 39993 40084 50008 60026 70265 888// 91200 333 60027=
07005,1996-11-06 18:00:00,12,1010.4,1.2,76,8,15000,29.632,,,250,11.5,14.7,,,,,,,,,wg-a,,,,AAXX 06184 07005 32565 72516 10120 20080 30012 40104 51012 878// 91800 333 10147 20115=
07005,1996-11-07 00:00:00,11,1009.6,-0.4,76,7,0,35.188,,,240,,,,,,,,,,,wg-a,,,,AAXX 07004 07005 12/// /2419 10110 20070 30003 40096 58004 60006 90000=
07005,1996-11-07 06:00:00,11,1006.9,-1.6,82,8,15000,35.188,,,240,9.7,11.8,,,,,2,,,60,wg-a,,,,AAXX 07064 07005 02565 72419 10110 20080 39977 40069 56016 60024 7606/ 878// 90600 333 10118 20097 61000=
07005,1996-11-07 12:00:00,13,1008.6,1.3,67,7,20000,42.596,,,270,,,,2,,,,,,2,wg-a,,,,AAXX 07124 07005 02470 62723 10130 20070 39994 40086 51013 60036 70282 86900 91200 333 60027=
07005,1996-11-07 18:00:00,10,1014,3,76,6,8000,31.484,,,280,8.8,13.4,,0,,,,,,25,wg-a,,,,AAXX 07184 07005 12458 72817 10100 20060 30047 40140 53030 60007 72582 879// 91800 333 10134 20088=
07005,1996-11-08 00:00:00,8,1019.3,2.8,87,6,0,11.112,,,320,,,,,,,,,,,wg-a,,,,AAXX 08004 07005 12/// /3206 10080 20060 30099 40193 53028 60006 90000=
07005,1996-11-08 06:00:00,5,1023.2,1.5,93,4,14000,11.112,,,220,5.3,10.4,,0,,,4,,,,wg-a,,,,AAXX 08064 07005 02464 22206 10050 20040 30136 40232 53015 60044 82200 90600 333 10104 20053 60007=
07005,1996-11-08 12:00:00,11,1025.2,0.6,82,8,25000,18.52,,,230,,,,,,,,,,,wg-a,,,,AAXX 08124 07005 12575 22310 10110 20080 30158 40252 50006 60006 82800 91200=
07005,1996-11-08 18:00:00,8,1025.5,0.2,87,6,10000,7.408,,,220,5,11.6,,4,,,,,,80,wg-a,,,,AAXX 08184 07005 12560 72204 10080 20060 30160 40255 53002 60047 78086 879// 91800 333 10116 20050=
07005,1996-11-09 00:00:00,8,1026.2,0.2,87,6,0,22.224,,,220,,,,,,,,,,,wg-a,,,,AAXX 09004 07005 12/// /2212 10080 20060 30167 40262 53002 60056 90000=
07005,1996-11-09 06:00:00,8,1026.1,-0.1,93,7,10000,22.224,,,240,7.4,8.4,,2,,,14,,,80,wg-a,,,,AAXX 09064 07005 02560 72412 10080 20070 30166 40261 57001 60144 7808/ 872// 90600 333 10084 20074 60027=
07005,1996-11-09 12:00:00,10,1026.8,-0.3,87,8,10000,25.928,,,240,,,,1,,,,,,80,wg-a,,,,AAXX 09124 07005 02560 62414 10100 20080 30174 40268 58003 60026 78082 84802 91200 333 60017=
07005,1996-11-09 18:00:00,8,1025.5,-0.3,93,7,0,14.816,,,270,7.8,10.6,,,,,,,,,wg-a,,,,AAXX 09184 07005 32/// /2708 10080 20070 30160 40255 55003 91800 333 10106 20078=
07005,1996-11-10 00:00:00,8,1021.6,-2.6,93,7,0,7.408,,,160,,,,,,,,,,,wg-a,,,,AAXX 10004 07005 12/// /1604 10080 20070 30121 40216 57026 60016 90000=
07005,1996-11-10 06:00:00,8,1013.3,-4.3,93,7,500,18.52,,,160,7.2,8,,2,,,11,,,,wg-a,,,,AAXX 10064 07005 02400 81610 10080 20070 30039 40133 56043 60114 8557/ 90600 333 10080 20072 60027=
07005,1996-11-10 12:00:00,9,1007.3,-3.1,87,7,15000,25.928,,,200,,,,,,,,,,2,wg-a,,,,AAXX 10124 07005 02465 82014 10090 20070 39980 40073 58031 61000 70262 8457/ 91200 333 6100=
07005,1996-11-10 18:00:00,7,1006,0,87,5,0,18.52,,,290,6.8,9.6,,,,,,,,,wg-a,,,,AAXX 10184 07005 32/// /2910 10070 20050 39966 40060 50000 91800 333 10096 20068=
07005,1996-11-11 00:00:00,4,1004.9,-1.2,93,3,0,7.408,,,160,,,,,,,,,,,wg-a,,,,AAXX 11004 07005 12/// /1604 10040 20030 39954 40049 58012 60006 90000=
07005,1996-11-11 06:00:00,3,999.3,-3,100,3,6000,7.408,,,80,2.8,6.8,,,,,1,,,,wg-a,,,,AAXX 11064 07005 02556 80804 10030 20030 39899 49993 56030 60006 885// 90600 333 10068 20028 60014=
07005,1996-11-11 12:00:00,5,995.3,-2.2,93,4,3000,25.928,,,40,,,,3,,,,,,61,wg-a,,,,AAXX 11124 07005 02330 80414 10050 20040 39860 49953 56022 60036 76162 8657/ 91200 333 60037=
07005,1996-11-11 18:00:00,6,994.3,-0.1,87,4,0,14.816,,,70,3.3,5.8,,,,,,,,,wg-a,,,,AAXX 11184 07005 32/// /0708 10060 20040 39850 49943 55001 91800 333 10058 20033=
07005,1996-11-12 00:00:00,6,995.3,1.3,93,5,0,3.704,,,120,,,,,,,,,,,wg-a,,,,AAXX 12004 07005 12/// /1202 10060 20050 39860 49953 51013 60006 90000=
07005,1996-11-12 06:00:00,6,996.7,1.2,100,6,1200,3.704,,,110,5.5,6.4,,,,,5,,,28,wg-a,,,,AAXX 12064 07005 12212 81102 10060 20060 39874 49967 51012 60054 728// 886// 90600 333 10064 20055=
07005,1996-11-12 12:00:00,8,999.3,0.8,93,7,8000,11.112,,,340,,,,,,,,,,,wg-a,,,,AAXX 12124 07005 12358 83406 10080 20070 39900 49993 51008 60006 886// 91200=
07005,1996-11-12 18:00:00,7,1002.7,2.5,93,6,500,3.704,,,330,6.3,8.7,,,,,,,,,wg-a,,,,AAXX 12184 07005 12300 53302 10070 20060 39934 40027 53025 60006 85600 91800 333 10087 20063=
07005,1996-11-13 00:00:00,8,1006.2,2,93,7,0,25.928,,,10,,,,,,,,,,,wg-a,,,,AAXX 13004 07005 12/// /0114 10080 20070 39969 40062 53020 60016 90000=
07005,1996-11-13 06:00:00,6,1010.8,1.8,87,4,8000,14.816,,,340,5.5,8.3,,0,,,1,,,,wg-a,,,,AAXX 13064 07005 02558 53408 10060 20040 30013 40108 53018 60014 85500 90600 333 10083 20055 60007=
07005,1996-11-13 12:00:00,7,1015.9,1.8,87,5,20000,25.928,,,350,,,,,,,,,,60,wg-a,,,,AAXX 13124 07005 02570 73514 10070 20050 30065 40159 51018 61000 76062 878// 91200 333 6100=
07005,1996-11-13 18:00:00,6,1018.6,1.5,87,4,20000,11.112,,,340,4,8.6,,,,,,,,,wg-a,,,,AAXX 13184 07005 32570 33406 10060 20040 30091 40186 53015 83800 91800 333 10086 20040=
07005,1996-11-14 00:00:00,2,1021.1,0.6,100,2,0,7.408,,,10,,,,,,,,,,,wg-a,,,,AAXX 14004 07005 12/// /0104 10020 20020 30114 40211 53006 60006 90000=
07005,1996-11-14 06:00:00,3,1022.7,1.2,93,2,8000,3.704,,,60,1.7,5.9,,0,,,,,,,wg-a,,,,AAXX 14064 07005 02558 40602 10030 20020 30130 40227 51012 60004 84500 90600 333 10059 20017 60007=
07005,1996-11-14 12:00:00,9,1024,0.4,71,4,25000,14.816,,,10,,,,,,,,,,,wg-a,,,,AAXX 14124 07005 12575 30108 10090 20040 30145 40240 50004 60006 83800 91200=
07005,1996-11-14 18:00:00,4,1024.4,0.5,87,2,25000,11.112,,,10,2.6,8.8,,,,,,,,,wg-a,,,,AAXX 14184 07005 12575 20106 10040 20020 30148 40244 51005 60006 82800 91800 333 10088 20026=
07005,1996-11-15 00:00:00,2,1024.3,-0.2,93,1,0,11.112,,,60,,,,,,,,,,,wg-a,,,,AAXX 15004 07005 12/// /0606 10020 20010 30146 40243 55002 60006 90000=
07005,1996-11-15 06:00:00,0,1023.5,-0.4,93,-1,6000,11.112,,,70,-0.3,3.8,,,,,1,,,,wg-a,,,,AAXX 15064 07005 12/56 00706 10000 21010 30137 40235 56004 60014 80000 90600 333 10038 21003=
07005,1996-11-15 12:00:00,4,1023.8,-0.5,75,0,6000,14.816,,,60,,,,,,,,,,,wg-a,,,,AAXX 15124 07005 12/56 00608 10040 20000 30142 40238 58005 60006 80000 91200=
07005,1996-11-15 18:00:00,0,1024.9,1,93,-1,2000,3.704,,,140,-0.8,4.5,,,,,,,,10,wg-a,,,,AAXX 15184 07005 12/20 01402 10000 21010 30151 40249 53010 60006 71000 80000 91800 333 10045 21008=
07005,1996-11-16 00:00:00,-2,1025.6,0.1,100,-2,0,7.408,,,90,,,,,,,,,,,wg-a,,,,AAXX 16004 07005 12/// /0904 11020 21020 30158 40256 50001 60006 90000=
07005,1996-11-16 06:00:00,-1,1025.6,0.5,93,-2,500,7.408,,,180,-2.3,0.4,,,,,,,,45,wg-a,,,,AAXX 16064 07005 12/00 91804 11010 21020 30158 40256 53005 60006 74544 89/// 90600 333 10004 21023=
07005,1996-11-16 12:00:00,1,1025.1,-1,100,1,500,0,,,0,,,,,,,,,,45,wg-a,,,,AAXX 16124 07005 12/00 90000 10010 20010 30154 40251 58010 60006 74544 89/// 91200=
07005,1996-11-16 18:00:00,1,1023.4,-0.4,100,1,0,3.704,,,200,-1.2,2.2,,,,,,,,,wg-a,,,,AAXX 16184 07005 32/// /2002 10010 20010 30137 40234 57004 91800 333 10022 21012=
07005,1996-11-17 00:00:00,-1,1020.1,-2.5,93,-2,0,0,,,0,,,,,,,,,,,wg-a,,,,AAXX 17004 07005 12/// /0000 11010 21020 30103 40201 56025 60006 90000=
07005,1996-11-17 06:00:00,-1,1014.6,-3.1,100,-1,200,7.408,,,140,-1.5,1.2,,,,,,,,46,wg-a,,,,AAXX 17064 07005 02102 81404 11010 21010 30049 40146 58031 60006 74644 886// 90600 333 10012 21015 60004=
07005,1996-11-17 12:00:00,4,1010.6,-2.7,100,4,3000,18.52,,,160,,,,0,,,,,,10,wg-a,,,,AAXX 17124 07005 02530 51610 10040 20040 30011 40106 58027 60006 71022 855// 91200 333 60007=
07005,1996-11-17 18:00:00,3,1007.2,-1.4,93,2,0,22.224,,,160,-1.2,5.4,,,,,,,,,wg-a,,,,AAXX 17184 07005 32/// /1612 10030 20020 39977 40072 58014 91800 333 10054 21012=
07005,1996-11-18 00:00:00,6,1005.6,-0.6,100,6,0,18.52,,,310,,,,,,,,,,,wg-a,,,,AAXX 18004 07005 12/// /3110 10060 20060 39962 40056 56006 60016 90000=
07005,1996-11-18 06:00:00,6,1004.1,-0.6,93,5,2500,11.112,,,300,2.8,5.8,,0,,,5,,,10,wg-a,,,,AAXX 18064 07005 02325 83006 10060 20050 39947 40041 55006 60054 710// 885// 90600 333 10058 20028 60007=
07005,1996-11-18 12:00:00,6,1005.7,0.7,87,4,15000,29.632,,,340,,,,,,,,,,,wg-a,,,,AAXX 18124 07005 12465 83416 10060 20040 39963 40057 51007 60016 875// 91200=
07005,1996-11-18 18:00:00,4,1006.6,0.9,87,2,20000,25.928,,,330,4.4,6.3,,,,,,,,,wg-a,,,,AAXX 18184 07005 32670 53314 10040 20020 39971 40066 53009 85500 91800 333 10063 20044=
07005,1996-11-19 00:00:00,1,1005.5,-1.2,93,0,0,7.408,,,260,,,,,,,,,,,wg-a,,,,AAXX 19004 07005 12/// /2604 10010 20000 39959 40055 56012 60006 90000=
07005,1996-11-19 06:00:00,0,997.3,-5.7,86,-2,10000,25.928,,,150,0.1,4.4,,,,,1,,,,wg-a,,,,AAXX 19064 07005 02760 81514 10000 21020 39878 49973 58057 60006 8257/ 90600 333 10044 20001 60014=
07005,1996-11-19 12:00:00,1,981.9,-7.2,93,0,4000,38.892,,72.228,160,,,,2,,,,,,70,wg-a,,,,AAXX 19124 07005 02440 81621 10010 20000 39726 49819 56072 60026 77076 877// 91200 333 60027 91039=
07005,1996-11-19 18:00:00,5,975,-2.6,87,3,25000,29.632,,,170,0.2,5.4,,,,,,,,3,wg-a,,,,AAXX 19184 07005 32475 41716 10050 20030 39659 49750 56026 70376 82802 91800 333 10054 20002=
07005,1996-11-20 00:00:00,7,970.9,-1.6,87,5,0,35.188,,,200,,,,1,,,,,,,wg-a,,,,AAXX 20004 07005 02/// /2019 10070 20050 39619 49709 55016 60016 90000 333 60017=
07005,1996-11-20 06:00:00,5,969.7,-1.2,93,4,4500,38.892,,,220,4.5,7.2,,3,,,9,,,61,wg-a,,,,AAXX 20064 07005 02345 82221 10050 20040 39606 49697 58012 60094 76162 887// 90600 333 10072 20045 60037=
07005,1996-11-20 12:00:00,6,982.7,6.3,93,5,10000,35.188,,,340,,,,2,,,,,,61,wg-a,,,,AAXX 20124 07005 02260 83419 10060 20050 39735 49827 51063 60066 76166 885// 91200 333 60027=
07005,1996-11-20 18:00:00,,1,6.6,,,20000,31.484,,,330,5.4,7.5,,1,,,,,,,wg-a,,,,AAXX 20184 07005 12570 73317 1//// 2//// 39863 51066 60017 871// 91800 333 10075 20054=
07005,1996-11-21 00:00:00,2,1001.6,1.9,87,0,0,11.112,,,320,,,,,,,,,,,wg-a,,,,AAXX 21004 07005 12/// /3206 10020 20000 39921 40016 51019 60006 90000=
07005,1996-11-21 06:00:00,2,1005.3,2,75,-2,20000,18.52,,,320,1,5.7,,,,,7,,,1,wg-a,,,,AAXX 21064 07005 12470 33210 10020 21020 39958 40053 51020 60074 7018/ 83200 90600 333 10057 20010=
07005,1996-11-21 12:00:00,6,1008.6,1.1,70,1,25000,14.816,,,290,,,,,,,,,,,wg-a,,,,AAXX 21124 07005 12575 22908 10060 20010 39992 40086 51011 60006 82201 91200=
07005,1996-11-21 18:00:00,2,1009.3,0.2,87,0,20000,3.704,,,150,0.7,6.3,,,,,,,,,wg-a,,,,AAXX 21184 07005 12/70 51502 10020 20000 39997 40093 53002 60006 80002 91800 333 10063 20007=
07005,1996-11-22 00:00:00,-1,1010.9,0.6,93,-2,0,7.408,,,190,,,,,,,,,,,wg-a,,,,AAXX 22004 07005 12/// /1904 11010 21020 30012 40109 53006 60006 90000=
07005,1996-11-22 12:00:00,6,1014.3,-0.3,70,1,20000,22.224,,,220,,,,0,,,,,,,wg-a,,,,AAXX 22124 07005 02570 62212 10060 20010 30048 40143 58003 60006 81202 91200 333 60007=
07005,1996-11-22 18:00:00,3,1012.7,-1,81,0,20000,14.816,,,190,-0.6,6.2,,,,,,,,,wg-a,,,,AAXX 22184 07005 32/70 71908 10030 20000 30031 40127 58010 82042 91800 333 10062 21006=
07005,1996-11-23 00:00:00,2,1010.5,-1.4,87,0,0,18.52,,,200,,,,,,,,,,,wg-a,,,,AAXX 23004 07005 12/// /2010 10020 20000 30009 40105 56014 60006 90000=
07005,1996-11-23 06:00:00,1,1009.2,-0.2,100,1,6000,14.816,,,220,1.1,3.1,,2,,,3,,,68,wg-a,,,,AAXX 23064 07005 02356 82208 10010 20010 39996 40092 55002 60034 7687/ 887// 90600 333 10031 20011 60027=
07005,1996-11-23 12:00:00,5,1012.8,1.9,81,2,12000,25.928,,,340,,,,,,,,,,2,wg-a,,,,AAXX 23124 07005 12462 43414 10050 20020 30033 40128 51019 60016 70287 83802 91200=
07005,1996-11-23 18:00:00,1,1017.7,2.4,80,-2,0,11.112,,,280,1.1,5.2,,,,,,,,,wg-a,,,,AAXX 23184 07005 32/// /2806 10010 21020 30080 40177 51024 91800 333 10052 20011=
07005,1996-11-24 00:00:00,0,1021,1.7,93,-1,0,14.816,,,220,,,,,,,,,,,wg-a,,,,AAXX 24004 07005 12/// /2208 10000 21010 30113 40210 51017 60006 90000=
07005,1996-11-24 06:00:00,2,1022.7,1,87,0,10000,11.112,,,200,0.1,1.7,,,,,1,,,1,wg-a,,,,AAXX 24064 07005 02460 52006 10020 20000 30130 40227 53010 60014 7018/ 85800 90600 333 10017 20001 61000=
07005,1996-11-24 12:00:00,5,1021.7,-1.5,75,1,20000,22.224,,,220,,,,,,,,,,,wg-a,,,,AAXX 24124 07005 12470 72212 10050 20010 30121 40217 58015 60006 8122/ 91200=
07005,1996-11-24 18:00:00,3,1015.8,-3.9,87,1,0,29.632,,,170,1.1,4.8,,2,,,,,,,wg-a,,,,AAXX 24184 07005 12/// /1716 10030 20010 30062 40158 58039 60027 91800 333 10048 20011=
07005,1996-11-25 00:00:00,4,1006.3,-4.9,93,3,0,25.928,,,170,,,,,,,,,,,wg-a,,,,AAXX 25004 07005 12/// /1714 10040 20030 39968 40063 58049 60056 90000=
07005,1996-11-25 06:00:00,7,999.1,-2.6,93,6,8000,18.52,,,210,1.7,6.8,,0,,,8,,,50,wg-a,,,,AAXX 25064 07005 02258 82110 10070 20060 39898 49991 56026 60084 750// 887// 90600 333 10068 20017 60007=
07005,1996-11-25 12:00:00,8,997.1,-1.5,93,7,15000,18.52,,,290,,,,3,,,,,,25,wg-a,,,,AAXX 25124 07005 02565 62910 10080 20070 39879 49971 58015 60036 72581 86200 91200 333 60037=
07005,1996-11-25 18:00:00,7,996.8,0.7,93,6,10000,14.816,,,310,6.5,10.9,,5,,,,,,1,wg-a,,,,AAXX 25184 07005 12460 73108 10070 20060 39875 49968 53007 60057 70162 8687/ 91800 333 10109 20065=
07005,1996-11-26 00:00:00,6,1001.1,2,93,5,0,29.632,,,320,,,,,,,,,,,wg-a,,,,AAXX 26004 07005 12/// /3216 10060 20050 39918 40011 53020 60026 90000=
07005,1996-11-26 06:00:00,6,1006.9,3.3,87,4,15000,31.484,,,340,5.9,7.3,,,,,14,,,2,wg-a,,,,AAXX 26064 07005 12465 63417 10060 20040 39975 40069 53033 60144 7028/ 86800 90600 333 10073 20059=
07005,1996-11-26 12:00:00,7,1011.9,2.3,81,4,0,29.632,,,340,,,,,,,,,,,wg-a,,,,AAXX 26124 07005 12/// /3416 10070 20040 30025 40119 51023 60006 91200=
07005,1996-11-26 18:00:00,3,1013.8,0.8,87,1,15000,11.112,,,340,2.5,7.5,,,,,,,,,wg-a,,,,AAXX 26184 07005 12565 33406 10030 20010 30042 40138 51008 60006 83800 91800 333 10075 20025=
07005,1996-11-27 00:00:00,3,1014.4,-0.2,93,2,0,11.112,,,290,,,,,,,,,,,wg-a,,,,AAXX 27004 07005 12/// /2906 10030 20020 30048 40144 56002 60006 90000=
07005,1996-11-27 06:00:00,1,1011.8,-1.5,100,1,6000,11.112,,,170,1.2,2.9,,,,,,,,,wg-a,,,,AAXX 27064 07005 12/56 71706 10010 20010 30022 40118 56015 60006 80002 90600 333 10029 20012=
07005,1996-11-27 12:00:00,2,1007.9,-2.2,100,2,900,18.52,,,120,,,,,,,,,,42,wg-a,,,,AAXX 27124 07005 12109 81210 10020 20020 39984 40079 58022 60006 74242 886// 91200=
07005,1996-11-27 18:00:00,1,1008.7,1.9,86,-1,4000,14.816,,,50,-0.3,2.5,,,,,,,,10,wg-a,,,,AAXX 27184 07005 12340 80508 10010 21010 39991 40087 53019 60006 71022 886// 91800 333 10025 21003=
07005,1996-11-28 00:00:00,-1,1013.3,2.2,100,-1,0,11.112,,,20,,,,,,,,,,,wg-a,,,,AAXX 28004 07005 12/// /0206 11010 21010 30036 40133 53022 60006 90000=
07005,1996-11-28 06:00:00,0,1017.2,2.2,93,-1,1500,3.704,,,170,-1.9,0.9,,,,,,,,71,wg-a,,1,,AAXX 28064 07005 02215 81702 10000 21010 30075 40172 51022 61000 7717/ 877// 90600 333 10009 21019 4/001 6100=
07005,1996-11-28 12:00:00,4,1020.1,1.2,87,2,15000,18.52,,,310,,,,0,,,,,,3,wg-a,,,,AAXX 28124 07005 02465 73110 10040 20020 30105 40201 51012 60016 70376 8684/ 91200 333 60007=
07005,1996-11-28 18:00:00,3,1020.9,0.7,93,2,10000,3.704,,,290,-0.2,4.5,,,,,,,,,wg-a,,,,AAXX 28184 07005 32460 52902 10030 20020 30113 40209 51007 85200 91800 333 10045 21002=
07005,1996-11-29 00:00:00,1,1018.6,-1.9,93,0,0,14.816,,,210,,,,,,,,,,,wg-a,,,,AAXX 29004 07005 12/// /2108 10010 20000 30089 40186 58019 60006 90000=
07005,1996-11-29 06:00:00,5,1007.6,-6.5,87,3,7000,25.928,,,200,0.8,4.5,,2,,,2,,,61,wg-a,,,,AAXX 29064 07005 02257 82014 10050 20030 39981 40076 57065 60024 7616/ 887// 90600 333 10045 20008 60027=
07005,1996-11-29 12:00:00,11,999.6,-4,100,11,6000,50.004,,,270,,,,5,,,,,,61,wg-a,,,,AAXX 29124 07005 02156 82727 10110 20110 39905 49996 58040 60066 76166 887// 91200 333 60057=
07005,1996-11-29 18:00:00,8,999.7,0.1,93,7,15000,22.224,,,290,4.5,11.3,,3,,,,,,2,wg-a,,,,AAXX 29184 07005 12465 82912 10080 20070 39904 49997 50001 60037 70262 887// 91800 333 10113 20045=
07005,1996-11-30 00:00:00,7,1001.6,0.7,81,4,0,29.632,,,300,,,,,,,,,,,wg-a,,,,AAXX 30004 07005 12/// /3016 10070 20040 39923 40016 51007 60006 90000=
07005,1996-11-30 06:00:00,7,1001.6,0.3,81,4,8000,29.632,,,310,7,8.6,,0,,,16,,,2,wg-a,,,,AAXX 30064 07005 02358 73116 10070 20040 39923 40016 53003 60164 70288 878// 90600 333 10086 20070 60007=
07005,1996-11-30 12:00:00,9,1003.1,0.4,76,5,14000,38.892,,,310,,,,,,,,,,1,wg-a,,,,AAXX 30124 07005 02464 73121 10090 20050 39938 40031 51004 61000 70182 878// 91200 333 6100=
07005,1996-11-30 18:00:00,7,1010.9,5,87,5,0,25.928,,,340,6.5,8.7,,,,,,,,,wg-a,,,,AAXX 30184 07005 32/// /3414 10070 20050 30015 40109 51050 91800 333 10087 20065=
07005,1996-12-01 00:00:00,3,1018,3,93,2,0,11.112,,,320,,,,,,,,,,,wg-a,,,,AAXX 01004 07005 12/// /3206 10030 20020 30084 40180 51030 60006 90000=
07005,1996-12-01 06:00:00,3,1019.8,0.5,93,2,4000,14.816,,,180,2.7,7.4,,0,,,1,,,10,wg-a,,,,AAXX 01064 07005 02/40 71808 10030 20020 30102 40198 50005 60014 71011 8703/ 90600 333 10074 20027 60007=
07005,1996-12-01 12:00:00,7,1016.6,-2.8,93,6,3500,18.52,,,180,,,,,,,,,,50,wg-a,,,,AAXX 01124 07005 02435 81810 10070 20060 30071 40166 58028 61000 75052 877// 91200 333 6100=
07005,1996-12-01 18:00:00,11,1012.7,-0.8,87,9,0,31.484,,,260,2.7,10.6,,0,,,,,,,wg-a,,,,AAXX 01184 07005 12/// /2617 10110 20090 30034 40127 56008 60007 91800 333 10106 20027=
07005,1996-12-02 00:00:00,9,1013.1,-0.1,76,5,0,31.484,,,290,,,,0,,,,,,,wg-a,,,,AAXX 02004 07005 02/// /2917 10090 20050 30037 40131 55001 60006 90000 333 60007=
07005,1996-12-02 06:00:00,8,1015.2,0.6,71,3,10000,35.188,,,300,7.6,10.6,,,,,1,,,,wg-a,,,,AAXX 02064 07005 12660 63019 10080 20030 30058 40152 53006 60014 86500 90600 333 10106 20076=
07005,1996-12-02 12:00:00,9,1017.1,0.1,71,4,15000,38.892,,,290,,,,,,,,,,,wg-a,,,,AAXX 02124 07005 12565 52921 10090 20040 30077 40171 50001 60006 82202 91200=
07005,1996-12-02 18:00:00,7,1017.7,0.4,76,3,15000,25.928,,,290,7.1,9.4,,,,,,,,,wg-a,,,,AAXX 02184 07005 12565 62914 10070 20030 30082 40177 50004 60006 82202 91800 333 10094 20071=
07005,1996-12-03 00:00:00,5,1016.2,-1.4,87,3,0,14.816,,,210,,,,,,,,,,,wg-a,,,,AAXX 03004 07005 12/// /2108 10050 20030 30067 40162 57014 60006 90000=
07005,1996-12-03 06:00:00,6,1008.5,-4.7,93,5,6000,22.224,,,170,5.1,7.6,,0,,,,,,61,wg-a,,,,AAXX 03064 07005 02456 81712 10060 20050 39991 40085 58047 60004 761// 8557/ 90600 333 10076 20051 60007=
07005,1996-12-03 12:00:00,9,998.6,-4.9,93,8,8000,42.596,,,200,,,,1,,,,,,61,wg-a,,,,AAXX 03124 07005 02458 82023 10090 20080 39894 49986 56049 60046 76166 885// 91200 333 60017=
07005,1996-12-03 18:00:00,9,995.8,0.3,87,7,6000,29.632,,,250,6.4,10.4,,3,,,,,,61,wg-a,,,,AAXX 03184 07005 12456 82516 10090 20070 39866 49958 53003 60037 76165 885// 91800 333 10104 20064=
07005,1996-12-04 00:00:00,8,998,1.6,81,5,0,29.632,,,230,,,,,,,,,,,wg-a,,,,AAXX 04004 07005 12/// /2316 10080 20050 39887 49980 53016 60016 90000=
07005,1996-12-04 06:00:00,5,1002.2,2.4,87,3,15000,18.52,,,220,5.4,8.9,,,,,9,,,,wg-a,,,,AAXX 04064 07005 12565 22210 10050 20030 39928 40022 51024 60094 81230 90600 333 10089 20054=
07005,1996-12-04 12:00:00,7,1006.1,1.2,81,4,15000,18.52,,,210,,,,,,,,,,,wg-a,,,,AAXX 04124 07005 12565 72110 10070 20040 39968 40061 51012 60006 82802 91200=
07005,1996-12-04 18:00:00,5,1008.5,1.4,87,3,15000,14.816,,,180,4.7,8.3,,,,,,,,,wg-a,,,,AAXX 04184 07005 12565 61808 10050 20030 39991 40085 51014 60006 81302 91800 333 10083 20047=
07005,1996-12-05 00:00:00,4,1011.1,1.3,93,3,0,14.816,,,130,,,,,,,,,,,wg-a,,,,AAXX 05004 07005 12/// /1308 10040 20030 30016 40111 52013 60006 90000=
07005,1996-12-05 06:00:00,3,1012.7,0.9,100,3,500,7.408,,,120,3.2,5.5,,,,,,,,,wg-a,,,,AAXX 05064 07005 12100 61204 10030 20030 30032 40127 53009 60006 82601 90600 333 10055 20032=
07005,1996-12-05 12:00:00,6,1014.5,0.2,93,5,3500,3.704,,,170,,,,,,,,,,10,wg-a,,,,AAXX 05124 07005 12535 61702 10060 20050 30050 40145 50002 60006 71022 81232 91200=
07005,1996-12-05 18:00:00,4,1015.7,0.9,93,3,7000,7.408,,,60,2.5,8,,,,,,,,,wg-a,,,,AAXX 05184 07005 32/57 50604 10040 20030 30062 40157 53009 81032 91800 333 10080 20025=
07005,1996-12-06 00:00:00,1,1016.8,0.2,93,0,0,11.112,,,70,,,,,,,,,,,wg-a,,,,AAXX 06004 07005 12/// /0706 10010 20000 30071 40168 51002 60006 90000=
07005,1996-12-06 06:00:00,3,1017.9,0.6,100,3,4000,7.408,,,50,-0.4,4.4,,,,,,,,10,wg-a,,,,AAXX 06064 07005 12340 80504 10030 20030 30083 40179 53006 60004 71022 886// 90600 333 10044 21004=
07005,1996-12-06 12:00:00,6,1019.1,0.6,93,5,4000,14.816,,,50,,,,1,,,,,,61,wg-a,,,,AAXX 06124 07005 02340 80508 10060 20050 30096 40191 51006 60016 76162 877// 91200 333 60017=
07005,1996-12-06 18:00:00,6,1019.5,1.6,93,5,3500,18.52,,,80,3.3,5.7,,1,,,,,,21,wg-a,,,,AAXX 06184 07005 12335 80810 10060 20050 30100 40195 51016 60017 72166 877// 91800 333 10057 20033=
07005,1996-12-07 00:00:00,6,1021.2,0.8,93,5,0,14.816,,,80,,,,,,,,,,,wg-a,,,,AAXX 07004 07005 12/// /0808 10060 20050 30117 40212 53008 60006 90000=
07005,1996-12-07 06:00:00,4,1022.2,0.7,100,4,1500,14.816,,,130,4.4,5.7,,,,,5,,,10,wg-a,,,,AAXX 07064 07005 02215 81308 10040 20040 30126 40222 53007 60006 710// 886// 90600 333 10057 20044 60054=
07005,1996-12-07 12:00:00,4,1024.8,0.3,100,4,1800,11.112,,,100,,,,,,,,,,10,wg-a,,,,AAXX 07124 07005 12118 81006 10040 20040 30152 40248 50003 60006 71042 886// 91200=
07005,1996-12-07 18:00:00,4,1026.2,1,93,3,0,7.408,,,60,2.9,4.8,,,,,,,,,wg-a,,,,AAXX 07184 07005 12/// /0604 10040 20030 30165 40262 53010 60006 91800 333 10048 20029=
07005,1996-12-08 00:00:00,2,1027.7,0.6,100,2,0,7.408,,,90,,,,,,,,,,,wg-a,,,,AAXX 08004 07005 12/// /0904 10020 20020 30180 40277 51006 60006 90000=
07005,1996-12-08 06:00:00,1,1026.8,-0.5,100,1,400,7.408,,,80,1.3,3.8,,,,,,,,45,wg-a,,,,AAXX 08064 07005 12/04 90804 10010 20010 30170 40268 55005 60004 7454/ 89/// 90600 333 10038 20013=
07005,1996-12-08 12:00:00,2,1026.8,-0.3,100,2,1100,11.112,,,100,,,,,,,,,,28,wg-a,,,,AAXX 08124 07005 12111 81006 10020 20020 30171 40268 58003 60006 72842 886// 91200=
07005,1996-12-08 18:00:00,2,1025.6,0.5,93,1,0,7.408,,,100,1.4,2.5,,,,,,,,,wg-a,,,,AAXX 08184 07005 12/// /1004 10020 20010 30159 40256 51005 60006 91800 333 10025 20014=
07005,1996-12-09 00:00:00,1,1024.6,-0.8,100,1,0,11.112,,,130,,,,,,,,,,,wg-a,,,,AAXX 09004 07005 12/// /1306 10010 20010 30149 40246 56008 60006 90000=
07005,1996-12-09 06:00:00,0,1022.4,-1.1,100,0,1000,3.704,,,40,0,1.8,,,,,,,,10,wg-a,,,,AAXX 09064 07005 02110 80402 10000 20000 30126 40224 57011 61000 71052 876// 90600 333 10018 20000 6100=
07005,1996-12-09 12:00:00,0,1021.3,-1.3,100,0,1200,7.408,,,90,,,,,,,,,,10,wg-a,,,,AAXX 09124 07005 12112 80904 10000 20000 30115 40213 58013 60006 71042 886// 91200=
07005,1996-12-09 18:00:00,0,1019.9,,100,0,2000,11.112,,,60,,,,,,,,,,10,wg-a,,,,AAXX 09184 07005 32220 80606 10000 20000 30102 40199 71022 886// 91800=
07005,1996-12-10 00:00:00,0,1018.6,-1,93,-1,0,3.704,,,100,,,,,,,,,,,wg-a,,,,AAXX 10004 07005 12/// /1002 10000 21010 30089 40186 58010 60006 90000=
07005,1996-12-10 06:00:00,-1,1017.5,-0.8,93,-2,1500,11.112,,,150,-0.7,0.1,,,,,,,,10,wg-a,,,,AAXX 10064 07005 12115 81506 11010 21020 30078 40175 58008 60006 710// 886// 90600 333 10001 21007=
07005,1996-12-10 12:00:00,0,1018,-0.4,93,-1,2500,11.112,,,130,,,,,,,,,,10,wg-a,,,,AAXX 10124 07005 12225 81306 10000 21010 30083 40180 58004 60006 71022 886// 91200=
07005,1996-12-10 18:00:00,-1,1018.1,0.4,100,-1,1500,11.112,,,90,-1,-0.2,,,,,,,,10,wg-a,,,,AAXX 10184 07005 12115 80906 11010 21010 30084 40181 53004 60006 71022 886// 91800 333 11002 21010=
07005,1996-12-11 00:00:00,-1,1018.4,-0.2,100,-1,0,14.816,,,50,,,,,,,,,,,wg-a,,,,AAXX 11004 07005 12/// /0508 11010 21010 30086 40184 56002 60006 90000=
07005,1996-12-11 06:00:00,-1,1017.5,-0.4,100,-1,1500,11.112,,,60,-1.1,-0.4,,,,,,,,10,wg-a,,,,AAXX 11064 07005 12215 80606 11010 21010 30078 40175 56004 60006 710// 886// 90600 333 11004 21011=
07005,1996-12-11 12:00:00,-1,1016.8,-1.1,93,-2,1000,7.408,,,140,,,,,,,,,,10,wg-a,,,,AAXX 11124 07005 12110 81404 11010 21020 30071 40168 58011 60006 71042 886// 91200=
07005,1996-12-11 18:00:00,-1,1015.6,-0.3,100,-1,1200,11.112,,,150,-1,-0.6,,,,,,,,10,wg-a,,,,AAXX 11184 07005 12112 81506 11010 21010 30059 40156 58003 60006 71022 886// 91800 333 11006 21010=
07005,1996-12-12 00:00:00,-1,1014,-0.6,100,-1,0,18.52,,,160,,,,,,,,,,,wg-a,,,,AAXX 12004 07005 12/// /1610 11010 21010 30043 40140 58006 60006 90000=
07005,1996-12-12 06:00:00,0,1011.9,-1.8,93,-1,3500,14.816,,,130,-1,-0.4,,,,,,,,10,wg-a,,,,AAXX 12064 07005 12135 81308 10000 21010 30022 40119 57018 60006 71022 886// 90600 333 11004 21010=
07005,1996-12-12 12:00:00,0,1011,-1.2,93,-1,300,14.816,,,130,,,,,,,,,,45,wg-a,,,,AAXX 12124 07005 12/03 91308 10000 21010 30013 40110 58012 60006 74542 89/// 91200=
07005,1996-12-12 18:00:00,0,1008.8,-0.4,100,0,100,11.112,,,120,-0.5,0.3,,,,,,,,45,wg-a,,,,AAXX 12184 07005 12/01 91206 10000 20000 39992 40088 55004 60006 74544 89/// 91800 333 10003 21005=
07005,1996-12-13 00:00:00,1,1006.1,-1.3,93,0,0,11.112,,,110,,,,,,,,,,,wg-a,,,,AAXX 13004 07005 12/// /1106 10010 20000 39965 40061 58013 60016 90000=
07005,1996-12-13 06:00:00,1,1003.4,-1,100,1,10000,11.112,,,60,0.1,1.3,,1,,,4,,,61,wg-a,,,,AAXX 13064 07005 02360 80606 10010 20010 39939 40034 56010 60044 76166 885// 90600 333 10013 20001 60017=
07005,1996-12-13 12:00:00,3,1003.6,-0.2,100,3,4000,18.52,,,40,,,,0,,,,,,10,wg-a,,,,AAXX 13124 07005 02340 80410 10030 20030 39941 40036 58002 60036 71062 885// 91200 333 60007=
07005,1996-12-13 18:00:00,3,1005.4,1.4,93,2,3000,18.52,,,50,1.3,3.7,,,,,,,,10,wg-a,,,,AAXX 13184 07005 32430 80510 10030 20020 39959 40054 51014 71022 885// 91800 333 10037 20013=
07005,1996-12-14 00:00:00,1,1008.1,1.1,86,-1,0,18.52,,,60,,,,,,,,,,,wg-a,,,,AAXX 14004 07005 12/// /0610 10010 21010 39985 40081 51011 60006 90000=
07005,1996-12-14 06:00:00,-1,1010.1,1.1,86,-3,10000,14.816,,,60,-1.4,3.2,,,,,3,,,,wg-a,,,,AAXX 14064 07005 02/60 00608 11010 21030 30004 40101 53011 60006 80000 90600 333 10032 21014 60034=
07005,1996-12-14 12:00:00,2,1012.7,1.1,80,-1,15000,7.408,,,300,,,,,,,,,,,wg-a,,,,AAXX 14124 07005 12565 63004 10020 21010 30031 40127 51011 60006 82801 91200=
07005,1996-12-14 18:00:00,1,1013.4,0.3,75,-3,0,14.816,,,220,-2.4,4.6,,,,,,,,,wg-a,,,,AAXX 14184 07005 32/// /2208 10010 21030 30038 40134 52003 91800 333 10046 21024=
07005,1996-12-15 00:00:00,2,1013.7,-0.2,87,0,0,18.52,,,230,,,,,,,,,,,wg-a,,,,AAXX 15004 07005 12/// /2310 10020 20000 30041 40137 58002 60006 90000=
07005,1996-12-15 06:00:00,5,1013.7,0.2,81,2,10000,22.224,,,250,0.7,4.6,,,,,,,,,wg-a,,,,AAXX 15064 07005 02560 82512 10050 20020 30042 40137 53002 60006 885// 90600 333 10046 20007 60004=
07005,1996-12-15 12:00:00,6,1016.3,1,93,5,3000,14.816,,,260,,,,1,,,,,,58,wg-a,,,,AAXX 15124 07005 02430 82608 10060 20050 30068 40163 51010 60016 75865 885// 91200 333 60017=
07005,1996-12-15 18:00:00,6,1017.7,1.2,93,5,0,7.408,,,200,4.5,6.2,,,,,,,,,wg-a,,,,AAXX 15184 07005 32/// /2004 10060 20050 30082 40177 52012 91800 333 10062 20045=
07005,1996-12-16 00:00:00,5,1018.3,-0.3,93,4,0,7.408,,,140,,,,,,,,,,,wg-a,,,,AAXX 16004 07005 12/// /1404 10050 20040 30088 40183 58003 60006 90000=
07005,1996-12-16 06:00:00,4,1017.4,-0.6,100,4,2500,14.816,,,150,4.2,5.5,,,,,1,,,10,wg-a,,,,AAXX 16064 07005 02325 81508 10040 20040 30078 40174 55006 60006 71022 875// 90600 333 10055 20042 60014=
07005,1996-12-16 12:00:00,4,1015.8,-1.2,93,3,1000,11.112,,,130,,,,,,,,,,10,wg-a,,,,AAXX 16124 07005 12210 81306 10040 20030 30062 40158 58012 60006 71022 886// 91200=
07005,1996-12-16 18:00:00,3,1012.6,-0.7,100,3,4000,7.408,,,120,3.2,4.5,,,,,,,,10,wg-a,,,,AAXX 16184 07005 32240 81204 10030 20030 30030 40126 56007 71054 875// 91800 333 10045 20032=
07005,1996-12-17 00:00:00,3,1011.7,0.7,93,2,0,14.816,,,200,,,,,,,,,,,wg-a,,,,AAXX 17004 07005 12/// /2008 10030 20020 30022 40117 50007 60016 90000=
07005,1996-12-17 06:00:00,2,1010.9,-0.6,100,2,4000,18.52,,,140,2.3,3.6,,2,,,4,,,61,wg-a,,,,AAXX 17064 07005 02240 81410 10020 20020 30013 40109 58006 60044 76166 887// 90600 333 10036 20023 60027=
07005,1996-12-17 12:00:00,4,1010.5,-0.7,93,3,2500,14.816,,,130,,,,1,,,,,,21,wg-a,,,,AAXX 17124 07005 02225 81308 10040 20030 30010 40105 58007 60036 72162 887// 91200 333 60017=
07005,1996-12-17 18:00:00,4,1010.5,0.3,100,4,3500,14.816,,,130,2.3,4.4,,,,,,,,10,wg-a,,,,AAXX 17184 07005 32235 81308 10040 20040 30010 40105 50003 71062 886// 91800 333 10044 20023=
07005,1996-12-18 00:00:00,6,1010.2,-0.5,93,5,0,11.112,,,150,,,,,,,,,,,wg-a,,,,AAXX 18004 07005 12/// /1506 10060 20050 30008 40102 57005 60036 90000=
07005,1996-12-18 06:00:00,7,1007.6,-1.3,100,7,500,14.816,,,160,4.4,6.9,,,,,7,,,3,wg-a,,,,AAXX 18064 07005 12400 71608 10070 20070 39982 40076 56013 60074 7036/ 875// 90600 333 10069 20044=
07005,1996-12-18 12:00:00,10,1005.1,-1.6,82,7,10000,14.816,,,140,,,,,,,,,,,wg-a,,,,AAXX 18124 07005 12/60 71408 10100 20070 39959 40051 58016 60006 84032 91200=
07005,1996-12-18 18:00:00,9,1002.6,-0.6,87,7,12000,18.52,,,150,6.9,12.2,,0,,,,,,61,wg-a,,,,AAXX 18184 07005 12562 81510 10090 20070 39933 40026 58006 60007 76162 885// 91800 333 10122 20069=
07005,1996-12-19 00:00:00,8,1000.8,-0.9,100,8,0,11.112,,,160,,,,,,,,,,,wg-a,,,,AAXX 19004 07005 12/// /1606 10080 20080 39915 40008 56009 60026 90000=
07005,1996-12-19 06:00:00,8,998.6,-1.2,100,8,800,11.112,,,200,8.2,9,,1,,,6,,,61,wg-a,,,,AAXX 19064 07005 02208 82006 10080 20080 39894 49986 56012 60064 76164 887// 90600 333 10090 20082 60017=
07005,1996-12-19 12:00:00,10,999.2,0.1,93,9,700,11.112,,,220,,,,,,,,,,47,wg-a,,,,AAXX 19124 07005 12/07 92206 10100 20090 39900 49992 50001 60016 74765 89/// 91200=
07005,1996-12-19 18:00:00,9,999,0.3,100,9,4500,7.408,,,220,8.2,9.8,,0,,,,,,10,wg-a,,,,AAXX 19184 07005 12245 72204 10090 20090 39898 49990 53003 60007 71062 877// 91800 333 10098 20082=
07005,1996-12-20 00:00:00,8,999.7,0.3,100,8,0,11.112,,,130,,,,,,,,,,,wg-a,,,,AAXX 20004 07005 12/// /1306 10080 20080 39904 49997 50003 60006 90000=
07005,1996-12-20 06:00:00,8,999.9,0.3,93,7,3000,11.112,,,120,7.5,9.1,,1,,,3,,,58,wg-a,,,,AAXX 20064 07005 02230 81206 10080 20070 39906 49999 53003 60034 75865 887// 90600 333 10091 20075 60017=
07005,1996-12-20 12:00:00,9,1002,0.8,93,8,2000,22.224,,,70,,,,1,,,,,,61,wg-a,,,,AAXX 20124 07005 02320 80712 10090 20080 39927 40020 51008 60066 76165 887// 91200 333 60017=
07005,1996-12-20 18:00:00,5,1004.6,1.6,93,4,900,25.928,,,70,4.8,8.8,,0,,,,,,42,wg-a,,,,AAXX 20184 07005 12009 80714 10050 20040 39952 40046 53016 60007 74265 887// 91800 333 10088 20048=
07005,1996-12-21 00:00:00,2,1007.7,1,93,1,0,25.928,,,70,,,,,,,,,,,wg-a,,,,AAXX 21004 07005 12/// /0714 10020 20010 39982 40077 53010 60006 90000=
07005,1996-12-21 06:00:00,1,1009.2,1,93,0,2000,25.928,,,70,1.3,4.8,,,,,8,,,10,wg-a,,,,AAXX 21064 07005 02120 80714 10010 20000 39996 40092 53010 60006 710// 886// 90600 333 10048 20013 60084=
07005,1996-12-21 12:00:00,2,1010.4,-0.4,87,0,6000,29.632,,,80,,,,,,,,,,,wg-a,,,,AAXX 21124 07005 12556 70816 10020 20000 30008 40104 58004 60006 875// 91200=
07005,1996-12-21 18:00:00,1,1010.7,0.5,93,0,0,25.928,,,80,1.2,2.4,,,,,,,,,wg-a,,,,AAXX 21184 07005 12/// /0814 10010 20000 30011 40107 51005 60006 91800 333 10024 20012=
07005,1996-12-22 00:00:00,1,1011.4,-0.2,93,0,0,29.632,,,90,,,,,,,,,,,wg-a,,,,AAXX 22004 07005 12/// /0916 10010 20000 30018 40114 58002 60006 90000=
07005,1996-12-22 06:00:00,0,1010.9,-0.4,86,-2,7000,29.632,,,80,-0.3,1.3,,,,,,,,,wg-a,,,,AAXX 22064 07005 12457 80816 10000 21020 30012 40109 58004 60006 885// 90600 333 10013 21003=
07005,1996-12-22 12:00:00,1,1010.4,-1.2,80,-2,6000,29.632,,,80,,,,,,,,,,,wg-a,,,,AAXX 22124 07005 12556 70816 10010 21020 30008 40104 58012 60006 8353/ 91200=
07005,1996-12-22 18:00:00,1,1008.1,-0.5,75,-3,0,29.632,,,70,-0.5,1.7,,,,,,,,,wg-a,,,,AAXX 22184 07005 12/// /0716 10010 21030 39985 40081 58005 60006 91800 333 10017 21005=
07005,1996-12-23 00:00:00,0,1005.4,-1.5,86,-2,0,25.928,,,80,,,,,,,,,,,wg-a,,,,AAXX 23004 07005 12/// /0814 10000 21020 39958 40054 58015 60006 90000=
07005,1996-12-23 06:00:00,-1,1003.4,-0.8,69,-6,10000,22.224,,,70,-1.3,1,,,,,,,,,wg-a,,,,AAXX 23064 07005 12560 70712 11010 21060 39938 40034 56008 60006 875// 90600 333 10010 21013=
07005,1996-12-23 12:00:00,-1,1003.7,-0.1,59,-8,20000,29.632,,,60,,,,,,,,,,,wg-a,,,,AAXX 23124 07005 12770 20616 11010 21080 39941 40037 58001 60006 825/2 91200=
07005,1996-12-23 18:00:00,-3,1005.5,1.8,68,-8,12000,25.928,,,60,-2.7,-0.6,,,,,,,,,wg-a,,,,AAXX 23184 07005 12/62 00614 11030 21080 39958 40055 51018 60006 80000 91800 333 11006 21027=
07005,1996-12-24 00:00:00,-3,1006.3,-0.2,74,-7,0,35.188,,,70,,,,,,,,,,,wg-a,,,,AAXX 24004 07005 12/// /0719 11030 21070 39966 40063 56002 60006 90000=
07005,1996-12-24 06:00:00,-4,1006.1,0.1,80,-7,10000,31.484,,,70,-4.3,-2.7,,,,,,,,,wg-a,,,,AAXX 24064 07005 12660 80717 11040 21070 39963 40061 52001 60006 885// 90600 333 11027 21043=
07005,1996-12-24 12:00:00,-3,1006.8,-0.1,74,-7,10000,31.484,,,80,,,,,,,,,,,wg-a,,,,AAXX 24124 07005 12660 40817 11030 21070 39971 40068 56001 60006 83531 91200=
07005,1996-12-24 18:00:00,-3,1008.5,1.6,68,-8,0,31.484,,,80,-5.1,-2.3,,,,,,,,,wg-a,,,,AAXX 24184 07005 12/// /0817 11030 21080 39987 40085 53016 60006 91800 333 11023 21051=
07005,1996-12-25 00:00:00,-5,1012.1,1.7,68,-10,0,22.224,,,60,,,,,,,,,,,wg-a,,,,AAXX 25004 07005 12/// /0612 11050 21100 30022 40121 51017 60006 90000=
07005,1996-12-25 06:00:00,-7,1015.1,1.8,79,-10,10000,11.112,,,90,-6.7,-3.3,,,,,,,,,wg-a,,,,AAXX 25064 07005 12/60 00906 11070 21100 30052 40151 53018 60006 80000 90600 333 11033 21067=
07005,1996-12-25 12:00:00,0,1020.2,2.3,43,-11,25000,18.52,,,70,,,,,,,,,,,wg-a,,,,AAXX 25124 07005 12675 60710 10000 21110 30105 40202 51023 60006 86500 91200=
07005,1996-12-25 18:00:00,-1,1025.8,3.4,64,-7,0,18.52,,,60,-6.7,0.7,,,,,,,,,wg-a,,,,AAXX 25184 07005 12/// /0610 11010 21070 30160 40258 51034 60006 91800 333 10007 21067=
07005,1996-12-26 00:00:00,-4,1031.8,2.8,80,-7,0,14.816,,,40,,,,,,,,,,,wg-a,,,,AAXX 26004 07005 12/// /0408 11040 21070 30218 40318 51028 60006 90000=
07005,1996-12-26 06:00:00,-5,1036.5,2.3,86,-7,10000,18.52,,,90,-5.1,-1.3,,,,,,,,,wg-a,,,,AAXX 26064 07005 12/60 00910 11050 21070 30264 40365 51023 60006 80000 90600 333 11013 21051=
07005,1996-12-26 12:00:00,-1,1040.8,0.9,59,-8,12000,18.52,,,110,,,,,,,,,,,wg-a,,,,AAXX 26124 07005 12/62 11110 11010 21080 30308 40408 51009 60006 80001 91200=
07005,1996-12-26 18:00:00,-5,1041.3,-0,79,-8,10000,7.408,,,80,-5.5,-1.1,,,,,,,,,wg-a,,,,AAXX 26184 07005 12/60 30804 11050 21080 30312 40413 55000 60006 80001 91800 333 11011 21055=
07005,1996-12-27 00:00:00,-5,1038.6,-1.2,68,-10,0,18.52,,,130,,,,,,,,,,,wg-a,,,,AAXX 27004 07005 12/// /1310 11050 21100 30285 40386 57012 60006 90000=
07005,1996-12-27 06:00:00,-6,1034,-2,73,-10,12000,3.704,,,140,-6.1,-4.6,,,,,,,,,wg-a,,,,AAXX 27064 07005 12/62 51402 11060 21100 30239 40340 56020 60006 85030 90600 333 11046 21061=
07005,1996-12-27 12:00:00,-4,1028.4,-2.8,68,-9,15000,11.112,,,170,,,,,,,,,,,wg-a,,,,AAXX 27124 07005 12665 71706 11040 21090 30184 40284 58028 60006 8357/ 91200=
07005,1996-12-27 18:00:00,-3,1022.7,-2.8,80,-6,10000,14.816,,,170,-6.5,-2.6,,,,,,,,2,wg-a,,,,AAXX 27184 07005 02/60 81708 11030 21060 30128 40227 56028 61000 70272 8807/ 91800 333 11026 21065 ////=
07005,1996-12-28 00:00:00,-4,1022,0.4,86,-6,0,18.52,,,120,,,,,,,,,,,wg-a,,,,AAXX 28004 07005 12/// /1210 11040 21060 30121 40220 50004 60006 90000=
07005,1996-12-28 06:00:00,-9,1023.5,0.2,92,-10,3000,11.112,,,20,-8.5,-2.7,,,,,,,,10,wg-a,,0,,AAXX 28064 07005 02730 30206 11090 21100 30134 40235 51002 60006 710// 835/0 90600 333 11027 21085 4/9999 61000=
07005,1996-12-28 12:00:00,-6,1024.5,0.1,62,-12,8000,25.928,,,70,,,,,,,,,,,wg-a,,,,AAXX 28124 07005 12/58 40714 11060 21120 30145 40245 50001 60006 80002 91200=
07005,1996-12-28 18:00:00,-8,1024,0.5,73,-12,0,18.52,,,90,-9.3,-4.3,,,,,,,,,wg-a,,,,AAXX 28184 07005 12/// /0910 11080 21120 30139 40240 51005 60006 91800 333 11043 21093=
07005,1996-12-29 00:00:00,-10,1024.9,0.4,72,-14,0,22.224,,,60,,,,,,,,,,,wg-a,,,,AAXX 29004 07005 12/// /0612 11100 21140 30147 40249 50004 60006 90000=
07005,1996-12-29 06:00:00,-11,1023.2,-1.1,78,-14,10000,7.408,,,50,-11.1,-7.8,,,,,,,,,wg-a,,,,AAXX 29064 07005 12/60 00504 11110 21140 30130 40232 56011 60006 80000 90600 333 11078 21111=
07005,1996-12-29 12:00:00,-5,1021.7,-1.4,49,-14,9000,3.704,,,40,,,,,,,,,,,wg-a,,,,AAXX 29124 07005 12/59 70402 11050 21140 30118 40217 58014 60006 8703/ 91200=
07005,1996-12-29 18:00:00,-3,1016.8,-3,63,-9,0,11.112,,,270,-10.8,-2.7,,,,,,,,,wg-a,,,,AAXX 29184 07005 12/// /2706 11030 21090 30070 40168 58030 60006 91800 333 11027 21108=
07005,1996-12-30 00:00:00,2,1010.9,-3,100,2,0,22.224,,,330,,,,,,,,,,,wg-a,,,,AAXX 30004 07005 12/// /3312 10020 20020 30013 40109 58030 60006 90000=
07005,1996-12-30 06:00:00,-1,1010,0.3,74,-5,10000,25.928,,,50,-2.7,2.5,,,,,1,,,2,wg-a,,,,AAXX 30064 07005 12/60 20514 11010 21050 30003 40100 53003 60014 7026/ 80002 90600 333 10025 21027=
07005,1996-12-30 12:00:00,1,1009.5,-0.8,69,-4,500,14.816,,,50,,,,,,,,,,,wg-a,,,,AAXX 30124 07005 12500 10508 10010 21040 39999 40095 58008 60006 81800 91200=
07005,1996-12-30 18:00:00,-1,1009.8,0.8,80,-4,500,18.52,,,40,-3.6,1.4,,,,,,,,,wg-a,,,,AAXX 30184 07005 12500 70410 11010 21040 30001 40098 51008 60006 878// 91800 333 10014 21036=
07005,1996-12-31 00:00:00,-4,1010.7,0.6,86,-6,0,11.112,,,20,,,,,,,,,,,wg-a,,,,AAXX 31004 07005 12/// /0206 11040 21060 30009 40107 51006 60006 90000=
07005,1996-12-31 06:00:00,-4,1012.1,1.3,80,-7,10000,25.928,,,80,-4.2,-0.7,,,,,,,,22,wg-a,,1,,AAXX 31064 07005 02260 80814 11040 21070 30023 40121 53013 61000 72272 887// 90600 333 11007 21042 4/001 6100=
07005,1996-12-31 12:00:00,-6,1015.8,1.3,79,-9,6000,25.928,,,60,,,,,,,,,,22,wg-a,,,,AAXX 31124 07005 02456 70614 11060 21090 30059 40158 51013 61000 72272 875// 91200 333 6100=
07005,1996-12-31 18:00:00,-9,1018.6,1.8,79,-12,7000,22.224,,,70,-9.1,-4.2,,,,,,,,,wg-a,,1,,AAXX 31184 07005 32557 80712 11090 21120 30085 40186 53018 885// 91800 333 11042 21091 4/001=
