station_id,dh_utc,temperature,pression,pression_variation_3h,humidite,point_de_rosee,visibilite,vent_moyen,vent_rafales,vent_rafales_10min,vent_direction,temperature_min,temperature_max,pluie_1h,pluie_3h,pluie_6h,pluie_12h,pluie_24h,ensoleillement,temperature_sol,temps_omm,source,radiations,neige_au_sol,nebulosite,raw_msg
07005,1997-01-01 00:00:00,-11,1019.2,0.2,85,-13,0,22.224,,,80,,,,,,,,,,,wg-a,,,,AAXX 01004 07005 12/// /0812 11110 21130 30091 40192 50002 60006 90000=
07005,1997-01-01 06:00:00,-12,1019.4,0.4,85,-14,6000,25.928,,,70,-11.8,-9.1,,,,,,,,,wg-a,,1,,AAXX 01064 07005 02/56 00714 11120 21140 30092 40194 53004 60006 80000 90600 333 11091 21118 4/001 61000=
07005,1997-01-01 12:00:00,-10,1020.5,0.3,72,-14,3000,29.632,,,70,,,,,,,,,,10,wg-a,,,,AAXX 01124 07005 12/30 10716 11100 21140 30104 40205 50003 60006 71000 80002 91200=
07005,1997-01-01 18:00:00,-10,1022.2,1.2,72,-14,0,14.816,,,80,-12.1,-8.9,,,,,,,,,wg-a,,,,AAXX 01184 07005 12/// /0808 11100 21140 30120 40222 51012 60006 91800 333 11089 21121=
07005,1997-01-02 00:00:00,-11,1022.8,0.1,78,-14,0,11.112,,,50,,,,,,,,,,,wg-a,,,,AAXX 02004 07005 12/// /0506 11110 21140 30126 40228 50001 60006 90000=
07005,1997-01-02 06:00:00,-11,1021.6,-0.8,85,-13,4000,11.112,,,90,-11.5,-10.3,,,,,,,,10,wg-a,,0,,AAXX 02064 07005 12740 70906 11110 21130 30114 40216 55008 60006 710// 875// 90600 333 11103 21115 4/9999=
07005,1997-01-02 12:00:00,-8,1020.1,-1.1,79,-11,2500,11.112,,,100,,,,,,,,,,10,wg-a,,,,AAXX 02124 07005 12725 71006 11080 21110 30101 40201 58011 60006 71011 875// 91200=
07005,1997-01-02 18:00:00,-7,1017.5,-0.8,86,-9,2000,14.816,,,60,-11.3,-6.7,,,,,,,,10,wg-a,,0,,AAXX 02184 07005 12720 80608 11070 21090 30075 40175 58008 60006 71022 885// 91800 333 11067 21113 4/9999=
07005,1997-01-03 00:00:00,-7,1014.9,-1,79,-10,0,18.52,,,40,,,,,,,,,,,wg-a,,,,AAXX 03004 07005 12/// /0410 11070 21100 30050 40149 56010 60006 90000=
07005,1997-01-03 06:00:00,-11,1012.1,-1.5,92,-12,3500,14.816,,,70,-12,-6.8,,,,,,,,10,wg-a,,,,AAXX 03064 07005 12235 40708 11110 21120 30020 40121 56015 60006 71000 84600 90600 333 11068 21120=
07005,1997-01-03 12:00:00,-9,1011.1,-0.8,92,-10,1100,7.408,,,80,,,,,,,,,,10,wg-a,,,,AAXX 03124 07005 12211 80804 11090 21100 30011 40111 58008 60006 71011 886// 91200=
07005,1997-01-03 18:00:00,-7,1008.3,-0.3,86,-9,1500,14.816,,,80,-11.1,-6.9,,,,,,,,10,wg-a,,0,,AAXX 03184 07005 12215 80808 11070 21090 39984 40083 58003 60006 71022 886// 91800 333 11069 21111 4/9999=
07005,1997-01-04 00:00:00,-6,1006.8,-0.7,86,-8,0,18.52,,,50,,,,,,,,,,,wg-a,,,,AAXX 04004 07005 12/// /0510 11060 21080 39970 40068 56007 60006 90000=
07005,1997-01-04 06:00:00,-5,1005.6,0.4,86,-7,6000,11.112,,,50,-7.1,-5.1,,,,,,,,,wg-a,,,,AAXX 04064 07005 12356 80506 11050 21070 39958 40056 53004 60006 886// 90600 333 11051 21071=
07005,1997-01-04 12:00:00,-4,1006,-0.4,86,-6,2000,14.816,,,30,,,,,,,,,,10,wg-a,,,,AAXX 04124 07005 12220 80308 11040 21060 39962 40060 58004 60006 71022 886// 91200=
07005,1997-01-04 18:00:00,-4,1007.5,1.7,86,-6,0,18.52,,,70,-5.1,-4.1,,,,,,,,,wg-a,,,,AAXX 04184 07005 12/// /0710 11040 21060 39977 40075 52017 60006 91800 333 11041 21051=
07005,1997-01-05 00:00:00,-4,1009.4,1.3,86,-6,0,18.52,,,50,,,,,,,,,,,wg-a,,,,AAXX 05004 07005 12/// /0510 11040 21060 39996 40094 51013 60006 90000=
07005,1997-01-05 06:00:00,-4,1010.3,0.3,93,-5,6000,14.816,,,60,-4.4,-3.9,,,,,,,,0,wg-a,,0,,AAXX 05064 07005 02356 80608 11040 21050 30005 40103 51003 61000 7007/ 886// 90600 333 11039 21044 4/9999 6100=
07005,1997-01-05 12:00:00,-3,1012.5,0.5,86,-5,4000,14.816,,,70,,,,,,,,,,10,wg-a,,,,AAXX 05124 07005 02340 80708 11030 21050 30027 40125 50005 61000 71072 876// 91200 333 6100=
07005,1997-01-05 18:00:00,-3,1014.6,1.2,86,-5,0,11.112,,,80,-3.9,-2.8,,,,,,,,,wg-a,,,,AAXX 05184 07005 32/// /0806 11030 21050 30048 40146 51012 91800 333 11028 21039=
07005,1997-01-06 00:00:00,-3,1017.1,1,86,-5,0,18.52,,,70,,,,,,,,,,,wg-a,,,,AAXX 06004 07005 12/// /0710 11030 21050 30073 40171 51010 60006 90000=
07005,1997-01-06 06:00:00,-4,1018.7,0.9,86,-6,3000,18.52,,,60,-3.9,-3.1,,,,,,,,10,wg-a,,1,,AAXX 06064 07005 02230 80610 11040 21060 30088 40187 52009 60006 71022 886// 90600 333 11031 21039 4/001 61000=
07005,1997-01-06 12:00:00,-3,1020.4,0.1,86,-5,2500,14.816,,,80,,,,,,,,,,10,wg-a,,,,AAXX 06124 07005 12325 70808 11030 21050 30106 40204 50001 60006 71011 876// 91200=
07005,1997-01-06 18:00:00,-4,1021,0.5,86,-6,3000,14.816,,,80,-6.3,-2.4,,,,,,,,10,wg-a,,,,AAXX 06184 07005 12330 80808 11040 21060 30111 40210 51005 60006 71022 886// 91800 333 11024 21063=
07005,1997-01-07 00:00:00,-5,1021.5,-0.2,79,-8,0,11.112,,,90,,,,,,,,,,,wg-a,,,,AAXX 07004 07005 12/// /0906 11050 21080 30115 40215 58002 60006 90000=
07005,1997-01-07 06:00:00,-6,1021.2,-0.3,79,-9,4000,14.816,,,90,-6.3,-4.2,,,,,,,,10,wg-a,,0,,AAXX 07064 07005 12340 80908 11060 21090 30112 40212 55003 60006 710// 886// 90600 333 11042 21063 4/9999=
07005,1997-01-07 12:00:00,-6,1021.2,-0.6,79,-9,3500,11.112,,,90,,,,1,,,,,,22,wg-a,,,,AAXX 07124 07005 02535 60906 11060 21090 30112 40212 58006 60016 72272 86500 91200 333 60017=
07005,1997-01-07 18:00:00,-5,1019.4,-0.7,86,-7,3000,14.816,,,70,-6.8,-5.2,,,,,,,,10,wg-a,,1,,AAXX 07184 07005 32330 80708 11050 21070 30095 40194 58007 71022 886// 91800 333 11052 21068 4/001=
07005,1997-01-08 00:00:00,-4,1016.7,-1.4,86,-6,0,14.816,,,90,,,,,,,,,,,wg-a,,,,AAXX 08004 07005 12/// /0908 11040 21060 30068 40167 56014 60006 90000=
07005,1997-01-08 06:00:00,-5,1012.2,-2.7,86,-7,2000,18.52,,,80,-5.6,-4.1,,,,,1,,,10,wg-a,,1,,AAXX 08064 07005 02220 80810 11050 21070 30023 40122 58027 60006 71022 886// 90600 333 11041 21056 4/001 60014=
07005,1997-01-08 12:00:00,-4,1009.2,-2.3,80,-7,2500,18.52,,,110,,,,,,,,,,10,wg-a,,,,AAXX 08124 07005 12225 81110 11040 21070 39994 40092 58023 60006 71022 886// 91200=
07005,1997-01-08 18:00:00,-4,1006.5,-1.4,86,-6,3000,18.52,,,80,-5.6,-4.2,,,,,,,,10,wg-a,,1,,AAXX 08184 07005 12230 80810 11040 21060 39967 40065 56014 60006 71022 886// 91800 333 11042 21056 4/001=
07005,1997-01-09 00:00:00,-4,1005.4,-0.2,86,-6,0,14.816,,,70,,,,,,,,,,,wg-a,,,,AAXX 09004 07005 12/// /0708 11040 21060 39957 40054 57002 60006 90000=
07005,1997-01-09 06:00:00,-3,1004.6,-0,100,-3,1200,14.816,,,80,-4.7,-2.6,,,,,,,,10,wg-a,,1,,AAXX 09064 07005 02212 80808 11030 21030 39949 40046 55000 61000 7107/ 886// 90600 333 11026 21047 4/001 ////=
07005,1997-01-09 12:00:00,0,1006.6,0.5,93,-1,1500,3.704,,,110,,,,,,,,,,10,wg-a,,,,AAXX 09124 07005 12115 81102 10000 21010 39970 40066 50005 60006 71042 886// 91200=
07005,1997-01-09 18:00:00,-1,1009.6,2,93,-2,800,11.112,,,30,-2.6,0.7,,,,,,,,44,wg-a,,0,,AAXX 09184 07005 12008 80306 11010 21020 39999 40096 51020 60006 74442 886// 91800 333 10007 21026 4/9999=
07005,1997-01-10 00:00:00,-3,1013.3,1.7,86,-5,0,11.112,,,40,,,,,,,,,,,wg-a,,,,AAXX 10004 07005 12/// /0406 11030 21050 30035 40133 51017 60006 90000=
07005,1997-01-10 06:00:00,-7,1017.3,1.5,93,-8,2000,11.112,,,30,-7.6,-1.1,,,,,,,,10,wg-a,,0,,AAXX 10064 07005 12420 80306 11070 21080 30073 40173 53015 60006 710// 88500 90600 333 11011 21076 4/9999=
07005,1997-01-10 12:00:00,-7,1021.5,1.6,100,-7,600,3.704,,,130,,,,,,,,,,48,wg-a,,,,AAXX 10124 07005 12106 81302 11070 21070 30115 40215 53016 60006 74844 886// 91200=
07005,1997-01-10 18:00:00,-6,1023.1,1.6,93,-7,1200,7.408,,,150,-7.6,-5.8,,,,,,,,10,wg-a,,0,,AAXX 10184 07005 12112 81504 11060 21070 30131 40231 51016 60006 71042 886// 91800 333 11058 21076 4/9999=
07005,1997-01-11 00:00:00,-5,1024.7,1,93,-6,0,14.816,,,150,,,,,,,,,,,wg-a,,,,AAXX 11004 07005 12/// /1508 11050 21060 30147 40247 50010 60006 90000=
07005,1997-01-11 06:00:00,-3,1024.9,0.9,93,-4,1500,11.112,,,140,-6,-3.4,,,,,,,,10,wg-a,,,,AAXX 11064 07005 12115 81406 11030 21040 30150 40249 53009 60006 710// 886// 90600 333 11034 21060=
07005,1997-01-11 12:00:00,1,1026,0.5,86,-1,2500,14.816,,,150,,,,,,,,,,10,wg-a,,,,AAXX 11124 07005 12225 71508 10010 21010 30162 40260 51005 60006 71022 876// 91200=
07005,1997-01-11 18:00:00,1,1026.7,0.7,93,0,0,25.928,,,160,-3.5,3.3,,,,,,,,,wg-a,,,,AAXX 11184 07005 12/// /1614 10010 20000 30169 40267 51007 60006 91800 333 10033 21035=
07005,1997-01-12 00:00:00,2,1027.7,0.6,87,0,0,22.224,,,160,,,,,,,,,,,wg-a,,,,AAXX 12004 07005 12/// /1612 10020 20000 30180 40277 51006 60006 90000=
07005,1997-01-12 06:00:00,2,1027.4,-0.2,93,1,500,14.816,,,160,1.2,2.7,,,,,,,,50,wg-a,,0,,AAXX 12064 07005 02400 81608 10020 20010 30177 40274 55002 61000 75052 877// 90600 333 10027 20012 4/9999 6100=
07005,1997-01-12 12:00:00,3,1028.3,-0.1,100,3,900,11.112,,,170,,,,,,,,,,50,wg-a,,,,AAXX 12124 07005 02109 81706 10030 20030 30186 40283 58001 61000 75054 877// 91200 333 6100=
07005,1997-01-12 18:00:00,4,1028.1,0.4,87,2,0,18.52,,,160,,,,,,,,,,,wg-a,,,,AAXX 12184 07005 32/// /1610 10040 20020 30184 40281 53004 91800=
07005,1997-01-13 00:00:00,1,1028,-0.1,86,-1,0,11.112,,,140,,,,,,,,,,,wg-a,,,,AAXX 13004 07005 12/// /1406 10010 21010 30182 40280 58001 60006 90000=
07005,1997-01-13 06:00:00,-1,1026.7,-0.5,86,-3,8000,18.52,,,140,-1.3,3.6,,,,,,,,,wg-a,,,,AAXX 13064 07005 12/58 01410 11010 21030 30169 40267 57005 60006 80000 90600 333 10036 21013=
07005,1997-01-13 12:00:00,3,1026.9,-0.4,65,-3,2500,14.816,,,140,,,,,,,,,,10,wg-a,,,,AAXX 13124 07005 12/25 31408 10030 21030 30172 40269 58004 60006 71000 80002 91200=
07005,1997-01-13 18:00:00,1,1025.7,-0.1,80,-2,3000,18.52,,,130,-1.5,5.5,,,,,,,,10,wg-a,,,,AAXX 13184 07005 12/30 21310 10010 21020 30160 40257 57001 60006 71000 80002 91800 333 10055 21015=
07005,1997-01-14 00:00:00,-1,1025.2,-0.7,74,-5,0,22.224,,,140,,,,,,,,,,,wg-a,,,,AAXX 14004 07005 12/// /1412 11010 21050 30154 40252 56007 60006 90000=
07005,1997-01-14 06:00:00,-3,1023.4,-1,80,-6,4000,29.632,,,130,-2.7,1.5,,,,,,,,10,wg-a,,,,AAXX 14064 07005 12/40 01316 11030 21060 30135 40234 56010 60006 710// 80000 90600 333 10015 21027=
07005,1997-01-14 12:00:00,1,1023.1,-0.2,69,-4,4000,18.52,,,140,,,,,,,,,,10,wg-a,,,,AAXX 14124 07005 32/40 11410 10010 21040 30134 40231 58002 71000 80001 91200=
07005,1997-01-14 18:00:00,0,1022.9,0.4,80,-3,3000,18.52,,,140,-3.5,3.3,,,,,,,,10,wg-a,,,,AAXX 14184 07005 12/30 01410 10000 21030 30131 40229 53004 60006 71000 80000 91800 333 10033 21035=
07005,1997-01-15 06:00:00,-3,1023.5,0.1,86,-5,4500,14.816,,,150,-3.3,0.6,,,,,,,,10,wg-a,,,,AAXX 15064 07005 12/45 01508 11030 21050 30136 40235 53001 60006 710// 80000 90600 333 10006 21033=
07005,1997-01-15 12:00:00,2,1024.2,-0.1,69,-3,3000,18.52,,,140,,,,,,,,,,10,wg-a,,,,AAXX 15124 07005 12/30 01410 10020 21030 30145 40242 58001 60006 71000 80000 91200=
07005,1997-01-15 18:00:00,2,1023.5,0.2,80,-1,2500,14.816,,,140,-4,5.3,,,,,,,,10,wg-a,,,,AAXX 15184 07005 12/25 01408 10020 21010 30138 40235 50002 60006 71000 80000 91800 333 10053 21040=
07005,1997-01-16 00:00:00,0,1023.4,-0.3,86,-2,0,18.52,,,150,,,,,,,,,,,wg-a,,,,AAXX 16004 07005 12/// /1510 10000 21020 30136 40234 58003 60006 90000=
07005,1997-01-16 06:00:00,-2,1021,-1,86,-4,3000,22.224,,,140,-2.1,1.8,,,,,,,,10,wg-a,,,,AAXX 16064 07005 12/30 01412 11020 21040 30112 40210 56010 60006 71000 80000 90600 333 10018 21021=
07005,1997-01-16 12:00:00,3,1019.9,-1,75,-1,3500,18.52,,,150,,,,,,,,,,10,wg-a,,,,AAXX 16124 07005 12/35 01510 10030 21010 30103 40199 58010 60006 71000 80000 91200=
07005,1997-01-16 18:00:00,3,1017.5,-0.8,81,0,3500,18.52,,,140,-2.7,5.2,,,,,,,,10,wg-a,,,,AAXX 16184 07005 12/35 01410 10030 20000 30079 40175 55008 60006 71000 80000 91800 333 10052 21027=
07005,1997-01-17 00:00:00,1,1016,-1,86,-1,0,18.52,,,140,,,,,,,,,,,wg-a,,,,AAXX 17004 07005 12/// /1410 10010 21010 30063 40160 58010 60006 90000=
07005,1997-01-17 06:00:00,0,1014.1,-1.1,86,-2,4000,22.224,,,140,0.1,2.8,,,,,,,,10,wg-a,,,,AAXX 17064 07005 12/40 01412 10000 21020 30044 40141 56011 60006 710// 80000 90600 333 10028 20001=
07005,1997-01-17 12:00:00,5,1013,-0.9,75,1,500,22.224,,,150,,,,,,,,,,,wg-a,,,,AAXX 17124 07005 12700 71512 10050 20010 30035 40130 58009 60006 81532 91200=
07005,1997-01-17 18:00:00,6,1014.5,1.5,93,5,10000,18.52,,,230,0.1,7.8,,,,,,,,2,wg-a,,,,AAXX 17184 07005 02560 72310 10060 20050 30050 40145 53015 61000 70262 8557/ 91800 333 10078 20001 ////=
07005,1997-01-18 00:00:00,4,1017.5,0.9,100,4,0,14.816,,,200,,,,,,,,,,,wg-a,,,,AAXX 18004 07005 12/// /2008 10040 20040 30079 40175 51009 60006 90000=
07005,1997-01-18 06:00:00,4,1018.1,0.5,100,4,100,11.112,,,180,3.8,6.3,,0,,,,,,45,wg-a,,,,AAXX 18064 07005 02/01 91806 10040 20040 30085 40181 51005 60004 7456/ 89/// 90600 333 10063 20038 60007=
07005,1997-01-18 12:00:00,4,1018,-1.5,93,3,800,14.816,,,160,,,,,,,,,,42,wg-a,,,,AAXX 18124 07005 12108 81608 10040 20030 30084 40180 58015 60006 74244 886// 91200=
07005,1997-01-18 18:00:00,4,1014.7,-1.5,93,3,0,22.224,,,130,2.1,3.9,,,,,,,,,wg-a,,,,AAXX 18184 07005 12/// /1312 10040 20030 30051 40147 56015 60006 91800 333 10039 20021=
07005,1997-01-19 00:00:00,3,1010.5,-2.5,100,3,0,25.928,,,130,,,,,,,,,,,wg-a,,,,AAXX 19004 07005 12/// /1314 10030 20030 30010 40105 58025 60006 90000=
07005,1997-01-19 06:00:00,4,1007.9,-0.3,100,4,6000,18.52,,,140,2.8,4.2,,,,,1,,,2,wg-a,,,,AAXX 19064 07005 12456 81410 10040 20040 39984 40079 55003 60014 7026/ 885// 90600 333 10042 20028=
07005,1997-01-19 12:00:00,7,1009.9,0.8,93,6,8000,14.816,,,200,,,,,,,,,,3,wg-a,,,,AAXX 19124 07005 12458 72008 10070 20060 30005 40099 52008 60006 70362 875// 91200=
07005,1997-01-19 18:00:00,6,1012.2,1.7,93,5,0,0,,,0,4.1,7.4,,,,,,,,,wg-a,,,,AAXX 19184 07005 32/// /0000 10060 20050 30027 40122 53017 91800 333 10074 20041=
07005,1997-01-20 00:00:00,5,1015.4,1.1,93,4,0,3.704,,,180,,,,,,,,,,,wg-a,,,,AAXX 20004 07005 12/// /1802 10050 20040 30059 40154 51011 60006 90000=
07005,1997-01-20 06:00:00,3,1018.8,1.8,100,3,2000,14.816,,,30,2.9,6.2,,,,,,,,28,wg-a,,,,AAXX 20064 07005 02120 80308 10030 20030 30092 40188 53018 60006 72842 886// 90600 333 10062 20029 60004=
07005,1997-01-20 12:00:00,4,1023.8,2.3,87,2,6000,18.52,,,40,,,,,,,,,,,wg-a,,,,AAXX 20124 07005 02256 70410 10040 20020 30142 40238 51023 61000 875// 91200 333 ////=
07005,1997-01-20 18:00:00,3,1026.9,1.8,93,2,2500,14.816,,,30,2.6,4.5,,,,,,,,10,wg-a,,,,AAXX 20184 07005 32225 80308 10030 20020 30172 40269 53018 71022 875// 91800 333 10045 20026=
07005,1997-01-21 00:00:00,2,1028.7,0.3,93,1,0,14.816,,,40,,,,,,,,,,,wg-a,,,,AAXX 21004 07005 12/// /0408 10020 20010 30190 40287 53003 60006 90000=
07005,1997-01-21 06:00:00,1,1028,-0.3,93,0,3000,18.52,,,60,0.3,3.2,,,,,,,,10,wg-a,,,,AAXX 21064 07005 02230 50610 10010 20000 30182 40280 58003 60006 710// 85600 90600 333 10032 20003 61000=
07005,1997-01-21 12:00:00,1,1026,-1.9,93,0,2000,25.928,,,90,,,,,,,,,,10,wg-a,,,,AAXX 21124 07005 12220 80914 10010 20000 30162 40260 58019 60006 71011 876// 91200=
07005,1997-01-21 18:00:00,2,1021.1,-2,93,1,4500,22.224,,,80,0.4,2.9,,,,,,,,10,wg-a,,,,AAXX 21184 07005 32/45 30812 10020 20010 30114 40211 58020 71011 82031 91800 333 10029 20004=
07005,1997-01-22 00:00:00,3,1017.1,-1.8,87,1,0,22.224,,,120,,,,,,,,,,,wg-a,,,,AAXX 22004 07005 12/// /1212 10030 20010 30075 40171 56018 60006 90000=
07005,1997-01-22 06:00:00,3,1014.9,-0.4,93,2,10000,11.112,,,150,2,3.7,,,,,,,,21,wg-a,,,,AAXX 22064 07005 02/60 71506 10030 20020 30053 40149 55004 60004 7216/ 8707/ 90600 333 10037 20020 61000=
07005,1997-01-22 12:00:00,11,1016.1,0.7,82,8,20000,22.224,,,190,,,,,,,,,,,wg-a,,,,AAXX 22124 07005 02570 21912 10110 20080 30068 40161 50007 61000 82102 91200 333 6100=
07005,1997-01-22 18:00:00,7,1016.8,0.2,93,6,15000,22.224,,,170,3.2,10.9,,,,,,,,,wg-a,,,,AAXX 22184 07005 32565 31712 10070 20060 30074 40168 53002 81502 91800 333 10109 20032=
07005,1997-01-23 00:00:00,6,1018.3,0.6,93,5,0,18.52,,,160,,,,,,,,,,,wg-a,,,,AAXX 23004 07005 12/// /1610 10060 20050 30088 40183 51006 60006 90000=
07005,1997-01-23 06:00:00,5,1020.8,1.1,93,4,12000,11.112,,,190,4.6,7.3,,,,,,,,,wg-a,,,,AAXX 23064 07005 02462 81906 10050 20040 30112 40208 53011 60006 888// 90600 333 10073 20046 61000=
07005,1997-01-23 12:00:00,6,1023.6,1.1,87,4,6000,11.112,,,180,,,,,,,,,,,wg-a,,,,AAXX 23124 07005 12/56 71806 10060 20040 30140 40236 50011 60006 8703/ 91200=
07005,1997-01-23 18:00:00,4,1023.7,0.7,93,3,6000,3.704,,,100,3,5.8,,,,,,,,,wg-a,,,,AAXX 23184 07005 12/56 81002 10040 20030 30141 40237 51007 60006 8807/ 91800 333 10058 20030=
07005,1997-01-24 00:00:00,4,1024.9,0.6,93,3,0,7.408,,,340,,,,,,,,,,,wg-a,,,,AAXX 24004 07005 12/// /3404 10040 20030 30152 40249 51006 60006 90000=
07005,1997-01-24 06:00:00,4,1025.9,1,93,3,1600,14.816,,,50,3.1,4.2,,,,,,,,10,wg-a,,,,AAXX 24064 07005 12516 70508 10040 20030 30162 40259 53010 60004 71022 875// 90600 333 10042 20031=
07005,1997-01-24 12:00:00,6,1027.9,0.8,93,5,3500,7.408,,,140,,,,0,,,,,,21,wg-a,,,,AAXX 24124 07005 02/35 81404 10060 20050 30183 40279 51008 60006 72162 8807/ 91200 333 60007=
07005,1997-01-24 18:00:00,7,1029.4,1.2,93,6,4000,14.816,,,90,3.7,7.7,,,,,,,,10,wg-a,,,,AAXX 24184 07005 32/40 70908 10070 20060 30198 40294 51012 71022 8703/ 91800 333 10077 20037=
07005,1997-01-25 00:00:00,5,1031.2,0.3,93,4,0,11.112,,,60,,,,,,,,,,,wg-a,,,,AAXX 25004 07005 12/// /0606 10050 20040 30215 40312 53003 60006 90000=
07005,1997-01-25 06:00:00,5,1031.4,0.3,93,4,2500,18.52,,,130,4.8,6.6,,,,,,,,10,wg-a,,,,AAXX 25064 07005 02225 81310 10050 20040 30217 40314 50003 60006 710// 886// 90600 333 10066 20048 60004=
07005,1997-01-25 12:00:00,9,1032,-0.4,71,4,9000,18.52,,,120,,,,,,,,,,,wg-a,,,,AAXX 25124 07005 12759 21210 10090 20040 30225 40320 58004 60006 825/0 91200=
07005,1997-01-25 18:00:00,5,1031.8,0.1,87,3,0,22.224,,,70,4.6,10.9,,,,,,,,,wg-a,,,,AAXX 25184 07005 12/// /0712 10050 20030 30221 40318 51001 60006 91800 333 10109 20046=
07005,1997-01-26 00:00:00,3,1032.4,-0.1,87,1,0,11.112,,,120,,,,,,,,,,,wg-a,,,,AAXX 26004 07005 12/// /1206 10030 20010 30226 40324 58001 60006 90000=
07005,1997-01-26 06:00:00,1,1031.1,-0.5,86,-1,3000,18.52,,,70,0.7,5.2,,,,,,,,10,wg-a,,,,AAXX 26064 07005 12/30 00710 10010 21010 30213 40311 56005 60006 710// 80000 90600 333 10052 20007=
07005,1997-01-26 12:00:00,0,1032.1,0.1,100,0,1600,14.816,,,110,,,,,,,,,,10,wg-a,,,,AAXX 26124 07005 12116 81108 10000 20000 30223 40321 52001 60006 71041 886// 91200=
07005,1997-01-26 18:00:00,1,1031.5,0.5,93,0,0,11.112,,,30,-1,1.8,,,,,,,,,wg-a,,,,AAXX 26184 07005 12/// /0306 10010 20000 30217 40315 53005 60006 91800 333 10018 21010=
07005,1997-01-27 00:00:00,0,1031.6,-0.5,93,-1,0,11.112,,,30,,,,,,,,,,,wg-a,,,,AAXX 27004 07005 12/// /0306 10000 21010 30217 40316 56005 60006 90000=
07005,1997-01-27 06:00:00,0,1031.7,0.2,100,0,1500,7.408,,,290,-0.2,1,,,,,,,,50,wg-a,,,,AAXX 27064 07005 02215 82904 10000 20000 30219 40317 52002 61000 75052 886// 90600 333 10010 21002 ////=
07005,1997-01-27 12:00:00,2,1033.5,0.2,93,1,3500,18.52,,,330,,,,,,,,,,10,wg-a,,,,AAXX 27124 07005 02235 83310 10020 20010 30237 40335 50002 61000 71052 886// 91200 333 ////=
07005,1997-01-27 18:00:00,2,1035.3,1.4,100,2,500,7.408,,,340,0.2,2.5,,,,,,,,,wg-a,,,,AAXX 27184 07005 32200 83404 10020 20020 30255 40353 53014 886// 91800 333 10025 20002=
07005,1997-01-28 00:00:00,2,1036.5,0.5,100,2,0,0,,,0,,,,,,,,,,,wg-a,,,,AAXX 28004 07005 12/// /0000 10020 20020 30267 40365 51005 60006 90000=
07005,1997-01-28 06:00:00,2,1038.3,1.3,100,2,300,3.704,,,20,1.8,2.2,,,,,,,,46,wg-a,,,,AAXX 28064 07005 02203 80202 10020 20020 30285 40383 53013 60006 7464/ 886// 90600 333 10022 20018 61000=
07005,1997-01-28 12:00:00,3,1040.1,0.4,100,3,3000,18.52,,,70,,,,,,,,,,10,wg-a,,,,AAXX 28124 07005 12430 80710 10030 20030 30303 40401 50004 60006 71054 886// 91200=
07005,1997-01-28 18:00:00,3,1041,1,93,2,6000,18.52,,,80,1.8,5,,,,,,,,,wg-a,,,,AAXX 28184 07005 32556 80810 10030 20020 30312 40410 53010 885// 91800 333 10050 20018=
07005,1997-01-29 00:00:00,3,1042.4,0.6,87,1,0,25.928,,,80,,,,,,,,,,,wg-a,,,,AAXX 29004 07005 12/// /0814 10030 20010 30325 40424 52006 60006 90000=
07005,1997-01-29 06:00:00,0,1041.5,-0.5,93,-1,3500,11.112,,,100,0.1,3.3,,,,,,,,10,wg-a,,,,AAXX 29064 07005 02335 61006 10000 21010 30316 40415 56005 60006 71022 86600 90600 333 10033 20001 60004=
07005,1997-01-29 12:00:00,3,1041.4,-0.6,81,0,6000,18.52,,,110,,,,,,,,,,,wg-a,,,,AAXX 29124 07005 12356 81110 10030 20000 30316 40414 58006 60006 885// 91200=
07005,1997-01-29 18:00:00,3,1039.9,0.1,87,1,6000,22.224,,,70,0.1,5,,,,,,,,,wg-a,,,,AAXX 29184 07005 12456 80712 10030 20010 30301 40399 53001 60006 875// 91800 333 10050 20001=
07005,1997-01-30 00:00:00,2,1039.2,-0.5,87,0,0,14.816,,,100,,,,,,,,,,,wg-a,,,,AAXX 30004 07005 12/// /1008 10020 20000 30293 40392 56005 60006 90000=
07005,1997-01-30 06:00:00,0,1038.2,-0.7,93,-1,3000,14.816,,,90,0,3,,,,,,,,10,wg-a,,,,AAXX 30064 07005 12330 80908 10000 21010 30283 40382 56007 60006 710// 886// 90600 333 10030 20000=
07005,1997-01-30 12:00:00,1,1038.7,0,86,-1,3000,18.52,,,90,,,,,,,,,,10,wg-a,,,,AAXX 30124 07005 12430 80910 10010 21010 30288 40387 50000 60006 71022 886// 91200=
07005,1997-01-30 18:00:00,1,1037,-0.4,86,-1,1800,14.816,,,100,0.1,1.2,,,,,,,,10,wg-a,,,,AAXX 30184 07005 12218 81008 10010 21010 30271 40370 56004 60006 71022 886// 91800 333 10012 20001=
07005,1997-01-31 00:00:00,1,1036.8,-0.1,86,-1,0,11.112,,,100,,,,,,,,,,,wg-a,,,,AAXX 31004 07005 12/// /1006 10010 21010 30269 40368 56001 60006 90000=
07005,1997-01-31 12:00:00,3,1034.9,-1,87,1,4500,25.928,,,100,,,,,,,,,,10,wg-a,,,,AAXX 31124 07005 12345 81014 10030 20010 30251 40349 58010 60006 71022 886// 91200=
07005,1997-01-31 18:00:00,2,1033.9,-0,87,0,4000,11.112,,,130,1.5,3.6,,,,,,,,10,wg-a,,,,AAXX 31184 07005 12440 81306 10020 20000 30241 40339 54000 60006 71022 885// 91800 333 10036 20015=
07005,1997-02-01 00:00:00,1,1033.5,0.1,86,-1,0,3.704,,,110,,,,,,,,,,,wg-a,,,,AAXX 01004 07005 12/// /1102 10010 21010 30237 40335 53001 60006 90000=
07005,1997-02-01 06:00:00,1,1031.9,-0.3,93,0,2000,11.112,,,120,0.2,2.2,,,,,,,,10,wg-a,,,,AAXX 01064 07005 12320 41206 10010 20000 30221 40319 56003 60006 710// 84600 90600 333 10022 20002=
07005,1997-02-01 12:00:00,5,1030.7,-0.7,75,1,4500,25.928,,,130,,,,0,,,,,,10,wg-a,,,,AAXX 01124 07005 02545 51314 10050 20010 30210 40307 58007 60006 71011 82101 91200 333 60007=
07005,1997-02-01 18:00:00,1,1029.5,-0.1,86,-1,0,14.816,,,160,0.3,5.3,,,,,,,,,wg-a,,,,AAXX 01184 07005 32/// /1608 10010 21010 30197 40295 58001 91800 333 10053 20003=
07005,1997-02-02 06:00:00,-1,1026.5,-0.5,100,-1,2000,11.112,,,150,-1.2,0.5,,,,,,,,21,wg-a,,,,AAXX 02064 07005 02420 81506 11010 21010 30167 40265 58005 60004 72162 875// 90600 333 10005 21012 61000=
07005,1997-02-02 12:00:00,2,1027.1,0.2,100,2,1500,11.112,,,200,,,,0,,,,,,10,wg-a,,,,AAXX 02124 07005 02215 82006 10020 20020 30174 40271 51002 60006 71042 876// 91200 333 60007=
07005,1997-02-02 18:00:00,4,1027.4,0.6,93,3,0,11.112,,,220,-0.6,4.4,,,,,,,,,wg-a,,,,AAXX 02184 07005 32/// /2206 10040 20030 30177 40274 53006 91800 333 10044 21006=
07005,1997-02-03 00:00:00,4,1028.4,-0.2,93,3,0,7.408,,,300,,,,,,,,,,,wg-a,,,,AAXX 03004 07005 12/// /3004 10040 20030 30187 40284 55002 60016 90000=
07005,1997-02-03 06:00:00,-2,1029.8,0.8,100,-2,200,3.704,,,250,-2,4.3,,0,,,1,,,46,wg-a,,,,AAXX 03064 07005 02/02 02502 11020 21020 30199 40298 53008 60014 74640 80000 90600 333 10043 21020 60007=
07005,1997-02-03 12:00:00,3,1030,-0.1,100,3,900,11.112,,,160,,,,,,,,,,42,wg-a,,,,AAXX 03124 07005 12/09 01606 10030 20030 30203 40300 58001 60006 74244 80000 91200=
07005,1997-02-03 18:00:00,1,1028.4,-0.4,100,1,4000,14.816,,,170,-2.1,4.6,,,,,,,,10,wg-a,,,,AAXX 03184 07005 32/40 41708 10010 20010 30186 40284 55004 71041 80002 91800 333 10046 21021=
07005,1997-02-04 00:00:00,3,1025.9,-1.9,87,1,0,18.52,,,210,,,,,,,,,,,wg-a,,,,AAXX 04004 07005 12/// /2110 10030 20010 30162 40259 56019 60006 90000=
07005,1997-02-04 06:00:00,4,1021.8,-1.9,87,2,6000,22.224,,,210,0.5,3.9,,,,,,,,21,wg-a,,,,AAXX 04064 07005 02356 82112 10040 20020 30122 40218 56019 60004 721// 887// 90600 333 10039 20005 61000=
07005,1997-02-04 12:00:00,7,1018.9,-1.7,87,5,6000,31.484,,,210,,,,,,,,,,,wg-a,,,,AAXX 04124 07005 12356 82117 10070 20050 30094 40189 58017 60006 877// 91200=
07005,1997-02-04 18:00:00,7,1015.1,-1.4,93,6,3000,25.928,,,210,3.9,8.2,,2,,,,,,61,wg-a,,,,AAXX 04184 07005 12230 82114 10070 20060 30057 40151 56014 60027 76165 887// 91800 333 10082 20039=
07005,1997-02-05 00:00:00,7,1011.9,-1.7,93,6,0,29.632,,,220,,,,1,,,,,,,wg-a,,,,AAXX 05004 07005 02/// /2216 10070 20060 30025 40119 57017 60036 90000 333 60017=
07005,1997-02-05 06:00:00,6,1011.7,2,100,6,500,22.224,,,310,6.4,8.3,,1,,,10,,,61,wg-a,,,,AAXX 05064 07005 02205 83112 10060 20060 30023 40117 53020 60104 76164 887// 90600 333 10083 20064 60017=
07005,1997-02-05 12:00:00,5,1021.8,5.1,87,3,15000,22.224,,,330,,,,,,,,,,,wg-a,,,,AAXX 05124 07005 12365 83312 10050 20030 30122 40218 51051 60016 887// 91200=
07005,1997-02-05 18:00:00,4,1028.2,3.8,100,4,500,14.816,,,270,3.7,6.6,,,,,,,,,wg-a,,,,AAXX 05184 07005 32/00 12708 10040 20040 30185 40282 53038 80002 91800 333 10066 20037=
07005,1997-02-06 00:00:00,3,1030.6,1.3,100,3,0,14.816,,,210,,,,,,,,,,,wg-a,,,,AAXX 06004 07005 12/// /2108 10030 20030 30209 40306 53013 60006 90000=
07005,1997-02-06 06:00:00,3,1030.5,0.3,100,3,6000,14.816,,,190,2.1,4.5,,,,,1,,,,wg-a,,,,AAXX 06064 07005 12656 71908 10030 20030 30208 40305 52003 60014 8354/ 90600 333 10045 20021=
07005,1997-02-06 12:00:00,9,1029.8,-0.8,76,5,14000,29.632,,,210,,,,,,,,,,,wg-a,,,,AAXX 06124 07005 12/64 12116 10090 20050 30203 40298 58008 60006 80001 91200=
07005,1997-02-06 18:00:00,7,1028.6,-0.3,76,3,15000,18.52,,,180,3.2,10.3,,,,,,,,,wg-a,,,,AAXX 06184 07005 12/65 21810 10070 20030 30190 40286 55003 60006 80001 91800 333 10103 20032=
07005,1997-02-07 00:00:00,7,1027.3,-0.8,76,3,0,22.224,,,180,,,,,,,,,,,wg-a,,,,AAXX 07004 07005 12/// /1812 10070 20030 30177 40273 58008 60006 90000=
07005,1997-02-07 06:00:00,8,1027,-0.1,76,4,8000,18.52,,,200,5.7,7.8,,,,,,,,,wg-a,,,,AAXX 07064 07005 12558 82010 10080 20040 30175 40270 56001 60006 875// 90600 333 10078 20057=
07005,1997-02-07 12:00:00,10,1028.3,0.1,76,6,20000,22.224,,,220,,,,,,,,,,,wg-a,,,,AAXX 07124 07005 12770 72212 10100 20060 30189 40283 50001 60006 875// 91200=
07005,1997-02-07 18:00:00,10,1029.6,1.3,87,8,10000,18.52,,,240,7.3,12.6,,,,,,,,61,wg-a,,,,AAXX 07184 07005 02560 82410 10100 20080 30201 40296 53013 61000 76162 875// 91800 333 10126 20073 ////=
07005,1997-02-08 00:00:00,8,1032.3,1.5,93,7,0,7.408,,,270,,,,,,,,,,,wg-a,,,,AAXX 08004 07005 12/// /2704 10080 20070 30227 40323 53015 60016 90000=
07005,1997-02-08 06:00:00,7,1032.2,0.1,100,7,500,3.704,,,60,6.9,9.9,,,,,1,,,47,wg-a,,,,AAXX 08064 07005 12/00 90602 10070 20070 30226 40322 53001 60014 74744 89/// 90600 333 10099 20069=
07005,1997-02-08 12:00:00,9,1032.3,-0.5,100,9,1200,7.408,,,200,,,,,,,,,,28,wg-a,,,,AAXX 08124 07005 12212 82004 10090 20090 30228 40323 58005 60006 72842 886// 91200=
07005,1997-02-08 18:00:00,9,1030.2,-0.6,93,8,0,7.408,,,300,6.8,10.2,,,,,,,,,wg-a,,,,AAXX 08184 07005 32/// /3004 10090 20080 30207 40302 55006 91800 333 10102 20068=
07005,1997-02-09 00:00:00,9,1030,-0.2,93,8,0,14.816,,,280,,,,,,,,,,,wg-a,,,,AAXX 09004 07005 12/// /2808 10090 20080 30205 40300 55002 60006 90000=
07005,1997-02-09 06:00:00,7,1027.9,-0.8,93,6,6000,11.112,,,210,7,9,,,,,,,,,wg-a,,,,AAXX 09064 07005 02256 82106 10070 20060 30183 40279 56008 60006 886// 90600 333 10090 20070 60004=
07005,1997-02-09 12:00:00,12,1027.5,-0.7,71,7,10000,22.224,,,250,,,,,,,,,,,wg-a,,,,AAXX 09124 07005 12/60 02512 10120 20070 30181 40275 58007 60006 80000 91200=
07005,1997-02-09 18:00:00,8,1026.3,-0.4,81,5,0,3.704,,,280,7.1,13.2,,,,,,,,,wg-a,,,,AAXX 09184 07005 12/// /2802 10080 20050 30168 40263 56004 60006 91800 333 10132 20071=
07005,1997-02-10 00:00:00,6,1024,-1.9,87,4,0,14.816,,,180,,,,,,,,,,,wg-a,,,,AAXX 10004 07005 12/// /1808 10060 20040 30144 40240 58019 60006 90000=
07005,1997-02-10 06:00:00,7,1019.6,-2.1,87,5,6000,25.928,,,210,5.4,8.4,,,,,,,,,wg-a,,,,AAXX 10064 07005 12556 82114 10070 20050 30101 40196 57021 60006 875// 90600 333 10084 20054=
07005,1997-02-10 12:00:00,11,1013.7,-3,76,7,7000,38.892,,,210,,,,,,,,,,,wg-a,,,,AAXX 10124 07005 12757 82121 10110 20070 30044 40137 56030 60006 8557/ 91200=
07005,1997-02-10 18:00:00,8,1015.6,3.7,81,5,15000,38.892,,,270,7.1,10.9,,1,,,,,,2,wg-a,,,,AAXX 10184 07005 12365 82721 10080 20050 30062 40156 53037 60017 70262 888// 91800 333 10109 20071=
07005,1997-02-11 00:00:00,5,1022,2.9,81,2,0,22.224,,,270,,,,,,,,,,,wg-a,,,,AAXX 11004 07005 12/// /2712 10050 20020 30124 40220 53029 60006 90000=
07005,1997-02-11 06:00:00,4,1022.5,0.4,87,2,10000,22.224,,,240,3.2,8.4,,,,,3,,,,wg-a,,,,AAXX 11064 07005 02560 42412 10040 20020 30129 40225 53004 60006 84500 90600 333 10084 20032 60034=
07005,1997-02-11 12:00:00,7,1021.7,-1.3,81,4,15000,22.224,,,210,,,,,,,,,,,wg-a,,,,AAXX 11124 07005 12865 82112 10070 20040 30122 40217 58013 60006 8157/ 91200=
07005,1997-02-11 18:00:00,7,1015.1,-4.1,93,6,8000,25.928,,,180,3.4,8.3,,1,,,,,,61,wg-a,,,,AAXX 11184 07005 12558 81814 10070 20060 30057 40151 58041 60017 76166 875// 91800 333 10083 20034=
07005,1997-02-12 00:00:00,11,1011.4,-0.1,94,10,0,53.708,,,260,,,,5,,,,,,,wg-a,,,,AAXX 12004 07005 02/// /2629 10110 20100 30021 40114 55001 60086 90000 333 60057=
07005,1997-02-12 06:00:00,11,1012.2,0.3,94,10,3000,38.892,,,260,,11.2,,1,,,11,,,51,wg-a,,,,AAXX 12064 07005 02230 82621 10110 20100 30029 40122 53003 60114 75155 877// 90600 333 10112 60017=
07005,1997-02-12 12:00:00,13,1011,-1.7,77,9,15000,35.188,,,230,,,,0,,,,,,21,wg-a,,,,AAXX 12124 07005 02465 82319 10130 20090 30018 40110 58017 60006 72165 888// 91200 333 60007=
07005,1997-02-12 18:00:00,11,1005.2,-2.3,87,9,25000,35.188,,,220,10.7,12.9,,,,,,,,21,wg-a,,,,AAXX 12184 07005 02475 82219 10110 20090 39960 40052 56023 61000 72162 875// 91800 333 10129 20107 ////=
07005,1997-02-13 00:00:00,9,1001.6,-0.5,87,7,0,57.412,,,270,,,,3,,,,,,,wg-a,,,,AAXX 13004 07005 02/// /2731 10090 20070 39923 40016 55005 60036 90000 333 60037=
07005,1997-02-13 06:00:00,7,997.5,-2.9,81,4,10000,53.708,,,260,7,11.2,,2,,,5,,,21,wg-a,,,,AAXX 13064 07005 02460 82629 10070 20040 39882 49975 56029 60054 7216/ 875// 90600 333 10112 20070 60027=
07005,1997-02-13 12:00:00,7,1002,4.6,70,2,15000,57.412,,,280,,,,0,,,,,,1,wg-a,,,,AAXX 13124 07005 02465 72831 10070 20020 39927 40020 53046 60016 70182 878// 91200 333 60007=
07005,1997-02-13 18:00:00,6,1009.1,2.7,81,3,15000,31.484,,,270,5.6,7.5,,,,,,,,,wg-a,,,,AAXX 13184 07005 32565 22717 10060 20030 39997 40091 53027 82200 91800 333 10075 20056=
07005,1997-02-14 00:00:00,4,1009,-0.7,87,2,0,25.928,,,240,,,,,,,,,,,wg-a,,,,AAXX 14004 07005 12/// /2414 10040 20020 39995 40090 56007 60006 90000=
07005,1997-02-14 06:00:00,5,1004.3,-2.2,87,3,10000,11.112,,,190,3.8,6.1,,,,,1,,,,wg-a,,,,AAXX 14064 07005 02460 81906 10050 20030 39949 40043 56022 60006 8557/ 90600 333 10061 20038 60014=
07005,1997-02-14 12:00:00,4,1001.7,-1.5,100,4,500,14.816,,,130,,,,2,,,,,,61,wg-a,,,,AAXX 14124 07005 02400 81308 10040 20040 39923 40017 56015 60026 76162 875// 91200 333 60027=
07005,1997-02-14 18:00:00,4,1000.6,0.3,93,3,4000,11.112,,,80,4.1,4.9,,1,,,,,,61,wg-a,,,,AAXX 14184 07005 12240 80806 10040 20030 39912 40006 53003 60017 76166 877// 91800 333 10049 20041=
07005,1997-02-15 00:00:00,3,1007.5,4.2,87,1,0,22.224,,,20,,,,,,,,,,,wg-a,,,,AAXX 15004 07005 12/// /0212 10030 20010 39980 40075 53042 60016 90000=
07005,1997-02-15 06:00:00,1,1015.9,4.7,93,0,0,14.816,,,320,0.8,4.4,,,,,6,,,,wg-a,,,,AAXX 15064 07005 12/// /3208 10010 20000 30062 40159 53047 60064 90600 333 10044 20008=
07005,1997-02-15 12:00:00,6,1022.2,2.4,81,3,15000,18.52,,,320,,,,,,,,,,,wg-a,,,,AAXX 15124 07005 12565 73210 10060 20030 30126 40222 51024 60006 872// 91200=
07005,1997-02-16 00:00:00,1,1025.4,-1,93,0,0,11.112,,,140,,,,,,,,,,,wg-a,,,,AAXX 16004 07005 12/// /1406 10010 20000 30156 40254 58010 60006 90000=
07005,1997-02-16 06:00:00,1,1023.3,-1.5,93,0,0,14.816,,,150,0.6,3.5,,0,,,1,,,,wg-a,,,,AAXX 16064 07005 02/// /1508 10010 20000 30136 40233 58015 60014 90600 333 10035 20006 60007=
07005,1997-02-16 12:00:00,7,1020.7,-1.6,61,0,15000,29.632,,,190,,,,,,,,,,,wg-a,,,,AAXX 16124 07005 12/65 71916 10070 20000 30112 40207 58016 60006 80006 91200=
07005,1997-02-16 18:00:00,5,1018.6,1,81,2,0,25.928,,,190,0.4,7.5,,,,,,,,,wg-a,,,,AAXX 16184 07005 32/// /1914 10050 20020 30090 40186 53010 91800 333 10075 20004=
07005,1997-02-17 00:00:00,5,1016.8,-0.2,93,4,0,18.52,,,190,,,,,,,,,,,wg-a,,,,AAXX 17004 07005 12/// /1910 10050 20040 30073 40168 58002 60016 90000=
07005,1997-02-17 06:00:00,6,1017.2,0.5,93,5,10000,18.52,,,190,3.7,6.5,,,,,3,,,3,wg-a,,,,AAXX 17064 07005 12560 71910 10060 20050 30077 40172 52005 60034 7036/ 875// 90600 333 10065 20037=
07005,1997-02-17 12:00:00,10,1018.2,-0.1,76,6,20000,25.928,,,230,,,,,,,,,,,wg-a,,,,AAXX 17124 07005 12470 72314 10100 20060 30088 40182 57001 60006 82142 91200=
07005,1997-02-17 18:00:00,9,1016.3,-0.8,87,7,15000,25.928,,,200,6.3,11.1,,,,,,,,60,wg-a,,,,AAXX 17184 07005 02565 82014 10090 20070 30069 40163 58008 61000 76062 885// 91800 333 10111 20063 ////=
07005,1997-02-18 00:00:00,10,1012.2,-2.3,87,8,0,31.484,,,210,,,,2,,,,,,,wg-a,,,,AAXX 18004 07005 02/// /2117 10100 20080 30029 40122 58023 60026 90000 333 60027=
07005,1997-02-18 06:00:00,10,1008.2,-1.5,93,9,3500,25.928,,,240,8.9,10.3,,2,,,4,,,25,wg-a,,,,AAXX 18064 07005 02235 82414 10100 20090 39989 40082 56015 60044 72586 876// 90600 333 10103 20089 60027=
07005,1997-02-18 12:00:00,9,1010.1,1.3,66,3,15000,53.708,,,260,,,,,,,,,,16,wg-a,,,,AAXX 18124 07005 12365 62629 10090 20030 30008 40101 51013 60016 71611 8/900 91200=
07005,1997-02-18 18:00:00,5,1016.2,3.7,81,2,10000,38.892,,,270,4.8,11,,,,,,,,2,wg-a,,,,AAXX 18184 07005 02460 62721 10050 20020 30067 40162 52037 61000 70282 85902 91800 333 10110 20048 ////=
07005,1997-02-19 00:00:00,5,1025.6,3.9,75,1,0,29.632,,,280,,,,,,,,,,,wg-a,,,,AAXX 19004 07005 12/// /2816 10050 20010 30160 40256 51039 60006 90000=
07005,1997-02-19 06:00:00,4,1028.1,0.4,87,2,15000,14.816,,,220,3.6,6,,,,,1,,,,wg-a,,,,AAXX 19064 07005 02765 72208 10040 20020 30184 40281 50004 60006 8557/ 90600 333 10060 20036 60014=
07005,1997-02-19 12:00:00,8,1023.4,-4,76,4,15000,25.928,,,200,,,,,,,,,,,wg-a,,,,AAXX 19124 07005 12865 82014 10080 20040 30139 40234 58040 60006 87/3/ 91200=
07005,1997-02-19 18:00:00,10,1012.8,-6.1,71,5,20000,42.596,,,210,3.6,10.2,,,,,,,,,wg-a,,,,AAXX 19184 07005 12570 82123 10100 20050 30035 40128 56061 60006 875// 91800 333 10102 20036=
07005,1997-02-20 00:00:00,8,1016.7,6.3,81,5,0,57.412,,,270,,,,,,,,,,,wg-a,,,,AAXX 20004 07005 12/// /2731 10080 20050 30073 40167 51063 60036 90000=
07005,1997-02-20 06:00:00,7,1023.3,2.4,87,5,10000,38.892,,,270,7,10.7,,,,,3,,,,wg-a,,,,AAXX 20064 07005 12/60 02721 10070 20050 30138 40233 51024 60034 80000 90600 333 10107 20070=
07005,1997-02-20 12:00:00,11,1025.4,0.4,66,5,20000,38.892,,,260,,,,,,,,,,,wg-a,,,,AAXX 20124 07005 12570 52621 10110 20050 30160 40254 50004 60006 84202 91200=
07005,1997-02-20 18:00:00,8,1023.8,-0.7,87,6,20000,25.928,,,240,6.7,11.5,,0,,,,,,25,wg-a,,,,AAXX 20184 07005 12570 72414 10080 20060 30143 40238 56007 60007 72582 878// 91800 333 10115 20067=
07005,1997-02-21 00:00:00,9,1022.8,-0.5,81,6,0,29.632,,,240,,,,,,,,,,,wg-a,,,,AAXX 21004 07005 12/// /2416 10090 20060 30133 40228 55005 60006 90000=
07005,1997-02-21 06:00:00,10,1022.5,0.6,76,6,10000,31.484,,,250,8.2,9.6,,,,,,,,,wg-a,,,,AAXX 21064 07005 02560 82517 10100 20060 30131 40225 50006 60006 875// 90600 333 10096 20082 60004=
07005,1997-02-21 12:00:00,11,1025.7,1.2,82,8,15000,42.596,,,250,,,,,,,,,,,wg-a,,,,AAXX 21124 07005 12465 82523 10110 20080 30163 40257 51012 60006 85570 91200=
07005,1997-02-21 18:00:00,10,1028.3,2.2,87,8,10000,38.892,,,270,9.1,11,,,,,,,,1,wg-a,,,,AAXX 21184 07005 32460 82721 10100 20080 30188 40283 53022 70162 875// 91800 333 10110 20091=
07005,1997-02-22 00:00:00,9,1030.2,0.3,93,8,0,22.224,,,260,,,,,,,,,,,wg-a,,,,AAXX 22004 07005 12/// /2612 10090 20080 30207 40302 51003 60006 90000=
07005,1997-02-22 06:00:00,10,1029,-0.5,87,8,10000,18.52,,,220,8.8,10.1,,,,,1,,,,wg-a,,,,AAXX 22064 07005 02560 82210 10100 20080 30195 40290 57005 60006 885// 90600 333 10101 20088 60014=
07005,1997-02-22 12:00:00,11,1028,-1.1,82,8,15000,18.52,,,220,,,,,,,,,,,wg-a,,,,AAXX 22124 07005 12565 72210 10110 20080 30186 40280 58011 60006 878// 91200=
07005,1997-02-22 18:00:00,9,1023.9,-1.6,81,6,0,7.408,,,320,8.9,12,,,,,,,,,wg-a,,,,AAXX 22184 07005 12/// /3204 10090 20060 30144 40239 56016 60006 91800 333 10120 20089=
07005,1997-02-23 00:00:00,8,1019.1,-2.6,87,6,0,7.408,,,150,,,,,,,,,,,wg-a,,,,AAXX 23004 07005 12/// /1504 10080 20060 30096 40191 56026 60006 90000=
07005,1997-02-23 06:00:00,6,1015.3,-1.3,93,5,6000,11.112,,,190,6.4,8.8,,,,,,,,,wg-a,,,,AAXX 23064 07005 12/56 41906 10060 20050 30058 40153 56013 60006 82031 90600 333 10088 20064=
07005,1997-02-23 12:00:00,12,1013,-1.4,76,8,15000,31.484,,,220,,,,,,,,,,,wg-a,,,,AAXX 23124 07005 12565 62217 10120 20080 30037 40130 57014 60006 85802 91200=
07005,1997-02-23 18:00:00,11,1009,-1.9,82,8,0,25.928,,,180,6.2,12.2,,,,,,,,,wg-a,,,,AAXX 23184 07005 12/// /1814 10110 20080 39998 40090 56019 60006 91800 333 10122 20062=
07005,1997-02-24 00:00:00,11,1003.5,-2.9,82,8,0,31.484,,,200,,,,,,,,,,,wg-a,,,,AAXX 24004 07005 12/// /2017 10110 20080 39943 40035 58029 60006 90000=
07005,1997-02-24 06:00:00,8,1000.2,-0.4,87,6,4000,18.52,,,240,8.2,11.7,,2,,,2,,,61,wg-a,,,,AAXX 24064 07005 02240 72410 10080 20060 39909 40002 55004 60024 76166 877// 90600 333 10117 20082 60027=
07005,1997-02-24 12:00:00,10,1000.5,-0,71,5,20000,38.892,,,250,,,,,,,,,,,wg-a,,,,AAXX 24124 07005 02570 82521 10100 20050 39913 40005 55000 61000 8687/ 91200 333 ////=
07005,1997-02-24 18:00:00,11,995,-3.3,76,7,15000,31.484,,,200,8.1,12.4,,,,,,,,1,wg-a,,,,AAXX 24184 07005 02265 82017 10110 20070 39859 49950 58033 61000 70182 8277/ 91800 333 10124 20081 ////=
07005,1997-02-25 00:00:00,13,991.7,1.3,82,10,0,50.004,,,250,,,,1,,,,,,,wg-a,,,,AAXX 25004 07005 02/// /2527 10130 20100 39827 49917 53013 60036 90000 333 60017=
07005,1997-02-25 06:00:00,11,994.8,1.5,71,6,10000,50.004,,,250,10.5,13.4,,0,,,3,,,,wg-a,,,,AAXX 25064 07005 02360 82527 10110 20060 39857 49948 51015 60034 875// 90600 333 10134 20105 60007=
07005,1997-02-25 12:00:00,12,998.5,1.6,76,8,20000,46.3,,,260,,,,,,,,,,1,wg-a,,,,AAXX 25124 07005 12470 82625 10120 20080 39894 49985 53016 60006 70182 8587/ 91200=
07005,1997-02-25 18:00:00,10,1000.6,1.1,87,8,20000,31.484,,,230,9.9,12.4,,1,,,,,,21,wg-a,,,,AAXX 25184 07005 12570 72317 10100 20080 39914 40006 52011 60017 72186 878// 91800 333 10124 20099=
07005,1997-02-26 00:00:00,10,1002.6,1.1,76,6,0,38.892,,,260,,,,1,,,,,,,wg-a,,,,AAXX 26004 07005 02/// /2621 10100 20060 39934 40026 53011 60016 90000 333 60017=
07005,1997-02-26 06:00:00,8,1005.6,1.2,76,4,15000,35.188,,,260,7.8,11.1,,0,,,2,,,25,wg-a,,,,AAXX 26064 07005 02565 52619 10080 20040 39963 40056 53012 60024 7258/ 85200 90600 333 10111 20078 60007=
07005,1997-02-26 18:00:00,8,1015.2,2.9,81,5,15000,46.3,,,270,7.5,10.8,,,,,,,,,wg-a,,,,AAXX 26184 07005 32565 62725 10080 20050 30058 40152 53029 83502 91800 333 10108 20075=
07005,1997-02-27 00:00:00,7,1025.3,3.9,81,4,0,29.632,,,280,,,,,,,,,,,wg-a,,,,AAXX 27004 07005 12/// /2816 10070 20040 30158 40253 51039 60006 90000=
07005,1997-02-27 06:00:00,5,1031.9,2.5,87,3,20000,18.52,,,290,5,7.9,,,,,,,,,wg-a,,,,AAXX 27064 07005 02/70 02910 10050 20030 30222 40319 52025 60006 80000 90600 333 10079 20050 61000=
07005,1997-02-27 12:00:00,10,1034.6,0.8,62,3,20000,22.224,,,250,,,,,,,,,,,wg-a,,,,AAXX 27124 07005 12470 72512 10100 20030 30251 40346 52008 60006 838/2 91200=
07005,1997-02-27 18:00:00,9,1033.1,-0.5,71,4,25000,14.816,,,170,4.1,10.9,,,,,,,,,wg-a,,,,AAXX 27184 07005 12575 71708 10090 20040 30236 40331 55005 60006 81532 91800 333 10109 20041=
07005,1997-02-28 00:00:00,8,1029.7,-2.1,76,4,0,29.632,,,200,,,,,,,,,,,wg-a,,,,AAXX 28004 07005 12/// /2016 10080 20040 30202 40297 56021 60006 90000=
07005,1997-02-28 06:00:00,6,1028,-0.2,70,1,15000,25.928,,,160,6.2,9.2,,,,,,,,,wg-a,,,,AAXX 28064 07005 12/65 61614 10060 20010 30184 40280 57002 60006 80002 90600 333 10092 20062=
07005,1997-02-28 12:00:00,14,1026.1,-1.4,41,1,35000,22.224,,,220,,,,,,,,,,,wg-a,,,,AAXX 28124 07005 12/81 72212 10140 20010 30168 40261 56014 60006 80002 91200=
07005,1997-02-28 18:00:00,11,1024.6,0.3,66,5,35000,11.112,,,250,5.9,15,,,,,,,,,wg-a,,,,AAXX 28184 07005 12/81 72506 10110 20050 30152 40246 53003 60006 83032 91800 333 10150 20059=
07005,1997-03-01 00:00:00,9,1026.3,1.2,93,8,0,18.52,,,270,,,,,,,,,,,wg-a,,,,AAXX 01004 07005 12/// /2710 10090 20080 30168 40263 51012 60016 90000=
07005,1997-03-01 06:00:00,7,1027.2,-0.1,93,6,10000,11.112,,,240,6.5,10.8,,,,,1,,,1,wg-a,,,,AAXX 01064 07005 12560 52406 10070 20060 30176 40272 56001 60014 7016/ 85500 90600 333 10108 20065=
07005,1997-03-01 12:00:00,12,1026.3,-1.9,82,9,15000,25.928,,,210,,,,,,,,,,,wg-a,,,,AAXX 01124 07005 12565 62114 10120 20090 30169 40263 58019 60006 86202 91200=
07005,1997-03-01 18:00:00,13,1023.6,-0.4,77,9,0,22.224,,,230,5.8,14.5,,,,,,,,,wg-a,,,,AAXX 01184 07005 12/// /2312 10130 20090 30143 40236 58004 60006 91800 333 10145 20058=
07005,1997-03-02 00:00:00,10,1021.9,-1,87,8,0,18.52,,,210,,,,,,,,,,,wg-a,,,,AAXX 02004 07005 12/// /2110 10100 20080 30125 40219 56010 60006 90000=
07005,1997-03-02 06:00:00,10,1020.1,-0.1,87,8,10000,14.816,,,240,9,12.7,,,,,,,,,wg-a,,,,AAXX 02064 07005 12460 82408 10100 20080 30107 40201 58001 60006 885// 90600 333 10127 20090=
07005,1997-03-02 12:00:00,13,1021.6,1.3,82,10,20000,29.632,,,230,,,,,,,,,,,wg-a,,,,AAXX 02124 07005 12470 82316 10130 20100 30123 40216 53013 60006 885// 91200=
07005,1997-03-02 18:00:00,9,1026.1,3,87,7,0,18.52,,,280,8.7,12.8,,,,,,,,,wg-a,,,,AAXX 02184 07005 32/// /2810 10090 20070 30166 40261 51030 91800 333 10128 20087=
07005,1997-03-03 00:00:00,8,1029.8,1.5,87,6,0,18.52,,,250,,,,,,,,,,,wg-a,,,,AAXX 03004 07005 12/// /2510 10080 20060 30202 40298 53015 60006 90000=
07005,1997-03-03 06:00:00,7,1032.3,1.5,93,6,10000,7.408,,,290,6.8,8.7,,,,,1,,,,wg-a,,,,AAXX 03064 07005 02760 82904 10070 20060 30227 40323 51015 60006 8357/ 90600 333 10087 20068 60014=
07005,1997-03-03 12:00:00,10,1033.6,-0.1,82,7,13000,18.52,,,170,,,,,,,,,,,wg-a,,,,AAXX 03124 07005 12463 81710 10100 20070 30241 40336 58001 60006 8487/ 91200=
07005,1997-03-04 00:00:00,8,1028.8,-1,100,8,0,11.112,,,100,,,,,,,,,,,wg-a,,,,AAXX 04004 07005 12/// /1006 10080 20080 30193 40288 58010 60046 90000=
07005,1997-03-04 06:00:00,9,1027,-0.7,100,9,2000,14.816,,,130,8.1,9.4,,,,,7,,,2,wg-a,,,,AAXX 04064 07005 12320 81308 10090 20090 30175 40270 56007 60074 70262 876// 90600 333 10094 20081=
07005,1997-03-04 12:00:00,13,1026.5,0.1,82,10,6000,3.704,,,190,,,,,,,,,,,wg-a,,,,AAXX 04124 07005 12756 81902 10130 20100 30172 40265 53001 60006 8352/ 91200=
07005,1997-03-04 18:00:00,14,1024.6,-0.1,77,10,8000,14.816,,,210,9,14.4,,,,,,,,,wg-a,,,,AAXX 04184 07005 12758 62108 10140 20100 30153 40246 55001 60006 82542 91800 333 10144 20090=
07005,1997-03-05 00:00:00,8,1026,0.6,93,7,0,14.816,,,260,,,,,,,,,,,wg-a,,,,AAXX 05004 07005 12/// /2608 10080 20070 30165 40260 50006 60006 90000=
07005,1997-03-05 06:00:00,7,1026.2,0.2,93,6,7000,18.52,,,230,7.2,13.7,,,,,,,,61,wg-a,,,,AAXX 05064 07005 02657 82310 10070 20060 30167 40262 53002 61000 7616/ 885// 90600 333 10137 20072 6100=
07005,1997-03-05 12:00:00,9,1027.9,0.9,81,6,500,25.928,,,280,,,,0,,,,,,1,wg-a,,,,AAXX 05124 07005 02500 72814 10090 20060 30184 40279 51009 60016 70152 8323/ 91200 333 60007=
07005,1997-03-05 18:00:00,8,1027.8,-0.1,76,4,500,14.816,,,250,6.9,9.8,,,,,,,,,wg-a,,,,AAXX 05184 07005 32700 62508 10080 20040 30183 40278 55001 84530 91800 333 10098 20069=
07005,1997-03-06 00:00:00,8,1027.2,-0.5,100,8,0,11.112,,,180,,,,,,,,,,,wg-a,,,,AAXX 06004 07005 12/// /1806 10080 20080 30177 40272 58005 60016 90000=
07005,1997-03-06 06:00:00,9,1029.8,2.2,93,8,400,11.112,,,340,7.6,9.6,,2,,,6,,,46,wg-a,,,,AAXX 06064 07005 02104 83406 10090 20080 30203 40298 53022 60064 74665 887// 90600 333 10096 20076 60027=
07005,1997-03-06 12:00:00,10,1033,1.1,82,7,15000,22.224,,,80,,,,,,,,,,,wg-a,,,,AAXX 06124 07005 12565 80812 10100 20070 30235 40330 51011 60006 875// 91200=
07005,1997-03-06 18:00:00,9,1032.8,0.3,87,7,3000,11.112,,,100,7.7,10.5,,,,,,,,10,wg-a,,,,AAXX 06184 07005 32230 81006 10090 20070 30233 40328 53003 71022 876// 91800 333 10105 20077=
07005,1997-03-07 00:00:00,8,1032.3,-0.8,93,7,0,18.52,,,140,,,,,,,,,,,wg-a,,,,AAXX 07004 07005 12/// /1410 10080 20070 30227 40323 58008 60006 90000=
07005,1997-03-07 06:00:00,8,1031.3,-0.3,93,7,2000,14.816,,,170,7.8,9.3,,,,,,,,10,wg-a,,,,AAXX 07064 07005 02720 51708 10080 20070 30217 40313 57003 60006 710// 855/0 90600 333 10093 20078 60004=
07005,1997-03-07 12:00:00,14,1031.2,-0.6,77,10,7000,18.52,,,190,,,,,,,,,,,wg-a,,,,AAXX 07124 07005 12457 51910 10140 20100 30219 40312 58006 60006 83102 91200=
07005,1997-03-07 18:00:00,13,1030.1,0.3,67,7,20000,7.408,,,180,7.7,15.7,,,,,,,,,wg-a,,,,AAXX 07184 07005 12570 61804 10130 20070 30207 40301 53003 60006 81532 91800 333 10157 20077=
07005,1997-03-08 00:00:00,10,1031,0.1,82,7,0,11.112,,,160,,,,,,,,,,,wg-a,,,,AAXX 08004 07005 12/// /1606 10100 20070 30215 40310 50001 60006 90000=
07005,1997-03-08 06:00:00,7,1033.3,1.4,100,7,2000,3.704,,,260,7,13.2,,,,,,,,10,wg-a,,,,AAXX 08064 07005 12520 82602 10070 20070 30237 40333 52014 60006 710// 885// 90600 333 10132 20070=
07005,1997-03-08 12:00:00,11,1035.4,0.7,82,8,6000,11.112,,,340,,,,,,,,,,,wg-a,,,,AAXX 08124 07005 12456 83406 10110 20080 30259 40354 52007 60006 888// 91200=
07005,1997-03-08 18:00:00,11,1035.1,0.4,82,8,500,11.112,,,30,7.5,11.7,,,,,,,,,wg-a,,,,AAXX 08184 07005 12400 80306 10110 20080 30256 40351 51004 60006 885// 91800 333 10117 20075=
07005,1997-03-09 00:00:00,7,1035.1,-0.4,93,6,0,14.816,,,60,,,,,,,,,,,wg-a,,,,AAXX 09004 07005 12/// /0608 10070 20060 30255 40351 58004 60006 90000=
07005,1997-03-09 06:00:00,5,1034.2,-0.1,100,5,500,11.112,,,130,5.2,10.6,,,,,,,,47,wg-a,,,,AAXX 09064 07005 12/00 91306 10050 20050 30245 40342 55001 60004 7474/ 89/// 90600 333 10106 20052=
07005,1997-03-09 12:00:00,13,1033.3,-1.2,62,6,500,11.112,,,120,,,,,,,,,,2,wg-a,,,,AAXX 09124 07005 12/00 01206 10130 20060 30239 40333 58012 60006 70241 80000 91200=
07005,1997-03-09 18:00:00,13,1031.5,-0.1,62,6,0,14.816,,,110,4.6,15.7,,,,,,,,,wg-a,,,,AAXX 09184 07005 32/// /1108 10130 20060 30221 40315 55001 91800 333 10157 20046=
07005,1997-03-10 00:00:00,6,1031.7,-0.2,87,4,0,11.112,,,120,,,,,,,,,,,wg-a,,,,AAXX 10004 07005 12/// /1206 10060 20040 30221 40317 56002 60006 90000=
07005,1997-03-10 06:00:00,3,1032.6,1,93,2,3000,7.408,,,130,3,12.6,,,,,,,,10,wg-a,,,,AAXX 10064 07005 02/30 01304 10030 20020 30229 40326 53010 60006 710// 80000 90600 333 10126 20030 60004=
07005,1997-03-10 12:00:00,15,1033.3,0,63,8,4500,0,,,0,,,,,,,,,,10,wg-a,,,,AAXX 10124 07005 12/45 00000 10150 20080 30239 40333 50000 60006 71000 80000 91200=
07005,1997-03-10 18:00:00,11,1033.6,0.6,82,8,2500,7.408,,,320,2.9,15.4,,,,,,,,10,wg-a,,,,AAXX 10184 07005 12/25 23204 10110 20080 30241 40336 53006 60006 71000 80001 91800 333 10154 20029=
07005,1997-03-11 00:00:00,7,1034.3,0.2,93,6,0,7.408,,,120,,,,,,,,,,,wg-a,,,,AAXX 11004 07005 12/// /1204 10070 20060 30247 40343 53002 60006 90000=
07005,1997-03-11 06:00:00,4,1034.6,0.4,100,4,700,14.816,,,120,3,11.2,,0,,,1,,,42,wg-a,,,,AAXX 11064 07005 02/07 01208 10040 20040 30249 40346 51004 60014 7424/ 80000 90600 333 10112 20030 60007=
07005,1997-03-11 12:00:00,16,1034.6,-0.3,55,7,2000,14.816,,,140,,,,,,,,,,10,wg-a,,,,AAXX 11124 07005 12/20 01408 10160 20070 30253 40346 58003 60006 71000 80000 91200=
07005,1997-03-11 18:00:00,13,1032.4,-0.7,67,7,3000,18.52,,,80,1.4,17.8,,,,,,,,10,wg-a,,,,AAXX 11184 07005 12/30 00810 10130 20070 30230 40324 57007 60006 71000 80000 91800 333 10178 20014=
07005,1997-03-12 00:00:00,7,1031.9,-0.5,87,5,0,11.112,,,130,,,,,,,,,,,wg-a,,,,AAXX 12004 07005 12/// /1306 10070 20050 30223 40319 58005 60006 90000=
07005,1997-03-12 06:00:00,5,1030.1,-0.8,93,4,0,14.816,,,150,4.1,12.8,,,,,,,,,wg-a,,,,AAXX 12064 07005 12/// /1508 10050 20040 30204 40301 58008 60006 90600 333 10128 20041=
07005,1997-03-12 12:00:00,16,1028.9,-0.6,55,7,3000,29.632,,,300,,,,,,,,,,10,wg-a,,,,AAXX 12124 07005 12/30 03016 10160 20070 30196 40289 56006 60006 71000 80000 91200=
07005,1997-03-12 18:00:00,8,1030,0.8,93,7,600,31.484,,,270,4.3,16.4,,,,,,,,46,wg-a,,,,AAXX 12184 07005 12106 82717 10080 20070 30204 40300 51008 60006 74641 886// 91800 333 10164 20043=
07005,1997-03-13 00:00:00,8,1031.2,0.4,100,8,0,14.816,,,290,,,,,,,,,,,wg-a,,,,AAXX 13004 07005 12/// /2908 10080 20080 30217 40312 50004 60006 90000=
07005,1997-03-13 06:00:00,8,1031.1,-0,93,7,300,7.408,,,260,7.6,8.2,,,,,,,,46,wg-a,,,,AAXX 13064 07005 12203 82604 10080 20070 30215 40311 55000 60006 7464/ 886// 90600 333 10082 20076=
07005,1997-03-13 12:00:00,9,1032,0,87,7,6000,18.52,,,260,,,,,,,,,,,wg-a,,,,AAXX 13124 07005 12456 82610 10090 20070 30225 40320 50000 60006 885// 91200=
07005,1997-03-13 18:00:00,8,1029.2,-0.8,93,7,10000,18.52,,,280,7.3,9.9,,,,,,,,,wg-a,,,,AAXX 13184 07005 12560 82810 10080 20070 30197 40292 55008 60006 885// 91800 333 10099 20073=
07005,1997-03-14 00:00:00,8,1026.8,-1.5,81,5,0,22.224,,,270,,,,,,,,,,,wg-a,,,,AAXX 14004 07005 12/// /2712 10080 20050 30173 40268 56015 60006 90000=
07005,1997-03-14 06:00:00,8,1023.8,-1.5,87,6,7000,18.52,,,260,7.3,8.2,,,,,,,,,wg-a,,,,AAXX 14064 07005 12457 82610 10080 20060 30143 40238 56015 60006 875// 90600 333 10082 20073=
07005,1997-03-14 12:00:00,10,1022.7,-0.3,93,9,8000,35.188,,,280,,,,0,,,,,,1,wg-a,,,,AAXX 14124 07005 02558 82819 10100 20090 30133 40227 58003 60006 70165 885// 91200 333 60007=
07005,1997-03-14 18:00:00,9,1023.9,0.9,87,7,12000,22.224,,,280,8.1,10,,,,,,,,,wg-a,,,,AAXX 14184 07005 32/62 62812 10090 20070 30145 40239 53009 86030 91800 333 10100 20081=
07005,1997-03-15 00:00:00,6,1025.7,0.1,100,6,0,11.112,,,250,,,,,,,,,,,wg-a,,,,AAXX 15004 07005 12/// /2506 10060 20060 30161 40257 52001 60006 90000=
07005,1997-03-15 06:00:00,8,1025.1,-0.4,93,7,2000,18.52,,,250,6.1,9.2,,,,,,,,50,wg-a,,,,AAXX 15064 07005 12220 82510 10080 20070 30156 40251 57004 60004 75052 887// 90600 333 10092 20061=
07005,1997-03-15 12:00:00,10,1026.4,0.7,93,9,2500,25.928,,,280,,,,,,,,,,10,wg-a,,,,AAXX 15124 07005 02225 82814 10100 20090 30169 40264 52007 60016 71022 886// 91200 333 61000=
07005,1997-03-15 18:00:00,9,1026.5,0.5,93,8,0,25.928,,,270,7.8,10.4,,,,,,,,,wg-a,,,,AAXX 15184 07005 32/// /2714 10090 20080 30170 40265 52005 91800 333 10104 20078=
07005,1997-03-16 00:00:00,8,1028.3,0.8,100,8,0,14.816,,,270,,,,,,,,,,,wg-a,,,,AAXX 16004 07005 12/// /2708 10080 20080 30188 40283 51008 60006 90000=
07005,1997-03-16 06:00:00,8,1028.9,0.7,100,8,2500,22.224,,,270,8,9,,,,,1,,,10,wg-a,,,,AAXX 16064 07005 02225 82712 10080 20080 30194 40289 53007 60006 71022 886// 90600 333 10090 20080 60014=
07005,1997-03-16 12:00:00,9,1029.3,0.1,100,9,8000,25.928,,,270,,,,,,,,,,,wg-a,,,,AAXX 16124 07005 12458 82714 10090 20090 30198 40293 50001 60006 885// 91200=
07005,1997-03-16 18:00:00,8,1027.6,-0.7,93,7,0,35.188,,,270,7.9,10.1,,,,,,,,,wg-a,,,,AAXX 16184 07005 02/// /2719 10080 20070 30181 40276 56007 61000 91800 333 10101 20079 ////=
07005,1997-03-17 00:00:00,7,1028.6,0.2,100,7,0,14.816,,,280,,,,,,,,,,,wg-a,,,,AAXX 17004 07005 12/// /2808 10070 20070 30191 40286 51002 60006 90000=
07005,1997-03-17 06:00:00,5,1029.1,0.6,100,5,100,11.112,,,250,5.2,8.2,,0,,,,,,46,wg-a,,,,AAXX 17064 07005 02601 22506 10050 20050 30195 40291 53006 60004 7464/ 82501 90600 333 10082 20052 60007=
07005,1997-03-17 12:00:00,10,1029.2,-0.2,93,9,3000,11.112,,,300,,,,,,,,,,10,wg-a,,,,AAXX 17124 07005 12230 83006 10100 20090 30197 40292 57002 60006 71042 886// 91200=
07005,1997-03-17 18:00:00,10,1026.1,-1.4,93,9,0,7.408,,,40,5.3,11.9,,,,,,,,10,wg-a,,,,AAXX 17184 07005 12/// 00404 10100 20090 30167 40261 56014 60006 71011 80000 91800 333 10119 20053=
07005,1997-03-18 00:00:00,6,1023.7,-1.8,100,6,0,3.704,,,290,,,,,,,,,,,wg-a,,,,AAXX 18004 07005 12/// /2902 10060 20060 30142 40237 56018 60006 90000=
07005,1997-03-18 06:00:00,7,1019,-2,100,7,500,14.816,,,280,6,10.1,,,,,,,,42,wg-a,,,,AAXX 18064 07005 12205 82808 10070 20070 30095 40190 56020 60004 7424/ 886// 90600 333 10101 20060=
07005,1997-03-18 12:00:00,9,1014.6,-2.4,93,8,12000,25.928,,,240,,,,,,,,,,2,wg-a,,,,AAXX 18124 07005 12562 82414 10090 20080 30052 40146 58024 60006 70254 885// 91200=
07005,1997-03-18 18:00:00,8,1010.7,-0.9,87,6,20000,38.892,,,270,6.7,10.5,,0,,,,,,1,wg-a,,,,AAXX 18184 07005 12570 22721 10080 20060 30013 40107 55009 60007 70161 81232 91800 333 10105 20067=
07005,1997-03-19 00:00:00,7,1009.2,-1.1,93,6,0,31.484,,,280,,,,,,,,,,,wg-a,,,,AAXX 19004 07005 12/// /2817 10070 20060 39998 40092 58011 60006 90000=
07005,1997-03-19 06:00:00,8,1006.6,-0.8,81,5,20000,38.892,,,280,7.3,8.2,,,,,1,,,,wg-a,,,,AAXX 19064 07005 02570 62821 10080 20050 39973 40066 56008 60006 83230 90600 333 10082 20073 60014=
07005,1997-03-19 12:00:00,9,1010,2.5,87,7,20000,31.484,,,320,,,,1,,,,,,25,wg-a,,,,AAXX 19124 07005 02470 83217 10090 20070 30007 40100 53025 60016 72582 878// 91200 333 60017=
07005,1997-03-19 18:00:00,8,1015.2,2.3,76,4,25000,22.224,,,340,7.6,9.7,,,,,,,,1,wg-a,,,,AAXX 19184 07005 32475 63412 10080 20040 30058 40152 51023 70182 86800 91800 333 10097 20076=
07005,1997-03-20 00:00:00,3,1019.3,1.7,93,2,0,11.112,,,320,,,,,,,,,,,wg-a,,,,AAXX 20004 07005 12/// /3206 10030 20020 30097 40193 51017 60006 90000=
07005,1997-03-20 06:00:00,3,1020.2,0.4,93,2,20000,3.704,,,230,1.7,8.1,,,,,1,,,,wg-a,,,,AAXX 20064 07005 02770 62302 10030 20020 30106 40202 52004 60006 855/1 90600 333 10081 20017 60014=
07005,1997-03-20 12:00:00,9,1020.9,-0.4,76,5,15000,22.224,,,270,,,,,,,,,,,wg-a,,,,AAXX 20124 07005 12565 62712 10090 20050 30115 40209 58004 60006 86200 91200=
07005,1997-03-20 18:00:00,7,1021.2,0.4,81,4,25000,14.816,,,270,1.9,9.8,,,,,,,,,wg-a,,,,AAXX 20184 07005 12775 42708 10070 20040 30117 40212 53004 60006 845/0 91800 333 10098 20019=
07005,1997-03-21 00:00:00,7,1020.9,-0.2,87,5,0,18.52,,,280,,,,,,,,,,,wg-a,,,,AAXX 21004 07005 12/// /2810 10070 20050 30114 40209 56002 60006 90000=
07005,1997-03-21 06:00:00,7,1021.7,1,93,6,2000,11.112,,,40,5.8,7.6,,1,,,1,,,61,wg-a,,,,AAXX 21064 07005 02320 80406 10070 20060 30122 40217 53010 60014 76162 887// 90600 333 10076 20058 60017=
07005,1997-03-21 12:00:00,10,1025,1.1,66,4,20000,22.224,,,10,,,,,,,,,,,wg-a,,,,AAXX 21124 07005 12570 50112 10100 20040 30156 40250 51011 60006 85200 91200=
07005,1997-03-21 18:00:00,7,1026.8,1.2,70,2,25000,14.816,,,40,6.5,10.3,,,,,,,,,wg-a,,,,AAXX 21184 07005 12575 30408 10070 20020 30172 40268 53012 60006 81402 91800 333 10103 20065=
07005,1997-03-22 00:00:00,2,1028.7,0.6,87,0,0,3.704,,,20,,,,,,,,,,,wg-a,,,,AAXX 22004 07005 12/// /0202 10020 20000 30190 40287 51006 60006 90000=
07005,1997-03-22 06:00:00,0,1028.8,0.4,93,-1,500,7.408,,,100,-0.3,6.5,,,,,,,,,wg-a,,,,AAXX 22064 07005 12/00 31004 10000 21010 30190 40288 52004 60006 80001 90600 333 10065 21003=
07005,1997-03-22 12:00:00,8,1028.3,-1,66,2,15000,7.408,,,130,,,,,,,,,,,wg-a,,,,AAXX 22124 07005 12565 11304 10080 20020 30188 40283 58010 60006 81100 91200=
07005,1997-03-22 18:00:00,9,1024.4,-1.3,57,1,0,7.408,,,150,-0.3,10.7,,,,,,,,,wg-a,,,,AAXX 22184 07005 32/// /1504 10090 20010 30149 40244 56013 91800 333 10107 21003=
07005,1997-03-23 00:00:00,5,1020.1,-3,70,0,0,18.52,,,170,,,,,,,,,,,wg-a,,,,AAXX 23004 07005 12/// /1710 10050 20000 30105 40201 57030 60006 90000=
07005,1997-03-23 06:00:00,6,1014.3,-2.7,65,0,12000,18.52,,,210,4.3,9.1,,,,,,,,,wg-a,,,,AAXX 23064 07005 02/62 72110 10060 20000 30048 40143 56027 60006 8703/ 90600 333 10091 20043 60004=
07005,1997-03-23 12:00:00,10,1010.1,-1.2,76,6,25000,38.892,,,280,,,,,,,,,,2,wg-a,,,,AAXX 23124 07005 12575 72821 10100 20060 30008 40101 56012 60016 70262 8523/ 91200=
07005,1997-03-23 18:00:00,8,1010.8,0.6,87,6,0,25.928,,,280,5.9,10.8,,,,,,,,,wg-a,,,,AAXX 23184 07005 32/// /2814 10080 20060 30014 40108 52006 91800 333 10108 20059=
07005,1997-03-24 00:00:00,8,1011.1,-0.1,93,7,0,14.816,,,300,,,,,,,,,,,wg-a,,,,AAXX 24004 07005 12/// /3008 10080 20070 30017 40111 56001 60006 90000=
07005,1997-03-24 06:00:00,6,1011.1,-0.2,100,6,3000,3.704,,,110,6.1,8.3,,,,,1,,,10,wg-a,,,,AAXX 24064 07005 12730 71102 10060 20060 30017 40111 58002 60014 710// 875// 90600 333 10083 20061=
07005,1997-03-24 12:00:00,9,1011.2,-0.4,87,7,8000,7.408,,,260,,,,,,,,,,,wg-a,,,,AAXX 24124 07005 12558 82604 10090 20070 30019 40112 58004 60006 885// 91200=
07005,1997-03-24 18:00:00,8,1012.1,1,93,7,10000,11.112,,,310,6.2,9.2,,0,,,,,,1,wg-a,,,,AAXX 24184 07005 12560 73106 10080 20070 30027 40121 53010 60007 70162 878// 91800 333 10092 20062=
07005,1997-03-25 00:00:00,7,1014.1,0.7,100,7,0,14.816,,,290,,,,,,,,,,,wg-a,,,,AAXX 25004 07005 12/// /2908 10070 20070 30047 40141 51007 60006 90000=
07005,1997-03-25 06:00:00,7,1015.9,1.5,93,6,7000,14.816,,,330,6.7,8,,0,,,,,,,wg-a,,,,AAXX 25064 07005 02/57 33308 10070 20060 30064 40159 52015 60004 82031 90600 333 10080 20067 60007=
07005,1997-03-25 12:00:00,11,1018.6,1,66,5,20000,22.224,,,300,,,,,,,,,,,wg-a,,,,AAXX 25124 07005 12570 33012 10110 20050 30093 40186 51010 60006 82201 91200=
07005,1997-03-25 18:00:00,9,1020.4,1.2,76,5,500,7.408,,,280,6.2,11.6,,,,,,,,,wg-a,,,,AAXX 25184 07005 12/00 62804 10090 20050 30110 40204 53012 60006 82042 91800 333 10116 20062=
07005,1997-03-26 00:00:00,7,1021,-0.2,81,4,0,11.112,,,220,,,,,,,,,,,wg-a,,,,AAXX 26004 07005 12/// /2206 10070 20040 30115 40210 58002 60006 90000=
07005,1997-03-26 06:00:00,7,1020.3,-0.7,87,5,10000,11.112,,,210,6,9.2,,,,,,,,,wg-a,,,,AAXX 26064 07005 12760 72106 10070 20050 30108 40203 58007 60006 855/2 90600 333 10092 20060=
07005,1997-03-26 12:00:00,13,1019.4,-0.7,67,7,15000,25.928,,,250,,,,,,,,,,21,wg-a,,,,AAXX 26124 07005 02765 82514 10130 20070 30101 40194 56007 61000 72162 8557/ 91200 333 6100=
07005,1997-03-26 18:00:00,12,1018.2,0.3,88,10,7000,22.224,,,240,7.3,14.6,,,,,,,,61,wg-a,,,,AAXX 26184 07005 02657 82412 10120 20100 30089 40182 50003 61000 76162 875// 91800 333 10146 20073 ////=
07005,1997-03-27 00:00:00,10,1020.4,0.8,100,10,0,29.632,,,270,,,,0,,,,,,,wg-a,,,,AAXX 27004 07005 02/// /2716 10100 20100 30110 40204 53008 60016 90000 333 60007=
07005,1997-03-27 06:00:00,9,1022,1.1,100,9,800,18.52,,,280,9,11.7,,,,,1,,,46,wg-a,,,,AAXX 27064 07005 12208 82810 10090 20090 30126 40220 51011 60014 7464/ 886// 90600 333 10117 20090=
07005,1997-03-27 12:00:00,11,1022.1,-0.8,82,8,20000,29.632,,,270,,,,,,,,,,1,wg-a,,,,AAXX 27124 07005 12370 72716 10110 20080 30127 40221 58008 60006 70142 872// 91200=
07005,1997-03-27 18:00:00,13,1018.3,-1.8,77,9,20000,29.632,,,250,9,13.8,,,,,,,,,wg-a,,,,AAXX 27184 07005 12470 82516 10130 20090 30090 40183 58018 60006 888// 91800 333 10138 20090=
07005,1997-03-28 00:00:00,10,1015.5,-1.2,93,9,0,53.708,,,260,,,,,,,,,,,wg-a,,,,AAXX 28004 07005 12/// /2629 10100 20090 30062 40155 58012 60006 90000=
07005,1997-03-28 06:00:00,7,1019.4,2.7,76,3,40000,29.632,,,320,6.5,12.9,,,,,,,,,wg-a,,,,AAXX 28064 07005 12482 33216 10070 20030 30099 40194 53027 60006 83800 90600 333 10129 20065=
07005,1997-03-28 12:00:00,9,1023.4,1.3,57,1,40000,35.188,,,300,,,,,,,,,,,wg-a,,,,AAXX 28124 07005 12582 63019 10090 20010 30139 40234 51013 60006 86200 91200=
07005,1997-03-28 18:00:00,9,1024.7,0.6,61,2,40000,22.224,,,300,6.6,10.9,,,,,,,,,wg-a,,,,AAXX 28184 07005 12582 13012 10090 20020 30152 40247 53006 60006 81800 91800 333 10109 20066=
07005,1997-03-29 00:00:00,5,1025.8,0,75,1,0,22.224,,,330,,,,,,,,,,,wg-a,,,,AAXX 29004 07005 12/// /3312 10050 20010 30162 40258 50000 60006 90000=
07005,1997-03-29 06:00:00,2,1026.7,0.6,93,1,25000,11.112,,,300,2.1,8.7,,,,,,,,,wg-a,,,,AAXX 29064 07005 12775 33006 10020 20010 30170 40267 51006 60006 815/1 90600 333 10087 20021=
07005,1997-03-29 12:00:00,10,1026.9,0.2,62,3,35000,22.224,,,320,,,,,,,,,,,wg-a,,,,AAXX 29124 07005 12581 73212 10100 20030 30174 40269 50002 60006 8223/ 91200=
07005,1997-03-29 18:00:00,8,1026.9,0.5,76,4,0,18.52,,,300,2.2,10.7,,,,,,,,,wg-a,,,,AAXX 29184 07005 12/// /3010 10080 20040 30174 40269 53005 60006 91800 333 10107 20022=
07005,1997-03-30 00:00:00,6,1027.5,-0.2,93,5,0,11.112,,,280,,,,,,,,,,,wg-a,,,,AAXX 30004 07005 12/// /2806 10060 20050 30179 40275 58002 60006 90000=
07005,1997-03-30 06:00:00,4,1028,0.5,93,3,6000,11.112,,,310,4.3,7.8,,,,,,,,,wg-a,,,,AAXX 30064 07005 12756 23106 10040 20030 30183 40280 53005 60006 825/1 90600 333 10078 20043=
07005,1997-03-30 12:00:00,10,1028.7,-0.1,66,4,0,18.52,,,330,,,,,,,,,,,wg-a,,,,AAXX 30124 07005 12/// /3310 10100 20040 30192 40287 58001 60006 91200=
07005,1997-03-30 18:00:00,9,1028.3,0.2,71,4,0,14.816,,,300,4.4,11.3,,,,,,,,,wg-a,,,,AAXX 30184 07005 12/// /3008 10090 20040 30188 40283 53002 60006 91800 333 10113 20044=
07005,1997-03-31 00:00:00,4,1028.3,-0.3,93,3,0,3.704,,,150,,,,,,,,,,,wg-a,,,,AAXX 31004 07005 12/// /1502 10040 20030 30186 40283 58003 60006 90000=
07005,1997-03-31 06:00:00,1,1027.9,-0,100,1,2500,11.112,,,110,1.2,8.8,,,,,,,,10,wg-a,,,,AAXX 31064 07005 12/25 01106 10010 20010 30181 40279 55000 60004 710// 80000 90600 333 10088 20012=
07005,1997-03-31 12:00:00,14,1027,-1,55,5,10000,7.408,,,240,,,,,,,,,,,wg-a,,,,AAXX 31124 07005 12660 22404 10140 20050 30177 40270 58010 60006 82100 91200=
07005,1997-03-31 18:00:00,12,1024.9,-0.8,58,4,0,14.816,,,320,1.1,15.5,,,,,,,,,wg-a,,,,AAXX 31184 07005 12/// /3208 10120 20040 30155 40249 56008 60006 91800 333 10155 20011=
07005,1997-04-01 00:00:00,6,1024.8,-0.2,81,3,0,3.704,,,70,,,,,,,,,,,wg-a,,,,AAXX 01004 07005 12/// /0702 10060 20030 30152 40248 58002 60006 90000=
07005,1997-04-01 06:00:00,4,1024.6,0.7,93,3,2000,7.408,,,80,2.9,11.9,,,,,,,,10,wg-a,,,,AAXX 01064 07005 12/20 00804 10040 20030 30149 40246 53007 60006 710// 80000 90600 333 10119 20029=
07005,1997-04-01 12:00:00,16,1023.7,-0.6,55,7,8000,3.704,,,300,,,,,,,,,,,wg-a,,,,AAXX 01124 07005 12/58 03002 10160 20070 30145 40237 58006 60006 80000 91200=
07005,1997-04-01 18:00:00,13,1022.3,-0.2,54,4,25000,11.112,,,310,3.1,17.1,,,,,,,,,wg-a,,,,AAXX 01184 07005 32/75 03106 10130 20040 30130 40223 55002 80000 91800 333 10171 20031=
07005,1997-04-02 00:00:00,4,1023.2,-0.2,93,3,0,7.408,,,340,,,,,,,,,,,wg-a,,,,AAXX 02004 07005 12/// /3404 10040 20030 30136 40232 56002 60006 90000=
07005,1997-04-02 06:00:00,2,1022.5,0.1,93,1,200,7.408,,,120,0.3,12.7,,0,,,,,,46,wg-a,,,,AAXX 02064 07005 02202 21204 10020 20010 30128 40225 53001 60004 74644 82600 90600 333 10127 20003 60007=
07005,1997-04-02 12:00:00,15,1020.8,-1,44,3,7000,7.408,,,40,,,,,,,,,,2,wg-a,,,,AAXX 02124 07005 12/57 00404 10150 20030 30116 40208 58010 60006 70242 80000 91200=
07005,1997-04-02 18:00:00,11,1018.4,-0.6,66,5,10000,18.52,,,310,1.6,16.9,,,,,,,,,wg-a,,,,AAXX 02184 07005 12/60 13110 10110 20050 30091 40184 55006 60006 80001 91800 333 10169 20016=
07005,1997-04-03 00:00:00,4,1018,-1.1,100,4,0,3.704,,,210,,,,,,,,,,,wg-a,,,,AAXX 03004 07005 12/// /2102 10040 20040 30084 40180 58011 60006 90000=
07005,1997-04-03 06:00:00,7,1015.9,-0.5,100,7,3500,22.224,,,280,3.3,10.9,,0,,,,,,10,wg-a,,,,AAXX 03064 07005 02535 52812 10070 20070 30065 40159 56005 60004 71022 85500 90600 333 10109 20033 60007=
07005,1997-04-03 12:00:00,12,1017,0.1,67,6,10000,31.484,,,290,,,,,,,,,,,wg-a,,,,AAXX 03124 07005 12460 72917 10120 20060 30077 40170 50001 60006 81132 91200=
07005,1997-04-03 18:00:00,10,1017.8,0.2,82,7,15000,29.632,,,280,7.3,12.9,,,,,,,,,wg-a,,,,AAXX 03184 07005 12565 72816 10100 20070 30084 40178 53002 60006 878// 91800 333 10129 20073=
07005,1997-04-04 00:00:00,6,1022,2,65,0,0,29.632,,,340,,,,,,,,,,,wg-a,,,,AAXX 04004 07005 12/// /3416 10060 20000 30125 40220 53020 60006 90000=
07005,1997-04-04 06:00:00,3,1025.9,2.6,87,1,25000,11.112,,,310,2.5,9.8,,,,,,,,,wg-a,,,,AAXX 04064 07005 12475 13106 10030 20010 30162 40259 51026 60006 81200 90600 333 10098 20025=
07005,1997-04-04 12:00:00,9,1028.9,0.6,46,-2,35000,25.928,,,330,,,,,,,,,,,wg-a,,,,AAXX 04124 07005 12581 53314 10090 21020 30194 40289 51006 60006 82232 91200=
07005,1997-04-04 18:00:00,7,1028.4,-0.3,53,-2,0,18.52,,,280,2.7,10,,,,,,,,,wg-a,,,,AAXX 04184 07005 12/// /2810 10070 21020 30188 40284 56003 60006 91800 333 10100 20027=
07005,1997-04-05 00:00:00,5,1026.2,-1.4,87,3,0,18.52,,,230,,,,,,,,,,,wg-a,,,,AAXX 05004 07005 12/// /2310 10050 20030 30166 40262 58014 60006 90000=
07005,1997-04-05 06:00:00,9,1021,-2.2,87,7,12000,38.892,,,270,4,8.7,,,,,,,,,wg-a,,,,AAXX 05064 07005 12362 72721 10090 20070 30116 40210 56022 60006 877// 90600 333 10087 20040=
07005,1997-04-05 12:00:00,10,1019.8,-1.4,87,8,12000,38.892,,,270,,,,,,,,,,,wg-a,,,,AAXX 05124 07005 12362 72721 10100 20080 30104 40198 58014 60006 877// 91200=
07005,1997-04-05 18:00:00,10,1018.3,-0.4,87,8,0,42.596,,,270,8.7,12,,,,,,,,,wg-a,,,,AAXX 05184 07005 12/// /2723 10100 20080 30089 40183 55004 60006 91800 333 10120 20087=
07005,1997-04-06 00:00:00,10,1020.8,1.5,87,8,0,25.928,,,280,,,,,,,,,,,wg-a,,,,AAXX 06004 07005 12/// /2814 10100 20080 30114 40208 51015 60006 90000=
07005,1997-04-06 06:00:00,9,1024.6,2.8,87,7,6000,18.52,,,40,8.5,10.6,,,,,,,,,wg-a,,,,AAXX 06064 07005 12456 80410 10090 20070 30151 40246 53028 60006 885// 90600 333 10106 20085=
07005,1997-04-06 12:00:00,11,1028,1.2,54,2,20000,14.816,,,80,,,,,,,,,,,wg-a,,,,AAXX 06124 07005 12570 10808 10110 20020 30186 40280 51012 60006 81100 91200=
07005,1997-04-06 18:00:00,11,1029,0.9,43,-1,0,14.816,,,80,7.2,12.5,,,,,,,,,wg-a,,,,AAXX 06184 07005 12/// /0808 10110 21010 30195 40290 53009 60006 91800 333 10125 20072=
07005,1997-04-07 00:00:00,4,1031.8,0.9,81,1,0,18.52,,,80,,,,,,,,,,,wg-a,,,,AAXX 07004 07005 12/// /0810 10040 20010 30221 40318 50009 60006 90000=
07005,1997-04-07 06:00:00,2,1032.7,0.6,80,-1,15000,11.112,,,110,1,10.6,,,,,,,,,wg-a,,,,AAXX 07064 07005 12/65 01106 10020 21010 30229 40327 53006 60006 80000 90600 333 10106 20010=
07005,1997-04-07 12:00:00,11,1032.4,-0.3,37,-3,40000,25.928,,,90,,,,,,,,,,,wg-a,,,,AAXX 07124 07005 12/82 20914 10110 21030 30229 40324 58003 60006 80001 91200=
07005,1997-04-07 18:00:00,11,1030.1,-0.6,37,-3,35000,18.52,,,80,1.6,12.4,,,,,,,,,wg-a,,,,AAXX 07184 07005 12/81 10810 10110 21030 30206 40301 56006 60006 80001 91800 333 10124 20016=
07005,1997-04-08 00:00:00,5,1029.8,-0.5,60,-2,0,22.224,,,90,,,,,,,,,,,wg-a,,,,AAXX 08004 07005 12/// /0912 10050 21020 30201 40298 56005 60006 90000=
07005,1997-04-08 06:00:00,1,1029.8,0.5,64,-5,500,14.816,,,80,1.2,10.7,,,,,,,,,wg-a,,,,AAXX 08064 07005 12/00 10808 10010 21050 30200 40298 53005 60006 80002 90600 333 10107 20012=
07005,1997-04-08 12:00:00,14,1027.8,-1,28,-4,500,25.928,,,100,,,,,,,,,,,wg-a,,,,AAXX 08124 07005 12/00 21014 10140 21040 30184 40278 58010 60006 80001 91200=
07005,1997-04-08 18:00:00,14,1025.9,-0.2,26,-5,500,14.816,,,120,1.4,16.2,,,,,,,,,wg-a,,,,AAXX 08184 07005 12/00 71208 10140 21050 30166 40259 55002 60006 80001 91800 333 10162 20014=
07005,1997-04-09 00:00:00,6,1027.5,0.7,52,-3,0,11.112,,,110,,,,,,,,,,,wg-a,,,,AAXX 09004 07005 12/// /1106 10060 21030 30179 40275 51007 60006 90000=
07005,1997-04-09 06:00:00,4,1027.7,0.4,60,-3,20000,18.52,,,130,3.8,14.2,,,,,,,,,wg-a,,,,AAXX 09064 07005 12/70 51310 10040 21030 30180 40277 52004 60006 80002 90600 333 10142 20038=
07005,1997-04-09 12:00:00,17,1028.6,-0.2,34,1,20000,7.408,,,70,,,,,,,,,,,wg-a,,,,AAXX 09124 07005 12/70 60704 10170 20010 30193 40286 58002 60006 80002 91200=
07005,1997-04-09 18:00:00,16,1029,0.7,42,3,25000,11.112,,,320,4.2,19.4,,,,,,,,,wg-a,,,,AAXX 09184 07005 12/75 43206 10160 20030 30197 40290 53007 60006 80002 91800 333 10194 20042=
07005,1997-04-10 00:00:00,8,1031.7,1.1,61,1,0,11.112,,,90,,,,,,,,,,,wg-a,,,,AAXX 10004 07005 12/// /0906 10080 20010 30221 40317 51011 60006 90000=
07005,1997-04-10 06:00:00,5,1032.8,0.8,65,-1,500,3.704,,,30,3.8,16.1,,,,,,,,,wg-a,,,,AAXX 10064 07005 12/00 20302 10050 21010 30231 40328 53008 60006 80002 90600 333 10161 20038=
07005,1997-04-10 12:00:00,18,1032.4,-0.6,32,1,7000,11.112,,,60,,,,,,,,,,,wg-a,,,,AAXX 10124 07005 12/57 40606 10180 20010 30231 40324 58006 60006 80002 91200=
07005,1997-04-10 18:00:00,15,1030.5,-0.6,44,3,6000,11.112,,,320,5.2,19.3,,,,,,,,,wg-a,,,,AAXX 10184 07005 12/56 63206 10150 20030 30212 40305 57006 60006 80002 91800 333 10193 20052=
07005,1997-04-11 00:00:00,7,1030,-0.9,66,1,0,11.112,,,290,,,,,,,,,,,wg-a,,,,AAXX 11004 07005 12/// /2906 10070 20010 30204 40300 57009 60006 90000=
07005,1997-04-11 06:00:00,6,1026.9,-1.3,87,4,3000,11.112,,,280,5.3,14.7,,,,,,,,10,wg-a,,,,AAXX 11064 07005 12/30 12806 10060 20040 30173 40269 56013 60006 710// 80001 90600 333 10147 20053=
07005,1997-04-11 12:00:00,12,1027.3,0.7,71,7,8000,25.928,,,10,,,,,,,,,,,wg-a,,,,AAXX 11124 07005 12558 70114 10120 20070 30179 40273 51007 60006 872// 91200=
07005,1997-04-11 18:00:00,8,1029.4,1,61,1,15000,29.632,,,20,6.1,13.3,,,,,,,,,wg-a,,,,AAXX 11184 07005 12565 70216 10080 20010 30198 40294 53010 60006 8584/ 91800 333 10133 20061=
07005,1997-04-12 00:00:00,1,1031.3,0.2,86,-1,0,7.408,,,330,,,,,,,,,,,wg-a,,,,AAXX 12004 07005 12/// /3304 10010 21010 30215 40313 51002 60006 90000=
07005,1997-04-12 06:00:00,1,1030.8,0.2,86,-1,20000,11.112,,,340,0.1,7.5,,,,,,,,,wg-a,,,,AAXX 12064 07005 12670 63406 10010 21010 30210 40308 53002 60006 83532 90600 333 10075 20001=
07005,1997-04-12 12:00:00,9,1029.9,-0.7,49,-1,25000,25.928,,,20,,,,,,,,,,,wg-a,,,,AAXX 12124 07005 12575 60214 10090 21010 30204 40299 58007 60006 86200 91200=
07005,1997-04-12 18:00:00,8,1029.3,0.1,57,0,0,22.224,,,40,0.5,10.3,,,,,,,,,wg-a,,,,AAXX 12184 07005 12/// /0412 10080 20000 30198 40293 53001 60006 91800 333 10103 20005=
07005,1997-04-13 00:00:00,1,1029.9,-0.2,86,-1,0,7.408,,,10,,,,,,,,,,,wg-a,,,,AAXX 13004 07005 12/// /0104 10010 21010 30201 40299 56002 60006 90000=
07005,1997-04-13 06:00:00,1,1029.4,0.3,93,0,12000,7.408,,,70,0,8.2,,,,,,,,,wg-a,,,,AAXX 13064 07005 12662 30704 10010 20000 30196 40294 53003 60006 83502 90600 333 10082 20000=
07005,1997-04-13 12:00:00,10,1028.5,-0.8,57,2,20000,11.112,,,100,,,,,,,,,,,wg-a,,,,AAXX 13124 07005 12570 51006 10100 20020 30190 40285 58008 60006 85200 91200=
07005,1997-04-13 18:00:00,10,1026.1,-0.5,66,4,0,14.816,,,310,0.7,12.3,,,,,,,,,wg-a,,,,AAXX 13184 07005 12/// /3108 10100 20040 30167 40261 55005 60006 91800 333 10123 20007=
07005,1997-04-14 00:00:00,3,1026.6,-0.3,87,1,0,3.704,,,160,,,,,,,,,,,wg-a,,,,AAXX 14004 07005 12/// /1602 10030 20010 30169 40266 56003 60006 90000=
07005,1997-04-14 06:00:00,1,1026.2,0.2,93,0,500,0,,,0,0.8,10.1,,,,,,,,,wg-a,,,,AAXX 14064 07005 12600 10000 10010 20000 30165 40262 53002 60006 81500 90600 333 10101 20008=
07005,1997-04-14 12:00:00,14,1026,-0.5,58,6,15000,14.816,,,300,,,,,,,,,,,wg-a,,,,AAXX 14124 07005 12665 43008 10140 20060 30167 40260 58005 60006 84800 91200=
07005,1997-04-14 18:00:00,11,1025.5,0.3,76,7,500,18.52,,,330,1.5,15.3,,,,,,,,,wg-a,,,,AAXX 14184 07005 12500 73310 10110 20070 30161 40255 53003 60006 85830 91800 333 10153 20015=
07005,1997-04-15 00:00:00,8,1027.5,0.6,81,5,0,14.816,,,30,,,,,,,,,,,wg-a,,,,AAXX 15004 07005 12/// /0308 10080 20050 30180 40275 51006 60006 90000=
07005,1997-04-15 06:00:00,4,1028.9,1.1,87,2,20000,7.408,,,320,3,11.3,,,,,,,,,wg-a,,,,AAXX 15064 07005 12670 43204 10040 20020 30192 40289 53011 60006 845// 90600 333 10113 20030=
07005,1997-04-15 12:00:00,10,1029.9,-0.1,53,1,20000,25.928,,,10,,,,,,,,,,,wg-a,,,,AAXX 15124 07005 12670 50114 10100 20010 30204 40299 58001 60006 85500 91200=
07005,1997-04-15 18:00:00,8,1030,0.6,61,1,20000,22.224,,,50,3.7,11.2,,,,,,,,,wg-a,,,,AAXX 15184 07005 12670 30512 10080 20010 30204 40300 52006 60006 83500 91800 333 10112 20037=
07005,1997-04-16 00:00:00,2,1030.7,-0.4,87,0,0,3.704,,,320,,,,,,,,,,,wg-a,,,,AAXX 16004 07005 12/// /3202 10020 20000 30209 40307 56004 60006 90000=
07005,1997-04-16 06:00:00,1,1029.5,-0.5,100,1,15000,0,,,0,0,7.8,,,,,,,,,wg-a,,,,AAXX 16064 07005 12665 50000 10010 20010 30197 40295 56005 60006 84501 90600 333 10078 20000=
07005,1997-04-16 12:00:00,9,1028.6,-1.1,61,2,20000,18.52,,,60,,,,,,,,,,,wg-a,,,,AAXX 16124 07005 12570 70610 10090 20020 30191 40286 58011 60006 872// 91200=
07005,1997-04-16 18:00:00,8,1026.1,-1.1,71,3,15000,22.224,,,30,1.1,10.3,,,,,,,,,wg-a,,,,AAXX 16184 07005 12465 70312 10080 20030 30166 40261 58011 60006 878// 91800 333 10103 20011=
07005,1997-04-17 00:00:00,6,1025.2,-0.9,87,4,0,11.112,,,40,,,,,,,,,,,wg-a,,,,AAXX 17004 07005 12/// /0406 10060 20040 30156 40252 56009 60006 90000=
07005,1997-04-17 06:00:00,6,1023.8,0.4,93,5,500,14.816,,,80,5.4,7.7,,,,,,,,3,wg-a,,,,AAXX 17064 07005 02200 70808 10060 20050 30143 40238 53004 61000 7035/ 8583/ 90600 333 10077 20054 6100=
07005,1997-04-17 12:00:00,12,1024.1,-0.7,40,-1,10000,22.224,,,90,,,,,,,,,,,wg-a,,,,AAXX 17124 07005 12560 50912 10120 21010 30147 40241 57007 60006 85200 91200=
07005,1997-04-17 18:00:00,11,1023.3,-0,40,-2,12000,22.224,,,80,5.8,12.8,,,,,,,,,wg-a,,,,AAXX 17184 07005 12/62 00812 10110 21020 30139 40233 55000 60006 80000 91800 333 10128 20058=
07005,1997-04-18 00:00:00,4,1024.8,-0,81,1,0,18.52,,,50,,,,,,,,,,,wg-a,,,,AAXX 18004 07005 12/// /0510 10040 20010 30152 40248 54000 60006 90000=
07005,1997-04-18 06:00:00,2,1024.2,-0.3,87,0,6000,7.408,,,80,1.4,11.2,,,,,,,,,wg-a,,,,AAXX 18064 07005 12/56 10804 10020 20000 30145 40242 56003 60006 80002 90600 333 10112 20014=
07005,1997-04-18 12:00:00,13,1021.8,-1.3,44,1,20000,18.52,,,30,,,,,,,,,,,wg-a,,,,AAXX 18124 07005 12670 20310 10130 20010 30125 40218 58013 60006 82100 91200=
07005,1997-04-18 18:00:00,10,1019.3,-0.4,62,3,20000,22.224,,,40,2,14,,,,,,,,,wg-a,,,,AAXX 18184 07005 12670 20412 10100 20030 30099 40193 55004 60006 81402 91800 333 10140 20020=
07005,1997-04-19 00:00:00,7,1018.2,-1.1,81,4,0,7.408,,,30,,,,,,,,,,,wg-a,,,,AAXX 19004 07005 12/// /0304 10070 20040 30087 40182 58011 60006 90000=
07005,1997-04-19 06:00:00,5,1016.6,-0.6,93,4,10000,11.112,,,360,3,9.6,,,,,,,,,wg-a,,,,AAXX 19064 07005 12660 83606 10050 20040 30071 40166 57006 60006 875// 90600 333 10096 20030=
07005,1997-04-19 12:00:00,10,1016,-0.7,53,1,25000,31.484,,,40,,,,,,,,,,,wg-a,,,,AAXX 19124 07005 12675 70417 10100 20010 30066 40160 57007 60006 8213/ 91200=
07005,1997-04-19 18:00:00,6,1016.2,0.8,52,-3,0,35.188,,,30,4.7,10.7,,,,,,,,,wg-a,,,,AAXX 19184 07005 12/// /0319 10060 21030 30067 40162 53008 60006 91800 333 10107 20047=
07005,1997-04-20 00:00:00,1,1017.7,0.2,86,-1,0,14.816,,,350,,,,,,,,,,,wg-a,,,,AAXX 20004 07005 12/// /3508 10010 21010 30080 40177 53002 60006 90000=
07005,1997-04-20 06:00:00,2,1018.9,0.9,75,-2,40000,18.52,,,40,0.8,6.6,,,,,,,,,wg-a,,,,AAXX 20064 07005 12682 10410 10020 21020 30093 40189 53009 60006 81500 90600 333 10066 20008=
07005,1997-04-20 12:00:00,9,1019.2,-0.2,40,-4,35000,29.632,,,60,,,,,,,,,,,wg-a,,,,AAXX 20124 07005 12681 20616 10090 21040 30098 40192 55002 60006 82100 91200=
07005,1997-04-20 18:00:00,7,1019,0.6,49,-3,0,29.632,,,40,2.3,10.5,,,,,,,,,wg-a,,,,AAXX 20184 07005 12/// /0416 10070 21030 30095 40190 51006 60006 91800 333 10105 20023=
07005,1997-04-21 00:00:00,1,1019.8,-0.3,80,-2,0,11.112,,,50,,,,,,,,,,,wg-a,,,,AAXX 21004 07005 12/// /0506 10010 21020 30101 40198 58003 60006 90000=
07005,1997-04-21 06:00:00,0,1018.5,-0.7,80,-3,20000,7.408,,,70,-1.8,7.1,,,,,,,,,wg-a,,,,AAXX 21064 07005 12/70 00704 10000 21030 30088 40185 55007 60006 80000 90600 333 10071 21018=
07005,1997-04-21 12:00:00,10,1016.1,-1.7,34,-5,25000,11.112,,,40,,,,,,,,,,,wg-a,,,,AAXX 21124 07005 12/75 00406 10100 21050 30067 40161 58017 60006 80000 91200=
07005,1997-04-21 18:00:00,9,1014.4,-0,43,-3,25000,29.632,,,20,-0.3,11.8,,,,,,,,,wg-a,,,,AAXX 21184 07005 12/75 10216 10090 21030 30050 40144 55000 60006 80002 91800 333 10118 21003=
07005,1997-04-22 00:00:00,2,1015.4,0.1,80,-1,0,14.816,,,10,,,,,,,,,,,wg-a,,,,AAXX 22004 07005 12/// /0108 10020 21010 30058 40154 50001 60006 90000=
07005,1997-04-22 06:00:00,5,1016.3,1,87,3,10000,11.112,,,30,1.6,8.7,,,,,,,,,wg-a,,,,AAXX 22064 07005 12660 60306 10050 20030 30068 40163 53010 60006 86500 90600 333 10087 20016=
07005,1997-04-22 12:00:00,10,1017.4,0.4,43,-2,25000,14.816,,,60,,,,,,,,,,,wg-a,,,,AAXX 22124 07005 12675 70608 10100 21020 30080 40174 51004 60006 878// 91200=
07005,1997-04-22 18:00:00,9,1017.8,0.7,53,0,25000,14.816,,,30,5,10.7,,,,,,,,,wg-a,,,,AAXX 22184 07005 12675 60308 10090 20000 30084 40178 53007 60006 86800 91800 333 10107 20050=
07005,1997-04-23 00:00:00,3,1020.3,0.5,75,-1,0,7.408,,,150,,,,,,,,,,,wg-a,,,,AAXX 23004 07005 12/// /1504 10030 21010 30106 40203 51005 60006 90000=
07005,1997-04-23 06:00:00,0,1021.1,0.7,86,-2,6000,7.408,,,150,-1,8.8,,,,,,,,,wg-a,,,,AAXX 23064 07005 12/56 51504 10000 21020 30113 40211 53007 60006 80001 90600 333 10088 21010=
07005,1997-04-23 12:00:00,12,1020.7,-0.6,44,0,500,7.408,,,290,,,,,,,,,,,wg-a,,,,AAXX 23124 07005 12600 22904 10120 20000 30113 40207 58006 60006 81101 91200=
07005,1997-04-23 18:00:00,11,1020.4,0.5,40,-2,500,14.816,,,320,-0.1,13,,,,,,,,,wg-a,,,,AAXX 23184 07005 12/00 33208 10110 21020 30110 40204 53005 60006 80001 91800 333 10130 21001=
07005,1997-04-24 00:00:00,4,1020.8,-0.3,65,-2,0,14.816,,,180,,,,,,,,,,,wg-a,,,,AAXX 24004 07005 12/// /1808 10040 21020 30112 40208 56003 60006 90000=
07005,1997-04-24 06:00:00,4,1020.4,-0,70,-1,10000,14.816,,,170,2.3,10.7,,,,,,,,,wg-a,,,,AAXX 24064 07005 12660 31708 10040 21010 30108 40204 55000 60006 81101 90600 333 10107 20023=
07005,1997-04-24 12:00:00,16,1019.3,-0.7,39,2,25000,29.632,,,280,,,,,,,,,,,wg-a,,,,AAXX 24124 07005 12675 62816 10160 20020 30101 40193 57007 60006 84101 91200=
07005,1997-04-24 18:00:00,12,1018.2,-0.4,54,3,25000,18.52,,,310,4,16.7,,,,,,,,,wg-a,,,,AAXX 24184 07005 12/75 53110 10120 20030 30089 40182 56004 60006 81031 91800 333 10167 20040=
07005,1997-04-25 00:00:00,6,1018.5,-0.3,75,2,0,11.112,,,160,,,,,,,,,,,wg-a,,,,AAXX 25004 07005 12/// /1606 10060 20020 30090 40185 58003 60006 90000=
07005,1997-04-25 12:00:00,14,1015.5,-0.7,55,5,15000,18.52,,,300,,,,,,,,,,,wg-a,,,,AAXX 25124 07005 12/65 83010 10140 20050 30063 40155 56007 60006 85072 91200=
07005,1997-04-25 18:00:00,10,1014.6,-1,93,9,1500,14.816,,,130,4.6,14.7,,2,,,,,,10,wg-a,,,,AAXX 25184 07005 12215 81308 10100 20090 30053 40146 58010 60027 71022 8367/ 91800 333 10147 20046=
07005,1997-04-26 00:00:00,10,1014.6,-0,93,9,0,25.928,,,280,,,,,,,,,,,wg-a,,,,AAXX 26004 07005 12/// /2814 10100 20090 30053 40146 54000 60066 90000=
07005,1997-04-26 12:00:00,12,1011.3,-2.4,88,10,0,18.52,,,150,,,,,,,,,,,wg-a,,,,AAXX 26124 07005 12/// /1510 10120 20100 30021 40113 58024 60016 91200=
07005,1997-04-26 18:00:00,12,1005.2,-2.7,94,11,0,18.52,,,160,9.9,12.6,,,,,,,,,wg-a,,,,AAXX 26184 07005 32/// /1610 10120 20110 39960 40052 56027 91800 333 10126 20099=
07005,1997-04-27 00:00:00,10,1005.5,-0,93,9,0,11.112,,,220,,,,,,,,,,,wg-a,,,,AAXX 27004 07005 12/// /2206 10100 20090 39963 40055 55000 60016 90000=
07005,1997-04-27 06:00:00,10,1006.2,1.3,93,9,2500,22.224,,,280,9.7,12,,0,,,7,,,61,wg-a,,,,AAXX 27064 07005 02225 82812 10100 20090 39969 40062 53013 60074 76162 877// 90600 333 10120 20097 60007=
07005,1997-04-27 12:00:00,11,1010.5,2,100,11,3000,22.224,,,300,,,,0,,,,,,20,wg-a,,,,AAXX 27124 07005 02330 83012 10110 20110 30013 40105 51020 60016 72065 887// 91200 333 60007=
07005,1997-04-27 18:00:00,12,1013.4,1.5,82,9,0,22.224,,,270,9.7,12.5,,,,,,,,,wg-a,,,,AAXX 27184 07005 32/// /2712 10120 20090 30041 40134 52015 91800 333 10125 20097=
07005,1997-04-28 00:00:00,9,1012.5,-1.5,93,8,0,14.816,,,180,,,,,,,,,,,wg-a,,,,AAXX 28004 07005 12/// /1808 10090 20080 30032 40125 56015 60006 90000=
07005,1997-04-28 06:00:00,12,1011.2,-0,94,11,10000,25.928,,,270,8.4,11.7,,0,,,3,,,1,wg-a,,,,AAXX 28064 07005 02360 82714 10120 20110 30020 40112 55000 60034 7015/ 876// 90600 333 10117 20084 60007=
07005,1997-04-28 12:00:00,13,1010.9,-0.2,88,11,12000,38.892,,,270,,,,,,,,,,,wg-a,,,,AAXX 28124 07005 02462 82721 10130 20110 30017 40109 56002 61000 885// 91200 333 ////=
07005,1997-04-28 18:00:00,12,1008.8,-0.5,82,9,20000,50.004,,,260,11.7,14.2,,,,,,,,,wg-a,,,,AAXX 28184 07005 32470 62627 10120 20090 39996 40088 58005 82232 91800 333 10142 20117=
07005,1997-04-29 06:00:00,11,1012,2.2,87,9,0,38.892,,,290,10.4,12,,,,,,,,,wg-a,,,,AAXX 29064 07005 12/// /2921 10110 20090 30027 40120 53022 60004 90600 333 10120 20104=
07005,1997-04-29 12:00:00,13,1015.3,1.4,77,9,25000,38.892,,,290,,,,,,,,,,,wg-a,,,,AAXX 29124 07005 12575 72921 10130 20090 30060 40153 51014 60006 878// 91200=
07005,1997-04-29 18:00:00,11,1017.5,1.1,87,9,25000,25.928,,,290,10.8,13.6,,,,,,,,,wg-a,,,,AAXX 29184 07005 12775 72914 10110 20090 30082 40175 53011 60006 875// 91800 333 10136 20108=
07005,1997-04-30 00:00:00,9,1021.3,1.4,87,7,0,11.112,,,310,,,,,,,,,,,wg-a,,,,AAXX 30004 07005 12/// /3106 10090 20070 30119 40213 51014 60006 90000=
07005,1997-04-30 06:00:00,8,1024.9,2.4,93,7,6000,3.704,,,320,6.2,11.4,,,,,,,,,wg-a,,,,AAXX 30064 07005 12/56 03202 10080 20070 30154 40249 53024 60006 80000 90600 333 10114 20062=
07005,1997-04-30 12:00:00,15,1026.8,0.6,72,10,10000,3.704,,,90,,,,,,,,,,,wg-a,,,,AAXX 30124 07005 12560 50902 10150 20100 30175 40268 51006 60006 85200 91200=
07005,1997-04-30 18:00:00,15,1027.8,0.6,72,10,20000,14.816,,,310,7.5,15.7,,,,,,,,,wg-a,,,,AAXX 30184 07005 12470 43108 10150 20100 30185 40278 53006 60006 82801 91800 333 10157 20075=
07005,1997-05-01 00:00:00,8,1029.7,0.6,100,8,0,7.408,,,80,,,,,,,,,,,wg-a,,,,AAXX 01004 07005 12/// /0804 10080 20080 30202 40297 51006 60006 90000=
07005,1997-05-01 06:00:00,7,1030.5,0.9,93,6,1400,3.704,,,160,6,14.7,,0,,,,,,10,wg-a,,,,AAXX 01064 07005 02/14 11602 10070 20060 30209 40305 53009 60004 710// 80001 90600 333 10147 20060 60007=
07005,1997-05-01 12:00:00,17,1029.9,-0.8,63,10,6000,7.408,,,80,,,,,,,,,,,wg-a,,,,AAXX 01124 07005 12656 20804 10170 20100 30207 40299 58008 60006 82100 91200=
07005,1997-05-01 18:00:00,18,1027.5,-1,56,9,0,14.816,,,90,6.7,19.7,,,,,,,,,wg-a,,,,AAXX 01184 07005 12/// /0908 10180 20090 30183 40275 56010 60006 91800 333 10197 20067=
07005,1997-05-02 00:00:00,11,1027.8,-0.4,82,8,0,7.408,,,130,,,,,,,,,,,wg-a,,,,AAXX 02004 07005 12/// /1304 10110 20080 30184 40278 58004 60006 90000=
07005,1997-05-02 06:00:00,9,1028.1,0.3,93,8,2000,7.408,,,130,8.1,18.3,,,,,,,,10,wg-a,,,,AAXX 02064 07005 12/20 01304 10090 20080 30186 40281 53003 60006 710// 80000 90600 333 10183 20081=
07005,1997-05-02 12:00:00,21,1025.3,-2,46,9,15000,22.224,,,140,,,,,,,,,,,wg-a,,,,AAXX 02124 07005 12/65 01412 10210 20090 30162 40253 58020 60006 80000 91200=
07005,1997-05-02 18:00:00,22,1021.3,-1.5,43,9,25000,14.816,,,110,9.3,23,,,,,,,,,wg-a,,,,AAXX 02184 07005 12/75 01108 10220 20090 30123 40213 57015 60006 80000 91800 333 10230 20093=
07005,1997-05-03 00:00:00,13,1020.6,-1.2,72,8,0,11.112,,,140,,,,,,,,,,,wg-a,,,,AAXX 03004 07005 12/// /1406 10130 20080 30113 40206 57012 60006 90000=
07005,1997-05-03 06:00:00,11,1017.7,-1.1,87,9,500,11.112,,,140,9.4,21.8,,,,,,,,,wg-a,,,,AAXX 03064 07005 12/00 01406 10110 20090 30084 40177 56011 60006 80000 90600 333 10218 20094=
07005,1997-05-03 12:00:00,24,1014.8,-1.4,44,11,15000,7.408,,,300,,,,,,,,,,,wg-a,,,,AAXX 03124 07005 12/65 53004 10240 20110 30059 40148 58014 60006 80002 91200=
07005,1997-05-03 18:00:00,14,1014.9,0.4,77,10,0,22.224,,,290,11.4,24.3,,,,,,,,,wg-a,,,,AAXX 03184 07005 12/// /2912 10140 20100 30057 40149 52004 60006 91800 333 10243 20114=
07005,1997-05-04 00:00:00,13,1014.1,-1.1,94,12,0,18.52,,,260,,,,,,,,,,,wg-a,,,,AAXX 04004 07005 12/// /2610 10130 20120 30049 40141 58011 60006 90000=
07005,1997-05-04 06:00:00,13,1010.8,-1.1,94,12,500,18.52,,,220,12.4,14.1,,,,,,,,,wg-a,,,,AAXX 04064 07005 12400 72210 10130 20120 30016 40108 55011 60006 875// 90600 333 10141 20124=
07005,1997-05-04 12:00:00,16,1006.9,-1.9,88,14,12000,18.52,,,200,,,,0,,,,,,61,wg-a,,,,AAXX 04124 07005 02362 82010 10160 20140 39979 40069 58019 60016 76162 875// 91200 333 60007=
07005,1997-05-04 18:00:00,14,1002.1,-2.7,88,12,0,7.408,,,290,13.4,17,,,,,,,,,wg-a,,,,AAXX 04184 07005 32/// /2904 10140 20120 39930 40021 56027 91800 333 10170 20134=
07005,1997-05-05 00:00:00,13,998.2,-2.3,88,11,0,14.816,,,220,,,,,,,,,,,wg-a,,,,AAXX 05004 07005 12/// /2208 10130 20110 39891 49982 57023 60006 90000=
07005,1997-05-05 06:00:00,13,994.1,-1.3,88,11,20000,18.52,,,200,12.2,13.9,,,,,1,,,,wg-a,,,,AAXX 05064 07005 02470 82010 10130 20110 39851 49941 58013 60006 8587/ 90600 333 10139 20122 60014=
07005,1997-05-05 12:00:00,14,992.5,-0.3,82,11,10000,29.632,,,250,,,,2,,,,,,80,wg-a,,,,AAXX 05124 07005 02460 82516 10140 20110 39835 49925 58003 60046 78082 872// 91200 333 60027=
07005,1997-05-05 18:00:00,13,989.3,-1.8,88,11,15000,7.408,,,220,11,16.9,,1,,,,,,25,wg-a,,,,AAXX 05184 07005 12365 82204 10130 20110 39803 49893 58018 60017 72582 878// 91800 333 10169 20110=
07005,1997-05-06 00:00:00,10,989.5,0.2,93,9,0,25.928,,,260,,,,,,,,,,,wg-a,,,,AAXX 06004 07005 12/// /2614 10100 20090 39804 49895 53002 60016 90000=
07005,1997-05-06 06:00:00,7,988.3,-0.2,93,6,15000,25.928,,,30,7,13.8,,,,,6,,,58,wg-a,,,,AAXX 06064 07005 02365 80314 10070 20060 39791 49883 56002 60064 75865 875// 90600 333 10138 20070 61000=
07005,1997-05-06 12:00:00,6,993.9,3.4,87,4,12000,35.188,,,350,,,,2,,,,,,61,wg-a,,,,AAXX 06124 07005 02262 83519 10060 20040 39846 49939 53034 60026 76166 887// 91200 333 60027=
07005,1997-05-06 18:00:00,5,1000.1,3.3,87,3,15000,38.892,,,350,4.5,7.8,,1,,,,,,2,wg-a,,,,AAXX 06184 07005 12365 73521 10050 20030 39907 40001 52033 60017 70286 873// 91800 333 10078 20045=
07005,1997-05-07 00:00:00,1,1003.2,0.3,93,0,0,11.112,,,190,,,,,,,,,,,wg-a,,,,AAXX 07004 07005 12/// /1906 10010 20000 39937 40032 51003 60006 90000=
07005,1997-05-07 06:00:00,2,1003.1,0.8,93,1,6000,14.816,,,100,0.6,4.5,,,,,4,,,,wg-a,,,,AAXX 07064 07005 12556 81008 10020 20010 39936 40031 53008 60044 83801 90600 333 10045 20006=
07005,1997-05-07 12:00:00,7,1002.7,0.2,70,2,0,18.52,,,180,,,,,,,,,,,wg-a,,,,AAXX 07124 07005 12/// /1810 10070 20020 39934 40027 53002 60006 91200=
07005,1997-05-07 18:00:00,8,1003.3,0.3,61,1,500,25.928,,,290,1.6,9.1,,,,,,,,3,wg-a,,,,AAXX 07184 07005 32400 42914 10080 20010 39940 40033 53003 70381 82902 91800 333 10091 20016=
07005,1997-05-08 00:00:00,5,1004,-0.5,81,2,0,11.112,,,180,,,,,,,,,,,wg-a,,,,AAXX 08004 07005 12/// /1806 10050 20020 39946 40040 58005 60006 90000=
07005,1997-05-08 06:00:00,5,1001.1,-1,93,4,8000,29.632,,,210,3.4,8,,1,,,1,,,61,wg-a,,,,AAXX 08064 07005 02258 82116 10050 20040 39917 40011 56010 60014 7616/ 8457/ 90600 333 10080 20034 60017=
07005,1997-05-08 12:00:00,10,1000.9,-0.1,71,5,20000,25.928,,,230,,,,0,,,,,,25,wg-a,,,,AAXX 08124 07005 02470 72314 10100 20050 39917 40009 58001 60016 72586 872// 91200 333 60007=
07005,1997-05-08 18:00:00,10,998.4,-1.6,82,7,0,22.224,,,200,4.8,11.4,,,,,,,,,wg-a,,,,AAXX 08184 07005 32/// /2012 10100 20070 39892 49984 58016 91800 333 10114 20048=
07005,1997-05-09 00:00:00,8,995.6,-0.6,93,7,0,25.928,,,260,,,,,,,,,,,wg-a,,,,AAXX 09004 07005 12/// /2614 10080 20070 39864 49956 56006 60046 90000=
07005,1997-05-09 06:00:00,7,997.4,1.2,87,5,0,25.928,,,220,6.5,10.1,,1,,,7,,,,wg-a,,,,AAXX 09064 07005 02/// /2214 10070 20050 39881 49974 53012 60074 90600 333 10101 20065 60017=
07005,1997-05-09 12:00:00,9,1001.9,2.4,87,7,0,35.188,,,260,,,,2,,,,,,,wg-a,,,,AAXX 09124 07005 02/// /2619 10090 20070 39926 40019 53024 60046 91200 333 60027=
07005,1997-05-09 18:00:00,11,1004.7,1.4,76,7,25000,25.928,,,280,6.5,12.5,,,,,,,,3,wg-a,,,,AAXX 09184 07005 32575 62814 10110 20070 39955 40047 51014 70382 82202 91800 333 10125 20065=
07005,1997-05-10 00:00:00,7,1007.8,1.1,87,5,0,11.112,,,200,,,,,,,,,,,wg-a,,,,AAXX 10004 07005 12/// /2006 10070 20050 39984 40078 51011 60006 90000=
07005,1997-05-10 06:00:00,8,1007.6,-0.1,93,7,25000,22.224,,,200,6,11,,,,,4,,,,wg-a,,,,AAXX 10064 07005 02/75 52012 10080 20070 39983 40076 55001 60006 84042 90600 333 10110 20060 60044=
07005,1997-05-10 12:00:00,14,1006.5,-1,72,9,20000,29.632,,,190,,,,,,,,,,21,wg-a,,,,AAXX 10124 07005 02470 81916 10140 20090 39974 40065 58010 61000 72162 8527/ 91200 333 6100=
07005,1997-05-10 18:00:00,12,1005.9,0.7,88,10,0,18.52,,,220,8.1,16.3,,,,,,,,,wg-a,,,,AAXX 10184 07005 32/// /2210 10120 20100 39967 40059 52007 91800 333 10163 20081=
07005,1997-05-11 00:00:00,11,1006.9,-0,94,10,0,14.816,,,190,,,,,,,,,,,wg-a,,,,AAXX 11004 07005 12/// /1908 10110 20100 39977 40069 55000 60016 90000=
07005,1997-05-11 06:00:00,11,1007.4,0.2,87,9,20000,14.816,,,180,9.7,12.1,,,,,4,,,,wg-a,,,,AAXX 11064 07005 12470 71808 10110 20090 39982 40074 53002 60044 8457/ 90600 333 10121 20097=
07005,1997-05-11 12:00:00,15,1008,-0.1,67,9,500,29.632,,,200,,,,,,,,,,1,wg-a,,,,AAXX 11124 07005 02500 62016 10150 20090 39989 40080 58001 61000 70162 85202 91200 333 ////=
07005,1997-05-12 00:00:00,9,1013.9,0.9,81,6,0,18.52,,,190,,,,,,,,,,,wg-a,,,,AAXX 12004 07005 12/// /1910 10090 20060 30045 40139 53009 60016 90000=
07005,1997-05-12 06:00:00,9,1017.4,2.2,87,7,20000,14.816,,,210,7.8,10.9,,,,,3,,,,wg-a,,,,AAXX 12064 07005 12470 12108 10090 20070 30080 40174 51022 60034 81200 90600 333 10109 20078=
07005,1997-05-12 12:00:00,15,1019.6,0.8,72,10,20000,29.632,,,210,,,,,,,,,,,wg-a,,,,AAXX 12124 07005 12470 62116 10150 20100 30104 40196 51008 60006 86300 91200=
07005,1997-05-12 18:00:00,13,1020.7,-0,72,8,25000,3.704,,,180,,,,1,,,,,,3,wg-a,,,,AAXX 12184 07005 12575 61802 10130 20080 30114 40207 55000 60017 70398 86900 91800=
07005,1997-05-13 00:00:00,7,1021.9,-0.1,93,6,0,7.408,,,120,,,,,,,,,,,wg-a,,,,AAXX 13004 07005 12/// /1204 10070 20060 30124 40219 58001 60006 90000=
07005,1997-05-13 06:00:00,8,1022,0.3,93,7,25000,11.112,,,140,6.1,12.6,,,,,,,,,wg-a,,,,AAXX 13064 07005 32575 41406 10080 20070 30125 40220 53003 83801 90600 333 10126 20061=
07005,1997-05-13 12:00:00,17,1020.7,-0.9,72,12,500,11.112,,,320,,,,,,,,,,,wg-a,,,,AAXX 13124 07005 32500 33206 10170 20120 30116 40207 58009 83201 91200=
07005,1997-05-13 18:00:00,14,1019.4,-0.5,67,8,25000,14.816,,,320,8.2,17.8,,,,,,,,,wg-a,,,,AAXX 13184 07005 32575 73208 10140 20080 30102 40194 56005 82816 91800 333 10178 20082=
07005,1997-05-14 00:00:00,11,1020.4,0.3,87,9,0,3.704,,,100,,,,,,,,,,,wg-a,,,,AAXX 14004 07005 12/// /1002 10110 20090 30111 40204 51003 60006 90000=
07005,1997-05-14 06:00:00,10,1021.4,1.5,93,9,7000,7.408,,,290,9.5,14,,1,,,,,,61,wg-a,,,,AAXX 14064 07005 12657 82904 10100 20090 30120 40214 53015 60017 76162 8562/ 90600 333 10140 20095=
07005,1997-05-14 12:00:00,16,1022.8,0.5,63,9,500,14.816,,,310,,,,,,,,,,3,wg-a,,,,AAXX 14124 07005 02500 33108 10160 20090 30136 40228 53005 61000 70361 82202 91200 333 ////=
07005,1997-05-14 18:00:00,16,1022.3,-0.1,55,7,0,14.816,,,10,9.7,16.8,,,,,,,,,wg-a,,,,AAXX 14184 07005 32/// /0108 10160 20070 30131 40223 55001 91800 333 10168 20097=
07005,1997-05-15 00:00:00,9,1022.5,-0.8,93,8,0,11.112,,,90,,,,,,,,,,,wg-a,,,,AAXX 15004 07005 12/// /0906 10090 20080 30131 40225 56008 60006 90000=
07005,1997-05-15 06:00:00,10,1021.6,-0.3,93,9,4000,7.408,,,80,8.6,16.1,,0,,,,,,10,wg-a,,,,AAXX 15064 07005 02/40 80804 10100 20090 30122 40216 56003 60004 71011 8803/ 90600 333 10161 20086 60007=
07005,1997-05-15 12:00:00,13,1018.8,-0.3,94,12,2500,14.816,,,60,,,,2,,,,,,61,wg-a,,,,AAXX 15124 07005 02325 80608 10130 20120 30096 40188 58003 60026 76162 885// 91200 333 60027=
07005,1997-05-15 18:00:00,18,1015.6,-0.6,83,15,8000,14.816,,,60,9.7,18.8,,,,,,,,1,wg-a,,,,AAXX 15184 07005 32/58 30608 10180 20150 30065 40156 58006 70161 83030 91800 333 10188 20097=
07005,1997-05-16 00:00:00,14,1014.8,-0.9,88,12,0,14.816,,,90,,,,,,,,,,,wg-a,,,,AAXX 16004 07005 12/// /0908 10140 20120 30056 40148 56009 60006 90000=
07005,1997-05-16 06:00:00,14,1014.5,0.6,94,13,15000,7.408,,,120,12.8,18.1,,0,,,11,,,1,wg-a,,,,AAXX 16064 07005 02/65 61204 10140 20130 30053 40145 53006 60114 70196 83032 90600 333 10181 20128 60007=
07005,1997-05-16 12:00:00,22,1013.8,-0.7,78,18,12000,7.408,,,100,,,,,,,,,,,wg-a,,,,AAXX 16124 07005 12/62 71004 10220 20180 30049 40138 56007 60006 83032 91200=
07005,1997-05-16 18:00:00,23,1011.4,-0.6,69,17,15000,7.408,,,120,13.7,25.2,,,,,,,,17,wg-a,,,,AAXX 16184 07005 12665 71204 10230 20170 30025 40114 55006 60006 71792 84932 91800 333 10252 20137=
07005,1997-05-17 00:00:00,17,1012.8,0.2,82,14,0,11.112,,,260,,,,,,,,,,,wg-a,,,,AAXX 17004 07005 12/// /2606 10170 20140 30037 40128 50002 60056 90000=
07005,1997-05-17 06:00:00,15,1012.2,0.1,94,14,8000,7.408,,,100,13.9,22.4,,,,,5,,,,wg-a,,,,AAXX 17064 07005 12/58 21004 10150 20140 30031 40122 53001 60054 80001 90600 333 10224 20139=
07005,1997-05-17 12:00:00,24,1011.1,-0.6,61,16,0,22.224,,,180,,,,,,,,,,,wg-a,,,,AAXX 17124 07005 12/// /1812 10240 20160 30023 40111 56006 60006 91200=
07005,1997-05-17 18:00:00,22,1010.4,-0.1,69,16,0,18.52,,,210,15.3,24.9,,,,,,,,,wg-a,,,,AAXX 17184 07005 12/// /2110 10220 20160 30015 40104 55001 60006 91800 333 10249 20153=
07005,1997-05-18 00:00:00,16,1011.7,-0.1,88,14,0,7.408,,,340,,,,,,,,,,,wg-a,,,,AAXX 18004 07005 12/// /3404 10160 20140 30026 40117 56001 60006 90000=
07005,1997-05-18 06:00:00,15,1011.4,0.4,94,14,15000,7.408,,,200,14.8,21.9,,,,,,,,,wg-a,,,,AAXX 18064 07005 12765 72004 10150 20140 30023 40114 50004 60004 86511 90600 333 10219 20148=
07005,1997-05-18 12:00:00,18,1011.3,-0.4,73,13,20000,18.52,,,230,,,,,,,,,,,wg-a,,,,AAXX 18124 07005 12570 72310 10180 20130 30023 40113 58004 60006 878// 91200=
07005,1997-05-18 18:00:00,16,1010.9,0.2,88,14,0,11.112,,,250,15,19.6,,,,,,,,,wg-a,,,,AAXX 18184 07005 32/// /2506 10160 20140 30018 40109 53002 91800 333 10196 20150=
07005,1997-05-19 00:00:00,14,1011,-0.1,94,13,0,11.112,,,160,,,,,,,,,,,wg-a,,,,AAXX 19004 07005 12/// /1606 10140 20130 30018 40110 58001 60006 90000=
07005,1997-05-19 06:00:00,13,1008.5,-0.9,94,12,10000,14.816,,,140,11.9,16.1,,,,,,,,,wg-a,,,,AAXX 19064 07005 12760 51408 10130 20120 39993 40085 58009 60004 815/1 90600 333 10161 20119=
07005,1997-05-19 12:00:00,18,1006.7,-0.9,77,14,1200,18.52,,,200,,,,6,,,,,,81,wg-a,,,,AAXX 19124 07005 02512 82010 10180 20140 39977 40067 56009 60066 78186 8587/ 91200 333 60067=
07005,1997-05-19 18:00:00,19,1006.6,-0.1,68,13,0,14.816,,,210,13.5,20.8,,,,,,,,,wg-a,,,,AAXX 19184 07005 32/// /2108 10190 20130 39976 40066 55001 91800 333 10208 20135=
07005,1997-05-20 00:00:00,11,1007.4,-0.2,87,9,0,7.408,,,80,,,,,,,,,,,wg-a,,,,AAXX 20004 07005 12/// /0804 10110 20090 39982 40074 58002 60006 90000=
07005,1997-05-20 06:00:00,11,1004.9,-1.5,94,10,8000,7.408,,,120,9,18.7,,,,,6,,,,wg-a,,,,AAXX 20064 07005 02358 61204 10110 20100 39957 40049 58015 60006 81572 90600 333 10187 20090 60064=
07005,1997-05-20 12:00:00,14,1004.3,-0.5,82,11,15000,18.52,,,190,,,,1,,,,,,25,wg-a,,,,AAXX 20124 07005 02465 81910 10140 20110 39952 40043 58005 60046 72562 878// 91200 333 60017=
07005,1997-05-21 06:00:00,11,1003,,94,10,9000,11.112,,,140,10.9,11.7,,3,,,17,,,21,wg-a,,,,AAXX 21064 07005 02359 81406 10110 20100 39938 40030 60174 72186 872// 90600 333 10117 20109 60037=
07005,1997-05-21 12:00:00,15,1007.1,2.1,82,12,20000,31.484,,,300,,,,,,,,,,1,wg-a,,,,AAXX 21124 07005 12470 63017 10150 20120 39980 40071 51021 60006 70162 86800 91200=
07005,1997-05-21 18:00:00,12,1011.5,2,88,10,7000,18.52,,,320,11.2,14.9,,,,,,,,,wg-a,,,,AAXX 21184 07005 32457 83210 10120 20100 30023 40115 53020 888// 91800 333 10149 20112=
07005,1997-05-22 00:00:00,11,1014.2,0.7,82,8,0,7.408,,,310,,,,,,,,,,,wg-a,,,,AAXX 22004 07005 12/// /3104 10110 20080 30049 40142 51007 60006 90000=
07005,1997-05-22 06:00:00,10,1015.3,1,82,7,10000,11.112,,,350,9.6,12,,,,,,,,60,wg-a,,,,AAXX 22064 07005 02460 83506 10100 20070 30059 40153 53010 60004 76062 875// 90600 333 10120 20096 61000=
07005,1997-05-22 12:00:00,13,1016.9,0.1,72,8,25000,11.112,,,20,,,,,,,,,,2,wg-a,,,,AAXX 22124 07005 12475 70206 10130 20080 30076 40169 51001 60006 70262 878// 91200=
07005,1997-05-22 18:00:00,12,1017.3,0.4,82,9,0,18.52,,,30,9.6,13.5,,,,,,,,,wg-a,,,,AAXX 22184 07005 32/// /0310 10120 20090 30080 40173 53004 91800 333 10135 20096=
07005,1997-05-23 00:00:00,7,1018.8,0.2,93,6,0,14.816,,,70,,,,,,,,,,,wg-a,,,,AAXX 23004 07005 12/// /0708 10070 20060 30093 40188 51002 60006 90000=
07005,1997-05-23 06:00:00,8,1019.8,1,93,7,10000,7.408,,,100,5.6,12.4,,0,,,,,,,wg-a,,,,AAXX 23064 07005 02560 51004 10080 20070 30104 40198 53010 60004 81532 90600 333 10124 20056 60007=
07005,1997-05-23 12:00:00,14,1020.2,-0.4,72,9,25000,22.224,,,30,,,,,,,,,,,wg-a,,,,AAXX 23124 07005 12575 60312 10140 20090 30109 40202 58004 60006 85202 91200=
07005,1997-05-23 18:00:00,12,1021.3,0.6,76,8,0,25.928,,,50,8.2,14.6,,,,,,,,,wg-a,,,,AAXX 23184 07005 12/// /0514 10120 20080 30120 40213 53006 60006 91800 333 10146 20082=
07005,1997-05-24 00:00:00,7,1023.6,0.8,81,4,0,29.632,,,60,,,,,,,,,,,wg-a,,,,AAXX 24004 07005 12/// /0616 10070 20040 30141 40236 53008 60006 90000=
07005,1997-05-24 06:00:00,7,1025.1,0.9,87,5,12000,25.928,,,60,5.5,12,,,,,,,,,wg-a,,,,AAXX 24064 07005 02/62 10614 10070 20050 30156 40251 53009 60006 80001 90600 333 10120 20055 60004=
07005,1997-05-24 12:00:00,14,1025.8,-0.1,55,5,500,29.632,,,60,,,,,,,,,,,wg-a,,,,AAXX 24124 07005 12500 30616 10140 20050 30165 40258 58001 60006 81101 91200=
07005,1997-05-24 18:00:00,13,1026.6,0.6,67,7,0,25.928,,,40,7.2,14.9,,,,,,,,,wg-a,,,,AAXX 24184 07005 12/// /0414 10130 20070 30173 40266 53006 60006 91800 333 10149 20072=
07005,1997-05-25 00:00:00,7,1028.2,0,87,5,0,18.52,,,50,,,,,,,,,,,wg-a,,,,AAXX 25004 07005 12/// /0510 10070 20050 30186 40282 50000 60006 90000=
07005,1997-05-25 06:00:00,8,1028.3,0.5,87,6,10000,22.224,,,70,5.6,13.3,,,,,,,,,wg-a,,,,AAXX 25064 07005 02/60 10712 10080 20060 30188 40283 53005 60006 80001 90600 333 10133 20056 60004=
07005,1997-05-25 12:00:00,17,1027.3,-0.9,52,7,0,22.224,,,50,,,,,,,,,,,wg-a,,,,AAXX 25124 07005 12/// /0512 10170 20070 30181 40273 56009 60006 91200=
07005,1997-05-25 18:00:00,15,1025.9,-0.2,63,8,0,25.928,,,40,8.1,18,,,,,,,,,wg-a,,,,AAXX 25184 07005 12/// /0414 10150 20080 30166 40259 56002 60006 91800 333 10180 20081=
07005,1997-05-26 00:00:00,8,1027.2,-0.2,87,6,0,22.224,,,60,,,,,,,,,,,wg-a,,,,AAXX 26004 07005 12/// /0612 10080 20060 30177 40272 55002 60006 90000=
07005,1997-05-26 06:00:00,8,1026.4,0.2,100,8,0,11.112,,,70,5.2,15.3,,,,,,,,,wg-a,,,,AAXX 26064 07005 02/// /0706 10080 20080 30169 40264 53002 60006 90600 333 10153 20052 60004=
07005,1997-05-26 12:00:00,18,1025.4,-0.8,52,8,0,7.408,,,310,,,,,,,,,,,wg-a,,,,AAXX 26124 07005 12/// /3104 10180 20080 30162 40254 58008 60006 91200=
07005,1997-05-26 18:00:00,17,1023.9,-0,45,5,20000,11.112,,,320,8.2,18.5,,,,,,,,,wg-a,,,,AAXX 26184 07005 12/70 23206 10170 20050 30147 40239 55000 60006 80002 91800 333 10185 20082=
07005,1997-05-27 00:00:00,12,1024.3,0,67,6,0,3.704,,,330,,,,,,,,,,,wg-a,,,,AAXX 27004 07005 12/// /3302 10120 20060 30149 40243 50000 60006 90000=
07005,1997-05-27 06:00:00,11,1024.6,1.1,87,9,15000,22.224,,,30,10,17.3,,,,,,,,,wg-a,,,,AAXX 27064 07005 02465 70312 10110 20090 30152 40246 53011 60006 876// 90600 333 10173 20100 60004=
07005,1997-05-27 12:00:00,14,1025.4,-0.1,67,8,25000,18.52,,,50,,,,,,,,,,,wg-a,,,,AAXX 27124 07005 12575 60510 10140 20080 30161 40254 55001 60006 86500 91200=
07005,1997-05-27 18:00:00,12,1025.2,0.5,71,7,500,25.928,,,50,11.4,15.9,,,,,,,,,wg-a,,,,AAXX 27184 07005 12500 30514 10120 20070 30158 40252 53005 60006 83500 91800 333 10159 20114=
07005,1997-05-28 00:00:00,7,1027.2,0.7,87,5,0,11.112,,,50,,,,,,,,,,,wg-a,,,,AAXX 28004 07005 12/// /0506 10070 20050 30176 40272 51007 60006 90000=
07005,1997-05-28 06:00:00,8,1028.5,1.1,87,6,0,11.112,,,50,6,12.2,,,,,,,,,wg-a,,,,AAXX 28064 07005 02/// /0506 10080 20060 30190 40285 53011 60006 90600 333 10122 20060 60004=
07005,1997-05-28 12:00:00,15,1028.1,-0.7,59,7,20000,25.928,,,70,,,,,,,,,,,wg-a,,,,AAXX 28124 07005 12670 10714 10150 20070 30188 40281 56007 60006 81100 91200=
07005,1997-05-28 18:00:00,16,1027.2,-0.3,55,7,20000,22.224,,,80,8.2,16.7,,,,,,,,,wg-a,,,,AAXX 28184 07005 12/70 00812 10160 20070 30179 40272 55003 60006 80000 91800 333 10167 20082=
07005,1997-05-29 00:00:00,8,1028.7,0.4,93,7,0,14.816,,,70,,,,,,,,,,,wg-a,,,,AAXX 29004 07005 12/// /0708 10080 20070 30192 40287 50004 60006 90000=
07005,1997-05-29 06:00:00,9,1028.3,0.2,87,7,4500,18.52,,,80,6.5,15.8,,0,,,,,,10,wg-a,,,,AAXX 29064 07005 02/45 30810 10090 20070 30188 40283 53002 60004 71000 80002 90600 333 10158 20065 60007=
07005,1997-05-29 12:00:00,19,1027.7,-0.3,49,8,15000,22.224,,,70,,,,,,,,,,,wg-a,,,,AAXX 29124 07005 12/65 50712 10190 20080 30185 40277 58003 60006 80002 91200=
07005,1997-05-29 18:00:00,19,1026.3,-0.4,56,10,15000,14.816,,,60,9.5,20.7,,,,,,,,,wg-a,,,,AAXX 29184 07005 12/65 60608 10190 20100 30172 40263 55004 60006 80002 91800 333 10207 20095=
07005,1997-05-30 00:00:00,9,1027.6,0.2,87,7,0,14.816,,,70,,,,,,,,,,,wg-a,,,,AAXX 30004 07005 12/// /0708 10090 20070 30181 40276 51002 60006 90000=
07005,1997-05-30 06:00:00,12,1028.2,0.3,82,9,8000,11.112,,,90,8.2,19.1,,,,,,,,,wg-a,,,,AAXX 30064 07005 02/58 10906 10120 20090 30188 40282 50003 60006 80001 90600 333 10191 20082 60004=
07005,1997-05-30 12:00:00,20,1027.3,-0.9,64,13,20000,22.224,,,70,,,,,,,,,,,wg-a,,,,AAXX 30124 07005 12/70 20712 10200 20130 30182 40273 57009 60006 80001 91200=
07005,1997-05-30 18:00:00,20,1025.2,-0.8,43,7,25000,22.224,,,80,11.6,21.9,,,,,,,,,wg-a,,,,AAXX 30184 07005 12/75 10812 10200 20070 30161 40252 55008 60006 80001 91800 333 10219 20116=
07005,1997-05-31 00:00:00,12,1025,-0.4,67,6,0,18.52,,,80,,,,,,,,,,,wg-a,,,,AAXX 31004 07005 12/// /0810 10120 20060 30156 40250 58004 60006 90000=
07005,1997-05-31 06:00:00,12,1024.3,-0,67,6,15000,18.52,,,80,9.3,19.8,,,,,,,,,wg-a,,,,AAXX 31064 07005 02/65 10810 10120 20060 30149 40243 54000 60006 80002 90600 333 10198 20093 60004=
07005,1997-05-31 12:00:00,19,1022.3,-1.4,37,4,25000,31.484,,,80,,,,,,,,,,,wg-a,,,,AAXX 31124 07005 12/75 50817 10190 20040 30132 40223 58014 60006 80002 91200=
07005,1997-05-31 18:00:00,18,1020.3,-0.8,42,5,0,29.632,,,70,12.1,19.9,,,,,,,,,wg-a,,,,AAXX 31184 07005 12/// /0716 10180 20050 30112 40203 56008 60006 91800 333 10199 20121=
07005,1997-06-01 00:00:00,11,1021.2,0,58,3,0,22.224,,,70,,,,,,,,,,,wg-a,,,,AAXX 01004 07005 12/// /0712 10110 20030 30118 40212 50000 60006 90000=
07005,1997-06-01 06:00:00,10,1020.7,0.1,66,4,25000,25.928,,,70,8.3,17.8,,,,,,,,,wg-a,,,,AAXX 01064 07005 02275 10714 10100 20040 30113 40207 53001 60006 81602 90600 333 10178 20083 60004=
07005,1997-06-01 12:00:00,16,1017.6,-2.5,48,5,500,38.892,,,60,,,,,,,,,,,wg-a,,,,AAXX 01124 07005 12700 40621 10160 20050 30084 40176 57025 60006 82102 91200=
07005,1997-06-01 18:00:00,11,1014.5,-1.2,87,9,0,18.52,,,40,9.4,16.6,,6,,,,,,,wg-a,,,,AAXX 01184 07005 12/// /0410 10110 20090 30052 40145 58012 60067 91800 333 10166 20094=
07005,1997-06-02 00:00:00,13,1013.2,-0.3,77,9,0,25.928,,,70,,,,,,,,,,,wg-a,,,,AAXX 02004 07005 12/// /0714 10130 20090 30040 40132 56003 60036 90000=
07005,1997-06-02 06:00:00,12,1013.4,0.4,76,8,20000,31.484,,,80,10.7,12.9,,,,,9,,,,wg-a,,,,AAXX 02064 07005 12770 70817 10120 20080 30041 40134 53004 60094 8257/ 90600 333 10129 20107=
07005,1997-06-02 12:00:00,19,1013.4,-0.5,68,13,15000,25.928,,,80,,,,,,,,,,,wg-a,,,,AAXX 02124 07005 12565 60814 10190 20130 30044 40134 58005 60006 8213/ 91200=
07005,1997-06-02 18:00:00,17,1014.1,0.3,72,12,15000,11.112,,,70,11.9,19.5,,,,,,,,,wg-a,,,,AAXX 02184 07005 12565 80706 10170 20120 30050 40141 53003 60006 878// 91800 333 10195 20119=
07005,1997-06-03 00:00:00,14,1015.2,0.3,88,12,0,11.112,,,70,,,,,,,,,,,wg-a,,,,AAXX 03004 07005 12/// /0706 10140 20120 30060 40152 51003 60016 90000=
07005,1997-06-03 06:00:00,13,1015.4,0.5,88,11,4500,7.408,,,80,12.3,17.2,,,,,1,,,10,wg-a,,,,AAXX 03064 07005 12645 80804 10130 20110 30062 40154 53005 60014 71086 8567/ 90600 333 10172 20123=
07005,1997-06-03 12:00:00,19,1016.4,0.4,73,14,7000,11.112,,,60,,,,,,,,,,,wg-a,,,,AAXX 03124 07005 12657 60606 10190 20140 30073 40164 51004 60006 86500 91200=
07005,1997-06-03 18:00:00,19,1015.7,-0.2,64,12,15000,18.52,,,40,12.6,22,,,,,,,,,wg-a,,,,AAXX 03184 07005 12665 50410 10190 20120 30067 40157 55002 60006 81801 91800 333 10220 20126=
07005,1997-06-04 00:00:00,12,1017.5,0,88,10,0,14.816,,,60,,,,,,,,,,,wg-a,,,,AAXX 04004 07005 12/// /0608 10120 20100 30082 40175 50000 60006 90000=
07005,1997-06-04 06:00:00,10,1016.9,-0.1,93,9,600,11.112,,,50,9.1,18.8,,,,,,,,46,wg-a,,,,AAXX 04064 07005 02206 80506 10100 20090 30076 40169 55001 60006 74641 88600 90600 333 10188 20091 60004=
07005,1997-06-04 12:00:00,21,1014.9,-1.8,73,16,7000,14.816,,,70,,,,,,,,,,3,wg-a,,,,AAXX 04124 07005 12657 50708 10210 20160 30060 40149 56018 60006 70341 85200 91200=
07005,1997-06-04 18:00:00,21,1012.2,-1.3,60,13,15000,14.816,,,90,9.9,23.2,,,,,,,,,wg-a,,,,AAXX 04184 07005 12665 40908 10210 20130 30033 40122 56013 60006 82802 91800 333 10232 20099=
07005,1997-06-05 00:00:00,14,1010.6,-1.5,88,12,0,18.52,,,60,,,,,,,,,,,wg-a,,,,AAXX 05004 07005 12/// /0610 10140 20120 30014 40106 58015 60006 90000=
07005,1997-06-05 06:00:00,15,1006.9,-1.5,72,10,15000,14.816,,,110,13,21.2,,,,,,,,,wg-a,,,,AAXX 05064 07005 02/65 71108 10150 20100 39978 40069 58015 60006 82042 90600 333 10212 20130 60004=
07005,1997-06-05 12:00:00,23,1003.9,-1.3,57,14,25000,25.928,,,130,,,,,,,,,,,wg-a,,,,AAXX 05124 07005 12575 71314 10230 20140 39951 40039 57013 60006 8123/ 91200=
07005,1997-06-05 18:00:00,21,1003.3,0.3,73,16,12000,25.928,,,190,15.1,24.6,,0,,,,,,80,wg-a,,,,AAXX 05184 07005 12562 71914 10210 20160 39944 40033 53003 60007 78086 878// 91800 333 10246 20151=
07005,1997-06-06 00:00:00,17,1005.4,1,88,15,0,14.816,,,140,,,,,,,,,,,wg-a,,,,AAXX 06004 07005 12/// /1408 10170 20150 39964 40054 51010 60016 90000=
07005,1997-06-06 06:00:00,17,1007.4,1,94,16,3000,11.112,,,150,15,20.7,,,,,1,,,10,wg-a,,,,AAXX 06064 07005 12/30 61506 10170 20160 39984 40074 53010 60014 71011 81032 90600 333 10207 20150=
07005,1997-06-06 12:00:00,26,1007.4,-0.4,51,15,25000,25.928,,,170,,,,,,,,,,,wg-a,,,,AAXX 06124 07005 12675 61714 10260 20150 39986 40074 58004 60006 83202 91200=
07005,1997-06-06 18:00:00,24,1007.4,-0,61,16,25000,22.224,,,150,16.9,26.1,,,,,,,,,wg-a,,,,AAXX 06184 07005 12775 61512 10240 20160 39986 40074 55000 60006 82542 91800 333 10261 20169=
07005,1997-06-07 00:00:00,19,1006.9,-0.9,83,16,0,14.816,,,130,,,,,,,,,,,wg-a,,,,AAXX 07004 07005 12/// /1308 10190 20160 39980 40069 56009 60006 90000=
07005,1997-06-07 06:00:00,18,1007.6,0.6,94,17,15000,7.408,,,160,17.8,24.3,,4,,,4,,,21,wg-a,,,,AAXX 07064 07005 02265 71604 10180 20170 39986 40076 51006 60044 72162 878// 90600 333 10243 20178 60047=
07005,1997-06-07 12:00:00,22,1008.2,1,69,16,500,18.52,,,250,,,,1,,,,,,1,wg-a,,,,AAXX 07124 07005 02500 32510 10220 20160 39993 40082 50010 60016 70196 83200 91200 333 60017=
07005,1997-06-07 18:00:00,20,1009.3,-0.3,73,15,0,11.112,,,40,17.4,23.4,,,,,,,,,wg-a,,,,AAXX 07184 07005 32/// /0406 10200 20150 30004 40093 55003 91800 333 10234 20174=
07005,1997-06-08 00:00:00,14,1011,1.1,94,13,0,11.112,,,80,,,,,,,,,,,wg-a,,,,AAXX 08004 07005 12/// /0806 10140 20130 30018 40110 50011 60106 90000=
07005,1997-06-08 06:00:00,15,1013.8,1.9,88,13,500,11.112,,,210,13.1,20.6,,0,,,11,,,,wg-a,,,,AAXX 08064 07005 02500 42106 10150 20130 30046 40138 51019 60114 83502 90600 333 10206 20131 60007=
07005,1997-06-08 12:00:00,21,1015.3,0.6,69,15,500,18.52,,,280,,,,,,,,,,,wg-a,,,,AAXX 08124 07005 12500 52810 10210 20150 30063 40153 53006 60006 85200 91200=
07005,1997-06-08 18:00:00,19,1017.8,0.7,68,13,0,22.224,,,290,13.3,20.8,,,,,,,,,wg-a,,,,AAXX 08184 07005 32/// /2912 10190 20130 30087 40178 53007 91800 333 10208 20133=
07005,1997-06-09 00:00:00,12,1021.8,1.1,94,11,0,11.112,,,220,,,,,,,,,,,wg-a,,,,AAXX 09004 07005 12/// /2206 10120 20110 30125 40218 52011 60006 90000=
07005,1997-06-09 06:00:00,13,1023.6,1.3,94,12,15000,7.408,,,160,10.8,18.5,,0,,,4,,,,wg-a,,,,AAXX 09064 07005 02/65 11604 10130 20120 30143 40236 53013 60044 80001 90600 333 10185 20108 60007=
07005,1997-06-09 12:00:00,20,1023.6,-0.6,68,14,25000,7.408,,,80,,,,,,,,,,,wg-a,,,,AAXX 09124 07005 12575 50804 10200 20140 30145 40236 58006 60006 84201 91200=
07005,1997-06-09 18:00:00,21,1022.1,-0.6,64,14,500,11.112,,,110,12.5,22.4,,,,,,,,,wg-a,,,,AAXX 09184 07005 12600 71106 10210 20140 30131 40221 56006 60006 81201 91800 333 10224 20125=
07005,1997-06-10 00:00:00,15,1021.5,-0.6,88,13,0,11.112,,,90,,,,,,,,,,,wg-a,,,,AAXX 10004 07005 12/// /0906 10150 20130 30123 40215 56006 60006 90000=
07005,1997-06-10 06:00:00,17,1019.5,-0.6,77,13,25000,14.816,,,100,13.7,21.2,,,,,,,,,wg-a,,,,AAXX 10064 07005 02/75 51008 10170 20130 30104 40195 58006 60006 83031 90600 333 10212 20137 60004=
07005,1997-06-10 12:00:00,25,1016.1,-2.2,47,13,25000,22.224,,,110,,,,,,,,,,,wg-a,,,,AAXX 10124 07005 12/75 61112 10250 20130 30072 40161 56022 60006 81042 91200=
07005,1997-06-10 18:00:00,23,1012,-2.2,69,17,25000,11.112,,,80,16.6,26.1,,,,,,,,,wg-a,,,,AAXX 10184 07005 12775 70806 10230 20170 30031 40120 56022 60006 8257/ 91800 333 10261 20166=
07005,1997-06-11 00:00:00,20,1008.8,-2.1,83,17,0,14.816,,,100,,,,,,,,,,,wg-a,,,,AAXX 11004 07005 12/// /1008 10200 20170 39999 40088 58021 60006 90000=
07005,1997-06-11 12:00:00,21,1008.3,0.1,83,18,20000,14.816,,,310,,,,,,,,,,2,wg-a,,,,AAXX 11124 07005 12470 73108 10210 20180 39994 40083 50001 60016 70296 8523/ 91200=
07005,1997-06-11 18:00:00,16,1007.9,0.2,94,15,500,11.112,,,260,15.4,21.8,,13,,,,,,1,wg-a,,,,AAXX 11184 07005 12200 82606 10160 20150 39988 40079 50002 60137 70196 887// 91800 333 10218 20154=
07005,1997-06-12 00:00:00,16,1008.4,-0.3,94,15,0,11.112,,,180,,,,,,,,,,,wg-a,,,,AAXX 12004 07005 12/// /1806 10160 20150 39993 40084 58003 60006 90000=
07005,1997-06-12 06:00:00,15,1009.4,0.4,88,13,20000,14.816,,,200,14.6,15.9,,,,,14,,,,wg-a,,,,AAXX 12064 07005 12570 72008 10150 20130 30003 40094 53004 60144 878// 90600 333 10159 20146=
07005,1997-06-12 12:00:00,18,1009.8,0.4,83,15,500,14.816,,,300,,,,,,,,,,,wg-a,,,,AAXX 12124 07005 12500 73008 10180 20150 30008 40098 51004 60006 878// 91200=
07005,1997-06-12 18:00:00,17,1009,-0.5,88,15,500,7.408,,,220,15,19,,3,,,,,,1,wg-a,,,,AAXX 12184 07005 12500 72204 10170 20150 30000 40090 56005 60037 70186 8587/ 91800 333 10190 20150=
07005,1997-06-13 00:00:00,14,1008.8,-0.4,100,14,0,11.112,,,160,,,,,,,,,,,wg-a,,,,AAXX 13004 07005 12/// /1606 10140 20140 39997 40088 56004 60006 90000=
07005,1997-06-13 06:00:00,15,1007.5,-0.4,100,15,12000,11.112,,,180,14.2,17.2,,,,,4,,,,wg-a,,,,AAXX 13064 07005 12462 71806 10150 20150 39984 40075 56004 60044 878// 90600 333 10172 20142=
07005,1997-06-13 12:00:00,17,1007.4,-0.2,88,15,15000,14.816,,,300,,,,,,,,,,,wg-a,,,,AAXX 13124 07005 12465 73008 10170 20150 39984 40074 58002 60006 878// 91200=
07005,1997-06-13 18:00:00,18,1006.5,-0.3,77,14,25000,11.112,,,290,15.3,18.4,,,,,,,,,wg-a,,,,AAXX 13184 07005 12575 72906 10180 20140 39975 40065 56003 60006 81252 91800 333 10184 20153=
07005,1997-06-14 00:00:00,14,1006.9,0.2,100,14,0,11.112,,,280,,,,,,,,,,,wg-a,,,,AAXX 14004 07005 12/// /2806 10140 20140 39978 40069 53002 60016 90000=
07005,1997-06-14 06:00:00,13,1008.4,1.2,94,12,8000,18.52,,,290,12.7,17.7,,2,,,3,,,61,wg-a,,,,AAXX 14064 07005 02358 82910 10130 20120 39992 40084 53012 60034 76162 885// 90600 333 10177 20127 60027=
07005,1997-06-14 12:00:00,15,1011.1,1.8,88,13,12000,29.632,,,280,,,,,,,,,,1,wg-a,,,,AAXX 14124 07005 12462 72816 10150 20130 30020 40111 53018 60006 70162 878// 91200=
07005,1997-06-14 18:00:00,15,1014.3,1.8,72,10,0,29.632,,,280,12.7,16.9,,,,,,,,,wg-a,,,,AAXX 14184 07005 32/// /2816 10150 20100 30052 40143 51018 91800 333 10169 20127=
07005,1997-06-15 00:00:00,10,1017,0.4,93,9,0,18.52,,,240,,,,,,,,,,,wg-a,,,,AAXX 15004 07005 12/// /2410 10100 20090 30077 40170 51004 60006 90000=
07005,1997-06-15 06:00:00,12,1018.7,1.2,94,11,15000,14.816,,,250,9.9,15.4,,,,,,,,,wg-a,,,,AAXX 15064 07005 02565 22508 10120 20110 30094 40187 52012 60006 81242 90600 333 10154 20099 60004=
07005,1997-06-15 12:00:00,18,1019.9,0.6,64,11,40000,14.816,,,300,,,,,,,,,,,wg-a,,,,AAXX 15124 07005 12582 43008 10180 20110 30108 40199 51006 60006 82230 91200=
07005,1997-06-15 18:00:00,18,1019.5,-0.2,59,10,0,11.112,,,350,12.3,18.8,,,,,,,,,wg-a,,,,AAXX 15184 07005 12/// /3506 10180 20100 30104 40195 55002 60006 91800 333 10188 20123=
07005,1997-06-16 00:00:00,12,1020.2,-0.4,94,11,0,11.112,,,70,,,,,,,,,,,wg-a,,,,AAXX 16004 07005 12/// /0706 10120 20110 30109 40202 58004 60006 90000=
07005,1997-06-16 06:00:00,13,1019.7,0.3,94,12,500,11.112,,,90,11.4,18.1,,,,,,,,,wg-a,,,,AAXX 16064 07005 02600 70906 10130 20120 30104 40197 53003 60006 878// 90600 333 10181 20114 60004=
07005,1997-06-16 12:00:00,20,1018.6,-0.7,56,11,25000,18.52,,,100,,,,,,,,,,,wg-a,,,,AAXX 16124 07005 12675 41010 10200 20110 30095 40186 58007 60006 84800 91200=
07005,1997-06-16 18:00:00,17,1017.2,-0.7,68,11,25000,11.112,,,70,13.2,20.1,,,,,,,,,wg-a,,,,AAXX 16184 07005 12575 70706 10170 20110 30081 40172 55007 60006 84902 91800 333 10201 20132=
07005,1997-06-17 00:00:00,14,1017.6,-0.3,88,12,0,11.112,,,50,,,,,,,,,,,wg-a,,,,AAXX 17004 07005 12/// /0506 10140 20120 30084 40176 58003 60006 90000=
07005,1997-06-17 06:00:00,13,1018.8,1,82,10,10000,18.52,,,50,11.9,17.1,,,,,,,,,wg-a,,,,AAXX 17064 07005 02660 70510 10130 20100 30095 40188 53010 60006 83532 90600 333 10171 20119 60004=
07005,1997-06-17 12:00:00,19,1019.5,0.4,60,11,15000,18.52,,,50,,,,,,,,,,,wg-a,,,,AAXX 17124 07005 12565 70510 10190 20110 30104 40195 50004 60006 8223/ 91200=
07005,1997-06-17 18:00:00,17,1019.9,0.3,63,10,25000,22.224,,,30,12.7,20,,,,,,,,,wg-a,,,,AAXX 17184 07005 12675 10312 10170 20100 30108 40199 53003 60006 8113/ 91800 333 10200 20127=
07005,1997-06-18 00:00:00,9,1021.9,0.4,93,8,0,7.408,,,350,,,,,,,,,,,wg-a,,,,AAXX 18004 07005 12/// /3504 10090 20080 30125 40219 51004 60006 90000=
07005,1997-06-18 06:00:00,10,1021.1,-0.4,100,10,4000,3.704,,,50,7,17.1,,,,,,,,10,wg-a,,,,AAXX 18064 07005 12/40 20502 10100 20100 30117 40211 56004 60004 71000 80002 90600 333 10171 20070=
07005,1997-06-18 12:00:00,19,1019.3,-1.1,43,6,500,7.408,,,200,,,,,,,,,,,wg-a,,,,AAXX 18124 07005 12500 32004 10190 20060 30102 40193 58011 60006 81132 91200=
07005,1997-06-18 18:00:00,19,1016.3,-1.3,60,11,25000,11.112,,,330,10,20.6,,,,,,,,,wg-a,,,,AAXX 18184 07005 12675 73306 10190 20110 30072 40163 56013 60006 83806 91800 333 10206 20100=
07005,1997-06-19 00:00:00,14,1014,-2.1,82,11,0,11.112,,,140,,,,,,,,,,,wg-a,,,,AAXX 19004 07005 12/// /1406 10140 20110 30048 40140 56021 60006 90000=
07005,1997-06-19 06:00:00,14,1010.4,-1.7,88,12,400,7.408,,,120,13.2,18.8,,0,,,3,,,61,wg-a,,,,AAXX 19064 07005 02504 81204 10140 20120 30012 40104 56017 60034 76162 8657/ 90600 333 10188 20132 60007=
07005,1997-06-19 12:00:00,15,1008,-1.3,88,13,10000,18.52,,,300,,,,9,,,,,,17,wg-a,,,,AAXX 19124 07005 02560 83010 10150 20130 39989 40080 56013 60136 71798 878// 91200 333 60097=
07005,1997-06-20 00:00:00,12,1005.6,-0.8,94,11,0,14.816,,,230,,,,,,,,,,,wg-a,,,,AAXX 20004 07005 12/// /2308 10120 20110 39964 40056 56008 60006 90000=
07005,1997-06-20 06:00:00,12,1005.5,0.6,88,10,20000,14.816,,,230,10.6,,,0,,,15,,,2,wg-a,,,,AAXX 20064 07005 02470 62308 10120 20100 39963 40055 51006 60154 70286 84842 90600 333 10120 20106 60007=
07005,1997-06-20 12:00:00,16,1003.9,-1.4,63,9,25000,25.928,,,220,,,,,,,,,,,wg-a,,,,AAXX 20124 07005 12475 72214 10160 20090 39949 40039 58014 60006 8527/ 91200=
07005,1997-06-20 18:00:00,16,998.8,-2.6,82,13,25000,29.632,,,200,11.4,16.6,,,,,,,,1,wg-a,,,,AAXX 20184 07005 32575 72016 10160 20130 39898 49988 56026 70162 878// 91800 333 10166 20114=
07005,1997-06-21 00:00:00,13,996.8,-0.4,100,13,0,11.112,,,220,,,,,,,,,,,wg-a,,,,AAXX 21004 07005 12/// /2206 10130 20130 39878 49968 56004 60036 90000=
07005,1997-06-21 06:00:00,13,996.8,0.5,88,11,25000,25.928,,,210,12.2,16.1,,,,,4,,,,wg-a,,,,AAXX 21064 07005 12475 62114 10130 20110 39877 49968 53005 60044 86800 90600 333 10161 20122=
07005,1997-06-21 12:00:00,17,997.2,-0.2,63,10,25000,25.928,,,230,,,,0,,,,,,17,wg-a,,,,AAXX 21124 07005 02475 72314 10170 20100 39883 49972 58002 60006 71798 879// 91200 333 60007=
07005,1997-06-21 18:00:00,16,996.9,-0.3,63,9,0,18.52,,,250,13.2,18,,,,,,,,,wg-a,,,,AAXX 21184 07005 32/// /2510 10160 20090 39879 49969 55003 91800 333 10180 20132=
07005,1997-06-22 00:00:00,11,998.6,0.1,87,9,0,22.224,,,220,,,,,,,,,,,wg-a,,,,AAXX 22004 07005 12/// /2212 10110 20090 39894 49986 50001 60016 90000=
07005,1997-06-22 06:00:00,12,998.4,-0,82,9,25000,25.928,,,210,9.6,15.6,,,,,1,,,,wg-a,,,,AAXX 22064 07005 12475 72114 10120 20090 39893 49984 55000 60014 878// 90600 333 10156 20096=
07005,1997-06-22 12:00:00,14,1000,0.8,88,12,12000,29.632,,,250,,,,3,,,,,,80,wg-a,,,,AAXX 22124 07005 02462 72516 10140 20120 39909 40000 51008 60046 78086 879// 91200 333 60037=
07005,1997-06-22 18:00:00,14,1001.5,0.6,88,12,0,29.632,,,270,11.5,16.2,,,,,,,,,wg-a,,,,AAXX 22184 07005 02/// /2716 10140 20120 39924 40015 53006 61000 91800 333 10162 20115 ////=
07005,1997-06-23 00:00:00,13,1004.5,1.5,94,12,0,18.52,,,280,,,,,,,,,,,wg-a,,,,AAXX 23004 07005 02/// /2810 10130 20120 39954 40045 53015 61000 90000 333 6100=
07005,1997-06-23 06:00:00,13,1006.7,1.4,94,12,0,18.52,,,290,13.2,14.4,,1,,,5,,,,wg-a,,,,AAXX 23064 07005 02/// /2910 10130 20120 39976 40067 53014 60054 90600 333 10144 20132 60017=
07005,1997-06-23 12:00:00,16,1010.4,1.5,72,11,25000,22.224,,,300,,,,,,,,,,,wg-a,,,,AAXX 23124 07005 12475 63012 10160 20110 30013 40104 51015 60006 86800 91200=
07005,1997-06-23 18:00:00,15,1012.1,0.7,88,13,25000,22.224,,,290,13.1,17.3,,,,,,,,,wg-a,,,,AAXX 23184 07005 12475 72912 10150 20130 30030 40121 53007 60006 878// 91800 333 10173 20131=
07005,1997-06-24 00:00:00,13,1013.7,0.2,94,12,0,14.816,,,250,,,,,,,,,,,wg-a,,,,AAXX 24004 07005 12/// /2508 10130 20120 30045 40137 50002 60026 90000=
07005,1997-06-24 06:00:00,13,1014.6,0.7,94,12,500,11.112,,,290,12.4,14.8,,,,,3,,,3,wg-a,,,,AAXX 24064 07005 12200 72906 10130 20120 30054 40146 52007 60034 70362 8583/ 90600 333 10148 20124=
07005,1997-06-24 12:00:00,15,1017,0.9,67,9,20000,25.928,,,300,,,,,,,,,,,wg-a,,,,AAXX 24124 07005 12570 73014 10150 20090 30078 40170 51009 60006 878// 91200=
07005,1997-06-24 18:00:00,14,1016.3,-0.6,67,8,20000,11.112,,,300,12.6,15.1,,,,,,,,,wg-a,,,,AAXX 24184 07005 12/70 63006 10140 20080 30071 40163 58006 60006 80006 91800 333 10151 20126=
07005,1997-06-25 00:00:00,10,1014.7,-1.3,87,8,0,11.112,,,170,,,,,,,,,,,wg-a,,,,AAXX 25004 07005 12/// /1706 10100 20080 30054 40147 58013 60006 90000=
07005,1997-06-25 06:00:00,11,1010.3,-1.8,94,10,4500,7.408,,,140,9.3,14.1,,0,,,,,,20,wg-a,,,,AAXX 25064 07005 02545 81404 10110 20100 30010 40103 58018 60004 72052 8557/ 90600 333 10141 20093 60007=
07005,1997-06-25 12:00:00,15,1005.6,-2.2,82,12,7000,18.52,,,200,,,,1,,,,,,60,wg-a,,,,AAXX 25124 07005 02457 82010 10150 20120 39965 40056 58022 60016 76062 878// 91200 333 60017=
07005,1997-06-25 18:00:00,13,999.8,-3.2,94,12,10000,18.52,,,170,11,14.6,,2,,,,,,,wg-a,,,,AAXX 25184 07005 12460 81710 10130 20120 39907 49998 56032 60027 878// 91800 333 10146 20110=
07005,1997-06-26 00:00:00,13,996.6,-1.4,94,12,0,11.112,,,250,,,,,,,,,,,wg-a,,,,AAXX 26004 07005 12/// /2506 10130 20120 39875 49966 58014 60026 90000=
07005,1997-06-26 06:00:00,13,993.9,-1,94,12,7000,7.408,,,180,12.2,13.3,,2,,,9,,,21,wg-a,,,,AAXX 26064 07005 02457 71804 10130 20120 39849 49939 56010 60094 72162 872// 90600 333 10133 20122 60027=
07005,1997-06-26 12:00:00,18,992.5,-0.5,73,13,10000,3.704,,,310,,,,0,,,,,,,wg-a,,,,AAXX 26124 07005 02560 73102 10180 20130 39836 49925 57005 60006 878// 91200 333 60007=
07005,1997-06-26 18:00:00,15,993.2,0.6,94,14,15000,7.408,,,340,12.7,18.2,,3,,,,,,21,wg-a,,,,AAXX 26184 07005 12465 73404 10150 20140 39842 49932 53006 60037 72186 878// 91800 333 10182 20127=
07005,1997-06-27 00:00:00,13,994,0.1,94,12,0,11.112,,,340,,,,,,,,,,,wg-a,,,,AAXX 27004 07005 12/// /3406 10130 20120 39850 49940 51001 60086 90000=
07005,1997-06-27 06:00:00,13,993.7,0.3,94,12,2500,14.816,,,160,12.5,14.8,,5,,,38,,,61,wg-a,,,,AAXX 27064 07005 02025 81608 10130 20120 39847 49937 53003 60384 76162 885// 90600 333 10148 20125 60057=
07005,1997-06-27 12:00:00,17,995.8,1.1,63,10,500,18.52,,,160,,,,,,,,,,2,wg-a,,,,AAXX 27124 07005 12500 61610 10170 20100 39869 49958 51011 60006 70262 8323/ 91200=
07005,1997-06-27 18:00:00,18,997.8,0.9,64,11,500,14.816,,,140,12.8,18.6,,,,,,,,,wg-a,,,,AAXX 27184 07005 32500 31408 10180 20110 39889 49978 53009 81231 91800 333 10186 20128=
07005,1997-06-28 00:00:00,11,1000.3,0.7,94,10,0,11.112,,,120,,,,,,,,,,,wg-a,,,,AAXX 28004 07005 12/// /1206 10110 20100 39911 40003 51007 60006 90000=
07005,1997-06-28 06:00:00,12,1002.1,0.9,100,12,3500,7.408,,,210,10.2,17.8,,,,,,,,10,wg-a,,,,AAXX 28064 07005 12235 62104 10120 20120 39930 40021 51009 60004 71011 84531 90600 333 10178 20102=
07005,1997-06-28 12:00:00,16,1005.5,1.6,82,13,20000,14.816,,,220,,,,,,,,,,1,wg-a,,,,AAXX 28124 07005 02570 72208 10160 20130 39965 40055 51016 61000 70162 8523/ 91200 333 ////=
07005,1997-06-28 18:00:00,17,1007.4,0.9,82,14,0,11.112,,,290,12.2,18.2,,,,,,,,,wg-a,,,,AAXX 28184 07005 32/// /2906 10170 20140 39984 40074 53009 91800 333 10182 20122=
07005,1997-06-29 00:00:00,10,1008.4,-0.7,100,10,0,11.112,,,40,,,,,,,,,,,wg-a,,,,AAXX 29004 07005 12/// /0406 10100 20100 39991 40084 56007 60006 90000=
07005,1997-06-29 06:00:00,12,1008.2,1.1,94,11,3000,7.408,,,100,10.3,16.6,,1,,,2,,,61,wg-a,,,,AAXX 29064 07005 02430 81004 10120 20110 39990 40082 53011 60024 76162 885// 90600 333 10166 20103 60017=
07005,1997-06-29 12:00:00,17,1004.8,-1.6,77,13,20000,18.52,,,50,,,,,,,,,,1,wg-a,,,,AAXX 29124 07005 12570 80510 10170 20130 39958 40048 56016 60016 70162 8317/ 91200=
07005,1997-06-29 18:00:00,14,1003.5,-0.6,94,13,0,11.112,,,40,11.9,16.7,,,,,,,,,wg-a,,,,AAXX 29184 07005 32/// /0406 10140 20130 39944 40035 56006 91800 333 10167 20119=
07005,1997-06-30 00:00:00,13,1002.2,-1.1,100,13,0,14.816,,,20,,,,,,,,,,,wg-a,,,,AAXX 30004 07005 12/// /0208 10130 20130 39931 40022 56011 60016 90000=
07005,1997-06-30 06:00:00,13,1001.9,0.4,94,12,2500,14.816,,,360,12.8,14.1,,,,,2,,,10,wg-a,,,,AAXX 30064 07005 12325 83608 10130 20120 39928 40019 53004 60024 71022 875// 90600 333 10141 20128=
07005,1997-06-30 12:00:00,15,1003,0.2,88,13,10000,18.52,,,300,,,,,,,,,,1,wg-a,,,,AAXX 30124 07005 02460 83010 10150 20130 39939 40030 53002 60006 70165 875// 91200 333 61000=
07005,1997-06-30 18:00:00,13,1004.5,0.6,88,11,6000,18.52,,,270,12.5,14.6,,0,,,,,,21,wg-a,,,,AAXX 30184 07005 12456 82710 10130 20110 39954 40045 51006 60007 72162 875// 91800 333 10146 20125=
07005,1997-07-01 00:00:00,12,1005.5,-0,94,11,0,14.816,,,210,,,,,,,,,,,wg-a,,,,AAXX 01004 07005 12/// /2108 10120 20110 39963 40055 55000 60006 90000=
07005,1997-07-01 06:00:00,12,1006.1,0.7,94,11,15000,14.816,,,220,11.6,12.5,,,,,1,,,3,wg-a,,,,AAXX 01064 07005 12465 82208 10120 20110 39969 40061 51007 60014 70362 8487/ 90600 333 10125 20116=
07005,1997-07-01 12:00:00,14,1007.7,0.7,82,11,20000,18.52,,,260,,,,,,,,,,1,wg-a,,,,AAXX 01124 07005 02470 72610 10140 20110 39986 40077 51007 61000 70186 878// 91200 333 6100=
07005,1997-07-01 18:00:00,16,1008,0.1,63,9,20000,7.408,,,250,11.9,16.4,,,,,,,,1,wg-a,,,,AAXX 01184 07005 02470 32504 10160 20090 39989 40080 51001 61000 70186 83200 91800 333 10164 20119 ////=
07005,1997-07-02 00:00:00,11,1008.9,0.1,87,9,0,11.112,,,150,,,,,,,,,,,wg-a,,,,AAXX 02004 07005 12/// /1506 10110 20090 39996 40089 50001 60006 90000=
07005,1997-07-02 06:00:00,12,1008.1,-0.2,94,11,15000,11.112,,,170,10.6,16.2,,0,,,,,,,wg-a,,,,AAXX 02064 07005 02365 41706 10120 20110 39989 40081 57002 60004 81831 90600 333 10162 20106 60007=
07005,1997-07-02 12:00:00,16,1007.5,-0.6,72,11,20000,11.112,,,210,,,,,,,,,,60,wg-a,,,,AAXX 02124 07005 02470 82106 10160 20110 39984 40075 58006 61000 76061 878// 91200 333 6100=
07005,1997-07-02 18:00:00,15,1007.4,-0.3,77,11,25000,11.112,,,160,11.8,16.5,,0,,,,,,1,wg-a,,,,AAXX 02184 07005 12375 31606 10150 20110 39983 40074 55003 60007 70161 83831 91800 333 10165 20118=
07005,1997-07-03 00:00:00,11,1010.2,0.7,100,11,0,11.112,,,180,,,,,,,,,,,wg-a,,,,AAXX 03004 07005 12/// /1806 10110 20110 30010 40102 51007 60036 90000=
07005,1997-07-03 06:00:00,11,1011.6,0.9,94,10,25000,14.816,,,180,9.7,15.4,,,,,7,,,,wg-a,,,,AAXX 03064 07005 12575 41808 10110 20100 30023 40116 51009 60074 81832 90600 333 10154 20097=
07005,1997-07-03 12:00:00,15,1012.6,0.3,77,11,0,22.224,,,200,,,,,,,,,,,wg-a,,,,AAXX 03124 07005 12/// /2012 10150 20110 30035 40126 52003 60006 91200=
07005,1997-07-03 18:00:00,14,1014,0.3,88,12,15000,11.112,,,270,11.3,17.6,,3,,,,,,21,wg-a,,,,AAXX 03184 07005 12465 62706 10140 20120 30048 40140 53003 60037 72186 86300 91800 333 10176 20113=
07005,1997-07-04 00:00:00,12,1015.7,0.6,88,10,0,11.112,,,180,,,,,,,,,,,wg-a,,,,AAXX 04004 07005 12/// /1806 10120 20100 30064 40157 51006 60016 90000=
07005,1997-07-04 06:00:00,12,1016.2,0.7,94,11,15000,7.408,,,160,11.2,14.4,,1,,,6,,,60,wg-a,,,,AAXX 04064 07005 02565 71604 10120 20110 30069 40162 53007 60064 76062 8683/ 90600 333 10144 20112 60017=
07005,1997-07-04 12:00:00,14,1017.4,0.5,88,12,8000,11.112,,,260,,,,2,,,,,,61,wg-a,,,,AAXX 04124 07005 02458 72606 10140 20120 30082 40174 53005 60036 76186 8687/ 91200 333 60027=
07005,1997-07-04 18:00:00,15,1018.5,0.3,82,12,500,18.52,,,310,11.9,16,,,,,,,,1,wg-a,,,,AAXX 04184 07005 32400 63110 10150 20120 30093 40185 53003 70162 85802 91800 333 10160 20119=
07005,1997-07-05 00:00:00,10,1021.1,0.5,100,10,0,7.408,,,210,,,,,,,,,,,wg-a,,,,AAXX 05004 07005 12/// /2104 10100 20100 30117 40211 51005 60006 90000=
07005,1997-07-05 06:00:00,11,1022.6,1.4,100,11,1400,7.408,,,300,8.7,15.2,,,,,4,,,28,wg-a,,,,AAXX 05064 07005 02314 73004 10110 20110 30133 40226 53014 60006 72841 878// 90600 333 10152 20087 60044=
07005,1997-07-05 12:00:00,19,1024.5,0.8,68,13,15000,18.52,,,330,,,,,,,,,,,wg-a,,,,AAXX 05124 07005 12565 53310 10190 20130 30154 40245 51008 60006 85200 91200=
07005,1997-07-05 18:00:00,16,1026.5,0.8,82,13,0,22.224,,,310,11.4,18.6,,,,,,,,,wg-a,,,,AAXX 05184 07005 12/// /3112 10160 20130 30173 40265 53008 60006 91800 333 10186 20114=
07005,1997-07-06 00:00:00,12,1028.9,0.4,94,11,0,3.704,,,240,,,,,,,,,,,wg-a,,,,AAXX 06004 07005 12/// /2402 10120 20110 30195 40289 51004 60006 90000=
07005,1997-07-06 06:00:00,11,1029.2,0.3,100,11,800,7.408,,,190,8.8,16.4,,0,,,,,,42,wg-a,,,,AAXX 06064 07005 02208 71904 10110 20110 30198 40292 53003 60004 74242 855/2 90600 333 10164 20088 60007=
07005,1997-07-06 12:00:00,20,1029,-0,68,14,15000,18.52,,,320,,,,,,,,,,3,wg-a,,,,AAXX 06124 07005 12565 73210 10200 20140 30199 40290 55000 60006 70341 8222/ 91200=
07005,1997-07-06 18:00:00,17,1029,0.1,77,13,0,18.52,,,300,11.2,20.4,,,,,,,,,wg-a,,,,AAXX 06184 07005 12/// /3010 10170 20130 30198 40290 53001 60006 91800 333 10204 20112=
07005,1997-07-07 00:00:00,13,1028.9,-0.6,94,12,0,7.408,,,260,,,,,,,,,,,wg-a,,,,AAXX 07004 07005 12/// /2604 10130 20120 30196 40289 58006 60006 90000=
07005,1997-07-07 06:00:00,14,1028.7,0.2,94,13,8000,3.704,,,320,11.9,17.2,,,,,,,,,wg-a,,,,AAXX 07064 07005 02/58 63202 10140 20130 30194 40287 53002 60006 86030 90600 333 10172 20119 60004=
07005,1997-07-07 12:00:00,22,1027.9,-0.5,73,17,15000,11.112,,,350,,,,,,,,,,,wg-a,,,,AAXX 07124 07005 12565 63506 10220 20170 30188 40279 56005 60006 86800 91200=
07005,1997-07-07 18:00:00,23,1026.6,-0.6,65,16,25000,14.816,,,30,13.9,23.4,,,,,,,,,wg-a,,,,AAXX 07184 07005 12575 10308 10230 20160 30176 40266 57006 60006 81101 91800 333 10234 20139=
07005,1997-07-08 00:00:00,15,1026.9,-0.2,88,13,0,11.112,,,90,,,,,,,,,,,wg-a,,,,AAXX 08004 07005 12/// /0906 10150 20130 30176 40269 58002 60006 90000=
07005,1997-07-08 06:00:00,14,1026.4,-0.1,100,14,500,0,,,0,12.3,22.6,,0,,,,,,,wg-a,,,,AAXX 08064 07005 02/00 00000 10140 20140 30171 40264 56001 60004 80000 90600 333 10226 20123 60007=
07005,1997-07-08 12:00:00,23,1025,-1,61,15,20000,14.816,,,60,,,,,,,,,,,wg-a,,,,AAXX 08124 07005 12670 40608 10230 20150 30160 40250 58010 60006 84200 91200=
07005,1997-07-08 18:00:00,22,1022.4,-1.3,69,16,20000,18.52,,,50,14.4,24.1,,,,,,,,,wg-a,,,,AAXX 08184 07005 12670 10510 10220 20160 30134 40224 56013 60006 81200 91800 333 10241 20144=
07005,1997-07-09 00:00:00,14,1022.6,-0.2,94,13,0,11.112,,,70,,,,,,,,,,,wg-a,,,,AAXX 09004 07005 12/// /0706 10140 20130 30134 40226 58002 60006 90000=
07005,1997-07-09 06:00:00,14,1021.8,-0.1,94,13,600,14.816,,,50,12.5,22.1,,0,,,,,,46,wg-a,,,,AAXX 09064 07005 02206 70508 10140 20130 30125 40218 55001 60004 74641 876// 90600 333 10221 20125 60007=
07005,1997-07-09 12:00:00,21,1020.2,-1,69,15,15000,22.224,,,60,,,,,,,,,,2,wg-a,,,,AAXX 09124 07005 12565 70612 10210 20150 30112 40202 57010 60006 70241 8423/ 91200=
07005,1997-07-09 18:00:00,20,1017.9,-0.8,73,15,20000,22.224,,,70,13.5,22.6,,,,,,,,,wg-a,,,,AAXX 09184 07005 12/70 10712 10200 20150 30089 40179 56008 60006 81030 91800 333 10226 20135=
07005,1997-07-10 00:00:00,14,1018.5,-0,94,13,0,7.408,,,70,,,,,,,,,,,wg-a,,,,AAXX 10004 07005 12/// /0704 10140 20130 30093 40185 55000 60006 90000=
07005,1997-07-10 06:00:00,14,1016.7,-0.8,100,14,1600,14.816,,,50,10.7,20.4,,0,,,,,,10,wg-a,,,,AAXX 10064 07005 02216 50508 10140 20140 30075 40167 56008 60004 71042 85600 90600 333 10204 20107 60007=
07005,1997-07-10 12:00:00,21,1015.4,-0.8,64,14,15000,22.224,,,40,,,,,,,,,,,wg-a,,,,AAXX 10124 07005 12565 30412 10210 20140 30064 40154 57008 60006 83100 91200=
07005,1997-07-10 18:00:00,20,1014.5,-0.2,78,16,15000,18.52,,,40,13.9,22.7,,,,,,,,,wg-a,,,,AAXX 10184 07005 12/65 10410 10200 20160 30055 40145 55002 60006 8/0/1 91800 333 10227 20139=
07005,1997-07-11 00:00:00,14,1014.9,-0.5,94,13,0,3.704,,,130,,,,,,,,,,,wg-a,,,,AAXX 11004 07005 12/// /1302 10140 20130 30057 40149 58005 60006 90000=
07005,1997-07-11 06:00:00,13,1015.1,0.3,94,12,500,0,,,0,11.1,20.4,,0,,,,,,46,wg-a,,,,AAXX 11064 07005 02200 10000 10130 20120 30059 40151 51003 60004 74641 81100 90600 333 10204 20111 60007=
07005,1997-07-11 12:00:00,25,1015.1,0.2,50,14,20000,7.408,,,290,,,,,,,,,,,wg-a,,,,AAXX 11124 07005 12670 22904 10250 20140 30062 40151 53002 60006 82200 91200=
07005,1997-07-11 18:00:00,17,1015.6,0.7,88,15,2200,18.52,,,300,12.6,24.8,,,,,,,,10,wg-a,,,,AAXX 11184 07005 12722 33010 10170 20150 30065 40156 53007 60006 71000 81581 91800 333 10248 20126=
07005,1997-07-12 00:00:00,14,1016.8,0,100,14,0,11.112,,,300,,,,,,,,,,,wg-a,,,,AAXX 12004 07005 12/// /3006 10140 20140 30076 40168 50000 60006 90000=
07005,1997-07-12 06:00:00,13,1017.2,0.1,100,13,900,11.112,,,270,13.2,17.3,,,,,,,,42,wg-a,,,,AAXX 12064 07005 02209 82706 10130 20130 30080 40172 51001 60006 74242 886// 90600 333 10173 20132 60004=
07005,1997-07-12 12:00:00,19,1017.5,-0.2,83,16,6000,14.816,,,330,,,,,,,,,,2,wg-a,,,,AAXX 12124 07005 12456 63308 10190 20160 30084 40175 58002 60006 70242 85102 91200=
07005,1997-07-12 18:00:00,20,1016.2,-0.7,78,16,0,11.112,,,320,13.2,21.5,,,,,,,,,wg-a,,,,AAXX 12184 07005 12/// /3206 10200 20160 30072 40162 55007 60006 91800 333 10215 20132=
07005,1997-07-13 00:00:00,14,1017,-0.2,94,13,0,7.408,,,310,,,,,,,,,,,wg-a,,,,AAXX 13004 07005 12/// /3104 10140 20130 30078 40170 58002 60006 90000=
07005,1997-07-13 06:00:00,14,1017,0.3,100,14,2000,3.704,,,240,13,19.6,,,,,,,,10,wg-a,,,,AAXX 13064 07005 02/20 52402 10140 20140 30078 40170 53003 60006 71011 80002 90600 333 10196 20130 60004=
07005,1997-07-13 12:00:00,23,1017,-0.3,69,17,10000,11.112,,,300,,,,,,,,,,,wg-a,,,,AAXX 13124 07005 12660 63006 10230 20170 30081 40170 58003 60006 85202 91200=
07005,1997-07-13 18:00:00,20,1017.5,0.2,73,15,0,14.816,,,310,14.3,23.5,,,,,,,,,wg-a,,,,AAXX 13184 07005 12/// /3108 10200 20150 30085 40175 53002 60006 91800 333 10235 20143=
07005,1997-07-14 00:00:00,15,1019.1,-0.2,94,14,0,7.408,,,290,,,,,,,,,,,wg-a,,,,AAXX 14004 07005 12/// /2904 10150 20140 30099 40191 58002 60006 90000=
07005,1997-07-14 06:00:00,15,1020.4,1,100,15,10000,7.408,,,300,14.1,20.3,,,,,,,,,wg-a,,,,AAXX 14064 07005 12260 83004 10150 20150 30112 40204 53010 60004 875// 90600 333 10203 20141=
07005,1997-07-14 12:00:00,19,1021,-0,78,15,20000,22.224,,,280,,,,,,,,,,,wg-a,,,,AAXX 14124 07005 12570 72812 10190 20150 30119 40210 55000 60006 875// 91200=
07005,1997-07-14 18:00:00,18,1021.4,0.6,59,10,0,22.224,,,290,15.3,19.5,,,,,,,,,wg-a,,,,AAXX 14184 07005 12/// /2912 10180 20100 30123 40214 51006 60006 91800 333 10195 20153=
07005,1997-07-15 00:00:00,12,1022.6,0.2,94,11,0,14.816,,,240,,,,,,,,,,,wg-a,,,,AAXX 15004 07005 12/// /2408 10120 20110 30133 40226 53002 60006 90000=
07005,1997-07-15 06:00:00,14,1023.2,0.9,100,14,15000,11.112,,,240,11.5,17.5,,,,,,,,,wg-a,,,,AAXX 15064 07005 02265 72406 10140 20140 30139 40232 52009 60006 875// 90600 333 10175 20115 60004=
07005,1997-07-15 12:00:00,19,1023.9,0.1,73,14,20000,14.816,,,280,,,,,,,,,,,wg-a,,,,AAXX 15124 07005 12570 72808 10190 20140 30148 40239 50001 60006 878// 91200=
07005,1997-07-15 18:00:00,19,1022.3,-0.5,83,16,25000,18.52,,,300,14.3,21.1,,,,,,,,,wg-a,,,,AAXX 15184 07005 12675 23010 10190 20160 30132 40223 58005 60006 82200 91800 333 10211 20143=
07005,1997-07-16 00:00:00,17,1021.4,-0.8,94,16,0,11.112,,,260,,,,,,,,,,,wg-a,,,,AAXX 16004 07005 12/// /2606 10170 20160 30123 40214 58008 60006 90000=
07005,1997-07-16 06:00:00,16,1020.2,-0.2,88,14,15000,22.224,,,260,15.5,19.3,,,,,,,,,wg-a,,,,AAXX 16064 07005 02365 82612 10160 20140 30110 40202 58002 60006 885// 90600 333 10193 20155 60004=
07005,1997-07-16 12:00:00,18,1019.5,-0.8,73,13,500,18.52,,,280,,,,,,,,,,,wg-a,,,,AAXX 16124 07005 12400 72810 10180 20130 30104 40195 58008 60006 878// 91200=
07005,1997-07-16 18:00:00,17,1018.3,,82,14,20000,18.52,,,300,,,,,,,,,,,wg-a,,,,AAXX 16184 07005 12470 73010 10170 20140 30092 40183 60006 91800=
07005,1997-07-17 00:00:00,15,1017.8,-0.7,94,14,0,7.408,,,280,,,,,,,,,,,wg-a,,,,AAXX 17004 07005 12/// /2804 10150 20140 30086 40178 57007 60006 90000=
07005,1997-07-17 06:00:00,14,1015.5,-0.8,100,14,500,7.408,,,250,12.5,16.8,,,,,,,,,wg-a,,,,AAXX 17064 07005 02/00 32504 10140 20140 30063 40155 57008 60006 81032 90600 333 10168 20125 60004=
07005,1997-07-17 12:00:00,18,1014.3,-0.5,83,15,15000,25.928,,,290,,,,,,,,,,,wg-a,,,,AAXX 17124 07005 12465 82914 10180 20150 30052 40143 56005 60006 875// 91200=
07005,1997-07-17 18:00:00,17,1012.3,-0.8,88,15,10000,29.632,,,280,14.2,19.8,,,,,,,,60,wg-a,,,,AAXX 17184 07005 02260 82816 10170 20150 30032 40123 56008 61000 76065 887// 91800 333 10198 20142 ////=
07005,1997-07-18 00:00:00,13,1014.6,0.9,100,13,0,11.112,,,320,,,,,,,,,,,wg-a,,,,AAXX 18004 07005 12/// /3206 10130 20130 30054 40146 51009 60016 90000=
07005,1997-07-18 06:00:00,14,1015.7,1,94,13,15000,22.224,,,320,12.3,16.6,,,,,1,,,21,wg-a,,,,AAXX 18064 07005 02465 73212 10140 20130 30065 40157 52010 60014 72162 878// 90600 333 10166 20123 61000=
07005,1997-07-18 12:00:00,17,1017.6,0.9,77,13,20000,25.928,,,320,,,,,,,,,,,wg-a,,,,AAXX 18124 07005 12570 73214 10170 20130 30085 40176 51009 60006 878// 91200=
07005,1997-07-18 18:00:00,16,1018.4,0.6,88,14,6000,18.52,,,320,13.8,17.9,,,,,,,,1,wg-a,,,,AAXX 18184 07005 02256 73210 10160 20140 30092 40184 53006 61000 70152 875// 91800 333 10179 20138 ////=
07005,1997-07-19 00:00:00,15,1020.6,0.4,94,14,0,18.52,,,340,,,,,,,,,,,wg-a,,,,AAXX 19004 07005 12/// /3410 10150 20140 30114 40206 51004 60006 90000=
07005,1997-07-19 06:00:00,16,1022.8,1.3,88,14,0,14.816,,,10,13.6,16.1,,,,,,,,,wg-a,,,,AAXX 19064 07005 02/// /0108 10160 20140 30136 40228 53013 60006 90600 333 10161 20136 61000=
07005,1997-07-19 12:00:00,21,1024.6,0.8,73,16,0,22.224,,,360,,,,,,,,,,,wg-a,,,,AAXX 19124 07005 12/// /3612 10210 20160 30155 40246 51008 60006 91200=
07005,1997-07-19 18:00:00,21,1024.9,0.4,64,14,0,25.928,,,20,16,21.9,,,,,,,,,wg-a,,,,AAXX 19184 07005 12/// /0214 10210 20140 30158 40249 53004 60006 91800 333 10219 20160=
07005,1997-07-20 00:00:00,11,1026.2,-0.3,100,11,0,11.112,,,340,,,,,,,,,,,wg-a,,,,AAXX 20004 07005 12/// /3406 10110 20110 30168 40262 58003 60006 90000=
07005,1997-07-20 06:00:00,13,1026,0.2,100,13,0,7.408,,,330,9.6,20.5,,,,,,,,,wg-a,,,,AAXX 20064 07005 12/// /3304 10130 20130 30167 40260 53002 60004 90600 333 10205 20096=
07005,1997-07-20 12:00:00,21,1024.9,-0.9,56,12,18000,11.112,,,30,,,,,,,,,,,wg-a,,,,AAXX 20124 07005 12568 30306 10210 20120 30158 40249 58009 60006 83100 91200=
07005,1997-07-20 18:00:00,20,1023.8,-0,64,13,0,22.224,,,40,13.2,21.9,,,,,,,,,wg-a,,,,AAXX 20184 07005 12/// /0412 10200 20130 30147 40238 55000 60006 91800 333 10219 20132=
07005,1997-07-21 00:00:00,11,1024.3,-0.5,100,11,0,3.704,,,340,,,,,,,,,,,wg-a,,,,AAXX 21004 07005 12/// /3402 10110 20110 30149 40243 57005 60006 90000=
07005,1997-07-21 06:00:00,13,1024.1,0.3,100,13,2500,7.408,,,30,11.2,19.7,,,,,,,,10,wg-a,,,,AAXX 21064 07005 12225 70304 10130 20130 30148 40241 53003 60004 71022 871// 90600 333 10197 20112=
07005,1997-07-21 12:00:00,22,1022.7,-1,53,12,25000,14.816,,,20,,,,,,,,,,,wg-a,,,,AAXX 21124 07005 12675 20208 10220 20120 30137 40227 56010 60006 82101 91200=
07005,1997-07-21 18:00:00,21,1021.3,-0.3,53,11,25000,18.52,,,50,13.2,23.2,,,,,,,,,wg-a,,,,AAXX 21184 07005 12675 20510 10210 20110 30123 40213 55003 60006 81201 91800 333 10232 20132=
07005,1997-07-22 00:00:00,13,1021.7,-0.4,82,10,0,3.704,,,320,,,,,,,,,,,wg-a,,,,AAXX 22004 07005 12/// /3202 10130 20100 30124 40217 57004 60006 90000=
07005,1997-07-22 06:00:00,15,1021.3,-0,88,13,4500,0,,,0,10.9,20.9,,,,,,,,10,wg-a,,,,AAXX 22064 07005 02445 80000 10150 20130 30121 40213 55000 60006 71022 875// 90600 333 10209 20109 60004=
07005,1997-07-22 12:00:00,22,1020.5,-1,65,15,7000,3.704,,,200,,,,,,,,,,,wg-a,,,,AAXX 22124 07005 12457 32002 10220 20150 30115 40205 58010 60006 831// 91200=
07005,1997-07-22 18:00:00,23,1019.3,-0.3,61,15,12000,18.52,,,340,14.5,24.2,,,,,,,,,wg-a,,,,AAXX 22184 07005 12662 43410 10230 20150 30103 40193 55003 60006 84200 91800 333 10242 20145=
07005,1997-07-23 00:00:00,16,1020.6,0.2,82,13,0,11.112,,,110,,,,,,,,,,,wg-a,,,,AAXX 23004 07005 12/// /1106 10160 20130 30114 40206 50002 60006 90000=
07005,1997-07-23 06:00:00,15,1020.3,0.1,88,13,4000,0,,,0,,,,,,,,,,10,wg-a,,,,AAXX 23064 07005 12/40 00000 10150 20130 30111 40203 53001 60006 71000 80000 90600=
07005,1997-07-23 12:00:00,26,1019.6,-0.5,37,10,15000,3.704,,,150,,,,,,,,,,,wg-a,,,,AAXX 23124 07005 12565 51502 10260 20100 30107 40196 58005 60006 83202 91200=
07005,1997-07-23 18:00:00,24,1018,-0.8,54,14,20000,14.816,,,350,14.9,26.1,,,,,,,,,wg-a,,,,AAXX 23184 07005 12770 23508 10240 20140 30091 40180 56008 60006 81101 91800 333 10261 20149=
07005,1997-07-24 00:00:00,17,1018,-0.8,82,14,0,7.408,,,290,,,,,,,,,,,wg-a,,,,AAXX 24004 07005 12/// /2904 10170 20140 30089 40180 57008 60006 90000=
07005,1997-07-24 06:00:00,16,1016.9,0.1,94,15,3000,7.408,,,270,14.4,24,,,,,,,,10,wg-a,,,,AAXX 24064 07005 02830 82704 10160 20150 30078 40169 53001 60006 71022 82082 90600 333 10240 20144 60004=
07005,1997-07-24 12:00:00,21,1015.5,-0.2,69,15,10000,18.52,,,290,,,,,,,,,,,wg-a,,,,AAXX 24124 07005 12760 72910 10210 20150 30065 40155 57002 60006 8357/ 91200=
07005,1997-07-24 18:00:00,20,1013.3,-1.4,56,11,20000,18.52,,,280,15.6,21.4,,,,,,,,,wg-a,,,,AAXX 24184 07005 12770 62810 10200 20110 30043 40133 56014 60006 82532 91800 333 10214 20156=
07005,1997-07-25 00:00:00,16,1012.1,-1.1,94,15,0,29.632,,,260,,,,,,,,,,,wg-a,,,,AAXX 25004 07005 12/// /2616 10160 20150 30030 40121 55011 60016 90000=
07005,1997-07-25 06:00:00,16,1012.6,0.6,88,14,12000,22.224,,,280,15.1,19.7,,,,,1,,,,wg-a,,,,AAXX 25064 07005 12362 82812 10160 20140 30035 40126 53006 60014 877// 90600 333 10197 20151=
07005,1997-07-25 12:00:00,19,1013.8,0.5,68,13,20000,31.484,,,280,,,,,,,,,,,wg-a,,,,AAXX 25124 07005 12470 62817 10190 20130 30048 40138 50005 60006 84201 91200=
07005,1997-07-25 18:00:00,19,1014.5,0.4,68,13,500,22.224,,,290,15.9,20,,,,,,,,,wg-a,,,,AAXX 25184 07005 12500 62912 10190 20130 30055 40145 53004 60006 81440 91800 333 10200 20159=
07005,1997-07-26 00:00:00,13,1017.3,0.6,94,12,0,11.112,,,250,,,,,,,,,,,wg-a,,,,AAXX 26004 07005 12/// /2506 10130 20120 30081 40173 51006 60006 90000=
07005,1997-07-26 06:00:00,14,1018.8,0.9,100,14,0,11.112,,,220,11.9,18.4,,,,,,,,,wg-a,,,,AAXX 26064 07005 02/// /2206 10140 20140 30096 40188 51009 60006 90600 333 10184 20119 60004=
07005,1997-07-26 12:00:00,22,1019.2,-0.2,60,14,15000,18.52,,,250,,,,,,,,,,,wg-a,,,,AAXX 26124 07005 12665 72510 10220 20140 30102 40192 55002 60006 8213/ 91200=
07005,1997-07-26 18:00:00,19,1017.5,-1.1,94,18,0,11.112,,,260,14.5,22.3,,,,,,,,,wg-a,,,,AAXX 26184 07005 32/// /2606 10190 20180 30085 40175 55011 91800 333 10223 20145=
07005,1997-07-27 00:00:00,17,1016.9,-0.5,100,17,0,31.484,,,270,,,,0,,,,,,,wg-a,,,,AAXX 27004 07005 02/// /2717 10170 20170 30078 40169 58005 60016 90000 333 60007=
07005,1997-07-27 06:00:00,16,1018.2,0.9,88,14,20000,22.224,,,260,16,19.7,,,,,2,,,2,wg-a,,,,AAXX 27064 07005 12470 82612 10160 20140 30091 40182 53009 60024 70262 888// 90600 333 10197 20160=
07005,1997-07-27 18:00:00,19,1022.3,0.7,73,14,0,14.816,,,290,16.1,20.4,,,,,,,,,wg-a,,,,AAXX 27184 07005 12/// /2908 10190 20140 30132 40223 51007 60006 91800 333 10204 20161=
07005,1997-07-28 00:00:00,12,1023.6,0.1,94,11,0,7.408,,,190,,,,,,,,,,,wg-a,,,,AAXX 28004 07005 12/// /1904 10120 20110 30143 40236 50001 60006 90000=
07005,1997-07-28 06:00:00,12,1024,0.6,94,11,10000,7.408,,,170,10.5,18.5,,0,,,,,,,wg-a,,,,AAXX 28064 07005 02/60 11704 10120 20110 30147 40240 53006 60004 80001 90600 333 10185 20105 60007=
07005,1997-07-28 12:00:00,22,1023.3,-0.6,73,17,25000,18.52,,,310,,,,,,,,,,,wg-a,,,,AAXX 28124 07005 12575 73110 10220 20170 30143 40233 56006 60006 81102 91200=
07005,1997-07-28 18:00:00,18,1022.8,-0.3,77,14,20000,11.112,,,300,11.9,22.1,,,,,,,,,wg-a,,,,AAXX 28184 07005 12/70 73006 10180 20140 30137 40228 55003 60006 83032 91800 333 10221 20119=
07005,1997-07-29 00:00:00,13,1023.4,0,100,13,0,0,,,0,,,,,,,,,,,wg-a,,,,AAXX 29004 07005 12/// /0000 10130 20130 30141 40234 50000 60006 90000=
07005,1997-07-29 06:00:00,11,1023.1,0.1,100,11,200,3.704,,,140,9.1,18.4,,,,,,,,42,wg-a,,,,AAXX 29064 07005 12/02 71402 10110 20110 30137 40231 53001 60004 74241 82031 90600 333 10184 20091=
07005,1997-07-29 12:00:00,25,1021.7,-0.9,44,12,20000,11.112,,,200,,,,,,,,,,1,wg-a,,,,AAXX 29124 07005 12670 52006 10250 20120 30128 40217 58009 60006 70142 82101 91200=
07005,1997-07-29 18:00:00,22,1020,-0.5,50,11,25000,11.112,,,310,10.9,25.9,,,,,,,,,wg-a,,,,AAXX 29184 07005 12/75 43106 10220 20110 30110 40200 56005 60006 80002 91800 333 10259 20109=
07005,1997-07-30 00:00:00,14,1019.2,-1.2,77,10,0,14.816,,,150,,,,,,,,,,,wg-a,,,,AAXX 30004 07005 12/// /1508 10140 20100 30100 40192 56012 60006 90000=
07005,1997-07-30 06:00:00,17,1017.4,-0.1,72,12,25000,0,,,0,14,22,,,,,,,,,wg-a,,,,AAXX 30064 07005 02575 60000 10170 20120 30083 40174 55001 60006 81131 90600 333 10220 20140 60004=
07005,1997-07-30 12:00:00,20,1018.7,0.6,83,17,20000,22.224,,,270,,,,,,,,,,21,wg-a,,,,AAXX 30124 07005 02570 82712 10200 20170 30097 40187 51006 61000 72162 8627/ 91200 333 6100=
07005,1997-07-30 18:00:00,17,1019.4,0.5,77,13,500,29.632,,,280,16.6,20.6,,,,,,,,,wg-a,,,,AAXX 30184 07005 32500 62816 10170 20130 30103 40194 53005 81102 91800 333 10206 20166=
07005,1997-07-31 00:00:00,15,1019.3,-0.1,88,13,0,18.52,,,270,,,,,,,,,,,wg-a,,,,AAXX 31004 07005 12/// /2710 10150 20130 30101 40193 56001 60006 90000=
07005,1997-07-31 06:00:00,16,1018.4,0.3,82,13,15000,18.52,,,280,14.9,17,,,,,,,,,wg-a,,,,AAXX 31064 07005 02465 82810 10160 20130 30092 40184 53003 60006 8377/ 90600 333 10170 20149 61000=
07005,1997-07-31 12:00:00,15,1019.1,0.3,88,13,15000,25.928,,,290,,,,0,,,,,,61,wg-a,,,,AAXX 31124 07005 02365 82914 10150 20130 30099 40191 51003 60016 76162 877// 91200 333 60007=
07005,1997-07-31 18:00:00,15,1018,-0.5,88,13,10000,22.224,,,280,14,16.8,,1,,,,,,61,wg-a,,,,AAXX 31184 07005 12360 82812 10150 20130 30088 40180 56005 60017 76165 878// 91800 333 10168 20140=
07005,1997-08-01 00:00:00,15,1016.7,-1.2,94,14,0,14.816,,,280,,,,,,,,,,,wg-a,,,,AAXX 01004 07005 12/// /2808 10150 20140 30075 40167 58012 60016 90000=
07005,1997-08-01 06:00:00,15,1014.8,-0.4,94,14,7000,18.52,,,280,13.8,15.2,,1,,,5,,,21,wg-a,,,,AAXX 01064 07005 02557 82810 10150 20140 30056 40148 56004 60054 72162 875// 90600 333 10152 20138 60017=
07005,1997-08-01 12:00:00,16,1015.1,0.2,94,15,10000,25.928,,,270,,,,,,,,,,2,wg-a,,,,AAXX 01124 07005 02360 82714 10160 20150 30060 40151 50002 60016 70265 877// 91200 333 61000=
07005,1997-08-01 18:00:00,17,1015.3,-0.1,94,16,8000,25.928,,,270,14.8,17.4,,0,,,,,,2,wg-a,,,,AAXX 01184 07005 12358 82714 10170 20160 30062 40153 55001 60007 70252 877// 91800 333 10174 20148=
07005,1997-08-02 00:00:00,17,1016.6,0.5,100,17,0,22.224,,,270,,,,,,,,,,,wg-a,,,,AAXX 02004 07005 12/// /2712 10170 20170 30075 40166 51005 60006 90000=
07005,1997-08-02 06:00:00,17,1017.4,1,94,16,6000,3.704,,,40,16.8,17.3,,0,,,1,,,28,wg-a,,,,AAXX 02064 07005 02356 80402 10170 20160 30083 40174 53010 60014 72854 887// 90600 333 10173 20168 60007=
07005,1997-08-02 12:00:00,19,1019,0.3,83,16,15000,3.704,,,310,,,,,,,,,,2,wg-a,,,,AAXX 02124 07005 02465 73102 10190 20160 30099 40190 53003 61000 70252 878// 91200 333 ////=
07005,1997-08-02 18:00:00,20,1018.6,0.3,64,13,0,11.112,,,340,17,22.3,,,,,,,,,wg-a,,,,AAXX 02184 07005 32/// /3406 10200 20130 30096 40186 51003 91800 333 10223 20170=
07005,1997-08-03 00:00:00,16,1019.2,-0.1,82,13,0,7.408,,,70,,,,,,,,,,,wg-a,,,,AAXX 03004 07005 12/// /0704 10160 20130 30100 40192 58001 60006 90000=
07005,1997-08-03 06:00:00,15,1018.5,-0.2,94,14,8000,14.816,,,70,15,19.7,,,,,,,,,wg-a,,,,AAXX 03064 07005 02658 70708 10150 20140 30093 40185 58002 60006 875// 90600 333 10197 20150 61000=
07005,1997-08-03 12:00:00,23,1017.6,-0.6,61,15,25000,11.112,,,30,,,,,,,,,,,wg-a,,,,AAXX 03124 07005 12575 60306 10230 20150 30087 40176 56006 60006 82232 91200=
07005,1997-08-03 18:00:00,22,1016.6,-0.5,60,14,0,14.816,,,50,15.4,23.7,,,,,,,,,wg-a,,,,AAXX 03184 07005 12/// /0508 10220 20140 30077 40166 55005 60006 91800 333 10237 20154=
07005,1997-08-04 00:00:00,17,1017.3,-0.1,94,16,0,14.816,,,80,,,,,,,,,,,wg-a,,,,AAXX 04004 07005 12/// /0808 10170 20160 30082 40173 58001 60006 90000=
07005,1997-08-04 12:00:00,27,1017.2,0.2,54,17,10000,22.224,,,80,,,,,,,,,,21,wg-a,,,,AAXX 04124 07005 02/60 50812 10270 20170 30084 40172 51002 61000 72162 83082 91200 333 6100=
07005,1997-08-04 18:00:00,25,1016.4,-0.5,65,18,6000,31.484,,,70,17.4,28.5,,,,,,,,,wg-a,,,,AAXX 04184 07005 32656 70717 10250 20180 30075 40164 56005 81382 91800 333 10285 20174=
07005,1997-08-05 00:00:00,19,1017.7,0.1,94,18,0,18.52,,,100,,,,,,,,,,,wg-a,,,,AAXX 05004 07005 12/// /1010 10190 20180 30087 40177 50001 60016 90000=
07005,1997-08-05 06:00:00,17,1017.2,0.4,94,16,3000,22.224,,,80,16.8,24.5,,2,,,4,,,10,wg-a,,,,AAXX 05064 07005 02630 70812 10170 20160 30081 40172 51004 60044 71062 8159/ 90600 333 10245 20168 60027=
07005,1997-08-05 12:00:00,26,1016.6,0.7,61,18,7000,14.816,,,80,,,,,,,,,,,wg-a,,,,AAXX 05124 07005 12/57 50808 10260 20180 30078 40166 51007 60006 81032 91200=
07005,1997-08-05 18:00:00,25,1014.3,-0.3,65,18,12000,22.224,,,60,16.9,28,,,,,,,,,wg-a,,,,AAXX 05184 07005 12/62 70612 10250 20180 30055 40143 55003 60006 86082 91800 333 10280 20169=
07005,1997-08-06 00:00:00,19,1014.4,-1.5,94,18,0,0,,,0,,,,,,,,,,,wg-a,,,,AAXX 06004 07005 12/// ///// 10190 20180 30054 40144 57015 60226 90000=
07005,1997-08-06 06:00:00,18,1012.8,-0.1,100,18,2000,0,,,0,18.2,24.9,,2,,,24,,,10,wg-a,,,,AAXX 06064 07005 02520 8//// 10180 20180 30038 40128 58001 60244 71086 8359/ 90600 333 10249 20182 60027=
07005,1997-08-06 12:00:00,22,1013.1,-0,88,20,2500,0,,,0,,,,,,,,,,10,wg-a,,,,AAXX 06124 07005 12425 80000 10220 20200 30042 40131 55000 60006 71022 878// 91200=
07005,1997-08-06 18:00:00,20,1013.4,-0,94,19,2000,7.408,,,20,18.4,22.7,,,,,,,,10,wg-a,,,,AAXX 06184 07005 02320 70204 10200 20190 30045 40134 55000 61000 71062 876// 91800 333 10227 20184 ////=
07005,1997-08-07 00:00:00,19,1014.4,0.1,94,18,0,0,,,0,,,,,,,,,,,wg-a,,,,AAXX 07004 07005 32/// ///// 10190 20180 30054 40144 50001 90000=
07005,1997-08-07 06:00:00,19,1014.5,0.9,94,18,1200,3.704,,,40,18.2,20.4,,17,,,29,,,63,wg-a,,,,AAXX 07064 07005 02312 80402 10190 20180 30055 40145 53009 60294 76386 877// 90600 333 10204 20182 60177=
07005,1997-08-07 12:00:00,20,1014.5,0.1,94,19,0,0,,,0,,,,,,,,,,,wg-a,,,,AAXX 07124 07005 12/// ///// 10200 20190 30055 40145 50001 60126 91200=
07005,1997-08-07 18:00:00,23,1013.7,-0.1,83,20,7000,7.408,,,320,18.6,24.1,,,,,,,,,wg-a,,,,AAXX 07184 07005 32/57 73204 10230 20200 30048 40137 55001 8703/ 91800 333 10241 20186=
07005,1997-08-08 00:00:00,18,1014.9,0.3,100,18,0,7.408,,,310,,,,,,,,,,,wg-a,,,,AAXX 08004 07005 12/// /3104 10180 20180 30059 40149 51003 60006 90000=
07005,1997-08-08 06:00:00,17,1016.9,1.7,94,16,500,3.704,,,90,16,23.2,,0,,,12,,,46,wg-a,,,,AAXX 08064 07005 02/00 00902 10170 20160 30078 40169 53017 60124 74640 80000 90600 333 10232 20160 60007=
07005,1997-08-08 12:00:00,23,1018.1,0.2,78,19,6000,11.112,,,310,,,,,,,,,,2,wg-a,,,,AAXX 08124 07005 12/56 03106 10230 20190 30092 40181 53002 60006 70241 80000 91200=
07005,1997-08-09 00:00:00,16,1020,0.6,100,16,0,11.112,,,300,,,,,,,,,,,wg-a,,,,AAXX 09004 07005 12/// /3006 10160 20160 30108 40200 53006 60006 90000=
07005,1997-08-09 06:00:00,16,1020.6,0.9,100,16,0,7.408,,,280,15.5,18.4,,,,,,,,,wg-a,,,,AAXX 09064 07005 12/// /2804 10160 20160 30114 40206 51009 60004 90600 333 10184 20155=
07005,1997-08-09 12:00:00,22,1020.3,-0.6,83,19,15000,11.112,,,310,,,,,,,,,,1,wg-a,,,,AAXX 09124 07005 12465 13106 10220 20190 30113 40203 58006 60006 70141 81100 91200=
07005,1997-08-09 18:00:00,19,1019.3,-0.2,88,17,0,18.52,,,310,15.6,23.5,,,,,,,,,wg-a,,,,AAXX 09184 07005 12/// /3110 10190 20170 30102 40193 55002 60006 91800 333 10235 20156=
07005,1997-08-10 00:00:00,15,1019.3,-0.6,100,15,0,0,,,0,,,,,,,,,,,wg-a,,,,AAXX 10004 07005 12/// /0000 10150 20150 30101 40193 56006 60006 90000=
07005,1997-08-10 06:00:00,16,1018.2,-0.2,94,15,3000,3.704,,,150,14.4,18.4,,0,,,,,,10,wg-a,,,,AAXX 10064 07005 02630 31502 10160 20150 30090 40182 55002 60004 71011 82502 90600 333 10184 20144 60007=
07005,1997-08-10 12:00:00,30,1016.3,-1.6,38,14,20000,22.224,,,110,,,,,,,,,,,wg-a,,,,AAXX 10124 07005 12770 11112 10300 20140 30076 40163 56016 60006 81100 91200=
07005,1997-08-10 18:00:00,28,1014,-0.5,40,13,0,18.52,,,130,15.7,30.6,,,,,,,,,wg-a,,,,AAXX 10184 07005 12/// /1310 10280 20130 30053 40140 55005 60006 91800 333 10306 20157=
07005,1997-08-11 00:00:00,21,1014.2,0.2,69,15,0,11.112,,,100,,,,,,,,,,,wg-a,,,,AAXX 11004 07005 12/// /1006 10210 20150 30052 40142 53002 60006 90000=
07005,1997-08-11 06:00:00,20,1014.2,0.9,78,16,15000,14.816,,,140,19.3,28.2,,,,,,,,,wg-a,,,,AAXX 11064 07005 02/65 61408 10200 20160 30052 40142 53009 60006 80002 90600 333 10282 20193 60004=
07005,1997-08-11 12:00:00,29,1014.6,-0,52,18,0,14.816,,,140,,,,,,,,,,,wg-a,,,,AAXX 11124 07005 12/// /1408 10290 20180 30059 40146 55000 60006 91200=
07005,1997-08-11 18:00:00,23,1017.3,2,73,18,10000,14.816,,,290,19.8,31.7,,,,,,,,,wg-a,,,,AAXX 11184 07005 12/60 62908 10230 20180 30084 40173 53020 60006 80002 91800 333 10317 20198=
07005,1997-08-12 00:00:00,17,1019.7,0.7,100,17,0,7.408,,,290,,,,,,,,,,,wg-a,,,,AAXX 12004 07005 12/// /2904 10170 20170 30106 40197 53007 60006 90000=
07005,1997-08-12 06:00:00,18,1020.9,0.9,100,18,2500,7.408,,,280,17.3,23.3,,,,,,,,10,wg-a,,,,AAXX 12064 07005 02/25 62804 10180 20180 30118 40209 53009 60006 71022 8603/ 90600 333 10233 20173 60004=
07005,1997-08-12 12:00:00,25,1021.6,0.1,79,21,6000,18.52,,,310,,,,,,,,,,,wg-a,,,,AAXX 12124 07005 12/56 33110 10250 20210 30127 40216 53001 60006 81032 91200=
07005,1997-08-12 18:00:00,22,1020.9,-0.4,83,19,6000,18.52,,,310,18.1,25.8,,,,,,,,,wg-a,,,,AAXX 12184 07005 12/56 33110 10220 20190 30119 40209 56004 60006 80002 91800 333 10258 20181=
07005,1997-08-13 00:00:00,18,1020.4,-1.1,100,18,0,0,,,0,,,,,,,,,,,wg-a,,,,AAXX 13004 07005 12/// /0000 10180 20180 30113 40204 55011 60006 90000=
07005,1997-08-13 06:00:00,18,1019.9,-0.5,100,18,15000,22.224,,,70,17.9,22.1,,6,,,6,,,91,wg-a,,,,AAXX 13064 07005 02765 70712 10180 20180 30108 40199 58005 60064 79196 8299/ 90600 333 10221 20179 60067=
07005,1997-08-13 12:00:00,26,1022.2,0.2,74,21,500,14.816,,,290,,,,,,,,,,3,wg-a,,,,AAXX 13124 07005 12500 72908 10260 20210 30133 40222 53002 60006 70361 872// 91200=
07005,1997-08-13 18:00:00,20,1024.1,0.3,83,17,25000,18.52,,,290,18.4,25.9,,,,,,,,,wg-a,,,,AAXX 13184 07005 32575 12910 10200 20170 30150 40241 51003 81102 91800 333 10259 20184=
07005,1997-08-14 00:00:00,15,1025.1,-0.1,100,15,0,11.112,,,250,,,,,,,,,,,wg-a,,,,AAXX 14004 07005 12/// /2506 10150 20150 30159 40251 58001 60006 90000=
07005,1997-08-14 06:00:00,16,1025.2,0.2,100,16,500,7.408,,,250,14.5,19.7,,,,,,,,,wg-a,,,,AAXX 14064 07005 12400 22504 10160 20160 30160 40252 53002 60004 81101 90600 333 10197 20145=
07005,1997-08-14 12:00:00,22,1024.2,-0.8,73,17,20000,18.52,,,310,,,,,,,,,,,wg-a,,,,AAXX 14124 07005 12570 53110 10220 20170 30152 40242 56008 60006 81202 91200=
07005,1997-08-14 18:00:00,20,1022.9,-0.7,73,15,500,18.52,,,310,16.1,22.4,,,,,,,,,wg-a,,,,AAXX 14184 07005 12/00 33110 10200 20150 30138 40229 55007 60006 80002 91800 333 10224 20161=
07005,1997-08-15 00:00:00,15,1023.1,-0.6,94,14,0,3.704,,,160,,,,,,,,,,,wg-a,,,,AAXX 15004 07005 12/// /1602 10150 20140 30139 40231 58006 60006 90000=
07005,1997-08-15 06:00:00,13,1023,0.3,100,13,1200,7.408,,,190,10.9,20.3,,,,,,,,28,wg-a,,,,AAXX 15064 07005 12/12 51904 10130 20130 30137 40230 52003 60004 72841 80002 90600 333 10203 20109=
07005,1997-08-15 12:00:00,23,1022.4,-0.7,69,17,20000,14.816,,,300,,,,,,,,,,,wg-a,,,,AAXX 15124 07005 12470 23008 10230 20170 30134 40224 56007 60006 81102 91200=
07005,1997-08-15 18:00:00,22,1021.3,-0.7,65,15,0,14.816,,,330,12.8,24.7,,,,,,,,,wg-a,,,,AAXX 15184 07005 12/// /3308 10220 20150 30123 40213 55007 60006 91800 333 10247 20128=
07005,1997-08-16 00:00:00,16,1021.7,0.1,88,14,0,7.408,,,130,,,,,,,,,,,wg-a,,,,AAXX 16004 07005 12/// /1304 10160 20140 30125 40217 52001 60006 90000=
07005,1997-08-16 06:00:00,16,1020.5,-0,88,14,6000,11.112,,,130,15.3,21.9,,0,,,,,,,wg-a,,,,AAXX 16064 07005 02/56 01306 10160 20140 30113 40205 55000 60004 80000 90600 333 10219 20153 60007=
07005,1997-08-16 12:00:00,27,1019.6,-0.5,45,14,15000,11.112,,,150,,,,,,,,,,,wg-a,,,,AAXX 16124 07005 12765 11506 10270 20140 30108 40196 58005 60006 81100 91200=
07005,1997-08-16 18:00:00,27,1017.7,-0.7,48,15,0,7.408,,,60,16.2,28.2,,,,,,,,,wg-a,,,,AAXX 16184 07005 12/// /0604 10270 20150 30089 40177 56007 60006 91800 333 10282 20162=
07005,1997-08-17 00:00:00,19,1019,-0.2,78,15,0,11.112,,,120,,,,,,,,,,,wg-a,,,,AAXX 17004 07005 12/// /1206 10190 20150 30099 40190 58002 60006 90000=
07005,1997-08-17 06:00:00,17,1018.8,0.4,88,15,500,11.112,,,140,16.1,26.6,,,,,,,,,wg-a,,,,AAXX 17064 07005 02/00 11406 10170 20150 30097 40188 53004 60006 80001 90600 333 10266 20161 60004=
07005,1997-08-17 12:00:00,28,1018.1,-0.8,42,14,20000,7.408,,,250,,,,,,,,,,,wg-a,,,,AAXX 17124 07005 12770 32504 10280 20140 30093 40181 56008 60006 81106 91200=
07005,1997-08-17 18:00:00,26,1017.2,-0,61,18,0,14.816,,,350,17,29.3,,,,,,,,,wg-a,,,,AAXX 17184 07005 12/// /3508 10260 20180 30084 40172 55000 60006 91800 333 10293 20170=
07005,1997-08-18 00:00:00,18,1018.8,0,94,17,0,3.704,,,300,,,,,,,,,,,wg-a,,,,AAXX 18004 07005 12/// /3002 10180 20170 30097 40188 50000 60006 90000=
07005,1997-08-18 06:00:00,17,1018.5,0.1,94,16,600,0,,,0,15.9,25.8,,,,,,,,42,wg-a,,,,AAXX 18064 07005 02206 50000 10170 20160 30094 40185 53001 60006 74242 81680 90600 333 10258 20159 60004=
07005,1997-08-18 12:00:00,28,1018.5,-0.3,51,17,500,3.704,,,150,,,,,,,,,,2,wg-a,,,,AAXX 18124 07005 12600 11502 10280 20170 30097 40185 58003 60006 70241 81100 91200=
07005,1997-08-18 18:00:00,22,1018.2,-0.1,88,20,6000,11.112,,,310,16.7,29,,,,,,,,,wg-a,,,,AAXX 18184 07005 12756 13106 10220 20200 30093 40182 55001 60006 81200 91800 333 10290 20167=
07005,1997-08-19 00:00:00,17,1019,0,94,16,0,7.408,,,350,,,,,,,,,,,wg-a,,,,AAXX 19004 07005 12/// /3504 10170 20160 30099 40190 50000 60006 90000=
07005,1997-08-19 06:00:00,17,1018.3,0.1,94,16,900,3.704,,,140,16.1,22.3,,,,,,,,42,wg-a,,,,AAXX 19064 07005 12/09 31402 10170 20160 30092 40183 53001 60004 74240 82082 90600 333 10223 20161=
07005,1997-08-19 12:00:00,27,1017.8,-0.6,48,15,500,7.408,,,160,,,,,,,,,,3,wg-a,,,,AAXX 19124 07005 12600 61604 10270 20150 30090 40178 57006 60006 70341 81102 91200=
07005,1997-08-19 18:00:00,26,1016.5,-0.6,61,18,500,7.408,,,310,16.9,28.9,,,,,,,,,wg-a,,,,AAXX 19184 07005 12/00 03104 10260 20180 30077 40165 56006 60006 80000 91800 333 10289 20169=
07005,1997-08-20 00:00:00,18,1018,-0,77,14,0,7.408,,,120,,,,,,,,,,,wg-a,,,,AAXX 20004 07005 12/// /1204 10180 20140 30089 40180 54000 60006 90000=
07005,1997-08-20 06:00:00,15,1018.6,0.9,94,14,3000,11.112,,,100,14.6,25.5,,,,,,,,10,wg-a,,,,AAXX 20064 07005 02/30 01006 10150 20140 30094 40186 53009 60006 71000 80000 90600 333 10255 20146 60004=
07005,1997-08-20 12:00:00,28,1017.7,-0.7,45,15,12000,3.704,,,310,,,,,,,,,,,wg-a,,,,AAXX 20124 07005 12/62 13102 10280 20150 30089 40177 58007 60006 81030 91200=
07005,1997-08-20 18:00:00,24,1017.4,0.1,61,16,20000,11.112,,,350,15.3,28.5,,,,,,,,,wg-a,,,,AAXX 20184 07005 12/70 63506 10240 20160 30085 40174 51001 60006 86082 91800 333 10285 20153=
07005,1997-08-21 00:00:00,19,1018,-0.6,78,15,0,7.408,,,150,,,,,,,,,,,wg-a,,,,AAXX 21004 07005 12/// /1504 10190 20150 30089 40180 58006 60006 90000=
07005,1997-08-21 06:00:00,18,1018.7,0.4,88,16,3500,7.408,,,100,17,23.9,,,,,,,,10,wg-a,,,,AAXX 21064 07005 02/35 71004 10180 20160 30096 40187 51004 60006 71022 83082 90600 333 10239 20170 60004=
07005,1997-08-21 12:00:00,29,1017.7,-0.9,48,17,15000,11.112,,,260,,,,,,,,,,,wg-a,,,,AAXX 21124 07005 12765 62606 10290 20170 30090 40177 56009 60006 82282 91200=
07005,1997-08-21 18:00:00,19,1019.2,0.7,94,18,12000,18.52,,,310,17.5,29.6,,,,,,,,,wg-a,,,,AAXX 21184 07005 12462 83110 10190 20180 30102 40192 51007 60006 82142 91800 333 10296 20175=
07005,1997-08-22 00:00:00,18,1020.4,0.1,94,17,0,7.408,,,290,,,,,,,,,,,wg-a,,,,AAXX 22004 07005 12/// /2904 10180 20170 30113 40204 51001 60006 90000=
07005,1997-08-22 06:00:00,18,1021.1,0.7,94,17,15000,7.408,,,240,17.3,19.4,,0,,,,,,2,wg-a,,,,AAXX 22064 07005 02765 82404 10180 20170 30120 40211 53007 60004 70262 8457/ 90600 333 10194 20173 60007=
07005,1997-08-22 12:00:00,20,1021.8,-0,88,18,12000,7.408,,,300,,,,0,,,,,,2,wg-a,,,,AAXX 22124 07005 02562 83004 10200 20180 30128 40218 54000 60016 70262 8657/ 91200 333 60007=
07005,1997-08-22 18:00:00,20,1020.9,-0.2,94,19,15000,11.112,,,310,17.6,21.9,,,,,,,,,wg-a,,,,AAXX 22184 07005 32465 73106 10200 20190 30119 40209 58002 8653/ 91800 333 10219 20176=
07005,1997-08-23 00:00:00,19,1019.9,-0.5,94,18,0,11.112,,,180,,,,,,,,,,,wg-a,,,,AAXX 23004 07005 12/// /1806 10190 20180 30108 40199 58005 60006 90000=
07005,1997-08-23 06:00:00,18,1018.2,-0.7,100,18,200,7.408,,,150,18.2,20,,,,,,,,46,wg-a,,,,AAXX 23064 07005 02602 61504 10180 20180 30091 40182 56007 60006 74641 86500 90600 333 10200 20182 60004=
07005,1997-08-23 12:00:00,29,1015.6,-1.5,55,19,25000,7.408,,,170,,,,,,,,,,3,wg-a,,,,AAXX 23124 07005 12675 31704 10290 20190 30069 40156 58015 60006 70341 83200 91200=
07005,1997-08-23 18:00:00,25,1013.5,-0.6,69,19,0,18.52,,,310,18.3,30.6,,,,,,,,,wg-a,,,,AAXX 23184 07005 12/// /3110 10250 20190 30047 40135 56006 60006 91800 333 10306 20183=
07005,1997-08-24 00:00:00,18,1014.8,0.1,100,18,0,14.816,,,300,,,,,,,,,,,wg-a,,,,AAXX 24004 07005 12/// /3008 10180 20180 30058 40148 53001 60006 90000=
07005,1997-08-24 06:00:00,17,1015,0.4,100,17,100,0,,,0,17.2,25.2,,,,,,,,47,wg-a,,,,AAXX 24064 07005 02/01 90000 10170 20170 30059 40150 53004 60006 74742 89/// 90600 333 10252 20172 60004=
07005,1997-08-24 12:00:00,26,1013.3,-1.3,74,21,15000,7.408,,,140,,,,,,,,,,3,wg-a,,,,AAXX 24124 07005 12665 61404 10260 20210 30045 40133 58013 60006 70341 86800 91200=
07005,1997-08-24 18:00:00,19,1012.5,-0.7,94,18,0,14.816,,,310,17.2,27.7,,,,,,,,,wg-a,,,,AAXX 24184 07005 32/// /3108 10190 20180 30035 40125 56007 91800 333 10277 20172=
07005,1997-08-25 00:00:00,18,1011.6,-1,100,18,0,7.408,,,230,,,,,,,,,,,wg-a,,,,AAXX 25004 07005 12/// /2304 10180 20180 30026 40116 56010 60006 90000=
07005,1997-08-25 06:00:00,19,1008.6,-1.3,94,18,15000,14.816,,,80,17.7,18.9,,,,,,,,1,wg-a,,,,AAXX 25064 07005 02565 70808 10190 20180 39996 40086 58013 60006 70192 82382 90600 333 10189 20177 60004=
07005,1997-08-25 12:00:00,22,1007.9,0.9,83,19,15000,14.816,,,300,,,,,,,,,,,wg-a,,,,AAXX 25124 07005 12465 73008 10220 20190 39990 40079 50009 60006 8423/ 91200=
07005,1997-08-25 18:00:00,18,1010.7,1.1,88,16,20000,22.224,,,290,17.6,23.4,,,,,,,,,wg-a,,,,AAXX 25184 07005 12470 82912 10180 20160 30017 40107 53011 60006 8617/ 91800 333 10234 20176=
07005,1997-08-26 00:00:00,16,1012.1,0.2,94,15,0,11.112,,,260,,,,,,,,,,,wg-a,,,,AAXX 26004 07005 12/// /2606 10160 20150 30030 40121 52002 60006 90000=
07005,1997-08-26 06:00:00,13,1012.9,0.7,94,12,20000,3.704,,,170,13.3,17.7,,,,,,,,,wg-a,,,,AAXX 26064 07005 02470 51702 10130 20120 30037 40129 53007 60006 81102 90600 333 10177 20133 60004=
07005,1997-08-26 12:00:00,22,1012.5,-0.6,57,13,500,7.408,,,340,,,,,,,,,,,wg-a,,,,AAXX 26124 07005 12500 63404 10220 20130 30036 40125 58006 60006 83202 91200=
07005,1997-08-26 18:00:00,19,1010.5,-0.7,64,12,500,11.112,,,350,13.5,21.9,,,,,,,,,wg-a,,,,AAXX 26184 07005 12/00 73506 10190 20120 30015 40105 58007 60006 84052 91800 333 10219 20135=
07005,1997-08-27 00:00:00,15,1007.7,-1.9,82,12,0,11.112,,,110,,,,,,,,,,,wg-a,,,,AAXX 27004 07005 12/// /1106 10150 20120 39986 40077 58019 60006 90000=
07005,1997-08-27 06:00:00,17,1004.6,-0.7,88,15,9000,14.816,,,150,14.3,19.2,,,,,,,,,wg-a,,,,AAXX 27064 07005 02659 71508 10170 20150 39956 40046 56007 60006 81542 90600 333 10192 20143 60004=
07005,1997-08-27 12:00:00,17,1002.9,-0.8,100,17,3000,14.816,,,140,,,,6,,,,,,61,wg-a,,,,AAXX 27124 07005 02330 81408 10170 20170 39939 40029 58008 60066 76162 8757/ 91200 333 60067=
07005,1997-08-27 18:00:00,18,1001.1,-0,94,17,10000,7.408,,,250,17,20.5,,4,,,,,,21,wg-a,,,,AAXX 27184 07005 12460 72504 10180 20170 39922 40011 55000 60047 72186 83838 91800 333 10205 20170=
07005,1997-08-28 00:00:00,16,1000.5,-1.1,94,15,0,11.112,,,130,,,,,,,,,,,wg-a,,,,AAXX 28004 07005 12/// /1306 10160 20150 39915 40005 56011 60006 90000=
07005,1997-08-28 06:00:00,16,999.4,0.3,94,15,12000,11.112,,,180,16,17.9,,0,,,15,,,61,wg-a,,,,AAXX 28064 07005 02462 81806 10160 20150 39904 49994 53003 60154 76162 8457/ 90600 333 10179 20160 60007=
07005,1997-08-28 12:00:00,18,999.9,0.2,73,13,500,25.928,,,220,,,,,,,,,,2,wg-a,,,,AAXX 28124 07005 12500 52214 10180 20130 39910 49999 53002 60006 70286 85900 91200=
07005,1997-08-28 18:00:00,16,1001.6,1.3,82,13,40000,25.928,,,220,15.5,20.2,,,,,,,,1,wg-a,,,,AAXX 28184 07005 32582 52214 10160 20130 39926 40016 53013 70186 848/2 91800 333 10202 20155=
07005,1997-08-29 00:00:00,14,1006.5,2.5,94,13,0,22.224,,,230,,,,,,,,,,,wg-a,,,,AAXX 29004 07005 12/// /2312 10140 20130 39974 40065 51025 60026 90000=
07005,1997-08-29 06:00:00,13,1009.7,1.9,88,11,15000,18.52,,,220,12.8,15.6,,,,,2,,,,wg-a,,,,AAXX 29064 07005 12565 62210 10130 20110 30005 40097 52019 60024 86800 90600 333 10156 20128=
07005,1997-08-29 12:00:00,18,1013,1.5,59,10,20000,38.892,,,270,,,,0,,,,,,3,wg-a,,,,AAXX 29124 07005 02570 62721 10180 20100 30040 40130 51015 60016 70386 85201 91200 333 60007=
07005,1997-08-29 18:00:00,17,1015.3,0.9,72,12,20000,14.816,,,260,13,18.7,,,,,,,,2,wg-a,,,,AAXX 29184 07005 32570 62608 10170 20120 30062 40153 53009 70286 84832 91800 333 10187 20130=
07005,1997-08-30 00:00:00,15,1013.7,-1.2,88,13,0,14.816,,,150,,,,,,,,,,,wg-a,,,,AAXX 30004 07005 12/// /1508 10150 20130 30045 40137 58012 60016 90000=
07005,1997-08-30 06:00:00,16,1009.5,-1.1,94,15,20000,18.52,,,170,14.6,16.8,,0,,,5,,,21,wg-a,,,,AAXX 30064 07005 02370 81710 10160 20150 30004 40095 56011 60054 72162 875// 90600 333 10168 20146 60007=
07005,1997-08-30 12:00:00,20,1011.2,1.2,83,17,25000,35.188,,,270,,,,,,,,,,25,wg-a,,,,AAXX 30124 07005 02475 62719 10200 20170 30022 40112 53012 60036 72586 86800 91200 333 61000=
07005,1997-08-30 18:00:00,17,1016.1,1.9,82,14,0,29.632,,,270,15.4,21.7,,,,,,,,,wg-a,,,,AAXX 30184 07005 32/// /2716 10170 20140 30070 40161 53019 91800 333 10217 20154=
07005,1997-08-31 00:00:00,15,1017.6,0.3,94,14,0,7.408,,,150,,,,,,,,,,,wg-a,,,,AAXX 31004 07005 12/// /1504 10150 20140 30084 40176 53003 60006 90000=
07005,1997-08-31 06:00:00,15,1015.9,-1.1,94,14,20000,18.52,,,130,13.9,16.9,,,,,3,,,,wg-a,,,,AAXX 31064 07005 02/70 71310 10150 20140 30067 40159 56011 60006 8703/ 90600 333 10169 20139 60034=
07005,1997-08-31 12:00:00,24,1012,-2.7,69,18,0,29.632,,,140,,,,,,,,,,,wg-a,,,,AAXX 31124 07005 12/// /1416 10240 20180 30032 40120 56027 60006 91200=
07005,1997-08-31 18:00:00,22,1011.6,0.5,78,18,0,14.816,,,300,14.9,27.6,,,,,,,,,wg-a,,,,AAXX 31184 07005 12/// /3008 10220 20180 30027 40116 53005 60006 91800 333 10276 20149=
07005,1997-09-01 00:00:00,16,1015.2,1.2,94,15,0,7.408,,,260,,,,,,,,,,,wg-a,,,,AAXX 01004 07005 12/// /2604 10160 20150 30061 40152 51012 60006 90000=
07005,1997-09-01 06:00:00,15,1017.7,1.4,88,13,15000,11.112,,,230,13.7,22.3,,,,,,,,,wg-a,,,,AAXX 01064 07005 02565 72306 10150 20130 30085 40177 51014 60006 878// 90600 333 10223 20137 60004=
07005,1997-09-01 12:00:00,19,1019.3,0.3,68,13,500,14.816,,,290,,,,,,,,,,,wg-a,,,,AAXX 01124 07005 12500 72908 10190 20130 30102 40193 53003 60006 868/2 91200=
07005,1997-09-01 18:00:00,16,1019.4,0.3,82,13,500,3.704,,,320,14.8,18.7,,,,,,,,,wg-a,,,,AAXX 01184 07005 12700 83202 10160 20130 30102 40194 53003 60006 8457/ 91800 333 10187 20148=
07005,1997-09-02 00:00:00,14,1020.2,-0,88,12,0,7.408,,,210,,,,,,,,,,,wg-a,,,,AAXX 02004 07005 12/// /2104 10140 20120 30110 40202 55000 60006 90000=
07005,1997-09-02 06:00:00,11,1020.9,0.7,100,11,15000,11.112,,,220,11,16.3,,0,,,,,,,wg-a,,,,AAXX 02064 07005 02565 22206 10110 20110 30116 40209 53007 60004 81101 90600 333 10163 20110 60007=
07005,1997-09-02 12:00:00,20,1022.2,0.6,60,12,35000,14.816,,,280,,,,,,,,,,,wg-a,,,,AAXX 02124 07005 12481 52808 10200 20120 30131 40222 52006 60006 83202 91200=
07005,1997-09-02 18:00:00,17,1022.4,0.1,72,12,0,11.112,,,300,11.3,20.1,,,,,,,,,wg-a,,,,AAXX 02184 07005 12/// /3006 10170 20120 30132 40224 53001 60006 91800 333 10201 20113=
07005,1997-09-03 00:00:00,11,1023,-0.4,94,10,0,14.816,,,140,,,,,,,,,,,wg-a,,,,AAXX 03004 07005 12/// /1408 10110 20100 30136 40230 58004 60006 90000=
07005,1997-09-03 06:00:00,11,1022,-0.2,87,9,20000,14.816,,,160,10.1,17,,,,,,,,,wg-a,,,,AAXX 03064 07005 12/70 21608 10110 20090 30126 40220 55002 60004 80002 90600 333 10170 20101=
07005,1997-09-03 12:00:00,22,1020.1,-1.2,57,13,40000,14.816,,,210,,,,,,,,,,,wg-a,,,,AAXX 03124 07005 12582 52108 10220 20130 30111 40201 57012 60006 81132 91200=
07005,1997-09-03 18:00:00,21,1018.5,-0.6,60,13,500,11.112,,,170,11,22.7,,,,,,,,,wg-a,,,,AAXX 03184 07005 12/00 81706 10210 20130 30095 40185 58006 60006 8707/ 91800 333 10227 20110=
07005,1997-09-04 00:00:00,17,1018.6,-0.2,77,13,0,11.112,,,180,,,,,,,,,,,wg-a,,,,AAXX 04004 07005 12/// /1806 10170 20130 30095 40186 58002 60006 90000=
07005,1997-09-04 06:00:00,16,1018.5,0.3,82,13,15000,11.112,,,200,15.4,20.5,,,,,,,,1,wg-a,,,,AAXX 04064 07005 02665 72006 10160 20130 30093 40185 53003 61000 70162 878// 90600 333 10205 20154 ////=
07005,1997-09-04 12:00:00,19,1019.2,0.1,88,17,20000,14.816,,,240,,,,0,,,,,,3,wg-a,,,,AAXX 04124 07005 02370 82408 10190 20170 30102 40192 50001 60006 70365 878// 91200 333 60007=
07005,1997-09-04 18:00:00,15,1020,0.5,94,14,20000,7.408,,,230,15.3,19.3,,0,,,,,,21,wg-a,,,,AAXX 04184 07005 12470 72304 10150 20140 30108 40200 51005 60007 72165 878// 91800 333 10193 20153=
07005,1997-09-05 00:00:00,12,1020.8,-0.1,88,10,0,11.112,,,290,,,,,,,,,,,wg-a,,,,AAXX 05004 07005 12/// /2906 10120 20100 30115 40208 56001 60006 90000=
07005,1997-09-05 06:00:00,11,1020.3,-0.2,94,10,15000,7.408,,,170,10.3,15.5,,0,,,1,,,,wg-a,,,,AAXX 05064 07005 02365 61704 10110 20100 30110 40203 56002 60014 81132 90600 333 10155 20103 60007=
07005,1997-09-05 12:00:00,18,1020.7,-0.4,73,13,20000,11.112,,,270,,,,,,,,,,,wg-a,,,,AAXX 05124 07005 12570 72706 10180 20130 30116 40207 56004 60006 8521/ 91200=
07005,1997-09-05 18:00:00,16,1021.3,0.4,77,12,20000,14.816,,,290,11,18.2,,,,,,,,,wg-a,,,,AAXX 05184 07005 12570 52908 10160 20120 30121 40213 53004 60006 83832 91800 333 10182 20110=
07005,1997-09-06 00:00:00,11,1022.6,0.2,94,10,0,11.112,,,230,,,,,,,,,,,wg-a,,,,AAXX 06004 07005 12/// /2306 10110 20100 30132 40226 52002 60006 90000=
07005,1997-09-06 06:00:00,11,1023.7,1,94,10,20000,7.408,,,210,10,16.1,,,,,,,,,wg-a,,,,AAXX 06064 07005 12470 22104 10110 20100 30143 40237 53010 60004 82200 90600 333 10161 20100=
07005,1997-09-06 12:00:00,18,1025.3,0.4,68,12,40000,18.52,,,300,,,,,,,,,,,wg-a,,,,AAXX 06124 07005 12682 53010 10180 20120 30161 40253 52004 60006 85200 91200=
07005,1997-09-06 18:00:00,16,1025.1,-0.1,77,12,0,14.816,,,270,10.6,18.9,,,,,,,,,wg-a,,,,AAXX 06184 07005 12/// /2708 10160 20120 30159 40251 57001 60006 91800 333 10189 20106=
07005,1997-09-07 00:00:00,12,1024.8,-0.5,94,11,0,14.816,,,230,,,,,,,,,,,wg-a,,,,AAXX 07004 07005 12/// /2308 10120 20110 30155 40248 58005 60006 90000=
07005,1997-09-07 06:00:00,14,1024.9,0.4,94,13,15000,7.408,,,210,11.9,15.9,,0,,,,,,21,wg-a,,,,AAXX 07064 07005 02465 82104 10140 20130 30156 40249 53004 60004 72162 875// 90600 333 10159 20119 60007=
07005,1997-09-07 12:00:00,19,1026.5,0.3,68,13,25000,18.52,,,290,,,,,,,,,,1,wg-a,,,,AAXX 07124 07005 12575 52910 10190 20130 30174 40265 50003 60016 70162 85200 91200=
07005,1997-09-07 18:00:00,17,1028,0.4,82,14,0,11.112,,,280,13.8,19.5,,,,,,,,,wg-a,,,,AAXX 07184 07005 32/// /2806 10170 20140 30188 40280 51004 91800 333 10195 20138=
07005,1997-09-08 00:00:00,12,1028.9,-0.2,100,12,0,7.408,,,220,,,,,,,,,,,wg-a,,,,AAXX 08004 07005 12/// /2204 10120 20120 30195 40289 58002 60006 90000=
07005,1997-09-08 06:00:00,13,1027.8,-0.3,94,12,2500,11.112,,,250,11.3,16.6,,0,,,1,,,10,wg-a,,,,AAXX 08064 07005 02425 22506 10130 20120 30184 40278 58003 60014 71011 81501 90600 333 10166 20113 60007=
07005,1997-09-08 12:00:00,19,1027.2,-0.5,73,14,25000,25.928,,,280,,,,,,,,,,1,wg-a,,,,AAXX 08124 07005 12475 62814 10190 20140 30181 40272 58005 60006 70141 86200 91200=
07005,1997-09-08 18:00:00,15,1026.2,-0.4,82,12,25000,18.52,,,290,12.5,19.7,,,,,,,,,wg-a,,,,AAXX 08184 07005 12575 12910 10150 20120 30169 40262 57004 60006 81500 91800 333 10197 20125=
07005,1997-09-09 06:00:00,12,1024.5,-0,100,12,9000,7.408,,,340,11.6,15.2,,,,,,,,,wg-a,,,,AAXX 09064 07005 02559 73404 10120 20120 30152 40245 55000 60006 875// 90600 333 10152 20116 60004=
07005,1997-09-09 12:00:00,17,1025.4,0.2,72,12,20000,18.52,,,310,,,,,,,,,,,wg-a,,,,AAXX 09124 07005 12570 63110 10170 20120 30162 40254 52002 60006 86200 91200=
07005,1997-09-09 18:00:00,16,1025.5,0.4,68,10,20000,14.816,,,30,12.4,18.3,,,,,,,,,wg-a,,,,AAXX 09184 07005 12570 10308 10160 20100 30163 40255 53004 60006 81400 91800 333 10183 20124=
07005,1997-09-10 00:00:00,9,1027.6,0.3,93,8,0,11.112,,,20,,,,,,,,,,,wg-a,,,,AAXX 10004 07005 12/// /0206 10090 20080 30181 40276 51003 60006 90000=
07005,1997-09-10 06:00:00,7,1027.3,0.2,93,6,500,7.408,,,100,6.9,15.5,,,,,,,,,wg-a,,,,AAXX 10064 07005 12/00 11004 10070 20060 30177 40273 53002 60004 80001 90600 333 10155 20069=
07005,1997-09-10 12:00:00,18,1025.5,-1.3,52,8,15000,14.816,,,90,,,,,,,,,,,wg-a,,,,AAXX 10124 07005 12565 30908 10180 20080 30163 40255 58013 60006 81101 91200=
07005,1997-09-10 18:00:00,17,1022.2,-1.5,63,10,15000,11.112,,,100,6.9,19.7,,,,,,,,,wg-a,,,,AAXX 10184 07005 12/65 11006 10170 20100 30130 40222 56015 60006 80001 91800 333 10197 20069=
07005,1997-09-11 00:00:00,11,1020.3,-1.7,82,8,0,11.112,,,110,,,,,,,,,,,wg-a,,,,AAXX 11004 07005 12/// /1106 10110 20080 30109 40203 56017 60006 90000=
07005,1997-09-11 06:00:00,8,1016,-1.8,93,7,8000,11.112,,,130,8.1,16.5,,,,,,,,,wg-a,,,,AAXX 11064 07005 02/58 61306 10080 20070 30066 40160 56018 60006 82031 90600 333 10165 20081 60004=
07005,1997-09-11 12:00:00,21,1010.9,-3.3,53,11,15000,18.52,,,180,,,,,,,,,,,wg-a,,,,AAXX 11124 07005 12/65 61810 10210 20110 30019 40109 58033 60006 81032 91200=
07005,1997-09-11 18:00:00,18,1008.6,-0.5,73,13,15000,11.112,,,290,8.5,23.6,,,,,,,,,wg-a,,,,AAXX 11184 07005 12/65 52906 10180 20130 39996 40086 55005 60006 80001 91800 333 10236 20085=
07005,1997-09-12 00:00:00,17,1008.6,0.1,82,14,0,25.928,,,270,,,,,,,,,,,wg-a,,,,AAXX 12004 07005 12/// /2714 10170 20140 39996 40086 53001 60006 90000=
07005,1997-09-12 06:00:00,15,1009.1,0.2,88,13,15000,18.52,,,240,14.6,18,,,,,,,,1,wg-a,,,,AAXX 12064 07005 02565 72410 10150 20130 30000 40091 53002 61000 70162 8587/ 90600 333 10180 20146 6100=
07005,1997-09-12 12:00:00,19,1008.7,-0.8,68,13,15000,25.928,,,230,,,,,,,,,,3,wg-a,,,,AAXX 12124 07005 12565 72314 10190 20130 39997 40087 56008 60006 70386 8681/ 91200=
07005,1997-09-12 18:00:00,15,1007.6,0.2,94,14,15000,18.52,,,270,14.5,18.8,,1,,,,,,25,wg-a,,,,AAXX 12184 07005 12465 72710 10150 20140 39985 40076 53002 60017 72586 878// 91800 333 10188 20145=
07005,1997-09-13 00:00:00,13,1009.9,1.2,72,8,0,22.224,,,290,,,,,,,,,,,wg-a,,,,AAXX 13004 07005 12/// /2912 10130 20080 30007 40099 52012 60006 90000=
07005,1997-09-13 06:00:00,10,1012.2,1.3,93,9,20000,14.816,,,230,9.3,14.8,,1,,,2,,,25,wg-a,,,,AAXX 13064 07005 02470 72308 10100 20090 30029 40122 53013 60024 72586 879// 90600 333 10148 20093 60017=
07005,1997-09-13 12:00:00,16,1018.1,2.6,51,6,40000,22.224,,,290,,,,,,,,,,1,wg-a,,,,AAXX 13124 07005 12582 42912 10160 20060 30089 40181 51026 60006 70191 84200 91200=
07005,1997-09-13 18:00:00,13,1021,1.5,67,7,0,14.816,,,270,10.1,15.9,,,,,,,,,wg-a,,,,AAXX 13184 07005 12/// /2708 10130 20070 30117 40210 51015 60006 91800 333 10159 20101=
07005,1997-09-14 00:00:00,9,1023.5,0.8,93,8,0,11.112,,,240,,,,,,,,,,,wg-a,,,,AAXX 14004 07005 12/// /2406 10090 20080 30141 40235 52008 60016 90000=
07005,1997-09-14 06:00:00,7,1025.5,1.3,93,6,25000,11.112,,,180,6.8,12.7,,,,,,,,,wg-a,,,,AAXX 14064 07005 12475 61806 10070 20060 30160 40255 53013 60004 81202 90600 333 10127 20068=
07005,1997-09-14 12:00:00,17,1027.1,0.5,52,7,40000,22.224,,,300,,,,,,,,,,,wg-a,,,,AAXX 14124 07005 12582 23012 10170 20070 30179 40271 51005 60006 82202 91200=
07005,1997-09-14 18:00:00,14,1027.2,0.5,77,10,0,7.408,,,300,6.8,17.7,,,,,,,,,wg-a,,,,AAXX 14184 07005 32/// /3004 10140 20100 30179 40272 53005 91800 333 10177 20068=
07005,1997-09-15 00:00:00,8,1027.5,-0.3,100,8,0,11.112,,,160,,,,,,,,,,,wg-a,,,,AAXX 15004 07005 12/// /1606 10080 20080 30180 40275 58003 60006 90000=
07005,1997-09-15 06:00:00,6,1026.7,-0.1,100,6,500,11.112,,,140,6.3,14.2,,0,,,,,,,wg-a,,,,AAXX 15064 07005 02/00 41406 10060 20060 30171 40267 55001 60004 80002 90600 333 10142 20063 60007=
07005,1997-09-15 12:00:00,18,1026.4,-0.5,52,8,0,14.816,,,190,,,,,,,,,,,wg-a,,,,AAXX 15124 07005 12/// /1908 10180 20080 30172 40264 58005 60006 91200=
07005,1997-09-15 18:00:00,15,1024.4,-0.8,72,10,25000,11.112,,,340,6.4,18.9,,,,,,,,,wg-a,,,,AAXX 15184 07005 12/75 73406 10150 20100 30151 40244 56008 60006 86032 91800 333 10189 20064=
07005,1997-09-16 00:00:00,10,1025,-0,93,9,0,7.408,,,170,,,,,,,,,,,wg-a,,,,AAXX 16004 07005 12/// /1704 10100 20090 30156 40250 55000 60006 90000=
07005,1997-09-16 06:00:00,8,1023.1,-0.5,93,7,0,14.816,,,150,6.7,14.7,,0,,,,,,,wg-a,,,,AAXX 16064 07005 02/// /1508 10080 20070 30136 40231 55005 60004 90600 333 10147 20067 60007=
07005,1997-09-16 12:00:00,22,1020.5,-1.9,38,7,20000,18.52,,,210,,,,,,,,,,,wg-a,,,,AAXX 16124 07005 12/70 32110 10220 20070 30115 40205 58019 60006 80004 91200=
07005,1997-09-16 18:00:00,19,1018.4,-0.6,56,10,500,7.408,,,200,7.6,23.2,,,,,,,,,wg-a,,,,AAXX 16184 07005 12/00 72004 10190 20100 30093 40184 56006 60006 80006 91800 333 10232 20076=
07005,1997-09-17 00:00:00,13,1019.4,0.1,82,10,0,7.408,,,190,,,,,,,,,,,wg-a,,,,AAXX 17004 07005 12/// /1904 10130 20100 30101 40194 51001 60006 90000=
07005,1997-09-17 06:00:00,10,1021.1,1.3,87,8,10000,11.112,,,140,9.8,19.1,,,,,,,,,wg-a,,,,AAXX 17064 07005 02/60 71406 10100 20080 30117 40211 53013 60006 81032 90600 333 10191 20098 60004=
07005,1997-09-17 12:00:00,23,1022,-0.1,47,11,15000,0,,,0,,,,,,,,,,,wg-a,,,,AAXX 17124 07005 12/65 30000 10230 20110 30130 40220 58001 60006 80002 91200=
07005,1997-09-17 18:00:00,20,1022,0.3,64,13,15000,11.112,,,320,9.8,25.3,,,,,,,,,wg-a,,,,AAXX 17184 07005 12/65 23206 10200 20130 30129 40220 53003 60006 81032 91800 333 10253 20098=
07005,1997-09-18 00:00:00,13,1022.8,-0.2,94,12,0,0,,,0,,,,,,,,,,,wg-a,,,,AAXX 18004 07005 12/// /0000 10130 20120 30135 40228 56002 60006 90000=
07005,1997-09-18 06:00:00,11,1022.8,0.4,94,10,2500,11.112,,,140,10.8,19.4,,,,,,,,10,wg-a,,,,AAXX 18064 07005 02/25 21406 10110 20100 30134 40228 53004 60006 71000 80002 90600 333 10194 20108 60004=
07005,1997-09-18 12:00:00,26,1022.3,-0.5,54,16,0,11.112,,,280,,,,,,,,,,,wg-a,,,,AAXX 18124 07005 12/// /2806 10260 20160 30134 40223 58005 60006 91200=
07005,1997-09-18 18:00:00,19,1022.1,0.2,78,15,12000,7.408,,,340,10.9,26.4,,,,,,,,,wg-a,,,,AAXX 18184 07005 12762 23404 10190 20150 30130 40221 53002 60006 81201 91800 333 10264 20109=
07005,1997-09-19 00:00:00,15,1022.7,-0.1,88,13,0,0,,,0,,,,,,,,,,,wg-a,,,,AAXX 19004 07005 12/// /0000 10150 20130 30135 40227 57001 60006 90000=
07005,1997-09-19 06:00:00,13,1023.6,0.7,94,12,1500,11.112,,,90,12.6,19.4,,,,,,,,10,wg-a,,,,AAXX 19064 07005 02/15 10906 10130 20120 30143 40236 53007 60006 71011 81031 90600 333 10194 20126 60004=
07005,1997-09-19 12:00:00,21,1024.5,0.1,73,16,1800,22.224,,,60,,,,,,,,,,10,wg-a,,,,AAXX 19124 07005 12/18 60612 10210 20160 30155 40245 50001 60006 71011 86030 91200=
07005,1997-09-20 00:00:00,15,1027,0.2,67,9,0,22.224,,,90,,,,,,,,,,,wg-a,,,,AAXX 20004 07005 12/// /0912 10150 20090 30177 40270 50002 60006 90000=
07005,1997-09-20 06:00:00,10,1027.4,0.4,82,7,15000,22.224,,,90,10.2,16.9,,,,,,,,,wg-a,,,,AAXX 20064 07005 02/65 30912 10100 20070 30180 40274 53004 60006 83030 90600 333 10169 20102 60004=
07005,1997-09-20 12:00:00,18,1027.1,-1,45,6,20000,22.224,,,80,,,,,,,,,,,wg-a,,,,AAXX 20124 07005 12/70 20812 10180 20060 30179 40271 56010 60006 81032 91200=
07005,1997-09-20 18:00:00,14,1025.9,-0.1,55,5,0,14.816,,,60,10.2,19,,,,,,,,,wg-a,,,,AAXX 20184 07005 12/// /0608 10140 20050 30166 40259 55001 60006 91800 333 10190 20102=
07005,1997-09-21 00:00:00,9,1026.4,-0.2,76,5,0,14.816,,,80,,,,,,,,,,,wg-a,,,,AAXX 21004 07005 12/// /0808 10090 20050 30169 40264 56002 60006 90000=
07005,1997-09-21 06:00:00,6,1025.5,-0.4,87,4,15000,14.816,,,80,5.6,14.3,,,,,,,,,wg-a,,,,AAXX 21064 07005 02/65 60808 10060 20040 30159 40255 55004 60006 83032 90600 333 10143 20056 60004=
07005,1997-09-21 12:00:00,18,1024.4,-0.8,39,4,500,18.52,,,90,,,,,,,,,,,wg-a,,,,AAXX 21124 07005 12/00 60910 10180 20040 30152 40244 57008 60006 80002 91200=
07005,1997-09-21 18:00:00,15,1023.4,0.1,55,6,0,11.112,,,50,5.7,19.5,,,,,,,,,wg-a,,,,AAXX 21184 07005 12/// /0506 10150 20060 30141 40234 53001 60006 91800 333 10195 20057=
07005,1997-09-22 00:00:00,8,1024.2,0,81,5,0,11.112,,,80,,,,,,,,,,,wg-a,,,,AAXX 22004 07005 12/// /0806 10080 20050 30147 40242 50000 60006 90000=
07005,1997-09-22 06:00:00,5,1024.4,0.3,93,4,6000,11.112,,,80,4.5,14.4,,,,,,,,,wg-a,,,,AAXX 22064 07005 02/56 10806 10050 20040 30148 40244 53003 60006 80001 90600 333 10144 20045 60004=
07005,1997-09-22 12:00:00,20,1023.9,-0.5,40,6,20000,11.112,,,90,,,,,,,,,,,wg-a,,,,AAXX 22124 07005 12/70 10906 10200 20060 30148 40239 57005 60006 80001 91200=
07005,1997-09-22 18:00:00,16,1023.2,-0,55,7,20000,11.112,,,30,4.6,21,,,,,,,,,wg-a,,,,AAXX 22184 07005 12/70 00306 10160 20070 30140 40232 55000 60006 80000 91800 333 10210 20046=
07005,1997-09-23 00:00:00,10,1024.7,-0.1,82,7,0,14.816,,,70,,,,,,,,,,,wg-a,,,,AAXX 23004 07005 12/// /0708 10100 20070 30153 40247 58001 60006 90000=
07005,1997-09-23 06:00:00,7,1024.6,0.2,93,6,7000,11.112,,,90,6.9,15.6,,,,,,,,,wg-a,,,,AAXX 23064 07005 02/57 00906 10070 20060 30151 40246 53002 60006 80000 90600 333 10156 20069 60004=
07005,1997-09-23 12:00:00,21,1024.5,-0.7,43,8,12000,22.224,,,80,,,,,,,,,,,wg-a,,,,AAXX 23124 07005 12/62 00812 10210 20080 30154 40245 56007 60006 80000 91200=
07005,1997-09-23 18:00:00,17,1024.5,0.6,63,10,12000,14.816,,,50,7,21.5,,,,,,,,,wg-a,,,,AAXX 23184 07005 12/62 00508 10170 20100 30153 40245 53006 60006 80000 91800 333 10215 20070=
07005,1997-09-24 00:00:00,9,1026.3,0.3,93,8,0,11.112,,,80,,,,,,,,,,,wg-a,,,,AAXX 24004 07005 12/// /0806 10090 20080 30168 40263 50003 60006 90000=
07005,1997-09-24 06:00:00,7,1026.6,0.3,100,7,1600,11.112,,,70,6.3,16.6,,,,,,,,10,wg-a,,,,AAXX 24064 07005 02/16 20706 10070 20070 30171 40266 53003 60006 71000 80002 90600 333 10166 20063 60004=
07005,1997-09-24 12:00:00,18,1025.9,-0.8,59,10,10000,25.928,,,60,,,,,,,,,,,wg-a,,,,AAXX 24124 07005 12/60 30614 10180 20100 30167 40259 58008 60006 80002 91200=
07005,1997-09-24 18:00:00,14,1024.7,-0.2,77,10,10000,14.816,,,70,6.9,18.4,,,,,,,,,wg-a,,,,AAXX 24184 07005 32/60 20708 10140 20100 30154 40247 55002 80002 91800 333 10184 20069=
07005,1997-09-25 00:00:00,10,1025,-0.2,93,9,0,14.816,,,70,,,,,,,,,,,wg-a,,,,AAXX 25004 07005 12/// /0708 10100 20090 30156 40250 58002 60006 90000=
07005,1997-09-25 06:00:00,8,1025.5,0.4,93,7,2500,14.816,,,80,7.4,14.1,,,,,,,,10,wg-a,,,,AAXX 25064 07005 02/25 10808 10080 20070 30160 40255 53004 60006 71000 80002 90600 333 10141 20074 60004=
07005,1997-09-25 12:00:00,19,1025.6,-0.2,56,10,10000,11.112,,,80,,,,,,,,,,,wg-a,,,,AAXX 25124 07005 12/60 00806 10190 20100 30165 40256 58002 60006 80000 91200=
07005,1997-09-26 00:00:00,10,1026,-0.3,93,9,0,3.704,,,10,,,,,,,,,,,wg-a,,,,AAXX 26004 07005 12/// /0102 10100 20090 30166 40260 56003 60006 90000=
07005,1997-09-26 06:00:00,8,1025.4,-0,93,7,2500,3.704,,,130,7.9,16.3,,,,,,,,10,wg-a,,,,AAXX 26064 07005 02/25 01302 10080 20070 30159 40254 55000 60006 71000 80000 90600 333 10163 20079 60004=
07005,1997-09-26 12:00:00,22,1023.6,-1.3,46,10,20000,18.52,,,70,,,,,,,,,,,wg-a,,,,AAXX 26124 07005 12/70 00710 10220 20100 30146 40236 58013 60006 80000 91200=
07005,1997-09-26 18:00:00,19,1021.2,-0.5,56,10,20000,11.112,,,60,8.2,24.2,,,,,,,,,wg-a,,,,AAXX 26184 07005 12/70 00606 10190 20100 30121 40212 55005 60006 80000 91800 333 10242 20082=
07005,1997-09-27 00:00:00,12,1020.3,-0.8,88,10,0,14.816,,,60,,,,,,,,,,,wg-a,,,,AAXX 27004 07005 12/// /0608 10120 20100 30110 40203 56008 60006 90000=
07005,1997-09-27 06:00:00,9,1018.7,-0.5,93,8,4000,11.112,,,80,8.6,19,,0,,,,,,10,wg-a,,,,AAXX 27064 07005 02/40 10806 10090 20080 30093 40187 55005 60004 71000 80001 90600 333 10190 20086 60007=
07005,1997-09-27 12:00:00,23,1017,-0.8,47,11,6000,7.408,,,50,,,,,,,,,,,wg-a,,,,AAXX 27124 07005 12/56 10504 10230 20110 30080 40170 58008 60006 80001 91200=
07005,1997-09-27 18:00:00,18,1015.6,-0,68,12,0,18.52,,,70,8.9,24.1,,,,,,,,,wg-a,,,,AAXX 27184 07005 12/// /0710 10180 20120 30065 40156 55000 60006 91800 333 10241 20089=
07005,1997-09-28 00:00:00,11,1016.2,-0.3,100,11,0,14.816,,,80,,,,,,,,,,,wg-a,,,,AAXX 28004 07005 12/// /0808 10110 20110 30069 40162 58003 60006 90000=
07005,1997-09-28 06:00:00,10,1016.2,-0,100,10,100,14.816,,,80,9.8,17.7,,,,,,,,47,wg-a,,,,AAXX 28064 07005 02/01 90808 10100 20100 30069 40162 55000 60006 74742 89/// 90600 333 10177 20098 60004=
07005,1997-09-28 12:00:00,17,1016.2,-0.5,68,11,2800,7.408,,,120,,,,,,,,,,10,wg-a,,,,AAXX 28124 07005 12/28 11204 10170 20110 30071 40162 58005 60006 71041 81030 91200=
07005,1997-09-28 18:00:00,17,1016.3,0.7,63,10,0,7.408,,,50,9.6,21,,,,,,,,,wg-a,,,,AAXX 28184 07005 12/// /0504 10170 20100 30072 40163 53007 60006 91800 333 10210 20096=
07005,1997-09-29 00:00:00,10,1018.3,0.5,87,8,0,11.112,,,100,,,,,,,,,,,wg-a,,,,AAXX 29004 07005 12/// /1006 10100 20080 30089 40183 51005 60006 90000=
07005,1997-09-29 06:00:00,9,1020.2,1.5,93,8,1600,7.408,,,150,8.2,16.4,,,,,,,,10,wg-a,,,,AAXX 29064 07005 02/16 41504 10090 20080 30108 40202 53015 60006 71000 80002 90600 333 10164 20082 60004=
07005,1997-09-29 12:00:00,18,1022.3,1.1,83,15,2000,7.408,,,320,,,,,,,,,,10,wg-a,,,,AAXX 29124 07005 12/20 73204 10180 20150 30132 40223 51011 60006 71041 83032 91200=
07005,1997-09-29 18:00:00,15,1023.2,0.9,94,14,2000,7.408,,,330,8.5,19.5,,,,,,,,10,wg-a,,,,AAXX 29184 07005 12/20 73304 10150 20140 30140 40232 52009 60006 71022 82032 91800 333 10195 20085=
07005,1997-09-30 00:00:00,13,1024.2,0.2,100,13,0,3.704,,,170,,,,,,,,,,,wg-a,,,,AAXX 30004 07005 12/// /1702 10130 20130 30149 40242 53002 60006 90000=
07005,1997-09-30 06:00:00,13,1024.7,0.2,100,13,600,7.408,,,220,12.2,15.1,,,,,,,,46,wg-a,,,,AAXX 30064 07005 12106 82204 10130 20130 30154 40247 53002 60004 74642 886// 90600 333 10151 20122=
07005,1997-09-30 12:00:00,20,1025.1,-0.6,68,14,4000,14.816,,,310,,,,,,,,,,10,wg-a,,,,AAXX 30124 07005 12/40 03108 10200 20140 30160 40251 58006 60006 71041 80000 91200=
07005,1997-09-30 18:00:00,16,1024.4,0,88,14,0,14.816,,,300,13.4,20.5,,,,,,,,,wg-a,,,,AAXX 30184 07005 12/// /3008 10160 20140 30152 40244 50000 60006 91800 333 10205 20134=
07005,1997-10-01 00:00:00,15,1023.7,-0.6,100,15,0,11.112,,,280,,,,,,,,,,,wg-a,,,,AAXX 01004 07005 12/// /2806 10150 20150 30145 40237 56006 60006 90000=
07005,1997-10-01 06:00:00,16,1022.2,-0.6,100,16,200,14.816,,,270,14.3,16,,0,,,,,,47,wg-a,,,,AAXX 01064 07005 02/02 92708 10160 20160 30130 40222 56006 60004 74742 89/// 90600 333 10160 20143 60007=
07005,1997-10-01 12:00:00,18,1021.6,-0.3,88,16,10000,22.224,,,280,,,,,,,,,,1,wg-a,,,,AAXX 01124 07005 12460 72812 10180 20160 30125 40216 57003 60006 70142 875// 91200=
07005,1997-10-01 18:00:00,17,1019,-1.1,94,16,12000,25.928,,,270,15.8,19.6,,,,,,,,,wg-a,,,,AAXX 01184 07005 12462 32714 10170 20160 30099 40190 55011 60006 83130 91800 333 10196 20158=
07005,1997-10-02 00:00:00,16,1017.7,-0.7,100,16,0,18.52,,,290,,,,,,,,,,,wg-a,,,,AAXX 02004 07005 12/// /2910 10160 20160 30086 40177 58007 60006 90000=
07005,1997-10-02 06:00:00,14,1018.1,0.7,94,13,15000,18.52,,,340,14.3,17.2,,,,,,,,,wg-a,,,,AAXX 02064 07005 02565 43410 10140 20130 30089 40181 52007 60006 83501 90600 333 10172 20143 60004=
07005,1997-10-02 12:00:00,18,1019.3,0.5,64,11,0,18.52,,,320,,,,,,,,,,,wg-a,,,,AAXX 02124 07005 12/// /3210 10180 20110 30102 40193 51005 60006 91200=
07005,1997-10-02 18:00:00,13,1020.3,0.7,88,11,20000,11.112,,,320,13.3,18.1,,,,,,,,,wg-a,,,,AAXX 02184 07005 12/70 03206 10130 20110 30110 40203 53007 60006 80000 91800 333 10181 20133=
07005,1997-10-03 00:00:00,9,1021.7,0.4,81,6,0,7.408,,,130,,,,,,,,,,,wg-a,,,,AAXX 03004 07005 12/// /1304 10090 20060 30123 40217 50004 60006 90000=
07005,1997-10-03 06:00:00,9,1022.3,0.3,87,7,3000,7.408,,,180,7.6,13.2,,,,,,,,10,wg-a,,,,AAXX 03064 07005 02530 71804 10090 20070 30129 40223 53003 60006 71022 875// 90600 333 10132 20076 60004=
07005,1997-10-03 12:00:00,15,1022.6,-0.1,63,8,12000,11.112,,,190,,,,,,,,,,,wg-a,,,,AAXX 03124 07005 12562 81906 10150 20080 30134 40226 58001 60006 885// 91200=
07005,1997-10-03 18:00:00,15,1021.8,0.1,72,10,12000,7.408,,,280,8.6,16.2,,,,,,,,,wg-a,,,,AAXX 03184 07005 12662 62804 10150 20100 30126 40218 53001 60006 86500 91800 333 10162 20086=
07005,1997-10-04 00:00:00,12,1022.5,-0.1,88,10,0,7.408,,,230,,,,,,,,,,,wg-a,,,,AAXX 04004 07005 12/// /2304 10120 20100 30132 40225 58001 60006 90000=
07005,1997-10-04 06:00:00,11,1022.5,-0.2,94,10,6000,11.112,,,190,10.1,14.8,,,,,,,,,wg-a,,,,AAXX 04064 07005 02656 71906 10110 20100 30131 40225 55002 60006 875// 90600 333 10148 20101 60004=
07005,1997-10-04 12:00:00,19,1022.5,-0.8,60,11,20000,22.224,,,290,,,,,,,,,,,wg-a,,,,AAXX 04124 07005 12570 52912 10190 20110 30134 40225 56008 60006 85200 91200=
07005,1997-10-04 18:00:00,14,1021.5,-0.2,77,10,0,7.408,,,270,11.3,19.2,,,,,,,,,wg-a,,,,AAXX 04184 07005 12/// /2704 10140 20100 30122 40215 57002 60006 91800 333 10192 20113=
07005,1997-10-05 00:00:00,11,1020.1,-1,100,11,0,11.112,,,200,,,,,,,,,,,wg-a,,,,AAXX 05004 07005 12/// /2006 10110 20110 30108 40201 57010 60006 90000=
07005,1997-10-05 06:00:00,12,1017.7,-1.1,94,11,7000,11.112,,,190,10.4,14.1,,,,,,,,,wg-a,,,,AAXX 05064 07005 12557 81906 10120 20110 30084 40177 56011 60004 885// 90600 333 10141 20104=
07005,1997-10-05 12:00:00,17,1016.8,-0.9,68,11,15000,11.112,,,250,,,,,,,,,,,wg-a,,,,AAXX 05124 07005 12665 72506 10170 20110 30077 40168 58009 60006 875// 91200=
07005,1997-10-05 18:00:00,14,1013.9,-1.2,82,11,0,7.408,,,70,11.9,17.3,,,,,,,,,wg-a,,,,AAXX 05184 07005 12/// /0704 10140 20110 30047 40139 56012 60006 91800 333 10173 20119=
07005,1997-10-06 00:00:00,9,1011.1,-2.1,93,8,0,11.112,,,120,,,,,,,,,,,wg-a,,,,AAXX 06004 07005 12/// /1206 10090 20080 30018 40111 58021 60006 90000=
07005,1997-10-06 06:00:00,9,1007.1,-2.3,93,8,2500,18.52,,,170,8.2,13.8,,,,,,,,10,wg-a,,,,AAXX 06064 07005 02/25 61710 10090 20080 39978 40071 56023 60006 71011 83042 90600 333 10138 20082 60004=
07005,1997-10-06 12:00:00,22,1002.9,-2.3,65,15,7000,25.928,,,170,,,,,,,,,,,wg-a,,,,AAXX 06124 07005 12/57 51714 10220 20150 39941 40029 56023 60006 80001 91200=
07005,1997-10-06 18:00:00,19,1001.2,-0.2,88,17,10000,7.408,,,320,8.8,23.5,,,,,,,,2,wg-a,,,,AAXX 06184 07005 02/60 83204 10190 20170 39923 40012 56002 61000 70262 8807/ 91800 333 10235 20088 ////=
07005,1997-10-07 00:00:00,17,999.6,-1.1,94,16,0,18.52,,,180,,,,,,,,,,,wg-a,,,,AAXX 07004 07005 12/// /1810 10170 20160 39907 49996 58011 60016 90000=
07005,1997-10-07 06:00:00,16,997.3,-1,94,15,10000,25.928,,,210,16.2,19.2,,0,,,1,,,21,wg-a,,,,AAXX 07064 07005 02460 42114 10160 20150 39883 49973 57010 60014 72161 82802 90600 333 10192 20162 60007=
07005,1997-10-07 12:00:00,16,1000.6,0.9,82,13,500,29.632,,,240,,,,,,,,,,25,wg-a,,,,AAXX 07124 07005 02400 72416 10160 20130 39916 40006 53009 61000 72586 879// 91200 333 ////=
07005,1997-10-07 18:00:00,13,1005,2.2,77,9,500,11.112,,,230,13,18.4,,,,,,,,,wg-a,,,,AAXX 07184 07005 32500 32306 10130 20090 39959 40050 53022 82201 91800 333 10184 20130=
07005,1997-10-08 00:00:00,14,1006.9,0.3,77,10,0,18.52,,,210,,,,,,,,,,,wg-a,,,,AAXX 08004 07005 12/// /2110 10140 20100 39978 40069 51003 60006 90000=
07005,1997-10-08 06:00:00,15,1005.4,-0.5,94,14,10000,29.632,,,210,12.2,15,,0,,,2,,,21,wg-a,,,,AAXX 08064 07005 02360 82116 10150 20140 39963 40054 56005 60024 72162 875// 90600 333 10150 20122 60007=
07005,1997-10-08 12:00:00,16,1005.8,-0.5,94,15,500,29.632,,,200,,,,1,,,,,,61,wg-a,,,,AAXX 08124 07005 02300 82016 10160 20150 39968 40058 58005 60016 76162 8687/ 91200 333 60017=
07005,1997-10-08 18:00:00,17,1002.1,0.2,94,16,2500,46.3,,,220,15,17.3,,4,,,,,,61,wg-a,,,,AAXX 08184 07005 12325 82225 10170 20160 39931 40021 53002 60047 76166 877// 91800 333 10173 20150=
07005,1997-10-09 00:00:00,18,1003,0,88,16,0,35.188,,,220,,,,2,,,,,,,wg-a,,,,AAXX 09004 07005 02/// /2219 10180 20160 39940 40030 50000 60026 90000 333 60027=
07005,1997-10-09 06:00:00,17,1003.8,2.1,94,16,15000,46.3,,,270,16.9,18.2,,5,,,21,,,21,wg-a,,,,AAXX 09064 07005 02365 62725 10170 20160 39948 40038 53021 60214 72162 84802 90600 333 10182 20169 60057=
07005,1997-10-09 12:00:00,20,1007.5,1.6,73,15,20000,38.892,,,250,,,,,,,,,,,wg-a,,,,AAXX 09124 07005 12570 72521 10200 20150 39986 40075 50016 60006 8684/ 91200=
07005,1997-10-09 18:00:00,18,1009.4,1.5,83,15,20000,38.892,,,260,16.7,20.2,,,,,,,,,wg-a,,,,AAXX 09184 07005 12470 72621 10180 20150 30004 40094 53015 60006 878// 91800 333 10202 20167=
07005,1997-10-10 00:00:00,18,1007,-1.6,83,15,0,31.484,,,230,,,,,,,,,,,wg-a,,,,AAXX 10004 07005 12/// /2317 10180 20150 39980 40070 56016 60006 90000=
07005,1997-10-10 06:00:00,16,1002.7,-1.3,94,15,4500,31.484,,,250,15.9,18.2,,4,,,5,,,61,wg-a,,,,AAXX 10064 07005 02245 82517 10160 20150 39937 40027 56013 60054 76162 887// 90600 333 10182 20159 60047=
07005,1997-10-10 12:00:00,15,1006.5,1.6,72,10,0,38.892,,,290,,,,,,,,,,,wg-a,,,,AAXX 10124 07005 12/// /2921 10150 20100 39974 40065 51016 60036 91200=
07005,1997-10-10 18:00:00,15,1009,1.3,67,9,20000,35.188,,,280,14.4,16.1,,,,,,,,,wg-a,,,,AAXX 10184 07005 32470 42819 10150 20090 39999 40090 53013 84200 91800 333 10161 20144=
07005,1997-10-11 00:00:00,13,1011,0.6,82,10,0,29.632,,,290,,,,,,,,,,,wg-a,,,,AAXX 11004 07005 12/// /2916 10130 20100 30018 40110 52006 60006 90000=
07005,1997-10-11 06:00:00,13,1009.6,-0.6,82,10,15000,14.816,,,290,12.8,14.7,,,,,3,,,,wg-a,,,,AAXX 11064 07005 02565 72908 10130 20100 30004 40096 56006 60006 878// 90600 333 10147 20128 60034=
07005,1997-10-11 12:00:00,13,1006.1,-2.3,94,12,10000,18.52,,,230,,,,1,,,,,,61,wg-a,,,,AAXX 11124 07005 02460 82310 10130 20120 39970 40061 58023 60016 76165 8387/ 91200 333 60017=
07005,1997-10-11 18:00:00,14,996.6,-4.5,94,13,0,18.52,,,230,11.1,14.3,,,,,,,,,wg-a,,,,AAXX 11184 07005 32/// /2310 10140 20130 39876 49966 56045 91800 333 10143 20111=
07005,1997-10-12 00:00:00,13,996.1,0.5,94,12,0,22.224,,,300,,,,6,,,,,,,wg-a,,,,AAXX 12004 07005 02/// /3012 10130 20120 39871 49961 53005 60066 90000 333 60067=
07005,1997-10-12 06:00:00,10,1002.8,5.2,93,9,15000,14.816,,,10,9.8,15.8,,0,,,19,,,2,wg-a,,,,AAXX 12064 07005 02465 70108 10100 20090 39936 40028 53052 60194 70262 8117/ 90600 333 10158 20098 60007=
07005,1997-10-12 12:00:00,13,1011.5,3.2,82,10,20000,35.188,,,340,,,,0,,,,,,2,wg-a,,,,AAXX 12124 07005 02570 73419 10130 20100 30023 40115 51032 60006 70286 872// 91200 333 60007=
07005,1997-10-12 18:00:00,9,1016.4,2.1,76,5,0,11.112,,,330,9,13.4,,,,,,,,,wg-a,,,,AAXX 12184 07005 32/// /3306 10090 20050 30070 40164 53021 91800 333 10134 20090=
07005,1997-10-13 00:00:00,7,1017.9,0.4,81,4,0,0,,,0,,,,,,,,,,,wg-a,,,,AAXX 13004 07005 12/// /0000 10070 20040 30084 40179 53004 60006 90000=
07005,1997-10-13 06:00:00,8,1016.3,-0.4,81,5,15000,18.52,,,330,,,,,,,,,,,wg-a,,,,AAXX 13064 07005 12565 73310 10080 20050 30069 40163 57004 60006 878// 90600=
07005,1997-10-13 12:00:00,10,1016.2,-0.6,87,8,15000,25.928,,,330,,,,0,,,,,,25,wg-a,,,,AAXX 13124 07005 02465 73314 10100 20080 30069 40162 58006 60006 72522 878// 91200 333 60007=
07005,1997-10-13 18:00:00,8,1020.5,3.1,87,6,20000,18.52,,,350,7.5,11.3,,0,,,,,,1,wg-a,,,,AAXX 13184 07005 12570 43510 10080 20060 30110 40205 53031 60007 70186 84800 91800 333 10113 20075=
07005,1997-10-14 00:00:00,8,1023,1.2,87,6,0,22.224,,,330,,,,,,,,,,,wg-a,,,,AAXX 14004 07005 12/// /3312 10080 20060 30135 40230 53012 60006 90000=
07005,1997-10-14 06:00:00,6,1024.8,1.1,93,5,20000,14.816,,,330,6,8.5,,,,,3,,,,wg-a,,,,AAXX 14064 07005 02570 13308 10060 20050 30152 40248 53011 60006 81800 90600 333 10085 20060 60034=
07005,1997-10-14 12:00:00,11,1025.2,-0.5,71,6,0,22.224,,,310,,,,,,,,,,,wg-a,,,,AAXX 14124 07005 12/// /3112 10110 20060 30158 40252 58005 60006 91200=
07005,1997-10-14 18:00:00,9,1023.4,-0.6,76,5,500,11.112,,,290,5.8,11.2,,,,,,,,,wg-a,,,,AAXX 14184 07005 12500 82906 10090 20050 30139 40234 56006 60006 8117/ 91800 333 10112 20058=
07005,1997-10-15 00:00:00,7,1019.6,-2.7,100,7,0,14.816,,,190,,,,,,,,,,,wg-a,,,,AAXX 15004 07005 12/// /1908 10070 20070 30101 40196 58027 60026 90000=
07005,1997-10-15 06:00:00,9,1011.1,-3.9,93,8,10000,22.224,,,220,7.3,8.9,,,,,2,,,,wg-a,,,,AAXX 15064 07005 12460 82212 10090 20080 30018 40111 56039 60024 885// 90600 333 10089 20073=
07005,1997-10-15 12:00:00,13,1009.5,0.5,100,13,20000,14.816,,,340,,,,,,,,,,1,wg-a,,,,AAXX 15124 07005 02370 83408 10130 20130 30003 40095 53005 60016 70165 885// 91200 333 61000=
07005,1997-10-15 18:00:00,10,1011.8,1.6,93,9,3000,11.112,,,20,8.8,13.6,,,,,,,,10,wg-a,,,,AAXX 15184 07005 32430 20206 10100 20090 30025 40118 53016 71011 82500 91800 333 10136 20088=
07005,1997-10-16 00:00:00,9,1013.8,0.8,100,9,0,3.704,,,50,,,,,,,,,,,wg-a,,,,AAXX 16004 07005 12/// /0502 10090 20090 30045 40138 51008 60006 90000=
07005,1997-10-16 06:00:00,8,1014.9,0.9,100,8,2500,7.408,,,130,8.4,10,,,,,1,,,10,wg-a,,,,AAXX 16064 07005 02325 71304 10080 20080 30055 40149 53009 60006 71022 875// 90600 333 10100 20084 60014=
07005,1997-10-16 12:00:00,12,1015.5,-0.2,82,9,500,14.816,,,150,,,,,,,,,,,wg-a,,,,AAXX 16124 07005 12500 71508 10120 20090 30062 40155 58002 60006 8253/ 91200=
07005,1997-10-16 18:00:00,14,1014.4,-0.1,88,12,0,14.816,,,150,8.4,14.6,,,,,,,,,wg-a,,,,AAXX 16184 07005 12/// /1508 10140 20120 30052 40144 55001 60006 91800 333 10146 20084=
07005,1997-10-17 00:00:00,13,1014,-0.6,94,12,0,14.816,,,170,,,,,,,,,,,wg-a,,,,AAXX 17004 07005 12/// /1708 10130 20120 30048 40140 57006 60006 90000=
07005,1997-10-17 06:00:00,13,1013.9,0.2,100,13,7000,11.112,,,150,13.1,13.7,,,,,,,,,wg-a,,,,AAXX 17064 07005 02757 71506 10130 20130 30047 40139 52002 60006 875// 90600 333 10137 20131 60004=
07005,1997-10-17 12:00:00,17,1014.9,-0.2,72,12,15000,31.484,,,160,,,,,,,,,,,wg-a,,,,AAXX 17124 07005 12565 61617 10170 20120 30058 40149 58002 60006 81102 91200=
07005,1997-10-17 18:00:00,15,1014.2,0.4,77,11,20000,22.224,,,140,13.4,18.1,,,,,,,,,wg-a,,,,AAXX 17184 07005 12/70 41412 10150 20110 30050 40142 53004 60006 80002 91800 333 10181 20134=
07005,1997-10-18 00:00:00,12,1016.4,1,88,10,0,14.816,,,140,,,,,,,,,,,wg-a,,,,AAXX 18004 07005 12/// /1408 10120 20100 30071 40164 53010 60006 90000=
07005,1997-10-18 06:00:00,10,1018.3,0.8,93,9,6000,18.52,,,150,9.7,15,,,,,,,,,wg-a,,,,AAXX 18064 07005 02/56 11510 10100 20090 30089 40183 53008 60006 80001 90600 333 10150 20097 60004=
07005,1997-10-18 12:00:00,19,1019.2,-0.3,73,14,8000,14.816,,,150,,,,,,,,,,,wg-a,,,,AAXX 18124 07005 12/58 11508 10190 20140 30101 40192 58003 60006 80001 91200=
07005,1997-10-18 18:00:00,16,1019.1,0.2,82,13,0,14.816,,,140,9.8,20.1,,,,,,,,,wg-a,,,,AAXX 18184 07005 12/// /1408 10160 20130 30099 40191 53002 60006 91800 333 10201 20098=
07005,1997-10-19 00:00:00,12,1018.5,-0.9,100,12,0,14.816,,,130,,,,,,,,,,,wg-a,,,,AAXX 19004 07005 12/// /1308 10120 20120 30092 40185 57009 60006 90000=
07005,1997-10-19 06:00:00,10,1017.7,-0.1,100,10,100,18.52,,,150,10,15.6,,0,,,,,,46,wg-a,,,,AAXX 19064 07005 02/01 01510 10100 20100 30084 40177 57001 60004 74640 80000 90600 333 10156 20100 60007=
07005,1997-10-19 12:00:00,17,1016.4,-1.1,82,14,4500,11.112,,,150,,,,0,,,,,,10,wg-a,,,,AAXX 19124 07005 02/45 11506 10170 20140 30073 40164 58011 60006 71041 80005 91200 333 60007=
07005,1997-10-19 18:00:00,16,1015.1,-0,88,14,0,11.112,,,130,10,20.6,,,,,,,,,wg-a,,,,AAXX 19184 07005 32/// /1306 10160 20140 30060 40151 55000 91800 333 10206 20100=
07005,1997-10-20 00:00:00,12,1014.9,-0.7,94,11,0,11.112,,,130,,,,,,,,,,,wg-a,,,,AAXX 20004 07005 12/// /1306 10120 20110 30056 40149 58007 60006 90000=
07005,1997-10-20 06:00:00,10,1014.5,0.2,93,9,1500,7.408,,,80,9.4,16.1,,0,,,,,,10,wg-a,,,,AAXX 20064 07005 02/15 60804 10100 20090 30052 40145 53002 60004 71022 82032 90600 333 10161 20094 60007=
07005,1997-10-20 12:00:00,14,1015,0,94,13,900,25.928,,,70,,,,,,,,,,47,wg-a,,,,AAXX 20124 07005 12/09 90714 10140 20130 30058 40150 50000 60006 74742 89/// 91200=
07005,1997-10-20 18:00:00,10,1015.4,0.6,93,9,1200,38.892,,,80,9.7,13.7,,0,,,,,,61,wg-a,,,,AAXX 20184 07005 12112 80821 10100 20090 30061 40154 53006 60007 76164 887// 91800 333 10137 20097=
07005,1997-10-21 00:00:00,8,1016.9,0.6,81,5,0,25.928,,,80,,,,,,,,,,,wg-a,,,,AAXX 21004 07005 02/// /0814 10080 20050 30075 40169 52006 61000 90000 333 ////=
07005,1997-10-21 06:00:00,4,1016.5,-0,87,2,15000,29.632,,,80,3.9,10.4,,,,,,,,,wg-a,,,,AAXX 21064 07005 12/65 40816 10040 20020 30069 40165 54000 60004 84030 90600 333 10104 20039=
07005,1997-10-21 12:00:00,10,1016.5,,76,6,0,25.928,,,80,,,,,,,,,,,wg-a,,,,AAXX 21124 07005 126// /0814 10100 20060 30071 40165 60006 83230 91200=
07005,1997-10-21 18:00:00,7,1016.8,0.7,76,3,20000,18.52,,,70,3.7,11.1,,,,,,,,,wg-a,,,,AAXX 21184 07005 12/70 00710 10070 20030 30073 40168 53007 60006 80000 91800 333 10111 20037=
07005,1997-10-22 00:00:00,4,1015.7,-1,81,1,0,18.52,,,100,,,,,,,,,,,wg-a,,,,AAXX 22004 07005 12/// /1010 10040 20010 30061 40157 57010 60006 90000=
07005,1997-10-22 06:00:00,1,1014.1,-0.6,86,-1,15000,14.816,,,100,0.9,6.9,,,,,,,,,wg-a,,,,AAXX 22064 07005 02/65 11008 10010 21010 30044 40141 56006 60006 81030 90600 333 10069 20009 60004=
07005,1997-10-22 12:00:00,9,1013.6,-0.6,71,4,12000,11.112,,,120,,,,,,,,,,,wg-a,,,,AAXX 22124 07005 12/62 21206 10090 20040 30042 40136 58006 60006 82030 91200=
07005,1997-10-22 18:00:00,7,1014.2,0.8,87,5,7000,14.816,,,70,0.7,11.8,,,,,,,,,wg-a,,,,AAXX 22184 07005 12/57 10708 10070 20050 30048 40142 53008 60006 81040 91800 333 10118 20007=
07005,1997-10-23 00:00:00,3,1015.2,0.2,93,2,0,18.52,,,70,,,,,,,,,,,wg-a,,,,AAXX 23004 07005 12/// /0710 10030 20020 30056 40152 51002 60006 90000=
07005,1997-10-23 06:00:00,0,1015.9,0.4,93,-1,500,11.112,,,80,0.3,6.7,,,,,,,,,wg-a,,,,AAXX 23064 07005 12/00 10806 10000 21010 30062 40159 51004 60004 81040 90600 333 10067 20003=
07005,1997-10-23 12:00:00,12,1016.4,-0,62,5,20000,25.928,,,90,,,,,,,,,,,wg-a,,,,AAXX 23124 07005 12/70 10914 10120 20050 30071 40164 54000 60006 80002 91200=
07005,1997-10-23 18:00:00,8,1017.9,1.5,87,6,20000,14.816,,,40,0.1,12.7,,,,,,,,,wg-a,,,,AAXX 23184 07005 32670 20408 10080 20060 30085 40179 53015 82500 91800 333 10127 20001=
07005,1997-10-24 00:00:00,5,1020.8,1,93,4,0,7.408,,,340,,,,,,,,,,,wg-a,,,,AAXX 24004 07005 12/// /3404 10050 20040 30112 40208 51010 60006 90000=
07005,1997-10-24 06:00:00,7,1023.2,1.6,93,6,20000,11.112,,,10,5,7.8,,,,,,,,,wg-a,,,,AAXX 24064 07005 02670 70106 10070 20060 30137 40232 53016 60006 875// 90600 333 10078 20050 60004=
07005,1997-10-24 12:00:00,10,1026.5,,82,7,22000,11.112,,,50,,,,,,,,,,2,wg-a,,,,AAXX 24124 07005 32572 70506 10100 20070 30170 40265 70252 878// 91200=
07005,1997-10-24 18:00:00,6,1028,0.8,87,4,25000,7.408,,,30,6.3,11,,,,,,,,,wg-a,,,,AAXX 24184 07005 32675 40304 10060 20040 30184 40280 53008 84500 91800 333 10110 20063=
07005,1997-10-25 00:00:00,5,1028.7,-0.2,93,4,0,7.408,,,120,,,,,,,,,,,wg-a,,,,AAXX 25004 07005 12/// /1204 10050 20040 30191 40287 58002 60006 90000=
07005,1997-10-25 06:00:00,2,1029.5,0.4,100,2,700,3.704,,,210,2,6.3,,,,,,,,46,wg-a,,,,AAXX 25064 07005 12607 52102 10020 20020 30198 40295 51004 60006 74641 85500 90600 333 10063 20020=
07005,1997-10-25 12:00:00,11,1029.4,-0.6,66,5,20000,3.704,,,310,,,,,,,,,,1,wg-a,,,,AAXX 25124 07005 12570 43102 10110 20050 30200 40294 58006 60006 70141 84800 91200=
07005,1997-10-25 18:00:00,8,1028.9,0.3,81,5,0,3.704,,,310,1.8,11.8,,,,,,,,,wg-a,,,,AAXX 25184 07005 12/// /3102 10080 20050 30193 40289 53003 60006 91800 333 10118 20018=
07005,1997-10-26 00:00:00,3,1028.3,-0.7,100,3,0,7.408,,,140,,,,,,,,,,,wg-a,,,,AAXX 26004 07005 12/// /1404 10030 20030 30186 40283 58007 60006 90000=
07005,1997-10-26 06:00:00,0,1027.5,-0,93,-1,500,7.408,,,140,-0.6,7.5,,,,,,,,42,wg-a,,,,AAXX 26064 07005 12/00 11404 10000 21010 30177 40275 55000 60004 74240 80001 90600 333 10075 21006=
07005,1997-10-26 12:00:00,11,1026.7,-1.1,76,7,7000,3.704,,,170,,,,,,,,,,2,wg-a,,,,AAXX 26124 07005 12/57 31702 10110 20070 30173 40267 58011 60006 70240 80001 91200=
07005,1997-10-26 18:00:00,8,1025.7,-0,81,5,0,7.408,,,100,-1,12,,,,,,,,,wg-a,,,,AAXX 26184 07005 32/// /1004 10080 20050 30162 40257 55000 91800 333 10120 21010=
07005,1997-10-27 00:00:00,6,1025.4,-0.4,93,5,0,14.816,,,80,,,,,,,,,,,wg-a,,,,AAXX 27004 07005 12/// /0808 10060 20050 30158 40254 57004 60006 90000=
07005,1997-10-27 06:00:00,4,1025.7,-0,93,3,3000,14.816,,,100,3.2,7.5,,,,,,,,10,wg-a,,,,AAXX 27064 07005 02/30 11008 10040 20030 30160 40257 55000 60006 71000 80001 90600 333 10075 20032 60004=
07005,1997-10-27 12:00:00,9,1026.5,0,87,7,6000,25.928,,,80,,,,,,,,,,,wg-a,,,,AAXX 27124 07005 12556 50814 10090 20070 30170 40265 50000 60006 85800 91200=
07005,1997-10-27 18:00:00,5,1027.3,0.7,75,1,15000,18.52,,,70,,10.7,,,,,,,,,wg-a,,,,AAXX 27184 07005 12/65 10710 10050 20010 30177 40273 53007 60006 80002 91800 333 10107=
07005,1997-10-28 00:00:00,1,1029.6,1,69,-4,0,25.928,,,90,,,,,,,,,,,wg-a,,,,AAXX 28004 07005 12/// /0914 10010 21040 30198 40296 53010 60006 90000=
07005,1997-10-28 06:00:00,-1,1030.7,0.4,74,-5,20000,25.928,,,80,-0.9,4.8,,,,,,,,,wg-a,,,,AAXX 28064 07005 02/70 00814 11010 21050 30208 40307 53004 60006 80000 90600 333 10048 21009 60004=
07005,1997-10-28 12:00:00,6,1032.5,0.1,45,-5,0,29.632,,,90,,,,,,,,,,,wg-a,,,,AAXX 28124 07005 12/// /0916 10060 21050 30228 40325 50001 60006 91200=
07005,1997-10-28 18:00:00,2,1034.5,1.4,60,-5,25000,18.52,,,80,-1,6.8,,,,,,,,,wg-a,,,,AAXX 28184 07005 12/75 00810 10020 21050 30247 40345 53014 60006 80000 91800 333 10068 21010=
07005,1997-10-29 00:00:00,0,1036.3,1.1,69,-5,0,18.52,,,90,,,,,,,,,,,wg-a,,,,AAXX 29004 07005 12/// /0910 10000 21050 30264 40363 52011 60006 90000=
07005,1997-10-29 06:00:00,-3,1036.2,-0,80,-6,15000,14.816,,,90,-2.8,1.9,,,,,,,,,wg-a,,,,AAXX 29064 07005 02/65 00908 11030 21060 30262 40362 54000 60006 80000 90600 333 10019 21028 60004=
07005,1997-10-29 12:00:00,8,1035.7,-0.8,31,-8,20000,18.52,,,80,,,,,,,,,,,wg-a,,,,AAXX 29124 07005 12/70 30810 10080 21080 30261 40357 58008 60006 80002 91200=
07005,1997-10-29 18:00:00,3,1034.7,0.1,65,-3,15000,14.816,,,80,-2.7,9.4,,,,,,,,,wg-a,,,,AAXX 29184 07005 12/65 60808 10030 21030 30249 40347 52001 60006 80002 91800 333 10094 21027=
07005,1997-10-30 00:00:00,0,1034.3,-0.8,69,-5,0,7.408,,,120,,,,,,,,,,,wg-a,,,,AAXX 30004 07005 12/// /1204 10000 21050 30244 40343 55008 60006 90000=
07005,1997-10-30 06:00:00,-3,1033.2,-0.3,80,-6,10000,3.704,,,80,-3.1,3.3,,,,,,,,,wg-a,,,,AAXX 30064 07005 12/60 00802 11030 21060 30232 40332 56003 60006 80000 90600 333 10033 21031=
07005,1997-10-30 12:00:00,10,1031.8,-1,40,-3,15000,11.112,,,60,,,,,,,,,,,wg-a,,,,AAXX 30124 07005 12/65 10606 10100 21030 30223 40318 58010 60006 80002 91200=
07005,1997-10-30 18:00:00,5,1030.7,0.1,65,-1,10000,14.816,,,50,-3.2,11.5,,,,,,,,,wg-a,,,,AAXX 30184 07005 12/60 10508 10050 21010 30210 40307 50001 60006 80002 91800 333 10115 21032=
07005,1997-10-31 00:00:00,1,1031.3,-0.1,86,-1,0,14.816,,,20,,,,,,,,,,,wg-a,,,,AAXX 31004 07005 12/// /0208 10010 21010 30215 40313 58001 60006 90000=
07005,1997-10-31 06:00:00,-1,1031,0.3,93,-2,10000,7.408,,,310,-0.8,4.9,,,,,,,,,wg-a,,,,AAXX 31064 07005 02/60 03104 11010 21020 30211 40310 53003 60006 80000 90600 333 10049 21008 60004=
07005,1997-10-31 12:00:00,10,1029.9,-1,62,3,8000,25.928,,,50,,,,,,,,,,,wg-a,,,,AAXX 31124 07005 12/58 10514 10100 20030 30204 40299 58010 60006 80001 91200=
07005,1997-10-31 18:00:00,7,1028.8,-0.1,81,4,20000,22.224,,,30,-1,11,,0,,,,,,,wg-a,,,,AAXX 31184 07005 12/70 10312 10070 20040 30192 40288 56001 60007 81031 91800 333 10110 21010=
07005,1997-11-01 00:00:00,3,1028.1,-0.8,93,2,0,11.112,,,70,,,,,,,,,,,wg-a,,,,AAXX 01004 07005 12/// /0706 10030 20020 30184 40281 56008 60006 90000=
07005,1997-11-01 06:00:00,0,1026.5,-0.6,93,-1,500,11.112,,,70,-0.3,6.8,,,,,,,,,wg-a,,,,AAXX 01064 07005 02/00 00706 10000 21010 30167 40265 56006 60006 80000 90600 333 10068 21003 60004=
07005,1997-11-01 12:00:00,6,1025.6,-1.2,81,3,3500,7.408,,,60,,,,,,,,,,10,wg-a,,,,AAXX 01124 07005 12/35 00604 10060 20030 30160 40256 58012 60006 71040 80000 91200=
07005,1997-11-01 18:00:00,2,1024.1,-0.3,93,1,0,18.52,,,80,-0.4,8.3,,,,,,,,,wg-a,,,,AAXX 01184 07005 32/// /0810 10020 20010 30144 40241 56003 91800 333 10083 21004=
07005,1997-11-02 00:00:00,0,1023.9,-0.2,100,0,0,11.112,,,140,,,,,,,,,,,wg-a,,,,AAXX 02004 07005 12/// /1406 10000 20000 30141 40239 56002 60006 90000=
07005,1997-11-02 06:00:00,-3,1022.7,-0.2,100,-3,100,3.704,,,110,-2.6,1.8,,,,,,,,45,wg-a,,,,AAXX 02064 07005 02/01 91102 11030 21030 30128 40227 55002 60006 74542 89/// 90600 333 10018 21026 60004=
07005,1997-11-02 12:00:00,2,1021.7,-0.9,93,1,900,7.408,,,140,,,,0,,,,,,42,wg-a,,,,AAXX 02124 07005 02209 51404 10020 20010 30120 40217 58009 60006 74244 85600 91200 333 60007=
07005,1997-11-02 18:00:00,0,1020.1,-0.2,93,-1,0,3.704,,,120,-2.8,4.5,,,,,,,,,wg-a,,,,AAXX 02184 07005 32/// /1202 10000 21010 30104 40201 56002 91800 333 10045 21028=
07005,1997-11-03 00:00:00,-1,1019.5,-0.9,100,-1,0,11.112,,,110,,,,,,,,,,,wg-a,,,,AAXX 03004 07005 12/// /1106 11010 21010 30097 40195 58009 60006 90000=
07005,1997-11-03 06:00:00,-1,1017.3,-1.1,100,-1,100,14.816,,,110,-1.6,-0.1,,,,,,,,49,wg-a,,,,AAXX 03064 07005 02/01 91108 11010 21010 30075 40173 58011 60006 74942 89/// 90600 333 11001 21016 60004=
07005,1997-11-03 12:00:00,8,1015.4,-1.6,66,2,4000,25.928,,,90,,,,,,,,,,10,wg-a,,,,AAXX 03124 07005 12/40 00914 10080 20020 30060 40154 58016 60006 71041 80000 91200=
07005,1997-11-03 18:00:00,6,1012.4,-0.6,87,4,6000,25.928,,,90,-1.1,9.7,,,,,,,,,wg-a,,,,AAXX 03184 07005 32/56 00914 10060 20040 30030 40124 56006 80000 91800 333 10097 21011=
07005,1997-11-04 00:00:00,6,1010.1,-1.2,70,1,0,22.224,,,120,,,,,,,,,,,wg-a,,,,AAXX 04004 07005 12/// /1212 10060 20010 30006 40101 56012 60006 90000=
07005,1997-11-04 06:00:00,5,1007.3,-1,81,2,500,22.224,,,120,4.6,6.5,,,,,,,,,wg-a,,,,AAXX 04064 07005 02700 31212 10050 20020 39979 40073 56010 60006 815/1 90600 333 10065 20046 60004=
07005,1997-11-04 12:00:00,8,1005.2,-1.3,81,5,4000,25.928,,,140,,,,0,,,,,,61,wg-a,,,,AAXX 04124 07005 02640 81414 10080 20050 39959 40052 58013 60006 76165 875// 91200 333 60007=
07005,1997-11-04 18:00:00,9,1003.7,-0.1,93,8,0,18.52,,,140,4.5,8.8,,,,,,,,,wg-a,,,,AAXX 04184 07005 32/// /1410 10090 20080 39944 40037 55001 91800 333 10088 20045=
07005,1997-11-05 00:00:00,12,1002.7,-0.1,94,11,0,18.52,,,190,,,,,,,,,,,wg-a,,,,AAXX 05004 07005 12/// /1910 10120 20110 39936 40027 58001 60006 90000=
07005,1997-11-05 06:00:00,11,1001.7,-0.3,94,10,10000,22.224,,,180,8.9,12.5,,,,,4,,,,wg-a,,,,AAXX 05064 07005 02/60 51812 10110 20100 39925 40017 56003 60006 85030 90600 333 10125 20089 60044=
07005,1997-11-05 12:00:00,14,999.3,-1.6,82,11,20000,29.632,,,180,,,,,,,,,,3,wg-a,,,,AAXX 05124 07005 02370 71816 10140 20110 39903 49993 57016 61000 70362 8784/ 91200 333 ////=
07005,1997-11-05 18:00:00,12,994.6,-2.4,88,10,15000,22.224,,,160,11,14.8,,,,,,,,,wg-a,,,,AAXX 05184 07005 32665 71612 10120 20100 39855 49946 58024 8553/ 91800 333 10148 20110=
07005,1997-11-06 00:00:00,11,989.6,-2.5,100,11,0,18.52,,,170,,,,,,,,,,,wg-a,,,,AAXX 06004 07005 12/// /1710 10110 20110 39806 49896 56025 60056 90000=
07005,1997-11-06 06:00:00,9,987.1,-1.3,93,8,15000,14.816,,,190,8.8,12,,0,,,5,,,,wg-a,,,,AAXX 06064 07005 02665 61908 10090 20080 39780 49871 58013 60054 85570 90600 333 10120 20088 60007=
07005,1997-11-06 12:00:00,12,988.9,0.3,82,9,20000,22.224,,,190,,,,,,,,,,,wg-a,,,,AAXX 06124 07005 12570 71912 10120 20090 39799 49889 50003 60006 8283/ 91200=
07005,1997-11-06 18:00:00,11,987,-0.7,87,9,0,7.408,,,160,8.9,13.8,,,,,,,,,wg-a,,,,AAXX 06184 07005 12/// /1604 10110 20090 39780 49870 56007 60006 91800 333 10138 20089=
07005,1997-11-07 00:00:00,10,985.9,-0.6,93,9,0,22.224,,,250,,,,,,,,,,,wg-a,,,,AAXX 07004 07005 12/// /2512 10100 20090 39768 49859 55006 60026 90000=
07005,1997-11-07 06:00:00,10,987.4,1.3,93,9,4500,25.928,,,220,9.4,10.9,,2,,,9,,,61,wg-a,,,,AAXX 07064 07005 02345 82214 10100 20090 39783 49874 53013 60094 76162 877// 90600 333 10109 20094 60027=
07005,1997-11-07 12:00:00,11,992.4,2.6,87,9,15000,29.632,,,230,,,,0,,,,,,1,wg-a,,,,AAXX 07124 07005 02265 72316 10110 20090 39833 49924 51026 60006 70162 8557/ 91200 333 60007=
07005,1997-11-07 18:00:00,9,993.5,0.5,87,7,25000,18.52,,,140,9.3,13.2,,,,,,,,,wg-a,,,,AAXX 07184 07005 32775 41410 10090 20070 39843 49935 51005 845/0 91800 333 10132 20093=
07005,1997-11-08 00:00:00,11,990.1,-2.2,82,8,0,29.632,,,160,,,,,,,,,,,wg-a,,,,AAXX 08004 07005 12/// /1616 10110 20080 39810 49901 56022 60006 90000=
07005,1997-11-08 06:00:00,10,990.6,1,87,8,15000,31.484,,,210,8.7,11.2,,,,,,,,,wg-a,,,,AAXX 08064 07005 02765 42117 10100 20080 39815 49906 53010 60006 81542 90600 333 10112 20087 60004=
07005,1997-11-08 12:00:00,13,994.8,1.8,62,6,25000,35.188,,,230,,,,,,,,,,,wg-a,,,,AAXX 08124 07005 12575 62319 10130 20060 39857 49948 50018 60006 85202 91200=
07005,1997-11-08 18:00:00,11,991.8,-2.6,76,7,0,29.632,,,170,9.4,13.2,,,,,,,,,wg-a,,,,AAXX 08184 07005 12/// /1716 10110 20070 39827 49918 58026 60006 91800 333 10132 20094=
07005,1997-11-09 00:00:00,10,989.4,0.2,87,8,0,29.632,,,210,,,,,,,,,,,wg-a,,,,AAXX 09004 07005 12/// /2116 10100 20080 39803 49894 53002 60026 90000=
07005,1997-11-09 06:00:00,8,991.4,0.7,87,6,20000,18.52,,,190,7.8,11.2,,,,,2,,,,wg-a,,,,AAXX 09064 07005 12470 31910 10080 20060 39822 49914 50007 60024 83800 90600 333 10112 20078=
07005,1997-11-09 12:00:00,11,991.1,-0.6,66,5,500,31.484,,,210,,,,,,,,,,,wg-a,,,,AAXX 09124 07005 12500 62117 10110 20050 39820 49911 58006 60006 85202 91200=
07005,1997-11-09 18:00:00,9,988.9,-0.5,87,7,0,25.928,,,190,8,12,,,,,,,,,wg-a,,,,AAXX 09184 07005 32/// /1914 10090 20070 39798 49889 55005 91800 333 10120 20080=
07005,1997-11-10 00:00:00,8,994.6,1.6,87,6,0,22.224,,,200,,,,,,,,,,,wg-a,,,,AAXX 10004 07005 12/// /2012 10080 20060 39854 49946 51016 60016 90000=
07005,1997-11-10 06:00:00,7,994.9,0.3,87,5,15000,22.224,,,210,7.3,10,,,,,1,,,,wg-a,,,,AAXX 10064 07005 12765 12112 10070 20050 39857 49949 53003 60014 815/0 90600 333 10100 20073=
07005,1997-11-10 12:00:00,10,994.8,-0.9,82,7,20000,29.632,,,190,,,,,,,,,,,wg-a,,,,AAXX 10124 07005 12470 61916 10100 20070 39857 49948 58009 60006 86800 91200=
07005,1997-11-10 18:00:00,9,994.2,0.5,81,6,15000,29.632,,,230,7,11.2,,,,,,,,80,wg-a,,,,AAXX 10184 07005 02465 72316 10090 20060 39850 49942 53005 61000 78086 873// 91800 333 10112 20070 ////=
07005,1997-11-11 00:00:00,7,995.9,1,87,5,0,22.224,,,190,,,,,,,,,,,wg-a,,,,AAXX 11004 07005 12/// /1912 10070 20050 39866 49959 53010 60006 90000=
07005,1997-11-11 06:00:00,7,994.6,-1,93,6,20000,22.224,,,180,5.8,8.8,,,,,,,,25,wg-a,,,,AAXX 11064 07005 02470 71812 10070 20060 39853 49946 56010 60004 72586 878// 90600 333 10088 20058 61000=
07005,1997-11-11 12:00:00,10,995.7,0.6,82,7,500,25.928,,,210,,,,,,,,,,,wg-a,,,,AAXX 11124 07005 12500 62114 10100 20070 39865 49957 50006 60006 86800 91200=
07005,1997-11-11 18:00:00,8,996.7,0.6,87,6,0,11.112,,,170,6.4,10.9,,,,,,,,,wg-a,,,,AAXX 11184 07005 12/// /1706 10080 20060 39875 49967 53006 60006 91800 333 10109 20064=
07005,1997-11-12 00:00:00,4,998.6,0.4,100,4,0,11.112,,,150,,,,,,,,,,,wg-a,,,,AAXX 12004 07005 12/// /1506 10040 20040 39892 49986 53004 60006 90000=
07005,1997-11-12 06:00:00,2,999.4,0.6,100,2,300,3.704,,,170,1.4,7.7,,0,,,,,,46,wg-a,,,,AAXX 12064 07005 02603 71702 10020 20020 39899 49994 50006 60004 74642 875// 90600 333 10077 20014 60007=
07005,1997-11-12 12:00:00,10,1001.8,0.7,100,10,4500,0,,,0,,,,,,,,,,28,wg-a,,,,AAXX 12124 07005 12545 40000 10100 20100 39926 40018 51007 60006 72841 84801 91200=
07005,1997-11-12 18:00:00,7,1004.3,1.7,93,6,10000,7.408,,,330,0.3,11.2,,,,,,,,,wg-a,,,,AAXX 12184 07005 12560 23304 10070 20060 39950 40043 52017 60006 82803 91800 333 10112 20003=
07005,1997-11-13 00:00:00,3,1006.1,0.4,100,3,0,11.112,,,150,,,,,,,,,,,wg-a,,,,AAXX 13004 07005 12/// /1506 10030 20030 39966 40061 52004 60006 90000=
07005,1997-11-13 06:00:00,3,1005.8,-0.2,100,3,2500,11.112,,,150,2.5,7.2,,,,,,,,10,wg-a,,,,AAXX 13064 07005 12725 21506 10030 20030 39963 40058 58002 60004 71000 825/0 90600 333 10072 20025=
07005,1997-11-13 12:00:00,4,1006.7,-0.1,100,4,2500,22.224,,,170,,,,0,,,,,,28,wg-a,,,,AAXX 13124 07005 02225 81712 10040 20040 39972 40067 58001 60006 72841 886// 91200 333 60007=
07005,1997-11-13 18:00:00,6,1007.3,0.6,93,5,6000,18.52,,,150,2,6.1,,,,,,,,,wg-a,,,,AAXX 13184 07005 32256 81510 10060 20050 39979 40073 53006 885// 91800 333 10061 20020=
07005,1997-11-14 00:00:00,5,1008.5,0.5,93,4,0,11.112,,,160,,,,,,,,,,,wg-a,,,,AAXX 14004 07005 12/// /1606 10050 20040 39990 40085 52005 60006 90000=
07005,1997-11-14 06:00:00,5,1010.4,1.3,93,4,3000,11.112,,,190,4.2,5.9,,,,,,,,10,wg-a,,,,AAXX 14064 07005 02530 31906 10050 20040 30009 40104 53013 60006 71000 83500 90600 333 10059 20042 60004=
07005,1997-11-14 12:00:00,10,1013.1,0.9,82,7,10000,11.112,,,190,,,,,,,,,,,wg-a,,,,AAXX 14124 07005 12760 61906 10100 20070 30038 40131 51009 60006 865/0 91200=
07005,1997-11-14 18:00:00,8,1014.2,0.8,87,6,15000,14.816,,,170,3.9,11.5,,,,,,,,,wg-a,,,,AAXX 14184 07005 12765 61708 10080 20060 30048 40142 53008 60006 845/1 91800 333 10115 20039=
07005,1997-11-15 00:00:00,9,1015.4,0.6,87,7,0,22.224,,,190,,,,,,,,,,,wg-a,,,,AAXX 15004 07005 12/// /1912 10090 20070 30060 40154 51006 60016 90000=
07005,1997-11-15 06:00:00,9,1014.9,-0.5,93,8,4500,22.224,,,180,8.1,9.1,,,,,,,,20,wg-a,,,,AAXX 15064 07005 02145 81812 10090 20080 30055 40149 56005 60004 72052 876// 90600 333 10091 20081 61000=
07005,1997-11-15 12:00:00,13,1015.5,-0.2,88,11,6000,22.224,,,220,,,,,,,,,,1,wg-a,,,,AAXX 15124 07005 12156 82212 10130 20110 30063 40155 58002 60016 70152 875// 91200=
07005,1997-11-15 18:00:00,12,1015.3,-0.1,94,11,0,14.816,,,170,9,13.8,,,,,,,,,wg-a,,,,AAXX 15184 07005 32/// /1708 10120 20110 30060 40153 56001 91800 333 10138 20090=
07005,1997-11-16 00:00:00,14,1015.4,0.6,100,14,0,14.816,,,260,,,,,,,,,,,wg-a,,,,AAXX 16004 07005 12/// /2608 10140 20140 30062 40154 51006 60076 90000=
07005,1997-11-16 06:00:00,14,1015.6,0.2,100,14,6000,11.112,,,260,11.9,14.9,,,,,16,,,,wg-a,,,,AAXX 16064 07005 02156 82606 10140 20140 30064 40156 50002 60164 877// 90600 333 10149 20119 61000=
07005,1997-11-16 12:00:00,17,1015.5,-0.5,88,15,0,11.112,,,150,,,,,,,,,,,wg-a,,,,AAXX 16124 07005 12/// /1506 10170 20150 30064 40155 58005 60006 91200=
07005,1997-11-16 18:00:00,14,1015.5,-0.2,100,14,0,14.816,,,140,13.9,16.7,,,,,,,,,wg-a,,,,AAXX 16184 07005 32/// /1408 10140 20140 30063 40155 58002 91800 333 10167 20139=
07005,1997-11-17 00:00:00,13,1015.8,-0.2,100,13,0,14.816,,,140,,,,,,,,,,,wg-a,,,,AAXX 17004 07005 12/// /1408 10130 20130 30066 40158 58002 60006 90000=
07005,1997-11-17 12:00:00,11,1015,-0.8,100,11,2500,22.224,,,140,,,,,,,,,,10,wg-a,,,,AAXX 17124 07005 12225 81412 10110 20110 30057 40150 58008 60006 71042 886// 91200=
07005,1997-11-17 18:00:00,10,1013.2,-0.3,93,9,6000,29.632,,,130,9.8,12,,,,,,,,,wg-a,,,,AAXX 17184 07005 12556 81316 10100 20090 30039 40132 58003 60006 8557/ 91800 333 10120 20098=
07005,1997-11-18 00:00:00,7,1009.4,-1.8,87,5,0,38.892,,,150,,,,,,,,,,,wg-a,,,,AAXX 18004 07005 12/// /1521 10070 20050 30000 40094 56018 60006 90000=
07005,1997-11-18 06:00:00,5,1007.2,-1.2,93,4,10000,38.892,,,150,4.9,9.8,,,,,,,,,wg-a,,,,AAXX 18064 07005 02660 51521 10050 20040 39978 40072 56012 60006 83531 90600 333 10098 20049 60004=
07005,1997-11-18 12:00:00,8,1006.2,-0.9,87,6,7000,29.632,,,150,,,,,,,,,,,wg-a,,,,AAXX 18124 07005 12657 71516 10080 20060 39969 40062 57009 60006 8253/ 91200=
07005,1997-11-18 18:00:00,10,1005.6,-0.2,93,9,3000,18.52,,,160,4.5,9.8,,5,,,,,,61,wg-a,,,,AAXX 18184 07005 12430 81610 10100 20090 39963 40056 57002 60057 76162 8457/ 91800 333 10098 20045=
07005,1997-11-19 00:00:00,10,1003.6,-1.1,100,10,0,14.816,,,130,,,,,,,,,,,wg-a,,,,AAXX 19004 07005 12/// /1308 10100 20100 39944 40036 58011 60036 90000=
07005,1997-11-19 06:00:00,10,1000.3,-1.6,93,9,3000,18.52,,,130,9.6,10.6,,0,,,10,,,10,wg-a,,,,AAXX 19064 07005 02230 81310 10100 20090 39911 40003 57016 60104 71062 887// 90600 333 10106 20096 60007=
07005,1997-11-19 12:00:00,10,999.3,-1.3,93,9,2000,22.224,,,150,,,,,,,,,,10,wg-a,,,,AAXX 19124 07005 12220 71512 10100 20090 39901 49993 58013 60006 71042 876// 91200=
07005,1997-11-19 18:00:00,9,998.1,-0,100,9,2500,22.224,,,140,8.3,10.4,,,,,,,,10,wg-a,,,,AAXX 19184 07005 02225 81412 10090 20090 39889 49981 55000 61000 71062 877// 91800 333 10104 20083 ////=
07005,1997-11-20 06:00:00,10,992.7,-2.4,93,9,6000,29.632,,,160,8.1,9.5,,0,,,,,,60,wg-a,,,,AAXX 20064 07005 02256 81616 10100 20090 39836 49927 58024 60004 76062 885// 90600 333 10095 20081 60007=
07005,1997-11-20 12:00:00,11,992.5,0.6,82,8,20000,29.632,,,220,,,,0,,,,,,3,wg-a,,,,AAXX 20124 07005 02570 72216 10110 20080 39834 49925 53006 60016 70362 878// 91200 333 60007=
07005,1997-11-20 18:00:00,8,996.6,2.3,93,7,15000,18.52,,,200,8.4,11.3,,1,,,,,,1,wg-a,,,,AAXX 20184 07005 12465 52010 10080 20070 39874 49966 53023 60017 70186 85900 91800 333 10113 20084=
07005,1997-11-21 00:00:00,8,1001.4,2.4,93,7,0,25.928,,,250,,,,,,,,,,,wg-a,,,,AAXX 21004 07005 12/// /2514 10080 20070 39921 40014 53024 60016 90000=
07005,1997-11-21 06:00:00,6,1004.9,1.4,93,5,10000,11.112,,,190,6.3,9.2,,,,,10,,,3,wg-a,,,,AAXX 21064 07005 12560 11906 10060 20050 39955 40049 52014 60104 70360 81801 90600 333 10092 20063=
07005,1997-11-21 12:00:00,9,1007.6,1,93,8,0,18.52,,,160,,,,,,,,,,,wg-a,,,,AAXX 21124 07005 12/// /1610 10090 20080 39983 40076 51010 60006 91200=
07005,1997-11-21 18:00:00,8,1009.5,1.2,87,6,15000,18.52,,,170,5.8,9.7,,,,,,,,3,wg-a,,,,AAXX 21184 07005 32565 61710 10080 20060 30001 40095 52012 70386 86802 91800 333 10097 20058=
07005,1997-11-22 00:00:00,5,1011,0.6,100,5,0,11.112,,,170,,,,,,,,,,,wg-a,,,,AAXX 22004 07005 12/// /1706 10050 20050 30015 40110 51006 60006 90000=
07005,1997-11-22 06:00:00,4,1012.5,0.7,100,4,100,11.112,,,150,3.6,7.6,,,,,,,,45,wg-a,,,,AAXX 22064 07005 12/01 91506 10040 20040 30030 40125 53007 60004 74542 89/// 90600 333 10076 20036=
07005,1997-11-22 12:00:00,6,1014.4,0.6,100,6,500,7.408,,,160,,,,,,,,,,43,wg-a,,,,AAXX 22124 07005 12/00 91604 10060 20060 30049 40144 51006 60006 74344 89/// 91200=
07005,1997-11-22 18:00:00,7,1015.7,1,100,7,0,11.112,,,140,4.2,7.2,,,,,,,,,wg-a,,,,AAXX 22184 07005 32/// /1406 10070 20070 30063 40157 52010 91800 333 10072 20042=
07005,1997-11-23 00:00:00,4,1018,0.9,100,4,0,14.816,,,160,,,,,,,,,,,wg-a,,,,AAXX 23004 07005 12/// /1608 10040 20040 30084 40180 53009 60006 90000=
07005,1997-11-23 06:00:00,3,1018.5,0.3,93,2,500,18.52,,,150,2.5,7,,,,,,,,45,wg-a,,,,AAXX 23064 07005 02/00 91510 10030 20020 30089 40185 53003 60006 74542 89/// 90600 333 10070 20025 60004=
07005,1997-11-23 12:00:00,4,1019.8,-0.1,100,4,100,22.224,,,150,,,,,,,,,,43,wg-a,,,,AAXX 23124 07005 12/01 91512 10040 20040 30102 40198 58001 60006 74344 89/// 91200=
07005,1997-11-23 18:00:00,4,1019.5,0.2,100,4,0,22.224,,,130,2.2,5,,,,,,,,,wg-a,,,,AAXX 23184 07005 32/// /1312 10040 20040 30099 40195 51002 91800 333 10050 20022=
07005,1997-11-24 00:00:00,5,1018.7,-0.8,100,5,0,22.224,,,150,,,,,,,,,,,wg-a,,,,AAXX 24004 07005 12/// /1512 10050 20050 30092 40187 56008 60006 90000=
07005,1997-11-24 06:00:00,3,1015.6,-2,100,3,2000,29.632,,,140,3.3,5.1,,,,,,,,10,wg-a,,,,AAXX 24064 07005 02120 81416 10030 20030 30060 40156 57020 60006 71022 877// 90600 333 10051 20033 60004=
07005,1997-11-24 12:00:00,4,1012.3,-2.2,93,3,0,29.632,,,140,,,,,,,,,,,wg-a,,,,AAXX 24124 07005 12/// /1416 10040 20030 30028 40123 58022 60006 91200=
07005,1997-11-24 18:00:00,4,1008.5,-1.8,87,2,10000,25.928,,,120,2.8,4.7,,,,,,,,2,wg-a,,,,AAXX 24184 07005 02660 71214 10040 20020 39990 40085 56018 61000 70262 8357/ 91800 333 10047 20028 ////=
07005,1997-11-25 00:00:00,4,1005.4,-1.8,87,2,0,29.632,,,120,,,,,,,,,,,wg-a,,,,AAXX 25004 07005 12/// /1216 10040 20020 39959 40054 58018 60006 90000=
07005,1997-11-25 06:00:00,2,1004.1,-0.9,93,1,0,18.52,,,150,2.4,4,,,,,,,,,wg-a,,,,AAXX 25064 07005 02/// /1510 10020 20010 39946 40041 57009 60006 90600 333 10040 20024 61000=
07005,1997-11-25 12:00:00,8,1004.7,-0,81,5,6000,22.224,,,140,,,,,,,,,,,wg-a,,,,AAXX 25124 07005 12/56 71412 10080 20050 39954 40047 54000 60006 86052 91200=
07005,1997-11-25 18:00:00,8,1004.2,0.5,87,6,12000,11.112,,,140,2.4,11,,,,,,,,,wg-a,,,,AAXX 25184 07005 12/62 51406 10080 20060 39949 40042 53005 60006 84032 91800 333 10110 20024=
07005,1997-11-26 00:00:00,7,1005.3,0.3,93,6,0,18.52,,,130,,,,,,,,,,,wg-a,,,,AAXX 26004 07005 12/// /1310 10070 20060 39960 40053 53003 60006 90000=
07005,1997-11-26 06:00:00,4,1005.2,-0.1,93,3,10000,14.816,,,130,4.1,8.7,,,,,,,,,wg-a,,,,AAXX 26064 07005 02/60 41308 10040 20030 39958 40052 55001 60006 80002 90600 333 10087 20041 60004=
07005,1997-11-26 12:00:00,9,1006.1,0,76,5,10000,22.224,,,120,,,,,,,,,,,wg-a,,,,AAXX 26124 07005 12/60 71212 10090 20050 39968 40061 50000 60006 81036 91200=
07005,1997-11-26 18:00:00,8,1007.7,1.4,87,6,6000,18.52,,,140,4.1,9.3,,,,,,,,,wg-a,,,,AAXX 26184 07005 12/56 71410 10080 20060 39984 40077 51014 60006 85077 91800 333 10093 20041=
07005,1997-11-27 00:00:00,8,1008.9,0.4,100,8,0,22.224,,,140,,,,,,,,,,,wg-a,,,,AAXX 27004 07005 12/// /1412 10080 20080 39996 40089 51004 60016 90000=
07005,1997-11-27 06:00:00,9,1008.5,-0,93,8,8000,22.224,,,140,7.9,8.8,,,,,3,,,0,wg-a,,,,AAXX 27064 07005 12358 81412 10090 20080 39992 40085 54000 60034 70062 885// 90600 333 10088 20079=
07005,1997-11-27 12:00:00,11,1009.5,0.5,94,10,2500,11.112,,,200,,,,1,,,,,,20,wg-a,,,,AAXX 27124 07005 02325 82006 10110 20100 30002 40095 51005 60026 72065 875// 91200 333 60017=
07005,1997-11-27 18:00:00,10,1011.6,1.2,93,9,10000,11.112,,,220,8.7,11.5,,,,,,,,,wg-a,,,,AAXX 27184 07005 32760 72206 10100 20090 30023 40116 53012 82532 91800 333 10115 20087=
07005,1997-11-28 00:00:00,8,1011.2,-0.7,93,7,0,11.112,,,160,,,,,,,,,,,wg-a,,,,AAXX 28004 07005 12/// /1606 10080 20070 30018 40112 58007 60006 90000=
07005,1997-11-28 06:00:00,8,1008,-1.8,100,8,500,22.224,,,150,7.5,10.1,,3,,,5,,,61,wg-a,,,,AAXX 28064 07005 02300 81512 10080 20080 39987 40080 58018 60054 76162 877// 90600 333 10101 20075 60037=
07005,1997-11-28 12:00:00,11,1004.5,-0.9,94,10,12000,25.928,,,210,,,,0,,,,,,1,wg-a,,,,AAXX 28124 07005 02362 72114 10110 20100 39953 40045 58009 60066 70162 878// 91200 333 60007=
07005,1997-11-28 18:00:00,9,1004.2,0,93,8,15000,14.816,,,150,8.4,12.8,,,,,,,,,wg-a,,,,AAXX 28184 07005 32665 71508 10090 20080 39949 40042 50000 875// 91800 333 10128 20084=
07005,1997-11-29 00:00:00,10,1002.8,-0.7,87,8,0,18.52,,,200,,,,,,,,,,,wg-a,,,,AAXX 29004 07005 12/// /2010 10100 20080 39936 40028 56007 60026 90000=
07005,1997-11-29 06:00:00,10,1002.9,0.2,87,8,20000,22.224,,,240,9.3,10.8,,,,,8,,,,wg-a,,,,AAXX 29064 07005 12570 22412 10100 20080 39937 40029 53002 60084 82100 90600 333 10108 20093=
07005,1997-11-29 18:00:00,9,1003.4,0.3,93,8,0,18.52,,,220,8.8,12.2,,,,,,,,,wg-a,,,,AAXX 29184 07005 32/// /2210 10090 20080 39941 40034 51003 91800 333 10122 20088=
07005,1997-11-30 00:00:00,10,1003.5,0.1,93,9,0,18.52,,,280,,,,4,,,,,,,wg-a,,,,AAXX 30004 07005 02/// /2810 10100 20090 39943 40035 53001 60066 90000 333 60047=
07005,1997-11-30 06:00:00,9,1005,0.8,93,8,10000,25.928,,,310,8.1,10,,1,,,8,,,61,wg-a,,,,AAXX 30064 07005 02460 83114 10090 20080 39957 40050 53008 60084 76162 885// 90600 333 10100 20081 60017=
07005,1997-11-30 12:00:00,9,1009.2,2.1,93,8,15000,29.632,,,330,,,,1,,,,,,61,wg-a,,,,AAXX 30124 07005 02565 83316 10090 20080 39999 40092 51021 60026 76186 872// 91200 333 60017=
07005,1997-11-30 18:00:00,7,1013.7,2.2,87,5,0,22.224,,,340,7.1,9.7,,,,,,,,,wg-a,,,,AAXX 30184 07005 32/// /3412 10070 20050 30043 40137 51022 91800 333 10097 20071=
07005,1997-12-01 00:00:00,6,1017,1.3,87,4,0,14.816,,,340,,,,,,,,,,,wg-a,,,,AAXX 01004 07005 12/// /3408 10060 20040 30075 40170 52013 60006 90000=
07005,1997-12-01 06:00:00,3,1017.6,-0.2,93,2,6000,3.704,,,10,2.9,7.4,,,,,4,,,,wg-a,,,,AAXX 01064 07005 02756 10102 10030 20020 30080 40176 55002 60006 815/0 90600 333 10074 20029 60044=
07005,1997-12-01 12:00:00,6,1016.4,-1,87,4,20000,11.112,,,160,,,,,,,,,,,wg-a,,,,AAXX 01124 07005 12570 51606 10060 20040 30069 40164 58010 60006 81831 91200=
07005,1997-12-01 18:00:00,6,1011.8,-2.1,87,4,15000,14.816,,,140,2.6,7.4,,,,,,,,,wg-a,,,,AAXX 01184 07005 12/65 81408 10060 20040 30023 40118 58021 60006 8807/ 91800 333 10074 20026=
07005,1997-12-02 00:00:00,4,1006.6,-3,93,3,0,18.52,,,100,,,,,,,,,,,wg-a,,,,AAXX 02004 07005 12/// /1010 10040 20030 39971 40066 58030 60026 90000=
07005,1997-12-02 06:00:00,1,1003.8,-0.8,100,1,4500,18.52,,,50,1.4,5.8,,2,,,6,,,61,wg-a,,,,AAXX 02064 07005 02245 80510 10010 20010 39943 40038 56008 60064 76176 887// 90600 333 10058 20014 60027=
07005,1997-12-02 12:00:00,3,1005.7,0.9,93,2,6000,25.928,,,360,,,,0,,,,,,21,wg-a,,,,AAXX 02124 07005 02456 83614 10030 20020 39962 40057 51009 60016 72165 885// 91200 333 60007=
07005,1997-12-02 18:00:00,2,1007.8,1.1,87,0,10000,18.52,,,350,1.4,3,,0,,,,,,2,wg-a,,,,AAXX 02184 07005 12460 83510 10020 20000 39983 40078 51011 60007 70265 875// 91800 333 10030 20014=
07005,1997-12-03 00:00:00,2,1011.4,1.6,75,-2,0,18.52,,,360,,,,,,,,,,,wg-a,,,,AAXX 03004 07005 12/// /3610 10020 21020 30018 40114 52016 60006 90000=
07005,1997-12-03 06:00:00,1,1013.9,1,86,-1,15000,11.112,,,10,0.9,2.7,,,,,1,,,,wg-a,,,,AAXX 03064 07005 02565 80106 10010 21010 30043 40139 53010 60006 875// 90600 333 10027 20009 60014=
07005,1997-12-03 12:00:00,4,1016.9,1.1,75,0,18000,11.112,,,30,,,,,,,,,,,wg-a,,,,AAXX 03124 07005 12668 70306 10040 20000 30073 40169 51011 60006 85502 91200=
07005,1997-12-03 18:00:00,3,1017.9,0.5,87,1,18000,7.408,,,310,0.7,4.7,,,,,,,,21,wg-a,,,,AAXX 03184 07005 02668 83104 10030 20010 30083 40179 51005 61000 72162 875// 91800 333 10047 20007 ////=
07005,1997-12-04 00:00:00,2,1018.4,-0,100,2,0,14.816,,,340,,,,,,,,,,,wg-a,,,,AAXX 04004 07005 12/// /3408 10020 20020 30088 40184 54000 60006 90000=
07005,1997-12-04 06:00:00,0,1019.3,0.3,100,0,500,7.408,,,80,0.1,3.1,,,,,,,,,wg-a,,,,AAXX 04064 07005 02600 10804 10000 20000 30096 40193 52003 60006 81500 90600 333 10031 20001 61000=
07005,1997-12-04 12:00:00,3,1020.8,0.2,81,0,7000,22.224,,,60,,,,0,,,,,,,wg-a,,,,AAXX 04124 07005 02457 50612 10030 20000 30112 40208 50002 60006 85800 91200 333 60007=
07005,1997-12-04 18:00:00,1,1022.2,1.1,86,-1,7000,14.816,,,60,-0.1,3.5,,,,,,,,,wg-a,,,,AAXX 04184 07005 32757 10608 10010 21010 30125 40222 51011 815/0 91800 333 10035 21001=
07005,1997-12-05 00:00:00,0,1024,0.6,93,-1,0,11.112,,,80,,,,,,,,,,,wg-a,,,,AAXX 05004 07005 12/// /0806 10000 21010 30142 40240 50006 60006 90000=
07005,1997-12-05 06:00:00,-2,1025,0.6,93,-3,1800,0,,,0,-2.2,1.1,,,,,,,,11,wg-a,,,,AAXX 05064 07005 02/18 20000 11020 21030 30151 40250 53006 60006 71100 80001 90600 333 10011 21022 60004=
07005,1997-12-05 12:00:00,3,1025.8,-0.1,87,1,4000,3.704,,,180,,,,0,,,,,,10,wg-a,,,,AAXX 05124 07005 02/40 61802 10030 20010 30161 40258 55001 60006 71041 80002 91200 333 60007=
07005,1997-12-05 18:00:00,-2,1026.4,0.5,100,-2,800,11.112,,,160,-2.9,4.2,,,,,,,,46,wg-a,,,,AAXX 05184 07005 32/08 71606 11020 21020 30165 40264 50005 74642 80002 91800 333 10042 21029=
07005,1997-12-06 00:00:00,-1,1026.1,-0.4,93,-2,0,11.112,,,150,,,,,,,,,,,wg-a,,,,AAXX 06004 07005 12/// /1506 11010 21020 30163 40261 56004 60006 90000=
07005,1997-12-06 06:00:00,0,1024.3,-1,93,-1,3000,18.52,,,160,-1.7,0.1,,,,,,,,10,wg-a,,,,AAXX 06064 07005 02430 81610 10000 21010 30145 40243 58010 60006 71022 885// 90600 333 10001 21017 60004=
07005,1997-12-06 12:00:00,3,1023.4,-1,87,1,7000,18.52,,,180,,,,0,,,,,,,wg-a,,,,AAXX 06124 07005 02657 71810 10030 20010 30137 40234 58010 60006 8353/ 91200 333 60007=
07005,1997-12-06 18:00:00,1,1022.7,-0.2,93,0,0,14.816,,,170,0.1,5.1,,,,,,,,,wg-a,,,,AAXX 06184 07005 32/// /1708 10010 20000 30130 40227 56002 91800 333 10051 20001=
07005,1997-12-07 00:00:00,0,1022.3,-0.5,100,0,0,11.112,,,160,,,,,,,,,,,wg-a,,,,AAXX 07004 07005 12/// /1606 10000 20000 30125 40223 58005 60006 90000=
07005,1997-12-07 06:00:00,0,1019.6,-1.3,93,-1,6000,18.52,,,170,0,1.4,,,,,,,,,wg-a,,,,AAXX 07064 07005 02/56 31710 10000 21010 30099 40196 56013 60006 80002 90600 333 10014 20000 60004=
07005,1997-12-07 12:00:00,4,1016.7,-2,70,-1,7000,18.52,,,160,,,,0,,,,,,,wg-a,,,,AAXX 07124 07005 02/57 61610 10040 21010 30071 40167 58020 60006 81032 91200 333 60007=
07005,1997-12-07 18:00:00,2,1011.4,-1.7,80,-1,0,22.224,,,150,-0.3,5,,,,,,,,,wg-a,,,,AAXX 07184 07005 32/// /1512 10020 21010 30018 40114 56017 91800 333 10050 21003=
07005,1997-12-08 00:00:00,4,1007.3,-2.2,87,2,0,25.928,,,180,,,,,,,,,,,wg-a,,,,AAXX 08004 07005 12/// /1814 10040 20020 39978 40073 57022 60016 90000=
07005,1997-12-08 06:00:00,7,1005.9,-0.6,93,6,0,22.224,,,190,1.8,7,,,,,3,,,,wg-a,,,,AAXX 08064 07005 12/// /1912 10070 20060 39965 40059 57006 60034 90600 333 10070 20018=
07005,1997-12-08 12:00:00,11,1004.5,-1.3,87,9,10000,31.484,,,200,,,,,,,,,,,wg-a,,,,AAXX 08124 07005 12460 12017 10110 20090 39953 40045 58013 60006 81800 91200=
07005,1997-12-08 18:00:00,9,1004.2,0.6,93,8,10000,22.224,,,200,6.9,11.5,,,,,,,,,wg-a,,,,AAXX 08184 07005 12460 62012 10090 20080 39949 40042 53006 60006 86800 91800 333 10115 20069=
07005,1997-12-09 00:00:00,7,1006.6,1.3,93,6,0,14.816,,,220,,,,,,,,,,,wg-a,,,,AAXX 09004 07005 12/// /2208 10070 20060 39972 40066 52013 60006 90000=
07005,1997-12-09 06:00:00,8,1008.7,1,93,7,6000,14.816,,,210,6.8,9.6,,,,,,,,80,wg-a,,,,AAXX 09064 07005 02556 62108 10080 20070 39993 40087 51010 60004 78086 86800 90600 333 10096 20068 61000=
07005,1997-12-09 12:00:00,10,1010.1,-0.3,87,8,20000,25.928,,,230,,,,,,,,,,3,wg-a,,,,AAXX 09124 07005 12670 62314 10100 20080 30008 40101 58003 60006 70386 84530 91200=
07005,1997-12-09 18:00:00,11,1010,0.2,87,9,10000,22.224,,,230,6.9,11.1,,0,,,,,,21,wg-a,,,,AAXX 09184 07005 12460 82312 10110 20090 30007 40100 50002 60007 72162 875// 91800 333 10111 20069=
07005,1997-12-10 00:00:00,11,1009.7,0.3,87,9,0,25.928,,,230,,,,,,,,,,,wg-a,,,,AAXX 10004 07005 12/// /2314 10110 20090 30004 40097 51003 60016 90000=
07005,1997-12-10 06:00:00,11,1005.4,-2.7,87,9,10000,31.484,,,200,10.5,11.4,,,,,1,,,61,wg-a,,,,AAXX 10064 07005 02460 82017 10110 20090 39962 40054 58027 60014 76162 885// 90600 333 10114 20105 61000=
07005,1997-12-10 12:00:00,13,1002.2,-0.4,94,12,4000,31.484,,,250,,,,2,,,,,,60,wg-a,,,,AAXX 10124 07005 02340 82517 10130 20120 39931 40022 55004 60066 76065 887// 91200 333 60027=
07005,1997-12-10 18:00:00,12,1006.8,2.3,88,10,0,38.892,,,270,10.7,13.2,,,,,,,,,wg-a,,,,AAXX 10184 07005 32/// /2721 10120 20100 39976 40068 53023 91800 333 10132 20107=
07005,1997-12-11 00:00:00,11,1008.5,0.4,94,10,0,14.816,,,220,,,,,,,,,,,wg-a,,,,AAXX 11004 07005 12/// /2208 10110 20100 39993 40085 50004 60006 90000=
07005,1997-12-11 06:00:00,12,1004.4,-1.9,100,12,4000,22.224,,,240,10.5,12.4,,2,,,9,,,51,wg-a,,,,AAXX 11064 07005 02340 82412 10120 20120 39952 40044 56019 60094 75165 877// 90600 333 10124 20105 60027=
07005,1997-12-11 12:00:00,14,1003.5,-1,82,11,15000,31.484,,,250,,,,,,,,,,3,wg-a,,,,AAXX 11124 07005 02465 62517 10140 20110 39944 40035 58010 60006 70365 86800 91200 333 61000=
07005,1997-12-11 18:00:00,11,1002.3,-0.6,87,9,15000,42.596,,,260,10.8,14.5,,0,,,,,,25,wg-a,,,,AAXX 11184 07005 12565 52623 10110 20090 39931 40023 58006 60007 72586 85200 91800 333 10145 20108=
07005,1997-12-12 00:00:00,10,1005.7,2.5,76,6,0,42.596,,,290,,,,,,,,,,,wg-a,,,,AAXX 12004 07005 12/// /2923 10100 20060 39964 40057 51025 60016 90000=
07005,1997-12-12 06:00:00,8,1012.6,4.2,87,6,8000,31.484,,,320,7.4,11.2,,1,,,3,,,61,wg-a,,,,AAXX 12064 07005 02358 83217 10080 20060 30032 40126 52042 60034 76162 887// 90600 333 10112 20074 60017=
07005,1997-12-12 12:00:00,8,1020.1,3,81,5,15000,31.484,,,330,,,,,,,,,,2,wg-a,,,,AAXX 12124 07005 02465 73317 10080 20050 30106 40201 51030 61000 70262 871// 91200 333 ////=
07005,1997-12-12 18:00:00,7,1025.6,2.9,87,5,20000,18.52,,,320,6.6,8.3,,,,,,,,,wg-a,,,,AAXX 12184 07005 32670 53210 10070 20050 30161 40256 51029 85500 91800 333 10083 20066=
07005,1997-12-13 00:00:00,5,1028.8,1.3,87,3,0,7.408,,,310,,,,,,,,,,,wg-a,,,,AAXX 13004 07005 12/// /3104 10050 20030 30191 40288 53013 60006 90000=
07005,1997-12-13 12:00:00,8,1032.6,0.7,81,5,15000,11.112,,,310,,,,,,,,,,,wg-a,,,,AAXX 13124 07005 12465 23106 10080 20050 30230 40326 50007 60006 81102 91200=
07005,1997-12-13 18:00:00,5,1033,0.2,93,4,0,7.408,,,250,1.8,8.8,,,,,,,,,wg-a,,,,AAXX 13184 07005 12/// /2504 10050 20040 30233 40330 53002 60006 91800 333 10088 20018=
07005,1997-12-14 00:00:00,4,1033,-0.5,93,3,0,11.112,,,230,,,,,,,,,,,wg-a,,,,AAXX 14004 07005 12/// /2306 10040 20030 30233 40330 56005 60006 90000=
07005,1997-12-14 06:00:00,3,1031.4,-1.2,100,3,10000,3.704,,,250,3.1,4.9,,0,,,,,,,wg-a,,,,AAXX 14064 07005 02/60 72502 10030 20030 30217 40314 56012 60004 85032 90600 333 10049 20031 60007=
07005,1997-12-14 12:00:00,8,1030.1,-1.3,93,7,10000,11.112,,,350,,,,,,,,,,,wg-a,,,,AAXX 14124 07005 12460 73506 10080 20070 30206 40301 58013 60006 872// 91200=
07005,1997-12-14 18:00:00,6,1028.8,-0.1,93,5,0,14.816,,,50,3.3,8.7,,,,,,,,,wg-a,,,,AAXX 14184 07005 32/// /0508 10060 20050 30192 40288 55001 91800 333 10087 20033=
07005,1997-12-15 00:00:00,4,1028.6,0.2,93,3,0,18.52,,,40,,,,,,,,,,,wg-a,,,,AAXX 15004 07005 02/// /0410 10040 20030 30189 40286 52002 61000 90000 333 ////=
07005,1997-12-15 06:00:00,1,1029.4,0.1,93,0,6000,29.632,,,50,1.2,6.4,,,,,,,,,wg-a,,,,AAXX 15064 07005 02/56 00516 10010 20000 30196 40294 53001 60004 80000 90600 333 10064 20012 61000=
07005,1997-12-15 12:00:00,3,1029.4,-0.5,81,0,6000,31.484,,,60,,,,,,,,,,,wg-a,,,,AAXX 15124 07005 12556 50617 10030 20000 30197 40294 58005 60006 85200 91200=
07005,1997-12-15 15:00:00,3,1028.9,-0.5,87,1,7000,25.928,,,60,,,,,,,,,,,wg-a,,,,AAXX 15154 07005 12457 80614 10030 20010 30192 40289 57005 60006 875// 91500=
07005,1997-12-15 18:00:00,2,1029.1,0.1,80,-1,10000,31.484,,,60,0.4,3.2,,,,,,,,,wg-a,,,,AAXX 15184 07005 12460 80617 10020 21010 30193 40291 51001 60006 875// 91800 333 10032 20004=
07005,1997-12-16 00:00:00,0,1027.6,-1.2,80,-3,0,35.188,,,80,,,,,,,,,,,wg-a,,,,AAXX 16004 07005 12/// /0819 10000 21030 30178 40276 58012 60006 90000=
07005,1997-12-16 06:00:00,-1,1023.5,-2.1,80,-4,6000,31.484,,,70,-0.9,1.9,,,,,,,,,wg-a,,,,AAXX 16064 07005 02456 80717 11010 21040 30137 40235 58021 60006 875// 90600 333 10019 21009 60004=
07005,1997-12-17 00:00:00,-3,1010.2,-3.5,80,-6,0,31.484,,,90,,,,,,,,,,,wg-a,,,,AAXX 17004 07005 12/// /0917 11030 21060 30004 40102 56035 60006 90000=
07005,1997-12-17 06:00:00,-2,1004.8,-3,86,-4,7000,31.484,,,100,-3.6,,,,,,,,,71,wg-a,,,,AAXX 17064 07005 02457 81017 11020 21040 39951 40048 56030 61000 77172 875// 90600 333 11017 21036 6100=
07005,1997-12-17 09:00:00,-1,1003.6,-1.1,86,-3,4000,31.484,,,110,,,,,,,,,,70,wg-a,,,,AAXX 17094 07005 02440 81117 11010 21030 39940 40036 56011 61000 77072 887// 90900 333 ////=
07005,1997-12-17 12:00:00,0,1001.6,-1.9,93,-1,7000,29.632,,,120,,,,,,,,,,2,wg-a,,,,AAXX 17124 07005 02457 81216 10000 21010 39921 40016 58019 61000 70272 887// 91200 333 6100=
07005,1997-12-17 18:00:00,2,1000.8,-0.7,93,1,8000,29.632,,,130,-1.9,2.5,,,,,,,,,wg-a,,,,AAXX 17184 07005 12458 81316 10020 20010 39913 40008 58007 60006 885// 91800 333 10025 21019=
07005,1997-12-18 00:00:00,4,1000.3,-0.7,93,3,0,29.632,,,140,,,,,,,,,,,wg-a,,,,AAXX 18004 07005 12/// /1416 10040 20030 39909 40003 58007 60016 90000=
07005,1997-12-18 06:00:00,5,998.1,-0.3,93,4,600,25.928,,,130,2.4,5.4,,,,,,,,61,wg-a,,,,AAXX 18064 07005 02306 81314 10050 20040 39888 49981 58003 61000 76162 887// 90600 333 10054 20024 6002=
07005,1997-12-18 09:00:00,6,998.3,0.2,93,5,8000,31.484,,,140,,,,0,,,,,,60,wg-a,,,,AAXX 18094 07005 12358 81417 10060 20050 39890 49983 53002 60007 76062 885// 90900=
07005,1997-12-18 12:00:00,8,996.9,-1.3,93,7,3000,22.224,,,140,,,,4,,,,,,10,wg-a,,,,AAXX 18124 07005 02230 81412 10080 20070 39877 49969 58013 60046 71062 877// 91200 333 60047=
07005,1997-12-18 15:00:00,10,997.1,0.2,93,9,6000,14.816,,,160,,,,1,,,,,,10,wg-a,,,,AAXX 18154 07005 12356 81608 10100 20090 39879 49971 53002 60017 71062 885// 91500=
07005,1997-12-18 18:00:00,10,997.3,0.2,100,10,8000,14.816,,,150,5.3,10.2,,,,,,,,2,wg-a,,,,AAXX 18184 07005 12358 81508 10100 20100 39881 49973 51002 60006 70262 885// 91800 333 10102 20053=
07005,1997-12-19 00:00:00,9,996.3,-1,100,9,0,11.112,,,120,,,,,,,,,,,wg-a,,,,AAXX 19004 07005 12/// /1206 10090 20090 39871 49963 58010 60056 90000=
07005,1997-12-19 06:00:00,9,994.4,-0.7,100,9,8000,22.224,,,280,8.4,10.1,,,,,,,,10,wg-a,,,,AAXX 19064 07005 02258 82812 10090 20090 39852 49944 56007 61000 71066 875// 90600 333 10101 20084 6018=
07005,1997-12-19 12:00:00,9,998.5,1.9,93,8,11000,14.816,,,180,,,,,,,,,,,wg-a,,,,AAXX 19124 07005 12/61 /1808 10090 20080 39893 49985 51019 60046 91200=
07005,1997-12-19 15:00:00,9,998.4,-0.1,93,8,7000,18.52,,,190,,,,,,,,,,,wg-a,,,,AAXX 19154 07005 12457 71910 10090 20080 39892 49984 55001 60006 878// 91500=
07005,1997-12-19 18:00:00,8,998.9,0.5,93,7,10000,11.112,,,150,8.1,9.9,,,,,,,,,wg-a,,,,AAXX 19184 07005 32460 41506 10080 20070 39897 49989 51005 83502 91800 333 10099 20081=
07005,1997-12-20 00:00:00,8,999.4,-0.3,93,7,0,18.52,,,140,,,,,,,,,,,wg-a,,,,AAXX 20004 07005 12/// /1410 10080 20070 39901 49994 58003 60006 90000=
07005,1997-12-20 06:00:00,5,999.8,0.4,100,5,12000,14.816,,,140,5.3,8.2,,,,,4,,,,wg-a,,,,AAXX 20064 07005 02762 21408 10050 20050 39904 49998 53004 60006 82500 90600 333 10082 20053 60044=
07005,1997-12-20 09:00:00,5,1001.7,1.9,100,5,100,14.816,,,140,,,,,,,,,,45,wg-a,,,,AAXX 20094 07005 12/01 91408 10050 20050 39923 40017 53019 60006 74541 89/// 90900=
07005,1997-12-20 15:00:00,5,1003.8,1.2,100,5,100,7.408,,,130,,,,,,,,,,45,wg-a,,,,AAXX 20154 07005 12/01 91304 10050 20050 39944 40038 53012 60006 74544 89/// 91500=
07005,1997-12-20 18:00:00,5,1005.6,1.8,100,5,0,0,,,0,4.8,5.5,,,,,,,,,wg-a,,,,AAXX 20184 07005 12/// /0000 10050 20050 39962 40056 51018 60006 91800 333 10055 20048=
07005,1997-12-21 00:00:00,4,1008.4,0.9,100,4,0,7.408,,,330,,,,,,,,,,,wg-a,,,,AAXX 21004 07005 12/// /3304 10040 20040 39989 40084 51009 60006 90000=
07005,1997-12-21 06:00:00,4,1010.3,0.7,100,4,100,7.408,,,270,3.5,5.2,,,,,,,,45,wg-a,,,,AAXX 21064 07005 02/01 92704 10040 20040 30008 40103 51007 60006 74542 89/// 90600 333 10052 20035 60004=
07005,1997-12-21 09:00:00,5,1012.2,1.9,100,5,100,11.112,,,300,,,,,,,,,,43,wg-a,,,,AAXX 21094 07005 32/01 93006 10050 20050 30027 40122 53019 74344 89/// 90900=
07005,1997-12-21 12:00:00,7,1012.6,0.5,100,7,800,11.112,,,320,,,,,,,,,,42,wg-a,,,,AAXX 21124 07005 12208 83206 10070 20070 30032 40126 50005 60006 74244 886// 91200=
07005,1997-12-21 15:00:00,8,1012.9,0.3,100,8,3500,14.816,,,330,,,,,,,,,,10,wg-a,,,,AAXX 21154 07005 12535 83308 10080 20080 30035 40129 53003 60006 71042 885// 91500=
07005,1997-12-21 18:00:00,7,1013.7,0.8,100,7,0,11.112,,,10,4.3,8.1,,,,,,,,,wg-a,,,,AAXX 21184 07005 32/// /0106 10070 20070 30043 40137 51008 91800 333 10081 20043=
07005,1997-12-22 00:00:00,6,1015.1,0.6,93,5,0,3.704,,,350,,,,,,,,,,,wg-a,,,,AAXX 22004 07005 12/// /3502 10060 20050 30056 40151 51006 60006 90000=
07005,1997-12-22 06:00:00,6,1014.1,-0.7,93,5,2500,3.704,,,100,5.8,7.2,,,,,,,,10,wg-a,,,,AAXX 22064 07005 02225 81002 10060 20050 30046 40141 55007 60006 71022 886// 90600 333 10072 20058 60004=
07005,1997-12-22 09:00:00,6,1014.5,0.4,93,5,2500,7.408,,,130,,,,,,,,,,10,wg-a,,,,AAXX 22094 07005 12325 81304 10060 20050 30050 40145 53004 60006 71022 886// 90900=
07005,1997-12-22 12:00:00,6,1014.3,-0.2,93,5,7000,11.112,,,140,,,,,,,,,,,wg-a,,,,AAXX 22124 07005 12357 81406 10060 20050 30048 40143 58002 60006 876// 91200=
07005,1997-12-22 15:00:00,6,1014.1,-0.2,87,4,10000,14.816,,,150,,,,,,,,,,,wg-a,,,,AAXX 22154 07005 12460 81508 10060 20040 30046 40141 55002 60006 886// 91500=
07005,1997-12-22 18:00:00,5,1014.1,-0,93,4,10000,18.52,,,140,4.9,6.4,,,,,,,,,wg-a,,,,AAXX 22184 07005 12460 81410 10050 20040 30046 40141 54000 60006 885// 91800 333 10064 20049=
07005,1997-12-23 00:00:00,5,1015.3,0.5,93,4,0,7.408,,,130,,,,,,,,,,,wg-a,,,,AAXX 23004 07005 12/// /1304 10050 20040 30058 40153 53005 60006 90000=
07005,1997-12-23 06:00:00,5,1016,-0,100,5,4000,14.816,,,160,4.9,5.3,,,,,,,,10,wg-a,,,,AAXX 23064 07005 02240 81608 10050 20050 30065 40160 55000 61000 71062 877// 90600 333 10053 20049 6002=
07005,1997-12-23 12:00:00,7,1018.8,0.4,100,7,3000,11.112,,,200,,,,,,,,,,10,wg-a,,,,AAXX 23124 07005 12530 82006 10070 20070 30093 40188 50004 60006 71022 875// 91200=
07005,1997-12-23 15:00:00,9,1019.4,0.7,87,7,3500,11.112,,,200,,,,,,,,,,10,wg-a,,,,AAXX 23154 07005 12735 72006 10090 20070 30100 40194 53007 60006 71022 8153/ 91500=
07005,1997-12-23 18:00:00,9,1019.4,-0,87,7,8000,18.52,,,160,5,10.1,,,,,,,,61,wg-a,,,,AAXX 23184 07005 02558 81610 10090 20070 30100 40194 54000 61000 76162 8555/ 91800 333 10101 20050 6000=
07005,1997-12-24 00:00:00,11,1019,0.2,94,10,0,18.52,,,210,,,,,,,,,,,wg-a,,,,AAXX 24004 07005 12/// /2110 10110 20100 30097 40190 50002 60016 90000=
07005,1997-12-24 06:00:00,13,1018.8,0.2,94,12,4000,25.928,,,240,8,13.2,,,,,2,,,58,wg-a,,,,AAXX 24064 07005 02340 82414 10130 20120 30095 40188 53002 60024 75865 875// 90600 333 10132 20080 61000=
07005,1997-12-24 09:00:00,12,1019.8,1,100,12,500,18.52,,,210,,,,0,,,,,,20,wg-a,,,,AAXX 24094 07005 12300 82110 10120 20120 30105 40198 51010 60007 72065 885// 90900=
07005,1997-12-24 12:00:00,13,1017.8,-1.9,88,11,15000,25.928,,,200,,,,,,,,,,1,wg-a,,,,AAXX 24124 07005 12465 82014 10130 20110 30086 40178 58019 60016 70165 8582/ 91200=
07005,1997-12-24 18:00:00,11,1014.3,-0.6,94,10,500,35.188,,,210,11.2,13.3,,,,,,,,51,wg-a,,,,AAXX 24184 07005 02300 82119 10110 20100 30050 40143 55006 61000 75165 875// 91800 333 10133 20112 6002=
07005,1997-12-25 00:00:00,10,1016.5,1.5,82,7,0,29.632,,,250,,,,,,,,,,,wg-a,,,,AAXX 25004 07005 02/// /2516 10100 20070 30072 40165 51015 61000 90000 333 6100=
07005,1997-12-25 06:00:00,8,1014.6,-1.6,87,6,6000,18.52,,,180,7.7,12.6,,,,,5,,,,wg-a,,,,AAXX 25064 07005 02656 71810 10080 20060 30052 40146 58016 60054 875// 90600 333 10126 20077 61000=
07005,1997-12-25 09:00:00,10,1011.2,-3.3,87,8,6000,22.224,,,180,,,,,,,,,,,wg-a,,,,AAXX 25094 07005 12456 71812 10100 20080 30019 40112 56033 60006 878// 90900=
07005,1997-12-25 12:00:00,15,1004.7,-6.3,82,12,15000,42.596,,62.968,220,,,,2,,,,,,1,wg-a,,,,AAXX 25124 07005 02365 72223 10150 20120 39956 40047 58063 60026 70161 85202 91200 333 60027 91034=
07005,1997-12-25 15:00:00,12,1002.6,-2.2,71,7,15000,50.004,,87.044,250,,,,2,,,,,,21,wg-a,,,,AAXX 25154 07005 12365 72527 10120 20070 39934 40026 55022 60027 72162 85831 91500 333 91047=
07005,1997-12-25 18:00:00,11,1003.5,0.9,76,7,0,46.3,,,250,7.7,15,,,,,,,,,wg-a,,,,AAXX 25184 07005 32/// /2525 10110 20070 39943 40035 51009 91800 333 10150 20077=
07005,1997-12-26 00:00:00,10,1004.5,-0.5,76,6,0,46.3,,,240,,,,,,,,,,,wg-a,,,,AAXX 26004 07005 12/// /2425 10100 20060 39952 40045 58005 60006 90000=
07005,1997-12-26 06:00:00,8,1003.1,-1,81,5,10000,35.188,,64.82,240,6.9,11.2,,,,,,,,21,wg-a,,,,AAXX 26064 07005 02460 52419 10080 20050 39938 40031 58010 61000 72162 82872 90600 333 10112 20069 6008 91035=
07005,1997-12-26 12:00:00,8,1001.7,-0.8,87,6,10000,38.892,,62.968,250,,,,0,,,,,,61,wg-a,,,,AAXX 26124 07005 02560 82521 10080 20060 39924 40017 58008 60016 76186 888// 91200 333 60007 91034=
07005,1997-12-26 18:00:00,8,1004.6,2.3,87,6,20000,31.484,,,290,6.6,9,,1,,,,,,2,wg-a,,,,AAXX 26184 07005 02570 72917 10080 20060 39953 40046 52023 60006 70286 878// 91800 333 10090 20066 60017=
07005,1997-12-27 00:00:00,7,1007.5,0.8,87,5,0,14.816,,,250,,,,,,,,,,,wg-a,,,,AAXX 27004 07005 12/// /2508 10070 20050 39981 40075 51008 60006 90000=
07005,1997-12-27 06:00:00,7,1008.1,0.3,93,6,15000,14.816,,,250,6.3,8.5,,,,,3,,,,wg-a,,,,AAXX 27064 07005 02565 72508 10070 20060 39987 40081 53003 60006 877// 90600 333 10085 20063 60034=
07005,1997-12-27 09:00:00,7,1009.6,1.5,93,6,20000,11.112,,,280,,,,,,,,,,,wg-a,,,,AAXX 27094 07005 12570 /2806 10070 20060 30002 40096 53015 60006 82802 90900=
07005,1997-12-27 12:00:00,9,1009.4,-0.1,81,6,20000,25.928,,,290,,,,,,,,,,,wg-a,,,,AAXX 27124 07005 12470 62914 10090 20060 30001 40094 58001 60006 84302 91200=
07005,1997-12-27 15:00:00,8,1009.9,0.4,87,6,20000,18.52,,,300,,,,,,,,,,,wg-a,,,,AAXX 27154 07005 12470 73010 10080 20060 30005 40099 53004 60006 873// 91500=
07005,1997-12-27 18:00:00,6,1011.1,1.2,93,5,0,7.408,,,280,6.1,9.5,,,,,,,,,wg-a,,,,AAXX 27184 07005 32/// /2804 10060 20050 30017 40111 53012 91800 333 10095 20061=
07005,1997-12-28 00:00:00,6,1013.2,1,87,4,0,11.112,,,330,,,,,,,,,,,wg-a,,,,AAXX 28004 07005 12/// /3306 10060 20040 30037 40132 51010 60006 90000=
07005,1997-12-28 06:00:00,3,1014.1,-0,93,2,15000,7.408,,,210,3.2,7.4,,,,,1,,,,wg-a,,,,AAXX 28064 07005 02565 52104 10030 20020 30045 40141 55000 60006 85800 90600 333 10074 20032 60014=
07005,1997-12-28 12:00:00,6,1013.2,-1.2,87,4,20000,14.816,,,220,,,,,,,,,,,wg-a,,,,AAXX 28124 07005 12570 72208 10060 20040 30038 40132 58012 60006 81202 91200=
07005,1997-12-28 18:00:00,6,1011.8,-0.5,87,4,0,14.816,,,220,2.7,6.7,,,,,,,,,wg-a,,,,AAXX 28184 07005 32/// /2208 10060 20040 30023 40118 55005 91800 333 10067 20027=
07005,1997-12-29 00:00:00,5,1010.5,-0.5,93,4,0,22.224,,,240,,,,,,,,,,,wg-a,,,,AAXX 29004 07005 12/// /2412 10050 20040 30010 40105 57005 60016 90000=
07005,1997-12-29 06:00:00,3,1010.8,-0.1,93,2,500,11.112,,,200,2.5,6.2,,,,,1,,,,wg-a,,,,AAXX 29064 07005 12/00 22006 10030 20020 30012 40108 55001 60014 82030 90600 333 10062 20025=
07005,1997-12-29 09:00:00,3,1011.7,1,100,3,6000,11.112,,,180,,,,,,,,,,,wg-a,,,,AAXX 29094 07005 12456 71806 10030 20030 30022 40117 53010 60006 8357/ 90900=
07005,1997-12-29 12:00:00,4,1011.7,0,100,4,8000,14.816,,,190,,,,,,,,,,,wg-a,,,,AAXX 29124 07005 12/58 /1908 10040 20040 30022 40117 50000 60006 91200=
07005,1997-12-29 15:00:00,4,1010.8,-0.9,93,3,8000,18.52,,,180,,,,,,,,,,,wg-a,,,,AAXX 29154 07005 12358 71810 10040 20030 30013 40108 56009 60006 8613/ 91500=
07005,1997-12-29 18:00:00,4,1010.7,-0.1,93,3,10000,14.816,,,150,2.5,4.8,,,,,,,,,wg-a,,,,AAXX 29184 07005 12/60 71508 10040 20030 30012 40107 58001 60006 8707/ 91800 333 10048 20025=
07005,1997-12-30 00:00:00,4,1009.6,-0.6,93,3,0,22.224,,,140,,,,,,,,,,,wg-a,,,,AAXX 30004 07005 12/// /1412 10040 20030 30001 40096 58006 60006 90000=
07005,1997-12-30 06:00:00,5,1007.8,-1.2,81,2,10000,29.632,,,150,3.8,4.8,,,,,,,,,wg-a,,,,AAXX 30064 07005 02660 71516 10050 20020 39983 40078 56012 60006 8357/ 90600 333 10048 20038 60004=
07005,1997-12-30 12:00:00,8,1006.7,-0.8,87,6,15000,25.928,,,180,,,,,,,,,,1,wg-a,,,,AAXX 30124 07005 02465 71814 10080 20060 39974 40067 58008 61000 70162 878// 91200 333 6100=
07005,1997-12-30 15:00:00,8,1005.6,-1.1,87,6,8000,22.224,,,180,,,,,,,,,,,wg-a,,,,AAXX 30154 07005 12558 71812 10080 20060 39963 40056 56011 60006 875// 91500=
07005,1997-12-30 18:00:00,8,1004.8,-0.8,93,7,12000,22.224,,,170,4.4,8.3,,,,,,,,,wg-a,,,,AAXX 30184 07005 32562 81712 10080 20070 39955 40048 58008 885// 91800 333 10083 20044=
07005,1997-12-31 00:00:00,9,1001.9,-1.9,87,7,0,25.928,,,180,,,,,,,,,,,wg-a,,,,AAXX 31004 07005 12/// /1814 10090 20070 39926 40019 58019 60006 90000=
07005,1997-12-31 06:00:00,10,1000.3,-0.1,93,9,8000,29.632,,,200,7.6,9.7,,,,,,,,61,wg-a,,,,AAXX 31064 07005 02358 82016 10100 20090 39911 40003 55001 61000 76162 885// 90600 333 10097 20076 6001=
07005,1997-12-31 12:00:00,10,1005.6,2.3,87,8,20000,18.52,,,250,,,,,,,,,,2,wg-a,,,,AAXX 31124 07005 12470 82510 10100 20080 39963 40056 51023 60016 70262 885// 91200=
07005,1997-12-31 18:00:00,6,1010.1,2.4,93,5,0,7.408,,,220,6.3,9.9,,,,,,,,,wg-a,,,,AAXX 31184 07005 32/// /2204 10060 20050 30007 40101 51024 91800 333 10099 20063=
