station_id,dh_utc,temperature,pression,pression_variation_3h,humidite,point_de_rosee,visibilite,vent_moyen,vent_rafales,vent_rafales_10min,vent_direction,temperature_min,temperature_max,pluie_1h,pluie_3h,pluie_6h,pluie_12h,pluie_24h,ensoleillement,temperature_sol,temps_omm,source,radiations,neige_au_sol,nebulosite,raw_msg
07005,1998-01-01 00:00:00,5,1012.9,1.1,93,4,0,11.112,,,170,,,,,,,,,,,wg-a,,,,AAXX 01004 07005 12/// /1706 10050 20040 30034 40129 51011 60006 90000=
07005,1998-01-01 06:00:00,4,1013.1,-0.1,93,3,8000,14.816,,,170,3.8,6.5,,,,,1,,,,wg-a,,,,AAXX 01064 07005 02/58 41708 10040 20030 30036 40131 55001 60006 80002 90600 333 10065 20038 60014=
07005,1998-01-01 09:00:00,4,1013.4,0.3,93,3,15000,14.816,,,160,,,,,,,,,,,wg-a,,,,AAXX 01094 07005 12465 /1608 10040 20030 30039 40134 50003 60006 81230 90900=
07005,1998-01-01 12:00:00,7,1011.6,-1.7,81,4,20000,18.52,,,200,,,,,,,,,,,wg-a,,,,AAXX 01124 07005 12470 12010 10070 20040 30022 40116 58017 60006 81202 91200=
07005,1998-01-01 15:00:00,7,1008.1,-3.5,76,3,20000,25.928,,,190,,,,,,,,,,,wg-a,,,,AAXX 01154 07005 12/70 41914 10070 20030 39987 40081 58035 60006 80002 91500=
07005,1998-01-01 18:00:00,6,1004,-4.1,81,3,0,35.188,,,180,3.4,7.5,,,,,,,,,wg-a,,,,AAXX 01184 07005 12/// /1819 10060 20030 39946 40040 58041 60006 91800 333 10075 20034=
07005,1998-01-02 00:00:00,7,994.5,-3.3,93,6,0,35.188,,,210,,,,2,,,,,,,wg-a,,,,AAXX 02004 07005 02/// /2119 10070 20060 39853 49945 56033 60046 90000 333 60027=
07005,1998-01-02 06:00:00,9,990.2,-3,87,7,8000,29.632,,,190,6.1,9,,,,,,,,61,wg-a,,,,AAXX 02064 07005 02358 81916 10090 20070 39811 49902 58030 61000 76162 875// 90600 333 10090 20061 6004=
07005,1998-01-02 09:00:00,10,984,-6.2,82,7,12000,35.188,,,170,,,,1,,,,,,21,wg-a,,,,AAXX 02094 07005 12362 71719 10100 20070 39749 49840 58062 60017 72162 855// 90900=
07005,1998-01-02 12:00:00,9,983.6,-0.4,81,6,10000,42.596,,57.412,230,,,,3,,,,,,21,wg-a,,,,AAXX 02124 07005 02360 72323 10090 20060 39745 49836 55004 60046 72162 872// 91200 333 60037 91031=
07005,1998-01-02 15:00:00,8,985.9,2.3,93,7,3000,64.82,,87.044,290,,,,5,,,,,,10,wg-a,,,,AAXX 02154 07005 12230 82935 10080 20070 39768 49859 53023 60057 71062 877// 91500 333 91047=
07005,1998-01-02 18:00:00,9,995.6,9.6,76,5,10000,42.596,,,280,6.7,10.5,,1,,,,,,1,wg-a,,,,AAXX 02184 07005 02460 /2823 10090 20050 39864 49956 51096 60006 70162 85800 91800 333 10105 20067 60017=
07005,1998-01-03 00:00:00,8,1002.7,2.2,87,6,0,29.632,,,240,,,,0,,,,,,,wg-a,,,,AAXX 03004 07005 02/// /2416 10080 20060 39934 40027 51022 60016 90000 333 60007=
07005,1998-01-03 06:00:00,8,996.6,-4.7,93,7,7000,31.484,,,180,6.8,9.2,,,,,,,,61,wg-a,,,,AAXX 03064 07005 02257 81817 10080 20070 39874 49966 58047 61000 76162 875// 90600 333 10092 20068 6012=
07005,1998-01-03 09:00:00,11,993.1,-3.4,87,9,15000,35.188,,,210,,,,2,,,,,,21,wg-a,,,,AAXX 03094 07005 12265 82119 10110 20090 39840 49931 56034 60027 72165 877// 90900=
07005,1998-01-03 12:00:00,13,990.1,-2.9,82,10,25000,46.3,,,240,,,,0,,,,,,61,wg-a,,,,AAXX 03124 07005 02275 82425 10130 20100 39811 49901 56029 60026 76165 877// 91200 333 60007=
07005,1998-01-04 00:00:00,6,1006.5,1.6,81,3,0,42.596,,,240,,,,0,,,,,,,wg-a,,,,AAXX 04004 07005 02/// /2423 10060 20030 39971 40065 51016 60006 90000 333 60007=
07005,1998-01-04 09:00:00,7,1002.4,-3.6,87,5,20000,29.632,,,180,,,,,,,,,,,wg-a,,,,AAXX 04094 07005 12670 81816 10070 20050 39931 40024 58036 60006 8557/ 90900=
07005,1998-01-04 12:00:00,7,997.2,-5.2,93,6,6000,38.892,,57.412,210,,,,2,,,,,,60,wg-a,,,,AAXX 04124 07005 02356 82121 10070 20060 39879 49972 56052 60026 76062 877// 91200 333 60027 91031=
07005,1998-01-04 15:00:00,8,993.3,-3.8,76,4,25000,42.596,,61.116,220,,,,1,,,,,,1,wg-a,,,,AAXX 04154 07005 12475 52223 10080 20040 39841 49933 56038 60017 70162 82832 91500 333 91033=
07005,1998-01-04 18:00:00,6,994.7,1.3,81,3,0,50.004,,,240,5.5,8.8,,1,,,,,,,wg-a,,,,AAXX 04184 07005 12/// /2427 10060 20030 39854 49947 51013 60017 91800 333 10088 20055=
07005,1998-01-05 00:00:00,5,1001.4,3.7,87,3,0,46.3,,,240,,,,1,,,,,,,wg-a,,,,AAXX 05004 07005 02/// /2425 10050 20030 39920 40014 51037 60036 90000 333 60017=
07005,1998-01-05 06:00:00,6,1004.3,0.4,81,3,15000,35.188,,,230,4,5.6,,,,,9,,,,wg-a,,,,AAXX 05064 07005 02665 22319 10060 20030 39949 40043 50004 60006 82500 90600 333 10056 20040 60094=
07005,1998-01-05 09:00:00,6,1001.1,-3.1,81,3,20000,38.892,,59.264,190,,,,,,,,,,60,wg-a,,,,AAXX 05094 07005 02470 81921 10060 20030 39918 40011 58031 61000 76061 8557/ 90900 333 //// 91032=
07005,1998-01-05 12:00:00,10,995.6,-5.4,76,6,20000,46.3,,64.82,210,,,,1,,,,,,21,wg-a,,,,AAXX 05124 07005 02370 72125 10100 20060 39864 49956 58054 60016 72161 8657/ 91200 333 60017 91035=
07005,1998-01-06 00:00:00,5,1006.8,8.8,87,3,0,29.632,,,300,,,,,,,,,,,wg-a,,,,AAXX 06004 07005 02/// /3016 10050 20030 39974 40068 51088 60046 90000 333 61000=
07005,1998-01-06 06:00:00,4,1012.5,1.6,87,2,10000,14.816,,,220,3.6,6.1,,,,,10,,,,wg-a,,,,AAXX 06064 07005 02460 /2208 10040 20020 30030 40125 53016 60006 85200 90600 333 10061 20036 60104=
07005,1998-01-06 09:00:00,4,1013.7,1.2,93,3,15000,11.112,,,190,,,,,,,,,,,wg-a,,,,AAXX 06094 07005 12465 71906 10040 20030 30042 40137 51012 60006 8187/ 90900=
07005,1998-01-06 12:00:00,6,1013.3,-0.4,87,4,15000,22.224,,,190,,,,,,,,,,61,wg-a,,,,AAXX 06124 07005 02665 81912 10060 20040 30038 40133 58004 61000 76162 8257/ 91200 333 6100=
07005,1998-01-06 18:00:00,7,1011.4,-0.6,100,7,4000,14.816,,,170,3.2,7.3,,1,,,,,,21,wg-a,,,,AAXX 06184 07005 12340 81708 10070 20070 30020 40114 56006 60017 72165 877// 91800 333 10073 20032=
07005,1998-01-07 00:00:00,11,1009.4,-1,94,10,0,29.632,,,210,,,,,,,,,,,wg-a,,,,AAXX 07004 07005 12/// /2116 10110 20100 30002 40094 58010 60016 90000=
07005,1998-01-07 06:00:00,10,1008.5,-0.5,82,7,20000,25.928,,,220,7.2,11.6,,,,,2,,,,wg-a,,,,AAXX 07064 07005 12670 52214 10100 20070 39992 40085 55005 60024 85500 90600 333 10116 20072=
07005,1998-01-07 12:00:00,11,1010.3,1.4,71,6,500,38.892,,,250,,,,1,,,,,,1,wg-a,,,,AAXX 07124 07005 02400 22521 10110 20060 30010 40103 51014 60016 70186 82900 91200 333 60017=
07005,1998-01-07 15:00:00,10,1012.1,1.8,71,5,500,35.188,,,250,,,,,,,,,,,wg-a,,,,AAXX 07154 07005 12400 42519 10100 20050 30028 40121 53018 60006 84800 91500=
07005,1998-01-07 18:00:00,8,1014.4,2.2,81,5,15000,25.928,,,240,6.9,10.9,,,,,,,,80,wg-a,,,,AAXX 07184 07005 02465 72414 10080 20050 30050 40144 51022 61000 78086 878// 91800 333 10109 20069 6001=
07005,1998-01-08 00:00:00,9,1015.7,1.2,81,6,0,35.188,,,230,,,,,,,,,,,wg-a,,,,AAXX 08004 07005 02/// /2319 10090 20060 30063 40157 53012 60046 90000 333 61000=
07005,1998-01-08 06:00:00,9,1018.9,1.1,81,6,15000,25.928,,,220,7,9.7,,,,,6,,,,wg-a,,,,AAXX 08064 07005 02565 82214 10090 20060 30095 40189 51011 60006 885// 90600 333 10097 20070 60064=
07005,1998-01-08 09:00:00,9,1020.2,1.3,87,7,15000,29.632,,,220,,,,,,,,,,,wg-a,,,,AAXX 08094 07005 12465 /2216 10090 20070 30108 40202 51013 60006 81101 90900=
07005,1998-01-08 15:00:00,12,1020.8,0.5,76,8,20000,31.484,,,230,,,,,,,,,,,wg-a,,,,AAXX 08154 07005 12470 /2317 10120 20080 30115 40208 53005 60006 82101 91500=
07005,1998-01-08 18:00:00,11,1022.2,1.3,82,8,20000,22.224,,,200,8.3,12.6,,,,,,,,,wg-a,,,,AAXX 08184 07005 12/70 52012 10110 20080 30128 40222 51013 60006 80001 91800 333 10126 20083=
07005,1998-01-09 00:00:00,10,1025,1.9,87,8,0,18.52,,,220,,,,,,,,,,,wg-a,,,,AAXX 09004 07005 12/// /2210 10100 20080 30156 40250 51019 60006 90000=
07005,1998-01-09 06:00:00,9,1026.2,0.8,87,7,15000,14.816,,,210,8.6,10.9,,,,,,,,,wg-a,,,,AAXX 09064 07005 02665 /2108 10090 20070 30167 40262 53008 60006 81500 90600 333 10109 20086 60004=
07005,1998-01-09 09:00:00,10,1027.6,1.4,87,8,15000,18.52,,,200,,,,,,,,,,,wg-a,,,,AAXX 09094 07005 12665 /2010 10100 20080 30181 40276 53014 60006 81500 90900=
07005,1998-01-09 12:00:00,13,1028.1,0.7,82,10,20000,18.52,,,220,,,,,,,,,,,wg-a,,,,AAXX 09124 07005 12/70 12210 10130 20100 30188 40281 50007 60006 80001 91200=
07005,1998-01-09 18:00:00,10,1027.3,0.1,82,7,25000,22.224,,,150,8.3,15,,,,,,,,,wg-a,,,,AAXX 09184 07005 12/75 11512 10100 20070 30179 40273 50001 60006 80001 91800 333 10150 20083=
07005,1998-01-10 00:00:00,8,1026.2,-0.7,87,6,0,22.224,,,140,,,,,,,,,,,wg-a,,,,AAXX 10004 07005 12/// /1412 10080 20060 30167 40262 58007 60006 90000=
07005,1998-01-10 06:00:00,4,1025,-0.4,93,3,15000,14.816,,,130,4.2,10,,,,,,,,,wg-a,,,,AAXX 10064 07005 02/65 21308 10040 20030 30154 40250 56004 60006 80001 90600 333 10100 20042 60004=
07005,1998-01-10 09:00:00,4,1025.4,0.4,93,3,10000,14.816,,,130,,,,,,,,,,,wg-a,,,,AAXX 10094 07005 12/60 61308 10040 20030 30158 40254 53004 60006 83031 90900=
07005,1998-01-10 12:00:00,9,1024.7,-0.6,81,6,10000,18.52,,,160,,,,,,,,,,,wg-a,,,,AAXX 10124 07005 12/60 41610 10090 20060 30152 40247 58006 60006 81031 91200=
07005,1998-01-10 15:00:00,10,1023.3,-1.3,82,7,10000,18.52,,,150,,,,,,,,,,,wg-a,,,,AAXX 10154 07005 12/60 41510 10100 20070 30139 40233 57013 60006 81031 91500=
07005,1998-01-10 18:00:00,8,1022.9,-0.5,87,6,0,18.52,,,150,3.7,11,,,,,,,,,wg-a,,,,AAXX 10184 07005 12/// /1510 10080 20060 30134 40229 56005 60006 91800 333 10110 20037=
07005,1998-01-11 00:00:00,5,1020.9,-1.3,93,4,0,18.52,,,140,,,,,,,,,,,wg-a,,,,AAXX 11004 07005 12/// /1410 10050 20040 30113 40209 58013 60006 90000=
07005,1998-01-11 06:00:00,4,1018.6,-1.1,87,2,7000,22.224,,,150,3.3,7.6,,,,,,,,,wg-a,,,,AAXX 11064 07005 02/57 11512 10040 20020 30090 40186 56011 60006 81030 90600 333 10076 20033 60004=
07005,1998-01-11 09:00:00,4,1018.5,-0.1,93,3,500,18.52,,,140,,,,,,,,,,,wg-a,,,,AAXX 11094 07005 12/00 31410 10040 20030 30089 40185 58001 60006 81031 90900=
07005,1998-01-11 12:00:00,10,1017.6,-0.7,76,6,8000,18.52,,,160,,,,,,,,,,,wg-a,,,,AAXX 11124 07005 12558 /1610 10100 20060 30082 40176 58007 60006 81501 91200=
07005,1998-01-11 18:00:00,9,1016.3,-0.7,81,6,0,25.928,,,170,2.9,11.3,,,,,,,,,wg-a,,,,AAXX 11184 07005 12/// /1714 10090 20060 30069 40163 58007 60006 91800 333 10113 20029=
07005,1998-01-12 00:00:00,7,1017.4,-0.2,93,6,0,14.816,,,130,,,,,,,,,,,wg-a,,,,AAXX 12004 07005 12/// /1308 10070 20060 30080 40174 58002 60006 90000=
07005,1998-01-12 06:00:00,8,1016.9,-0.1,87,6,15000,14.816,,,140,7.4,9.3,,,,,,,,,wg-a,,,,AAXX 12064 07005 02/65 61408 10080 20060 30075 40169 56001 60006 86070 90600 333 10093 20074 60004=
07005,1998-01-12 09:00:00,7,1017.4,0.4,93,6,15000,11.112,,,140,,,,,,,,,,,wg-a,,,,AAXX 12094 07005 12/65 71406 10070 20060 30079 40174 50004 60006 8707/ 90900=
07005,1998-01-12 12:00:00,10,1015.8,-1.4,82,7,15000,18.52,,,150,,,,,,,,,,,wg-a,,,,AAXX 12124 07005 12/65 71510 10100 20070 30065 40158 58014 60006 85072 91200=
07005,1998-01-12 15:00:00,11,1014.6,-1.2,76,7,15000,18.52,,,160,,,,,,,,,,,wg-a,,,,AAXX 12154 07005 12/65 71610 10110 20070 30053 40146 56012 60006 86072 91500=
07005,1998-01-12 18:00:00,9,1013.5,-1.1,87,7,12000,18.52,,,150,6.5,10.8,,,,,,,,,wg-a,,,,AAXX 12184 07005 12/62 71510 10090 20070 30042 40135 56011 60006 82048 91800 333 10108 20065=
07005,1998-01-13 00:00:00,7,1010.3,-1.8,87,5,0,14.816,,,130,,,,,,,,,,,wg-a,,,,AAXX 13004 07005 12/// /1308 10070 20050 30009 40103 56018 60006 90000=
07005,1998-01-13 12:00:00,10,1003,-1.8,82,7,10000,25.928,,,150,,,,,,,,,,2,wg-a,,,,AAXX 13124 07005 02660 71514 10100 20070 39938 40030 58018 61000 70262 8257/ 91200 333 6100=
07005,1998-01-13 15:00:00,13,1000.9,-2,72,8,12000,25.928,,,150,,,,,,,,,,,wg-a,,,,AAXX 13154 07005 12/62 21514 10130 20080 39918 40009 57020 60006 82032 91500=
07005,1998-01-14 00:00:00,10,996.4,-0.7,82,7,0,42.596,,,190,,,,,,,,,,,wg-a,,,,AAXX 14004 07005 12/// /1923 10100 20070 39872 49964 56007 60006 90000=
07005,1998-01-14 06:00:00,9,1000.2,2.7,93,8,7000,31.484,,,230,8.9,12.3,,,,,,,,61,wg-a,,,,AAXX 14064 07005 02457 82317 10090 20080 39910 40002 53027 61000 76162 875// 90600 333 10123 20089 6000=
07005,1998-01-14 09:00:00,9,1005.9,5.6,76,5,20000,35.188,,,280,,,,,,,,,,2,wg-a,,,,AAXX 14094 07005 02370 82819 10090 20050 39966 40059 53056 61000 70262 885// 90900 333 ////=
07005,1998-01-14 12:00:00,9,1010,4.1,76,5,20000,35.188,,,280,,,,,,,,,,1,wg-a,,,,AAXX 14124 07005 02470 52819 10090 20050 30007 40100 51041 61000 70186 858/0 91200 333 6100=
07005,1998-01-14 15:00:00,9,1013.8,3.7,66,3,20000,31.484,,,280,,,,,,,,,,,wg-a,,,,AAXX 14154 07005 12470 32817 10090 20030 30044 40138 52037 60006 83200 91500=
07005,1998-01-14 18:00:00,6,1016.2,2.3,87,4,20000,22.224,,,240,6.2,9.4,,1,,,,,,25,wg-a,,,,AAXX 14184 07005 12470 62412 10060 20040 30067 40162 51023 60017 72586 868/0 91800 333 10094 20062=
07005,1998-01-15 00:00:00,5,1018.3,0.7,87,3,0,14.816,,,200,,,,,,,,,,,wg-a,,,,AAXX 15004 07005 12/// /2008 10050 20030 30088 40183 50007 60016 90000=
07005,1998-01-15 06:00:00,7,1012.9,-3.8,87,5,10000,31.484,,,180,4.7,6.8,,,,,,,,61,wg-a,,,,AAXX 15064 07005 02460 81817 10070 20050 30035 40129 58038 61000 76162 885// 90600 333 10068 20047 6001=
07005,1998-01-15 12:00:00,11,1012.6,-0.2,87,9,20000,31.484,,,220,,,,,,,,,,1,wg-a,,,,AAXX 15124 07005 02470 /2217 10110 20090 30033 40126 58002 60016 70165 86800 91200 333 61000=
07005,1998-01-15 15:00:00,11,1011,-1.5,94,10,15000,25.928,,,210,,,,,,,,,,,wg-a,,,,AAXX 15154 07005 12465 82114 10110 20100 30018 40110 56015 60006 878// 91500=
07005,1998-01-15 18:00:00,10,1011,-0.1,87,8,15000,22.224,,,260,6.5,11.5,,6,,,,,,1,wg-a,,,,AAXX 15184 07005 02465 82612 10100 20080 30017 40110 55001 60006 70162 878// 91800 333 10115 20065 60067=
07005,1998-01-16 00:00:00,6,1010.4,-0.8,93,5,0,14.816,,,220,,,,,,,,,,,wg-a,,,,AAXX 16004 07005 12/// /2208 10060 20050 30010 40104 58008 60016 90000=
07005,1998-01-16 06:00:00,6,1006.9,-2,93,5,15000,14.816,,,190,5.6,10.4,,0,,,8,,,,wg-a,,,,AAXX 16064 07005 02/65 21908 10060 20050 39975 40069 58020 60084 82031 90600 333 10104 20056 60007=
07005,1998-01-16 09:00:00,7,1007.1,0.2,93,6,12000,14.816,,,280,,,,0,,,,,,61,wg-a,,,,AAXX 16094 07005 12462 82808 10070 20060 39977 40071 53002 60007 76161 8327/ 90900=
07005,1998-01-16 12:00:00,9,1008.1,1.1,87,7,25000,31.484,,,290,,,,0,,,,,,1,wg-a,,,,AAXX 16124 07005 02475 /2917 10090 20070 39988 40081 51011 60016 70186 86200 91200 333 60007=
07005,1998-01-16 15:00:00,8,1012.1,3.9,87,6,20000,31.484,,,310,,,,,,,,,,,wg-a,,,,AAXX 16154 07005 12470 73117 10080 20060 30027 40121 53039 60006 878// 91500=
07005,1998-01-17 00:00:00,5,1023.7,3.2,87,3,0,14.816,,,330,,,,,,,,,,,wg-a,,,,AAXX 17004 07005 12/// /3308 10050 20030 30141 40237 51032 60006 90000=
07005,1998-01-17 06:00:00,3,1026.5,0.6,93,2,15000,14.816,,,260,2.5,7.8,,,,,1,,,,wg-a,,,,AAXX 17064 07005 02/65 72608 10030 20020 30168 40265 53006 60006 87030 90600 333 10078 20025 60014=
07005,1998-01-17 09:00:00,5,1026.7,0.3,81,2,25000,22.224,,,240,,,,,,,,,,,wg-a,,,,AAXX 17094 07005 12575 72412 10050 20020 30171 40267 52003 60006 83830 90900=
07005,1998-01-17 12:00:00,8,1026,-0.6,76,4,500,22.224,,,240,,,,,,,,,,,wg-a,,,,AAXX 17124 07005 12500 72412 10080 20040 30165 40260 58006 60006 86832 91200=
07005,1998-01-18 00:00:00,5,1018.1,-2.6,87,3,0,22.224,,,180,,,,,,,,,,,wg-a,,,,AAXX 18004 07005 12/// /1812 10050 20030 30086 40181 58026 60006 90000=
07005,1998-01-18 06:00:00,5,1006.2,-7.4,81,2,10000,38.892,,,170,3.9,5.8,,,,,,,,21,wg-a,,,,AAXX 18064 07005 02360 81721 10050 20020 39968 40062 56074 61000 72162 877// 90600 333 10058 20039 6002=
07005,1998-01-18 09:00:00,5,999.9,-6.3,93,4,8000,38.892,,,170,,,,0,,,,,,60,wg-a,,,,AAXX 18094 07005 12458 81721 10050 20040 39905 49999 58063 60007 76062 8587/ 90900=
07005,1998-01-18 12:00:00,7,996.9,-2.9,87,5,15000,35.188,,,250,,,,4,,,,,,61,wg-a,,,,AAXX 18124 07005 02365 82519 10070 20050 39876 49969 56029 60046 76162 875// 91200 333 60047=
07005,1998-01-18 15:00:00,6,996.3,-0.6,81,3,12000,53.708,,74.08,250,,,,3,,,,,,27,wg-a,,,,AAXX 18154 07005 12462 /2529 10060 20030 39870 49963 55006 60037 72787 86900 91500 333 91040=
07005,1998-01-18 18:00:00,6,995.2,-1.1,87,4,0,42.596,,,230,5.1,8.4,,1,,,,,,,wg-a,,,,AAXX 18184 07005 12/// /2323 10060 20040 39859 49952 56011 60017 91800 333 10084 20051=
07005,1998-01-19 00:00:00,5,991.4,-2.4,93,4,0,25.928,,,230,,,,1,,,,,,,wg-a,,,,AAXX 19004 07005 02/// /2314 10050 20040 39821 49914 58024 60026 90000 333 60017=
07005,1998-01-19 06:00:00,8,993.1,3.4,87,6,10000,46.3,,64.82,290,5.2,8.3,,,,,,,,21,wg-a,,,,AAXX 19064 07005 02260 82925 10080 20060 39839 49931 53034 61000 72162 875// 90600 333 10083 20052 6011 91035=
07005,1998-01-19 15:00:00,6,1006.8,3.6,81,3,20000,25.928,,,320,,,,,,,,,,60,wg-a,,,,AAXX 19154 07005 02470 83214 10060 20030 39974 40068 53036 61000 76062 888// 91500 333 ////=
07005,1998-01-19 18:00:00,4,1010.2,3.3,81,1,12000,25.928,,,330,4,8.3,,,,,,,,21,wg-a,,,,AAXX 19184 07005 02462 83314 10040 20010 30007 40102 52033 61000 72162 888// 91800 333 10083 20040 6001=
07005,1998-01-20 00:00:00,2,1015.1,2.3,80,-1,0,35.188,,,330,,,,,,,,,,,wg-a,,,,AAXX 20004 07005 12/// /3319 10020 21010 30055 40151 53023 60006 90000=
07005,1998-01-20 06:00:00,3,1019.9,3,87,1,20000,31.484,,,330,1.8,4.4,,,,,1,,,,wg-a,,,,AAXX 20064 07005 02670 73317 10030 20010 30103 40199 53030 60006 875// 90600 333 10044 20018 60014=
07005,1998-01-20 09:00:00,3,1024,4,87,1,15000,31.484,,,330,,,,,,,,,,25,wg-a,,,,AAXX 20094 07005 02465 73317 10030 20010 30143 40240 53040 61000 72586 878// 90900 333 ////=
07005,1998-01-20 12:00:00,5,1026.5,2.6,81,2,20000,35.188,,,330,,,,,,,,,,1,wg-a,,,,AAXX 20124 07005 02470 /3319 10050 20020 30169 40265 53026 61000 70186 86800 91200 333 ////=
07005,1998-01-20 15:00:00,5,1028.3,1.8,81,2,25000,29.632,,,350,,,,,,,,,,,wg-a,,,,AAXX 20154 07005 12575 73516 10050 20020 30187 40283 53018 60006 878// 91500=
07005,1998-01-21 00:00:00,2,1034.1,1.4,93,1,0,7.408,,,340,,,,,,,,,,,wg-a,,,,AAXX 21004 07005 12/// /3404 10020 20010 30243 40341 51014 60006 90000=
07005,1998-01-21 06:00:00,0,1035.7,0.9,100,0,6000,7.408,,,110,0.2,4.2,,,,,,,,,wg-a,,,,AAXX 21064 07005 02656 71104 10000 20000 30258 40357 52009 60006 875// 90600 333 10042 20002 61000=
07005,1998-01-21 12:00:00,3,1036.8,0.4,81,0,500,3.704,,,140,,,,,,,,,,,wg-a,,,,AAXX 21124 07005 12500 71402 10030 20000 30270 40368 50004 60006 81132 91200=
07005,1998-01-21 15:00:00,4,1036.4,-0.4,70,-1,10000,3.704,,,100,,,,,,,,,,,wg-a,,,,AAXX 21154 07005 12560 /1002 10040 21010 30266 40364 58004 60006 82102 91500=
07005,1998-01-22 00:00:00,-2,1035.8,-0.4,93,-3,0,7.408,,,110,,,,,,,,,,,wg-a,,,,AAXX 22004 07005 12/// /1104 11020 21030 30258 40358 57004 60006 90000=
07005,1998-01-22 06:00:00,-3,1034.4,-0.6,93,-4,500,11.112,,,110,-3.4,1.4,,,,,,,,,wg-a,,,,AAXX 22064 07005 02/00 01106 11030 21040 30244 40344 56006 60006 80000 90600 333 10014 21034 60004=
07005,1998-01-22 09:00:00,-3,1034.1,-0.3,93,-4,2500,7.408,,,100,,,,,,,,,,10,wg-a,,,,AAXX 22094 07005 12/25 /1004 11030 21040 30241 40341 58003 60006 71000 80001 90900=
07005,1998-01-22 12:00:00,0,1032.8,-1.2,80,-3,6000,14.816,,,100,,,,,,,,,,,wg-a,,,,AAXX 22124 07005 12456 /1008 10000 21030 30229 40328 56012 60006 81101 91200=
07005,1998-01-22 15:00:00,1,1031.2,-1.5,75,-3,7000,14.816,,,90,,,,,,,,,,,wg-a,,,,AAXX 22154 07005 32/57 00908 10010 21030 30214 40312 56015 80000 91500=
07005,1998-01-22 18:00:00,-2,1031.1,-0.2,93,-3,3500,11.112,,,70,-3.9,1.3,,,,,,,,10,wg-a,,,,AAXX 22184 07005 12/35 00706 11020 21030 30212 40311 56002 60006 71000 80000 91800 333 10013 21039=
07005,1998-01-23 06:00:00,-3,1029,-0.9,93,-4,3500,7.408,,,60,-3.3,-1.4,,,,,,,,10,wg-a,,,,AAXX 23064 07005 02/35 00604 11030 21040 30191 40290 56009 60006 71000 80000 90600 333 11014 21033 60004=
07005,1998-01-23 09:00:00,-2,1029.7,0.7,93,-3,3000,18.52,,,70,,,,,,,,,,,wg-a,,,,AAXX 23094 07005 12/30 /0710 11020 21030 30198 40297 51007 60006 90900=
07005,1998-01-23 12:00:00,0,1028.9,-0.7,93,-1,3000,22.224,,,60,,,,,,,,,,10,wg-a,,,,AAXX 23124 07005 12430 80612 10000 21010 30191 40289 58007 60006 71011 885// 91200=
07005,1998-01-23 15:00:00,0,1028.9,-0,93,-1,2500,14.816,,,50,,,,,,,,,,10,wg-a,,,,AAXX 23154 07005 12425 80508 10000 21010 30191 40289 55000 60006 71022 886// 91500=
07005,1998-01-23 18:00:00,0,1029.6,0.7,93,-1,1600,18.52,,,60,-3.3,0.4,,,,,,,,10,wg-a,,,,AAXX 23184 07005 12316 80610 10000 21010 30198 40296 52007 60006 71022 886// 91800 333 10004 21033=
07005,1998-01-24 00:00:00,0,1029.8,-0.4,86,-2,0,18.52,,,50,,,,,,,,,,,wg-a,,,,AAXX 24004 07005 12/// /0510 10000 21020 30200 40298 57004 60006 90000=
07005,1998-01-24 06:00:00,0,1029.3,-0.5,93,-1,2500,7.408,,,10,-0.3,0.8,,,,,,,,10,wg-a,,,,AAXX 24064 07005 02325 80104 10000 21010 30195 40293 58005 60006 71022 886// 90600 333 10008 21003 60004=
07005,1998-01-24 09:00:00,1,1030.1,0.8,93,0,2500,11.112,,,350,,,,,,,,,,10,wg-a,,,,AAXX 24094 07005 02325 73506 10010 20000 30203 40301 51008 61000 71052 875// 90900 333 ////=
07005,1998-01-24 12:00:00,4,1029.5,-0.5,75,0,15000,25.928,,,50,,,,,,,,,,3,wg-a,,,,AAXX 24124 07005 02465 /0514 10040 20000 30198 40295 58005 61000 70351 82802 91200 333 ////=
07005,1998-01-24 15:00:00,5,1029,-0.5,70,0,20000,31.484,,,40,,,,,,,,,,,wg-a,,,,AAXX 24154 07005 12570 50417 10050 20000 30193 40290 58005 60006 83202 91500=
07005,1998-01-24 18:00:00,2,1029.3,0.2,80,-1,0,22.224,,,40,0.2,4.9,,,,,,,,,wg-a,,,,AAXX 24184 07005 32/// /0412 10020 21010 30195 40293 53002 91800 333 10049 20002=
07005,1998-01-25 00:00:00,2,1029.1,-0.4,75,-2,0,22.224,,,40,,,,,,,,,,,wg-a,,,,AAXX 25004 07005 12/// /0412 10020 21020 30193 40291 58004 60006 90000=
07005,1998-01-25 06:00:00,1,1027.8,-0.6,86,-1,10000,31.484,,,50,1.2,2.2,,,,,,,,,wg-a,,,,AAXX 25064 07005 02560 80517 10010 21010 30180 40278 56006 60006 875// 90600 333 10022 20012 61000=
07005,1998-01-25 09:00:00,1,1028.4,0.6,86,-1,15000,25.928,,,40,,,,,,,,,,,wg-a,,,,AAXX 25094 07005 12465 80414 10010 21010 30186 40284 51006 60006 888// 90900=
07005,1998-01-25 12:00:00,1,1028.6,0.2,75,-3,12000,31.484,,,60,,,,,,,,,,,wg-a,,,,AAXX 25124 07005 12462 70617 10010 21030 30188 40286 50002 60006 878// 91200=
07005,1998-01-25 18:00:00,0,1030.2,1.2,74,-4,0,31.484,,,90,-0.1,1.8,,,,,,,,,wg-a,,,,AAXX 25184 07005 12/// /0917 10000 21040 30204 40302 53012 60006 91800 333 10018 21001=
07005,1998-01-26 00:00:00,0,1031.8,0.4,69,-5,0,25.928,,,80,,,,,,,,,,,wg-a,,,,AAXX 26004 07005 12/// /0814 10000 21050 30219 40318 52004 60006 90000=
07005,1998-01-26 06:00:00,-3,1031.8,-0,93,-4,6000,14.816,,,70,-2.8,-0.1,,,,,,,,,wg-a,,,,AAXX 26064 07005 02556 70708 11030 21040 30218 40318 55000 60006 875// 90600 333 11001 21028 60004=
07005,1998-01-26 09:00:00,-3,1032.3,0.5,93,-4,2000,18.52,,,70,,,,,,,,,,10,wg-a,,,,AAXX 26094 07005 12420 /0710 11030 21040 30223 40323 52005 60006 71011 86100 90900=
07005,1998-01-26 12:00:00,-1,1031.4,-0.8,80,-4,3500,22.224,,,80,,,,,,,,,,10,wg-a,,,,AAXX 26124 07005 12/35 00812 11010 21040 30215 40314 58008 60006 71011 80000 91200=
07005,1998-01-26 15:00:00,1,1029.8,-1.5,75,-3,4000,18.52,,,60,,,,,,,,,,10,wg-a,,,,AAXX 26154 07005 12/40 00610 10010 21030 30200 40298 56015 60006 71000 80000 91500=
07005,1998-01-26 18:00:00,-1,1029.5,-0.4,80,-4,3500,18.52,,,50,-3.2,0.8,,,,,,,,10,wg-a,,,,AAXX 26184 07005 12/35 00510 11010 21040 30196 40295 56004 60006 71000 80000 91800 333 10008 21032=
07005,1998-01-27 00:00:00,-3,1028.2,-1.3,86,-5,0,14.816,,,80,,,,,,,,,,,wg-a,,,,AAXX 27004 07005 12/// /0808 11030 21050 30183 40282 58013 60006 90000=
07005,1998-01-27 06:00:00,-5,1026,-1.6,93,-6,6000,7.408,,,60,-4.8,-0.9,,,,,,,,,wg-a,,,,AAXX 27064 07005 02/56 00604 11050 21060 30160 40260 56016 60006 80000 90600 333 11009 21048 60004=
07005,1998-01-27 09:00:00,-4,1025.6,-0.3,93,-5,2500,14.816,,,60,,,,,,,,,,10,wg-a,,,,AAXX 27094 07005 12/25 00608 11040 21050 30157 40256 58003 60006 71000 80000 90900=
07005,1998-01-27 12:00:00,0,1024.1,-1.4,74,-4,2800,14.816,,,90,,,,,,,,,,10,wg-a,,,,AAXX 27124 07005 12/28 00908 10000 21040 30143 40241 58014 60006 71000 80000 91200=
07005,1998-01-27 18:00:00,-2,1022.1,-0.5,86,-4,3000,11.112,,,60,-5.1,1.5,,,,,,,,10,wg-a,,,,AAXX 27184 07005 12/30 00606 11020 21040 30123 40221 56005 60006 71000 80000 91800 333 10015 21051=
07005,1998-01-28 00:00:00,-4,1022.5,-0,93,-5,0,14.816,,,70,,,,,,,,,,,wg-a,,,,AAXX 28004 07005 12/// /0708 11040 21050 30126 40225 54000 60006 90000=
07005,1998-01-28 06:00:00,-5,1021.9,0,86,-7,2500,11.112,,,70,-5.5,-1.7,,,,,,,,10,wg-a,,,,AAXX 28064 07005 02/25 00706 11050 21070 30119 40219 50000 60006 71000 80000 90600 333 11017 21055 60004=
07005,1998-01-28 09:00:00,-5,1022.7,0.9,93,-6,1800,7.408,,,90,,,,,,,,,,10,wg-a,,,,AAXX 28094 07005 12/18 /0904 11050 21060 30128 40227 53009 60006 71000 80001 90900=
07005,1998-01-28 12:00:00,1,1022.4,-0.1,75,-3,2200,22.224,,,90,,,,,,,,,,10,wg-a,,,,AAXX 28124 07005 12/22 40912 10010 21030 30127 40224 58001 60006 71000 80004 91200=
07005,1998-01-28 15:00:00,2,1021.5,-0.9,75,-2,6000,14.816,,,90,,,,0,,,,,,,wg-a,,,,AAXX 28154 07005 12756 /0908 10020 21020 30118 40215 56009 60007 82501 91500=
07005,1998-01-28 18:00:00,0,1022.1,0.5,86,-2,500,7.408,,,40,-6.2,2.7,,,,,,,,,wg-a,,,,AAXX 28184 07005 32600 70404 10000 21020 30123 40221 53005 875// 91800 333 10027 21062=
07005,1998-01-29 00:00:00,1,1022.5,-0,86,-1,0,11.112,,,70,,,,,,,,,,,wg-a,,,,AAXX 29004 07005 12/// /0706 10010 21010 30128 40225 54000 60006 90000=
07005,1998-01-29 06:00:00,1,1022.7,0,86,-1,6000,3.704,,,90,-0.1,1.2,,,,,,,,,wg-a,,,,AAXX 29064 07005 02456 70902 10010 21010 30130 40227 50000 60006 875// 90600 333 10012 21001 60004=
07005,1998-01-29 09:00:00,2,1023.8,1.1,87,0,3000,3.704,,,180,,,,,,,,,,10,wg-a,,,,AAXX 29094 07005 12430 81802 10020 20000 30141 40238 51011 60006 71022 875// 90900=
07005,1998-01-29 12:00:00,3,1024,0.2,93,2,1500,0,,,0,,,,,,,,,,10,wg-a,,,,AAXX 29124 07005 02215 80000 10030 20020 30143 40240 50002 61000 71052 886// 91200 333 6100=
07005,1998-01-29 15:00:00,5,1022.8,-1.1,93,4,2000,3.704,,,60,,,,,,,,,,10,wg-a,,,,AAXX 29154 07005 12420 30602 10050 20040 30132 40228 56011 60006 71051 81101 91500=
07005,1998-01-29 18:00:00,2,1023.1,0.2,93,1,900,7.408,,,330,0.8,5.7,,,,,,,,41,wg-a,,,,AAXX 29184 07005 12509 /3304 10020 20010 30134 40231 53002 60006 74154 83501 91800 333 10057 20008=
07005,1998-01-30 00:00:00,0,1023.1,-0.1,100,0,0,11.112,,,130,,,,,,,,,,,wg-a,,,,AAXX 30004 07005 12/// /1306 10000 20000 30133 40231 56001 60006 90000=
07005,1998-01-30 06:00:00,0,1021.7,-0.9,93,-1,2000,11.112,,,100,-0.9,2.4,,,,,,,,10,wg-a,,,,AAXX 30064 07005 02220 81006 10000 21010 30119 40217 58009 60006 71022 886// 90600 333 10024 21009 60004=
07005,1998-01-30 09:00:00,0,1022.1,0.4,93,-1,3500,11.112,,,130,,,,,,,,,,10,wg-a,,,,AAXX 30094 07005 12235 81306 10000 21010 30123 40221 50004 60006 71022 886// 90900=
07005,1998-01-31 12:00:00,3,1019.6,0.2,93,2,2500,22.224,,,80,,,,,,,,,,10,wg-a,,,,AAXX 31124 07005 12225 80812 10030 20020 30100 40196 51002 60006 71041 876// 91200=
07005,1998-01-31 15:00:00,4,1019.1,-0.5,81,1,3500,25.928,,,80,,,,,,,,,,10,wg-a,,,,AAXX 31154 07005 12435 80814 10040 20010 30095 40191 56005 60006 71022 875// 91500=
07005,1998-01-31 18:00:00,2,1019.8,0.6,87,0,0,14.816,,,80,-2.6,4,,,,,,,,,wg-a,,,,AAXX 31184 07005 12/// /0808 10020 20000 30101 40198 51006 60006 91800 333 10040 21026=
07005,1998-02-01 00:00:00,-1,1020.2,-0.2,80,-4,0,22.224,,,80,,,,,,,,,,,wg-a,,,,AAXX 01004 07005 12/// /0812 11010 21040 30104 40202 58002 60006 90000=
07005,1998-02-01 06:00:00,-3,1018.5,-1,86,-5,10000,14.816,,,90,-3.4,2,,,,,,,,,wg-a,,,,AAXX 01064 07005 02/60 00908 11030 21050 30086 40185 56010 60006 80000 90600 333 10020 21034 60004=
07005,1998-02-01 12:00:00,-2,1018.2,-0.7,69,-7,15000,11.112,,,100,,,,,,,,,,,wg-a,,,,AAXX 01124 07005 12/65 61006 11020 21070 30084 40182 58007 60006 80002 91200=
07005,1998-02-01 15:00:00,-1,1016.9,-1.3,69,-6,15000,11.112,,,60,,,,,,,,,,,wg-a,,,,AAXX 01154 07005 12/65 70606 11010 21060 30071 40169 56013 60006 80008 91500=
07005,1998-02-01 18:00:00,-3,1017,0.1,80,-6,0,3.704,,,80,-4.3,-0.9,,,,,,,,,wg-a,,,,AAXX 01184 07005 12/// /0802 11030 21060 30072 40170 53001 60006 91800 333 11009 21043=
07005,1998-02-02 00:00:00,-6,1016.6,-0.8,93,-7,0,3.704,,,330,,,,,,,,,,,wg-a,,,,AAXX 02004 07005 12/// /3302 11060 21070 30067 40166 57008 60006 90000=
07005,1998-02-02 06:00:00,-8,1015,-1,100,-8,3000,7.408,,,130,-7.5,-3.1,,,,,,,,10,wg-a,,,,AAXX 02064 07005 02/30 21304 11080 21080 30050 40150 56010 60006 71000 80001 90600 333 11031 21075 60004=
07005,1998-02-02 09:00:00,-6,1015,0.1,93,-7,4000,7.408,,,170,,,,,,,,,,10,wg-a,,,,AAXX 02094 07005 12/40 21704 11060 21070 30051 40150 53001 60006 71000 80001 90900=
07005,1998-02-02 12:00:00,1,1013.9,-0.8,80,-2,500,7.408,,,210,,,,,,,,,,,wg-a,,,,AAXX 02124 07005 12/00 02104 10010 21020 30043 40139 57008 60006 80000 91200=
07005,1998-02-02 15:00:00,2,1012.8,-1.1,87,0,8000,18.52,,,270,,,,0,,,,,,,wg-a,,,,AAXX 02154 07005 12458 72710 10020 20000 30032 40128 56011 60007 875// 91500=
07005,1998-02-02 18:00:00,1,1012.6,-0.2,93,0,6000,7.408,,,260,-8.1,2.1,,,,,,,,,wg-a,,,,AAXX 02184 07005 12456 /2604 10010 20000 30030 40126 55002 60006 86500 91800 333 10021 21081=
07005,1998-02-03 00:00:00,-1,1012.7,0.2,100,-1,0,7.408,,,200,,,,,,,,,,,wg-a,,,,AAXX 03004 07005 12/// /2004 11010 21010 30030 40127 51002 60006 90000=
07005,1998-02-03 06:00:00,-2,1013.5,0.4,93,-3,3000,7.408,,,340,-2.4,1.4,,,,,,,,10,wg-a,,,,AAXX 03064 07005 02430 23404 11020 21030 30037 40135 51004 60006 71000 82500 90600 333 10014 21024 60004=
07005,1998-02-03 09:00:00,-1,1014.5,1.1,93,-2,1800,3.704,,,200,,,,,,,,,,10,wg-a,,,,AAXX 03094 07005 12/18 32002 11010 21020 30048 40145 52011 60006 71040 80001 90900=
07005,1998-02-03 12:00:00,4,1014.9,0.5,75,0,15000,11.112,,,20,,,,0,,,,,,3,wg-a,,,,AAXX 03124 07005 02465 30206 10040 20000 30053 40149 50005 60006 70340 81201 91200 333 60007=
07005,1998-02-03 18:00:00,2,1015.3,0.4,80,-1,20000,3.704,,,90,-2.8,4.9,,,,,,,,,wg-a,,,,AAXX 03184 07005 12570 40902 10020 21010 30057 40153 53004 60006 81402 91800 333 10049 21028=
07005,1998-02-04 00:00:00,-1,1016,-0.5,86,-3,0,11.112,,,140,,,,,,,,,,,wg-a,,,,AAXX 04004 07005 12/// /1406 11010 21030 30062 40160 56005 60006 90000=
07005,1998-02-04 06:00:00,-4,1015.6,0,93,-5,2500,11.112,,,170,-4,1.9,,,,,,,,10,wg-a,,,,AAXX 04064 07005 02/25 01706 11040 21050 30058 40156 50000 60006 71000 80000 90600 333 10019 21040 60004=
07005,1998-02-04 12:00:00,5,1016.2,0.4,75,1,3500,7.408,,,240,,,,0,,,,,,10,wg-a,,,,AAXX 04124 07005 02/35 12404 10050 20010 30067 40162 50004 60006 71000 80001 91200 333 60007=
07005,1998-02-04 18:00:00,3,1017.3,1.2,93,2,10000,7.408,,,240,-4,5.5,,,,,,,,,wg-a,,,,AAXX 04184 07005 32/60 52404 10030 20020 30077 40173 51012 80001 91800 333 10055 21040=
07005,1998-02-05 00:00:00,1,1019.4,0.8,93,0,0,7.408,,,230,,,,,,,,,,,wg-a,,,,AAXX 05004 07005 12/// /2304 10010 20000 30097 40194 51008 60006 90000=
07005,1998-02-05 06:00:00,0,1020.7,0.8,100,0,100,11.112,,,180,-0.6,2.9,,,,,,,,43,wg-a,,,,AAXX 05064 07005 02/01 91806 10000 20000 30110 40207 52008 60006 74342 89/// 90600 333 10029 21006 60004=
07005,1998-02-05 12:00:00,4,1022.7,0.6,100,4,3500,7.408,,,230,,,,,,,,,,10,wg-a,,,,AAXX 05124 07005 12635 82304 10040 20040 30131 40227 51006 60006 71042 885// 91200=
07005,1998-02-05 18:00:00,5,1022.9,0.7,87,3,3000,7.408,,,200,0.3,6.2,,,,,,,,10,wg-a,,,,AAXX 05184 07005 32630 82004 10050 20030 30133 40229 53007 71022 885// 91800 333 10062 20003=
07005,1998-02-06 00:00:00,4,1023.6,0.4,87,2,0,7.408,,,200,,,,,,,,,,,wg-a,,,,AAXX 06004 07005 12/// /2004 10040 20020 30140 40236 51004 60006 90000=
07005,1998-02-06 06:00:00,3,1023.7,0.1,93,2,3000,11.112,,,140,2.9,4.9,,,,,,,,10,wg-a,,,,AAXX 06064 07005 02330 81406 10030 20020 30140 40237 53001 60006 71022 886// 90600 333 10049 20029 60004=
07005,1998-02-06 09:00:00,4,1024.7,1,87,2,4000,11.112,,,160,,,,,,,,,,10,wg-a,,,,AAXX 06094 07005 12640 81606 10040 20020 30150 40247 51010 60006 71022 885// 90900=
07005,1998-02-06 12:00:00,5,1024.3,-0.3,81,2,4000,11.112,,,150,,,,,,,,,,10,wg-a,,,,AAXX 06124 07005 12640 81506 10050 20020 30147 40243 58003 60006 71022 885// 91200=
07005,1998-02-06 15:00:00,6,1023.2,-1,81,3,4500,11.112,,,170,,,,,,,,,,10,wg-a,,,,AAXX 06154 07005 12645 81706 10060 20030 30137 40232 56010 60006 71022 885// 91500=
07005,1998-02-06 18:00:00,4,1022.6,-0.7,81,1,500,14.816,,,190,2.8,6.3,,,,,,,,,wg-a,,,,AAXX 06184 07005 12600 41908 10040 20010 30130 40226 56007 60006 84500 91800 333 10063 20028=
07005,1998-02-07 00:00:00,2,1020.8,-1.1,80,-1,0,18.52,,,170,,,,,,,,,,,wg-a,,,,AAXX 07004 07005 12/// /1710 10020 21010 30111 40208 58011 60006 90000=
07005,1998-02-07 06:00:00,2,1016.9,-1.3,80,-1,7000,14.816,,,180,0.7,3.9,,,,,,,,,wg-a,,,,AAXX 07064 07005 02/57 71808 10020 21010 30073 40169 56013 60006 8707/ 90600 333 10039 20007 60004=
07005,1998-02-07 09:00:00,4,1018,1.1,93,3,3500,22.224,,,240,,,,2,,,,,,10,wg-a,,,,AAXX 07094 07005 12435 82412 10040 20030 30084 40180 53011 60027 71062 875// 90900=
07005,1998-02-07 12:00:00,7,1020.4,2.5,76,3,25000,31.484,,,300,,,,,,,,,,2,wg-a,,,,AAXX 07124 07005 02475 /3017 10070 20030 30109 40204 51025 60026 70261 81100 91200 333 61000=
07005,1998-02-07 18:00:00,5,1025.7,2.5,87,3,0,11.112,,,260,2.3,7.7,,,,,,,,,wg-a,,,,AAXX 07184 07005 32/// /2606 10050 20030 30161 40257 53025 91800 333 10077 20023=
07005,1998-02-08 00:00:00,5,1028.3,0.8,87,3,0,14.816,,,240,,,,,,,,,,,wg-a,,,,AAXX 08004 07005 12/// /2408 10050 20030 30187 40283 52008 60016 90000=
07005,1998-02-08 06:00:00,3,1028.3,-0.1,93,2,6000,14.816,,,180,3.4,5.4,,,,,3,,,,wg-a,,,,AAXX 08064 07005 02656 71808 10030 20020 30186 40283 58001 60006 83532 90600 333 10054 20034 60034=
07005,1998-02-08 12:00:00,9,1028.6,-0.6,81,6,12000,14.816,,,210,,,,,,,,,,,wg-a,,,,AAXX 08124 07005 12562 52108 10090 20060 30191 40286 58006 60006 81502 91200=
07005,1998-02-08 15:00:00,9,1027.9,-0.7,81,6,10000,18.52,,,230,,,,,,,,,,,wg-a,,,,AAXX 08154 07005 12460 22310 10090 20060 30184 40279 56007 60006 81101 91500=
07005,1998-02-08 18:00:00,5,1028.6,0.6,87,3,0,14.816,,,180,2.4,10.4,,,,,,,,,wg-a,,,,AAXX 08184 07005 12/// /1808 10050 20030 30190 40286 53006 60006 91800 333 10104 20024=
07005,1998-02-09 00:00:00,2,1027.6,-0.5,87,0,0,14.816,,,160,,,,,,,,,,,wg-a,,,,AAXX 09004 07005 12/// /1608 10020 20000 30179 40276 57005 60006 90000=
07005,1998-02-09 06:00:00,1,1026.8,-0.4,80,-2,6000,11.112,,,130,0.8,5.4,,,,,,,,,wg-a,,,,AAXX 09064 07005 02/56 /1306 10010 21020 30170 40268 58004 60006 80002 90600 333 10054 20008 60004=
07005,1998-02-09 09:00:00,2,1026.9,0.2,87,0,6000,14.816,,,140,,,,,,,,,,,wg-a,,,,AAXX 09094 07005 12/56 /1408 10020 20000 30172 40269 50002 60006 80002 90900=
07005,1998-02-09 12:00:00,8,1026.2,-0.5,66,2,12000,14.816,,,170,,,,,,,,,,,wg-a,,,,AAXX 09124 07005 12/62 61708 10080 20020 30167 40262 58005 60006 80002 91200=
07005,1998-02-09 18:00:00,6,1025.8,0.2,75,2,10000,14.816,,,160,0,10.6,,,,,,,,,wg-a,,,,AAXX 09184 07005 12/60 61608 10060 20020 30162 40258 53002 60006 80002 91800 333 10106 20000=
07005,1998-02-10 00:00:00,4,1026.6,0,81,1,0,18.52,,,170,,,,,,,,,,,wg-a,,,,AAXX 10004 07005 12/// /1710 10040 20010 30169 40266 50000 60006 90000=
07005,1998-02-10 06:00:00,2,1027.4,0.4,87,0,10000,14.816,,,160,1.9,5.9,,,,,,,,,wg-a,,,,AAXX 10064 07005 02/60 21608 10020 20000 30177 40274 53004 60006 80001 90600 333 10059 20019 60004=
07005,1998-02-10 12:00:00,7,1029,-0.3,81,4,6000,11.112,,,170,,,,,,,,,,,wg-a,,,,AAXX 10124 07005 12456 61706 10070 20040 30194 40290 58003 60006 86500 91200=
07005,1998-02-10 18:00:00,7,1029.4,0.6,87,5,500,11.112,,,210,1.7,9.4,,,,,,,,,wg-a,,,,AAXX 10184 07005 12400 82106 10070 20050 30198 40294 53006 60006 885// 91800 333 10094 20017=
07005,1998-02-11 00:00:00,6,1030,-0.2,87,4,0,14.816,,,260,,,,,,,,,,,wg-a,,,,AAXX 11004 07005 12/// /2608 10060 20040 30204 40300 56002 60006 90000=
07005,1998-02-11 06:00:00,6,1029.7,-0.1,87,4,4000,7.408,,,200,5.2,7.5,,,,,,,,10,wg-a,,,,AAXX 11064 07005 02440 72004 10060 20040 30201 40297 55001 60006 71022 86502 90600 333 10075 20052 60004=
07005,1998-02-11 12:00:00,12,1029.5,-0.5,67,6,500,14.816,,,220,,,,,,,,,,,wg-a,,,,AAXX 11124 07005 12/00 72208 10120 20060 30201 40295 58005 60006 80002 91200=
07005,1998-02-11 18:00:00,10,1029,0.4,82,7,10000,11.112,,,170,4.6,14.3,,,,,,,,,wg-a,,,,AAXX 11184 07005 12/60 71706 10100 20070 30195 40290 53004 60006 80002 91800 333 10143 20046=
07005,1998-02-12 00:00:00,8,1029.7,0.4,81,5,0,11.112,,,200,,,,,,,,,,,wg-a,,,,AAXX 12004 07005 12/// /2006 10080 20050 30201 40297 50004 60006 90000=
07005,1998-02-12 06:00:00,6,1030.1,0.2,87,4,3500,11.112,,,180,4.7,10.3,,,,,,,,10,wg-a,,,,AAXX 12064 07005 02/35 41806 10060 20040 30205 40301 52002 60006 71000 84031 90600 333 10103 20047 60004=
07005,1998-02-12 12:00:00,11,1032.2,0.9,82,8,500,18.52,,,290,,,,,,,,,,,wg-a,,,,AAXX 12124 07005 12/00 52910 10110 20080 30227 40322 51009 60006 80002 91200=
07005,1998-02-12 18:00:00,9,1032.4,0.7,87,7,6000,0,,,0,4.4,14.4,,,,,,,,,wg-a,,,,AAXX 12184 07005 12/56 50000 10090 20070 30229 40324 51007 60006 80002 91800 333 10144 20044=
07005,1998-02-13 00:00:00,6,1033.8,0.6,93,5,0,14.816,,,180,,,,,,,,,,,wg-a,,,,AAXX 13004 07005 12/// /1808 10060 20050 30241 40338 51006 60006 90000=
07005,1998-02-13 12:00:00,15,1034.7,0,63,8,4500,3.704,,,230,,,,0,,,,,,10,wg-a,,,,AAXX 13124 07005 02/45 32302 10150 20080 30253 40347 50000 60006 71000 80002 91200 333 60007=
07005,1998-02-13 18:00:00,10,1034,0.2,76,6,6000,3.704,,,260,3.8,16.9,,,,,,,,,wg-a,,,,AAXX 13184 07005 32/56 12602 10100 20060 30245 40340 53002 80001 91800 333 10169 20038=
07005,1998-02-14 00:00:00,7,1034.4,-0.4,87,5,0,11.112,,,160,,,,,,,,,,,wg-a,,,,AAXX 14004 07005 12/// /1606 10070 20050 30248 40344 56004 60006 90000=
07005,1998-02-14 06:00:00,4,1033.4,-0.2,87,2,3000,14.816,,,140,3.8,10.3,,,,,,,,10,wg-a,,,,AAXX 14064 07005 02/30 01408 10040 20020 30237 40334 56002 60006 71000 80000 90600 333 10103 20038 60004=
07005,1998-02-14 12:00:00,13,1034.1,-0.2,67,7,3000,11.112,,,170,,,,,,,,,,10,wg-a,,,,AAXX 14124 07005 12/30 01706 10130 20070 30247 40341 58002 60006 71000 80000 91200=
07005,1998-02-14 18:00:00,10,1033.7,0.7,76,6,0,11.112,,,300,3.4,16.6,,,,,,,,,wg-a,,,,AAXX 14184 07005 12/// /3006 10100 20060 30242 40337 53007 60006 91800 333 10166 20034=
07005,1998-02-15 00:00:00,5,1034.1,0.1,93,4,0,7.408,,,160,,,,,,,,,,,wg-a,,,,AAXX 15004 07005 12/// /1604 10050 20040 30244 40341 53001 60006 90000=
07005,1998-02-15 06:00:00,2,1032.7,-0.4,93,1,1200,14.816,,,150,1.5,9.4,,,,,,,,10,wg-a,,,,AAXX 15064 07005 02/12 01508 10020 20010 30229 40327 56004 60006 71000 80000 90600 333 10094 20015 60004=
07005,1998-02-15 12:00:00,14,1031.6,-0.8,67,8,4000,11.112,,,160,,,,,,,,,,10,wg-a,,,,AAXX 15124 07005 12/40 51606 10140 20080 30223 40316 58008 60006 71011 80002 91200=
07005,1998-02-15 18:00:00,13,1028.2,-1.2,67,7,0,11.112,,,160,1.6,17.7,,,,,,,,,wg-a,,,,AAXX 15184 07005 32/// /1606 10130 20070 30188 40282 56012 91800 333 10177 20016=
07005,1998-02-16 00:00:00,12,1024.7,-1.4,71,7,0,18.52,,,220,,,,,,,,,,,wg-a,,,,AAXX 16004 07005 12/// /2210 10120 20070 30153 40247 58014 60006 90000=
07005,1998-02-16 06:00:00,10,1022.7,-0.5,93,9,6000,35.188,,,270,10,13.1,,,,,,,,20,wg-a,,,,AAXX 16064 07005 02456 82719 10100 20090 30133 40227 55005 60004 72052 8577/ 90600 333 10131 20100 61000=
07005,1998-02-16 12:00:00,10,1024.7,0.4,82,7,20000,35.188,,,280,,,,,,,,,,,wg-a,,,,AAXX 16124 07005 12570 82819 10100 20070 30153 40247 51004 60006 875// 91200=
07005,1998-02-16 18:00:00,8,1025.8,1,93,7,2000,35.188,,,270,8.3,10.5,,,,,,,,,wg-a,,,,AAXX 16184 07005 12720 52719 10080 20070 30163 40258 51010 60006 855/0 91800 333 10105 20083=
07005,1998-02-17 00:00:00,8,1030.8,2.6,93,7,0,14.816,,,330,,,,,,,,,,,wg-a,,,,AAXX 17004 07005 12/// /3308 10080 20070 30212 40308 51026 60006 90000=
07005,1998-02-17 06:00:00,4,1035,1.8,87,2,15000,11.112,,,20,3.5,8.7,,,,,,,,,wg-a,,,,AAXX 17064 07005 02665 10206 10040 20020 30252 40350 52018 60006 81500 90600 333 10087 20035 60004=
07005,1998-02-17 12:00:00,9,1037.7,0.5,61,2,15000,3.704,,,350,,,,,,,,,,,wg-a,,,,AAXX 17124 07005 12665 13502 10090 20020 30281 40377 50005 60006 81500 91200=
07005,1998-02-17 18:00:00,5,1038,0.8,87,3,10000,7.408,,,330,2.6,9.7,,,,,,,,,wg-a,,,,AAXX 17184 07005 32/60 03304 10050 20030 30283 40380 53008 80000 91800 333 10097 20026=
07005,1998-02-18 00:00:00,2,1037.9,-0.4,93,1,0,7.408,,,110,,,,,,,,,,,wg-a,,,,AAXX 18004 07005 12/// /1104 10020 20010 30281 40379 58004 60006 90000=
07005,1998-02-18 06:00:00,0,1035.7,-1.1,100,0,3000,7.408,,,190,0.3,5.1,,,,,,,,10,wg-a,,,,AAXX 18064 07005 02/30 01904 10000 20000 30258 40357 58011 60006 71000 80000 90600 333 10051 20003 60004=
07005,1998-02-18 12:00:00,9,1032.8,-2,71,4,6000,22.224,,,150,,,,,,,,,,,wg-a,,,,AAXX 18124 07005 12/56 11512 10090 20040 30233 40328 58020 60006 80002 91200=
07005,1998-02-18 18:00:00,8,1028.4,-0.9,76,4,6000,14.816,,,140,-0.1,10.9,,,,,,,,,wg-a,,,,AAXX 18184 07005 32756 41408 10080 20040 30189 40284 56009 815/2 91800 333 10109 21001=
07005,1998-02-19 00:00:00,6,1027.9,0.3,81,3,0,22.224,,,260,,,,,,,,,,,wg-a,,,,AAXX 19004 07005 12/// /2612 10060 20030 30183 40279 53003 60006 90000=
07005,1998-02-19 06:00:00,8,1028.7,0.6,87,6,8000,11.112,,,230,4.9,8,,,,,,,,,wg-a,,,,AAXX 19064 07005 02458 82306 10080 20060 30192 40287 53006 60006 885// 90600 333 10080 20049 60004=
07005,1998-02-19 12:00:00,11,1030.5,0.6,94,10,2500,18.52,,,250,,,,,,,,,,10,wg-a,,,,AAXX 19124 07005 12225 82510 10110 20100 30211 40305 51006 60006 71022 886// 91200=
07005,1998-02-19 18:00:00,11,1029.4,-0.3,87,9,6000,0,,,0,7.8,11.7,,,,,,,,,wg-a,,,,AAXX 19184 07005 12656 80000 10110 20090 30200 40294 56003 60006 885// 91800 333 10117 20078=
07005,1998-02-20 00:00:00,9,1027.7,-1.1,93,8,0,11.112,,,160,,,,,,,,,,,wg-a,,,,AAXX 20004 07005 12/// /1606 10090 20080 30182 40277 56011 60006 90000=
07005,1998-02-20 06:00:00,5,1023.5,-2.4,100,5,500,18.52,,,140,5.3,10.6,,,,,,,,47,wg-a,,,,AAXX 20064 07005 02/00 91410 10050 20050 30139 40235 56024 60006 74742 89/// 90600 333 10106 20053 60004=
07005,1998-02-20 12:00:00,13,1019.2,-2.2,72,8,4500,25.928,,,160,,,,,,,,,,10,wg-a,,,,AAXX 20124 07005 12/45 51614 10130 20080 30099 40192 58022 60006 71042 80002 91200=
07005,1998-02-20 18:00:00,12,1014.3,-1.4,82,9,6000,22.224,,,150,5,15.2,,,,,,,,,wg-a,,,,AAXX 20184 07005 32/56 61512 10120 20090 30050 40143 56014 81032 91800 333 10152 20050=
07005,1998-02-21 00:00:00,10,1014.4,0.1,82,7,0,14.816,,,210,,,,,,,,,,,wg-a,,,,AAXX 21004 07005 12/// /2108 10100 20070 30051 40144 50001 60006 90000=
07005,1998-02-21 06:00:00,11,1014.1,0,87,9,10000,11.112,,,210,9.6,12.2,,,,,,,,,wg-a,,,,AAXX 21064 07005 02760 82106 10110 20090 30048 40141 50000 60006 8457/ 90600 333 10122 20096 60004=
07005,1998-02-21 12:00:00,11,1011.8,-1.8,94,10,500,11.112,,,190,,,,0,,,,,,60,wg-a,,,,AAXX 21124 07005 02400 81906 10110 20100 30025 40118 57018 60016 76062 8657/ 91200 333 60007=
07005,1998-02-21 18:00:00,10,1014.1,1.5,87,8,0,22.224,,,210,8.2,11.8,,,,,,,,,wg-a,,,,AAXX 21184 07005 32/// /2112 10100 20080 30048 40141 53015 91800 333 10118 20082=
07005,1998-02-22 00:00:00,7,1015.8,-0,93,6,0,7.408,,,200,,,,,,,,,,,wg-a,,,,AAXX 22004 07005 12/// /2004 10070 20060 30063 40158 55000 60006 90000=
07005,1998-02-22 06:00:00,5,1016.8,1,93,4,8000,14.816,,,280,5.3,9.5,,1,,,5,,,58,wg-a,,,,AAXX 22064 07005 02358 82808 10050 20040 30073 40168 53010 60054 75865 887// 90600 333 10095 20053 60017=
07005,1998-02-22 12:00:00,8,1022,2.7,81,5,500,25.928,,,330,,,,,,,,,,2,wg-a,,,,AAXX 22124 07005 12500 63314 10080 20050 30125 40220 51027 60006 70265 85230 91200=
07005,1998-02-22 18:00:00,6,1028,3.3,81,3,0,11.112,,,320,4.7,8.9,,,,,,,,,wg-a,,,,AAXX 22184 07005 32/// /3206 10060 20030 30184 40280 53033 91800 333 10089 20047=
07005,1998-02-23 00:00:00,4,1032.4,1.4,93,3,0,11.112,,,300,,,,,,,,,,,wg-a,,,,AAXX 23004 07005 12/// /3006 10040 20030 30227 40324 53014 60006 90000=
07005,1998-02-23 06:00:00,1,1034.5,1,100,1,1500,11.112,,,210,0.8,5.6,,,,,1,,,10,wg-a,,,,AAXX 23064 07005 12/15 02106 10010 20010 30247 40345 53010 60014 71000 80000 90600 333 10056 20008=
07005,1998-02-23 12:00:00,9,1035.5,0,87,7,20000,25.928,,,280,,,,,,,,,,,wg-a,,,,AAXX 23124 07005 12570 62814 10090 20070 30259 40355 50000 60006 85202 91200=
07005,1998-02-23 18:00:00,8,1035.4,0.3,100,8,20000,22.224,,,280,0.7,10.2,,,,,,,,,wg-a,,,,AAXX 23184 07005 32470 72812 10080 20080 30258 40354 53003 8654/ 91800 333 10102 20007=
07005,1998-02-24 00:00:00,8,1036.3,0.5,100,8,0,7.408,,,270,,,,,,,,,,,wg-a,,,,AAXX 24004 07005 12/// /2704 10080 20080 30267 40363 51005 60006 90000=
07005,1998-02-24 06:00:00,7,1036.6,0.6,100,7,3000,11.112,,,290,7,8.5,,,,,,,,10,wg-a,,,,AAXX 24064 07005 02530 72906 10070 20070 30270 40366 53006 60006 71022 875// 90600 333 10085 20070 60004=
07005,1998-02-24 12:00:00,11,1038,0.2,82,8,10000,11.112,,,300,,,,,,,,,,,wg-a,,,,AAXX 24124 07005 12560 53006 10110 20080 30285 40380 50002 60006 85200 91200=
07005,1998-02-24 18:00:00,8,1038.6,0.7,93,7,10000,14.816,,,290,7,11.6,,,,,,,,,wg-a,,,,AAXX 24184 07005 12/60 22908 10080 20070 30290 40386 52007 60006 81042 91800 333 10116 20070=
07005,1998-02-25 00:00:00,5,1040.2,0.5,93,4,0,3.704,,,350,,,,,,,,,,,wg-a,,,,AAXX 25004 07005 12/// /3502 10050 20040 30304 40402 52005 60006 90000=
07005,1998-02-25 06:00:00,4,1039.9,0.3,100,4,600,3.704,,,130,3.5,7.7,,,,,,,,42,wg-a,,,,AAXX 25064 07005 02506 81302 10040 20040 30301 40399 53003 60006 74242 885// 90600 333 10077 20035 60004=
07005,1998-02-25 09:00:00,6,1040.1,0.3,93,5,2500,7.408,,,180,,,,,,,,,,10,wg-a,,,,AAXX 25094 07005 12525 81804 10060 20050 30304 40401 52003 60006 71042 885// 90900=
07005,1998-02-25 12:00:00,9,1039.8,,,,4500,3.704,,,150,,,,,,,,,,10,wg-a,,,,AAXX 25124 07005 12545 81502 10090 2//// 30302 40398 60006 710// 91200=
07005,1998-02-25 18:00:00,10,1037,-0.8,87,8,7000,3.704,,,350,4,10.6,,,,,,,,,wg-a,,,,AAXX 25184 07005 12557 83502 10100 20080 30275 40370 55008 60006 885// 91800 333 10106 20040=
07005,1998-02-26 00:00:00,9,1035.8,-0.8,87,7,0,3.704,,,220,,,,,,,,,,,wg-a,,,,AAXX 26004 07005 12/// /2202 10090 20070 30262 40358 58008 60006 90000=
07005,1998-02-26 06:00:00,8,1034.7,-0.2,93,7,2000,11.112,,,260,8,9.9,,,,,,,,10,wg-a,,,,AAXX 26064 07005 02520 82606 10080 20070 30251 40347 55002 60006 71022 885// 90600 333 10099 20080 60004=
07005,1998-02-26 09:00:00,8,1034.5,-0.2,93,7,1800,11.112,,,210,,,,,,,,,,10,wg-a,,,,AAXX 26094 07005 12318 82106 10080 20070 30249 40345 58002 60006 71022 886// 90900=
07005,1998-02-26 12:00:00,9,1033.6,-0.8,87,7,2200,14.816,,,240,,,,,,,,,,10,wg-a,,,,AAXX 26124 07005 12322 82408 10090 20070 30241 40336 58008 60006 71022 886// 91200=
07005,1998-02-26 15:00:00,8,1032.3,-1.4,81,5,4500,22.224,,,280,,,,,,,,,,10,wg-a,,,,AAXX 26154 07005 12445 82812 10080 20050 30227 40323 58014 60006 71022 888// 91500=
07005,1998-02-27 00:00:00,8,1029.5,-1.5,93,7,0,14.816,,,260,,,,,,,,,,,wg-a,,,,AAXX 27004 07005 12/// /2608 10080 20070 30200 40295 58015 60006 90000=
07005,1998-02-27 06:00:00,8,1025.3,-2.3,81,5,8000,18.52,,,240,7.4,8.2,,,,,,,,,wg-a,,,,AAXX 27064 07005 02458 82410 10080 20050 30158 40253 58023 60006 885// 90600 333 10082 20074 60004=
07005,1998-02-27 09:00:00,9,1024.6,-0.7,81,6,10000,29.632,,,240,,,,,,,,,,,wg-a,,,,AAXX 27094 07005 12560 82416 10090 20060 30151 40246 57007 60006 875// 90900=
07005,1998-02-27 12:00:00,8,1023.3,-1.3,93,7,3000,31.484,,,260,,,,0,,,,,,10,wg-a,,,,AAXX 27124 07005 02330 82617 10080 20070 30138 40233 56013 60006 71052 877// 91200 333 60007=
07005,1998-02-27 15:00:00,9,1020.6,-2.6,87,7,20000,35.188,,,260,,,,,,,,,,2,wg-a,,,,AAXX 27154 07005 02470 82619 10090 20070 30112 40206 56026 61000 70252 888// 91500 333 ////=
07005,1998-02-27 18:00:00,9,1019,-1.6,81,6,20000,35.188,,,260,7.7,10,,,,,,,,3,wg-a,,,,AAXX 27184 07005 12470 82619 10090 20060 30096 40190 56016 60006 70352 888// 91800 333 10100 20077=
07005,1998-02-28 00:00:00,8,1015.1,-2.5,76,4,0,35.188,,,250,,,,,,,,,,,wg-a,,,,AAXX 28004 07005 12/// /2519 10080 20040 30057 40151 56025 60006 90000=
07005,1998-02-28 06:00:00,7,1011.6,-1,81,4,20000,29.632,,,280,5.9,9,,,,,,,,21,wg-a,,,,AAXX 28064 07005 02470 82816 10070 20040 30022 40116 55010 61000 72162 888// 90600 333 10090 20059 6001=
07005,1998-02-28 09:00:00,7,1014,2.3,70,2,500,35.188,,,300,,,,,,,,,,2,wg-a,,,,AAXX 28094 07005 02400 73019 10070 20020 30045 40140 53023 61000 70262 84232 90900 333 ////=
07005,1998-02-28 12:00:00,7,1015.8,1.8,70,2,500,31.484,,,300,,,,,,,,,,1,wg-a,,,,AAXX 28124 07005 02500 73017 10070 20020 30063 40158 51018 61000 70162 83202 91200 333 ////=
07005,1998-02-28 18:00:00,5,1016.1,0.4,65,-1,0,22.224,,,290,5.2,7,,,,,,,,,wg-a,,,,AAXX 28184 07005 32/// /2912 10050 21010 30066 40161 53004 91800 333 10070 20052=
07005,1998-03-01 00:00:00,3,1016.6,0.3,75,-1,0,14.816,,,300,,,,,,,,,,,wg-a,,,,AAXX 01004 07005 12/// /3008 10030 21010 30070 40166 51003 60006 90000=
07005,1998-03-01 06:00:00,0,1017.1,-0.1,86,-2,500,14.816,,,200,0.2,5.3,,,,,,,,,wg-a,,,,AAXX 01064 07005 02/00 12008 10000 21020 30074 40171 57001 60006 80001 90600 333 10053 20002 61000=
07005,1998-03-01 09:00:00,5,1017.7,0.7,70,0,500,22.224,,,220,,,,,,,,,,,wg-a,,,,AAXX 01094 07005 12/00 52212 10050 20000 30081 40177 50007 60006 84031 90900=
07005,1998-03-01 12:00:00,8,1016.8,-0.7,66,2,500,35.188,,,250,,,,,,,,,,,wg-a,,,,AAXX 01124 07005 12600 72519 10080 20020 30074 40168 56007 60006 8313/ 91200=
07005,1998-03-01 15:00:00,9,1016.3,-0.5,71,4,500,42.596,,,260,,,,,,,,,,,wg-a,,,,AAXX 01154 07005 12500 72623 10090 20040 30069 40163 56005 60006 8413/ 91500=
07005,1998-03-01 18:00:00,8,1016.8,0.5,81,5,0,29.632,,,260,0.2,9.1,,,,,,,,,wg-a,,,,AAXX 01184 07005 12/// /2616 10080 20050 30074 40168 53005 60006 91800 333 10091 20002=
07005,1998-03-02 00:00:00,7,1017.8,0.5,87,5,0,29.632,,,250,,,,,,,,,,,wg-a,,,,AAXX 02004 07005 12/// /2516 10070 20050 30083 40178 51005 60006 90000=
07005,1998-03-02 06:00:00,7,1017.8,0.3,93,6,15000,29.632,,,250,6.7,7.7,,,,,,,,,wg-a,,,,AAXX 02064 07005 02465 72516 10070 20060 30083 40178 53003 60006 872// 90600 333 10077 20067 60004=
07005,1998-03-02 09:00:00,8,1019.3,1.6,87,6,20000,22.224,,,240,,,,,,,,,,,wg-a,,,,AAXX 02094 07005 12470 72412 10080 20060 30099 40193 52016 60006 878// 90900=
07005,1998-03-02 15:00:00,11,1018.9,-0.6,71,6,25000,29.632,,,260,,,,,,,,,,,wg-a,,,,AAXX 02154 07005 12475 72616 10110 20060 30095 40189 56006 60006 8427/ 91500=
07005,1998-03-02 18:00:00,10,1018.1,-0.8,71,5,11000,18.52,,,220,6.6,11.4,,,,,,,,,wg-a,,,,AAXX 02184 07005 12/61 /2210 10100 20050 30087 40181 56008 60006 91800 333 10114 20066=
07005,1998-03-03 00:00:00,10,1014.1,-2.5,71,5,0,29.632,,,210,,,,,,,,,,,wg-a,,,,AAXX 03004 07005 12/// /2116 10100 20050 30048 40141 58025 60006 90000=
07005,1998-03-03 06:00:00,10,1008.9,-1.9,82,7,10000,35.188,,,210,8.2,10.1,,,,,2,,,2,wg-a,,,,AAXX 03064 07005 02260 82119 10100 20070 39996 40089 56019 60006 70262 885// 90600 333 10101 20082 60024=
07005,1998-03-03 09:00:00,11,1007.9,-0.9,82,8,15000,38.892,,,220,,,,,,,,,,21,wg-a,,,,AAXX 03094 07005 02265 82221 10110 20080 39987 40079 57009 61000 72162 8687/ 90900 333 ////=
07005,1998-03-03 12:00:00,13,1006.8,-1,82,10,15000,42.596,,62.968,220,,,,,,,,,,2,wg-a,,,,AAXX 03124 07005 02465 82223 10130 20100 39977 40068 56010 61000 70262 878// 91200 333 6100 91034=
07005,1998-03-03 18:00:00,14,1006.8,0.5,88,12,15000,38.892,,59.264,230,9.8,14.8,,0,,,,,,2,wg-a,,,,AAXX 03184 07005 02465 82321 10140 20120 39977 40068 53005 60006 70262 871// 91800 333 10148 20098 60007 91032=
07005,1998-03-04 00:00:00,14,1004.8,-1.9,51,4,0,35.188,,,210,,,,0,,,,,,,wg-a,,,,AAXX 04004 07005 02/// /2119 10140 20040 39957 40048 58019 60016 90000 333 60007=
07005,1998-03-04 06:00:00,15,999.2,-1.7,72,10,15000,53.708,,,230,12.9,15.9,,,,,1,,,61,wg-a,,,,AAXX 04064 07005 02565 82329 10150 20100 39902 49992 56017 60014 76162 8557/ 90600 333 10159 20129 61000=
07005,1998-03-04 09:00:00,13,998.5,-0.8,88,11,10000,46.3,,66.672,210,,,,1,,,,,,61,wg-a,,,,AAXX 04094 07005 12460 72125 10130 20110 39894 49985 58008 60017 76186 878// 90900 333 91036=
07005,1998-03-04 12:00:00,11,999.9,1.3,94,10,2500,38.892,,57.412,280,,,,5,,,,,,61,wg-a,,,,AAXX 04124 07005 02325 82821 10110 20100 39907 49999 52013 60066 76186 877// 91200 333 60057 91031=
07005,1998-03-04 15:00:00,9,1002.3,2.3,81,6,20000,35.188,,,290,,,,2,,,,,,21,wg-a,,,,AAXX 04154 07005 12470 72919 10090 20060 39930 40023 51023 60027 72162 878// 91500=
07005,1998-03-04 18:00:00,7,1005.1,2.7,81,4,25000,25.928,,,270,6.7,14.7,,,,,,,,1,wg-a,,,,AAXX 04184 07005 32475 22714 10070 20040 39957 40051 51027 70161 81142 91800 333 10147 20067=
07005,1998-03-05 00:00:00,7,1005.2,-0.7,81,4,0,42.596,,,250,,,,,,,,,,,wg-a,,,,AAXX 05004 07005 12/// /2523 10070 20040 39959 40052 58007 60006 90000=
07005,1998-03-05 06:00:00,7,1013.7,5,76,3,20000,35.188,,,280,5.3,7.4,,,,,8,,,,wg-a,,,,AAXX 05064 07005 12470 62819 10070 20030 30043 40137 53050 60084 86200 90600 333 10074 20053=
07005,1998-03-05 09:00:00,7,1019,5.2,70,2,20000,38.892,,,280,,,,,,,,,,,wg-a,,,,AAXX 05094 07005 12570 /2821 10070 20020 30095 40190 51052 60006 85200 90900=
07005,1998-03-05 12:00:00,9,1021.9,3,66,3,20000,46.3,,68.524,280,,,,,,,,,,,wg-a,,,,AAXX 05124 07005 12570 32825 10090 20030 30125 40219 51030 60006 83100 91200 333 91037=
07005,1998-03-05 15:00:00,9,1023.1,1.2,71,4,20000,42.596,,,270,,,,,,,,,,,wg-a,,,,AAXX 05154 07005 12570 /2723 10090 20040 30137 40231 51012 60006 81100 91500=
07005,1998-03-05 18:00:00,8,1023,-0.2,66,2,20000,22.224,,,250,6.3,9.8,,,,,,,,,wg-a,,,,AAXX 05184 07005 12/70 72512 10080 20020 30135 40230 57002 60006 8703/ 91800 333 10098 20063=
07005,1998-03-06 00:00:00,7,1022.3,-0.3,87,5,0,18.52,,,240,,,,0,,,,,,,wg-a,,,,AAXX 06004 07005 02/// /2410 10070 20050 30128 40223 57003 60006 90000 333 60007=
07005,1998-03-06 06:00:00,8,1018.5,-2.7,81,5,15000,25.928,,,220,6.7,8.9,,,,,,,,,wg-a,,,,AAXX 06064 07005 02565 82214 10080 20050 30090 40185 58027 60006 8557/ 90600 333 10089 20067 60004=
07005,1998-03-06 09:00:00,8,1016.5,-1.9,93,7,500,31.484,,,230,,,,3,,,,,,61,wg-a,,,,AAXX 06094 07005 12200 82317 10080 20070 30071 40165 58019 60037 76162 877// 90900=
07005,1998-03-06 12:00:00,10,1015.7,-0.8,93,9,2000,38.892,,,250,,,,1,,,,,,61,wg-a,,,,AAXX 06124 07005 02220 82521 10100 20090 30063 40157 56008 60046 76162 877// 91200 333 60017=
07005,1998-03-06 18:00:00,11,1015.8,0.4,82,8,7000,50.004,,,260,7,10.8,,,,,,,,21,wg-a,,,,AAXX 06184 07005 02257 82627 10110 20080 30065 40158 52004 61000 72165 877// 91800 333 10108 20070 ////=
07005,1998-03-07 00:00:00,10,1012.6,-2,82,7,0,35.188,,,250,,,,,,,,,,,wg-a,,,,AAXX 07004 07005 12/// /2519 10100 20070 30033 40126 58020 60006 90000=
07005,1998-03-07 06:00:00,9,1009,-1,93,8,6000,35.188,,,240,9.2,10.9,,1,,,6,,,61,wg-a,,,,AAXX 07064 07005 02356 82419 10090 20080 39997 40090 55010 60064 76162 887// 90600 333 10109 20092 60017=
07005,1998-03-07 12:00:00,11,1008.6,-0.5,87,9,6000,50.004,,77.784,270,,,,1,,,,,,81,wg-a,,,,AAXX 07124 07005 02456 72727 10110 20090 39994 40086 57005 60026 78186 873// 91200 333 60017 91042=
07005,1998-03-07 18:00:00,10,1007.9,-0,82,7,0,46.3,,,260,9.2,12.2,,,,,,,,,wg-a,,,,AAXX 07184 07005 32/// /2625 10100 20070 39986 40079 55000 91800 333 10122 20092=
07005,1998-03-08 00:00:00,9,1007.5,-0.4,87,7,0,38.892,,,270,,,,0,,,,,,,wg-a,,,,AAXX 08004 07005 02/// /2721 10090 20070 39982 40075 55004 60016 90000 333 60007=
07005,1998-03-08 06:00:00,8,1007.8,0.1,93,7,8000,35.188,,,270,7.1,9.9,,,,,5,,,,wg-a,,,,AAXX 08064 07005 02458 72719 10080 20070 39985 40078 53001 60006 878// 90600 333 10099 20071 60054=
07005,1998-03-08 09:00:00,9,1008,0.2,93,8,7000,25.928,,,280,,,,0,,,,,,,wg-a,,,,AAXX 08094 07005 12/57 /2814 10090 20080 39987 40080 51002 60007 90900=
07005,1998-03-08 12:00:00,8,1008.4,0.4,93,7,6000,29.632,,,300,,,,1,,,,,,81,wg-a,,,,AAXX 08124 07005 02356 73016 10080 20070 39991 40084 53004 60016 78186 872// 91200 333 60017=
07005,1998-03-08 15:00:00,10,1008.9,0.5,76,6,20000,22.224,,,320,,,,0,,,,,,3,wg-a,,,,AAXX 08154 07005 12470 73212 10100 20060 39996 40089 53005 60007 70386 878// 91500=
07005,1998-03-08 18:00:00,6,1012.1,3.1,87,4,0,25.928,,,20,6.4,10.4,,,,,,,,,wg-a,,,,AAXX 08184 07005 32/// /0214 10060 20040 30027 40121 53031 91800 333 10104 20064=
07005,1998-03-09 06:00:00,-2,1025.4,2.3,86,-4,20000,7.408,,,70,-1.6,6.3,,,,,1,,,,wg-a,,,,AAXX 09064 07005 02/70 10704 11020 21040 30155 40254 53023 60006 80002 90600 333 10063 21016 60014=
07005,1998-03-09 09:00:00,1,1028.6,3.3,75,-3,20000,11.112,,,70,,,,,,,,,,,wg-a,,,,AAXX 09094 07005 12/70 10706 10010 21030 30188 40286 51033 60006 80002 90900=
07005,1998-03-09 12:00:00,6,1030,1.6,56,-2,500,11.112,,,110,,,,,,,,,,,wg-a,,,,AAXX 09124 07005 12500 /1106 10060 21020 30204 40300 51016 60006 81100 91200=
07005,1998-03-09 18:00:00,6,1031.8,1,70,1,500,0,,,0,-1.8,7.6,,,,,,,,,wg-a,,,,AAXX 09184 07005 12600 20000 10060 20010 30221 40318 53010 60006 82400 91800 333 10076 21018=
07005,1998-03-10 00:00:00,0,1033.2,0.3,86,-2,0,7.408,,,180,,,,,,,,,,,wg-a,,,,AAXX 10004 07005 12/// /1804 10000 21020 30233 40332 50003 60006 90000=
07005,1998-03-10 06:00:00,-2,1032.2,-0.4,93,-3,7000,7.408,,,110,-1.8,5.5,,,,,,,,,wg-a,,,,AAXX 10064 07005 02/57 /1104 11020 21030 30223 40322 56004 60006 80002 90600 333 10055 21018 60004=
07005,1998-03-10 12:00:00,8,1028.6,-2.2,49,-2,20000,25.928,,,210,,,,,,,,,,,wg-a,,,,AAXX 10124 07005 12/70 72114 10080 21020 30190 40286 58022 60006 82032 91200=
07005,1998-03-10 15:00:00,8,1024.5,-4,49,-2,20000,35.188,,,190,,,,,,,,,,,wg-a,,,,AAXX 10154 07005 12/70 71919 10080 21020 30150 40245 58040 60006 85052 91500=
07005,1998-03-10 18:00:00,7,1021.4,-3.1,49,-3,25000,29.632,,,190,-1.7,8.2,,,,,,,,,wg-a,,,,AAXX 10184 07005 12775 81916 10070 21030 30119 40214 56031 60006 8457/ 91800 333 10082 21017=
07005,1998-03-11 00:00:00,3,1013.9,-3.6,93,2,0,29.632,,,170,,,,2,,,,,,,wg-a,,,,AAXX 11004 07005 02/// /1716 10030 20020 30043 40139 58036 60026 90000 333 60027=
07005,1998-03-11 06:00:00,4,1007.6,-1.8,93,3,500,22.224,,,180,2.7,6.9,,,,,,,,60,wg-a,,,,AAXX 11064 07005 02300 81812 10040 20030 39981 40076 56018 61000 76062 877// 90600 333 10069 20027 6003=
07005,1998-03-11 09:00:00,6,1008.3,0.8,100,6,4000,7.408,,,240,,,,3,,,,,,60,wg-a,,,,AAXX 11094 07005 12440 82404 10060 20060 39989 40083 53008 60037 76066 877// 90900=
07005,1998-03-11 12:00:00,7,1010.9,2.6,93,6,7000,38.892,,,350,,,,0,,,,,,60,wg-a,,,,AAXX 11124 07005 02457 83521 10070 20060 30015 40109 53026 60036 76062 885// 91200 333 60007=
07005,1998-03-11 15:00:00,6,1013.5,2.5,93,5,500,38.892,,,340,,,,0,,,,,,60,wg-a,,,,AAXX 11154 07005 12400 83421 10060 20050 30040 40135 53025 60007 76066 887// 91500=
07005,1998-03-11 18:00:00,6,1016.9,3.4,75,2,15000,42.596,,62.968,340,4,7.7,,,,,,,,21,wg-a,,,,AAXX 11184 07005 02565 83423 10060 20020 30074 40169 51034 61000 72162 875// 91800 333 10077 20040 6000 91034=
07005,1998-03-12 00:00:00,3,1021.4,1.6,87,1,0,18.52,,,320,,,,,,,,,,,wg-a,,,,AAXX 12004 07005 12/// /3210 10030 20010 30117 40214 52016 60006 90000=
07005,1998-03-12 06:00:00,2,1024.2,2.2,87,0,15000,18.52,,,350,1.9,5.8,,0,,,4,,,25,wg-a,,,,AAXX 12064 07005 02465 53510 10020 20000 30145 40242 51022 60044 72586 85800 90600 333 10058 20019 60007=
07005,1998-03-12 12:00:00,6,1027.2,1.1,61,-1,500,29.632,,,360,,,,,,,,,,,wg-a,,,,AAXX 12124 07005 12400 73616 10060 21010 30176 40272 51011 60006 87801 91200=
07005,1998-03-12 15:00:00,6,1027,-0.2,61,-1,35000,29.632,,,340,,,,,,,,,,,wg-a,,,,AAXX 12154 07005 12481 /3416 10060 21010 30174 40270 55002 60006 85802 91500=
07005,1998-03-12 18:00:00,4,1028,0.9,75,0,500,11.112,,,320,1.4,6.8,,,,,,,,,wg-a,,,,AAXX 12184 07005 12400 53206 10040 20000 30183 40280 53009 60006 84802 91800 333 10068 20014=
07005,1998-03-13 00:00:00,1,1028.5,-0.3,86,-1,0,11.112,,,170,,,,,,,,,,,wg-a,,,,AAXX 13004 07005 12/// /1706 10010 21010 30187 40285 58003 60006 90000=
07005,1998-03-13 06:00:00,2,1027.4,-0.3,93,1,20000,11.112,,,180,0.5,4.1,,,,,,,,,wg-a,,,,AAXX 13064 07005 02/70 81806 10020 20010 30177 40274 55003 60006 8807/ 90600 333 10041 20005 61000=
07005,1998-03-13 09:00:00,4,1027.7,0.3,93,3,12000,11.112,,,210,,,,,,,,,,21,wg-a,,,,AAXX 13094 07005 02562 82106 10040 20030 30180 40277 51003 61000 72162 8657/ 90900 333 ////=
07005,1998-03-13 12:00:00,6,1027.8,0.2,93,5,4000,11.112,,,240,,,,,,,,,,10,wg-a,,,,AAXX 13124 07005 02340 82406 10060 20050 30182 40278 53002 61000 71065 877// 91200 333 6100=
07005,1998-03-13 15:00:00,8,1027.1,-0.6,93,7,3000,7.408,,,230,,,,,,,,,,10,wg-a,,,,AAXX 13154 07005 12230 82304 10080 20070 30176 40271 57006 60006 71022 876// 91500=
07005,1998-03-13 18:00:00,8,1027.9,0.8,93,7,2200,11.112,,,300,2.4,7.9,,0,,,,,,10,wg-a,,,,AAXX 13184 07005 02222 83006 10080 20070 30184 40279 53008 60006 71022 876// 91800 333 10079 20024 60007=
07005,1998-03-14 00:00:00,7,1029.6,0.7,100,7,0,3.704,,,280,,,,,,,,,,,wg-a,,,,AAXX 14004 07005 12/// /2802 10070 20070 30200 40296 52007 60006 90000=
07005,1998-03-14 06:00:00,6,1030.5,1.1,100,6,500,7.408,,,310,6.1,7.5,,,,,1,,,45,wg-a,,,,AAXX 14064 07005 02/00 93104 10060 20060 30209 40305 53011 60006 74542 89/// 90600 333 10075 20061 60014=
07005,1998-03-14 09:00:00,7,1031.9,1.4,93,6,400,7.408,,,300,,,,,,,,,,42,wg-a,,,,AAXX 14094 07005 12204 /3004 10070 20060 30223 40319 52014 60006 74244 876// 90900=
07005,1998-03-14 12:00:00,11,1032.4,0.6,87,9,7000,7.408,,,320,,,,,,,,,,3,wg-a,,,,AAXX 14124 07005 12457 43204 10110 20090 30229 40324 50006 60006 70341 84200 91200=
07005,1998-03-14 18:00:00,9,1032.5,0.5,87,7,0,11.112,,,310,6.1,11.2,,,,,,,,,wg-a,,,,AAXX 14184 07005 12/// /3106 10090 20070 30230 40325 53005 60006 91800 333 10112 20061=
07005,1998-03-15 00:00:00,8,1033.5,0.1,93,7,0,7.408,,,280,,,,,,,,,,,wg-a,,,,AAXX 15004 07005 12/// /2804 10080 20070 30239 40335 51001 60006 90000=
07005,1998-03-15 06:00:00,7,1033,0.3,100,7,3000,7.408,,,280,7.2,9.1,,,,,,,,10,wg-a,,,,AAXX 15064 07005 02530 82804 10070 20070 30234 40330 53003 60006 71022 885// 90600 333 10091 20072 60004=
07005,1998-03-15 09:00:00,8,1033.5,0.5,93,7,500,14.816,,,300,,,,,,,,,,,wg-a,,,,AAXX 15094 07005 12500 83008 10080 20070 30239 40335 52005 60006 885// 90900=
07005,1998-03-15 12:00:00,8,1033.9,0.4,87,6,6000,18.52,,,300,,,,,,,,,,,wg-a,,,,AAXX 15124 07005 12556 83010 10080 20060 30243 40339 51004 60006 885// 91200=
07005,1998-03-15 15:00:00,8,1033.1,-0.8,93,7,2000,14.816,,,310,,,,,,,,,,10,wg-a,,,,AAXX 15154 07005 02220 83108 10080 20070 30235 40331 57008 61000 71052 887// 91500 333 ////=
07005,1998-03-15 18:00:00,8,1033.1,-0,93,7,0,14.816,,,310,7.1,8.6,,,,,,,,,wg-a,,,,AAXX 15184 07005 32/// /3108 10080 20070 30235 40331 55000 91800 333 10086 20071=
07005,1998-03-16 00:00:00,8,1032.9,-0.5,93,7,0,7.408,,,260,,,,,,,,,,,wg-a,,,,AAXX 16004 07005 12/// /2604 10080 20070 30233 40329 58005 60006 90000=
07005,1998-03-16 06:00:00,8,1032.4,0.2,93,7,6000,7.408,,,280,7.4,7.9,,,,,,,,,wg-a,,,,AAXX 16064 07005 02556 82804 10080 20070 30228 40324 53002 60006 885// 90600 333 10079 20074 61000=
07005,1998-03-16 09:00:00,8,1032.8,0.4,87,6,3500,7.408,,,280,,,,,,,,,,10,wg-a,,,,AAXX 16094 07005 12535 82804 10080 20060 30232 40328 53004 60006 71022 885// 90900=
07005,1998-03-16 12:00:00,10,1032.5,-0.2,76,6,7000,18.52,,,310,,,,,,,,,,,wg-a,,,,AAXX 16124 07005 12457 73110 10100 20060 30230 40325 58002 60006 878// 91200=
07005,1998-03-16 15:00:00,9,1031.8,-0.7,76,5,12000,18.52,,,290,,,,,,,,,,,wg-a,,,,AAXX 16154 07005 12562 82910 10090 20050 30223 40318 56007 60006 888// 91500=
07005,1998-03-16 18:00:00,8,1031.5,-0.4,87,6,6000,11.112,,,270,7.6,9.6,,,,,,,,,wg-a,,,,AAXX 16184 07005 12556 82706 10080 20060 30219 40315 57004 60006 888// 91800 333 10096 20076=
07005,1998-03-17 00:00:00,7,1031.7,-0.2,93,6,0,11.112,,,250,,,,,,,,,,,wg-a,,,,AAXX 17004 07005 12/// /2506 10070 20060 30221 40317 56002 60006 90000=
07005,1998-03-17 06:00:00,7,1031.7,0.6,93,6,3000,7.408,,,240,6.9,8.3,,,,,,,,10,wg-a,,,,AAXX 17064 07005 02530 82404 10070 20060 30221 40317 53006 60006 71022 885// 90600 333 10083 20069 60004=
07005,1998-03-17 09:00:00,8,1032.2,0.5,93,7,4000,11.112,,,290,,,,,,,,,,10,wg-a,,,,AAXX 17094 07005 12340 82906 10080 20070 30226 40322 50005 60006 71022 885// 90900=
07005,1998-03-17 12:00:00,10,1032.8,0.7,76,6,10000,22.224,,,310,,,,,,,,,,,wg-a,,,,AAXX 17124 07005 12160 73112 10100 20060 30233 40328 53007 60006 878// 91200=
07005,1998-03-17 18:00:00,9,1033.2,0.4,87,7,10000,7.408,,,290,6.9,9.9,,,,,,,,,wg-a,,,,AAXX 17184 07005 12460 72904 10090 20070 30237 40332 53004 60006 878// 91800 333 10099 20069=
07005,1998-03-18 00:00:00,8,1034.5,0.5,93,7,0,7.408,,,240,,,,,,,,,,,wg-a,,,,AAXX 18004 07005 12/// /2404 10080 20070 30249 40345 51005 60006 90000=
07005,1998-03-18 06:00:00,8,1035.5,1,93,7,2000,3.704,,,270,7.6,8.8,,,,,,,,10,wg-a,,,,AAXX 18064 07005 02420 82702 10080 20070 30259 40355 52010 60006 71022 885// 90600 333 10088 20076 60004=
07005,1998-03-18 09:00:00,9,1036.8,1.3,93,8,500,11.112,,,300,,,,,,,,,,,wg-a,,,,AAXX 18094 07005 12600 83006 10090 20080 30272 40368 52013 60006 885// 90900=
07005,1998-03-18 12:00:00,12,1037.2,0.5,71,7,10000,11.112,,,330,,,,,,,,,,,wg-a,,,,AAXX 18124 07005 12760 73306 10120 20070 30277 40372 50005 60006 878// 91200=
07005,1998-03-18 18:00:00,9,1037.7,0.5,87,7,12000,14.816,,,310,7.7,12.5,,,,,,,,,wg-a,,,,AAXX 18184 07005 12762 73108 10090 20070 30281 40377 53005 60006 835/2 91800 333 10125 20077=
07005,1998-03-19 00:00:00,7,1039.2,-0,93,6,0,11.112,,,300,,,,,,,,,,,wg-a,,,,AAXX 19004 07005 12/// /3006 10070 20060 30295 40392 54000 60006 90000=
07005,1998-03-19 06:00:00,5,1040.4,1.1,93,4,15000,7.408,,,360,5,9,,,,,,,,,wg-a,,,,AAXX 19064 07005 02/65 43604 10050 20040 30307 40404 53011 60006 81031 90600 333 10090 20050 60004=
07005,1998-03-19 09:00:00,9,1041.6,1.3,87,7,500,7.408,,,110,,,,,,,,,,,wg-a,,,,AAXX 19094 07005 12/00 31104 10090 20070 30320 40416 51013 60006 80002 90900=
07005,1998-03-19 12:00:00,12,1041.9,0.4,58,4,15000,11.112,,,90,,,,,,,,,,,wg-a,,,,AAXX 19124 07005 12565 /0906 10120 20040 30324 40419 50004 60006 85202 91200=
07005,1998-03-19 18:00:00,9,1041,0.2,81,6,15000,18.52,,,20,4.3,12.7,,,,,,,,,wg-a,,,,AAXX 19184 07005 12665 40210 10090 20060 30314 40410 53002 60006 83202 91800 333 10127 20043=
07005,1998-03-20 00:00:00,4,1041.4,0.1,93,3,0,7.408,,,350,,,,,,,,,,,wg-a,,,,AAXX 20004 07005 12/// /3504 10040 20030 30316 40414 52001 60006 90000=
07005,1998-03-20 06:00:00,1,1040.2,-0.6,100,1,300,7.408,,,260,1.4,9.3,,,,,,,,44,wg-a,,,,AAXX 20064 07005 02603 22604 10010 20010 30303 40402 55006 60006 74440 81502 90600 333 10093 20014 60004=
07005,1998-03-20 12:00:00,11,1038.9,-0.5,71,6,10000,22.224,,,300,,,,,,,,,,1,wg-a,,,,AAXX 20124 07005 12560 /3012 10110 20060 30294 40389 58005 60006 70141 85800 91200=
07005,1998-03-20 15:00:00,11,1037.1,-1.8,71,6,15000,22.224,,,300,,,,,,,,,,,wg-a,,,,AAXX 20154 07005 12565 43012 10110 20060 30276 40371 56018 60006 84800 91500=
07005,1998-03-20 18:00:00,9,1036.4,-0.8,81,6,12000,14.816,,,320,1.4,11.2,,,,,,,,,wg-a,,,,AAXX 20184 07005 12762 73208 10090 20060 30268 40364 56008 60006 875// 91800 333 10112 20014=
07005,1998-03-21 00:00:00,8,1036.2,-0.5,93,7,0,11.112,,,320,,,,,,,,,,,wg-a,,,,AAXX 21004 07005 12/// /3206 10080 20070 30266 40362 58005 60006 90000=
07005,1998-03-21 06:00:00,7,1034.7,-0.1,93,6,15000,14.816,,,350,6.7,8.8,,,,,,,,,wg-a,,,,AAXX 21064 07005 02365 73508 10070 20060 30251 40347 57001 60006 875// 90600 333 10088 20067 60004=
07005,1998-03-21 09:00:00,9,1035.1,0.5,87,7,15000,25.928,,,20,,,,,,,,,,,wg-a,,,,AAXX 21094 07005 12465 80214 10090 20070 30256 40351 51005 60006 888// 90900=
07005,1998-03-21 12:00:00,10,1034.8,-0.3,82,7,20000,22.224,,,20,,,,,,,,,,,wg-a,,,,AAXX 21124 07005 12470 80212 10100 20070 30253 40348 57003 60006 888// 91200=
07005,1998-03-21 18:00:00,8,1034.3,0.1,87,6,0,22.224,,,30,7,9.9,,,,,,,,,wg-a,,,,AAXX 21184 07005 12/// /0312 10080 20060 30247 40343 53001 60006 91800 333 10099 20070=
07005,1998-03-22 00:00:00,7,1034.4,-0.5,93,6,0,7.408,,,340,,,,,,,,,,,wg-a,,,,AAXX 22004 07005 12/// /3404 10070 20060 30248 40344 57005 60006 90000=
07005,1998-03-22 06:00:00,6,1034.6,0.4,93,5,3000,18.52,,,60,5.5,7.9,,,,,,,,10,wg-a,,,,AAXX 22064 07005 02630 /0610 10060 20050 30249 40346 53004 60006 71022 85500 90600 333 10079 20055 60004=
07005,1998-03-22 12:00:00,9,1035.5,-0.3,76,5,12000,22.224,,,60,,,,,,,,,,,wg-a,,,,AAXX 22124 07005 12462 70612 10090 20050 30259 40355 58003 60006 878// 91200=
07005,1998-03-22 15:00:00,10,1034.4,-1,71,5,15000,22.224,,,50,,,,,,,,,,,wg-a,,,,AAXX 22154 07005 12465 70512 10100 20050 30249 40344 56010 60006 878// 91500=
07005,1998-03-22 18:00:00,8,1034.2,-0.3,81,5,0,18.52,,,40,5.3,10.1,,,,,,,,,wg-a,,,,AAXX 22184 07005 12/// /0410 10080 20050 30246 40342 56003 60006 91800 333 10101 20053=
07005,1998-03-23 00:00:00,6,1033.1,-0.9,93,5,0,7.408,,,10,,,,,,,,,,,wg-a,,,,AAXX 23004 07005 12/// /0104 10060 20050 30235 40331 58009 60006 90000=
07005,1998-03-23 06:00:00,6,1030.6,-1.1,93,5,3500,14.816,,,340,6,8.3,,,,,,,,10,wg-a,,,,AAXX 23064 07005 02535 83408 10060 20050 30210 40306 56011 60006 71022 885// 90600 333 10083 20060 60004=
07005,1998-03-23 09:00:00,7,1030.3,-0.3,81,4,8000,22.224,,,350,,,,,,,,,,,wg-a,,,,AAXX 23094 07005 12458 83512 10070 20040 30207 40303 58003 60006 888// 90900=
07005,1998-03-23 12:00:00,8,1029.2,-1,76,4,15000,25.928,,,350,,,,,,,,,,,wg-a,,,,AAXX 23124 07005 12565 83514 10080 20040 30197 40292 58010 60006 888// 91200=
07005,1998-03-23 15:00:00,8,1027.9,-1.3,81,5,25000,18.52,,,340,,,,,,,,,,1,wg-a,,,,AAXX 23154 07005 02575 /3410 10080 20050 30184 40279 57013 61000 70186 86200 91500 333 ////=
07005,1998-03-23 18:00:00,6,1029.1,1.1,81,3,10000,25.928,,,50,6.2,9.2,,,,,,,,1,wg-a,,,,AAXX 23184 07005 32560 60514 10060 20030 30195 40291 53011 70186 86800 91800 333 10092 20062=
07005,1998-03-24 00:00:00,0,1031.7,1,93,-1,0,14.816,,,80,,,,,,,,,,,wg-a,,,,AAXX 24004 07005 12/// /0808 10000 21010 30219 40317 52010 60006 90000=
07005,1998-03-24 06:00:00,-2,1032.4,0.4,93,-3,4500,7.408,,,120,-1.6,6.2,,,,,,,,10,wg-a,,,,AAXX 24064 07005 02/45 /1204 11020 21030 30225 40324 53004 60006 71000 80001 90600 333 10062 21016 61000=
07005,1998-03-24 09:00:00,2,1033.9,1.6,69,-3,8000,7.408,,,120,,,,,,,,,,,wg-a,,,,AAXX 24094 07005 12/58 /1204 10020 21030 30241 40339 51016 60006 82032 90900=
07005,1998-03-24 12:00:00,6,1033.2,-0.6,45,-5,15000,7.408,,,80,,,,,,,,,,,wg-a,,,,AAXX 24124 07005 12/65 60804 10060 21050 30235 40332 58006 60006 80002 91200=
07005,1998-03-24 18:00:00,7,1032.8,0.7,45,-4,15000,3.704,,,120,-1.5,8.6,,,,,,,,,wg-a,,,,AAXX 24184 07005 12/65 61202 10070 21040 30232 40328 51007 60006 80002 91800 333 10086 21015=
07005,1998-03-25 00:00:00,2,1032.7,-0.7,80,-1,0,7.408,,,180,,,,,,,,,,,wg-a,,,,AAXX 25004 07005 12/// /1804 10020 21010 30229 40327 58007 60006 90000=
07005,1998-03-25 06:00:00,1,1031.7,-0,80,-2,12000,11.112,,,150,0.9,6.9,,,,,,,,,wg-a,,,,AAXX 25064 07005 02/62 51506 10010 21020 30219 40317 55000 60006 80002 90600 333 10069 20009 60004=
07005,1998-03-25 12:00:00,10,1029.7,-1.3,43,-2,12000,18.52,,,190,,,,,,,,,,,wg-a,,,,AAXX 25124 07005 12/62 81910 10100 21020 30202 40297 58013 60006 80002 91200=
07005,1998-03-25 18:00:00,9,1026.4,-1.4,43,-3,15000,18.52,,,200,1.3,10.7,,,,,,,,,wg-a,,,,AAXX 25184 07005 12/65 72010 10090 21030 30169 40264 56014 60006 86072 91800 333 10107 20013=
07005,1998-03-26 00:00:00,6,1023.7,-1.6,65,0,0,14.816,,,160,,,,,,,,,,,wg-a,,,,AAXX 26004 07005 12/// /1608 10060 20000 30141 40237 56016 60006 90000=
07005,1998-03-26 06:00:00,7,1020.6,-1.2,76,3,6000,14.816,,,180,6.3,9.3,,,,,,,,60,wg-a,,,,AAXX 26064 07005 02656 81808 10070 20030 30111 40206 56012 61000 76062 8457/ 90600 333 10093 20063 6100=
07005,1998-03-26 12:00:00,8,1019,-1.1,93,7,4000,22.224,,,210,,,,1,,,,,,61,wg-a,,,,AAXX 26124 07005 02440 82112 10080 20070 30096 40190 58011 60026 76162 885// 91200 333 60017=
07005,1998-03-26 15:00:00,9,1017.7,-1.3,93,8,500,22.224,,,220,,,,2,,,,,,61,wg-a,,,,AAXX 26154 07005 12400 82212 10090 20080 30083 40177 58013 60027 76166 885// 91500=
07005,1998-03-26 18:00:00,8,1016.9,-0.8,100,8,3000,22.224,,,210,6.4,8.8,,,,,,,,61,wg-a,,,,AAXX 26184 07005 02430 82112 10080 20080 30075 40169 56008 61000 76166 887// 91800 333 10088 20064 6000=
07005,1998-03-27 00:00:00,9,1016.6,-0.2,93,8,0,22.224,,,230,,,,,,,,,,,wg-a,,,,AAXX 27004 07005 12/// /2312 10090 20080 30072 40166 56002 60006 90000=
07005,1998-03-27 06:00:00,10,1016.8,0.7,93,9,4000,14.816,,,250,8,9.6,,,,,5,,,10,wg-a,,,,AAXX 27064 07005 02340 82508 10100 20090 30074 40168 53007 60006 71022 876// 90600 333 10096 20080 60054=
07005,1998-03-27 09:00:00,10,1018.5,1.7,100,10,800,18.52,,,260,,,,0,,,,,,51,wg-a,,,,AAXX 27094 07005 12108 82610 10100 20100 30091 40185 51017 60007 75165 887// 90900=
07005,1998-03-27 12:00:00,12,1019.3,0.9,94,11,10000,22.224,,,270,,,,,,,,,,1,wg-a,,,,AAXX 27124 07005 02460 82712 10120 20110 30100 40193 51009 60006 70165 875// 91200 333 61000=
07005,1998-03-27 15:00:00,11,1019.2,-0.1,94,10,10000,14.816,,,290,,,,,,,,,,2,wg-a,,,,AAXX 27154 07005 02460 82908 10110 20100 30099 40192 55001 61000 70252 875// 91500 333 ////=
07005,1998-03-27 18:00:00,11,1019.2,-0,94,10,10000,3.704,,,230,9.6,12.1,,,,,,,,2,wg-a,,,,AAXX 27184 07005 12560 82302 10110 20100 30099 40192 55000 60006 70252 885// 91800 333 10121 20096=
07005,1998-03-28 00:00:00,11,1018.1,-0.7,94,10,0,14.816,,,180,,,,,,,,,,,wg-a,,,,AAXX 28004 07005 12/// /1808 10110 20100 30088 40181 58007 60006 90000=
07005,1998-03-28 06:00:00,9,1016.7,-0.3,93,8,3000,14.816,,,140,9,11.3,,,,,,,,10,wg-a,,,,AAXX 28064 07005 02330 81408 10090 20080 30073 40167 58003 60006 71022 82632 90600 333 10113 20090 60004=
07005,1998-03-28 09:00:00,10,1016.5,-0.1,93,9,3500,18.52,,,160,,,,,,,,,,10,wg-a,,,,AAXX 28094 07005 12/35 81610 10100 20090 30072 40165 58001 60006 71022 85032 90900=
07005,1998-03-28 12:00:00,15,1015.3,-1.1,77,11,7000,14.816,,,140,,,,,,,,,,,wg-a,,,,AAXX 28124 07005 12/57 71408 10150 20110 30061 40153 58011 60006 82032 91200=
07005,1998-03-28 15:00:00,16,1013.4,-1.8,72,11,10000,18.52,,,130,,,,,,,,,,,wg-a,,,,AAXX 28154 07005 12760 71310 10160 20110 30043 40134 58018 60006 81532 91500=
07005,1998-03-28 18:00:00,15,1012.3,-1.1,77,11,0,11.112,,,110,8.9,16.8,,,,,,,,,wg-a,,,,AAXX 28184 07005 12/// /1106 10150 20110 30032 40123 56011 60006 91800 333 10168 20089=
07005,1998-03-29 00:00:00,12,1011.6,-0.8,88,10,0,14.816,,,110,,,,,,,,,,,wg-a,,,,AAXX 29004 07005 12/// /1108 10120 20100 30024 40116 56008 60006 90000=
07005,1998-03-29 06:00:00,11,1009.6,-0.5,87,9,3500,11.112,,,130,11.1,15,,,,,,,,10,wg-a,,,,AAXX 29064 07005 02/35 71306 10110 20090 30004 40096 55005 60006 71022 8703/ 90600 333 10150 20111 60004=
07005,1998-03-29 09:00:00,15,1009.1,-0.4,77,11,4000,22.224,,,140,,,,,,,,,,10,wg-a,,,,AAXX 29094 07005 12/40 71412 10150 20110 30000 40091 55004 60006 71022 8703/ 90900=
07005,1998-03-29 12:00:00,18,1008.3,-0.7,68,12,6000,22.224,,,130,,,,,,,,,,,wg-a,,,,AAXX 29124 07005 12/56 71312 10180 20120 39993 40083 58007 60006 86032 91200=
07005,1998-03-29 18:00:00,18,1007.1,-0.2,68,12,0,14.816,,,120,11.1,20.2,,,,,,,,,wg-a,,,,AAXX 29184 07005 12/// /1208 10180 20120 39981 40071 55002 60006 91800 333 10202 20111=
07005,1998-03-30 00:00:00,13,1008.1,0.3,88,11,0,11.112,,,140,,,,,,,,,,,wg-a,,,,AAXX 30004 07005 12/// /1406 10130 20110 39989 40081 51003 60006 90000=
07005,1998-03-30 12:00:00,13,1014.7,1.9,100,13,1100,7.408,,,250,,,,1,,,,,,50,wg-a,,,,AAXX 30124 07005 02211 82504 10130 20130 30055 40147 51019 60016 75065 877// 91200 333 60017=
07005,1998-03-30 18:00:00,12,1017.1,1.3,88,10,25000,7.408,,,280,10.2,14.5,,,,,,,,1,wg-a,,,,AAXX 30184 07005 32475 82804 10120 20100 30078 40171 53013 70152 8687/ 91800 333 10145 20102=
07005,1998-03-31 00:00:00,10,1019,0.8,93,9,0,11.112,,,280,,,,,,,,,,,wg-a,,,,AAXX 31004 07005 12/// /2806 10100 20090 30096 40190 51008 60006 90000=
07005,1998-03-31 06:00:00,7,1018.1,-0.3,100,7,4000,3.704,,,210,7.3,12,,,,,1,,,10,wg-a,,,,AAXX 31064 07005 02740 62102 10070 20070 30086 40181 56003 60006 71022 83532 90600 333 10120 20073 60014=
07005,1998-03-31 12:00:00,14,1016.3,-1.3,72,9,20000,3.704,,,130,,,,,,,,,,,wg-a,,,,AAXX 31124 07005 12570 71302 10140 20090 30071 40163 58013 60006 86802 91200=
07005,1998-03-31 18:00:00,14,1013.4,-1.1,82,11,8000,7.408,,,60,7.3,16.4,,,,,,,,,wg-a,,,,AAXX 31184 07005 12/58 /0604 10140 20110 30042 40134 56011 60006 85052 91800 333 10164 20073=
07005,1998-04-01 00:00:00,12,1012.9,-0.4,94,11,0,14.816,,,120,,,,,,,,,,,wg-a,,,,AAXX 01004 07005 12/// /1208 10120 20110 30037 40129 58004 60016 90000=
07005,1998-04-01 06:00:00,11,1011.1,-0.1,94,10,6000,11.112,,,140,10.8,14.2,,,,,1,,,,wg-a,,,,AAXX 01064 07005 02656 71406 10110 20100 30018 40111 55001 60006 8457/ 90600 333 10142 20108 60014=
07005,1998-04-01 09:00:00,13,1011.3,0.3,88,11,8000,14.816,,,200,,,,,,,,,,,wg-a,,,,AAXX 01094 07005 12/58 82008 10130 20110 30021 40113 53003 60006 8807/ 90900=
07005,1998-04-01 12:00:00,12,1012,0.7,94,11,4000,18.52,,,270,,,,0,,,,,,3,wg-a,,,,AAXX 01124 07005 02240 82710 10120 20110 30028 40120 51007 60006 70362 886// 91200 333 60007=
07005,1998-04-01 18:00:00,13,1010.4,-0.8,88,11,12000,7.408,,,30,11.1,14.8,,,,,,,,3,wg-a,,,,AAXX 01184 07005 32662 40304 10130 20110 30012 40104 56008 70351 81101 91800 333 10148 20111=
07005,1998-04-02 00:00:00,11,1009,-1,94,10,0,11.112,,,170,,,,,,,,,,,wg-a,,,,AAXX 02004 07005 12/// /1706 10110 20100 39997 40090 58010 60016 90000=
07005,1998-04-02 06:00:00,9,1006.9,-0.5,100,9,10000,3.704,,,270,9.2,12.9,,,,,2,,,,wg-a,,,,AAXX 02064 07005 12460 72702 10090 20090 39976 40069 58005 60024 875// 90600 333 10129 20092=
07005,1998-04-02 12:00:00,12,1003,-2.2,76,8,20000,29.632,,,180,,,,,,,,,,60,wg-a,,,,AAXX 02124 07005 02470 81816 10120 20080 39938 40030 58022 61000 76062 878// 91200 333 6100=
07005,1998-04-02 15:00:00,11,1000.2,-2.7,94,10,20000,18.52,,,180,,,,,,,,,,61,wg-a,,,,AAXX 02154 07005 02470 71810 10110 20100 39911 40002 58027 61000 76162 878// 91500 333 ////=
07005,1998-04-02 18:00:00,12,998.7,-1.5,88,10,500,11.112,,,160,9,12.5,,,,,,,,3,wg-a,,,,AAXX 02184 07005 02400 71606 10120 20100 39896 49987 58015 61000 70362 8683/ 91800 333 10125 20090 ////=
07005,1998-04-03 00:00:00,11,993.8,-3.6,94,10,0,25.928,,,160,,,,,,,,,,,wg-a,,,,AAXX 03004 07005 12/// /1614 10110 20100 39847 49938 56036 60036 90000=
07005,1998-04-03 06:00:00,12,991.2,0.3,82,9,20000,25.928,,,210,10.1,12.5,,,,,5,,,3,wg-a,,,,AAXX 03064 07005 02470 72114 10120 20090 39821 49912 53003 60006 70362 878// 90600 333 10125 20101 60054=
07005,1998-04-03 09:00:00,11,992.3,1.1,82,8,20000,29.632,,,210,,,,0,,,,,,2,wg-a,,,,AAXX 03094 07005 12470 72116 10110 20080 39832 49923 51011 60007 70262 8227/ 90900=
07005,1998-04-03 12:00:00,12,991.9,-0.4,76,8,40000,38.892,,,200,,,,,,,,,,3,wg-a,,,,AAXX 03124 07005 12482 72021 10120 20080 39828 49919 58004 60016 70362 8527/ 91200=
07005,1998-04-03 18:00:00,9,990.3,-0.3,93,8,15000,14.816,,,180,8.9,12.2,,1,,,,,,21,wg-a,,,,AAXX 03184 07005 12365 71808 10090 20080 39812 49903 58003 60017 72162 8422/ 91800 333 10122 20089=
07005,1998-04-04 00:00:00,9,991,-0.3,76,5,0,22.224,,,170,,,,,,,,,,,wg-a,,,,AAXX 04004 07005 12/// /1712 10090 20050 39818 49910 55003 60006 90000=
07005,1998-04-04 06:00:00,9,988.8,-0.7,81,6,15000,38.892,,,190,8.2,10,,,,,2,,,25,wg-a,,,,AAXX 04064 07005 02365 81921 10090 20060 39797 49888 55007 60024 72586 888// 90600 333 10100 20082 61000=
07005,1998-04-04 12:00:00,13,992.1,2,67,7,25000,35.188,,,230,,,,,,,,,,,wg-a,,,,AAXX 04124 07005 12575 72319 10130 20070 39831 49921 51020 60006 872// 91200=
07005,1998-04-04 18:00:00,11,995.4,1.2,82,8,0,31.484,,,210,8.8,15.2,,,,,,,,,wg-a,,,,AAXX 04184 07005 02/// /2117 10110 20080 39863 49954 53012 61000 91800 333 10152 20088 ////=
07005,1998-04-05 00:00:00,8,997.8,1,87,6,0,22.224,,,200,,,,,,,,,,,wg-a,,,,AAXX 05004 07005 12/// /2012 10080 20060 39886 49978 53010 60026 90000=
07005,1998-04-05 06:00:00,6,998.2,0.3,93,5,25000,22.224,,,170,6.4,10.5,,,,,4,,,,wg-a,,,,AAXX 05064 07005 12575 31712 10060 20050 39889 49982 53003 60044 81802 90600 333 10105 20064=
07005,1998-04-05 12:00:00,12,999.3,0.5,62,5,35000,29.632,,,220,,,,,,,,,,,wg-a,,,,AAXX 05124 07005 12581 72216 10120 20050 39902 49993 53005 60006 878// 91200=
07005,1998-04-05 18:00:00,10,1001.3,1.2,82,7,0,18.52,,,210,6.4,12.5,,,,,,,,,wg-a,,,,AAXX 05184 07005 32/// /2110 10100 20070 39921 40013 53012 91800 333 10125 20064=
07005,1998-04-06 00:00:00,8,1002.9,0.3,87,6,0,22.224,,,200,,,,,,,,,,,wg-a,,,,AAXX 06004 07005 12/// /2012 10080 20060 39936 40029 51003 60006 90000=
07005,1998-04-06 06:00:00,7,1003.6,0.8,93,6,20000,14.816,,,210,7.3,10.1,,,,,1,,,,wg-a,,,,AAXX 06064 07005 02470 52108 10070 20060 39943 40036 53008 60006 85800 90600 333 10101 20073 60014=
07005,1998-04-06 12:00:00,12,1003.4,-0.5,71,7,12000,35.188,,,220,,,,0,,,,,,25,wg-a,,,,AAXX 06124 07005 02462 72219 10120 20070 39942 40034 57005 60016 72522 87903 91200 333 60007=
07005,1998-04-06 18:00:00,10,1003,0.1,82,7,15000,14.816,,,230,7.5,12.5,,,,,,,,,wg-a,,,,AAXX 06184 07005 12565 62308 10100 20070 39938 40030 53001 60006 86900 91800 333 10125 20075=
07005,1998-04-07 00:00:00,6,1002,-1.1,93,5,0,14.816,,,140,,,,,,,,,,,wg-a,,,,AAXX 07004 07005 12/// /1408 10060 20050 39926 40020 58011 60006 90000=
07005,1998-04-07 06:00:00,5,999.1,-1.1,93,4,2000,7.408,,,130,4.2,9.8,,,,,,,,10,wg-a,,,,AAXX 07064 07005 02620 81304 10050 20040 39897 49991 56011 60006 71022 8257/ 90600 333 10098 20042 60004=
07005,1998-04-07 12:00:00,8,999.2,0.6,93,7,2500,18.52,,,310,,,,2,,,,,,10,wg-a,,,,AAXX 07124 07005 02325 83110 10080 20070 39899 49992 53006 60026 71062 8577/ 91200 333 60027=
07005,1998-04-07 15:00:00,10,1000.4,1.3,76,6,15000,22.224,,,290,,,,,,,,,,2,wg-a,,,,AAXX 07154 07005 02365 82912 10100 20060 39912 40004 52013 61000 70262 872// 91500 333 ////=
07005,1998-04-07 18:00:00,9,1002.2,1.7,81,6,20000,18.52,,,290,4.4,10.4,,,,,,,,1,wg-a,,,,AAXX 07184 07005 32470 62910 10090 20060 39929 40022 53017 70162 85902 91800 333 10104 20044=
07005,1998-04-08 00:00:00,7,1004.2,0.5,93,6,0,14.816,,,230,,,,,,,,,,,wg-a,,,,AAXX 08004 07005 12/// /2308 10070 20060 39949 40042 51005 60006 90000=
07005,1998-04-08 06:00:00,7,1003.9,-0.1,93,6,4000,7.408,,,230,6.4,9,,,,,10,,,,wg-a,,,,AAXX 08064 07005 02/40 /2304 10070 20060 39946 40039 56001 60006 90600 333 10090 20064 60104=
07005,1998-04-08 09:00:00,8,1004.4,0.5,87,6,10000,18.52,,,250,,,,,,,,,,,wg-a,,,,AAXX 08094 07005 12360 82510 10080 20060 39951 40044 52005 60006 878// 90900=
07005,1998-04-08 12:00:00,10,1003.5,-0.8,82,7,15000,14.816,,,280,,,,,,,,,,,wg-a,,,,AAXX 08124 07005 12465 72808 10100 20070 39943 40035 58008 60006 872// 91200=
07005,1998-04-08 15:00:00,11,1001.7,-1.8,71,6,20000,11.112,,,270,,,,,,,,,,,wg-a,,,,AAXX 08154 07005 12570 /2706 10110 20060 39925 40017 57018 60006 86800 91500=
07005,1998-04-08 18:00:00,9,1000.1,-1.6,81,6,20000,11.112,,,180,6.7,11.4,,,,,,,,,wg-a,,,,AAXX 08184 07005 12570 71806 10090 20060 39909 40001 56016 60006 873// 91800 333 10114 20067=
07005,1998-04-09 00:00:00,6,997.8,-1.6,93,5,0,14.816,,,130,,,,,,,,,,,wg-a,,,,AAXX 09004 07005 12/// /1308 10060 20050 39885 49978 57016 60006 90000=
07005,1998-04-09 06:00:00,6,995.1,-0.7,93,5,4000,18.52,,,130,5.1,9,,,,,,,,10,wg-a,,,,AAXX 09064 07005 02540 81310 10060 20050 39858 49951 55007 60006 71022 8557/ 90600 333 10090 20051 60004=
07005,1998-04-09 09:00:00,8,994.9,-0.1,87,6,10000,18.52,,,150,,,,,,,,,,,wg-a,,,,AAXX 09094 07005 12460 71510 10080 20060 39857 49949 58001 60006 878// 90900=
07005,1998-04-09 12:00:00,6,995.3,0.3,93,5,20000,14.816,,,130,,,,1,,,,,,21,wg-a,,,,AAXX 09124 07005 02470 71308 10060 20050 39860 49953 52003 60016 72186 878// 91200 333 60017=
07005,1998-04-09 15:00:00,11,993.8,-1.3,66,5,500,11.112,,,160,,,,,,,,,,,wg-a,,,,AAXX 09154 07005 12500 /1606 10110 20050 39847 49938 56013 60006 85802 91500=
07005,1998-04-09 18:00:00,8,994.5,0.6,76,4,40000,3.704,,,120,5.9,11,,3,,,,,,29,wg-a,,,,AAXX 09184 07005 02582 71202 10080 20040 39853 49945 53006 60006 72998 879// 91800 333 10110 20059 60037=
07005,1998-04-10 00:00:00,5,994.1,-0.6,93,4,0,7.408,,,100,,,,,,,,,,,wg-a,,,,AAXX 10004 07005 12/// /1004 10050 20040 39848 49941 56006 60006 90000=
07005,1998-04-10 06:00:00,4,993,-0,100,4,500,11.112,,,140,3.6,7.7,,,,,4,,,,wg-a,,,,AAXX 10064 07005 02400 61406 10040 20040 39837 49930 55000 60006 86800 90600 333 10077 20036 60044=
07005,1998-04-10 12:00:00,9,993.2,0.1,66,3,15000,14.816,,,160,,,,,,,,,,,wg-a,,,,AAXX 10124 07005 12565 71608 10090 20030 39840 49932 52001 60006 878// 91200=
07005,1998-04-10 18:00:00,9,992.9,0.4,66,3,500,7.408,,,120,4.3,11.4,,,,,,,,,wg-a,,,,AAXX 10184 07005 12500 41204 10090 20030 39837 49929 53004 60006 82302 91800 333 10114 20043=
07005,1998-04-11 00:00:00,5,994.6,0.5,87,3,0,7.408,,,120,,,,,,,,,,,wg-a,,,,AAXX 11004 07005 12/// /1204 10050 20030 39853 49946 53005 60006 90000=
07005,1998-04-11 06:00:00,5,996.1,1.1,93,4,15000,11.112,,,170,3.4,9,,,,,,,,,wg-a,,,,AAXX 11064 07005 02/65 81706 10050 20040 39868 49961 53011 60006 8707/ 90600 333 10090 20034 60004=
07005,1998-04-11 12:00:00,8,998.5,1,81,5,8000,14.816,,,260,,,,,,,,,,15,wg-a,,,,AAXX 11124 07005 12558 72608 10080 20050 39893 49985 51010 60006 71522 86202 91200=
07005,1998-04-11 18:00:00,6,1000.1,0.8,87,4,0,14.816,,,20,4.9,8.9,,,,,,,,,wg-a,,,,AAXX 11184 07005 32/// /0208 10060 20040 39908 40001 53008 91800 333 10089 20049=
07005,1998-04-12 00:00:00,5,1003,0.8,87,3,0,14.816,,,360,,,,,,,,,,,wg-a,,,,AAXX 12004 07005 12/// /3608 10050 20030 39936 40030 51008 60056 90000=
07005,1998-04-12 06:00:00,3,1004.9,1.2,87,1,20000,18.52,,,340,2.7,6.2,,,,,6,,,,wg-a,,,,AAXX 12064 07005 12570 53410 10030 20010 39954 40049 53012 60064 84231 90600 333 10062 20027=
07005,1998-04-12 12:00:00,7,1007.1,0.9,76,3,11000,25.928,,,320,,,,,,,,,,,wg-a,,,,AAXX 12124 07005 12/61 /3214 10070 20030 39977 40071 51009 60006 91200=
07005,1998-04-12 18:00:00,6,1007.8,0.3,61,-1,0,18.52,,,300,2.7,7.4,,,,,,,,,wg-a,,,,AAXX 12184 07005 12/// /3010 10060 21010 39984 40078 53003 60006 91800 333 10074 20027=
07005,1998-04-13 00:00:00,6,1,,61,-1,20000,11.112,,,250,,,,,,,,,,,wg-a,,,,AAXX 13004 07005 12770 22506 10060 21010 60006 90000=
07005,1998-04-13 06:00:00,0,1008.5,-0,93,-1,20000,7.408,,,240,-0.3,6.1,,,,,,,,,wg-a,,,,AAXX 13064 07005 02570 52404 10000 21010 39989 40085 55000 60006 84202 90600 333 10061 21003 60004=
07005,1998-04-13 12:00:00,6,1009.2,0.2,65,0,20000,31.484,,,310,,,,0,,,,,,25,wg-a,,,,AAXX 13124 07005 02570 73117 10060 20000 39998 40092 50002 60016 72586 87202 91200 333 60007=
07005,1998-04-13 18:00:00,4,1007.8,-0.4,65,-2,0,29.632,,,250,0.3,6.9,,,,,,,,,wg-a,,,,AAXX 13184 07005 32/// /2516 10040 21020 39983 40078 55004 91800 333 10069 20003=
07005,1998-04-14 00:00:00,1,1006.8,-0.5,93,0,0,11.112,,,220,,,,,,,,,,,wg-a,,,,AAXX 14004 07005 12/// /2206 10010 20000 39972 40068 58005 60016 90000=
07005,1998-04-14 06:00:00,1,1005,-0.1,93,0,15000,11.112,,,240,0.6,3.4,,,,,4,,,3,wg-a,,,,AAXX 14064 07005 12565 62406 10010 20000 39954 40050 55001 60044 70361 84802 90600 333 10034 20006=
07005,1998-04-14 12:00:00,8,1004.2,-0.4,53,-1,500,18.52,,,220,,,,,,,,,,,wg-a,,,,AAXX 14124 07005 12500 72210 10080 21010 39949 40042 58004 60006 86802 91200=
07005,1998-04-14 15:00:00,9,1002.9,-1.3,57,1,500,11.112,,,270,,,,,,,,,,,wg-a,,,,AAXX 14154 07005 12400 /2706 10090 20010 39936 40029 58013 60006 84302 91500=
07005,1998-04-14 18:00:00,8,1001.4,-1.5,61,1,500,22.224,,,170,0.9,9.2,,,,,,,,,wg-a,,,,AAXX 14184 07005 12500 71712 10080 20010 39921 40014 56015 60006 83806 91800 333 10092 20009=
07005,1998-04-15 00:00:00,5,997.7,-3.1,87,3,0,22.224,,,170,,,,,,,,,,,wg-a,,,,AAXX 15004 07005 12/// /1712 10050 20030 39884 49977 58031 60016 90000=
07005,1998-04-15 06:00:00,5,990.9,-2.8,100,5,6000,18.52,,,160,4.5,7.7,,,,,5,,,,wg-a,,,,AAXX 15064 07005 02/56 /1610 10050 20050 39816 49909 56028 60006 90600 333 10077 20045 60054=
07005,1998-04-15 12:00:00,7,991.7,0.8,70,2,25000,29.632,,,270,,,,0,,,,,,2,wg-a,,,,AAXX 15124 07005 02375 72716 10070 20020 39825 49917 51008 60016 70262 8623/ 91200 333 60007=
07005,1998-04-15 18:00:00,4,990.8,-0.7,81,1,12000,29.632,,,230,3.9,7.2,,,,,,,,80,wg-a,,,,AAXX 15184 07005 02462 72316 10040 20010 39815 49908 58007 61000 78086 872// 91800 333 10072 20039 6000=
07005,1998-04-16 00:00:00,6,994.7,3.7,81,3,0,35.188,,,290,,,,0,,,,,,,wg-a,,,,AAXX 16004 07005 02/// /2919 10060 20030 39854 49947 53037 60016 90000 333 60007=
07005,1998-04-16 06:00:00,3,996.6,0.1,93,2,8000,22.224,,,240,2.6,5.8,,0,,,3,,,80,wg-a,,,,AAXX 16064 07005 02458 72412 10030 20020 39872 49966 53001 60034 78086 878// 90600 333 10058 20026 60007=
07005,1998-04-16 12:00:00,9,993.4,-2.3,61,2,20000,25.928,,,210,,,,,,,,,,21,wg-a,,,,AAXX 16124 07005 02570 82114 10090 20020 39842 49934 58023 60006 72186 8527/ 91200 333 61000=
07005,1998-04-16 18:00:00,6,988,-2.5,87,4,6000,25.928,,,130,3.1,8.9,,2,,,,,,61,wg-a,,,,AAXX 16184 07005 12456 81314 10060 20040 39788 49880 58025 60027 76162 8657/ 91800 333 10089 20031=
07005,1998-04-17 00:00:00,6,985.1,-1.3,93,5,0,18.52,,,120,,,,1,,,,,,,wg-a,,,,AAXX 17004 07005 02/// /1210 10060 20050 39759 49851 56013 60026 90000 333 60017=
07005,1998-04-17 06:00:00,6,985.6,1.1,93,5,7000,11.112,,,60,5.5,6.3,,,,,4,,,,wg-a,,,,AAXX 17064 07005 12357 80606 10060 20050 39764 49856 53011 60044 885// 90600 333 10063 20055=
07005,1998-04-17 09:00:00,7,987.7,2.1,93,6,3000,18.52,,,20,,,,1,,,,,,10,wg-a,,,,AAXX 17094 07005 12230 80210 10070 20060 39785 49877 53021 60017 71062 877// 90900=
07005,1998-04-17 12:00:00,8,990,2.3,87,6,8000,29.632,,,360,,,,1,,,,,,21,wg-a,,,,AAXX 17124 07005 02358 83616 10080 20060 39808 49900 51023 60026 72162 875// 91200 333 60017=
07005,1998-04-17 15:00:00,8,992.5,2.5,81,5,15000,31.484,,,350,,,,,,,,,,,wg-a,,,,AAXX 17154 07005 12365 83517 10080 20050 39833 49925 52025 60006 885// 91500=
07005,1998-04-17 18:00:00,8,995.1,2.6,81,5,15000,31.484,,,340,5.9,8.4,,,,,,,,,wg-a,,,,AAXX 17184 07005 32465 83417 10080 20050 39859 49951 51026 888// 91800 333 10084 20059=
07005,1998-04-18 00:00:00,6,999.5,1.4,87,4,0,25.928,,,330,,,,,,,,,,,wg-a,,,,AAXX 18004 07005 12/// /3314 10060 20040 39902 49995 53014 60006 90000=
07005,1998-04-18 12:00:00,7,1004.1,1,76,3,500,25.928,,,300,,,,,,,,,,,wg-a,,,,AAXX 18124 07005 12400 73014 10070 20030 39948 40041 51010 60006 878// 91200=
07005,1998-04-18 18:00:00,7,1006.1,1.2,81,4,0,18.52,,,300,4.7,8.2,,,,,,,,,wg-a,,,,AAXX 18184 07005 12/// /3010 10070 20040 39967 40061 52012 60006 91800 333 10082 20047=
07005,1998-04-19 00:00:00,3,1007.9,0.6,93,2,0,11.112,,,180,,,,,,,,,,,wg-a,,,,AAXX 19004 07005 12/// /1806 10030 20020 39984 40079 51006 60006 90000=
07005,1998-04-19 06:00:00,5,1008.3,0.6,93,4,500,11.112,,,190,2.8,6.9,,,,,,,,,wg-a,,,,AAXX 19064 07005 02600 /1906 10050 20040 39989 40083 53006 60006 86500 90600 333 10069 20028 60004=
07005,1998-04-19 12:00:00,12,1009.5,0.3,54,3,500,18.52,,,210,,,,,,,,,,,wg-a,,,,AAXX 19124 07005 12400 72110 10120 20030 30003 40095 50003 60006 83201 91200=
07005,1998-04-19 15:00:00,13,1008.9,-0.6,54,4,50000,22.224,,,200,,,,,,,,,,,wg-a,,,,AAXX 19154 07005 12484 72012 10130 20040 39997 40089 58006 60006 83212 91500=
07005,1998-04-19 18:00:00,11,1008.4,-0.5,66,5,0,22.224,,,180,4.9,13.3,,,,,,,,,wg-a,,,,AAXX 19184 07005 12/// /1812 10110 20050 39992 40084 56005 60006 91800 333 10133 20049=
07005,1998-04-20 00:00:00,10,1007.6,-0.8,87,8,0,18.52,,,170,,,,,,,,,,,wg-a,,,,AAXX 20004 07005 12/// /1710 10100 20080 39983 40076 58008 60006 90000=
07005,1998-04-20 06:00:00,9,1008.1,1.3,100,9,8000,14.816,,,260,9,11.2,,,,,,,,21,wg-a,,,,AAXX 20064 07005 02358 72608 10090 20090 39988 40081 53013 61000 72162 8687/ 90600 333 10112 20090 6004=
07005,1998-04-20 12:00:00,12,1010.7,1.1,71,7,25000,29.632,,,270,,,,,,,,,,25,wg-a,,,,AAXX 20124 07005 02475 72716 10120 20070 30015 40107 51011 61000 72586 878// 91200 333 6100=
07005,1998-04-20 15:00:00,11,1012,1.2,71,6,25000,31.484,,,270,,,,,,,,,,,wg-a,,,,AAXX 20154 07005 12575 72717 10110 20060 30027 40120 51012 60006 8227/ 91500=
07005,1998-04-20 18:00:00,10,1013.4,1.4,71,5,25000,25.928,,,270,9.4,12.6,,,,,,,,,wg-a,,,,AAXX 20184 07005 12575 72714 10100 20050 30041 40134 51014 60006 81232 91800 333 10126 20094=
07005,1998-04-21 00:00:00,6,1015.9,0.6,87,4,0,14.816,,,220,,,,,,,,,,,wg-a,,,,AAXX 21004 07005 12/// /2208 10060 20040 30064 40159 51006 60006 90000=
07005,1998-04-21 06:00:00,5,1017,0.9,93,4,12000,11.112,,,140,4.4,9.5,,,,,,,,,wg-a,,,,AAXX 21064 07005 02/62 71406 10050 20040 30075 40170 52009 60006 83076 90600 333 10095 20044 61000=
07005,1998-04-21 12:00:00,13,1016.6,-0.6,67,7,25000,18.52,,,140,,,,,,,,,,,wg-a,,,,AAXX 21124 07005 12475 71410 10130 20070 30074 40166 58006 60006 8423/ 91200=
07005,1998-04-21 18:00:00,13,1015.9,-0.3,72,8,40000,3.704,,,290,5,14.9,,,,,,,,,wg-a,,,,AAXX 21184 07005 12482 82902 10130 20080 30067 40159 56003 60006 8187/ 91800 333 10149 20050=
07005,1998-04-22 00:00:00,9,1014.9,-0.7,81,6,0,14.816,,,130,,,,,,,,,,,wg-a,,,,AAXX 22004 07005 12/// /1308 10090 20060 30055 40149 58007 60006 90000=
07005,1998-04-22 06:00:00,10,1013.3,-0.2,82,7,15000,18.52,,,140,8.5,13,,,,,,,,,wg-a,,,,AAXX 22064 07005 02465 71410 10100 20070 30040 40133 55002 60006 82831 90600 333 10130 20085 60004=
07005,1998-04-22 09:00:00,14,1012.6,-0.6,77,10,20000,22.224,,,140,,,,,,,,,,,wg-a,,,,AAXX 22094 07005 12/70 51412 10140 20100 30034 40126 58006 60006 81032 90900=
07005,1998-04-22 12:00:00,20,1011.3,-1.1,53,10,20000,25.928,,,130,,,,,,,,,,,wg-a,,,,AAXX 22124 07005 12670 21314 10200 20100 30023 40113 58011 60006 81102 91200=
07005,1998-04-22 18:00:00,20,1010,-0,49,9,20000,14.816,,,120,9.7,22.7,,,,,,,,,wg-a,,,,AAXX 22184 07005 12770 11208 10200 20090 30010 40100 55000 60006 81202 91800 333 10227 20097=
07005,1998-04-23 00:00:00,14,1010.2,-0.3,72,9,0,11.112,,,120,,,,,,,,,,,wg-a,,,,AAXX 23004 07005 12/// /1206 10140 20090 30010 40102 58003 60006 90000=
07005,1998-04-23 06:00:00,11,1012,1.2,87,9,3500,11.112,,,260,9.7,20.4,,,,,,,,10,wg-a,,,,AAXX 23064 07005 02735 72606 10110 20090 30027 40120 53012 60006 71022 81532 90600 333 10204 20097 60004=
07005,1998-04-23 12:00:00,17,1011,-1.2,55,8,25000,31.484,,,200,,,,,,,,,,,wg-a,,,,AAXX 23124 07005 12575 52017 10170 20080 30019 40110 58012 60006 83232 91200=
07005,1998-04-23 15:00:00,13,1011.3,0.2,72,8,20000,25.928,,,210,,,,0,,,,,,61,wg-a,,,,AAXX 23154 07005 12770 82114 10130 20080 30021 40113 52002 60007 76162 875// 91500=
07005,1998-04-23 18:00:00,13,1010.8,-0.5,82,10,500,29.632,,,200,10.4,17.8,,1,,,,,,2,wg-a,,,,AAXX 23184 07005 02500 72016 10130 20100 30016 40108 55005 60006 70261 8523/ 91800 333 10178 20104 60017=
07005,1998-04-24 00:00:00,11,1013.8,1.2,82,8,0,29.632,,,250,,,,,,,,,,,wg-a,,,,AAXX 24004 07005 12/// /2516 10110 20080 30045 40138 53012 60006 90000=
07005,1998-04-24 06:00:00,10,1016.9,2,87,8,15000,31.484,,,260,9.8,12.7,,,,,1,,,,wg-a,,,,AAXX 24064 07005 02465 82617 10100 20080 30075 40169 53020 60006 875// 90600 333 10127 20098 60014=
07005,1998-04-24 09:00:00,12,1018.1,1.3,76,8,20000,25.928,,,250,,,,,,,,,,,wg-a,,,,AAXX 24094 07005 12470 72514 10120 20080 30088 40181 50013 60006 878// 90900=
07005,1998-04-24 12:00:00,14,1018.5,0.5,67,8,20000,25.928,,,240,,,,,,,,,,,wg-a,,,,AAXX 24124 07005 12570 72414 10140 20080 30093 40185 51005 60006 8583/ 91200=
07005,1998-04-24 18:00:00,13,1017.6,-0.2,94,12,1700,18.52,,,210,9.9,14.7,,,,,,,,51,wg-a,,,,AAXX 24184 07005 02217 82110 10130 20120 30083 40176 56002 61000 75165 887// 91800 333 10147 20099 6000=
07005,1998-04-25 00:00:00,12,1016.9,-1,88,10,0,11.112,,,180,,,,,,,,,,,wg-a,,,,AAXX 25004 07005 02/// /1806 10120 20100 30076 40169 58010 61000 90000 333 ////=
07005,1998-04-25 06:00:00,12,1014.1,-1.5,88,10,10000,18.52,,,190,11.4,13.2,,0,,,1,,,3,wg-a,,,,AAXX 25064 07005 02360 81910 10120 20100 30048 40141 58015 60014 70362 875// 90600 333 10132 20114 60007=
07005,1998-04-25 18:00:00,10,1011.5,0.3,93,9,0,11.112,,,270,9.3,15.6,,3,,,,,,,wg-a,,,,AAXX 25184 07005 12/// /2706 10100 20090 30022 40115 53003 60037 91800 333 10156 20093=
07005,1998-04-26 00:00:00,8,1010.1,-1.2,93,7,0,11.112,,,210,,,,,,,,,,,wg-a,,,,AAXX 26004 07005 12/// /2106 10080 20070 30007 40101 57012 60026 90000=
07005,1998-04-26 06:00:00,8,1008.4,-1.1,93,7,500,7.408,,,150,7.2,9.7,,,,,6,,,,wg-a,,,,AAXX 26064 07005 02/00 71504 10080 20070 39990 40084 56011 60006 85078 90600 333 10097 20072 60064=
07005,1998-04-26 12:00:00,14,1006.8,-0.9,58,6,25000,18.52,,,220,,,,,,,,,,,wg-a,,,,AAXX 26124 07005 12575 72210 10140 20060 39977 40068 58009 60006 85202 91200=
07005,1998-04-26 18:00:00,12,1005.5,-0.3,71,7,0,14.816,,,300,7.5,14.8,,,,,,,,,wg-a,,,,AAXX 26184 07005 12/// /3008 10120 20070 39963 40055 56003 60006 91800 333 10148 20075=
07005,1998-04-27 00:00:00,9,1004.9,-0.9,93,8,0,3.704,,,190,,,,,,,,,,,wg-a,,,,AAXX 27004 07005 12/// /1902 10090 20080 39956 40049 58009 60026 90000=
07005,1998-04-27 06:00:00,8,1003.8,-0,100,8,4000,0,,,0,8.1,12,,,,,2,,,10,wg-a,,,,AAXX 27064 07005 12640 80000 10080 20080 39945 40038 55000 60024 71022 8157/ 90600 333 10120 20081=
07005,1998-04-27 12:00:00,11,1004.1,0.4,76,7,25000,22.224,,,310,,,,,,,,,,,wg-a,,,,AAXX 27124 07005 12575 73112 10110 20070 39949 40041 53004 60006 82272 91200=
07005,1998-04-27 18:00:00,11,1004.8,0.5,76,7,25000,11.112,,,310,8.3,12.1,,,,,,,,,wg-a,,,,AAXX 27184 07005 12575 63106 10110 20070 39956 40048 51005 60006 81202 91800 333 10121 20083=
07005,1998-04-28 00:00:00,6,1006.3,0.2,93,5,0,7.408,,,170,,,,,,,,,,,wg-a,,,,AAXX 28004 07005 12/// /1704 10060 20050 39969 40063 50002 60006 90000=
07005,1998-04-28 06:00:00,5,1006.8,0.8,93,4,2500,7.408,,,150,3.7,10.6,,,,,,,,10,wg-a,,,,AAXX 28064 07005 02525 21504 10050 20040 39974 40068 53008 60006 71000 82800 90600 333 10106 20037 60004=
07005,1998-04-28 09:00:00,10,1006.9,0.2,82,7,15000,7.408,,,230,,,,,,,,,,,wg-a,,,,AAXX 28094 07005 12465 /2304 10100 20070 39976 40069 53002 60006 85230 90900=
07005,1998-04-28 12:00:00,11,1006.7,-0.1,76,7,500,18.52,,,330,,,,,,,,,,,wg-a,,,,AAXX 28124 07005 12500 73310 10110 20070 39975 40067 58001 60006 873// 91200=
07005,1998-04-28 15:00:00,12,1006.4,-0.3,71,7,500,11.112,,,310,,,,0,,,,,,15,wg-a,,,,AAXX 28154 07005 12500 43106 10120 20070 39972 40064 58003 60007 71511 83333 91500=
07005,1998-04-28 18:00:00,12,1005.8,-0.6,67,6,11000,11.112,,,120,4.6,13.5,,,,,,,,,wg-a,,,,AAXX 28184 07005 12/61 /1206 10120 20060 39966 40058 58006 60006 91800 333 10135 20046=
07005,1998-04-29 00:00:00,7,1005.3,-1,87,5,0,14.816,,,130,,,,,,,,,,,wg-a,,,,AAXX 29004 07005 12/// /1308 10070 20050 39959 40053 56010 60006 90000=
07005,1998-04-29 06:00:00,7,1003.1,-1,87,5,15000,11.112,,,130,5.3,12.3,,,,,,,,,wg-a,,,,AAXX 29064 07005 02665 61306 10070 20050 39938 40031 56010 60006 81502 90600 333 10123 20053 60004=
07005,1998-04-29 12:00:00,15,1002.9,0,55,6,35000,25.928,,,120,,,,,,,,,,,wg-a,,,,AAXX 29124 07005 12581 71214 10150 20060 39938 40029 50000 60006 83852 91200=
07005,1998-04-29 18:00:00,15,1003.8,0.7,63,8,500,11.112,,,110,7.4,16,,,,,,,,,wg-a,,,,AAXX 29184 07005 12500 71106 10150 20080 39947 40038 53007 60006 8382/ 91800 333 10160 20074=
07005,1998-04-30 00:00:00,12,1004.7,-0,76,8,0,14.816,,,50,,,,,,,,,,,wg-a,,,,AAXX 30004 07005 12/// /0508 10120 20080 39955 40047 55000 60006 90000=
07005,1998-04-30 06:00:00,10,1006.5,1,87,8,2500,29.632,,,60,9.8,14.6,,,,,,,,10,wg-a,,,,AAXX 30064 07005 02725 60616 10100 20080 39972 40065 53010 60006 71022 82530 90600 333 10146 20098 60004=
07005,1998-04-30 09:00:00,11,1008.4,2,87,9,2500,31.484,,,50,,,,,,,,,,10,wg-a,,,,AAXX 30094 07005 12225 80517 10110 20090 39992 40084 51020 60006 71022 886// 90900=
07005,1998-04-30 12:00:00,14,1009.3,1,67,8,15000,22.224,,,50,,,,,,,,,,,wg-a,,,,AAXX 30124 07005 12465 70512 10140 20080 30002 40093 51010 60006 878// 91200=
07005,1998-04-30 18:00:00,10,1012.3,1.7,87,8,6000,25.928,,,20,9.7,14.9,,,,,,,,,wg-a,,,,AAXX 30184 07005 12356 80214 10100 20080 30030 40123 52017 60006 886// 91800 333 10149 20097=
07005,1998-05-01 00:00:00,9,1014.4,0.7,93,8,0,18.52,,,10,,,,,,,,,,,wg-a,,,,AAXX 01004 07005 12/// /0110 10090 20080 30050 40144 53007 60006 90000=
07005,1998-05-01 06:00:00,9,1014.5,,93,8,6000,25.928,,,10,8.8,9.7,,,,,,,,50,wg-a,,,,AAXX 01064 07005 02456 80114 10090 20080 30051 40145 61000 75052 875// 90600 333 10097 20088 ////=
07005,1998-05-01 09:00:00,9,1014.7,,93,8,2500,18.52,,,340,,,,,,,,,,10,wg-a,,,,AAXX 01094 07005 02125 83410 10090 20080 30053 40147 61000 71052 875// 90900 333 ////=
07005,1998-05-01 12:00:00,9,1014.5,-0.1,93,8,10000,18.52,,,10,,,,,,,,,,1,wg-a,,,,AAXX 01124 07005 02460 80110 10090 20080 30052 40145 58001 61000 70152 875// 91200 333 ////=
07005,1998-05-01 18:00:00,9,1013.6,-0.5,93,8,0,22.224,,,340,8.7,9.8,,,,,,,,,wg-a,,,,AAXX 01184 07005 32/// /3412 10090 20080 30042 40136 56005 91800 333 10098 20087=
07005,1998-05-02 00:00:00,9,1013.1,-0.7,93,8,0,14.816,,,330,,,,,,,,,,,wg-a,,,,AAXX 02004 07005 12/// /3308 10090 20080 30037 40131 56007 60006 90000=
07005,1998-05-02 06:00:00,9,1013.3,0.6,100,9,800,18.52,,,340,8.5,9,,,,,,,,51,wg-a,,,,AAXX 02064 07005 02208 83410 10090 20090 30039 40133 53006 61000 75154 887// 90600 333 10090 20085 6001=
07005,1998-05-02 12:00:00,10,1014.8,0.7,93,9,4000,22.224,,,350,,,,,,,,,,10,wg-a,,,,AAXX 02124 07005 02340 83512 10100 20090 30055 40148 52007 61000 71054 887// 91200 333 6100=
07005,1998-05-02 15:00:00,9,1015.2,0.3,93,8,6000,25.928,,,10,,,,,,,,,,2,wg-a,,,,AAXX 02154 07005 02356 80114 10090 20080 30058 40152 50003 61000 70262 887// 91500 333 ////=
07005,1998-05-02 18:00:00,9,1015.8,0.6,87,7,0,29.632,,,20,8.7,10.1,,,,,,,,,wg-a,,,,AAXX 02184 07005 32/// /0216 10090 20070 30064 40158 53006 91800 333 10101 20087=
07005,1998-05-03 06:00:00,7,1016,-0.2,93,6,15000,11.112,,,330,3.4,9.1,,,,,,,,,wg-a,,,,AAXX 03064 07005 02465 33306 10070 20060 30065 40160 55002 60006 83500 90600 333 10091 20034 60004=
07005,1998-05-03 12:00:00,10,1017.2,0.7,82,7,500,22.224,,,10,,,,,,,,,,,wg-a,,,,AAXX 03124 07005 12500 70112 10100 20070 30078 40172 51007 60006 878// 91200=
07005,1998-05-03 18:00:00,8,1017.9,0.4,87,6,0,29.632,,,10,6.9,10.5,,,,,,,,,wg-a,,,,AAXX 03184 07005 12/// /0116 10080 20060 30085 40179 53004 60006 91800 333 10105 20069=
07005,1998-05-04 00:00:00,7,1018.7,-0.1,76,3,0,22.224,,,20,,,,,,,,,,,wg-a,,,,AAXX 04004 07005 12/// /0212 10070 20030 30092 40187 58001 60006 90000=
07005,1998-05-04 06:00:00,7,1018.1,0.2,76,3,15000,14.816,,,350,6.5,8.1,,,,,,,,,wg-a,,,,AAXX 04064 07005 02565 73508 10070 20030 30086 40181 53002 60006 875// 90600 333 10081 20065 60004=
07005,1998-05-04 12:00:00,11,1017.3,-0.5,62,4,14000,14.816,,,340,,,,,,,,,,,wg-a,,,,AAXX 04124 07005 12564 /3408 10110 20040 30080 40173 58005 60006 85500 91200=
07005,1998-05-04 18:00:00,10,1016.8,0.2,66,4,20000,22.224,,,310,6.8,12.4,,,,,,,,,wg-a,,,,AAXX 04184 07005 12570 /3112 10100 20040 30074 40168 53002 60006 81101 91800 333 10124 20068=
07005,1998-05-05 00:00:00,8,1016.3,-0.8,93,7,0,11.112,,,260,,,,,,,,,,,wg-a,,,,AAXX 05004 07005 12/// /2606 10080 20070 30069 40163 58008 60006 90000=
07005,1998-05-05 06:00:00,10,1013.9,-0.8,93,9,2500,7.408,,,270,7.2,10.1,,,,,,,,10,wg-a,,,,AAXX 05064 07005 02625 72704 10100 20090 30046 40139 55008 60006 71022 875// 90600 333 10101 20072 60004=
07005,1998-05-05 12:00:00,13,1012.7,-0.7,82,10,15000,31.484,,,270,,,,,,,,,,,wg-a,,,,AAXX 05124 07005 12565 72717 10130 20100 30035 40127 57007 60006 86242 91200=
07005,1998-05-05 18:00:00,11,1010.9,-1.1,82,8,15000,35.188,,,270,9.9,14.1,,,,,,,,,wg-a,,,,AAXX 05184 07005 12465 72719 10110 20080 30016 40109 58011 60006 878// 91800 333 10141 20099=
07005,1998-05-06 00:00:00,10,1008.6,-1.4,87,8,0,35.188,,,260,,,,,,,,,,,wg-a,,,,AAXX 06004 07005 12/// /2619 10100 20080 39993 40086 58014 60006 90000=
07005,1998-05-06 06:00:00,11,1008,0.5,82,8,13000,29.632,,,250,9.9,10.8,,,,,,,,1,wg-a,,,,AAXX 06064 07005 02463 82516 10110 20080 39988 40080 53005 60006 70162 878// 90600 333 10108 20099 60004=
07005,1998-05-06 09:00:00,12,1008.6,0.6,76,8,15000,35.188,,,260,,,,,,,,,,,wg-a,,,,AAXX 06094 07005 12465 82619 10120 20080 39994 40086 51006 60006 878// 90900=
07005,1998-05-06 12:00:00,11,1009.7,1.1,87,9,6000,35.188,,53.708,250,,,,,,,,,,61,wg-a,,,,AAXX 06124 07005 02456 82519 10110 20090 30005 40097 52011 61000 76162 878// 91200 333 6100 91029=
07005,1998-05-06 15:00:00,12,1010.4,0.7,94,11,10000,29.632,,,250,,,,0,,,,,,10,wg-a,,,,AAXX 06154 07005 12360 82516 10120 20110 30012 40104 51007 60007 71062 877// 91500=
07005,1998-05-06 18:00:00,12,1011.3,0.9,88,10,10000,25.928,,,260,10.3,12.6,,0,,,,,,2,wg-a,,,,AAXX 06184 07005 02460 82614 10120 20100 30021 40113 52009 60006 70262 878// 91800 333 10126 20103 60007=
07005,1998-05-07 00:00:00,11,1013.8,,87,9,0,22.224,,,250,,,,,,,,,,,wg-a,,,,AAXX 07004 07005 12/// /2512 10110 20090 30045 40138 60006 90000=
07005,1998-05-07 06:00:00,11,1015.5,1.4,87,9,20000,14.816,,,220,10.8,11.7,,,,,1,,,,wg-a,,,,AAXX 07064 07005 12570 72208 10110 20090 30062 40155 53014 60014 878// 90600 333 10117 20108=
07005,1998-05-07 09:00:00,13,1016.7,1.2,67,7,25000,22.224,,,230,,,,,,,,,,,wg-a,,,,AAXX 07094 07005 12575 82312 10130 20070 30074 40167 51012 60006 888// 90900=
07005,1998-05-07 12:00:00,14,1017.3,0.7,63,7,25000,25.928,,,210,,,,,,,,,,,wg-a,,,,AAXX 07124 07005 12575 72114 10140 20070 30081 40173 51007 60006 878// 91200=
07005,1998-05-07 15:00:00,14,1017.7,0.4,63,7,25000,22.224,,,240,,,,,,,,,,,wg-a,,,,AAXX 07154 07005 12575 72412 10140 20070 30085 40177 51004 60006 878// 91500=
07005,1998-05-07 18:00:00,14,1018.1,0.4,63,7,25000,11.112,,,300,11,15.4,,,,,,,,,wg-a,,,,AAXX 07184 07005 12575 63006 10140 20070 30089 40181 53004 60006 86800 91800 333 10154 20110=
07005,1998-05-08 00:00:00,10,1019.9,0.5,87,8,0,14.816,,,140,,,,,,,,,,,wg-a,,,,AAXX 08004 07005 12/// /1408 10100 20080 30105 40199 53005 60006 90000=
07005,1998-05-08 06:00:00,11,1020.3,0.4,82,8,8000,18.52,,,140,8.7,14.3,,,,,,,,,wg-a,,,,AAXX 08064 07005 02/58 51410 10110 20080 30109 40203 53004 60006 80002 90600 333 10143 20087 60004=
07005,1998-05-08 09:00:00,17,1020.3,0.2,68,11,20000,22.224,,,150,,,,,,,,,,,wg-a,,,,AAXX 08094 07005 12/70 61512 10170 20110 30111 40203 52002 60006 80002 90900=
07005,1998-05-08 12:00:00,22,1019.2,-0.9,50,11,25000,22.224,,,160,,,,,,,,,,,wg-a,,,,AAXX 08124 07005 12/75 61612 10220 20110 30102 40192 58009 60006 80002 91200=
07005,1998-05-08 18:00:00,23,1018.3,-0.1,47,11,0,14.816,,,160,10.6,24.6,,,,,,,,,wg-a,,,,AAXX 08184 07005 12/// /1608 10230 20110 30093 40183 55001 60006 91800 333 10246 20106=
07005,1998-05-09 00:00:00,15,1018.5,-0.7,77,11,0,11.112,,,140,,,,,,,,,,,wg-a,,,,AAXX 09004 07005 12/// /1406 10150 20110 30093 40185 56007 60006 90000=
07005,1998-05-09 06:00:00,14,1018.6,0.5,82,11,10000,14.816,,,130,12.8,22.6,,,,,,,,,wg-a,,,,AAXX 09064 07005 02/60 21308 10140 20110 30094 40186 53005 60006 80001 90600 333 10226 20128 60004=
07005,1998-05-09 12:00:00,18,1020.8,0.7,73,13,15000,18.52,,,310,,,,,,,,,,,wg-a,,,,AAXX 09124 07005 12/65 23110 10180 20130 30117 40208 51007 60006 81031 91200=
07005,1998-05-09 18:00:00,15,1021.2,-0.4,77,11,0,11.112,,,300,13.8,20.8,,,,,,,,,wg-a,,,,AAXX 09184 07005 12/// /3006 10150 20110 30120 40212 56004 60006 91800 333 10208 20138=
07005,1998-05-10 00:00:00,10,1021.9,0,93,9,0,7.408,,,350,,,,,,,,,,,wg-a,,,,AAXX 10004 07005 12/// /3504 10100 20090 30125 40219 50000 60006 90000=
07005,1998-05-10 06:00:00,12,1019.8,-0.8,94,11,3000,11.112,,,90,8.2,14.8,,,,,,,,10,wg-a,,,,AAXX 10064 07005 02/30 10906 10120 20110 30105 40198 56008 60006 71000 80001 90600 333 10148 20082 60004=
07005,1998-05-10 09:00:00,21,1018.5,-1,60,13,8000,22.224,,,120,,,,,,,,,,,wg-a,,,,AAXX 10094 07005 12/58 21212 10210 20130 30095 40185 58010 60006 80001 90900=
07005,1998-05-10 12:00:00,25,1017.1,-1.3,47,13,15000,25.928,,,140,,,,,,,,,,,wg-a,,,,AAXX 10124 07005 12/65 41414 10250 20130 30082 40171 57013 60006 80001 91200=
07005,1998-05-10 18:00:00,25,1014.2,-1.5,47,13,0,11.112,,,110,12.3,27.4,,,,,,,,,wg-a,,,,AAXX 10184 07005 12/// /1106 10250 20130 30054 40142 56015 60006 91800 333 10274 20123=
07005,1998-05-11 00:00:00,17,1013.8,-0.8,72,12,0,11.112,,,110,,,,,,,,,,,wg-a,,,,AAXX 11004 07005 12/// /1106 10170 20120 30047 40138 58008 60006 90000=
07005,1998-05-11 06:00:00,16,1013.1,0.3,82,13,7000,11.112,,,140,14.1,25.4,,,,,,,,,wg-a,,,,AAXX 11064 07005 02/57 41406 10160 20130 30040 40131 53003 60006 80001 90600 333 10254 20141 60004=
07005,1998-05-11 12:00:00,27,1012.7,-0.4,42,13,15000,14.816,,,110,,,,,,,,,,,wg-a,,,,AAXX 11124 07005 12/65 61108 10270 20130 30039 40127 56004 60006 80002 91200=
07005,1998-05-11 18:00:00,26,1012.4,0.3,54,16,25000,11.112,,,150,15.6,28.6,,,,,,,,,wg-a,,,,AAXX 11184 07005 12/75 11506 10260 20160 30036 40124 53003 60006 80001 91800 333 10286 20156=
07005,1998-05-12 00:00:00,18,1014.5,0.5,73,13,0,14.816,,,120,,,,,,,,,,,wg-a,,,,AAXX 12004 07005 12/// /1208 10180 20130 30054 40145 51005 60006 90000=
07005,1998-05-12 06:00:00,16,1015.8,1.1,82,13,15000,7.408,,,120,15.6,26.3,,,,,,,,,wg-a,,,,AAXX 12064 07005 02/65 11204 10160 20130 30067 40158 53011 60006 81030 90600 333 10263 20156 60004=
07005,1998-05-12 09:00:00,24,1016.1,0.5,57,15,15000,7.408,,,120,,,,,,,,,,,wg-a,,,,AAXX 12094 07005 12/65 31204 10240 20150 30072 40161 51005 60006 80002 90900=
07005,1998-05-12 12:00:00,28,1016.3,0.3,42,14,20000,14.816,,,100,,,,,,,,,,,wg-a,,,,AAXX 12124 07005 12/70 51008 10280 20140 30075 40163 53003 60006 80002 91200=
07005,1998-05-12 15:00:00,29,1016.3,0.1,40,14,20000,14.816,,,120,,,,,,,,,,,wg-a,,,,AAXX 12154 07005 12/70 61208 10290 20140 30076 40163 52001 60006 80002 91500=
07005,1998-05-12 18:00:00,26,1016.5,0.1,65,19,12000,18.52,,,50,16.3,29.3,,,,,,,,,wg-a,,,,AAXX 12184 07005 12/62 30510 10260 20190 30077 40165 53001 60006 80002 91800 333 10293 20163=
07005,1998-05-13 00:00:00,17,1018.7,0.2,82,14,0,11.112,,,70,,,,,,,,,,,wg-a,,,,AAXX 13004 07005 12/// /0706 10170 20140 30096 40187 50002 60006 90000=
07005,1998-05-13 06:00:00,16,1019.2,0.4,82,13,3000,7.408,,,80,15,26.2,,,,,,,,10,wg-a,,,,AAXX 13064 07005 02/30 40804 10160 20130 30100 40192 52004 60006 71000 80002 90600 333 10262 20150 60004=
07005,1998-05-13 12:00:00,29,1018.4,-0.5,48,17,10000,11.112,,,80,,,,,,,,,,,wg-a,,,,AAXX 13124 07005 12/60 50806 10290 20170 30096 40184 58005 60006 80002 91200=
07005,1998-05-13 15:00:00,30,1017.2,-1.1,46,17,10000,18.52,,,80,,,,,,,,,,,wg-a,,,,AAXX 13154 07005 12660 /0810 10300 20170 30085 40172 58011 60006 81202 91500=
07005,1998-05-13 18:00:00,26,1017.4,0.1,54,16,10000,11.112,,,60,16.3,29.7,,,,,,,,,wg-a,,,,AAXX 13184 07005 12660 /0606 10260 20160 30086 40174 53001 60006 82902 91800 333 10297 20163=
07005,1998-05-14 00:00:00,15,1018.8,0.1,94,14,0,11.112,,,290,,,,,,,,,,,wg-a,,,,AAXX 14004 07005 12/// /2906 10150 20140 30096 40188 52001 60006 90000=
07005,1998-05-14 06:00:00,16,1018.6,1,88,14,1600,7.408,,,290,13.8,26.1,,,,,,,,10,wg-a,,,,AAXX 14064 07005 02/16 /2904 10160 20140 30094 40186 51010 60006 71022 80001 90600 333 10261 20138 60004=
07005,1998-05-14 09:00:00,19,1018.9,0.4,83,16,2500,18.52,,,310,,,,,,,,,,10,wg-a,,,,AAXX 14094 07005 12/25 /3110 10190 20160 30098 40189 53004 60006 71022 80001 90900=
07005,1998-05-14 12:00:00,22,1019.5,0.7,73,17,2500,14.816,,,250,,,,,,,,,,10,wg-a,,,,AAXX 14124 07005 12/25 62508 10220 20170 30105 40195 53007 60006 71022 81081 91200=
07005,1998-05-14 15:00:00,23,1018.4,-1,73,18,2500,11.112,,,280,,,,,,,,,,10,wg-a,,,,AAXX 14154 07005 12/25 /2806 10230 20180 30095 40184 56010 60006 71022 82081 91500=
07005,1998-05-14 18:00:00,19,1018,-0.6,83,16,3500,11.112,,,290,15.6,23.7,,,,,,,,10,wg-a,,,,AAXX 14184 07005 12735 32906 10190 20160 30089 40180 56006 60006 71011 82902 91800 333 10237 20156=
07005,1998-05-15 00:00:00,13,1019,0.1,94,12,0,7.408,,,320,,,,,,,,,,,wg-a,,,,AAXX 15004 07005 12/// /3204 10130 20120 30098 40190 50001 60006 90000=
07005,1998-05-15 06:00:00,14,1019.5,0.5,94,13,2000,7.408,,,60,11.9,18.8,,,,,,,,10,wg-a,,,,AAXX 15064 07005 02/20 00604 10140 20130 30103 40195 53005 60006 71000 80000 90600 333 10188 20119 60004=
07005,1998-05-15 09:00:00,22,1019.5,0.2,57,13,10000,14.816,,,110,,,,,,,,,,,wg-a,,,,AAXX 15094 07005 12/60 01108 10220 20130 30105 40195 51002 60006 80000 90900=
07005,1998-05-15 12:00:00,25,1019,-0.4,36,9,20000,18.52,,,80,,,,,,,,,,,wg-a,,,,AAXX 15124 07005 12/70 20810 10250 20090 30101 40190 58004 60006 80001 91200=
07005,1998-05-15 15:00:00,26,1018.2,-0.8,26,5,20000,14.816,,,100,,,,,,,,,,,wg-a,,,,AAXX 15154 07005 12/70 01008 10260 20050 30093 40182 58008 60006 80000 91500=
07005,1998-05-15 18:00:00,23,1017.8,-0.4,47,11,20000,22.224,,,40,13.9,25.9,,,,,,,,,wg-a,,,,AAXX 15184 07005 12/70 20412 10230 20110 30089 40178 55004 60006 80001 91800 333 10259 20139=
07005,1998-05-16 00:00:00,13,1019.4,0.3,77,9,0,11.112,,,10,,,,,,,,,,,wg-a,,,,AAXX 16004 07005 12/// /0106 10130 20090 30101 40194 51003 60006 90000=
07005,1998-05-16 06:00:00,14,1019.9,0.8,72,9,10000,11.112,,,60,11.2,23.1,,,,,,,,,wg-a,,,,AAXX 16064 07005 02/60 20606 10140 20090 30106 40199 53008 60006 80002 90600 333 10231 20112 60004=
07005,1998-05-16 12:00:00,23,1020.2,0.2,38,8,25000,18.52,,,60,,,,,,,,,,,wg-a,,,,AAXX 16124 07005 12/75 30610 10230 20080 30112 40202 51002 60006 80002 91200=
07005,1998-05-16 18:00:00,20,1019.7,0.2,49,9,0,22.224,,,20,13.6,24,,,,,,,,,wg-a,,,,AAXX 16184 07005 12/// /0212 10200 20090 30106 40197 52002 60006 91800 333 10240 20136=
07005,1998-05-17 00:00:00,12,1021.1,0.2,82,9,0,22.224,,,60,,,,,,,,,,,wg-a,,,,AAXX 17004 07005 12/// /0612 10120 20090 30118 40211 51002 60006 90000=
07005,1998-05-17 06:00:00,12,1022.6,0.8,76,8,12000,22.224,,,70,9.9,19.7,,,,,,,,,wg-a,,,,AAXX 17064 07005 02/62 20712 10120 20080 30132 40226 53008 60006 80002 90600 333 10197 20099 60004=
07005,1998-05-17 12:00:00,21,1023.7,0.4,38,6,20000,22.224,,,80,,,,,,,,,,,wg-a,,,,AAXX 17124 07005 12770 20812 10210 20060 30146 40237 51004 60006 81102 91200=
07005,1998-05-17 18:00:00,20,1023.1,0.1,49,9,0,29.632,,,30,11.6,22.4,,,,,,,,,wg-a,,,,AAXX 17184 07005 12/// /0316 10200 20090 30140 40231 53001 60006 91800 333 10224 20116=
07005,1998-05-18 00:00:00,11,1025.1,0.4,82,8,0,3.704,,,60,,,,,,,,,,,wg-a,,,,AAXX 18004 07005 12/// /0602 10110 20080 30157 40251 51004 60006 90000=
07005,1998-05-18 06:00:00,11,1026.3,1.2,87,9,4000,3.704,,,110,8.9,20,,,,,,,,10,wg-a,,,,AAXX 18064 07005 02/40 21102 10110 20090 30169 40263 53012 60006 71000 80001 90600 333 10200 20089 60004=
07005,1998-05-18 09:00:00,18,1026.5,0.4,68,12,6000,3.704,,,110,,,,,,,,,,,wg-a,,,,AAXX 18094 07005 12/56 31102 10180 20120 30173 40265 51004 60006 80001 90900=
07005,1998-05-18 12:00:00,23,1025.8,-0.5,38,8,20000,11.112,,,100,,,,,,,,,,,wg-a,,,,AAXX 18124 07005 12670 51006 10230 20080 30168 40258 57005 60006 85200 91200=
07005,1998-05-18 15:00:00,23,1025.2,-0.6,47,11,25000,18.52,,,50,,,,,,,,,,,wg-a,,,,AAXX 18154 07005 12675 40510 10230 20110 30162 40252 57006 60006 84200 91500=
07005,1998-05-18 18:00:00,21,1025.3,-0,53,11,15000,25.928,,,40,11.5,23.7,,,,,,,,,wg-a,,,,AAXX 18184 07005 12665 50414 10210 20110 30162 40253 55000 60006 85200 91800 333 10237 20115=
07005,1998-05-19 00:00:00,13,1026.8,-0,77,9,0,18.52,,,70,,,,,,,,,,,wg-a,,,,AAXX 19004 07005 12/// /0710 10130 20090 30175 40268 54000 60006 90000=
07005,1998-05-19 06:00:00,12,1027.5,0.6,88,10,3500,7.408,,,360,10.2,20.4,,,,,,,,10,wg-a,,,,AAXX 19064 07005 02/35 03604 10120 20100 30181 40275 53006 60006 71000 80000 90600 333 10204 20102 60004=
07005,1998-05-19 09:00:00,19,1027.2,-0.1,68,13,4500,14.816,,,50,,,,,,,,,,10,wg-a,,,,AAXX 19094 07005 12/45 00508 10190 20130 30180 40272 58001 60006 71000 80000 90900=
07005,1998-05-19 12:00:00,22,1026,-1,57,13,8000,14.816,,,50,,,,,,,,,,,wg-a,,,,AAXX 19124 07005 12658 30508 10220 20130 30170 40260 58010 60006 83100 91200=
07005,1998-05-19 15:00:00,23,1024.8,-1.2,50,12,8000,18.52,,,30,,,,,,,,,,,wg-a,,,,AAXX 19154 07005 12658 40310 10230 20120 30158 40248 56012 60006 84200 91500=
07005,1998-05-19 18:00:00,20,1024.5,-0.4,49,9,15000,22.224,,,40,11.6,23.4,,,,,,,,,wg-a,,,,AAXX 19184 07005 12/65 20412 10200 20090 30154 40245 56004 60006 80001 91800 333 10234 20116=
07005,1998-05-20 00:00:00,11,1025.1,0.1,82,8,0,7.408,,,20,,,,,,,,,,,wg-a,,,,AAXX 20004 07005 12/// /0204 10110 20080 30157 40251 53001 60006 90000=
07005,1998-05-20 06:00:00,11,1024.3,-0.3,87,9,3500,7.408,,,50,8.6,19.8,,,,,,,,10,wg-a,,,,AAXX 20064 07005 02/35 30504 10110 20090 30149 40243 57003 60006 71000 80002 90600 333 10198 20086 60004=
07005,1998-05-20 12:00:00,21,1023,-1,49,10,15000,14.816,,,360,,,,,,,,,,,wg-a,,,,AAXX 20124 07005 12665 13608 10210 20100 30139 40230 58010 60006 81100 91200=
07005,1998-05-20 15:00:00,22,1022.1,-0.8,43,9,10000,22.224,,,20,,,,,,,,,,,wg-a,,,,AAXX 20154 07005 12/60 /0212 10220 20090 30131 40221 58008 60006 91500=
07005,1998-05-20 18:00:00,20,1021.6,-0.6,53,10,20000,18.52,,,40,11.3,21.9,,,,,,,,,wg-a,,,,AAXX 20184 07005 12/70 00410 10200 20100 30125 40216 56006 60006 80000 91800 333 10219 20113=
07005,1998-05-21 00:00:00,12,1021.6,-0.5,88,10,0,3.704,,,300,,,,,,,,,,,wg-a,,,,AAXX 21004 07005 12/// /3002 10120 20100 30123 40216 58005 60006 90000=
07005,1998-05-21 06:00:00,12,1020.7,-0.1,94,11,2200,3.704,,,270,10.6,19.9,,,,,,,,10,wg-a,,,,AAXX 21064 07005 02722 72702 10120 20110 30114 40207 57001 60006 71022 8357/ 90600 333 10199 20106 60004=
07005,1998-05-21 09:00:00,17,1020.4,-0.2,72,12,6000,14.816,,,300,,,,,,,,,,,wg-a,,,,AAXX 21094 07005 12/56 /3008 10170 20120 30112 40204 57002 60006 81031 90900=
07005,1998-05-21 12:00:00,18,1020.7,0.4,68,12,4000,22.224,,,20,,,,,,,,,,10,wg-a,,,,AAXX 21124 07005 12440 70212 10180 20120 30116 40207 51004 60006 71022 85101 91200=
07005,1998-05-21 15:00:00,16,1021.9,1.1,68,10,11000,25.928,,,20,,,,,,,,,,,wg-a,,,,AAXX 21154 07005 12461 70214 10160 20100 30127 40219 52011 60006 878// 91500=
07005,1998-05-21 18:00:00,15,1022.7,0.7,59,7,0,25.928,,,30,12,18.9,,,,,,,,,wg-a,,,,AAXX 21184 07005 12/// /0314 10150 20070 30134 40227 51007 60006 91800 333 10189 20120=
07005,1998-05-22 00:00:00,7,1025.2,0.2,87,5,0,7.408,,,320,,,,,,,,,,,wg-a,,,,AAXX 22004 07005 12/// /3204 10070 20050 30157 40252 50002 60006 90000=
07005,1998-05-22 06:00:00,9,1026.1,0.8,81,6,20000,11.112,,,20,5.8,14.6,,,,,,,,,wg-a,,,,AAXX 22064 07005 02670 40206 10090 20060 30166 40261 53008 60006 81502 90600 333 10146 20058 60004=
07005,1998-05-22 12:00:00,14,1026,-0.5,51,4,20000,22.224,,,30,,,,,,,,,,,wg-a,,,,AAXX 22124 07005 12570 60312 10140 20040 30167 40260 58005 60006 86800 91200=
07005,1998-05-22 15:00:00,16,1025.4,-0.6,42,3,500,22.224,,,10,,,,,,,,,,,wg-a,,,,AAXX 22154 07005 12600 40112 10160 20030 30161 40254 58006 60006 84400 91500=
07005,1998-05-22 18:00:00,14,1025.6,0.2,51,4,500,22.224,,,20,8.5,15.9,,,,,,,,,wg-a,,,,AAXX 22184 07005 12600 10212 10140 20040 30163 40256 51002 60006 81400 91800 333 10159 20085=
07005,1998-05-23 00:00:00,6,1026.1,-0.2,87,4,0,11.112,,,360,,,,,,,,,,,wg-a,,,,AAXX 23004 07005 12/// /3606 10060 20040 30165 40261 58002 60006 90000=
07005,1998-05-23 06:00:00,6,1024.7,-0.5,93,5,15000,3.704,,,150,4.3,13.9,,,,,,,,,wg-a,,,,AAXX 23064 07005 02665 51502 10060 20050 30151 40247 56005 60006 83530 90600 333 10139 20043 60004=
07005,1998-05-23 09:00:00,11,1024,-0.5,66,5,20000,7.408,,,220,,,,,,,,,,,wg-a,,,,AAXX 23094 07005 12670 82204 10110 20050 30146 40240 58005 60006 8653/ 90900=
07005,1998-05-23 12:00:00,15,1022.4,-1.4,63,8,18000,7.408,,,240,,,,,,,,,,,wg-a,,,,AAXX 23124 07005 12668 62404 10150 20080 30132 40224 58014 60006 83830 91200=
07005,1998-05-23 18:00:00,14,1019.8,-1.2,72,9,0,14.816,,,300,6.3,17.3,,,,,,,,,wg-a,,,,AAXX 23184 07005 12/// /3008 10140 20090 30106 40198 57012 60006 91800 333 10173 20063=
07005,1998-05-24 00:00:00,11,1018.5,-1.1,94,10,0,3.704,,,270,,,,,,,,,,,wg-a,,,,AAXX 24004 07005 12/// /2702 10110 20100 30092 40185 58011 60006 90000=
07005,1998-05-24 06:00:00,12,1016.5,-0.6,94,11,1200,11.112,,,280,10.1,14,,,,,,,,28,wg-a,,,,AAXX 24064 07005 02512 /2806 10120 20110 30072 40165 56006 60006 72842 83531 90600 333 10140 20101 60004=
07005,1998-05-24 09:00:00,15,1016.2,-0.2,77,11,6000,14.816,,,310,,,,,,,,,,80,wg-a,,,,AAXX 24094 07005 02456 /3108 10150 20110 30070 40162 58002 61000 78086 86200 90900 333 ////=
07005,1998-05-24 12:00:00,17,1015.9,-0.2,59,9,15000,18.52,,,320,,,,,,,,,,3,wg-a,,,,AAXX 24124 07005 02565 73210 10170 20090 30068 40159 56002 61000 70386 8423/ 91200 333 ////=
07005,1998-05-24 15:00:00,16,1015.6,-0.4,68,10,20000,22.224,,,310,,,,,,,,,,,wg-a,,,,AAXX 24154 07005 12570 83112 10160 20100 30064 40156 58004 60006 874// 91500=
07005,1998-05-24 18:00:00,15,1014.8,-0.8,72,10,0,18.52,,,290,11.8,17.2,,,,,,,,,wg-a,,,,AAXX 24184 07005 32/// /2910 10150 20100 30056 40148 57008 91800 333 10172 20118=
07005,1998-05-25 00:00:00,12,1013.8,-1.1,88,10,0,11.112,,,280,,,,,,,,,,,wg-a,,,,AAXX 25004 07005 12/// /2806 10120 20100 30045 40138 58011 60006 90000=
07005,1998-05-25 06:00:00,12,1011.8,-0.6,94,11,2000,14.816,,,260,9.9,14.7,,,,,,,,10,wg-a,,,,AAXX 25064 07005 02320 82608 10120 20110 30026 40118 58006 60006 71022 876// 90600 333 10147 20099 61000=
07005,1998-05-25 12:00:00,16,1011.1,-0.5,72,11,12000,22.224,,,280,,,,,,,,,,,wg-a,,,,AAXX 25124 07005 12462 62812 10160 20110 30020 40111 58005 60006 85130 91200=
07005,1998-05-25 18:00:00,14,1009,-1.4,77,10,20000,22.224,,,270,11.8,16.5,,,,,,,,,wg-a,,,,AAXX 25184 07005 12470 72712 10140 20100 39999 40090 56014 60006 81152 91800 333 10165 20118=
07005,1998-05-26 00:00:00,10,1007.9,-1.3,93,9,0,11.112,,,240,,,,,,,,,,,wg-a,,,,AAXX 26004 07005 12/// /2406 10100 20090 39986 40079 58013 60006 90000=
07005,1998-05-26 06:00:00,11,1006.2,-0.3,94,10,4500,7.408,,,200,9.3,13.9,,,,,,,,,wg-a,,,,AAXX 26064 07005 02/45 /2004 10110 20100 39970 40062 56003 60006 90600 333 10139 20093 60004=
07005,1998-05-26 12:00:00,15,1005.9,-0.1,82,12,15000,22.224,,,280,,,,9,,,,,,1,wg-a,,,,AAXX 26124 07005 02465 72812 10150 20120 39968 40059 58001 60096 70186 878// 91200 333 60097=
07005,1998-05-26 18:00:00,14,1005.5,-0.4,77,10,20000,18.52,,,290,11.3,15.5,,,,,,,,,wg-a,,,,AAXX 26184 07005 12570 52910 10140 20100 39964 40055 56004 60006 84802 91800 333 10155 20113=
07005,1998-05-27 00:00:00,11,1006.3,-0,94,10,0,11.112,,,220,,,,,,,,,,,wg-a,,,,AAXX 27004 07005 12/// /2206 10110 20100 39971 40063 55000 60026 90000=
07005,1998-05-27 06:00:00,11,1005.4,0.1,94,10,6000,7.408,,,180,10.3,14.2,,,,,11,,,1,wg-a,,,,AAXX 27064 07005 02356 /1804 10110 20100 39962 40054 50001 60006 70186 82831 90600 333 10142 20103 60114=
07005,1998-05-27 12:00:00,12,1006.4,0.6,88,10,12000,11.112,,,290,,,,2,,,,,,61,wg-a,,,,AAXX 27124 07005 02562 82906 10120 20100 39972 40064 53006 60026 76198 889// 91200 333 60027=
07005,1998-05-27 15:00:00,16,1005.6,-0.7,72,11,15000,7.408,,,300,,,,0,,,,,,3,wg-a,,,,AAXX 27154 07005 12565 43004 10160 20110 39965 40056 56007 60007 70361 84800 91500=
07005,1998-05-27 18:00:00,15,1005.6,-0,77,11,20000,7.408,,,120,11,16,,,,,,,,3,wg-a,,,,AAXX 27184 07005 12570 71204 10150 20110 39965 40056 55000 60006 70361 8227/ 91800 333 10160 20110=
07005,1998-05-28 00:00:00,12,1005.8,-0.3,94,11,0,7.408,,,110,,,,,,,,,,,wg-a,,,,AAXX 28004 07005 12/// /1104 10120 20110 39966 40058 58003 60016 90000=
07005,1998-05-28 06:00:00,11,1005.9,0.5,100,11,2500,3.704,,,230,11.1,14.7,,,,,4,,,10,wg-a,,,,AAXX 28064 07005 02325 82302 10110 20110 39967 40059 53005 60006 71022 876// 90600 333 10147 20111 60044=
07005,1998-05-28 09:00:00,12,1007,1.1,88,10,8000,7.408,,,170,,,,,,,,,,,wg-a,,,,AAXX 28094 07005 12458 81704 10120 20100 39978 40070 53011 60006 876// 90900=
07005,1998-05-28 12:00:00,15,1006.7,-0.2,82,12,10000,3.704,,,70,,,,,,,,,,60,wg-a,,,,AAXX 28124 07005 02560 80702 10150 20120 39976 40067 58002 61000 76062 8417/ 91200 333 6100=
07005,1998-05-28 15:00:00,16,1005.8,-0.8,72,11,15000,11.112,,,130,,,,,,,,,,1,wg-a,,,,AAXX 28154 07005 02565 71306 10160 20110 39968 40058 56008 61000 70162 83232 91500 333 ////=
07005,1998-05-28 18:00:00,16,1006,0.2,77,12,12000,11.112,,,110,11.1,16.9,,,,,,,,2,wg-a,,,,AAXX 28184 07005 12562 71106 10160 20120 39970 40060 53002 60006 70262 8523/ 91800 333 10169 20111=
07005,1998-05-29 00:00:00,11,1008,0.5,94,10,0,11.112,,,160,,,,,,,,,,,wg-a,,,,AAXX 29004 07005 12/// /1606 10110 20100 39988 40080 51005 60016 90000=
07005,1998-05-29 06:00:00,10,1010.4,1.7,93,9,500,7.408,,,160,9,16.4,,0,,,1,,,,wg-a,,,,AAXX 29064 07005 02/00 31604 10100 20090 30011 40104 53017 60014 81032 90600 333 10164 20090 60007=
07005,1998-05-29 12:00:00,16,1012.7,0.8,72,11,20000,14.816,,,300,,,,,,,,,,,wg-a,,,,AAXX 29124 07005 12570 /3008 10160 20110 30036 40127 51008 60006 86200 91200=
07005,1998-05-29 18:00:00,15,1013.7,0.3,72,10,20000,14.816,,,340,9.8,17.7,,,,,,,,,wg-a,,,,AAXX 29184 07005 12570 23408 10150 20100 30046 40137 53003 60006 82800 91800 333 10177 20098=
07005,1998-05-30 00:00:00,11,1014.8,0,76,7,0,18.52,,,80,,,,,,,,,,,wg-a,,,,AAXX 30004 07005 12/// /0810 10110 20070 30055 40148 50000 60006 90000=
07005,1998-05-30 06:00:00,12,1013.8,-0.4,88,10,3500,11.112,,,90,8.6,15.1,,,,,,,,10,wg-a,,,,AAXX 30064 07005 02/35 /0906 10120 20100 30046 40138 56004 60006 71000 80001 90600 333 10151 20086 60004=
07005,1998-05-30 09:00:00,19,1012.4,-1.2,64,12,15000,25.928,,,90,,,,,,,,,,,wg-a,,,,AAXX 30094 07005 12565 /0914 10190 20120 30034 40124 56012 60006 81100 90900=
07005,1998-05-30 12:00:00,21,1011.1,-1.2,60,13,25000,29.632,,,80,,,,,,,,,,,wg-a,,,,AAXX 30124 07005 12675 30816 10210 20130 30022 40111 58012 60006 83200 91200=
07005,1998-05-30 15:00:00,22,1009.1,-2,53,12,25000,29.632,,,90,,,,,,,,,,,wg-a,,,,AAXX 30154 07005 12675 /0916 10220 20120 30002 40091 56020 60006 85200 91500=
07005,1998-05-30 18:00:00,20,1007.8,-1.3,64,13,0,22.224,,,90,12.2,22.4,,,,,,,,,wg-a,,,,AAXX 30184 07005 12/// /0912 10200 20130 39989 40078 56013 60006 91800 333 10224 20122=
07005,1998-05-31 00:00:00,14,1009.7,1.9,94,13,0,7.408,,,260,,,,,,,,,,,wg-a,,,,AAXX 31004 07005 12/// /2604 10140 20130 30006 40097 51019 60026 90000=
07005,1998-05-31 06:00:00,12,1011,1.2,88,10,15000,14.816,,,210,11.3,20.4,,,,,3,,,,wg-a,,,,AAXX 31064 07005 02565 32108 10120 20100 30018 40110 53012 60006 81832 90600 333 10204 20113 60034=
07005,1998-05-31 12:00:00,16,1011.9,0.6,72,11,500,14.816,,,360,,,,,,,,,,,wg-a,,,,AAXX 31124 07005 12500 73608 10160 20110 30028 40119 51006 60006 85208 91200=
07005,1998-05-31 15:00:00,16,1011.7,-0.2,77,12,500,14.816,,,300,,,,,,,,,,,wg-a,,,,AAXX 31154 07005 12500 73008 10160 20120 30026 40117 57002 60006 84808 91500=
07005,1998-05-31 18:00:00,17,1011.4,-0.3,68,11,0,7.408,,,70,11.6,17.3,,,,,,,,,wg-a,,,,AAXX 31184 07005 12/// /0704 10170 20110 30023 40114 56003 60006 91800 333 10173 20116=
07005,1998-06-01 00:00:00,11,1013.4,0.6,94,10,0,11.112,,,160,,,,,,,,,,,wg-a,,,,AAXX 01004 07005 12/// /1606 10110 20100 30041 40134 52006 60016 90000=
07005,1998-06-01 06:00:00,11,1013.5,0.5,94,10,20000,11.112,,,160,9.6,16.7,,,,,,,,,wg-a,,,,AAXX 01064 07005 02/70 11606 10110 20100 30042 40135 53005 60006 80002 90600 333 10167 20096 60004=
07005,1998-06-01 09:00:00,17,1013.3,0,63,10,20000,11.112,,,160,,,,,,,,,,,wg-a,,,,AAXX 01094 07005 12570 31606 10170 20100 30042 40133 50000 60006 82202 90900=
07005,1998-06-01 12:00:00,20,1012.2,-1,49,9,500,14.816,,,150,,,,,,,,,,,wg-a,,,,AAXX 01124 07005 12500 61508 10200 20090 30032 40122 58010 60006 85802 91200=
07005,1998-06-01 15:00:00,21,1011,-1.2,43,8,500,14.816,,,140,,,,,,,,,,,wg-a,,,,AAXX 01154 07005 12600 71408 10210 20080 30020 40110 57012 60006 82252 91500=
07005,1998-06-01 18:00:00,18,1009.1,-1.9,59,10,0,14.816,,,120,11.3,21.2,,,,,,,,,wg-a,,,,AAXX 01184 07005 12/// /1208 10180 20100 30001 40091 56019 60006 91800 333 10212 20113=
07005,1998-06-02 00:00:00,16,1007.3,-1.5,77,12,0,7.408,,,140,,,,,,,,,,,wg-a,,,,AAXX 02004 07005 12/// /1404 10160 20120 39982 40073 56015 60006 90000=
07005,1998-06-02 06:00:00,16,1005.6,-0.6,88,14,15000,18.52,,,160,14.5,18.4,,,,,,,,,wg-a,,,,AAXX 02064 07005 02565 81610 10160 20140 39966 40056 55006 60006 8127/ 90600 333 10184 20145 60004=
07005,1998-06-02 09:00:00,18,1005.9,0.3,88,16,20000,18.52,,,190,,,,0,,,,,,21,wg-a,,,,AAXX 02094 07005 12370 81910 10180 20160 39969 40059 53003 60007 72162 888// 90900=
07005,1998-06-02 12:00:00,14,1008,2,94,13,20000,31.484,,,280,,,,5,,,,,,60,wg-a,,,,AAXX 02124 07005 02470 72817 10140 20130 39989 40080 53020 60056 76098 878// 91200 333 60057=
07005,1998-06-02 18:00:00,16,1009.2,0,68,10,25000,11.112,,,280,14.2,19,,,,,,,,3,wg-a,,,,AAXX 02184 07005 32575 72806 10160 20100 30001 40092 50000 70361 86902 91800 333 10190 20142=
07005,1998-06-03 00:00:00,12,1011.8,1,88,10,0,7.408,,,160,,,,,,,,,,,wg-a,,,,AAXX 03004 07005 12/// /1604 10120 20100 30026 40118 51010 60036 90000=
07005,1998-06-03 06:00:00,13,1013,1,88,11,20000,18.52,,,210,10.9,16,,,,,8,,,25,wg-a,,,,AAXX 03064 07005 02670 52110 10130 20110 30038 40130 52010 60084 72586 85500 90600 333 10160 20109 61000=
07005,1998-06-03 12:00:00,18,1013.1,-0.2,64,11,20000,22.224,,,220,,,,,,,,,,,wg-a,,,,AAXX 03124 07005 12570 72212 10180 20110 30041 40131 58002 60006 873// 91200=
07005,1998-06-03 15:00:00,18,1013.8,0.6,73,13,500,14.816,,,280,,,,2,,,,,,3,wg-a,,,,AAXX 03154 07005 12400 72808 10180 20130 30047 40138 50006 60027 70386 873// 91500=
07005,1998-06-03 18:00:00,16,1014.7,0.9,77,12,25000,18.52,,,260,12.7,18.8,,1,,,,,,25,wg-a,,,,AAXX 03184 07005 12475 72610 10160 20120 30056 40147 51009 60017 72586 873// 91800 333 10188 20127=
07005,1998-06-04 00:00:00,11,1017.6,1.1,94,10,0,11.112,,,230,,,,,,,,,,,wg-a,,,,AAXX 04004 07005 12/// /2306 10110 20100 30083 40176 51011 60006 90000=
07005,1998-06-04 06:00:00,11,1019.6,1.3,100,11,8000,7.408,,,230,9.4,15.6,,0,,,3,,,,wg-a,,,,AAXX 04064 07005 02458 32304 10110 20110 30103 40196 53013 60034 82101 90600 333 10156 20094 60007=
07005,1998-06-04 12:00:00,17,1020.3,-0.2,72,12,40000,11.112,,,360,,,,,,,,,,,wg-a,,,,AAXX 04124 07005 12582 43606 10170 20120 30112 40203 58002 60006 82101 91200=
07005,1998-06-04 18:00:00,18,1018.7,-0.9,68,12,40000,14.816,,,60,11.3,19.3,,,,,,,,,wg-a,,,,AAXX 04184 07005 12/82 60608 10180 20120 30096 40187 56009 60006 80004 91800 333 10193 20113=
07005,1998-06-05 00:00:00,12,1018.3,-1.1,94,11,0,18.52,,,70,,,,,,,,,,,wg-a,,,,AAXX 05004 07005 12/// /0710 10120 20110 30090 40183 58011 60006 90000=
07005,1998-06-05 06:00:00,13,1016.2,-0.3,88,11,3000,14.816,,,110,11.4,18.1,,,,,,,,10,wg-a,,,,AAXX 05064 07005 02530 81108 10130 20110 30070 40162 55003 61000 71062 8559/ 90600 333 10181 20114 6100=
07005,1998-06-05 09:00:00,13,1013.9,-2.3,100,13,1800,22.224,,,70,,,,5,,,,,,10,wg-a,,,,AAXX 05094 07005 12218 80712 10130 20130 30047 40139 56023 60057 71066 877// 90900=
07005,1998-06-05 12:00:00,14,1013.2,-0.7,100,14,1800,18.52,,,70,,,,10,,,,,,10,wg-a,,,,AAXX 05124 07005 02218 80710 10140 20140 30040 40132 58007 60156 71062 8577/ 91200 333 60107=
07005,1998-06-05 15:00:00,16,1013,-0.1,94,15,2500,18.52,,,70,,,,,,,,,,10,wg-a,,,,AAXX 05154 07005 12325 80710 10160 20150 30039 40130 57001 60006 71022 875// 91500=
07005,1998-06-05 18:00:00,17,1013,-0,88,15,2000,3.704,,,20,12.4,16.7,,,,,,,,10,wg-a,,,,AAXX 05184 07005 12220 80202 10170 20150 30039 40130 55000 60006 71022 876// 91800 333 10167 20124=
07005,1998-06-06 00:00:00,15,1011.8,-0.8,94,14,0,7.408,,,130,,,,,,,,,,,wg-a,,,,AAXX 06004 07005 12/// /1304 10150 20140 30027 40118 55008 60006 90000=
07005,1998-06-06 06:00:00,15,1010.6,-0.1,100,15,6000,18.52,,,170,13.3,16.7,,,,,,,,81,wg-a,,,,AAXX 06064 07005 02456 81710 10150 20150 30015 40106 55001 61000 78196 8499/ 90600 333 10167 20133 6045=
07005,1998-06-06 12:00:00,20,1009,-0.9,88,18,15000,7.408,,,150,,,,2,,,,,,80,wg-a,,,,AAXX 06124 07005 02465 71504 10200 20180 30001 40090 58009 60026 78096 8299/ 91200 333 60027=
07005,1998-06-06 15:00:00,16,1010,0.8,94,15,1500,25.928,,,290,,,,,,,,,,10,wg-a,,,,AAXX 06154 07005 02215 82914 10160 20150 30009 40100 52008 61000 71062 886// 91500 333 ////=
07005,1998-06-06 18:00:00,16,1010.3,0.3,88,14,0,14.816,,,300,14.8,23.2,,,,,,,,,wg-a,,,,AAXX 06184 07005 32/// /3008 10160 20140 30012 40103 53003 91800 333 10232 20148=
07005,1998-06-07 00:00:00,14,1010.2,-0.6,94,13,0,7.408,,,120,,,,,,,,,,,wg-a,,,,AAXX 07004 07005 12/// /1204 10140 20130 30011 40102 56006 60006 90000=
07005,1998-06-07 06:00:00,14,1010.2,0.4,100,14,3000,18.52,,,260,13.8,16.7,,,,,,,,10,wg-a,,,,AAXX 07064 07005 02230 82610 10140 20140 30011 40102 53004 61000 71065 887// 90600 333 10167 20138 6003=
07005,1998-06-07 12:00:00,17,1012,0.5,68,11,500,35.188,,,270,,,,,,,,,,2,wg-a,,,,AAXX 07124 07005 02500 62719 10170 20110 30029 40120 51005 61000 70265 85802 91200 333 ////=
07005,1998-06-07 18:00:00,16,1013.7,1.2,72,11,0,31.484,,,270,13.4,17.9,,,,,,,,,wg-a,,,,AAXX 07184 07005 32/// /2717 10160 20110 30046 40137 53012 91800 333 10179 20134=
07005,1998-06-08 00:00:00,13,1016.1,0.6,88,11,0,22.224,,,250,,,,,,,,,,,wg-a,,,,AAXX 08004 07005 12/// /2512 10130 20110 30069 40161 53006 60006 90000=
07005,1998-06-08 06:00:00,13,1017.3,0.8,88,11,12000,18.52,,,230,12.3,15.8,,,,,,,,,wg-a,,,,AAXX 08064 07005 02362 72310 10130 20110 30081 40173 53008 60006 878// 90600 333 10158 20123 61000=
07005,1998-06-08 12:00:00,17,1018.4,-0.8,68,11,25000,14.816,,,250,,,,,,,,,,,wg-a,,,,AAXX 08124 07005 12475 72508 10170 20110 30093 40184 56008 60006 84802 91200=
07005,1998-06-08 15:00:00,19,1016.3,-2.1,60,11,25000,29.632,,,210,,,,,,,,,,,wg-a,,,,AAXX 08154 07005 12575 82116 10190 20110 30072 40163 56021 60006 82172 91500=
07005,1998-06-08 18:00:00,18,1015.5,-0.8,68,12,20000,25.928,,,200,13,19.2,,,,,,,,21,wg-a,,,,AAXX 08184 07005 02570 82014 10180 20120 30064 40155 58008 61000 72162 878// 91800 333 10192 20130 6100=
07005,1998-06-09 06:00:00,16,1011.3,-1,88,14,12000,25.928,,,210,14.4,17.6,,,,,1,,,2,wg-a,,,,AAXX 09064 07005 02262 82114 10160 20140 30022 40113 56010 60006 70262 877// 90600 333 10176 20144 60014=
07005,1998-06-09 09:00:00,17,1011.2,-0.1,88,15,10000,25.928,,,220,,,,,,,,,,21,wg-a,,,,AAXX 09094 07005 02360 82214 10170 20150 30021 40112 58001 61000 72162 875// 90900 333 ////=
07005,1998-06-09 12:00:00,19,1010.4,-0.7,83,16,12000,29.632,,,220,,,,,,,,,,20,wg-a,,,,AAXX 09124 07005 02362 82216 10190 20160 30014 40104 58007 61000 72065 878// 91200 333 6100=
07005,1998-06-09 18:00:00,17,1007.2,-1.5,88,15,8000,18.52,,,210,15.6,20.5,,,,,,,,61,wg-a,,,,AAXX 09184 07005 02258 72110 10170 20150 39982 40072 56015 61000 76162 878// 91800 333 10205 20156 6002=
07005,1998-06-10 00:00:00,14,1005.4,-0.7,94,13,0,18.52,,,270,,,,,,,,,,,wg-a,,,,AAXX 10004 07005 12/// /2710 10140 20130 39963 40054 55007 60026 90000=
07005,1998-06-10 06:00:00,14,1004.7,0.2,88,12,15000,18.52,,,230,12.7,16.5,,,,,5,,,1,wg-a,,,,AAXX 10064 07005 02365 /2310 10140 20120 39956 40047 50002 60006 70161 81200 90600 333 10165 20127 60054=
07005,1998-06-10 12:00:00,17,1005.4,0.3,68,11,500,38.892,,,270,,,,,,,,,,1,wg-a,,,,AAXX 10124 07005 02500 22721 10170 20110 39964 40054 51003 61000 70186 82201 91200 333 6100=
07005,1998-06-10 15:00:00,17,1005.2,-0.2,68,11,500,25.928,,,280,,,,,,,,,,,wg-a,,,,AAXX 10154 07005 12500 22814 10170 20110 39962 40052 58002 60006 82200 91500=
07005,1998-06-10 18:00:00,16,1004.6,-0.7,72,11,500,11.112,,,270,13.6,17.4,,,,,,,,,wg-a,,,,AAXX 10184 07005 12400 72706 10160 20110 39955 40046 57007 60006 878// 91800 333 10174 20136=
07005,1998-06-11 00:00:00,12,1003,-1.2,88,10,0,11.112,,,180,,,,,,,,,,,wg-a,,,,AAXX 11004 07005 12/// /1806 10120 20100 39938 40030 57012 60016 90000=
07005,1998-06-11 06:00:00,11,1002.2,0.4,100,11,6000,7.408,,,250,10.9,15.9,,,,,,,,61,wg-a,,,,AAXX 11064 07005 32356 82504 10110 20110 39930 40022 53004 76162 878// 90600 333 10159 20109=
07005,1998-06-11 09:00:00,12,1003.8,1.6,94,11,10000,29.632,,,290,,,,1,,,,,,61,wg-a,,,,AAXX 11094 07005 12360 72916 10120 20110 39946 40038 53016 60017 76162 878// 90900=
07005,1998-06-11 12:00:00,12,1006.4,2.6,82,9,15000,29.632,,,290,,,,,,,,,,25,wg-a,,,,AAXX 11124 07005 02365 72916 10120 20090 39972 40064 51026 60016 72586 878// 91200 333 61000=
07005,1998-06-11 18:00:00,12,1009,1.1,94,11,10000,22.224,,,340,11.4,13.3,,,,,,,,21,wg-a,,,,AAXX 11184 07005 02360 83412 10120 20110 39998 40090 53011 61000 72186 877// 91800 333 10133 20114 6002=
07005,1998-06-12 00:00:00,9,1015.5,2.5,87,7,0,25.928,,,340,,,,1,,,,,,,wg-a,,,,AAXX 12004 07005 02/// /3414 10090 20070 30061 40155 51025 60026 90000 333 60017=
07005,1998-06-12 06:00:00,9,1018.7,1.5,81,6,500,11.112,,,320,6.5,11.9,,,,,5,,,,wg-a,,,,AAXX 12064 07005 12400 23206 10090 20060 30093 40187 53015 60054 82800 90600 333 10119 20065=
07005,1998-06-12 12:00:00,14,1021.2,1.2,63,7,40000,25.928,,,300,,,,,,,,,,,wg-a,,,,AAXX 12124 07005 12582 /3014 10140 20070 30119 40212 53012 60006 85200 91200=
07005,1998-06-12 15:00:00,14,1021.4,0.2,63,7,40000,25.928,,,290,,,,,,,,,,,wg-a,,,,AAXX 12154 07005 12682 /2914 10140 20070 30121 40214 53002 60006 85200 91500=
07005,1998-06-12 18:00:00,13,1020.9,-0.5,67,7,40000,22.224,,,290,9,14.3,,,,,,,,,wg-a,,,,AAXX 12184 07005 12682 22912 10130 20070 30116 40209 56005 60006 82202 91800 333 10143 20090=
07005,1998-06-13 00:00:00,8,1020.9,-0.6,87,6,0,11.112,,,160,,,,,,,,,,,wg-a,,,,AAXX 13004 07005 12/// /1606 10080 20060 30114 40209 56006 60006 90000=
07005,1998-06-13 06:00:00,10,1017.2,-1.6,82,7,20000,14.816,,,150,7.3,13.2,,,,,,,,,wg-a,,,,AAXX 13064 07005 02670 71508 10100 20070 30078 40172 56016 60006 8117/ 90600 333 10132 20073 60004=
07005,1998-06-13 12:00:00,14,1013.5,-1.7,82,11,20000,29.632,,,190,,,,,,,,,,60,wg-a,,,,AAXX 13124 07005 02570 81916 10140 20110 30043 40135 57017 61000 76062 8217/ 91200 333 6100=
07005,1998-06-13 15:00:00,14,1011.1,-2.4,77,10,20000,25.928,,,180,,,,,,,,,,3,wg-a,,,,AAXX 13154 07005 02570 81814 10140 20100 30019 40111 56024 61000 70362 875// 91500 333 ////=
07005,1998-06-13 18:00:00,12,1009.5,-1.6,94,11,0,22.224,,,170,9.7,15.8,,9,,,,,,,wg-a,,,,AAXX 13184 07005 12/// /1712 10120 20110 30003 40095 56016 60097 91800 333 10158 20097=
07005,1998-06-14 00:00:00,11,1008.3,-0.5,100,11,0,11.112,,,200,,,,,,,,,,,wg-a,,,,AAXX 14004 07005 12/// /2006 10110 20110 39991 40083 56005 60036 90000=
07005,1998-06-14 06:00:00,12,1007.4,-0,94,11,7000,22.224,,,240,11.2,12,,,,,,,,61,wg-a,,,,AAXX 14064 07005 02457 82412 10120 20110 39982 40074 55000 61000 76162 887// 90600 333 10120 20112 6026=
07005,1998-06-14 09:00:00,13,1008.1,0.7,94,12,12000,18.52,,,250,,,,2,,,,,,21,wg-a,,,,AAXX 14094 07005 12462 82510 10130 20120 39989 40081 53007 60027 72162 875// 90900=
07005,1998-06-14 12:00:00,15,1008.4,0.4,82,12,20000,25.928,,55.56,270,,,,0,,,,,,1,wg-a,,,,AAXX 14124 07005 02470 82714 10150 20120 39993 40084 52004 60036 70162 878// 91200 333 60007 91030=
07005,1998-06-14 15:00:00,16,1008.7,0.3,72,11,20000,25.928,,,280,,,,,,,,,,,wg-a,,,,AAXX 14154 07005 12570 52814 10160 20110 39996 40087 51003 60006 84230 91500=
07005,1998-06-14 18:00:00,15,1008.7,-0,77,11,0,22.224,,,280,11.7,16.6,,,,,,,,,wg-a,,,,AAXX 14184 07005 32/// /2812 10150 20110 39996 40087 55000 91800 333 10166 20117=
07005,1998-06-15 00:00:00,11,1009.7,0.1,94,10,0,14.816,,,220,,,,,,,,,,,wg-a,,,,AAXX 15004 07005 12/// /2208 10110 20100 30005 40097 51001 60006 90000=
07005,1998-06-15 06:00:00,13,1010.1,0.5,88,11,10000,14.816,,,220,10.8,15.5,,,,,3,,,,wg-a,,,,AAXX 15064 07005 02460 72208 10130 20110 30009 40101 52005 60006 875// 90600 333 10155 20108 60034=
07005,1998-06-15 12:00:00,16,1012,1,77,12,15000,25.928,,,280,,,,1,,,,,,1,wg-a,,,,AAXX 15124 07005 02465 72814 10160 20120 30029 40120 52010 60016 70162 872// 91200 333 60017=
07005,1998-06-15 18:00:00,14,1014.2,0.9,82,11,20000,22.224,,,280,12.6,16.4,,,,,,,,,wg-a,,,,AAXX 15184 07005 32570 72812 10140 20110 30050 40142 53009 872// 91800 333 10164 20126=
07005,1998-06-16 00:00:00,13,1015.7,0.4,88,11,0,18.52,,,270,,,,,,,,,,,wg-a,,,,AAXX 16004 07005 12/// /2710 10130 20110 30065 40157 51004 60006 90000=
07005,1998-06-16 06:00:00,13,1017.3,1.4,88,11,8000,14.816,,,280,12.3,13.7,,,,,1,,,,wg-a,,,,AAXX 16064 07005 02/58 /2808 10130 20110 30081 40173 53014 60006 90600 333 10137 20123 60014=
07005,1998-06-16 09:00:00,14,1018.9,1.6,88,12,15000,25.928,,,290,,,,,,,,,,,wg-a,,,,AAXX 16094 07005 12465 72914 10140 20120 30097 40189 51016 60006 872// 90900=
07005,1998-06-16 12:00:00,13,1020.7,1.7,94,12,15000,22.224,,,280,,,,,,,,,,3,wg-a,,,,AAXX 16124 07005 02465 72812 10130 20120 30114 40207 53017 61000 70386 878// 91200 333 6100=
07005,1998-06-16 18:00:00,14,1022.9,1.5,82,11,20000,22.224,,,280,13,14.9,,,,,,,,3,wg-a,,,,AAXX 16184 07005 12570 72812 10140 20110 30136 40229 53015 60006 70386 878// 91800 333 10149 20130=
07005,1998-06-17 00:00:00,12,1024.8,0.9,94,11,0,7.408,,,230,,,,,,,,,,,wg-a,,,,AAXX 17004 07005 12/// /2304 10120 20110 30155 40248 51009 60006 90000=
07005,1998-06-17 06:00:00,12,1025.7,0.7,94,11,10000,11.112,,,230,9.9,13.8,,0,,,,,,,wg-a,,,,AAXX 17064 07005 02/60 62306 10120 20110 30163 40257 53007 60004 81032 90600 333 10138 20099 60007=
07005,1998-06-17 12:00:00,16,1026.7,0.5,63,9,500,29.632,,,280,,,,,,,,,,,wg-a,,,,AAXX 17124 07005 12500 72816 10160 20090 30175 40267 51005 60006 81108 91200=
07005,1998-06-17 18:00:00,15,1026.2,-0.5,77,11,500,14.816,,,280,11.6,17,,,,,,,,,wg-a,,,,AAXX 17184 07005 12500 72808 10150 20110 30169 40262 56005 60006 8113/ 91800 333 10170 20116=
07005,1998-06-18 00:00:00,11,1025.9,-0.5,94,10,0,3.704,,,220,,,,,,,,,,,wg-a,,,,AAXX 18004 07005 12/// /2202 10110 20100 30165 40259 56005 60006 90000=
07005,1998-06-18 06:00:00,13,1025.1,-0.1,82,10,500,7.408,,,180,11,15,,,,,,,,,wg-a,,,,AAXX 18064 07005 02/00 71804 10130 20100 30158 40251 58001 60006 86052 90600 333 10150 20110 60004=
07005,1998-06-18 12:00:00,19,1025,-0.1,68,13,500,18.52,,,300,,,,,,,,,,1,wg-a,,,,AAXX 18124 07005 02500 73010 10190 20130 30159 40250 55001 61000 70162 81132 91200 333 ////=
07005,1998-06-18 15:00:00,18,1025.1,-0,77,14,500,22.224,,,310,,,,,,,,,,,wg-a,,,,AAXX 18154 07005 12/00 63112 10180 20140 30159 40251 55000 60006 85032 91500=
07005,1998-06-18 18:00:00,16,1024.7,-0.4,72,11,500,11.112,,,300,12.6,19.3,,,,,,,,,wg-a,,,,AAXX 18184 07005 12/00 73006 10160 20110 30155 40247 56004 60006 86032 91800 333 10193 20126=
07005,1998-06-19 00:00:00,14,1025,-0.4,88,12,0,7.408,,,230,,,,,,,,,,,wg-a,,,,AAXX 19004 07005 12/// /2304 10140 20120 30157 40250 57004 60006 90000=
07005,1998-06-19 06:00:00,15,1024.6,0.4,82,12,20000,7.408,,,180,12.8,16.4,,,,,,,,,wg-a,,,,AAXX 19064 07005 02/70 41804 10150 20120 30153 40246 53004 60006 81031 90600 333 10164 20128 61000=
07005,1998-06-19 12:00:00,23,1023.8,-0.8,57,14,500,3.704,,,60,,,,,,,,,,,wg-a,,,,AAXX 19124 07005 12/00 60602 10230 20140 30148 40238 58008 60006 80002 91200=
07005,1998-06-19 15:00:00,26,1022.8,-0.9,48,14,500,7.408,,,200,,,,,,,,,,,wg-a,,,,AAXX 19154 07005 12600 /2004 10260 20140 30139 40228 58009 60006 81102 91500=
07005,1998-06-19 18:00:00,25,1022,-0.8,57,16,500,11.112,,,130,14.7,25.9,,,,,,,,,wg-a,,,,AAXX 19184 07005 12/00 61306 10250 20160 30131 40220 56008 60006 80002 91800 333 10259 20147=
07005,1998-06-20 00:00:00,18,1022.1,-0.4,88,16,0,14.816,,,130,,,,,,,,,,,wg-a,,,,AAXX 20004 07005 12/// /1308 10180 20160 30130 40221 58004 60006 90000=
07005,1998-06-20 06:00:00,18,1021.5,0.1,88,16,20000,14.816,,,140,,,,,,,,,,,wg-a,,,,AAXX 20064 07005 12/70 61408 10180 20160 30124 40215 53001 60006 80001 90600=
07005,1998-06-20 09:00:00,24,1021,-0.3,69,18,20000,18.52,,,140,,,,,,,,,,,wg-a,,,,AAXX 20094 07005 12/70 41410 10240 20180 30121 40210 58003 60006 80001 90900=
07005,1998-06-20 12:00:00,28,1020.2,-0.7,48,16,25000,22.224,,,140,,,,,,,,,,,wg-a,,,,AAXX 20124 07005 12/75 71412 10280 20160 30114 40202 58007 60006 80001 91200=
07005,1998-06-20 18:00:00,27,1017.6,-1.1,62,19,0,18.52,,,120,18,28.7,,,,,,,,,wg-a,,,,AAXX 20184 07005 12/// /1210 10270 20190 30088 40176 56011 60006 91800 333 10287 20180=
07005,1998-06-21 00:00:00,21,1016.5,-1,83,18,0,18.52,,,130,,,,,,,,,,,wg-a,,,,AAXX 21004 07005 12/// /1310 10210 20180 30075 40165 58010 60006 90000=
07005,1998-06-21 06:00:00,20,1017.1,1.7,78,16,20000,18.52,,,270,18.5,26.9,,,,,,,,,wg-a,,,,AAXX 21064 07005 02/70 62710 10200 20160 30081 40171 53017 60006 81032 90600 333 10269 20185 60004=
07005,1998-06-21 09:00:00,16,1018.9,1.6,94,15,1800,18.52,,,280,,,,,,,,,,10,wg-a,,,,AAXX 21094 07005 12218 82810 10160 20150 30097 40189 51016 60006 71022 876// 90900=
07005,1998-06-21 12:00:00,17,1019.3,0.5,88,15,4500,22.224,,,290,,,,,,,,,,10,wg-a,,,,AAXX 21124 07005 12245 82912 10170 20150 30102 40193 52005 60006 71022 876// 91200=
07005,1998-06-21 18:00:00,15,1020.1,-0.1,82,12,0,25.928,,,290,14.9,19.6,,,,,,,,,wg-a,,,,AAXX 21184 07005 32/// /2914 10150 20120 30109 40201 55001 91800 333 10196 20149=
07005,1998-06-22 00:00:00,13,1022.6,0.7,94,12,0,22.224,,,280,,,,,,,,,,,wg-a,,,,AAXX 22004 07005 12/// /2812 10130 20120 30133 40226 51007 60016 90000=
07005,1998-06-22 06:00:00,14,1024.3,1.3,94,13,15000,18.52,,,270,12.7,14.9,,,,,2,,,,wg-a,,,,AAXX 22064 07005 02465 72710 10140 20130 30150 40243 51013 60024 872// 90600 333 10149 20127 61000=
07005,1998-06-22 09:00:00,16,1025,0.8,77,12,25000,25.928,,,270,,,,,,,,,,,wg-a,,,,AAXX 22094 07005 12575 /2714 10160 20120 30158 40250 50008 60006 86202 90900=
07005,1998-06-22 12:00:00,18,1025.4,0.4,64,11,500,25.928,,,270,,,,,,,,,,,wg-a,,,,AAXX 22124 07005 12500 52714 10180 20110 30162 40254 52004 60006 84202 91200=
07005,1998-06-22 18:00:00,16,1024.6,-0.5,77,12,500,22.224,,,280,14.1,17.9,,,,,,,,,wg-a,,,,AAXX 22184 07005 12600 42812 10160 20120 30154 40246 55005 60006 81202 91800 333 10179 20141=
07005,1998-06-23 00:00:00,11,1024.5,-0.5,94,10,0,11.112,,,230,,,,,,,,,,,wg-a,,,,AAXX 23004 07005 12/// /2306 10110 20100 30151 40245 58005 60006 90000=
07005,1998-06-23 06:00:00,13,1023,-0.3,94,12,15000,18.52,,,240,10.3,16.3,,,,,,,,,wg-a,,,,AAXX 23064 07005 02465 /2410 10130 20120 30137 40230 57003 60006 81232 90600 333 10163 20103 60004=
07005,1998-06-23 09:00:00,17,1022.6,-0.3,68,11,20000,25.928,,,270,,,,0,,,,,,,wg-a,,,,AAXX 23094 07005 12470 62714 10170 20110 30134 40226 58003 60007 82152 90900=
07005,1998-06-23 12:00:00,16,1022.5,-0.1,72,11,25000,29.632,,,280,,,,,,,,,,,wg-a,,,,AAXX 23124 07005 12475 82816 10160 20110 30133 40225 58001 60006 8587/ 91200=
07005,1998-06-23 15:00:00,17,1021.4,-1.1,72,12,25000,14.816,,,260,,,,,,,,,,,wg-a,,,,AAXX 23154 07005 12475 82608 10170 20120 30122 40214 58011 60006 8387/ 91500=
07005,1998-06-23 18:00:00,17,1020.2,-1.2,77,13,25000,25.928,,,270,13,17.7,,,,,,,,,wg-a,,,,AAXX 23184 07005 12575 82714 10170 20130 30110 40202 58012 60006 875// 91800 333 10177 20130=
07005,1998-06-24 00:00:00,15,1018.6,-1.4,94,14,0,7.408,,,230,,,,,,,,,,,wg-a,,,,AAXX 24004 07005 12/// /2304 10150 20140 30094 40186 58014 60006 90000=
07005,1998-06-24 06:00:00,15,1017,-0.4,88,13,25000,7.408,,,150,13.1,16.7,,,,,,,,,wg-a,,,,AAXX 24064 07005 02/75 41504 10150 20130 30078 40170 56004 60006 83031 90600 333 10167 20131 60004=
07005,1998-06-24 09:00:00,21,1015.6,-1.2,69,15,500,11.112,,,160,,,,,,,,,,,wg-a,,,,AAXX 24094 07005 12/00 21606 10210 20150 30066 40156 58012 60006 80001 90900=
07005,1998-06-24 12:00:00,25,1013.9,-1.5,54,15,500,14.816,,,210,,,,,,,,,,,wg-a,,,,AAXX 24124 07005 12600 22108 10250 20150 30051 40139 57015 60006 82101 91200=
07005,1998-06-24 15:00:00,26,1012,-1.9,51,15,500,11.112,,,220,,,,,,,,,,,wg-a,,,,AAXX 24154 07005 12700 62206 10260 20150 30032 40120 58019 60006 86800 91500=
07005,1998-06-24 18:00:00,19,1011.7,-0.5,68,13,500,18.52,,,320,14.7,25.7,,,,,,,,,wg-a,,,,AAXX 24184 07005 12800 73210 10190 20130 30027 40117 56005 60006 86530 91800 333 10257 20147=
07005,1998-06-25 00:00:00,14,1010.9,-0.8,94,13,0,7.408,,,300,,,,,,,,,,,wg-a,,,,AAXX 25004 07005 12/// /3004 10140 20130 30018 40109 58008 60006 90000=
07005,1998-06-25 06:00:00,13,1011.4,1.1,94,12,4000,11.112,,,300,13,18.5,,,,,,,,10,wg-a,,,,AAXX 25064 07005 02240 83006 10130 20120 30022 40114 53011 61000 71062 877// 90600 333 10185 20130 6002=
07005,1998-06-25 09:00:00,16,1012.5,1.2,77,12,20000,22.224,,,260,,,,1,,,,,,1,wg-a,,,,AAXX 25094 07005 12470 /2612 10160 20120 30034 40125 51012 60017 70162 86800 90900=
07005,1998-06-25 12:00:00,17,1013.5,1,77,13,25000,29.632,,,280,,,,,,,,,,1,wg-a,,,,AAXX 25124 07005 12575 /2816 10170 20130 30044 40135 51010 60016 70162 86800 91200=
07005,1998-06-25 15:00:00,17,1014.6,1.1,63,10,500,29.632,,,290,,,,,,,,,,,wg-a,,,,AAXX 25154 07005 12600 42916 10170 20100 30055 40146 51011 60006 82202 91500=
07005,1998-06-25 18:00:00,17,1014.3,-0.3,63,10,500,18.52,,,290,13,17.8,,,,,,,,,wg-a,,,,AAXX 25184 07005 12600 32910 10170 20100 30052 40143 55003 60006 81202 91800 333 10178 20130=
07005,1998-06-26 00:00:00,14,1015.4,0.3,82,11,0,11.112,,,220,,,,,,,,,,,wg-a,,,,AAXX 26004 07005 12/// /2206 10140 20110 30062 40154 53003 60006 90000=
07005,1998-06-26 06:00:00,13,1014.7,-0,94,12,20000,7.408,,,160,12,16.8,,,,,1,,,,wg-a,,,,AAXX 26064 07005 02570 61604 10130 20120 30055 40147 55000 60006 85830 90600 333 10168 20120 60014=
07005,1998-06-26 09:00:00,18,1014,-0.6,59,10,500,14.816,,,220,,,,,,,,,,,wg-a,,,,AAXX 26094 07005 12500 /2208 10180 20100 30049 40140 58006 60006 86800 90900=
07005,1998-06-26 12:00:00,18,1014,-0,64,11,500,22.224,,,290,,,,,,,,,,,wg-a,,,,AAXX 26124 07005 12500 72912 10180 20110 30049 40140 55000 60006 85232 91200=
07005,1998-06-26 15:00:00,18,1013.9,-0.1,68,12,500,7.408,,,310,,,,,,,,,,,wg-a,,,,AAXX 26154 07005 12500 73104 10180 20120 30048 40139 55001 60006 85856 91500=
07005,1998-06-26 18:00:00,18,1013.4,-0.5,73,13,500,3.704,,,40,12.7,19.8,,,,,,,,,wg-a,,,,AAXX 26184 07005 12500 70402 10180 20130 30043 40134 57005 60006 83838 91800 333 10198 20127=
07005,1998-06-27 00:00:00,15,1012.2,-1,82,12,0,14.816,,,200,,,,,,,,,,,wg-a,,,,AAXX 27004 07005 12/// /2008 10150 20120 30031 40122 56010 60006 90000=
07005,1998-06-27 06:00:00,15,1010.3,-0.7,77,11,500,25.928,,,200,14.3,17.9,,,,,,,,,wg-a,,,,AAXX 27064 07005 02500 72014 10150 20110 30012 40103 58007 60006 875// 90600 333 10179 20143 60004=
07005,1998-06-27 12:00:00,14,1010.3,0.2,94,13,4000,18.52,,,260,,,,2,,,,,,10,wg-a,,,,AAXX 27124 07005 02440 82610 10140 20130 30012 40103 53002 60026 71062 875// 91200 333 60027=
07005,1998-06-27 18:00:00,16,1010.7,-0,72,11,0,25.928,,,280,13.4,17.6,,,,,,,,,wg-a,,,,AAXX 27184 07005 32/// /2814 10160 20110 30016 40107 55000 91800 333 10176 20134=
07005,1998-06-28 00:00:00,12,1013.4,1.1,94,11,0,18.52,,,250,,,,,,,,,,,wg-a,,,,AAXX 28004 07005 12/// /2510 10120 20110 30042 40134 51011 60006 90000=
07005,1998-06-28 06:00:00,13,1015.7,1.4,88,11,500,18.52,,,230,11.7,15.4,,,,,6,,,,wg-a,,,,AAXX 28064 07005 02500 /2310 10130 20110 30065 40157 52014 60006 85200 90600 333 10154 20117 60064=
07005,1998-06-28 09:00:00,15,1017.5,1.8,82,12,500,29.632,,,260,,,,,,,,,,,wg-a,,,,AAXX 28094 07005 12500 /2616 10150 20120 30083 40175 51018 60006 86200 90900=
07005,1998-06-28 12:00:00,18,1018.4,1,68,12,500,29.632,,,270,,,,,,,,,,,wg-a,,,,AAXX 28124 07005 12500 /2716 10180 20120 30093 40184 53010 60006 86200 91200=
07005,1998-06-28 18:00:00,16,1019.2,0.3,77,12,0,22.224,,,280,13.1,17.8,,,,,,,,,wg-a,,,,AAXX 28184 07005 12/// /2812 10160 20120 30100 40192 53003 60006 91800 333 10178 20131=
07005,1998-06-29 00:00:00,13,1019.8,-0.2,94,12,0,11.112,,,230,,,,,,,,,,,wg-a,,,,AAXX 29004 07005 12/// /2306 10130 20120 30105 40198 58002 60006 90000=
07005,1998-06-29 06:00:00,14,1019.9,0.4,88,12,15000,18.52,,,250,12.1,15.7,,,,,,,,,wg-a,,,,AAXX 29064 07005 02465 /2510 10140 20120 30107 40199 53004 60006 86802 90600 333 10157 20121 60004=
07005,1998-06-29 09:00:00,16,1020.3,0.4,77,12,500,22.224,,,270,,,,,,,,,,,wg-a,,,,AAXX 29094 07005 12500 72712 10160 20120 30111 40203 52004 60006 878// 90900=
07005,1998-06-29 12:00:00,16,1020.2,-0.1,77,12,500,22.224,,,280,,,,,,,,,,,wg-a,,,,AAXX 29124 07005 12500 72812 10160 20120 30110 40202 58001 60006 878// 91200=
07005,1998-06-29 15:00:00,16,1019.8,-0.4,77,12,500,25.928,,,270,,,,,,,,,,,wg-a,,,,AAXX 29154 07005 12500 72714 10160 20120 30106 40198 58004 60006 878// 91500=
07005,1998-06-29 18:00:00,15,1019.1,-0.7,77,11,500,18.52,,,270,14.2,16.8,,,,,,,,,wg-a,,,,AAXX 29184 07005 12500 72710 10150 20110 30099 40191 56007 60006 87800 91800 333 10168 20142=
07005,1998-06-30 00:00:00,11,1017.2,-1.6,94,10,0,11.112,,,210,,,,,,,,,,,wg-a,,,,AAXX 30004 07005 12/// /2106 10110 20100 30079 40172 57016 60006 90000=
07005,1998-06-30 06:00:00,14,1013.8,-1.5,82,11,20000,14.816,,,250,10.6,15.1,,,,,,,,,wg-a,,,,AAXX 30064 07005 02670 82508 10140 20110 30046 40138 56015 60006 8457/ 90600 333 10151 20106 60004=
07005,1998-06-30 09:00:00,14,1012.8,-1,94,13,3500,22.224,,,220,,,,3,,,,,,10,wg-a,,,,AAXX 30094 07005 12335 82212 10140 20130 30036 40128 58010 60037 71065 877// 90900=
07005,1998-06-30 12:00:00,15,1012.6,-0.1,100,15,2500,18.52,,,240,,,,1,,,,,,10,wg-a,,,,AAXX 30124 07005 02125 82410 10150 20150 30035 40126 55001 60046 71065 877// 91200 333 60017=
07005,1998-06-30 15:00:00,17,1013.1,0.5,88,15,15000,22.224,,,280,,,,1,,,,,,1,wg-a,,,,AAXX 30154 07005 12465 82812 10170 20150 30040 40131 50005 60017 70162 875// 91500=
07005,1998-06-30 18:00:00,17,1013.1,-0,82,14,25000,14.816,,,280,13,17.5,,,,,,,,1,wg-a,,,,AAXX 30184 07005 12575 /2808 10170 20140 30040 40131 55000 60006 70162 85100 91800 333 10175 20130=
07005,1998-07-01 00:00:00,12,1014.2,0.1,94,11,0,3.704,,,250,,,,,,,,,,,wg-a,,,,AAXX 01004 07005 12/// /2502 10120 20110 30049 40142 53001 60006 90000=
07005,1998-07-01 06:00:00,12,1013.9,0.2,100,12,2500,0,,,0,9.9,16.8,,,,,5,,,10,wg-a,,,,AAXX 01064 07005 02525 70000 10120 20120 30047 40139 53002 60006 71022 8653/ 90600 333 10168 20099 60054=
07005,1998-07-01 09:00:00,16,1014.1,0.5,82,13,15000,9.26,,,360,,,,0,,,,,,,wg-a,,,,AAXX 01094 07005 12565 63605 10160 20130 30050 40141 50005 60007 86800 90900=
07005,1998-07-01 12:00:00,18,1014.3,-0,68,12,15000,14.816,,,30,,,,,,,,,,,wg-a,,,,AAXX 01124 07005 12565 /0308 10180 20120 30052 40143 55000 60006 86800 91200=
07005,1998-07-01 15:00:00,19,1013.3,-0.9,64,12,20000,22.224,,,40,,,,,,,,,,,wg-a,,,,AAXX 01154 07005 12570 /0412 10190 20120 30043 40133 56009 60006 82801 91500=
07005,1998-07-01 18:00:00,16,1013.5,0.1,77,12,25000,22.224,,,40,12.4,19.5,,,,,,,,,wg-a,,,,AAXX 01184 07005 12575 70412 10160 20120 30044 40135 53001 60006 81132 91800 333 10195 20124=
07005,1998-07-02 00:00:00,13,1015.2,0.4,88,11,0,18.52,,,40,,,,,,,,,,,wg-a,,,,AAXX 02004 07005 12/// /0410 10130 20110 30060 40152 51004 60006 90000=
07005,1998-07-02 06:00:00,13,1015.9,0.8,88,11,15000,22.224,,,60,12.1,16.2,,,,,,,,,wg-a,,,,AAXX 02064 07005 02/65 60612 10130 20110 30067 40159 53008 60006 80002 90600 333 10162 20121 60004=
07005,1998-07-02 09:00:00,16,1016.3,0.5,77,12,15000,29.632,,,60,,,,,,,,,,,wg-a,,,,AAXX 02094 07005 12565 /0616 10160 20120 30072 40163 51005 60006 83202 90900=
07005,1998-07-02 12:00:00,18,1016.8,0.5,68,12,15000,18.52,,,80,,,,,,,,,,,wg-a,,,,AAXX 02124 07005 12565 70810 10180 20120 30077 40168 51005 60006 85202 91200=
07005,1998-07-02 18:00:00,17,1016.7,0.2,77,13,15000,22.224,,,30,13.1,18.9,,,,,,,,,wg-a,,,,AAXX 02184 07005 12565 /0312 10170 20130 30076 40167 53002 60006 81202 91800 333 10189 20131=
07005,1998-07-03 00:00:00,11,1018.4,0.5,94,10,0,11.112,,,10,,,,,,,,,,,wg-a,,,,AAXX 03004 07005 12/// /0106 10110 20100 30091 40184 51005 60006 90000=
07005,1998-07-03 06:00:00,12,1019.3,0.9,94,11,20000,7.408,,,360,9.6,16.7,,,,,,,,,wg-a,,,,AAXX 03064 07005 02570 83604 10120 20110 30100 40193 51009 60006 888// 90600 333 10167 20096 60004=
07005,1998-07-03 09:00:00,15,1019.9,0.7,77,11,20000,18.52,,,40,,,,,,,,,,,wg-a,,,,AAXX 03094 07005 12570 70410 10150 20110 30107 40199 51007 60006 878// 90900=
07005,1998-07-03 12:00:00,16,1021,1.1,77,12,20000,22.224,,,10,,,,,,,,,,,wg-a,,,,AAXX 03124 07005 12570 70112 10160 20120 30118 40210 53011 60006 878// 91200=
07005,1998-07-03 15:00:00,16,1021.8,0.8,72,11,25000,22.224,,,350,,,,,,,,,,,wg-a,,,,AAXX 03154 07005 12575 /3512 10160 20110 30126 40218 51008 60006 86800 91500=
07005,1998-07-03 18:00:00,16,1022.5,0.7,63,9,25000,14.816,,,10,12,17.3,,,,,,,,,wg-a,,,,AAXX 03184 07005 12575 50108 10160 20090 30133 40225 53007 60006 85802 91800 333 10173 20120=
07005,1998-07-04 00:00:00,11,1024.2,0,87,9,0,11.112,,,270,,,,,,,,,,,wg-a,,,,AAXX 04004 07005 12/// /2706 10110 20090 30148 40242 50000 60006 90000=
07005,1998-07-04 06:00:00,13,1023.8,0.4,100,13,2000,11.112,,,250,10.6,16.1,,,,,,,,10,wg-a,,,,AAXX 04064 07005 02420 62506 10130 20130 30145 40238 50004 60006 71011 86500 90600 333 10161 20106 60004=
07005,1998-07-04 09:00:00,16,1024.3,0.6,88,14,4500,14.816,,,260,,,,,,,,,,10,wg-a,,,,AAXX 04094 07005 12345 82608 10160 20140 30151 40243 51006 60006 71022 876// 90900=
07005,1998-07-04 12:00:00,17,1024.6,0.3,82,14,12000,29.632,,,270,,,,,,,,,,,wg-a,,,,AAXX 04124 07005 12462 72716 10170 20140 30154 40246 53003 60006 872// 91200=
07005,1998-07-04 15:00:00,17,1024.3,-0.3,72,12,1500,25.928,,,290,,,,,,,,,,,wg-a,,,,AAXX 04154 07005 12515 /2914 10170 20120 30151 40243 58003 60006 86202 91500=
07005,1998-07-04 18:00:00,15,1024,-0.3,82,12,0,22.224,,,290,13.2,18.3,,,,,,,,,wg-a,,,,AAXX 04184 07005 12/// /2912 10150 20120 30148 40240 58003 60006 91800 333 10183 20132=
07005,1998-07-05 00:00:00,13,1022.7,-1,94,12,0,11.112,,,250,,,,,,,,,,,wg-a,,,,AAXX 05004 07005 12/// /2506 10130 20120 30134 40227 57010 60006 90000=
07005,1998-07-05 06:00:00,15,1020.6,-0.6,94,14,7000,18.52,,,270,12.8,15.4,,,,,,,,,wg-a,,,,AAXX 05064 07005 02257 82710 10150 20140 30114 40206 56006 60006 886// 90600 333 10154 20128 60004=
07005,1998-07-05 09:00:00,15,1020.7,0.1,82,12,15000,25.928,,,280,,,,,,,,,,,wg-a,,,,AAXX 05094 07005 12465 82814 10150 20120 30115 40207 51001 60006 878// 90900=
07005,1998-07-05 12:00:00,16,1020.1,-0.6,82,13,20000,29.632,,,270,,,,,,,,,,,wg-a,,,,AAXX 05124 07005 12470 82716 10160 20130 30109 40201 58006 60006 872// 91200=
07005,1998-07-05 15:00:00,18,1019.2,-0.8,77,14,20000,35.188,,,260,,,,,,,,,,,wg-a,,,,AAXX 05154 07005 12570 /2619 10180 20140 30101 40192 58008 60006 86200 91500=
07005,1998-07-05 18:00:00,17,1018.2,-1,77,13,0,31.484,,,270,14.9,18.4,,,,,,,,,wg-a,,,,AAXX 05184 07005 12/// /2717 10170 20130 30091 40182 57010 60006 91800 333 10184 20149=
07005,1998-07-06 00:00:00,15,1016.8,-0.8,88,13,0,14.816,,,250,,,,,,,,,,,wg-a,,,,AAXX 06004 07005 12/// /2508 10150 20130 30076 40168 58008 60006 90000=
07005,1998-07-06 06:00:00,15,1014.4,-0.7,94,14,15000,18.52,,,280,14.7,16.5,,,,,,,,,wg-a,,,,AAXX 06064 07005 02265 82810 10150 20140 30053 40144 56007 60006 886// 90600 333 10165 20147 60004=
07005,1998-07-06 12:00:00,16,1014.1,-0.4,94,15,10000,18.52,,,260,,,,,,,,,,,wg-a,,,,AAXX 06124 07005 12260 82610 10160 20150 30050 40141 58004 60006 876// 91200=
07005,1998-07-06 15:00:00,15,1013.5,-0.6,100,15,2000,18.52,,,280,,,,0,,,,,,51,wg-a,,,,AAXX 06154 07005 12120 82810 10150 20150 30044 40135 57006 60007 75152 886// 91500=
07005,1998-07-06 18:00:00,14,1012.8,-0.8,100,14,1700,18.52,,,300,,,,0,,,,,,51,wg-a,,,,AAXX 06184 07005 12117 83010 10140 20140 30036 40128 58008 60007 75152 887// 91800=
07005,1998-07-07 00:00:00,14,1012.2,-0.6,94,13,0,11.112,,,310,,,,,,,,,,,wg-a,,,,AAXX 07004 07005 12/// /3106 10140 20130 30030 40122 58006 60026 90000=
07005,1998-07-07 06:00:00,12,1012.5,0.4,94,11,6000,3.704,,,80,11.9,,,,,,,,,10,wg-a,,,,AAXX 07064 07005 02256 80802 10120 20110 30033 40125 53004 61000 71052 8377/ 90600 333 10144 20119 6001=
07005,1998-07-07 09:00:00,15,1013.3,0.9,88,13,500,14.816,,,30,,,,,,,,,,,wg-a,,,,AAXX 07094 07005 12500 70308 10150 20130 30042 40133 51009 60006 8413/ 90900=
07005,1998-07-07 12:00:00,17,1013.9,0.6,68,11,500,14.816,,,350,,,,,,,,,,,wg-a,,,,AAXX 07124 07005 12500 /3508 10170 20110 30048 40139 51006 60006 84101 91200=
07005,1998-07-07 15:00:00,18,1014.2,0.3,56,9,500,25.928,,,330,,,,,,,,,,,wg-a,,,,AAXX 07154 07005 12500 /3314 10180 20090 30051 40142 51003 60006 81101 91500=
07005,1998-07-07 18:00:00,16,1014.5,0.3,68,10,500,18.52,,,300,12,18.1,,,,,,,,,wg-a,,,,AAXX 07184 07005 12500 /3010 10160 20100 30054 40145 53003 60006 81101 91800 333 10181 20120=
07005,1998-07-08 00:00:00,14,1015.6,-0.1,88,12,0,7.408,,,360,,,,,,,,,,,wg-a,,,,AAXX 08004 07005 12/// /3604 10140 20120 30064 40156 55001 60016 90000=
07005,1998-07-08 06:00:00,13,1016.4,0.7,94,12,3000,3.704,,,150,11.4,15.9,,,,,1,,,10,wg-a,,,,AAXX 08064 07005 02830 71502 10130 20120 30072 40164 51007 60006 71022 83081 90600 333 10159 20114 60014=
07005,1998-07-08 09:00:00,17,1016.3,0,77,13,12000,11.112,,,280,,,,,,,,,,,wg-a,,,,AAXX 08094 07005 12562 /2806 10170 20130 30072 40163 50000 60006 86201 90900=
07005,1998-07-08 12:00:00,17,1016.8,0.5,68,11,15000,25.928,,,280,,,,,,,,,,,wg-a,,,,AAXX 08124 07005 12565 /2814 10170 20110 30077 40168 51005 60006 85200 91200=
07005,1998-07-08 15:00:00,16,1017.3,0.5,72,11,20000,25.928,,,290,,,,,,,,,,,wg-a,,,,AAXX 08154 07005 12670 /2914 10160 20110 30082 40173 51005 60006 85201 91500=
07005,1998-07-08 18:00:00,16,1016.7,-0.6,77,12,20000,25.928,,,270,12.6,18,,,,,,,,,wg-a,,,,AAXX 08184 07005 12670 52714 10160 20120 30076 40167 56006 60006 83801 91800 333 10180 20126=
07005,1998-07-09 00:00:00,14,1015.9,-0.7,88,12,0,29.632,,,270,,,,,,,,,,,wg-a,,,,AAXX 09004 07005 12/// /2716 10140 20120 30067 40159 57007 60006 90000=
07005,1998-07-09 06:00:00,15,1013.6,-0.8,88,13,15000,31.484,,,270,13.6,15.9,,,,,,,,21,wg-a,,,,AAXX 09064 07005 02265 82717 10150 20130 30045 40136 57008 61000 72162 875// 90600 333 10159 20136 6100=
07005,1998-07-09 09:00:00,16,1013.9,0.3,82,13,25000,35.188,,53.708,270,,,,,,,,,,21,wg-a,,,,AAXX 09094 07005 02375 72719 10160 20130 30048 40139 51003 61000 72162 84171 90900 333 //// 91029=
07005,1998-07-09 12:00:00,15,1014.3,0.4,94,14,2500,31.484,,,270,,,,,,,,,,50,wg-a,,,,AAXX 09124 07005 02225 82717 10150 20140 30052 40143 52004 61000 75065 877// 91200 333 6100=
07005,1998-07-09 15:00:00,16,1014.2,-0.1,94,15,15000,29.632,,,260,,,,0,,,,,,20,wg-a,,,,AAXX 09154 07005 12365 82616 10160 20150 30051 40142 58001 60007 72052 875// 91500=
07005,1998-07-09 18:00:00,16,1014.4,0.2,94,15,25000,25.928,,,280,15,17.1,,,,,,,,2,wg-a,,,,AAXX 09184 07005 12475 82814 10160 20150 30053 40144 53002 60006 70252 875// 91800 333 10171 20150=
07005,1998-07-10 00:00:00,16,1014.6,-0.6,94,15,0,18.52,,,280,,,,,,,,,,,wg-a,,,,AAXX 10004 07005 12/// /2810 10160 20150 30055 40146 56006 60006 90000=
07005,1998-07-10 06:00:00,15,1013.7,-0.2,94,14,10000,14.816,,,240,14.7,16.3,,,,,,,,,wg-a,,,,AAXX 10064 07005 12260 82408 10150 20140 30045 40137 56002 60006 875// 90600 333 10163 20147=
07005,1998-07-10 12:00:00,17,1014.3,0.5,88,15,10000,29.632,,,280,,,,,,,,,,1,wg-a,,,,AAXX 10124 07005 02460 82816 10170 20150 30052 40143 53005 61000 70152 885// 91200 333 6100=
07005,1998-07-10 15:00:00,17,1014.5,0.2,82,14,11000,25.928,,,280,,,,,,,,,,,wg-a,,,,AAXX 10154 07005 12/61 /2814 10170 20140 30054 40145 53002 60006 91500=
07005,1998-07-10 18:00:00,17,1013.6,-0.9,77,13,20000,25.928,,,280,14.7,18.1,,,,,,,,,wg-a,,,,AAXX 10184 07005 32570 72814 10170 20130 30045 40136 56009 8213/ 91800 333 10181 20147=
07005,1998-07-11 00:00:00,15,1011.9,-1.3,100,15,0,22.224,,,250,,,,,,,,,,,wg-a,,,,AAXX 11004 07005 12/// /2512 10150 20150 30028 40119 58013 60026 90000=
07005,1998-07-11 06:00:00,15,1012.7,1.2,94,14,8000,29.632,,,280,14.6,16.7,,,,,2,,,,wg-a,,,,AAXX 11064 07005 02258 82816 10150 20140 30036 40127 53012 60006 876// 90600 333 10167 20146 60024=
07005,1998-07-11 09:00:00,17,1013.8,1.1,77,13,10000,38.892,,53.708,280,,,,,,,,,,,wg-a,,,,AAXX 11094 07005 12460 72821 10170 20130 30047 40138 51011 60006 872// 90900 333 91029=
07005,1998-07-11 12:00:00,18,1014.7,0.9,64,11,15000,35.188,,,270,,,,0,,,,,,,wg-a,,,,AAXX 11124 07005 02465 72719 10180 20110 30056 40147 51009 60006 84232 91200 333 60007=
07005,1998-07-11 15:00:00,16,1014.7,0,77,12,15000,31.484,,,280,,,,,,,,,,60,wg-a,,,,AAXX 11154 07005 02465 82817 10160 20120 30056 40147 50000 61000 76062 8587/ 91500 333 ////=
07005,1998-07-11 18:00:00,15,1013.2,-1.5,94,14,0,7.408,,,210,14.8,17.9,,,,,,,,,wg-a,,,,AAXX 11184 07005 32/// /2104 10150 20140 30041 40132 58015 91800 333 10179 20148=
07005,1998-07-12 00:00:00,16,1008.9,-1.7,94,15,0,38.892,,,260,,,,0,,,,,,,wg-a,,,,AAXX 12004 07005 02/// /2621 10160 20150 39998 40089 56017 60056 90000 333 60007=
07005,1998-07-12 06:00:00,16,1008.9,0.5,94,15,3000,42.596,,55.56,260,14.5,16.3,,,,,,,,51,wg-a,,,,AAXX 12064 07005 02230 82623 10160 20150 39998 40089 52005 61000 75152 877// 90600 333 10163 20145 6010 91030=
07005,1998-07-12 09:00:00,18,1009.5,0.7,88,16,20000,35.188,,,260,,,,0,,,,,,3,wg-a,,,,AAXX 12094 07005 12270 82619 10180 20160 30005 40095 51007 60007 70352 876// 90900=
07005,1998-07-12 12:00:00,19,1009.1,-0.4,83,16,20000,25.928,,,290,,,,,,,,,,3,wg-a,,,,AAXX 12124 07005 12470 82914 10190 20160 30001 40091 58004 60006 70352 878// 91200=
07005,1998-07-12 18:00:00,18,1006.1,-0.8,94,17,0,14.816,,,260,16,21.8,,,,,,,,,wg-a,,,,AAXX 12184 07005 32/// /2608 10180 20170 39971 40061 56008 91800 333 10218 20160=
07005,1998-07-13 00:00:00,16,1006.3,-0.1,94,15,0,31.484,,,280,,,,1,,,,,,,wg-a,,,,AAXX 13004 07005 02/// /2817 10160 20150 39972 40063 55001 60026 90000 333 60017=
07005,1998-07-13 06:00:00,14,1007.3,0.8,94,13,15000,14.816,,,270,13.8,18.4,,,,,4,,,3,wg-a,,,,AAXX 13064 07005 02465 82708 10140 20130 39982 40073 53008 60006 70362 8387/ 90600 333 10184 20138 60044=
07005,1998-07-13 12:00:00,16,1009,0.8,72,11,500,31.484,,,280,,,,,,,,,,,wg-a,,,,AAXX 13124 07005 12500 72817 10160 20110 39999 40090 53008 60006 8423/ 91200=
07005,1998-07-13 15:00:00,16,1010.1,1.1,72,11,500,35.188,,57.412,280,,,,,,,,,,,wg-a,,,,AAXX 13154 07005 12500 42819 10160 20110 30010 40101 53011 60006 84200 91500 333 91031=
07005,1998-07-13 18:00:00,16,1010.9,0.8,72,11,500,38.892,,,270,14.2,17.3,,,,,,,,,wg-a,,,,AAXX 13184 07005 12500 /2721 10160 20110 30018 40109 53008 60006 81100 91800 333 10173 20142=
07005,1998-07-14 00:00:00,13,1012.9,0.3,88,11,0,22.224,,,280,,,,,,,,,,,wg-a,,,,AAXX 14004 07005 12/// /2812 10130 20110 30037 40129 50003 60006 90000=
07005,1998-07-14 06:00:00,14,1013.5,0.7,94,13,20000,22.224,,,280,13.2,15.6,,,,,,,,,wg-a,,,,AAXX 14064 07005 02570 72812 10140 20130 30043 40135 51007 60006 872// 90600 333 10156 20132 60004=
07005,1998-07-14 12:00:00,17,1015.2,0.7,68,11,500,35.188,,,270,,,,,,,,,,,wg-a,,,,AAXX 14124 07005 12500 42719 10170 20110 30061 40152 52007 60006 84200 91200=
07005,1998-07-14 15:00:00,17,1015.8,0.6,59,9,500,31.484,,,280,,,,,,,,,,,wg-a,,,,AAXX 14154 07005 12500 32817 10170 20090 30067 40158 51006 60006 83100 91500=
07005,1998-07-14 18:00:00,15,1015.6,-0.3,72,10,0,31.484,,,280,14.4,17.6,,,,,,,,,wg-a,,,,AAXX 14184 07005 12/// /2817 10150 20100 30064 40156 56003 60006 91800 333 10176 20144=
07005,1998-07-15 00:00:00,14,1015.4,-0.4,88,12,0,25.928,,,270,,,,,,,,,,,wg-a,,,,AAXX 15004 07005 12/// /2714 10140 20120 30062 40154 57004 60006 90000=
07005,1998-07-15 06:00:00,15,1014.7,0,82,12,25000,18.52,,,270,13,15.3,,,,,,,,,wg-a,,,,AAXX 15064 07005 02475 72710 10150 20120 30055 40147 50000 60006 878// 90600 333 10153 20130 60004=
07005,1998-07-15 09:00:00,16,1015.2,0.6,77,12,25000,29.632,,,260,,,,,,,,,,25,wg-a,,,,AAXX 15094 07005 02475 82616 10160 20120 30061 40152 51006 61000 72586 8583/ 90900 333 ////=
07005,1998-07-15 12:00:00,16,1016.2,1,77,12,25000,31.484,,,280,,,,,,,,,,3,wg-a,,,,AAXX 15124 07005 02475 82817 10160 20120 30071 40162 53010 61000 70386 878// 91200 333 ////=
07005,1998-07-15 15:00:00,16,1016.3,0.1,77,12,25000,31.484,,,280,,,,,,,,,,,wg-a,,,,AAXX 15154 07005 12475 82817 10160 20120 30072 40163 53001 60006 8527/ 91500=
07005,1998-07-15 18:00:00,16,1016.3,-0.1,82,13,25000,18.52,,,270,14.6,17.4,,0,,,,,,25,wg-a,,,,AAXX 15184 07005 12475 72710 10160 20130 30071 40163 58001 60007 72586 8583/ 91800 333 10174 20146=
07005,1998-07-16 00:00:00,14,1014.9,-1.2,88,12,0,11.112,,,210,,,,,,,,,,,wg-a,,,,AAXX 16004 07005 12/// /2106 10140 20120 30057 40149 58012 60006 90000=
07005,1998-07-16 06:00:00,13,1011.8,-1.4,94,12,3000,3.704,,,130,12.5,15.8,,,,,,,,10,wg-a,,,,AAXX 16064 07005 02130 81302 10130 20120 30026 40118 56014 61000 71062 877// 90600 333 10158 20125 6012=
07005,1998-07-16 09:00:00,14,1011.4,-0.4,88,12,4000,7.408,,,150,,,,,,,,,,51,wg-a,,,,AAXX 16094 07005 02140 81504 10140 20120 30022 40114 56004 61000 75165 877// 90900 333 ////=
07005,1998-07-16 12:00:00,15,1011.7,0.4,94,14,12000,11.112,,,100,,,,0,,,,,,20,wg-a,,,,AAXX 16124 07005 02262 81006 10150 20140 30026 40117 51004 60006 72065 876// 91200 333 60007=
07005,1998-07-16 15:00:00,19,1012.1,0.5,68,13,500,3.704,,,110,,,,,,,,,,,wg-a,,,,AAXX 16154 07005 12400 51102 10190 20130 30031 40121 53005 60006 85800 91500=
07005,1998-07-16 18:00:00,19,1012.5,0.4,78,15,35000,11.112,,,260,12.6,19.7,,,,,,,,,wg-a,,,,AAXX 16184 07005 32581 42606 10190 20150 30035 40125 53004 83801 91800 333 10197 20126=
07005,1998-07-17 00:00:00,16,1013.2,-0.1,88,14,0,3.704,,,290,,,,,,,,,,,wg-a,,,,AAXX 17004 07005 12/// /2902 10160 20140 30041 40132 58001 60006 90000=
07005,1998-07-17 06:00:00,14,1013,0.2,94,13,8000,14.816,,,230,14.1,18.8,,,,,1,,,,wg-a,,,,AAXX 17064 07005 02458 82308 10140 20130 30038 40130 52002 60006 885// 90600 333 10188 20141 60014=
07005,1998-07-17 09:00:00,15,1012.2,-0.7,94,14,4500,18.52,,,220,,,,0,,,,,,10,wg-a,,,,AAXX 17094 07005 12245 82210 10150 20140 30031 40122 57007 60007 71062 877// 90900=
07005,1998-07-17 12:00:00,18,1011.5,-0.6,83,15,25000,29.632,,,230,,,,,,,,,,2,wg-a,,,,AAXX 17124 07005 02475 82316 10180 20150 30025 40115 56006 60006 70262 875// 91200 333 61000=
07005,1998-07-17 15:00:00,18,1012.2,0.7,68,12,500,46.3,,,270,,,,0,,,,,,1,wg-a,,,,AAXX 17154 07005 12500 /2725 10180 20120 30032 40122 51007 60007 70162 8483/ 91500=
07005,1998-07-17 18:00:00,17,1013.1,0.8,68,11,500,42.596,,,270,14.3,18.9,,,,,,,,1,wg-a,,,,AAXX 17184 07005 32500 32723 10170 20110 30040 40131 53008 70161 81130 91800 333 10189 20143=
07005,1998-07-18 00:00:00,12,1014,-0.3,94,11,0,18.52,,,240,,,,,,,,,,,wg-a,,,,AAXX 18004 07005 12/// /2410 10120 20110 30048 40140 58003 60006 90000=
07005,1998-07-18 06:00:00,13,1013.8,0.2,94,12,20000,14.816,,,220,11,16.6,,0,,,1,,,,wg-a,,,,AAXX 18064 07005 02470 32208 10130 20120 30046 40138 50002 60014 83802 90600 333 10166 20110 60007=
07005,1998-07-18 09:00:00,17,1014,0.3,77,13,20000,25.928,,,250,,,,,,,,,,,wg-a,,,,AAXX 18094 07005 12470 72514 10170 20130 30049 40140 50003 60006 84832 90900=
07005,1998-07-18 12:00:00,17,1014.5,0.5,77,13,500,25.928,,,270,,,,,,,,,,,wg-a,,,,AAXX 18124 07005 12500 72714 10170 20130 30054 40145 51005 60006 8683/ 91200=
07005,1998-07-18 15:00:00,18,1014.9,0.4,73,13,25000,31.484,,,260,,,,,,,,,,1,wg-a,,,,AAXX 18154 07005 02575 72617 10180 20130 30058 40149 50004 61000 70186 878// 91500 333 ////=
07005,1998-07-18 18:00:00,17,1015.4,0.5,72,12,0,29.632,,,270,13,18.2,,,,,,,,,wg-a,,,,AAXX 18184 07005 32/// /2716 10170 20120 30063 40154 51005 91800 333 10182 20130=
07005,1998-07-19 00:00:00,11,1016.3,0,94,10,0,11.112,,,220,,,,,,,,,,,wg-a,,,,AAXX 19004 07005 12/// /2206 10110 20100 30070 40163 50000 60006 90000=
07005,1998-07-19 06:00:00,12,1015.8,-0.2,94,11,25000,7.408,,,160,10.2,17,,,,,,,,,wg-a,,,,AAXX 19064 07005 02/75 51604 10120 20110 30065 40158 58002 60006 81042 90600 333 10170 20102 60004=
07005,1998-07-19 09:00:00,18,1015.6,0,73,13,500,11.112,,,170,,,,,,,,,,,wg-a,,,,AAXX 19094 07005 12500 51706 10180 20130 30065 40156 50000 60006 81142 90900=
07005,1998-07-19 12:00:00,22,1014.6,-0.8,60,14,500,11.112,,,170,,,,,,,,,,,wg-a,,,,AAXX 19124 07005 12600 31706 10220 20140 30057 40146 57008 60006 82102 91200=
07005,1998-07-19 15:00:00,25,1012.6,-1.9,50,14,500,14.816,,,170,,,,,,,,,,,wg-a,,,,AAXX 19154 07005 12/00 61708 10250 20140 30038 40126 57019 60006 80002 91500=
07005,1998-07-19 18:00:00,25,1011.5,-1.1,50,14,0,11.112,,,180,12,25.7,,,,,,,,,wg-a,,,,AAXX 19184 07005 12/// /1806 10250 20140 30027 40115 56011 60006 91800 333 10257 20120=
07005,1998-07-20 00:00:00,18,1010.5,-0.6,83,15,0,11.112,,,120,,,,,,,,,,,wg-a,,,,AAXX 20004 07005 12/// /1206 10180 20150 30015 40105 58006 60006 90000=
07005,1998-07-20 06:00:00,18,1009.4,0.3,83,15,25000,3.704,,,210,15.4,24.7,,,,,,,,,wg-a,,,,AAXX 20064 07005 02/75 42102 10180 20150 30004 40094 53003 60006 80001 90600 333 10247 20154 60004=
07005,1998-07-20 09:00:00,22,1009.5,0.2,73,17,25000,3.704,,,310,,,,,,,,,,,wg-a,,,,AAXX 20094 07005 12/75 13102 10220 20170 30006 40095 51002 60006 80001 90900=
07005,1998-07-20 12:00:00,25,1009.1,-0.3,65,18,25000,18.52,,,190,,,,,,,,,,,wg-a,,,,AAXX 20124 07005 12/75 71910 10250 20180 30003 40091 55003 60006 8709/ 91200=
07005,1998-07-20 15:00:00,28,1006.1,-2.9,51,17,20000,14.816,,,130,,,,1,,,,,,1,wg-a,,,,AAXX 20154 07005 12/70 31308 10280 20170 39974 40061 58029 60017 70196 83081 91500=
07005,1998-07-20 18:00:00,27,1003.7,-2.4,66,20,20000,7.408,,,70,17.7,28.3,,,,,,,,3,wg-a,,,,AAXX 20184 07005 12670 50704 10270 20200 39950 40037 56024 60006 70396 82980 91800 333 10283 20177=
07005,1998-07-21 00:00:00,18,1004.6,0.7,88,16,0,25.928,,,270,,,,,,,,,,,wg-a,,,,AAXX 21004 07005 12/// /2714 10180 20160 39956 40046 53007 60006 90000=
07005,1998-07-21 06:00:00,17,1007.1,2.3,94,16,12000,18.52,,,280,16.9,27.3,,,,,,,,21,wg-a,,,,AAXX 21064 07005 02462 82810 10170 20160 39981 40071 51023 61000 72162 875// 90600 333 10273 20169 6003=
07005,1998-07-21 09:00:00,16,1010.2,3,88,14,20000,25.928,,,260,,,,3,,,,,,1,wg-a,,,,AAXX 21094 07005 12370 82614 10160 20140 30011 40102 51030 60037 70162 878// 90900=
07005,1998-07-21 12:00:00,19,1012.2,2.1,68,13,25000,35.188,,,270,,,,,,,,,,1,wg-a,,,,AAXX 21124 07005 12575 52719 10190 20130 30032 40122 51021 60036 70162 85800 91200=
07005,1998-07-21 15:00:00,19,1013.6,1.4,64,12,500,22.224,,,280,,,,,,,,,,,wg-a,,,,AAXX 21154 07005 12500 52812 10190 20120 30046 40136 51014 60006 85800 91500=
07005,1998-07-21 18:00:00,16,1015.2,1.5,82,13,7000,25.928,,,280,15.4,19.5,,,,,,,,80,wg-a,,,,AAXX 21184 07005 02357 72814 10160 20130 30061 40152 53015 61000 78086 879// 91800 333 10195 20154 6000=
07005,1998-07-22 00:00:00,,1017.8,1.6,,,0,0,,,190,,,,,,,,,,2,wg-a,,,,AAXX 22004 07005 12/// /19// 1//// 2//// 30115 40178 51016 60016 70286 8/0/0 90000=
07005,1998-07-22 06:00:00,13,1018.2,0.4,94,12,20000,11.112,,,180,11.9,15.9,,,,,4,,,,wg-a,,,,AAXX 22064 07005 02470 41806 10130 20120 30090 40182 50004 60006 83802 90600 333 10159 20119 60044=
07005,1998-07-22 09:00:00,18,1018.6,0.5,73,13,500,11.112,,,160,,,,,,,,,,,wg-a,,,,AAXX 22094 07005 12500 21606 10180 20130 30095 40186 50005 60006 82102 90900=
07005,1998-07-22 12:00:00,21,1017.5,-1,53,11,500,18.52,,,220,,,,,,,,,,,wg-a,,,,AAXX 22124 07005 12500 32210 10210 20110 30085 40175 57010 60006 83202 91200=
07005,1998-07-22 18:00:00,23,1014.9,-1.2,47,11,500,14.816,,,210,13.4,23.7,,,,,,,,,wg-a,,,,AAXX 22184 07005 12/00 62108 10230 20110 30060 40149 56012 60006 83032 91800 333 10237 20134=
07005,1998-07-23 00:00:00,18,1013.7,-0.9,77,14,0,11.112,,,160,,,,,,,,,,,wg-a,,,,AAXX 23004 07005 12/// /1606 10180 20140 30047 40137 58009 60006 90000=
07005,1998-07-23 06:00:00,17,1013.6,0.5,88,15,25000,18.52,,,250,16.8,23.5,,,,,,,,,wg-a,,,,AAXX 23064 07005 02475 72510 10170 20150 30045 40136 53005 60006 82802 90600 333 10235 20168 60004=
07005,1998-07-23 09:00:00,17,1014.6,1,88,15,15000,22.224,,,240,,,,,,,,,,21,wg-a,,,,AAXX 23094 07005 02565 82412 10170 20150 30055 40146 51010 61000 72162 8517/ 90900 333 ////=
07005,1998-07-23 12:00:00,18,1015.4,0.8,88,16,12000,18.52,,,260,,,,1,,,,,,61,wg-a,,,,AAXX 23124 07005 02562 82610 10180 20160 30063 40154 53008 60016 76162 8517/ 91200 333 60017=
07005,1998-07-23 15:00:00,19,1016.4,1.1,83,16,500,29.632,,,280,,,,2,,,,,,2,wg-a,,,,AAXX 23154 07005 12500 72816 10190 20160 30074 40164 52011 60027 70262 8527/ 91500=
07005,1998-07-23 18:00:00,18,1017.5,1,77,14,500,25.928,,,280,17.1,19.2,,,,,,,,1,wg-a,,,,AAXX 23184 07005 12500 /2814 10180 20140 30084 40175 51010 60006 70161 81200 91800 333 10192 20171=
07005,1998-07-24 00:00:00,14,1019.9,0.8,94,13,0,7.408,,,260,,,,,,,,,,,wg-a,,,,AAXX 24004 07005 12/// /2604 10140 20130 30106 40199 51008 60006 90000=
07005,1998-07-24 06:00:00,13,1021.6,1.1,94,12,10000,3.704,,,230,11.1,18.1,,,,,4,,,,wg-a,,,,AAXX 24064 07005 02/60 42302 10130 20120 30123 40216 53011 60006 80002 90600 333 10181 20111 60044=
07005,1998-07-24 12:00:00,19,1022.5,0.3,68,13,500,14.816,,,300,,,,,,,,,,,wg-a,,,,AAXX 24124 07005 12500 73008 10190 20130 30134 40225 52003 60006 82102 91200=
07005,1998-07-24 15:00:00,18,1022.5,0,56,9,500,22.224,,,300,,,,,,,,,,,wg-a,,,,AAXX 24154 07005 12500 73012 10180 20090 30134 40225 50000 60006 81102 91500=
07005,1998-07-24 18:00:00,18,1022.8,0.3,64,11,500,18.52,,,320,13,19.5,,,,,,,,,wg-a,,,,AAXX 24184 07005 12500 /3210 10180 20110 30137 40228 53003 60006 81101 91800 333 10195 20130=
07005,1998-07-25 00:00:00,11,1024,-0.1,94,10,0,7.408,,,290,,,,,,,,,,,wg-a,,,,AAXX 25004 07005 12/// /2904 10110 20100 30146 40240 58001 60006 90000=
07005,1998-07-25 06:00:00,11,1023.6,0.2,94,10,20000,3.704,,,130,9.5,18.1,,,,,,,,,wg-a,,,,AAXX 25064 07005 02170 /1302 10110 20100 30142 40236 53002 60006 81601 90600 333 10181 20095 60004=
07005,1998-07-25 09:00:00,18,1024,0.6,77,14,18000,3.704,,,90,,,,,,,,,,,wg-a,,,,AAXX 25094 07005 12268 40902 10180 20140 30148 40240 50006 60006 83101 90900=
07005,1998-07-25 12:00:00,20,1023.2,-0.7,53,10,35000,3.704,,,290,,,,,,,,,,,wg-a,,,,AAXX 25124 07005 12481 /2902 10200 20100 30141 40232 58007 60006 84231 91200=
07005,1998-07-25 15:00:00,21,1022.1,-1,49,10,35000,7.408,,,350,,,,,,,,,,,wg-a,,,,AAXX 25154 07005 12581 73504 10210 20100 30131 40221 57010 60006 81107 91500=
07005,1998-07-25 18:00:00,19,1021.3,-0.9,64,12,0,14.816,,,40,11,21.1,,,,,,,,,wg-a,,,,AAXX 25184 07005 12/// /0408 10190 20120 30122 40213 56009 60006 91800 333 10211 20110=
07005,1998-07-26 00:00:00,14,1020.4,-0.8,77,10,0,7.408,,,110,,,,,,,,,,,wg-a,,,,AAXX 26004 07005 12/// /1104 10140 20100 30111 40204 57008 60006 90000=
07005,1998-07-26 06:00:00,13,1017.8,-1,88,11,8000,11.112,,,150,11.6,18.7,,,,,,,,,wg-a,,,,AAXX 26064 07005 02/58 41506 10130 20110 30086 40178 56010 60006 83051 90600 333 10187 20116 60004=
07005,1998-07-26 09:00:00,19,1016.7,-0.9,60,11,20000,14.816,,,170,,,,,,,,,,,wg-a,,,,AAXX 26094 07005 12/70 71708 10190 20110 30077 40167 58009 60006 80001 90900=
07005,1998-07-26 12:00:00,23,1015.3,-1.3,41,9,40000,7.408,,,230,,,,,,,,,,,wg-a,,,,AAXX 26124 07005 12682 72304 10230 20090 30064 40153 58013 60006 8217/ 91200=
07005,1998-07-26 15:00:00,23,1014.4,-0.9,47,11,40000,3.704,,,310,,,,,,,,,,,wg-a,,,,AAXX 26154 07005 12682 83102 10230 20110 30055 40144 57009 60006 8117/ 91500=
07005,1998-07-26 18:00:00,19,1013.3,-1.2,68,13,0,11.112,,,340,13.3,23.5,,,,,,,,,wg-a,,,,AAXX 26184 07005 12/// /3406 10190 20130 30043 40133 57012 60006 91800 333 10235 20133=
07005,1998-07-27 00:00:00,14,1012.8,-0.8,82,11,0,7.408,,,130,,,,,,,,,,,wg-a,,,,AAXX 27004 07005 12/// /1304 10140 20110 30036 40128 58008 60006 90000=
07005,1998-07-27 06:00:00,14,1011.5,-0.2,88,12,6000,3.704,,,160,11,19.3,,,,,,,,,wg-a,,,,AAXX 27064 07005 02756 71602 10140 20120 30023 40115 55002 60006 8553/ 90600 333 10193 20110 60004=
07005,1998-07-27 09:00:00,15,1011.6,0.2,94,14,10000,7.408,,,40,,,,2,,,,,,21,wg-a,,,,AAXX 27094 07005 12560 80404 10150 20140 30025 40116 50002 60027 72162 8587/ 90900=
07005,1998-07-27 12:00:00,18,1012.4,0.9,83,15,8000,11.112,,,250,,,,0,,,,,,1,wg-a,,,,AAXX 27124 07005 02458 72506 10180 20150 30034 40124 51009 60036 70162 8587/ 91200 333 60007=
07005,1998-07-27 15:00:00,18,1013,0.6,77,14,15000,18.52,,,300,,,,,,,,,,,wg-a,,,,AAXX 27154 07005 12465 73010 10180 20140 30040 40130 53006 60006 878// 91500=
07005,1998-07-27 18:00:00,17,1013.3,0.2,82,14,15000,18.52,,,280,13.6,19.4,,,,,,,,,wg-a,,,,AAXX 27184 07005 12465 62810 10170 20140 30042 40133 53002 60006 86800 91800 333 10194 20136=
07005,1998-07-28 00:00:00,14,1014.2,-0.2,94,13,0,18.52,,,250,,,,,,,,,,,wg-a,,,,AAXX 28004 07005 12/// /2510 10140 20130 30050 40142 58002 60006 90000=
07005,1998-07-28 06:00:00,15,1013.3,-0,94,14,15000,18.52,,,240,13.1,17.3,,,,,3,,,,wg-a,,,,AAXX 28064 07005 02365 72410 10150 20140 30042 40133 54000 60006 8587/ 90600 333 10173 20131 60034=
07005,1998-07-28 09:00:00,15,1013,-0.3,94,14,20000,14.816,,,230,,,,,,,,,,21,wg-a,,,,AAXX 28094 07005 02470 82308 10150 20140 30039 40130 58003 61000 72162 8687/ 90900 333 ////=
07005,1998-07-28 12:00:00,16,1012.8,-0.2,94,15,4500,18.52,,,250,,,,1,,,,,,10,wg-a,,,,AAXX 28124 07005 02345 82510 10160 20150 30037 40128 56002 60016 71065 877// 91200 333 60017=
07005,1998-07-28 15:00:00,17,1011.7,-1.1,88,15,20000,7.408,,,300,,,,1,,,,,,3,wg-a,,,,AAXX 28154 07005 12370 83004 10170 20150 30026 40117 58011 60017 70352 888// 91500=
07005,1998-07-28 18:00:00,16,1011.2,-0.5,94,15,15000,7.408,,,180,14.7,16.8,,,,,,,,50,wg-a,,,,AAXX 28184 07005 02365 81804 10160 20150 30021 40112 58005 61000 75065 885// 91800 333 10168 20147 6002=
07005,1998-07-29 00:00:00,16,1010.2,-0.2,100,16,0,18.52,,,270,,,,,,,,,,,wg-a,,,,AAXX 29004 07005 12/// /2710 10160 20160 30011 40102 58002 60026 90000=
07005,1998-07-29 06:00:00,16,1009.5,-0.1,94,15,4000,25.928,,,270,15.1,16.1,,,,,,,,10,wg-a,,,,AAXX 29064 07005 02240 82714 10160 20150 30004 40095 55001 61000 71052 877// 90600 333 10161 20151 6006=
07005,1998-07-29 09:00:00,16,1010.2,0.7,88,14,15000,29.632,,,270,,,,,,,,,,,wg-a,,,,AAXX 29094 07005 12265 82716 10160 20140 30011 40102 51007 60006 888// 90900=
07005,1998-07-29 12:00:00,15,1009.6,-0.6,94,14,500,25.928,,,250,,,,2,,,,,,61,wg-a,,,,AAXX 29124 07005 02200 82514 10150 20140 30005 40096 57006 60026 76162 877// 91200 333 60027=
07005,1998-07-29 15:00:00,16,1008.4,-1.2,94,15,6000,22.224,,,220,,,,1,,,,,,60,wg-a,,,,AAXX 29154 07005 12256 82212 10160 20150 39993 40084 58012 60017 76066 877// 91500=
07005,1998-07-29 18:00:00,17,1006.6,-1.7,94,16,8000,25.928,,,250,14.8,16.9,,,,,,,,51,wg-a,,,,AAXX 29184 07005 02158 82514 10170 20160 39976 40066 56017 61000 75165 877// 91800 333 10169 20148 6000=
07005,1998-07-30 00:00:00,15,1008.8,0.3,94,14,0,25.928,,,260,,,,,,,,,,,wg-a,,,,AAXX 30004 07005 12/// /2614 10150 20140 39997 40088 51003 60016 90000=
07005,1998-07-30 06:00:00,14,1008.8,0.4,88,12,500,14.816,,,230,13.8,16.9,,,,,4,,,,wg-a,,,,AAXX 30064 07005 12400 62308 10140 20120 39997 40088 53004 60044 86800 90600 333 10169 20138=
07005,1998-07-30 09:00:00,17,1009.2,0.4,68,11,35000,35.188,,,260,,,,,,,,,,1,wg-a,,,,AAXX 30094 07005 02481 /2619 10170 20110 30001 40092 53004 61000 70186 84230 90900 333 ////=
07005,1998-07-30 12:00:00,17,1009.8,0.7,68,11,35000,38.892,,,270,,,,,,,,,,2,wg-a,,,,AAXX 30124 07005 02481 42721 10170 20110 30008 40098 52007 61000 70286 84200 91200 333 ////=
07005,1998-07-30 15:00:00,18,1010.2,0.4,64,11,35000,50.004,,,260,,,,0,,,,,,,wg-a,,,,AAXX 30154 07005 12481 32627 10180 20110 30012 40102 51004 60007 83100 91500=
07005,1998-07-30 18:00:00,17,1010.6,0.3,72,12,35000,42.596,,,260,14.2,18.6,,,,,,,,,wg-a,,,,AAXX 30184 07005 12481 22623 10170 20120 30015 40106 52003 60006 82100 91800 333 10186 20142=
07005,1998-07-31 00:00:00,14,1012,0.3,88,12,0,18.52,,,240,,,,,,,,,,,wg-a,,,,AAXX 31004 07005 12/// /2410 10140 20120 30028 40120 51003 60006 90000=
07005,1998-07-31 06:00:00,15,1013.1,0.9,94,14,20000,14.816,,,230,14,16.8,,,,,,,,25,wg-a,,,,AAXX 31064 07005 02470 72308 10150 20140 30040 40131 53009 61000 72586 878// 90600 333 10168 20140 6000=
07005,1998-07-31 09:00:00,18,1014.5,1.4,73,13,20000,25.928,,,260,,,,,,,,,,1,wg-a,,,,AAXX 31094 07005 02570 /2614 10180 20130 30054 40145 51014 61000 70186 85201 90900 333 ////=
07005,1998-07-31 12:00:00,19,1015.6,1.2,68,13,20000,29.632,,,280,,,,,,,,,,2,wg-a,,,,AAXX 31124 07005 02570 52816 10190 20130 30066 40156 51012 61000 70286 85200 91200 333 ////=
07005,1998-07-31 15:00:00,19,1016.4,0.8,73,14,20000,25.928,,,280,,,,,,,,,,,wg-a,,,,AAXX 31154 07005 12570 32814 10190 20140 30074 40164 53008 60006 83200 91500=
07005,1998-07-31 18:00:00,17,1016.9,0.4,82,14,500,18.52,,,300,14.8,19.8,,,,,,,,,wg-a,,,,AAXX 31184 07005 32500 13010 10170 20140 30078 40169 52004 81201 91800 333 10198 20148=
07005,1998-08-01 00:00:00,12,1017.8,0.1,94,11,0,7.408,,,200,,,,,,,,,,,wg-a,,,,AAXX 01004 07005 12/// /2004 10120 20110 30085 40178 51001 60006 90000=
07005,1998-08-01 06:00:00,11,1017.3,0.2,94,10,3000,7.408,,,130,9.6,17.3,,,,,1,,,,wg-a,,,,AAXX 01064 07005 02/30 /1304 10110 20100 30080 40173 53002 60006 90600 333 10173 20096 60014=
07005,1998-08-01 09:00:00,18,1017.2,0.1,73,13,11000,3.704,,,270,,,,,,,,,,,wg-a,,,,AAXX 01094 07005 12/61 /2702 10180 20130 30081 40172 50001 60006 90900=
07005,1998-08-01 12:00:00,20,1016.8,-0.3,64,13,500,14.816,,,340,,,,,,,,,,,wg-a,,,,AAXX 01124 07005 12500 /3408 10200 20130 30078 40168 58003 60006 85202 91200=
07005,1998-08-01 15:00:00,21,1016.2,-0.6,60,13,500,22.224,,,290,,,,,,,,,,,wg-a,,,,AAXX 01154 07005 12500 62912 10210 20130 30072 40162 57006 60006 83332 91500=
07005,1998-08-01 18:00:00,18,1017.6,1.3,68,12,0,7.408,,,130,10.8,21.4,,,,,,,,,wg-a,,,,AAXX 01184 07005 12/// /1304 10180 20120 30085 40176 52013 60006 91800 333 10214 20108=
07005,1998-08-02 00:00:00,13,1019,0.3,94,12,0,0,,,0,,,,,,,,,,,wg-a,,,,AAXX 02004 07005 12/// /0000 10130 20120 30098 40190 51003 60006 90000=
07005,1998-08-02 06:00:00,14,1020.2,1,100,14,4000,14.816,,,30,12.5,17.6,,,,,,,,10,wg-a,,,,AAXX 02064 07005 02240 70308 10140 20140 30110 40202 53010 60006 71022 875// 90600 333 10176 20125 60004=
07005,1998-08-02 09:00:00,17,1021,0.9,82,14,15000,25.928,,,60,,,,,,,,,,,wg-a,,,,AAXX 02094 07005 12565 70614 10170 20140 30119 40210 50009 60006 872// 90900=
07005,1998-08-02 12:00:00,19,1021.1,0.1,68,13,15000,14.816,,,40,,,,,,,,,,,wg-a,,,,AAXX 02124 07005 12565 /0408 10190 20130 30120 40211 50001 60006 86202 91200=
07005,1998-08-02 15:00:00,19,1021.2,0.1,68,13,15000,11.112,,,50,,,,,,,,,,80,wg-a,,,,AAXX 02154 07005 02565 70506 10190 20130 30121 40212 53001 61000 78086 878// 91500 333 ////=
07005,1998-08-02 18:00:00,18,1022.1,0.9,77,14,0,18.52,,,70,14.4,20.4,,,,,,,,,wg-a,,,,AAXX 02184 07005 32/// /0710 10180 20140 30130 40221 53009 91800 333 10204 20144=
07005,1998-08-03 00:00:00,12,1023.8,0.1,94,11,0,7.408,,,10,,,,,,,,,,,wg-a,,,,AAXX 03004 07005 12/// /0104 10120 20110 30145 40238 51001 60006 90000=
07005,1998-08-03 06:00:00,12,1024.5,0.6,94,11,2000,3.704,,,190,9.5,18,,,,,2,,,10,wg-a,,,,AAXX 03064 07005 02/20 31902 10120 20110 30151 40245 50006 60006 71040 80002 90600 333 10180 20095 60024=
07005,1998-08-03 12:00:00,21,1023.2,-1.2,60,13,500,14.816,,,280,,,,,,,,,,,wg-a,,,,AAXX 03124 07005 12500 32808 10210 20130 30142 40232 56012 60006 82102 91200=
07005,1998-08-03 15:00:00,21,1022.3,-1,53,11,500,25.928,,,290,,,,,,,,,,,wg-a,,,,AAXX 03154 07005 12600 42914 10210 20110 30132 40223 58010 60006 81131 91500=
07005,1998-08-03 18:00:00,19,1022.1,-0.2,68,13,500,29.632,,,270,11.5,21.7,,,,,,,,,wg-a,,,,AAXX 03184 07005 12/00 72716 10190 20130 30130 40221 58002 60006 8707/ 91800 333 10217 20115=
07005,1998-08-04 00:00:00,19,1021.4,-0.3,73,14,0,14.816,,,250,,,,,,,,,,,wg-a,,,,AAXX 04004 07005 12/// /2508 10190 20140 30123 40214 58003 60006 90000=
07005,1998-08-04 06:00:00,17,1022,0.8,94,16,2000,18.52,,,290,16.4,19,,,,,,,,10,wg-a,,,,AAXX 04064 07005 02220 82910 10170 20160 30128 40220 53008 61000 71065 887// 90600 333 10190 20164 6003=
07005,1998-08-04 09:00:00,18,1024.3,2.4,88,16,15000,18.52,,,360,,,,0,,,,,,1,wg-a,,,,AAXX 04094 07005 12465 73610 10180 20160 30152 40243 53024 60007 70165 872// 90900=
07005,1998-08-04 12:00:00,20,1026.3,2,64,13,25000,22.224,,,310,,,,,,,,,,1,wg-a,,,,AAXX 04124 07005 12575 /3112 10200 20130 30172 40263 53020 60016 70165 85200 91200=
07005,1998-08-04 15:00:00,19,1027.5,1.2,60,11,11000,22.224,,,300,,,,,,,,,,,wg-a,,,,AAXX 04154 07005 12/61 /3012 10190 20110 30184 40275 51012 60006 91500=
07005,1998-08-04 18:00:00,18,1028.5,0.9,68,12,25000,18.52,,,290,16.7,19.8,,,,,,,,,wg-a,,,,AAXX 04184 07005 12675 /2910 10180 20120 30193 40285 53009 60006 81100 91800 333 10198 20167=
07005,1998-08-05 00:00:00,13,1030.1,0,94,12,0,11.112,,,260,,,,,,,,,,,wg-a,,,,AAXX 05004 07005 12/// /2606 10130 20120 30207 40301 50000 60006 90000=
07005,1998-08-05 06:00:00,14,1030.1,0.5,94,13,10000,7.408,,,220,11.7,17.8,,0,,,1,,,,wg-a,,,,AAXX 05064 07005 02/60 12204 10140 20130 30208 40301 52005 60014 80002 90600 333 10178 20117 60007=
07005,1998-08-05 09:00:00,19,1031.2,1.2,78,15,15000,14.816,,,280,,,,,,,,,,,wg-a,,,,AAXX 05094 07005 12565 22808 10190 20150 30220 40312 51012 60006 81102 90900=
07005,1998-08-05 12:00:00,21,1030.8,,64,14,20000,18.52,,,290,,,,,,,,,,,wg-a,,,,AAXX 05124 07005 12670 /2910 10210 20140 30217 40308 60006 81101 91200=
07005,1998-08-05 15:00:00,21,1030.3,-0.5,64,14,40000,18.52,,,290,,,,,,,,,,,wg-a,,,,AAXX 05154 07005 12682 /2910 10210 20140 30212 40303 57005 60006 81101 91500=
07005,1998-08-05 18:00:00,19,1029.8,-0.6,52,9,50000,22.224,,,300,13.6,21.8,,,,,,,,,wg-a,,,,AAXX 05184 07005 12684 /3012 10190 20090 30206 40298 56006 60006 81101 91800 333 10218 20136=
07005,1998-08-06 00:00:00,11,1029,-1,94,10,0,11.112,,,250,,,,,,,,,,,wg-a,,,,AAXX 06004 07005 12/// /2506 10110 20100 30196 40290 58010 60006 90000=
07005,1998-08-06 06:00:00,12,1027.9,-0.3,100,12,6000,7.408,,,210,10.3,18.8,,,,,,,,,wg-a,,,,AAXX 06064 07005 12/56 02104 10120 20120 30185 40279 55003 60006 80000 90600 333 10188 20103=
07005,1998-08-06 09:00:00,19,1027.8,0.2,73,14,500,14.816,,,280,,,,,,,,,,,wg-a,,,,AAXX 06094 07005 12400 /2808 10190 20140 30187 40278 53002 60006 81100 90900=
07005,1998-08-06 12:00:00,21,1027.1,-0.7,56,12,40000,22.224,,,290,,,,,,,,,,,wg-a,,,,AAXX 06124 07005 12582 22912 10210 20120 30180 40271 56007 60006 81102 91200=
07005,1998-08-06 15:00:00,20,1026.1,-1,60,12,40000,22.224,,,290,,,,,,,,,,,wg-a,,,,AAXX 06154 07005 12/82 22912 10200 20120 30170 40261 56010 60006 80002 91500=
07005,1998-08-06 18:00:00,19,1025.2,-0.9,64,12,40000,14.816,,,280,12.4,21.5,,,,,,,,,wg-a,,,,AAXX 06184 07005 12/82 12808 10190 20120 30161 40252 58009 60006 80002 91800 333 10215 20124=
07005,1998-08-07 00:00:00,13,1025,-0.5,100,13,0,7.408,,,260,,,,,,,,,,,wg-a,,,,AAXX 07004 07005 12/// /2604 10130 20130 30157 40250 56005 60006 90000=
07005,1998-08-07 06:00:00,14,1024.2,0.2,94,13,3000,7.408,,,210,12.3,18.5,,,,,,,,10,wg-a,,,,AAXX 07064 07005 02330 82104 10140 20130 30149 40242 51002 60006 71011 886// 90600 333 10185 20123 60004=
07005,1998-08-07 09:00:00,19,1024.4,0.4,88,17,500,3.704,,,260,,,,,,,,,,,wg-a,,,,AAXX 07094 07005 12400 /2602 10190 20170 30153 40244 52004 60006 84100 90900=
07005,1998-08-07 12:00:00,24,1023.7,-0.6,61,16,15000,14.816,,,300,,,,,,,,,,,wg-a,,,,AAXX 07124 07005 12/65 13008 10240 20160 30147 40237 58006 60006 80001 91200=
07005,1998-08-07 15:00:00,24,1022.7,-0.9,57,15,500,22.224,,,300,,,,,,,,,,,wg-a,,,,AAXX 07154 07005 12/00 13012 10240 20150 30138 40227 56009 60006 80001 91500=
07005,1998-08-07 18:00:00,22,1022,-0.8,53,12,40000,14.816,,,310,13.9,24.7,,,,,,,,,wg-a,,,,AAXX 07184 07005 12/82 13108 10220 20120 30130 40220 56008 60006 80001 91800 333 10247 20139=
07005,1998-08-08 00:00:00,14,1021.5,-0.8,94,13,0,3.704,,,100,,,,,,,,,,,wg-a,,,,AAXX 08004 07005 12/// /1002 10140 20130 30122 40215 58008 60006 90000=
07005,1998-08-08 09:00:00,24,1019,-0.5,57,15,500,3.704,,,360,,,,,,,,,,,wg-a,,,,AAXX 08094 07005 12/00 03602 10240 20150 30101 40190 58005 60006 80000 90900=
07005,1998-08-08 12:00:00,29,1017.8,-1,43,15,500,3.704,,,50,,,,,,,,,,,wg-a,,,,AAXX 08124 07005 12/00 00502 10290 20150 30091 40178 58010 60006 80000 91200=
07005,1998-08-08 15:00:00,31,1016.2,-1.6,38,15,500,11.112,,,40,,,,,,,,,,,wg-a,,,,AAXX 08154 07005 12/00 00406 10310 20150 30075 40162 58016 60006 80000 91500=
07005,1998-08-08 18:00:00,28,1015.8,-0.5,55,18,0,18.52,,,360,13.9,30.9,,,,,,,,,wg-a,,,,AAXX 08184 07005 12/// /3610 10280 20180 30070 40158 56005 60006 91800 333 10309 20139=
07005,1998-08-09 00:00:00,19,1017.5,0.4,60,11,0,25.928,,,70,,,,,,,,,,,wg-a,,,,AAXX 09004 07005 12/// /0714 10190 20110 30084 40175 53004 60006 90000=
07005,1998-08-09 06:00:00,18,1017.9,-0,77,14,12000,22.224,,,80,15.5,27.5,,,,,,,,,wg-a,,,,AAXX 09064 07005 02/62 00812 10180 20140 30088 40179 55000 60006 80000 90600 333 10275 20155 60004=
07005,1998-08-09 09:00:00,24,1017.6,-0.1,57,15,500,29.632,,,80,,,,,,,,,,,wg-a,,,,AAXX 09094 07005 12/00 00816 10240 20150 30087 40176 55001 60006 80000 90900=
07005,1998-08-09 12:00:00,28,1017.2,-0.3,48,16,500,29.632,,,70,,,,,,,,,,,wg-a,,,,AAXX 09124 07005 12/00 00716 10280 20160 30084 40172 58003 60006 80000 91200=
07005,1998-08-09 15:00:00,29,1016,-1.1,45,16,500,29.632,,,60,,,,,,,,,,,wg-a,,,,AAXX 09154 07005 12/00 00616 10290 20160 30073 40160 58011 60006 80000 91500=
07005,1998-08-09 18:00:00,26,1015.2,-0.9,54,16,0,25.928,,,60,18,28.8,,,,,,,,,wg-a,,,,AAXX 09184 07005 12/// /0614 10260 20160 30064 40152 57009 60006 91800 333 10288 20180=
07005,1998-08-10 00:00:00,19,1015.6,-0.4,83,16,0,14.816,,,100,,,,,,,,,,,wg-a,,,,AAXX 10004 07005 12/// /1008 10190 20160 30066 40156 58004 60006 90000=
07005,1998-08-10 06:00:00,18,1015,0.2,88,16,4000,3.704,,,170,16.8,26.2,,,,,,,,10,wg-a,,,,AAXX 10064 07005 02/40 01702 10180 20160 30059 40150 53002 60006 71000 80000 90600 333 10262 20168 60004=
07005,1998-08-10 09:00:00,25,1015.3,0.6,69,19,8000,7.408,,,250,,,,,,,,,,,wg-a,,,,AAXX 10094 07005 12/58 02504 10250 20190 30065 40153 51006 60006 80000 90900=
07005,1998-08-10 12:00:00,29,1015.6,0.4,52,18,12000,18.52,,,310,,,,,,,,,,,wg-a,,,,AAXX 10124 07005 12/62 23110 10290 20180 30069 40156 53004 60006 80001 91200=
07005,1998-08-10 15:00:00,28,1015.9,0.2,51,17,500,18.52,,,290,,,,,,,,,,,wg-a,,,,AAXX 10154 07005 12/00 32910 10280 20170 30071 40159 50002 60006 80001 91500=
07005,1998-08-11 06:00:00,17,1017.8,0.5,88,15,500,7.408,,,190,15.2,25.5,,,,,,,,,wg-a,,,,AAXX 11064 07005 02/00 21904 10170 20150 30087 40178 51005 60006 80002 90600 333 10255 20152 60004=
07005,1998-08-11 09:00:00,24,1018.2,0.6,65,17,10000,11.112,,,340,,,,,,,,,,,wg-a,,,,AAXX 11094 07005 12/60 43406 10240 20170 30093 40182 51006 60006 80001 90900=
07005,1998-08-11 12:00:00,28,1017.5,-0.6,42,14,20000,11.112,,,350,,,,,,,,,,,wg-a,,,,AAXX 11124 07005 12/70 43506 10280 20140 30087 40175 58006 60006 80001 91200=
07005,1998-08-11 18:00:00,23,1016.9,-0.3,69,17,10000,18.52,,,310,16.6,29.4,,,,,,,,,wg-a,,,,AAXX 11184 07005 12/60 53110 10230 20170 30080 40169 58003 60006 80002 91800 333 10294 20166=
07005,1998-08-12 00:00:00,16,1017.7,-0.1,94,15,0,11.112,,,290,,,,,,,,,,,wg-a,,,,AAXX 12004 07005 12/// /2906 10160 20150 30085 40177 58001 60006 90000=
07005,1998-08-12 06:00:00,17,1016.4,-0,88,15,10000,14.816,,,280,14.9,22.6,,,,,,,,,wg-a,,,,AAXX 12064 07005 02/60 52808 10170 20150 30073 40164 55000 60006 82082 90600 333 10226 20149 60004=
07005,1998-08-12 09:00:00,21,1017,0.7,73,16,40000,18.52,,,300,,,,,,,,,,,wg-a,,,,AAXX 12094 07005 12/82 33010 10210 20160 30080 40170 51007 60006 80002 90900=
07005,1998-08-12 12:00:00,20,1017.9,0.9,73,15,0,25.928,,,290,,,,,,,,,,,wg-a,,,,AAXX 12124 07005 12/// /2914 10200 20150 30089 40179 50009 60006 91200=
07005,1998-08-12 18:00:00,18,1017.7,-0.1,73,13,25000,25.928,,,280,16.6,21.8,,,,,,,,,wg-a,,,,AAXX 12184 07005 12575 22814 10180 20130 30086 40177 57001 60006 81101 91800 333 10218 20166=
07005,1998-08-13 00:00:00,14,1018.5,-0.1,88,12,0,11.112,,,270,,,,,,,,,,,wg-a,,,,AAXX 13004 07005 12/// /2706 10140 20120 30093 40185 55001 60006 90000=
07005,1998-08-13 06:00:00,13,1019.4,0.2,88,11,25000,11.112,,,320,11.8,17.9,,,,,,,,,wg-a,,,,AAXX 13064 07005 02/75 13206 10130 20110 30101 40194 53002 60006 80002 90600 333 10179 20118 60004=
07005,1998-08-13 09:00:00,17,1019.8,0.6,68,11,500,18.52,,,290,,,,,,,,,,,wg-a,,,,AAXX 13094 07005 12500 72910 10170 20110 30107 40198 51006 60006 82202 90900=
07005,1998-08-13 12:00:00,19,1019.6,-0.2,49,8,500,25.928,,,290,,,,,,,,,,,wg-a,,,,AAXX 13124 07005 12500 /2914 10190 20080 30105 40196 58002 60006 83202 91200=
07005,1998-08-13 15:00:00,19,1019.6,0,56,10,35000,29.632,,,290,,,,,,,,,,,wg-a,,,,AAXX 13154 07005 12681 62916 10190 20100 30105 40196 50000 60006 82232 91500=
07005,1998-08-13 18:00:00,17,1018.4,-1.2,68,11,35000,22.224,,,280,12.8,19.8,,,,,,,,,wg-a,,,,AAXX 13184 07005 12681 52812 10170 20110 30093 40184 56012 60006 81132 91800 333 10198 20128=
07005,1998-08-14 00:00:00,14,1018.3,-0,88,12,0,11.112,,,220,,,,,,,,,,,wg-a,,,,AAXX 14004 07005 12/// /2206 10140 20120 30091 40183 54000 60006 90000=
07005,1998-08-14 06:00:00,14,1016.9,-0.2,94,13,20000,11.112,,,230,13.3,16.8,,,,,,,,,wg-a,,,,AAXX 14064 07005 02570 32306 10140 20130 30077 40169 56002 60006 82502 90600 333 10168 20133 60004=
07005,1998-08-14 09:00:00,19,1016.3,-0.4,73,14,35000,14.816,,,250,,,,,,,,,,,wg-a,,,,AAXX 14094 07005 12581 /2508 10190 20140 30073 40163 58004 60006 81101 90900=
07005,1998-08-14 12:00:00,21,1015.8,-0.5,64,14,11000,18.52,,,300,,,,,,,,,,,wg-a,,,,AAXX 14124 07005 12/61 /3010 10210 20140 30068 40158 56005 60006 91200=
07005,1998-08-14 15:00:00,22,1014.5,-1.2,65,15,40000,18.52,,,310,,,,,,,,,,,wg-a,,,,AAXX 14154 07005 12682 /3110 10220 20150 30056 40145 57012 60006 81142 91500=
07005,1998-08-15 06:00:00,14,1014.6,0.5,88,12,8000,7.408,,,210,12.1,18.8,,,,,,,,,wg-a,,,,AAXX 15064 07005 02/58 32104 10140 20120 30054 40146 53005 60006 83030 90600 333 10188 20121 60004=
07005,1998-08-15 09:00:00,19,1015.8,1.4,78,15,25000,14.816,,,300,,,,,,,,,,,wg-a,,,,AAXX 15094 07005 12275 /3008 10190 20150 30068 40158 52014 60006 82104 90900=
07005,1998-08-15 12:00:00,22,1016.5,0.7,65,15,15000,18.52,,,280,,,,,,,,,,,wg-a,,,,AAXX 15124 07005 12465 32810 10220 20150 30075 40165 52007 60006 81101 91200=
07005,1998-08-15 15:00:00,21,1017.5,1,73,16,20000,18.52,,,310,,,,,,,,,,,wg-a,,,,AAXX 15154 07005 12470 43110 10210 20160 30085 40175 51010 60006 82101 91500=
07005,1998-08-15 18:00:00,19,1018.6,1,83,16,0,14.816,,,300,13.6,21.9,,,,,,,,,wg-a,,,,AAXX 15184 07005 12/// /3008 10190 20160 30095 40186 51010 60006 91800 333 10219 20136=
07005,1998-08-16 15:00:00,22,1021.4,-1.1,46,10,35000,22.224,,,310,,,,,,,,,,,wg-a,,,,AAXX 16154 07005 12/81 63112 10220 20100 30124 40214 56011 60006 80002 91500=
07005,1998-08-17 00:00:00,12,1020.8,-0.5,94,11,0,7.408,,,230,,,,,,,,,,,wg-a,,,,AAXX 17004 07005 12/// /2304 10120 20110 30115 40208 57005 60006 90000=
07005,1998-08-17 06:00:00,12,1019.6,-0.1,94,11,15000,7.408,,,200,11,19.4,,,,,,,,,wg-a,,,,AAXX 17064 07005 02465 /2004 10120 20110 30103 40196 55001 60006 85132 90600 333 10194 20110 60004=
07005,1998-08-17 09:00:00,19,1019.5,0.1,73,14,20000,22.224,,,260,,,,,,,,,,,wg-a,,,,AAXX 17094 07005 12470 /2612 10190 20140 30104 40195 51001 60006 85232 90900=
07005,1998-08-17 12:00:00,20,1019.3,-0.2,64,13,500,22.224,,,270,,,,,,,,,,,wg-a,,,,AAXX 17124 07005 12500 52712 10200 20130 30102 40193 58002 60006 83232 91200=
07005,1998-08-17 18:00:00,17,1017.9,-1.1,77,13,500,22.224,,,290,12.2,20.2,,,,,,,,,wg-a,,,,AAXX 17184 07005 12500 72912 10170 20130 30088 40179 58011 60006 8117/ 91800 333 10202 20122=
07005,1998-08-18 00:00:00,17,1018.1,-0.1,88,15,0,18.52,,,290,,,,,,,,,,,wg-a,,,,AAXX 18004 07005 12/// /2910 10170 20150 30090 40181 57001 60006 90000=
07005,1998-08-18 06:00:00,17,1018.1,0.4,94,16,7000,11.112,,,300,15.6,17.4,,,,,,,,,wg-a,,,,AAXX 18064 07005 02557 73006 10170 20160 30090 40181 53004 60006 875// 90600 333 10174 20156 60004=
07005,1998-08-18 09:00:00,20,1018.7,0.7,78,16,11000,11.112,,,290,,,,,,,,,,,wg-a,,,,AAXX 18094 07005 12/61 /2906 10200 20160 30097 40187 52007 60006 90900=
07005,1998-08-18 12:00:00,21,1018.7,0,69,15,500,14.816,,,320,,,,,,,,,,,wg-a,,,,AAXX 18124 07005 12500 73208 10210 20150 30097 40187 50000 60006 878// 91200=
07005,1998-08-18 15:00:00,22,1018.9,0.2,65,15,25000,22.224,,,360,,,,,,,,,,,wg-a,,,,AAXX 18154 07005 12575 73612 10220 20150 30099 40189 53002 60006 878// 91500=
07005,1998-08-18 18:00:00,19,1019.6,0.6,68,13,25000,14.816,,,30,16.9,22.7,,,,,,,,,wg-a,,,,AAXX 18184 07005 12575 50308 10190 20130 30105 40196 53006 60006 85800 91800 333 10227 20169=
07005,1998-08-19 00:00:00,13,1021.6,0.5,88,11,0,7.408,,,90,,,,,,,,,,,wg-a,,,,AAXX 19004 07005 12/// /0904 10130 20110 30123 40216 52005 60006 90000=
07005,1998-08-19 06:00:00,12,1021.8,-0.3,94,11,6000,7.408,,,150,10.6,18.7,,0,,,,,,,wg-a,,,,AAXX 19064 07005 02/56 11504 10120 20110 30125 40218 55003 60004 80001 90600 333 10187 20106 60007=
07005,1998-08-19 09:00:00,19,1022.1,0.5,60,11,12000,3.704,,,100,,,,,,,,,,,wg-a,,,,AAXX 19094 07005 12/62 11002 10190 20110 30130 40221 51005 60006 80001 90900=
07005,1998-08-19 12:00:00,21,1021.3,-0.7,53,11,20000,7.408,,,350,,,,,,,,,,,wg-a,,,,AAXX 19124 07005 12670 33504 10210 20110 30123 40213 58007 60006 83200 91200=
07005,1998-08-19 15:00:00,22,1020.4,-0.9,53,12,20000,18.52,,,310,,,,,,,,,,,wg-a,,,,AAXX 19154 07005 12670 /3110 10220 20120 30114 40204 57009 60006 81401 91500=
07005,1998-08-19 18:00:00,20,1020,-0.5,53,10,20000,14.816,,,330,11.7,22,,,,,,,,,wg-a,,,,AAXX 19184 07005 12/70 43308 10200 20100 30109 40200 56005 60006 80001 91800 333 10220 20117=
07005,1998-08-20 00:00:00,13,1019.9,-0.6,88,11,0,7.408,,,240,,,,,,,,,,,wg-a,,,,AAXX 20004 07005 12/// /2404 10130 20110 30106 40199 58006 60006 90000=
07005,1998-08-20 06:00:00,13,1018.5,-0.4,94,12,4500,14.816,,,230,11.4,19.6,,,,,,,,10,wg-a,,,,AAXX 20064 07005 02445 22308 10130 20120 30092 40185 56004 60006 71000 81202 90600 333 10196 20114 60004=
07005,1998-08-20 09:00:00,19,1018.5,0.2,68,13,15000,25.928,,,280,,,,,,,,,,,wg-a,,,,AAXX 20094 07005 12565 22814 10190 20130 30094 40185 53002 60006 82200 90900=
07005,1998-08-20 12:00:00,19,1017.5,-1,68,13,15000,29.632,,,280,,,,,,,,,,,wg-a,,,,AAXX 20124 07005 12565 /2816 10190 20130 30084 40175 58010 60006 84801 91200=
07005,1998-08-20 15:00:00,19,1016.9,-0.5,73,14,40000,29.632,,,280,,,,,,,,,,,wg-a,,,,AAXX 20154 07005 12582 72816 10190 20140 30079 40169 57005 60006 85806 91500=
07005,1998-08-20 18:00:00,17,1015.8,-1.2,68,11,35000,29.632,,,270,12.8,20.3,,,,,,,,,wg-a,,,,AAXX 20184 07005 12581 72716 10170 20110 30067 40158 56012 60006 8687/ 91800 333 10203 20128=
07005,1998-08-21 00:00:00,16,1011.5,-2.9,82,13,0,25.928,,,240,,,,,,,,,,,wg-a,,,,AAXX 21004 07005 12/// /2414 10160 20130 30024 40115 58029 60006 90000=
07005,1998-08-21 06:00:00,15,1005.6,-2.9,94,14,6000,35.188,,,240,14.1,17.1,,,,,,,,51,wg-a,,,,AAXX 21064 07005 02256 82419 10150 20140 39965 40056 56029 61000 75165 877// 90600 333 10171 20141 6001=
07005,1998-08-21 09:00:00,18,1005.3,-0.2,88,16,12000,38.892,,,270,,,,2,,,,,,21,wg-a,,,,AAXX 21094 07005 12262 82721 10180 20160 39963 40053 55002 60027 72165 877// 90900=
07005,1998-08-21 12:00:00,18,1006.5,1.2,88,16,15000,38.892,,59.264,270,,,,0,,,,,,21,wg-a,,,,AAXX 21124 07005 02265 82721 10180 20160 39975 40065 51012 60026 72165 877// 91200 333 60007 91032=
07005,1998-08-21 15:00:00,19,1007.3,0.8,83,16,20000,46.3,,66.672,270,,,,,,,,,,,wg-a,,,,AAXX 21154 07005 12470 72725 10190 20160 39983 40073 51008 60006 878// 91500 333 91036=
07005,1998-08-21 18:00:00,18,1008,0.7,77,14,20000,42.596,,,270,14.6,19.2,,,,,,,,,wg-a,,,,AAXX 21184 07005 32470 42723 10180 20140 39990 40080 53007 84200 91800 333 10192 20146=
07005,1998-08-22 00:00:00,16,1011.4,1.4,72,11,0,29.632,,,290,,,,,,,,,,,wg-a,,,,AAXX 22004 07005 12/// /2916 10160 20110 30023 40114 51014 60006 90000=
07005,1998-08-22 06:00:00,14,1012,-0.2,82,11,500,11.112,,,230,12.8,17.5,,,,,2,,,,wg-a,,,,AAXX 22064 07005 02400 72306 10140 20110 30028 40120 56002 60006 8683/ 90600 333 10175 20128 60024=
07005,1998-08-22 09:00:00,17,1011.9,0,72,12,500,14.816,,,250,,,,,,,,,,,wg-a,,,,AAXX 22094 07005 12400 82508 10170 20120 30028 40119 50000 60006 878// 90900=
07005,1998-08-22 12:00:00,16,1010.9,-1,94,15,20000,22.224,,,280,,,,1,,,,,,21,wg-a,,,,AAXX 22124 07005 02470 82812 10160 20150 30018 40109 55010 60016 72162 888// 91200 333 60017=
07005,1998-08-22 15:00:00,17,1010.7,-0.2,72,12,25000,35.188,,,300,,,,,,,,,,,wg-a,,,,AAXX 22154 07005 12475 73019 10170 20120 30016 40107 55002 60006 85832 91500=
07005,1998-08-22 18:00:00,16,1011.7,1,82,13,0,22.224,,,300,16,17.5,,,,,,,,,wg-a,,,,AAXX 22184 07005 32/// /3012 10160 20130 30026 40117 53010 91800 333 10175 20036=
07005,1998-08-23 00:00:00,12,1016,1.7,94,11,0,11.112,,,240,,,,,,,,,,,wg-a,,,,AAXX 23004 07005 12/// /2406 10120 20110 30067 40160 51017 60006 90000=
07005,1998-08-23 06:00:00,10,1017,0.7,100,10,15000,11.112,,,180,9.8,16.3,,,,,1,,,,wg-a,,,,AAXX 23064 07005 02/65 61806 10100 20100 30077 40170 53007 60006 81032 90600 333 10163 20098 60014=
07005,1998-08-23 09:00:00,16,1017,0.2,82,13,20000,22.224,,,240,,,,,,,,,,,wg-a,,,,AAXX 23094 07005 12470 72412 10160 20130 30079 40170 53002 60006 82232 90900=
07005,1998-08-23 12:00:00,18,1015.8,-1.2,68,12,40000,25.928,,,260,,,,,,,,,,,wg-a,,,,AAXX 23124 07005 12582 72614 10180 20120 30067 40158 58012 60006 8427/ 91200=
07005,1998-08-23 15:00:00,15,1014.1,-1.7,88,13,12000,22.224,,,220,,,,0,,,,,,21,wg-a,,,,AAXX 23154 07005 12462 82212 10150 20130 30050 40141 58017 60007 72162 875// 91500=
07005,1998-08-23 18:00:00,17,1010.6,-3.4,94,16,0,29.632,,,250,10.1,18.2,,,,,,,,,wg-a,,,,AAXX 23184 07005 32/// /2516 10170 20160 30016 40106 56034 91800 333 10182 20101=
07005,1998-08-24 00:00:00,16,1006.8,-1.2,88,14,0,38.892,,,280,,,,11,,,,,,,wg-a,,,,AAXX 24004 07005 02/// /2821 10160 20140 39977 40068 55012 60146 90000 333 60117=
07005,1998-08-24 06:00:00,15,1009.8,2.1,82,12,20000,22.224,,,300,14.3,17.8,,,,,15,,,,wg-a,,,,AAXX 24064 07005 02570 43012 10150 20120 30007 40098 53021 60154 84230 90600 333 10178 20143 61000=
07005,1998-08-24 09:00:00,16,1012,2.2,82,13,25000,31.484,,,300,,,,,,,,,,,wg-a,,,,AAXX 24094 07005 12475 73017 10160 20130 30029 40120 53022 60006 878// 90900=
07005,1998-08-24 12:00:00,18,1014,2,73,13,25000,25.928,,,300,,,,,,,,,,1,wg-a,,,,AAXX 24124 07005 12475 63014 10180 20130 30049 40140 52020 60006 70186 86800 91200=
07005,1998-08-24 15:00:00,18,1016.4,2.4,68,12,25000,22.224,,,330,,,,,,,,,,3,wg-a,,,,AAXX 24154 07005 02475 /3312 10180 20120 30073 40164 51024 61000 70386 86800 91500 333 ////=
07005,1998-08-24 18:00:00,17,1018.3,1.9,77,13,500,11.112,,,340,14.6,18.3,,,,,,,,3,wg-a,,,,AAXX 24184 07005 12400 73406 10170 20130 30092 40183 51019 60006 70386 878// 91800 333 10183 20146=
07005,1998-08-25 00:00:00,13,1021.3,0.9,88,11,0,7.408,,,150,,,,,,,,,,,wg-a,,,,AAXX 25004 07005 12/// /1504 10130 20110 30120 40213 51009 60006 90000=
07005,1998-08-25 06:00:00,11,1021.5,-0,94,10,6000,11.112,,,140,10.6,16.7,,,,,,,,11,wg-a,,,,AAXX 25064 07005 02756 21406 10110 20100 30121 40215 55000 60006 71100 81531 90600 333 10167 20106 60004=
07005,1998-08-25 09:00:00,17,1021.3,0,77,13,20000,11.112,,,210,,,,,,,,,,,wg-a,,,,AAXX 25094 07005 12470 22106 10170 20130 30121 40213 50000 60006 81130 90900=
07005,1998-08-25 12:00:00,19,1021,-0.2,68,13,11000,11.112,,,300,,,,,,,,,,,wg-a,,,,AAXX 25124 07005 12/61 /3006 10190 20130 30119 40210 58002 60006 91200=
07005,1998-08-25 15:00:00,19,1020.1,-0.9,73,14,20000,22.224,,,300,,,,,,,,,,,wg-a,,,,AAXX 25154 07005 12670 33012 10190 20140 30110 40201 58009 60006 83200 91500=
07005,1998-08-25 18:00:00,17,1019,-1.1,72,12,500,14.816,,,270,10.8,20,,,,,,,,,wg-a,,,,AAXX 25184 07005 12/00 12708 10170 20120 30099 40190 58011 60006 81032 91800 333 10200 20108=
07005,1998-08-26 00:00:00,12,1017.9,-1.2,94,11,0,11.112,,,220,,,,,,,,,,,wg-a,,,,AAXX 26004 07005 12/// /2206 10120 20110 30086 40179 57012 60006 90000=
07005,1998-08-26 06:00:00,15,1015.2,-1,94,14,6000,14.816,,,230,12.1,17.2,,,,,,,,20,wg-a,,,,AAXX 26064 07005 02356 72308 10150 20140 30060 40152 55010 61000 72052 875// 90600 333 10172 20121 6000=
07005,1998-08-26 12:00:00,18,1015.2,0.2,88,16,20000,29.632,,,280,,,,0,,,,,,1,wg-a,,,,AAXX 26124 07005 02470 72816 10180 20160 30061 40152 53002 60016 70152 872// 91200 333 60007=
07005,1998-08-26 15:00:00,17,1015.7,0.5,88,15,10000,25.928,,,330,,,,1,,,,,,20,wg-a,,,,AAXX 26154 07005 12360 83314 10170 20150 30066 40157 50005 60017 72065 885// 91500=
07005,1998-08-26 18:00:00,15,1017.5,1.7,88,13,20000,14.816,,,10,14.8,18.8,,,,,,,,1,wg-a,,,,AAXX 26184 07005 12470 70108 10150 20130 30083 40175 51017 60006 70165 878// 91800 333 10188 20148=
07005,1998-08-27 00:00:00,12,1020.8,0.9,88,10,0,7.408,,,330,,,,,,,,,,,wg-a,,,,AAXX 27004 07005 12/// /3304 10120 20100 30115 40208 53009 60006 90000=
07005,1998-08-27 06:00:00,11,1021.7,0.6,82,8,20000,11.112,,,350,10.5,15.4,,,,,1,,,,wg-a,,,,AAXX 27064 07005 02470 /3506 10110 20080 30123 40217 53006 60006 85800 90600 333 10154 20105 60014=
07005,1998-08-27 09:00:00,14,1022.4,0.8,77,10,500,22.224,,,350,,,,,,,,,,,wg-a,,,,AAXX 27094 07005 12500 53512 10140 20100 30131 40224 51008 60006 85800 90900=
07005,1998-08-27 12:00:00,15,1022.6,0.3,55,6,500,25.928,,,350,,,,,,,,,,,wg-a,,,,AAXX 27124 07005 12500 63514 10150 20060 30134 40226 51003 60006 86800 91200=
07005,1998-08-27 18:00:00,14,1023,0.1,63,7,500,14.816,,,20,10.4,16.4,,,,,,,,,wg-a,,,,AAXX 27184 07005 12500 10208 10140 20070 30137 40230 53001 60006 81800 91800 333 10164 20104=
07005,1998-08-28 00:00:00,9,1023.7,-0.6,87,7,0,7.408,,,230,,,,,,,,,,,wg-a,,,,AAXX 28004 07005 12/// /2304 10090 20070 30142 40237 57006 60006 90000=
07005,1998-08-28 06:00:00,9,1023.6,0.4,93,8,15000,7.408,,,340,8.2,13.8,,,,,,,,,wg-a,,,,AAXX 28064 07005 02465 /3404 10090 20080 30142 40236 53004 60006 81231 90600 333 10138 20082 60004=
07005,1998-08-28 09:00:00,15,1024.2,0.8,72,10,20000,18.52,,,20,,,,,,,,,,,wg-a,,,,AAXX 28094 07005 12570 40210 10150 20100 30150 40242 52008 60006 83230 90900=
07005,1998-08-28 12:00:00,16,1023.9,-0.3,55,7,500,22.224,,,360,,,,,,,,,,,wg-a,,,,AAXX 28124 07005 12500 63612 10160 20070 30147 40239 57003 60006 85802 91200=
07005,1998-08-28 15:00:00,16,1023.8,-0.1,55,7,500,25.928,,,350,,,,,,,,,,,wg-a,,,,AAXX 28154 07005 12500 73514 10160 20070 30146 40238 56001 60006 86802 91500=
07005,1998-08-28 18:00:00,14,1023.7,-0.2,72,9,500,11.112,,,330,9.1,16.8,,,,,,,,,wg-a,,,,AAXX 28184 07005 12500 53306 10140 20090 30144 40237 56002 60006 83802 91800 333 10168 20091=
07005,1998-08-29 00:00:00,10,1023.9,-0.4,87,8,0,3.704,,,190,,,,,,,,,,,wg-a,,,,AAXX 29004 07005 12/// /1902 10100 20080 30145 40239 58004 60006 90000=
07005,1998-08-29 06:00:00,12,1022.7,-0.2,88,10,15000,7.408,,,330,9.7,14,,,,,,,,21,wg-a,,,,AAXX 29064 07005 02465 /3304 10120 20100 30134 40227 55002 61000 72162 86800 90600 333 10140 20097 6100=
07005,1998-08-29 09:00:00,17,1023.1,0.5,63,10,20000,7.408,,,20,,,,,,,,,,,wg-a,,,,AAXX 29094 07005 12570 40204 10170 20100 30139 40231 52005 60006 83201 90900=
07005,1998-08-29 12:00:00,17,1022.8,-0.3,59,9,25000,7.408,,,10,,,,,,,,,,,wg-a,,,,AAXX 29124 07005 12575 80104 10170 20090 30136 40228 58003 60006 888// 91200=
07005,1998-08-29 15:00:00,18,1021.5,-1.2,56,9,25000,11.112,,,310,,,,,,,,,,,wg-a,,,,AAXX 29154 07005 12575 73106 10180 20090 30124 40215 57012 60006 878// 91500=
07005,1998-08-29 18:00:00,17,1021.5,-0.1,63,10,0,11.112,,,300,11.6,18.7,,,,,,,,,wg-a,,,,AAXX 29184 07005 12/// /3006 10170 20100 30123 40215 55001 60006 91800 333 10187 20116=
07005,1998-08-30 00:00:00,14,1020.6,-0.8,88,12,0,7.408,,,210,,,,,,,,,,,wg-a,,,,AAXX 30004 07005 12/// /2104 10140 20120 30114 40206 58008 60006 90000=
07005,1998-08-30 06:00:00,14,1020.1,-0.2,94,13,4500,14.816,,,260,14,16.7,,,,,,,,10,wg-a,,,,AAXX 30064 07005 02445 82608 10140 20130 30109 40201 55002 60006 71022 888// 90600 333 10167 20140 60004=
07005,1998-08-30 09:00:00,18,1020.2,0.2,77,14,6000,7.408,,,330,,,,,,,,,,,wg-a,,,,AAXX 30094 07005 12456 83304 10180 20140 30111 40202 51002 60006 888// 90900=
07005,1998-08-30 12:00:00,19,1020.2,0,78,15,15000,11.112,,,360,,,,,,,,,,,wg-a,,,,AAXX 30124 07005 12565 63606 10190 20150 30111 40202 50000 60006 86800 91200=
07005,1998-08-30 15:00:00,20,1019.5,-0.7,68,14,15000,14.816,,,350,,,,,,,,,,,wg-a,,,,AAXX 30154 07005 12565 53508 10200 20140 30104 40195 56007 60006 84801 91500=
07005,1998-08-30 18:00:00,17,1018.9,-0.6,77,13,0,11.112,,,30,14.4,20.2,,,,,,,,,wg-a,,,,AAXX 30184 07005 12/// /0306 10170 20130 30098 40189 58006 60006 91800 333 10202 20144=
07005,1998-08-31 00:00:00,12,1019,-0.3,94,11,0,14.816,,,80,,,,,,,,,,,wg-a,,,,AAXX 31004 07005 12/// /0808 10120 20110 30097 40190 58003 60006 90000=
07005,1998-08-31 06:00:00,10,1017.8,-0.4,100,10,700,11.112,,,100,9.5,17.4,,,,,,,,42,wg-a,,,,AAXX 31064 07005 02/07 01006 10100 20100 30084 40178 56004 60006 74240 80000 90600 333 10174 20095 60004=
07005,1998-08-31 12:00:00,20,1016,-1.2,64,13,12000,18.52,,,110,,,,,,,,,,1,wg-a,,,,AAXX 31124 07005 12562 41110 10200 20130 30070 40160 58012 60006 70141 82102 91200=
07005,1998-08-31 15:00:00,22,1014.4,-1.5,57,13,15000,22.224,,,100,,,,,,,,,,,wg-a,,,,AAXX 31154 07005 12/65 41012 10220 20130 30055 40144 56015 60006 81032 91500=
07005,1998-08-31 18:00:00,19,1013.7,-0.8,64,12,15000,18.52,,,90,10.1,22,,,,,,,,,wg-a,,,,AAXX 31184 07005 12/65 70910 10190 20120 30047 40137 58008 60006 83032 91800 333 10220 20101=
07005,1998-09-01 00:00:00,17,1013.5,-0.6,68,11,0,14.816,,,130,,,,,,,,,,,wg-a,,,,AAXX 01004 07005 12/// /1308 10170 20110 30044 40135 56006 60006 90000=
07005,1998-09-01 06:00:00,16,1011.5,-0.6,77,12,10000,18.52,,,130,15,19.4,,,,,,,,,wg-a,,,,AAXX 01064 07005 02760 81310 10160 20120 30024 40115 56006 60006 8357/ 90600 333 10194 20150 60004=
07005,1998-09-01 09:00:00,16,1011.2,-0.3,77,12,12000,25.928,,,130,,,,,,,,,,60,wg-a,,,,AAXX 01094 07005 02762 71314 10160 20120 30021 40112 58003 61000 76062 8358/ 90900 333 ////=
07005,1998-09-01 12:00:00,24,1010.8,-0.1,54,14,15000,29.632,,,150,,,,,,,,,,2,wg-a,,,,AAXX 01124 07005 02/65 21516 10240 20140 30020 40108 58001 61000 70261 81032 91200 333 6100=
07005,1998-09-01 15:00:00,22,1011,0.1,60,14,15000,22.224,,,290,,,,,,,,,,,wg-a,,,,AAXX 01154 07005 12/65 72912 10220 20140 30021 40110 53001 60006 8707/ 91500=
07005,1998-09-01 18:00:00,18,1012.4,1.3,94,17,15000,22.224,,,300,15.3,27.4,,,,,,,,,wg-a,,,,AAXX 01184 07005 12465 73012 10180 20170 30034 40124 53013 60006 8427/ 91800 333 10274 20153=
07005,1998-09-02 00:00:00,17,1014.5,0.4,94,16,0,11.112,,,210,,,,,,,,,,,wg-a,,,,AAXX 02004 07005 12/// /2106 10170 20160 30054 40145 53004 60006 90000=
07005,1998-09-02 06:00:00,15,1013,-0.5,100,15,6000,7.408,,,70,15.3,18.4,,,,,,,,2,wg-a,,,,AAXX 02064 07005 02/56 70704 10150 20150 30039 40130 58005 60006 70262 8703/ 90600 333 10184 20153 60004=
07005,1998-09-02 09:00:00,17,1013.9,0.9,94,16,6000,3.704,,,160,,,,0,,,,,,21,wg-a,,,,AAXX 02094 07005 12456 81602 10170 20160 30048 40139 50009 60007 72162 8687/ 90900=
07005,1998-09-02 12:00:00,17,1013,-0.9,94,16,6000,11.112,,,50,,,,1,,,,,,1,wg-a,,,,AAXX 02124 07005 02456 80506 10170 20160 30039 40130 58009 60016 70162 8682/ 91200 333 60017=
07005,1998-09-02 15:00:00,18,1011.4,-1.5,94,17,3500,14.816,,,70,,,,3,,,,,,10,wg-a,,,,AAXX 02154 07005 12235 80708 10180 20170 30024 40114 56015 60037 71062 8652/ 91500=
07005,1998-09-02 18:00:00,18,1008.6,-2.8,94,17,2000,29.632,,,80,15.3,18.2,,,,,,,,10,wg-a,,,,AAXX 02184 07005 02120 80816 10180 20170 39996 40086 58028 61000 71062 877// 91800 333 10182 20153 6007=
07005,1998-09-03 00:00:00,18,1007.6,-0.5,100,18,0,7.408,,,150,,,,,,,,,,,wg-a,,,,AAXX 03004 07005 12/// /1504 10180 20180 39986 40076 58005 60086 90000=
07005,1998-09-03 06:00:00,18,1006.4,-0.6,94,17,4000,11.112,,,140,17,18.5,,,,,19,,,10,wg-a,,,,AAXX 03064 07005 02440 81406 10180 20170 39974 40064 56006 60006 71022 875// 90600 333 10185 20170 60194=
07005,1998-09-03 09:00:00,18,1007.6,1.2,88,16,500,25.928,,,310,,,,,,,,,,,wg-a,,,,AAXX 03094 07005 12300 83114 10180 20160 39986 40076 53012 60006 888// 90900=
07005,1998-09-03 12:00:00,15,1011.3,3.6,100,15,3500,22.224,,,310,,,,4,,,,,,61,wg-a,,,,AAXX 03124 07005 02235 83112 10150 20150 30022 40113 51036 60046 76162 877// 91200 333 60047=
07005,1998-09-03 15:00:00,18,1012.6,1.4,88,16,4000,22.224,,,290,,,,2,,,,,,10,wg-a,,,,AAXX 03154 07005 12240 82912 10180 20160 30036 40126 51014 60027 71062 876// 91500=
07005,1998-09-03 18:00:00,17,1014,1.3,88,15,2800,18.52,,,280,14.8,18.4,,,,,,,,10,wg-a,,,,AAXX 03184 07005 12228 72810 10170 20150 30049 40140 53013 60006 71062 878// 91800 333 10184 20148=
07005,1998-09-04 00:00:00,14,1014.2,-0.4,94,13,0,7.408,,,180,,,,,,,,,,,wg-a,,,,AAXX 04004 07005 12/// /1804 10140 20130 30050 40142 58004 60006 90000=
07005,1998-09-04 06:00:00,13,1012.2,-0.6,100,13,500,11.112,,,120,13.2,16.6,,,,,6,,,44,wg-a,,,,AAXX 04064 07005 02105 81206 10130 20130 30030 40122 56006 60006 74442 886// 90600 333 10166 20132 60064=
07005,1998-09-04 09:00:00,15,1011,-1.1,94,14,2500,18.52,,,150,,,,,,,,,,10,wg-a,,,,AAXX 04094 07005 12225 71510 10150 20140 30019 40110 58011 60006 71042 84632 90900=
07005,1998-09-04 12:00:00,18,1009,-1.9,83,15,4500,22.224,,,160,,,,,,,,,,10,wg-a,,,,AAXX 04124 07005 02745 81612 10180 20150 30000 40090 56019 61000 71064 8452/ 91200 333 6100=
07005,1998-09-04 15:00:00,17,1006.6,-2.4,88,15,7000,18.52,,,130,,,,1,,,,,,3,wg-a,,,,AAXX 04154 07005 12457 81310 10170 20150 39976 40066 58024 60017 70362 8582/ 91500=
07005,1998-09-04 18:00:00,17,1004,-2.6,88,15,3500,18.52,,,130,13.3,18,,,,,,,,10,wg-a,,,,AAXX 04184 07005 02335 81310 10170 20150 39950 40040 56026 61000 71062 875// 91800 333 10180 20133 6000=
07005,1998-09-05 00:00:00,15,1002,-0.7,100,15,0,14.816,,,230,,,,,,,,,,,wg-a,,,,AAXX 05004 07005 12/// /2308 10150 20150 39930 40020 56007 60076 90000=
07005,1998-09-05 06:00:00,14,1003.4,0.3,94,13,10000,18.52,,,220,13.8,16.8,,,,,15,,,,wg-a,,,,AAXX 05064 07005 02360 52210 10140 20130 39943 40034 52003 60006 85900 90600 333 10168 20138 60154=
07005,1998-09-05 09:00:00,17,1004.4,1.1,88,15,10000,25.928,,,220,,,,0,,,,,,25,wg-a,,,,AAXX 05094 07005 12260 72214 10170 20150 39954 40044 51011 60007 72586 879// 90900=
07005,1998-09-05 12:00:00,19,1005.1,0.8,83,16,15000,31.484,,,260,,,,4,,,,,,25,wg-a,,,,AAXX 05124 07005 02465 72617 10190 20160 39962 40051 51008 60056 72586 872// 91200 333 60047=
07005,1998-09-05 15:00:00,18,1006.3,1.1,83,15,15000,35.188,,53.708,270,,,,,,,,,,2,wg-a,,,,AAXX 05154 07005 02465 72719 10180 20150 39973 40063 52011 61000 70286 872// 91500 333 //// 91029=
07005,1998-09-05 18:00:00,17,1007.2,0.9,82,14,0,31.484,,,270,14.3,18.9,,,,,,,,,wg-a,,,,AAXX 05184 07005 32/// /2717 10170 20140 39982 40072 52009 91800 333 10189 20143=
07005,1998-09-06 00:00:00,16,1009,0.3,94,15,0,31.484,,,280,,,,,,,,,,,wg-a,,,,AAXX 06004 07005 12/// /2817 10160 20150 39999 40090 51003 60016 90000=
07005,1998-09-06 06:00:00,15,1010.4,0.6,94,14,15000,14.816,,,240,14.9,16.8,,,,,5,,,,wg-a,,,,AAXX 06064 07005 12465 72408 10150 20140 30013 40104 53006 60054 878// 90600 333 10168 20149=
07005,1998-09-06 09:00:00,17,1010.6,0.3,88,15,20000,14.816,,,250,,,,,,,,,,25,wg-a,,,,AAXX 06094 07005 02470 72508 10170 20150 30016 40106 53003 61000 72522 878// 90900 333 ////=
07005,1998-09-06 12:00:00,19,1010.1,-0.5,68,13,25000,11.112,,,230,,,,,,,,,,,wg-a,,,,AAXX 06124 07005 12575 72306 10190 20130 30011 40101 58005 60006 8325/ 91200=
07005,1998-09-06 15:00:00,21,1008.8,-1.2,60,13,25000,14.816,,,190,,,,,,,,,,,wg-a,,,,AAXX 06154 07005 12575 71908 10210 20130 39999 40088 56012 60006 81132 91500=
07005,1998-09-06 18:00:00,19,1007.3,-1.6,78,15,0,11.112,,,150,15.3,21,,,,,,,,,wg-a,,,,AAXX 06184 07005 32/// /1506 10190 20150 39983 40073 58016 91800 333 10210 20153=
07005,1998-09-07 00:00:00,17,1005.4,-1.6,82,14,0,14.816,,,140,,,,,,,,,,,wg-a,,,,AAXX 07004 07005 12/// /1408 10170 20140 39964 40054 58016 60006 90000=
07005,1998-09-07 06:00:00,15,1004.2,0.1,94,14,14000,14.816,,,140,14.7,19,,,,,,,,,wg-a,,,,AAXX 07064 07005 02664 71408 10150 20140 39952 40042 53001 60006 8353/ 90600 333 10190 20147 61000=
07005,1998-09-07 09:00:00,18,1004.8,0.6,83,15,20000,14.816,,,160,,,,,,,,,,,wg-a,,,,AAXX 07094 07005 12470 /1608 10180 20150 39958 40048 53006 60006 86800 90900=
07005,1998-09-07 12:00:00,21,1004.4,-0.3,69,15,20000,22.224,,,210,,,,,,,,,,,wg-a,,,,AAXX 07124 07005 12570 72112 10210 20150 39955 40044 58003 60006 85801 91200=
07005,1998-09-07 15:00:00,22,1003.7,-0.6,60,14,20000,14.816,,,210,,,,,,,,,,,wg-a,,,,AAXX 07154 07005 12570 /2108 10220 20140 39949 40037 58006 60006 83801 91500=
07005,1998-09-07 18:00:00,19,1004.2,0.4,78,15,20000,11.112,,,320,15.3,22.5,,,,,,,,,wg-a,,,,AAXX 07184 07005 12570 43206 10190 20150 39953 40042 53004 60006 84900 91800 333 10225 20153=
07005,1998-09-08 00:00:00,15,1005.9,0.1,88,13,0,14.816,,,230,,,,,,,,,,,wg-a,,,,AAXX 08004 07005 12/// /2308 10150 20130 39968 40059 50001 60016 90000=
07005,1998-09-08 06:00:00,16,1005.9,0.5,88,14,15000,18.52,,,200,14.7,18.8,,,,,,,,,wg-a,,,,AAXX 08064 07005 02465 /2010 10160 20140 39969 40059 53005 60006 86800 90600 333 10188 20147 60004=
07005,1998-09-08 12:00:00,17,1004.9,-0.7,94,16,2000,29.632,,,200,,,,1,,,,,,10,wg-a,,,,AAXX 08124 07005 02220 82016 10170 20160 39959 40049 56007 60016 71065 887// 91200 333 60017=
07005,1998-09-08 15:00:00,19,1005.2,0.3,78,15,11000,35.188,,,260,,,,,,,,,,,wg-a,,,,AAXX 08154 07005 32/61 /2619 10190 20150 39962 40052 53003 91500=
07005,1998-09-08 18:00:00,18,1006.2,1,77,14,15000,22.224,,,260,15.8,19.4,,,,,,,,1,wg-a,,,,AAXX 08184 07005 12465 /2612 10180 20140 39972 40062 53010 60006 70165 81800 91800 333 10194 20158=
07005,1998-09-09 00:00:00,17,1004.9,-2,82,14,0,18.52,,,190,,,,,,,,,,,wg-a,,,,AAXX 09004 07005 12/// /1910 10170 20140 39959 40049 58020 60006 90000=
07005,1998-09-09 06:00:00,18,1001.9,-0.8,88,16,10000,29.632,,,190,14.3,18,,,,,,,,21,wg-a,,,,AAXX 09064 07005 02260 81916 10180 20160 39930 40019 57008 61000 72162 877// 90600 333 10180 20143 6004=
07005,1998-09-09 12:00:00,20,1000.8,-1.1,83,17,14000,31.484,,,220,,,,1,,,,,,25,wg-a,,,,AAXX 09124 07005 02464 72217 10200 20170 39919 40008 58011 60016 72586 8583/ 91200 333 60017=
07005,1998-09-09 18:00:00,18,1001.9,1,88,16,15000,14.816,,,210,17.6,22.2,,2,,,,,,3,wg-a,,,,AAXX 09184 07005 02565 32108 10180 20160 39930 40019 51010 60006 70398 83300 91800 333 10222 20176 60027=
07005,1998-09-10 00:00:00,17,1003.2,0.6,82,14,0,29.632,,,240,,,,,,,,,,,wg-a,,,,AAXX 10004 07005 12/// /2416 10170 20140 39942 40032 53006 60006 90000=
07005,1998-09-10 06:00:00,15,1003.8,0.3,88,13,20000,25.928,,,210,14.6,18.2,,,,,7,,,,wg-a,,,,AAXX 10064 07005 02570 42114 10150 20130 39947 40038 53003 60006 82802 90600 333 10182 20146 60074=
07005,1998-09-10 12:00:00,20,1003.5,-0.6,64,13,25000,38.892,,,220,,,,,,,,,,,wg-a,,,,AAXX 10124 07005 12575 72221 10200 20130 39946 40035 58006 60006 878// 91200=
07005,1998-09-10 18:00:00,16,1005.4,1.2,82,13,20000,25.928,,,260,14.8,20.1,,,,,,,,2,wg-a,,,,AAXX 10184 07005 32570 42614 10160 20130 39964 40054 51012 70286 83202 91800 333 10201 20148=
07005,1998-09-11 00:00:00,13,1006.3,-0.1,94,12,0,18.52,,,220,,,,,,,,,,,wg-a,,,,AAXX 11004 07005 12/// /2210 10130 20120 39972 40063 58001 60006 90000=
07005,1998-09-11 06:00:00,13,1004.2,-0.9,88,11,20000,22.224,,,230,12.2,16,,,,,7,,,,wg-a,,,,AAXX 11064 07005 02470 72312 10130 20110 39951 40042 56009 60006 878// 90600 333 10160 20122 60074=
07005,1998-09-11 09:00:00,15,1004,-0.2,82,12,20000,22.224,,,240,,,,,,,,,,,wg-a,,,,AAXX 11094 07005 12570 62412 10150 20120 39949 40040 56002 60006 84832 90900=
07005,1998-09-11 12:00:00,13,1003,-1,88,11,20000,18.52,,,280,,,,1,,,,,,21,wg-a,,,,AAXX 11124 07005 02470 72810 10130 20110 39939 40030 56010 60016 72162 879// 91200 333 60017=
07005,1998-09-11 18:00:00,13,1000.6,-0.9,88,11,15000,3.704,,,190,12.4,16.6,,0,,,,,,2,wg-a,,,,AAXX 11184 07005 02565 71902 10130 20110 39915 40006 55009 60006 70262 8487/ 91800 333 10166 20124 60007=
07005,1998-09-12 00:00:00,11,1000.6,0,94,10,0,11.112,,,260,,,,,,,,,,,wg-a,,,,AAXX 12004 07005 12/// /2606 10110 20100 39914 40006 50000 60046 90000=
07005,1998-09-12 06:00:00,9,1000.9,0.5,93,8,20000,7.408,,,320,9.1,12.9,,,,,8,,,3,wg-a,,,,AAXX 12064 07005 02570 /3204 10090 20080 39917 40009 53005 60006 70361 81230 90600 333 10129 20091 60084=
07005,1998-09-12 12:00:00,14,997.8,-2.2,67,8,0,14.816,,,240,,,,,,,,,,,wg-a,,,,AAXX 12124 07005 12/// /2408 10140 20080 39888 49978 58022 60006 91200=
07005,1998-09-12 18:00:00,11,997,0.7,76,7,0,18.52,,,320,9.4,15.3,,1,,,,,,,wg-a,,,,AAXX 12184 07005 12/// /3210 10110 20070 39879 49970 53007 60017 91800 333 10153 20094=
07005,1998-09-13 00:00:00,9,995.9,-1.4,87,7,0,11.112,,,220,,,,,,,,,,,wg-a,,,,AAXX 13004 07005 12/// /2206 10090 20070 39867 49959 58014 60036 90000=
07005,1998-09-13 06:00:00,8,992.9,-1.2,100,8,10000,14.816,,,200,8,11.2,,,,,,,,61,wg-a,,,,AAXX 13064 07005 02560 72008 10080 20080 39837 49929 56012 61000 76186 8653/ 90600 333 10112 20080 6023=
07005,1998-09-13 09:00:00,10,995,2.1,93,9,20000,11.112,,,280,,,,7,,,,,,61,wg-a,,,,AAXX 13094 07005 12370 82806 10100 20090 39858 49950 53021 60077 76166 878// 90900=
07005,1998-09-13 12:00:00,12,997,2.1,88,10,500,18.52,,,320,,,,0,,,,,,25,wg-a,,,,AAXX 13124 07005 02500 73210 10120 20100 39879 49970 51021 60076 72586 872// 91200 333 60007=
07005,1998-09-13 15:00:00,13,998.9,1.9,77,9,500,35.188,,,320,,,,1,,,,,,25,wg-a,,,,AAXX 13154 07005 12400 73219 10130 20090 39898 49989 51019 60017 72586 85330 91500=
07005,1998-09-13 18:00:00,12,999.9,1,71,7,0,25.928,,,320,8.1,14.1,,2,,,,,,,wg-a,,,,AAXX 13184 07005 12/// /3214 10120 20070 39908 49999 51010 60027 91800 333 10141 20081=
07005,1998-09-14 00:00:00,11,1000.5,-0.1,71,6,0,25.928,,,320,,,,,,,,,,,wg-a,,,,AAXX 14004 07005 12/// /3214 10110 20060 39913 40005 58001 60006 90000=
07005,1998-09-14 06:00:00,11,1000.5,0.4,76,7,500,29.632,,,310,10.1,12.4,,,,,9,,,,wg-a,,,,AAXX 14064 07005 02400 /3116 10110 20070 39913 40005 53004 60006 85200 90600 333 10124 20101 60094=
07005,1998-09-14 09:00:00,13,1001.5,1.1,67,7,500,38.892,,,310,,,,,,,,,,,wg-a,,,,AAXX 14094 07005 12400 43121 10130 20070 39924 40015 52011 60006 84202 90900=
07005,1998-09-14 12:00:00,14,1002.4,0.9,63,7,500,38.892,,,300,,,,,,,,,,,wg-a,,,,AAXX 14124 07005 12500 63021 10140 20070 39933 40024 53009 60006 86200 91200=
07005,1998-09-14 15:00:00,15,1003.1,0.7,63,8,500,38.892,,,290,,,,,,,,,,,wg-a,,,,AAXX 14154 07005 12500 /2921 10150 20080 39940 40031 51007 60006 85200 91500=
07005,1998-09-14 18:00:00,14,1004.3,1.2,77,10,500,25.928,,,290,11,15.8,,,,,,,,,wg-a,,,,AAXX 14184 07005 12500 /2914 10140 20100 39952 40043 52012 60006 86802 91800 333 10158 20110=
07005,1998-09-15 00:00:00,13,1006.8,1,82,10,0,35.188,,,300,,,,,,,,,,,wg-a,,,,AAXX 15004 07005 12/// /3019 10130 20100 39977 40068 51010 60006 90000=
07005,1998-09-15 06:00:00,12,1008.7,0.9,76,8,20000,18.52,,,290,11.6,14.5,,,,,,,,,wg-a,,,,AAXX 15064 07005 02570 42910 10120 20080 39995 40087 52009 60006 82231 90600 333 10145 20116 60004=
07005,1998-09-15 12:00:00,13,1007.9,-1,94,12,3000,22.224,,,200,,,,,,,,,,10,wg-a,,,,AAXX 15124 07005 02330 82012 10130 20120 39988 40079 58010 61000 71065 877// 91200 333 6100=
07005,1998-09-15 15:00:00,16,1006.1,-1.8,94,15,20000,22.224,,,250,,,,1,,,,,,20,wg-a,,,,AAXX 15154 07005 12270 82512 10160 20150 39970 40061 56018 60017 72052 877// 91500=
07005,1998-09-15 18:00:00,16,1006.8,0.8,94,15,12000,29.632,,,270,8,16.3,,1,,,,,,2,wg-a,,,,AAXX 15184 07005 02262 82716 10160 20150 39978 40068 52008 60006 70265 877// 91800 333 10163 20080 60017=
07005,1998-09-16 00:00:00,15,1007.5,0.1,88,13,0,29.632,,,280,,,,1,,,,,,,wg-a,,,,AAXX 16004 07005 02/// /2816 10150 20130 39984 40075 53001 60016 90000 333 60017=
07005,1998-09-16 12:00:00,15,1010.8,-0.2,63,8,500,35.188,,,280,,,,,,,,,,,wg-a,,,,AAXX 16124 07005 12500 52819 10150 20080 30017 40108 58002 60006 84101 91200=
07005,1998-09-16 18:00:00,15,1009.7,-0.1,77,11,500,38.892,,,290,11.6,16,,,,,,,,,wg-a,,,,AAXX 16184 07005 12500 52921 10150 20110 30006 40097 55001 60006 85200 91800 333 10160 20116=
07005,1998-09-17 00:00:00,13,1011.2,0.9,72,8,0,31.484,,,310,,,,,,,,,,,wg-a,,,,AAXX 17004 07005 12/// /3117 10130 20080 30020 40112 52009 60006 90000=
07005,1998-09-17 06:00:00,9,1014,1.7,93,8,25000,11.112,,,280,8.8,15.2,,,,,,,,,wg-a,,,,AAXX 17064 07005 02475 22806 10090 20080 30047 40140 53017 60006 81801 90600 333 10152 20088 60004=
07005,1998-09-17 12:00:00,16,1017.1,1.1,63,9,25000,22.224,,,290,,,,,,,,,,,wg-a,,,,AAXX 17124 07005 12475 /2912 10160 20090 30079 40171 53011 60006 85201 91200=
07005,1998-09-17 15:00:00,15,1017.9,0.8,72,10,25000,22.224,,,290,,,,,,,,,,,wg-a,,,,AAXX 17154 07005 12575 32912 10150 20100 30087 40179 51008 60006 82231 91500=
07005,1998-09-17 18:00:00,13,1019.2,1.2,82,10,25000,11.112,,,270,9.3,16.5,,,,,,,,,wg-a,,,,AAXX 17184 07005 12675 62706 10130 20100 30099 40192 53012 60006 84501 91800 333 10165 20093=
07005,1998-09-18 00:00:00,10,1021.7,0.8,93,9,0,11.112,,,180,,,,,,,,,,,wg-a,,,,AAXX 18004 07005 12/// /1806 10100 20090 30123 40217 53008 60006 90000=
07005,1998-09-18 06:00:00,9,1022.9,0.7,93,8,8000,7.408,,,160,8.3,13.2,,,,,,,,,wg-a,,,,AAXX 18064 07005 02658 31604 10090 20080 30134 40229 53007 60006 82501 90600 333 10132 20083 60004=
07005,1998-09-18 09:00:00,15,1024.5,1.9,72,10,18000,11.112,,,190,,,,,,,,,,,wg-a,,,,AAXX 18094 07005 12768 21906 10150 20100 30153 40245 51019 60006 81501 90900=
07005,1998-09-18 12:00:00,19,1024.6,0.2,60,11,22000,11.112,,,210,,,,,,,,,,,wg-a,,,,AAXX 18124 07005 12772 62106 10190 20110 30155 40246 50002 60006 86501 91200=
07005,1998-09-18 15:00:00,19,1025.1,0.5,68,13,22000,14.816,,,310,,,,,,,,,,,wg-a,,,,AAXX 18154 07005 12/72 43108 10190 20130 30160 40251 53005 60006 83031 91500=
07005,1998-09-18 18:00:00,16,1026.4,1.2,82,13,13000,3.704,,,340,8.4,19.9,,,,,,,,,wg-a,,,,AAXX 18184 07005 12/63 63402 10160 20130 30172 40264 53012 60006 81031 91800 333 10199 20084=
07005,1998-09-19 00:00:00,12,1028.4,0.6,94,11,0,11.112,,,160,,,,,,,,,,,wg-a,,,,AAXX 19004 07005 12/// /1606 10120 20110 30190 40284 51006 60006 90000=
07005,1998-09-19 06:00:00,11,1029.8,0.8,100,11,2500,7.408,,,140,11.1,15.7,,,,,,,,10,wg-a,,,,AAXX 19064 07005 02725 51404 10110 20110 30204 40298 53008 60006 71022 83502 90600 333 10157 20111 60004=
07005,1998-09-19 09:00:00,16,1031.2,1.5,72,11,10000,3.704,,,150,,,,,,,,,,,wg-a,,,,AAXX 19094 07005 12760 41502 10160 20110 30219 40312 52015 60006 83502 90900=
07005,1998-09-19 12:00:00,21,1031.1,0.1,56,12,15000,7.408,,,310,,,,,,,,,,,wg-a,,,,AAXX 19124 07005 12765 33104 10210 20120 30220 40311 53001 60006 82502 91200=
07005,1998-09-19 15:00:00,22,1030.5,-0.6,57,13,15000,3.704,,,60,,,,,,,,,,,wg-a,,,,AAXX 19154 07005 12765 10602 10220 20130 30214 40305 56006 60006 81500 91500=
07005,1998-09-19 18:00:00,17,1030.9,0.3,77,13,0,11.112,,,20,11.3,22,,,,,,,,,wg-a,,,,AAXX 19184 07005 12/// /0206 10170 20130 30217 40309 53003 60006 91800 333 10220 20113=
07005,1998-09-20 00:00:00,14,1031.7,0.3,100,14,0,14.816,,,50,,,,,,,,,,,wg-a,,,,AAXX 20004 07005 12/// /0508 10140 20140 30224 40317 53003 60006 90000=
07005,1998-09-20 06:00:00,15,1032.4,0.5,94,14,500,11.112,,,60,13.8,16.7,,,,,,,,45,wg-a,,,,AAXX 20064 07005 12/00 90606 10150 20140 30231 40324 53005 60004 74542 89/// 90600 333 10167 20138=
07005,1998-09-20 09:00:00,15,1033.4,1,100,15,3000,14.816,,,70,,,,,,,,,,10,wg-a,,,,AAXX 20094 07005 12230 80708 10150 20150 30241 40334 52010 60006 71042 886// 90900=
07005,1998-09-20 12:00:00,18,1032.8,-0.5,83,15,6000,18.52,,,70,,,,,,,,,,1,wg-a,,,,AAXX 20124 07005 12456 /0710 10180 20150 30236 40328 58005 60006 70142 85200 91200=
07005,1998-09-20 15:00:00,18,1032.1,-0.7,77,14,500,25.928,,,60,,,,,,,,,,,wg-a,,,,AAXX 20154 07005 12400 /0614 10180 20140 30229 40321 56007 60006 86200 91500=
07005,1998-09-20 18:00:00,16,1032.1,-0.1,82,13,0,18.52,,,50,14.5,18.9,,,,,,,,,wg-a,,,,AAXX 20184 07005 12/// /0510 10160 20130 30228 40321 55001 60006 91800 333 10189 20145=
07005,1998-09-21 00:00:00,14,1032.3,-0.1,94,13,0,18.52,,,70,,,,,,,,,,,wg-a,,,,AAXX 21004 07005 12/// /0710 10140 20130 30229 40323 57001 60006 90000=
07005,1998-09-21 06:00:00,12,1032.3,0.4,100,12,200,22.224,,,70,11.5,15.5,,,,,,,,45,wg-a,,,,AAXX 21064 07005 02/02 90712 10120 20120 30229 40323 53004 60006 74541 89/// 90600 333 10155 20115 60004=
07005,1998-09-21 09:00:00,15,1031.8,-0.4,82,12,6000,22.224,,,80,,,,,,,,,,2,wg-a,,,,AAXX 21094 07005 12/56 /0812 10150 20120 30225 40318 58004 60006 70241 80001 90900=
07005,1998-09-21 12:00:00,19,1030.1,-1.6,56,10,10000,22.224,,,80,,,,,,,,,,3,wg-a,,,,AAXX 21124 07005 12/60 70812 10190 20100 30209 40301 58016 60006 70341 80002 91200=
07005,1998-09-21 18:00:00,16,1028.1,-0.3,77,12,10000,14.816,,,60,12,20.2,,,,,,,,,wg-a,,,,AAXX 21184 07005 12/60 10608 10160 20120 30189 40281 55003 60006 80001 91800 333 10202 20120=
07005,1998-09-22 00:00:00,13,1026.9,-0.8,88,11,0,18.52,,,70,,,,,,,,,,,wg-a,,,,AAXX 22004 07005 12/// /0710 10130 20110 30176 40269 57008 60006 90000=
07005,1998-09-22 06:00:00,11,1026,-0.2,87,9,3000,14.816,,,70,10.6,16.3,,0,,,,,,10,wg-a,,,,AAXX 22064 07005 02/30 40708 10110 20090 30166 40260 55002 60004 71000 80001 90600 333 10163 20106 60007=
07005,1998-09-22 09:00:00,16,1025.2,-0.6,72,11,6000,18.52,,,70,,,,,,,,,,,wg-a,,,,AAXX 22094 07005 12/56 /0710 10160 20110 30160 40252 58006 60006 80001 90900=
07005,1998-09-22 12:00:00,19,1022.9,-2.2,68,13,6000,22.224,,,60,,,,,,,,,,,wg-a,,,,AAXX 22124 07005 12556 10612 10190 20130 30138 40229 58022 60006 81100 91200=
07005,1998-09-22 15:00:00,20,1020.8,-2.1,56,11,7000,25.928,,,80,,,,,,,,,,,wg-a,,,,AAXX 22154 07005 12557 /0814 10200 20110 30117 40208 56021 60006 81100 91500=
07005,1998-09-22 18:00:00,16,1020.5,-0.4,77,12,7000,14.816,,,70,10.7,19.9,,,,,,,,,wg-a,,,,AAXX 22184 07005 12757 20708 10160 20120 30113 40205 56004 60006 82500 91800 333 10199 20107=
07005,1998-09-23 00:00:00,11,1020.8,-0.6,82,8,0,22.224,,,80,,,,,,,,,,,wg-a,,,,AAXX 23004 07005 12/// /0812 10110 20080 30115 40208 58006 60006 90000=
07005,1998-09-23 06:00:00,9,1020.7,0.4,87,7,7000,14.816,,,90,9,15.7,,,,,,,,,wg-a,,,,AAXX 23064 07005 02/57 /0908 10090 20070 30113 40207 53004 60006 80001 90600 333 10157 20090 60004=
07005,1998-09-23 09:00:00,14,1020.9,0.4,77,10,12000,18.52,,,120,,,,,,,,,,,wg-a,,,,AAXX 23094 07005 12/62 11210 10140 20100 30117 40209 50004 60006 80001 90900=
07005,1998-09-23 12:00:00,20,1019.8,-0.9,60,12,12000,18.52,,,100,,,,,,,,,,,wg-a,,,,AAXX 23124 07005 12/62 /1010 10200 20120 30108 40198 58009 60006 8//01 91200=
07005,1998-09-23 15:00:00,22,1018.5,-1.3,57,13,12000,22.224,,,120,,,,,,,,,,,wg-a,,,,AAXX 23154 07005 12/62 21212 10220 20130 30095 40185 57013 60006 80001 91500=
07005,1998-09-23 18:00:00,19,1018.2,-0.4,68,13,15000,11.112,,,100,9,22.3,,,,,,,,,wg-a,,,,AAXX 23184 07005 12/65 31006 10190 20130 30091 40182 56004 60006 80002 91800 333 10223 20090=
07005,1998-09-24 00:00:00,14,1017.6,-0.9,88,12,0,11.112,,,120,,,,,,,,,,,wg-a,,,,AAXX 24004 07005 12/// /1206 10140 20120 30084 40176 56009 60006 90000=
07005,1998-09-24 06:00:00,11,1016.2,-0.6,87,9,4000,14.816,,,110,10.5,18.4,,,,,,,,10,wg-a,,,,AAXX 24064 07005 02/40 01108 10110 20090 30069 40162 57006 60006 71000 80000 90600 333 10184 20105 60004=
07005,1998-09-24 12:00:00,21,1014.2,-1.5,60,13,8000,22.224,,,130,,,,,,,,,,,wg-a,,,,AAXX 24124 07005 12/58 21312 10210 20130 30052 40142 58015 60006 81032 91200=
07005,1998-09-24 15:00:00,22,1012.9,-1.2,57,13,14000,22.224,,,140,,,,,,,,,,,wg-a,,,,AAXX 24154 07005 12664 71412 10220 20130 30040 40129 57012 60006 81252 91500=
07005,1998-09-24 18:00:00,20,1012.7,-0.3,64,13,10000,14.816,,,150,10.6,22.9,,,,,,,,,wg-a,,,,AAXX 24184 07005 12760 71508 10200 20130 30037 40127 55003 60006 81532 91800 333 10229 20106=
07005,1998-09-25 00:00:00,15,1012.7,-0.3,82,12,0,14.816,,,140,,,,,,,,,,,wg-a,,,,AAXX 25004 07005 12/// /1408 10150 20120 30036 40127 58003 60006 90000=
07005,1998-09-25 06:00:00,13,1011.8,-0.5,94,12,75000,14.816,,,120,12.8,19.7,,,,,,,,,wg-a,,,,AAXX 25064 07005 02/89 51208 10130 20120 30026 40118 56005 60006 85092 90600 333 10197 20128 60004=
07005,1998-09-25 09:00:00,17,1010.9,-0.7,77,13,8000,18.52,,,140,,,,,,,,,,,wg-a,,,,AAXX 25094 07005 12/58 21410 10170 20130 30019 40109 58007 60006 80002 90900=
07005,1998-09-25 12:00:00,22,1009.1,-1.7,57,13,10000,18.52,,,130,,,,,,,,,,,wg-a,,,,AAXX 25124 07005 12/60 41310 10220 20130 30002 40091 58017 60006 80001 91200=
07005,1998-09-25 15:00:00,23,1007.7,-1.3,50,12,10000,14.816,,,170,,,,,,,,,,,wg-a,,,,AAXX 25154 07005 12560 41708 10230 20120 39989 40077 56013 60006 81131 91500=
07005,1998-09-25 18:00:00,20,1006.9,-0.9,64,13,10000,11.112,,,110,13.4,23.6,,,,,,,,,wg-a,,,,AAXX 25184 07005 12/60 71106 10200 20130 39980 40069 56009 60006 83052 91800 333 10236 20134=
07005,1998-09-26 00:00:00,17,1005.4,-0.9,82,14,0,11.112,,,130,,,,,,,,,,,wg-a,,,,AAXX 26004 07005 12/// /1306 10170 20140 39964 40054 58009 60006 90000=
07005,1998-09-26 06:00:00,14,1002.6,-1.6,94,13,500,18.52,,,120,13.5,19.4,,,,,,,,,wg-a,,,,AAXX 26064 07005 02/00 /1210 10140 20130 39935 40026 56016 60006 82032 90600 333 10194 20135 60004=
07005,1998-09-26 09:00:00,16,1001.4,-1.1,88,14,9000,18.52,,,130,,,,,,,,,,,wg-a,,,,AAXX 26094 07005 12759 81310 10160 20140 39924 40014 58011 60006 8257/ 90900=
07005,1998-09-26 12:00:00,18,1000.3,-1,83,15,10000,14.816,,,140,,,,,,,,,,,wg-a,,,,AAXX 26124 07005 12760 81408 10180 20150 39914 40003 56010 60006 8257/ 91200=
07005,1998-09-26 15:00:00,16,999.5,-0.9,100,16,3000,7.408,,,180,,,,5,,,,,,10,wg-a,,,,AAXX 26154 07005 12230 81804 10160 20160 39905 49995 57009 60057 71062 885// 91500=
07005,1998-09-26 18:00:00,16,999.3,-0.2,94,15,0,11.112,,,170,14,18.2,,,,,,,,,wg-a,,,,AAXX 26184 07005 32/// /1706 10160 20150 39903 49993 55002 91800 333 10182 20140=
07005,1998-09-27 00:00:00,15,998.4,-0.9,94,14,0,14.816,,,140,,,,,,,,,,,wg-a,,,,AAXX 27004 07005 02/// /1408 10150 20140 39894 49984 56009 61000 90000 333 ////=
07005,1998-09-27 06:00:00,12,997.5,-0.3,94,11,500,22.224,,,130,11.7,15.7,,,,,7,,,,wg-a,,,,AAXX 27064 07005 02700 41312 10120 20110 39884 49975 55003 60006 82502 90600 333 10157 20117 60074=
07005,1998-09-27 09:00:00,13,997.5,-0,94,12,20000,11.112,,,120,,,,,,,,,,,wg-a,,,,AAXX 27094 07005 12470 71206 10130 20120 39884 49975 55000 60006 878// 90900=
07005,1998-09-27 12:00:00,16,997.5,0.1,88,14,20000,14.816,,,80,,,,,,,,,,,wg-a,,,,AAXX 27124 07005 12470 70808 10160 20140 39885 49975 50001 60006 878// 91200=
07005,1998-09-27 15:00:00,16,998.1,0.6,88,14,20000,14.816,,,340,,,,,,,,,,,wg-a,,,,AAXX 27154 07005 12470 83408 10160 20140 39891 49981 53006 60006 888// 91500=
07005,1998-09-27 18:00:00,15,999.8,1.7,94,14,0,22.224,,,310,11.5,16.2,,,,,,,,,wg-a,,,,AAXX 27184 07005 12/// /3112 10150 20140 39908 49998 53017 60006 91800 333 10162 20115=
07005,1998-09-28 00:00:00,14,1001.8,0.4,94,13,0,11.112,,,240,,,,,,,,,,,wg-a,,,,AAXX 28004 07005 12/// /2406 10140 20130 39927 40018 51004 60006 90000=
07005,1998-09-28 06:00:00,12,1003.1,1.1,100,12,1800,3.704,,,170,12.3,15,,,,,,,,10,wg-a,,,,AAXX 28064 07005 02518 /1702 10120 20120 39940 40031 53011 60006 71011 86500 90600 333 10150 20123 60004=
07005,1998-09-28 09:00:00,16,1004.2,1.2,94,15,3500,7.408,,,270,,,,,,,,,,10,wg-a,,,,AAXX 28094 07005 12435 72704 10160 20150 39952 40042 51012 60006 71022 878// 90900=
07005,1998-09-28 12:00:00,17,1005,0.8,88,15,8000,11.112,,,300,,,,0,,,,,,25,wg-a,,,,AAXX 28124 07005 02458 73006 10170 20150 39960 40050 51008 60006 72522 878// 91200 333 60007=
07005,1998-09-28 15:00:00,17,1005.2,0.2,88,15,8000,25.928,,,290,,,,,,,,,,,wg-a,,,,AAXX 28154 07005 12558 62914 10170 20150 39962 40052 51002 60006 86800 91500=
07005,1998-09-28 18:00:00,15,1006.6,1.3,94,14,4000,7.408,,,290,12.3,18.2,,,,,,,,10,wg-a,,,,AAXX 28184 07005 12640 /2904 10150 20140 39975 40066 51013 60006 71086 86500 91800 333 10182 20123=
07005,1998-09-29 00:00:00,13,1008.1,-0.1,100,13,0,7.408,,,220,,,,,,,,,,,wg-a,,,,AAXX 29004 07005 12/// /2204 10130 20130 39989 40081 58001 60006 90000=
07005,1998-09-29 06:00:00,13,1007.2,-0.3,100,13,2000,11.112,,,220,13.1,15.4,,,,,,,,10,wg-a,,,,AAXX 29064 07005 02520 42206 10130 20130 39981 40072 56003 60006 71011 84800 90600 333 10154 20131 60004=
07005,1998-09-29 09:00:00,16,1007.1,0,88,14,4000,14.816,,,220,,,,0,,,,,,10,wg-a,,,,AAXX 29094 07005 12440 72208 10160 20140 39981 40071 50000 60007 71011 878// 90900=
07005,1998-09-29 12:00:00,18,1006.3,-0.8,73,13,10000,11.112,,,200,,,,,,,,,,,wg-a,,,,AAXX 29124 07005 12560 72006 10180 20130 39973 40063 56008 60006 878// 91200=
07005,1998-09-29 18:00:00,15,1004,-0.8,82,12,10000,7.408,,,110,13.2,18.7,,,,,,,,,wg-a,,,,AAXX 29184 07005 12760 71104 10150 20120 39949 40040 56008 60006 83532 91800 333 10187 20132=
07005,1998-09-30 00:00:00,15,999.2,-3.1,88,13,0,29.632,,,130,,,,,,,,,,,wg-a,,,,AAXX 30004 07005 12/// /1316 10150 20130 39902 49992 58031 60006 90000=
07005,1998-09-30 06:00:00,14,997.1,-0.2,94,13,20000,11.112,,,190,13.6,15.4,,,,,,,,20,wg-a,,,,AAXX 30064 07005 02370 41906 10140 20130 39881 49971 55002 61000 72065 83502 90600 333 10154 20136 6001=
07005,1998-09-30 12:00:00,18,999,0.6,64,11,25000,29.632,,,200,,,,,,,,,,,wg-a,,,,AAXX 30124 07005 12575 /2016 10180 20110 39901 49990 50006 60006 85200 91200=
07005,1998-09-30 15:00:00,19,998.1,-0.9,56,10,25000,25.928,,,160,,,,,,,,,,,wg-a,,,,AAXX 30154 07005 12575 31614 10190 20100 39892 49981 58009 60006 83830 91500=
07005,1998-09-30 18:00:00,13,999.1,0.8,88,11,12000,25.928,,,150,13.4,18.8,,2,,,,,,25,wg-a,,,,AAXX 30184 07005 12362 71514 10130 20110 39900 49991 53008 60027 72586 8693/ 91800 333 10188 20134=
07005,1998-10-01 00:00:00,13,1000.4,0.4,88,11,0,22.224,,,160,,,,,,,,,,,wg-a,,,,AAXX 01004 07005 12/// /1612 10130 20110 39913 40004 52004 60006 90000=
07005,1998-10-01 06:00:00,12,1002.3,1.2,88,10,15000,22.224,,,130,11.9,14.1,,,,,2,,,,wg-a,,,,AAXX 01064 07005 02465 71312 10120 20100 39932 40023 53012 60006 875// 90600 333 10141 20119 60024=
07005,1998-10-01 12:00:00,16,1003.4,0.3,72,11,20000,25.928,,,130,,,,,,,,,,25,wg-a,,,,AAXX 01124 07005 02470 71314 10160 20110 39944 40034 50003 61000 72586 86802 91200 333 6100=
07005,1998-10-01 18:00:00,14,1004.8,0.8,82,11,20000,14.816,,,80,11.8,16.6,,,,,,,,,wg-a,,,,AAXX 01184 07005 12570 70808 10140 20110 39957 40048 53008 60006 85802 91800 333 10166 20118=
07005,1998-10-02 00:00:00,11,1006.4,0.4,87,9,0,11.112,,,70,,,,,,,,,,,wg-a,,,,AAXX 02004 07005 12/// /0706 10110 20090 39972 40064 53004 60006 90000=
07005,1998-10-02 06:00:00,11,1008.5,1.4,94,10,1200,18.52,,,60,10.3,14.1,,,,,,,,10,wg-a,,,,AAXX 02064 07005 02212 80610 10110 20100 39993 40085 53014 60006 71011 886// 90600 333 10141 20103 61000=
07005,1998-10-02 09:00:00,11,1010,1.5,94,10,2000,18.52,,,30,,,,,,,,,,10,wg-a,,,,AAXX 02094 07005 12220 80310 10110 20100 30008 40100 52015 60006 71022 886// 90900=
07005,1998-10-02 12:00:00,12,1010.3,0.3,88,10,500,18.52,,,30,,,,,,,,,,,wg-a,,,,AAXX 02124 07005 12300 80310 10120 20100 30011 40103 52003 60006 886// 91200=
07005,1998-10-02 15:00:00,12,1010.4,0.1,88,10,500,14.816,,,20,,,,,,,,,,,wg-a,,,,AAXX 02154 07005 12300 80208 10120 20100 30012 40104 52001 60006 886// 91500=
07005,1998-10-02 18:00:00,9,1012,1.5,100,9,1200,14.816,,,40,9.3,12,,,,,,,,10,wg-a,,,,AAXX 02184 07005 02212 80408 10090 20090 30027 40120 53015 61000 71052 886// 91800 333 10120 20093 6000=
07005,1998-10-03 00:00:00,7,1013.4,0.3,76,3,0,18.52,,,50,,,,,,,,,,,wg-a,,,,AAXX 03004 07005 02/// /0510 10070 20030 30040 40134 51003 61000 90000 333 ////=
07005,1998-10-03 06:00:00,4,1013.7,-0,87,2,4500,3.704,,,360,3.4,9.2,,,,,,,,10,wg-a,,,,AAXX 03064 07005 02745 23602 10040 20020 30041 40137 54000 60004 71011 825/0 90600 333 10092 20034 61000=
07005,1998-10-03 09:00:00,7,1013.6,0.1,76,3,6000,3.704,,,270,,,,,,,,,,,wg-a,,,,AAXX 03094 07005 12656 22702 10070 20030 30042 40136 50001 60006 82500 90900=
07005,1998-10-03 12:00:00,8,1013,-0.6,76,4,10000,3.704,,,360,,,,,,,,,,,wg-a,,,,AAXX 03124 07005 12460 83602 10080 20040 30036 40130 58006 60006 885// 91200=
07005,1998-10-03 15:00:00,8,1011.7,-1.3,81,5,3000,7.408,,,130,,,,0,,,,,,10,wg-a,,,,AAXX 03154 07005 12330 81304 10080 20050 30023 40117 56013 60007 71065 888// 91500=
07005,1998-10-03 18:00:00,7,1011.2,-0.5,93,6,0,11.112,,,120,3.2,8.4,,,,,,,,,wg-a,,,,AAXX 03184 07005 32/// /1206 10070 20060 30018 40112 56005 91800 333 10084 20032=
07005,1998-10-04 00:00:00,7,1008.9,-1.9,93,6,0,11.112,,,140,,,,,,,,,,,wg-a,,,,AAXX 04004 07005 12/// /1406 10070 20060 39995 40089 56019 60006 90000=
07005,1998-10-04 06:00:00,6,1006.2,-1.2,93,5,1600,14.816,,,110,6.1,6.9,,,,,1,,,10,wg-a,,,,AAXX 04064 07005 02216 81108 10060 20050 39968 40062 56012 60006 71022 885// 90600 333 10069 20061 60014=
07005,1998-10-04 09:00:00,7,1006.3,0.1,87,5,3000,14.816,,,100,,,,0,,,,,,10,wg-a,,,,AAXX 04094 07005 12330 /1008 10070 20050 39969 40063 50001 60007 71062 8557/ 90900=
07005,1998-10-04 12:00:00,9,1005.9,-0.3,66,3,8000,14.816,,,90,,,,,,,,,,3,wg-a,,,,AAXX 04124 07005 12458 80908 10090 20030 39966 40059 57003 60006 70362 8557/ 91200=
07005,1998-10-04 15:00:00,9,1005.4,-0.5,76,5,7000,7.408,,,60,,,,,,,,,,,wg-a,,,,AAXX 04154 07005 12757 70604 10090 20050 39961 40054 57005 60006 8557/ 91500=
07005,1998-10-04 18:00:00,7,1005.9,0.4,87,5,0,7.408,,,50,6,9.4,,,,,,,,,wg-a,,,,AAXX 04184 07005 32/// /0504 10070 20050 39965 40059 53004 91800 333 10094 20060=
07005,1998-10-05 00:00:00,7,1006.9,0.2,87,5,0,3.704,,,90,,,,,,,,,,,wg-a,,,,AAXX 05004 07005 12/// /0902 10070 20050 39975 40069 51002 60006 90000=
07005,1998-10-05 06:00:00,5,1007.4,0.5,100,5,2500,3.704,,,240,5.1,6.9,,,,,,,,10,wg-a,,,,AAXX 05064 07005 02725 /2402 10050 20050 39980 40074 53005 60006 71022 86500 90600 333 10069 20051 60004=
07005,1998-10-05 09:00:00,7,1008.7,1.3,87,5,2500,3.704,,,70,,,,,,,,,,10,wg-a,,,,AAXX 05094 07005 12725 80702 10070 20050 39993 40087 53013 60006 71022 875// 90900=
07005,1998-10-05 12:00:00,9,1009.2,0.6,81,6,500,11.112,,,80,,,,,,,,,,,wg-a,,,,AAXX 05124 07005 12400 70806 10090 20060 39999 40092 51006 60006 878// 91200=
07005,1998-10-05 15:00:00,9,1009.7,0.5,87,7,500,11.112,,,70,,,,,,,,,,,wg-a,,,,AAXX 05154 07005 12500 80706 10090 20070 30004 40097 52005 60006 888// 91500=
07005,1998-10-05 18:00:00,8,1011.2,1.4,87,6,500,11.112,,,50,5.3,10.3,,,,,,,,,wg-a,,,,AAXX 05184 07005 12700 70506 10080 20060 30018 40112 53014 60006 875// 91800 333 10103 20053=
07005,1998-10-06 00:00:00,7,1012.7,0.7,93,6,0,14.816,,,70,,,,,,,,,,,wg-a,,,,AAXX 06004 07005 12/// /0708 10070 20060 30033 40127 53007 60006 90000=
07005,1998-10-06 06:00:00,7,1013,0.3,100,7,900,18.52,,,60,6.2,8,,,,,,,,44,wg-a,,,,AAXX 06064 07005 02209 80610 10070 20070 30036 40130 50003 60006 74442 886// 90600 333 10080 20062 60004=
07005,1998-10-06 09:00:00,10,1013.7,0.8,93,9,1800,22.224,,,60,,,,,,,,,,10,wg-a,,,,AAXX 06094 07005 12218 80612 10100 20090 30044 40137 53008 60006 71042 886// 90900=
07005,1998-10-06 12:00:00,11,1013.8,0.1,87,9,2200,18.52,,,40,,,,,,,,,,10,wg-a,,,,AAXX 06124 07005 12222 80410 10110 20090 30045 40138 53001 60006 71042 886// 91200=
07005,1998-10-06 18:00:00,8,1015.4,1,87,6,1600,18.52,,,40,6.8,11,,,,,,,,10,wg-a,,,,AAXX 06184 07005 12216 80410 10080 20060 30060 40154 53010 60006 71022 886// 91800 333 10110 20068=
07005,1998-10-07 00:00:00,7,1016,-0.4,87,5,0,11.112,,,40,,,,,,,,,,,wg-a,,,,AAXX 07004 07005 12/// /0406 10070 20050 30066 40160 58004 60006 90000=
07005,1998-10-07 06:00:00,7,1016.3,0.4,87,5,2200,3.704,,,230,6.8,8.4,,,,,,,,10,wg-a,,,,AAXX 07064 07005 02422 82302 10070 20050 30068 40163 52004 60006 71022 885// 90600 333 10084 20068 60004=
07005,1998-10-07 09:00:00,8,1017.4,1.2,87,6,2000,7.408,,,200,,,,,,,,,,10,wg-a,,,,AAXX 07094 07005 02420 82004 10080 20060 30080 40174 51012 61000 71052 885// 90900 333 ////=
07005,1998-10-07 12:00:00,11,1016.9,-0.4,87,9,3000,18.52,,,300,,,,,,,,,,10,wg-a,,,,AAXX 07124 07005 02330 83010 10110 20090 30076 40169 58004 61000 71052 888// 91200 333 6100=
07005,1998-10-07 18:00:00,10,1018.4,0.9,93,9,4000,18.52,,,350,7,11.6,,,,,,,,61,wg-a,,,,AAXX 07184 07005 02340 83510 10100 20090 30090 40184 53009 61000 76165 877// 91800 333 10116 20070 6004=
07005,1998-10-08 00:00:00,10,1018.2,-0.2,93,9,0,14.816,,,330,,,,,,,,,,,wg-a,,,,AAXX 08004 07005 12/// /3308 10100 20090 30088 40182 58002 60016 90000=
07005,1998-10-08 06:00:00,10,1018.3,0.2,100,10,2000,14.816,,,320,9.6,10.4,,,,,,,,10,wg-a,,,,AAXX 08064 07005 02220 83208 10100 20100 30090 40183 52002 61000 71065 877// 90600 333 10104 20096 6006=
07005,1998-10-08 09:00:00,11,1019,0.7,100,11,4500,25.928,,,350,,,,4,,,,,,10,wg-a,,,,AAXX 08094 07005 12245 83514 10110 20110 30097 40190 51007 60047 71066 877// 90900=
07005,1998-10-08 15:00:00,11,1018.6,0.1,94,10,3500,29.632,,,20,,,,3,,,,,,10,wg-a,,,,AAXX 08154 07005 12135 80216 10110 20100 30093 40186 53001 60037 71066 877// 91500=
07005,1998-10-08 18:00:00,10,1020.1,1.4,93,9,4500,25.928,,,30,9.9,11.8,,,,,,,,10,wg-a,,,,AAXX 08184 07005 02245 80314 10100 20090 30107 40201 53014 61000 71065 877// 91800 333 10118 20099 6001=
07005,1998-10-09 00:00:00,9,1023.4,1.2,87,7,0,14.816,,,70,,,,,,,,,,,wg-a,,,,AAXX 09004 07005 12/// /0708 10090 20070 30139 40234 51012 60006 90000=
07005,1998-10-09 06:00:00,6,1023.8,0.3,100,6,2000,3.704,,,360,5.7,10,,,,,11,,,10,wg-a,,,,AAXX 09064 07005 02420 83602 10060 20060 30143 40238 53003 60006 71011 885// 90600 333 10100 20057 60114=
07005,1998-10-09 09:00:00,8,1023.5,-0.3,93,7,4500,3.704,,,210,,,,,,,,,,10,wg-a,,,,AAXX 09094 07005 12345 82102 10080 20070 30140 40235 58003 60006 71022 886// 90900=
07005,1998-10-09 12:00:00,12,1020.9,-2.4,76,8,6000,11.112,,,210,,,,,,,,,,,wg-a,,,,AAXX 09124 07005 12456 /2106 10120 20080 30116 40209 58024 60006 84100 91200=
07005,1998-10-09 15:00:00,12,1018.4,-2.5,82,9,8000,7.408,,,240,,,,,,,,,,,wg-a,,,,AAXX 09154 07005 12458 82404 10120 20090 30091 40184 56025 60006 885// 91500=
07005,1998-10-09 18:00:00,11,1017,,87,9,3000,18.52,,,220,,,,,,,,,,10,wg-a,,,,AAXX 09184 07005 12430 82210 10110 20090 30077 40170 60006 710// 91800=
07005,1998-10-10 00:00:00,11,1012.2,-2.7,94,10,0,18.52,,,210,,,,,,,,,,,wg-a,,,,AAXX 10004 07005 12/// /2110 10110 20100 30029 40122 58027 60036 90000=
07005,1998-10-10 06:00:00,12,1008.3,-1.1,94,11,8000,22.224,,,240,10.3,11.5,,,,,,,,61,wg-a,,,,AAXX 10064 07005 02258 82412 10120 20110 39991 40083 56011 61000 76162 875// 90600 333 10115 20103 6009=
07005,1998-10-10 09:00:00,14,1010,1.7,88,12,15000,18.52,,,310,,,,0,,,,,,1,wg-a,,,,AAXX 10094 07005 12465 73110 10140 20120 30008 40100 53017 60007 70162 875// 90900=
07005,1998-10-10 12:00:00,14,1011,1,82,11,500,25.928,,,300,,,,,,,,,,2,wg-a,,,,AAXX 10124 07005 12500 73014 10140 20110 30018 40110 51010 60016 70262 875// 91200=
07005,1998-10-10 18:00:00,11,1013.5,2,94,10,0,11.112,,,270,11.4,14.3,,,,,,,,,wg-a,,,,AAXX 10184 07005 32/// /2706 10110 20100 30042 40135 53020 91800 333 10143 20114=
07005,1998-10-11 00:00:00,11,1014.2,-0.2,94,10,0,14.816,,,240,,,,,,,,,,,wg-a,,,,AAXX 11004 07005 12/// /2408 10110 20100 30049 40142 58002 60006 90000=
07005,1998-10-11 06:00:00,12,1011.7,-1.9,88,10,20000,22.224,,,230,10.7,11.9,,,,,,,,,wg-a,,,,AAXX 11064 07005 02470 82312 10120 20100 30025 40117 58019 60006 885// 90600 333 10119 20107 60004=
07005,1998-10-11 12:00:00,14,1009.3,-1.5,100,14,12000,31.484,,,260,,,,0,,,,,,10,wg-a,,,,AAXX 11124 07005 02462 82617 10140 20140 30002 40093 56015 60036 71062 885// 91200 333 60007=
07005,1998-10-11 18:00:00,14,1011.4,1.3,88,12,0,22.224,,,270,10.9,16.6,,,,,,,,,wg-a,,,,AAXX 11184 07005 32/// /2712 10140 20120 30022 40114 53013 91800 333 10166 20109=
07005,1998-10-12 00:00:00,12,1012.1,-0.2,71,7,0,18.52,,,310,,,,,,,,,,,wg-a,,,,AAXX 12004 07005 12/// /3110 10120 20070 30028 40121 58002 60006 90000=
07005,1998-10-12 06:00:00,12,1012.3,0.9,67,6,15000,38.892,,,310,10.7,14.2,,,,,3,,,1,wg-a,,,,AAXX 12064 07005 02565 /3121 10120 20060 30030 40123 53009 60006 70186 86800 90600 333 10142 20107 60034=
07005,1998-10-12 09:00:00,12,1014.8,2.5,71,7,25000,31.484,,,310,,,,0,,,,,,3,wg-a,,,,AAXX 12094 07005 12575 23117 10120 20070 30055 40148 53025 60007 70386 82200 90900=
07005,1998-10-12 12:00:00,14,1016.2,1.5,63,7,25000,38.892,,,300,,,,,,,,,,3,wg-a,,,,AAXX 12124 07005 12575 43021 10140 20070 30070 40162 51015 60006 70386 84200 91200=
07005,1998-10-12 18:00:00,12,1019.6,1.5,76,8,15000,14.816,,,290,10.6,13.8,,,,,,,,,wg-a,,,,AAXX 12184 07005 12665 /2908 10120 20080 30103 40196 53015 60006 86800 91800 333 10138 20106=
07005,1998-10-13 00:00:00,9,1021,-0.1,87,7,0,7.408,,,210,,,,,,,,,,,wg-a,,,,AAXX 13004 07005 12/// /2104 10090 20070 30116 40210 58001 60006 90000=
07005,1998-10-13 06:00:00,10,1020.2,-0.3,87,8,15000,14.816,,,220,8.8,11.6,,,,,,,,,wg-a,,,,AAXX 13064 07005 02665 82208 10100 20080 30108 40202 58003 60006 875// 90600 333 10116 20088 60004=
07005,1998-10-13 09:00:00,12,1020.7,0.6,82,9,15000,18.52,,,220,,,,,,,,,,,wg-a,,,,AAXX 13094 07005 12665 82210 10120 20090 30114 40207 51006 60006 875// 90900=
07005,1998-10-13 12:00:00,13,1020,-0.7,82,10,15000,25.928,,,230,,,,,,,,,,21,wg-a,,,,AAXX 13124 07005 02465 82314 10130 20100 30107 40200 58007 61000 72162 878// 91200 333 6100=
07005,1998-10-13 15:00:00,12,1018.5,-1.5,94,11,15000,22.224,,,200,,,,1,,,,,,21,wg-a,,,,AAXX 13154 07005 12365 82012 10120 20110 30092 40185 58015 60017 72165 877// 91500=
07005,1998-10-13 18:00:00,12,1017.7,-0.8,100,12,2000,18.52,,,210,10.2,13.4,,,,,,,,10,wg-a,,,,AAXX 13184 07005 02220 82110 10120 20120 30084 40177 56008 61000 71065 877// 91800 333 10134 20102 6000=
07005,1998-10-14 00:00:00,16,1017,-0.1,94,15,0,29.632,,,260,,,,,,,,,,,wg-a,,,,AAXX 14004 07005 12/// /2616 10160 20150 30078 40170 55001 60006 90000=
07005,1998-10-14 06:00:00,15,1017,0.5,94,14,8000,31.484,,,260,12.4,15.8,,,,,,,,20,wg-a,,,,AAXX 14064 07005 02258 82617 10150 20140 30078 40170 51005 61000 72052 877// 90600 333 10158 20124 6001=
07005,1998-10-14 09:00:00,15,1017.7,0.7,94,14,8000,29.632,,,250,,,,0,,,,,,21,wg-a,,,,AAXX 14094 07005 12258 82516 10150 20140 30085 40177 53007 60007 72165 886// 90900=
07005,1998-10-14 12:00:00,16,1017.8,0.2,94,15,4000,31.484,,,250,,,,,,,,,,50,wg-a,,,,AAXX 14124 07005 02340 82517 10160 20150 30087 40178 50002 60006 75065 877// 91200 333 61000=
07005,1998-10-14 15:00:00,16,1017.9,0.1,94,15,3500,31.484,,,260,,,,2,,,,,,10,wg-a,,,,AAXX 14154 07005 12335 82617 10160 20150 30088 40179 53001 60027 71065 887// 91500=
07005,1998-10-14 18:00:00,16,1019.6,1.6,94,15,3000,25.928,,,270,14.7,16.7,,,,,,,,10,wg-a,,,,AAXX 14184 07005 02130 82714 10160 20150 30104 40196 53016 61000 71065 887// 91800 333 10167 20147 6001=
07005,1998-10-15 00:00:00,14,1021.6,0.5,100,14,0,11.112,,,310,,,,,,,,,,,wg-a,,,,AAXX 15004 07005 12/// /3106 10140 20140 30124 40216 51005 60016 90000=
07005,1998-10-15 06:00:00,10,1022.5,0.7,93,9,0,3.704,,,290,9.4,15.6,,,,,4,,,,wg-a,,,,AAXX 15064 07005 02/// /2902 10100 20090 30131 40225 53007 60044 90600 333 10156 20094 61000=
07005,1998-10-15 12:00:00,14,1023.7,0.4,63,7,0,14.816,,,310,,,,,,,,,,,wg-a,,,,AAXX 15124 07005 12/// /3108 10140 20070 30144 40237 50004 60006 91200=
07005,1998-10-15 18:00:00,12,1023.2,0.6,88,10,0,3.704,,,220,9.4,15.1,,,,,,,,,wg-a,,,,AAXX 15184 07005 32/// /2202 10120 20100 30139 40232 53006 91800 333 10151 20094=
07005,1998-10-16 00:00:00,8,1022.5,-0.7,93,7,0,11.112,,,150,,,,,,,,,,,wg-a,,,,AAXX 16004 07005 12/// /1506 10080 20070 30130 40225 58007 60006 90000=
07005,1998-10-16 06:00:00,8,1019.2,-1.7,100,8,3500,11.112,,,150,6.6,12.1,,0,,,,,,10,wg-a,,,,AAXX 16064 07005 02735 81506 10080 20080 30098 40192 57017 60004 71022 885// 90600 333 10121 20066 60007=
07005,1998-10-16 09:00:00,11,1017.4,-1.7,100,11,3000,18.52,,,160,,,,,,,,,,10,wg-a,,,,AAXX 16094 07005 02430 81610 10110 20110 30081 40174 56017 61000 71052 887// 90900 333 ////=
07005,1998-10-16 12:00:00,16,1015,-2.2,88,14,12000,22.224,,,210,,,,,,,,,,1,wg-a,,,,AAXX 16124 07005 02462 82112 10160 20140 30059 40150 58022 61000 70152 885// 91200 333 ////=
07005,1998-10-16 15:00:00,17,1012.2,-2.8,82,14,20000,18.52,,,200,,,,,,,,,,,wg-a,,,,AAXX 16154 07005 12570 82010 10170 20140 30031 40122 56028 60006 885// 91500=
07005,1998-10-16 18:00:00,16,1010.7,-1.5,82,13,20000,25.928,,,210,8.3,17,,,,,,,,,wg-a,,,,AAXX 16184 07005 32570 82114 10160 20130 30016 40107 56015 885// 91800 333 10170 20083=
07005,1998-10-17 00:00:00,14,1006.2,-2.8,88,12,0,22.224,,,170,,,,,,,,,,,wg-a,,,,AAXX 17004 07005 12/// /1712 10140 20120 39971 40062 58028 60006 90000=
07005,1998-10-17 06:00:00,14,1001.7,-1.8,82,11,1000,35.188,,,210,13.8,15.7,,,,,,,,,wg-a,,,,AAXX 17064 07005 02410 72119 10140 20110 39926 40017 57018 60006 83532 90600 333 10157 20138 61000=
07005,1998-10-17 12:00:00,13,1004.4,3.1,77,9,15000,29.632,,,270,,,,1,,,,,,3,wg-a,,,,AAXX 17124 07005 02465 82716 10130 20090 39953 40044 51031 60016 70362 878// 91200 333 60017=
07005,1998-10-17 18:00:00,13,1007.7,1.9,77,9,0,31.484,,,260,11.3,15.2,,,,,,,,,wg-a,,,,AAXX 17184 07005 32/// /2617 10130 20090 39985 40077 51019 91800 333 10152 20113=
07005,1998-10-18 00:00:00,9,1014.4,3.5,93,8,0,25.928,,,320,,,,,,,,,,,wg-a,,,,AAXX 18004 07005 12/// /3214 10090 20080 30051 40144 53035 60006 90000=
07005,1998-10-18 06:00:00,5,1019.2,2,93,4,20000,7.408,,,10,5,13,,,,,1,,,,wg-a,,,,AAXX 18064 07005 02470 30104 10050 20040 30097 40192 52020 60006 81802 90600 333 10130 20050 60014=
07005,1998-10-18 15:00:00,11,1019.8,-1.2,62,4,500,3.704,,,50,,,,,,,,,,,wg-a,,,,AAXX 18154 07005 12500 20502 10110 20040 30104 40198 58012 60006 82200 91500=
07005,1998-10-18 18:00:00,8,1019.8,-0.1,81,5,0,7.408,,,90,4.6,11.7,,,,,,,,,wg-a,,,,AAXX 18184 07005 12/// /0904 10080 20050 30103 40198 55001 60006 91800 333 10117 20046=
07005,1998-10-19 00:00:00,5,1018.2,-1,93,4,0,14.816,,,130,,,,,,,,,,,wg-a,,,,AAXX 19004 07005 12/// /1308 10050 20040 30087 40182 58010 60006 90000=
07005,1998-10-19 06:00:00,6,1016,-0.6,93,5,8000,14.816,,,220,4.8,7.8,,,,,,,,,wg-a,,,,AAXX 19064 07005 02458 32208 10060 20050 30065 40160 56006 60006 82830 90600 333 10078 20048 60004=
07005,1998-10-19 09:00:00,11,1017.7,1.9,82,8,12000,14.816,,,300,,,,,,,,,,,wg-a,,,,AAXX 19094 07005 12562 23008 10110 20080 30084 40177 52019 60006 81232 90900=
07005,1998-10-19 12:00:00,12,1018.4,0.7,62,5,20000,25.928,,,300,,,,,,,,,,,wg-a,,,,AAXX 19124 07005 12570 33014 10120 20050 30091 40184 50007 60006 83200 91200=
07005,1998-10-19 18:00:00,8,1019.8,1.2,81,5,500,11.112,,,280,6.1,12.6,,,,,,,,,wg-a,,,,AAXX 19184 07005 12500 32806 10080 20050 30104 40198 53012 60006 82202 91800 333 10126 20061=
07005,1998-10-20 00:00:00,7,1020.8,0.1,87,5,0,7.408,,,200,,,,,,,,,,,wg-a,,,,AAXX 20004 07005 12/// /2004 10070 20050 30113 40208 50001 60016 90000=
07005,1998-10-20 06:00:00,7,1021.4,0.5,93,6,20000,11.112,,,180,5.5,8.8,,1,,,1,,,21,wg-a,,,,AAXX 20064 07005 02470 71806 10070 20060 30119 40214 51005 60014 72162 878// 90600 333 10088 20055 60017=
07005,1998-10-20 12:00:00,12,1022.8,0.5,88,10,15000,14.816,,,250,,,,1,,,,,,61,wg-a,,,,AAXX 20124 07005 02465 72508 10120 20100 30135 40228 50005 60016 76186 878// 91200 333 60017=
07005,1998-10-20 18:00:00,11,1021.6,-0.5,87,9,15000,11.112,,,160,6.7,13,,,,,,,,2,wg-a,,,,AAXX 20184 07005 32565 71606 10110 20090 30122 40216 56005 70262 83838 91800 333 10130 20067=
07005,1998-10-21 00:00:00,10,1018.6,-1.6,76,6,0,25.928,,,190,,,,,,,,,,,wg-a,,,,AAXX 21004 07005 12/// /1914 10100 20060 30092 40186 58016 60006 90000=
07005,1998-10-21 06:00:00,11,1014.3,-2,82,8,15000,25.928,,,200,9.1,11,,,,,1,,,,wg-a,,,,AAXX 21064 07005 02765 82014 10110 20080 30050 40143 56020 60006 885// 90600 333 10110 20091 60014=
07005,1998-10-21 12:00:00,15,1014.5,-0.1,82,12,15000,35.188,,,220,,,,,,,,,,,wg-a,,,,AAXX 21124 07005 12565 82219 10150 20120 30053 40145 56001 60006 8657/ 91200=
07005,1998-10-21 18:00:00,15,1016.1,1.5,88,13,12000,29.632,,,220,11,15.2,,,,,,,,2,wg-a,,,,AAXX 21184 07005 32462 82216 10150 20130 30069 40161 53015 70262 8687/ 91800 333 10152 20110=
07005,1998-10-22 00:00:00,15,1017.6,0.5,94,14,0,25.928,,,210,,,,,,,,,,,wg-a,,,,AAXX 22004 07005 12/// /2114 10150 20140 30084 40176 50005 60016 90000=
07005,1998-10-22 06:00:00,15,1018,0.3,94,14,3500,22.224,,,210,14.4,15.5,,,,,1,,,10,wg-a,,,,AAXX 22064 07005 02335 82112 10150 20140 30088 40180 53003 60014 71052 875// 90600 333 10155 20144 61000=
07005,1998-10-22 12:00:00,16,1020.3,0.8,88,14,15000,25.928,,,220,,,,,,,,,,1,wg-a,,,,AAXX 22124 07005 12565 72214 10160 20140 30111 40203 51008 60006 70162 875// 91200=
07005,1998-10-22 18:00:00,15,1019.7,0.5,88,13,15000,25.928,,,200,14.8,17.5,,,,,,,,,wg-a,,,,AAXX 22184 07005 32665 72014 10150 20130 30105 40197 53005 875// 91800 333 10175 20148=
07005,1998-10-23 00:00:00,16,1015.7,-2.5,82,13,0,29.632,,,210,,,,,,,,,,,wg-a,,,,AAXX 23004 07005 12/// /2116 10160 20130 30066 40157 58025 60006 90000=
07005,1998-10-23 06:00:00,16,1012,-1.2,88,14,8000,35.188,,,220,15,16.5,,1,,,1,,,60,wg-a,,,,AAXX 23064 07005 02358 82219 10160 20140 30029 40120 56012 60014 76062 887// 90600 333 10165 20150 60017=
07005,1998-10-23 12:00:00,14,1012.3,0.1,94,13,15000,18.52,,,220,,,,6,,,,,,60,wg-a,,,,AAXX 23124 07005 02265 82210 10140 20130 30031 40123 51001 60096 76066 875// 91200 333 60067=
07005,1998-10-23 18:00:00,13,1012.5,0.5,94,12,10000,18.52,,,240,13.1,15.7,,1,,,,,,25,wg-a,,,,AAXX 23184 07005 12460 72410 10130 20120 30033 40125 53005 60017 72586 879// 91800 333 10157 20131=
07005,1998-10-24 00:00:00,12,1013.8,0.8,88,10,0,29.632,,,300,,,,1,,,,,,,wg-a,,,,AAXX 24004 07005 02/// /3016 10120 20100 30045 40138 53008 60016 90000 333 60017=
07005,1998-10-24 06:00:00,9,1015.7,-0.7,87,7,20000,11.112,,,200,8.6,13.7,,,,,11,,,,wg-a,,,,AAXX 24064 07005 02570 72006 10090 20070 30063 40157 58007 60006 8457/ 90600 333 10137 20086 60114=
07005,1998-10-24 09:00:00,10,1012.6,-3,87,8,20000,18.52,,,170,,,,,,,,,,,wg-a,,,,AAXX 24094 07005 12570 81710 10100 20080 30033 40126 58030 60006 8152/ 90900=
07005,1998-10-24 12:00:00,10,1005.2,-7.3,93,9,2500,31.484,,,170,,,,4,,,,,,61,wg-a,,,,AAXX 24124 07005 02325 81717 10100 20090 39960 40052 58073 60046 76162 8572/ 91200 333 60047=
07005,1998-10-24 15:00:00,12,995.3,-9.8,94,11,4500,42.596,,64.82,190,,,,6,,,,,,61,wg-a,,,,AAXX 24154 07005 12245 81923 10120 20110 39862 49953 56098 60067 76166 877// 91500 333 91035=
07005,1998-10-24 18:00:00,14,990.1,-5.1,94,13,0,42.596,,,250,8.7,15.2,,10,,,,,,,wg-a,,,,AAXX 24184 07005 12/// /2523 10140 20130 39811 49901 55051 60107 91800 333 10152 20087=
07005,1998-10-25 00:00:00,13,987.9,-0.4,77,9,0,61.116,,,260,,,,1,,,,,,,wg-a,,,,AAXX 25004 07005 02/// /2633 10130 20090 39789 49879 55004 60036 90000 333 60017=
07005,1998-10-25 06:00:00,11,996.7,5.1,71,6,15000,42.596,,62.968,290,10.9,14.2,,,,,24,,,,wg-a,,,,AAXX 25064 07005 02465 /2923 10110 20060 39876 49967 51051 60006 86200 90600 333 10142 20109 60244 91034=
07005,1998-10-25 09:00:00,13,999.9,3.2,72,8,20000,35.188,,,290,,,,,,,,,,,wg-a,,,,AAXX 25094 07005 12470 /2919 10130 20080 39908 49999 51032 60006 85200 90900=
07005,1998-10-25 12:00:00,13,1000,0.1,82,10,10000,38.892,,,260,,,,2,,,,,,27,wg-a,,,,AAXX 25124 07005 02460 72621 10130 20100 39909 40000 51001 60026 72787 879// 91200 333 60027=
07005,1998-10-25 15:00:00,12,1002.1,2,67,6,15000,38.892,,61.116,290,,,,1,,,,,,2,wg-a,,,,AAXX 25154 07005 12565 /2921 10120 20060 39929 40021 53020 60017 70286 86800 91500 333 91033=
07005,1998-10-25 18:00:00,11,1004.7,2.6,58,3,0,38.892,,,300,10,14,,,,,,,,,wg-a,,,,AAXX 25184 07005 32/// /3021 10110 20030 39955 40047 51026 91800 333 10140 20100=
07005,1998-10-26 00:00:00,8,1008.7,1.9,81,5,0,14.816,,,300,,,,,,,,,,,wg-a,,,,AAXX 26004 07005 12/// /3008 10080 20050 39994 40087 53019 60016 90000=
07005,1998-10-26 06:00:00,8,1008.8,-0.3,87,6,14000,18.52,,,210,6.3,11.2,,,,,4,,,,wg-a,,,,AAXX 26064 07005 02464 72110 10080 20060 39994 40088 58003 60006 8683/ 90600 333 10112 20063 60044=
07005,1998-10-26 09:00:00,8,1009.4,0.6,93,7,4000,14.816,,,230,,,,5,,,,,,10,wg-a,,,,AAXX 26094 07005 12340 82308 10080 20070 30000 40094 50006 60057 71062 877// 90900=
07005,1998-10-26 12:00:00,11,1009.8,0.6,82,8,25000,29.632,,,290,,,,2,,,,,,1,wg-a,,,,AAXX 26124 07005 02475 72916 10110 20080 30006 40098 53006 60076 70162 84802 91200 333 60027=
07005,1998-10-26 15:00:00,11,1011.4,1.5,71,6,25000,25.928,,,290,,,,,,,,,,,wg-a,,,,AAXX 26154 07005 12475 62914 10110 20060 30021 40114 53015 60006 86902 91500=
07005,1998-10-26 18:00:00,8,1014.7,3.2,87,6,25000,11.112,,,320,7.3,12.1,,,,,,,,25,wg-a,,,,AAXX 26184 07005 02475 63206 10080 20060 30053 40147 53032 61000 72586 86900 91800 333 10121 20073 6000=
07005,1998-10-27 00:00:00,9,1016.7,0.1,81,6,0,14.816,,,220,,,,,,,,,,,wg-a,,,,AAXX 27004 07005 12/// /2208 10090 20060 30073 40167 50001 60006 90000=
07005,1998-10-27 06:00:00,12,1013.6,-0.3,88,10,15000,42.596,,61.116,250,7.7,11.8,,,,,8,,,,wg-a,,,,AAXX 27064 07005 02565 /2523 10120 20100 30043 40136 55003 60006 86500 90600 333 10118 20077 60084 91033=
07005,1998-10-27 09:00:00,13,1013.2,-0.3,77,9,20000,42.596,,62.968,240,,,,,,,,,,,wg-a,,,,AAXX 27094 07005 12470 /2423 10130 20090 30040 40132 58003 60006 85230 90900 333 91034=
07005,1998-10-27 12:00:00,14,1012.2,-1,77,10,20000,35.188,,55.56,230,,,,,,,,,,,wg-a,,,,AAXX 27124 07005 12470 82319 10140 20100 30030 40122 56010 60006 888// 91200 333 91030=
07005,1998-10-27 18:00:00,14,1009.1,-1,88,12,15000,38.892,,,240,11.7,14.9,,,,,,,,21,wg-a,,,,AAXX 27184 07005 02465 82421 10140 20120 30000 40091 56010 61000 72162 888// 91800 333 10149 20117 6100=
07005,1998-10-28 00:00:00,14,1004.9,-2.4,88,12,0,46.3,,,230,,,,,,,,,,,wg-a,,,,AAXX 28004 07005 12/// /2325 10140 20120 39958 40049 58024 60006 90000=
07005,1998-10-28 06:00:00,16,1002.6,-0.3,82,13,20000,50.004,,,250,13.8,15.7,,,,,1,,,,wg-a,,,,AAXX 28064 07005 02470 82527 10160 20130 39936 40026 56003 60014 885// 90600 333 10157 20138 61000=
07005,1998-10-28 09:00:00,16,1002.9,0.3,88,14,8000,61.116,,87.044,260,,,,1,,,,,,61,wg-a,,,,AAXX 28094 07005 12358 82633 10160 20140 39939 40029 53003 60017 76162 885// 90900 333 91047=
07005,1998-10-28 12:00:00,14,1004.5,1.5,94,13,10000,46.3,,79.636,280,,,,2,,,,,,21,wg-a,,,,AAXX 28124 07005 02360 82825 10140 20130 39954 40045 53015 60036 72162 885// 91200 333 60027 91043=
07005,1998-10-28 18:00:00,13,1006.6,1.1,62,6,13000,53.708,,70.376,260,13.3,16.4,,,,,,,,,wg-a,,,,AAXX 28184 07005 12363 82629 10130 20060 39974 40066 51011 60006 878// 91800 333 10164 20133 91038=
07005,1998-10-29 00:00:00,11,1005.3,-2.1,87,9,0,35.188,,,250,,,,0,,,,,,,wg-a,,,,AAXX 29004 07005 02/// /2519 10110 20090 39961 40053 56021 60016 90000 333 60007=
07005,1998-10-29 06:00:00,11,1007.7,1.9,71,6,13000,29.632,,,290,10.2,13.3,,,,,7,,,2,wg-a,,,,AAXX 29064 07005 02463 82916 10110 20060 39985 40077 51019 60006 70286 8582/ 90600 333 10133 20102 60074=
07005,1998-10-29 09:00:00,11,1011.9,4.1,66,5,20000,38.892,,,300,,,,,,,,,,,wg-a,,,,AAXX 29094 07005 12470 /3021 10110 20050 30026 40119 53041 60006 85903 90900=
07005,1998-10-29 12:00:00,11,1016.1,4.2,66,5,20000,46.3,,,290,,,,,,,,,,,wg-a,,,,AAXX 29124 07005 12570 62925 10110 20050 30068 40161 51042 60006 86200 91200=
07005,1998-10-29 18:00:00,11,1019.3,0.5,62,4,20000,35.188,,,280,10,11.5,,,,,,,,,wg-a,,,,AAXX 29184 07005 12470 72819 10110 20040 30100 40193 50005 60006 873// 91800 333 10115 20100=
07005,1998-10-30 00:00:00,10,1018.2,-0.9,82,7,0,29.632,,,280,,,,2,,,,,,,wg-a,,,,AAXX 30004 07005 02/// /2816 10100 20070 30088 40182 58009 60066 90000 333 60027=
07005,1998-10-30 06:00:00,10,1014.3,-1.2,76,6,20000,35.188,,,310,7.4,11.2,,2,,,11,,,1,wg-a,,,,AAXX 30064 07005 02470 53119 10100 20060 30050 40143 55012 60114 70162 85800 90600 333 10112 20074 60027=
07005,1998-10-30 12:00:00,10,1015.5,0.2,87,8,20000,29.632,,,300,,,,3,,,,,,25,wg-a,,,,AAXX 30124 07005 02470 73016 10100 20080 30062 40155 53002 60036 72586 879// 91200 333 60037=
07005,1998-10-30 18:00:00,7,1019,1.2,81,4,500,11.112,,,310,6.6,11.4,,,,,,,,2,wg-a,,,,AAXX 30184 07005 12500 23106 10070 20040 30095 40190 53012 60006 70286 81202 91800 333 10114 20066=
07005,1998-10-31 00:00:00,7,1018.5,-0.9,81,4,0,14.816,,,210,,,,,,,,,,,wg-a,,,,AAXX 31004 07005 12/// /2108 10070 20040 30090 40185 58009 60006 90000=
07005,1998-10-31 06:00:00,7,1014.4,-2.2,93,6,6000,7.408,,,150,5.7,7.6,,3,,,6,,,61,wg-a,,,,AAXX 31064 07005 02556 81504 10070 20060 30050 40144 58022 60064 76162 8557/ 90600 333 10076 20057 60037=
07005,1998-10-31 09:00:00,9,1012.5,-1.8,93,8,8000,22.224,,,220,,,,2,,,,,,61,wg-a,,,,AAXX 31094 07005 12358 82212 10090 20080 30032 40125 58018 60027 76166 875// 90900=
07005,1998-10-31 12:00:00,10,1009.3,-3.2,93,9,10000,25.928,,,220,,,,2,,,,,,61,wg-a,,,,AAXX 31124 07005 02360 82214 10100 20090 30000 40093 58032 60046 76166 877// 91200 333 60027=
07005,1998-10-31 15:00:00,10,1003.7,-5.5,93,9,8000,25.928,,,200,,,,3,,,,,,61,wg-a,,,,AAXX 31154 07005 12358 82014 10100 20090 39945 40037 58055 60037 76166 875// 91500=
07005,1998-10-31 18:00:00,12,998.1,-5.5,88,10,0,35.188,,,220,7.4,11.5,,2,,,,,,,wg-a,,,,AAXX 31184 07005 12/// /2219 10120 20100 39890 49981 56055 60027 91800 333 10115 20074=
07005,1998-11-01 00:00:00,13,989.8,-3.8,94,12,0,46.3,,,260,,,,5,,,,,,,wg-a,,,,AAXX 01004 07005 02/// /2625 10130 20120 39808 49898 56038 60096 90000 333 60057=
07005,1998-11-01 06:00:00,8,1001.3,5.6,87,6,15000,25.928,,,330,7.8,13.1,,,,,24,,,,wg-a,,,,AAXX 01064 07005 02465 33314 10080 20060 39920 40013 51056 60006 83800 90600 333 10131 20078 60244=
07005,1998-11-01 09:00:00,8,1006.2,4.9,76,4,25000,25.928,,,320,,,,,,,,,,,wg-a,,,,AAXX 01094 07005 12575 33214 10080 20040 39969 40062 51049 60006 83200 90900=
07005,1998-11-01 12:00:00,9,1008.5,2.3,66,3,500,25.928,,,310,,,,,,,,,,,wg-a,,,,AAXX 01124 07005 12500 /3114 10090 20030 39992 40085 51023 60006 85200 91200=
07005,1998-11-01 15:00:00,9,1009.7,1.2,71,4,11000,25.928,,,300,,,,,,,,,,,wg-a,,,,AAXX 01154 07005 12/61 /3014 10090 20040 30004 40097 53012 60006 91500=
07005,1998-11-02 00:00:00,6,1010.7,-0.3,87,4,0,11.112,,,210,,,,,,,,,,,wg-a,,,,AAXX 02004 07005 12/// /2106 10060 20040 30013 40107 58003 60006 90000=
07005,1998-11-02 06:00:00,7,1008.4,-1.2,87,5,10000,14.816,,,180,5.7,,,,,,,,,,wg-a,,,,AAXX 02064 07005 02460 81808 10070 20050 39990 40084 56012 60006 8357/ 90600 333 10071 20057 60004=
07005,1998-11-02 09:00:00,7,1006.8,-1.6,87,5,20000,14.816,,,160,,,,,,,,,,,wg-a,,,,AAXX 02094 07005 12670 71608 10070 20050 39974 40068 58016 60006 82532 90900=
07005,1998-11-02 12:00:00,10,1002.7,-3.9,71,5,25000,25.928,,,180,,,,,,,,,,,wg-a,,,,AAXX 02124 07005 12575 71814 10100 20050 39935 40027 58039 60006 8583/ 91200=
07005,1998-11-02 15:00:00,10,998.6,-4.1,76,6,25000,18.52,,,170,,,,,,,,,,,wg-a,,,,AAXX 02154 07005 12575 81710 10100 20060 39894 49986 56041 60006 8487/ 91500=
07005,1998-11-02 18:00:00,9,994.4,-4.2,93,8,10000,25.928,,,170,6.7,10.3,,,,,,,,60,wg-a,,,,AAXX 02184 07005 02360 81714 10090 20080 39852 49944 56042 61000 76062 877// 91800 333 10103 20067 6001=
07005,1998-11-03 00:00:00,9,991.8,-0.6,87,7,0,31.484,,,230,,,,,,,,,,,wg-a,,,,AAXX 03004 07005 02/// /2317 10090 20070 39826 49918 58006 60016 90000 333 61000=
07005,1998-11-03 06:00:00,8,990.6,-0.4,81,5,10000,42.596,,,230,7.5,10.4,,,,,,,,25,wg-a,,,,AAXX 03064 07005 02460 52323 10080 20050 39814 49906 55004 61000 72561 85900 90600 333 10104 20075 6003=
07005,1998-11-03 09:00:00,7,993.1,2.5,87,5,7000,42.596,,,250,,,,7,,,,,,61,wg-a,,,,AAXX 03094 07005 12357 62523 10070 20050 39839 49931 51025 60077 76198 86900 90900=
07005,1998-11-03 12:00:00,8,994.3,1.2,87,6,6000,46.3,,72.228,270,,,,5,,,,,,61,wg-a,,,,AAXX 03124 07005 02356 62725 10080 20060 39851 49943 53012 60136 76198 86900 91200 333 60057 91039=
07005,1998-11-03 15:00:00,10,994.2,-0.1,71,5,12000,38.892,,57.412,250,,,,0,,,,,,80,wg-a,,,,AAXX 03154 07005 12462 52521 10100 20050 39850 49942 55001 60007 78086 85900 91500 333 91031=
07005,1998-11-03 18:00:00,8,994.9,0.7,76,4,15000,29.632,,,230,6.8,11.1,,1,,,,,,17,wg-a,,,,AAXX 03184 07005 02365 62316 10080 20040 39857 49949 53007 60006 71798 86900 91800 333 10111 20068 60017=
07005,1998-11-04 00:00:00,7,995.6,0.1,87,5,0,25.928,,,230,,,,,,,,,,,wg-a,,,,AAXX 04004 07005 12/// /2314 10070 20050 39863 49956 50001 60016 90000=
07005,1998-11-04 06:00:00,7,998.5,2,87,5,8000,22.224,,,360,6.3,7.9,,,,,19,,,1,wg-a,,,,AAXX 04064 07005 02458 73612 10070 20050 39892 49985 52020 60006 70162 875// 90600 333 10079 20063 60194=
07005,1998-11-04 12:00:00,8,1004.5,2.2,76,4,20000,18.52,,,320,,,,,,,,,,,wg-a,,,,AAXX 04124 07005 12570 /3210 10080 20040 39952 40045 51022 60006 86201 91200=
07005,1998-11-04 18:00:00,5,1008.4,1.9,75,1,20000,7.408,,,270,4.8,8.7,,,,,,,,,wg-a,,,,AAXX 04184 07005 12570 32704 10050 20010 39989 40084 53019 60006 82802 91800 333 10087 20048=
07005,1998-11-05 00:00:00,4,1012.3,2,87,2,0,14.816,,,320,,,,,,,,,,,wg-a,,,,AAXX 05004 07005 12/// /3208 10040 20020 30028 40123 53020 60016 90000=
07005,1998-11-05 06:00:00,3,1015.9,1.2,81,0,20000,11.112,,,200,1.9,5.3,,,,,1,,,,wg-a,,,,AAXX 05064 07005 02570 22006 10030 20000 30063 40159 51012 60006 82100 90600 333 10053 20019 60014=
07005,1998-11-05 12:00:00,9,1018.1,0.3,76,5,20000,31.484,,,240,,,,1,,,,,,25,wg-a,,,,AAXX 05124 07005 02470 72417 10090 20050 30087 40181 50003 60016 72586 878// 91200 333 60017=
07005,1998-11-05 15:00:00,10,1017.4,-0.7,76,6,15000,31.484,,,240,,,,0,,,,,,80,wg-a,,,,AAXX 05154 07005 12565 72417 10100 20060 30080 40174 56007 60007 78086 878// 91500=
07005,1998-11-05 18:00:00,9,1017.8,0.4,81,6,12000,35.188,,,240,2.4,10.3,,,,,,,,25,wg-a,,,,AAXX 05184 07005 02462 82419 10090 20060 30084 40178 52004 61000 72586 878// 91800 333 10103 20024 6000=
07005,1998-11-06 00:00:00,10,1018.8,0.7,93,9,0,29.632,,,250,,,,1,,,,,,,wg-a,,,,AAXX 06004 07005 02/// /2516 10100 20090 30094 40188 51007 60026 90000 333 60017=
07005,1998-11-06 06:00:00,10,1021.6,2,82,7,10000,22.224,,,280,8.4,11.1,,0,,,4,,,,wg-a,,,,AAXX 06064 07005 02460 72812 10100 20070 30122 40216 51020 60044 875// 90600 333 10111 20084 60007=
07005,1998-11-06 12:00:00,11,1025.1,1.4,76,7,500,25.928,,,310,,,,,,,,,,1,wg-a,,,,AAXX 06124 07005 02500 63114 10110 20070 30157 40251 51014 61000 70186 83201 91200 333 6100=
07005,1998-11-06 15:00:00,11,1026.2,1.1,76,7,500,18.52,,,310,,,,,,,,,,,wg-a,,,,AAXX 06154 07005 12500 43110 10110 20070 30168 40262 53011 60006 81201 91500=
07005,1998-11-06 18:00:00,8,1027.8,1.5,87,6,500,11.112,,,190,8.3,11.8,,,,,,,,,wg-a,,,,AAXX 06184 07005 12500 41906 10080 20060 30183 40278 53015 60006 81262 91800 333 10118 20083=
07005,1998-11-07 00:00:00,8,1029.1,0.3,87,6,0,11.112,,,200,,,,,,,,,,,wg-a,,,,AAXX 07004 07005 12/// /2006 10080 20060 30195 40291 53003 60006 90000=
07005,1998-11-07 06:00:00,6,1028.7,0.2,93,5,2000,11.112,,,130,5.4,8.5,,,,,,,,10,wg-a,,,,AAXX 07064 07005 02720 /1306 10060 20050 30191 40287 53002 60006 71022 86500 90600 333 10085 20054 60004=
07005,1998-11-07 09:00:00,7,1029.2,0.5,100,7,3000,11.112,,,150,,,,,,,,,,10,wg-a,,,,AAXX 07094 07005 12630 71506 10070 20070 30196 40292 51005 60006 71022 875// 90900=
07005,1998-11-07 12:00:00,12,1027.7,-1.3,82,9,8000,14.816,,,150,,,,,,,,,,,wg-a,,,,AAXX 07124 07005 12458 21508 10120 20090 30183 40277 58013 60006 82801 91200=
07005,1998-11-07 15:00:00,11,1026.6,-1.1,82,8,20000,18.52,,,150,,,,,,,,,,,wg-a,,,,AAXX 07154 07005 12570 31510 10110 20080 30172 40266 56011 60006 81201 91500=
07005,1998-11-07 18:00:00,8,1025.8,-0.9,93,7,0,18.52,,,140,5.5,12.9,,,,,,,,,wg-a,,,,AAXX 07184 07005 12/// /1410 10080 20070 30163 40258 56009 60006 91800 333 10129 20055=
07005,1998-11-08 00:00:00,6,1023.9,-1.7,93,5,7000,22.224,,,170,,,,,,,,,,,wg-a,,,,AAXX 08004 07005 12357 81712 10060 20050 30174 40239 57017 60006 886// 90000=
07005,1998-11-08 06:00:00,5,1018.9,-1.6,93,4,500,29.632,,,160,5,8,,,,,,,,,wg-a,,,,AAXX 08064 07005 02/00 71616 10050 20040 30094 40189 58016 60006 8703/ 90600 333 10080 20050 60004=
07005,1998-11-08 09:00:00,8,1018.5,-0.3,81,5,10000,22.224,,,170,,,,,,,,,,60,wg-a,,,,AAXX 08094 07005 02760 81712 10080 20050 30091 40185 58003 61000 76062 8557/ 90900 333 ////=
07005,1998-11-08 12:00:00,11,1017.1,-1.3,82,8,15000,29.632,,,210,,,,0,,,,,,60,wg-a,,,,AAXX 08124 07005 02565 82116 10110 20080 30078 40171 57013 60006 76062 8657/ 91200 333 60007=
07005,1998-11-08 15:00:00,12,1017.1,-0,94,11,6000,29.632,,,220,,,,0,,,,,,21,wg-a,,,,AAXX 08154 07005 12356 82216 10120 20110 30078 40171 55000 60007 72165 875// 91500=
07005,1998-11-08 18:00:00,12,1018.1,1,94,11,0,18.52,,,210,5.4,12.4,,,,,,,,,wg-a,,,,AAXX 08184 07005 32/// /2110 10120 20110 30088 40181 51010 91800 333 10124 20054=
07005,1998-11-09 00:00:00,15,1017.2,-0.4,88,13,0,18.52,,,200,,,,,,,,,,,wg-a,,,,AAXX 09004 07005 02/// /2010 10150 20130 30080 40172 58004 61000 90000 333 ////=
07005,1998-11-09 06:00:00,14,1015.2,-0.7,82,11,20000,22.224,,,200,11.9,15.2,,,,,,,,21,wg-a,,,,AAXX 09064 07005 02570 82012 10140 20110 30060 40152 56007 61000 72162 885// 90600 333 10152 20119 6001=
07005,1998-11-09 09:00:00,14,1016,0.8,88,12,500,25.928,,,220,,,,1,,,,,,3,wg-a,,,,AAXX 09094 07005 12500 82214 10140 20120 30068 40160 53008 60017 70362 875// 90900=
07005,1998-11-09 12:00:00,16,1016.3,0.3,77,12,8000,38.892,,57.412,270,,,,,,,,,,1,wg-a,,,,AAXX 09124 07005 12458 52721 10160 20120 30071 40163 51003 60016 70162 85832 91200 333 91031=
07005,1998-11-09 15:00:00,14,1016.9,0.6,82,11,10000,25.928,,,260,,,,,,,,,,,wg-a,,,,AAXX 09154 07005 12460 72614 10140 20110 30077 40169 51006 60006 8227/ 91500=
07005,1998-11-09 18:00:00,12,1017.7,0.7,94,11,10000,18.52,,,250,12.2,16.1,,,,,,,,3,wg-a,,,,AAXX 09184 07005 02460 /2510 10120 20110 30084 40177 51007 60006 70386 8113/ 91800 333 10161 20122 61000=
07005,1998-11-10 00:00:00,11,1017.1,-0.7,94,10,0,14.816,,,230,,,,,,,,,,,wg-a,,,,AAXX 10004 07005 12/// /2308 10110 20100 30078 40171 56007 60006 90000=
07005,1998-11-10 06:00:00,11,1014.1,-1.3,87,9,6000,22.224,,,220,10.2,12.2,,,,,1,,,,wg-a,,,,AAXX 10064 07005 02656 72212 10110 20090 30048 40141 56013 60006 8357/ 90600 333 10122 20102 60014=
07005,1998-11-10 12:00:00,12,1017.5,2.2,71,7,20000,31.484,,,310,,,,,,,,,,1,wg-a,,,,AAXX 10124 07005 12570 53117 10120 20070 30082 40175 51022 60006 70186 85800 91200=
07005,1998-11-10 18:00:00,8,1022.5,2.4,76,4,20000,18.52,,,320,8.3,12,,,,,,,,,wg-a,,,,AAXX 10184 07005 12570 33210 10080 20040 30130 40225 53024 60006 83200 91800 333 10120 20083=
07005,1998-11-11 00:00:00,5,1026.3,1.6,87,3,0,14.816,,,300,,,,,,,,,,,wg-a,,,,AAXX 11004 07005 12/// /3008 10050 20030 30167 40263 51016 60006 90000=
07005,1998-11-11 06:00:00,4,1027.9,0.7,87,2,10000,7.408,,,220,3.3,8.4,,,,,1,,,,wg-a,,,,AAXX 11064 07005 02/60 02204 10040 20020 30182 40279 53007 60006 80000 90600 333 10084 20033 60014=
07005,1998-11-11 09:00:00,6,1028,0.2,87,4,10000,7.408,,,210,,,,,,,,,,,wg-a,,,,AAXX 11094 07005 12560 22104 10060 20040 30184 40280 53002 60006 81202 90900=
07005,1998-11-11 12:00:00,10,1026.4,-1.4,71,5,15000,7.408,,,270,,,,,,,,,,,wg-a,,,,AAXX 11124 07005 12565 52704 10100 20050 30170 40264 58014 60006 83232 91200=
07005,1998-11-11 15:00:00,11,1024,-2.4,62,4,15000,7.408,,,210,,,,,,,,,,,wg-a,,,,AAXX 11154 07005 12565 42104 10110 20040 30146 40240 56024 60006 83202 91500=
07005,1998-11-11 18:00:00,6,1021.8,-2.3,81,3,0,11.112,,,160,3,11.5,,,,,,,,,wg-a,,,,AAXX 11184 07005 12/// /1606 10060 20030 30123 40218 57023 60006 91800 333 10115 20030=
07005,1998-11-12 00:00:00,5,1015.8,-3.1,87,3,0,14.816,,,150,,,,,,,,,,,wg-a,,,,AAXX 12004 07005 12/// /1508 10050 20030 30063 40158 58031 60006 90000=
07005,1998-11-12 06:00:00,5,1010,-2,81,2,12000,22.224,,,180,4.2,6.1,,,,,,,,61,wg-a,,,,AAXX 12064 07005 02662 81812 10050 20020 30005 40100 56020 61000 76162 8552/ 90600 333 10061 20042 6100=
07005,1998-11-12 12:00:00,7,1008.6,-0.8,93,6,8000,18.52,,,190,,,,2,,,,,,61,wg-a,,,,AAXX 12124 07005 02458 71910 10070 20060 39992 40086 58008 60026 76166 878// 91200 333 60027=
07005,1998-11-12 18:00:00,8,1009,0.6,93,7,500,18.52,,,260,4.2,10.1,,6,,,,,,63,wg-a,,,,AAXX 12184 07005 12400 82610 10080 20070 39997 40090 53006 60067 76386 879// 91800 333 10101 20042=
07005,1998-11-13 00:00:00,8,1009.6,-0,87,6,0,14.816,,,290,,,,0,,,,,,,wg-a,,,,AAXX 13004 07005 02/// /2908 10080 20060 30003 40096 55000 60026 90000 333 60007=
07005,1998-11-13 06:00:00,7,1008.6,-0.3,87,5,8000,22.224,,,230,6.4,9,,2,,,17,,,60,wg-a,,,,AAXX 13064 07005 02458 82312 10070 20050 39992 40086 55003 60174 76062 875// 90600 333 10090 20064 60027=
07005,1998-11-13 12:00:00,7,1007.1,-0.6,93,6,7000,11.112,,,200,,,,1,,,,,,61,wg-a,,,,AAXX 13124 07005 02457 82006 10070 20060 39977 40071 58006 60016 76162 8252/ 91200 333 60017=
07005,1998-11-13 18:00:00,7,1004.8,-0.8,93,6,15000,14.816,,,170,6.5,8.1,,,,,,,,2,wg-a,,,,AAXX 13184 07005 32565 71708 10070 20060 39955 40048 56008 70262 8357/ 91800 333 10081 20065=
07005,1998-11-14 00:00:00,7,1002,-1.5,93,6,0,11.112,,,160,,,,,,,,,,,wg-a,,,,AAXX 14004 07005 12/// /1606 10070 20060 39927 40020 58015 60036 90000=
07005,1998-11-14 06:00:00,7,995.9,-3,87,5,8000,46.3,,,280,6.1,7.1,,5,,,13,,,60,wg-a,,,,AAXX 14064 07005 02358 82825 10070 20050 39866 49959 56030 60134 76066 885// 90600 333 10071 20061 60057=
07005,1998-11-14 12:00:00,5,999.6,1.6,93,4,15000,31.484,,,320,,,,,,,,,,61,wg-a,,,,AAXX 14124 07005 02465 83217 10050 20040 39902 49996 53016 60016 76186 888// 91200 333 61000=
07005,1998-11-14 18:00:00,7,1005.4,2.5,87,5,0,14.816,,,300,4.6,7.8,,,,,,,,,wg-a,,,,AAXX 14184 07005 32/// /3008 10070 20050 39960 40054 51025 91800 333 10078 20046=
07005,1998-11-15 00:00:00,8,1006.5,0.3,87,6,0,25.928,,,290,,,,,,,,,,,wg-a,,,,AAXX 15004 07005 12/// /2914 10080 20060 39972 40065 51003 60016 90000=
07005,1998-11-15 06:00:00,7,1009.9,2.5,87,5,10000,29.632,,,320,6.5,8.6,,,,,,,,21,wg-a,,,,AAXX 15064 07005 02360 83216 10070 20050 30005 40099 53025 61000 72162 885// 90600 333 10086 20065 6005=
07005,1998-11-15 12:00:00,8,1015.6,2,81,5,25000,22.224,,,320,,,,,,,,,,2,wg-a,,,,AAXX 15124 07005 12575 /3212 10080 20050 30062 40156 51020 60006 70262 86200 91200=
07005,1998-11-16 00:00:00,5,1020.5,0.8,93,4,0,18.52,,,320,,,,,,,,,,,wg-a,,,,AAXX 16004 07005 12/// /3210 10050 20040 30110 40205 51008 60006 90000=
07005,1998-11-16 06:00:00,4,1022.5,1.2,93,3,15000,22.224,,,320,3.6,7.1,,,,,2,,,,wg-a,,,,AAXX 16064 07005 02565 73212 10040 20030 30129 40225 51012 60006 878// 90600 333 10071 20036 60024=
07005,1998-11-16 09:00:00,5,1024.7,2.2,87,3,20000,22.224,,,350,,,,,,,,,,,wg-a,,,,AAXX 16094 07005 12570 73512 10050 20030 30151 40247 51022 60006 872// 90900=
07005,1998-11-16 12:00:00,7,1026,1.3,81,4,25000,25.928,,,330,,,,,,,,,,,wg-a,,,,AAXX 16124 07005 12575 /3314 10070 20040 30164 40260 51013 60006 85200 91200=
07005,1998-11-16 15:00:00,5,1027.1,1.1,87,3,25000,14.816,,,340,,,,,,,,,,,wg-a,,,,AAXX 16154 07005 12575 /3408 10050 20030 30175 40271 52011 60006 85200 91500=
07005,1998-11-16 18:00:00,3,1028.8,1.6,87,1,25000,3.704,,,350,2.8,6.8,,,,,,,,,wg-a,,,,AAXX 16184 07005 12575 23502 10030 20010 30191 40288 52016 60006 82800 91800 333 10068 20028=
07005,1998-11-17 00:00:00,2,1030.4,0.6,93,1,0,3.704,,,190,,,,,,,,,,,wg-a,,,,AAXX 17004 07005 12/// /1902 10020 20010 30206 40304 51006 60006 90000=
07005,1998-11-17 06:00:00,-2,1030.6,0.2,100,-2,100,11.112,,,120,-1.5,2.8,,,,,,,,44,wg-a,,,,AAXX 17064 07005 02/01 01206 11020 21020 30207 40306 52002 60006 74440 80000 90600 333 10028 21015 60004=
07005,1998-11-17 09:00:00,0,1031.6,1,93,-1,100,11.112,,,140,,,,,,,,,,45,wg-a,,,,AAXX 17094 07005 12/01 91406 10000 21010 30217 40316 51010 60006 74544 89/// 90900=
07005,1998-11-17 12:00:00,2,1031.1,-0.4,100,2,100,11.112,,,140,,,,0,,,,,,44,wg-a,,,,AAXX 17124 07005 02101 41406 10020 20020 30213 40311 58004 60006 74444 84600 91200 333 60007=
07005,1998-11-17 15:00:00,4,1029.9,-1.1,93,3,6000,11.112,,,130,,,,,,,,,,3,wg-a,,,,AAXX 17154 07005 12/56 31306 10040 20030 30202 40299 56011 60006 70340 80002 91500=
07005,1998-11-17 18:00:00,2,1030.4,0.4,93,1,2500,11.112,,,130,-1.6,4.6,,,,,,,,10,wg-a,,,,AAXX 17184 07005 12/25 21306 10020 20010 30206 40304 53004 60006 71040 80002 91800 333 10046 21016=
07005,1998-11-18 00:00:00,-4,1033.6,-0.4,100,-4,100,0,,,0,,,,,,,,,,47,wg-a,,,,AAXX 18004 07005 12/01 90000 11040 21040 30236 40336 58004 60006 74744 89/// 90000=
07005,1998-11-18 06:00:00,-4,1029.3,-0.6,100,-4,100,0,,,0,-3.9,1.5,,,,,,,,49,wg-a,,,,AAXX 18064 07005 02/01 90000 11040 21040 30193 40293 56006 60006 74942 89/// 90600 333 10015 21039 60004=
07005,1998-11-18 09:00:00,-2,1029.8,0.6,100,-2,3500,0,,,0,,,,,,,,,,10,wg-a,,,,AAXX 18094 07005 12435 30000 11020 21020 30199 40298 51006 60006 71041 81202 90900=
07005,1998-11-18 12:00:00,4,1029,-0.6,87,2,8000,7.408,,,220,,,,0,,,,,,2,wg-a,,,,AAXX 18124 07005 02458 22204 10040 20020 30193 40290 58006 60006 70241 81202 91200 333 60007=
07005,1998-11-18 15:00:00,5,1028.2,-0.7,60,-2,15000,11.112,,,270,,,,,,,,,,,wg-a,,,,AAXX 18154 07005 12665 22706 10050 21020 30186 40282 58007 60006 82500 91500=
07005,1998-11-18 18:00:00,3,1028.1,-0.2,70,-2,15000,14.816,,,220,-3.9,6.3,,,,,,,,,wg-a,,,,AAXX 18184 07005 12665 72208 10030 21020 30184 40281 56002 60006 875// 91800 333 10063 21039=
07005,1998-11-19 00:00:00,4,1026.9,-0.7,75,0,0,22.224,,,250,,,,,,,,,,,wg-a,,,,AAXX 19004 07005 12/// /2512 10040 20000 30172 40269 58007 60006 90000=
07005,1998-11-19 06:00:00,3,1026,-0.1,93,2,10000,18.52,,,260,3,3.9,,,,,,,,60,wg-a,,,,AAXX 19064 07005 02560 82610 10030 20020 30163 40260 57001 61000 76062 8557/ 90600 333 10039 20030 ////=
07005,1998-11-19 09:00:00,4,1026.6,0.6,93,3,8000,3.704,,,310,,,,0,,,,,,2,wg-a,,,,AAXX 19094 07005 12458 83102 10040 20030 30169 40266 50006 60007 70262 8587/ 90900=
07005,1998-11-19 12:00:00,6,1026.9,0.4,93,5,6000,7.408,,,300,,,,0,,,,,,21,wg-a,,,,AAXX 19124 07005 02556 73004 10060 20050 30173 40269 51004 60016 72162 8457/ 91200 333 60007=
07005,1998-11-19 18:00:00,4,1027.9,1.1,100,4,2500,3.704,,,130,3.3,6.5,,,,,,,,10,wg-a,,,,AAXX 19184 07005 12725 71302 10040 20040 30182 40279 52011 60006 71022 875// 91800 333 10065 20033=
07005,1998-11-20 00:00:00,1,1030.3,1.1,100,1,0,11.112,,,140,,,,,,,,,,,wg-a,,,,AAXX 20004 07005 12/// /1406 10010 20010 30205 40303 53011 60006 90000=
07005,1998-11-20 06:00:00,1,1033.1,1.6,100,1,2000,11.112,,,120,-0.2,4.3,,,,,1,,,10,wg-a,,,,AAXX 20064 07005 02520 81206 10010 20010 30233 40331 53016 60006 71022 885// 90600 333 10043 21002 60014=
07005,1998-11-20 09:00:00,1,1034.7,1.6,86,-1,3000,18.52,,,130,,,,0,,,,,,10,wg-a,,,,AAXX 20094 07005 12530 /1310 10010 21010 30249 40347 51016 60007 71011 82500 90900=
07005,1998-11-20 12:00:00,3,1035.2,0.5,75,-1,500,18.52,,,110,,,,,,,,,,,wg-a,,,,AAXX 20124 07005 12400 51110 10030 21010 30254 40352 50005 60006 82102 91200=
07005,1998-11-20 15:00:00,2,1035.8,0.6,69,-3,7000,18.52,,,130,,,,,,,,,,,wg-a,,,,AAXX 20154 07005 12/57 31310 10020 21030 30260 40358 51006 60006 80002 91500=
07005,1998-11-20 18:00:00,-1,1037,1.1,93,-2,500,14.816,,,120,-0.6,3.1,,,,,,,,,wg-a,,,,AAXX 20184 07005 12/00 21208 11010 21020 30271 40370 51011 60006 80002 91800 333 10031 21006=
07005,1998-11-21 00:00:00,-2,1038.2,0.3,80,-5,0,14.816,,,150,,,,,,,,,,,wg-a,,,,AAXX 21004 07005 12/// /1508 11020 21050 30282 40382 50003 60006 90000=
07005,1998-11-21 06:00:00,-4,1038,-0,93,-5,10000,18.52,,,140,-3.5,-0.6,,,,,,,,,wg-a,,,,AAXX 21064 07005 02/60 01410 11040 21050 30280 40380 55000 60006 80000 90600 333 11006 21035 60004=
07005,1998-11-21 09:00:00,-2,1038.6,0.6,80,-5,500,18.52,,,140,,,,,,,,,,,wg-a,,,,AAXX 21094 07005 12/00 21410 11020 21050 30286 40386 51006 60006 80002 90900=
07005,1998-11-21 12:00:00,1,1037.6,-0.9,69,-4,7000,22.224,,,150,,,,,,,,,,,wg-a,,,,AAXX 21124 07005 12/57 21512 10010 21040 30277 40376 58009 60006 80001 91200=
07005,1998-11-21 15:00:00,2,1036.1,-1.4,64,-4,10000,14.816,,,140,,,,,,,,,,,wg-a,,,,AAXX 21154 07005 12/60 41408 10020 21040 30263 40361 56014 60006 80001 91500=
07005,1998-11-21 18:00:00,-1,1035.3,-0.9,80,-4,0,18.52,,,130,-3.7,2,,,,,,,,,wg-a,,,,AAXX 21184 07005 12/// /1310 11010 21040 30254 40353 58009 60006 91800 333 10020 21037=
07005,1998-11-22 00:00:00,-3,1032.7,-1.4,86,-5,0,11.112,,,140,,,,,,,,,,,wg-a,,,,AAXX 22004 07005 12/// /1406 11030 21050 30227 40327 56014 60006 90000=
07005,1998-11-22 06:00:00,-5,1029.9,-1.3,86,-7,6000,18.52,,,130,-4.5,-0.9,,,,,,,,,wg-a,,,,AAXX 22064 07005 02/56 01310 11050 21070 30199 40299 56013 60006 80000 90600 333 11009 21045 60004=
07005,1998-11-22 09:00:00,-3,1029.2,-0.7,74,-7,500,18.52,,,130,,,,,,,,,,,wg-a,,,,AAXX 22094 07005 12/00 31310 11030 21070 30192 40292 56007 60006 80001 90900=
07005,1998-11-22 12:00:00,-2,1027.6,-1.5,74,-6,7000,18.52,,,150,,,,,,,,,,,wg-a,,,,AAXX 22124 07005 12/57 31510 11020 21060 30177 40276 58015 60006 80001 91200=
07005,1998-11-22 15:00:00,-1,1025.2,-2.3,69,-6,6000,22.224,,,120,,,,,,,,,,,wg-a,,,,AAXX 22154 07005 12/56 21212 11010 21060 30154 40252 56023 60006 80001 91500=
07005,1998-11-22 18:00:00,-4,1025.2,-0.1,86,-6,0,18.52,,,130,-4.7,-0.9,,,,,,,,,wg-a,,,,AAXX 22184 07005 12/// /1310 11040 21060 30153 40252 58001 60006 91800 333 11009 21047=
07005,1998-11-23 00:00:00,-5,1024.2,-1,86,-7,0,14.816,,,140,,,,,,,,,,,wg-a,,,,AAXX 23004 07005 12/// /1408 11050 21070 30142 40242 58010 60006 90000=
07005,1998-11-23 06:00:00,-7,1024.3,0.3,93,-8,6000,11.112,,,140,-6.6,-3.6,,,,,,,,,wg-a,,,,AAXX 23064 07005 02/56 21406 11070 21080 30143 40243 53003 60006 80002 90600 333 11036 21066 60004=
07005,1998-11-23 09:00:00,-6,1024.8,0.5,86,-8,4000,11.112,,,130,,,,,,,,,,10,wg-a,,,,AAXX 23094 07005 12/40 31306 11060 21080 30148 40248 51005 60006 71011 80002 90900=
07005,1998-11-23 12:00:00,-1,1024.7,0.1,69,-6,4000,3.704,,,130,,,,,,,,,,10,wg-a,,,,AAXX 23124 07005 12/40 /1302 11010 21060 30149 40247 50001 60006 71011 80002 91200=
07005,1998-11-23 15:00:00,0,1024.1,-0.6,64,-6,0,3.704,,,140,,,,,,,,,,,wg-a,,,,AAXX 23154 07005 12/// 01402 10000 21060 30143 40241 55006 60006 80000 91500=
07005,1998-11-23 18:00:00,-3,1024.3,0.1,80,-6,10000,7.408,,,120,-6.9,0.3,,,,,,,,,wg-a,,,,AAXX 23184 07005 12/60 01204 11030 21060 30144 40243 50001 60006 80000 91800 333 10003 21069=
07005,1998-11-24 00:00:00,-6,1024.5,0,93,-7,0,11.112,,,120,,,,,,,,,,,wg-a,,,,AAXX 24004 07005 12/// /1206 11060 21070 30145 40245 50000 60006 90000=
07005,1998-11-24 06:00:00,-6,1023,-0.8,86,-8,6000,11.112,,,160,-6.9,-3,,,,,,,,,wg-a,,,,AAXX 24064 07005 02/56 21606 11060 21080 30130 40230 58008 60006 80001 90600 333 11030 21069 60004=
07005,1998-11-24 09:00:00,-4,1022.9,-0,93,-5,2500,11.112,,,140,,,,,,,,,,10,wg-a,,,,AAXX 24094 07005 12/25 71406 11040 21050 30130 40229 55000 60006 71011 83032 90900=
07005,1998-11-24 12:00:00,-1,1021.1,-1.7,86,-3,2500,18.52,,,150,,,,,,,,,,10,wg-a,,,,AAXX 24124 07005 12/25 71510 11010 21030 30113 40211 58017 60006 71011 85032 91200=
07005,1998-11-24 15:00:00,0,1019.9,-1.1,80,-3,3000,22.224,,,150,,,,,,,,,,10,wg-a,,,,AAXX 24154 07005 12/30 81512 10000 21030 30102 40199 58011 60006 71022 85032 91500=
07005,1998-11-24 18:00:00,0,1019.9,0,80,-3,3000,22.224,,,150,-6.6,0.4,,,,,,,,10,wg-a,,,,AAXX 24184 07005 12/30 81512 10000 21030 30102 40199 50000 60006 71022 8707/ 91800 333 10004 21066=
07005,1998-11-25 00:00:00,0,1017.8,-1.1,93,-1,0,18.52,,,150,,,,,,,,,,,wg-a,,,,AAXX 25004 07005 12/// /1510 10000 21010 30081 40178 56011 60006 90000=
07005,1998-11-25 06:00:00,0,1015.3,-0.9,100,0,2000,18.52,,,140,0.1,0.6,,,,,,,,10,wg-a,,,,AAXX 25064 07005 02220 81410 10000 20000 30056 40153 56009 61000 71065 887// 90600 333 10006 20001 6000=
07005,1998-11-25 09:00:00,0,1015.1,-0.2,100,0,500,14.816,,,150,,,,0,,,,,,44,wg-a,,,,AAXX 25094 07005 12105 81508 10000 20000 30054 40151 56002 60007 74454 887// 90900=
07005,1998-11-25 12:00:00,1,1015,-0.1,100,1,500,7.408,,,150,,,,,,,,,,50,wg-a,,,,AAXX 25124 07005 02105 81504 10010 20010 30053 40150 58001 60006 75054 887// 91200 333 61000=
07005,1998-11-25 18:00:00,1,1018.1,2.1,93,0,200,0,,,0,0.2,1.1,,,,,,,,43,wg-a,,,,AAXX 25184 07005 12/02 90000 10010 20000 30084 40181 53021 60006 74354 89/// 91800 333 10011 20002=
07005,1998-11-26 00:00:00,0,1020.5,1.4,100,0,0,3.704,,,120,,,,,,,,,,,wg-a,,,,AAXX 26004 07005 12/// /1202 10000 20000 30108 40205 51014 60006 90000=
07005,1998-11-26 06:00:00,2,1021.6,0.5,93,1,500,11.112,,,150,0.2,1.6,,,,,1,,,45,wg-a,,,,AAXX 26064 07005 02/00 91506 10020 20010 30119 40216 51005 60006 74542 89/// 90600 333 10016 20002 60014=
07005,1998-11-26 09:00:00,2,1022.4,0.8,100,2,800,7.408,,,180,,,,,,,,,,44,wg-a,,,,AAXX 26094 07005 12408 31804 10020 20020 30127 40224 53008 60006 74444 83200 90900=
07005,1998-11-26 12:00:00,6,1020.9,-1.3,100,6,6000,14.816,,,220,,,,,,,,,,3,wg-a,,,,AAXX 26124 07005 12456 82208 10060 20060 30114 40209 58013 60006 70341 8387/ 91200=
07005,1998-11-26 15:00:00,7,1018.8,-2.1,93,6,8000,18.52,,,220,,,,,,,,,,,wg-a,,,,AAXX 26154 07005 12458 82210 10070 20060 30093 40188 58021 60006 888// 91500=
07005,1998-11-26 18:00:00,8,1017.8,-0.9,93,7,3500,18.52,,,250,1,8.3,,,,,,,,10,wg-a,,,,AAXX 26184 07005 02235 82510 10080 20070 30084 40178 56009 61000 71062 875// 91800 333 10083 20010 ////=
07005,1998-11-27 00:00:00,8,1017.7,0.4,93,7,0,22.224,,,300,,,,,,,,,,,wg-a,,,,AAXX 27004 07005 12/// /3012 10080 20070 30083 40177 51004 60036 90000=
07005,1998-11-27 06:00:00,7,1019,0.5,87,5,6000,11.112,,,320,6.3,9.9,,,,,4,,,,wg-a,,,,AAXX 27064 07005 02656 /3206 10070 20050 30095 40190 53005 60006 86500 90600 333 10099 20063 60044=
07005,1998-11-27 12:00:00,9,1020.7,0.5,81,6,10000,14.816,,,320,,,,,,,,,,,wg-a,,,,AAXX 27124 07005 12460 73208 10090 20060 30113 40207 51005 60006 8125/ 91200=
07005,1998-11-27 15:00:00,8,1020.7,-0.1,87,6,12000,7.408,,,310,,,,,,,,,,,wg-a,,,,AAXX 27154 07005 12/62 73104 10080 20060 30112 40207 56001 60006 8707/ 91500=
07005,1998-11-27 18:00:00,7,1021.2,0.5,87,5,15000,7.408,,,140,5.9,8.9,,,,,,,,,wg-a,,,,AAXX 27184 07005 12/65 71404 10070 20050 30117 40212 53005 60006 8707/ 91800 333 10089 20059=
07005,1998-11-28 00:00:00,5,1020.5,-0.8,100,5,0,11.112,,,180,,,,,,,,,,,wg-a,,,,AAXX 28004 07005 12/// /1806 10050 20050 30110 40205 58008 60006 90000=
07005,1998-11-28 06:00:00,6,1018.1,-1.2,93,5,6000,18.52,,,150,4.6,6.5,,,,,,,,,wg-a,,,,AAXX 28064 07005 02356 81510 10060 20050 30086 40181 56012 60006 875// 90600 333 10065 20046 60004=
07005,1998-11-28 12:00:00,8,1014.9,-2.2,93,7,6000,22.224,,,170,,,,1,,,,,,1,wg-a,,,,AAXX 28124 07005 02356 81712 10080 20070 30055 40149 58022 60016 70165 877// 91200 333 60017=
07005,1998-11-28 15:00:00,9,1012.8,-2.1,87,7,500,18.52,,,160,,,,,,,,,,58,wg-a,,,,AAXX 28154 07005 02300 81610 10090 20070 30034 40128 56021 61000 75865 875// 91500 333 ////=
07005,1998-11-28 18:00:00,7,1012.2,-0.6,100,7,0,7.408,,,160,6.1,8.6,,,,,,,,,wg-a,,,,AAXX 28184 07005 32/// /1604 10070 20070 30028 40122 56006 91800 333 10086 20061=
07005,1998-11-29 00:00:00,8,1013.6,1.4,93,7,0,14.816,,,320,,,,,,,,,,,wg-a,,,,AAXX 29004 07005 12/// /3208 10080 20070 30042 40136 53014 60016 90000=
07005,1998-11-29 06:00:00,5,1015.1,0.8,93,4,18000,18.52,,,320,4.7,8.7,,,,,6,,,2,wg-a,,,,AAXX 29064 07005 02668 /3210 10050 20040 30056 40151 51008 60006 70286 81500 90600 333 10087 20047 60064=
07005,1998-11-29 09:00:00,5,1016.8,1.7,93,4,12000,18.52,,,320,,,,,,,,,,,wg-a,,,,AAXX 29094 07005 12462 53210 10050 20040 30073 40168 53017 60006 81131 90900=
07005,1998-11-29 12:00:00,7,1017.5,0.7,87,5,13000,25.928,,,340,,,,,,,,,,,wg-a,,,,AAXX 29124 07005 12463 33414 10070 20050 30080 40175 51007 60006 81130 91200=
07005,1998-11-29 15:00:00,7,1018.4,0.9,81,4,15000,29.632,,,340,,,,,,,,,,,wg-a,,,,AAXX 29154 07005 12465 53416 10070 20040 30089 40184 53009 60006 82231 91500=
07005,1998-11-29 18:00:00,5,1019.8,1.4,87,3,0,25.928,,,330,4.3,7.6,,,,,,,,,wg-a,,,,AAXX 29184 07005 12/// /3314 10050 20030 30103 40198 51014 60006 91800 333 10076 20043=
07005,1998-11-30 00:00:00,6,1021,0.3,87,4,0,29.632,,,350,,,,,,,,,,,wg-a,,,,AAXX 30004 07005 12/// /3516 10060 20040 30115 40210 50003 60006 90000=
07005,1998-11-30 06:00:00,3,1024.7,2.4,87,1,4500,25.928,,,30,2.9,6.5,,,,,,,,10,wg-a,,,,AAXX 30064 07005 02345 80314 10030 20010 30150 40247 53024 60006 71022 885// 90600 333 10065 20029 60004=
07005,1998-11-30 12:00:00,3,1028.4,1.3,81,0,500,18.52,,,40,,,,,,,,,,,wg-a,,,,AAXX 30124 07005 12400 70410 10030 20000 30187 40284 51013 60006 872// 91200=
07005,1998-11-30 15:00:00,3,1028.6,0.2,81,0,500,18.52,,,30,,,,,,,,,,,wg-a,,,,AAXX 30154 07005 12500 20310 10030 20000 30189 40286 53002 60006 82200 91500=
07005,1998-11-30 18:00:00,2,1030.6,1.9,75,-2,4000,29.632,,,50,1.5,3.3,,,,,,,,10,wg-a,,,,AAXX 30184 07005 12440 80516 10020 21020 30208 40306 51019 60006 71011 885// 91800 333 10033 20015=
07005,1998-12-01 00:00:00,0,1032.9,0.9,86,-2,0,22.224,,,60,,,,,,,,,,,wg-a,,,,AAXX 01004 07005 12/// /0612 10000 21020 30230 40329 53009 60006 90000=
07005,1998-12-01 06:00:00,1,1033.8,0.2,86,-1,3500,18.52,,,50,-0.4,1.5,,,,,,,,10,wg-a,,,,AAXX 01064 07005 02435 80510 10010 21010 30239 40338 53002 60006 71022 885// 90600 333 10015 21004 60004=
07005,1998-12-01 12:00:00,1,1033.9,-0.9,86,-1,3000,22.224,,,70,,,,,,,,,,10,wg-a,,,,AAXX 01124 07005 12330 80712 10010 21010 30241 40339 58009 60006 71022 886// 91200=
07005,1998-12-01 15:00:00,1,1033,,86,-1,2500,25.928,,,70,,,,,,,,,,10,wg-a,,,,AAXX 01154 07005 32325 70714 10010 21010 30232 40330 71022 876// 91500=
07005,1998-12-01 18:00:00,0,1032.3,-0.8,86,-2,2500,18.52,,,50,-0.2,1.3,,,,,,,,10,wg-a,,,,AAXX 01184 07005 12325 70510 10000 21020 30224 40323 58008 60006 71022 876// 91800 333 10013 21002=
07005,1998-12-02 00:00:00,-1,1031.4,-0.9,80,-4,0,25.928,,,80,,,,,,,,,,,wg-a,,,,AAXX 02004 07005 12/// /0814 11010 21040 30215 40314 58009 60006 90000=
07005,1998-12-02 06:00:00,-2,1029.9,-0.4,86,-4,4000,18.52,,,80,-1.9,-0.1,,,,,,,,10,wg-a,,,,AAXX 02064 07005 12440 80810 11020 21040 30200 40299 56004 60006 71022 885// 90600 333 11001 21019=
07005,1998-12-02 09:00:00,-2,1029.7,-0.2,86,-4,3000,18.52,,,70,,,,,,,,,,10,wg-a,,,,AAXX 02094 07005 12430 80710 11020 21040 30198 40297 58002 60006 71022 885// 90900=
07005,1998-12-02 12:00:00,-2,1028.8,-0.9,86,-4,4000,22.224,,,70,,,,,,,,,,10,wg-a,,,,AAXX 02124 07005 02440 80712 11020 21040 30189 40288 58009 61000 71072 885// 91200 333 6100=
07005,1998-12-02 15:00:00,-2,1027.2,-1.6,86,-4,4000,14.816,,,80,,,,,,,,,,10,wg-a,,,,AAXX 02154 07005 12440 80808 11020 21040 30173 40272 56016 60006 71022 885// 91500=
07005,1998-12-02 18:00:00,-2,1026.9,-0.3,86,-4,4000,18.52,,,80,-2.4,-1.4,,,,,,,,10,wg-a,,,,AAXX 02184 07005 32440 80810 11020 21040 30170 40269 58003 71022 885// 91800 333 11014 21024=
07005,1998-12-03 00:00:00,-2,1025.4,-1,86,-4,0,14.816,,,80,,,,,,,,,,,wg-a,,,,AAXX 03004 07005 12/// /0808 11020 21040 30155 40254 56010 60006 90000=
07005,1998-12-03 06:00:00,-2,1022.9,-1.2,86,-4,6000,7.408,,,50,-2,-1.5,,,,,,,,,wg-a,,,,AAXX 03064 07005 02456 80504 11020 21040 30131 40229 56012 60006 875// 90600 333 11015 21020 61000=
07005,1998-12-03 09:00:00,-2,1022.6,-0.3,86,-4,500,7.408,,,50,,,,,,,,,,,wg-a,,,,AAXX 03094 07005 12400 80504 11020 21040 30128 40226 58003 60006 885// 90900=
07005,1998-12-03 12:00:00,-2,1021.1,-1.5,93,-3,6000,3.704,,,50,,,,,,,,,,,wg-a,,,,AAXX 03124 07005 12456 80502 11020 21030 30113 40211 58015 60006 885// 91200=
07005,1998-12-03 15:00:00,-1,1019.4,-1.7,86,-3,6000,7.408,,,170,,,,,,,,,,,wg-a,,,,AAXX 03154 07005 12456 81704 11010 21030 30096 40194 56017 60006 885// 91500=
07005,1998-12-04 00:00:00,-1,1015.1,-2.1,93,-2,0,7.408,,,210,,,,,,,,,,,wg-a,,,,AAXX 04004 07005 12/// /2104 11010 21020 30054 40151 58021 60006 90000=
07005,1998-12-04 06:00:00,0,1011.7,-1.5,93,-1,3000,11.112,,,250,-1.5,0,,,,,,,,10,wg-a,,,,AAXX 04064 07005 02430 82506 10000 21010 30020 40117 56015 60006 71022 885// 90600 333 10000 21015 60004=
07005,1998-12-04 12:00:00,4,1011.3,-0.2,93,3,500,18.52,,,330,,,,,,,,,,1,wg-a,,,,AAXX 04124 07005 12400 43310 10040 20030 30018 40113 58002 60006 70161 82832 91200=
07005,1998-12-04 15:00:00,4,1011.4,0.1,87,2,18000,25.928,,,340,,,,0,,,,,,,wg-a,,,,AAXX 04154 07005 12468 73414 10040 20020 30019 40114 53001 60007 878// 91500=
07005,1998-12-04 18:00:00,3,1013.2,1.7,87,1,13000,14.816,,,330,0,4.9,,,,,,,,1,wg-a,,,,AAXX 04184 07005 12463 73308 10030 20010 30036 40132 51017 60006 70186 85802 91800 333 10049 20000=
07005,1998-12-05 00:00:00,2,1014.7,0.4,80,-1,0,14.816,,,320,,,,,,,,,,,wg-a,,,,AAXX 05004 07005 12/// /3208 10020 21010 30051 40147 51004 60006 90000=
07005,1998-12-05 06:00:00,1,1014.6,-0.1,80,-2,15000,18.52,,,320,0.7,3.3,,,,,,,,,wg-a,,,,AAXX 05064 07005 02565 /3210 10010 21020 30049 40146 55001 60006 81100 90600 333 10033 20007 60004=
07005,1998-12-05 09:00:00,2,1015.4,0.9,75,-2,25000,25.928,,,310,,,,,,,,,,,wg-a,,,,AAXX 05094 07005 12575 73114 10020 21020 30058 40154 51009 60006 878// 90900=
07005,1998-12-05 12:00:00,4,1015,-0.3,75,0,25000,31.484,,,300,,,,,,,,,,,wg-a,,,,AAXX 05124 07005 12575 73017 10040 20000 30055 40150 58003 60006 878// 91200=
07005,1998-12-05 15:00:00,5,1014.1,-0.9,70,0,25000,25.928,,,310,,,,,,,,,,27,wg-a,,,,AAXX 05154 07005 02575 73114 10050 20000 30046 40141 56009 61000 72722 878// 91500 333 ////=
07005,1998-12-05 18:00:00,3,1014.7,0.5,93,2,0,22.224,,,320,0.9,5,,,,,,,,,wg-a,,,,AAXX 05184 07005 32/// /3212 10030 20020 30051 40147 53005 91800 333 10050 20009=
07005,1998-12-06 00:00:00,1,1018.4,1.9,93,0,0,7.408,,,330,,,,,,,,,,,wg-a,,,,AAXX 06004 07005 02/// /3304 10010 20000 30087 40184 53019 61000 90000 333 ////=
07005,1998-12-06 06:00:00,1,1021,1.5,93,0,15000,18.52,,,330,-0.6,3.3,,,,,1,,,,wg-a,,,,AAXX 06064 07005 02565 23310 10010 20000 30113 40210 53015 60006 82500 90600 333 10033 21006 60014=
07005,1998-12-06 12:00:00,3,1024.5,1,87,1,15000,14.816,,,320,,,,0,,,,,,,wg-a,,,,AAXX 06124 07005 02565 33208 10030 20010 30148 40245 51010 60006 83200 91200 333 60007=
07005,1998-12-06 18:00:00,1,1026.8,1.2,86,-1,0,11.112,,,300,-0.3,4,,,,,,,,,wg-a,,,,AAXX 06184 07005 32/// /3006 10010 21010 30170 40268 51012 91800 333 10040 21003=
07005,1998-12-07 00:00:00,0,1028,0.4,86,-2,0,7.408,,,240,,,,,,,,,,,wg-a,,,,AAXX 07004 07005 12/// /2404 10000 21020 30182 40280 51004 60006 90000=
07005,1998-12-07 06:00:00,-2,1028.9,0.2,93,-3,15000,7.408,,,220,-1.6,1.5,,,,,,,,,wg-a,,,,AAXX 07064 07005 02/65 22204 11020 21030 30190 40289 53002 60006 81032 90600 333 10015 21016 60004=
07005,1998-12-07 09:00:00,0,1029.9,1.1,86,-2,8000,7.408,,,180,,,,,,,,,,,wg-a,,,,AAXX 07094 07005 12/58 /1804 10000 21020 30201 40299 53011 60006 86052 90900=
07005,1998-12-07 12:00:00,2,1029.9,0.1,93,1,8000,7.408,,,240,,,,0,,,,,,,wg-a,,,,AAXX 07124 07005 02/58 72404 10020 20010 30202 40299 50001 60006 8707/ 91200 333 60007=
07005,1998-12-07 15:00:00,2,1030.1,0.2,93,1,7000,7.408,,,120,,,,,,,,,,,wg-a,,,,AAXX 07154 07005 12457 71204 10020 20010 30204 40301 50002 60006 8357/ 91500=
07005,1998-12-07 18:00:00,2,1030.9,0.7,93,1,7000,11.112,,,160,-2,3,,,,,,,,60,wg-a,,,,AAXX 07184 07005 02457 81606 10020 20010 30211 40309 51007 61000 76062 875// 91800 333 10030 21020 6100=
07005,1998-12-08 00:00:00,2,1030.7,-0.3,93,1,0,14.816,,,150,,,,,,,,,,,wg-a,,,,AAXX 08004 07005 02/// /1508 10020 20010 30209 40307 58003 61000 90000 333 ////=
07005,1998-12-08 06:00:00,3,1029.1,-0.9,93,2,3000,18.52,,,150,1.9,2.9,,,,,,,,10,wg-a,,,,AAXX 08064 07005 02330 81510 10030 20020 30194 40291 58009 60006 71022 876// 90600 333 10029 20019 60004=
07005,1998-12-08 09:00:00,3,1028.6,-0.5,93,2,2500,25.928,,,150,,,,,,,,,,10,wg-a,,,,AAXX 08094 07005 12225 81514 10030 20020 30189 40286 58005 60006 71022 886// 90900=
07005,1998-12-08 12:00:00,4,1027.6,-0.9,93,3,3000,18.52,,,160,,,,,,,,,,10,wg-a,,,,AAXX 08124 07005 12230 81610 10040 20030 30180 40276 58009 60006 71022 886// 91200=
07005,1998-12-08 18:00:00,5,1026.1,-0.4,93,4,2500,22.224,,,170,2.3,4.9,,1,,,,,,61,wg-a,,,,AAXX 08184 07005 12225 81712 10050 20040 30165 40261 58004 60017 76162 877// 91800 333 10049 20023=
07005,1998-12-09 00:00:00,5,1023.9,-1,93,4,0,14.816,,,170,,,,,,,,,,,wg-a,,,,AAXX 09004 07005 12/// /1708 10050 20040 30143 40239 58010 60056 90000=
07005,1998-12-09 06:00:00,5,1021.6,-1,100,5,3000,14.816,,,170,4.4,4.9,,2,,,12,,,61,wg-a,,,,AAXX 09064 07005 02230 81708 10050 20050 30120 40216 56010 60124 76162 887// 90600 333 10049 20044 60027=
07005,1998-12-09 09:00:00,5,1021.8,0.2,100,5,3800,11.112,,,150,,,,2,,,,,,61,wg-a,,,,AAXX 09094 07005 12238 81506 10050 20050 30122 40218 53002 60027 76166 887// 90900=
07005,1998-12-09 12:00:00,6,1021,-0.7,93,5,500,11.112,,,170,,,,1,,,,,,61,wg-a,,,,AAXX 09124 07005 02300 81706 10060 20050 30115 40210 58007 60046 76166 875// 91200 333 60017=
07005,1998-12-09 18:00:00,6,1021.5,0.6,100,6,700,3.704,,,150,4.8,6.4,,0,,,,,,44,wg-a,,,,AAXX 09184 07005 02207 81502 10060 20060 30120 40215 51006 60006 74465 877// 91800 333 10064 20048 60007=
07005,1998-12-10 00:00:00,8,1021.8,-0.1,100,8,0,7.408,,,240,,,,,,,,,,,wg-a,,,,AAXX 10004 07005 12/// /2404 10080 20080 30123 40218 57001 60006 90000=
07005,1998-12-10 06:00:00,7,1021.2,-0.2,100,7,100,11.112,,,220,6.3,8.3,,,,,5,,,45,wg-a,,,,AAXX 10064 07005 02/01 92206 10070 20070 30117 40212 56002 60006 74542 89/// 90600 333 10083 20063 60054=
07005,1998-12-10 09:00:00,6,1021,-0.2,100,6,2500,14.816,,,160,,,,,,,,,,10,wg-a,,,,AAXX 10094 07005 12525 71608 10060 20060 30115 40210 58002 60006 71042 875// 90900=
07005,1998-12-10 12:00:00,7,1018.8,-2.2,93,6,7000,14.816,,,180,,,,,,,,,,1,wg-a,,,,AAXX 10124 07005 12357 71808 10070 20060 30093 40188 58022 60006 70142 875// 91200=
07005,1998-12-10 15:00:00,8,1015.5,-3.2,87,6,8000,22.224,,,170,,,,,,,,,,0,wg-a,,,,AAXX 10154 07005 12658 31712 10080 20060 30061 40155 58032 60006 700// 81501 91500=
07005,1998-12-10 18:00:00,8,1014.3,-1.2,87,6,8000,22.224,,,160,6.1,8.9,,,,,,,,,wg-a,,,,AAXX 10184 07005 12358 81612 10080 20060 30049 40143 58012 60006 876// 91800 333 10089 20061=
07005,1998-12-11 00:00:00,8,1012.8,-0.7,100,8,0,11.112,,,250,,,,,,,,,,,wg-a,,,,AAXX 11004 07005 12/// /2506 10080 20080 30034 40128 56007 60056 90000=
07005,1998-12-11 06:00:00,7,1016.2,1.7,100,7,6000,18.52,,,280,7.1,9.3,,,,,5,,,,wg-a,,,,AAXX 11064 07005 02556 32810 10070 20070 30068 40162 53017 60006 83500 90600 333 10093 20071 60054=
07005,1998-12-11 09:00:00,8,1018.2,2,93,7,6000,11.112,,,290,,,,0,,,,,,,wg-a,,,,AAXX 11094 07005 12256 42906 10080 20070 30088 40182 52020 60007 84601 90900=
07005,1998-12-11 12:00:00,9,1019.1,0.9,93,8,6000,11.112,,,300,,,,,,,,,,,wg-a,,,,AAXX 11124 07005 12356 73006 10090 20080 30097 40191 51009 60006 876// 91200=
07005,1998-12-11 15:00:00,9,1019.2,0.1,93,8,7000,18.52,,,270,,,,,,,,,,,wg-a,,,,AAXX 11154 07005 12357 82710 10090 20080 30098 40192 53001 60006 876// 91500=
07005,1998-12-11 18:00:00,8,1020,0.8,93,7,6000,11.112,,,200,7.1,9.3,,,,,,,,,wg-a,,,,AAXX 11184 07005 12556 82006 10080 20070 30106 40200 51008 60006 8457/ 91800 333 10093 20071=
07005,1998-12-12 00:00:00,8,1019.1,-1.3,93,7,0,22.224,,,180,,,,,,,,,,,wg-a,,,,AAXX 12004 07005 12/// /1812 10080 20070 30097 40191 58013 60006 90000=
07005,1998-12-12 06:00:00,10,1016.8,-0.8,93,9,6000,22.224,,,200,8,10,,,,,,,,61,wg-a,,,,AAXX 12064 07005 02556 82012 10100 20090 30075 40168 56008 61000 76162 885// 90600 333 10100 20080 6002=
07005,1998-12-12 09:00:00,11,1017.4,0.6,100,11,3000,14.816,,,210,,,,1,,,,,,61,wg-a,,,,AAXX 12094 07005 12230 82108 10110 20110 30081 40174 53006 60017 76162 885// 90900=
07005,1998-12-12 12:00:00,13,1017.1,-0.2,100,13,3000,22.224,,,250,,,,1,,,,,,10,wg-a,,,,AAXX 12124 07005 02230 82512 10130 20130 30079 40171 58002 60036 71062 887// 91200 333 60017=
07005,1998-12-12 15:00:00,15,1016.6,-0.5,88,13,12000,22.224,,,240,,,,1,,,,,,61,wg-a,,,,AAXX 12154 07005 12562 82412 10150 20130 30074 40166 58005 60017 76162 885// 91500=
07005,1998-12-12 18:00:00,14,1016,-0.6,94,13,0,29.632,,,220,9.9,14.9,,,,,,,,,wg-a,,,,AAXX 12184 07005 32/// /2216 10140 20130 30068 40160 58006 91800 333 10149 20099=
07005,1998-12-13 00:00:00,12,1018.8,3,88,10,0,50.004,,,270,,,,1,,,,,,,wg-a,,,,AAXX 13004 07005 02/// /2727 10120 20100 30095 40188 53030 60026 90000 333 60017=
07005,1998-12-13 06:00:00,9,1026.8,4.8,87,7,20000,29.632,,,280,9.4,14.1,,,,,6,,,,wg-a,,,,AAXX 13064 07005 12570 72816 10090 20070 30173 40268 51048 60064 81170 90600 333 10141 20094=
07005,1998-12-13 09:00:00,10,1029.7,2.9,82,7,20000,25.928,,,270,,,,,,,,,,,wg-a,,,,AAXX 13094 07005 12/70 72714 10100 20070 30202 40297 52029 60006 8703/ 90900=
07005,1998-12-13 12:00:00,11,1031.6,1.9,82,8,20000,22.224,,,280,,,,,,,,,,,wg-a,,,,AAXX 13124 07005 12570 72812 10110 20080 30221 40316 51019 60006 81102 91200=
07005,1998-12-13 15:00:00,10,1032.4,0.8,82,7,20000,7.408,,,210,,,,,,,,,,,wg-a,,,,AAXX 13154 07005 12570 72104 10100 20070 30229 40324 51008 60006 81132 91500=
07005,1998-12-13 18:00:00,8,1032.1,-0.3,93,7,0,11.112,,,170,8.4,10.8,,,,,,,,,wg-a,,,,AAXX 13184 07005 12/// /1706 10080 20070 30226 40321 58003 60006 91800 333 10108 20084=
07005,1998-12-14 00:00:00,8,1030.2,-1.3,87,6,0,22.224,,,210,,,,,,,,,,,wg-a,,,,AAXX 14004 07005 12/// /2112 10080 20060 30207 40302 58013 60006 90000=
07005,1998-12-14 06:00:00,11,1028.9,0.2,94,10,10000,18.52,,,230,7.5,11.3,,,,,,,,,wg-a,,,,AAXX 14064 07005 02360 82310 10110 20100 30195 40289 53002 60006 876// 90600 333 10113 20075 60004=
07005,1998-12-14 12:00:00,14,1029,-0.8,88,12,7000,25.928,,,220,,,,,,,,,,,wg-a,,,,AAXX 14124 07005 12657 72214 10140 20120 30197 40290 58008 60006 875// 91200=
07005,1998-12-14 15:00:00,14,1027.9,-1.1,82,11,11000,22.224,,,210,,,,,,,,,,,wg-a,,,,AAXX 14154 07005 12/61 /2112 10140 20110 30186 40279 56011 60006 91500=
07005,1998-12-14 18:00:00,12,1029,1,88,10,10000,18.52,,,210,11.3,14.7,,,,,,,,,wg-a,,,,AAXX 14184 07005 12660 /2110 10120 20100 30196 40290 51010 60006 83502 91800 333 10147 20113=
07005,1998-12-15 00:00:00,10,1028.4,-0.5,93,9,0,18.52,,,200,,,,,,,,,,,wg-a,,,,AAXX 15004 07005 12/// /2010 10100 20090 30190 40284 57005 60006 90000=
07005,1998-12-15 06:00:00,10,1027.9,-0.4,93,9,2500,18.52,,,200,8.8,11.9,,,,,,,,10,wg-a,,,,AAXX 15064 07005 02325 72010 10100 20090 30184 40279 58004 60006 71022 876// 90600 333 10119 20088 60004=
07005,1998-12-15 09:00:00,10,1028.2,0.3,87,8,4000,14.816,,,190,,,,,,,,,,10,wg-a,,,,AAXX 15094 07005 12340 81908 10100 20080 30187 40282 50003 60006 71022 876// 90900=
07005,1998-12-15 12:00:00,11,1027.2,-0.9,94,10,6000,18.52,,,200,,,,,,,,,,,wg-a,,,,AAXX 15124 07005 12256 82010 10110 20100 30178 40272 58009 60006 876// 91200=
07005,1998-12-15 15:00:00,11,1026.3,-0.9,94,10,1800,18.52,,,240,,,,,,,,,,10,wg-a,,,,AAXX 15154 07005 12218 82410 10110 20100 30169 40263 55009 60006 71022 876// 91500=
07005,1998-12-15 18:00:00,11,1026.5,0.2,100,11,1600,22.224,,,250,9.3,11.3,,,,,,,,10,wg-a,,,,AAXX 15184 07005 02216 82512 10110 20110 30171 40265 53002 61000 71052 876// 91800 333 10113 20093 6000=
07005,1998-12-16 00:00:00,10,1030.3,2.2,93,9,0,18.52,,,280,,,,,,,,,,,wg-a,,,,AAXX 16004 07005 02/// /2810 10100 20090 30208 40303 51022 60016 90000 333 61000=
07005,1998-12-16 06:00:00,8,1033.7,0.6,93,7,500,3.704,,,210,6.8,11.3,,,,,2,,,45,wg-a,,,,AAXX 16064 07005 02/00 92102 10080 20070 30241 40337 52006 60006 74542 89/// 90600 333 10113 20068 60024=
07005,1998-12-16 09:00:00,7,1034.4,0.7,100,7,500,14.816,,,190,,,,,,,,,,45,wg-a,,,,AAXX 16094 07005 12/00 91908 10070 20070 30248 40344 53007 60006 74544 89/// 90900=
07005,1998-12-16 12:00:00,10,1033.9,-0.4,87,8,500,11.112,,,200,,,,,,,,,,2,wg-a,,,,AAXX 16124 07005 12/00 /2006 10100 20080 30244 40339 58004 60006 70242 82032 91200=
07005,1998-12-16 18:00:00,7,1033.5,0.2,93,6,0,7.408,,,130,7,11.8,,,,,,,,,wg-a,,,,AAXX 16184 07005 12/// /1304 10070 20060 30239 40335 51002 60006 91800 333 10118 20070=
07005,1998-12-17 00:00:00,6,1030.7,-1.4,93,5,0,25.928,,,160,,,,,,,,,,,wg-a,,,,AAXX 17004 07005 12/// /1614 10060 20050 30211 40307 56014 60006 90000=
07005,1998-12-17 06:00:00,3,1028.1,-1.4,100,3,10000,18.52,,,140,3.2,7,,,,,,,,,wg-a,,,,AAXX 17064 07005 02260 81410 10030 20030 30184 40281 56014 60006 886// 90600 333 10070 20032 60004=
07005,1998-12-17 12:00:00,7,1024.3,-2.8,81,4,6000,25.928,,,150,,,,,,,,,,,wg-a,,,,AAXX 17124 07005 12/56 01514 10070 20040 30148 40243 58028 60006 80000 91200=
07005,1998-12-17 15:00:00,8,1022.6,-1.7,76,4,10000,14.816,,,180,,,,,,,,,,,wg-a,,,,AAXX 17154 07005 12/60 01808 10080 20040 30131 40226 56017 60006 80000 91500=
07005,1998-12-17 18:00:00,5,1022.5,-0.2,87,3,500,18.52,,,220,2.7,8.6,,,,,,,,,wg-a,,,,AAXX 17184 07005 12200 /2210 10050 20030 30129 40225 57002 60006 86600 91800 333 10086 20027=
07005,1998-12-18 00:00:00,4,1021.9,-0.6,93,3,0,18.52,,,210,,,,,,,,,,,wg-a,,,,AAXX 18004 07005 12/// /2110 10040 20030 30123 40219 58006 60006 90000=
07005,1998-12-18 06:00:00,7,1020,-1,93,6,7000,18.52,,,200,4.2,7.3,,,,,,,,,wg-a,,,,AAXX 18064 07005 02457 82010 10070 20060 30105 40200 56010 60006 875// 90600 333 10073 20042 60004=
07005,1998-12-18 09:00:00,8,1020.6,0.6,93,7,4000,18.52,,,230,,,,1,,,,,,10,wg-a,,,,AAXX 18094 07005 12340 82310 10080 20070 30111 40206 53006 60017 71062 877// 90900=
07005,1998-12-18 12:00:00,9,1019.3,-1.2,93,8,3000,14.816,,,230,,,,,,,,,,10,wg-a,,,,AAXX 18124 07005 02230 72308 10090 20080 30099 40193 58012 60016 71065 877// 91200 333 61000=
07005,1998-12-18 18:00:00,8,1015.1,-2.2,93,7,500,18.52,,,190,7.2,9.6,,,,,,,,,wg-a,,,,AAXX 18184 07005 12500 31910 10080 20070 30057 40151 58022 60006 83500 91800 333 10096 20072=
07005,1998-12-19 00:00:00,8,1010.8,-1.7,81,5,0,25.928,,,240,,,,2,,,,,,,wg-a,,,,AAXX 19004 07005 02/// /2414 10080 20050 30014 40108 58017 60026 90000 333 60027=
07005,1998-12-19 06:00:00,7,1012.7,2.7,87,5,15000,35.188,,,300,6.7,8.6,,,,,,,,25,wg-a,,,,AAXX 19064 07005 02465 73019 10070 20050 30033 40127 53027 61000 72586 878// 90600 333 10086 20067 6005=
07005,1998-12-19 09:00:00,7,1016.1,3.3,81,4,20000,29.632,,,280,,,,,,,,,,1,wg-a,,,,AAXX 19094 07005 02470 42816 10070 20040 30066 40161 51033 61000 70186 84200 90900 333 ////=
07005,1998-12-19 12:00:00,8,1016.2,0.2,76,4,25000,38.892,,,290,,,,,,,,,,2,wg-a,,,,AAXX 19124 07005 02575 /2921 10080 20040 30068 40162 50002 61000 70286 86200 91200 333 ////=
07005,1998-12-19 15:00:00,8,1015.7,-0.5,76,4,25000,29.632,,,290,,,,,,,,,,,wg-a,,,,AAXX 19154 07005 12575 72916 10080 20040 30063 40157 56005 60006 878// 91500=
07005,1998-12-19 18:00:00,7,1015.1,-0.6,81,4,0,18.52,,,280,6.5,8.4,,,,,,,,,wg-a,,,,AAXX 19184 07005 32/// /2810 10070 20040 30057 40151 58006 91800 333 10084 20065=
07005,1998-12-20 00:00:00,5,1011.2,-2.5,87,3,0,14.816,,,210,,,,,,,,,,,wg-a,,,,AAXX 20004 07005 12/// /2108 10050 20030 30017 40112 58025 60006 90000=
07005,1998-12-20 06:00:00,4,1007.7,-1.2,93,3,10000,11.112,,,70,3.6,7,,,,,,,,3,wg-a,,,,AAXX 20064 07005 02360 80706 10040 20030 39982 40077 55012 60006 70362 875// 90600 333 10070 20036 60004=
07005,1998-12-20 09:00:00,4,1009.9,2.2,93,3,12000,22.224,,,40,,,,,,,,,,,wg-a,,,,AAXX 20094 07005 12462 70412 10040 20030 30004 40099 53022 60006 83832 90900=
07005,1998-12-20 12:00:00,6,1012.1,2.2,70,1,20000,25.928,,,50,,,,,,,,,,,wg-a,,,,AAXX 20124 07005 12470 50514 10060 20010 30026 40121 51022 60006 83832 91200=
07005,1998-12-20 15:00:00,5,1014.1,2,81,2,25000,18.52,,,30,,,,,,,,,,,wg-a,,,,AAXX 20154 07005 12575 40310 10050 20020 30046 40141 53020 60006 83802 91500=
07005,1998-12-20 18:00:00,3,1016.9,2.7,87,1,0,18.52,,,350,3,6.3,,,,,,,,,wg-a,,,,AAXX 20184 07005 12/// /3510 10030 20010 30073 40169 51027 60006 91800 333 10063 20030=
07005,1998-12-21 00:00:00,1,1020.6,1.1,93,0,0,14.816,,,320,,,,,,,,,,,wg-a,,,,AAXX 21004 07005 12/// /3208 10010 20000 30187 40206 51011 60006 90000=
07005,1998-12-21 06:00:00,1,1022.6,0.8,86,-1,10000,18.52,,,10,0.1,3.1,,,,,,,,,wg-a,,,,AAXX 21064 07005 02/60 00110 10010 21010 30129 40226 53008 60006 80000 90600 333 10031 20001 60004=
07005,1998-12-21 09:00:00,0,1024.4,1.7,86,-2,10000,7.408,,,310,,,,,,,,,,,wg-a,,,,AAXX 21094 07005 12/60 33104 10000 21020 30146 40244 53017 60006 81031 90900=
07005,1998-12-21 12:00:00,3,1025.1,0.8,75,-1,15000,11.112,,,350,,,,0,,,,,,,wg-a,,,,AAXX 21124 07005 02465 53506 10030 21010 30154 40251 50008 60006 81131 91200 333 60007=
07005,1998-12-21 15:00:00,3,1025.6,0.5,70,-2,15000,11.112,,,320,,,,,,,,,,,wg-a,,,,AAXX 21154 07005 12465 63206 10030 21020 30159 40256 53005 60006 84831 91500=
07005,1998-12-21 18:00:00,2,1025.8,0.2,80,-1,20000,11.112,,,180,-0.7,3.8,,,,,,,,,wg-a,,,,AAXX 21184 07005 12770 61806 10020 21010 30161 40258 50002 60006 86500 91800 333 10038 21007=
07005,1998-12-22 00:00:00,3,1025.7,-0.3,87,1,0,14.816,,,220,,,,,,,,,,,wg-a,,,,AAXX 22004 07005 12/// /2208 10030 20010 30160 40257 57003 60006 90000=
07005,1998-12-22 06:00:00,5,1024.6,-0.1,81,2,8000,18.52,,,240,1.3,4.5,,,,,,,,50,wg-a,,,,AAXX 22064 07005 02358 82410 10050 20020 30150 40246 55001 60004 75052 885// 90600 333 10045 20013 61000=
07005,1998-12-22 09:00:00,5,1025.1,0.5,93,4,12000,18.52,,,230,,,,0,,,,,,3,wg-a,,,,AAXX 22094 07005 12562 72310 10050 20040 30155 40251 52005 60007 70352 878// 90900=
07005,1998-12-22 12:00:00,6,1025.4,0.3,87,4,12000,14.816,,,230,,,,,,,,,,2,wg-a,,,,AAXX 22124 07005 12562 82308 10060 20040 30158 40254 50003 60006 70252 885// 91200=
07005,1998-12-22 15:00:00,6,1024.9,-0.5,93,5,10000,11.112,,,210,,,,,,,,,,,wg-a,,,,AAXX 22154 07005 12560 72106 10060 20050 30153 40249 56005 60006 875// 91500=
07005,1998-12-22 18:00:00,6,1024.9,0,87,4,6000,14.816,,,190,4.3,6.4,,,,,,,,,wg-a,,,,AAXX 22184 07005 12556 81908 10060 20040 30153 40249 50000 60006 885// 91800 333 10064 20043=
07005,1998-12-23 00:00:00,5,1023.9,-0.5,87,3,0,14.816,,,180,,,,,,,,,,,wg-a,,,,AAXX 23004 07005 12/// /1808 10050 20030 30143 40239 58005 60016 90000=
07005,1998-12-23 06:00:00,4,1022.7,-0.8,75,0,10000,14.816,,,160,3.8,5.9,,,,,,,,21,wg-a,,,,AAXX 23064 07005 02360 81608 10040 20000 30131 40227 58008 61000 72162 877// 90600 333 10059 20038 6002=
07005,1998-12-23 09:00:00,3,1022.6,-0.2,75,-1,15000,22.224,,,170,,,,,,,,,,,wg-a,,,,AAXX 23094 07005 12565 71712 10030 21010 30129 40226 56002 60006 83532 90900=
07005,1998-12-23 12:00:00,5,1020.6,-1.9,65,-1,20000,22.224,,,160,,,,,,,,,,,wg-a,,,,AAXX 23124 07005 12670 71612 10050 21010 30110 40206 58019 60006 82532 91200=
07005,1998-12-23 15:00:00,5,1018.3,-2.2,70,0,20000,18.52,,,180,,,,,,,,,,,wg-a,,,,AAXX 23154 07005 12770 71810 10050 20000 30088 40183 56022 60006 82532 91500=
07005,1998-12-23 18:00:00,3,1017.4,-1,81,0,20000,11.112,,,150,3,5.9,,,,,,,,,wg-a,,,,AAXX 23184 07005 12/70 61506 10030 20000 30078 40174 56010 60006 84032 91800 333 10059 20030=
07005,1998-12-24 00:00:00,2,1015.7,-0.7,93,1,0,7.408,,,130,,,,,,,,,,,wg-a,,,,AAXX 24004 07005 32/// /1304 10020 20010 30061 40157 56007 90000=
07005,1998-12-24 06:00:00,2,1019.7,1.8,100,2,8000,11.112,,,290,1.9,3.2,,,,,1,,,0,wg-a,,,,AAXX 24064 07005 12458 42906 10020 20020 30100 40197 53018 60014 700// 84800 90600 333 10032 20019=
07005,1998-12-24 12:00:00,7,1022.9,0.9,66,1,15000,22.224,,,290,,,,,,,,,,0,wg-a,,,,AAXX 24124 07005 32565 22912 10070 20010 30134 40229 50009 700// 81131 91200=
07005,1998-12-24 15:00:00,7,1023.3,0.4,70,2,25000,14.816,,,240,,,,,,,,,,0,wg-a,,,,AAXX 24154 07005 32575 32408 10070 20020 30138 40233 53004 700// 82101 91500=
07005,1998-12-24 18:00:00,5,1023.4,0,87,3,0,18.52,,,210,1.2,7.3,,,,,,,,,wg-a,,,,AAXX 24184 07005 32/// /2110 10050 20030 30138 40234 50000 91800 333 10073 20012=
07005,1998-12-25 00:00:00,6,1021.4,-1.4,93,5,0,25.928,,,210,,,,,,,,,,,wg-a,,,,AAXX 25004 07005 32/// /2114 10060 20050 30119 40214 58014 90000=
07005,1998-12-25 06:00:00,9,1021.2,-0.2,93,8,4500,22.224,,,220,5.3,8.7,,,,,1,,,51,wg-a,,,,AAXX 25064 07005 02245 82212 10090 20080 30118 40212 56002 60014 75152 887// 90600 333 10087 20053 61000=
07005,1998-12-25 09:00:00,10,1022,0.8,93,9,15000,25.928,,,230,,,,0,,,,,,1,wg-a,,,,AAXX 25094 07005 12265 82314 10100 20090 30126 40220 51008 60007 70152 875// 90900=
07005,1998-12-25 12:00:00,11,1021.1,-0.9,87,9,20000,29.632,,,220,,,,,,,,,,3,wg-a,,,,AAXX 25124 07005 32270 82216 10110 20090 30117 40211 58009 70352 888// 91200=
07005,1998-12-25 15:00:00,11,1019.4,-1.7,82,8,25000,25.928,,,200,,,,,,,,,,0,wg-a,,,,AAXX 25154 07005 32275 82014 10110 20080 30100 40194 56017 700// 888// 91500=
07005,1998-12-25 18:00:00,10,1017.4,-2,87,8,0,31.484,,,210,8.7,11.1,,,,,,,,,wg-a,,,,AAXX 25184 07005 32/// /2117 10100 20080 30080 40174 57020 91800 333 10111 20087=
07005,1998-12-26 00:00:00,9,1016.4,1.7,81,6,0,46.3,,,260,,,,2,,,,,,,wg-a,,,,AAXX 26004 07005 02/// /2625 10090 20060 30070 40164 53017 60026 90000 333 60027=
07005,1998-12-26 06:00:00,8,1018.4,0.2,87,6,12000,18.52,,,240,8,10.5,,,,,2,,,2,wg-a,,,,AAXX 26064 07005 02562 82410 10080 20060 30090 40184 51002 60006 70262 8157/ 90600 333 10105 20080 60024=
07005,1998-12-26 09:00:00,9,1018,-0.4,81,6,12000,22.224,,,210,,,,,,,,,,,wg-a,,,,AAXX 26094 07005 12/62 72112 10090 20060 30086 40180 56004 60006 8703/ 90900=
07005,1998-12-26 12:00:00,10,1013.9,-4,87,8,12000,31.484,,,200,,,,,,,,,,,wg-a,,,,AAXX 26124 07005 12762 82017 10100 20080 30046 40139 58040 60006 8253/ 91200=
07005,1998-12-26 15:00:00,9,1008.9,-5,93,8,8000,29.632,,,190,,,,1,,,,,,61,wg-a,,,,AAXX 26154 07005 12458 81916 10090 20080 39996 40089 56050 60017 76162 885// 91500=
07005,1998-12-26 18:00:00,12,1004.4,-4.4,88,10,0,46.3,,,210,7.6,11.7,,3,,,,,,,wg-a,,,,AAXX 26184 07005 12/// /2125 10120 20100 39952 40044 56044 60037 91800 333 10117 20076=
07005,1998-12-27 00:00:00,11,1005.2,2.1,87,9,0,38.892,,,250,,,,1,,,,,,,wg-a,,,,AAXX 27004 07005 02/// /2521 10110 20090 39960 40052 51021 60016 90000 333 60017=
07005,1998-12-27 06:00:00,7,1006.7,-0.6,93,6,15000,14.816,,,190,7.3,12.3,,,,,,,,61,wg-a,,,,AAXX 27064 07005 02565 81908 10070 20060 39973 40067 58006 61000 76162 885// 90600 333 10123 20073 6006=
07005,1998-12-27 09:00:00,7,1003.5,-3.1,93,6,6000,22.224,,,140,,,,4,,,,,,61,wg-a,,,,AAXX 27094 07005 12456 81412 10070 20060 39942 40035 58031 60047 76166 885// 90900=
07005,1998-12-27 12:00:00,11,999,-4.3,87,9,12000,42.596,,61.116,210,,,,2,,,,,,21,wg-a,,,,AAXX 27124 07005 02462 82123 10110 20090 39899 49990 56043 60066 72162 885// 91200 333 60027 91033=
07005,1998-12-27 15:00:00,11,1000.3,1.2,94,10,12000,31.484,,,220,,,,1,,,,,,21,wg-a,,,,AAXX 27154 07005 12462 82217 10110 20100 39911 40003 53012 60017 72162 885// 91500=
07005,1998-12-27 18:00:00,11,1001.2,0.9,94,10,0,31.484,,,210,6.7,11.5,,0,,,,,,,wg-a,,,,AAXX 27184 07005 12/// /2117 10110 20100 39920 40012 51009 60007 91800 333 10115 20067=
07005,1998-12-28 00:00:00,9,1005.1,1.5,87,7,0,14.816,,,210,,,,,,,,,,,wg-a,,,,AAXX 28004 07005 12/// /2108 10090 20070 39958 40051 51015 60036 90000=
07005,1998-12-28 06:00:00,8,1005.9,0.3,87,6,10000,18.52,,,220,8,11.3,,,,,,,,60,wg-a,,,,AAXX 28064 07005 02360 82210 10080 20060 39966 40059 53003 61000 76062 885// 90600 333 10113 20080 6011=
07005,1998-12-28 09:00:00,8,1008.2,2.3,87,6,20000,18.52,,,220,,,,,,,,,,2,wg-a,,,,AAXX 28094 07005 02470 82210 10080 20060 39989 40082 53023 61000 70262 8487/ 90900 333 ////=
07005,1998-12-28 12:00:00,8,1009.7,1.4,81,5,20000,25.928,,,230,,,,,,,,,,2,wg-a,,,,AAXX 28124 07005 02470 82314 10080 20050 30003 40097 51014 61000 70286 8387/ 91200 333 6100=
07005,1998-12-28 18:00:00,6,1013.4,2.3,81,3,20000,14.816,,,190,5.4,8.2,,,,,,,,,wg-a,,,,AAXX 28184 07005 32470 51908 10060 20030 30039 40134 51023 81930 91800 333 10082 20054=
07005,1998-12-29 00:00:00,4,1015.8,0.8,93,3,0,14.816,,,170,,,,,,,,,,,wg-a,,,,AAXX 29004 07005 12/// /1708 10040 20030 30062 40158 51008 60006 90000=
07005,1998-12-29 06:00:00,4,1014.1,-0.8,93,3,10000,22.224,,,140,2.4,6,,,,,,,,,wg-a,,,,AAXX 29064 07005 02460 71412 10040 20030 30046 40141 56008 60006 875// 90600 333 10060 20024 60004=
07005,1998-12-29 09:00:00,4,1013.5,-0.6,93,3,15000,29.632,,,150,,,,,,,,,,,wg-a,,,,AAXX 29094 07005 12365 71516 10040 20030 30040 40135 58006 60006 876// 90900=
07005,1998-12-29 12:00:00,5,1010.8,-2.7,87,3,15000,25.928,,,140,,,,,,,,,,,wg-a,,,,AAXX 29124 07005 12465 71414 10050 20030 30013 40108 58027 60006 82532 91200=
07005,1998-12-29 15:00:00,6,1008.4,-2.3,87,4,12000,22.224,,,140,,,,,,,,,,,wg-a,,,,AAXX 29154 07005 12/62 71412 10060 20040 39990 40084 56023 60006 82032 91500=
07005,1998-12-29 18:00:00,6,1007.5,-0.9,93,5,10000,22.224,,,130,3.9,6.2,,,,,,,,,wg-a,,,,AAXX 29184 07005 12/60 71312 10060 20050 39981 40075 56009 60006 83032 91800 333 10062 20039=
07005,1998-12-30 00:00:00,7,1006.2,-0.5,81,4,0,25.928,,,150,,,,,,,,,,,wg-a,,,,AAXX 30004 07005 32/// /1514 10070 20040 39968 40062 58005 90000=
07005,1998-12-30 06:00:00,9,1005.8,0.1,71,4,10000,29.632,,,170,5.9,8.7,,,,,,,,0,wg-a,,,,AAXX 30064 07005 12/60 81716 10090 20040 39965 40058 53001 60004 700// 8807/ 90600 333 10087 20059=
07005,1998-12-30 09:00:00,8,1008.2,2.3,87,6,10000,22.224,,,180,,,,1,,,,,,61,wg-a,,,,AAXX 30094 07005 12/60 81812 10080 20060 39988 40082 51023 60017 76162 8807/ 90900=
07005,1998-12-30 12:00:00,8,1008.7,0.6,93,7,12000,18.52,,,170,,,,2,,,,,,61,wg-a,,,,AAXX 30124 07005 12/62 81710 10080 20070 39994 40087 51006 60027 76162 8807/ 91200=
07005,1998-12-30 18:00:00,9,1008.7,0.2,81,6,12000,18.52,,,160,7.5,8.9,,,,,,,,61,wg-a,,,,AAXX 30184 07005 02562 81610 10090 20060 39994 40087 50002 61000 76162 8/57/ 91800 333 10089 20075 ////=
07005,1998-12-31 00:00:00,8,1007,-1.1,87,6,0,22.224,,,150,,,,,,,,,,,wg-a,,,,AAXX 31004 07005 32/// /1512 10080 20060 39977 40070 58011 90000=
07005,1998-12-31 06:00:00,9,1004.3,-1,87,7,12000,25.928,,,160,8.3,8.9,,,,,3,,,2,wg-a,,,,AAXX 31064 07005 12562 71614 10090 20070 39950 40043 56010 60034 70262 875// 90600 333 10089 20083=
07005,1998-12-31 12:00:00,10,1003.6,-1,82,7,18000,31.484,,,170,,,,,,,,,,1,wg-a,,,,AAXX 31124 07005 32468 71717 10100 20070 39944 40036 58010 70162 875// 91200=
07005,1998-12-31 18:00:00,9,1003.5,0.4,76,5,0,22.224,,,140,8.4,10,,,,,,,,,wg-a,,,,AAXX 31184 07005 32/// /1412 10090 20050 39942 40035 52004 91800 333 10100 20084=
