station_id,dh_utc,temperature,pression,pression_variation_3h,humidite,point_de_rosee,visibilite,vent_moyen,vent_rafales,vent_rafales_10min,vent_direction,temperature_min,temperature_max,pluie_1h,pluie_3h,pluie_6h,pluie_12h,pluie_24h,ensoleillement,temperature_sol,temps_omm,source,radiations,neige_au_sol,nebulosite,raw_msg
07110,1997-01-01 00:00:00,-2,1015.2,0.6,86,-4,500,11.112,,,70,,,,,,,,,,70,wg-a,,,,AAXX 01004 07110 02600 70706 11020 21040 30027 40152 51006 61000 77087 875// 90000 333 6100=
07110,1997-01-01 03:00:00,-5,1015.6,0.2,86,-7,500,3.704,,,40,,,,,,,,,,22,wg-a,,,,AAXX 01034 07110 02700 70402 11050 21070 30029 40156 53002 61000 72272 875// 90300 333 ////=
07110,1997-01-01 06:00:00,-7,1016,0.3,93,-8,6000,0,,,0,-7,-2,,,,,2,,,2,wg-a,,1,,AAXX 01064 07110 02/56 /0000 11070 21080 30032 40160 52003 60006 70271 90600 333 11020 21070 4/001 60024=
07110,1997-01-01 09:00:00,-6,1016.9,1,93,-7,6000,3.704,,,310,,,,,,,,,,,wg-a,,,,AAXX 01094 07110 12/56 /3102 11060 21070 30042 40169 53010 60006 8602/ 90900=
07110,1997-01-01 12:00:00,-3,1016.9,0.1,86,-5,4000,3.704,,,90,,,,,,,,,,22,wg-a,,,,AAXX 01124 07110 02340 /0902 11030 21050 30043 40169 50001 61000 72271 8352/ 91200 333 6100=
07110,1997-01-01 15:00:00,-3,1016.9,-0,80,-6,7000,7.408,,,100,,,,,,,,,,,wg-a,,,,AAXX 01154 07110 12457 /1004 11030 21060 30043 40169 55000 60006 8252/ 91500=
07110,1997-01-01 18:00:00,-5,1018.3,1.3,86,-7,6000,14.816,,,90,-6.7,-1.9,,,,,,,,,wg-a,,,,AAXX 01184 07110 12/56 /0908 11050 21070 30056 40183 53013 60006 91800 333 11019 21067=
07110,1997-01-01 21:00:00,-6,1019.5,1.1,86,-8,500,7.408,,,80,,,,,,,,,,,wg-a,,,,AAXX 01214 07110 12/00 20804 11060 21080 30067 40195 51011 60006 82030 92100=
07110,1997-01-02 00:00:00,-5,1019.8,0.3,86,-7,6000,18.52,,,80,,,,,,,,,,,wg-a,,,,AAXX 02004 07110 12/56 20810 11050 21070 30070 40198 51003 60006 82030 90000=
07110,1997-01-02 03:00:00,-6,1019.3,-0.5,86,-8,7000,11.112,,,70,,,,,,,,,,,wg-a,,,,AAXX 02034 07110 12/57 00706 11060 21080 30065 40193 57005 60006 80000 90300=
07110,1997-01-02 06:00:00,-6,1018.1,-1.1,93,-7,500,18.52,,,60,-7.2,-4.4,,,,,,,,,wg-a,,1,,AAXX 02064 07110 02/00 00610 11060 21070 30054 40181 58011 60006 80000 90600 333 11044 21072 4/001 61000=
07110,1997-01-02 09:00:00,-5,1018.5,0.4,86,-7,3500,18.52,,,80,,,,,,,,,,10,wg-a,,,,AAXX 02094 07110 12735 /0810 11050 21070 30058 40185 53004 60006 71000 81530 90900=
07110,1997-01-02 12:00:00,-2,1016.5,-1.9,80,-5,4500,18.52,,,70,,,,,,,,,,10,wg-a,,,,AAXX 02124 07110 12/45 /0710 11020 21050 30039 40165 58019 60006 71000 80001 91200=
07110,1997-01-02 15:00:00,-1,1014.7,-1.7,80,-4,7000,18.52,,,70,,,,,,,,,,,wg-a,,,,AAXX 02154 07110 12/57 /0710 11010 21040 30022 40147 56017 60006 91500=
07110,1997-01-02 18:00:00,-2,1013.8,-0.9,80,-5,12000,18.52,,,70,-5.5,-0.8,,,,,,,,,wg-a,,1,,AAXX 02184 07110 12/62 10710 11020 21050 30013 40138 56009 60006 80001 91800 333 11008 21055 4/001=
07110,1997-01-02 21:00:00,-3,1013.3,-0.5,86,-5,10000,14.816,,,60,,,,,,,,,,,wg-a,,,,AAXX 02214 07110 12/60 00608 11030 21050 30008 40133 56005 60006 80000 92100=
07110,1997-01-03 00:00:00,-1,1011.6,-1.7,86,-3,10000,14.816,,,50,,,,,,,,,,,wg-a,,,,AAXX 03004 07110 12560 40508 11010 21030 39991 40116 58017 60006 84500 90000=
07110,1997-01-03 03:00:00,-2,1010.7,-0.9,93,-3,8000,14.816,,,50,,,,,,,,,,,wg-a,,,,AAXX 03034 07110 12558 40508 11020 21030 39982 40107 58009 60006 84500 90300=
07110,1997-01-03 06:00:00,0,1009.4,-1.2,86,-2,8000,18.52,,,50,-2.6,0.4,,,,,,,,,wg-a,,1,,AAXX 03064 07110 02658 /0510 10000 21020 39970 40094 56012 60006 85501 90600 333 10004 21026 4/001 60004=
07110,1997-01-03 09:00:00,1,1009.6,0.3,86,-1,500,7.408,,,40,,,,,,,,,,,wg-a,,,,AAXX 03094 07110 12600 70404 10010 21010 39973 40096 53003 60006 875// 90900=
07110,1997-01-03 12:00:00,2,1008.5,-1.1,75,-2,8000,14.816,,,30,,,,,,,,,,,wg-a,,,,AAXX 03124 07110 12558 80308 10020 21020 39962 40085 58011 60006 875// 91200=
07110,1997-01-03 15:00:00,2,1007.2,-1.3,80,-1,7000,22.224,,40.744,20,,,,,,,,,,,wg-a,,,,AAXX 03154 07110 12557 80212 10020 21010 39949 40072 56013 60006 875// 91500 333 91022=
07110,1997-01-03 18:00:00,2,1007.3,0.1,75,-2,7000,25.928,,42.596,30,0,2.1,,,,,,,,,wg-a,,1,,AAXX 03184 07110 12557 80314 10020 21020 39950 40073 53001 60006 875// 91800 333 10021 20000 4/001 91023=
07110,1997-01-03 21:00:00,1,1007.7,0.4,80,-2,15000,22.224,,,20,,,,,,,,,,,wg-a,,,,AAXX 03214 07110 12565 80212 10010 21020 39954 40077 51004 60006 875// 92100=
07110,1997-01-04 00:00:00,2,1008,0.3,75,-2,10000,18.52,,,20,,,,,,,,,,,wg-a,,,,AAXX 04004 07110 12560 80210 10020 21020 39957 40080 51003 60006 875// 90000=
07110,1997-01-04 03:00:00,2,1007.9,-0.1,75,-2,10000,14.816,,,10,,,,,,,,,,,wg-a,,,,AAXX 04034 07110 12560 80108 10020 21020 39956 40079 55001 60006 875// 90300=
07110,1997-01-04 06:00:00,2,1007.9,-0,75,-2,15000,14.816,,,350,1.2,1.7,,,,,,,,,wg-a,,1,,AAXX 04064 07110 02565 83508 10020 21020 39956 40079 54000 60006 875// 90600 333 10017 20012 4/001 60004=
07110,1997-01-04 09:00:00,2,1008.8,0.9,80,-1,15000,11.112,,,340,,,,,,,,,,,wg-a,,,,AAXX 04094 07110 12465 83406 10020 21010 39965 40088 51009 60006 875// 90900=
07110,1997-01-04 12:00:00,2,1009.4,0.6,80,-1,7000,11.112,,,320,,,,,,,,,,51,wg-a,,,,AAXX 04124 07110 02557 83206 10020 21010 39971 40094 50006 61000 75176 875// 91200 333 6100=
07110,1997-01-04 15:00:00,2,1008.9,-0.5,93,1,500,11.112,,,320,,,,,,,,,,51,wg-a,,,,AAXX 04154 07110 02400 83206 10020 20010 39966 40089 55005 61000 75176 885// 91500 333 ////=
07110,1997-01-04 18:00:00,1,1009.3,0.4,100,1,8000,7.408,,,330,1.3,1.9,,,,,,,,20,wg-a,,,,AAXX 04184 07110 02558 83304 10010 20010 39970 40093 52004 61000 72076 875// 91800 333 10019 20013 6001=
07110,1997-01-04 21:00:00,2,1010.1,0.8,93,1,500,7.408,,,330,,,,0,,,,,,51,wg-a,,,,AAXX 04214 07110 12400 83304 10020 20010 39978 40101 51008 60007 75165 885// 92100=
07110,1997-01-05 00:00:00,2,1010.1,-0,93,1,7000,3.704,,,360,,,,0,,,,,,21,wg-a,,,,AAXX 05004 07110 02557 83602 10020 20010 39978 40101 55000 60016 72165 875// 90000 333 60007=
07110,1997-01-05 03:00:00,1,1010.2,0.1,100,1,7000,3.704,,,300,,,,0,,,,,,51,wg-a,,,,AAXX 05034 07110 12457 83002 10010 20010 39979 40102 52001 60007 75165 885// 90300=
07110,1997-01-05 06:00:00,1,1009.9,-0.3,100,1,2000,3.704,,,290,1.1,1.8,,,,,,,,51,wg-a,,,,AAXX 05064 07110 02120 82902 10010 20010 39976 40099 57003 61000 75165 8677/ 90600 333 10018 20011 6003=
07110,1997-01-05 09:00:00,1,1010.9,1,100,1,1200,3.704,,,90,,,,0,,,,,,51,wg-a,,,,AAXX 05094 07110 12312 80902 10010 20010 39986 40109 53010 60007 75166 875// 90900=
07110,1997-01-05 12:00:00,2,1011.1,0.2,93,1,3500,11.112,,,90,,,,,,,,,,50,wg-a,,,,AAXX 05124 07110 02235 80906 10020 20010 39988 40111 50002 60016 75065 875// 91200 333 61000=
07110,1997-01-05 15:00:00,1,1010.8,-0.3,93,0,2000,3.704,,,40,,,,0,,,,,,50,wg-a,,,,AAXX 05154 07110 12220 80402 10010 20000 39985 40108 55003 60007 75055 875// 91500=
07110,1997-01-05 18:00:00,1,1011.4,0.5,100,1,1500,3.704,,,20,0.8,1.9,,,,,,,,,wg-a,,,,AAXX 05184 07110 12/15 /0202 10010 20010 39990 40114 53005 60006 91800 333 10019 20008=
07110,1997-01-05 21:00:00,0,1012.1,0.7,100,0,10000,0,,,0,,,,1,,,,,,71,wg-a,,,,AAXX 05214 07110 12260 70000 10000 20000 39997 40121 51007 60017 77175 865// 92100=
07110,1997-01-06 00:00:00,0,1012.9,0.8,93,-1,8000,7.408,,,90,,,,,,,,,,70,wg-a,,,,AAXX 06004 07110 02458 80904 10000 21010 30005 40129 51008 60016 77075 885// 90000 333 61000=
07110,1997-01-06 03:00:00,-1,1014,1,86,-3,7000,7.408,,,90,,,,,,,,,,22,wg-a,,,,AAXX 06034 07110 02257 80904 11010 21030 30015 40140 53010 61000 72272 885// 90300 333 ////=
07110,1997-01-06 06:00:00,-2,1014.6,0.6,93,-3,8000,7.408,,,100,-1.7,0.9,,,,,2,,,2,wg-a,,1,,AAXX 06064 07110 02558 81004 11020 21030 30021 40146 51006 60006 70272 875// 90600 333 10009 21017 4/001 60024=
07110,1997-01-06 09:00:00,-2,1016.2,1.6,93,-3,2000,11.112,,,90,,,,,,,,,,10,wg-a,,,,AAXX 06094 07110 02420 80906 11020 21030 30037 40162 52016 61000 71052 877// 90900 333 ////=
07110,1997-01-06 12:00:00,-1,1016.8,0.6,86,-3,500,11.112,,,70,,,,,,,,,,1,wg-a,,,,AAXX 06124 07110 02400 80706 11010 21030 30043 40168 50006 61000 70152 875// 91200 333 ////=
07110,1997-01-06 15:00:00,-1,1016.7,-0.1,86,-3,500,7.408,,,50,,,,,,,,,,,wg-a,,,,AAXX 06154 07110 12400 80504 11010 21030 30042 40167 55001 60006 875// 91500=
07110,1997-01-06 18:00:00,-1,1017.3,0.6,86,-3,3000,11.112,,,80,-1.6,-0.6,,,,,,,,10,wg-a,,1,,AAXX 06184 07110 12530 80806 11010 21030 30048 40173 53006 60006 71022 875// 91800 333 11006 21016 4/001=
07110,1997-01-06 21:00:00,-1,1018.5,1.2,93,-2,6000,7.408,,,100,,,,,,,,,,,wg-a,,,,AAXX 06214 07110 12556 81004 11010 21020 30060 40185 51012 60006 875// 92100=
07110,1997-01-07 00:00:00,0,1018.5,0,86,-2,500,3.704,,,90,,,,,,,,,,,wg-a,,,,AAXX 07004 07110 12500 80902 10000 21020 30060 40185 50000 60006 885// 90000=
07110,1997-01-07 03:00:00,0,1018,-0.5,86,-2,6000,7.408,,,100,,,,,,,,,,,wg-a,,,,AAXX 07034 07110 12556 81004 10000 21020 30055 40180 58005 60006 885// 90300=
07110,1997-01-07 06:00:00,-1,1017.9,-0.1,93,-2,8000,7.408,,,90,-0.8,-0.2,,,,,,,,,wg-a,,1,,AAXX 07064 07110 02658 80904 11010 21020 30054 40179 58001 60006 885// 90600 333 11002 21008 4/001 61000=
07110,1997-01-07 09:00:00,-1,1017.8,-0.1,80,-4,8000,7.408,,,90,,,,,,,,,,,wg-a,,,,AAXX 07094 07110 12658 /0904 11010 21040 30053 40178 55001 60006 81500 90900=
07110,1997-01-07 12:00:00,1,1016.4,-1.3,75,-3,8000,22.224,,,100,,,,,,,,,,,wg-a,,,,AAXX 07124 07110 12558 71012 10010 21030 30040 40164 58013 60006 875// 91200=
07110,1997-01-07 15:00:00,0,1014.4,-2,80,-3,10000,18.52,,,110,,,,,,,,,,,wg-a,,,,AAXX 07154 07110 12460 81110 10000 21030 30020 40144 56020 60006 885// 91500=
07110,1997-01-07 18:00:00,-2,1012.2,-2.3,86,-4,6000,11.112,,,80,-2.2,0.9,,,,,,,,,wg-a,,0,,AAXX 07184 07110 12456 70806 11020 21040 39997 40122 58023 60006 875// 91800 333 10009 21022 4/9999=
07110,1997-01-07 21:00:00,-3,1010.9,-1.3,86,-5,6000,14.816,,31.484,80,,,,,,,,,,,wg-a,,,,AAXX 07214 07110 12356 80808 11030 21050 39984 40109 58013 60006 885// 92100 333 91017=
07110,1997-01-08 00:00:00,-4,1009.2,-1.7,93,-5,500,14.816,,,60,,,,,,,,,,,wg-a,,,,AAXX 08004 07110 12200 80608 11040 21050 39967 40092 58017 60006 885// 90000=
07110,1997-01-08 03:00:00,-4,1007.9,-1.3,93,-5,500,18.52,,,60,,,,,,,,,,,wg-a,,,,AAXX 08034 07110 12200 80610 11040 21050 39954 40079 58013 60006 887// 90300=
07110,1997-01-08 06:00:00,-5,1005.8,-2.1,93,-6,6000,18.52,,,70,-4.5,-2.2,,,,,,,,,wg-a,,0,,AAXX 08064 07110 02256 70710 11050 21060 39933 40058 58021 60006 876// 90600 333 11022 21045 4/9999 60004=
07110,1997-01-08 09:00:00,-5,1005.4,-0.5,93,-6,3000,14.816,,,70,,,,,,,,,,10,wg-a,,,,AAXX 08094 07110 12230 70708 11050 21060 39928 40054 57005 60006 71022 876// 90900=
07110,1997-01-08 12:00:00,-4,1004.4,-0.9,86,-6,4000,18.52,,,70,,,,,,,,,,10,wg-a,,,,AAXX 08124 07110 12340 70710 11040 21060 39919 40044 58009 60006 71022 875// 91200=
07110,1997-01-08 15:00:00,-4,1002.8,-1.6,86,-6,4000,14.816,,,50,,,,,,,,,,10,wg-a,,,,AAXX 08154 07110 12340 60508 11040 21060 39903 40028 56016 60006 71022 86500 91500=
07110,1997-01-08 17:00:00,-3,1003,0.3,93,-4,4000,18.52,,,80,,,,,,,,,,10,wg-a,,,,AAXX 08174 07110 12340 80810 11030 21040 39906 40030 50003 60006 71022 886// 91700=
07110,1997-01-08 18:00:00,-3,1003,0.3,93,-4,4000,18.52,,,80,-5,-2.6,,,,,,,,10,wg-a,,,,AAXX 08184 07110 12340 80810 11030 21040 39906 40030 50003 60006 71022 886// 91800 333 11026 21050=
07110,1997-01-08 21:00:00,-2,1002.6,-0.4,93,-3,8000,14.816,,,60,,,,,,,,,,,wg-a,,,,AAXX 08214 07110 12458 80608 11020 21030 39902 40026 58004 60006 886// 92100=
07110,1997-01-09 00:00:00,-1,1002.9,0.3,93,-2,6000,7.408,,,50,,,,,,,,,,,wg-a,,,,AAXX 09004 07110 12456 80504 11010 21020 39905 40029 51003 60006 886// 90000=
07110,1997-01-09 03:00:00,-1,1002.8,-0,93,-2,6000,3.704,,,20,,,,,,,,,,,wg-a,,,,AAXX 09034 07110 12156 80202 11010 21020 39905 40028 55000 60006 886// 90300=
07110,1997-01-09 06:00:00,0,1003.6,0.8,93,-1,500,3.704,,,250,-2.7,0.3,,,,,,,,,wg-a,,0,,AAXX 09064 07110 02200 82502 10000 21010 39913 40036 53008 60006 886// 90600 333 10003 21027 4/000 60004=
07110,1997-01-09 09:00:00,0,1005.3,1.7,100,0,1200,3.704,,,280,,,,,,,,,,10,wg-a,,,,AAXX 09094 07110 12212 72802 10000 20000 39930 40053 53017 60006 71022 876// 90900=
07110,1997-01-09 12:00:00,1,1007.6,2.3,93,0,1200,3.704,,,350,,,,4,,,,,,61,wg-a,,,,AAXX 09124 07110 02312 83502 10010 20000 39953 40076 51023 60046 76176 885// 91200 333 60047=
07110,1997-01-09 15:00:00,1,1009.3,1.7,100,1,6000,0,,,0,,,,1,,,,,,21,wg-a,,,,AAXX 09154 07110 12456 70000 10010 20010 39970 40093 53017 60017 72176 875// 91500=
07110,1997-01-09 18:00:00,1,1011.1,1.7,93,0,6000,3.704,,,310,-0.6,1.6,,,,,,,,1,wg-a,,1,,AAXX 09184 07110 12656 /3102 10010 20000 39987 40111 51017 60006 70176 86500 91800 333 10016 21006 4/001=
07110,1997-01-09 21:00:00,2,1013.1,2.1,87,0,6000,3.704,,,300,,,,,,,,,,,wg-a,,,,AAXX 09214 07110 12556 83002 10020 20000 30008 40131 51021 60006 885// 92100=
07110,1997-01-10 00:00:00,2,1014.8,1.6,80,-1,6000,7.408,,,360,,,,,,,,,,,wg-a,,,,AAXX 10004 07110 12556 23604 10020 21010 30024 40148 53016 60006 82500 90000=
07110,1997-01-10 03:00:00,1,1016.1,1.3,86,-1,6000,0,,,0,,,,,,,,,,,wg-a,,,,AAXX 10034 07110 12556 70000 10010 21010 30037 40161 53013 60006 877// 90300=
07110,1997-01-10 06:00:00,1,1016.7,0.6,86,-1,8000,11.112,,,150,0.8,2.5,,,,,5,,,,wg-a,,1,,AAXX 10064 07110 02558 81506 10010 21010 30043 40167 53006 60006 885// 90600 333 10025 20008 4/001 60054=
07110,1997-01-10 09:00:00,1,1017.6,0.9,86,-1,7000,11.112,,,130,,,,,,,,,,,wg-a,,,,AAXX 10094 07110 12557 61306 10010 21010 30052 40176 53009 60006 82531 90900=
07110,1997-01-10 12:00:00,3,1018.3,0.8,81,0,7000,14.816,,,50,,,,,,,,,,,wg-a,,,,AAXX 10124 07110 12/57 80508 10030 20000 30060 40183 50008 60006 83032 91200=
07110,1997-01-10 15:00:00,6,1017.2,-1,81,3,7000,22.224,,,150,,,,,,,,,,,wg-a,,,,AAXX 10154 07110 12/57 71512 10060 20030 30050 40172 56010 60006 84032 91500=
07110,1997-01-10 18:00:00,4,1017.8,0.5,100,4,6000,22.224,,,140,0.9,5.5,,,,,,,,61,wg-a,,,,AAXX 10184 07110 02456 81412 10040 20040 30055 40178 50005 61000 76162 845// 91800 333 10055 20009 6001=
07110,1997-01-10 21:00:00,5,1017.9,0.1,93,4,10000,29.632,,,160,,,,0,,,,,,50,wg-a,,,,AAXX 10214 07110 12260 81616 10050 20040 30056 40179 50001 60007 75065 877// 92100=
07110,1997-01-11 00:00:00,7,1018.3,0.5,93,6,500,25.928,,,170,,,,0,,,,,,50,wg-a,,,,AAXX 11004 07110 02100 81714 10070 20060 30061 40183 50005 60016 75065 886// 90000 333 60007=
07110,1997-01-11 03:00:00,8,1018.6,0.4,93,7,4000,18.52,,,150,,,,0,,,,,,51,wg-a,,,,AAXX 11034 07110 12140 81510 10080 20070 30065 40186 52004 60007 75155 886// 90300=
07110,1997-01-11 06:00:00,8,1019.2,0.6,100,8,4000,14.816,,,140,4.1,7.6,,,,,,,,50,wg-a,,,,AAXX 11064 07110 02140 81408 10080 20080 30071 40192 53006 61000 75055 887// 90600 333 10076 20041 6002=
07110,1997-01-11 09:00:00,8,1020.7,1.5,100,8,400,7.408,,,150,,,,0,,,,,,50,wg-a,,,,AAXX 11094 07110 12104 81504 10080 20080 30086 40207 53015 60007 75055 887// 90900=
07110,1997-01-11 12:00:00,8,1021.9,1.2,100,8,300,11.112,,,170,,,,0,,,,,,44,wg-a,,,,AAXX 11124 07110 02103 81706 10080 20080 30098 40219 51012 60016 74454 887// 91200 333 60007=
07110,1997-01-11 15:00:00,9,1022.4,0.5,100,9,300,11.112,,,180,,,,0,,,,,,50,wg-a,,,,AAXX 11154 07110 12103 81806 10090 20090 30103 40224 53005 60007 75054 887// 91500=
07110,1997-01-11 18:00:00,9,1023.1,0.7,100,9,100,7.408,,,160,7.5,9.3,,,,,,,,50,wg-a,,,,AAXX 11184 07110 02101 81604 10090 20090 30110 40231 51007 61000 75054 887// 91800 333 10093 20075 6100=
07110,1997-01-11 21:00:00,9,1024.3,1.1,100,9,200,11.112,,,190,,,,,,,,,,45,wg-a,,,,AAXX 11214 07110 32/02 91906 10090 20090 30121 40243 53011 74554 89/// 92100=
07110,1997-01-12 00:00:00,8,1024.9,0.6,100,8,100,7.408,,,160,,,,,,,,,,45,wg-a,,,,AAXX 12004 07110 02/01 91604 10080 20080 30127 40249 51006 61000 74554 89/// 90000 333 ////=
07110,1997-01-12 03:00:00,7,1025.2,0.3,100,7,300,11.112,,,160,,,,,,,,,,43,wg-a,,,,AAXX 12034 07110 12/03 91606 10070 20070 30130 40252 53003 60006 74344 89/// 90300=
07110,1997-01-12 06:00:00,8,1024.9,-0.3,100,8,400,11.112,,,160,7.1,8.9,,,,,1,,,43,wg-a,,,,AAXX 12064 07110 02/04 91606 10080 20080 30127 40249 56003 60006 74344 89/// 90600 333 10089 20071 60014=
07110,1997-01-12 09:00:00,8,1025.2,0.3,100,8,300,11.112,,,150,,,,,,,,,,45,wg-a,,,,AAXX 12094 07110 12/03 91506 10080 20080 30130 40252 53003 60006 74544 89/// 90900=
07110,1997-01-12 12:00:00,8,1024.9,-0.3,100,8,1200,18.52,,,140,,,,,,,,,,10,wg-a,,,,AAXX 12124 07110 12112 81410 10080 20080 30127 40249 58003 60006 71042 886// 91200=
07110,1997-01-12 15:00:00,8,1023.9,-1,100,8,500,18.52,,,150,,,,,,,,,,,wg-a,,,,AAXX 12154 07110 12200 81510 10080 20080 30117 40239 56010 60006 886// 91500=
07110,1997-01-12 18:00:00,7,1023.9,0,100,7,7000,14.816,,,140,6.6,9.3,,,,,,,,,wg-a,,,,AAXX 12184 07110 12257 31408 10070 20070 30117 40239 50000 60006 82601 91800 333 10093 20066=
07110,1997-01-12 21:00:00,6,1024,0,93,5,12000,14.816,,,150,,,,,,,,,,,wg-a,,,,AAXX 12214 07110 12/62 01508 10060 20050 30117 40240 50000 60006 80000 92100=
07110,1997-01-13 00:00:00,5,1023.9,-0.1,87,3,8000,18.52,,,150,,,,,,,,,,,wg-a,,,,AAXX 13004 07110 12/58 01510 10050 20030 30116 40239 58001 60006 80000 90000=
07110,1997-01-13 03:00:00,6,1023.2,-0.7,61,-1,10000,11.112,,,150,,,,,,,,,,,wg-a,,,,AAXX 13034 07110 12/60 /1506 10060 21010 30109 40232 55007 60006 80000 90300=
07110,1997-01-13 06:00:00,6,1022.5,-0.7,52,-3,10000,18.52,,,150,5.1,6.8,,,,,,,,,wg-a,,,,AAXX 13064 07110 02/60 01510 10060 21030 30102 40225 57007 60006 80000 90600 333 10068 20051 60004=
07110,1997-01-13 09:00:00,7,1022.2,-0.2,39,-6,25000,14.816,,,140,,,,,,,,,,,wg-a,,,,AAXX 13094 07110 12/75 41408 10070 21060 30100 40222 56002 60006 80002 90900=
07110,1997-01-13 12:00:00,10,1021.9,-0.2,37,-4,500,22.224,,,150,,,,,,,,,,,wg-a,,,,AAXX 13124 07110 12/00 41512 10100 21040 30098 40219 58002 60006 80002 91200=
07110,1997-01-13 15:00:00,12,1020.4,-1.4,35,-3,500,14.816,,,150,,,,,,,,,,,wg-a,,,,AAXX 13154 07110 12/00 41508 10120 21030 30084 40204 56014 60006 80002 91500=
07110,1997-01-13 18:00:00,8,1020.5,0,42,-4,500,14.816,,,150,5,12.4,,,,,,,,,wg-a,,,,AAXX 13184 07110 12/00 41508 10080 21040 30084 40205 50000 60006 80002 91800 333 10124 20050=
07110,1997-01-13 21:00:00,7,1020.5,-0.1,39,-6,500,18.52,,,160,,,,,,,,,,,wg-a,,,,AAXX 13214 07110 12/00 21610 10070 21060 30083 40205 58001 60006 80002 92100=
07110,1997-01-14 00:00:00,4,1020.2,-0.4,56,-4,500,11.112,,,160,,,,,,,,,,,wg-a,,,,AAXX 14004 07110 12/00 01606 10040 21040 30079 40202 57004 60006 80000 90000=
07110,1997-01-14 03:00:00,2,1019.5,-0.8,64,-4,10000,7.408,,,80,,,,,,,,,,,wg-a,,,,AAXX 14034 07110 12/60 /0804 10020 21040 30071 40195 56008 60006 90300=
07110,1997-01-14 06:00:00,1,1019.1,-0.4,69,-4,15000,7.408,,,120,0.8,8.4,,,,,,,,,wg-a,,,,AAXX 14064 07110 02/65 01204 10010 21040 30067 40191 55004 60006 80000 90600 333 10084 20008 60004=
07110,1997-01-14 09:00:00,3,1019.5,0.4,65,-3,7000,11.112,,,170,,,,,,,,,,,wg-a,,,,AAXX 14094 07110 12/57 /1706 10030 21030 30071 40195 53004 60006 80002 90900=
07110,1997-01-14 12:00:00,9,1018.8,-0.4,49,-1,12000,7.408,,,150,,,,,,,,,,,wg-a,,,,AAXX 14124 07110 12/62 01504 10090 21010 30067 40188 58004 60006 80000 91200=
07110,1997-01-14 15:00:00,9,1018.3,-0.5,61,2,12000,11.112,,,200,,,,,,,,,,,wg-a,,,,AAXX 14154 07110 12/62 02006 10090 20020 30062 40183 55005 60006 80000 91500=
07110,1997-01-14 18:00:00,4,1019.1,0.6,93,3,4000,14.816,,,170,0.6,10.8,,,,,,,,10,wg-a,,,,AAXX 14184 07110 12/40 01708 10040 20030 30068 40191 52006 60006 71000 80000 91800 333 10108 20006=
07110,1997-01-15 00:00:00,5,1020.3,0.4,93,4,3000,7.408,,,140,,,,,,,,,,10,wg-a,,,,AAXX 15004 07110 12130 81404 10050 20040 30080 40203 51004 60006 71011 886// 90000=
07110,1997-01-15 03:00:00,4,1019.8,-0.5,93,3,1500,7.408,,,100,,,,,,,,,,10,wg-a,,,,AAXX 15034 07110 12115 81004 10040 20030 30075 40198 56005 60006 71022 886// 90300=
07110,1997-01-15 06:00:00,4,1018.8,-1,100,4,1500,7.408,,,120,3.4,5.3,,,,,,,,28,wg-a,,,,AAXX 15064 07110 02415 41204 10040 20040 30065 40188 56010 60006 72841 84500 90600 333 10053 20034 60004=
07110,1997-01-15 09:00:00,6,1019.2,0.5,100,6,3500,14.816,,,120,,,,,,,,,,10,wg-a,,,,AAXX 15094 07110 12235 71208 10060 20060 30070 40192 53005 60006 71011 87500 90900=
07110,1997-01-15 12:00:00,7,1018.7,-0.5,100,7,3000,14.816,,,140,,,,,,,,,,10,wg-a,,,,AAXX 15124 07110 12230 71408 10070 20070 30065 40187 58005 60006 71011 875// 91200=
07110,1997-01-15 15:00:00,9,1017.6,-1,93,8,6000,14.816,,,150,,,,,,,,,,,wg-a,,,,AAXX 15154 07110 12256 71508 10090 20080 30055 40176 56010 60006 866// 91500=
07110,1997-01-15 18:00:00,9,1017.6,-0,93,8,4000,18.52,,,150,4.2,9,,,,,,,,,wg-a,,,,AAXX 15184 07110 12/40 /1510 10090 20080 30055 40176 54000 60006 91800 333 10090 20042=
07110,1997-01-15 21:00:00,6,1017.5,-0.2,93,5,15000,14.816,,,150,,,,,,,,,,,wg-a,,,,AAXX 15214 07110 12365 /1508 10060 20050 30053 40175 57002 60006 85600 92100=
07110,1997-01-16 00:00:00,7,1016.6,-0.8,93,6,15000,14.816,,,150,,,,,,,,,,,wg-a,,,,AAXX 16004 07110 12465 /1508 10070 20060 30045 40166 58008 60006 86500 90000=
07110,1997-01-16 03:00:00,7,1015.1,-1.5,93,6,10000,18.52,,,150,,,,,,,,,,,wg-a,,,,AAXX 16034 07110 12260 71510 10070 20060 30030 40151 56015 60006 876// 90300=
07110,1997-01-16 06:00:00,7,1013.6,-1.5,93,6,7000,22.224,,,140,5.6,8.7,,,,,,,,,wg-a,,,,AAXX 16064 07110 02257 31412 10070 20060 30015 40136 58015 60006 83600 90600 333 10087 20056 60004=
07110,1997-01-16 09:00:00,8,1013.3,-0.3,93,7,1500,25.928,,,150,,,,,,,,,,10,wg-a,,,,AAXX 16094 07110 12115 81514 10080 20070 30012 40133 58003 60006 71011 886// 90900=
07110,1997-01-16 12:00:00,9,1011.7,-1.5,93,8,2000,25.928,,,140,,,,,,,,,,10,wg-a,,,,AAXX 16124 07110 12220 81414 10090 20080 39997 40117 58015 60006 71011 886// 91200=
07110,1997-01-16 15:00:00,10,1009.5,-2.1,87,8,8000,29.632,,,160,,,,,,,,,,,wg-a,,,,AAXX 16154 07110 12458 /1616 10100 20080 39976 40095 56021 60006 86500 91500=
07110,1997-01-16 18:00:00,9,1008.9,-0.6,93,8,8000,22.224,,,160,6.4,10.2,,,,,,,,,wg-a,,,,AAXX 16184 07110 12458 /1612 10090 20080 39970 40089 56006 60006 85530 91800 333 10102 20064=
07110,1997-01-16 21:00:00,9,1007.2,-1.7,93,8,15000,25.928,,,140,,,,,,,,,,,wg-a,,,,AAXX 16214 07110 12465 71414 10090 20080 39953 40072 58017 60006 876// 92100=
07110,1997-01-17 00:00:00,10,1005.9,-1.3,87,8,12000,14.816,,,140,,,,,,,,,,,wg-a,,,,AAXX 17004 07110 12462 71408 10100 20080 39940 40059 58013 60006 8457/ 90000=
07110,1997-01-17 03:00:00,10,1005.2,-0.7,93,9,8000,22.224,,,170,,,,0,,,,,,61,wg-a,,,,AAXX 17034 07110 12358 81712 10100 20090 39933 40052 56007 60007 76162 8657/ 90300=
07110,1997-01-17 06:00:00,9,1006.2,1,93,8,10000,7.408,,,250,8.8,10.7,,,,,,,,61,wg-a,,,,AAXX 17064 07110 02460 72504 10090 20080 39943 40062 53010 61000 76162 865// 90600 333 10107 20088 6007=
07110,1997-01-17 09:00:00,9,1009.9,3.6,93,8,8000,11.112,,,230,,,,1,,,,,,1,wg-a,,,,AAXX 17094 07110 12158 52306 10090 20080 39979 40099 52036 60017 70165 81772 90900=
07110,1997-01-17 12:00:00,11,1012,2.2,87,9,12000,14.816,,,230,,,,,,,,,,3,wg-a,,,,AAXX 17124 07110 12462 52308 10110 20090 30001 40120 51022 60016 70365 84202 91200=
07110,1997-01-17 15:00:00,11,1012.7,0.7,87,9,15000,18.52,,,220,,,,,,,,,,,wg-a,,,,AAXX 17154 07110 12465 52210 10110 20090 30008 40127 53007 60006 84202 91500=
07110,1997-01-17 18:00:00,9,1014.3,1.5,93,8,15000,11.112,,,200,8.5,12.3,,,,,,,,,wg-a,,,,AAXX 17184 07110 12/65 12006 10090 20080 30023 40143 53015 60006 81031 91800 333 10123 20085=
07110,1997-01-17 21:00:00,9,1015.6,1.2,93,8,10000,11.112,,,190,,,,,,,,,,,wg-a,,,,AAXX 17214 07110 12260 31906 10090 20080 30035 40156 52012 60006 83600 92100=
07110,1997-01-18 00:00:00,9,1015.6,0.1,93,8,500,14.816,,,190,,,,,,,,,,,wg-a,,,,AAXX 18004 07110 12100 71908 10090 20080 30036 40156 50001 60006 876// 90000=
07110,1997-01-18 03:00:00,9,1014.7,-0.9,100,9,3000,14.816,,,180,,,,,,,,,,10,wg-a,,,,AAXX 18034 07110 12130 71808 10090 20090 30027 40147 58009 60006 71022 876// 90300=
07110,1997-01-18 06:00:00,9,1013.1,-1.6,100,9,10000,22.224,,,170,8,9,,,,,1,,,,wg-a,,,,AAXX 18064 07110 02160 71712 10090 20090 30011 40131 58016 60006 876// 90600 333 10090 20080 60014=
07110,1997-01-18 09:00:00,9,1012.4,-0.7,93,8,12000,22.224,,,150,,,,,,,,,,,wg-a,,,,AAXX 18094 07110 12362 /1512 10090 20080 30004 40124 58007 60006 85500 90900=
07110,1997-01-18 12:00:00,10,1009.6,-2.7,87,8,15000,22.224,,,140,,,,,,,,,,,wg-a,,,,AAXX 18124 07110 12465 81412 10100 20080 39977 40096 58027 60006 84134 91200=
07110,1997-01-18 15:00:00,8,1006.1,-3.6,87,6,15000,25.928,,,140,,,,,,,,,,,wg-a,,,,AAXX 18154 07110 12465 81414 10080 20060 39941 40061 56036 60006 872// 91500=
07110,1997-01-18 18:00:00,7,1003.5,-2.6,87,5,10000,25.928,,,120,7.2,9.9,,,,,,,,61,wg-a,,,,AAXX 18184 07110 02460 81214 10070 20050 39915 40035 57026 61000 76162 855// 91800 333 10099 20072 6100=
07110,1997-01-18 21:00:00,6,1001.4,-2.1,100,6,10000,14.816,,,140,,,,5,,,,,,21,wg-a,,,,AAXX 18214 07110 12260 81408 10060 20060 39894 40014 56021 60057 72162 885// 92100=
07110,1997-01-19 00:00:00,7,1000.9,-0.4,100,7,10000,14.816,,,170,,,,,,,,,,3,wg-a,,,,AAXX 19004 07110 12260 71708 10070 20070 39890 40009 56004 60056 70362 875// 90000=
07110,1997-01-19 03:00:00,8,1000.6,-0.3,100,8,12000,18.52,,,160,,,,0,,,,,,,wg-a,,,,AAXX 19034 07110 12462 71610 10080 20080 39887 40006 58003 60007 875// 90300=
07110,1997-01-19 06:00:00,9,1000.2,-0.4,87,7,12000,18.52,,,160,6.1,8.8,,,,,6,,,1,wg-a,,,,AAXX 19064 07110 02462 71610 10090 20070 39883 40002 55004 60006 70186 875// 90600 333 10088 20061 60064=
07110,1997-01-19 09:00:00,8,1001.8,1.6,87,6,20000,18.52,,,170,,,,1,,,,,,80,wg-a,,,,AAXX 19094 07110 12570 71710 10080 20060 39899 40018 53016 60017 78086 878// 90900=
07110,1997-01-19 12:00:00,10,1003.1,1.3,87,8,15000,25.928,,,160,,,,,,,,,,3,wg-a,,,,AAXX 19124 07110 02465 71614 10100 20080 39912 40031 51013 60016 70386 86902 91200 333 61000=
07110,1997-01-19 15:00:00,10,1004.4,1.3,82,7,25000,14.816,,,170,,,,,,,,,,,wg-a,,,,AAXX 19154 07110 12475 61708 10100 20070 39925 40044 53013 60006 83903 91500=
07110,1997-01-19 18:00:00,7,1006.7,2.2,93,6,25000,7.408,,,90,7.3,10,,0,,,,,,3,wg-a,,,,AAXX 19184 07110 02475 /0904 10070 20060 39947 40067 53022 60006 70386 85803 91800 333 10100 20073 60007=
07110,1997-01-19 21:00:00,8,1009.7,3,93,7,20000,11.112,,,120,,,,0,,,,,,25,wg-a,,,,AAXX 19214 07110 12570 /1206 10080 20070 39977 40097 53030 60007 72586 84203 92100=
07110,1997-01-20 00:00:00,7,1012.3,2.5,93,6,20000,14.816,,,120,,,,0,,,,,,1,wg-a,,,,AAXX 20004 07110 02470 /1208 10070 20060 30002 40123 51025 60016 70186 81800 90000 333 60007=
07110,1997-01-20 03:00:00,5,1014.6,2.2,100,5,20000,3.704,,,80,,,,,,,,,,,wg-a,,,,AAXX 20034 07110 12470 /0802 10050 20050 30024 40146 51022 60006 81200 90300=
07110,1997-01-20 06:00:00,3,1016.7,2,100,3,700,7.408,,,20,2.8,8.4,,,,,1,,,44,wg-a,,,,AAXX 20064 07110 02/07 00204 10030 20030 30044 40167 53020 60006 74441 80000 90600 333 10084 20028 60014=
07110,1997-01-20 09:00:00,7,1020,3.4,93,6,2000,11.112,,,50,,,,0,,,,,,10,wg-a,,,,AAXX 20094 07110 12120 80506 10070 20060 30078 40200 51034 60007 71041 886// 90900=
07110,1997-01-20 12:00:00,7,1021.7,1.7,100,7,4000,14.816,,,50,,,,,,,,,,10,wg-a,,,,AAXX 20124 07110 12240 80508 10070 20070 30095 40217 51017 60006 71041 886// 91200=
07110,1997-01-20 15:00:00,7,1022.6,0.9,93,6,3000,18.52,,,50,,,,,,,,,,10,wg-a,,,,AAXX 20154 07110 12230 80510 10070 20060 30104 40226 53009 60006 71022 886// 91500=
07110,1997-01-20 18:00:00,6,1024.4,1.7,87,4,6000,14.816,,,50,2.9,7.3,,,,,,,,,wg-a,,,,AAXX 20184 07110 12456 80508 10060 20040 30121 40244 51017 60006 875// 91800 333 10073 20029=
07110,1997-01-20 21:00:00,6,1025.1,0.7,81,3,6000,22.224,,,50,,,,,,,,,,,wg-a,,,,AAXX 20214 07110 12556 80512 10060 20030 30128 40251 50007 60006 875// 92100=
07110,1997-01-21 00:00:00,6,1025.2,0.1,75,2,7000,25.928,,44.448,60,,,,,,,,,,,wg-a,,,,AAXX 21004 07110 12557 70614 10060 20020 30129 40252 53001 60006 875// 90000 333 91024=
07110,1997-01-21 03:00:00,5,1024,-1.2,75,1,8000,22.224,,,60,,,,,,,,,,,wg-a,,,,AAXX 21034 07110 12558 70612 10050 20010 30117 40240 58012 60006 875// 90300=
07110,1997-01-21 06:00:00,4,1022.7,-1.4,75,0,7000,25.928,,,60,3.8,5.9,,,,,,,,,wg-a,,,,AAXX 21064 07110 02557 70614 10040 20000 30103 40227 56014 60006 875// 90600 333 10059 20038 60004=
07110,1997-01-21 09:00:00,4,1021.3,-1.3,81,1,15000,22.224,,42.596,60,,,,,,,,,,,wg-a,,,,AAXX 21094 07110 12465 /0612 10040 20010 30090 40213 55013 60006 86500 90900 333 91023=
07110,1997-01-21 12:00:00,5,1018.6,-2.6,87,3,15000,25.928,,44.448,60,,,,,,,,,,,wg-a,,,,AAXX 21124 07110 12465 40614 10050 20030 30064 40186 58026 60006 84500 91200 333 91024=
07110,1997-01-21 15:00:00,4,1016,-2.7,87,2,6000,25.928,,46.3,60,,,,,,,,,,,wg-a,,,,AAXX 21154 07110 12356 70614 10040 20020 30037 40160 56027 60006 876// 91500 333 91025=
07110,1997-01-21 18:00:00,3,1014.6,-0,100,3,4000,14.816,,,60,3.3,5.4,,,,,,,,10,wg-a,,,,AAXX 21184 07110 02340 80608 10030 20030 30023 40146 54000 61000 71061 8677/ 91800 333 10054 20033 ////=
07110,1997-01-21 21:00:00,4,1012.8,-1.7,93,3,500,7.408,,,40,,,,2,,,,,,61,wg-a,,,,AAXX 21214 07110 12400 80404 10040 20030 30006 40128 57017 60027 76166 875// 92100=
07110,1997-01-22 00:00:00,4,1012.3,-0.5,93,3,3000,7.408,,,110,,,,0,,,,,,10,wg-a,,,,AAXX 22004 07110 02230 81104 10040 20030 30001 40123 55005 60026 71062 876// 90000 333 60007=
07110,1997-01-22 03:00:00,4,1010.9,-1.4,100,4,500,7.408,,,130,,,,,,,,,,44,wg-a,,,,AAXX 22034 07110 32/05 91304 10040 20040 39987 40109 56014 74464 89/// 90300=
07110,1997-01-22 06:00:00,6,1011,0.2,100,6,1200,11.112,,,130,3.3,6,,,,,3,,,10,wg-a,,,,AAXX 22064 07110 02112 81306 10060 20060 39989 40110 53002 60006 71064 876// 90600 333 10060 20033 60034=
07110,1997-01-22 09:00:00,7,1010.8,-0.1,100,7,2500,18.52,,,140,,,,1,,,,,,10,wg-a,,,,AAXX 22094 07110 12125 81410 10070 20070 39988 40108 56001 60017 71064 885// 90900=
07110,1997-01-22 12:00:00,9,1010.1,-0.7,100,9,8000,11.112,,,150,,,,0,,,,,,1,wg-a,,,,AAXX 22124 07110 02358 71506 10090 20090 39981 40101 58007 60016 70164 8563/ 91200 333 60007=
07110,1997-01-22 15:00:00,9,1011.4,1.3,93,8,10000,14.816,,,270,,,,0,,,,,,3,wg-a,,,,AAXX 22154 07110 12260 72708 10090 20080 39994 40114 53013 60007 70362 875// 91500=
07110,1997-01-22 18:00:00,6,1014.3,2.8,93,5,4000,7.408,,,280,6,10.1,,,,,,,,10,wg-a,,,,AAXX 22184 07110 02340 82804 10060 20050 30022 40143 51028 61000 71062 875// 91800 333 10101 20060 6000=
07110,1997-01-22 21:00:00,5,1016.4,2,100,5,8000,11.112,,,190,,,,,,,,,,,wg-a,,,,AAXX 22214 07110 12658 21906 10050 20050 30042 40164 51020 60006 81530 92100=
07110,1997-01-23 00:00:00,4,1017.9,1.4,93,3,500,11.112,,,170,,,,0,,,,,,41,wg-a,,,,AAXX 23004 07110 02105 /1706 10040 20030 30056 40179 53014 60006 74141 86600 90000 333 60007=
07110,1997-01-23 03:00:00,3,1018.4,0.5,100,3,8000,7.408,,,140,,,,,,,,,,11,wg-a,,,,AAXX 23034 07110 12658 21404 10030 20030 30061 40184 53005 60006 71141 82500 90300=
07110,1997-01-23 06:00:00,3,1018.7,0.3,100,3,8000,11.112,,,120,2.8,6.3,,,,,2,,,11,wg-a,,,,AAXX 23064 07110 02658 /1206 10030 20030 30064 40187 53003 60006 71141 81530 90600 333 10063 20028 60024=
07110,1997-01-23 09:00:00,4,1019.9,1.2,93,3,9000,3.704,,,90,,,,,,,,,,,wg-a,,,,AAXX 23094 07110 12/59 30902 10040 20030 30076 40199 53012 60006 83031 90900=
07110,1997-01-23 12:00:00,8,1020.1,0.4,93,7,11000,18.52,,,140,,,,,,,,,,,wg-a,,,,AAXX 23124 07110 12/61 /1410 10080 20070 30080 40201 50004 60006 91200=
07110,1997-01-23 18:00:00,8,1020.9,1,93,7,4000,11.112,,,150,3,8.5,,,,,,,,10,wg-a,,,,AAXX 23184 07110 12240 81506 10080 20070 30087 40209 52010 60006 71022 876// 91800 333 10085 20030=
07110,1997-01-23 21:00:00,6,1022,1,93,5,10000,14.816,,,150,,,,,,,,,,,wg-a,,,,AAXX 23214 07110 12/60 01508 10060 20050 30097 40220 53010 60006 80000 92100=
07110,1997-01-24 00:00:00,4,1022.4,0.3,93,3,10000,11.112,,,150,,,,,,,,,,,wg-a,,,,AAXX 24004 07110 12/60 01506 10040 20030 30100 40224 52003 60006 80000 90000=
07110,1997-01-24 03:00:00,3,1023.1,0.7,100,3,10000,11.112,,,170,,,,,,,,,,,wg-a,,,,AAXX 24034 07110 32/60 01706 10030 20030 30107 40231 53007 80000 90300=
07110,1997-01-24 06:00:00,3,1023.6,0.5,93,2,10000,11.112,,,130,2.9,7.6,,,,,,,,,wg-a,,,,AAXX 24064 07110 02/60 01306 10030 20020 30112 40236 53005 60006 80000 90600 333 10076 20029 60004=
07110,1997-01-24 09:00:00,5,1025.1,1.6,93,4,20000,7.408,,,160,,,,,,,,,,,wg-a,,,,AAXX 24094 07110 12670 51604 10050 20040 30128 40251 51016 60006 82532 90900=
07110,1997-01-24 12:00:00,9,1025.8,0.8,81,6,20000,7.408,,,150,,,,,,,,,,,wg-a,,,,AAXX 24124 07110 12770 61504 10090 20060 30136 40258 51008 60006 83532 91200=
07110,1997-01-24 15:00:00,11,1025.7,-0,66,5,25000,7.408,,,40,,,,,,,,,,,wg-a,,,,AAXX 24154 07110 12775 60404 10110 20050 30136 40257 55000 60006 82535 91500=
07110,1997-01-24 18:00:00,8,1027.2,1.4,87,6,20000,7.408,,,30,2.1,11.2,,,,,,,,,wg-a,,,,AAXX 24184 07110 12770 60304 10080 20060 30150 40272 52014 60006 81572 91800 333 10112 20021=
07110,1997-01-25 00:00:00,3,1028.9,0.4,100,3,300,3.704,,,70,,,,0,,,,,,44,wg-a,,,,AAXX 25004 07110 02003 80702 10030 20030 30164 40289 53004 60006 74441 886// 90000 333 60007=
07110,1997-01-25 03:00:00,5,1028.4,-0.3,100,5,400,3.704,,,80,,,,,,,,,,42,wg-a,,,,AAXX 25034 07110 12004 80802 10050 20050 30161 40284 56003 60006 74244 886// 90300=
07110,1997-01-25 06:00:00,6,1028.5,0.1,100,6,500,7.408,,,30,2.7,8.1,,,,,,,,42,wg-a,,,,AAXX 25064 07110 02005 80304 10060 20060 30162 40285 53001 60006 74244 886// 90600 333 10081 20027 60004=
07110,1997-01-25 09:00:00,7,1028.5,0,100,7,400,7.408,,,80,,,,,,,,,,42,wg-a,,,,AAXX 25094 07110 12004 80804 10070 20070 30162 40285 50000 60006 74244 886// 90900=
07110,1997-01-25 12:00:00,9,1028.5,0.1,100,9,2000,3.704,,,60,,,,,,,,,,10,wg-a,,,,AAXX 25124 07110 12120 70602 10090 20090 30163 40285 50001 60006 71042 875// 91200=
07110,1997-01-25 15:00:00,10,1027.1,-1.3,100,10,2000,11.112,,,30,,,,,,,,,,10,wg-a,,,,AAXX 25154 07110 12220 80306 10100 20100 30150 40271 56013 60006 71022 885// 91500=
07110,1997-01-25 18:00:00,9,1027.2,0,100,9,1200,7.408,,,30,6,10.5,,,,,,,,12,wg-a,,,,AAXX 25184 07110 12412 70304 10090 20090 30150 40272 50000 60006 71222 875// 91800 333 10105 20060=
07110,1997-01-25 21:00:00,10,1027.5,0.4,93,9,500,7.408,,,110,,,,,,,,,,,wg-a,,,,AAXX 25214 07110 12400 71104 10100 20090 30154 40275 51004 60006 875// 92100=
07110,1997-01-26 00:00:00,9,1027.6,-0,93,8,500,3.704,,,100,,,,,,,,,,,wg-a,,,,AAXX 26004 07110 12400 /1002 10090 20080 30154 40276 54000 60006 86500 90000=
07110,1997-01-26 03:00:00,8,1027.5,-0.1,93,7,4000,7.408,,,80,,,,,,,,,,10,wg-a,,,,AAXX 26034 07110 12440 80804 10080 20070 30153 40275 56001 60006 71022 875// 90300=
07110,1997-01-26 06:00:00,8,1027.2,-0.3,100,8,3000,7.408,,,70,7.1,10.4,,,,,,,,10,wg-a,,,,AAXX 26064 07110 02130 80704 10080 20080 30150 40272 55003 60006 71022 875// 90600 333 10104 20071 60004=
07110,1997-01-26 09:00:00,8,1027.9,0.7,100,8,800,3.704,,,60,,,,,,,,,,42,wg-a,,,,AAXX 26094 07110 12208 80602 10080 20080 30157 40279 53007 60006 74242 875// 90900=
07110,1997-01-26 12:00:00,9,1027.8,-0.1,93,8,3000,11.112,,,20,,,,,,,,,,10,wg-a,,,,AAXX 26124 07110 02130 /0206 10090 20080 30156 40278 58001 61000 71064 84630 91200 333 6100=
07110,1997-01-26 15:00:00,6,1027.9,-0,100,6,300,11.112,,,20,,,,,,,,,,45,wg-a,,,,AAXX 26154 07110 12/03 90206 10060 20060 30156 40279 54000 60006 74542 89/// 91500=
07110,1997-01-26 18:00:00,6,1028.5,0.6,100,6,100,7.408,,,50,5.6,8.6,,,,,,,,45,wg-a,,,,AAXX 26184 07110 12/01 90504 10060 20060 30162 40285 53006 60006 74542 89/// 91800 333 10086 20056=
07110,1997-01-26 21:00:00,6,1029.9,1.4,100,6,100,3.704,,,70,,,,,,,,,,45,wg-a,,,,AAXX 26214 07110 32/01 90702 10060 20060 30176 40299 51014 74544 89/// 92100=
07110,1997-01-27 00:00:00,3,1030.8,0.7,100,3,300,3.704,,,60,,,,,,,,,,44,wg-a,,,,AAXX 27004 07110 12/03 90602 10030 20030 30183 40308 53007 60006 74444 89/// 90000=
07110,1997-01-27 03:00:00,1,1031.5,0.6,100,1,2000,7.408,,,60,,,,,,,,,,28,wg-a,,,,AAXX 27034 07110 12620 50604 10010 20010 30189 40315 52006 60006 72841 85500 90300=
07110,1997-01-27 06:00:00,4,1032.4,1,100,4,1000,11.112,,,50,0.9,6.1,,,,,,,,10,wg-a,,,,AAXX 27064 07110 02110 80506 10040 20040 30199 40324 53010 60006 71041 886// 90600 333 10061 20009 60004=
07110,1997-01-27 09:00:00,3,1035,2.5,100,3,2500,14.816,,,70,,,,,,,,,,10,wg-a,,,,AAXX 27094 07110 12225 70708 10030 20030 30224 40350 53025 60006 71042 876// 90900=
07110,1997-01-27 12:00:00,7,1035.3,0.5,87,5,7000,14.816,,,40,,,,,,,,,,1,wg-a,,,,AAXX 27124 07110 12457 20408 10070 20050 30229 40353 53005 60006 70141 82500 91200=
07110,1997-01-27 15:00:00,7,1035.9,0.6,87,5,8000,18.52,,,30,,,,,,,,,,,wg-a,,,,AAXX 27154 07110 12458 70310 10070 20050 30235 40359 53006 60006 875// 91500=
07110,1997-01-27 18:00:00,6,1037,1.1,93,5,3000,11.112,,,30,2.2,7.5,,,,,,,,10,wg-a,,,,AAXX 27184 07110 12430 /0306 10060 20050 30246 40370 53011 60006 71011 86500 91800 333 10075 20022=
07110,1997-01-27 21:00:00,4,1038.4,1.3,100,4,7000,7.408,,,20,,,,,,,,,,11,wg-a,,,,AAXX 27214 07110 12457 50204 10040 20040 30259 40384 52013 60006 71111 85500 92100=
07110,1997-01-28 00:00:00,5,1038.5,0.1,100,5,6000,7.408,,,20,,,,,,,,,,,wg-a,,,,AAXX 28004 07110 12756 70204 10050 20050 30260 40385 53001 60006 875// 90000=
07110,1997-01-28 03:00:00,6,1038,-0.4,100,6,4000,14.816,,,20,,,,,,,,,,10,wg-a,,,,AAXX 28034 07110 12740 70208 10060 20060 30256 40380 56004 60006 71022 875// 90300=
07110,1997-01-28 06:00:00,6,1038.5,0.4,93,5,500,11.112,,,40,4.2,6.5,,,,,,,,,wg-a,,,,AAXX 28064 07110 02700 /0406 10060 20050 30260 40385 50004 60006 86500 90600 333 10065 20042 60004=
07110,1997-01-28 09:00:00,6,1039.5,1.1,100,6,2000,7.408,,,30,,,,,,,,,,10,wg-a,,,,AAXX 28094 07110 12320 70304 10060 20060 30271 40395 53011 60006 71042 87500 90900=
07110,1997-01-28 12:00:00,8,1039.1,-0.4,87,6,8000,14.816,,,50,,,,,,,,,,1,wg-a,,,,AAXX 28124 07110 12458 70508 10080 20060 30267 40391 58004 60006 70142 875// 91200=
07110,1997-01-28 15:00:00,7,1037.7,-1.4,76,3,15000,18.52,,,50,,,,,,,,,,,wg-a,,,,AAXX 28154 07110 12565 40510 10070 20030 30253 40377 56014 60006 84500 91500=
07110,1997-01-28 18:00:00,6,1037.9,0.1,87,4,12000,11.112,,,50,4.6,7.8,,,,,,,,60,wg-a,,,,AAXX 28184 07110 02462 70506 10060 20040 30254 40379 53001 61000 76061 875// 91800 333 10078 20046 6100=
07110,1997-01-28 21:00:00,5,1038.4,0.5,87,3,10000,11.112,,,50,,,,,,,,,,1,wg-a,,,,AAXX 28214 07110 02460 70506 10050 20030 30259 40384 50005 61000 70162 875// 92100 333 ////=
07110,1997-01-29 00:00:00,3,1038.4,-0.1,93,2,8000,7.408,,,40,,,,,,,,,,1,wg-a,,,,AAXX 29004 07110 02558 20404 10030 20020 30258 40384 57001 61000 70161 82500 90000 333 ////=
07110,1997-01-29 03:00:00,2,1037.5,-0.9,93,1,8000,7.408,,,60,,,,,,,,,,,wg-a,,,,AAXX 29034 07110 12/58 00604 10020 20010 30249 40375 56009 60006 80000 90300=
07110,1997-01-29 06:00:00,1,1036.6,-1,93,0,8000,11.112,,,60,0.7,5.7,,,,,,,,,wg-a,,,,AAXX 29064 07110 02/58 00606 10010 20000 30239 40366 57010 60006 80000 90600 333 10057 20007 61000=
07110,1997-01-29 09:00:00,1,1036.7,0.1,86,-1,500,18.52,,,80,,,,,,,,,,,wg-a,,,,AAXX 29094 07110 12/00 00810 10010 21010 30240 40367 53001 60006 80000 90900=
07110,1997-01-29 12:00:00,4,1035.4,-1.1,75,0,7000,14.816,,,70,,,,,,,,,,,wg-a,,,,AAXX 29124 07110 12/57 00708 10040 20000 30229 40354 58011 60006 80000 91200=
07110,1997-01-29 15:00:00,6,1033.2,-2.1,75,2,8000,18.52,,,50,,,,,,,,,,,wg-a,,,,AAXX 29154 07110 12/58 20510 10060 20020 30208 40332 56021 60006 80001 91500=
07110,1997-01-29 18:00:00,3,1033.4,0.1,87,1,3000,14.816,,,60,0.8,6.3,,,,,,,,10,wg-a,,,,AAXX 29184 07110 12/30 00608 10030 20010 30209 40334 51001 60006 71000 80000 91800 333 10063 20008=
07110,1997-01-29 21:00:00,2,1033.4,-0.1,87,0,7000,7.408,,,70,,,,,,,,,,,wg-a,,,,AAXX 29214 07110 12/57 00704 10020 20000 30208 40334 58001 60006 80000 92100=
07110,1997-01-30 00:00:00,1,1032.3,-1.1,86,-1,8000,7.408,,,90,,,,,,,,,,,wg-a,,,,AAXX 30004 07110 12/58 00904 10010 21010 30197 40323 55011 60006 80000 90000=
07110,1997-01-30 03:00:00,-1,1032.3,-0.1,93,-2,6000,7.408,,,40,,,,,,,,,,,wg-a,,,,AAXX 30034 07110 12/56 00404 11010 21020 30196 40323 55001 60006 80000 90300=
07110,1997-01-30 06:00:00,-1,1031.6,-0.7,93,-2,2000,3.704,,,40,-1.3,2.6,,,,,,,,,wg-a,,,,AAXX 30064 07110 02/20 /0402 11010 21020 30189 40316 58007 60006 90600 333 10026 21013 60004=
07110,1997-01-30 09:00:00,0,1032.4,0.9,93,-1,4000,14.816,,,60,,,,,,,,,,10,wg-a,,,,AAXX 30094 07110 12/40 /0608 10000 21010 30198 40324 53009 60006 71000 81030 90900=
07110,1997-01-30 12:00:00,9,1032,-0.1,66,3,7000,14.816,,,90,,,,,,,,,,,wg-a,,,,AAXX 30124 07110 12/57 00908 10090 20030 30197 40320 58001 60006 80000 91200=
07110,1997-01-30 15:00:00,12,1030.4,-1.4,58,4,10000,11.112,,,80,,,,,,,,,,,wg-a,,,,AAXX 30154 07110 12/60 00806 10120 20040 30183 40304 57014 60006 80000 91500=
07110,1997-01-30 18:00:00,6,1030.9,0.2,81,3,4500,11.112,,,60,-1.2,11.9,,,,,,,,10,wg-a,,,,AAXX 30184 07110 12/45 20606 10060 20030 30185 40309 53002 60006 71000 80001 91800 333 10119 21012=
07110,1997-01-31 00:00:00,1,1030.7,-0.5,93,0,500,11.112,,,60,,,,,,,,,,,wg-a,,,,AAXX 31004 07110 12/00 30606 10010 20000 30181 40307 58005 60006 80002 90000=
07110,1997-01-31 03:00:00,0,1029.2,-1.5,93,-1,500,11.112,,,50,,,,,,,,,,,wg-a,,,,AAXX 31034 07110 12/00 30506 10000 21010 30166 40292 56015 60006 80002 90300=
07110,1997-01-31 09:00:00,-1,1029,0.8,86,-3,500,7.408,,,70,,,,,,,,,,,wg-a,,,,AAXX 31094 07110 12/00 /0704 11010 21030 30164 40290 52008 60006 80002 90900=
07110,1997-01-31 12:00:00,6,1028.1,-0.6,70,1,6000,3.704,,,50,,,,,,,,,,,wg-a,,,,AAXX 31124 07110 12/56 /0502 10060 20010 30158 40281 58006 60006 80002 91200=
07110,1997-01-31 15:00:00,9,1027,-1,71,4,10000,7.408,,,120,,,,,,,,,,,wg-a,,,,AAXX 31154 07110 12/60 71204 10090 20040 30148 40270 56010 60006 83032 91500=
07110,1997-01-31 18:00:00,6,1027.4,0.3,75,2,4500,11.112,,,140,-1,8.8,,,,,,,,10,wg-a,,,,AAXX 31184 07110 12845 71406 10060 20020 30151 40274 53003 60006 71022 85032 91800 333 10088 21010=
07110,1997-01-31 21:00:00,4,1027.6,0.1,87,2,8000,14.816,,,150,,,,,,,,,,3,wg-a,,,,AAXX 31214 07110 02458 81508 10040 20020 30152 40276 51001 61000 70362 8373/ 92100 333 ////=
07110,1997-02-01 00:00:00,4,1027.6,-0,87,2,500,18.52,,,160,,,,,,,,,,50,wg-a,,,,AAXX 01004 07110 02300 81610 10040 20020 30152 40276 55000 61000 75065 887// 90000 333 6100=
07110,1997-02-01 03:00:00,3,1027.4,-0.2,100,3,3000,14.816,,,160,,,,0,,,,,,10,wg-a,,,,AAXX 01034 07110 12230 81608 10030 20030 30150 40274 56002 60007 71052 877// 90300=
07110,1997-02-01 06:00:00,3,1027.3,-0.1,100,3,3000,18.52,,,160,2.8,6.2,,,,,,,,10,wg-a,,,,AAXX 01064 07110 02130 81610 10030 20030 30149 40273 55001 60006 71052 877// 90600 333 10062 20028 60004=
07110,1997-02-01 09:00:00,4,1027.9,0.6,100,4,1400,11.112,,,180,,,,,,,,,,10,wg-a,,,,AAXX 01094 07110 12114 81806 10040 20040 30155 40279 53006 60006 71022 886// 90900=
07110,1997-02-01 12:00:00,6,1028.5,0.7,93,5,1600,11.112,,,210,,,,0,,,,,,50,wg-a,,,,AAXX 01124 07110 02116 82106 10060 20050 30162 40285 51007 60006 75052 887// 91200 333 60007=
07110,1997-02-01 15:00:00,7,1028.1,-0.4,100,7,1000,7.408,,,190,,,,0,,,,,,10,wg-a,,,,AAXX 01154 07110 12110 71904 10070 20070 30158 40281 57004 60007 71054 877// 91500=
07110,1997-02-01 18:00:00,7,1028.4,0.3,100,7,900,7.408,,,200,3.2,7.3,,,,,,,,10,wg-a,,,,AAXX 01184 07110 12109 82004 10070 20070 30161 40284 53003 60006 71054 887// 91800 333 10073 20032=
07110,1997-02-01 21:00:00,6,1028.1,-0.3,100,6,500,7.408,,,140,,,,,,,,,,44,wg-a,,,,AAXX 01214 07110 12105 81404 10060 20060 30158 40281 58003 60006 74444 887// 92100=
07110,1997-02-02 06:00:00,5,1026.1,-0.8,100,5,1500,3.704,,,170,4.8,6.7,,,,,,,,10,wg-a,,,,AAXX 02064 07110 02115 81702 10050 20050 30138 40261 56008 61000 71064 885// 90600 333 10067 20048 6002=
07110,1997-02-02 09:00:00,6,1027,0.9,100,6,2500,3.704,,,130,,,,4,,,,,,21,wg-a,,,,AAXX 02094 07110 12225 81302 10060 20060 30147 40270 53009 60047 72162 8652/ 90900=
07110,1997-02-02 12:00:00,7,1027.8,0.8,100,7,8000,7.408,,,180,,,,,,,,,,1,wg-a,,,,AAXX 02124 07110 12558 41804 10070 20070 30155 40278 50008 60046 70161 83830 91200=
07110,1997-02-02 15:00:00,8,1027.8,0.1,93,7,500,7.408,,,290,,,,0,,,,,,60,wg-a,,,,AAXX 02154 07110 12300 82904 10080 20070 30156 40278 53001 60007 76061 875// 91500=
07110,1997-02-02 18:00:00,7,1029.7,,93,6,15000,11.112,,,350,5.3,7.8,,0,,,,,,1,wg-a,,,,AAXX 02184 07110 02465 73506 10070 20060 30174 40297 60006 70165 875// 91800 333 10078 20053 60007=
07110,1997-02-02 21:00:00,5,1030.7,0.9,100,5,15000,3.704,,,340,,,,,,,,,,,wg-a,,,,AAXX 02214 07110 12565 /3402 10050 20050 30183 40307 51009 60006 85530 92100=
07110,1997-02-03 00:00:00,4,1031.2,0.5,93,3,15000,3.704,,,10,,,,0,,,,,,,wg-a,,,,AAXX 03004 07110 02565 40102 10040 20030 30188 40312 51005 60006 83530 90000 333 60007=
07110,1997-02-03 03:00:00,3,1030.7,-0.6,93,2,15000,3.704,,,260,,,,,,,,,,,wg-a,,,,AAXX 03034 07110 12465 32602 10030 20020 30182 40307 56006 60006 82530 90300=
07110,1997-02-03 06:00:00,1,1030.5,-0.3,100,1,20000,0,,,0,1.3,7,,,,,5,,,,wg-a,,,,AAXX 03064 07110 02/70 10000 10010 20010 30179 40305 56003 60006 81030 90600 333 10070 20013 60054=
07110,1997-02-03 09:00:00,3,1030.5,0.1,100,3,8000,3.704,,,160,,,,,,,,,,,wg-a,,,,AAXX 03094 07110 12/58 21602 10030 20030 30180 40305 50001 60006 80001 90900=
07110,1997-02-03 12:00:00,7,1029.8,-0.5,87,5,15000,14.816,,,170,,,,,,,,,,,wg-a,,,,AAXX 03124 07110 12465 21708 10070 20050 30175 40298 58005 60006 81101 91200=
07110,1997-02-03 15:00:00,8,1028.1,-1.6,76,4,25000,14.816,,,220,,,,,,,,,,,wg-a,,,,AAXX 03154 07110 12575 42208 10080 20040 30159 40281 57016 60006 83101 91500=
07110,1997-02-03 18:00:00,6,1027.6,-0.6,87,4,11000,11.112,,,180,1,8.8,,,,,,,,,wg-a,,,,AAXX 03184 07110 12/61 /1806 10060 20040 30153 40276 56006 60006 91800 333 10088 20010=
07110,1997-02-03 21:00:00,6,1026.5,-1.1,93,5,15000,18.52,,,180,,,,,,,,,,,wg-a,,,,AAXX 03214 07110 12665 71810 10060 20050 30142 40265 58011 60006 855// 92100=
07110,1997-02-04 00:00:00,8,1021.2,-2.2,87,6,10000,22.224,,,200,5.5,7.6,,,,,,,,,wg-a,,,,AAXX 04004 07110 02560 /2012 10080 20060 30090 40212 56022 60006 85502 90000 333 10076 20055 60004=
07110,1997-02-04 03:00:00,7,1023.4,-1.6,87,5,10000,18.52,,,210,,,,,,,,,,,wg-a,,,,AAXX 04034 07110 12660 /2110 10070 20050 30112 40234 58016 60006 83502 90300=
07110,1997-02-04 06:00:00,8,1021.2,-2.2,87,6,10000,22.224,,,200,5.5,7.6,,,,,,,,,wg-a,,,,AAXX 04064 07110 02560 /2012 10080 20060 30090 40212 56022 60006 85502 90600 333 10076 20055 60004=
07110,1997-02-04 09:00:00,9,1020.4,-0.7,81,6,10000,25.928,,,210,,,,,,,,,,,wg-a,,,,AAXX 04094 07110 12560 82114 10090 20060 30083 40204 56007 60006 885// 90900=
07110,1997-02-04 12:00:00,9,1019.5,-0.9,93,8,10000,25.928,,46.3,210,,,,0,,,,,,60,wg-a,,,,AAXX 04124 07110 02460 82114 10090 20080 30074 40195 58009 60006 76062 885// 91200 333 60007 91025=
07110,1997-02-04 15:00:00,9,1016.6,-2.9,93,8,500,31.484,,,210,,,,5,,,,,,61,wg-a,,,,AAXX 04154 07110 12100 82117 10090 20080 30045 40166 56029 60057 76166 877// 91500=
07110,1997-02-04 18:00:00,10,1015,-1.5,100,10,3500,29.632,,,210,7.6,9.9,,,,,,,,61,wg-a,,,,AAXX 04184 07110 02135 82116 10100 20100 30030 40150 56015 61000 76166 877// 91800 333 10099 20076 6005=
07110,1997-02-04 21:00:00,10,1014.1,-0.9,100,10,3000,29.632,,48.152,220,,,,2,,,,,,51,wg-a,,,,AAXX 04214 07110 12130 82216 10100 20100 30021 40141 58009 60027 75166 887// 92100 333 91026=
07110,1997-02-05 00:00:00,11,1013.8,-0.2,100,11,3000,29.632,,,240,,,,3,,,,,,51,wg-a,,,,AAXX 05004 07110 02130 82416 10110 20110 30019 40138 55002 60066 75166 887// 90000 333 60037=
07110,1997-02-05 03:00:00,9,1016.5,2.6,93,8,15000,18.52,,,310,,,,1,,,,,,1,wg-a,,,,AAXX 05034 07110 12365 63110 10090 20080 30045 40165 53026 60017 70165 8/500 90300=
07110,1997-02-05 06:00:00,8,1019.9,3.3,93,7,15000,11.112,,,300,7.7,10.8,,,,,17,,,2,wg-a,,,,AAXX 05064 07110 02465 /3006 10080 20070 30078 40199 51033 60006 70265 85500 90600 333 10108 20077 60174=
07110,1997-02-05 09:00:00,8,1023.9,3.9,93,7,20000,7.408,,,290,,,,,,,,,,,wg-a,,,,AAXX 05094 07110 12470 22904 10080 20070 30117 40239 51039 60006 82200 90900=
07110,1997-02-05 12:00:00,11,1026.3,2.5,76,7,500,11.112,,,310,,,,,,,,,,,wg-a,,,,AAXX 05124 07110 12500 33106 10110 20070 30142 40263 51025 60006 83200 91200=
07110,1997-02-05 15:00:00,11,1027.5,1.2,71,6,500,11.112,,,250,,,,,,,,,,,wg-a,,,,AAXX 05154 07110 12500 32506 10110 20060 30154 40275 52012 60006 83201 91500=
07110,1997-02-05 18:00:00,8,1028.5,0.9,87,6,500,11.112,,,190,6.7,11.7,,,,,,,,,wg-a,,,,AAXX 05184 07110 12500 /1906 10080 20060 30163 40285 53009 60006 82132 91800 333 10117 20067=
07110,1997-02-05 21:00:00,7,1028.9,0.3,100,7,15000,11.112,,,160,,,,,,,,,,,wg-a,,,,AAXX 05214 07110 12365 71606 10070 20070 30166 40289 50003 60006 876// 92100=
07110,1997-02-06 00:00:00,8,1029.2,0.4,100,8,8000,14.816,,,190,,,,,,,,,,,wg-a,,,,AAXX 06004 07110 12158 71908 10080 20080 30170 40292 51004 60006 876// 90000=
07110,1997-02-06 03:00:00,9,1027.7,-1.5,100,9,500,18.52,,,190,,,,,,,,,,,wg-a,,,,AAXX 06034 07110 12100 71910 10090 20090 30155 40277 56015 60006 876// 90300=
07110,1997-02-06 06:00:00,9,1026.7,-1,93,8,11000,22.224,,,190,6.9,9.1,,,,,,,,,wg-a,,,,AAXX 06064 07110 02/61 /1912 10090 20080 30145 40267 56010 60006 90600 333 10091 20069 60004=
07110,1997-02-06 09:00:00,9,1027.1,0.4,93,8,10000,22.224,,,180,,,,,,,,,,,wg-a,,,,AAXX 06094 07110 12360 71812 10090 20080 30149 40271 51004 60006 875// 90900=
07110,1997-02-06 12:00:00,11,1026.6,-0.4,87,9,10000,22.224,,,180,,,,,,,,,,,wg-a,,,,AAXX 06124 07110 12360 71812 10110 20090 30145 40266 58004 60006 87800 91200=
07110,1997-02-06 15:00:00,11,1025.4,,87,9,10000,22.224,,,190,,,,,,,,,,,wg-a,,,,AAXX 06154 07110 32560 71912 10110 20090 30133 40254 875// 91500=
07110,1997-02-06 18:00:00,10,1025.3,-0.1,93,9,4000,22.224,,,200,8.7,11.5,,,,,,,,10,wg-a,,,,AAXX 06184 07110 02340 82012 10100 20090 30132 40253 55001 61000 71062 877// 91800 333 10115 20087 6000=
07110,1997-02-06 21:00:00,10,1025.5,0.2,100,10,6000,18.52,,,190,,,,,,,,,,2,wg-a,,,,AAXX 06214 07110 02156 81910 10100 20100 30134 40255 51002 61000 70252 877// 92100 333 ////=
07110,1997-02-07 00:00:00,10,1025.1,-0.4,100,10,6000,22.224,,,200,,,,,,,,,,2,wg-a,,,,AAXX 07004 07110 02156 82012 10100 20100 30130 40251 56004 61000 70252 877// 90000 333 ////=
07110,1997-02-07 03:00:00,10,1024.8,-0.3,100,10,6000,14.816,,,190,,,,,,,,,,,wg-a,,,,AAXX 07034 07110 12156 81908 10100 20100 30127 40248 58003 60006 877// 90300=
07110,1997-02-07 06:00:00,10,1025.2,0.4,100,10,6000,18.52,,,190,9.7,10.2,,,,,,,,,wg-a,,,,AAXX 07064 07110 02156 81910 10100 20100 30131 40252 53004 60006 877// 90600 333 10102 20097 60004=
07110,1997-02-07 09:00:00,11,1026.9,1.7,94,10,4500,14.816,,,190,,,,,,,,,,10,wg-a,,,,AAXX 07094 07110 12145 81908 10110 20100 30148 40269 53017 60006 71022 877// 90900=
07110,1997-02-07 12:00:00,11,1028.2,1.3,100,11,4000,18.52,,,240,,,,,,,,,,10,wg-a,,,,AAXX 07124 07110 12240 82410 10110 20110 30161 40282 51013 60006 71022 877// 91200=
07110,1997-02-07 15:00:00,12,1028.7,0.5,88,10,7000,11.112,,,270,,,,,,,,,,,wg-a,,,,AAXX 07154 07110 12357 82706 10120 20100 30166 40287 53005 60006 878// 91500=
07110,1997-02-07 18:00:00,10,1030.5,1.7,100,10,6000,3.704,,,190,10,11.9,,,,,,,,21,wg-a,,,,AAXX 07184 07110 02456 81902 10100 20100 30183 40305 53017 61000 72162 8657/ 91800 333 10119 20100 6001=
07110,1997-02-07 21:00:00,9,1031.5,1,100,9,200,3.704,,,310,,,,0,,,,,,44,wg-a,,,,AAXX 07214 07110 12102 83102 10090 20090 30193 40315 52010 60007 74442 876// 92100=
07110,1997-02-08 00:00:00,9,1032.5,1,100,9,1100,3.704,,,340,,,,,,,,,,10,wg-a,,,,AAXX 08004 07110 12111 83402 10090 20090 30203 40325 51010 60006 71042 876// 90000=
07110,1997-02-08 03:00:00,9,1032.3,-0.2,100,9,1100,3.704,,,100,,,,,,,,,,10,wg-a,,,,AAXX 08034 07110 12111 71002 10090 20090 30201 40323 57002 60006 71022 876// 90300=
07110,1997-02-08 06:00:00,8,1031.7,-0.6,100,8,4000,3.704,,,160,8.2,10.1,,,,,1,,,10,wg-a,,,,AAXX 08064 07110 02340 71602 10080 20080 30195 40317 56006 60006 71022 875// 90600 333 10101 20082 60014=
07110,1997-02-08 09:00:00,9,1032.8,1,100,9,800,3.704,,,300,,,,,,,,,,44,wg-a,,,,AAXX 08094 07110 12108 83002 10090 20090 30205 40328 52010 60006 74442 886// 90900=
07110,1997-02-08 12:00:00,10,1032.3,-0.4,100,10,2200,7.408,,,180,,,,,,,,,,10,wg-a,,,,AAXX 08124 07110 12222 71804 10100 20100 30201 40323 56004 60006 71042 876// 91200=
07110,1997-02-08 15:00:00,10,1030.7,-1.6,100,10,300,18.52,,,190,,,,,,,,,,44,wg-a,,,,AAXX 08154 07110 12103 81910 10100 20100 30185 40307 56016 60006 74442 886// 91500=
07110,1997-02-08 18:00:00,9,1030.6,-0.1,100,9,3000,14.816,,,180,8.2,10.6,,,,,,,,10,wg-a,,,,AAXX 08184 07110 12130 81808 10090 20090 30184 40306 55001 60006 71042 886// 91800 333 10106 20082=
07110,1997-02-08 21:00:00,8,1030.5,-0.2,100,8,100,11.112,,,190,,,,,,,,,,44,wg-a,,,,AAXX 08214 07110 12101 81906 10080 20080 30182 40305 56002 60006 74442 886// 92100=
07110,1997-02-09 00:00:00,6,1029.9,-0.6,100,6,3500,11.112,,,170,,,,,,,,,,10,wg-a,,,,AAXX 09004 07110 12135 61706 10060 20060 30176 40299 58006 60006 71042 8552/ 90000=
07110,1997-02-09 03:00:00,6,1028.9,-1,100,6,400,14.816,,,210,,,,,,,,,,44,wg-a,,,,AAXX 09034 07110 12104 72108 10060 20060 30166 40289 56010 60006 74441 876// 90300=
07110,1997-02-09 06:00:00,7,1027.8,-1.1,100,7,3000,14.816,,,170,4.9,8.8,,,,,,,,10,wg-a,,,,AAXX 09064 07110 02230 71708 10070 20070 30155 40278 56011 60006 71041 875// 90600 333 10088 20049 60004=
07110,1997-02-09 09:00:00,8,1028,0.3,100,8,3000,14.816,,,180,,,,,,,,,,10,wg-a,,,,AAXX 09094 07110 12230 71808 10080 20080 30158 40280 53003 60006 71022 875// 90900=
07110,1997-02-09 12:00:00,10,1027.5,-0.4,93,9,6000,14.816,,,210,,,,,,,,,,,wg-a,,,,AAXX 09124 07110 12356 72108 10100 20090 30154 40275 58004 60006 84632 91200=
07110,1997-02-09 15:00:00,11,1026.1,-1.4,87,9,10000,22.224,,,220,,,,,,,,,,,wg-a,,,,AAXX 09154 07110 12460 72212 10110 20090 30140 40261 56014 60006 878// 91500=
07110,1997-02-09 18:00:00,10,1026.1,-0,93,9,10000,18.52,,,210,7.2,11,,,,,,,,,wg-a,,,,AAXX 09184 07110 12360 72110 10100 20090 30140 40261 55000 60006 878// 91800 333 10110 20072=
07110,1997-02-09 21:00:00,10,1024.5,-1.6,93,9,10000,22.224,,,200,,,,,,,,,,,wg-a,,,,AAXX 09214 07110 12460 82012 10100 20090 30124 40245 56016 60006 875// 92100=
07110,1997-02-10 00:00:00,10,1022.4,-2.1,93,9,10000,31.484,,48.152,190,,,,,,,,,,,wg-a,,,,AAXX 10004 07110 12260 81917 10100 20090 30103 40224 58021 60006 886// 90000 333 91026=
07110,1997-02-10 03:00:00,10,1019.3,-3,93,9,8000,35.188,,51.856,200,,,,,,,,,,,wg-a,,,,AAXX 10034 07110 12258 72019 10100 20090 30073 40193 58030 60006 877// 90300 333 91028=
07110,1997-02-10 06:00:00,10,1016,-3.3,93,9,8000,35.188,,57.412,200,9.5,10.1,,,,,,,,,wg-a,,,,AAXX 10064 07110 02358 82019 10100 20090 30040 40160 56033 60006 8752/ 90600 333 10101 20095 60004 91031=
07110,1997-02-10 09:00:00,10,1014.5,-1.5,100,10,4000,35.188,,59.264,210,,,,10,,,,,,10,wg-a,,,,AAXX 10094 07110 12140 82119 10100 20100 30025 40145 56015 60107 71062 877// 90900 333 91032=
07110,1997-02-10 12:00:00,11,1015.1,0.7,94,10,6000,25.928,,,240,,,,6,,,,,,21,wg-a,,,,AAXX 10124 07110 02256 72414 10110 20100 30032 40151 53007 60166 72162 875// 91200 333 60067=
07110,1997-02-10 15:00:00,10,1018,2.8,71,5,10000,29.632,,,280,,,,,,,,,,,wg-a,,,,AAXX 10154 07110 12460 42816 10100 20050 30060 40180 53028 60006 84500 91500=
07110,1997-02-10 18:00:00,8,1021.5,3.3,71,3,10000,14.816,,,280,7.5,12,,,,,,,,,wg-a,,,,AAXX 10184 07110 12260 42808 10080 20030 30093 40215 53033 60006 82501 91800 333 10120 20075=
07110,1997-02-10 21:00:00,6,1023.4,1.8,81,3,10000,11.112,,,210,,,,,,,,,,,wg-a,,,,AAXX 10214 07110 12660 72106 10060 20030 30111 40234 51018 60006 85501 92100=
07110,1997-02-11 00:00:00,6,1024,0.6,93,5,12000,11.112,,,210,,,,0,,,,,,25,wg-a,,,,AAXX 11004 07110 02562 72106 10060 20050 30117 40240 51006 60006 72586 84532 90000 333 60007=
07110,1997-02-11 03:00:00,7,1023.8,-0.1,87,5,12000,11.112,,,200,,,,,,,,,,,wg-a,,,,AAXX 11034 07110 12662 72006 10070 20050 30116 40238 58001 60006 84532 90300=
07110,1997-02-11 06:00:00,7,1022.5,-1.3,93,6,8000,14.816,,,190,5.3,7.4,,,,,16,,,,wg-a,,,,AAXX 11064 07110 02658 71908 10070 20060 30103 40225 56013 60006 84532 90600 333 10074 20053 60164=
07110,1997-02-11 09:00:00,8,1021.6,-0.8,93,7,8000,22.224,,,200,,,,0,,,,,,61,wg-a,,,,AAXX 11094 07110 12458 82012 10080 20070 30095 40216 56008 60007 76162 8557/ 90900=
07110,1997-02-11 12:00:00,9,1018.4,-3.2,100,9,3000,31.484,,,180,,,,6,,,,,,61,wg-a,,,,AAXX 11124 07110 02130 81817 10090 20090 30063 40184 56032 60066 76162 877// 91200 333 60067=
07110,1997-02-11 15:00:00,11,1016.5,-1.7,100,11,1400,31.484,,,230,,,,7,,,,,,51,wg-a,,,,AAXX 11154 07110 12114 82317 10110 20110 30046 40165 55017 60077 75166 877// 91500=
07110,1997-02-11 18:00:00,11,1017,0.4,100,11,4000,31.484,,46.3,240,7.1,11.3,,,,,,,,51,wg-a,,,,AAXX 11184 07110 02140 82417 10110 20110 30050 40170 53004 61000 75165 877// 91800 333 10113 20071 6000 91025=
07110,1997-02-11 21:00:00,11,1017.2,0.3,100,11,7000,29.632,,,240,,,,,,,,,,1,wg-a,,,,AAXX 11214 07110 02357 82416 10110 20110 30053 40172 50003 61000 70152 877// 92100 333 ////=
07110,1997-02-12 00:00:00,11,1017.7,0.4,94,10,10000,31.484,,51.856,230,,,,,,,,,,2,wg-a,,,,AAXX 12004 07110 02360 82317 10110 20100 30057 40177 52004 61000 70252 887// 90000 333 6100 91028=
07110,1997-02-12 03:00:00,11,1016.8,-0.9,94,10,10000,29.632,,48.152,230,,,,,,,,,,,wg-a,,,,AAXX 12034 07110 12260 82316 10110 20100 30048 40168 58009 60006 887// 90300 333 91026=
07110,1997-02-12 06:00:00,11,1015.2,-1.5,94,10,9000,31.484,,51.856,210,10.6,11.5,,,,,13,,,,wg-a,,,,AAXX 12064 07110 02259 82117 10110 20100 30033 40152 58015 60006 877// 90600 333 10115 20106 60134 91028=
07110,1997-02-12 09:00:00,11,1013.9,-1.3,87,9,10000,35.188,,53.708,210,,,,,,,,,,,wg-a,,,,AAXX 12094 07110 12460 72119 10110 20090 30020 40139 56013 60006 878// 90900 333 91029=
07110,1997-02-12 12:00:00,11,1011.4,-2.5,94,10,4000,35.188,,66.672,210,,,,1,,,,,,53,wg-a,,,,AAXX 12124 07110 02240 82119 10110 20100 39995 40114 57025 60016 75352 877// 91200 333 60017 91036=
07110,1997-02-12 15:00:00,11,1007.9,-3.5,94,10,500,42.596,,59.264,210,,,,3,,,,,,10,wg-a,,,,AAXX 12154 07110 12200 82123 10110 20100 39960 40079 56035 60037 71065 877// 91500 333 91032=
07110,1997-02-12 18:00:00,11,1006.8,-1.1,94,10,500,29.632,,,250,10.2,11.4,,,,,,,,59,wg-a,,,,AAXX 12184 07110 02200 82516 10110 20100 39949 40068 55011 61000 75965 887// 91800 333 10114 20102 6001=
07110,1997-02-12 21:00:00,9,1010,3.2,93,8,15000,25.928,,44.448,250,,,,,,,,,,1,wg-a,,,,AAXX 12214 07110 02465 /2514 10090 20080 39981 40100 51032 61000 70165 85800 92100 333 //// 91024=
07110,1997-02-13 00:00:00,10,1007,-3,87,8,12000,35.188,,62.968,220,,,,,,,,,,3,wg-a,,,,AAXX 13004 07110 02462 72219 10100 20080 39951 40070 58030 61000 70365 878// 90000 333 //// 91034=
07110,1997-02-13 03:00:00,8,1007.5,0.4,71,3,10000,35.188,,72.228,270,,,,3,,,,,,25,wg-a,,,,AAXX 13034 07110 12460 42719 10080 20030 39955 40075 53004 60037 72561 84800 90300 333 91039=
07110,1997-02-13 06:00:00,5,1011,3.4,81,2,15000,35.188,,57.412,280,4.7,10.5,,,,,,,,25,wg-a,,,,AAXX 13064 07110 02565 22819 10050 20020 39989 40110 53034 61000 72586 82800 90600 333 10105 20047 6009 91031=
07110,1997-02-13 09:00:00,7,1014.7,3.7,76,3,15000,31.484,,50.004,280,,,,,,,,,,25,wg-a,,,,AAXX 13094 07110 02565 42817 10070 20030 30026 40147 51037 61000 72586 84800 90900 333 //// 91027=
07110,1997-02-13 12:00:00,7,1017.2,2.5,87,5,15000,25.928,,48.152,260,,,,1,,,,,,25,wg-a,,,,AAXX 13124 07110 02465 52614 10070 20050 30051 40172 51025 60016 72586 85900 91200 333 60017 91026=
07110,1997-02-13 18:00:00,7,1014,-2.2,93,6,6000,7.408,,,230,5.2,8.7,,,,,,,,61,wg-a,,,,AAXX 13184 07110 02556 72304 10070 20060 30019 40140 58022 61000 76186 8685/ 91800 333 10087 20052 6001=
07110,1997-02-13 21:00:00,6,1009.5,-4.5,93,5,6000,14.816,,,130,,,,4,,,,,,61,wg-a,,,,AAXX 13214 07110 12256 71308 10060 20050 39974 40095 58045 60047 76166 875// 92100=
07110,1997-02-14 00:00:00,6,1004.2,-5.2,100,6,6000,7.408,,,130,,,,6,,,,,,58,wg-a,,,,AAXX 14004 07110 02256 81304 10060 20060 39922 40042 56052 60096 75866 877// 90000 333 60067=
07110,1997-02-14 03:00:00,11,1002.5,-1.5,100,11,4000,31.484,,55.56,250,,,,1,,,,,,53,wg-a,,,,AAXX 14034 07110 12240 82517 10110 20110 39907 40025 56015 60017 75366 877// 90300 333 91030=
07110,1997-02-14 06:00:00,11,1002.1,-0.4,94,10,7000,29.632,,,250,5.4,11.3,,,,,14,,,1,wg-a,,,,AAXX 14064 07110 02357 82516 10110 20100 39903 40021 56004 60006 70165 877// 90600 333 10113 20054 60144=
07110,1997-02-14 09:00:00,11,1001.4,-0.7,94,10,3500,29.632,,,230,,,,0,,,,,,58,wg-a,,,,AAXX 14094 07110 12335 82316 10110 20100 39896 40014 58007 60007 75865 877// 90900=
07110,1997-02-14 12:00:00,11,1000.1,-1.2,94,10,6000,25.928,,48.152,230,,,,1,,,,,,3,wg-a,,,,AAXX 14124 07110 02456 82314 10110 20100 39884 40001 56012 60016 70365 875// 91200 333 60017 91026=
07110,1997-02-14 15:00:00,10,997.4,-2.7,100,10,500,25.928,,44.448,240,,,,5,,,,,,80,wg-a,,,,AAXX 14154 07110 12300 82414 10100 20100 39857 49974 58027 60057 78086 878// 91500 333 91024=
07110,1997-02-14 18:00:00,10,997.8,0.3,93,9,7000,14.816,,,260,9.7,11.4,,2,,,,,,1,wg-a,,,,AAXX 14184 07110 02357 82608 10100 20090 39860 49978 53003 60006 70186 875// 91800 333 10114 20097 60027=
07110,1997-02-14 21:00:00,8,1005,7,93,7,8000,35.188,,,10,,,,2,,,,,,60,wg-a,,,,AAXX 14214 07110 12258 80119 10080 20070 39930 40050 53070 60027 76062 877// 92100=
07110,1997-02-15 00:00:00,6,1013.3,8.1,87,4,8000,29.632,,,350,,,,1,,,,,,60,wg-a,,,,AAXX 15004 07110 02458 83516 10060 20040 30011 40133 51081 60036 76062 877// 90000 333 60017=
07110,1997-02-15 03:00:00,5,1018.8,5.5,81,2,12000,18.52,,,340,,,,,,,,,,1,wg-a,,,,AAXX 15034 07110 02562 33410 10050 20020 30066 40188 51055 61000 70161 83500 90300 333 ////=
07110,1997-02-15 06:00:00,4,1022.5,3.5,81,1,25000,3.704,,,310,3.5,9.7,,,,,11,,,1,wg-a,,,,AAXX 15064 07110 02575 /3102 10040 20010 30101 40225 53035 60006 70161 81500 90600 333 10097 20035 60114=
07110,1997-02-15 09:00:00,4,1025.1,2.6,87,2,15000,3.704,,,230,,,,,,,,,,,wg-a,,,,AAXX 15094 07110 12565 /2302 10040 20020 30127 40251 53026 60006 81100 90900=
07110,1997-02-15 12:00:00,10,1025.5,0.7,66,4,15000,11.112,,,240,,,,,,,,,,,wg-a,,,,AAXX 15124 07110 12565 22406 10100 20040 30134 40255 51007 60006 82100 91200=
07110,1997-02-15 15:00:00,9,1024.4,-1.1,66,3,15000,18.52,,,200,,,,,,,,,,,wg-a,,,,AAXX 15154 07110 12665 52010 10090 20030 30123 40244 58011 60006 81101 91500=
07110,1997-02-15 21:00:00,6,1022,-1.7,81,3,15000,22.224,,,160,,,,,,,,,,,wg-a,,,,AAXX 15214 07110 12/65 71612 10060 20030 30098 40220 56017 60006 84018 92100=
07110,1997-02-16 00:00:00,7,1019.6,-2.4,81,4,10000,29.632,,,160,,,,,,,,,,,wg-a,,,,AAXX 16004 07110 12660 81616 10070 20040 30074 40196 58024 60006 875// 90000=
07110,1997-02-16 03:00:00,8,1017,-2.5,81,5,10000,31.484,,,170,,,,,,,,,,,wg-a,,,,AAXX 16034 07110 12560 81717 10080 20050 30049 40170 58025 60006 875// 90300=
07110,1997-02-16 06:00:00,8,1014.8,-2.2,93,7,500,31.484,,,170,5.7,8.4,,,,,,,,61,wg-a,,,,AAXX 16064 07110 02400 81717 10080 20070 30027 40148 56022 61000 76162 8752/ 90600 333 10084 20057 6100=
07110,1997-02-16 09:00:00,8,1014.4,-0.4,93,7,8000,22.224,,,180,,,,8,,,,,,61,wg-a,,,,AAXX 16094 07110 12358 71812 10080 20070 30023 40144 55004 60087 76166 875// 90900=
07110,1997-02-16 12:00:00,11,1014.5,0.2,82,8,10000,35.188,,,200,,,,,,,,,,2,wg-a,,,,AAXX 16124 07110 02460 72019 10110 20080 30025 40145 51002 60086 70262 87800 91200 333 61000=
07110,1997-02-16 15:00:00,12,1014.1,-0.3,82,9,15000,25.928,,44.448,210,,,,,,,,,,,wg-a,,,,AAXX 16154 07110 12465 72114 10120 20090 30022 40141 55003 60006 878// 91500 333 91024=
07110,1997-02-16 18:00:00,10,1014.6,0.4,82,7,10000,22.224,,,220,7.8,11.9,,0,,,,,,1,wg-a,,,,AAXX 16184 07110 02460 /2212 10100 20070 30026 40146 53004 60006 70186 86800 91800 333 10119 20078 60007=
07110,1997-02-16 21:00:00,8,1016.1,1.4,87,6,10000,18.52,,,230,,,,,,,,,,,wg-a,,,,AAXX 16214 07110 12560 22310 10080 20060 30040 40161 53014 60006 82500 92100=
07110,1997-02-17 00:00:00,8,1016.6,0.5,87,6,25000,14.816,,,230,,,,,,,,,,,wg-a,,,,AAXX 17004 07110 12575 22308 10080 20060 30045 40166 51005 60006 82200 90000=
07110,1997-02-17 03:00:00,8,1016.7,0.1,87,6,25000,18.52,,,220,,,,,,,,,,,wg-a,,,,AAXX 17034 07110 12575 /2210 10080 20060 30046 40167 50001 60006 81204 90300=
07110,1997-02-17 06:00:00,9,1016.6,-0,87,7,15000,22.224,,,220,7.5,9.6,,,,,8,,,,wg-a,,,,AAXX 17064 07110 02465 72212 10090 20070 30046 40166 54000 60006 8653/ 90600 333 10096 20075 60084=
07110,1997-02-17 09:00:00,9,1017.1,0.5,93,8,9000,25.928,,,210,,,,,,,,,,21,wg-a,,,,AAXX 17094 07110 02559 72114 10090 20080 30051 40171 50005 61000 72162 8353/ 90900 333 ////=
07110,1997-02-17 12:00:00,10,1016.2,-0.9,93,9,3000,29.632,,48.152,210,,,,1,,,,,,58,wg-a,,,,AAXX 17124 07110 02330 82116 10100 20090 30042 40162 58009 60016 75865 877// 91200 333 60017 91026=
07110,1997-02-17 15:00:00,10,1014.6,-1.6,93,9,6000,29.632,,,210,,,,4,,,,,,61,wg-a,,,,AAXX 17154 07110 12156 82116 10100 20090 30026 40146 56016 60047 76165 877// 91500=
07110,1997-02-17 18:00:00,10,1014.1,-0.5,93,9,3500,35.188,,55.56,210,8.9,10.2,,,,,,,,10,wg-a,,,,AAXX 17184 07110 02235 82119 10100 20090 30021 40141 57005 61000 71065 877// 91800 333 10102 20089 6004 91030=
07110,1997-02-17 21:00:00,10,1013.1,-1,100,10,3500,31.484,,53.708,210,,,,2,,,,,,10,wg-a,,,,AAXX 17214 07110 12135 82117 10100 20100 30011 40131 58010 60027 71065 877// 92100 333 91029=
07110,1997-02-18 00:00:00,10,1011.9,-1.1,100,10,1200,35.188,,55.56,220,,,,3,,,,,,10,wg-a,,,,AAXX 18004 07110 02212 82219 10100 20100 30000 40119 58011 60056 71065 877// 90000 333 60037 91030=
07110,1997-02-18 03:00:00,11,1011.7,-0.2,94,10,500,29.632,,44.448,230,,,,1,,,,,,21,wg-a,,,,AAXX 18034 07110 12300 82316 10110 20100 39998 40117 56002 60017 72165 885// 90300 333 91024=
07110,1997-02-18 06:00:00,9,1012.7,0.9,87,7,8000,25.928,,46.3,260,8.5,10.9,,,,,,,,25,wg-a,,,,AAXX 18064 07110 02558 /2614 10090 20070 30007 40127 53009 61000 72565 86800 90600 333 10109 20085 6016 91025=
07110,1997-02-18 09:00:00,9,1015.6,2.8,71,4,10000,35.188,,61.116,260,,,,1,,,,,,1,wg-a,,,,AAXX 18094 07110 12560 32619 10090 20040 30035 40156 53028 60017 70161 83201 90900 333 91033=
07110,1997-02-18 12:00:00,9,1019.1,3.5,76,5,15000,42.596,,64.82,260,,,,0,,,,,,25,wg-a,,,,AAXX 18124 07110 02565 /2623 10090 20050 30070 40191 51035 60026 72586 81900 91200 333 60007 91035=
07110,1997-02-18 15:00:00,9,1021.6,2.5,71,4,15000,38.892,,57.412,270,,,,0,,,,,,25,wg-a,,,,AAXX 18154 07110 12565 /2721 10090 20040 30095 40216 53025 60007 72586 83201 91500 333 91031=
07110,1997-02-18 18:00:00,8,1026,4.3,66,2,15000,22.224,,,280,6.2,10.4,,,,,,,,3,wg-a,,,,AAXX 18184 07110 12565 32812 10080 20020 30138 40260 53043 60006 70386 83300 91800 333 10104 20062=
07110,1997-02-18 21:00:00,6,1028.6,2.5,81,3,15000,7.408,,,220,,,,,,,,,,,wg-a,,,,AAXX 18214 07110 12765 52204 10060 20030 30163 40286 51025 60006 85500 92100=
07110,1997-02-19 00:00:00,7,1029.7,1.1,87,5,20000,11.112,,,210,,,,,,,,,,,wg-a,,,,AAXX 19004 07110 12770 72106 10070 20050 30174 40297 51011 60006 84532 90000=
07110,1997-02-19 03:00:00,8,1027.9,-1.7,87,6,20000,14.816,,,180,,,,,,,,,,,wg-a,,,,AAXX 19034 07110 12/70 71808 10080 20060 30157 40279 58017 60006 8707/ 90300=
07110,1997-02-19 06:00:00,9,1024.2,-3.6,87,7,15000,35.188,,53.708,180,5.7,8.9,,,,,2,,,,wg-a,,,,AAXX 19064 07110 02765 81819 10090 20070 30121 40242 57036 60006 875// 90600 333 10089 20057 60024 91029=
07110,1997-02-19 09:00:00,10,1022.7,-1.5,87,8,500,38.892,,,190,,,,,,,,,,,wg-a,,,,AAXX 19094 07110 12400 81921 10100 20080 30106 40227 57015 60006 875// 90900=
07110,1997-02-19 12:00:00,11,1019.8,-2.8,87,9,7000,42.596,,64.82,200,,,,,,,,,,,wg-a,,,,AAXX 19124 07110 12457 82023 10110 20090 30077 40198 58028 60006 886// 91200 333 91035=
07110,1997-02-19 18:00:00,12,1015.5,0.2,88,10,8000,38.892,,77.784,240,9,11.7,,,,,,,,21,wg-a,,,,AAXX 19184 07110 02458 82421 10120 20100 30036 40155 53002 61000 72165 887// 91800 333 10117 20090 6001 91042=
07110,1997-02-19 21:00:00,9,1020.7,5,87,7,10000,22.224,,,260,,,,,,,,,,,wg-a,,,,AAXX 19214 07110 12560 52612 10090 20070 30086 40207 51050 60006 85500 92100=
07110,1997-02-20 00:00:00,8,1024.6,3.8,81,5,15000,18.52,,,270,,,,,,,,,,,wg-a,,,,AAXX 20004 07110 12565 /2710 10080 20050 30124 40246 51038 60006 81800 90000=
07110,1997-02-20 03:00:00,7,1026.6,1.9,81,4,10000,7.408,,,230,,,,,,,,,,,wg-a,,,,AAXX 20034 07110 12560 22304 10070 20040 30143 40266 51019 60006 82500 90300=
07110,1997-02-20 06:00:00,8,1027.1,0.6,81,5,12000,14.816,,,210,6.7,11.7,,,,,2,,,,wg-a,,,,AAXX 20064 07110 02662 /2108 10080 20050 30149 40271 53006 60006 81500 90600 333 10117 20067 60024=
07110,1997-02-20 12:00:00,11,1027.6,0.3,76,7,15000,22.224,,,230,,,,,,,,,,,wg-a,,,,AAXX 20124 07110 12465 72312 10110 20070 30155 40276 53003 60006 875// 91200=
07110,1997-02-20 15:00:00,11,1026.2,-1.4,82,8,15000,22.224,,,210,,,,,,,,,,,wg-a,,,,AAXX 20154 07110 12565 72112 10110 20080 30141 40262 56014 60006 878// 91500=
07110,1997-02-20 18:00:00,10,1025.7,-0.5,87,8,12000,22.224,,,220,7.6,11.7,,,,,,,,,wg-a,,,,AAXX 20184 07110 12662 72212 10100 20080 30136 40257 55005 60006 875// 91800 333 10117 20076=
07110,1997-02-20 21:00:00,10,1026,0.3,87,8,12000,18.52,,,220,,,,,,,,,,,wg-a,,,,AAXX 20214 07110 12662 72210 10100 20080 30139 40260 52003 60006 875// 92100=
07110,1997-02-21 00:00:00,9,1026.3,0.3,93,8,12000,22.224,,,230,,,,,,,,,,,wg-a,,,,AAXX 21004 07110 12762 32312 10090 20080 30142 40263 53003 60006 83500 90000=
07110,1997-02-21 03:00:00,10,1025.9,-0.4,87,8,12000,18.52,,,230,,,,,,,,,,,wg-a,,,,AAXX 21034 07110 12462 72310 10100 20080 30138 40259 58004 60006 875// 90300=
07110,1997-02-21 06:00:00,10,1026.8,0.9,93,9,15000,18.52,,,230,9.2,10,,,,,,,,,wg-a,,,,AAXX 21064 07110 02465 /2310 10100 20090 30147 40268 53009 60006 86500 90600 333 10100 20092 60004=
07110,1997-02-21 12:00:00,11,1030.1,1.4,87,9,15000,18.52,,,240,,,,,,,,,,50,wg-a,,,,AAXX 21124 07110 02465 82410 10110 20090 30180 40301 52014 61000 75052 875// 91200 333 6100=
07110,1997-02-21 15:00:00,11,1030.2,0.1,87,9,12000,14.816,,,240,,,,,,,,,,1,wg-a,,,,AAXX 21154 07110 02462 82408 10110 20090 30181 40302 53001 61000 70152 875// 91500 333 ////=
07110,1997-02-21 18:00:00,10,1030.2,-0,93,9,15000,11.112,,,230,9.9,11.1,,,,,,,,2,wg-a,,,,AAXX 21184 07110 12365 82306 10100 20090 30181 40302 55000 60006 70252 875// 91800 333 10111 20099=
07110,1997-02-21 21:00:00,10,1030.8,0.5,93,9,15000,7.408,,,190,,,,,,,,,,,wg-a,,,,AAXX 21214 07110 12565 81904 10100 20090 30186 40308 50005 60006 875// 92100=
07110,1997-02-22 00:00:00,10,1030.3,-0.5,87,8,15000,11.112,,,190,,,,,,,,,,,wg-a,,,,AAXX 22004 07110 12565 81906 10100 20080 30181 40303 58005 60006 885// 90000=
07110,1997-02-22 03:00:00,9,1029.1,-1.2,93,8,15000,14.816,,,190,,,,,,,,,,,wg-a,,,,AAXX 22034 07110 12565 81908 10090 20080 30169 40291 58012 60006 885// 90300=
07110,1997-02-22 06:00:00,9,1027.7,-1.4,93,8,15000,14.816,,,180,9,10.4,,,,,,,,,wg-a,,,,AAXX 22064 07110 02565 81808 10090 20080 30155 40277 58014 60006 885// 90600 333 10104 20090 61000=
07110,1997-02-22 09:00:00,9,1027.3,-0.4,87,7,10000,14.816,,,180,,,,,,,,,,,wg-a,,,,AAXX 22094 07110 12660 71808 10090 20070 30151 40273 56004 60006 875// 90900=
07110,1997-02-22 12:00:00,11,1025.9,-1.3,76,7,10000,22.224,,,190,,,,,,,,,,,wg-a,,,,AAXX 22124 07110 12460 /1912 10110 20070 30138 40259 58013 60006 86500 91200=
07110,1997-02-22 15:00:00,10,1023.4,-2.5,87,8,15000,18.52,,,180,,,,,,,,,,,wg-a,,,,AAXX 22154 07110 12465 71810 10100 20080 30113 40234 56025 60006 875// 91500=
07110,1997-02-22 18:00:00,9,1021.7,-1.7,87,7,15000,14.816,,,170,8.8,11.1,,,,,,,,,wg-a,,,,AAXX 22184 07110 12665 81708 10090 20070 30096 40217 56017 60006 885// 91800 333 10111 20088=
07110,1997-02-22 21:00:00,9,1019.8,-1.9,81,6,10000,18.52,,,180,,,,,,,,,,,wg-a,,,,AAXX 22214 07110 12460 81810 10090 20060 30077 40198 58019 60006 875// 92100=
07110,1997-02-23 00:00:00,9,1017.3,-2.4,100,9,6000,18.52,,,180,,,,,,,,,,,wg-a,,,,AAXX 23004 07110 12156 81810 10090 20090 30053 40173 58024 60006 886// 90000=
07110,1997-02-23 03:00:00,10,1015.5,-1.8,93,9,7000,22.224,,,210,,,,,,,,,,,wg-a,,,,AAXX 23034 07110 12257 82112 10100 20090 30035 40155 56018 60006 886// 90300=
07110,1997-02-23 06:00:00,10,1013.5,-2,93,9,7000,29.632,,,200,8.7,9.6,,,,,,,,,wg-a,,,,AAXX 23064 07110 02257 72016 10100 20090 30015 40135 56020 60006 876// 90600 333 10096 20087 60004=
07110,1997-02-23 09:00:00,10,1012,-1.4,93,9,12000,31.484,,,190,,,,,,,,,,,wg-a,,,,AAXX 23094 07110 12362 71917 10100 20090 30001 40120 56014 60006 876// 90900=
07110,1997-02-23 12:00:00,12,1010,-1.9,88,10,12000,42.596,,53.708,200,,,,,,,,,,,wg-a,,,,AAXX 23124 07110 12462 82023 10120 20100 39982 40100 58019 60006 876// 91200 333 91029=
07110,1997-02-23 15:00:00,11,1006,-4,94,10,4000,42.596,,61.116,200,,,,0,,,,,,61,wg-a,,,,AAXX 23154 07110 12340 82023 10110 20100 39942 40060 58040 60007 76162 877// 91500 333 91033=
07110,1997-02-23 18:00:00,10,1004,-2,100,10,6000,31.484,,59.264,200,9.5,12,,,,,,,,20,wg-a,,,,AAXX 23184 07110 02256 82017 10100 20100 39922 40040 56020 61000 72065 8572/ 91800 333 10120 20095 6002 91032=
07110,1997-02-24 00:00:00,11,1000.7,-1.5,94,10,500,38.892,,74.08,230,,,,3,,,,,,61,wg-a,,,,AAXX 24004 07110 02300 82321 10110 20100 39889 40007 56015 60046 76162 875// 90000 333 60037 91040=
07110,1997-02-24 03:00:00,9,1000.8,0,87,7,10000,22.224,,,230,,,,0,,,,,,1,wg-a,,,,AAXX 24034 07110 12760 52312 10090 20070 39889 40008 50000 60007 70162 855/0 90300=
07110,1997-02-24 06:00:00,9,1000.9,0.1,76,5,15000,22.224,,,230,8.5,10.8,,,,,6,,,3,wg-a,,,,AAXX 24064 07110 02765 52312 10090 20050 39890 40009 53001 60006 70361 855/0 90600 333 10108 20085 60064=
07110,1997-02-24 09:00:00,9,1000.7,-0.1,81,6,15000,29.632,,,220,,,,,,,,,,,wg-a,,,,AAXX 24094 07110 12565 72216 10090 20060 39889 40007 58001 60006 8683/ 90900=
07110,1997-02-24 12:00:00,10,999.7,-1,87,8,15000,31.484,,50.004,200,,,,,,,,,,,wg-a,,,,AAXX 24124 07110 12465 82017 10100 20080 39879 49997 58010 60006 888// 91200 333 91027=
07110,1997-02-24 15:00:00,10,996.8,-2.9,87,8,10000,35.188,,66.672,210,,,,,,,,,,3,wg-a,,,,AAXX 24154 07110 02460 82119 10100 20080 39850 49968 56029 61000 70386 888// 91500 333 //// 91036=
07110,1997-02-24 18:00:00,12,992.3,-4.3,94,11,4000,42.596,,70.376,220,8.3,11.6,,,,,,,,10,wg-a,,,,AAXX 24184 07110 02240 82223 10120 20110 39807 49923 56043 61000 71086 887// 91800 333 10116 20083 6005 91038=
07110,1997-02-24 21:00:00,13,994.8,2.5,88,11,8000,35.188,,75.932,230,,,,,,,,,,21,wg-a,,,,AAXX 24214 07110 02458 82319 10130 20110 39832 49948 52025 61000 72162 887// 92100 333 //// 91041=
07110,1997-02-25 00:00:00,12,996,1.1,94,11,6000,42.596,,75.932,220,,,,0,,,,,,1,wg-a,,,,AAXX 25004 07110 02456 82223 10120 20110 39843 49960 53011 60006 70162 875// 90000 333 60007 91041=
07110,1997-02-25 03:00:00,12,997.8,1.8,94,11,8000,35.188,,59.264,230,,,,1,,,,,,2,wg-a,,,,AAXX 25034 07110 12258 82319 10120 20110 39861 49978 51018 60017 70262 877// 90300 333 91032=
07110,1997-02-25 06:00:00,11,999,1.2,94,10,8000,25.928,,,230,11.2,12.6,,,,,,,,21,wg-a,,,,AAXX 25064 07110 02458 82314 10110 20100 39873 49990 53012 61000 72162 875// 90600 333 10126 20112 6006=
07110,1997-02-25 09:00:00,11,1001.2,2.1,94,10,7000,29.632,,,230,,,,0,,,,,,21,wg-a,,,,AAXX 25094 07110 12457 82316 10110 20100 39894 40012 53021 60007 72162 875// 90900=
07110,1997-02-25 12:00:00,10,1001.9,0.7,93,9,6000,29.632,,,220,,,,1,,,,,,60,wg-a,,,,AAXX 25124 07110 02356 82216 10100 20090 39901 40019 51007 60016 76062 878// 91200 333 60017=
07110,1997-02-25 15:00:00,11,1002.2,0.3,87,9,10000,29.632,,53.708,220,,,,0,,,,,,,wg-a,,,,AAXX 25154 07110 12460 82216 10110 20090 39904 40022 50003 60007 875// 91500 333 91029=
07110,1997-02-25 18:00:00,11,1003.6,1.4,87,9,10000,31.484,,59.264,230,9.9,11.4,,,,,,,,,wg-a,,,,AAXX 25184 07110 12460 82317 10110 20090 39918 40036 53014 60006 8753/ 91800 333 10114 20099 91032=
07110,1997-02-26 00:00:00,10,1008.1,2.3,76,6,10000,29.632,,,240,,,,0,,,,,,1,wg-a,,,,AAXX 26004 07110 02560 /2416 10100 20060 39962 40081 51023 60016 70186 85500 90000 333 60007=
07110,1997-02-26 03:00:00,8,1010.3,2.1,87,6,6000,29.632,,48.152,270,,,,1,,,,,,80,wg-a,,,,AAXX 26034 07110 12456 72716 10080 20060 39983 40103 51021 60017 78086 87800 90300 333 91026=
07110,1997-02-26 06:00:00,9,1012.6,2.3,81,6,15000,22.224,,,250,7.3,11.3,,,,,4,,,3,wg-a,,,,AAXX 26064 07110 02565 52512 10090 20060 30006 40126 52023 60006 70386 85800 90600 333 10113 20073 60044=
07110,1997-02-26 09:00:00,9,1014.8,2.2,81,6,15000,25.928,,46.3,240,,,,,,,,,,,wg-a,,,,AAXX 26094 07110 12565 /2414 10090 20060 30028 40148 53022 60006 86900 90900 333 91025=
07110,1997-02-26 12:00:00,10,1018.1,3.3,71,5,15000,31.484,,50.004,270,,,,1,,,,,,25,wg-a,,,,AAXX 26124 07110 02565 52717 10100 20050 30061 40181 51033 60016 72586 84930 91200 333 60017 91027=
07110,1997-02-26 15:00:00,10,1021.7,3.5,71,5,15000,31.484,,50.004,280,,,,0,,,,,,16,wg-a,,,,AAXX 26154 07110 12565 /2817 10100 20050 30096 40217 51035 60007 71686 86930 91500 333 91027=
07110,1997-02-26 18:00:00,9,1026.7,4.9,76,5,15000,25.928,,,280,6.6,10.9,,1,,,,,,3,wg-a,,,,AAXX 26184 07110 02365 42814 10090 20050 30145 40267 53049 60006 70387 84300 91800 333 10109 20066 60017=
07110,1997-02-27 00:00:00,7,1033,2.4,87,5,25000,11.112,,,280,,,,,,,,,,,wg-a,,,,AAXX 27004 07110 12575 22806 10070 20050 30207 40330 53024 60006 82500 90000=
07110,1997-02-27 03:00:00,5,1033.9,0.8,93,4,25000,7.408,,,210,,,,,,,,,,,wg-a,,,,AAXX 27034 07110 12/75 02104 10050 20040 30215 40339 53008 60006 80000 90300=
07110,1997-02-27 06:00:00,6,1033.1,-0.8,93,5,10000,14.816,,,160,4.5,8.7,,,,,2,,,,wg-a,,,,AAXX 27064 07110 02660 31608 10060 20050 30207 40331 58008 60006 82530 90600 333 10087 20045 60024=
07110,1997-02-27 09:00:00,9,1033.3,0.3,81,6,15000,25.928,,,180,,,,,,,,,,,wg-a,,,,AAXX 27094 07110 12/65 21814 10090 20060 30210 40333 53003 60006 82030 90900=
07110,1997-02-27 12:00:00,12,1032.6,-0.5,71,7,20000,38.892,,,180,,,,,,,,,,,wg-a,,,,AAXX 27124 07110 12570 51821 10120 20070 30205 40326 57005 60006 82132 91200=
07110,1997-02-27 18:00:00,10,1029.1,-1.2,87,8,500,31.484,,,170,5.9,12,,,,,,,,,wg-a,,,,AAXX 27184 07110 12/00 61717 10100 20080 30169 40291 56012 60006 82032 91800 333 10120 20059=
07110,1997-02-27 21:00:00,9,1027.9,-1.2,87,7,15000,31.484,,,170,,,,,,,,,,,wg-a,,,,AAXX 27214 07110 12/65 51717 10090 20070 30157 40279 58012 60006 80002 92100=
07110,1997-02-28 00:00:00,9,1026.7,-1.2,93,8,10000,38.892,,57.412,170,,,,,,,,,,,wg-a,,,,AAXX 28004 07110 12760 61721 10090 20080 30145 40267 58012 60006 825/2 90000 333 91031=
07110,1997-02-28 03:00:00,10,1025.8,-0.8,87,8,15000,22.224,,,190,,,,,,,,,,,wg-a,,,,AAXX 28034 07110 12/65 31912 10100 20080 30137 40258 55008 60006 80004 90300=
07110,1997-02-28 06:00:00,9,1025,-0.8,93,8,15000,22.224,,,170,8.8,9.7,,,,,,,,,wg-a,,,,AAXX 28064 07110 02/65 41712 10090 20080 30129 40250 56008 60006 80004 90600 333 10097 20088 60004=
07110,1997-02-28 09:00:00,10,1025.7,0.7,93,9,7000,18.52,,,180,,,,,,,,,,,wg-a,,,,AAXX 28094 07110 12457 71810 10100 20090 30136 40257 53007 60006 81607 90900=
07110,1997-02-28 12:00:00,12,1025.6,-0,88,10,10000,14.816,,,230,,,,,,,,,,,wg-a,,,,AAXX 28124 07110 12360 72308 10120 20100 30136 40256 55000 60006 876// 91200=
07110,1997-02-28 15:00:00,11,1025.3,-0.4,94,10,10000,14.816,,,290,,,,,,,,,,20,wg-a,,,,AAXX 28154 07110 02260 82908 10110 20100 30132 40253 55004 61000 72052 886// 91500 333 ////=
07110,1997-02-28 18:00:00,10,1026.1,0.8,93,9,6000,7.408,,,230,8.9,12.5,,,,,,,,20,wg-a,,,,AAXX 28184 07110 02256 82304 10100 20090 30140 40261 53008 61000 72052 875// 91800 333 10125 20089 6000=
07110,1997-02-28 21:00:00,9,1027.5,1.3,100,9,8000,7.408,,,250,,,,,,,,,,,wg-a,,,,AAXX 28214 07110 12258 72504 10090 20090 30153 40275 51013 60006 867// 92100=
07110,1997-03-01 00:00:00,8,1027.2,-0.3,100,8,8000,7.408,,,190,,,,,,,,,,,wg-a,,,,AAXX 01004 07110 12158 81904 10080 20080 30150 40272 58003 60006 877// 90000=
07110,1997-03-01 03:00:00,9,1026.5,-0.7,93,8,10000,11.112,,,190,,,,,,,,,,28,wg-a,,,,AAXX 01034 07110 12460 71906 10090 20080 30143 40265 58007 60006 72841 867// 90300=
07110,1997-03-01 06:00:00,9,1026,-0.5,93,8,15000,14.816,,,180,8.1,9.8,,,,,,,,1,wg-a,,,,AAXX 01064 07110 02265 71808 10090 20080 30138 40260 55005 60006 70141 865// 90600 333 10098 20081 60004=
07110,1997-03-01 09:00:00,10,1025.3,-0.6,93,9,15000,22.224,,,180,,,,,,,,,,,wg-a,,,,AAXX 01094 07110 12365 71812 10100 20090 30132 40253 55006 60006 875// 90900=
07110,1997-03-01 12:00:00,11,1024.2,-1,100,11,2500,29.632,,,200,,,,1,,,,,,10,wg-a,,,,AAXX 01124 07110 02125 82016 10110 20110 30122 40242 56010 60016 71052 887// 91200 333 60017=
07110,1997-03-01 15:00:00,12,1023.1,-1.1,94,11,10000,29.632,,46.3,200,,,,,,,,,,2,wg-a,,,,AAXX 01154 07110 02260 82016 10120 20110 30111 40231 56011 61000 70252 886// 91500 333 //// 91025=
07110,1997-03-01 18:00:00,11,1022.1,-1,94,10,500,29.632,,42.596,200,8.8,11.7,,,,,,,,3,wg-a,,,,AAXX 01184 07110 12200 82016 10110 20100 30101 40221 56010 60006 70352 876// 91800 333 10117 20088 91023=
07110,1997-03-01 21:00:00,11,1021.6,-0.5,94,10,4000,25.928,,44.448,200,,,,0,,,,,,51,wg-a,,,,AAXX 01214 07110 12140 82014 10110 20100 30096 40216 58005 60007 75152 877// 92100 333 91024=
07110,1997-03-02 00:00:00,11,1020.5,-1.1,94,10,8000,25.928,,,200,,,,0,,,,,,1,wg-a,,,,AAXX 02004 07110 02258 82014 10110 20100 30085 40205 56011 60016 70152 877// 90000 333 60007=
07110,1997-03-02 03:00:00,11,1019.4,-1.1,94,10,8000,35.188,,,200,,,,,,,,,,,wg-a,,,,AAXX 02034 07110 12358 82019 10110 20100 30074 40194 56011 60006 877// 90300=
07110,1997-03-02 06:00:00,11,1019.4,-0,94,10,12000,31.484,,,210,10.5,11.3,,,,,1,,,,wg-a,,,,AAXX 02064 07110 02462 82117 10110 20100 30074 40194 55000 60006 877// 90600 333 10113 20105 60014=
07110,1997-03-02 09:00:00,11,1021.5,2.1,100,11,2500,29.632,,,230,,,,0,,,,,,50,wg-a,,,,AAXX 02094 07110 12125 82316 10110 20110 30095 40215 53021 60007 75052 887// 90900=
07110,1997-03-02 12:00:00,11,1024,2.5,94,10,20000,18.52,,,280,,,,0,,,,,,20,wg-a,,,,AAXX 02124 07110 02470 /2810 10110 20100 30120 40240 53025 60016 72052 86500 91200 333 60007=
07110,1997-03-02 15:00:00,11,1025.9,1.8,82,8,7000,11.112,,,290,,,,,,,,,,51,wg-a,,,,AAXX 02154 07110 02457 72906 10110 20080 30138 40259 53018 61000 75165 875// 91500 333 ////=
07110,1997-03-02 18:00:00,9,1028,2,87,7,20000,3.704,,,290,9.3,12.2,,,,,,,,60,wg-a,,,,AAXX 02184 07110 02570 72902 10090 20070 30158 40280 53020 61000 76065 875// 91800 333 10122 20093 6001=
07110,1997-03-02 21:00:00,9,1029.4,1.4,93,8,20000,3.704,,,170,,,,,,,,,,2,wg-a,,,,AAXX 02214 07110 02670 71702 10090 20080 30172 40294 53014 61000 70262 875// 92100 333 ////=
07110,1997-03-03 00:00:00,8,1030.1,0.7,100,8,20000,3.704,,,140,,,,,,,,,,3,wg-a,,,,AAXX 03004 07110 02570 81402 10080 20080 30179 40301 51007 61000 70362 875// 90000 333 ////=
07110,1997-03-03 03:00:00,8,1029.4,-0.7,100,8,12000,7.408,,,120,,,,,,,,,,,wg-a,,,,AAXX 03034 07110 12362 81204 10080 20080 30172 40294 58007 60006 875// 90300=
07110,1997-03-03 06:00:00,10,1029.2,-0.2,93,9,2500,11.112,,,160,8.3,9.6,,,,,2,,,,wg-a,,,,AAXX 03064 07110 02/25 /1606 10100 20090 30170 40292 55002 60006 90600 333 10096 20083 60024=
07110,1997-03-03 09:00:00,11,1029.5,0.4,94,10,6000,22.224,,,200,,,,,,,,,,3,wg-a,,,,AAXX 03094 07110 02256 82012 10110 20100 30174 40295 53004 61000 70362 876// 90900 333 ////=
07110,1997-03-03 12:00:00,11,1029.2,-0.3,94,10,8000,25.928,,,190,,,,0,,,,,,61,wg-a,,,,AAXX 03124 07110 02258 81914 10110 20100 30171 40292 55003 60006 76162 875// 91200 333 60007=
07110,1997-03-03 15:00:00,12,1027.2,-2,88,10,8000,22.224,,,190,,,,1,,,,,,1,wg-a,,,,AAXX 03154 07110 12458 81912 10120 20100 30151 40272 56020 60017 70162 8457/ 91500=
07110,1997-03-03 18:00:00,11,1026.6,-0.6,94,10,500,18.52,,,190,9.6,11.9,,,,,,,,2,wg-a,,,,AAXX 03184 07110 12200 81910 10110 20100 30145 40266 56006 60006 70262 876// 91800 333 10119 20096=
07110,1997-03-03 21:00:00,11,1025.8,-0.8,100,11,1500,25.928,,,200,,,,,,,,,,10,wg-a,,,,AAXX 03214 07110 02015 82014 10110 20110 30137 40258 57008 61000 71052 887// 92100 333 ////=
07110,1997-03-04 00:00:00,11,1025.3,-0.5,94,10,3000,22.224,,,190,,,,,,,,,,50,wg-a,,,,AAXX 04004 07110 02130 81912 10110 20100 30132 40253 56005 61000 75052 887// 90000 333 6100=
07110,1997-03-04 03:00:00,11,1024.5,-0.8,100,11,1200,22.224,,,200,,,,1,,,,,,10,wg-a,,,,AAXX 04034 07110 12112 82012 10110 20110 30124 40245 56008 60017 71065 887// 90300=
07110,1997-03-04 06:00:00,11,1023.4,-1,100,11,4000,18.52,,,200,10.4,10.9,,,,,,,,63,wg-a,,,,AAXX 04064 07110 02140 82010 10110 20110 30114 40234 56010 61000 76365 887// 90600 333 10109 20104 6011=
07110,1997-03-04 09:00:00,11,1023.2,-0.2,100,11,1800,25.928,,,210,,,,3,,,,,,10,wg-a,,,,AAXX 04094 07110 12118 82114 10110 20110 30112 40232 55002 60037 71062 887// 90900=
07110,1997-03-04 12:00:00,9,1025.1,1.7,93,8,500,14.816,,,270,,,,,,,,,,10,wg-a,,,,AAXX 04124 07110 02300 82708 10090 20080 30129 40251 53017 60036 71086 885// 91200 333 61000=
07110,1997-03-04 15:00:00,9,1025.9,0.8,87,7,7000,14.816,,,290,,,,,,,,,,,wg-a,,,,AAXX 04154 07110 12457 82908 10090 20070 30137 40259 53008 60006 885// 91500=
07110,1997-03-04 18:00:00,8,1027.3,1.4,93,7,10000,14.816,,,250,8.1,11.1,,,,,,,,,wg-a,,,,AAXX 04184 07110 12460 82508 10080 20070 30151 40273 53014 60006 885// 91800 333 10111 20081=
07110,1997-03-04 21:00:00,8,1028.3,1,93,7,10000,7.408,,,260,,,,0,,,,,,,wg-a,,,,AAXX 04214 07110 12560 82604 10080 20070 30161 40283 51010 60007 885// 92100=
07110,1997-03-05 00:00:00,8,1028.5,0.2,81,5,10000,7.408,,,210,,,,,,,,,,,wg-a,,,,AAXX 05004 07110 12660 72104 10080 20050 30163 40285 51002 60006 875// 90000=
07110,1997-03-05 03:00:00,8,1027.9,-0.6,81,5,11000,11.112,,,220,,,,,,,,,,,wg-a,,,,AAXX 05034 07110 12/61 /2206 10080 20050 30157 40279 57006 60006 90300=
07110,1997-03-05 06:00:00,8,1028.4,0.5,87,6,15000,7.408,,,190,7.6,8.5,,,,,3,,,,wg-a,,,,AAXX 05064 07110 02565 /1904 10080 20060 30162 40284 51005 60006 86500 90600 333 10085 20076 60034=
07110,1997-03-05 09:00:00,9,1028.7,0.3,93,8,10000,22.224,,,200,,,,,,,,,,50,wg-a,,,,AAXX 05094 07110 02260 72012 10090 20080 30165 40287 53003 61000 75052 877// 90900 333 ////=
07110,1997-03-05 12:00:00,10,1028.2,-0.4,100,10,500,18.52,,,200,,,,,,,,,,2,wg-a,,,,AAXX 05124 07110 02100 82010 10100 20100 30161 40282 58004 61000 70252 876// 91200 333 6100=
07110,1997-03-05 15:00:00,11,1027.2,-1,100,11,15000,22.224,,,220,,,,0,,,,,,50,wg-a,,,,AAXX 05154 07110 12265 82212 10110 20110 30151 40272 57010 60007 75052 877// 91500=
07110,1997-03-05 18:00:00,11,1027.9,0.7,94,10,10000,14.816,,,230,8.2,11.3,,,,,,,,21,wg-a,,,,AAXX 05184 07110 02260 82308 10110 20100 30158 40279 51007 61000 72165 877// 91800 333 10113 20082 6100=
07110,1997-03-06 00:00:00,11,1029.1,0.5,100,11,0,11.112,,,290,,,,,,,,,,,wg-a,,,,AAXX 06004 07110 12/// /2906 10110 20110 30170 40291 53005 60016 90000=
07110,1997-03-06 06:00:00,7,1031.5,1.3,100,7,0,3.704,,,50,6.3,10.7,,,,,1,,,,wg-a,,,,AAXX 06064 07110 12/// /0502 10070 20070 30192 40315 53013 60014 90600 333 10107 20063=
07110,1997-03-06 12:00:00,13,1031.7,-0.3,77,9,0,11.112,,,200,,,,,,,,,,,wg-a,,,,AAXX 06124 07110 12/// /2006 10130 20090 30196 40317 58003 60006 91200=
07110,1997-03-06 18:00:00,9,1030.6,0.1,93,8,0,7.408,,,200,6,13.6,,,,,,,,,wg-a,,,,AAXX 06184 07110 12/// /2004 10090 20080 30184 40306 52001 60006 91800 333 10136 20060=
07110,1997-03-07 00:00:00,10,1030,-0.7,100,10,8000,11.112,,,200,,,,,,,,,,20,wg-a,,,,AAXX 07004 07110 02258 72006 10100 20100 30178 40300 57007 61000 72052 877// 90000 333 6100=
07110,1997-03-07 03:00:00,10,1029.2,-0.8,87,8,12000,14.816,,,190,,,,,,,,,,,wg-a,,,,AAXX 07034 07110 12462 81908 10100 20080 30170 40292 58008 60006 885// 90300=
07110,1997-03-07 06:00:00,10,1028.5,-0.7,87,8,10000,14.816,,,190,8.3,9.9,,,,,,,,,wg-a,,,,AAXX 07064 07110 02460 81908 10100 20080 30163 40285 56007 60006 885// 90600 333 10099 20083 61000=
07110,1997-03-07 09:00:00,10,1028.8,0.4,93,9,12000,22.224,,,180,,,,,,,,,,,wg-a,,,,AAXX 07094 07110 12462 81812 10100 20090 30167 40288 53004 60006 885// 90900=
07110,1997-03-07 12:00:00,11,1028.7,-0.1,87,9,15000,25.928,,,190,,,,,,,,,,,wg-a,,,,AAXX 07124 07110 12465 71914 10110 20090 30166 40287 55001 60006 875// 91200=
07110,1997-03-07 15:00:00,12,1027.5,-1.1,88,10,20000,25.928,,,190,,,,,,,,,,,wg-a,,,,AAXX 07154 07110 12470 31914 10120 20100 30155 40275 56011 60006 83501 91500=
07110,1997-03-07 18:00:00,10,1029.3,1.7,87,8,8000,11.112,,,220,9.7,12.3,,,,,,,,,wg-a,,,,AAXX 07184 07110 12458 82206 10100 20080 30172 40293 53017 60006 885// 91800 333 10123 20097=
07110,1997-03-07 21:00:00,10,1030.1,0.7,87,8,12000,11.112,,,220,,,,,,,,,,,wg-a,,,,AAXX 07214 07110 12462 82206 10100 20080 30179 40301 51007 60006 875// 92100=
07110,1997-03-08 00:00:00,9,1031.4,1.3,93,8,10000,0,,,0,,,,,,,,,,,wg-a,,,,AAXX 08004 07110 12460 80000 10090 20080 30192 40314 52013 60006 875// 90000=
07110,1997-03-08 03:00:00,9,1032.1,0.7,93,8,10000,0,,,0,,,,,,,,,,,wg-a,,,,AAXX 08034 07110 12460 80000 10090 20080 30199 40321 51007 60006 875// 90300=
07110,1997-03-08 06:00:00,7,1032.9,0.7,100,7,15000,0,,,0,7.2,10.1,,,,,,,,,wg-a,,,,AAXX 08064 07110 02565 40000 10070 20070 30206 40329 53007 60006 81501 90600 333 10101 20072 60004=
07110,1997-03-08 09:00:00,9,1034.4,1.6,100,9,7000,3.704,,,10,,,,,,,,,,,wg-a,,,,AAXX 08094 07110 12457 70102 10090 20090 30222 40344 53016 60006 875// 90900=
07110,1997-03-08 12:00:00,12,1034.3,0,82,9,10000,11.112,,,70,,,,,,,,,,,wg-a,,,,AAXX 08124 07110 12460 /0706 10120 20090 30222 40343 50000 60006 86100 91200=
07110,1997-03-08 15:00:00,13,1033.4,-0.9,72,8,10000,7.408,,,30,,,,,,,,,,,wg-a,,,,AAXX 08154 07110 12460 /0304 10130 20080 30213 40334 56009 60006 86100 91500=
07110,1997-03-08 18:00:00,11,1033.2,-0.2,87,9,8000,11.112,,,30,6.8,13.3,,,,,,,,,wg-a,,,,AAXX 08184 07110 12558 /0306 10110 20090 30211 40332 55002 60006 86500 91800 333 10133 20068=
07110,1997-03-08 21:00:00,9,1033.4,0,93,8,8000,11.112,,,30,,,,,,,,,,,wg-a,,,,AAXX 08214 07110 12558 30306 10090 20080 30211 40334 50000 60006 83500 92100=
07110,1997-03-09 00:00:00,8,1032.8,-0.6,100,8,500,7.408,,,70,,,,,,,,,,,wg-a,,,,AAXX 09004 07110 12500 50704 10080 20080 30205 40328 56006 60006 85500 90000=
07110,1997-03-09 03:00:00,8,1031.4,-1.3,100,8,500,7.408,,,70,,,,,,,,,,,wg-a,,,,AAXX 09034 07110 12500 /0704 10080 20080 30192 40314 58013 60006 86500 90300=
07110,1997-03-09 06:00:00,8,1031,-0.5,93,7,6000,3.704,,,100,7.4,11.1,,,,,,,,,wg-a,,,,AAXX 09064 07110 02556 41002 10080 20070 30187 40310 56005 60006 84500 90600 333 10111 20074 60004=
07110,1997-03-09 09:00:00,11,1031.5,0.7,82,8,500,11.112,,,150,,,,,,,,,,,wg-a,,,,AAXX 09094 07110 12/00 01506 10110 20080 30194 40315 52007 60006 80000 90900=
07110,1997-03-09 12:00:00,15,1030.6,-0.7,59,7,10000,11.112,,,180,,,,,,,,,,,wg-a,,,,AAXX 09124 07110 12/60 01806 10150 20070 30187 40306 58007 60006 80000 91200=
07110,1997-03-09 18:00:00,13,1029,-0.2,77,9,8000,7.408,,,360,7.8,17.9,,,,,,,,,wg-a,,,,AAXX 09184 07110 12/58 03604 10130 20090 30170 40290 56002 60006 80000 91800 333 10179 20078=
07110,1997-03-09 21:00:00,9,1029.7,0.5,87,7,8000,3.704,,,120,,,,,,,,,,,wg-a,,,,AAXX 09214 07110 12/58 01202 10090 20070 30175 40297 51005 60006 80000 92100=
07110,1997-03-10 00:00:00,9,1029.6,-0.1,87,7,7000,3.704,,,100,,,,,,,,,,,wg-a,,,,AAXX 10004 07110 12/57 01002 10090 20070 30174 40296 58001 60006 80000 90000=
07110,1997-03-10 03:00:00,8,1028.9,-0.7,87,6,10000,3.704,,,60,,,,,,,,,,,wg-a,,,,AAXX 10034 07110 12/60 00602 10080 20060 30167 40289 58007 60006 80000 90300=
07110,1997-03-10 06:00:00,9,1029.8,0.9,87,7,10000,11.112,,,110,7.6,12.4,,,,,,,,,wg-a,,,,AAXX 10064 07110 02/60 01106 10090 20070 30176 40298 53009 60006 80000 90600 333 10124 20076 60004=
07110,1997-03-10 09:00:00,13,1030.2,0.6,72,8,8000,14.816,,,130,,,,,,,,,,,wg-a,,,,AAXX 10094 07110 12/58 01308 10130 20080 30182 40302 51006 60006 80000 90900=
07110,1997-03-10 12:00:00,19,1029.6,-0.4,52,9,10000,18.52,,,140,,,,,,,,,,,wg-a,,,,AAXX 10124 07110 12/60 01410 10190 20090 30178 40296 57004 60006 80000 91200=
07110,1997-03-10 15:00:00,21,1028.7,-0.8,40,7,13000,22.224,,,160,,,,,,,,,,,wg-a,,,,AAXX 10154 07110 12/63 01612 10210 20070 30170 40287 58008 60006 80000 91500=
07110,1997-03-10 18:00:00,16,1029.4,0.5,51,6,12000,14.816,,,160,8.5,20.7,,,,,,,,,wg-a,,,,AAXX 10184 07110 12/62 01608 10160 20060 30175 40294 53005 60006 80000 91800 333 10207 20085=
07110,1997-03-10 21:00:00,14,1030.5,1,55,5,10000,18.52,,,130,,,,,,,,,,,wg-a,,,,AAXX 10214 07110 12/60 01310 10140 20050 30185 40305 53010 60006 80000 92100=
07110,1997-03-11 00:00:00,13,1030.7,0.1,54,4,10000,14.816,,,120,,,,,,,,,,,wg-a,,,,AAXX 11004 07110 12/60 01208 10130 20040 30186 40307 52001 60006 80000 90000=
07110,1997-03-11 03:00:00,12,1030.2,-0.5,71,7,8000,14.816,,,130,,,,,,,,,,,wg-a,,,,AAXX 11034 07110 12/58 01308 10120 20070 30181 40302 58005 60006 80000 90300=
07110,1997-03-11 06:00:00,11,1029.9,-0.3,71,6,10000,11.112,,,110,11,16.4,,,,,,,,,wg-a,,,,AAXX 11064 07110 02/60 21106 10110 20060 30178 40299 56003 60006 80001 90600 333 10164 20110 60004=
07110,1997-03-11 09:00:00,15,1030.5,0.7,55,6,10000,14.816,,,130,,,,,,,,,,,wg-a,,,,AAXX 11094 07110 12/60 51308 10150 20060 30185 40305 52007 60006 80001 90900=
07110,1997-03-11 12:00:00,18,1030,-0.3,52,8,10000,18.52,,,150,,,,,,,,,,,wg-a,,,,AAXX 11124 07110 12/60 51510 10180 20080 30182 40300 58003 60006 80001 91200=
07110,1997-03-11 15:00:00,20,1029,-1,43,7,20000,18.52,,,190,,,,,,,,,,,wg-a,,,,AAXX 11154 07110 12/70 51910 10200 20070 30172 40290 56010 60006 80001 91500=
07110,1997-03-11 18:00:00,16,1029.2,0.1,59,8,12000,11.112,,,200,10.3,19.8,,,,,,,,,wg-a,,,,AAXX 11184 07110 12/62 22006 10160 20080 30173 40292 53001 60006 80001 91800 333 10198 20103=
07110,1997-03-11 21:00:00,12,1029.6,0.2,67,6,12000,14.816,,,180,,,,,,,,,,,wg-a,,,,AAXX 11214 07110 12/62 21808 10120 20060 30175 40296 50002 60006 80001 92100=
07110,1997-03-12 00:00:00,9,1030.2,0.5,81,6,12000,11.112,,,180,,,,,,,,,,,wg-a,,,,AAXX 12004 07110 12/62 11806 10090 20060 30180 40302 50005 60006 80001 90000=
07110,1997-03-12 03:00:00,9,1029.8,-0.4,100,9,200,7.408,,,190,,,,,,,,,,,wg-a,,,,AAXX 12034 07110 12/02 /1904 10090 20090 30176 40298 58004 60006 90300=
07110,1997-03-12 06:00:00,10,1030.8,1,100,10,200,11.112,,,270,8.2,15.6,,,,,,,,44,wg-a,,,,AAXX 12064 07110 02002 82706 10100 20100 30186 40308 53010 60006 74441 886// 90600 333 10156 20082 60004=
07110,1997-03-12 09:00:00,10,1032.3,1.5,100,10,4000,11.112,,,290,,,,,,,,,,10,wg-a,,,,AAXX 12094 07110 02240 82906 10100 20100 30201 40323 51015 61000 71054 886// 90900 333 ////=
07110,1997-03-12 12:00:00,12,1032.9,0.7,88,10,10000,14.816,,,300,,,,,,,,,,1,wg-a,,,,AAXX 12124 07110 02460 73008 10120 20100 30208 40329 51007 61000 70154 878// 91200 333 ////=
07110,1997-03-12 15:00:00,14,1032.4,-0.4,67,8,15000,11.112,,,260,,,,,,,,,,,wg-a,,,,AAXX 12154 07110 12565 /2606 10140 20080 30204 40324 58004 60006 85500 91500=
07110,1997-03-12 18:00:00,11,1033.1,0.6,82,8,15000,7.408,,,280,9.2,14.3,,,,,,,,,wg-a,,,,AAXX 12184 07110 12765 62804 10110 20080 30210 40331 53006 60006 85501 91800 333 10143 20092=
07110,1997-03-12 21:00:00,9,1033.6,0.4,87,7,20000,3.704,,,280,,,,,,,,,,,wg-a,,,,AAXX 12214 07110 12470 32802 10090 20070 30214 40336 51004 60006 83500 92100=
07110,1997-03-13 00:00:00,8,1033.7,0,87,6,15000,0,,,0,,,,,,,,,,,wg-a,,,,AAXX 13004 07110 12465 70000 10080 20060 30214 40337 50000 60006 875// 90000=
07110,1997-03-13 03:00:00,6,1032.8,-1,93,5,15000,3.704,,,290,,,,,,,,,,,wg-a,,,,AAXX 13034 07110 12/65 02902 10060 20050 30204 40328 58010 60006 80000 90300=
07110,1997-03-13 06:00:00,6,1032.7,-0.1,93,5,15000,3.704,,,180,4.3,11.2,,,,,,,,,wg-a,,,,AAXX 13064 07110 02465 71802 10060 20050 30203 40327 55001 60006 875// 90600 333 10112 20043 61000=
07110,1997-03-13 09:00:00,8,1033.3,0.7,93,7,6000,3.704,,,190,,,,,,,,,,,wg-a,,,,AAXX 13094 07110 12456 71902 10080 20070 30210 40333 53007 60006 875// 90900=
07110,1997-03-13 12:00:00,11,1032.4,-0.8,76,7,10000,11.112,,,190,,,,,,,,,,,wg-a,,,,AAXX 13124 07110 12460 71906 10110 20070 30202 40324 58008 60006 875// 91200=
07110,1997-03-13 18:00:00,10,1030.3,-0.6,82,7,10000,7.408,,,170,5.6,11.7,,,,,,,,,wg-a,,,,AAXX 13184 07110 12560 71704 10100 20070 30181 40303 58006 60006 86502 91800 333 10117 20056=
07110,1997-03-13 21:00:00,9,1029.8,-0.5,87,7,10000,11.112,,,210,,,,,,,,,,,wg-a,,,,AAXX 13214 07110 12560 72106 10090 20070 30176 40298 58005 60006 86502 92100=
07110,1997-03-14 00:00:00,9,1029,-0.8,93,8,7000,11.112,,,210,,,,,,,,,,,wg-a,,,,AAXX 14004 07110 12457 72106 10090 20080 30168 40290 57008 60006 875// 90000=
07110,1997-03-14 06:00:00,10,1027.4,-0.2,100,10,500,14.816,,,260,7.7,10,,,,,,,,50,wg-a,,,,AAXX 14064 07110 02100 82608 10100 20100 30153 40274 55002 61000 75052 877// 90600 333 10100 20077 6000=
07110,1997-03-14 09:00:00,11,1027.9,0.5,100,11,1500,14.816,,,260,,,,,,,,,,10,wg-a,,,,AAXX 14094 07110 02115 82608 10110 20110 30158 40279 53005 61000 71052 886// 90900 333 ////=
07110,1997-03-14 12:00:00,12,1028.3,0.4,94,11,7000,14.816,,,280,,,,,,,,,,3,wg-a,,,,AAXX 14124 07110 02157 82808 10120 20110 30162 40283 50004 61000 70352 876// 91200 333 6100=
07110,1997-03-14 15:00:00,12,1028.1,-0.2,94,11,4000,14.816,,,280,,,,,,,,,,10,wg-a,,,,AAXX 14154 07110 12140 82808 10120 20110 30160 40281 55002 60006 71022 876// 91500=
07110,1997-03-14 18:00:00,11,1028,-0.1,100,11,1000,14.816,,,280,10,12.1,,0,,,,,,50,wg-a,,,,AAXX 14184 07110 12110 82808 10110 20110 30159 40280 55001 60007 75052 886// 91800 333 10121 20100=
07110,1997-03-14 21:00:00,11,1029.2,1.2,100,11,1000,11.112,,,290,,,,0,,,,,,10,wg-a,,,,AAXX 14214 07110 12110 82906 10110 20110 30171 40292 52012 60007 71055 886// 92100=
07110,1997-03-15 00:00:00,11,1029.6,0.4,100,11,1500,14.816,,,290,,,,0,,,,,,10,wg-a,,,,AAXX 15004 07110 02115 82908 10110 20110 30175 40296 51004 60016 71054 886// 90000 333 60007=
07110,1997-03-15 06:00:00,10,1029.9,0.6,93,9,8000,11.112,,,290,10,11.1,,,,,1,,,3,wg-a,,,,AAXX 15064 07110 02558 72906 10100 20090 30177 40299 53006 60006 70352 875// 90600 333 10111 20100 60014=
07110,1997-03-15 09:00:00,11,1031,1.2,87,9,11000,11.112,,,290,,,,,,,,,,,wg-a,,,,AAXX 15094 07110 12461 72906 10110 20090 30189 40310 53012 60006 875// 90900=
07110,1997-03-15 12:00:00,13,1030.9,-0.1,67,7,12000,14.816,,,290,,,,,,,,,,,wg-a,,,,AAXX 15124 07110 12562 52908 10130 20070 30188 40309 58001 60006 84501 91200=
07110,1997-03-15 15:00:00,12,1030.6,-0.3,76,8,15000,14.816,,,290,,,,,,,,,,,wg-a,,,,AAXX 15154 07110 12565 /2908 10120 20080 30185 40306 57003 60006 86502 91500=
07110,1997-03-15 18:00:00,11,1030.9,0.3,87,9,15000,11.112,,,270,9.9,13.9,,,,,,,,,wg-a,,,,AAXX 15184 07110 12465 72706 10110 20090 30188 40309 53003 60006 875// 91800 333 10139 20099=
07110,1997-03-15 21:00:00,10,1031.6,0.6,93,9,10000,3.704,,,250,,,,,,,,,,,wg-a,,,,AAXX 15214 07110 12360 72502 10100 20090 30194 40316 51006 60006 875// 92100=
07110,1997-03-16 00:00:00,10,1031.7,0.1,93,9,10000,7.408,,,260,,,,,,,,,,,wg-a,,,,AAXX 16004 07110 12260 72604 10100 20090 30195 40317 50001 60006 875// 90000=
07110,1997-03-16 03:00:00,10,1031.1,-0.6,93,9,10000,7.408,,,310,,,,,,,,,,,wg-a,,,,AAXX 16034 07110 12160 83104 10100 20090 30189 40311 58006 60006 876// 90300=
07110,1997-03-16 06:00:00,9,1031.5,0.4,100,9,400,3.704,,,320,9.1,11.2,,,,,,,,44,wg-a,,,,AAXX 16064 07110 02104 83202 10090 20090 30193 40315 53004 60006 74442 876// 90600 333 10112 20091 60004=
07110,1997-03-16 12:00:00,10,1031.8,-0.5,100,10,8000,3.704,,,40,,,,,,,,,,1,wg-a,,,,AAXX 16124 07110 12158 80402 10100 20100 30196 40318 58005 60006 70142 886// 91200=
07110,1997-03-16 18:00:00,9,1030.1,-0.5,100,9,3500,11.112,,,50,8.3,13.9,,,,,,,,10,wg-a,,,,AAXX 16184 07110 12135 80506 10090 20090 30179 40301 58005 60006 71011 886// 91800 333 10139 20083=
07110,1997-03-16 21:00:00,7,1030.8,0.6,100,7,100,11.112,,,50,,,,,,,,,,45,wg-a,,,,AAXX 16214 07110 12/01 90506 10070 20070 30185 40308 53006 60006 74542 89/// 92100=
07110,1997-03-17 00:00:00,7,1029.9,-0.9,100,7,100,7.408,,,80,,,,,,,,,,45,wg-a,,,,AAXX 17004 07110 12/01 90804 10070 20070 30176 40299 58009 60006 74542 89/// 90000=
07110,1997-03-17 03:00:00,6,1029.3,-0.6,100,6,100,11.112,,,70,,,,,,,,,,45,wg-a,,,,AAXX 17034 07110 12/01 90706 10060 20060 30170 40293 58006 60006 74544 89/// 90300=
07110,1997-03-17 06:00:00,5,1029.2,-0.2,100,5,100,7.408,,,90,5.3,9.1,,,,,1,,,45,wg-a,,,,AAXX 17064 07110 02/01 90904 10050 20050 30168 40292 55002 60006 74544 89/// 90600 333 10091 20053 60014=
07110,1997-03-17 09:00:00,6,1029.1,-0,100,6,200,3.704,,,100,,,,,,,,,,45,wg-a,,,,AAXX 17094 07110 12/02 91002 10060 20060 30168 40291 54000 60006 74544 89/// 90900=
07110,1997-03-17 12:00:00,9,1028.5,-0.5,100,9,500,11.112,,,190,,,,,,,,,,45,wg-a,,,,AAXX 17124 07110 12/05 91906 10090 20090 30163 40285 57005 60006 74542 89/// 91200=
07110,1997-03-17 15:00:00,8,1027.1,-1.4,100,8,4000,11.112,,,200,,,,,,,,,,10,wg-a,,,,AAXX 17154 07110 12140 82006 10080 20080 30149 40271 58014 60006 71042 886// 91500=
07110,1997-03-17 18:00:00,9,1025.7,-1.3,100,9,500,11.112,,,170,5.2,9.2,,,,,,,,1,wg-a,,,,AAXX 17184 07110 12200 81706 10090 20090 30136 40257 56013 60006 70142 886// 91800 333 10092 20052=
07110,1997-03-17 21:00:00,9,1025.4,-0.3,93,8,15000,7.408,,,160,,,,,,,,,,,wg-a,,,,AAXX 17214 07110 12465 71604 10090 20080 30133 40254 58003 60006 875// 92100=
07110,1997-03-18 00:00:00,9,1023.9,-1.5,100,9,8000,14.816,,,190,,,,,,,,,,,wg-a,,,,AAXX 18004 07110 12358 71908 10090 20090 30118 40239 58015 60006 875// 90000=
07110,1997-03-18 03:00:00,10,1021.7,-2.2,100,10,8000,14.816,,,220,,,,,,,,,,,wg-a,,,,AAXX 18034 07110 12258 72208 10100 20100 30096 40217 58022 60006 875// 90300=
07110,1997-03-18 06:00:00,10,1021.1,-0.6,87,8,12000,14.816,,,240,9.1,10.3,,,,,,,,,wg-a,,,,AAXX 18064 07110 02562 72408 10100 20080 30090 40211 57006 60006 875// 90600 333 10103 20091 60004=
07110,1997-03-18 09:00:00,11,1020.9,-0.1,82,8,12000,14.816,,,260,,,,,,,,,,,wg-a,,,,AAXX 18094 07110 12562 72608 10110 20080 30089 40209 57001 60006 875// 90900=
07110,1997-03-18 12:00:00,11,1020.3,-0.6,94,10,3000,18.52,,,260,,,,0,,,,,,60,wg-a,,,,AAXX 18124 07110 02330 82610 10110 20100 30083 40203 56006 60006 76062 885// 91200 333 60007=
07110,1997-03-18 15:00:00,12,1019.4,-0.9,76,8,15000,29.632,,,300,,,,1,,,,,,1,wg-a,,,,AAXX 18154 07110 12565 /3016 10120 20080 30074 40194 58009 60017 70162 85200 91500=
07110,1997-03-18 18:00:00,10,1019,-0.4,82,7,15000,22.224,,,290,9.8,13.1,,,,,,,,3,wg-a,,,,AAXX 18184 07110 12465 42912 10100 20070 30070 40190 56004 60006 70361 84800 91800 333 10131 20098=
07110,1997-03-18 21:00:00,8,1019.4,0.3,93,7,15000,18.52,,,290,,,,,,,,,,,wg-a,,,,AAXX 18214 07110 12465 32910 10080 20070 30073 40194 51003 60006 83800 92100=
07110,1997-03-19 00:00:00,8,1019.1,-0.3,81,5,15000,14.816,,,300,,,,,,,,,,,wg-a,,,,AAXX 19004 07110 12565 43008 10080 20050 30070 40191 58003 60006 84800 90000=
07110,1997-03-19 06:00:00,9,1018.4,-0.2,81,6,15000,25.928,,,310,7.9,9.9,,,,,1,,,,wg-a,,,,AAXX 19064 07110 02465 /3114 10090 20060 30063 40184 55002 60006 86800 90600 333 10099 20079 60014=
07110,1997-03-19 09:00:00,9,1019.8,1.4,76,5,15000,25.928,,,320,,,,,,,,,,,wg-a,,,,AAXX 19094 07110 12565 73214 10090 20050 30077 40198 53014 60006 875// 90900=
07110,1997-03-19 12:00:00,10,1020.8,1,66,4,15000,25.928,,48.152,340,,,,,,,,,,,wg-a,,,,AAXX 19124 07110 12565 /3414 10100 20040 30087 40208 51010 60006 86800 91200 333 91026=
07110,1997-03-19 15:00:00,10,1020.9,0.1,66,4,15000,22.224,,,340,,,,,,,,,,,wg-a,,,,AAXX 19154 07110 12565 /3412 10100 20040 30088 40209 51001 60006 86800 91500=
07110,1997-03-20 00:00:00,5,1023.5,0.3,87,3,10000,11.112,,,340,,,,,,,,,,,wg-a,,,,AAXX 20004 07110 12760 23406 10050 20030 30112 40235 50003 60006 825/0 90000=
07110,1997-03-20 03:00:00,3,1023.4,-0.2,93,2,10000,7.408,,,300,,,,,,,,,,,wg-a,,,,AAXX 20034 07110 12/60 03004 10030 20020 30110 40234 58002 60006 80000 90300=
07110,1997-03-20 06:00:00,2,1023.4,-0.1,93,1,10000,3.704,,,270,1.8,8.9,,,,,,,,,wg-a,,,,AAXX 20064 07110 02760 22702 10020 20010 30109 40234 55001 60006 82500 90600 333 10089 20018 60004=
07110,1997-03-20 09:00:00,9,1024,0.9,87,7,15000,7.408,,,360,,,,,,,,,,,wg-a,,,,AAXX 20094 07110 12465 23604 10090 20070 30118 40240 51009 60006 81101 90900=
07110,1997-03-20 12:00:00,12,1023.2,-0.6,50,2,15000,14.816,,,20,,,,,,,,,,,wg-a,,,,AAXX 20124 07110 12565 30208 10120 20020 30112 40232 58006 60006 83101 91200=
07110,1997-03-20 15:00:00,12,1022.2,-1,58,4,15000,11.112,,,20,,,,,,,,,,,wg-a,,,,AAXX 20154 07110 12/65 30206 10120 20040 30102 40222 57010 60006 80001 91500=
07110,1997-03-20 18:00:00,10,1022.4,0.1,62,3,15000,11.112,,,20,1.9,12.7,,,,,,,,,wg-a,,,,AAXX 20184 07110 12/65 30206 10100 20030 30103 40224 53001 60006 80001 91800 333 10127 20019=
07110,1997-03-20 21:00:00,6,1023.2,0.6,87,4,15000,7.408,,,40,,,,,,,,,,,wg-a,,,,AAXX 20214 07110 12/65 30404 10060 20040 30109 40232 51006 60006 80001 92100=
07110,1997-03-21 00:00:00,5,1023.1,-0.1,93,4,15000,7.408,,,80,,,,,,,,,,,wg-a,,,,AAXX 21004 07110 12/65 30804 10050 20040 30108 40231 57001 60006 80001 90000=
07110,1997-03-21 03:00:00,5,1023.1,-0,81,2,15000,3.704,,,160,,,,,,,,,,,wg-a,,,,AAXX 21034 07110 12/65 31602 10050 20020 30108 40231 55000 60006 80001 90300=
07110,1997-03-21 06:00:00,4,1023.3,0.2,93,3,15000,3.704,,,80,4,9.7,,,,,,,,,wg-a,,,,AAXX 21064 07110 02/65 40802 10040 20030 30110 40233 53002 60006 80001 90600 333 10097 20040 60004=
07110,1997-03-21 09:00:00,9,1024.2,1.1,93,8,15000,7.408,,,30,,,,,,,,,,,wg-a,,,,AAXX 21094 07110 12465 70304 10090 20080 30121 40242 53011 60006 81138 90900=
07110,1997-03-21 12:00:00,12,1024.5,0.4,67,6,15000,11.112,,,60,,,,,,,,,,,wg-a,,,,AAXX 21124 07110 12465 70606 10120 20060 30125 40245 52004 60006 82108 91200=
07110,1997-03-21 15:00:00,14,1023.7,-0.7,72,9,15000,14.816,,,10,,,,,,,,,,,wg-a,,,,AAXX 21154 07110 12565 /0108 10140 20090 30118 40237 58007 60006 81102 91500=
07110,1997-03-21 18:00:00,11,1024.4,0.5,82,8,10000,14.816,,,30,4.3,14.3,,,,,,,,,wg-a,,,,AAXX 21184 07110 12/60 40308 10110 20080 30123 40244 53005 60006 80002 91800 333 10143 20043=
07110,1997-03-21 21:00:00,8,1025.7,1.2,87,6,10000,11.112,,,80,,,,,,,,,,,wg-a,,,,AAXX 21214 07110 12/60 40806 10080 20060 30135 40257 52012 60006 80001 92100=
07110,1997-03-22 00:00:00,6,1026.1,0.3,93,5,10000,7.408,,,60,,,,,,,,,,,wg-a,,,,AAXX 22004 07110 12/60 30604 10060 20050 30138 40261 53003 60006 80001 90000=
07110,1997-03-22 06:00:00,5,1025.8,0.2,93,4,7000,11.112,,,120,4.6,10.9,,,,,,,,,wg-a,,,,AAXX 22064 07110 02/57 21206 10050 20040 30135 40258 53002 60006 80001 90600 333 10109 20046 60004=
07110,1997-03-22 09:00:00,9,1026.2,0.5,81,6,10000,18.52,,,140,,,,,,,,,,,wg-a,,,,AAXX 22094 07110 12/60 31410 10090 20060 30140 40262 51005 60006 80002 90900=
07110,1997-03-22 12:00:00,13,1025.7,-0.3,62,6,10000,14.816,,,200,,,,,,,,,,,wg-a,,,,AAXX 22124 07110 12/60 32008 10130 20060 30137 40257 55003 60006 80002 91200=
07110,1997-03-22 18:00:00,11,1023.3,-0.8,71,6,10000,11.112,,,190,5,14.2,,,,,,,,,wg-a,,,,AAXX 22184 07110 12/60 21906 10110 20060 30112 40233 58008 60006 80002 91800 333 10142 20050=
07110,1997-03-22 21:00:00,8,1023.1,-0.3,81,5,15000,7.408,,,210,,,,,,,,,,,wg-a,,,,AAXX 22214 07110 12/65 22104 10080 20050 30109 40231 55003 60006 80002 92100=
07110,1997-03-23 00:00:00,8,1021.5,-1.6,87,6,15000,11.112,,,200,,,,,,,,,,,wg-a,,,,AAXX 23004 07110 12/65 42006 10080 20060 30093 40215 58016 60006 81032 90000=
07110,1997-03-23 03:00:00,8,1019.3,-2.1,93,7,8000,11.112,,,210,,,,,,,,,,,wg-a,,,,AAXX 23034 07110 12/58 42106 10080 20070 30072 40193 58021 60006 81032 90300=
07110,1997-03-23 06:00:00,9,1018.5,-0.8,93,8,500,11.112,,,240,6.6,10.8,,,,,,,,,wg-a,,,,AAXX 23064 07110 02400 72406 10090 20080 30064 40185 56008 60006 876// 90600 333 10108 20066 60004=
07110,1997-03-23 09:00:00,11,1017.9,-0.5,87,9,4000,18.52,,,270,,,,,,,,,,,wg-a,,,,AAXX 23094 07110 12340 72710 10110 20090 30059 40179 58005 60006 876// 90900=
07110,1997-03-23 12:00:00,12,1017.1,-0.7,82,9,15000,29.632,,,290,,,,,,,,,,,wg-a,,,,AAXX 23124 07110 12465 72916 10120 20090 30052 40171 58007 60006 87800 91200=
07110,1997-03-23 15:00:00,12,1016.2,-0.9,88,10,15000,22.224,,,290,,,,,,,,,,,wg-a,,,,AAXX 23154 07110 12465 72912 10120 20100 30043 40162 58009 60006 875// 91500=
07110,1997-03-23 18:00:00,10,1016.3,-0,87,8,10000,18.52,,,300,9.3,13.3,,,,,,,,,wg-a,,,,AAXX 23184 07110 12460 73010 10100 20080 30043 40163 55000 60006 875// 91800 333 10133 20093=
07110,1997-03-23 21:00:00,9,1016.5,0.2,100,9,1500,7.408,,,310,,,,1,,,,,,10,wg-a,,,,AAXX 23214 07110 12115 83104 10090 20090 30045 40165 51002 60017 71052 877// 92100=
07110,1997-03-24 00:00:00,10,1015.7,-0.8,93,9,2000,3.704,,,300,,,,0,,,,,,10,wg-a,,,,AAXX 24004 07110 02120 83002 10100 20090 30037 40157 57008 60016 71052 877// 90000 333 60007=
07110,1997-03-24 03:00:00,10,1014.6,-1.1,100,10,10000,14.816,,,290,,,,0,,,,,,20,wg-a,,,,AAXX 24034 07110 12260 72908 10100 20100 30026 40146 58011 60007 72052 877// 90300=
07110,1997-03-24 06:00:00,10,1013.5,-1.1,100,10,3000,14.816,,,250,9.4,10.4,,,,,,,,51,wg-a,,,,AAXX 24064 07110 02230 72508 10100 20100 30015 40135 57011 61000 75152 877// 90600 333 10104 20094 6001=
07110,1997-03-24 09:00:00,10,1013.9,0.4,93,9,8000,22.224,,,310,,,,2,,,,,,10,wg-a,,,,AAXX 24094 07110 12358 /3112 10100 20090 30019 40139 53004 60027 71052 875// 90900=
07110,1997-03-24 12:00:00,11,1013.9,0.1,87,9,10000,29.632,,50.004,310,,,,1,,,,,,1,wg-a,,,,AAXX 24124 07110 02460 53116 10110 20090 30020 40139 50001 60036 70152 85800 91200 333 60017 91027=
07110,1997-03-24 15:00:00,10,1015.1,1.1,82,7,15000,31.484,,,320,,,,,,,,,,,wg-a,,,,AAXX 24154 07110 12465 /3217 10100 20070 30031 40151 53011 60006 86200 91500=
07110,1997-03-24 18:00:00,9,1016.3,1.2,81,6,11000,25.928,,46.3,330,9.1,11.3,,,,,,,,,wg-a,,,,AAXX 24184 07110 12/61 /3314 10090 20060 30043 40163 53012 60006 91800 333 10113 20091 91025=
07110,1997-03-24 21:00:00,9,1018.4,2,81,6,15000,18.52,,,330,,,,,,,,,,,wg-a,,,,AAXX 24214 07110 12465 /3310 10090 20060 30063 40184 51020 60006 85800 92100=
07110,1997-03-25 00:00:00,7,1019.5,1,93,6,15000,7.408,,,320,,,,,,,,,,,wg-a,,,,AAXX 25004 07110 12765 23204 10070 20060 30073 40195 51010 60006 82500 90000=
07110,1997-03-25 03:00:00,6,1019.8,0.3,100,6,15000,7.408,,,320,,,,,,,,,,,wg-a,,,,AAXX 25034 07110 12/65 23204 10060 20060 30076 40198 53003 60006 82030 90300=
07110,1997-03-25 06:00:00,7,1020.4,0.6,93,6,15000,3.704,,,310,5.5,9.1,,,,,3,,,,wg-a,,,,AAXX 25064 07110 02/65 53102 10070 20060 30082 40204 53006 60006 84036 90600 333 10091 20055 60034=
07110,1997-03-25 09:00:00,9,1021.3,1,100,9,10000,7.408,,,290,,,,,,,,,,,wg-a,,,,AAXX 25094 07110 12560 72904 10090 20090 30092 40213 52010 60006 8353/ 90900=
07110,1997-03-25 12:00:00,12,1021.5,0.3,71,7,15000,11.112,,,260,,,,,,,,,,,wg-a,,,,AAXX 25124 07110 12565 72606 10120 20070 30095 40215 50003 60006 8553/ 91200=
07110,1997-03-25 15:00:00,12,1021.1,-0.4,71,7,20000,11.112,,,260,,,,,,,,,,,wg-a,,,,AAXX 25154 07110 12570 /2606 10120 20070 30091 40211 58004 60006 84830 91500=
07110,1997-03-25 18:00:00,10,1021.3,0.2,87,8,15000,11.112,,,260,6.5,13.1,,,,,,,,,wg-a,,,,AAXX 25184 07110 12465 52606 10100 20080 30093 40213 53002 60006 82531 91800 333 10131 20065=
07110,1997-03-25 21:00:00,9,1022.1,0.7,100,9,10000,11.112,,,210,,,,,,,,,,,wg-a,,,,AAXX 25214 07110 12560 72106 10090 20090 30100 40221 50007 60006 84532 92100=
07110,1997-03-26 00:00:00,10,1021.3,-0.8,93,9,10000,14.816,,,190,,,,,,,,,,,wg-a,,,,AAXX 26004 07110 12360 81908 10100 20090 30092 40213 58008 60006 8577/ 90000=
07110,1997-03-26 06:00:00,10,1018,-0.9,93,9,8000,18.52,,,210,9.1,,,,,,,,,,wg-a,,,,AAXX 26064 07110 02358 82110 10100 20090 30060 40180 58009 60006 877// 90600 333 20091 60004=
07110,1997-03-26 12:00:00,10,1020.4,0.2,100,10,3000,25.928,,,210,,,,0,,,,,,10,wg-a,,,,AAXX 26124 07110 02130 82114 10100 20100 30084 40204 50002 60006 71052 877// 91200 333 60007=
07110,1997-03-26 15:00:00,11,1020.6,0.2,100,11,2000,18.52,,,220,,,,1,,,,,,10,wg-a,,,,AAXX 26154 07110 12120 82210 10110 20110 30086 40206 52002 60017 71055 877// 91500=
07110,1997-03-26 18:00:00,12,1021.3,0.7,100,12,3500,11.112,,,230,10.3,11.7,,,,,,,,10,wg-a,,,,AAXX 26184 07110 02135 82306 10120 20120 30093 40213 52007 61000 71055 877// 91800 333 10117 20103 6001=
07110,1997-03-26 21:00:00,11,1022.9,1.6,100,11,1000,11.112,,,260,,,,,,,,,,,wg-a,,,,AAXX 26214 07110 32/10 /2606 10110 20110 30109 40229 51016 92100=
07110,1997-03-27 00:00:00,11,1023.4,0.5,100,11,400,11.112,,,260,,,,,,,,,,44,wg-a,,,,AAXX 27004 07110 02104 82606 10110 20110 30114 40234 51005 60006 74454 887// 90000 333 61000=
07110,1997-03-27 03:00:00,11,1023.6,0.2,100,11,2000,7.408,,,240,,,,0,,,,,,10,wg-a,,,,AAXX 27034 07110 12120 82404 10110 20110 30116 40236 51002 60007 71054 887// 90300=
07110,1997-03-27 06:00:00,11,1024,0.4,100,11,800,7.408,,,210,10.8,11.6,,,,,4,,,10,wg-a,,,,AAXX 27064 07110 02008 82104 10110 20110 30120 40240 53004 60006 71054 887// 90600 333 10116 20108 60044=
07110,1997-03-27 09:00:00,12,1024.7,0.7,100,12,1100,11.112,,,220,,,,,,,,,,10,wg-a,,,,AAXX 27094 07110 12111 82206 10120 20120 30127 40247 51007 60006 71042 886// 90900=
07110,1997-03-27 12:00:00,12,1023.9,-0.8,100,12,11000,18.52,,,220,,,,,,,,,,,wg-a,,,,AAXX 27124 07110 12/61 /2210 10120 20120 30119 40239 56008 60006 91200=
07110,1997-03-27 15:00:00,12,1023.5,-0.4,94,11,500,18.52,,,230,,,,,,,,,,,wg-a,,,,AAXX 27154 07110 12200 82310 10120 20110 30115 40235 58004 60006 886// 91500=
07110,1997-03-27 18:00:00,10,1023.6,-0,100,10,4000,14.816,,,240,10.4,12.9,,,,,,,,10,wg-a,,,,AAXX 27184 07110 12140 82408 10100 20100 30115 40236 55000 60006 71022 886// 91800 333 10129 20104=
07110,1997-03-27 21:00:00,11,1024,0.5,100,11,1500,14.816,,,260,,,,,,,,,,10,wg-a,,,,AAXX 27214 07110 02115 82608 10110 20110 30120 40240 50005 61000 71052 887// 92100 333 ////=
07110,1997-03-28 00:00:00,9,1024.4,0.3,93,8,15000,11.112,,,320,,,,,,,,,,1,wg-a,,,,AAXX 28004 07110 02465 43206 10090 20080 30123 40244 53003 61000 70165 84500 90000 333 6100=
07110,1997-03-28 03:00:00,8,1025.5,1,87,6,15000,14.816,,,330,,,,,,,,,,,wg-a,,,,AAXX 28034 07110 12465 /3308 10080 20060 30133 40255 53010 60006 81200 90300=
07110,1997-03-28 06:00:00,7,1027,1.4,76,3,15000,18.52,,,340,6.7,10.8,,,,,,,,,wg-a,,,,AAXX 28064 07110 02565 23410 10070 20030 30147 40270 53014 60006 82800 90600 333 10108 20067 61000=
07110,1997-03-28 09:00:00,9,1029,2.1,66,3,20000,22.224,,,340,,,,,,,,,,,wg-a,,,,AAXX 28094 07110 12570 33412 10090 20030 30168 40290 52021 60006 83200 90900=
07110,1997-03-28 12:00:00,11,1030,1.1,66,5,20000,22.224,,,350,,,,,,,,,,,wg-a,,,,AAXX 28124 07110 12570 43512 10110 20050 30179 40300 51011 60006 84200 91200=
07110,1997-03-28 15:00:00,10,1029.8,-0.3,53,1,20000,22.224,,,360,,,,,,,,,,,wg-a,,,,AAXX 28154 07110 12570 /3612 10100 20010 30176 40298 57003 60006 81100 91500=
07110,1997-03-28 18:00:00,9,1029.9,0.1,61,2,20000,18.52,,,350,6.7,10.8,,,,,,,,,wg-a,,,,AAXX 28184 07110 12670 /3510 10090 20020 30177 40299 53001 60006 81100 91800 333 10108 20067=
07110,1997-03-28 21:00:00,6,1031.1,1,75,2,20000,11.112,,,350,,,,,,,,,,,wg-a,,,,AAXX 28214 07110 12570 /3506 10060 20020 30187 40311 51010 60006 81500 92100=
07110,1997-03-29 00:00:00,5,1031.3,0.2,81,2,20000,11.112,,,340,,,,,,,,,,,wg-a,,,,AAXX 29004 07110 12/70 03406 10050 20020 30189 40313 51002 60006 80000 90000=
07110,1997-03-29 03:00:00,4,1030.6,-0.7,87,2,20000,7.408,,,320,,,,,,,,,,,wg-a,,,,AAXX 29034 07110 12/70 03204 10040 20020 30182 40306 56007 60006 80000 90300=
07110,1997-03-29 06:00:00,3,1030.6,-0.1,93,2,20000,0,,,0,3.4,8.6,,,,,,,,,wg-a,,,,AAXX 29064 07110 02570 /0000 10030 20020 30181 40306 55001 60006 81100 90600 333 10086 20034 60004=
07110,1997-03-29 09:00:00,9,1030.5,0.2,76,5,20000,11.112,,,30,,,,,,,,,,,wg-a,,,,AAXX 29094 07110 12570 20306 10090 20050 30183 40305 51002 60006 82100 90900=
07110,1997-03-29 12:00:00,11,1030.1,-0.3,62,4,20000,18.52,,,30,,,,,,,,,,,wg-a,,,,AAXX 29124 07110 12570 20310 10110 20040 30180 40301 58003 60006 82100 91200=
07110,1997-03-29 15:00:00,12,1028.5,-1.6,54,3,20000,14.816,,,20,,,,,,,,,,,wg-a,,,,AAXX 29154 07110 12670 20208 10120 20030 30164 40285 58016 60006 81102 91500=
07110,1997-03-29 18:00:00,9,1028.4,-0.2,76,5,20000,14.816,,,20,3.2,12.1,,,,,,,,,wg-a,,,,AAXX 29184 07110 12670 20208 10090 20050 30162 40284 55002 60006 81102 91800 333 10121 20032=
07110,1997-03-29 21:00:00,5,1029,0.4,87,3,15000,7.408,,,40,,,,,,,,,,,wg-a,,,,AAXX 29214 07110 12/65 10404 10050 20030 30166 40290 53004 60006 80001 92100=
07110,1997-03-30 00:00:00,4,1028.6,-0.4,93,3,15000,3.704,,,50,,,,,,,,,,,wg-a,,,,AAXX 30004 07110 12/65 00502 10040 20030 30162 40286 57004 60006 80000 90000=
07110,1997-03-30 03:00:00,4,1028,-0.6,93,3,15000,7.408,,,70,,,,,,,,,,,wg-a,,,,AAXX 30034 07110 12/65 10704 10040 20030 30156 40280 58006 60006 80001 90300=
07110,1997-03-30 06:00:00,3,1028.2,0.1,93,2,10000,7.408,,,100,3.1,8.8,,,,,,,,,wg-a,,,,AAXX 30064 07110 02/60 11004 10030 20020 30157 40282 53001 60006 80001 90600 333 10088 20031 60004=
07110,1997-03-30 09:00:00,9,1028.4,0.5,71,4,15000,14.816,,,130,,,,,,,,,,,wg-a,,,,AAXX 30094 07110 12/65 01308 10090 20040 30162 40284 51005 60006 80000 90900=
07110,1997-03-30 12:00:00,13,1027.6,-0.6,58,5,15000,11.112,,,170,,,,,,,,,,,wg-a,,,,AAXX 30124 07110 12/65 01706 10130 20050 30156 40276 58006 60006 80000 91200=
07110,1997-03-30 15:00:00,15,1026.1,-1.4,59,7,15000,11.112,,,20,,,,,,,,,,,wg-a,,,,AAXX 30154 07110 12665 /0206 10150 20070 30142 40261 58014 60006 81100 91500=
07110,1997-03-30 18:00:00,12,1025.9,-0.3,67,6,15000,11.112,,,30,3.2,15.1,,,,,,,,,wg-a,,,,AAXX 30184 07110 12/65 00306 10120 20060 30139 40259 58003 60006 80000 91800 333 10151 20032=
07110,1997-03-30 21:00:00,8,1026.2,0.1,81,5,15000,7.408,,,70,,,,,,,,,,,wg-a,,,,AAXX 30214 07110 12/65 00704 10080 20050 30140 40262 53001 60006 80000 92100=
07110,1997-03-31 00:00:00,7,1026.2,-0.1,76,3,15000,11.112,,,110,,,,,,,,,,,wg-a,,,,AAXX 31004 07110 12/65 01106 10070 20030 30139 40262 58001 60006 80000 90000=
07110,1997-03-31 06:00:00,6,1025.7,0.1,75,2,10000,11.112,,,110,5.3,12,,,,,,,,,wg-a,,,,AAXX 31064 07110 02/60 01106 10060 20020 30134 40257 53001 60006 80000 90600 333 10120 20053 60004=
07110,1997-03-31 09:00:00,11,1026,0.5,62,4,15000,14.816,,,130,,,,,,,,,,,wg-a,,,,AAXX 31094 07110 12/65 01308 10110 20040 30139 40260 51005 60006 80000 90900=
07110,1997-03-31 12:00:00,15,1024.8,-1,48,4,10000,14.816,,,130,,,,,,,,,,,wg-a,,,,AAXX 31124 07110 12/60 /1308 10150 20040 30129 40248 58010 60006 91200=
07110,1997-03-31 15:00:00,17,1023.2,-1.5,42,4,15000,7.408,,,90,,,,,,,,,,,wg-a,,,,AAXX 31154 07110 12/65 00904 10170 20040 30114 40232 57015 60006 80000 91500=
07110,1997-03-31 18:00:00,13,1023.1,-0.2,62,6,10000,11.112,,,30,5.5,17.5,,,,,,,,,wg-a,,,,AAXX 31184 07110 12/60 00306 10130 20060 30112 40231 56002 60006 80000 91800 333 10175 20055=
07110,1997-03-31 21:00:00,8,1024,0.6,87,6,15000,7.408,,,50,,,,,,,,,,,wg-a,,,,AAXX 31214 07110 12/65 00504 10080 20060 30118 40240 51006 60006 80000 92100=
07110,1997-04-01 00:00:00,6,1023.9,-0.2,81,3,15000,7.408,,,30,,,,,,,,,,,wg-a,,,,AAXX 01004 07110 12/65 00304 10060 20030 30116 40239 58002 60006 80000 90000=
07110,1997-04-01 03:00:00,4,1023.2,-0.7,93,3,12000,7.408,,,40,,,,,,,,,,,wg-a,,,,AAXX 01034 07110 12/62 00404 10040 20030 30109 40232 58007 60006 80000 90300=
07110,1997-04-01 06:00:00,5,1023.5,0.3,87,3,10000,3.704,,,20,4.3,13.2,,,,,,,,,wg-a,,,,AAXX 01064 07110 02/60 00202 10050 20030 30112 40235 53003 60006 80000 90600 333 10132 20043 60004=
07110,1997-04-01 09:00:00,11,1024.2,0.9,76,7,10000,11.112,,,40,,,,,,,,,,,wg-a,,,,AAXX 01094 07110 12/60 00406 10110 20070 30121 40242 51009 60006 80000 90900=
07110,1997-04-01 12:00:00,16,1023.5,-0.5,48,5,12000,11.112,,,30,,,,,,,,,,,wg-a,,,,AAXX 01124 07110 12/62 00306 10160 20050 30116 40235 58005 60006 80000 91200=
07110,1997-04-01 15:00:00,16,1022.3,-1.1,45,4,15000,14.816,,,20,,,,,,,,,,,wg-a,,,,AAXX 01154 07110 12/65 00208 10160 20040 30105 40223 56011 60006 80000 91500=
07110,1997-04-01 18:00:00,11,1022.9,0.4,66,5,15000,14.816,,,20,4.5,16.4,,,,,,,,,wg-a,,,,AAXX 01184 07110 12/65 00208 10110 20050 30109 40229 53004 60006 80000 91800 333 10164 20045=
07110,1997-04-01 21:00:00,7,1023.7,0.6,81,4,15000,7.408,,,20,,,,,,,,,,,wg-a,,,,AAXX 01214 07110 12/65 00204 10070 20040 30115 40237 53006 60006 80000 92100=
07110,1997-04-02 00:00:00,5,1023.2,-0.6,93,4,10000,3.704,,,10,,,,,,,,,,,wg-a,,,,AAXX 02004 07110 12/60 00102 10050 20040 30109 40232 56006 60006 80000 90000=
07110,1997-04-02 03:00:00,5,1022.2,-1,93,4,10000,7.408,,,50,,,,,,,,,,,wg-a,,,,AAXX 02034 07110 12/60 00504 10050 20040 30099 40222 58010 60006 80000 90300=
07110,1997-04-02 06:00:00,4,1022.1,-0.1,93,3,500,3.704,,,20,3.8,10.9,,,,,,,,12,wg-a,,,,AAXX 02064 07110 02/00 /0202 10040 20030 30098 40221 56001 60006 71241 80001 90600 333 10109 20038 60004=
07110,1997-04-02 12:00:00,16,1021,-0.7,42,3,15000,3.704,,,40,,,,,,,,,,,wg-a,,,,AAXX 02124 07110 12/65 00402 10160 20030 30092 40210 58007 60006 80000 91200=
07110,1997-04-02 18:00:00,13,1020.4,0.1,72,8,12000,11.112,,,350,3.8,17.1,,,,,,,,,wg-a,,,,AAXX 02184 07110 12/62 03506 10130 20080 30085 40204 53001 60006 80000 91800 333 10171 20038=
07110,1997-04-02 21:00:00,8,1021.8,1.1,93,7,6000,7.408,,,350,,,,,,,,,,,wg-a,,,,AAXX 02214 07110 12/56 03504 10080 20070 30096 40218 51011 60006 80000 92100=
07110,1997-04-03 00:00:00,7,1021.6,-0.2,93,6,500,7.408,,,330,,,,,,,,,,,wg-a,,,,AAXX 03004 07110 12/00 03304 10070 20060 30094 40216 57002 60006 80000 90000=
07110,1997-04-03 03:00:00,8,1021.4,-0.2,93,7,6000,7.408,,,330,,,,,,,,,,,wg-a,,,,AAXX 03034 07110 12356 73304 10080 20070 30092 40214 57002 60006 876// 90300=
07110,1997-04-03 06:00:00,9,1021.3,-0,87,7,7000,11.112,,,320,6.4,12.6,,,,,,,,,wg-a,,,,AAXX 03064 07110 02457 83206 10090 20070 30092 40213 55000 60006 86502 90600 333 10126 20064 60004=
07110,1997-04-03 09:00:00,11,1022.5,1.3,87,9,10000,14.816,,,320,,,,,,,,,,,wg-a,,,,AAXX 03094 07110 12460 /3208 10110 20090 30105 40225 51013 60006 86800 90900=
07110,1997-04-03 12:00:00,12,1023.5,1,67,6,10000,25.928,,,330,,,,,,,,,,,wg-a,,,,AAXX 03124 07110 12560 73314 10120 20060 30115 40235 51010 60006 86101 91200=
07110,1997-04-03 15:00:00,12,1023.8,0.3,67,6,10000,18.52,,,340,,,,,,,,,,,wg-a,,,,AAXX 03154 07110 12560 /3410 10120 20060 30118 40238 52003 60006 86500 91500=
07110,1997-04-03 18:00:00,10,1024.5,0.6,82,7,15000,18.52,,,330,8.6,12.6,,,,,,,,,wg-a,,,,AAXX 03184 07110 12465 53310 10100 20070 30124 40245 53006 60006 83101 91800 333 10126 20086=
07110,1997-04-03 21:00:00,9,1026.2,1.6,87,7,15000,14.816,,,330,,,,,,,,,,,wg-a,,,,AAXX 03214 07110 12465 /3308 10090 20070 30140 40262 51016 60006 81101 92100=
07110,1997-04-04 00:00:00,8,1027.4,1.2,93,7,15000,14.816,,,330,,,,,,,,,,,wg-a,,,,AAXX 04004 07110 12/65 43308 10080 20070 30152 40274 53012 60006 80001 90000=
07110,1997-04-04 03:00:00,7,1028,0.5,93,6,15000,3.704,,,350,,,,,,,,,,,wg-a,,,,AAXX 04034 07110 12/65 43502 10070 20060 30157 40280 50005 60006 80001 90300=
07110,1997-04-04 06:00:00,6,1029.9,1.9,93,5,15000,11.112,,,340,5.5,10.3,,,,,,,,,wg-a,,,,AAXX 04064 07110 02465 23406 10060 20050 30176 40299 53019 60006 81501 90600 333 10103 20055 60004=
07110,1997-04-04 09:00:00,10,1031.7,1.9,62,3,15000,14.816,,,10,,,,,,,,,,,wg-a,,,,AAXX 04094 07110 12565 /0108 10100 20030 30195 40317 51019 60006 81100 90900=
07110,1997-04-04 12:00:00,12,1031.7,0.1,50,2,20000,14.816,,,10,,,,,,,,,,,wg-a,,,,AAXX 04124 07110 12/70 20108 10120 20020 30196 40317 51001 60006 80001 91200=
07110,1997-04-04 18:00:00,10,1031.2,-0.2,66,4,20000,11.112,,,340,5.7,13,,,,,,,,,wg-a,,,,AAXX 04184 07110 12770 63406 10100 20040 30190 40312 55002 60006 82532 91800 333 10130 20057=
07110,1997-04-04 21:00:00,8,1031.8,0.5,81,5,20000,0,,,0,,,,,,,,,,,wg-a,,,,AAXX 04214 07110 12770 20000 10080 20050 30195 40318 53005 60006 82500 92100=
07110,1997-04-05 00:00:00,6,1031.1,-0.8,87,4,20000,7.408,,,250,,,,,,,,,,,wg-a,,,,AAXX 05004 07110 12470 32504 10060 20040 30187 40311 56008 60006 83500 90000=
07110,1997-04-05 03:00:00,7,1029.3,-1.7,93,6,20000,7.408,,,250,,,,,,,,,,,wg-a,,,,AAXX 05034 07110 12570 /2504 10070 20060 30170 40293 58017 60006 86500 90300=
07110,1997-04-05 06:00:00,9,1028.8,-0.4,87,7,20000,7.408,,,250,5.6,10.3,,,,,,,,,wg-a,,,,AAXX 05064 07110 02470 72504 10090 20070 30166 40288 55004 60006 875// 90600 333 10103 20056 60004=
07110,1997-04-05 09:00:00,11,1029,0.3,82,8,20000,11.112,,,300,,,,,,,,,,,wg-a,,,,AAXX 05094 07110 12470 73006 10110 20080 30169 40290 50003 60006 875// 90900=
07110,1997-04-05 12:00:00,11,1028.1,-0.9,82,8,20000,14.816,,,300,,,,,,,,,,,wg-a,,,,AAXX 05124 07110 12470 73008 10110 20080 30160 40281 57009 60006 875// 91200=
07110,1997-04-05 15:00:00,11,1027,-1.1,82,8,20000,18.52,,,310,,,,,,,,,,,wg-a,,,,AAXX 05154 07110 12470 83110 10110 20080 30149 40270 58011 60006 875// 91500=
07110,1997-04-05 18:00:00,10,1026.6,-0.4,82,7,10000,14.816,,,330,8.5,11.2,,,,,,,,,wg-a,,,,AAXX 05184 07110 12460 83308 10100 20070 30145 40266 56004 60006 875// 91800 333 10112 20085=
07110,1997-04-05 21:00:00,9,1026.4,-0.2,87,7,10000,11.112,,,310,,,,,,,,,,,wg-a,,,,AAXX 05214 07110 12460 83106 10090 20070 30143 40264 56002 60006 875// 92100=
07110,1997-04-06 00:00:00,9,1026.5,0,87,7,10000,11.112,,,330,,,,,,,,,,,wg-a,,,,AAXX 06004 07110 12460 83306 10090 20070 30143 40265 50000 60006 875// 90000=
07110,1997-04-06 03:00:00,9,1025.7,-0.8,87,7,10000,7.408,,,320,,,,,,,,,,,wg-a,,,,AAXX 06034 07110 12460 83204 10090 20070 30135 40257 56008 60006 875// 90300=
07110,1997-04-06 06:00:00,9,1025.7,0.1,93,8,6000,7.408,,,360,8.9,10.1,,,,,,,,,wg-a,,,,AAXX 06064 07110 02256 83604 10090 20080 30136 40257 53001 60006 877// 90600 333 10101 20089 60004=
07110,1997-04-06 09:00:00,12,1025.9,0.3,82,9,8000,11.112,,,60,,,,,,,,,,,wg-a,,,,AAXX 06094 07110 12458 40606 10120 20090 30139 40259 53003 60006 84100 90900=
07110,1997-04-06 12:00:00,14,1025.7,-0.1,77,10,10000,7.408,,,70,,,,,,,,,,,wg-a,,,,AAXX 06124 07110 12560 70704 10140 20100 30138 40257 58001 60006 875// 91200=
07110,1997-04-06 15:00:00,15,1024.8,-0.9,72,10,12000,11.112,,,60,,,,,,,,,,,wg-a,,,,AAXX 06154 07110 12562 /0606 10150 20100 30129 40248 58009 60006 86500 91500=
07110,1997-04-06 18:00:00,13,1024.2,-0.6,82,10,10000,18.52,,,50,9.1,15.4,,,,,,,,,wg-a,,,,AAXX 06184 07110 12/60 20510 10130 20100 30123 40242 55006 60006 80001 91800 333 10154 20091=
07110,1997-04-06 21:00:00,10,1026.3,1.9,87,8,10000,14.816,,,60,,,,,,,,,,,wg-a,,,,AAXX 06214 07110 12/60 20608 10100 20080 30142 40263 52019 60006 80001 92100=
07110,1997-04-07 00:00:00,8,1026.5,0.1,87,6,10000,11.112,,,70,,,,,,,,,,,wg-a,,,,AAXX 07004 07110 12/60 00706 10080 20060 30143 40265 53001 60006 80000 90000=
07110,1997-04-07 03:00:00,6,1026.2,-0.4,93,5,10000,7.408,,,60,,,,,,,,,,,wg-a,,,,AAXX 07034 07110 12/60 00604 10060 20050 30139 40262 56004 60006 80000 90300=
07110,1997-04-07 06:00:00,6,1026.8,0.6,70,1,10000,7.408,,,90,5.2,13.4,,,,,,,,,wg-a,,,,AAXX 07064 07110 02660 30904 10060 20010 30145 40268 53006 60006 81501 90600 333 10134 20052 60004=
07110,1997-04-07 12:00:00,16,1024.8,-1.2,36,1,25000,18.52,,,80,,,,,,,,,,,wg-a,,,,AAXX 07124 07110 12/75 30810 10160 20010 30129 40248 58012 60006 80001 91200=
07110,1997-04-07 15:00:00,14,1023.6,-1.2,51,4,25000,29.632,,,30,,,,,,,,,,,wg-a,,,,AAXX 07154 07110 12/75 20316 10140 20040 30117 40236 56012 60006 80001 91500=
07110,1997-04-07 18:00:00,13,1023.1,-0.6,51,3,15000,18.52,,,60,5.9,17.2,,,,,,,,,wg-a,,,,AAXX 07184 07110 12/65 20610 10130 20030 30111 40231 56006 60006 80001 91800 333 10172 20059=
07110,1997-04-07 21:00:00,8,1023.9,0.6,76,4,15000,14.816,,,50,,,,,,,,,,,wg-a,,,,AAXX 07214 07110 12/65 20508 10080 20040 30117 40239 51006 60006 80001 92100=
07110,1997-04-08 00:00:00,6,1023.8,-0.2,87,4,20000,14.816,,,60,,,,,,,,,,,wg-a,,,,AAXX 08004 07110 12/70 20608 10060 20040 30115 40238 56002 60006 80001 90000=
07110,1997-04-08 03:00:00,6,1022.7,-1.1,61,-1,20000,3.704,,,340,,,,,,,,,,,wg-a,,,,AAXX 08034 07110 12/70 33402 10060 21010 30104 40227 56011 60006 80001 90300=
07110,1997-04-08 06:00:00,4,1022.6,-0.2,70,-1,20000,11.112,,,60,3.1,13,,,,,,,,,wg-a,,,,AAXX 08064 07110 02/70 30606 10040 21010 30102 40226 55002 60006 80001 90600 333 10130 20031 60004=
07110,1997-04-08 09:00:00,12,1021.8,-0.4,44,0,20000,11.112,,,90,,,,,,,,,,,wg-a,,,,AAXX 08094 07110 12/70 40906 10120 20000 30098 40218 58004 60006 80001 90900=
07110,1997-04-08 12:00:00,18,1021.2,-0.3,37,3,20000,14.816,,,130,,,,,,,,,,,wg-a,,,,AAXX 08124 07110 12/70 41308 10180 20030 30095 40212 58003 60006 80001 91200=
07110,1997-04-08 15:00:00,21,1020.5,-0.6,38,6,20000,7.408,,,130,,,,,,,,,,,wg-a,,,,AAXX 08154 07110 12/70 31304 10210 20060 30089 40205 58006 60006 80001 91500=
07110,1997-04-08 18:00:00,18,1021.3,0.7,49,7,20000,7.408,,,310,3.5,21.1,,,,,,,,,wg-a,,,,AAXX 08184 07110 12/70 33104 10180 20070 30096 40213 53007 60006 80001 91800 333 10211 20035=
07110,1997-04-08 21:00:00,12,1023,1.4,76,8,15000,3.704,,,100,,,,,,,,,,,wg-a,,,,AAXX 08214 07110 12/65 11002 10120 20080 30110 40230 51014 60006 80001 92100=
07110,1997-04-09 00:00:00,13,1023.4,0.4,62,6,20000,7.408,,,100,,,,,,,,,,,wg-a,,,,AAXX 09004 07110 12/70 01004 10130 20060 30114 40234 51004 60006 80000 90000=
07110,1997-04-09 03:00:00,13,1023.4,-0,58,5,20000,11.112,,,110,,,,,,,,,,,wg-a,,,,AAXX 09034 07110 12/70 01106 10130 20050 30114 40234 54000 60006 80000 90300=
07110,1997-04-09 06:00:00,11,1024.3,0.9,62,4,20000,11.112,,,140,10.8,18.2,,,,,,,,,wg-a,,,,AAXX 09064 07110 02/70 61406 10110 20040 30123 40243 53009 60006 81034 90600 333 10182 20108 60004=
07110,1997-04-09 09:00:00,18,1025.9,1.8,52,8,20000,7.408,,,120,,,,,,,,,,,wg-a,,,,AAXX 09094 07110 12/70 61204 10180 20080 30141 40259 52018 60006 80002 90900=
07110,1997-04-09 12:00:00,23,1026,0.3,33,6,20000,7.408,,,130,,,,,,,,,,,wg-a,,,,AAXX 09124 07110 12/70 51304 10230 20060 30144 40260 50003 60006 80002 91200=
07110,1997-04-09 15:00:00,23,1025.9,-0.1,38,8,25000,14.816,,,30,,,,,,,,,,,wg-a,,,,AAXX 09154 07110 12675 40308 10230 20080 30143 40259 58001 60006 81102 91500=
07110,1997-04-09 18:00:00,18,1027.8,1.7,68,12,12000,11.112,,,330,11.4,24,,,,,,,,,wg-a,,,,AAXX 09184 07110 12/62 53306 10180 20120 30160 40278 53017 60006 80002 91800 333 10240 20114=
07110,1997-04-09 21:00:00,12,1029.8,1.7,76,8,15000,3.704,,,320,,,,,,,,,,,wg-a,,,,AAXX 09214 07110 12/65 23202 10120 20080 30177 40298 52017 60006 80001 92100=
07110,1997-04-10 00:00:00,10,1030.6,0.7,87,8,15000,3.704,,,70,,,,,,,,,,,wg-a,,,,AAXX 10004 07110 12/65 00702 10100 20080 30184 40306 52007 60006 80000 90000=
07110,1997-04-10 03:00:00,8,1030.5,-0.1,87,6,15000,11.112,,,30,,,,,,,,,,,wg-a,,,,AAXX 10034 07110 12/65 00306 10080 20060 30183 40305 58001 60006 80000 90300=
07110,1997-04-10 06:00:00,8,1030.6,-0,76,4,12000,7.408,,,50,7.4,17.8,,,,,,,,,wg-a,,,,AAXX 10064 07110 02/62 20504 10080 20040 30183 40306 55000 60006 80002 90600 333 10178 20074 60004=
07110,1997-04-10 09:00:00,15,1031.3,1,44,3,10000,11.112,,,60,,,,,,,,,,,wg-a,,,,AAXX 10094 07110 12/60 20606 10150 20030 30193 40313 51010 60006 80002 90900=
07110,1997-04-10 12:00:00,21,1030.9,-0.1,33,4,12000,11.112,,,20,,,,,,,,,,,wg-a,,,,AAXX 10124 07110 12/62 20206 10210 20040 30192 40309 58001 60006 80002 91200=
07110,1997-04-10 15:00:00,21,1030.1,-0.8,30,3,15000,14.816,,,20,,,,,,,,,,,wg-a,,,,AAXX 10154 07110 12/65 10208 10210 20030 30184 40301 56008 60006 80002 91500=
07110,1997-04-10 18:00:00,16,1030.5,0.2,59,8,12000,11.112,,,10,7.6,21.2,,,,,,,,,wg-a,,,,AAXX 10184 07110 12/62 10106 10160 20080 30186 40305 53002 60006 80002 91800 333 10212 20076=
07110,1997-04-10 21:00:00,9,1031.8,1,87,7,10000,7.408,,,30,,,,,,,,,,,wg-a,,,,AAXX 10214 07110 12/60 00304 10090 20070 30196 40318 53010 60006 80000 92100=
07110,1997-04-11 00:00:00,8,1031.4,-0.5,87,6,9000,3.704,,,10,,,,,,,,,,,wg-a,,,,AAXX 11004 07110 12/59 00102 10080 20060 30191 40314 58005 60006 80000 90000=
07110,1997-04-11 03:00:00,6,1030.8,-0.7,100,6,100,7.408,,,10,,,,,,,,,,46,wg-a,,,,AAXX 11034 07110 12001 80104 10060 20060 30184 40308 56007 60006 74641 886// 90300=
07110,1997-04-11 06:00:00,5,1030.4,-0.4,100,5,1500,11.112,,,10,4.1,15.8,,,,,,,,10,wg-a,,,,AAXX 11064 07110 02/15 /0106 10050 20050 30180 40304 55004 60006 71041 80000 90600 333 10158 20041 60004=
07110,1997-04-11 09:00:00,12,1030,-0.1,82,9,500,11.112,,,350,,,,,,,,,,1,wg-a,,,,AAXX 11094 07110 12/00 03506 10120 20090 30179 40300 58001 60006 70140 80000 90900=
07110,1997-04-11 12:00:00,15,1029,-0.8,59,7,20000,14.816,,,360,,,,,,,,,,2,wg-a,,,,AAXX 11124 07110 12/70 03608 10150 20070 30171 40290 58008 60006 70240 80000 91200=
07110,1997-04-11 15:00:00,14,1027.9,-1.2,67,8,15000,25.928,,,10,,,,,,,,,,,wg-a,,,,AAXX 11154 07110 12/65 00114 10140 20080 30159 40279 57012 60006 80000 91500=
07110,1997-04-11 18:00:00,12,1027.7,-0.3,76,8,15000,14.816,,,20,5.4,15.9,,,,,,,,,wg-a,,,,AAXX 11184 07110 12/65 00208 10120 20080 30156 40277 55003 60006 80000 91800 333 10159 20054=
07110,1997-04-11 21:00:00,8,1028.8,1,93,7,12000,11.112,,,30,,,,,,,,,,,wg-a,,,,AAXX 11214 07110 12/62 00306 10080 20070 30166 40288 53010 60006 80000 92100=
07110,1997-04-12 00:00:00,8,1029,0.2,93,7,10000,11.112,,,60,,,,,,,,,,,wg-a,,,,AAXX 12004 07110 12/60 00606 10080 20070 30168 40290 51002 60006 80000 90000=
07110,1997-04-12 03:00:00,6,1029.3,0.2,93,5,10000,7.408,,,40,,,,,,,,,,,wg-a,,,,AAXX 12034 07110 12/60 00404 10060 20050 30170 40293 51002 60006 80000 90300=
07110,1997-04-12 06:00:00,5,1030.5,1.1,87,3,10000,11.112,,,50,5.2,11.7,,,,,,,,,wg-a,,,,AAXX 12064 07110 02/60 10506 10050 20030 30181 40305 52011 60006 80001 90600 333 10117 20052 60004=
07110,1997-04-12 09:00:00,8,1030.8,0.4,66,2,15000,18.52,,,80,,,,0,,,,,,,wg-a,,,,AAXX 12094 07110 12/65 20810 10080 20020 30185 40308 51004 60007 80001 90900=
07110,1997-04-12 12:00:00,12,1029.8,-0.8,50,2,15000,18.52,,,40,,,,,,,,,,,wg-a,,,,AAXX 12124 07110 12565 40410 10120 20020 30177 40298 58008 60006 81101 91200=
07110,1997-04-12 15:00:00,12,1029,-0.8,54,3,15000,22.224,,,40,,,,,,,,,,,wg-a,,,,AAXX 12154 07110 12/65 30412 10120 20030 30169 40290 58008 60006 80001 91500=
07110,1997-04-12 18:00:00,9,1029.1,-0,61,2,15000,18.52,,,40,5.1,12,,,,,,,,,wg-a,,,,AAXX 12184 07110 12/65 30410 10090 20020 30169 40291 55000 60006 80001 91800 333 10120 20051=
07110,1997-04-12 21:00:00,5,1029.7,0.4,87,3,15000,7.408,,,40,,,,,,,,,,,wg-a,,,,AAXX 12214 07110 12/65 00404 10050 20030 30173 40297 51004 60006 80000 92100=
07110,1997-04-13 00:00:00,5,1029.4,-0.3,87,3,15000,14.816,,,50,,,,,,,,,,,wg-a,,,,AAXX 13004 07110 12/65 00508 10050 20030 30170 40294 58003 60006 80000 90000=
07110,1997-04-13 03:00:00,4,1028.8,-0.6,87,2,15000,14.816,,,50,,,,,,,,,,,wg-a,,,,AAXX 13034 07110 12/65 00508 10040 20020 30164 40288 56006 60006 80000 90300=
07110,1997-04-13 06:00:00,3,1028.9,-0,87,1,20000,7.408,,,70,2.7,8.6,,,,,,,,,wg-a,,,,AAXX 13064 07110 02/70 00704 10030 20010 30164 40289 55000 60006 80000 90600 333 10086 20027 60004=
07110,1997-04-13 09:00:00,10,1029.1,0.5,66,4,20000,14.816,,,60,,,,,,,,,,,wg-a,,,,AAXX 13094 07110 12/70 00608 10100 20040 30169 40291 50005 60006 80000 90900=
07110,1997-04-13 12:00:00,12,1027.8,-1.2,58,4,20000,18.52,,,60,,,,,,,,,,,wg-a,,,,AAXX 13124 07110 12670 20610 10120 20040 30157 40278 58012 60006 82100 91200=
07110,1997-04-13 15:00:00,13,1026.1,-1.6,47,2,20000,22.224,,,30,,,,,,,,,,,wg-a,,,,AAXX 13154 07110 12/70 00312 10130 20020 30141 40261 56016 60006 80000 91500=
07110,1997-04-13 18:00:00,11,1025.7,-0.5,66,5,15000,18.52,,,30,2.9,13.6,,,,,,,,,wg-a,,,,AAXX 13184 07110 12/65 00310 10110 20050 30136 40257 57005 60006 80000 91800 333 10136 20029=
07110,1997-04-13 21:00:00,7,1026.3,0.4,87,5,15000,7.408,,,50,,,,,,,,,,,wg-a,,,,AAXX 13214 07110 12/65 00504 10070 20050 30140 40263 53004 60006 80000 92100=
07110,1997-04-14 00:00:00,6,1025.9,-0.4,93,5,15000,7.408,,,20,,,,,,,,,,,wg-a,,,,AAXX 14004 07110 12/65 00204 10060 20050 30136 40259 58004 60006 80000 90000=
07110,1997-04-14 03:00:00,5,1025.7,-0.3,93,4,8000,11.112,,,40,,,,,,,,,,,wg-a,,,,AAXX 14034 07110 12/58 00406 10050 20040 30133 40257 55003 60006 80000 90300=
07110,1997-04-14 06:00:00,6,1025.7,0.1,93,5,500,7.408,,,60,4.6,10.8,,,,,,,,,wg-a,,,,AAXX 14064 07110 02/00 00604 10060 20050 30134 40257 53001 60006 80000 90600 333 10108 20046 60004=
07110,1997-04-14 09:00:00,11,1026,0.5,71,6,6000,14.816,,,60,,,,,,,,,,,wg-a,,,,AAXX 14094 07110 12/56 00608 10110 20060 30139 40260 51005 60006 80000 90900=
07110,1997-04-14 12:00:00,15,1025.4,-0.4,55,6,15000,22.224,,,40,,,,,,,,,,,wg-a,,,,AAXX 14124 07110 12/65 /0412 10150 20060 30135 40254 58004 60006 80000 91200=
07110,1997-04-14 15:00:00,16,1024.3,-1.1,51,6,15000,22.224,,,40,,,,,,,,,,,wg-a,,,,AAXX 14154 07110 12565 20412 10160 20060 30124 40243 58011 60006 82801 91500=
07110,1997-04-14 18:00:00,12,1025,0.6,62,5,10000,22.224,,,40,6,16.1,,,,,,,,,wg-a,,,,AAXX 14184 07110 12/60 00412 10120 20050 30130 40250 53006 60006 80000 91800 333 10161 20060=
07110,1997-04-14 21:00:00,8,1026.5,1.3,93,7,7000,11.112,,,30,,,,,,,,,,,wg-a,,,,AAXX 14214 07110 12357 20306 10080 20070 30143 40265 52013 60006 82600 92100=
07110,1997-04-15 00:00:00,7,1026.6,0.1,100,7,3000,7.408,,,50,,,,,,,,,,10,wg-a,,,,AAXX 15004 07110 12330 50504 10070 20070 30144 40266 53001 60006 71011 85600 90000=
07110,1997-04-15 03:00:00,7,1026.5,-0.2,93,6,3000,11.112,,,50,,,,,,,,,,10,wg-a,,,,AAXX 15034 07110 12130 /0506 10070 20060 30142 40265 56002 60006 71011 82600 90300=
07110,1997-04-15 06:00:00,7,1027.5,1,93,6,3000,7.408,,,60,6.3,11.8,,,,,,,,10,wg-a,,,,AAXX 15064 07110 02/30 00604 10070 20060 30152 40275 52010 60006 71011 80000 90600 333 10118 20063 60004=
07110,1997-04-15 09:00:00,12,1028.3,1.1,76,8,10000,18.52,,,80,,,,,,,,,,,wg-a,,,,AAXX 15094 07110 12/60 00810 10120 20080 30163 40283 51011 60006 80000 90900=
07110,1997-04-15 12:00:00,16,1028.2,0,51,6,15000,18.52,,,70,,,,,,,,,,,wg-a,,,,AAXX 15124 07110 12/65 00710 10160 20060 30163 40282 50000 60006 80000 91200=
07110,1997-04-15 15:00:00,15,1027.4,-0.8,63,8,15000,22.224,,,40,,,,,,,,,,,wg-a,,,,AAXX 15154 07110 12/65 00412 10150 20080 30155 40274 57008 60006 80000 91500=
07110,1997-04-15 18:00:00,11,1027.8,0.2,71,6,12000,18.52,,,40,6.7,16.6,,,,,,,,,wg-a,,,,AAXX 15184 07110 12/62 00410 10110 20060 30157 40278 53002 60006 80000 91800 333 10166 20067=
07110,1997-04-15 21:00:00,7,1028.6,0.6,87,5,15000,11.112,,,50,,,,,,,,,,,wg-a,,,,AAXX 15214 07110 12/65 00506 10070 20050 30163 40286 53006 60006 80000 92100=
07110,1997-04-16 00:00:00,6,1028.2,-0.4,81,3,12000,14.816,,,50,,,,,,,,,,,wg-a,,,,AAXX 16004 07110 12/62 00508 10060 20030 30159 40282 56004 60006 80000 90000=
07110,1997-04-16 03:00:00,5,1027.3,-1,87,3,12000,14.816,,,60,,,,,,,,,,,wg-a,,,,AAXX 16034 07110 12/62 00608 10050 20030 30149 40273 58010 60006 80000 90300=
07110,1997-04-16 06:00:00,3,1027.3,-0,87,1,15000,7.408,,,60,3,10.9,,,,,,,,,wg-a,,,,AAXX 16064 07110 02/65 00604 10030 20010 30149 40273 55000 60006 80000 90600 333 10109 20030 60004=
07110,1997-04-16 12:00:00,14,1024.9,-1.7,41,1,15000,22.224,,,70,,,,,,,,,,,wg-a,,,,AAXX 16124 07110 12/65 00712 10140 20010 30129 40249 58017 60006 80000 91200=
07110,1997-04-16 15:00:00,15,1023.1,-1.7,44,3,15000,22.224,,,60,,,,,,,,,,,wg-a,,,,AAXX 16154 07110 12/65 00612 10150 20030 30112 40231 56017 60006 80000 91500=
07110,1997-04-16 18:00:00,12,1021.9,-1.3,58,4,20000,18.52,,,60,3.4,14.7,,,,,,,,,wg-a,,,,AAXX 16184 07110 12/70 00610 10120 20040 30099 40219 56013 60006 80000 91800 333 10147 20034=
07110,1997-04-16 21:00:00,8,1022.3,0.2,81,5,20000,18.52,,,60,,,,,,,,,,,wg-a,,,,AAXX 16214 07110 12/70 00610 10080 20050 30101 40223 53002 60006 80000 92100=
07110,1997-04-17 00:00:00,7,1022,-0.3,87,5,20000,14.816,,,60,,,,,,,,,,,wg-a,,,,AAXX 17004 07110 12/70 00608 10070 20050 30098 40220 57003 60006 80000 90000=
07110,1997-04-17 03:00:00,6,1021.5,-0.6,93,5,20000,7.408,,,70,,,,,,,,,,,wg-a,,,,AAXX 17034 07110 12/70 00704 10060 20050 30092 40215 55006 60006 80000 90300=
07110,1997-04-17 06:00:00,7,1021.6,0.2,81,4,10000,14.816,,,80,5.5,12.4,,,,,,,,,wg-a,,,,AAXX 17064 07110 02460 70808 10070 20040 30094 40216 52002 60006 87500 90600 333 10124 20055 60004=
07110,1997-04-17 09:00:00,9,1021.6,0.1,71,4,10000,25.928,,,60,,,,,,,,,,,wg-a,,,,AAXX 17094 07110 12560 /0614 10090 20040 30095 40216 52001 60006 86500 90900=
07110,1997-04-17 12:00:00,12,1021.1,-0.4,62,5,15000,29.632,,,70,,,,,,,,,,,wg-a,,,,AAXX 17124 07110 12665 /0716 10120 20050 30091 40211 58004 60006 86500 91200=
07110,1997-04-17 15:00:00,12,1020,-1.1,71,7,15000,22.224,,42.596,50,,,,,,,,,,,wg-a,,,,AAXX 17154 07110 12565 /0512 10120 20070 30080 40200 58011 60006 85200 91500 333 91023=
07110,1997-04-17 18:00:00,10,1019.8,-0.2,71,5,15000,25.928,,,40,7,12.4,,,,,,,,,wg-a,,,,AAXX 17184 07110 12565 /0414 10100 20050 30078 40198 55002 60006 81100 91800 333 10124 20070=
07110,1997-04-17 21:00:00,7,1022,2,87,5,15000,14.816,,,40,,,,,,,,,,,wg-a,,,,AAXX 17214 07110 12/65 00408 10070 20050 30098 40220 52020 60006 80000 92100=
07110,1997-04-18 00:00:00,7,1022.7,0.7,81,4,15000,14.816,,,50,,,,,,,,,,,wg-a,,,,AAXX 18004 07110 12/65 00508 10070 20040 30105 40227 50007 60006 80000 90000=
07110,1997-04-18 03:00:00,5,1021.8,-1,93,4,10000,11.112,,,50,,,,,,,,,,,wg-a,,,,AAXX 18034 07110 12/60 00506 10050 20040 30095 40218 58010 60006 80000 90300=
07110,1997-04-18 06:00:00,5,1021.2,-0.6,93,4,500,14.816,,,50,4.6,10.4,,,,,,,,,wg-a,,,,AAXX 18064 07110 02/00 00508 10050 20040 30089 40212 56006 60006 80000 90600 333 10104 20046 60004=
07110,1997-04-18 12:00:00,14,1019.3,-1.6,58,6,11000,25.928,,,40,,,,,,,,,,,wg-a,,,,AAXX 18124 07110 12/61 /0414 10140 20060 30074 40193 58016 60006 91200=
07110,1997-04-18 15:00:00,14,1017.5,-1.8,47,3,15000,25.928,,,40,,,,,,,,,,,wg-a,,,,AAXX 18154 07110 12665 /0414 10140 20030 30056 40175 57018 60006 81200 91500=
07110,1997-04-18 18:00:00,11,1016.8,-0.8,71,6,15000,22.224,,,40,4.7,14.5,,,,,,,,,wg-a,,,,AAXX 18184 07110 12/65 00412 10110 20060 30048 40168 56008 60006 80000 91800 333 10145 20047=
07110,1997-04-18 21:00:00,8,1017.6,0.7,87,6,10000,14.816,,,40,,,,,,,,,,,wg-a,,,,AAXX 18214 07110 12/60 00408 10080 20060 30055 40176 53007 60006 80000 92100=
07110,1997-04-19 00:00:00,6,1017,-0.7,87,4,10000,7.408,,,40,,,,,,,,,,,wg-a,,,,AAXX 19004 07110 12/60 00404 10060 20040 30048 40170 58007 60006 80000 90000=
07110,1997-04-19 03:00:00,6,1015.7,-1.3,87,4,10000,11.112,,,40,,,,,,,,,,,wg-a,,,,AAXX 19034 07110 12/60 /0406 10060 20040 30035 40157 58013 60006 90300=
07110,1997-04-19 06:00:00,5,1015.1,-0.6,93,4,10000,11.112,,,50,5.1,11,,,,,,,,,wg-a,,,,AAXX 19064 07110 02660 /0506 10050 20040 30029 40151 55006 60006 81500 90600 333 10110 20051 60004=
07110,1997-04-19 12:00:00,10,1014.3,-0.7,71,5,15000,18.52,,,60,,,,,,,,,,,wg-a,,,,AAXX 19124 07110 12565 70610 10100 20050 30023 40143 56007 60006 875// 91200=
07110,1997-04-19 18:00:00,9,1013.6,-0,71,4,12000,29.632,,46.3,40,5.3,12.7,,,,,,,,,wg-a,,,,AAXX 19184 07110 12462 40416 10090 20040 30016 40136 55000 60006 84800 91800 333 10127 20053 91025=
07110,1997-04-19 21:00:00,6,1015.8,2,75,2,12000,25.928,,,50,,,,,,,,,,,wg-a,,,,AAXX 19214 07110 12562 30514 10060 20020 30036 40158 53020 60006 83500 92100=
07110,1997-04-20 00:00:00,7,1016.4,0.6,66,1,12000,18.52,,,60,,,,,,,,,,,wg-a,,,,AAXX 20004 07110 12662 30610 10070 20010 30042 40164 53006 60006 83500 90000=
07110,1997-04-20 06:00:00,5,1016.8,0.3,65,-1,12000,22.224,,,50,5.3,8.9,,,,,,,,,wg-a,,,,AAXX 20064 07110 02662 30512 10050 21010 30046 40168 53003 60006 83500 90600 333 10089 20053 60004=
07110,1997-04-20 09:00:00,8,1017.2,0.5,61,1,20000,29.632,,46.3,60,,,,,,,,,,,wg-a,,,,AAXX 20094 07110 12570 70616 10080 20010 30051 40172 51005 60006 875// 90900 333 91025=
07110,1997-04-20 12:00:00,9,1017.1,-0.1,57,1,20000,29.632,,46.3,60,,,,,,,,,,,wg-a,,,,AAXX 20124 07110 12670 /0616 10090 20010 30050 40171 58001 60006 86500 91200 333 91025=
07110,1997-04-20 15:00:00,10,1016.7,-0.3,50,0,20000,29.632,,48.152,60,,,,,,,,,,,wg-a,,,,AAXX 20154 07110 12670 20616 10100 20000 30047 40167 56003 60006 82500 91500 333 91026=
07110,1997-04-20 18:00:00,8,1016.3,-0.5,57,0,20000,25.928,,44.448,40,5.4,10.7,,,,,,,,,wg-a,,,,AAXX 20184 07110 12670 /0414 10080 20000 30042 40163 58005 60006 81501 91800 333 10107 20054 91024=
07110,1997-04-20 21:00:00,5,1018.2,1.8,70,0,11000,14.816,,,50,,,,,,,,,,,wg-a,,,,AAXX 20214 07110 12/61 /0508 10050 20000 30060 40182 51018 60006 92100=
07110,1997-04-21 00:00:00,3,1018.5,0.2,87,1,12000,14.816,,,40,,,,,,,,,,,wg-a,,,,AAXX 21004 07110 12/62 00408 10030 20010 30062 40185 52002 60006 80000 90000=
07110,1997-04-21 03:00:00,1,1018,-0.6,93,0,12000,11.112,,,30,,,,,,,,,,,wg-a,,,,AAXX 21034 07110 12/62 00306 10010 20000 30056 40180 56006 60006 80000 90300=
07110,1997-04-21 06:00:00,2,1017.9,-0.1,93,1,10000,7.408,,,50,1.1,8.1,,,,,,,,,wg-a,,,,AAXX 21064 07110 02660 /0504 10020 20010 30055 40179 55001 60006 81500 90600 333 10081 20011 60004=
07110,1997-04-21 09:00:00,8,1017.8,0.2,61,1,20000,14.816,,,50,,,,,,,,,,,wg-a,,,,AAXX 21094 07110 12670 /0508 10080 20010 30057 40178 51002 60006 86500 90900=
07110,1997-04-21 12:00:00,10,1017.2,-0.5,53,1,20000,22.224,,,20,,,,,,,,,,,wg-a,,,,AAXX 21124 07110 12670 /0212 10100 20010 30052 40172 58005 60006 86500 91200=
07110,1997-04-21 15:00:00,9,1016.5,-0.7,53,0,20000,22.224,,,30,,,,,,,,,,,wg-a,,,,AAXX 21154 07110 12670 40312 10090 20000 30045 40165 58007 60006 84500 91500=
07110,1997-04-21 18:00:00,8,1016.4,-0.2,57,0,20000,14.816,,,20,1.9,10.4,,,,,,,,,wg-a,,,,AAXX 21184 07110 12/70 00208 10080 20000 30043 40164 56002 60006 80000 91800 333 10104 20019=
07110,1997-04-21 21:00:00,4,1017.1,0.5,75,0,15000,7.408,,,360,,,,,,,,,,,wg-a,,,,AAXX 21214 07110 12/65 03604 10040 20000 30048 40171 50005 60006 80000 92100=
07110,1997-04-22 00:00:00,4,1016.7,-0.4,81,1,15000,3.704,,,10,,,,,,,,,,,wg-a,,,,AAXX 22004 07110 12/65 00102 10040 20010 30044 40167 58004 60006 80000 90000=
07110,1997-04-22 03:00:00,3,1016.5,-0.2,93,2,10000,3.704,,,360,,,,,,,,,,,wg-a,,,,AAXX 22034 07110 12460 33602 10030 20020 30042 40165 57002 60006 83500 90300=
07110,1997-04-22 06:00:00,3,1016.9,0.4,100,3,8000,7.408,,,350,1.8,7.7,,,,,,,,11,wg-a,,,,AAXX 22064 07110 02/58 03504 10030 20030 30046 40169 53004 60006 71100 80000 90600 333 10077 20018 60004=
07110,1997-04-22 09:00:00,11,1017.4,0.8,71,6,10000,7.408,,,30,,,,,,,,,,,wg-a,,,,AAXX 22094 07110 12460 /0304 10110 20060 30054 40174 51008 60006 81100 90900=
07110,1997-04-22 12:00:00,13,1017,-0.3,51,3,15000,11.112,,,70,,,,,,,,,,,wg-a,,,,AAXX 22124 07110 12565 /0706 10130 20030 30051 40170 58003 60006 86800 91200=
07110,1997-04-22 15:00:00,12,1016.5,-0.5,62,5,15000,14.816,,,30,,,,,,,,,,,wg-a,,,,AAXX 22154 07110 12765 70308 10120 20050 30046 40165 58005 60006 878// 91500=
07110,1997-04-22 18:00:00,11,1017.2,0.6,71,6,15000,14.816,,,20,3.2,13.5,,,,,,,,,wg-a,,,,AAXX 22184 07110 12565 70208 10110 20060 30052 40172 53006 60006 878// 91800 333 10135 20032=
07110,1997-04-22 21:00:00,8,1018.3,1,81,5,8000,7.408,,,20,,,,,,,,,,,wg-a,,,,AAXX 22214 07110 12658 /0204 10080 20050 30062 40183 53010 60006 81530 92100=
07110,1997-04-23 00:00:00,6,1018.9,0.5,81,3,500,7.408,,,50,,,,,,,,,,,wg-a,,,,AAXX 23004 07110 12800 20504 10060 20030 30067 40189 51005 60006 82030 90000=
07110,1997-04-23 03:00:00,5,1018.6,-0.4,87,3,8000,0,,,0,,,,,,,,,,,wg-a,,,,AAXX 23034 07110 12858 20000 10050 20030 30063 40186 56004 60006 82030 90300=
07110,1997-04-23 06:00:00,4,1018.9,0.3,87,2,10000,3.704,,,160,3.2,11.3,,,,,,,,,wg-a,,,,AAXX 23064 07110 02760 21602 10040 20020 30066 40189 53003 60006 82500 90600 333 10113 20032 60004=
07110,1997-04-23 09:00:00,12,1019.3,0.7,58,4,20000,11.112,,,160,,,,,,,,,,,wg-a,,,,AAXX 23094 07110 12770 41606 10120 20040 30073 40193 51007 60006 84500 90900=
07110,1997-04-23 12:00:00,15,1019.5,0.3,39,1,20000,11.112,,,190,,,,,,,,,,,wg-a,,,,AAXX 23124 07110 12570 31906 10150 20010 30076 40195 50003 60006 83200 91200=
07110,1997-04-23 15:00:00,14,1019.4,-0.1,44,2,15000,18.52,,,230,,,,,,,,,,,wg-a,,,,AAXX 23154 07110 12665 42310 10140 20020 30075 40194 57001 60006 84200 91500=
07110,1997-04-23 18:00:00,13,1019.6,0.2,54,4,15000,14.816,,,220,3.7,15.4,,,,,,,,,wg-a,,,,AAXX 23184 07110 12665 22208 10130 20040 30077 40196 52002 60006 81101 91800 333 10154 20037=
07110,1997-04-23 21:00:00,9,1020.7,0.9,87,7,15000,3.704,,,160,,,,,,,,,,,wg-a,,,,AAXX 23214 07110 12/65 01602 10090 20070 30086 40207 53009 60006 80000 92100=
07110,1997-04-24 00:00:00,7,1020.5,-0.3,93,6,10000,7.408,,,150,,,,,,,,,,,wg-a,,,,AAXX 24004 07110 12/60 01504 10070 20060 30083 40205 58003 60006 80000 90000=
07110,1997-04-24 03:00:00,6,1019.6,-0.9,93,5,10000,11.112,,,140,,,,,,,,,,,wg-a,,,,AAXX 24034 07110 12/60 01406 10060 20050 30074 40196 57009 60006 80000 90300=
07110,1997-04-24 06:00:00,6,1019.5,-0.1,100,6,8000,11.112,,,150,5.4,13,,,,,,,,,wg-a,,,,AAXX 24064 07110 02/58 21506 10060 20060 30073 40195 55001 60006 80001 90600 333 10130 20054 60004=
07110,1997-04-24 12:00:00,14,1018.8,-0.4,58,6,15000,25.928,,,190,,,,,,,,,,,wg-a,,,,AAXX 24124 07110 12665 61914 10140 20060 30069 40188 56004 60006 82131 91200=
07110,1997-04-24 18:00:00,12,1017.5,-0.6,67,6,15000,18.52,,,220,6.4,14.5,,,,,,,,,wg-a,,,,AAXX 24184 07110 12665 /2210 10120 20060 30056 40175 55006 60006 83101 91800 333 10145 20064=
07110,1997-04-24 21:00:00,9,1018.2,0.5,87,7,10000,7.408,,,170,,,,,,,,,,,wg-a,,,,AAXX 24214 07110 12560 /1704 10090 20070 30061 40182 53005 60006 82502 92100=
07110,1997-04-25 00:00:00,10,1017,-1.1,87,8,8000,14.816,,,180,,,,,,,,,,,wg-a,,,,AAXX 25004 07110 12558 /1808 10100 20080 30050 40170 58011 60006 83532 90000=
07110,1997-04-25 03:00:00,10,1015.9,-1.1,93,9,6000,14.816,,,180,,,,,,,,,,21,wg-a,,,,AAXX 25034 07110 02556 71808 10100 20090 30039 40159 56011 61000 72162 8457/ 90300 333 ////=
07110,1997-04-25 06:00:00,11,1015.1,-0.7,94,10,1200,25.928,,,190,9.1,12.2,,,,,,,,10,wg-a,,,,AAXX 25064 07110 02112 81914 10110 20100 30032 40151 55007 61000 71065 877// 90600 333 10122 20091 6003=
07110,1997-04-25 09:00:00,12,1015.4,0.3,100,12,1500,14.816,,,260,,,,6,,,,,,28,wg-a,,,,AAXX 25094 07110 12115 82608 10120 20120 30035 40154 53003 60067 72864 887// 90900=
07110,1997-04-25 12:00:00,14,1015.9,0.6,82,11,15000,18.52,,,270,,,,,,,,,,1,wg-a,,,,AAXX 25124 07110 12465 72710 10140 20110 30041 40159 51006 60066 70164 86201 91200=
07110,1997-04-25 18:00:00,13,1016.4,0.1,72,8,25000,11.112,,,260,10.9,14.6,,,,,,,,,wg-a,,,,AAXX 25184 07110 32575 72606 10130 20080 30045 40164 53001 85801 91800 333 10146 20109=
07110,1997-04-25 21:00:00,11,1016.8,0.3,94,10,25000,11.112,,,220,,,,,,,,,,,wg-a,,,,AAXX 25214 07110 12375 52206 10110 20100 30048 40168 53003 60006 8/500 92100=
07110,1997-04-26 00:00:00,11,1015.1,-1.6,100,11,15000,18.52,,,190,,,,,,,,,,,wg-a,,,,AAXX 26004 07110 12265 71910 10110 20110 30032 40151 56016 60006 875// 90000=
07110,1997-04-26 06:00:00,11,1008.9,-3.5,100,11,4000,22.224,,,170,10.8,12.6,,,,,,,,61,wg-a,,,,AAXX 26064 07110 02240 81712 10110 20110 39971 40089 56035 61000 76162 887// 90600 333 10126 20108 6010=
07110,1997-04-26 09:00:00,13,1008.4,-0.5,94,12,10000,22.224,,,250,,,,7,,,,,,1,wg-a,,,,AAXX 26094 07110 12460 72512 10130 20120 39966 40084 55005 60077 70162 875// 90900=
07110,1997-04-26 12:00:00,13,1008.2,-0.2,88,11,20000,25.928,,,240,,,,,,,,,,3,wg-a,,,,AAXX 26124 07110 12470 /2414 10130 20110 39964 40082 58002 60076 70362 86200 91200=
07110,1997-04-26 15:00:00,12,1006.7,-1.5,94,11,500,29.632,,,220,,,,0,,,,,,60,wg-a,,,,AAXX 26154 07110 12400 82216 10120 20110 39949 40067 58015 60007 76062 888// 91500=
07110,1997-04-26 18:00:00,12,1006.4,-0.3,94,11,12000,22.224,,,260,11.2,14.1,,,,,,,,25,wg-a,,,,AAXX 26184 07110 02462 72612 10120 20110 39946 40064 56003 61000 72586 85801 91800 333 10141 20112 6001=
07110,1997-04-26 21:00:00,11,1008.1,1.7,94,10,15000,11.112,,,260,,,,,,,,,,21,wg-a,,,,AAXX 26214 07110 02365 72606 10110 20100 39963 40081 52017 61000 72162 878// 92100 333 ////=
07110,1997-04-27 00:00:00,11,1008.8,0.6,94,10,15000,18.52,,,270,,,,0,,,,,,3,wg-a,,,,AAXX 27004 07110 02365 62710 10110 20100 39969 40088 53006 60006 70386 86200 90000 333 60007=
07110,1997-04-27 03:00:00,11,1009.6,0.8,94,10,15000,14.816,,,280,,,,,,,,,,,wg-a,,,,AAXX 27034 07110 12365 72808 10110 20100 39977 40096 53008 60006 876// 90300=
07110,1997-04-27 06:00:00,11,1011.8,2.2,94,10,8000,14.816,,,290,10.8,12.2,,,,,9,,,,wg-a,,,,AAXX 27064 07110 02/58 /2908 10110 20100 39999 40118 53022 60006 90600 333 10122 20108 60094=
07110,1997-04-27 09:00:00,12,1013.7,1.9,94,11,11000,18.52,,,270,,,,,,,,,,,wg-a,,,,AAXX 27094 07110 32/61 /2710 10120 20110 30018 40137 51019 90900=
07110,1997-04-27 12:00:00,14,1014.4,0.8,77,10,10000,14.816,,,250,,,,,,,,,,3,wg-a,,,,AAXX 27124 07110 02460 72508 10140 20100 30026 40144 51008 61000 70362 875// 91200 333 6100=
07110,1997-04-27 18:00:00,13,1014.9,0.2,94,12,500,14.816,,,230,10.9,14,,,,,,,,51,wg-a,,,,AAXX 27184 07110 02105 82308 10130 20120 30030 40149 53002 61000 75165 887// 91800 333 10140 20109 6000=
07110,1997-04-27 21:00:00,13,1015,0.2,100,13,700,22.224,,,250,,,,,,,,,,50,wg-a,,,,AAXX 27214 07110 02107 82512 10130 20130 30032 40150 51002 61000 75055 887// 92100 333 ////=
07110,1997-04-28 00:00:00,12,1015.9,0.8,100,12,2000,22.224,,,260,,,,0,,,,,,50,wg-a,,,,AAXX 28004 07110 02120 82612 10120 20120 30040 40159 53008 60006 75055 887// 90000 333 60007=
07110,1997-04-28 03:00:00,12,1015.8,-0.1,100,12,7000,22.224,,,260,,,,0,,,,,,20,wg-a,,,,AAXX 28034 07110 12357 82612 10120 20120 30039 40158 55001 60007 72052 887// 90300=
07110,1997-04-28 06:00:00,12,1016.5,0.7,100,12,7000,22.224,,,270,12.2,12.9,,,,,1,,,3,wg-a,,,,AAXX 28064 07110 02257 82712 10120 20120 30046 40165 53007 60006 70352 877// 90600 333 10129 20122 60014=
07110,1997-04-28 09:00:00,14,1016.7,0.3,88,12,8000,25.928,,,260,,,,,,,,,,,wg-a,,,,AAXX 28094 07110 12458 72614 10140 20120 30049 40167 52003 60006 875// 90900=
07110,1997-04-28 12:00:00,13,1017.7,0.9,88,11,8000,31.484,,,270,,,,,,,,,,,wg-a,,,,AAXX 28124 07110 12458 72717 10130 20110 30058 40177 52009 60006 875// 91200=
07110,1997-04-28 15:00:00,14,1017.4,-0.2,82,11,10000,31.484,,,270,,,,,,,,,,,wg-a,,,,AAXX 28154 07110 12460 62717 10140 20110 30056 40174 58002 60006 86500 91500=
07110,1997-04-28 18:00:00,13,1017.9,0.4,82,10,10000,25.928,,,270,12.4,14.5,,,,,,,,,wg-a,,,,AAXX 28184 07110 12460 62714 10130 20100 30060 40179 52004 60006 86800 91800 333 10145 20124=
07110,1997-04-28 21:00:00,11,1019.1,1.1,94,10,9000,18.52,,,270,,,,,,,,,,,wg-a,,,,AAXX 28214 07110 12459 72710 10110 20100 30071 40191 51011 60006 875// 92100=
07110,1997-04-29 03:00:00,11,1019.3,-0.1,87,9,10000,25.928,,,290,,,,,,,,,,,wg-a,,,,AAXX 29034 07110 12360 72914 10110 20090 30073 40193 58001 60006 876// 90300=
07110,1997-04-29 06:00:00,11,1021.1,1.8,87,9,10000,18.52,,,300,10.2,12.7,,,,,,,,,wg-a,,,,AAXX 29064 07110 02360 73010 10110 20090 30091 40211 52018 60006 871// 90600 333 10127 20102 60004=
07110,1997-04-29 09:00:00,13,1022.7,1.6,82,10,15000,18.52,,,300,,,,,,,,,,,wg-a,,,,AAXX 29094 07110 12465 53010 10130 20100 30107 40227 52016 60006 85800 90900=
07110,1997-04-29 12:00:00,14,1023,0.4,67,8,15000,22.224,,,320,,,,,,,,,,,wg-a,,,,AAXX 29124 07110 12565 /3212 10140 20080 30111 40230 50004 60006 86800 91200=
07110,1997-04-29 18:00:00,12,1023.7,0.2,76,8,20000,18.52,,,310,10.8,14.2,,,,,,,,,wg-a,,,,AAXX 29184 07110 12570 /3110 10120 20080 30117 40237 52002 60006 85230 91800 333 10142 20108=
07110,1997-04-30 00:00:00,9,1025.3,0.6,93,8,1000,0,,,0,,,,,,,,,,10,wg-a,,,,AAXX 30004 07110 12110 /0000 10090 20080 30131 40253 51006 60006 71011 86600 90000=
07110,1997-04-30 06:00:00,9,1026.3,0.9,100,9,500,0,,,0,8.3,12.2,,,,,,,,1,wg-a,,,,AAXX 30064 07110 02200 60000 10090 20090 30141 40263 53009 60006 70141 85601 90600 333 10122 20083 60004=
07110,1997-04-30 09:00:00,14,1026.7,0.6,77,10,12000,11.112,,,70,,,,,,,,,,,wg-a,,,,AAXX 30094 07110 12462 40706 10140 20100 30147 40267 50006 60006 81201 90900=
07110,1997-04-30 12:00:00,17,1026.6,0.1,55,8,25000,11.112,,,60,,,,,,,,,,,wg-a,,,,AAXX 30124 07110 12575 30606 10170 20080 30148 40266 52001 60006 81101 91200=
07110,1997-04-30 15:00:00,18,1025.7,-0.9,59,10,500,18.52,,,20,,,,,,,,,,,wg-a,,,,AAXX 30154 07110 12500 /0210 10180 20100 30139 40257 56009 60006 81101 91500=
07110,1997-04-30 18:00:00,16,1025.8,-0,63,9,25000,11.112,,,40,9,19,,,,,,,,,wg-a,,,,AAXX 30184 07110 12/75 20406 10160 20090 30139 40258 54000 60006 80001 91800 333 10190 20090=
07110,1997-04-30 21:00:00,12,1027,1,76,8,25000,7.408,,,60,,,,,,,,,,,wg-a,,,,AAXX 30214 07110 12/75 20604 10120 20080 30149 40270 52010 60006 80001 92100=
07110,1997-05-01 00:00:00,11,1027,0,82,8,12000,7.408,,,120,,,,,,,,,,,wg-a,,,,AAXX 01004 07110 12/62 21204 10110 20080 30149 40270 50000 60006 80001 90000=
07110,1997-05-01 06:00:00,12,1026.4,0.4,76,8,12000,14.816,,,110,10.3,16,,,,,,,,,wg-a,,,,AAXX 01064 07110 02/62 21108 10120 20080 30144 40264 53004 60006 80001 90600 333 10160 20103 60004=
07110,1997-05-01 09:00:00,16,1026.4,0.1,59,8,15000,25.928,,,130,,,,,,,,,,,wg-a,,,,AAXX 01094 07110 12/65 01314 10160 20080 30145 40264 50001 60006 80000 90900=
07110,1997-05-01 12:00:00,21,1025.1,-1.1,46,9,20000,18.52,,,120,,,,,,,,,,,wg-a,,,,AAXX 01124 07110 12/70 01210 10210 20090 30134 40251 58011 60006 80000 91200=
07110,1997-05-01 15:00:00,23,1023.6,-1.4,41,9,20000,18.52,,,100,,,,,,,,,,,wg-a,,,,AAXX 01154 07110 12/70 01010 10230 20090 30120 40236 58014 60006 80000 91500=
07110,1997-05-01 18:00:00,22,1022.3,-1.3,43,9,15000,14.816,,,110,11.7,23.4,,,,,,,,,wg-a,,,,AAXX 01184 07110 12/65 01108 10220 20090 30107 40223 56013 60006 80000 91800 333 10234 20117=
07110,1997-05-01 21:00:00,16,1023.2,0.7,63,9,15000,11.112,,,60,,,,,,,,,,,wg-a,,,,AAXX 01214 07110 12/65 00606 10160 20090 30114 40232 53007 60006 80000 92100=
07110,1997-05-02 00:00:00,15,1023,-0.3,63,8,15000,11.112,,,90,,,,,,,,,,,wg-a,,,,AAXX 02004 07110 12/65 00906 10150 20080 30111 40230 58003 60006 80000 90000=
07110,1997-05-02 03:00:00,14,1022.5,-0.5,63,7,15000,14.816,,,120,,,,,,,,,,,wg-a,,,,AAXX 02034 07110 12/65 01208 10140 20070 30106 40225 58005 60006 80000 90300=
07110,1997-05-02 06:00:00,15,1021.7,-0.8,59,7,10000,14.816,,,120,14.1,22,,,,,,,,,wg-a,,,,AAXX 02064 07110 02/60 01208 10150 20070 30098 40217 56008 60006 80000 90600 333 10220 20141 60004=
07110,1997-05-02 09:00:00,20,1020.3,-1.1,43,7,10000,25.928,,,120,,,,,,,,,,,wg-a,,,,AAXX 02094 07110 12/60 01214 10200 20070 30087 40203 58011 60006 80000 90900=
07110,1997-05-02 12:00:00,24,1019.3,-0.9,34,7,12000,22.224,,,130,,,,,,,,,,,wg-a,,,,AAXX 02124 07110 12/62 01312 10240 20070 30078 40193 57009 60006 80000 91200=
07110,1997-05-02 15:00:00,25,1017.9,-1.3,32,7,12000,25.928,,,150,,,,,,,,,,,wg-a,,,,AAXX 02154 07110 12/62 11514 10250 20070 30065 40179 56013 60006 80001 91500=
07110,1997-05-02 18:00:00,24,1017.5,-0.5,31,6,15000,22.224,,,160,14.7,25,,,,,,,,,wg-a,,,,AAXX 02184 07110 12/65 21612 10240 20060 30060 40175 55005 60006 80001 91800 333 10250 20147=
07110,1997-05-02 21:00:00,18,1018.4,0.7,52,8,20000,7.408,,,200,,,,,,,,,,,wg-a,,,,AAXX 02214 07110 12/70 32004 10180 20080 30067 40184 53007 60006 80001 92100=
07110,1997-05-03 00:00:00,14,1018.1,-0.4,77,10,15000,11.112,,,200,,,,,,,,,,,wg-a,,,,AAXX 03004 07110 12/65 32006 10140 20100 30063 40181 58004 60006 80001 90000=
07110,1997-05-03 06:00:00,14,1017.6,0.4,94,13,500,7.408,,,220,13.3,23.5,,,,,,,,21,wg-a,,,,AAXX 03064 07110 02200 82204 10140 20130 30058 40176 53004 61000 72161 8477/ 90600 333 10235 20133 6100=
07110,1997-05-03 09:00:00,15,1018.2,0.6,88,13,8000,14.816,,,220,,,,,,,,,,,wg-a,,,,AAXX 03094 07110 12458 72208 10150 20130 30064 40182 52006 60006 877// 90900=
07110,1997-05-03 12:00:00,15,1018.2,0,94,14,7000,18.52,,,230,,,,,,,,,,,wg-a,,,,AAXX 03124 07110 12257 82310 10150 20140 30064 40182 50000 60006 877// 91200=
07110,1997-05-03 15:00:00,17,1016.9,-1.2,77,13,15000,22.224,,,210,,,,,,,,,,,wg-a,,,,AAXX 03154 07110 12465 42112 10170 20130 30052 40169 58012 60006 84800 91500=
07110,1997-05-03 18:00:00,14,1015.9,-1.1,94,13,12000,25.928,,,200,14.1,18.4,,,,,,,,,wg-a,,,,AAXX 03184 07110 12362 72014 10140 20130 30041 40159 56011 60006 875// 91800 333 10184 20141=
07110,1997-05-04 00:00:00,14,1012.9,-1.9,100,14,4000,29.632,,,200,,,,1,,,,,,51,wg-a,,,,AAXX 04004 07110 02140 82016 10140 20140 30011 40129 58019 60016 75165 887// 90000 333 60017=
07110,1997-05-04 03:00:00,14,1009.6,-3.2,94,13,8000,29.632,,50.004,200,,,,1,,,,,,21,wg-a,,,,AAXX 04034 07110 12358 82016 10140 20130 39979 40096 58032 60017 72165 887// 90300 333 91027=
07110,1997-05-04 06:00:00,14,1007.6,-2,94,13,3000,31.484,,,200,13.6,14.3,,,,,,,,61,wg-a,,,,AAXX 04064 07110 02130 82017 10140 20130 39959 40076 56020 61000 76165 887// 90600 333 10143 20136 6008=
07110,1997-05-04 09:00:00,14,1007,-0.6,94,13,12000,25.928,,,230,,,,2,,,,,,1,wg-a,,,,AAXX 04094 07110 12462 /2314 10140 20130 39953 40070 56006 60027 70162 878// 90900=
07110,1997-05-04 12:00:00,15,1006.1,-0.9,82,12,20000,31.484,,,220,,,,,,,,,,1,wg-a,,,,AAXX 04124 07110 12570 72217 10150 20120 39944 40061 58009 60026 70162 878// 91200=
07110,1997-05-04 15:00:00,15,1003.6,-2.4,88,13,20000,31.484,,,210,,,,,,,,,,,wg-a,,,,AAXX 04154 07110 12470 72117 10150 20130 39920 40036 58024 60006 878// 91500=
07110,1997-05-04 18:00:00,14,1001.3,-2.4,88,12,8000,29.632,,,200,13.3,15.5,,,,,,,,,wg-a,,,,AAXX 04184 07110 12358 82016 10140 20120 39896 40013 56024 60006 888// 91800 333 10155 20133=
07110,1997-05-05 00:00:00,13,996,-2.3,94,12,10000,22.224,,48.152,210,,,,5,,,,,,25,wg-a,,,,AAXX 05004 07110 02360 82112 10130 20120 39844 49960 58023 60066 72586 877// 90000 333 60057 91026=
07110,1997-05-05 03:00:00,12,993.4,-2.6,94,11,10000,22.224,,,220,,,,1,,,,,,25,wg-a,,,,AAXX 05034 07110 12260 82212 10120 20110 39818 49934 56026 60017 72586 877// 90300=
07110,1997-05-05 06:00:00,12,991.9,-1.5,94,11,12000,22.224,,,210,11.8,13.7,,,,,9,,,1,wg-a,,,,AAXX 05064 07110 02462 72112 10120 20110 39803 49919 58015 60006 70186 872// 90600 333 10137 20118 60094=
07110,1997-05-05 09:00:00,13,991,-0.9,88,11,15000,25.928,,,200,,,,,,,,,,,wg-a,,,,AAXX 05094 07110 12465 72014 10130 20110 39794 49910 58009 60006 872// 90900=
07110,1997-05-05 12:00:00,14,990.1,-0.8,88,12,20000,25.928,,,220,,,,,,,,,,1,wg-a,,,,AAXX 05124 07110 02470 72214 10140 20120 39786 49901 56008 61000 70186 86201 91200 333 6100=
07110,1997-05-05 15:00:00,14,991.2,1.1,77,10,20000,22.224,,,270,,,,0,,,,,,1,wg-a,,,,AAXX 05154 07110 12470 72712 10140 20100 39797 49912 51011 60007 70186 878// 91500=
07110,1997-05-05 18:00:00,12,991.8,0.5,76,8,20000,14.816,,,260,12.2,14.9,,,,,,,,2,wg-a,,,,AAXX 05184 07110 12570 52608 10120 20080 39802 49918 50005 60006 70286 84501 91800 333 10149 20122=
07110,1997-05-05 21:00:00,10,992.4,0.5,87,8,12000,11.112,,,270,,,,,,,,,,,wg-a,,,,AAXX 05214 07110 12462 62706 10100 20080 39807 49924 52005 60006 84206 92100=
07110,1997-05-06 00:00:00,9,992.5,-0,93,8,8000,25.928,,44.448,330,,,,0,,,,,,60,wg-a,,,,AAXX 06004 07110 02258 73314 10090 20080 39807 49925 55000 60006 76061 868// 90000 333 60007 91024=
07110,1997-05-06 03:00:00,6,995.2,2.6,93,5,6000,31.484,,55.56,350,,,,1,,,,,,61,wg-a,,,,AAXX 06034 07110 12256 83517 10060 20050 39833 49952 53026 60017 76166 875// 90300 333 91030=
07110,1997-05-06 06:00:00,6,998.4,3.1,81,3,8000,31.484,,,330,5.6,12.5,,,,,,,,21,wg-a,,,,AAXX 06064 07110 02558 /3317 10060 20030 39864 49984 53031 61000 72162 86500 90600 333 10125 20056 6003=
07110,1997-05-06 09:00:00,8,1001.9,3.6,57,0,12000,29.632,,48.152,330,,,,0,,,,,,1,wg-a,,,,AAXX 06094 07110 12562 53316 10080 20000 39900 40019 51036 60007 70186 84502 90900 333 91026=
07110,1997-05-06 12:00:00,9,1004.6,2.7,46,-2,15000,29.632,,,330,,,,,,,,,,3,wg-a,,,,AAXX 06124 07110 12565 /3316 10090 21020 39927 40046 51027 60006 70386 85200 91200=
07110,1997-05-06 15:00:00,9,1005.5,0.9,49,-1,15000,25.928,,,310,,,,,,,,,,,wg-a,,,,AAXX 06154 07110 12665 /3114 10090 21010 39936 40055 51009 60006 85200 91500=
07110,1997-05-06 18:00:00,8,1005.5,-0.1,49,-2,20000,18.52,,,330,6.1,9.6,,,,,,,,,wg-a,,,,AAXX 06184 07110 12670 33310 10080 21020 39935 40055 58001 60006 83801 91800 333 10096 20061=
07110,1997-05-07 00:00:00,3,1005.1,-1,81,0,20000,7.408,,,250,,,,,,,,,,,wg-a,,,,AAXX 07004 07110 12670 22504 10030 20000 39929 40051 56010 60006 82500 90000=
07110,1997-05-07 03:00:00,1,1003.9,-1.3,86,-1,20000,3.704,,,220,,,,,,,,,,,wg-a,,,,AAXX 07034 07110 12670 /2202 10010 21010 39916 40039 56013 60006 81500 90300=
07110,1997-05-07 06:00:00,3,1003.8,-0,87,1,15000,14.816,,,300,0.3,8,,,,,,,,,wg-a,,,,AAXX 07064 07110 02565 63008 10030 20010 39916 40038 55000 60006 85902 90600 333 10080 20003 60004=
07110,1997-05-07 09:00:00,5,1004.9,1.2,87,3,15000,14.816,,,300,,,,2,,,,,,25,wg-a,,,,AAXX 07094 07110 12465 63008 10050 20030 39928 40049 52012 60027 72586 84902 90900=
07110,1997-05-07 12:00:00,8,1006.7,1.9,66,2,20000,22.224,,,330,,,,,,,,,,1,wg-a,,,,AAXX 07124 07110 12570 63312 10080 20020 39947 40067 52019 60026 70186 85802 91200=
07110,1997-05-07 15:00:00,10,1007.6,1,50,0,25000,25.928,,,300,,,,,,,,,,,wg-a,,,,AAXX 07154 07110 12575 53014 10100 20000 39957 40076 52010 60006 85800 91500=
07110,1997-05-07 18:00:00,8,1008.3,0.6,66,2,20000,22.224,,,300,2.6,10.3,,,,,,,,25,wg-a,,,,AAXX 07184 07110 02470 53012 10080 20020 39963 40083 51006 61000 72586 85900 91800 333 10103 20026 6001=
07110,1997-05-07 21:00:00,7,1009,0.6,81,4,15000,11.112,,,300,,,,0,,,,,,25,wg-a,,,,AAXX 07214 07110 12365 /3006 10070 20040 39969 40090 51006 60007 72586 84902 92100=
07110,1997-05-08 00:00:00,8,1007.4,-1.5,81,5,15000,14.816,,,260,,,,1,,,,,,25,wg-a,,,,AAXX 08004 07110 02365 /2608 10080 20050 39954 40074 57015 60016 72586 84902 90000 333 60017=
07110,1997-05-08 03:00:00,8,1005.7,-1.7,87,6,15000,14.816,,,250,,,,,,,,,,,wg-a,,,,AAXX 08034 07110 12565 72508 10080 20060 39937 40057 57017 60006 8355/ 90300=
07110,1997-05-08 06:00:00,7,1004.9,-0.8,93,6,10000,11.112,,,260,6.1,8.8,,,,,,,,25,wg-a,,,,AAXX 08064 07110 02460 82606 10070 20060 39929 40049 56008 61000 72586 8657/ 90600 333 10088 20061 6006=
07110,1997-05-08 09:00:00,10,1003.6,-1.1,87,8,12000,22.224,,46.3,250,,,,0,,,,,,,wg-a,,,,AAXX 08094 07110 12462 72512 10100 20080 39918 40036 57011 60007 8587/ 90900 333 91025=
07110,1997-05-08 12:00:00,12,1002.2,-1.4,88,10,15000,29.632,,,250,,,,2,,,,,,21,wg-a,,,,AAXX 08124 07110 02465 72516 10120 20100 39904 40022 58014 60026 72162 87800 91200 333 60027=
07110,1997-05-08 15:00:00,13,1000.7,-1.4,82,10,15000,31.484,,,250,,,,0,,,,,,2,wg-a,,,,AAXX 08154 07110 12465 72517 10130 20100 39890 40007 56014 60007 70286 87800 91500=
07110,1997-05-08 18:00:00,11,1000.6,-0.2,76,7,15000,25.928,,,270,7.2,13.1,,1,,,,,,1,wg-a,,,,AAXX 08184 07110 02565 62714 10110 20070 39888 40006 55002 60006 70186 86800 91800 333 10131 20072 60017=
07110,1997-05-08 21:00:00,8,1001.4,0.7,87,6,10000,18.52,,,270,,,,1,,,,,,25,wg-a,,,,AAXX 08214 07110 12560 62710 10080 20060 39895 40014 53007 60017 72586 86800 92100=
07110,1997-05-09 00:00:00,7,1001.1,-0.4,87,5,15000,11.112,,,250,,,,2,,,,,,25,wg-a,,,,AAXX 09004 07110 02565 62506 10070 20050 39891 40011 58004 60036 72586 86800 90000 333 60027=
07110,1997-05-09 03:00:00,8,1000.7,-0.3,87,6,10000,14.816,,,260,,,,2,,,,,,25,wg-a,,,,AAXX 09034 07110 12460 52608 10080 20060 39888 40007 55003 60027 72586 85800 90300=
07110,1997-05-09 06:00:00,8,1002,1.3,87,6,10000,11.112,,,260,6.7,10.7,,,,,,,,25,wg-a,,,,AAXX 09064 07110 02460 /2606 10080 20060 39901 40020 53013 61000 72586 86900 90600 333 10107 20067 6009=
07110,1997-05-09 12:00:00,12,1005.4,1.3,71,7,15000,22.224,,,280,,,,0,,,,,,1,wg-a,,,,AAXX 09124 07110 02465 52812 10120 20070 39936 40054 51013 60016 70186 85800 91200 333 60007=
07110,1997-05-09 15:00:00,13,1006.4,1,67,7,20000,25.928,,,250,,,,,,,,,,,wg-a,,,,AAXX 09154 07110 12570 /2514 10130 20070 39946 40064 51010 60006 86800 91500=
07110,1997-05-09 18:00:00,11,1006.4,0,82,8,20000,18.52,,35.188,230,7.9,13.5,,,,,,,,,wg-a,,,,AAXX 09184 07110 12570 /2310 10110 20080 39946 40064 50000 60006 85800 91800 333 10135 20079 91019=
07110,1997-05-09 21:00:00,10,1006.6,0.1,87,8,20000,14.816,,,230,,,,1,,,,,,25,wg-a,,,,AAXX 09214 07110 12470 52308 10100 20080 39947 40066 50001 60017 72586 85800 92100=
07110,1997-05-10 00:00:00,10,1006,-0.6,82,7,15000,18.52,,,210,,,,,,,,,,1,wg-a,,,,AAXX 10004 07110 12565 42110 10100 20070 39941 40060 58006 60016 70186 84800 90000=
07110,1997-05-10 03:00:00,11,1003.5,-2.4,87,9,10000,25.928,,,200,,,,1,,,,,,3,wg-a,,,,AAXX 10034 07110 12460 72014 10110 20090 39917 40035 58024 60017 70386 878// 90300=
07110,1997-05-10 06:00:00,11,1001.9,-1.6,94,10,12000,25.928,,,200,9.1,11.4,,,,,,,,21,wg-a,,,,AAXX 10064 07110 02262 82014 10110 20100 39901 40019 56016 61000 72186 875// 90600 333 10114 20091 6004=
07110,1997-05-10 09:00:00,12,1001.8,-0,88,10,15000,25.928,,,210,,,,0,,,,,,,wg-a,,,,AAXX 10094 07110 12465 72114 10120 20100 39901 40018 55000 60007 878// 90900=
07110,1997-05-10 12:00:00,13,1002.7,0.9,77,9,20000,31.484,,59.264,230,,,,,,,,,,,wg-a,,,,AAXX 10124 07110 12470 72317 10130 20090 39910 40027 52009 60006 878// 91200 333 91032=
07110,1997-05-10 15:00:00,13,1003.3,0.6,67,7,20000,29.632,,50.004,230,,,,,,,,,,,wg-a,,,,AAXX 10154 07110 12570 72316 10130 20070 39916 40033 53006 60006 86802 91500 333 91027=
07110,1997-05-10 18:00:00,12,1003.9,0.5,67,6,20000,22.224,,,220,10.4,13.6,,0,,,,,,2,wg-a,,,,AAXX 10184 07110 02570 72212 10120 20060 39921 40039 53005 60006 70286 86802 91800 333 10136 20104 60007=
07110,1997-05-10 21:00:00,11,1004.8,0.9,76,7,20000,18.52,,,220,,,,,,,,,,,wg-a,,,,AAXX 10214 07110 12570 42210 10110 20070 39930 40048 53009 60006 84200 92100=
07110,1997-05-11 00:00:00,10,1004.5,-0.3,82,7,10000,22.224,,,220,,,,1,,,,,,3,wg-a,,,,AAXX 11004 07110 02460 62212 10100 20070 39927 40045 58003 60016 70386 86800 90000 333 60017=
07110,1997-05-11 03:00:00,10,1003.8,-0.8,71,5,10000,22.224,,,230,,,,,,,,,,,wg-a,,,,AAXX 11034 07110 12560 52312 10100 20050 39919 40038 56008 60006 85800 90300=
07110,1997-05-11 06:00:00,10,1003.5,-0.2,87,8,10000,29.632,,48.152,210,7.7,11.8,,,,,5,,,16,wg-a,,,,AAXX 11064 07110 02460 62116 10100 20080 39917 40035 55002 60006 71686 84902 90600 333 10118 20077 60054 91026=
07110,1997-05-11 09:00:00,12,1004.7,1.2,76,8,20000,31.484,,,220,,,,0,,,,,,,wg-a,,,,AAXX 11094 07110 12570 /2217 10120 20080 39929 40047 51012 60007 86200 90900=
07110,1997-05-11 12:00:00,12,1006,1.3,82,9,11000,29.632,,,210,,,,,,,,,,,wg-a,,,,AAXX 11124 07110 12/61 /2116 10120 20090 39942 40060 51013 60006 91200=
07110,1997-05-11 15:00:00,12,1007.2,1.2,76,8,20000,22.224,,,230,,,,0,,,,,,3,wg-a,,,,AAXX 11154 07110 12570 72312 10120 20080 39954 40072 52012 60007 70386 872// 91500=
07110,1997-05-11 18:00:00,12,1009.4,2.2,76,8,20000,22.224,,,250,9.9,13.6,,0,,,,,,1,wg-a,,,,AAXX 11184 07110 02570 52512 10120 20080 39976 40094 53022 60006 70186 84802 91800 333 10136 20099 60007=
07110,1997-05-11 21:00:00,10,1012.4,2.9,87,8,20000,18.52,,,230,,,,,,,,,,25,wg-a,,,,AAXX 11214 07110 02470 52310 10100 20080 30005 40124 51029 61000 72586 85900 92100 333 ////=
07110,1997-05-12 00:00:00,9,1013.7,1.2,87,7,20000,11.112,,,230,,,,,,,,,,1,wg-a,,,,AAXX 12004 07110 02570 32306 10090 20070 30017 40137 51012 61000 70186 83800 90000 333 ////=
07110,1997-05-12 03:00:00,9,1014.6,0.9,81,6,20000,14.816,,,230,,,,,,,,,,,wg-a,,,,AAXX 12034 07110 12570 32308 10090 20060 30026 40146 53009 60006 83800 90300=
07110,1997-05-12 06:00:00,9,1015.8,1.2,87,7,20000,11.112,,,220,8.5,11.6,,,,,,,,25,wg-a,,,,AAXX 12064 07110 02570 22206 10090 20070 30038 40158 53012 61000 72586 82900 90600 333 10116 20085 6002=
07110,1997-05-12 09:00:00,12,1017.5,1.8,71,7,20000,18.52,,,240,,,,,,,,,,,wg-a,,,,AAXX 12094 07110 12570 42410 10120 20070 30056 40175 51018 60006 84200 90900=
07110,1997-05-12 12:00:00,14,1019.1,1.6,67,8,20000,29.632,,,210,,,,,,,,,,,wg-a,,,,AAXX 12124 07110 12670 42116 10140 20080 30072 40191 51016 60006 84200 91200=
07110,1997-05-12 15:00:00,13,1019.1,0,67,7,11000,25.928,,,220,,,,,,,,,,,wg-a,,,,AAXX 12154 07110 12/61 /2214 10130 20070 30072 40191 50000 60006 91500=
07110,1997-05-12 18:00:00,13,1018.8,-0.3,72,8,20000,22.224,,,220,9,14.2,,,,,,,,,wg-a,,,,AAXX 12184 07110 12570 32212 10130 20080 30069 40188 56003 60006 83200 91800 333 10142 20090=
07110,1997-05-12 21:00:00,11,1019.5,0.6,87,9,20000,11.112,,,180,,,,,,,,,,,wg-a,,,,AAXX 12214 07110 12570 41806 10110 20090 30075 40195 53006 60006 84800 92100=
07110,1997-05-13 00:00:00,10,1019.4,-0.1,87,8,15000,14.816,,,170,,,,,,,,,,,wg-a,,,,AAXX 13004 07110 12465 51708 10100 20080 30074 40194 57001 60006 85800 90000=
07110,1997-05-13 06:00:00,10,1018.3,-0.2,93,9,15000,14.816,,,160,9.2,12.6,,,,,,,,,wg-a,,,,AAXX 13064 07110 02565 71608 10100 20090 30063 40183 55002 60006 83802 90600 333 10126 20092 60004=
07110,1997-05-13 09:00:00,12,1018.8,0.6,82,9,25000,14.816,,,210,,,,,,,,,,25,wg-a,,,,AAXX 13094 07110 02575 /2108 10120 20090 30069 40188 53006 61000 72586 82232 90900 333 ////=
07110,1997-05-13 12:00:00,14,1019.1,0.3,67,8,500,22.224,,,210,,,,,,,,,,3,wg-a,,,,AAXX 13124 07110 02500 62112 10140 20080 30072 40191 50003 61000 70386 85232 91200 333 ////=
07110,1997-05-13 15:00:00,15,1019.1,0.1,63,8,500,18.52,,,210,,,,,,,,,,,wg-a,,,,AAXX 13154 07110 12500 52110 10150 20080 30073 40191 50001 60006 84301 91500=
07110,1997-05-13 18:00:00,14,1019.3,0.1,67,8,500,14.816,,,260,10.3,15.3,,,,,,,,,wg-a,,,,AAXX 13184 07110 12500 32608 10140 20080 30074 40193 53001 60006 83200 91800 333 10153 20103=
07110,1997-05-13 21:00:00,10,1020.7,1.3,87,8,500,3.704,,,230,,,,,,,,,,,wg-a,,,,AAXX 13214 07110 12500 /2302 10100 20080 30087 40207 51013 60006 81200 92100=
07110,1997-05-14 00:00:00,8,1021.4,0.6,93,7,20000,3.704,,,220,,,,,,,,,,,wg-a,,,,AAXX 14004 07110 12470 22202 10080 20070 30093 40214 51006 60006 82500 90000=
07110,1997-05-14 03:00:00,7,1021,-0.5,93,6,20000,3.704,,,130,,,,,,,,,,,wg-a,,,,AAXX 14034 07110 12/70 01302 10070 20060 30088 40210 56005 60006 80000 90300=
07110,1997-05-14 06:00:00,9,1021.5,0.6,93,8,12000,0,,,0,6,13.7,,,,,,,,11,wg-a,,,,AAXX 14064 07110 02462 /0000 10090 20080 30094 40215 53006 60006 71100 81100 90600 333 10137 20060 60004=
07110,1997-05-14 09:00:00,12,1022.1,0.7,82,9,15000,3.704,,,170,,,,,,,,,,,wg-a,,,,AAXX 14094 07110 12465 41702 10120 20090 30101 40221 51007 60006 84100 90900=
07110,1997-05-14 12:00:00,15,1021.3,-0.6,59,7,20000,11.112,,,160,,,,,,,,,,,wg-a,,,,AAXX 14124 07110 12670 41606 10150 20070 30095 40213 58006 60006 84200 91200=
07110,1997-05-14 15:00:00,15,1020.5,-0.8,67,9,15000,11.112,,,310,,,,,,,,,,,wg-a,,,,AAXX 14154 07110 12565 43106 10150 20090 30087 40205 56008 60006 84500 91500=
07110,1997-05-14 18:00:00,14,1020.3,-0.3,72,9,15000,7.408,,,360,8.7,16.7,,,,,,,,,wg-a,,,,AAXX 14184 07110 12565 43604 10140 20090 30084 40203 56003 60006 84800 91800 333 10167 20087=
07110,1997-05-14 21:00:00,10,1020.2,-0.2,93,9,15000,11.112,,,360,,,,,,,,,,,wg-a,,,,AAXX 14214 07110 12665 /3606 10100 20090 30082 40202 56002 60006 81500 92100=
07110,1997-05-15 00:00:00,9,1019,-1.3,93,8,15000,7.408,,,60,,,,,,,,,,,wg-a,,,,AAXX 15004 07110 12/65 00604 10090 20080 30069 40190 58013 60006 80000 90000=
07110,1997-05-15 03:00:00,8,1017.1,-1.9,93,7,15000,3.704,,,130,,,,,,,,,,,wg-a,,,,AAXX 15034 07110 12665 21302 10080 20070 30050 40171 56019 60006 82500 90300=
07110,1997-05-15 06:00:00,10,1016.3,-0.7,100,10,15000,3.704,,,150,7.9,14.1,,,,,,,,,wg-a,,,,AAXX 15064 07110 02665 31502 10100 20100 30043 40163 55007 60006 83500 90600 333 10141 20079 60004=
07110,1997-05-15 09:00:00,17,1015.4,-0.6,72,12,12000,14.816,,,130,,,,,,,,,,,wg-a,,,,AAXX 15094 07110 12762 51308 10170 20120 30037 40154 58006 60006 85500 90900=
07110,1997-05-15 12:00:00,20,1014.3,-1,56,11,20000,7.408,,,100,,,,,,,,,,,wg-a,,,,AAXX 15124 07110 12670 61004 10200 20110 30027 40143 58010 60006 85802 91200=
07110,1997-05-15 15:00:00,18,1013.1,-1.2,77,14,11000,11.112,,,20,,,,,,,,,,,wg-a,,,,AAXX 15154 07110 32/61 /0206 10180 20140 30015 40131 56012 91500=
07110,1997-05-15 18:00:00,19,1012.7,-0.4,68,13,11000,3.704,,,280,10.4,19.9,,,,,,,,,wg-a,,,,AAXX 15184 07110 12/61 /2802 10190 20130 30011 40127 56004 60006 91800 333 10199 20104=
07110,1997-05-15 21:00:00,16,1013.9,1.1,82,13,10000,7.408,,,180,,,,,,,,,,,wg-a,,,,AAXX 15214 07110 12560 71804 10160 20130 30022 40139 53011 60006 86832 92100=
07110,1997-05-16 00:00:00,13,1013,-1,94,12,8000,3.704,,,40,,,,,,,,,,,wg-a,,,,AAXX 16004 07110 12558 50402 10130 20120 30012 40130 57010 60006 83802 90000=
07110,1997-05-16 03:00:00,11,1012.2,-0.9,94,10,8000,3.704,,,30,,,,,,,,,,,wg-a,,,,AAXX 16034 07110 32/58 00302 10110 20100 30003 40122 58009 80000 90300=
07110,1997-05-16 06:00:00,11,1012.1,-0.1,100,11,500,3.704,,,30,10.4,18.9,,,,,,,,,wg-a,,,,AAXX 16064 07110 02/00 70302 10110 20110 30002 40121 55001 60006 82032 90600 333 10189 20104 60004=
07110,1997-05-16 09:00:00,17,1011.2,-0.6,82,14,6000,11.112,,,60,,,,,,,,,,,wg-a,,,,AAXX 16094 07110 12/56 70606 10170 20140 39996 40112 58006 60006 81032 90900=
07110,1997-05-16 12:00:00,21,1010.4,-0.7,64,14,0,14.816,,,110,,,,,,,,,,,wg-a,,,,AAXX 16124 07110 125// 71108 10210 20140 39989 40104 57007 60006 83232 91200=
07110,1997-05-16 15:00:00,19,1010.1,-0.4,68,13,7000,7.408,,,220,,,,1,,,,,,29,wg-a,,,,AAXX 16154 07110 12457 62204 10190 20130 39985 40101 58004 60017 72998 86900 91500=
07110,1997-05-16 18:00:00,18,1010.2,0.1,77,14,10000,11.112,,,70,11.4,20.8,,,,,,,,2,wg-a,,,,AAXX 16184 07110 12560 50706 10180 20140 39986 40102 53001 60006 70298 83801 91800 333 10208 20114=
07110,1997-05-16 21:00:00,15,1010.8,0.5,94,14,8000,3.704,,,80,,,,,,,,,,,wg-a,,,,AAXX 16214 07110 12/58 20802 10150 20140 39991 40108 53005 60006 80001 92100=
07110,1997-05-17 00:00:00,12,1010.8,-0.1,100,12,9000,7.408,,,140,,,,,,,,,,,wg-a,,,,AAXX 17004 07110 12/59 /1404 10120 20120 39990 40108 56001 60006 80001 90000=
07110,1997-05-17 03:00:00,12,1010.3,-0.5,100,12,200,7.408,,,260,,,,,,,,,,45,wg-a,,,,AAXX 17034 07110 32/02 92604 10120 20120 39985 40103 58005 74541 89/// 90300=
07110,1997-05-17 06:00:00,13,1010.2,-0.1,94,12,800,0,,,0,10.9,17.7,,,,,1,,,42,wg-a,,,,AAXX 17064 07110 02108 80000 10130 20120 39984 40102 55001 60006 74241 886// 90600 333 10177 20109 60014=
07110,1997-05-17 09:00:00,13,1010.9,0.7,100,13,1000,0,,,0,,,,,,,,,,10,wg-a,,,,AAXX 17094 07110 12110 80000 10130 20130 39991 40109 53007 60006 71042 886// 90900=
07110,1997-05-17 12:00:00,14,1010.2,-0.6,94,13,3500,11.112,,,290,,,,1,,,,,,10,wg-a,,,,AAXX 17124 07110 02335 82906 10140 20130 39985 40102 58006 60016 71064 885// 91200 333 60017=
07110,1997-05-17 15:00:00,14,1010.4,0.1,94,13,500,7.408,,,290,,,,,,,,,,,wg-a,,,,AAXX 17154 07110 12200 82904 10140 20130 39986 40104 53001 60006 886// 91500=
07110,1997-05-17 18:00:00,13,1010.7,0.3,94,12,6000,7.408,,,310,12.5,14.3,,,,,,,,,wg-a,,,,AAXX 17184 07110 12256 83104 10130 20120 39989 40107 53003 60006 886// 91800 333 10143 20125=
07110,1997-05-17 21:00:00,12,1011.6,0.9,94,11,6000,7.408,,,260,,,,,,,,,,,wg-a,,,,AAXX 17214 07110 12456 82604 10120 20110 39998 40116 53009 60006 886// 92100=
07110,1997-05-18 00:00:00,11,1011.5,-0.2,100,11,10000,7.408,,,250,,,,0,,,,,,21,wg-a,,,,AAXX 18004 07110 02560 82504 10110 20110 39996 40115 57002 60006 72162 875// 90000 333 60007=
07110,1997-05-18 03:00:00,11,1010.8,-0.7,100,11,10000,3.704,,,220,,,,0,,,,,,,wg-a,,,,AAXX 18034 07110 12560 82202 10110 20110 39989 40108 56007 60007 875// 90300=
07110,1997-05-18 06:00:00,11,1010.5,-0.3,100,11,8000,3.704,,,170,9.7,12.9,,,,,2,,,,wg-a,,,,AAXX 18064 07110 02758 21702 10110 20110 39986 40105 55003 60006 82202 90600 333 10129 20097 60024=
07110,1997-05-18 09:00:00,14,1009.9,-0.4,82,11,10000,11.112,,,160,,,,,,,,,,,wg-a,,,,AAXX 18094 07110 12460 51606 10140 20110 39982 40099 58004 60006 85500 90900=
07110,1997-05-18 12:00:00,16,1009.4,-0.4,72,11,20000,14.816,,,180,,,,,,,,,,,wg-a,,,,AAXX 18124 07110 12570 /1808 10160 20110 39978 40094 58004 60006 86202 91200=
07110,1997-05-18 18:00:00,17,1007,-1.1,59,9,15000,18.52,,,140,10.9,18.8,,,,,,,,,wg-a,,,,AAXX 18184 07110 12/65 71410 10170 20090 39954 40070 56011 60006 82034 91800 333 10188 20109=
07110,1997-05-18 21:00:00,15,1005.5,-1.6,72,10,15000,11.112,,,70,,,,,,,,,,,wg-a,,,,AAXX 18214 07110 12665 70706 10150 20100 39938 40055 56016 60006 85554 92100=
07110,1997-05-19 00:00:00,15,1003.9,-1.5,77,11,15000,14.816,,,110,,,,,,,,,,,wg-a,,,,AAXX 19004 07110 12465 81108 10150 20110 39923 40039 58015 60006 8257/ 90000=
07110,1997-05-19 03:00:00,14,1001.9,-2.1,88,12,6000,7.408,,,170,,,,1,,,,,,61,wg-a,,,,AAXX 19034 07110 12356 81704 10140 20120 39902 40019 56021 60017 76162 8557/ 90300=
07110,1997-05-19 06:00:00,12,1000.5,-1.4,100,12,15000,3.704,,,280,12,16.8,,,,,10,,,1,wg-a,,,,AAXX 19064 07110 02465 72802 10120 20120 39888 40005 55014 60006 70196 86980 90600 333 10168 20120 60104=
07110,1997-05-19 12:00:00,15,1002.4,0.4,77,11,20000,35.188,,53.708,190,,,,,,,,,,25,wg-a,,,,AAXX 19124 07110 02470 71919 10150 20110 39908 40024 51004 61000 72522 878// 91200 333 //// 91029=
07110,1997-05-19 15:00:00,15,1002.8,0.4,77,11,15000,31.484,,51.856,200,,,,,,,,,,,wg-a,,,,AAXX 19154 07110 12465 62017 10150 20110 39912 40028 51004 60006 86300 91500 333 91028=
07110,1997-05-19 18:00:00,14,1002.9,0,82,11,15000,25.928,,,200,12.5,15.8,,,,,,,,,wg-a,,,,AAXX 19184 07110 12465 72014 10140 20110 39912 40029 50000 60006 86330 91800 333 10158 20125=
07110,1997-05-19 21:00:00,13,1002.9,0,94,12,15000,22.224,,,180,,,,,,,,,,,wg-a,,,,AAXX 19214 07110 12465 71812 10130 20120 39912 40029 50000 60006 873// 92100=
07110,1997-05-20 00:00:00,12,1002.3,-0.6,100,12,10000,18.52,,,200,,,,1,,,,,,25,wg-a,,,,AAXX 20004 07110 02260 72010 10120 20120 39906 40023 57006 60016 72586 873// 90000 333 60017=
07110,1997-05-20 03:00:00,12,1000.9,-1.4,94,11,10000,25.928,,,210,,,,0,,,,,,,wg-a,,,,AAXX 20034 07110 12360 72114 10120 20110 39892 40009 58014 60007 873// 90300=
07110,1997-05-20 06:00:00,12,1000.4,-0.5,94,11,8000,14.816,,,230,11,14.4,,,,,,,,25,wg-a,,,,AAXX 20064 07110 02358 62308 10120 20110 39887 40004 56005 61000 72586 85801 90600 333 10144 20110 6004=
07110,1997-05-20 09:00:00,12,1001.6,1.2,94,11,6000,25.928,,,250,,,,3,,,,,,61,wg-a,,,,AAXX 20094 07110 12456 82514 10120 20110 39899 40016 53012 60037 76162 887// 90900=
07110,1997-05-20 12:00:00,12,1002.7,1.1,94,11,6000,29.632,,50.004,240,,,,2,,,,,,61,wg-a,,,,AAXX 20124 07110 02456 82416 10120 20110 39910 40027 51011 60056 76162 877// 91200 333 60027 91027=
07110,1997-05-20 15:00:00,12,1004.1,1.3,94,11,6000,29.632,,48.152,250,,,,3,,,,,,21,wg-a,,,,AAXX 20154 07110 12256 82516 10120 20110 39923 40041 53013 60037 72162 887// 91500 333 91026=
07110,1997-05-20 18:00:00,12,1005.4,1.3,100,12,12000,25.928,,,260,11.5,12.4,,,,,,,,21,wg-a,,,,AAXX 20184 07110 02262 82614 10120 20120 39936 40054 53013 61000 72162 875// 91800 333 10124 20115 6001=
07110,1997-05-20 21:00:00,11,1007.3,1.9,100,11,6000,22.224,,,270,,,,1,,,,,,51,wg-a,,,,AAXX 20214 07110 12256 82712 10110 20110 39955 40073 53019 60017 75165 877// 92100=
07110,1997-05-21 00:00:00,12,1008.4,1.1,94,11,4000,18.52,,,280,,,,0,,,,,,21,wg-a,,,,AAXX 21004 07110 02240 /2810 10120 20110 39966 40084 53011 60016 72165 86500 90000 333 60007=
07110,1997-05-21 03:00:00,12,1009.1,0.7,94,11,7000,14.816,,,280,,,,0,,,,,,,wg-a,,,,AAXX 21034 07110 12357 72808 10120 20110 39973 40091 51007 60007 875// 90300=
07110,1997-05-21 06:00:00,12,1010.2,1.1,94,11,8000,11.112,,,290,11,12,,,,,10,,,,wg-a,,,,AAXX 21064 07110 02258 72906 10120 20110 39984 40102 53011 60006 877// 90600 333 10120 20110 60104=
07110,1997-05-21 12:00:00,14,1013.3,1.3,82,11,15000,18.52,,,270,,,,,,,,,,3,wg-a,,,,AAXX 21124 07110 02465 82710 10140 20110 30015 40133 52013 61000 70352 878// 91200 333 ////=
07110,1997-05-21 15:00:00,14,1013.8,0.5,88,12,15000,18.52,,,260,,,,,,,,,,,wg-a,,,,AAXX 21154 07110 12465 82610 10140 20120 30020 40138 51005 60006 878// 91500=
07110,1997-05-21 18:00:00,13,1014.7,0.8,88,11,7000,14.816,,,280,11.9,14.2,,,,,,,,,wg-a,,,,AAXX 21184 07110 12357 82808 10130 20110 30028 40147 53008 60006 875// 91800 333 10142 20119=
07110,1997-05-21 21:00:00,12,1015.7,1,94,11,7000,11.112,,,270,,,,,,,,,,,wg-a,,,,AAXX 21214 07110 12257 82706 10120 20110 30038 40157 53010 60006 877// 92100=
07110,1997-05-22 00:00:00,12,1016.1,0.4,94,11,8000,3.704,,,250,,,,,,,,,,,wg-a,,,,AAXX 22004 07110 12158 82502 10120 20110 30042 40161 51004 60006 877// 90000=
07110,1997-05-22 03:00:00,12,1015.4,-0.7,94,11,6000,3.704,,,240,,,,0,,,,,,80,wg-a,,,,AAXX 22034 07110 12456 82402 10120 20110 30035 40154 56007 60007 78086 875// 90300=
07110,1997-05-22 06:00:00,11,1016,0.6,100,11,6000,7.408,,,260,10.8,12.5,,,,,3,,,1,wg-a,,,,AAXX 22064 07110 02156 72604 10110 20110 30041 40160 53006 60006 70186 875// 90600 333 10125 20108 60034=
07110,1997-05-22 09:00:00,14,1016.5,0.6,77,10,15000,11.112,,,240,,,,,,,,,,,wg-a,,,,AAXX 22094 07110 12465 /2406 10140 20100 30047 40165 51006 60006 85200 90900=
07110,1997-05-22 12:00:00,16,1016.3,-0.2,63,9,15000,14.816,,,180,,,,,,,,,,,wg-a,,,,AAXX 22124 07110 12565 31808 10160 20090 30045 40163 58002 60006 83200 91200=
07110,1997-05-22 18:00:00,14,1015.7,0.1,82,11,20000,7.408,,,30,10.9,17,,,,,,,,,wg-a,,,,AAXX 22184 07110 12570 70304 10140 20110 30039 40157 51001 60006 83201 91800 333 10170 20109=
07110,1997-05-22 21:00:00,12,1015.7,-0.1,94,11,15000,7.408,,,50,,,,,,,,,,,wg-a,,,,AAXX 22214 07110 12465 70504 10120 20110 30038 40157 58001 60006 82502 92100=
07110,1997-05-23 00:00:00,12,1015,-0.7,88,10,10000,3.704,,,70,,,,,,,,,,,wg-a,,,,AAXX 23004 07110 12/60 70702 10120 20100 30031 40150 56007 60006 80002 90000=
07110,1997-05-23 03:00:00,11,1014.4,-0.6,100,11,10000,0,,,0,,,,0,,,,,,3,wg-a,,,,AAXX 23034 07110 12460 70000 10110 20110 30025 40144 56006 60007 70386 8157/ 90300=
07110,1997-05-23 06:00:00,12,1014.6,0.2,94,11,10000,7.408,,,40,11.3,14.4,,,,,,,,1,wg-a,,,,AAXX 23064 07110 02/60 70404 10120 20110 30027 40146 53002 60006 70186 8707/ 90600 333 10144 20113 60004=
07110,1997-05-23 09:00:00,17,1014.5,0.1,63,10,20000,18.52,,,120,,,,,,,,,,,wg-a,,,,AAXX 23094 07110 12670 71210 10170 20100 30028 40145 53001 60006 82532 90900=
07110,1997-05-23 12:00:00,20,1014.7,0.3,56,11,20000,22.224,,,130,,,,,,,,,,,wg-a,,,,AAXX 23124 07110 12670 61312 10200 20110 30031 40147 53003 60006 83232 91200=
07110,1997-05-23 15:00:00,20,1014.5,-0.2,56,11,25000,22.224,,,100,,,,,,,,,,,wg-a,,,,AAXX 23154 07110 12675 71012 10200 20110 30029 40145 56002 60006 82272 91500=
07110,1997-05-23 18:00:00,17,1015.1,0.5,72,12,20000,22.224,,,60,12,20.5,,,,,,,,,wg-a,,,,AAXX 23184 07110 12670 70612 10170 20120 30034 40151 53005 60006 8257/ 91800 333 10205 20120=
07110,1997-05-23 21:00:00,13,1017.4,2.1,77,9,15000,18.52,,,60,,,,,,,,,,,wg-a,,,,AAXX 23214 07110 12765 70610 10130 20090 30055 40174 51021 60006 8257/ 92100=
07110,1997-05-24 00:00:00,11,1018.3,0.8,87,9,15000,18.52,,,60,,,,,,,,,,,wg-a,,,,AAXX 24004 07110 12765 70610 10110 20090 30063 40183 51008 60006 8257/ 90000=
07110,1997-05-24 03:00:00,10,1018.8,0.5,87,8,15000,18.52,,,60,,,,,,,,,,,wg-a,,,,AAXX 24034 07110 12465 60610 10100 20080 30068 40188 52005 60006 83530 90300=
07110,1997-05-24 06:00:00,10,1019.1,0.3,87,8,15000,22.224,,,50,10.2,17,,,,,,,,,wg-a,,,,AAXX 24064 07110 02465 70512 10100 20080 30071 40191 53003 60006 83531 90600 333 10170 20102 60004=
07110,1997-05-24 09:00:00,13,1019.9,0.9,72,8,20000,29.632,,46.3,60,,,,,,,,,,,wg-a,,,,AAXX 24094 07110 12470 70616 10130 20080 30080 40199 53009 60006 81532 90900 333 91025=
07110,1997-05-24 12:00:00,16,1020,0.2,68,10,20000,29.632,,48.152,40,,,,,,,,,,,wg-a,,,,AAXX 24124 07110 12570 /0416 10160 20100 30082 40200 50002 60006 81132 91200 333 91026=
07110,1997-05-24 15:00:00,15,1020.8,0.8,67,9,20000,25.928,,,50,,,,,,,,,,,wg-a,,,,AAXX 24154 07110 12/70 70514 10150 20090 30090 40208 52008 60006 85072 91500=
07110,1997-05-24 18:00:00,13,1021.3,0.4,72,8,20000,25.928,,42.596,40,10.3,16.6,,,,,,,,,wg-a,,,,AAXX 24184 07110 12/70 70414 10130 20080 30094 40213 50004 60006 86072 91800 333 10166 20103 91023=
07110,1997-05-25 00:00:00,9,1024.4,1.1,93,8,15000,14.816,,,60,,,,,,,,,,,wg-a,,,,AAXX 25004 07110 12/65 20608 10090 20080 30123 40244 52011 60006 80002 90000=
07110,1997-05-25 03:00:00,9,1024.3,-0.1,93,8,15000,18.52,,,50,,,,,,,,,,,wg-a,,,,AAXX 25034 07110 12465 40510 10090 20080 30122 40243 55001 60006 83502 90300=
07110,1997-05-25 06:00:00,10,1024.5,0.2,87,8,10000,18.52,,,40,8.8,12.6,,,,,,,,,wg-a,,,,AAXX 25064 07110 02/60 10410 10100 20080 30124 40245 53002 60006 80001 90600 333 10126 20088 60004=
07110,1997-05-25 09:00:00,14,1024.7,0.4,77,10,12000,22.224,,,40,,,,,,,,,,,wg-a,,,,AAXX 25094 07110 12462 /0412 10140 20100 30128 40247 50004 60006 81500 90900=
07110,1997-05-25 12:00:00,18,1023.5,-1.1,64,11,20000,25.928,,,40,,,,,,,,,,,wg-a,,,,AAXX 25124 07110 12570 20414 10180 20110 30117 40235 58011 60006 81501 91200=
07110,1997-05-25 15:00:00,17,1023.1,-0.4,63,10,20000,29.632,,,40,,,,,,,,,,,wg-a,,,,AAXX 25154 07110 12/70 10416 10170 20100 30113 40231 56004 60006 80001 91500=
07110,1997-05-25 18:00:00,15,1022.9,-0.3,67,9,20000,25.928,,,40,10,18.3,,,,,,,,,wg-a,,,,AAXX 25184 07110 12/70 30414 10150 20090 30110 40229 56003 60006 80001 91800 333 10183 20100=
07110,1997-05-25 21:00:00,11,1024.2,1.2,82,8,15000,14.816,,,40,,,,,,,,,,,wg-a,,,,AAXX 25214 07110 12/65 20408 10110 20080 30122 40242 53012 60006 80001 92100=
07110,1997-05-26 00:00:00,11,1024.2,-0.1,76,7,15000,14.816,,,60,,,,,,,,,,,wg-a,,,,AAXX 26004 07110 12/65 40608 10110 20070 30121 40242 58001 60006 80001 90000=
07110,1997-05-26 06:00:00,10,1024,-0,93,9,15000,14.816,,,50,8.2,14.8,,,,,,,,,wg-a,,,,AAXX 26064 07110 02/65 30508 10100 20090 30119 40240 55000 60006 80001 90600 333 10148 20082 60004=
07110,1997-05-26 09:00:00,15,1023.3,-0.4,77,11,20000,22.224,,38.892,40,,,,,,,,,,,wg-a,,,,AAXX 26094 07110 12/70 20412 10150 20110 30115 40233 58004 60006 80001 90900 333 91021=
07110,1997-05-26 12:00:00,20,1022.8,-0.4,49,9,20000,18.52,,,60,,,,,,,,,,,wg-a,,,,AAXX 26124 07110 12/70 30610 10200 20090 30111 40228 58004 60006 80001 91200=
07110,1997-05-26 18:00:00,17,1021,-0.9,68,11,20000,25.928,,,40,10,21,,,,,,,,,wg-a,,,,AAXX 26184 07110 12/70 20414 10170 20110 30092 40210 58009 60006 80001 91800 333 10210 20100=
07110,1997-05-26 21:00:00,12,1022.2,1,82,9,18000,11.112,,,40,,,,,,,,,,,wg-a,,,,AAXX 26214 07110 12/68 20406 10120 20090 30102 40222 53010 60006 80001 92100=
07110,1997-05-27 00:00:00,10,1022.1,-0.2,82,7,15000,7.408,,,30,,,,,,,,,,,wg-a,,,,AAXX 27004 07110 12/65 20304 10100 20070 30100 40221 57002 60006 80001 90000=
07110,1997-05-27 03:00:00,9,1021,-1.1,76,5,15000,11.112,,,50,,,,,,,,,,,wg-a,,,,AAXX 27034 07110 12/65 10506 10090 20050 30089 40210 58011 60006 80001 90300=
07110,1997-05-27 06:00:00,11,1021.1,0.2,71,6,15000,11.112,,,60,8.2,16.7,,,,,,,,,wg-a,,,,AAXX 27064 07110 02/65 40606 10110 20060 30091 40211 53002 60006 80002 90600 333 10167 20082 60004=
07110,1997-05-27 09:00:00,19,1020.9,0.1,56,10,15000,11.112,,,70,,,,,,,,,,,wg-a,,,,AAXX 27094 07110 12/65 20706 10190 20100 30092 40209 50001 60006 80002 90900=
07110,1997-05-27 12:00:00,21,1018.4,-2.4,60,13,20000,25.928,,,40,,,,,,,,,,,wg-a,,,,AAXX 27124 07110 12/70 60414 10210 20130 30068 40184 58024 60006 83082 91200=
07110,1997-05-27 15:00:00,22,1019.3,1,53,12,20000,25.928,,,60,,,,,,,,,,,wg-a,,,,AAXX 27154 07110 12670 30614 10220 20120 30078 40193 51010 60006 81182 91500=
07110,1997-05-27 18:00:00,18,1019.9,0.4,56,9,20000,22.224,,,50,11.3,21.9,,,,,,,,,wg-a,,,,AAXX 27184 07110 12/70 10512 10180 20090 30082 40199 53004 60006 81080 91800 333 10219 20113=
07110,1997-05-28 00:00:00,11,1021.6,0.6,94,10,20000,18.52,,,60,,,,,,,,,,,wg-a,,,,AAXX 28004 07110 12/70 00610 10110 20100 30096 40216 51006 60006 80000 90000=
07110,1997-05-28 03:00:00,11,1022.1,0.5,87,9,20000,11.112,,,70,,,,,,,,,,,wg-a,,,,AAXX 28034 07110 12/70 10706 10110 20090 30101 40221 53005 60006 81040 90300=
07110,1997-05-28 06:00:00,11,1022.4,0.3,87,9,20000,14.816,,,60,10.4,18,,,,,,,,,wg-a,,,,AAXX 28064 07110 02/70 10608 10110 20090 30104 40224 53003 60006 81080 90600 333 10180 20104 60004=
07110,1997-05-28 09:00:00,14,1022.7,0.4,67,8,20000,22.224,,,60,,,,,,,,,,,wg-a,,,,AAXX 28094 07110 12/70 30612 10140 20080 30108 40227 50004 60006 81081 90900=
07110,1997-05-28 12:00:00,18,1022.2,-0.4,52,8,20000,22.224,,,60,,,,,,,,,,,wg-a,,,,AAXX 28124 07110 12/70 30612 10180 20080 30104 40222 57004 60006 80001 91200=
07110,1997-05-28 18:00:00,17,1021.7,0.2,59,9,20000,22.224,,,50,10.9,19,,,,,,,,,wg-a,,,,AAXX 28184 07110 12/70 10512 10170 20090 30099 40217 53002 60006 80001 91800 333 10190 20109=
07110,1997-05-28 21:00:00,12,1022.9,1,82,9,20000,18.52,,,60,,,,,,,,,,,wg-a,,,,AAXX 28214 07110 12/70 20610 10120 20090 30109 40229 53010 60006 80001 92100=
07110,1997-05-29 00:00:00,11,1023.9,0.9,87,9,20000,14.816,,,60,,,,,,,,,,,wg-a,,,,AAXX 29004 07110 12/70 20608 10110 20090 30118 40239 51009 60006 80001 90000=
07110,1997-05-29 03:00:00,9,1023.4,-0.5,93,8,10000,11.112,,,40,,,,,,,,,,,wg-a,,,,AAXX 29034 07110 12/60 /0406 10090 20080 30113 40234 56005 60006 90300=
07110,1997-05-29 06:00:00,10,1023.7,0.3,93,9,7000,14.816,,,30,8.3,16.7,,,,,,,,,wg-a,,,,AAXX 29064 07110 02/57 /0308 10100 20090 30116 40237 53003 60006 80001 90600 333 10167 20083 60004=
07110,1997-05-29 09:00:00,17,1023.1,-0.3,55,8,20000,18.52,,,70,,,,,,,,,,,wg-a,,,,AAXX 29094 07110 12/70 10710 10170 20080 30113 40231 58003 60006 80001 90900=
07110,1997-05-29 12:00:00,21,1022.4,-0.5,53,11,20000,18.52,,,40,,,,,,,,,,,wg-a,,,,AAXX 29124 07110 12/70 10410 10210 20110 30108 40224 57005 60006 80001 91200=
07110,1997-05-29 15:00:00,21,1021.2,-1.2,53,11,20000,22.224,,,50,,,,,,,,,,,wg-a,,,,AAXX 29154 07110 12/70 00512 10210 20110 30096 40212 58012 60006 80000 91500=
07110,1997-05-29 18:00:00,20,1020.9,-0.3,60,12,20000,14.816,,,40,10,21.9,,,,,,,,,wg-a,,,,AAXX 29184 07110 12/70 30408 10200 20120 30093 40209 56003 60006 80001 91800 333 10219 20100=
07110,1997-05-29 21:00:00,15,1022.7,1.5,72,10,20000,11.112,,,60,,,,,,,,,,,wg-a,,,,AAXX 29214 07110 12/70 20606 10150 20100 30108 40227 53015 60006 80001 92100=
07110,1997-05-30 00:00:00,11,1022.8,-0,87,9,20000,11.112,,,40,,,,,,,,,,,wg-a,,,,AAXX 30004 07110 12/70 20406 10110 20090 30108 40228 55000 60006 80001 90000=
07110,1997-05-30 03:00:00,11,1022.8,-0,94,10,20000,11.112,,,60,,,,,,,,,,,wg-a,,,,AAXX 30034 07110 12/70 20606 10110 20100 30108 40228 55000 60006 80001 90300=
07110,1997-05-30 06:00:00,12,1022.3,-0.5,88,10,15000,11.112,,,60,10.3,19.8,,,,,,,,,wg-a,,,,AAXX 30064 07110 02/65 50606 10120 20100 30103 40223 56005 60006 80001 90600 333 10198 20103 60004=
07110,1997-05-30 09:00:00,22,1021.3,-0.6,46,10,25000,22.224,,,90,,,,,,,,,,,wg-a,,,,AAXX 30094 07110 12/75 30912 10220 20100 30097 40213 56006 60006 80001 90900=
07110,1997-05-30 12:00:00,25,1019.9,-1.2,32,7,25000,22.224,,,90,,,,,,,,,,,wg-a,,,,AAXX 30124 07110 12/75 20912 10250 20070 30085 40199 56012 60006 80001 91200=
07110,1997-05-30 15:00:00,27,1019.1,-0.8,28,7,500,22.224,,,110,,,,,,,,,,,wg-a,,,,AAXX 30154 07110 12/00 21112 10270 20070 30077 40191 57008 60006 80001 91500=
07110,1997-05-30 18:00:00,24,1018.2,-0.9,50,13,25000,18.52,,,60,12.2,27,,,,,,,,,wg-a,,,,AAXX 30184 07110 12/75 30610 10240 20130 30068 40182 56009 60006 80001 91800 333 10270 20122=
07110,1997-05-31 00:00:00,17,1019.1,0.2,77,13,20000,11.112,,,70,,,,,,,,,,,wg-a,,,,AAXX 31004 07110 12/70 20706 10170 20130 30074 40191 51002 60006 80001 90000=
07110,1997-05-31 06:00:00,13,1018.1,-0.6,88,11,20000,11.112,,,50,11.7,24.3,,,,,,,,,wg-a,,,,AAXX 31064 07110 02/70 30506 10130 20110 30062 40181 56006 60006 80001 90600 333 10243 20117 60004=
07110,1997-05-31 09:00:00,20,1016.7,-1.1,46,8,20000,22.224,,,50,,,,,,,,,,,wg-a,,,,AAXX 31094 07110 12/70 70512 10200 20080 30051 40167 58011 60006 80002 90900=
07110,1997-05-31 12:00:00,21,1015.6,-1,53,11,20000,29.632,,,40,,,,,,,,,,,wg-a,,,,AAXX 31124 07110 12/70 50416 10210 20110 30041 40156 58010 60006 80002 91200=
07110,1997-05-31 15:00:00,20,1015.2,-0.5,53,10,20000,29.632,,48.152,50,,,,,,,,,,,wg-a,,,,AAXX 31154 07110 12/70 50516 10200 20100 30036 40152 56005 60006 80002 91500 333 91026=
07110,1997-05-31 18:00:00,18,1015.3,0,59,10,20000,25.928,,,50,13.5,21.4,,,,,,,,,wg-a,,,,AAXX 31184 07110 12/70 10514 10180 20100 30036 40153 50000 60006 80001 91800 333 10214 20135=
07110,1997-06-01 00:00:00,13,1016.1,0.5,72,8,15000,14.816,,,50,,,,,,,,,,,wg-a,,,,AAXX 01004 07110 12/65 30508 10130 20080 30042 40161 50005 60006 80001 90000=
07110,1997-06-01 03:00:00,11,1014.9,-1.2,82,8,15000,18.52,,,40,,,,,,,,,,,wg-a,,,,AAXX 01034 07110 12/65 30410 10110 20080 30030 40149 57012 60006 80001 90300=
07110,1997-06-01 06:00:00,13,1014.9,-0,67,7,15000,18.52,,,50,11.1,17.9,,,,,,,,,wg-a,,,,AAXX 01064 07110 02/65 10510 10130 20070 30030 40149 55000 60006 80001 90600 333 10179 20111 60004=
07110,1997-06-01 09:00:00,16,1014.8,0.1,42,3,20000,35.188,,57.412,60,,,,,,,,,,,wg-a,,,,AAXX 01094 07110 12/70 10619 10160 20030 30031 40148 53001 60006 80001 90900 333 91031=
07110,1997-06-01 12:00:00,17,1014.3,-0.5,52,7,20000,35.188,,59.264,40,,,,,,,,,,,wg-a,,,,AAXX 01124 07110 12/70 30419 10170 20070 30026 40143 57005 60006 80001 91200 333 91032=
07110,1997-06-01 15:00:00,16,1013.9,-0.4,55,7,10000,35.188,,61.116,40,,,,,,,,,,,wg-a,,,,AAXX 01154 07110 12/60 /0419 10160 20070 30022 40139 55004 60006 91500 333 91033=
07110,1997-06-01 18:00:00,15,1014.5,0.5,55,6,20000,31.484,,51.856,40,12.9,17.6,,,,,,,,,wg-a,,,,AAXX 01184 07110 12/70 30417 10150 20060 30027 40145 53005 60006 80001 91800 333 10176 20129 91028=
07110,1997-06-01 21:00:00,12,1015.6,1,76,8,20000,18.52,,,50,,,,,,,,,,,wg-a,,,,AAXX 01214 07110 12/70 10510 10120 20080 30037 40156 51010 60006 80001 92100=
07110,1997-06-02 00:00:00,11,1013.9,-1.7,87,9,20000,18.52,,,360,,,,,,,,,,,wg-a,,,,AAXX 02004 07110 12570 43610 10110 20090 30020 40139 56017 60006 83202 90000=
07110,1997-06-02 06:00:00,10,1012.1,-0.3,87,8,15000,11.112,,,30,9.4,14.7,,,,,,,,1,wg-a,,,,AAXX 02064 07110 02565 60306 10100 20080 30001 40121 56003 60006 70186 85830 90600 333 10147 20094 60004=
07110,1997-06-02 09:00:00,13,1011.7,-0.2,67,7,15000,14.816,,,50,,,,,,,,,,,wg-a,,,,AAXX 02094 07110 12565 /0508 10130 20070 39999 40117 55002 60006 85870 90900=
07110,1997-06-02 12:00:00,15,1011.3,-0.3,59,7,20000,11.112,,,30,,,,,,,,,,,wg-a,,,,AAXX 02124 07110 12570 40306 10150 20070 39996 40113 57003 60006 84202 91200=
07110,1997-06-02 18:00:00,15,1012.4,0,67,9,15000,7.408,,,80,9.9,16.3,,,,,,,,,wg-a,,,,AAXX 02184 07110 12665 40804 10150 20090 30007 40124 50000 60006 83502 91800 333 10163 20099=
07110,1997-06-02 21:00:00,12,1013.7,1.1,76,8,15000,3.704,,,60,,,,,,,,,,,wg-a,,,,AAXX 02214 07110 12665 30602 10120 20080 30018 40137 53011 60006 83532 92100=
07110,1997-06-03 00:00:00,9,1014.1,0.3,87,7,15000,3.704,,,40,,,,,,,,,,,wg-a,,,,AAXX 03004 07110 12/65 20402 10090 20070 30021 40141 51003 60006 81032 90000=
07110,1997-06-03 03:00:00,8,1013.9,-0.3,93,7,10000,3.704,,,170,,,,,,,,,,,wg-a,,,,AAXX 03034 07110 12/60 21702 10080 20070 30018 40139 58003 60006 81032 90300=
07110,1997-06-03 06:00:00,10,1014.1,0.3,93,9,10000,7.408,,,130,7,15.1,,,,,,,,,wg-a,,,,AAXX 03064 07110 02560 41304 10100 20090 30021 40141 53003 60006 83302 90600 333 10151 20070 60004=
07110,1997-06-03 09:00:00,15,1014.3,0.4,72,10,20000,18.52,,,170,,,,,,,,,,,wg-a,,,,AAXX 03094 07110 12570 61710 10150 20100 30025 40143 51004 60006 85802 90900=
07110,1997-06-03 12:00:00,15,1015,0.8,77,11,20000,22.224,,,200,,,,,,,,,,,wg-a,,,,AAXX 03124 07110 12570 72012 10150 20110 30033 40150 51008 60006 85802 91200=
07110,1997-06-03 15:00:00,16,1015.7,0.7,72,11,25000,18.52,,,190,,,,,,,,,,,wg-a,,,,AAXX 03154 07110 12575 71910 10160 20110 30040 40157 50007 60006 86802 91500=
07110,1997-06-03 18:00:00,15,1015.6,-0.2,72,10,25000,14.816,,,200,10.2,16.8,,,,,,,,,wg-a,,,,AAXX 03184 07110 12575 72008 10150 20100 30038 40156 55002 60006 82232 91800 333 10168 20102=
07110,1997-06-03 21:00:00,13,1016.6,0.9,82,10,15000,7.408,,,180,,,,,,,,,,,wg-a,,,,AAXX 03214 07110 12/65 41804 10130 20100 30047 40166 52009 60006 80002 92100=
07110,1997-06-04 00:00:00,11,1016.9,0.2,87,9,20000,7.408,,,90,,,,,,,,,,,wg-a,,,,AAXX 04004 07110 12/70 20904 10110 20090 30049 40169 50002 60006 80001 90000=
07110,1997-06-04 03:00:00,10,1016,-0.9,93,9,20000,7.408,,,90,,,,,,,,,,,wg-a,,,,AAXX 04034 07110 12/70 40904 10100 20090 30040 40160 58009 60006 81031 90300=
07110,1997-06-04 06:00:00,11,1014.8,-1.1,94,10,15000,3.704,,,60,9.6,15.2,,,,,,,,,wg-a,,,,AAXX 04064 07110 02/65 40602 10110 20100 30029 40148 56011 60006 82031 90600 333 10152 20096 60004=
07110,1997-06-04 09:00:00,18,1013.4,-1.1,49,7,15000,7.408,,,70,,,,,,,,,,,wg-a,,,,AAXX 04094 07110 12/65 30704 10180 20070 30018 40134 58011 60006 80001 90900=
07110,1997-06-04 12:00:00,21,1012.5,-0.8,53,11,15000,11.112,,,140,,,,,,,,,,,wg-a,,,,AAXX 04124 07110 12/65 61406 10210 20110 30010 40125 58008 60006 85051 91200=
07110,1997-06-04 15:00:00,20,1011.4,-1.1,64,13,15000,14.816,,,350,,,,,,,,,,,wg-a,,,,AAXX 04154 07110 12665 83508 10200 20130 39999 40114 58011 60006 8255/ 91500=
07110,1997-06-04 18:00:00,16,1010,-1.6,82,13,10000,11.112,,,20,11.2,22.5,,,,,,,,,wg-a,,,,AAXX 04184 07110 12/60 80206 10160 20130 39983 40100 56016 60006 86055 91800 333 10225 20112=
07110,1997-06-04 21:00:00,14,1009.1,-0.9,88,12,500,3.704,,,20,,,,,,,,,,,wg-a,,,,AAXX 04214 07110 12/00 80202 10140 20120 39974 40091 56009 60006 8707/ 92100=
07110,1997-06-05 00:00:00,15,1007.5,-1.6,88,13,500,7.408,,,40,,,,0,,,,,,61,wg-a,,,,AAXX 05004 07110 02800 80404 10150 20130 39958 40075 58016 60006 76162 8707/ 90000 333 60007=
07110,1997-06-05 03:00:00,14,1004.5,-3,94,13,500,11.112,,,350,,,,2,,,,,,61,wg-a,,,,AAXX 05034 07110 12200 83506 10140 20130 39928 40045 58030 60027 76162 8277/ 90300=
07110,1997-06-05 06:00:00,13,1002,-2.5,94,12,1000,14.816,,,20,12.8,16.1,,,,,,,,10,wg-a,,,,AAXX 05064 07110 02110 80208 10130 20120 39903 40020 58025 61000 71062 877// 90600 333 10161 20128 6014=
07110,1997-06-05 12:00:00,14,998,-1.7,94,13,1500,3.704,,,290,,,,4,,,,,,10,wg-a,,,,AAXX 05124 07110 02115 82902 10140 20130 39864 49980 56017 60066 71066 877// 91200 333 60047=
07110,1997-06-05 18:00:00,14,999.6,1.8,94,13,7000,18.52,,,230,12.7,14.3,,,,,,,,2,wg-a,,,,AAXX 05184 07110 12257 82310 10140 20130 39880 49996 52018 60006 70262 877// 91800 333 10143 20127=
07110,1997-06-05 21:00:00,14,1001.3,1.6,94,13,10000,14.816,,,190,,,,,,,,,,,wg-a,,,,AAXX 05214 07110 12260 81908 10140 20130 39896 40013 51016 60006 875// 92100=
07110,1997-06-06 00:00:00,13,1001.8,0.5,100,13,10000,18.52,,,160,,,,,,,,,,,wg-a,,,,AAXX 06004 07110 12460 81610 10130 20130 39901 40018 51005 60006 875// 90000=
07110,1997-06-06 03:00:00,13,1001.1,-0.7,100,13,6000,3.704,,,140,,,,,,,,,,,wg-a,,,,AAXX 06034 07110 12256 51402 10130 20130 39894 40011 56007 60006 85500 90300=
07110,1997-06-06 06:00:00,14,1000.6,-0.4,100,14,10000,11.112,,,120,13,14,,,,,14,,,,wg-a,,,,AAXX 06064 07110 02460 71206 10140 20140 39890 40006 56004 60006 8/500 90600 333 10140 20130 60144=
07110,1997-06-06 09:00:00,17,1000.6,0.1,94,16,10000,22.224,,,160,,,,0,,,,,,60,wg-a,,,,AAXX 06094 07110 12360 71612 10170 20160 39891 40006 53001 60007 76062 875// 90900=
07110,1997-06-06 12:00:00,17,999.1,-1.5,88,15,15000,31.484,,,150,,,,2,,,,,,21,wg-a,,,,AAXX 06124 07110 02465 71517 10170 20150 39876 49991 58015 60026 72162 875// 91200 333 60027=
07110,1997-06-06 15:00:00,17,1000.6,1.5,88,15,10000,35.188,,55.56,170,,,,2,,,,,,60,wg-a,,,,AAXX 06154 07110 12360 81719 10170 20150 39891 40006 53015 60027 76062 885// 91500 333 91030=
07110,1997-06-06 18:00:00,18,1001,0.4,83,15,18000,29.632,,,170,14,18.6,,1,,,,,,1,wg-a,,,,AAXX 06184 07110 02668 61716 10180 20150 39895 40010 50004 60006 70162 83532 91800 333 10186 20140 60017=
07110,1997-06-07 00:00:00,16,1002.2,-0.2,82,13,15000,29.632,,,180,,,,,,,,,,,wg-a,,,,AAXX 07004 07110 12765 51816 10160 20130 39906 40022 58002 60006 82532 90000=
07110,1997-06-07 03:00:00,15,1002,-0.2,88,13,15000,25.928,,,160,,,,,,,,,,,wg-a,,,,AAXX 07034 07110 12665 31614 10150 20130 39904 40020 58002 60006 82502 90300=
07110,1997-06-07 06:00:00,16,1002.7,0.7,82,13,15000,25.928,,,180,15.1,18.2,,,,,4,,,,wg-a,,,,AAXX 07064 07110 02665 81814 10160 20130 39911 40027 53007 60006 8557/ 90600 333 10182 20151 60044=
07110,1997-06-07 12:00:00,18,1004.8,1.1,77,14,20000,38.892,,64.82,200,,,,,,,,,,,wg-a,,,,AAXX 07124 07110 12570 /2021 10180 20140 39933 40048 52011 60006 85200 91200 333 91035=
07110,1997-06-07 15:00:00,18,1005.5,0.7,77,14,20000,35.188,,64.82,190,,,,,,,,,,,wg-a,,,,AAXX 07154 07110 12570 31919 10180 20140 39940 40055 50007 60006 82232 91500 333 91035=
07110,1997-06-07 18:00:00,18,1005.8,0.3,68,12,20000,35.188,,61.116,200,16,18.7,,,,,,,,,wg-a,,,,AAXX 07184 07110 12570 22019 10180 20120 39943 40058 51003 60006 81202 91800 333 10187 20160 91033=
07110,1997-06-07 21:00:00,16,1006.3,0.4,82,13,15000,35.188,,53.708,190,,,,,,,,,,,wg-a,,,,AAXX 07214 07110 12565 51919 10160 20130 39947 40063 53004 60006 84502 92100 333 91029=
07110,1997-06-08 00:00:00,15,1007.7,1.3,94,14,10000,29.632,,,200,,,,0,,,,,,3,wg-a,,,,AAXX 08004 07110 02360 42016 10150 20140 39960 40077 51013 60006 70386 84700 90000 333 60007=
07110,1997-06-08 03:00:00,15,1008.4,0.7,94,14,10000,22.224,,,200,,,,,,,,,,,wg-a,,,,AAXX 08034 07110 12360 62012 10150 20140 39967 40084 52007 60006 86500 90300=
07110,1997-06-08 06:00:00,15,1009.9,1.5,94,14,10000,29.632,,42.596,200,14.4,17.7,,,,,,,,21,wg-a,,,,AAXX 08064 07110 02360 72016 10150 20140 39982 40099 53015 61000 72161 877// 90600 333 10177 20144 6001 91023=
07110,1997-06-08 09:00:00,15,1012,2.1,88,13,12000,29.632,,53.708,210,,,,0,,,,,,,wg-a,,,,AAXX 08094 07110 12462 72116 10150 20130 30003 40120 53021 60007 875// 90900 333 91029=
07110,1997-06-08 12:00:00,17,1014.6,2.6,82,14,25000,25.928,,,230,,,,,,,,,,,wg-a,,,,AAXX 08124 07110 12575 /2314 10170 20140 30029 40146 53026 60006 86200 91200=
07110,1997-06-08 15:00:00,17,1016.7,2.1,77,13,25000,18.52,,,210,,,,,,,,,,,wg-a,,,,AAXX 08154 07110 12475 /2110 10170 20130 30050 40167 52021 60006 86200 91500=
07110,1997-06-08 18:00:00,16,1018.2,1.5,82,13,15000,14.816,,,220,14.6,17.9,,,,,,,,,wg-a,,,,AAXX 08184 07110 12565 /2208 10160 20130 30065 40182 52015 60006 85201 91800 333 10179 20146=
07110,1997-06-08 21:00:00,15,1019.6,1.3,94,14,12000,11.112,,,200,,,,,,,,,,,wg-a,,,,AAXX 08214 07110 12362 52006 10150 20140 30078 40196 53013 60006 85200 92100=
07110,1997-06-09 00:00:00,14,1019.8,0.2,100,14,12000,14.816,,,180,,,,,,,,,,,wg-a,,,,AAXX 09004 07110 12262 71808 10140 20140 30080 40198 51002 60006 87600 90000=
07110,1997-06-09 03:00:00,14,1020,0.2,100,14,1000,14.816,,,180,,,,,,,,,,,wg-a,,,,AAXX 09034 07110 12210 71808 10140 20140 30082 40200 51002 60006 8663/ 90300=
07110,1997-06-09 06:00:00,14,1020.6,0.6,100,14,7000,18.52,,,170,14,16.2,,,,,,,,,wg-a,,,,AAXX 09064 07110 02257 71710 10140 20140 30088 40206 53006 60006 8763/ 90600 333 10162 20140 60004=
07110,1997-06-09 09:00:00,17,1021.3,0.7,82,14,12000,18.52,,,160,,,,,,,,,,,wg-a,,,,AAXX 09094 07110 12462 51610 10170 20140 30095 40213 51007 60006 83201 90900=
07110,1997-06-09 12:00:00,19,1020.8,-0.4,73,14,15000,11.112,,,180,,,,,,,,,,,wg-a,,,,AAXX 09124 07110 12565 71806 10190 20140 30091 40208 56004 60006 83232 91200=
07110,1997-06-09 15:00:00,17,1020.9,0.1,88,15,12000,3.704,,,340,,,,1,,,,,,21,wg-a,,,,AAXX 09154 07110 12462 73402 10170 20150 30092 40209 50001 60017 72162 8587/ 91500=
07110,1997-06-09 18:00:00,15,1020.2,-0.8,88,13,7000,11.112,,,30,14.3,19.5,,,,,,,,61,wg-a,,,,AAXX 09184 07110 02457 80306 10150 20130 30084 40202 56008 61000 76162 8557/ 91800 333 10195 20143 6001=
07110,1997-06-09 21:00:00,15,1018.7,-1.5,94,14,10000,11.112,,,50,,,,0,,,,,,21,wg-a,,,,AAXX 09214 07110 12460 /0506 10150 20140 30069 40187 57015 60007 72162 84572 92100=
07110,1997-06-10 00:00:00,16,1016.6,-2.1,72,11,15000,14.816,,,70,,,,,,,,,,1,wg-a,,,,AAXX 10004 07110 12/65 70708 10160 20110 30048 40166 58021 60006 70162 86072 90000=
07110,1997-06-10 03:00:00,17,1013.9,-2.6,72,12,15000,14.816,,,80,,,,,,,,,,,wg-a,,,,AAXX 10034 07110 12/65 70808 10170 20120 30022 40139 56026 60006 86072 90300=
07110,1997-06-10 06:00:00,18,1012.3,-1.5,73,13,15000,11.112,,,90,14.5,18.1,,,,,1,,,,wg-a,,,,AAXX 10064 07110 02665 80906 10180 20130 30007 40123 58015 60006 8257/ 90600 333 10181 20145 60014=
07110,1997-06-10 09:00:00,19,1011.5,-0.8,78,15,15000,18.52,,,130,,,,,,,,,,60,wg-a,,,,AAXX 10094 07110 02565 81310 10190 20150 39999 40115 55008 61000 76062 8257/ 90900 333 ////=
07110,1997-06-10 12:00:00,18,1008.4,-3.1,88,16,15000,18.52,,,70,,,,4,,,,,,21,wg-a,,,,AAXX 10124 07110 02565 80710 10180 20160 39968 40084 58031 60046 72162 8357/ 91200 333 60047=
07110,1997-06-10 15:00:00,21,1006.1,-2.1,83,18,15000,25.928,,,150,,,,0,,,,,,,wg-a,,,,AAXX 10154 07110 12465 71514 10210 20180 39947 40061 58021 60007 8327/ 91500=
07110,1997-06-10 18:00:00,19,1006,-0.2,88,17,15000,22.224,,,180,17,21.2,,,,,,,,1,wg-a,,,,AAXX 10184 07110 12465 51812 10190 20170 39945 40060 57002 60006 70162 83201 91800 333 10212 20170=
07110,1997-06-11 00:00:00,14,1007.9,0,100,14,10000,7.408,,,170,,,,,,,,,,1,wg-a,,,,AAXX 11004 07110 12560 51704 10140 20140 39962 40079 50000 60006 70142 83530 90000=
07110,1997-06-11 03:00:00,15,1007.8,-0.1,94,14,8000,14.816,,,180,,,,,,,,,,,wg-a,,,,AAXX 11034 07110 12658 71808 10150 20140 39961 40078 55001 60006 83530 90300=
07110,1997-06-11 06:00:00,15,1007,-0.7,100,15,7000,18.52,,,160,14.2,18.8,,,,,4,,,1,wg-a,,,,AAXX 11064 07110 02257 61610 10150 20150 39954 40070 55007 60006 70186 86800 90600 333 10188 20142 60044=
07110,1997-06-11 09:00:00,16,1006.9,-0.1,94,15,10000,14.816,,,190,,,,4,,,,,,17,wg-a,,,,AAXX 11094 07110 12360 71908 10160 20150 39953 40069 55001 60047 71798 879// 90900=
07110,1997-06-11 12:00:00,18,1006.4,-0.4,83,15,20000,22.224,,,180,,,,1,,,,,,2,wg-a,,,,AAXX 11124 07110 02470 71812 10180 20150 39949 40064 56004 60056 70298 878// 91200 333 60017=
07110,1997-06-11 15:00:00,16,1006.4,-0.4,94,15,20000,22.224,,,180,,,,1,,,,,,2,wg-a,,,,AAXX 11154 07110 02470 71812 10160 20150 39949 40064 56004 60056 70298 878// 91500 333 60017=
07110,1997-06-11 18:00:00,16,1006.2,0.4,94,15,10000,18.52,,,230,15.5,18.2,,1,,,,,,1,wg-a,,,,AAXX 11184 07110 02260 72310 10160 20150 39946 40062 53004 60006 70186 872// 91800 333 10182 20155 60017=
07110,1997-06-11 21:00:00,15,1007.8,1.5,94,14,10000,14.816,,,210,,,,,,,,,,25,wg-a,,,,AAXX 11214 07110 02260 82108 10150 20140 39961 40078 51015 61000 72586 876// 92100 333 ////=
07110,1997-06-12 00:00:00,14,1008.1,0.3,100,14,500,14.816,,,230,,,,2,,,,,,21,wg-a,,,,AAXX 12004 07110 02200 72308 10140 20140 39964 40081 50003 60026 72186 878// 90000 333 60027=
07110,1997-06-12 03:00:00,14,1007.9,-0.2,100,14,12000,11.112,,,210,,,,,,,,,,,wg-a,,,,AAXX 12034 07110 12262 72106 10140 20140 39962 40079 56002 60006 875// 90300=
07110,1997-06-12 06:00:00,15,1008.1,0.2,94,14,500,14.816,,,220,13.8,15.7,,,,,13,,,2,wg-a,,,,AAXX 12064 07110 02200 82208 10150 20140 39964 40081 53002 60006 70262 877// 90600 333 10157 20138 60134=
07110,1997-06-12 09:00:00,15,1008.7,0.6,94,14,8000,14.816,,,200,,,,0,,,,,,1,wg-a,,,,AAXX 12094 07110 12258 72008 10150 20140 39970 40087 51006 60007 70165 877// 90900=
07110,1997-06-12 12:00:00,17,1008.7,0.1,88,15,8000,18.52,,,220,,,,,,,,,,2,wg-a,,,,AAXX 12124 07110 12358 72210 10170 20150 39971 40087 51001 60016 70265 877// 91200=
07110,1997-06-12 15:00:00,17,1008.3,-0.4,88,15,11000,22.224,,,210,,,,,,,,,,,wg-a,,,,AAXX 12154 07110 12/61 /2112 10170 20150 39967 40083 58004 60006 91500=
07110,1997-06-12 18:00:00,16,1007.8,-0.5,94,15,12000,22.224,,,210,14.5,17.6,,,,,,,,,wg-a,,,,AAXX 12184 07110 12362 72112 10160 20150 39962 40078 58005 60006 877// 91800 333 10176 20145=
07110,1997-06-13 00:00:00,14,1007.9,-0.3,94,13,9000,14.816,,,210,,,,,,,,,,1,wg-a,,,,AAXX 13004 07110 12359 72108 10140 20130 39962 40079 58003 60026 70162 875// 90000=
07110,1997-06-13 06:00:00,14,1006.8,0.1,94,13,8000,3.704,,,230,13.3,15.8,,,,,3,,,,wg-a,,,,AAXX 13064 07110 02258 72302 10140 20130 39951 40068 52001 60006 85502 90600 333 10158 20133 60034=
07110,1997-06-13 09:00:00,15,1007.1,0.3,88,13,10000,7.408,,,240,,,,,,,,,,,wg-a,,,,AAXX 13094 07110 12460 82404 10150 20130 39954 40071 52003 60006 875// 90900=
07110,1997-06-13 12:00:00,15,1007.2,0.1,88,13,10000,11.112,,,260,,,,0,,,,,,60,wg-a,,,,AAXX 13124 07110 02260 82606 10150 20130 39955 40072 52001 60016 76062 875// 91200 333 60007=
07110,1997-06-13 15:00:00,14,1007.3,0.1,88,12,8000,14.816,,,290,,,,1,,,,,,21,wg-a,,,,AAXX 13154 07110 12258 82908 10140 20120 39956 40073 53001 60017 72162 875// 91500=
07110,1997-06-13 18:00:00,15,1007.5,0.2,82,12,15000,11.112,,,280,13.6,15.4,,,,,,,,3,wg-a,,,,AAXX 13184 07110 12465 72806 10150 20120 39958 40075 53002 60006 70362 878// 91800 333 10154 20136=
07110,1997-06-13 21:00:00,13,1008.7,1.1,88,11,11000,7.408,,,250,,,,,,,,,,,wg-a,,,,AAXX 13214 07110 12/61 /2504 10130 20110 39969 40087 53011 60006 92100=
07110,1997-06-14 00:00:00,13,1009,0.3,94,12,15000,7.408,,,240,,,,0,,,,,,,wg-a,,,,AAXX 14004 07110 02565 72404 10130 20120 39972 40090 50003 60006 87500 90000 333 60007=
07110,1997-06-14 03:00:00,13,1009.5,0.5,94,12,15000,11.112,,,280,,,,2,,,,,,,wg-a,,,,AAXX 14034 07110 12365 72806 10130 20120 39977 40095 53005 60027 87500 90300=
07110,1997-06-14 06:00:00,13,1011.7,2.2,94,12,10000,7.408,,,280,11.6,15,,,,,4,,,1,wg-a,,,,AAXX 14064 07110 02360 72804 10130 20120 39999 40117 53022 60006 70186 87500 90600 333 10150 20116 60044=
07110,1997-06-14 09:00:00,14,1013.5,1.8,94,13,12000,14.816,,,290,,,,0,,,,,,25,wg-a,,,,AAXX 14094 07110 12462 72908 10140 20130 30017 40135 52018 60007 72586 87300 90900=
07110,1997-06-14 12:00:00,16,1015.1,1.7,77,12,20000,14.816,,,300,,,,,,,,,,1,wg-a,,,,AAXX 14124 07110 12570 63008 10160 20120 30034 40151 51017 60006 70186 86800 91200=
07110,1997-06-14 15:00:00,17,1015.8,0.7,72,12,20000,14.816,,,290,,,,,,,,,,,wg-a,,,,AAXX 14154 07110 12570 52908 10170 20120 30041 40158 51007 60006 85800 91500=
07110,1997-06-14 18:00:00,16,1016.9,1.1,82,13,20000,11.112,,,280,13.1,17.7,,,,,,,,,wg-a,,,,AAXX 14184 07110 12570 62806 10160 20130 30052 40169 53011 60006 85801 91800 333 10177 20131=
07110,1997-06-14 21:00:00,14,1018.3,1.2,88,12,20000,7.408,,,250,,,,,,,,,,,wg-a,,,,AAXX 14214 07110 12570 /2504 10140 20120 30064 40183 53012 60006 86800 92100=
07110,1997-06-15 00:00:00,12,1018.7,0.3,94,11,20000,7.408,,,220,,,,,,,,,,,wg-a,,,,AAXX 15004 07110 12470 22204 10120 20110 30067 40187 51003 60006 82200 90000=
07110,1997-06-15 06:00:00,12,1018.4,0.4,100,12,15000,3.704,,,230,9.7,15.8,,,,,,,,,wg-a,,,,AAXX 15064 07110 02565 22302 10120 20120 30065 40184 53004 60006 82800 90600 333 10158 20097 60004=
07110,1997-06-15 09:00:00,15,1019,0.7,72,10,20000,11.112,,,250,,,,,,,,,,,wg-a,,,,AAXX 15094 07110 12570 /2506 10150 20100 30072 40190 51007 60006 85231 90900=
07110,1997-06-15 12:00:00,17,1019,0.1,68,11,20000,7.408,,,240,,,,,,,,,,,wg-a,,,,AAXX 15124 07110 12570 /2404 10170 20110 30073 40190 50001 60006 86800 91200=
07110,1997-06-15 18:00:00,16,1019.4,0.1,72,11,15000,7.408,,,350,11.9,17.2,,,,,,,,,wg-a,,,,AAXX 15184 07110 12565 53504 10160 20110 30076 40194 53001 60006 85830 91800 333 10172 20119=
07110,1997-06-15 21:00:00,13,1020.3,0.8,88,11,10000,3.704,,,20,,,,,,,,,,,wg-a,,,,AAXX 15214 07110 12660 30202 10130 20110 30084 40203 53008 60006 82530 92100=
07110,1997-06-16 00:00:00,12,1019.7,-0.7,94,11,10000,3.704,,,20,,,,,,,,,,,wg-a,,,,AAXX 16004 07110 12660 40202 10120 20110 30077 40197 58007 60006 82530 90000=
07110,1997-06-16 03:00:00,11,1018.6,-1.1,100,11,10000,3.704,,,40,,,,,,,,,,,wg-a,,,,AAXX 16034 07110 12460 /0402 10110 20110 30066 40186 58011 60006 85870 90300=
07110,1997-06-16 06:00:00,12,1018.3,-0.2,100,12,3500,3.704,,,30,11.2,15.7,,,,,,,,61,wg-a,,,,AAXX 16064 07110 02435 80302 10120 20120 30064 40183 56002 61000 76161 8587/ 90600 333 10157 20112 6000=
07110,1997-06-16 09:00:00,15,1018.2,-0,82,12,12000,11.112,,,60,,,,0,,,,,,1,wg-a,,,,AAXX 16094 07110 12462 70606 10150 20120 30064 40182 54000 60007 70162 8587/ 90900=
07110,1997-06-16 12:00:00,17,1017.9,-0.2,72,12,15000,14.816,,,20,,,,,,,,,,25,wg-a,,,,AAXX 16124 07110 02465 70208 10170 20120 30062 40179 58002 60006 72562 878// 91200 333 61000=
07110,1997-06-16 18:00:00,16,1017.4,-0.8,72,11,15000,14.816,,,30,12.4,17.1,,,,,,,,,wg-a,,,,AAXX 16184 07110 12565 60308 10160 20110 30056 40174 56008 60006 85830 91800 333 10171 20124=
07110,1997-06-16 21:00:00,14,1019.3,1.8,88,12,15000,11.112,,,350,,,,,,,,,,,wg-a,,,,AAXX 16214 07110 12565 73506 10140 20120 30074 40193 51018 60006 878// 92100=
07110,1997-06-17 00:00:00,13,1019.5,0.2,94,12,12000,11.112,,,360,,,,,,,,,,,wg-a,,,,AAXX 17004 07110 12462 /3606 10130 20120 30076 40195 51002 60006 85800 90000=
07110,1997-06-17 03:00:00,12,1019.4,-0.2,94,11,11000,7.408,,,340,,,,,,,,,,,wg-a,,,,AAXX 17034 07110 12/61 /3404 10120 20110 30074 40194 56002 60006 90300=
07110,1997-06-17 06:00:00,13,1019.8,0.5,100,13,2000,7.408,,,20,11,16.4,,,,,,,,10,wg-a,,,,AAXX 17064 07110 02720 20204 10130 20130 30079 40198 53005 60006 71011 82500 90600 333 10164 20110 60004=
07110,1997-06-17 12:00:00,19,1021.4,0.6,64,12,15000,14.816,,,30,,,,,,,,,,,wg-a,,,,AAXX 17124 07110 12565 30308 10190 20120 30097 40214 51006 60006 82101 91200=
07110,1997-06-17 15:00:00,19,1021.4,0,64,12,15000,18.52,,,10,,,,,,,,,,,wg-a,,,,AAXX 17154 07110 12565 30110 10190 20120 30097 40214 50000 60006 82201 91500=
07110,1997-06-17 18:00:00,18,1021.3,-0.1,68,12,15000,14.816,,,360,13.1,19.7,,,,,,,,,wg-a,,,,AAXX 17184 07110 12565 /3608 10180 20120 30096 40213 55001 60006 81200 91800 333 10197 20131=
07110,1997-06-17 21:00:00,14,1022.5,1,88,12,3000,3.704,,,10,,,,,,,,,,10,wg-a,,,,AAXX 17214 07110 12530 20102 10140 20120 30106 40225 53010 60006 71000 81201 92100=
07110,1997-06-18 00:00:00,12,1022.3,-0.3,100,12,6000,3.704,,,10,,,,,,,,,,,wg-a,,,,AAXX 18004 07110 12256 20102 10120 20120 30103 40223 58003 60006 82600 90000=
07110,1997-06-18 06:00:00,12,1021,-0.3,94,11,600,3.704,,,250,9.9,17.5,,,,,,,,42,wg-a,,,,AAXX 18064 07110 02106 42502 10120 20110 30090 40210 55003 60006 74241 83531 90600 333 10175 20099 60004=
07110,1997-06-18 09:00:00,17,1019.9,-0.9,68,11,8000,7.408,,,260,,,,,,,,,,2,wg-a,,,,AAXX 18094 07110 12558 72604 10170 20110 30081 40199 57009 60006 70241 83232 90900=
07110,1997-06-18 12:00:00,18,1019.4,,52,8,20000,11.112,,,240,,,,,,,,,,2,wg-a,,,,AAXX 18124 07110 12670 62406 10180 20080 30077 40194 60006 70241 82235 91200=
07110,1997-06-18 18:00:00,15,1016.7,-1,82,12,20000,14.816,,,230,11.8,18.7,,,,,,,,,wg-a,,,,AAXX 18184 07110 12570 72308 10150 20120 30049 40167 58010 60006 8157/ 91800 333 10187 20118=
07110,1997-06-18 21:00:00,14,1015.7,-1,94,13,15000,7.408,,,230,,,,,,,,,,,wg-a,,,,AAXX 18214 07110 12465 72304 10140 20130 30039 40157 56010 60006 8557/ 92100=
07110,1997-06-19 00:00:00,14,1014.3,-1.4,94,13,10000,7.408,,,290,,,,0,,,,,,25,wg-a,,,,AAXX 19004 07110 02360 /2904 10140 20130 30025 40143 57014 60016 72586 8577/ 90000 333 60007=
07110,1997-06-19 03:00:00,12,1012.4,-1.9,100,12,10000,3.704,,,260,,,,0,,,,,,1,wg-a,,,,AAXX 19034 07110 12660 72602 10120 20120 30006 40124 56019 60007 70186 84531 90300=
07110,1997-06-19 06:00:00,13,1011.1,-1.3,94,12,12000,7.408,,,220,12.2,15.4,,,,,1,,,1,wg-a,,,,AAXX 19064 07110 02562 72204 10130 20120 39993 40111 58013 60006 70186 8227/ 90600 333 10154 20122 60014=
07110,1997-06-19 12:00:00,13,1009.8,-1.2,82,10,10000,18.52,,,230,,,,2,,,,,,3,wg-a,,,,AAXX 19124 07110 02460 82310 10130 20100 39980 40098 56012 60046 70362 8787/ 91200 333 60027=
07110,1997-06-19 15:00:00,15,1008.3,-1.4,82,12,15000,22.224,,,260,,,,1,,,,,,3,wg-a,,,,AAXX 19154 07110 12465 72612 10150 20120 39966 40083 56014 60017 70362 872// 91500=
07110,1997-06-19 18:00:00,15,1008.4,0.1,77,11,15000,18.52,,,270,11,16,,,,,,,,1,wg-a,,,,AAXX 19184 07110 12565 42710 10150 20110 39967 40084 53001 60006 70161 83201 91800 333 10160 20110=
07110,1997-06-19 21:00:00,11,1009.3,0.7,87,9,20000,7.408,,,250,,,,,,,,,,,wg-a,,,,AAXX 19214 07110 12570 32504 10110 20090 39974 40093 51007 60006 83801 92100=
07110,1997-06-20 00:00:00,10,1008.4,-0.9,87,8,20000,7.408,,,220,,,,,,,,,,,wg-a,,,,AAXX 20004 07110 12770 62204 10100 20080 39965 40084 58009 60006 835/4 90000=
07110,1997-06-20 03:00:00,11,1006.1,-2.2,87,9,20000,7.408,,,200,,,,,,,,,,,wg-a,,,,AAXX 20034 07110 12670 72004 10110 20090 39943 40061 58022 60006 8557/ 90300=
07110,1997-06-20 06:00:00,14,1003.6,-2.4,94,13,10000,18.52,,,200,10,14.6,,,,,5,,,,wg-a,,,,AAXX 20064 07110 02460 82010 10140 20130 39919 40036 57024 60006 875// 90600 333 10146 20100 60054=
07110,1997-06-20 09:00:00,13,1000.9,-2.7,94,12,10000,29.632,,44.448,200,,,,2,,,,,,60,wg-a,,,,AAXX 20094 07110 12260 82016 10130 20120 39892 40009 58027 60027 76062 875// 90900 333 91024=
07110,1997-06-20 12:00:00,15,998.6,-2.2,94,14,10000,29.632,,55.56,220,,,,2,,,,,,21,wg-a,,,,AAXX 20124 07110 02460 72216 10150 20140 39870 49986 56022 60046 72162 875// 91200 333 60027 91030=
07110,1997-06-20 15:00:00,16,997.9,-0.6,77,12,20000,25.928,,44.448,240,,,,0,,,,,,3,wg-a,,,,AAXX 20154 07110 12570 72414 10160 20120 39864 49979 56006 60007 70386 878// 91500 333 91024=
07110,1997-06-20 18:00:00,15,997.7,-0.3,82,12,15000,25.928,,44.448,230,13.1,16.5,,0,,,,,,1,wg-a,,,,AAXX 20184 07110 02465 72314 10150 20120 39861 49977 57003 60006 70186 878// 91800 333 10165 20131 60007 91024=
07110,1997-06-20 21:00:00,13,997.5,-0.2,94,12,15000,22.224,,,240,,,,,,,,,,,wg-a,,,,AAXX 20214 07110 12465 62412 10130 20120 39859 49975 55002 60006 86800 92100=
07110,1997-06-21 00:00:00,12,998.4,0.8,88,10,15000,18.52,,,240,,,,1,,,,,,25,wg-a,,,,AAXX 21004 07110 02365 62410 10120 20100 39867 49984 51008 60016 72586 86700 90000 333 60017=
07110,1997-06-21 03:00:00,11,998.5,0.1,87,9,15000,14.816,,,250,,,,1,,,,,,,wg-a,,,,AAXX 21034 07110 12465 32508 10110 20090 39868 49985 50001 60017 83300 90300=
07110,1997-06-21 06:00:00,11,998.5,-0,94,10,10000,14.816,,,240,10.7,15.1,,,,,,,,25,wg-a,,,,AAXX 21064 07110 02460 72408 10110 20100 39868 49985 55000 61000 72586 879// 90600 333 10151 20107 6007=
07110,1997-06-21 12:00:00,15,998.3,0,77,11,15000,25.928,,,230,,,,,,,,,,3,wg-a,,,,AAXX 21124 07110 12465 72314 10150 20110 39867 49983 50000 60016 70386 879// 91200=
07110,1997-06-21 15:00:00,15,998.7,0.4,72,10,15000,25.928,,,270,,,,0,,,,,,25,wg-a,,,,AAXX 21154 07110 12465 72714 10150 20100 39871 49987 53004 60007 72586 879// 91500=
07110,1997-06-21 18:00:00,14,999.4,0.7,82,11,15000,22.224,,,260,11.2,15.9,,0,,,,,,1,wg-a,,,,AAXX 21184 07110 02465 52612 10140 20110 39878 49994 53007 60006 70186 85900 91800 333 10159 20112 60007=
07110,1997-06-21 21:00:00,11,1001.2,1.6,94,10,10000,11.112,,,260,,,,1,,,,,,1,wg-a,,,,AAXX 21214 07110 12460 52606 10110 20100 39894 40012 53016 60017 70186 84301 92100=
07110,1997-06-22 00:00:00,11,1002,0.8,94,10,12000,7.408,,,240,,,,,,,,,,3,wg-a,,,,AAXX 22004 07110 12562 52404 10110 20100 39902 40020 51008 60016 70386 84230 90000=
07110,1997-06-22 03:00:00,11,1002,-0,94,10,15000,14.816,,,270,,,,0,,,,,,25,wg-a,,,,AAXX 22034 07110 12465 32708 10110 20100 39902 40020 55000 60007 72586 83900 90300=
07110,1997-06-22 06:00:00,12,1002.5,0.6,94,11,15000,14.816,,,270,10.3,14.4,,,,,3,,,1,wg-a,,,,AAXX 22064 07110 02465 /2708 10120 20110 39908 40025 52006 60006 70186 86800 90600 333 10144 20103 60034=
07110,1997-06-22 09:00:00,14,1004.2,1.7,82,11,15000,22.224,,,290,,,,,,,,,,,wg-a,,,,AAXX 22094 07110 12565 /2912 10140 20110 39925 40042 53017 60006 86800 90900=
07110,1997-06-22 12:00:00,15,1005.6,1.5,72,10,20000,22.224,,,280,,,,,,,,,,,wg-a,,,,AAXX 22124 07110 12570 72812 10150 20100 39940 40056 51015 60006 878// 91200=
07110,1997-06-22 15:00:00,16,1006.9,1.3,72,11,20000,22.224,,,270,,,,,,,,,,,wg-a,,,,AAXX 22154 07110 12570 /2712 10160 20110 39953 40069 52013 60006 86800 91500=
07110,1997-06-22 18:00:00,15,1008.5,1.5,82,12,20000,18.52,,,280,12.3,16.6,,,,,,,,,wg-a,,,,AAXX 22184 07110 12570 72810 10150 20120 39968 40085 53015 60006 872// 91800 333 10166 20123=
07110,1997-06-22 21:00:00,14,1010.3,1.7,88,12,8000,14.816,,,290,,,,,,,,,,,wg-a,,,,AAXX 22214 07110 12458 72908 10140 20120 39985 40103 53017 60006 872// 92100=
07110,1997-06-23 00:00:00,13,1011.4,1.1,94,12,12000,11.112,,,280,,,,,,,,,,,wg-a,,,,AAXX 23004 07110 12262 72806 10130 20120 39996 40114 51011 60006 876// 90000=
07110,1997-06-23 03:00:00,13,1011.4,0,100,13,12000,14.816,,,290,,,,,,,,,,,wg-a,,,,AAXX 23034 07110 12262 72908 10130 20130 39996 40114 50000 60006 876// 90300=
07110,1997-06-23 06:00:00,13,1012.8,1.4,100,13,4000,18.52,,,300,12.6,14.9,,,,,,,,61,wg-a,,,,AAXX 23064 07110 02340 83010 10130 20130 30010 40128 53014 61000 76162 875// 90600 333 10149 20126 6001=
07110,1997-06-23 09:00:00,15,1014.9,2.1,82,12,10000,22.224,,,310,,,,0,,,,,,25,wg-a,,,,AAXX 23094 07110 12460 73112 10150 20120 30031 40149 53021 60007 72586 878// 90900=
07110,1997-06-23 12:00:00,16,1016.4,1.5,72,11,20000,22.224,,,310,,,,,,,,,,1,wg-a,,,,AAXX 23124 07110 12570 73112 10160 20110 30046 40164 51015 60016 70186 878// 91200=
07110,1997-06-23 15:00:00,16,1017.1,0.8,72,11,25000,22.224,,,300,,,,,,,,,,,wg-a,,,,AAXX 23154 07110 12575 73012 10160 20110 30054 40171 51008 60006 878// 91500=
07110,1997-06-23 18:00:00,15,1017.7,0.5,77,11,25000,18.52,,,310,13.3,16.6,,,,,,,,,wg-a,,,,AAXX 23184 07110 12575 73110 10150 20110 30059 40177 51005 60006 878// 91800 333 10166 20133=
07110,1997-06-23 21:00:00,13,1018.9,1.1,88,11,25000,7.408,,,290,,,,,,,,,,,wg-a,,,,AAXX 23214 07110 12475 72904 10130 20110 30070 40189 53011 60006 878// 92100=
07110,1997-06-24 00:00:00,13,1019.5,0.6,94,12,7000,11.112,,,280,,,,,,,,,,20,wg-a,,,,AAXX 24004 07110 02257 72806 10130 20120 30076 40195 51006 61000 72052 875// 90000 333 6100=
07110,1997-06-24 03:00:00,13,1019,-0.5,94,12,10000,7.408,,,270,,,,,,,,,,,wg-a,,,,AAXX 24034 07110 12260 72704 10130 20120 30071 40190 57005 60006 875// 90300=
07110,1997-06-24 06:00:00,13,1019.4,0.4,94,12,15000,7.408,,,280,12.5,14.5,,,,,,,,,wg-a,,,,AAXX 24064 07110 02365 72804 10130 20120 30075 40194 53004 60006 878// 90600 333 10145 20125 60004=
07110,1997-06-24 09:00:00,14,1020.1,0.7,82,11,15000,14.816,,,290,,,,,,,,,,,wg-a,,,,AAXX 24094 07110 12565 82908 10140 20110 30082 40201 51007 60006 878// 90900=
07110,1997-06-24 12:00:00,15,1019.8,-0.2,67,9,15000,11.112,,,260,,,,,,,,,,,wg-a,,,,AAXX 24124 07110 12565 82606 10150 20090 30080 40198 55002 60006 878// 91200=
07110,1997-06-24 15:00:00,15,1018.8,-1,67,9,15000,14.816,,,260,,,,,,,,,,,wg-a,,,,AAXX 24154 07110 12565 72608 10150 20090 30070 40188 57010 60006 878// 91500=
07110,1997-06-24 18:00:00,15,1017.7,-1.1,72,10,20000,14.816,,,250,12.9,16.1,,,,,,,,,wg-a,,,,AAXX 24184 07110 12570 72508 10150 20100 30059 40177 57011 60006 878// 91800 333 10161 20129=
07110,1997-06-24 21:00:00,14,1016,-1.7,82,11,15000,14.816,,,210,,,,,,,,,,,wg-a,,,,AAXX 24214 07110 12765 82108 10140 20110 30042 40160 56017 60006 8757/ 92100=
07110,1997-06-25 00:00:00,13,1013.1,-2.9,88,11,8000,18.52,,,200,,,,0,,,,,,61,wg-a,,,,AAXX 25004 07110 02258 82010 10130 20110 30013 40131 58029 60006 76162 875// 90000 333 60007=
07110,1997-06-25 06:00:00,13,1005.3,-3.8,100,13,1700,31.484,,61.116,200,13.2,14.9,,,,,,,,63,wg-a,,,,AAXX 25064 07110 02117 82017 10130 20130 39936 40053 58038 61000 76366 887// 90600 333 10149 20132 6012 91033=
07110,1997-06-25 09:00:00,15,1003.2,-2,88,13,10000,18.52,,,250,,,,4,,,,,,3,wg-a,,,,AAXX 25094 07110 12460 72510 10150 20130 39916 40032 56020 60047 70362 878// 90900=
07110,1997-06-25 12:00:00,15,1002.7,-0.5,88,13,20000,22.224,,,260,,,,0,,,,,,25,wg-a,,,,AAXX 25124 07110 02470 72612 10150 20130 39911 40027 58005 60046 72586 878// 91200 333 60007=
07110,1997-06-25 15:00:00,15,1002.4,-0.3,88,13,10000,22.224,,,260,,,,1,,,,,,21,wg-a,,,,AAXX 25154 07110 12460 72612 10150 20130 39908 40024 58003 60017 72162 878// 91500=
07110,1997-06-25 18:00:00,14,1002.3,-0.2,88,12,8000,22.224,,,270,13.3,15.4,,,,,,,,21,wg-a,,,,AAXX 25184 07110 02358 82712 10140 20120 39906 40023 56002 61000 72162 877// 91800 333 10154 20133 6000=
07110,1997-06-25 21:00:00,13,1001.7,-0.6,100,13,8000,22.224,,,270,,,,1,,,,,,51,wg-a,,,,AAXX 25214 07110 12358 82712 10130 20130 39900 40017 56006 60017 75165 877// 92100=
07110,1997-06-26 00:00:00,14,1000.6,-1,94,13,9000,18.52,,37.04,290,,,,0,,,,,,50,wg-a,,,,AAXX 26004 07110 02259 82910 10140 20130 39890 40006 56010 60016 75065 877// 90000 333 60007 91020=
07110,1997-06-26 03:00:00,13,999.8,-0.9,94,12,10000,22.224,,,310,,,,0,,,,,,20,wg-a,,,,AAXX 26034 07110 12360 83112 10130 20120 39881 49998 58009 60007 72052 887// 90300=
07110,1997-06-26 06:00:00,13,1000.4,0.6,88,11,10000,29.632,,51.856,320,12.4,13.8,,,,,6,,,3,wg-a,,,,AAXX 26064 07110 02460 83216 10130 20110 39887 40004 53006 60006 70352 875// 90600 333 10138 20124 60064 91028=
07110,1997-06-26 12:00:00,12,1000.5,0.2,88,10,15000,31.484,,55.56,330,,,,1,,,,,,21,wg-a,,,,AAXX 26124 07110 02465 83317 10120 20100 39888 40005 53002 60016 72186 878// 91200 333 60017 91030=
07110,1997-06-26 15:00:00,10,1001.1,0.5,93,9,6000,29.632,,55.56,330,,,,11,,,,,,61,wg-a,,,,AAXX 26154 07110 12256 83316 10100 20090 39893 40011 51005 60117 76166 875// 91500 333 91030=
07110,1997-06-26 18:00:00,10,1001.5,0.4,93,9,6000,31.484,,53.708,330,9.4,13.2,,,,,,,,61,wg-a,,,,AAXX 26184 07110 02256 83317 10100 20090 39897 40015 52004 61000 76166 885// 91800 333 10132 20094 6009 91029=
07110,1997-06-26 21:00:00,10,1001.5,-0,93,9,4000,25.928,,50.004,330,,,,8,,,,,,63,wg-a,,,,AAXX 26214 07110 12440 83314 10100 20090 39897 40015 55000 60087 76366 885// 92100 333 91027=
07110,1997-06-27 00:00:00,10,1001.7,0.2,100,10,500,25.928,,,340,,,,5,,,,,,,wg-a,,,,AAXX 27004 07110 02/00 /3414 10100 20100 39899 40017 51002 60136 90000 333 60057=
07110,1997-06-27 03:00:00,10,1001.1,-0.6,93,9,500,25.928,,46.3,350,,,,4,,,,,,63,wg-a,,,,AAXX 27034 07110 12200 83514 10100 20090 39893 40011 56006 60047 76366 877// 90300 333 91025=
07110,1997-06-27 06:00:00,11,1001.1,-0,94,10,6000,18.52,,,350,10.1,10.6,,,,,,,,60,wg-a,,,,AAXX 27064 07110 02256 83510 10110 20100 39893 40011 54000 61000 76065 885// 90600 333 10106 20101 6041=
07110,1997-06-27 09:00:00,11,1002,0.9,94,10,500,18.52,,,350,,,,,,,,,,,wg-a,,,,AAXX 27094 07110 32/00 /3510 10110 20100 39902 40020 52009 90900=
07110,1997-06-27 12:00:00,11,1003.1,1.1,94,10,500,22.224,,,360,,,,1,,,,,,50,wg-a,,,,AAXX 27124 07110 02200 83612 10110 20100 39913 40031 53011 60016 75065 877// 91200 333 60017=
07110,1997-06-27 18:00:00,11,1003.8,0.3,100,11,3000,22.224,,,350,10.6,11.7,,,,,,,,51,wg-a,,,,AAXX 27184 07110 02230 83512 10110 20110 39920 40038 51003 61000 75165 885// 91800 333 10117 20106 6003=
07110,1997-06-27 21:00:00,12,1004.7,0.9,94,11,3000,18.52,,,340,,,,,,,,,,,wg-a,,,,AAXX 27214 07110 32/30 /3410 10120 20110 39929 40047 53009 92100=
07110,1997-06-28 00:00:00,12,1004.4,-0.3,94,11,4000,18.52,,,340,,,,1,,,,,,21,wg-a,,,,AAXX 28004 07110 02340 83410 10120 20110 39926 40044 58003 60036 72165 885// 90000 333 60017=
07110,1997-06-28 06:00:00,11,1005.3,0.7,100,11,500,7.408,,,20,11.3,12.2,,,,,,,,20,wg-a,,,,AAXX 28064 07110 02200 80204 10110 20110 39935 40053 53007 61000 72052 885// 90600 333 10122 20113 6009=
07110,1997-06-28 09:00:00,13,1006,0.7,88,11,3500,14.816,,,360,,,,,,,,,,10,wg-a,,,,AAXX 28094 07110 32/35 /3608 10130 20110 39942 40060 51007 710// 90900=
07110,1997-06-28 12:00:00,14,1007.3,1.4,77,10,20000,11.112,,,350,,,,,,,,,,3,wg-a,,,,AAXX 28124 07110 12470 73506 10140 20100 39956 40073 53014 60006 70352 878// 91200=
07110,1997-06-28 15:00:00,14,1007.5,0.2,77,10,20000,14.816,,,330,,,,,,,,,,,wg-a,,,,AAXX 28154 07110 12470 73308 10140 20100 39958 40075 51002 60006 878// 91500=
07110,1997-06-28 18:00:00,13,1007.8,0.2,88,11,20000,11.112,,,340,11.4,15.1,,,,,,,,,wg-a,,,,AAXX 28184 07110 12470 73406 10130 20110 39960 40078 52002 60006 878// 91800 333 10151 20114=
07110,1997-06-28 21:00:00,11,1008.8,1,94,10,15000,3.704,,,10,,,,,,,,,,,wg-a,,,,AAXX 28214 07110 12465 70102 10110 20100 39970 40088 53010 60006 878// 92100=
07110,1997-06-29 00:00:00,11,1007.9,-0.9,100,11,10000,7.408,,,290,,,,,,,,,,,wg-a,,,,AAXX 29004 07110 12260 72904 10110 20110 39961 40079 58009 60006 866// 90000=
07110,1997-06-29 03:00:00,12,1006.7,-1.2,94,11,10000,0,,,0,,,,,,,,,,,wg-a,,,,AAXX 29034 07110 12160 70000 10120 20110 39949 40067 57012 60006 866// 90300=
07110,1997-06-29 06:00:00,12,1006.8,0.1,100,12,10000,0,,,0,10.9,13.1,,,,,,,,,wg-a,,,,AAXX 29064 07110 02460 80000 10120 20120 39950 40068 52001 60006 875// 90600 333 10131 20109 60004=
07110,1997-06-29 09:00:00,15,1006.9,0.2,82,12,15000,7.408,,,30,,,,,,,,,,,wg-a,,,,AAXX 29094 07110 12465 70304 10150 20120 39952 40069 50002 60006 878// 90900=
07110,1997-06-29 12:00:00,16,1007,0.2,72,11,11000,7.408,,,40,,,,,,,,,,,wg-a,,,,AAXX 29124 07110 12/61 /0404 10160 20110 39954 40070 53002 60006 91200=
07110,1997-06-29 15:00:00,16,1006.7,-0.3,77,12,15000,14.816,,,10,,,,,,,,,,,wg-a,,,,AAXX 29154 07110 12565 /0108 10160 20120 39951 40067 56003 60006 86800 91500=
07110,1997-06-29 18:00:00,15,1007.6,0.8,77,11,25000,14.816,,,30,12,17.2,,,,,,,,,wg-a,,,,AAXX 29184 07110 12475 50308 10150 20110 39959 40076 53008 60006 85800 91800 333 10172 20120=
07110,1997-06-29 21:00:00,13,1008.2,0.5,88,11,20000,7.408,,,340,,,,,,,,,,,wg-a,,,,AAXX 29214 07110 12770 73404 10130 20110 39964 40082 53005 60006 83532 92100=
07110,1997-06-30 00:00:00,13,1007.7,-0.5,94,12,15000,3.704,,,320,,,,,,,,,,,wg-a,,,,AAXX 30004 07110 12565 73202 10130 20120 39959 40077 58005 60006 86802 90000=
07110,1997-06-30 03:00:00,13,1006.8,-0.8,100,13,6000,7.408,,,320,,,,,,,,,,,wg-a,,,,AAXX 30034 07110 12256 83204 10130 20130 39951 40068 57008 60006 875// 90300=
07110,1997-06-30 06:00:00,13,1007.3,0.5,100,13,3000,7.408,,,340,12.4,14.9,,,,,,,,10,wg-a,,,,AAXX 30064 07110 02230 83404 10130 20130 39956 40073 53005 60006 71022 875// 90600 333 10149 20124 60004=
07110,1997-06-30 09:00:00,14,1007.9,0.6,88,12,500,14.816,,,320,,,,,,,,,,,wg-a,,,,AAXX 30094 07110 12400 83208 10140 20120 39962 40079 52006 60006 875// 90900=
07110,1997-06-30 12:00:00,16,1008.7,0.8,77,12,10000,14.816,,,310,,,,,,,,,,,wg-a,,,,AAXX 30124 07110 12460 73108 10160 20120 39970 40087 51008 60006 878// 91200=
07110,1997-06-30 15:00:00,15,1008.7,0,82,12,10000,14.816,,,300,,,,,,,,,,,wg-a,,,,AAXX 30154 07110 12460 73008 10150 20120 39970 40087 50000 60006 878// 91500=
07110,1997-06-30 18:00:00,14,1008.9,0.1,88,12,10000,14.816,,,310,13.1,15.9,,,,,,,,25,wg-a,,,,AAXX 30184 07110 02360 73108 10140 20120 39971 40089 53001 61000 72586 878// 91800 333 10159 20131 6000=
07110,1997-06-30 21:00:00,12,1009.4,0.5,88,10,10000,11.112,,,300,,,,,,,,,,,wg-a,,,,AAXX 30214 07110 12660 73006 10120 20100 39976 40094 53005 60006 875// 92100=
07110,1997-07-01 00:00:00,11,1009.2,-0.3,94,10,12000,3.704,,,230,,,,,,,,,,,wg-a,,,,AAXX 01004 07110 12462 72302 10110 20100 39973 40092 58003 60006 878// 90000=
07110,1997-07-01 03:00:00,12,1008.1,-1,94,11,15000,14.816,,,260,,,,,,,,,,3,wg-a,,,,AAXX 01034 07110 02365 72608 10120 20110 39963 40081 56010 61000 70386 878// 90300 333 ////=
07110,1997-07-01 06:00:00,13,1007.6,-0.5,94,12,3000,11.112,,,230,11.3,13.5,,,,,,,,80,wg-a,,,,AAXX 01064 07110 02330 72306 10130 20120 39958 40076 55005 61000 78086 8693/ 90600 333 10135 20113 6000=
07110,1997-07-01 12:00:00,15,1007.9,0.1,63,8,15000,7.408,,,300,,,,,,,,,,1,wg-a,,,,AAXX 01124 07110 12565 73004 10150 20080 39962 40079 52001 60016 70186 85830 91200=
07110,1997-07-01 15:00:00,15,1008,0.1,67,9,15000,18.52,,,310,,,,,,,,,,,wg-a,,,,AAXX 01154 07110 12565 73110 10150 20090 39963 40080 52001 60006 878// 91500=
07110,1997-07-01 18:00:00,14,1008.3,0.3,72,9,15000,14.816,,,330,11.2,15.8,,,,,,,,,wg-a,,,,AAXX 01184 07110 12565 53308 10140 20090 39966 40083 52003 60006 85800 91800 333 10158 20112=
07110,1997-07-01 21:00:00,11,1009.5,1,82,8,15000,7.408,,,280,,,,,,,,,,,wg-a,,,,AAXX 01214 07110 12465 42804 10110 20080 39976 40095 53010 60006 84800 92100=
07110,1997-07-02 00:00:00,9,1009.4,-0.2,93,8,15000,7.408,,,230,,,,,,,,,,,wg-a,,,,AAXX 02004 07110 12465 42304 10090 20080 39974 40094 58002 60006 84800 90000=
07110,1997-07-02 03:00:00,10,1008,-1.3,93,9,15000,7.408,,,230,,,,,,,,,,,wg-a,,,,AAXX 02034 07110 12565 42304 10100 20090 39961 40080 56013 60006 84800 90300=
07110,1997-07-02 06:00:00,11,1007.5,-0.5,94,10,12000,3.704,,,240,8.8,14.3,,,,,1,,,,wg-a,,,,AAXX 02064 07110 02462 72402 10110 20100 39956 40075 56005 60006 8687/ 90600 333 10143 20088 60014=
07110,1997-07-02 09:00:00,11,1007.7,0.3,94,10,8000,11.112,,,290,,,,2,,,,,,62,wg-a,,,,AAXX 02094 07110 12358 82906 10110 20100 39959 40077 52003 60027 76262 878// 90900=
07110,1997-07-02 12:00:00,13,1008,0.3,82,10,12000,18.52,,,250,,,,2,,,,,,21,wg-a,,,,AAXX 02124 07110 02462 72510 10130 20100 39962 40080 51003 60046 72162 8787/ 91200 333 60027=
07110,1997-07-02 15:00:00,13,1008.2,0.2,82,10,15000,22.224,,,270,,,,1,,,,,,,wg-a,,,,AAXX 02154 07110 12465 /2712 10130 20100 39964 40082 53002 60017 86800 91500=
07110,1997-07-02 18:00:00,13,1009.2,1,77,9,15000,18.52,,,270,10.6,13.6,,,,,,,,,wg-a,,,,AAXX 02184 07110 12565 72710 10130 20090 39974 40092 53010 60006 8687/ 91800 333 10136 20106=
07110,1997-07-02 21:00:00,11,1010.3,1,87,9,15000,14.816,,,220,,,,,,,,,,,wg-a,,,,AAXX 02214 07110 12465 /2208 10110 20090 39984 40103 52010 60006 85830 92100=
07110,1997-07-03 00:00:00,11,1010,-0.3,87,9,15000,11.112,,,230,,,,,,,,,,,wg-a,,,,AAXX 03004 07110 12765 62306 10110 20090 39981 40100 58003 60006 85530 90000=
07110,1997-07-03 03:00:00,11,1009.7,-0.3,87,9,15000,11.112,,,240,,,,,,,,,,,wg-a,,,,AAXX 03034 07110 12665 /2406 10110 20090 39978 40097 57003 60006 85530 90300=
07110,1997-07-03 06:00:00,11,1010.2,0.5,87,9,15000,11.112,,,230,10.7,12.8,,,,,5,,,,wg-a,,,,AAXX 03064 07110 02465 72306 10110 20090 39983 40102 53005 60006 878// 90600 333 10128 20107 60054=
07110,1997-07-03 09:00:00,13,1010.8,0.7,88,11,7000,11.112,,,240,,,,1,,,,,,25,wg-a,,,,AAXX 03094 07110 12257 72406 10130 20110 39990 40108 51007 60017 72586 878// 90900=
07110,1997-07-03 12:00:00,13,1011.3,0.5,94,12,500,18.52,,,230,,,,1,,,,,,62,wg-a,,,,AAXX 03124 07110 02500 72310 10130 20120 39995 40113 53005 60026 76286 878// 91200 333 60017=
07110,1997-07-03 15:00:00,14,1012.1,0.8,82,11,10000,18.52,,,270,,,,3,,,,,,1,wg-a,,,,AAXX 03154 07110 12460 72710 10140 20110 30003 40121 53008 60037 70162 878// 91500=
07110,1997-07-03 18:00:00,13,1012.6,0.5,88,11,12000,11.112,,,260,11.3,14.3,,,,,,,,1,wg-a,,,,AAXX 03184 07110 12562 72606 10130 20110 30008 40126 53005 60006 70162 878// 91800 333 10143 20113=
07110,1997-07-03 21:00:00,11,1013.9,1.2,94,10,15000,3.704,,,240,,,,,,,,,,,wg-a,,,,AAXX 03214 07110 12465 42402 10110 20100 30020 40139 52012 60006 84800 92100=
07110,1997-07-04 00:00:00,10,1015.2,1.2,93,9,15000,3.704,,,240,,,,0,,,,,,,wg-a,,,,AAXX 04004 07110 02665 /2402 10100 20090 30032 40152 51012 60006 86500 90000 333 60007=
07110,1997-07-04 06:00:00,12,1016.8,1.3,94,11,2000,7.408,,,250,9.3,13.1,,,,,5,,,28,wg-a,,,,AAXX 04064 07110 02220 72504 10120 20110 30049 40168 53013 60006 72841 875// 90600 333 10131 20093 60054=
07110,1997-07-04 09:00:00,14,1018.2,1.5,94,13,500,18.52,,,300,,,,1,,,,,,2,wg-a,,,,AAXX 04094 07110 12400 73010 10140 20130 30064 40182 51015 60017 70286 875// 90900=
07110,1997-07-04 12:00:00,16,1019.8,1.6,82,13,15000,18.52,,,320,,,,,,,,,,3,wg-a,,,,AAXX 04124 07110 12465 73210 10160 20130 30080 40198 53016 60016 70386 878// 91200=
07110,1997-07-04 15:00:00,17,1021.2,1.4,77,13,15000,18.52,,,320,,,,,,,,,,,wg-a,,,,AAXX 04154 07110 12465 /3210 10170 20130 30094 40212 52014 60006 86800 91500=
07110,1997-07-04 18:00:00,15,1022.4,1.1,82,12,15000,18.52,,,320,11.6,16.9,,,,,,,,,wg-a,,,,AAXX 04184 07110 12465 /3210 10150 20120 30105 40224 53011 60006 86800 91800 333 10169 20116=
07110,1997-07-04 21:00:00,13,1024.4,1.9,88,11,12000,11.112,,,320,,,,,,,,,,,wg-a,,,,AAXX 04214 07110 12462 /3206 10130 20110 30124 40244 53019 60006 86201 92100=
07110,1997-07-05 00:00:00,12,1025.6,1.2,94,11,10000,7.408,,,300,,,,,,,,,,,wg-a,,,,AAXX 05004 07110 12460 /3004 10120 20110 30136 40256 51012 60006 86500 90000=
07110,1997-07-05 06:00:00,13,1027.2,1.1,94,12,10000,7.408,,,300,11.5,14.9,,,,,1,,,,wg-a,,,,AAXX 05064 07110 02260 /3004 10130 20120 30152 40272 53011 60006 86500 90600 333 10149 20115 60014=
07110,1997-07-05 09:00:00,16,1027.9,0.8,82,13,15000,11.112,,,290,,,,,,,,,,,wg-a,,,,AAXX 05094 07110 12465 /2906 10160 20130 30160 40279 52008 60006 85100 90900=
07110,1997-07-05 12:00:00,18,1028.7,0.9,64,11,20000,18.52,,,310,,,,,,,,,,,wg-a,,,,AAXX 05124 07110 12570 /3110 10180 20110 30169 40287 51009 60006 81100 91200=
07110,1997-07-05 15:00:00,18,1029.2,0.5,73,13,20000,18.52,,,320,,,,,,,,,,,wg-a,,,,AAXX 05154 07110 12570 23210 10180 20130 30174 40292 52005 60006 82100 91500=
07110,1997-07-05 18:00:00,16,1029.7,0.4,82,13,20000,14.816,,,320,12.6,18.4,,,,,,,,,wg-a,,,,AAXX 05184 07110 12570 /3208 10160 20130 30178 40297 51004 60006 81100 91800 333 10184 20126=
07110,1997-07-05 21:00:00,13,1031.1,1.3,94,12,15000,3.704,,,310,,,,,,,,,,,wg-a,,,,AAXX 05214 07110 12/65 03102 10130 20120 30191 40311 53013 60006 80000 92100=
07110,1997-07-06 00:00:00,11,1031.7,0.5,94,10,10000,3.704,,,310,,,,,,,,,,,wg-a,,,,AAXX 06004 07110 12/60 03102 10110 20100 30196 40317 51005 60006 80000 90000=
07110,1997-07-06 03:00:00,11,1031.3,-0.4,94,10,6000,3.704,,,340,,,,0,,,,,,28,wg-a,,,,AAXX 06034 07110 12356 /3402 10110 20100 30192 40313 57004 60007 72841 85600 90300=
07110,1997-07-06 06:00:00,12,1031.5,0.2,100,12,1000,3.704,,,330,10.1,16.4,,,,,,,,10,wg-a,,,,AAXX 06064 07110 02210 43302 10120 20120 30194 40315 52002 60006 71041 84600 90600 333 10164 20101 60004=
07110,1997-07-06 09:00:00,15,1031.5,0.2,88,13,12000,3.704,,,30,,,,,,,,,,1,wg-a,,,,AAXX 06094 07110 12462 /0302 10150 20130 30196 40315 50002 60006 70141 85200 90900=
07110,1997-07-06 12:00:00,20,1030.9,-0.4,60,12,20000,7.408,,,10,,,,,,,,,,2,wg-a,,,,AAXX 06124 07110 12470 20104 10200 20120 30192 40309 58004 60006 70241 82200 91200=
07110,1997-07-06 15:00:00,21,1030.4,-0.5,73,16,25000,14.816,,,350,,,,,,,,,,,wg-a,,,,AAXX 06154 07110 12575 43508 10210 20160 30187 40304 56005 60006 84200 91500=
07110,1997-07-06 18:00:00,19,1030.5,-0,73,14,20000,14.816,,,350,12.1,21.2,,,,,,,,,wg-a,,,,AAXX 06184 07110 12/70 03508 10190 20140 30187 40305 54000 60006 80000 91800 333 10212 20121=
07110,1997-07-06 21:00:00,15,1031,0.4,94,14,20000,3.704,,,360,,,,,,,,,,,wg-a,,,,AAXX 06214 07110 12/70 03602 10150 20140 30191 40310 53004 60006 80000 92100=
07110,1997-07-07 00:00:00,14,1030.7,-0.4,94,13,9000,3.704,,,30,,,,,,,,,,,wg-a,,,,AAXX 07004 07110 12/59 00302 10140 20130 30187 40307 57004 60006 80000 90000=
07110,1997-07-07 03:00:00,12,1029.9,-0.9,94,11,12000,7.408,,,10,,,,0,,,,,,,wg-a,,,,AAXX 07034 07110 12/62 10104 10120 20110 30178 40299 57009 60007 80001 90300=
07110,1997-07-07 06:00:00,14,1029.7,-0.1,94,13,12000,7.408,,,20,11.8,19.4,,,,,,,,,wg-a,,,,AAXX 07064 07110 02/62 10204 10140 20130 30177 40297 56001 60006 80001 90600 333 10194 20118 60004=
07110,1997-07-07 09:00:00,19,1028.8,,78,15,20000,11.112,,,30,,,,,,,,,,,wg-a,,,,AAXX 07094 07110 32/70 10306 10190 20150 30171 40288 80001 90900=
07110,1997-07-07 12:00:00,22,1028.2,-0.5,65,15,25000,14.816,,,360,,,,,,,,,,,wg-a,,,,AAXX 07124 07110 12575 /3608 10220 20150 30166 40282 57005 60006 81101 91200=
07110,1997-07-07 15:00:00,21,1027.4,,60,13,25000,18.52,,,20,,,,,,,,,,,wg-a,,,,AAXX 07154 07110 12/75 10210 10210 20130 30157 40274 60006 80001 91500=
07110,1997-07-07 18:00:00,19,1026.5,-0.9,73,14,25000,14.816,,,20,13.9,21.6,,,,,,,,,wg-a,,,,AAXX 07184 07110 12/75 10208 10190 20140 30148 40265 56009 60006 80001 91800 333 10216 20139=
07110,1997-07-07 21:00:00,15,1026.7,-0,82,12,15000,11.112,,,20,,,,,,,,,,,wg-a,,,,AAXX 07214 07110 12/65 10206 10150 20120 30148 40267 55000 60006 80001 92100=
07110,1997-07-08 00:00:00,13,1026.3,-0.5,94,12,8000,7.408,,,20,,,,,,,,,,,wg-a,,,,AAXX 08004 07110 12/58 /0204 10130 20120 30143 40263 58005 60006 80001 90000=
07110,1997-07-08 06:00:00,14,1024.5,-0.3,94,13,6000,11.112,,,50,12.2,19.1,,,,,,,,,wg-a,,,,AAXX 08064 07110 02/56 00506 10140 20130 30126 40245 56003 60006 80000 90600 333 10191 20122 60004=
07110,1997-07-08 09:00:00,22,1023.7,-0.5,73,17,15000,7.408,,,80,,,,,,,,,,,wg-a,,,,AAXX 08094 07110 12/65 00804 10220 20170 30121 40237 57005 60006 80000 90900=
07110,1997-07-08 12:00:00,25,1022.4,-1.1,65,18,15000,14.816,,,10,,,,,,,,,,,wg-a,,,,AAXX 08124 07110 12665 40108 10250 20180 30110 40224 58011 60006 84100 91200=
07110,1997-07-08 15:00:00,25,1021,-1.4,57,16,15000,22.224,,,30,,,,,,,,,,,wg-a,,,,AAXX 08154 07110 12665 30312 10250 20160 30096 40210 58014 60006 83100 91500=
07110,1997-07-08 18:00:00,23,1020.3,-0.8,65,16,15000,22.224,,,40,14,25.4,,,,,,,,,wg-a,,,,AAXX 08184 07110 12665 /0412 10230 20160 30088 40203 56008 60006 81100 91800 333 10254 20140=
07110,1997-07-08 21:00:00,18,1020.6,0.1,83,15,12000,11.112,,,40,,,,,,,,,,,wg-a,,,,AAXX 08214 07110 12/62 00406 10180 20150 30089 40206 50001 60006 80000 92100=
07110,1997-07-09 00:00:00,15,1020.5,-0.2,94,14,10000,7.408,,,40,,,,,,,,,,,wg-a,,,,AAXX 09004 07110 12/60 00404 10150 20140 30087 40205 58002 60006 80000 90000=
07110,1997-07-09 03:00:00,14,1019.5,-1,94,13,8000,7.408,,,40,,,,,,,,,,,wg-a,,,,AAXX 09034 07110 12/58 00404 10140 20130 30077 40195 56010 60006 80000 90300=
07110,1997-07-09 06:00:00,15,1019.5,-0,94,14,7000,11.112,,,40,13.9,22.6,,,,,,,,,wg-a,,,,AAXX 09064 07110 02/57 00406 10150 20140 30077 40195 55000 60006 80000 90600 333 10226 20139 60004=
07110,1997-07-09 12:00:00,24,1018,-0.8,57,15,10000,18.52,,,40,,,,,,,,,,,wg-a,,,,AAXX 09124 07110 12760 20410 10240 20150 30066 40180 56008 60006 81101 91200=
07110,1997-07-09 15:00:00,24,1017,-1,57,15,10000,22.224,,,40,,,,,,,,,,,wg-a,,,,AAXX 09154 07110 12/60 00412 10240 20150 30056 40170 56010 60006 80000 91500=
07110,1997-07-09 18:00:00,21,1016.4,-0.7,64,14,10000,18.52,,,50,15.4,24,,,,,,,,,wg-a,,,,AAXX 09184 07110 12/60 00510 10210 20140 30049 40164 56007 60006 80000 91800 333 10240 20154=
07110,1997-07-09 21:00:00,16,1016.7,0.1,88,14,10000,11.112,,,40,,,,,,,,,,,wg-a,,,,AAXX 09214 07110 12/60 00406 10160 20140 30050 40167 53001 60006 80000 92100=
07110,1997-07-10 00:00:00,14,1016.4,-0.4,94,13,10000,11.112,,,40,,,,,,,,,,,wg-a,,,,AAXX 10004 07110 12/60 00406 10140 20130 30046 40164 58004 60006 80000 90000=
07110,1997-07-10 03:00:00,13,1015.3,-1.1,100,13,7000,7.408,,,40,,,,,,,,,,,wg-a,,,,AAXX 10034 07110 32/57 00404 10130 20130 30035 40153 57011 80000 90300=
07110,1997-07-10 06:00:00,15,1014.8,-0.5,94,14,4000,7.408,,,60,13.3,21.1,,,,,,,,10,wg-a,,,,AAXX 10064 07110 02740 20604 10150 20140 30030 40148 55005 60006 71000 82500 90600 333 10211 20133 60004=
07110,1997-07-10 09:00:00,21,1014.6,0.1,73,16,10000,3.704,,,120,,,,,,,,,,,wg-a,,,,AAXX 10094 07110 12660 /1202 10210 20160 30031 40146 53001 60006 85801 90900=
07110,1997-07-10 12:00:00,24,1014,-0.5,61,16,10000,11.112,,,270,,,,,,,,,,,wg-a,,,,AAXX 10124 07110 12660 /2706 10240 20160 30026 40140 57005 60006 86800 91200=
07110,1997-07-10 15:00:00,24,1013.9,-0.1,65,17,10000,7.408,,,310,,,,,,,,,,,wg-a,,,,AAXX 10154 07110 12560 73104 10240 20170 30025 40139 57001 60006 875// 91500=
07110,1997-07-10 18:00:00,23,1013.9,-0,65,16,10000,7.408,,,20,15,24.4,,,,,,,,,wg-a,,,,AAXX 10184 07110 12560 40204 10230 20160 30025 40139 54000 60006 83202 91800 333 10244 20150=
07110,1997-07-11 00:00:00,14,1015.5,0.3,94,13,300,11.112,,,280,,,,,,,,,,44,wg-a,,,,AAXX 11004 07110 12003 82806 10140 20130 30037 40155 51003 60006 74441 886// 90000=
07110,1997-07-11 03:00:00,14,1015.6,0.1,100,14,2000,7.408,,,290,,,,,,,,,,28,wg-a,,,,AAXX 11034 07110 12120 82904 10140 20140 30038 40156 50001 60006 72842 886// 90300=
07110,1997-07-11 06:00:00,15,1016.3,0.7,94,14,4000,3.704,,,290,13.8,22.5,,,,,,,,10,wg-a,,,,AAXX 11064 07110 02340 82902 10150 20140 30045 40163 53007 60006 71042 886// 90600 333 10225 20138 60004=
07110,1997-07-11 12:00:00,18,1017,0.6,73,13,20000,11.112,,,240,,,,,,,,,,,wg-a,,,,AAXX 11124 07110 12570 72406 10180 20130 30054 40170 53006 60006 875// 91200=
07110,1997-07-11 15:00:00,19,1017,0,73,14,20000,14.816,,,250,,,,,,,,,,,wg-a,,,,AAXX 11154 07110 12570 /2508 10190 20140 30054 40170 50000 60006 86500 91500=
07110,1997-07-11 18:00:00,18,1016.4,-0.6,77,14,15000,11.112,,,220,14.9,19.9,,,,,,,,,wg-a,,,,AAXX 11184 07110 12565 72206 10180 20140 30048 40164 57006 60006 85801 91800 333 10199 20149=
07110,1997-07-11 21:00:00,16,1017.2,0.7,88,14,15000,11.112,,,200,,,,,,,,,,,wg-a,,,,AAXX 11214 07110 12465 72006 10160 20140 30055 40172 52007 60006 84101 92100=
07110,1997-07-12 00:00:00,15,1016.8,-0.5,94,14,15000,7.408,,,200,,,,,,,,,,,wg-a,,,,AAXX 12004 07110 12465 62004 10150 20140 30050 40168 58005 60006 84801 90000=
07110,1997-07-12 03:00:00,15,1015.8,-1,94,14,10000,11.112,,,160,,,,,,,,,,,wg-a,,,,AAXX 12034 07110 12360 71606 10150 20140 30040 40158 56010 60006 8655/ 90300=
07110,1997-07-12 06:00:00,16,1015.5,-0.2,94,15,15000,14.816,,,170,14.6,18.2,,,,,,,,,wg-a,,,,AAXX 12064 07110 02465 61708 10160 20150 30038 40155 57002 60006 85501 90600 333 10182 20146 60004=
07110,1997-07-12 09:00:00,18,1015.3,-0.1,83,15,20000,22.224,,,190,,,,,,,,,,,wg-a,,,,AAXX 12094 07110 12470 61912 10180 20150 30037 40153 57001 60006 85801 90900=
07110,1997-07-12 12:00:00,20,1015.2,-0.1,78,16,20000,25.928,,,200,,,,,,,,,,,wg-a,,,,AAXX 12124 07110 12470 52014 10200 20160 30036 40152 58001 60006 85801 91200=
07110,1997-07-12 15:00:00,18,1015.1,-0.1,88,16,15000,18.52,,,180,,,,1,,,,,,21,wg-a,,,,AAXX 12154 07110 12465 71810 10180 20160 30035 40151 58001 60017 72162 83875 91500=
07110,1997-07-12 18:00:00,18,1014.9,-0.2,88,16,10000,22.224,,,190,15.5,19.8,,,,,,,,3,wg-a,,,,AAXX 12184 07110 12460 81912 10180 20160 30033 40149 56002 60006 70362 8487/ 91800 333 10198 20155=
07110,1997-07-12 21:00:00,17,1015.4,0.4,94,16,500,14.816,,,190,,,,,,,,,,51,wg-a,,,,AAXX 12214 07110 02200 81908 10170 20160 30037 40154 53004 61000 75165 875// 92100 333 ////=
07110,1997-07-13 00:00:00,16,1015.8,0.4,100,16,7000,14.816,,,190,,,,,,,,,,1,wg-a,,,,AAXX 13004 07110 02457 /1908 10160 20160 30041 40158 51004 60086 70165 86500 90000 333 61000=
07110,1997-07-13 03:00:00,16,1015.6,-0.3,100,16,10000,7.408,,,220,,,,7,,,,,,,wg-a,,,,AAXX 13034 07110 12460 /2204 10160 20160 30038 40156 57003 60077 8550/ 90300=
07110,1997-07-13 06:00:00,15,1016.5,,94,14,15000,11.112,,,210,,,,7,,,,,,,wg-a,,,,AAXX 13064 07110 02465 42106 10150 20140 30047 40165 60006 84100 90600 333 60077=
07110,1997-07-13 09:00:00,17,1017.6,,88,15,15000,18.52,,,240,,,,,,,,,,,wg-a,,,,AAXX 13094 07110 12465 42410 10170 20150 30059 40176 60006 84100 90900=
07110,1997-07-13 12:00:00,19,1017.9,0.4,78,15,20000,18.52,,,250,,,,,,,,,,,wg-a,,,,AAXX 13124 07110 12470 42510 10190 20150 30063 40179 53004 60006 83101 91200=
07110,1997-07-13 15:00:00,19,1018.1,0.2,73,14,20000,18.52,,,240,,,,,,,,,,,wg-a,,,,AAXX 13154 07110 12570 52410 10190 20140 30065 40181 53002 60006 84101 91500=
07110,1997-07-13 18:00:00,17,1018.9,0.7,82,14,12000,18.52,,,310,15.1,19.6,,,,,,,,3,wg-a,,,,AAXX 13184 07110 02462 73110 10170 20140 30072 40189 53007 60006 70351 878// 91800 333 10196 20151 61000=
07110,1997-07-13 21:00:00,15,1020.5,1.5,88,13,15000,11.112,,,310,,,,,,,,,,,wg-a,,,,AAXX 13214 07110 12465 73106 10150 20130 30087 40205 53015 60006 878// 92100=
07110,1997-07-14 00:00:00,12,1021.2,0.6,94,11,15000,7.408,,,290,,,,,,,,,,,wg-a,,,,AAXX 14004 07110 12/65 02904 10120 20110 30093 40212 51006 60006 80000 90000=
07110,1997-07-14 03:00:00,12,1021.3,0.1,100,12,10000,7.408,,,290,,,,,,,,,,,wg-a,,,,AAXX 14034 07110 12660 32904 10120 20120 30094 40213 53001 60006 83500 90300=
07110,1997-07-14 06:00:00,12,1022.3,0.9,94,11,20000,3.704,,,230,11.1,16.8,,,,,,,,,wg-a,,,,AAXX 14064 07110 02770 52302 10120 20110 30103 40223 53009 60006 815/1 90600 333 10168 20111 61000=
07110,1997-07-14 09:00:00,16,1022.7,0.6,77,12,20000,11.112,,,310,,,,,,,,,,,wg-a,,,,AAXX 14094 07110 12470 /3106 10160 20120 30109 40227 52006 60006 85801 90900=
07110,1997-07-14 12:00:00,17,1023.5,0.8,68,11,25000,11.112,,,300,,,,,,,,,,,wg-a,,,,AAXX 14124 07110 12575 73006 10170 20110 30117 40235 53008 60006 84102 91200=
07110,1997-07-14 15:00:00,18,1023.7,0.3,64,11,25000,11.112,,,300,,,,,,,,,,,wg-a,,,,AAXX 14154 07110 12675 73006 10180 20110 30120 40237 53003 60006 83402 91500=
07110,1997-07-14 18:00:00,17,1023.8,0,72,12,20000,7.408,,,270,11.9,18.5,,,,,,,,,wg-a,,,,AAXX 14184 07110 12470 52704 10170 20120 30120 40238 50000 60006 84830 91800 333 10185 20119=
07110,1997-07-14 21:00:00,15,1024.8,0.9,88,13,20000,7.408,,,240,,,,,,,,,,,wg-a,,,,AAXX 14214 07110 12470 52404 10150 20130 30129 40248 53009 60006 85830 92100=
07110,1997-07-15 00:00:00,15,1024.5,-0.3,88,13,20000,11.112,,,220,,,,,,,,,,,wg-a,,,,AAXX 15004 07110 12670 72206 10150 20130 30126 40245 55003 60006 875// 90000=
07110,1997-07-15 03:00:00,15,1024.1,-0.3,94,14,20000,11.112,,,220,,,,,,,,,,,wg-a,,,,AAXX 15034 07110 12770 72206 10150 20140 30123 40241 56003 60006 875// 90300=
07110,1997-07-15 06:00:00,15,1023.6,-0.5,100,15,6000,11.112,,,230,14.7,16.6,,,,,,,,20,wg-a,,,,AAXX 15064 07110 02356 72306 10150 20150 30118 40236 57005 61000 72052 875// 90600 333 10166 20147 6100=
07110,1997-07-15 12:00:00,18,1024.3,0.2,94,17,7000,14.816,,,210,,,,,,,,,,20,wg-a,,,,AAXX 15124 07110 02357 72108 10180 20170 30126 40243 51002 61000 72052 875// 91200 333 6100=
07110,1997-07-15 15:00:00,18,1023.9,-0.4,94,17,8000,11.112,,,250,,,,,,,,,,,wg-a,,,,AAXX 15154 07110 12458 72506 10180 20170 30122 40239 58004 60006 875// 91500=
07110,1997-07-15 18:00:00,19,1023,-0.9,83,16,12000,11.112,,,290,15.4,18.9,,,,,,,,,wg-a,,,,AAXX 15184 07110 12462 82906 10190 20160 30113 40230 56009 60006 885// 91800 333 10189 20154=
07110,1997-07-15 21:00:00,16,1023.5,0.4,94,15,500,3.704,,,270,,,,,,,,,,50,wg-a,,,,AAXX 15214 07110 02200 82702 10160 20150 30117 40235 53004 61000 75052 875// 92100 333 ////=
07110,1997-07-16 00:00:00,15,1023.5,0,100,15,500,3.704,,,260,,,,,,,,,,50,wg-a,,,,AAXX 16004 07110 02200 82602 10150 20150 30117 40235 50000 61000 75052 875// 90000 333 6100=
07110,1997-07-16 03:00:00,15,1022,-1.5,100,15,15000,3.704,,,320,,,,,,,,,,20,wg-a,,,,AAXX 16034 07110 02465 /3202 10150 20150 30102 40220 56015 61000 72052 86500 90300 333 ////=
07110,1997-07-16 06:00:00,14,1022.1,0,94,13,15000,7.408,,,340,13.4,18.4,,,,,,,,3,wg-a,,,,AAXX 16064 07110 02465 /3404 10140 20130 30102 40221 50000 60006 70352 86500 90600 333 10184 20134 61000=
07110,1997-07-16 12:00:00,18,1021.7,-0.1,73,13,500,14.816,,,330,,,,,,,,,,,wg-a,,,,AAXX 16124 07110 12500 73308 10180 20130 30100 40217 58001 60006 875// 91200=
07110,1997-07-16 15:00:00,19,1020.9,-0.8,68,13,500,18.52,,,350,,,,,,,,,,,wg-a,,,,AAXX 16154 07110 12500 /3510 10190 20130 30092 40209 58008 60006 86500 91500=
07110,1997-07-16 18:00:00,17,1020.4,-0.5,77,13,25000,18.52,,,330,14.4,19,,,,,,,,,wg-a,,,,AAXX 16184 07110 12575 53310 10170 20130 30087 40204 57005 60006 84502 91800 333 10190 20144=
07110,1997-07-16 21:00:00,15,1021.1,0.6,88,13,8000,7.408,,,340,,,,,,,,,,,wg-a,,,,AAXX 16214 07110 12458 /3404 10150 20130 30093 40211 53006 60006 86500 92100=
07110,1997-07-17 00:00:00,15,1020.5,-0.6,94,14,8000,7.408,,,330,,,,,,,,,,,wg-a,,,,AAXX 17004 07110 12458 73304 10150 20140 30087 40205 58006 60006 875// 90000=
07110,1997-07-17 03:00:00,15,1019.4,-1.1,94,14,4000,3.704,,,300,,,,,,,,,,50,wg-a,,,,AAXX 17034 07110 02140 83002 10150 20140 30076 40194 58011 61000 75052 886// 90300 333 ////=
07110,1997-07-17 06:00:00,15,1019,-0.4,100,15,6000,11.112,,,290,14.7,17.2,,,,,,,,10,wg-a,,,,AAXX 17064 07110 02256 /2906 10150 20150 30072 40190 56004 61000 71052 876// 90600 333 10172 20147 6100=
07110,1997-07-17 09:00:00,16,1018.5,-0.4,100,16,4500,18.52,,,300,,,,,,,,,,10,wg-a,,,,AAXX 17094 07110 02245 83010 10160 20160 30068 40185 56004 61000 71052 886// 90900 333 ////=
07110,1997-07-17 12:00:00,17,1018.4,-0.1,88,15,15000,18.52,,,310,,,,,,,,,,1,wg-a,,,,AAXX 17124 07110 02465 73110 10170 20150 30067 40184 56001 61000 70152 875// 91200 333 6100=
07110,1997-07-17 15:00:00,18,1018.7,0.3,83,15,20000,22.224,,,310,,,,,,,,,,,wg-a,,,,AAXX 17154 07110 12470 /3112 10180 20150 30070 40187 53003 60006 86500 91500=
07110,1997-07-17 18:00:00,17,1019.1,0.4,88,15,20000,22.224,,,330,15.1,18.6,,,,,,,,,wg-a,,,,AAXX 17184 07110 12370 73312 10170 20150 30074 40191 53004 60006 878// 91800 333 10186 20151=
07110,1997-07-18 00:00:00,13,1021.2,0.3,88,11,20000,11.112,,,340,,,,,,,,,,,wg-a,,,,AAXX 18004 07110 12/70 03406 10130 20110 30093 40212 50003 60006 80000 90000=
07110,1997-07-18 06:00:00,15,1021.9,1.1,88,13,20000,11.112,,,350,12.3,16.9,,,,,,,,,wg-a,,,,AAXX 18064 07110 02570 43506 10150 20130 30100 40219 53011 60006 84800 90600 333 10169 20123 61000=
07110,1997-07-18 09:00:00,16,1022.5,0.7,77,12,20000,18.52,,,350,,,,,,,,,,,wg-a,,,,AAXX 18094 07110 12470 63510 10160 20120 30107 40225 51007 60006 86800 90900=
07110,1997-07-18 12:00:00,18,1023.1,0.7,64,11,20000,18.52,,,350,,,,,,,,,,,wg-a,,,,AAXX 18124 07110 12570 /3510 10180 20110 30114 40231 52007 60006 85400 91200=
07110,1997-07-18 15:00:00,18,1023.6,0.4,64,11,20000,22.224,,,330,,,,0,,,,,,,wg-a,,,,AAXX 18154 07110 12570 /3312 10180 20110 30118 40236 50004 60007 86800 91500=
07110,1997-07-18 18:00:00,16,1024,0.4,72,11,20000,14.816,,,350,14.4,18.5,,,,,,,,,wg-a,,,,AAXX 18184 07110 12570 /3508 10160 20110 30122 40240 53004 60006 86800 91800 333 10185 20144=
07110,1997-07-19 00:00:00,12,1025.4,0.5,88,10,15000,7.408,,,290,,,,,,,,,,,wg-a,,,,AAXX 19004 07110 12565 22904 10120 20100 30134 40254 51005 60006 82500 90000=
07110,1997-07-19 03:00:00,11,1025.1,-0.4,94,10,10000,3.704,,,340,,,,,,,,,,,wg-a,,,,AAXX 19034 07110 12/60 03402 10110 20100 30130 40251 58004 60006 80000 90300=
07110,1997-07-19 06:00:00,14,1025.8,0.9,100,14,3000,7.408,,,350,10,16.2,,,,,,,,10,wg-a,,,,AAXX 19064 07110 02230 83504 10140 20140 30139 40258 53009 60006 71011 887// 90600 333 10162 20100 60004=
07110,1997-07-19 09:00:00,18,1026.5,0.8,83,15,4000,11.112,,,50,,,,,,,,,,10,wg-a,,,,AAXX 19094 07110 12340 70506 10180 20150 30147 40265 51008 60006 71022 876// 90900=
07110,1997-07-19 12:00:00,22,1026.2,-0.1,65,15,12000,11.112,,,50,,,,,,,,,,,wg-a,,,,AAXX 19124 07110 12562 40506 10220 20150 30146 40262 58001 60006 84201 91200=
07110,1997-07-19 15:00:00,22,1026.1,-0.1,57,13,20000,18.52,,,20,,,,,,,,,,,wg-a,,,,AAXX 19154 07110 12670 20210 10220 20130 30145 40261 55001 60006 81201 91500=
07110,1997-07-19 18:00:00,20,1026.4,0.2,64,13,12000,14.816,,,20,13.8,22.7,,,,,,,,,wg-a,,,,AAXX 19184 07110 12662 30208 10200 20130 30147 40264 53002 60006 81201 91800 333 10227 20138=
07110,1997-07-19 21:00:00,15,1027,0.4,88,13,15000,7.408,,,20,,,,,,,,,,,wg-a,,,,AAXX 19214 07110 12/65 40204 10150 20130 30151 40270 52004 60006 80001 92100=
07110,1997-07-20 00:00:00,13,1027.1,-0,100,13,500,7.408,,,50,,,,,,,,,,44,wg-a,,,,AAXX 20004 07110 12105 /0504 10130 20130 30151 40271 54000 60006 74441 85601 90000=
07110,1997-07-20 03:00:00,13,1026,-1.1,94,12,300,7.408,,,30,,,,0,,,,,,44,wg-a,,,,AAXX 20034 07110 12103 70304 10130 20120 30140 40260 56011 60007 74444 876// 90300=
07110,1997-07-20 06:00:00,13,1025.9,-0.1,94,12,300,7.408,,,50,12.3,19.5,,,,,,,,44,wg-a,,,,AAXX 20064 07110 02003 80504 10130 20120 30139 40259 55001 60006 74444 886// 90600 333 10195 20123 60004=
07110,1997-07-20 09:00:00,19,1025.3,-0.3,78,15,15000,11.112,,,120,,,,,,,,,,1,wg-a,,,,AAXX 20094 07110 12665 /1206 10190 20150 30136 40253 58003 60006 70142 82532 90900=
07110,1997-07-20 12:00:00,23,1024.5,-0.7,53,13,20000,11.112,,,80,,,,,,,,,,1,wg-a,,,,AAXX 20124 07110 12570 /0806 10230 20130 30129 40245 58007 60006 70142 82232 91200=
07110,1997-07-20 15:00:00,24,1023.2,-1.2,47,12,20000,11.112,,,150,,,,,,,,,,,wg-a,,,,AAXX 20154 07110 12670 /1506 10240 20120 30117 40232 57012 60006 83432 91500=
07110,1997-07-20 18:00:00,21,1022.7,-0.6,60,13,15000,18.52,,,40,12.6,24.3,,,,,,,,,wg-a,,,,AAXX 20184 07110 12665 /0410 10210 20130 30111 40227 56006 60006 82432 91800 333 10243 20126=
07110,1997-07-20 21:00:00,17,1023.7,0.8,77,13,15000,7.408,,,50,,,,,,,,,,,wg-a,,,,AAXX 20214 07110 12665 /0504 10170 20130 30119 40237 53008 60006 82432 92100=
07110,1997-07-21 00:00:00,15,1023.3,-0.5,82,12,15000,7.408,,,50,,,,,,,,,,,wg-a,,,,AAXX 21004 07110 12/65 50504 10150 20120 30114 40233 56005 60006 82032 90000=
07110,1997-07-21 06:00:00,13,1022.6,-0.1,88,11,20000,11.112,,,70,12.4,21,,,,,,,,,wg-a,,,,AAXX 21064 07110 02/70 40706 10130 20110 30107 40226 55001 60006 81031 90600 333 10210 20124 60004=
07110,1997-07-21 09:00:00,20,1022.4,-0,73,15,20000,11.112,,,60,,,,,,,,,,,wg-a,,,,AAXX 21094 07110 12/70 50606 10200 20150 30107 40224 54000 60006 81031 90900=
07110,1997-07-21 12:00:00,23,1021.2,-1,53,13,20000,14.816,,,90,,,,,,,,,,,wg-a,,,,AAXX 21124 07110 12670 40908 10230 20130 30097 40212 56010 60006 82101 91200=
07110,1997-07-21 15:00:00,23,1020.3,-0.9,53,13,20000,14.816,,,40,,,,,,,,,,,wg-a,,,,AAXX 21154 07110 12670 40408 10230 20130 30088 40203 56009 60006 82101 91500=
07110,1997-07-21 18:00:00,21,1019.7,-0.7,69,15,15000,18.52,,,40,13.3,23.7,,,,,,,,,wg-a,,,,AAXX 21184 07110 12665 40410 10210 20150 30081 40197 56007 60006 81101 91800 333 10237 20133=
07110,1997-07-21 21:00:00,17,1020.7,0.9,82,14,20000,7.408,,,30,,,,,,,,,,,wg-a,,,,AAXX 21214 07110 12670 50304 10170 20140 30090 40207 53009 60006 83501 92100=
07110,1997-07-22 00:00:00,15,1020.6,-0.2,82,12,10000,7.408,,,50,,,,,,,,,,,wg-a,,,,AAXX 22004 07110 12660 60504 10150 20120 30088 40206 58002 60006 84501 90000=
07110,1997-07-22 03:00:00,13,1020.1,-0.6,88,11,10000,11.112,,,30,,,,,,,,,,,wg-a,,,,AAXX 22034 07110 12660 /0306 10130 20110 30082 40201 56006 60006 83502 90300=
07110,1997-07-22 06:00:00,13,1019.9,-0.2,94,12,15000,11.112,,,40,11.9,20.7,,,,,,,,,wg-a,,,,AAXX 22064 07110 02/65 10406 10130 20120 30080 40199 57002 60006 80002 90600 333 10207 20119 60004=
07110,1997-07-22 09:00:00,21,1019.8,0.2,64,14,15000,11.112,,,40,,,,,,,,,,,wg-a,,,,AAXX 22094 07110 12/65 10406 10210 20140 30082 40198 51002 60006 80002 90900=
07110,1997-07-22 12:00:00,26,1018.9,,45,13,15000,11.112,,,40,,,,,,,,,,,wg-a,,,,AAXX 22124 07110 12665 20406 10260 20130 30075 40189 60006 82702 91200=
07110,1997-07-22 15:00:00,24,1018.4,-0.5,47,12,20000,18.52,,,20,,,,,,,,,,,wg-a,,,,AAXX 22154 07110 12670 30210 10240 20120 30070 40184 56005 60006 82102 91500=
07110,1997-07-22 18:00:00,22,1018.5,-0,43,9,20000,14.816,,,30,13.1,24.9,,,,,,,,,wg-a,,,,AAXX 22184 07110 12/70 10308 10220 20090 30070 40185 55000 60006 80001 91800 333 10249 20131=
07110,1997-07-22 21:00:00,16,1020,1.2,82,13,15000,7.408,,,30,,,,,,,,,,,wg-a,,,,AAXX 22214 07110 12/65 20304 10160 20130 30082 40200 51012 60006 80001 92100=
07110,1997-07-23 00:00:00,13,1020,-0.1,94,12,15000,11.112,,,40,,,,,,,,,,,wg-a,,,,AAXX 23004 07110 12/65 20406 10130 20120 30081 40200 58001 60006 80001 90000=
07110,1997-07-23 03:00:00,12,1019.5,-0.5,94,11,10000,7.408,,,50,,,,,,,,,,,wg-a,,,,AAXX 23034 07110 12/60 20504 10120 20110 30076 40195 58005 60006 80001 90300=
07110,1997-07-23 06:00:00,13,1020,0.5,88,11,7000,7.408,,,30,12,22.1,,,,,,,,,wg-a,,,,AAXX 23064 07110 02/57 30304 10130 20110 30081 40200 53005 60006 80001 90600 333 10221 20120 60004=
07110,1997-07-23 09:00:00,21,1020.3,0.6,53,11,20000,11.112,,,40,,,,,,,,,,,wg-a,,,,AAXX 23094 07110 12/70 40406 10210 20110 30087 40203 51006 60006 80001 90900=
07110,1997-07-23 12:00:00,24,1020.2,-0,47,12,20000,14.816,,,20,,,,,,,,,,,wg-a,,,,AAXX 23124 07110 12/70 30208 10240 20120 30087 40202 54000 60006 81031 91200=
07110,1997-07-23 18:00:00,22,1019.7,-0,60,14,15000,11.112,,,340,12.7,23.9,,,,,,,,,wg-a,,,,AAXX 23184 07110 12/65 13406 10220 20140 30082 40197 55000 60006 80001 91800 333 10239 20127=
07110,1997-07-24 00:00:00,13,1019.4,-1.1,94,12,10000,3.704,,,210,,,,,,,,,,,wg-a,,,,AAXX 24004 07110 12/60 12102 10130 20120 30075 40194 58011 60006 80001 90000=
07110,1997-07-24 03:00:00,14,1019,-0.3,94,13,8000,7.408,,,180,,,,0,,,,,,,wg-a,,,,AAXX 24034 07110 12/58 /1804 10140 20130 30072 40190 58003 60007 84031 90300=
07110,1997-07-24 06:00:00,16,1018.3,-0.7,94,15,500,7.408,,,220,13.2,21.5,,,,,,,,,wg-a,,,,AAXX 24064 07110 02/05 /2204 10160 20150 30065 40183 55007 60006 90600 333 10215 20132 60004=
07110,1997-07-24 09:00:00,17,1017.4,-0.8,94,16,3000,14.816,,,190,,,,0,,,,,,50,wg-a,,,,AAXX 24094 07110 12230 71908 10170 20160 30057 40174 58008 60007 75052 875// 90900=
07110,1997-07-24 12:00:00,18,1016.5,-0.8,94,17,2500,22.224,,,230,,,,3,,,,,,51,wg-a,,,,AAXX 24124 07110 02125 72312 10180 20170 30049 40165 58008 60036 75152 877// 91200 333 60037=
07110,1997-07-24 15:00:00,19,1016.1,-0.4,88,17,8000,25.928,,,250,,,,,,,,,,1,wg-a,,,,AAXX 24154 07110 02358 72514 10190 20170 30045 40161 58004 61000 70152 875// 91500 333 ////=
07110,1997-07-24 18:00:00,18,1016.8,0.6,77,14,15000,22.224,,,290,15.5,19.6,,,,,,,,1,wg-a,,,,AAXX 24184 07110 12465 72912 10180 20140 30051 40168 51006 60006 70152 84171 91800 333 10196 20155=
07110,1997-07-25 00:00:00,14,1018.7,0.2,94,13,15000,7.408,,,240,,,,,,,,,,,wg-a,,,,AAXX 25004 07110 12465 /2404 10140 20130 30068 40187 50002 60006 81502 90000=
07110,1997-07-25 03:00:00,15,1017.6,-1,94,14,15000,11.112,,,230,,,,0,,,,,,21,wg-a,,,,AAXX 25034 07110 12765 72306 10150 20140 30058 40176 58010 60007 72162 8552/ 90300=
07110,1997-07-25 06:00:00,14,1015.3,-2.3,100,14,2000,22.224,,,180,13.5,17.5,,,,,,,,51,wg-a,,,,AAXX 25064 07110 02120 81812 10140 20140 30035 40153 58023 61000 75165 877// 90600 333 10175 20135 6007=
07110,1997-07-25 12:00:00,18,1015.1,0.4,100,18,7000,22.224,,42.596,270,,,,0,,,,,,20,wg-a,,,,AAXX 25124 07110 02257 82712 10180 20180 30035 40151 52004 60046 72065 887// 91200 333 60007 91023=
07110,1997-07-25 15:00:00,19,1015.8,0.7,88,17,500,18.52,,,270,,,,,,,,,,51,wg-a,,,,AAXX 25154 07110 02200 82710 10190 20170 30042 40158 51007 61000 75152 877// 91500 333 ////=
07110,1997-07-25 18:00:00,17,1017,1.1,100,17,3000,14.816,,,260,14.4,19.2,,,,,,,,50,wg-a,,,,AAXX 25184 07110 02230 82608 10170 20170 30053 40170 53011 61000 75052 887// 91800 333 10192 20144 6100=
07110,1997-07-25 21:00:00,16,1018.9,1.9,100,16,3500,7.408,,,310,,,,,,,,,,10,wg-a,,,,AAXX 25214 07110 02135 83104 10160 20160 30072 40189 53019 61000 71055 887// 92100 333 ////=
07110,1997-07-26 00:00:00,14,1019.7,0.7,100,14,1000,3.704,,,190,,,,,,,,,,10,wg-a,,,,AAXX 26004 07110 02010 81902 10140 20140 30079 40197 50007 61000 71052 887// 90000 333 6100=
07110,1997-07-26 03:00:00,15,1019.6,-0.1,100,15,1200,7.408,,,180,,,,,,,,,,10,wg-a,,,,AAXX 26034 07110 12112 81804 10150 20150 30078 40196 58001 60006 71042 886// 90300=
07110,1997-07-26 06:00:00,17,1019.5,-0,100,17,200,11.112,,,210,13.9,17.4,,,,,4,,,44,wg-a,,,,AAXX 26064 07110 02002 82106 10170 20170 30078 40195 55000 60006 74442 886// 90600 333 10174 20139 60044=
07110,1997-07-26 09:00:00,18,1019.9,0.4,100,18,200,14.816,,,230,,,,,,,,,,42,wg-a,,,,AAXX 26094 07110 12002 82308 10180 20180 30082 40199 51004 60006 74244 886// 90900=
07110,1997-07-26 12:00:00,20,1020,0.2,100,20,7000,22.224,,,230,,,,,,,,,,1,wg-a,,,,AAXX 26124 07110 12457 72312 10200 20200 30084 40200 51002 60006 70142 875// 91200=
07110,1997-07-26 18:00:00,18,1019.5,-0.2,100,18,1200,14.816,,,230,16.7,21.7,,,,,,,,50,wg-a,,,,AAXX 26184 07110 02112 82308 10180 20180 30078 40195 57002 61000 75052 887// 91800 333 10217 20167 6001=
07110,1997-07-26 21:00:00,18,1020.1,0.6,100,18,400,14.816,,,250,,,,,,,,,,,wg-a,,,,AAXX 26214 07110 32/04 /2508 10180 20180 30084 40201 53006 92100=
07110,1997-07-27 00:00:00,17,1020.1,0,94,16,9000,11.112,,,260,,,,,,,,,,1,wg-a,,,,AAXX 27004 07110 02259 82606 10170 20160 30084 40201 50000 60006 70154 877// 90000 333 61000=
07110,1997-07-27 03:00:00,16,1020.3,0.1,94,15,10000,7.408,,,270,,,,,,,,,,,wg-a,,,,AAXX 27034 07110 12460 /2704 10160 20150 30085 40203 50001 60006 86500 90300=
07110,1997-07-27 06:00:00,15,1021.4,1.1,94,14,12000,3.704,,,240,14.2,17.9,,,,,1,,,,wg-a,,,,AAXX 27064 07110 02562 72402 10150 20140 30096 40214 53011 60006 875// 90600 333 10179 20142 60014=
07110,1997-07-27 12:00:00,20,1022.9,1.1,78,16,20000,11.112,,,300,,,,,,,,,,,wg-a,,,,AAXX 27124 07110 12570 73006 10200 20160 30113 40229 51011 60006 878// 91200=
07110,1997-07-27 15:00:00,20,1023.1,0.2,78,16,20000,14.816,,,320,,,,,,,,,,,wg-a,,,,AAXX 27154 07110 12570 /3208 10200 20160 30115 40231 51002 60006 86800 91500=
07110,1997-07-27 18:00:00,19,1023.3,0.1,83,16,20000,14.816,,,330,14.6,20.9,,,,,,,,,wg-a,,,,AAXX 27184 07110 12570 43308 10190 20160 30116 40233 53001 60006 83101 91800 333 10209 20146=
07110,1997-07-27 21:00:00,16,1024.1,0.7,94,15,8000,11.112,,,10,,,,,,,,,,,wg-a,,,,AAXX 27214 07110 12258 80106 10160 20150 30123 40241 53007 60006 886// 92100=
07110,1997-07-28 00:00:00,15,1024.4,0.2,94,14,500,11.112,,,30,,,,,,,,,,,wg-a,,,,AAXX 28004 07110 12200 80306 10150 20140 30125 40244 50002 60006 886// 90000=
07110,1997-07-28 03:00:00,14,1023.9,-0.5,94,13,7000,3.704,,,20,,,,,,,,,,,wg-a,,,,AAXX 28034 07110 12257 /0202 10140 20130 30120 40239 58005 60006 86600 90300=
07110,1997-07-28 06:00:00,14,1024,0.1,94,13,3500,7.408,,,50,13.4,19.1,,,,,,,,10,wg-a,,,,AAXX 28064 07110 02235 /0504 10140 20130 30121 40240 53001 60006 71011 85601 90600 333 10191 20134 60004=
07110,1997-07-28 09:00:00,18,1024.1,0.3,83,15,8000,11.112,,,40,,,,0,,,,,,,wg-a,,,,AAXX 28094 07110 12258 30406 10180 20150 30124 40241 53003 60007 83601 90900=
07110,1997-07-28 12:00:00,22,1023.2,-0.8,57,13,15000,3.704,,,40,,,,,,,,,,,wg-a,,,,AAXX 28124 07110 12565 50402 10220 20130 30116 40232 58008 60006 84201 91200=
07110,1997-07-28 15:00:00,22,1022.8,-0.4,69,16,15000,18.52,,,20,,,,,,,,,,,wg-a,,,,AAXX 28154 07110 12665 60210 10220 20160 30112 40228 56004 60006 85801 91500=
07110,1997-07-28 18:00:00,19,1022.3,-0.6,73,14,15000,11.112,,,30,14,23.2,,,,,,,,,wg-a,,,,AAXX 28184 07110 12/65 20306 10190 20140 30106 40223 58006 60006 80001 91800 333 10232 20140=
07110,1997-07-28 21:00:00,16,1022.9,0.5,82,13,15000,3.704,,,20,,,,,,,,,,,wg-a,,,,AAXX 28214 07110 12/65 20202 10160 20130 30111 40229 53005 60006 81051 92100=
07110,1997-07-29 00:00:00,14,1022.7,-0.3,94,13,10000,7.408,,,20,,,,,,,,,,,wg-a,,,,AAXX 29004 07110 12/60 00204 10140 20130 30108 40227 58003 60006 80000 90000=
07110,1997-07-29 03:00:00,14,1021.7,-1,94,13,10000,3.704,,,50,,,,,,,,,,,wg-a,,,,AAXX 29034 07110 12660 20502 10140 20130 30098 40217 58010 60006 82500 90300=
07110,1997-07-29 06:00:00,13,1021.6,-0.1,94,12,100,7.408,,,30,12.1,19.2,,,,,,,,42,wg-a,,,,AAXX 29064 07110 02001 40304 10130 20120 30097 40216 56001 60006 74240 83601 90600 333 10192 20121 60004=
07110,1997-07-29 09:00:00,20,1020.9,-0.4,73,15,20000,3.704,,,130,,,,,,,,,,3,wg-a,,,,AAXX 29094 07110 12/70 31302 10200 20150 30093 40209 57004 60006 70340 80001 90900=
07110,1997-07-29 12:00:00,25,1020.2,-0.5,61,17,500,7.408,,,280,,,,,,,,,,3,wg-a,,,,AAXX 29124 07110 12600 /2804 10250 20170 30088 40202 58005 60006 70341 81131 91200=
07110,1997-07-29 15:00:00,23,1020.4,0.1,61,15,25000,14.816,,,260,,,,,,,,,,,wg-a,,,,AAXX 29154 07110 12575 /2608 10230 20150 30089 40204 52001 60006 83832 91500=
07110,1997-07-29 18:00:00,22,1019.7,-0.8,57,13,20000,14.816,,,260,12.6,24.9,,,,,,,,,wg-a,,,,AAXX 29184 07110 12670 52608 10220 20130 30081 40197 56008 60006 81532 91800 333 10249 20126=
07110,1997-07-29 21:00:00,17,1020.6,0.8,88,15,20000,11.112,,,220,,,,,,,,,,,wg-a,,,,AAXX 29214 07110 12/70 62206 10170 20150 30089 40206 51008 60006 81032 92100=
07110,1997-07-30 00:00:00,17,1020,-0.6,94,16,15000,11.112,,,220,,,,,,,,,,,wg-a,,,,AAXX 30004 07110 12365 62206 10170 20160 30083 40200 58006 60006 82732 90000=
07110,1997-07-30 03:00:00,17,1019.1,-0.9,100,17,1500,14.816,,,270,,,,1,,,,,,,wg-a,,,,AAXX 30034 07110 12115 82708 10170 20170 30074 40191 58009 60017 887// 90300=
07110,1997-07-30 06:00:00,16,1020.8,1.6,94,15,8000,7.408,,,310,15.4,21.5,,,,,2,,,,wg-a,,,,AAXX 30064 07110 02158 73104 10160 20150 30090 40208 53016 60006 84101 90600 333 10215 20154 60024=
07110,1997-07-30 09:00:00,17,1022.2,1.5,77,13,12000,14.816,,,320,,,,,,,,,,,wg-a,,,,AAXX 30094 07110 12562 63208 10170 20130 30105 40222 52015 60006 84201 90900=
07110,1997-07-30 12:00:00,20,1022.4,0.2,60,12,20000,14.816,,,310,,,,,,,,,,,wg-a,,,,AAXX 30124 07110 12570 63108 10200 20120 30107 40224 51002 60006 83231 91200=
07110,1997-07-30 15:00:00,20,1022.8,0.4,56,11,25000,18.52,,,300,,,,,,,,,,,wg-a,,,,AAXX 30154 07110 12575 73010 10200 20110 30111 40228 52004 60006 82202 91500=
07110,1997-07-30 18:00:00,18,1023.1,0.3,73,13,20000,14.816,,,320,15.5,19.9,,,,,,,,,wg-a,,,,AAXX 30184 07110 12570 63208 10180 20130 30114 40231 53003 60006 83802 91800 333 10199 20155=
07110,1997-07-30 21:00:00,15,1023.8,0.5,88,13,20000,7.408,,,280,,,,,,,,,,,wg-a,,,,AAXX 30214 07110 12770 32804 10150 20130 30119 40238 53005 60006 82502 92100=
07110,1997-07-31 00:00:00,13,1023.9,0,94,12,12000,7.408,,,240,,,,,,,,,,,wg-a,,,,AAXX 31004 07110 12762 32404 10130 20120 30119 40239 50000 60006 82502 90000=
07110,1997-07-31 03:00:00,12,1022.9,-1,100,12,10000,7.408,,,250,,,,0,,,,,,,wg-a,,,,AAXX 31034 07110 12760 52504 10120 20120 30109 40229 58010 60007 82532 90300=
07110,1997-07-31 06:00:00,12,1023.2,0.3,94,11,10000,7.408,,,250,11.9,17.9,,,,,,,,,wg-a,,,,AAXX 31064 07110 02760 62504 10120 20110 30112 40232 53003 60006 825/2 90600 333 10179 20119 60004=
07110,1997-07-31 09:00:00,17,1023.5,0.5,72,12,15000,11.112,,,300,,,,,,,,,,,wg-a,,,,AAXX 31094 07110 12565 73006 10170 20120 30117 40235 53005 60006 86502 90900=
07110,1997-07-31 12:00:00,19,1023,-0.4,56,10,20000,14.816,,,300,,,,,,,,,,,wg-a,,,,AAXX 31124 07110 12670 /3008 10190 20100 30113 40230 58004 60006 85502 91200=
07110,1997-07-31 15:00:00,19,1022.4,-0.6,68,13,20000,14.816,,,290,,,,,,,,,,,wg-a,,,,AAXX 31154 07110 12570 62908 10190 20130 30107 40224 57006 60006 84802 91500=
07110,1997-07-31 18:00:00,18,1021.6,-0.8,73,13,20000,14.816,,,300,12.2,19.7,,,,,,,,,wg-a,,,,AAXX 31184 07110 12570 73008 10180 20130 30099 40216 58008 60006 85202 91800 333 10197 20122=
07110,1997-07-31 21:00:00,14,1022.3,0.5,88,12,20000,7.408,,,260,,,,,,,,,,,wg-a,,,,AAXX 31214 07110 12570 22604 10140 20120 30104 40223 53005 60006 81501 92100=
07110,1997-08-01 00:00:00,13,1021.5,-0.8,94,12,20000,3.704,,,240,,,,,,,,,,,wg-a,,,,AAXX 01004 07110 12570 42402 10130 20120 30096 40215 56008 60006 84500 90000=
07110,1997-08-01 03:00:00,14,1019.9,-1.6,88,12,20000,3.704,,,250,,,,,,,,,,,wg-a,,,,AAXX 01034 07110 12570 72502 10140 20120 30080 40199 56016 60006 875// 90300=
07110,1997-08-01 06:00:00,15,1019.2,-0.6,88,13,15000,7.408,,,270,12.7,17.5,,,,,,,,,wg-a,,,,AAXX 01064 07110 02565 /2704 10150 20130 30074 40192 58006 60006 86500 90600 333 10175 20127 60004=
07110,1997-08-01 09:00:00,18,1019.9,0.8,73,13,15000,14.816,,,270,,,,,,,,,,,wg-a,,,,AAXX 01094 07110 12565 82708 10180 20130 30082 40199 51008 60006 88500 90900=
07110,1997-08-01 12:00:00,20,1019.4,-0.4,68,14,15000,14.816,,,280,,,,,,,,,,,wg-a,,,,AAXX 01124 07110 12565 /2808 10200 20140 30078 40194 57004 60006 85501 91200=
07110,1997-08-01 15:00:00,20,1019.3,-0.1,73,15,15000,14.816,,,290,,,,,,,,,,,wg-a,,,,AAXX 01154 07110 12565 42908 10200 20150 30077 40193 57001 60006 84501 91500=
07110,1997-08-01 18:00:00,19,1019,-0.3,78,15,15000,11.112,,,290,14.7,21.3,,,,,,,,,wg-a,,,,AAXX 01184 07110 12465 72906 10190 20150 30074 40190 56003 60006 875// 91800 333 10213 20147=
07110,1997-08-01 21:00:00,17,1019.7,0.6,94,16,10000,7.408,,,270,,,,,,,,,,,wg-a,,,,AAXX 01214 07110 12360 82704 10170 20160 30080 40197 53006 60006 875// 92100=
07110,1997-08-02 00:00:00,17,1019.7,0,94,16,3000,3.704,,,250,,,,,,,,,,10,wg-a,,,,AAXX 02004 07110 12130 82502 10170 20160 30080 40197 50000 60006 71022 877// 90000=
07110,1997-08-02 03:00:00,17,1018.9,-0.8,100,17,1000,3.704,,,250,,,,,,,,,,10,wg-a,,,,AAXX 02034 07110 02110 82502 10170 20170 30072 40189 56008 61000 71052 876// 90300 333 ////=
07110,1997-08-02 06:00:00,17,1019,0.1,100,17,800,3.704,,,270,16.9,18.6,,,,,,,,10,wg-a,,,,AAXX 02064 07110 02108 82702 10170 20170 30073 40190 53001 60006 71054 886// 90600 333 10186 20169 61000=
07110,1997-08-02 09:00:00,18,1019.4,0.4,100,18,8000,0,,,0,,,,,,,,,,1,wg-a,,,,AAXX 02094 07110 12258 70000 10180 20180 30077 40194 51004 60006 70142 876// 90900=
07110,1997-08-02 12:00:00,21,1019,-0.2,88,19,20000,3.704,,,260,,,,,,,,,,1,wg-a,,,,AAXX 02124 07110 12570 72602 10210 20190 30075 40190 56002 60006 70142 878// 91200=
07110,1997-08-02 15:00:00,22,1018.7,-0.3,83,19,20000,11.112,,,310,,,,,,,,,,,wg-a,,,,AAXX 02154 07110 12570 /3106 10220 20190 30072 40187 55003 60006 86800 91500=
07110,1997-08-02 18:00:00,20,1018.3,-0.5,83,17,15000,11.112,,,330,17.2,22.3,,,,,,,,,wg-a,,,,AAXX 02184 07110 12465 73306 10200 20170 30067 40183 56005 60006 878// 91800 333 10223 20172=
07110,1997-08-02 21:00:00,17,1018.8,0.4,94,16,4000,7.408,,,20,,,,,,,,,,10,wg-a,,,,AAXX 02214 07110 12140 80204 10170 20160 30071 40188 53004 60006 71022 886// 92100=
07110,1997-08-03 00:00:00,16,1017.9,-0.9,100,16,3000,7.408,,,80,,,,,,,,,,10,wg-a,,,,AAXX 03004 07110 12130 80804 10160 20160 30062 40179 58009 60006 71022 886// 90000=
07110,1997-08-03 03:00:00,16,1016.4,-1.5,100,16,500,3.704,,,40,,,,,,,,,,44,wg-a,,,,AAXX 03034 07110 12005 80402 10160 20160 30047 40164 58015 60006 74442 886// 90300=
07110,1997-08-03 06:00:00,17,1015.8,-0.6,94,16,6000,0,,,0,15.8,19.6,,,,,,,,3,wg-a,,,,AAXX 03064 07110 02456 80000 10170 20160 30041 40158 56006 60006 70342 8453/ 90600 333 10196 20158 60004=
07110,1997-08-03 09:00:00,20,1015.2,-0.4,88,18,500,14.816,,,190,,,,,,,,,,,wg-a,,,,AAXX 03094 07110 12200 81908 10200 20180 30037 40152 56004 60006 876// 90900=
07110,1997-08-03 12:00:00,21,1014.8,-0.4,83,18,10000,18.52,,,190,,,,,,,,,,,wg-a,,,,AAXX 03124 07110 12460 /1910 10210 20180 30033 40148 58004 60006 82132 91200=
07110,1997-08-03 15:00:00,22,1014.1,-0.7,65,15,15000,18.52,,,180,,,,,,,,,,,wg-a,,,,AAXX 03154 07110 12565 41810 10220 20150 30026 40141 57007 60006 81131 91500=
07110,1997-08-03 18:00:00,19,1013.8,-0.4,83,16,15000,11.112,,,210,16.6,22.6,,,,,,,,,wg-a,,,,AAXX 03184 07110 12765 62106 10190 20160 30022 40138 56004 60006 82530 91800 333 10226 20166=
07110,1997-08-03 21:00:00,18,1014,0.2,88,16,15000,11.112,,,200,,,,,,,,,,,wg-a,,,,AAXX 03214 07110 12465 62006 10180 20160 30024 40140 53002 60006 84830 92100=
07110,1997-08-04 00:00:00,18,1013.4,-0.6,94,17,500,11.112,,,180,,,,,,,,,,,wg-a,,,,AAXX 04004 07110 12200 81806 10180 20170 30018 40134 58006 60006 875// 90000=
07110,1997-08-04 03:00:00,18,1012.6,-0.8,94,17,500,7.408,,,190,,,,,,,,,,50,wg-a,,,,AAXX 04034 07110 02300 81904 10180 20170 30010 40126 58008 61000 75052 877// 90300 333 ////=
07110,1997-08-04 06:00:00,18,1012.8,0.2,94,17,300,7.408,,,200,17.5,19.7,,,,,,,,51,wg-a,,,,AAXX 04064 07110 02103 82004 10180 20170 30012 40128 53002 61000 75154 886// 90600 333 10197 20175 6001=
07110,1997-08-04 09:00:00,16,1014.1,1.2,100,16,500,7.408,,,230,,,,0,,,,,,10,wg-a,,,,AAXX 04094 07110 12100 82304 10160 20160 30024 40141 51012 60007 71054 886// 90900=
07110,1997-08-04 12:00:00,18,1014.8,0.8,88,16,25000,7.408,,,210,,,,0,,,,,,21,wg-a,,,,AAXX 04124 07110 02475 82104 10180 20160 30032 40148 51008 60016 72165 878// 91200 333 60007=
07110,1997-08-04 15:00:00,18,1015.1,0.3,77,14,20000,7.408,,,210,,,,,,,,,,,wg-a,,,,AAXX 04154 07110 12470 82104 10180 20140 30035 40151 50003 60006 888// 91500=
07110,1997-08-04 18:00:00,17,1015.1,-0.1,88,15,15000,3.704,,,190,16.1,17.9,,,,,,,,,wg-a,,,,AAXX 04184 07110 12465 71902 10170 20150 30034 40151 57001 60006 878// 91800 333 10179 20161=
07110,1997-08-04 21:00:00,17,1015.9,0.8,82,14,15000,0,,,0,,,,,,,,,,,wg-a,,,,AAXX 04214 07110 12565 70000 10170 20140 30042 40159 53008 60006 878// 92100=
07110,1997-08-05 00:00:00,16,1015.8,-0.1,94,15,15000,7.408,,,130,,,,,,,,,,,wg-a,,,,AAXX 05004 07110 12465 /1304 10160 20150 30041 40158 58001 60006 86800 90000=
07110,1997-08-05 03:00:00,15,1015.1,-0.8,94,14,15000,3.704,,,90,,,,,,,,,,,wg-a,,,,AAXX 05034 07110 12465 50902 10150 20140 30033 40151 56008 60006 85800 90300=
07110,1997-08-05 06:00:00,14,1015.1,0,94,13,15000,3.704,,,90,14.2,17.1,,,,,1,,,,wg-a,,,,AAXX 05064 07110 02465 40902 10140 20130 30033 40151 50000 60006 81531 90600 333 10171 20142 60014=
07110,1997-08-05 09:00:00,19,1014.8,-0.1,78,15,15000,11.112,,,170,,,,,,,,,,,wg-a,,,,AAXX 05094 07110 12465 /1706 10190 20150 30032 40148 58001 60006 85101 90900=
07110,1997-08-05 12:00:00,21,1015.1,0.4,69,15,20000,14.816,,,160,,,,,,,,,,,wg-a,,,,AAXX 05124 07110 12570 41608 10210 20150 30036 40151 53004 60006 83101 91200=
07110,1997-08-05 15:00:00,22,1014.4,-0.7,65,15,20000,14.816,,,180,,,,,,,,,,,wg-a,,,,AAXX 05154 07110 12270 71808 10220 20150 30029 40144 58007 60006 84101 91500=
07110,1997-08-05 18:00:00,20,1013.9,-0.5,68,14,20000,7.408,,,200,14.2,22.2,,,,,,,,,wg-a,,,,AAXX 05184 07110 12670 42004 10200 20140 30024 40139 55005 60006 84500 91800 333 10222 20142=
07110,1997-08-05 21:00:00,18,1015,1,83,15,20000,3.704,,,20,,,,,,,,,,,wg-a,,,,AAXX 05214 07110 12670 20202 10180 20150 30034 40150 53010 60006 82500 92100=
07110,1997-08-06 00:00:00,15,1014.4,-0.8,88,13,15000,0,,,0,,,,,,,,,,,wg-a,,,,AAXX 06004 07110 12765 10000 10150 20130 30026 40144 58008 60006 81500 90000=
07110,1997-08-06 03:00:00,14,1013.5,-0.9,94,13,15000,3.704,,,70,,,,,,,,,,,wg-a,,,,AAXX 06034 07110 12/65 00702 10140 20130 30017 40135 58009 60006 80000 90300=
07110,1997-08-06 06:00:00,15,1012.9,-0.5,94,14,10000,7.408,,,110,14.1,20.3,,,,,,,,,wg-a,,,,AAXX 06064 07110 02560 31104 10150 20140 30012 40129 56005 60006 83800 90600 333 10203 20141 60004=
07110,1997-08-06 09:00:00,20,1012.7,0,83,17,20000,11.112,,,150,,,,,,,,,,,wg-a,,,,AAXX 06094 07110 12470 41506 10200 20170 30012 40127 50000 60006 84800 90900=
07110,1997-08-06 12:00:00,23,1012.2,-0.4,65,16,25000,11.112,,,170,,,,,,,,,,,wg-a,,,,AAXX 06124 07110 12575 51706 10230 20160 30008 40122 58004 60006 85801 91200=
07110,1997-08-06 15:00:00,22,1012.2,-0,69,16,20000,11.112,,,290,,,,,,,,,,,wg-a,,,,AAXX 06154 07110 12570 /2906 10220 20160 30008 40122 54000 60006 86800 91500=
07110,1997-08-06 18:00:00,20,1012.8,0.5,78,16,15000,7.408,,,20,14.9,23.8,,,,,,,,,wg-a,,,,AAXX 06184 07110 12565 40204 10200 20160 30013 40128 51005 60006 84800 91800 333 10238 20149=
07110,1997-08-06 21:00:00,17,1014.3,1.3,82,14,15000,3.704,,,10,,,,,,,,,,,wg-a,,,,AAXX 06214 07110 12565 60102 10170 20140 30026 40143 53013 60006 82531 92100=
07110,1997-08-07 00:00:00,15,1013.8,-0.5,94,14,7000,7.408,,,30,,,,,,,,,,,wg-a,,,,AAXX 07004 07110 12/57 60304 10150 20140 30021 40138 58005 60006 84031 90000=
07110,1997-08-07 03:00:00,16,1013.6,-0.2,94,15,3000,3.704,,,360,,,,,,,,,,10,wg-a,,,,AAXX 07034 07110 12130 73602 10160 20150 30019 40136 57002 60006 71022 876// 90300=
07110,1997-08-07 06:00:00,16,1013.7,0.1,94,15,800,3.704,,,40,14.9,20.3,,,,,,,,44,wg-a,,,,AAXX 07064 07110 02108 70402 10160 20150 30020 40137 53001 60006 74442 876// 90600 333 10203 20149 60004=
07110,1997-08-07 09:00:00,18,1013.4,-0.2,94,17,500,7.408,,,40,,,,1,,,,,,25,wg-a,,,,AAXX 07094 07110 12400 70404 10180 20170 30018 40134 56002 60017 72542 84932 90900=
07110,1997-08-07 12:00:00,20,1013.9,0.6,78,16,10000,22.224,,46.3,90,,,,,,,,,,3,wg-a,,,,AAXX 07124 07110 12460 70912 10200 20160 30024 40139 53006 60016 70342 86333 91200 333 91025=
07110,1997-08-07 15:00:00,17,1014.1,0.1,100,17,4000,11.112,,,30,,,,27,,,,,,81,wg-a,,,,AAXX 07154 07110 12340 80306 10170 20170 30025 40141 50001 60277 78198 889// 91500=
07110,1997-08-07 18:00:00,20,1013.4,-0.6,88,18,15000,11.112,,,40,15.7,23.5,,1,,,,,,1,wg-a,,,,AAXX 07184 07110 02/65 30406 10200 20180 30019 40134 55006 60006 70198 81032 91800 333 10235 20157 60017=
07110,1997-08-07 21:00:00,16,1015.5,1.9,100,16,6000,11.112,,,40,,,,,,,,,,,wg-a,,,,AAXX 07214 07110 12/56 30406 10160 20160 30038 40155 53019 60006 82032 92100=
07110,1997-08-08 00:00:00,16,1016,0.5,100,16,300,7.408,,,50,,,,0,,,,,,44,wg-a,,,,AAXX 08004 07110 02103 40504 10160 20160 30043 40160 51005 60006 74441 84600 90000 333 60007=
07110,1997-08-08 03:00:00,15,1016,0,100,15,300,7.408,,,20,,,,,,,,,,44,wg-a,,,,AAXX 08034 07110 12003 90204 10150 20150 30043 40160 50000 60006 74444 896// 90300=
07110,1997-08-08 06:00:00,15,1017.3,1.2,100,15,100,7.408,,,40,15.1,20.2,,,,,29,,,44,wg-a,,,,AAXX 08064 07110 02001 80404 10150 20150 30055 40173 51012 60006 74444 886// 90600 333 10202 20151 60294=
07110,1997-08-08 09:00:00,17,1018.1,0.9,100,17,2500,11.112,,,10,,,,,,,,,,10,wg-a,,,,AAXX 08094 07110 12125 80106 10170 20170 30064 40181 51009 60006 71042 876// 90900=
07110,1997-08-08 12:00:00,24,1017.8,0,69,18,6000,14.816,,,10,,,,,,,,,,1,wg-a,,,,AAXX 08124 07110 12/56 00108 10240 20180 30064 40178 50000 60006 70141 80000 91200=
07110,1997-08-08 15:00:00,24,1017.5,-0.3,69,18,8000,14.816,,,30,,,,,,,,,,,wg-a,,,,AAXX 08154 07110 12558 /0308 10240 20180 30061 40175 58003 60006 81201 91500=
07110,1997-08-08 18:00:00,23,1017.5,-0,73,18,7000,14.816,,,360,15.2,24.4,,,,,,,,,wg-a,,,,AAXX 08184 07110 12557 /3608 10230 20180 30061 40175 55000 60006 81200 91800 333 10244 20152=
07110,1997-08-09 00:00:00,16,1019.5,0.1,100,16,500,7.408,,,60,,,,,,,,,,44,wg-a,,,,AAXX 09004 07110 12005 80604 10160 20160 30078 40195 50001 60006 74441 876// 90000=
07110,1997-08-09 06:00:00,16,1019.4,-0.1,100,16,200,11.112,,,30,15.8,22.8,,,,,,,,42,wg-a,,,,AAXX 09064 07110 02002 80306 10160 20160 30076 40194 58001 60006 74244 886// 90600 333 10228 20158 60004=
07110,1997-08-09 09:00:00,21,1019.7,0.6,88,19,500,11.112,,,40,,,,0,,,,,,1,wg-a,,,,AAXX 09094 07110 12/00 40406 10210 20190 30082 40197 50006 60007 70141 80002 90900=
07110,1997-08-09 12:00:00,25,1018.8,-0.8,79,21,15000,14.816,,,20,,,,,,,,,,2,wg-a,,,,AAXX 09124 07110 12/65 50208 10250 20210 30074 40188 58008 60006 70241 82032 91200=
07110,1997-08-09 18:00:00,25,1017.1,-1,74,20,12000,14.816,,,40,15.9,26.6,,,,,,,,,wg-a,,,,AAXX 09184 07110 12/62 10408 10250 20200 30058 40171 56010 60006 81031 91800 333 10266 20159=
07110,1997-08-09 21:00:00,21,1017.5,0.2,83,18,8000,3.704,,,30,,,,,,,,,,,wg-a,,,,AAXX 09214 07110 12/58 30302 10210 20180 30060 40175 53002 60006 82031 92100=
07110,1997-08-10 00:00:00,20,1016.7,-0.9,78,16,10000,11.112,,,60,,,,,,,,,,,wg-a,,,,AAXX 10004 07110 12/60 30606 10200 20160 30051 40167 58009 60006 83030 90000=
07110,1997-08-10 03:00:00,20,1014.7,-1.9,78,16,12000,11.112,,,70,,,,,,,,,,,wg-a,,,,AAXX 10034 07110 12/62 40706 10200 20160 30032 40147 58019 60006 82032 90300=
07110,1997-08-10 06:00:00,20,1014.2,-0.5,68,14,15000,11.112,,,100,18.5,25.3,,,,,,,,,wg-a,,,,AAXX 10064 07110 02765 71006 10200 20140 30027 40142 55005 60006 81582 90600 333 10253 20185 60004=
07110,1997-08-10 09:00:00,22,1013,-1.1,73,17,15000,3.704,,,50,,,,,,,,,,,wg-a,,,,AAXX 10094 07110 12765 80502 10220 20170 30016 40130 58011 60006 8358/ 90900=
07110,1997-08-10 12:00:00,21,1013.6,0.5,83,18,8000,14.816,,,160,,,,0,,,,,,81,wg-a,,,,AAXX 10124 07110 02658 81608 10210 20180 30021 40136 53005 60006 78196 8498/ 91200 333 60007=
07110,1997-08-10 15:00:00,24,1009.1,-4.3,74,19,10000,25.928,,,120,,,,1,,,,,,1,wg-a,,,,AAXX 10154 07110 12760 51214 10240 20190 39978 40091 58043 60017 70196 8357/ 91500=
07110,1997-08-10 18:00:00,24,1010.6,1.4,61,16,20000,7.408,,,220,20.1,25.5,,,,,,,,1,wg-a,,,,AAXX 10184 07110 12770 42204 10240 20160 39992 40106 50014 60006 70196 81532 91800 333 10255 20201=
07110,1997-08-10 21:00:00,19,1011.4,0.7,88,17,20000,7.408,,,190,,,,,,,,,,,wg-a,,,,AAXX 10214 07110 12770 41904 10190 20170 39999 40114 51007 60006 83502 92100=
07110,1997-08-11 00:00:00,18,1012,0.5,94,17,15000,11.112,,,170,,,,,,,,,,,wg-a,,,,AAXX 11004 07110 12365 61706 10180 20170 30004 40120 51005 60006 83632 90000=
07110,1997-08-11 06:00:00,18,1012.6,0.7,100,18,6000,14.816,,,210,17.7,23.5,,,,,2,,,,wg-a,,,,AAXX 11064 07110 02/56 /2108 10180 20180 30010 40126 53007 60006 90600 333 10235 20177 60024=
07110,1997-08-11 09:00:00,20,1014.7,2.2,88,18,10000,14.816,,,190,,,,,,,,,,,wg-a,,,,AAXX 11094 07110 12360 71908 10200 20180 30032 40147 52022 60006 866// 90900=
07110,1997-08-11 12:00:00,22,1016,1.3,78,18,12000,22.224,,,200,,,,,,,,,,,wg-a,,,,AAXX 11124 07110 12462 72012 10220 20180 30045 40160 51013 60006 878// 91200=
07110,1997-08-11 15:00:00,22,1016.8,0.8,78,18,15000,18.52,,,190,,,,,,,,,,,wg-a,,,,AAXX 11154 07110 12565 41910 10220 20180 30053 40168 51008 60006 84100 91500=
07110,1997-08-11 18:00:00,20,1018.2,1.3,88,18,20000,22.224,,,190,18.1,22.8,,,,,,,,,wg-a,,,,AAXX 11184 07110 12470 51912 10200 20180 30066 40182 53013 60006 85800 91800 333 10228 20181=
07110,1997-08-11 21:00:00,19,1019.1,0.9,94,18,10000,14.816,,,180,,,,,,,,,,,wg-a,,,,AAXX 11214 07110 12360 71808 10190 20180 30075 40191 51009 60006 875// 92100=
07110,1997-08-12 00:00:00,18,1019.5,0.3,100,18,8000,11.112,,,180,,,,,,,,,,,wg-a,,,,AAXX 12004 07110 12258 /1806 10180 20180 30078 40195 53003 60006 85500 90000=
07110,1997-08-12 03:00:00,19,1019.6,0.2,94,18,8000,14.816,,,160,,,,,,,,,,,wg-a,,,,AAXX 12034 07110 12558 71608 10190 20180 30080 40196 53002 60006 875// 90300=
07110,1997-08-12 06:00:00,19,1020.7,1,94,18,4000,14.816,,,160,18.1,20.4,,,,,,,,10,wg-a,,,,AAXX 12064 07110 02240 81608 10190 20180 30090 40207 53010 60006 71022 876// 90600 333 10204 20181 60004=
07110,1997-08-12 09:00:00,22,1021,0.5,73,17,12000,22.224,,,180,,,,,,,,,,,wg-a,,,,AAXX 12094 07110 12562 /1812 10220 20170 30095 40210 51005 60006 83231 90900=
07110,1997-08-12 12:00:00,24,1021,0.1,69,18,15000,22.224,,,180,,,,,,,,,,,wg-a,,,,AAXX 12124 07110 12565 71812 10240 20180 30096 40210 53001 60006 85272 91200=
07110,1997-08-12 15:00:00,23,1020.3,-0.8,73,18,15000,11.112,,,180,,,,,,,,,,,wg-a,,,,AAXX 12154 07110 12565 71806 10230 20180 30088 40203 58008 60006 8227/ 91500=
07110,1997-08-12 18:00:00,20,1020.8,0.4,88,18,10000,7.408,,,310,18.5,24.6,,0,,,,,,1,wg-a,,,,AAXX 12184 07110 02560 83104 10200 20180 30092 40208 52004 60006 70186 8487/ 91800 333 10246 20185 60007=
07110,1997-08-12 21:00:00,17,1021.9,0.9,94,16,8000,11.112,,,200,,,,3,,,,,,61,wg-a,,,,AAXX 12214 07110 12258 82006 10170 20160 30101 40219 51009 60037 76162 875// 92100=
07110,1997-08-13 00:00:00,17,1021.8,-0.1,94,16,9000,3.704,,,60,,,,,,,,,,3,wg-a,,,,AAXX 13004 07110 02/59 70602 10170 20160 30100 40218 55001 60036 70362 8703/ 90000 333 61000=
07110,1997-08-13 03:00:00,16,1021.3,-0.5,100,16,11000,3.704,,,180,,,,,,,,,,,wg-a,,,,AAXX 13034 07110 12/61 /1802 10160 20160 30095 40213 56005 60006 90300=
07110,1997-08-13 06:00:00,16,1023.1,1.8,100,16,10000,7.408,,,230,15.2,20.2,,,,,3,,,11,wg-a,,,,AAXX 13064 07110 02560 22304 10160 20160 30113 40231 53018 60006 71111 81502 90600 333 10202 20152 60034=
07110,1997-08-13 09:00:00,20,1023.6,0.7,83,17,20000,11.112,,,270,,,,,,,,,,,wg-a,,,,AAXX 13094 07110 12470 42706 10200 20170 30120 40236 51007 60006 84202 90900=
07110,1997-08-13 12:00:00,22,1024.3,0.7,69,16,500,14.816,,,250,,,,,,,,,,,wg-a,,,,AAXX 13124 07110 12500 22508 10220 20160 30127 40243 51007 60006 82200 91200=
07110,1997-08-13 18:00:00,20,1025.1,0.1,78,16,20000,11.112,,,230,16.1,22.4,,,,,,,,,wg-a,,,,AAXX 13184 07110 12570 42306 10200 20160 30135 40251 53001 60006 83201 91800 333 10224 20161=
07110,1997-08-13 21:00:00,17,1026,0.7,94,16,12000,0,,,0,,,,,,,,,,,wg-a,,,,AAXX 13214 07110 12562 20000 10170 20160 30142 40260 53007 60006 81501 92100=
07110,1997-08-14 00:00:00,16,1026.1,0.1,94,15,600,7.408,,,120,,,,,,,,,,45,wg-a,,,,AAXX 14004 07110 12/06 91204 10160 20150 30143 40261 52001 60006 74541 89/// 90000=
07110,1997-08-14 03:00:00,15,1025.5,-0.7,100,15,400,0,,,0,,,,0,,,,,,44,wg-a,,,,AAXX 14034 07110 12004 /0000 10150 20150 30136 40255 58007 60007 74442 876// 90300=
07110,1997-08-14 06:00:00,14,1025.3,-0.2,100,14,200,0,,,0,13.6,20.2,,,,,,,,44,wg-a,,,,AAXX 14064 07110 02/02 50000 10140 20140 30134 40253 55002 60006 74442 80001 90600 333 10202 20136 60004=
07110,1997-08-14 09:00:00,19,1024.9,-0.2,88,17,10000,7.408,,,150,,,,,,,,,,3,wg-a,,,,AAXX 14094 07110 12360 51504 10190 20170 30132 40249 57002 60006 70341 83101 90900=
07110,1997-08-14 12:00:00,23,1023.7,-1,65,16,20000,7.408,,,190,,,,,,,,,,1,wg-a,,,,AAXX 14124 07110 12570 41904 10230 20160 30122 40237 57010 60006 70141 82101 91200=
07110,1997-08-14 15:00:00,22,1022.9,-0.8,73,17,20000,14.816,,,360,,,,,,,,,,,wg-a,,,,AAXX 14154 07110 12670 /3608 10220 20170 30114 40229 56008 60006 83201 91500=
07110,1997-08-14 18:00:00,21,1022.5,-0.5,73,16,20000,11.112,,,20,14,24.1,,,,,,,,,wg-a,,,,AAXX 14184 07110 12/70 10206 10210 20160 30109 40225 56005 60006 80001 91800 333 10241 20140=
07110,1997-08-14 21:00:00,17,1023.3,0.6,88,15,20000,3.704,,,350,,,,,,,,,,,wg-a,,,,AAXX 14214 07110 12770 23502 10170 20150 30115 40233 52006 60006 81502 92100=
07110,1997-08-15 00:00:00,15,1022.7,-0.6,100,15,1500,3.704,,,20,,,,,,,,,,10,wg-a,,,,AAXX 15004 07110 12115 40202 10150 20150 30109 40227 58006 60006 71000 84600 90000=
07110,1997-08-15 03:00:00,15,1022.5,-0.2,100,15,300,7.408,,,10,,,,,,,,,,45,wg-a,,,,AAXX 15034 07110 32/03 90104 10150 20150 30107 40225 58002 74541 89/// 90300=
07110,1997-08-15 06:00:00,16,1022,-0.5,94,15,4000,11.112,,,30,14.6,20.5,,,,,,,,10,wg-a,,,,AAXX 15064 07110 02240 80306 10160 20150 30102 40220 56005 60006 71041 886// 90600 333 10205 20146 60004=
07110,1997-08-15 12:00:00,23,1021.3,-0.7,69,17,20000,11.112,,,30,,,,,,,,,,,wg-a,,,,AAXX 15124 07110 12570 /0306 10230 20170 30098 40213 57007 60006 81100 91200=
07110,1997-08-15 15:00:00,23,1020.6,-0.7,69,17,20000,18.52,,,20,,,,,,,,,,,wg-a,,,,AAXX 15154 07110 12670 /0210 10230 20170 30091 40206 58007 60006 81100 91500=
07110,1997-08-15 18:00:00,22,1019.3,-1.3,65,15,20000,11.112,,,30,15.6,23.7,,,,,,,,,wg-a,,,,AAXX 15184 07110 12/70 20306 10220 20150 30078 40193 56013 60006 80001 91800 333 10237 20156=
07110,1997-08-15 21:00:00,18,1020.1,0.6,83,15,20000,7.408,,,30,,,,,,,,,,,wg-a,,,,AAXX 15214 07110 12670 50304 10180 20150 30084 40201 53006 60006 83501 92100=
07110,1997-08-16 00:00:00,17,1019.2,-0.9,94,16,10000,7.408,,,30,,,,,,,,,,,wg-a,,,,AAXX 16004 07110 12660 /0304 10170 20160 30075 40192 58009 60006 85500 90000=
07110,1997-08-16 03:00:00,16,1017.9,-1.3,94,15,10000,3.704,,,10,,,,,,,,,,,wg-a,,,,AAXX 16034 07110 12660 30102 10160 20150 30062 40179 56013 60006 83500 90300=
07110,1997-08-16 06:00:00,16,1017.6,-0.4,94,15,6000,0,,,0,15.5,21.4,,,,,,,,11,wg-a,,,,AAXX 16064 07110 02656 /0000 10160 20150 30058 40176 55004 60006 71111 81500 90600 333 10214 20155 60004=
07110,1997-08-16 09:00:00,22,1017.6,0.3,83,19,12000,7.408,,,240,,,,,,,,,,,wg-a,,,,AAXX 16094 07110 12662 32404 10220 20190 30061 40176 53003 60006 83500 90900=
07110,1997-08-16 12:00:00,26,1017.2,-0.2,70,20,11000,7.408,,,290,,,,,,,,,,,wg-a,,,,AAXX 16124 07110 12/61 /2904 10260 20200 30059 40172 58002 60006 91200=
07110,1997-08-16 15:00:00,23,1017.4,0,73,18,15000,14.816,,,330,,,,,,,,,,,wg-a,,,,AAXX 16154 07110 12565 /3308 10230 20180 30059 40174 50000 60006 81100 91500=
07110,1997-08-16 18:00:00,20,1018.2,0.7,83,17,10000,14.816,,,320,15.6,26.1,,,,,,,,,wg-a,,,,AAXX 16184 07110 12660 /3208 10200 20170 30066 40182 53007 60006 84504 91800 333 10261 20156=
07110,1997-08-16 21:00:00,17,1019.1,0.8,94,16,10000,3.704,,,320,,,,,,,,,,,wg-a,,,,AAXX 16214 07110 12660 53202 10170 20160 30074 40191 53008 60006 83501 92100=
07110,1997-08-17 00:00:00,17,1019,-0.1,94,16,10000,0,,,0,,,,,,,,,,,wg-a,,,,AAXX 17004 07110 12760 60000 10170 20160 30073 40190 55001 60006 825/6 90000=
07110,1997-08-17 03:00:00,17,1018.6,-0.4,94,16,7000,3.704,,,230,,,,,,,,,,,wg-a,,,,AAXX 17034 07110 12/57 72302 10170 20160 30069 40186 58004 60006 84031 90300=
07110,1997-08-17 06:00:00,17,1018.9,0.3,100,17,2500,3.704,,,240,16.4,20.1,,,,,,,,28,wg-a,,,,AAXX 17064 07110 02125 72402 10170 20170 30072 40189 53003 60006 72842 876// 90600 333 10201 20164 60004=
07110,1997-08-17 09:00:00,21,1019.2,0.5,83,18,20000,3.704,,,220,,,,,,,,,,,wg-a,,,,AAXX 17094 07110 12470 /2202 10210 20180 30077 40192 52005 60006 82502 90900=
07110,1997-08-17 12:00:00,22,1019.3,0.1,78,18,20000,11.112,,,230,,,,,,,,,,,wg-a,,,,AAXX 17124 07110 12570 82306 10220 20180 30078 40193 53001 60006 875// 91200=
07110,1997-08-17 15:00:00,24,1018.7,-0.5,74,19,20000,11.112,,,250,,,,,,,,,,,wg-a,,,,AAXX 17154 07110 12470 62506 10240 20190 30073 40187 58005 60006 84832 91500=
07110,1997-08-17 18:00:00,21,1018.8,-0,83,18,15000,11.112,,,260,16.9,23.9,,,,,,,,,wg-a,,,,AAXX 17184 07110 12465 42606 10210 20180 30073 40188 54000 60006 84802 91800 333 10239 20169=
07110,1997-08-17 21:00:00,19,1019.9,1,94,18,8000,7.408,,,230,,,,,,,,,,,wg-a,,,,AAXX 17214 07110 12258 32304 10190 20180 30083 40199 53010 60006 83600 92100=
07110,1997-08-18 00:00:00,18,1019.4,-0.5,100,18,7000,0,,,0,,,,,,,,,,,wg-a,,,,AAXX 18004 07110 12157 80000 10180 20180 30078 40194 58005 60006 886// 90000=
07110,1997-08-18 03:00:00,17,1018.9,-0.6,100,17,7000,3.704,,,140,,,,,,,,,,,wg-a,,,,AAXX 18034 07110 12157 81402 10170 20170 30072 40189 58006 60006 886// 90300=
07110,1997-08-18 06:00:00,17,1018.6,-0.3,100,17,500,3.704,,,140,17.1,21.3,,,,,,,,,wg-a,,,,AAXX 18064 07110 02/05 /1402 10170 20170 30069 40186 55003 60006 90600 333 10213 20171 60004=
07110,1997-08-18 09:00:00,22,1018.5,0.1,83,19,15000,7.408,,,130,,,,,,,,,,3,wg-a,,,,AAXX 18094 07110 12465 71304 10220 20190 30070 40185 53001 60006 70342 83104 90900=
07110,1997-08-18 12:00:00,23,1018.7,0.3,78,19,15000,11.112,,,230,,,,,,,,,,3,wg-a,,,,AAXX 18124 07110 12565 72306 10230 20190 30073 40187 51003 60006 70342 85804 91200=
07110,1997-08-18 15:00:00,24,1017.7,-1,74,19,11000,7.408,,,160,,,,,,,,,,,wg-a,,,,AAXX 18154 07110 12/61 /1604 10240 20190 30063 40177 58010 60006 91500=
07110,1997-08-18 18:00:00,21,1017.8,-0,83,18,12000,7.408,,,310,17.1,25,,,,,,,,,wg-a,,,,AAXX 18184 07110 12462 73104 10210 20180 30063 40178 55000 60006 875// 91800 333 10250 20171=
07110,1997-08-18 21:00:00,20,1018.4,0.5,88,18,12000,3.704,,,210,,,,,,,,,,,wg-a,,,,AAXX 18214 07110 12762 72102 10200 20180 30068 40184 53005 60006 875// 92100=
07110,1997-08-19 00:00:00,19,1017.7,-0.7,88,17,10000,7.408,,,190,,,,,,,,,,,wg-a,,,,AAXX 19004 07110 12760 71904 10190 20170 30061 40177 58007 60006 8353/ 90000=
07110,1997-08-19 06:00:00,18,1016.6,-0.1,94,17,8000,7.408,,,190,17.6,21.4,,,,,,,,,wg-a,,,,AAXX 19064 07110 02758 /1904 10180 20170 30050 40166 55001 60006 83530 90600 333 10214 20176 60004=
07110,1997-08-19 09:00:00,21,1016.9,0.4,83,18,15000,11.112,,,170,,,,,,,,,,,wg-a,,,,AAXX 19094 07110 12665 71706 10210 20180 30054 40169 53004 60006 8553/ 90900=
07110,1997-08-19 12:00:00,24,1016.7,-0.1,74,19,15000,14.816,,,190,,,,,,,,,,,wg-a,,,,AAXX 19124 07110 12465 51908 10240 20190 30053 40167 58001 60006 83130 91200=
07110,1997-08-19 15:00:00,24,1016,-0.7,78,20,15000,7.408,,,200,,,,,,,,,,,wg-a,,,,AAXX 19154 07110 12565 72004 10240 20200 30046 40160 57007 60006 8583/ 91500=
07110,1997-08-19 18:00:00,22,1016.4,0.3,83,19,15000,7.408,,,240,17.9,25,,,,,,,,,wg-a,,,,AAXX 19184 07110 12465 72404 10220 20190 30049 40164 51003 60006 8587/ 91800 333 10250 20179=
07110,1997-08-19 21:00:00,20,1016.7,0.2,94,19,15000,3.704,,,280,,,,,,,,,,,wg-a,,,,AAXX 19214 07110 12765 62802 10200 20190 30051 40167 53002 60006 85530 92100=
07110,1997-08-20 00:00:00,19,1017,0.3,94,18,15000,3.704,,,290,,,,,,,,,,,wg-a,,,,AAXX 20004 07110 12765 62902 10190 20180 30054 40170 53003 60006 83530 90000=
07110,1997-08-20 03:00:00,19,1016.1,-0.9,94,18,15000,3.704,,,230,,,,,,,,,,,wg-a,,,,AAXX 20034 07110 12765 62302 10190 20180 30045 40161 56009 60006 83530 90300=
07110,1997-08-20 06:00:00,18,1016.6,0.5,100,18,100,3.704,,,160,18,21.8,,,,,,,,44,wg-a,,,,AAXX 20064 07110 02001 /1602 10180 20180 30050 40166 53005 60006 74441 86600 90600 333 10218 20180 60004=
07110,1997-08-20 12:00:00,24,1017,0,74,19,15000,14.816,,,200,,,,,,,,,,1,wg-a,,,,AAXX 20124 07110 12565 42008 10240 20190 30056 40170 50000 60006 70141 84800 91200=
07110,1997-08-20 15:00:00,24,1016.9,-0.1,74,19,15000,18.52,,,230,,,,,,,,,,,wg-a,,,,AAXX 20154 07110 12565 22310 10240 20190 30055 40169 55001 60006 82801 91500=
07110,1997-08-20 18:00:00,22,1017.3,0.3,83,19,15000,11.112,,,230,18.4,24.5,,,,,,,,,wg-a,,,,AAXX 20184 07110 12465 32306 10220 20190 30058 40173 53003 60006 82801 91800 333 10245 20184=
07110,1997-08-20 21:00:00,19,1018.1,0.7,94,18,15000,3.704,,,220,,,,,,,,,,,wg-a,,,,AAXX 20214 07110 12465 32202 10190 20180 30065 40181 51007 60006 81101 92100=
07110,1997-08-21 00:00:00,18,1018.6,0.4,94,17,9000,0,,,0,,,,,,,,,,12,wg-a,,,,AAXX 21004 07110 12259 50000 10180 20170 30069 40186 53004 60006 71211 84701 90000=
07110,1997-08-21 03:00:00,18,1018.8,0.2,100,18,8000,3.704,,,230,,,,0,,,,,,1,wg-a,,,,AAXX 21034 07110 12258 /2302 10180 20180 30071 40188 51002 60007 70142 85500 90300=
07110,1997-08-21 06:00:00,18,1019.1,0.3,94,17,10000,7.408,,,240,17.2,21.9,,,,,,,,1,wg-a,,,,AAXX 21064 07110 02360 82404 10180 20170 30074 40191 53003 60006 70142 886// 90600 333 10219 20172 60004=
07110,1997-08-21 07:00:00,18,1019.1,0.3,94,17,10000,7.408,,,240,17.2,,,,,,,,,1,wg-a,,,,AAXX 21074 07110 12360 82404 10180 20170 30074 40191 53003 60004 70142 886// 90700 333 20172=
07110,1997-08-21 09:00:00,18,1020,0.9,94,17,15000,11.112,,,190,,,,,,,,,,,wg-a,,,,AAXX 21094 07110 12265 81906 10180 20170 30083 40200 51009 60006 886// 90900=
07110,1997-08-21 12:00:00,19,1020.2,0.3,88,17,15000,11.112,,,210,,,,,,,,,,,wg-a,,,,AAXX 21124 07110 12465 82106 10190 20170 30086 40202 52003 60006 885// 91200=
07110,1997-08-21 18:00:00,20,1020.5,0.4,83,17,15000,14.816,,,230,18,21.4,,,,,,,,,wg-a,,,,AAXX 21184 07110 12465 52308 10200 20170 30089 40205 52004 60006 82532 91800 333 10214 20180=
07110,1997-08-22 00:00:00,18,1020.9,-0.3,94,17,10000,7.408,,,190,,,,,,,,,,,wg-a,,,,AAXX 22004 07110 12260 71904 10180 20170 30092 40209 58003 60006 875// 90000=
07110,1997-08-22 06:00:00,18,1021.4,0.4,100,18,300,7.408,,,180,17.8,19.9,,,,,,,,44,wg-a,,,,AAXX 22064 07110 02003 81804 10180 20180 30097 40214 53004 60006 74454 886// 90600 333 10199 20178 61000=
07110,1997-08-22 09:00:00,19,1022.1,0.7,100,19,1500,14.816,,,200,,,,,,,,,,50,wg-a,,,,AAXX 22094 07110 02215 82008 10190 20190 30104 40221 53007 61000 75054 886// 90900 333 ////=
07110,1997-08-22 12:00:00,20,1021.7,-0.3,100,20,4000,11.112,,,220,,,,,,,,,,10,wg-a,,,,AAXX 22124 07110 02240 82206 10200 20200 30101 40217 57003 61000 71054 886// 91200 333 6100=
07110,1997-08-22 15:00:00,21,1020.8,-0.8,88,19,15000,11.112,,,190,,,,,,,,,,,wg-a,,,,AAXX 22154 07110 12465 81906 10210 20190 30093 40208 58008 60006 885// 91500=
07110,1997-08-22 18:00:00,20,1020.3,-0.6,94,19,8000,7.408,,,250,18.3,21.6,,,,,,,,,wg-a,,,,AAXX 22184 07110 12358 72504 10200 20190 30087 40203 58006 60006 875// 91800 333 10216 20183=
07110,1997-08-22 21:00:00,19,1020.2,-0.1,94,18,500,7.408,,,240,,,,,,,,,,,wg-a,,,,AAXX 22214 07110 12200 82404 10190 20180 30086 40202 56001 60006 876// 92100=
07110,1997-08-23 00:00:00,18,1019,-1.3,94,17,1300,7.408,,,210,,,,,,,,,,10,wg-a,,,,AAXX 23004 07110 12013 82104 10180 20170 30073 40190 57013 60006 71022 886// 90000=
07110,1997-08-23 03:00:00,17,1017.9,-1.1,100,17,400,7.408,,,190,,,,,,,,,,45,wg-a,,,,AAXX 23034 07110 12/04 91904 10170 20170 30062 40179 56011 60006 74542 89/// 90300=
07110,1997-08-23 06:00:00,17,1017.3,-0.6,100,17,500,7.408,,,210,17,20.4,,,,,,,,44,wg-a,,,,AAXX 23064 07110 02005 82104 10170 20170 30056 40173 56006 60006 74442 886// 90600 333 10204 20170 61000=
07110,1997-08-23 09:00:00,19,1016.9,-0.3,100,19,10000,14.816,,,200,,,,0,,,,,,1,wg-a,,,,AAXX 23094 07110 12460 /2008 10190 20190 30053 40169 57003 60007 70142 86500 90900=
07110,1997-08-23 15:00:00,21,1015.6,-1,83,18,12000,14.816,,,210,,,,,,,,,,,wg-a,,,,AAXX 23154 07110 12362 82108 10210 20180 30041 40156 58010 60006 886// 91500=
07110,1997-08-23 18:00:00,20,1014.8,-0.8,88,18,10000,11.112,,,210,17.3,22.1,,,,,,,,,wg-a,,,,AAXX 23184 07110 12360 72106 10200 20180 30033 40148 58008 60006 875// 91800 333 10221 20173=
07110,1997-08-23 21:00:00,19,1014.9,-0,94,18,10000,11.112,,,170,,,,,,,,,,,wg-a,,,,AAXX 23214 07110 12260 81706 10190 20180 30033 40149 54000 60006 876// 92100=
07110,1997-08-24 00:00:00,19,1014.2,-0.7,94,18,6000,11.112,,,190,,,,0,,,,,,51,wg-a,,,,AAXX 24004 07110 02256 71906 10190 20180 30026 40142 58007 60006 75152 876// 90000 333 60007=
07110,1997-08-24 03:00:00,19,1013.5,-0.7,100,19,4000,11.112,,,210,,,,0,,,,,,51,wg-a,,,,AAXX 24034 07110 12140 82106 10190 20190 30019 40135 56007 60007 75165 877// 90300=
07110,1997-08-24 06:00:00,19,1013.4,-0.1,100,19,3000,7.408,,,200,18.6,20.1,,,,,1,,,10,wg-a,,,,AAXX 24064 07110 02130 72004 10190 20190 30018 40134 55001 60006 71065 877// 90600 333 10201 20186 60014=
07110,1997-08-24 09:00:00,21,1013.6,0.3,94,20,8000,18.52,,,190,,,,0,,,,,,,wg-a,,,,AAXX 24094 07110 12258 71910 10210 20200 30021 40136 51003 60007 878// 90900=
07110,1997-08-24 12:00:00,23,1013.2,-0.3,78,19,15000,22.224,,,220,,,,,,,,,,,wg-a,,,,AAXX 24124 07110 12465 62212 10230 20190 30018 40132 57003 60006 86830 91200=
07110,1997-08-24 18:00:00,19,1012.5,-0.2,94,18,12000,7.408,,,280,18.8,23.2,,,,,,,,61,wg-a,,,,AAXX 24184 07110 02262 82804 10190 20180 30010 40125 58002 61000 76162 877// 91800 333 10232 20188 6100=
07110,1997-08-24 21:00:00,18,1012.4,-0.2,94,17,7000,3.704,,,160,,,,5,,,,,,61,wg-a,,,,AAXX 24214 07110 12257 81602 10180 20170 30008 40124 56002 60057 76166 875// 92100=
07110,1997-08-25 00:00:00,17,1011.3,-1.1,100,17,7000,7.408,,,170,,,,5,,,,,,61,wg-a,,,,AAXX 25004 07110 02257 81704 10170 20170 39997 40113 58011 60106 76166 877// 90000 333 60057=
07110,1997-08-25 03:00:00,17,1010.2,-1.1,94,16,11000,7.408,,,220,,,,,,,,,,,wg-a,,,,AAXX 25034 07110 32/61 /2204 10170 20160 39986 40102 58011 90300=
07110,1997-08-25 06:00:00,16,1010.4,0.2,100,16,15000,7.408,,,330,16.1,19,,,,,,,,21,wg-a,,,,AAXX 25064 07110 02265 73304 10160 20160 39988 40104 53002 61000 72162 86270 90600 333 10190 20161 6016=
07110,1997-08-25 09:00:00,18,1011.2,0.8,83,15,20000,14.816,,,340,,,,,,,,,,,wg-a,,,,AAXX 25094 07110 12470 43408 10180 20150 39996 40112 53008 60006 83201 90900=
07110,1997-08-25 12:00:00,19,1012.3,1.2,73,14,25000,14.816,,,310,,,,,,,,,,,wg-a,,,,AAXX 25124 07110 12575 /3108 10190 20140 30008 40123 51012 60006 85200 91200=
07110,1997-08-25 15:00:00,19,1012.9,0.5,73,14,25000,14.816,,,310,,,,,,,,,,,wg-a,,,,AAXX 25154 07110 12575 43108 10190 20140 30013 40129 51005 60006 84201 91500=
07110,1997-08-25 18:00:00,19,1013.4,0.5,64,12,25000,14.816,,,290,16,20.2,,,,,,,,,wg-a,,,,AAXX 25184 07110 12575 22908 10190 20120 30018 40134 51005 60006 81201 91800 333 10202 20160=
07110,1997-08-25 21:00:00,15,1014.5,0.9,88,13,20000,7.408,,,190,,,,,,,,,,,wg-a,,,,AAXX 25214 07110 12/70 01904 10150 20130 30027 40145 51009 60006 80000 92100=
07110,1997-08-26 00:00:00,13,1013.9,-0.6,100,13,20000,7.408,,,200,,,,,,,,,,,wg-a,,,,AAXX 26004 07110 12/70 02004 10130 20130 30021 40139 57006 60006 80000 90000=
07110,1997-08-26 03:00:00,14,1012.8,-1.1,94,13,20000,7.408,,,120,,,,,,,,,,,wg-a,,,,AAXX 26034 07110 12/70 61204 10140 20130 30010 40128 56011 60006 86070 90300=
07110,1997-08-26 06:00:00,14,1012.3,-0.5,94,13,20000,11.112,,,140,13.3,18.4,,,,,,,,,wg-a,,,,AAXX 26064 07110 02570 71406 10140 20130 30005 40123 57005 60006 82876 90600 333 10184 20133 60004=
07110,1997-08-26 12:00:00,19,1010.2,-1.2,83,16,20000,22.224,,,170,,,,,,,,,,,wg-a,,,,AAXX 26124 07110 12570 71712 10190 20160 39987 40102 58012 60006 8487/ 91200=
07110,1997-08-26 15:00:00,20,1007.8,-2.4,68,14,25000,25.928,,,180,,,,,,,,,,,wg-a,,,,AAXX 26154 07110 12575 51814 10200 20140 39963 40078 58024 60006 83232 91500=
07110,1997-08-26 18:00:00,17,1005.8,-2.1,82,14,10000,18.52,,,170,14.1,20.8,,,,,,,,25,wg-a,,,,AAXX 26184 07110 02460 71710 10170 20140 39942 40058 58021 61000 72586 8587/ 91800 333 10208 20141 6001=
07110,1997-08-26 21:00:00,17,1003.6,-2.1,77,13,10000,25.928,,,160,,,,,,,,,,61,wg-a,,,,AAXX 26214 07110 02660 81614 10170 20130 39921 40036 56021 61000 76162 8752/ 92100 333 ////=
07110,1997-08-27 00:00:00,16,1000.5,-3.2,94,15,4000,31.484,,,160,,,,7,,,,,,63,wg-a,,,,AAXX 27004 07110 02240 81617 10160 20150 39889 40005 56032 60076 76362 8652/ 90000 333 60077=
07110,1997-08-27 06:00:00,16,998.4,0.7,94,15,9000,11.112,,,250,15,17.8,,,,,,,,80,wg-a,,,,AAXX 27064 07110 02459 72506 10160 20150 39869 49984 53007 61000 78086 878// 90600 333 10178 20150 6014=
07110,1997-08-27 09:00:00,18,999.4,1.1,83,15,15000,14.816,,,240,,,,,,,,,,3,wg-a,,,,AAXX 27094 07110 02565 42408 10180 20150 39880 49994 51011 61000 70386 84800 90900 333 ////=
07110,1997-08-27 12:00:00,19,1000.1,0.7,68,13,15000,14.816,,35.188,240,,,,,,,,,,3,wg-a,,,,AAXX 27124 07110 02565 42408 10190 20130 39887 40001 51007 61000 70386 84200 91200 333 //// 91019=
07110,1997-08-27 15:00:00,19,1000.2,0.1,60,11,15000,18.52,,,210,,,,0,,,,,,,wg-a,,,,AAXX 27154 07110 12565 32110 10190 20110 39888 40002 50001 60007 83200 91500=
07110,1997-08-27 18:00:00,17,999.2,-1.1,77,13,12000,14.816,,,200,15.7,19.6,,,,,,,,,wg-a,,,,AAXX 27184 07110 12562 62008 10170 20130 39877 49992 58011 60006 85330 91800 333 10196 20157=
07110,1997-08-27 21:00:00,13,998.7,-0.6,94,12,15000,11.112,,,170,,,,9,,,,,,25,wg-a,,,,AAXX 27214 07110 12565 71706 10130 20120 39871 49987 58006 60097 72586 878// 92100=
07110,1997-08-28 00:00:00,13,997.6,-1.1,94,12,15000,3.704,,,280,,,,2,,,,,,1,wg-a,,,,AAXX 28004 07110 02665 32802 10130 20120 39860 49976 56011 60116 70186 83500 90000 333 60027=
07110,1997-08-28 06:00:00,13,998.3,0.4,94,12,15000,11.112,,,220,11.4,16.8,,,,,15,,,3,wg-a,,,,AAXX 28064 07110 02465 72206 10130 20120 39867 49983 53004 60006 70386 84901 90600 333 10168 20114 60154=
07110,1997-08-28 09:00:00,14,999,0.7,94,13,6000,22.224,,,240,,,,2,,,,,,81,wg-a,,,,AAXX 28094 07110 12456 82412 10140 20130 39874 49990 53007 60027 78186 889// 90900=
07110,1997-08-28 12:00:00,15,1002.1,3.1,88,13,8000,31.484,,55.56,280,,,,5,,,,,,80,wg-a,,,,AAXX 28124 07110 02458 82817 10150 20130 39905 40021 53031 60076 78086 879// 91200 333 60057 91030=
07110,1997-08-28 18:00:00,15,1006.3,1.9,82,12,10000,25.928,,,260,13.2,17,,,,,,,,25,wg-a,,,,AAXX 28184 07110 02560 72614 10150 20120 39946 40063 53019 61000 72586 878// 91800 333 10170 20132 6000=
07110,1997-08-28 21:00:00,14,1008.9,2.6,82,11,15000,18.52,,,260,,,,,,,,,,,wg-a,,,,AAXX 28214 07110 12465 42610 10140 20110 39972 40089 51026 60006 84800 92100=
07110,1997-08-29 00:00:00,14,1010.8,1.8,82,11,15000,22.224,,,250,,,,,,,,,,,wg-a,,,,AAXX 29004 07110 12665 32512 10140 20110 39990 40108 51018 60006 83500 90000=
07110,1997-08-29 03:00:00,15,1011.6,0.9,77,11,15000,14.816,,,250,,,,,,,,,,,wg-a,,,,AAXX 29034 07110 12565 32508 10150 20110 39999 40116 51009 60006 83800 90300=
07110,1997-08-29 06:00:00,13,1013,1.3,94,12,15000,11.112,,,230,12.8,15.3,,,,,,,,25,wg-a,,,,AAXX 29064 07110 02465 42306 10130 20120 30012 40130 53013 61000 72586 84900 90600 333 10153 20128 6010=
07110,1997-08-29 09:00:00,17,1013.9,1,82,14,15000,18.52,,,230,,,,,,,,,,,wg-a,,,,AAXX 29094 07110 12565 72310 10170 20140 30022 40139 52010 60006 84832 90900=
07110,1997-08-29 12:00:00,17,1014,0.2,82,14,15000,22.224,,,210,,,,,,,,,,,wg-a,,,,AAXX 29124 07110 12465 72112 10170 20140 30024 40140 50002 60006 8587/ 91200=
07110,1997-08-29 15:00:00,16,1012.9,-1.2,94,15,6000,25.928,,,170,,,,1,,,,,,61,wg-a,,,,AAXX 29154 07110 12456 81714 10160 20150 30012 40129 58012 60017 76162 8557/ 91500=
07110,1997-08-29 18:00:00,16,1009.2,-3.6,94,15,4000,35.188,,,180,13.1,18,,,,,,,,51,wg-a,,,,AAXX 29184 07110 02140 81819 10160 20150 39976 40092 58036 61000 75165 887// 91800 333 10180 20131 6002=
07110,1997-08-30 00:00:00,18,1009,0.7,100,18,500,29.632,,48.152,230,,,,2,,,,,,21,wg-a,,,,AAXX 30004 07110 02100 82316 10180 20180 39974 40090 51007 60066 72165 887// 90000 333 60027 91026=
07110,1997-08-30 03:00:00,18,1009.2,0.2,94,17,500,29.632,,48.152,240,,,,2,,,,,,61,wg-a,,,,AAXX 30034 07110 12100 82416 10180 20170 39976 40092 53002 60027 76162 887// 90300 333 91026=
07110,1997-08-30 06:00:00,17,1011,1.8,100,17,500,22.224,,,250,16.1,17.9,,,,,,,,50,wg-a,,,,AAXX 30064 07110 02200 82512 10170 20170 39994 40110 53018 61000 75065 877// 90600 333 10179 20161 6012=
07110,1997-08-30 09:00:00,18,1013.2,2.2,88,16,10000,7.408,,,260,,,,,,,,,,1,wg-a,,,,AAXX 30094 07110 02460 82604 10180 20160 30016 40132 51022 61000 70152 877// 90900 333 ////=
07110,1997-08-30 12:00:00,18,1014.3,1.1,94,17,4000,14.816,,,190,,,,,,,,,,50,wg-a,,,,AAXX 30124 07110 02240 71908 10180 20170 30027 40143 51011 61000 75052 877// 91200 333 6100=
07110,1997-08-30 15:00:00,20,1014.8,0.5,88,18,8000,18.52,,,220,,,,0,,,,,,3,wg-a,,,,AAXX 30154 07110 12458 72210 10200 20180 30032 40148 51005 60007 70352 875// 91500=
07110,1997-08-30 18:00:00,18,1014.2,-0.6,94,17,7000,18.52,,,180,16.6,20,,,,,,,,2,wg-a,,,,AAXX 30184 07110 12257 71810 10180 20170 30026 40142 58006 60006 70252 876// 91800 333 10200 20166=
07110,1997-08-30 21:00:00,18,1014,-0.2,94,17,6000,18.52,,,180,,,,,,,,,,1,wg-a,,,,AAXX 30214 07110 02356 81810 10180 20170 30024 40140 58002 61000 70162 876// 92100 333 ////=
07110,1997-08-31 00:00:00,17,1012.4,-1.6,94,16,9000,18.52,,,160,,,,,,,,,,1,wg-a,,,,AAXX 31004 07110 02359 /1610 10170 20160 30008 40124 58016 61000 70161 81600 90000 333 ////=
07110,1997-08-31 03:00:00,17,1009.8,-2.6,94,16,10000,14.816,,,140,,,,,,,,,,,wg-a,,,,AAXX 31034 07110 12360 71408 10170 20160 39982 40098 58026 60006 876// 90300=
07110,1997-08-31 06:00:00,17,1008,-1.8,94,16,8000,25.928,,,160,16.5,18.1,,,,,,,,21,wg-a,,,,AAXX 31064 07110 02358 /1614 10170 20160 39964 40080 58018 61000 72161 86500 90600 333 10181 20165 6000=
07110,1997-08-31 09:00:00,18,1007.7,-0.2,88,16,15000,31.484,,,200,,,,,,,,,,,wg-a,,,,AAXX 31094 07110 12465 72017 10180 20160 39962 40077 56002 60006 875// 90900=
07110,1997-08-31 12:00:00,18,1009.3,1.5,77,14,20000,35.188,,57.412,220,,,,0,,,,,,,wg-a,,,,AAXX 31124 07110 02570 /2219 10180 20140 39977 40093 53015 60006 85500 91200 333 60007 91031=
07110,1997-08-31 15:00:00,17,1011.1,1.8,82,14,20000,25.928,,,230,,,,,,,,,,,wg-a,,,,AAXX 31154 07110 12470 72314 10170 20140 39995 40111 51018 60006 878// 91500=
07110,1997-08-31 18:00:00,16,1013.3,2.1,88,14,15000,18.52,,,260,16.1,18.8,,,,,,,,25,wg-a,,,,AAXX 31184 07110 02465 72610 10160 20140 30016 40133 51021 61000 72586 8587/ 91800 333 10188 20161 6100=
07110,1997-08-31 21:00:00,15,1015.9,2.5,88,13,20000,11.112,,,230,,,,,,,,,,,wg-a,,,,AAXX 31214 07110 12470 /2306 10150 20130 30041 40159 51025 60006 86800 92100=
07110,1997-09-01 00:00:00,14,1017.1,1.2,82,11,15000,7.408,,,230,,,,,,,,,,,wg-a,,,,AAXX 01004 07110 12565 32304 10140 20110 30053 40171 51012 60006 83800 90000=
07110,1997-09-01 03:00:00,13,1017.2,-0,88,11,10000,7.408,,,220,,,,,,,,,,,wg-a,,,,AAXX 01034 07110 12560 42204 10130 20110 30053 40172 55000 60006 83830 90300=
07110,1997-09-01 06:00:00,13,1018.6,1.4,88,11,15000,7.408,,,220,12.4,16.4,,,,,,,,,wg-a,,,,AAXX 01064 07110 02565 52204 10130 20110 30067 40186 53014 60006 83501 90600 333 10164 20124 60004=
07110,1997-09-01 09:00:00,16,1019.3,0.9,82,13,20000,11.112,,,250,,,,,,,,,,,wg-a,,,,AAXX 01094 07110 12570 52506 10160 20130 30076 40193 51009 60006 83801 90900=
07110,1997-09-01 12:00:00,18,1019.7,0.4,73,13,20000,14.816,,,280,,,,,,,,,,,wg-a,,,,AAXX 01124 07110 12570 /2808 10180 20130 30080 40197 53004 60006 86800 91200=
07110,1997-09-01 15:00:00,18,1019.8,0.1,73,13,20000,14.816,,,280,,,,,,,,,,,wg-a,,,,AAXX 01154 07110 12570 /2808 10180 20130 30081 40198 51001 60006 85100 91500=
07110,1997-09-01 18:00:00,17,1020.6,0.8,77,13,20000,11.112,,,270,12.8,18.8,,,,,,,,,wg-a,,,,AAXX 01184 07110 12570 /2706 10170 20130 30089 40206 53008 60006 85100 91800 333 10188 20128=
07110,1997-09-01 21:00:00,13,1021.6,0.8,94,12,20000,3.704,,,240,,,,,,,,,,,wg-a,,,,AAXX 01214 07110 12570 /2402 10130 20120 30097 40216 51008 60006 81100 92100=
07110,1997-09-02 00:00:00,12,1021.2,-0.5,94,11,15000,7.408,,,160,,,,,,,,,,,wg-a,,,,AAXX 02004 07110 12/65 01604 10120 20110 30092 40212 58005 60006 80000 90000=
07110,1997-09-02 03:00:00,13,1021.3,0.2,94,12,12000,11.112,,,170,,,,,,,,,,,wg-a,,,,AAXX 02034 07110 12362 /1706 10130 20120 30094 40213 51002 60006 81500 90300=
07110,1997-09-02 06:00:00,13,1020.9,-0.4,100,13,15000,11.112,,,170,11.7,17.2,,,,,,,,,wg-a,,,,AAXX 02064 07110 02465 41706 10130 20130 30090 40209 56004 60006 82802 90600 333 10172 20117 60004=
07110,1997-09-02 09:00:00,17,1021,0.2,82,14,15000,22.224,,,190,,,,,,,,,,,wg-a,,,,AAXX 02094 07110 12565 71912 10170 20140 30092 40210 51002 60006 86502 90900=
07110,1997-09-02 12:00:00,18,1021.4,0.5,73,13,15000,25.928,,,200,,,,,,,,,,,wg-a,,,,AAXX 02124 07110 12565 72014 10180 20130 30097 40214 52005 60006 82132 91200=
07110,1997-09-02 18:00:00,17,1020.3,-0.4,82,14,15000,25.928,,,190,13,19,,,,,,,,,wg-a,,,,AAXX 02184 07110 12565 71914 10170 20140 30086 40203 58004 60006 84802 91800 333 10190 20130=
07110,1997-09-02 21:00:00,16,1020.4,0,88,14,15000,18.52,,,190,,,,,,,,,,,wg-a,,,,AAXX 02214 07110 12/65 41910 10160 20140 30086 40204 50000 60006 80004 92100=
07110,1997-09-03 00:00:00,16,1019.4,-1,88,14,15000,22.224,,,190,,,,,,,,,,,wg-a,,,,AAXX 03004 07110 12665 /1912 10160 20140 30076 40194 58010 60006 82502 90000=
07110,1997-09-03 03:00:00,17,1018.3,-1,88,15,15000,22.224,,,180,,,,,,,,,,,wg-a,,,,AAXX 03034 07110 12465 71812 10170 20150 30066 40183 56010 60006 8457/ 90300=
07110,1997-09-03 06:00:00,16,1017.1,-1.2,94,15,12000,25.928,,,190,15.8,17.2,,,,,,,,21,wg-a,,,,AAXX 03064 07110 02462 71914 10160 20150 30054 40171 56012 61000 72162 8655/ 90600 333 10172 20158 6000=
07110,1997-09-03 09:00:00,18,1016.9,-0.2,83,15,15000,31.484,,50.004,190,,,,,,,,,,,wg-a,,,,AAXX 03094 07110 12465 71917 10180 20150 30052 40169 57002 60006 8585/ 90900 333 91027=
07110,1997-09-03 12:00:00,19,1017.1,0.3,83,16,15000,35.188,,55.56,200,,,,,,,,,,,wg-a,,,,AAXX 03124 07110 12465 72019 10190 20160 30055 40171 53003 60006 8687/ 91200 333 91030=
07110,1997-09-03 18:00:00,18,1016.3,-0.2,88,16,3500,25.928,,,190,16.4,19.3,,,,,,,,51,wg-a,,,,AAXX 03184 07110 02235 81914 10180 20160 30046 40163 56002 61000 75165 875// 91800 333 10193 20164 6000=
07110,1997-09-03 21:00:00,17,1017.1,0.8,100,17,7000,18.52,,,230,,,,1,,,,,,10,wg-a,,,,AAXX 03214 07110 12157 82310 10170 20170 30054 40171 52008 60017 71052 877// 92100=
07110,1997-09-04 00:00:00,16,1017.8,0.7,100,16,12000,7.408,,,240,,,,,,,,,,1,wg-a,,,,AAXX 04004 07110 12562 /2404 10160 20160 30061 40178 53007 60016 70152 85500 90000=
07110,1997-09-04 03:00:00,15,1018,0.1,100,15,10000,3.704,,,350,,,,0,,,,,,3,wg-a,,,,AAXX 04034 07110 12560 83502 10150 20150 30062 40180 51001 60007 70352 875// 90300=
07110,1997-09-04 06:00:00,15,1019.3,1.3,94,14,10000,7.408,,,340,14.7,17.6,,,,,3,,,3,wg-a,,,,AAXX 04064 07110 02360 73404 10150 20140 30075 40193 53013 60006 70352 878// 90600 333 10176 20147 60034=
07110,1997-09-04 09:00:00,16,1020.4,1.1,82,13,20000,11.112,,,360,,,,,,,,,,,wg-a,,,,AAXX 04094 07110 12470 23606 10160 20130 30086 40204 53011 60006 82200 90900=
07110,1997-09-04 15:00:00,19,1020.6,-0.2,52,9,25000,7.408,,,320,,,,,,,,,,,wg-a,,,,AAXX 04154 07110 12675 /3204 10190 20090 30089 40206 58002 60006 81101 91500=
07110,1997-09-04 18:00:00,17,1020.9,0.2,68,11,25000,7.408,,,330,14.5,19.2,,,,,,,,,wg-a,,,,AAXX 04184 07110 12/75 33304 10170 20110 30091 40209 53002 60006 83051 91800 333 10192 20145=
07110,1997-09-04 21:00:00,14,1022.1,1.1,82,11,10000,0,,,0,,,,,,,,,,,wg-a,,,,AAXX 04214 07110 12/60 /0000 10140 20110 30102 40221 51011 60006 92100=
07110,1997-09-05 00:00:00,11,1021.8,-0.4,94,10,15000,0,,,0,,,,,,,,,,,wg-a,,,,AAXX 05004 07110 12/65 00000 10110 20100 30098 40218 56004 60006 80000 90000=
07110,1997-09-05 03:00:00,11,1021.2,-0.6,94,10,15000,3.704,,,160,,,,,,,,,,,wg-a,,,,AAXX 05034 07110 12/65 01602 10110 20100 30092 40212 58006 60006 80000 90300=
07110,1997-09-05 06:00:00,13,1021.2,0.1,94,12,15000,7.408,,,170,10.7,16.6,,,,,,,,,wg-a,,,,AAXX 05064 07110 02365 71704 10130 20120 30093 40212 51001 60006 8585/ 90600 333 10166 20107 60004=
07110,1997-09-05 12:00:00,18,1022,0.2,64,11,20000,11.112,,,300,,,,,,,,,,,wg-a,,,,AAXX 05124 07110 12570 63006 10180 20110 30103 40220 50002 60006 84801 91200=
07110,1997-09-05 15:00:00,19,1022.3,0.3,64,12,20000,18.52,,,310,,,,,,,,,,,wg-a,,,,AAXX 05154 07110 12570 53110 10190 20120 30106 40223 51003 60006 83801 91500=
07110,1997-09-05 18:00:00,17,1023.2,0.8,68,11,20000,11.112,,,330,12.4,19,,,,,,,,,wg-a,,,,AAXX 05184 07110 12570 /3306 10170 20110 30114 40232 53008 60006 81100 91800 333 10190 20124=
07110,1997-09-05 21:00:00,13,1025.1,1.7,94,12,20000,3.704,,,270,,,,,,,,,,,wg-a,,,,AAXX 05214 07110 12570 /2702 10130 20120 30131 40251 51017 60006 81500 92100=
07110,1997-09-06 00:00:00,12,1025.8,0.7,94,11,15000,3.704,,,260,,,,,,,,,,,wg-a,,,,AAXX 06004 07110 12565 32602 10120 20110 30138 40258 52007 60006 83800 90000=
07110,1997-09-06 03:00:00,10,1025.9,0,100,10,15000,3.704,,,290,,,,0,,,,,,,wg-a,,,,AAXX 06034 07110 12565 22902 10100 20100 30138 40259 50000 60007 82800 90300=
07110,1997-09-06 06:00:00,11,1026.8,0.9,94,10,15000,3.704,,,250,10,16.5,,,,,,,,,wg-a,,,,AAXX 06064 07110 02565 32502 10110 20100 30147 40268 53009 60006 83500 90600 333 10165 20100 60004=
07110,1997-09-06 09:00:00,16,1027.9,1.3,77,12,15000,7.408,,,340,,,,,,,,,,,wg-a,,,,AAXX 06094 07110 12465 43404 10160 20120 30160 40279 51013 60006 84800 90900=
07110,1997-09-06 12:00:00,18,1027.9,0.1,73,13,20000,14.816,,,320,,,,,,,,,,,wg-a,,,,AAXX 06124 07110 12570 33208 10180 20130 30161 40279 50001 60006 83200 91200=
07110,1997-09-06 15:00:00,18,1027.9,-0,68,12,20000,14.816,,,330,,,,,,,,,,,wg-a,,,,AAXX 06154 07110 12570 23308 10180 20120 30161 40279 55000 60006 82200 91500=
07110,1997-09-06 18:00:00,16,1028.2,0.2,77,12,20000,11.112,,,320,10.7,18.7,,,,,,,,,wg-a,,,,AAXX 06184 07110 12570 23206 10160 20120 30163 40282 53002 60006 81101 91800 333 10187 20107=
07110,1997-09-06 21:00:00,13,1028.9,0.6,88,11,20000,3.704,,,280,,,,,,,,,,,wg-a,,,,AAXX 06214 07110 12/70 32802 10130 20110 30169 40289 51006 60006 80001 92100=
07110,1997-09-07 00:00:00,11,1028.7,-0.3,100,11,15000,3.704,,,260,,,,,,,,,,,wg-a,,,,AAXX 07004 07110 12/65 32602 10110 20110 30166 40287 58003 60006 80001 90000=
07110,1997-09-07 03:00:00,12,1028.4,-0.3,94,11,15000,7.408,,,250,,,,0,,,,,,,wg-a,,,,AAXX 07034 07110 12/65 72504 10120 20110 30163 40284 58003 60007 86031 90300=
07110,1997-09-07 06:00:00,12,1028.6,0.2,94,11,15000,3.704,,,280,11.3,16.1,,,,,,,,,wg-a,,,,AAXX 07064 07110 02665 72802 10120 20110 30165 40286 53002 60006 83531 90600 333 10161 20113 60004=
07110,1997-09-07 09:00:00,16,1029.9,1.5,88,14,20000,11.112,,,340,,,,,,,,,,,wg-a,,,,AAXX 07094 07110 12370 /3406 10160 20140 30180 40299 51015 60006 83830 90900=
07110,1997-09-07 12:00:00,18,1030.1,0.3,73,13,25000,11.112,,,340,,,,,,,,,,,wg-a,,,,AAXX 07124 07110 12575 53406 10180 20130 30183 40301 51003 60006 85801 91200=
07110,1997-09-07 18:00:00,16,1029.6,0.2,82,13,20000,7.408,,,10,11.6,19.2,,,,,,,,,wg-a,,,,AAXX 07184 07110 12470 20104 10160 20130 30177 40296 51002 60006 81101 91800 333 10192 20116=
07110,1997-09-07 21:00:00,14,1030.9,1.2,94,13,15000,0,,,0,,,,,,,,,,,wg-a,,,,AAXX 07214 07110 12465 40000 10140 20130 30189 40309 51012 60006 84501 92100=
07110,1997-09-08 00:00:00,14,1030.7,-0.2,94,13,10000,3.704,,,340,,,,,,,,,,,wg-a,,,,AAXX 08004 07110 12460 83402 10140 20130 30187 40307 58002 60006 875// 90000=
07110,1997-09-08 03:00:00,13,1030.3,-0.4,94,12,600,3.704,,,320,,,,,,,,,,44,wg-a,,,,AAXX 08034 07110 12106 83202 10130 20120 30183 40303 55004 60006 74441 886// 90300=
07110,1997-09-08 06:00:00,14,1030.2,-0.1,94,13,7000,3.704,,,10,12.3,16.2,,,,,,,,1,wg-a,,,,AAXX 08064 07110 02257 70102 10140 20130 30182 40302 55001 60006 70141 85501 90600 333 10162 20123 60004=
07110,1997-09-08 09:00:00,15,1030.5,0.4,88,13,15000,11.112,,,10,,,,,,,,,,,wg-a,,,,AAXX 08094 07110 12465 70106 10150 20130 30186 40305 51004 60006 875// 90900=
07110,1997-09-08 12:00:00,18,1029.9,-0.5,68,12,15000,11.112,,,360,,,,,,,,,,,wg-a,,,,AAXX 08124 07110 12565 43606 10180 20120 30181 40299 58005 60006 83501 91200=
07110,1997-09-08 15:00:00,19,1028.9,-1,64,12,15000,14.816,,,10,,,,,,,,,,,wg-a,,,,AAXX 08154 07110 12565 /0108 10190 20120 30171 40289 58010 60006 81501 91500=
07110,1997-09-08 18:00:00,16,1028.7,-0.3,72,11,15000,14.816,,,360,13.5,18.6,,,,,,,,,wg-a,,,,AAXX 08184 07110 12565 23608 10160 20110 30168 40287 56003 60006 82500 91800 333 10186 20135=
07110,1997-09-08 21:00:00,13,1028.6,-0.2,88,11,15000,7.408,,,10,,,,,,,,,,,wg-a,,,,AAXX 08214 07110 12465 70104 10130 20110 30166 40286 58002 60006 875// 92100=
07110,1997-09-09 03:00:00,15,1027,-0.9,88,13,12000,7.408,,,20,,,,,,,,,,,wg-a,,,,AAXX 09034 07110 12462 70204 10150 20130 30151 40270 58009 60006 875// 90300=
07110,1997-09-09 06:00:00,15,1026.8,-0.2,82,12,12000,11.112,,,20,12.9,15.6,,,,,,,,,wg-a,,,,AAXX 09064 07110 02462 70206 10150 20120 30149 40268 55002 60006 875// 90600 333 10156 20129 60004=
07110,1997-09-09 09:00:00,16,1027.5,0.7,82,13,15000,11.112,,,20,,,,,,,,,,,wg-a,,,,AAXX 09094 07110 12465 70206 10160 20130 30156 40275 51007 60006 875// 90900=
07110,1997-09-09 12:00:00,18,1026.6,-0.8,77,14,20000,14.816,,,30,,,,,,,,,,,wg-a,,,,AAXX 09124 07110 12570 /0308 10180 20140 30148 40266 58008 60006 86500 91200=
07110,1997-09-09 15:00:00,17,1025.5,-1.1,77,13,20000,22.224,,,20,,,,,,,,,,,wg-a,,,,AAXX 09154 07110 12470 70212 10170 20130 30137 40255 58011 60006 875// 91500=
07110,1997-09-09 18:00:00,16,1024.9,-0.6,77,12,15000,14.816,,,30,14.7,18.4,,,,,,,,,wg-a,,,,AAXX 09184 07110 12465 30308 10160 20120 30131 40249 56006 60006 83500 91800 333 10184 20147=
07110,1997-09-10 03:00:00,11,1023.7,-1.2,94,10,10000,7.408,,,40,,,,,,,,,,,wg-a,,,,AAXX 10034 07110 12/60 00404 10110 20100 30117 40237 57012 60006 80000 90300=
07110,1997-09-10 06:00:00,10,1023.1,-0.7,93,9,500,3.704,,,30,9.6,15.9,,,,,,,,11,wg-a,,,,AAXX 10064 07110 02/00 30302 10100 20090 30110 40231 56007 60006 71100 80001 90600 333 10159 20096 60004=
07110,1997-09-10 09:00:00,16,1022.6,-0.2,82,13,10000,14.816,,,110,,,,,,,,,,,wg-a,,,,AAXX 10094 07110 32/60 01108 10160 20130 30108 40226 58002 80000 90900=
07110,1997-09-10 12:00:00,20,1021.1,-1.3,64,13,10000,11.112,,,110,,,,,,,,,,,wg-a,,,,AAXX 10124 07110 12560 /1106 10200 20130 30095 40211 57013 60006 81100 91200=
07110,1997-09-10 18:00:00,19,1017.4,-1.2,68,13,20000,3.704,,,200,9.8,23,,,,,,,,,wg-a,,,,AAXX 10184 07110 12/70 22002 10190 20130 30058 40174 55012 60006 80001 91800 333 10230 20098=
07110,1997-09-11 00:00:00,13,1015.3,-1.8,88,11,10000,0,,,0,,,,,,,,,,,wg-a,,,,AAXX 11004 07110 12/60 20000 10130 20110 30034 40153 58018 60006 80001 90000=
07110,1997-09-11 03:00:00,13,1012.7,-2.5,77,9,10000,11.112,,,140,,,,,,,,,,,wg-a,,,,AAXX 11034 07110 12/60 31406 10130 20090 30009 40127 56025 60006 80001 90300=
07110,1997-09-11 06:00:00,14,1011.3,-1.3,88,12,10000,11.112,,,160,11.7,19.4,,,,,,,,,wg-a,,,,AAXX 11064 07110 02660 71606 10140 20120 39996 40113 56013 60006 83531 90600 333 10194 20117 60004=
07110,1997-09-11 09:00:00,17,1011.5,0.3,88,15,6000,18.52,,,210,,,,,,,,,,,wg-a,,,,AAXX 11094 07110 12356 72110 10170 20150 39999 40115 53003 60006 8573/ 90900=
07110,1997-09-11 12:00:00,18,1010.9,-0.6,88,16,6000,14.816,,,220,,,,,,,,,,,wg-a,,,,AAXX 11124 07110 12456 72208 10180 20160 39993 40109 56006 60006 875// 91200=
07110,1997-09-11 15:00:00,18,1010.4,-0.5,83,15,6000,14.816,,,270,,,,,,,,,,,wg-a,,,,AAXX 11154 07110 12456 82708 10180 20150 39988 40104 58005 60006 875// 91500=
07110,1997-09-11 18:00:00,15,1010.9,0.4,88,13,10000,7.408,,,280,14.3,18.7,,,,,,,,,wg-a,,,,AAXX 11184 07110 12360 82804 10150 20130 39992 40109 52004 60006 8353/ 91800 333 10187 20143=
07110,1997-09-11 21:00:00,13,1011.8,0.8,94,12,15000,7.408,,,220,,,,,,,,,,1,wg-a,,,,AAXX 11214 07110 02/65 42204 10130 20120 30000 40118 51008 61000 70161 82031 92100 333 ////=
07110,1997-09-12 00:00:00,14,1011.2,-0.5,94,13,8000,14.816,,,230,,,,0,,,,,,20,wg-a,,,,AAXX 12004 07110 02558 82308 10140 20130 39995 40112 58005 60006 72065 8157/ 90000 333 60007=
07110,1997-09-12 03:00:00,14,1010.5,-0.7,100,14,10000,11.112,,,210,,,,,,,,,,,wg-a,,,,AAXX 12034 07110 12460 62106 10140 20140 39988 40105 57007 60006 84532 90300=
07110,1997-09-12 06:00:00,15,1009.9,-0.6,94,14,15000,11.112,,,220,13.1,15,,,,,,,,,wg-a,,,,AAXX 12064 07110 02565 72206 10150 20140 39982 40099 55006 60006 875// 90600 333 10150 20131 60004=
07110,1997-09-12 09:00:00,16,1010.3,0.4,94,15,15000,14.816,,,230,,,,2,,,,,,1,wg-a,,,,AAXX 12094 07110 12365 62308 10160 20150 39986 40103 53004 60027 70152 85530 90900=
07110,1997-09-12 12:00:00,17,1010.2,0,88,15,15000,18.52,,,230,,,,0,,,,,,25,wg-a,,,,AAXX 12124 07110 02465 72310 10170 20150 39986 40102 50000 60036 72552 878// 91200 333 60007=
07110,1997-09-12 15:00:00,15,1011.2,0.9,88,13,12000,22.224,,,300,,,,1,,,,,,25,wg-a,,,,AAXX 12154 07110 12362 73012 10150 20130 39995 40112 53009 60017 72586 878// 91500=
07110,1997-09-12 18:00:00,15,1012.8,1.5,67,9,20000,14.816,,,290,14.1,18.1,,,,,,,,1,wg-a,,,,AAXX 12184 07110 12570 32908 10150 20090 30010 40128 53015 60006 70186 83200 91800 333 10181 20141=
07110,1997-09-12 21:00:00,10,1014.7,1.7,82,7,20000,7.408,,,280,,,,,,,,,,,wg-a,,,,AAXX 12214 07110 12570 22804 10100 20070 30027 40147 51017 60006 82200 92100=
07110,1997-09-13 00:00:00,9,1015.6,0.9,93,8,20000,7.408,,,250,,,,,,,,,,,wg-a,,,,AAXX 13004 07110 12/70 02504 10090 20080 30036 40156 51009 60006 80000 90000=
07110,1997-09-13 03:00:00,10,1016.3,0.7,87,8,20000,7.408,,,280,,,,,,,,,,,wg-a,,,,AAXX 13034 07110 12570 22804 10100 20080 30043 40163 53007 60006 82500 90300=
07110,1997-09-13 06:00:00,10,1018,1.7,87,8,20000,11.112,,,290,9.4,14.4,,,,,3,,,,wg-a,,,,AAXX 13064 07110 02570 32906 10100 20080 30060 40180 53017 60006 83300 90600 333 10144 20094 60034=
07110,1997-09-13 09:00:00,14,1020.3,2.4,67,8,25000,22.224,,,320,,,,,,,,,,,wg-a,,,,AAXX 13094 07110 12575 33212 10140 20080 30084 40203 51024 60006 83800 90900=
07110,1997-09-13 12:00:00,16,1022.6,2.4,59,8,25000,14.816,,,330,,,,,,,,,,,wg-a,,,,AAXX 13124 07110 12675 43308 10160 20080 30108 40226 51024 60006 84800 91200=
07110,1997-09-13 15:00:00,15,1023.3,0.6,59,7,25000,14.816,,,320,,,,,,,,,,,wg-a,,,,AAXX 13154 07110 12675 33208 10150 20070 30114 40233 53006 60006 83800 91500=
07110,1997-09-13 18:00:00,14,1024.4,1.1,63,7,20000,7.408,,,340,9.8,16.2,,,,,,,,,wg-a,,,,AAXX 13184 07110 12670 23404 10140 20070 30125 40244 53011 60006 82800 91800 333 10162 20098=
07110,1997-09-14 00:00:00,8,1026.2,-0.2,93,7,20000,3.704,,,230,1.8,,,,,,,,,,wg-a,,0,,AAXX 14004 07110 12670 32302 10080 20070 30140 40262 58002 60006 83500 90000 333 20018 4/9999=
07110,1997-09-14 06:00:00,8,1026.6,0.4,93,7,15000,0,,,0,7.9,13.8,,,,,,,,,wg-a,,,,AAXX 14064 07110 02/65 70000 10080 20070 30144 40266 53004 60006 86072 90600 333 10138 20079 60004=
07110,1997-09-14 12:00:00,16,1027.4,0.3,55,7,25000,0,,,0,,,,,,,,,,,wg-a,,,,AAXX 14124 07110 12675 40000 10160 20070 30155 40274 51003 60006 84102 91200=
07110,1997-09-14 18:00:00,15,1026.3,0.2,67,9,25000,11.112,,,340,8.5,18.5,,,,,,,,,wg-a,,,,AAXX 14184 07110 12675 /3406 10150 20090 30144 40263 53002 60006 81400 91800 333 10185 20085=
07110,1997-09-14 21:00:00,11,1026.9,0.4,82,8,15000,7.408,,,60,,,,,,,,,,,wg-a,,,,AAXX 14214 07110 12765 10604 10110 20080 30148 40269 50004 60006 81400 92100=
07110,1997-09-15 03:00:00,8,1025.1,-1.4,93,7,10000,7.408,,,120,,,,,,,,,,,wg-a,,,,AAXX 15034 07110 12/60 01204 10080 20070 30129 40251 56014 60006 80000 90300=
07110,1997-09-15 06:00:00,7,1024.6,-0.5,100,7,15000,7.408,,,130,7.1,14.6,,,,,,,,,wg-a,,,,AAXX 15064 07110 02/65 41304 10070 20070 30124 40246 57005 60006 80002 90600 333 10146 20071 60004=
07110,1997-09-15 09:00:00,14,1025.2,0.9,72,9,10000,7.408,,,160,,,,,,,,,,,wg-a,,,,AAXX 15094 07110 12/60 61604 10140 20090 30133 40252 51009 60006 80002 90900=
07110,1997-09-15 12:00:00,19,1024.8,-0.2,46,7,15000,11.112,,,210,,,,,,,,,,,wg-a,,,,AAXX 15124 07110 12565 /2106 10190 20070 30131 40248 58002 60006 81502 91200=
07110,1997-09-15 18:00:00,16,1023.4,-0.6,59,8,15000,7.408,,,350,7.3,20,,,,,,,,,wg-a,,,,AAXX 15184 07110 12/65 73504 10160 20080 30116 40234 56006 60006 82032 91800 333 10200 20073=
07110,1997-09-15 21:00:00,12,1024.3,0.7,88,10,15000,3.704,,,60,,,,,,,,,,,wg-a,,,,AAXX 15214 07110 12/65 70602 10120 20100 30123 40243 53007 60006 82032 92100=
07110,1997-09-16 00:00:00,11,1023.6,-0.8,82,8,15000,7.408,,,20,,,,,,,,,,,wg-a,,,,AAXX 16004 07110 12/65 20204 10110 20080 30115 40236 58008 60006 80002 90000=
07110,1997-09-16 03:00:00,10,1021.2,-2.4,82,7,15000,3.704,,,110,,,,,,,,,,,wg-a,,,,AAXX 16034 07110 12/65 21102 10100 20070 30091 40212 58024 60006 80002 90300=
07110,1997-09-16 06:00:00,9,1020.4,-0.8,87,7,15000,7.408,,,140,8.9,16.2,,,,,,,,,wg-a,,,,AAXX 16064 07110 02/65 21404 10090 20070 30083 40204 58008 60006 80002 90600 333 10162 20089 60004=
07110,1997-09-16 09:00:00,16,1019.7,-0.4,63,9,20000,11.112,,,150,,,,,,,,,,,wg-a,,,,AAXX 16094 07110 12/70 51506 10160 20090 30079 40197 58004 60006 80002 90900=
07110,1997-09-16 12:00:00,20,1018.5,-1,56,11,20000,11.112,,,200,,,,,,,,,,,wg-a,,,,AAXX 16124 07110 12/70 52006 10200 20110 30069 40185 57010 60006 80002 91200=
07110,1997-09-16 15:00:00,20,1017.3,-1.2,73,15,20000,18.52,,,200,,,,,,,,,,,wg-a,,,,AAXX 16154 07110 12/70 52010 10200 20150 30057 40173 57012 60006 80002 91500=
07110,1997-09-16 18:00:00,18,1017.6,0.2,77,14,20000,11.112,,,200,9.3,21.2,,,,,,,,,wg-a,,,,AAXX 16184 07110 12/70 52006 10180 20140 30059 40176 53002 60006 80002 91800 333 10212 20093=
07110,1997-09-16 21:00:00,14,1018.8,1.1,94,13,20000,7.408,,,180,,,,,,,,,,,wg-a,,,,AAXX 16214 07110 12570 41804 10140 20130 30070 40188 51011 60006 83102 92100=
07110,1997-09-17 00:00:00,12,1019,0.1,100,12,7000,7.408,,,170,,,,,,,,,,,wg-a,,,,AAXX 17004 07110 12157 41704 10120 20120 30071 40190 50001 60006 84602 90000=
07110,1997-09-17 06:00:00,11,1019.7,0.9,94,10,3000,3.704,,,90,10.1,17.4,,,,,,,,10,wg-a,,,,AAXX 17064 07110 02130 70902 10110 20100 30077 40197 53009 60006 71041 876// 90600 333 10174 20101 60004=
07110,1997-09-17 09:00:00,15,1020.3,0.8,100,15,6000,7.408,,,100,,,,0,,,,,,,wg-a,,,,AAXX 17094 07110 12456 71004 10150 20150 30085 40203 51008 60007 875// 90900=
07110,1997-09-17 12:00:00,21,1020.1,0,64,14,15000,11.112,,,130,,,,,,,,,,,wg-a,,,,AAXX 17124 07110 12465 31306 10210 20140 30085 40201 50000 60006 83101 91200=
07110,1997-09-17 15:00:00,24,1019.3,-0.7,57,15,15000,11.112,,,180,,,,,,,,,,,wg-a,,,,AAXX 17154 07110 12/65 21806 10240 20150 30078 40193 58007 60006 80002 91500=
07110,1997-09-17 18:00:00,22,1019.2,-0.1,69,16,12000,7.408,,,160,10.7,23.9,,,,,,,,,wg-a,,,,AAXX 17184 07110 12/62 11604 10220 20160 30077 40192 57001 60006 80001 91800 333 10239 20107=
07110,1997-09-18 03:00:00,18,1019.8,-0.1,94,17,500,14.816,,,170,,,,,,,,,,,wg-a,,,,AAXX 18034 07110 12100 71708 10180 20170 30081 40198 57001 60006 876// 90300=
07110,1997-09-18 12:00:00,25,1020.9,-0.2,65,18,10000,18.52,,,190,,,,,,,,,,3,wg-a,,,,AAXX 18124 07110 12660 11910 10250 20180 30095 40209 58002 60006 70341 81100 91200=
07110,1997-09-18 15:00:00,26,1020.5,-0.4,61,18,11000,18.52,,,190,,,,,,,,,,,wg-a,,,,AAXX 18154 07110 12/61 /1910 10260 20180 30091 40205 57004 60006 91500=
07110,1997-09-18 18:00:00,23,1020.7,0.1,69,17,15000,11.112,,,170,17.2,26,,,,,,,,,wg-a,,,,AAXX 18184 07110 12/65 11706 10230 20170 30092 40207 53001 60006 80001 91800 333 10260 20172=
07110,1997-09-19 00:00:00,17,1021.2,-0.4,82,14,15000,11.112,,,150,,,,,,,,,,,wg-a,,,,AAXX 19004 07110 12/65 11506 10170 20140 30094 40212 57004 60006 80001 90000=
07110,1997-09-19 03:00:00,15,1020.9,-0.3,88,13,15000,7.408,,,170,,,,,,,,,,,wg-a,,,,AAXX 19034 07110 12/65 21704 10150 20130 30091 40209 56003 60006 80001 90300=
07110,1997-09-19 06:00:00,13,1021.4,0.4,88,11,20000,3.704,,,140,13,22.7,,,,,,,,,wg-a,,,,AAXX 19064 07110 02/70 31402 10130 20110 30095 40214 53004 60006 80001 90600 333 10227 20130 60004=
07110,1997-09-19 09:00:00,20,1022,0.8,56,11,20000,7.408,,,140,,,,,,,,,,,wg-a,,,,AAXX 19094 07110 12/70 41404 10200 20110 30103 40220 52008 60006 83082 90900=
07110,1997-09-19 12:00:00,25,1021.5,-0.2,47,13,25000,11.112,,,200,,,,,,,,,,,wg-a,,,,AAXX 19124 07110 12/75 22006 10250 20130 30101 40215 57002 60006 82080 91200=
07110,1997-09-19 15:00:00,23,1021.1,-0.5,53,13,25000,18.52,,,30,,,,,,,,,,,wg-a,,,,AAXX 19154 07110 12/75 30310 10230 20130 30096 40211 56005 60006 83080 91500=
07110,1997-09-19 18:00:00,20,1021.1,-0.1,68,14,20000,11.112,,,30,13,26.8,,,,,,,,,wg-a,,,,AAXX 19184 07110 12/70 30306 10200 20140 30095 40211 56001 60006 83080 91800 333 10268 20130=
07110,1997-09-20 00:00:00,18,1020.9,-0.5,83,15,10000,7.408,,,120,,,,,,,,,,,wg-a,,,,AAXX 20004 07110 12/60 11204 10180 20150 30092 40209 58005 60006 81080 90000=
07110,1997-09-20 03:00:00,19,1020.2,-0.7,78,15,10000,14.816,,,150,,,,,,,,,,,wg-a,,,,AAXX 20034 07110 12/60 11508 10190 20150 30085 40202 56007 60006 81040 90300=
07110,1997-09-20 06:00:00,18,1020.5,0.3,77,14,10000,14.816,,,130,17.3,19.8,,,,,,,,,wg-a,,,,AAXX 20064 07110 02/60 21308 10180 20140 30088 40205 51003 60006 82030 90600 333 10198 20173 60004=
07110,1997-09-20 09:00:00,21,1021.4,1,73,16,8000,22.224,,,140,,,,,,,,,,,wg-a,,,,AAXX 20094 07110 12/58 21412 10210 20160 30098 40214 51010 60006 82080 90900=
07110,1997-09-20 12:00:00,25,1021.2,-0,65,18,8000,14.816,,,150,,,,,,,,,,,wg-a,,,,AAXX 20124 07110 12658 41508 10250 20180 30098 40212 54000 60006 81280 91200=
07110,1997-09-20 18:00:00,20,1020.7,-0,83,17,500,7.408,,,40,17.7,26.2,,,,,,,,17,wg-a,,,,AAXX 20184 07110 12500 /0404 10200 20170 30091 40207 55000 60006 71791 81382 91800 333 10262 20177=
07110,1997-09-20 21:00:00,18,1021.2,0.4,88,16,500,0,,,0,,,,,,,,,,,wg-a,,,,AAXX 20214 07110 12600 70000 10180 20160 30095 40212 50004 60006 8158/ 92100=
07110,1997-09-21 00:00:00,17,1021.5,0.3,94,16,500,3.704,,,300,,,,,,,,,,,wg-a,,,,AAXX 21004 07110 12/00 73002 10170 20160 30098 40215 53003 60006 8708/ 90000=
07110,1997-09-21 03:00:00,15,1020.8,-0.8,100,15,700,0,,,0,,,,,,,,,,42,wg-a,,,,AAXX 21034 07110 12007 70000 10150 20150 30090 40208 57008 60006 74242 8368/ 90300=
07110,1997-09-21 06:00:00,15,1020.7,-0.1,100,15,1500,0,,,0,15,20,,,,,,,,10,wg-a,,,,AAXX 21064 07110 02/15 70000 10150 20150 30089 40207 55001 60006 71042 8703/ 90600 333 10200 20150 60004=
07110,1997-09-21 09:00:00,16,1021,0.3,82,13,10000,3.704,,,140,,,,1,,,,,,25,wg-a,,,,AAXX 21094 07110 12660 71402 10160 20130 30092 40210 52003 60017 72522 8758/ 90900=
07110,1997-09-21 12:00:00,19,1021,0.1,73,14,8000,3.704,,,240,,,,,,,,,,,wg-a,,,,AAXX 21124 07110 12658 52402 10190 20140 30093 40210 50001 60016 85530 91200=
07110,1997-09-21 15:00:00,21,1020.4,-0.5,64,14,10000,11.112,,,190,,,,,,,,,,,wg-a,,,,AAXX 21154 07110 12660 51906 10210 20140 30088 40204 56005 60006 85230 91500=
07110,1997-09-21 18:00:00,18,1020.9,0.4,83,15,10000,3.704,,,30,14.8,21.3,,,,,,,,,wg-a,,,,AAXX 21184 07110 12/60 70302 10180 20150 30092 40209 53004 60006 85082 91800 333 10213 20148=
07110,1997-09-21 21:00:00,17,1021.6,0.6,88,15,500,0,,,0,,,,,,,,,,61,wg-a,,,,AAXX 21214 07110 02400 80000 10170 20150 30098 40216 51006 61000 76162 8757/ 92100 333 ////=
07110,1997-09-22 00:00:00,16,1021.5,-0.1,100,16,7000,3.704,,,120,,,,0,,,,,,1,wg-a,,,,AAXX 22004 07110 02357 81202 10160 20160 30097 40215 58001 60006 70162 875// 90000 333 60007=
07110,1997-09-22 03:00:00,16,1021,-0.5,100,16,10000,3.704,,,190,,,,0,,,,,,,wg-a,,,,AAXX 22034 07110 12660 71902 10160 20160 30092 40210 58005 60007 875// 90300=
07110,1997-09-22 06:00:00,16,1020.9,-0.1,100,16,3500,0,,,0,15.9,17.5,,,,,1,,,10,wg-a,,,,AAXX 22064 07110 12135 70000 10160 20160 30091 40209 57001 60014 71022 875// 90600 333 10175 20159=
07110,1997-09-22 09:00:00,18,1021.7,0.9,88,16,10000,0,,,0,,,,,,,,,,,wg-a,,,,AAXX 22094 07110 12360 /0000 10180 20160 30100 40217 52009 60006 86800 90900=
07110,1997-09-22 12:00:00,21,1021.4,-0.2,69,15,20000,3.704,,,60,,,,,,,,,,,wg-a,,,,AAXX 22124 07110 12570 70602 10210 20150 30098 40214 58002 60006 8583/ 91200=
07110,1997-09-22 15:00:00,20,1021.1,-0.3,78,16,11000,11.112,,,30,,,,,,,,,,,wg-a,,,,AAXX 22154 07110 12/61 /0306 10200 20160 30095 40211 58003 60006 91500=
07110,1997-09-22 18:00:00,18,1021.3,0.1,83,15,15000,3.704,,,320,15.9,21,,,,,,,,,wg-a,,,,AAXX 22184 07110 12665 /3202 10180 20150 30096 40213 53001 60006 84501 91800 333 10210 20159=
07110,1997-09-22 21:00:00,16,1022,0.6,94,15,10000,7.408,,,40,,,,,,,,,,,wg-a,,,,AAXX 22214 07110 12660 70404 10160 20150 30102 40220 52006 60006 875// 92100=
07110,1997-09-23 00:00:00,14,1021.6,-0.5,88,12,9000,7.408,,,40,,,,,,,,,,,wg-a,,,,AAXX 23004 07110 12/59 00404 10140 20120 30097 40216 57005 60006 80000 90000=
07110,1997-09-23 03:00:00,14,1020.8,-0.8,88,12,7000,7.408,,,60,,,,,,,,,,,wg-a,,,,AAXX 23034 07110 12657 /0604 10140 20120 30089 40208 56008 60006 85500 90300=
07110,1997-09-23 06:00:00,13,1020.7,-0.1,88,11,10000,7.408,,,50,13.3,18.4,,,,,,,,,wg-a,,,,AAXX 23064 07110 02/60 60504 10130 20110 30088 40207 55001 60006 80002 90600 333 10184 20133 60004=
07110,1997-09-23 12:00:00,23,1020.7,-0.2,53,13,15000,18.52,,,100,,,,,,,,,,,wg-a,,,,AAXX 23124 07110 12/65 21010 10230 20130 30092 40207 58002 60006 80002 91200=
07110,1997-09-23 15:00:00,24,1020,-0.7,54,14,12000,14.816,,,70,,,,,,,,,,,wg-a,,,,AAXX 23154 07110 12/62 60708 10240 20140 30085 40200 57007 60006 80002 91500=
07110,1997-09-23 18:00:00,18,1020.7,0.5,73,13,10000,11.112,,,40,13.3,24.4,,,,,,,,,wg-a,,,,AAXX 23184 07110 12/60 30406 10180 20130 30090 40207 53005 60006 80002 91800 333 10244 20133=
07110,1997-09-24 00:00:00,14,1021.5,-0.2,88,12,10000,11.112,,,70,,,,,,,,,,,wg-a,,,,AAXX 24004 07110 12/60 00706 10140 20120 30096 40215 58002 60006 80000 90000=
07110,1997-09-24 06:00:00,12,1021.5,0.2,76,8,10000,3.704,,,50,11.8,17.9,,,,,,,,,wg-a,,,,AAXX 24064 07110 02/60 10502 10120 20080 30095 40215 53002 60006 80001 90600 333 10179 20118 60004=
07110,1997-09-24 09:00:00,18,1021.5,0.3,68,12,10000,11.112,,,80,,,,,,,,,,,wg-a,,,,AAXX 24094 07110 12/60 10806 10180 20120 30098 40215 51003 60006 80001 90900=
07110,1997-09-24 12:00:00,22,1020.8,-0.5,53,12,18000,14.816,,,70,,,,,,,,,,,wg-a,,,,AAXX 24124 07110 12/68 10708 10220 20120 30093 40208 58005 60006 81030 91200=
07110,1997-09-24 18:00:00,18,1020.2,0.5,77,14,7000,7.408,,,30,11,24.2,,,,,,,,,wg-a,,,,AAXX 24184 07110 12/57 /0304 10180 20140 30085 40202 53005 60006 80001 91800 333 10242 20110=
07110,1997-09-25 00:00:00,14,1021.2,-0.2,88,12,15000,3.704,,,50,,,,,,,,,,,wg-a,,,,AAXX 25004 07110 12/65 00502 10140 20120 30093 40212 56002 60006 80000 90000=
07110,1997-09-25 06:00:00,11,1021.3,0.7,94,10,2000,7.408,,,40,10.6,18.2,,,,,,,,10,wg-a,,,,AAXX 25064 07110 02320 20404 10110 20100 30093 40213 52007 60006 71000 82601 90600 333 10182 20106 60004=
07110,1997-09-25 09:00:00,17,1022.1,1,77,13,15000,11.112,,,70,,,,,,,,,,,wg-a,,,,AAXX 25094 07110 12/65 20706 10170 20130 30103 40221 53010 60006 80001 90900=
07110,1997-09-25 12:00:00,22,1022.1,0.2,60,14,20000,14.816,,,60,,,,,,,,,,,wg-a,,,,AAXX 25124 07110 12/70 20608 10220 20140 30105 40221 50002 60006 80001 91200=
07110,1997-09-25 15:00:00,21,1021.6,-0.5,73,16,20000,18.52,,,30,,,,,,,,,,,wg-a,,,,AAXX 25154 07110 12/70 20310 10210 20160 30100 40216 57005 60006 80001 91500=
07110,1997-09-25 21:00:00,15,1023.6,0.8,88,13,6000,11.112,,,40,,,,,,,,,,,wg-a,,,,AAXX 25214 07110 12/56 20406 10150 20130 30117 40236 51008 60006 80001 92100=
07110,1997-09-26 00:00:00,14,1023.2,-0.4,94,13,6000,11.112,,,60,,,,,,,,,,,wg-a,,,,AAXX 26004 07110 12/56 00606 10140 20130 30113 40232 56004 60006 80000 90000=
07110,1997-09-26 03:00:00,12,1022.7,-0.6,100,12,500,7.408,,,40,,,,,,,,,,,wg-a,,,,AAXX 26034 07110 32/00 00404 10120 20120 30107 40227 58006 80000 90300=
07110,1997-09-26 06:00:00,12,1022.6,-0.1,88,10,4000,11.112,,,60,11.5,17.3,,,,,,,,10,wg-a,,,,AAXX 26064 07110 02/40 00606 10120 20100 30106 40226 55001 60006 71000 80000 90600 333 10173 20115 60004=
07110,1997-09-26 09:00:00,18,1022.7,0.4,77,14,6000,7.408,,,40,,,,,,,,,,,wg-a,,,,AAXX 26094 07110 12/56 20404 10180 20140 30110 40227 51004 60006 80001 90900=
07110,1997-09-26 12:00:00,22,1021.7,-0.8,60,14,10000,14.816,,,70,,,,,,,,,,,wg-a,,,,AAXX 26124 07110 12/60 30708 10220 20140 30102 40217 58008 60006 80001 91200=
07110,1997-09-26 15:00:00,22,1020.4,-1.3,69,16,7000,14.816,,,40,,,,,,,,,,,wg-a,,,,AAXX 26154 07110 12/57 30408 10220 20160 30089 40204 56013 60006 80001 91500=
07110,1997-09-26 18:00:00,17,1020.2,-0.4,88,15,6000,11.112,,,30,11.5,23.3,,,,,,,,,wg-a,,,,AAXX 26184 07110 12/56 30306 10170 20150 30085 40202 56004 60006 80001 91800 333 10233 20115=
07110,1997-09-26 21:00:00,15,1020.2,-0.1,100,15,1100,7.408,,,50,,,,,,,,,,10,wg-a,,,,AAXX 26214 07110 12111 70504 10150 20150 30084 40202 58001 60006 71011 876// 92100=
07110,1997-09-27 00:00:00,14,1019.2,-1,94,13,800,7.408,,,40,,,,,,,,,,44,wg-a,,,,AAXX 27004 07110 12008 70404 10140 20130 30074 40192 58010 60006 74441 876// 90000=
07110,1997-09-27 03:00:00,14,1017.9,-1.3,94,13,900,11.112,,,50,,,,,,,,,,44,wg-a,,,,AAXX 27034 07110 12009 80506 10140 20130 30061 40179 58013 60006 74444 886// 90300=
07110,1997-09-27 06:00:00,14,1017.5,-0.4,94,13,500,11.112,,,30,13.4,16.8,,,,,,,,44,wg-a,,,,AAXX 27064 07110 02105 80306 10140 20130 30057 40175 56004 60006 74444 886// 90600 333 10168 20134 60004=
07110,1997-09-27 09:00:00,15,1017.5,-0,94,14,2000,14.816,,,50,,,,,,,,,,10,wg-a,,,,AAXX 27094 07110 12120 70508 10150 20140 30057 40175 54000 60006 71042 86602 90900=
07110,1997-09-27 12:00:00,20,1016.4,-0.9,73,15,10000,14.816,,,30,,,,,,,,,,2,wg-a,,,,AAXX 27124 07110 12/60 60308 10200 20150 30048 40164 58009 60006 70242 80002 91200=
07110,1997-09-27 15:00:00,20,1015.3,-1.1,73,15,7000,14.816,,,40,,,,,,,,,,,wg-a,,,,AAXX 27154 07110 12/57 50408 10200 20150 30037 40153 56011 60006 82032 91500=
07110,1997-09-27 18:00:00,16,1015.7,0.3,88,14,2500,7.408,,,20,13.3,20,,,,,,,,10,wg-a,,,,AAXX 27184 07110 12/25 40204 10160 20140 30040 40157 53003 60006 71011 81032 91800 333 10200 20133=
07110,1997-09-27 21:00:00,14,1016,0.2,100,14,2000,7.408,,,30,,,,0,,,,,,10,wg-a,,,,AAXX 27214 07110 12/20 60304 10140 20140 30042 40160 51002 60007 71011 83032 92100=
07110,1997-09-28 00:00:00,14,1015.4,-0.6,94,13,1500,7.408,,,40,,,,,,,,,,10,wg-a,,,,AAXX 28004 07110 12/15 /0404 10140 20130 30036 40154 58006 60006 71011 80002 90000=
07110,1997-09-28 03:00:00,13,1015.5,0,94,12,1200,3.704,,,20,,,,,,,,,,10,wg-a,,,,AAXX 28034 07110 12312 70202 10130 20120 30036 40155 50000 60006 71022 875// 90300=
07110,1997-09-28 06:00:00,12,1015.1,-0.4,94,11,400,7.408,,,50,11.9,16.1,,,,,,,,44,wg-a,,,,AAXX 28064 07110 02204 70504 10120 20110 30032 40151 56004 60006 74442 876// 90600 333 10161 20119 60004=
07110,1997-09-28 12:00:00,20,1015.2,-0.4,73,15,4500,7.408,,,30,,,,,,,,,,10,wg-a,,,,AAXX 28124 07110 12/45 20304 10200 20150 30037 40152 56004 60006 71041 80001 91200=
07110,1997-09-28 18:00:00,18,1015.6,1,88,16,3500,3.704,,,20,11.5,22.3,,,,,,,,10,wg-a,,,,AAXX 28184 07110 12/35 /0202 10180 20160 30040 40156 53010 60006 71011 80001 91800 333 10223 20115=
07110,1997-09-28 21:00:00,15,1016.7,0.9,94,14,2000,7.408,,,60,,,,,,,,,,10,wg-a,,,,AAXX 28214 07110 12/20 /0604 10150 20140 30049 40167 50009 60006 71022 80001 92100=
07110,1997-09-29 03:00:00,12,1018.1,0.8,100,12,900,3.704,,,180,,,,,,,,,,42,wg-a,,,,AAXX 29034 07110 12109 91802 10120 20120 30062 40181 52008 60006 74241 89600 90300=
07110,1997-09-29 06:00:00,12,1018.8,0.7,100,12,300,11.112,,,170,10.6,18.3,,,,,,,,42,wg-a,,,,AAXX 29064 07110 02/03 91706 10120 20120 30069 40188 51007 60006 74241 8900/ 90600 333 10183 20106 60004=
07110,1997-09-29 09:00:00,15,1021.2,2.5,100,15,1000,0,,,0,,,,,,,,,,10,wg-a,,,,AAXX 29094 07110 12/10 40000 10150 20150 30094 40212 53025 60006 71040 82031 90900=
07110,1997-09-29 12:00:00,22,1021.3,0.4,60,14,500,3.704,,,170,,,,,,,,,,1,wg-a,,,,AAXX 29124 07110 12/00 41702 10220 20140 30098 40213 50004 60006 70140 80001 91200=
07110,1997-09-29 15:00:00,23,1021.5,0.2,61,15,10000,3.704,,,320,,,,,,,,,,,wg-a,,,,AAXX 29154 07110 12/60 33202 10230 20150 30100 40215 51002 60006 80001 91500=
07110,1997-09-29 18:00:00,18,1022.6,0.9,73,13,8000,7.408,,,10,11.9,24.7,,,,,,,,,wg-a,,,,AAXX 29184 07110 12/58 40104 10180 20130 30109 40226 53009 60006 80001 91800 333 10247 20119=
07110,1997-09-29 21:00:00,14,1023.8,1,88,12,500,7.408,,,20,,,,,,,,,,,wg-a,,,,AAXX 29214 07110 12/00 20204 10140 20120 30119 40238 53010 60006 80001 92100=
07110,1997-09-30 00:00:00,12,1024.1,0.2,94,11,800,11.112,,,10,,,,,,,,,,10,wg-a,,,,AAXX 30004 07110 12/08 00106 10120 20110 30121 40241 51002 60006 71040 80000 90000=
07110,1997-09-30 03:00:00,11,1024.3,0.2,94,10,4000,3.704,,,30,,,,,,,,,,28,wg-a,,,,AAXX 30034 07110 12140 /0302 10110 20100 30123 40243 50002 60006 72841 85600 90300=
07110,1997-09-30 06:00:00,10,1024.7,0.3,100,10,500,3.704,,,40,9.7,17.7,,,,,,,,1,wg-a,,,,AAXX 30064 07110 02100 20402 10100 20100 30126 40247 53003 60006 70141 81601 90600 333 10177 20097 60004=
07110,1997-09-30 09:00:00,17,1025.3,0.9,88,15,6000,3.704,,,20,,,,,,,,,,,wg-a,,,,AAXX 30094 07110 12/56 /0202 10170 20150 30135 40253 52009 60006 80001 90900=
07110,1997-09-30 12:00:00,24,1024.8,-0.2,61,16,8000,3.704,,,20,,,,,,,,,,,wg-a,,,,AAXX 30124 07110 12/58 /0202 10240 20160 30133 40248 55002 60006 80001 91200=
07110,1997-09-30 15:00:00,24,1024.1,-0.7,69,18,10000,11.112,,,20,,,,,,,,,,,wg-a,,,,AAXX 30154 07110 12/60 00206 10240 20180 30126 40241 58007 60006 80000 91500=
07110,1997-09-30 18:00:00,18,1024.6,0.2,83,15,500,7.408,,,10,10,26.4,,,,,,,,,wg-a,,,,AAXX 30184 07110 12/00 00104 10180 20150 30128 40246 53002 60006 80000 91800 333 10264 20100=
07110,1997-10-01 00:00:00,14,1024.8,-0.4,100,14,100,11.112,,,30,,,,,,,,,,45,wg-a,,,,AAXX 01004 07110 12/01 90306 10140 20140 30129 40248 58004 60006 74541 89/// 90000=
07110,1997-10-01 03:00:00,13,1024,-0.8,100,13,100,7.408,,,40,,,,,,,,,,45,wg-a,,,,AAXX 01034 07110 12/01 90404 10130 20130 30121 40240 58008 60006 74544 89/// 90300=
07110,1997-10-01 06:00:00,13,1023.8,-0.2,100,13,100,7.408,,,30,12.6,17.5,,,,,1,,,45,wg-a,,,,AAXX 01064 07110 02/01 90304 10130 20130 30119 40238 57002 60006 74544 89/// 90600 333 10175 20126 60014=
07110,1997-10-01 09:00:00,13,1024.5,0.7,100,13,1500,11.112,,,20,,,,,,,,,,28,wg-a,,,,AAXX 01094 07110 12015 90206 10130 20130 30126 40245 53007 60006 72842 896// 90900=
07110,1997-10-01 12:00:00,20,1023.3,-1,78,16,6000,11.112,,,40,,,,,,,,,,1,wg-a,,,,AAXX 01124 07110 12456 /0406 10200 20160 30116 40233 58010 60006 70141 81100 91200=
07110,1997-10-01 15:00:00,20,1022.3,-0.9,78,16,12000,11.112,,,30,,,,,,,,,,,wg-a,,,,AAXX 01154 07110 12562 /0306 10200 20160 30107 40223 56009 60006 81101 91500=
07110,1997-10-01 18:00:00,17,1022.5,-0,88,15,8000,11.112,,,10,12.9,20.7,,,,,,,,,wg-a,,,,AAXX 01184 07110 12358 70106 10170 20150 30107 40225 55000 60006 876// 91800 333 10207 20129=
07110,1997-10-01 21:00:00,15,1022.6,0.1,100,15,15000,3.704,,,350,,,,,,,,,,,wg-a,,,,AAXX 01214 07110 12265 73502 10150 20150 30108 40226 50001 60006 866// 92100=
07110,1997-10-02 00:00:00,15,1021.4,-1.2,100,15,800,11.112,,,360,,,,,,,,,,44,wg-a,,,,AAXX 02004 07110 12108 83606 10150 20150 30096 40214 58012 60006 74441 886// 90000=
07110,1997-10-02 03:00:00,14,1020.9,-0.5,100,14,700,7.408,,,310,,,,0,,,,,,44,wg-a,,,,AAXX 02034 07110 12107 83104 10140 20140 30091 40209 58005 60007 74444 886// 90300=
07110,1997-10-02 06:00:00,14,1021,-0,100,14,200,7.408,,,10,13.8,17,,0,,,,,,44,wg-a,,,,AAXX 02064 07110 02102 80104 10140 20140 30091 40210 55000 60004 74444 886// 90600 333 10170 20138 60007=
07110,1997-10-02 12:00:00,16,1021.5,0.2,100,16,8000,7.408,,,10,,,,,,,,,,1,wg-a,,,,AAXX 02124 07110 12258 80104 10160 20160 30097 40215 50002 60006 70142 886// 91200=
07110,1997-10-02 15:00:00,19,1020.4,-1,78,15,10000,3.704,,,340,,,,0,,,,,,,wg-a,,,,AAXX 02154 07110 12460 43402 10190 20150 30087 40204 58010 60007 84500 91500=
07110,1997-10-02 18:00:00,15,1021,0.5,94,14,500,11.112,,,10,13.6,19.6,,,,,,,,,wg-a,,,,AAXX 02184 07110 12300 70106 10150 20140 30092 40210 50005 60006 876// 91800 333 10196 20136=
07110,1997-10-02 21:00:00,14,1021.6,0.5,94,13,300,3.704,,,350,,,,,,,,,,44,wg-a,,,,AAXX 02214 07110 12003 73502 10140 20130 30097 40216 53005 60006 74442 876// 92100=
07110,1997-10-03 00:00:00,14,1021.6,0,94,13,800,7.408,,,100,,,,,,,,,,44,wg-a,,,,AAXX 03004 07110 12208 71004 10140 20130 30097 40216 50000 60006 74442 876// 90000=
07110,1997-10-03 03:00:00,13,1021.1,-0.5,100,13,300,7.408,,,350,,,,,,,,,,44,wg-a,,,,AAXX 03034 07110 12003 83504 10130 20130 30092 40211 58005 60006 74444 886// 90300=
07110,1997-10-03 06:00:00,13,1021.3,0.2,94,12,500,3.704,,,30,12.4,15.3,,,,,,,,42,wg-a,,,,AAXX 03064 07110 02005 80302 10130 20120 30094 40213 53002 60006 74244 886// 90600 333 10153 20124 60004=
07110,1997-10-03 09:00:00,14,1022.3,1,100,14,2500,0,,,0,,,,,,,,,,10,wg-a,,,,AAXX 03094 07110 12425 70000 10140 20140 30104 40223 52010 60006 71042 875// 90900=
07110,1997-10-03 12:00:00,19,1021.7,-0.4,78,15,8000,11.112,,,70,,,,,,,,,,1,wg-a,,,,AAXX 03124 07110 12458 /0706 10190 20150 30100 40217 58004 60006 70142 85501 91200=
07110,1997-10-03 15:00:00,20,1021,-0.6,68,14,10000,18.52,,,40,,,,,,,,,,,wg-a,,,,AAXX 03154 07110 12560 /0410 10200 20140 30094 40210 56006 60006 81100 91500=
07110,1997-10-03 18:00:00,16,1022.2,1,88,14,6000,7.408,,,360,12.3,20.1,,,,,,,,,wg-a,,,,AAXX 03184 07110 12/56 /3604 10160 20140 30104 40222 53010 60006 80002 91800 333 10201 20123=
07110,1997-10-03 21:00:00,14,1023.2,0.9,94,13,300,7.408,,,20,,,,,,,,,,45,wg-a,,,,AAXX 03214 07110 12/03 90204 10140 20130 30113 40232 53009 60006 74541 89/// 92100=
07110,1997-10-04 00:00:00,13,1023.2,-0.1,94,12,100,3.704,,,40,,,,,,,,,,45,wg-a,,,,AAXX 04004 07110 12/01 90402 10130 20120 30112 40232 58001 60006 74541 89/// 90000=
07110,1997-10-04 03:00:00,13,1023.5,0.3,100,13,100,7.408,,,40,,,,,,,,,,45,wg-a,,,,AAXX 04034 07110 32/01 90404 10130 20130 30115 40235 50003 74544 89/// 90300=
07110,1997-10-04 06:00:00,12,1023.5,-0,94,11,600,3.704,,,40,11.5,15.7,,,,,,,,42,wg-a,,,,AAXX 04064 07110 02106 /0402 10120 20110 30115 40235 55000 60006 74244 85600 90600 333 10157 20115 60004=
07110,1997-10-04 09:00:00,15,1023.8,0.5,100,15,6000,11.112,,,70,,,,0,,,,,,3,wg-a,,,,AAXX 04094 07110 12456 30706 10150 20150 30120 40238 53005 60007 70341 83500 90900=
07110,1997-10-04 12:00:00,19,1023.3,-0.4,73,14,12000,7.408,,,40,,,,,,,,,,3,wg-a,,,,AAXX 04124 07110 12562 50404 10190 20140 30116 40233 58004 60006 70341 85800 91200=
07110,1997-10-04 15:00:00,19,1021.7,-1.6,78,15,15000,11.112,,,20,,,,,,,,,,,wg-a,,,,AAXX 04154 07110 12565 50206 10190 20150 30100 40217 56016 60006 85800 91500=
07110,1997-10-04 18:00:00,16,1021.1,-0.7,88,14,9000,7.408,,,360,11.3,20.2,,,,,,,,,wg-a,,,,AAXX 04184 07110 12/59 03604 10160 20140 30093 40211 56007 60006 80000 91800 333 10202 20113=
07110,1997-10-04 21:00:00,13,1020.9,-0.3,94,12,3000,3.704,,,20,,,,,,,,,,10,wg-a,,,,AAXX 04214 07110 12/30 00202 10130 20120 30090 40209 58003 60006 71000 80000 92100=
07110,1997-10-05 00:00:00,12,1019.8,-1.1,100,12,200,7.408,,,40,,,,,,,,,,45,wg-a,,,,AAXX 05004 07110 12/02 90404 10120 20120 30079 40198 58011 60006 74541 89/// 90000=
07110,1997-10-05 03:00:00,11,1018.3,-1.6,94,10,8000,7.408,,,90,,,,,,,,,,2,wg-a,,,,AAXX 05034 07110 32/58 00904 10110 20100 30063 40183 58016 70241 80000 90300=
07110,1997-10-05 06:00:00,10,1016.8,-1.5,100,10,10000,3.704,,,90,10.1,15.7,,,,,1,,,2,wg-a,,,,AAXX 05064 07110 02/60 00902 10100 20100 30048 40168 56015 60006 70241 80000 90600 333 10157 20101 60014=
07110,1997-10-05 11:00:00,21,1014,-1.5,56,12,10000,14.816,,,150,,,,,,,,,,,wg-a,,,,AAXX 05114 07110 12/60 01508 10210 20120 30026 40140 58015 60006 80000 91100=
07110,1997-10-05 12:00:00,21,1014,-1.5,60,13,10000,14.816,,,150,,,,,,,,,,,wg-a,,,,AAXX 05124 07110 12/60 01508 10210 20130 30025 40140 58015 60006 80000 91200=
07110,1997-10-05 15:00:00,22,1011.3,-2.6,53,12,10000,3.704,,,160,,,,,,,,,,,wg-a,,,,AAXX 05154 07110 12/60 01602 10220 20120 39999 40113 56026 60006 80000 91500=
07110,1997-10-05 18:00:00,18,1009.7,-1.8,73,13,10000,0,,,0,10.2,22.7,,,,,,,,,wg-a,,,,AAXX 05184 07110 12/60 10000 10180 20130 39981 40097 56018 60006 80001 91800 333 10227 20102=
07110,1997-10-05 21:00:00,14,1008,-1.8,82,11,10000,7.408,,,120,,,,,,,,,,,wg-a,,,,AAXX 05214 07110 12/60 21204 10140 20110 39963 40080 56018 60006 80001 92100=
07110,1997-10-06 00:00:00,15,1006.1,-1.8,77,11,10000,14.816,,,150,,,,,,,,,,,wg-a,,,,AAXX 06004 07110 12/60 41508 10150 20110 39945 40061 58018 60006 80001 90000=
07110,1997-10-06 03:00:00,14,1003.3,-2.9,77,10,10000,7.408,,,150,,,,,,,,,,,wg-a,,,,AAXX 06034 07110 12/60 61504 10140 20100 39916 40033 56029 60006 85032 90300=
07110,1997-10-06 06:00:00,13,1002,-1.3,88,11,10000,7.408,,,210,13.2,18.1,,,,,,,,,wg-a,,,,AAXX 06064 07110 02460 72104 10130 20110 39903 40020 56013 60006 83552 90600 333 10181 20132 60004=
07110,1997-10-06 09:00:00,16,1002.1,0.2,94,15,3000,3.704,,,220,,,,2,,,,,,61,wg-a,,,,AAXX 06094 07110 12230 82202 10160 20150 39905 40021 52002 60027 76162 8677/ 90900=
07110,1997-10-06 12:00:00,17,1001.6,-0.4,94,16,6000,14.816,,,220,,,,0,,,,,,1,wg-a,,,,AAXX 06124 07110 02256 82208 10170 20160 39901 40016 57004 60026 70162 877// 91200 333 60007=
07110,1997-10-06 15:00:00,18,1000.5,-1.1,88,16,20000,29.632,,,210,,,,,,,,,,,wg-a,,,,AAXX 06154 07110 12470 52116 10180 20160 39890 40005 56011 60006 85800 91500=
07110,1997-10-06 18:00:00,14,1000.3,-0.3,94,13,10000,11.112,,,310,13.3,18.4,,1,,,,,,,wg-a,,,,AAXX 06184 07110 02160 83106 10140 20130 39887 40003 55003 60006 85505 91800 333 10184 20133 60017=
07110,1997-10-06 21:00:00,12,1000.1,-0.3,100,12,8000,7.408,,,210,,,,1,,,,,,61,wg-a,,,,AAXX 06214 07110 12558 72104 10120 20120 39884 40001 58003 60017 76162 865// 92100=
07110,1997-10-07 00:00:00,13,999.2,-0.9,94,12,10000,14.816,,,220,,,,1,,,,,,1,wg-a,,,,AAXX 07004 07110 02360 72208 10130 20120 39875 49992 58009 60026 70186 865// 90000 333 60017=
07110,1997-10-07 06:00:00,12,998.1,0.7,88,10,10000,14.816,,,250,12.1,14.4,,,,,12,,,3,wg-a,,,,AAXX 07064 07110 02560 /2508 10120 20100 39864 49981 53007 60006 70386 86800 90600 333 10144 20121 60124=
07110,1997-10-07 12:00:00,15,1003.2,2.3,72,10,15000,35.188,,53.708,270,,,,0,,,,,,,wg-a,,,,AAXX 07124 07110 02565 52719 10150 20100 39916 40032 53023 60016 85300 91200 333 60007 91029=
07110,1997-10-07 15:00:00,17,1003.6,0.4,63,10,15000,25.928,,44.448,220,,,,,,,,,,,wg-a,,,,AAXX 07154 07110 12565 /2214 10170 20100 39920 40036 53004 60006 82232 91500 333 91024=
07110,1997-10-07 18:00:00,14,1004.7,1,88,12,4000,22.224,,,210,11.6,17.4,,,,,,,,51,wg-a,,,,AAXX 07184 07110 02440 82112 10140 20120 39930 40047 53010 61000 75165 878// 91800 333 10174 20116 6001=
07110,1997-10-07 21:00:00,14,1002.9,-1.7,100,14,6000,31.484,,51.856,190,,,,8,,,,,,63,wg-a,,,,AAXX 07214 07110 12356 81917 10140 20140 39913 40029 58017 60087 76366 878// 92100 333 91028=
07110,1997-10-08 00:00:00,16,1003.2,0.3,100,16,8000,31.484,,57.412,210,,,,2,,,,,,61,wg-a,,,,AAXX 08004 07110 02258 82117 10160 20160 39916 40032 52003 60106 76166 875// 90000 333 60027 91031=
07110,1997-10-08 03:00:00,17,1003.5,0.4,94,16,10000,31.484,,68.524,210,,,,,,,,,,60,wg-a,,,,AAXX 08034 07110 02360 82117 10170 20160 39920 40035 50004 61000 76066 875// 90300 333 //// 91037=
07110,1997-10-08 06:00:00,16,1002.7,-0.8,100,16,6000,29.632,,,210,13.5,17,,,,,,,,61,wg-a,,,,AAXX 08064 07110 02356 82116 10160 20160 39912 40027 58008 61000 76162 8772/ 90600 333 10170 20135 6015=
07110,1997-10-08 12:00:00,18,1000.7,0.1,94,17,2000,42.596,,77.784,210,,,,7,,,,,,61,wg-a,,,,AAXX 08124 07110 02220 82123 10180 20170 39892 40007 53001 60226 76166 887// 91200 333 60077 91042=
07110,1997-10-08 18:00:00,17,1002.5,1.2,100,17,2000,18.52,,57.412,220,,,,,,,,,,51,wg-a,,,,AAXX 08184 07110 02220 82210 10170 20170 39910 40025 51012 61000 75166 887// 91800 333 6009 91031=
07110,1997-10-08 21:00:00,18,1001.7,-0.8,94,17,4000,38.892,,64.82,210,,,,10,,,,,,61,wg-a,,,,AAXX 08214 07110 12340 82121 10180 20170 39902 40017 56008 60107 76166 887// 92100 333 91035=
07110,1997-10-09 00:00:00,18,1002.7,1,94,17,1200,31.484,,,230,,,,4,,,,,,61,wg-a,,,,AAXX 09004 07110 02212 82317 10180 20170 39912 40027 53010 60146 76166 877// 90000 333 60047=
07110,1997-10-09 03:00:00,17,1005.3,2.5,88,15,10000,25.928,,,230,,,,1,,,,,,2,wg-a,,,,AAXX 09034 07110 12460 72314 10170 20150 39937 40053 51025 60017 70262 875// 90300=
07110,1997-10-09 06:00:00,17,1007.5,2.2,88,15,9000,25.928,,48.152,220,16.3,17.7,,,,,51,,,3,wg-a,,,,AAXX 09064 07110 02459 72214 10170 20150 39959 40075 53022 60006 70362 876// 90600 333 10177 20163 60514 91026=
07110,1997-10-09 09:00:00,17,1009,1.5,94,16,8000,29.632,,,210,,,,,,,,,,,wg-a,,,,AAXX 09094 07110 12458 72116 10170 20160 39974 40090 52015 60006 876// 90900=
07110,1997-10-09 12:00:00,18,1010.6,1.6,88,16,12000,25.928,,59.264,240,,,,,,,,,,,wg-a,,,,AAXX 09124 07110 12462 82414 10180 20160 39990 40106 52016 60006 875// 91200 333 91032=
07110,1997-10-09 15:00:00,18,1011.2,0.6,88,16,8000,29.632,,46.3,230,,,,,,,,,,,wg-a,,,,AAXX 09154 07110 12458 72316 10180 20160 39996 40112 51006 60006 875// 91500 333 91025=
07110,1997-10-09 18:00:00,17,1010.8,-0.4,100,17,500,29.632,,53.708,210,16.5,18.7,,,,,,,,,wg-a,,,,AAXX 09184 07110 12200 72116 10170 20170 39992 40108 58004 60006 877// 91800 333 10187 20165 91029=
07110,1997-10-09 21:00:00,17,1010.6,-0.2,94,16,8000,31.484,,57.412,210,,,,,,,,,,,wg-a,,,,AAXX 09214 07110 12258 82117 10170 20160 39990 40106 58002 60006 876// 92100 333 91031=
07110,1997-10-10 00:00:00,17,1008.6,-2,94,16,4000,29.632,,48.152,220,,,,2,,,,,,61,wg-a,,,,AAXX 10004 07110 02240 82216 10170 20160 39970 40086 56020 60026 76162 877// 90000 333 60027 91026=
07110,1997-10-10 03:00:00,16,1006.9,-1.7,100,16,2000,22.224,,,220,,,,6,,,,,,61,wg-a,,,,AAXX 10034 07110 12120 82212 10160 20160 39953 40069 57017 60067 76166 887// 90300=
07110,1997-10-10 06:00:00,15,1007.6,0.6,100,15,3000,14.816,,,330,15,17.5,,,,,,,,61,wg-a,,,,AAXX 10064 07110 02130 83308 10150 20150 39959 40076 53006 61000 76166 887// 90600 333 10175 20150 6008=
07110,1997-10-10 09:00:00,15,1010.8,3.2,88,13,1200,14.816,,,330,,,,,,,,,,1,wg-a,,,,AAXX 10094 07110 02312 63308 10150 20130 39991 40108 51032 61000 70162 85801 90900 333 ////=
07110,1997-10-10 12:00:00,16,1013.3,2.5,77,12,15000,18.52,,,320,,,,,,,,,,1,wg-a,,,,AAXX 10124 07110 02565 53210 10160 20120 30016 40133 51025 61000 70162 84201 91200 333 ////=
07110,1997-10-10 15:00:00,16,1014.4,1.1,68,10,20000,18.52,,,320,,,,,,,,,,,wg-a,,,,AAXX 10154 07110 12570 43210 10160 20100 30027 40144 53011 60006 83201 91500=
07110,1997-10-10 18:00:00,13,1015.5,1,82,10,20000,3.704,,,280,13.3,16.7,,,,,,,,,wg-a,,,,AAXX 10184 07110 12570 22802 10130 20100 30037 40155 51010 60006 81801 91800 333 10167 20133=
07110,1997-10-10 21:00:00,11,1016.8,1.1,94,10,20000,3.704,,,220,,,,,,,,,,,wg-a,,,,AAXX 10214 07110 12570 32202 10110 20100 30048 40168 51011 60006 83500 92100=
07110,1997-10-11 00:00:00,11,1015.9,-0.8,87,9,15000,7.408,,,220,,,,,,,,,,,wg-a,,,,AAXX 11004 07110 12565 22204 10110 20090 30040 40159 58008 60006 81501 90000=
07110,1997-10-11 03:00:00,13,1013.6,-2.2,88,11,12000,11.112,,,230,,,,,,,,,,,wg-a,,,,AAXX 11034 07110 12562 /2306 10130 20110 30018 40136 58022 60006 82532 90300=
07110,1997-10-11 06:00:00,14,1010.5,-3,94,13,8000,18.52,,,190,10.5,14,,,,,,,,60,wg-a,,,,AAXX 11064 07110 02358 81910 10140 20130 39988 40105 57030 61000 76061 887// 90600 333 10140 20105 6000=
07110,1997-10-11 12:00:00,17,1005.9,-1.8,100,17,500,22.224,,,250,,,,0,,,,,,50,wg-a,,,,AAXX 11124 07110 02200 82512 10170 20170 39944 40059 56018 60016 75065 887// 91200 333 60007=
07110,1997-10-11 15:00:00,17,1004.3,-1.6,94,16,4000,29.632,,46.3,250,,,,,,,,,,50,wg-a,,,,AAXX 11154 07110 02340 82516 10170 20160 39928 40043 58016 61000 75052 877// 91500 333 //// 91025=
07110,1997-10-11 18:00:00,15,1004.4,-0,82,12,6000,22.224,,,260,13.9,17.7,,2,,,,,,1,wg-a,,,,AAXX 11184 07110 02456 72612 10150 20120 39928 40044 55000 60006 70165 878// 91800 333 10177 20139 60027=
07110,1997-10-11 21:00:00,14,1004.8,0.3,82,11,7000,35.188,,59.264,270,,,,0,,,,,,25,wg-a,,,,AAXX 11214 07110 12457 /2719 10140 20110 39931 40048 50003 60007 72586 86800 92100 333 91032=
07110,1997-10-12 00:00:00,13,1005,0.2,94,12,7000,35.188,,57.412,290,,,,,,,,,,3,wg-a,,,,AAXX 12004 07110 02457 72919 10130 20120 39933 40050 53002 60006 70386 878// 90000 333 61000 91031=
07110,1997-10-12 03:00:00,13,1007.7,2.6,82,10,7000,38.892,,62.968,310,,,,0,,,,,,25,wg-a,,,,AAXX 12034 07110 12457 73121 10130 20100 39959 40077 53026 60007 72586 878// 90300 333 91034=
07110,1997-10-12 06:00:00,11,1012.5,4.7,94,10,7000,25.928,,,330,11.4,14.9,,,,,,,,25,wg-a,,,,AAXX 12064 07110 02457 73314 10110 20100 30006 40125 53047 61000 72586 878// 90600 333 10149 20114 6004=
07110,1997-10-12 09:00:00,13,1016.5,4,72,8,15000,22.224,,40.744,340,,,,,,,,,,,wg-a,,,,AAXX 12094 07110 12465 33412 10130 20080 30046 40165 51040 60006 83800 90900 333 91022=
07110,1997-10-12 12:00:00,14,1019.2,2.7,63,7,25000,22.224,,,330,,,,,,,,,,,wg-a,,,,AAXX 12124 07110 12575 53312 10140 20070 30073 40192 51027 60006 85800 91200=
07110,1997-10-12 18:00:00,11,1021.1,1.2,82,8,20000,11.112,,,310,10.3,13.9,,,,,,,,1,wg-a,,,,AAXX 12184 07110 12570 63106 10110 20080 30091 40211 52012 60006 70186 86800 91800 333 10139 20103=
07110,1997-10-12 21:00:00,10,1022.5,1.3,76,6,20000,11.112,,,340,,,,,,,,,,,wg-a,,,,AAXX 12214 07110 12570 /3406 10100 20060 30104 40225 51013 60006 85500 92100=
07110,1997-10-13 00:00:00,11,1023.4,0.9,66,5,20000,11.112,,,330,,,,,,,,,,,wg-a,,,,AAXX 13004 07110 12770 43306 10110 20050 30113 40234 51009 60006 84500 90000=
07110,1997-10-13 03:00:00,11,1022.9,-0.4,76,7,15000,11.112,,,330,,,,,,,,,,,wg-a,,,,AAXX 13034 07110 12565 73306 10110 20070 30109 40229 58004 60006 878// 90300=
07110,1997-10-13 06:00:00,11,1023,0.1,76,7,15000,14.816,,,330,9.7,11.2,,,,,1,,,,wg-a,,,,AAXX 13064 07110 02465 73308 10110 20070 30110 40230 53001 60006 878// 90600 333 10112 20097 60014=
07110,1997-10-13 09:00:00,12,1024.3,1.3,67,6,15000,18.52,,,320,,,,,,,,,,,wg-a,,,,AAXX 13094 07110 12565 /3210 10120 20060 30123 40243 53013 60006 85800 90900=
07110,1997-10-13 12:00:00,14,1024.2,0,67,8,20000,22.224,,,320,,,,,,,,,,,wg-a,,,,AAXX 13124 07110 12570 /3212 10140 20080 30123 40242 50000 60006 86800 91200=
07110,1997-10-13 15:00:00,12,1023.6,-0.7,88,10,6000,22.224,,,340,,,,,,,,,,80,wg-a,,,,AAXX 13154 07110 02056 73412 10120 20100 30116 40236 55007 61000 78086 878// 91500 333 ////=
07110,1997-10-13 18:00:00,11,1024.5,0.9,82,8,11000,18.52,,,350,10.3,14.6,,,,,,,,,wg-a,,,,AAXX 13184 07110 12/61 /3510 10110 20080 30125 40245 53009 60006 91800 333 10146 20103=
07110,1997-10-13 21:00:00,10,1026.2,1.6,76,6,15000,7.408,,,340,,,,,,,,,,,wg-a,,,,AAXX 13214 07110 12665 23404 10100 20060 30141 40262 51016 60006 82500 92100=
07110,1997-10-14 00:00:00,10,1027.2,1,82,7,15000,3.704,,,360,,,,,,,,,,,wg-a,,,,AAXX 14004 07110 12665 /3602 10100 20070 30151 40272 51010 60006 85500 90000=
07110,1997-10-14 03:00:00,8,1027.9,0.6,76,4,25000,3.704,,,340,,,,,,,,,,,wg-a,,,,AAXX 14034 07110 12775 23402 10080 20040 30157 40279 51006 60006 82500 90300=
07110,1997-10-14 06:00:00,6,1028.6,0.6,87,4,20000,3.704,,,320,5.8,11.5,,,,,1,,,,wg-a,,,,AAXX 14064 07110 02670 23202 10060 20040 30163 40286 53006 60006 82500 90600 333 10115 20058 60014=
07110,1997-10-14 09:00:00,10,1029.3,0.9,82,7,20000,3.704,,,300,,,,,,,,,,,wg-a,,,,AAXX 14094 07110 12770 53002 10100 20070 30172 40293 53009 60006 825/2 90900=
07110,1997-10-14 12:00:00,14,1028.7,-0.5,58,6,20000,3.704,,,340,,,,,,,,,,,wg-a,,,,AAXX 14124 07110 12570 /3402 10140 20060 30167 40287 58005 60006 84802 91200=
07110,1997-10-14 15:00:00,14,1027.1,-1.6,55,5,20000,3.704,,,330,,,,,,,,,,,wg-a,,,,AAXX 14154 07110 12670 73302 10140 20050 30151 40271 58016 60006 86802 91500=
07110,1997-10-14 18:00:00,11,1026.1,-1.1,71,6,20000,7.408,,,250,5.8,14.4,,,,,,,,,wg-a,,,,AAXX 14184 07110 12770 72504 10110 20060 30140 40261 56011 60006 865/2 91800 333 10144 20058=
07110,1997-10-14 21:00:00,12,1024.6,-1.4,71,7,15000,11.112,,,230,,,,,,,,,,,wg-a,,,,AAXX 14214 07110 12565 72306 10120 20070 30126 40246 56014 60006 875// 92100=
07110,1997-10-15 00:00:00,13,1021.4,-3.1,82,10,15000,18.52,,,230,,,,,,,,,,,wg-a,,,,AAXX 15004 07110 12465 72310 10130 20100 30095 40214 57031 60006 875// 90000=
07110,1997-10-15 03:00:00,14,1018.5,-2.9,94,13,2500,18.52,,,250,,,,2,,,,,,51,wg-a,,,,AAXX 15034 07110 12225 82510 10140 20130 30066 40185 58029 60027 75165 877// 90300=
07110,1997-10-15 06:00:00,15,1016.3,-2.1,100,15,7000,18.52,,,280,10.9,14.9,,,,,,,,20,wg-a,,,,AAXX 15064 07110 02257 82810 10150 20150 30045 40163 56021 61000 72065 877// 90600 333 10149 20109 6003=
07110,1997-10-15 09:00:00,15,1016.2,-0.1,94,14,2500,22.224,,,300,,,,,,,,,,50,wg-a,,,,AAXX 15094 07110 02225 83012 10150 20140 30044 40162 55001 61000 75052 877// 90900 333 ////=
07110,1997-10-15 12:00:00,15,1016.2,-0,88,13,8000,22.224,,,310,,,,0,,,,,,1,wg-a,,,,AAXX 15124 07110 02358 83112 10150 20130 30044 40162 54000 60006 70152 875// 91200 333 60007=
07110,1997-10-15 15:00:00,14,1015.8,-0.4,94,13,7000,14.816,,,310,,,,0,,,,,,3,wg-a,,,,AAXX 15154 07110 12357 83108 10140 20130 30040 40158 56004 60007 70352 877// 91500=
07110,1997-10-15 18:00:00,13,1016.2,0.3,94,12,4000,11.112,,,310,12.8,15.1,,,,,,,,50,wg-a,,,,AAXX 15184 07110 02240 83106 10130 20120 30043 40162 53003 61000 75052 875// 91800 333 10151 20128 6100=
07110,1997-10-15 21:00:00,13,1016.4,0.2,94,12,500,7.408,,,300,,,,,,,,,,3,wg-a,,,,AAXX 15214 07110 02200 83004 10130 20120 30045 40164 50002 61000 70352 875// 92100 333 ////=
07110,1997-10-16 00:00:00,13,1016.1,-0.2,100,13,500,7.408,,,250,,,,0,,,,,,3,wg-a,,,,AAXX 16004 07110 02200 82504 10130 20130 30043 40161 58002 60006 70352 877// 90000 333 60007=
07110,1997-10-16 03:00:00,14,1015.2,-0.9,100,14,600,7.408,,,230,,,,0,,,,,,50,wg-a,,,,AAXX 16034 07110 12006 82304 10140 20140 30034 40152 58009 60007 75052 877// 90300=
07110,1997-10-16 06:00:00,15,1014.4,-0.7,100,15,4000,11.112,,,230,12.7,14.9,,,,,,,,20,wg-a,,,,AAXX 16064 07110 02240 /2306 10150 20150 30027 40144 56007 61000 72052 876// 90600 333 10149 20127 6001=
07110,1997-10-16 09:00:00,16,1014.2,-0.2,94,15,2500,14.816,,,220,,,,0,,,,,,50,wg-a,,,,AAXX 16094 07110 12225 82208 10160 20150 30025 40142 57002 60007 75052 886// 90900=
07110,1997-10-16 12:00:00,17,1013.7,-0.5,94,16,11000,18.52,,,210,,,,,,,,,,,wg-a,,,,AAXX 16124 07110 12/61 /2110 10170 20160 30020 40137 58005 60016 91200=
07110,1997-10-16 15:00:00,17,1012.2,-1.4,94,16,11000,18.52,,,200,,,,,,,,,,,wg-a,,,,AAXX 16154 07110 12/61 /2010 10170 20160 30006 40122 58014 60006 91500=
07110,1997-10-16 18:00:00,16,1011.8,-0.5,100,16,8000,18.52,,,190,14.7,17.2,,,,,,,,,wg-a,,,,AAXX 16184 07110 12358 71910 10160 20160 30001 40118 56005 60006 875// 91800 333 10172 20147=
07110,1997-10-16 21:00:00,16,1010.8,-0.9,100,16,10000,29.632,,,180,,,,,,,,,,1,wg-a,,,,AAXX 16214 07110 02260 71816 10160 20160 39992 40108 56009 61000 70152 877// 92100 333 ////=
07110,1997-10-17 00:00:00,16,1009.5,-1.3,94,15,12000,31.484,,,180,,,,,,,,,,1,wg-a,,,,AAXX 17004 07110 02262 71817 10160 20150 39979 40095 57013 61000 70152 877// 90000 333 ////=
07110,1997-10-17 03:00:00,15,1008.3,-1.3,94,14,12000,29.632,,,160,,,,,,,,,,,wg-a,,,,AAXX 17034 07110 12462 /1616 10150 20140 39966 40083 58013 60006 86600 90300=
07110,1997-10-17 06:00:00,16,1007.3,-0.9,88,14,10000,25.928,,,160,15.2,16.4,,,,,1,,,,wg-a,,,,AAXX 17064 07110 02360 71614 10160 20140 39957 40073 58009 60006 87500 90600 333 10164 20152 60014=
07110,1997-10-17 09:00:00,16,1007.2,-0.1,94,15,10000,25.928,,,160,,,,,,,,,,,wg-a,,,,AAXX 17094 07110 12460 71614 10160 20150 39956 40072 56001 60006 875// 90900=
07110,1997-10-17 12:00:00,18,1006.6,-0.5,83,15,15000,31.484,,51.856,160,,,,,,,,,,,wg-a,,,,AAXX 17124 07110 12465 /1617 10180 20150 39951 40066 56005 60006 85501 91200 333 91028=
07110,1997-10-17 15:00:00,18,1006.4,-0.2,83,15,15000,29.632,,,150,,,,,,,,,,,wg-a,,,,AAXX 17154 07110 12465 51516 10180 20150 39949 40064 57002 60006 85531 91500=
07110,1997-10-17 18:00:00,16,1007.3,0.8,88,14,10000,25.928,,,150,15.4,18.8,,,,,,,,,wg-a,,,,AAXX 17184 07110 12460 /1514 10160 20140 39957 40073 53008 60006 84531 91800 333 10188 20154=
07110,1997-10-17 21:00:00,16,1008.9,1.6,94,15,10000,18.52,,,120,,,,,,,,,,,wg-a,,,,AAXX 17214 07110 12460 /1210 10160 20150 39973 40089 51016 60006 85531 92100=
07110,1997-10-18 00:00:00,15,1009.6,0.6,88,13,10000,14.816,,,130,,,,,,,,,,,wg-a,,,,AAXX 18004 07110 12460 41308 10150 20130 39979 40096 51006 60006 82531 90000=
07110,1997-10-18 03:00:00,15,1009.6,0,88,13,10000,18.52,,,120,,,,,,,,,,,wg-a,,,,AAXX 18034 07110 12460 41210 10150 20130 39979 40096 50000 60006 82531 90300=
07110,1997-10-18 06:00:00,15,1010.2,0.6,88,13,10000,25.928,,,130,14.8,16.2,,,,,,,,,wg-a,,,,AAXX 18064 07110 02/60 41314 10150 20130 39985 40102 52006 60006 82031 90600 333 10162 20148 60004=
07110,1997-10-18 09:00:00,16,1011.3,1.1,88,14,10000,29.632,,,130,,,,,,,,,,,wg-a,,,,AAXX 18094 07110 12/60 51316 10160 20140 39996 40113 51011 60006 82031 90900=
07110,1997-10-18 12:00:00,21,1011.7,0.6,73,16,15000,18.52,,,150,,,,,,,,,,,wg-a,,,,AAXX 18124 07110 12/65 61510 10210 20160 30002 40117 50006 60006 82031 91200=
07110,1997-10-18 15:00:00,21,1011.2,-0.5,69,15,15000,25.928,,,150,,,,,,,,,,,wg-a,,,,AAXX 18154 07110 12/65 61514 10210 20150 39997 40112 56005 60006 82031 91500=
07110,1997-10-18 18:00:00,19,1011.8,0.5,68,13,15000,18.52,,,140,14.8,21.6,,,,,,,,,wg-a,,,,AAXX 18184 07110 12/65 31410 10190 20130 30002 40118 53005 60006 81031 91800 333 10216 20148=
07110,1997-10-18 21:00:00,19,1011.3,-0.4,73,14,15000,22.224,,,120,,,,,,,,,,,wg-a,,,,AAXX 18214 07110 12/65 31212 10190 20140 39998 40113 57004 60006 80001 92100=
07110,1997-10-19 00:00:00,19,1010.6,-0.7,73,14,15000,25.928,,,120,,,,,,,,,,,wg-a,,,,AAXX 19004 07110 12/65 31214 10190 20140 39991 40106 58007 60006 80001 90000=
07110,1997-10-19 03:00:00,18,1010,-0.7,77,14,15000,14.816,,,140,,,,,,,,,,,wg-a,,,,AAXX 19034 07110 12/65 31408 10180 20140 39984 40100 56007 60006 80001 90300=
07110,1997-10-19 06:00:00,17,1009.1,-0.9,82,14,15000,25.928,,,130,16.9,19.2,,,,,,,,,wg-a,,,,AAXX 19064 07110 02/65 61314 10170 20140 39975 40091 56009 60006 82031 90600 333 10192 20169 60004=
07110,1997-10-19 09:00:00,17,1010.6,1.5,88,15,15000,18.52,,,140,,,,,,,,,,,wg-a,,,,AAXX 19094 07110 12/65 71410 10170 20150 39990 40106 53015 60006 84072 90900=
07110,1997-10-19 12:00:00,17,1010.5,-0.1,94,16,10000,18.52,,,120,,,,0,,,,,,21,wg-a,,,,AAXX 19124 07110 02460 81210 10170 20160 39989 40105 58001 60016 72162 8457/ 91200 333 60007=
07110,1997-10-19 18:00:00,18,1010.5,0.2,83,15,12000,11.112,,,120,16,21,,,,,,,,,wg-a,,,,AAXX 19184 07110 12562 51206 10180 20150 39989 40105 53002 60006 84332 91800 333 10210 20160=
07110,1997-10-20 00:00:00,16,1008.9,-0.6,94,15,10000,14.816,,,120,,,,,,,,,,3,wg-a,,,,AAXX 20004 07110 12360 81208 10160 20150 39973 40089 58006 60026 70361 886// 90000=
07110,1997-10-20 03:00:00,16,1007.8,-1.1,94,15,11000,18.52,,,140,,,,,,,,,,,wg-a,,,,AAXX 20034 07110 12/61 /1410 10160 20150 39962 40078 56011 60006 90300=
07110,1997-10-20 06:00:00,16,1007.4,-0.4,94,15,10000,7.408,,,100,15.5,17.6,,,,,3,,,,wg-a,,,,AAXX 20064 07110 02760 71004 10160 20150 39958 40074 55004 60006 875// 90600 333 10176 20155 60034=
07110,1997-10-20 12:00:00,19,1006,-1.7,83,16,18000,22.224,,,120,,,,,,,,,,2,wg-a,,,,AAXX 20124 07110 02568 71212 10190 20160 39945 40060 58017 61000 70265 8383/ 91200 333 6100=
07110,1997-10-20 15:00:00,19,1005.3,-0.7,83,16,10000,22.224,,,100,,,,,,,,,,61,wg-a,,,,AAXX 20154 07110 02460 81012 10190 20160 39938 40053 56007 61000 76162 8357/ 91500 333 ////=
07110,1997-10-20 18:00:00,17,1005.9,0.6,88,15,15000,18.52,,,100,15.2,19.7,,,,,,,,60,wg-a,,,,AAXX 20184 07110 02465 81010 10170 20150 39944 40059 53006 61000 76062 8157/ 91800 333 10197 20152 6000=
07110,1997-10-20 21:00:00,17,1005.8,-0.2,88,15,15000,22.224,,,90,,,,,,,,,,3,wg-a,,,,AAXX 20214 07110 02465 80912 10170 20150 39942 40058 56002 61000 70362 8357/ 92100 333 ////=
07110,1997-10-21 00:00:00,16,1006.3,0.5,88,14,10000,18.52,,,90,,,,,,,,,,3,wg-a,,,,AAXX 21004 07110 02560 80910 10160 20140 39947 40063 53005 61000 70362 875// 90000 333 ////=
07110,1997-10-21 03:00:00,15,1006.3,-0.1,94,14,6000,14.816,,,80,,,,6,,,,,,61,wg-a,,,,AAXX 21034 07110 12456 80808 10150 20140 39946 40063 58001 60067 76162 875// 90300=
07110,1997-10-21 06:00:00,15,1006.2,0,94,14,8000,18.52,,,90,14.9,17.3,,,,,,,,21,wg-a,,,,AAXX 21064 07110 02358 80910 10150 20140 39946 40062 50000 61000 72162 876// 90600 333 10173 20149 6006=
07110,1997-10-21 09:00:00,15,1007.9,1.6,94,14,4000,18.52,,,110,,,,,,,,,,10,wg-a,,,,AAXX 21094 07110 12340 81110 10150 20140 39962 40079 51016 60006 71022 876// 90900=
07110,1997-10-21 12:00:00,16,1008.5,0.7,88,14,500,22.224,,,130,,,,,,,,,,,wg-a,,,,AAXX 21124 07110 12400 71312 10160 20140 39969 40085 51007 60006 876// 91200=
07110,1997-10-21 15:00:00,16,1008.4,-0.1,88,14,6000,18.52,,,120,,,,,,,,,,,wg-a,,,,AAXX 21154 07110 12456 81210 10160 20140 39968 40084 55001 60006 876// 91500=
07110,1997-10-21 18:00:00,15,1009.1,0.6,88,13,3500,18.52,,,120,14.6,17.6,,,,,,,,10,wg-a,,,,AAXX 21184 07110 12335 81210 10150 20130 39974 40091 52006 60006 71022 876// 91800 333 10176 20146=
07110,1997-10-21 21:00:00,14,1009.2,0.1,94,13,4000,18.52,,,130,,,,1,,,,,,10,wg-a,,,,AAXX 21214 07110 12340 81310 10140 20130 39975 40092 53001 60017 71062 875// 92100=
07110,1997-10-22 00:00:00,14,1009.1,-0.1,94,13,3000,22.224,,,140,,,,0,,,,,,10,wg-a,,,,AAXX 22004 07110 02330 71412 10140 20130 39974 40091 58001 60016 71065 875// 90000 333 60007=
07110,1997-10-22 03:00:00,14,1008.6,-0.5,94,13,2000,14.816,,,150,,,,1,,,,,,51,wg-a,,,,AAXX 22034 07110 12120 81508 10140 20130 39969 40086 57005 60017 75152 886// 90300=
07110,1997-10-22 06:00:00,14,1008.6,-0,100,14,2000,11.112,,,130,13.6,14.6,,,,,,,,10,wg-a,,,,AAXX 22064 07110 02120 81306 10140 20140 39969 40086 55000 61000 71052 886// 90600 333 10146 20136 6002=
07110,1997-10-22 09:00:00,14,1009.5,0.9,100,14,3000,11.112,,,120,,,,,,,,,,10,wg-a,,,,AAXX 22094 07110 12130 81206 10140 20140 39978 40095 52009 60006 71022 886// 90900=
07110,1997-10-22 12:00:00,15,1009.6,0.1,100,15,3000,7.408,,,140,,,,,,,,,,10,wg-a,,,,AAXX 22124 07110 02230 81404 10150 20150 39979 40096 50001 61000 71062 885// 91200 333 6100=
07110,1997-10-22 15:00:00,16,1009.3,-0.2,94,15,4500,7.408,,,130,,,,0,,,,,,10,wg-a,,,,AAXX 22154 07110 12245 81304 10160 20150 39977 40093 56002 60007 71062 885// 91500=
07110,1997-10-22 18:00:00,15,1009.9,0.5,100,15,6000,7.408,,,100,13.9,15.9,,,,,,,,10,wg-a,,,,AAXX 22184 07110 02256 81004 10150 20150 39982 40099 53005 61000 71062 885// 91800 333 10159 20139 6002=
07110,1997-10-22 21:00:00,15,1010.8,0.9,100,15,12000,3.704,,,110,,,,0,,,,,,21,wg-a,,,,AAXX 22214 07110 12262 81102 10150 20150 39991 40108 53009 60007 72162 887// 92100=
07110,1997-10-23 00:00:00,15,1011.3,0.5,94,14,12000,3.704,,,110,,,,,,,,,,3,wg-a,,,,AAXX 23004 07110 12262 81102 10150 20140 39996 40113 51005 60006 70362 887// 90000=
07110,1997-10-23 03:00:00,15,1011.3,0,94,14,10000,0,,,0,,,,,,,,,,,wg-a,,,,AAXX 23034 07110 12360 80000 10150 20140 39996 40113 50000 60006 886// 90300=
07110,1997-10-23 06:00:00,14,1011.6,0.3,100,14,10000,0,,,0,14.3,15,,,,,2,,,,wg-a,,,,AAXX 23064 07110 02360 70000 10140 20140 39999 40116 53003 60006 8263/ 90600 333 10150 20143 60024=
07110,1997-10-23 09:00:00,15,1012.8,1.2,100,15,4000,3.704,,,130,,,,,,,,,,10,wg-a,,,,AAXX 23094 07110 12240 81302 10150 20150 30011 40128 51012 60006 710// 90900=
07110,1997-10-23 15:00:00,16,1013.7,0.4,88,14,6000,11.112,,,30,,,,,,,,,,,wg-a,,,,AAXX 23154 07110 12456 70306 10160 20140 30020 40137 53004 60006 876// 91500=
07110,1997-10-23 18:00:00,14,1014.9,1.1,94,13,1500,11.112,,,50,13.8,16.3,,,,,,,,,wg-a,,,,AAXX 23184 07110 12/15 /0506 10140 20130 30031 40149 53011 60006 91800 333 10163 20138=
07110,1997-10-24 00:00:00,9,1018.5,1.5,87,7,10000,7.408,,,40,,,,,,,,,,,wg-a,,,,AAXX 24004 07110 12/60 00404 10090 20070 30064 40185 51015 60006 80000 90000=
07110,1997-10-24 03:00:00,7,1019.7,1.1,87,5,15000,14.816,,,60,,,,,,,,,,,wg-a,,,,AAXX 24034 07110 12/65 00608 10070 20050 30075 40197 51011 60006 80000 90300=
07110,1997-10-24 06:00:00,6,1021.4,1.7,87,4,10000,11.112,,,80,6,13.8,,,,,,,,,wg-a,,,,AAXX 24064 07110 02/60 00806 10060 20040 30092 40214 53017 60006 80000 90600 333 10138 20060 60004=
07110,1997-10-24 09:00:00,10,1023.5,2.2,71,5,15000,14.816,,,110,,,,,,,,,,,wg-a,,,,AAXX 24094 07110 12/65 01108 10100 20050 30114 40235 51022 60006 80000 90900=
07110,1997-10-24 12:00:00,13,1024.2,0.8,62,6,15000,22.224,,,100,,,,,,,,,,,wg-a,,,,AAXX 24124 07110 12/65 01012 10130 20060 30122 40242 50008 60006 80000 91200=
07110,1997-10-24 15:00:00,14,1024,-0.1,58,6,20000,18.52,,,90,,,,,,,,,,,wg-a,,,,AAXX 24154 07110 12/70 00910 10140 20060 30121 40240 55001 60006 80000 91500=
07110,1997-10-24 18:00:00,10,1025.3,1.1,76,6,20000,11.112,,,50,6,14.4,,,,,,,,,wg-a,,,,AAXX 24184 07110 12/70 00506 10100 20060 30132 40253 53011 60006 80000 91800 333 10144 20060=
07110,1997-10-24 21:00:00,8,1026.9,1.5,87,6,20000,7.408,,,80,,,,,,,,,,,wg-a,,,,AAXX 24214 07110 12/70 00804 10080 20060 30147 40269 51015 60006 80000 92100=
07110,1997-10-25 00:00:00,7,1027.2,0.2,87,5,20000,7.408,,,70,,,,,,,,,,,wg-a,,,,AAXX 25004 07110 12/70 00704 10070 20050 30149 40272 50002 60006 80000 90000=
07110,1997-10-25 03:00:00,5,1026.8,-0.5,87,3,20000,11.112,,,60,,,,,,,,,,,wg-a,,,,AAXX 25034 07110 12/70 00606 10050 20030 30144 40268 58005 60006 80000 90300=
07110,1997-10-25 06:00:00,4,1026.9,0.1,87,2,20000,7.408,,,40,3.9,10,,,,,,,,,wg-a,,,,AAXX 25064 07110 02/70 00404 10040 20020 30145 40269 52001 60006 80000 90600 333 10100 20039 60004=
07110,1997-10-25 09:00:00,7,1027.7,0.9,81,4,20000,7.408,,,40,,,,,,,,,,,wg-a,,,,AAXX 25094 07110 12/70 00404 10070 20040 30154 40277 51009 60006 80000 90900=
07110,1997-10-25 12:00:00,12,1026.4,-1,54,3,20000,18.52,,,90,,,,,,,,,,,wg-a,,,,AAXX 25124 07110 12/70 00910 10120 20030 30144 40264 58010 60006 80000 91200=
07110,1997-10-25 15:00:00,14,1024.5,-1.8,51,4,20000,14.816,,,70,,,,,,,,,,,wg-a,,,,AAXX 25154 07110 12/70 00708 10140 20040 30126 40245 56018 60006 80000 91500=
07110,1997-10-25 18:00:00,10,1024.8,0.1,71,5,20000,11.112,,,70,3.2,14.1,,,,,,,,,wg-a,,,,AAXX 25184 07110 12/70 00706 10100 20050 30127 40248 53001 60006 80000 91800 333 10141 20032=
07110,1997-10-25 21:00:00,7,1024.8,-0.1,76,3,20000,11.112,,,70,,,,,,,,,,,wg-a,,,,AAXX 25214 07110 12/70 00706 10070 20030 30126 40248 57001 60006 80000 92100=
07110,1997-10-26 00:00:00,7,1023.8,-1,76,3,20000,7.408,,,90,,,,,,,,,,,wg-a,,,,AAXX 26004 07110 12/70 00904 10070 20030 30116 40238 57010 60006 80000 90000=
07110,1997-10-26 03:00:00,6,1023.3,-0.6,75,2,15000,3.704,,,310,,,,,,,,,,,wg-a,,,,AAXX 26034 07110 12/65 03102 10060 20020 30110 40233 58006 60006 80000 90300=
07110,1997-10-26 06:00:00,4,1022.2,-1.2,81,1,10000,7.408,,,60,3.3,9.6,,,,,,,,,wg-a,,,,AAXX 26064 07110 02/60 /0604 10040 20010 30098 40222 57012 60006 90600 333 10096 20033 60004=
07110,1997-10-26 09:00:00,8,1022.2,0.2,76,4,10000,3.704,,,50,,,,,,,,,,,wg-a,,,,AAXX 26094 07110 12/60 10502 10080 20040 30100 40222 53002 60006 80001 90900=
07110,1997-10-26 12:00:00,15,1020.7,-1.2,48,4,20000,14.816,,,90,,,,,,,,,,,wg-a,,,,AAXX 26124 07110 12/70 10908 10150 20040 30088 40207 58012 60006 80001 91200=
07110,1997-10-26 15:00:00,17,1019.1,-1.4,45,5,20000,11.112,,,120,,,,,,,,,,,wg-a,,,,AAXX 26154 07110 12/70 21206 10170 20050 30074 40191 56014 60006 80001 91500=
07110,1997-10-26 18:00:00,12,1019.6,0.3,62,5,20000,3.704,,,70,3.5,17.3,,,,,,,,,wg-a,,,,AAXX 26184 07110 12/70 20702 10120 20050 30077 40196 53003 60006 80001 91800 333 10173 20035=
07110,1997-10-26 21:00:00,10,1020.1,0.3,66,4,15000,7.408,,,110,,,,,,,,,,,wg-a,,,,AAXX 26214 07110 12/65 21104 10100 20040 30080 40201 51003 60006 80001 92100=
07110,1997-10-27 00:00:00,7,1019.9,-0.3,76,3,15000,7.408,,,30,,,,,,,,,,,wg-a,,,,AAXX 27004 07110 12/65 20304 10070 20030 30077 40199 58003 60006 80001 90000=
07110,1997-10-27 03:00:00,6,1019.1,-0.8,81,3,10000,7.408,,,60,,,,,,,,,,,wg-a,,,,AAXX 27034 07110 12/60 00604 10060 20030 30069 40191 58008 60006 80000 90300=
07110,1997-10-27 06:00:00,6,1018.6,-0.5,81,3,10000,3.704,,,10,4.5,12.6,,,,,,,,,wg-a,,,,AAXX 27064 07110 02/60 00102 10060 20030 30064 40186 55005 60006 80000 90600 333 10126 20045 60004=
07110,1997-10-27 09:00:00,11,1019,0.6,62,4,12000,14.816,,,80,,,,,,,,,,,wg-a,,,,AAXX 27094 07110 12/62 20808 10110 20040 30070 40190 51006 60006 81031 90900=
07110,1997-10-27 12:00:00,15,1018.7,-0.1,51,5,20000,18.52,,,90,,,,,,,,,,,wg-a,,,,AAXX 27124 07110 12/70 10910 10150 20050 30069 40187 58001 60006 80001 91200=
07110,1997-10-27 18:00:00,10,1019.4,0.9,82,7,15000,24.076,,,50,5.2,16.3,,,,,,,,0,wg-a,,,,AAXX 27184 07110 12/65 30513 10100 20070 30074 40194 53009 60006 700// 80001 91800 333 10163 20052=
07110,1997-10-27 21:00:00,10,1020.6,1.1,71,5,15000,18.52,,,80,,,,,,,,,,,wg-a,,,,AAXX 27214 07110 12/65 30810 10100 20050 30085 40206 51011 60006 80001 92100=
07110,1997-10-28 00:00:00,8,1021.4,0.8,81,5,15000,14.816,,,70,,,,,,,,,,,wg-a,,,,AAXX 28004 07110 12/65 00708 10080 20050 30093 40214 51008 60006 80000 90000=
07110,1997-10-28 03:00:00,7,1021.9,0.4,81,4,15000,14.816,,,70,,,,,,,,,,,wg-a,,,,AAXX 28034 07110 12/65 00708 10070 20040 30097 40219 53004 60006 80000 90300=
07110,1997-10-28 06:00:00,6,1022.8,0.8,75,2,15000,11.112,,,70,5.8,10.3,,,,,,,,,wg-a,,,,AAXX 28064 07110 02/65 00706 10060 20020 30105 40228 53008 60006 80000 90600 333 10103 20058 60004=
07110,1997-10-28 09:00:00,6,1024.6,1.8,56,-2,20000,18.52,,,70,,,,,,,,,,,wg-a,,,,AAXX 28094 07110 12/70 40710 10060 21020 30123 40246 53018 60006 80002 90900=
07110,1997-10-28 12:00:00,9,1025.5,1,43,-3,20000,18.52,,,70,,,,,,,,,,,wg-a,,,,AAXX 28124 07110 12/70 40710 10090 21030 30133 40255 51010 60006 81032 91200=
07110,1997-10-28 15:00:00,10,1025.9,0.5,43,-2,20000,18.52,,,70,,,,,,,,,,,wg-a,,,,AAXX 28154 07110 12/70 20710 10100 21020 30138 40259 53005 60006 81032 91500=
07110,1997-10-28 18:00:00,5,1028.4,2.2,65,-1,20000,7.408,,,50,5.1,10.4,,,,,,,,,wg-a,,,,AAXX 28184 07110 12/70 30504 10050 21010 30160 40284 53022 60006 80002 91800 333 10104 20051=
07110,1997-10-28 21:00:00,3,1030.3,1.8,65,-3,20000,11.112,,,80,,,,,,,,,,,wg-a,,,,AAXX 28214 07110 12/70 30806 10030 21030 30178 40303 51018 60006 80002 92100=
07110,1997-10-29 00:00:00,4,1031.1,0.8,48,-6,20000,11.112,,,110,,,,,,,,,,,wg-a,,,,AAXX 29004 07110 12/70 01106 10040 21060 30186 40311 53008 60006 80000 90000=
07110,1997-10-29 03:00:00,1,1032.3,1.1,59,-6,20000,7.408,,,350,,,,,,,,,,,wg-a,,,,AAXX 29034 07110 12/70 03504 10010 21060 30197 40323 51011 60006 80000 90300=
07110,1997-10-29 06:00:00,-1,1033,0.6,69,-6,20000,7.408,,,60,-0.7,5.1,,,,,,,,,wg-a,,,,AAXX 29064 07110 02/70 00604 11010 21060 30203 40330 53006 60006 80000 90600 333 10051 21007 60004=
07110,1997-10-29 09:00:00,4,1033.7,0.9,52,-5,20000,7.408,,,110,,,,,,,,,,,wg-a,,,,AAXX 29094 07110 12/70 31104 10040 21050 30212 40337 52009 60006 80002 90900=
07110,1997-10-29 12:00:00,11,1032,-1.4,40,-2,20000,7.408,,,130,,,,,,,,,,,wg-a,,,,AAXX 29124 07110 12/70 31304 10110 21020 30198 40320 58014 60006 80002 91200=
07110,1997-10-29 15:00:00,14,1030.8,-1,31,-3,20000,3.704,,,120,,,,,,,,,,,wg-a,,,,AAXX 29154 07110 12/70 31202 10140 21030 30188 40308 56010 60006 80002 91500=
07110,1997-10-29 18:00:00,8,1032,0.9,57,0,20000,7.408,,,20,-0.8,14.8,,,,,,,,,wg-a,,,,AAXX 29184 07110 12/70 20204 10080 20000 30197 40320 51009 60006 80002 91800 333 10148 21008=
07110,1997-10-29 21:00:00,4,1031.9,-0.3,56,-4,20000,7.408,,,120,,,,,,,,,,,wg-a,,,,AAXX 29214 07110 12/70 21204 10040 21040 30194 40319 58003 60006 80002 92100=
07110,1997-10-30 00:00:00,3,1031.9,-0,75,-1,20000,11.112,,,170,,,,,,,,,,,wg-a,,,,AAXX 30004 07110 12/70 21706 10030 21010 30194 40319 55000 60006 80002 90000=
07110,1997-10-30 03:00:00,3,1031.5,-0.4,65,-3,20000,11.112,,,160,,,,,,,,,,,wg-a,,,,AAXX 30034 07110 12/70 21606 10030 21030 30190 40315 58004 60006 80002 90300=
07110,1997-10-30 06:00:00,3,1031.2,-0.3,60,-4,20000,3.704,,,150,1.3,7.6,,,,,,,,,wg-a,,,,AAXX 30064 07110 02/70 41502 10030 21040 30187 40312 57003 60006 80002 90600 333 10076 20013 60004=
07110,1997-10-30 09:00:00,6,1031.3,0.2,52,-3,12000,3.704,,,110,,,,,,,,,,,wg-a,,,,AAXX 30094 07110 12/62 61102 10060 21030 30189 40313 50002 60006 83034 90900=
07110,1997-10-30 12:00:00,11,1030.3,-0.7,37,-3,20000,7.408,,,110,,,,,,,,,,,wg-a,,,,AAXX 30124 07110 12/70 61104 10110 21030 30182 40303 58007 60006 84054 91200=
07110,1997-10-30 18:00:00,8,1029.9,0.4,57,0,15000,7.408,,,60,1.7,12.5,,,,,,,,,wg-a,,,,AAXX 30184 07110 12/65 50604 10080 20000 30176 40299 51004 60006 82032 91800 333 10125 20017=
07110,1997-10-30 21:00:00,7,1030.1,0.2,70,2,15000,7.408,,,80,,,,,,,,,,,wg-a,,,,AAXX 30214 07110 12/65 50804 10070 20020 30178 40301 53002 60006 83032 92100=
07110,1997-10-31 00:00:00,8,1030.3,0.2,71,3,15000,7.408,,,40,,,,,,,,,,,wg-a,,,,AAXX 31004 07110 12/65 60404 10080 20030 30180 40303 52002 60006 84032 90000=
07110,1997-10-31 03:00:00,7,1029.7,-0.6,76,3,15000,7.408,,,70,,,,,,,,,,,wg-a,,,,AAXX 31034 07110 12/65 30704 10070 20030 30174 40297 56006 60006 80002 90300=
07110,1997-10-31 06:00:00,6,1030.1,0.3,56,-2,15000,11.112,,,80,5.5,8.4,,,,,,,,,wg-a,,,,AAXX 31064 07110 02/65 20806 10060 21020 30177 40301 53003 60006 80002 90600 333 10084 20055 60004=
07110,1997-10-31 09:00:00,10,1030.6,0.7,66,4,20000,11.112,,,60,,,,,,,,,,,wg-a,,,,AAXX 31094 07110 12/70 10606 10100 20040 30184 40306 51007 60006 80002 90900=
07110,1997-10-31 12:00:00,13,1029.7,-0.7,62,6,20000,18.52,,,60,,,,,,,,,,,wg-a,,,,AAXX 31124 07110 12/70 10610 10130 20060 30177 40297 58007 60006 80002 91200=
07110,1997-10-31 15:00:00,13,1029,-0.7,62,6,20000,14.816,,,50,,,,,,,,,,,wg-a,,,,AAXX 31154 07110 12770 10508 10130 20060 30170 40290 57007 60006 81102 91500=
07110,1997-10-31 18:00:00,9,1029.2,0,81,6,20000,11.112,,,40,5.6,13.8,,,,,,,,,wg-a,,,,AAXX 31184 07110 12670 /0406 10090 20060 30170 40292 50000 60006 81102 91800 333 10138 20056=
07110,1997-11-01 00:00:00,7,1028.5,-0.6,87,5,15000,7.408,,,30,,,,,,,,,,,wg-a,,,,AAXX 01004 07110 12/65 00304 10070 20050 30162 40285 58006 60006 80000 90000=
07110,1997-11-01 03:00:00,5,1027.3,-1.2,93,4,15000,7.408,,,20,,,,,,,,,,,wg-a,,,,AAXX 01034 07110 12/65 00204 10050 20040 30150 40273 58012 60006 80000 90300=
07110,1997-11-01 06:00:00,5,1026.4,-0.9,93,4,15000,3.704,,,360,4.2,9.1,,,,,,,,,wg-a,,,,AAXX 01064 07110 02665 43602 10050 20040 30141 40264 56009 60006 84500 90600 333 10091 20042 60004=
07110,1997-11-01 09:00:00,8,1026.4,0.1,87,6,12000,3.704,,,20,,,,,,,,,,,wg-a,,,,AAXX 01094 07110 12662 20202 10080 20060 30142 40264 53001 60006 82500 90900=
07110,1997-11-01 12:00:00,13,1024.9,-1.3,58,5,15000,18.52,,,40,,,,,,,,,,,wg-a,,,,AAXX 01124 07110 12665 20410 10130 20050 30129 40249 58013 60006 82500 91200=
07110,1997-11-01 15:00:00,12,1023.4,-1.5,71,7,20000,14.816,,,30,,,,,,,,,,,wg-a,,,,AAXX 01154 07110 12670 40308 10120 20070 30114 40234 56015 60006 84800 91500=
07110,1997-11-01 18:00:00,9,1023,-0.5,76,5,20000,7.408,,,10,5,13.5,,,,,,,,,wg-a,,,,AAXX 01184 07110 12570 20104 10090 20050 30109 40230 55005 60006 82200 91800 333 10135 20050=
07110,1997-11-01 21:00:00,9,1022.2,-0.8,87,7,20000,7.408,,,50,,,,,,,,,,,wg-a,,,,AAXX 01214 07110 12370 60504 10090 20070 30101 40222 56008 60006 86500 92100=
07110,1997-11-02 00:00:00,9,1021.7,-0.5,87,7,15000,3.704,,,60,,,,,,,,,,,wg-a,,,,AAXX 02004 07110 12565 70602 10090 20070 30096 40217 57005 60006 875// 90000=
07110,1997-11-02 03:00:00,5,1020.6,-1.3,87,3,15000,3.704,,,90,,,,,,,,,,,wg-a,,,,AAXX 02034 07110 12/65 00902 10050 20030 30083 40206 56013 60006 80000 90300=
07110,1997-11-02 06:00:00,3,1019.5,-1.1,87,1,15000,7.408,,,50,3.2,9.1,,,,,,,,,wg-a,,,,AAXX 02064 07110 02/65 00504 10030 20010 30072 40195 56011 60006 80000 90600 333 10091 20032 60004=
07110,1997-11-02 12:00:00,10,1017.5,-1.6,50,0,12000,14.816,,,100,,,,,,,,,,,wg-a,,,,AAXX 02124 07110 12/62 21008 10100 20000 30055 40175 58016 60006 80002 91200=
07110,1997-11-02 15:00:00,12,1015.3,-2.1,50,2,8000,11.112,,,80,,,,,,,,,,,wg-a,,,,AAXX 02154 07110 12458 30806 10120 20020 30034 40153 56021 60006 82502 91500=
07110,1997-11-02 18:00:00,7,1015.5,-0.1,66,1,2000,7.408,,,50,2.8,11.7,,,,,,,,10,wg-a,,,,AAXX 02184 07110 12420 30504 10070 20010 30033 40155 55001 60006 71000 82602 91800 333 10117 20028=
07110,1997-11-02 21:00:00,5,1014.7,-0.8,81,2,500,11.112,,,60,,,,,,,,,,,wg-a,,,,AAXX 02214 07110 12/00 00606 10050 20020 30025 40147 56008 60006 80000 92100=
07110,1997-11-03 00:00:00,4,1013.2,-1.5,75,0,6000,11.112,,,80,,,,,,,,,,,wg-a,,,,AAXX 03004 07110 12/56 00806 10040 20000 30010 40132 58015 60006 80000 90000=
07110,1997-11-03 06:00:00,4,1009.1,-2.1,75,0,8000,14.816,,,50,3.2,6.5,,,,,,,,,wg-a,,,,AAXX 03064 07110 02/58 /0508 10040 20000 39969 40091 56021 60006 90600 333 10065 20032 60004=
07110,1997-11-03 09:00:00,6,1007.5,-1.5,81,3,10000,11.112,,,60,,,,,,,,,,,wg-a,,,,AAXX 03094 07110 12760 50606 10060 20030 39954 40075 58015 60006 81532 90900=
07110,1997-11-03 12:00:00,13,1005.2,-2,58,5,10000,11.112,,,80,,,,,,,,,,,wg-a,,,,AAXX 03124 07110 12760 60806 10130 20050 39934 40052 58020 60006 81532 91200=
07110,1997-11-03 18:00:00,12,1002.1,-0.7,76,8,8000,22.224,,,100,3.5,15.6,,,,,,,,,wg-a,,,,AAXX 03184 07110 12758 71012 10120 20080 39904 40021 56007 60006 81552 91800 333 10156 20035=
07110,1997-11-03 21:00:00,12,1000.5,-1.6,71,7,8000,25.928,,,120,,,,,,,,,,,wg-a,,,,AAXX 03214 07110 12758 /1214 10120 20070 39888 40005 57016 60006 83570 92100=
07110,1997-11-04 00:00:00,12,999.3,-1.2,82,9,7000,18.52,,,120,,,,0,,,,,,60,wg-a,,,,AAXX 04004 07110 02557 81210 10120 20090 39876 49993 56012 60006 76062 875// 90000 333 60007=
07110,1997-11-04 03:00:00,12,997.1,-2.2,94,11,7000,25.928,,,130,,,,1,,,,,,21,wg-a,,,,AAXX 04034 07110 12357 81314 10120 20110 39854 49971 58022 60017 72162 875// 90300=
07110,1997-11-04 06:00:00,13,996.2,-0.8,94,12,500,18.52,,,140,11.3,13.3,,,,,,,,21,wg-a,,,,AAXX 04064 07110 02200 81410 10130 20120 39846 49962 56008 61000 72162 875// 90600 333 10133 20113 6005=
07110,1997-11-04 12:00:00,15,995,-0.9,88,13,4500,31.484,,50.004,170,,,,0,,,,,,21,wg-a,,,,AAXX 04124 07110 02445 71717 10150 20130 39835 49950 58009 60016 72161 877// 91200 333 60007 91027=
07110,1997-11-04 18:00:00,14,995,1.4,94,13,4500,29.632,,50.004,210,12.5,15,,5,,,,,,2,wg-a,,,,AAXX 04184 07110 02345 82116 10140 20130 39834 49950 53014 60006 70252 877// 91800 333 10150 20125 60057 91027=
07110,1997-11-04 21:00:00,14,995.9,0.9,94,13,8000,31.484,,51.856,200,,,,0,,,,,,,wg-a,,,,AAXX 04214 07110 12458 72017 10140 20130 39843 49959 51009 60007 875// 92100 333 91028=
07110,1997-11-05 00:00:00,14,997,1.1,88,12,10000,29.632,,,210,,,,0,,,,,,25,wg-a,,,,AAXX 05004 07110 02460 42116 10140 20120 39854 49970 51011 60016 72511 84500 90000 333 60007=
07110,1997-11-05 06:00:00,13,995.3,-1.2,88,11,10000,25.928,,,200,13,14.3,,0,,,7,,,25,wg-a,,,,AAXX 05064 07110 02560 62014 10130 20110 39837 49953 56012 60074 72586 86800 90600 333 10143 20130 60007=
07110,1997-11-05 12:00:00,14,992.7,-1.9,82,11,15000,25.928,,,190,,,,0,,,,,,3,wg-a,,,,AAXX 05124 07110 02465 71914 10140 20110 39811 49927 58019 60016 70386 87800 91200 333 60007=
07110,1997-11-05 15:00:00,14,990.1,-2.5,77,10,15000,22.224,,,210,,,,,,,,,,1,wg-a,,,,AAXX 05154 07110 02465 /2112 10140 20100 39786 49901 58025 61000 70186 85802 91500 333 ////=
07110,1997-11-05 18:00:00,12,988.7,-1.5,82,9,12000,18.52,,,230,11.7,14.7,,,,,,,,25,wg-a,,,,AAXX 05184 07110 02462 72310 10120 20090 39771 49887 56015 61000 72586 86802 91800 333 10147 20117 6100=
07110,1997-11-05 21:00:00,11,988,-0.7,94,10,10000,18.52,,,240,,,,1,,,,,,3,wg-a,,,,AAXX 05214 07110 12460 72410 10110 20100 39764 49880 56007 60017 70386 878// 92100=
07110,1997-11-06 00:00:00,11,988,-0,94,10,10000,18.52,,,240,,,,1,,,,,,2,wg-a,,,,AAXX 06004 07110 02560 52410 10110 20100 39764 49880 54000 60026 70286 85800 90000 333 60017=
07110,1997-11-06 03:00:00,10,986.9,-1.1,93,9,15000,11.112,,,260,,,,,,,,,,,wg-a,,,,AAXX 06034 07110 12465 22606 10100 20090 39753 49869 58011 60006 82200 90300=
07110,1997-11-06 06:00:00,10,987.2,0.2,87,8,15000,11.112,,,250,9.7,11.9,,,,,,,,25,wg-a,,,,AAXX 06064 07110 02465 42506 10100 20080 39755 49872 53002 61000 72586 84800 90600 333 10119 20097 6003=
07110,1997-11-06 09:00:00,12,988.7,1.6,88,10,15000,11.112,,,250,,,,,,,,,,,wg-a,,,,AAXX 06094 07110 12465 52506 10120 20100 39771 49887 53016 60006 84802 90900=
07110,1997-11-06 12:00:00,14,988.6,0,77,10,20000,14.816,,,290,,,,,,,,,,,wg-a,,,,AAXX 06124 07110 12470 52908 10140 20100 39771 49886 50000 60006 84802 91200=
07110,1997-11-06 15:00:00,13,988.3,-0.3,82,10,20000,14.816,,,280,,,,,,,,,,,wg-a,,,,AAXX 06154 07110 12470 62808 10130 20100 39768 49883 56003 60006 85804 91500=
07110,1997-11-06 18:00:00,11,988.6,0.2,87,9,20000,11.112,,,280,9.6,14.2,,,,,,,,1,wg-a,,,,AAXX 06184 07110 02570 52806 10110 20090 39770 49886 50002 60006 70186 83802 91800 333 10142 20096 61000=
07110,1997-11-06 21:00:00,10,990.3,1.6,87,8,20000,11.112,,,280,,,,1,,,,,,,wg-a,,,,AAXX 06214 07110 12570 42806 10100 20080 39786 49903 53016 60017 83802 92100=
07110,1997-11-07 00:00:00,8,990,-0.4,93,7,15000,11.112,,,250,,,,0,,,,,,25,wg-a,,,,AAXX 07004 07110 02465 42506 10080 20070 39782 49900 58004 60016 72586 84800 90000 333 60007=
07110,1997-11-07 03:00:00,8,990.5,0.5,93,7,15000,7.408,,,210,,,,,,,,,,,wg-a,,,,AAXX 07034 07110 12465 22104 10080 20070 39787 49905 52005 60006 82200 90300=
07110,1997-11-07 06:00:00,8,991,0.5,93,7,15000,7.408,,,230,7.5,10.6,,,,,,,,25,wg-a,,,,AAXX 07064 07110 02665 72304 10080 20070 39792 49910 51005 61000 72586 864// 90600 333 10106 20075 6002=
07110,1997-11-07 09:00:00,10,991.2,0.3,87,8,15000,11.112,,,160,,,,,,,,,,,wg-a,,,,AAXX 07094 07110 12565 71606 10100 20080 39795 49912 50003 60006 85802 90900=
07110,1997-11-07 12:00:00,11,989,-2.1,94,10,15000,18.52,,,150,,,,0,,,,,,25,wg-a,,,,AAXX 07124 07110 02565 81510 10110 20100 39774 49890 58021 60006 72586 8587/ 91200 333 60007=
07110,1997-11-07 15:00:00,12,984.8,-4.1,94,11,6000,29.632,,,160,,,,4,,,,,,63,wg-a,,,,AAXX 07154 07110 12356 81616 10120 20110 39733 49848 56041 60047 76386 878// 91500=
07110,1997-11-07 18:00:00,11,985.6,0.7,94,10,10000,22.224,,40.744,240,7.9,12.2,,,,,,,,21,wg-a,,,,AAXX 07184 07110 02260 62412 10110 20100 39740 49856 53007 61000 72186 86800 91800 333 10122 20079 6012 91022=
07110,1997-11-07 21:00:00,11,987.8,2.2,82,8,15000,25.928,,,260,,,,,,,,,,,wg-a,,,,AAXX 07214 07110 12565 42614 10110 20080 39762 49878 52022 60006 84800 92100=
07110,1997-11-08 00:00:00,10,990.2,2.3,82,7,8000,22.224,,46.3,260,,,,1,,,,,,80,wg-a,,,,AAXX 08004 07110 02558 62612 10100 20070 39785 49902 53023 60016 78086 86800 90000 333 60017 91025=
07110,1997-11-08 03:00:00,10,992.6,2.4,76,6,12000,25.928,,42.596,260,,,,1,,,,,,25,wg-a,,,,AAXX 08034 07110 12562 /2614 10100 20060 39809 49926 52024 60017 72586 86800 90300 333 91023=
07110,1997-11-08 06:00:00,9,994.6,1.9,81,6,15000,18.52,,,250,8.3,11.6,,,,,,,,25,wg-a,,,,AAXX 08064 07110 02465 42510 10090 20060 39828 49946 51019 61000 72586 84800 90600 333 10116 20083 6019=
07110,1997-11-08 09:00:00,12,994.6,0.1,71,7,15000,18.52,,,220,,,,,,,,,,,wg-a,,,,AAXX 08094 07110 12465 32210 10120 20070 39829 49946 50001 60006 83802 90900=
07110,1997-11-08 12:00:00,11,989.8,-4.7,94,10,3000,25.928,,,180,,,,5,,,,,,61,wg-a,,,,AAXX 08124 07110 02230 81814 10110 20100 39782 49898 58047 60056 76161 875// 91200 333 60057=
07110,1997-11-08 15:00:00,11,987.9,-1.9,82,8,500,31.484,,,250,,,,3,,,,,,80,wg-a,,,,AAXX 08154 07110 12400 72517 10110 20080 39763 49879 55019 60037 78086 8693/ 91500=
07110,1997-11-08 18:00:00,9,988.7,0.7,81,6,500,31.484,,57.412,250,9.3,13,,,,,,,,25,wg-a,,,,AAXX 08184 07110 02400 72517 10090 20060 39770 49887 53007 61000 72586 8693/ 91800 333 10130 20093 6001 91031=
07110,1997-11-08 21:00:00,8,989.5,0.7,81,5,15000,14.816,,,240,,,,1,,,,,,25,wg-a,,,,AAXX 08214 07110 12465 42408 10080 20050 39777 49895 51007 60017 72586 84900 92100=
07110,1997-11-09 00:00:00,10,989.9,0.5,66,4,15000,22.224,,,230,,,,,,,,,,1,wg-a,,,,AAXX 09004 07110 12465 32312 10100 20040 39782 49899 51005 60016 70186 83900 90000=
07110,1997-11-09 03:00:00,8,989.6,-0.4,81,5,15000,14.816,,,220,,,,0,,,,,,25,wg-a,,,,AAXX 09034 07110 12465 32208 10080 20050 39778 49896 57004 60007 72586 83900 90300=
07110,1997-11-09 09:00:00,10,985.1,-3.3,82,7,12000,31.484,,,200,,,,1,,,,,,25,wg-a,,,,AAXX 09094 07110 12462 72017 10100 20070 39735 49851 58033 60017 72586 873// 90900=
07110,1997-11-09 12:00:00,11,989,3.9,76,7,15000,31.484,,51.856,290,,,,5,,,,,,25,wg-a,,,,AAXX 09124 07110 02465 /2917 10110 20070 39774 49890 53039 60066 72586 86300 91200 333 60057 91028=
07110,1997-11-09 15:00:00,12,992.6,3.6,71,7,20000,25.928,,,260,,,,,,,,,,,wg-a,,,,AAXX 09154 07110 12570 /2614 10120 20070 39810 49926 51036 60006 85202 91500=
07110,1997-11-09 18:00:00,10,993.9,1.2,82,7,15000,22.224,,,240,8.8,12.9,,1,,,,,,3,wg-a,,,,AAXX 09184 07110 02565 72412 10100 20070 39822 49939 51012 60006 70386 84902 91800 333 10129 20088 60017=
07110,1997-11-09 21:00:00,9,995,1,87,7,15000,14.816,,,250,,,,1,,,,,,25,wg-a,,,,AAXX 09214 07110 12565 52508 10090 20070 39832 49950 51010 60017 72586 83902 92100=
07110,1997-11-10 00:00:00,9,995.1,0.1,81,6,15000,14.816,,,230,,,,1,,,,,,1,wg-a,,,,AAXX 10004 07110 02565 42308 10090 20060 39833 49951 51001 60026 70186 84800 90000 333 60017=
07110,1997-11-10 03:00:00,9,993.6,-1.5,76,5,500,14.816,,,220,,,,0,,,,,,25,wg-a,,,,AAXX 10034 07110 12500 42208 10090 20050 39818 49936 58015 60007 72586 83830 90300=
07110,1997-11-10 06:00:00,9,992.6,-1,81,6,10000,11.112,,,240,7.8,10,,,,,,,,80,wg-a,,,,AAXX 10064 07110 02560 52406 10090 20060 39808 49926 56010 61000 78086 85800 90600 333 10100 20078 6008=
07110,1997-11-10 09:00:00,8,993.5,0.9,87,6,12000,14.816,,,250,,,,1,,,,,,27,wg-a,,,,AAXX 10094 07110 12262 62508 10080 20060 39817 49935 53009 60017 72787 86902 90900=
07110,1997-11-10 12:00:00,12,993.8,0.4,67,6,15000,22.224,,,250,,,,2,,,,,,25,wg-a,,,,AAXX 10124 07110 02465 62512 10120 20060 39821 49938 50004 60036 72587 86900 91200 333 60027=
07110,1997-11-10 15:00:00,11,993.5,-0.3,71,6,15000,25.928,,44.448,240,,,,1,,,,,,1,wg-a,,,,AAXX 10154 07110 12365 52414 10110 20060 39818 49935 58003 60017 70186 85902 91500 333 91024=
07110,1997-11-10 18:00:00,9,993.3,-0.3,81,6,11000,18.52,,35.188,240,6.9,11.9,,0,,,,,,,wg-a,,,,AAXX 10184 07110 02/61 /2410 10090 20060 39815 49933 57003 60006 91800 333 10119 20069 60007 91019=
07110,1997-11-10 21:00:00,8,992.8,-0.5,87,6,15000,11.112,,,220,,,,1,,,,,,25,wg-a,,,,AAXX 10214 07110 12365 42206 10080 20060 39810 49928 58005 60017 72586 84900 92100=
07110,1997-11-11 00:00:00,8,992.6,-0.2,93,7,15000,7.408,,,210,,,,,,,,,,2,wg-a,,,,AAXX 11004 07110 12465 52104 10080 20070 39808 49926 57002 60016 70286 85900 90000=
07110,1997-11-11 03:00:00,7,992.2,-0.5,93,6,15000,7.408,,,170,,,,0,,,,,,,wg-a,,,,AAXX 11034 07110 12465 51704 10070 20060 39803 49922 57005 60007 85300 90300=
07110,1997-11-11 06:00:00,6,992.2,-0,93,5,15000,7.408,,,120,5.9,9,,,,,4,,,,wg-a,,,,AAXX 11064 07110 02465 21204 10060 20050 39803 49922 55000 60006 82300 90600 333 10090 20059 60044=
07110,1997-11-11 09:00:00,8,993.7,1.6,93,7,500,3.704,,,140,,,,,,,,,,,wg-a,,,,AAXX 11094 07110 12400 61402 10080 20070 39819 49937 53016 60006 84903 90900=
07110,1997-11-11 12:00:00,12,994.3,0.7,76,8,20000,7.408,,,260,,,,,,,,,,25,wg-a,,,,AAXX 11124 07110 02470 62604 10120 20080 39826 49943 53007 61000 72586 83903 91200 333 6100=
07110,1997-11-11 15:00:00,11,994.3,-0,82,8,15000,14.816,,,320,,,,,,,,,,14,wg-a,,,,AAXX 11154 07110 12465 63208 10110 20080 39826 49943 55000 60006 71422 85903 91500=
07110,1997-11-11 18:00:00,9,996.1,1.7,87,7,20000,7.408,,,340,4.6,11.8,,,,,,,,,wg-a,,,,AAXX 11184 07110 12470 73404 10090 20070 39843 49961 53017 60006 8496/ 91800 333 10118 20046=
07110,1997-11-11 21:00:00,8,997.7,1.5,93,7,15000,7.408,,,40,,,,1,,,,,,25,wg-a,,,,AAXX 11214 07110 12565 40404 10080 20070 39858 49977 53015 60017 72586 84900 92100=
07110,1997-11-12 00:00:00,6,998.9,1.1,93,5,20000,3.704,,,320,,,,,,,,,,1,wg-a,,,,AAXX 12004 07110 12470 33202 10060 20050 39869 49989 52011 60016 70186 83900 90000=
07110,1997-11-12 03:00:00,6,999.8,0.9,100,6,20000,7.408,,,280,,,,,,,,,,,wg-a,,,,AAXX 12034 07110 12670 32804 10060 20060 39878 49998 51009 60006 83500 90300=
07110,1997-11-12 06:00:00,5,1000.8,1,100,5,20000,3.704,,,250,5.3,8.9,,,,,1,,,,wg-a,,,,AAXX 12064 07110 02670 /2502 10050 20050 39888 40008 51010 60006 86500 90600 333 10089 20053 60014=
07110,1997-11-12 09:00:00,8,1002.3,1.6,93,7,20000,3.704,,,150,,,,,,,,,,,wg-a,,,,AAXX 12094 07110 12570 21502 10080 20070 39904 40023 51016 60006 82300 90900=
07110,1997-11-12 12:00:00,12,1002.8,0.6,71,7,15000,11.112,,,170,,,,,,,,,,,wg-a,,,,AAXX 12124 07110 12565 41706 10120 20070 39910 40028 50006 60006 84802 91200=
07110,1997-11-12 21:00:00,7,1004.9,0.8,93,6,12000,7.408,,,220,,,,,,,,,,,wg-a,,,,AAXX 12214 07110 12562 52204 10070 20060 39929 40049 51008 60006 85300 92100=
07110,1997-11-13 00:00:00,7,1005,0.1,93,6,10000,7.408,,,230,,,,,,,,,,,wg-a,,,,AAXX 13004 07110 12560 42304 10070 20060 39930 40050 51001 60006 84800 90000=
07110,1997-11-13 03:00:00,8,1004.8,-0.2,87,6,15000,11.112,,,260,,,,1,,,,,,25,wg-a,,,,AAXX 13034 07110 12565 /2606 10080 20060 39928 40048 57002 60017 72586 86800 90300=
07110,1997-11-13 06:00:00,6,1004.5,-0.3,93,5,15000,7.408,,,250,5.7,8.5,,,,,3,,,2,wg-a,,,,AAXX 13064 07110 02565 52504 10060 20050 39925 40045 56003 60006 70286 85800 90600 333 10085 20057 60034=
07110,1997-11-13 09:00:00,7,1005.7,1.2,87,5,20000,3.704,,,240,,,,,,,,,,,wg-a,,,,AAXX 13094 07110 12570 42402 10070 20050 39937 40057 53012 60006 82831 90900=
07110,1997-11-13 12:00:00,12,1005.9,0.4,67,6,25000,11.112,,,280,,,,,,,,,,,wg-a,,,,AAXX 13124 07110 12575 72806 10120 20060 39941 40059 50004 60006 83232 91200=
07110,1997-11-13 15:00:00,11,1005.8,-0.1,71,6,25000,7.408,,,280,,,,,,,,,,,wg-a,,,,AAXX 13154 07110 12575 72804 10110 20060 39940 40058 57001 60006 82232 91500=
07110,1997-11-13 18:00:00,9,1007.5,1.5,81,6,20000,3.704,,,200,5.7,12.2,,,,,,,,,wg-a,,,,AAXX 13184 07110 12570 52002 10090 20060 39955 40075 53015 60006 85800 91800 333 10122 20057=
07110,1997-11-13 21:00:00,8,1008.9,1.4,87,6,20000,7.408,,,150,,,,,,,,,,,wg-a,,,,AAXX 13214 07110 12570 /1504 10080 20060 39969 40089 53014 60006 86500 92100=
07110,1997-11-14 00:00:00,6,1009.4,0.4,87,4,25000,7.408,,,170,,,,,,,,,,,wg-a,,,,AAXX 14004 07110 12675 /1704 10060 20040 39973 40094 53004 60006 81501 90000=
07110,1997-11-14 03:00:00,8,1008.8,-0.5,87,6,20000,14.816,,,160,,,,,,,,,,,wg-a,,,,AAXX 14034 07110 12570 /1608 10080 20060 39968 40088 58005 60006 86500 90300=
07110,1997-11-14 06:00:00,9,1008.7,0,93,8,20000,18.52,,,170,5.5,9.4,,,,,,,,,wg-a,,,,AAXX 14064 07110 02470 51710 10090 20080 39968 40087 50000 60006 85530 90600 333 10094 20055 60004=
07110,1997-11-14 09:00:00,11,1009.7,1,94,10,10000,18.52,,,160,,,,0,,,,,,20,wg-a,,,,AAXX 14094 07110 12360 71610 10110 20100 39978 40097 51010 60007 72022 875// 90900=
07110,1997-11-14 12:00:00,15,1010.2,0.7,88,13,20000,22.224,,,210,,,,0,,,,,,1,wg-a,,,,AAXX 14124 07110 02470 72112 10150 20130 39985 40102 51007 60016 70165 85832 91200 333 60007=
07110,1997-11-14 18:00:00,14,1011,0.9,94,13,2000,22.224,,,180,9.4,14.9,,2,,,,,,58,wg-a,,,,AAXX 14184 07110 12120 81812 10140 20130 39992 40110 53009 60027 75865 887// 91800 333 10149 20094=
07110,1997-11-15 00:00:00,14,1011.9,0.8,94,13,4000,11.112,,,230,,,,2,,,,,,21,wg-a,,,,AAXX 15004 07110 02140 82306 10140 20130 30001 40119 52008 60076 72165 887// 90000 333 60027=
07110,1997-11-15 03:00:00,14,1012.5,0.6,94,13,10000,18.52,,,200,,,,,,,,,,,wg-a,,,,AAXX 15034 07110 12260 82010 10140 20130 30007 40125 53006 60006 877// 90300=
07110,1997-11-15 06:00:00,14,1012.1,-0.4,100,14,10000,18.52,,,180,13.4,14.2,,,,,9,,,,wg-a,,,,AAXX 15064 07110 02160 81810 10140 20140 30003 40121 56004 60006 877// 90600 333 10142 20134 60094=
07110,1997-11-15 12:00:00,15,1013.2,0.3,100,15,600,22.224,,,210,,,,0,,,,,,50,wg-a,,,,AAXX 15124 07110 02106 82112 10150 20150 30015 40132 50003 60026 75054 886// 91200 333 60007=
07110,1997-11-15 15:00:00,15,1013.2,-0,100,15,900,22.224,,,210,,,,0,,,,,,50,wg-a,,,,AAXX 15154 07110 12109 82112 10150 20150 30015 40132 55000 60007 75055 886// 91500=
07110,1997-11-15 18:00:00,15,1013.6,0.4,100,15,10000,18.52,,,200,13.9,15,,,,,,,,20,wg-a,,,,AAXX 15184 07110 02160 82010 10150 20150 30019 40136 51004 61000 72054 886// 91800 333 10150 20139 6100=
07110,1997-11-15 21:00:00,15,1013.6,0,100,15,10000,22.224,,,190,,,,,,,,,,,wg-a,,,,AAXX 15214 07110 12460 81912 10150 20150 30019 40136 50000 60006 886// 92100=
07110,1997-11-16 00:00:00,15,1013.3,-0.3,94,14,10000,22.224,,,170,,,,,,,,,,,wg-a,,,,AAXX 16004 07110 12560 81712 10150 20140 30016 40133 58003 60006 885// 90000=
07110,1997-11-16 03:00:00,15,1012,-1.3,88,13,10000,22.224,,,170,,,,,,,,,,,wg-a,,,,AAXX 16034 07110 12660 71712 10150 20130 30003 40120 56013 60006 875// 90300=
07110,1997-11-16 06:00:00,14,1011.1,-0.9,94,13,15000,29.632,,,170,14,14.7,,,,,2,,,,wg-a,,,,AAXX 16064 07110 02465 /1716 10140 20130 39994 40111 56009 60006 85502 90600 333 10147 20140 60024=
07110,1997-11-16 09:00:00,15,1011.5,0.4,88,13,3000,25.928,,,180,,,,0,,,,,,61,wg-a,,,,AAXX 16094 07110 12430 81814 10150 20130 39998 40115 53004 60007 76162 885// 90900=
07110,1997-11-16 12:00:00,15,1010.2,-1.3,94,14,8000,29.632,,,180,,,,2,,,,,,21,wg-a,,,,AAXX 16124 07110 02458 81816 10150 20140 39985 40102 58013 60026 72165 885// 91200 333 60027=
07110,1997-11-16 15:00:00,15,1011.2,1,88,13,8000,22.224,,,210,,,,,,,,,,,wg-a,,,,AAXX 16154 07110 12458 72112 10150 20130 39995 40112 51010 60006 87502 91500=
07110,1997-11-16 18:00:00,14,1012.2,0.9,94,13,8000,14.816,,,190,13.5,15.6,,,,,,,,,wg-a,,,,AAXX 16184 07110 12358 81908 10140 20130 30004 40122 52009 60006 877// 91800 333 10156 20135=
07110,1997-11-16 21:00:00,14,1012.4,0.2,94,13,7000,14.816,,,190,,,,,,,,,,,wg-a,,,,AAXX 16214 07110 12257 71908 10140 20130 30006 40124 51002 60006 876// 92100=
07110,1997-11-17 00:00:00,14,1011.6,-0.8,94,13,6000,18.52,,,180,,,,,,,,,,,wg-a,,,,AAXX 17004 07110 12256 71810 10140 20130 39998 40116 57008 60006 876// 90000=
07110,1997-11-17 03:00:00,14,1010.2,-1.3,94,13,6000,25.928,,,170,,,,,,,,,,,wg-a,,,,AAXX 17034 07110 12256 71714 10140 20130 39985 40102 56013 60006 876// 90300=
07110,1997-11-17 06:00:00,15,1008.9,-1.3,88,13,8000,29.632,,,170,13.4,14.7,,,,,2,,,,wg-a,,,,AAXX 17064 07110 02458 81716 10150 20130 39972 40089 56013 60006 875// 90600 333 10147 20134 60024=
07110,1997-11-17 09:00:00,15,1007.9,-1,88,13,12000,38.892,,,170,,,,0,,,,,,1,wg-a,,,,AAXX 17094 07110 12462 81721 10150 20130 39962 40079 56010 60007 70162 8757/ 90900=
07110,1997-11-17 12:00:00,15,1005.5,-2.3,88,13,15000,31.484,,51.856,160,,,,,,,,,,1,wg-a,,,,AAXX 17124 07110 12465 81617 10150 20130 39939 40055 56023 60006 70162 875// 91200 333 91028=
07110,1997-11-17 15:00:00,14,1003.5,-2,94,13,12000,31.484,,,160,,,,2,,,,,,60,wg-a,,,,AAXX 17154 07110 12262 81617 10140 20130 39919 40035 58020 60027 76065 875// 91500=
07110,1997-11-17 18:00:00,15,1000.2,-3.3,88,13,6000,31.484,,,150,14.2,15.6,,,,,,,,60,wg-a,,,,AAXX 17184 07110 02356 81517 10150 20130 39886 40002 56033 61000 76065 875// 91800 333 10156 20142 6000=
07110,1997-11-17 21:00:00,13,998.9,-1.3,100,13,6000,31.484,,,150,,,,3,,,,,,61,wg-a,,,,AAXX 17214 07110 12456 81517 10130 20130 39873 49989 56013 60037 76166 875// 92100=
07110,1997-11-18 00:00:00,14,997.1,-1.8,94,13,7000,35.188,,,150,,,,3,,,,,,60,wg-a,,,,AAXX 18004 07110 02457 81519 10140 20130 39855 49971 58018 60066 76066 875// 90000 333 60037=
07110,1997-11-18 06:00:00,14,996.8,1.1,94,13,6000,29.632,,,200,13.4,14.7,,,,,,,,60,wg-a,,,,AAXX 18064 07110 02256 82016 10140 20130 39852 49968 53011 61000 76062 877// 90600 333 10147 20134 6010=
07110,1997-11-18 09:00:00,14,999.5,2.7,94,13,8000,18.52,,,210,,,,1,,,,,,60,wg-a,,,,AAXX 18094 07110 12358 82110 10140 20130 39879 49995 53027 60017 76062 8777/ 90900=
07110,1997-11-18 12:00:00,14,1001.2,1.7,88,12,10000,18.52,,,240,,,,,,,,,,2,wg-a,,,,AAXX 18124 07110 02460 72410 10140 20120 39896 40012 51017 60016 70262 878// 91200 333 61000=
07110,1997-11-18 15:00:00,14,1002.1,0.8,82,11,11000,18.52,,37.04,220,,,,,,,,,,,wg-a,,,,AAXX 18154 07110 12/61 /2210 10140 20110 39904 40021 51008 60006 91500 333 91020=
07110,1997-11-18 18:00:00,13,1002.1,0,88,11,15000,14.816,,,200,12.4,14.5,,,,,,,,,wg-a,,,,AAXX 18184 07110 12465 /2008 10130 20110 39904 40021 50000 60006 86800 91800 333 10145 20124=
07110,1997-11-19 00:00:00,12,997.6,-3,94,11,6000,25.928,,,180,,,,0,,,,,,60,wg-a,,,,AAXX 19004 07110 02456 71814 10120 20110 39859 49976 58030 60016 76086 875// 90000 333 60007=
07110,1997-11-19 06:00:00,13,993.6,-0.4,94,12,10000,18.52,,,190,12.2,13,,,,,,,,25,wg-a,,,,AAXX 19064 07110 02360 /1910 10130 20120 39820 49936 56004 61000 72586 86200 90600 333 10130 20122 6007=
07110,1997-11-19 09:00:00,14,993.7,0.1,88,12,7000,25.928,,44.448,190,,,,,,,,,,,wg-a,,,,AAXX 19094 07110 12457 71914 10140 20120 39821 49937 51001 60006 879// 90900 333 91024=
07110,1997-11-19 12:00:00,14,993.3,-0.4,82,11,10000,25.928,,,210,,,,,,,,,,,wg-a,,,,AAXX 19124 07110 12460 32114 10140 20110 39817 49933 58004 60006 83900 91200=
07110,1997-11-19 15:00:00,12,992.1,-1.2,82,9,12000,29.632,,50.004,210,,,,2,,,,,,1,wg-a,,,,AAXX 19154 07110 12462 52116 10120 20090 39805 49921 56012 60027 70186 85900 91500 333 91027=
07110,1997-11-19 18:00:00,12,992,-0.1,88,10,10000,29.632,,46.3,210,10.3,14.3,,,,,,,,25,wg-a,,,,AAXX 19184 07110 02460 52116 10120 20100 39804 49920 55001 61000 72586 85900 91800 333 10143 20103 6002 91025=
07110,1997-11-19 21:00:00,12,990.8,-1.2,82,9,10000,29.632,,,190,,,,,,,,,,80,wg-a,,,,AAXX 19214 07110 02460 71916 10120 20090 39792 49908 58012 61000 78086 879// 92100 333 ////=
07110,1997-11-20 03:00:00,9,989,0.6,93,8,10000,11.112,,37.04,230,,,,7,,,,,,21,wg-a,,,,AAXX 20034 07110 12460 72306 10090 20080 39773 49890 53006 60077 72162 879// 90300 333 91020=
07110,1997-11-20 09:00:00,10,992.5,2.4,87,8,20000,14.816,,,240,,,,0,,,,,,1,wg-a,,,,AAXX 20094 07110 12470 52408 10100 20080 39808 49925 52024 60007 70186 85900 90900=
07110,1997-11-20 12:00:00,12,994.5,2,76,8,20000,22.224,,,260,,,,,,,,,,2,wg-a,,,,AAXX 20124 07110 12470 52612 10120 20080 39828 49945 51020 60016 70286 85900 91200=
07110,1997-11-20 15:00:00,11,996.9,2.4,82,8,18000,14.816,,,250,,,,1,,,,,,25,wg-a,,,,AAXX 20154 07110 12468 62508 10110 20080 39852 49969 51024 60017 72586 85902 91500=
07110,1997-11-20 18:00:00,10,999.1,2.1,87,8,12000,11.112,,,230,8.9,12.4,,,,,,,,1,wg-a,,,,AAXX 20184 07110 12462 32306 10100 20080 39873 49991 51021 60006 70186 83900 91800 333 10124 20089=
07110,1997-11-20 21:00:00,9,1000.7,1.5,87,7,15000,11.112,,,220,,,,1,,,,,,25,wg-a,,,,AAXX 20214 07110 12465 32206 10090 20070 39888 40007 51015 60017 72586 83900 92100=
07110,1997-11-21 00:00:00,9,1000.8,0.2,87,7,15000,7.408,,,230,,,,,,,,,,3,wg-a,,,,AAXX 21004 07110 12465 62304 10090 20070 39890 40008 50002 60016 70386 86900 90000=
07110,1997-11-21 03:00:00,8,1001.4,0.5,87,6,8000,14.816,,,200,,,,6,,,,,,80,wg-a,,,,AAXX 21034 07110 12458 42008 10080 20060 39895 40014 50005 60067 78098 84900 90300=
07110,1997-11-21 06:00:00,8,1001.4,-0,81,5,15000,18.52,,,260,7,10.1,,,,,9,,,3,wg-a,,,,AAXX 21064 07110 02465 52610 10080 20050 39895 40014 55000 60006 70398 85900 90600 333 10101 20070 60094=
07110,1997-11-21 09:00:00,9,1003.2,1.8,76,5,15000,11.112,,,220,,,,,,,,,,,wg-a,,,,AAXX 21094 07110 12465 32206 10090 20050 39913 40032 53018 60006 83900 90900=
07110,1997-11-21 12:00:00,10,1004,0.9,76,6,20000,11.112,,,200,,,,0,,,,,,1,wg-a,,,,AAXX 21124 07110 02470 52006 10100 20060 39922 40040 50009 60016 70186 85900 91200 333 60007=
07110,1997-11-21 15:00:00,11,1004.3,0.3,66,5,20000,18.52,,,210,,,,,,,,,,25,wg-a,,,,AAXX 21154 07110 02470 52110 10110 20050 39925 40043 53003 61000 72586 85900 91500 333 ////=
07110,1997-11-21 18:00:00,9,1005.6,1.2,81,6,20000,14.816,,,190,7.4,11.7,,,,,,,,2,wg-a,,,,AAXX 21184 07110 12470 31908 10090 20060 39937 40056 53012 60006 70286 83900 91800 333 10117 20074=
07110,1997-11-21 21:00:00,8,1006.3,0.6,87,6,20000,14.816,,,160,,,,,,,,,,,wg-a,,,,AAXX 21214 07110 12470 31608 10080 20060 39943 40063 51006 60006 83900 92100=
07110,1997-11-22 00:00:00,7,1006.8,0.5,93,6,15000,11.112,,,140,,,,0,,,,,,1,wg-a,,,,AAXX 22004 07110 02465 21406 10070 20060 39948 40068 51005 60006 70186 82900 90000 333 60007=
07110,1997-11-22 03:00:00,8,1007.6,0.8,87,6,15000,18.52,,35.188,190,,,,2,,,,,,25,wg-a,,,,AAXX 22034 07110 12465 61910 10080 20060 39956 40076 53008 60027 72586 86900 90300 333 91019=
07110,1997-11-22 06:00:00,7,1008.4,0.8,93,6,10000,7.408,,,130,6.2,8.6,,,,,,,,80,wg-a,,,,AAXX 22064 07110 02460 71304 10070 20060 39964 40084 53008 61000 78086 879// 90600 333 10086 20062 6004=
07110,1997-11-22 12:00:00,10,1011.8,1.3,87,8,15000,7.408,,,190,,,,0,,,,,,1,wg-a,,,,AAXX 22124 07110 02465 51904 10100 20080 39999 40118 51013 60026 70186 85900 91200 333 60007=
07110,1997-11-22 15:00:00,12,1012,0.2,62,5,20000,7.408,,,220,,,,,,,,,,,wg-a,,,,AAXX 22154 07110 12470 22204 10120 20050 30001 40120 51002 60006 82800 91500=
07110,1997-11-22 18:00:00,8,1014.3,2.1,87,6,20000,7.408,,,200,6.6,11.8,,,,,,,,,wg-a,,,,AAXX 22184 07110 12470 22004 10080 20060 30022 40143 51021 60006 82800 91800 333 10118 20066=
07110,1997-11-22 21:00:00,6,1015,0.6,93,5,20000,11.112,,,140,,,,,,,,,,,wg-a,,,,AAXX 22214 07110 12570 21406 10060 20050 30028 40150 53006 60006 82800 92100=
07110,1997-11-23 00:00:00,6,1015.3,0.3,93,5,15000,11.112,,,140,,,,0,,,,,,25,wg-a,,,,AAXX 23004 07110 02565 41406 10060 20050 30031 40153 50003 60006 72586 83230 90000 333 60007=
07110,1997-11-23 03:00:00,5,1015,-0.3,93,4,15000,11.112,,,150,,,,,,,,,,,wg-a,,,,AAXX 23034 07110 12/65 01506 10050 20040 30028 40150 57003 60006 80000 90300=
07110,1997-11-23 06:00:00,6,1014.1,-0.9,93,5,15000,14.816,,,140,4.6,7.5,,,,,2,,,,wg-a,,,,AAXX 23064 07110 02/65 41408 10060 20050 30019 40141 56009 60006 80004 90600 333 10075 20046 60024=
07110,1997-11-23 12:00:00,11,1011.2,-1.8,87,9,8000,29.632,,,160,,,,0,,,,,,58,wg-a,,,,AAXX 23124 07110 02658 81616 10110 20090 39993 40112 58018 60016 75865 875// 91200 333 60007=
07110,1997-11-23 15:00:00,10,1009.9,-1.3,93,9,6000,35.188,,,160,,,,1,,,,,,51,wg-a,,,,AAXX 23154 07110 12356 81619 10100 20090 39980 40099 56013 60017 75166 875// 91500=
07110,1997-11-23 18:00:00,12,1009.1,-0.7,88,10,10000,31.484,,,160,5.7,11.6,,,,,,,,3,wg-a,,,,AAXX 23184 07110 12460 81617 10120 20100 39973 40091 55007 60006 70365 875// 91800 333 10116 20057=
07110,1997-11-23 21:00:00,12,1008.8,-0.3,88,10,10000,25.928,,,170,,,,0,,,,,,1,wg-a,,,,AAXX 23214 07110 12460 81714 10120 20100 39970 40088 58003 60007 70186 875// 92100=
07110,1997-11-24 00:00:00,13,1008.1,-0.7,88,11,11000,22.224,,,160,,,,,,,,,,,wg-a,,,,AAXX 24004 07110 12/61 /1612 10130 20110 39963 40081 57007 60006 90000=
07110,1997-11-24 06:00:00,11,1004.6,-2,94,10,500,25.928,,,130,11.2,12.9,,,,,,,,61,wg-a,,,,AAXX 24064 07110 02200 81314 10110 20100 39928 40046 56020 61000 76162 877// 90600 333 10129 20112 6005=
07110,1997-11-24 09:00:00,9,1003.8,-0.9,93,8,9000,22.224,,,130,,,,4,,,,,,60,wg-a,,,,AAXX 24094 07110 12259 81312 10090 20080 39919 40038 58009 60047 76066 875// 90900=
07110,1997-11-24 12:00:00,9,1001.9,-1.9,81,6,20000,25.928,,,150,,,,0,,,,,,1,wg-a,,,,AAXX 24124 07110 02770 71514 10090 20060 39900 40019 58019 60046 70162 81536 91200 333 60007=
07110,1997-11-24 15:00:00,10,999,-2.8,82,7,15000,18.52,,,140,,,,,,,,,,,wg-a,,,,AAXX 24154 07110 12465 71410 10100 20070 39872 49990 56028 60006 8553/ 91500=
07110,1997-11-24 18:00:00,9,998.9,-0.2,87,7,8000,22.224,,,130,8.4,11.1,,,,,,,,61,wg-a,,,,AAXX 24184 07110 02358 81312 10090 20070 39870 49989 55002 61000 76162 875// 91800 333 10111 20084 6003=
07110,1997-11-24 21:00:00,8,998.7,-0.2,93,7,8000,25.928,,,130,,,,2,,,,,,61,wg-a,,,,AAXX 24214 07110 12358 81314 10080 20070 39868 49987 56002 60027 76166 875// 92100=
07110,1997-11-25 00:00:00,8,998.2,-0.5,93,7,10000,22.224,,,140,,,,0,,,,,,21,wg-a,,,,AAXX 25004 07110 02260 /1412 10080 20070 39863 49982 58005 60026 72162 86800 90000 333 60007=
07110,1997-11-25 03:00:00,8,997.9,-0.3,100,8,10000,14.816,,,140,,,,,,,,,,,wg-a,,,,AAXX 25034 07110 12360 81408 10080 20080 39860 49979 55003 60006 875// 90300=
07110,1997-11-25 06:00:00,9,997.4,-0.4,93,8,0,11.112,,,140,7.6,9.2,,0,,,9,,,,wg-a,,,,AAXX 25064 07110 02/// /1406 10090 20080 39856 49974 56004 60094 90600 333 10092 20076 60007=
07110,1997-11-25 09:00:00,9,998.5,1.1,100,9,15000,11.112,,,130,,,,,,,,,,,wg-a,,,,AAXX 25094 07110 12265 51306 10090 20090 39867 49985 53011 60006 85800 90900=
07110,1997-11-25 12:00:00,14,998.3,0,88,12,20000,18.52,,,150,,,,,,,,,,,wg-a,,,,AAXX 25124 07110 12470 61510 10140 20120 39867 49983 50000 60006 86800 91200=
07110,1997-11-25 18:00:00,11,998.8,0.9,87,9,12000,11.112,,,130,8.3,14.1,,,,,,,,,wg-a,,,,AAXX 25184 07110 12562 71306 10110 20090 39871 49988 52009 60006 85578 91800 333 10141 20083=
07110,1997-11-25 21:00:00,11,999.5,0.6,94,10,20000,3.704,,,120,,,,,,,,,,,wg-a,,,,AAXX 25214 07110 12770 81202 10110 20100 39877 49995 53006 60006 83578 92100=
07110,1997-11-26 00:00:00,11,999.6,0.1,82,8,15000,7.408,,,70,,,,,,,,,,,wg-a,,,,AAXX 26004 07110 12665 80704 10110 20080 39878 49996 53001 60006 83578 90000=
07110,1997-11-26 03:00:00,10,1000.1,0.5,87,8,12000,3.704,,,70,,,,,,,,,,,wg-a,,,,AAXX 26034 07110 12662 80702 10100 20080 39883 40001 53005 60006 8557/ 90300=
07110,1997-11-26 06:00:00,9,1000.9,0.7,93,8,7000,7.408,,,10,8.9,11.3,,,,,,,,61,wg-a,,,,AAXX 26064 07110 02557 80104 10090 20080 39890 40009 51007 61000 76162 8557/ 90600 333 10113 20089 6001=
07110,1997-11-26 09:00:00,10,1002.1,1.3,93,9,1000,11.112,,,20,,,,1,,,,,,51,wg-a,,,,AAXX 26094 07110 12310 80206 10100 20090 39903 40021 53013 60017 75166 875// 90900=
07110,1997-11-26 12:00:00,11,1002.5,0.4,100,11,6000,7.408,,,40,,,,,,,,,,3,wg-a,,,,AAXX 26124 07110 02356 70404 10110 20110 39907 40025 52004 60016 70365 877// 91200 333 61000=
07110,1997-11-26 15:00:00,12,1002.3,-0.1,88,10,8000,7.408,,,30,,,,1,,,,,,1,wg-a,,,,AAXX 26154 07110 12358 70304 10120 20100 39906 40023 55001 60017 70162 8557/ 91500=
07110,1997-11-26 18:00:00,10,1004.1,1.7,93,9,6000,0,,,0,8.9,12.4,,,,,,,,1,wg-a,,,,AAXX 26184 07110 12356 70000 10100 20090 39923 40041 51017 60006 70162 8357/ 91800 333 10124 20089=
07110,1997-11-26 21:00:00,9,1005.2,1,100,9,2000,3.704,,,240,,,,,,,,,,10,wg-a,,,,AAXX 26214 07110 12320 52402 10090 20090 39933 40052 51010 60006 71042 84530 92100=
07110,1997-11-27 00:00:00,10,1006.3,1.1,93,9,2000,7.408,,,260,,,,,,,,,,10,wg-a,,,,AAXX 27004 07110 12320 52604 10100 20090 39944 40063 53011 60006 71042 84530 90000=
07110,1997-11-27 03:00:00,9,1007.4,1.1,100,9,10000,7.408,,,250,,,,1,,,,,,21,wg-a,,,,AAXX 27034 07110 12360 22504 10090 20090 39955 40074 53011 60017 72161 82800 90300=
07110,1997-11-27 06:00:00,9,1008.6,1.1,87,7,15000,7.408,,,230,8.3,10.4,,,,,3,,,3,wg-a,,,,AAXX 27064 07110 02465 72304 10090 20070 39966 40086 53011 60006 70361 8581/ 90600 333 10104 20083 60034=
07110,1997-11-27 09:00:00,9,1008.6,1.1,87,7,15000,7.408,,,230,,10.4,,,,,3,,,3,wg-a,,,,AAXX 27094 07110 12465 72304 10090 20070 39979 40086 53011 60034 70361 8581/ 90900 333 10104=
07110,1997-11-27 12:00:00,11,1009.6,0,87,9,15000,18.52,,,180,,,,,,,,,,,wg-a,,,,AAXX 27124 07110 12565 71810 10110 20090 39977 40096 50000 60006 8585/ 91200=
07110,1997-11-27 15:00:00,12,1008,-1.5,94,11,3000,25.928,,,160,,,,1,,,,,,60,wg-a,,,,AAXX 27154 07110 12330 81614 10120 20110 39962 40080 56015 60017 76065 8672/ 91500=
07110,1997-11-27 18:00:00,12,1006.8,-1.2,94,11,2500,25.928,,,160,8.7,11.8,,,,,,,,61,wg-a,,,,AAXX 27184 07110 02225 81614 10120 20110 39950 40068 57012 61000 76165 887// 91800 333 10118 20087 6009=
07110,1997-11-27 21:00:00,12,1004.7,-2,100,12,2500,31.484,,,180,,,,15,,,,,,63,wg-a,,,,AAXX 27214 07110 12225 81817 10120 20120 39930 40047 58020 60157 76366 887// 92100=
07110,1997-11-28 00:00:00,12,1002.5,-2.2,100,12,2500,31.484,,57.412,190,,,,8,,,,,,60,wg-a,,,,AAXX 28004 07110 02225 81917 10120 20120 39908 40025 58022 60236 76066 887// 90000 333 60087 91031=
07110,1997-11-28 03:00:00,12,1003.2,0.7,94,11,15000,18.52,,,240,,,,1,,,,,,1,wg-a,,,,AAXX 28034 07110 12365 72410 10120 20110 39915 40032 53007 60017 70162 875// 90300=
07110,1997-11-28 06:00:00,11,1004,0.7,94,10,11000,14.816,,,230,11,12.8,,,,,33,,,,wg-a,,,,AAXX 28064 07110 02/61 /2308 10110 20100 39922 40040 51007 60006 90600 333 10128 20110 60334=
07110,1997-11-28 09:00:00,12,1004.4,0.4,94,11,10000,18.52,,,220,,,,,,,,,,,wg-a,,,,AAXX 28094 07110 12460 62210 10120 20110 39926 40044 53004 60006 86800 90900=
07110,1997-11-28 12:00:00,13,1003.3,-1,88,11,10000,25.928,,,220,,,,1,,,,,,25,wg-a,,,,AAXX 28124 07110 02360 72214 10130 20110 39916 40033 58010 60016 72586 878// 91200 333 60017=
07110,1997-11-28 15:00:00,12,1002.3,-1.1,88,10,15000,14.816,,,210,,,,4,,,,,,25,wg-a,,,,AAXX 28154 07110 12465 72108 10120 20100 39905 40023 58011 60047 72586 879// 91500=
07110,1997-11-28 18:00:00,11,1003.2,0.9,94,10,15000,7.408,,,270,10.2,13.2,,,,,,,,80,wg-a,,,,AAXX 28184 07110 02465 72704 10110 20100 39914 40032 53009 61000 78086 879// 91800 333 10132 20102 6002=
07110,1997-11-28 21:00:00,10,1005.1,1.9,93,9,15000,14.816,,,260,,,,1,,,,,,25,wg-a,,,,AAXX 28214 07110 12465 72608 10100 20090 39933 40051 51019 60017 72586 878// 92100=
07110,1997-11-29 00:00:00,10,1006.3,1.1,93,9,15000,14.816,,,250,,,,1,,,,,,3,wg-a,,,,AAXX 29004 07110 02365 42508 10100 20090 39944 40063 51011 60026 70386 84800 90000 333 60017=
07110,1997-11-29 03:00:00,10,1006.5,0.2,87,8,15000,11.112,,,250,,,,0,,,,,,,wg-a,,,,AAXX 29034 07110 12465 42506 10100 20080 39946 40065 53002 60007 84800 90300=
07110,1997-11-29 06:00:00,9,1006.2,-0.3,87,7,15000,11.112,,,250,8.9,10.8,,,,,9,,,1,wg-a,,,,AAXX 29064 07110 02465 62506 10090 20070 39943 40062 56003 60006 70186 86300 90600 333 10108 20089 60094=
07110,1997-11-29 09:00:00,10,1006.5,0.3,87,8,15000,14.816,,,250,,,,0,,,,,,,wg-a,,,,AAXX 29094 07110 12465 /2508 10100 20080 39946 40065 53003 60007 86300 90900=
07110,1997-11-29 15:00:00,10,1008.6,1.3,87,8,10000,11.112,,,330,,,,4,,,,,,25,wg-a,,,,AAXX 29154 07110 12460 73306 10100 20080 39967 40086 53013 60047 72586 879// 91500=
07110,1997-11-29 18:00:00,10,1010.4,1.8,87,8,20000,14.816,,,290,8.3,10.4,,1,,,,,,1,wg-a,,,,AAXX 29184 07110 02570 52908 10100 20080 39985 40104 53018 60006 70186 85800 91800 333 10104 20083 60017=
07110,1997-11-29 21:00:00,10,1011.7,1.3,87,8,20000,18.52,,,290,,,,0,,,,,,25,wg-a,,,,AAXX 29214 07110 12570 42910 10100 20080 39998 40117 52013 60007 72586 84800 92100=
07110,1997-11-30 00:00:00,10,1012.9,1.1,87,8,15000,14.816,,,300,,,,0,,,,,,1,wg-a,,,,AAXX 30004 07110 02465 33008 10100 20080 30009 40129 52011 60016 70186 83800 90000 333 60007=
07110,1997-11-30 03:00:00,9,1013.9,1,93,8,15000,18.52,,,300,,,,1,,,,,,,wg-a,,,,AAXX 30034 07110 12465 43010 10090 20080 30019 40139 53010 60017 84800 90300=
07110,1997-11-30 06:00:00,10,1014.5,0.6,87,8,15000,14.816,,,300,9.1,10.5,,,,,9,,,,wg-a,,,,AAXX 30064 07110 02465 53008 10100 20080 30025 40145 53006 60006 85800 90600 333 10105 20091 60094=
07110,1997-11-30 09:00:00,11,1016.2,1.7,87,9,15000,18.52,,,300,,,,1,,,,,,3,wg-a,,,,AAXX 30094 07110 12465 /3010 10110 20090 30042 40162 51017 60017 70386 86800 90900=
07110,1997-11-30 12:00:00,12,1017.3,1.2,82,9,15000,29.632,,,310,,,,0,,,,,,2,wg-a,,,,AAXX 30124 07110 02465 63116 10120 20090 30054 40173 51012 60016 70286 86300 91200 333 60007=
07110,1997-11-30 15:00:00,11,1017.9,0.5,87,9,12000,18.52,,,320,,,,0,,,,,,1,wg-a,,,,AAXX 30154 07110 12562 /3210 10110 20090 30059 40179 50005 60007 70186 86800 91500=
07110,1997-11-30 18:00:00,10,1019.3,1.4,87,8,12000,14.816,,,310,9.7,12.3,,,,,,,,25,wg-a,,,,AAXX 30184 07110 02462 /3108 10100 20080 30073 40193 51014 61000 72586 86800 91800 333 10123 20097 6000=
07110,1997-11-30 21:00:00,8,1019.7,0.3,93,7,12000,3.704,,,250,,,,0,,,,,,1,wg-a,,,,AAXX 30214 07110 12462 52502 10080 20070 30076 40197 51003 60007 70186 85800 92100=
07110,1997-12-01 00:00:00,8,1019.6,-0.1,100,8,12000,3.704,,,230,,,,,,,,,,1,wg-a,,,,AAXX 01004 07110 12462 /2302 10080 20080 30075 40196 58001 60006 70186 86500 90000=
07110,1997-12-01 03:00:00,9,1018.4,-1.2,93,8,12000,3.704,,,240,,,,,,,,,,,wg-a,,,,AAXX 01034 07110 12462 72402 10090 20080 30063 40184 56012 60006 8357/ 90300=
07110,1997-12-01 06:00:00,9,1015.6,-2.7,93,8,12000,11.112,,,170,7.8,10,,,,,,,,60,wg-a,,,,AAXX 01064 07110 02562 71706 10090 20080 30036 40156 56027 61000 76062 8357/ 90600 333 10100 20078 6003=
07110,1997-12-01 09:00:00,8,1013,-2.6,100,8,15000,14.816,,,150,,,,1,,,,,,1,wg-a,,,,AAXX 01094 07110 12465 71508 10080 20080 30010 40130 56026 60017 70162 8587/ 90900=
07110,1997-12-01 12:00:00,10,1010.2,-2.7,93,9,2500,25.928,,,170,,,,1,,,,,,61,wg-a,,,,AAXX 01124 07110 02225 81714 10100 20090 39983 40102 58027 60026 76162 878// 91200 333 60017=
07110,1997-12-01 15:00:00,11,1006.6,-3.5,100,11,6000,18.52,,,260,,,,4,,,,,,51,wg-a,,,,AAXX 01154 07110 12356 82610 10110 20110 39948 40066 56035 60047 75166 878// 91500=
07110,1997-12-01 18:00:00,11,1004.5,-2.1,100,11,4000,14.816,,,290,8.2,11.6,,,,,,,,51,wg-a,,,,AAXX 01184 07110 02340 82908 10110 20110 39927 40045 56021 61000 75166 875// 91800 333 10116 20082 6001=
07110,1997-12-01 21:00:00,10,1006.2,1.6,93,9,4000,22.224,,,340,,,,1,,,,,,53,wg-a,,,,AAXX 01214 07110 12340 83412 10100 20090 39943 40062 51016 60017 75365 877// 92100=
07110,1997-12-02 00:00:00,9,1006.7,0.5,87,7,15000,14.816,,,330,,,,0,,,,,,1,wg-a,,,,AAXX 02004 07110 02465 43308 10090 20070 39948 40067 53005 60016 70165 84800 90000 333 60007=
07110,1997-12-02 03:00:00,7,1007.7,0.9,93,6,6000,18.52,,40.744,340,,,,1,,,,,,61,wg-a,,,,AAXX 02034 07110 12456 73410 10070 20060 39957 40077 53009 60017 76161 878// 90300 333 91022=
07110,1997-12-02 06:00:00,6,1009.8,2,70,1,15000,25.928,,44.448,350,5.9,11.4,,,,,11,,,1,wg-a,,,,AAXX 02064 07110 02565 33514 10060 20010 39977 40098 53020 60006 70161 83800 90600 333 10114 20059 60114 91024=
07110,1997-12-02 09:00:00,6,1012.5,2.7,61,-1,18000,25.928,,,350,,,,,,,,,,,wg-a,,,,AAXX 02094 07110 12568 53514 10060 21010 30004 40125 51027 60006 84802 90900=
07110,1997-12-02 12:00:00,8,1014.2,1.7,66,2,20000,29.632,,,350,,,,,,,,,,2,wg-a,,,,AAXX 02124 07110 02570 53516 10080 20020 30021 40142 51017 61000 70286 85800 91200 333 6100=
07110,1997-12-02 15:00:00,8,1014.5,0.3,71,3,18000,18.52,,,320,,,,,,,,,,,wg-a,,,,AAXX 02154 07110 12568 53210 10080 20030 30024 40145 51003 60006 85800 91500=
07110,1997-12-02 18:00:00,7,1014.1,-0.4,81,4,15000,22.224,,44.448,320,5.2,8.4,,,,,,,,3,wg-a,,,,AAXX 02184 07110 02565 53212 10070 20040 30020 40141 55004 60006 70386 85800 91800 333 10084 20052 61000 91024=
07110,1997-12-02 21:00:00,6,1015.3,1.1,70,1,15000,22.224,,,360,,,,2,,,,,,1,wg-a,,,,AAXX 02214 07110 12465 43612 10060 20010 30031 40153 53011 60027 70186 84800 92100=
07110,1997-12-03 00:00:00,4,1016.8,1.4,75,0,15000,11.112,,,360,,,,,,,,,,3,wg-a,,,,AAXX 03004 07110 12665 /3606 10040 20000 30045 40168 51014 60026 70386 85500 90000=
07110,1997-12-03 03:00:00,3,1017.6,0.8,81,0,15000,3.704,,,290,,,,,,,,,,,wg-a,,,,AAXX 03034 07110 12565 72902 10030 20000 30053 40176 53008 60006 875// 90300=
07110,1997-12-03 06:00:00,3,1018.1,0.5,81,0,15000,3.704,,,350,2.7,7.2,,,,,2,,,,wg-a,,,,AAXX 03064 07110 02665 33502 10030 20000 30058 40181 53005 60006 83500 90600 333 10072 20027 60024=
07110,1997-12-03 12:00:00,8,1019.5,0.7,53,-1,20000,14.816,,,40,,,,,,,,,,,wg-a,,,,AAXX 03124 07110 12670 20408 10080 21010 30074 40195 50007 60006 82200 91200=
07110,1997-12-03 15:00:00,8,1019.2,-0.4,57,0,500,11.112,,,20,,,,,,,,,,,wg-a,,,,AAXX 03154 07110 12600 20206 10080 20000 30070 40192 56004 60006 82200 91500=
07110,1997-12-03 18:00:00,4,1020,0.7,75,0,25000,3.704,,,10,1,8.7,,,,,,,,,wg-a,,,,AAXX 03184 07110 12675 20102 10040 20000 30077 40200 53007 60006 82200 91800 333 10087 20010=
07110,1997-12-03 21:00:00,4,1020.5,0.5,87,2,20000,11.112,,,40,,,,,,,,,,,wg-a,,,,AAXX 03214 07110 12570 40406 10040 20020 30082 40205 52005 60006 84200 92100=
07110,1997-12-04 00:00:00,3,1020.7,0.1,87,1,15000,7.408,,,310,,,,1,,,,,,27,wg-a,,,,AAXX 04004 07110 02665 43104 10030 20010 30083 40207 52001 60016 72787 84200 90000 333 60017=
07110,1997-12-04 03:00:00,2,1020.5,-0.2,93,1,20000,3.704,,,20,,,,1,,,,,,2,wg-a,,,,AAXX 04034 07110 12670 20202 10020 20010 30081 40205 55002 60017 70286 82200 90300=
07110,1997-12-04 06:00:00,2,1021,0.5,93,1,15000,7.408,,,40,1.2,4.4,,,,,,,,80,wg-a,,,,AAXX 04064 07110 02465 /0404 10020 20010 30086 40210 53005 61000 78086 86200 90600 333 10044 20012 6002=
07110,1997-12-04 09:00:00,3,1022,1,93,2,15000,3.704,,,50,,,,,,,,,,3,wg-a,,,,AAXX 04094 07110 02465 /0502 10030 20020 30096 40220 53010 61000 70386 86800 90900 333 ////=
07110,1997-12-04 12:00:00,7,1022,0.2,81,4,15000,3.704,,,30,,,,,,,,,,1,wg-a,,,,AAXX 04124 07110 02565 30302 10070 20040 30098 40220 50002 61000 70186 83800 91200 333 ////=
07110,1997-12-04 15:00:00,7,1021.6,-0.4,70,2,15000,11.112,,,10,,,,,,,,,,,wg-a,,,,AAXX 04154 07110 12565 40106 10070 20020 30094 40216 55004 60006 84800 91500=
07110,1997-12-04 18:00:00,5,1022.4,0.7,93,4,15000,3.704,,,20,1.4,8,,1,,,,,,1,wg-a,,,,AAXX 04184 07110 02365 50202 10050 20040 30101 40224 53007 60006 70186 85800 91800 333 10080 20014 60017=
07110,1997-12-04 21:00:00,4,1023,0.5,87,2,15000,3.704,,,20,,,,,,,,,,,wg-a,,,,AAXX 04214 07110 12665 20202 10040 20020 30106 40230 50005 60006 82800 92100=
07110,1997-12-05 00:00:00,4,1023.5,0.6,93,3,12000,3.704,,,100,,,,1,,,,,,,wg-a,,,,AAXX 05004 07110 02562 51002 10040 20030 30112 40235 50006 60016 85800 90000 333 60017=
07110,1997-12-05 03:00:00,4,1024.6,1,93,3,15000,7.408,,,350,,,,,,,,,,2,wg-a,,,,AAXX 05034 07110 02565 63504 10040 20030 30122 40246 53010 61000 70286 8/800 90300 333 ////=
07110,1997-12-05 06:00:00,3,1024.4,-0.2,93,2,10000,0,,,0,2.4,4.8,,,,,1,,,11,wg-a,,,,AAXX 05064 07110 02560 /0000 10030 20020 30120 40244 55002 60006 71186 85800 90600 333 10048 20024 60014=
07110,1997-12-05 09:00:00,3,1025.7,1.3,93,2,15000,7.408,,,150,,,,,,,,,,,wg-a,,,,AAXX 05094 07110 12565 61504 10030 20020 30133 40257 53013 60006 86800 90900=
07110,1997-12-05 12:00:00,8,1025.6,0.1,71,3,15000,7.408,,,190,,,,,,,,,,,wg-a,,,,AAXX 05124 07110 12565 41904 10080 20030 30134 40256 50001 60006 84800 91200=
07110,1997-12-05 15:00:00,8,1025.1,-0.5,66,2,20000,7.408,,,180,,,,,,,,,,,wg-a,,,,AAXX 05154 07110 12570 31804 10080 20020 30129 40251 55005 60006 83800 91500=
07110,1997-12-05 18:00:00,4,1025.8,0.5,87,2,12000,11.112,,,170,2.1,8.6,,,,,,,,,wg-a,,,,AAXX 05184 07110 12/62 01706 10040 20020 30134 40258 52005 60006 80000 91800 333 10086 20021=
07110,1997-12-05 21:00:00,3,1026.2,0.4,93,2,15000,11.112,,,170,,,,,,,,,,,wg-a,,,,AAXX 05214 07110 12665 /1706 10030 20020 30138 40262 51004 60006 81500 92100=
07110,1997-12-06 00:00:00,3,1025.8,-0.4,93,2,15000,11.112,,,160,,,,,,,,,,,wg-a,,,,AAXX 06004 07110 12/65 01606 10030 20020 30134 40258 58004 60006 80000 90000=
07110,1997-12-06 03:00:00,3,1025,-0.8,93,2,15000,11.112,,,180,,,,,,,,,,,wg-a,,,,AAXX 06034 07110 12/65 01806 10030 20020 30126 40250 56008 60006 80000 90300=
07110,1997-12-06 06:00:00,5,1023.8,-1.1,87,3,15000,11.112,,,170,2.8,4.8,,,,,,,,,wg-a,,,,AAXX 06064 07110 02765 61706 10050 20030 30115 40238 58011 60006 86500 90600 333 10048 20028 60004=
07110,1997-12-06 09:00:00,6,1024,0.2,87,4,10000,14.816,,,180,,,,,,,,,,,wg-a,,,,AAXX 06094 07110 12860 21808 10060 20040 30117 40240 53002 60006 82500 90900=
07110,1997-12-06 12:00:00,10,1022.8,-1,71,5,8000,14.816,,,170,,,,,,,,,,,wg-a,,,,AAXX 06124 07110 12758 21708 10100 20050 30107 40228 58010 60006 82500 91200=
07110,1997-12-06 15:00:00,9,1020.8,-2,76,5,10000,18.52,,,190,,,,0,,,,,,,wg-a,,,,AAXX 06154 07110 12660 71910 10090 20050 30087 40208 56020 60007 875// 91500=
07110,1997-12-06 18:00:00,9,1020.2,-0.6,71,4,10000,14.816,,,180,4.2,9.6,,,,,,,,,wg-a,,,,AAXX 06184 07110 12660 81808 10090 20040 30081 40202 58006 60006 885// 91800 333 10096 20042=
07110,1997-12-06 21:00:00,10,1019.2,-1,71,5,10000,22.224,,,190,,,,,,,,,,,wg-a,,,,AAXX 06214 07110 12560 81912 10100 20050 30071 40192 58010 60006 885// 92100=
07110,1997-12-07 00:00:00,10,1017.3,-1.8,82,7,10000,29.632,,,180,,,,,,,,,,,wg-a,,,,AAXX 07004 07110 12560 81816 10100 20070 30053 40173 58018 60006 885// 90000=
07110,1997-12-07 06:00:00,10,1012.5,-2.1,87,8,10000,31.484,,,180,8.4,10.3,,,,,,,,,wg-a,,,,AAXX 07064 07110 02460 81817 10100 20080 30005 40125 56021 60006 885// 90600 333 10103 20084 60004=
07110,1997-12-07 09:00:00,11,1011.2,-1.2,82,8,10000,29.632,,,170,,,,,,,,,,,wg-a,,,,AAXX 07094 07110 12360 71716 10110 20080 39993 40112 58012 60006 875// 90900=
07110,1997-12-07 12:00:00,11,1008.5,-2.7,94,10,4000,31.484,,,170,,,,1,,,,,,21,wg-a,,,,AAXX 07124 07110 02340 81717 10110 20100 39966 40085 58027 60016 72162 877// 91200 333 60017=
07110,1997-12-07 15:00:00,12,1004.8,-3.6,94,11,3000,38.892,,,180,,,,2,,,,,,61,wg-a,,,,AAXX 07154 07110 12330 81821 10120 20110 39930 40048 56036 60027 76165 875// 91500=
07110,1997-12-07 18:00:00,12,1004.8,-0,94,11,12000,25.928,,,230,9.8,12.9,,1,,,,,,1,wg-a,,,,AAXX 07184 07110 02462 /2314 10120 20110 39930 40048 55000 60006 70165 85500 91800 333 10129 20098 60017=
07110,1997-12-07 21:00:00,12,1005.1,0.3,88,10,15000,22.224,,,210,,,,,,,,,,,wg-a,,,,AAXX 07214 07110 12465 /2112 10120 20100 39933 40051 52003 60006 85500 92100=
07110,1997-12-08 00:00:00,12,1004.3,-0.8,88,10,12000,22.224,,,210,,,,,,,,,,,wg-a,,,,AAXX 08004 07110 12462 62112 10120 20100 39925 40043 58008 60006 86800 90000=
07110,1997-12-08 03:00:00,12,1003,-1.2,94,11,12000,25.928,,48.152,210,,,,,,,,,,,wg-a,,,,AAXX 08034 07110 12462 72114 10120 20110 39913 40030 58012 60006 878// 90300 333 91026=
07110,1997-12-08 06:00:00,12,1002.7,-0.3,88,10,15000,29.632,,44.448,230,11.5,12.5,,,,,7,,,,wg-a,,,,AAXX 08064 07110 02465 /2316 10120 20100 39910 40027 57003 60006 85200 90600 333 10125 20115 60074 91024=
07110,1997-12-08 09:00:00,12,1002.9,0.2,94,11,10000,25.928,,,230,,,,2,,,,,,25,wg-a,,,,AAXX 08094 07110 12260 82314 10120 20110 39912 40029 51002 60027 72586 88800 90900=
07110,1997-12-08 12:00:00,12,1003.6,0.6,88,10,15000,14.816,,,240,,,,4,,,,,,1,wg-a,,,,AAXX 08124 07110 02465 62408 10120 20100 39918 40036 51006 60066 70186 86800 91200 333 60047=
07110,1997-12-08 15:00:00,10,1004.2,0.6,87,8,15000,14.816,,,260,,,,3,,,,,,1,wg-a,,,,AAXX 08154 07110 12265 52608 10100 20080 39924 40042 53006 60037 70186 85900 91500=
07110,1997-12-08 18:00:00,8,1006.6,2.2,93,7,15000,11.112,,,260,8.3,12.6,,,,,,,,25,wg-a,,,,AAXX 08184 07110 02265 52606 10080 20070 39946 40066 53022 61000 72586 85900 91800 333 10126 20083 6000=
07110,1997-12-08 21:00:00,9,1008.7,2.1,87,7,15000,11.112,,,260,,,,0,,,,,,,wg-a,,,,AAXX 08214 07110 12565 32606 10090 20070 39967 40087 51021 60007 83200 92100=
07110,1997-12-09 00:00:00,9,1009.9,1.2,87,7,10000,11.112,,,240,,,,,,,,,,,wg-a,,,,AAXX 09004 07110 12560 /2406 10090 20070 39979 40099 53012 60006 86800 90000=
07110,1997-12-09 03:00:00,10,1010.5,0.7,87,8,10000,7.408,,,220,,,,1,,,,,,,wg-a,,,,AAXX 09034 07110 12560 /2204 10100 20080 39986 40105 51007 60017 86500 90300=
07110,1997-12-09 06:00:00,11,1010.2,-0.3,94,10,12000,18.52,,,230,7.7,11.3,,,,,11,,,,wg-a,,,,AAXX 09064 07110 02562 72310 10110 20100 39983 40102 55003 60006 875// 90600 333 10113 20077 60114=
07110,1997-12-09 09:00:00,12,1011.1,1,94,11,10000,22.224,,,230,,,,,,,,,,,wg-a,,,,AAXX 09094 07110 12460 72312 10120 20110 39993 40111 53010 60006 878// 90900=
07110,1997-12-09 12:00:00,13,1011.7,0.6,88,11,7000,22.224,,40.744,230,,,,,,,,,,,wg-a,,,,AAXX 09124 07110 12457 82312 10130 20110 39999 40117 50006 60006 888// 91200 333 91022=
07110,1997-12-09 15:00:00,12,1011.6,-0.1,94,11,500,25.928,,,230,,,,0,,,,,,61,wg-a,,,,AAXX 09154 07110 12300 82314 10120 20110 39998 40116 56001 60007 76162 888// 91500=
07110,1997-12-09 18:00:00,11,1011.3,-0.4,94,10,10000,18.52,,38.892,200,11.2,13,,,,,,,,21,wg-a,,,,AAXX 09184 07110 02460 72010 10110 20100 39994 40113 58004 61000 72162 877// 91800 333 10130 20112 6001 91021=
07110,1997-12-09 21:00:00,12,1010,-1.2,94,11,10000,29.632,,51.856,200,,,,,,,,,,,wg-a,,,,AAXX 09214 07110 12260 82016 10120 20110 39982 40100 58012 60006 877// 92100 333 91028=
07110,1997-12-10 00:00:00,12,1008.1,-1.9,94,11,7000,31.484,,,200,,,,,,,,,,2,wg-a,,,,AAXX 10004 07110 02257 82017 10120 20110 39963 40081 58019 61000 70262 886// 90000 333 6100=
07110,1997-12-10 03:00:00,13,1005,-3,94,12,4000,35.188,,57.412,210,,,,7,,,,,,61,wg-a,,,,AAXX 10034 07110 12140 82119 10130 20120 39933 40050 56030 60077 76162 877// 90300 333 91031=
07110,1997-12-10 06:00:00,14,1004.5,-0.5,94,13,2500,29.632,,,230,11.4,13.7,,,,,,,,61,wg-a,,,,AAXX 10064 07110 02225 82316 10140 20130 39928 40045 55005 61000 76162 877// 90600 333 10137 20114 6012=
07110,1997-12-10 09:00:00,14,1006.6,2.1,94,13,8000,22.224,,44.448,260,,,,0,,,,,,1,wg-a,,,,AAXX 10094 07110 12258 82612 10140 20130 39949 40066 53021 60007 70162 886// 90900 333 91024=
07110,1997-12-10 12:00:00,14,1008.5,1.9,94,13,15000,22.224,,,250,,,,0,,,,,,20,wg-a,,,,AAXX 10124 07110 02465 /2512 10140 20130 39968 40085 51019 60016 72065 86500 91200 333 60007=
07110,1997-12-10 18:00:00,13,1010.3,1.2,94,12,10000,22.224,,,220,13.1,14.2,,,,,,,,,wg-a,,,,AAXX 10184 07110 12260 72212 10130 20120 39985 40103 51012 60006 876// 91800 333 10142 20131=
07110,1997-12-10 21:00:00,14,1008.5,-1.7,94,13,8000,31.484,,,220,,,,6,,,,,,63,wg-a,,,,AAXX 10214 07110 12158 82217 10140 20130 39968 40085 56017 60067 76362 886// 92100=
07110,1997-12-11 00:00:00,14,1008.5,-0,94,13,7000,25.928,,46.3,230,,,,2,,,,,,62,wg-a,,,,AAXX 11004 07110 02257 82314 10140 20130 39968 40085 55000 60086 76262 887// 90000 333 60027 91025=
07110,1997-12-11 03:00:00,14,1007.9,-0.6,94,13,7000,29.632,,46.3,230,,,,,,,,,,21,wg-a,,,,AAXX 11034 07110 02357 82316 10140 20130 39962 40079 55006 61000 72162 886// 90300 333 //// 91025=
07110,1997-12-11 06:00:00,13,1007.2,-0.7,100,13,8000,25.928,,,230,13.2,13.8,,,,,,,,61,wg-a,,,,AAXX 11064 07110 02358 82314 10130 20130 39955 40072 58007 61000 76162 886// 90600 333 10138 20132 6009=
07110,1997-12-11 09:00:00,13,1007.5,0.3,94,12,10000,25.928,,50.004,240,,,,0,,,,,,2,wg-a,,,,AAXX 11094 07110 12460 82414 10130 20120 39958 40075 53003 60007 70262 886// 90900 333 91027=
07110,1997-12-11 12:00:00,14,1007.4,-0.1,82,11,10000,25.928,,46.3,250,,,,,,,,,,2,wg-a,,,,AAXX 11124 07110 12460 62514 10140 20110 39957 40074 58001 60006 70262 86800 91200 333 91025=
07110,1997-12-11 15:00:00,12,1009.1,1.6,82,9,12000,29.632,,53.708,270,,,,1,,,,,,,wg-a,,,,AAXX 11154 07110 12462 62716 10120 20090 39973 40091 53016 60017 86800 91500 333 91029=
07110,1997-12-11 18:00:00,10,1012,2.8,87,8,500,14.816,,,300,10.2,13.5,,,,,,,,80,wg-a,,,,AAXX 11184 07110 02200 73008 10100 20080 30001 40120 53028 61000 78086 873// 91800 333 10135 20102 6002=
07110,1997-12-11 21:00:00,10,1014.8,2.7,82,7,15000,18.52,,,300,,,,0,,,,,,1,wg-a,,,,AAXX 11214 07110 12565 23010 10100 20070 30028 40148 51027 60007 70186 82800 92100=
07110,1997-12-12 00:00:00,9,1018,3.1,76,5,15000,14.816,,,300,,,,,,,,,,1,wg-a,,,,AAXX 12004 07110 12565 23008 10090 20050 30059 40180 53031 60006 70186 82800 90000=
07110,1997-12-12 06:00:00,7,1022.7,2.1,76,3,25000,11.112,,,310,7.2,10.2,,,,,3,,,,wg-a,,,,AAXX 12064 07110 02675 23106 10070 20030 30105 40227 53021 60006 82500 90600 333 10102 20072 60034=
07110,1997-12-12 12:00:00,11,1027.1,1.7,54,2,20000,11.112,,,340,,,,,,,,,,,wg-a,,,,AAXX 12124 07110 12670 43406 10110 20020 30150 40271 51017 60006 83501 91200=
07110,1997-12-12 18:00:00,7,1030.5,1.8,70,2,15000,3.704,,,310,7,10.7,,,,,,,,,wg-a,,,,AAXX 12184 07110 12665 /3102 10070 20020 30182 40305 51018 60006 85501 91800 333 10107 20070=
07110,1997-12-12 21:00:00,6,1031.6,1,81,3,15000,3.704,,,270,,,,,,,,,,,wg-a,,,,AAXX 12214 07110 12665 72702 10060 20030 30192 40316 53010 60006 8753/ 92100=
07110,1997-12-13 00:00:00,6,1031.6,0,87,4,15000,3.704,,,240,,,,,,,,,,,wg-a,,,,AAXX 13004 07110 12665 72402 10060 20040 30192 40316 50000 60006 875// 90000=
07110,1997-12-13 03:00:00,6,1032.3,0.7,81,3,15000,3.704,,,260,,,,,,,,,,,wg-a,,,,AAXX 13034 07110 12665 /2602 10060 20030 30199 40323 53007 60006 86500 90300=
07110,1997-12-13 06:00:00,6,1032.7,0.4,87,4,15000,3.704,,,140,5,7,,,,,,,,,wg-a,,,,AAXX 13064 07110 02665 /1402 10060 20040 30203 40327 53004 60006 86500 90600 333 10070 20050 60004=
07110,1997-12-13 09:00:00,6,1033.7,1,87,4,15000,7.408,,,150,,,,,,,,,,,wg-a,,,,AAXX 13094 07110 12665 41504 10060 20040 30213 40337 52010 60006 84500 90900=
07110,1997-12-13 12:00:00,10,1033.3,-0.2,66,4,25000,11.112,,,150,,,,,,,,,,,wg-a,,,,AAXX 13124 07110 12575 21506 10100 20040 30211 40333 58002 60006 81202 91200=
07110,1997-12-13 15:00:00,10,1032.5,-0.8,57,2,25000,11.112,,,150,,,,,,,,,,,wg-a,,,,AAXX 13154 07110 12575 21506 10100 20020 30203 40325 56008 60006 81102 91500=
07110,1997-12-13 18:00:00,6,1033.4,0.7,75,2,20000,7.408,,,130,4.8,11.3,,,,,,,,,wg-a,,,,AAXX 13184 07110 12670 21304 10060 20020 30210 40334 51007 60006 81502 91800 333 10113 20048=
07110,1997-12-14 00:00:00,5,1033.1,-0.3,87,3,12000,7.408,,,100,,,,,,,,,,,wg-a,,,,AAXX 14004 07110 12/62 31004 10050 20030 30207 40331 58003 60006 82032 90000=
07110,1997-12-14 03:00:00,5,1031.6,-1.5,81,2,12000,11.112,,,110,,,,,,,,,,,wg-a,,,,AAXX 14034 07110 12/62 51106 10050 20020 30192 40316 56015 60006 85030 90300=
07110,1997-12-14 06:00:00,4,1030.8,-0.9,81,1,10000,11.112,,,120,3.4,6.3,,,,,,,,,wg-a,,,,AAXX 14064 07110 02/60 21206 10040 20010 30183 40308 56009 60006 82031 90600 333 10063 20034 60004=
07110,1997-12-14 09:00:00,3,1030.7,-0.1,87,1,15000,11.112,,,130,,,,,,,,,,,wg-a,,,,AAXX 14094 07110 12/65 21306 10030 20010 30182 40307 58001 60006 81031 90900=
07110,1997-12-14 12:00:00,7,1029.2,-1.3,66,1,18000,18.52,,,130,,,,,,,,,,,wg-a,,,,AAXX 14124 07110 12/68 11310 10070 20010 30169 40292 58013 60006 80001 91200=
07110,1997-12-14 15:00:00,8,1027.1,-2,57,0,20000,14.816,,,110,,,,,,,,,,,wg-a,,,,AAXX 14154 07110 12/70 01108 10080 20000 30149 40271 56020 60006 80000 91500=
07110,1997-12-14 18:00:00,5,1026.5,-0.7,81,2,15000,11.112,,,80,2.4,8.7,,,,,,,,,wg-a,,,,AAXX 14184 07110 12/65 00806 10050 20020 30142 40265 56007 60006 80000 91800 333 10087 20024=
07110,1997-12-14 21:00:00,4,1026.9,0.3,87,2,15000,11.112,,,60,,,,,,,,,,,wg-a,,,,AAXX 14214 07110 12/65 00606 10040 20020 30145 40269 50003 60006 80000 92100=
07110,1997-12-15 00:00:00,5,1026.7,-0.2,87,3,15000,7.408,,,80,,,,,,,,,,,wg-a,,,,AAXX 15004 07110 12/65 00804 10050 20030 30143 40267 58002 60006 80000 90000=
07110,1997-12-15 03:00:00,4,1025.8,-0.9,93,3,15000,7.408,,,70,,,,,,,,,,,wg-a,,,,AAXX 15034 07110 12/65 00704 10040 20030 30134 40258 56009 60006 80000 90300=
07110,1997-12-15 06:00:00,5,1025.4,-0.3,81,2,15000,11.112,,,90,3.3,5.2,,,,,,,,,wg-a,,,,AAXX 15064 07110 02665 30906 10050 20020 30131 40254 55003 60006 83500 90600 333 10052 20033 60004=
07110,1997-12-15 09:00:00,4,1026.3,0.8,81,1,15000,7.408,,,60,,,,,,,,,,,wg-a,,,,AAXX 15094 07110 12565 70604 10040 20010 30139 40263 53008 60006 875// 90900=
07110,1997-12-15 12:00:00,6,1025.8,-0.4,65,0,15000,25.928,,44.448,80,,,,,,,,,,,wg-a,,,,AAXX 15124 07110 12565 30814 10060 20000 30135 40258 58004 60006 83800 91200 333 91024=
07110,1997-12-15 15:00:00,6,1024.8,-1,65,0,15000,18.52,,,70,,,,,,,,,,,wg-a,,,,AAXX 15154 07110 12665 40710 10060 20000 30125 40248 56010 60006 84800 91500=
07110,1997-12-15 18:00:00,4,1024.7,-0.2,75,0,15000,22.224,,,70,3.7,6.4,,,,,,,,,wg-a,,,,AAXX 15184 07110 12665 70712 10040 20000 30123 40247 55002 60006 87500 91800 333 10064 20037=
07110,1997-12-16 00:00:00,1,1022.5,-1.7,80,-2,15000,14.816,,,70,,,,,,,,,,,wg-a,,,,AAXX 16004 07110 12565 /0708 10010 21020 30100 40225 58017 60006 81500 90000=
07110,1997-12-16 03:00:00,3,1020.5,-1.9,70,-2,15000,18.52,,,70,,,,,,,,,,,wg-a,,,,AAXX 16034 07110 12565 70710 10030 21020 30081 40205 56019 60006 875// 90300=
07110,1997-12-16 06:00:00,3,1017.2,-3.2,75,-1,15000,22.224,,42.596,60,0.9,3.8,,,,,,,,,wg-a,,,,AAXX 16064 07110 02565 70612 10030 21010 30049 40172 56032 60006 875// 90600 333 10038 20009 60004 91023=
07110,1997-12-16 15:00:00,1,1007.3,-4.6,75,-3,10000,18.52,,,60,,,,,,,,,,,wg-a,,,,AAXX 16154 07110 12460 70610 10010 21030 39950 40073 56046 60006 878// 91500=
07110,1997-12-16 18:00:00,-1,1004.4,-2.9,80,-4,10000,18.52,,,80,-0.7,3.1,,,,,,,,,wg-a,,,,AAXX 16184 07110 12560 40810 11010 21040 39921 40044 56029 60006 84500 91800 333 10031 21007=
07110,1997-12-16 21:00:00,-1,1001.6,-2.8,93,-2,3000,14.816,,,50,,,,,,,,,,,wg-a,,,,AAXX 16214 07110 32/30 /0508 11010 21020 39893 40016 58028 92100=
07110,1997-12-17 00:00:00,0,997.8,-3.7,93,-1,1800,7.408,,,70,,,,1,,,,,,71,wg-a,,,,AAXX 17004 07110 02118 80704 10000 21010 39856 49978 56037 60016 77171 887// 90000 333 60017=
07110,1997-12-17 03:00:00,-2,996.1,-1.8,100,-2,10000,7.408,,,100,,,,2,,,,,,22,wg-a,,,,AAXX 17034 07110 12360 /1004 11020 21020 39838 49961 56018 60027 72272 86500 90300=
07110,1997-12-17 06:00:00,-1,994.4,-1.6,100,-1,10000,11.112,,,110,-1.6,0,,,,,2,,,1,wg-a,,2,,AAXX 17064 07110 02560 /1106 11010 21010 39822 49944 57016 60006 70172 86500 90600 333 10000 21016 4/002 60024=
07110,1997-12-17 09:00:00,1,994.4,-0,93,0,10000,22.224,,,120,,,,2,,,,,,,wg-a,,,,AAXX 17094 07110 12260 81212 10010 20000 39822 49944 54000 60027 877// 90900=
07110,1997-12-17 12:00:00,3,992.6,-1.7,87,1,8000,25.928,,,120,,,,2,,,,,,,wg-a,,,,AAXX 17124 07110 02558 61214 10030 20010 39805 49926 58017 60026 83530 91200 333 60027=
07110,1997-12-17 15:00:00,4,990.4,-2.1,75,0,12000,22.224,,,110,,,,2,,,,,,,wg-a,,,,AAXX 17154 07110 12662 81112 10040 20000 39784 49904 58021 60027 8357/ 91500=
07110,1997-12-17 18:00:00,4,988,-2.3,93,3,10000,22.224,,,100,-0.7,4.5,,,,,,,,61,wg-a,,,,AAXX 17184 07110 02260 81012 10040 20030 39761 49880 56023 61000 76162 885// 91800 333 10045 21007 6002=
07110,1997-12-17 21:00:00,7,985.6,-2.3,100,7,10000,29.632,,,130,,,,2,,,,,,3,wg-a,,,,AAXX 17214 07110 12160 81316 10070 20070 39738 49856 56023 60027 70362 886// 92100=
07110,1997-12-18 00:00:00,11,983.5,-1.8,100,11,11000,35.188,,,140,,,,2,,,,,,,wg-a,,,,AAXX 18004 07110 02/61 /1419 10110 20110 39720 49835 56018 60026 90000 333 60027=
07110,1997-12-18 03:00:00,12,985.3,1.8,88,10,12000,25.928,,,180,,,,2,,,,,,1,wg-a,,,,AAXX 18034 07110 12462 71814 10120 20100 39738 49853 53018 60027 70162 875// 90300=
07110,1997-12-18 06:00:00,11,988.1,2.7,87,9,12000,18.52,,,180,3.7,12.5,,,,,3,,,2,wg-a,,,,AAXX 18064 07110 02462 61810 10110 20090 39765 49881 51027 60006 70262 86500 90600 333 10125 20037 60034=
07110,1997-12-18 09:00:00,10,990.8,2.6,87,8,15000,14.816,,,180,,,,,,,,,,,wg-a,,,,AAXX 18094 07110 12765 11808 10100 20080 39791 49908 51026 60006 81501 90900=
07110,1997-12-18 12:00:00,13,991.6,0.9,77,9,20000,25.928,,,160,,,,,,,,,,,wg-a,,,,AAXX 18124 07110 12570 21614 10130 20090 39800 49916 51009 60006 81101 91200=
07110,1997-12-18 15:00:00,13,992.3,0.7,77,9,20000,25.928,,,170,,,,,,,,,,,wg-a,,,,AAXX 18154 07110 12570 31714 10130 20090 39807 49923 51007 60006 83801 91500=
07110,1997-12-18 18:00:00,10,993.5,1.1,87,8,15000,14.816,,,140,9.6,13.8,,,,,,,,,wg-a,,,,AAXX 18184 07110 12565 41408 10100 20080 39818 49935 53011 60006 84501 91800 333 10138 20096=
07110,1997-12-18 21:00:00,10,993.9,0.4,93,9,15000,14.816,,,140,,,,,,,,,,,wg-a,,,,AAXX 18214 07110 12665 41408 10100 20090 39822 49939 50004 60006 83501 92100=
07110,1997-12-19 00:00:00,9,994.4,0.4,93,8,15000,14.816,,,130,,,,,,,,,,,wg-a,,,,AAXX 19004 07110 12665 21308 10090 20080 39826 49944 51004 60006 82500 90000=
07110,1997-12-19 03:00:00,9,993.9,-0.5,93,8,3000,14.816,,,130,,,,0,,,,,,,wg-a,,,,AAXX 19034 07110 12130 81308 10090 20080 39821 49939 57005 60007 876// 90300=
07110,1997-12-19 06:00:00,7,992.9,-1,93,6,10000,14.816,,,130,7.1,10.2,,,,,,,,,wg-a,,,,AAXX 19064 07110 02560 /1308 10070 20060 39811 49929 58010 60006 81500 90600 333 10102 20071 60004=
07110,1997-12-19 09:00:00,7,993.9,0.9,93,6,7000,18.52,,,130,,,,,,,,,,,wg-a,,,,AAXX 19094 07110 12257 81310 10070 20060 39820 49939 53009 60006 865// 90900=
07110,1997-12-19 12:00:00,9,993,-0.8,93,8,7000,22.224,,,140,,,,,,,,,,,wg-a,,,,AAXX 19124 07110 12357 /1412 10090 20080 39812 49930 58008 60006 86600 91200=
07110,1997-12-19 15:00:00,10,991.6,-1.3,93,9,15000,25.928,,,130,,,,,,,,,,,wg-a,,,,AAXX 19154 07110 12365 71314 10100 20090 39799 49916 56013 60006 8/800 91500=
07110,1997-12-19 18:00:00,10,990.1,-1.5,87,8,12000,18.52,,,90,6.7,10.1,,,,,,,,,wg-a,,,,AAXX 19184 07110 12662 50910 10100 20080 39784 49901 58015 60006 84531 91800 333 10101 20067=
07110,1997-12-19 21:00:00,10,989.2,-0.9,100,10,9000,18.52,,,120,,,,,,,,,,,wg-a,,,,AAXX 19214 07110 32/59 /1210 10100 20100 39775 49892 55009 92100=
07110,1997-12-20 00:00:00,10,989.1,-0.1,93,9,10000,22.224,,,120,,,,1,,,,,,1,wg-a,,,,AAXX 20004 07110 02360 81212 10100 20090 39774 49891 58001 60076 70165 885// 90000 333 60017=
07110,1997-12-20 03:00:00,10,989.1,-0,100,10,10000,14.816,,,90,,,,0,,,,,,20,wg-a,,,,AAXX 20034 07110 12360 70908 10100 20100 39774 49891 55000 60007 72052 875// 90300=
07110,1997-12-20 06:00:00,10,990.7,1.6,93,9,9000,14.816,,,30,9.6,10.4,,,,,,,,21,wg-a,,,,AAXX 20064 07110 02359 80308 10100 20090 39790 49907 53016 61000 72165 885// 90600 333 10104 20096 6008=
07110,1997-12-20 09:00:00,9,995.1,4.3,93,8,6000,14.816,,,360,,,,,,,,,,,wg-a,,,,AAXX 20094 07110 12356 83608 10090 20080 39833 49951 53043 60006 885// 90900=
07110,1997-12-20 15:00:00,11,1001.5,2.9,87,9,12000,22.224,,,360,,,,,,,,,,,wg-a,,,,AAXX 20154 07110 12462 73612 10110 20090 39897 40015 53029 60006 878// 91500=
07110,1997-12-20 18:00:00,10,1005.1,3.6,93,9,12000,11.112,,,340,8.9,11.8,,,,,,,,,wg-a,,,,AAXX 20184 07110 12462 73406 10100 20090 39933 40051 51036 60006 875// 91800 333 10118 20089=
07110,1997-12-20 21:00:00,9,1008,2.8,93,8,15000,11.112,,,350,,,,,,,,,,,wg-a,,,,AAXX 20214 07110 12465 33506 10090 20080 39961 40080 51028 60006 83200 92100=
07110,1997-12-21 00:00:00,8,1009.9,1.8,93,7,8000,3.704,,,300,,,,,,,,,,,wg-a,,,,AAXX 21004 07110 12458 43002 10080 20070 39979 40099 51018 60006 84500 90000=
07110,1997-12-21 03:00:00,9,1010.9,1,93,8,500,3.704,,,310,,,,1,,,,,,,wg-a,,,,AAXX 21034 07110 12600 23102 10090 20080 39989 40109 53010 60017 82500 90300=
07110,1997-12-21 06:00:00,7,1011.8,0.8,100,7,100,0,,,0,5.8,10.3,,,,,2,,,41,wg-a,,,,AAXX 21064 07110 02/01 00000 10070 20070 39997 40118 53008 60006 74141 80000 90600 333 10103 20058 60024=
07110,1997-12-21 09:00:00,5,1012.8,0.9,100,5,800,7.408,,,150,,,,,,,,,,42,wg-a,,,,AAXX 21094 07110 12408 21504 10050 20050 30006 40128 51009 60006 74240 82530 90900=
07110,1997-12-21 12:00:00,8,1012.5,-0.1,100,8,700,3.704,,,160,,,,,,,,,,44,wg-a,,,,AAXX 21124 07110 12107 71602 10080 20080 30005 40125 58001 60006 74441 876// 91200=
07110,1997-12-21 15:00:00,9,1011.1,-1.4,93,8,500,11.112,,,130,,,,,,,,,,1,wg-a,,,,AAXX 21154 07110 12200 /1306 10090 20080 39991 40111 56014 60006 70141 82602 91500=
07110,1997-12-21 18:00:00,8,1010.6,-0.5,93,7,4500,11.112,,,140,4.6,9.6,,,,,,,,10,wg-a,,,,AAXX 21184 07110 12/45 /1406 10080 20070 39986 40106 56005 60006 71041 83032 91800 333 10096 20046=
07110,1997-12-21 21:00:00,7,1009.9,-0.7,100,7,3500,25.928,,,130,,,,0,,,,,,10,wg-a,,,,AAXX 21214 07110 12235 71314 10070 20070 39979 40099 58007 60007 71011 877// 92100=
07110,1997-12-22 00:00:00,8,1008.9,-1,93,7,4500,29.632,,,140,,,,,,,,,,10,wg-a,,,,AAXX 22004 07110 12345 81416 10080 20070 39969 40089 58010 60006 71011 876// 90000=
07110,1997-12-22 03:00:00,9,1007.8,-1.1,93,8,500,25.928,,,140,,,,2,,,,,,61,wg-a,,,,AAXX 22034 07110 12200 81414 10090 20080 39958 40078 56011 60027 76162 877// 90300=
07110,1997-12-22 06:00:00,8,1006,-1.7,100,8,6000,25.928,,44.448,140,7.1,8.7,,,,,,,,60,wg-a,,,,AAXX 22064 07110 02256 81414 10080 20080 39941 40060 56017 61000 76062 877// 90600 333 10087 20071 6004 91024=
07110,1997-12-22 09:00:00,8,1006.6,0.6,100,8,6000,31.484,,,140,,,,,,,,,,60,wg-a,,,,AAXX 22094 07110 02256 81417 10080 20080 39947 40066 53006 61000 76066 877// 90900 333 ////=
07110,1997-12-22 12:00:00,8,1007.1,0.4,100,8,500,29.632,,,150,,,,,,,,,,51,wg-a,,,,AAXX 22124 07110 02200 81516 10080 20080 39951 40071 51004 61000 75165 877// 91200 333 6100=
07110,1997-12-22 15:00:00,9,1007.8,0.8,93,8,4000,18.52,,,170,,,,1,,,,,,51,wg-a,,,,AAXX 22154 07110 12240 81710 10090 20080 39959 40078 53008 60017 75166 877// 91500=
07110,1997-12-22 18:00:00,9,1010.4,2.5,100,9,1200,7.408,,,240,8.1,8.8,,0,,,,,,,wg-a,,,,AAXX 22184 07110 02/12 /2404 10090 20090 39984 40104 52025 60006 91800 333 10088 20081 60007=
07110,1997-12-22 21:00:00,10,1013.2,2.8,82,7,15000,11.112,,,270,,,,,,,,,,,wg-a,,,,AAXX 22214 07110 12465 /2706 10100 20070 30012 40132 51028 60006 86800 92100=
07110,1997-12-23 00:00:00,10,1015.5,2.3,76,6,10000,11.112,,,270,,,,,,,,,,,wg-a,,,,AAXX 23004 07110 12660 /2706 10100 20060 30035 40155 51023 60006 86500 90000=
07110,1997-12-23 03:00:00,9,1016.6,1,87,7,10000,11.112,,,220,,,,,,,,,,,wg-a,,,,AAXX 23034 07110 12660 /2206 10090 20070 30045 40166 53010 60006 86500 90300=
07110,1997-12-23 06:00:00,10,1016.1,-0.4,93,9,10000,14.816,,,180,8.5,10.3,,,,,1,,,,wg-a,,,,AAXX 23064 07110 02460 /1808 10100 20090 30041 40161 58004 60006 86804 90600 333 10103 20085 60014=
07110,1997-12-23 12:00:00,13,1016.3,-0.3,100,13,3000,25.928,,42.596,230,,,,6,,,,,,60,wg-a,,,,AAXX 23124 07110 02230 82314 10130 20130 30044 40163 57003 60066 76065 887// 91200 333 60067 91023=
07110,1997-12-23 15:00:00,13,1016.3,-0,94,12,500,29.632,,,210,,,,,,,,,,3,wg-a,,,,AAXX 23154 07110 02200 82116 10130 20120 30044 40163 55000 61000 70362 887// 91500 333 ////=
07110,1997-12-23 18:00:00,13,1017.5,1.2,94,12,8000,25.928,,,210,9.6,13.2,,,,,,,,9,wg-a,,,,AAXX 23184 07110 12258 82114 10130 20120 30056 40175 51012 60006 70962 887// 91800 333 10132 20096=
07110,1997-12-23 21:00:00,13,1018.3,0.8,100,13,8000,29.632,,,220,,,,,,,,,,,wg-a,,,,AAXX 23214 07110 12258 82216 10130 20130 30064 40183 51008 60006 887// 92100=
07110,1997-12-24 00:00:00,13,1018.5,0.2,100,13,500,29.632,,,210,,,,,,,,,,50,wg-a,,,,AAXX 24004 07110 02300 82116 10130 20130 30066 40185 50002 61000 75052 877// 90000 333 6100=
07110,1997-12-24 03:00:00,13,1018.5,-0,94,12,6000,31.484,,,210,,,,,,,,,,3,wg-a,,,,AAXX 24034 07110 02256 82117 10130 20120 30066 40185 55000 61000 70352 876// 90300 333 ////=
07110,1997-12-24 06:00:00,13,1016.4,-2.1,94,12,6000,31.484,,,200,12.8,13.3,,,,,7,,,3,wg-a,,,,AAXX 24064 07110 02256 82017 10130 20120 30045 40164 56021 60006 70352 887// 90600 333 10133 20128 60074=
07110,1997-12-24 09:00:00,13,1014.3,-2.1,94,12,3000,38.892,,,190,,,,8,,,,,,63,wg-a,,,,AAXX 24094 07110 12230 81921 10130 20120 30024 40143 57021 60087 76362 887// 90900=
07110,1997-12-24 12:00:00,13,1013,-1.2,100,13,3000,35.188,,68.524,200,,,,11,,,,,,61,wg-a,,,,AAXX 24124 07110 02130 82019 10130 20130 30012 40130 56012 60196 76162 887// 91200 333 60117 91037=
07110,1997-12-24 15:00:00,14,1013.3,,88,12,500,31.484,,57.412,230,,,,,,,,,,1,wg-a,,,,AAXX 24154 07110 32300 /2317 10140 20120 30015 40133 70162 878// 91500 333 91031=
07110,1997-12-24 18:00:00,12,1016.1,2.7,76,8,10000,22.224,,,240,12.1,13.9,,,,,,,,1,wg-a,,,,AAXX 24184 07110 12560 /2412 10120 20080 30042 40161 51027 60006 70162 86800 91800 333 10139 20121=
07110,1997-12-24 21:00:00,11,1017.4,1.2,82,8,15000,14.816,,,220,,,,,,,,,,,wg-a,,,,AAXX 24214 07110 12665 32208 10110 20080 30054 40174 51012 60006 83500 92100=
07110,1997-12-25 00:00:00,11,1016.5,-0.9,87,9,15000,18.52,,,200,,,,,,,,,,,wg-a,,,,AAXX 25004 07110 12565 42010 10110 20090 30045 40165 58009 60006 84800 90000=
07110,1997-12-25 06:00:00,12,1007.1,-6,100,12,10000,31.484,,,190,10.3,12.6,,,,,,,,25,wg-a,,,,AAXX 25064 07110 02260 81917 10120 20120 39953 40071 56060 61000 72586 877// 90600 333 10126 20103 6021=
07110,1997-12-25 09:00:00,13,1004.9,-2.1,94,12,8000,38.892,,68.524,200,,,,,,,,,,,wg-a,,,,AAXX 25094 07110 12258 82021 10130 20120 39932 40049 58021 60006 875// 90900 333 91037=
07110,1997-12-25 12:00:00,12,1005.1,0.1,71,7,8000,38.892,,57.412,230,,,,2,,,,,,25,wg-a,,,,AAXX 25124 07110 02558 /2321 10120 20070 39933 40051 50001 60026 72586 86801 91200 333 60027 91031=
07110,1997-12-25 15:00:00,12,1007.1,2,76,8,10000,31.484,,59.264,250,,,,0,,,,,,25,wg-a,,,,AAXX 25154 07110 12560 62517 10120 20080 39953 40071 53020 60007 72586 86800 91500 333 91032=
07110,1997-12-25 18:00:00,10,1009.1,1.9,76,6,8000,31.484,,64.82,250,10.3,13.2,,,,,,,,25,wg-a,,,,AAXX 25184 07110 02558 52517 10100 20060 39972 40091 51019 61000 72586 85800 91800 333 10132 20103 6100 91035=
07110,1997-12-25 21:00:00,11,1009.8,0.7,71,6,15000,31.484,,51.856,240,,,,,,,,,,25,wg-a,,,,AAXX 25214 07110 02565 42417 10110 20060 39979 40098 52007 61000 72586 84800 92100 333 //// 91028=
07110,1997-12-26 00:00:00,10,1009.5,-0.3,82,7,10000,29.632,,,240,,,,1,,,,,,1,wg-a,,,,AAXX 26004 07110 02560 62416 10100 20070 39976 40095 57003 60016 70186 86800 90000 333 60017=
07110,1997-12-26 03:00:00,9,1008.8,-0.8,81,6,12000,31.484,,51.856,240,,,,,,,,,,80,wg-a,,,,AAXX 26034 07110 02562 72417 10090 20060 39968 40088 56008 61000 78086 879// 90300 333 //// 91028=
07110,1997-12-26 06:00:00,9,1006.7,-2,87,7,12000,29.632,,,250,7.8,11.2,,,,,,,,25,wg-a,,,,AAXX 26064 07110 02562 72516 10090 20070 39948 40067 56020 61000 72586 87900 90600 333 10112 20078 6005=
07110,1997-12-26 09:00:00,10,1007.7,1,76,6,10000,31.484,,55.56,280,,,,1,,,,,,25,wg-a,,,,AAXX 26094 07110 12460 /2817 10100 20060 39958 40077 53010 60017 72511 86900 90900 333 91030=
07110,1997-12-26 12:00:00,10,1010,2.3,82,7,15000,22.224,,,290,,,,0,,,,,,2,wg-a,,,,AAXX 26124 07110 02465 52912 10100 20070 39981 40100 51023 60016 70286 85900 91200 333 60007=
07110,1997-12-26 18:00:00,8,1011.5,0.6,93,7,12000,14.816,,,280,7.6,10.6,,,,,,,,25,wg-a,,,,AAXX 26184 07110 02562 62808 10080 20070 39995 40115 51006 61000 72586 86800 91800 333 10106 20076 6002=
07110,1997-12-26 21:00:00,8,1012.4,0.9,93,7,10000,14.816,,,270,,,,0,,,,,,80,wg-a,,,,AAXX 26214 07110 12560 52708 10080 20070 30004 40124 53009 60007 78086 85800 92100=
07110,1997-12-27 00:00:00,8,1013.3,0.9,87,6,10000,14.816,,,300,,,,3,,,,,,25,wg-a,,,,AAXX 27004 07110 02260 53008 10080 20060 30013 40133 52009 60046 72586 85800 90000 333 60037=
07110,1997-12-27 03:00:00,8,1014.4,1,81,5,10000,22.224,,,290,,,,0,,,,,,25,wg-a,,,,AAXX 27034 07110 12460 42912 10080 20050 30023 40144 53010 60007 72586 84800 90300=
07110,1997-12-27 06:00:00,7,1014.9,0.5,87,5,15000,14.816,,,290,6.8,8.7,,,,,9,,,1,wg-a,,,,AAXX 27064 07110 02565 32908 10070 20050 30028 40149 53005 60006 70186 83800 90600 333 10087 20068 60094=
07110,1997-12-27 09:00:00,8,1016.6,1.7,81,5,10000,14.816,,,300,,,,1,,,,,,3,wg-a,,,,AAXX 27094 07110 12560 53008 10080 20050 30045 40166 53017 60017 70386 85900 90900=
07110,1997-12-27 12:00:00,8,1017,0.4,81,5,10000,29.632,,53.708,290,,,,1,,,,,,80,wg-a,,,,AAXX 27124 07110 02460 62916 10080 20050 30049 40170 50004 60026 78086 86900 91200 333 60017 91029=
07110,1997-12-27 15:00:00,9,1016.7,-0.2,76,5,15000,18.52,,,290,,,,,,,,,,1,wg-a,,,,AAXX 27154 07110 02565 32910 10090 20050 30047 40167 55002 61000 70186 83900 91500 333 ////=
07110,1997-12-27 18:00:00,7,1017.7,0.9,87,5,15000,11.112,,,290,6.7,10.1,,0,,,,,,1,wg-a,,,,AAXX 27184 07110 02565 22906 10070 20050 30056 40177 52009 60006 70186 82900 91800 333 10101 20067 60007=
07110,1997-12-27 21:00:00,6,1018.2,0.4,87,4,10000,7.408,,,290,,,,,,,,,,80,wg-a,,,,AAXX 27214 07110 02560 52904 10060 20040 30060 40182 53004 61000 78086 85900 92100 333 ////=
07110,1997-12-28 00:00:00,5,1017.6,-0.7,93,4,15000,7.408,,,220,,,,0,,,,,,25,wg-a,,,,AAXX 28004 07110 02565 42204 10050 20040 30053 40176 58007 60016 72586 84900 90000 333 60007=
07110,1997-12-28 03:00:00,5,1017.2,-0.4,93,4,15000,7.408,,,190,,,,,,,,,,,wg-a,,,,AAXX 28034 07110 12565 31904 10050 20040 30049 40172 56004 60006 83200 90300=
07110,1997-12-28 06:00:00,5,1015.7,-1.4,93,4,15000,7.408,,,180,4.5,7.3,,,,,3,,,,wg-a,,,,AAXX 28064 07110 02565 /1804 10050 20040 30035 40157 56014 60006 85800 90600 333 10073 20045 60034=
07110,1997-12-28 09:00:00,5,1015.5,-0.2,100,5,15000,7.408,,,150,,,,,,,,,,,wg-a,,,,AAXX 28094 07110 12465 /1504 10050 20050 30033 40155 55002 60006 86800 90900=
07110,1997-12-28 12:00:00,9,1013.7,-1.6,87,7,20000,14.816,,,160,,,,,,,,,,,wg-a,,,,AAXX 28124 07110 12570 31608 10090 20070 30017 40137 58016 60006 82830 91200=
07110,1997-12-28 15:00:00,10,1011.9,-1.8,82,7,11000,7.408,,,170,,,,,,,,,,,wg-a,,,,AAXX 28154 07110 12/61 /1704 10100 20070 39999 40119 56018 60006 91500=
07110,1997-12-28 18:00:00,8,1011.3,-0.6,93,7,11000,11.112,,,130,4.6,10.3,,,,,,,,,wg-a,,,,AAXX 28184 07110 12/61 /1306 10080 20070 39993 40113 55006 60006 91800 333 10103 20046=
07110,1997-12-28 21:00:00,7,1010.3,-1,100,7,15000,14.816,,,130,,,,,,,,,,,wg-a,,,,AAXX 28214 07110 12265 71308 10070 20070 39983 40103 58010 60006 875// 92100=
07110,1997-12-29 00:00:00,8,1009.4,-0.9,93,7,15000,14.816,,,130,,,,,,,,,,,wg-a,,,,AAXX 29004 07110 12265 71308 10080 20070 39974 40094 57009 60006 875// 90000=
07110,1997-12-29 03:00:00,8,1008.5,-0.9,100,8,10000,14.816,,,140,,,,,,,,,,,wg-a,,,,AAXX 29034 07110 12260 81408 10080 20080 39965 40085 56009 60006 877// 90300=
07110,1997-12-29 06:00:00,8,1006.8,-1.7,100,8,10000,18.52,,,140,7,8.3,,,,,,,,,wg-a,,,,AAXX 29064 07110 02160 81410 10080 20080 39948 40068 56017 60006 877// 90600 333 10083 20070 60004=
07110,1997-12-29 09:00:00,9,1006.2,-0.5,100,9,6000,22.224,,,140,,,,,,,,,,,wg-a,,,,AAXX 29094 07110 12256 81412 10090 20090 39943 40062 56005 60006 877// 90900=
07110,1997-12-29 12:00:00,11,1004.6,-1.5,87,9,7000,25.928,,,160,,,,,,,,,,,wg-a,,,,AAXX 29124 07110 12457 81614 10110 20090 39928 40046 58015 60006 875// 91200=
07110,1997-12-29 15:00:00,10,1002.8,-1.8,100,10,2500,25.928,,,150,,,,0,,,,,,58,wg-a,,,,AAXX 29154 07110 12225 81514 10100 20100 39910 40028 56018 60007 75865 875// 91500=
07110,1997-12-29 18:00:00,10,1003.1,0.3,100,10,2500,14.816,,,140,8.3,10.8,,,,,,,,10,wg-a,,,,AAXX 29184 07110 02125 81408 10100 20100 39913 40031 53003 61000 71065 877// 91800 333 10108 20083 6002=
07110,1997-12-30 00:00:00,11,1003.3,0.3,100,11,3000,14.816,,,220,,,,2,,,,,,50,wg-a,,,,AAXX 30004 07110 02330 82208 10110 20110 39915 40033 52003 60036 75052 875// 90000 333 60027=
07110,1997-12-30 03:00:00,9,1005.1,1.7,100,9,12000,7.408,,,280,,,,1,,,,,,1,wg-a,,,,AAXX 30034 07110 12562 32804 10090 20090 39932 40051 51017 60017 70165 83800 90300=
07110,1997-12-30 06:00:00,8,1005.4,0.2,93,7,15000,7.408,,,220,7.7,11.2,,,,,6,,,1,wg-a,,,,AAXX 30064 07110 02665 32204 10080 20070 39934 40054 51002 60006 70165 83500 90600 333 10112 20077 60064=
07110,1997-12-30 09:00:00,8,1006.1,0.7,93,7,15000,7.408,,,220,,,,,,,,,,,wg-a,,,,AAXX 30094 07110 12565 42204 10080 20070 39941 40061 53007 60006 84801 90900=
07110,1997-12-30 12:00:00,11,1004.7,-1.2,82,8,15000,25.928,,,200,,,,,,,,,,,wg-a,,,,AAXX 30124 07110 12465 /2014 10110 20080 39929 40047 58012 60006 84801 91200=
07110,1997-12-30 15:00:00,10,1002.2,-2.5,93,9,3000,29.632,,,200,,,,0,,,,,,51,wg-a,,,,AAXX 30154 07110 12230 82016 10100 20090 39904 40022 56025 60007 75165 887// 91500=
07110,1997-12-30 18:00:00,10,999.7,-2.5,100,10,4000,31.484,,,190,6.9,11.2,,,,,,,,51,wg-a,,,,AAXX 30184 07110 02140 81917 10100 20100 39879 49997 56025 61000 75165 887// 91800 333 10112 20069 6004=
07110,1997-12-30 21:00:00,11,997,-2.6,100,11,4000,31.484,,,190,,,,10,,,,,,63,wg-a,,,,AAXX 30214 07110 12140 81917 10110 20110 39853 49970 58026 60107 76366 887// 92100=
07110,1997-12-31 00:00:00,11,997.9,0.9,87,9,6000,18.52,,,260,,,,7,,,,,,61,wg-a,,,,AAXX 31004 07110 02456 72610 10110 20090 39862 49979 53009 60166 76165 875// 90000 333 60077=
07110,1997-12-31 06:00:00,8,1003.8,2.1,76,4,15000,18.52,,,270,7.4,11.9,,,,,21,,,1,wg-a,,,,AAXX 31064 07110 02465 42710 10080 20040 39918 40038 53021 60006 70186 84900 90600 333 10119 20074 60214=
07110,1997-12-31 09:00:00,6,1006.3,2.4,81,3,9000,11.112,,,230,,,,,,,,,,,wg-a,,,,AAXX 31094 07110 12459 52306 10060 20030 39942 40063 51024 60006 85300 90900=
07110,1997-12-31 12:00:00,8,1007.1,0.9,81,5,10000,11.112,,,210,,,,,,,,,,25,wg-a,,,,AAXX 31124 07110 02460 62106 10080 20050 39951 40071 50009 61000 72586 86300 91200 333 6100=
07110,1997-12-31 15:00:00,9,1007.6,0.5,71,4,12000,14.816,,,230,,,,0,,,,,,25,wg-a,,,,AAXX 31154 07110 12462 52308 10090 20040 39956 40076 53005 60007 72586 85300 91500=
07110,1997-12-31 18:00:00,6,1008.7,1,87,4,10000,11.112,,,160,5.1,9.6,,,,,,,,25,wg-a,,,,AAXX 31184 07110 02460 /1606 10060 20040 39966 40087 53010 61000 72586 86300 91800 333 10096 20051 6000=
07110,1997-12-31 21:00:00,4,1010.7,1.9,93,3,15000,3.704,,,250,,,,0,,,,,,,wg-a,,,,AAXX 31214 07110 12465 32502 10040 20030 39985 40107 53019 60007 83800 92100=
