station_id,dh_utc,temperature,pression,pression_variation_3h,humidite,point_de_rosee,visibilite,vent_moyen,vent_rafales,vent_rafales_10min,vent_direction,temperature_min,temperature_max,pluie_1h,pluie_3h,pluie_6h,pluie_12h,pluie_24h,ensoleillement,temperature_sol,temps_omm,source,radiations,neige_au_sol,nebulosite,raw_msg
07110,1998-01-01 00:00:00,4,1011.9,1.2,87,2,15000,11.112,,,210,,,,,,,,,,,wg-a,,,,AAXX 01004 07110 12565 32106 10040 20020 39997 40119 51012 60016 83800 90000=
07110,1998-01-01 03:00:00,4,1012.5,0.6,93,3,25000,14.816,,,180,,,,,,,,,,,wg-a,,,,AAXX 01034 07110 12575 41808 10040 20030 30003 40125 53006 60006 84800 90300=
07110,1998-01-01 06:00:00,5,1012.1,-0.4,87,3,20000,11.112,,,210,3.2,5.9,,,,,1,,,1,wg-a,,,,AAXX 01064 07110 02570 22106 10050 20030 39999 40121 56004 60006 70186 82800 90600 333 10059 20032 60014=
07110,1998-01-01 09:00:00,8,1011,-0.9,81,5,20000,18.52,,,190,,,,,,,,,,,wg-a,,,,AAXX 01094 07110 12470 51910 10080 20050 39990 40110 58009 60006 85801 90900=
07110,1998-01-01 12:00:00,10,1007,-3.9,82,7,10000,35.188,,59.264,190,,,,,,,,,,,wg-a,,,,AAXX 01124 07110 12560 81919 10100 20070 39951 40070 58039 60006 875// 91200 333 91032=
07110,1998-01-01 18:00:00,12,995.9,-5.1,94,11,4000,31.484,,81.488,230,5.4,11.6,,,,,,,,61,wg-a,,,,AAXX 01184 07110 02340 82317 10120 20110 39842 49959 56051 61000 76162 877// 91800 333 10116 20054 6013 91044=
07110,1998-01-01 21:00:00,10,997.4,1.4,87,8,15000,25.928,,,240,,,,3,,,,,,1,wg-a,,,,AAXX 01214 07110 12665 /2414 10100 20080 39856 49974 53014 60037 70161 81500 92100=
07110,1998-01-02 00:00:00,11,996.1,-1.2,87,9,10000,25.928,,44.448,220,,,,,,,,,,3,wg-a,,,,AAXX 02004 07110 12460 72214 10110 20090 39844 49961 58012 60036 70361 878// 90000 333 91024=
07110,1998-01-02 06:00:00,6,986.1,-4.6,93,5,7000,22.224,,,230,5.3,11.9,,,,,,,,61,wg-a,,,,AAXX 02064 07110 02457 82312 10060 20050 39743 49861 55046 61000 76196 8657/ 90600 333 10119 20053 6031=
07110,1998-01-02 09:00:00,9,990.7,4.7,76,5,8000,38.892,,75.932,270,,,,2,,,,,,1,wg-a,,,,AAXX 02094 07110 12458 52721 10090 20050 39790 49907 53047 60027 70186 85900 90900 333 91041=
07110,1998-01-02 12:00:00,10,996.5,5.7,76,6,15000,35.188,,61.116,280,,,,0,,,,,,1,wg-a,,,,AAXX 02124 07110 02465 42819 10100 20060 39847 49965 51057 60026 70186 84900 91200 333 60007 91033=
07110,1998-01-02 15:00:00,10,1000.9,4.4,76,6,6000,29.632,,64.82,280,,,,1,,,,,,80,wg-a,,,,AAXX 02154 07110 12556 72816 10100 20060 39891 40009 52044 60017 78086 85905 91500 333 91035=
07110,1998-01-02 18:00:00,9,1004.2,3.2,87,7,10000,11.112,,,230,6,10.9,,1,,,,,,2,wg-a,,,,AAXX 02184 07110 02660 72306 10090 20070 39923 40042 51032 60006 70286 83556 91800 333 10109 20060 60017=
07110,1998-01-02 21:00:00,10,1005.6,1.4,93,9,10000,18.52,,,230,,,,1,,,,,,21,wg-a,,,,AAXX 02214 07110 12560 82310 10100 20090 39937 40056 51014 60017 72111 87570 92100=
07110,1998-01-03 00:00:00,11,1001.7,-3.8,94,10,500,29.632,,50.004,200,,,,4,,,,,,63,wg-a,,,,AAXX 03004 07110 02200 82016 10110 20100 39899 40017 58038 60056 76386 8672/ 90000 333 60047 91027=
07110,1998-01-03 03:00:00,12,998.1,-3.5,100,12,3000,31.484,,55.56,220,,,,2,,,,,,51,wg-a,,,,AAXX 03034 07110 12230 82217 10120 20120 39864 49981 56035 60027 75165 887// 90300 333 91030=
07110,1998-01-03 06:00:00,13,995.6,-2.4,88,11,6000,38.892,,68.524,220,8.5,12.7,,,,,,,,20,wg-a,,,,AAXX 03064 07110 02456 82221 10130 20110 39840 49956 58024 61000 72065 887// 90600 333 10127 20085 6011 91037=
07110,1998-01-03 09:00:00,12,996.4,0.7,88,10,8000,38.892,,64.82,240,,,,1,,,,,,50,wg-a,,,,AAXX 03094 07110 12458 82421 10120 20100 39847 49964 53007 60017 75052 887// 90900 333 91035=
07110,1998-01-03 12:00:00,11,1001.6,5.1,62,4,15000,42.596,,70.376,260,,,,0,,,,,,1,wg-a,,,,AAXX 03124 07110 02565 42623 10110 20040 39898 40016 51051 60016 70151 82202 91200 333 60007 91038=
07110,1998-01-03 15:00:00,10,1005,3.3,66,4,15000,35.188,,64.82,270,,,,0,,,,,,25,wg-a,,,,AAXX 03154 07110 12565 32719 10100 20040 39931 40050 53033 60007 72500 83802 91500 333 91035=
07110,1998-01-03 21:00:00,8,1009.5,1.2,81,5,15000,25.928,,55.56,250,,,,2,,,,,,80,wg-a,,,,AAXX 03214 07110 12265 72514 10080 20050 39975 40095 51012 60027 78098 879// 92100 333 91030=
07110,1998-01-04 00:00:00,9,1009.5,0.1,87,7,10000,18.52,,,230,,,,1,,,,,,80,wg-a,,,,AAXX 04004 07110 02560 52310 10090 20070 39976 40095 50001 60036 78098 85800 90000 333 60017=
07110,1998-01-04 09:00:00,8,996.5,-2.5,81,5,9000,25.928,,50.004,230,,,,4,,,,,,25,wg-a,,,,AAXX 04094 07110 12459 52314 10080 20050 39846 49965 56025 60047 72598 85900 90900 333 91027=
07110,1998-01-04 12:00:00,7,997.6,1.1,81,4,12000,35.188,,62.968,240,,,,2,,,,,,27,wg-a,,,,AAXX 04124 07110 02562 52419 10070 20040 39857 49976 53011 60066 72798 85900 91200 333 60027 91034=
07110,1998-01-04 15:00:00,7,999.5,1.9,76,3,10000,38.892,,64.82,250,,,,1,,,,,,29,wg-a,,,,AAXX 04154 07110 12460 62521 10070 20030 39876 49995 53019 60017 72998 86900 91500 333 91035=
07110,1998-01-04 18:00:00,8,1002.5,3,71,3,15000,31.484,,59.264,250,4.6,10.8,,,,,,,,1,wg-a,,,,AAXX 04184 07110 12465 62517 10080 20030 39906 40025 53030 60006 70198 86900 91800 333 10108 20046 91032=
07110,1998-01-05 00:00:00,8,1008,1.5,71,3,15000,25.928,,44.448,240,,,,0,,,,,,1,wg-a,,,,AAXX 05004 07110 02565 32414 10080 20030 39960 40080 50015 60016 70187 83500 90000 333 60007 91024=
07110,1998-01-05 03:00:00,10,1004.9,-3,76,6,10000,35.188,,59.264,210,,,,,,,,,,,wg-a,,,,AAXX 05034 07110 12460 /2119 10100 20060 39930 40049 58030 60006 86800 90300 333 91032=
07110,1998-01-05 06:00:00,11,1000.6,-4.2,82,8,10000,42.596,,70.376,210,5.1,10.7,,,,,8,,,3,wg-a,,,,AAXX 05064 07110 02460 72123 10110 20080 39888 40006 56042 60006 70386 879// 90600 333 10107 20051 60084 91038=
07110,1998-01-05 09:00:00,9,999,-1.6,87,7,4000,38.892,,70.376,250,,,,3,,,,,,80,wg-a,,,,AAXX 05094 07110 12440 72521 10090 20070 39872 49990 55016 60037 78086 879// 90900 333 91038=
07110,1998-01-05 12:00:00,9,1000.6,1.5,66,3,8000,42.596,,72.228,260,,,,1,,,,,,3,wg-a,,,,AAXX 05124 07110 02458 /2623 10090 20030 39887 40006 51015 60046 70386 86900 91200 333 60017 91039=
07110,1998-01-05 15:00:00,9,1001.2,0.6,61,2,12000,57.412,,94.452,250,,,,0,,,,,,,wg-a,,,,AAXX 05154 07110 12462 52531 10090 20020 39893 40012 53006 60007 85900 91500 333 91051=
07110,1998-01-05 21:00:00,7,1011.1,4.6,76,3,15000,11.112,,,280,,,,,,,,,,,wg-a,,,,AAXX 05214 07110 12665 52806 10070 20030 39990 40111 51046 60006 82530 92100=
07110,1998-01-06 00:00:00,8,1012,0.9,71,3,15000,7.408,,,200,,,,,,,,,,,wg-a,,,,AAXX 06004 07110 12565 72004 10080 20030 39999 40120 50009 60006 8553/ 90000=
07110,1998-01-06 06:00:00,11,1008.5,-2,94,10,500,18.52,,,220,6.3,10.6,,,,,,,,60,wg-a,,,,AAXX 06064 07110 02300 82210 10110 20100 39966 40085 55020 61000 76062 877// 90600 333 10106 20063 6009=
07110,1998-01-06 09:00:00,12,1009.8,1.4,94,11,6000,22.224,,,220,,,,0,,,,,,3,wg-a,,,,AAXX 06094 07110 12256 82212 10120 20110 39980 40098 52014 60007 70362 887// 90900=
07110,1998-01-06 12:00:00,12,1010.1,0.3,94,11,6000,29.632,,,210,,,,,,,,,,1,wg-a,,,,AAXX 06124 07110 12356 82116 10120 20110 39983 40101 50003 60006 70162 887// 91200=
07110,1998-01-06 18:00:00,11,1008.6,-0.3,100,11,10000,29.632,,46.3,210,10.7,12.4,,1,,,,,,3,wg-a,,,,AAXX 06184 07110 02260 82116 10110 20110 39968 40086 58003 60006 70365 887// 91800 333 10124 20107 60017 91025=
07110,1998-01-06 21:00:00,12,1007.9,-0.7,88,10,10000,31.484,,53.708,210,,,,1,,,,,,25,wg-a,,,,AAXX 06214 07110 12360 72117 10120 20100 39961 40079 57007 60017 72586 875// 92100 333 91029=
07110,1998-01-07 00:00:00,11,1007.9,-0.1,87,9,15000,25.928,,,210,,,,2,,,,,,1,wg-a,,,,AAXX 07004 07110 02465 22114 10110 20090 39960 40079 58001 60026 70186 82500 90000 333 60027=
07110,1998-01-07 06:00:00,8,1008.4,-0.6,87,6,500,25.928,,46.3,230,7.4,11.8,,,,,9,,,29,wg-a,,,,AAXX 07064 07110 02400 72314 10080 20060 39964 40084 55006 60006 72998 879// 90600 333 10118 20074 60094 91025=
07110,1998-01-07 12:00:00,11,1012.2,1.7,71,6,15000,25.928,,,230,,,,,,,,,,3,wg-a,,,,AAXX 07124 07110 12465 42314 10110 20060 30003 40122 51017 60026 70361 84901 91200=
07110,1998-01-07 15:00:00,11,1011.8,-0.4,76,7,8000,38.892,,62.968,220,,,,0,,,,,,,wg-a,,,,AAXX 07154 07110 12/58 /2221 10110 20070 39999 40118 58004 60007 91500 333 91034=
07110,1998-01-07 18:00:00,10,1013.7,1.8,71,5,8000,35.188,,57.412,230,6.6,11.4,,2,,,,,,1,wg-a,,,,AAXX 07184 07110 02458 62319 10100 20050 30017 40137 51018 60006 70186 86903 91800 333 10114 20066 60027 91031=
07110,1998-01-07 21:00:00,11,1014.9,1.2,82,8,15000,25.928,,48.152,230,,,,0,,,,,,25,wg-a,,,,AAXX 07214 07110 12465 62314 10110 20080 30029 40149 53012 60007 72586 86900 92100 333 91026=
07110,1998-01-08 00:00:00,11,1017.4,2.5,82,8,15000,29.632,,,220,,,,,,,,,,2,wg-a,,,,AAXX 08004 07110 12565 52216 10110 20080 30054 40174 51025 60006 70286 85800 90000=
07110,1998-01-08 03:00:00,11,1017.5,0.1,87,9,15000,31.484,,,200,,,,,,,,,,,wg-a,,,,AAXX 08034 07110 12465 72017 10110 20090 30055 40175 51001 60006 878// 90300=
07110,1998-01-08 06:00:00,11,1017.2,-0.3,87,9,15000,31.484,,50.004,200,9.3,11.3,,,,,4,,,,wg-a,,,,AAXX 08064 07110 02465 52017 10110 20090 30052 40172 58003 60006 85800 90600 333 10113 20093 60044 91027=
07110,1998-01-08 09:00:00,12,1018.5,1.4,88,10,15000,29.632,,50.004,210,,,,,,,,,,,wg-a,,,,AAXX 08094 07110 12465 72116 10120 20100 30066 40185 53014 60006 878// 90900 333 91027=
07110,1998-01-08 15:00:00,12,1018.9,0.1,94,11,15000,35.188,,61.116,200,,,,,,,,,,,wg-a,,,,AAXX 08154 07110 12465 72019 10120 20110 30070 40189 53001 60006 875// 91500 333 91033=
07110,1998-01-08 18:00:00,12,1020.7,1.7,88,10,10000,22.224,,,200,11,12.8,,,,,,,,,wg-a,,,,AAXX 08184 07110 12460 72012 10120 20100 30087 40207 51017 60006 876// 91800 333 10128 20110=
07110,1998-01-09 00:00:00,13,1022.9,1.2,88,11,10000,25.928,,,200,,,,,,,,,,,wg-a,,,,AAXX 09004 07110 12360 82014 10130 20110 30109 40229 51012 60006 876// 90000=
07110,1998-01-09 03:00:00,12,1023.1,0.2,88,10,12000,25.928,,,190,,,,,,,,,,,wg-a,,,,AAXX 09034 07110 12562 /1914 10120 20100 30111 40231 53002 60006 82530 90300=
07110,1998-01-09 06:00:00,11,1023.2,0.1,94,10,12000,22.224,,,180,11.1,12.5,,,,,,,,,wg-a,,,,AAXX 09064 07110 02462 41812 10110 20100 30112 40232 50001 60006 83530 90600 333 10125 20111 60004=
07110,1998-01-09 09:00:00,11,1023.1,-0.1,87,9,15000,18.52,,,170,,,,,,,,,,,wg-a,,,,AAXX 09094 07110 12/65 31710 10110 20090 30111 40231 58001 60006 81031 90900=
07110,1998-01-09 12:00:00,14,1022.7,-0.3,82,11,20000,29.632,,,160,,,,,,,,,,,wg-a,,,,AAXX 09124 07110 12570 /1616 10140 20110 30108 40227 58003 60006 81131 91200=
07110,1998-01-09 15:00:00,13,1021.8,-0.9,88,11,15000,22.224,,,170,,,,,,,,,,,wg-a,,,,AAXX 09154 07110 12465 71712 10130 20110 30099 40218 55009 60006 8513/ 91500=
07110,1998-01-09 18:00:00,11,1021.9,-0,94,10,15000,18.52,,,150,10.6,13.7,,,,,,,,,wg-a,,,,AAXX 09184 07110 12365 51510 10110 20100 30099 40219 55000 60006 82131 91800 333 10137 20106=
07110,1998-01-09 21:00:00,10,1021.7,-0.3,93,9,10000,18.52,,,140,,,,,,,,,,,wg-a,,,,AAXX 09214 07110 12260 71410 10100 20090 30096 40217 58003 60006 866// 92100=
07110,1998-01-10 00:00:00,11,1021.3,-0.3,94,10,10000,25.928,,,160,,,,,,,,,,,wg-a,,,,AAXX 10004 07110 12360 71614 10110 20100 30093 40213 55003 60006 876// 90000=
07110,1998-01-10 03:00:00,10,1020.5,-0.8,93,9,10000,14.816,,,150,,,,,,,,,,,wg-a,,,,AAXX 10034 07110 12/60 31508 10100 20090 30085 40205 57008 60006 80001 90300=
07110,1998-01-10 06:00:00,9,1020.3,-0.3,93,8,15000,18.52,,,150,9.2,11,,,,,,,,,wg-a,,,,AAXX 10064 07110 02/65 21510 10090 20080 30082 40203 56003 60006 80001 90600 333 10110 20092 60004=
07110,1998-01-10 09:00:00,10,1020.1,-0.1,87,8,10000,22.224,,,140,,,,,,,,,,,wg-a,,,,AAXX 10094 07110 12/60 31412 10100 20080 30081 40201 58001 60006 82031 90900=
07110,1998-01-10 12:00:00,14,1018.9,-1.1,72,9,10000,25.928,,,140,,,,,,,,,,,wg-a,,,,AAXX 10124 07110 12660 41414 10140 20090 30070 40189 58011 60006 81531 91200=
07110,1998-01-10 15:00:00,14,1017.1,-1.7,77,10,10000,29.632,,,150,,,,,,,,,,,wg-a,,,,AAXX 10154 07110 12/60 21516 10140 20100 30053 40171 56017 60006 81031 91500=
07110,1998-01-10 18:00:00,12,1015.9,-1.3,71,7,10000,25.928,,,150,9,14.5,,,,,,,,,wg-a,,,,AAXX 10184 07110 12/60 31514 10120 20070 30040 40159 56013 60006 82031 91800 333 10145 20090=
07110,1998-01-10 21:00:00,11,1015,-0.9,76,7,10000,25.928,,,150,,,,,,,,,,,wg-a,,,,AAXX 10214 07110 12/60 31514 10110 20070 30031 40150 56009 60006 82031 92100=
07110,1998-01-11 00:00:00,10,1013.2,-1.8,87,8,10000,29.632,,,150,,,,,,,,,,,wg-a,,,,AAXX 11004 07110 12/60 31516 10100 20080 30013 40132 58018 60006 82031 90000=
07110,1998-01-11 06:00:00,11,1011.5,-0.9,94,10,15000,18.52,,,140,10.2,12,,,,,,,,,wg-a,,,,AAXX 11064 07110 02/65 41410 10110 20100 39996 40115 55009 60006 82031 90600 333 10120 20102 60004=
07110,1998-01-11 09:00:00,11,1011.4,-0.1,94,10,20000,18.52,,,140,,,,,,,,,,,wg-a,,,,AAXX 11094 07110 12/70 61410 10110 20100 39995 40114 58001 60006 85031 90900=
07110,1998-01-11 12:00:00,14,1010.6,-0.6,82,11,18000,29.632,,,150,,,,,,,,,,,wg-a,,,,AAXX 11124 07110 12768 61516 10140 20110 39989 40106 58006 60006 81531 91200=
07110,1998-01-11 15:00:00,13,1010.6,-0.1,82,10,15000,22.224,,,160,,,,,,,,,,,wg-a,,,,AAXX 11154 07110 12765 71612 10130 20100 39988 40106 55001 60006 8453/ 91500=
07110,1998-01-11 18:00:00,12,1012,1.3,88,10,15000,18.52,,,210,10.7,14.3,,,,,,,,,wg-a,,,,AAXX 11184 07110 12465 72110 10120 20100 30001 40120 52013 60006 81531 91800 333 10143 20107=
07110,1998-01-12 00:00:00,9,1013.1,-0.1,93,8,15000,7.408,,,120,,,,,,,,,,,wg-a,,,,AAXX 12004 07110 12465 71204 10090 20080 30011 40131 58001 60006 81532 90000=
07110,1998-01-12 03:00:00,11,1012.1,-0.9,94,10,12000,18.52,,,160,,,,,,,,,,21,wg-a,,,,AAXX 12034 07110 02362 /1610 10110 20100 30002 40121 56009 61000 72165 85532 90300 333 ////=
07110,1998-01-12 06:00:00,11,1011.1,-1,94,10,10000,14.816,,,140,9.2,11.9,,,,,,,,60,wg-a,,,,AAXX 12064 07110 02560 81408 10110 20100 39992 40111 56010 61000 76065 8657/ 90600 333 10119 20092 6001=
07110,1998-01-12 09:00:00,11,1010.9,-0.2,100,11,7000,18.52,,,150,,,,0,,,,,,1,wg-a,,,,AAXX 12094 07110 12257 41510 10110 20110 39990 40109 56002 60007 70161 82530 90900=
07110,1998-01-12 12:00:00,13,1010,-0.8,94,12,500,18.52,,,160,,,,,,,,,,1,wg-a,,,,AAXX 12124 07110 12200 /1610 10130 20120 39982 40100 58008 60006 70161 85730 91200=
07110,1998-01-12 15:00:00,13,1007.9,-2.1,88,11,7000,18.52,,,140,,,,0,,,,,,21,wg-a,,,,AAXX 12154 07110 12357 71410 10130 20110 39961 40079 56021 60007 72162 8473/ 91500=
07110,1998-01-12 18:00:00,12,1005.8,-2.1,94,11,10000,22.224,,,130,11.2,13,,,,,,,,1,wg-a,,,,AAXX 12184 07110 12360 /1312 10120 20110 39940 40058 58021 60006 70162 83730 91800 333 10130 20112=
07110,1998-01-12 21:00:00,11,1003,-2.8,94,10,10000,22.224,,,140,,,,,,,,,,,wg-a,,,,AAXX 12214 07110 12360 71412 10110 20100 39912 40030 58028 60006 8573/ 92100=
07110,1998-01-13 00:00:00,12,999.2,-3.7,82,9,10000,22.224,,,130,,,,,,,,,,,wg-a,,,,AAXX 13004 07110 12/60 71312 10120 20090 39875 49992 56037 60006 82031 90000=
07110,1998-01-13 12:00:00,9,982.8,-6.9,100,9,6000,29.632,,,110,,,,2,,,,,,61,wg-a,,,,AAXX 13124 07110 02356 81116 10090 20090 39712 49828 58069 60026 76162 877// 91200 333 60027=
07110,1998-01-13 15:00:00,10,981.8,-1,100,10,2000,14.816,,,270,,,,4,,,,,,60,wg-a,,,,AAXX 13154 07110 12220 82708 10100 20100 39702 49818 55010 60047 76066 875// 91500=
07110,1998-01-13 21:00:00,7,996.4,7,93,6,6000,38.892,,61.116,300,,,,4,,,,,,63,wg-a,,,,AAXX 13214 07110 12456 83021 10070 20060 39845 49964 53070 60047 76365 877// 92100 333 91033=
07110,1998-01-14 00:00:00,8,1003.3,6.9,81,5,7000,35.188,,61.116,310,,,,5,,,,,,61,wg-a,,,,AAXX 14004 07110 02457 83119 10080 20050 39914 40033 51069 60096 76165 875// 90000 333 60057 91033=
07110,1998-01-14 03:00:00,9,1007.7,4.3,71,4,10000,29.632,,,290,,,,2,,,,,,1,wg-a,,,,AAXX 14034 07110 12560 32916 10090 20040 39957 40077 52043 60027 70161 83200 90300=
07110,1998-01-14 09:00:00,7,1015.1,4,81,4,8000,11.112,,,280,,,,0,,,,,,80,wg-a,,,,AAXX 14094 07110 12558 52806 10070 20040 30030 40151 51040 60007 78087 85900 90900=
07110,1998-01-14 12:00:00,10,1017.1,2.1,76,6,15000,14.816,,,250,,,,,,,,,,3,wg-a,,,,AAXX 14124 07110 02565 42508 10100 20060 30051 40171 51021 60006 70387 84901 91200 333 61000=
07110,1998-01-14 15:00:00,9,1017.8,0.6,76,5,15000,11.112,,,230,,,,0,,,,,,25,wg-a,,,,AAXX 14154 07110 12565 72306 10090 20050 30057 40178 53006 60007 72511 8585/ 91500=
07110,1998-01-14 18:00:00,9,1017.8,0,76,5,15000,18.52,,,220,7.3,10.8,,,,,,,,1,wg-a,,,,AAXX 14184 07110 12565 52210 10090 20050 30057 40178 50000 60006 70186 82832 91800 333 10108 20073=
07110,1998-01-14 21:00:00,9,1016.3,-1.4,93,8,10000,25.928,,,200,,,,0,,,,,,21,wg-a,,,,AAXX 14214 07110 12460 82014 10090 20080 30043 40163 58014 60007 72162 8657/ 92100=
07110,1998-01-15 00:00:00,10,1014.1,-2.2,93,9,1500,31.484,,,190,,,,5,,,,,,63,wg-a,,,,AAXX 15004 07110 02215 81917 10100 20090 30021 40141 58022 60066 76362 875// 90000 333 60057=
07110,1998-01-15 06:00:00,10,1012.4,-0.3,100,10,3000,18.52,,,260,8.5,11.6,,,,,,,,61,wg-a,,,,AAXX 15064 07110 02230 82610 10100 20100 30005 40124 56003 61000 76166 877// 90600 333 10116 20085 6020=
07110,1998-01-15 09:00:00,11,1012.8,0.4,94,10,10000,18.52,,,210,,,,1,,,,,,3,wg-a,,,,AAXX 15094 07110 12360 72110 10110 20100 30009 40128 53004 60017 70362 878// 90900=
07110,1998-01-15 12:00:00,12,1013.3,0.5,88,10,20000,25.928,,,240,,,,0,,,,,,1,wg-a,,,,AAXX 15124 07110 02470 /2414 10120 20100 30014 40133 50005 60016 70186 85202 91200 333 60007=
07110,1998-01-15 15:00:00,12,1012.9,-0.4,82,9,11000,18.52,,,230,,,,,,,,,,,wg-a,,,,AAXX 15154 07110 12/61 /2310 10120 20090 30010 40129 55004 60006 91500=
07110,1998-01-15 18:00:00,10,1013,-0,82,7,20000,14.816,,,240,9.7,12.4,,0,,,,,,1,wg-a,,,,AAXX 15184 07110 02470 32408 10100 20070 30010 40130 55000 60006 70186 83800 91800 333 10124 20097 60007=
07110,1998-01-16 00:00:00,10,1010.6,-1.4,87,8,15000,25.928,,,230,,,,,,,,,,,wg-a,,,,AAXX 16004 07110 12465 /2314 10100 20080 39987 40106 58014 60006 86800 90000=
07110,1998-01-16 03:00:00,8,1009.1,-1.6,93,7,1500,14.816,,,250,,,,2,,,,,,21,wg-a,,,,AAXX 16034 07110 12415 72508 10080 20070 39971 40091 56016 60027 72162 878// 90300=
07110,1998-01-16 06:00:00,8,1010.2,1.1,87,6,10000,25.928,,51.856,290,7.9,10.2,,,,,,,,80,wg-a,,,,AAXX 16064 07110 02360 62914 10080 20060 39982 40102 53011 61000 78086 86800 90600 333 10102 20079 6004 91028=
07110,1998-01-16 09:00:00,8,1014.6,4.4,87,6,15000,25.928,,51.856,290,,,,1,,,,,,0,wg-a,,,,AAXX 16094 07110 12565 /2914 10080 20060 30025 40146 52044 60017 700// 90900 333 91028=
07110,1998-01-16 12:00:00,10,1018.4,3.9,76,6,20000,31.484,,57.412,320,,,,0,,,,,,1,wg-a,,,,AAXX 16124 07110 02570 43217 10100 20060 30064 40184 52039 60016 70186 84800 91200 333 60007 91031=
07110,1998-01-16 15:00:00,10,1022.7,4.2,76,6,20000,29.632,,,310,,,,,,,,,,,wg-a,,,,AAXX 16154 07110 12570 53116 10100 20060 30106 40227 51042 60006 85800 91500=
07110,1998-01-16 21:00:00,6,1027.8,1.8,87,4,15000,3.704,,,300,,,,,,,,,,,wg-a,,,,AAXX 16214 07110 12565 23002 10060 20040 30155 40278 51018 60006 82800 92100=
07110,1998-01-17 00:00:00,5,1029.1,1.2,93,4,15000,7.408,,,240,,,,,,,,,,,wg-a,,,,AAXX 17004 07110 12565 22404 10050 20040 30167 40291 51012 60006 82800 90000=
07110,1998-01-17 03:00:00,4,1029.1,-0,100,4,15000,7.408,,,210,,,,,,,,,,,wg-a,,,,AAXX 17034 07110 12565 /2104 10040 20040 30167 40291 55000 60006 81500 90300=
07110,1998-01-17 06:00:00,4,1028.2,-0.9,100,4,15000,11.112,,,160,3.4,8.1,,,,,1,,,,wg-a,,,,AAXX 17064 07110 02565 /1606 10040 20040 30158 40282 56009 60006 86500 90600 333 10081 20034 60014=
07110,1998-01-17 09:00:00,6,1027.4,-0.7,93,5,15000,11.112,,,150,,,,,,,,,,,wg-a,,,,AAXX 17094 07110 12765 51506 10060 20050 30151 40274 56007 60006 85500 90900=
07110,1998-01-17 12:00:00,9,1025.1,-2.1,87,7,15000,18.52,,,180,,,,,,,,,,,wg-a,,,,AAXX 17124 07110 12565 71810 10090 20070 30130 40251 58021 60006 85801 91200=
07110,1998-01-17 21:00:00,8,1014,-4.7,100,8,6000,29.632,,,170,,,,7,,,,,,51,wg-a,,,,AAXX 17214 07110 12356 81716 10080 20080 30020 40140 58047 60077 75166 885// 92100=
07110,1998-01-18 00:00:00,11,1008.8,-5.1,100,11,3000,35.188,,61.116,190,,,,2,,,,,,51,wg-a,,,,AAXX 18004 07110 02230 81919 10110 20110 39969 40088 56051 60096 75165 877// 90000 333 60027 91033=
07110,1998-01-18 03:00:00,11,1005.3,-3.4,94,10,10000,25.928,,44.448,210,,,,0,,,,,,21,wg-a,,,,AAXX 18034 07110 12260 82114 10110 20100 39935 40053 58034 60007 72165 877// 90300 333 91024=
07110,1998-01-18 06:00:00,9,1001.4,-4,87,7,6000,29.632,,57.412,250,8.2,11.1,,,,,,,,61,wg-a,,,,AAXX 18064 07110 02356 82516 10090 20070 39895 40014 55040 61000 76165 885// 90600 333 10111 20082 6016 91031=
07110,1998-01-18 09:00:00,9,1002.9,1.5,61,2,10000,35.188,,55.56,260,,,,1,,,,,,1,wg-a,,,,AAXX 18094 07110 12560 52619 10090 20020 39910 40029 53015 60017 70161 83201 90900 333 91030=
07110,1998-01-18 12:00:00,9,1003.9,1,71,4,15000,35.188,,59.264,250,,,,,,,,,,1,wg-a,,,,AAXX 18124 07110 12665 42519 10090 20040 39920 40039 50010 60016 70161 82201 91200 333 91032=
07110,1998-01-18 15:00:00,10,1002,-1.8,71,5,11000,42.596,,64.82,250,,,,,,,,,,,wg-a,,,,AAXX 18154 07110 12/61 /2523 10100 20050 39902 40020 58018 60006 91500 333 91035=
07110,1998-01-18 18:00:00,7,999,-3.1,93,6,8000,11.112,,,270,7.1,10,,,,,,,,63,wg-a,,,,AAXX 18184 07110 02458 82706 10070 20060 39871 49990 57031 61000 76361 885// 91800 333 10100 20071 6006=
07110,1998-01-18 21:00:00,8,999.7,0.7,76,4,10000,29.632,,44.448,280,,,,4,,,,,,1,wg-a,,,,AAXX 18214 07110 12560 52816 10080 20040 39878 49997 53007 60047 70162 85500 92100 333 91024=
07110,1998-01-19 00:00:00,8,1001.9,2.2,76,4,10000,18.52,,,280,,,,,,,,,,1,wg-a,,,,AAXX 19004 07110 12660 52810 10080 20040 39900 40019 51022 60046 70162 85500 90000=
07110,1998-01-19 03:00:00,8,1002.9,1,71,3,25000,14.816,,,290,,,,,,,,,,,wg-a,,,,AAXX 19034 07110 12675 32908 10080 20030 39910 40029 52010 60006 83500 90300=
07110,1998-01-19 06:00:00,8,1005,2,71,3,25000,14.816,,,290,7.1,8.3,,,,,11,,,,wg-a,,,,AAXX 19064 07110 02575 /2908 10080 20030 39930 40050 53020 60006 85800 90600 333 10083 20071 60114=
07110,1998-01-19 09:00:00,8,1007.8,2.8,81,5,20000,14.816,,,280,,,,,,,,,,,wg-a,,,,AAXX 19094 07110 12470 42808 10080 20050 39958 40078 53028 60006 84800 90900=
07110,1998-01-19 15:00:00,10,1012,1.6,87,8,10000,22.224,,,310,,,,1,,,,,,25,wg-a,,,,AAXX 19154 07110 12460 73112 10100 20080 30000 40120 53016 60017 72586 878// 91500=
07110,1998-01-19 18:00:00,9,1014.5,2.5,87,7,20000,18.52,,,320,7.7,11.3,,,,,,,,1,wg-a,,,,AAXX 19184 07110 12470 53210 10090 20070 30025 40145 53025 60006 70186 85800 91800 333 10113 20077=
07110,1998-01-20 00:00:00,4,1023.7,4,70,-1,20000,14.816,,,360,,,,,,,,,,,wg-a,,,,AAXX 20004 07110 12/70 03608 10040 21010 30113 40237 51040 60006 80000 90000=
07110,1998-01-20 03:00:00,2,1026.9,3.1,80,-1,20000,7.408,,,330,,,,,,,,,,,wg-a,,,,AAXX 20034 07110 12670 /3304 10020 21010 30144 40269 53031 60006 81500 90300=
07110,1998-01-20 06:00:00,1,1029,2,93,0,20000,3.704,,,330,0.8,8.9,,,,,1,,,,wg-a,,,,AAXX 20064 07110 02670 /3302 10010 20000 30164 40290 53020 60006 81500 90600 333 10089 20008 60014=
07110,1998-01-20 09:00:00,1,1031.5,2.5,86,-1,15000,0,,,0,,,,,,,,,,,wg-a,,,,AAXX 20094 07110 12665 20000 10010 21010 30189 40315 52025 60006 81501 90900=
07110,1998-01-20 12:00:00,7,1032.6,1.4,57,-1,10000,7.408,,,40,,,,,,,,,,,wg-a,,,,AAXX 20124 07110 12660 20404 10070 21010 30203 40326 51014 60006 81501 91200=
07110,1998-01-20 15:00:00,8,1032.8,0.2,53,-1,20000,3.704,,,280,,,,,,,,,,,wg-a,,,,AAXX 20154 07110 12670 32802 10080 21010 30205 40328 53002 60006 81501 91500=
07110,1998-01-20 21:00:00,2,1034.4,0.8,87,0,20000,7.408,,,110,,,,,,,,,,,wg-a,,,,AAXX 20214 07110 12770 41104 10020 20000 30218 40344 50008 60006 81532 92100=
07110,1998-01-21 00:00:00,2,1034.6,0.2,87,0,15000,11.112,,,140,,,,,,,,,,,wg-a,,,,AAXX 21004 07110 12/65 21406 10020 20000 30220 40346 50002 60006 81032 90000=
07110,1998-01-21 03:00:00,3,1034,-0.5,75,-1,15000,18.52,,,140,,,,,,,,,,,wg-a,,,,AAXX 21034 07110 12665 71410 10030 21010 30215 40340 58005 60006 875// 90300=
07110,1998-01-21 06:00:00,4,1033.7,-0.3,81,1,12000,18.52,,,150,2,4,,,,,,,,50,wg-a,,,,AAXX 21064 07110 02562 81510 10040 20010 30212 40337 55003 61000 75051 875// 90600 333 10040 20020 6100=
07110,1998-01-21 09:00:00,4,1034.4,0.7,93,3,500,14.816,,,150,,,,1,,,,,,60,wg-a,,,,AAXX 21094 07110 12500 81508 10040 20030 30219 40344 53007 60017 76066 875// 90900=
07110,1998-01-21 12:00:00,5,1034.2,-0.1,100,5,500,18.52,,,160,,,,2,,,,,,60,wg-a,,,,AAXX 21124 07110 02500 81610 10050 20050 30218 40342 58001 60036 76066 875// 91200 333 60027=
07110,1998-01-21 15:00:00,5,1033.1,-1.1,100,5,500,25.928,,,160,,,,1,,,,,,60,wg-a,,,,AAXX 21154 07110 12100 81614 10050 20050 30207 40331 58011 60017 76066 875// 91500=
07110,1998-01-21 21:00:00,5,1032.5,-0.4,100,5,10000,14.816,,,160,,,,,,,,,,,wg-a,,,,AAXX 21214 07110 12260 71608 10050 20050 30201 40325 58004 60006 875// 92100=
07110,1998-01-22 00:00:00,5,1032.5,0,93,4,10000,14.816,,,160,,,,,,,,,,20,wg-a,,,,AAXX 22004 07110 02560 71608 10050 20040 30201 40325 50000 61000 72052 875// 90000 333 6100=
07110,1998-01-22 03:00:00,5,1031.4,-1.1,87,3,10000,11.112,,,140,,,,,,,,,,,wg-a,,,,AAXX 22034 07110 12560 81406 10050 20030 30190 40314 58011 60006 885// 90300=
07110,1998-01-22 06:00:00,5,1029.8,-1.6,87,3,10000,14.816,,,140,4.5,5.7,,,,,4,,,,wg-a,,,,AAXX 22064 07110 02660 81408 10050 20030 30174 40298 58016 60006 885// 90600 333 10057 20045 60044=
07110,1998-01-22 09:00:00,4,1029.8,-0.1,75,0,20000,11.112,,,150,,,,,,,,,,,wg-a,,,,AAXX 22094 07110 12770 41506 10040 20000 30173 40298 55001 60006 84401 90900=
07110,1998-01-22 12:00:00,6,1028.7,-1,61,-1,20000,14.816,,,150,,,,,,,,,,,wg-a,,,,AAXX 22124 07110 12670 21508 10060 21010 30163 40287 58010 60006 81501 91200=
07110,1998-01-22 15:00:00,7,1026.2,-2.4,53,-2,20000,11.112,,,110,,,,,,,,,,,wg-a,,,,AAXX 22154 07110 12670 21106 10070 21020 30139 40262 56024 60006 81501 91500=
07110,1998-01-22 18:00:00,3,1025.3,-1,75,-1,18000,11.112,,,90,3.2,6.8,,,,,,,,,wg-a,,,,AAXX 22184 07110 12668 30906 10030 21010 30129 40253 56010 60006 82501 91800 333 10068 20032=
07110,1998-01-23 03:00:00,-1,1024.8,-0.5,80,-4,20000,3.704,,,10,,,,,,,,,,,wg-a,,,,AAXX 23034 07110 12/70 00102 11010 21040 30122 40248 55005 60006 80000 90300=
07110,1998-01-23 06:00:00,-2,1024.5,-0.4,86,-4,12000,7.408,,,50,-2.3,3.3,,,,,,,,,wg-a,,,,AAXX 23064 07110 02462 /0504 11020 21040 30118 40245 56004 60006 81501 90600 333 10033 21023 60004=
07110,1998-01-23 09:00:00,-1,1025.3,0.9,80,-4,15000,11.112,,,50,,,,,,,,,,,wg-a,,,,AAXX 23094 07110 12/65 30506 11010 21040 30127 40253 50009 60006 80001 90900=
07110,1998-01-23 12:00:00,4,1024.9,-0.2,75,0,15000,18.52,,,60,,,,,,,,,,,wg-a,,,,AAXX 23124 07110 12/65 50610 10040 20000 30125 40249 58002 60006 80001 91200=
07110,1998-01-23 15:00:00,5,1023.3,-1.5,75,1,15000,22.224,,42.596,50,,,,,,,,,,,wg-a,,,,AAXX 23154 07110 12565 /0512 10050 20010 30110 40233 56015 60006 81101 91500 333 91023=
07110,1998-01-23 18:00:00,4,1024.3,0.9,81,1,8000,25.928,,,60,-2.6,5.7,,,,,,,,,wg-a,,,,AAXX 23184 07110 12458 70614 10040 20010 30119 40243 53009 60006 875// 91800 333 10057 21026=
07110,1998-01-23 21:00:00,3,1025.5,1.2,87,1,8000,18.52,,,70,,,,,,,,,,,wg-a,,,,AAXX 23214 07110 12458 70710 10030 20010 30131 40255 52012 60006 875// 92100=
07110,1998-01-24 00:00:00,3,1026.5,0.9,87,1,8000,22.224,,42.596,60,,,,,,,,,,,wg-a,,,,AAXX 24004 07110 12458 70612 10030 20010 30140 40265 52009 60006 875// 90000 333 91023=
07110,1998-01-24 03:00:00,3,1027.1,0.6,87,1,6000,18.52,,,70,,,,,,,,,,,wg-a,,,,AAXX 24034 07110 12456 80710 10030 20010 30146 40271 51006 60006 886// 90300=
07110,1998-01-24 06:00:00,3,1027.7,0.6,87,1,500,25.928,,,60,2.5,3.9,,,,,,,,,wg-a,,,,AAXX 24064 07110 02400 80614 10030 20010 30152 40277 52006 60006 885// 90600 333 10039 20025 60004=
07110,1998-01-24 09:00:00,4,1029.3,1.7,81,1,6000,18.52,,,70,,,,,,,,,,,wg-a,,,,AAXX 24094 07110 12556 20710 10040 20010 30169 40293 53017 60006 82500 90900=
07110,1998-01-24 12:00:00,7,1029.4,0.2,81,4,6000,14.816,,,50,,,,,,,,,,,wg-a,,,,AAXX 24124 07110 12556 /0508 10070 20040 30171 40294 50002 60006 86500 91200=
07110,1998-01-24 15:00:00,7,1028.5,-0.9,87,5,10000,22.224,,,50,,,,,,,,,,,wg-a,,,,AAXX 24154 07110 12360 /0512 10070 20050 30162 40285 56009 60006 86500 91500=
07110,1998-01-24 18:00:00,5,1029.6,1,87,3,10000,14.816,,,50,3,7.1,,,,,,,,,wg-a,,,,AAXX 24184 07110 12460 70508 10050 20030 30172 40296 53010 60006 875// 91800 333 10071 20030=
07110,1998-01-24 21:00:00,5,1030.4,0.8,87,3,10000,14.816,,,40,,,,,,,,,,,wg-a,,,,AAXX 24214 07110 12660 40408 10050 20030 30180 40304 52008 60006 84500 92100=
07110,1998-01-25 00:00:00,5,1029.8,-0.6,75,1,11000,14.816,,,40,,,,,,,,,,,wg-a,,,,AAXX 25004 07110 12/61 /0408 10050 20010 30174 40298 58006 60006 90000=
07110,1998-01-25 03:00:00,4,1029,-0.8,65,-2,15000,14.816,,,30,,,,,,,,,,,wg-a,,,,AAXX 25034 07110 12665 30308 10040 21020 30166 40290 57008 60006 83500 90300=
07110,1998-01-25 06:00:00,4,1028.2,-0.8,81,1,15000,7.408,,,60,3.4,5.2,,,,,,,,,wg-a,,,,AAXX 25064 07110 02565 /0604 10040 20010 30158 40282 56008 60006 85500 90600 333 10052 20034 60004=
07110,1998-01-25 09:00:00,4,1029,0.8,93,3,10000,18.52,,,50,,,,1,,,,,,25,wg-a,,,,AAXX 25094 07110 12260 /0510 10040 20030 30166 40290 51008 60017 72586 86800 90900=
07110,1998-01-25 12:00:00,4,1028.3,-0.7,93,3,10000,14.816,,,60,,,,2,,,,,,25,wg-a,,,,AAXX 25124 07110 02460 /0608 10040 20030 30159 40283 58007 60036 72586 86800 91200 333 60027=
07110,1998-01-25 15:00:00,4,1026.8,-1.5,93,3,15000,11.112,,,60,,,,1,,,,,,2,wg-a,,,,AAXX 25154 07110 12265 70606 10040 20030 30144 40268 56015 60017 70262 878// 91500=
07110,1998-01-25 18:00:00,4,1026.2,-0.6,70,-1,11000,22.224,,,60,3.2,4.7,,,,,,,,,wg-a,,,,AAXX 25184 07110 12/61 /0612 10040 21010 30138 40262 56006 60006 91800 333 10047 20032=
07110,1998-01-25 21:00:00,3,1027.1,0.8,75,-1,10000,25.928,,48.152,70,,,,,,,,,,,wg-a,,,,AAXX 25214 07110 12560 70714 10030 21010 30146 40271 53008 60006 875// 92100 333 91026=
07110,1998-01-26 00:00:00,2,1028,0.9,75,-2,10000,11.112,,,80,,,,,,,,,,,wg-a,,,,AAXX 26004 07110 12560 80806 10020 21020 30155 40280 51009 60006 885// 90000=
07110,1998-01-26 03:00:00,1,1028.3,0.2,80,-2,8000,11.112,,,80,,,,,,,,,,,wg-a,,,,AAXX 26034 07110 12558 70806 10010 21020 30157 40283 52002 60006 875// 90300=
07110,1998-01-26 06:00:00,1,1028.2,-0.1,86,-1,10000,18.52,,,80,0.5,3.9,,,,,5,,,,wg-a,,,,AAXX 26064 07110 02460 80810 10010 21010 30156 40282 56001 60006 885// 90600 333 10039 20005 60054=
07110,1998-01-26 09:00:00,1,1028.8,0.6,86,-1,8000,11.112,,,70,,,,,,,,,,,wg-a,,,,AAXX 26094 07110 12458 80706 10010 21010 30162 40288 51006 60006 885// 90900=
07110,1998-01-26 12:00:00,1,1028.4,-0.4,80,-2,8000,14.816,,,80,,,,,,,,,,,wg-a,,,,AAXX 26124 07110 12458 80808 10010 21020 30158 40284 58004 60006 885// 91200=
07110,1998-01-26 15:00:00,1,1027,-1.3,80,-2,8000,14.816,,,70,,,,,,,,,,,wg-a,,,,AAXX 26154 07110 12458 80708 10010 21020 30145 40270 56013 60006 885// 91500=
07110,1998-01-26 18:00:00,0,1026.7,-0.4,80,-3,10000,18.52,,,70,0.2,1.4,,,,,,,,,wg-a,,,,AAXX 26184 07110 12460 80710 10000 21030 30141 40267 55004 60006 885// 91800 333 10014 20002=
07110,1998-01-26 21:00:00,-1,1026.1,-0.6,86,-3,20000,7.408,,,80,,,,,,,,,,,wg-a,,,,AAXX 26214 07110 12/70 00804 11010 21030 30135 40261 56006 60006 80000 92100=
07110,1998-01-27 00:00:00,-2,1025.3,-0.9,86,-4,7000,7.408,,,40,,,,,,,,,,,wg-a,,,,AAXX 27004 07110 12/57 00404 11020 21040 30126 40253 56009 60006 80000 90000=
07110,1998-01-27 03:00:00,-2,1023.4,-1.8,93,-3,6000,11.112,,,40,,,,,,,,,,,wg-a,,,,AAXX 27034 07110 12/56 /0406 11020 21030 30108 40234 56018 60006 90300=
07110,1998-01-27 06:00:00,-1,1021.5,-1.9,86,-3,8000,11.112,,,60,-2.9,0.2,,,,,,,,,wg-a,,,,AAXX 27064 07110 02/58 00606 11010 21030 30089 40215 56019 60006 80000 90600 333 10002 21029 60004=
07110,1998-01-27 09:00:00,-1,1021.3,-0.2,93,-2,4000,18.52,,,60,,,,,,,,,,,wg-a,,,,AAXX 27094 07110 12/40 00610 11010 21020 30087 40213 55002 60006 80000 90900=
07110,1998-01-27 12:00:00,1,1020.2,-0.9,86,-1,6000,14.816,,,60,,,,,,,,,,,wg-a,,,,AAXX 27124 07110 12/56 00608 10010 21010 30078 40202 58009 60006 80000 91200=
07110,1998-01-27 18:00:00,-1,1018.1,0.2,80,-4,2500,14.816,,,80,-1.3,3.9,,,,,,,,10,wg-a,,,,AAXX 27184 07110 12/25 00808 11010 21040 30056 40181 53002 60006 71000 80000 91800 333 10039 21013=
07110,1998-01-27 21:00:00,-2,1018.5,0.3,86,-4,6000,7.408,,,70,,,,,,,,,,,wg-a,,,,AAXX 27214 07110 12/56 00704 11020 21040 30059 40185 51003 60006 80000 92100=
07110,1998-01-28 00:00:00,-3,1018.4,-0.1,86,-5,500,11.112,,,60,,,,,,,,,,,wg-a,,,,AAXX 28004 07110 12/00 00606 11030 21050 30058 40184 58001 60006 80000 90000=
07110,1998-01-28 03:00:00,-4,1017.5,-0.9,93,-5,500,14.816,,,70,,,,,,,,,,,wg-a,,,,AAXX 28034 07110 12/00 00708 11040 21050 30049 40175 56009 60006 80000 90300=
07110,1998-01-28 06:00:00,-4,1017.1,-0.5,86,-6,6000,18.52,,,60,-4.2,-1.1,,,,,,,,,wg-a,,,,AAXX 28064 07110 02/56 00610 11040 21060 30044 40171 57005 60006 80000 90600 333 11011 21042 60004=
07110,1998-01-28 12:00:00,1,1016.6,-0.6,80,-2,3500,11.112,,,50,,,,,,,,,,10,wg-a,,,,AAXX 28124 07110 12/35 20506 10010 21020 30042 40166 58006 60006 71000 80001 91200=
07110,1998-01-28 15:00:00,2,1016.2,-0.4,75,-2,6000,18.52,,,50,,,,,,,,,,,wg-a,,,,AAXX 28154 07110 12656 30510 10020 21020 30038 40162 55004 60006 81501 91500=
07110,1998-01-28 18:00:00,-1,1016.7,0.4,86,-3,2500,7.408,,,60,-4.3,2.3,,,,,,,,10,wg-a,,,,AAXX 28184 07110 12/25 00604 11010 21030 30042 40167 53004 60006 71000 80000 91800 333 10023 21043=
07110,1998-01-28 21:00:00,-2,1017.3,0.5,86,-4,7000,11.112,,,60,,,,,,,,,,,wg-a,,,,AAXX 28214 07110 12/57 00606 11020 21040 30047 40173 53005 60006 80000 92100=
07110,1998-01-29 00:00:00,-2,1017,-0.2,86,-4,10000,14.816,,,60,,,,,,,,,,,wg-a,,,,AAXX 29004 07110 12/60 00608 11020 21040 30045 40170 58002 60006 80000 90000=
07110,1998-01-29 06:00:00,-2,1016.5,-0.4,86,-4,10000,18.52,,,60,-2.5,-1.2,,,,,,,,,wg-a,,,,AAXX 29064 07110 02/60 00610 11020 21040 30040 40165 58004 60006 80000 90600 333 11012 21025 60004=
07110,1998-01-29 12:00:00,4,1017.3,0.2,56,-4,4500,7.408,,,90,,,,,,,,,,10,wg-a,,,,AAXX 29124 07110 12/45 30904 10040 21040 30050 40173 50002 60006 71000 80001 91200=
07110,1998-01-29 15:00:00,6,1016.8,-0.4,52,-3,500,11.112,,,150,,,,,,,,,,,wg-a,,,,AAXX 29154 07110 12/00 41506 10060 21030 30046 40168 55004 60006 80001 91500=
07110,1998-01-29 18:00:00,1,1018.1,1.1,75,-3,500,3.704,,,110,-2,6.4,,,,,,,,,wg-a,,,,AAXX 29184 07110 12/00 41102 10010 21030 30057 40181 53011 60006 80001 91800 333 10064 21020=
07110,1998-01-29 21:00:00,-1,1018.7,0.5,86,-3,500,3.704,,,180,,,,,,,,,,,wg-a,,,,AAXX 29214 07110 12/00 /1802 11010 21030 30062 40187 51005 60006 80001 92100=
07110,1998-01-30 00:00:00,-2,1018.9,0.1,86,-4,6000,0,,,0,,,,,,,,,,,wg-a,,,,AAXX 30004 07110 12/56 /0000 11020 21040 30063 40189 53001 60006 80001 90000=
07110,1998-01-30 03:00:00,-3,1018.7,-0.2,93,-4,6000,0,,,0,,,,,,,,,,,wg-a,,,,AAXX 30034 07110 12/56 /0000 11030 21040 30061 40187 58002 60006 80001 90300=
07110,1998-01-30 06:00:00,-3,1017.7,-1,93,-4,6000,3.704,,,40,-3.5,1.3,,,,,,,,,wg-a,,,,AAXX 30064 07110 02/56 20402 11030 21040 30051 40177 56010 60006 80001 90600 333 10013 21035 60004=
07110,1998-01-30 09:00:00,-2,1018.1,0.4,93,-3,500,7.408,,,20,,,,,,,,,,,wg-a,,,,AAXX 30094 07110 12/00 /0204 11020 21030 30055 40181 53004 60006 80001 90900=
07110,1998-01-30 21:00:00,0,1015.7,0.5,86,-2,7000,11.112,,,70,,,,,,,,,,,wg-a,,,,AAXX 30214 07110 12/57 00706 10000 21020 30033 40157 51005 60006 80000 92100=
07110,1998-01-31 03:00:00,-2,1014.7,-0.9,86,-4,6000,11.112,,,30,,,,,,,,,,,wg-a,,,,AAXX 31034 07110 12/56 00306 11020 21040 30022 40147 56009 60006 80000 90300=
07110,1998-01-31 06:00:00,-2,1014,-0.7,93,-3,6000,14.816,,,40,-1.9,2.5,,,,,,,,,wg-a,,,,AAXX 31064 07110 02/56 00408 11020 21030 30015 40140 56007 60006 80000 90600 333 10025 21019 60004=
07110,1998-01-31 12:00:00,4,1014.6,-0.4,60,-3,8000,22.224,,,80,,,,,,,,,,,wg-a,,,,AAXX 31124 07110 12/58 /0812 10040 21030 30023 40146 58004 60006 91200=
07110,1998-01-31 15:00:00,6,1013.8,-0.7,52,-3,15000,18.52,,,70,,,,,,,,,,,wg-a,,,,AAXX 31154 07110 12/65 40710 10060 21030 30016 40138 56007 60006 80001 91500=
07110,1998-01-31 18:00:00,2,1014.7,0.8,80,-1,10000,11.112,,,60,-3,5.9,,,,,,,,,wg-a,,,,AAXX 31184 07110 12/60 30606 10020 21010 30024 40147 53008 60006 80001 91800 333 10059 21030=
07110,1998-02-01 00:00:00,1,1015.4,-0.1,93,0,8000,11.112,,,70,,,,,,,,,,,wg-a,,,,AAXX 01004 07110 12/58 00706 10010 20000 30030 40154 58001 60006 80000 90000=
07110,1998-02-01 03:00:00,0,1015.5,0,93,-1,8000,7.408,,,40,,,,,,,,,,,wg-a,,,,AAXX 01034 07110 12/58 00404 10000 21010 30030 40155 50000 60006 80000 90300=
07110,1998-02-01 06:00:00,1,1015.1,-0.3,93,0,7000,7.408,,,70,-0.3,2.4,,,,,,,,,wg-a,,,,AAXX 01064 07110 02/57 /0704 10010 20000 30027 40151 58003 60006 80000 90600 333 10024 21003 60004=
07110,1998-02-01 09:00:00,1,1016.1,1,93,0,4000,14.816,,,50,,,,,,,,,,10,wg-a,,,,AAXX 01094 07110 12/40 20508 10010 20000 30037 40161 53010 60006 71011 80001 90900=
07110,1998-02-01 12:00:00,5,1015.8,-0.1,81,2,6000,18.52,,,50,,,,,,,,,,,wg-a,,,,AAXX 01124 07110 12/56 00510 10050 20020 30036 40158 58001 60006 80000 91200=
07110,1998-02-01 15:00:00,6,1014.5,-1.2,75,2,8000,18.52,,,40,,,,,,,,,,,wg-a,,,,AAXX 01154 07110 12558 20410 10060 20020 30024 40145 58012 60006 82501 91500=
07110,1998-02-01 18:00:00,3,1015.3,0.6,87,1,6000,11.112,,,40,0.5,6.8,,,,,,,,,wg-a,,,,AAXX 01184 07110 12656 40406 10030 20010 30030 40153 53006 60006 82501 91800 333 10068 20005=
07110,1998-02-01 21:00:00,1,1016.6,1.2,86,-1,6000,3.704,,,40,,,,,,,,,,,wg-a,,,,AAXX 01214 07110 12656 20402 10010 21010 30042 40166 51012 60006 81501 92100=
07110,1998-02-02 00:00:00,2,1015.9,-0.7,87,0,6000,7.408,,,40,,,,,,,,,,,wg-a,,,,AAXX 02004 07110 12556 70404 10020 20000 30035 40159 58007 60006 875// 90000=
07110,1998-02-02 03:00:00,0,1014.8,-1.1,93,-1,6000,7.408,,,30,,,,,,,,,,,wg-a,,,,AAXX 02034 07110 12/56 00304 10000 21010 30024 40148 57011 60006 80000 90300=
07110,1998-02-02 06:00:00,0,1014.6,-0.2,86,-2,8000,3.704,,,70,0,3,,,,,,,,,wg-a,,,,AAXX 02064 07110 02/58 00702 10000 21020 30022 40146 56002 60006 80000 90600 333 10030 20000 60004=
07110,1998-02-02 09:00:00,2,1014.8,0.2,80,-1,15000,7.408,,,60,,,,,,,,,,,wg-a,,,,AAXX 02094 07110 12565 30604 10020 21010 30024 40148 50002 60006 83500 90900=
07110,1998-02-02 12:00:00,7,1014.1,-0.4,76,3,15000,18.52,,,50,,,,,,,,,,,wg-a,,,,AAXX 02124 07110 12565 40510 10070 20030 30020 40141 58004 60006 84500 91200=
07110,1998-02-02 15:00:00,7,1012.6,-1.5,76,3,15000,22.224,,,40,,,,,,,,,,,wg-a,,,,AAXX 02154 07110 12565 20412 10070 20030 30005 40126 56015 60006 82100 91500=
07110,1998-02-02 18:00:00,4,1013.1,0.4,87,2,15000,11.112,,,50,-0.3,7.4,,,,,,,,,wg-a,,,,AAXX 02184 07110 12565 /0506 10040 20020 30009 40131 52004 60006 81500 91800 333 10074 21003=
07110,1998-02-02 21:00:00,2,1013.9,0.7,93,1,10000,7.408,,,40,,,,,,,,,,,wg-a,,,,AAXX 02214 07110 12560 /0404 10020 20010 30016 40139 53007 60006 81500 92100=
07110,1998-02-03 00:00:00,2,1014,0.1,93,1,10000,7.408,,,60,,,,,,,,,,,wg-a,,,,AAXX 03004 07110 12560 40604 10020 20010 30017 40140 50001 60006 84500 90000=
07110,1998-02-03 03:00:00,1,1014.3,0.2,93,0,10000,7.408,,,90,,,,,,,,,,,wg-a,,,,AAXX 03034 07110 12760 10904 10010 20000 30019 40143 53002 60006 81500 90300=
07110,1998-02-03 06:00:00,1,1013.5,-0.8,93,0,10000,7.408,,,60,0.2,4,,,,,,,,,wg-a,,,,AAXX 03064 07110 02560 /0604 10010 20000 30011 40135 56008 60006 85500 90600 333 10040 20002 60004=
07110,1998-02-03 09:00:00,3,1014.2,0.8,93,2,10000,7.408,,,50,,,,,,,,,,,wg-a,,,,AAXX 03094 07110 12660 20504 10030 20020 30019 40142 52008 60006 82500 90900=
07110,1998-02-03 12:00:00,7,1013.8,-0.2,70,2,15000,18.52,,,60,,,,,,,,,,,wg-a,,,,AAXX 03124 07110 12565 30610 10070 20020 30017 40138 58002 60006 83200 91200=
07110,1998-02-03 15:00:00,7,1013.1,-0.7,66,1,20000,18.52,,,50,,,,,,,,,,,wg-a,,,,AAXX 03154 07110 12570 20510 10070 20010 30010 40131 55007 60006 82200 91500=
07110,1998-02-03 18:00:00,4,1014,0.7,75,0,20000,7.408,,,40,1.4,7.7,,,,,,,,,wg-a,,,,AAXX 03184 07110 12670 20404 10040 20000 30017 40140 53007 60006 82501 91800 333 10077 20014=
07110,1998-02-03 21:00:00,2,1015.3,1.2,87,0,20000,3.704,,,40,,,,,,,,,,,wg-a,,,,AAXX 03214 07110 12/70 00402 10020 20000 30029 40153 52012 60006 80000 92100=
07110,1998-02-04 00:00:00,2,1015,-0.3,80,-1,15000,7.408,,,90,,,,,,,,,,,wg-a,,,,AAXX 04004 07110 12565 /0904 10020 21010 30026 40150 57003 60006 81500 90000=
07110,1998-02-04 03:00:00,1,1015.3,0.3,80,-2,15000,3.704,,,10,,,,,,,,,,,wg-a,,,,AAXX 04034 07110 12565 /0102 10010 21020 30029 40153 53003 60006 81500 90300=
07110,1998-02-04 06:00:00,0,1015.8,0.4,86,-2,15000,3.704,,,30,-0.2,3.5,,,,,,,,,wg-a,,,,AAXX 04064 07110 02565 70302 10000 21020 30033 40158 51004 60006 875// 90600 333 10035 21002 60004=
07110,1998-02-04 09:00:00,1,1017.2,1.5,86,-1,8000,3.704,,,180,,,,,,,,,,,wg-a,,,,AAXX 04094 07110 12558 /1802 10010 21010 30048 40172 53015 60006 85500 90900=
07110,1998-02-04 12:00:00,7,1018.1,1.1,66,1,15000,3.704,,,30,,,,,,,,,,,wg-a,,,,AAXX 04124 07110 12665 20302 10070 20010 30059 40181 51011 60006 82500 91200=
07110,1998-02-04 15:00:00,9,1017.8,-0.2,61,2,20000,11.112,,,340,,,,,,,,,,,wg-a,,,,AAXX 04154 07110 12570 43406 10090 20020 30057 40178 55002 60006 84800 91500=
07110,1998-02-04 18:00:00,7,1019.3,1.4,76,3,12000,0,,,0,-1.1,8.7,,,,,,,,,wg-a,,,,AAXX 04184 07110 12562 40000 10070 20030 30071 40193 53014 60006 84500 91800 333 10087 21011=
07110,1998-02-05 00:00:00,6,1021.6,0.6,87,4,12000,7.408,,,280,,,,,,,,,,,wg-a,,,,AAXX 05004 07110 12662 72804 10060 20040 30093 40216 52006 60006 875// 90000=
07110,1998-02-05 03:00:00,6,1021.6,0.1,87,4,12000,3.704,,,280,,,,,,,,,,,wg-a,,,,AAXX 05034 07110 12662 72802 10060 20040 30094 40216 53001 60006 875// 90300=
07110,1998-02-05 06:00:00,6,1022.2,0.5,87,4,12000,0,,,0,5.4,6.7,,,,,,,,,wg-a,,,,AAXX 05064 07110 02562 70000 10060 20040 30099 40222 51005 60006 875// 90600 333 10067 20054 60004=
07110,1998-02-05 09:00:00,6,1023.6,1.4,93,5,7000,3.704,,,180,,,,,,,,,,,wg-a,,,,AAXX 05094 07110 12557 81802 10060 20050 30113 40236 53014 60006 888// 90900=
07110,1998-02-05 12:00:00,8,1023.5,0,87,6,10000,7.408,,,200,,,,,,,,,,,wg-a,,,,AAXX 05124 07110 12660 82004 10080 20060 30113 40235 50000 60006 875// 91200=
07110,1998-02-05 15:00:00,9,1022.9,-0.5,81,6,20000,7.408,,,260,,,,,,,,,,,wg-a,,,,AAXX 05154 07110 12470 82604 10090 20060 30108 40229 55005 60006 888// 91500=
07110,1998-02-05 18:00:00,8,1023.5,0.5,76,4,20000,3.704,,,210,5.5,9.6,,,,,,,,,wg-a,,,,AAXX 05184 07110 12670 82102 10080 20040 30113 40235 53005 60006 885// 91800 333 10096 20055=
07110,1998-02-06 00:00:00,6,1023.6,-0.1,93,5,15000,7.408,,,170,,,,,,,,,,,wg-a,,,,AAXX 06004 07110 12665 81704 10060 20050 30113 40236 55001 60006 885// 90000=
07110,1998-02-06 03:00:00,6,1023.2,-0.4,87,4,15000,7.408,,,170,,,,,,,,,,,wg-a,,,,AAXX 06034 07110 12665 81704 10060 20040 30109 40232 58004 60006 885// 90300=
07110,1998-02-06 06:00:00,6,1022.9,-0.3,81,3,15000,7.408,,,140,5.7,7.8,,,,,,,,,wg-a,,,,AAXX 06064 07110 02665 81404 10060 20030 30106 40229 56003 60006 885// 90600 333 10078 20057 60004=
07110,1998-02-06 09:00:00,6,1023.1,0.2,81,3,15000,11.112,,,150,,,,,,,,,,,wg-a,,,,AAXX 06094 07110 12665 81506 10060 20030 30108 40231 52002 60006 885// 90900=
07110,1998-02-06 12:00:00,8,1022.9,-0.1,66,2,20000,22.224,,,170,,,,,,,,,,,wg-a,,,,AAXX 06124 07110 12670 71712 10080 20020 30107 40229 55001 60006 875// 91200=
07110,1998-02-06 15:00:00,8,1021.2,-1.7,71,3,20000,18.52,,,170,,,,,,,,,,,wg-a,,,,AAXX 06154 07110 12670 71710 10080 20030 30090 40212 56017 60006 875// 91500=
07110,1998-02-06 18:00:00,6,1020.1,-1.1,81,3,8000,18.52,,,170,5.7,8.4,,,,,,,,,wg-a,,,,AAXX 06184 07110 12658 81710 10060 20030 30079 40201 56011 60006 8457/ 91800 333 10084 20057=
07110,1998-02-06 21:00:00,6,1019.5,-0.6,87,4,15000,18.52,,,170,,,,,,,,,,,wg-a,,,,AAXX 06214 07110 12565 81710 10060 20040 30073 40195 57006 60006 8757/ 92100=
07110,1998-02-07 00:00:00,8,1019,-0.4,87,6,15000,18.52,,,210,,,,,,,,,,,wg-a,,,,AAXX 07004 07110 12565 82110 10080 20060 30069 40190 55004 60006 875// 90000=
07110,1998-02-07 03:00:00,9,1017.5,-1.5,87,7,10000,22.224,,,210,,,,,,,,,,21,wg-a,,,,AAXX 07034 07110 02560 82112 10090 20070 30054 40175 58015 61000 72122 875// 90300 333 ////=
07110,1998-02-07 06:00:00,8,1019.3,1.8,93,7,12000,7.408,,,270,5.4,9,,,,,,,,21,wg-a,,,,AAXX 07064 07110 02562 /2704 10080 20070 30072 40193 53018 61000 72162 86500 90600 333 10090 20054 6003=
07110,1998-02-07 09:00:00,6,1022.5,3.1,100,6,10000,7.408,,,260,,,,0,,,,,,,wg-a,,,,AAXX 07094 07110 12560 42604 10060 20060 30103 40225 53031 60007 84500 90900=
07110,1998-02-07 12:00:00,11,1024.4,2.1,76,7,15000,14.816,,,260,,,,,,,,,,,wg-a,,,,AAXX 07124 07110 12565 /2608 10110 20070 30124 40244 51021 60006 84201 91200=
07110,1998-02-07 15:00:00,11,1025.3,0.8,71,6,15000,14.816,,,260,,,,,,,,,,,wg-a,,,,AAXX 07154 07110 12565 52608 10110 20060 30132 40253 53008 60006 83801 91500=
07110,1998-02-07 18:00:00,8,1026.9,1.5,87,6,12000,7.408,,,220,5.7,11.8,,,,,,,,,wg-a,,,,AAXX 07184 07110 12562 32204 10080 20060 30147 40269 51015 60006 81801 91800 333 10118 20057=
07110,1998-02-07 21:00:00,6,1028.2,1.2,100,6,10000,7.408,,,180,,,,,,,,,,,wg-a,,,,AAXX 07214 07110 12560 41804 10060 20060 30159 40282 51012 60006 83501 92100=
07110,1998-02-08 00:00:00,5,1029,0.7,100,5,500,7.408,,,190,,,,,,,,,,11,wg-a,,,,AAXX 08004 07110 12/00 21904 10050 20050 30166 40290 53007 60006 71100 80002 90000=
07110,1998-02-08 03:00:00,4,1027.9,-1.1,100,4,1200,11.112,,,160,,,,,,,,,,10,wg-a,,,,AAXX 08034 07110 12112 /1606 10040 20040 30155 40279 56011 60006 71041 81600 90300=
07110,1998-02-08 06:00:00,5,1027.1,-0.8,93,4,1500,11.112,,,150,4,8.1,,,,,,,,10,wg-a,,,,AAXX 08064 07110 02715 41506 10050 20040 30147 40271 58008 60006 71041 84500 90600 333 10081 20040 60004=
07110,1998-02-08 12:00:00,9,1027.1,0,93,8,12000,18.52,,,160,,,,,,,,,,,wg-a,,,,AAXX 08124 07110 12462 /1610 10090 20080 30149 40271 50000 60006 83801 91200=
07110,1998-02-08 15:00:00,11,1025.9,-1.1,82,8,15000,22.224,,,180,,,,,,,,,,,wg-a,,,,AAXX 08154 07110 12465 71812 10110 20080 30138 40259 56011 60006 85801 91500=
07110,1998-02-08 18:00:00,8,1025.8,-0.2,93,7,12000,14.816,,,150,4.5,10.7,,,,,,,,,wg-a,,,,AAXX 08184 07110 12562 71508 10080 20070 30136 40258 58002 60006 875// 91800 333 10107 20045=
07110,1998-02-08 21:00:00,7,1025.8,-0.1,93,6,15000,11.112,,,140,,,,,,,,,,,wg-a,,,,AAXX 08214 07110 12565 81406 10070 20060 30135 40258 57001 60006 885// 92100=
07110,1998-02-09 00:00:00,5,1025.7,-0.1,100,5,10000,14.816,,,150,,,,,,,,,,,wg-a,,,,AAXX 09004 07110 12160 71508 10050 20050 30134 40257 57001 60006 875// 90000=
07110,1998-02-09 03:00:00,5,1024.9,-0.8,93,4,10000,11.112,,,160,,,,,,,,,,,wg-a,,,,AAXX 09034 07110 12160 71606 10050 20040 30126 40249 58008 60006 875// 90300=
07110,1998-02-09 06:00:00,4,1024.1,-0.8,100,4,10000,11.112,,,170,4.3,8.2,,,,,,,,,wg-a,,,,AAXX 09064 07110 02560 71706 10040 20040 30118 40241 56008 60006 875// 90600 333 10082 20043 60004=
07110,1998-02-09 09:00:00,5,1024.7,0.6,93,4,15000,7.408,,,180,,,,,,,,,,,wg-a,,,,AAXX 09094 07110 12565 /1804 10050 20040 30124 40247 51006 60006 86500 90900=
07110,1998-02-09 12:00:00,10,1024.5,0,76,6,15000,7.408,,,190,,,,,,,,,,,wg-a,,,,AAXX 09124 07110 12565 51904 10100 20060 30124 40245 50000 60006 84501 91200=
07110,1998-02-09 15:00:00,11,1023.6,-0.9,71,6,12000,3.704,,,190,,,,,,,,,,,wg-a,,,,AAXX 09154 07110 12562 /1902 10110 20060 30115 40236 56009 60006 83502 91500=
07110,1998-02-09 17:00:00,6,1025.3,1.5,93,5,1000,9.26,,,230,4.4,10.8,,,,,,,,,wg-a,,,,AAXX 09174 07110 12/10 /2305 10060 20050 30130 40253 53015 60006 91700 333 10108 20044=
07110,1998-02-09 18:00:00,6,1025.3,1.5,93,5,1500,7.408,,,210,4.4,10.8,,,,,,,,,wg-a,,,,AAXX 09184 07110 12/15 /2104 10060 20050 30130 40253 53015 60006 91800 333 10108 20044=
07110,1998-02-09 21:00:00,6,1025.5,0.2,93,5,2000,3.704,,,210,,,,,,,,,,10,wg-a,,,,AAXX 09214 07110 12120 82102 10060 20050 30132 40255 50002 60006 71022 885// 92100=
07110,1998-02-10 00:00:00,6,1026.3,0.8,100,6,2000,3.704,,,200,,,,,,,,,,10,wg-a,,,,AAXX 10004 07110 12220 82002 10060 20060 30140 40263 51008 60006 71022 875// 90000=
07110,1998-02-10 03:00:00,5,1026.5,0.2,100,5,2000,3.704,,,150,,,,,,,,,,10,wg-a,,,,AAXX 10034 07110 12220 81502 10050 20050 30142 40265 50002 60006 71022 875// 90300=
07110,1998-02-10 06:00:00,5,1026.8,0.3,100,5,6000,7.408,,,160,4.6,6,,,,,,,,,wg-a,,,,AAXX 10064 07110 02556 71604 10050 20050 30145 40268 53003 60006 875// 90600 333 10060 20046 60004=
07110,1998-02-10 12:00:00,9,1028.5,0.1,81,6,7000,7.408,,,150,,,,,,,,,,,wg-a,,,,AAXX 10124 07110 12557 81504 10090 20060 30163 40285 50001 60006 885// 91200=
07110,1998-02-10 15:00:00,11,1027.3,-1.2,71,6,12000,14.816,,,190,,,,,,,,,,,wg-a,,,,AAXX 10154 07110 12562 51908 10110 20060 30152 40273 57012 60006 83501 91500=
07110,1998-02-10 18:00:00,9,1028.2,0.8,87,7,8000,11.112,,,170,5.1,11,,,,,,,,,wg-a,,,,AAXX 10184 07110 12558 81706 10090 20070 30160 40282 53008 60006 885// 91800 333 10110 20051=
07110,1998-02-10 21:00:00,7,1028.7,0.4,87,5,15000,11.112,,,170,,,,,,,,,,,wg-a,,,,AAXX 10214 07110 12565 21706 10070 20050 30164 40287 50004 60006 82500 92100=
07110,1998-02-11 00:00:00,6,1029.3,0.5,93,5,6000,14.816,,,180,,,,,,,,,,,wg-a,,,,AAXX 11004 07110 12656 31808 10060 20050 30169 40293 53005 60006 83500 90000=
07110,1998-02-11 06:00:00,6,1027.8,-0.2,100,6,200,14.816,,,160,5.3,9.1,,,,,,,,44,wg-a,,,,AAXX 11064 07110 02002 81608 10060 20060 30155 40278 55002 60006 74441 886// 90600 333 10091 20053 60004=
07110,1998-02-11 12:00:00,9,1028.6,0.2,87,7,500,18.52,,,180,,,,,,,,,,1,wg-a,,,,AAXX 11124 07110 12/00 /1810 10090 20070 30164 40286 50002 60006 70142 80002 91200=
07110,1998-02-11 15:00:00,12,1027.4,-1,88,10,500,14.816,,,190,,,,,,,,,,,wg-a,,,,AAXX 11154 07110 12/00 /1908 10120 20100 30154 40274 57010 60006 80002 91500=
07110,1998-02-11 18:00:00,10,1028.5,1,93,9,2200,18.52,,,180,6.1,12.4,,,,,,,,10,wg-a,,,,AAXX 11184 07110 12222 71810 10100 20090 30164 40285 51010 60006 71022 876// 91800 333 10124 20061=
07110,1998-02-11 21:00:00,9,1029,0.4,93,8,3000,11.112,,,180,,,,,,,,,,10,wg-a,,,,AAXX 11214 07110 12130 /1806 10090 20080 30168 40290 53004 60006 71022 876// 92100=
07110,1998-02-12 00:00:00,9,1029.7,0.7,100,9,1600,14.816,,,180,,,,,,,,,,10,wg-a,,,,AAXX 12004 07110 12116 81808 10090 20090 30175 40297 52007 60006 71022 886// 90000=
07110,1998-02-12 03:00:00,8,1029.5,-0.2,100,8,600,14.816,,,160,,,,,,,,,,44,wg-a,,,,AAXX 12034 07110 12006 81608 10080 20080 30173 40295 58002 60006 74442 886// 90300=
07110,1998-02-12 06:00:00,7,1030,0.4,100,7,600,11.112,,,190,6.8,9.8,,,,,,,,44,wg-a,,,,AAXX 12064 07110 02106 31906 10070 20070 30177 40300 53004 60006 74441 82602 90600 333 10098 20068 60004=
07110,1998-02-12 09:00:00,8,1031,1,93,7,7000,11.112,,,170,,,,,,,,,,1,wg-a,,,,AAXX 12094 07110 12/57 /1706 10080 20070 30187 40310 53010 60006 70141 80002 90900=
07110,1998-02-12 12:00:00,12,1031.5,0.7,76,8,10000,14.816,,,180,,,,,,,,,,,wg-a,,,,AAXX 12124 07110 12/60 /1808 10120 20080 30194 40315 51007 60006 91200=
07110,1998-02-12 15:00:00,14,1030.6,-0.8,72,9,15000,14.816,,,180,,,,,,,,,,,wg-a,,,,AAXX 12154 07110 12765 51808 10140 20090 30186 40306 57008 60006 835/2 91500=
07110,1998-02-12 18:00:00,12,1031.1,0.4,88,10,6000,7.408,,,180,6.6,14.4,,,,,,,,,wg-a,,,,AAXX 12184 07110 12/56 41804 10120 20100 30190 40311 53004 60006 80002 91800 333 10144 20066=
07110,1998-02-12 21:00:00,10,1032.1,0.9,87,8,6000,14.816,,,150,,,,,,,,,,,wg-a,,,,AAXX 12214 07110 12/56 41508 10100 20080 30199 40321 52009 60006 80002 92100=
07110,1998-02-13 00:00:00,8,1032.4,0.2,100,8,500,11.112,,,150,,,,,,,,,,,wg-a,,,,AAXX 13004 07110 12/00 41506 10080 20080 30201 40324 53002 60006 80002 90000=
07110,1998-02-13 03:00:00,8,1031.8,-0.6,93,7,6000,14.816,,,140,,,,,,,,,,,wg-a,,,,AAXX 13034 07110 32/56 01408 10080 20070 30195 40318 58006 80000 90300=
07110,1998-02-13 09:00:00,9,1033,0.7,93,8,4000,11.112,,,150,,,,,,,,,,10,wg-a,,,,AAXX 13094 07110 12/40 21506 10090 20080 30207 40330 52007 60006 71000 80002 90900=
07110,1998-02-13 12:00:00,15,1032.6,-0.1,67,9,8000,11.112,,,140,,,,,,,,,,,wg-a,,,,AAXX 13124 07110 12458 21406 10150 20090 30206 40326 58001 60006 81502 91200=
07110,1998-02-13 15:00:00,17,1030.9,-1.6,55,8,10000,11.112,,,170,,,,,,,,,,,wg-a,,,,AAXX 13154 07110 12/60 01706 10170 20080 30190 40309 56016 60006 80000 91500=
07110,1998-02-13 18:00:00,13,1032.8,1.7,67,7,8000,3.704,,,160,5.7,17.4,,,,,,,,,wg-a,,,,AAXX 13184 07110 12/58 01602 10130 20070 30207 40328 53017 60006 80000 91800 333 10174 20057=
07110,1998-02-13 21:00:00,9,1032.9,0,81,6,8000,3.704,,,130,,,,,,,,,,,wg-a,,,,AAXX 13214 07110 12/58 01302 10090 20060 30207 40329 50000 60006 80000 92100=
07110,1998-02-14 00:00:00,10,1032.1,-0.8,71,5,10000,18.52,,,140,,,,,,,,,,,wg-a,,,,AAXX 14004 07110 12/60 01410 10100 20050 30199 40321 56008 60006 80000 90000=
07110,1998-02-14 03:00:00,10,1031.5,-0.6,76,6,10000,18.52,,,160,,,,,,,,,,,wg-a,,,,AAXX 14034 07110 12/60 01610 10100 20060 30193 40315 56006 60006 80000 90300=
07110,1998-02-14 06:00:00,4,1032.7,0.9,93,3,8000,7.408,,,140,4.3,12.7,,,,,,,,,wg-a,,,,AAXX 14064 07110 02/58 01404 10040 20030 30202 40327 51009 60006 80000 90600 333 10127 20043 60004=
07110,1998-02-14 09:00:00,8,1032.9,0.4,87,6,6000,7.408,,,140,,,,,,,,,,,wg-a,,,,AAXX 14094 07110 12/56 01404 10080 20060 30206 40329 51004 60006 80000 90900=
07110,1998-02-14 12:00:00,15,1032.8,0.2,63,8,6000,7.408,,,200,,,,,,,,,,,wg-a,,,,AAXX 14124 07110 12/56 02004 10150 20080 30208 40328 53002 60006 80000 91200=
07110,1998-02-14 15:00:00,17,1031.8,-0.9,55,8,6000,11.112,,,160,,,,,,,,,,,wg-a,,,,AAXX 14154 07110 12/56 21606 10170 20080 30199 40318 58009 60006 80001 91500=
07110,1998-02-14 18:00:00,13,1032.2,0.2,72,8,500,3.704,,,230,4.2,16.7,,,,,,,,,wg-a,,,,AAXX 14184 07110 12/00 22302 10130 20080 30201 40322 53002 60006 80001 91800 333 10167 20042=
07110,1998-02-14 21:00:00,8,1032.9,0.5,87,6,500,7.408,,,110,,,,,,,,,,,wg-a,,,,AAXX 14214 07110 12500 31104 10080 20060 30206 40329 50005 60006 81501 92100=
07110,1998-02-15 00:00:00,8,1032,-0.9,81,5,500,11.112,,,160,,,,,,,,,,,wg-a,,,,AAXX 15004 07110 12600 21606 10080 20050 30197 40320 56009 60006 81501 90000=
07110,1998-02-15 03:00:00,9,1030.7,-1.2,71,4,7000,18.52,,,160,,,,,,,,,,,wg-a,,,,AAXX 15034 07110 12457 21610 10090 20040 30185 40307 58012 60006 81501 90300=
07110,1998-02-15 06:00:00,9,1030.5,-0.2,76,5,500,18.52,,,160,7.7,12.7,,,,,,,,,wg-a,,,,AAXX 15064 07110 02400 41610 10090 20050 30183 40305 56002 60006 83501 90600 333 10127 20077 60004=
07110,1998-02-15 09:00:00,11,1030.2,-0.2,58,3,10000,18.52,,,160,,,,,,,,,,,wg-a,,,,AAXX 15094 07110 12/60 51610 10110 20030 30181 40302 58002 60006 80001 90900=
07110,1998-02-15 12:00:00,15,1029.3,-0.7,63,8,10000,18.52,,,170,,,,,,,,,,,wg-a,,,,AAXX 15124 07110 12/60 61710 10150 20080 30174 40293 56007 60006 80002 91200=
07110,1998-02-15 15:00:00,14,1027.5,-1.8,67,8,7000,25.928,,,180,,,,,,,,,,,wg-a,,,,AAXX 15154 07110 12/57 71814 10140 20080 30156 40275 56018 60006 80008 91500=
07110,1998-02-15 18:00:00,12,1027.3,-0.3,94,11,6000,18.52,,,190,9.1,15.4,,,,,,,,,wg-a,,,,AAXX 15184 07110 12256 81910 10120 20110 30153 40273 55003 60006 877// 91800 333 10154 20091=
07110,1998-02-15 21:00:00,12,1027.2,-0.1,100,12,2000,18.52,,,230,,,,,,,,,,10,wg-a,,,,AAXX 15214 07110 02120 82310 10120 20120 30152 40272 55001 61000 71052 887// 92100 333 ////=
07110,1998-02-16 00:00:00,11,1027.9,0.6,94,10,6000,11.112,,,290,,,,0,,,,,,20,wg-a,,,,AAXX 16004 07110 02256 82906 10110 20100 30158 40279 51006 60006 72052 885// 90000 333 60007=
07110,1998-02-16 03:00:00,10,1027.9,0,100,10,10000,11.112,,,280,,,,,,,,,,,wg-a,,,,AAXX 16034 07110 12360 72806 10100 20100 30158 40279 50000 60006 875// 90300=
07110,1998-02-16 06:00:00,9,1028.6,0.6,100,9,15000,7.408,,,300,9.4,12.4,,,,,,,,,wg-a,,,,AAXX 16064 07110 02465 /3004 10090 20090 30164 40286 51006 60006 86500 90600 333 10124 20094 60004=
07110,1998-02-16 09:00:00,10,1031,2.4,87,8,15000,14.816,,,300,,,,,,,,,,,wg-a,,,,AAXX 16094 07110 12565 73008 10100 20080 30188 40310 52024 60006 875// 90900=
07110,1998-02-16 12:00:00,11,1031.7,0.8,82,8,15000,22.224,,,310,,,,,,,,,,,wg-a,,,,AAXX 16124 07110 12565 /3112 10110 20080 30196 40317 53008 60006 86800 91200=
07110,1998-02-16 15:00:00,10,1032,0.2,76,6,15000,18.52,,,320,,,,,,,,,,,wg-a,,,,AAXX 16154 07110 12565 73210 10100 20060 30198 40320 53002 60006 878// 91500=
07110,1998-02-16 18:00:00,9,1033.6,1.6,81,6,15000,14.816,,,320,9.2,11.5,,,,,,,,,wg-a,,,,AAXX 16184 07110 12565 73208 10090 20060 30214 40336 51016 60006 878// 91800 333 10115 20092=
07110,1998-02-16 21:00:00,9,1035.4,1.7,81,6,12000,14.816,,,320,,,,,,,,,,,wg-a,,,,AAXX 16214 07110 12562 83208 10090 20060 30231 40354 51017 60006 885// 92100=
07110,1998-02-17 00:00:00,7,1035.9,0.4,93,6,10000,3.704,,,310,,,,,,,,,,,wg-a,,,,AAXX 17004 07110 12660 /3102 10070 20060 30235 40359 53004 60006 85500 90000=
07110,1998-02-17 03:00:00,5,1036.1,0.2,100,5,10000,3.704,,,350,,,,0,,,,,,,wg-a,,,,AAXX 17034 07110 12360 43502 10050 20050 30237 40361 51002 60007 84600 90300=
07110,1998-02-17 06:00:00,8,1036.1,0.1,93,7,10000,3.704,,,30,4.9,9.3,,,,,,,,,wg-a,,,,AAXX 17064 07110 02360 80302 10080 20070 30238 40361 53001 60006 886// 90600 333 10093 20049 60004=
07110,1998-02-17 09:00:00,9,1037.4,1.3,93,8,7000,3.704,,,110,,,,,,,,,,,wg-a,,,,AAXX 17094 07110 12/57 /1102 10090 20080 30251 40374 51013 60006 90900=
07110,1998-02-17 12:00:00,11,1037.3,0,76,7,15000,11.112,,,110,,,,,,,,,,,wg-a,,,,AAXX 17124 07110 12465 51106 10110 20070 30251 40373 50000 60006 85500 91200=
07110,1998-02-17 15:00:00,13,1035.3,-1.9,67,7,20000,7.408,,,120,,,,,,,,,,,wg-a,,,,AAXX 17154 07110 12570 21204 10130 20070 30232 40353 56019 60006 82100 91500=
07110,1998-02-17 18:00:00,11,1034.5,-0.9,71,6,15000,7.408,,,40,7.8,13.8,,,,,,,,,wg-a,,,,AAXX 17184 07110 12/65 10404 10110 20060 30223 40345 55009 60006 80001 91800 333 10138 20078=
07110,1998-02-17 21:00:00,7,1035,0.3,93,6,6000,3.704,,,50,,,,,,,,,,,wg-a,,,,AAXX 17214 07110 12556 20502 10070 20060 30226 40350 50003 60006 81501 92100=
07110,1998-02-18 00:00:00,6,1034.1,-0.9,93,5,6000,7.408,,,120,,,,,,,,,,,wg-a,,,,AAXX 18004 07110 12/56 01204 10060 20050 30217 40341 58009 60006 80000 90000=
07110,1998-02-18 03:00:00,6,1032.4,-1.7,81,3,8000,11.112,,,150,,,,,,,,,,,wg-a,,,,AAXX 18034 07110 12/58 01506 10060 20030 30200 40324 56017 60006 80000 90300=
07110,1998-02-18 06:00:00,5,1030.8,-1.6,87,3,8000,18.52,,,150,4.5,10.9,,,,,,,,,wg-a,,,,AAXX 18064 07110 02/58 /1510 10050 20030 30184 40308 56016 60006 90600 333 10109 20045 60004=
07110,1998-02-18 09:00:00,6,1029.7,-1,81,3,8000,18.52,,,160,,,,,,,,,,,wg-a,,,,AAXX 18094 07110 12658 41610 10060 20030 30174 40297 57010 60006 82531 90900=
07110,1998-02-18 12:00:00,8,1029.7,-0,81,5,7000,11.112,,,200,,,,,,,,,,,wg-a,,,,AAXX 18124 07110 12457 82006 10080 20050 30174 40297 55000 60006 875// 91200=
07110,1998-02-18 15:00:00,10,1027.9,-1.7,87,8,500,18.52,,,180,,,,,,,,,,,wg-a,,,,AAXX 18154 07110 12400 71810 10100 20080 30157 40279 56017 60006 875// 91500=
07110,1998-02-18 18:00:00,10,1027.9,0.1,93,9,500,18.52,,,180,4.1,9.9,,,,,,,,,wg-a,,,,AAXX 18184 07110 12300 71810 10100 20090 30158 40279 53001 60006 876// 91800 333 10099 20041=
07110,1998-02-18 21:00:00,11,1028.4,0.5,94,10,7000,14.816,,,190,,,,,,,,,,,wg-a,,,,AAXX 18214 07110 12157 81908 10110 20100 30163 40284 52005 60006 886// 92100=
07110,1998-02-19 00:00:00,11,1029,0.6,94,10,10000,14.816,,,230,,,,,,,,,,,wg-a,,,,AAXX 19004 07110 12260 82308 10110 20100 30169 40290 51006 60006 885// 90000=
07110,1998-02-19 03:00:00,11,1029,-0,94,10,10000,11.112,,,220,,,,,,,,,,,wg-a,,,,AAXX 19034 07110 12560 82206 10110 20100 30169 40290 54000 60006 875// 90300=
07110,1998-02-19 06:00:00,11,1029.1,0.1,94,10,8000,7.408,,,230,9.9,11.5,,,,,,,,,wg-a,,,,AAXX 19064 07110 02258 82304 10110 20100 30170 40291 53001 60006 876// 90600 333 10115 20099 60004=
07110,1998-02-19 09:00:00,11,1029.6,0.5,94,10,10000,11.112,,,190,,,,,,,,,,,wg-a,,,,AAXX 19094 07110 12160 81906 10110 20100 30175 40296 51005 60006 876// 90900=
07110,1998-02-19 12:00:00,12,1029.6,0,94,11,12000,18.52,,,180,,,,,,,,,,,wg-a,,,,AAXX 19124 07110 12362 81810 10120 20110 30175 40296 50000 60006 875// 91200=
07110,1998-02-19 15:00:00,14,1026.6,-2.9,77,10,15000,18.52,,,160,,,,,,,,,,,wg-a,,,,AAXX 19154 07110 12465 51610 10140 20100 30146 40266 58029 60006 85500 91500=
07110,1998-02-19 18:00:00,11,1025.4,-1.2,87,9,15000,18.52,,,160,10.2,13.7,,,,,,,,,wg-a,,,,AAXX 19184 07110 12465 71610 10110 20090 30134 40254 56012 60006 84502 91800 333 10137 20102=
07110,1998-02-19 21:00:00,10,1024,-1.5,87,8,10000,22.224,,,150,,,,,,,,,,,wg-a,,,,AAXX 19214 07110 12460 71512 10100 20080 30119 40240 58015 60006 83502 92100=
07110,1998-02-20 00:00:00,11,1021.5,-2.4,87,9,8000,25.928,,,150,,,,,,,,,,,wg-a,,,,AAXX 20004 07110 12458 71514 10110 20090 30095 40215 58024 60006 8453/ 90000=
07110,1998-02-20 03:00:00,10,1019.2,-2.3,87,8,12000,25.928,,,160,,,,,,,,,,,wg-a,,,,AAXX 20034 07110 12562 71614 10100 20080 30072 40192 58023 60006 8255/ 90300=
07110,1998-02-20 06:00:00,10,1016.7,-2.5,87,8,15000,22.224,,,150,9.2,11.2,,,,,,,,,wg-a,,,,AAXX 20064 07110 02565 41512 10100 20080 30047 40167 56025 60006 82550 90600 333 10112 20092 60004=
07110,1998-02-20 09:00:00,11,1015.4,-1.3,82,8,7000,22.224,,,150,,,,,,,,,,,wg-a,,,,AAXX 20094 07110 12657 71512 10110 20080 30034 40154 56013 60006 81532 90900=
07110,1998-02-20 12:00:00,13,1014.3,-0.9,82,10,7000,22.224,,,170,,,,,,,,,,,wg-a,,,,AAXX 20124 07110 12657 71712 10130 20100 30025 40143 58009 60006 81532 91200=
07110,1998-02-20 15:00:00,14,1012.2,-2.1,88,12,500,29.632,,,200,,,,,,,,,,,wg-a,,,,AAXX 20154 07110 12400 82016 10140 20120 30004 40122 56021 60006 885// 91500=
07110,1998-02-20 18:00:00,12,1012.6,0.4,94,11,500,22.224,,,210,9.4,14.4,,,,,,,,,wg-a,,,,AAXX 20184 07110 12200 82112 10120 20110 30008 40126 53004 60006 886// 91800 333 10144 20094=
07110,1998-02-20 21:00:00,11,1013.2,0.5,87,9,10000,18.52,,,200,,,,,,,,,,,wg-a,,,,AAXX 20214 07110 12460 72010 10110 20090 30013 40132 51005 60006 8457/ 92100=
07110,1998-02-21 00:00:00,11,1012.9,-0.3,94,10,10000,25.928,,,200,,,,,,,,,,,wg-a,,,,AAXX 21004 07110 12260 82014 10110 20100 30010 40129 58003 60006 875// 90000=
07110,1998-02-21 03:00:00,11,1011.8,-1.1,94,10,12000,25.928,,,200,,,,0,,,,,,21,wg-a,,,,AAXX 21034 07110 12362 82014 10110 20100 39999 40118 56011 60007 72165 876// 90300=
07110,1998-02-21 06:00:00,10,1010.6,-1.2,100,10,12000,25.928,,,190,10.3,12.4,,,,,,,,3,wg-a,,,,AAXX 21064 07110 02262 81914 10100 20100 39987 40106 55012 60006 70365 886// 90600 333 10124 20103 60004=
07110,1998-02-21 09:00:00,9,1010.9,0.2,100,9,15000,14.816,,,220,,,,9,,,,,,1,wg-a,,,,AAXX 21094 07110 12365 82208 10090 20090 39989 40109 53002 60097 70165 8457/ 90900=
07110,1998-02-21 12:00:00,11,1012.8,2,76,7,15000,22.224,,,240,,,,,,,,,,3,wg-a,,,,AAXX 21124 07110 12565 42412 10110 20070 30006 40128 51020 60096 70365 84800 91200=
07110,1998-02-21 15:00:00,12,1012.6,-0.2,71,7,10000,29.632,,,210,,,,,,,,,,,wg-a,,,,AAXX 21154 07110 12460 /2116 10120 20070 30007 40126 56002 60006 86300 91500=
07110,1998-02-21 18:00:00,8,1013.7,1,93,7,10000,14.816,,,230,7.6,11.6,,,,,,,,80,wg-a,,,,AAXX 21184 07110 02460 72308 10080 20070 30017 40137 53010 61000 78086 87800 91800 333 10116 20076 6002=
07110,1998-02-21 21:00:00,7,1015.1,1.3,76,3,12000,11.112,,,220,,,,,,,,,,1,wg-a,,,,AAXX 21214 07110 02762 62206 10070 20030 30030 40151 51013 61000 70186 86500 92100 333 ////=
07110,1998-02-22 00:00:00,6,1016.7,1.5,81,3,12000,14.816,,,310,,,,,,,,,,3,wg-a,,,,AAXX 22004 07110 02562 43108 10060 20030 30045 40167 53015 61000 70386 84800 90000 333 ////=
07110,1998-02-22 03:00:00,4,1018.6,1.8,87,2,12000,7.408,,,260,,,,0,,,,,,,wg-a,,,,AAXX 22034 07110 12562 42604 10040 20020 30063 40186 53018 60007 84800 90300=
07110,1998-02-22 06:00:00,5,1021.5,2.9,87,3,12000,14.816,,,320,3.9,8.1,,,,,,,,25,wg-a,,,,AAXX 22064 07110 02562 /3208 10050 20030 30092 40215 53029 61000 72586 85200 90600 333 10081 20039 6011=
07110,1998-02-22 09:00:00,7,1025.9,4.4,81,4,15000,18.52,,,320,,,,1,,,,,,25,wg-a,,,,AAXX 22094 07110 12365 53210 10070 20040 30136 40259 51044 60017 72586 85900 90900=
07110,1998-02-22 12:00:00,8,1029.5,3.6,76,4,15000,25.928,,,310,,,,,,,,,,3,wg-a,,,,AAXX 22124 07110 12465 53114 10080 20040 30172 40295 51036 60016 70386 85900 91200=
07110,1998-02-22 15:00:00,10,1030.8,1.4,66,4,15000,25.928,,44.448,330,,,,0,,,,,,2,wg-a,,,,AAXX 22154 07110 12565 43314 10100 20040 30186 40308 53014 60007 70286 84200 91500 333 91024=
07110,1998-02-22 18:00:00,8,1033.7,2.8,76,4,20000,11.112,,,320,5.2,10.2,,,,,,,,1,wg-a,,,,AAXX 22184 07110 12570 33206 10080 20040 30214 40337 51028 60006 70186 83200 91800 333 10102 20052=
07110,1998-02-22 21:00:00,6,1036.2,2.4,87,4,20000,7.408,,,290,,,,,,,,,,,wg-a,,,,AAXX 22214 07110 12470 42904 10060 20040 30238 40362 51024 60006 84200 92100=
07110,1998-02-23 00:00:00,6,1037.1,0.9,93,5,15000,7.408,,,280,,,,,,,,,,,wg-a,,,,AAXX 23004 07110 12465 /2804 10060 20050 30247 40371 51009 60006 86500 90000=
07110,1998-02-23 03:00:00,6,1037.4,0.3,93,5,11000,7.408,,,260,,,,,,,,,,,wg-a,,,,AAXX 23034 07110 12/61 /2604 10060 20050 30250 40374 51003 60006 90300=
07110,1998-02-23 06:00:00,8,1038.2,0.8,93,7,10000,14.816,,,310,5,7.7,,,,,,,,60,wg-a,,,,AAXX 23064 07110 02460 63108 10080 20070 30258 40382 53008 61000 76086 8/500 90600 333 10077 20050 6002=
07110,1998-02-23 09:00:00,9,1039.3,1.2,87,7,15000,7.408,,,290,,,,0,,,,,,2,wg-a,,,,AAXX 23094 07110 12665 62904 10090 20070 30270 40393 51012 60007 70286 86501 90900=
07110,1998-02-23 12:00:00,12,1039.7,0.5,71,7,15000,18.52,,,300,,,,,,,,,,2,wg-a,,,,AAXX 23124 07110 12665 73010 10120 20070 30275 40397 51005 60006 70286 82432 91200=
07110,1998-02-23 15:00:00,12,1039.4,-0.3,71,7,15000,18.52,,,320,,,,,,,,,,,wg-a,,,,AAXX 23154 07110 12665 73210 10120 20070 30272 40394 55003 60006 81532 91500=
07110,1998-02-23 18:00:00,10,1040.1,0.6,87,8,15000,11.112,,,310,7.2,12.5,,,,,,,,,wg-a,,,,AAXX 23184 07110 12665 73106 10100 20080 30278 40401 53006 60006 875// 91800 333 10125 20072=
07110,1998-02-23 21:00:00,9,1040.8,0.7,93,8,20000,11.112,,,310,,,,,,,,,,,wg-a,,,,AAXX 23214 07110 12670 73106 10090 20080 30285 40408 52007 60006 875// 92100=
07110,1998-02-24 00:00:00,8,1040.6,-0.3,93,7,20000,11.112,,,290,,,,,,,,,,,wg-a,,,,AAXX 24004 07110 12670 22906 10080 20070 30282 40406 56003 60006 82500 90000=
07110,1998-02-24 03:00:00,6,1040.6,-0.1,100,6,8000,7.408,,,280,,,,,,,,,,11,wg-a,,,,AAXX 24034 07110 12658 22804 10060 20060 30281 40406 58001 60006 71111 82500 90300=
07110,1998-02-24 06:00:00,6,1040.9,0.3,100,6,15000,3.704,,,300,5.5,10.1,,,,,,,,,wg-a,,,,AAXX 24064 07110 02665 /3002 10060 20060 30284 40409 53003 60006 85500 90600 333 10101 20055 60004=
07110,1998-02-24 09:00:00,9,1041.5,0.8,100,9,15000,7.408,,,340,,,,,,,,,,,wg-a,,,,AAXX 24094 07110 12465 73404 10090 20090 30292 40415 52008 60006 87800 90900=
07110,1998-02-24 12:00:00,11,1041.6,0.1,82,8,15000,11.112,,,10,,,,,,,,,,,wg-a,,,,AAXX 24124 07110 12465 /0106 10110 20080 30293 40416 52001 60006 86800 91200=
07110,1998-02-24 15:00:00,11,1040.4,-1.1,82,8,20000,11.112,,,360,,,,,,,,,,,wg-a,,,,AAXX 24154 07110 12470 63606 10110 20080 30282 40404 56011 60006 85801 91500=
07110,1998-02-24 18:00:00,9,1040.6,0.1,87,7,15000,7.408,,,360,6.2,11.6,,,,,,,,,wg-a,,,,AAXX 24184 07110 12565 43604 10090 20070 30283 40406 53001 60006 83801 91800 333 10116 20062=
07110,1998-02-24 21:00:00,6,1041.1,0.3,100,6,300,3.704,,,10,,,,0,,,,,,44,wg-a,,,,AAXX 24214 07110 12103 30102 10060 20060 30286 40411 51003 60007 74441 83600 92100=
07110,1998-02-25 00:00:00,8,1040.8,-0.2,100,8,2000,3.704,,,10,,,,,,,,,,10,wg-a,,,,AAXX 25004 07110 12520 70102 10080 20080 30284 40408 57002 60006 71041 875// 90000=
07110,1998-02-25 03:00:00,7,1039.6,-1.2,100,7,500,0,,,0,,,,,,,,,,,wg-a,,,,AAXX 25034 07110 12500 /0000 10070 20070 30272 40396 58012 60006 86500 90300=
07110,1998-02-25 06:00:00,5,1039.2,-0.5,100,5,10000,7.408,,,50,5.4,8.9,,,,,,,,28,wg-a,,,,AAXX 25064 07110 02/60 /0504 10050 20050 30267 40392 56005 60006 72841 80000 90600 333 10089 20054 60004=
07110,1998-02-25 09:00:00,7,1039.7,0.6,93,6,10000,7.408,,,90,,,,,,,,,,,wg-a,,,,AAXX 25094 07110 12560 /0904 10070 20060 30273 40397 53006 60006 86501 90900=
07110,1998-02-25 12:00:00,11,1038.5,-1,71,6,11000,11.112,,,50,,,,,,,,,,0,wg-a,,,,AAXX 25124 07110 12561 70506 10110 20060 30263 40385 58010 60006 700// 875// 91200=
07110,1998-02-25 18:00:00,10,1035.7,-1,76,6,12000,3.704,,,300,4.8,13.2,,,,,,,,,wg-a,,,,AAXX 25184 07110 12562 /3002 10100 20060 30235 40357 55010 60006 81500 91800 333 10132 20048=
07110,1998-02-25 21:00:00,7,1035.9,-0,93,6,10000,3.704,,,40,,,,,,,,,,,wg-a,,,,AAXX 25214 07110 12660 20402 10070 20060 30235 40359 54000 60006 82500 92100=
07110,1998-02-26 00:00:00,5,1035.8,-0.2,93,4,10000,0,,,0,,,,,,,,,,,wg-a,,,,AAXX 26004 07110 12660 /0000 10050 20040 30233 40358 58002 60006 81500 90000=
07110,1998-02-26 03:00:00,6,1035.3,-0.4,93,5,6000,3.704,,,190,,,,,,,,,,,wg-a,,,,AAXX 26034 07110 12556 71902 10060 20050 30229 40353 58004 60006 875// 90300=
07110,1998-02-26 06:00:00,7,1034.6,-0.6,93,6,500,0,,,0,4.6,9.9,,,,,,,,,wg-a,,,,AAXX 26064 07110 02/00 /0000 10070 20060 30223 40346 57006 60006 90600 333 10099 20046 60004=
07110,1998-02-26 09:00:00,8,1034.7,0.1,93,7,500,0,,,0,,,,,,,,,,,wg-a,,,,AAXX 26094 07110 12400 70000 10080 20070 30224 40347 50001 60006 875// 90900=
07110,1998-02-26 12:00:00,9,1035.1,0.4,87,7,500,3.704,,,220,,,,,,,,,,,wg-a,,,,AAXX 26124 07110 12400 82202 10090 20070 30228 40351 52004 60006 885// 91200=
07110,1998-02-26 15:00:00,10,1033.2,-1.8,82,7,8000,7.408,,,230,,,,,,,,,,,wg-a,,,,AAXX 26154 07110 12/58 /2304 10100 20070 30210 40332 56018 60006 91500=
07110,1998-02-27 00:00:00,8,1032.2,-0.9,100,8,6000,7.408,,,240,,,,,,,,,,,wg-a,,,,AAXX 27004 07110 12256 82404 10080 20080 30199 40322 58009 60006 885// 90000=
07110,1998-02-27 03:00:00,9,1030.7,-1.4,76,5,10000,11.112,,,220,,,,,,,,,,,wg-a,,,,AAXX 27034 07110 12560 82206 10090 20050 30185 40307 58014 60006 885// 90300=
07110,1998-02-27 06:00:00,9,1028.7,-2,81,6,12000,11.112,,,220,8.2,9.1,,,,,,,,,wg-a,,,,AAXX 27064 07110 02562 72206 10090 20060 30165 40287 56020 60006 875// 90600 333 10091 20082 60004=
07110,1998-02-27 09:00:00,8,1028.7,0,100,8,2500,14.816,,,230,,,,0,,,,,,51,wg-a,,,,AAXX 27094 07110 12225 72308 10080 20080 30165 40287 50000 60007 75165 875// 90900=
07110,1998-02-27 12:00:00,10,1027.5,-1.1,93,9,10000,22.224,,,230,,,,1,,,,,,21,wg-a,,,,AAXX 27124 07110 02360 72312 10100 20090 30154 40275 58011 60016 72165 875// 91200 333 60017=
07110,1998-02-27 15:00:00,9,1025.2,-2.3,93,8,4000,14.816,,,260,,,,1,,,,,,51,wg-a,,,,AAXX 27154 07110 12240 72608 10090 20080 30131 40252 57023 60017 75165 875// 91500=
07110,1998-02-27 18:00:00,9,1023.9,-1.3,93,8,8000,11.112,,,240,8.3,9.9,,,,,,,,3,wg-a,,,,AAXX 27184 07110 02458 72406 10090 20080 30118 40239 56013 60006 70365 875// 91800 333 10099 20083 61000=
07110,1998-02-27 21:00:00,9,1023.1,-0.8,81,6,15000,22.224,,,260,,,,,,,,,,,wg-a,,,,AAXX 27214 07110 12465 72612 10090 20060 30110 40231 58008 60006 865// 92100=
07110,1998-02-28 00:00:00,9,1021.6,-1.5,76,5,15000,18.52,,,250,,,,,,,,,,,wg-a,,,,AAXX 28004 07110 12565 82510 10090 20050 30095 40216 56015 60006 878// 90000=
07110,1998-02-28 03:00:00,9,1020,-1.6,81,6,15000,22.224,,38.892,250,,,,,,,,,,,wg-a,,,,AAXX 28034 07110 12565 82512 10090 20060 30079 40200 56016 60006 878// 90300 333 91021=
07110,1998-02-28 06:00:00,8,1018.9,-1.1,93,7,10000,14.816,,,270,7.5,9,,,,,,,,61,wg-a,,,,AAXX 28064 07110 02660 82708 10080 20070 30068 40189 56011 61000 76186 875// 90600 333 10090 20075 6002=
07110,1998-02-28 09:00:00,8,1020.4,1.4,87,6,15000,14.816,,,320,,,,1,,,,,,21,wg-a,,,,AAXX 28094 07110 12465 73208 10080 20060 30082 40204 53014 60017 72162 878// 90900=
07110,1998-02-28 12:00:00,9,1021.3,1,76,5,15000,14.816,,,330,,,,,,,,,,3,wg-a,,,,AAXX 28124 07110 12565 73308 10090 20050 30092 40213 51010 60016 70362 878// 91200=
07110,1998-02-28 15:00:00,9,1020.6,-0.7,57,1,25000,18.52,,,320,,,,,,,,,,,wg-a,,,,AAXX 28154 07110 12575 /3210 10090 20010 30085 40206 55007 60006 86801 91500=
07110,1998-02-28 18:00:00,6,1021.1,0.4,87,4,12000,3.704,,,270,6,9.2,,,,,,,,25,wg-a,,,,AAXX 28184 07110 02462 62702 10060 20040 30089 40211 52004 61000 72586 85801 91800 333 10092 20060 6000=
07110,1998-02-28 21:00:00,5,1021,-0.2,93,4,12000,3.704,,,320,,,,,,,,,,25,wg-a,,,,AAXX 28214 07110 02462 73202 10050 20040 30087 40210 57002 61000 72586 878// 92100 333 ////=
07110,1998-03-01 00:00:00,3,1020.3,-0.8,100,3,10000,7.408,,,170,,,,,,,,,,3,wg-a,,,,AAXX 01004 07110 02560 41704 10030 20030 30079 40203 58008 61000 70386 84500 90000 333 ////=
07110,1998-03-01 03:00:00,4,1019.2,-1,93,3,20000,11.112,,,190,,,,,,,,,,,wg-a,,,,AAXX 01034 07110 12570 31906 10040 20030 30069 40192 58010 60006 83800 90300=
07110,1998-03-01 06:00:00,5,1018.8,-0.3,93,4,12000,7.408,,,240,3,6,,,,,2,,,1,wg-a,,,,AAXX 01064 07110 02562 42404 10050 20040 30066 40188 55003 60006 70186 84800 90600 333 10060 20030 60024=
07110,1998-03-01 09:00:00,8,1019.6,0.9,87,6,20000,11.112,,,230,,,,0,,,,,,1,wg-a,,,,AAXX 01094 07110 12570 52306 10080 20060 30075 40196 53009 60007 70186 83802 90900=
07110,1998-03-01 12:00:00,10,1020.2,0.7,82,7,15000,22.224,,,250,,,,0,,,,,,25,wg-a,,,,AAXX 01124 07110 02565 72512 10100 20070 30082 40202 51007 60016 72586 85301 91200 333 60007=
07110,1998-03-01 15:00:00,11,1019.6,-0.6,76,7,20000,18.52,,,270,,,,0,,,,,,1,wg-a,,,,AAXX 01154 07110 12570 /2710 10110 20070 30076 40196 58006 60007 70186 85801 91500=
07110,1998-03-01 18:00:00,8,1020.2,0.5,87,6,20000,11.112,,,230,5.1,10.9,,,,,,,,25,wg-a,,,,AAXX 01184 07110 02570 72306 10080 20060 30081 40202 53005 61000 72586 85801 91800 333 10109 20051 6000=
07110,1998-03-01 21:00:00,7,1021.1,0.8,93,6,20000,7.408,,,250,,,,0,,,,,,1,wg-a,,,,AAXX 01214 07110 12570 72504 10070 20060 30089 40211 53008 60007 70186 85801 92100=
07110,1998-03-02 00:00:00,7,1021.4,0.3,93,6,20000,11.112,,,230,,,,0,,,,,,3,wg-a,,,,AAXX 02004 07110 02470 42306 10070 20060 30092 40214 52003 60016 70386 84800 90000 333 60007=
07110,1998-03-02 03:00:00,8,1020.4,-1,87,6,11000,11.112,,,230,,,,,,,,,,,wg-a,,,,AAXX 02034 07110 32/61 /2306 10080 20060 30082 40204 58010 90300=
07110,1998-03-02 06:00:00,8,1020.2,-0.1,93,7,10000,11.112,,,210,6.7,8.3,,,,,2,,,1,wg-a,,,,AAXX 02064 07110 02560 72106 10080 20070 30081 40202 57001 60006 70186 878// 90600 333 10083 20067 60024=
07110,1998-03-02 09:00:00,10,1020.2,-0,82,7,10000,14.816,,,200,,,,,,,,,,,wg-a,,,,AAXX 02094 07110 12560 72008 10100 20070 30081 40202 55000 60006 878// 90900=
07110,1998-03-02 15:00:00,12,1017.2,-2.3,82,9,12000,35.188,,55.56,200,,,,0,,,,,,,wg-a,,,,AAXX 02154 07110 12462 72019 10120 20090 30053 40172 56023 60007 878// 91500 333 91030=
07110,1998-03-02 18:00:00,10,1015.1,-2.2,87,8,10000,31.484,,53.708,190,8.3,11.8,,,,,,,,,wg-a,,,,AAXX 02184 07110 12460 71917 10100 20080 30031 40151 56022 60006 878// 91800 333 10118 20083 91029=
07110,1998-03-02 21:00:00,10,1013.2,-1.9,93,9,4000,31.484,,,190,,,,2,,,,,,61,wg-a,,,,AAXX 02214 07110 12340 81917 10100 20090 30012 40132 56019 60027 76162 8672/ 92100=
07110,1998-03-03 00:00:00,11,1011.5,-1.6,100,11,2000,31.484,,57.412,200,,,,3,,,,,,61,wg-a,,,,AAXX 03004 07110 02120 82017 10110 20110 39996 40115 58016 60066 76162 887// 90000 333 60037 91031=
07110,1998-03-03 03:00:00,12,1009.6,-1.8,100,12,3000,31.484,,61.116,210,,,,,,,,,,58,wg-a,,,,AAXX 03034 07110 02130 82117 10120 20120 39978 40096 56018 61000 75865 887// 90300 333 //// 91033=
07110,1998-03-03 06:00:00,12,1007.8,-1.8,100,12,1100,35.188,,55.56,200,10,12,,,,,6,,,10,wg-a,,,,AAXX 03064 07110 02111 82019 10120 20120 39960 40078 56018 60006 71065 886// 90600 333 10120 20100 60064 91030=
07110,1998-03-03 09:00:00,13,1008.2,0.4,94,12,2000,38.892,,57.412,220,,,,0,,,,,,10,wg-a,,,,AAXX 03094 07110 12120 /2221 10130 20120 39964 40082 53004 60007 71052 876// 90900 333 91031=
07110,1998-03-03 12:00:00,12,1009,0.8,100,12,1500,31.484,,57.412,220,,,,1,,,,,,10,wg-a,,,,AAXX 03124 07110 02115 82217 10120 20120 39972 40090 51008 60016 71065 886// 91200 333 60017 91031=
07110,1998-03-03 15:00:00,13,1007.6,-1.4,94,12,1500,35.188,,57.412,210,,,,4,,,,,,10,wg-a,,,,AAXX 03154 07110 12115 82119 10130 20120 39958 40076 58014 60047 71065 886// 91500 333 91031=
07110,1998-03-03 18:00:00,13,1006.5,-1.1,82,10,6000,35.188,,,200,11.9,12.9,,,,,,,,1,wg-a,,,,AAXX 03184 07110 02756 72019 10130 20100 39947 40065 58011 61000 70165 8553/ 91800 333 10129 20119 ////=
07110,1998-03-03 21:00:00,13,1004.4,-2,77,9,7000,38.892,,57.412,200,,,,,,,,,,,wg-a,,,,AAXX 03214 07110 12557 72021 10130 20090 39927 40044 58020 60006 8453/ 92100 333 91031=
07110,1998-03-04 00:00:00,12,1002.1,-2.3,94,11,500,42.596,,74.08,210,,,,3,,,,,,61,wg-a,,,,AAXX 04004 07110 02200 82123 10120 20110 39904 40021 56023 60036 76162 875// 90000 333 60037 91040=
07110,1998-03-04 03:00:00,13,1001.3,-0.8,94,12,500,42.596,,62.968,210,,,,0,,,,,,60,wg-a,,,,AAXX 04034 07110 12200 82123 10130 20120 39896 40013 56008 60007 76062 875// 90300 333 91034=
07110,1998-03-04 06:00:00,12,999.7,-1.6,100,12,500,31.484,,55.56,220,11.8,13.4,,,,,,,,63,wg-a,,,,AAXX 04064 07110 02300 82217 10120 20120 39880 49997 55016 61000 76362 877// 90600 333 10134 20118 6014 91030=
07110,1998-03-04 09:00:00,9,1002.6,2.7,100,9,6000,18.52,,,310,,,,4,,,,,,1,wg-a,,,,AAXX 04094 07110 12256 83110 10090 20090 39907 40026 53027 60047 70162 875// 90900=
07110,1998-03-04 12:00:00,9,1006.9,4.3,81,6,10000,18.52,,,290,,,,,,,,,,3,wg-a,,,,AAXX 04124 07110 12460 72910 10090 20060 39950 40069 51043 60006 70365 878// 91200=
07110,1998-03-04 15:00:00,10,1008.6,1.7,71,5,18000,25.928,,,270,,,,0,,,,,,,wg-a,,,,AAXX 04154 07110 12568 32714 10100 20050 39967 40086 53017 60007 83200 91500=
07110,1998-03-04 18:00:00,9,1010.2,1.5,71,4,20000,22.224,,42.596,250,8.3,12.3,,,,,,,,,wg-a,,,,AAXX 04184 07110 12570 32512 10090 20040 39982 40102 53015 60006 83800 91800 333 10123 20083 91023=
07110,1998-03-04 21:00:00,8,1012.9,2.7,81,5,10000,31.484,,59.264,260,,,,0,,,,,,81,wg-a,,,,AAXX 04214 07110 12560 62617 10080 20050 30009 40129 53027 60007 78186 86800 92100 333 91032=
07110,1998-03-05 00:00:00,8,1016.6,3.6,66,2,15000,29.632,,48.152,280,,,,,,,,,,3,wg-a,,,,AAXX 05004 07110 02565 32816 10080 20020 30045 40166 52036 60046 70386 83500 90000 333 61000 91026=
07110,1998-03-05 03:00:00,7,1020.2,3.5,70,2,15000,14.816,,,280,,,,,,,,,,,wg-a,,,,AAXX 05034 07110 12665 /2808 10070 20020 30080 40202 53035 60006 81500 90300=
07110,1998-03-05 06:00:00,6,1023.5,3.2,81,3,20000,11.112,,,280,6,8.6,,,,,,,,,wg-a,,,,AAXX 05064 07110 12670 /2806 10060 20030 30112 40235 51032 60006 81500 90600 333 10086 20060=
07110,1998-03-05 09:00:00,9,1025.2,1.8,66,3,15000,11.112,,,220,,,,,,,,,,,wg-a,,,,AAXX 05094 07110 12765 22206 10090 20030 30130 40252 53018 60006 82500 90900=
07110,1998-03-05 12:00:00,11,1025.6,0.5,58,3,20000,25.928,,,210,,,,,,,,,,,wg-a,,,,AAXX 05124 07110 12670 52114 10110 20030 30135 40256 50005 60006 83801 91200=
07110,1998-03-05 15:00:00,10,1024.3,-1.3,76,6,20000,25.928,,,220,,,,,,,,,,21,wg-a,,,,AAXX 05154 07110 02570 52214 10100 20060 30122 40243 58013 61000 72162 84801 91500 333 ////=
07110,1998-03-05 18:00:00,10,1024.4,0.1,76,6,15000,14.816,,,220,5.2,11.6,,,,,,,,1,wg-a,,,,AAXX 05184 07110 32565 72208 10100 20060 30123 40244 53001 70186 84802 91800 333 10116 20052=
07110,1998-03-05 21:00:00,9,1024.4,0,87,7,15000,18.52,,,220,,,,0,,,,,,2,wg-a,,,,AAXX 05214 07110 12565 72210 10090 20070 30123 40244 50000 60007 70286 85802 92100=
07110,1998-03-06 00:00:00,10,1023.1,-1.3,87,8,10000,22.224,,,210,,,,,,,,,,3,wg-a,,,,AAXX 06004 07110 12560 72112 10100 20080 30110 40231 58013 60006 70386 875// 90000=
07110,1998-03-06 03:00:00,9,1021.9,-1.2,93,8,7000,25.928,,44.448,220,,,,,,,,,,60,wg-a,,,,AAXX 06034 07110 02257 82214 10090 20080 30098 40219 58012 61000 76062 877// 90300 333 //// 91024=
07110,1998-03-06 06:00:00,10,1020.9,-0.9,93,9,10000,25.928,,,220,9,10.2,,,,,,,,21,wg-a,,,,AAXX 06064 07110 02460 82214 10100 20090 30089 40209 56009 61000 72162 887// 90600 333 10102 20090 6000=
07110,1998-03-06 09:00:00,11,1021.2,0.3,87,9,10000,25.928,,,220,,,,,,,,,,,wg-a,,,,AAXX 06094 07110 12460 72214 10110 20090 30092 40212 53003 60006 876// 90900=
07110,1998-03-06 12:00:00,11,1020.9,-0.3,87,9,15000,25.928,,,220,,,,,,,,,,,wg-a,,,,AAXX 06124 07110 12465 82214 10110 20090 30089 40209 58003 60006 875// 91200=
07110,1998-03-06 15:00:00,11,1020,-0.9,87,9,15000,25.928,,46.3,230,,,,,,,,,,,wg-a,,,,AAXX 06154 07110 12465 82314 10110 20090 30080 40200 58009 60006 875// 91500 333 91025=
07110,1998-03-06 18:00:00,11,1018.8,-1.2,87,9,15000,25.928,,,220,10.2,11.7,,,,,,,,,wg-a,,,,AAXX 06184 07110 12465 82214 10110 20090 30068 40188 56012 60006 878// 91800 333 10117 20102=
07110,1998-03-06 21:00:00,11,1017.2,-1.6,87,9,10000,29.632,,50.004,210,,,,,,,,,,,wg-a,,,,AAXX 06214 07110 12460 82116 10110 20090 30052 40172 58016 60006 878// 92100 333 91027=
07110,1998-03-07 00:00:00,10,1015.4,-1.8,93,9,8000,31.484,,,220,,,,1,,,,,,61,wg-a,,,,AAXX 07004 07110 02358 82217 10100 20090 30034 40154 58018 60016 76162 877// 90000 333 60017=
07110,1998-03-07 03:00:00,11,1013.4,-1.9,100,11,4000,29.632,,50.004,230,,,,3,,,,,,10,wg-a,,,,AAXX 07034 07110 12140 82316 10110 20110 30015 40134 57019 60037 71066 887// 90300 333 91027=
07110,1998-03-07 06:00:00,11,1013.6,0.2,94,10,10000,25.928,,,250,10.2,11.3,,,,,4,,,1,wg-a,,,,AAXX 07064 07110 02360 82514 10110 20100 30017 40136 53002 60006 70165 887// 90600 333 10113 20102 60044=
07110,1998-03-07 12:00:00,12,1015.1,0.4,88,10,10000,31.484,,55.56,240,,,,,,,,,,80,wg-a,,,,AAXX 07124 07110 02460 62417 10120 20100 30032 40151 50004 61000 78086 86800 91200 333 6100 91030=
07110,1998-03-07 15:00:00,12,1014.8,-0.3,82,9,10000,31.484,,51.856,260,,,,1,,,,,,25,wg-a,,,,AAXX 07154 07110 12560 72617 10120 20090 30029 40148 58003 60017 72586 85801 91500 333 91028=
07110,1998-03-07 18:00:00,11,1015.1,0.3,87,9,12000,25.928,,,250,9.6,12.6,,,,,,,,2,wg-a,,,,AAXX 07184 07110 12562 72514 10110 20090 30032 40151 52003 60006 70286 84832 91800 333 10126 20096=
07110,1998-03-07 21:00:00,10,1015.5,0.3,82,7,15000,25.928,,48.152,270,,,,,,,,,,,wg-a,,,,AAXX 07214 07110 12765 42714 10100 20070 30035 40155 52003 60006 845/0 92100 333 91026=
07110,1998-03-08 00:00:00,10,1015.9,0.4,82,7,15000,22.224,,,260,,,,,,,,,,,wg-a,,,,AAXX 08004 07110 12565 72612 10100 20070 30039 40159 51004 60006 8485/ 90000=
07110,1998-03-08 03:00:00,10,1014.3,-1.6,87,8,10000,14.816,,,260,,,,,,,,,,61,wg-a,,,,AAXX 08034 07110 02460 82608 10100 20080 30023 40143 58016 61000 76162 8557/ 90300 333 ////=
07110,1998-03-08 06:00:00,8,1010.9,-3.4,100,8,8000,7.408,,,180,8.3,10.9,,,,,,,,61,wg-a,,,,AAXX 08064 07110 02358 81804 10080 20080 39989 40109 58034 61000 76162 875// 90600 333 10109 20083 6004=
07110,1998-03-08 09:00:00,8,1010.4,-0.5,100,8,6000,11.112,,,30,,,,6,,,,,,60,wg-a,,,,AAXX 08094 07110 12256 80306 10080 20080 39984 40104 55005 60067 76066 877// 90900=
07110,1998-03-08 12:00:00,10,1012.1,1.8,87,8,15000,7.408,,,20,,,,,,,,,,1,wg-a,,,,AAXX 08124 07110 02465 70204 10100 20080 30002 40121 53018 60066 70162 8683/ 91200 333 61000=
07110,1998-03-08 15:00:00,10,1013.8,1.6,82,7,20000,22.224,,,310,,,,,,,,,,,wg-a,,,,AAXX 08154 07110 12470 /3112 10100 20070 30018 40138 51016 60006 86800 91500=
07110,1998-03-08 18:00:00,9,1015.8,2,87,7,15000,18.52,,,300,7.8,10.6,,,,,,,,,wg-a,,,,AAXX 08184 07110 12465 /3010 10090 20070 30038 40158 53020 60006 86800 91800 333 10106 20078=
07110,1998-03-08 21:00:00,8,1017.9,2,93,7,15000,14.816,,,300,,,,,,,,,,,wg-a,,,,AAXX 08214 07110 12465 43008 10080 20070 30058 40179 51020 60006 84900 92100=
07110,1998-03-09 03:00:00,6,1020.9,1.3,93,5,10000,7.408,,,300,,,,,,,,,,,wg-a,,,,AAXX 09034 07110 12460 33004 10060 20050 30087 40209 52013 60006 83800 90300=
07110,1998-03-09 06:00:00,6,1022.2,1.3,93,5,15000,7.408,,,330,5.4,9.3,,,,,6,,,,wg-a,,,,AAXX 09064 07110 02565 23304 10060 20050 30100 40222 53013 60006 82800 90600 333 10093 20054 60064=
07110,1998-03-09 09:00:00,9,1024.4,2.3,81,6,15000,18.52,,,350,,,,,,,,,,,wg-a,,,,AAXX 09094 07110 12565 43510 10090 20060 30123 40244 52023 60006 84800 90900=
07110,1998-03-09 12:00:00,11,1026.4,2,62,4,20000,11.112,,,340,,,,,,,,,,,wg-a,,,,AAXX 09124 07110 12570 53406 10110 20040 30143 40264 51020 60006 85800 91200=
07110,1998-03-09 18:00:00,10,1028.1,1.3,82,7,15000,7.408,,,50,5.9,11.5,,,,,,,,,wg-a,,,,AAXX 09184 07110 12565 70504 10100 20070 30160 40281 51013 60006 85501 91800 333 10115 20059=
07110,1998-03-09 21:00:00,8,1029.5,1.3,87,6,12000,18.52,,,160,,,,,,,,,,,wg-a,,,,AAXX 09214 07110 12462 71610 10080 20060 30173 40295 51013 60006 875// 92100=
07110,1998-03-10 00:00:00,7,1030.1,0.5,81,4,10000,22.224,,,150,,,,,,,,,,,wg-a,,,,AAXX 10004 07110 12560 /1512 10070 20040 30178 40301 51005 60006 85500 90000=
07110,1998-03-10 03:00:00,6,1029,-1.2,75,2,10000,18.52,,,150,,,,,,,,,,,wg-a,,,,AAXX 10034 07110 12560 /1510 10060 20020 30166 40290 58012 60006 86500 90300=
07110,1998-03-10 06:00:00,7,1027.4,-1.5,81,4,10000,22.224,,,150,5.5,10,,,,,,,,,wg-a,,,,AAXX 10064 07110 02560 81512 10070 20040 30151 40274 58015 60006 8557/ 90600 333 10100 20055 60004=
07110,1998-03-10 09:00:00,8,1025.9,-1.4,93,7,500,29.632,,,180,,,,0,,,,,,60,wg-a,,,,AAXX 10094 07110 12400 81816 10080 20070 30137 40259 57014 60007 76062 877// 90900=
07110,1998-03-10 12:00:00,11,1023.4,-2.4,82,8,10000,29.632,,,190,,,,0,,,,,,1,wg-a,,,,AAXX 10124 07110 02460 81916 10110 20080 30113 40234 58024 60016 70162 8357/ 91200 333 60007=
07110,1998-03-10 15:00:00,9,1020.1,-3.3,100,9,1000,29.632,,,180,,,,2,,,,,,61,wg-a,,,,AAXX 10154 07110 12210 81816 10090 20090 30080 40201 56033 60027 76162 887// 91500=
07110,1998-03-10 18:00:00,11,1017.3,-2.7,94,10,4500,18.52,,,250,6.1,10.6,,,,,,,,21,wg-a,,,,AAXX 10184 07110 02245 72510 10110 20100 30053 40173 56027 61000 72162 875// 91800 333 10106 20061 6004=
07110,1998-03-10 21:00:00,10,1014.9,-2.4,100,10,6000,18.52,,,240,,,,,,,,,,21,wg-a,,,,AAXX 10214 07110 02356 72410 10100 20100 30029 40149 58024 61000 72162 875// 92100 333 ////=
07110,1998-03-11 00:00:00,9,1013.7,-1.2,93,8,8000,11.112,,,280,,,,0,,,,,,80,wg-a,,,,AAXX 11004 07110 02358 72806 10090 20080 30017 40137 57012 60016 78086 875// 90000 333 60007=
07110,1998-03-11 03:00:00,9,1013.6,-0.1,93,8,8000,31.484,,,320,,,,0,,,,,,2,wg-a,,,,AAXX 11034 07110 12458 73217 10090 20080 30016 40136 56001 60007 70286 875// 90300=
07110,1998-03-11 06:00:00,8,1016.9,3.2,81,5,10000,38.892,,61.116,330,8.2,10.6,,,,,,,,25,wg-a,,,,AAXX 11064 07110 02460 73321 10080 20050 30048 40169 52032 61000 72586 878// 90600 333 10106 20082 6008 91033=
07110,1998-03-11 09:00:00,8,1021,4,66,2,10000,35.188,,61.116,340,,,,0,,,,,,25,wg-a,,,,AAXX 11094 07110 12460 73419 10080 20020 30088 40210 51040 60007 72586 87801 90900 333 91033=
07110,1998-03-11 12:00:00,8,1023,2,66,2,20000,38.892,,68.524,340,,,,0,,,,,,1,wg-a,,,,AAXX 11124 07110 02670 73421 10080 20020 30108 40230 53020 60016 70186 878// 91200 333 60007 91037=
07110,1998-03-11 15:00:00,9,1024.1,1.1,57,1,20000,31.484,,51.856,340,,,,,,,,,,,wg-a,,,,AAXX 11154 07110 12670 /3417 10090 20010 30119 40241 53011 60006 86200 91500 333 91028=
07110,1998-03-11 18:00:00,8,1025.9,1.8,71,3,11000,22.224,,,340,6.3,9.1,,,,,,,,,wg-a,,,,AAXX 11184 07110 12/61 /3412 10080 20030 30137 40259 53018 60006 91800 333 10091 20063=
07110,1998-03-11 21:00:00,7,1027.2,1.3,81,4,15000,14.816,,,340,,,,,,,,,,,wg-a,,,,AAXX 11214 07110 12565 43408 10070 20040 30150 40272 51013 60006 84200 92100=
07110,1998-03-12 00:00:00,8,1027.9,0.7,76,4,15000,18.52,,,350,,,,,,,,,,,wg-a,,,,AAXX 12004 07110 12565 43510 10080 20040 30157 40279 51007 60006 84200 90000=
07110,1998-03-12 03:00:00,7,1028.4,0.4,76,3,15000,18.52,,,350,,,,,,,,,,,wg-a,,,,AAXX 12034 07110 12565 33510 10070 20030 30161 40284 51004 60006 83200 90300=
07110,1998-03-12 06:00:00,6,1029.3,0.9,75,2,15000,18.52,,,360,6.4,8,,,,,1,,,,wg-a,,,,AAXX 12064 07110 02565 33610 10060 20020 30170 40293 53009 60006 83200 90600 333 10080 20064 60014=
07110,1998-03-12 09:00:00,9,1031,1.8,66,3,15000,25.928,,,10,,,,,,,,,,,wg-a,,,,AAXX 12094 07110 12665 30114 10090 20030 30188 40310 51018 60006 83200 90900=
07110,1998-03-12 12:00:00,10,1031.3,0.3,62,3,500,22.224,,,360,,,,,,,,,,,wg-a,,,,AAXX 12124 07110 12600 /3612 10100 20030 30191 40313 53003 60006 86800 91200=
07110,1998-03-12 15:00:00,9,1031.3,-0,71,4,500,18.52,,,360,,,,,,,,,,,wg-a,,,,AAXX 12154 07110 12600 /3610 10090 20040 30191 40313 55000 60006 86800 91500=
07110,1998-03-12 18:00:00,8,1031.5,0.1,81,5,500,7.408,,,340,6.2,10.1,,,,,,,,,wg-a,,,,AAXX 12184 07110 12400 73404 10080 20050 30192 40315 53001 60006 878// 91800 333 10101 20062=
07110,1998-03-12 21:00:00,8,1031.3,-0.2,87,6,20000,7.408,,,250,,,,,,,,,,,wg-a,,,,AAXX 12214 07110 12470 72504 10080 20060 30190 40313 56002 60006 878// 92100=
07110,1998-03-13 00:00:00,9,1030.7,-0.5,93,8,10000,7.408,,,310,,,,0,,,,,,20,wg-a,,,,AAXX 13004 07110 02360 /3104 10090 20080 30185 40307 58005 60006 72052 86700 90000 333 60007=
07110,1998-03-13 03:00:00,9,1029.5,-1.2,100,9,10000,14.816,,,320,,,,0,,,,,,51,wg-a,,,,AAXX 13034 07110 12460 83208 10090 20090 30173 40295 56012 60007 75165 875// 90300=
07110,1998-03-13 06:00:00,9,1029.5,-0,93,8,12000,14.816,,,330,7.3,9.5,,,,,,,,21,wg-a,,,,AAXX 13064 07110 02162 83308 10090 20080 30173 40295 55000 61000 72165 872// 90600 333 10095 20073 6001=
07110,1998-03-13 09:00:00,9,1030,0.5,93,8,8000,11.112,,,360,,,,0,,,,,,1,wg-a,,,,AAXX 13094 07110 12458 83606 10090 20080 30178 40300 51005 60007 70165 875// 90900=
07110,1998-03-13 12:00:00,10,1030.7,0.7,87,8,9000,18.52,,,350,,,,0,,,,,,1,wg-a,,,,AAXX 13124 07110 02459 83510 10100 20080 30185 40307 53007 60016 70165 875// 91200 333 60007=
07110,1998-03-13 15:00:00,10,1030,-0.7,87,8,12000,18.52,,,360,,,,,,,,,,1,wg-a,,,,AAXX 13154 07110 02562 73610 10100 20080 30178 40300 56007 61000 70162 878// 91500 333 ////=
07110,1998-03-13 18:00:00,9,1030.6,0.6,87,7,15000,14.816,,,350,8.8,10.6,,,,,,,,1,wg-a,,,,AAXX 13184 07110 12465 73508 10090 20070 30184 40306 53006 60006 70162 878// 91800 333 10106 20088=
07110,1998-03-13 21:00:00,9,1031.8,1.2,87,7,15000,11.112,,,10,,,,,,,,,,,wg-a,,,,AAXX 13214 07110 12465 70106 10090 20070 30196 40318 51012 60006 878// 92100=
07110,1998-03-14 00:00:00,9,1032.1,0.3,81,6,15000,14.816,,,10,,,,,,,,,,,wg-a,,,,AAXX 14004 07110 12465 70108 10090 20060 30199 40321 53003 60006 878// 90000=
07110,1998-03-14 03:00:00,8,1032.3,0.1,81,5,15000,7.408,,,360,,,,,,,,,,,wg-a,,,,AAXX 14034 07110 12565 73604 10080 20050 30200 40323 50001 60006 875// 90300=
07110,1998-03-14 06:00:00,7,1033,0.7,81,4,15000,7.408,,,340,7.1,9.4,,,,,,,,,wg-a,,,,AAXX 14064 07110 02665 73404 10070 20040 30207 40330 53007 60006 875// 90600 333 10094 20071 60004=
07110,1998-03-14 09:00:00,9,1033.8,0.8,76,5,20000,7.408,,,350,,,,,,,,,,,wg-a,,,,AAXX 14094 07110 12570 73504 10090 20050 30215 40338 51008 60006 878// 90900=
07110,1998-03-14 12:00:00,10,1034.6,0.9,76,6,20000,11.112,,,10,,,,,,,,,,,wg-a,,,,AAXX 14124 07110 12470 70106 10100 20060 30224 40346 52009 60006 878// 91200=
07110,1998-03-14 15:00:00,11,1034,-0.6,71,6,18000,7.408,,,350,,,,,,,,,,,wg-a,,,,AAXX 14154 07110 12568 /3504 10110 20060 30218 40340 58006 60006 86800 91500=
07110,1998-03-14 18:00:00,10,1034.5,0.5,82,7,15000,11.112,,,20,7,11.2,,,,,,,,,wg-a,,,,AAXX 14184 07110 12565 60206 10100 20070 30223 40345 53005 60006 85801 91800 333 10112 20070=
07110,1998-03-14 21:00:00,7,1035.7,1,93,6,15000,3.704,,,350,,,,,,,,,,,wg-a,,,,AAXX 14214 07110 12/65 03502 10070 20060 30233 40357 51010 60006 80000 92100=
07110,1998-03-15 00:00:00,6,1036,0.3,93,5,500,7.408,,,20,,,,,,,,,,,wg-a,,,,AAXX 15004 07110 12500 /0204 10060 20050 30236 40360 50003 60006 81500 90000=
07110,1998-03-15 03:00:00,8,1035.4,-0.5,87,6,6000,3.704,,,320,,,,,,,,,,,wg-a,,,,AAXX 15034 07110 12556 73202 10080 20060 30231 40354 58005 60006 875// 90300=
07110,1998-03-15 06:00:00,8,1035.8,0.4,87,6,8000,3.704,,,350,5.8,9.8,,,,,,,,,wg-a,,,,AAXX 15064 07110 02558 83502 10080 20060 30235 40358 53004 60006 875// 90600 333 10098 20058 60004=
07110,1998-03-15 09:00:00,8,1036.6,0.8,87,6,8000,7.408,,,330,,,,,,,,,,,wg-a,,,,AAXX 15094 07110 12458 83304 10080 20060 30243 40366 53008 60006 875// 90900=
07110,1998-03-15 12:00:00,9,1036.7,0.1,81,6,10000,14.816,,,350,,,,,,,,,,,wg-a,,,,AAXX 15124 07110 12460 83508 10090 20060 30244 40367 50001 60006 885// 91200=
07110,1998-03-15 15:00:00,10,1035.8,-0.9,76,6,10000,14.816,,,10,,,,,,,,,,,wg-a,,,,AAXX 15154 07110 12460 70108 10100 20060 30235 40358 58009 60006 875// 91500=
07110,1998-03-15 18:00:00,8,1035.5,-0.3,87,6,8000,11.112,,,10,7.7,9.7,,,,,,,,,wg-a,,,,AAXX 15184 07110 12458 80106 10080 20060 30232 40355 55003 60006 885// 91800 333 10097 20077=
07110,1998-03-15 21:00:00,8,1035.9,0.4,87,6,8000,7.408,,,20,,,,,,,,,,,wg-a,,,,AAXX 15214 07110 12458 80204 10080 20060 30236 40359 51004 60006 885// 92100=
07110,1998-03-16 00:00:00,8,1035,-0.9,87,6,8000,11.112,,,20,,,,,,,,,,,wg-a,,,,AAXX 16004 07110 12458 80206 10080 20060 30227 40350 58009 60006 885// 90000=
07110,1998-03-16 06:00:00,7,1034.1,-0.1,93,6,8000,3.704,,,30,7.4,8.3,,,,,,,,,wg-a,,,,AAXX 16064 07110 02458 80302 10070 20060 30218 40341 56001 60006 885// 90600 333 10083 20074 60004=
07110,1998-03-16 09:00:00,8,1034.7,0.6,87,6,7000,3.704,,,150,,,,,,,,,,,wg-a,,,,AAXX 16094 07110 12457 81502 10080 20060 30224 40347 52006 60006 885// 90900=
07110,1998-03-16 12:00:00,9,1034.4,-0.3,81,6,7000,3.704,,,350,,,,,,,,,,,wg-a,,,,AAXX 16124 07110 12457 83502 10090 20060 30221 40344 58003 60006 875// 91200=
07110,1998-03-16 15:00:00,11,1033.4,-0.9,71,6,6000,11.112,,,340,,,,,,,,,,,wg-a,,,,AAXX 16154 07110 12456 73406 10110 20060 30212 40334 56009 60006 875// 91500=
07110,1998-03-16 18:00:00,8,1033.6,0.1,81,5,7000,11.112,,,360,7.4,11.4,,,,,,,,,wg-a,,,,AAXX 16184 07110 12457 73606 10080 20050 30213 40336 52001 60006 875// 91800 333 10114 20074=
07110,1998-03-17 00:00:00,7,1033.6,-0.4,87,5,12000,7.408,,,40,,,,,,,,,,,wg-a,,,,AAXX 17004 07110 12462 80404 10070 20050 30213 40336 57004 60006 875// 90000=
07110,1998-03-17 03:00:00,7,1033.7,-0,87,5,12000,7.408,,,40,,,,,,,,,,,wg-a,,,,AAXX 17034 07110 12462 70404 10070 20050 30213 40337 55000 60006 875// 90300=
07110,1998-03-17 06:00:00,7,1034,0.4,87,5,15000,3.704,,,60,6.5,8.1,,,,,,,,,wg-a,,,,AAXX 17064 07110 02465 80602 10070 20050 30217 40340 53004 60006 885// 90600 333 10081 20065 60004=
07110,1998-03-17 09:00:00,9,1034.9,0.9,76,5,15000,7.408,,,60,,,,,,,,,,,wg-a,,,,AAXX 17094 07110 12565 70604 10090 20050 30226 40349 51009 60006 875// 90900=
07110,1998-03-17 12:00:00,11,1035,0.2,71,6,11000,9.26,,,360,,,,,,,,,,,wg-a,,,,AAXX 17124 07110 12/61 /3605 10110 20060 30228 40350 52002 60006 91200=
07110,1998-03-17 15:00:00,11,1034.4,-0.6,71,6,11000,14.816,,,10,,,,,,,,,,,wg-a,,,,AAXX 17154 07110 32/61 /0108 10110 20060 30222 40344 56006 91500=
07110,1998-03-17 18:00:00,9,1035,0.4,76,5,15000,14.816,,,10,,,,,,,,,,,wg-a,,,,AAXX 17184 07110 12465 /0108 10090 20050 30232 40350 53004 60006 85500 91800=
07110,1998-03-17 21:00:00,7,1036.2,1.1,81,4,11000,3.704,,,40,,,,,,,,,,,wg-a,,,,AAXX 17214 07110 12/61 /0402 10070 20040 30243 40362 51011 60006 92100=
07110,1998-03-18 00:00:00,6,1036.7,0.5,87,4,15000,3.704,,,20,,,,,,,,,,,wg-a,,,,AAXX 18004 07110 12565 70202 10060 20040 30248 40367 51005 60006 875// 90000=
07110,1998-03-18 03:00:00,8,1036.6,-0,87,6,15000,3.704,,,30,,,,,,,,,,,wg-a,,,,AAXX 18034 07110 12565 70302 10080 20060 30248 40366 55000 60006 875// 90300=
07110,1998-03-18 09:00:00,9,1038.3,,87,7,15000,11.112,,,50,,,,,,,,,,,wg-a,,,,AAXX 18094 07110 32465 70506 10090 20070 30265 40383 875// 90900=
07110,1998-03-18 12:00:00,10,1038.9,0.6,82,7,15000,11.112,,,50,,,,,,,,,,,wg-a,,,,AAXX 18124 07110 12465 70506 10100 20070 30271 40389 51006 60006 875// 91200=
07110,1998-03-18 18:00:00,9,1038.4,0.1,81,6,15000,11.112,,,30,8.7,10.3,,,,,,,,,wg-a,,,,AAXX 18184 07110 12565 /0306 10090 20060 30266 40384 51001 60006 85500 91800 333 10103 20087=
07110,1998-03-18 21:00:00,6,1039.5,1,93,5,10000,7.408,,,20,,,,,,,,,,,wg-a,,,,AAXX 18214 07110 12460 /0204 10060 20050 30276 40395 52010 60006 81500 92100=
07110,1998-03-19 00:00:00,5,1040.2,0.6,93,4,10000,7.408,,,50,,,,,,,,,,,wg-a,,,,AAXX 19004 07110 12/60 00504 10050 20040 30282 40402 50006 60006 80000 90000=
07110,1998-03-19 03:00:00,4,1040.3,-0,93,3,10000,7.408,,,60,,,,,,,,,,,wg-a,,,,AAXX 19034 07110 12/60 00604 10040 20030 30282 40403 54000 60006 80000 90300=
07110,1998-03-19 06:00:00,4,1040.8,0.5,93,3,6000,7.408,,,70,3.4,9,,,,,,,,11,wg-a,,,,AAXX 19064 07110 12/56 /0704 10040 20030 30287 40408 53005 60006 71100 80000 90600 333 10090 20034=
07110,1998-03-19 09:00:00,7,1041.9,1.3,100,7,3000,11.112,,,70,,,,,,,,,,10,wg-a,,,,AAXX 19094 07110 12/30 /0706 10070 20070 30300 40419 52013 60006 71040 80001 90900=
07110,1998-03-19 12:00:00,12,1041.6,-0.1,76,8,6000,18.52,,,50,,,,,,,,,,1,wg-a,,,,AAXX 19124 07110 12556 40510 10120 20080 30299 40416 58001 60006 70140 84200 91200=
07110,1998-03-19 15:00:00,13,1040.4,-1.2,67,7,8000,18.52,,,40,,,,,,,,,,,wg-a,,,,AAXX 19154 07110 12/58 /0410 10130 20070 30287 40404 56012 60006 91500=
07110,1998-03-19 18:00:00,9,1040.8,0.3,66,3,15000,14.816,,,30,3.6,13.6,,,,,,,,,wg-a,,,,AAXX 19184 07110 12/65 40308 10090 20030 30290 40408 53003 60006 80001 91800 333 10136 20036=
07110,1998-03-19 21:00:00,6,1041.2,0.2,93,5,10000,11.112,,,30,,,,,,,,,,,wg-a,,,,AAXX 19214 07110 12/60 30306 10060 20050 30292 40412 50002 60006 80001 92100=
07110,1998-03-20 00:00:00,5,1041.2,0,93,4,10000,7.408,,,40,,,,,,,,,,,wg-a,,,,AAXX 20004 07110 12/60 00404 10050 20040 30292 40412 50000 60006 80000 90000=
07110,1998-03-20 03:00:00,4,1040.6,-0.7,93,3,10000,11.112,,,40,,,,,,,,,,,wg-a,,,,AAXX 20034 07110 12/60 00406 10040 20030 30285 40406 56007 60006 80000 90300=
07110,1998-03-20 06:00:00,5,1040.3,-0.2,93,4,6000,11.112,,,60,3.4,9.2,,,,,,,,,wg-a,,,,AAXX 20064 07110 02/56 00606 10050 20040 30283 40403 55002 60006 80000 90600 333 10092 20034 60004=
07110,1998-03-20 09:00:00,9,1040.2,0.1,81,6,8000,14.816,,,60,,,,,,,,,,,wg-a,,,,AAXX 20094 07110 12/58 00608 10090 20060 30284 40402 53001 60006 80000 90900=
07110,1998-03-20 12:00:00,12,1039.4,-0.7,58,4,12000,14.816,,,60,,,,,,,,,,,wg-a,,,,AAXX 20124 07110 12/62 00608 10120 20040 30277 40394 58007 60006 80000 91200=
07110,1998-03-20 15:00:00,12,1037.6,-1.8,67,6,12000,22.224,,,30,,,,,,,,,,,wg-a,,,,AAXX 20154 07110 12562 /0312 10120 20060 30259 40376 57018 60006 81100 91500=
07110,1998-03-20 18:00:00,10,1037.3,-0.4,66,4,8000,11.112,,,40,4.8,13.3,,,,,,,,,wg-a,,,,AAXX 20184 07110 12/58 00406 10100 20040 30255 40373 55004 60006 80000 91800 333 10133 20048=
07110,1998-03-20 21:00:00,7,1037.7,0.3,87,5,8000,7.408,,,40,,,,,,,,,,,wg-a,,,,AAXX 20214 07110 12658 /0404 10070 20050 30258 40377 52003 60006 81500 92100=
07110,1998-03-21 00:00:00,6,1037.2,-0.6,93,5,7000,7.408,,,60,,,,,,,,,,,wg-a,,,,AAXX 21004 07110 12/57 00604 10060 20050 30252 40372 58006 60006 80000 90000=
07110,1998-03-21 03:00:00,5,1036.1,-1.1,93,4,7000,3.704,,,40,,,,,,,,,,,wg-a,,,,AAXX 21034 07110 12/57 00402 10050 20040 30241 40361 57011 60006 80000 90300=
07110,1998-03-21 06:00:00,5,1035.6,-0.5,93,4,500,7.408,,,60,4.1,9.6,,,,,,,,,wg-a,,,,AAXX 21064 07110 02500 20604 10050 20040 30236 40356 57005 60006 81501 90600 333 10096 20041 60004=
07110,1998-03-21 09:00:00,9,1035.8,0.4,81,6,500,14.816,,,70,,,,,,,,,,,wg-a,,,,AAXX 21094 07110 12400 40708 10090 20060 30240 40358 50004 60006 81101 90900=
07110,1998-03-21 12:00:00,12,1034.6,-1,71,7,8000,14.816,,,70,,,,,,,,,,,wg-a,,,,AAXX 21124 07110 12558 50708 10120 20070 30230 40346 58010 60006 84801 91200=
07110,1998-03-21 15:00:00,13,1033.4,-1.2,58,5,10000,14.816,,,70,,,,,,,,,,,wg-a,,,,AAXX 21154 07110 12660 /0708 10130 20050 30218 40334 56012 60006 86500 91500=
07110,1998-03-21 18:00:00,10,1033.6,0.1,71,5,10000,14.816,,,60,4.6,13.4,,,,,,,,,wg-a,,,,AAXX 21184 07110 12660 40608 10100 20050 30219 40336 53001 60006 84500 91800 333 10134 20046=
07110,1998-03-21 21:00:00,6,1034.5,0.7,81,3,15000,7.408,,,60,,,,,,,,,,,wg-a,,,,AAXX 21214 07110 12/65 00604 10060 20030 30226 40345 53007 60006 80000 92100=
07110,1998-03-22 00:00:00,7,1034.4,0,76,3,15000,7.408,,,60,,,,,,,,,,,wg-a,,,,AAXX 22004 07110 12665 70604 10070 20030 30226 40344 50000 60006 87500 90000=
07110,1998-03-22 03:00:00,8,1033.4,-1,81,5,15000,11.112,,,50,,,,,,,,,,,wg-a,,,,AAXX 22034 07110 12665 80506 10080 20050 30216 40334 57010 60006 885// 90300=
07110,1998-03-22 06:00:00,8,1033.3,-0.1,87,6,10000,11.112,,,60,5.2,10.3,,,,,,,,,wg-a,,,,AAXX 22064 07110 02560 80606 10080 20060 30215 40333 55001 60006 885// 90600 333 10103 20052 60004=
07110,1998-03-22 09:00:00,8,1034,0.7,87,6,10000,11.112,,,60,,,,,,,,,,,wg-a,,,,AAXX 22094 07110 12460 80606 10080 20060 30222 40340 53007 60006 888// 90900=
07110,1998-03-22 12:00:00,9,1033.6,-0.4,76,5,11000,14.816,,,70,,,,,,,,,,,wg-a,,,,AAXX 22124 07110 12/61 /0708 10090 20050 30218 40336 58004 60006 91200=
07110,1998-03-22 15:00:00,10,1032.1,-1.4,71,5,15000,18.52,,,50,,,,,,,,,,,wg-a,,,,AAXX 22154 07110 12565 70510 10100 20050 30204 40321 56014 60006 878// 91500=
07110,1998-03-22 18:00:00,9,1031.8,-0.3,87,7,15000,11.112,,,50,7.5,10.4,,,,,,,,,wg-a,,,,AAXX 22184 07110 12565 /0506 10090 20070 30201 40318 55003 60006 86500 91800 333 10104 20075=
07110,1998-03-22 21:00:00,5,1032.8,0.8,93,4,15000,11.112,,,40,,,,,,,,,,,wg-a,,,,AAXX 22214 07110 12765 10406 10050 20040 30209 40328 52008 60006 81500 92100=
07110,1998-03-23 00:00:00,5,1032.8,0,93,4,10000,11.112,,,60,,,,,,,,,,,wg-a,,,,AAXX 23004 07110 12/60 /0606 10050 20040 30209 40328 50000 60006 90000=
07110,1998-03-23 03:00:00,3,1032.3,-0.6,100,3,500,7.408,,,50,,,,,,,,,,,wg-a,,,,AAXX 23034 07110 12/00 00504 10030 20030 30203 40323 58006 60006 80000 90300=
07110,1998-03-23 06:00:00,3,1032.1,-0.2,100,3,500,11.112,,,60,2.3,9.3,,,,,,,,42,wg-a,,,,AAXX 23064 07110 02/05 00606 10030 20030 30201 40321 57002 60006 74240 80000 90600 333 10093 20023 60004=
07110,1998-03-23 09:00:00,7,1032.5,0.6,93,6,3000,7.408,,,60,,,,,,,,,,10,wg-a,,,,AAXX 23094 07110 12/30 00604 10070 20060 30207 40325 51006 60006 71040 80000 90900=
07110,1998-03-23 12:00:00,12,1031.5,-0.8,54,3,10000,7.408,,,160,,,,,,,,,,2,wg-a,,,,AAXX 23124 07110 12560 21604 10120 20030 30199 40315 58008 60006 70240 82200 91200=
07110,1998-03-23 15:00:00,12,1030.2,-1.3,67,6,10000,14.816,,,360,,,,,,,,,,,wg-a,,,,AAXX 23154 07110 12660 43608 10120 20060 30186 40302 56013 60006 84200 91500=
07110,1998-03-23 18:00:00,9,1030.8,0.5,76,5,10000,11.112,,,10,3.1,14,,,,,,,,,wg-a,,,,AAXX 23184 07110 12660 40106 10090 20050 30191 40308 53005 60006 84200 91800 333 10140 20031=
07110,1998-03-24 00:00:00,4,1031.4,0,93,3,15000,3.704,,,210,,,,,,,,,,,wg-a,,,,AAXX 24004 07110 12/65 02102 10040 20030 30194 40314 50000 60006 80000 90000=
07110,1998-03-24 03:00:00,5,1030.3,-1,100,5,15000,3.704,,,200,,,,,,,,,,,wg-a,,,,AAXX 24034 07110 12665 72002 10050 20050 30184 40303 58010 60006 875// 90300=
07110,1998-03-24 06:00:00,7,1030.5,0.3,93,6,15000,7.408,,,220,3.4,9.2,,,,,,,,,wg-a,,,,AAXX 24064 07110 02665 72204 10070 20060 30187 40305 53003 60006 875// 90600 333 10092 20034 60004=
07110,1998-03-24 09:00:00,7,1031.8,1.3,93,6,6000,3.704,,,130,,,,,,,,,,20,wg-a,,,,AAXX 24094 07110 02256 81302 10070 20060 30200 40318 51013 61000 72052 875// 90900 333 ////=
07110,1998-03-24 12:00:00,10,1032,0.3,71,5,12000,3.704,,,10,,,,,,,,,,1,wg-a,,,,AAXX 24124 07110 02562 80102 10100 20050 30203 40320 52003 61000 70152 878// 91200 333 ////=
07110,1998-03-24 15:00:00,10,1031.5,-0.5,66,4,15000,7.408,,,340,,,,,,,,,,,wg-a,,,,AAXX 24154 07110 12565 83404 10100 20040 30198 40315 56005 60006 878// 91500=
07110,1998-03-24 18:00:00,9,1031.9,0.4,81,6,12000,3.704,,,350,6.5,10.3,,,,,,,,,wg-a,,,,AAXX 24184 07110 12662 83502 10090 20060 30202 40319 53004 60006 875// 91800 333 10103 20065=
07110,1998-03-24 21:00:00,8,1032,-0,87,6,12000,0,,,0,,,,,,,,,,,wg-a,,,,AAXX 24214 07110 12662 80000 10080 20060 30202 40320 55000 60006 875// 92100=
07110,1998-03-25 00:00:00,7,1031.4,-0.6,87,5,12000,3.704,,,170,,,,,,,,,,,wg-a,,,,AAXX 25004 07110 12662 /1702 10070 20050 30196 40314 56006 60006 86500 90000=
07110,1998-03-25 03:00:00,7,1030,-1.4,93,6,12000,7.408,,,180,,,,,,,,,,,wg-a,,,,AAXX 25034 07110 12662 81804 10070 20060 30182 40300 58014 60006 885// 90300=
07110,1998-03-25 06:00:00,8,1029.4,-0.6,93,7,7000,11.112,,,170,6.9,9.1,,,,,,,,61,wg-a,,,,AAXX 25064 07110 02457 81706 10080 20070 30176 40294 56006 61000 76162 888// 90600 333 10091 20069 6000=
07110,1998-03-25 09:00:00,8,1028.8,-0.5,100,8,2000,11.112,,,190,,,,,,,,,,,wg-a,,,,AAXX 25094 07110 32/20 /1906 10080 20080 30171 40288 57005 90900=
07110,1998-03-25 12:00:00,11,1027.6,-1.1,76,7,9000,14.816,,,240,,,,,,,,,,1,wg-a,,,,AAXX 25124 07110 12459 72408 10110 20070 30160 40276 58011 60016 70162 875// 91200=
07110,1998-03-25 15:00:00,11,1026.3,-1.3,76,7,12000,18.52,,,240,,,,,,,,,,,wg-a,,,,AAXX 25154 07110 12462 82410 10110 20070 30147 40263 58013 60006 875// 91500=
07110,1998-03-25 18:00:00,10,1024.8,-1.5,87,8,11000,14.816,,,230,7.5,11.5,,,,,,,,,wg-a,,,,AAXX 25184 07110 12/61 /2308 10100 20080 30132 40248 57015 60006 91800 333 10115 20075=
07110,1998-03-25 21:00:00,10,1024,-0.8,87,8,8000,14.816,,,220,,,,,,,,,,,wg-a,,,,AAXX 25214 07110 12458 82208 10100 20080 30124 40240 58008 60006 878// 92100=
07110,1998-03-26 00:00:00,9,1022.7,-1.3,93,8,8000,14.816,,,220,,,,0,,,,,,60,wg-a,,,,AAXX 26004 07110 02558 82208 10090 20080 30111 40227 58013 60006 76062 845// 90000 333 60007=
07110,1998-03-26 03:00:00,9,1021,-1.7,93,8,6000,18.52,,,200,,,,1,,,,,,60,wg-a,,,,AAXX 26034 07110 12356 82010 10090 20080 30094 40210 58017 60017 76066 875// 90300=
07110,1998-03-26 06:00:00,9,1020.2,-0.8,93,8,8000,18.52,,,210,8.5,10,,,,,,,,60,wg-a,,,,AAXX 26064 07110 02458 82110 10090 20080 30086 40202 57008 61000 76062 875// 90600 333 10100 20085 6002=
07110,1998-03-26 09:00:00,10,1020,-0.1,93,9,8000,22.224,,,220,,,,,,,,,,21,wg-a,,,,AAXX 26094 07110 02458 82212 10100 20090 30085 40200 55001 61000 72162 875// 90900 333 ////=
07110,1998-03-26 12:00:00,10,1019.1,-0.9,93,9,4000,25.928,,,220,,,,0,,,,,,60,wg-a,,,,AAXX 26124 07110 02340 82214 10100 20090 30076 40191 58009 60016 76062 887// 91200 333 60007=
07110,1998-03-26 15:00:00,10,1018,-1.1,100,10,3000,18.52,,,230,,,,0,,,,,,60,wg-a,,,,AAXX 26154 07110 12230 82310 10100 20100 30065 40180 58011 60007 76062 887// 91500=
07110,1998-03-26 18:00:00,10,1017.9,-0.1,100,10,3000,18.52,,,220,8.9,10.5,,,,,,,,10,wg-a,,,,AAXX 26184 07110 02230 82210 10100 20100 30064 40179 55001 61000 71062 887// 91800 333 10105 20089 6100=
07110,1998-03-26 21:00:00,11,1018.4,0.5,94,10,6000,18.52,,,220,,,,,,,,,,,wg-a,,,,AAXX 26214 07110 12256 82210 10110 20100 30069 40184 50005 60006 887// 92100=
07110,1998-03-27 00:00:00,10,1018,-0.4,93,9,8000,14.816,,,220,,,,,,,,,,,wg-a,,,,AAXX 27004 07110 12258 82208 10100 20090 30065 40180 57004 60006 887// 90000=
07110,1998-03-27 03:00:00,10,1017.5,-0.5,93,9,10000,11.112,,,220,,,,,,,,,,,wg-a,,,,AAXX 27034 07110 12360 82206 10100 20090 30060 40175 58005 60006 887// 90300=
07110,1998-03-27 06:00:00,10,1017.3,-0.2,87,8,15000,11.112,,,210,9.8,10.5,,,,,1,,,,wg-a,,,,AAXX 27064 07110 02465 72106 10100 20080 30058 40173 55002 60006 875// 90600 333 10105 20098 60014=
07110,1998-03-27 09:00:00,12,1018,0.7,82,9,15000,22.224,,,180,,,,,,,,,,,wg-a,,,,AAXX 27094 07110 12465 71812 10120 20090 30065 40180 51007 60006 875// 90900=
07110,1998-03-27 12:00:00,12,1017.9,-0.1,82,9,15000,22.224,,,180,,,,,,,,,,,wg-a,,,,AAXX 27124 07110 12465 71812 10120 20090 30064 40179 58001 60006 875// 91200=
07110,1998-03-27 15:00:00,13,1016.7,-1.1,82,10,15000,25.928,,,200,,,,,,,,,,,wg-a,,,,AAXX 27154 07110 12465 72014 10130 20100 30053 40167 58011 60006 875// 91500=
07110,1998-03-27 18:00:00,12,1014.9,-1.8,76,8,15000,11.112,,,160,10.1,12.7,,,,,,,,,wg-a,,,,AAXX 27184 07110 12/65 71606 10120 20080 30035 40149 56018 60006 8707/ 91800 333 10127 20101=
07110,1998-03-27 21:00:00,11,1014.7,-0.3,82,8,10000,7.408,,,150,,,,,,,,,,,wg-a,,,,AAXX 27214 07110 12760 71504 10110 20080 30032 40147 58003 60006 8757/ 92100=
07110,1998-03-28 00:00:00,10,1015,0.3,76,6,10000,7.408,,,160,,,,0,,,,,,60,wg-a,,,,AAXX 28004 07110 02260 71604 10100 20060 30035 40150 50003 60006 76062 875// 90000 333 60007=
07110,1998-03-28 03:00:00,9,1012,-3,81,6,10000,14.816,,,150,,,,1,,,,,,1,wg-a,,,,AAXX 28034 07110 12760 71508 10090 20060 30005 40120 56030 60017 70162 875// 90300=
07110,1998-03-28 06:00:00,12,1010.7,-1.2,82,9,10000,29.632,,,130,8.5,12,,,,,1,,,3,wg-a,,,,AAXX 28064 07110 02660 71316 10120 20090 39993 40107 55012 60006 70362 875// 90600 333 10120 20085 60014=
07110,1998-03-28 09:00:00,13,1011.7,1.1,82,10,15000,11.112,,,180,,,,,,,,,,,wg-a,,,,AAXX 28094 07110 12565 71806 10130 20100 30004 40117 51011 60006 875// 90900=
07110,1998-03-28 12:00:00,17,1011.1,-0.5,68,11,11000,18.52,,,180,,,,,,,,,,,wg-a,,,,AAXX 28124 07110 12/61 /1810 10170 20110 39999 40111 57005 60006 91200=
07110,1998-03-28 15:00:00,18,1009.4,-1.6,56,9,11000,11.112,,,160,,,,,,,,,,,wg-a,,,,AAXX 28154 07110 12/61 /1606 10180 20090 39983 40094 56016 60006 91500=
07110,1998-03-28 18:00:00,14,1009.4,-0.2,82,11,6000,11.112,,,240,11.8,18.8,,,,,,,,,wg-a,,,,AAXX 28184 07110 12556 32406 10140 20110 39981 40094 55002 60006 82881 91800 333 10188 20118=
07110,1998-03-28 21:00:00,10,1009.1,-0.4,93,9,6000,3.704,,,320,,,,,,,,,,,wg-a,,,,AAXX 28214 07110 12/56 23202 10100 20090 39977 40091 55004 60006 80001 92100=
07110,1998-03-29 00:00:00,9,1007.9,-1.3,93,8,6000,7.408,,,50,,,,,,,,,,,wg-a,,,,AAXX 29004 07110 12/56 20504 10090 20080 39964 40079 57013 60006 80001 90000=
07110,1998-03-29 03:00:00,9,1005.4,-2.4,93,8,6000,7.408,,,100,,,,0,,,,,,,wg-a,,,,AAXX 29034 07110 12/56 71004 10090 20080 39940 40054 58024 60007 85031 90300=
07110,1998-03-29 06:00:00,12,1002.7,-2.6,88,10,6000,14.816,,,120,8.3,14.1,,,,,,,,,wg-a,,,,AAXX 29064 07110 02656 81208 10120 20100 39914 40027 56026 60006 8257/ 90600 333 10141 20083 60004=
07110,1998-03-29 09:00:00,13,1001.3,-1.3,88,11,6000,25.928,,,140,,,,,,,,,,,wg-a,,,,AAXX 29094 07110 12656 81414 10130 20110 39901 40013 58013 60006 8157/ 90900=
07110,1998-03-29 12:00:00,15,1000.1,-1.1,77,11,6000,35.188,,,160,,,,,,,,,,,wg-a,,,,AAXX 29124 07110 12/56 81619 10150 20110 39890 40001 58011 60006 84072 91200=
07110,1998-03-29 18:00:00,15,1002.1,1.4,88,13,7000,18.52,,,160,11.9,15.3,,,,,,,,,wg-a,,,,AAXX 29184 07110 12457 71610 10150 20130 39909 40021 53014 60006 875// 91800 333 10153 20119=
07110,1998-03-29 21:00:00,14,1003.3,1.2,88,12,10000,22.224,,,170,,,,,,,,,,,wg-a,,,,AAXX 29214 07110 12460 71712 10140 20120 39921 40033 51012 60006 875// 92100=
07110,1998-03-30 00:00:00,12,1005.6,2.2,94,11,500,25.928,,48.152,220,,,,0,,,,,,21,wg-a,,,,AAXX 30004 07110 02100 72214 10120 20110 39943 40056 53022 60006 72162 875// 90000 333 60007 91026=
07110,1998-03-30 15:00:00,14,1016.3,0.6,58,6,10000,11.112,,,280,,,,,,,,,,,wg-a,,,,AAXX 30154 07110 12560 42806 10140 20060 30049 40163 50006 60006 83501 91500=
07110,1998-03-30 18:00:00,12,1017.1,0.8,71,7,15000,3.704,,,280,10.5,14.1,,,,,,,,,wg-a,,,,AAXX 30184 07110 12565 22802 10120 20070 30057 40171 53008 60006 81501 91800 333 10141 20105=
07110,1998-03-30 21:00:00,8,1017.9,0.6,87,6,15000,7.408,,,80,,,,,,,,,,,wg-a,,,,AAXX 30214 07110 12/65 20804 10080 20060 30063 40179 51006 60006 80001 92100=
07110,1998-03-31 00:00:00,7,1018.2,0.2,87,5,15000,7.408,,,80,,,,,,,,,,,wg-a,,,,AAXX 31004 07110 12465 30804 10070 20050 30065 40182 52002 60006 83501 90000=
07110,1998-03-31 03:00:00,5,1016.6,-1.6,100,5,15000,7.408,,,90,,,,,,,,,,,wg-a,,,,AAXX 31034 07110 12/65 00904 10050 20050 30049 40166 58016 60006 80000 90300=
07110,1998-03-31 06:00:00,5,1015.5,-1.1,100,5,8000,11.112,,,110,4.5,12.4,,,,,,,,,wg-a,,,,AAXX 31064 07110 02558 /1106 10050 20050 30038 40155 56011 60006 81501 90600 333 10124 20045 60004=
07110,1998-03-31 09:00:00,10,1014.3,-1,87,8,6000,11.112,,,110,,,,,,,,,,1,wg-a,,,,AAXX 31094 07110 12/56 31106 10100 20080 30028 40143 58010 60006 70141 80002 90900=
07110,1998-03-31 12:00:00,14,1012.1,-2,72,9,15000,18.52,,,130,,,,,,,,,,1,wg-a,,,,AAXX 31124 07110 12565 61310 10140 20090 30008 40121 58020 60006 70141 82832 91200=
07110,1998-03-31 15:00:00,17,1010.3,-1.7,59,9,15000,14.816,,,150,,,,,,,,,,,wg-a,,,,AAXX 31154 07110 12565 41508 10170 20090 39991 40103 58017 60006 82832 91500=
07110,1998-03-31 18:00:00,12,1010.6,0.1,94,11,3500,14.816,,,200,4.9,17.4,,,,,,,,10,wg-a,,,,AAXX 31184 07110 12335 72008 10120 20110 39992 40106 53001 60006 71011 875// 91800 333 10174 20049=
07110,1998-03-31 21:00:00,11,1010.7,0.1,94,10,6000,14.816,,,180,,,,,,,,,,,wg-a,,,,AAXX 31214 07110 12356 71808 10110 20100 39993 40107 52001 60006 875// 92100=
07110,1998-04-01 00:00:00,11,1010.7,0,100,11,500,18.52,,,190,,,,,,,,,,,wg-a,,,,AAXX 01004 07110 12200 71910 10110 20110 39993 40107 50000 60006 876// 90000=
07110,1998-04-01 03:00:00,11,1009.9,-0.8,100,11,3000,14.816,,,200,,,,,,,,,,10,wg-a,,,,AAXX 01034 07110 12230 82008 10110 20110 39985 40099 58008 60006 71022 886// 90300=
07110,1998-04-01 06:00:00,11,1009.6,-0.3,94,10,8000,14.816,,,180,10.7,12.2,,,,,,,,,wg-a,,,,AAXX 01064 07110 02258 71808 10110 20100 39982 40096 56003 60006 875// 90600 333 10122 20107 60004=
07110,1998-04-01 09:00:00,12,1009.9,0.3,94,11,6000,22.224,,,210,,,,1,,,,,,1,wg-a,,,,AAXX 01094 07110 12356 72112 10120 20110 39985 40099 53003 60017 70162 875// 90900=
07110,1998-04-01 12:00:00,13,1009.4,-0.4,88,11,10000,22.224,,,190,,,,,,,,,,25,wg-a,,,,AAXX 01124 07110 02460 71912 10130 20110 39981 40094 58004 60016 72586 878// 91200 333 61000=
07110,1998-04-01 15:00:00,12,1009.3,-0.1,88,10,8000,22.224,,,240,,,,3,,,,,,25,wg-a,,,,AAXX 01154 07110 12358 72412 10120 20100 39980 40093 55001 60037 72586 878// 91500=
07110,1998-04-01 18:00:00,11,1009.6,0.2,94,10,10000,14.816,,,230,10.8,13.7,,,,,,,,3,wg-a,,,,AAXX 01184 07110 12460 82308 10110 20100 39982 40096 53002 60006 70386 878// 91800 333 10137 20108=
07110,1998-04-01 21:00:00,10,1009,-0.6,93,9,10000,7.408,,,180,,,,,,,,,,,wg-a,,,,AAXX 01214 07110 12260 71804 10100 20090 39976 40090 58006 60006 877// 92100=
07110,1998-04-02 00:00:00,10,1006.3,-2.7,93,9,6000,14.816,,,140,,,,,,,,,,,wg-a,,,,AAXX 02004 07110 12156 81408 10100 20090 39949 40063 58027 60006 887// 90000=
07110,1998-04-02 03:00:00,10,1002.1,-4.1,100,10,6000,14.816,,,140,,,,5,,,,,,61,wg-a,,,,AAXX 02034 07110 12256 81408 10100 20100 39908 40021 56041 60057 76162 885// 90300=
07110,1998-04-02 06:00:00,9,1000.3,-1.9,100,9,7000,18.52,,,190,9.1,11.3,,,,,,,,3,wg-a,,,,AAXX 02064 07110 02357 71910 10090 20090 39889 40003 56019 61000 70361 877// 90600 333 10113 20091 6009=
07110,1998-04-02 09:00:00,10,1001.4,1.2,93,9,20000,18.52,,,250,,,,0,,,,,,21,wg-a,,,,AAXX 02094 07110 12470 /2510 10100 20090 39901 40014 51012 60007 72162 86800 90900=
07110,1998-04-02 12:00:00,13,1000.2,-1.1,82,10,20000,25.928,,,230,,,,,,,,,,3,wg-a,,,,AAXX 02124 07110 12470 72314 10130 20100 39890 40002 58011 60016 70362 878// 91200=
07110,1998-04-02 15:00:00,11,995.5,-4.7,94,10,3000,31.484,,,160,,,,1,,,,,,60,wg-a,,,,AAXX 02154 07110 12330 81617 10110 20100 39843 49955 58047 60017 76062 877// 91500=
07110,1998-04-02 18:00:00,12,991.3,-4.1,100,12,4500,31.484,,61.116,200,9,12.6,,,,,,,,60,wg-a,,,,AAXX 02184 07110 02245 /2017 10120 20120 39802 49913 56041 61000 76062 875// 91800 333 10126 20090 6005 91033=
07110,1998-04-02 21:00:00,11,990.5,-0.9,94,10,500,25.928,,,210,,,,1,,,,,,21,wg-a,,,,AAXX 02214 07110 12200 82114 10110 20100 39793 49905 56009 60017 72162 875// 92100=
07110,1998-04-03 00:00:00,9,989.8,-0.7,87,7,10000,25.928,,,210,,,,0,,,,,,1,wg-a,,,,AAXX 03004 07110 02460 42114 10090 20070 39786 49898 58007 60026 70186 84500 90000 333 60007=
07110,1998-04-03 03:00:00,8,988.3,-1.6,87,6,10000,14.816,,,210,,,,2,,,,,,,wg-a,,,,AAXX 03034 07110 12460 42108 10080 20060 39770 49883 58016 60027 84500 90300=
07110,1998-04-03 06:00:00,10,987.6,-0.6,76,6,10000,25.928,,44.448,210,7.2,12.4,,,,,11,,,3,wg-a,,,,AAXX 03064 07110 02560 72114 10100 20060 39764 49876 56006 60006 70386 8253/ 90600 333 10124 20072 60114 91024=
07110,1998-04-03 12:00:00,12,985.9,-1,67,6,10000,42.596,,75.932,210,,,,1,,,,,,25,wg-a,,,,AAXX 03124 07110 02560 42123 10120 20060 39748 49859 56010 60016 72586 84200 91200 333 60017 91041=
07110,1998-04-03 15:00:00,11,984.5,-1.4,71,6,8000,50.004,,72.228,200,,,,0,,,,,,,wg-a,,,,AAXX 03154 07110 12458 72027 10110 20060 39734 49845 58014 60007 879// 91500 333 91039=
07110,1998-04-03 18:00:00,10,983.2,-1.3,87,8,6000,42.596,,79.636,200,8.2,12,,,,,,,,81,wg-a,,,,AAXX 03184 07110 02456 82023 10100 20080 39721 49832 56013 61000 78186 879// 91800 333 10120 20082 6001 91043=
07110,1998-04-03 21:00:00,9,982.4,-0.9,93,8,6000,42.596,,83.34,220,,,,3,,,,,,81,wg-a,,,,AAXX 03214 07110 12256 82223 10090 20080 39712 49824 56009 60037 78186 879// 92100 333 91045=
07110,1998-04-04 00:00:00,10,981.6,-0.7,87,8,8000,31.484,,,220,,,,1,,,,,,80,wg-a,,,,AAXX 04004 07110 02458 82217 10100 20080 39705 49816 56007 60046 78086 879// 90000 333 60017=
07110,1998-04-04 03:00:00,9,984.1,2.4,93,8,11000,38.892,,61.116,240,,,,4,,,,,,,wg-a,,,,AAXX 04034 07110 12/61 /2421 10090 20080 39729 49841 51024 60047 90300 333 91033=
07110,1998-04-04 06:00:00,10,987.6,3.5,82,7,12000,35.188,,61.116,230,8.1,10.7,,,,,12,,,1,wg-a,,,,AAXX 04064 07110 02462 /2319 10100 20070 39764 49876 51035 60006 70186 86900 90600 333 10107 20081 60124 91033=
07110,1998-04-04 09:00:00,12,990.6,3.1,82,9,12000,35.188,,57.412,230,,,,,,,,,,,wg-a,,,,AAXX 04094 07110 12462 72319 10120 20090 39795 49906 51031 60006 879// 90900 333 91031=
07110,1998-04-04 12:00:00,12,992.1,1.5,82,9,12000,31.484,,55.56,230,,,,1,,,,,,3,wg-a,,,,AAXX 04124 07110 02462 72317 10120 20090 39810 49921 51015 60016 70386 879// 91200 333 60017 91030=
07110,1998-04-04 15:00:00,9,994.1,1.8,87,7,500,31.484,,68.524,240,,,,2,,,,,,80,wg-a,,,,AAXX 04154 07110 12400 72417 10090 20070 39828 49941 51018 60027 78086 879// 91500 333 91037=
07110,1998-04-04 18:00:00,10,994.7,0.6,82,7,12000,22.224,,,220,9.1,12.4,,0,,,,,,2,wg-a,,,,AAXX 04184 07110 02462 62212 10100 20070 39834 49947 53006 60006 70286 84903 91800 333 10124 20091 60007=
07110,1998-04-04 21:00:00,9,995.6,0.9,81,6,15000,22.224,,,210,,,,0,,,,,,1,wg-a,,,,AAXX 04214 07110 12465 52112 10090 20060 39843 49956 51009 60007 70186 84901 92100=
07110,1998-04-05 00:00:00,9,995.5,-0.1,81,6,15000,18.52,,,240,,,,0,,,,,,25,wg-a,,,,AAXX 05004 07110 02465 72410 10090 20060 39842 49955 58001 60016 72586 879// 90000 333 60007=
07110,1998-04-05 03:00:00,8,995.3,-0.3,87,6,10000,18.52,,,220,,,,1,,,,,,25,wg-a,,,,AAXX 05034 07110 12460 62210 10080 20060 39839 49953 56003 60017 72586 86900 90300=
07110,1998-04-05 06:00:00,7,996.1,0.8,93,6,10000,14.816,,,230,6.8,9.5,,,,,,,,25,wg-a,,,,AAXX 05064 07110 02460 52308 10070 20060 39847 49961 53008 61000 72586 82901 90600 333 10095 20068 6006=
07110,1998-04-05 09:00:00,10,998.1,2.1,82,7,15000,14.816,,,250,,,,1,,,,,,25,wg-a,,,,AAXX 05094 07110 12465 32508 10100 20070 39868 49981 52021 60017 72586 83900 90900=
07110,1998-04-05 12:00:00,12,999.6,1.5,76,8,15000,31.484,,51.856,230,,,,0,,,,,,3,wg-a,,,,AAXX 05124 07110 02565 62317 10120 20080 39883 49996 51015 60016 70386 86800 91200 333 60007 91028=
07110,1998-04-05 15:00:00,11,1000.4,0.8,82,8,8000,29.632,,53.708,230,,,,1,,,,,,3,wg-a,,,,AAXX 05154 07110 12458 62316 10110 20080 39891 40004 51008 60017 70386 86900 91500 333 91029=
07110,1998-04-05 18:00:00,11,1001.3,0.9,76,7,12000,25.928,,,240,7.3,11.9,,0,,,,,,3,wg-a,,,,AAXX 05184 07110 02562 72414 10110 20070 39900 40013 53009 60006 70386 879// 91800 333 10119 20073 60007=
07110,1998-04-05 21:00:00,9,1002.9,1.5,87,7,15000,18.52,,,230,,,,0,,,,,,,wg-a,,,,AAXX 05214 07110 12465 62310 10090 20070 39915 40029 51015 60007 86900 92100=
07110,1998-04-06 00:00:00,8,1003.3,0.3,87,6,15000,18.52,,,240,,,,1,,,,,,1,wg-a,,,,AAXX 06004 07110 02565 42410 10080 20060 39918 40033 51003 60016 70186 84800 90000 333 60017=
07110,1998-04-06 03:00:00,8,1002.9,-0.3,81,5,15000,14.816,,,240,,,,,,,,,,,wg-a,,,,AAXX 06034 07110 12565 42408 10080 20050 39915 40029 58003 60006 84800 90300=
07110,1998-04-06 06:00:00,7,1002.9,-0.1,87,5,15000,11.112,,,240,7.3,10.6,,,,,3,,,,wg-a,,,,AAXX 06064 07110 02565 32406 10070 20050 39914 40029 56001 60006 83900 90600 333 10106 20073 60034=
07110,1998-04-06 09:00:00,9,1003.4,0.6,81,6,15000,11.112,,,230,,,,0,,,,,,27,wg-a,,,,AAXX 06094 07110 12565 52306 10090 20060 39920 40034 51006 60007 72786 85900 90900=
07110,1998-04-06 12:00:00,11,1003,-0.3,76,7,20000,14.816,,,240,,,,,,,,,,1,wg-a,,,,AAXX 06124 07110 12570 52408 10110 20070 39917 40030 58003 60006 70187 85200 91200=
07110,1998-04-06 15:00:00,10,1002,-1,87,8,20000,14.816,,,260,,,,1,,,,,,25,wg-a,,,,AAXX 06154 07110 12570 72608 10100 20080 39907 40020 58010 60017 72586 87800 91500=
07110,1998-04-06 18:00:00,11,1001.4,-0.6,76,7,20000,7.408,,,250,7.3,12.3,,,,,,,,3,wg-a,,,,AAXX 06184 07110 12570 52504 10110 20070 39901 40014 57006 60006 70386 85800 91800 333 10123 20073=
07110,1998-04-06 21:00:00,8,1001.4,-0.1,87,6,15000,3.704,,,260,,,,0,,,,,,,wg-a,,,,AAXX 06214 07110 12565 32602 10080 20060 39900 40014 56001 60007 83800 92100=
07110,1998-04-07 00:00:00,6,1000.8,-0.7,100,6,15000,3.704,,,240,,,,,,,,,,3,wg-a,,,,AAXX 07004 07110 12565 52402 10060 20060 39893 40008 56007 60006 70386 85800 90000=
07110,1998-04-07 03:00:00,5,1000.5,-0.3,100,5,15000,0,,,0,,,,,,,,,,80,wg-a,,,,AAXX 07034 07110 02465 60000 10050 20050 39890 40005 57003 61000 78086 86800 90300 333 ////=
07110,1998-04-07 06:00:00,5,1000.6,0.1,100,5,15000,3.704,,,180,4.9,10.8,,,,,1,,,3,wg-a,,,,AAXX 07064 07110 02465 41802 10050 20050 39891 40006 53001 60006 70386 84302 90600 333 10108 20049 60014=
07110,1998-04-07 12:00:00,11,1002.9,1.2,82,8,15000,18.52,,,290,,,,0,,,,,,80,wg-a,,,,AAXX 07124 07110 02465 62910 10110 20080 39916 40029 53012 60016 78086 85302 91200 333 60007=
07110,1998-04-07 15:00:00,11,1003.8,0.8,82,8,20000,14.816,,,300,,,,1,,,,,,25,wg-a,,,,AAXX 07154 07110 12470 /3008 10110 20080 39924 40038 50008 60017 72586 86300 91500=
07110,1998-04-07 18:00:00,10,1004.8,1,76,6,25000,14.816,,,310,5.2,11.7,,,,,,,,1,wg-a,,,,AAXX 07184 07110 12675 53108 10100 20060 39934 40048 53010 60006 70186 85830 91800 333 10117 20052=
07110,1998-04-07 21:00:00,7,1006.3,1.4,87,5,25000,7.408,,,270,,,,,,,,,,,wg-a,,,,AAXX 07214 07110 12475 22704 10070 20050 39948 40063 51014 60006 82300 92100=
07110,1998-04-08 00:00:00,7,1007,0.6,93,6,25000,3.704,,,220,,,,2,,,,,,25,wg-a,,,,AAXX 08004 07110 02475 /2202 10070 20060 39954 40070 51006 60026 72586 86300 90000 333 60027=
07110,1998-04-08 03:00:00,6,1006.9,-0.1,100,6,25000,7.408,,,360,,,,,,,,,,,wg-a,,,,AAXX 08034 07110 12475 /3604 10060 20060 39953 40069 58001 60006 86300 90300=
07110,1998-04-08 06:00:00,5,1006.8,-0.1,100,5,6000,3.704,,,280,5.1,9.8,,,,,4,,,15,wg-a,,,,AAXX 08064 07110 02456 52802 10050 20050 39952 40068 55001 60006 71586 85903 90600 333 10098 20051 60044=
07110,1998-04-08 09:00:00,10,1006.7,0.1,82,7,12000,11.112,,,320,,,,0,,,,,,,wg-a,,,,AAXX 08094 07110 12462 63206 10100 20070 39953 40067 50001 60007 86900 90900=
07110,1998-04-08 12:00:00,10,1005.5,-1.2,87,8,12000,11.112,,,280,,,,0,,,,,,,wg-a,,,,AAXX 08124 07110 02462 72806 10100 20080 39941 40055 58012 60016 8693/ 91200 333 60007=
07110,1998-04-08 15:00:00,9,1002.6,-2.9,81,6,8000,25.928,,,280,,,,0,,,,,,80,wg-a,,,,AAXX 08154 07110 12458 /2814 10090 20060 39912 40026 58029 60007 78086 86930 91500=
07110,1998-04-08 18:00:00,7,999.2,-3.5,93,6,6000,18.52,,,260,5.3,11.5,,,,,,,,80,wg-a,,,,AAXX 08184 07110 02256 72610 10070 20060 39877 49992 56035 61000 78086 879// 91800 333 10115 20053 6001=
07110,1998-04-08 21:00:00,5,996.8,-2.4,87,3,15000,25.928,,,240,,,,1,,,,,,25,wg-a,,,,AAXX 08214 07110 12465 62414 10050 20030 39853 49968 56024 60017 72586 85903 92100=
07110,1998-04-09 00:00:00,4,993.4,-3.4,93,3,15000,11.112,,,260,,,,3,,,,,,25,wg-a,,,,AAXX 09004 07110 02465 52606 10040 20030 39819 49934 56034 60046 72586 85900 90000 333 60037=
07110,1998-04-09 03:00:00,4,992,-1.4,93,3,9000,11.112,,,310,,,,1,,,,,,80,wg-a,,,,AAXX 09034 07110 12459 73106 10040 20030 39805 49920 56014 60017 78086 879// 90300=
07110,1998-04-09 06:00:00,4,991.1,-0.9,93,3,15000,7.408,,,280,3.3,6.9,,,,,,,,25,wg-a,,,,AAXX 09064 07110 02/65 /2804 10040 20030 39796 49911 55009 61000 72586 90600 333 10069 20033 6008=
07110,1998-04-09 09:00:00,6,990.9,-0.1,87,4,15000,7.408,,,270,,,,0,,,,,,25,wg-a,,,,AAXX 09094 07110 12465 62704 10060 20040 39795 49909 58001 60007 72586 86902 90900=
07110,1998-04-09 12:00:00,8,991,0.2,76,4,15000,7.408,,,260,,,,,,,,,,25,wg-a,,,,AAXX 09124 07110 02465 62604 10080 20040 39797 49910 52002 60016 72586 85902 91200 333 61000=
07110,1998-04-09 15:00:00,6,991.3,0.2,87,4,15000,7.408,,,140,,,,1,,,,,,25,wg-a,,,,AAXX 09154 07110 12465 71404 10060 20040 39799 49913 53002 60017 72586 85902 91500=
07110,1998-04-09 18:00:00,7,991.6,0.3,87,5,15000,14.816,,,10,3.7,8.4,,,,,,,,2,wg-a,,,,AAXX 09184 07110 12565 60108 10070 20050 39802 49916 53003 60006 70286 85332 91800 333 10084 20037=
07110,1998-04-09 21:00:00,5,993.1,1.4,93,4,15000,3.704,,,40,,,,0,,,,,,25,wg-a,,,,AAXX 09214 07110 12465 70402 10050 20040 39816 49931 53014 60007 72522 879// 92100=
07110,1998-04-10 00:00:00,3,993.1,-0,100,3,15000,7.408,,,340,,,,3,,,,,,25,wg-a,,,,AAXX 10004 07110 02465 43404 10030 20030 39816 49931 55000 60036 72586 84900 90000 333 60037=
07110,1998-04-10 03:00:00,4,993,-0.1,100,4,8000,14.816,,,10,,,,0,,,,,,80,wg-a,,,,AAXX 10034 07110 12458 70108 10040 20040 39815 49930 57001 60007 78086 879// 90300=
07110,1998-04-10 06:00:00,5,993.3,0.3,87,3,8000,25.928,,,350,2.5,7.3,,,,,,,,25,wg-a,,,,AAXX 10064 07110 02458 73514 10050 20030 39818 49933 53003 61000 72586 87902 90600 333 10073 20025 6009=
07110,1998-04-10 09:00:00,6,994.3,1.1,87,4,6000,29.632,,,360,,,,0,,,,,,80,wg-a,,,,AAXX 10094 07110 12456 73616 10060 20040 39829 49943 52011 60007 78087 879// 90900=
07110,1998-04-10 12:00:00,6,995.2,0.9,81,3,15000,25.928,,,340,,,,0,,,,,,3,wg-a,,,,AAXX 10124 07110 02465 73414 10060 20030 39838 49952 51009 60016 70387 879// 91200 333 60007=
07110,1998-04-10 15:00:00,5,995.7,0.4,87,3,8000,25.928,,,320,,,,0,,,,,,80,wg-a,,,,AAXX 10154 07110 12458 73214 10050 20030 39842 49957 53004 60007 78087 879// 91500=
07110,1998-04-10 18:00:00,4,996.4,0.7,93,3,500,18.52,,,350,3.7,6.9,,,,,,,,81,wg-a,,,,AAXX 10184 07110 02400 73510 10040 20030 39849 49964 53007 61000 78187 879// 91800 333 10069 20037 6006=
07110,1998-04-10 21:00:00,5,997.1,0.7,93,4,6000,7.408,,,330,,,,3,,,,,,25,wg-a,,,,AAXX 10214 07110 12456 73304 10050 20040 39856 49971 53007 60037 72587 879// 92100=
07110,1998-04-11 00:00:00,4,997.4,0.2,93,3,6000,11.112,,,300,,,,7,,,,,,81,wg-a,,,,AAXX 11004 07110 02356 83006 10040 20030 39858 49974 53002 60106 78187 879// 90000 333 60077=
07110,1998-04-11 03:00:00,6,998.2,0.9,87,4,10000,25.928,,,350,,,,4,,,,,,25,wg-a,,,,AAXX 11034 07110 12460 73514 10060 20040 39867 49982 53009 60047 72586 879// 90300=
07110,1998-04-11 06:00:00,6,999.8,1.6,75,2,15000,22.224,,,350,3.9,5.8,,,,,21,,,1,wg-a,,,,AAXX 11064 07110 02465 73512 10060 20020 39883 49998 51016 60006 70186 879// 90600 333 10058 20039 60214=
07110,1998-04-11 09:00:00,6,1001.5,1.7,87,4,15000,25.928,,,350,,,,0,,,,,,25,wg-a,,,,AAXX 11094 07110 12365 83514 10060 20040 39900 40015 51017 60007 72586 873// 90900=
07110,1998-04-11 12:00:00,6,1003.7,2.2,87,4,15000,22.224,,44.448,350,,,,0,,,,,,60,wg-a,,,,AAXX 11124 07110 02265 83512 10060 20040 39922 40037 51022 60016 76086 873// 91200 333 60007 91024=
07110,1998-04-11 15:00:00,,1002.4,-1.1,,7,20000,22.224,,,220,,,,,,,,,,,wg-a,,,,AAXX 11154 07110 32/70 82212 1//// 20070 39929 40024 57011 88/1/ 91500=
07110,1998-04-11 18:00:00,5,1007.1,2,87,3,12000,25.928,,42.596,350,4.7,7.3,,,,,,,,60,wg-a,,,,AAXX 11184 07110 02462 73514 10050 20030 39955 40071 53020 61000 76062 873// 91800 333 10073 20047 6002 91023=
07110,1998-04-12 00:00:00,5,1010.4,0.8,75,1,15000,18.52,,,340,,,,1,,,,,,1,wg-a,,,,AAXX 12004 07110 02465 53410 10050 20010 39987 40104 51008 60036 70186 83802 90000 333 60017=
07110,1998-04-12 03:00:00,4,1010.6,0.2,75,0,15000,11.112,,,330,,,,0,,,,,,,wg-a,,,,AAXX 12034 07110 12465 33306 10040 20000 39989 40106 52002 60007 83800 90300=
07110,1998-04-12 06:00:00,2,1011,0.3,87,0,15000,7.408,,,300,2.3,4.9,,,,,6,,,1,wg-a,,,,AAXX 12064 07110 02465 43004 10020 20000 39992 40110 51003 60006 70186 84901 90600 333 10049 20023 60064=
07110,1998-04-12 09:00:00,4,1012.1,1.1,87,2,6000,7.408,,,230,,,,2,,,,,,25,wg-a,,,,AAXX 12094 07110 12456 72304 10040 20020 30003 40121 51011 60027 72587 879// 90900=
07110,1998-04-12 12:00:00,6,1012,-0,70,1,500,18.52,,,330,,,,1,,,,,,80,wg-a,,,,AAXX 12124 07110 02400 73310 10060 20010 30003 40120 55000 60036 78087 879// 91200 333 60017=
07110,1998-04-12 15:00:00,6,1011.6,-0.3,61,-1,6000,25.928,,,320,,,,,,,,,,25,wg-a,,,,AAXX 12154 07110 02456 73214 10060 21010 30000 40116 58003 61000 72586 879// 91500 333 ////=
07110,1998-04-12 18:00:00,4,1012.2,0.5,81,1,15000,18.52,,,10,1.4,6.6,,,,,,,,27,wg-a,,,,AAXX 12184 07110 02465 60110 10040 20010 30005 40122 53005 61000 72787 85902 91800 333 10066 20014 6000=
07110,1998-04-13 00:00:00,1,1012.9,0,93,0,15000,3.704,,,230,,,,0,,,,,,2,wg-a,,,,AAXX 13004 07110 02465 32302 10010 20000 30010 40129 50000 60016 70287 83903 90000 333 60007=
07110,1998-04-13 03:00:00,0,1012.9,0,93,-1,15000,7.408,,,220,,,,,,,,,,,wg-a,,,,AAXX 13034 07110 12365 32204 10000 21010 30010 40129 50000 60006 83900 90300=
07110,1998-04-13 06:00:00,0,1013.1,0.2,93,-1,20000,3.704,,,310,-0.1,4.1,,,,,4,,,,wg-a,,,,AAXX 13064 07110 02570 23102 10000 21010 30012 40131 53002 60006 82900 90600 333 10041 21001 60044=
07110,1998-04-13 09:00:00,6,1013.9,1,70,1,25000,11.112,,,300,,,,,,,,,,,wg-a,,,,AAXX 13094 07110 12575 33006 10060 20010 30022 40139 51010 60006 83200 90900=
07110,1998-04-13 12:00:00,8,1013.4,-0.4,61,1,25000,14.816,,,310,,,,0,,,,,,1,wg-a,,,,AAXX 13124 07110 02475 53108 10080 20010 30018 40134 58004 60006 70186 85900 91200 333 60007=
07110,1998-04-13 15:00:00,8,1011.7,-1.7,53,-1,25000,18.52,,,310,,,,,,,,,,,wg-a,,,,AAXX 13154 07110 12575 /3110 10080 21010 30001 40117 58017 60006 83204 91500=
07110,1998-04-13 18:00:00,6,1010.9,-0.8,56,-2,15000,18.52,,,290,0,8.1,,0,,,,,,1,wg-a,,,,AAXX 13184 07110 02465 52910 10060 21020 39993 40109 58008 60006 70186 85900 91800 333 10081 20000 60007=
07110,1998-04-13 21:00:00,3,1009.2,-1.8,81,0,15000,3.704,,,180,,,,,,,,,,,wg-a,,,,AAXX 13214 07110 12565 /1802 10030 20000 39975 40092 56018 60006 83836 92100=
07110,1998-04-14 00:00:00,3,1007.3,-1.9,87,1,15000,7.408,,,150,,,,,,,,,,,wg-a,,,,AAXX 14004 07110 12565 /1504 10030 20010 39956 40073 56019 60006 82532 90000=
07110,1998-04-14 03:00:00,3,1004.6,-2.7,93,2,15000,7.408,,,130,,,,0,,,,,,,wg-a,,,,AAXX 14034 07110 12665 71304 10030 20020 39929 40046 58027 60007 84532 90300=
07110,1998-04-14 06:00:00,3,1002.6,-2,87,1,15000,14.816,,,130,1.8,6.3,,,,,1,,,,wg-a,,,,AAXX 14064 07110 02765 71308 10030 20010 39909 40026 56020 60006 8257/ 90600 333 10063 20018 60014=
07110,1998-04-14 09:00:00,6,1001.2,-1.2,81,3,12000,18.52,,,130,,,,,,,,,,,wg-a,,,,AAXX 14094 07110 12462 71310 10060 20030 39897 40012 58012 60006 875// 90900=
07110,1998-04-14 12:00:00,6,1000,-1.2,87,4,10000,22.224,,,120,,,,1,,,,,,61,wg-a,,,,AAXX 14124 07110 02460 71212 10060 20040 39885 40000 58012 60016 76162 875// 91200 333 60017=
07110,1998-04-14 15:00:00,6,997.4,-2.6,93,5,8000,22.224,,,100,,,,3,,,,,,63,wg-a,,,,AAXX 14154 07110 12458 71012 10060 20050 39859 49974 58026 60037 76366 875// 91500=
07110,1998-04-14 18:00:00,5,995.3,-2.1,100,5,3000,18.52,,,40,3,6.6,,,,,,,,61,wg-a,,,,AAXX 14184 07110 02330 80410 10050 20050 39838 49953 56021 61000 76166 887// 91800 333 10066 20030 6008=
07110,1998-04-14 21:00:00,5,995.6,0.3,93,4,6000,25.928,,,20,,,,5,,,,,,60,wg-a,,,,AAXX 14214 07110 12256 80214 10050 20040 39841 49956 53003 60057 76066 887// 92100=
07110,1998-04-15 00:00:00,5,996,0.4,93,4,500,22.224,,,360,,,,0,,,,,,61,wg-a,,,,AAXX 15004 07110 02400 73612 10050 20040 39845 49960 51004 60056 76162 865// 90000 333 60007=
07110,1998-04-15 03:00:00,4,996.6,0.6,81,1,15000,18.52,,,350,,,,1,,,,,,25,wg-a,,,,AAXX 15034 07110 12565 /3510 10040 20010 39851 49966 53006 60017 72586 86800 90300=
07110,1998-04-15 06:00:00,4,997.8,1.1,70,-1,15000,11.112,,,340,3.1,5.4,,,,,17,,,3,wg-a,,,,AAXX 15064 07110 02465 53406 10040 21010 39862 49978 53011 60006 70386 85900 90600 333 10054 20031 60174=
07110,1998-04-15 09:00:00,6,999.1,1.4,70,1,15000,25.928,,,330,,,,,,,,,,1,wg-a,,,,AAXX 15094 07110 02565 53314 10060 20010 39876 49991 52014 61000 70187 85900 90900 333 ////=
07110,1998-04-15 12:00:00,8,999.4,0.4,53,-1,20000,31.484,,51.856,310,,,,,,,,,,1,wg-a,,,,AAXX 15124 07110 02570 /3117 10080 21010 39880 49994 51004 61000 70187 86300 91200 333 6100 91028=
07110,1998-04-15 15:00:00,9,1000.4,1,61,2,18000,31.484,,55.56,300,,,,,,,,,,,wg-a,,,,AAXX 15154 07110 12568 63017 10090 20020 39890 40004 51010 60006 86900 91500 333 91030=
07110,1998-04-15 18:00:00,7,1001.6,1.1,57,-1,15000,22.224,,,290,2.8,8.9,,,,,,,,,wg-a,,,,AAXX 15184 07110 12665 52912 10070 21010 39901 40016 51011 60006 85800 91800 333 10089 20028=
07110,1998-04-15 21:00:00,5,1002,0.3,70,0,15000,7.408,,,220,,,,,,,,,,,wg-a,,,,AAXX 15214 07110 12265 52204 10050 20000 39904 40020 50003 60006 83801 92100=
07110,1998-04-16 00:00:00,6,999.5,-2.4,65,0,15000,7.408,,,210,,,,,,,,,,,wg-a,,,,AAXX 16004 07110 12665 /2104 10060 20000 39880 49995 58024 60006 82501 90000=
07110,1998-04-16 06:00:00,6,988.5,-6.3,100,6,500,22.224,,,140,3.9,6.7,,,,,,,,61,wg-a,,,,AAXX 16064 07110 02300 81412 10060 20060 39771 49885 58063 61000 76162 887// 90600 333 10067 20039 6004=
07110,1998-04-16 09:00:00,8,981.9,-6.4,93,7,500,25.928,,,130,,,,3,,,,,,61,wg-a,,,,AAXX 16094 07110 12200 81314 10080 20070 39707 49819 56064 60037 76166 877// 90900=
07110,1998-04-16 12:00:00,12,979.9,-1.8,76,8,10000,22.224,,,220,,,,0,,,,,,1,wg-a,,,,AAXX 16124 07110 02460 72212 10120 20080 39689 49799 56018 60046 70162 878// 91200 333 60007=
07110,1998-04-16 15:00:00,11,979.3,-0.6,82,8,20000,18.52,,,240,,,,4,,,,,,1,wg-a,,,,AAXX 16154 07110 12570 52410 10110 20080 39683 49793 57006 60047 70186 85202 91500=
07110,1998-04-16 18:00:00,8,982.8,3.3,87,6,8000,38.892,,57.412,360,6.1,11.8,,,,,,,,61,wg-a,,,,AAXX 16184 07110 02358 73621 10080 20060 39716 49828 53033 61000 76186 873// 91800 333 10118 20061 6001 91031=
07110,1998-04-16 21:00:00,6,989,6,93,5,8000,35.188,,59.264,330,,,,3,,,,,,62,wg-a,,,,AAXX 16214 07110 12258 73319 10060 20050 39776 49890 51060 60037 76266 873// 92100 333 91032=
07110,1998-04-17 00:00:00,5,992.5,3.5,87,3,10000,22.224,,,340,,,,2,,,,,,21,wg-a,,,,AAXX 17004 07110 02360 73412 10050 20030 39811 49925 51035 60056 72162 879// 90000 333 60027=
07110,1998-04-17 03:00:00,6,994.2,1.7,75,2,15000,22.224,,,320,,,,1,,,,,,1,wg-a,,,,AAXX 17034 07110 12465 43212 10060 20020 39828 49942 51017 60017 70186 84300 90300=
07110,1998-04-17 06:00:00,6,995.8,1.5,81,3,15000,18.52,,,320,3.9,7.5,,,,,15,,,1,wg-a,,,,AAXX 17064 07110 02465 73210 10060 20030 39843 49958 52015 60006 70186 879// 90600 333 10075 20039 60154=
07110,1998-04-17 09:00:00,8,998.4,2.7,76,4,15000,25.928,,44.448,340,,,,1,,,,,,25,wg-a,,,,AAXX 17094 07110 12465 73414 10080 20040 39870 49984 53027 60017 72586 879// 90900 333 91024=
07110,1998-04-17 12:00:00,8,1001.6,3.2,76,4,15000,29.632,,51.856,340,,,,0,,,,,,1,wg-a,,,,AAXX 17124 07110 02465 73416 10080 20040 39902 40016 51032 60026 70187 879// 91200 333 60007 91028=
07110,1998-04-17 15:00:00,9,1004,2.4,66,3,15000,35.188,,55.56,330,,,,,,,,,,,wg-a,,,,AAXX 17154 07110 12565 /3319 10090 20030 39926 40040 51024 60006 85200 91500 333 91030=
07110,1998-04-17 18:00:00,9,1007,2.9,61,2,11000,31.484,,,330,4.4,9.9,,,,,,,,,wg-a,,,,AAXX 17184 07110 12/61 /3317 10090 20020 39955 40070 53029 60006 91800 333 10099 20044=
07110,1998-04-18 00:00:00,7,1009.3,0.4,76,3,15000,18.52,,,310,,,,,,,,,,,wg-a,,,,AAXX 18004 07110 12565 23110 10070 20030 39977 40093 50004 60006 82100 90000=
07110,1998-04-18 03:00:00,7,1008.5,-0.7,87,5,15000,14.816,,,280,,,,,,,,,,3,wg-a,,,,AAXX 18034 07110 02665 72808 10070 20050 39970 40085 58007 61000 70386 875// 90300 333 ////=
07110,1998-04-18 06:00:00,6,1009.1,0.5,87,4,500,18.52,,,280,5.2,8.4,,,,,,,,80,wg-a,,,,AAXX 18064 07110 02300 62810 10060 20040 39975 40091 53005 61000 78087 86930 90600 333 10084 20052 6004=
07110,1998-04-18 09:00:00,8,1009.4,0.4,87,6,12000,11.112,,,320,,,,3,,,,,,25,wg-a,,,,AAXX 18094 07110 12462 53206 10080 20060 39979 40094 51004 60037 72586 85330 90900=
07110,1998-04-18 12:00:00,11,1009.4,0.1,66,5,20000,22.224,,,290,,,,,,,,,,3,wg-a,,,,AAXX 18124 07110 12570 /2912 10110 20050 39980 40094 50001 60036 70386 86800 91200=
07110,1998-04-18 15:00:00,11,1009,-0.4,62,4,20000,18.52,,,290,,,,,,,,,,,wg-a,,,,AAXX 18154 07110 12570 /2910 10110 20040 39976 40090 58004 60006 86800 91500=
07110,1998-04-18 18:00:00,10,1008.8,-0.2,66,4,20000,14.816,,,260,6.1,11.9,,,,,,,,,wg-a,,,,AAXX 18184 07110 12570 52608 10100 20040 39974 40088 56002 60006 83831 91800 333 10119 20061=
07110,1998-04-18 21:00:00,8,1008.7,-0.2,87,6,15000,7.408,,,170,,,,,,,,,,,wg-a,,,,AAXX 18214 07110 12565 71704 10080 20060 39972 40087 57002 60006 8157/ 92100=
07110,1998-04-19 00:00:00,8,1007.7,-1,93,7,7000,14.816,,,160,,,,0,,,,,,60,wg-a,,,,AAXX 19004 07110 02457 81608 10080 20070 39962 40077 58010 60016 76062 8557/ 90000 333 60007=
07110,1998-04-19 03:00:00,8,1005.6,-2.1,100,8,10000,18.52,,,160,,,,1,,,,,,60,wg-a,,,,AAXX 19034 07110 12360 81610 10080 20080 39941 40056 56021 60017 76066 875// 90300=
07110,1998-04-19 06:00:00,9,1004.5,-1,93,8,4000,14.816,,,160,7.6,9.9,,,,,,,,10,wg-a,,,,AAXX 19064 07110 02140 81608 10090 20080 39931 40045 56010 61000 71066 887// 90600 333 10099 20076 6006=
07110,1998-04-19 09:00:00,11,1004.5,0.1,100,11,8000,18.52,,,210,,,,1,,,,,,21,wg-a,,,,AAXX 19094 07110 12258 82110 10110 20110 39932 40045 53001 60017 72165 885// 90900=
07110,1998-04-19 12:00:00,11,1004.6,0.1,100,11,500,18.52,,,200,,,,1,,,,,,60,wg-a,,,,AAXX 19124 07110 02200 72010 10110 20110 39933 40046 50001 60026 76065 875// 91200 333 60017=
07110,1998-04-19 15:00:00,11,1004.6,-0,100,11,3500,14.816,,,250,,,,8,,,,,,10,wg-a,,,,AAXX 19154 07110 12235 72508 10110 20110 39933 40046 54000 60087 71062 875// 91500=
07110,1998-04-19 18:00:00,11,1005.5,0.9,94,10,10000,11.112,,,280,8.6,12,,,,,,,,21,wg-a,,,,AAXX 19184 07110 02260 62806 10110 20100 39942 40055 53009 61000 72162 86800 91800 333 10120 20086 6001=
07110,1998-04-19 21:00:00,10,1007.5,1.9,93,9,15000,7.408,,,250,,,,,,,,,,,wg-a,,,,AAXX 19214 07110 12465 /2504 10100 20090 39961 40075 51019 60006 86800 92100=
07110,1998-04-20 00:00:00,8,1008.8,1.2,93,7,6000,7.408,,,230,,,,,,,,,,,wg-a,,,,AAXX 20004 07110 12456 52304 10080 20070 39973 40088 51012 60006 85800 90000=
07110,1998-04-20 03:00:00,7,1009,0.2,100,7,10000,11.112,,,240,,,,0,,,,,,,wg-a,,,,AAXX 20034 07110 12460 52406 10070 20070 39975 40090 53002 60007 85800 90300=
07110,1998-04-20 06:00:00,7,1010.3,1.2,93,6,10000,7.408,,,270,6.9,11,,,,,,,,25,wg-a,,,,AAXX 20064 07110 02460 62704 10070 20060 39987 40103 52012 61000 72586 85801 90600 333 10110 20069 6011=
07110,1998-04-20 09:00:00,10,1012,1.8,82,7,15000,14.816,,,230,,,,,,,,,,,wg-a,,,,AAXX 20094 07110 12465 72308 10100 20070 30005 40120 51018 60006 85801 90900=
07110,1998-04-20 12:00:00,12,1012.8,0.9,71,7,15000,14.816,,,260,,,,0,,,,,,1,wg-a,,,,AAXX 20124 07110 02565 72608 10120 20070 30014 40128 51009 60006 70186 85801 91200 333 60007=
07110,1998-04-20 15:00:00,11,1013.4,0.6,71,6,20000,18.52,,,230,,,,,,,,,,,wg-a,,,,AAXX 20154 07110 12570 72310 10110 20060 30020 40134 51006 60006 85801 91500=
07110,1998-04-20 18:00:00,11,1014,0.5,76,7,20000,14.816,,,230,7.1,12.4,,,,,,,,,wg-a,,,,AAXX 20184 07110 12570 72308 10110 20070 30025 40140 52005 60006 8127/ 91800 333 10124 20071=
07110,1998-04-20 21:00:00,10,1014.9,0.9,87,8,20000,11.112,,,190,,,,,,,,,,,wg-a,,,,AAXX 20214 07110 12770 71906 10100 20080 30034 40149 51009 60006 82512 92100=
07110,1998-04-21 00:00:00,9,1014,-0.9,93,8,20000,11.112,,,170,,,,,,,,,,,wg-a,,,,AAXX 21004 07110 12570 51706 10090 20080 30025 40140 58009 60006 82530 90000=
07110,1998-04-21 03:00:00,9,1013,-1,93,8,15000,14.816,,,170,,,,,,,,,,,wg-a,,,,AAXX 21034 07110 12665 71708 10090 20080 30015 40130 58010 60006 875// 90300=
07110,1998-04-21 06:00:00,10,1012.6,-0.4,93,9,15000,18.52,,,160,8.7,10.6,,,,,,,,,wg-a,,,,AAXX 21064 07110 02465 71610 10100 20090 30011 40126 56004 60006 8787/ 90600 333 10106 20087 60004=
07110,1998-04-21 09:00:00,11,1012.2,-0.3,94,10,15000,22.224,,,170,,,,,,,,,,,wg-a,,,,AAXX 21094 07110 12465 71712 10110 20100 30008 40122 56003 60006 878// 90900=
07110,1998-04-21 12:00:00,12,1011.7,-0.5,88,10,15000,29.632,,,180,,,,,,,,,,,wg-a,,,,AAXX 21124 07110 12465 71816 10120 20100 30003 40117 57005 60006 878// 91200=
07110,1998-04-21 15:00:00,13,1010.2,-1.4,88,11,12000,29.632,,,180,,,,,,,,,,,wg-a,,,,AAXX 21154 07110 12462 71816 10130 20110 39989 40102 58014 60006 878// 91500=
07110,1998-04-21 18:00:00,12,1009.9,-0.4,88,10,12000,22.224,,,170,9.7,12.6,,,,,,,,,wg-a,,,,AAXX 21184 07110 12462 81712 10120 20100 39985 40099 57004 60006 8587/ 91800 333 10126 20097=
07110,1998-04-21 21:00:00,11,1010.3,0.4,94,10,9000,18.52,,,170,,,,0,,,,,,60,wg-a,,,,AAXX 21214 07110 12459 81710 10110 20100 39989 40103 51004 60007 76062 875// 92100=
07110,1998-04-22 00:00:00,11,1009.5,-0.8,94,10,15000,22.224,,,160,,,,0,,,,,,60,wg-a,,,,AAXX 22004 07110 02465 81612 10110 20100 39981 40095 56008 60016 76062 8753/ 90000 333 60007=
07110,1998-04-22 03:00:00,11,1008.5,-1,94,10,10000,18.52,,,160,,,,1,,,,,,60,wg-a,,,,AAXX 22034 07110 12560 81610 10110 20100 39971 40085 58010 60017 76066 8653/ 90300=
07110,1998-04-22 06:00:00,10,1007.8,-0.7,93,9,10000,14.816,,,140,10,11.8,,,,,,,,60,wg-a,,,,AAXX 22064 07110 02460 71408 10100 20090 39964 40078 57007 61000 76066 8657/ 90600 333 10118 20100 6002=
07110,1998-04-22 09:00:00,12,1007.7,0,88,10,10000,11.112,,,150,,,,,,,,,,1,wg-a,,,,AAXX 22094 07110 02560 71506 10120 20100 39964 40077 50000 61000 70162 8657/ 90900 333 ////=
07110,1998-04-22 12:00:00,14,1007.7,0.1,77,10,15000,18.52,,,200,,,,,,,,,,1,wg-a,,,,AAXX 22124 07110 02665 72010 10140 20100 39965 40077 51001 61000 70162 8157/ 91200 333 ////=
07110,1998-04-22 15:00:00,12,1008.5,0.7,94,11,12000,14.816,,,210,,,,1,,,,,,60,wg-a,,,,AAXX 22154 07110 12462 72108 10120 20110 39972 40085 53007 60017 76062 8587/ 91500=
07110,1998-04-22 18:00:00,11,1009.5,0.9,94,10,3000,11.112,,,190,10.3,14.3,,,,,,,,10,wg-a,,,,AAXX 22184 07110 02230 71906 10110 20100 39981 40095 51009 61000 71062 8587/ 91800 333 10143 20103 6001=
07110,1998-04-22 21:00:00,11,1010.8,1.3,94,10,8000,14.816,,,210,,,,0,,,,,,20,wg-a,,,,AAXX 22214 07110 12258 72108 10110 20100 39994 40108 53013 60007 72065 875// 92100=
07110,1998-04-23 00:00:00,10,1011.5,0.7,93,9,8000,18.52,,,220,,,,0,,,,,,1,wg-a,,,,AAXX 23004 07110 02358 52210 10100 20090 30001 40115 51007 60016 70165 85500 90000 333 60007=
07110,1998-04-23 03:00:00,10,1010.4,-1.2,93,9,8000,22.224,,,190,,,,,,,,,,,wg-a,,,,AAXX 23034 07110 12458 81912 10100 20090 39989 40104 58012 60006 875// 90300=
07110,1998-04-23 06:00:00,10,1007.9,-2.4,93,9,8000,31.484,,50.004,180,9.4,10.9,,,,,3,,,,wg-a,,,,AAXX 23064 07110 02/58 /1817 10100 20090 39965 40079 56024 60006 90600 333 10109 20094 60034 91027=
07110,1998-04-23 09:00:00,12,1006.7,-1.1,94,11,4000,29.632,,53.708,210,,,,4,,,,,,,wg-a,,,,AAXX 23094 07110 12/40 /2116 10120 20110 39954 40067 55011 60047 90900 333 91029=
07110,1998-04-23 12:00:00,12,1009.1,2.4,82,9,500,31.484,,57.412,250,,,,,,,,,,,wg-a,,,,AAXX 23124 07110 12/00 /2517 10120 20090 39978 40091 53024 60046 91200 333 91031=
07110,1998-04-23 15:00:00,13,1012.5,3.3,72,8,11000,35.188,,,260,,,,,,,,,,,wg-a,,,,AAXX 23154 07110 12/61 /2619 10130 20080 30011 40125 53033 60006 91500=
07110,1998-04-23 18:00:00,12,1014.9,2.4,82,9,15000,22.224,,,270,10.2,13.3,,,,,,,,,wg-a,,,,AAXX 23184 07110 12565 /2712 10120 20090 30035 40149 52024 60006 86200 91800 333 10133 20102=
07110,1998-04-23 21:00:00,10,1017.1,2.1,93,9,15000,14.816,,,240,,,,,,,,,,,wg-a,,,,AAXX 23214 07110 12365 /2408 10100 20090 30056 40171 53021 60006 86500 92100=
07110,1998-04-24 00:00:00,10,1017.9,0.8,93,9,15000,14.816,,,220,,,,,,,,,,,wg-a,,,,AAXX 24004 07110 12265 82208 10100 20090 30064 40179 51008 60006 886// 90000=
07110,1998-04-24 03:00:00,11,1016.9,-1,94,10,1500,18.52,,,200,,,,,,,,,,,wg-a,,,,AAXX 24034 07110 12215 72010 10110 20100 30054 40169 58010 60006 876// 90300=
07110,1998-04-24 06:00:00,12,1017,0.1,94,11,1000,18.52,,,210,9.7,11.5,,,,,,,,10,wg-a,,,,AAXX 24064 07110 02110 82110 10120 20110 30055 40170 50001 61000 71052 886// 90600 333 10115 20097 6004=
07110,1998-04-24 09:00:00,12,1018,1.1,100,12,2000,25.928,,,220,,,,2,,,,,,10,wg-a,,,,AAXX 24094 07110 12220 82214 10120 20120 30066 40180 53011 60027 71065 887// 90900=
07110,1998-04-24 12:00:00,13,1018.3,0.3,100,13,6000,25.928,,38.892,240,,,,0,,,,,,10,wg-a,,,,AAXX 24124 07110 02456 /2414 10130 20130 30069 40183 51003 60026 71065 875// 91200 333 60007 91021=
07110,1998-04-24 18:00:00,12,1017.9,-1,94,11,500,14.816,,,220,11.5,14.5,,,,,,,,21,wg-a,,,,AAXX 24184 07110 02300 82208 10120 20110 30064 40179 58010 61000 72162 8652/ 91800 333 10145 20115 6100=
07110,1998-04-25 00:00:00,12,1014.8,-2.7,100,12,2500,25.928,,,200,,,,2,,,,,,10,wg-a,,,,AAXX 25004 07110 02125 82014 10120 20120 30034 40148 56027 60036 71065 887// 90000 333 60027=
07110,1998-04-25 06:00:00,10,1012,-0.5,100,10,3500,7.408,,,260,9.9,11.8,,,,,,,,60,wg-a,,,,AAXX 25064 07110 02235 82604 10100 20100 30005 40120 55005 61000 76065 887// 90600 333 10118 20099 6010=
07110,1998-04-25 12:00:00,13,1012.2,-0.5,77,9,10000,22.224,,,220,,,,,,,,,,3,wg-a,,,,AAXX 25124 07110 12460 72212 10130 20090 30008 40122 55005 60016 70362 87800 91200=
07110,1998-04-25 18:00:00,12,1011.3,-0.2,82,9,20000,18.52,,,220,9.7,13,,,,,,,,,wg-a,,,,AAXX 25184 07110 12470 52210 10120 20090 39999 40113 56002 60006 85200 91800 333 10130 20097=
07110,1998-04-26 00:00:00,10,1009.2,-1.4,87,8,15000,14.816,,,210,,,,,,,,,,,wg-a,,,,AAXX 26004 07110 12465 32108 10100 20080 39978 40092 56014 60006 83800 90000=
07110,1998-04-26 06:00:00,10,1006.4,-0.9,87,8,15000,14.816,,,230,9.5,11.4,,,,,1,,,,wg-a,,,,AAXX 26064 07110 02365 52308 10100 20080 39950 40064 56009 60006 85900 90600 333 10114 20095 60014=
07110,1998-04-26 12:00:00,12,1006,-0.5,67,6,15000,22.224,,,240,,,,,,,,,,1,wg-a,,,,AAXX 26124 07110 02565 /2412 10120 20060 39947 40060 58005 61000 70186 86800 91200 333 ////=
07110,1998-04-26 18:00:00,11,1004.6,-0.7,71,6,25000,22.224,,,250,9.5,13.2,,,,,,,,,wg-a,,,,AAXX 26184 07110 12575 42512 10110 20060 39933 40046 58007 60006 84900 91800 333 10132 20095=
07110,1998-04-27 00:00:00,7,1004.5,-0.8,87,5,20000,7.408,,,230,,,,,,,,,,,wg-a,,,,AAXX 27004 07110 12/70 02304 10070 20050 39930 40045 58008 60006 80000 90000=
07110,1998-04-27 06:00:00,6,1004.1,0.1,100,6,15000,7.408,,,220,5.2,11.1,,,,,1,,,1,wg-a,,,,AAXX 27064 07110 02565 32204 10060 20060 39926 40041 53001 60006 70186 83900 90600 333 10111 20052 60014=
07110,1998-04-27 09:00:00,10,1004.8,0.8,87,8,15000,11.112,,,270,,,,,,,,,,25,wg-a,,,,AAXX 27094 07110 02565 42706 10100 20080 39934 40048 51008 61000 72586 84300 90900 333 ////=
07110,1998-04-27 12:00:00,12,1005.4,0.7,71,7,15000,22.224,,,290,,,,1,,,,,,3,wg-a,,,,AAXX 27124 07110 02465 52912 10120 20070 39941 40054 53007 60016 70386 85300 91200 333 60017=
07110,1998-04-27 15:00:00,13,1005.7,0.3,67,7,25000,22.224,,,280,,,,,,,,,,,wg-a,,,,AAXX 27154 07110 12575 32812 10130 20070 39944 40057 53003 60006 83200 91500=
07110,1998-04-27 18:00:00,11,1006,0.2,76,7,25000,18.52,,,270,6.1,13.3,,0,,,,,,,wg-a,,,,AAXX 27184 07110 02575 42710 10110 20070 39946 40060 51002 60006 84200 91800 333 10133 20061 60007=
07110,1998-04-27 21:00:00,8,1007.1,1,87,6,18000,7.408,,,230,,,,,,,,,,,wg-a,,,,AAXX 27214 07110 12468 42304 10080 20060 39956 40071 51010 60006 84200 92100=
07110,1998-04-28 00:00:00,7,1006.5,-0.6,93,6,15000,7.408,,,210,,,,0,,,,,,2,wg-a,,,,AAXX 28004 07110 02465 32104 10070 20060 39950 40065 56006 60016 70286 83800 90000 333 60007=
07110,1998-04-28 06:00:00,7,1005.8,-0,93,6,25000,7.408,,,190,5.6,10.7,,,,,2,,,,wg-a,,,,AAXX 28064 07110 02475 41904 10070 20060 39943 40058 55000 60006 84800 90600 333 10107 20056 60024=
07110,1998-04-28 09:00:00,11,1005.1,-0.6,76,7,25000,14.816,,,210,,,,0,,,,,,3,wg-a,,,,AAXX 28094 07110 12575 52108 10110 20070 39937 40051 58006 60007 70386 84801 90900=
07110,1998-04-28 12:00:00,13,1004,-1,62,6,25000,18.52,,,200,,,,,,,,,,2,wg-a,,,,AAXX 28124 07110 12575 52010 10130 20060 39927 40040 58010 60016 70286 83204 91200=
07110,1998-04-28 15:00:00,13,1002.2,-1.7,67,7,25000,29.632,,,180,,,,,,,,,,,wg-a,,,,AAXX 28154 07110 12575 71816 10130 20070 39910 40022 56017 60006 84154 91500=
07110,1998-04-28 18:00:00,10,1000,-2.3,87,8,10000,22.224,,,140,6.8,13.1,,,,,,,,61,wg-a,,,,AAXX 28184 07110 02260 81412 10100 20080 39887 40000 58023 61000 76162 875// 91800 333 10131 20068 6000=
07110,1998-04-28 21:00:00,9,997.1,-2.9,93,8,8000,22.224,,,140,,,,1,,,,,,61,wg-a,,,,AAXX 28214 07110 12258 81412 10090 20080 39858 49971 56029 60017 76166 877// 92100=
07110,1998-04-29 00:00:00,9,994.4,-2.7,100,9,8000,18.52,,,130,,,,14,,,,,,61,wg-a,,,,AAXX 29004 07110 02358 81310 10090 20090 39831 49944 58027 60156 76166 877// 90000 333 60147=
07110,1998-04-29 06:00:00,9,993.4,0.4,93,8,8000,7.408,,,200,8.8,10,,,,,,,,60,wg-a,,,,AAXX 29064 07110 02358 /2004 10090 20080 39821 49934 53004 61000 76062 86500 90600 333 10100 20088 6019=
07110,1998-04-29 09:00:00,11,994.6,1.3,87,9,8000,3.704,,,300,,,,,,,,,,1,wg-a,,,,AAXX 29094 07110 02458 /3002 10110 20090 39834 49946 52013 61000 70162 86800 90900 333 ////=
07110,1998-04-29 12:00:00,12,996.2,1.6,88,10,15000,7.408,,,270,,,,2,,,,,,25,wg-a,,,,AAXX 29124 07110 02465 72704 10120 20100 39850 49962 52016 60026 72586 878// 91200 333 60027=
07110,1998-04-29 18:00:00,13,999.6,1.8,82,10,15000,11.112,,,340,9,13.2,,,,,,,,1,wg-a,,,,AAXX 29184 07110 12465 /3406 10130 20100 39884 49996 53018 60006 70186 84831 91800 333 10132 20090=
07110,1998-04-29 21:00:00,9,1002.1,2.3,100,9,15000,3.704,,,340,,,,,,,,,,,wg-a,,,,AAXX 29214 07110 12665 /3402 10090 20090 39907 40021 51023 60006 82501 92100=
07110,1998-04-30 00:00:00,9,1003.9,1.8,100,9,6000,7.408,,,340,,,,,,,,,,,wg-a,,,,AAXX 30004 07110 12256 73404 10090 20090 39925 40039 52018 60006 84601 90000=
07110,1998-04-30 03:00:00,10,1005.1,1.2,93,9,6000,11.112,,,10,,,,,,,,,,,wg-a,,,,AAXX 30034 07110 12156 80106 10100 20090 39937 40051 53012 60006 886// 90300=
07110,1998-04-30 06:00:00,10,1006.4,1.3,100,10,3000,14.816,,,10,8.8,13.1,,,,,3,,,10,wg-a,,,,AAXX 30064 07110 02230 70108 10100 20100 39950 40064 53013 60006 71022 876// 90600 333 10131 20088 60034=
07110,1998-04-30 09:00:00,12,1007.9,1.5,88,10,3500,18.52,,,10,,,,,,,,,,10,wg-a,,,,AAXX 30094 07110 12335 70110 10120 20100 39965 40079 51015 60006 71022 875// 90900=
07110,1998-04-30 12:00:00,11,1008.8,0.9,94,10,1200,25.928,,,30,,,,,,,,,,10,wg-a,,,,AAXX 30124 07110 02312 80314 10110 20100 39974 40088 52009 61000 71065 877// 91200 333 6100=
07110,1998-04-30 15:00:00,11,1009.9,1.1,87,9,3000,29.632,,46.3,30,,,,0,,,,,,10,wg-a,,,,AAXX 30154 07110 12430 80316 10110 20090 39985 40099 53011 60007 71065 875// 91500 333 91025=
07110,1998-04-30 18:00:00,11,1012.2,2.3,87,9,6000,29.632,,48.152,40,10.3,11.6,,,,,,,,1,wg-a,,,,AAXX 30184 07110 12456 80416 10110 20090 30008 40122 53023 60006 70165 875// 91800 333 10116 20103 91026=
07110,1998-04-30 21:00:00,10,1015.3,3,87,8,8000,22.224,,,30,,,,,,,,,,,wg-a,,,,AAXX 30214 07110 12458 /0312 10100 20080 30038 40153 51030 60006 85502 92100=
07110,1998-05-01 03:00:00,10,1017.6,0.8,82,7,11000,22.224,,,40,,,,,,,,,,,wg-a,,,,AAXX 01034 07110 12/61 /0412 10100 20070 30061 40176 53008 60006 90300=
07110,1998-05-01 06:00:00,9,1018.6,0.9,87,7,3000,18.52,,,20,9.2,10.8,,,,,,,,10,wg-a,,,,AAXX 01064 07110 02430 80210 10090 20070 30070 40186 53009 60006 71022 885// 90600 333 10108 20092 60004=
07110,1998-05-01 09:00:00,9,1019.3,0.7,87,7,4000,22.224,,,20,,,,,,,,,,10,wg-a,,,,AAXX 01094 07110 12440 80212 10090 20070 30077 40193 51007 60006 71022 885// 90900=
07110,1998-05-01 12:00:00,10,1019,-0.2,82,7,8000,22.224,,,20,,,,,,,,,,,wg-a,,,,AAXX 01124 07110 12458 80212 10100 20070 30075 40190 58002 60006 885// 91200=
07110,1998-05-01 18:00:00,11,1017.7,-0.9,82,8,15000,18.52,,,350,8.9,11.7,,,,,,,,,wg-a,,,,AAXX 01184 07110 12465 73510 10110 20080 30062 40177 56009 60006 878// 91800 333 10117 20089=
07110,1998-05-01 21:00:00,10,1017.9,0.2,93,9,9000,14.816,,,10,,,,,,,,,,,wg-a,,,,AAXX 01214 07110 12759 70108 10100 20090 30064 40179 53002 60006 875// 92100=
07110,1998-05-02 00:00:00,9,1017.6,-0.4,87,7,9000,7.408,,,340,,,,,,,,,,,wg-a,,,,AAXX 02004 07110 12659 53404 10090 20070 30060 40176 56004 60006 85500 90000=
07110,1998-05-02 03:00:00,8,1016.7,-0.9,100,8,8000,7.408,,,340,,,,,,,,,,,wg-a,,,,AAXX 02034 07110 12658 33404 10080 20080 30051 40167 56009 60006 83500 90300=
07110,1998-05-02 06:00:00,8,1017,0.3,100,8,500,11.112,,,350,7.5,11,,,,,,,,,wg-a,,,,AAXX 02064 07110 02600 73506 10080 20080 30054 40170 53003 60006 84531 90600 333 10110 20075 60004=
07110,1998-05-02 09:00:00,10,1017.7,0.8,87,8,8000,18.52,,,10,,,,,,,,,,,wg-a,,,,AAXX 02094 07110 12458 70110 10100 20080 30062 40177 51008 60006 875// 90900=
07110,1998-05-02 12:00:00,10,1018.3,0.6,82,7,8000,18.52,,,20,,,,,,,,,,,wg-a,,,,AAXX 02124 07110 12458 80210 10100 20070 30068 40183 53006 60006 888// 91200=
07110,1998-05-02 15:00:00,11,1018.2,-0.1,82,8,10000,22.224,,,20,,,,,,,,,,,wg-a,,,,AAXX 02154 07110 12460 70212 10110 20080 30067 40182 55001 60006 878// 91500=
07110,1998-05-02 18:00:00,11,1018.1,-0.1,71,6,10000,14.816,,,10,8.2,12.3,,,,,,,,,wg-a,,,,AAXX 02184 07110 12660 30108 10110 20060 30066 40181 58001 60006 82530 91800 333 10123 20082=
07110,1998-05-02 21:00:00,8,1018.9,0.7,87,6,10000,7.408,,,350,,,,,,,,,,,wg-a,,,,AAXX 02214 07110 12660 /3504 10080 20060 30073 40189 51007 60006 81500 92100=
07110,1998-05-03 00:00:00,6,1018.8,-0.2,93,5,10000,3.704,,,360,,,,,,,,,,,wg-a,,,,AAXX 03004 07110 12/60 03602 10060 20050 30071 40188 58002 60006 80000 90000=
07110,1998-05-03 03:00:00,6,1018.6,-0.2,100,6,200,3.704,,,20,,,,,,,,,,44,wg-a,,,,AAXX 03034 07110 12002 80202 10060 20060 30069 40186 56002 60006 74441 886// 90300=
07110,1998-05-03 06:00:00,6,1019.1,0.5,100,6,500,3.704,,,30,4.9,11.3,,,,,,,,1,wg-a,,,,AAXX 03064 07110 02700 /0302 10060 20060 30074 40191 53005 60006 70141 8253/ 90600 333 10113 20049 60004=
07110,1998-05-03 09:00:00,11,1019.1,0.2,82,8,10000,18.52,,,30,,,,,,,,,,,wg-a,,,,AAXX 03094 07110 12460 /0310 10110 20080 30076 40191 50002 60006 85530 90900=
07110,1998-05-03 12:00:00,11,1019.6,0.5,71,6,20000,29.632,,51.856,30,,,,,,,,,,3,wg-a,,,,AAXX 03124 07110 02570 70316 10110 20060 30081 40196 51005 61000 70386 87800 91200 333 6100 91028=
07110,1998-05-03 15:00:00,10,1019.8,0.1,82,7,20000,22.224,,40.744,30,,,,0,,,,,,25,wg-a,,,,AAXX 03154 07110 12570 70312 10100 20070 30082 40198 51001 60007 72586 87800 91500 333 91022=
07110,1998-05-03 18:00:00,10,1020.3,0.5,76,6,18000,25.928,,46.3,30,6.2,11.4,,,,,,,,3,wg-a,,,,AAXX 03184 07110 02568 70314 10100 20060 30087 40203 53005 60006 70386 878// 91800 333 10114 20062 61000 91025=
07110,1998-05-04 00:00:00,6,1021.6,0.1,87,4,15000,7.408,,,340,,,,,,,,,,,wg-a,,,,AAXX 04004 07110 12/65 03404 10060 20040 30098 40216 50001 60006 80000 90000=
07110,1998-05-04 03:00:00,6,1021.1,-0.5,93,5,15000,11.112,,,340,,,,,,,,,,,wg-a,,,,AAXX 04034 07110 12/65 03406 10060 20050 30093 40211 57005 60006 80000 90300=
07110,1998-05-04 06:00:00,7,1021,0,93,6,6000,7.408,,,330,5.4,9.7,,,,,,,,,wg-a,,,,AAXX 04064 07110 02/56 03304 10070 20060 30093 40210 50000 60006 80000 90600 333 10097 20054 60004=
07110,1998-05-04 09:00:00,12,1021.2,0.4,76,8,10000,18.52,,,350,,,,,,,,,,,wg-a,,,,AAXX 04094 07110 12460 43510 10120 20080 30097 40212 51004 60006 84200 90900=
07110,1998-05-04 12:00:00,14,1020.8,-0.3,55,5,15000,22.224,,,340,,,,,,,,,,,wg-a,,,,AAXX 04124 07110 12665 43412 10140 20050 30094 40208 58003 60006 82101 91200=
07110,1998-05-04 15:00:00,13,1020.5,-0.3,67,7,15000,22.224,,,340,,,,,,,,,,,wg-a,,,,AAXX 04154 07110 12565 /3412 10130 20070 30091 40205 58003 60006 86802 91500=
07110,1998-05-04 18:00:00,11,1020.5,-0.1,87,9,15000,18.52,,,330,6.7,14.2,,,,,,,,,wg-a,,,,AAXX 04184 07110 12465 83310 10110 20090 30090 40205 56001 60006 878// 91800 333 10142 20067=
07110,1998-05-04 21:00:00,11,1020.8,0.3,87,9,10000,14.816,,,330,,,,,,,,,,,wg-a,,,,AAXX 04214 07110 12460 83308 10110 20090 30093 40208 53003 60006 878// 92100=
07110,1998-05-05 00:00:00,8,1020.8,-0.1,100,8,15000,7.408,,,300,,,,,,,,,,,wg-a,,,,AAXX 05004 07110 12665 /3004 10080 20080 30092 40208 58001 60006 85500 90000=
07110,1998-05-05 03:00:00,10,1019.9,-0.9,93,9,15000,11.112,,,310,,,,,,,,,,,wg-a,,,,AAXX 05034 07110 12365 53106 10100 20090 30083 40199 56009 60006 85500 90300=
07110,1998-05-05 06:00:00,10,1019.5,-0.3,93,9,7000,7.408,,,290,8.4,11.3,,,,,,,,,wg-a,,,,AAXX 05064 07110 02557 82904 10100 20090 30080 40195 55003 60006 885// 90600 333 10113 20084 60004=
07110,1998-05-05 09:00:00,12,1019.5,0,76,8,15000,18.52,,,290,,,,,,,,,,,wg-a,,,,AAXX 05094 07110 12465 /2910 10120 20080 30080 40195 50000 60006 86800 90900=
07110,1998-05-05 12:00:00,14,1018.5,-0.9,63,7,15000,22.224,,,260,,,,,,,,,,,wg-a,,,,AAXX 05124 07110 12565 /2612 10140 20070 30071 40185 58009 60006 85500 91200=
07110,1998-05-05 15:00:00,13,1017.4,-1.1,77,9,15000,25.928,,,260,,,,,,,,,,,wg-a,,,,AAXX 05154 07110 12565 /2614 10130 20090 30060 40174 58011 60006 85101 91500=
07110,1998-05-05 18:00:00,11,1016,-1.5,82,8,15000,22.224,,,260,10,14,,,,,,,,,wg-a,,,,AAXX 05184 07110 12465 82612 10110 20080 30045 40160 56015 60006 875// 91800 333 10140 20100=
07110,1998-05-05 21:00:00,11,1015.4,-0.6,87,9,8000,18.52,,,250,,,,,,,,,,,wg-a,,,,AAXX 05214 07110 12458 82510 10110 20090 30039 40154 58006 60006 875// 92100=
07110,1998-05-06 00:00:00,11,1014.4,-1,87,9,15000,18.52,,,250,,,,,,,,,,,wg-a,,,,AAXX 06004 07110 12465 72510 10110 20090 30029 40144 58010 60006 865// 90000=
07110,1998-05-06 03:00:00,11,1012.5,-1.8,87,9,15000,18.52,,,250,,,,,,,,,,20,wg-a,,,,AAXX 06034 07110 02465 82510 10110 20090 30011 40125 56018 61000 72052 885// 90300 333 ////=
07110,1998-05-06 06:00:00,10,1012.2,-0.3,100,10,4000,18.52,,,250,10.2,11.4,,,,,,,,10,wg-a,,,,AAXX 06064 07110 02340 82510 10100 20100 30008 40122 55003 61000 71065 885// 90600 333 10114 20102 6001=
07110,1998-05-06 09:00:00,12,1012.5,0.3,88,10,8000,18.52,,,250,,,,,,,,,,21,wg-a,,,,AAXX 06094 07110 02458 72510 10120 20100 30011 40125 50003 61000 72165 878// 90900 333 ////=
07110,1998-05-06 12:00:00,12,1013.6,1.1,88,10,10000,22.224,,,240,,,,,,,,,,3,wg-a,,,,AAXX 06124 07110 02460 72412 10120 20100 30022 40136 51011 61000 70365 878// 91200 333 ////=
07110,1998-05-06 15:00:00,13,1013.7,0.1,77,9,12000,22.224,,,250,,,,,,,,,,,wg-a,,,,AAXX 06154 07110 12462 72512 10130 20090 30023 40137 52001 60006 878// 91500=
07110,1998-05-06 18:00:00,12,1013.5,-0.2,88,10,12000,22.224,,,230,10.4,13.3,,,,,,,,,wg-a,,,,AAXX 06184 07110 12462 82312 10120 20100 30021 40135 56002 60006 878// 91800 333 10133 20104=
07110,1998-05-06 21:00:00,11,1014.3,0.8,94,10,10000,14.816,,,230,,,,,,,,,,,wg-a,,,,AAXX 06214 07110 12460 82308 10110 20100 30029 40143 53008 60006 885// 92100=
07110,1998-05-07 00:00:00,11,1014.1,-0.2,94,10,10000,18.52,,,220,,,,,,,,,,,wg-a,,,,AAXX 07004 07110 12460 82210 10110 20100 30027 40141 57002 60006 885// 90000=
07110,1998-05-07 03:00:00,11,1013.5,-0.6,87,9,10000,14.816,,,210,,,,,,,,,,,wg-a,,,,AAXX 07034 07110 12660 82108 10110 20090 30021 40135 58006 60006 887// 90300=
07110,1998-05-07 06:00:00,12,1013.8,0.3,88,10,8000,22.224,,,210,11.2,11.9,,,,,,,,,wg-a,,,,AAXX 07064 07110 02258 82112 10120 20100 30024 40138 53003 60006 885// 90600 333 10119 20112 61000=
07110,1998-05-07 09:00:00,12,1015.1,1.3,88,10,10000,22.224,,40.744,210,,,,,,,,,,,wg-a,,,,AAXX 07094 07110 12360 82112 10120 20100 30037 40151 52013 60006 877// 90900 333 91022=
07110,1998-05-07 12:00:00,13,1015.7,0.6,82,10,15000,25.928,,44.448,200,,,,,,,,,,,wg-a,,,,AAXX 07124 07110 12465 62014 10130 20100 30043 40157 51006 60006 86800 91200 333 91024=
07110,1998-05-07 15:00:00,14,1015.5,-0.1,77,10,20000,22.224,,,190,,,,,,,,,,,wg-a,,,,AAXX 07154 07110 12570 41912 10140 20100 30042 40155 58001 60006 83201 91500=
07110,1998-05-07 18:00:00,13,1015.4,-0.2,82,10,20000,14.816,,,190,11.5,14.8,,,,,,,,,wg-a,,,,AAXX 07184 07110 12570 31908 10130 20100 30040 40154 58002 60006 81102 91800 333 10148 20115=
07110,1998-05-07 21:00:00,10,1016.5,1,93,9,20000,7.408,,,210,,,,,,,,,,,wg-a,,,,AAXX 07214 07110 12/70 22104 10100 20090 30050 40165 53010 60006 80002 92100=
07110,1998-05-08 00:00:00,9,1016.2,-0.4,93,8,15000,7.408,,,30,,,,,,,,,,,wg-a,,,,AAXX 08004 07110 12/65 20304 10090 20080 30046 40162 58004 60006 80002 90000=
07110,1998-05-08 03:00:00,8,1015,-1.2,93,7,10000,7.408,,,30,,,,0,,,,,,,wg-a,,,,AAXX 08034 07110 12/60 20304 10080 20070 30034 40150 58012 60007 80002 90300=
07110,1998-05-08 06:00:00,8,1015,-0,100,8,900,3.704,,,70,6.6,13.4,,,,,,,,42,wg-a,,,,AAXX 08064 07110 02/09 50702 10080 20080 30034 40150 55000 60006 74241 82072 90600 333 10134 20066 60004=
07110,1998-05-08 09:00:00,15,1014.3,-0.4,77,11,10000,7.408,,,110,,,,,,,,,,3,wg-a,,,,AAXX 08094 07110 12760 61104 10150 20110 30030 40143 58004 60006 70342 81572 90900=
07110,1998-05-08 12:00:00,20,1013.7,-0.4,64,13,10000,22.224,,,160,,,,,,,,,,1,wg-a,,,,AAXX 08124 07110 12560 51612 10200 20130 30026 40137 58004 60006 70142 81282 91200=
07110,1998-05-08 15:00:00,20,1012.7,-1,60,12,15000,29.632,,,160,,,,,,,,,,,wg-a,,,,AAXX 08154 07110 12/65 61616 10200 20120 30016 40127 56010 60006 84082 91500=
07110,1998-05-08 18:00:00,17,1012.6,-0.2,72,12,15000,25.928,,,180,7.7,20.7,,,,,,,,,wg-a,,,,AAXX 08184 07110 12/65 41814 10170 20120 30014 40126 55002 60006 82032 91800 333 10207 20077=
07110,1998-05-08 21:00:00,14,1014.5,1.8,82,11,15000,18.52,,,180,,,,,,,,,,,wg-a,,,,AAXX 08214 07110 12/65 61810 10140 20110 30032 40145 53018 60006 83032 92100=
07110,1998-05-09 00:00:00,13,1015.8,1.2,94,12,6000,14.816,,,200,,,,,,,,,,,wg-a,,,,AAXX 09004 07110 12/56 /2008 10130 20120 30044 40158 53012 60006 90000=
07110,1998-05-09 03:00:00,11,1017.6,1.7,94,10,500,7.408,,,230,,,,,,,,,,,wg-a,,,,AAXX 09034 07110 12300 72304 10110 20100 30061 40176 51017 60006 875// 90300=
07110,1998-05-09 06:00:00,11,1019.2,1.6,87,9,10000,7.408,,,220,10.4,17.2,,,,,,,,,wg-a,,,,AAXX 09064 07110 02460 /2204 10110 20090 30077 40192 53016 60006 81102 90600 333 10172 20104 60004=
07110,1998-05-09 09:00:00,14,1020.3,1.2,77,10,12000,7.408,,,220,,,,,,,,,,,wg-a,,,,AAXX 09094 07110 12562 62204 10140 20100 30089 40203 51012 60006 83202 90900=
07110,1998-05-09 12:00:00,17,1020.7,0.5,63,10,15000,11.112,,,250,,,,,,,,,,,wg-a,,,,AAXX 09124 07110 12565 62506 10170 20100 30094 40207 50005 60006 84202 91200=
07110,1998-05-09 15:00:00,18,1020,-0.6,56,9,15000,7.408,,,360,,,,,,,,,,,wg-a,,,,AAXX 09154 07110 12665 53604 10180 20090 30088 40200 58006 60006 83202 91500=
07110,1998-05-09 18:00:00,15,1019.8,-0.3,63,8,12000,11.112,,,20,10.6,18.5,,,,,,,,,wg-a,,,,AAXX 09184 07110 12662 /0206 10150 20080 30085 40198 57003 60006 81232 91800 333 10185 20106=
07110,1998-05-10 00:00:00,11,1019.3,-0.9,87,9,10000,11.112,,,40,,,,,,,,,,,wg-a,,,,AAXX 10004 07110 12/60 /0406 10110 20090 30078 40193 57009 60006 90000=
07110,1998-05-10 06:00:00,11,1016.7,-0.7,87,9,10000,14.816,,,60,10.3,15.2,,,,,,,,,wg-a,,,,AAXX 10064 07110 02560 /0608 10110 20090 30052 40167 55007 60006 82932 90600 333 10152 20103 60004=
07110,1998-05-10 09:00:00,15,1014.7,-1.8,88,13,12000,11.112,,,50,,,,,,,,,,1,wg-a,,,,AAXX 10094 07110 02562 50506 10150 20130 30034 40147 56018 61000 70186 81932 90900 333 ////=
07110,1998-05-10 12:00:00,24,1012.8,-1.5,54,14,15000,22.224,,,120,,,,,,,,,,2,wg-a,,,,AAXX 10124 07110 02/65 51212 10240 20140 30019 40128 56015 61000 70286 84082 91200 333 ////=
07110,1998-05-10 15:00:00,24,1011.2,-1.6,54,14,12000,22.224,,,140,,,,,,,,,,,wg-a,,,,AAXX 10154 07110 12562 /1412 10240 20140 30003 40112 58016 60006 81982 91500=
07110,1998-05-10 18:00:00,20,1011.2,-0.2,68,14,20000,3.704,,,170,10.7,24.2,,,,,,,,,wg-a,,,,AAXX 10184 07110 12/70 61702 10200 20140 30001 40112 57002 60006 85032 91800 333 10242 20107=
07110,1998-05-10 21:00:00,17,1011.9,0.6,68,11,15000,18.52,,,160,,,,,,,,,,,wg-a,,,,AAXX 10214 07110 12/65 71610 10170 20110 30007 40119 50006 60006 85087 92100=
07110,1998-05-11 00:00:00,14,1011.2,-0.8,94,13,10000,7.408,,,30,,,,1,,,,,,1,wg-a,,,,AAXX 11004 07110 02/60 60304 10140 20130 39999 40112 56008 60016 70186 8609/ 90000 333 60017=
07110,1998-05-11 03:00:00,14,1011.2,-0,88,12,10000,7.408,,,40,,,,,,,,,,,wg-a,,,,AAXX 11034 07110 12/60 70404 10140 20120 39999 40112 55000 60006 86082 90300=
07110,1998-05-11 06:00:00,15,1010.8,-0.3,77,11,15000,11.112,,,110,13.5,19.9,,,,,1,,,,wg-a,,,,AAXX 11064 07110 02/65 71106 10150 20110 39996 40108 56003 60006 85082 90600 333 10199 20135 60014=
07110,1998-05-11 09:00:00,19,1011,0.3,78,15,20000,11.112,,,90,,,,,,,,,,,wg-a,,,,AAXX 11094 07110 12/70 50906 10190 20150 39999 40110 53003 60006 83082 90900=
07110,1998-05-11 12:00:00,24,1010.7,-0.1,57,15,20000,18.52,,,60,,,,,,,,,,,wg-a,,,,AAXX 11124 07110 12770 20610 10240 20150 39998 40107 58001 60006 81101 91200=
07110,1998-05-11 15:00:00,23,1010.7,-0,61,15,20000,11.112,,,270,,,,,,,,,,,wg-a,,,,AAXX 11154 07110 12670 62706 10230 20150 39998 40107 55000 60006 84201 91500=
07110,1998-05-11 18:00:00,19,1011,0.1,78,15,15000,11.112,,,20,15.4,24.9,,,,,,,,,wg-a,,,,AAXX 11184 07110 12/65 60206 10190 20150 39999 40110 53001 60006 83032 91800 333 10249 20154=
07110,1998-05-11 21:00:00,17,1012.7,1.6,77,13,8000,11.112,,,180,,,,,,,,,,61,wg-a,,,,AAXX 11214 07110 02258 81806 10170 20130 30015 40127 51016 61000 76162 8457/ 92100 333 ////=
07110,1998-05-12 00:00:00,15,1013.6,0.8,94,14,8000,7.408,,,100,,,,0,,,,,,21,wg-a,,,,AAXX 12004 07110 02758 81004 10150 20140 30023 40136 51008 60006 72162 8357/ 90000 333 60007=
07110,1998-05-12 03:00:00,15,1014,0.4,88,13,9000,11.112,,,140,,,,,,,,,,,wg-a,,,,AAXX 12034 07110 12759 /1406 10150 20130 30027 40140 53004 60006 81530 90300=
07110,1998-05-12 06:00:00,14,1014.8,0.8,88,12,10000,11.112,,,150,13.9,19.3,,,,,,,,,wg-a,,,,AAXX 12064 07110 02/60 51506 10140 20120 30035 40148 53008 60006 84031 90600 333 10193 20139 60004=
07110,1998-05-12 09:00:00,18,1016.2,1.5,68,12,25000,14.816,,,170,,,,,,,,,,,wg-a,,,,AAXX 12094 07110 12/75 51708 10180 20120 30050 40162 52015 60006 85031 90900=
07110,1998-05-12 12:00:00,22,1016.4,0.4,60,14,25000,11.112,,,170,,,,,,,,,,,wg-a,,,,AAXX 12124 07110 12575 21706 10220 20140 30054 40164 53004 60006 81131 91200=
07110,1998-05-12 15:00:00,21,1017.5,1,64,14,20000,14.816,,,340,,,,,,,,,,,wg-a,,,,AAXX 12154 07110 12670 /3408 10210 20140 30064 40175 53010 60006 85131 91500=
07110,1998-05-12 18:00:00,17,1018.1,0.4,68,11,15000,14.816,,,30,14.1,23,,,,,,,,,wg-a,,,,AAXX 12184 07110 12665 70308 10170 20110 30068 40181 52004 60006 81282 91800 333 10230 20141=
07110,1998-05-12 21:00:00,16,1019.3,1.2,82,13,15000,0,,,0,,,,,,,,,,,wg-a,,,,AAXX 12214 07110 12865 70000 10160 20130 30080 40193 52012 60006 85082 92100=
07110,1998-05-13 00:00:00,15,1019.3,0,88,13,15000,7.408,,,330,,,,,,,,,,,wg-a,,,,AAXX 13004 07110 12665 73304 10150 20130 30080 40193 50000 60006 8558/ 90000=
07110,1998-05-13 03:00:00,12,1019.4,-0,100,12,1000,3.704,,,300,,,,,,,,,,10,wg-a,,,,AAXX 13034 07110 02110 83002 10120 20120 30080 40194 55000 61000 71062 887// 90300 333 ////=
07110,1998-05-13 06:00:00,13,1019.1,-0.3,94,12,1500,0,,,0,12.1,16.9,,,,,,,,10,wg-a,,,,AAXX 13064 07110 02215 70000 10130 20120 30077 40191 55003 61000 71064 8357/ 90600 333 10169 20121 6002=
07110,1998-05-13 09:00:00,14,1019,-0.1,100,14,2500,14.816,,,360,,,,1,,,,,,10,wg-a,,,,AAXX 13094 07110 12125 83608 10140 20140 30076 40190 56001 60017 71062 876// 90900=
07110,1998-05-13 12:00:00,17,1019.6,0.7,88,15,3000,11.112,,,350,,,,,,,,,,10,wg-a,,,,AAXX 13124 07110 12230 83506 10170 20150 30083 40196 51007 60016 71062 876// 91200=
07110,1998-05-13 15:00:00,18,1018.9,-0.6,88,16,1500,11.112,,,10,,,,,,,,,,10,wg-a,,,,AAXX 13154 07110 12215 80106 10180 20160 30077 40189 58006 60006 71022 876// 91500=
07110,1998-05-13 18:00:00,14,1018.9,-0.1,94,13,500,14.816,,,10,12.5,18.4,,,,,,,,44,wg-a,,,,AAXX 13184 07110 12105 80108 10140 20130 30076 40189 58001 60006 74442 886// 91800 333 10184 20125=
07110,1998-05-13 21:00:00,13,1018.9,-0.1,100,13,500,14.816,,,10,11.5,18.4,,,,,,,,44,wg-a,,,,AAXX 13214 07110 32105 80108 10130 20130 30076 40189 58001 74442 886// 92100 333 10184 20115=
07110,1998-05-14 00:00:00,13,1020.4,0.1,100,13,500,14.816,,,20,,,,,,,,,,44,wg-a,,,,AAXX 14004 07110 12105 80208 10130 20130 30090 40204 51001 60006 74444 886// 90000=
07110,1998-05-14 03:00:00,12,1019.8,-0.6,100,12,500,11.112,,,360,,,,,,,,,,44,wg-a,,,,AAXX 14034 07110 12005 83606 10120 20120 30084 40198 56006 60006 74444 886// 90300=
07110,1998-05-14 06:00:00,12,1020.4,0.6,100,12,100,7.408,,,20,11.8,14.5,,,,,1,,,44,wg-a,,,,AAXX 14064 07110 02001 80204 10120 20120 30090 40204 53006 60006 74444 886// 90600 333 10145 20118 60014=
07110,1998-05-14 09:00:00,13,1021.1,0.7,100,13,300,14.816,,,350,,,,0,,,,,,42,wg-a,,,,AAXX 14094 07110 12003 83508 10130 20130 30097 40211 50007 60007 74244 886// 90900=
07110,1998-05-14 15:00:00,19,1020.4,-0.3,83,16,4000,18.52,,,360,,,,,,,,,,10,wg-a,,,,AAXX 14154 07110 12340 23610 10190 20160 30092 40204 56003 60006 71041 82602 91500=
07110,1998-05-14 18:00:00,16,1020.1,-0.4,88,14,3500,14.816,,,360,12.4,18.9,,,,,,,,10,wg-a,,,,AAXX 14184 07110 12/35 /3608 10160 20140 30088 40201 57004 60006 71041 80002 91800 333 10189 20124=
07110,1998-05-14 21:00:00,13,1021,0.8,94,12,300,11.112,,,20,,,,,,,,,,44,wg-a,,,,AAXX 14214 07110 12003 80206 10130 20120 30096 40210 53008 60006 74441 886// 92100=
07110,1998-05-15 00:00:00,12,1020.6,-0.5,100,12,300,7.408,,,30,,,,,,,,,,44,wg-a,,,,AAXX 15004 07110 12003 80304 10120 20120 30091 40206 58005 60006 74441 886// 90000=
07110,1998-05-15 03:00:00,12,1020.1,-0.5,100,12,300,3.704,,,340,,,,,,,,,,44,wg-a,,,,AAXX 15034 07110 12003 83402 10120 20120 30086 40201 56005 60006 74444 886// 90300=
07110,1998-05-15 06:00:00,12,1020.3,0.2,100,12,100,7.408,,,30,11.2,16.1,,,,,,,,44,wg-a,,,,AAXX 15064 07110 02001 80304 10120 20120 30088 40203 53002 60006 74444 886// 90600 333 10161 20112 60004=
07110,1998-05-15 09:00:00,15,1020.1,0,100,15,3000,14.816,,,10,,,,,,,,,,10,wg-a,,,,AAXX 15094 07110 12130 70108 10150 20150 30088 40201 50000 60006 71042 876// 90900=
07110,1998-05-15 12:00:00,20,1019.8,-0.1,83,17,500,18.52,,,30,,,,,,,,,,1,wg-a,,,,AAXX 15124 07110 12500 /0310 10200 20170 30087 40198 58001 60006 70141 81100 91200=
07110,1998-05-15 18:00:00,18,1018.8,-0.4,73,13,3000,18.52,,,20,11.8,21.4,,,,,,,,10,wg-a,,,,AAXX 15184 07110 12630 20210 10180 20130 30076 40188 55004 60006 71000 81501 91800 333 10214 20118=
07110,1998-05-15 21:00:00,14,1020,1,88,12,2500,7.408,,,10,,,,,,,,,,10,wg-a,,,,AAXX 15214 07110 12/25 40104 10140 20120 30086 40200 53010 60006 71000 80001 92100=
07110,1998-05-16 00:00:00,12,1020.2,0.1,94,11,2000,7.408,,,10,,,,,,,,,,10,wg-a,,,,AAXX 16004 07110 12/20 40104 10120 20110 30087 40202 52001 60006 71000 80001 90000=
07110,1998-05-16 03:00:00,12,1019.6,-0.6,94,11,3000,7.408,,,30,,,,,,,,,,,wg-a,,,,AAXX 16034 07110 12/30 /0304 10120 20110 30081 40196 57006 60006 90300=
07110,1998-05-16 06:00:00,12,1020.4,0.8,88,10,2500,7.408,,,20,10.8,17.7,,,,,,,,10,wg-a,,,,AAXX 16064 07110 02/25 /0204 10120 20100 30089 40204 53008 60006 71000 80001 90600 333 10177 20108 60004=
07110,1998-05-16 09:00:00,20,1020.9,0.8,53,10,8000,14.816,,,50,,,,,,,,,,,wg-a,,,,AAXX 16094 07110 12/58 00508 10200 20100 30097 40209 51008 60006 80000 90900=
07110,1998-05-16 12:00:00,22,1021,0.2,41,8,8000,18.52,,,50,,,,,,,,,,,wg-a,,,,AAXX 16124 07110 12/58 00510 10220 20080 30099 40210 51002 60006 80000 91200=
07110,1998-05-16 15:00:00,21,1020.6,-0.4,49,10,8000,18.52,,,20,,,,,,,,,,,wg-a,,,,AAXX 16154 07110 12/58 00210 10210 20100 30095 40206 56004 60006 80000 91500=
07110,1998-05-16 18:00:00,18,1020.8,0.1,68,12,8000,11.112,,,20,11.9,22.8,,,,,,,,,wg-a,,,,AAXX 16184 07110 12/58 00206 10180 20120 30096 40208 53001 60006 80000 91800 333 10228 20119=
07110,1998-05-16 21:00:00,12,1021.9,0.8,94,11,3000,7.408,,,20,,,,,,,,,,,wg-a,,,,AAXX 16214 07110 12/30 /0204 10120 20110 30104 40219 52008 60006 92100=
07110,1998-05-17 00:00:00,11,1022.5,0.5,87,9,500,7.408,,,20,,,,,,,,,,,wg-a,,,,AAXX 17004 07110 12/00 00204 10110 20090 30109 40225 51005 60006 80000 90000=
07110,1998-05-17 03:00:00,11,1022.2,-0.3,82,8,7000,11.112,,,30,,,,,,,,,,,wg-a,,,,AAXX 17034 07110 12/57 00306 10110 20080 30106 40222 58003 60006 80000 90300=
07110,1998-05-17 06:00:00,11,1022.6,0.5,87,9,7000,7.408,,,30,9.7,18.4,,,,,,,,,wg-a,,,,AAXX 17064 07110 02557 /0304 10110 20090 30111 40226 53005 60006 81500 90600 333 10184 20097 60004=
07110,1998-05-17 09:00:00,16,1023,0.5,63,9,12000,14.816,,,30,,,,,,,,,,,wg-a,,,,AAXX 17094 07110 12/62 20308 10160 20090 30116 40230 51005 60006 80002 90900=
07110,1998-05-17 12:00:00,18,1022.9,0,59,10,20000,18.52,,,30,,,,,,,,,,,wg-a,,,,AAXX 17124 07110 12/70 20310 10180 20100 30116 40229 50000 60006 80002 91200=
07110,1998-05-17 15:00:00,18,1022.1,-0.8,73,13,20000,18.52,,,20,,,,,,,,,,,wg-a,,,,AAXX 17154 07110 12/70 20210 10180 20130 30108 40221 56008 60006 80002 91500=
07110,1998-05-17 18:00:00,16,1022.3,0.2,77,12,8000,14.816,,,30,11.1,18.8,,,,,,,,,wg-a,,,,AAXX 17184 07110 12/58 30308 10160 20120 30110 40223 53002 60006 82082 91800 333 10188 20111=
07110,1998-05-17 21:00:00,13,1023.7,1.2,82,10,6000,11.112,,,30,,,,,,,,,,,wg-a,,,,AAXX 17214 07110 12/56 /0306 10130 20100 30122 40237 53012 60006 80002 92100=
07110,1998-05-18 00:00:00,10,1023.7,-0.1,100,10,6000,7.408,,,30,,,,,,,,,,,wg-a,,,,AAXX 18004 07110 12/56 /0304 10100 20100 30121 40237 58001 60006 80002 90000=
07110,1998-05-18 03:00:00,10,1023.8,0.1,93,9,6000,11.112,,,30,,,,,,,,,,,wg-a,,,,AAXX 18034 07110 12/56 /0306 10100 20090 30122 40238 52001 60006 80002 90300=
07110,1998-05-18 06:00:00,11,1024.4,0.7,94,10,500,11.112,,,40,9.8,16.6,,,,,,,,,wg-a,,,,AAXX 18064 07110 02700 30406 10110 20100 30129 40244 53007 60006 83500 90600 333 10166 20098 60004=
07110,1998-05-18 09:00:00,18,1025,0.8,73,13,7000,11.112,,,30,,,,,,,,,,,wg-a,,,,AAXX 18094 07110 12/57 00306 10180 20130 30137 40250 51008 60006 80000 90900=
07110,1998-05-18 12:00:00,22,1024.3,-0.5,57,13,8000,22.224,,,30,,,,,,,,,,,wg-a,,,,AAXX 18124 07110 12558 /0312 10220 20130 30132 40243 58005 60006 81100 91200=
07110,1998-05-18 15:00:00,21,1024.3,-0.1,56,12,10000,18.52,,,30,,,,,,,,,,,wg-a,,,,AAXX 18154 07110 12660 /0310 10210 20120 30131 40243 57001 60006 81100 91500=
07110,1998-05-18 18:00:00,20,1024.3,-0,56,11,10000,18.52,,,40,11.4,22.1,,,,,,,,,wg-a,,,,AAXX 18184 07110 12/60 00410 10200 20110 30131 40243 55000 60006 80000 91800 333 10221 20114=
07110,1998-05-18 21:00:00,15,1025.6,1.1,82,12,10000,7.408,,,30,,,,,,,,,,,wg-a,,,,AAXX 18214 07110 12/60 10304 10150 20120 30142 40256 53011 60006 80002 92100=
07110,1998-05-19 00:00:00,13,1025.9,0.2,82,10,8000,7.408,,,50,,,,,,,,,,,wg-a,,,,AAXX 19004 07110 12/58 /0504 10130 20100 30144 40259 53002 60006 80002 90000=
07110,1998-05-19 03:00:00,12,1025.7,-0.2,82,9,8000,7.408,,,20,,,,,,,,,,,wg-a,,,,AAXX 19034 07110 12/58 00204 10120 20090 30142 40257 58002 60006 80000 90300=
07110,1998-05-19 06:00:00,12,1026.1,0.4,94,11,3000,7.408,,,40,10.7,19.7,,,,,,,,10,wg-a,,,,AAXX 19064 07110 02/30 20404 10120 20110 30146 40261 53004 60006 71000 82030 90600 333 10197 20107 60004=
07110,1998-05-19 09:00:00,19,1025.9,0,73,14,6000,14.816,,,30,,,,,,,,,,,wg-a,,,,AAXX 19094 07110 12/56 00308 10190 20140 30146 40259 50000 60006 80000 90900=
07110,1998-05-19 12:00:00,23,1024.8,-0.9,57,14,10000,18.52,,,20,,,,,,,,,,,wg-a,,,,AAXX 19124 07110 12760 20210 10230 20140 30137 40248 58009 60006 82500 91200=
07110,1998-05-19 15:00:00,23,1024.2,-0.6,50,12,12000,22.224,,,40,,,,,,,,,,,wg-a,,,,AAXX 19154 07110 12762 20412 10230 20120 30131 40242 56006 60006 82500 91500=
07110,1998-05-19 18:00:00,19,1024,-0.3,60,11,12000,18.52,,,40,11.8,23.6,,,,,,,,,wg-a,,,,AAXX 19184 07110 12/62 00410 10190 20110 30128 40240 57003 60006 80000 91800 333 10236 20118=
07110,1998-05-19 21:00:00,15,1024.7,0.5,72,10,10000,7.408,,,40,,,,,,,,,,,wg-a,,,,AAXX 19214 07110 12/60 20404 10150 20100 30133 40247 53005 60006 80001 92100=
07110,1998-05-20 00:00:00,11,1024.9,0,94,10,20000,11.112,,,20,,,,,,,,,,,wg-a,,,,AAXX 20004 07110 12/70 00206 10110 20100 30133 40249 50000 60006 80000 90000=
07110,1998-05-20 03:00:00,11,1024.1,-0.8,87,9,10000,11.112,,,20,,,,,,,,,,,wg-a,,,,AAXX 20034 07110 12/60 00206 10110 20090 30125 40241 57008 60006 80000 90300=
07110,1998-05-20 06:00:00,12,1023.7,-0.3,82,9,10000,14.816,,,40,10.1,19.4,,,,,,,,,wg-a,,,,AAXX 20064 07110 02/60 10408 10120 20090 30122 40237 56003 60006 80001 90600 333 10194 20101 60004=
07110,1998-05-20 09:00:00,18,1023.6,0.1,56,9,15000,18.52,,,30,,,,,,,,,,,wg-a,,,,AAXX 20094 07110 12/65 00310 10180 20090 30123 40236 50001 60006 80000 90900=
07110,1998-05-20 12:00:00,21,1023.1,-0.3,56,12,20000,14.816,,,20,,,,,,,,,,,wg-a,,,,AAXX 20124 07110 12/70 20208 10210 20120 30120 40231 58003 60006 80001 91200=
07110,1998-05-20 15:00:00,22,1022.5,-0.6,46,10,20000,18.52,,,30,,,,,,,,,,,wg-a,,,,AAXX 20154 07110 12/70 40310 10220 20100 30114 40225 58006 60006 80001 91500=
07110,1998-05-20 18:00:00,20,1022.3,-0.3,60,12,10000,18.52,,,40,11.5,22.2,,,,,,,,,wg-a,,,,AAXX 20184 07110 12/60 20410 10200 20120 30111 40223 56003 60006 80001 91800 333 10222 20115=
07110,1998-05-20 21:00:00,15,1023.2,0.7,77,11,10000,7.408,,,20,,,,,,,,,,,wg-a,,,,AAXX 20214 07110 12/60 10204 10150 20110 30118 40232 53007 60006 80001 92100=
07110,1998-05-21 00:00:00,12,1024.1,0.8,88,10,8000,3.704,,,20,,,,,,,,,,,wg-a,,,,AAXX 21004 07110 12/58 /0202 10120 20100 30126 40241 51008 60006 80001 90000=
07110,1998-05-21 03:00:00,12,1023.4,-0.7,82,9,6000,3.704,,,10,,,,,,,,,,,wg-a,,,,AAXX 21034 07110 12/56 00102 10120 20090 30119 40234 55007 60006 80000 90300=
07110,1998-05-21 06:00:00,13,1023.7,0.3,88,11,2000,7.408,,,340,11.4,19.8,,,,,,,,10,wg-a,,,,AAXX 21064 07110 02/20 /3404 10130 20110 30122 40237 53003 60006 71000 80001 90600 333 10198 20114 60004=
07110,1998-05-21 09:00:00,19,1023.9,0.5,64,12,15000,7.408,,,20,,,,,,,,,,,wg-a,,,,AAXX 21094 07110 12/65 20204 10190 20120 30127 40239 52005 60006 80001 90900=
07110,1998-05-21 12:00:00,22,1023.6,-0.2,53,12,15000,14.816,,,360,,,,,,,,,,,wg-a,,,,AAXX 21124 07110 12565 23608 10220 20120 30125 40236 57002 60006 81101 91200=
07110,1998-05-21 15:00:00,20,1023.9,0.2,68,14,8000,22.224,,,360,,,,,,,,,,,wg-a,,,,AAXX 21154 07110 12/58 33612 10200 20140 30127 40239 51002 60006 80001 91500=
07110,1998-05-21 18:00:00,17,1023.6,-0.4,77,13,8000,18.52,,,360,12.7,22.2,,,,,,,,,wg-a,,,,AAXX 21184 07110 12/58 23610 10170 20130 30123 40236 57004 60006 80001 91800 333 10222 20127=
07110,1998-05-21 21:00:00,14,1024.7,1,88,12,8000,7.408,,,10,,,,,,,,,,,wg-a,,,,AAXX 21214 07110 12/58 40104 10140 20120 30133 40247 53010 60006 80002 92100=
07110,1998-05-22 00:00:00,12,1025.2,0.4,94,11,2000,7.408,,,320,,,,,,,,,,10,wg-a,,,,AAXX 22004 07110 12/20 43204 10120 20110 30137 40252 51004 60006 71000 80002 90000=
07110,1998-05-22 03:00:00,11,1025.8,0.5,94,10,500,3.704,,,360,,,,,,,,,,,wg-a,,,,AAXX 22034 07110 12/00 33602 10110 20100 30142 40258 52005 60006 80002 90300=
07110,1998-05-22 06:00:00,12,1026.1,0.4,100,12,3500,7.408,,,50,10.2,17.2,,,,,,,,10,wg-a,,,,AAXX 22064 07110 02635 70504 10120 20120 30146 40261 52004 60006 71011 8753/ 90600 333 10172 20102 60004=
07110,1998-05-22 09:00:00,15,1026.5,0.5,72,10,8000,3.704,,,90,,,,,,,,,,,wg-a,,,,AAXX 22094 07110 12658 70902 10150 20100 30151 40265 51005 60006 8253/ 90900=
07110,1998-05-22 12:00:00,18,1026,-0.4,56,9,8000,7.408,,,40,,,,,,,,,,,wg-a,,,,AAXX 22124 07110 12658 60404 10180 20090 30147 40260 56004 60006 84802 91200=
07110,1998-05-22 15:00:00,19,1025.8,-0.2,49,8,15000,18.52,,,40,,,,,,,,,,,wg-a,,,,AAXX 22154 07110 12665 20410 10190 20080 30145 40258 58002 60006 82100 91500=
07110,1998-05-22 18:00:00,16,1025.8,-0.1,59,8,10000,18.52,,,40,11.9,19.1,,,,,,,,,wg-a,,,,AAXX 22184 07110 12660 /0410 10160 20080 30144 40258 55001 60006 81100 91800 333 10191 20119=
07110,1998-05-22 21:00:00,11,1026.9,0.9,82,8,8000,7.408,,,30,,,,,,,,,,,wg-a,,,,AAXX 22214 07110 12/58 20304 10110 20080 30153 40269 53009 60006 80001 92100=
07110,1998-05-23 00:00:00,9,1027.2,0.2,87,7,8000,3.704,,,30,,,,,,,,,,,wg-a,,,,AAXX 23004 07110 12/58 20302 10090 20070 30155 40272 50002 60006 80001 90000=
07110,1998-05-23 06:00:00,9,1026.1,-0.4,93,8,4500,0,,,0,7.9,16.3,,,,,,,,10,wg-a,,,,AAXX 23064 07110 02745 70000 10090 20080 30144 40261 56004 60006 71011 875// 90600 333 10163 20079 60004=
07110,1998-05-23 09:00:00,14,1025.2,-0.6,88,12,8000,11.112,,,340,,,,,,,,,,,wg-a,,,,AAXX 23094 07110 12358 73406 10140 20120 30138 40252 58006 60006 87500 90900=
07110,1998-05-23 12:00:00,18,1024.2,-0.9,64,11,12000,18.52,,,10,,,,,,,,,,,wg-a,,,,AAXX 23124 07110 12562 40110 10180 20110 30129 40242 58009 60006 84800 91200=
07110,1998-05-23 15:00:00,18,1023.4,-0.8,56,9,8000,22.224,,,360,,,,,,,,,,,wg-a,,,,AAXX 23154 07110 12658 /3612 10180 20090 30121 40234 56008 60006 81100 91500=
07110,1998-05-23 18:00:00,16,1022.8,-0.7,63,9,8000,18.52,,,360,9.1,18.6,,,,,,,,,wg-a,,,,AAXX 23184 07110 12/58 03610 10160 20090 30114 40228 57007 60006 80000 91800 333 10186 20091=
07110,1998-05-23 21:00:00,12,1023,0.1,88,10,8000,7.408,,,340,,,,,,,,,,,wg-a,,,,AAXX 23214 07110 12/58 /3404 10120 20100 30115 40230 53001 60006 80002 92100=
07110,1998-05-24 00:00:00,11,1022.2,-0.9,94,10,8000,7.408,,,340,,,,,,,,,,,wg-a,,,,AAXX 24004 07110 12458 43404 10110 20100 30106 40222 58009 60006 84502 90000=
07110,1998-05-24 03:00:00,12,1020.8,-1.3,94,11,500,7.408,,,340,,,,,,,,,,,wg-a,,,,AAXX 24034 07110 12200 73404 10120 20110 30093 40208 58013 60006 876// 90300=
07110,1998-05-24 06:00:00,13,1019.9,-0.8,94,12,4000,11.112,,,340,10.5,15.9,,,,,,,,10,wg-a,,,,AAXX 24064 07110 02240 83406 10130 20120 30085 40199 56008 60006 71011 876// 90600 333 10159 20105 60004=
07110,1998-05-24 09:00:00,15,1019.6,-0.2,82,12,10000,18.52,,,10,,,,,,,,,,,wg-a,,,,AAXX 24094 07110 12460 70110 10150 20120 30083 40196 57002 60006 878// 90900=
07110,1998-05-24 12:00:00,16,1019.5,-0.1,72,11,12000,22.224,,,360,,,,,,,,,,,wg-a,,,,AAXX 24124 07110 12462 /3612 10160 20110 30082 40195 56001 60006 86800 91200=
07110,1998-05-24 15:00:00,15,1018.9,-0.6,77,11,12000,18.52,,,350,,,,,,,,,,,wg-a,,,,AAXX 24154 07110 12462 83510 10150 20110 30076 40189 58006 60006 888// 91500=
07110,1998-05-24 18:00:00,14,1018.1,-0.9,82,11,10000,14.816,,,340,12.9,16.6,,,,,,,,,wg-a,,,,AAXX 24184 07110 12460 83408 10140 20110 30067 40181 56009 60006 875// 91800 333 10166 20129=
07110,1998-05-24 21:00:00,13,1018.2,0.1,88,11,10000,7.408,,,330,,,,,,,,,,,wg-a,,,,AAXX 24214 07110 12560 83304 10130 20110 30068 40182 53001 60006 885// 92100=
07110,1998-05-25 00:00:00,13,1017.5,-0.7,82,10,10000,11.112,,,330,,,,,,,,,,,wg-a,,,,AAXX 25004 07110 12460 83306 10130 20100 30061 40175 58007 60006 885// 90000=
07110,1998-05-25 03:00:00,12,1016.2,-1.3,82,9,10000,7.408,,,300,,,,,,,,,,,wg-a,,,,AAXX 25034 07110 12560 83004 10120 20090 30048 40162 57013 60006 885// 90300=
07110,1998-05-25 06:00:00,12,1015.7,-0.5,94,11,15000,3.704,,,320,11.8,13.6,,,,,,,,,wg-a,,,,AAXX 25064 07110 02465 73202 10120 20110 30043 40157 56005 60006 878// 90600 333 10136 20118 60004=
07110,1998-05-25 09:00:00,15,1015.5,-0.1,72,10,20000,14.816,,,300,,,,,,,,,,,wg-a,,,,AAXX 25094 07110 12570 63008 10150 20100 30042 40155 55001 60006 85801 90900=
07110,1998-05-25 12:00:00,15,1014.9,-0.6,82,12,12000,18.52,,,310,,,,,,,,,,,wg-a,,,,AAXX 25124 07110 12462 83110 10150 20120 30036 40149 56006 60006 875// 91200=
07110,1998-05-25 15:00:00,16,1013.7,-1.1,77,12,15000,18.52,,,310,,,,,,,,,,,wg-a,,,,AAXX 25154 07110 12465 63110 10160 20120 30025 40137 56011 60006 86800 91500=
07110,1998-05-25 18:00:00,14,1012.8,-1,82,11,15000,14.816,,,320,12.1,16.9,,,,,,,,,wg-a,,,,AAXX 25184 07110 12465 73208 10140 20110 30015 40128 56010 60006 878// 91800 333 10169 20121=
07110,1998-05-25 21:00:00,12,1012.7,-0.2,94,11,15000,3.704,,,280,,,,,,,,,,,wg-a,,,,AAXX 25214 07110 12665 62802 10120 20110 30013 40127 56002 60006 83532 92100=
07110,1998-05-26 00:00:00,12,1011.3,-1.4,94,11,15000,7.408,,,280,,,,,,,,,,,wg-a,,,,AAXX 26004 07110 12465 /2804 10120 20110 39999 40113 58014 60006 86500 90000=
07110,1998-05-26 03:00:00,12,1009.8,-1.4,94,11,10000,11.112,,,280,,,,,,,,,,,wg-a,,,,AAXX 26034 07110 12460 72806 10120 20110 39985 40098 58014 60006 878// 90300=
07110,1998-05-26 06:00:00,13,1009.1,-0.7,94,12,10000,11.112,,,250,11.7,14.3,,,,,,,,,wg-a,,,,AAXX 26064 07110 02260 82506 10130 20120 39978 40091 56007 60006 887// 90600 333 10143 20117 60004=
07110,1998-05-26 09:00:00,15,1008.6,-0.4,77,11,10000,18.52,,,270,,,,,,,,,,,wg-a,,,,AAXX 26094 07110 12460 72710 10150 20110 39974 40086 57004 60006 877// 90900=
07110,1998-05-26 12:00:00,16,1008.2,-0.4,63,9,20000,22.224,,,270,,,,,,,,,,,wg-a,,,,AAXX 26124 07110 12570 72712 10160 20090 39970 40082 58004 60006 878// 91200=
07110,1998-05-26 15:00:00,15,1007.9,-0.3,67,9,20000,18.52,,,280,,,,,,,,,,,wg-a,,,,AAXX 26154 07110 12570 72810 10150 20090 39967 40079 58003 60006 878// 91500=
07110,1998-05-26 18:00:00,14,1007.3,-0.7,72,9,20000,18.52,,,270,12.6,16.4,,,,,,,,,wg-a,,,,AAXX 26184 07110 12570 52710 10140 20090 39960 40073 56007 60006 85800 91800 333 10164 20126=
07110,1998-05-26 21:00:00,10,1007.3,-0.1,87,8,20000,7.408,,,240,,,,,,,,,,,wg-a,,,,AAXX 26214 07110 12670 42404 10100 20080 39959 40073 57001 60006 84800 92100=
07110,1998-05-27 00:00:00,8,1006.9,-0.5,93,7,20000,7.408,,,230,,,,,,,,,,,wg-a,,,,AAXX 27004 07110 12770 12304 10080 20070 39954 40069 58005 60006 81500 90000=
07110,1998-05-27 03:00:00,8,1006,-0.9,93,7,20000,3.704,,,270,,,,,,,,,,,wg-a,,,,AAXX 27034 07110 12570 /2702 10080 20070 39945 40060 57009 60006 81200 90300=
07110,1998-05-27 06:00:00,8,1005.7,-0.3,100,8,15000,3.704,,,200,6.8,13.9,,,,,,,,,wg-a,,,,AAXX 27064 07110 02565 22002 10080 20080 39942 40057 55003 60006 82800 90600 333 10139 20068 60004=
07110,1998-05-27 09:00:00,14,1005.5,0.1,67,8,15000,11.112,,,310,,,,,,,,,,,wg-a,,,,AAXX 27094 07110 12565 43106 10140 20080 39943 40055 52001 60006 84200 90900=
07110,1998-05-27 12:00:00,16,1005.4,-0.1,55,7,15000,14.816,,,360,,,,,,,,,,,wg-a,,,,AAXX 27124 07110 12665 43608 10160 20070 39942 40054 58001 60006 84200 91200=
07110,1998-05-27 15:00:00,15,1005.2,-0.2,63,8,15000,14.816,,,340,,,,,,,,,,,wg-a,,,,AAXX 27154 07110 12665 43408 10150 20080 39940 40052 57002 60006 84200 91500=
07110,1998-05-27 18:00:00,13,1005.8,0.5,72,8,15000,14.816,,,10,8.3,15.9,,,,,,,,,wg-a,,,,AAXX 27184 07110 12565 40108 10130 20080 39945 40058 53005 60006 84201 91800 333 10159 20083=
07110,1998-05-27 21:00:00,9,1007.1,1.2,87,7,15000,7.408,,,20,,,,,,,,,,,wg-a,,,,AAXX 27214 07110 12565 30204 10090 20070 39957 40071 52012 60006 83201 92100=
07110,1998-05-28 00:00:00,8,1007.3,0.1,93,7,12000,7.408,,,330,,,,,,,,,,,wg-a,,,,AAXX 28004 07110 12562 /3304 10080 20070 39958 40073 51001 60006 85500 90000=
07110,1998-05-28 03:00:00,8,1006.5,-0.8,93,7,12000,7.408,,,330,,,,,,,,,,,wg-a,,,,AAXX 28034 07110 12562 /3304 10080 20070 39950 40065 56008 60006 85800 90300=
07110,1998-05-28 06:00:00,9,1006.4,-0,93,8,10000,3.704,,,300,7.7,13.1,,,,,,,,,wg-a,,,,AAXX 28064 07110 02560 73002 10090 20080 39950 40064 55000 60006 85801 90600 333 10131 20077 60004=
07110,1998-05-28 09:00:00,12,1006.7,0.4,76,8,10000,14.816,,,330,,,,,,,,,,,wg-a,,,,AAXX 28094 07110 12460 73308 10120 20080 39954 40067 52004 60006 85801 90900=
07110,1998-05-28 12:00:00,14,1006.7,0,63,7,12000,14.816,,,350,,,,,,,,,,,wg-a,,,,AAXX 28124 07110 12562 73508 10140 20070 39954 40067 50000 60006 85801 91200=
07110,1998-05-28 15:00:00,13,1006.7,-0,72,8,10000,18.52,,,350,,,,,,,,,,25,wg-a,,,,AAXX 28154 07110 02460 73510 10130 20080 39954 40067 55000 61000 72586 879// 91500 333 ////=
07110,1998-05-28 18:00:00,12,1007.2,0.5,76,8,12000,7.408,,,340,9.1,14.5,,,,,,,,1,wg-a,,,,AAXX 28184 07110 12562 73404 10120 20080 39959 40072 50005 60006 70198 85801 91800 333 10145 20091=
07110,1998-05-28 21:00:00,10,1008.1,0.8,87,8,12000,3.704,,,310,,,,,,,,,,,wg-a,,,,AAXX 28214 07110 12562 /3102 10100 20080 39967 40081 53008 60006 83902 92100=
07110,1998-05-29 00:00:00,8,1008.1,-0.1,93,7,15000,7.408,,,230,,,,,,,,,,,wg-a,,,,AAXX 29004 07110 12565 /2304 10080 20070 39966 40081 58001 60006 81800 90000=
07110,1998-05-29 03:00:00,7,1007.7,-0.4,93,6,15000,7.408,,,160,,,,,,,,,,,wg-a,,,,AAXX 29034 07110 12565 /1604 10070 20060 39962 40077 57004 60006 81800 90300=
07110,1998-05-29 06:00:00,9,1008.2,0.5,93,8,15000,7.408,,,160,6.4,12,,0,,,,,,,wg-a,,,,AAXX 29064 07110 02565 21604 10090 20080 39967 40082 53005 60004 81901 90600 333 10120 20064 60007=
07110,1998-05-29 09:00:00,14,1008.7,0.7,67,8,25000,22.224,,,190,,,,,,,,,,,wg-a,,,,AAXX 29094 07110 12575 41912 10140 20080 39974 40087 52007 60006 8490/ 90900=
07110,1998-05-29 12:00:00,14,1009.4,0.7,72,9,500,22.224,,,200,,,,,,,,,,,wg-a,,,,AAXX 29124 07110 12500 /2012 10140 20090 39981 40094 53007 60006 8520/ 91200=
07110,1998-05-29 15:00:00,16,1009.3,-0,55,7,500,18.52,,,190,,,,,,,,,,,wg-a,,,,AAXX 29154 07110 12500 21910 10160 20070 39981 40093 55000 60006 82900 91500=
07110,1998-05-29 18:00:00,14,1009.9,0.5,67,8,20000,7.408,,,260,8.8,16,,,,,,,,,wg-a,,,,AAXX 29184 07110 12570 52604 10140 20080 39986 40099 50005 60006 85900 91800 333 10160 20088=
07110,1998-05-29 21:00:00,12,1010.5,0.5,88,10,15000,7.408,,,40,,,,0,,,,,,1,wg-a,,,,AAXX 29214 07110 12565 70404 10120 20100 39991 40105 51005 60007 70186 81934 92100=
07110,1998-05-30 00:00:00,11,1009.8,-0.7,94,10,10000,7.408,,,40,,,,,,,,,,1,wg-a,,,,AAXX 30004 07110 12760 80404 10110 20100 39984 40098 58007 60006 70186 8357/ 90000=
07110,1998-05-30 03:00:00,10,1008.7,-1.1,100,10,8000,7.408,,,30,,,,5,,,,,,61,wg-a,,,,AAXX 30034 07110 12358 80304 10100 20100 39973 40087 58011 60057 76162 8557/ 90300=
07110,1998-05-30 06:00:00,11,1007.2,-1.5,100,11,3000,11.112,,,20,10.4,14.7,,,,,,,,51,wg-a,,,,AAXX 30064 07110 02330 80206 10110 20110 39958 40072 56015 61000 75165 877// 90600 333 10147 20104 6007=
07110,1998-05-30 09:00:00,12,1005.3,-1.8,100,12,2000,14.816,,,40,,,,6,,,,,,61,wg-a,,,,AAXX 30094 07110 12220 80408 10120 20120 39940 40053 56018 60067 76166 878// 90900=
07110,1998-05-30 12:00:00,13,1003.5,-1.7,100,13,3000,14.816,,,100,,,,8,,,,,,10,wg-a,,,,AAXX 30124 07110 02330 81008 10130 20130 39923 40035 57017 60146 71066 887// 91200 333 60087=
07110,1998-05-30 15:00:00,13,1003.2,-0.3,94,12,2000,7.408,,,190,,,,10,,,,,,10,wg-a,,,,AAXX 30154 07110 12320 81904 10130 20120 39920 40032 56003 60107 71066 887// 91500=
07110,1998-05-30 18:00:00,12,1003.9,0.6,100,12,8000,7.408,,,250,11.1,13.8,,,,,,,,21,wg-a,,,,AAXX 30184 07110 02258 72504 10120 20120 39926 40039 53006 61000 72162 872// 91800 333 10138 20111 6007=
07110,1998-05-30 21:00:00,12,1005.2,1.3,94,11,6000,14.816,,,220,,,,0,,,,,,61,wg-a,,,,AAXX 30214 07110 12356 82208 10120 20110 39939 40052 53013 60007 76162 887// 92100=
07110,1998-05-31 00:00:00,12,1006.4,1.2,88,10,10000,18.52,,,210,,,,1,,,,,,1,wg-a,,,,AAXX 31004 07110 02460 82110 10120 20100 39951 40064 51012 60026 70186 878// 90000 333 60017=
07110,1998-05-31 03:00:00,11,1006.7,0.3,94,10,10000,14.816,,,200,,,,,,,,,,,wg-a,,,,AAXX 31034 07110 12460 32008 10110 20100 39954 40067 50003 60006 83800 90300=
07110,1998-05-31 06:00:00,12,1007.3,0.6,88,10,15000,14.816,,,190,11,12.5,,,,,33,,,,wg-a,,,,AAXX 31064 07110 02465 31908 10120 20100 39960 40073 53006 60006 83900 90600 333 10125 20110 60334=
07110,1998-05-31 09:00:00,14,1007.9,0.6,82,11,10000,25.928,,,190,,,,1,,,,,,25,wg-a,,,,AAXX 31094 07110 12460 41914 10140 20110 39966 40079 52006 60017 72586 84901 90900=
07110,1998-05-31 12:00:00,15,1008.4,0.6,72,10,12000,25.928,,,190,,,,1,,,,,,1,wg-a,,,,AAXX 31124 07110 02462 61914 10150 20100 39972 40084 50006 60026 70186 84902 91200 333 60017=
07110,1998-05-31 15:00:00,16,1008.4,-0,68,10,20000,29.632,,,190,,,,,,,,,,,wg-a,,,,AAXX 31154 07110 12570 61916 10160 20100 39972 40084 54000 60006 84902 91500=
07110,1998-05-31 18:00:00,15,1008.3,-0.1,77,11,20000,29.632,,,180,12.3,16.5,,,,,,,,,wg-a,,,,AAXX 31184 07110 12570 /1816 10150 20110 39971 40083 57001 60006 85202 91800 333 10165 20123=
07110,1998-05-31 21:00:00,13,1009.1,0.7,88,11,500,18.52,,,160,,,,1,,,,,,81,wg-a,,,,AAXX 31214 07110 12400 71610 10130 20110 39978 40091 53007 60017 78186 874// 92100=
07110,1998-06-01 00:00:00,13,1009.2,0.1,94,12,10000,11.112,,,160,,,,0,,,,,,3,wg-a,,,,AAXX 01004 07110 02460 /1606 10130 20120 39979 40092 50001 60016 70386 86800 90000 333 60007=
07110,1998-06-01 03:00:00,12,1008.8,-0.5,94,11,10000,11.112,,,130,,,,,,,,,,,wg-a,,,,AAXX 01034 07110 12560 /1306 10120 20110 39974 40088 57005 60006 85200 90300=
07110,1998-06-01 06:00:00,12,1008.2,-0.5,94,11,10000,14.816,,,140,10.9,14.7,,,,,3,,,,wg-a,,,,AAXX 01064 07110 02460 81408 10120 20110 39969 40082 56005 60006 83225 90600 333 10147 20109 60034=
07110,1998-06-01 09:00:00,13,1007.8,-0.4,88,11,10000,22.224,,,130,,,,0,,,,,,61,wg-a,,,,AAXX 01094 07110 12360 81312 10130 20110 39965 40078 58004 60007 76162 8252/ 90900=
07110,1998-06-01 12:00:00,12,1006.8,-1,94,11,12000,14.816,,,30,,,,1,,,,,,21,wg-a,,,,AAXX 01124 07110 02462 80308 10120 20110 39955 40068 58010 60026 72162 875// 91200 333 60017=
07110,1998-06-01 15:00:00,14,1004.4,-2.3,94,13,6000,7.408,,,30,,,,0,,,,,,50,wg-a,,,,AAXX 01154 07110 12356 80304 10140 20130 39932 40044 58023 60007 75065 875// 91500=
07110,1998-06-01 18:00:00,16,1003.2,-1.1,94,15,9000,11.112,,,150,11.5,15.6,,1,,,,,,1,wg-a,,,,AAXX 01184 07110 02359 71506 10160 20150 39921 40032 56011 60006 70165 878// 91800 333 10156 20115 60017=
07110,1998-06-01 21:00:00,15,1003.5,0.2,94,14,8000,11.112,,,200,,,,,,,,,,,wg-a,,,,AAXX 01214 07110 32/58 /2006 10150 20140 39923 40035 53002 92100=
07110,1998-06-02 00:00:00,13,1004,0.5,100,13,2000,11.112,,,250,,,,,,,,,,10,wg-a,,,,AAXX 02004 07110 12120 82506 10130 20130 39928 40040 53005 60006 71065 887// 90000=
07110,1998-06-02 03:00:00,12,1005.1,1,94,11,8000,11.112,,,250,,,,,,,,,,,wg-a,,,,AAXX 02034 07110 12458 82506 10120 20110 39938 40051 52010 60006 886// 90300=
07110,1998-06-02 06:00:00,12,1006.6,1.5,94,11,10000,7.408,,,230,11.8,15.6,,,,,3,,,,wg-a,,,,AAXX 02064 07110 02460 72304 10120 20110 39953 40066 51015 60006 82832 90600 333 10156 20118 60034=
07110,1998-06-02 09:00:00,15,1007.1,0.6,82,12,20000,29.632,,,200,,,,,,,,,,,wg-a,,,,AAXX 02094 07110 12570 /2016 10150 20120 39959 40071 51006 60006 86200 90900=
07110,1998-06-02 12:00:00,15,1007.9,0.8,82,12,25000,31.484,,,200,,,,,,,,,,,wg-a,,,,AAXX 02124 07110 12575 /2017 10150 20120 39967 40079 53008 60006 85201 91200=
07110,1998-06-02 15:00:00,15,1007.9,-0,82,12,20000,31.484,,,210,,,,,,,,,,,wg-a,,,,AAXX 02154 07110 12570 62117 10150 20120 39967 40079 55000 60006 85332 91500=
07110,1998-06-02 18:00:00,15,1007.9,-0,82,12,20000,29.632,,,220,12.1,16.3,,,,,,,,,wg-a,,,,AAXX 02184 07110 12470 /2216 10150 20120 39967 40079 55000 60006 86202 91800 333 10163 20121=
07110,1998-06-02 21:00:00,14,1009,1,94,13,15000,22.224,,40.744,210,,,,,,,,,,,wg-a,,,,AAXX 02214 07110 12465 /2112 10140 20130 39977 40090 53010 60006 86800 92100 333 91022=
07110,1998-06-03 00:00:00,14,1009.1,0.1,88,12,15000,31.484,,,210,,,,,,,,,,1,wg-a,,,,AAXX 03004 07110 02465 72117 10140 20120 39978 40091 52001 61000 70186 87800 90000 333 6100=
07110,1998-06-03 03:00:00,13,1009.3,0.2,94,12,12000,18.52,,,220,,,,4,,,,,,25,wg-a,,,,AAXX 03034 07110 12462 72210 10130 20120 39980 40093 51002 60047 72586 87800 90300=
07110,1998-06-03 06:00:00,14,1010.4,1.1,94,13,10000,25.928,,,210,12.3,14.6,,,,,4,,,2,wg-a,,,,AAXX 03064 07110 02360 72114 10140 20130 39991 40104 53011 60006 70286 877// 90600 333 10146 20123 60044=
07110,1998-06-03 09:00:00,14,1012.1,1.7,94,13,12000,25.928,,44.448,220,,,,,,,,,,,wg-a,,,,AAXX 03094 07110 12462 72214 10140 20130 30008 40121 51017 60006 877// 90900 333 91024=
07110,1998-06-03 12:00:00,16,1013.3,1.3,82,13,15000,29.632,,48.152,220,,,,,,,,,,,wg-a,,,,AAXX 03124 07110 12465 72216 10160 20130 30021 40133 53013 60006 878// 91200 333 91026=
07110,1998-06-03 15:00:00,17,1014.6,1.3,72,12,15000,18.52,,,250,,,,,,,,,,,wg-a,,,,AAXX 03154 07110 12565 /2510 10170 20120 30034 40146 51013 60006 86800 91500=
07110,1998-06-03 18:00:00,16,1016.1,1.4,72,11,20000,11.112,,,250,13.6,16.9,,,,,,,,,wg-a,,,,AAXX 03184 07110 12570 /2506 10160 20110 30048 40161 53014 60006 85800 91800 333 10169 20136=
07110,1998-06-03 21:00:00,13,1018,1.8,88,11,15000,3.704,,,260,,,,,,,,,,,wg-a,,,,AAXX 03214 07110 12565 /2602 10130 20110 30066 40180 53018 60006 81200 92100=
07110,1998-06-04 00:00:00,10,1018.8,0.7,100,10,15000,3.704,,,110,,,,,,,,,,,wg-a,,,,AAXX 04004 07110 12/65 01102 10100 20100 30073 40188 51007 60006 80000 90000=
07110,1998-06-04 03:00:00,11,1018.5,-0.3,94,10,1000,3.704,,,40,,,,,,,,,,10,wg-a,,,,AAXX 04034 07110 12110 /0402 10110 20100 30070 40185 58003 60006 71011 85600 90300=
07110,1998-06-04 06:00:00,12,1019,0.5,94,11,6000,3.704,,,80,10,15.6,,,,,,,,,wg-a,,,,AAXX 04064 07110 02456 /0802 10120 20110 30075 40190 53005 60006 86501 90600 333 10156 20100 60004=
07110,1998-06-04 09:00:00,14,1019.5,0.6,88,12,12000,11.112,,,140,,,,,,,,,,,wg-a,,,,AAXX 04094 07110 12462 51406 10140 20120 30081 40195 50006 60006 84501 90900=
07110,1998-06-04 12:00:00,17,1018.6,-0.7,72,12,25000,7.408,,,180,,,,,,,,,,,wg-a,,,,AAXX 04124 07110 12575 41804 10170 20120 30074 40186 58007 60006 83101 91200=
07110,1998-06-04 15:00:00,19,1016.6,-1.9,73,14,25000,14.816,,,30,,,,0,,,,,,,wg-a,,,,AAXX 04154 07110 12675 40308 10190 20140 30055 40166 56019 60007 83101 91500=
07110,1998-06-04 18:00:00,17,1015.9,-0.8,77,13,25000,14.816,,,30,11.4,20.1,,,,,,,,,wg-a,,,,AAXX 04184 07110 12675 /0308 10170 20130 30047 40159 57008 60006 81132 91800 333 10201 20114=
07110,1998-06-04 21:00:00,13,1016,-0.1,94,12,20000,14.816,,,40,,,,,,,,,,,wg-a,,,,AAXX 04214 07110 12770 60408 10130 20120 30046 40160 57001 60006 82532 92100=
07110,1998-06-05 00:00:00,13,1014.1,-1.8,94,12,15000,7.408,,,60,,,,,,,,,,,wg-a,,,,AAXX 05004 07110 12565 70604 10130 20120 30028 40141 57018 60006 8283/ 90000=
07110,1998-06-05 03:00:00,13,1012.9,-1.3,88,11,15000,11.112,,,50,,,,0,,,,,,80,wg-a,,,,AAXX 05034 07110 12465 70506 10130 20110 30015 40129 56013 60007 78086 8683/ 90300=
07110,1998-06-05 06:00:00,12,1011.3,-1.5,100,12,6000,11.112,,,40,11.6,17,,,,,1,,,3,wg-a,,,,AAXX 05064 07110 02156 /0406 10120 20120 30000 40113 56015 60006 70386 82632 90600 333 10170 20116 60014=
07110,1998-06-05 09:00:00,17,1011,-0.2,88,15,6000,11.112,,,80,,,,,,,,,,,wg-a,,,,AAXX 05094 07110 12756 70806 10170 20150 39998 40110 55002 60006 82532 90900=
07110,1998-06-05 12:00:00,21,1010.1,-0.7,78,17,8000,7.408,,,170,,,,,,,,,,,wg-a,,,,AAXX 05124 07110 12458 /1704 10210 20170 39991 40101 56007 60006 84502 91200=
07110,1998-06-05 15:00:00,23,1009.1,-0.9,78,19,10000,18.52,,,170,,,,,,,,,,,wg-a,,,,AAXX 05154 07110 12560 71710 10230 20190 39982 40091 56009 60006 878// 91500=
07110,1998-06-05 18:00:00,19,1009.5,0.2,88,17,10000,18.52,,,180,,,,,,,,,,3,wg-a,,,,AAXX 05184 07110 12460 71810 10190 20170 39984 40095 51002 60006 70398 86282 91800=
07110,1998-06-05 21:00:00,17,1009.9,0.4,94,16,8000,18.52,,,190,,,,8,,,,,,,wg-a,,,,AAXX 05214 07110 12358 71910 10170 20160 39988 40099 53004 60087 876// 92100=
07110,1998-06-06 00:00:00,15,1010.1,0.1,94,14,8000,18.52,,,210,,,,8,,,,,,,wg-a,,,,AAXX 06004 07110 02358 72110 10150 20140 39989 40101 51001 60086 875// 90000 333 60087=
07110,1998-06-06 03:00:00,15,1009.6,-0.5,94,14,6000,14.816,,,200,,,,8,,,,,,,wg-a,,,,AAXX 06034 07110 12356 72008 10150 20140 39984 40096 58005 60087 876// 90300=
07110,1998-06-06 06:00:00,15,1009.7,0.1,94,14,7000,11.112,,,250,11.6,23.1,,,,,8,,,,wg-a,,,,AAXX 06064 07110 02/57 /2506 10150 20140 39985 40097 53001 60006 90600 333 10231 20116 60084=
07110,1998-06-06 09:00:00,17,1010.3,0.7,88,15,15000,18.52,,,190,,,,8,,,,,,,wg-a,,,,AAXX 06094 07110 12465 /1910 10170 20150 39992 40103 51007 60087 86800 90900=
07110,1998-06-06 12:00:00,18,1010.6,0.3,73,13,20000,18.52,,,200,,,,,,,,,,,wg-a,,,,AAXX 06124 07110 12570 72010 10180 20130 39995 40106 50003 60006 8225/ 91200=
07110,1998-06-06 15:00:00,15,1010.5,-0.2,94,14,3000,22.224,,,190,,,,0,,,,,,61,wg-a,,,,AAXX 06154 07110 12230 81912 10150 20140 39993 40105 58002 60007 76162 885// 91500=
07110,1998-06-06 18:00:00,14,1010.2,-0.4,100,14,2000,14.816,,,200,13.2,18.6,,,,,,,,61,wg-a,,,,AAXX 06184 07110 02120 82008 10140 20140 39989 40102 56004 61000 76162 877// 91800 333 10186 20132 6003=
07110,1998-06-06 21:00:00,12,1012.3,2,100,12,20000,7.408,,,240,,,,0,,,,,,1,wg-a,,,,AAXX 06214 07110 12570 22404 10120 20120 30009 40123 53020 60007 70161 82200 92100=
07110,1998-06-07 00:00:00,13,1012.6,0.3,88,11,20000,14.816,,,230,,,,,,,,,,3,wg-a,,,,AAXX 07004 07110 12570 72308 10130 20110 30012 40126 50003 60016 70361 878// 90000=
07110,1998-06-07 03:00:00,13,1011.9,-0.6,94,12,10000,14.816,,,240,,,,,,,,,,,wg-a,,,,AAXX 07034 07110 12460 52408 10130 20120 30006 40119 57006 60006 85800 90300=
07110,1998-06-07 06:00:00,14,1012.4,0.5,94,13,10000,14.816,,,240,11.3,14.8,,,,,,,,25,wg-a,,,,AAXX 07064 07110 02360 72408 10140 20130 30011 40124 53005 61000 72586 878// 90600 333 10148 20113 6008=
07110,1998-06-07 09:00:00,15,1013.9,1.5,82,12,10000,25.928,,44.448,260,,,,,,,,,,,wg-a,,,,AAXX 07094 07110 12460 /2614 10150 20120 30026 40139 53015 60006 86800 90900 333 91024=
07110,1998-06-07 10:00:00,16,1015.3,1.4,77,12,15000,25.928,,,270,,,,,,,,,,,wg-a,,,,AAXX 07104 07110 12465 52714 10160 20120 30040 40153 52014 60006 85800 91000=
07110,1998-06-07 12:00:00,16,1015.3,1.4,77,12,15000,25.928,,,270,,,,,,,,,,,wg-a,,,,AAXX 07124 07110 12465 52714 10160 20120 30040 40153 52014 60006 85800 91200=
07110,1998-06-07 15:00:00,17,1016,0.8,77,13,15000,25.928,,,270,,,,,,,,,,3,wg-a,,,,AAXX 07154 07110 02565 /2714 10170 20130 30048 40160 51008 61000 70386 86800 91500 333 ////=
07110,1998-06-07 18:00:00,15,1017.9,1.8,82,12,15000,18.52,,,280,13.3,16.9,,,,,,,,3,wg-a,,,,AAXX 07184 07110 12465 82810 10150 20120 30066 40179 52018 60006 70386 8682/ 91800 333 10169 20133=
07110,1998-06-07 21:00:00,14,1018.8,0.8,88,12,15000,14.816,,,250,,,,,,,,,,,wg-a,,,,AAXX 07214 07110 12465 62508 10140 20120 30074 40188 53008 60006 8582/ 92100=
07110,1998-06-08 00:00:00,13,1019.2,0.4,94,12,11000,11.112,,,250,,,,,,,,,,,wg-a,,,,AAXX 08004 07110 12/61 /2506 10130 20120 30078 40192 52004 60006 90000=
07110,1998-06-08 03:00:00,13,1018.3,-0.9,94,12,15000,11.112,,,220,,,,,,,,,,,wg-a,,,,AAXX 08034 07110 12465 /2206 10130 20120 30069 40183 56009 60006 82525 90300=
07110,1998-06-08 06:00:00,14,1017.3,-0.9,94,13,20000,18.52,,,200,11.9,15.1,,,,,,,,,wg-a,,,,AAXX 08064 07110 02470 72010 10140 20130 30060 40173 56009 60006 84202 90600 333 10151 20119 61000=
07110,1998-06-08 09:00:00,15,1017.1,-0.2,88,13,15000,29.632,,,200,,,,,,,,,,,wg-a,,,,AAXX 08094 07110 12465 82016 10150 20130 30058 40171 58002 60006 885// 90900=
07110,1998-06-08 12:00:00,14,1015.9,-1.2,94,13,8000,35.188,,,180,,,,,,,,,,3,wg-a,,,,AAXX 08124 07110 02458 81819 10140 20130 30046 40159 58012 61000 70362 885// 91200 333 6100=
07110,1998-06-08 15:00:00,15,1015.3,-0.6,100,15,2000,35.188,,,190,,,,1,,,,,,60,wg-a,,,,AAXX 08154 07110 12120 81919 10150 20150 30040 40153 57006 60017 76062 877// 91500=
07110,1998-06-08 18:00:00,15,1014.1,-1.2,100,15,400,29.632,,,210,13.5,15.8,,3,,,,,,,wg-a,,,,AAXX 08184 07110 02/04 /2116 10150 20150 30028 40141 56012 60006 91800 333 10158 20135 60037=
07110,1998-06-08 21:00:00,15,1014,-0.1,100,15,400,25.928,,,210,,,,4,,,,,,60,wg-a,,,,AAXX 08214 07110 12104 82114 10150 20150 30027 40140 58001 60047 76066 887// 92100=
07110,1998-06-09 03:00:00,15,1011.8,-1,100,15,2000,29.632,,46.3,210,,,,0,,,,,,10,wg-a,,,,AAXX 09034 07110 12120 82116 10150 20150 30006 40118 58010 60007 71065 887// 90300 333 91025=
07110,1998-06-09 06:00:00,15,1011,-0.8,94,14,1200,25.928,,,220,14.3,15.8,,,,,,,,10,wg-a,,,,AAXX 09064 07110 02112 82214 10150 20140 39998 40110 57008 61000 71065 887// 90600 333 10158 20143 6008=
07110,1998-06-09 09:00:00,15,1010.3,-0.7,100,15,6000,22.224,,48.152,210,,,,9,,,,,,10,wg-a,,,,AAXX 09094 07110 12156 82112 10150 20150 39991 40103 58007 60097 71065 887// 90900 333 91026=
07110,1998-06-09 12:00:00,15,1009.6,-0.7,100,15,500,29.632,,,210,,,,4,,,,,,63,wg-a,,,,AAXX 09124 07110 02100 82116 10150 20150 39984 40096 58007 60136 76365 887// 91200 333 60047=
07110,1998-06-09 15:00:00,16,1008.1,-1.5,94,15,8000,25.928,,,220,,,,3,,,,,,1,wg-a,,,,AAXX 09154 07110 12258 82214 10160 20150 39969 40081 56015 60037 70162 875// 91500=
07110,1998-06-09 18:00:00,15,1007.3,-0.8,94,14,10000,18.52,,,230,14.6,16.6,,,,,,,,3,wg-a,,,,AAXX 09184 07110 12360 82310 10150 20140 39961 40073 57008 60006 70362 8/200 91800 333 10166 20146=
07110,1998-06-09 21:00:00,14,1007.5,0.1,88,12,15000,14.816,,,230,,,,,,,,,,,wg-a,,,,AAXX 09214 07110 12465 /2308 10140 20120 39962 40075 53001 60006 85200 92100=
07110,1998-06-10 00:00:00,14,1006.5,-0.9,88,12,15000,22.224,,,230,,,,,,,,,,,wg-a,,,,AAXX 10004 07110 12465 62312 10140 20120 39953 40065 58009 60006 86800 90000=
07110,1998-06-10 03:00:00,13,1005.9,-0.7,94,12,15000,18.52,,,260,,,,12,,,,,,25,wg-a,,,,AAXX 10034 07110 12465 42610 10130 20120 39946 40059 56007 60127 72598 84900 90300=
07110,1998-06-10 06:00:00,13,1006.6,0.7,88,11,15000,14.816,,,240,11.1,15.5,,,,,28,,,3,wg-a,,,,AAXX 10064 07110 02465 52408 10130 20110 39953 40066 51007 60006 70398 85900 90600 333 10155 20111 60284=
07110,1998-06-10 09:00:00,14,1006.5,0,88,12,15000,22.224,,,240,,,,,,,,,,,wg-a,,,,AAXX 10094 07110 12465 /2412 10140 20120 39953 40065 50000 60006 86800 90900=
07110,1998-06-10 12:00:00,16,1006.3,-0.1,77,12,15000,25.928,,,260,,,,,,,,,,,wg-a,,,,AAXX 10124 07110 12565 /2614 10160 20120 39952 40063 56001 60006 86800 91200=
07110,1998-06-10 15:00:00,15,1006,-0.4,82,12,15000,29.632,,46.3,250,,,,,,,,,,,wg-a,,,,AAXX 10154 07110 12465 /2516 10150 20120 39948 40060 58004 60006 86800 91500 333 91025=
07110,1998-06-10 18:00:00,14,1007.8,1.7,82,11,15000,31.484,,50.004,290,12.7,16.7,,0,,,,,,1,wg-a,,,,AAXX 10184 07110 02465 /2917 10140 20110 39965 40078 53017 60006 70186 86800 91800 333 10167 20127 60007 91027=
07110,1998-06-10 21:00:00,12,1009.7,1.9,88,10,12000,22.224,,,290,,,,,,,,,,25,wg-a,,,,AAXX 10214 07110 02462 62912 10120 20100 39984 40097 53019 61000 72586 86800 92100 333 ////=
07110,1998-06-11 00:00:00,12,1010.3,0.5,82,9,12000,25.928,,,290,,,,1,,,,,,1,wg-a,,,,AAXX 11004 07110 02562 52914 10120 20090 39989 40103 51005 60016 70186 85900 90000 333 60017=
07110,1998-06-11 03:00:00,10,1011.2,0.9,93,9,15000,18.52,,,310,,,,1,,,,,,25,wg-a,,,,AAXX 11034 07110 12565 53110 10100 20090 39998 40112 53009 60017 72586 85900 90300=
07110,1998-06-11 06:00:00,11,1013,1.7,76,7,15000,25.928,,,310,9,14,,,,,,,,25,wg-a,,,,AAXX 11064 07110 02565 /3114 10110 20070 30015 40130 53017 61000 72586 86300 90600 333 10140 20090 6004=
07110,1998-06-11 09:00:00,11,1015.7,2.7,76,7,15000,29.632,,46.3,320,,,,1,,,,,,25,wg-a,,,,AAXX 11094 07110 12565 63216 10110 20070 30042 40157 51027 60017 72586 85331 90900 333 91025=
07110,1998-06-11 12:00:00,14,1017.6,2,63,7,20000,38.892,,59.264,320,,,,,,,,,,1,wg-a,,,,AAXX 11124 07110 12570 /3221 10140 20070 30062 40176 53020 60016 70186 85800 91200 333 91032=
07110,1998-06-11 15:00:00,12,1019.6,1.9,62,5,20000,35.188,,57.412,330,,,,,,,,,,,wg-a,,,,AAXX 11154 07110 12570 /3319 10120 20050 30081 40196 53019 60006 86100 91500 333 91031=
07110,1998-06-11 18:00:00,12,1021.4,1.8,62,5,20000,31.484,,53.708,330,9,13.5,,,,,,,,,wg-a,,,,AAXX 11184 07110 12670 /3317 10120 20050 30099 40214 52018 60006 85200 91800 333 10135 20090 91029=
07110,1998-06-11 21:00:00,10,1023.3,1.8,82,7,20000,14.816,,,320,,,,,,,,,,,wg-a,,,,AAXX 11214 07110 12570 43208 10100 20070 30117 40233 52018 60006 84200 92100=
07110,1998-06-12 00:00:00,10,1023.9,0.6,87,8,15000,7.408,,,290,,,,,,,,,,,wg-a,,,,AAXX 12004 07110 12565 22904 10100 20080 30123 40239 51006 60006 82500 90000=
07110,1998-06-12 03:00:00,10,1024,0.1,93,9,15000,7.408,,,270,,,,,,,,,,,wg-a,,,,AAXX 12034 07110 12465 /2704 10100 20090 30124 40240 50001 60006 85500 90300=
07110,1998-06-12 06:00:00,11,1024.3,0.3,94,10,15000,11.112,,,270,8.4,12.5,,,,,1,,,,wg-a,,,,AAXX 12064 07110 02465 52706 10110 20100 30127 40243 53003 60006 84201 90600 333 10125 20084 60014=
07110,1998-06-12 09:00:00,14,1024.5,0.4,72,9,15000,14.816,,,270,,,,,,,,,,,wg-a,,,,AAXX 12094 07110 12565 52708 10140 20090 30131 40245 53004 60006 84201 90900=
07110,1998-06-12 12:00:00,12,1024.7,0.1,82,9,10000,14.816,,,250,,,,0,,,,,,80,wg-a,,,,AAXX 12124 07110 02560 72508 10120 20090 30132 40247 51001 60006 78086 85801 91200 333 60007=
07110,1998-06-12 15:00:00,13,1023.8,-0.9,67,7,15000,14.816,,,250,,,,,,,,,,1,wg-a,,,,AAXX 12154 07110 02565 72508 10130 20070 30123 40238 56009 61000 70186 84801 91500 333 ////=
07110,1998-06-12 18:00:00,13,1022.2,-1.6,82,10,15000,18.52,,,210,10.5,15.2,,,,,,,,3,wg-a,,,,AAXX 12184 07110 12465 72110 10130 20100 30107 40222 56016 60006 70386 8481/ 91800 333 10152 20105=
07110,1998-06-12 21:00:00,12,1020.3,-1.9,88,10,15000,22.224,,,180,,,,,,,,,,,wg-a,,,,AAXX 12214 07110 12465 81812 10120 20100 30088 40203 57019 60006 885// 92100=
07110,1998-06-13 00:00:00,12,1017.1,-3.1,94,11,6000,29.632,,,190,,,,2,,,,,,61,wg-a,,,,AAXX 13004 07110 02256 81916 10120 20110 30057 40171 58031 60026 76162 877// 90000 333 60027=
07110,1998-06-13 03:00:00,13,1013.4,-3.7,100,13,500,22.224,,,170,,,,9,,,,,,63,wg-a,,,,AAXX 13034 07110 12200 81712 10130 20130 30020 40134 56037 60097 76366 887// 90300=
07110,1998-06-13 06:00:00,14,1011.9,-1.4,100,14,1200,14.816,,,230,11.4,14.3,,,,,,,,51,wg-a,,,,AAXX 13064 07110 02112 82308 10140 20140 30006 40119 56014 61000 75165 887// 90600 333 10143 20114 6012=
07110,1998-06-13 12:00:00,15,1011.5,0.4,82,12,12000,25.928,,48.152,270,,,,0,,,,,,3,wg-a,,,,AAXX 13124 07110 02462 72714 10150 20120 30002 40115 53004 60036 70365 878// 91200 333 60007 91026=
07110,1998-06-13 15:00:00,15,1011.5,0.1,82,12,15000,29.632,,,260,,,,,,,,,,,wg-a,,,,AAXX 13154 07110 12465 /2616 10150 20120 30003 40115 51001 60006 86800 91500=
07110,1998-06-13 18:00:00,14,1011.8,0.2,88,12,15000,25.928,,44.448,270,13.5,16.4,,,,,,,,,wg-a,,,,AAXX 13184 07110 12465 72714 10140 20120 30005 40118 53002 60006 878// 91800 333 10164 20135 91024=
07110,1998-06-13 21:00:00,13,1012.3,0.5,94,12,15000,18.52,,,260,,,,,,,,,,,wg-a,,,,AAXX 13214 07110 12465 72610 10130 20120 30010 40123 53005 60006 878// 92100=
07110,1998-06-14 00:00:00,12,1012,-0.4,100,12,10000,11.112,,,240,,,,,,,,,,80,wg-a,,,,AAXX 14004 07110 02460 72406 10120 20120 30006 40120 58004 61000 78086 878// 90000 333 6100=
07110,1998-06-14 03:00:00,12,1011.2,-0.8,94,11,20000,14.816,,,250,,,,,,,,,,3,wg-a,,,,AAXX 14034 07110 02470 52508 10120 20110 39998 40112 58008 61000 70386 85800 90300 333 ////=
07110,1998-06-14 06:00:00,13,1010.7,-0.4,88,11,12000,14.816,,,250,11.3,14.4,,,,,3,,,15,wg-a,,,,AAXX 14064 07110 02462 72508 10130 20110 39994 40107 58004 60006 71586 878// 90600 333 10144 20113 60034=
07110,1998-06-14 09:00:00,14,1010.8,0.1,88,12,15000,18.52,,,260,,,,,,,,,,3,wg-a,,,,AAXX 14094 07110 02465 72610 10140 20120 39995 40108 51001 61000 70386 878// 90900 333 ////=
07110,1998-06-14 12:00:00,15,1010.9,0.1,82,12,15000,18.52,,,260,,,,,,,,,,3,wg-a,,,,AAXX 14124 07110 02465 72610 10150 20120 39996 40109 53001 61000 70386 878// 91200 333 ////=
07110,1998-06-14 15:00:00,15,1011.2,0.3,88,13,15000,18.52,,,280,,,,,,,,,,25,wg-a,,,,AAXX 14154 07110 02465 72810 10150 20130 39999 40112 53003 61000 72586 878// 91500 333 ////=
07110,1998-06-14 18:00:00,14,1012,0.8,88,12,15000,18.52,,,310,12,15.6,,,,,,,,3,wg-a,,,,AAXX 14184 07110 12465 73110 10140 20120 30007 40120 53008 60006 70386 878// 91800 333 10156 20120=
07110,1998-06-15 00:00:00,12,1014.3,0.8,94,11,10000,11.112,,,310,,,,0,,,,,,,wg-a,,,,AAXX 15004 07110 02460 83106 10120 20110 30029 40143 53008 60006 885// 90000 333 60007=
07110,1998-06-15 03:00:00,11,1014.9,0.5,94,10,10000,7.408,,,310,,,,,,,,,,,wg-a,,,,AAXX 15034 07110 12460 63104 10110 20100 30034 40149 53005 60006 86800 90300=
07110,1998-06-15 06:00:00,12,1015.9,1.1,88,10,15000,11.112,,,320,10.5,14.3,,,,,,,,,wg-a,,,,AAXX 15064 07110 02465 /3206 10120 20100 30045 40159 52011 60006 81100 90600 333 10143 20105 60004=
07110,1998-06-15 09:00:00,14,1017,1.2,72,9,15000,18.52,,,330,,,,,,,,,,,wg-a,,,,AAXX 15094 07110 12565 /3310 10140 20090 30057 40170 53012 60006 81100 90900=
07110,1998-06-15 12:00:00,16,1018.3,1.3,55,7,15000,18.52,,,310,,,,,,,,,,,wg-a,,,,AAXX 15124 07110 12665 /3110 10160 20070 30070 40183 52013 60006 81100 91200=
07110,1998-06-15 15:00:00,16,1019,0.7,63,9,25000,18.52,,,280,,,,,,,,,,,wg-a,,,,AAXX 15154 07110 12675 32810 10160 20090 30077 40190 51007 60006 83200 91500=
07110,1998-06-15 18:00:00,15,1020,0.9,72,10,25000,14.816,,,300,11.7,17.4,,,,,,,,,wg-a,,,,AAXX 15184 07110 12475 53008 10150 20100 30086 40200 53009 60006 85800 91800 333 10174 20117=
07110,1998-06-15 21:00:00,13,1021.4,1.3,82,10,10000,7.408,,,280,,,,,,,,,,,wg-a,,,,AAXX 15214 07110 12460 /2804 10130 20100 30099 40214 51013 60006 85800 92100=
07110,1998-06-16 00:00:00,10,1022.3,0.8,100,10,10000,7.408,,,260,,,,,,,,,,,wg-a,,,,AAXX 16004 07110 12460 32604 10100 20100 30107 40223 51008 60006 83500 90000=
07110,1998-06-16 03:00:00,9,1022.2,-0.1,100,9,10000,7.408,,,300,,,,,,,,,,,wg-a,,,,AAXX 16034 07110 12460 /3004 10090 20090 30106 40222 56001 60006 81500 90300=
07110,1998-06-16 06:00:00,11,1023.1,0.9,87,9,25000,7.408,,,280,8.2,15.1,,,,,,,,,wg-a,,,,AAXX 16064 07110 02575 22804 10110 20090 30115 40231 51009 60006 82801 90600 333 10151 20082 60004=
07110,1998-06-16 09:00:00,13,1024.5,1.5,67,7,25000,14.816,,,280,,,,,,,,,,,wg-a,,,,AAXX 16094 07110 12575 /2808 10130 20070 30130 40245 52015 60006 86100 90900=
07110,1998-06-16 12:00:00,15,1025,0.6,59,7,25000,14.816,,,280,,,,,,,,,,,wg-a,,,,AAXX 16124 07110 12675 /2808 10150 20070 30136 40250 51006 60006 85101 91200=
07110,1998-06-16 15:00:00,16,1025.6,0.6,63,9,25000,14.816,,,280,,,,,,,,,,,wg-a,,,,AAXX 16154 07110 12575 /2808 10160 20090 30142 40256 51006 60006 84101 91500=
07110,1998-06-16 18:00:00,15,1026.4,0.8,72,10,15000,14.816,,,290,10.6,16.7,,,,,,,,,wg-a,,,,AAXX 16184 07110 12565 52908 10150 20100 30150 40264 53008 60006 84201 91800 333 10167 20106=
07110,1998-06-16 21:00:00,12,1027.8,1.2,88,10,15000,3.704,,,300,,,,,,,,,,,wg-a,,,,AAXX 16214 07110 12565 33002 10120 20100 30162 40278 53012 60006 81101 92100=
07110,1998-06-17 00:00:00,9,1028,0.1,93,8,15000,3.704,,,180,,,,,,,,,,,wg-a,,,,AAXX 17004 07110 12/65 11802 10090 20080 30163 40280 50001 60006 80001 90000=
07110,1998-06-17 03:00:00,9,1027.7,-0.3,93,8,10000,3.704,,,240,,,,,,,,,,,wg-a,,,,AAXX 17034 07110 12/60 12402 10090 20080 30160 40277 58003 60006 80001 90300=
07110,1998-06-17 06:00:00,10,1027.9,0.3,100,10,10000,3.704,,,160,7.7,15,,,,,,,,,wg-a,,,,AAXX 17064 07110 02460 31602 10100 20100 30163 40279 53003 60006 81131 90600 333 10150 20077 60004=
07110,1998-06-17 09:00:00,13,1028.4,0.6,88,11,10000,14.816,,,190,,,,,,,,,,,wg-a,,,,AAXX 17094 07110 12460 71908 10130 20110 30169 40284 53006 60006 84572 90900=
07110,1998-06-17 12:00:00,16,1028.1,-0.2,72,11,15000,18.52,,,200,,,,,,,,,,,wg-a,,,,AAXX 17124 07110 12565 62010 10160 20110 30167 40281 55002 60006 82171 91200=
07110,1998-06-17 15:00:00,16,1027.4,-0.7,63,9,15000,18.52,,,200,,,,,,,,,,,wg-a,,,,AAXX 17154 07110 12565 52010 10160 20090 30160 40274 56007 60006 81152 91500=
07110,1998-06-17 18:00:00,15,1026.8,-0.6,77,11,20000,14.816,,,220,10,16.5,,,,,,,,,wg-a,,,,AAXX 17184 07110 12570 72208 10150 20110 30154 40268 56006 60006 81572 91800 333 10165 20100=
07110,1998-06-17 21:00:00,14,1026.2,-0.7,88,12,15000,14.816,,,200,,,,,,,,,,,wg-a,,,,AAXX 17214 07110 12665 72008 10140 20120 30147 40262 58007 60006 81572 92100=
07110,1998-06-18 00:00:00,13,1025.9,-0.3,94,12,15000,11.112,,,190,,,,,,,,,,,wg-a,,,,AAXX 18004 07110 12465 71906 10130 20120 30144 40259 58003 60006 82532 90000=
07110,1998-06-18 03:00:00,13,1025.1,-0.8,94,12,15000,11.112,,,200,,,,,,,,,,,wg-a,,,,AAXX 18034 07110 12365 72006 10130 20120 30136 40251 56008 60006 876// 90300=
07110,1998-06-18 06:00:00,14,1024.6,-0.4,94,13,15000,14.816,,,200,13,15.1,,,,,,,,,wg-a,,,,AAXX 18064 07110 02365 72008 10140 20130 30132 40246 57004 60006 86532 90600 333 10151 20130 60004=
07110,1998-06-18 09:00:00,16,1025.2,0.6,77,12,15000,18.52,,,210,,,,,,,,,,,wg-a,,,,AAXX 18094 07110 12465 52110 10160 20120 30138 40252 51006 60006 83531 90900=
07110,1998-06-18 12:00:00,18,1025.3,0.2,68,12,20000,18.52,,,200,,,,,,,,,,,wg-a,,,,AAXX 18124 07110 12/70 42010 10180 20120 30140 40253 52002 60006 82031 91200=
07110,1998-06-18 15:00:00,18,1024.8,-0.5,73,13,20000,18.52,,,200,,,,,,,,,,,wg-a,,,,AAXX 18154 07110 12/70 52010 10180 20130 30135 40248 58005 60006 82012 91500=
07110,1998-06-18 18:00:00,17,1024.2,-0.6,72,12,20000,11.112,,,180,13.7,19.2,,,,,,,,,wg-a,,,,AAXX 18184 07110 12/70 61806 10170 20120 30129 40242 57006 60006 81038 91800 333 10192 20137=
07110,1998-06-18 21:00:00,15,1024.2,-0.1,88,13,20000,7.408,,,170,,,,,,,,,,,wg-a,,,,AAXX 18214 07110 12/70 51704 10150 20130 30128 40242 55001 60006 80002 92100=
07110,1998-06-19 00:00:00,13,1023.2,-1,94,12,15000,3.704,,,70,,,,,,,,,,,wg-a,,,,AAXX 19004 07110 12/65 20702 10130 20120 30118 40232 57010 60006 80002 90000=
07110,1998-06-19 03:00:00,12,1022.1,-1.2,94,11,15000,7.408,,,110,,,,,,,,,,,wg-a,,,,AAXX 19034 07110 12/65 51104 10120 20110 30106 40221 56012 60006 80002 90300=
07110,1998-06-19 06:00:00,15,1021.2,-0.8,67,9,20000,14.816,,,130,11.2,18.1,,,,,,,,,wg-a,,,,AAXX 19064 07110 02/70 61308 10150 20090 30098 40212 56008 60006 80002 90600 333 10181 20112 60004=
07110,1998-06-19 09:00:00,22,1020.4,-0.5,57,13,20000,22.224,,,140,,,,,,,,,,,wg-a,,,,AAXX 19094 07110 12/70 61412 10220 20130 30093 40204 58005 60006 80002 90900=
07110,1998-06-19 12:00:00,26,1019.2,-1,45,13,20000,25.928,,,160,,,,,,,,,,,wg-a,,,,AAXX 19124 07110 12/70 51614 10260 20130 30083 40192 56010 60006 80002 91200=
07110,1998-06-19 15:00:00,26,1018.7,-0.5,42,12,20000,29.632,,,170,,,,,,,,,,,wg-a,,,,AAXX 19154 07110 12/70 61716 10260 20120 30078 40187 58005 60006 80002 91500=
07110,1998-06-19 18:00:00,25,1017.4,-1.4,47,13,20000,22.224,,,140,15.3,26.9,,,,,,,,,wg-a,,,,AAXX 19184 07110 12/70 51412 10250 20130 30064 40174 58014 60006 80002 91800 333 10269 20153=
07110,1998-06-19 21:00:00,22,1017.2,-0.2,53,12,10000,22.224,,,140,,,,,,,,,,,wg-a,,,,AAXX 19214 07110 12/60 /1412 10220 20120 30062 40172 55002 60006 92100=
07110,1998-06-20 00:00:00,22,1015.9,-1.3,53,12,20000,18.52,,,140,,,,,,,,,,,wg-a,,,,AAXX 20004 07110 12/70 31410 10220 20120 30049 40159 58013 60006 80002 90000=
07110,1998-06-20 03:00:00,23,1014.6,-1.3,50,12,20000,18.52,,,150,,,,,,,,,,60,wg-a,,,,AAXX 20034 07110 02/70 71510 10230 20120 30036 40146 58013 61000 76061 86082 90300 333 ////=
07110,1998-06-20 06:00:00,23,1014,-0.6,50,12,20000,25.928,,,140,21,25.1,,,,,,,,1,wg-a,,,,AAXX 20064 07110 02770 71414 10230 20120 30030 40140 57006 60006 70161 8259/ 90600 333 10251 20210 61000=
07110,1998-06-20 09:00:00,25,1013.6,-0.3,50,14,10000,25.928,,,150,,,,,,,,,,,wg-a,,,,AAXX 20094 07110 12/60 /1514 10250 20140 30027 40136 56003 60006 90900=
07110,1998-06-20 12:00:00,29,1011.6,-1.8,52,18,20000,22.224,,,170,,,,,,,,,,,wg-a,,,,AAXX 20124 07110 12/70 31712 10290 20180 30009 40116 56018 60006 82082 91200=
07110,1998-06-20 15:00:00,25,1012.5,0.7,65,18,20000,29.632,,,190,,,,,,,,,,,wg-a,,,,AAXX 20154 07110 12/70 11916 10250 20180 30016 40125 53007 60006 81082 91500=
07110,1998-06-20 18:00:00,20,1013.5,0.8,78,16,20000,25.928,,,200,20,29.3,,,,,,,,,wg-a,,,,AAXX 20184 07110 12/70 12014 10200 20160 30024 40135 53008 60006 80001 91800 333 10293 20200=
07110,1998-06-20 21:00:00,16,1016.3,2.6,94,15,10000,14.816,,,220,,,,,,,,,,,wg-a,,,,AAXX 20214 07110 12260 82208 10160 20150 30050 40163 53026 60006 886// 92100=
07110,1998-06-21 00:00:00,14,1018.1,1.7,94,13,2000,14.816,,,260,,,,,,,,,,10,wg-a,,,,AAXX 21004 07110 02120 82608 10140 20130 30067 40181 51017 61000 71051 886// 90000 333 6100=
07110,1998-06-21 03:00:00,14,1018.9,0.8,94,13,4000,7.408,,,270,,,,,,,,,,10,wg-a,,,,AAXX 21034 07110 12140 82704 10140 20130 30075 40189 52008 60006 71022 886// 90300=
07110,1998-06-21 06:00:00,14,1020,1.1,88,12,12000,11.112,,,260,12.9,20.7,,,,,,,,,wg-a,,,,AAXX 21064 07110 02262 82606 10140 20120 30086 40200 51011 60006 876// 90600 333 10207 20129 61000=
07110,1998-06-21 09:00:00,18,1020.9,1,73,13,20000,14.816,,,270,,,,,,,,,,,wg-a,,,,AAXX 21094 07110 12470 32708 10180 20130 30096 40209 53010 60006 83800 90900=
07110,1998-06-21 12:00:00,19,1021.8,1,56,10,25000,14.816,,,250,,,,,,,,,,,wg-a,,,,AAXX 21124 07110 12575 52508 10190 20100 30106 40218 51010 60006 85800 91200=
07110,1998-06-21 15:00:00,19,1022.8,1,68,13,25000,18.52,,,270,,,,,,,,,,,wg-a,,,,AAXX 21154 07110 12575 32710 10190 20130 30116 40228 53010 60006 83800 91500=
07110,1998-06-21 18:00:00,17,1023.6,0.7,77,13,25000,14.816,,,240,13.6,19.9,,,,,,,,,wg-a,,,,AAXX 21184 07110 12475 /2408 10170 20130 30123 40236 52007 60006 85200 91800 333 10199 20136=
07110,1998-06-21 21:00:00,14,1025.2,1.5,88,12,15000,7.408,,,240,,,,,,,,,,,wg-a,,,,AAXX 21214 07110 12565 22404 10140 20120 30138 40252 53015 60006 82800 92100=
07110,1998-06-22 00:00:00,14,1025.8,0.6,100,14,15000,11.112,,,230,,,,,,,,,,,wg-a,,,,AAXX 22004 07110 12465 22306 10140 20140 30144 40258 51006 60006 82100 90000=
07110,1998-06-22 03:00:00,13,1025.5,-0.4,94,12,15000,7.408,,,220,,,,,,,,,,,wg-a,,,,AAXX 22034 07110 12465 32204 10130 20120 30140 40255 57004 60006 83201 90300=
07110,1998-06-22 06:00:00,13,1025.9,0.4,94,12,15000,7.408,,,240,12,17.8,,,,,,,,,wg-a,,,,AAXX 22064 07110 02465 /2404 10130 20120 30144 40259 53004 60006 81202 90600 333 10178 20120 60004=
07110,1998-06-22 09:00:00,16,1026.7,0.9,77,12,15000,11.112,,,250,,,,,,,,,,,wg-a,,,,AAXX 22094 07110 12465 72506 10160 20120 30153 40267 51009 60006 84401 90900=
07110,1998-06-22 12:00:00,16,1026.7,0,82,13,20000,14.816,,,240,,,,,,,,,,,wg-a,,,,AAXX 22124 07110 12570 52408 10160 20130 30153 40267 50000 60006 84801 91200=
07110,1998-06-22 15:00:00,18,1026.3,-0.3,73,13,20000,18.52,,,230,,,,,,,,,,,wg-a,,,,AAXX 22154 07110 12570 52310 10180 20130 30150 40263 55003 60006 84102 91500=
07110,1998-06-22 18:00:00,17,1025.9,-0.5,68,11,20000,18.52,,,260,12.9,18.4,,,,,,,,,wg-a,,,,AAXX 22184 07110 12570 42610 10170 20110 30145 40259 58005 60006 83102 91800 333 10184 20129=
07110,1998-06-22 21:00:00,14,1026.2,0.2,88,12,20000,11.112,,,230,,,,,,,,,,,wg-a,,,,AAXX 22214 07110 12470 42306 10140 20120 30147 40262 51002 60006 84101 92100=
07110,1998-06-23 00:00:00,13,1025.8,-0.4,94,12,20000,11.112,,,220,,,,,,,,,,,wg-a,,,,AAXX 23004 07110 12/70 22206 10130 20120 30143 40258 58004 60006 80001 90000=
07110,1998-06-23 03:00:00,14,1024.2,-1.5,94,13,15000,14.816,,,210,,,,0,,,,,,,wg-a,,,,AAXX 23034 07110 12465 52108 10140 20130 30128 40242 56015 60007 84501 90300=
07110,1998-06-23 06:00:00,15,1023.8,-0.4,94,14,11000,14.816,,,220,12.9,17.3,,,,,,,,,wg-a,,,,AAXX 23064 07110 02/61 /2208 10150 20140 30124 40238 56004 60006 90600 333 10173 20129 60004=
07110,1998-06-23 09:00:00,16,1023.6,-0.1,82,13,20000,18.52,,,220,,,,,,,,,,,wg-a,,,,AAXX 23094 07110 12470 /2210 10160 20130 30123 40236 58001 60006 86800 90900=
07110,1998-06-23 12:00:00,17,1023.1,-0.5,82,14,25000,18.52,,,230,,,,,,,,,,,wg-a,,,,AAXX 23124 07110 12475 /2310 10170 20140 30118 40231 57005 60006 86800 91200=
07110,1998-06-23 15:00:00,17,1021.7,-1.4,77,13,25000,22.224,,,220,,,,,,,,,,,wg-a,,,,AAXX 23154 07110 12475 52212 10170 20130 30104 40217 56014 60006 84801 91500=
07110,1998-06-23 18:00:00,16,1020.6,-1.1,82,13,20000,18.52,,,220,14.3,18.6,,,,,,,,,wg-a,,,,AAXX 23184 07110 12470 42210 10160 20130 30093 40206 58011 60006 83201 91800 333 10186 20143=
07110,1998-06-23 21:00:00,16,1019.5,-1.1,88,14,15000,18.52,,,200,,,,,,,,,,,wg-a,,,,AAXX 23214 07110 12465 72010 10160 20140 30082 40195 56011 60006 85801 92100=
07110,1998-06-24 00:00:00,15,1017.4,-2.1,94,14,10000,14.816,,,190,,,,,,,,,,,wg-a,,,,AAXX 24004 07110 12360 71908 10150 20140 30061 40174 58021 60006 876// 90000=
07110,1998-06-24 03:00:00,14,1015.8,-1.6,94,13,10000,18.52,,,190,,,,,,,,,,,wg-a,,,,AAXX 24034 07110 12360 71910 10140 20130 30045 40158 58016 60006 85502 90300=
07110,1998-06-24 06:00:00,15,1014.5,-1.3,94,14,12000,18.52,,,190,13.8,16.9,,,,,,,,,wg-a,,,,AAXX 24064 07110 02462 61910 10150 20140 30032 40145 56013 60006 84531 90600 333 10169 20138 60004=
07110,1998-06-24 09:00:00,16,1013.8,-0.6,94,15,4000,22.224,,,190,,,,1,,,,,,51,wg-a,,,,AAXX 24094 07110 12240 71912 10160 20150 30026 40138 58006 60017 75152 877// 90900=
07110,1998-06-24 12:00:00,14,1014.1,0.2,100,14,10000,11.112,,,300,,,,6,,,,,,51,wg-a,,,,AAXX 24124 07110 02260 73006 10140 20140 30028 40141 50002 60066 75165 877// 91200 333 60067=
07110,1998-06-24 15:00:00,17,1013.6,-0.4,72,12,15000,14.816,,,280,,,,,,,,,,1,wg-a,,,,AAXX 24154 07110 02565 /2808 10170 20120 30024 40136 56004 61000 70152 83131 91500 333 ////=
07110,1998-06-24 18:00:00,16,1013.4,-0.2,77,12,15000,14.816,,,250,13.9,17.8,,,,,,,,2,wg-a,,,,AAXX 24184 07110 12565 62508 10160 20120 30022 40134 57002 60006 70252 83232 91800 333 10178 20139=
07110,1998-06-24 21:00:00,14,1013.6,0.1,88,12,15000,11.112,,,260,,,,,,,,,,,wg-a,,,,AAXX 24214 07110 12465 62606 10140 20120 30023 40136 53001 60006 84831 92100=
07110,1998-06-25 00:00:00,13,1013.6,-0.1,94,12,10000,7.408,,,240,,,,,,,,,,,wg-a,,,,AAXX 25004 07110 12560 42404 10130 20120 30022 40136 58001 60006 84800 90000=
07110,1998-06-25 03:00:00,13,1013.5,0,94,12,10000,7.408,,,230,,,,,,,,,,,wg-a,,,,AAXX 25034 07110 12560 52304 10130 20120 30022 40135 50000 60006 85800 90300=
07110,1998-06-25 06:00:00,13,1014.3,0.7,94,12,10000,7.408,,,240,12.2,16.5,,,,,,,,25,wg-a,,,,AAXX 25064 07110 02460 52404 10130 20120 30029 40143 53007 61000 72586 85300 90600 333 10165 20122 6007=
07110,1998-06-25 09:00:00,15,1015,0.8,77,11,15000,18.52,,,250,,,,,,,,,,,wg-a,,,,AAXX 25094 07110 12465 52510 10150 20110 30037 40150 51008 60006 84802 90900=
07110,1998-06-25 12:00:00,16,1015.2,0.3,77,12,20000,22.224,,,250,,,,,,,,,,,wg-a,,,,AAXX 25124 07110 12570 62512 10160 20120 30040 40152 52003 60006 84802 91200=
07110,1998-06-25 15:00:00,16,1015.4,0.1,77,12,11000,18.52,,,230,,,,,,,,,,,wg-a,,,,AAXX 25154 07110 12/61 /2310 10160 20120 30041 40154 50001 60006 91500=
07110,1998-06-25 18:00:00,15,1015,-0.4,77,11,20000,18.52,,,230,12.4,17,,,,,,,,,wg-a,,,,AAXX 25184 07110 12570 62310 10150 20110 30037 40150 57004 60006 85802 91800 333 10170 20124=
07110,1998-06-25 21:00:00,13,1015.4,0.3,88,11,20000,14.816,,,220,,,,,,,,,,,wg-a,,,,AAXX 25214 07110 12570 42208 10130 20110 30040 40154 52003 60006 83802 92100=
07110,1998-06-26 00:00:00,13,1014.8,-0.6,88,11,15000,11.112,,,210,,,,,,,,,,25,wg-a,,,,AAXX 26004 07110 02465 32106 10130 20110 30034 40148 58006 61000 72586 83801 90000 333 6100=
07110,1998-06-26 03:00:00,14,1013.4,-1.3,88,12,11000,18.52,,,210,,,,,,,,,,,wg-a,,,,AAXX 26034 07110 12/61 /2110 10140 20120 30021 40134 56013 60006 90300=
07110,1998-06-26 06:00:00,14,1013.4,-0,88,12,10000,18.52,,,220,12.4,15.4,,,,,1,,,3,wg-a,,,,AAXX 26064 07110 02460 82210 10140 20120 30021 40134 55000 60006 70361 8653/ 90600 333 10154 20124 60014=
07110,1998-06-26 09:00:00,15,1013.4,0,82,12,15000,22.224,,40.744,210,,,,,,,,,,,wg-a,,,,AAXX 26094 07110 12465 /2112 10150 20120 30021 40134 50000 60006 85501 90900 333 91022=
07110,1998-06-26 12:00:00,16,1013.4,0.1,77,12,15000,29.632,,,210,,,,,,,,,,,wg-a,,,,AAXX 26124 07110 12565 82116 10160 20120 30022 40134 53001 60006 85575 91200=
07110,1998-06-26 15:00:00,16,1012.9,-0.5,82,13,12000,29.632,,,210,,,,,,,,,,20,wg-a,,,,AAXX 26154 07110 02262 82116 10160 20130 30017 40129 57005 61000 72052 8657/ 91500 333 ////=
07110,1998-06-26 18:00:00,15,1012.3,-0.6,94,14,6000,29.632,,,210,13.3,16.7,,,,,,,,50,wg-a,,,,AAXX 26184 07110 02456 72116 10150 20140 30011 40123 57006 61000 75052 8657/ 91800 333 10167 20133 6100=
07110,1998-06-26 21:00:00,14,1011.9,-0.5,94,13,9000,25.928,,,210,,,,1,,,,,,1,wg-a,,,,AAXX 26214 07110 12459 72114 10140 20130 30006 40119 58005 60017 70152 875// 92100=
07110,1998-06-27 00:00:00,15,1010.5,-1.3,88,13,9000,29.632,,44.448,210,,,,,,,,,,2,wg-a,,,,AAXX 27004 07110 12459 72116 10150 20130 39993 40105 58013 60016 70252 877// 90000 333 91024=
07110,1998-06-27 03:00:00,12,1009.5,-1.1,100,12,4000,11.112,,,250,,,,5,,,,,,51,wg-a,,,,AAXX 27034 07110 12240 82506 10120 20120 39982 40095 56011 60057 75165 887// 90300=
07110,1998-06-27 06:00:00,13,1009.8,0.3,94,12,15000,11.112,,,220,11.8,15.4,,,,,,,,21,wg-a,,,,AAXX 27064 07110 02265 82206 10130 20120 39985 40098 52003 61000 72165 885// 90600 333 10154 20118 6010=
07110,1998-06-27 09:00:00,14,1010.9,1.1,94,13,15000,14.816,,,260,,,,1,,,,,,1,wg-a,,,,AAXX 27094 07110 12365 72608 10140 20130 39996 40109 53011 60017 70186 878// 90900=
07110,1998-06-27 12:00:00,16,1011.8,1,77,12,15000,25.928,,,260,,,,,,,,,,2,wg-a,,,,AAXX 27124 07110 12565 62614 10160 20120 30006 40118 53010 60016 70286 86800 91200=
07110,1998-06-27 15:00:00,16,1013.2,1.4,77,12,20000,22.224,,,260,,,,,,,,,,,wg-a,,,,AAXX 27154 07110 12570 /2612 10160 20120 30020 40132 52014 60006 86200 91500=
07110,1998-06-27 18:00:00,15,1014.5,1.2,82,12,20000,22.224,,,270,12.4,17.8,,,,,,,,,wg-a,,,,AAXX 27184 07110 12570 /2712 10150 20120 30032 40145 53012 60006 85200 91800 333 10178 20124=
07110,1998-06-27 21:00:00,13,1016.2,1.6,94,12,15000,14.816,,,250,,,,,,,,,,,wg-a,,,,AAXX 27214 07110 12565 22508 10130 20120 30048 40162 53016 60006 81201 92100=
07110,1998-06-28 00:00:00,12,1017.3,1.1,94,11,15000,7.408,,,240,,,,,,,,,,,wg-a,,,,AAXX 28004 07110 12565 /2404 10120 20110 30059 40173 51011 60006 81200 90000=
07110,1998-06-28 03:00:00,12,1018,0.7,100,12,15000,7.408,,,230,,,,,,,,,,,wg-a,,,,AAXX 28034 07110 12465 22304 10120 20120 30066 40180 52007 60006 82800 90300=
07110,1998-06-28 06:00:00,13,1019.1,1.1,94,12,15000,7.408,,,240,11.4,15.6,,,,,1,,,,wg-a,,,,AAXX 28064 07110 02565 32404 10130 20120 30077 40191 53011 60006 82802 90600 333 10156 20114 60014=
07110,1998-06-28 09:00:00,16,1020.3,1.3,82,13,20000,18.52,,,250,,,,,,,,,,,wg-a,,,,AAXX 28094 07110 12470 /2510 10160 20130 30090 40203 53013 60006 86800 90900=
07110,1998-06-28 12:00:00,17,1020.8,0.5,77,13,20000,14.816,,,250,,,,,,,,,,,wg-a,,,,AAXX 28124 07110 12570 /2508 10170 20130 30095 40208 53005 60006 86800 91200=
07110,1998-06-28 18:00:00,16,1021.8,0.4,82,13,15000,18.52,,,260,12.4,17.5,,,,,,,,,wg-a,,,,AAXX 28184 07110 12465 82610 10160 20130 30105 40218 52004 60006 878// 91800 333 10175 20124=
07110,1998-06-28 21:00:00,14,1022.8,0.9,88,12,15000,11.112,,,250,,,,,,,,,,,wg-a,,,,AAXX 28214 07110 12465 82506 10140 20120 30114 40228 53009 60006 878// 92100=
07110,1998-06-29 00:00:00,14,1022.7,-0.1,88,12,15000,11.112,,,270,,,,,,,,,,,wg-a,,,,AAXX 29004 07110 12465 82706 10140 20120 30113 40227 58001 60006 875// 90000=
07110,1998-06-29 06:00:00,13,1022.3,0.4,94,12,15000,7.408,,,260,12.5,15.4,,,,,,,,,wg-a,,,,AAXX 29064 07110 02265 72604 10130 20120 30108 40223 52004 60006 875// 90600 333 10154 20125 60004=
07110,1998-06-29 09:00:00,15,1022.4,0.2,77,11,20000,11.112,,,270,,,,,,,,,,,wg-a,,,,AAXX 29094 07110 12470 /2706 10150 20110 30110 40224 50002 60006 86830 90900=
07110,1998-06-29 12:00:00,16,1022,-0.3,77,12,20000,14.816,,,250,,,,,,,,,,,wg-a,,,,AAXX 29124 07110 12570 62508 10160 20120 30107 40220 56003 60006 86801 91200=
07110,1998-06-29 15:00:00,16,1021.6,-0.4,77,12,20000,14.816,,,230,,,,,,,,,,,wg-a,,,,AAXX 29154 07110 12570 72308 10160 20120 30103 40216 57004 60006 85101 91500=
07110,1998-06-29 18:00:00,16,1020.6,-1,77,12,20000,14.816,,,230,12.8,17.6,,,,,,,,,wg-a,,,,AAXX 29184 07110 12570 /2308 10160 20120 30093 40206 56010 60006 81534 91800 333 10176 20128=
07110,1998-06-29 21:00:00,15,1020,-0.6,88,13,15000,11.112,,,220,,,,,,,,,,,wg-a,,,,AAXX 29214 07110 12465 72206 10150 20130 30087 40200 58006 60006 875// 92100=
07110,1998-06-30 00:00:00,15,1018.8,-1.2,100,15,11000,14.816,,,220,,,,,,,,,,,wg-a,,,,AAXX 30004 07110 12/61 /2208 10150 20150 30075 40188 58012 60006 90000=
07110,1998-06-30 03:00:00,15,1017.1,-1.7,94,14,3000,22.224,,38.892,230,,,,1,,,,,,51,wg-a,,,,AAXX 30034 07110 12230 82312 10150 20140 30058 40171 56017 60017 75165 877// 90300 333 91021=
07110,1998-06-30 06:00:00,15,1016,-1.1,100,15,1000,18.52,,,250,14.2,16.1,,,,,,,,51,wg-a,,,,AAXX 30064 07110 02110 82510 10150 20150 30047 40160 56011 61000 75165 887// 90600 333 10161 20142 6002=
07110,1998-06-30 09:00:00,15,1016.2,0.2,100,15,1200,18.52,,,280,,,,0,,,,,,50,wg-a,,,,AAXX 30094 07110 12112 82810 10150 20150 30049 40162 51002 60007 75055 887// 90900=
07110,1998-06-30 12:00:00,17,1016.2,0.1,88,15,10000,11.112,,,290,,,,,,,,,,2,wg-a,,,,AAXX 30124 07110 02260 72906 10170 20150 30050 40162 53001 60006 70252 877// 91200 333 61000=
07110,1998-06-30 15:00:00,18,1016,-0.2,83,15,15000,11.112,,,280,,,,,,,,,,,wg-a,,,,AAXX 30154 07110 12465 72806 10180 20150 30048 40160 57002 60006 87500 91500=
07110,1998-06-30 18:00:00,16,1015,-1,88,14,12000,7.408,,,340,14.5,18.5,,,,,,,,,wg-a,,,,AAXX 30184 07110 12362 73404 10160 20140 30038 40150 56010 60006 87500 91800 333 10185 20145=
07110,1998-06-30 21:00:00,15,1015,-0.1,94,14,12000,7.408,,,20,,,,,,,,,,,wg-a,,,,AAXX 30214 07110 12662 70204 10150 20140 30037 40150 55001 60006 875// 92100=
07110,1998-07-01 00:00:00,14,1014.5,-0.5,94,13,12000,7.408,,,60,,,,,,,,,,,wg-a,,,,AAXX 01004 07110 12662 70604 10140 20130 30032 40145 58005 60006 875// 90000=
07110,1998-07-01 03:00:00,13,1012.2,-2.3,94,12,12000,11.112,,,30,,,,,,,,,,,wg-a,,,,AAXX 01034 07110 12762 70306 10130 20120 30009 40122 57023 60006 875// 90300=
07110,1998-07-01 06:00:00,13,1011.9,-0.3,100,13,10000,7.408,,,50,12.7,16.5,,,,,,,,60,wg-a,,,,AAXX 01064 07110 02660 70504 10130 20130 30006 40119 58003 61000 76062 8557/ 90600 333 10165 20127 6000=
07110,1998-07-01 09:00:00,15,1011.5,-0.3,94,14,8000,7.408,,,70,,,,2,,,,,,60,wg-a,,,,AAXX 01094 07110 12558 70704 10150 20140 30003 40115 58003 60027 76066 84531 90900=
07110,1998-07-01 12:00:00,16,1011.4,-0.1,94,15,10000,14.816,,,40,,,,0,,,,,,60,wg-a,,,,AAXX 01124 07110 02460 70408 10160 20150 30002 40114 56001 60026 76062 85831 91200 333 60007=
07110,1998-07-01 15:00:00,17,1010.6,-0.8,82,14,12000,18.52,,,50,,,,0,,,,,,2,wg-a,,,,AAXX 01154 07110 12462 70510 10170 20140 39994 40106 57008 60007 70262 85831 91500=
07110,1998-07-01 18:00:00,16,1010.7,0.1,88,14,6000,22.224,,,40,13.1,17.8,,,,,,,,60,wg-a,,,,AAXX 01184 07110 02456 70412 10160 20140 39995 40107 53001 61000 76062 83517 91800 333 10178 20131 6100=
07110,1998-07-01 21:00:00,15,1011.8,1,88,13,6000,18.52,,,40,,,,,,,,,,21,wg-a,,,,AAXX 01214 07110 02556 70410 10150 20130 30005 40118 53010 61000 72162 84517 92100 333 ////=
07110,1998-07-02 00:00:00,14,1012.1,0.3,82,11,8000,18.52,,,40,,,,,,,,,,2,wg-a,,,,AAXX 02004 07110 02758 70410 10140 20110 30008 40121 51003 61000 70262 83517 90000 333 ////=
07110,1998-07-02 03:00:00,14,1011.4,-0.7,88,12,8000,22.224,,,40,,,,,,,,,,,wg-a,,,,AAXX 02034 07110 12758 70412 10140 20120 30001 40114 57007 60006 81517 90300=
07110,1998-07-02 06:00:00,14,1013,1.6,88,12,8000,14.816,,,40,13.5,16.4,,,,,2,,,,wg-a,,,,AAXX 02064 07110 02458 80408 10140 20120 30017 40130 53016 60006 875// 90600 333 10164 20135 60024=
07110,1998-07-02 09:00:00,15,1012.7,-0.3,88,13,9000,25.928,,53.708,40,,,,0,,,,,,21,wg-a,,,,AAXX 02094 07110 12459 80414 10150 20130 30014 40127 58003 60007 72162 875// 90900 333 91029=
07110,1998-07-02 12:00:00,14,1014.4,1.7,94,13,6000,22.224,,,40,,,,0,,,,,,21,wg-a,,,,AAXX 02124 07110 02356 80412 10140 20130 30031 40144 53017 60016 72162 885// 91200 333 60007=
07110,1998-07-02 15:00:00,15,1015.2,0.8,94,14,7000,22.224,,42.596,40,,,,,,,,,,,wg-a,,,,AAXX 02154 07110 12457 80412 10150 20140 30039 40152 52008 60006 885// 91500 333 91023=
07110,1998-07-02 18:00:00,14,1015.8,0.6,94,13,7000,22.224,,40.744,50,13.8,15.6,,,,,,,,60,wg-a,,,,AAXX 02184 07110 02457 80512 10140 20130 30045 40158 53006 61000 76062 875// 91800 333 10156 20138 6000 91022=
07110,1998-07-03 00:00:00,13,1019,1.6,94,12,12000,14.816,,,30,,,,,,,,,,1,wg-a,,,,AAXX 03004 07110 02/62 30308 10130 20120 30076 40190 51016 61000 70161 81031 90000 333 ////=
07110,1998-07-03 03:00:00,13,1019.4,0.4,94,12,12000,14.816,,,40,,,,,,,,,,,wg-a,,,,AAXX 03034 07110 12362 50408 10130 20120 30080 40194 52004 60006 85500 90300=
07110,1998-07-03 06:00:00,13,1021,1.6,94,12,9000,11.112,,,30,12.1,15.1,,,,,1,,,,wg-a,,,,AAXX 03064 07110 02/59 20306 10130 20120 30096 40210 52016 60006 82030 90600 333 10151 20121 60014=
07110,1998-07-03 09:00:00,15,1022.7,1.7,88,13,12000,18.52,,,20,,,,,,,,,,,wg-a,,,,AAXX 03094 07110 12462 /0210 10150 20130 30113 40227 53017 60006 86830 90900=
07110,1998-07-03 12:00:00,17,1023.8,1.2,68,11,20000,25.928,,42.596,20,,,,,,,,,,,wg-a,,,,AAXX 03124 07110 12570 20214 10170 20110 30125 40238 51012 60006 82501 91200 333 91023=
07110,1998-07-03 15:00:00,18,1024.8,1,64,11,25000,18.52,,,20,,,,,,,,,,,wg-a,,,,AAXX 03154 07110 12575 /0210 10180 20110 30135 40248 51010 60006 81100 91500=
07110,1998-07-03 18:00:00,16,1025.9,1,72,11,15000,14.816,,,20,13.1,17.8,,,,,,,,,wg-a,,,,AAXX 03184 07110 12665 /0208 10160 20110 30145 40259 51010 60006 85500 91800 333 10178 20131=
07110,1998-07-03 21:00:00,14,1026.9,0.9,88,12,15000,7.408,,,330,,,,,,,,,,,wg-a,,,,AAXX 03214 07110 12465 /3304 10140 20120 30154 40269 53009 60006 85500 92100=
07110,1998-07-04 00:00:00,14,1027.1,0.3,100,14,3000,14.816,,,330,,,,,,,,,,10,wg-a,,,,AAXX 04004 07110 12230 73308 10140 20140 30157 40271 51003 60006 71011 876// 90000=
07110,1998-07-04 03:00:00,12,1027.1,-0.1,94,11,3000,3.704,,,310,,,,,,,,,,10,wg-a,,,,AAXX 04034 07110 12330 63102 10120 20110 30156 40271 55001 60006 71011 86500 90300=
07110,1998-07-04 06:00:00,13,1027.4,0.3,94,12,8000,3.704,,,310,11.8,16.7,,,,,,,,,wg-a,,,,AAXX 04064 07110 02558 83102 10130 20120 30159 40274 53003 60006 885// 90600 333 10167 20118 60004=
07110,1998-07-04 09:00:00,15,1028,0.6,72,10,20000,14.816,,,350,,,,,,,,,,,wg-a,,,,AAXX 04094 07110 12570 83508 10150 20100 30165 40280 51006 60006 885// 90900=
07110,1998-07-04 12:00:00,16,1028.4,0.5,72,11,20000,14.816,,,320,,,,,,,,,,,wg-a,,,,AAXX 04124 07110 12570 73208 10160 20110 30170 40284 52005 60006 875// 91200=
07110,1998-07-04 15:00:00,16,1027.8,-0.6,72,11,20000,14.816,,,320,,,,,,,,,,,wg-a,,,,AAXX 04154 07110 12570 73208 10160 20110 30164 40278 57006 60006 875// 91500=
07110,1998-07-04 18:00:00,16,1027.3,-0.5,68,10,20000,11.112,,,340,12.6,16.9,,,,,,,,,wg-a,,,,AAXX 04184 07110 12570 33406 10160 20100 30159 40273 57005 60006 83500 91800 333 10169 20126=
07110,1998-07-04 21:00:00,12,1027.6,0.2,94,11,20000,3.704,,,300,,,,,,,,,,,wg-a,,,,AAXX 04214 07110 12470 33002 10120 20110 30161 40276 53002 60006 83800 92100=
07110,1998-07-05 00:00:00,13,1027,-0.6,94,12,15000,3.704,,,320,,,,,,,,,,,wg-a,,,,AAXX 05004 07110 12465 73202 10130 20120 30155 40270 55006 60006 875// 90000=
07110,1998-07-05 03:00:00,13,1025.7,-1.3,88,11,15000,3.704,,,270,,,,,,,,,,,wg-a,,,,AAXX 05034 07110 12465 72702 10130 20110 30142 40257 58013 60006 875// 90300=
07110,1998-07-05 06:00:00,14,1025.3,-0.4,88,12,15000,7.408,,,280,12.3,16.1,,,,,,,,,wg-a,,,,AAXX 05064 07110 02565 72804 10140 20120 30138 40253 56004 60006 875// 90600 333 10161 20123 60004=
07110,1998-07-05 09:00:00,16,1025.2,0,77,12,11000,7.408,,,280,,,,,,,,,,,wg-a,,,,AAXX 05094 07110 12/61 /2804 10160 20120 30138 40252 50000 60006 90900=
07110,1998-07-05 12:00:00,16,1024.8,-0.4,82,13,15000,11.112,,,280,,,,,,,,,,,wg-a,,,,AAXX 05124 07110 12465 72806 10160 20130 30134 40248 58004 60006 878// 91200=
07110,1998-07-05 15:00:00,16,1023.8,-0.9,88,14,15000,11.112,,,300,,,,,,,,,,,wg-a,,,,AAXX 05154 07110 12465 73006 10160 20140 30125 40238 58009 60006 878// 91500=
07110,1998-07-05 18:00:00,15,1022.7,-1.2,88,13,15000,11.112,,,300,13.2,17.3,,,,,,,,,wg-a,,,,AAXX 05184 07110 12165 83006 10150 20130 30113 40227 56012 60006 886// 91800 333 10173 20132=
07110,1998-07-05 21:00:00,15,1021.9,-0.8,94,14,500,7.408,,,290,,,,,,,,,,10,wg-a,,,,AAXX 05214 07110 02200 82904 10150 20140 30105 40219 56008 61000 71052 886// 92100 333 ////=
07110,1998-07-06 00:00:00,14,1021,-0.9,94,13,4000,3.704,,,250,,,,,,,,,,50,wg-a,,,,AAXX 06004 07110 02340 82502 10140 20130 30096 40210 58009 61000 75052 886// 90000 333 6100=
07110,1998-07-06 03:00:00,14,1018.8,-2.2,94,13,4000,7.408,,,290,,,,0,,,,,,50,wg-a,,,,AAXX 06034 07110 12240 82904 10140 20130 30074 40188 58022 60007 75052 886// 90300=
07110,1998-07-06 06:00:00,13,1017.6,-1.2,100,13,10000,7.408,,,230,12.7,15.4,,,,,1,,,1,wg-a,,,,AAXX 06064 07110 02160 82304 10130 20130 30062 40176 57012 60006 70152 885// 90600 333 10154 20127 60014=
07110,1998-07-06 09:00:00,15,1017,-0.5,94,14,10000,11.112,,,240,,,,,,,,,,50,wg-a,,,,AAXX 06094 07110 02260 82406 10150 20140 30057 40170 57005 61000 75052 888// 90900 333 ////=
07110,1998-07-06 12:00:00,17,1015.9,-1,77,13,15000,11.112,,,290,,,,,,,,,,1,wg-a,,,,AAXX 06124 07110 02565 72906 10170 20130 30047 40159 57010 61000 70152 875// 91200 333 6100=
07110,1998-07-06 15:00:00,17,1014.7,-1.2,77,13,20000,14.816,,,300,,,,,,,,,,,wg-a,,,,AAXX 06154 07110 12570 73008 10170 20130 30035 40147 58012 60006 87800 91500=
07110,1998-07-06 18:00:00,16,1013.8,-0.9,82,13,20000,14.816,,,320,12.8,18.2,,,,,,,,,wg-a,,,,AAXX 06184 07110 12470 83208 10160 20130 30026 40138 56009 60006 8/800 91800 333 10182 20128=
07110,1998-07-06 21:00:00,15,1014.5,0.6,88,13,10000,7.408,,,320,,,,,,,,,,50,wg-a,,,,AAXX 06214 07110 02360 73204 10150 20130 30032 40145 53006 61000 75052 878// 92100 333 ////=
07110,1998-07-07 00:00:00,14,1014.1,-0.4,100,14,4000,7.408,,,290,,,,,,,,,,50,wg-a,,,,AAXX 07004 07110 02140 72904 10140 20140 30028 40141 57004 61000 75052 875// 90000 333 6100=
07110,1998-07-07 03:00:00,15,1013.7,-0.4,100,15,1200,14.816,,,340,,,,,,,,,,,wg-a,,,,AAXX 07034 07110 32/12 /3408 10150 20150 30024 40137 56004 90300=
07110,1998-07-07 06:00:00,14,1014.5,0.8,94,13,10000,14.816,,,340,13.7,16.5,,,,,1,,,3,wg-a,,,,AAXX 07064 07110 02160 73408 10140 20130 30032 40145 53008 60006 70365 877// 90600 333 10165 20137 60014=
07110,1998-07-07 09:00:00,16,1016,1.5,77,12,15000,25.928,,,350,,,,,,,,,,,wg-a,,,,AAXX 07094 07110 12465 33514 10160 20120 30047 40160 52015 60006 83801 90900=
07110,1998-07-07 12:00:00,17,1017.5,1.6,72,12,18000,22.224,,,330,,,,,,,,,,,wg-a,,,,AAXX 07124 07110 12568 /3312 10170 20120 30063 40175 51016 60006 85101 91200=
07110,1998-07-07 15:00:00,17,1018.3,0.7,77,13,20000,18.52,,,340,,,,,,,,,,,wg-a,,,,AAXX 07154 07110 12570 73410 10170 20130 30070 40183 52007 60006 87801 91500=
07110,1998-07-07 18:00:00,15,1018.8,0.5,82,12,20000,14.816,,,330,13.8,17.4,,,,,,,,,wg-a,,,,AAXX 07184 07110 12470 63308 10150 20120 30075 40188 53005 60006 86201 91800 333 10174 20138=
07110,1998-07-07 21:00:00,13,1020.5,1.6,88,11,10000,7.408,,,320,,,,,,,,,,,wg-a,,,,AAXX 07214 07110 12560 33204 10130 20110 30091 40205 53016 60006 82201 92100=
07110,1998-07-08 00:00:00,10,1021,0.4,100,10,10000,7.408,,,320,,,,,,,,,,,wg-a,,,,AAXX 08004 07110 12/60 43204 10100 20100 30095 40210 51004 60006 80002 90000=
07110,1998-07-08 03:00:00,11,1020.6,-0.4,94,10,12000,11.112,,,320,,,,,,,,,,,wg-a,,,,AAXX 08034 07110 12462 33206 10110 20100 30091 40206 57004 60006 82202 90300=
07110,1998-07-08 06:00:00,13,1021,0.5,94,12,20000,7.408,,,310,10.2,15.6,,,,,,,,,wg-a,,,,AAXX 08064 07110 02670 23104 10130 20120 30096 40210 52005 60006 81501 90600 333 10156 20102 60004=
07110,1998-07-08 09:00:00,17,1021.2,0.3,72,12,20000,18.52,,,340,,,,,,,,,,,wg-a,,,,AAXX 08094 07110 12570 /3410 10170 20120 30099 40212 50003 60006 86101 90900=
07110,1998-07-08 12:00:00,18,1021.4,0.3,64,11,20000,11.112,,,290,,,,,,,,,,,wg-a,,,,AAXX 08124 07110 12570 /2906 10180 20110 30102 40214 50003 60006 85500 91200=
07110,1998-07-08 15:00:00,17,1021.6,0.1,72,12,20000,18.52,,,290,,,,,,,,,,,wg-a,,,,AAXX 08154 07110 12570 72910 10170 20120 30103 40216 53001 60006 87501 91500=
07110,1998-07-08 18:00:00,15,1021.3,-0.3,82,12,15000,14.816,,,300,12.6,18.5,,,,,,,,,wg-a,,,,AAXX 08184 07110 12465 83008 10150 20120 30100 40213 56003 60006 878// 91800 333 10185 20126=
07110,1998-07-08 21:00:00,13,1021.6,0.1,88,11,20000,7.408,,,250,,,,,,,,,,,wg-a,,,,AAXX 08214 07110 12570 32504 10130 20110 30101 40216 53001 60006 83530 92100=
07110,1998-07-09 00:00:00,14,1020.4,-1.1,94,13,20000,11.112,,,230,,,,,,,,,,,wg-a,,,,AAXX 09004 07110 12470 72306 10140 20130 30090 40204 58011 60006 875// 90000=
07110,1998-07-09 03:00:00,15,1018.7,-1.6,88,13,20000,11.112,,,240,,,,,,,,,,,wg-a,,,,AAXX 09034 07110 12470 82406 10150 20130 30074 40187 56016 60006 875// 90300=
07110,1998-07-09 06:00:00,15,1018.3,-0.4,94,14,10000,14.816,,,250,11.9,15.3,,,,,,,,,wg-a,,,,AAXX 09064 07110 02360 72508 10150 20140 30070 40183 55004 60006 875// 90600 333 10153 20119 60004=
07110,1998-07-09 09:00:00,15,1018.4,0.1,100,15,1200,14.816,,,240,,,,0,,,,,,10,wg-a,,,,AAXX 09094 07110 12212 72408 10150 20150 30071 40184 52001 60007 71065 878// 90900=
07110,1998-07-09 12:00:00,16,1018.4,-0,100,16,600,18.52,,,250,,,,0,,,,,,44,wg-a,,,,AAXX 09124 07110 02106 82510 10160 20160 30071 40184 54000 60016 74465 877// 91200 333 60007=
07110,1998-07-09 15:00:00,17,1018.1,-0.2,94,16,600,18.52,,,260,,,,,,,,,,50,wg-a,,,,AAXX 09154 07110 02106 82610 10170 20160 30069 40181 58002 61000 75065 877// 91500 333 ////=
07110,1998-07-09 18:00:00,15,1018.1,-0.1,100,15,4500,14.816,,,290,14.4,16.8,,,,,,,,10,wg-a,,,,AAXX 09184 07110 02345 82908 10150 20150 30068 40181 55001 61000 71065 877// 91800 333 10168 20144 6000=
07110,1998-07-09 21:00:00,15,1018.4,0.3,94,14,8000,11.112,,,260,,,,,,,,,,3,wg-a,,,,AAXX 09214 07110 02358 82606 10150 20140 30071 40184 53003 61000 70352 875// 92100 333 ////=
07110,1998-07-10 00:00:00,14,1018.4,-0.1,100,14,8000,11.112,,,260,,,,,,,,,,3,wg-a,,,,AAXX 10004 07110 02258 82606 10140 20140 30070 40184 58001 61000 70352 876// 90000 333 ////=
07110,1998-07-10 03:00:00,14,1017.5,-0.9,94,13,6000,7.408,,,220,,,,,,,,,,3,wg-a,,,,AAXX 10034 07110 02456 82204 10140 20130 30061 40175 58009 61000 70352 875// 90300 333 ////=
07110,1998-07-10 06:00:00,14,1017.4,-0.1,94,13,75000,11.112,,,250,13.1,15.3,,,,,,,,50,wg-a,,,,AAXX 10064 07110 02289 72506 10140 20130 30060 40174 56001 61000 75052 875// 90600 333 10153 20131 6001=
07110,1998-07-10 12:00:00,16,1017.8,0.1,88,14,15000,18.52,,,240,,,,,,,,,,20,wg-a,,,,AAXX 10124 07110 02265 72410 10160 20140 30065 40178 50001 61000 72052 87500 91200 333 6100=
07110,1998-07-10 15:00:00,16,1017.1,-0.7,94,15,1500,18.52,,,220,,,,0,,,,,,10,wg-a,,,,AAXX 10154 07110 12215 82210 10160 20150 30058 40171 58007 60007 71052 887// 91500=
07110,1998-07-10 18:00:00,16,1016.9,-0.2,100,16,3000,18.52,,,260,13.8,16.7,,,,,,,,10,wg-a,,,,AAXX 10184 07110 02130 82610 10160 20160 30056 40169 55002 61000 71052 887// 91800 333 10167 20138 6000=
07110,1998-07-10 21:00:00,15,1018,1.1,94,14,6000,11.112,,,280,,,,,,,,,,20,wg-a,,,,AAXX 10214 07110 02356 72806 10150 20140 30067 40180 52011 61000 72052 875// 92100 333 ////=
07110,1998-07-11 00:00:00,14,1018.8,0.7,100,14,8000,14.816,,,290,,,,,,,,,,20,wg-a,,,,AAXX 11004 07110 02258 72908 10140 20140 30074 40188 51007 61000 72052 875// 90000 333 6100=
07110,1998-07-11 03:00:00,14,1018.7,-0.1,88,12,8000,11.112,,,280,,,,,,,,,,,wg-a,,,,AAXX 11034 07110 12458 72806 10140 20120 30073 40187 55001 60006 875// 90300=
07110,1998-07-11 06:00:00,14,1019,0.3,94,13,12000,11.112,,,260,12.9,16.4,,,,,1,,,,wg-a,,,,AAXX 11064 07110 02562 72606 10140 20130 30076 40190 53003 60006 875// 90600 333 10164 20129 60014=
07110,1998-07-11 09:00:00,15,1019.1,0.2,88,13,12000,14.816,,,240,,,,,,,,,,,wg-a,,,,AAXX 11094 07110 12462 82408 10150 20130 30078 40191 53002 60006 875// 90900=
07110,1998-07-11 12:00:00,15,1018.3,-0.8,88,13,12000,29.632,,51.856,210,,,,,,,,,,,wg-a,,,,AAXX 11124 07110 12462 82116 10150 20130 30070 40183 58008 60006 875// 91200 333 91028=
07110,1998-07-11 15:00:00,16,1017.2,-1.1,88,14,6000,29.632,,51.856,210,,,,,,,,,,,wg-a,,,,AAXX 11154 07110 12256 82116 10160 20140 30059 40172 56011 60006 887// 91500 333 91028=
07110,1998-07-11 18:00:00,16,1015.6,-1.6,94,15,1000,25.928,,,220,13.8,16.4,,,,,,,,51,wg-a,,,,AAXX 11184 07110 02110 82214 10160 20150 30043 40156 56016 61000 75152 887// 91800 333 10164 20138 6100=
07110,1998-07-11 21:00:00,16,1015.3,-0.2,94,15,6000,18.52,,,240,,,,0,,,,,,1,wg-a,,,,AAXX 11214 07110 12356 82410 10160 20150 30041 40153 55002 60007 70152 877// 92100=
07110,1998-07-12 00:00:00,16,1014.8,-0.5,100,16,500,18.52,,,240,,,,,,,,,,51,wg-a,,,,AAXX 12004 07110 02100 82410 10160 20160 30036 40148 58005 60006 75152 887// 90000 333 61000=
07110,1998-07-12 09:00:00,16,1012.5,-0.8,94,15,3500,29.632,,44.448,220,,,,,,,,,,50,wg-a,,,,AAXX 12094 07110 02235 82216 10160 20150 30013 40125 56008 61000 75055 887// 90900 333 //// 91024=
07110,1998-07-12 12:00:00,16,1011.6,-0.9,100,16,4000,29.632,,53.708,220,,,,,,,,,,10,wg-a,,,,AAXX 12124 07110 02340 82216 10160 20160 30004 40116 56009 61000 71052 887// 91200 333 6100 91029=
07110,1998-07-12 15:00:00,16,1010.6,-1,94,15,1500,29.632,,53.708,220,,,,,,,,,,10,wg-a,,,,AAXX 12154 07110 02215 82216 10160 20150 39994 40106 56010 61000 71052 887// 91500 333 //// 91029=
07110,1998-07-12 18:00:00,16,1009.8,-0.8,100,16,1200,22.224,,,240,14.8,17,,,,,,,,10,wg-a,,,,AAXX 12184 07110 02112 82412 10160 20160 39986 40098 57008 61000 71065 887// 91800 333 10170 20148 6002=
07110,1998-07-12 21:00:00,15,1010.1,0.3,100,15,500,14.816,,,260,,,,1,,,,,,60,wg-a,,,,AAXX 12214 07110 12300 82608 10150 20150 39989 40101 53003 60017 76065 887// 92100=
07110,1998-07-13 00:00:00,14,1010.4,0.2,94,13,10000,7.408,,,280,,,,,,,,,,1,wg-a,,,,AAXX 13004 07110 02560 72804 10140 20130 39991 40104 50002 60016 70165 875// 90000 333 61000=
07110,1998-07-13 06:00:00,12,1012.4,1.7,94,11,20000,7.408,,,240,10.8,16.5,,,,,3,,,,wg-a,,,,AAXX 13064 07110 02570 52404 10120 20110 30010 40124 53017 60006 84830 90600 333 10165 20108 60034=
07110,1998-07-13 09:00:00,16,1013.7,1.4,72,11,20000,18.52,,,300,,,,,,,,,,,wg-a,,,,AAXX 13094 07110 12570 /3010 10160 20110 30024 40137 51014 60006 85100 90900=
07110,1998-07-13 12:00:00,17,1014.8,1.2,68,11,20000,22.224,,,290,,,,,,,,,,,wg-a,,,,AAXX 13124 07110 12570 /2912 10170 20110 30036 40148 51012 60006 85100 91200=
07110,1998-07-13 15:00:00,16,1016.4,1.5,72,11,20000,18.52,,,300,,,,,,,,,,,wg-a,,,,AAXX 13154 07110 12570 33010 10160 20110 30051 40164 53015 60006 83100 91500=
07110,1998-07-13 18:00:00,16,1017.5,1.1,77,12,11000,18.52,,,300,11.5,17.8,,,,,,,,,wg-a,,,,AAXX 13184 07110 12/61 /3010 10160 20120 30062 40175 51011 60006 91800 333 10178 20115=
07110,1998-07-13 21:00:00,12,1018.7,1.1,94,11,20000,7.408,,,270,,,,,,,,,,,wg-a,,,,AAXX 13214 07110 12570 /2704 10120 20110 30073 40187 53011 60006 81101 92100=
07110,1998-07-14 00:00:00,11,1019,0.2,94,10,15000,7.408,,,260,,,,,,,,,,,wg-a,,,,AAXX 14004 07110 12465 22604 10110 20100 30075 40190 50002 60006 82101 90000=
07110,1998-07-14 03:00:00,11,1018.8,-0.2,94,10,15000,7.408,,,290,,,,,,,,,,,wg-a,,,,AAXX 14034 07110 12/65 22904 10110 20100 30073 40188 58002 60006 80001 90300=
07110,1998-07-14 06:00:00,12,1019,0.2,100,12,15000,3.704,,,260,10.2,15.9,,,,,,,,,wg-a,,,,AAXX 14064 07110 02465 22602 10120 20120 30075 40190 52002 60006 82500 90600 333 10159 20102 60004=
07110,1998-07-14 09:00:00,15,1019.9,1.1,82,12,20000,14.816,,,310,,,,,,,,,,,wg-a,,,,AAXX 14094 07110 12570 /3108 10150 20120 30086 40199 51011 60006 86200 90900=
07110,1998-07-14 12:00:00,18,1020.4,0.5,59,10,20000,14.816,,,290,,,,,,,,,,,wg-a,,,,AAXX 14124 07110 12570 72908 10180 20100 30091 40204 51005 60006 86201 91200=
07110,1998-07-14 15:00:00,18,1020.4,0.1,59,10,25000,18.52,,,300,,,,,,,,,,,wg-a,,,,AAXX 14154 07110 12575 43010 10180 20100 30092 40204 51001 60006 84800 91500=
07110,1998-07-14 18:00:00,16,1020.1,-0.4,68,10,25000,14.816,,,280,11.4,18.1,,,,,,,,,wg-a,,,,AAXX 14184 07110 12575 22808 10160 20100 30088 40201 56004 60006 82200 91800 333 10181 20114=
07110,1998-07-14 21:00:00,13,1020.7,0.5,94,12,20000,7.408,,,240,,,,,,,,,,,wg-a,,,,AAXX 14214 07110 12470 32404 10130 20120 30093 40207 53005 60006 82101 92100=
07110,1998-07-15 00:00:00,12,1020.2,-0.6,94,11,20000,7.408,,,240,,,,,,,,,,,wg-a,,,,AAXX 15004 07110 12670 32404 10120 20110 30087 40202 56006 60006 82501 90000=
07110,1998-07-15 03:00:00,12,1019.5,-0.7,94,11,20000,7.408,,,250,,,,,,,,,,,wg-a,,,,AAXX 15034 07110 12570 72504 10120 20110 30080 40195 55007 60006 86502 90300=
07110,1998-07-15 06:00:00,14,1018.7,-0.7,88,12,20000,7.408,,,230,11.4,16.7,,,,,,,,,wg-a,,,,AAXX 15064 07110 02670 72304 10140 20120 30073 40187 56007 60006 85502 90600 333 10167 20114 60004=
07110,1998-07-15 09:00:00,15,1018.7,0.1,77,11,20000,18.52,,,240,,,,,,,,,,,wg-a,,,,AAXX 15094 07110 12470 82410 10150 20110 30074 40187 50001 60006 86802 90900=
07110,1998-07-15 12:00:00,15,1018.8,0.1,82,12,20000,22.224,,,220,,,,,,,,,,,wg-a,,,,AAXX 15124 07110 12570 72212 10150 20120 30075 40188 50001 60006 85870 91200=
07110,1998-07-15 15:00:00,16,1018.3,-0.5,77,12,20000,14.816,,,230,,,,,,,,,,,wg-a,,,,AAXX 15154 07110 12570 72308 10160 20120 30070 40183 57005 60006 85870 91500=
07110,1998-07-15 18:00:00,16,1016.9,-1.4,82,13,20000,22.224,,,210,12.9,17.3,,,,,,,,,wg-a,,,,AAXX 15184 07110 12470 82112 10160 20130 30056 40169 57014 60006 8227/ 91800 333 10173 20129=
07110,1998-07-15 21:00:00,14,1015.1,-1.8,94,13,8000,25.928,,,210,,,,0,,,,,,61,wg-a,,,,AAXX 15214 07110 12258 82114 10140 20130 30038 40151 56018 60007 76162 877// 92100=
07110,1998-07-16 00:00:00,15,1012.7,-2.4,94,14,3000,31.484,,50.004,200,,,,1,,,,,,51,wg-a,,,,AAXX 16004 07110 02230 82017 10150 20140 30014 40127 58024 60026 75165 877// 90000 333 60017 91027=
07110,1998-07-16 03:00:00,16,1010.8,-1.8,100,16,2500,18.52,,,240,,,,2,,,,,,51,wg-a,,,,AAXX 16034 07110 12125 82410 10160 20160 39996 40108 56018 60027 75165 877// 90300=
07110,1998-07-16 06:00:00,15,1011.1,0.3,100,15,1500,18.52,,,260,13.4,16,,,,,,,,51,wg-a,,,,AAXX 16064 07110 02115 82610 10150 20150 39999 40111 53003 61000 75165 877// 90600 333 10160 20134 6004=
07110,1998-07-16 09:00:00,16,1012.1,1,100,16,15000,18.52,,,260,,,,,,,,,,50,wg-a,,,,AAXX 16094 07110 02365 82610 10160 20160 30009 40121 53010 61000 75052 877// 90900 333 ////=
07110,1998-07-16 12:00:00,16,1013.9,1.8,94,15,20000,22.224,,,300,,,,0,,,,,,20,wg-a,,,,AAXX 16124 07110 02270 83012 10160 20150 30027 40139 53018 60006 72052 875// 91200 333 60007=
07110,1998-07-16 15:00:00,17,1015.4,1.5,82,14,20000,18.52,,,310,,,,,,,,,,,wg-a,,,,AAXX 16154 07110 12470 73110 10170 20140 30042 40154 51015 60006 875// 91500=
07110,1998-07-16 18:00:00,16,1016.2,0.7,82,13,20000,14.816,,,280,15,17.2,,,,,,,,,wg-a,,,,AAXX 16184 07110 12470 72808 10160 20130 30049 40162 51007 60006 875// 91800 333 10172 20150=
07110,1998-07-16 21:00:00,15,1016.6,0.4,94,14,15000,11.112,,,220,,,,,,,,,,,wg-a,,,,AAXX 16214 07110 12365 72206 10150 20140 30053 40166 53004 60006 875// 92100=
07110,1998-07-17 00:00:00,15,1015.5,-1.1,94,14,10000,22.224,,,200,,,,,,,,,,,wg-a,,,,AAXX 17004 07110 12360 82012 10150 20140 30042 40155 58011 60006 887// 90000=
07110,1998-07-17 03:00:00,16,1013.2,-2.2,100,16,500,25.928,,,220,,,,2,,,,,,61,wg-a,,,,AAXX 17034 07110 12100 82214 10160 20160 30020 40132 56022 60027 76162 887// 90300=
07110,1998-07-17 06:00:00,14,1013.8,0.5,100,14,10000,14.816,,,260,14.2,16.4,,,,,,,,21,wg-a,,,,AAXX 17064 07110 02460 72608 10140 20140 30025 40138 53005 61000 72162 878// 90600 333 10164 20142 6003=
07110,1998-07-17 09:00:00,16,1014.9,1.2,88,14,15000,14.816,,,240,,,,,,,,,,,wg-a,,,,AAXX 17094 07110 12465 72408 10160 20140 30037 40149 51012 60006 878// 90900=
07110,1998-07-17 12:00:00,17,1015.7,0.8,77,13,15000,22.224,,,260,,,,,,,,,,,wg-a,,,,AAXX 17124 07110 12465 72612 10170 20130 30045 40157 51008 60006 878// 91200=
07110,1998-07-17 15:00:00,18,1016.1,0.4,73,13,15000,18.52,,,260,,,,,,,,,,,wg-a,,,,AAXX 17154 07110 12565 72610 10180 20130 30049 40161 50004 60006 878// 91500=
07110,1998-07-17 18:00:00,17,1016.3,0.2,77,13,15000,14.816,,,260,14.5,18.9,,,,,,,,,wg-a,,,,AAXX 17184 07110 12565 62608 10170 20130 30051 40163 53002 60006 86800 91800 333 10189 20145=
07110,1998-07-17 21:00:00,14,1017.1,0.6,94,13,15000,7.408,,,220,,,,,,,,,,,wg-a,,,,AAXX 17214 07110 12465 /2204 10140 20130 30057 40171 53006 60006 81801 92100=
07110,1998-07-18 00:00:00,14,1016.4,-0.6,100,14,12000,11.112,,,230,,,,,,,,,,,wg-a,,,,AAXX 18004 07110 12262 72306 10140 20140 30051 40164 58006 60006 876// 90000=
07110,1998-07-18 03:00:00,15,1015.5,-0.9,94,14,15000,11.112,,,230,,,,,,,,,,,wg-a,,,,AAXX 18034 07110 12265 72306 10150 20140 30042 40155 58009 60006 876// 90300=
07110,1998-07-18 06:00:00,15,1015.8,0.3,94,14,11000,11.112,,,230,13.5,17.3,,,,,,,,,wg-a,,,,AAXX 18064 07110 02/61 /2306 10150 20140 30045 40158 53003 60006 90600 333 10173 20135 60004=
07110,1998-07-18 09:00:00,16,1016,0.3,94,15,15000,11.112,,,230,,,,,,,,,,,wg-a,,,,AAXX 18094 07110 12465 82306 10160 20150 30048 40160 50003 60006 875// 90900=
07110,1998-07-18 12:00:00,18,1016.4,0.4,77,14,20000,14.816,,,240,,,,,,,,,,,wg-a,,,,AAXX 18124 07110 12570 72408 10180 20140 30052 40164 53004 60006 878// 91200=
07110,1998-07-18 15:00:00,19,1016.4,0.1,78,15,20000,14.816,,,240,,,,,,,,,,,wg-a,,,,AAXX 18154 07110 12570 72408 10190 20150 30053 40164 52001 60006 878// 91500=
07110,1998-07-18 18:00:00,18,1016.1,-0.4,83,15,25000,14.816,,,190,14.8,19.6,,,,,,,,,wg-a,,,,AAXX 18184 07110 12675 41908 10180 20150 30049 40161 55004 60006 83802 91800 333 10196 20148=
07110,1998-07-18 21:00:00,14,1016.6,0.4,100,14,25000,7.408,,,190,,,,,,,,,,,wg-a,,,,AAXX 18214 07110 12675 31904 10140 20140 30053 40166 53004 60006 81502 92100=
07110,1998-07-19 00:00:00,13,1015.8,-0.9,100,13,20000,7.408,,,160,,,,,,,,,,,wg-a,,,,AAXX 19004 07110 12/70 01604 10130 20130 30044 40158 58009 60006 80000 90000=
07110,1998-07-19 03:00:00,12,1014,-1.8,100,12,500,7.408,,,140,,,,,,,,,,11,wg-a,,,,AAXX 19034 07110 12/00 /1404 10120 20120 30026 40140 58018 60006 71100 81030 90300=
07110,1998-07-19 06:00:00,13,1013.3,-0.6,100,13,15000,7.408,,,140,11.1,18.4,,,,,,,,,wg-a,,,,AAXX 19064 07110 02/65 61404 10130 20130 30020 40133 58006 60006 80001 90600 333 10184 20111 60004=
07110,1998-07-19 09:00:00,18,1012.3,-0.8,83,15,20000,14.816,,,170,,,,,,,,,,,wg-a,,,,AAXX 19094 07110 12570 71708 10180 20150 30012 40123 58008 60006 875// 90900=
07110,1998-07-19 12:00:00,19,1012.3,-0,83,16,25000,25.928,,,190,,,,,,,,,,,wg-a,,,,AAXX 19124 07110 12575 71914 10190 20160 30012 40123 55000 60006 86801 91200=
07110,1998-07-19 15:00:00,21,1011.4,-0.8,69,15,500,29.632,,,210,,,,,,,,,,,wg-a,,,,AAXX 19154 07110 12500 72116 10210 20150 30004 40114 56008 60006 83501 91500=
07110,1998-07-19 18:00:00,20,1010.8,-0.7,73,15,20000,25.928,,,200,13,21.4,,,,,,,,,wg-a,,,,AAXX 19184 07110 12470 /2014 10200 20150 39997 40108 56007 60006 83801 91800 333 10214 20130=
07110,1998-07-19 21:00:00,17,1011.1,0.2,94,16,20000,18.52,,,190,,,,,,,,,,,wg-a,,,,AAXX 19214 07110 12470 51910 10170 20160 39999 40111 53002 60006 81801 92100=
07110,1998-07-20 00:00:00,16,1010.3,-0.8,94,15,20000,14.816,,,180,,,,,,,,,,,wg-a,,,,AAXX 20004 07110 12270 21808 10160 20150 39991 40103 57008 60006 82600 90000=
07110,1998-07-20 03:00:00,16,1009,-1.3,100,16,10000,18.52,,,170,,,,,,,,,,,wg-a,,,,AAXX 20034 07110 12260 71710 10160 20160 39978 40090 57013 60006 876// 90300=
07110,1998-07-20 06:00:00,17,1007.8,-1.1,100,17,9000,18.52,,,180,15.5,19.8,,,,,,,,,wg-a,,,,AAXX 20064 07110 02359 71810 10170 20170 39967 40078 56011 60006 876// 90600 333 10198 20155 60004=
07110,1998-07-20 09:00:00,19,1007.4,-0.3,88,17,12000,18.52,,,180,,,,,,,,,,,wg-a,,,,AAXX 20094 07110 32462 /1810 10190 20170 39964 40074 57003 86500 90900=
07110,1998-07-20 12:00:00,22,1006.1,-1.2,78,18,12000,22.224,,,190,,,,,,,,,,,wg-a,,,,AAXX 20124 07110 12462 /1912 10220 20180 39952 40061 57012 60006 86801 91200=
07110,1998-07-20 15:00:00,18,1005.1,-1.1,94,17,6000,22.224,,,190,,,,,,,,,,50,wg-a,,,,AAXX 20154 07110 32256 71912 10180 20170 39941 40051 57011 75052 8777/ 91500=
07110,1998-07-20 18:00:00,17,1004.5,-0.7,100,17,4000,14.816,,50.004,220,16.7,21.8,,,,,,,,65,wg-a,,,,AAXX 20184 07110 02240 82208 10170 20170 39934 40045 55007 61000 76596 8697/ 91800 333 10218 20167 6018 91027=
07110,1998-07-20 21:00:00,14,1006.5,1.9,94,13,6000,11.112,,,300,,,,2,,,,,,10,wg-a,,,,AAXX 20214 07110 12256 73006 10140 20130 39953 40065 53019 60027 71065 875// 92100=
07110,1998-07-21 00:00:00,13,1007.6,1,100,13,10000,7.408,,,240,,,,0,,,,,,1,wg-a,,,,AAXX 21004 07110 02160 22404 10130 20130 39963 40076 53010 60036 70165 82600 90000 333 60007=
07110,1998-07-21 03:00:00,13,1009.1,1.5,94,12,10000,7.408,,,220,,,,0,,,,,,,wg-a,,,,AAXX 21034 07110 12460 22204 10130 20120 39978 40091 51015 60007 82500 90300=
07110,1998-07-21 06:00:00,14,1010.1,1,100,14,10000,11.112,,,220,12.5,16.8,,,,,21,,,3,wg-a,,,,AAXX 21064 07110 02460 52206 10140 20140 39988 40101 53010 60006 70386 85900 90600 333 10168 20125 60214=
07110,1998-07-21 09:00:00,18,1011.3,1.4,77,14,10000,25.928,,,220,,,,,,,,,,,wg-a,,,,AAXX 21094 07110 12460 52214 10180 20140 30002 40113 51014 60006 85900 90900=
07110,1998-07-21 12:00:00,18,1013.4,2,73,13,20000,22.224,,,230,,,,0,,,,,,1,wg-a,,,,AAXX 21124 07110 02570 62312 10180 20130 30022 40134 51020 60016 70186 86800 91200 333 60007=
07110,1998-07-21 15:00:00,19,1014.6,1.3,68,13,20000,25.928,,,240,,,,,,,,,,,wg-a,,,,AAXX 21154 07110 12570 42414 10190 20130 30035 40146 51013 60006 84800 91500=
07110,1998-07-21 18:00:00,17,1015.4,0.7,77,13,20000,18.52,,,220,13.8,18.9,,,,,,,,,wg-a,,,,AAXX 21184 07110 12570 52210 10170 20130 30042 40154 53007 60006 85800 91800 333 10189 20138=
07110,1998-07-21 21:00:00,14,1016.4,0.9,100,14,20000,11.112,,,190,,,,,,,,,,,wg-a,,,,AAXX 21214 07110 12570 51906 10140 20140 30051 40164 53009 60006 85801 92100=
07110,1998-07-22 00:00:00,14,1016.4,0,100,14,20000,11.112,,,170,,,,,,,,,,,wg-a,,,,AAXX 22004 07110 12270 71706 10140 20140 30051 40164 50000 60006 878// 90000=
07110,1998-07-22 03:00:00,15,1015.1,-1.3,100,15,10000,14.816,,,170,,,,,,,,,,,wg-a,,,,AAXX 22034 07110 12260 71708 10150 20150 30038 40151 58013 60006 875// 90300=
07110,1998-07-22 06:00:00,16,1014.2,-0.8,94,15,10000,25.928,,,170,13.9,17.3,,,,,,,,,wg-a,,,,AAXX 22064 07110 02360 71714 10160 20150 30030 40142 58008 60006 85651 90600 333 10173 20139 60004=
07110,1998-07-22 09:00:00,15,1013.5,-0.8,94,14,4000,29.632,,,160,,,,2,,,,,,10,wg-a,,,,AAXX 22094 07110 12140 71616 10150 20140 30022 40135 58008 60027 71052 877// 90900=
07110,1998-07-22 12:00:00,17,1012.9,-0.5,100,17,9000,29.632,,,190,,,,3,,,,,,50,wg-a,,,,AAXX 22124 07110 02259 71916 10170 20170 30017 40129 57005 60066 75052 877// 91200 333 60037=
07110,1998-07-22 15:00:00,16,1013.1,0.2,100,16,6000,18.52,,,200,,,,5,,,,,,51,wg-a,,,,AAXX 22154 07110 12256 72010 10160 20160 30019 40131 50002 60057 75165 875// 91500=
07110,1998-07-22 18:00:00,19,1013.1,0.1,83,16,25000,18.52,,,230,14.9,19.5,,0,,,,,,1,wg-a,,,,AAXX 22184 07110 02475 32310 10190 20160 30020 40131 53001 60006 70165 83200 91800 333 10195 20149 60007=
07110,1998-07-22 21:00:00,16,1014.1,0.9,100,16,12000,18.52,,,220,,,,,,,,,,,wg-a,,,,AAXX 22214 07110 12362 72210 10160 20160 30029 40141 51009 60006 875// 92100=
07110,1998-07-23 00:00:00,17,1013.7,-0.4,94,16,12000,25.928,,,220,,,,,,,,,,,wg-a,,,,AAXX 23004 07110 12262 72214 10170 20160 30025 40137 58004 60006 875// 90000=
07110,1998-07-23 03:00:00,15,1013.6,-0.1,100,15,8000,18.52,,,230,,,,0,,,,,,51,wg-a,,,,AAXX 23034 07110 12258 82310 10150 20150 30024 40136 58001 60007 75186 885// 90300=
07110,1998-07-23 06:00:00,15,1014.6,0.9,100,15,500,14.816,,,230,15.2,18.5,,,,,,,,51,wg-a,,,,AAXX 23064 07110 02200 82308 10150 20150 30033 40146 53009 61000 75186 887// 90600 333 10185 20152 6013=
07110,1998-07-23 09:00:00,17,1015.8,1.3,94,16,8000,11.112,,,260,,,,,,,,,,1,wg-a,,,,AAXX 23094 07110 02358 72606 10170 20160 30046 40158 51013 61000 70165 878// 90900 333 ////=
07110,1998-07-23 12:00:00,18,1017.1,1.3,77,14,20000,14.816,,,320,,,,,,,,,,1,wg-a,,,,AAXX 23124 07110 02570 /3208 10180 20140 30059 40171 53013 61000 70165 86500 91200 333 ////=
07110,1998-07-23 15:00:00,18,1018.8,1.7,77,14,20000,14.816,,,350,,,,,,,,,,,wg-a,,,,AAXX 23154 07110 12570 /3508 10180 20140 30076 40188 51017 60006 85400 91500=
07110,1998-07-23 18:00:00,16,1020.6,1.7,77,12,25000,18.52,,,340,15.2,19.2,,,,,,,,,wg-a,,,,AAXX 23184 07110 12575 43410 10160 20120 30093 40206 52017 60006 83401 91800 333 10192 20152=
07110,1998-07-23 21:00:00,13,1022.7,1.9,94,12,20000,7.408,,,330,,,,,,,,,,,wg-a,,,,AAXX 23214 07110 12/70 13304 10130 20120 30112 40227 53019 60006 80001 92100=
07110,1998-07-24 00:00:00,12,1023.2,0.5,94,11,20000,7.408,,,330,,,,,,,,,,,wg-a,,,,AAXX 24004 07110 12/70 13304 10120 20110 30117 40232 51005 60006 80001 90000=
07110,1998-07-24 03:00:00,11,1023.2,-0,100,11,15000,3.704,,,300,,,,,,,,,,,wg-a,,,,AAXX 24034 07110 12/65 03002 10110 20110 30117 40232 55000 60006 80000 90300=
07110,1998-07-24 06:00:00,12,1023.4,0.2,100,12,3500,3.704,,,320,10.7,16.2,,,,,,,,28,wg-a,,,,AAXX 24064 07110 02/35 /3202 10120 20120 30119 40234 53002 60006 72841 80001 90600 333 10162 20107 60004=
07110,1998-07-24 09:00:00,17,1024.3,1.1,82,14,15000,11.112,,,360,,,,,,,,,,,wg-a,,,,AAXX 24094 07110 12465 /3606 10170 20140 30130 40243 51011 60006 83132 90900=
07110,1998-07-24 12:00:00,19,1024.2,-0,68,13,25000,11.112,,,350,,,,,,,,,,,wg-a,,,,AAXX 24124 07110 12575 43506 10190 20130 30130 40242 55000 60006 83102 91200=
07110,1998-07-24 15:00:00,19,1024.3,0.1,68,13,25000,14.816,,,360,,,,,,,,,,,wg-a,,,,AAXX 24154 07110 12575 33608 10190 20130 30131 40243 50001 60006 83100 91500=
07110,1998-07-24 18:00:00,17,1024.6,0.2,77,13,25000,14.816,,,10,11.8,19.6,,,,,,,,,wg-a,,,,AAXX 24184 07110 12575 20108 10170 20130 30133 40246 53002 60006 82100 91800 333 10196 20118=
07110,1998-07-24 21:00:00,13,1026,1.2,94,12,25000,7.408,,,350,,,,,,,,,,,wg-a,,,,AAXX 24214 07110 12/75 03504 10130 20120 30145 40260 51012 60006 80000 92100=
07110,1998-07-25 00:00:00,12,1025.8,-0.2,94,11,25000,7.408,,,340,,,,,,,,,,,wg-a,,,,AAXX 25004 07110 12/75 03404 10120 20110 30143 40258 58002 60006 80000 90000=
07110,1998-07-25 03:00:00,11,1025.3,-0.6,100,11,25000,7.408,,,350,,,,,,,,,,,wg-a,,,,AAXX 25034 07110 12/75 03504 10110 20110 30137 40253 58006 60006 80000 90300=
07110,1998-07-25 06:00:00,11,1024.7,-0.5,100,11,4000,7.408,,,10,10.6,17.3,,,,,,,,10,wg-a,,,,AAXX 25064 07110 02540 40104 10110 20110 30132 40247 56005 60006 71000 81501 90600 333 10173 20106 60004=
07110,1998-07-25 09:00:00,16,1024.5,0,88,14,15000,11.112,,,40,,,,,,,,,,,wg-a,,,,AAXX 25094 07110 12465 /0406 10160 20140 30132 40245 50000 60006 84202 90900=
07110,1998-07-25 12:00:00,19,1023.7,-0.7,68,13,20000,11.112,,,360,,,,,,,,,,,wg-a,,,,AAXX 25124 07110 12670 63606 10190 20130 30125 40237 58007 60006 84202 91200=
07110,1998-07-25 15:00:00,19,1022.8,-0.9,64,12,20000,18.52,,,360,,,,,,,,,,,wg-a,,,,AAXX 25154 07110 12570 63610 10190 20120 30116 40228 56009 60006 82232 91500=
07110,1998-07-25 18:00:00,17,1021.4,-1.5,63,10,20000,14.816,,,30,11.3,20.2,,,,,,,,,wg-a,,,,AAXX 25184 07110 12/70 20308 10170 20100 30101 40214 56015 60006 82031 91800 333 10202 20113=
07110,1998-07-25 21:00:00,13,1021.3,-0.3,88,11,20000,7.408,,,20,,,,,,,,,,,wg-a,,,,AAXX 25214 07110 12/70 40204 10130 20110 30098 40213 56003 60006 84031 92100=
07110,1998-07-26 00:00:00,11,1020.1,-1.2,100,11,20000,7.408,,,70,,,,,,,,,,,wg-a,,,,AAXX 26004 07110 12/70 40704 10110 20110 30086 40201 58012 60006 84031 90000=
07110,1998-07-26 03:00:00,10,1018.4,-1.7,100,10,15000,3.704,,,120,,,,,,,,,,,wg-a,,,,AAXX 26034 07110 12/65 61202 10100 20100 30069 40184 56017 60006 84032 90300=
07110,1998-07-26 06:00:00,12,1016.8,-1.5,94,11,20000,7.408,,,160,9.9,16.8,,,,,,,,,wg-a,,,,AAXX 26064 07110 02/70 71604 10120 20110 30054 40168 58015 60006 85052 90600 333 10168 20099 60004=
07110,1998-07-26 09:00:00,16,1016.3,-0.4,82,13,20000,3.704,,,200,,,,,,,,,,,wg-a,,,,AAXX 26094 07110 12/70 72002 10160 20130 30050 40163 58004 60006 86072 90900=
07110,1998-07-26 12:00:00,19,1015.4,-0.7,73,14,20000,7.408,,,260,,,,,,,,,,,wg-a,,,,AAXX 26124 07110 12570 52604 10190 20140 30043 40154 56007 60006 83132 91200=
07110,1998-07-26 15:00:00,19,1014.3,-1.1,46,7,25000,18.52,,,200,,,,,,,,,,,wg-a,,,,AAXX 26154 07110 12/75 52010 10190 20070 30032 40143 56011 60006 84032 91500=
07110,1998-07-26 18:00:00,18,1013.5,-0.9,77,14,25000,14.816,,,220,11.7,21,,,,,,,,,wg-a,,,,AAXX 26184 07110 12675 /2208 10180 20140 30023 40135 58009 60006 82531 91800 333 10210 20117=
07110,1998-07-26 21:00:00,15,1013.9,0.3,100,15,3000,14.816,,,200,,,,1,,,,,,51,wg-a,,,,AAXX 26214 07110 12130 82008 10150 20150 30026 40139 53003 60017 75165 887// 92100=
07110,1998-07-27 00:00:00,15,1013.8,-0.1,100,15,6000,7.408,,,270,,,,0,,,,,,3,wg-a,,,,AAXX 27004 07110 02256 /2704 10150 20150 30025 40138 55001 60016 70365 86500 90000 333 60007=
07110,1998-07-27 03:00:00,15,1013.5,-0.3,94,14,8000,11.112,,,290,,,,,,,,,,,wg-a,,,,AAXX 27034 07110 12458 /2906 10150 20140 30022 40135 56003 60006 86500 90300=
07110,1998-07-27 06:00:00,15,1014.3,0.8,94,14,10000,14.816,,,310,14.4,17.5,,,,,1,,,,wg-a,,,,AAXX 27064 07110 02260 /3108 10150 20140 30030 40143 53008 60006 86500 90600 333 10175 20144 60014=
07110,1998-07-27 09:00:00,17,1015.6,1.4,82,14,25000,18.52,,,280,,,,,,,,,,,wg-a,,,,AAXX 27094 07110 12475 /2810 10170 20140 30044 40156 51014 60006 85100 90900=
07110,1998-07-27 12:00:00,19,1016.2,0.6,73,14,25000,18.52,,,310,,,,0,,,,,,1,wg-a,,,,AAXX 27124 07110 02475 53110 10190 20140 30050 40162 51006 60006 70186 85100 91200 333 60007=
07110,1998-07-27 15:00:00,18,1017.4,1.2,77,14,25000,18.52,,,300,,,,,,,,,,,wg-a,,,,AAXX 27154 07110 12475 /3010 10180 20140 30062 40174 52012 60006 86800 91500=
07110,1998-07-27 18:00:00,17,1017.5,0.1,77,13,25000,14.816,,,280,14.8,19.7,,,,,,,,,wg-a,,,,AAXX 27184 07110 12475 72808 10170 20130 30063 40175 51001 60006 878// 91800 333 10197 20148=
07110,1998-07-27 21:00:00,15,1018.7,1.1,88,13,15000,7.408,,,250,,,,,,,,,,,wg-a,,,,AAXX 27214 07110 12465 72504 10150 20130 30074 40187 53011 60006 878// 92100=
07110,1998-07-28 00:00:00,15,1017.3,-1.4,94,14,15000,11.112,,,230,,,,,,,,,,,wg-a,,,,AAXX 28004 07110 12465 82306 10150 20140 30060 40173 56014 60006 885// 90000=
07110,1998-07-28 03:00:00,15,1015.6,-1.7,94,14,10000,14.816,,,210,,,,,,,,,,,wg-a,,,,AAXX 28034 07110 12460 82108 10150 20140 30043 40156 58017 60006 886// 90300=
07110,1998-07-28 06:00:00,15,1012.8,-2.7,100,15,1000,25.928,,,190,14.9,16.9,,,,,,,,60,wg-a,,,,AAXX 28064 07110 02110 81914 10150 20150 30016 40128 56027 61000 76062 877// 90600 333 10169 20149 6004=
07110,1998-07-28 09:00:00,17,1012.4,-0.3,100,17,12000,22.224,,,270,,,,4,,,,,,10,wg-a,,,,AAXX 28094 07110 12162 82712 10170 20170 30013 40124 55003 60047 71062 877// 90900=
07110,1998-07-28 12:00:00,17,1013.2,0.7,100,17,7000,29.632,,,280,,,,,,,,,,50,wg-a,,,,AAXX 28124 07110 02257 82816 10170 20170 30020 40132 53007 60046 75065 877// 91200 333 61000=
07110,1998-07-28 15:00:00,16,1014.2,1,94,15,8000,22.224,,,300,,,,,,,,,,20,wg-a,,,,AAXX 28154 07110 02258 83012 10160 20150 30030 40142 53010 61000 72052 877// 91500 333 ////=
07110,1998-07-28 18:00:00,17,1015.3,1.1,88,15,15000,25.928,,,290,15.2,17.6,,,,,,,,2,wg-a,,,,AAXX 28184 07110 12465 82914 10170 20150 30041 40153 53011 60006 70252 875// 91800 333 10176 20152=
07110,1998-07-28 21:00:00,15,1016.2,0.8,88,13,11000,14.816,,,290,,,,,,,,,,,wg-a,,,,AAXX 28214 07110 12/61 /2908 10150 20130 30049 40162 53008 60006 92100=
07110,1998-07-29 00:00:00,15,1016.2,0,88,13,10000,11.112,,,260,,,,,,,,,,,wg-a,,,,AAXX 29004 07110 12460 82606 10150 20130 30049 40162 50000 60006 875// 90000=
07110,1998-07-29 03:00:00,15,1014.6,-1.6,88,13,10000,11.112,,,230,,,,,,,,,,,wg-a,,,,AAXX 29034 07110 12560 82306 10150 20130 30033 40146 58016 60006 875// 90300=
07110,1998-07-29 06:00:00,15,1013.8,-0.8,94,14,12000,14.816,,,230,14.5,16.5,,,,,4,,,,wg-a,,,,AAXX 29064 07110 02562 82308 10150 20140 30025 40138 58008 60006 885// 90600 333 10165 20145 60044=
07110,1998-07-29 09:00:00,16,1013,-0.7,94,15,1000,25.928,,42.596,220,,,,1,,,,,,10,wg-a,,,,AAXX 29094 07110 12110 82214 10160 20150 30018 40130 58007 60017 71052 887// 90900 333 91023=
07110,1998-07-29 12:00:00,17,1012.1,-0.8,100,17,4500,22.224,,,260,,,,1,,,,,,10,wg-a,,,,AAXX 29124 07110 02245 82612 10170 20170 30010 40121 56008 60026 71052 887// 91200 333 60017=
07110,1998-07-29 15:00:00,18,1013,0.8,83,15,15000,18.52,,,300,,,,,,,,,,1,wg-a,,,,AAXX 29154 07110 02465 73010 10180 20150 30018 40130 51008 61000 70152 878// 91500 333 ////=
07110,1998-07-29 18:00:00,17,1013.4,0.4,77,13,20000,18.52,,,290,15.4,18.6,,,,,,,,1,wg-a,,,,AAXX 29184 07110 12470 52910 10170 20130 30022 40134 53004 60006 70152 85800 91800 333 10186 20154=
07110,1998-07-29 21:00:00,15,1014.1,0.6,94,14,15000,11.112,,,270,,,,,,,,,,,wg-a,,,,AAXX 29214 07110 12465 62706 10150 20140 30028 40141 52006 60006 84830 92100=
07110,1998-07-30 00:00:00,14,1013.9,-0.2,88,12,15000,11.112,,,290,,,,,,,,,,,wg-a,,,,AAXX 30004 07110 12665 22906 10140 20120 30026 40139 58002 60006 81530 90000=
07110,1998-07-30 03:00:00,13,1013.5,-0.5,94,12,15000,11.112,,,260,,,,,,,,,,,wg-a,,,,AAXX 30034 07110 12565 42606 10130 20120 30021 40135 56005 60006 84800 90300=
07110,1998-07-30 06:00:00,13,1013.9,0.4,94,12,15000,7.408,,,240,11.5,16.7,,,,,2,,,,wg-a,,,,AAXX 30064 07110 02565 42404 10130 20120 30025 40139 53004 60006 84800 90600 333 10167 20115 60024=
07110,1998-07-30 09:00:00,17,1014.4,0.7,77,13,11000,25.928,,,280,,,,,,,,,,,wg-a,,,,AAXX 30094 07110 12/61 /2814 10170 20130 30032 40144 51007 60006 90900=
07110,1998-07-30 12:00:00,18,1015.1,0.7,68,12,20000,22.224,,,280,,,,,,,,,,,wg-a,,,,AAXX 30124 07110 12570 62812 10180 20120 30039 40151 52007 60006 86800 91200=
07110,1998-07-30 15:00:00,18,1015.4,0.3,68,12,20000,22.224,,,270,,,,,,,,,,,wg-a,,,,AAXX 30154 07110 12570 52712 10180 20120 30042 40154 52003 60006 85800 91500=
07110,1998-07-30 18:00:00,17,1015.5,0.1,82,14,20000,18.52,,,270,12.6,18.6,,,,,,,,,wg-a,,,,AAXX 30184 07110 12470 /2710 10170 20140 30043 40155 53001 60006 86800 91800 333 10186 20126=
07110,1998-07-30 21:00:00,14,1016.9,1.2,94,13,15000,7.408,,,270,,,,0,,,,,,1,wg-a,,,,AAXX 30214 07110 12465 52704 10140 20130 30055 40169 53012 60007 70186 85800 92100=
07110,1998-07-31 00:00:00,13,1017.1,0.2,100,13,15000,7.408,,,260,,,,,,,,,,2,wg-a,,,,AAXX 31004 07110 02465 52604 10130 20130 30057 40171 53002 60006 70286 85800 90000 333 61000=
07110,1998-07-31 03:00:00,12,1017,-0.1,100,12,15000,7.408,,,260,,,,,,,,,,,wg-a,,,,AAXX 31034 07110 12465 42604 10120 20120 30056 40170 55001 60006 84800 90300=
07110,1998-07-31 06:00:00,13,1017.4,0.4,100,13,12000,7.408,,,270,11.6,16.7,,,,,,,,,wg-a,,,,AAXX 31064 07110 02562 52704 10130 20130 30060 40174 53004 60006 84801 90600 333 10167 20116 60004=
07110,1998-07-31 09:00:00,17,1018.3,1,77,13,15000,14.816,,,300,,,,,,,,,,,wg-a,,,,AAXX 31094 07110 12465 73008 10170 20130 30070 40183 53010 60006 878// 90900=
07110,1998-07-31 12:00:00,18,1018.7,0.5,73,13,20000,18.52,,,310,,,,,,,,,,,wg-a,,,,AAXX 31124 07110 12570 /3110 10180 20130 30075 40187 51005 60006 86800 91200=
07110,1998-07-31 15:00:00,19,1018.9,0.2,64,12,20000,18.52,,,310,,,,,,,,,,,wg-a,,,,AAXX 31154 07110 12570 /3110 10190 20120 30077 40189 51002 60006 85800 91500=
07110,1998-07-31 18:00:00,17,1019.4,0.4,77,13,20000,18.52,,,330,12.8,19.4,,,,,,,,,wg-a,,,,AAXX 31184 07110 12570 43310 10170 20130 30081 40194 52004 60006 84230 91800 333 10194 20128=
07110,1998-07-31 21:00:00,14,1020.2,0.7,94,13,15000,3.704,,,320,,,,,,,,,,,wg-a,,,,AAXX 31214 07110 12665 /3202 10140 20130 30088 40202 52007 60006 81501 92100=
07110,1998-08-01 00:00:00,11,1019.7,-0.6,100,11,10000,0,,,0,,,,,,,,,,,wg-a,,,,AAXX 01004 07110 12/60 10000 10110 20110 30082 40197 56006 60006 80001 90000=
07110,1998-08-01 03:00:00,9,1019.1,-0.7,100,9,400,3.704,,,260,,,,,,,,,,44,wg-a,,,,AAXX 01034 07110 12004 32602 10090 20090 30075 40191 56007 60006 74440 83600 90300=
07110,1998-08-01 06:00:00,11,1018.8,-0.2,100,11,200,3.704,,,230,9.1,17.3,,,,,,,,42,wg-a,,,,AAXX 01064 07110 02/02 /2302 10110 20110 30073 40188 56002 60006 74241 89000 90600 333 10173 20091 60004=
07110,1998-08-01 09:00:00,17,1018.4,-0.2,77,13,10000,7.408,,,330,,,,,,,,,,3,wg-a,,,,AAXX 01094 07110 12460 63304 10170 20130 30071 40184 58002 60006 70341 86300 90900=
07110,1998-08-01 12:00:00,17,1018.5,0.2,72,12,10000,14.816,,,330,,,,,,,,,,15,wg-a,,,,AAXX 01124 07110 12460 63308 10170 20120 30073 40185 52002 60006 71541 86901 91200=
07110,1998-08-01 15:00:00,18,1018.8,0.3,77,14,15000,18.52,,,350,,,,4,,,,,,,wg-a,,,,AAXX 01154 07110 12565 53510 10180 20140 30076 40188 51003 60047 84801 91500=
07110,1998-08-01 18:00:00,17,1019.4,0.5,77,13,20000,18.52,,,330,10.9,18.2,,,,,,,,,wg-a,,,,AAXX 01184 07110 12470 53310 10170 20130 30081 40194 51005 60006 85300 91800 333 10182 20109=
07110,1998-08-01 21:00:00,14,1020.8,1.3,94,13,20000,7.408,,,330,,,,,,,,,,,wg-a,,,,AAXX 01214 07110 12470 53304 10140 20130 30094 40208 51013 60006 85800 92100=
07110,1998-08-02 00:00:00,14,1020.9,0.1,88,12,20000,11.112,,,340,,,,,,,,,,,wg-a,,,,AAXX 02004 07110 12570 33406 10140 20120 30095 40209 50001 60006 83800 90000=
07110,1998-08-02 03:00:00,14,1021.1,0.2,94,13,20000,11.112,,,330,,,,,,,,,,,wg-a,,,,AAXX 02034 07110 12470 /3306 10140 20130 30097 40211 53002 60006 86600 90300=
07110,1998-08-02 06:00:00,13,1021.8,0.7,100,13,15000,7.408,,,330,13,16.8,,,,,4,,,,wg-a,,,,AAXX 02064 07110 02465 53304 10130 20130 30104 40218 53007 60006 85800 90600 333 10168 20130 60044=
07110,1998-08-02 09:00:00,17,1022.6,0.9,82,14,20000,14.816,,,360,,,,,,,,,,,wg-a,,,,AAXX 02094 07110 12470 33608 10170 20140 30113 40226 51009 60006 83200 90900=
07110,1998-08-02 12:00:00,19,1022.9,0.4,68,13,20000,14.816,,,330,,,,,,,,,,,wg-a,,,,AAXX 02124 07110 12570 43308 10190 20130 30117 40229 52004 60006 84200 91200=
07110,1998-08-02 15:00:00,20,1023.1,0.2,68,14,20000,14.816,,,360,,,,,,,,,,,wg-a,,,,AAXX 02154 07110 12570 23608 10200 20140 30119 40231 50002 60006 82200 91500=
07110,1998-08-02 18:00:00,18,1023.8,0.6,73,13,20000,11.112,,,20,13,20.1,,,,,,,,,wg-a,,,,AAXX 02184 07110 12570 30206 10180 20130 30125 40238 51006 60006 81102 91800 333 10201 20130=
07110,1998-08-02 21:00:00,14,1025.8,1.8,94,13,3000,3.704,,,30,,,,,,,,,,10,wg-a,,,,AAXX 02214 07110 12/30 50302 10140 20130 30143 40258 52018 60006 71011 80002 92100=
07110,1998-08-03 00:00:00,13,1025.9,0.1,100,13,1500,3.704,,,300,,,,,,,,,,10,wg-a,,,,AAXX 03004 07110 12/15 73002 10130 20130 30144 40259 50001 60006 71011 80004 90000=
07110,1998-08-03 03:00:00,12,1025.4,-0.5,100,12,1500,7.408,,,200,,,,,,,,,,10,wg-a,,,,AAXX 03034 07110 12315 72004 10120 20120 30139 40254 56005 60006 71022 876// 90300=
07110,1998-08-03 06:00:00,14,1025.5,0.2,100,14,1500,7.408,,,200,11.7,17.7,,,,,,,,10,wg-a,,,,AAXX 03064 07110 02215 72004 10140 20140 30141 40255 52002 60006 71022 82614 90600 333 10177 20117 60004=
07110,1998-08-03 09:00:00,17,1025.5,0.1,77,13,10000,18.52,,,230,,,,,,,,,,,wg-a,,,,AAXX 03094 07110 12460 72310 10170 20130 30142 40255 50001 60006 8217/ 90900=
07110,1998-08-03 12:00:00,18,1025.6,0.1,83,15,15000,22.224,,38.892,210,,,,,,,,,,,wg-a,,,,AAXX 03124 07110 12465 72112 10180 20150 30143 40256 51001 60006 84870 91200 333 91021=
07110,1998-08-03 15:00:00,18,1024.5,-1.1,88,16,3000,29.632,,,210,,,,,,,,,,50,wg-a,,,,AAXX 03154 07110 02230 82116 10180 20160 30132 40245 58011 61000 75052 875// 91500 333 ////=
07110,1998-08-03 18:00:00,17,1023.9,-0.6,94,16,1000,22.224,,,230,14.2,19.4,,,,,,,,51,wg-a,,,,AAXX 03184 07110 02110 82312 10170 20160 30126 40239 58006 61000 75152 887// 91800 333 10194 20142 6001=
07110,1998-08-03 21:00:00,17,1024.2,0.3,100,17,1200,14.816,,,240,,,,0,,,,,,50,wg-a,,,,AAXX 03214 07110 12112 82408 10170 20170 30129 40242 53003 60007 75055 887// 92100=
07110,1998-08-04 00:00:00,17,1024.4,0.2,100,17,1500,11.112,,,270,,,,1,,,,,,50,wg-a,,,,AAXX 04004 07110 02115 82706 10170 20170 30131 40244 52002 60016 75055 887// 90000 333 60017=
07110,1998-08-04 03:00:00,16,1025.5,1,100,16,2000,14.816,,,340,,,,1,,,,,,50,wg-a,,,,AAXX 04034 07110 12120 83408 10160 20160 30141 40255 53010 60017 75065 887// 90300=
07110,1998-08-04 06:00:00,15,1027.1,1.6,94,14,7000,14.816,,,350,14.7,17.1,,,,,3,,,1,wg-a,,,,AAXX 04064 07110 02357 /3508 10150 20140 30157 40271 53016 60006 70165 85500 90600 333 10171 20147 60034=
07110,1998-08-04 09:00:00,17,1029.3,2.2,82,14,20000,22.224,,,360,,,,,,,,,,,wg-a,,,,AAXX 04094 07110 12470 /3612 10170 20140 30179 40293 51022 60006 86800 90900=
07110,1998-08-04 12:00:00,18,1030.3,1.1,73,13,25000,18.52,,,20,,,,,,,,,,,wg-a,,,,AAXX 04124 07110 12575 40210 10180 20130 30190 40303 51011 60006 84500 91200=
07110,1998-08-04 18:00:00,17,1032,0.8,77,13,15000,14.816,,,360,14.7,18.7,,,,,,,,,wg-a,,,,AAXX 04184 07110 12565 /3608 10170 20130 30206 40320 52008 60006 81100 91800 333 10187 20147=
07110,1998-08-04 21:00:00,14,1033.6,1.4,94,13,15000,11.112,,,340,,,,,,,,,,,wg-a,,,,AAXX 04214 07110 12/65 03406 10140 20130 30220 40336 53014 60006 80000 92100=
07110,1998-08-05 00:00:00,13,1033.3,-0.3,94,12,15000,7.408,,,350,,,,,,,,,,,wg-a,,,,AAXX 05004 07110 12/65 03504 10130 20120 30217 40333 58003 60006 80000 90000=
07110,1998-08-05 03:00:00,12,1032.8,-0.5,100,12,400,3.704,,,360,,,,,,,,,,44,wg-a,,,,AAXX 05034 07110 12004 23602 10120 20120 30212 40328 57005 60006 74440 82600 90300=
07110,1998-08-05 06:00:00,13,1032.9,0.1,100,13,6000,7.408,,,10,10.9,17.4,,,,,,,,28,wg-a,,,,AAXX 05064 07110 02256 20104 10130 20130 30213 40329 53001 60006 72841 82700 90600 333 10174 20109 60004=
07110,1998-08-05 09:00:00,19,1033.4,0.8,73,14,15000,7.408,,,40,,,,,,,,,,,wg-a,,,,AAXX 05094 07110 12465 /0404 10190 20140 30221 40334 51008 60006 81100 90900=
07110,1998-08-05 12:00:00,22,1032.9,-0.4,60,14,15000,7.408,,,30,,,,,,,,,,,wg-a,,,,AAXX 05124 07110 12565 /0304 10220 20140 30217 40329 58004 60006 81200 91200=
07110,1998-08-05 15:00:00,22,1032.1,-0.8,65,15,20000,14.816,,,340,,,,,,,,,,,wg-a,,,,AAXX 05154 07110 12570 /3408 10220 20150 30209 40321 57008 60006 81100 91500=
07110,1998-08-05 18:00:00,19,1031.5,-0.7,68,13,20000,14.816,,,360,13,22.9,,,,,,,,,wg-a,,,,AAXX 05184 07110 12/70 03608 10190 20130 30202 40315 58007 60006 80000 91800 333 10229 20130=
07110,1998-08-05 21:00:00,14,1031.5,-0.2,100,14,8000,11.112,,,10,,,,,,,,,,,wg-a,,,,AAXX 05214 07110 12758 20106 10140 20140 30200 40315 55002 60006 81501 92100=
07110,1998-08-06 00:00:00,12,1031.4,-0.2,94,11,1000,7.408,,,20,,,,,,,,,,10,wg-a,,,,AAXX 06004 07110 12/10 00204 10120 20110 30198 40314 58002 60006 71000 80000 90000=
07110,1998-08-06 03:00:00,11,1029.7,-1.7,100,11,8000,7.408,,,60,,,,,,,,,,40,wg-a,,,,AAXX 06034 07110 32/58 00604 10110 20110 30181 40297 56017 74000 80000 90300=
07110,1998-08-06 06:00:00,11,1029.3,-0.4,100,11,10000,7.408,,,40,9.2,19,,,,,,,,,wg-a,,,,AAXX 06064 07110 02/60 30404 10110 20110 30177 40293 56004 60006 80001 90600 333 10190 20092 60004=
07110,1998-08-06 09:00:00,19,1029.1,0.1,68,13,15000,3.704,,,20,,,,,,,,,,,wg-a,,,,AAXX 06094 07110 12/65 30202 10190 20130 30178 40291 51001 60006 80001 90900=
07110,1998-08-06 12:00:00,22,1028.3,-0.7,50,11,25000,11.112,,,350,,,,,,,,,,,wg-a,,,,AAXX 06124 07110 12/75 23506 10220 20110 30171 40283 58007 60006 80001 91200=
07110,1998-08-06 15:00:00,21,1027.4,-0.9,53,11,25000,14.816,,,30,,,,,,,,,,,wg-a,,,,AAXX 06154 07110 12/75 10308 10210 20110 30162 40274 56009 60006 80001 91500=
07110,1998-08-06 18:00:00,19,1026.6,-0.9,68,13,25000,14.816,,,30,10.9,22.8,,,,,,,,,wg-a,,,,AAXX 06184 07110 12/75 00308 10190 20130 30153 40266 58009 60006 80000 91800 333 10228 20109=
07110,1998-08-06 21:00:00,14,1026.8,-0,94,13,20000,7.408,,,20,,,,,,,,,,,wg-a,,,,AAXX 06214 07110 12/70 00204 10140 20130 30153 40268 55000 60006 80000 92100=
07110,1998-08-07 00:00:00,12,1026.1,-0.7,100,12,500,7.408,,,30,,,,,,,,,,11,wg-a,,,,AAXX 07004 07110 12/00 00304 10120 20120 30146 40261 58007 60006 71100 80000 90000=
07110,1998-08-07 03:00:00,14,1025.2,-0.9,100,14,1500,7.408,,,40,,,,,,,,,,28,wg-a,,,,AAXX 07034 07110 12115 /0404 10140 20140 30137 40252 56009 60006 72841 876// 90300=
07110,1998-08-07 06:00:00,15,1025.1,-0,94,14,2000,11.112,,,30,11.1,18.8,,,,,,,,,wg-a,,,,AAXX 07064 07110 02/20 /0306 10150 20140 30137 40251 55000 60006 90600 333 10188 20111 60004=
07110,1998-08-07 09:00:00,19,1024.3,-0.6,78,15,10000,11.112,,,50,,,,,,,,,,,wg-a,,,,AAXX 07094 07110 12460 /0506 10190 20150 30131 40243 58006 60006 81500 90900=
07110,1998-08-07 12:00:00,24,1023.3,-0.8,57,15,12000,11.112,,,30,,,,,,,,,,,wg-a,,,,AAXX 07124 07110 12/62 00306 10240 20150 30123 40233 58008 60006 80000 91200=
07110,1998-08-07 15:00:00,24,1022.2,-1.1,69,18,12000,11.112,,,10,,,,,,,,,,,wg-a,,,,AAXX 07154 07110 12/62 00106 10240 20180 30112 40222 56011 60006 80000 91500=
07110,1998-08-07 18:00:00,20,1021.6,-0.7,78,16,10000,14.816,,,10,14.7,24.3,,,,,,,,,wg-a,,,,AAXX 07184 07110 12/60 00108 10200 20160 30105 40216 56007 60006 80000 91800 333 10243 20147=
07110,1998-08-07 21:00:00,15,1022.1,0.2,94,14,10000,7.408,,,30,,,,,,,,,,,wg-a,,,,AAXX 07214 07110 12/60 10304 10150 20140 30107 40221 53002 60006 80001 92100=
07110,1998-08-08 00:00:00,14,1021.3,-0.8,100,14,3000,11.112,,,40,,,,,,,,,,10,wg-a,,,,AAXX 08004 07110 12/30 /0406 10140 20140 30099 40213 58008 60006 71000 80001 90000=
07110,1998-08-08 03:00:00,13,1019.9,-1.4,100,13,300,11.112,,,20,,,,,,,,,,45,wg-a,,,,AAXX 08034 07110 32/03 90206 10130 20130 30085 40199 56014 74541 89/// 90300=
07110,1998-08-08 09:00:00,19,1019,-0.2,78,15,12000,11.112,,,30,,,,,,,,,,1,wg-a,,,,AAXX 08094 07110 12762 20306 10190 20150 30078 40190 56002 60006 70141 81501 90900=
07110,1998-08-08 12:00:00,23,1018.3,-0.5,61,15,20000,14.816,,,20,,,,,,,,,,1,wg-a,,,,AAXX 08124 07110 12/70 20208 10230 20150 30073 40183 58005 60006 70141 80001 91200=
07110,1998-08-08 15:00:00,23,1017.3,-1,61,15,15000,14.816,,,20,,,,,,,,,,,wg-a,,,,AAXX 08154 07110 12/65 30208 10230 20150 30063 40173 58010 60006 80001 91500=
07110,1998-08-08 18:00:00,21,1016.9,-0.4,73,16,15000,14.816,,,30,12.7,23.6,,,,,,,,,wg-a,,,,AAXX 08184 07110 12/65 10308 10210 20160 30059 40169 58004 60006 80001 91800 333 10236 20127=
07110,1998-08-08 21:00:00,16,1017.6,0.4,94,15,15000,11.112,,,30,,,,,,,,,,,wg-a,,,,AAXX 08214 07110 12/65 10306 10160 20150 30063 40176 53004 60006 80001 92100=
07110,1998-08-09 00:00:00,14,1017.1,-0.5,100,14,2500,7.408,,,20,,,,,,,,,,10,wg-a,,,,AAXX 09004 07110 12125 /0204 10140 20140 30058 40171 58005 60006 71011 82701 90000=
07110,1998-08-09 03:00:00,14,1016.3,-0.9,94,13,10000,7.408,,,60,,,,,,,,,,,wg-a,,,,AAXX 09034 07110 32/60 00604 10140 20130 30049 40163 58009 80000 90300=
07110,1998-08-09 06:00:00,13,1016.3,-0,100,13,500,3.704,,,60,12.5,21.5,,,,,,,,,wg-a,,,,AAXX 09064 07110 02/00 00602 10130 20130 30049 40163 55000 60006 80000 90600 333 10215 20125 60004=
07110,1998-08-09 09:00:00,24,1016,0.2,61,16,10000,0,,,0,,,,,,,,,,,wg-a,,,,AAXX 09094 07110 12760 10000 10240 20160 30051 40160 51002 60006 81500 90900=
07110,1998-08-09 12:00:00,28,1015.5,-0.4,51,17,20000,3.704,,,20,,,,,,,,,,,wg-a,,,,AAXX 09124 07110 12/70 10202 10280 20170 30047 40155 58004 60006 80001 91200=
07110,1998-08-09 15:00:00,30,1014.5,-0.9,40,15,20000,3.704,,,280,,,,,,,,,,,wg-a,,,,AAXX 09154 07110 12/70 12802 10300 20150 30038 40145 58009 60006 80001 91500=
07110,1998-08-09 18:00:00,27,1014,-0.6,45,14,10000,7.408,,,350,12.8,30.4,,,,,,,,,wg-a,,,,AAXX 09184 07110 12/60 /3504 10270 20140 30032 40140 56006 60006 91800 333 10304 20128=
07110,1998-08-09 21:00:00,19,1014.7,0.4,94,18,15000,3.704,,,40,,,,,,,,,,,wg-a,,,,AAXX 09214 07110 12/65 10402 10190 20180 30036 40147 52004 60006 81031 92100=
07110,1998-08-10 00:00:00,16,1014.6,-0.2,100,16,15000,3.704,,,150,,,,,,,,,,,wg-a,,,,AAXX 10004 07110 12/65 11502 10160 20160 30034 40146 58002 60006 81031 90000=
07110,1998-08-10 03:00:00,15,1014.4,-0.3,100,15,15000,3.704,,,180,,,,,,,,,,,wg-a,,,,AAXX 10034 07110 12/65 01802 10150 20150 30031 40144 58003 60006 80000 90300=
07110,1998-08-10 06:00:00,16,1014.7,0.4,100,16,8000,7.408,,,140,14.7,27.1,,,,,,,,,wg-a,,,,AAXX 10064 07110 02/58 31404 10160 20160 30035 40147 52004 60006 80001 90600 333 10271 20147 60004=
07110,1998-08-10 09:00:00,22,1015.6,1.1,69,16,10000,14.816,,,210,,,,,,,,,,,wg-a,,,,AAXX 10094 07110 12/60 42108 10220 20160 30046 40156 53011 60006 80001 90900=
07110,1998-08-10 12:00:00,24,1015.9,0.4,74,19,15000,14.816,,,200,,,,,,,,,,,wg-a,,,,AAXX 10124 07110 12/65 52008 10240 20190 30050 40159 50004 60006 80001 91200=
07110,1998-08-10 15:00:00,24,1016.5,0.6,74,19,12000,14.816,,,250,,,,,,,,,,,wg-a,,,,AAXX 10154 07110 12/62 32508 10240 20190 30056 40165 51006 60006 80001 91500=
07110,1998-08-10 18:00:00,22,1016.8,0.2,78,18,6000,3.704,,,290,15.9,24.1,,,,,,,,,wg-a,,,,AAXX 10184 07110 12/56 /2902 10220 20180 30058 40168 53002 60006 80002 91800 333 10241 20159=
07110,1998-08-10 21:00:00,16,1018.8,1.7,100,16,2000,7.408,,,320,,,,,,,,,,,wg-a,,,,AAXX 10214 07110 12/20 /3204 10160 20160 30075 40188 51017 60006 92100=
07110,1998-08-11 00:00:00,15,1018.8,0,100,15,400,7.408,,,340,,,,,,,,,,44,wg-a,,,,AAXX 11004 07110 12004 83404 10150 20150 30075 40188 50000 60006 74441 886// 90000=
07110,1998-08-11 03:00:00,15,1018.7,-0.1,100,15,900,3.704,,,350,,,,,,,,,,42,wg-a,,,,AAXX 11034 07110 12109 83502 10150 20150 30074 40187 55001 60006 74244 886// 90300=
07110,1998-08-11 06:00:00,16,1019.2,0.5,100,16,200,7.408,,,340,14.5,21.5,,,,,,,,44,wg-a,,,,AAXX 11064 07110 02/02 93404 10160 20160 30079 40192 53005 60006 74444 89/// 90600 333 10215 20145 60004=
07110,1998-08-11 09:00:00,17,1019.9,0.8,100,17,2500,11.112,,,330,,,,,,,,,,10,wg-a,,,,AAXX 11094 07110 12125 73306 10170 20170 30087 40199 52008 60006 71042 876// 90900=
07110,1998-08-11 12:00:00,23,1019.8,0.1,65,16,20000,11.112,,,360,,,,,,,,,,2,wg-a,,,,AAXX 11124 07110 12/70 23606 10230 20160 30088 40198 51001 60006 70241 80002 91200=
07110,1998-08-11 15:00:00,23,1019.7,-0.1,53,13,20000,14.816,,,330,,,,,,,,,,,wg-a,,,,AAXX 11154 07110 12/70 23308 10230 20130 30087 40197 58001 60006 80001 91500=
07110,1998-08-11 18:00:00,21,1020.2,0.4,64,14,20000,14.816,,,340,15.4,23.7,,,,,,,,,wg-a,,,,AAXX 11184 07110 12/70 23408 10210 20140 30091 40202 51004 60006 80001 91800 333 10237 20154=
07110,1998-08-11 21:00:00,15,1021.2,0.8,100,15,10000,7.408,,,340,,,,,,,,,,,wg-a,,,,AAXX 11214 07110 12/60 43404 10150 20150 30099 40212 53008 60006 81032 92100=
07110,1998-08-12 00:00:00,15,1020.9,-0.4,94,14,10000,3.704,,,330,,,,,,,,,,,wg-a,,,,AAXX 12004 07110 12/60 43302 10150 20140 30095 40209 56004 60006 82032 90000=
07110,1998-08-12 03:00:00,16,1020.6,-0.2,100,16,8000,7.408,,,320,,,,,,,,,,,wg-a,,,,AAXX 12034 07110 12458 73204 10160 20160 30093 40206 57002 60006 875// 90300=
07110,1998-08-12 06:00:00,16,1020.6,-0,100,16,6000,7.408,,,230,13.9,20.7,,,,,,,,12,wg-a,,,,AAXX 12064 07110 02256 /2304 10160 20160 30093 40206 55000 60006 71211 85632 90600 333 10207 20139 60004=
07110,1998-08-12 09:00:00,18,1021.3,0.8,83,15,15000,14.816,,,320,,,,0,,,,,,,wg-a,,,,AAXX 12094 07110 12465 53208 10180 20150 30101 40213 53008 60007 84132 90900=
07110,1998-08-12 12:00:00,20,1021.6,0.3,64,13,20000,14.816,,,340,,,,,,,,,,,wg-a,,,,AAXX 12124 07110 12570 43408 10200 20130 30104 40216 51003 60006 84102 91200=
07110,1998-08-12 18:00:00,18,1022.2,0.4,68,12,20000,14.816,,,330,15.9,20.8,,,,,,,,,wg-a,,,,AAXX 12184 07110 12570 43308 10180 20120 30109 40222 51004 60006 83102 91800 333 10208 20159=
07110,1998-08-12 21:00:00,14,1023.2,0.9,88,12,20000,3.704,,,320,,,,,,,,,,,wg-a,,,,AAXX 12214 07110 12/70 23202 10140 20120 30118 40232 53009 60006 80002 92100=
07110,1998-08-13 00:00:00,12,1023.7,0.4,94,11,20000,7.408,,,330,,,,,,,,,,,wg-a,,,,AAXX 13004 07110 12/70 03304 10120 20110 30122 40237 50004 60006 80000 90000=
07110,1998-08-13 03:00:00,12,1023,-0.7,94,11,12000,3.704,,,330,,,,,,,,,,,wg-a,,,,AAXX 13034 07110 12/62 03302 10120 20110 30115 40230 56007 60006 80000 90300=
07110,1998-08-13 06:00:00,12,1023,-0,100,12,20000,3.704,,,300,10.9,17.9,,,,,,,,,wg-a,,,,AAXX 13064 07110 02/70 23002 10120 20120 30115 40230 55000 60006 80001 90600 333 10179 20109 60004=
07110,1998-08-13 09:00:00,17,1023,0.2,72,12,11000,11.112,,,320,,,,,,,,,,,wg-a,,,,AAXX 13094 07110 12/61 /3206 10170 20120 30117 40230 53002 60006 90900=
07110,1998-08-13 12:00:00,19,1022.7,-0.2,64,12,20000,11.112,,,310,,,,,,,,,,,wg-a,,,,AAXX 13124 07110 12570 33106 10190 20120 30115 40227 57002 60006 82201 91200=
07110,1998-08-13 15:00:00,19,1022,-0.7,64,12,20000,14.816,,,300,,,,,,,,,,,wg-a,,,,AAXX 13154 07110 12670 33008 10190 20120 30108 40220 56007 60006 81101 91500=
07110,1998-08-13 18:00:00,18,1020.7,-1.3,68,12,20000,11.112,,,330,12.1,19.7,,,,,,,,,wg-a,,,,AAXX 13184 07110 12/70 43306 10180 20120 30095 40207 57013 60006 80001 91800 333 10197 20121=
07110,1998-08-13 21:00:00,14,1020.8,-0.1,88,12,15000,0,,,0,,,,,,,,,,,wg-a,,,,AAXX 13214 07110 12/65 40000 10140 20120 30094 40208 55001 60006 80001 92100=
07110,1998-08-14 00:00:00,11,1020.5,-0.4,100,11,15000,3.704,,,230,,,,,,,,,,,wg-a,,,,AAXX 14004 07110 12/65 22302 10110 20110 30090 40205 58004 60006 80001 90000=
07110,1998-08-14 03:00:00,11,1018.9,-1.6,94,10,15000,3.704,,,150,,,,,,,,,,,wg-a,,,,AAXX 14034 07110 12/65 01502 10110 20100 30074 40189 58016 60006 80000 90300=
07110,1998-08-14 06:00:00,11,1017.8,-1.1,100,11,8000,3.704,,,130,10.1,17.7,,,,,,,,,wg-a,,,,AAXX 14064 07110 02/58 21302 10110 20110 30063 40178 56011 60006 80001 90600 333 10177 20101 60004=
07110,1998-08-14 09:00:00,18,1017.5,-0,77,14,10000,7.408,,,190,,,,,,,,,,,wg-a,,,,AAXX 14094 07110 12460 31904 10180 20140 30063 40175 55000 60006 83201 90900=
07110,1998-08-14 12:00:00,20,1016.4,-1,60,12,15000,14.816,,,190,,,,,,,,,,,wg-a,,,,AAXX 14124 07110 12565 31908 10200 20120 30053 40164 58010 60006 81101 91200=
07110,1998-08-14 15:00:00,22,1015.1,-1.2,38,7,15000,14.816,,,200,,,,,,,,,,,wg-a,,,,AAXX 14154 07110 12/65 22008 10220 20070 30041 40151 57012 60006 80001 91500=
07110,1998-08-15 03:00:00,13,1015.2,-0.2,100,13,10000,7.408,,,220,,,,,,,,,,,wg-a,,,,AAXX 15034 07110 12560 /2204 10130 20130 30038 40152 58002 60006 82532 90300=
07110,1998-08-15 06:00:00,16,1016.1,1,100,16,500,11.112,,,330,11.6,19.8,,,,,,,,50,wg-a,,,,AAXX 15064 07110 02100 73306 10160 20160 30048 40161 53010 61000 75051 877// 90600 333 10198 20116 6000=
07110,1998-08-15 09:00:00,18,1017.8,1.8,83,15,20000,18.52,,,10,,,,,,,,,,1,wg-a,,,,AAXX 15094 07110 02470 60110 10180 20150 30066 40178 52018 61000 70152 86800 90900 333 ////=
07110,1998-08-15 12:00:00,19,1019.3,1.5,73,14,20000,18.52,,,20,,,,,,,,,,1,wg-a,,,,AAXX 15124 07110 02570 50210 10190 20140 30081 40193 51015 61000 70152 85800 91200 333 ////=
07110,1998-08-15 15:00:00,19,1020.5,1.2,60,11,11000,14.816,,,30,,,,,,,,,,,wg-a,,,,AAXX 15154 07110 12/61 /0308 10190 20110 30093 40205 51012 60006 91500=
07110,1998-08-15 18:00:00,17,1021.2,0.6,68,11,25000,18.52,,,350,15.7,19.9,,,,,,,,,wg-a,,,,AAXX 15184 07110 12575 23510 10170 20110 30099 40212 53006 60006 81101 91800 333 10199 20157=
07110,1998-08-16 15:00:00,19,1023.7,-0.7,64,12,20000,14.816,,,20,,,,,,,,,,,wg-a,,,,AAXX 16154 07110 12570 30208 10190 20120 30125 40237 58007 60006 81501 91500=
07110,1998-08-16 21:00:00,14,1023.4,0.2,88,12,20000,3.704,,,300,,,,,,,,,,,wg-a,,,,AAXX 16214 07110 12/70 33002 10140 20120 30120 40234 53002 60006 82031 92100=
07110,1998-08-17 00:00:00,12,1022.7,-0.8,94,11,20000,7.408,,,290,,,,,,,,,,,wg-a,,,,AAXX 17004 07110 12/70 32904 10120 20110 30112 40227 58008 60006 82031 90000=
07110,1998-08-17 03:00:00,11,1021.3,-1.4,100,11,15000,3.704,,,230,,,,,,,,,,,wg-a,,,,AAXX 17034 07110 12/65 52302 10110 20110 30098 40213 56014 60006 84031 90300=
07110,1998-08-17 06:00:00,13,1021.2,-0,100,13,15000,7.408,,,190,10.4,16.9,,,,,,,,,wg-a,,,,AAXX 17064 07110 02565 71904 10130 20130 30098 40212 55000 60006 84531 90600 333 10169 20104 60004=
07110,1998-08-17 09:00:00,18,1021.3,0.3,77,14,15000,14.816,,,230,,,,,,,,,,,wg-a,,,,AAXX 17094 07110 12565 72308 10180 20140 30101 40213 50003 60006 84831 90900=
07110,1998-08-17 12:00:00,19,1021.1,-0.2,73,14,15000,11.112,,,260,,,,,,,,,,,wg-a,,,,AAXX 17124 07110 12565 62606 10190 20140 30099 40211 58002 60006 84801 91200=
07110,1998-08-17 15:00:00,20,1020.3,-0.7,68,14,15000,14.816,,,260,,,,,,,,,,,wg-a,,,,AAXX 17154 07110 12565 /2608 10200 20140 30092 40203 58007 60006 83101 91500=
07110,1998-08-17 18:00:00,18,1019.9,-0.5,83,15,15000,14.816,,,250,13.1,21,,,,,,,,,wg-a,,,,AAXX 17184 07110 12565 /2508 10180 20150 30087 40199 56005 60006 86500 91800 333 10210 20131=
07110,1998-08-17 21:00:00,16,1020.2,0.2,100,16,9000,7.408,,,230,,,,,,,,,,20,wg-a,,,,AAXX 17214 07110 02259 82304 10160 20160 30089 40202 53002 61000 72052 887// 92100 333 ////=
07110,1998-08-18 00:00:00,16,1020.2,-0,100,16,2000,11.112,,,310,,,,0,,,,,,10,wg-a,,,,AAXX 18004 07110 02120 83106 10160 20160 30089 40202 54000 60016 71052 887// 90000 333 60007=
07110,1998-08-18 03:00:00,15,1020.2,0,100,15,8000,7.408,,,340,,,,0,,,,,,10,wg-a,,,,AAXX 18034 07110 12458 83404 10150 20150 30089 40202 50000 60007 71052 885// 90300=
07110,1998-08-18 06:00:00,14,1020.5,0.2,100,14,7000,3.704,,,340,14.1,18.1,,,,,1,,,3,wg-a,,,,AAXX 18064 07110 02457 /3402 10140 20140 30091 40205 53002 60006 70352 86501 90600 333 10181 20141 60014=
07110,1998-08-18 12:00:00,19,1021.2,-0.2,73,14,15000,14.816,,,20,,,,,,,,,,2,wg-a,,,,AAXX 18124 07110 02465 60208 10190 20140 30100 40212 58002 61000 70252 84201 91200 333 ////=
07110,1998-08-18 15:00:00,20,1021.1,-0.1,64,13,15000,14.816,,,30,,,,,,,,,,,wg-a,,,,AAXX 18154 07110 12665 40308 10200 20130 30099 40211 58001 60006 84201 91500=
07110,1998-08-18 18:00:00,18,1021.3,0.2,73,13,15000,11.112,,,20,13.9,20.9,,,,,,,,,wg-a,,,,AAXX 18184 07110 12665 30206 10180 20130 30101 40213 51002 60006 82501 91800 333 10209 20139=
07110,1998-08-18 21:00:00,14,1022.5,1,100,14,8000,3.704,,,30,,,,,,,,,,,wg-a,,,,AAXX 18214 07110 32658 /0302 10140 20140 30111 40225 53010 81500 92100=
07110,1998-08-19 00:00:00,12,1022.8,0.2,100,12,200,3.704,,,20,,,,,,,,,,44,wg-a,,,,AAXX 19004 07110 12/02 00202 10120 20120 30113 40228 52002 60006 74440 80000 90000=
07110,1998-08-19 03:00:00,11,1022.6,-0.2,100,11,300,3.704,,,20,,,,,,,,,,42,wg-a,,,,AAXX 19034 07110 12/03 00202 10110 20110 30111 40226 58002 60006 74244 80000 90300=
07110,1998-08-19 06:00:00,11,1022.6,-0,100,11,200,3.704,,,350,10.6,18.1,,,,,,,,42,wg-a,,,,AAXX 19064 07110 12/02 03502 10110 20110 30111 40226 55000 60006 74244 80000 90600 333 10181 20106=
07110,1998-08-19 09:00:00,18,1022.8,0.5,77,14,15000,7.408,,,20,,,,,,,,,,3,wg-a,,,,AAXX 19094 07110 12465 20204 10180 20140 30116 40228 51005 60006 70340 82200 90900=
07110,1998-08-19 12:00:00,19,1022.6,-0.2,73,14,20000,11.112,,,10,,,,,,,,,,2,wg-a,,,,AAXX 19124 07110 12570 40106 10190 20140 30114 40226 58002 60006 70240 84200 91200=
07110,1998-08-19 15:00:00,20,1022,-0.6,64,13,20000,14.816,,,340,,,,,,,,,,,wg-a,,,,AAXX 19154 07110 12570 /3408 10200 20130 30108 40220 56006 60006 81100 91500=
07110,1998-08-19 18:00:00,17,1022.1,-0,77,13,20000,14.816,,,320,10.8,20.6,,,,,,,,,wg-a,,,,AAXX 19184 07110 12/70 13208 10170 20130 30108 40221 55000 60006 80001 91800 333 10206 20108=
07110,1998-08-19 21:00:00,13,1022.8,0.6,94,12,12000,3.704,,,330,,,,,,,,,,,wg-a,,,,AAXX 19214 07110 12/62 03302 10130 20120 30114 40228 53006 60006 80000 92100=
07110,1998-08-20 00:00:00,11,1022.6,-0.4,94,10,8000,7.408,,,280,,,,,,,,,,,wg-a,,,,AAXX 20004 07110 12/58 02804 10110 20100 30110 40226 58004 60006 80000 90000=
07110,1998-08-20 03:00:00,12,1021.8,-0.7,100,12,10000,3.704,,,240,,,,0,,,,,,,wg-a,,,,AAXX 20034 07110 12560 42402 10120 20120 30103 40218 56007 60007 84505 90300=
07110,1998-08-20 06:00:00,13,1021.4,-0.3,100,13,10000,3.704,,,260,10.1,17.1,,,,,,,,,wg-a,,,,AAXX 20064 07110 02460 72602 10130 20130 30100 40214 55003 60006 875// 90600 333 10171 20101 60004=
07110,1998-08-20 09:00:00,17,1022.1,0.8,77,13,15000,11.112,,,300,,,,0,,,,,,1,wg-a,,,,AAXX 20094 07110 12465 /3006 10170 20130 30108 40221 53008 60007 70152 86800 90900=
07110,1998-08-20 12:00:00,19,1021.8,-0.2,64,12,25000,14.816,,,280,,,,,,,,,,3,wg-a,,,,AAXX 20124 07110 12575 /2808 10190 20120 30106 40218 58002 60006 70352 85801 91200=
07110,1998-08-20 15:00:00,19,1021.1,-0.7,68,13,25000,18.52,,,280,,,,,,,,,,,wg-a,,,,AAXX 20154 07110 12575 62810 10190 20130 30099 40211 58007 60006 84502 91500=
07110,1998-08-20 18:00:00,17,1020.7,-0.5,82,14,20000,18.52,,,260,13.2,20.1,,,,,,,,,wg-a,,,,AAXX 20184 07110 12570 72610 10170 20140 30094 40207 56005 60006 81256 91800 333 10201 20132=
07110,1998-08-20 21:00:00,16,1019.2,-1.5,88,14,20000,18.52,,,230,,,,,,,,,,,wg-a,,,,AAXX 20214 07110 12770 72310 10160 20140 30079 40192 57015 60006 82556 92100=
07110,1998-08-21 00:00:00,17,1016.9,-2.2,82,14,12000,22.224,,,230,,,,,,,,,,,wg-a,,,,AAXX 21004 07110 12462 82312 10170 20140 30057 40169 58022 60006 875// 90000=
07110,1998-08-21 03:00:00,17,1014.6,-2.3,100,17,1200,25.928,,46.3,250,,,,1,,,,,,10,wg-a,,,,AAXX 21034 07110 12112 82514 10170 20170 30034 40146 56023 60017 71065 887// 90300 333 91025=
07110,1998-08-21 06:00:00,17,1013.7,-0.9,100,17,1200,29.632,,48.152,260,15.6,17.4,,,,,,,,51,wg-a,,,,AAXX 21064 07110 02112 82616 10170 20170 30025 40137 55009 61000 75165 887// 90600 333 10174 20156 6003 91026=
07110,1998-08-21 09:00:00,18,1014.3,0.7,94,17,4000,29.632,,46.3,280,,,,2,,,,,,21,wg-a,,,,AAXX 21094 07110 12240 82816 10180 20170 30032 40143 53007 60027 72165 887// 90900 333 91025=
07110,1998-08-21 12:00:00,18,1015.2,0.9,94,17,6000,22.224,,,280,,,,,,,,,,50,wg-a,,,,AAXX 21124 07110 02356 72812 10180 20170 30041 40152 52009 60026 75065 877// 91200 333 61000=
07110,1998-08-21 15:00:00,19,1015.4,0.2,83,16,10000,25.928,,,290,,,,,,,,,,1,wg-a,,,,AAXX 21154 07110 02460 72914 10190 20160 30043 40154 50002 61000 70152 878// 91500 333 ////=
07110,1998-08-21 18:00:00,18,1015.6,0.1,88,16,10000,14.816,,,300,17.3,19.7,,,,,,,,3,wg-a,,,,AAXX 21184 07110 12460 83008 10180 20160 30044 40156 50001 60006 70352 882// 91800 333 10197 20173=
07110,1998-08-21 21:00:00,17,1016.9,1.3,94,16,8000,11.112,,,280,,,,,,,,,,20,wg-a,,,,AAXX 21214 07110 02258 72806 10170 20160 30057 40169 53013 61000 72052 877// 92100 333 ////=
07110,1998-08-22 03:00:00,16,1016.4,-0.6,100,16,8000,11.112,,,260,,,,,,,,,,2,wg-a,,,,AAXX 22034 07110 02258 82606 10160 20160 30052 40164 56006 61000 70252 885// 90300 333 ////=
07110,1998-08-22 09:00:00,18,1015.3,-0,100,18,1000,25.928,,,270,,,,3,,,,,,10,wg-a,,,,AAXX 22094 07110 12110 82714 10180 20180 30041 40153 55000 60037 71065 887// 90900=
07110,1998-08-22 12:00:00,18,1015.5,0.3,100,18,1000,25.928,,,270,,,,0,,,,,,10,wg-a,,,,AAXX 22124 07110 02210 82714 10180 20180 30044 40155 53003 60036 71065 877// 91200 333 60007=
07110,1998-08-22 15:00:00,18,1015.5,-0,100,18,1000,22.224,,,290,,,,1,,,,,,10,wg-a,,,,AAXX 22154 07110 12210 82912 10180 20180 30044 40155 55000 60017 71052 877// 91500=
07110,1998-08-22 18:00:00,17,1016.6,1,100,17,4000,14.816,,,320,16.8,18.9,,,,,,,,10,wg-a,,,,AAXX 22184 07110 02240 83208 10170 20170 30054 40166 53010 61000 71052 877// 91800 333 10189 20168 6000=
07110,1998-08-22 21:00:00,16,1018.7,2,94,15,8000,7.408,,,310,,,,,,,,,,,wg-a,,,,AAXX 22214 07110 12158 83104 10160 20150 30074 40187 51020 60006 877// 92100=
07110,1998-08-23 00:00:00,14,1020,1.2,100,14,900,3.704,,,310,,,,,,,,,,44,wg-a,,,,AAXX 23004 07110 12/09 03102 10140 20140 30086 40200 53012 60006 74441 80000 90000=
07110,1998-08-23 03:00:00,11,1019.9,-0.2,100,11,400,0,,,0,,,,,,,,,,44,wg-a,,,,AAXX 23034 07110 32/04 00000 10110 20110 30084 40199 58002 74444 80000 90300=
07110,1998-08-23 06:00:00,13,1020,0.2,100,13,3000,3.704,,,200,10.7,16.8,,,,,4,,,28,wg-a,,,,AAXX 23064 07110 02430 72002 10130 20130 30086 40200 53002 60006 72841 81502 90600 333 10168 20107 60044=
07110,1998-08-23 09:00:00,17,1020,0.1,100,17,10000,11.112,,,230,,,,,,,,,,,wg-a,,,,AAXX 23094 07110 12460 72306 10170 20170 30087 40200 52001 60006 878// 90900=
07110,1998-08-23 12:00:00,20,1019,-0.8,88,18,6000,18.52,,,230,,,,,,,,,,,wg-a,,,,AAXX 23124 07110 12/56 /2310 10200 20180 30079 40190 58008 60006 91200=
07110,1998-08-23 15:00:00,20,1018.2,-0.8,88,18,8000,18.52,,,250,,,,,,,,,,3,wg-a,,,,AAXX 23154 07110 02458 72510 10200 20180 30071 40182 58008 61000 70365 878// 91500 333 ////=
07110,1998-08-23 18:00:00,19,1016.1,-2.1,88,17,8000,22.224,,46.3,230,13.1,20.4,,,,,,,,3,wg-a,,,,AAXX 23184 07110 12358 82312 10190 20170 30050 40161 58021 60006 70365 875// 91800 333 10204 20131 91025=
07110,1998-08-23 21:00:00,18,1015.8,-0.4,100,18,500,22.224,,,260,,,,0,,,,,,60,wg-a,,,,AAXX 23214 07110 12100 82612 10180 20180 30046 40158 57004 60007 76062 877// 92100=
07110,1998-08-24 00:00:00,16,1016,0.2,100,16,8000,22.224,,,290,,,,1,,,,,,21,wg-a,,,,AAXX 24004 07110 02258 82912 10160 20160 30048 40160 53002 60016 72162 875// 90000 333 60017=
07110,1998-08-24 03:00:00,16,1016.4,0.3,94,15,15000,14.816,,,290,,,,,,,,,,,wg-a,,,,AAXX 24034 07110 12565 42908 10160 20150 30051 40164 53003 60006 84500 90300=
07110,1998-08-24 06:00:00,15,1017.6,1.2,94,14,10000,7.408,,,260,14.5,18.5,,,,,1,,,,wg-a,,,,AAXX 24064 07110 02560 62604 10150 20140 30063 40176 53012 60006 84530 90600 333 10185 20145 60014=
07110,1998-08-24 09:00:00,17,1019,1.5,88,15,15000,18.52,,,310,,,,0,,,,,,1,wg-a,,,,AAXX 24094 07110 12465 53110 10170 20150 30078 40190 52015 60007 70165 8353/ 90900=
07110,1998-08-24 12:00:00,19,1019.9,0.9,68,13,20000,18.52,,,340,,,,,,,,,,3,wg-a,,,,AAXX 24124 07110 12570 43410 10190 20130 30087 40199 53009 60006 70365 84200 91200=
07110,1998-08-24 15:00:00,18,1020.8,0.9,73,13,25000,14.816,,,320,,,,,,,,,,,wg-a,,,,AAXX 24154 07110 12575 43208 10180 20130 30096 40208 51009 60006 84200 91500=
07110,1998-08-24 18:00:00,16,1021.6,0.7,82,13,15000,11.112,,,320,14.4,19.5,,,,,,,,,wg-a,,,,AAXX 24184 07110 12565 33206 10160 20130 30103 40216 53007 60006 83200 91800 333 10195 20144=
07110,1998-08-24 21:00:00,13,1022.7,1,100,13,15000,3.704,,,310,,,,,,,,,,,wg-a,,,,AAXX 24214 07110 12/65 33102 10130 20130 30113 40227 53010 60006 81031 92100=
07110,1998-08-25 00:00:00,12,1023.2,0.4,100,12,10000,7.408,,,300,,,,0,,,,,,,wg-a,,,,AAXX 25004 07110 02/60 23004 10120 20120 30117 40232 53004 60006 80001 90000 333 60007=
07110,1998-08-25 03:00:00,10,1022.9,-0.4,100,10,6000,3.704,,,290,,,,,,,,,,,wg-a,,,,AAXX 25034 07110 12/56 22902 10100 20100 30113 40229 58004 60006 80001 90300=
07110,1998-08-25 06:00:00,9,1022.9,-0,100,9,800,3.704,,,250,8.6,16.3,,,,,,,,44,wg-a,,,,AAXX 25064 07110 02108 42502 10090 20090 30113 40229 55000 60006 74440 84501 90600 333 10163 20086 60004=
07110,1998-08-25 09:00:00,15,1023,0.3,82,12,1200,7.408,,,260,,,,0,,,,,,1,wg-a,,,,AAXX 25094 07110 12412 /2604 10150 20120 30116 40230 50003 60007 70141 86201 90900=
07110,1998-08-25 12:00:00,20,1022.5,-0.3,64,13,15000,11.112,,,260,,,,,,,,,,3,wg-a,,,,AAXX 25124 07110 12565 52606 10200 20130 30113 40225 58003 60006 70341 85800 91200=
07110,1998-08-25 15:00:00,19,1021.7,-0.8,78,15,15000,14.816,,,240,,,,,,,,,,,wg-a,,,,AAXX 25154 07110 12565 82408 10190 20150 30105 40217 58008 60006 888// 91500=
07110,1998-08-25 18:00:00,18,1020.8,-0.9,83,15,25000,11.112,,,220,8.7,20.1,,,,,,,,,wg-a,,,,AAXX 25184 07110 12475 /2206 10180 20150 30096 40208 57009 60006 86800 91800 333 10201 20087=
07110,1998-08-25 21:00:00,16,1020.8,-0.1,94,15,15000,14.816,,,220,,,,,,,,,,,wg-a,,,,AAXX 25214 07110 12465 72208 10160 20150 30095 40208 55001 60006 878// 92100=
07110,1998-08-26 00:00:00,16,1020.1,-0.7,100,16,4000,11.112,,,290,,,,0,,,,,,60,wg-a,,,,AAXX 26004 07110 02140 72906 10160 20160 30088 40201 55007 60016 76062 877// 90000 333 60007=
07110,1998-08-26 06:00:00,14,1019.3,-0,100,14,10000,7.408,,,310,14.2,18,,,,,1,,,2,wg-a,,,,AAXX 26064 07110 02260 83104 10140 20140 30079 40193 55000 60006 70261 878// 90600 333 10180 20142 60014=
07110,1998-08-26 12:00:00,18,1019.8,0.3,68,12,25000,11.112,,,340,,,,,,,,,,,wg-a,,,,AAXX 26124 07110 12575 73406 10180 20120 30086 40198 50003 60006 878// 91200=
07110,1998-08-26 15:00:00,18,1019.6,-0.2,73,13,25000,14.816,,,360,,,,,,,,,,,wg-a,,,,AAXX 26154 07110 12575 73608 10180 20130 30084 40196 56002 60006 878// 91500=
07110,1998-08-26 18:00:00,17,1019.2,-0.4,82,14,20000,14.816,,,10,14.1,19,,,,,,,,,wg-a,,,,AAXX 26184 07110 12470 40108 10170 20140 30080 40192 56004 60006 84800 91800 333 10190 20141=
07110,1998-08-26 21:00:00,14,1020.9,1.5,100,14,15000,3.704,,,320,,,,,,,,,,,wg-a,,,,AAXX 26214 07110 12665 23202 10140 20140 30095 40209 53015 60006 82500 92100=
07110,1998-08-27 00:00:00,14,1021.5,0.6,100,14,2000,3.704,,,10,,,,,,,,,,10,wg-a,,,,AAXX 27004 07110 12220 /0102 10140 20140 30101 40215 53006 60006 71011 84500 90000=
07110,1998-08-27 03:00:00,14,1021.8,0.3,94,13,2000,3.704,,,20,,,,0,,,,,,10,wg-a,,,,AAXX 27034 07110 12420 20202 10140 20130 30104 40218 53003 60007 71011 82500 90300=
07110,1998-08-27 06:00:00,13,1022.5,0.7,100,13,3000,11.112,,,20,13,17.3,,,,,,,,10,wg-a,,,,AAXX 27064 07110 02330 30206 10130 20130 30111 40225 53007 60006 71011 83100 90600 333 10173 20130 60004=
07110,1998-08-27 09:00:00,17,1023.3,0.9,77,13,10000,18.52,,,50,,,,,,,,,,,wg-a,,,,AAXX 27094 07110 12460 /0510 10170 20130 30120 40233 52009 60006 85200 90900=
07110,1998-08-27 12:00:00,19,1023.7,0.5,60,11,15000,14.816,,,40,,,,,,,,,,,wg-a,,,,AAXX 27124 07110 12665 20408 10190 20110 30125 40237 51005 60006 81201 91200=
07110,1998-08-27 15:00:00,19,1024,0.2,52,9,15000,18.52,,,40,,,,,,,,,,,wg-a,,,,AAXX 27154 07110 12/65 20410 10190 20090 30127 40240 51002 60006 80001 91500=
07110,1998-08-27 18:00:00,16,1024.3,0.2,63,9,15000,14.816,,,40,13.2,19.6,,,,,,,,,wg-a,,,,AAXX 27184 07110 12/65 10408 10160 20090 30129 40243 52002 60006 80001 91800 333 10196 20132=
07110,1998-08-27 21:00:00,11,1025.9,1.4,87,9,10000,7.408,,,30,,,,,,,,,,,wg-a,,,,AAXX 27214 07110 12/60 10304 10110 20090 30143 40259 51014 60006 80001 92100=
07110,1998-08-28 00:00:00,9,1026.1,0.1,93,8,10000,7.408,,,20,,,,,,,,,,,wg-a,,,,AAXX 28004 07110 12/60 00204 10090 20080 30144 40261 53001 60006 80000 90000=
07110,1998-08-28 03:00:00,9,1025.9,-0.2,93,8,10000,3.704,,,20,,,,,,,,,,,wg-a,,,,AAXX 28034 07110 12/60 00202 10090 20080 30142 40259 55002 60006 80000 90300=
07110,1998-08-28 06:00:00,9,1026,0.1,93,8,6000,7.408,,,50,8.4,15.8,,,,,,,,,wg-a,,,,AAXX 28064 07110 02/56 30504 10090 20080 30143 40260 53001 60006 80001 90600 333 10158 20084 60004=
07110,1998-08-28 09:00:00,17,1026.2,0.6,68,11,20000,3.704,,,20,,,,,,,,,,,wg-a,,,,AAXX 28094 07110 12470 30202 10170 20110 30149 40262 51006 60006 81101 90900=
07110,1998-08-28 12:00:00,18,1025.8,-0.4,64,11,20000,7.408,,,220,,,,,,,,,,,wg-a,,,,AAXX 28124 07110 12670 52204 10180 20110 30145 40258 58004 60006 83101 91200=
07110,1998-08-28 15:00:00,19,1025.2,-0.6,52,9,11000,14.816,,,350,,,,,,,,,,,wg-a,,,,AAXX 28154 07110 12/61 /3508 10190 20090 30139 40252 57006 60006 91500=
07110,1998-08-28 18:00:00,16,1024.9,-0.4,68,10,12000,11.112,,,350,8.5,20,,,,,,,,,wg-a,,,,AAXX 28184 07110 12/62 43506 10160 20100 30135 40249 56004 60006 80001 91800 333 10200 20085=
07110,1998-08-28 21:00:00,12,1025.2,0.2,94,11,8000,7.408,,,10,,,,,,,,,,,wg-a,,,,AAXX 28214 07110 12/58 40104 10120 20110 30137 40252 53002 60006 80001 92100=
07110,1998-08-29 00:00:00,11,1024.5,-0.8,100,11,200,3.704,,,350,,,,,,,,,,44,wg-a,,,,AAXX 29004 07110 12/02 03502 10110 20110 30129 40245 56008 60006 74440 80000 90000=
07110,1998-08-29 03:00:00,8,1023.7,-0.9,100,8,500,7.408,,,60,,,,,,,,,,12,wg-a,,,,AAXX 29034 07110 12/00 00604 10080 20080 30120 40237 56009 60006 71240 80000 90300=
07110,1998-08-29 06:00:00,8,1023.2,-0.5,100,8,6000,3.704,,,90,7.5,16.1,,,,,,,,11,wg-a,,,,AAXX 29064 07110 02/56 /0902 10080 20080 30115 40232 56005 60006 71140 80001 90600 333 10161 20075 60004=
07110,1998-08-29 09:00:00,16,1022.9,0.1,77,12,15000,14.816,,,90,,,,,,,,,,,wg-a,,,,AAXX 29094 07110 12565 /0908 10160 20120 30116 40229 50001 60006 81101 90900=
07110,1998-08-29 12:00:00,20,1021.9,-0.9,49,9,20000,11.112,,,120,,,,,,,,,,,wg-a,,,,AAXX 29124 07110 12570 /1206 10200 20090 30107 40219 58009 60006 81101 91200=
07110,1998-08-29 15:00:00,21,1020.2,-1.6,49,10,25000,7.408,,,190,,,,,,,,,,,wg-a,,,,AAXX 29154 07110 12575 /1904 10210 20100 30091 40202 58016 60006 81101 91500=
07110,1998-08-29 18:00:00,18,1020,-0.3,68,12,20000,7.408,,,250,7.8,22.3,,,,,,,,,wg-a,,,,AAXX 29184 07110 12/70 22504 10180 20120 30088 40200 56003 60006 80001 91800 333 10223 20078=
07110,1998-08-29 21:00:00,12,1020.3,-0,88,10,20000,3.704,,,270,,,,,,,,,,,wg-a,,,,AAXX 29214 07110 12/70 62702 10120 20100 30088 40203 54000 60006 80006 92100=
07110,1998-08-30 00:00:00,13,1020.1,-0.2,82,10,15000,7.408,,,110,,,,,,,,,,,wg-a,,,,AAXX 30004 07110 12/65 31104 10130 20100 30086 40201 58002 60006 80001 90000=
07110,1998-08-30 03:00:00,13,1019.1,-0.9,82,10,15000,14.816,,,120,,,,,,,,,,,wg-a,,,,AAXX 30034 07110 12/65 31208 10130 20100 30077 40191 57009 60006 80001 90300=
07110,1998-08-30 06:00:00,14,1018.6,-0.5,72,9,15000,11.112,,,140,11.3,18.4,,,,,,,,,wg-a,,,,AAXX 30064 07110 02/65 51406 10140 20090 30072 40186 56005 60006 82032 90600 333 10184 20113 60004=
07110,1998-08-30 09:00:00,17,1018.7,0.3,63,10,15000,18.52,,,130,,,,,,,,,,,wg-a,,,,AAXX 30094 07110 12/65 61310 10170 20100 30075 40187 51003 60006 83032 90900=
07110,1998-08-30 12:00:00,21,1017.9,-0.7,49,10,15000,18.52,,,150,,,,,,,,,,,wg-a,,,,AAXX 30124 07110 12/65 21510 10210 20100 30068 40179 58007 60006 81031 91200=
07110,1998-08-30 15:00:00,23,1016,-1.8,50,12,15000,11.112,,,130,,,,,,,,,,,wg-a,,,,AAXX 30154 07110 12/65 11306 10230 20120 30050 40160 56018 60006 80001 91500=
07110,1998-08-30 18:00:00,20,1015.1,-1,60,12,15000,11.112,,,200,13.6,23,,,,,,,,,wg-a,,,,AAXX 30184 07110 12/65 62006 10200 20120 30040 40151 56010 60006 85031 91800 333 10230 20136=
07110,1998-08-30 21:00:00,16,1015,-0.2,88,14,15000,7.408,,,50,,,,,,,,,,,wg-a,,,,AAXX 30214 07110 12/65 70504 10160 20140 30038 40150 56002 60006 8705/ 92100=
07110,1998-08-31 00:00:00,16,1013.3,-1.7,77,12,20000,7.408,,,110,,,,,,,,,,,wg-a,,,,AAXX 31004 07110 12/70 51104 10160 20120 30021 40133 58017 60006 85030 90000=
07110,1998-08-31 03:00:00,17,1011.4,-1.9,55,8,20000,18.52,,,140,,,,,,,,,,,wg-a,,,,AAXX 31034 07110 12/70 51410 10170 20080 30002 40114 56019 60006 85030 90300=
07110,1998-08-31 06:00:00,17,1010.4,-1,55,8,20000,18.52,,,150,15.6,19.6,,,,,,,,,wg-a,,,,AAXX 31064 07110 02770 71510 10170 20080 39992 40104 56010 60006 8453/ 90600 333 10196 20156 60004=
07110,1998-08-31 09:00:00,18,1010.1,-0.2,59,10,20000,18.52,,,140,,,,,,,,,,,wg-a,,,,AAXX 31094 07110 12770 71410 10180 20100 39990 40101 58002 60006 8253/ 90900=
07110,1998-08-31 12:00:00,23,1008.6,-1.3,53,13,20000,22.224,,,160,,,,,,,,,,,wg-a,,,,AAXX 31124 07110 12770 61612 10230 20130 39977 40086 57013 60006 81532 91200=
07110,1998-08-31 15:00:00,22,1008.2,-0.4,57,13,20000,18.52,,,180,,,,,,,,,,,wg-a,,,,AAXX 31154 07110 12770 71810 10220 20130 39973 40082 56004 60006 8253/ 91500=
07110,1998-08-31 18:00:00,19,1008.7,0.4,78,15,20000,18.52,,,170,16.7,24.7,,,,,,,,,wg-a,,,,AAXX 31184 07110 12770 71710 10190 20150 39977 40087 51004 60006 8253/ 91800 333 10247 20167=
07110,1998-08-31 21:00:00,17,1009.7,0.9,94,16,10000,11.112,,,200,,,,0,,,,,,25,wg-a,,,,AAXX 31214 07110 12660 72006 10170 20160 39986 40097 53009 60007 72586 8327/ 92100=
07110,1998-09-01 00:00:00,17,1009,-0.7,100,17,1500,7.408,,,200,,,,,,,,,,10,wg-a,,,,AAXX 01004 07110 12115 82004 10170 20170 39979 40090 58007 60016 71086 886// 90000=
07110,1998-09-01 03:00:00,17,1008.8,-0.2,100,17,500,7.408,,,230,,,,,,,,,,44,wg-a,,,,AAXX 01034 07110 12105 82304 10170 20170 39977 40088 56002 60006 74442 886// 90300=
07110,1998-09-01 06:00:00,17,1009.8,1,100,17,400,7.408,,,230,16.5,19.2,,,,,,,,44,wg-a,,,,AAXX 01064 07110 02104 72304 10170 20170 39987 40098 53010 60006 74442 877// 90600 333 10192 20165 60004=
07110,1998-09-01 09:00:00,19,1011,1.2,94,18,8000,7.408,,,220,,,,,,,,,,1,wg-a,,,,AAXX 01094 07110 12358 72204 10190 20180 39999 40110 51012 60006 70142 84131 90900=
07110,1998-09-01 12:00:00,22,1011.5,0.6,73,17,18000,11.112,,,210,,,,,,,,,,1,wg-a,,,,AAXX 01124 07110 12568 62106 10220 20170 30005 40115 51006 60006 70142 83131 91200=
07110,1998-09-01 15:00:00,22,1012.1,0.6,65,15,20000,7.408,,,220,,,,,,,,,,,wg-a,,,,AAXX 01154 07110 12570 /2204 10220 20150 30011 40121 50006 60006 82831 91500=
07110,1998-09-01 18:00:00,19,1013.2,1,83,16,15000,3.704,,,240,16.4,22.8,,,,,,,,,wg-a,,,,AAXX 01184 07110 12/65 72402 10190 20160 30021 40132 53010 60006 85092 91800 333 10228 20164=
07110,1998-09-01 21:00:00,16,1013.9,0.6,100,16,2000,3.704,,,80,,,,,,,,,,10,wg-a,,,,AAXX 01214 07110 12120 70802 10160 20160 30027 40139 53006 60006 71022 8779/ 92100=
07110,1998-09-02 00:00:00,16,1013.7,-0.2,94,15,6000,3.704,,,50,,,,,,,,,,,wg-a,,,,AAXX 02004 07110 12/56 70502 10160 20150 30025 40137 58002 60006 8709/ 90000=
07110,1998-09-02 03:00:00,16,1013.2,-0.5,100,16,500,3.704,,,30,,,,1,,,,,,61,wg-a,,,,AAXX 02034 07110 12600 80302 10160 20160 30020 40132 58005 60017 76162 8457/ 90300=
07110,1998-09-02 06:00:00,15,1012.7,-0.6,100,15,500,7.408,,,30,14.9,19.3,,,,,3,,,,wg-a,,,,AAXX 02064 07110 02/00 /0304 10150 20150 30014 40127 56006 60006 90600 333 10193 20149 60034=
07110,1998-09-02 09:00:00,15,1012.4,-0.2,100,15,6000,14.816,,,40,,,,3,,,,,,61,wg-a,,,,AAXX 02094 07110 12256 80408 10150 20150 30012 40124 57002 60037 76166 875// 90900=
07110,1998-09-02 12:00:00,15,1011.6,-0.8,100,15,3000,11.112,,,30,,,,5,,,,,,10,wg-a,,,,AAXX 02124 07110 02230 80306 10150 20150 30004 40116 58008 60086 71066 878// 91200 333 60057=
07110,1998-09-02 15:00:00,14,1011.3,-0.4,100,14,4000,14.816,,,10,,,,10,,,,,,10,wg-a,,,,AAXX 02154 07110 12240 80108 10140 20140 30000 40113 56004 60107 71066 878// 91500=
07110,1998-09-02 18:00:00,14,1012.3,1,100,14,4000,18.52,,,340,14,15.4,,,,,,,,10,wg-a,,,,AAXX 02184 07110 02240 83410 10140 20140 30010 40123 53010 61000 71066 875// 91800 333 10154 20140 6007=
07110,1998-09-02 21:00:00,14,1014,1.7,100,14,4000,18.52,,,310,,,,2,,,,,,10,wg-a,,,,AAXX 02214 07110 12240 83110 10140 20140 30027 40140 53017 60027 71066 875// 92100=
07110,1998-09-03 00:00:00,13,1015.3,1.3,100,13,8000,11.112,,,290,,,,0,,,,,,3,wg-a,,,,AAXX 03004 07110 02458 52906 10130 20130 30040 40153 51013 60026 70362 85500 90000 333 60007=
07110,1998-09-03 03:00:00,13,1015.8,0.4,100,13,10000,7.408,,,290,,,,,,,,,,,wg-a,,,,AAXX 03034 07110 12460 32904 10130 20130 30044 40158 53004 60006 83200 90300=
07110,1998-09-03 06:00:00,10,1016.6,0.7,100,10,12000,3.704,,,240,10.4,14.3,,,,,28,,,40,wg-a,,,,AAXX 03064 07110 02662 /2402 10100 20100 30051 40166 52007 60006 74011 81531 90600 333 10143 20104 60284=
07110,1998-09-03 09:00:00,17,1017.4,1.1,88,15,15000,11.112,,,270,,,,,,,,,,,wg-a,,,,AAXX 03094 07110 12465 42706 10170 20150 30062 40174 52011 60006 83201 90900=
07110,1998-09-03 12:00:00,20,1016.8,-0.5,64,13,20000,7.408,,,240,,,,,,,,,,,wg-a,,,,AAXX 03124 07110 12570 42404 10200 20130 30057 40168 58005 60006 83201 91200=
07110,1998-09-03 15:00:00,21,1015.9,-0.9,60,13,25000,14.816,,,180,,,,,,,,,,,wg-a,,,,AAXX 03154 07110 12575 21808 10210 20130 30048 40159 58009 60006 81201 91500=
07110,1998-09-03 18:00:00,18,1015.1,-0.9,73,13,20000,7.408,,,210,10.4,20.6,,,,,,,,,wg-a,,,,AAXX 03184 07110 12570 42104 10180 20130 30039 40151 56009 60006 81201 91800 333 10206 20104=
07110,1998-09-04 00:00:00,14,1012,-2.2,100,14,10000,11.112,,,150,,,,,,,,,,,wg-a,,,,AAXX 04004 07110 12660 71506 10140 20140 30007 40120 57022 60006 83578 90000=
07110,1998-09-04 03:00:00,14,1008.9,-3.1,94,13,8000,22.224,,,140,,,,6,,,,,,60,wg-a,,,,AAXX 04034 07110 12358 81412 10140 20130 39976 40089 58031 60067 76062 875// 90300=
07110,1998-09-04 06:00:00,13,1006.1,-2.8,100,13,6000,25.928,,,150,13,17.7,,,,,,,,61,wg-a,,,,AAXX 04064 07110 02256 81514 10130 20130 39948 40061 56028 61000 76162 875// 90600 333 10177 20130 6016=
07110,1998-09-04 09:00:00,15,1004.6,-1.3,100,15,12000,18.52,,,160,,,,2,,,,,,21,wg-a,,,,AAXX 04094 07110 12362 81610 10150 20150 39935 40046 58013 60027 72162 877// 90900=
07110,1998-09-04 12:00:00,20,1003.8,-0.7,88,18,12000,11.112,,,230,,,,,,,,,,1,wg-a,,,,AAXX 04124 07110 12362 /2306 10200 20180 39928 40038 58007 60026 70162 86301 91200=
07110,1998-09-04 15:00:00,20,1003.7,-0.1,83,17,15000,22.224,,,260,,,,11,,,,,,1,wg-a,,,,AAXX 04154 07110 12465 52612 10200 20170 39927 40037 58001 60117 70198 85800 91500=
07110,1998-09-04 18:00:00,18,1004.1,0.4,88,16,15000,22.224,,,250,13.1,20,,,,,,,,1,wg-a,,,,AAXX 04184 07110 12465 52512 10180 20160 39931 40041 53004 60006 70198 85800 91800 333 10200 20131=
07110,1998-09-04 21:00:00,16,1004.8,0.6,94,15,500,14.816,,,220,,,,2,,,,,,80,wg-a,,,,AAXX 04214 07110 12300 52208 10160 20150 39937 40048 51006 60027 78086 85300 92100=
07110,1998-09-05 00:00:00,16,1005.2,0.4,94,15,15000,14.816,,,240,,,,1,,,,,,1,wg-a,,,,AAXX 05004 07110 02365 52408 10160 20150 39941 40052 52004 60036 70186 85200 90000 333 60017=
07110,1998-09-05 03:00:00,15,1006.2,0.9,100,15,15000,14.816,,,250,,,,0,,,,,,80,wg-a,,,,AAXX 05034 07110 12465 62508 10150 20150 39950 40062 53009 60007 78086 86800 90300=
07110,1998-09-05 06:00:00,15,1007.8,1.6,94,14,20000,22.224,,,260,14.6,17.7,,,,,,,,25,wg-a,,,,AAXX 05064 07110 02470 /2612 10150 20140 39966 40078 53016 61000 72586 86800 90600 333 10177 20146 6018=
07110,1998-09-05 09:00:00,17,1009.5,1.8,88,15,20000,22.224,,,260,,,,0,,,,,,,wg-a,,,,AAXX 05094 07110 12470 52612 10170 20150 39984 40095 53018 60007 85800 90900=
07110,1998-09-05 12:00:00,19,1010.7,1.2,73,14,20000,25.928,,,250,,,,,,,,,,1,wg-a,,,,AAXX 05124 07110 12570 /2514 10190 20140 39996 40107 51012 60016 70186 85201 91200=
07110,1998-09-05 15:00:00,19,1012.1,1.4,78,15,20000,22.224,,,250,,,,,,,,,,,wg-a,,,,AAXX 05154 07110 12570 /2512 10190 20150 30010 40121 51014 60006 86201 91500=
07110,1998-09-05 18:00:00,17,1012.2,0,82,14,18000,11.112,,,240,14.6,19.4,,,,,,,,,wg-a,,,,AAXX 05184 07110 12568 52406 10170 20140 30010 40122 50000 60006 83231 91800 333 10194 20146=
07110,1998-09-05 21:00:00,15,1012.6,0.4,100,15,15000,11.112,,,190,,,,,,,,,,,wg-a,,,,AAXX 05214 07110 12265 61906 10150 20150 30014 40126 53004 60006 83731 92100=
07110,1998-09-06 00:00:00,16,1011.3,-1.3,100,16,10000,14.816,,,180,,,,,,,,,,,wg-a,,,,AAXX 06004 07110 12260 71808 10160 20160 30001 40113 56013 60006 855// 90000=
07110,1998-09-06 03:00:00,16,1009.2,-2.1,100,16,10000,22.224,,,170,,,,,,,,,,,wg-a,,,,AAXX 06034 07110 12260 81712 10160 20160 39980 40092 56021 60006 886// 90300=
07110,1998-09-06 06:00:00,17,1007,-2.1,94,16,10000,29.632,,,180,15.2,17.3,,,,,,,,,wg-a,,,,AAXX 06064 07110 02360 81816 10170 20160 39959 40070 56021 60006 886// 90600 333 10173 20152 60004=
07110,1998-09-06 09:00:00,19,1006,-0.9,83,16,15000,35.188,,,170,,,,,,,,,,,wg-a,,,,AAXX 06094 07110 12365 81719 10190 20160 39950 40060 56009 60006 8158/ 90900=
07110,1998-09-06 12:00:00,17,1004.6,-1.5,100,17,8000,25.928,,,170,,,,5,,,,,,21,wg-a,,,,AAXX 06124 07110 02458 81714 10170 20170 39935 40046 58015 60056 72162 875// 91200 333 60057=
07110,1998-09-06 15:00:00,18,1003.4,-1.1,94,17,6000,25.928,,,190,,,,1,,,,,,3,wg-a,,,,AAXX 06154 07110 12356 81914 10180 20170 39924 40034 58011 60017 70365 876// 91500=
07110,1998-09-06 18:00:00,18,1002.6,-0.8,94,17,12000,25.928,,,200,16.1,19.2,,,,,,,,3,wg-a,,,,AAXX 06184 07110 12362 72014 10180 20170 39916 40026 56008 60006 70365 86502 91800 333 10192 20161=
07110,1998-09-06 21:00:00,17,1002.8,0.1,94,16,12000,18.52,,,190,,,,,,,,,,,wg-a,,,,AAXX 06214 07110 12462 41910 10170 20160 39917 40028 52001 60006 84500 92100=
07110,1998-09-07 00:00:00,16,1001.5,-1.3,100,16,10000,25.928,,,190,,,,,,,,,,25,wg-a,,,,AAXX 07004 07110 02360 /1914 10160 20160 39904 40015 56013 61000 72586 86500 90000 333 6100=
07110,1998-09-07 03:00:00,16,1000.6,-0.9,94,15,12000,22.224,,,190,,,,,,,,,,,wg-a,,,,AAXX 07034 07110 12462 /1912 10160 20150 39895 40006 56009 60006 85500 90300=
07110,1998-09-07 06:00:00,16,1000.5,-0.1,94,15,10000,22.224,,,200,15.2,17.8,,,,,6,,,,wg-a,,,,AAXX 07064 07110 02460 /2012 10160 20150 39894 40005 55001 60006 83501 90600 333 10178 20152 60064=
07110,1998-09-07 09:00:00,18,1001.7,1.3,88,16,12000,25.928,,,210,,,,,,,,,,,wg-a,,,,AAXX 07094 07110 12462 52114 10180 20160 39907 40017 53013 60006 84801 90900=
07110,1998-09-07 12:00:00,18,1002.6,0.9,83,15,10000,29.632,,,220,,,,,,,,,,,wg-a,,,,AAXX 07124 07110 12460 72216 10180 20150 39916 40026 53009 60006 875// 91200=
07110,1998-09-07 15:00:00,16,1003.5,0.8,94,15,6000,18.52,,,220,,,,1,,,,,,58,wg-a,,,,AAXX 07154 07110 12256 82210 10160 20150 39924 40035 51008 60017 75865 887// 91500=
07110,1998-09-07 18:00:00,16,1004.8,1.3,94,15,8000,14.816,,,240,15.5,19.4,,,,,,,,51,wg-a,,,,AAXX 07184 07110 02258 82408 10160 20150 39937 40048 51013 61000 75165 877// 91800 333 10194 20155 6001=
07110,1998-09-07 21:00:00,15,1006.7,1.8,94,14,8000,14.816,,,240,,,,0,,,,,,60,wg-a,,,,AAXX 07214 07110 12458 72408 10150 20140 39955 40067 51018 60007 76062 875// 92100=
07110,1998-09-08 00:00:00,16,1006.5,-0.2,94,15,8000,22.224,,,210,,,,,,,,,,3,wg-a,,,,AAXX 08004 07110 02458 72112 10160 20150 39953 40065 58002 60006 70362 875// 90000 333 61000=
07110,1998-09-08 03:00:00,16,1004.5,-1.9,100,16,2000,29.632,,44.448,210,,,,3,,,,,,51,wg-a,,,,AAXX 08034 07110 12120 82116 10160 20160 39934 40045 57019 60037 75165 887// 90300 333 91024=
07110,1998-09-08 06:00:00,17,1004.1,-0.4,100,17,1200,25.928,,46.3,230,14.7,17.1,,,,,,,,63,wg-a,,,,AAXX 08064 07110 02112 82314 10170 20170 39930 40041 55004 61000 76365 887// 90600 333 10171 20147 6012 91025=
07110,1998-09-08 09:00:00,18,1006.2,2.1,83,15,10000,25.928,,,250,,,,,,,,,,1,wg-a,,,,AAXX 08094 07110 02560 /2514 10180 20150 39951 40062 53021 61000 70162 86500 90900 333 ////=
07110,1998-09-08 12:00:00,20,1007.3,1.2,73,15,10000,22.224,,,250,,,,,,,,,,2,wg-a,,,,AAXX 08124 07110 02560 /2512 10200 20150 39963 40073 51012 61000 70262 86800 91200 333 ////=
07110,1998-09-08 15:00:00,19,1006.7,-0.6,88,17,10000,25.928,,,200,,,,,,,,,,,wg-a,,,,AAXX 08154 07110 12460 /2014 10190 20170 39957 40067 58006 60006 86800 91500=
07110,1998-09-08 18:00:00,18,1004.7,-2,100,18,4500,29.632,,,210,17.1,20.5,,,,,,,,61,wg-a,,,,AAXX 08184 07110 02145 82116 10180 20180 39937 40047 58020 61000 76162 887// 91800 333 10205 20171 6005=
07110,1998-09-08 21:00:00,18,1003.9,-0.8,100,18,2500,31.484,,57.412,210,,,,8,,,,,,58,wg-a,,,,AAXX 08214 07110 12125 82117 10180 20180 39929 40039 56008 60087 75866 887// 92100 333 91031=
07110,1998-09-09 00:00:00,18,1002.6,-1.3,94,17,6000,29.632,,50.004,210,,,,1,,,,,,1,wg-a,,,,AAXX 09004 07110 02156 82116 10180 20170 39916 40026 58013 60086 70165 887// 90000 333 60017 91027=
07110,1998-09-09 03:00:00,17,1001.3,-1.3,100,17,8000,29.632,,48.152,210,,,,,,,,,,,wg-a,,,,AAXX 09034 07110 12358 82116 10170 20170 39903 40013 56013 60006 877// 90300 333 91026=
07110,1998-09-09 06:00:00,17,1000.6,-0.8,94,16,8000,29.632,,,220,16.5,17.7,,,,,14,,,,wg-a,,,,AAXX 09064 07110 02258 /2216 10170 20160 39895 40006 55008 60006 83800 90600 333 10177 20165 60144=
07110,1998-09-09 09:00:00,16,1001.1,0.5,100,16,1200,25.928,,46.3,220,,,,1,,,,,,81,wg-a,,,,AAXX 09094 07110 12212 82214 10160 20160 39900 40011 51005 60017 78186 878// 90900 333 91025=
07110,1998-09-09 12:00:00,19,1001.9,0.9,83,16,10000,29.632,,48.152,220,,,,4,,,,,,1,wg-a,,,,AAXX 09124 07110 02460 62216 10190 20160 39909 40019 51009 60056 70186 86800 91200 333 60047 91026=
07110,1998-09-09 15:00:00,18,1002,0.1,88,16,7000,31.484,,51.856,210,,,,0,,,,,,80,wg-a,,,,AAXX 09154 07110 12457 82117 10180 20160 39910 40020 50001 60007 78086 878// 91500 333 91028=
07110,1998-09-09 18:00:00,17,1002.5,0.4,88,15,15000,18.52,,,230,16.2,20,,0,,,,,,2,wg-a,,,,AAXX 09184 07110 02465 52310 10170 20150 39914 40025 53004 60006 70286 85800 91800 333 10200 20162 60007=
07110,1998-09-09 21:00:00,16,1003.6,1.1,94,15,10000,22.224,,,220,,,,,,,,,,,wg-a,,,,AAXX 09214 07110 12460 52212 10160 20150 39925 40036 51011 60006 85800 92100=
07110,1998-09-10 00:00:00,16,1003.2,-0.4,94,15,12000,25.928,,,210,,,,,,,,,,,wg-a,,,,AAXX 10004 07110 12462 62114 10160 20150 39921 40032 57004 60006 86800 90000=
07110,1998-09-10 03:00:00,16,1002.8,-0.4,94,15,11000,25.928,,,210,,,,,,,,,,,wg-a,,,,AAXX 10034 07110 12/61 /2114 10160 20150 39917 40028 56004 60006 90300=
07110,1998-09-10 06:00:00,15,1003.4,0.6,100,15,8000,11.112,,,240,15.4,16.5,,,,,6,,,3,wg-a,,,,AAXX 10064 07110 02258 72406 10150 20150 39923 40034 53006 60006 70386 875// 90600 333 10165 20154 60064=
07110,1998-09-10 09:00:00,17,1006.1,2.7,88,15,15000,22.224,,,270,,,,,,,,,,,wg-a,,,,AAXX 10094 07110 12465 62712 10170 20150 39950 40061 53027 60006 86200 90900=
07110,1998-09-10 12:00:00,18,1008.2,2.1,77,14,15000,22.224,,,270,,,,,,,,,,3,wg-a,,,,AAXX 10124 07110 02565 62712 10180 20140 39971 40082 51021 61000 70386 86800 91200 333 6100=
07110,1998-09-10 15:00:00,17,1009.1,0.9,77,13,15000,22.224,,,280,,,,1,,,,,,1,wg-a,,,,AAXX 10154 07110 12565 62812 10170 20130 39980 40091 51009 60017 70186 86800 91500=
07110,1998-09-10 18:00:00,15,1010.1,0.9,82,12,15000,14.816,,,260,15.1,18.8,,,,,,,,1,wg-a,,,,AAXX 10184 07110 02565 32608 10150 20120 39989 40101 51009 60006 70186 83800 91800 333 10188 20151 61000=
07110,1998-09-10 21:00:00,13,1010.3,0.1,94,12,15000,11.112,,,230,,,,0,,,,,,1,wg-a,,,,AAXX 10214 07110 12465 72306 10130 20120 39990 40103 50001 60007 70186 878// 92100=
07110,1998-09-11 00:00:00,13,1009.2,-1.1,94,12,15000,11.112,,,230,,,,,,,,,,1,wg-a,,,,AAXX 11004 07110 12465 72306 10130 20120 39979 40092 58011 60006 70186 878// 90000=
07110,1998-09-11 03:00:00,13,1006.9,-2.3,94,12,15000,11.112,,,230,,,,0,,,,,,,wg-a,,,,AAXX 11034 07110 12565 72306 10130 20120 39956 40069 58023 60007 8757/ 90300=
07110,1998-09-11 06:00:00,12,1005,-1.9,100,12,10000,11.112,,,230,11.9,15.3,,,,,,,,60,wg-a,,,,AAXX 11064 07110 02560 82306 10120 20120 39937 40050 56019 61000 76062 8757/ 90600 333 10153 20119 6001=
07110,1998-09-11 09:00:00,13,1004.5,-0.5,94,12,11000,14.816,,,300,,,,,,,,,,,wg-a,,,,AAXX 11094 07110 32/61 /3008 10130 20120 39932 40045 56005 90900=
07110,1998-09-11 12:00:00,14,1004.7,0.3,82,11,18000,14.816,,,320,,,,,,,,,,1,wg-a,,,,AAXX 11124 07110 02468 53208 10140 20110 39935 40047 53003 60036 70186 84870 91200 333 61000=
07110,1998-09-11 15:00:00,14,1005.2,0.5,82,11,15000,18.52,,,340,,,,0,,,,,,25,wg-a,,,,AAXX 11154 07110 12565 63410 10140 20110 39940 40052 52005 60007 72586 85870 91500=
07110,1998-09-11 18:00:00,13,1006.2,0.9,77,9,15000,18.52,,,330,12,15.6,,,,,,,,1,wg-a,,,,AAXX 11184 07110 02665 53310 10130 20090 39949 40062 51009 60006 70186 81570 91800 333 10156 20120 61000=
07110,1998-09-11 21:00:00,12,1008.2,2,82,9,15000,14.816,,,320,,,,,,,,,,,wg-a,,,,AAXX 11214 07110 12565 73208 10120 20090 39969 40082 51020 60006 84870 92100=
07110,1998-09-12 00:00:00,11,1009.3,1,94,10,15000,11.112,,,290,,,,,,,,,,,wg-a,,,,AAXX 12004 07110 12565 72906 10110 20100 39979 40093 51010 60006 84870 90000=
07110,1998-09-12 03:00:00,12,1008.4,-0.8,82,9,15000,11.112,,,280,,,,,,,,,,,wg-a,,,,AAXX 12034 07110 12665 82806 10120 20090 39971 40084 58008 60006 8457/ 90300=
07110,1998-09-12 06:00:00,11,1007.4,-1.1,94,10,15000,11.112,,,270,11,12.7,,,,,,,,25,wg-a,,,,AAXX 12064 07110 02565 82706 10110 20100 39960 40074 58011 61000 72586 8687/ 90600 333 10127 20110 6005=
07110,1998-09-12 09:00:00,13,1005.4,-1.8,100,13,15000,18.52,,,250,,,,1,,,,,,25,wg-a,,,,AAXX 12094 07110 12565 82510 10130 20130 39942 40054 58018 60017 72586 888// 90900=
07110,1998-09-12 12:00:00,12,1005.2,-0.3,94,11,10000,18.52,,,350,,,,7,,,,,,25,wg-a,,,,AAXX 12124 07110 02460 73510 10120 20110 39939 40052 55003 60096 72586 878// 91200 333 60077=
07110,1998-09-12 15:00:00,15,1004.8,-0.3,67,9,20000,22.224,,,330,,,,1,,,,,,,wg-a,,,,AAXX 12154 07110 12570 33312 10150 20090 39936 40048 58003 60017 83800 91500=
07110,1998-09-12 18:00:00,13,1005.5,0.6,67,7,20000,14.816,,,300,11.1,14.7,,,,,,,,16,wg-a,,,,AAXX 12184 07110 12570 43008 10130 20070 39942 40055 53006 60006 71686 8/200 91800 333 10147 20111=
07110,1998-09-12 21:00:00,10,1005.5,-0.1,87,8,15000,11.112,,,280,,,,,,,,,,,wg-a,,,,AAXX 12214 07110 12565 22806 10100 20080 39941 40055 58001 60006 82200 92100=
07110,1998-09-13 00:00:00,11,1003.9,-1.5,82,8,15000,14.816,,,290,,,,,,,,,,,wg-a,,,,AAXX 13004 07110 12/65 02908 10110 20080 39926 40039 58015 60006 80000 90000=
07110,1998-09-13 03:00:00,13,1002.5,-1.4,72,8,15000,29.632,,50.004,300,,,,,,,,,,,wg-a,,,,AAXX 13034 07110 12565 73016 10130 20080 39912 40025 56014 60006 878// 90300 333 91027=
07110,1998-09-13 06:00:00,12,1002.6,0.1,88,10,15000,29.632,,,310,8.8,12.7,,,,,,,,25,wg-a,,,,AAXX 13064 07110 02465 63116 10120 20100 39913 40026 53001 61000 72586 86800 90600 333 10127 20088 6010=
07110,1998-09-13 09:00:00,14,1005.9,3.4,72,9,15000,22.224,,,330,,,,,,,,,,,wg-a,,,,AAXX 13094 07110 12565 43312 10140 20090 39947 40059 51034 60006 84801 90900=
07110,1998-09-13 12:00:00,15,1008.2,2.3,72,10,25000,25.928,,,320,,,,,,,,,,,wg-a,,,,AAXX 13124 07110 12575 /3214 10150 20100 39970 40082 51023 60006 85201 91200=
07110,1998-09-13 15:00:00,14,1009.4,1.1,77,10,25000,22.224,,,320,,,,,,,,,,,wg-a,,,,AAXX 13154 07110 12575 33212 10140 20100 39981 40094 51011 60006 83201 91500=
07110,1998-09-13 18:00:00,13,1009.9,0.5,77,9,25000,14.816,,,300,12.1,15.7,,,,,,,,,wg-a,,,,AAXX 13184 07110 12575 33008 10130 20090 39986 40099 50005 60006 82201 91800 333 10157 20121=
07110,1998-09-14 00:00:00,11,1009.6,-0.6,100,11,10000,11.112,,,280,,,,,,,,,,80,wg-a,,,,AAXX 14004 07110 02560 72806 10110 20110 39982 40096 58006 61000 78086 8523/ 90000 333 6100=
07110,1998-09-14 03:00:00,11,1009.2,-0.4,100,11,8000,11.112,,,290,,,,2,,,,,,25,wg-a,,,,AAXX 14034 07110 12458 /2906 10110 20110 39978 40092 56004 60027 72586 86800 90300=
07110,1998-09-14 06:00:00,12,1010,0.8,88,10,10000,18.52,,,320,9.5,13,,2,,,4,,,1,wg-a,,,,AAXX 14064 07110 02560 63210 10120 20100 39986 40100 53008 60044 70186 86800 90600 333 10130 20095 60027=
07110,1998-09-14 09:00:00,13,1011.7,1.8,82,10,15000,25.928,,42.596,310,,,,,,,,,,,wg-a,,,,AAXX 14094 07110 12565 53114 10130 20100 30004 40117 53018 60006 85800 90900 333 91023=
07110,1998-09-14 12:00:00,15,1013.2,1.5,63,8,15000,31.484,,50.004,310,,,,,,,,,,,wg-a,,,,AAXX 14124 07110 12565 43117 10150 20080 30019 40132 51015 60006 84200 91200 333 91027=
07110,1998-09-14 15:00:00,15,1013.9,0.7,72,10,15000,22.224,,,310,,,,,,,,,,,wg-a,,,,AAXX 14154 07110 12565 73112 10150 20100 30026 40139 51007 60006 85230 91500=
07110,1998-09-14 18:00:00,13,1014.9,0.9,82,10,15000,7.408,,,300,11.6,16,,,,,,,,,wg-a,,,,AAXX 14184 07110 12565 63004 10130 20100 30035 40149 51009 60006 85830 91800 333 10160 20116=
07110,1998-09-14 21:00:00,11,1016,1,87,9,15000,11.112,,,280,,,,,,,,,,,wg-a,,,,AAXX 14214 07110 12665 22806 10110 20090 30045 40160 51010 60006 82500 92100=
07110,1998-09-15 00:00:00,11,1015.6,-0.4,94,10,15000,7.408,,,230,,,,,,,,,,,wg-a,,,,AAXX 15004 07110 12565 42304 10110 20100 30041 40156 58004 60006 84500 90000=
07110,1998-09-15 03:00:00,14,1013.8,-1.6,94,13,10000,14.816,,,240,,,,,,,,,,,wg-a,,,,AAXX 15034 07110 12360 82408 10140 20130 30025 40138 58016 60006 877// 90300=
07110,1998-09-15 06:00:00,16,1012,-1.7,100,16,3000,22.224,,37.04,240,10,15.7,,,,,,,,10,wg-a,,,,AAXX 15064 07110 02230 82412 10160 20160 30008 40120 56017 61000 71051 887// 90600 333 10157 20100 6002 91020=
07110,1998-09-15 09:00:00,17,1011.9,-0.1,94,16,1500,22.224,,,260,,,,6,,,,,,10,wg-a,,,,AAXX 15094 07110 12215 82612 10170 20160 30007 40119 55001 60067 71065 887// 90900=
07110,1998-09-15 12:00:00,18,1012.4,0.6,83,15,15000,25.928,,42.596,290,,,,0,,,,,,1,wg-a,,,,AAXX 15124 07110 02465 82914 10180 20150 30013 40124 51006 60076 70165 888// 91200 333 60007 91023=
07110,1998-09-15 15:00:00,17,1013.1,0.6,88,15,15000,25.928,,,280,,,,0,,,,,,3,wg-a,,,,AAXX 15154 07110 12465 82814 10170 20150 30019 40131 50006 60007 70386 872// 91500=
07110,1998-09-15 18:00:00,15,1013.8,0.6,94,14,12000,14.816,,,290,15.1,18.1,,,,,,,,3,wg-a,,,,AAXX 15184 07110 02462 72908 10150 20140 30025 40138 53006 60006 70386 875// 91800 333 10181 20151 61000=
07110,1998-09-16 00:00:00,14,1015,0.1,88,12,10000,18.52,,,290,,,,,,,,,,3,wg-a,,,,AAXX 16004 07110 12460 82910 10140 20120 30037 40150 53001 60006 70352 875// 90000=
07110,1998-09-16 06:00:00,12,1016.7,1,94,11,15000,7.408,,,320,11.5,15.2,,,,,7,,,,wg-a,,,,AAXX 16064 07110 02465 43204 10120 20110 30053 40167 53010 60006 81801 90600 333 10152 20115 60074=
07110,1998-09-16 18:00:00,15,1018.6,0.4,88,13,20000,14.816,,,290,11.4,17.5,,,,,,,,3,wg-a,,,,AAXX 16184 07110 12470 /2908 10150 20130 30073 40186 52004 60006 70352 84801 91800 333 10175 20114=
07110,1998-09-17 00:00:00,12,1019.1,-0.1,94,11,20000,7.408,,,280,,,,,,,,,,,wg-a,,,,AAXX 17004 07110 12/70 32804 10120 20110 30076 40191 57001 60006 80002 90000=
07110,1998-09-17 03:00:00,11,1018.5,-0.6,100,11,3000,7.408,,,260,,,,0,,,,,,,wg-a,,,,AAXX 17034 07110 12/30 32604 10110 20110 30070 40185 56006 60007 80002 90300=
07110,1998-09-17 06:00:00,10,1018.6,0.1,100,10,2000,3.704,,,190,10.1,15.3,,,,,,,,28,wg-a,,,,AAXX 17064 07110 12420 41902 10100 20100 30071 40186 53001 60004 72840 82202 90600 333 10153 20101=
07110,1998-09-17 09:00:00,15,1019.4,1,94,14,10000,11.112,,,220,,,,,,,,,,,wg-a,,,,AAXX 17094 07110 12460 52206 10150 20140 30081 40194 53010 60006 85202 90900=
07110,1998-09-17 12:00:00,17,1019.7,0.4,82,14,15000,11.112,,,240,,,,,,,,,,,wg-a,,,,AAXX 17124 07110 12565 72406 10170 20140 30085 40197 51004 60006 87800 91200=
07110,1998-09-17 15:00:00,17,1019.6,-0.2,82,14,20000,7.408,,,230,,,,,,,,,,,wg-a,,,,AAXX 17154 07110 12470 72304 10170 20140 30083 40196 58002 60006 878// 91500=
07110,1998-09-17 18:00:00,15,1019.6,0,94,14,12000,11.112,,,210,9.6,18.3,,,,,,,,,wg-a,,,,AAXX 17184 07110 12462 32106 10150 20140 30083 40196 50000 60006 81802 91800 333 10183 20096=
07110,1998-09-17 21:00:00,12,1020.9,1.1,100,12,20000,3.704,,,190,,,,,,,,,,,wg-a,,,,AAXX 17214 07110 12670 /1902 10120 20120 30094 40209 51011 60006 81501 92100=
07110,1998-09-18 00:00:00,11,1021.4,0.5,100,11,10000,3.704,,,150,,,,,,,,,,,wg-a,,,,AAXX 18004 07110 12/60 01502 10110 20110 30099 40214 51005 60006 80000 90000=
07110,1998-09-18 03:00:00,10,1021.4,-0.1,100,10,1500,3.704,,,150,,,,,,,,,,,wg-a,,,,AAXX 18034 07110 32/15 /1502 10100 20100 30098 40214 58001 90300=
07110,1998-09-18 06:00:00,10,1022.1,0.7,100,10,15000,3.704,,,120,9.9,15.2,,,,,,,,,wg-a,,,,AAXX 18064 07110 02665 41202 10100 20100 30105 40221 53007 60006 82501 90600 333 10152 20099 60004=
07110,1998-09-18 09:00:00,15,1023.3,1.4,94,14,15000,11.112,,,160,,,,,,,,,,,wg-a,,,,AAXX 18094 07110 12/65 31606 10150 20140 30119 40233 51014 60006 80001 90900=
07110,1998-09-18 12:00:00,20,1023.9,0.8,68,14,15000,14.816,,,200,,,,,,,,,,,wg-a,,,,AAXX 18124 07110 12/65 32008 10200 20140 30127 40239 53008 60006 80001 91200=
07110,1998-09-18 15:00:00,21,1024.1,0.2,60,13,20000,11.112,,,190,,,,,,,,,,,wg-a,,,,AAXX 18154 07110 12/70 21906 10210 20130 30129 40241 50002 60006 80001 91500=
07110,1998-09-18 18:00:00,17,1025,0.8,77,13,15000,11.112,,,50,10.2,21,,,,,,,,,wg-a,,,,AAXX 18184 07110 12/65 00506 10170 20130 30137 40250 53008 60006 80000 91800 333 10210 20102=
07110,1998-09-18 21:00:00,13,1026.7,1.5,100,13,15000,7.408,,,60,,,,,,,,,,,wg-a,,,,AAXX 18214 07110 12/65 00604 10130 20130 30152 40267 52015 60006 80000 92100=
07110,1998-09-19 00:00:00,12,1026.9,0.2,100,12,10000,7.408,,,20,,,,,,,,,,,wg-a,,,,AAXX 19004 07110 12/60 00204 10120 20120 30154 40269 53002 60006 80000 90000=
07110,1998-09-19 03:00:00,12,1026.6,-0.3,100,12,10000,7.408,,,60,,,,,,,,,,,wg-a,,,,AAXX 19034 07110 32/60 00604 10120 20120 30151 40266 58003 80000 90300=
07110,1998-09-19 06:00:00,11,1027.5,0.8,100,11,500,3.704,,,70,10.6,16.6,,,,,,,,,wg-a,,,,AAXX 19064 07110 02/00 /0702 10110 20110 30159 40275 53008 60006 80002 90600 333 10166 20106 60004=
07110,1998-09-19 09:00:00,19,1028.1,0.9,73,14,10000,11.112,,,120,,,,0,,,,,,,wg-a,,,,AAXX 19094 07110 12/60 11206 10190 20140 30168 40281 52009 60007 80002 90900=
07110,1998-09-19 12:00:00,23,1028,0.1,57,14,20000,11.112,,,110,,,,,,,,,,,wg-a,,,,AAXX 19124 07110 12/70 11106 10230 20140 30169 40280 50001 60006 80002 91200=
07110,1998-09-19 15:00:00,24,1026.9,-1.1,57,15,20000,11.112,,,80,,,,,,,,,,,wg-a,,,,AAXX 19154 07110 12/70 10806 10240 20150 30158 40269 58011 60006 80001 91500=
07110,1998-09-19 18:00:00,19,1026.8,-0.2,83,16,15000,11.112,,,40,10.6,24.3,,,,,,,,,wg-a,,,,AAXX 19184 07110 12/65 10406 10190 20160 30156 40268 55002 60006 80001 91800 333 10243 20106=
07110,1998-09-19 21:00:00,16,1028.5,1.5,82,13,20000,7.408,,,50,,,,,,,,,,,wg-a,,,,AAXX 19214 07110 12/70 00504 10160 20130 30171 40285 51015 60006 80000 92100=
07110,1998-09-20 00:00:00,13,1028.6,0,94,12,12000,11.112,,,50,,,,,,,,,,,wg-a,,,,AAXX 20004 07110 12/62 00506 10130 20120 30171 40286 50000 60006 80000 90000=
07110,1998-09-20 03:00:00,11,1028.5,-0.2,100,11,10000,7.408,,,30,,,,,,,,,,,wg-a,,,,AAXX 20034 07110 12/60 00304 10110 20110 30169 40285 58002 60006 80000 90300=
07110,1998-09-20 06:00:00,10,1028.9,0.3,100,10,15000,7.408,,,30,9.5,19.2,,,,,,,,,wg-a,,,,AAXX 20064 07110 02/65 00304 10100 20100 30172 40289 53003 60006 80000 90600 333 10192 20095 60004=
07110,1998-09-20 09:00:00,19,1029.3,0.8,68,13,20000,11.112,,,90,,,,,,,,,,,wg-a,,,,AAXX 20094 07110 12/70 00906 10190 20130 30180 40293 51008 60006 80000 90900=
07110,1998-09-20 12:00:00,24,1029,-0.1,47,12,20000,18.52,,,110,,,,,,,,,,,wg-a,,,,AAXX 20124 07110 12/70 01110 10240 20120 30179 40290 58001 60006 80000 91200=
07110,1998-09-20 15:00:00,24,1028,-1,54,14,20000,18.52,,,80,,,,,,,,,,,wg-a,,,,AAXX 20154 07110 12/70 00810 10240 20140 30169 40280 57010 60006 80000 91500=
07110,1998-09-20 18:00:00,18,1028.4,0.2,88,16,15000,11.112,,,50,9.8,24.8,,,,,,,,,wg-a,,,,AAXX 20184 07110 12/65 00506 10180 20160 30171 40284 53002 60006 80000 91800 333 10248 20098=
07110,1998-09-20 21:00:00,15,1029.1,0.6,100,15,10000,7.408,,,60,,,,,,,,,,,wg-a,,,,AAXX 20214 07110 12/60 00604 10150 20150 30177 40291 51006 60006 80000 92100=
07110,1998-09-21 00:00:00,14,1029.1,-0.1,100,14,8000,11.112,,,60,,,,,,,,,,,wg-a,,,,AAXX 21004 07110 12/58 00606 10140 20140 30176 40291 58001 60006 80000 90000=
07110,1998-09-21 03:00:00,13,1028.6,-0.5,100,13,6000,11.112,,,50,,,,,,,,,,,wg-a,,,,AAXX 21034 07110 32/56 00506 10130 20130 30171 40286 56005 80000 90300=
07110,1998-09-21 06:00:00,13,1028.3,-0.3,100,13,1200,11.112,,,40,12.6,18.1,,,,,1,,,10,wg-a,,,,AAXX 21064 07110 02/12 00406 10130 20130 30168 40283 57003 60006 71000 80000 90600 333 10181 20126 60014=
07110,1998-09-21 09:00:00,17,1027.6,-0.6,88,15,3000,14.816,,,40,,,,,,,,,,,wg-a,,,,AAXX 21094 07110 32/30 /0408 10170 20150 30162 40276 58006 90900=
07110,1998-09-21 12:00:00,21,1025.6,-1.8,56,12,15000,22.224,,,80,,,,,,,,,,,wg-a,,,,AAXX 21124 07110 12/65 10812 10210 20120 30144 40256 58018 60006 80001 91200=
07110,1998-09-21 15:00:00,20,1024.3,-1.3,64,13,20000,22.224,,,70,,,,,,,,,,,wg-a,,,,AAXX 21154 07110 12/70 30712 10200 20130 30131 40243 56013 60006 80001 91500=
07110,1998-09-21 18:00:00,16,1023.7,-0.7,88,14,15000,14.816,,,40,12.6,21.6,,,,,,,,,wg-a,,,,AAXX 21184 07110 12/65 50408 10160 20140 30124 40237 56007 60006 80001 91800 333 10216 20126=
07110,1998-09-21 21:00:00,14,1024,0.2,94,13,10000,11.112,,,30,,,,,,,,,,,wg-a,,,,AAXX 21214 07110 12/60 30306 10140 20130 30126 40240 50002 60006 80001 92100=
07110,1998-09-22 00:00:00,12,1023.3,-0.8,100,12,10000,7.408,,,30,,,,,,,,,,,wg-a,,,,AAXX 22004 07110 12/60 30304 10120 20120 30118 40233 57008 60006 80001 90000=
07110,1998-09-22 03:00:00,12,1022.1,-1.2,100,12,10000,14.816,,,40,,,,,,,,,,,wg-a,,,,AAXX 22034 07110 12/60 30408 10120 20120 30106 40221 56012 60006 80001 90300=
07110,1998-09-22 06:00:00,12,1021.4,-0.7,94,11,10000,14.816,,,50,11.5,16.4,,,,,,,,,wg-a,,,,AAXX 22064 07110 02/60 30508 10120 20110 30099 40214 56007 60006 80001 90600 333 10164 20115 60004=
07110,1998-09-22 09:00:00,16,1020.9,-0.3,82,13,7000,14.816,,,50,,,,,,,,,,,wg-a,,,,AAXX 22094 07110 12/57 40508 10160 20130 30096 40209 58003 60006 80001 90900=
07110,1998-09-22 12:00:00,20,1018.6,-2.1,64,13,12000,18.52,,,70,,,,,,,,,,,wg-a,,,,AAXX 22124 07110 12562 20710 10200 20130 30075 40186 58021 60006 81101 91200=
07110,1998-09-22 15:00:00,21,1017.4,-1.2,60,13,12000,14.816,,,70,,,,,,,,,,,wg-a,,,,AAXX 22154 07110 12562 20708 10210 20130 30063 40174 57012 60006 81101 91500=
07110,1998-09-22 18:00:00,16,1017.4,-0.2,77,12,10000,11.112,,,40,11.8,20.9,,,,,,,,,wg-a,,,,AAXX 22184 07110 12/60 10406 10160 20120 30061 40174 55002 60006 80001 91800 333 10209 20118=
07110,1998-09-22 21:00:00,14,1017.5,0,94,13,10000,11.112,,,60,,,,,,,,,,,wg-a,,,,AAXX 22214 07110 12/60 00606 10140 20130 30061 40175 50000 60006 80000 92100=
07110,1998-09-23 00:00:00,12,1016.4,-1.1,100,12,6000,3.704,,,60,,,,,,,,,,,wg-a,,,,AAXX 23004 07110 12656 /0602 10120 20120 30050 40164 58011 60006 85500 90000=
07110,1998-09-23 03:00:00,11,1015,-1.4,100,11,800,3.704,,,60,,,,0,,,,,,44,wg-a,,,,AAXX 23034 07110 12608 30602 10110 20110 30036 40150 56014 60007 74441 83500 90300=
07110,1998-09-23 06:00:00,10,1015.1,-0,100,10,3000,7.408,,,80,9.7,16.4,,,,,,,,10,wg-a,,,,AAXX 23064 07110 02430 30804 10100 20100 30036 40151 55000 60006 71041 83501 90600 333 10164 20097 60004=
07110,1998-09-23 09:00:00,16,1015.5,0.6,82,13,6000,7.408,,,150,,,,0,,,,,,,wg-a,,,,AAXX 23094 07110 12556 31504 10160 20130 30042 40155 53006 60007 81102 90900=
07110,1998-09-23 12:00:00,20,1014.9,-0.4,78,16,12000,11.112,,,120,,,,,,,,,,,wg-a,,,,AAXX 23124 07110 12562 51206 10200 20160 30038 40149 56004 60006 82830 91200=
07110,1998-09-23 15:00:00,21,1014.2,-0.6,78,17,15000,11.112,,,160,,,,,,,,,,,wg-a,,,,AAXX 23154 07110 12565 /1606 10210 20170 30032 40142 57006 60006 82880 91500=
07110,1998-09-23 18:00:00,18,1013.9,-0.4,94,17,500,0,,,0,9.7,20.8,,,,,,,,,wg-a,,,,AAXX 23184 07110 12500 70000 10180 20170 30028 40139 57004 60006 8587/ 91800 333 10208 20097=
07110,1998-09-23 21:00:00,18,1013.6,-0.4,83,15,7000,14.816,,,110,,,,,,,,,,1,wg-a,,,,AAXX 23214 07110 02757 71108 10180 20150 30024 40136 58004 61000 70162 8557/ 92100 333 ////=
07110,1998-09-24 00:00:00,16,1012.1,-1.5,94,15,7000,18.52,,,110,,,,,,,,,,3,wg-a,,,,AAXX 24004 07110 02457 71110 10160 20150 30009 40121 58015 61000 70362 878// 90000 333 ////=
07110,1998-09-24 03:00:00,16,1011.1,-1,94,15,7000,22.224,,,150,,,,2,,,,,,1,wg-a,,,,AAXX 24034 07110 12457 71512 10160 20150 39999 40111 56010 60027 70186 878// 90300=
07110,1998-09-24 06:00:00,15,1010.7,-0.4,100,15,3000,22.224,,,160,15.1,18.1,,,,,2,,,10,wg-a,,,,AAXX 24064 07110 02330 71612 10150 20150 39995 40107 57004 60006 71086 85831 90600 333 10181 20151 60024=
07110,1998-09-24 09:00:00,17,1011,0.3,88,15,6000,18.52,,,150,,,,,,,,,,,wg-a,,,,AAXX 24094 07110 12456 71510 10170 20150 39998 40110 53003 60006 8583/ 90900=
07110,1998-09-24 12:00:00,19,1010.2,-0.7,83,16,15000,25.928,,,170,,,,,,,,,,,wg-a,,,,AAXX 24124 07110 12565 71714 10190 20160 39991 40102 57007 60006 8583/ 91200=
07110,1998-09-24 15:00:00,20,1008.8,-1.3,73,15,15000,25.928,,,180,,,,,,,,,,,wg-a,,,,AAXX 24154 07110 12565 /1814 10200 20150 39978 40088 56013 60006 84231 91500=
07110,1998-09-24 18:00:00,16,1008.4,-0.6,88,14,6000,14.816,,,160,15.1,19.9,,,,,,,,,wg-a,,,,AAXX 24184 07110 12/56 51608 10160 20140 39972 40084 56006 60006 82031 91800 333 10199 20151=
07110,1998-09-24 21:00:00,15,1008.3,-0.1,94,14,10000,14.816,,,130,,,,,,,,,,,wg-a,,,,AAXX 24214 07110 12360 71308 10150 20140 39971 40083 57001 60006 83531 92100=
07110,1998-09-25 00:00:00,15,1007.4,-0.9,94,14,8000,18.52,,,130,,,,,,,,,,60,wg-a,,,,AAXX 25004 07110 02458 81310 10150 20140 39962 40074 58009 61000 76062 8757/ 90000 333 6100=
07110,1998-09-25 03:00:00,15,1006.1,-1.3,94,14,8000,18.52,,,130,,,,,,,,,,21,wg-a,,,,AAXX 25034 07110 02358 81310 10150 20140 39949 40061 58013 61000 72162 8567/ 90300 333 ////=
07110,1998-09-25 06:00:00,15,1005.1,-1,94,14,10000,14.816,,,130,14.6,16.3,,,,,,,,1,wg-a,,,,AAXX 25064 07110 02360 71308 10150 20140 39939 40051 57010 60006 70162 8377/ 90600 333 10163 20146 61000=
07110,1998-09-25 09:00:00,16,1004.9,-0.1,94,15,10000,14.816,,,130,,,,,,,,,,,wg-a,,,,AAXX 25094 07110 12660 71308 10160 20150 39938 40049 55001 60006 83571 90900=
07110,1998-09-25 12:00:00,17,1003.9,-1,82,14,15000,14.816,,,130,,,,,,,,,,,wg-a,,,,AAXX 25124 07110 12465 71308 10170 20140 39928 40039 58010 60006 8587/ 91200=
07110,1998-09-25 15:00:00,17,1002.6,-1.3,88,15,15000,11.112,,,150,,,,,,,,,,,wg-a,,,,AAXX 25154 07110 12565 71506 10170 20150 39915 40026 56013 60006 8527/ 91500=
07110,1998-09-25 18:00:00,17,1001.7,-0.9,88,15,15000,3.704,,,90,14.6,18.2,,,,,,,,,wg-a,,,,AAXX 25184 07110 12565 40902 10170 20150 39906 40017 56009 60006 82271 91800 333 10182 20146=
07110,1998-09-25 21:00:00,14,1000.6,-1.1,100,14,12000,11.112,,,80,,,,,,,,,,,wg-a,,,,AAXX 25214 07110 12/62 30806 10140 20140 39895 40006 57011 60006 80001 92100=
07110,1998-09-26 00:00:00,15,998.4,-2.2,94,14,12000,14.816,,,100,,,,,,,,,,,wg-a,,,,AAXX 26004 07110 12/62 41008 10150 20140 39873 49984 58022 60006 83032 90000=
07110,1998-09-26 03:00:00,15,994.9,-3.5,94,14,8000,14.816,,,80,,,,1,,,,,,61,wg-a,,,,AAXX 26034 07110 12558 80808 10150 20140 39838 49949 56035 60017 76161 8657/ 90300=
07110,1998-09-26 06:00:00,16,992.9,-1.9,88,14,10000,25.928,,,130,13.6,16.6,,,,,,,,21,wg-a,,,,AAXX 26064 07110 02460 71314 10160 20140 39819 49929 55019 61000 72161 8587/ 90600 333 10166 20136 6004=
07110,1998-09-26 09:00:00,16,993.6,0.7,88,14,10000,25.928,,,140,,,,,,,,,,,wg-a,,,,AAXX 26094 07110 12460 61414 10160 20140 39826 49936 50007 60006 86800 90900=
07110,1998-09-26 12:00:00,18,994.1,0.6,73,13,15000,29.632,,48.152,140,,,,,,,,,,,wg-a,,,,AAXX 26124 07110 12565 41416 10180 20130 39832 49941 52006 60006 84200 91200 333 91026=
07110,1998-09-26 15:00:00,18,993.7,-0.4,68,12,20000,25.928,,,140,,,,,,,,,,,wg-a,,,,AAXX 26154 07110 12570 41414 10180 20120 39828 49937 56004 60006 84900 91500=
07110,1998-09-26 18:00:00,15,994.5,0.6,77,11,15000,7.408,,,60,14.6,19.6,,,,,,,,,wg-a,,,,AAXX 26184 07110 12565 30604 10150 20110 39834 49945 53006 60006 82801 91800 333 10196 20146=
07110,1998-09-26 21:00:00,12,995.5,0.9,94,11,15000,7.408,,,20,,,,,,,,,,,wg-a,,,,AAXX 26214 07110 12765 30204 10120 20110 39843 49955 53009 60006 815/2 92100=
07110,1998-09-27 00:00:00,13,996.2,0.8,100,13,15000,7.408,,,330,,,,,,,,,,,wg-a,,,,AAXX 27004 07110 12765 43304 10130 20130 39851 49962 53008 60006 83502 90000=
07110,1998-09-27 03:00:00,13,997.3,1,100,13,6000,7.408,,,300,,,,,,,,,,,wg-a,,,,AAXX 27034 07110 12656 23004 10130 20130 39861 49973 51010 60006 82502 90300=
07110,1998-09-27 06:00:00,13,999.3,2,100,13,500,7.408,,,300,12.1,15,,,,,,,,,wg-a,,,,AAXX 27064 07110 02300 /3004 10130 20130 39881 49993 53020 60006 85800 90600 333 10150 20121 60004=
07110,1998-09-27 09:00:00,15,1001.2,2,94,14,10000,11.112,,,290,,,,,,,,,,1,wg-a,,,,AAXX 27094 07110 12260 /2906 10150 20140 39901 40012 51020 60006 70142 83201 90900=
07110,1998-09-27 12:00:00,19,1002.7,1.6,73,14,15000,14.816,,,250,,,,,,,,,,2,wg-a,,,,AAXX 27124 07110 12565 42508 10190 20140 39917 40027 51016 60006 70241 83201 91200=
07110,1998-09-27 15:00:00,19,1003.4,0.7,73,14,25000,14.816,,,260,,,,,,,,,,,wg-a,,,,AAXX 27154 07110 12575 42608 10190 20140 39924 40034 52007 60006 83201 91500=
07110,1998-09-27 18:00:00,16,1004.4,0.9,94,15,15000,14.816,,,260,13.1,19.5,,,,,,,,,wg-a,,,,AAXX 27184 07110 12465 72608 10160 20150 39933 40044 53009 60006 878// 91800 333 10195 20131=
07110,1998-09-27 21:00:00,15,1006.2,1.7,94,14,10000,14.816,,,290,,,,,,,,,,,wg-a,,,,AAXX 27214 07110 12260 82908 10150 20140 39950 40062 51017 60006 875// 92100=
07110,1998-09-28 00:00:00,15,1006.2,0,100,15,8000,11.112,,,280,,,,,,,,,,,wg-a,,,,AAXX 28004 07110 12258 82806 10150 20150 39950 40062 50000 60006 875// 90000=
07110,1998-09-28 03:00:00,15,1006.5,0.3,100,15,8000,11.112,,,280,,,,,,,,,,,wg-a,,,,AAXX 28034 07110 12258 82806 10150 20150 39953 40065 53003 60006 876// 90300=
07110,1998-09-28 06:00:00,15,1007.3,0.8,94,14,6000,11.112,,,300,14.6,16,,,,,,,,,wg-a,,,,AAXX 28064 07110 02256 73006 10150 20140 39961 40073 53008 60006 875// 90600 333 10160 20146 60004=
07110,1998-09-28 09:00:00,16,1009.2,1.9,88,14,10000,14.816,,,300,,,,,,,,,,,wg-a,,,,AAXX 28094 07110 12460 73008 10160 20140 39980 40092 52019 60006 878// 90900=
07110,1998-09-28 12:00:00,18,1009.6,0.5,77,14,20000,14.816,,,310,,,,,,,,,,,wg-a,,,,AAXX 28124 07110 12470 63108 10180 20140 39985 40096 50005 60006 86800 91200=
07110,1998-09-28 15:00:00,17,1009.2,-0.4,82,14,20000,11.112,,,310,,,,,,,,,,,wg-a,,,,AAXX 28154 07110 12470 /3106 10170 20140 39981 40092 58004 60006 86800 91500=
07110,1998-09-28 18:00:00,15,1010.2,0.9,88,13,8000,7.408,,,300,14.2,17.8,,,,,,,,,wg-a,,,,AAXX 28184 07110 12458 73004 10150 20130 39990 40102 53009 60006 878// 91800 333 10178 20142=
07110,1998-09-28 21:00:00,11,1011.3,0.9,100,11,10000,3.704,,,250,,,,,,,,,,,wg-a,,,,AAXX 28214 07110 12660 /2502 10110 20110 39999 40113 51009 60006 81500 92100=
07110,1998-09-29 00:00:00,9,1010.3,-1.1,100,9,8000,3.704,,,210,,,,,,,,,,,wg-a,,,,AAXX 29004 07110 12/58 02102 10090 20090 39988 40103 58011 60006 80000 90000=
07110,1998-09-29 12:00:00,15,1001.2,-3.2,88,13,7000,25.928,,,130,,,,0,,,,,,60,wg-a,,,,AAXX 29124 07110 02457 81314 10150 20130 39901 40012 58032 60006 76062 8452/ 91200 333 60007=
07110,1998-09-29 15:00:00,15,997.4,-3.8,88,13,8000,25.928,,,140,,,,,,,,,,1,wg-a,,,,AAXX 29154 07110 02458 81414 10150 20130 39863 49974 58038 61000 70162 885// 91500 333 ////=
07110,1998-09-29 18:00:00,14,992.5,-4.9,94,13,6000,31.484,,,130,10.3,15.8,,,,,,,,60,wg-a,,,,AAXX 29184 07110 02256 81317 10140 20130 39814 49925 58049 61000 76062 887// 91800 333 10158 20103 6001=
07110,1998-09-29 21:00:00,15,989.6,-2.8,94,14,10000,42.596,,61.116,200,,,,1,,,,,,1,wg-a,,,,AAXX 29214 07110 12460 /2023 10150 20140 39786 49896 56028 60017 70162 875// 92100 333 91033=
07110,1998-09-30 00:00:00,15,991.1,1.5,88,13,10000,31.484,,50.004,220,,,,,,,,,,3,wg-a,,,,AAXX 30004 07110 12260 72217 10150 20130 39801 49911 51015 60016 70362 875// 90000 333 91027=
07110,1998-09-30 03:00:00,13,991.9,0.7,94,12,10000,29.632,,66.672,230,,,,2,,,,,,80,wg-a,,,,AAXX 30034 07110 12460 72316 10130 20120 39808 49919 53007 60027 78086 873// 90300 333 91036=
07110,1998-09-30 06:00:00,14,990.8,-1.1,88,12,15000,38.892,,62.968,200,12.7,15.3,,,,,5,,,2,wg-a,,,,AAXX 30064 07110 02465 72021 10140 20120 39797 49908 58011 60006 70286 8/900 90600 333 10153 20127 60054 91034=
07110,1998-09-30 09:00:00,14,989.3,-1.4,94,13,6000,14.816,,,230,,,,2,,,,,,21,wg-a,,,,AAXX 30094 07110 12256 72308 10140 20130 39783 49893 55014 60027 72186 869// 90900=
07110,1998-09-30 12:00:00,14,991,1.6,94,13,500,35.188,,,260,,,,7,,,,,,,wg-a,,,,AAXX 30124 07110 02/00 /2619 10140 20130 39799 49910 53016 60096 91200 333 60077=
07110,1998-09-30 15:00:00,14,991.7,0.7,94,13,15000,29.632,,50.004,250,,,,1,,,,,,21,wg-a,,,,AAXX 30154 07110 12465 82516 10140 20130 39806 49917 52007 60017 72162 885// 91500 333 91027=
07110,1998-09-30 18:00:00,14,992,0.3,94,13,9000,25.928,,46.3,240,12.8,14.4,,,,,,,,80,wg-a,,,,AAXX 30184 07110 02459 82414 10140 20130 39809 49920 52003 61000 78086 872// 91800 333 10144 20128 6001 91025=
07110,1998-09-30 21:00:00,14,992.4,0.4,100,14,8000,18.52,,,260,,,,1,,,,,,60,wg-a,,,,AAXX 30214 07110 12358 82610 10140 20140 39813 49924 53004 60017 76086 877// 92100=
07110,1998-10-01 00:00:00,13,992.8,0.4,100,13,500,29.632,,53.708,300,,,,8,,,,,,63,wg-a,,,,AAXX 01004 07110 02300 83016 10130 20130 39817 49928 53004 60086 76386 872// 90000 333 60087 91029=
07110,1998-10-01 03:00:00,14,993.2,0.4,94,13,10000,25.928,,,280,,,,2,,,,,,3,wg-a,,,,AAXX 01034 07110 12360 82814 10140 20130 39821 49932 51004 60027 70362 879// 90300=
07110,1998-10-01 06:00:00,14,992.8,-0.4,100,14,8000,29.632,,,290,13.3,14.2,,,,,,,,25,wg-a,,,,AAXX 01064 07110 02258 72916 10140 20140 39817 49928 56004 61000 72586 879// 90600 333 10142 20133 6023=
07110,1998-10-01 09:00:00,15,994,1.2,94,14,8000,29.632,,51.856,320,,,,3,,,,,,25,wg-a,,,,AAXX 01094 07110 12258 83216 10150 20140 39829 49940 53012 60037 72586 889// 90900 333 91028=
07110,1998-10-01 12:00:00,16,996.6,2.7,88,14,10000,29.632,,44.448,340,,,,,,,,,,3,wg-a,,,,AAXX 01124 07110 12360 73416 10160 20140 39856 49966 51027 60036 70386 879// 91200 333 91024=
07110,1998-10-01 18:00:00,15,1001.8,2.6,94,14,15000,18.52,,,350,13.8,16.3,,,,,,,,2,wg-a,,,,AAXX 01184 07110 12365 63510 10150 20140 39906 40018 53026 60006 70286 86830 91800 333 10163 20138=
07110,1998-10-01 21:00:00,14,1004.2,2.4,100,14,12000,14.816,,,350,,,,,,,,,,,wg-a,,,,AAXX 01214 07110 12162 73508 10140 20140 39930 40042 51024 60006 878// 92100=
07110,1998-10-02 00:00:00,14,1006,1.8,94,13,12000,14.816,,,350,,,,,,,,,,,wg-a,,,,AAXX 02004 07110 12462 43508 10140 20130 39948 40060 53018 60006 84800 90000=
07110,1998-10-02 03:00:00,13,1007.3,1.2,100,13,12000,14.816,,,350,,,,,,,,,,,wg-a,,,,AAXX 02034 07110 12262 53508 10130 20130 39960 40073 51012 60006 85800 90300=
07110,1998-10-02 06:00:00,13,1009.2,1.9,94,12,12000,14.816,,,360,12.9,14.5,,,,,3,,,,wg-a,,,,AAXX 02064 07110 02262 53608 10130 20120 39979 40092 53019 60006 85800 90600 333 10145 20129 60034=
07110,1998-10-02 09:00:00,15,1011.2,2.1,94,14,9000,18.52,,,20,,,,,,,,,,25,wg-a,,,,AAXX 02094 07110 02359 70210 10150 20140 30000 40112 51021 61000 72586 877// 90900 333 ////=
07110,1998-10-02 12:00:00,17,1012.5,1.3,82,14,10000,22.224,,,10,,,,,,,,,,3,wg-a,,,,AAXX 02124 07110 02460 70112 10170 20140 30013 40125 51013 61000 70386 8/800 91200 333 ////=
07110,1998-10-02 15:00:00,16,1013.4,0.9,82,13,15000,14.816,,,10,,,,,,,,,,,wg-a,,,,AAXX 02154 07110 12465 60108 10160 20130 30022 40134 53009 60006 86200 91500=
07110,1998-10-02 18:00:00,13,1014.6,1.1,94,12,8000,11.112,,,350,12.6,16.7,,,,,,,,,wg-a,,,,AAXX 02184 07110 12458 /3506 10130 20120 30033 40146 52011 60006 81100 91800 333 10167 20126=
07110,1998-10-02 21:00:00,11,1015.9,1.2,100,11,8000,7.408,,,340,,,,,,,,,,,wg-a,,,,AAXX 02214 07110 32/58 03404 10110 20110 30045 40159 51012 80000 92100=
07110,1998-10-03 00:00:00,10,1015.8,-0.2,100,10,1500,3.704,,,320,,,,,,,,,,10,wg-a,,,,AAXX 03004 07110 12/15 03202 10100 20100 30043 40158 58002 60006 71000 80000 90000=
07110,1998-10-03 03:00:00,10,1015.4,-0.4,100,10,600,3.704,,,270,,,,0,,,,,,10,wg-a,,,,AAXX 03034 07110 12206 /2702 10100 20100 30039 40154 57004 60007 71041 85600 90300=
07110,1998-10-03 06:00:00,10,1014.6,-0.8,100,10,2000,7.408,,,280,9.4,13.2,,,,,,,,10,wg-a,,,,AAXX 03064 07110 02320 /2804 10100 20100 30031 40146 56008 60006 71041 85500 90600 333 10132 20094 60004=
07110,1998-10-03 09:00:00,13,1014.7,0.2,100,13,4000,11.112,,,60,,,,0,,,,,,10,wg-a,,,,AAXX 03094 07110 12640 70606 10130 20130 30033 40147 50002 60007 71052 875// 90900=
07110,1998-10-03 12:00:00,13,1014.5,-0.2,88,11,7000,7.408,,,50,,,,,,,,,,2,wg-a,,,,AAXX 03124 07110 12457 80504 10130 20110 30031 40145 58002 60006 70252 875// 91200=
07110,1998-10-03 15:00:00,13,1013,-1.4,82,10,7000,7.408,,,30,,,,,,,,,,,wg-a,,,,AAXX 03154 07110 12457 70304 10130 20100 30017 40130 56014 60006 8157/ 91500=
07110,1998-10-03 18:00:00,11,1012.4,-0.7,87,9,8000,3.704,,,40,10.4,13.9,,,,,,,,,wg-a,,,,AAXX 03184 07110 12/58 70402 10110 20090 30010 40124 56007 60006 8707/ 91800 333 10139 20104=
07110,1998-10-03 21:00:00,10,1011.9,-0.6,87,8,10000,7.408,,,100,,,,,,,,,,,wg-a,,,,AAXX 03214 07110 12/60 71004 10100 20080 30004 40119 58006 60006 8707/ 92100=
07110,1998-10-04 00:00:00,10,1010.1,-1.8,87,8,10000,3.704,,,80,,,,,,,,,,,wg-a,,,,AAXX 04004 07110 12660 70802 10100 20080 39986 40101 58018 60006 8757/ 90000=
07110,1998-10-04 03:00:00,9,1007.6,-2.4,93,8,10000,7.408,,,110,,,,,,,,,,,wg-a,,,,AAXX 04034 07110 12660 71104 10090 20080 39962 40076 58024 60006 8757/ 90300=
07110,1998-10-04 06:00:00,9,1006,-1.6,87,7,8000,11.112,,,130,9.1,11.3,,0,,,,,,21,wg-a,,,,AAXX 04064 07110 02458 81306 10090 20070 39946 40060 57016 60004 72162 885// 90600 333 10113 20091 60007=
07110,1998-10-04 09:00:00,9,1005.6,-0.4,93,8,500,14.816,,,120,,,,1,,,,,,60,wg-a,,,,AAXX 04094 07110 12500 81208 10090 20080 39942 40056 56004 60017 76062 885// 90900=
07110,1998-10-04 12:00:00,10,1005.2,-0.4,87,8,8000,11.112,,,120,,,,1,,,,,,21,wg-a,,,,AAXX 04124 07110 02558 81206 10100 20080 39938 40052 57004 60026 72162 885// 91200 333 60017=
07110,1998-10-04 15:00:00,10,1005,-0.2,93,9,500,3.704,,,110,,,,1,,,,,,60,wg-a,,,,AAXX 04154 07110 12600 81102 10100 20090 39936 40050 55002 60017 76062 885// 91500=
07110,1998-10-04 18:00:00,11,1005.2,0.3,87,9,8000,7.408,,,50,9.2,11.3,,0,,,,,,1,wg-a,,,,AAXX 04184 07110 12658 70504 10110 20090 39939 40052 53003 60007 70162 875// 91800 333 10113 20092=
07110,1998-10-04 21:00:00,11,1007,1.7,87,9,8000,3.704,,,50,,,,,,,,,,,wg-a,,,,AAXX 04214 07110 12758 70502 10110 20090 39956 40070 51017 60006 875// 92100=
07110,1998-10-05 00:00:00,9,1006.9,-0.1,100,9,8000,3.704,,,330,,,,,,,,,,,wg-a,,,,AAXX 05004 07110 12858 /3302 10090 20090 39955 40069 58001 60006 86030 90000=
07110,1998-10-05 03:00:00,10,1007.2,0.3,93,9,10000,7.408,,,340,,,,,,,,,,,wg-a,,,,AAXX 05034 07110 12560 73404 10100 20090 39958 40072 50003 60006 875// 90300=
07110,1998-10-05 06:00:00,9,1007.7,0.5,100,9,8000,3.704,,,360,8.7,11,,,,,,,,60,wg-a,,,,AAXX 05064 07110 02558 83602 10090 20090 39963 40077 53005 61000 76086 888// 90600 333 10110 20087 6004=
07110,1998-10-05 09:00:00,11,1008.8,1.1,94,10,15000,3.704,,,50,,,,,,,,,,2,wg-a,,,,AAXX 05094 07110 02565 /0502 10110 20100 39974 40088 51011 61000 70262 86800 90900 333 ////=
07110,1998-10-05 12:00:00,13,1008.7,0,77,9,15000,11.112,,,10,,,,,,,,,,1,wg-a,,,,AAXX 05124 07110 02465 60106 10130 20090 39974 40087 50000 61000 70162 86300 91200 333 ////=
07110,1998-10-05 15:00:00,12,1009.3,0.5,88,10,15000,7.408,,,20,,,,,,,,,,25,wg-a,,,,AAXX 05154 07110 02365 80204 10120 20100 39979 40093 53005 61000 72586 878// 91500 333 ////=
07110,1998-10-05 18:00:00,11,1010.5,1.2,87,9,15000,11.112,,,30,9.3,13.5,,,,,,,,1,wg-a,,,,AAXX 05184 07110 12565 60306 10110 20090 39991 40105 53012 60006 70186 84830 91800 333 10135 20093=
07110,1998-10-05 21:00:00,10,1011.9,1.3,93,9,15000,3.704,,,340,,,,,,,,,,,wg-a,,,,AAXX 05214 07110 12565 /3402 10100 20090 30004 40119 51013 60006 84530 92100=
07110,1998-10-06 00:00:00,8,1011.9,-0,100,8,12000,3.704,,,310,,,,,,,,,,,wg-a,,,,AAXX 06004 07110 12462 33102 10080 20080 30004 40119 55000 60006 82230 90000=
07110,1998-10-06 03:00:00,8,1011.9,-0,100,8,12000,3.704,,,20,,,,,,,,,,,wg-a,,,,AAXX 06034 07110 12562 /0202 10080 20080 30004 40119 55000 60006 83530 90300=
07110,1998-10-06 06:00:00,9,1012.2,0.3,93,8,12000,3.704,,,10,7.7,10.7,,,,,,,,,wg-a,,,,AAXX 06064 07110 02462 50102 10090 20080 30007 40122 53003 60006 83530 90600 333 10107 20077 61000=
07110,1998-10-06 12:00:00,13,1014.3,1,72,8,15000,11.112,,,50,,,,0,,,,,,1,wg-a,,,,AAXX 06124 07110 02565 70506 10130 20080 30029 40143 51010 60016 70186 8782/ 91200 333 60007=
07110,1998-10-06 15:00:00,14,1014.6,0.4,72,9,15000,14.816,,,10,,,,,,,,,,,wg-a,,,,AAXX 06154 07110 12565 30108 10140 20090 30033 40146 53004 60006 82130 91500=
07110,1998-10-06 18:00:00,11,1016.7,1.9,94,10,4500,11.112,,,10,8.5,14.9,,,,,,,,,wg-a,,,,AAXX 06184 07110 12545 30106 10110 20100 30052 40167 53019 60006 81230 91800 333 10149 20085=
07110,1998-10-06 21:00:00,10,1017.7,1,93,9,10000,7.408,,,20,,,,,,,,,,,wg-a,,,,AAXX 06214 07110 12560 70204 10100 20090 30062 40177 51010 60006 8583/ 92100=
07110,1998-10-07 00:00:00,10,1018.7,0.9,93,9,8000,7.408,,,330,,,,,,,,,,,wg-a,,,,AAXX 07004 07110 12458 53304 10100 20090 30071 40187 51009 60006 85800 90000=
07110,1998-10-07 03:00:00,11,1019.2,0.6,94,10,10000,11.112,,,340,,,,1,,,,,,25,wg-a,,,,AAXX 07034 07110 12460 73406 10110 20100 30077 40192 53006 60017 72522 878// 90300=
07110,1998-10-07 06:00:00,11,1020.1,0.9,94,10,12000,7.408,,,360,9.2,11.4,,,,,1,,,1,wg-a,,,,AAXX 07064 07110 02562 /3604 10110 20100 30086 40201 51009 60006 70186 86800 90600 333 10114 20092 60014=
07110,1998-10-07 09:00:00,13,1022,1.9,77,9,10000,14.816,,,360,,,,,,,,,,,wg-a,,,,AAXX 07094 07110 12660 23608 10130 20090 30105 40220 53019 60006 82200 90900=
07110,1998-10-07 12:00:00,14,1023,1.1,72,9,15000,18.52,,,350,,,,,,,,,,,wg-a,,,,AAXX 07124 07110 12565 /3510 10140 20090 30116 40230 51011 60006 86800 91200=
07110,1998-10-07 15:00:00,14,1023.6,0.6,77,10,15000,18.52,,,350,,,,,,,,,,,wg-a,,,,AAXX 07154 07110 12465 43510 10140 20100 30122 40236 52006 60006 84800 91500=
07110,1998-10-07 18:00:00,11,1025.7,1.9,94,10,15000,7.408,,,340,10.5,14.2,,,,,,,,,wg-a,,,,AAXX 07184 07110 12565 33404 10110 20100 30141 40257 52019 60006 83800 91800 333 10142 20105=
07110,1998-10-07 21:00:00,11,1027,1.3,87,9,15000,11.112,,,340,,,,,,,,,,,wg-a,,,,AAXX 07214 07110 12565 33406 10110 20090 30154 40270 51013 60006 83800 92100=
07110,1998-10-08 00:00:00,11,1027.6,0.6,87,9,15000,14.816,,,340,,,,,,,,,,,wg-a,,,,AAXX 08004 07110 12565 23408 10110 20090 30160 40276 53006 60006 82100 90000=
07110,1998-10-08 03:00:00,10,1027.3,-0.3,87,8,20000,11.112,,,340,,,,,,,,,,,wg-a,,,,AAXX 08034 07110 12570 23406 10100 20080 30157 40273 58003 60006 82100 90300=
07110,1998-10-08 06:00:00,10,1027.7,0.4,87,8,20000,14.816,,,340,9.6,11.6,,,,,,,,,wg-a,,,,AAXX 08064 07110 02570 23408 10100 20080 30161 40277 53004 60006 82101 90600 333 10116 20096 60004=
07110,1998-10-08 09:00:00,13,1029.1,1.4,67,7,20000,25.928,,44.448,10,,,,,,,,,,,wg-a,,,,AAXX 08094 07110 12570 20114 10130 20070 30175 40291 51014 60006 82100 90900 333 91024=
07110,1998-10-08 15:00:00,12,1029,-0.1,76,8,20000,18.52,,,10,,,,,,,,,,,wg-a,,,,AAXX 08154 07110 12570 /0110 10120 20080 30174 40290 55001 60006 85800 91500=
07110,1998-10-08 18:00:00,11,1028.6,-0.4,82,8,20000,11.112,,,340,9.6,13.9,,,,,,,,,wg-a,,,,AAXX 08184 07110 12670 /3406 10110 20080 30170 40286 56004 60006 86500 91800 333 10139 20096=
07110,1998-10-08 21:00:00,11,1028.6,0,82,8,20000,7.408,,,330,,,,,,,,,,,wg-a,,,,AAXX 08214 07110 12670 73304 10110 20080 30170 40286 50000 60006 875// 92100=
07110,1998-10-09 00:00:00,11,1027.7,-0.9,76,7,20000,14.816,,,360,,,,,,,,,,,wg-a,,,,AAXX 09004 07110 12570 /3608 10110 20070 30161 40277 56009 60006 86500 90000=
07110,1998-10-09 03:00:00,11,1027,-0.7,82,8,20000,11.112,,,350,,,,,,,,,,,wg-a,,,,AAXX 09034 07110 12570 73506 10110 20080 30154 40270 57007 60006 875// 90300=
07110,1998-10-09 06:00:00,10,1026.3,-0.7,82,7,20000,14.816,,,350,9.9,11.7,,,,,,,,,wg-a,,,,AAXX 09064 07110 02570 /3508 10100 20070 30147 40263 58007 60006 85500 90600 333 10117 20099 60004=
07110,1998-10-09 09:00:00,12,1026.1,-0.2,76,8,20000,11.112,,,10,,,,,,,,,,,wg-a,,,,AAXX 09094 07110 12570 60106 10120 20080 30145 40261 58002 60006 84532 90900=
07110,1998-10-09 12:00:00,14,1024,-1.9,72,9,20000,11.112,,,320,,,,,,,,,,,wg-a,,,,AAXX 09124 07110 12470 /3206 10140 20090 30126 40240 58019 60006 82532 91200=
07110,1998-10-09 15:00:00,15,1021.3,-2.7,77,11,20000,11.112,,,290,,,,,,,,,,,wg-a,,,,AAXX 09154 07110 12570 72906 10150 20110 30099 40213 56027 60006 86532 91500=
07110,1998-10-09 18:00:00,13,1019.5,-1.8,94,12,1500,14.816,,,210,8.8,15.3,,,,,,,,10,wg-a,,,,AAXX 09184 07110 12215 82108 10130 20120 30081 40195 57018 60006 71022 886// 91800 333 10153 20088=
07110,1998-10-09 21:00:00,14,1017.6,-1.9,100,14,3000,11.112,,,230,,,,2,,,,,,61,wg-a,,,,AAXX 09214 07110 12130 82306 10140 20140 30062 40176 56019 60027 76165 887// 92100=
07110,1998-10-10 00:00:00,14,1015.2,-2.3,100,14,1000,14.816,,,260,,,,2,,,,,,61,wg-a,,,,AAXX 10004 07110 02210 82608 10140 20140 30039 40152 56023 60046 76165 887// 90000 333 60027=
07110,1998-10-10 03:00:00,13,1014.8,-0.5,94,12,15000,11.112,,,310,,,,,,,,,,1,wg-a,,,,AAXX 10034 07110 02265 43106 10130 20120 30034 40148 57005 61000 70161 84600 90300 333 ////=
07110,1998-10-10 06:00:00,12,1014.8,-0,94,11,12000,11.112,,,310,12.2,14.2,,,,,4,,,3,wg-a,,,,AAXX 10064 07110 02562 73106 10120 20110 30034 40148 55000 60006 70361 878// 90600 333 10142 20122 60044=
07110,1998-10-10 09:00:00,13,1016.4,1.6,88,11,12000,11.112,,,310,,,,,,,,,,,wg-a,,,,AAXX 10094 07110 12462 53106 10130 20110 30050 40164 51016 60006 83832 90900=
07110,1998-10-10 12:00:00,15,1016.9,0.6,77,11,20000,22.224,,,320,,,,0,,,,,,,wg-a,,,,AAXX 10124 07110 02470 53212 10150 20110 30056 40169 53006 60006 84831 91200 333 60007=
07110,1998-10-10 15:00:00,15,1017.3,0.4,77,11,25000,18.52,,,330,,,,,,,,,,,wg-a,,,,AAXX 10154 07110 12575 53310 10150 20110 30060 40173 53004 60006 85801 91500=
07110,1998-10-10 18:00:00,11,1019.1,1.6,94,10,15000,7.408,,,280,11.4,15.6,,,,,,,,,wg-a,,,,AAXX 10184 07110 12465 62804 10110 20100 30076 40191 53016 60006 85802 91800 333 10156 20114=
07110,1998-10-10 21:00:00,9,1020.4,1.2,100,9,15000,7.408,,,240,,,,,,,,,,,wg-a,,,,AAXX 10214 07110 12465 42404 10090 20090 30088 40204 51012 60006 83801 92100=
07110,1998-10-11 00:00:00,10,1019.7,-0.7,100,10,10000,7.408,,,230,,,,,,,,,,,wg-a,,,,AAXX 11004 07110 12560 42304 10100 20100 30081 40197 58007 60006 83801 90000=
07110,1998-10-11 03:00:00,13,1018.2,-1.3,94,12,10000,14.816,,,230,,,,0,,,,,,,wg-a,,,,AAXX 11034 07110 12460 82308 10130 20120 30068 40182 58013 60007 8557/ 90300=
07110,1998-10-11 06:00:00,14,1016.8,-1.3,100,14,1000,22.224,,,240,8.7,14.2,,,,,,,,51,wg-a,,,,AAXX 11064 07110 02110 82412 10140 20140 30055 40168 56013 61000 75165 877// 90600 333 10142 20087 6001=
07110,1998-10-11 09:00:00,15,1016.8,-0,100,15,1500,25.928,,,260,,,,4,,,,,,51,wg-a,,,,AAXX 11094 07110 12215 82614 10150 20150 30055 40168 55000 60047 75165 877// 90900=
07110,1998-10-11 12:00:00,15,1017.3,0.5,100,15,1000,18.52,,,320,,,,2,,,,,,51,wg-a,,,,AAXX 11124 07110 02110 83210 10150 20150 30060 40173 53005 60066 75165 887// 91200 333 60027=
07110,1998-10-11 15:00:00,14,1017.9,0.6,88,12,8000,18.52,,,320,,,,,,,,,,1,wg-a,,,,AAXX 11154 07110 02458 73210 10140 20120 30066 40179 53006 61000 70165 8457/ 91500 333 ////=
07110,1998-10-11 18:00:00,11,1018.6,0.5,94,10,12000,7.408,,,310,11.4,15.9,,,,,,,,1,wg-a,,,,AAXX 11184 07110 12562 53104 10110 20100 30071 40186 53005 60006 70165 83530 91800 333 10159 20114=
07110,1998-10-11 21:00:00,11,1019.8,1.2,94,10,12000,7.408,,,300,,,,,,,,,,,wg-a,,,,AAXX 11214 07110 12562 43004 10110 20100 30083 40198 51012 60006 82530 92100=
07110,1998-10-12 00:00:00,12,1019.9,0.1,88,10,8000,11.112,,,310,,,,,,,,,,,wg-a,,,,AAXX 12004 07110 12558 /3106 10120 20100 30084 40199 52001 60006 85500 90000=
07110,1998-10-12 03:00:00,12,1019.9,-0,88,10,10000,7.408,,,310,,,,,,,,,,,wg-a,,,,AAXX 12034 07110 12660 73104 10120 20100 30084 40199 54000 60006 875// 90300=
07110,1998-10-12 06:00:00,11,1020.6,0.7,94,10,10000,7.408,,,300,9.5,12.3,,,,,6,,,,wg-a,,,,AAXX 12064 07110 02660 /3004 10110 20100 30091 40206 51007 60006 86500 90600 333 10123 20095 60064=
07110,1998-10-12 09:00:00,14,1022.5,2,82,11,10000,14.816,,,300,,,,,,,,,,,wg-a,,,,AAXX 12094 07110 12660 53008 10140 20110 30111 40225 51020 60006 84501 90900=
07110,1998-10-12 12:00:00,15,1023.3,0.8,72,10,15000,14.816,,,320,,,,,,,,,,,wg-a,,,,AAXX 12124 07110 12565 73208 10150 20100 30119 40233 51008 60006 878// 91200=
07110,1998-10-12 15:00:00,15,1023.4,0.1,63,8,15000,14.816,,,320,,,,,,,,,,,wg-a,,,,AAXX 12154 07110 12565 73208 10150 20080 30120 40234 50001 60006 85801 91500=
07110,1998-10-12 18:00:00,13,1024,0.5,82,10,12000,3.704,,,280,10.9,15.2,,,,,,,,,wg-a,,,,AAXX 12184 07110 12662 72802 10130 20100 30125 40240 51005 60006 875// 91800 333 10152 20109=
07110,1998-10-12 21:00:00,10,1024.3,0.2,100,10,12000,7.408,,,200,,,,,,,,,,,wg-a,,,,AAXX 12214 07110 12662 72004 10100 20100 30127 40243 53002 60006 875// 92100=
07110,1998-10-13 00:00:00,11,1023.5,-0.7,100,11,12000,7.408,,,180,,,,,,,,,,,wg-a,,,,AAXX 13004 07110 12562 81804 10110 20110 30120 40235 58007 60006 8557/ 90000=
07110,1998-10-13 03:00:00,,1,-1.5,,,10000,18.52,,,200,,,,,,,,,,,wg-a,,,,AAXX 13034 07110 32660 82010 1//// 2//// 30105 58015 8257/ 90300=
07110,1998-10-13 06:00:00,,1,-0.8,,,10000,18.52,,,200,,,,,,,,,,,wg-a,,,,AAXX 13064 07110 12260 82010 1//// 2//// 30097 56008 60006 875// 90600=
07110,1998-10-13 09:00:00,15,1021.5,0.4,100,15,2000,14.816,,,220,,,,,,,,,,10,wg-a,,,,AAXX 13094 07110 32120 82208 10150 20150 30101 40215 53004 71052 877// 90900=
07110,1998-10-13 12:00:00,15,1021.1,-0.3,100,15,1200,22.224,,,220,,,,,,,,,,10,wg-a,,,,AAXX 13124 07110 02212 82212 10150 20150 30098 40211 57003 61000 71065 887// 91200 333 6006=
07110,1998-10-13 15:00:00,15,1020.7,-0.4,100,15,3000,14.816,,,230,,,,11,,,,,,10,wg-a,,,,AAXX 13154 07110 12130 82308 10150 20150 30094 40207 56004 60117 71066 887// 91500=
07110,1998-10-13 18:00:00,15,1021.1,0.4,100,15,500,18.52,,,240,13.5,15.5,,,,,,,,28,wg-a,,,,AAXX 13184 07110 02100 82410 10150 20150 30098 40211 53004 61000 72865 887// 91800 333 10155 20135 6001=
07110,1998-10-13 21:00:00,15,1021.8,0.6,100,15,500,14.816,,,230,,,,0,,,,,,20,wg-a,,,,AAXX 13214 07110 12200 82308 10150 20150 30104 40218 53006 60007 72052 887// 92100=
07110,1998-10-14 00:00:00,15,1021.5,-0.3,100,15,500,18.52,,,240,,,,,,,,,,2,wg-a,,,,AAXX 14004 07110 12100 82410 10150 20150 30101 40215 58003 60006 70252 887// 90000=
07110,1998-10-14 03:00:00,15,1020.6,-0.8,100,15,8000,14.816,,,230,,,,,,,,,,,wg-a,,,,AAXX 14034 07110 12258 82308 10150 20150 30093 40206 57008 60006 885// 90300=
07110,1998-10-14 06:00:00,15,1020.8,0.2,100,15,500,14.816,,,230,14.7,15.1,,,,,,,,61,wg-a,,,,AAXX 14064 07110 02100 82308 10150 20150 30095 40208 53002 61000 76162 887// 90600 333 10151 20147 6020=
07110,1998-10-14 09:00:00,16,1021.9,1.1,100,16,500,18.52,,,240,,,,1,,,,,,58,wg-a,,,,AAXX 14094 07110 12100 82410 10160 20160 30106 40219 53011 60017 75865 887// 90900=
07110,1998-10-14 12:00:00,16,1022.2,0.3,100,16,500,22.224,,,240,,,,1,,,,,,10,wg-a,,,,AAXX 14124 07110 02100 82412 10160 20160 30109 40222 50003 60026 71065 887// 91200 333 60017=
07110,1998-10-14 15:00:00,16,1022,-0.2,100,16,1500,18.52,,,250,,,,2,,,,,,51,wg-a,,,,AAXX 14154 07110 12115 82510 10160 20160 30107 40220 55002 60027 75166 887// 91500=
07110,1998-10-14 18:00:00,16,1022.8,0.8,100,16,600,11.112,,,250,15.1,16.3,,,,,,,,51,wg-a,,,,AAXX 14184 07110 02106 82506 10160 20160 30115 40228 53008 61000 75166 887// 91800 333 10163 20151 6000=
07110,1998-10-14 21:00:00,15,1023.8,0.9,100,15,3000,3.704,,,320,,,,0,,,,,,44,wg-a,,,,AAXX 14214 07110 12130 83202 10150 20150 30124 40238 51009 60007 74465 887// 92100=
07110,1998-10-15 00:00:00,13,1024,0.1,94,12,10000,3.704,,,50,,,,0,,,,,,1,wg-a,,,,AAXX 15004 07110 02460 80502 10130 20120 30125 40240 50001 60016 70165 875// 90000 333 60007=
07110,1998-10-15 03:00:00,12,1023.4,-0.6,100,12,800,3.704,,,20,,,,,,,,,,44,wg-a,,,,AAXX 15034 07110 12008 80202 10120 20120 30119 40234 58006 60006 74442 886// 90300=
07110,1998-10-15 06:00:00,12,1023.7,0.3,100,12,8000,7.408,,,30,12.3,15.6,,,,,4,,,1,wg-a,,,,AAXX 15064 07110 02558 80304 10120 20120 30122 40237 52003 60006 70142 885// 90600 333 10156 20123 60044=
07110,1998-10-15 09:00:00,13,1024.4,0.7,94,12,12000,7.408,,,70,,,,,,,,,,,wg-a,,,,AAXX 15094 07110 12562 70704 10130 20120 30129 40244 53007 60006 875// 90900=
07110,1998-10-15 12:00:00,16,1023.8,-0.4,82,13,15000,7.408,,,50,,,,,,,,,,,wg-a,,,,AAXX 15124 07110 12565 60504 10160 20130 30125 40238 58004 60006 85501 91200=
07110,1998-10-15 15:00:00,16,1022.4,-1.4,77,12,15000,11.112,,,20,,,,,,,,,,,wg-a,,,,AAXX 15154 07110 12565 50206 10160 20120 30111 40224 56014 60006 84501 91500=
07110,1998-10-15 18:00:00,13,1022.2,-0.3,88,11,10000,11.112,,,70,12.1,17.2,,,,,,,,,wg-a,,,,AAXX 15184 07110 12560 80706 10130 20110 30108 40222 57003 60006 875// 91800 333 10172 20121=
07110,1998-10-15 21:00:00,13,1021.6,-0.6,94,12,15000,0,,,0,,,,,,,,,,,wg-a,,,,AAXX 15214 07110 12465 80000 10130 20120 30102 40216 58006 60006 875// 92100=
07110,1998-10-16 00:00:00,13,1019.8,-1.8,100,13,15000,11.112,,,150,,,,,,,,,,,wg-a,,,,AAXX 16004 07110 12165 81506 10130 20130 30084 40198 58018 60006 876// 90000=
07110,1998-10-16 03:00:00,14,1018,-1.7,100,14,2500,14.816,,,220,,,,0,,,,,,20,wg-a,,,,AAXX 16034 07110 12225 82208 10140 20140 30067 40180 56017 60007 72052 887// 90300=
07110,1998-10-16 06:00:00,15,1016.4,-1.6,100,15,1000,18.52,,,200,12.5,14.9,,,,,,,,51,wg-a,,,,AAXX 16064 07110 02110 82010 10150 20150 30051 40164 56016 61000 75152 886// 90600 333 10149 20125 6001=
07110,1998-10-16 09:00:00,15,1015.7,-0.7,100,15,500,25.928,,,210,,,,1,,,,,,20,wg-a,,,,AAXX 16094 07110 12200 82114 10150 20150 30044 40157 57007 60017 72052 886// 90900=
07110,1998-10-16 12:00:00,14,1013.7,-2,100,14,3000,25.928,,,190,,,,0,,,,,,50,wg-a,,,,AAXX 16124 07110 02230 81914 10140 20140 30024 40137 58020 60016 75052 886// 91200 333 60007=
07110,1998-10-16 15:00:00,14,1011.1,-2.6,94,13,3000,29.632,,,190,,,,0,,,,,,50,wg-a,,,,AAXX 16154 07110 12230 81916 10140 20130 39998 40111 58026 60007 75055 886// 91500=
07110,1998-10-16 18:00:00,14,1008.8,-2.3,94,13,6000,31.484,,,190,13.6,15,,,,,,,,2,wg-a,,,,AAXX 16184 07110 02256 81917 10140 20130 39975 40088 56023 60006 70252 887// 91800 333 10150 20136 61000=
07110,1998-10-16 21:00:00,15,1006.6,-2.1,94,14,8000,31.484,,,190,,,,,,,,,,60,wg-a,,,,AAXX 16214 07110 02258 81917 10150 20140 39954 40066 58021 61000 76062 887// 92100 333 ////=
07110,1998-10-17 00:00:00,15,1003.7,-2.8,100,15,8000,35.188,,62.968,200,,,,1,,,,,,21,wg-a,,,,AAXX 17004 07110 02258 82019 10150 20150 39926 40037 58028 60016 72162 887// 90000 333 60017 91034=
07110,1998-10-17 03:00:00,14,1001.4,-2.4,94,13,2500,38.892,,50.004,240,,,,11,,,,,,63,wg-a,,,,AAXX 17034 07110 12225 82421 10140 20130 39902 40014 56024 60117 76362 887// 90300 333 91027=
07110,1998-10-17 06:00:00,11,1005.6,4.1,100,11,10000,11.112,,,300,11.3,15.3,,,,,,,,21,wg-a,,,,AAXX 17064 07110 02260 73006 10110 20110 39943 40056 51041 61000 72162 875// 90600 333 10153 20113 6017=
07110,1998-10-17 12:00:00,14,1011.7,2.3,67,8,10000,29.632,,,280,,,,,,,,,,,wg-a,,,,AAXX 17124 07110 12560 /2816 10140 20080 30004 40117 51023 60006 85100 91200=
07110,1998-10-17 15:00:00,14,1013.3,1.6,63,7,10000,25.928,,,280,,,,,,,,,,,wg-a,,,,AAXX 17154 07110 12660 42814 10140 20070 30020 40133 52016 60006 84100 91500=
07110,1998-10-17 18:00:00,11,1015.3,1.8,82,8,10000,7.408,,,270,10.5,14.6,,,,,,,,,wg-a,,,,AAXX 17184 07110 12560 42704 10110 20080 30038 40153 53018 60006 84200 91800 333 10146 20105=
07110,1998-10-17 21:00:00,9,1017.5,2.1,93,8,10000,7.408,,,230,,,,,,,,,,1,wg-a,,,,AAXX 17214 07110 02560 /2304 10090 20080 30059 40175 51021 61000 70186 81200 92100 333 ////=
07110,1998-10-18 00:00:00,7,1018.4,0.8,100,7,10000,3.704,,,220,,,,0,,,,,,3,wg-a,,,,AAXX 18004 07110 02560 32202 10070 20070 30067 40184 50008 60006 70386 83800 90000 333 60007=
07110,1998-10-18 03:00:00,7,1018.5,0.1,100,7,10000,3.704,,,140,,,,,,,,,,,wg-a,,,,AAXX 18034 07110 12560 21402 10070 20070 30068 40185 50001 60006 82800 90300=
07110,1998-10-18 06:00:00,6,1018.8,0.3,100,6,12000,7.408,,,150,6,10.6,,,,,,,,,wg-a,,,,AAXX 18064 07110 02562 21504 10060 20060 30071 40188 52003 60006 82800 90600 333 10106 20060 60004=
07110,1998-10-18 09:00:00,11,1019.5,0.9,100,11,15000,7.408,,,190,,,,0,,,,,,,wg-a,,,,AAXX 18094 07110 12565 21904 10110 20110 30080 40195 52009 60007 82800 90900=
07110,1998-10-18 12:00:00,14,1019.3,-0.1,72,9,20000,11.112,,,230,,,,,,,,,,,wg-a,,,,AAXX 18124 07110 12570 42306 10140 20090 30079 40193 58001 60006 84200 91200=
07110,1998-10-18 15:00:00,15,1018.4,-0.8,67,9,15000,11.112,,,270,,,,,,,,,,,wg-a,,,,AAXX 18154 07110 12565 42706 10150 20090 30071 40184 55008 60006 84801 91500=
07110,1998-10-18 18:00:00,10,1018.7,0.1,93,9,15000,3.704,,,220,5.9,15.7,,,,,,,,1,wg-a,,,,AAXX 18184 07110 02665 52202 10100 20090 30072 40187 53001 61000 70186 84501 91800 333 10157 20059 ////=
07110,1998-10-18 21:00:00,7,1019.4,0.5,100,7,15000,3.704,,,230,,,,,,,,,,,wg-a,,,,AAXX 18214 07110 12665 32302 10070 20070 30077 40194 52005 60006 82501 92100=
07110,1998-10-19 00:00:00,9,1019.5,0.2,100,9,10000,14.816,,,270,,,,,,,,,,,wg-a,,,,AAXX 19004 07110 12460 52708 10090 20090 30079 40195 52002 60006 85500 90000=
07110,1998-10-19 03:00:00,8,1019.4,-0.1,100,8,10000,3.704,,,330,,,,2,,,,,,21,wg-a,,,,AAXX 19034 07110 12560 53302 10080 20080 30078 40194 58001 60027 72162 85500 90300=
07110,1998-10-19 06:00:00,7,1020.6,1.1,100,7,15000,7.408,,,290,6,10.3,,,,,3,,,2,wg-a,,,,AAXX 19064 07110 02565 22904 10070 20070 30089 40206 52011 60006 70261 82200 90600 333 10103 20060 60034=
07110,1998-10-19 12:00:00,14,1023.1,0.8,72,9,15000,14.816,,,290,,,,,,,,,,,wg-a,,,,AAXX 19124 07110 12565 /2908 10140 20090 30117 40231 51008 60006 85800 91200=
07110,1998-10-19 15:00:00,13,1023.1,-0.1,77,9,25000,14.816,,,300,,,,,,,,,,,wg-a,,,,AAXX 19154 07110 12575 /3008 10130 20090 30116 40231 55001 60006 86800 91500=
07110,1998-10-19 18:00:00,8,1024.3,1,93,7,15000,3.704,,,280,5.9,14.1,,,,,,,,,wg-a,,,,AAXX 19184 07110 12565 32802 10080 20070 30126 40243 52010 60006 83500 91800 333 10141 20059=
07110,1998-10-19 21:00:00,6,1025.2,0.8,100,6,15000,7.408,,,260,,,,,,,,,,,wg-a,,,,AAXX 19214 07110 12/65 32604 10060 20060 30134 40252 50008 60006 80001 92100=
07110,1998-10-20 00:00:00,6,1024.6,-0.6,100,6,15000,7.408,,,190,,,,,,,,,,,wg-a,,,,AAXX 20004 07110 12765 11904 10060 20060 30128 40246 58006 60006 81500 90000=
07110,1998-10-20 03:00:00,6,1024,-0.6,100,6,15000,3.704,,,160,,,,,,,,,,,wg-a,,,,AAXX 20034 07110 12565 51602 10060 20060 30122 40240 58006 60006 83535 90300=
07110,1998-10-20 06:00:00,8,1023.5,-0.4,100,8,15000,7.408,,,160,5.2,8.3,,,,,,,,,wg-a,,,,AAXX 20064 07110 02565 31604 10080 20080 30118 40235 55004 60006 83500 90600 333 10083 20052 60004=
07110,1998-10-20 09:00:00,11,1022.6,-0.7,94,10,15000,18.52,,,160,,,,,,,,,,,wg-a,,,,AAXX 20094 07110 12565 71610 10110 20100 30111 40226 57007 60006 8785/ 90900=
07110,1998-10-20 12:00:00,15,1021.6,-0.9,67,9,20000,31.484,,,190,,,,0,,,,,,,wg-a,,,,AAXX 20124 07110 02570 71917 10150 20090 30102 40216 58009 60006 8487/ 91200 333 60007=
07110,1998-10-20 15:00:00,14,1019.8,-1.8,82,11,20000,31.484,,,200,,,,0,,,,,,,wg-a,,,,AAXX 20154 07110 12570 72017 10140 20110 30084 40198 57018 60007 8487/ 91500=
07110,1998-10-20 18:00:00,13,1017.3,-2.5,88,11,15000,29.632,,51.856,190,7.9,15.2,,,,,,,,,wg-a,,,,AAXX 20184 07110 12565 81916 10130 20110 30059 40173 56025 60006 8687/ 91800 333 10152 20079 91028=
07110,1998-10-20 21:00:00,14,1016,-1.3,82,11,12000,42.596,,61.116,190,,,,,,,,,,,wg-a,,,,AAXX 20214 07110 12562 81923 10140 20110 30046 40160 58013 60006 8687/ 92100 333 91033=
07110,1998-10-21 00:00:00,13,1014.7,-1.3,94,12,500,31.484,,,190,,,,0,,,,,,60,wg-a,,,,AAXX 21004 07110 02400 81917 10130 20120 30033 40147 56013 60006 76062 8687/ 90000 333 60007=
07110,1998-10-21 03:00:00,14,1012.9,-1.7,100,14,500,31.484,,53.708,200,,,,0,,,,,,3,wg-a,,,,AAXX 21034 07110 12200 82017 10140 20140 30016 40129 58017 60007 70362 877// 90300 333 91029=
07110,1998-10-21 06:00:00,15,1012.6,-0.3,94,14,4000,31.484,,,200,13,14.8,,,,,,,,61,wg-a,,,,AAXX 21064 07110 02240 82017 10150 20140 30013 40126 57003 61000 76162 877// 90600 333 10148 20130 6100=
07110,1998-10-21 09:00:00,15,1013.6,1.1,100,15,1500,31.484,,51.856,210,,,,3,,,,,,51,wg-a,,,,AAXX 21094 07110 12115 82117 10150 20150 30024 40136 53011 60037 75165 877// 90900 333 91028=
07110,1998-10-21 12:00:00,16,1014.4,0.8,94,15,4000,29.632,,,220,,,,5,,,,,,50,wg-a,,,,AAXX 21124 07110 02240 82216 10160 20150 30032 40144 51008 60076 75065 876// 91200 333 60057=
07110,1998-10-21 15:00:00,16,1014.3,-0.1,100,16,2000,29.632,,,220,,,,,,,,,,50,wg-a,,,,AAXX 21154 07110 02120 82216 10160 20160 30031 40143 58001 61000 75055 886// 91500 333 ////=
07110,1998-10-21 18:00:00,15,1015.6,1.2,100,15,300,22.224,,,210,14.4,15.8,,1,,,,,,44,wg-a,,,,AAXX 21184 07110 02103 82112 10150 20150 30043 40156 53012 60006 74454 887// 91800 333 10158 20144 60017=
07110,1998-10-21 21:00:00,15,1016.5,0.9,100,15,300,25.928,,,200,,,,0,,,,,,44,wg-a,,,,AAXX 21214 07110 12103 82014 10150 20150 30052 40165 51009 60007 74444 886// 92100=
07110,1998-10-22 00:00:00,15,1017.1,0.6,100,15,3000,22.224,,,210,,,,0,,,,,,10,wg-a,,,,AAXX 22004 07110 02130 82112 10150 20150 30058 40171 50006 60016 71054 887// 90000 333 60007=
07110,1998-10-22 03:00:00,15,1017.3,0.2,100,15,3000,25.928,,,200,,,,0,,,,,,10,wg-a,,,,AAXX 22034 07110 12130 82014 10150 20150 30060 40173 52002 60007 71055 887// 90300=
07110,1998-10-22 06:00:00,15,1017.4,0.1,100,15,6000,25.928,,,210,15.1,15.5,,,,,,,,50,wg-a,,,,AAXX 22064 07110 02156 82114 10150 20150 30061 40174 50001 61000 75052 887// 90600 333 10155 20151 6100=
07110,1998-10-22 09:00:00,15,1018.9,1.5,100,15,3000,25.928,,,210,,,,,,,,,,50,wg-a,,,,AAXX 22094 07110 02130 82114 10150 20150 30076 40189 53015 61000 75052 887// 90900 333 ////=
07110,1998-10-22 12:00:00,16,1018.4,-0.5,94,15,4000,31.484,,,190,,,,,,,,,,1,wg-a,,,,AAXX 22124 07110 02340 81917 10160 20150 30071 40184 56005 61000 70152 877// 91200 333 6100=
07110,1998-10-22 15:00:00,16,1017.5,-0.9,94,15,4000,31.484,,,200,,,,1,,,,,,51,wg-a,,,,AAXX 22154 07110 12240 82017 10160 20150 30062 40175 58009 60017 75165 877// 91500=
07110,1998-10-22 18:00:00,16,1016.6,-0.9,94,15,500,35.188,,,190,15,15.8,,,,,,,,20,wg-a,,,,AAXX 22184 07110 02200 81919 10160 20150 30053 40166 56009 61000 72065 877// 91800 333 10158 20150 6100=
07110,1998-10-22 21:00:00,16,1015.7,-0.9,94,15,500,35.188,,55.56,200,,,,0,,,,,,2,wg-a,,,,AAXX 22214 07110 12200 82019 10160 20150 30044 40157 58009 60007 70262 876// 92100 333 91030=
07110,1998-10-23 00:00:00,16,1014.5,-1.1,94,15,6000,42.596,,59.264,210,,,,,,,,,,1,wg-a,,,,AAXX 23004 07110 12356 82123 10160 20150 30033 40145 58011 60006 70162 876// 90000 333 91032=
07110,1998-10-23 03:00:00,16,1012.9,-1.6,94,15,3500,35.188,,61.116,220,,,,3,,,,,,58,wg-a,,,,AAXX 23034 07110 12235 82219 10160 20150 30017 40129 56016 60037 75865 887// 90300 333 91033=
07110,1998-10-23 06:00:00,15,1013,-0,94,14,2000,31.484,,61.116,260,14.6,15.8,,,,,,,,65,wg-a,,,,AAXX 23064 07110 02220 82617 10150 20140 30017 40130 55000 61000 76565 887// 90600 333 10158 20146 6100 91033=
07110,1998-10-23 09:00:00,14,1014.4,1.4,100,14,8000,22.224,,,220,,,,3,,,,,,21,wg-a,,,,AAXX 23094 07110 12258 82212 10140 20140 30031 40144 53014 60037 72162 855// 90900=
07110,1998-10-23 12:00:00,16,1015,0.6,94,15,10000,22.224,,,240,,,,,,,,,,3,wg-a,,,,AAXX 23124 07110 12360 82412 10160 20150 30037 40150 50006 60036 70362 877// 91200=
07110,1998-10-23 18:00:00,12,1019.5,3,88,10,15000,11.112,,,280,12.1,16,,,,,,,,3,wg-a,,,,AAXX 23184 07110 12465 32806 10120 20100 30080 40195 53030 60006 70386 82801 91800 333 10160 20121=
07110,1998-10-23 21:00:00,9,1021.3,1.7,93,8,15000,3.704,,,230,,,,,,,,,,,wg-a,,,,AAXX 23214 07110 12/65 02302 10090 20080 30097 40213 53017 60006 80000 92100=
07110,1998-10-24 00:00:00,10,1020.3,-1,100,10,8000,11.112,,,160,,,,,,,,,,,wg-a,,,,AAXX 24004 07110 12658 41606 10100 20100 30087 40203 58010 60006 82502 90000=
07110,1998-10-24 03:00:00,12,1016.6,-3.5,100,12,10000,22.224,,,170,,,,,,,,,,,wg-a,,,,AAXX 24034 07110 12260 81712 10120 20120 30052 40166 58035 60006 877// 90300=
07110,1998-10-24 06:00:00,13,1011.3,-5.2,100,13,8000,38.892,,,180,8.2,13.6,,,,,,,,61,wg-a,,,,AAXX 24064 07110 02458 81821 10130 20130 30000 40113 58052 61000 76161 875// 90600 333 10136 20082 6006=
07110,1998-10-24 09:00:00,15,1005.8,-5.4,100,15,500,35.188,,62.968,200,,,,11,,,,,,10,wg-a,,,,AAXX 24094 07110 12100 82019 10150 20150 39946 40058 56054 60117 71066 887// 90900 333 91034=
07110,1998-10-24 12:00:00,16,1001.3,-4.4,100,16,1500,38.892,,64.82,230,,,,13,,,,,,63,wg-a,,,,AAXX 24124 07110 02115 82321 10160 20160 39902 40013 56044 60256 76366 887// 91200 333 60137 91035=
07110,1998-10-24 15:00:00,14,998.3,-3,100,14,4000,31.484,,51.856,250,,,,13,,,,,,10,wg-a,,,,AAXX 24154 07110 12240 82517 10140 20140 39872 49983 56030 60137 71066 887// 91500 333 91028=
07110,1998-10-24 18:00:00,13,998.4,-0,94,12,7000,29.632,,,250,11.9,16.2,,,,,,,,21,wg-a,,,,AAXX 24184 07110 02457 82516 10130 20120 39872 49984 55000 61000 72162 8557/ 91800 333 10162 20119 6006=
07110,1998-10-24 21:00:00,14,999.5,1.1,77,10,10000,38.892,,68.524,270,,,,0,,,,,,1,wg-a,,,,AAXX 24214 07110 12560 42721 10140 20100 39883 49995 51011 60007 70161 84200 92100 333 91037=
07110,1998-10-25 00:00:00,13,1002.1,2.6,88,11,10000,25.928,,,270,,,,0,,,,,,3,wg-a,,,,AAXX 25004 07110 02560 62714 10130 20110 39909 40021 51026 60016 70386 86800 90000 333 60007=
07110,1998-10-25 03:00:00,12,1004.3,2.1,88,10,11000,18.52,,,280,,,,,,,,,,,wg-a,,,,AAXX 25034 07110 12/61 /2810 10120 20100 39930 40043 51021 60006 90300=
07110,1998-10-25 06:00:00,11,1006.3,2,87,9,15000,18.52,,,280,10.9,13.7,,,,,,,,25,wg-a,,,,AAXX 25064 07110 02565 42810 10110 20090 39950 40063 52020 61000 72586 84800 90600 333 10137 20109 6045=
07110,1998-10-25 09:00:00,13,1008.6,2.3,82,10,20000,25.928,,50.004,280,,,,,,,,,,25,wg-a,,,,AAXX 25094 07110 02470 52814 10130 20100 39973 40086 51023 61000 72511 85301 90900 333 //// 91027=
07110,1998-10-25 12:00:00,15,1010,1.4,67,9,20000,25.928,,44.448,290,,,,,,,,,,3,wg-a,,,,AAXX 25124 07110 02570 /2914 10150 20090 39987 40100 51014 61000 70386 86200 91200 333 //// 91024=
07110,1998-10-25 15:00:00,14,1010.2,0.2,77,10,20000,25.928,,,270,,,,,,,,,,,wg-a,,,,AAXX 25154 07110 12570 /2714 10140 20100 39989 40102 51002 60006 85200 91500=
07110,1998-10-25 18:00:00,9,1012.4,2,93,8,20000,11.112,,,260,8.5,14.6,,3,,,,,,25,wg-a,,,,AAXX 25184 07110 12570 22606 10090 20080 30009 40124 51020 60037 72586 82200 91800 333 10146 20085=
07110,1998-10-25 21:00:00,8,1013.7,1.2,100,8,20000,7.408,,,260,,,,0,,,,,,,wg-a,,,,AAXX 25214 07110 12570 /2604 10080 20080 30021 40137 51012 60007 81200 92100=
07110,1998-10-26 00:00:00,8,1013.5,-0.2,100,8,15000,11.112,,,210,,,,,,,,,,,wg-a,,,,AAXX 26004 07110 12565 42106 10080 20080 30019 40135 58002 60006 84800 90000=
07110,1998-10-26 03:00:00,10,1012.9,-0.5,93,9,8000,11.112,,,230,,,,2,,,,,,80,wg-a,,,,AAXX 26034 07110 12458 /2306 10100 20090 30014 40129 58005 60027 78086 86900 90300=
07110,1998-10-26 06:00:00,8,1014.5,1.5,100,8,15000,11.112,,,270,7.1,10.3,,,,,6,,,1,wg-a,,,,AAXX 26064 07110 02565 52706 10080 20080 30029 40145 53015 60006 70186 85800 90600 333 10103 20071 60064=
07110,1998-10-26 09:00:00,12,1016.6,2.3,76,8,15000,14.816,,,290,,,,,,,,,,,wg-a,,,,AAXX 26094 07110 12565 22908 10120 20080 30052 40166 51023 60006 82800 90900=
07110,1998-10-26 12:00:00,13,1017.8,1.2,82,10,8000,25.928,,,280,,,,2,,,,,,80,wg-a,,,,AAXX 26124 07110 02558 62814 10130 20100 30064 40178 53012 60026 78086 86900 91200 333 60027=
07110,1998-10-26 18:00:00,9,1022.4,2.2,93,8,15000,7.408,,,230,8.1,13.7,,,,,,,,1,wg-a,,,,AAXX 26184 07110 12665 32304 10090 20080 30108 40224 51022 60006 70186 82501 91800 333 10137 20081=
07110,1998-10-27 00:00:00,13,1021.2,-0.7,88,11,15000,22.224,,,230,,,,,,,,,,,wg-a,,,,AAXX 27004 07110 12465 /2312 10130 20110 30098 40212 58007 60006 85500 90000=
07110,1998-10-27 03:00:00,13,1019.8,-1.4,88,11,15000,25.928,,42.596,230,,,,,,,,,,,wg-a,,,,AAXX 27034 07110 12465 /2314 10130 20110 30084 40198 58014 60006 86500 90300 333 91023=
07110,1998-10-27 06:00:00,14,1018.5,-1.3,88,12,15000,25.928,,,230,8.1,13.5,,,,,2,,,,wg-a,,,,AAXX 27064 07110 02465 82314 10140 20120 30071 40185 56013 60006 85506 90600 333 10135 20081 60024=
07110,1998-10-27 09:00:00,14,1017.8,-0.7,94,13,10000,29.632,,53.708,220,,,,,,,,,,,wg-a,,,,AAXX 27094 07110 12460 82216 10140 20130 30064 40178 56007 60006 885// 90900 333 91029=
07110,1998-10-27 12:00:00,14,1016.3,-1.4,100,14,7000,31.484,,51.856,230,,,,3,,,,,,60,wg-a,,,,AAXX 27124 07110 02257 82317 10140 20140 30050 40163 58014 60036 76062 877// 91200 333 60037 91028=
07110,1998-10-27 15:00:00,15,1014.8,-1.5,94,14,8000,31.484,,59.264,220,,,,,,,,,,1,wg-a,,,,AAXX 27154 07110 02458 82217 10150 20140 30035 40148 57015 61000 70162 885// 91500 333 //// 91032=
07110,1998-10-27 18:00:00,14,1013.6,-1.2,94,13,8000,31.484,,50.004,210,13.4,15,,,,,,,,3,wg-a,,,,AAXX 27184 07110 12358 82117 10140 20130 30023 40136 58012 60006 70362 885// 91800 333 10150 20134 91027=
07110,1998-10-27 21:00:00,15,1011.1,-2.5,100,15,2000,31.484,,51.856,210,,,,6,,,,,,10,wg-a,,,,AAXX 27214 07110 12120 82117 10150 20150 39998 40111 58025 60067 71065 887// 92100 333 91028=
07110,1998-10-28 00:00:00,15,1010.8,-0.2,100,15,3000,29.632,,,240,,,,1,,,,,,51,wg-a,,,,AAXX 28004 07110 02130 82416 10150 20150 39996 40108 58002 60066 75165 887// 90000 333 60017=
07110,1998-10-28 03:00:00,15,1010.9,0.1,100,15,800,35.188,,53.708,250,,,,1,,,,,,51,wg-a,,,,AAXX 28034 07110 12108 82519 10150 20150 39997 40109 52001 60017 75166 887// 90300 333 91029=
07110,1998-10-28 06:00:00,16,1011.3,0.4,94,15,6000,31.484,,72.228,230,13.8,15.8,,,,,,,,20,wg-a,,,,AAXX 28064 07110 02256 82317 10160 20150 30001 40113 53004 61000 72065 887// 90600 333 10158 20138 6010 91039=
07110,1998-10-28 09:00:00,16,1011.8,0.5,100,16,1000,29.632,,53.708,240,,,,3,,,,,,51,wg-a,,,,AAXX 28094 07110 12110 82416 10160 20160 30006 40118 53005 60037 75165 887// 90900 333 91029=
07110,1998-10-28 12:00:00,16,1013.4,1.6,88,14,10000,25.928,,51.856,250,,,,1,,,,,,1,wg-a,,,,AAXX 28124 07110 02460 82514 10160 20140 30022 40134 51016 60046 70165 875// 91200 333 60017 91028=
07110,1998-10-28 15:00:00,15,1012.2,-1.3,94,14,2000,22.224,,40.744,230,,,,1,,,,,,58,wg-a,,,,AAXX 28154 07110 12220 82312 10150 20140 30009 40122 58013 60017 75865 887// 91500 333 91022=
07110,1998-10-28 18:00:00,13,1012.5,0.3,100,13,1500,18.52,,,290,13.3,15.9,,,,,,,,58,wg-a,,,,AAXX 28184 07110 02115 82910 10130 20130 30012 40125 53003 61000 75865 887// 91800 333 10159 20133 6006=
07110,1998-10-28 21:00:00,13,1013,0.4,94,12,3500,29.632,,,270,,,,4,,,,,,51,wg-a,,,,AAXX 28214 07110 12435 82716 10130 20120 30016 40130 50004 60047 75166 885// 92100=
07110,1998-10-29 00:00:00,11,1014,1,94,10,500,18.52,,,280,,,,3,,,,,,21,wg-a,,,,AAXX 29004 07110 02505 /2810 10110 20100 30026 40140 51010 60076 72165 85500 90000 333 60037=
07110,1998-10-29 06:00:00,10,1018.7,3.5,87,8,10000,22.224,,,290,10.1,13.3,,,,,,,,25,wg-a,,,,AAXX 29064 07110 02560 72912 10100 20080 30072 40187 53035 61000 72586 873// 90600 333 10133 20101 6019=
07110,1998-10-29 09:00:00,12,1023,4.3,76,8,15000,22.224,,,310,,,,0,,,,,,2,wg-a,,,,AAXX 29094 07110 12565 43112 10120 20080 30115 40230 52043 60007 70286 84300 90900=
07110,1998-10-29 12:00:00,13,1026.4,3.4,62,6,25000,22.224,,,300,,,,,,,,,,1,wg-a,,,,AAXX 29124 07110 12575 43012 10130 20060 30149 40264 53034 60006 70186 84800 91200=
07110,1998-10-29 18:00:00,9,1027.9,0.3,81,6,15000,11.112,,,260,9.1,13.2,,,,,,,,,wg-a,,,,AAXX 29184 07110 12565 22606 10090 20060 30162 40279 51003 60006 81801 91800 333 10132 20091=
07110,1998-10-29 21:00:00,10,1027.3,-0.5,82,7,15000,11.112,,,270,,,,,,,,,,,wg-a,,,,AAXX 29214 07110 12565 32706 10100 20070 30157 40273 56005 60006 83200 92100=
07110,1998-10-30 00:00:00,11,1026.9,-0.4,82,8,15000,18.52,,,260,,,,0,,,,,,3,wg-a,,,,AAXX 30004 07110 02565 52610 10110 20080 30153 40269 58004 60016 70386 85800 90000 333 60007=
07110,1998-10-30 03:00:00,11,1025.7,-1.2,87,9,15000,18.52,,,270,,,,0,,,,,,1,wg-a,,,,AAXX 30034 07110 12565 /2710 10110 20090 30141 40257 58012 60007 70186 85800 90300=
07110,1998-10-30 06:00:00,11,1025,-0.7,87,9,15000,18.52,,,270,8.9,11,,0,,,1,,,1,wg-a,,,,AAXX 30064 07110 02565 62710 10110 20090 30134 40250 56007 60014 70186 86800 90600 333 10110 20089 60007=
07110,1998-10-30 12:00:00,13,1025.5,0.4,88,11,12000,18.52,,,300,,,,0,,,,,,25,wg-a,,,,AAXX 30124 07110 02462 73010 10130 20110 30140 40255 51004 60006 72586 85801 91200 333 60007=
07110,1998-10-30 15:00:00,13,1024.7,-0.8,82,10,15000,22.224,,,290,,,,,,,,,,,wg-a,,,,AAXX 30154 07110 12465 62912 10130 20100 30132 40247 56008 60006 84801 91500=
07110,1998-10-30 18:00:00,10,1024.7,-0.1,93,9,15000,7.408,,,250,9.8,13.3,,,,,,,,,wg-a,,,,AAXX 30184 07110 12465 42504 10100 20090 30131 40247 56001 60006 84800 91800 333 10133 20098=
07110,1998-10-30 21:00:00,9,1023.7,-1.1,100,9,10000,7.408,,,210,,,,,,,,,,,wg-a,,,,AAXX 30214 07110 12560 /2104 10090 20090 30120 40237 58011 60006 86800 92100=
07110,1998-10-31 00:00:00,11,1022.3,-1.3,94,10,9000,11.112,,,240,,,,,,,,,,,wg-a,,,,AAXX 31004 07110 12459 72406 10110 20100 30107 40223 58013 60006 875// 90000=
07110,1998-10-31 03:00:00,11,1019.4,-2.8,100,11,6000,14.816,,,230,,,,2,,,,,,61,wg-a,,,,AAXX 31034 07110 12456 82308 10110 20110 30079 40194 58028 60027 76186 8657/ 90300=
07110,1998-10-31 06:00:00,11,1016.5,-2.9,100,11,500,18.52,,,220,8.5,11.2,,,,,,,,21,wg-a,,,,AAXX 31064 07110 02300 82210 10110 20110 30050 40165 56029 61000 72186 875// 90600 333 10112 20085 6005=
07110,1998-10-31 09:00:00,12,1014,-2.4,94,11,6000,29.632,,,220,,,,0,,,,,,60,wg-a,,,,AAXX 31094 07110 12256 82216 10120 20110 30026 40140 56024 60007 76062 878// 90900=
07110,1998-10-31 12:00:00,13,1010.5,-3.4,100,13,3000,31.484,,48.152,220,,,,5,,,,,,10,wg-a,,,,AAXX 31124 07110 02330 82217 10130 20130 39992 40105 58034 60056 71062 877// 91200 333 60057 91026=
07110,1998-10-31 15:00:00,14,1006.6,-3.8,94,13,2000,31.484,,53.708,220,,,,3,,,,,,10,wg-a,,,,AAXX 31154 07110 12120 82217 10140 20130 39954 40066 58038 60037 71062 875// 91500 333 91029=
07110,1998-10-31 18:00:00,15,1002.4,-4.2,94,14,1500,31.484,,57.412,230,11.2,14.5,,,,,,,,10,wg-a,,,,AAXX 31184 07110 02115 82317 10150 20140 39912 40024 57042 61000 71062 877// 91800 333 10145 20112 6010 91031=
07110,1998-10-31 21:00:00,14,1001.6,-0.8,100,14,6000,25.928,,48.152,260,,,,4,,,,,,21,wg-a,,,,AAXX 31214 07110 12356 72614 10140 20140 39904 40016 56008 60047 72162 867// 92100 333 91026=
07110,1998-11-01 00:00:00,13,1003,1.4,100,13,6000,25.928,,51.856,300,,,,1,,,,,,51,wg-a,,,,AAXX 01004 07110 02256 73014 10130 20130 39918 40030 53014 60056 75165 877// 90000 333 60017 91028=
07110,1998-11-01 03:00:00,11,1005.4,2.3,94,10,15000,11.112,,,340,,,,,,,,,,1,wg-a,,,,AAXX 01034 07110 02465 /3406 10110 20100 39941 40054 53023 61000 70152 85500 90300 333 ////=
07110,1998-11-01 06:00:00,11,1008.3,2.8,87,9,15000,7.408,,,330,,14.8,,,,,,,,51,wg-a,,,,AAXX 01064 07110 02565 83304 10110 20090 39969 40083 53028 61000 75152 875// 90600 333 10148 20108 6024=
07110,1998-11-01 09:00:00,11,1011.8,3.5,87,9,11000,7.408,,,320,,,,,,,,,,,wg-a,,,,AAXX 01094 07110 32/61 /3204 10110 20090 30004 40118 52035 90900=
07110,1998-11-01 12:00:00,12,1013.7,1.9,67,6,15000,14.816,,,330,,,,,,,,,,1,wg-a,,,,AAXX 01124 07110 02565 /3308 10120 20060 30023 40137 51019 61000 70152 85500 91200 333 ////=
07110,1998-11-01 15:00:00,11,1013.8,0.1,62,4,15000,14.816,,,360,,,,,,,,,,,wg-a,,,,AAXX 01154 07110 12665 /3608 10110 20040 30024 40138 50001 60006 83501 91500=
07110,1998-11-02 00:00:00,5,1012.6,-1.6,100,5,15000,11.112,,,160,,,,,,,,,,,wg-a,,,,AAXX 02004 07110 12665 51606 10050 20050 30009 40126 58016 60006 84501 90000=
07110,1998-11-02 03:00:00,7,1009.4,-3.1,93,6,15000,11.112,,,160,,,,0,,,,,,,wg-a,,,,AAXX 02034 07110 12665 71606 10070 20060 39978 40094 58031 60007 875// 90300=
07110,1998-11-02 06:00:00,8,1005.7,-3.6,93,7,10000,11.112,,,170,3.3,8.2,,,,,,,,50,wg-a,,,,AAXX 02064 07110 02460 81706 10080 20070 39942 40057 56036 61000 75052 875// 90600 333 10082 20033 6000=
07110,1998-11-02 09:00:00,12,1002.9,-2.6,94,11,8000,25.928,,,200,,,,,,,,,,3,wg-a,,,,AAXX 02094 07110 02358 82014 10120 20110 39916 40029 56026 61000 70352 878// 90900 333 ////=
07110,1998-11-02 12:00:00,14,999.4,-3.4,88,12,15000,31.484,,61.116,210,,,,,,,,,,3,wg-a,,,,AAXX 02124 07110 02465 72117 10140 20120 39882 49994 58034 61000 70352 878// 91200 333 //// 91033=
07110,1998-11-02 15:00:00,12,997.8,-1.6,82,9,8000,22.224,,,270,,,,2,,,,,,21,wg-a,,,,AAXX 02154 07110 12558 52712 10120 20090 39866 49978 55016 60027 72162 84801 91500=
07110,1998-11-02 18:00:00,10,997.7,-0.2,87,8,10000,22.224,,,260,8.1,14.1,,0,,,,,,1,wg-a,,,,AAXX 02184 07110 02560 32612 10100 20080 39864 49977 55002 60006 70186 83801 91800 333 10141 20081 60007=
07110,1998-11-02 21:00:00,10,998.3,0.6,82,7,15000,22.224,,,270,,,,,,,,,,,wg-a,,,,AAXX 02214 07110 12565 22712 10100 20070 39870 49983 51006 60006 82200 92100=
07110,1998-11-03 00:00:00,10,999.3,0.9,71,5,15000,29.632,,46.3,270,,,,0,,,,,,2,wg-a,,,,AAXX 03004 07110 02565 22716 10100 20050 39879 49993 51009 60006 70286 82200 90000 333 60007 91025=
07110,1998-11-03 03:00:00,9,998.8,-0.5,76,5,20000,22.224,,,260,,,,,,,,,,,wg-a,,,,AAXX 03034 07110 12570 22612 10090 20050 39874 49988 58005 60006 82800 90300=
07110,1998-11-03 06:00:00,9,998.5,-0.3,76,5,20000,18.52,,,250,8.6,10.5,,,,,2,,,,wg-a,,,,AAXX 03064 07110 02570 22510 10090 20050 39871 49985 56003 60006 82800 90600 333 10105 20086 60024=
07110,1998-11-03 09:00:00,10,999.2,0.8,76,6,20000,18.52,,,240,,,,,,,,,,25,wg-a,,,,AAXX 03094 07110 02470 32410 10100 20060 39879 49992 51008 61000 72586 83900 90900 333 ////=
07110,1998-11-03 12:00:00,11,998.9,-0.3,76,7,11000,22.224,,42.596,250,,,,0,,,,,,,wg-a,,,,AAXX 03124 07110 02/61 /2512 10110 20070 39876 49989 58003 60006 91200 333 60007 91023=
07110,1998-11-03 15:00:00,9,998.5,-0.4,87,7,8000,11.112,,,250,,,,,,,,,,25,wg-a,,,,AAXX 03154 07110 02558 72506 10090 20070 39872 49985 56004 61000 72586 87903 91500 333 ////=
07110,1998-11-03 18:00:00,6,999.2,0.5,93,5,15000,7.408,,,260,5.9,11.7,,1,,,,,,1,wg-a,,,,AAXX 03184 07110 02565 42604 10060 20050 39877 49992 53005 60006 70186 84900 91800 333 10117 20059 60017=
07110,1998-11-03 21:00:00,7,1000.1,0.9,93,6,15000,14.816,,,260,,,,,,,,,,3,wg-a,,,,AAXX 03214 07110 02565 42608 10070 20060 39886 40001 51009 61000 70386 84800 92100 333 ////=
07110,1998-11-04 00:00:00,9,1001,1,87,7,20000,14.816,,,300,,,,2,,,,,,25,wg-a,,,,AAXX 04004 07110 02470 /3008 10090 20070 39896 40010 53010 60026 72586 86800 90000 333 60027=
07110,1998-11-04 03:00:00,7,1002.4,1.3,100,7,15000,3.704,,,260,,,,1,,,,,,25,wg-a,,,,AAXX 04034 07110 12465 52602 10070 20070 39909 40024 53013 60017 72586 85900 90300=
07110,1998-11-04 06:00:00,6,1004.6,2.2,100,6,15000,3.704,,,300,5.9,8.6,,,,,4,,,2,wg-a,,,,AAXX 04064 07110 02465 63002 10060 20060 39931 40046 53022 60006 70286 86930 90600 333 10086 20059 60044=
07110,1998-11-04 12:00:00,8,1010,2.7,87,6,10000,7.408,,,340,,,,0,,,,,,25,wg-a,,,,AAXX 04124 07110 02560 73404 10080 20060 39985 40100 51027 60006 72586 879// 91200 333 60007=
07110,1998-11-04 18:00:00,7,1013.8,2.4,76,3,15000,11.112,,,340,6.3,11,,0,,,,,,3,wg-a,,,,AAXX 04184 07110 02565 53406 10070 20030 30022 40138 53024 60006 70386 85800 91800 333 10110 20063 60007=
07110,1998-11-04 21:00:00,5,1016.4,2.5,81,2,15000,7.408,,,340,,,,,,,,,,,wg-a,,,,AAXX 04214 07110 12665 23404 10050 20020 30047 40164 52025 60006 82500 92100=
07110,1998-11-05 00:00:00,3,1018.3,1.7,87,1,15000,3.704,,,290,,,,,,,,,,,wg-a,,,,AAXX 05004 07110 12765 22902 10030 20010 30064 40183 51017 60006 82500 90000=
07110,1998-11-05 03:00:00,2,1019.7,1.4,93,1,15000,7.408,,,260,,,,,,,,,,,wg-a,,,,AAXX 05034 07110 12665 42604 10020 20010 30078 40197 51014 60006 84500 90300=
07110,1998-11-05 06:00:00,3,1021.1,1.4,93,2,15000,7.408,,,270,1.2,6.8,,,,,1,,,,wg-a,,,,AAXX 05064 07110 02665 /2704 10030 20020 30092 40211 53014 60006 86500 90600 333 10068 20012 60014=
07110,1998-11-05 09:00:00,9,1022.2,1.3,71,4,15000,7.408,,,220,,,,,,,,,,,wg-a,,,,AAXX 05094 07110 12665 /2204 10090 20040 30105 40222 53013 60006 85500 90900=
07110,1998-11-05 12:00:00,12,1022.5,0.5,67,6,15000,18.52,,,250,,,,,,,,,,,wg-a,,,,AAXX 05124 07110 12565 /2510 10120 20060 30110 40225 50005 60006 86800 91200=
07110,1998-11-05 15:00:00,11,1022.3,-0.2,76,7,15000,14.816,,,240,,,,,,,,,,,wg-a,,,,AAXX 05154 07110 12465 72408 10110 20070 30108 40223 58002 60006 87800 91500=
07110,1998-11-05 18:00:00,9,1023.4,1,93,8,10000,11.112,,,230,3,11.8,,,,,,,,25,wg-a,,,,AAXX 05184 07110 02460 82306 10090 20080 30118 40234 51010 61000 72586 88800 91800 333 10118 20030 6000=
07110,1998-11-05 21:00:00,9,1024.2,0.8,100,9,20000,11.112,,,230,,,,,,,,,,,wg-a,,,,AAXX 05214 07110 12570 /2306 10090 20090 30126 40242 51008 60006 85800 92100=
07110,1998-11-06 00:00:00,10,1024.9,0.7,93,9,15000,7.408,,,240,,,,,,,,,,,wg-a,,,,AAXX 06004 07110 12565 42404 10100 20090 30133 40249 51007 60006 84800 90000=
07110,1998-11-06 03:00:00,9,1025.6,0.7,93,8,15000,7.408,,,230,,,,0,,,,,,1,wg-a,,,,AAXX 06034 07110 12465 /2304 10090 20080 30140 40256 52007 60007 70186 86800 90300=
07110,1998-11-06 06:00:00,9,1026.5,0.8,93,8,20000,3.704,,,220,8.8,10,,,,,1,,,2,wg-a,,,,AAXX 06064 07110 02570 72202 10090 20080 30148 40265 53008 60006 70286 87800 90600 333 10100 20088 60014=
07110,1998-11-06 09:00:00,10,1028,1.6,100,10,20000,3.704,,,210,,,,,,,,,,,wg-a,,,,AAXX 06094 07110 12570 72102 10100 20100 30164 40280 53016 60006 878// 90900=
07110,1998-11-06 12:00:00,12,1028,0.1,88,10,20000,7.408,,,240,,,,,,,,,,,wg-a,,,,AAXX 06124 07110 12470 /2404 10120 20100 30165 40280 50001 60006 86800 91200=
07110,1998-11-06 15:00:00,13,1028.2,0.2,82,10,20000,3.704,,,230,,,,,,,,,,,wg-a,,,,AAXX 06154 07110 12570 72302 10130 20100 30167 40282 53002 60006 878// 91500=
07110,1998-11-06 18:00:00,11,1028.7,0.4,94,10,20000,7.408,,,180,8.9,12.9,,,,,,,,,wg-a,,,,AAXX 06184 07110 12570 71804 10110 20100 30171 40287 51004 60006 878// 91800 333 10129 20089=
07110,1998-11-06 21:00:00,10,1028.8,0.1,100,10,20000,7.408,,,150,,,,,,,,,,,wg-a,,,,AAXX 06214 07110 12470 71504 10100 20100 30172 40288 51001 60006 878// 92100=
07110,1998-11-07 00:00:00,8,1028.2,-0.7,93,7,20000,7.408,,,140,,,,,,,,,,,wg-a,,,,AAXX 07004 07110 12670 31404 10080 20070 30165 40282 58007 60006 83500 90000=
07110,1998-11-07 03:00:00,8,1026.6,-1.6,93,7,10000,14.816,,,130,,,,,,,,,,,wg-a,,,,AAXX 07034 07110 12/60 01308 10080 20070 30149 40266 58016 60006 80000 90300=
07110,1998-11-07 06:00:00,8,1025.6,-1,93,7,10000,11.112,,,140,6.5,10.7,,,,,,,,,wg-a,,,,AAXX 07064 07110 02560 /1406 10080 20070 30139 40256 55010 60006 86501 90600 333 10107 20065 60004=
07110,1998-11-07 09:00:00,10,1024.1,-1.4,87,8,15000,18.52,,,150,,,,,,,,,,,wg-a,,,,AAXX 07094 07110 12565 41510 10100 20080 30125 40241 56014 60006 82501 90900=
07110,1998-11-07 12:00:00,13,1021.8,-2.2,77,9,15000,42.596,,61.116,160,,,,,,,,,,,wg-a,,,,AAXX 07124 07110 12565 /1623 10130 20090 30103 40218 56022 60006 85501 91200 333 91033=
07110,1998-11-07 15:00:00,13,1019.2,-2.5,77,9,15000,35.188,,,160,,,,,,,,,,,wg-a,,,,AAXX 07154 07110 12565 /1619 10130 20090 30078 40192 58025 60006 82506 91500=
07110,1998-11-07 18:00:00,11,1018.1,-1.2,87,9,15000,31.484,,,170,7.3,13.5,,,,,,,,,wg-a,,,,AAXX 07184 07110 12565 71717 10110 20090 30066 40181 56012 60006 84506 91800 333 10135 20073=
07110,1998-11-07 21:00:00,12,1016.9,-1.1,88,10,15000,29.632,,,170,,,,,,,,,,,wg-a,,,,AAXX 07214 07110 12465 71716 10120 20100 30055 40169 57011 60006 86501 92100=
07110,1998-11-08 00:00:00,13,1014.8,-2.1,88,11,15000,31.484,,,170,,,,,,,,,,,wg-a,,,,AAXX 08004 07110 12465 81717 10130 20110 30034 40148 58021 60006 8557/ 90000=
07110,1998-11-08 03:00:00,14,1013.9,-0.8,88,12,8000,35.188,,,180,,,,1,,,,,,60,wg-a,,,,AAXX 08034 07110 12358 81819 10140 20120 30026 40139 58008 60017 76062 888// 90300=
07110,1998-11-08 06:00:00,15,1013.2,-0.7,100,15,3000,38.892,,62.968,190,10.8,14.5,,,,,,,,61,wg-a,,,,AAXX 08064 07110 02130 81921 10150 20150 30019 40132 57007 61000 76165 887// 90600 333 10145 20108 6002 91034=
07110,1998-11-08 09:00:00,14,1015.4,2.2,100,14,1000,18.52,,,220,,,,3,,,,,,50,wg-a,,,,AAXX 08094 07110 12110 82210 10140 20140 30041 40154 53022 60037 75065 887// 90900=
07110,1998-11-08 12:00:00,14,1016.2,0.8,100,14,1000,14.816,,,190,,,,2,,,,,,50,wg-a,,,,AAXX 08124 07110 02110 81908 10140 20140 30049 40162 50008 60056 75065 877// 91200 333 60027=
07110,1998-11-08 15:00:00,15,1015.8,-0.4,100,15,200,31.484,,50.004,200,,,,1,,,,,,51,wg-a,,,,AAXX 08154 07110 12102 82017 10150 20150 30045 40158 55004 60017 75165 877// 91500 333 91027=
07110,1998-11-08 18:00:00,15,1015.9,0.1,100,15,2000,31.484,,53.708,200,13.8,15,,,,,,,,20,wg-a,,,,AAXX 08184 07110 02120 82017 10150 20150 30046 40159 52001 61000 72065 877// 91800 333 10150 20138 6100 91029=
07110,1998-11-08 21:00:00,15,1015.5,-0.4,100,15,4000,38.892,,59.264,200,,,,,,,,,,10,wg-a,,,,AAXX 08214 07110 12140 82021 10150 20150 30042 40155 58004 60006 71022 887// 92100 333 91032=
07110,1998-11-09 00:00:00,16,1014.5,-0.9,94,15,4000,42.596,,,200,,,,,,,,,,20,wg-a,,,,AAXX 09004 07110 02340 82023 10160 20150 30033 40145 56009 61000 72052 887// 90000 333 6100=
07110,1998-11-09 03:00:00,15,1013.8,-0.7,100,15,2000,38.892,,64.82,220,,,,7,,,,,,61,wg-a,,,,AAXX 09034 07110 12120 82221 10150 20150 30026 40138 55007 60077 76165 887// 90300 333 91035=
07110,1998-11-09 06:00:00,14,1015.7,1.8,100,14,12000,14.816,,,230,14.2,15.8,,,,,14,,,1,wg-a,,,,AAXX 09064 07110 02362 72308 10140 20140 30044 40157 52018 60006 70165 87100 90600 333 10158 20142 60144=
07110,1998-11-09 09:00:00,14,1017.8,2,94,13,8000,14.816,,,230,,,,,,,,,,,wg-a,,,,AAXX 09094 07110 12558 /2308 10140 20130 30064 40178 52020 60006 83531 90900=
07110,1998-11-09 11:00:00,15,1019.1,0.1,88,13,8000,11.112,,,230,,16.5,,,,,,,,,wg-a,,,,AAXX 09114 07110 12258 72306 10150 20130 30077 40191 53001 60006 875// 91100 333 10165=
07110,1998-11-09 12:00:00,15,1018.9,1.2,82,12,10000,18.52,,,250,,,,,,,,,,,wg-a,,,,AAXX 09124 07110 12560 /2510 10150 20120 30076 40189 51012 60006 82830 91200=
07110,1998-11-09 15:00:00,15,1018.9,-0,82,12,12000,18.52,,,250,,,,,,,,,,,wg-a,,,,AAXX 09154 07110 12462 72510 10150 20120 30076 40189 55000 60006 8583/ 91500=
07110,1998-11-09 18:00:00,13,1019.1,0.1,100,13,8000,11.112,,,230,13.1,16.5,,,,,,,,,wg-a,,,,AAXX 09184 07110 12258 72306 10130 20130 30077 40191 53001 60006 875// 91800 333 10165 20131=
07110,1998-11-09 21:00:00,13,1018.7,-0.4,94,12,6000,18.52,,,210,,,,,,,,,,,wg-a,,,,AAXX 09214 07110 12/56 /2110 10130 20120 30073 40187 58004 60006 92100=
07110,1998-11-10 00:00:00,13,1017.5,-1.2,100,13,10000,18.52,,,210,,,,,,,,,,,wg-a,,,,AAXX 10004 07110 12260 72110 10130 20130 30061 40175 58012 60006 875// 90000=
07110,1998-11-10 03:00:00,12,1017.9,0.4,94,11,10000,18.52,,,300,,,,3,,,,,,21,wg-a,,,,AAXX 10034 07110 12460 53010 10120 20110 30065 40179 53004 60037 72162 85500 90300=
07110,1998-11-10 06:00:00,10,1020.5,2.5,87,8,15000,14.816,,,310,10.4,13.8,,,,,3,,,1,wg-a,,,,AAXX 10064 07110 02465 /3108 10100 20080 30090 40205 52025 60006 70161 81100 90600 333 10138 20104 60034=
07110,1998-11-10 09:00:00,11,1023.6,3,82,8,20000,14.816,,,300,,,,0,,,,,,1,wg-a,,,,AAXX 10094 07110 12470 33008 10110 20080 30120 40236 53030 60007 70186 83200 90900=
07110,1998-11-10 12:00:00,12,1025.4,1.9,71,7,20000,22.224,,,320,,,,0,,,,,,2,wg-a,,,,AAXX 10124 07110 02570 43212 10120 20070 30139 40254 51019 60016 70286 84800 91200 333 60007=
07110,1998-11-10 15:00:00,12,1026.4,0.9,71,7,25000,18.52,,,300,,,,,,,,,,,wg-a,,,,AAXX 10154 07110 12575 /3010 10120 20070 30148 40264 53009 60006 85200 91500=
07110,1998-11-10 18:00:00,8,1028.4,1.9,87,6,20000,3.704,,,320,8.2,12.7,,0,,,,,,1,wg-a,,,,AAXX 10184 07110 02570 23202 10080 20060 30167 40284 53019 60006 70186 82200 91800 333 10127 20082 60007=
07110,1998-11-10 21:00:00,4,1029.4,0.8,100,4,20000,3.704,,,260,,,,,,,,,,,wg-a,,,,AAXX 10214 07110 12570 22602 10040 20040 30175 40294 51008 60006 82100 92100=
07110,1998-11-11 00:00:00,4,1030.3,0.9,100,4,20000,7.408,,,240,,,,,,,,,,,wg-a,,,,AAXX 11004 07110 12670 22404 10040 20040 30184 40303 50009 60006 82100 90000=
07110,1998-11-11 03:00:00,4,1029.6,-0.7,100,4,20000,3.704,,,180,,,,,,,,,,,wg-a,,,,AAXX 11034 07110 12/70 01802 10040 20040 30177 40296 58007 60006 80000 90300=
07110,1998-11-11 06:00:00,3,1028.5,-1.1,100,3,15000,7.408,,,150,2.5,8.1,,,,,1,,,,wg-a,,,,AAXX 11064 07110 02/65 21504 10030 20030 30166 40285 56011 60006 80001 90600 333 10081 20025 60014=
07110,1998-11-11 09:00:00,6,1028,-0.4,100,6,20000,7.408,,,150,,,,,,,,,,,wg-a,,,,AAXX 11094 07110 12/70 31504 10060 20060 30162 40280 58004 60006 80001 90900=
07110,1998-11-11 12:00:00,12,1024,-3.7,76,8,20000,22.224,,,160,,,,,,,,,,,wg-a,,,,AAXX 11124 07110 12570 31612 10120 20080 30125 40240 57037 60006 81201 91200=
07110,1998-11-11 15:00:00,12,1019.4,-4.6,71,7,20000,29.632,,,180,,,,,,,,,,,wg-a,,,,AAXX 11154 07110 12570 51816 10120 20070 30079 40194 58046 60006 85801 91500=
07110,1998-11-11 18:00:00,11,1015,-4.4,82,8,10000,31.484,,,180,2.9,12.1,,,,,,,,,wg-a,,,,AAXX 11184 07110 12560 71817 10110 20080 30035 40150 56044 60006 87500 91800 333 10121 20029=
07110,1998-11-11 21:00:00,11,1010.8,-4.1,100,11,500,31.484,,,180,,,,12,,,,,,63,wg-a,,,,AAXX 11214 07110 12200 81817 10110 20110 39994 40108 58041 60127 76362 877// 92100=
07110,1998-11-12 00:00:00,10,1011.1,0.3,93,9,8000,18.52,,,280,,,,8,,,,,,1,wg-a,,,,AAXX 12004 07110 02558 52810 10100 20090 39997 40111 53003 60206 70162 85800 90000 333 60087=
07110,1998-11-12 03:00:00,10,1012,0.8,82,7,12000,18.52,,,290,,,,,,,,,,,wg-a,,,,AAXX 12034 07110 12562 62910 10100 20070 30005 40120 53008 60006 86800 90300=
07110,1998-11-12 06:00:00,8,1013,1,87,6,12000,22.224,,,290,8.2,11.5,,,,,,,,25,wg-a,,,,AAXX 12064 07110 02362 42912 10080 20060 30015 40130 53010 61000 72511 84900 90600 333 10115 20082 6021=
07110,1998-11-12 12:00:00,11,1015.7,1,66,5,12000,29.632,,46.3,290,,,,,,,,,,1,wg-a,,,,AAXX 12124 07110 02662 42916 10110 20050 30042 40157 51010 61000 70186 84800 91200 333 6100 91025=
07110,1998-11-12 15:00:00,10,1016,0.3,71,5,10000,25.928,,,290,,,,0,,,,,,,wg-a,,,,AAXX 12154 07110 12660 62914 10100 20050 30045 40160 51003 60007 85802 91500=
07110,1998-11-12 18:00:00,8,1016.7,0.6,81,5,10000,14.816,,,290,8.2,11.3,,0,,,,,,1,wg-a,,,,AAXX 12184 07110 02660 32908 10080 20050 30051 40167 52006 60006 70186 83800 91800 333 10113 20082 60007=
07110,1998-11-12 21:00:00,7,1015.6,-1.1,93,6,20000,7.408,,,230,,,,,,,,,,1,wg-a,,,,AAXX 12214 07110 02570 22304 10070 20060 30040 40156 58011 61000 70186 82800 92100 333 ////=
07110,1998-11-13 00:00:00,7,1013.5,-2.1,93,6,10000,7.408,,,180,,,,,,,,,,3,wg-a,,,,AAXX 13004 07110 02360 51804 10070 20060 30019 40135 58021 61000 70386 85800 90000 333 ////=
07110,1998-11-13 03:00:00,8,1010.7,-2.7,93,7,6000,14.816,,,170,,,,2,,,,,,61,wg-a,,,,AAXX 13034 07110 12256 81708 10080 20070 39992 40107 56027 60027 76162 8657/ 90300=
07110,1998-11-13 06:00:00,7,1006.4,-4.3,100,7,10000,14.816,,,120,6.4,,,,,,,,,61,wg-a,,,,AAXX 13064 07110 02560 81208 10070 20070 39949 40064 58043 61000 76162 875// 90600 333 20064 6005=
07110,1998-11-13 09:00:00,8,1001.8,-4.5,93,7,8000,25.928,,,120,,,,2,,,,,,60,wg-a,,,,AAXX 13094 07110 12558 81214 10080 20070 39904 40018 58045 60027 76066 875// 90900=
07110,1998-11-13 12:00:00,9,1000.8,-1.7,100,9,2000,14.816,,,80,,,,1,,,,,,58,wg-a,,,,AAXX 13124 07110 02220 80808 10090 20090 39889 40008 58017 60036 75866 877// 91200 333 60017=
07110,1998-11-13 15:00:00,9,998.5,-1.6,93,8,1500,18.52,,,50,,,,2,,,,,,10,wg-a,,,,AAXX 13154 07110 12215 80510 10090 20080 39871 49985 56016 60027 71066 875// 91500=
07110,1998-11-13 18:00:00,9,1002.4,3.9,93,8,10000,11.112,,,330,6.9,9.4,,,,,,,,21,wg-a,,,,AAXX 13184 07110 02460 73306 10090 20080 39910 40024 53039 61000 72165 878// 91800 333 10094 20069 6000=
07110,1998-11-13 21:00:00,9,1005.7,3.3,93,8,11000,14.816,,,320,,,,,,,,,,,wg-a,,,,AAXX 13214 07110 32/61 /3208 10090 20080 39943 40057 51033 92100=
07110,1998-11-14 00:00:00,9,1007.4,1.6,81,6,15000,25.928,,,300,,,,0,,,,,,25,wg-a,,,,AAXX 14004 07110 02465 /3014 10090 20060 39959 40074 53016 60016 72586 86800 90000 333 60007=
07110,1998-11-14 03:00:00,8,1008,0.6,81,5,15000,22.224,,,290,,,,,,,,,,,wg-a,,,,AAXX 14034 07110 12565 52912 10080 20050 39965 40080 53006 60006 85800 90300=
07110,1998-11-14 06:00:00,8,1008.8,0.8,76,4,15000,18.52,,,300,6.7,9.8,,,,,,,,25,wg-a,,,,AAXX 14064 07110 02465 63010 10080 20040 39973 40088 52008 61000 72586 86900 90600 333 10098 20067 6007=
07110,1998-11-14 09:00:00,8,1010.4,1.5,81,5,8000,25.928,,,290,,,,0,,,,,,25,wg-a,,,,AAXX 14094 07110 12458 62914 10080 20050 39988 40104 53015 60007 72586 86900 90900=
07110,1998-11-14 12:00:00,10,1011.6,1.3,82,7,20000,25.928,,,300,,,,1,,,,,,25,wg-a,,,,AAXX 14124 07110 02470 63014 10100 20070 30001 40116 51013 60016 72586 86900 91200 333 60017=
07110,1998-11-14 15:00:00,10,1012.3,0.7,71,5,20000,18.52,,,300,,,,,,,,,,,wg-a,,,,AAXX 14154 07110 12470 53010 10100 20050 30008 40123 53007 60006 85900 91500=
07110,1998-11-14 18:00:00,7,1013.6,1.2,87,5,15000,7.408,,,280,6.8,11.2,,,,,,,,,wg-a,,,,AAXX 14184 07110 12565 42804 10070 20050 30020 40136 53012 60006 84800 91800 333 10112 20068=
07110,1998-11-14 21:00:00,7,1014.3,0.7,87,5,15000,11.112,,,250,,,,,,,,,,,wg-a,,,,AAXX 14214 07110 12565 42506 10070 20050 30027 40143 50007 60006 84800 92100=
07110,1998-11-15 00:00:00,8,1015,0.7,93,7,15000,3.704,,,280,,,,1,,,,,,25,wg-a,,,,AAXX 15004 07110 02565 /2802 10080 20070 30034 40150 51007 60016 72586 86800 90000 333 60017=
07110,1998-11-15 01:00:00,8,1018.3,1.9,87,6,15000,3.704,,,330,6.1,8.8,,,,,2,,,3,wg-a,,,,AAXX 15014 07110 12565 53302 10080 20060 30067 40183 51019 60024 70386 85800 90100 333 10088 20061=
07110,1998-11-15 03:00:00,7,1016.5,1.4,93,6,15000,7.408,,,290,,,,1,,,,,,1,wg-a,,,,AAXX 15034 07110 12565 52904 10070 20060 30048 40165 53014 60017 70186 85800 90300=
07110,1998-11-15 06:00:00,8,1018.3,1.9,87,6,15000,3.704,,,330,6.1,8.8,,,,,2,,,3,wg-a,,,,AAXX 15064 07110 02565 53302 10080 20060 30067 40183 51019 60006 70386 85800 90600 333 10088 20061 60024=
07110,1998-11-15 09:00:00,9,1020.7,2.4,81,6,15000,7.408,,,330,,,,,,,,,,,wg-a,,,,AAXX 15094 07110 12565 23304 10090 20060 30091 40207 53024 60006 82200 90900=
07110,1998-11-15 12:00:00,12,1022.1,1.5,71,7,15000,14.816,,,360,,,,,,,,,,,wg-a,,,,AAXX 15124 07110 12565 43608 10120 20070 30106 40221 52015 60006 84200 91200=
07110,1998-11-15 15:00:00,10,1023.4,1.2,87,8,15000,7.408,,,330,,,,,,,,,,,wg-a,,,,AAXX 15154 07110 12565 43304 10100 20080 30118 40234 53012 60006 84200 91500=
07110,1998-11-15 21:00:00,5,1026.1,1.1,93,4,15000,3.704,,,260,,,,,,,,,,,wg-a,,,,AAXX 15214 07110 12465 32602 10050 20040 30142 40261 51011 60006 83800 92100=
07110,1998-11-16 00:00:00,5,1026.8,0.7,100,5,15000,7.408,,,360,,,,,,,,,,,wg-a,,,,AAXX 16004 07110 12465 33604 10050 20050 30149 40268 52007 60006 83800 90000=
07110,1998-11-16 03:00:00,5,1026.9,0.1,93,4,15000,3.704,,,20,,,,,,,,,,,wg-a,,,,AAXX 16034 07110 12665 20202 10050 20040 30150 40269 50001 60006 82500 90300=
07110,1998-11-16 06:00:00,1,1028,1,100,1,15000,0,,,0,1.3,7.6,,,,,,,,,wg-a,,,,AAXX 16064 07110 02/65 00000 10010 20010 30160 40280 53010 60006 80000 90600 333 10076 20013 60004=
07110,1998-11-16 09:00:00,5,1029.3,1.4,100,5,20000,7.408,,,70,,,,,,,,,,,wg-a,,,,AAXX 16094 07110 12670 20704 10050 20050 30174 40293 53014 60006 82501 90900=
07110,1998-11-16 12:00:00,9,1029.5,0.4,66,3,20000,7.408,,,90,,,,,,,,,,,wg-a,,,,AAXX 16124 07110 12670 60904 10090 20030 30178 40295 50004 60006 82531 91200=
07110,1998-11-16 15:00:00,9,1029,-0.5,66,3,20000,7.408,,,90,,,,,,,,,,,wg-a,,,,AAXX 16154 07110 12670 /0904 10090 20030 30173 40290 58005 60006 82531 91500=
07110,1998-11-16 18:00:00,4,1029.6,0.4,93,3,12000,7.408,,,120,1.2,10.1,,,,,,,,,wg-a,,,,AAXX 16184 07110 12662 61204 10040 20030 30177 40296 52004 60006 82531 91800 333 10101 20012=
07110,1998-11-17 00:00:00,,1,-0.6,,,10000,14.816,,,120,,,,,,,,,,,wg-a,,,,AAXX 17004 07110 12/60 71208 1//// 2//// 30175 58006 60006 85052 90000=
07110,1998-11-17 03:00:00,,1,-0.8,,,10000,11.112,,,110,,,,,,,,,,,wg-a,,,,AAXX 17034 07110 32/60 71106 1//// 2//// 30167 56008 8507/ 90300=
07110,1998-11-17 06:00:00,5,1028.8,-0,75,1,10000,14.816,,,140,,,,,,,,,,,wg-a,,,,AAXX 17064 07110 02/60 71408 10050 20010 30169 40288 54000 60006 8507/ 90600 333 60004=
07110,1998-11-17 09:00:00,5,1028.2,-0.6,75,1,10000,18.52,,,120,,,,,,,,,,,wg-a,,,,AAXX 17094 07110 12760 71210 10050 20010 30163 40282 56006 60006 8557/ 90900=
07110,1998-11-17 12:00:00,7,1026.7,-1.4,70,2,15000,18.52,,,130,,,,,,,,,,,wg-a,,,,AAXX 17124 07110 12765 71310 10070 20020 30149 40267 58014 60006 8357/ 91200=
07110,1998-11-17 15:00:00,7,1025.8,,76,3,20000,14.816,,,130,,,,,,,,,,,wg-a,,,,AAXX 17154 07110 12770 71308 10070 20030 30140 40258 60006 8557/ 91500=
07110,1998-11-17 18:00:00,6,1026.3,0.5,81,3,20000,14.816,,,110,4.5,7.4,,,,,,,,,wg-a,,,,AAXX 17184 07110 12770 71108 10060 20030 30145 40263 51005 60006 8557/ 91800 333 10074 20045=
07110,1998-11-17 21:00:00,5,1026.3,0,81,2,15000,11.112,,,120,,,,,,,,,,,wg-a,,,,AAXX 17214 07110 12765 71206 10050 20020 30145 40263 50000 60006 8557/ 92100=
07110,1998-11-18 00:00:00,4,1026.3,-0.1,87,2,15000,14.816,,,130,,,,,,,,,,,wg-a,,,,AAXX 18004 07110 12765 71308 10040 20020 30144 40263 58001 60006 8557/ 90000=
07110,1998-11-18 03:00:00,4,1025.5,-0.8,81,1,15000,18.52,,,140,,,,,,,,,,,wg-a,,,,AAXX 18034 07110 12765 71410 10040 20010 30136 40255 58008 60006 8557/ 90300=
07110,1998-11-18 06:00:00,4,1025.8,0.3,75,0,12000,18.52,,,130,3.7,6,,,,,,,,,wg-a,,,,AAXX 18064 07110 02762 71310 10040 20000 30139 40258 51003 60006 8557/ 90600 333 10060 20037 60004=
07110,1998-11-18 09:00:00,4,1026.6,0.8,70,-1,15000,14.816,,,140,,,,,,,,,,,wg-a,,,,AAXX 18094 07110 12765 61408 10040 21010 30147 40266 53008 60006 85570 90900=
07110,1998-11-18 12:00:00,5,1026.8,0.2,75,1,15000,18.52,,,160,,,,,,,,,,,wg-a,,,,AAXX 18124 07110 12765 61610 10050 20010 30149 40268 50002 60006 84530 91200=
07110,1998-11-18 15:00:00,5,1026.7,-0.1,65,-1,15000,14.816,,,150,,,,,,,,,,,wg-a,,,,AAXX 18154 07110 12765 61508 10050 21010 30148 40267 56001 60006 84530 91500=
07110,1998-11-18 18:00:00,5,1026.8,0.1,70,0,15000,11.112,,,140,3.3,5.2,,,,,,,,,wg-a,,,,AAXX 18184 07110 12765 61406 10050 20000 30149 40268 50001 60006 84530 91800 333 10052 20033=
07110,1998-11-18 21:00:00,4,1027.3,0.5,75,0,15000,14.816,,,140,,,,,,,,,,,wg-a,,,,AAXX 18214 07110 12765 71408 10040 20000 30154 40273 50005 60006 8653/ 92100=
07110,1998-11-19 00:00:00,3,1027.8,0.4,75,-1,15000,14.816,,,160,,,,,,,,,,,wg-a,,,,AAXX 19004 07110 12665 71608 10030 21010 30158 40278 52004 60006 8653/ 90000=
07110,1998-11-19 03:00:00,2,1026.8,-1,80,-1,15000,18.52,,,150,,,,,,,,,,,wg-a,,,,AAXX 19034 07110 12765 71510 10020 21010 30148 40268 56010 60006 8653/ 90300=
07110,1998-11-19 06:00:00,3,1025.6,-1.1,87,1,12000,18.52,,,150,2,4.7,,,,,,,,21,wg-a,,,,AAXX 19064 07110 02662 81510 10030 20010 30137 40256 58011 61000 72162 875// 90600 333 10047 20020 6100=
07110,1998-11-19 09:00:00,4,1026.1,0.5,93,3,500,14.816,,,170,,,,0,,,,,,60,wg-a,,,,AAXX 19094 07110 12600 81708 10040 20030 30142 40261 53005 60007 76062 8357/ 90900=
07110,1998-11-19 12:00:00,6,1025.5,-0.5,87,4,500,18.52,,,160,,,,1,,,,,,60,wg-a,,,,AAXX 19124 07110 02500 81610 10060 20040 30137 40255 58005 60026 76062 8557/ 91200 333 60017=
07110,1998-11-19 15:00:00,6,1024.3,-1.2,93,5,6000,18.52,,,160,,,,2,,,,,,60,wg-a,,,,AAXX 19154 07110 12556 81610 10060 20050 30125 40243 58012 60027 76066 8257/ 91500=
07110,1998-11-19 18:00:00,6,1024.9,0.6,93,5,500,18.52,,,150,3,6.1,,,,,,,,60,wg-a,,,,AAXX 19184 07110 02500 81510 10060 20050 30131 40249 53006 61000 76066 8557/ 91800 333 10061 20030 6002=
07110,1998-11-19 21:00:00,6,1025.3,0.4,93,5,8000,18.52,,,140,,,,0,,,,,,1,wg-a,,,,AAXX 19214 07110 12558 71410 10060 20050 30135 40253 53004 60007 70162 875// 92100=
07110,1998-11-20 00:00:00,6,1025.4,0.1,87,4,8000,22.224,,,150,,,,,,,,,,1,wg-a,,,,AAXX 20004 07110 12658 71512 10060 20040 30136 40254 53001 60006 70162 875// 90000=
07110,1998-11-20 03:00:00,5,1025.9,0.5,93,4,8000,25.928,,,150,,,,,,,,,,,wg-a,,,,AAXX 20034 07110 12458 71514 10050 20040 30141 40259 52005 60006 875// 90300=
07110,1998-11-20 06:00:00,6,1026.8,0.9,87,4,8000,25.928,,,140,5.1,6,,,,,6,,,,wg-a,,,,AAXX 20064 07110 02558 71414 10060 20040 30150 40268 53009 60006 87500 90600 333 10060 20051 60064=
07110,1998-11-20 09:00:00,6,1028.8,2,81,3,8000,25.928,,,150,,,,,,,,,,,wg-a,,,,AAXX 20094 07110 12358 71514 10060 20030 30170 40288 53020 60006 87500 90900=
07110,1998-11-20 12:00:00,7,1029.6,0.8,81,4,10000,25.928,,,140,,,,,,,,,,,wg-a,,,,AAXX 20124 07110 12660 71414 10070 20040 30178 40296 50008 60006 875// 91200=
07110,1998-11-20 15:00:00,7,1030,0.4,87,5,8000,22.224,,,150,,,,,,,,,,,wg-a,,,,AAXX 20154 07110 12658 71512 10070 20050 30182 40300 51004 60006 875// 91500=
07110,1998-11-20 18:00:00,7,1031.2,1.2,93,6,500,22.224,,,150,5.7,7.4,,,,,,,,50,wg-a,,,,AAXX 20184 07110 02400 81512 10070 20060 30194 40312 51012 61000 75052 888// 91800 333 10074 20057 6000=
07110,1998-11-20 21:00:00,6,1032.4,1.1,87,4,8000,14.816,,,150,,,,0,,,,,,1,wg-a,,,,AAXX 20214 07110 12658 81508 10060 20040 30205 40324 53011 60007 70152 875// 92100=
07110,1998-11-21 00:00:00,5,1033.1,0.7,87,3,10000,18.52,,,150,,,,,,,,,,2,wg-a,,,,AAXX 21004 07110 12660 71510 10050 20030 30212 40331 51007 60006 70252 87500 90000=
07110,1998-11-21 06:00:00,1,1033.3,0.7,86,-1,15000,18.52,,,150,1.1,6.7,,,,,1,,,,wg-a,,,,AAXX 21064 07110 02/65 31510 10010 21010 30212 40333 52007 60006 83030 90600 333 10067 20011 60014=
07110,1998-11-21 09:00:00,2,1033.4,0.1,75,-2,12000,22.224,,,150,,,,,,,,,,,wg-a,,,,AAXX 21094 07110 12762 61512 10020 21020 30213 40334 51001 60006 81530 90900=
07110,1998-11-21 12:00:00,5,1031.9,-1.3,56,-3,15000,18.52,,,150,,,,,,,,,,,wg-a,,,,AAXX 21124 07110 12/65 11510 10050 21030 30200 40319 58013 60006 81031 91200=
07110,1998-11-21 15:00:00,6,1030.6,-1.3,52,-3,15000,22.224,,,150,,,,,,,,,,,wg-a,,,,AAXX 21154 07110 12/65 11512 10060 21030 30187 40306 56013 60006 81031 91500=
07110,1998-11-21 18:00:00,3,1029.9,-0.8,65,-3,15000,14.816,,,140,0.7,6.9,,,,,,,,,wg-a,,,,AAXX 21184 07110 12/65 11408 10030 21030 30179 40299 58008 60006 80001 91800 333 10069 20007=
07110,1998-11-21 21:00:00,1,1028.4,-1.5,69,-4,15000,18.52,,,140,,,,,,,,,,,wg-a,,,,AAXX 21214 07110 12/65 31410 10010 21040 30164 40284 58015 60006 80001 92100=
07110,1998-11-22 00:00:00,1,1027.1,-1.4,69,-4,12000,18.52,,,140,,,,,,,,,,,wg-a,,,,AAXX 22004 07110 12562 51410 10010 21040 30150 40271 58014 60006 82501 90000=
07110,1998-11-22 03:00:00,3,1029.9,-0.8,65,-3,15000,14.816,,,140,0.7,6.9,,,,,,,,,wg-a,,,,AAXX 22034 07110 12/65 /1408 10030 21030 40299 58008 60006 80001 90300 333 10069 20007=
07110,1998-11-22 06:00:00,0,1024.2,-1.4,80,-3,10000,22.224,,,150,-0.6,3.1,,,,,,,,,wg-a,,,,AAXX 22064 07110 02/60 01512 10000 21030 30121 40242 58014 60006 80000 90600 333 10031 21006 60004=
07110,1998-11-22 09:00:00,1,1023.7,-0.4,86,-1,10000,22.224,,,150,,,,,,,,,,,wg-a,,,,AAXX 22094 07110 12/60 71512 10010 21010 30117 40237 56004 60006 85056 90900=
07110,1998-11-22 12:00:00,4,1022.2,-1.4,81,1,8000,22.224,,,160,,,,,,,,,,,wg-a,,,,AAXX 22124 07110 12/58 71612 10040 20010 30103 40222 58014 60006 85072 91200=
07110,1998-11-22 15:00:00,4,1020.8,-1.3,81,1,8000,25.928,,,160,,,,,,,,,,,wg-a,,,,AAXX 22154 07110 12658 81614 10040 20010 30090 40208 56013 60006 81172 91500=
07110,1998-11-22 18:00:00,4,1020.4,-0.4,87,2,7000,22.224,,,160,-0.4,4.2,,,,,,,,,wg-a,,,,AAXX 22184 07110 12657 81612 10040 20020 30086 40204 58004 60006 81172 91800 333 10042 21004=
07110,1998-11-23 00:00:00,3,1020.2,-0.5,93,2,7000,11.112,,,120,,,,1,,,,,,60,wg-a,,,,AAXX 23004 07110 02557 81206 10030 20020 30083 40202 58005 60016 76062 875// 90000 333 60017=
07110,1998-11-23 03:00:00,3,1020,-0.2,93,2,500,11.112,,,150,,,,1,,,,,,21,wg-a,,,,AAXX 23034 07110 12400 81506 10030 20020 30081 40200 55002 60017 72162 885// 90300=
07110,1998-11-23 06:00:00,3,1020.1,0.1,100,3,2500,11.112,,,150,2.1,3.9,,,,,,,,10,wg-a,,,,AAXX 23064 07110 02125 81506 10030 20030 30082 40201 51001 61000 71065 885// 90600 333 10039 20021 6003=
07110,1998-11-23 09:00:00,4,1021.6,1.6,100,4,1500,14.816,,,160,,,,1,,,,,,10,wg-a,,,,AAXX 23094 07110 12115 81608 10040 20040 30098 40216 51016 60017 71065 876// 90900=
07110,1998-11-23 12:00:00,5,1022.1,0.5,100,5,2000,14.816,,,130,,,,,,,,,,10,wg-a,,,,AAXX 23124 07110 02220 81308 10050 20050 30103 40221 50005 60016 71065 886// 91200 333 61000=
07110,1998-11-23 15:00:00,5,1022.6,0.5,100,5,2000,7.408,,,130,,,,,,,,,,10,wg-a,,,,AAXX 23154 07110 12220 81304 10050 20050 30108 40226 51005 60006 71022 885// 91500=
07110,1998-11-23 18:00:00,5,1023.2,0.6,93,4,3000,7.408,,,160,2.9,5.5,,,,,,,,10,wg-a,,,,AAXX 23184 07110 12530 71604 10050 20040 30114 40232 50006 60006 71022 875// 91800 333 10055 20029=
07110,1998-11-23 21:00:00,4,1023,-0.2,100,4,8000,14.816,,,150,,,,,,,,,,,wg-a,,,,AAXX 23214 07110 12658 71508 10040 20040 30112 40230 58002 60006 875// 92100=
07110,1998-11-24 00:00:00,4,1022.7,-0.4,93,3,8000,11.112,,,150,,,,,,,,,,,wg-a,,,,AAXX 24004 07110 12658 71506 10040 20030 30108 40227 58004 60006 8753/ 90000=
07110,1998-11-24 03:00:00,5,1021.8,-0.8,100,5,6000,14.816,,,180,,,,,,,,,,,wg-a,,,,AAXX 24034 07110 12556 71808 10050 20050 30100 40218 56008 60006 8357/ 90300=
07110,1998-11-24 06:00:00,5,1021,-0.8,100,5,8000,18.52,,,150,3.2,5.6,,,,,1,,,,wg-a,,,,AAXX 24064 07110 02658 71510 10050 20050 30092 40210 57008 60006 8357/ 90600 333 10056 20032 60014=
07110,1998-11-24 09:00:00,7,1019.6,-1.3,100,7,2000,22.224,,,160,,,,1,,,,,,10,wg-a,,,,AAXX 24094 07110 12220 71612 10070 20070 30079 40196 57013 60017 71065 875// 90900=
07110,1998-11-24 12:00:00,11,1017.5,-1.9,100,11,1500,25.928,,,220,,,,5,,,,,,44,wg-a,,,,AAXX 24124 07110 02115 72214 10110 20110 30060 40175 58019 60066 74465 877// 91200 333 60057=
07110,1998-11-24 15:00:00,11,1017.2,-0.3,100,11,8000,14.816,,,330,,,,3,,,,,,25,wg-a,,,,AAXX 24154 07110 12358 73308 10110 20110 30057 40172 55003 60037 72586 875// 91500=
07110,1998-11-24 18:00:00,8,1018.6,1.3,87,6,10000,7.408,,,330,5.3,11.6,,,,,,,,1,wg-a,,,,AAXX 24184 07110 12460 /3304 10080 20060 30070 40186 51013 60006 70186 84801 91800 333 10116 20053=
07110,1998-11-24 21:00:00,8,1019.3,0.7,87,6,10000,7.408,,,310,,,,,,,,,,,wg-a,,,,AAXX 24214 07110 12660 /3104 10080 20060 30077 40193 52007 60006 85500 92100=
07110,1998-11-25 00:00:00,8,1019.1,-0.2,81,5,10000,11.112,,,330,,,,,,,,,,,wg-a,,,,AAXX 25004 07110 12660 73306 10080 20050 30075 40191 58002 60006 875// 90000=
07110,1998-11-25 03:00:00,8,1018.4,-0.7,87,6,10000,11.112,,,300,,,,,,,,,,,wg-a,,,,AAXX 25034 07110 12460 73006 10080 20060 30068 40184 56007 60006 878// 90300=
07110,1998-11-25 06:00:00,7,1018.6,0.1,81,4,10000,11.112,,,310,6.3,8.4,,,,,9,,,,wg-a,,,,AAXX 25064 07110 02660 33106 10070 20040 30069 40186 53001 60006 83500 90600 333 10084 20063 60094=
07110,1998-11-25 09:00:00,7,1019.7,1.1,87,5,15000,7.408,,,290,,,,,,,,,,,wg-a,,,,AAXX 25094 07110 12465 62904 10070 20050 30080 40197 53011 60006 84801 90900=
07110,1998-11-25 12:00:00,11,1020.1,0.6,82,8,20000,14.816,,,290,,,,,,,,,,,wg-a,,,,AAXX 25124 07110 12570 42908 10110 20080 30086 40201 50006 60006 82802 91200=
07110,1998-11-25 15:00:00,10,1019.8,-0.4,87,8,10000,14.816,,,280,,,,3,,,,,,21,wg-a,,,,AAXX 25154 07110 12360 52808 10100 20080 30082 40198 55004 60037 72161 84331 91500=
07110,1998-11-25 18:00:00,9,1022,2.2,93,8,15000,14.816,,,310,5.8,11.9,,,,,,,,1,wg-a,,,,AAXX 25184 07110 12565 53108 10090 20080 30104 40220 53022 60006 70161 85801 91800 333 10119 20058=
07110,1998-11-25 21:00:00,9,1023.2,1.2,87,7,15000,11.112,,,300,,,,,,,,,,,wg-a,,,,AAXX 25214 07110 12565 33006 10090 20070 30116 40232 53012 60006 83800 92100=
07110,1998-11-26 00:00:00,8,1024.7,1.4,93,7,15000,11.112,,,310,,,,0,,,,,,3,wg-a,,,,AAXX 26004 07110 02565 53106 10080 20070 30130 40247 53014 60016 70386 85800 90000 333 60007=
07110,1998-11-26 03:00:00,8,1025.7,1,93,7,15000,11.112,,,300,,,,,,,,,,,wg-a,,,,AAXX 26034 07110 12565 43006 10080 20070 30140 40257 53010 60006 84800 90300=
07110,1998-11-26 06:00:00,7,1026.3,0.5,100,7,15000,7.408,,,280,6.4,9.2,,,,,3,,,,wg-a,,,,AAXX 26064 07110 02565 52804 10070 20070 30145 40263 53005 60006 85800 90600 333 10092 20064 60034=
07110,1998-11-26 09:00:00,9,1027.6,1.4,93,8,12000,7.408,,,280,,,,,,,,,,,wg-a,,,,AAXX 26094 07110 12562 72804 10090 20080 30159 40276 51014 60006 83802 90900=
07110,1998-11-26 12:00:00,12,1027.2,-0.3,88,10,8000,22.224,,,270,,,,,,,,,,,wg-a,,,,AAXX 26124 07110 12458 72712 10120 20100 30156 40272 58003 60006 878// 91200=
07110,1998-11-26 15:00:00,12,1025.9,-1.3,82,9,10000,22.224,,,290,,,,0,,,,,,,wg-a,,,,AAXX 26154 07110 12460 72912 10120 20090 30143 40259 56013 60007 85801 91500=
07110,1998-11-26 18:00:00,11,1026.2,0.3,87,9,10000,18.52,,,280,6.9,12.1,,,,,,,,,wg-a,,,,AAXX 26184 07110 12460 /2810 10110 20090 30146 40262 53003 60006 84830 91800 333 10121 20069=
07110,1998-11-26 21:00:00,11,1025.6,-0.6,87,9,10000,22.224,,,280,,,,,,,,,,,wg-a,,,,AAXX 26214 07110 12660 72812 10110 20090 30140 40256 56006 60006 875// 92100=
07110,1998-11-27 00:00:00,11,1025.9,0.3,94,10,10000,11.112,,,300,,,,,,,,,,,wg-a,,,,AAXX 27004 07110 12360 83006 10110 20100 30143 40259 51003 60006 877// 90000=
07110,1998-11-27 03:00:00,11,1025.5,-0.4,94,10,10000,14.816,,,290,,,,,,,,,,,wg-a,,,,AAXX 27034 07110 12260 82908 10110 20100 30139 40255 55004 60006 877// 90300=
07110,1998-11-27 06:00:00,11,1025.1,-0.4,100,11,500,11.112,,,280,10,11.2,,,,,,,,51,wg-a,,,,AAXX 27064 07110 02200 82806 10110 20110 30135 40251 56004 61000 75152 875// 90600 333 10112 20100 6000=
07110,1998-11-27 09:00:00,12,1025,-0,100,12,2500,18.52,,,280,,,,0,,,,,,51,wg-a,,,,AAXX 27094 07110 12125 82810 10120 20120 30135 40250 55000 60007 75155 887// 90900=
07110,1998-11-27 12:00:00,12,1024.8,-0.2,100,12,4500,22.224,,,290,,,,1,,,,,,20,wg-a,,,,AAXX 27124 07110 02245 82912 10120 20120 30133 40248 58002 60016 72052 885// 91200 333 60017=
07110,1998-11-27 15:00:00,12,1023.7,-1.1,88,10,12000,18.52,,,280,,,,,,,,,,,wg-a,,,,AAXX 27154 07110 12562 82810 10120 20100 30122 40237 56011 60006 885// 91500=
07110,1998-11-27 18:00:00,11,1023.1,-0.6,100,11,12000,7.408,,,220,11,12.5,,,,,,,,,wg-a,,,,AAXX 27184 07110 12562 82204 10110 20110 30116 40231 56006 60006 885// 91800 333 10125 20110=
07110,1998-11-27 21:00:00,12,1022.4,-0.7,94,11,15000,11.112,,,240,,,,,,,,,,,wg-a,,,,AAXX 27214 07110 12665 82406 10120 20110 30109 40224 58007 60006 875// 92100=
07110,1998-11-28 00:00:00,11,1021,-1.4,100,11,12000,7.408,,,230,,,,,,,,,,20,wg-a,,,,AAXX 28004 07110 02262 62304 10110 20110 30095 40210 56014 61000 72052 86700 90000 333 6100=
07110,1998-11-28 03:00:00,12,1019.3,-1.7,100,12,500,14.816,,,230,,,,1,,,,,,51,wg-a,,,,AAXX 28034 07110 12100 82308 10120 20120 30078 40193 56017 60017 75152 887// 90300=
07110,1998-11-28 06:00:00,11,1016.7,-2.6,100,11,10000,18.52,,,190,11.2,11.8,,,,,,,,61,wg-a,,,,AAXX 28064 07110 02260 81910 10110 20110 30052 40167 56026 61000 76165 885// 90600 333 10118 20112 6002=
07110,1998-11-28 12:00:00,11,1017.5,-0.1,76,7,15000,22.224,,,290,,,,,,,,,,3,wg-a,,,,AAXX 28124 07110 12565 62912 10110 20070 30060 40175 58001 60046 70365 84102 91200=
07110,1998-11-28 15:00:00,10,1017,-0.5,71,5,20000,18.52,,,280,,,,,,,,,,,wg-a,,,,AAXX 28154 07110 12570 62810 10100 20050 30055 40170 58005 60006 84902 91500=
07110,1998-11-28 18:00:00,5,1017.8,0.6,100,5,12000,7.408,,,200,5.1,11.8,,,,,,,,25,wg-a,,,,AAXX 28184 07110 02562 52004 10050 20050 30061 40178 50006 61000 72586 85900 91800 333 10118 20051 6002=
07110,1998-11-28 21:00:00,5,1019.1,1.2,93,4,15000,11.112,,,280,,,,0,,,,,,,wg-a,,,,AAXX 28214 07110 12565 22806 10050 20040 30073 40191 52012 60007 82900 92100=
07110,1998-11-29 00:00:00,5,1019.9,0.8,93,4,20000,3.704,,,290,,,,,,,,,,1,wg-a,,,,AAXX 29004 07110 02570 32902 10050 20040 30081 40199 53008 60006 70186 83900 90000 333 61000=
07110,1998-11-29 03:00:00,5,1020.5,0.6,93,4,20000,11.112,,,290,,,,1,,,,,,1,wg-a,,,,AAXX 29034 07110 12470 32906 10050 20040 30087 40205 53006 60017 70186 83900 90300=
07110,1998-11-29 06:00:00,7,1021.4,1,87,5,20000,14.816,,,330,4.6,7.4,,,,,7,,,3,wg-a,,,,AAXX 29064 07110 02470 33308 10070 20050 30097 40214 53010 60006 70386 83900 90600 333 10074 20046 60074=
07110,1998-11-29 09:00:00,7,1023.6,2.2,87,5,6000,18.52,,,330,,,,1,,,,,,81,wg-a,,,,AAXX 29094 07110 12456 73310 10070 20050 30119 40236 53022 60017 78186 879// 90900=
07110,1998-11-29 12:00:00,10,1023.9,0.4,76,6,15000,25.928,,,340,,,,2,,,,,,1,wg-a,,,,AAXX 29124 07110 02565 /3414 10100 20060 30123 40239 53004 60036 70187 86900 91200 333 60027=
07110,1998-11-29 15:00:00,9,1024.9,0.9,76,5,15000,22.224,,42.596,360,,,,,,,,,,1,wg-a,,,,AAXX 29154 07110 02565 53612 10090 20050 30132 40249 53009 61000 70186 85900 91500 333 //// 91023=
07110,1998-11-29 18:00:00,8,1026.7,1.8,76,4,15000,18.52,,,350,5.7,10.1,,,,,,,,1,wg-a,,,,AAXX 29184 07110 12565 43510 10080 20040 30150 40267 51018 60006 70186 84800 91800 333 10101 20057=
07110,1998-11-29 21:00:00,8,1027.9,1.2,81,5,15000,14.816,,,350,,,,,,,,,,,wg-a,,,,AAXX 29214 07110 12565 43508 10080 20050 30162 40279 51012 60006 84800 92100=
07110,1998-11-30 00:00:00,8,1028.4,0.4,76,4,15000,14.816,,,360,,,,,,,,,,,wg-a,,,,AAXX 30004 07110 12565 53608 10080 20040 30166 40284 51004 60006 85800 90000=
07110,1998-11-30 03:00:00,8,1028.4,-0,81,5,20000,18.52,,,10,,,,,,,,,,,wg-a,,,,AAXX 30034 07110 12570 40110 10080 20050 30166 40284 55000 60006 84800 90300=
07110,1998-11-30 06:00:00,8,1028.6,0.2,76,4,20000,14.816,,,10,7.1,8.2,,,,,3,,,,wg-a,,,,AAXX 30064 07110 02570 30108 10080 20040 30168 40286 53002 60006 83800 90600 333 10082 20071 60034=
07110,1998-11-30 09:00:00,7,1029.8,1.2,81,4,20000,11.112,,,10,,,,,,,,,,,wg-a,,,,AAXX 30094 07110 12570 40106 10070 20040 30180 40298 51012 60006 81801 90900=
07110,1998-11-30 12:00:00,9,1029.8,0.1,76,5,20000,22.224,,,30,,,,,,,,,,,wg-a,,,,AAXX 30124 07110 12570 40312 10090 20050 30181 40298 50001 60006 84800 91200=
07110,1998-11-30 18:00:00,7,1030.8,1.5,76,3,20000,11.112,,,40,6.7,9.8,,,,,,,,,wg-a,,,,AAXX 30184 07110 12570 50406 10070 20030 30190 40308 52015 60006 85800 91800 333 10098 20067=
07110,1998-11-30 21:00:00,7,1031.4,0.6,76,3,20000,11.112,,,20,,,,,,,,,,,wg-a,,,,AAXX 30214 07110 12670 70206 10070 20030 30196 40314 51006 60006 875// 92100=
07110,1998-12-01 00:00:00,7,1031.2,-0.2,76,3,20000,14.816,,,30,,,,,,,,,,,wg-a,,,,AAXX 01004 07110 12570 70308 10070 20030 30194 40312 58002 60006 875// 90000=
07110,1998-12-01 03:00:00,8,1030.7,-0.5,66,2,20000,22.224,,,30,,,,,,,,,,,wg-a,,,,AAXX 01034 07110 12570 80312 10080 20020 30189 40307 56005 60006 885// 90300=
07110,1998-12-01 06:00:00,7,1030.7,-0,81,4,15000,18.52,,,60,5.6,7.7,,,,,,,,,wg-a,,,,AAXX 01064 07110 02565 80610 10070 20040 30189 40307 55000 60006 885// 90600 333 10077 20056 60004=
07110,1998-12-01 12:00:00,4,1033,0.2,81,1,8000,22.224,,,70,,,,,,,,,,,wg-a,,,,AAXX 01124 07110 12458 70712 10040 20010 30210 40330 50002 60006 875// 91200=
07110,1998-12-01 15:00:00,6,1031.6,-1.3,81,3,8000,18.52,,,50,,,,,,,,,,,wg-a,,,,AAXX 01154 07110 12558 /0510 10060 20030 30197 40316 57013 60006 81500 91500=
07110,1998-12-01 18:00:00,3,1031.5,-0.2,93,2,6000,7.408,,,50,3.3,7.1,,,,,,,,,wg-a,,,,AAXX 01184 07110 12456 20504 10030 20020 30195 40315 58002 60006 82500 91800 333 10071 20033=
07110,1998-12-01 21:00:00,3,1031,-0.5,100,3,6000,3.704,,,360,,,,,,,,,,,wg-a,,,,AAXX 01214 07110 12556 /3602 10030 20030 30190 40310 58005 60006 86500 92100=
07110,1998-12-02 00:00:00,6,1029.6,-1.2,93,5,6000,7.408,,,30,,,,,,,,,,,wg-a,,,,AAXX 02004 07110 12556 70304 10060 20050 30178 40296 58012 60006 875// 90000=
07110,1998-12-02 06:00:00,5,1027,-0.6,93,4,8000,14.816,,,50,2.7,7.7,,,,,,,,,wg-a,,,,AAXX 02064 07110 02458 /0508 10050 20040 30152 40270 55006 60006 86500 90600 333 10077 20027 60004=
07110,1998-12-02 09:00:00,4,1027.3,0.2,87,2,4000,14.816,,,60,,,,,,,,,,10,wg-a,,,,AAXX 02094 07110 12/40 00608 10040 20020 30154 40273 53002 60006 71011 80000 90900=
07110,1998-12-02 12:00:00,6,1026.5,-0.7,81,3,500,22.224,,,60,,,,,,,,,,,wg-a,,,,AAXX 02124 07110 12500 20612 10060 20030 30147 40265 58007 60006 82500 91200=
07110,1998-12-02 15:00:00,6,1024.7,-1.8,81,3,4000,11.112,,,50,,,,,,,,,,10,wg-a,,,,AAXX 02154 07110 12540 70506 10060 20030 30129 40247 56018 60006 71011 875// 91500=
07110,1998-12-02 18:00:00,5,1024.3,-0.4,93,4,4000,3.704,,,50,3.5,6.8,,,,,,,,10,wg-a,,,,AAXX 02184 07110 12540 70502 10050 20040 30125 40243 58004 60006 71011 875// 91800 333 10068 20035=
07110,1998-12-02 21:00:00,4,1023.5,-0.8,93,3,500,3.704,,,70,,,,,,,,,,,wg-a,,,,AAXX 02214 07110 12500 80702 10040 20030 30117 40235 58008 60006 885// 92100=
07110,1998-12-03 00:00:00,3,1023.4,-0.2,87,1,500,11.112,,,90,,,,,,,,,,,wg-a,,,,AAXX 03004 07110 12400 80906 10030 20010 30115 40234 57002 60006 875// 90000=
07110,1998-12-03 03:00:00,2,1022.2,-1.3,93,1,500,7.408,,,110,,,,,,,,,,,wg-a,,,,AAXX 03034 07110 12300 81104 10020 20010 30102 40222 56013 60006 876// 90300=
07110,1998-12-03 06:00:00,1,1021.1,-1.1,100,1,2000,3.704,,,100,1,5.3,,,,,,,,10,wg-a,,,,AAXX 03064 07110 02220 81002 10010 20010 30091 40211 56011 61000 71052 877// 90600 333 10053 20010 6100=
07110,1998-12-03 09:00:00,0,1021.3,0.2,100,0,2000,7.408,,,160,,,,0,,,,,,10,wg-a,,,,AAXX 03094 07110 12220 81604 10000 20000 30093 40213 52002 60007 71055 877// 90900=
07110,1998-12-03 12:00:00,0,1020.5,-0.8,100,0,2000,0,,,0,,,,,,,,,,10,wg-a,,,,AAXX 03124 07110 02220 80000 10000 20000 30085 40205 58008 60016 71052 876// 91200 333 61000=
07110,1998-12-03 15:00:00,1,1019.3,-1.2,93,0,2000,0,,,0,,,,,,,,,,10,wg-a,,,,AAXX 03154 07110 12320 80000 10010 20000 30073 40193 56012 60006 71022 875// 91500=
07110,1998-12-03 21:00:00,2,1018.6,-0.4,100,2,4000,3.704,,,200,,,,,,,,,,50,wg-a,,,,AAXX 03214 07110 02340 82002 10020 20020 30067 40186 58004 61000 75052 876// 92100 333 ////=
07110,1998-12-04 00:00:00,1,1017.8,-0.8,100,1,2500,3.704,,,300,,,,,,,,,,10,wg-a,,,,AAXX 04004 07110 02225 73002 10010 20010 30059 40178 58008 61000 71051 85502 90000 333 6100=
07110,1998-12-04 03:00:00,1,1016.9,-0.9,100,1,4500,3.704,,,310,,,,,,,,,,10,wg-a,,,,AAXX 04034 07110 12445 73102 10010 20010 30050 40169 56009 60006 71022 875// 90300=
07110,1998-12-04 06:00:00,3,1015.7,-1.1,100,3,500,3.704,,,180,0.1,3.2,,,,,,,,60,wg-a,,,,AAXX 04064 07110 02400 81802 10030 20030 30039 40157 56011 61000 76062 875// 90600 333 10032 20001 6000=
07110,1998-12-04 12:00:00,8,1016.3,0.2,71,3,15000,22.224,,,350,,,,0,,,,,,3,wg-a,,,,AAXX 04124 07110 02565 /3512 10080 20030 30047 40163 50002 60016 70386 82802 91200 333 60007=
07110,1998-12-04 15:00:00,7,1016.7,0.3,81,4,15000,18.52,,,350,,,,,,,,,,,wg-a,,,,AAXX 04154 07110 12565 63510 10070 20040 30050 40167 53003 60006 83802 91500=
07110,1998-12-04 18:00:00,5,1018.9,2.1,81,2,20000,7.408,,,350,3.2,8.1,,,,,,,,,wg-a,,,,AAXX 04184 07110 12570 53504 10050 20020 30071 40189 53021 60006 84802 91800 333 10081 20032=
07110,1998-12-04 21:00:00,4,1020,1.1,75,0,20000,3.704,,,350,,,,,,,,,,,wg-a,,,,AAXX 04214 07110 12670 43502 10040 20000 30082 40200 51011 60006 83502 92100=
07110,1998-12-05 00:00:00,2,1021,0.9,87,0,20000,3.704,,,270,,,,,,,,,,,wg-a,,,,AAXX 05004 07110 12670 /2702 10020 20000 30091 40210 53009 60006 81500 90000=
07110,1998-12-05 03:00:00,2,1021,-0,87,0,15000,3.704,,,320,,,,,,,,,,,wg-a,,,,AAXX 05034 07110 12765 13202 10020 20000 30091 40210 55000 60006 81500 90300=
07110,1998-12-05 06:00:00,1,1021.4,0.3,93,0,20000,7.408,,,290,-0.6,4.8,,,,,1,,,,wg-a,,,,AAXX 05064 07110 02570 72904 10010 20000 30094 40214 53003 60006 875// 90600 333 10048 21006 60014=
07110,1998-12-05 09:00:00,4,1022,0.8,100,4,12000,7.408,,,250,,,,0,,,,,,21,wg-a,,,,AAXX 05094 07110 12462 62504 10040 20040 30102 40220 51008 60007 72162 86830 90900=
07110,1998-12-05 12:00:00,8,1022.2,0.3,81,5,15000,7.408,,,290,,,,,,,,,,25,wg-a,,,,AAXX 05124 07110 12565 62904 10080 20050 30105 40222 50003 60006 72562 85830 91200=
07110,1998-12-05 15:00:00,7,1021.7,-0.5,81,4,12000,18.52,,,290,,,,0,,,,,,25,wg-a,,,,AAXX 05154 07110 12462 62910 10070 20040 30100 40217 56005 60007 72522 86802 91500=
07110,1998-12-05 18:00:00,6,1022.2,0.4,87,4,12000,7.408,,,320,0.8,9,,,,,,,,,wg-a,,,,AAXX 05184 07110 12562 73204 10060 20040 30104 40222 53004 60006 878// 91800 333 10090 20008=
07110,1998-12-05 21:00:00,6,1022.9,0.7,93,5,12000,7.408,,,280,,,,1,,,,,,25,wg-a,,,,AAXX 05214 07110 12262 72804 10060 20050 30111 40229 51007 60017 72586 878// 92100=
07110,1998-12-06 00:00:00,5,1023.6,0.7,93,4,12000,7.408,,,300,,,,0,,,,,,3,wg-a,,,,AAXX 06004 07110 02462 /3004 10050 20040 30118 40236 52007 60016 70386 86800 90000 333 60007=
07110,1998-12-06 03:00:00,4,1023.9,0.2,93,3,11000,7.408,,,290,,,,,,,,,,,wg-a,,,,AAXX 06034 07110 12/61 /2904 10040 20030 30120 40239 53002 60006 90300=
07110,1998-12-06 06:00:00,6,1025,1.2,100,6,10000,3.704,,,350,3.4,6.4,,,,,,,,21,wg-a,,,,AAXX 06064 07110 02560 83502 10060 20060 30132 40250 52012 61000 72161 888// 90600 333 10064 20034 6002=
07110,1998-12-06 09:00:00,6,1026.6,1.6,100,6,10000,0,,,0,,,,1,,,,,,25,wg-a,,,,AAXX 06094 07110 12560 70000 10060 20060 30148 40266 53016 60017 72522 878// 90900=
07110,1998-12-06 12:00:00,8,1027.1,0.6,93,7,15000,7.408,,,190,,,,,,,,,,2,wg-a,,,,AAXX 06124 07110 12565 61904 10080 20070 30154 40271 50006 60016 70286 85830 91200=
07110,1998-12-06 15:00:00,8,1027.5,0.4,93,7,20000,3.704,,,170,,,,,,,,,,,wg-a,,,,AAXX 06154 07110 12570 71702 10080 20070 30158 40275 52004 60006 86802 91500=
07110,1998-12-06 18:00:00,6,1028.3,0.7,93,5,20000,7.408,,,140,4,8.8,,,,,,,,,wg-a,,,,AAXX 06184 07110 12570 71404 10060 20050 30165 40283 53007 60006 86502 91800 333 10088 20040=
07110,1998-12-06 21:00:00,4,1028.7,0.3,100,4,6000,7.408,,,150,,,,,,,,,,11,wg-a,,,,AAXX 06214 07110 12556 71504 10040 20040 30168 40287 53003 60006 71122 84502 92100=
07110,1998-12-07 00:00:00,4,1028.8,0.1,100,4,500,11.112,,,140,,,,,,,,,,,wg-a,,,,AAXX 07004 07110 12500 61406 10040 20040 30169 40288 50001 60006 83532 90000=
07110,1998-12-07 03:00:00,6,1028.6,-0.1,100,6,500,18.52,,,160,,,,1,,,,,,60,wg-a,,,,AAXX 07034 07110 12400 81610 10060 20060 30168 40286 58001 60017 76062 875// 90300=
07110,1998-12-07 06:00:00,6,1028.3,-0.3,100,6,500,14.816,,,150,3.4,6.5,,,,,,,,60,wg-a,,,,AAXX 07064 07110 02100 71508 10060 20060 30165 40283 56003 61000 76062 875// 90600 333 10065 20034 6003=
07110,1998-12-07 09:00:00,7,1029.2,0.9,100,7,8000,11.112,,,150,,,,,,,,,,2,wg-a,,,,AAXX 07094 07110 02458 /1506 10070 20070 30174 40292 53009 61000 70262 86800 90900 333 ////=
07110,1998-12-07 12:00:00,11,1029.1,0.1,100,11,8000,11.112,,,170,,,,,,,,,,1,wg-a,,,,AAXX 07124 07110 02458 81706 10110 20110 30175 40291 50001 61000 70162 888// 91200 333 ////=
07110,1998-12-07 15:00:00,12,1028.8,-0.3,88,10,11000,14.816,,,220,,,,,,,,,,,wg-a,,,,AAXX 07154 07110 12/61 /2208 10120 20100 30172 40288 57003 60006 91500=
07110,1998-12-07 18:00:00,10,1029.1,0.2,93,9,15000,11.112,,,190,6.3,11.8,,,,,,,,,wg-a,,,,AAXX 07184 07110 12/65 61906 10100 20090 30174 40291 53002 60006 85032 91800 333 10118 20063=
07110,1998-12-07 21:00:00,9,1029.3,0.2,100,9,10000,11.112,,,170,,,,,,,,,,,wg-a,,,,AAXX 07214 07110 12460 71706 10090 20090 30176 40293 50002 60006 8657/ 92100=
07110,1998-12-08 00:00:00,10,1028.3,-1,93,9,10000,18.52,,,180,,,,,,,,,,,wg-a,,,,AAXX 08004 07110 12460 71810 10100 20090 30166 40283 56010 60006 8657/ 90000=
07110,1998-12-08 03:00:00,10,1026.9,-1.3,93,9,10000,29.632,,,190,,,,,,,,,,,wg-a,,,,AAXX 08034 07110 12460 71916 10100 20090 30153 40269 56013 60006 8457/ 90300=
07110,1998-12-08 06:00:00,10,1025.4,-1.5,93,9,8000,29.632,,,190,9.1,10.4,,,,,,,,60,wg-a,,,,AAXX 08064 07110 02258 81916 10100 20090 30138 40254 56015 61000 76062 8757/ 90600 333 10104 20091 6000=
07110,1998-12-08 09:00:00,10,1025.1,-0.3,100,10,4000,29.632,,,180,,,,2,,,,,,61,wg-a,,,,AAXX 08094 07110 12240 71816 10100 20100 30135 40251 56003 60027 76166 877// 90900=
07110,1998-12-08 12:00:00,10,1024.1,-1,100,10,4000,29.632,,,190,,,,2,,,,,,61,wg-a,,,,AAXX 08124 07110 02340 71916 10100 20100 30125 40241 58010 60046 76166 877// 91200 333 60027=
07110,1998-12-08 18:00:00,11,1022,-0.4,100,11,4000,25.928,,,180,9.6,10.8,,,,,,,,61,wg-a,,,,AAXX 08184 07110 02240 71814 10110 20110 30105 40220 56004 61000 76166 877// 91800 333 10108 20096 6004=
07110,1998-12-08 21:00:00,11,1020.5,-1.5,100,11,4000,25.928,,,170,,,,32,,,,,,63,wg-a,,,,AAXX 08214 07110 12240 81714 10110 20110 30090 40205 58015 60327 76366 887// 92100=
07110,1998-12-09 00:00:00,12,1019.6,-0.9,100,12,4000,25.928,,,210,,,,8,,,,,,61,wg-a,,,,AAXX 09004 07110 02140 82114 10120 20120 30081 40196 56009 60406 76166 887// 90000 333 60087=
07110,1998-12-09 03:00:00,11,1019.6,-0,100,11,12000,7.408,,,210,,,,0,,,,,,1,wg-a,,,,AAXX 09034 07110 12162 82104 10110 20110 30081 40196 55000 60007 70162 875// 90300=
07110,1998-12-09 06:00:00,11,1020.4,0.8,100,11,1500,7.408,,,240,10.5,12.1,,,,,52,,,28,wg-a,,,,AAXX 09064 07110 02115 82404 10110 20110 30089 40204 53008 60006 72864 886// 90600 333 10121 20105 60524=
07110,1998-12-09 09:00:00,11,1020.6,0.2,100,11,15000,0,,,0,,,,5,,,,,,28,wg-a,,,,AAXX 09094 07110 12465 80000 10110 20110 30091 40206 50002 60057 72886 872// 90900=
07110,1998-12-09 12:00:00,12,1021.4,0.8,88,10,15000,14.816,,,300,,,,0,,,,,,3,wg-a,,,,AAXX 09124 07110 02465 33008 10120 20100 30099 40214 51008 60056 70386 83200 91200 333 60007=
07110,1998-12-09 18:00:00,9,1022.2,0.5,100,9,15000,11.112,,,180,8.7,12.8,,,,,,,,,wg-a,,,,AAXX 09184 07110 12465 /1806 10090 20090 30106 40222 51005 60006 81400 91800 333 10128 20087=
07110,1998-12-09 21:00:00,10,1022,-0.2,100,10,600,14.816,,,170,,,,,,,,,,45,wg-a,,,,AAXX 09214 07110 12/06 91708 10100 20100 30104 40220 58002 60006 74541 89/// 92100=
07110,1998-12-10 00:00:00,10,1020.9,-1.1,100,10,6000,18.52,,,170,,,,,,,,,,2,wg-a,,,,AAXX 10004 07110 12156 81710 10100 20100 30093 40209 58011 60006 70241 886// 90000=
07110,1998-12-10 03:00:00,11,1018.8,-2,100,11,10000,18.52,,,170,,,,,,,,,,,wg-a,,,,AAXX 10034 07110 12160 81710 10110 20110 30073 40188 57020 60006 886// 90300=
07110,1998-12-10 06:00:00,12,1016.8,-1.9,100,12,10000,22.224,,,180,8.7,11.9,,,,,,,,50,wg-a,,,,AAXX 10064 07110 02260 81812 10120 20120 30054 40168 57019 61000 75052 886// 90600 333 10119 20087 6006=
07110,1998-12-10 09:00:00,13,1015,-1.8,100,13,4000,29.632,,,200,,,,0,,,,,,58,wg-a,,,,AAXX 10094 07110 12140 82016 10130 20130 30036 40150 56018 60007 75865 887// 90900=
07110,1998-12-10 12:00:00,12,1013.9,-1.1,100,12,7000,22.224,,,250,,,,1,,,,,,20,wg-a,,,,AAXX 10124 07110 02257 82512 10120 20120 30025 40139 56011 60016 72065 887// 91200 333 60017=
07110,1998-12-10 15:00:00,12,1014.7,0.8,94,11,15000,18.52,,,270,,,,,,,,,,,wg-a,,,,AAXX 10154 07110 12465 32710 10120 20110 30033 40147 53008 60006 83800 91500=
07110,1998-12-10 18:00:00,9,1017.2,2.3,100,9,11000,11.112,,,250,9.1,13.3,,,,,,,,,wg-a,,,,AAXX 10184 07110 12/61 /2506 10090 20090 30056 40172 51023 60006 91800 333 10133 20091=
07110,1998-12-10 21:00:00,9,1018.6,1.4,100,9,20000,7.408,,,240,,,,,,,,,,,wg-a,,,,AAXX 10214 07110 12/70 02404 10090 20090 30070 40186 53014 60006 80000 92100=
07110,1998-12-11 00:00:00,8,1019.1,0.5,100,8,15000,11.112,,,230,,,,,,,,,,,wg-a,,,,AAXX 11004 07110 12465 22306 10080 20080 30075 40191 51005 60006 82500 90000=
07110,1998-12-11 03:00:00,8,1019.9,0.7,100,8,15000,11.112,,,230,,,,0,,,,,,,wg-a,,,,AAXX 11034 07110 12/65 42306 10080 20080 30082 40199 53007 60007 82031 90300=
07110,1998-12-11 06:00:00,6,1019.9,-0,100,6,15000,11.112,,,180,6.3,9.1,,,,,2,,,,wg-a,,,,AAXX 11064 07110 02665 41806 10060 20060 30082 40199 55000 60006 81531 90600 333 10091 20063 60024=
07110,1998-12-11 09:00:00,9,1020.1,0.3,100,9,500,11.112,,,170,,,,,,,,,,,wg-a,,,,AAXX 11094 07110 12500 71706 10090 20090 30085 40201 50003 60006 875// 90900=
07110,1998-12-11 12:00:00,11,1018.2,-1.8,100,11,500,22.224,,,180,,,,0,,,,,,60,wg-a,,,,AAXX 11124 07110 02200 71812 10110 20110 30067 40182 58018 60016 76061 875// 91200 333 60007=
07110,1998-12-11 15:00:00,11,1016.7,-1.5,100,11,1500,25.928,,,180,,,,3,,,,,,51,wg-a,,,,AAXX 11154 07110 12115 81814 10110 20110 30052 40167 56015 60037 75166 885// 91500=
07110,1998-12-11 18:00:00,13,1017.2,0.6,100,13,1000,14.816,,,220,6.2,13,,,,,,,,50,wg-a,,,,AAXX 11184 07110 02110 82208 10130 20130 30058 40172 53006 61000 75065 885// 91800 333 10130 20062 6001=
07110,1998-12-11 21:00:00,13,1017.5,0.3,100,13,1000,22.224,,,210,,,,1,,,,,,50,wg-a,,,,AAXX 11214 07110 12110 82112 10130 20130 30061 40175 51003 60017 75055 887// 92100=
07110,1998-12-12 00:00:00,14,1017.9,0.4,100,14,2000,25.928,,,230,,,,1,,,,,,50,wg-a,,,,AAXX 12004 07110 02120 82314 10140 20140 30065 40179 50004 60026 75055 887// 90000 333 60017=
07110,1998-12-12 03:00:00,14,1018.5,0.6,100,14,1600,25.928,,,230,,,,1,,,,,,50,wg-a,,,,AAXX 12034 07110 12116 82314 10140 20140 30071 40185 53006 60017 75055 887// 90300=
07110,1998-12-12 06:00:00,13,1018.4,-0.1,100,13,1000,25.928,,,220,13,13.8,,,,,,,,10,wg-a,,,,AAXX 12064 07110 02010 82214 10130 20130 30070 40184 56001 61000 71055 887// 90600 333 10138 20130 6008=
07110,1998-12-12 09:00:00,14,1018.8,0.4,100,14,400,29.632,,,210,,,,0,,,,,,10,wg-a,,,,AAXX 12094 07110 12004 82116 10140 20140 30074 40188 52004 60007 71055 887// 90900=
07110,1998-12-12 12:00:00,14,1018.2,-0.6,100,14,800,35.188,,50.004,210,,,,3,,,,,,61,wg-a,,,,AAXX 12124 07110 02008 82119 10140 20140 30068 40182 58006 60046 76165 887// 91200 333 60037 91027=
07110,1998-12-12 15:00:00,14,1017.2,-1,100,14,2000,35.188,,,220,,,,3,,,,,,61,wg-a,,,,AAXX 12154 07110 12120 82219 10140 20140 30058 40172 56010 60037 76166 887// 91500=
07110,1998-12-12 18:00:00,14,1020.1,2.9,94,13,6000,31.484,,50.004,250,13.3,13.7,,,,,,,,21,wg-a,,,,AAXX 12184 07110 02256 82517 10140 20130 30087 40201 53029 61000 72164 887// 91800 333 10137 20133 6000 91027=
07110,1998-12-12 21:00:00,12,1023.9,3.7,94,11,8000,18.52,,,250,,,,0,,,,,,,wg-a,,,,AAXX 12214 07110 12458 72510 10120 20110 30124 40239 51037 60007 875// 92100=
07110,1998-12-13 00:00:00,11,1027.1,3.1,94,10,10000,11.112,,,240,,,,,,,,,,,wg-a,,,,AAXX 13004 07110 12460 /2406 10110 20100 30155 40271 51031 60006 85500 90000=
07110,1998-12-13 03:00:00,9,1029.2,2,93,8,10000,7.408,,,240,,,,,,,,,,,wg-a,,,,AAXX 13034 07110 12460 42404 10090 20080 30175 40292 53020 60006 84500 90300=
07110,1998-12-13 06:00:00,9,1031.3,2.1,100,9,10000,7.408,,,230,8.7,13.6,,,,,7,,,,wg-a,,,,AAXX 13064 07110 02/60 02304 10090 20090 30196 40313 51021 60006 80000 90600 333 10136 20087 60074=
07110,1998-12-13 09:00:00,11,1032.4,1.1,100,11,800,14.816,,,190,,,,0,,,,,,44,wg-a,,,,AAXX 13094 07110 12108 81908 10110 20110 30207 40324 53011 60007 74441 876// 90900=
07110,1998-12-13 12:00:00,11,1031.8,-0.5,100,11,10000,22.224,,,170,,,,,,,,,,1,wg-a,,,,AAXX 13124 07110 12260 /1712 10110 20110 30202 40318 58005 60006 70141 82602 91200=
07110,1998-12-13 15:00:00,12,1029.5,-2.3,94,11,7000,31.484,,,180,,,,,,,,,,,wg-a,,,,AAXX 13154 07110 12457 71817 10120 20110 30179 40295 56023 60006 876// 91500=
07110,1998-12-13 18:00:00,13,1029.7,0.3,100,13,800,25.928,,,200,8.2,12.8,,,,,,,,51,wg-a,,,,AAXX 13184 07110 02008 82014 10130 20130 30182 40297 51003 61000 75154 887// 91800 333 10128 20082 6100=
07110,1998-12-13 21:00:00,13,1029.7,0,100,13,200,25.928,,,200,,,,0,,,,,,44,wg-a,,,,AAXX 13214 07110 12002 82014 10130 20130 30182 40297 50000 60007 74454 887// 92100=
07110,1998-12-14 00:00:00,13,1029.4,-0.3,100,13,400,25.928,,,200,,,,,,,,,,44,wg-a,,,,AAXX 14004 07110 12104 82014 10130 20130 30179 40294 56003 60006 74454 887// 90000=
07110,1998-12-14 06:00:00,12,1028.1,-1.3,100,12,8000,22.224,,,180,11.8,13.1,,,,,1,,,1,wg-a,,,,AAXX 14064 07110 02258 /1812 10120 20120 30165 40281 58013 60006 70142 85700 90600 333 10131 20118 60014=
07110,1998-12-14 09:00:00,12,1028.1,0.1,100,12,6000,29.632,,,190,,,,,,,,,,,wg-a,,,,AAXX 14094 07110 12256 81916 10120 20120 30166 40281 50001 60006 887// 90900=
07110,1998-12-14 12:00:00,12,1028.2,0.1,100,12,7000,22.224,,,190,,,,,,,,,,,wg-a,,,,AAXX 14124 07110 12457 81912 10120 20120 30167 40282 50001 60006 876// 91200=
07110,1998-12-14 15:00:00,12,1027.7,-0.6,100,12,500,22.224,,,200,,,,,,,,,,,wg-a,,,,AAXX 14154 07110 12200 82012 10120 20120 30161 40277 55006 60006 886// 91500=
07110,1998-12-14 18:00:00,12,1028.3,0.6,94,11,6000,18.52,,,200,11.3,12.5,,,,,,,,,wg-a,,,,AAXX 14184 07110 12356 72010 10120 20110 30167 40283 51006 60006 876// 91800 333 10125 20113=
07110,1998-12-15 00:00:00,12,1027.8,-0.3,100,12,3000,18.52,,,200,,,,,,,,,,,wg-a,,,,AAXX 15004 07110 02/30 /2010 10120 20120 30162 40278 58003 61000 90000 333 ////=
07110,1998-12-15 06:00:00,12,1027.1,-0.2,100,12,600,18.52,,,200,11.5,12.5,,,,,,,,51,wg-a,,,,AAXX 15064 07110 02006 82010 10120 20120 30156 40271 58002 61000 75165 887// 90600 333 10125 20115 6001=
07110,1998-12-15 09:00:00,12,1027.7,0.6,100,12,3000,22.224,,,200,,,,0,,,,,,10,wg-a,,,,AAXX 15094 07110 12230 82012 10120 20120 30162 40277 53006 60007 71054 887// 90900=
07110,1998-12-15 12:00:00,13,1027.8,0.1,100,13,2000,18.52,,,220,,,,0,,,,,,10,wg-a,,,,AAXX 15124 07110 02120 82210 10130 20130 30163 40278 50001 60016 71054 886// 91200 333 60007=
07110,1998-12-15 15:00:00,13,1028,0.2,100,13,4000,7.408,,,210,,,,0,,,,,,10,wg-a,,,,AAXX 15154 07110 12240 82104 10130 20130 30165 40280 53002 60007 71054 886// 91500=
07110,1998-12-15 18:00:00,12,1030.1,2,100,12,7000,7.408,,,300,11.7,12.7,,,,,,,,1,wg-a,,,,AAXX 15184 07110 02357 /3004 10120 20120 30185 40301 51020 60006 70154 876// 91800 333 10127 20117 61000=
07110,1998-12-15 21:00:00,11,1031.8,1.6,100,11,15000,3.704,,,310,,,,,,,,,,28,wg-a,,,,AAXX 15214 07110 12265 73102 10110 20110 30201 40318 53016 60006 72842 876// 92100=
07110,1998-12-16 00:00:00,10,1032.9,1.1,100,10,10000,0,,,0,,,,,,,,,,1,wg-a,,,,AAXX 16004 07110 12260 80000 10100 20100 30212 40329 52011 60006 70142 876// 90000=
07110,1998-12-16 03:00:00,9,1033.7,0.7,93,8,10000,11.112,,,130,,,,,,,,,,,wg-a,,,,AAXX 16034 07110 12460 /1306 10090 20080 30219 40337 50007 60006 85600 90300=
07110,1998-12-16 06:00:00,8,1032.6,-1.1,100,8,10000,14.816,,,160,6.6,11.9,,,,,1,,,,wg-a,,,,AAXX 16064 07110 02160 71608 10080 20080 30208 40326 56011 60006 876// 90600 333 10119 20066 60014=
07110,1998-12-16 09:00:00,9,1032.1,-0.4,100,9,500,22.224,,,160,,,,,,,,,,44,wg-a,,,,AAXX 16094 07110 12005 81612 10090 20090 30204 40321 55004 60006 74442 886// 90900=
07110,1998-12-16 12:00:00,10,1031.9,-0.2,93,9,6000,22.224,,,160,,,,,,,,,,1,wg-a,,,,AAXX 16124 07110 12256 71612 10100 20090 30202 40319 58002 60006 70142 875// 91200=
07110,1998-12-16 15:00:00,10,1030.4,-1.5,93,9,6000,22.224,,,160,,,,,,,,,,,wg-a,,,,AAXX 16154 07110 12156 71612 10100 20090 30187 40304 56015 60006 877// 91500=
07110,1998-12-16 18:00:00,9,1029.5,-0.9,100,9,8000,25.928,,,150,7.9,9.7,,,,,,,,,wg-a,,,,AAXX 16184 07110 12358 71514 10090 20090 30178 40295 58009 60006 875// 91800 333 10097 20079=
07110,1998-12-16 21:00:00,8,1028.4,-1.1,93,7,6000,25.928,,,150,,,,,,,,,,,wg-a,,,,AAXX 16214 07110 12156 81514 10080 20070 30167 40284 58011 60006 886// 92100=
07110,1998-12-17 00:00:00,8,1027.1,-1.3,100,8,4000,22.224,,,160,,,,,,,,,,10,wg-a,,,,AAXX 17004 07110 12240 81612 10080 20080 30154 40271 56013 60006 71022 886// 90000=
07110,1998-12-17 03:00:00,7,1026.4,-0.8,100,7,4000,25.928,,,170,,,,,,,,,,10,wg-a,,,,AAXX 17034 07110 12240 81714 10070 20070 30146 40264 56008 60006 71022 886// 90300=
07110,1998-12-17 06:00:00,8,1024.1,-2.2,93,7,8000,22.224,,,160,6.8,9.4,,,,,,,,,wg-a,,,,AAXX 17064 07110 02458 81612 10080 20070 30124 40241 57022 60006 886// 90600 333 10094 20068 60004=
07110,1998-12-17 12:00:00,10,1022.9,-1.1,93,9,12000,22.224,,,180,,,,,,,,,,,wg-a,,,,AAXX 17124 07110 12462 81812 10100 20090 30113 40229 58011 60006 875// 91200=
07110,1998-12-17 15:00:00,11,1021.4,-1.4,94,10,15000,22.224,,,190,,,,,,,,,,,wg-a,,,,AAXX 17154 07110 12465 61912 10110 20100 30099 40214 55014 60006 86801 91500=
07110,1998-12-17 18:00:00,11,1021.3,-0.1,94,10,12000,22.224,,,200,8.1,11.2,,,,,,,,,wg-a,,,,AAXX 17184 07110 12462 72012 10110 20100 30098 40213 56001 60006 875// 91800 333 10112 20081=
07110,1998-12-17 21:00:00,12,1020.6,-0.7,88,10,12000,25.928,,,190,,,,,,,,,,,wg-a,,,,AAXX 17214 07110 12462 71914 10120 20100 30091 40206 56007 60006 875// 92100=
07110,1998-12-18 00:00:00,10,1020.8,0.1,100,10,10000,3.704,,,200,,,,4,,,,,,60,wg-a,,,,AAXX 18004 07110 02560 72002 10100 20100 30092 40208 53001 60046 76062 875// 90000 333 60047=
07110,1998-12-18 03:00:00,9,1021.4,0.6,100,9,11000,7.408,,,210,,,,,,,,,,,wg-a,,,,AAXX 18034 07110 32/61 /2104 10090 20090 30098 40214 51006 90300=
07110,1998-12-18 06:00:00,9,1020.9,-0.5,100,9,15000,7.408,,,220,8.7,11.6,,,,,5,,,3,wg-a,,,,AAXX 18064 07110 02465 72204 10090 20090 30093 40209 55005 60006 70361 878// 90600 333 10116 20087 60054=
07110,1998-12-18 09:00:00,7,1021.6,0.6,100,7,15000,7.408,,,200,,,,0,,,,,,,wg-a,,,,AAXX 18094 07110 12465 42004 10070 20070 30099 40216 51006 60007 82801 90900=
07110,1998-12-18 12:00:00,12,1019.6,-1.8,82,9,15000,25.928,,44.448,220,,,,,,,,,,,wg-a,,,,AAXX 18124 07110 12565 42214 10120 20090 30081 40196 58018 60006 83801 91200 333 91024=
07110,1998-12-18 15:00:00,12,1017.1,-2.5,82,9,15000,25.928,,,220,,,,,,,,,,,wg-a,,,,AAXX 18154 07110 12465 62214 10120 20090 30056 40171 56025 60006 86800 91500=
07110,1998-12-18 18:00:00,10,1016.3,-0.8,93,9,15000,25.928,,,270,6.9,12.3,,,,,,,,80,wg-a,,,,AAXX 18184 07110 02465 82714 10100 20090 30048 40163 55008 61000 78086 882// 91800 333 10123 20069 6002=
07110,1998-12-18 21:00:00,10,1016.6,0.3,82,7,12000,29.632,,50.004,250,,,,,,,,,,3,wg-a,,,,AAXX 18214 07110 02462 /2516 10100 20070 30051 40166 50003 61000 70386 86500 92100 333 //// 91027=
07110,1998-12-19 00:00:00,10,1019,2.3,82,7,10000,29.632,,44.448,300,,,,0,,,,,,25,wg-a,,,,AAXX 19004 07110 02260 73016 10100 20070 30074 40190 53023 60006 72586 878// 90000 333 60007 91024=
07110,1998-12-19 03:00:00,9,1022.1,3.1,81,6,10000,14.816,,,300,,,,,,,,,,,wg-a,,,,AAXX 19034 07110 12560 63008 10090 20060 30097 40221 51031 60006 86800 90300=
07110,1998-12-19 06:00:00,8,1023.4,1.2,81,5,15000,14.816,,,300,7.9,10.5,,,,,2,,,,wg-a,,,,AAXX 19064 07110 02565 43008 10080 20050 30117 40234 51012 60006 84800 90600 333 10105 20079 60024=
07110,1998-12-19 09:00:00,8,1024.4,1,81,5,15000,14.816,,,280,,,,0,,,,,,1,wg-a,,,,AAXX 19094 07110 12565 52808 10080 20050 30127 40244 53010 60007 70186 85801 90900=
07110,1998-12-19 12:00:00,11,1023.7,-0.6,71,6,15000,22.224,,,280,,,,,,,,,,2,wg-a,,,,AAXX 19124 07110 12565 62812 10110 20060 30121 40237 58006 60006 70286 82254 91200=
07110,1998-12-19 15:00:00,10,1020,-2.9,71,5,15000,14.816,,,240,,,,,,,,,,,wg-a,,,,AAXX 19154 07110 12565 72408 10100 20050 30087 40200 58029 60006 8//9/ 91500=
07110,1998-12-19 18:00:00,8,1016.8,-4,93,7,8000,11.112,,,200,6.1,10.5,,,,,,,,63,wg-a,,,,AAXX 19184 07110 02458 82006 10080 20070 30052 40168 58040 61000 76362 8787/ 91800 333 10105 20061 6005=
07110,1998-12-19 21:00:00,8,1007.6,-9.1,100,8,6000,31.484,,,180,,,,12,,,,,,63,wg-a,,,,AAXX 19214 07110 12256 81817 10080 20080 39961 40076 58091 60127 76366 885// 92100=
07110,1998-12-20 00:00:00,9,994.1,-13.3,93,8,12000,31.484,,64.82,240,,,,10,,,,,,21,wg-a,,,,AAXX 20004 07110 02362 82417 10090 20080 39828 49941 56133 60216 72162 875// 90000 333 60107 91035=
07110,1998-12-20 03:00:00,6,999.4,5.1,93,5,6000,53.708,,85.192,10,,,,1,,,,,,61,wg-a,,,,AAXX 20034 07110 12256 80129 10060 20050 39879 49994 53051 60017 76162 875// 90300 333 91046=
07110,1998-12-20 06:00:00,7,1007.5,8.1,81,4,8000,42.596,,72.228,360,5.8,10.9,,,,,,,,25,wg-a,,,,AAXX 20064 07110 02258 83623 10070 20040 39960 40075 51081 61000 72586 875// 90600 333 10109 20058 6028 91039=
07110,1998-12-20 09:00:00,6,1012.9,5.3,87,4,500,31.484,,59.264,360,,,,1,,,,,,27,wg-a,,,,AAXX 20094 07110 12500 43617 10060 20040 30013 40129 51053 60017 72787 84900 90900 333 91032=
07110,1998-12-20 12:00:00,7,1017,4.1,76,3,20000,29.632,,,10,,,,,,,,,,1,wg-a,,,,AAXX 20124 07110 12570 /0116 10070 20030 30054 40170 51041 60016 70187 86800 91200=
07110,1998-12-20 15:00:00,7,1019.1,2,70,2,20000,18.52,,48.152,10,,,,,,,,,,,wg-a,,,,AAXX 20154 07110 12570 30110 10070 20020 30074 40191 53020 60006 83800 91500 333 91026=
07110,1998-12-20 18:00:00,5,1022.3,3.1,81,2,20000,11.112,,,10,5.1,7.7,,,,,,,,,wg-a,,,,AAXX 20184 07110 12570 50106 10050 20020 30105 40223 51031 60006 85800 91800 333 10077 20051=
07110,1998-12-20 21:00:00,4,1024.2,1.8,81,1,20000,7.408,,,320,,,,,,,,,,,wg-a,,,,AAXX 20214 07110 12670 33204 10040 20010 30123 40242 53018 60006 83500 92100=
07110,1998-12-21 00:00:00,2,1025.3,1,87,0,20000,3.704,,,310,,,,,,,,,,,wg-a,,,,AAXX 21004 07110 12670 33102 10020 20000 30133 40253 51010 60006 8/900 90000=
07110,1998-12-21 06:00:00,-1,1026,-0,93,-2,20000,3.704,,,240,-1.2,5,,,,,1,,,,wg-a,,,,AAXX 21064 07110 02670 /2402 11010 21020 30139 40260 54000 60006 81500 90600 333 10050 21012 60014=
07110,1998-12-21 09:00:00,1,1027.5,1.5,93,0,20000,3.704,,,180,,,,,,,,,,,wg-a,,,,AAXX 21094 07110 12670 41802 10010 20000 30154 40275 53015 60006 84500 90900=
07110,1998-12-21 12:00:00,7,1027.1,-0.1,76,3,25000,14.816,,,180,,,,,,,,,,,wg-a,,,,AAXX 21124 07110 12675 51808 10070 20030 30153 40271 58001 60006 85500 91200=
07110,1998-12-21 15:00:00,7,1026.7,-0.4,81,4,25000,7.408,,,190,,,,,,,,,,,wg-a,,,,AAXX 21154 07110 12675 /1904 10070 20040 30149 40267 56004 60006 86501 91500=
07110,1998-12-21 18:00:00,7,1026.4,-0.3,81,4,25000,7.408,,,180,-1.4,7.8,,,,,,,,,wg-a,,,,AAXX 21184 07110 12675 71804 10070 20040 30146 40264 58003 60006 875// 91800 333 10078 21014=
07110,1998-12-21 21:00:00,8,1026,-0.3,81,5,15000,18.52,,,220,,,,,,,,,,,wg-a,,,,AAXX 21214 07110 12565 72210 10080 20050 30143 40260 56003 60006 875// 92100=
07110,1998-12-22 00:00:00,8,1025.5,-0.5,93,7,500,18.52,,,180,,,,0,,,,,,51,wg-a,,,,AAXX 22004 07110 02100 81810 10080 20070 30138 40255 58005 60016 75152 887// 90000 333 60007=
07110,1998-12-22 03:00:00,9,1024.7,-0.8,100,9,2500,14.816,,,220,,,,3,,,,,,51,wg-a,,,,AAXX 22034 07110 12025 82208 10090 20090 30130 40247 56008 60037 75155 887// 90300=
07110,1998-12-22 06:00:00,9,1024,-0.6,100,9,500,18.52,,37.04,210,6.8,9.3,,,,,,,,51,wg-a,,,,AAXX 22064 07110 02100 72110 10090 20090 30124 40240 56006 61000 75155 877// 90600 333 10093 20068 6004 91020=
07110,1998-12-22 09:00:00,9,1024.3,0.3,100,9,500,22.224,,,200,,,,0,,,,,,50,wg-a,,,,AAXX 22094 07110 12200 82012 10090 20090 30127 40243 53003 60007 75055 886// 90900=
07110,1998-12-22 12:00:00,10,1024.1,-0.2,93,9,6000,29.632,,,200,,,,1,,,,,,21,wg-a,,,,AAXX 22124 07110 02256 82016 10100 20090 30125 40241 58002 60016 72165 876// 91200 333 60017=
07110,1998-12-22 15:00:00,10,1023.4,-0.7,93,9,8000,18.52,,,200,,,,,,,,,,,wg-a,,,,AAXX 22154 07110 12358 82010 10100 20090 30118 40234 56007 60006 876// 91500=
07110,1998-12-22 18:00:00,9,1023.3,-0.1,93,8,10000,18.52,,,170,8.9,9.8,,,,,,,,,wg-a,,,,AAXX 22184 07110 12560 81710 10090 20080 30117 40233 56001 60006 875// 91800 333 10098 20089=
07110,1998-12-22 21:00:00,10,1022.7,-0.6,87,8,12000,18.52,,,190,,,,,,,,,,,wg-a,,,,AAXX 22214 07110 12462 81910 10100 20080 30111 40227 55006 60006 885// 92100=
07110,1998-12-23 00:00:00,9,1021.6,-1.1,87,7,12000,22.224,,,190,,,,,,,,,,,wg-a,,,,AAXX 23004 07110 12562 71912 10090 20070 30100 40216 58011 60006 875// 90000=
07110,1998-12-23 03:00:00,9,1020.7,-0.9,87,7,12000,22.224,,,190,,,,,,,,,,,wg-a,,,,AAXX 23034 07110 12562 71912 10090 20070 30091 40207 56009 60006 875// 90300=
07110,1998-12-23 06:00:00,9,1018.9,-1.8,87,7,12000,22.224,,,180,8.4,9.5,,,,,1,,,,wg-a,,,,AAXX 23064 07110 02562 71812 10090 20070 30073 40189 57018 60006 875// 90600 333 10095 20084 60014=
07110,1998-12-23 09:00:00,9,1019,0.1,81,6,10000,22.224,,,180,,,,,,,,,,,wg-a,,,,AAXX 23094 07110 12560 81812 10090 20060 30074 40190 50001 60006 885// 90900=
07110,1998-12-23 12:00:00,9,1017.4,-1.6,93,8,500,22.224,,,190,,,,1,,,,,,61,wg-a,,,,AAXX 23124 07110 02400 81912 10090 20080 30058 40174 58016 60016 76186 885// 91200 333 60017=
07110,1998-12-23 15:00:00,7,1017,-0.4,100,7,7000,11.112,,,330,,,,9,,,,,,2,wg-a,,,,AAXX 23154 07110 12257 83306 10070 20070 30054 40170 55004 60097 70262 885// 91500=
07110,1998-12-23 18:00:00,6,1018.7,1.6,100,6,8000,14.816,,,10,6.2,9.1,,,,,,,,63,wg-a,,,,AAXX 23184 07110 02458 80108 10060 20060 30070 40187 51016 61000 76386 878// 91800 333 10091 20062 6003=
07110,1998-12-23 21:00:00,6,1020.4,1.7,93,5,8000,25.928,,44.448,320,,,,1,,,,,,80,wg-a,,,,AAXX 23214 07110 12258 73214 10060 20050 30087 40204 53017 60017 78086 879// 92100 333 91024=
07110,1998-12-24 00:00:00,5,1022,1.5,93,4,8000,11.112,,,300,,,,0,,,,,,80,wg-a,,,,AAXX 24004 07110 12558 53006 10050 20040 30102 40220 53015 60007 78086 85300 90000=
07110,1998-12-24 03:00:00,4,1023.2,1.1,93,3,20000,7.408,,,240,,,,0,,,,,,0,wg-a,,,,AAXX 24034 07110 12570 22404 10040 20030 30113 40232 53011 60007 700// 82200 90300=
07110,1998-12-24 06:00:00,2,1024.1,0.8,93,1,20000,7.408,,,220,0.9,6.5,,,,,15,,,2,wg-a,,,,AAXX 24064 07110 12570 /2204 10020 20010 30121 40241 52008 60154 70286 81800 90600 333 10065 20009=
07110,1998-12-24 12:00:00,9,1025.4,0.3,87,7,15000,18.52,,,220,,,,0,,,,,,3,wg-a,,,,AAXX 24124 07110 12565 82210 10090 20070 30137 40254 50003 60007 70386 8355/ 91200=
07110,1998-12-24 15:00:00,10,1024,,87,8,11000,18.52,,,210,,,,,,,62,,,0,wg-a,,,,AAXX 24154 07110 12561 82110 10100 20080 30124 40240 56/// 62624 700// 8557/ 91500=
07110,1998-12-24 18:00:00,10,1024.2,0.2,93,9,4000,22.224,,,230,1.6,10,,2,,,,,,61,wg-a,,,,AAXX 24184 07110 12340 82312 10100 20090 30126 40242 51002 60027 76162 875// 91800 333 10100 20016=
07110,1998-12-24 21:00:00,11,1024.2,-0,100,11,8000,18.52,,,240,,,,3,,,,,,61,wg-a,,,,AAXX 24214 07110 12258 82410 10110 20110 30126 40242 55000 60037 76166 887// 92100=
07110,1998-12-25 00:00:00,11,1024.2,0,94,10,8000,18.52,,,230,,,,,,,,,,1,wg-a,,,,AAXX 25004 07110 02358 72310 10110 20100 30126 40242 50000 61000 70162 877// 90000 333 ////=
07110,1998-12-25 03:00:00,11,1024,-0.2,94,10,10000,22.224,,38.892,220,,,,,,,,,,0,wg-a,,,,AAXX 25034 07110 32360 72212 10110 20100 30124 40240 57002 700// 877// 90300 333 91021=
07110,1998-12-25 06:00:00,11,1023.4,-0.5,100,11,10000,22.224,,,220,9.6,11.2,,0,,,6,,,0,wg-a,,,,AAXX 25064 07110 02460 72212 10110 20110 30119 40234 55005 60064 700// 877// 90600 333 10112 20096 60007=
07110,1998-12-25 09:00:00,11,1023,-0.4,100,11,11000,29.632,,,210,,,,,,,,,,,wg-a,,,,AAXX 25094 07110 32/61 /2116 10110 20110 30115 40230 55004 90900=
07110,1998-12-25 12:00:00,11,1021.4,-1.6,94,10,1000,31.484,,55.56,210,,,,1,,,,,,58,wg-a,,,,AAXX 25124 07110 12010 82117 10110 20100 30099 40214 58016 60017 75865 886// 91200 333 91030=
07110,1998-12-25 15:00:00,11,1018.3,-3.1,94,10,1000,35.188,,55.56,200,,,,1,,,,,,51,wg-a,,,,AAXX 25154 07110 12210 82019 10110 20100 30068 40183 56031 60017 75166 887// 91500 333 91030=
07110,1998-12-25 18:00:00,10,1018.8,0.5,93,9,9000,25.928,,,230,10.1,11.4,,7,,,,,,21,wg-a,,,,AAXX 25184 07110 12459 32314 10100 20090 30073 40188 53005 60077 72165 83500 91800 333 10114 20101=
07110,1998-12-25 21:00:00,11,1019.6,0.8,87,9,15000,22.224,,,250,,,,,,,,,,0,wg-a,,,,AAXX 25214 07110 32465 72512 10110 20090 30081 40196 51008 700// 875// 92100=
07110,1998-12-26 00:00:00,10,1020.3,0.6,93,9,10000,11.112,,,220,,,,,,,,,,2,wg-a,,,,AAXX 26004 07110 12560 72206 10100 20090 30087 40203 50006 60006 70261 8453/ 90000=
07110,1998-12-26 03:00:00,10,1020.1,-0.2,87,8,10000,14.816,,,220,,,,,,,,,,,wg-a,,,,AAXX 26034 07110 12560 72208 10100 20080 30085 40201 58002 60006 8553/ 90300=
07110,1998-12-26 06:00:00,10,1017.3,-2.7,100,10,10000,18.52,,,190,9.4,11.3,,,,,9,,,,wg-a,,,,AAXX 26064 07110 02460 41910 10100 20100 30058 40173 58027 60006 83570 90600 333 10113 20094 60094=
07110,1998-12-26 09:00:00,11,1014.1,-3.1,100,11,6000,31.484,,,190,,,,1,,,,,,61,wg-a,,,,AAXX 26094 07110 12256 81917 10110 20110 30027 40141 58031 60017 76161 887// 90900=
07110,1998-12-26 12:00:00,12,1009,-5,100,12,2000,46.3,,68.524,200,,,,4,,,,,,61,wg-a,,,,AAXX 26124 07110 02220 82025 10120 20120 39977 40090 58050 60046 76161 887// 91200 333 60047 91037=
07110,1998-12-26 15:00:00,12,1006,-3,100,12,3000,50.004,,66.672,220,,,,16,,,,,,63,wg-a,,,,AAXX 26154 07110 12230 82227 10120 20120 39947 40060 56030 60167 76366 887// 91500 333 91036=
07110,1998-12-26 18:00:00,13,1006.2,0.2,100,13,6000,35.188,,68.524,240,10,12.9,,,,,,,,61,wg-a,,,,AAXX 26184 07110 02256 82419 10130 20130 39949 40062 53002 61000 76162 887// 91800 333 10129 20100 6006 91037=
07110,1998-12-26 21:00:00,12,1007.9,1.7,94,11,500,18.52,,,240,,,,2,,,,,,61,wg-a,,,,AAXX 26214 07110 12300 82410 10120 20110 39966 40079 51017 60027 76162 885// 92100=
07110,1998-12-27 00:00:00,9,1008.8,0.7,100,9,6000,18.52,,,240,,,,6,,,,,,63,wg-a,,,,AAXX 27004 07110 02256 82410 10090 20090 39973 40088 51007 60086 76362 885// 90000 333 60067=
07110,1998-12-27 03:00:00,8,1005.5,-3.3,100,8,7000,11.112,,,150,,,,7,,,,,,61,wg-a,,,,AAXX 27034 07110 12357 81506 10080 20080 39940 40055 58033 60077 76166 885// 90300=
07110,1998-12-27 06:00:00,8,1000.6,-4.8,100,8,7000,14.816,,,130,7.5,12.8,,,,,,,,61,wg-a,,,,AAXX 27064 07110 02257 81308 10080 20080 39892 40006 56048 61000 76166 885// 90600 333 10128 20075 6045=
07110,1998-12-27 09:00:00,10,998.9,-1.6,100,10,7000,18.52,,,210,,,,,,,,,,,wg-a,,,,AAXX 27094 07110 32/57 /2110 10100 20100 39876 49989 55016 90900=
07110,1998-12-27 12:00:00,11,999.8,0.9,100,11,500,25.928,,,230,,,,,,,,,,60,wg-a,,,,AAXX 27124 07110 02200 82314 10110 20110 39885 49998 50009 60026 76062 887// 91200 333 61000=
07110,1998-12-27 15:00:00,9,1000.8,0.9,100,9,11000,11.112,,,220,,,,,,,,,,,wg-a,,,,AAXX 27154 07110 32/61 /2206 10090 20090 39894 40008 53009 91500=
07110,1998-12-27 18:00:00,9,1003,2.2,87,7,10000,11.112,,,220,7.7,11.3,,0,,,,,,1,wg-a,,,,AAXX 27184 07110 02560 42206 10090 20070 39916 40030 51022 60006 70161 84800 91800 333 10113 20077 60007=
07110,1998-12-27 21:00:00,9,1004,1,87,7,15000,18.52,,,220,,,,1,,,,,,25,wg-a,,,,AAXX 27214 07110 12565 72210 10090 20070 39926 40040 51010 60017 72586 878// 92100=
07110,1998-12-28 00:00:00,8,1005.4,1.3,87,6,15000,22.224,,,260,,,,,,,,,,1,wg-a,,,,AAXX 28004 07110 12565 72612 10080 20060 39939 40054 53013 60016 70186 8223/ 90000=
07110,1998-12-28 03:00:00,7,1006.3,0.9,81,4,15000,14.816,,,240,,,,1,,,,,,3,wg-a,,,,AAXX 28034 07110 12465 72408 10070 20040 39948 40063 53009 60017 70386 8483/ 90300=
07110,1998-12-28 06:00:00,6,1007.3,0.9,81,3,20000,14.816,,,230,6.2,9.1,,,,,6,,,3,wg-a,,,,AAXX 28064 07110 02470 62308 10060 20030 39957 40073 52009 60006 70386 85801 90600 333 10091 20062 60064=
07110,1998-12-28 09:00:00,5,1008.7,1.4,87,3,12000,14.816,,,220,,,,,,,,,,,wg-a,,,,AAXX 28094 07110 12462 62208 10050 20030 39971 40087 51014 60006 85902 90900=
07110,1998-12-28 12:00:00,5,1009.9,1.1,87,3,500,14.816,,46.3,230,,,,5,,,,,,29,wg-a,,,,AAXX 28124 07110 02300 72308 10050 20030 39982 40099 51011 60056 72987 879// 91200 333 60057 91025=
07110,1998-12-28 18:00:00,6,1011,0.9,87,4,15000,14.816,,,190,3.9,8.7,,1,,,,,,1,wg-a,,,,AAXX 28184 07110 02565 51908 10060 20040 39994 40110 53009 60006 70187 84802 91800 333 10087 20039 60017=
07110,1998-12-28 21:00:00,5,1010.3,-0.8,93,4,15000,14.816,,,140,,,,,,,,,,,wg-a,,,,AAXX 28214 07110 12565 71408 10050 20040 39986 40103 58008 60006 8485/ 92100=
07110,1998-12-29 00:00:00,7,1008.2,-2,87,5,10000,18.52,,,150,,,,1,,,,,,1,wg-a,,,,AAXX 29004 07110 02460 /1510 10070 20050 39966 40082 58020 60016 70186 8285/ 90000 333 60017=
07110,1998-12-29 03:00:00,8,1005,-3.1,87,6,10000,29.632,,,160,,,,,,,,,,,wg-a,,,,AAXX 29034 07110 12560 81616 10080 20060 39935 40050 58031 60006 8357/ 90300=
07110,1998-12-29 06:00:00,9,1001.9,-3,81,6,10000,35.188,,55.56,150,4.5,8.9,,,,,8,,,,wg-a,,,,AAXX 29064 07110 02560 81519 10090 20060 39905 40019 57030 60006 8357/ 90600 333 10089 20045 60084 91030=
07110,1998-12-29 09:00:00,9,999.6,-2.3,93,8,10000,31.484,,48.152,140,,,,,,,,,,,wg-a,,,,AAXX 29094 07110 12460 81417 10090 20080 39882 49996 56023 60006 875// 90900 333 91026=
07110,1998-12-29 12:00:00,11,996.3,-3.1,82,8,10000,38.892,,64.82,160,,,,,,,,,,,wg-a,,,,AAXX 29124 07110 12460 81621 10110 20080 39851 49963 56031 60006 875// 91200 333 91035=
07110,1998-12-29 15:00:00,11,993.9,-2.4,87,9,11000,38.892,,,160,,,,,,,,,,,wg-a,,,,AAXX 29154 07110 12/61 /1621 10110 20090 39827 49939 56024 60006 91500=
07110,1998-12-29 18:00:00,11,993.4,-0.5,87,9,15000,29.632,,,150,8.8,11.3,,,,,,,,21,wg-a,,,,AAXX 29184 07110 02465 71516 10110 20090 39822 49934 58005 61000 72162 8157/ 91800 333 10113 20088 6000=
07110,1998-12-29 21:00:00,12,993,-0.4,82,9,10000,35.188,,,160,,,,,,,,,,,wg-a,,,,AAXX 29214 07110 32/60 /1619 10120 20090 39818 49930 58004 92100=
07110,1998-12-30 00:00:00,12,994.2,1.2,82,9,15000,35.188,,55.56,180,,,,,,,,,,0,wg-a,,,,AAXX 30004 07110 32565 71819 10120 20090 39830 49942 52012 700// 83531 90000 333 91030=
07110,1998-12-30 03:00:00,11,997.5,3.2,87,9,10000,29.632,,,210,,,,,,,,,,25,wg-a,,,,AAXX 30034 07110 02460 32116 10110 20090 39862 49975 53032 61000 72586 83200 90300 333 ////=
07110,1998-12-30 06:00:00,10,1000.4,2.9,87,8,10000,18.52,,,220,9.8,12.9,,,,,,,,3,wg-a,,,,AAXX 30064 07110 12560 42210 10100 20080 39891 40004 53029 60004 70386 84800 90600 333 10129 20098=
07110,1998-12-30 09:00:00,8,1003.3,2.8,93,7,8000,7.408,,,220,,,,,,,,,,0,wg-a,,,,AAXX 30094 07110 32558 72204 10080 20070 39919 40033 51028 700// 82522 90900=
07110,1998-12-30 12:00:00,11,1004.5,1.2,82,8,10000,11.112,,,210,,,,,,,,,,0,wg-a,,,,AAXX 30124 07110 32560 72106 10110 20080 39931 40045 51012 700// 8587/ 91200=
07110,1998-12-30 15:00:00,11,1003.8,-0.6,71,6,10000,14.816,,,230,,,,,,,,,,0,wg-a,,,,AAXX 30154 07110 32560 32308 10110 20060 39925 40038 56006 700// 82822 91500=
07110,1998-12-30 18:00:00,7,1004,0,87,5,10000,11.112,,,180,6.8,11.9,,,,,,,,0,wg-a,,,,AAXX 30184 07110 32560 21806 10070 20050 39925 40040 50000 700// 81801 91800 333 10119 20068=
07110,1998-12-30 21:00:00,6,1002.8,-1.2,93,5,20000,11.112,,,150,,,,,,,,,,0,wg-a,,,,AAXX 30214 07110 32570 31506 10060 20050 39913 40028 56012 700// 8350/ 92100=
07110,1998-12-31 00:00:00,6,1000.8,-2,93,5,20000,14.816,,,150,,,,,,,,,,0,wg-a,,,,AAXX 31004 07110 32570 31508 10060 20050 39893 40008 57020 700// 8380/ 90000=
07110,1998-12-31 03:00:00,7,997.6,-3.1,87,5,20000,22.224,,,160,,,,0,,,,,,25,wg-a,,,,AAXX 31034 07110 12570 21612 10070 20050 39862 49976 56031 60007 72586 8250/ 90300=
07110,1998-12-31 06:00:00,8,994.9,-2.7,81,5,20000,31.484,,,160,5.6,7.9,,,,,,,,3,wg-a,,,,AAXX 31064 07110 12670 21617 10080 20050 39835 49949 56027 60004 70386 82500 90600 333 10079 20056=
07110,1998-12-31 12:00:00,11,992.6,-1.5,76,7,10000,35.188,,,160,,,,,,,,,,0,wg-a,,,,AAXX 31124 07110 32460 71619 10110 20070 39814 49926 58015 700// 86802 91200=
07110,1998-12-31 18:00:00,7,994.3,2.3,93,6,12000,11.112,,,230,7.1,10.7,,1,,,,,,1,wg-a,,,,AAXX 31184 07110 12462 72306 10070 20060 39829 49943 53023 60017 70162 875// 91800 333 10107 20071=
07110,1998-12-31 21:00:00,7,997.2,2.9,93,6,12000,11.112,,,180,,,,,,,,,,0,wg-a,,,,AAXX 31214 07110 32362 71806 10070 20060 39858 49972 51029 700// 878// 92100=
