station_id,dh_utc,temperature,pression,pression_variation_3h,humidite,point_de_rosee,visibilite,vent_moyen,vent_rafales,vent_rafales_10min,vent_direction,temperature_min,temperature_max,pluie_1h,pluie_3h,pluie_6h,pluie_12h,pluie_24h,ensoleillement,temperature_sol,temps_omm,source,radiations,neige_au_sol,nebulosite,raw_msg
07255,1997-01-01 00:00:00,-11,1012,-1.1,92,-12,500,7.408,,,350,,,,,,,,,,,wg-a,,,,AAXX 01004 07255 12/00 03504 11110 21120 39904 40120 56011 60006 80000 90000=
07255,1997-01-01 03:00:00,-12,1012.7,0.7,92,-13,500,3.704,,,30,,,,,,,,,,,wg-a,,,,AAXX 01034 07255 12/00 70302 11120 21130 39911 40127 50007 60006 87030 90300=
07255,1997-01-01 06:00:00,-10,1013.2,0.6,85,-12,500,14.816,,,70,-13.1,-7.8,,,,,,,,,wg-a,,1,,AAXX 01064 07255 02700 70708 11100 21120 39917 40132 53006 60006 875// 90600 333 11078 21131 4/001 61000=
07255,1997-01-01 09:00:00,-9,1015.1,1.9,79,-12,7000,11.112,,,70,,,,,,,,,,,wg-a,,,,AAXX 01094 07255 12757 70706 11090 21120 39936 40151 53019 60006 86502 90900=
07255,1997-01-01 12:00:00,-8,1016.1,1.1,85,-10,7000,11.112,,,90,,,,,,,,,,,wg-a,,,,AAXX 01124 07255 12657 70906 11080 21100 39947 40161 51011 60006 875// 91200=
07255,1997-01-01 15:00:00,-7,1016.9,0.9,86,-9,6000,7.408,,,90,,,,,,,,,,,wg-a,,,,AAXX 01154 07255 12656 70904 11070 21090 39956 40169 53009 60006 83532 91500=
07255,1997-01-01 18:00:00,-8,1018.6,1.5,85,-10,3000,7.408,,,80,-10,-6.2,,,,,,,,10,wg-a,,0,,AAXX 01184 07255 12/30 00804 11080 21100 39971 40186 51015 60006 71011 80000 91800 333 11062 21100 4/000=
07255,1997-01-01 21:00:00,-10,1019.8,1,92,-11,4000,3.704,,,80,,,,,,,,,,10,wg-a,,,,AAXX 01214 07255 12/40 /0802 11100 21110 39981 40198 53010 60006 71000 92100=
07255,1997-01-02 00:00:00,-11,1020.2,0.4,92,-12,4000,11.112,,,80,,,,,,,,,,10,wg-a,,,,AAXX 02004 07255 12/40 00806 11110 21120 39985 40202 51004 60006 71000 80000 90000=
07255,1997-01-02 03:00:00,-11,1019.4,-0.8,85,-13,3000,11.112,,,100,,,,,,,,,,10,wg-a,,,,AAXX 02034 07255 12/30 01006 11110 21130 39977 40194 56008 60006 71000 80000 90300=
07255,1997-01-02 06:00:00,-10,1018.4,-0.9,92,-11,2500,11.112,,,100,-12,-8.2,,,,,,,,10,wg-a,,1,,AAXX 02064 07255 12/25 01006 11100 21110 39968 40184 56009 60006 71000 80000 90600 333 11082 21120 4/001=
07255,1997-01-02 09:00:00,-9,1017,-1.3,92,-10,2500,7.408,,,100,,,,,,,,,,10,wg-a,,,,AAXX 02094 07255 12/25 /1004 11090 21100 39955 40170 58013 60006 71022 80002 90900=
07255,1997-01-02 12:00:00,-5,1015.3,-1.4,86,-7,3500,7.408,,,80,,,,,,,,,,10,wg-a,,,,AAXX 02124 07255 12/35 80804 11050 21070 39941 40153 58014 60006 71011 85037 91200=
07255,1997-01-02 15:00:00,-4,1013.2,-1.9,80,-7,4000,11.112,,,50,,,,,,,,,,10,wg-a,,,,AAXX 02154 07255 12/40 80506 11040 21070 39922 40132 56019 60006 71022 8707/ 91500=
07255,1997-01-02 18:00:00,-5,1011.8,-1.5,86,-7,2500,7.408,,,40,-10.5,-4,,,,,,,,10,wg-a,,1,,AAXX 02184 07255 12725 80404 11050 21070 39907 40118 56015 60006 71022 8257/ 91800 333 11040 21105 4/001=
07255,1997-01-02 21:00:00,-6,1010.3,-1.5,79,-9,2500,7.408,,,50,,,,,,,,,,10,wg-a,,,,AAXX 02214 07255 12625 80504 11060 21090 39892 40103 56015 60006 71022 8557/ 92100=
07255,1997-01-03 00:00:00,-6,1009.7,-0.6,86,-8,2500,14.816,,,50,,,,,,,,,,10,wg-a,,,,AAXX 03004 07255 02625 80508 11060 21080 39886 40097 58006 61000 71072 875// 90000 333 6100=
07255,1997-01-03 03:00:00,-6,1009,-0.7,86,-8,4500,11.112,,,80,,,,,,,,,,10,wg-a,,,,AAXX 03034 07255 02/45 70806 11060 21080 39879 40090 58007 61000 71072 84032 90300 333 ////=
07255,1997-01-03 06:00:00,-6,1007.6,-1.4,86,-8,3000,14.816,,,70,-6.7,-5.1,,,,,,,,10,wg-a,,1,,AAXX 03064 07255 02430 80708 11060 21080 39865 40076 55014 60006 71072 875// 90600 333 11051 21067 4/001 61000=
07255,1997-01-03 09:00:00,-6,1006.9,-0.7,86,-8,4000,18.52,,,60,,,,,,,,,,,wg-a,,,,AAXX 03094 07255 12/40 /0610 11060 21080 39858 40069 55007 60006 90900=
07255,1997-01-03 12:00:00,-5,1004.8,-1.9,86,-7,4000,18.52,,,70,,,,,,,,,,10,wg-a,,,,AAXX 03124 07255 12440 80710 11050 21070 39839 40048 58019 60006 71022 886// 91200=
07255,1997-01-03 15:00:00,-3,1001.9,-2.7,86,-5,3500,18.52,,,70,,,,,,,,,,10,wg-a,,,,AAXX 03154 07255 02335 80710 11030 21050 39812 40019 56027 61000 71062 886// 91500 333 ////=
07255,1997-01-03 18:00:00,-3,999.2,-2.6,93,-4,1500,11.112,,,40,-6.5,-2.3,,,,,,,,10,wg-a,,,,AAXX 03184 07255 02315 70406 11030 21040 39786 49992 56026 61000 71052 876// 91800 333 11023 21065 6000=
07255,1997-01-03 21:00:00,-2,1000.3,1.1,93,-3,1500,7.408,,,120,,,,0,,,,,,10,wg-a,,,,AAXX 03214 07255 12315 81204 11020 21030 39797 40003 53011 60007 71065 885// 92100=
07255,1997-01-04 00:00:00,-2,998.8,-1.5,93,-3,1500,14.816,,,50,,,,,,,,,,10,wg-a,,,,AAXX 04004 07255 12615 20508 11020 21030 39782 49988 55015 60016 71065 82500 90000=
07255,1997-01-04 03:00:00,-3,999.1,0.3,93,-4,1500,7.408,,,30,,,,,,,,,,10,wg-a,,,,AAXX 04034 07255 12215 80304 11030 21040 39785 49991 52003 60006 71011 885// 90300=
07255,1997-01-04 06:00:00,-3,1000.4,1.3,93,-4,1500,3.704,,,20,-3.4,-1.8,,,,,,,,10,wg-a,,1,,AAXX 04064 07255 02215 80202 11030 21040 39798 40004 51013 61000 71062 887// 90600 333 11018 21034 4/001 6001=
07255,1997-01-04 09:00:00,-3,1002.4,1.9,93,-4,2500,7.408,,,360,,,,2,,,,,,10,wg-a,,,,AAXX 04094 07255 12225 83604 11030 21040 39817 40024 51019 60027 71076 877// 90900=
07255,1997-01-04 12:00:00,-3,1002.4,-0,93,-4,1500,11.112,,,340,,,,,,,,,,10,wg-a,,,,AAXX 04124 07255 12/15 /3406 11030 21040 39817 40024 54000 60036 710// 91200=
07255,1997-01-04 15:00:00,-3,1004.2,1.7,93,-4,1000,7.408,,,310,,,,4,,,,,,10,wg-a,,,,AAXX 04154 07255 12210 83104 11030 21040 39834 40042 53017 60047 71077 887// 91500=
07255,1997-01-04 18:00:00,-4,1005.1,0.9,100,-4,1200,11.112,,,300,-3.7,-2.4,,,,,,,,10,wg-a,,9,,AAXX 04184 07255 02212 83006 11040 21040 39843 40051 51009 61000 71077 887// 91800 333 11024 21037 4/009 6002=
07255,1997-01-04 21:00:00,-4,1006.6,1.4,93,-5,1200,11.112,,,310,,,,1,,,,,,10,wg-a,,,,AAXX 04214 07255 12212 83106 11040 21050 39857 40066 51014 60017 71077 886// 92100=
07255,1997-01-05 00:00:00,-5,1007.3,0.7,100,-5,1000,7.408,,,290,,,,0,,,,,,10,wg-a,,,,AAXX 05004 07255 02310 82904 11050 21050 39864 40073 50007 60016 71072 886// 90000 333 60007=
07255,1997-01-05 03:00:00,-5,1008.4,1,93,-6,1200,3.704,,,280,,,,,,,,,,10,wg-a,,,,AAXX 05034 07255 02312 82802 11050 21060 39874 40084 51010 61000 71072 886// 90300 333 ////=
07255,1997-01-05 06:00:00,-5,1008.9,0.5,100,-5,1200,3.704,,,290,-4.9,-3.6,,,,,,,,10,wg-a,,11,,AAXX 05064 07255 02112 82902 11050 21050 39879 40089 52005 61000 71072 886// 90600 333 11036 21049 4/011 6010=
07255,1997-01-05 09:00:00,-4,1010.4,1.5,93,-5,1000,0,,,0,,,,,,,,,,10,wg-a,,,,AAXX 05094 07255 02210 80000 11040 21050 39894 40104 53015 61000 71074 886// 90900 333 ////=
07255,1997-01-05 12:00:00,-4,1010.9,0.6,93,-5,1500,3.704,,,180,,,,,,,,,,10,wg-a,,,,AAXX 05124 07255 02215 81802 11040 21050 39900 40109 51006 61000 71074 886// 91200 333 ////=
07255,1997-01-05 15:00:00,-3,1011.4,0.5,86,-5,3000,7.408,,,150,,,,,,,,,,10,wg-a,,,,AAXX 05154 07255 12230 81504 11030 21050 39905 40114 53005 60006 71022 875// 91500=
07255,1997-01-05 18:00:00,-3,1012.4,0.9,93,-4,1500,7.408,,,90,-4.8,-3.2,,,,,,,,10,wg-a,,10,,AAXX 05184 07255 12215 80904 11030 21040 39914 40124 51009 60006 71022 886// 91800 333 11032 21048 4/010=
07255,1997-01-05 21:00:00,-3,1013.5,1.2,93,-4,2000,7.408,,,90,,,,,,,,,,10,wg-a,,,,AAXX 05214 07255 02220 80904 11030 21040 39926 40135 52012 61000 71052 887// 92100 333 ////=
07255,1997-01-06 00:00:00,-2,1014,0.5,93,-3,1200,7.408,,,90,,,,,,,,,,10,wg-a,,,,AAXX 06004 07255 02112 80904 11020 21030 39931 40140 51005 61000 71052 887// 90000 333 6100=
07255,1997-01-06 03:00:00,-2,1014.3,0.3,100,-2,1200,7.408,,,110,,,,,,,,,,10,wg-a,,,,AAXX 06034 07255 12112 81104 11020 21020 39934 40143 52003 60006 71022 887// 90300=
07255,1997-01-06 06:00:00,-2,1014.8,0.5,100,-2,1200,3.704,,,320,-3.4,-1.3,,,,,,,,10,wg-a,,10,,AAXX 06064 07255 02112 83202 11020 21020 39939 40148 53005 60006 71022 886// 90600 333 11013 21034 4/010 61000=
07255,1997-01-06 09:00:00,0,1015.9,1.2,93,-1,1500,11.112,,,100,,,,,,,,,,10,wg-a,,,,AAXX 06094 07255 02215 81006 10000 21010 39951 40159 52012 61000 71052 887// 90900 333 ////=
07255,1997-01-06 12:00:00,1,1015.7,-0.1,86,-1,7000,11.112,,,80,,,,,,,,,,1,wg-a,,,,AAXX 06124 07255 02557 60806 10010 21010 39950 40157 58001 61000 70152 86500 91200 333 6100=
07255,1997-01-06 15:00:00,1,1015.8,0.1,80,-2,7000,11.112,,,90,,,,,,,,,,,wg-a,,,,AAXX 06154 07255 12757 /0906 10010 21020 39951 40158 53001 60006 81530 91500=
07255,1997-01-06 18:00:00,-1,1016.9,0.9,86,-3,4000,7.408,,,30,-1.9,1.9,,,,,,,,10,wg-a,,9,,AAXX 06184 07255 12740 30304 11010 21030 39960 40169 51009 60006 71011 83500 91800 333 10019 21019 4/009=
07255,1997-01-06 21:00:00,-5,1018.5,1.3,93,-6,2500,11.112,,,90,,,,,,,,,,10,wg-a,,,,AAXX 06214 07255 12725 20906 11050 21060 39973 40185 53013 60006 71000 82500 92100=
07255,1997-01-07 00:00:00,-5,1019,0.5,93,-6,1500,7.408,,,30,,,,,,,,,,10,wg-a,,,,AAXX 07004 07255 12215 80304 11050 21060 39978 40190 53005 60006 71011 886// 90000=
07255,1997-01-07 03:00:00,-6,1019.5,0.4,100,-6,1200,3.704,,,20,,,,,,,,,,,wg-a,,,,AAXX 07034 07255 12/12 /0202 11060 21060 39982 40195 53004 60006 90300=
07255,1997-01-07 06:00:00,-7,1019.7,0.1,100,-7,1200,3.704,,,10,-6.7,-1.4,,,,,,,,10,wg-a,,10,,AAXX 07064 07255 02212 80102 11070 21070 39983 40197 52001 60006 71022 886// 90600 333 11014 21067 4/010 61000=
07255,1997-01-07 09:00:00,-7,1020.4,0.7,100,-7,2000,3.704,,,90,,,,,,,,,,10,wg-a,,,,AAXX 07094 07255 12220 80902 11070 21070 39990 40204 53007 60006 71022 886// 90900=
07255,1997-01-07 12:00:00,-6,1019.8,-0.5,93,-7,1800,7.408,,,140,,,,,,,,,,10,wg-a,,,,AAXX 07124 07255 12218 81404 11060 21070 39985 40198 58005 60006 71022 886// 91200=
07255,1997-01-07 15:00:00,-6,1018.3,-1.5,93,-7,1500,11.112,,,110,,,,,,,,,,10,wg-a,,,,AAXX 07154 07255 12215 81106 11060 21070 39970 40183 56015 60006 71022 886// 91500=
07255,1997-01-07 18:00:00,-6,1017.4,-0.9,93,-7,1500,14.816,,,100,-6.6,-5.8,,,,,,,,10,wg-a,,8,,AAXX 07184 07255 12215 81008 11060 21070 39961 40174 58009 60006 71022 886// 91800 333 11058 21066 4/008=
07255,1997-01-07 21:00:00,-5,1015.4,-1.9,93,-6,1500,22.224,,,110,,,,,,,,,,10,wg-a,,,,AAXX 07214 07255 12115 81112 11050 21060 39942 40154 58019 60006 71022 886// 92100=
07255,1997-01-08 00:00:00,-4,1013.5,-1.7,93,-5,2500,18.52,,,110,,,,,,,,,,10,wg-a,,,,AAXX 08004 07255 12225 81110 11040 21050 39925 40135 58017 60006 71022 886// 90000=
07255,1997-01-08 03:00:00,-3,1010.3,-3.1,93,-4,3000,22.224,,,110,,,,,,,,,,10,wg-a,,,,AAXX 08034 07255 12230 81112 11030 21040 39894 40103 56031 60006 71022 886// 90300=
07255,1997-01-08 06:00:00,-3,1008,-2.2,93,-4,3000,22.224,,,120,-5.8,-2.6,,,,,,,,10,wg-a,,8,,AAXX 08064 07255 12230 81212 11030 21040 39872 40080 57022 60006 71022 886// 90600 333 11026 21058 4/008=
07255,1997-01-08 09:00:00,-2,1007.2,-0.7,93,-3,3500,14.816,,,110,,,,,,,,,,10,wg-a,,,,AAXX 08094 07255 12235 81108 11020 21030 39865 40072 57007 60006 71022 886// 90900=
07255,1997-01-08 12:00:00,-1,1005.6,-1.5,93,-2,3500,14.816,,,110,,,,,,,,,,10,wg-a,,,,AAXX 08124 07255 12235 81108 11010 21020 39850 40056 58015 60006 71022 886// 91200=
07255,1997-01-08 15:00:00,-1,1003.8,-1.8,93,-2,3700,18.52,,,90,,,,,,,,,,10,wg-a,,,,AAXX 08154 07255 02237 80910 11010 21020 39832 40038 58018 61000 71072 886// 91500 333 ////=
07255,1997-01-08 17:00:00,0,1003.1,-0.6,93,-1,3500,14.816,,,110,-2.7,0.1,,,,,,,,10,wg-a,,8,,AAXX 08174 07255 02235 81108 10000 21010 39826 40031 58006 61000 71062 886// 91700 333 10001 21027 4/008 ////=
07255,1997-01-08 18:00:00,0,1003.1,-0.6,93,-1,3500,14.816,,,110,-2.7,0.1,,,,,,,,10,wg-a,,8,,AAXX 08184 07255 02235 81108 10000 21010 39826 40031 58006 61000 71062 886// 91800 333 10001 21027 4/008 6100=
07255,1997-01-08 21:00:00,1,1002.5,-0.5,100,1,1200,14.816,,,120,,,,,,,,,,10,wg-a,,,,AAXX 08214 07255 12112 81208 10010 20010 39821 40025 57005 60006 71022 886// 92100=
07255,1997-01-09 00:00:00,1,1002.5,-0,100,1,2500,11.112,,,110,,,,,,,,,,10,wg-a,,,,AAXX 09004 07255 12225 81106 10010 20010 39821 40025 55000 60006 71022 885// 90000=
07255,1997-01-09 03:00:00,1,1002.5,-0,100,1,2500,11.112,,,90,,,,,,,,,,10,wg-a,,,,AAXX 09034 07255 12225 80906 10010 20010 39821 40025 55000 60006 71022 885// 90300=
07255,1997-01-09 06:00:00,0,1001.9,-0.7,93,-1,2000,14.816,,,120,-0.3,1.4,,,,,,,,10,wg-a,,7,,AAXX 09064 07255 02620 21208 10000 21010 39814 40019 58007 60006 71000 82500 90600 333 10014 21003 4/007 61000=
07255,1997-01-09 09:00:00,0,1004,2.1,100,0,1300,11.112,,,90,,,,,,,,,,10,wg-a,,,,AAXX 09094 07255 12313 70906 10000 20000 39835 40040 51021 60006 71042 876// 90900=
07255,1997-01-09 12:00:00,3,1004.2,0.4,87,1,7000,7.408,,,90,,,,,,,,,,1,wg-a,,,,AAXX 09124 07255 12657 70904 10030 20010 39839 40042 51004 60006 70142 8353/ 91200=
07255,1997-01-09 15:00:00,4,1005.6,1.5,87,2,10000,0,,,0,,,,,,,,,,,wg-a,,,,AAXX 09154 07255 12660 70000 10040 20020 39854 40056 53015 60006 8753/ 91500=
07255,1997-01-09 18:00:00,2,1007.8,2,93,1,6000,3.704,,,150,-0.6,5.5,,,,,,,,,wg-a,,3,,AAXX 09184 07255 12556 71502 10020 20010 39874 40078 53020 60006 875// 91800 333 10055 21006 4/003=
07255,1997-01-09 21:00:00,2,1009,1.1,93,1,4000,3.704,,,130,,,,,,,,,,10,wg-a,,,,AAXX 09214 07255 12540 81302 10020 20010 39885 40090 53011 60006 71022 875// 92100=
07255,1997-01-10 00:00:00,1,1011.2,2.1,100,1,1000,11.112,,,290,,,,,,,,,,10,wg-a,,,,AAXX 10004 07255 02/10 /2906 10010 20010 39906 40112 51021 61000 710// 90000 333 ////=
07255,1997-01-10 03:00:00,0,1013.5,2.2,100,0,500,11.112,,,290,,,,,,,,,,45,wg-a,,,,AAXX 10034 07255 12/05 92906 10000 20000 39928 40135 53022 60006 74564 89/// 90300=
07255,1997-01-10 06:00:00,1,1015.2,1.7,100,1,200,7.408,,,290,0.3,2.1,,,,,,,,45,wg-a,,3,,AAXX 10064 07255 02/02 92904 10010 20010 39945 40152 53017 60006 74564 89/// 90600 333 10021 20003 4/003 61000=
07255,1997-01-10 09:00:00,1,1017.9,2.6,100,1,400,7.408,,,320,,,,,,,,,,,wg-a,,,,AAXX 10094 07255 12/04 /3204 10010 20010 39971 40179 51026 60006 90900=
07255,1997-01-10 12:00:00,1,1019.4,1.5,100,1,800,3.704,,,330,,,,,,,,,,42,wg-a,,,,AAXX 10124 07255 12108 83302 10010 20010 39986 40194 51015 60006 74244 886// 91200=
07255,1997-01-10 15:00:00,1,1020.9,1.5,100,1,1200,3.704,,,340,,,,,,,,,,10,wg-a,,,,AAXX 10154 07255 12112 83402 10010 20010 30001 40209 51015 60006 71044 886// 91500=
07255,1997-01-10 18:00:00,1,1022.7,1.8,93,0,2500,3.704,,,330,0.4,1.3,,,,,,,,10,wg-a,,1,,AAXX 10184 07255 12225 83302 10010 20000 30019 40227 53018 60006 71042 886// 91800 333 10013 20004 4/001=
07255,1997-01-10 21:00:00,0,1023.9,1.1,100,0,3000,0,,,0,,,,,,,,,,10,wg-a,,,,AAXX 10214 07255 12130 80000 10000 20000 30030 40239 51011 60006 71022 886// 92100=
07255,1997-01-11 00:00:00,0,1025.1,1.2,100,0,800,0,,,0,,,,,,,,,,45,wg-a,,,,AAXX 11004 07255 12/08 90000 10000 20000 30042 40251 53012 60006 74544 89/// 90000=
07255,1997-01-11 03:00:00,0,1025.2,0.1,100,0,2500,3.704,,,190,,,,,,,,,,10,wg-a,,,,AAXX 11034 07255 12025 81902 10000 20000 30043 40252 51001 60006 71042 886// 90300=
07255,1997-01-11 06:00:00,0,1025.3,-0.1,100,0,1300,7.408,,,200,0.1,0.8,,,,,,,,10,wg-a,,1,,AAXX 11064 07255 12013 82004 10000 20000 30044 40253 55001 60006 71042 886// 90600 333 10008 20001 4/001=
07255,1997-01-11 09:00:00,0,1027.5,2.1,100,0,9000,3.704,,,190,,,,,,,,,,,wg-a,,,,AAXX 11094 07255 12259 81902 10000 20000 30065 40275 51021 60006 886// 90900=
07255,1997-01-11 12:00:00,1,1027.3,-0.1,93,0,10000,7.408,,,160,,,,,,,,,,,wg-a,,,,AAXX 11124 07255 12360 81604 10010 20000 30064 40273 58001 60006 886// 91200=
07255,1997-01-11 15:00:00,2,1027.5,0.2,87,0,12000,7.408,,,160,,,,,,,,,,,wg-a,,,,AAXX 11154 07255 12462 71604 10020 20000 30066 40275 50002 60006 8153/ 91500=
07255,1997-01-11 18:00:00,0,1028.6,1,93,-1,6000,14.816,,,100,-0.1,3,,,,,,,,,wg-a,,1,,AAXX 11184 07255 12356 71008 10000 21010 30076 40286 51010 60006 876// 91800 333 10030 21001 4/001=
07255,1997-01-11 21:00:00,-1,1029,0.3,93,-2,3500,7.408,,,100,,,,,,,,,,10,wg-a,,,,AAXX 11214 07255 12235 21004 11010 21020 30079 40290 51003 60006 71000 82600 92100=
07255,1997-01-12 00:00:00,-2,1029.3,0.2,93,-3,4000,11.112,,,110,,,,,,,,,,10,wg-a,,,,AAXX 12004 07255 12/40 01106 11020 21030 30081 40293 51002 60006 71011 80000 90000=
07255,1997-01-12 03:00:00,-3,1029.4,0.1,100,-3,500,7.408,,,80,,,,,,,,,,,wg-a,,,,AAXX 12034 07255 12/00 00804 11030 21030 30081 40294 52001 60006 80000 90300=
07255,1997-01-12 06:00:00,-3,1029.5,0.1,93,-4,500,14.816,,,90,-3.4,-0.1,,,,,,,,,wg-a,,1,,AAXX 12064 07255 12/00 00908 11030 21040 30082 40295 53001 60006 80000 90600 333 11001 21034 4/001=
07255,1997-01-12 09:00:00,-3,1030.2,0.7,93,-4,3000,11.112,,,90,,,,,,,,,,10,wg-a,,,,AAXX 12094 07255 12/30 40906 11030 21040 30089 40302 53007 60006 71000 80001 90900=
07255,1997-01-12 12:00:00,-1,1029.4,-0.6,86,-3,4000,11.112,,,90,,,,,,,,,,10,wg-a,,,,AAXX 12124 07255 12/40 /0906 11010 21030 30083 40294 58006 60006 71000 80001 91200=
07255,1997-01-12 15:00:00,0,1028.5,-0.8,86,-2,4000,11.112,,,80,,,,,,,,,,10,wg-a,,,,AAXX 12154 07255 12/40 /0806 10000 21020 30075 40285 55008 60006 71000 80001 91500=
07255,1997-01-12 18:00:00,-2,1028.6,-0.1,93,-3,4000,7.408,,,110,-3.6,0.1,,,,,,,,10,wg-a,,,,AAXX 12184 07255 12/40 /1104 11020 21030 30074 40286 55001 60006 71000 80001 91800 333 10001 21036=
07255,1997-01-12 21:00:00,-4,1028.8,0.1,100,-4,3000,11.112,,,110,,,,,,,,,,10,wg-a,,,,AAXX 12214 07255 12/30 01106 11040 21040 30075 40288 50001 60006 71000 80000 92100=
07255,1997-01-13 00:00:00,-5,1028.3,-0.6,93,-6,2000,14.816,,,110,,,,,,,,,,10,wg-a,,,,AAXX 13004 07255 12/20 01108 11050 21060 30069 40283 57006 60006 71000 80000 90000=
07255,1997-01-13 03:00:00,-5,1027.2,-1.1,93,-6,2000,18.52,,,90,,,,,,,,,,10,wg-a,,,,AAXX 13034 07255 12/20 00910 11050 21060 30058 40272 56011 60006 71000 80000 90300=
07255,1997-01-13 06:00:00,-6,1026.9,-0.4,93,-7,2500,14.816,,,100,-5.8,-2,,,,,,,,10,wg-a,,0,,AAXX 13064 07255 12/25 01008 11060 21070 30054 40269 55004 60006 71000 80000 90600 333 11020 21058 4/9999=
07255,1997-01-13 09:00:00,-5,1027,0.2,100,-5,1000,18.52,,,110,,,,,,,,,,10,wg-a,,,,AAXX 13094 07255 12210 71110 11050 21050 30056 40270 53002 60006 71011 876// 90900=
07255,1997-01-13 12:00:00,-2,1026.2,-0.5,93,-3,7000,22.224,,,90,,,,,,,,,,,wg-a,,,,AAXX 13124 07255 12/57 00912 11020 21030 30051 40262 58005 60006 80000 91200=
07255,1997-01-13 15:00:00,1,1024.7,-1.3,80,-2,9000,14.816,,,100,,,,,,,,,,,wg-a,,,,AAXX 13154 07255 12/59 01008 10010 21020 30038 40247 55013 60006 80000 91500=
07255,1997-01-13 18:00:00,-1,1024.6,-0.2,86,-3,8000,18.52,,,100,-5.9,1.3,,,,,,,,,wg-a,,0,,AAXX 13184 07255 12/58 01010 11010 21030 30036 40246 56002 60006 80000 91800 333 10013 21059 4/000=
07255,1997-01-13 21:00:00,-3,1024.8,-0,93,-4,500,18.52,,,100,,,,,,,,,,,wg-a,,,,AAXX 13214 07255 12/00 01010 11030 21040 30036 40248 54000 60006 80000 92100=
07255,1997-01-14 00:00:00,-4,1024.2,-0.7,93,-5,4000,18.52,,,100,,,,,,,,,,10,wg-a,,,,AAXX 14004 07255 12/40 01010 11040 21050 30029 40242 58007 60006 71000 80000 90000=
07255,1997-01-14 03:00:00,-5,1024.3,0.1,93,-6,3500,14.816,,,100,,,,,,,,,,10,wg-a,,,,AAXX 14034 07255 12/35 01008 11050 21060 30030 40243 50001 60006 71000 80000 90300=
07255,1997-01-14 06:00:00,-6,1024.5,0.1,93,-7,3000,14.816,,,100,-5.6,-0.8,,,,,,,,10,wg-a,,0,,AAXX 14064 07255 12/30 01008 11060 21070 30031 40245 53001 60006 71000 80000 90600 333 11008 21056 4/9999=
07255,1997-01-14 09:00:00,-4,1024.6,0.3,86,-6,4500,18.52,,,90,,,,,,,,,,10,wg-a,,,,AAXX 14094 07255 12/45 00910 11040 21060 30034 40246 53003 60006 71000 80000 90900=
07255,1997-01-14 12:00:00,2,1023.5,-0.7,69,-3,8000,0,,,100,,,,,,,,,,,wg-a,,,,AAXX 14124 07255 12/58 010// 10020 21030 30027 40235 58007 60006 80000 91200=
07255,1997-01-14 15:00:00,5,1022.7,-0.5,60,-2,10000,11.112,,,130,,,,,,,,,,,wg-a,,,,AAXX 14154 07255 12/60 01306 10050 21020 30022 40227 55005 60006 80000 91500=
07255,1997-01-14 18:00:00,1,1023.3,0.3,80,-2,7000,18.52,,,100,-5.6,5.1,,,,,,,,,wg-a,,0,,AAXX 14184 07255 12/57 01010 10010 21020 30025 40233 51003 60006 80000 91800 333 10051 21056 4/000=
07255,1997-01-15 00:00:00,-2,1024.7,0.8,86,-4,500,14.816,,,100,,,,,,,,,,,wg-a,,,,AAXX 15004 07255 12/00 01008 11020 21040 30036 40247 52008 60006 80000 90000=
07255,1997-01-15 06:00:00,-4,1025.4,0.2,93,-5,500,14.816,,,100,-3.7,1.3,,,,,,,,,wg-a,,0,,AAXX 15064 07255 12/00 01008 11040 21050 30042 40254 52002 60006 80000 90600 333 10013 21037 4/9999=
07255,1997-01-15 09:00:00,-2,1026.1,0.8,86,-4,6000,14.816,,,90,,,,,,,,,,,wg-a,,,,AAXX 15094 07255 12/56 00908 11020 21040 30050 40261 51008 60006 80000 90900=
07255,1997-01-15 12:00:00,3,1025,-0.7,70,-2,8000,11.112,,,80,,,,,,,,,,,wg-a,,,,AAXX 15124 07255 12/58 00806 10030 21020 30043 40250 58007 60006 80000 91200=
07255,1997-01-15 15:00:00,6,1023.7,-1.1,61,-1,10000,11.112,,,80,,,,,,,,,,,wg-a,,,,AAXX 15154 07255 12/60 00806 10060 21010 30032 40237 56011 60006 80000 91500=
07255,1997-01-15 18:00:00,3,1023.5,-0.4,75,-1,8000,14.816,,,70,-3.7,5.6,,,,,,,,,wg-a,,0,,AAXX 15184 07255 12/58 00708 10030 21010 30028 40235 58004 60006 80000 91800 333 10056 21037 4/000=
07255,1997-01-15 21:00:00,2,1023.3,-0.3,80,-1,10000,18.52,,,100,,,,,,,,,,,wg-a,,,,AAXX 15214 07255 12/60 01010 10020 21010 30025 40233 58003 60006 80000 92100=
07255,1997-01-16 00:00:00,0,1023.5,0.1,86,-2,8000,14.816,,,100,,,,,,,,,,,wg-a,,,,AAXX 16004 07255 12/58 01008 10000 21020 30026 40235 50001 60006 80000 90000=
07255,1997-01-16 03:00:00,-1,1022.7,-0.9,86,-3,8000,18.52,,,90,,,,,,,,,,,wg-a,,,,AAXX 16034 07255 12/58 00910 11010 21030 30017 40227 56009 60006 80000 90300=
07255,1997-01-16 06:00:00,-2,1021.8,-0.9,86,-4,8000,14.816,,,90,-1.6,3.4,,,,,,,,,wg-a,,0,,AAXX 16064 07255 12/58 00908 11020 21040 30008 40218 56009 60006 80000 90600 333 10034 21016 4/9999=
07255,1997-01-16 09:00:00,0,1022.3,0.6,80,-3,12000,14.816,,,80,,,,,,,,,,,wg-a,,,,AAXX 16094 07255 12/62 00808 10000 21030 30014 40223 53006 60006 80000 90900=
07255,1997-01-16 12:00:00,6,1020.7,-1.1,65,0,15000,11.112,,,110,,,,,,,,,,,wg-a,,,,AAXX 16124 07255 12/65 01106 10060 20000 30003 40207 58011 60006 80000 91200=
07255,1997-01-16 15:00:00,8,1018.7,-1.8,61,1,18000,14.816,,,110,,,,,,,,,,,wg-a,,,,AAXX 16154 07255 12/68 01108 10080 20010 39985 40187 56018 60006 80000 91500=
07255,1997-01-16 18:00:00,3,1018.6,-0.5,81,0,18000,11.112,,,110,-1.8,9,,,,,,,,,wg-a,,0,,AAXX 16184 07255 12/68 01106 10030 20000 39980 40186 56005 60006 80000 91800 333 10090 21018 4/000=
07255,1997-01-16 21:00:00,0,1018.5,-0.3,93,-1,15000,14.816,,,120,,,,,,,,,,,wg-a,,,,AAXX 16214 07255 12/65 01208 10000 21010 39977 40185 58003 60006 80000 92100=
07255,1997-01-17 00:00:00,1,1017.4,-1,86,-1,12000,14.816,,,100,,,,,,,,,,,wg-a,,,,AAXX 17004 07255 12/62 01008 10010 21010 39967 40174 58010 60006 80000 90000=
07255,1997-01-17 03:00:00,0,1016.5,-1,86,-2,12000,11.112,,,110,,,,,,,,,,,wg-a,,,,AAXX 17034 07255 12/62 11106 10000 21020 39957 40165 56010 60006 80001 90300=
07255,1997-01-17 06:00:00,-1,1015.6,-0.9,93,-2,12000,14.816,,,120,-0.9,3.4,,,,,,,,,wg-a,,0,,AAXX 17064 07255 12/62 21208 11010 21020 39948 40156 57009 60006 80001 90600 333 10034 21009 4/9999=
07255,1997-01-17 09:00:00,2,1016.2,0.8,87,0,18000,14.816,,,100,,,,,,,,,,,wg-a,,,,AAXX 17094 07255 12/68 41008 10020 20000 39956 40162 53008 60006 82031 90900=
07255,1997-01-17 12:00:00,7,1016.4,0.5,70,2,18000,14.816,,,130,,,,,,,,,,,wg-a,,,,AAXX 17124 07255 12/68 61308 10070 20020 39961 40164 50005 60006 84031 91200=
07255,1997-01-17 15:00:00,8,1016.3,-0.1,71,3,20000,11.112,,,130,,,,,,,,,,,wg-a,,,,AAXX 17154 07255 12670 71306 10080 20030 39961 40163 57001 60006 8553/ 91500=
07255,1997-01-17 18:00:00,6,1017.9,1.5,87,4,15000,11.112,,,230,-0.8,9.8,,,,,,,,60,wg-a,,,,AAXX 17184 07255 02665 82306 10060 20040 39976 40179 53015 61000 76062 875// 91800 333 10098 21008 6100=
07255,1997-01-17 21:00:00,6,1019.4,1.4,100,6,400,7.408,,,240,,,,1,,,,,,61,wg-a,,,,AAXX 17214 07255 12104 82404 10060 20060 39990 40194 51014 60017 76164 8/799 92100=
07255,1997-01-18 00:00:00,5,1020.7,1.2,100,5,300,3.704,,,280,,,,,,,,,,45,wg-a,,,,AAXX 18004 07255 12/03 92802 10050 20050 30002 40207 51012 60016 74544 89/// 90000=
07255,1997-01-18 03:00:00,4,1020.9,0.1,100,4,600,7.408,,,250,,,,,,,,,,45,wg-a,,,,AAXX 18034 07255 12/06 92504 10040 20040 30003 40209 52001 60006 74544 89/// 90300=
07255,1997-01-18 06:00:00,3,1020.8,-0.2,100,3,300,3.704,,,150,2.5,6.4,,,,,1,,,45,wg-a,,,,AAXX 18064 07255 02/03 91502 10030 20030 30001 40208 58002 60006 74544 89/// 90600 333 10064 20025 60014=
07255,1997-01-18 09:00:00,3,1021.5,0.8,100,3,300,7.408,,,120,,,,,,,,,,43,wg-a,,,,AAXX 18094 07255 12/03 91204 10030 20030 30009 40215 50008 60006 74344 89/// 90900=
07255,1997-01-18 12:00:00,4,1018.6,-2.8,100,4,900,14.816,,,110,,,,,,,,,,42,wg-a,,,,AAXX 18124 07255 12009 81108 10040 20040 39981 40186 58028 60006 74244 886// 91200=
07255,1997-01-18 15:00:00,5,1015.4,-3.1,100,5,3000,22.224,,,100,,,,,,,,,,10,wg-a,,,,AAXX 18154 07255 12230 81012 10050 20050 39950 40154 56031 60006 71042 886// 91500=
07255,1997-01-18 18:00:00,5,1013.2,-2.2,100,5,3000,22.224,,,110,2.3,5.2,,,,,,,,10,wg-a,,,,AAXX 18184 07255 12630 71112 10050 20050 39928 40132 58022 60006 71022 875// 91800 333 10052 20023=
07255,1997-01-18 21:00:00,4,1012.1,-1,100,4,4000,18.52,,,120,,,,,,,,,,10,wg-a,,,,AAXX 18214 07255 12740 71210 10040 20040 39918 40121 56010 60006 71022 8557/ 92100=
07255,1997-01-19 00:00:00,5,1011.3,-0.8,93,4,500,14.816,,,130,,,,1,,,,,,61,wg-a,,,,AAXX 19004 07255 02300 81308 10050 20040 39910 40113 58008 60016 76162 885// 90000 333 60017=
07255,1997-01-19 03:00:00,5,1010.5,-0.8,93,4,7000,11.112,,,140,,,,0,,,,,,1,wg-a,,,,AAXX 19034 07255 12357 81406 10050 20040 39902 40105 56008 60007 70162 875// 90300=
07255,1997-01-19 06:00:00,5,1011.1,0.7,100,5,6000,11.112,,,230,3.9,5.5,,,,,,,,61,wg-a,,,,AAXX 19064 07255 02556 82306 10050 20050 39909 40111 53007 61000 76162 875// 90600 333 10055 20039 6003=
07255,1997-01-19 09:00:00,5,1011.9,0.7,100,5,1000,11.112,,,130,,,,3,,,,,,10,wg-a,,,,AAXX 19094 07255 12510 81306 10050 20050 39916 40119 53007 60037 71066 8657/ 90900=
07255,1997-01-19 12:00:00,6,1011.8,0,100,6,4000,7.408,,,260,,,,1,,,,,,10,wg-a,,,,AAXX 19124 07255 02240 82604 10060 20060 39916 40118 50000 60046 71066 877// 91200 333 60017=
07255,1997-01-19 15:00:00,10,1011.8,0.2,82,7,500,11.112,,,200,,,,1,,,,,,2,wg-a,,,,AAXX 19154 07255 12400 22006 10100 20070 39918 40118 53002 60017 70261 81832 91500=
07255,1997-01-19 18:00:00,4,1013.4,1.2,93,3,500,7.408,,,150,4,9.8,,,,,,,,,wg-a,,,,AAXX 19184 07255 12/00 41504 10040 20030 39930 40134 53012 60006 80002 91800 333 10098 20040=
07255,1997-01-19 21:00:00,3,1014.9,1.4,100,3,15000,11.112,,,80,,,,,,,,,,,wg-a,,,,AAXX 19214 07255 12/65 60806 10030 20030 39944 40149 53014 60006 80002 92100=
07255,1997-01-20 00:00:00,2,1015.4,0.4,100,2,15000,11.112,,,70,,,,,,,,,,,wg-a,,,,AAXX 20004 07255 12/65 70706 10020 20020 39948 40154 50004 60006 80002 90000=
07255,1997-01-20 03:00:00,3,1015,-0.3,100,3,10000,11.112,,,70,,,,,,,,,,,wg-a,,,,AAXX 20034 07255 12/60 70706 10030 20030 39945 40150 58003 60006 80002 90300=
07255,1997-01-20 06:00:00,4,1015.3,0.3,93,3,10000,11.112,,,60,1.8,4,,,,,5,,,,wg-a,,,,AAXX 20064 07255 02/60 70606 10040 20030 39948 40153 53003 60006 80002 90600 333 10040 20018 60054=
07255,1997-01-20 09:00:00,4,1016.6,1.4,93,3,500,14.816,,,80,,,,,,,,,,,wg-a,,,,AAXX 20094 07255 12/00 70808 10040 20030 39962 40166 51014 60006 84032 90900=
07255,1997-01-20 12:00:00,5,1018.8,2.2,93,4,28000,22.224,,,70,,,,,,,,,,,wg-a,,,,AAXX 20124 07255 12578 70712 10050 20040 39984 40188 50022 60006 82532 91200=
07255,1997-01-20 15:00:00,5,1019.2,0.4,93,4,25000,25.928,,,70,,,,,,,,,,,wg-a,,,,AAXX 20154 07255 12275 70714 10050 20040 39988 40192 51004 60006 83632 91500=
07255,1997-01-20 18:00:00,5,1020.9,1.6,93,4,12000,25.928,,,60,3.5,5.7,,,,,,,,,wg-a,,,,AAXX 20184 07255 12262 80614 10050 20040 30004 40209 53016 60006 876// 91800 333 10057 20035=
07255,1997-01-20 21:00:00,5,1021.5,0.6,87,3,12000,22.224,,,60,,,,,,,,,,,wg-a,,,,AAXX 20214 07255 12762 70612 10050 20030 30010 40215 51006 60006 8353/ 92100=
07255,1997-01-21 00:00:00,5,1021.7,0.2,87,3,12000,25.928,,,70,,,,,,,,,,,wg-a,,,,AAXX 21004 07255 12362 80714 10050 20030 30012 40217 50002 60006 875// 90000=
07255,1997-01-21 03:00:00,4,1021.2,-0.5,93,3,10000,25.928,,,80,,,,,,,,,,60,wg-a,,,,AAXX 21034 07255 02360 80814 10040 20030 30007 40212 56005 61000 76062 875// 90300 333 ////=
07255,1997-01-21 06:00:00,4,1020.7,-0.6,93,3,9000,25.928,,,70,3.6,5,,,,,,,,21,wg-a,,,,AAXX 21064 07255 02659 80714 10040 20030 30001 40207 56006 61000 72162 875// 90600 333 10050 20036 6100=
07255,1997-01-21 09:00:00,4,1020,-0.6,93,3,9000,25.928,,,80,,,,,,,,,,21,wg-a,,,,AAXX 21094 07255 02459 80814 10040 20030 39995 40200 58006 61000 72162 875// 90900 333 ////=
07255,1997-01-21 12:00:00,8,1018.4,-1.3,87,6,12000,29.632,,,100,,,,,,,,,,,wg-a,,,,AAXX 21124 07255 02462 71016 10080 20060 39982 40184 58013 61000 85802 91200 333 ////=
07255,1997-01-21 15:00:00,9,1016.6,-1.7,81,6,20000,35.188,,,110,,,,,,,,,,21,wg-a,,,,AAXX 21154 07255 02770 61119 10090 20060 39965 40166 56017 61000 72162 86500 91500 333 ////=
07255,1997-01-21 18:00:00,7,1,-3.3,66,1,15000,25.928,,,120,0.5,,,,,,,,,,wg-a,,1,,AAXX 21184 07255 12765 81214 10070 20010 39932 56033 60006 8/500 91800 333 20005 4/001=
07255,1997-01-21 21:00:00,7,1016.2,-0.5,87,5,15000,22.224,,,120,,,,,,,,,,,wg-a,,,,AAXX 21214 07255 12765 71212 10070 20050 39960 40162 56005 60006 835/2 92100=
07255,1997-01-22 00:00:00,6,1016.4,0.1,93,5,12000,22.224,,,110,,,,,,,,,,,wg-a,,,,AAXX 22004 07255 12/62 31112 10060 20050 39961 40164 50001 60006 80002 90000=
07255,1997-01-22 03:00:00,5,1016.8,0.3,93,4,12000,18.52,,,120,,,,,,,,,,,wg-a,,,,AAXX 22034 07255 12/62 51210 10050 20040 39964 40168 50003 60006 80001 90300=
07255,1997-01-22 06:00:00,4,1017.9,1,93,3,12000,11.112,,,130,3.5,7.7,,,,,,,,,wg-a,,,,AAXX 22064 07255 02762 71306 10040 20030 39974 40179 53010 60006 83532 90600 333 10077 20035 61000=
07255,1997-01-22 09:00:00,5,1019.1,1.3,93,4,12000,11.112,,,110,,,,,,,,,,,wg-a,,,,AAXX 22094 07255 12662 61106 10050 20040 39987 40191 51013 60006 86830 90900=
07255,1997-01-22 12:00:00,13,1018.5,-0.1,72,8,25000,14.816,,,110,,,,,,,,,,,wg-a,,,,AAXX 22124 07255 12675 61108 10130 20080 39986 40185 58001 60006 84231 91200=
07255,1997-01-22 15:00:00,14,1017.9,-0.4,72,9,20000,3.704,,,110,,,,,,,,,,,wg-a,,,,AAXX 22154 07255 12670 41102 10140 20090 39982 40179 56004 60006 84300 91500=
07255,1997-01-22 18:00:00,10,1019,0.7,87,8,9000,7.408,,,350,3.9,14.4,,,,,,,,,wg-a,,,,AAXX 22184 07255 12/59 33504 10100 20080 39989 40190 53007 60006 83030 91800 333 10144 20039=
07255,1997-01-22 21:00:00,9,1020.1,1,93,8,10000,11.112,,,180,,,,,,,,,,,wg-a,,,,AAXX 22214 07255 12660 71806 10090 20080 39999 40201 51010 60006 86832 92100=
07255,1997-01-23 00:00:00,8,1021.2,1.1,100,8,10000,7.408,,,180,,,,4,,,,,,21,wg-a,,,,AAXX 23004 07255 02560 71804 10080 20080 30010 40212 51011 60046 72186 878// 90000 333 60047=
07255,1997-01-23 03:00:00,8,1021,-0.2,93,7,10000,11.112,,,140,,,,0,,,,,,1,wg-a,,,,AAXX 23034 07255 12660 81406 10080 20070 30008 40210 57002 60007 70162 875// 90300=
07255,1997-01-23 06:00:00,8,1020.7,-0.3,93,7,10000,11.112,,,120,7.4,9.7,,,,,4,,,2,wg-a,,,,AAXX 23064 07255 02660 81206 10080 20070 30005 40207 55003 60006 70262 875// 90600 333 10097 20074 60044=
07255,1997-01-23 09:00:00,9,1021.7,1,93,8,10000,11.112,,,90,,,,,,,,,,,wg-a,,,,AAXX 23094 07255 12660 70906 10090 20080 30015 40217 51010 60006 8553/ 90900=
07255,1997-01-23 12:00:00,12,1021.1,-0.4,82,9,18000,11.112,,,120,,,,,,,,,,,wg-a,,,,AAXX 23124 07255 12668 71206 10120 20090 30011 40211 58004 60006 82531 91200=
07255,1997-01-23 18:00:00,11,1021.6,1.2,87,9,11000,7.408,,,100,8,14.3,,,,,,,,,wg-a,,,,AAXX 23184 07255 12/61 /1004 10110 20090 30016 40216 51012 60006 91800 333 10143 20080=
07255,1997-01-23 21:00:00,10,1022.7,0.9,87,8,15000,11.112,,,80,,,,,,,,,,,wg-a,,,,AAXX 23214 07255 12/65 80806 10100 20080 30025 40227 51009 60006 8807/ 92100=
07255,1997-01-24 00:00:00,9,1023.8,1,93,8,12000,7.408,,,100,,,,,,,,,,,wg-a,,,,AAXX 24004 07255 12762 81004 10090 20080 30035 40238 51010 60006 885// 90000=
07255,1997-01-24 03:00:00,8,1023.8,-0,93,7,15000,11.112,,,100,,,,,,,,,,,wg-a,,,,AAXX 24034 07255 12765 81006 10080 20070 30035 40238 55000 60006 8451/ 90300=
07255,1997-01-24 06:00:00,8,1024.4,0.5,87,6,15000,7.408,,,70,7.1,11.4,,,,,,,,,wg-a,,,,AAXX 24064 07255 02765 80704 10080 20060 30040 40244 53005 60006 875// 90600 333 10114 20071 61000=
07255,1997-01-24 09:00:00,8,1025.8,1.4,87,6,10000,0,,,0,,,,,,,,,,21,wg-a,,,,AAXX 24094 07255 02460 80000 10080 20060 30054 40258 51014 61000 72162 8357/ 90900 333 ////=
07255,1997-01-24 12:00:00,10,1026.1,0.5,82,7,9000,7.408,,,330,,,,,,,,,,2,wg-a,,,,AAXX 24124 07255 02759 83304 10100 20070 30059 40261 50005 61000 70262 8457/ 91200 333 ////=
07255,1997-01-24 15:00:00,11,1026.5,0.4,82,8,10000,3.704,,,200,,,,,,,,,,,wg-a,,,,AAXX 24154 07255 12760 82002 10110 20080 30063 40265 52004 60006 8457/ 91500=
07255,1997-01-24 18:00:00,9,1027.7,1.1,87,7,7000,3.704,,,130,7.4,11.1,,,,,,,,21,wg-a,,,,AAXX 24184 07255 02657 81302 10090 20070 30074 40277 52011 61000 72122 8557/ 91800 333 10111 20074 ////=
07255,1997-01-25 00:00:00,8,1029.1,0.4,93,7,9000,7.408,,,90,,,,,,,,,,2,wg-a,,,,AAXX 25004 07255 02759 80904 10080 20070 30087 40291 50004 61000 70262 875// 90000 333 ////=
07255,1997-01-25 03:00:00,7,1029,-0.2,100,7,4000,7.408,,,80,,,,,,,,,,10,wg-a,,,,AAXX 25034 07255 12740 20804 10070 20070 30085 40290 56002 60006 71011 81530 90300=
07255,1997-01-25 06:00:00,6,1029,-0.1,100,6,4000,7.408,,,100,5.2,8.9,,,,,,,,10,wg-a,,,,AAXX 25064 07255 02/40 71004 10060 20060 30084 40290 55001 60006 71011 8703/ 90600 333 10089 20052 61000=
07255,1997-01-25 09:00:00,7,1029.7,0.8,93,6,4000,11.112,,,90,,,,,,,,,,10,wg-a,,,,AAXX 25094 07255 12/40 /0906 10070 20060 30092 40297 51008 60006 71011 81031 90900=
07255,1997-01-25 12:00:00,11,1028.3,-1.1,82,8,8000,3.704,,,70,,,,,,,,,,,wg-a,,,,AAXX 25124 07255 12/58 40702 10110 20080 30081 40283 58011 60006 80002 91200=
07255,1997-01-25 15:00:00,13,1027.4,-0.7,72,8,12000,7.408,,,90,,,,,,,,,,,wg-a,,,,AAXX 25154 07255 12/62 40904 10130 20080 30074 40274 56007 60006 80002 91500=
07255,1997-01-25 18:00:00,9,1028.3,0.6,81,6,9000,11.112,,,40,5.3,13.7,,,,,,,,,wg-a,,,,AAXX 25184 07255 12/59 /0406 10090 20060 30080 40283 53006 60006 80002 91800 333 10137 20053=
07255,1997-01-25 21:00:00,5,1028.6,0,100,5,4000,3.704,,,60,,,,,,,,,,10,wg-a,,,,AAXX 25214 07255 12140 40602 10050 20050 30080 40286 50000 60006 71011 84600 92100=
07255,1997-01-26 00:00:00,5,1028.9,0.3,100,5,2000,22.224,,,80,,,,,,,,,,10,wg-a,,,,AAXX 26004 07255 12120 80812 10050 20050 30083 40289 50003 60006 71011 886// 90000=
07255,1997-01-26 03:00:00,5,1028.2,-0.7,100,5,2000,11.112,,,90,,,,,,,,,,10,wg-a,,,,AAXX 26034 07255 12120 80906 10050 20050 30076 40282 58007 60006 71022 886// 90300=
07255,1997-01-26 06:00:00,5,1027.7,-0.5,100,5,800,7.408,,,110,4.6,8.6,,,,,,,,45,wg-a,,,,AAXX 26064 07255 12/08 91104 10050 20050 30071 40277 56005 60006 74542 89/// 90600 333 10086 20046=
07255,1997-01-26 09:00:00,5,1028.2,0.5,100,5,1200,3.704,,,140,,,,,,,,,,10,wg-a,,,,AAXX 26094 07255 12112 81402 10050 20050 30076 40282 52005 60006 71042 886// 90900=
07255,1997-01-26 12:00:00,5,1028.2,0,100,5,7000,7.408,,,110,,,,,,,,,,1,wg-a,,,,AAXX 26124 07255 12157 81104 10050 20050 30076 40282 50000 60006 70142 876// 91200=
07255,1997-01-26 15:00:00,5,1027.6,-0.6,93,4,12000,3.704,,,90,,,,,,,,,,,wg-a,,,,AAXX 26154 07255 12262 80902 10050 20040 30070 40276 56006 60006 886// 91500=
07255,1997-01-26 18:00:00,5,1028.3,0.6,87,3,9000,11.112,,,60,4.5,5.6,,,,,,,,,wg-a,,,,AAXX 26184 07255 12359 80606 10050 20030 30076 40283 53006 60006 876// 91800 333 10056 20045=
07255,1997-01-26 21:00:00,4,1028.9,0.6,87,2,8000,7.408,,,30,,,,,,,,,,,wg-a,,,,AAXX 26214 07255 12458 80304 10040 20020 30082 40289 51006 60006 876// 92100=
07255,1997-01-27 00:00:00,3,1029,0,87,1,10000,11.112,,,30,,,,,,,,,,,wg-a,,,,AAXX 27004 07255 12460 80306 10030 20010 30082 40290 50000 60006 875// 90000=
07255,1997-01-27 03:00:00,3,1029.3,0.3,87,1,10000,11.112,,,20,,,,,,,,,,,wg-a,,,,AAXX 27034 07255 12460 80206 10030 20010 30085 40293 52003 60006 875// 90300=
07255,1997-01-27 06:00:00,3,1029.7,0.4,87,1,10000,3.704,,,20,2.6,4.6,,,,,,,,,wg-a,,,,AAXX 27064 07255 12460 80202 10030 20010 30089 40297 51004 60006 875// 90600 333 10046 20026=
07255,1997-01-27 09:00:00,3,1031.4,1.7,87,1,8000,7.408,,,20,,,,0,,,,,,,wg-a,,,,AAXX 27094 07255 12558 80204 10030 20010 30106 40314 52017 60007 885// 90900=
07255,1997-01-27 12:00:00,4,1032.1,0.7,81,1,8000,11.112,,,30,,,,,,,,,,,wg-a,,,,AAXX 27124 07255 12558 80306 10040 20010 30113 40321 50007 60006 885// 91200=
07255,1997-01-27 15:00:00,4,1032.7,0.6,81,1,8000,14.816,,,20,,,,,,,,,,,wg-a,,,,AAXX 27154 07255 12458 70208 10040 20010 30119 40327 53006 60006 875// 91500=
07255,1997-01-27 18:00:00,2,1034.3,1.4,80,-1,7000,11.112,,,20,2.2,4.2,,,,,,,,,wg-a,,,,AAXX 27184 07255 12557 70206 10020 21010 30133 40343 53014 60006 875// 91800 333 10042 20022=
07255,1997-01-27 21:00:00,1,1035.9,1.5,80,-2,8000,14.816,,,20,,,,,,,,,,,wg-a,,,,AAXX 27214 07255 12558 80208 10010 21020 30148 40359 51015 60006 875// 92100=
07255,1997-01-28 00:00:00,0,1036.5,0.5,74,-4,10000,14.816,,,50,,,,,,,,,,,wg-a,,,,AAXX 28004 07255 12560 70508 10000 21040 30153 40365 50005 60006 875// 90000=
07255,1997-01-28 03:00:00,-1,1035.7,-0.8,86,-3,10000,3.704,,,330,,,,,,,,,,,wg-a,,,,AAXX 28034 07255 12560 73302 11010 21030 30145 40357 56008 60006 875// 90300=
07255,1997-01-28 06:00:00,0,1035.2,-0.5,86,-2,8000,11.112,,,10,-0.9,2.2,,,,,,,,,wg-a,,,,AAXX 28064 07255 12458 80106 10000 21020 30140 40352 58005 60006 875// 90600 333 10022 21009=
07255,1997-01-28 09:00:00,0,1035.7,0.6,80,-3,10000,18.52,,,50,,,,,,,,,,,wg-a,,,,AAXX 28094 07255 12560 80510 10000 21030 30146 40357 53006 60006 875// 90900=
07255,1997-01-28 12:00:00,1,1035.8,0.1,80,-2,10000,22.224,,,70,,,,,,,,,,3,wg-a,,,,AAXX 28124 07255 02460 80712 10010 21020 30147 40358 50001 61000 70372 875// 91200 333 6100=
07255,1997-01-28 18:00:00,2,1036.5,0.7,80,-1,7000,22.224,,,60,-0.4,2.9,,,,,,,,,wg-a,,,,AAXX 28184 07255 12/57 00612 10020 21010 30154 40365 53007 60006 80000 91800 333 10029 21004=
07255,1997-01-28 21:00:00,1,1037.2,0.7,86,-1,6000,18.52,,,80,,,,,,,,,,,wg-a,,,,AAXX 28214 07255 12/56 00810 10010 21010 30161 40372 53007 60006 80000 92100=
07255,1997-01-29 00:00:00,0,1037.4,0.1,93,-1,6000,14.816,,,100,,,,,,,,,,,wg-a,,,,AAXX 29004 07255 12/56 01008 10000 21010 30162 40374 51001 60006 80000 90000=
07255,1997-01-29 03:00:00,-1,1037.4,-0.1,93,-2,500,14.816,,,80,,,,,,,,,,,wg-a,,,,AAXX 29034 07255 12/00 00808 11010 21020 30161 40374 58001 60006 80000 90300=
07255,1997-01-29 06:00:00,-1,1036.9,-0.4,93,-2,4000,22.224,,,80,-1,2.1,,,,,,,,10,wg-a,,,,AAXX 29064 07255 02/40 00812 11010 21020 30157 40369 57004 60006 71000 80000 90600 333 10021 21010 61000=
07255,1997-01-29 09:00:00,0,1037.6,0.7,86,-2,3000,22.224,,,80,,,,,,,,,,10,wg-a,,,,AAXX 29094 07255 12/30 00812 10000 21020 30164 40376 51007 60006 71000 80000 90900=
07255,1997-01-29 12:00:00,0,1037.2,-0.4,93,-1,2000,18.52,,,80,,,,,,,,,,10,wg-a,,,,AAXX 29124 07255 12120 80810 10000 21010 30160 40372 58004 60006 71011 886// 91200=
07255,1997-01-29 15:00:00,2,1036,-1,87,0,4500,14.816,,,110,,,,,,,,,,10,wg-a,,,,AAXX 29154 07255 12245 71108 10020 20000 30150 40360 56010 60006 71022 876// 91500=
07255,1997-01-29 18:00:00,0,1036.2,0.1,93,-1,4500,11.112,,,100,-1.1,2.2,,,,,,,,10,wg-a,,,,AAXX 29184 07255 12/45 01006 10000 21010 30151 40362 53001 60006 71011 80000 91800 333 10022 21011=
07255,1997-01-29 21:00:00,-1,1036.5,0.1,93,-2,3000,11.112,,,110,,,,,,,,,,10,wg-a,,,,AAXX 29214 07255 12/30 01106 11010 21020 30152 40365 50001 60006 71000 80000 92100=
07255,1997-01-30 00:00:00,-1,1035.8,-0.7,93,-2,2000,18.52,,,110,,,,,,,,,,,wg-a,,,,AAXX 30004 07255 12320 71110 11010 21020 30145 40358 56007 60006 876// 90000=
07255,1997-01-30 03:00:00,-1,1035.1,-0.6,100,-1,2000,22.224,,,110,,,,,,,,,,,wg-a,,,,AAXX 30034 07255 12220 71112 11010 21010 30139 40351 56006 60006 876// 90300=
07255,1997-01-30 06:00:00,-1,1035.1,-0,100,-1,500,14.816,,,100,-2.2,1,,,,,,,,45,wg-a,,,,AAXX 30064 07255 12/05 91008 11010 21010 30139 40351 54000 60006 74542 89/// 90600 333 10010 21022=
07255,1997-01-30 09:00:00,-1,1035.9,0.8,100,-1,200,18.52,,,110,,,,,,,,,,45,wg-a,,,,AAXX 30094 07255 12/02 91110 11010 21010 30147 40359 53008 60006 74544 89/// 90900=
07255,1997-01-30 12:00:00,-1,1036.1,0.2,100,-1,1500,18.52,,,120,,,,,,,,,,10,wg-a,,,,AAXX 30124 07255 12115 81210 11010 21010 30149 40361 50002 60006 71042 886// 91200=
07255,1997-01-30 15:00:00,-1,1034.9,-1.2,93,-2,1500,14.816,,,90,,,,,,,,,,10,wg-a,,,,AAXX 30154 07255 12115 80908 11010 21020 30137 40349 56012 60006 71022 886// 91500=
07255,1997-01-30 18:00:00,-1,1034.8,-0.2,93,-2,1800,14.816,,,90,-1.6,-0.6,,,,,,,,10,wg-a,,,,AAXX 30184 07255 12118 80908 11010 21020 30135 40348 58002 60006 71022 886// 91800 333 11006 21016=
07255,1997-01-31 00:00:00,-1,1034.1,-0.6,93,-2,2500,18.52,,,110,,,,,,,,,,10,wg-a,,,,AAXX 31004 07255 12125 81110 11010 21020 30129 40341 58006 60006 71022 886// 90000=
07255,1997-01-31 03:00:00,-2,1033.6,-0.6,100,-2,2000,14.816,,,120,,,,,,,,,,10,wg-a,,,,AAXX 31034 07255 12120 81208 11020 21020 30123 40336 58006 60006 71022 886// 90300=
07255,1997-01-31 09:00:00,-2,1033.4,0,93,-3,2000,22.224,,,110,,,,,,,,,,10,wg-a,,,,AAXX 31094 07255 12120 81112 11020 21030 30121 40334 50000 60006 71022 886// 90900=
07255,1997-01-31 12:00:00,-1,1032.7,-0.6,93,-2,2000,18.52,,,110,,,,,,,,,,10,wg-a,,,,AAXX 31124 07255 12220 81110 11010 21020 30115 40327 58006 60006 71022 886// 91200=
07255,1997-01-31 15:00:00,-1,1032,-0.7,86,-3,2500,14.816,,,80,,,,,,,,,,10,wg-a,,,,AAXX 31154 07255 12225 80808 11010 21030 30108 40320 55007 60006 71022 886// 91500=
07255,1997-01-31 18:00:00,-1,1032.3,0.3,93,-2,4000,14.816,,,90,-2.3,-0.7,,,,,,,,10,wg-a,,,,AAXX 31184 07255 12340 80908 11010 21020 30111 40323 53003 60006 71022 886// 91800 333 11007 21023=
07255,1997-01-31 21:00:00,-1,1031.9,-0.4,93,-2,3500,18.52,,,100,,,,,,,,,,10,wg-a,,,,AAXX 31214 07255 12235 81010 11010 21020 30107 40319 56004 60006 71022 886// 92100=
07255,1997-02-01 00:00:00,-1,1031.6,-0.3,93,-2,3500,14.816,,,100,,,,,,,,,,10,wg-a,,,,AAXX 01004 07255 12235 81008 11010 21020 30104 40316 58003 60006 71022 886// 90000=
07255,1997-02-01 03:00:00,-2,1031.2,-0.4,100,-2,2000,18.52,,,100,,,,,,,,,,10,wg-a,,,,AAXX 01034 07255 12120 81010 11020 21020 30100 40312 58004 60006 71022 886// 90300=
07255,1997-02-01 06:00:00,-2,1031.1,-0.1,93,-3,2500,14.816,,,100,-2.1,-0.3,,,,,,,,10,wg-a,,,,AAXX 01064 07255 12125 81008 11020 21030 30099 40311 57001 60006 71022 886// 90600 333 11003 21021=
07255,1997-02-01 09:00:00,-2,1031.1,0,93,-3,3000,14.816,,,110,,,,,,,,,,10,wg-a,,,,AAXX 01094 07255 12230 81108 11020 21030 30099 40311 50000 60006 71022 886// 90900=
07255,1997-02-01 12:00:00,-1,1030.5,-0.5,93,-2,3000,14.816,,,100,,,,,,,,,,10,wg-a,,,,AAXX 01124 07255 12230 81008 11010 21020 30094 40305 58005 60006 71022 886// 91200=
07255,1997-02-01 15:00:00,1,1029.5,-0.9,86,-1,3500,11.112,,,120,,,,,,,,,,10,wg-a,,,,AAXX 01154 07255 12435 71206 10010 21010 30085 40295 57009 60006 71022 875// 91500=
07255,1997-02-01 18:00:00,0,1029.9,0.3,93,-1,3000,11.112,,,110,-2.4,0.8,,,,,,,,10,wg-a,,,,AAXX 01184 07255 12230 81106 10000 21010 30088 40299 53003 60006 71022 886// 91800 333 10008 21024=
07255,1997-02-01 21:00:00,-2,1029.7,-0.3,93,-3,3000,7.408,,,110,,,,,,,,,,10,wg-a,,,,AAXX 01214 07255 12/30 01104 11020 21030 30085 40297 58003 60006 71011 80000 92100=
07255,1997-02-02 06:00:00,-2,1028.2,-0,100,-2,200,0,,,0,-3,-0.1,,,,,,,,45,wg-a,,,,AAXX 02064 07255 12/02 90000 11020 21020 30070 40282 54000 60006 74544 89/// 90600 333 11001 21030=
07255,1997-02-02 09:00:00,-2,1028.5,0.4,100,-2,1200,7.408,,,140,,,,,,,,,,10,wg-a,,,,AAXX 02094 07255 12112 81404 11020 21020 30074 40285 53004 60006 71042 886// 90900=
07255,1997-02-02 12:00:00,0,1028.2,-0.2,100,0,2500,3.704,,,170,,,,,,,,,,10,wg-a,,,,AAXX 02124 07255 12225 81702 10000 20000 30072 40282 58002 60006 71042 886// 91200=
07255,1997-02-02 15:00:00,1,1027.7,-0.4,100,1,4000,3.704,,,40,,,,,,,,,,10,wg-a,,,,AAXX 02154 07255 12440 80402 10010 20010 30068 40277 56004 60006 71022 875// 91500=
07255,1997-02-02 18:00:00,2,1028.5,0.8,87,0,3500,7.408,,,90,-2.2,1.7,,,,,,,,10,wg-a,,,,AAXX 02184 07255 12335 80904 10020 20000 30076 40285 53008 60006 71022 876// 91800 333 10017 21022=
07255,1997-02-02 21:00:00,1,1029.5,0.9,93,0,4000,3.704,,,120,,,,,,,,,,10,wg-a,,,,AAXX 02214 07255 12340 81202 10010 20000 30085 40295 53009 60006 71022 876// 92100=
07255,1997-02-03 00:00:00,1,1029.3,-0.2,93,0,2000,3.704,,,350,,,,,,,,,,10,wg-a,,,,AAXX 03004 07255 02220 83502 10010 20000 30083 40293 58002 61000 71052 875// 90000 333 6100=
07255,1997-02-03 03:00:00,0,1029,-0.3,100,0,1200,7.408,,,10,,,,,,,,,,10,wg-a,,,,AAXX 03034 07255 12512 70104 10000 20000 30080 40290 55003 60006 71052 875// 90300=
07255,1997-02-03 06:00:00,0,1029.9,0.8,100,0,1500,3.704,,,330,-0.2,1.5,,,,,,,,10,wg-a,,,,AAXX 03064 07255 02315 83302 10000 20000 30088 40299 53008 60006 71052 886// 90600 333 10015 21002 61000=
07255,1997-02-03 09:00:00,0,1030.7,0.9,100,0,1200,3.704,,,120,,,,,,,,,,10,wg-a,,,,AAXX 03094 07255 12012 31202 10000 20000 30097 40307 53009 60006 71011 82530 90900=
07255,1997-02-03 12:00:00,3,1030.3,-0.2,93,2,4000,3.704,,,170,,,,,,,,,,10,wg-a,,,,AAXX 03124 07255 12240 81702 10030 20020 30095 40303 58002 60006 71011 876// 91200=
07255,1997-02-03 15:00:00,5,1029.7,-0.5,87,3,4000,3.704,,,300,,,,,,,,,,10,wg-a,,,,AAXX 03154 07255 12340 83002 10050 20030 30090 40297 56005 60006 71022 885// 91500=
07255,1997-02-03 18:00:00,4,1030,0.3,93,3,4000,0,,,0,-1,5,,,,,,,,10,wg-a,,,,AAXX 03184 07255 12440 70000 10040 20030 30093 40300 52003 60006 71022 875// 91800 333 10050 21010=
07255,1997-02-03 21:00:00,4,1030.4,0.3,93,3,4500,3.704,,,220,,,,,,,,,,10,wg-a,,,,AAXX 03214 07255 12345 72202 10040 20030 30096 40304 52003 60006 71022 876// 92100=
07255,1997-02-04 00:00:00,1,1028.6,-0.9,100,1,1300,14.816,,,170,1.2,4.1,,,,,,,,10,wg-a,,,,AAXX 04004 07255 12013 81708 10010 20010 30077 40286 56009 60006 71022 886// 90000 333 10041 20012=
07255,1997-02-04 03:00:00,2,1029.5,-0.8,100,2,3000,7.408,,,160,,,,,,,,,,10,wg-a,,,,AAXX 04034 07255 12230 71604 10020 20020 30086 40295 56008 60006 71022 876// 90300=
07255,1997-02-04 06:00:00,1,1028.6,-0.9,100,1,1300,14.816,,,170,1.2,4.1,,,,,,,,10,wg-a,,,,AAXX 04064 07255 12013 81708 10010 20010 30077 40286 56009 60006 71022 886// 90600 333 10041 20012=
07255,1997-02-04 09:00:00,0,1028.7,-0,100,0,500,7.408,,,150,,,,,,,,,,44,wg-a,,,,AAXX 04094 07255 12005 81504 10000 20000 30077 40287 55000 60006 74442 886// 90900=
07255,1997-02-04 12:00:00,4,1027.2,-1.2,87,2,6000,7.408,,,160,,,,,,,,,,1,wg-a,,,,AAXX 04124 07255 12356 71604 10040 20020 30065 40272 58012 60006 70142 82602 91200=
07255,1997-02-04 15:00:00,9,1024,-2.8,61,2,18000,11.112,,,210,,,,,,,,,,,wg-a,,,,AAXX 04154 07255 12/68 62106 10090 20020 30037 40240 56028 60006 81032 91500=
07255,1997-02-04 18:00:00,6,1024,-0.2,81,3,18000,22.224,,,240,0,9.4,,,,,,,,,wg-a,,,,AAXX 04184 07255 12768 72412 10060 20030 30035 40240 55002 60006 83552 91800 333 10094 20000=
07255,1997-02-04 21:00:00,4,1024,-0.1,87,2,12000,22.224,,,250,,,,,,,,,,,wg-a,,,,AAXX 04214 07255 12762 72512 10040 20020 30034 40240 55001 60006 81532 92100=
07255,1997-02-05 00:00:00,5,1023,-1,81,2,12000,25.928,,,230,,,,,,,,,,,wg-a,,,,AAXX 05004 07255 12762 72314 10050 20020 30024 40230 56010 60006 8257/ 90000=
07255,1997-02-05 03:00:00,5,1021,-1.9,87,3,10000,25.928,,,220,,,,,,,,,,21,wg-a,,,,AAXX 05034 07255 02560 82214 10050 20030 30005 40210 58019 61000 72122 8157/ 90300 333 ////=
07255,1997-02-05 06:00:00,6,1018.8,-2,100,6,7000,31.484,,,230,4,6.3,,,,,,,,60,wg-a,,,,AAXX 05064 07255 02357 82317 10060 20060 39985 40188 56020 61000 76062 875// 90600 333 10063 20040 6001=
07255,1997-02-05 09:00:00,8,1019.5,0.8,93,7,10000,29.632,,,250,,,,1,,,,,,21,wg-a,,,,AAXX 05094 07255 12360 82516 10080 20070 39993 40195 53008 60017 72165 877// 90900=
07255,1997-02-05 12:00:00,11,1022,2.6,82,8,20000,25.928,,,310,,,,0,,,,,,1,wg-a,,,,AAXX 05124 07255 02470 73114 10110 20080 30019 40220 53026 60026 70165 878// 91200 333 60007=
07255,1997-02-05 15:00:00,11,1024.7,2.6,66,5,35000,22.224,,,300,,,,,,,,,,,wg-a,,,,AAXX 05154 07255 12581 53012 10110 20050 30045 40247 53026 60006 85800 91500=
07255,1997-02-05 18:00:00,7,1028.9,3.9,76,3,20000,11.112,,,330,6.3,11.4,,,,,,,,,wg-a,,,,AAXX 05184 07255 12570 23306 10070 20030 30084 40289 53039 60006 82800 91800 333 10114 20063=
07255,1997-02-05 21:00:00,4,1032.1,2.9,87,2,15000,7.408,,,20,,,,,,,,,,,wg-a,,,,AAXX 05214 07255 12/65 00204 10040 20020 30113 40321 51029 60006 80000 92100=
07255,1997-02-06 00:00:00,1,1034.1,1.7,93,0,10000,7.408,,,180,,,,,,,,,,,wg-a,,,,AAXX 06004 07255 12/60 01804 10010 20000 30130 40341 53017 60006 80000 90000=
07255,1997-02-06 03:00:00,-1,1034.1,0.1,100,-1,500,7.408,,,110,,,,,,,,,,,wg-a,,,,AAXX 06034 07255 12/00 /1104 11010 21010 30129 40341 50001 60006 80002 90300=
07255,1997-02-06 06:00:00,-2,1034.4,0.2,100,-2,2500,11.112,,,120,-1.8,7.3,,,,,2,,,10,wg-a,,,,AAXX 06064 07255 02/25 31206 11020 21020 30131 40344 53002 60006 71011 80002 90600 333 10073 21018 60024=
07255,1997-02-06 09:00:00,-1,1034.7,0.4,100,-1,300,14.816,,,120,,,,,,,,,,,wg-a,,,,AAXX 06094 07255 12/03 /1208 11010 21010 30135 40347 50004 60006 90900=
07255,1997-02-06 12:00:00,8,1033.6,-0.4,76,4,15000,18.52,,,150,,,,,,,,,,2,wg-a,,,,AAXX 06124 07255 12/65 11510 10080 20040 30131 40336 58004 60006 70240 80001 91200=
07255,1997-02-06 15:00:00,10,1031.7,-1.7,66,4,20000,18.52,,,120,,,,,,,,,,,wg-a,,,,AAXX 06154 07255 12/70 11210 10100 20040 30114 40317 56017 60006 80001 91500=
07255,1997-02-06 18:00:00,4,1031.3,-0.9,87,2,25000,14.816,,,120,-1.8,10.1,,,,,,,,,wg-a,,,,AAXX 06184 07255 12/75 11208 10040 20020 30105 40313 56009 60006 80001 91800 333 10101 21018=
07255,1997-02-06 21:00:00,1,1030.8,-0.7,86,-1,15000,14.816,,,120,,,,,,,,,,,wg-a,,,,AAXX 06214 07255 12/65 01208 10010 21010 30098 40308 57007 60006 80000 92100=
07255,1997-02-07 00:00:00,1,1030.5,-0.3,86,-1,8000,18.52,,,90,,,,,,,,,,,wg-a,,,,AAXX 07004 07255 12/58 00910 10010 21010 30095 40305 58003 60006 80000 90000=
07255,1997-02-07 03:00:00,-1,1030.8,0.1,93,-2,8000,7.408,,,100,,,,,,,,,,,wg-a,,,,AAXX 07034 07255 12/58 01004 11010 21020 30096 40308 50001 60006 80000 90300=
07255,1997-02-07 06:00:00,-3,1030.9,-0,100,-3,6000,11.112,,,110,-2.5,4,,,,,,,,,wg-a,,,,AAXX 07064 07255 12/56 01106 11030 21030 30096 40309 55000 60006 80000 90600 333 10040 21025=
07255,1997-02-07 09:00:00,1,1031.8,1.2,86,-1,9000,11.112,,,100,,,,,,,,,,,wg-a,,,,AAXX 07094 07255 12/59 31006 10010 21010 30108 40318 51012 60006 81031 90900=
07255,1997-02-07 12:00:00,7,1031.9,0.5,70,2,10000,7.408,,,80,,,,,,,,,,,wg-a,,,,AAXX 07124 07255 12/60 50804 10070 20020 30113 40319 50005 60006 84031 91200=
07255,1997-02-07 15:00:00,12,1030.9,-0.6,47,1,18000,7.408,,,360,,,,,,,,,,,wg-a,,,,AAXX 07154 07255 12/68 13604 10120 20010 30107 40309 56006 60006 80001 91500=
07255,1997-02-07 18:00:00,9,1032.2,1,53,0,12000,3.704,,,350,-2.5,12.7,,,,,,,,,wg-a,,,,AAXX 07184 07255 12/62 33502 10090 20000 30117 40322 53010 60006 80001 91800 333 10127 21025=
07255,1997-02-07 21:00:00,4,1033.5,1,81,1,12000,3.704,,,150,,,,,,,,,,,wg-a,,,,AAXX 07214 07255 12/62 51502 10040 20010 30127 40335 51010 60006 80001 92100=
07255,1997-02-08 00:00:00,2,1034,0.3,87,0,12000,7.408,,,110,,,,,,,,,,,wg-a,,,,AAXX 08004 07255 12/62 41104 10020 20000 30130 40340 53003 60006 82031 90000=
07255,1997-02-08 03:00:00,3,1033.8,-0.1,81,0,10000,7.408,,,90,,,,,,,,,,,wg-a,,,,AAXX 08034 07255 12/60 /0904 10030 20000 30129 40338 58001 60006 90300=
07255,1997-02-08 06:00:00,1,1034.1,0.1,86,-1,10000,11.112,,,120,1,8.4,,,,,,,,,wg-a,,,,AAXX 08064 07255 12/60 31206 10010 21010 30130 40341 53001 60006 81031 90600 333 10084 20010=
07255,1997-02-08 09:00:00,3,1034.6,0.7,87,1,9000,3.704,,,90,,,,,,,,,,,wg-a,,,,AAXX 08094 07255 12/59 70902 10030 20010 30137 40346 51007 60006 80001 90900=
07255,1997-02-08 12:00:00,12,1033.1,-0.8,50,2,12000,3.704,,,220,,,,,,,,,,,wg-a,,,,AAXX 08124 07255 12/62 42202 10120 20020 30129 40331 58008 60006 80001 91200=
07255,1997-02-08 15:00:00,13,1031.9,-1.1,51,3,10000,7.408,,,310,,,,,,,,,,,wg-a,,,,AAXX 08154 07255 12/60 /3104 10130 20030 30118 40319 56011 60006 91500=
07255,1997-02-08 18:00:00,9,1032,-0.2,61,2,10000,3.704,,,180,0.2,14.1,,,,,,,,,wg-a,,,,AAXX 08184 07255 12/60 41802 10090 20020 30116 40320 55002 60006 80001 91800 333 10141 20002=
07255,1997-02-08 21:00:00,4,1032.5,0.1,87,2,10000,3.704,,,180,,,,,,,,,,,wg-a,,,,AAXX 08214 07255 12/60 01802 10040 20020 30117 40325 53001 60006 80000 92100=
07255,1997-02-09 00:00:00,2,1032.7,-0,87,0,10000,7.408,,,130,,,,,,,,,,,wg-a,,,,AAXX 09004 07255 12/60 01304 10020 20000 30117 40327 54000 60006 80000 90000=
07255,1997-02-09 03:00:00,0,1032.2,-0.6,93,-1,8000,11.112,,,80,,,,,,,,,,,wg-a,,,,AAXX 09034 07255 12/58 00806 10000 21010 30111 40322 58006 60006 80000 90300=
07255,1997-02-09 06:00:00,-2,1031.8,-0.6,93,-3,8000,7.408,,,110,-2.1,8.8,,,,,,,,,wg-a,,,,AAXX 09064 07255 12/58 01104 11020 21030 30105 40318 58006 60006 80000 90600 333 10088 21021=
07255,1997-02-09 09:00:00,1,1032.2,0.7,93,0,9000,7.408,,,110,,,,,,,,,,,wg-a,,,,AAXX 09094 07255 12/59 01104 10010 20000 30112 40322 51007 60006 80000 90900=
07255,1997-02-09 12:00:00,10,1031.6,0.1,62,3,12000,3.704,,,240,,,,,,,,,,,wg-a,,,,AAXX 09124 07255 12/62 02402 10100 20030 30113 40316 50001 60006 80000 91200=
07255,1997-02-09 15:00:00,14,1029.3,-2,51,4,20000,3.704,,,210,,,,,,,,,,,wg-a,,,,AAXX 09154 07255 12/70 02102 10140 20040 30093 40293 56020 60006 80000 91500=
07255,1997-02-09 18:00:00,9,1029.8,0.1,71,4,20000,7.408,,,150,-2.2,14.2,,,,,,,,,wg-a,,,,AAXX 09184 07255 12/70 01504 10090 20040 30094 40298 53001 60006 80000 91800 333 10142 21022=
07255,1997-02-09 21:00:00,5,1029.9,-0.2,81,2,20000,11.112,,,170,,,,,,,,,,,wg-a,,,,AAXX 09214 07255 12/70 01706 10050 20020 30092 40299 58002 60006 80000 92100=
07255,1997-02-10 00:00:00,3,1029.7,-0.3,87,1,20000,7.408,,,230,,,,,,,,,,,wg-a,,,,AAXX 10004 07255 12/70 02304 10030 20010 30089 40297 56003 60006 80000 90000=
07255,1997-02-10 03:00:00,7,1028.4,-1,93,6,10000,14.816,,,260,,,,,,,,,,,wg-a,,,,AAXX 10034 07255 12560 82608 10070 20060 30079 40284 58010 60006 885// 90300=
07255,1997-02-10 06:00:00,4,1027.4,-1.2,93,3,100,11.112,,,180,3.2,8.9,,,,,,,,45,wg-a,,,,AAXX 10064 07255 12/01 91806 10040 20030 30067 40274 56012 60006 74542 89/// 90600 333 10089 20032=
07255,1997-02-10 09:00:00,4,1027.4,-1.2,93,3,100,11.112,,,180,3.2,8.9,,,,,,,,,wg-a,,,,AAXX 10094 07255 12/01 91806 10040 20030 30067 40274 56012 60006 89/// 90900 333 10089 20032=
07255,1997-02-10 12:00:00,14,1023.7,-1.9,51,4,18000,29.632,,,230,,,,,,,,,,3,wg-a,,,,AAXX 10124 07255 12/68 62316 10140 20040 30038 40237 58019 60006 70342 80002 91200=
07255,1997-02-10 15:00:00,15,1022,-1.6,39,1,20000,25.928,,,250,,,,,,,,,,,wg-a,,,,AAXX 10154 07255 12/70 72514 10150 20010 30022 40220 56016 60006 85032 91500=
07255,1997-02-10 18:00:00,13,1022.4,0.2,51,3,15000,25.928,,,250,1.3,16,,,,,,,,,wg-a,,,,AAXX 10184 07255 12665 72514 10130 20030 30024 40224 53002 60006 8757/ 91800 333 10160 20013=
07255,1997-02-10 21:00:00,9,1023.7,1.1,100,9,3500,29.632,,,250,,,,1,,,,,,51,wg-a,,,,AAXX 10214 07255 12335 82516 10090 20090 30035 40237 53011 60017 75165 875// 92100=
07255,1997-02-11 00:00:00,10,1025.1,1.4,93,9,8000,14.816,,,260,,,,0,,,,,,20,wg-a,,,,AAXX 11004 07255 02358 82608 10100 20090 30049 40251 53014 60016 72065 875// 90000 333 60007=
07255,1997-02-11 03:00:00,7,1026.2,0.8,93,6,12000,3.704,,,300,,,,,,,,,,,wg-a,,,,AAXX 11034 07255 12662 73002 10070 20060 30057 40262 50008 60006 875// 90300=
07255,1997-02-11 06:00:00,6,1026.6,0.4,93,5,8000,7.408,,,260,5.9,12.8,,,,,1,,,,wg-a,,,,AAXX 11064 07255 02558 82604 10060 20050 30061 40266 50004 60006 875// 90600 333 10128 20059 60014=
07255,1997-02-11 09:00:00,6,1027.6,1,100,6,300,11.112,,,250,,,,,,,,,,45,wg-a,,,,AAXX 11094 07255 12/03 92506 10060 20060 30071 40276 53010 60006 74542 89/// 90900=
07255,1997-02-11 12:00:00,10,1026.7,-0.6,71,5,0,18.52,,,260,,,,,,,,,,,wg-a,,,,AAXX 11124 07255 12/// /2610 10100 20050 30065 40267 58006 60006 91200=
07255,1997-02-11 15:00:00,9,1024.7,-2,87,7,12000,14.816,,,240,,,,,,,,,,,wg-a,,,,AAXX 11154 07255 12662 82408 10090 20070 30045 40247 56020 60006 875// 91500=
07255,1997-02-11 18:00:00,8,1023.9,-0.9,93,7,10000,14.816,,,220,4.1,10.6,,,,,,,,61,wg-a,,,,AAXX 11184 07255 02560 82208 10080 20070 30036 40239 58009 61000 76162 8552/ 91800 333 10106 20041 6001=
07255,1997-02-11 21:00:00,10,1022.4,-1.4,93,9,500,29.632,,,240,,,,0,,,,,,60,wg-a,,,,AAXX 11214 07255 12400 82416 10100 20090 30022 40224 58014 60007 76062 875// 92100=
07255,1997-02-12 00:00:00,11,1022.4,0.1,87,9,9000,29.632,,,260,,,,,,,,,,20,wg-a,,,,AAXX 12004 07255 02359 82616 10110 20090 30023 40224 53001 60016 72065 877// 90000 333 61000=
07255,1997-02-12 03:00:00,11,1022.5,0.1,87,9,10000,31.484,,53.708,250,,,,,,,,,,,wg-a,,,,AAXX 12034 07255 12460 72517 10110 20090 30024 40225 50001 60006 875// 90300 333 91029=
07255,1997-02-12 06:00:00,11,1022.1,0.2,87,9,10000,29.632,,,250,8.3,11.2,,,,,1,,,2,wg-a,,,,AAXX 12064 07255 02460 72516 10110 20090 30020 40221 50002 60006 70262 875// 90600 333 10112 20083 60014=
07255,1997-02-12 09:00:00,11,1022.9,0.2,87,9,11000,29.632,,,250,,,,,,,,,,,wg-a,,,,AAXX 12094 07255 12/61 /2516 10110 20090 30028 40229 50002 60006 90900=
07255,1997-02-12 12:00:00,12,1021.4,-1.4,82,9,15000,29.632,,,260,,,,,,,,,,51,wg-a,,,,AAXX 12124 07255 02465 82616 10120 20090 30014 40214 58014 61000 75165 875// 91200 333 6100=
07255,1997-02-12 15:00:00,12,1018.5,-2.8,76,8,20000,29.632,,,260,,,,,,,,,,1,wg-a,,,,AAXX 12154 07255 02570 72616 10120 20080 39986 40185 56028 61000 70165 878// 91500 333 ////=
07255,1997-02-12 18:00:00,11,1016.7,-1.8,82,8,25000,29.632,,,250,10.7,12.8,,,,,,,,60,wg-a,,,,AAXX 12184 07255 02575 72516 10110 20080 39968 40167 56018 61000 76062 878// 91800 333 10128 20107 6100=
07255,1997-02-12 21:00:00,10,1014.8,-2,93,9,12000,31.484,,53.708,240,,,,2,,,,,,61,wg-a,,,,AAXX 12214 07255 12562 82417 10100 20090 39948 40148 58020 60027 76166 878// 92100 333 91029=
07255,1997-02-13 00:00:00,11,1013.6,-1.1,87,9,15000,38.892,,72.228,250,,,,0,,,,,,21,wg-a,,,,AAXX 13004 07255 02465 72521 10110 20090 39937 40136 55011 60026 72162 8687/ 90000 333 60007 91039=
07255,1997-02-13 03:00:00,9,1012.9,-0.8,87,7,15000,35.188,,57.412,260,,,,,,,,,,1,wg-a,,,,AAXX 13034 07255 02465 72619 10090 20070 39929 40129 58008 61000 70162 8223/ 90300 333 //// 91031=
07255,1997-02-13 06:00:00,9,1010.4,-2.5,87,7,15000,38.892,,64.82,240,8.6,11.1,,,,,2,,,3,wg-a,,,,AAXX 13064 07255 02465 72421 10090 20070 39904 40104 58025 60006 70386 878// 90600 333 10111 20086 60024 91035=
07255,1997-02-13 09:00:00,7,1011.9,1.3,81,4,20000,46.3,,87.044,280,,,,3,,,,,,25,wg-a,,,,AAXX 13094 07255 12470 72825 10070 20040 39917 40119 53013 60037 72562 873// 90900 333 91047=
07255,1997-02-13 12:00:00,8,1015.3,3.4,61,1,20000,38.892,,68.524,290,,,,,,,,,,1,wg-a,,,,AAXX 13124 07255 12570 72921 10080 20010 39951 40153 51034 60036 70186 86202 91200 333 91037=
07255,1997-02-13 18:00:00,7,1018.1,0.8,66,1,20000,22.224,,,270,6.5,9.7,,,,,,,,,wg-a,,,,AAXX 13184 07255 12670 72712 10070 20010 39978 40181 53008 60006 8583/ 91800 333 10097 20065=
07255,1997-02-13 21:00:00,6,1017.6,-0.5,81,3,20000,22.224,,,260,,,,,,,,,,,wg-a,,,,AAXX 13214 07255 12/70 72612 10060 20030 39973 40176 58005 60006 8707/ 92100=
07255,1997-02-14 00:00:00,5,1014.6,-3,93,4,12000,18.52,,,210,,,,0,,,,,,61,wg-a,,,,AAXX 14004 07255 02662 82110 10050 20040 39943 40146 56030 60006 76162 8657/ 90000 333 60007=
07255,1997-02-14 03:00:00,4,1009.4,-5.2,100,4,8000,18.52,,,140,,,,9,,,,,,63,wg-a,,,,AAXX 14034 07255 12558 81410 10040 20040 39891 40094 58052 60097 76366 875// 90300=
07255,1997-02-14 06:00:00,5,1005.4,-3.9,100,5,4000,7.408,,,130,3.9,7.4,,,,,,,,10,wg-a,,,,AAXX 14064 07255 02240 81304 10050 20050 39852 40054 56039 61000 71065 887// 90600 333 10074 20039 6020=
07255,1997-02-14 09:00:00,11,1005.8,0.9,100,11,500,29.632,,,260,,,,1,,,,,,50,wg-a,,,,AAXX 14094 07255 12200 82616 10110 20110 39861 40058 53009 60017 75052 887// 90900=
07255,1997-02-14 12:00:00,12,1005.8,-0,94,11,10000,29.632,,50.004,270,,,,1,,,,,,51,wg-a,,,,AAXX 14124 07255 02460 82716 10120 20110 39861 40058 54000 60026 75165 885// 91200 333 60017 91027=
07255,1997-02-14 15:00:00,13,1004.1,-1.6,77,9,15000,42.596,,64.82,260,,,,,,,,,,,wg-a,,,,AAXX 14154 07255 02565 62623 10130 20090 39845 40041 56016 61000 85801 91500 333 //// 91035=
07255,1997-02-14 18:00:00,11,1003.1,-1.1,87,9,10000,25.928,,,260,4.8,13.8,,1,,,,,,1,wg-a,,,,AAXX 14184 07255 02460 72614 10110 20090 39834 40031 56011 60006 70182 878// 91800 333 10138 20048 60017=
07255,1997-02-14 21:00:00,10,1003,-0.2,87,8,12000,29.632,,,260,,,,,,,,,,,wg-a,,,,AAXX 14214 07255 12462 72616 10100 20080 39832 40030 56002 60006 878// 92100=
07255,1997-02-15 00:00:00,9,1002.8,-0.2,93,8,8000,22.224,,,260,,,,0,,,,,,60,wg-a,,,,AAXX 15004 07255 02458 82612 10090 20080 39830 40028 57002 60016 76062 878// 90000 333 60007=
07255,1997-02-15 03:00:00,9,1004.1,1.3,93,8,8000,11.112,,,290,,,,0,,,,,,3,wg-a,,,,AAXX 15034 07255 12358 72906 10090 20080 39843 40041 53013 60007 70386 878// 90300=
07255,1997-02-15 06:00:00,5,1011.5,6.9,87,3,12000,31.484,,53.708,30,4.9,10.9,,,,,,,,60,wg-a,,,,AAXX 15064 07255 02362 80317 10050 20030 39912 40115 53069 61000 76086 878// 90600 333 10109 20049 6006 91029=
07255,1997-02-15 09:00:00,4,1019.2,7.5,81,1,25000,25.928,,,360,,,,,,,,,,,wg-a,,,,AAXX 15094 07255 02475 /3614 10040 20010 39987 40192 51075 61000 81102 90900 333 ////=
07255,1997-02-15 12:00:00,7,1022.9,3.8,61,0,35000,22.224,,,10,,,,,,,,,,,wg-a,,,,AAXX 15124 07255 02581 40112 10070 20000 30025 40229 51038 61000 84200 91200 333 ////=
07255,1997-02-15 15:00:00,8,1024.5,1.6,53,-1,35000,14.816,,,10,,,,,,,,,,,wg-a,,,,AAXX 15154 07255 12681 40108 10080 21010 30041 40245 51016 60006 84400 91500=
07255,1997-02-15 21:00:00,4,1027.5,1,81,1,20000,3.704,,,200,,,,,,,,,,,wg-a,,,,AAXX 15214 07255 12670 72002 10040 20010 30068 40275 51010 60006 875// 92100=
07255,1997-02-16 00:00:00,1,1027.1,-0.6,86,-1,20000,7.408,,,130,,,,,,,,,,,wg-a,,,,AAXX 16004 07255 12/70 01304 10010 21010 30062 40271 58006 60006 80000 90000=
07255,1997-02-16 03:00:00,-1,1026.4,-0.9,93,-2,10000,7.408,,,120,,,,,,,,,,,wg-a,,,,AAXX 16034 07255 12/60 01204 11010 21020 30053 40264 58009 60006 80000 90300=
07255,1997-02-16 06:00:00,-2,1025.6,-0.8,93,-3,10000,11.112,,,120,-2.1,5.7,,,,,,,,,wg-a,,,,AAXX 16064 07255 02/60 61206 11020 21030 30045 40256 57008 60006 80002 90600 333 10057 21021 61000=
07255,1997-02-16 09:00:00,1,1025.1,-0.3,86,-1,10000,14.816,,,130,,,,,,,,,,,wg-a,,,,AAXX 16094 07255 12/60 /1308 10010 21010 30042 40251 57003 60006 90900=
07255,1997-02-16 12:00:00,7,1022.8,-2.1,61,0,25000,22.224,,,150,,,,,,,,,,,wg-a,,,,AAXX 16124 07255 12/75 71512 10070 20000 30024 40228 58021 60006 81032 91200=
07255,1997-02-16 15:00:00,9,1020.8,-1.8,57,1,35000,14.816,,,140,,,,,,,,,,,wg-a,,,,AAXX 16154 07255 12/81 71408 10090 20010 30006 40208 56018 60006 85052 91500=
07255,1997-02-16 18:00:00,6,1020.4,-0.6,70,1,20000,11.112,,,150,-2.3,9.7,,,,,,,,,wg-a,,,,AAXX 16184 07255 12/70 61506 10060 20010 30000 40204 56006 60006 84072 91800 333 10097 21023=
07255,1997-02-16 21:00:00,5,1021.7,1.2,75,1,20000,11.112,,,260,,,,,,,,,,,wg-a,,,,AAXX 16214 07255 12570 82606 10050 20010 30012 40217 53012 60006 875// 92100=
07255,1997-02-17 00:00:00,5,1022.4,0.7,100,5,10000,14.816,,,260,,,,1,,,,,,21,wg-a,,,,AAXX 17004 07255 02460 82608 10050 20050 30019 40224 53007 60016 72162 875// 90000 333 60017=
07255,1997-02-17 03:00:00,7,1022.6,0.3,93,6,10000,14.816,,,260,,,,,,,,,,,wg-a,,,,AAXX 17034 07255 12460 82608 10070 20060 30022 40226 51003 60006 875// 90300=
07255,1997-02-17 06:00:00,7,1023.5,0.9,93,6,8000,11.112,,,240,3.1,6.9,,,,,1,,,,wg-a,,,,AAXX 17064 07255 02358 82406 10070 20060 30031 40235 53009 60006 875// 90600 333 10069 20031 60014=
07255,1997-02-17 09:00:00,8,1024.4,1,93,7,8000,22.224,,,230,,,,0,,,,,,25,wg-a,,,,AAXX 17094 07255 12358 82312 10080 20070 30041 40244 53010 60007 72586 878// 90900=
07255,1997-02-17 12:00:00,10,1024.2,-0.1,82,7,25000,22.224,,,250,,,,,,,,,,3,wg-a,,,,AAXX 17124 07255 12475 72512 10100 20070 30040 40242 58001 60016 70386 86802 91200=
07255,1997-02-17 15:00:00,12,1023.5,-0.6,62,5,500,22.224,,,260,,,,,,,,,,,wg-a,,,,AAXX 17154 07255 12500 72612 10120 20050 30034 40235 55006 60006 84852 91500=
07255,1997-02-17 18:00:00,9,1024.3,0.6,87,7,20000,14.816,,,240,6.4,11.6,,,,,,,,2,wg-a,,,,AAXX 17184 07255 02570 82408 10090 20070 30040 40243 53006 60006 70282 8687/ 91800 333 10116 20064 61000=
07255,1997-02-17 21:00:00,9,1024.7,0.4,81,6,15000,18.52,,,240,,,,,,,,,,,wg-a,,,,AAXX 17214 07255 12765 72410 10090 20060 30044 40247 51004 60006 82532 92100=
07255,1997-02-18 00:00:00,9,1023.4,-1.2,87,7,10000,25.928,,,240,,,,,,,,,,61,wg-a,,,,AAXX 18004 07255 02560 82414 10090 20070 30032 40234 58012 61000 76162 8657/ 90000 333 6100=
07255,1997-02-18 03:00:00,9,1021.7,-1.7,87,7,10000,22.224,,,240,,,,0,,,,,,61,wg-a,,,,AAXX 18034 07255 12460 82412 10090 20070 30015 40217 58017 60007 76166 8552/ 90300=
07255,1997-02-18 06:00:00,9,1020,-1.6,87,7,500,31.484,,,240,8.3,9.7,,,,,,,,51,wg-a,,,,AAXX 18064 07255 02300 82417 10090 20070 39999 40200 56016 61000 75165 877// 90600 333 10097 20083 6001=
07255,1997-02-18 09:00:00,9,1019.7,-0.3,93,8,4000,35.188,,57.412,240,,,,,,,,,,51,wg-a,,,,AAXX 18094 07255 02240 82419 10090 20080 39996 40197 58003 61000 75165 877// 90900 333 //// 91031=
07255,1997-02-18 12:00:00,12,1020.3,0.7,88,10,500,35.188,,61.116,250,,,,0,,,,,,1,wg-a,,,,AAXX 18124 07255 02400 72519 10120 20100 30003 40203 50007 60006 70165 86232 91200 333 60007 91033=
07255,1997-02-18 15:00:00,10,1021.5,1.1,82,7,20000,29.632,,53.708,290,,,,2,,,,,,25,wg-a,,,,AAXX 18154 07255 12570 72916 10100 20070 30014 40215 53011 60027 72582 878// 91500 333 91029=
07255,1997-02-18 18:00:00,7,1025.8,3.9,87,5,15000,14.816,,,300,6.8,12.8,,,,,,,,25,wg-a,,,,AAXX 18184 07255 02565 73008 10070 20050 30053 40258 53039 61000 72582 878// 91800 333 10128 20068 6000=
07255,1997-02-18 21:00:00,5,1029.8,3.9,93,4,10000,14.816,,,290,,,,2,,,,,,21,wg-a,,,,AAXX 18214 07255 12560 /2908 10050 20040 30092 40298 51039 60027 72186 81500 92100=
07255,1997-02-19 00:00:00,5,1032.5,2.6,87,3,10000,14.816,,,280,,,,,,,,,,,wg-a,,,,AAXX 19004 07255 12660 /2808 10050 20030 30118 40325 51026 60026 81500 90000=
07255,1997-02-19 03:00:00,4,1033.8,1.1,87,2,10000,11.112,,,270,,,,,,,,,,,wg-a,,,,AAXX 19034 07255 12/60 02706 10040 20020 30129 40338 52011 60006 80000 90300=
07255,1997-02-19 06:00:00,2,1034.4,0.5,93,1,10000,3.704,,,200,1.7,8,,,,,5,,,,wg-a,,,,AAXX 19064 07255 02/60 32002 10020 20010 30134 40344 53005 60006 80001 90600 333 10080 20017 60054=
07255,1997-02-19 09:00:00,5,1033.5,-0.6,93,4,18000,18.52,,,190,,,,,,,,,,,wg-a,,,,AAXX 19094 07255 12/68 71910 10050 20040 30128 40335 58006 60006 86031 90900=
07255,1997-02-19 12:00:00,10,1030.6,-2.5,71,5,20000,18.52,,,210,,,,,,,,,,,wg-a,,,,AAXX 19124 07255 12/70 72110 10100 20050 30103 40306 58025 60006 81031 91200=
07255,1997-02-19 18:00:00,8,1025,-2.1,76,4,20000,11.112,,,210,1.5,12,,,,,,,,,wg-a,,,,AAXX 19184 07255 12/70 72106 10080 20040 30047 40250 56021 60006 85032 91800 333 10120 20015=
07255,1997-02-19 21:00:00,10,1024,-0.9,71,5,20000,35.188,,57.412,250,,,,,,,,,,,wg-a,,,,AAXX 19214 07255 12/70 72519 10100 20050 30038 40240 56009 60006 86032 92100 333 91031=
07255,1997-02-20 00:00:00,10,1025.7,1.7,93,9,9000,31.484,,53.708,260,,,,0,,,,,,60,wg-a,,,,AAXX 20004 07255 02359 82617 10100 20090 30055 40257 53017 60006 76062 875// 90000 333 60007 91029=
07255,1997-02-20 03:00:00,10,1027.3,1.5,87,8,15000,25.928,,,280,,,,,,,,,,1,wg-a,,,,AAXX 20034 07255 02465 32814 10100 20080 30070 40273 51015 61000 70161 81201 90300 333 ////=
07255,1997-02-20 06:00:00,7,1029.7,2.2,93,6,10000,14.816,,,270,7.2,10.6,,,,,,,,2,wg-a,,,,AAXX 20064 07255 02/60 22708 10070 20060 30092 40297 51022 60006 70261 80001 90600 333 10106 20072 60004=
07255,1997-02-20 12:00:00,11,1031.2,-0.6,66,5,22000,18.52,,,270,,,,,,,,,,,wg-a,,,,AAXX 20124 07255 12572 /2710 10110 20050 30109 40312 58006 60006 83140 91200=
07255,1997-02-20 15:00:00,12,1030.1,-1,62,5,35000,18.52,,,290,,,,,,,,,,,wg-a,,,,AAXX 20154 07255 12581 72910 10120 20050 30099 40301 56010 60006 86101 91500=
07255,1997-02-20 18:00:00,10,1029.7,-0.5,76,6,15000,7.408,,,260,6.1,12.2,,,,,,,,,wg-a,,,,AAXX 20184 07255 12665 72604 10100 20060 30094 40297 55005 60006 875// 91800 333 10122 20061=
07255,1997-02-20 21:00:00,7,1029.9,-0,87,5,20000,11.112,,,210,,,,,,,,,,,wg-a,,,,AAXX 20214 07255 12670 22106 10070 20050 30094 40299 55000 60006 82500 92100=
07255,1997-02-21 00:00:00,5,1030.5,0.4,93,4,15000,14.816,,,220,,,,,,,,,,,wg-a,,,,AAXX 21004 07255 12665 72208 10050 20040 30098 40305 51004 60006 875// 90000=
07255,1997-02-21 03:00:00,6,1030.2,-0.2,87,4,15000,7.408,,,240,,,,,,,,,,,wg-a,,,,AAXX 21034 07255 12665 72404 10060 20040 30096 40302 57002 60006 875// 90300=
07255,1997-02-21 06:00:00,7,1030.8,0.7,93,6,15000,7.408,,,260,4.5,10,,,,,,,,,wg-a,,,,AAXX 21064 07255 12665 82604 10070 20060 30103 40308 53007 60006 885// 90600 333 10100 20045=
07255,1997-02-21 12:00:00,12,1032.8,0.7,76,8,20000,14.816,,,270,,,,,,,,,,,wg-a,,,,AAXX 21124 07255 12470 72708 10120 20080 30126 40328 50007 60006 878// 91200=
07255,1997-02-21 15:00:00,13,1031.8,-0.9,72,8,25000,11.112,,,270,,,,,,,,,,,wg-a,,,,AAXX 21154 07255 12575 42706 10130 20080 30117 40318 56009 60006 84800 91500=
07255,1997-02-21 18:00:00,10,1032.8,0.8,82,7,20000,3.704,,,250,6.9,13.4,,,,,,,,,wg-a,,,,AAXX 21184 07255 12670 /2502 10100 20070 30125 40328 53008 60006 81500 91800 333 10134 20069=
07255,1997-02-21 21:00:00,9,1033.7,0.8,87,7,15000,7.408,,,270,,,,,,,,,,,wg-a,,,,AAXX 21214 07255 12765 72704 10090 20070 30133 40337 51008 60006 875// 92100=
07255,1997-02-22 00:00:00,7,1033.3,-0.6,93,6,12000,3.704,,,110,,,,,,,,,,,wg-a,,,,AAXX 22004 07255 12/62 01102 10070 20060 30127 40333 58006 60006 80000 90000=
07255,1997-02-22 03:00:00,5,1032.6,-0.8,93,4,10000,7.408,,,110,,,,,,,,,,,wg-a,,,,AAXX 22034 07255 12/60 01104 10050 20040 30119 40326 58008 60006 80000 90300=
07255,1997-02-22 06:00:00,2,1031.7,-1.1,100,2,300,7.408,,,100,2,10.1,,,,,,,,44,wg-a,,,,AAXX 22064 07255 12/03 01004 10020 20020 30108 40317 58011 60006 74442 80000 90600 333 10101 20020=
07255,1997-02-22 09:00:00,5,1030.6,-0.9,100,5,6000,14.816,,,100,,,,,,,,,,28,wg-a,,,,AAXX 22094 07255 12/56 41008 10050 20050 30099 40306 56009 60006 72840 80001 90900=
07255,1997-02-22 12:00:00,14,1028,-1.9,67,8,28000,22.224,,,130,,,,,,,,,,3,wg-a,,,,AAXX 22124 07255 12/78 41312 10140 20080 30080 40280 58019 60006 70341 80002 91200=
07255,1997-02-22 15:00:00,16,1024.8,-3,55,7,500,18.52,,,120,,,,,,,,,,,wg-a,,,,AAXX 22154 07255 12/00 61210 10160 20070 30050 40248 56030 60006 80002 91500=
07255,1997-02-22 18:00:00,11,1023.8,-1.3,76,7,25000,11.112,,,110,2,15.9,,,,,,,,,wg-a,,,,AAXX 22184 07255 12/75 71106 10110 20070 30037 40238 56013 60006 80002 91800 333 10159 20020=
07255,1997-02-22 21:00:00,7,1023,-1.1,87,5,20000,11.112,,,140,,,,,,,,,,,wg-a,,,,AAXX 22214 07255 12/70 31406 10070 20050 30026 40230 58011 60006 80001 92100=
07255,1997-02-23 00:00:00,6,1022.4,-0.7,87,4,20000,7.408,,,210,,,,,,,,,,,wg-a,,,,AAXX 23004 07255 12/70 22104 10060 20040 30019 40224 58007 60006 80001 90000=
07255,1997-02-23 03:00:00,3,1020.9,-1.6,93,2,10000,7.408,,,140,,,,,,,,,,,wg-a,,,,AAXX 23034 07255 12/60 31404 10030 20020 30003 40209 58016 60006 80001 90300=
07255,1997-02-23 06:00:00,4,1020.2,-0.6,93,3,10000,7.408,,,120,3.2,10.6,,,,,,,,,wg-a,,,,AAXX 23064 07255 12/60 71204 10040 20030 39997 40202 55006 60006 85032 90600 333 10106 20032=
07255,1997-02-23 09:00:00,9,1020.8,0.9,81,6,18000,7.408,,,250,,,,,,,,,,,wg-a,,,,AAXX 23094 07255 12/68 72504 10090 20060 30006 40208 53009 60006 86031 90900=
07255,1997-02-23 12:00:00,13,1019.1,-1.4,72,8,18000,11.112,,,260,,,,,,,,,,,wg-a,,,,AAXX 23124 07255 12768 82606 10130 20080 39992 40191 58014 60006 8257/ 91200=
07255,1997-02-23 15:00:00,11,1016.7,-2.4,87,9,15000,0,,,0,,,,,,,,,,21,wg-a,,,,AAXX 23154 07255 02765 80000 10110 20090 39968 40167 56024 61000 72162 8557/ 91500 333 ////=
07255,1997-02-23 18:00:00,10,1015.9,-0.9,93,9,10000,7.408,,,200,4.3,13.4,,,,,,,,21,wg-a,,,,AAXX 23184 07255 02660 82004 10100 20090 39959 40159 56009 61000 72162 875// 91800 333 10134 20043 6001=
07255,1997-02-23 21:00:00,10,1015.2,-0.7,93,9,9000,14.816,,,220,,,,,,,,,,60,wg-a,,,,AAXX 23214 07255 02559 82208 10100 20090 39952 40152 58007 61000 76062 875// 92100 333 ////=
07255,1997-02-24 00:00:00,10,1013.4,-1.7,93,9,10000,22.224,,,230,,,,,,,,,,1,wg-a,,,,AAXX 24004 07255 02/60 22312 10100 20090 39935 40134 58017 60006 70161 81031 90000 333 61000=
07255,1997-02-24 06:00:00,11,1010.6,-1.3,82,8,12000,25.928,,,230,9.6,10.9,,,,,,,,21,wg-a,,,,AAXX 24064 07255 02562 82314 10110 20080 39908 40106 56013 61000 72161 8657/ 90600 333 10109 20096 6001=
07255,1997-02-24 09:00:00,11,1010.7,-0,87,9,15000,35.188,,,230,,,,1,,,,,,60,wg-a,,,,AAXX 24094 07255 12565 82319 10110 20090 39908 40107 55000 60017 76062 875// 90900=
07255,1997-02-24 12:00:00,12,1009.7,-0.8,88,10,12000,42.596,,75.932,240,,,,0,,,,,,3,wg-a,,,,AAXX 24124 07255 02462 82423 10120 20100 39900 40097 56008 60016 70362 875// 91200 333 60007 91041=
07255,1997-02-24 15:00:00,13,1008.5,-1.2,82,10,15000,38.892,,64.82,240,,,,0,,,,,,1,wg-a,,,,AAXX 24154 07255 12565 82421 10130 20100 39888 40085 58012 60007 70162 875// 91500 333 91035=
07255,1997-02-24 18:00:00,13,1008,-0.5,82,10,15000,38.892,,68.524,240,10.1,12.9,,,,,,,,,wg-a,,,,AAXX 24184 07255 02465 82421 10130 20100 39883 40080 55005 60006 875// 91800 333 10129 20101 61000 91037=
07255,1997-02-25 00:00:00,12,1007.2,-0.6,94,11,8000,46.3,,68.524,240,,,,3,,,,,,61,wg-a,,,,AAXX 25004 07255 02358 82425 10120 20110 39875 40072 56006 60036 76165 877// 90000 333 60037 91037=
07255,1997-02-25 03:00:00,13,1007.4,0.3,94,12,500,42.596,,68.524,250,,,,0,,,,,,51,wg-a,,,,AAXX 25034 07255 12300 82523 10130 20120 39878 40074 53003 60007 75165 877// 90300 333 91037=
07255,1997-02-25 06:00:00,13,1008.3,0.8,88,11,7000,42.596,,68.524,250,12,13,,,,,,,,61,wg-a,,,,AAXX 25064 07255 02457 82523 10130 20110 39886 40083 53008 61000 76165 877// 90600 333 10130 20120 6005 91037=
07255,1997-02-25 09:00:00,13,1010,1.7,88,11,15000,38.892,,61.116,260,,,,,,,,,,1,wg-a,,,,AAXX 25094 07255 02465 82621 10130 20110 39903 40100 53017 61000 70162 875// 90900 333 //// 91033=
07255,1997-02-25 12:00:00,15,1010.6,0.8,77,11,15000,46.3,,79.636,260,,,,1,,,,,,21,wg-a,,,,AAXX 25124 07255 02465 72625 10150 20110 39911 40106 51008 60016 72162 878// 91200 333 60017 91043=
07255,1997-02-25 15:00:00,15,1010.9,0.2,72,10,20000,42.596,,72.228,260,,,,,,,,,,,wg-a,,,,AAXX 25154 07255 12470 82623 10150 20100 39913 40109 53002 60006 878// 91500 333 91039=
07255,1997-02-25 18:00:00,14,1012.2,1.2,72,9,18000,38.892,,72.228,260,12.5,15.2,,,,,,,,21,wg-a,,,,AAXX 25184 07255 02568 82621 10140 20090 39925 40122 53012 61000 72122 875// 91800 333 10152 20125 6100 91039=
07255,1997-02-26 00:00:00,11,1014,0.4,94,10,8000,38.892,,61.116,250,,,,0,,,,,,60,wg-a,,,,AAXX 26004 07255 02458 82521 10110 20100 39941 40140 51004 60016 76062 877// 90000 333 60007 91033=
07255,1997-02-26 03:00:00,11,1013.3,-0.7,94,10,6000,38.892,,61.116,250,,,,2,,,,,,61,wg-a,,,,AAXX 26034 07255 12456 82521 10110 20100 39934 40133 57007 60027 76166 877// 90300 333 91033=
07255,1997-02-26 06:00:00,10,1016,2.6,87,8,12000,31.484,,53.708,260,10.1,13.8,,,,,5,,,,wg-a,,,,AAXX 26064 07255 02562 72617 10100 20080 39960 40160 51026 60006 875// 90600 333 10138 20101 60054 91029=
07255,1997-02-26 09:00:00,11,1019.2,3.1,71,6,25000,22.224,,,280,,,,,,,,,,25,wg-a,,,,AAXX 26094 07255 02575 42812 10110 20060 39991 40192 53031 61000 72511 84100 90900 333 ////=
07255,1997-02-26 12:00:00,12,1020,0.9,71,7,11000,29.632,,50.004,270,,,,,,,,,,,wg-a,,,,AAXX 26124 07255 02/61 /2716 10120 20070 30000 40200 51009 61000 91200 333 //// 91027=
07255,1997-02-26 15:00:00,10,1019.9,-0.2,76,6,500,35.188,,61.116,270,,,,0,,,,,,25,wg-a,,,,AAXX 26154 07255 12500 72719 10100 20060 39998 40199 55002 60007 72582 873// 91500 333 91033=
07255,1997-02-26 18:00:00,8,1023.4,3.3,81,5,15000,22.224,,,270,6.5,13.2,,2,,,,,,80,wg-a,,,,AAXX 26184 07255 12465 72712 10080 20050 30031 40234 53033 60027 78081 879// 91800 333 10132 20065=
07255,1997-02-27 00:00:00,5,1031.6,3.2,93,4,15000,18.52,,,270,,,,,,,,,,3,wg-a,,,,AAXX 27004 07255 12665 /2710 10050 20040 30109 40316 51032 60016 70381 85500 90000=
07255,1997-02-27 06:00:00,3,1037,1.6,93,2,10000,7.408,,,250,2.6,7.8,,,,,4,,,,wg-a,,,,AAXX 27064 07255 02/60 12504 10030 20020 30160 40370 51016 60006 80001 90600 333 10078 20026 60044=
07255,1997-02-27 09:00:00,6,1039.1,2.3,93,5,12000,11.112,,,300,,,,,,,,,,,wg-a,,,,AAXX 27094 07255 12462 /3006 10060 20050 30183 40391 51023 60006 81100 90900=
07255,1997-02-27 12:00:00,10,1038,-0.8,66,4,28000,7.408,,,280,,,,,,,,,,,wg-a,,,,AAXX 27124 07255 12578 42804 10100 20040 30175 40380 57008 60006 84100 91200=
07255,1997-02-27 18:00:00,9,1037.2,-0.6,71,4,28000,7.408,,,160,2.3,12.4,,,,,,,,,wg-a,,,,AAXX 27184 07255 12/78 61604 10090 20040 30166 40372 56006 60006 86030 91800 333 10124 20023=
07255,1997-02-28 00:00:00,3,1035.6,-1.6,87,1,10000,14.816,,,140,,,,,,,,,,,wg-a,,,,AAXX 28004 07255 12/60 01408 10030 20010 30147 40356 58016 60006 80000 90000=
07255,1997-02-28 03:00:00,1,1033.9,-1.9,93,0,10000,14.816,,,130,,,,,,,,,,,wg-a,,,,AAXX 28034 07255 12/60 31308 10010 20000 30128 40339 58019 60006 80001 90300=
07255,1997-02-28 06:00:00,1,1033.4,-0.5,86,-1,15000,18.52,,,100,0.8,8.6,,,,,,,,,wg-a,,,,AAXX 28064 07255 12/65 21010 10010 21010 30123 40334 55005 60006 80002 90600 333 10086 20008=
07255,1997-02-28 09:00:00,7,1032.7,-0.2,66,1,500,22.224,,,130,,,,,,,,,,,wg-a,,,,AAXX 28094 07255 12/00 61312 10070 20010 30121 40327 58002 60006 80002 90900=
07255,1997-02-28 12:00:00,15,1030.3,-1.7,51,5,35000,14.816,,,140,,,,,,,,,,,wg-a,,,,AAXX 28124 07255 12/81 71408 10150 20050 30104 40303 58017 60006 80002 91200=
07255,1997-02-28 18:00:00,13,1028.1,4,72,8,28000,3.704,,,160,0.4,19.2,,,,,,,,,wg-a,,,,AAXX 28184 07255 12/78 71602 10130 20080 30081 40281 50040 60006 80002 91800 333 10192 20004=
07255,1997-02-28 21:00:00,11,1028.3,0,62,4,20000,14.816,,,230,,,,,,,,,,,wg-a,,,,AAXX 28214 07255 12/70 02308 10110 20040 30081 40283 50000 60006 80000 92100=
07255,1997-03-01 00:00:00,11,1029.1,0.8,66,5,15000,11.112,,,290,,,,,,,,,,,wg-a,,,,AAXX 01004 07255 12/65 72906 10110 20050 30089 40291 51008 60006 80001 90000=
07255,1997-03-01 03:00:00,8,1029.6,0.3,87,6,15000,7.408,,,260,,,,,,,,,,,wg-a,,,,AAXX 01034 07255 12/65 72604 10080 20060 30092 40296 50003 60006 8703/ 90300=
07255,1997-03-01 06:00:00,6,1030.1,0.3,93,5,10000,7.408,,,140,6,13,,,,,,,,,wg-a,,,,AAXX 01064 07255 12/60 71404 10060 20050 30095 40301 53003 60006 8701/ 90600 333 10130 20060=
07255,1997-03-01 09:00:00,9,1030.7,0.8,87,7,10000,3.704,,,110,,,,,,,,,,,wg-a,,,,AAXX 01094 07255 12860 71102 10090 20070 30103 40307 51008 60006 82032 90900=
07255,1997-03-01 12:00:00,14,1029.6,-0.7,63,7,15000,0,,,0,,,,,,,,,,,wg-a,,,,AAXX 01124 07255 12/65 50000 10140 20070 30096 40296 56007 60006 83032 91200=
07255,1997-03-01 15:00:00,17,1027.2,-2.2,48,6,20000,3.704,,,190,,,,,,,,,,,wg-a,,,,AAXX 01154 07255 12/70 11902 10170 20060 30074 40272 56022 60006 81030 91500=
07255,1997-03-01 18:00:00,14,1026.8,-0.6,63,7,20000,3.704,,,160,6,18,,,,,,,,,wg-a,,,,AAXX 01184 07255 12/70 11602 10140 20070 30068 40268 58006 60006 80002 91800 333 10180 20060=
07255,1997-03-01 21:00:00,10,1026.8,-0.3,82,7,15000,3.704,,,110,,,,,,,,,,,wg-a,,,,AAXX 01214 07255 12/65 11102 10100 20070 30065 40268 58003 60006 80002 92100=
07255,1997-03-02 00:00:00,6,1026.1,-0.9,87,4,15000,7.408,,,140,,,,,,,,,,,wg-a,,,,AAXX 02004 07255 12/65 31404 10060 20040 30056 40261 58009 60006 80002 90000=
07255,1997-03-02 03:00:00,5,1025.3,-0.9,93,4,15000,3.704,,,200,,,,,,,,,,,wg-a,,,,AAXX 02034 07255 12/65 32002 10050 20040 30047 40253 56009 60006 80002 90300=
07255,1997-03-02 06:00:00,4,1026.3,0.9,87,2,12000,11.112,,,200,3.6,13.6,,,,,,,,,wg-a,,,,AAXX 02064 07255 12/62 22006 10040 20020 30056 40263 51009 60006 80002 90600 333 10136 20036=
07255,1997-03-02 09:00:00,11,1027.7,1.9,82,8,20000,11.112,,,250,,,,,,,,,,,wg-a,,,,AAXX 02094 07255 12/70 62506 10110 20080 30075 40277 51019 60006 80002 90900=
07255,1997-03-02 12:00:00,14,1028.4,0.9,72,9,15000,18.52,,,270,,,,,,,,,,,wg-a,,,,AAXX 02124 07255 12465 /2710 10140 20090 30084 40284 50009 60006 81802 91200=
07255,1997-03-02 15:00:00,15,1028.7,0.4,67,9,15000,22.224,,,280,,,,,,,,,,,wg-a,,,,AAXX 02154 07255 12565 72812 10150 20090 30088 40287 53004 60006 875// 91500=
07255,1997-03-02 18:00:00,13,1030.2,1.3,82,10,15000,11.112,,,250,4.1,15.4,,,,,,,,,wg-a,,,,AAXX 02184 07255 12665 82506 10130 20100 30101 40302 53013 60006 86502 91800 333 10154 20041=
07255,1997-03-02 21:00:00,12,1031.4,1.1,82,9,15000,14.816,,,260,,,,,,,,,,,wg-a,,,,AAXX 02214 07255 12/65 32608 10120 20090 30112 40314 51011 60006 80002 92100=
07255,1997-03-03 00:00:00,11,1032.1,0.6,87,9,15000,14.816,,,250,,,,,,,,,,,wg-a,,,,AAXX 03004 07255 12/65 52508 10110 20090 30118 40321 50006 60006 83032 90000=
07255,1997-03-03 03:00:00,11,1032.6,0.5,87,9,10000,7.408,,,270,,,,,,,,,,,wg-a,,,,AAXX 03034 07255 12/60 72704 10110 20090 30123 40326 51005 60006 8707/ 90300=
07255,1997-03-03 06:00:00,11,1033.6,1,94,10,10000,7.408,,,270,9.2,13,,,,,,,,,wg-a,,,,AAXX 03064 07255 12360 82704 10110 20100 30133 40336 51010 60006 876// 90600 333 10130 20092=
07255,1997-03-03 09:00:00,12,1034.7,1.2,94,11,7000,11.112,,,240,,,,,,,,,,,wg-a,,,,AAXX 03094 07255 12257 72406 10120 20110 30145 40347 52012 60006 875// 90900=
07255,1997-03-03 12:00:00,15,1034.2,-0.3,72,10,12000,11.112,,,270,,,,,,,,,,,wg-a,,,,AAXX 03124 07255 12562 72706 10150 20100 30142 40342 58003 60006 86802 91200=
07255,1997-03-03 15:00:00,17,1032.4,-1.7,68,11,20000,11.112,,,190,,,,,,,,,,,wg-a,,,,AAXX 03154 07255 12570 71906 10170 20110 30125 40324 56017 60006 83202 91500=
07255,1997-03-03 18:00:00,14,1032.3,-0.2,72,9,18000,0,,,0,10.6,16.8,,,,,,,,,wg-a,,,,AAXX 03184 07255 12/68 60000 10140 20090 30123 40323 55002 60006 82052 91800 333 10168 20106=
07255,1997-03-03 21:00:00,11,1032.3,-0.3,87,9,15000,7.408,,,160,,,,,,,,,,,wg-a,,,,AAXX 03214 07255 12/65 71604 10110 20090 30120 40323 58003 60006 82032 92100=
07255,1997-03-04 00:00:00,9,1031.1,-1.3,93,8,15000,11.112,,,140,,,,,,,,,,,wg-a,,,,AAXX 04004 07255 12/65 61406 10090 20080 30107 40311 56013 60006 82032 90000=
07255,1997-03-04 03:00:00,8,1030.4,-0.7,93,7,15000,11.112,,,120,,,,,,,,,,,wg-a,,,,AAXX 04034 07255 12/65 61206 10080 20070 30100 40304 58007 60006 81032 90300=
07255,1997-03-04 06:00:00,9,1030.2,-0.2,87,7,12000,11.112,,,100,8,14,,,,,,,,,wg-a,,,,AAXX 04064 07255 12/62 71006 10090 20070 30098 40302 56002 60006 85032 90600 333 10140 20080=
07255,1997-03-04 09:00:00,12,1029.8,-0.2,82,9,12000,14.816,,,110,,,,,,,,,,,wg-a,,,,AAXX 04094 07255 12/62 71108 10120 20090 30096 40298 57002 60006 84032 90900=
07255,1997-03-04 12:00:00,21,1027.8,-1.3,38,6,15000,11.112,,,200,,,,,,,,,,,wg-a,,,,AAXX 04124 07255 12/65 72006 10210 20060 30083 40278 58013 60006 81032 91200=
07255,1997-03-04 15:00:00,20,1026.3,-1.5,46,8,18000,18.52,,,300,,,,,,,,,,,wg-a,,,,AAXX 04154 07255 12/68 73010 10200 20080 30068 40263 55015 60006 83032 91500=
07255,1997-03-04 18:00:00,15,1026.6,0,67,9,15000,3.704,,,300,8,23.1,,,,,,,,,wg-a,,,,AAXX 04184 07255 12765 83002 10150 20090 30068 40266 50000 60006 83537 91800 333 10231 20080=
07255,1997-03-04 21:00:00,12,1027.7,0.8,82,9,12000,14.816,,,140,,,,,,,,,,1,wg-a,,,,AAXX 04214 07255 02662 /1408 10120 20090 30076 40277 51008 61000 70162 83530 92100 333 ////=
07255,1997-03-05 00:00:00,11,1028.5,0.7,94,10,9000,14.816,,,280,,,,0,,,,,,3,wg-a,,,,AAXX 05004 07255 02559 82808 10110 20100 30083 40285 51007 60006 70362 875// 90000 333 60007=
07255,1997-03-05 03:00:00,9,1029.4,0.7,81,6,12000,14.816,,,280,,,,0,,,,,,1,wg-a,,,,AAXX 05034 07255 12662 72808 10090 20060 30090 40294 50007 60007 70162 875// 90300=
07255,1997-03-05 06:00:00,8,1030.2,0.7,81,5,12000,14.816,,,260,7.4,15.4,,,,,,,,3,wg-a,,,,AAXX 05064 07255 02662 72608 10080 20050 30097 40302 51007 60006 70362 875// 90600 333 10154 20074 60004=
07255,1997-03-05 09:00:00,8,1031.3,1.2,81,5,25000,14.816,,,270,,,,,,,,,,,wg-a,,,,AAXX 05094 07255 12575 72708 10080 20050 30109 40313 51012 60006 878// 90900=
07255,1997-03-05 12:00:00,10,1031.7,0.5,66,4,500,14.816,,,290,,,,,,,,,,,wg-a,,,,AAXX 05124 07255 12500 72908 10100 20040 30114 40317 52005 60006 878// 91200=
07255,1997-03-05 15:00:00,11,1031,-0.7,58,3,500,22.224,,,270,,,,,,,,,,,wg-a,,,,AAXX 05154 07255 12600 72712 10110 20030 30107 40310 56007 60006 878// 91500=
07255,1997-03-05 18:00:00,9,1031.3,0.2,66,3,25000,14.816,,,280,7.5,11.7,,,,,,,,,wg-a,,,,AAXX 05184 07255 12675 72808 10090 20030 30109 40313 52002 60006 875// 91800 333 10117 20075=
07255,1997-03-06 00:00:00,8,1030.9,-0.6,87,6,15000,14.816,,,240,,,,,,,,,,3,wg-a,,,,AAXX 06004 07255 02565 82408 10080 20060 30105 40309 58006 61000 70361 875// 90000 333 ////=
07255,1997-03-06 03:00:00,8,1031,0,93,7,4000,7.408,,,260,,,,2,,,,,,61,wg-a,,,,AAXX 06034 07255 12340 82604 10080 20070 30105 40310 50000 60027 76162 885// 90300=
07255,1997-03-06 06:00:00,9,1031.1,0.2,93,8,3000,11.112,,,280,7.7,9.4,,,,,,,,50,wg-a,,,,AAXX 06064 07255 02230 82806 10090 20080 30107 40311 53002 61000 75065 877// 90600 333 10094 20077 6003=
07255,1997-03-06 09:00:00,9,1031.9,0.8,100,9,2000,7.408,,,290,,,,1,,,,,,10,wg-a,,,,AAXX 06094 07255 12120 82904 10090 20090 30115 40319 53008 60017 71052 887// 90900=
07255,1997-03-06 12:00:00,11,1032.5,0.7,94,10,8000,3.704,,,340,,,,,,,,,,1,wg-a,,,,AAXX 06124 07255 02358 83402 10110 20100 30122 40325 50007 60016 70152 877// 91200 333 61000=
07255,1997-03-06 15:00:00,14,1031.1,-1.1,82,11,20000,3.704,,,310,,,,,,,,,,,wg-a,,,,AAXX 06154 07255 12570 /3102 10140 20110 30111 40311 56011 60006 86800 91500=
07255,1997-03-06 18:00:00,12,1031.7,0.4,88,10,20000,3.704,,,50,8.6,14.3,,,,,,,,,wg-a,,,,AAXX 06184 07255 12570 70502 10120 20100 30115 40317 53004 60006 878// 91800 333 10143 20086=
07255,1997-03-07 00:00:00,10,1032.1,-0.5,93,9,10000,7.408,,,150,,,,,,,,,,,wg-a,,,,AAXX 07004 07255 12560 71504 10100 20090 30118 40321 58005 60006 875// 90000=
07255,1997-03-07 03:00:00,10,1031.5,-0.7,93,9,10000,3.704,,,100,,,,,,,,,,,wg-a,,,,AAXX 07034 07255 12660 71002 10100 20090 30111 40315 58007 60006 875// 90300=
07255,1997-03-07 06:00:00,9,1031.5,-0,93,8,15000,7.408,,,90,9,12.2,,,,,1,,,,wg-a,,,,AAXX 07064 07255 02665 70904 10090 20080 30111 40315 55000 60006 875// 90600 333 10122 20090 60014=
07255,1997-03-07 09:00:00,12,1031.5,0.2,76,8,20000,11.112,,,120,,,,,,,,,,,wg-a,,,,AAXX 07094 07255 12/70 21206 10120 20080 30113 40315 50002 60006 80001 90900=
07255,1997-03-07 12:00:00,14,1030.3,-1,55,5,20000,14.816,,,80,,,,,,,,,,,wg-a,,,,AAXX 07124 07255 12570 /0808 10140 20050 30103 40303 58010 60006 81101 91200=
07255,1997-03-07 15:00:00,15,1028.8,-1.4,51,5,25000,11.112,,,110,,,,,,,,,,,wg-a,,,,AAXX 07154 07255 12/75 21106 10150 20050 30089 40288 56014 60006 80001 91500=
07255,1997-03-07 18:00:00,13,1029.1,0.1,54,4,20000,7.408,,,70,8.7,15.7,,,,,,,,,wg-a,,,,AAXX 07184 07255 12/70 10704 10130 20040 30090 40291 53001 60006 80001 91800 333 10157 20087=
07255,1997-03-07 21:00:00,9,1030.1,0.7,76,5,15000,11.112,,,80,,,,,,,,,,,wg-a,,,,AAXX 07214 07255 12/65 10806 10090 20050 30097 40301 51007 60006 80001 92100=
07255,1997-03-08 00:00:00,7,1030.7,0.5,81,4,15000,7.408,,,70,,,,,,,,,,,wg-a,,,,AAXX 08004 07255 12/65 10704 10070 20040 30102 40307 53005 60006 80001 90000=
07255,1997-03-08 03:00:00,3,1031.2,0.2,100,3,12000,11.112,,,130,,,,,,,,,,,wg-a,,,,AAXX 08034 07255 12/62 11306 10030 20030 30104 40312 50002 60006 80001 90300=
07255,1997-03-08 06:00:00,3,1032.6,1.3,93,2,8000,7.408,,,110,2.2,13.4,,,,,,,,,wg-a,,,,AAXX 08064 07255 12/58 /1104 10030 20020 30117 40326 53013 60006 80001 90600 333 10134 20022=
07255,1997-03-08 09:00:00,9,1033.6,1.4,76,5,8000,3.704,,,90,,,,,,,,,,,wg-a,,,,AAXX 08094 07255 12/58 00902 10090 20050 30131 40336 51014 60006 80000 90900=
07255,1997-03-08 12:00:00,15,1032.7,-0.4,55,6,15000,7.408,,,120,,,,,,,,,,,wg-a,,,,AAXX 08124 07255 12/65 01204 10150 20060 30127 40327 57004 60006 80000 91200=
07255,1997-03-08 15:00:00,16,1031.4,-1.2,51,6,20000,14.816,,,70,,,,,,,,,,,wg-a,,,,AAXX 08154 07255 12/70 00708 10160 20060 30115 40314 56012 60006 80000 91500=
07255,1997-03-08 18:00:00,13,1032,0.4,58,5,18000,7.408,,,40,2.5,16.6,,,,,,,,,wg-a,,,,AAXX 08184 07255 12/68 10404 10130 20050 30119 40320 53004 60006 80002 91800 333 10166 20025=
07255,1997-03-08 21:00:00,10,1032.5,0.3,76,6,15000,14.816,,,60,,,,,,,,,,,wg-a,,,,AAXX 08214 07255 12/65 10608 10100 20060 30122 40325 50003 60006 80002 92100=
07255,1997-03-09 00:00:00,8,1032.2,-0.5,87,6,12000,14.816,,,90,,,,,,,,,,,wg-a,,,,AAXX 09004 07255 12/62 20908 10080 20060 30117 40322 57005 60006 80002 90000=
07255,1997-03-09 03:00:00,4,1032.1,-0.4,93,3,9000,7.408,,,120,,,,,,,,,,,wg-a,,,,AAXX 09034 07255 12/59 21204 10040 20030 30113 40321 56004 60006 80002 90300=
07255,1997-03-09 06:00:00,4,1032.1,-0,93,3,4000,7.408,,,90,3.5,13.3,,,,,,,,10,wg-a,,,,AAXX 09064 07255 12/40 00904 10040 20030 30113 40321 55000 60006 71000 80000 90600 333 10133 20035=
07255,1997-03-09 09:00:00,8,1032.4,0.6,87,6,4000,14.816,,,90,,,,0,,,,,,10,wg-a,,,,AAXX 09094 07255 12/40 /0908 10080 20060 30119 40324 52006 60007 71000 80001 90900=
07255,1997-03-09 12:00:00,15,1031.1,-0.8,59,7,10000,11.112,,,100,,,,,,,,,,,wg-a,,,,AAXX 09124 07255 12/60 21006 10150 20070 30111 40311 58008 60006 80001 91200=
07255,1997-03-09 15:00:00,17,1029.8,-1.1,48,6,12000,7.408,,,90,,,,,,,,,,,wg-a,,,,AAXX 09154 07255 12/62 00904 10170 20060 30100 40298 56011 60006 80000 91500=
07255,1997-03-09 18:00:00,14,1030,-0,58,6,12000,3.704,,,120,2.7,17.6,,,,,,,,,wg-a,,,,AAXX 09184 07255 12/62 11202 10140 20060 30100 40300 55000 60006 80001 91800 333 10176 20027=
07255,1997-03-09 21:00:00,10,1030.8,0.5,76,6,10000,7.408,,,90,,,,,,,,,,,wg-a,,,,AAXX 09214 07255 12/60 10904 10100 20060 30105 40308 52005 60006 80001 92100=
07255,1997-03-10 00:00:00,6,1031.4,0.3,93,5,10000,7.408,,,110,,,,,,,,,,,wg-a,,,,AAXX 10004 07255 12/60 01104 10060 20050 30108 40314 53003 60006 80000 90000=
07255,1997-03-10 03:00:00,5,1031.4,-0.1,93,4,500,11.112,,,80,,,,,,,,,,,wg-a,,,,AAXX 10034 07255 12/00 00806 10050 20040 30107 40314 58001 60006 80000 90300=
07255,1997-03-10 06:00:00,3,1032.9,1.3,100,3,3500,7.408,,,100,3.1,14,,,,,,,,11,wg-a,,,,AAXX 10064 07255 02/35 01004 10030 20030 30120 40329 51013 60006 71100 80000 90600 333 10140 20031 60004=
07255,1997-03-10 09:00:00,10,1033.8,1.4,82,7,7000,3.704,,,160,,,,,,,,,,,wg-a,,,,AAXX 10094 07255 12/57 01602 10100 20070 30134 40338 51014 60006 80000 90900=
07255,1997-03-10 12:00:00,16,1032.9,-0.4,51,6,15000,3.704,,,40,,,,,,,,,,,wg-a,,,,AAXX 10124 07255 12/65 00402 10160 20060 30130 40329 58004 60006 80000 91200=
07255,1997-03-10 15:00:00,20,1031.3,-1.4,37,5,15000,3.704,,,130,,,,,,,,,,,wg-a,,,,AAXX 10154 07255 12/65 01302 10200 20050 30116 40313 56014 60006 80000 91500=
07255,1997-03-10 18:00:00,16,1031.8,0.3,51,6,12000,7.408,,,100,3.2,19.6,,,,,,,,,wg-a,,,,AAXX 10184 07255 12/62 01004 10160 20060 30119 40318 53003 60006 80000 91800 333 10196 20032=
07255,1997-03-10 21:00:00,11,1032.5,0.3,66,5,10000,11.112,,,80,,,,,,,,,,,wg-a,,,,AAXX 10214 07255 12/60 00806 10110 20050 30122 40325 52003 60006 80000 92100=
07255,1997-03-11 00:00:00,9,1032.2,-0.4,71,4,10000,14.816,,,90,,,,,,,,,,,wg-a,,,,AAXX 11004 07255 12/60 00908 10090 20040 30118 40322 57004 60006 80000 90000=
07255,1997-03-11 06:00:00,2,1032.6,0.3,93,1,6000,7.408,,,130,2.2,15.9,,,,,,,,,wg-a,,,,AAXX 11064 07255 12/56 01304 10020 20010 30117 40326 52003 60006 80000 90600 333 10159 20022=
07255,1997-03-11 09:00:00,10,1032.5,0.5,71,5,9000,11.112,,,90,,,,,,,,,,,wg-a,,,,AAXX 11094 07255 12/59 00906 10100 20050 30122 40325 53005 60006 80000 90900=
07255,1997-03-11 12:00:00,18,1030.9,-1.1,49,7,12000,11.112,,,100,,,,,,,,,,,wg-a,,,,AAXX 11124 07255 12/62 01006 10180 20070 30111 40309 58011 60006 80000 91200=
07255,1997-03-11 15:00:00,20,1029.1,-1.6,43,7,15000,11.112,,,70,,,,,,,,,,,wg-a,,,,AAXX 11154 07255 12/65 00706 10200 20070 30095 40291 56016 60006 80000 91500=
07255,1997-03-11 18:00:00,17,1029.2,-0.1,48,6,15000,7.408,,,40,1.9,20.2,,,,,,,,,wg-a,,,,AAXX 11184 07255 12/65 00404 10170 20060 30094 40292 55001 60006 80000 91800 333 10202 20019=
07255,1997-03-12 00:00:00,9,1030.2,0,81,6,10000,3.704,,,120,,,,,,,,,,,wg-a,,,,AAXX 12004 07255 12/60 01202 10090 20060 30098 40302 50000 60006 80000 90000=
07255,1997-03-12 03:00:00,5,1030.1,-0.4,93,4,500,11.112,,,120,,,,,,,,,,,wg-a,,,,AAXX 12034 07255 12/00 01206 10050 20040 30094 40301 58004 60006 80000 90300=
07255,1997-03-12 06:00:00,4,1030.8,0.6,93,3,4000,11.112,,,140,3.8,16.6,,,,,,,,10,wg-a,,,,AAXX 12064 07255 12/40 01406 10040 20030 30100 40308 51006 60006 71000 80000 90600 333 10166 20038=
07255,1997-03-12 09:00:00,12,1031.9,1.7,67,6,8000,11.112,,,260,,,,,,,,,,,wg-a,,,,AAXX 12094 07255 12/58 32606 10120 20060 30117 40319 51017 60006 80001 90900=
07255,1997-03-12 12:00:00,18,1031.3,-0.2,49,7,10000,14.816,,,290,,,,,,,,,,,wg-a,,,,AAXX 12124 07255 12/60 12908 10180 20070 30115 40313 58002 60006 80001 91200=
07255,1997-03-12 15:00:00,19,1029.9,-1.2,49,8,10000,14.816,,,260,,,,,,,,,,,wg-a,,,,AAXX 12154 07255 12/60 02608 10190 20080 30103 40299 56012 60006 80000 91500=
07255,1997-03-12 18:00:00,15,1030.8,0.5,63,8,9000,7.408,,,260,3,19.5,,,,,,,,,wg-a,,,,AAXX 12184 07255 12/59 /2604 10150 20080 30108 40308 53005 60006 80001 91800 333 10195 20030=
07255,1997-03-12 21:00:00,12,1031.7,0.7,67,6,8000,7.408,,,290,,,,,,,,,,,wg-a,,,,AAXX 12214 07255 12/58 /2904 10120 20060 30115 40317 53007 60006 80001 92100=
07255,1997-03-13 00:00:00,9,1031.9,-0,81,6,7000,11.112,,,310,,,,,,,,,,,wg-a,,,,AAXX 13004 07255 12/57 /3106 10090 20060 30115 40319 55000 60006 80001 90000=
07255,1997-03-13 03:00:00,6,1031.8,-0.3,93,5,500,7.408,,,330,,,,,,,,,,,wg-a,,,,AAXX 13034 07255 12/00 /3304 10060 20050 30112 40318 58003 60006 80001 90300=
07255,1997-03-13 06:00:00,4,1032,-0,100,4,100,7.408,,,340,4,14.5,,,,,,,,44,wg-a,,,,AAXX 13064 07255 12/01 03404 10040 20040 30112 40320 55000 60006 74440 80000 90600 333 10145 20040=
07255,1997-03-13 12:00:00,9,1032,-0.3,87,7,6000,7.408,,,20,,,,,,,,,,1,wg-a,,,,AAXX 13124 07255 12356 80204 10090 20070 30116 40320 58003 60006 70141 886// 91200=
07255,1997-03-13 18:00:00,8,1029.4,-1.1,87,6,4500,7.408,,,310,3.2,10.9,,,,,,,,10,wg-a,,,,AAXX 13184 07255 12/45 03104 10080 20060 30090 40294 56011 60006 71011 80000 91800 333 10109 20032=
07255,1997-03-13 21:00:00,6,1029.2,-0.4,93,5,3000,7.408,,,310,,,,,,,,,,10,wg-a,,,,AAXX 13214 07255 12/30 03104 10060 20050 30086 40292 58004 60006 71000 80000 92100=
07255,1997-03-14 00:00:00,4,1028.4,-1,93,3,200,3.704,,,330,,,,,,,,,,44,wg-a,,,,AAXX 14004 07255 12/02 03302 10040 20030 30076 40284 58010 60006 74440 80000 90000=
07255,1997-03-14 06:00:00,4,1028.1,0.2,100,4,200,0,,,0,1.8,8.3,,,,,1,,,45,wg-a,,,,AAXX 14064 07255 02/02 90000 10040 20040 30074 40281 53002 60006 74544 89/// 90600 333 10083 20018 60014=
07255,1997-03-14 09:00:00,6,1028.4,0.5,100,6,3000,11.112,,,280,,,,,,,,,,10,wg-a,,,,AAXX 14094 07255 02230 82806 10060 20060 30079 40284 51005 61000 71042 886// 90900 333 ////=
07255,1997-03-14 12:00:00,9,1027.6,-0.7,87,7,4500,14.816,,,280,,,,,,,,,,10,wg-a,,,,AAXX 14124 07255 02345 82808 10090 20070 30072 40276 56007 61000 71042 877// 91200 333 ////=
07255,1997-03-14 15:00:00,9,1026.7,-0.8,87,7,4500,18.52,,,280,,,,,,,,,,10,wg-a,,,,AAXX 14154 07255 12445 82810 10090 20070 30064 40267 57008 60006 71022 885// 91500=
07255,1997-03-14 18:00:00,10,1026.7,-0,87,8,4500,11.112,,,260,4.4,9.9,,,,,,,,10,wg-a,,,,AAXX 14184 07255 12445 72606 10100 20080 30064 40267 55000 60006 71011 875// 91800 333 10099 20044=
07255,1997-03-14 21:00:00,8,1027.4,0.6,93,7,4000,7.408,,,260,,,,,,,,,,10,wg-a,,,,AAXX 14214 07255 12/40 02604 10080 20070 30070 40274 52006 60006 71011 80000 92100=
07255,1997-03-15 00:00:00,6,1028.2,0.7,100,6,2000,7.408,,,310,,,,,,,,,,10,wg-a,,,,AAXX 15004 07255 12/20 03104 10060 20060 30077 40282 51007 60006 71000 80000 90000=
07255,1997-03-15 06:00:00,2,1029.4,0.9,100,2,3500,7.408,,,260,1.8,9.5,,,,,,,,10,wg-a,,,,AAXX 15064 07255 02/35 /2604 10020 20020 30085 40294 53009 60006 71011 86030 90600 333 10095 20018 60004=
07255,1997-03-15 09:00:00,6,1029.9,0.8,100,6,3500,7.408,,,240,,,,,,,,,,10,wg-a,,,,AAXX 15094 07255 12235 72404 10060 20060 30093 40299 51008 60006 71022 876// 90900=
07255,1997-03-15 12:00:00,10,1029.5,-0.1,93,9,6000,7.408,,,270,,,,,,,,,,50,wg-a,,,,AAXX 15124 07255 02356 82704 10100 20090 30092 40295 58001 61000 75051 875// 91200 333 6100=
07255,1997-03-15 15:00:00,12,1028.6,-0.7,88,10,10000,11.112,,,300,,,,,,,,,,50,wg-a,,,,AAXX 15154 07255 02360 83006 10120 20100 30085 40286 56007 61000 75052 875// 91500 333 ////=
07255,1997-03-15 18:00:00,11,1028.8,0.1,94,10,500,3.704,,,320,2,11.9,,,,,,,,20,wg-a,,,,AAXX 15184 07255 02300 83202 10110 20100 30086 40288 53001 61000 72052 875// 91800 333 10119 20020 6000=
07255,1997-03-15 21:00:00,10,1030.1,1.2,100,10,4000,3.704,,,320,,,,,,,,,,10,wg-a,,,,AAXX 15214 07255 12340 83202 10100 20100 30098 40301 51012 60006 71022 877// 92100=
07255,1997-03-16 00:00:00,9,1030.1,0,100,9,3000,7.408,,,310,,,,,,,,,,10,wg-a,,,,AAXX 16004 07255 12630 73104 10090 20090 30098 40301 50000 60006 71022 875// 90000=
07255,1997-03-16 03:00:00,8,1029.9,-0.3,93,7,4000,7.408,,,310,,,,,,,,,,10,wg-a,,,,AAXX 16034 07255 12640 73104 10080 20070 30095 40299 57003 60006 71022 875// 90300=
07255,1997-03-16 06:00:00,8,1030.8,0.8,93,7,8000,7.408,,,310,7.9,10.7,,,,,,,,,wg-a,,,,AAXX 16064 07255 02658 83104 10080 20070 30103 40308 51008 60006 885// 90600 333 10107 20079 60004=
07255,1997-03-16 12:00:00,13,1030.6,-0.7,72,8,15000,3.704,,,230,,,,,,,,,,,wg-a,,,,AAXX 16124 07255 12565 72302 10130 20080 30105 40306 58007 60006 878// 91200=
07255,1997-03-16 18:00:00,12,1029.2,-0.2,71,7,25000,7.408,,,200,7.8,14.9,,,,,,,,,wg-a,,,,AAXX 16184 07255 12675 32004 10120 20070 30090 40292 55002 60006 82501 91800 333 10149 20078=
07255,1997-03-16 21:00:00,8,1029.3,-0.1,87,6,18000,3.704,,,190,,,,,,,,,,,wg-a,,,,AAXX 16214 07255 12/68 31902 10080 20060 30089 40293 58001 60006 80001 92100=
07255,1997-03-17 00:00:00,6,1029.5,-0,93,5,10000,3.704,,,90,,,,,,,,,,,wg-a,,,,AAXX 17004 07255 12/60 30902 10060 20050 30089 40295 55000 60006 80001 90000=
07255,1997-03-17 03:00:00,4,1029,-0.6,93,3,10000,3.704,,,130,,,,,,,,,,,wg-a,,,,AAXX 17034 07255 12/60 21302 10040 20030 30083 40290 58006 60006 80001 90300=
07255,1997-03-17 06:00:00,5,1029.4,0.4,100,5,3500,7.408,,,90,2.6,11.5,,,,,,,,10,wg-a,,,,AAXX 17064 07255 02235 70904 10050 20050 30087 40294 51004 60006 71041 875// 90600 333 10115 20026 60004=
07255,1997-03-17 09:00:00,9,1029.5,0.5,93,8,10000,7.408,,,120,,,,,,,,,,,wg-a,,,,AAXX 17094 07255 12660 71204 10090 20080 30092 40295 50005 60006 875// 90900=
07255,1997-03-17 12:00:00,13,1028.5,-0.7,72,8,20000,7.408,,,80,,,,,,,,,,,wg-a,,,,AAXX 17124 07255 12670 40804 10130 20080 30085 40285 58007 60006 84501 91200=
07255,1997-03-17 15:00:00,16,1026.7,-1.6,63,9,20000,7.408,,,80,,,,,,,,,,,wg-a,,,,AAXX 17154 07255 12/70 10804 10160 20090 30069 40267 56016 60006 80001 91500=
07255,1997-03-17 18:00:00,14,1025.8,-1,72,9,18000,7.408,,,110,4.6,16.5,,,,,,,,,wg-a,,,,AAXX 17184 07255 12/68 31104 10140 20090 30059 40258 56010 60006 80001 91800 333 10165 20046=
07255,1997-03-17 21:00:00,9,1025.4,-0.8,87,7,15000,11.112,,,140,,,,,,,,,,,wg-a,,,,AAXX 17214 07255 12/65 01406 10090 20070 30051 40254 57008 60006 80000 92100=
07255,1997-03-18 00:00:00,6,1023.9,-1.6,100,6,8000,11.112,,,130,,,,,,,,,,,wg-a,,,,AAXX 18004 07255 12/58 01306 10060 20060 30035 40239 58016 60006 80000 90000=
07255,1997-03-18 03:00:00,5,1021.9,-2.1,100,5,7000,11.112,,,100,,,,,,,,,,,wg-a,,,,AAXX 18034 07255 12/57 01006 10050 20050 30014 40219 58021 60006 80000 90300=
07255,1997-03-18 06:00:00,3,1021,-1.1,93,2,100,3.704,,,170,2.5,13.7,,,,,,,,44,wg-a,,,,AAXX 18064 07255 12001 41702 10030 20020 30003 40210 56011 60006 74440 84600 90600 333 10137 20025=
07255,1997-03-18 12:00:00,9,1020.3,-0.4,87,7,12000,18.52,,,280,,,,,,,,,,1,wg-a,,,,AAXX 18124 07255 12462 72810 10090 20070 30001 40203 58004 60006 70142 875// 91200=
07255,1997-03-18 15:00:00,9,1018.8,-1.5,87,7,10000,18.52,,,270,,,,,,,,,,,wg-a,,,,AAXX 18154 07255 12360 72710 10090 20070 39986 40188 58015 60006 875// 91500=
07255,1997-03-18 18:00:00,9,1016.6,-2.1,87,7,8000,18.52,,,240,2.2,10.3,,,,,,,,,wg-a,,,,AAXX 18184 07255 12558 72410 10090 20070 39965 40166 58021 60006 875// 91800 333 10103 20022=
07255,1997-03-18 21:00:00,9,1015.6,-0.9,100,9,500,29.632,,50.004,280,,,,1,,,,,,63,wg-a,,,,AAXX 18214 07255 12400 72816 10090 20090 39956 40156 56009 60017 76361 875// 92100 333 91027=
07255,1997-03-19 00:00:00,7,1016.2,0.3,87,5,10000,14.816,,,300,,,,1,,,,,,1,wg-a,,,,AAXX 19004 07255 02660 /3008 10070 20050 39959 40162 50003 60026 70161 81500 90000 333 60017=
07255,1997-03-19 06:00:00,6,1014.5,-0.5,87,4,18000,22.224,,,280,5.2,9.9,,,,,2,,,,wg-a,,,,AAXX 19064 07255 02468 72812 10060 20040 39942 40145 55005 60006 878// 90600 333 10099 20052 60024=
07255,1997-03-19 09:00:00,7,1014.6,0.2,87,5,20000,22.224,,,290,,,,,,,,,,,wg-a,,,,AAXX 19094 07255 12470 72912 10070 20050 39944 40146 50002 60006 878// 90900=
07255,1997-03-19 12:00:00,9,1013.7,-0.7,81,6,28000,31.484,,,300,,,,,,,,,,3,wg-a,,,,AAXX 19124 07255 02478 73017 10090 20060 39937 40137 56007 61000 70386 878// 91200 333 6100=
07255,1997-03-19 15:00:00,10,1013.7,-0,66,4,15000,29.632,,48.152,310,,,,,,,,,,15,wg-a,,,,AAXX 19154 07255 12565 73116 10100 20040 39937 40137 55000 60006 71522 878// 91500 333 91026=
07255,1997-03-19 18:00:00,8,1015.8,1.9,81,5,18000,18.52,,,310,5.5,10.4,,1,,,,,,15,wg-a,,,,AAXX 19184 07255 02468 /3110 10080 20050 39956 40158 51019 60006 71586 86800 91800 333 10104 20055 60017=
07255,1997-03-19 21:00:00,6,1018.4,2.5,93,5,15000,11.112,,,320,,,,,,,,,,,wg-a,,,,AAXX 19214 07255 12765 43206 10060 20050 39981 40184 51025 60006 84500 92100=
07255,1997-03-20 00:00:00,4,1019.8,1.2,100,4,12000,7.408,,,330,,,,,,,,,,,wg-a,,,,AAXX 20004 07255 12762 13304 10040 20040 39993 40198 51012 60006 81500 90000=
07255,1997-03-20 03:00:00,2,1020.9,0.9,100,2,8000,7.408,,,260,,,,,,,,,,,wg-a,,,,AAXX 20034 07255 12758 /2604 10020 20020 30002 40209 51009 60006 81500 90300=
07255,1997-03-20 06:00:00,2,1021.5,0.6,100,2,4500,3.704,,,240,1.5,8.1,,,,,1,,,10,wg-a,,,,AAXX 20064 07255 02745 72402 10020 20020 30008 40215 53006 60006 71011 875// 90600 333 10081 20015 60014=
07255,1997-03-20 09:00:00,5,1022.5,1.2,100,5,4500,3.704,,,270,,,,,,,,,,10,wg-a,,,,AAXX 20094 07255 12745 72702 10050 20050 30020 40225 52012 60006 71022 875// 90900=
07255,1997-03-20 12:00:00,10,1022.1,-0.1,71,5,6000,7.408,,,330,,,,,,,,,,2,wg-a,,,,AAXX 20124 07255 02556 /3304 10100 20050 30019 40221 58001 61000 70262 85230 91200 333 6100=
07255,1997-03-20 15:00:00,12,1021,-0.9,54,3,15000,3.704,,,40,,,,,,,,,,,wg-a,,,,AAXX 20154 07255 12565 70402 10120 20030 30010 40210 56009 60006 8683/ 91500=
07255,1997-03-20 18:00:00,10,1021.2,-0,66,4,12000,3.704,,,260,2.4,12.4,,,,,,,,,wg-a,,,,AAXX 20184 07255 12562 72602 10100 20040 30010 40212 55000 60006 86801 91800 333 10124 20024=
07255,1997-03-20 21:00:00,7,1022.1,0.7,81,4,10000,3.704,,,190,,,,,,,,,,,wg-a,,,,AAXX 20214 07255 12660 41902 10070 20040 30017 40221 51007 60006 84500 92100=
07255,1997-03-21 00:00:00,5,1022.5,0.3,93,4,10000,7.408,,,110,,,,,,,,,,,wg-a,,,,AAXX 21004 07255 12660 71104 10050 20040 30020 40225 52003 60006 875// 90000=
07255,1997-03-21 03:00:00,3,1022.2,-0.5,93,2,8000,7.408,,,110,,,,,,,,,,,wg-a,,,,AAXX 21034 07255 12/58 01104 10030 20020 30015 40222 58005 60006 80000 90300=
07255,1997-03-21 06:00:00,1,1023,0.7,93,0,4000,3.704,,,80,1,9.7,,,,,,,,10,wg-a,,,,AAXX 21064 07255 02740 /0802 10010 20000 30022 40230 53007 60006 71011 81501 90600 333 10097 20010 60004=
07255,1997-03-21 09:00:00,8,1023.2,0.7,76,4,6000,7.408,,,190,,,,,,,,,,,wg-a,,,,AAXX 21094 07255 12756 /1904 10080 20040 30029 40232 51007 60006 86502 90900=
07255,1997-03-21 12:00:00,13,1022.6,-0.3,58,5,15000,3.704,,,280,,,,,,,,,,,wg-a,,,,AAXX 21124 07255 12665 52802 10130 20050 30026 40226 58003 60006 82801 91200=
07255,1997-03-21 15:00:00,15,1021.7,-0.7,41,2,500,14.816,,,60,,,,,,,,,,,wg-a,,,,AAXX 21154 07255 12600 70608 10150 20020 30019 40217 56007 60006 83802 91500=
07255,1997-03-21 18:00:00,11,1023.3,1.3,71,6,12000,18.52,,,60,0.8,15.4,,,,,,,,,wg-a,,,,AAXX 21184 07255 12762 70610 10110 20060 30032 40233 53013 60006 875// 91800 333 10154 20008=
07255,1997-03-21 21:00:00,8,1024.7,1.2,76,4,10000,14.816,,,70,,,,,,,,,,,wg-a,,,,AAXX 21214 07255 12/60 60708 10080 20040 30044 40247 51012 60006 80001 92100=
07255,1997-03-22 00:00:00,6,1025.5,0.6,75,2,8000,18.52,,,70,,,,,,,,,,,wg-a,,,,AAXX 22004 07255 12/58 00710 10060 20020 30050 40255 52006 60006 80000 90000=
07255,1997-03-22 06:00:00,2,1025.9,0.2,87,0,9000,14.816,,,70,2.2,11.2,,,,,,,,,wg-a,,,,AAXX 22064 07255 02/59 /0708 10020 20000 30051 40259 51002 60006 80001 90600 333 10112 20022 60004=
07255,1997-03-22 09:00:00,7,1026.6,1,66,1,15000,14.816,,,80,,,,,,,,,,,wg-a,,,,AAXX 22094 07255 12/65 40808 10070 20010 30061 40266 51010 60006 80001 90900=
07255,1997-03-22 12:00:00,10,1025.5,-0.8,50,0,25000,22.224,,,70,,,,,,,,,,,wg-a,,,,AAXX 22124 07255 12/75 60712 10100 20000 30053 40255 58008 60006 80001 91200=
07255,1997-03-22 15:00:00,12,1023.7,-1.6,40,-1,20000,18.52,,,100,,,,,,,,,,,wg-a,,,,AAXX 22154 07255 12/70 31010 10120 21010 30037 40237 58016 60006 80001 91500=
07255,1997-03-22 18:00:00,11,1023.2,-0.6,47,0,20000,11.112,,,70,2.2,12.4,,,,,,,,,wg-a,,,,AAXX 22184 07255 12/70 00706 10110 20000 30031 40232 57006 60006 80000 91800 333 10124 20022=
07255,1997-03-22 21:00:00,7,1023.3,-0.2,61,0,15000,11.112,,,80,,,,,,,,,,,wg-a,,,,AAXX 22214 07255 12/65 00806 10070 20000 30029 40233 57002 60006 80000 92100=
07255,1997-03-23 00:00:00,3,1022.4,-1.2,81,0,12000,7.408,,,110,,,,,,,,,,,wg-a,,,,AAXX 23004 07255 12/62 01104 10030 20000 30017 40224 58012 60006 80000 90000=
07255,1997-03-23 03:00:00,0,1019.8,-2.7,93,-1,10000,14.816,,,130,,,,,,,,,,,wg-a,,,,AAXX 23034 07255 12/60 41308 10000 21010 39990 40198 58027 60006 80002 90300=
07255,1997-03-23 06:00:00,1,1018.8,-1,86,-1,7000,7.408,,,60,-0.3,10.6,,,,,,,,,wg-a,,,,AAXX 23064 07255 02757 70604 10010 21010 39980 40188 58010 60006 81532 90600 333 10106 21003 60004=
07255,1997-03-23 09:00:00,5,1017.3,-1.1,81,2,12000,14.816,,,210,,,,,,,,,,,wg-a,,,,AAXX 23094 07255 12862 72108 10050 20020 39969 40173 58011 60006 83032 90900=
07255,1997-03-23 12:00:00,13,1015.6,-1.1,51,3,20000,22.224,,,290,,,,,,,,,,,wg-a,,,,AAXX 23124 07255 12/70 72912 10130 20030 39958 40156 58011 60006 84032 91200=
07255,1997-03-23 15:00:00,12,1013.7,-1.9,50,2,20000,22.224,,,280,,,,,,,,,,21,wg-a,,,,AAXX 23154 07255 02770 72812 10120 20020 39939 40137 56019 61000 72122 8357/ 91500 333 ////=
07255,1997-03-23 18:00:00,12,1013.1,-0.6,62,5,20000,18.52,,,290,0.6,14.1,,,,,,,,3,wg-a,,,,AAXX 23184 07255 12670 /2910 10120 20050 39933 40131 55006 60006 70362 86500 91800 333 10141 20006=
07255,1997-03-23 21:00:00,11,1013.4,0.2,76,7,15000,14.816,,,320,,,,,,,,,,,wg-a,,,,AAXX 23214 07255 12665 73208 10110 20070 39935 40134 53002 60006 875// 92100=
07255,1997-03-24 00:00:00,8,1013.3,-0.3,76,4,15000,7.408,,,310,,,,,,,,,,,wg-a,,,,AAXX 24004 07255 12665 73104 10080 20040 39932 40133 58003 60006 875// 90000=
07255,1997-03-24 03:00:00,6,1013.4,-0.1,81,3,15000,11.112,,,310,,,,,,,,,,,wg-a,,,,AAXX 24034 07255 12665 73106 10060 20030 39931 40134 58001 60006 8353/ 90300=
07255,1997-03-24 06:00:00,4,1013.7,0.2,93,3,15000,7.408,,,300,3.9,12.3,,,,,,,,,wg-a,,,,AAXX 24064 07255 02665 43004 10040 20030 39933 40137 53002 60006 82531 90600 333 10123 20039 61000=
07255,1997-03-24 09:00:00,7,1014.1,0.6,87,5,12000,7.408,,,310,,,,,,,,,,,wg-a,,,,AAXX 24094 07255 12462 73104 10070 20050 39939 40141 51006 60006 875// 90900=
07255,1997-03-24 12:00:00,11,1012.8,-1,66,5,500,11.112,,,280,,,,,,,,,,,wg-a,,,,AAXX 24124 07255 12500 72806 10110 20050 39929 40128 58010 60006 8523/ 91200=
07255,1997-03-24 15:00:00,11,1011.6,-1.1,62,4,500,7.408,,,290,,,,,,,,,,,wg-a,,,,AAXX 24154 07255 12600 82904 10110 20040 39918 40116 58011 60006 8327/ 91500=
07255,1997-03-24 18:00:00,10,1011.7,-0,71,5,28000,7.408,,,290,3.9,11.7,,,,,,,,,wg-a,,,,AAXX 24184 07255 12678 72904 10100 20050 39918 40117 55000 60006 8217/ 91800 333 10117 20039=
07255,1997-03-24 21:00:00,8,1013.1,1.2,87,6,20000,7.408,,,310,,,,,,,,,,,wg-a,,,,AAXX 24214 07255 12/70 53104 10080 20060 39930 40131 53012 60006 85030 92100=
07255,1997-03-25 00:00:00,6,1014,0.7,93,5,18000,7.408,,,320,,,,,,,,,,,wg-a,,,,AAXX 25004 07255 12/68 73204 10060 20050 39937 40140 53007 60006 8703/ 90000=
07255,1997-03-25 03:00:00,6,1014.9,0.9,93,5,15000,3.704,,,300,,,,,,,,,,,wg-a,,,,AAXX 25034 07255 12665 73002 10060 20050 39946 40149 51009 60006 875// 90300=
07255,1997-03-25 06:00:00,6,1016.9,2,100,6,3000,7.408,,,330,5.4,10.4,,,,,,,,10,wg-a,,,,AAXX 25064 07255 02430 83304 10060 20060 39966 40169 53020 60006 71022 885// 90600 333 10104 20054 60004=
07255,1997-03-25 09:00:00,8,1018.2,1.4,93,7,500,7.408,,,330,,,,,,,,,,,wg-a,,,,AAXX 25094 07255 12400 /3304 10080 20070 39980 40182 53014 60006 86500 90900=
07255,1997-03-25 12:00:00,12,1018.4,0.4,67,6,20000,14.816,,,310,,,,,,,,,,,wg-a,,,,AAXX 25124 07255 12570 73108 10120 20060 39984 40184 53004 60006 878// 91200=
07255,1997-03-25 15:00:00,13,1018.5,0.2,62,6,20000,11.112,,,320,,,,,,,,,,,wg-a,,,,AAXX 25154 07255 12570 73206 10130 20060 39986 40185 52002 60006 878// 91500=
07255,1997-03-25 18:00:00,11,1020,1.4,71,6,15000,7.408,,,320,6.2,13.4,,,,,,,,,wg-a,,,,AAXX 25184 07255 12765 23204 10110 20060 30000 40200 53014 60006 82500 91800 333 10134 20062=
07255,1997-03-25 21:00:00,7,1022,1.6,87,5,12000,3.704,,,260,,,,,,,,,,,wg-a,,,,AAXX 25214 07255 12/62 02602 10070 20050 30016 40220 51016 60006 80000 92100=
07255,1997-03-26 00:00:00,5,1022.4,0.3,93,4,8000,3.704,,,290,,,,,,,,,,,wg-a,,,,AAXX 26004 07255 12/58 02902 10050 20040 30019 40224 50003 60006 80000 90000=
07255,1997-03-26 03:00:00,2,1022.7,0.1,100,2,4000,3.704,,,200,,,,,,,,,,10,wg-a,,,,AAXX 26034 07255 12/40 02002 10020 20020 30020 40227 50001 60006 71000 80000 90300=
07255,1997-03-26 06:00:00,0,1024.6,1.6,100,0,300,3.704,,,100,-0.8,10.8,,,,,,,,44,wg-a,,,,AAXX 26064 07255 02003 31002 10000 20000 30036 40246 53016 60006 74440 83600 90600 333 10108 21008 60004=
07255,1997-03-26 12:00:00,15,1023.1,-0.1,51,5,15000,11.112,,,280,,,,,,,,,,2,wg-a,,,,AAXX 26124 07255 12665 72806 10150 20050 30033 40231 58001 60006 70241 81131 91200=
07255,1997-03-26 18:00:00,14,1022.8,0.4,58,6,25000,11.112,,,280,-0.2,16.6,,,,,,,,,wg-a,,,,AAXX 26184 07255 12775 72806 10140 20060 30029 40228 53004 60006 86531 91800 333 10166 21002=
07255,1997-03-26 21:00:00,12,1024.1,1.2,71,7,10000,7.408,,,250,,,,,,,,,,,wg-a,,,,AAXX 26214 07255 12760 62504 10120 20070 30041 40241 51012 60006 86500 92100=
07255,1997-03-27 00:00:00,11,1024.6,0.4,76,7,10000,11.112,,,260,,,,,,,,,,,wg-a,,,,AAXX 27004 07255 12560 72606 10110 20070 30045 40246 51004 60006 875// 90000=
07255,1997-03-27 03:00:00,10,1024.7,-0,82,7,10000,7.408,,,270,,,,,,,,,,,wg-a,,,,AAXX 27034 07255 12560 72704 10100 20070 30045 40247 55000 60006 875// 90300=
07255,1997-03-27 06:00:00,9,1025.6,0.8,100,9,2000,7.408,,,270,9.1,14.1,,,,,,,,10,wg-a,,,,AAXX 27064 07255 02320 82704 10090 20090 30053 40256 52008 61000 71052 877// 90600 333 10141 20091 6000=
07255,1997-03-27 09:00:00,10,1026.3,0.8,100,10,4000,11.112,,,260,,,,0,,,,,,10,wg-a,,,,AAXX 27094 07255 12240 82606 10100 20100 30061 40263 51008 60007 71052 887// 90900=
07255,1997-03-27 12:00:00,12,1025.3,-0.8,94,11,12000,11.112,,,280,,,,,,,,,,1,wg-a,,,,AAXX 27124 07255 02462 72806 10120 20110 30053 40253 58008 60006 70152 875// 91200 333 61000=
07255,1997-03-27 15:00:00,15,1023.9,-1.2,82,12,20000,14.816,,,280,,,,,,,,,,,wg-a,,,,AAXX 27154 07255 12470 72808 10150 20120 30041 40239 58012 60006 878// 91500=
07255,1997-03-27 18:00:00,14,1023.3,-0.6,88,12,25000,11.112,,,290,9.1,15.1,,,,,,,,,wg-a,,,,AAXX 27184 07255 12475 72906 10140 20120 30035 40233 56006 60006 878// 91800 333 10151 20091=
07255,1997-03-27 21:00:00,14,1023,-0.4,88,12,15000,11.112,,,270,,,,,,,,,,,wg-a,,,,AAXX 27214 07255 12565 72706 10140 20120 30031 40230 58004 60006 875// 92100=
07255,1997-03-28 00:00:00,14,1021.6,-1.4,82,11,15000,14.816,,,280,,,,,,,,,,,wg-a,,,,AAXX 28004 07255 12565 72808 10140 20110 30017 40216 58014 60006 875// 90000=
07255,1997-03-28 03:00:00,12,1020.4,-1.2,88,10,15000,11.112,,,290,,,,,,,,,,,wg-a,,,,AAXX 28034 07255 12465 72906 10120 20100 30005 40204 56012 60006 875// 90300=
07255,1997-03-28 06:00:00,11,1020.5,-0,94,10,15000,14.816,,,300,11,14.3,,,,,,,,60,wg-a,,,,AAXX 28064 07255 02365 83008 10110 20100 30005 40205 55000 61000 76062 875// 90600 333 10143 20110 6000=
07255,1997-03-28 09:00:00,12,1022,1.5,58,4,35000,25.928,,,10,,,,,,,,,,1,wg-a,,,,AAXX 28094 07255 02581 20114 10120 20040 30020 40220 51015 61000 70161 8283/ 90900 333 ////=
07255,1997-03-28 12:00:00,13,1023.1,1.1,41,0,35000,18.52,,38.892,360,,,,,,,,,,3,wg-a,,,,AAXX 28124 07255 02681 43610 10130 20000 30031 40231 51011 61000 70361 84100 91200 333 //// 91021=
07255,1997-03-28 15:00:00,13,1023.1,-0,35,-2,40000,22.224,,,360,,,,,,,,,,,wg-a,,,,AAXX 28154 07255 12782 33612 10130 21020 30031 40231 55000 60006 83100 91500=
07255,1997-03-28 18:00:00,10,1023.8,0.5,40,-3,40000,14.816,,,20,10.4,13.9,,,,,,,,,wg-a,,,,AAXX 28184 07255 12782 10208 10100 21030 30036 40238 53005 60006 81400 91800 333 10139 20104=
07255,1997-03-28 21:00:00,6,1026.3,2.1,56,-2,20000,11.112,,,360,,,,,,,,,,,wg-a,,,,AAXX 28214 07255 12/70 03606 10060 21020 30057 40263 51021 60006 80000 92100=
07255,1997-03-29 00:00:00,3,1026.8,0.3,75,-1,15000,7.408,,,350,,,,,,,,,,,wg-a,,,,AAXX 29004 07255 12/65 03504 10030 21010 30060 40268 51003 60006 80000 90000=
07255,1997-03-29 03:00:00,2,1027,0.1,87,0,12000,7.408,,,320,,,,,,,,,,,wg-a,,,,AAXX 29034 07255 12/62 03204 10020 20000 30061 40270 53001 60006 80000 90300=
07255,1997-03-29 06:00:00,0,1027.3,0.2,93,-1,12000,7.408,,,290,-0.6,10.4,,,,,,,,,wg-a,,,,AAXX 29064 07255 02762 12904 10000 21010 30063 40273 53002 60006 81501 90600 333 10104 21006 61000=
07255,1997-03-29 09:00:00,8,1027.1,0.4,66,2,20000,7.408,,,40,,,,,,,,,,,wg-a,,,,AAXX 29094 07255 12570 /0404 10080 20020 30067 40271 51004 60006 81100 90900=
07255,1997-03-29 12:00:00,11,1026.5,-0.4,43,-1,500,14.816,,,30,,,,,,,,,,,wg-a,,,,AAXX 29124 07255 12600 40308 10110 21010 30063 40265 58004 60006 84100 91200=
07255,1997-03-29 15:00:00,12,1025,-1.4,40,-1,500,14.816,,,40,,,,,,,,,,,wg-a,,,,AAXX 29154 07255 12600 /0408 10120 21010 30049 40250 57014 60006 86100 91500=
07255,1997-03-29 18:00:00,10,1025.4,0.3,46,-1,500,14.816,,,40,-0.2,12.2,,,,,,,,,wg-a,,,,AAXX 29184 07255 12700 70408 10100 21010 30052 40254 53003 60006 874// 91800 333 10122 21002=
07255,1997-03-29 21:00:00,8,1026.3,0.7,61,1,500,3.704,,,30,,,,,,,,,,,wg-a,,,,AAXX 29214 07255 12700 70302 10080 20010 30059 40263 52007 60006 875// 92100=
07255,1997-03-30 00:00:00,6,1026.6,0.2,70,1,20000,11.112,,,50,,,,,,,,,,,wg-a,,,,AAXX 30004 07255 12/70 00506 10060 20010 30061 40266 53002 60006 80000 90000=
07255,1997-03-30 03:00:00,3,1026.9,0,87,1,20000,7.408,,,60,,,,,,,,,,,wg-a,,,,AAXX 30034 07255 12/70 00604 10030 20010 30061 40269 50000 60006 80000 90300=
07255,1997-03-30 06:00:00,3,1027.4,0.5,87,1,18000,11.112,,,50,3.2,10.2,,,,,,,,,wg-a,,,,AAXX 30064 07255 02/68 00506 10030 20010 30066 40274 53005 60006 80000 90600 333 10102 20032 60004=
07255,1997-03-30 09:00:00,9,1027.6,0.7,61,2,25000,22.224,,,70,,,,,,,,,,,wg-a,,,,AAXX 30094 07255 12575 /0712 10090 20020 30073 40276 51007 60006 81101 90900=
07255,1997-03-30 12:00:00,13,1026.8,-0.6,51,3,500,22.224,,,70,,,,,,,,,,,wg-a,,,,AAXX 30124 07255 12600 30712 10130 20030 30067 40268 58006 60006 83200 91200=
07255,1997-03-30 15:00:00,13,1025.5,-1.2,47,2,500,22.224,,,80,,,,,,,,,,,wg-a,,,,AAXX 30154 07255 12600 50812 10130 20020 30055 40255 56012 60006 85400 91500=
07255,1997-03-30 18:00:00,12,1025.5,-0.1,50,2,500,18.52,,,50,3.3,14.1,,,,,,,,,wg-a,,,,AAXX 30184 07255 12700 10510 10120 20020 30054 40255 56001 60006 81400 91800 333 10141 20033=
07255,1997-03-30 21:00:00,8,1026.1,0.3,66,2,28000,11.112,,,50,,,,,,,,,,,wg-a,,,,AAXX 30214 07255 12/78 00506 10080 20020 30057 40261 51003 60006 80000 92100=
07255,1997-03-31 00:00:00,7,1026,-0.2,70,2,20000,18.52,,,80,,,,,,,,,,,wg-a,,,,AAXX 31004 07255 12/70 00810 10070 20020 30055 40260 58002 60006 80000 90000=
07255,1997-03-31 06:00:00,5,1025.3,0.2,75,1,15000,7.408,,,80,4.8,11.8,,,,,,,,,wg-a,,,,AAXX 31064 07255 02/65 00804 10050 20010 30047 40253 53002 60006 80000 90600 333 10118 20048 60004=
07255,1997-03-31 09:00:00,11,1025.2,0.3,58,3,10000,22.224,,,90,,,,,,,,,,,wg-a,,,,AAXX 31094 07255 12/60 /0912 10110 20030 30050 40252 50003 60006 90900=
07255,1997-03-31 12:00:00,15,1023.5,-1.3,41,2,35000,18.52,,,100,,,,,,,,,,,wg-a,,,,AAXX 31124 07255 12/81 01010 10150 20020 30037 40235 58013 60006 80000 91200=
07255,1997-03-31 15:00:00,17,1021.7,-1.7,39,3,35000,25.928,,,80,,,,,,,,,,,wg-a,,,,AAXX 31154 07255 12/81 00814 10170 20030 30020 40217 57017 60006 80000 91500=
07255,1997-03-31 18:00:00,16,1021.3,-0.4,48,5,35000,14.816,,,60,4.5,17.8,,,,,,,,,wg-a,,,,AAXX 31184 07255 12/81 00608 10160 20050 30016 40213 55004 60006 80000 91800 333 10178 20045=
07255,1997-03-31 21:00:00,11,1022.2,0.5,62,4,25000,11.112,,,110,,,,,,,,,,,wg-a,,,,AAXX 31214 07255 12/75 01106 10110 20040 30021 40222 50005 60006 80000 92100=
07255,1997-04-01 00:00:00,8,1022,-0.4,76,4,25000,3.704,,,50,,,,,,,,,,,wg-a,,,,AAXX 01004 07255 12/75 00502 10080 20040 30017 40220 56004 60006 80000 90000=
07255,1997-04-01 03:00:00,7,1021.4,-0.7,76,3,20000,14.816,,,100,,,,,,,,,,,wg-a,,,,AAXX 01034 07255 12/70 01008 10070 20030 30010 40214 56007 60006 80000 90300=
07255,1997-04-01 06:00:00,4,1022,0.4,87,2,25000,11.112,,,110,4,16.1,,,,,,,,,wg-a,,,,AAXX 01064 07255 02/75 01106 10040 20020 30014 40220 53004 60006 80000 90600 333 10161 20040 60004=
07255,1997-04-01 09:00:00,13,1022,0.7,58,5,35000,3.704,,,100,,,,,,,,,,,wg-a,,,,AAXX 01094 07255 12/81 01002 10130 20050 30021 40220 51007 60006 80000 90900=
07255,1997-04-01 12:00:00,18,1020.8,-0.9,39,4,40000,11.112,,,80,,,,,,,,,,,wg-a,,,,AAXX 01124 07255 12/82 00806 10180 20040 30012 40208 58009 60006 80000 91200=
07255,1997-04-01 15:00:00,20,1018.9,-1.7,35,4,40000,22.224,,,70,,,,,,,,,,,wg-a,,,,AAXX 01154 07255 12/82 00712 10200 20040 39995 40189 57017 60006 80000 91500=
07255,1997-04-01 18:00:00,18,1018.6,-0.4,42,5,35000,14.816,,,40,4.1,20.7,,,,,,,,,wg-a,,,,AAXX 01184 07255 12/81 00408 10180 20050 39991 40186 55004 60006 80000 91800 333 10207 20041=
07255,1997-04-01 21:00:00,13,1019.9,0.9,62,6,10000,11.112,,,40,,,,,,,,,,,wg-a,,,,AAXX 01214 07255 12/60 00406 10130 20060 30000 40199 51009 60006 80000 92100=
07255,1997-04-02 00:00:00,12,1019.6,-0.4,62,5,10000,11.112,,,70,,,,,,,,,,,wg-a,,,,AAXX 02004 07255 12/60 /0706 10120 20050 39996 40196 58004 60006 90000=
07255,1997-04-02 03:00:00,9,1019.3,-0.5,71,4,10000,7.408,,,50,,,,,,,,,,,wg-a,,,,AAXX 02034 07255 12/60 00504 10090 20040 39991 40193 58005 60006 80000 90300=
07255,1997-04-02 06:00:00,6,1019.9,0.4,81,3,18000,3.704,,,20,5.6,18.3,,,,,,,,,wg-a,,,,AAXX 02064 07255 02/68 10202 10060 20030 39995 40199 53004 60006 80001 90600 333 10183 20056 60004=
07255,1997-04-02 12:00:00,20,1018.5,-0.7,32,3,18000,11.112,,,30,,,,,,,,,,,wg-a,,,,AAXX 02124 07255 12/68 00306 10200 20030 39991 40185 56007 60006 80000 91200=
07255,1997-04-02 18:00:00,18,1017.2,-0,39,4,15000,7.408,,,70,6.4,20.7,,,,,,,,,wg-a,,,,AAXX 02184 07255 12/65 00704 10180 20040 39977 40172 55000 60006 80000 91800 333 10207 20064=
07255,1997-04-02 21:00:00,13,1018.7,1.1,58,5,12000,7.408,,,340,,,,,,,,,,,wg-a,,,,AAXX 02214 07255 12/62 03404 10130 20050 39988 40187 51011 60006 80000 92100=
07255,1997-04-03 00:00:00,9,1018.4,-0.5,76,5,10000,0,,,0,,,,,,,,,,,wg-a,,,,AAXX 03004 07255 12/60 /0000 10090 20050 39983 40184 58005 60006 90000=
07255,1997-04-03 03:00:00,5,1018.2,-0.5,87,3,10000,7.408,,,250,,,,,,,,,,,wg-a,,,,AAXX 03034 07255 12/60 02504 10050 20030 39978 40182 57005 60006 80000 90300=
07255,1997-04-03 06:00:00,5,1018.6,0.3,87,3,8000,0,,,0,4.6,18.2,,,,,,,,,wg-a,,,,AAXX 03064 07255 02/58 00000 10050 20030 39981 40186 53003 60006 80000 90600 333 10182 20046 60004=
07255,1997-04-03 09:00:00,12,1018.9,0.8,71,7,10000,11.112,,,320,,,,,,,,,,,wg-a,,,,AAXX 03094 07255 12/60 03206 10120 20070 39989 40189 53008 60006 80000 90900=
07255,1997-04-03 12:00:00,17,1017.9,-0.6,39,3,15000,14.816,,,310,,,,,,,,,,,wg-a,,,,AAXX 03124 07255 12/65 53108 10170 20030 39983 40179 58006 60006 80002 91200=
07255,1997-04-03 15:00:00,18,1017.3,-0.5,39,4,20000,22.224,,,300,,,,,,,,,,,wg-a,,,,AAXX 03154 07255 12670 /3012 10180 20040 39978 40173 58005 60006 81132 91500=
07255,1997-04-03 18:00:00,13,1019.2,1.5,58,5,20000,14.816,,,340,4.5,18,,,,,,,,,wg-a,,,,AAXX 03184 07255 12670 73408 10130 20050 39993 40192 53015 60006 82502 91800 333 10180 20045=
07255,1997-04-04 00:00:00,8,1022,1.2,76,4,15000,7.408,,,310,,,,,,,,,,,wg-a,,,,AAXX 04004 07255 12665 23104 10080 20040 30017 40220 51012 60006 81501 90000=
07255,1997-04-04 03:00:00,6,1022.9,0.8,87,4,12000,7.408,,,320,,,,,,,,,,,wg-a,,,,AAXX 04034 07255 12/62 53204 10060 20040 30025 40229 53008 60006 80001 90300=
07255,1997-04-04 06:00:00,6,1025.7,2.7,87,4,12000,7.408,,,360,5.4,13.3,,,,,,,,,wg-a,,,,AAXX 04064 07255 02662 73604 10060 20040 30052 40257 53027 60006 85532 90600 333 10133 20054 60004=
07255,1997-04-04 09:00:00,9,1026.9,1.4,61,2,20000,14.816,,,40,,,,,,,,,,,wg-a,,,,AAXX 04094 07255 12570 30408 10090 20020 30066 40269 51014 60006 81101 90900=
07255,1997-04-04 12:00:00,12,1027.4,0.6,40,-1,25000,18.52,,,20,,,,,,,,,,,wg-a,,,,AAXX 04124 07255 12675 30210 10120 21010 30072 40274 52006 60006 83100 91200=
07255,1997-04-04 18:00:00,11,1027.2,0.2,37,-3,25000,11.112,,,40,5.5,12.9,,,,,,,,,wg-a,,,,AAXX 04184 07255 12/75 10406 10110 21030 30070 40272 52002 60006 80001 91800 333 10129 20055=
07255,1997-04-04 21:00:00,6,1029.1,1.5,52,-3,25000,7.408,,,350,,,,,,,,,,,wg-a,,,,AAXX 04214 07255 12/75 03504 10060 21030 30085 40291 51015 60006 80000 92100=
07255,1997-04-05 00:00:00,3,1029,-0.3,65,-3,18000,0,,,0,,,,,,,,,,,wg-a,,,,AAXX 05004 07255 12/68 00000 10030 21030 30082 40290 58003 60006 80000 90000=
07255,1997-04-05 03:00:00,2,1028.3,-0.8,69,-3,15000,7.408,,,300,,,,,,,,,,,wg-a,,,,AAXX 05034 07255 12/65 03004 10020 21030 30074 40283 57008 60006 80000 90300=
07255,1997-04-05 06:00:00,-1,1028.5,-0,86,-3,15000,7.408,,,230,-1,10.5,,,,,,,,,wg-a,,,,AAXX 05064 07255 02/65 42304 11010 21030 30074 40285 55000 60006 80001 90600 333 10105 21010 60004=
07255,1997-04-05 09:00:00,9,1028,0.2,46,-2,25000,18.52,,,280,,,,,,,,,,,wg-a,,,,AAXX 05094 07255 12/75 72810 10090 21020 30076 40280 50002 60006 81032 90900=
07255,1997-04-05 12:00:00,13,1025.3,-2.3,47,2,500,22.224,,,290,,,,,,,,,,,wg-a,,,,AAXX 05124 07255 12/00 72912 10130 20020 30053 40253 57023 60006 80002 91200=
07255,1997-04-05 15:00:00,16,1022.6,-2.4,48,5,500,22.224,,,290,,,,,,,,,,,wg-a,,,,AAXX 05154 07255 12/00 42912 10160 20050 30029 40226 56024 60006 80001 91500=
07255,1997-04-05 18:00:00,15,1021.7,-1,59,7,500,18.52,,,290,-0.7,16.4,,,,,,,,,wg-a,,,,AAXX 05184 07255 12600 22910 10150 20070 30019 40217 56010 60006 81101 91800 333 10164 21007=
07255,1997-04-05 21:00:00,10,1023.3,1.2,76,6,10000,7.408,,,310,,,,,,,,,,,wg-a,,,,AAXX 05214 07255 12/60 /3104 10100 20060 30031 40233 53012 60006 92100=
07255,1997-04-06 00:00:00,7,1024,0.5,87,5,25000,7.408,,,290,,,,,,,,,,,wg-a,,,,AAXX 06004 07255 12/75 12904 10070 20050 30036 40240 53005 60006 80001 90000=
07255,1997-04-06 03:00:00,7,1023.5,-0.5,87,5,2000,11.112,,,290,,,,,,,,,,,wg-a,,,,AAXX 06034 07255 12620 72906 10070 20050 30031 40235 57005 60006 875// 90300=
07255,1997-04-06 06:00:00,7,1024.2,0.7,87,5,12000,11.112,,,300,5.5,14.9,,,,,,,,,wg-a,,,,AAXX 06064 07255 02562 83006 10070 20050 30038 40242 53007 60006 885// 90600 333 10149 20055 60004=
07255,1997-04-06 09:00:00,10,1024.9,0.9,82,7,12000,11.112,,,20,,,,,,,,,,,wg-a,,,,AAXX 06094 07255 12462 80206 10100 20070 30047 40249 53009 60006 885// 90900=
07255,1997-04-06 12:00:00,14,1024.4,-0.2,67,8,1500,11.112,,,60,,,,,,,,,,,wg-a,,,,AAXX 06124 07255 12415 70606 10140 20080 30045 40244 58002 60006 878// 91200=
07255,1997-04-06 15:00:00,16,1023.3,-1,51,6,20000,11.112,,,70,,,,,,,,,,,wg-a,,,,AAXX 06154 07255 12670 50706 10160 20060 30035 40233 58010 60006 85800 91500=
07255,1997-04-06 18:00:00,14,1023.7,0.3,55,5,40000,25.928,,,70,6.8,16.5,,,,,,,,,wg-a,,,,AAXX 06184 07255 12682 20714 10140 20050 30038 40237 53003 60006 82100 91800 333 10165 20068=
07255,1997-04-06 21:00:00,9,1026,1.9,46,-2,500,22.224,,,70,,,,,,,,,,,wg-a,,,,AAXX 06214 07255 12/00 00712 10090 21020 30057 40260 51019 60006 80000 92100=
07255,1997-04-07 00:00:00,7,1026.7,0.5,53,-2,10000,22.224,,,90,,,,,,,,,,,wg-a,,,,AAXX 07004 07255 12/60 /0912 10070 21020 30062 40267 53005 60006 90000=
07255,1997-04-07 03:00:00,5,1026.3,-0.5,56,-3,10000,18.52,,,70,,,,,,,,,,,wg-a,,,,AAXX 07034 07255 12/60 00710 10050 21030 30057 40263 57005 60006 80000 90300=
07255,1997-04-07 06:00:00,4,1027,0.6,60,-3,35000,18.52,,,80,3.2,14.4,,,,,,,,,wg-a,,,,AAXX 07064 07255 02/81 10810 10040 21030 30063 40270 53006 60006 80001 90600 333 10144 20032 60004=
07255,1997-04-07 12:00:00,14,1025.6,-0.7,31,-3,40000,25.928,,,90,,,,,,,,,,,wg-a,,,,AAXX 07124 07255 12/82 20914 10140 21030 30056 40256 58007 60006 80001 91200=
07255,1997-04-07 15:00:00,17,1023.8,-1.6,23,-4,35000,25.928,,,70,,,,,,,,,,,wg-a,,,,AAXX 07154 07255 12/81 20714 10170 21040 30040 40238 56016 60006 80001 91500=
07255,1997-04-07 18:00:00,15,1023.4,-0.5,23,-6,35000,29.632,,46.3,70,3.5,16.8,,,,,,,,,wg-a,,,,AAXX 07184 07255 12/81 40716 10150 21060 30035 40234 55005 60006 80001 91800 333 10168 20035 91025=
07255,1997-04-07 21:00:00,10,1024.7,1,37,-4,500,22.224,,,80,,,,,,,,,,,wg-a,,,,AAXX 07214 07255 12/00 30812 10100 21040 30045 40247 51010 60006 80001 92100=
07255,1997-04-08 00:00:00,7,1024.9,-0.1,49,-3,25000,22.224,,,80,,,,,,,,,,,wg-a,,,,AAXX 08004 07255 12/75 20812 10070 21030 30044 40249 56001 60006 80001 90000=
07255,1997-04-08 03:00:00,4,1025,-0.1,60,-3,20000,18.52,,,90,,,,,,,,,,,wg-a,,,,AAXX 08034 07255 12/70 00910 10040 21030 30043 40250 58001 60006 80000 90300=
07255,1997-04-08 06:00:00,3,1025.7,0.6,60,-4,10000,14.816,,,100,1.9,14.5,,,,,,,,,wg-a,,,,AAXX 08064 07255 02/60 /1008 10030 21040 30049 40257 53006 60006 90600 333 10145 20019 60004=
07255,1997-04-08 09:00:00,10,1025.1,0,43,-2,35000,14.816,,,110,,,,,,,,,,,wg-a,,,,AAXX 08094 07255 12/81 21108 10100 21020 30049 40251 50000 60006 80001 90900=
07255,1997-04-08 12:00:00,17,1023.7,-0.9,36,2,35000,11.112,,,130,,,,,,,,,,,wg-a,,,,AAXX 08124 07255 12/81 11306 10170 20020 30040 40237 58009 60006 80001 91200=
07255,1997-04-08 15:00:00,19,1022.3,-1.2,28,0,35000,14.816,,,100,,,,,,,,,,,wg-a,,,,AAXX 08154 07255 12/81 11008 10190 20000 30028 40223 58012 60006 80001 91500=
07255,1997-04-08 18:00:00,18,1022.5,0.1,37,3,500,11.112,,,100,2.6,20.1,,,,,,,,,wg-a,,,,AAXX 08184 07255 12/00 21006 10180 20030 30029 40225 52001 60006 80001 91800 333 10201 20026=
07255,1997-04-08 21:00:00,12,1024.4,1.4,54,3,25000,7.408,,,70,,,,,,,,,,,wg-a,,,,AAXX 08214 07255 12/75 00704 10120 20030 30043 40244 51014 60006 80000 92100=
07255,1997-04-09 00:00:00,9,1025.3,0.7,66,3,20000,7.408,,,100,,,,,,,,,,,wg-a,,,,AAXX 09004 07255 12/70 01004 10090 20030 30050 40253 53007 60006 80000 90000=
07255,1997-04-09 03:00:00,6,1026,0.5,75,2,15000,3.704,,,340,,,,,,,,,,,wg-a,,,,AAXX 09034 07255 12/65 03402 10060 20020 30055 40260 53005 60006 80000 90300=
07255,1997-04-09 06:00:00,3,1027.6,1.3,87,1,15000,7.408,,,160,2.9,17.8,,,,,,,,,wg-a,,,,AAXX 09064 07255 02/65 31604 10030 20010 30068 40276 52013 60006 80001 90600 333 10178 20029 60004=
07255,1997-04-09 09:00:00,13,1028.5,1.7,58,5,20000,11.112,,,300,,,,,,,,,,,wg-a,,,,AAXX 09094 07255 12/70 43006 10130 20050 30085 40285 51017 60006 80001 90900=
07255,1997-04-09 12:00:00,18,1027.8,-0.4,45,6,500,3.704,,,10,,,,,,,,,,,wg-a,,,,AAXX 09124 07255 12/00 30102 10180 20060 30081 40278 58004 60006 80001 91200=
07255,1997-04-09 15:00:00,22,1026.7,-0.8,38,7,500,3.704,,,300,,,,,,,,,,,wg-a,,,,AAXX 09154 07255 12/00 63002 10220 20070 30073 40267 58008 60006 80001 91500=
07255,1997-04-09 18:00:00,19,1027,0.1,40,5,500,3.704,,,230,3.4,21.8,,,,,,,,,wg-a,,,,AAXX 09184 07255 12/00 62302 10190 20050 30074 40270 53001 60006 80001 91800 333 10218 20034=
07255,1997-04-09 21:00:00,15,1028.7,1.3,48,4,500,3.704,,,330,,,,,,,,,,,wg-a,,,,AAXX 09214 07255 12/00 63302 10150 20040 30087 40287 51013 60006 80001 92100=
07255,1997-04-10 00:00:00,9,1030,0.9,76,5,20000,7.408,,,100,,,,,,,,,,,wg-a,,,,AAXX 10004 07255 12/70 31004 10090 20050 30096 40300 53009 60006 80001 90000=
07255,1997-04-10 03:00:00,6,1030,-0.2,87,4,18000,3.704,,,220,,,,,,,,,,,wg-a,,,,AAXX 10034 07255 12/68 12202 10060 20040 30094 40300 58002 60006 80001 90300=
07255,1997-04-10 06:00:00,5,1031.1,1,87,3,18000,3.704,,,120,4.6,18.8,,,,,,,,,wg-a,,,,AAXX 10064 07255 02/68 41202 10050 20030 30104 40311 53010 60006 80001 90600 333 10188 20046 60004=
07255,1997-04-10 09:00:00,15,1030.9,0.5,59,7,20000,3.704,,,330,,,,,,,,,,,wg-a,,,,AAXX 10094 07255 12/70 03302 10150 20070 30109 40309 51005 60006 80000 90900=
07255,1997-04-10 12:00:00,21,1029.4,-1.1,38,6,20000,11.112,,,80,,,,,,,,,,,wg-a,,,,AAXX 10124 07255 12/70 00806 10210 20060 30098 40294 58011 60006 80000 91200=
07255,1997-04-10 15:00:00,22,1027.8,-1.5,23,0,500,14.816,,,60,,,,,,,,,,,wg-a,,,,AAXX 10154 07255 12/00 40608 10220 20000 30083 40278 57015 60006 80001 91500=
07255,1997-04-10 18:00:00,20,1027.7,-0.2,32,3,500,11.112,,,30,5,22.2,,,,,,,,,wg-a,,,,AAXX 10184 07255 12/00 20306 10200 20030 30081 40277 56002 60006 80001 91800 333 10222 20050=
07255,1997-04-10 21:00:00,14,1029.1,1,44,2,500,11.112,,,50,,,,,,,,,,,wg-a,,,,AAXX 10214 07255 12/00 20506 10140 20020 30091 40291 51010 60006 80001 92100=
07255,1997-04-11 00:00:00,10,1029.2,-0.2,53,1,25000,3.704,,,70,,,,,,,,,,,wg-a,,,,AAXX 11004 07255 12/75 20702 10100 20010 30089 40292 58002 60006 80001 90000=
07255,1997-04-11 03:00:00,5,1028.6,-1,75,1,20000,3.704,,,30,,,,,,,,,,,wg-a,,,,AAXX 11034 07255 12/70 10302 10050 20010 30079 40286 57010 60006 80001 90300=
07255,1997-04-11 06:00:00,4,1028.1,-0.5,81,1,15000,0,,,0,3.6,19.8,,,,,,,,,wg-a,,,,AAXX 11064 07255 02/65 20000 10040 20010 30074 40281 56005 60006 80001 90600 333 10198 20036 60004=
07255,1997-04-11 09:00:00,15,1026.9,-0.4,51,5,18000,3.704,,,240,,,,,,,,,,,wg-a,,,,AAXX 11094 07255 12/68 12402 10150 20050 30070 40269 58004 60006 80001 90900=
07255,1997-04-11 12:00:00,20,1024.4,-2.1,26,0,20000,11.112,,,340,,,,,,,,,,,wg-a,,,,AAXX 11124 07255 12/70 13406 10200 20000 30049 40244 58021 60006 80001 91200=
07255,1997-04-11 18:00:00,19,1021.7,-0.5,30,1,22000,18.52,,,10,4.2,21.8,,,,,,,,,wg-a,,,,AAXX 11184 07255 12/72 00110 10190 20010 30021 40217 56005 60006 80000 91800 333 10218 20042=
07255,1997-04-11 21:00:00,11,1025.1,2.8,66,5,12000,25.928,,,50,,,,,,,,,,,wg-a,,,,AAXX 11214 07255 12/62 20514 10110 20050 30049 40251 53028 60006 80001 92100=
07255,1997-04-12 00:00:00,8,1025.9,0.6,61,1,12000,22.224,,,40,,,,,,,,,,,wg-a,,,,AAXX 12004 07255 12/62 40412 10080 20010 30055 40259 53006 60006 84030 90000=
07255,1997-04-12 03:00:00,4,1026.4,0.2,60,-3,12000,22.224,,,60,,,,,,,,,,,wg-a,,,,AAXX 12034 07255 12/62 00612 10040 21030 30057 40264 51002 60006 80000 90300=
07255,1997-04-12 06:00:00,3,1027.2,0.7,65,-3,20000,22.224,,,60,2.4,18.7,,,,,,,,,wg-a,,,,AAXX 12064 07255 02/70 70612 10030 21030 30064 40272 53007 60006 80002 90600 333 10187 20024 60004=
07255,1997-04-12 09:00:00,7,1027.4,0.5,57,-1,25000,25.928,,,70,,,,,,,,,,,wg-a,,,,AAXX 12094 07255 12/75 60714 10070 21010 30069 40274 50005 60006 80002 90900=
07255,1997-04-12 12:00:00,11,1026,-1.1,40,-2,25000,18.52,,,40,,,,,,,,,,,wg-a,,,,AAXX 12124 07255 12/75 40410 10110 21020 30058 40260 58011 60006 80002 91200=
07255,1997-04-12 15:00:00,12,1025.1,-0.8,38,-2,500,25.928,,,50,,,,,,,,,,,wg-a,,,,AAXX 12154 07255 12/00 20514 10120 21020 30050 40251 57008 60006 80002 91500=
07255,1997-04-12 18:00:00,10,1025.5,0.3,46,-1,500,18.52,,,50,2.6,12.3,,,,,,,,,wg-a,,,,AAXX 12184 07255 12/00 10510 10100 21010 30053 40255 53003 60006 80002 91800 333 10123 20026=
07255,1997-04-12 21:00:00,7,1026.8,1,53,-2,28000,11.112,,,50,,,,,,,,,,,wg-a,,,,AAXX 12214 07255 12/78 20506 10070 21020 30063 40268 51010 60006 80001 92100=
07255,1997-04-13 00:00:00,3,1026.8,-0.2,75,-1,25000,7.408,,,30,,,,,,,,,,,wg-a,,,,AAXX 13004 07255 12/75 10304 10030 21010 30061 40268 57002 60006 80001 90000=
07255,1997-04-13 03:00:00,3,1025.8,-1,75,-1,25000,14.816,,,50,,,,,,,,,,,wg-a,,,,AAXX 13034 07255 12/75 00508 10030 21010 30051 40258 56010 60006 80000 90300=
07255,1997-04-13 06:00:00,3,1026.2,0.3,75,-1,20000,18.52,,,70,2.3,10,,,,,,,,,wg-a,,,,AAXX 13064 07255 02/70 00710 10030 21010 30054 40262 53003 60006 80000 90600 333 10100 20023 60004=
07255,1997-04-13 09:00:00,9,1025.9,0.2,53,0,20000,22.224,,,70,,,,,,,,,,,wg-a,,,,AAXX 13094 07255 12/70 00712 10090 20000 30056 40259 50002 60006 80000 90900=
07255,1997-04-13 12:00:00,12,1024.6,-1.1,40,-1,25000,22.224,,,50,,,,,,,,,,,wg-a,,,,AAXX 13124 07255 12/75 00512 10120 21010 30045 40246 58011 60006 80000 91200=
07255,1997-04-13 18:00:00,13,1022.8,-0.1,38,-1,25000,18.52,,,60,2.6,14.1,,,,,,,,,wg-a,,,,AAXX 13184 07255 12/75 00610 10130 21010 30028 40228 55001 60006 80000 91800 333 10141 20026=
07255,1997-04-13 21:00:00,8,1023.6,0.5,53,-1,500,11.112,,,50,,,,,,,,,,,wg-a,,,,AAXX 13214 07255 12/00 00506 10080 21010 30033 40236 52005 60006 80000 92100=
07255,1997-04-14 00:00:00,7,1023.2,-0.5,61,0,20000,14.816,,,70,,,,,,,,,,,wg-a,,,,AAXX 14004 07255 12/70 00708 10070 20000 30028 40232 58005 60006 80000 90000=
07255,1997-04-14 03:00:00,5,1023.2,-0.1,65,-1,10000,14.816,,,90,,,,,,,,,,,wg-a,,,,AAXX 14034 07255 12/60 00908 10050 21010 30027 40232 58001 60006 80000 90300=
07255,1997-04-14 06:00:00,5,1023.6,0.4,65,-1,20000,11.112,,,70,4.5,12.6,,,,,,,,,wg-a,,,,AAXX 14064 07255 02/70 00706 10050 21010 30031 40236 53004 60006 80000 90600 333 10126 20045 60004=
07255,1997-04-14 09:00:00,12,1023.7,0.5,44,0,25000,22.224,,,100,,,,,,,,,,,wg-a,,,,AAXX 14094 07255 12/75 01012 10120 20000 30036 40237 51005 60006 80000 90900=
07255,1997-04-14 12:00:00,16,1022.9,-0.5,34,0,500,22.224,,,70,,,,,,,,,,,wg-a,,,,AAXX 14124 07255 12/00 00712 10160 20000 30031 40229 58005 60006 80000 91200=
07255,1997-04-14 15:00:00,17,1021.3,-1.4,34,1,500,18.52,,,50,,,,,,,,,,,wg-a,,,,AAXX 14154 07255 12/00 00510 10170 20010 30017 40213 56014 60006 80000 91500=
07255,1997-04-14 18:00:00,16,1021.6,0.2,39,2,500,11.112,,,60,5.4,17.6,,,,,,,,,wg-a,,,,AAXX 14184 07255 12/00 00606 10160 20020 30019 40216 53002 60006 80000 91800 333 10176 20054=
07255,1997-04-14 21:00:00,12,1023.1,1.2,58,4,25000,14.816,,,60,,,,,,,,,,,wg-a,,,,AAXX 14214 07255 12/75 00608 10120 20040 30031 40231 51012 60006 80000 92100=
07255,1997-04-15 00:00:00,9,1023.9,0.6,71,4,20000,11.112,,,70,,,,,,,,,,,wg-a,,,,AAXX 15004 07255 12/70 00706 10090 20040 30037 40239 52006 60006 80000 90000=
07255,1997-04-15 03:00:00,6,1024.3,0.1,87,4,10000,3.704,,,30,,,,,,,,,,,wg-a,,,,AAXX 15034 07255 12/60 /0302 10060 20040 30038 40243 53001 60006 90300=
07255,1997-04-15 06:00:00,7,1025.2,1,87,5,6000,14.816,,,60,5.5,16.3,,,,,,,,,wg-a,,,,AAXX 15064 07255 02/56 30608 10070 20050 30048 40252 53010 60006 82031 90600 333 10163 20055 60004=
07255,1997-04-15 09:00:00,10,1026,1,66,4,15000,22.224,,,60,,,,,,,,,,,wg-a,,,,AAXX 15094 07255 12565 /0612 10100 20040 30058 40260 52010 60006 85100 90900=
07255,1997-04-15 12:00:00,13,1025.1,-0.7,47,2,20000,18.52,,,40,,,,,,,,,,,wg-a,,,,AAXX 15124 07255 12/70 00410 10130 20020 30051 40251 58007 60006 80000 91200=
07255,1997-04-15 15:00:00,14,1024.1,-0.9,41,1,20000,22.224,,,40,,,,,,,,,,,wg-a,,,,AAXX 15154 07255 12/70 00412 10140 20010 30042 40241 56009 60006 80000 91500=
07255,1997-04-15 18:00:00,12,1025.1,0.8,44,0,20000,22.224,,,60,7.2,14.8,,,,,,,,,wg-a,,,,AAXX 15184 07255 12/70 00612 10120 20000 30050 40251 53008 60006 80000 91800 333 10148 20072=
07255,1997-04-15 21:00:00,8,1026.3,0.9,57,0,20000,11.112,,,40,,,,,,,,,,,wg-a,,,,AAXX 15214 07255 12/70 00406 10080 20000 30059 40263 51009 60006 80000 92100=
07255,1997-04-16 00:00:00,7,1025.9,-0.5,57,-1,20000,25.928,,,70,,,,,,,,,,,wg-a,,,,AAXX 16004 07255 12/70 00714 10070 21010 30054 40259 57005 60006 80000 90000=
07255,1997-04-16 03:00:00,4,1025.7,-0.3,70,-1,15000,22.224,,,70,,,,,,,,,,,wg-a,,,,AAXX 16034 07255 12/65 00712 10040 21010 30051 40257 56003 60006 80000 90300=
07255,1997-04-16 06:00:00,3,1025.8,-0,75,-1,15000,22.224,,,70,3,12.1,,,,,,,,,wg-a,,,,AAXX 16064 07255 02/65 10712 10030 21010 30051 40258 54000 60006 80001 90600 333 10121 20030 60004=
07255,1997-04-16 09:00:00,8,1025.7,0.2,57,0,20000,18.52,,,80,,,,,,,,,,,wg-a,,,,AAXX 16094 07255 12/70 10810 10080 20000 30053 40257 52002 60006 80001 90900=
07255,1997-04-16 12:00:00,12,1023.9,-1.5,32,-4,500,22.224,,,80,,,,,,,,,,,wg-a,,,,AAXX 16124 07255 12/00 00812 10120 21040 30038 40239 58015 60006 80000 91200=
07255,1997-04-16 15:00:00,14,1021.4,-2.3,31,-3,40000,22.224,,,60,,,,,,,,,,,wg-a,,,,AAXX 16154 07255 12/82 00612 10140 21030 30015 40214 56023 60006 80000 91500=
07255,1997-04-16 18:00:00,11,1020.8,-0.8,43,-1,500,18.52,,,40,3.2,13.9,,,,,,,,,wg-a,,,,AAXX 16184 07255 12500 /0410 10110 21010 30007 40208 56008 60006 81500 91800 333 10139 20032=
07255,1997-04-16 21:00:00,8,1020.9,-0.1,53,-1,20000,14.816,,,50,,,,,,,,,,,wg-a,,,,AAXX 16214 07255 12/70 10508 10080 21010 30006 40209 58001 60006 80001 92100=
07255,1997-04-17 00:00:00,6,1020.2,-0.8,61,-1,20000,18.52,,,70,,,,,,,,,,,wg-a,,,,AAXX 17004 07255 12/70 00710 10060 21010 39998 40202 58008 60006 80000 90000=
07255,1997-04-17 03:00:00,4,1018.6,-1.7,70,-1,20000,18.52,,,60,,,,,,,,,,,wg-a,,,,AAXX 17034 07255 12/70 00610 10040 21010 39981 40186 56017 60006 80000 90300=
07255,1997-04-17 06:00:00,4,1019.2,0.5,70,-1,15000,14.816,,,60,3,11.2,,,,,,,,,wg-a,,,,AAXX 17064 07255 02/65 20608 10040 21010 39986 40192 53005 60006 81031 90600 333 10112 20030 60004=
07255,1997-04-17 09:00:00,9,1019,0.2,40,-4,20000,25.928,,,90,,,,,,,,,,,wg-a,,,,AAXX 17094 07255 12/70 20914 10090 21040 39988 40190 50002 60006 80002 90900=
07255,1997-04-17 12:00:00,12,1017.8,-1,26,-7,25000,31.484,,,90,,,,,,,,,,,wg-a,,,,AAXX 17124 07255 12675 20917 10120 21070 39978 40178 58010 60006 82102 91200=
07255,1997-04-17 15:00:00,13,1016.9,-0.8,24,-7,25000,31.484,,,70,,,,,,,,,,,wg-a,,,,AAXX 17154 07255 12775 30717 10130 21070 39970 40169 56008 60006 81102 91500=
07255,1997-04-17 18:00:00,12,1017.3,0.3,28,-6,500,25.928,,,70,3.5,13.3,,,,,,,,,wg-a,,,,AAXX 17184 07255 12/00 10714 10120 21060 39973 40173 53003 60006 80001 91800 333 10133 20035=
07255,1997-04-17 21:00:00,8,1019.3,1.8,39,-5,25000,18.52,,,70,,,,,,,,,,,wg-a,,,,AAXX 17214 07255 12/75 00710 10080 21050 39991 40193 51018 60006 80000 92100=
07255,1997-04-18 00:00:00,6,1020.2,0.7,49,-4,20000,14.816,,,70,,,,,,,,,,,wg-a,,,,AAXX 18004 07255 12/70 00708 10060 21040 39998 40202 51007 60006 80000 90000=
07255,1997-04-18 03:00:00,5,1019.6,-0.7,52,-4,20000,18.52,,,70,,,,,,,,,,,wg-a,,,,AAXX 18034 07255 12/70 00710 10050 21040 39991 40196 56007 60006 80000 90300=
07255,1997-04-18 06:00:00,4,1020.3,0.6,56,-4,500,11.112,,,90,2.9,12,,,,,,,,,wg-a,,,,AAXX 18064 07255 02/00 00906 10040 21040 39997 40203 53006 60006 80000 90600 333 10120 20029 60004=
07255,1997-04-18 12:00:00,14,1017.6,-1.7,26,-5,500,14.816,,,70,,,,,,,,,,,wg-a,,,,AAXX 18124 07255 12/00 00708 10140 21050 39978 40176 58017 60006 80000 91200=
07255,1997-04-18 15:00:00,17,1014.9,-2.5,23,-4,500,14.816,,,90,,,,,,,,,,,wg-a,,,,AAXX 18154 07255 12/00 00908 10170 21040 39953 40149 56025 60006 80000 91500=
07255,1997-04-18 18:00:00,15,1014.2,-0.8,27,-4,500,18.52,,,60,3.9,16.8,,,,,,,,,wg-a,,,,AAXX 18184 07255 12/00 00610 10150 21040 39945 40142 56008 60006 80000 91800 333 10168 20039=
07255,1997-04-18 21:00:00,10,1014.7,0.2,43,-2,20000,11.112,,,60,,,,,,,,,,,wg-a,,,,AAXX 18214 07255 12/70 00606 10100 21020 39947 40147 50002 60006 80000 92100=
07255,1997-04-19 00:00:00,7,1013.9,-1,57,-1,20000,11.112,,,90,,,,,,,,,,,wg-a,,,,AAXX 19004 07255 12/70 00906 10070 21010 39937 40139 58010 60006 80000 90000=
07255,1997-04-19 03:00:00,7,1012.6,-1.3,61,0,10000,7.408,,,70,,,,,,,,,,,wg-a,,,,AAXX 19034 07255 12/60 00704 10070 20000 39924 40126 58013 60006 80000 90300=
07255,1997-04-19 06:00:00,4,1012.6,-0.2,75,0,12000,7.408,,,70,2,15,,,,,,,,,wg-a,,,,AAXX 19064 07255 02/62 00704 10040 20000 39922 40126 55002 60006 80000 90600 333 10150 20020 60004=
07255,1997-04-19 12:00:00,16,1008.9,-2.1,39,2,20000,18.52,,,50,,,,,,,,,,,wg-a,,,,AAXX 19124 07255 12770 10510 10160 20020 39894 40089 57021 60006 81100 91200=
07255,1997-04-19 18:00:00,13,1007.9,0.1,51,3,15000,25.928,,,50,3.7,17.2,,,,,,,,,wg-a,,,,AAXX 19184 07255 12/65 00514 10130 20030 39882 40079 53001 60006 80000 91800 333 10172 20037=
07255,1997-04-19 21:00:00,9,1010.1,1.9,61,2,15000,14.816,,,50,,,,,,,,,,,wg-a,,,,AAXX 19214 07255 12/65 10508 10090 20020 39901 40101 51019 60006 81030 92100=
07255,1997-04-20 00:00:00,6,1011.5,1.2,56,-2,15000,18.52,,,40,,,,,,,,,,,wg-a,,,,AAXX 20004 07255 12/65 00410 10060 21020 39913 40115 53012 60006 80000 90000=
07255,1997-04-20 06:00:00,2,1013.2,1.4,75,-2,18000,14.816,,,50,1.7,13.2,,,,,,,,,wg-a,,,,AAXX 20064 07255 02/68 10508 10020 21020 39926 40132 53014 60006 80001 90600 333 10132 20017 60004=
07255,1997-04-20 09:00:00,7,1013.3,0.5,57,-1,20000,18.52,,,70,,,,,,,,,,,wg-a,,,,AAXX 20094 07255 12570 /0710 10070 21010 39931 40133 51005 60006 81100 90900=
07255,1997-04-20 12:00:00,9,1013.4,0.2,43,-3,25000,25.928,,,60,,,,,,,,,,,wg-a,,,,AAXX 20124 07255 12675 /0614 10090 21030 39933 40134 51002 60006 86100 91200=
07255,1997-04-20 15:00:00,11,1012.4,-0.8,35,-4,10000,29.632,,,60,,,,,,,,,,,wg-a,,,,AAXX 20154 07255 12/60 /0616 10110 21040 39925 40124 58008 60006 91500=
07255,1997-04-20 18:00:00,10,1012.5,-0,37,-4,28000,22.224,,,50,2,11.6,,,,,,,,,wg-a,,,,AAXX 20184 07255 12778 10512 10100 21040 39925 40125 54000 60006 81100 91800 333 10116 20020=
07255,1997-04-20 21:00:00,6,1013.9,1.1,52,-3,20000,14.816,,,50,,,,,,,,,,,wg-a,,,,AAXX 20214 07255 12/70 00508 10060 21030 39936 40139 51011 60006 80000 92100=
07255,1997-04-21 00:00:00,5,1014.3,0.3,56,-3,10000,22.224,,,70,,,,,,,,,,,wg-a,,,,AAXX 21004 07255 12/60 /0712 10050 21030 39939 40143 51003 60006 90000=
07255,1997-04-21 03:00:00,2,1013.7,-0.8,69,-3,15000,22.224,,,70,,,,,,,,,,,wg-a,,,,AAXX 21034 07255 12/65 00712 10020 21030 39931 40137 58008 60006 80000 90300=
07255,1997-04-21 06:00:00,2,1013.6,-0.1,69,-3,20000,22.224,,,60,1.4,10,,,,,,,,,wg-a,,,,AAXX 21064 07255 02/70 00612 10020 21030 39930 40136 56001 60006 80000 90600 333 10100 20014 60004=
07255,1997-04-21 09:00:00,8,1012.7,-0.5,39,-5,20000,25.928,,,60,,,,,,,,,,,wg-a,,,,AAXX 21094 07255 12/70 00614 10080 21050 39925 40127 57005 60006 80000 90900=
07255,1997-04-21 12:00:00,11,1011.2,-1.2,25,-8,25000,25.928,,46.3,50,,,,,,,,,,,wg-a,,,,AAXX 21124 07255 12/75 00514 10110 21080 39913 40112 58012 60006 80000 91200 333 91025=
07255,1997-04-21 15:00:00,12,1009.7,-1.4,28,-6,25000,25.928,,42.596,40,,,,,,,,,,,wg-a,,,,AAXX 21154 07255 12/75 00414 10120 21060 39899 40097 58014 60006 80000 91500 333 91023=
07255,1997-04-21 18:00:00,11,1010,0.2,30,-6,10000,18.52,,,40,2,12.7,,,,,,,,,wg-a,,,,AAXX 21184 07255 12/60 /0410 10110 21060 39901 40100 53002 60006 91800 333 10127 20020=
07255,1997-04-21 21:00:00,7,1011.7,1.4,42,-5,20000,7.408,,,30,,,,,,,,,,,wg-a,,,,AAXX 21214 07255 12/70 00304 10070 21050 39915 40117 51014 60006 80000 92100=
07255,1997-04-22 00:00:00,4,1011.7,-0.2,48,-6,20000,11.112,,,40,,,,,,,,,,,wg-a,,,,AAXX 22004 07255 12/70 00406 10040 21060 39913 40117 58002 60006 80000 90000=
07255,1997-04-22 03:00:00,3,1012.1,0.3,56,-5,10000,11.112,,,30,,,,,,,,,,,wg-a,,,,AAXX 22034 07255 12/60 /0306 10030 21050 39916 40121 53003 60006 90300=
07255,1997-04-22 06:00:00,3,1013.4,1.3,60,-4,18000,11.112,,,30,1.4,10.8,,,,,,,,,wg-a,,,,AAXX 22064 07255 02/68 00306 10030 21040 39929 40134 53013 60006 80000 90600 333 10108 20014 60004=
07255,1997-04-22 12:00:00,13,1013.9,0.3,30,-4,20000,14.816,,31.484,60,,,,,,,,,,,wg-a,,,,AAXX 22124 07255 12/70 00608 10130 21040 39941 40139 51003 60006 80000 91200 333 91017=
07255,1997-04-22 15:00:00,13,1013.4,-0.5,33,-3,20000,22.224,,,40,,,,,,,,,,,wg-a,,,,AAXX 22154 07255 12670 40412 10130 21030 39936 40134 58005 60006 84100 91500=
07255,1997-04-22 18:00:00,11,1014.7,1.2,40,-2,25000,18.52,,,30,2.5,13.9,,,,,,,,,wg-a,,,,AAXX 22184 07255 12675 20310 10110 21020 39948 40147 53012 60006 81101 91800 333 10139 20025=
07255,1997-04-22 21:00:00,7,1017.1,2,57,-1,25000,11.112,,,50,,,,,,,,,,,wg-a,,,,AAXX 22214 07255 12/75 00506 10070 21010 39968 40171 51020 60006 80000 92100=
07255,1997-04-23 00:00:00,5,1018,0.7,60,-2,20000,11.112,,,90,,,,,,,,,,,wg-a,,,,AAXX 23004 07255 12/70 00906 10050 21020 39975 40180 51007 60006 80000 90000=
07255,1997-04-23 03:00:00,1,1018.4,0.1,80,-2,18000,3.704,,,330,,,,,,,,,,,wg-a,,,,AAXX 23034 07255 12/68 03302 10010 21020 39976 40184 53001 60006 80000 90300=
07255,1997-04-23 06:00:00,1,1019.4,1,80,-2,18000,3.704,,,330,-0.3,11.5,,,,,,,,,wg-a,,,,AAXX 23064 07255 02/68 03302 10010 21020 39986 40194 53010 60006 80000 90600 333 10115 21003 60004=
07255,1997-04-23 09:00:00,10,1019.5,0.8,46,-1,25000,7.408,,,30,,,,,,,,,,,wg-a,,,,AAXX 23094 07255 12675 /0304 10100 21010 39994 40195 51008 60006 81101 90900=
07255,1997-04-23 12:00:00,14,1018.9,-0.4,33,-2,25000,11.112,,,90,,,,,,,,,,,wg-a,,,,AAXX 23124 07255 12775 10906 10140 21020 39990 40189 58004 60006 81102 91200=
07255,1997-04-23 15:00:00,15,1018,-0.7,29,-3,25000,11.112,,,350,,,,,,,,,,,wg-a,,,,AAXX 23154 07255 12/75 13506 10150 21030 39983 40180 56007 60006 80001 91500=
07255,1997-04-23 18:00:00,14,1018.6,0.5,31,-3,25000,3.704,,,20,0.7,15.8,,,,,,,,,wg-a,,,,AAXX 23184 07255 12/75 10202 10140 21030 39988 40186 53005 60006 80001 91800 333 10158 20007=
07255,1997-04-23 21:00:00,9,1020.8,1.8,43,-3,15000,11.112,,,40,,,,,,,,,,,wg-a,,,,AAXX 23214 07255 12/65 00406 10090 21030 30006 40208 51018 60006 80000 92100=
07255,1997-04-24 00:00:00,5,1021.5,0.4,56,-3,10000,7.408,,,90,,,,,,,,,,,wg-a,,,,AAXX 24004 07255 12/60 00904 10050 21030 30010 40215 50004 60006 80000 90000=
07255,1997-04-24 03:00:00,2,1021.8,-0,69,-3,10000,3.704,,,140,,,,,,,,,,,wg-a,,,,AAXX 24034 07255 12/60 01402 10020 21030 30010 40218 55000 60006 80000 90300=
07255,1997-04-24 06:00:00,2,1022.4,0.6,75,-2,18000,7.408,,,100,0.4,14.3,,,,,,,,,wg-a,,,,AAXX 24064 07255 02/68 01004 10020 21020 30016 40224 53006 60006 80000 90600 333 10143 20004 60004=
07255,1997-04-24 12:00:00,17,1020.4,-1.3,32,0,500,7.408,,,110,,,,,,,,,,,wg-a,,,,AAXX 24124 07255 12/00 01104 10170 20000 30008 40204 57013 60006 80000 91200=
07255,1997-04-24 18:00:00,18,1018,-0.5,30,0,25000,3.704,,,290,2.2,19.7,,,,,,,,,wg-a,,,,AAXX 24184 07255 12/75 62902 10180 20000 39985 40180 56005 60006 80001 91800 333 10197 20022=
07255,1997-04-24 21:00:00,12,1019.5,1.1,47,1,25000,3.704,,,330,,,,,,,,,,,wg-a,,,,AAXX 24214 07255 12/75 63302 10120 20010 39996 40195 51011 60006 80001 92100=
07255,1997-04-25 00:00:00,5,1019.8,-0.3,75,1,25000,7.408,,,150,,,,,,,,,,,wg-a,,,,AAXX 25004 07255 12/75 61504 10050 20010 39993 40198 58003 60006 80001 90000=
07255,1997-04-25 03:00:00,3,1019.3,-0.6,87,1,20000,7.408,,,120,,,,,,,,,,,wg-a,,,,AAXX 25034 07255 12/70 61204 10030 20010 39987 40193 56006 60006 80001 90300=
07255,1997-04-25 06:00:00,6,1019.8,0.7,70,1,18000,7.408,,,90,2.6,18,,,,,,,,,wg-a,,,,AAXX 25064 07255 02/68 70904 10060 20010 39994 40198 53007 60006 81031 90600 333 10180 20026 60004=
07255,1997-04-25 09:00:00,15,1019,-0.1,48,4,25000,7.408,,,240,,,,,,,,,,,wg-a,,,,AAXX 25094 07255 12/75 72404 10150 20040 39993 40190 58001 60006 84031 90900=
07255,1997-04-25 12:00:00,20,1017,-1.7,43,7,500,14.816,,,280,,,,,,,,,,,wg-a,,,,AAXX 25124 07255 12/00 52808 10200 20070 39976 40170 58017 60006 81031 91200=
07255,1997-04-25 15:00:00,22,1015.3,-1.5,35,6,500,22.224,,,290,,,,,,,,,,,wg-a,,,,AAXX 25154 07255 12700 72912 10220 20060 39961 40153 56015 60006 82582 91500=
07255,1997-04-25 18:00:00,12,1017.4,1.4,88,10,12000,7.408,,,330,5.6,22.7,,0,,,,,,21,wg-a,,,,AAXX 25184 07255 12662 83304 10120 20100 39975 40174 51014 60007 72162 8457/ 91800 333 10227 20056=
07255,1997-04-25 21:00:00,12,1018.2,0.8,94,11,9000,3.704,,,220,,,,,,,,,,,wg-a,,,,AAXX 25214 07255 12759 82202 10120 20110 39983 40182 51008 60006 8657/ 92100=
07255,1997-04-26 00:00:00,11,1018.2,-0.1,94,10,9000,11.112,,,260,,,,1,,,,,,21,wg-a,,,,AAXX 26004 07255 02659 82606 10110 20100 39982 40182 58001 60016 72162 875// 90000 333 60017=
07255,1997-04-26 06:00:00,11,1017.5,-0.1,94,10,8000,14.816,,,230,9.8,12.6,,,,,1,,,3,wg-a,,,,AAXX 26064 07255 02358 82308 10110 20100 39975 40175 55001 60006 70362 875// 90600 333 10126 20098 60014=
07255,1997-04-26 09:00:00,14,1016.2,-1,88,12,10000,11.112,,,220,,,,,,,,,,,wg-a,,,,AAXX 26094 07255 12460 82206 10140 20120 39965 40162 58010 60006 878// 90900=
07255,1997-04-26 12:00:00,14,1014.1,-2.1,94,13,9000,7.408,,,240,,,,0,,,,,,61,wg-a,,,,AAXX 26124 07255 02459 82404 10140 20130 39944 40141 58021 60016 76162 877// 91200 333 60007=
07255,1997-04-26 15:00:00,14,1011.6,-2.4,94,13,9000,22.224,,,230,,,,2,,,,,,21,wg-a,,,,AAXX 26154 07255 12459 82312 10140 20130 39920 40116 58024 60027 72162 8773/ 91500=
07255,1997-04-26 18:00:00,13,1009.7,-1.9,94,12,25000,18.52,,,260,10.7,14.3,,,,,,,,25,wg-a,,,,AAXX 26184 07255 02475 72610 10130 20120 39901 40097 56019 61000 72586 8623/ 91800 333 10143 20107 6005=
07255,1997-04-26 21:00:00,12,1010.5,0.6,88,10,15000,25.928,,,260,,,,0,,,,,,2,wg-a,,,,AAXX 26214 07255 12465 72614 10120 20100 39907 40105 51006 60007 70262 8427/ 92100=
07255,1997-04-27 00:00:00,11,1010.1,-0.4,94,10,6000,18.52,,,250,,,,1,,,,,,61,wg-a,,,,AAXX 27004 07255 02456 82510 10110 20100 39903 40101 58004 60026 76162 877// 90000 333 60017=
07255,1997-04-27 03:00:00,10,1009.1,-1.1,100,10,11000,14.816,,,270,,,,,,,,,,,wg-a,,,,AAXX 27034 07255 32/61 /2708 10100 20100 39892 40091 55011 90300=
07255,1997-04-27 06:00:00,10,1010.7,1.6,93,9,9000,18.52,,,280,8.8,13.4,,,,,,,,21,wg-a,,,,AAXX 27064 07255 02359 72810 10100 20090 39908 40107 53016 61000 72162 877// 90600 333 10134 20088 6018=
07255,1997-04-27 09:00:00,12,1012.6,2,88,10,12000,18.52,,,280,,,,,,,,,,,wg-a,,,,AAXX 27094 07255 12462 72810 10120 20100 39928 40126 51020 60006 878// 90900=
07255,1997-04-27 12:00:00,14,1013.3,0.8,77,10,22000,22.224,,,300,,,,0,,,,,,3,wg-a,,,,AAXX 27124 07255 02472 73012 10140 20100 39936 40133 51008 60006 70386 878// 91200 333 60007=
07255,1997-04-27 18:00:00,14,1015.3,1.4,77,10,500,14.816,,,290,10.2,15.8,,,,,,,,1,wg-a,,,,AAXX 27184 07255 02500 42908 10140 20100 39956 40153 53014 60006 70186 84800 91800 333 10158 20102 61000=
07255,1997-04-27 21:00:00,10,1017.8,2.2,93,9,25000,11.112,,,260,,,,,,,,,,,wg-a,,,,AAXX 27214 07255 12675 22606 10100 20090 39978 40178 51022 60006 82500 92100=
07255,1997-04-28 00:00:00,11,1018.4,0.6,94,10,20000,14.816,,,260,,,,,,,,,,,wg-a,,,,AAXX 28004 07255 12770 72608 10110 20100 39984 40184 51006 60006 875// 90000=
07255,1997-04-28 03:00:00,11,1017.8,-0.6,94,10,500,14.816,,,230,,,,0,,,,,,61,wg-a,,,,AAXX 28034 07255 12400 82308 10110 20100 39978 40178 56006 60007 76162 875// 90300=
07255,1997-04-28 06:00:00,12,1017,-0.7,100,12,500,22.224,,,260,10,14.3,,,,,,,,50,wg-a,,,,AAXX 28064 07255 02200 82612 10120 20120 39971 40170 55007 61000 75065 877// 90600 333 10143 20100 6004=
07255,1997-04-28 12:00:00,17,1016.4,-0.9,77,13,500,22.224,,,280,,,,,,,,,,1,wg-a,,,,AAXX 28124 07255 02400 72812 10170 20130 39969 40164 56009 61000 70152 878// 91200 333 ////=
07255,1997-04-28 15:00:00,17,1015,-1.4,77,13,500,18.52,,,280,,,,,,,,,,,wg-a,,,,AAXX 28154 07255 12500 72810 10170 20130 39955 40150 58014 60006 878// 91500=
07255,1997-04-28 18:00:00,15,1015.6,0.4,72,10,25000,25.928,,,280,12,17.3,,,,,,,,1,wg-a,,,,AAXX 28184 07255 02575 72814 10150 20100 39959 40156 53004 60006 70186 875// 91800 333 10173 20120 61000=
07255,1997-04-28 21:00:00,13,1016.2,0.5,82,10,15000,29.632,,,270,,,,,,,,,,,wg-a,,,,AAXX 28214 07255 12/65 42716 10130 20100 39964 40162 52005 60006 8401/ 92100=
07255,1997-04-29 03:00:00,10,1016.6,-0.2,93,9,12000,25.928,,,280,,,,,,,,,,,wg-a,,,,AAXX 29034 07255 12462 72814 10100 20090 39966 40166 58002 60006 875// 90300=
07255,1997-04-29 06:00:00,10,1017.7,1.1,87,8,12000,18.52,,,290,10,14.6,,,,,,,,3,wg-a,,,,AAXX 29064 07255 02462 72910 10100 20080 39977 40177 53011 60006 70386 871// 90600 333 10146 20100 61000=
07255,1997-04-29 09:00:00,12,1019,1.4,82,9,18000,25.928,,,300,,,,,,,,,,,wg-a,,,,AAXX 29094 07255 12468 73014 10120 20090 39991 40190 51014 60006 878// 90900=
07255,1997-04-29 12:00:00,14,1019.3,0.4,77,10,25000,22.224,,,290,,,,,,,,,,,wg-a,,,,AAXX 29124 07255 12575 72912 10140 20100 39995 40193 51004 60006 878// 91200=
07255,1997-04-29 18:00:00,14,1019.2,-0.1,67,8,25000,18.52,,,300,10.4,15,,,,,,,,1,wg-a,,,,AAXX 29184 07255 12575 73010 10140 20080 39994 40192 58001 60006 70186 87800 91800 333 10150 20104=
07255,1997-04-29 21:00:00,12,1021.2,1.8,76,8,10000,11.112,,,280,,,,,,,,,,,wg-a,,,,AAXX 29214 07255 12660 /2806 10120 20080 30012 40212 51018 60006 86500 92100=
07255,1997-04-30 00:00:00,10,1022.1,0.7,82,7,10000,7.408,,,340,,,,,,,,,,,wg-a,,,,AAXX 30004 07255 12/60 03404 10100 20070 30019 40221 53007 60006 80000 90000=
07255,1997-04-30 03:00:00,7,1022.4,0.1,93,6,10000,0,,,0,,,,,,,,,,,wg-a,,,,AAXX 30034 07255 12760 60000 10070 20060 30020 40224 53001 60006 86500 90300=
07255,1997-04-30 06:00:00,8,1024.1,1.8,93,7,20000,0,,,0,6.6,14.1,,,,,,,,,wg-a,,,,AAXX 30064 07255 02/70 20000 10080 20070 30038 40241 53018 60006 82030 90600 333 10141 20066 61000=
07255,1997-04-30 09:00:00,14,1024.7,1,67,8,28000,7.408,,,40,,,,,,,,,,,wg-a,,,,AAXX 30094 07255 12578 /0404 10140 20080 30048 40247 51010 60006 85100 90900=
07255,1997-04-30 12:00:00,16,1024.9,0.3,59,8,40000,14.816,,,30,,,,,,,,,,,wg-a,,,,AAXX 30124 07255 12682 /0308 10160 20080 30051 40249 51003 60006 86100 91200=
07255,1997-04-30 15:00:00,18,1024.6,-0.1,52,8,500,14.816,,,50,,,,,,,,,,,wg-a,,,,AAXX 30154 07255 12600 50508 10180 20080 30050 40246 58001 60006 85800 91500=
07255,1997-04-30 18:00:00,16,1025.4,0.6,59,8,25000,22.224,,,70,8.1,18.3,,,,,,,,,wg-a,,,,AAXX 30184 07255 12/75 00712 10160 20080 30056 40254 53006 60006 80000 91800 333 10183 20081=
07255,1997-04-30 21:00:00,12,1027.3,1.6,71,7,12000,11.112,,,50,,,,,,,,,,,wg-a,,,,AAXX 30214 07255 12/62 10506 10120 20070 30072 40273 51016 60006 80001 92100=
07255,1997-05-01 00:00:00,9,1027.9,0.4,87,7,10000,7.408,,,60,,,,,,,,,,,wg-a,,,,AAXX 01004 07255 12/60 00604 10090 20070 30076 40279 51004 60006 80000 90000=
07255,1997-05-01 06:00:00,9,1028.3,0.7,87,7,6000,14.816,,,80,6.8,16,,,,,,,,,wg-a,,,,AAXX 01064 07255 02/56 00808 10090 20070 30079 40283 53007 60006 80000 90600 333 10160 20068 60004=
07255,1997-05-01 12:00:00,18,1026.5,-1.2,45,6,15000,29.632,,,80,,,,,,,,,,,wg-a,,,,AAXX 01124 07255 12/65 00816 10180 20060 30068 40265 58012 60006 80000 91200=
07255,1997-05-01 15:00:00,20,1024.6,-1.7,40,6,18000,22.224,,,80,,,,,,,,,,,wg-a,,,,AAXX 01154 07255 12/68 00812 10200 20060 30051 40246 58017 60006 80000 91500=
07255,1997-05-01 18:00:00,19,1024.3,-0.4,43,6,10000,18.52,,,60,8.8,20.4,,,,,,,,,wg-a,,,,AAXX 01184 07255 12/60 /0610 10190 20060 30047 40243 56004 60006 91800 333 10204 20088=
07255,1997-05-02 00:00:00,11,1025.9,0.2,76,7,15000,7.408,,,140,,,,,,,,,,,wg-a,,,,AAXX 02004 07255 12/65 01404 10110 20070 30057 40259 52002 60006 80000 90000=
07255,1997-05-02 03:00:00,8,1025.8,-0.2,87,6,10000,11.112,,,110,,,,,,,,,,,wg-a,,,,AAXX 02034 07255 12/60 01106 10080 20060 30055 40258 56002 60006 80000 90300=
07255,1997-05-02 06:00:00,9,1026,0.2,81,6,12000,14.816,,,100,6.5,19.3,,,,,,,,,wg-a,,,,AAXX 02064 07255 02/62 11008 10090 20060 30057 40260 53002 60006 80001 90600 333 10193 20065 60004=
07255,1997-05-02 09:00:00,17,1025.2,-0.2,59,9,15000,11.112,,,110,,,,,,,,,,,wg-a,,,,AAXX 02094 07255 12/65 01106 10170 20090 30055 40252 58002 60006 80000 90900=
07255,1997-05-02 12:00:00,21,1023,-1.9,53,11,20000,18.52,,,140,,,,,,,,,,,wg-a,,,,AAXX 02124 07255 12/70 11410 10210 20110 30036 40230 58019 60006 80001 91200=
07255,1997-05-02 15:00:00,24,1020.9,-1.9,41,10,25000,14.816,,,140,,,,,,,,,,,wg-a,,,,AAXX 02154 07255 12/75 11408 10240 20100 30017 40209 58019 60006 80001 91500=
07255,1997-05-02 18:00:00,23,1019.7,-1.2,44,10,25000,14.816,,,110,9.4,24.5,,,,,,,,,wg-a,,,,AAXX 02184 07255 12/75 11108 10230 20100 30005 40197 56012 60006 80001 91800 333 10245 20094=
07255,1997-05-02 21:00:00,18,1020.4,0.3,59,10,25000,14.816,,,90,,,,,,,,,,,wg-a,,,,AAXX 02214 07255 12/75 00908 10180 20100 30008 40204 51003 60006 80000 92100=
07255,1997-05-03 00:00:00,14,1020.6,-0.1,63,7,20000,11.112,,,110,,,,,,,,,,,wg-a,,,,AAXX 03004 07255 12/70 01106 10140 20070 30007 40206 56001 60006 80000 90000=
07255,1997-05-03 06:00:00,11,1020,-0.2,76,7,500,11.112,,,110,8,23.1,,,,,,,,,wg-a,,,,AAXX 03064 07255 02/00 11106 10110 20070 39999 40200 55002 60006 80001 90600 333 10231 20080 60004=
07255,1997-05-03 09:00:00,19,1019.2,-0.2,46,7,500,3.704,,,150,,,,,,,,,,,wg-a,,,,AAXX 03094 07255 12/00 41502 10190 20070 39997 40192 55002 60006 80002 90900=
07255,1997-05-03 12:00:00,24,1017.2,-1.6,38,9,500,7.408,,,210,,,,,,,,,,,wg-a,,,,AAXX 03124 07255 12/00 62104 10240 20090 39981 40172 58016 60006 80002 91200=
07255,1997-05-03 18:00:00,20,1016.4,0.1,64,13,25000,7.408,,,280,10.6,25.6,,,,,,,,1,wg-a,,,,AAXX 03184 07255 12775 72804 10200 20130 39971 40164 50001 60006 70186 82572 91800 333 10256 20106=
07255,1997-05-03 21:00:00,17,1017.3,0.7,77,13,25000,11.112,,,240,,,,,,,,,,,wg-a,,,,AAXX 03214 07255 12775 72406 10170 20130 39978 40173 53007 60006 83582 92100=
07255,1997-05-04 00:00:00,14,1016.9,-0.6,88,12,20000,11.112,,,250,,,,,,,,,,,wg-a,,,,AAXX 04004 07255 12/70 42506 10140 20120 39972 40169 56006 60006 80001 90000=
07255,1997-05-04 03:00:00,12,1015.8,-1.3,94,11,15000,3.704,,,240,,,,,,,,,,,wg-a,,,,AAXX 04034 07255 12/65 32402 10120 20110 39959 40158 56013 60006 80001 90300=
07255,1997-05-04 06:00:00,12,1014.9,-0.8,100,12,7000,7.408,,,240,10,20.1,,,,,,,,,wg-a,,,,AAXX 04064 07255 02257 52404 10120 20120 39951 40149 56008 60006 84601 90600 333 10201 20100 61000=
07255,1997-05-04 09:00:00,15,1013.7,-1,88,13,12000,7.408,,,280,,,,,,,,,,,wg-a,,,,AAXX 04094 07255 12462 52804 10150 20130 39941 40137 58010 60006 83101 90900=
07255,1997-05-04 12:00:00,23,1010.4,-2.7,57,14,40000,14.816,,,260,,,,,,,,,,,wg-a,,,,AAXX 04124 07255 12682 /2608 10230 20140 39914 40104 58027 60006 81131 91200=
07255,1997-05-04 18:00:00,22,1005.2,-2.2,57,13,500,11.112,,,270,11.9,24.5,,,,,,,,,wg-a,,,,AAXX 04184 07255 12700 /2706 10220 20130 39862 40052 56022 60006 81900 91800 333 10245 20119=
07255,1997-05-05 00:00:00,15,1002.2,-3.3,72,10,20000,3.704,,,300,,,,,,,,,,,wg-a,,,,AAXX 05004 07255 12770 73002 10150 20100 39828 40022 58033 60006 85532 90000=
07255,1997-05-05 03:00:00,12,1001.5,-0.9,100,12,8000,7.408,,,240,,,,14,,,,,,61,wg-a,,,,AAXX 05034 07255 12458 72404 10120 20120 39819 40015 58009 60147 76162 875// 90300=
07255,1997-05-05 06:00:00,12,1000.9,-0.6,94,11,15000,22.224,,,220,11.7,22,,3,,,18,,,21,wg-a,,,,AAXX 05064 07255 02465 72212 10120 20110 39813 40009 55006 60184 72162 878// 90600 333 10220 20117 60037=
07255,1997-05-05 09:00:00,14,1000,-0.7,82,11,25000,29.632,,,220,,,,,,,,,,,wg-a,,,,AAXX 05094 07255 12475 72216 10140 20110 39806 40000 58007 60006 872// 90900=
07255,1997-05-05 12:00:00,17,998.9,-0.9,72,12,500,25.928,,,250,,,,,,,,,,25,wg-a,,,,AAXX 05124 07255 02500 62514 10170 20120 39797 49989 58009 61000 72586 86801 91200 333 6100=
07255,1997-05-05 15:00:00,15,998.3,-0.7,82,12,18000,22.224,,,270,,,,0,,,,,,80,wg-a,,,,AAXX 05154 07255 12568 82712 10150 20120 39790 49983 56007 60007 78086 888// 91500=
07255,1997-05-05 18:00:00,15,996,-2.3,88,13,15000,22.224,,,200,11.9,19,,,,,,,,80,wg-a,,,,AAXX 05184 07255 02465 72012 10150 20130 39767 49960 58023 61000 78086 879// 91800 333 10190 20119 6004=
07255,1997-05-05 21:00:00,11,995.9,-0.3,94,10,20000,11.112,,,210,,,,,,,,,,2,wg-a,,,,AAXX 05214 07255 02570 /2106 10110 20100 39764 49959 56003 61000 70286 81100 92100 333 ////=
07255,1997-05-06 00:00:00,12,993.8,-2,88,10,15000,11.112,,,220,,,,,,,,,,3,wg-a,,,,AAXX 06004 07255 02765 82206 10120 20100 39744 49938 58020 61000 70386 875// 90000 333 ////=
07255,1997-05-06 06:00:00,9,992.6,0,87,7,40000,25.928,,42.596,240,8.9,14.7,,,,,8,,,3,wg-a,,,,AAXX 06064 07255 02482 72414 10090 20070 39730 49926 50000 60006 70362 871// 90600 333 10147 20089 60084 91023=
07255,1997-05-06 09:00:00,9,993,0.4,87,7,500,25.928,,42.596,270,,,,0,,,,,,80,wg-a,,,,AAXX 06094 07255 12400 72714 10090 20070 39734 49930 53004 60007 78086 878// 90900 333 91023=
07255,1997-05-06 12:00:00,10,993.2,0.2,82,7,20000,31.484,,55.56,270,,,,1,,,,,,81,wg-a,,,,AAXX 06124 07255 02470 72717 10100 20070 39736 49932 51002 60016 78186 879// 91200 333 60017 91030=
07255,1997-05-06 15:00:00,7,998.2,4.7,93,6,18000,29.632,,48.152,300,,,,2,,,,,,61,wg-a,,,,AAXX 06154 07255 12468 73016 10070 20060 39783 49982 52047 60027 76186 871// 91500 333 91026=
07255,1997-05-06 18:00:00,5,1002.9,4.5,87,3,1500,31.484,,,290,4.9,12.6,,,,,,,,81,wg-a,,,,AAXX 06184 07255 02315 72917 10050 20030 39828 40029 51045 61000 78186 879// 91800 333 10126 20049 6001=
07255,1997-05-07 00:00:00,2,1006.1,0,93,1,20000,7.408,,,270,,,,1,,,,,,1,wg-a,,,,AAXX 07004 07255 02/70 02704 10020 20010 39857 40061 50000 60016 70186 80000 90000 333 60017=
07255,1997-05-07 03:00:00,1,1004.7,-1.5,100,1,20000,11.112,,,170,,,,,,,,,,,wg-a,,,,AAXX 07034 07255 12770 71706 10010 20010 39842 40047 58015 60006 875// 90300=
07255,1997-05-07 06:00:00,3,1003.2,-1.3,93,2,10000,7.408,,,80,0.5,5.2,,,,,,,,61,wg-a,,,,AAXX 07064 07255 02460 70804 10030 20020 39829 40032 56013 61000 76161 877// 90600 333 10052 20005 6005=
07255,1997-05-07 09:00:00,5,1001.2,-1.8,93,4,12000,18.52,,,130,,,,4,,,,,,61,wg-a,,,,AAXX 07094 07255 12462 81310 10050 20040 39811 40012 56018 60047 76166 8/72/ 90900=
07255,1997-05-07 12:00:00,8,1001.2,0.2,81,5,25000,14.816,,,290,,,,1,,,,,,21,wg-a,,,,AAXX 07124 07255 02475 72908 10080 20050 39813 40012 53002 60046 72165 872// 91200 333 60017=
07255,1997-05-07 15:00:00,6,1003.5,2.1,75,2,500,18.52,,,320,,,,,,,,,,,wg-a,,,,AAXX 07154 07255 12500 /3210 10060 20020 39834 40035 53021 60006 86200 91500=
07255,1997-05-07 18:00:00,7,1004.6,1.2,70,2,500,11.112,,,330,3.1,8.2,,,,,,,,15,wg-a,,,,AAXX 07184 07255 12500 73306 10070 20020 39846 40046 53012 60006 71522 85801 91800 333 10082 20031=
07255,1997-05-07 21:00:00,4,1008.2,3.3,87,2,20000,7.408,,,300,,,,,,,,,,,wg-a,,,,AAXX 07214 07255 12670 /3004 10040 20020 39879 40082 53033 60006 81500 92100=
07255,1997-05-08 00:00:00,2,1009.6,1.2,93,1,15000,7.408,,,270,,,,,,,,,,,wg-a,,,,AAXX 08004 07255 12/65 02704 10020 20010 39891 40096 52012 60006 80000 90000=
07255,1997-05-08 03:00:00,1,1010,0.3,100,1,10000,11.112,,,260,,,,,,,,,,,wg-a,,,,AAXX 08034 07255 12/60 22606 10010 20010 39894 40100 53003 60006 80001 90300=
07255,1997-05-08 06:00:00,2,1010,0.1,100,2,15000,18.52,,,230,0.1,6.9,,,,,5,,,,wg-a,,,,AAXX 08064 07255 02/65 22310 10020 20020 39895 40100 53001 60006 80002 90600 333 10069 20001 60054=
07255,1997-05-08 09:00:00,9,1008.8,-0.6,71,4,500,25.928,,,250,,,,,,,,,,,wg-a,,,,AAXX 08094 07255 12500 72514 10090 20040 39889 40088 58006 60006 85232 90900=
07255,1997-05-08 12:00:00,11,1007.9,-0.8,62,4,25000,25.928,,,250,,,,,,,,,,25,wg-a,,,,AAXX 08124 07255 02675 82514 10110 20040 39881 40079 58008 61000 72586 872// 91200 333 6100=
07255,1997-05-08 15:00:00,11,1006.7,-1.1,76,7,25000,29.632,,,240,,,,,,,,,,3,wg-a,,,,AAXX 08154 07255 02675 82416 10110 20070 39870 40067 57011 61000 70386 8527/ 91500 333 ////=
07255,1997-05-08 18:00:00,11,1005.9,-0.9,82,8,500,25.928,,,230,2.3,12.5,,,,,,,,3,wg-a,,,,AAXX 08184 07255 12400 72314 10110 20080 39861 40059 58009 60006 70386 8377/ 91800 333 10125 20023=
07255,1997-05-09 00:00:00,10,1004.5,-0.6,93,9,6000,14.816,,,280,,,,5,,,,,,63,wg-a,,,,AAXX 09004 07255 02356 82808 10100 20090 39847 40045 55006 60066 76386 875// 90000 333 60057=
07255,1997-05-09 03:00:00,9,1003.9,-0.7,87,7,12000,18.52,,,270,,,,4,,,,,,1,wg-a,,,,AAXX 09034 07255 12462 62710 10090 20070 39840 40039 56007 60047 70162 83801 90300=
07255,1997-05-09 06:00:00,9,1004.8,0.9,93,8,12000,22.224,,,240,8.3,10.7,,,,,,,,25,wg-a,,,,AAXX 09064 07255 02462 82412 10090 20080 39849 40048 53009 61000 72586 872// 90600 333 10107 20083 6012=
07255,1997-05-09 09:00:00,12,1005.9,1.3,71,7,40000,29.632,,,270,,,,,,,,,,3,wg-a,,,,AAXX 09094 07255 02482 62716 10120 20070 39862 40059 51013 61000 70362 84231 90900 333 ////=
07255,1997-05-09 12:00:00,14,1006.7,0.9,58,6,35000,29.632,,,270,,,,,,,,,,16,wg-a,,,,AAXX 09124 07255 02581 72716 10140 20060 39871 40067 51009 61000 71687 879// 91200 333 6100=
07255,1997-05-09 15:00:00,14,1008.2,1.5,67,8,35000,25.928,,,260,,,,4,,,,,,25,wg-a,,,,AAXX 09154 07255 12681 62614 10140 20080 39886 40082 50015 60047 72586 86900 91500=
07255,1997-05-09 18:00:00,12,1009.9,1.5,76,8,35000,22.224,,,260,8.8,15,,3,,,,,,29,wg-a,,,,AAXX 09184 07255 02681 22612 10120 20080 39901 40099 51015 60006 72998 82900 91800 333 10150 20088 60037=
07255,1997-05-09 21:00:00,10,1012.5,2.4,82,7,500,18.52,,,260,,,,,,,,,,,wg-a,,,,AAXX 09214 07255 12600 32610 10100 20070 39925 40125 53024 60006 83500 92100=
07255,1997-05-10 00:00:00,8,1013.7,1.1,93,7,25000,18.52,,,230,,,,,,,,,,,wg-a,,,,AAXX 10004 07255 12/75 /2310 10080 20070 39936 40137 51011 60006 80000 90000=
07255,1997-05-10 03:00:00,8,1013.5,-0.2,93,7,18000,18.52,,,210,,,,,,,,,,,wg-a,,,,AAXX 10034 07255 12668 22110 10080 20070 39934 40135 56002 60006 82500 90300=
07255,1997-05-10 06:00:00,9,1013.3,-0.1,93,8,12000,18.52,,,210,7.2,11.8,,,,,6,,,1,wg-a,,,,AAXX 10064 07255 02662 32110 10090 20080 39933 40133 56001 60006 70186 83530 90600 333 10118 20072 60064=
07255,1997-05-10 09:00:00,12,1013.4,0.3,82,9,18000,22.224,,,230,,,,,,,,,,,wg-a,,,,AAXX 10094 07255 12468 82312 10120 20090 39936 40134 50003 60006 878// 90900=
07255,1997-05-10 12:00:00,17,1011.9,-1.1,63,10,25000,25.928,,,230,,,,,,,,,,,wg-a,,,,AAXX 10124 07255 12575 72314 10170 20100 39925 40119 58011 60006 85831 91200=
07255,1997-05-10 15:00:00,18,1010.7,-1.1,59,10,25000,25.928,,,230,,,,,,,,,,,wg-a,,,,AAXX 10154 07255 12675 72314 10180 20100 39914 40107 58011 60006 8383/ 91500=
07255,1997-05-10 18:00:00,14,1010.3,-0.7,82,11,20000,14.816,,,240,9.3,18.6,,0,,,,,,29,wg-a,,,,AAXX 10184 07255 02570 82408 10140 20110 39907 40103 56007 60006 72998 8697/ 91800 333 10186 20093 60007=
07255,1997-05-10 21:00:00,13,1011.3,0.9,94,12,20000,14.816,,,170,,,,,,,,,,60,wg-a,,,,AAXX 10214 07255 32/70 /1708 10130 20120 39916 40113 53009 76062 92100=
07255,1997-05-11 00:00:00,13,1011.9,0.6,88,11,15000,14.816,,,200,,,,0,,,,,,21,wg-a,,,,AAXX 11004 07255 02765 82008 10130 20110 39922 40119 53006 60006 72162 8652/ 90000 333 60007=
07255,1997-05-11 03:00:00,12,1011.3,-0.7,88,10,15000,14.816,,,200,,,,,,,,,,,wg-a,,,,AAXX 11034 07255 12765 82008 10120 20100 39915 40113 55007 60006 8353/ 90300=
07255,1997-05-11 06:00:00,11,1011.9,0.5,94,10,8000,14.816,,,200,10.8,14.3,,,,,,,,61,wg-a,,,,AAXX 11064 07255 02758 82008 10110 20100 39920 40119 53005 61000 76162 8552/ 90600 333 10143 20108 6002=
07255,1997-05-11 09:00:00,11,1012.5,0.6,94,10,9000,11.112,,,220,,,,2,,,,,,61,wg-a,,,,AAXX 11094 07255 12659 82206 10110 20100 39926 40125 51006 60027 76166 8557/ 90900=
07255,1997-05-11 12:00:00,11,1013.2,0.8,100,11,13000,11.112,,,260,,,,3,,,,,,61,wg-a,,,,AAXX 11124 07255 02563 82606 10110 20110 39934 40132 51008 60056 76166 8587/ 91200 333 60037=
07255,1997-05-11 18:00:00,12,1015.2,1,94,11,25000,14.816,,,230,10.7,12.2,,0,,,,,,3,wg-a,,,,AAXX 11184 07255 12475 72308 10120 20110 39954 40152 53010 60007 70362 858/1 91800 333 10122 20107=
07255,1997-05-11 21:00:00,9,1018.2,2.6,93,8,25000,11.112,,,220,,,,,,,,,,,wg-a,,,,AAXX 11214 07255 12675 32206 10090 20080 39980 40182 53026 60006 81501 92100=
07255,1997-05-12 00:00:00,13,1018.8,0.7,77,9,25000,11.112,,,230,,,,,,,,,,,wg-a,,,,AAXX 12004 07255 12/75 32306 10130 20090 39987 40188 53007 60006 8/200 90000=
07255,1997-05-12 03:00:00,6,1020.4,0.9,93,5,20000,7.408,,,210,,,,,,,,,,,wg-a,,,,AAXX 12034 07255 12/70 52104 10060 20050 30000 40204 52009 60006 82031 90300=
07255,1997-05-12 06:00:00,8,1021.5,1.2,93,7,18000,7.408,,,190,5.6,12,,,,,10,,,,wg-a,,,,AAXX 12064 07255 02/68 21904 10080 20070 30012 40215 53012 60006 81031 90600 333 10120 20056 60104=
07255,1997-05-12 09:00:00,14,1022.5,1.4,72,9,25000,11.112,,,200,,,,,,,,,,,wg-a,,,,AAXX 12094 07255 12475 /2006 10140 20090 30026 40225 51014 60006 85200 90900=
07255,1997-05-12 10:00:00,16,1021.1,-0.3,59,8,500,1.852,,,220,7.6,17.7,,,,,,,,,wg-a,,,,AAXX 12104 07255 12600 72201 10160 20080 30014 40211 56003 60006 878// 91000 333 10177 20076=
07255,1997-05-12 12:00:00,17,1022.1,-0.2,55,8,500,7.408,,,220,,,,,,,,,,,wg-a,,,,AAXX 12124 07255 12600 52204 10170 20080 30024 40221 58002 60006 84230 91200=
07255,1997-05-12 15:00:00,17,1021.3,-0.7,52,7,500,7.408,,,210,,,,,,,,,,,wg-a,,,,AAXX 12154 07255 12600 72104 10170 20070 30017 40213 58007 60006 8323/ 91500=
07255,1997-05-12 18:00:00,16,1021.1,-0.3,59,8,500,3.704,,,220,7.6,17.7,,,,,,,,,wg-a,,,,AAXX 12184 07255 12600 72202 10160 20080 30014 40211 56003 60006 878// 91800 333 10177 20076=
07255,1997-05-12 21:00:00,13,1022.1,0.8,82,10,15000,3.704,,,150,,,,,,,,,,,wg-a,,,,AAXX 12214 07255 12765 61502 10130 20100 30022 40221 51008 60006 86500 92100=
07255,1997-05-13 00:00:00,11,1022.1,-0.1,94,10,10000,7.408,,,110,,,,,,,,,,,wg-a,,,,AAXX 13004 07255 12760 51104 10110 20100 30021 40221 58001 60006 85500 90000=
07255,1997-05-13 03:00:00,10,1021.6,-0.6,93,9,10000,11.112,,,90,,,,,,,,,,,wg-a,,,,AAXX 13034 07255 12760 40906 10100 20090 30015 40216 58006 60006 815/1 90300=
07255,1997-05-13 06:00:00,10,1021.9,0.3,100,10,12000,7.408,,,120,9.2,16.3,,,,,,,,,wg-a,,,,AAXX 13064 07255 02762 61204 10100 20100 30018 40219 53003 60006 865/2 90600 333 10163 20092 60004=
07255,1997-05-13 09:00:00,14,1021.1,-0.5,94,13,8000,7.408,,,120,,,,,,,,,,,wg-a,,,,AAXX 13094 07255 12258 71204 10140 20130 30013 40211 58005 60006 878// 90900=
07255,1997-05-13 12:00:00,17,1019.9,-1,82,14,10000,3.704,,,60,,,,1,,,,,,60,wg-a,,,,AAXX 13124 07255 02460 70602 10170 20140 30003 40199 58010 60016 76062 878// 91200 333 60017=
07255,1997-05-13 15:00:00,21,1016.9,-2.7,60,13,500,14.816,,,110,,,,,,,,,,3,wg-a,,,,AAXX 13154 07255 02500 71108 10210 20130 39976 40169 58027 61000 70362 84932 91500 333 ////=
07255,1997-05-13 18:00:00,13,1017.6,0.2,94,12,15000,14.816,,,30,10.3,22.2,,,,,,,,80,wg-a,,,,AAXX 13184 07255 02465 70308 10130 20120 39978 40176 53002 61000 78096 879// 91800 333 10222 20103 6002=
07255,1997-05-13 21:00:00,13,1018.9,1.3,100,13,6000,11.112,,,250,,,,4,,,,,,63,wg-a,,,,AAXX 13214 07255 12356 82506 10130 20130 39991 40189 53013 60047 76396 885// 92100=
07255,1997-05-14 00:00:00,12,1019.5,0.5,100,12,9000,11.112,,,300,,,,1,,,,,,3,wg-a,,,,AAXX 14004 07255 02359 83006 10120 20120 39996 40195 53005 60056 70396 885// 90000 333 60017=
07255,1997-05-14 03:00:00,11,1020.3,0.7,100,11,8000,7.408,,,240,,,,,,,,,,,wg-a,,,,AAXX 14034 07255 12358 72404 10110 20110 30003 40203 53007 60006 875// 90300=
07255,1997-05-14 06:00:00,11,1021.4,1.1,100,11,4000,7.408,,,330,10.8,14,,,,,8,,,10,wg-a,,,,AAXX 14064 07255 02240 83304 10110 20110 30014 40214 53011 60006 71022 877// 90600 333 10140 20108 60084=
07255,1997-05-14 09:00:00,13,1022.4,1.1,94,12,18000,7.408,,,30,,,,0,,,,,,60,wg-a,,,,AAXX 14094 07255 12268 80304 10130 20120 30025 40224 51011 60007 76062 8487/ 90900=
07255,1997-05-14 12:00:00,14,1021.7,-0.6,94,13,15000,11.112,,,80,,,,1,,,,,,61,wg-a,,,,AAXX 14124 07255 02465 80806 10140 20130 30019 40217 58006 60026 76162 8682/ 91200 333 60017=
07255,1997-05-14 15:00:00,16,1020,-1.5,82,13,25000,14.816,,,80,,,,,,,,,,3,wg-a,,,,AAXX 14154 07255 02575 70808 10160 20130 30004 40200 56015 61000 70362 82282 91500 333 ////=
07255,1997-05-14 18:00:00,16,1019.8,-0.2,72,11,500,11.112,,,70,11.4,16.9,,,,,,,,1,wg-a,,,,AAXX 14184 07255 12500 70706 10160 20110 30002 40198 55002 60006 70162 81832 91800 333 10169 20114=
07255,1997-05-14 21:00:00,14,1020.2,0.2,88,12,18000,11.112,,,50,,,,1,,,,,,21,wg-a,,,,AAXX 14214 07255 12768 70506 10140 20120 30004 40202 52002 60017 72162 8557/ 92100=
07255,1997-05-15 00:00:00,14,1018.6,-1.6,88,12,18000,22.224,,,90,,,,,,,,,,1,wg-a,,,,AAXX 15004 07255 12768 70912 10140 20120 39988 40186 58016 60016 70162 83532 90000=
07255,1997-05-15 03:00:00,13,1016.6,-2,88,11,18000,18.52,,,90,,,,,,,,,,,wg-a,,,,AAXX 15034 07255 12768 70910 10130 20110 39968 40166 58020 60006 81532 90300=
07255,1997-05-15 06:00:00,13,1016.1,-0.5,88,11,25000,22.224,,,110,12,16.4,,,,,2,,,,wg-a,,,,AAXX 15064 07255 02775 71112 10130 20110 39963 40161 56005 60006 81532 90600 333 10164 20120 60024=
07255,1997-05-15 09:00:00,19,1015.4,-0.2,83,16,25000,18.52,,,160,,,,,,,,,,,wg-a,,,,AAXX 15094 07255 12475 /1610 10190 20160 39961 40154 56002 60006 81182 90900=
07255,1997-05-15 12:00:00,23,1014.3,-0.8,65,16,25000,11.112,,,130,,,,,,,,,,,wg-a,,,,AAXX 15124 07255 12575 /1306 10230 20160 39953 40143 58008 60006 81232 91200=
07255,1997-05-15 15:00:00,24,1013.1,-1.2,57,15,25000,7.408,,,150,,,,,,,,,,,wg-a,,,,AAXX 15154 07255 12/75 71504 10240 20150 39941 40131 58012 60006 84082 91500=
07255,1997-05-15 18:00:00,22,1012.5,-0.7,65,15,25000,11.112,,,10,13.2,24.8,,,,,,,,,wg-a,,,,AAXX 15184 07255 12/75 70106 10220 20150 39934 40125 56007 60006 83082 91800 333 10248 20132=
07255,1997-05-15 21:00:00,17,1014,1.1,88,15,20000,7.408,,,320,,,,5,,,,,,17,wg-a,,,,AAXX 15214 07255 12670 73204 10170 20150 39945 40140 53011 60057 71796 8396/ 92100=
07255,1997-05-16 00:00:00,16,1013.6,-0.4,94,15,15000,11.112,,,150,,,,,,,,,,21,wg-a,,,,AAXX 16004 07255 02765 71506 10160 20150 39941 40136 58004 60056 72196 8253/ 90000 333 61000=
07255,1997-05-16 03:00:00,15,1012.6,-1,100,15,20000,11.112,,,100,,,,,,,,,,,wg-a,,,,AAXX 16034 07255 12770 81006 10150 20150 39931 40126 56010 60006 8557/ 90300=
07255,1997-05-16 06:00:00,16,1012.6,-0,88,14,20000,18.52,,,120,15,22.2,,,,,5,,,,wg-a,,,,AAXX 16064 07255 02770 81210 10160 20140 39931 40126 55000 60006 81572 90600 333 10222 20150 60054=
07255,1997-05-16 09:00:00,21,1013.1,0.8,69,15,40000,14.816,,,130,,,,,,,,,,,wg-a,,,,AAXX 16094 07255 12782 71308 10210 20150 39939 40131 51008 60006 82532 90900=
07255,1997-05-16 12:00:00,24,1012.6,-0.3,50,13,40000,14.816,,,180,,,,,,,,,,,wg-a,,,,AAXX 16124 07255 12782 71808 10240 20130 39936 40126 58003 60006 82132 91200=
07255,1997-05-16 15:00:00,25,1010.9,-1.6,47,13,40000,18.52,,,210,,,,,,,,,,,wg-a,,,,AAXX 16154 07255 12782 72110 10250 20130 39920 40109 58016 60006 82932 91500=
07255,1997-05-16 18:00:00,20,1011.7,0.5,78,16,35000,14.816,,,100,15.8,25.7,,,,,,,,,wg-a,,,,AAXX 16184 07255 12781 71008 10200 20160 39925 40117 53005 60006 875// 91800 333 10257 20158=
07255,1997-05-16 21:00:00,18,1012.6,0.8,83,15,500,7.408,,,90,,,,,,,,,,,wg-a,,,,AAXX 16214 07255 12/00 60904 10180 20150 39933 40126 53008 60006 83032 92100=
07255,1997-05-17 00:00:00,16,1012.1,-0.7,94,15,20000,11.112,,,150,,,,,,,,,,,wg-a,,,,AAXX 17004 07255 12/70 71506 10160 20150 39926 40121 58007 60006 8703/ 90000=
07255,1997-05-17 03:00:00,15,1011.9,-0.3,82,12,18000,14.816,,,130,,,,,,,,,,,wg-a,,,,AAXX 17034 07255 12/68 71308 10150 20120 39923 40119 57003 60006 8703/ 90300=
07255,1997-05-17 06:00:00,15,1012.2,0.3,82,12,18000,11.112,,,130,12.7,20,,,,,,,,,wg-a,,,,AAXX 17064 07255 02/68 51306 10150 20120 39926 40122 53003 60006 83082 90600 333 10200 20127 60004=
07255,1997-05-17 09:00:00,21,1012.2,0.4,60,13,25000,14.816,,,190,,,,,,,,,,,wg-a,,,,AAXX 17094 07255 12/75 51908 10210 20130 39930 40122 51004 60006 81031 90900=
07255,1997-05-17 12:00:00,22,1012.2,0.1,57,13,25000,14.816,,,250,,,,,,,,,,,wg-a,,,,AAXX 17124 07255 12675 72508 10220 20130 39931 40122 52001 60006 8388/ 91200=
07255,1997-05-17 15:00:00,20,1012.4,0.1,68,14,25000,18.52,,,210,,,,,,,,,,60,wg-a,,,,AAXX 17154 07255 02675 82110 10200 20140 39932 40124 52001 61000 76062 8281/ 91500 333 ////=
07255,1997-05-17 18:00:00,14,1012.9,0.1,94,13,20000,3.704,,,270,14.2,23.5,,,,,,,,21,wg-a,,,,AAXX 17184 07255 02570 72702 10140 20130 39933 40129 50001 61000 72162 8387/ 91800 333 10235 20142 6001=
07255,1997-05-18 00:00:00,13,1013.8,0.2,100,13,20000,7.408,,,220,,,,,,,,,,,wg-a,,,,AAXX 18004 07255 12770 62204 10130 20130 39941 40138 50002 60006 8457/ 90000=
07255,1997-05-18 03:00:00,13,1013.9,-0,94,12,15000,3.704,,,240,,,,,,,,,,,wg-a,,,,AAXX 18034 07255 12765 72402 10130 20120 39941 40139 55000 60006 875// 90300=
07255,1997-05-18 06:00:00,13,1014.3,0.4,94,12,15000,11.112,,,210,12.5,14.3,,,,,1,,,2,wg-a,,,,AAXX 18064 07255 02465 72106 10130 20120 39945 40143 53004 60006 70262 84132 90600 333 10143 20125 60014=
07255,1997-05-18 09:00:00,15,1014.6,0.4,77,11,35000,11.112,,,260,,,,,,,,,,,wg-a,,,,AAXX 18094 07255 12581 72606 10150 20110 39949 40146 50004 60006 86232 90900=
07255,1997-05-18 12:00:00,17,1013.7,-0.7,68,11,40000,11.112,,,260,,,,,,,,,,,wg-a,,,,AAXX 18124 07255 12582 72606 10170 20110 39942 40137 58007 60006 878// 91200=
07255,1997-05-18 18:00:00,21,1010.7,-1.5,49,10,35000,7.408,,,20,12.8,20.7,,,,,,,,,wg-a,,,,AAXX 18184 07255 12681 /0204 10210 20100 39915 40107 56015 60006 81204 91800 333 10207 20128=
07255,1997-05-18 19:00:00,19,1010.7,-1.5,60,11,35000,7.408,,,20,,20.7,,,,,,,,,wg-a,,,,AAXX 18194 07255 12/81 /0204 10190 20110 39915 40107 56015 60006 91900 333 10207=
07255,1997-05-18 21:00:00,15,1011.4,0.3,82,12,35000,11.112,,,110,,,,,,,,,,,wg-a,,,,AAXX 18214 07255 12/81 61106 10150 20120 39918 40114 53003 60006 82051 92100=
07255,1997-05-19 00:00:00,13,1010.1,-1.3,88,11,25000,14.816,,,100,,,,,,,,,,,wg-a,,,,AAXX 19004 07255 12/75 61008 10130 20110 39905 40101 58013 60006 82031 90000=
07255,1997-05-19 03:00:00,12,1008.5,-1.7,94,11,25000,14.816,,,100,,,,,,,,,,,wg-a,,,,AAXX 19034 07255 12/75 71008 10120 20110 39888 40085 58017 60006 81031 90300=
07255,1997-05-19 06:00:00,13,1007.5,-0.9,88,11,25000,14.816,,,110,11.1,20.5,,,,,,,,,wg-a,,,,AAXX 19064 07255 02/75 71108 10130 20110 39879 40075 58009 60006 83052 90600 333 10205 20111 60004=
07255,1997-05-19 12:00:00,18,1009.7,0.8,73,13,500,11.112,,,240,,,,,,,,,,,wg-a,,,,AAXX 19124 07255 12500 72406 10180 20130 39904 40097 53008 60006 878// 91200=
07255,1997-05-19 15:00:00,20,1008.6,-1,64,13,500,14.816,,,210,,,,0,,,,,,3,wg-a,,,,AAXX 19154 07255 12500 72108 10200 20130 39894 40086 57010 60007 70362 84832 91500=
07255,1997-05-19 18:00:00,18,1008.2,-0.5,73,13,25000,7.408,,,150,12.8,20.3,,0,,,,,,1,wg-a,,,,AAXX 19184 07255 02575 /1504 10180 20130 39889 40082 58005 60006 70186 8583/ 91800 333 10203 20128 60007=
07255,1997-05-19 21:00:00,14,1009.4,0.9,94,13,25000,7.408,,,150,,,,,,,,,,,wg-a,,,,AAXX 19214 07255 12775 61504 10140 20130 39898 40094 52009 60006 83532 92100=
07255,1997-05-20 00:00:00,13,1008.4,-1.1,94,12,20000,11.112,,,150,,,,,,,,,,,wg-a,,,,AAXX 20004 07255 12770 61506 10130 20120 39887 40084 58011 60006 83532 90000=
07255,1997-05-20 03:00:00,13,1008.2,-0.2,88,11,12000,14.816,,,220,,,,0,,,,,,61,wg-a,,,,AAXX 20034 07255 12762 82208 10130 20110 39885 40082 58002 60007 76162 8657/ 90300=
07255,1997-05-20 06:00:00,13,1008.5,0.4,88,11,20000,14.816,,,190,11.3,17.8,,,,,2,,,3,wg-a,,,,AAXX 20064 07255 02570 71908 10130 20110 39889 40085 52004 60006 70362 8687/ 90600 333 10178 20113 60024=
07255,1997-05-20 09:00:00,15,1009.4,1,77,11,25000,29.632,,,250,,,,0,,,,,,3,wg-a,,,,AAXX 20094 07255 12475 /2516 10150 20110 39899 40094 51010 60007 70361 85230 90900=
07255,1997-05-20 12:00:00,18,1008.7,-0.5,59,10,15000,31.484,,,240,,,,,,,,,,80,wg-a,,,,AAXX 20124 07255 02565 52417 10180 20100 39894 40087 58005 60006 78086 84901 91200 333 61000=
07255,1997-05-20 15:00:00,17,1008.7,-0.1,68,11,15000,25.928,,,270,,,,0,,,,,,25,wg-a,,,,AAXX 20154 07255 12665 62714 10170 20110 39893 40087 58001 60007 72586 8/933 91500=
07255,1997-05-20 18:00:00,15,1009.8,1,72,10,25000,29.632,,,260,12.8,18.3,,1,,,,,,1,wg-a,,,,AAXX 20184 07255 02675 72616 10150 20100 39903 40098 51010 60006 70186 85801 91800 333 10183 20128 60017=
07255,1997-05-20 21:00:00,14,1011,1.1,77,10,20000,18.52,,,260,,,,,,,,,,,wg-a,,,,AAXX 20214 07255 12570 72610 10140 20100 39914 40110 51011 60006 878// 92100=
07255,1997-05-21 00:00:00,13,1011.5,0.4,82,10,20000,22.224,,,250,,,,,,,,,,,wg-a,,,,AAXX 21004 07255 12570 72512 10130 20100 39918 40115 53004 60006 878// 90000=
07255,1997-05-21 03:00:00,12,1011.2,-0.4,88,10,20000,22.224,,,250,,,,,,,,,,,wg-a,,,,AAXX 21034 07255 12770 72512 10120 20100 39914 40112 57004 60006 875// 90300=
07255,1997-05-21 06:00:00,12,1011.1,-0,88,10,12000,25.928,,,250,11.5,15.2,,,,,,,,60,wg-a,,,,AAXX 21064 07255 02462 82514 10120 20100 39914 40111 55000 61000 76086 888// 90600 333 10152 20115 6001=
07255,1997-05-21 12:00:00,14,1012.4,0.5,88,12,500,29.632,,,260,,,,0,,,,,,61,wg-a,,,,AAXX 21124 07255 02400 72616 10140 20120 39928 40124 51005 60016 76186 878// 91200 333 60007=
07255,1997-05-21 15:00:00,17,1011.9,-0.4,63,10,25000,29.632,,50.004,270,,,,0,,,,,,25,wg-a,,,,AAXX 21154 07255 12575 52716 10170 20100 39924 40119 55004 60007 72586 84302 91500 333 91027=
07255,1997-05-21 18:00:00,13,1013.4,1.3,94,12,25000,7.408,,,290,11.2,17.7,,12,,,,,,29,wg-a,,,,AAXX 21184 07255 02575 72904 10130 20120 39937 40134 52013 60006 72998 878// 91800 333 10177 20112 60127=
07255,1997-05-22 00:00:00,11,1016,0.5,100,11,15000,7.408,,,300,,,,,,,,,,3,wg-a,,,,AAXX 22004 07255 02465 83004 10110 20110 39961 40160 51005 61000 70362 875// 90000 333 ////=
07255,1997-05-22 03:00:00,11,1015.9,-0.1,100,11,10000,11.112,,,270,,,,4,,,,,,,wg-a,,,,AAXX 22034 07255 12260 82706 10110 20110 39960 40159 56001 60047 875// 90300=
07255,1997-05-22 06:00:00,11,1016.7,0.8,94,10,8000,11.112,,,280,10.7,13.9,,,,,17,,,3,wg-a,,,,AAXX 22064 07255 02258 82806 10110 20100 39968 40167 53008 60006 70362 877// 90600 333 10139 20107 60174=
07255,1997-05-22 09:00:00,13,1017.7,1.1,88,11,18000,14.816,,,270,,,,,,,,,,,wg-a,,,,AAXX 22094 07255 12468 72708 10130 20110 39979 40177 52011 60006 878// 90900=
07255,1997-05-22 12:00:00,16,1017.2,-0.3,77,12,25000,11.112,,,250,,,,,,,,,,,wg-a,,,,AAXX 22124 07255 12575 72506 10160 20120 39976 40172 58003 60006 86801 91200=
07255,1997-05-22 18:00:00,18,1015.7,-0.3,52,8,500,11.112,,,280,10.9,18.8,,,,,,,,,wg-a,,,,AAXX 22184 07255 12600 /2806 10180 20080 39962 40157 57003 60006 85800 91800 333 10188 20109=
07255,1997-05-22 21:00:00,13,1016.9,0.9,77,9,15000,3.704,,,300,,,,,,,,,,,wg-a,,,,AAXX 22214 07255 12765 13002 10130 20090 39971 40169 51009 60006 81500 92100=
07255,1997-05-23 00:00:00,10,1016.5,-0.6,87,8,10000,7.408,,,130,,,,,,,,,,,wg-a,,,,AAXX 23004 07255 12/60 11304 10100 20080 39965 40165 56006 60006 80001 90000=
07255,1997-05-23 03:00:00,10,1015.9,-0.6,93,9,10000,7.408,,,90,,,,,,,,,,,wg-a,,,,AAXX 23034 07255 12/60 70904 10100 20090 39959 40159 57006 60006 80002 90300=
07255,1997-05-23 06:00:00,11,1016.4,0.5,94,10,10000,7.408,,,110,8.3,17.5,,,,,,,,,wg-a,,,,AAXX 23064 07255 02/60 31104 10110 20100 39964 40164 53005 60006 80002 90600 333 10175 20083 60004=
07255,1997-05-23 09:00:00,17,1016,0.1,68,11,40000,7.408,,,90,,,,,,,,,,,wg-a,,,,AAXX 23094 07255 12582 70904 10170 20110 39965 40160 50001 60006 81252 90900=
07255,1997-05-23 12:00:00,20,1015.5,-0.3,53,10,35000,11.112,,,110,,,,,,,,,,,wg-a,,,,AAXX 23124 07255 12681 71106 10200 20100 39962 40155 56003 60006 84101 91200=
07255,1997-05-23 15:00:00,20,1014.9,-0.6,56,11,40000,18.52,,,100,,,,,,,,,,,wg-a,,,,AAXX 23154 07255 12682 71010 10200 20110 39956 40149 56006 60006 82108 91500=
07255,1997-05-23 18:00:00,19,1014.7,-0.3,56,10,40000,22.224,,,70,10.5,20.6,,,,,,,,,wg-a,,,,AAXX 23184 07255 12682 70712 10190 20100 39953 40147 58003 60006 81139 91800 333 10206 20105=
07255,1997-05-23 21:00:00,16,1015.7,0.8,77,12,500,22.224,,,70,,,,,,,,,,,wg-a,,,,AAXX 23214 07255 12/00 70712 10160 20120 39961 40157 51008 60006 81032 92100=
07255,1997-05-24 00:00:00,14,1016,0.1,77,10,500,22.224,,,70,,,,,,,,,,,wg-a,,,,AAXX 24004 07255 12/00 60712 10140 20100 39962 40160 50001 60006 80002 90000=
07255,1997-05-24 03:00:00,13,1015.8,-0.2,82,10,20000,22.224,,,70,,,,,,,,,,,wg-a,,,,AAXX 24034 07255 12/70 60712 10130 20100 39960 40158 58002 60006 80002 90300=
07255,1997-05-24 06:00:00,13,1016.6,0.8,82,10,15000,18.52,,,70,12.1,19.1,,,,,,,,,wg-a,,,,AAXX 24064 07255 02/65 70710 10130 20100 39968 40166 53008 60006 81032 90600 333 10191 20121 60004=
07255,1997-05-24 09:00:00,18,1017,0.7,68,12,18000,25.928,,,60,,,,,,,,,,,wg-a,,,,AAXX 24094 07255 12/68 70614 10180 20120 39975 40170 53007 60006 82032 90900=
07255,1997-05-24 12:00:00,19,1017.5,0.6,64,12,20000,25.928,,,70,,,,,,,,,,,wg-a,,,,AAXX 24124 07255 12670 80714 10190 20120 39981 40175 53006 60006 81132 91200=
07255,1997-05-24 15:00:00,20,1018,0.5,60,12,22000,22.224,,,60,,,,,,,,,,,wg-a,,,,AAXX 24154 07255 12772 80612 10200 20120 39986 40180 51005 60006 8357/ 91500=
07255,1997-05-24 18:00:00,18,1018.9,0.8,64,11,20000,22.224,,,60,13.3,20.1,,,,,,,,60,wg-a,,,,AAXX 24184 07255 02670 80612 10180 20110 39994 40189 52008 61000 76062 8587/ 91800 333 10201 20133 6100=
07255,1997-05-25 00:00:00,15,1020.4,0.1,59,7,20000,22.224,,,70,,,,,,,,,,1,wg-a,,,,AAXX 25004 07255 02/70 60712 10150 20070 30007 40204 51001 61000 70162 86030 90000 333 ////=
07255,1997-05-25 03:00:00,12,1020.9,0.2,67,6,20000,22.224,,,70,,,,,,,,,,,wg-a,,,,AAXX 25034 07255 12/70 70712 10120 20060 30009 40209 53002 60006 83031 90300=
07255,1997-05-25 06:00:00,13,1021.4,0.5,67,7,500,14.816,,,80,11.2,17.8,,,,,,,,,wg-a,,,,AAXX 25064 07255 02/00 60808 10130 20070 30014 40214 53005 60006 80001 90600 333 10178 20112 61000=
07255,1997-05-25 09:00:00,17,1021,-0,59,9,25000,18.52,,,80,,,,,,,,,,,wg-a,,,,AAXX 25094 07255 12/75 50810 10170 20090 30014 40210 54000 60006 80002 90900=
07255,1997-05-25 12:00:00,21,1019.9,-0.8,49,10,500,25.928,,,80,,,,,,,,,,,wg-a,,,,AAXX 25124 07255 12/00 50814 10210 20100 30006 40199 58008 60006 80002 91200=
07255,1997-05-25 15:00:00,22,1019.3,-0.5,50,11,500,25.928,,,70,,,,,,,,,,,wg-a,,,,AAXX 25154 07255 12/00 50714 10220 20110 30001 40193 58005 60006 80002 91500=
07255,1997-05-25 18:00:00,21,1020,0.5,43,8,35000,22.224,,,60,12.5,22.2,,,,,,,,,wg-a,,,,AAXX 25184 07255 12/81 50612 10210 20080 30006 40200 53005 60006 80002 91800 333 10222 20125=
07255,1997-05-25 21:00:00,16,1021.6,1.3,55,7,500,14.816,,,60,,,,,,,,,,,wg-a,,,,AAXX 25214 07255 12/00 40608 10160 20070 30019 40216 53013 60006 80002 92100=
07255,1997-05-26 00:00:00,14,1022.1,0.3,55,5,25000,18.52,,,80,,,,,,,,,,,wg-a,,,,AAXX 26004 07255 12/75 00810 10140 20050 30022 40221 53003 60006 80000 90000=
07255,1997-05-26 06:00:00,13,1022,0.4,58,5,40000,14.816,,,100,10.5,20.7,,,,,,,,,wg-a,,,,AAXX 26064 07255 02/82 31008 10130 20050 30021 40220 50004 60006 80001 90600 333 10207 20105 60004=
07255,1997-05-26 09:00:00,19,1022.2,0.5,43,6,40000,25.928,,,90,,,,,,,,,,,wg-a,,,,AAXX 26094 07255 12/82 30914 10190 20060 30026 40222 50005 60006 80001 90900=
07255,1997-05-26 12:00:00,22,1021.5,-0.4,35,6,40000,18.52,,,90,,,,,,,,,,,wg-a,,,,AAXX 26124 07255 12/82 50910 10220 20060 30022 40215 58004 60006 80001 91200=
07255,1997-05-26 15:00:00,23,1020.3,-1.1,27,3,40000,14.816,,,90,,,,,,,,,,,wg-a,,,,AAXX 26154 07255 12/82 20908 10230 20030 30011 40203 56011 60006 80001 91500=
07255,1997-05-26 18:00:00,23,1019.3,-1,36,7,40000,22.224,,,60,13.1,23.7,,,,,,,,,wg-a,,,,AAXX 26184 07255 12/82 10612 10230 20070 30001 40193 56010 60006 80001 91800 333 10237 20131=
07255,1997-05-27 00:00:00,15,1020.3,-0.6,59,7,15000,18.52,,,80,,,,,,,,,,,wg-a,,,,AAXX 27004 07255 12/65 00810 10150 20070 30005 40203 57006 60006 80000 90000=
07255,1997-05-27 03:00:00,13,1019.8,-0.6,62,6,20000,14.816,,,70,,,,,,,,,,,wg-a,,,,AAXX 27034 07255 12/70 00708 10130 20060 39999 40198 58006 60006 80000 90300=
07255,1997-05-27 06:00:00,14,1019.9,0.2,58,6,20000,18.52,,,80,12.5,22.4,,,,,,,,,wg-a,,,,AAXX 27064 07255 02/70 00810 10140 20060 30001 40199 53002 60006 80000 90600 333 10224 20125 60004=
07255,1997-05-27 09:00:00,19,1019.6,0,46,7,15000,22.224,,,100,,,,,,,,,,,wg-a,,,,AAXX 27094 07255 12/65 01012 10190 20070 30001 40196 50000 60006 80000 90900=
07255,1997-05-27 12:00:00,22,1018.5,-0.8,43,9,18000,18.52,,,70,,,,,,,,,,,wg-a,,,,AAXX 27124 07255 12/68 00710 10220 20090 39993 40185 58008 60006 80000 91200=
07255,1997-05-27 18:00:00,21,1017.6,-0,53,11,25000,25.928,,,60,14.3,23.1,,,,,,,,,wg-a,,,,AAXX 27184 07255 12/75 00614 10210 20110 39983 40176 55000 60006 80000 91800 333 10231 20143=
07255,1997-05-28 00:00:00,14,1020.1,0.5,67,8,10000,18.52,,,70,,,,,,,,,,,wg-a,,,,AAXX 28004 07255 12/60 /0710 10140 20080 30003 40201 50005 60006 90000=
07255,1997-05-28 03:00:00,11,1021,0.7,76,7,15000,22.224,,,70,,,,,,,,,,,wg-a,,,,AAXX 28034 07255 12/65 00712 10110 20070 30010 40210 53007 60006 80000 90300=
07255,1997-05-28 06:00:00,11,1021.7,0.6,71,6,15000,25.928,,44.448,80,10,21,,,,,,,,,wg-a,,,,AAXX 28064 07255 02/65 10814 10110 20060 30016 40217 51006 60006 80001 90600 333 10210 20100 60004 91024=
07255,1997-05-28 09:00:00,15,1022.2,0.8,55,6,22000,29.632,,,80,,,,,,,,,,,wg-a,,,,AAXX 28094 07255 12/72 10816 10150 20060 30024 40222 50008 60006 80001 90900=
07255,1997-05-28 12:00:00,18,1022,0,42,5,35000,31.484,,,80,,,,,,,,,,,wg-a,,,,AAXX 28124 07255 12/81 10817 10180 20050 30024 40220 50000 60006 80001 91200=
07255,1997-05-28 18:00:00,19,1020.9,-0.3,40,5,35000,25.928,,,70,10.8,19.9,,,,,,,,,wg-a,,,,AAXX 28184 07255 12/81 10714 10190 20050 30014 40209 55003 60006 80001 91800 333 10199 20108=
07255,1997-05-28 21:00:00,14,1022.7,1.4,55,5,28000,22.224,,,70,,,,,,,,,,,wg-a,,,,AAXX 28214 07255 12/78 10712 10140 20050 30028 40227 53014 60006 80001 92100=
07255,1997-05-29 00:00:00,12,1022.6,-0.2,58,4,25000,25.928,,,80,,,,,,,,,,,wg-a,,,,AAXX 29004 07255 12/75 00814 10120 20040 30026 40226 58002 60006 80000 90000=
07255,1997-05-29 03:00:00,10,1022.8,-0,66,4,500,18.52,,,70,,,,,,,,,,,wg-a,,,,AAXX 29034 07255 12/00 00710 10100 20040 30026 40228 55000 60006 80000 90300=
07255,1997-05-29 06:00:00,10,1023.2,0.4,66,4,25000,18.52,,,80,8.4,18.5,,,,,,,,,wg-a,,,,AAXX 29064 07255 02/75 10810 10100 20040 30030 40232 53004 60006 80001 90600 333 10185 20084 60004=
07255,1997-05-29 09:00:00,16,1022.8,-0,51,6,500,18.52,,,90,,,,,,,,,,,wg-a,,,,AAXX 29094 07255 12/00 10910 10160 20060 30030 40228 55000 60006 80001 90900=
07255,1997-05-29 12:00:00,21,1022.2,-0.2,40,7,500,22.224,,,100,,,,,,,,,,,wg-a,,,,AAXX 29124 07255 12/00 11012 10210 20070 30028 40222 58002 60006 80001 91200=
07255,1997-05-29 15:00:00,24,1020.9,-1.1,31,6,500,25.928,,,80,,,,,,,,,,,wg-a,,,,AAXX 29154 07255 12/00 10814 10240 20060 30017 40209 57011 60006 80001 91500=
07255,1997-05-29 18:00:00,23,1020.9,-0,31,5,500,29.632,,,80,10.3,24.4,,,,,,,,,wg-a,,,,AAXX 29184 07255 12/00 10816 10230 20050 30017 40209 55000 60006 80001 91800 333 10244 20103=
07255,1997-05-29 21:00:00,18,1022.6,1.3,49,7,500,18.52,,,70,,,,,,,,,,,wg-a,,,,AAXX 29214 07255 12/00 10710 10180 20070 30030 40226 53013 60006 80002 92100=
07255,1997-05-30 00:00:00,15,1022.9,0.1,59,7,28000,18.52,,,70,,,,,,,,,,,wg-a,,,,AAXX 30004 07255 12/78 10710 10150 20070 30031 40229 50001 60006 80002 90000=
07255,1997-05-30 03:00:00,12,1023,-0.1,67,6,28000,14.816,,,90,,,,,,,,,,,wg-a,,,,AAXX 30034 07255 12/78 10908 10120 20060 30030 40230 57001 60006 80002 90300=
07255,1997-05-30 06:00:00,14,1023.1,0.2,58,6,35000,14.816,,,100,11,23.2,,,,,,,,,wg-a,,,,AAXX 30064 07255 02/81 31008 10140 20060 30032 40231 50002 60006 80002 90600 333 10232 20110 60004=
07255,1997-05-30 09:00:00,20,1022.9,0.2,46,8,35000,18.52,,,80,,,,,,,,,,,wg-a,,,,AAXX 30094 07255 12/81 40810 10200 20080 30034 40229 50002 60006 80002 90900=
07255,1997-05-30 12:00:00,24,1021.5,-1.1,36,8,35000,25.928,,,90,,,,,,,,,,,wg-a,,,,AAXX 30124 07255 12/81 60914 10240 20080 30023 40215 58011 60006 80002 91200=
07255,1997-05-30 15:00:00,26,1019.5,-1.8,39,11,35000,25.928,,,60,,,,,,,,,,,wg-a,,,,AAXX 30154 07255 12/81 50614 10260 20110 30005 40195 56018 60006 80002 91500=
07255,1997-05-30 18:00:00,23,1019,-0.7,33,6,35000,29.632,,,70,13.7,26.2,,,,,,,,,wg-a,,,,AAXX 30184 07255 12/81 50716 10230 20060 39998 40190 55007 60006 80001 91800 333 10262 20137=
07255,1997-05-30 21:00:00,18,1019.3,-0,49,7,35000,22.224,,,70,,,,,,,,,,,wg-a,,,,AAXX 30214 07255 12/81 60712 10180 20070 39998 40193 54000 60006 80001 92100=
07255,1997-05-31 00:00:00,16,1018.4,-1.1,51,6,500,25.928,,,70,,,,,,,,,,,wg-a,,,,AAXX 31004 07255 12/00 70714 10160 20060 39987 40184 58011 60006 80001 90000=
07255,1997-05-31 03:00:00,13,1017.8,-0.8,58,5,25000,18.52,,,80,,,,,,,,,,,wg-a,,,,AAXX 31034 07255 12/75 70810 10130 20050 39979 40178 56008 60006 80001 90300=
07255,1997-05-31 06:00:00,14,1016.8,-0.9,55,5,10000,22.224,,,80,12,23,,,,,,,,,wg-a,,,,AAXX 31064 07255 02/60 /0812 10140 20050 39970 40168 56009 60006 90600 333 10230 20120 60004=
07255,1997-05-31 09:00:00,17,1015.6,-0.9,45,5,35000,25.928,,,70,,,,,,,,,,,wg-a,,,,AAXX 31094 07255 12/81 50714 10170 20050 39961 40156 58009 60006 80001 90900=
07255,1997-05-31 12:00:00,21,1014,-1.3,38,6,35000,29.632,,,70,,,,,,,,,,,wg-a,,,,AAXX 31124 07255 12/81 60716 10210 20060 39948 40140 58013 60006 80001 91200=
07255,1997-05-31 15:00:00,23,1012.4,-1.5,29,4,35000,29.632,,,90,,,,,,,,,,,wg-a,,,,AAXX 31154 07255 12/81 60916 10230 20040 39933 40124 58015 60006 80001 91500=
07255,1997-05-31 18:00:00,22,1011.7,-0.8,31,4,35000,29.632,,46.3,70,13.8,23.4,,,,,,,,,wg-a,,,,AAXX 31184 07255 12/81 30716 10220 20040 39925 40117 56008 60006 80001 91800 333 10234 20138 91025=
07255,1997-06-01 00:00:00,13,1012,-1.1,41,0,35000,25.928,,,70,,,,,,,,,,,wg-a,,,,AAXX 01004 07255 12/81 50714 10130 20000 39923 40120 58011 60006 80001 90000=
07255,1997-06-01 03:00:00,11,1011,-1.2,50,1,20000,22.224,,,70,,,,,,,,,,,wg-a,,,,AAXX 01034 07255 12670 /0712 10110 20010 39911 40110 56012 60006 81501 90300=
07255,1997-06-01 06:00:00,11,1010.6,-0.4,50,1,35000,29.632,,,70,9.9,21.7,,,,,,,,,wg-a,,,,AAXX 01064 07255 02/81 20716 10110 20010 39907 40106 56004 60006 80004 90600 333 10217 20099 60004=
07255,1997-06-01 09:00:00,14,1009.9,-0.4,44,2,40000,35.188,,,80,,,,,,,,,,,wg-a,,,,AAXX 01094 07255 12/82 20819 10140 20020 39903 40099 56004 60006 81032 90900=
07255,1997-06-01 12:00:00,17,1008.7,-1,36,2,40000,29.632,,,70,,,,,,,,,,,wg-a,,,,AAXX 01124 07255 12682 30716 10170 20020 39893 40087 56010 60006 81182 91200=
07255,1997-06-01 15:00:00,17,1007.5,-1.2,39,3,500,25.928,,,70,,,,,,,,,,,wg-a,,,,AAXX 01154 07255 12600 70714 10170 20030 39881 40075 56012 60006 8488/ 91500=
07255,1997-06-01 18:00:00,13,1008.3,0.6,67,7,500,7.408,,,140,10.8,18.6,,,,,,,,,wg-a,,,,AAXX 01184 07255 12600 81404 10130 20070 39887 40083 53006 60006 8787/ 91800 333 10186 20108=
07255,1997-06-01 21:00:00,13,1008.8,0.4,72,8,20000,7.408,,,180,,,,,,,,,,,wg-a,,,,AAXX 01214 07255 12770 71804 10130 20080 39891 40088 53004 60006 8757/ 92100=
07255,1997-06-02 00:00:00,12,1008.2,-0.7,82,9,10000,14.816,,,90,,,,,,,,,,,wg-a,,,,AAXX 02004 07255 12660 70908 10120 20090 39884 40082 58007 60006 8757/ 90000=
07255,1997-06-02 06:00:00,11,1008.9,0.9,100,11,500,14.816,,,110,10.7,13.6,,,,,,,,21,wg-a,,,,AAXX 02064 07255 02300 71108 10110 20110 39891 40089 53009 61000 72162 875// 90600 333 10136 20107 6003=
07255,1997-06-02 09:00:00,14,1010.2,1.5,94,13,15000,11.112,,,130,,,,1,,,,,,1,wg-a,,,,AAXX 02094 07255 12365 81306 10140 20130 39906 40102 52015 60017 70162 877// 90900=
07255,1997-06-02 12:00:00,16,1011.5,1.4,82,13,18000,7.408,,,290,,,,,,,,,,3,wg-a,,,,AAXX 02124 07255 12468 82904 10160 20130 39920 40115 51014 60016 70362 872// 91200=
07255,1997-06-02 18:00:00,19,1012.4,0.5,60,11,25000,7.408,,,320,11.4,19.5,,,,,,,,,wg-a,,,,AAXX 02184 07255 12675 53204 10190 20110 39931 40124 53005 60006 85800 91800 333 10195 20114=
07255,1997-06-02 21:00:00,14,1013.9,1.1,77,10,25000,3.704,,,70,,,,,,,,,,,wg-a,,,,AAXX 02214 07255 12/75 20702 10140 20100 39942 40139 51011 60006 80001 92100=
07255,1997-06-03 00:00:00,12,1014.5,0.4,88,10,20000,7.408,,,110,,,,,,,,,,,wg-a,,,,AAXX 03004 07255 12/70 41104 10120 20100 39946 40145 51004 60006 80002 90000=
07255,1997-06-03 03:00:00,11,1014.9,0.4,94,10,18000,3.704,,,50,,,,,,,,,,,wg-a,,,,AAXX 03034 07255 12/68 60502 10110 20100 39950 40149 53004 60006 83032 90300=
07255,1997-06-03 06:00:00,12,1015.3,0.4,94,11,12000,3.704,,,220,10.1,19.1,,,,,1,,,,wg-a,,,,AAXX 03064 07255 02/62 82202 10120 20110 39954 40153 53004 60006 81032 90600 333 10191 20101 60014=
07255,1997-06-03 09:00:00,16,1016.3,1.3,82,13,15000,11.112,,,240,,,,,,,,,,,wg-a,,,,AAXX 03094 07255 12865 72406 10160 20130 39967 40163 51013 60006 82082 90900=
07255,1997-06-03 12:00:00,22,1015.9,-0,50,11,20000,11.112,,,240,,,,,,,,,,,wg-a,,,,AAXX 03124 07255 12670 32406 10220 20110 39967 40159 55000 60006 83200 91200=
07255,1997-06-03 15:00:00,22,1015.6,-0.3,41,8,25000,11.112,,,280,,,,,,,,,,,wg-a,,,,AAXX 03154 07255 12775 22806 10220 20080 39964 40156 58003 60006 82100 91500=
07255,1997-06-03 18:00:00,22,1015.3,-0.3,43,9,25000,7.408,,,320,11.9,22.8,,,,,,,,,wg-a,,,,AAXX 03184 07255 12775 13204 10220 20090 39961 40153 56003 60006 81181 91800 333 10228 20119=
07255,1997-06-03 21:00:00,17,1016.6,1,59,9,25000,7.408,,,360,,,,,,,,,,,wg-a,,,,AAXX 03214 07255 12775 23604 10170 20090 39971 40166 53010 60006 81401 92100=
07255,1997-06-04 00:00:00,14,1017,0.1,77,10,25000,3.704,,,80,,,,,,,,,,,wg-a,,,,AAXX 04004 07255 12/75 40802 10140 20100 39972 40170 50001 60006 80001 90000=
07255,1997-06-04 03:00:00,13,1016.2,-0.8,82,10,20000,3.704,,,120,,,,,,,,,,,wg-a,,,,AAXX 04034 07255 12/70 71202 10130 20100 39964 40162 57008 60006 81031 90300=
07255,1997-06-04 06:00:00,14,1015.5,-0.6,82,11,15000,7.408,,,140,11.6,22,,,,,,,,,wg-a,,,,AAXX 04064 07255 02/65 51404 10140 20110 39958 40155 55006 60006 81031 90600 333 10220 20116 60004=
07255,1997-06-04 09:00:00,21,1014.2,-0.8,60,13,28000,11.112,,,110,,,,,,,,,,,wg-a,,,,AAXX 04094 07255 12578 71106 10210 20130 39950 40142 57008 60006 81102 90900=
07255,1997-06-04 12:00:00,25,1012.6,-1.4,41,11,40000,22.224,,,120,,,,,,,,,,,wg-a,,,,AAXX 04124 07255 12782 71212 10250 20110 39936 40126 56014 60006 82102 91200=
07255,1997-06-04 15:00:00,25,1010.1,-2.4,44,12,35000,22.224,,,140,,,,,,,,,,,wg-a,,,,AAXX 04154 07255 12781 71412 10250 20120 39912 40101 58024 60006 81101 91500=
07255,1997-06-04 18:00:00,24,1008.4,-1.7,47,12,500,18.52,,,110,14.1,26,,,,,,,,,wg-a,,,,AAXX 04184 07255 12600 81110 10240 20120 39895 40084 56017 60006 81278 91800 333 10260 20141=
07255,1997-06-04 21:00:00,21,1007.6,-1,56,12,25000,18.52,,,90,,,,,,,,,,,wg-a,,,,AAXX 04214 07255 12675 80910 10210 20120 39885 40076 58010 60006 8187/ 92100=
07255,1997-06-05 00:00:00,18,1006.2,-1.5,73,13,20000,14.816,,,120,,,,,,,,,,,wg-a,,,,AAXX 05004 07255 12/70 71208 10180 20130 39870 40062 58015 60006 82032 90000=
07255,1997-06-05 03:00:00,17,1005.2,-1.1,77,13,20000,14.816,,,130,,,,,,,,,,,wg-a,,,,AAXX 05034 07255 12770 71308 10170 20130 39859 40052 56011 60006 8257/ 90300=
07255,1997-06-05 06:00:00,17,1005.1,-0.1,88,15,15000,14.816,,,140,16.3,23.6,,,,,,,,21,wg-a,,,,AAXX 05064 07255 02765 71408 10170 20150 39858 40051 58001 61000 72162 875// 90600 333 10236 20163 6000=
07255,1997-06-05 12:00:00,21,1004.5,-0,69,15,500,14.816,,,170,,,,,,,,,,,wg-a,,,,AAXX 05124 07255 12500 71708 10210 20150 39855 40045 55000 60006 8387/ 91200=
07255,1997-06-05 18:00:00,19,1004.4,0.6,88,17,20000,11.112,,,170,16.8,23.1,,0,,,,,,1,wg-a,,,,AAXX 05184 07255 02670 71706 10190 20170 39853 40044 53006 60006 70186 878// 91800 333 10231 20168 60007=
07255,1997-06-05 21:00:00,18,1006,1.4,88,16,25000,11.112,,,170,,,,0,,,,,,,wg-a,,,,AAXX 05214 07255 12775 71706 10180 20160 39867 40060 53014 60007 8552/ 92100=
07255,1997-06-06 00:00:00,17,1006.8,0.8,88,15,25000,7.408,,,190,,,,,,,,,,,wg-a,,,,AAXX 06004 07255 12775 61904 10170 20150 39875 40068 53008 60006 86500 90000=
07255,1997-06-06 06:00:00,16,1008.6,1.5,94,15,40000,11.112,,,150,13.3,19.2,,,,,,,,,wg-a,,,,AAXX 06064 07255 02782 81506 10160 20150 39892 40086 51015 60006 865/2 90600 333 10192 20133 60004=
07255,1997-06-06 09:00:00,22,1009.3,1,69,16,35000,11.112,,,170,,,,,,,,,,,wg-a,,,,AAXX 06094 07255 12781 71706 10220 20160 39902 40093 52010 60006 82532 90900=
07255,1997-06-06 12:00:00,25,1009,0,57,16,35000,14.816,,,180,,,,,,,,,,,wg-a,,,,AAXX 06124 07255 12681 71808 10250 20160 39902 40090 50000 60006 82202 91200=
07255,1997-06-06 15:00:00,27,1007.9,-1,48,15,35000,18.52,,,180,,,,,,,,,,,wg-a,,,,AAXX 06154 07255 12681 /1810 10270 20150 39892 40079 57010 60006 82282 91500=
07255,1997-06-06 18:00:00,27,1007.7,-0.2,51,16,35000,11.112,,,160,16.2,27.8,,,,,,,,,wg-a,,,,AAXX 06184 07255 12781 21606 10270 20160 39890 40077 55002 60006 82401 91800 333 10278 20162=
07255,1997-06-07 00:00:00,18,1008.5,-0.5,83,15,25000,14.816,,,130,,,,,,,,,,,wg-a,,,,AAXX 07004 07255 12/75 31308 10180 20150 39892 40085 55005 60006 80002 90000=
07255,1997-06-07 03:00:00,16,1007.9,-0.7,88,14,500,11.112,,,110,,,,,,,,,,,wg-a,,,,AAXX 07034 07255 12500 51106 10160 20140 39885 40079 56007 60006 82232 90300=
07255,1997-06-07 06:00:00,19,1008.1,0.4,83,16,15000,11.112,,,120,15.4,27.1,,,,,,,,,wg-a,,,,AAXX 07064 07255 02665 71206 10190 20160 39889 40081 50004 60006 81182 90600 333 10271 20154 60004=
07255,1997-06-07 12:00:00,25,1009.4,-0.1,65,18,500,7.408,,,190,,,,0,,,,,,1,wg-a,,,,AAXX 07124 07255 02600 /1904 10250 20180 39906 40094 58001 60016 70198 82281 91200 333 60007=
07255,1997-06-07 15:00:00,24,1009,-0.5,69,18,500,14.816,,,160,,,,1,,,,,,92,wg-a,,,,AAXX 07154 07255 12500 71608 10240 20180 39901 40090 56005 60017 79298 85902 91500=
07255,1997-06-07 18:00:00,20,1010.2,0.9,88,18,25000,11.112,,,170,18.7,27.7,,3,,,,,,29,wg-a,,,,AAXX 07184 07255 02575 71706 10200 20180 39910 40102 53009 60006 72998 84372 91800 333 10277 20187 60037=
07255,1997-06-07 21:00:00,18,1011.6,1.3,94,17,500,7.408,,,150,,,,,,,,,,13,wg-a,,,,AAXX 07214 07255 12600 71504 10180 20170 39923 40116 53013 60006 71322 84902 92100=
07255,1997-06-08 00:00:00,17,1012.7,1,88,15,25000,25.928,,,220,,,,,,,,,,,wg-a,,,,AAXX 08004 07255 12775 82214 10170 20150 39933 40127 53010 60006 8557/ 90000=
07255,1997-06-08 03:00:00,14,1014.3,1.4,94,13,500,7.408,,,260,,,,,,,,,,,wg-a,,,,AAXX 08034 07255 12/00 12604 10140 20130 39947 40143 53014 60006 81032 90300=
07255,1997-06-08 06:00:00,16,1016.2,1.9,82,13,35000,3.704,,,320,13.6,19.8,,,,,5,,,,wg-a,,,,AAXX 08064 07255 02681 43202 10160 20130 39966 40162 51019 60006 84832 90600 333 10198 20136 60054=
07255,1997-06-08 12:00:00,20,1017.4,0.1,68,14,15000,3.704,,,30,,,,0,,,,,,80,wg-a,,,,AAXX 08124 07255 02565 /0302 10200 20140 39981 40174 50001 60016 78098 86900 91200 333 60007=
07255,1997-06-08 15:00:00,23,1017.4,0.2,53,13,35000,7.408,,,280,,,,,,,,,,1,wg-a,,,,AAXX 08154 07255 02581 42804 10230 20130 39983 40174 52002 61000 70198 83880 91500 333 ////=
07255,1997-06-08 18:00:00,22,1019.3,1.7,57,13,35000,7.408,,,330,15.9,23.7,,,,,,,,1,wg-a,,,,AAXX 08184 07255 12681 23304 10220 20130 30000 40193 53017 60006 70198 82800 91800 333 10237 20159=
07255,1997-06-09 00:00:00,14,1022.6,0.7,88,12,20000,0,,,0,,,,,,,,,,,wg-a,,,,AAXX 09004 07255 12/70 00000 10140 20120 30028 40226 51007 60006 80000 90000=
07255,1997-06-09 03:00:00,12,1022.8,0,100,12,20000,0,,,0,,,,,,,,,,,wg-a,,,,AAXX 09034 07255 12670 20000 10120 20120 30028 40228 50000 60006 82800 90300=
07255,1997-06-09 06:00:00,15,1023,0.4,88,13,35000,3.704,,,30,11.8,21.5,,,,,1,,,,wg-a,,,,AAXX 09064 07255 02581 30302 10150 20130 30032 40230 52004 60006 81201 90600 333 10215 20118 60014=
07255,1997-06-09 09:00:00,22,1022.8,0.3,65,15,35000,7.408,,,140,,,,,,,,,,,wg-a,,,,AAXX 09094 07255 12581 /1404 10220 20150 30035 40228 50003 60006 82202 90900=
07255,1997-06-09 12:00:00,25,1021.7,-0.9,44,12,35000,7.408,,,90,,,,,,,,,,,wg-a,,,,AAXX 09124 07255 12681 80904 10250 20120 30026 40217 58009 60006 82206 91200=
07255,1997-06-09 15:00:00,25,1020.6,-1.1,36,9,40000,3.704,,,110,,,,,,,,,,,wg-a,,,,AAXX 09154 07255 12782 71102 10250 20090 30015 40206 56011 60006 81108 91500=
07255,1997-06-09 18:00:00,24,1019.6,-1,47,12,35000,11.112,,,80,14.7,25.9,,,,,,,,,wg-a,,,,AAXX 09184 07255 12/81 70806 10240 20120 30005 40196 58010 60006 82082 91800 333 10259 20147=
07255,1997-06-09 21:00:00,21,1019.8,-0,60,13,500,11.112,,,70,,,,,,,,,,,wg-a,,,,AAXX 09214 07255 12/00 60706 10210 20130 30005 40198 55000 60006 83032 92100=
07255,1997-06-10 00:00:00,18,1018.8,-1.2,77,14,25000,11.112,,,90,,,,,,,,,,,wg-a,,,,AAXX 10004 07255 12/75 50906 10180 20140 39993 40188 57012 60006 81032 90000=
07255,1997-06-10 06:00:00,18,1016.4,-0.4,73,13,35000,14.816,,,120,16.2,23.8,,,,,,,,,wg-a,,,,AAXX 10064 07255 02/81 61208 10180 20130 39969 40164 55004 60006 85082 90600 333 10238 20162 60004=
07255,1997-06-10 09:00:00,25,1014.3,-1.5,61,17,35000,25.928,,,120,,,,,,,,,,,wg-a,,,,AAXX 10094 07255 12/81 71214 10250 20170 39954 40143 56015 60006 83032 90900=
07255,1997-06-10 12:00:00,28,1012.5,-1.6,55,18,500,25.928,,,110,,,,,,,,,,,wg-a,,,,AAXX 10124 07255 12/00 71114 10280 20180 39938 40125 57016 60006 81032 91200=
07255,1997-06-10 15:00:00,28,1011,-1.5,51,17,500,11.112,,,130,,,,,,,,,,,wg-a,,,,AAXX 10154 07255 12/00 71306 10280 20170 39923 40110 56015 60006 8703/ 91500=
07255,1997-06-10 18:00:00,26,1009.7,-1.4,65,19,500,7.408,,,140,17.5,29.4,,,,,,,,,wg-a,,,,AAXX 10184 07255 12/00 71404 10260 20190 39909 40097 57014 60006 8703/ 91800 333 10294 20175=
07255,1997-06-10 21:00:00,22,1009.6,,83,19,25000,3.704,,,200,,,,,,,,,,,wg-a,,,,AAXX 10214 07255 12/75 82002 10220 20190 39906 40096 60006 85082 92100=
07255,1997-06-11 00:00:00,20,1010,0.3,88,18,20000,7.408,,,220,,,,,,,,,,,wg-a,,,,AAXX 11004 07255 12/70 82204 10200 20180 39909 40100 52003 60006 85032 90000=
07255,1997-06-11 06:00:00,18,1009.2,-1,94,17,10000,14.816,,,130,17.9,25.8,,,,,,,,60,wg-a,,,,AAXX 11064 07255 02760 71308 10180 20170 39899 40092 58010 61000 76062 8457/ 90600 333 10258 20179 6002=
07255,1997-06-11 09:00:00,22,1009.6,0.7,83,19,28000,11.112,,,190,,,,,,,,,,1,wg-a,,,,AAXX 11094 07255 02778 71906 10220 20190 39906 40096 50007 61000 70162 83530 90900 333 ////=
07255,1997-06-11 12:00:00,27,1008.1,-1.2,51,16,40000,14.816,,,230,,,,,,,,,,3,wg-a,,,,AAXX 11124 07255 02782 32308 10270 20160 39894 40081 58012 61000 70361 83130 91200 333 ////=
07255,1997-06-11 18:00:00,23,1010,2.5,57,14,25000,22.224,,,310,18.2,29,,2,,,,,,1,wg-a,,,,AAXX 11184 07255 02675 43112 10230 20140 39910 40100 51025 60006 70198 82801 91800 333 10290 20182 60027=
07255,1997-06-11 21:00:00,19,1012.6,2.3,73,14,25000,11.112,,,290,,,,,,,,,,,wg-a,,,,AAXX 11214 07255 12775 52906 10190 20140 39933 40126 53023 60006 815/1 92100=
07255,1997-06-12 00:00:00,14,1013,0.1,94,13,25000,3.704,,,220,,,,,,,,,,,wg-a,,,,AAXX 12004 07255 12/75 22202 10140 20130 39934 40130 50001 60006 80001 90000=
07255,1997-06-12 03:00:00,13,1013.1,-0,94,12,25000,7.408,,,180,,,,,,,,,,,wg-a,,,,AAXX 12034 07255 12/75 71804 10130 20120 39934 40131 55000 60006 80001 90300=
07255,1997-06-12 06:00:00,15,1013,-0,94,14,18000,7.408,,,200,12.5,22.7,,,,,3,,,,wg-a,,,,AAXX 12064 07255 02768 62004 10150 20140 39934 40130 55000 60006 81531 90600 333 10227 20125 60034=
07255,1997-06-12 09:00:00,21,1012.4,-0.2,69,15,25000,11.112,,,260,,,,,,,,,,,wg-a,,,,AAXX 12094 07255 12575 72606 10210 20150 39932 40124 58002 60006 81132 90900=
07255,1997-06-12 12:00:00,23,1011.6,-0.6,57,14,500,11.112,,,270,,,,,,,,,,,wg-a,,,,AAXX 12124 07255 12600 72706 10230 20140 39926 40116 57006 60006 8383/ 91200=
07255,1997-06-12 15:00:00,25,1010.4,-1.1,50,14,35000,11.112,,,340,,,,,,,,,,,wg-a,,,,AAXX 12154 07255 12681 63406 10250 20140 39915 40104 58011 60006 83330 91500=
07255,1997-06-12 18:00:00,20,1010.6,-0.1,78,16,20000,11.112,,,340,14.6,25.2,,,,,,,,17,wg-a,,,,AAXX 12184 07255 02670 63406 10200 20160 39914 40106 55001 60006 71796 84963 91800 333 10252 20146 61000=
07255,1997-06-13 00:00:00,16,1011.2,-0.2,94,15,15000,3.704,,,240,,,,,,,,,,3,wg-a,,,,AAXX 13004 07255 02765 72402 10160 20150 39917 40112 56002 60016 70386 876// 90000 333 61000=
07255,1997-06-13 06:00:00,15,1009.4,-0.7,100,15,6000,3.704,,,120,13.9,19.6,,,,,,,,,wg-a,,,,AAXX 13064 07255 02/56 71202 10150 20150 39899 40094 58007 60006 8207/ 90600 333 10196 20139 61000=
07255,1997-06-13 09:00:00,18,1009.4,0.2,83,15,12000,3.704,,,150,,,,,,,,,,,wg-a,,,,AAXX 13094 07255 02462 81502 10180 20150 39901 40094 50002 61000 8587/ 90900 333 ////=
07255,1997-06-13 12:00:00,20,1009.1,-0.2,73,15,15000,11.112,,,220,,,,,,,,,,,wg-a,,,,AAXX 13124 07255 12565 82206 10200 20150 39899 40091 55002 60006 8552/ 91200=
07255,1997-06-13 15:00:00,20,1007.5,-1.5,78,16,25000,11.112,,,180,,,,0,,,,,,3,wg-a,,,,AAXX 13154 07255 12475 71806 10200 20160 39884 40075 57015 60007 70362 8487/ 91500=
07255,1997-06-13 18:00:00,20,1007.1,-0.4,83,17,25000,7.408,,,260,15.4,20.1,,,,,,,,15,wg-a,,,,AAXX 13184 07255 12475 72604 10200 20170 39880 40071 56004 60006 71562 8387/ 91800 333 10201 20154=
07255,1997-06-14 00:00:00,16,1008.8,0.1,94,15,8000,0,,,0,,,,,,,,,,21,wg-a,,,,AAXX 14004 07255 02558 80000 10160 20150 39894 40088 51001 61000 72186 878// 90000 333 6100=
07255,1997-06-14 03:00:00,16,1009.5,0.7,94,15,6000,14.816,,,240,,,,1,,,,,,3,wg-a,,,,AAXX 14034 07255 12356 82408 10160 20150 39901 40095 53007 60017 70362 878// 90300=
07255,1997-06-14 06:00:00,16,1011,1.4,88,14,10000,22.224,,,250,15.4,19.7,,,,,1,,,1,wg-a,,,,AAXX 14064 07255 02460 72512 10160 20140 39915 40110 53014 60006 70162 8683/ 90600 333 10197 20154 60014=
07255,1997-06-14 09:00:00,16,1013.1,2.1,88,14,12000,25.928,,,300,,,,,,,,,,80,wg-a,,,,AAXX 14094 07255 02462 73014 10160 20140 39936 40131 53021 61000 78086 878// 90900 333 ////=
07255,1997-06-14 12:00:00,20,1014.2,1.3,60,12,35000,25.928,,,280,,,,,,,,,,1,wg-a,,,,AAXX 14124 07255 02581 /2814 10200 20120 39949 40142 53013 61000 70186 86800 91200 333 6100=
07255,1997-06-14 15:00:00,20,1015,0.8,53,10,35000,22.224,,,280,,,,,,,,,,,wg-a,,,,AAXX 14154 07255 12681 /2812 10200 20100 39957 40150 51008 60006 86800 91500=
07255,1997-06-14 18:00:00,19,1016.3,1.2,60,11,35000,14.816,,,290,15.9,21.2,,,,,,,,,wg-a,,,,AAXX 14184 07255 12681 72908 10190 20110 39969 40163 52012 60006 878// 91800 333 10212 20159=
07255,1997-06-14 21:00:00,17,1018.4,1.9,72,12,40000,3.704,,,290,,,,,,,,,,,wg-a,,,,AAXX 14214 07255 12782 72902 10170 20120 39988 40184 53019 60006 875// 92100=
07255,1997-06-15 00:00:00,13,1019.2,0.5,88,11,22000,7.408,,,230,,,,,,,,,,,wg-a,,,,AAXX 15004 07255 12772 62304 10130 20110 39993 40192 51005 60006 85530 90000=
07255,1997-06-15 06:00:00,12,1019.9,1.1,94,11,18000,7.408,,,270,10.4,19.4,,,,,,,,,wg-a,,,,AAXX 15064 07255 02768 12704 10120 20110 30000 40199 53011 60006 81501 90600 333 10194 20104 61000=
07255,1997-06-15 09:00:00,18,1019.5,0,68,12,500,7.408,,,210,,,,,,,,,,,wg-a,,,,AAXX 15094 07255 12500 /2104 10180 20120 30000 40195 50000 60006 85200 90900=
07255,1997-06-15 12:00:00,22,1018.6,-0.7,46,10,500,7.408,,,270,,,,,,,,,,,wg-a,,,,AAXX 15124 07255 12600 42704 10220 20100 39993 40186 58007 60006 84200 91200=
07255,1997-06-15 18:00:00,23,1017,-0.3,38,8,500,7.408,,,10,12.4,23.7,,,,,,,,,wg-a,,,,AAXX 15184 07255 12700 40104 10230 20080 39978 40170 55003 60006 82101 91800 333 10237 20124=
07255,1997-06-15 21:00:00,18,1018.3,1,64,11,500,7.408,,,10,,,,,,,,,,,wg-a,,,,AAXX 15214 07255 12600 70104 10180 20110 39988 40183 53010 60006 8453/ 92100=
07255,1997-06-16 00:00:00,17,1017.7,-0.7,68,11,500,3.704,,,20,,,,,,,,,,,wg-a,,,,AAXX 16004 07255 12700 40202 10170 20110 39981 40177 58007 60006 81530 90000=
07255,1997-06-16 03:00:00,14,1017.3,-0.6,77,10,20000,3.704,,,70,,,,,,,,,,,wg-a,,,,AAXX 16034 07255 12770 50702 10140 20100 39975 40173 58006 60006 81531 90300=
07255,1997-06-16 06:00:00,15,1017.2,-0,82,12,18000,0,,,0,12.8,23,,,,,,,,,wg-a,,,,AAXX 16064 07255 02/68 70000 10150 20120 39975 40172 55000 60006 82051 90600 333 10230 20128 60004=
07255,1997-06-16 09:00:00,21,1016.6,-0.2,53,11,40000,0,,,0,,,,,,,,,,,wg-a,,,,AAXX 16094 07255 12682 70000 10210 20110 39973 40166 56002 60006 84892 90900=
07255,1997-06-16 12:00:00,22,1016,-0.5,46,10,35000,3.704,,,320,,,,,,,,,,,wg-a,,,,AAXX 16124 07255 12681 83202 10220 20100 39968 40160 57005 60006 8317/ 91200=
07255,1997-06-16 15:00:00,21,1015.7,-0.4,53,11,40000,3.704,,,70,,,,,,,,,,21,wg-a,,,,AAXX 16154 07255 02782 70702 10210 20110 39964 40157 56004 61000 72162 85230 91500 333 ////=
07255,1997-06-16 18:00:00,20,1014.9,-0.8,56,11,35000,14.816,,,290,14.8,23.1,,,,,,,,16,wg-a,,,,AAXX 16184 07255 12681 72908 10200 20110 39956 40149 55008 60006 71662 8412/ 91800 333 10231 20148=
07255,1997-06-16 21:00:00,15,1017.3,2,94,14,18000,11.112,,,250,,,,1,,,,,,2,wg-a,,,,AAXX 16214 07255 12668 82506 10150 20140 39976 40173 51020 60017 70262 8327/ 92100=
07255,1997-06-17 00:00:00,13,1017.8,0.4,100,13,10000,11.112,,,250,,,,0,,,,,,21,wg-a,,,,AAXX 17004 07255 02660 82506 10130 20130 39980 40178 53004 60016 72162 8557/ 90000 333 60007=
07255,1997-06-17 03:00:00,13,1017.8,-0,100,13,9000,11.112,,,260,,,,,,,,,,,wg-a,,,,AAXX 17034 07255 12259 82606 10130 20130 39980 40178 55000 60006 8567/ 90300=
07255,1997-06-17 06:00:00,13,1018.4,0.6,94,12,500,11.112,,,260,12.3,19.7,,,,,1,,,,wg-a,,,,AAXX 17064 07255 02200 82606 10130 20120 39986 40184 53006 60006 876// 90600 333 10197 20123 60014=
07255,1997-06-17 12:00:00,19,1018.4,-0.4,60,11,25000,14.816,,,280,,,,,,,,,,,wg-a,,,,AAXX 17124 07255 12575 52808 10190 20110 39990 40184 56004 60006 85801 91200=
07255,1997-06-17 15:00:00,20,1017.5,-0.9,53,10,15000,11.112,,,300,,,,,,,,,,80,wg-a,,,,AAXX 17154 07255 02665 73006 10200 20100 39981 40175 56009 61000 78086 879// 91500 333 ////=
07255,1997-06-17 18:00:00,16,1018.3,0.6,82,13,8000,14.816,,,310,13.1,21.5,,,,,,,,80,wg-a,,,,AAXX 17184 07255 02558 73108 10160 20130 39987 40183 53006 61000 78086 8396/ 91800 333 10215 20131 6100=
07255,1997-06-17 21:00:00,15,1019.3,0.9,88,13,15000,7.408,,,10,,,,,,,,,,3,wg-a,,,,AAXX 17214 07255 02765 70104 10150 20130 39996 40193 53009 61000 70386 82531 92100 333 ////=
07255,1997-06-18 00:00:00,13,1019.9,0.5,94,12,10000,7.408,,,360,,,,,,,,,,,wg-a,,,,AAXX 18004 07255 12660 /3604 10130 20120 30001 40199 53005 60006 86100 90000=
07255,1997-06-18 06:00:00,13,1020,0.4,94,12,7000,3.704,,,30,11.3,16.5,,,,,,,,1,wg-a,,,,AAXX 18064 07255 02457 80302 10130 20120 30002 40200 53004 60006 70142 885// 90600 333 10165 20113 60004=
07255,1997-06-18 09:00:00,16,1020.1,0.2,77,12,20000,0,,,0,,,,,,,,,,,wg-a,,,,AAXX 18094 07255 12470 70000 10160 20120 30004 40201 50002 60006 878// 90900=
07255,1997-06-18 12:00:00,21,1018.8,-0.9,56,12,25000,7.408,,,100,,,,0,,,,,,,wg-a,,,,AAXX 18124 07255 02675 41004 10210 20120 39995 40188 58009 60006 84200 91200 333 60007=
07255,1997-06-18 18:00:00,22,1015.8,-1.2,43,9,25000,11.112,,,50,13.3,22.6,,,,,,,,,wg-a,,,,AAXX 18184 07255 12675 30506 10220 20090 39966 40158 56012 60006 82401 91800 333 10226 20133=
07255,1997-06-18 21:00:00,18,1015.4,-0.6,56,9,20000,7.408,,,80,,,,,,,,,,,wg-a,,,,AAXX 18214 07255 12/70 60804 10180 20090 39960 40154 56006 60006 80002 92100=
07255,1997-06-19 00:00:00,13,1014.7,-1.1,88,11,20000,11.112,,,110,,,,,,,,,,,wg-a,,,,AAXX 19004 07255 12/70 31106 10130 20110 39949 40147 58011 60006 80001 90000=
07255,1997-06-19 03:00:00,12,1012.4,-2.3,82,9,15000,11.112,,,90,,,,,,,,,,,wg-a,,,,AAXX 19034 07255 12/65 20906 10120 20090 39926 40124 56023 60006 80002 90300=
07255,1997-06-19 06:00:00,13,1011.5,-0.8,88,11,12000,7.408,,,130,10.1,22,,,,,,,,,wg-a,,,,AAXX 19064 07255 02862 71304 10130 20110 39918 40115 56008 60006 8708/ 90600 333 10220 20101 60004=
07255,1997-06-19 12:00:00,22,1008.8,-1.2,43,9,25000,25.928,,44.448,290,,,,,,,,,,,wg-a,,,,AAXX 19124 07255 12675 52914 10220 20090 39897 40088 58012 60006 83201 91200 333 91024=
07255,1997-06-19 15:00:00,20,1008.7,-0.2,60,12,500,25.928,,44.448,300,,,,,,,,,,,wg-a,,,,AAXX 19154 07255 12600 73014 10200 20120 39895 40087 55002 60006 85831 91500 333 91024=
07255,1997-06-19 18:00:00,13,1009.9,0.8,94,12,12000,18.52,,,310,12.8,22.6,,,,,,,,60,wg-a,,,,AAXX 19184 07255 02562 83110 10130 20120 39903 40099 53008 61000 76086 8487/ 91800 333 10226 20128 6001=
07255,1997-06-19 21:00:00,13,1011.1,1.1,94,12,20000,7.408,,,240,,,,2,,,,,,21,wg-a,,,,AAXX 19214 07255 12470 72404 10130 20120 39914 40111 51011 60027 72162 878// 92100=
07255,1997-06-20 00:00:00,12,1011.2,0,94,11,20000,14.816,,,240,,,,,,,,,,1,wg-a,,,,AAXX 20004 07255 12670 72408 10120 20110 39914 40112 50000 60026 70162 875// 90000=
07255,1997-06-20 03:00:00,12,1009.9,-1.2,94,11,15000,14.816,,,230,,,,1,,,,,,21,wg-a,,,,AAXX 20034 07255 12565 82308 10120 20110 39902 40099 56012 60017 72162 878// 90300=
07255,1997-06-20 06:00:00,13,1010.4,0.5,94,12,15000,14.816,,,240,11.7,13.3,,,,,,,,51,wg-a,,,,AAXX 20064 07255 02365 82408 10130 20120 39907 40104 53005 61000 75165 887// 90600 333 10133 20117 6003=
07255,1997-06-20 09:00:00,16,1009.5,-0.6,82,13,20000,18.52,,,240,,,,0,,,,,,80,wg-a,,,,AAXX 20094 07255 12470 72410 10160 20130 39901 40095 58006 60007 78086 878// 90900=
07255,1997-06-20 12:00:00,19,1008.3,-1.1,64,12,25000,25.928,,,230,,,,,,,,,,1,wg-a,,,,AAXX 20124 07255 02575 72314 10190 20120 39890 40083 58011 60006 70186 878// 91200 333 61000=
07255,1997-06-20 15:00:00,17,1007.1,-1.2,82,14,20000,11.112,,,260,,,,0,,,,,,60,wg-a,,,,AAXX 20154 07255 12570 82606 10170 20140 39878 40071 58012 60007 76086 888// 91500=
07255,1997-06-20 18:00:00,16,1005.9,-1.3,82,13,20000,18.52,,,240,13,18.6,,,,,,,,25,wg-a,,,,AAXX 20184 07255 02570 82410 10160 20130 39865 40059 56013 61000 72586 8387/ 91800 333 10186 20130 6000=
07255,1997-06-20 21:00:00,15,1005.3,-0.7,88,13,12000,14.816,,,210,,,,,,,,,,21,wg-a,,,,AAXX 20214 07255 02662 82108 10150 20130 39858 40053 58007 61000 72162 8557/ 92100 333 ////=
07255,1997-06-21 00:00:00,14,1004,-1.3,94,13,7000,25.928,,,220,,,,1,,,,,,61,wg-a,,,,AAXX 21004 07255 02557 82214 10140 20130 39845 40040 58013 60016 76162 875// 90000 333 60017=
07255,1997-06-21 03:00:00,13,1003.6,-0.4,94,12,6000,18.52,,,270,,,,2,,,,,,61,wg-a,,,,AAXX 21034 07255 12356 82710 10130 20120 39841 40036 55004 60027 76166 875// 90300=
07255,1997-06-21 06:00:00,14,1004,0.4,94,13,12000,18.52,,,250,12.8,16.4,,,,,4,,,2,wg-a,,,,AAXX 21064 07255 02362 82510 10140 20130 39845 40040 53004 60006 70262 8557/ 90600 333 10164 20128 60044=
07255,1997-06-21 12:00:00,14,1003.8,0,94,13,9000,18.52,,,240,,,,1,,,,,,61,wg-a,,,,AAXX 21124 07255 02459 82410 10140 20130 39843 40038 50000 60026 76165 877// 91200 333 60017=
07255,1997-06-21 15:00:00,15,1003.1,-0.6,88,13,28000,22.224,,,240,,,,7,,,,,,21,wg-a,,,,AAXX 21154 07255 12478 82412 10150 20130 39837 40031 58006 60077 72186 8312/ 91500=
07255,1997-06-21 18:00:00,15,1002.9,-0.2,82,12,28000,22.224,,,240,13.8,16.4,,,,,,,,3,wg-a,,,,AAXX 21184 07255 12478 72412 10150 20120 39835 40029 55002 60006 70386 8287/ 91800 333 10164 20138=
07255,1997-06-21 21:00:00,13,1004.5,1.5,88,11,18000,18.52,,,260,,,,0,,,,,,2,wg-a,,,,AAXX 21214 07255 12468 72610 10130 20110 39850 40045 53015 60007 70286 8497/ 92100=
07255,1997-06-22 00:00:00,12,1005.7,1,94,11,25000,18.52,,,250,,,,,,,,,,1,wg-a,,,,AAXX 22004 07255 12/75 12510 10120 20110 39860 40057 51010 60016 70186 81030 90000=
07255,1997-06-22 03:00:00,10,1005.5,-0.3,93,9,20000,14.816,,,220,,,,,,,,,,,wg-a,,,,AAXX 22034 07255 12570 22208 10100 20090 39857 40055 58003 60006 81830 90300=
07255,1997-06-22 06:00:00,12,1005.8,0.4,94,11,20000,18.52,,,230,8.6,14.8,,,,,10,,,,wg-a,,,,AAXX 22064 07255 02370 22310 10120 20110 39861 40058 53004 60006 81830 90600 333 10148 20086 60104=
07255,1997-06-22 09:00:00,14,1005.6,0,88,12,25000,25.928,,,230,,,,,,,,,,80,wg-a,,,,AAXX 22094 07255 02475 72314 10140 20120 39861 40056 50000 61000 78086 878// 90900 333 ////=
07255,1997-06-22 12:00:00,17,1006.2,0.8,59,9,35000,29.632,,,280,,,,0,,,,,,1,wg-a,,,,AAXX 22124 07255 02581 72816 10170 20090 39869 40062 53008 60006 70186 878// 91200 333 60007=
07255,1997-06-22 15:00:00,16,1007.1,0.8,77,12,25000,22.224,,,260,,,,0,,,,,,25,wg-a,,,,AAXX 22154 07255 12575 52612 10160 20120 39877 40071 53008 60007 72586 85900 91500=
07255,1997-06-22 18:00:00,16,1007.5,0.4,63,9,35000,31.484,,,270,11.8,18.1,,0,,,,,,3,wg-a,,,,AAXX 22184 07255 02581 62717 10160 20090 39881 40075 53004 60006 70386 86901 91800 333 10181 20118 60007=
07255,1997-06-22 21:00:00,13,1010.1,2.3,88,11,500,18.52,,,250,,,,,,,,,,,wg-a,,,,AAXX 22214 07255 12600 72510 10130 20110 39904 40101 53023 60006 875// 92100=
07255,1997-06-23 00:00:00,13,1010.9,0.8,88,11,25000,22.224,,,260,,,,,,,,,,,wg-a,,,,AAXX 23004 07255 12675 82612 10130 20110 39912 40109 51008 60006 885// 90000=
07255,1997-06-23 03:00:00,12,1010.9,-0,94,11,20000,22.224,,,260,,,,,,,,,,,wg-a,,,,AAXX 23034 07255 12470 82612 10120 20110 39912 40109 54000 60006 888// 90300=
07255,1997-06-23 06:00:00,13,1011.9,1,82,10,7000,18.52,,,270,12.1,15.9,,,,,1,,,,wg-a,,,,AAXX 23064 07255 02457 72710 10130 20100 39922 40119 51010 60006 878// 90600 333 10159 20121 60014=
07255,1997-06-23 09:00:00,15,1013,1.2,77,11,20000,22.224,,,280,,,,,,,,,,,wg-a,,,,AAXX 23094 07255 12470 72812 10150 20110 39934 40130 51012 60006 872// 90900=
07255,1997-06-23 12:00:00,18,1013.4,0.6,59,10,25000,18.52,,,290,,,,,,,,,,,wg-a,,,,AAXX 23124 07255 12575 72910 10180 20100 39940 40134 50006 60006 878// 91200=
07255,1997-06-23 15:00:00,20,1013.3,-0,53,10,500,22.224,,,290,,,,,,,,,,,wg-a,,,,AAXX 23154 07255 12600 /2912 10200 20100 39940 40133 55000 60006 86800 91500=
07255,1997-06-23 18:00:00,14,1014.4,0.7,94,13,20000,3.704,,,290,12.6,20.5,,,,,,,,80,wg-a,,,,AAXX 23184 07255 02570 72902 10140 20130 39947 40144 53007 61000 78087 879// 91800 333 10205 20126 6003=
07255,1997-06-24 00:00:00,13,1017.4,1.4,88,11,10000,11.112,,,310,,,,,,,,,,3,wg-a,,,,AAXX 24004 07255 02560 83106 10130 20110 39976 40174 51014 61000 70386 878// 90000 333 ////=
07255,1997-06-24 03:00:00,9,1017.9,0.2,100,9,12000,7.408,,,270,,,,,,,,,,,wg-a,,,,AAXX 24034 07255 12762 62704 10090 20090 39978 40179 51002 60006 825/1 90300=
07255,1997-06-24 06:00:00,11,1018.6,0.8,87,9,28000,11.112,,,280,9.1,14.4,,,,,3,,,,wg-a,,,,AAXX 24064 07255 02778 82806 10110 20090 39986 40186 52008 60006 875// 90600 333 10144 20091 60034=
07255,1997-06-24 09:00:00,15,1019.2,0.9,77,11,25000,18.52,,,290,,,,,,,,,,,wg-a,,,,AAXX 24094 07255 12575 72910 10150 20110 39995 40192 51009 60006 878// 90900=
07255,1997-06-24 12:00:00,17,1019.1,-0,59,9,28000,14.816,,,320,,,,,,,,,,,wg-a,,,,AAXX 24124 07255 12578 73208 10170 20090 39995 40191 55000 60006 878// 91200=
07255,1997-06-24 15:00:00,17,1018.6,-0.5,68,11,500,11.112,,,330,,,,,,,,,,,wg-a,,,,AAXX 24154 07255 12600 73306 10170 20110 39990 40186 56005 60006 878// 91500=
07255,1997-06-24 18:00:00,17,1017.6,-1,63,10,500,11.112,,,340,11.2,17.7,,,,,,,,,wg-a,,,,AAXX 24184 07255 12600 /3406 10170 20100 39980 40176 56010 60006 86800 91800 333 10177 20112=
07255,1997-06-24 21:00:00,14,1017.5,-0.2,77,10,25000,3.704,,,280,,,,,,,,,,,wg-a,,,,AAXX 24214 07255 12775 72802 10140 20100 39978 40175 58002 60006 8653/ 92100=
07255,1997-06-25 00:00:00,10,1016.9,-0.9,93,9,25000,7.408,,,210,,,,,,,,,,,wg-a,,,,AAXX 25004 07255 12775 32104 10100 20090 39969 40169 58009 60006 815/1 90000=
07255,1997-06-25 06:00:00,11,1013.5,-1.1,94,10,18000,3.704,,,190,9,16.6,,,,,,,,,wg-a,,,,AAXX 25064 07255 02/68 71902 10110 20100 39936 40135 57011 60006 8707/ 90600 333 10166 20090 60004=
07255,1997-06-25 12:00:00,16,1010.2,-1.5,72,11,20000,22.224,,,230,,,,,,,,,,60,wg-a,,,,AAXX 25124 07255 02570 82312 10160 20110 39907 40102 58015 61000 76062 8212/ 91200 333 6100=
07255,1997-06-25 15:00:00,15,1007.9,-2.3,82,12,20000,22.224,,,240,,,,,,,,,,60,wg-a,,,,AAXX 25154 07255 02570 72412 10150 20120 39884 40079 58023 61000 76062 8387/ 91500 333 ////=
07255,1997-06-25 18:00:00,13,1005.3,-2.7,94,12,500,18.52,,,200,11.3,16.7,,3,,,,,,61,wg-a,,,,AAXX 25184 07255 12300 82010 10130 20120 39857 40053 58027 60037 76162 8787/ 91800 333 10167 20113=
07255,1997-06-25 21:00:00,14,1003.8,-1.4,94,13,4000,22.224,,,230,,,,1,,,,,,60,wg-a,,,,AAXX 25214 07255 12340 82312 10140 20130 39843 40038 56014 60017 76062 877// 92100=
07255,1997-06-26 00:00:00,14,1002.4,-1.4,88,12,12000,22.224,,,250,,,,0,,,,,,3,wg-a,,,,AAXX 26004 07255 02462 82512 10140 20120 39829 40024 57014 60016 70362 878// 90000 333 60007=
07255,1997-06-26 03:00:00,13,1001,-1.4,94,12,6000,18.52,,,250,,,,0,,,,,,,wg-a,,,,AAXX 26034 07255 12456 82510 10130 20120 39815 40010 56014 60007 877// 90300=
07255,1997-06-26 06:00:00,13,999.9,-1.1,94,12,7000,18.52,,,240,12.5,13.7,,,,,,,,50,wg-a,,,,AAXX 26064 07255 02357 82410 10130 20120 39804 49999 56011 61000 75065 877// 90600 333 10137 20125 6008=
07255,1997-06-26 12:00:00,15,997.1,-1.2,94,14,15000,29.632,,,230,,,,0,,,,,,80,wg-a,,,,AAXX 26124 07255 02465 72316 10150 20140 39779 49971 58012 60016 78086 878// 91200 333 60007=
07255,1997-06-26 15:00:00,16,996.8,-0.3,82,13,15000,25.928,,,260,,,,2,,,,,,2,wg-a,,,,AAXX 26154 07255 12465 72614 10160 20130 39776 49968 56003 60027 70286 879// 91500=
07255,1997-06-26 18:00:00,16,996.4,-0.4,88,14,18000,18.52,,,230,12.8,18.2,,,,,,,,3,wg-a,,,,AAXX 26184 07255 12468 72310 10160 20140 39772 49964 56004 60006 70386 879// 91800 333 10182 20128=
07255,1997-06-26 21:00:00,13,997.5,0.9,88,11,18000,22.224,,,240,,,,,,,,,,,wg-a,,,,AAXX 26214 07255 12668 62412 10130 20110 39781 49975 53009 60006 86500 92100=
07255,1997-06-27 00:00:00,11,998,0.3,87,9,15000,18.52,,,230,,,,,,,,,,,wg-a,,,,AAXX 27004 07255 12765 12310 10110 20090 39784 49980 51003 60006 81500 90000=
07255,1997-06-27 03:00:00,10,997.4,-0.6,93,9,10000,18.52,,,220,,,,1,,,,,,61,wg-a,,,,AAXX 27034 07255 12460 82210 10100 20090 39778 49974 58006 60017 76161 878// 90300=
07255,1997-06-27 06:00:00,10,997.7,0.3,100,10,12000,14.816,,,200,9.8,16.3,,,,,,,,21,wg-a,,,,AAXX 27064 07255 02462 82008 10100 20100 39781 49977 52003 61000 72161 878// 90600 333 10163 20098 6003=
07255,1997-06-27 09:00:00,11,997.7,0.1,100,11,4900,25.928,,,230,,,,1,,,,,,50,wg-a,,,,AAXX 27094 07255 12349 82314 10110 20110 39782 49977 53001 60017 75065 887// 90900=
07255,1997-06-27 12:00:00,13,999.1,1.4,94,12,500,22.224,,,240,,,,0,,,,,,50,wg-a,,,,AAXX 27124 07255 02300 82412 10130 20120 39796 49991 53014 60016 75065 877// 91200 333 60007=
07255,1997-06-27 18:00:00,12,1001.5,1.7,94,11,6000,25.928,,,240,10.4,15.1,,,,,,,,80,wg-a,,,,AAXX 27184 07255 02456 82414 10120 20110 39819 40015 53017 61000 78086 882// 91800 333 10151 20104 6004=
07255,1997-06-28 00:00:00,12,1004.9,1.3,94,11,15000,18.52,,,230,,,,,,,,,,1,wg-a,,,,AAXX 28004 07255 12765 52310 10120 20110 39852 40049 51013 60016 70186 85500 90000=
07255,1997-06-28 06:00:00,11,1006.7,1,94,10,18000,11.112,,,190,8.6,12.6,,,,,7,,,,wg-a,,,,AAXX 28064 07255 02668 71906 10110 20100 39869 40067 53010 60006 86502 90600 333 10126 20086 60074=
07255,1997-06-28 09:00:00,16,1007.5,1.2,68,10,500,22.224,,,230,,,,,,,,,,,wg-a,,,,AAXX 28094 07255 12500 /2312 10160 20100 39881 40075 51012 60006 86801 90900=
07255,1997-06-28 12:00:00,19,1007.6,0.3,49,8,35000,14.816,,,240,,,,,,,,,,,wg-a,,,,AAXX 28124 07255 12681 /2408 10190 20080 39884 40076 51003 60006 85202 91200=
07255,1997-06-28 15:00:00,20,1006.9,-0.6,43,7,35000,11.112,,,210,,,,,,,,,,,wg-a,,,,AAXX 28154 07255 12681 42106 10200 20070 39878 40069 56006 60006 84102 91500=
07255,1997-06-28 18:00:00,20,1006.5,-0.4,46,8,35000,7.408,,,120,10.9,21.5,,,,,,,,,wg-a,,,,AAXX 28184 07255 12681 71204 10200 20080 39874 40065 55004 60006 81182 91800 333 10215 20109=
07255,1997-06-28 21:00:00,18,1006.8,0.1,64,11,500,7.408,,,70,,,,,,,,,,60,wg-a,,,,AAXX 28214 07255 02700 80704 10180 20110 39875 40068 53001 61000 76062 8352/ 92100 333 ////=
07255,1997-06-29 00:00:00,14,1005.8,-1.2,94,13,20000,7.408,,,30,,,,3,,,,,,61,wg-a,,,,AAXX 29004 07255 02370 80304 10140 20130 39863 40058 58012 60036 76162 8552/ 90000 333 60037=
07255,1997-06-29 03:00:00,12,1003.8,-2.1,94,11,6000,14.816,,,40,,,,6,,,,,,61,wg-a,,,,AAXX 29034 07255 12256 80408 10120 20110 39842 40038 58021 60067 76162 877// 90300=
07255,1997-06-29 06:00:00,12,1002.7,-1.1,94,11,15000,11.112,,,40,11.9,20.2,,,,,,,,61,wg-a,,,,AAXX 29064 07255 02365 80406 10120 20110 39831 40027 56011 61000 76162 877// 90600 333 10202 20119 6012=
07255,1997-06-29 09:00:00,14,1001.9,-0.6,94,13,25000,7.408,,,60,,,,,,,,,,3,wg-a,,,,AAXX 29094 07255 02375 80604 10140 20130 39825 40019 57006 61000 70362 882// 90900 333 ////=
07255,1997-06-29 12:00:00,17,1001.1,-0.6,77,13,28000,7.408,,,250,,,,,,,,,,2,wg-a,,,,AAXX 29124 07255 02478 72504 10170 20130 39819 40011 58006 61000 70262 872// 91200 333 ////=
07255,1997-06-29 15:00:00,17,1001.4,0.3,88,15,18000,7.408,,,300,,,,0,,,,,,29,wg-a,,,,AAXX 29154 07255 12468 73004 10170 20150 39822 40014 53003 60007 72996 86903 91500=
07255,1997-06-29 18:00:00,15,1002.9,1.3,72,10,25000,18.52,,,260,12.2,18.8,,,,,,,,21,wg-a,,,,AAXX 29184 07255 02475 72610 10150 20100 39835 40029 53013 61000 72196 85903 91800 333 10188 20122 6100=
07255,1997-06-29 21:00:00,11,1004,0.8,100,11,25000,7.408,,,210,,,,,,,,,,,wg-a,,,,AAXX 29214 07255 12575 72104 10110 20110 39843 40040 53008 60006 878// 92100=
07255,1997-06-30 00:00:00,13,1004.3,0.4,94,12,20000,18.52,,,260,,,,0,,,,,,51,wg-a,,,,AAXX 30004 07255 02370 72610 10130 20120 39847 40043 53004 60006 75165 876// 90000 333 60007=
07255,1997-06-30 03:00:00,12,1003.9,-0.4,100,12,3000,25.928,,,250,,,,8,,,,,,10,wg-a,,,,AAXX 30034 07255 12230 82514 10120 20120 39843 40039 56004 60087 71065 876// 90300=
07255,1997-06-30 06:00:00,12,1004.9,1,100,12,10000,22.224,,,260,10.5,14.6,,,,,,,,21,wg-a,,,,AAXX 30064 07255 02260 82612 10120 20120 39853 40049 53010 61000 72162 877// 90600 333 10146 20105 6011=
07255,1997-06-30 09:00:00,13,1005.8,0.9,94,12,7000,22.224,,,260,,,,,,,,,,21,wg-a,,,,AAXX 30094 07255 02257 82612 10130 20120 39862 40058 51009 61000 72165 878// 90900 333 ////=
07255,1997-06-30 12:00:00,17,1005.9,0.4,68,11,15000,22.224,,,260,,,,,,,,,,3,wg-a,,,,AAXX 30124 07255 02465 72612 10170 20110 39866 40059 51004 61000 70365 878// 91200 333 ////=
07255,1997-06-30 15:00:00,14,1006.5,0.4,94,13,8000,14.816,,,290,,,,1,,,,,,61,wg-a,,,,AAXX 30154 07255 12558 72908 10140 20130 39870 40065 53004 60017 76186 879// 91500=
07255,1997-06-30 18:00:00,15,1007.6,1.1,94,14,18000,14.816,,,250,12.3,17.9,,,,,,,,25,wg-a,,,,AAXX 30184 07255 02468 82508 10150 20140 39881 40076 52011 61000 72586 878// 91800 333 10179 20123 6000=
07255,1997-06-30 21:00:00,12,1009.5,1.7,100,12,10000,11.112,,,250,,,,1,,,,,,60,wg-a,,,,AAXX 30214 07255 12460 82506 10120 20120 39898 40095 53017 60017 76062 8687/ 92100=
07255,1997-07-01 00:00:00,13,1009.9,0.4,94,12,8000,14.816,,,260,,,,0,,,,,,60,wg-a,,,,AAXX 01004 07255 02458 82608 10130 20120 39902 40099 53004 60016 76062 878// 90000 333 60007=
07255,1997-07-01 03:00:00,13,1010.1,0.2,94,12,500,14.816,,,250,,,,0,,,,,,3,wg-a,,,,AAXX 01034 07255 12300 82508 10130 20120 39904 40101 51002 60007 70362 876// 90300=
07255,1997-07-01 06:00:00,13,1011,0.9,94,12,500,14.816,,,240,12.1,14.7,,,,,3,,,1,wg-a,,,,AAXX 01064 07255 02200 72408 10130 20120 39913 40110 51009 60006 70162 8583/ 90600 333 10147 20121 60034=
07255,1997-07-01 12:00:00,17,1011,-0.1,72,12,20000,25.928,,,240,,,,0,,,,,,3,wg-a,,,,AAXX 01124 07255 02570 72414 10170 20120 39916 40110 58001 60006 70386 878// 91200 333 60007=
07255,1997-07-01 15:00:00,15,1011,-0.2,88,13,10000,14.816,,,300,,,,1,,,,,,25,wg-a,,,,AAXX 01154 07255 12460 73008 10150 20130 39914 40110 55002 60017 72586 878// 91500=
07255,1997-07-01 18:00:00,16,1010.7,-0.2,88,14,20000,11.112,,,220,12.8,18.1,,,,,,,,25,wg-a,,,,AAXX 01184 07255 02570 72206 10160 20140 39912 40107 56002 61000 72586 86802 91800 333 10181 20128 6001=
07255,1997-07-01 21:00:00,12,1011.6,0.6,94,11,500,11.112,,,190,,,,,,,,,,,wg-a,,,,AAXX 01214 07255 12500 31906 10120 20110 39918 40116 53006 60006 82802 92100=
07255,1997-07-02 00:00:00,12,1011.5,-0.1,94,11,15000,3.704,,,190,,,,,,,,,,,wg-a,,,,AAXX 02004 07255 12565 71902 10120 20110 39917 40115 58001 60006 86502 90000=
07255,1997-07-02 03:00:00,12,1010.6,-0.8,100,12,10000,7.408,,,170,,,,1,,,,,,61,wg-a,,,,AAXX 02034 07255 12560 81704 10120 20120 39909 40106 58008 60017 76162 875// 90300=
07255,1997-07-02 06:00:00,13,1008.5,-2.1,94,12,2500,7.408,,,120,11.5,15.8,,,,,,,,10,wg-a,,,,AAXX 02064 07255 02425 81204 10130 20120 39888 40085 56021 61000 71062 865// 90600 333 10158 20115 6006=
07255,1997-07-02 09:00:00,13,1007.7,-0.7,100,13,3500,7.408,,,320,,,,9,,,,,,10,wg-a,,,,AAXX 02094 07255 12235 83204 10130 20130 39881 40077 58007 60097 71066 887// 90900=
07255,1997-07-02 12:00:00,13,1009.2,1.5,100,13,4500,18.52,,,280,,,,3,,,,,,10,wg-a,,,,AAXX 02124 07255 02245 82810 10130 20130 39896 40092 53015 60126 71066 877// 91200 333 60037=
07255,1997-07-02 15:00:00,14,1010.5,1.3,88,12,20000,14.816,,,230,,,,2,,,,,,21,wg-a,,,,AAXX 02154 07255 12370 72308 10140 20120 39909 40105 51013 60027 72162 8282/ 91500=
07255,1997-07-02 18:00:00,15,1011.2,0.8,88,13,25000,18.52,,,200,12.6,16.5,,,,,,,,1,wg-a,,,,AAXX 02184 07255 12475 72010 10150 20130 39917 40112 53008 60006 70162 86801 91800 333 10165 20126=
07255,1997-07-02 21:00:00,13,1014,2.5,88,11,20000,14.816,,,220,,,,,,,,,,15,wg-a,,,,AAXX 02214 07255 12470 62208 10130 20110 39942 40140 53025 60006 71522 84802 92100=
07255,1997-07-03 00:00:00,10,1014.8,0.6,100,10,15000,11.112,,,240,,,,,,,,,,,wg-a,,,,AAXX 03004 07255 12665 22406 10100 20100 39948 40148 51006 60006 81501 90000=
07255,1997-07-03 03:00:00,9,1015.1,0.2,93,8,20000,11.112,,,210,,,,0,,,,,,,wg-a,,,,AAXX 03034 07255 12670 42106 10090 20080 39950 40151 50002 60007 82501 90300=
07255,1997-07-03 06:00:00,12,1015.4,0.5,94,11,25000,14.816,,,210,8.3,15.2,,,,,14,,,,wg-a,,,,AAXX 03064 07255 02675 /2108 10120 20110 39955 40154 53005 60006 81531 90600 333 10152 20083 60144=
07255,1997-07-03 12:00:00,18,1015.5,-0.1,56,9,20000,14.816,,,270,,,,0,,,,,,15,wg-a,,,,AAXX 03124 07255 02670 62708 10180 20090 39960 40155 58001 60006 71586 85801 91200 333 60007=
07255,1997-07-03 15:00:00,18,1016,0.6,59,10,35000,22.224,,,240,,,,1,,,,,,3,wg-a,,,,AAXX 03154 07255 12581 /2412 10180 20100 39966 40160 51006 60017 70386 85831 91500=
07255,1997-07-03 18:00:00,17,1016.1,0,59,9,35000,18.52,,,230,12,19.5,,,,,,,,1,wg-a,,,,AAXX 03184 07255 12681 22310 10170 20090 39966 40161 50000 60006 70186 81801 91800 333 10195 20120=
07255,1997-07-03 21:00:00,12,1018,1.5,88,10,500,11.112,,,220,,,,,,,,,,,wg-a,,,,AAXX 03214 07255 12700 32206 10120 20100 39981 40180 53015 60006 82501 92100=
07255,1997-07-04 00:00:00,11,1018.5,0.4,94,10,500,11.112,,,210,,,,,,,,,,,wg-a,,,,AAXX 04004 07255 12700 12106 10110 20100 39985 40185 50004 60006 81500 90000=
07255,1997-07-04 06:00:00,12,1019,0.8,94,11,18000,7.408,,,200,9.7,17.2,,,,,1,,,,wg-a,,,,AAXX 04064 07255 02/68 62004 10120 20110 39991 40190 53008 60006 83031 90600 333 10172 20097 60014=
07255,1997-07-04 09:00:00,17,1019.1,0.4,68,11,40000,18.52,,,240,,,,,,,,,,,wg-a,,,,AAXX 04094 07255 12582 72410 10170 20110 39995 40191 50004 60006 8483/ 90900=
07255,1997-07-04 12:00:00,19,1018.6,-0.4,60,11,35000,25.928,,,220,,,,,,,,,,3,wg-a,,,,AAXX 04124 07255 02681 72214 10190 20110 39991 40186 58004 61000 70362 85231 91200 333 6100=
07255,1997-07-04 15:00:00,19,1018.5,-0.1,64,12,35000,14.816,,,280,,,,,,,,,,15,wg-a,,,,AAXX 04154 07255 12681 72808 10190 20120 39990 40185 55001 60006 71522 8623/ 91500=
07255,1997-07-04 18:00:00,13,1019.7,0.9,94,12,500,0,,,0,12,20.9,,,,,,,,60,wg-a,,,,AAXX 04184 07255 02300 70000 10130 20120 39999 40197 50009 61000 76086 8392/ 91800 333 10209 20120 6003=
07255,1997-07-04 21:00:00,12,1020.9,1.1,100,12,15000,3.704,,,260,,,,0,,,,,,1,wg-a,,,,AAXX 04214 07255 12465 /2602 10120 20120 30010 40209 53011 60007 70162 81870 92100=
07255,1997-07-05 00:00:00,13,1021.6,0.7,94,12,8000,3.704,,,290,,,,,,,,,,21,wg-a,,,,AAXX 05004 07255 02358 72902 10130 20120 30017 40216 52007 60006 72162 878// 90000 333 61000=
07255,1997-07-05 06:00:00,12,1023.1,1.3,100,12,500,7.408,,,320,11.5,13.6,,,,,3,,,,wg-a,,,,AAXX 05064 07255 02200 83204 10120 20120 30031 40231 52013 60006 887// 90600 333 10136 20115 60034=
07255,1997-07-05 09:00:00,15,1024.2,1.3,82,12,15000,11.112,,,320,,,,,,,,,,,wg-a,,,,AAXX 05094 07255 12465 73206 10150 20120 30044 40242 51013 60006 878// 90900=
07255,1997-07-05 12:00:00,15,1024.9,0.7,88,13,12000,18.52,,,320,,,,0,,,,,,25,wg-a,,,,AAXX 05124 07255 02562 73210 10150 20130 30051 40249 51007 60006 72586 878// 91200 333 60007=
07255,1997-07-05 15:00:00,15,1025.3,0.4,94,14,6000,11.112,,,330,,,,6,,,,,,61,wg-a,,,,AAXX 05154 07255 12456 83306 10150 20140 30055 40253 53004 60067 76186 888// 91500=
07255,1997-07-05 18:00:00,17,1025.8,0.6,82,14,18000,11.112,,,310,12,18.5,,,,,,,,2,wg-a,,,,AAXX 05184 07255 02568 /3106 10170 20140 30061 40258 53006 60006 70286 86800 91800 333 10185 20120 61000=
07255,1997-07-05 21:00:00,15,1027.8,1.9,88,13,15000,11.112,,,290,,,,,,,,,,,wg-a,,,,AAXX 05214 07255 12765 82906 10150 20130 30080 40278 53019 60006 8453/ 92100=
07255,1997-07-06 00:00:00,14,1028.8,0.8,94,13,6000,3.704,,,10,,,,,,,,,,,wg-a,,,,AAXX 06004 07255 12656 70102 10140 20130 30088 40288 51008 60006 875// 90000=
07255,1997-07-06 03:00:00,11,1029.2,0.2,94,10,6000,3.704,,,320,,,,,,,,,,,wg-a,,,,AAXX 06034 07255 12/56 03202 10110 20100 30090 40292 53002 60006 80000 90300=
07255,1997-07-06 06:00:00,11,1030.1,0.9,94,10,3500,3.704,,,300,9.6,17.3,,,,,6,,,10,wg-a,,,,AAXX 06064 07255 02635 /3002 10110 20100 30099 40301 53009 60006 71011 81500 90600 333 10173 20096 60064=
07255,1997-07-06 09:00:00,17,1029.8,0.1,72,12,12000,7.408,,,340,,,,,,,,,,,wg-a,,,,AAXX 06094 07255 12462 /3404 10170 20120 30100 40298 51001 60006 86200 90900=
07255,1997-07-06 12:00:00,20,1028.9,-0.6,56,11,22000,14.816,,,20,,,,,,,,,,,wg-a,,,,AAXX 06124 07255 12672 /0208 10200 20110 30094 40289 58006 60006 86200 91200=
07255,1997-07-06 18:00:00,21,1027.8,-0.3,53,11,25000,11.112,,,40,10.9,22.6,,,,,,,,,wg-a,,,,AAXX 06184 07255 12775 30406 10210 20110 30083 40278 56003 60006 83430 91800 333 10226 20109=
07255,1997-07-06 21:00:00,18,1028.5,0.5,73,13,18000,3.704,,,110,,,,,,,,,,,wg-a,,,,AAXX 06214 07255 12768 51102 10180 20130 30088 40285 53005 60006 83530 92100=
07255,1997-07-07 00:00:00,16,1028.1,-0.5,82,13,12000,7.408,,,350,,,,,,,,,,,wg-a,,,,AAXX 07004 07255 12762 33504 10160 20130 30083 40281 57005 60006 83500 90000=
07255,1997-07-07 03:00:00,14,1027.4,-0.8,94,13,10000,3.704,,,340,,,,,,,,,,,wg-a,,,,AAXX 07034 07255 12/60 23402 10140 20130 30075 40274 57008 60006 80001 90300=
07255,1997-07-07 06:00:00,16,1027.7,0.4,82,13,7000,7.408,,,40,13,21.5,,,,,,,,,wg-a,,,,AAXX 07064 07255 02/57 30404 10160 20130 30079 40277 53004 60006 83030 90600 333 10215 20130 60004=
07255,1997-07-07 09:00:00,20,1027,-0.4,64,13,25000,18.52,,,50,,,,,,,,,,,wg-a,,,,AAXX 07094 07255 12575 /0510 10200 20130 30075 40270 58004 60006 85102 90900=
07255,1997-07-07 12:00:00,22,1026,-0.9,57,13,25000,14.816,,,40,,,,,,,,,,,wg-a,,,,AAXX 07124 07255 12675 70408 10220 20130 30066 40260 56009 60006 878// 91200=
07255,1997-07-07 15:00:00,24,1024.5,-1.3,54,14,500,14.816,,,40,,,,,,,,,,,wg-a,,,,AAXX 07154 07255 12600 /0408 10240 20140 30053 40245 58013 60006 85801 91500=
07255,1997-07-07 18:00:00,23,1023.8,-0.8,57,14,35000,14.816,,,50,15.6,24.3,,,,,,,,,wg-a,,,,AAXX 07184 07255 12681 30508 10230 20140 30045 40238 57008 60006 83801 91800 333 10243 20156=
07255,1997-07-08 00:00:00,18,1023.8,-0.2,73,13,25000,11.112,,,70,,,,,,,,,,,wg-a,,,,AAXX 08004 07255 12/75 20706 10180 20130 30042 40238 58002 60006 80001 90000=
07255,1997-07-08 06:00:00,16,1022.9,0.3,88,14,25000,14.816,,,60,13.6,23,,,,,,,,,wg-a,,,,AAXX 08064 07255 02/75 00608 10160 20140 30032 40229 53003 60006 80000 90600 333 10230 20136 60004=
07255,1997-07-08 09:00:00,21,1022.3,-0.3,60,13,28000,22.224,,,70,,,,,,,,,,,wg-a,,,,AAXX 08094 07255 12578 /0712 10210 20130 30029 40223 58003 60006 81100 90900=
07255,1997-07-08 12:00:00,24,1020.9,-1.2,47,12,500,22.224,,,70,,,,,,,,,,,wg-a,,,,AAXX 08124 07255 12700 40712 10240 20120 30017 40209 58012 60006 84100 91200=
07255,1997-07-08 15:00:00,25,1019.2,-1.5,47,13,40000,22.224,,,80,,,,,,,,,,,wg-a,,,,AAXX 08154 07255 12782 40812 10250 20130 30002 40192 58015 60006 84101 91500=
07255,1997-07-08 18:00:00,24,1018,-1.3,50,13,40000,22.224,,,70,16.4,25.8,,,,,,,,,wg-a,,,,AAXX 08184 07255 12782 60712 10240 20130 39989 40180 56013 60006 86100 91800 333 10258 20164=
07255,1997-07-08 21:00:00,21,1018.2,-0,64,14,35000,11.112,,,40,,,,,,,,,,,wg-a,,,,AAXX 08214 07255 12/81 00406 10210 20140 39989 40182 55000 60006 80000 92100=
07255,1997-07-09 00:00:00,19,1017.7,-0.6,73,14,25000,18.52,,,60,,,,,,,,,,,wg-a,,,,AAXX 09004 07255 12/75 00610 10190 20140 39983 40177 58006 60006 80000 90000=
07255,1997-07-09 03:00:00,17,1016.7,-1.1,82,14,20000,11.112,,,80,,,,,,,,,,,wg-a,,,,AAXX 09034 07255 12/70 00806 10170 20140 39972 40167 57011 60006 80000 90300=
07255,1997-07-09 06:00:00,17,1016.6,-0.1,82,14,20000,7.408,,,90,15.5,24.4,,,,,,,,,wg-a,,,,AAXX 09064 07255 02/70 00904 10170 20140 39971 40166 55001 60006 80000 90600 333 10244 20155 60004=
07255,1997-07-09 12:00:00,25,1014.6,-0.8,47,13,25000,18.52,,,60,,,,,,,,,,,wg-a,,,,AAXX 09124 07255 12675 30610 10250 20130 39956 40146 58008 60006 83100 91200=
07255,1997-07-09 15:00:00,26,1013.4,-1.1,42,12,500,18.52,,,50,,,,,,,,,,,wg-a,,,,AAXX 09154 07255 12700 30510 10260 20120 39945 40134 56011 60006 83100 91500=
07255,1997-07-09 18:00:00,26,1012.6,-0.8,48,14,500,18.52,,,40,17.4,26.4,,,,,,,,,wg-a,,,,AAXX 09184 07255 12700 20410 10260 20140 39937 40126 56008 60006 82801 91800 333 10264 20174=
07255,1997-07-10 00:00:00,20,1013,-0.5,73,15,25000,14.816,,,70,,,,,,,,,,,wg-a,,,,AAXX 10004 07255 12/75 00708 10200 20150 39937 40130 57005 60006 80000 90000=
07255,1997-07-10 03:00:00,18,1012.4,-0.7,77,14,25000,11.112,,,80,,,,,,,,,,,wg-a,,,,AAXX 10034 07255 12775 20806 10180 20140 39930 40124 58007 60006 81101 90300=
07255,1997-07-10 06:00:00,17,1012.3,-0.1,88,15,28000,0,,,0,15.1,25.5,,,,,,,,,wg-a,,,,AAXX 10064 07255 02778 30000 10170 20150 39929 40123 55001 60006 83102 90600 333 10255 20151 60004=
07255,1997-07-10 09:00:00,23,1012.2,0.3,65,16,20000,7.408,,,50,,,,,,,,,,,wg-a,,,,AAXX 10094 07255 12570 /0504 10230 20160 39932 40122 50003 60006 81201 90900=
07255,1997-07-10 12:00:00,27,1011.2,-0.8,48,15,25000,11.112,,,20,,,,,,,,,,,wg-a,,,,AAXX 10124 07255 12675 30206 10270 20150 39924 40112 58008 60006 83901 91200=
07255,1997-07-10 15:00:00,28,1010.7,-0.4,40,13,25000,11.112,,,350,,,,,,,,,,,wg-a,,,,AAXX 10154 07255 12775 23506 10280 20130 39920 40107 56004 60006 82203 91500=
07255,1997-07-10 18:00:00,27,1010.8,-0,42,13,25000,11.112,,,20,17.1,28.1,,,,,,,,,wg-a,,,,AAXX 10184 07255 12775 /0206 10270 20130 39920 40108 55000 60006 81983 91800 333 10281 20171=
07255,1997-07-11 00:00:00,17,1013.5,0,88,15,20000,7.408,,,280,,,,,,,,,,,wg-a,,,,AAXX 11004 07255 12/70 42804 10170 20150 39941 40135 50000 60006 80001 90000=
07255,1997-07-11 03:00:00,16,1013.9,0.2,94,15,18000,7.408,,,270,,,,,,,,,,,wg-a,,,,AAXX 11034 07255 12/68 42704 10160 20150 39943 40139 53002 60006 81031 90300=
07255,1997-07-11 06:00:00,17,1014.5,0.8,94,16,12000,11.112,,,260,15.1,26.9,,,,,,,,,wg-a,,,,AAXX 11064 07255 02/62 42606 10170 20160 39951 40145 53008 60006 83081 90600 333 10269 20151 60004=
07255,1997-07-11 12:00:00,21,1016,0.8,83,18,20000,11.112,,,270,,,,,,,,,,,wg-a,,,,AAXX 11124 07255 12570 72706 10210 20180 39968 40160 51008 60006 8233/ 91200=
07255,1997-07-11 15:00:00,26,1014.9,-0.8,58,17,20000,18.52,,,260,,,,,,,,,,,wg-a,,,,AAXX 11154 07255 12570 72610 10260 20170 39960 40149 56008 60006 8533/ 91500=
07255,1997-07-11 18:00:00,22,1015.2,0.1,69,16,18000,7.408,,,260,17.4,25.8,,,,,,,,1,wg-a,,,,AAXX 11184 07255 12/68 72604 10220 20160 39961 40152 50001 60006 70192 84032 91800 333 10258 20174=
07255,1997-07-11 21:00:00,18,1017,1.5,88,16,12000,7.408,,,270,,,,,,,,,,,wg-a,,,,AAXX 11214 07255 12/62 32704 10180 20160 39976 40170 51015 60006 82031 92100=
07255,1997-07-12 00:00:00,17,1017.3,0.2,94,16,10000,7.408,,,270,,,,,,,,,,,wg-a,,,,AAXX 12004 07255 12/60 02704 10170 20160 39978 40173 50002 60006 80000 90000=
07255,1997-07-12 03:00:00,15,1017.8,0.3,94,14,6000,7.408,,,260,,,,,,,,,,,wg-a,,,,AAXX 12034 07255 12/56 22604 10150 20140 39981 40178 53003 60006 80001 90300=
07255,1997-07-12 06:00:00,15,1018.3,0.5,94,14,4500,11.112,,,270,13.7,23,,,,,,,,10,wg-a,,,,AAXX 12064 07255 02/45 42706 10150 20140 39986 40183 51005 60006 71000 80001 90600 333 10230 20137 60004=
07255,1997-07-12 09:00:00,19,1018.3,0.3,73,14,12000,11.112,,,270,,,,,,,,,,,wg-a,,,,AAXX 12094 07255 12462 72706 10190 20140 39989 40183 51003 60006 86201 90900=
07255,1997-07-12 12:00:00,22,1017.5,-0.6,57,13,25000,11.112,,,240,,,,,,,,,,,wg-a,,,,AAXX 12124 07255 12575 52406 10220 20130 39983 40175 58006 60006 85101 91200=
07255,1997-07-12 15:00:00,25,1016.1,-1.2,44,12,500,14.816,,,280,,,,,,,,,,,wg-a,,,,AAXX 12154 07255 12700 12808 10250 20120 39971 40161 58012 60006 81101 91500=
07255,1997-07-12 18:00:00,25,1015.2,-0.9,44,12,500,7.408,,,300,15.2,25.7,,,,,,,,,wg-a,,,,AAXX 12184 07255 12/00 03004 10250 20120 39962 40152 56009 60006 80000 91800 333 10257 20152=
07255,1997-07-12 21:00:00,20,1016.9,1.4,73,15,25000,7.408,,,340,,,,,,,,,,,wg-a,,,,AAXX 12214 07255 12775 53404 10200 20150 39976 40169 53014 60006 85500 92100=
07255,1997-07-13 00:00:00,19,1017.2,0.2,73,14,20000,7.408,,,40,,,,,,,,,,,wg-a,,,,AAXX 13004 07255 12770 20404 10190 20140 39978 40172 50002 60006 82500 90000=
07255,1997-07-13 03:00:00,16,1016.9,-0.5,88,14,20000,3.704,,,120,,,,,,,,,,,wg-a,,,,AAXX 13034 07255 12/70 41202 10160 20140 39973 40169 55005 60006 80001 90300=
07255,1997-07-13 06:00:00,17,1017.3,0.5,88,15,20000,7.408,,,110,15,25.2,,,,,,,,,wg-a,,,,AAXX 13064 07255 02470 71104 10170 20150 39978 40173 51005 60006 81101 90600 333 10252 20150 60004=
07255,1997-07-13 09:00:00,23,1017.6,0.7,61,15,25000,3.704,,,70,,,,,,,,,,,wg-a,,,,AAXX 13094 07255 12/75 70702 10230 20150 39985 40176 51007 60006 81032 90900=
07255,1997-07-13 12:00:00,26,1016.5,-0.9,54,16,25000,11.112,,,100,,,,,,,,,,,wg-a,,,,AAXX 13124 07255 12675 71006 10260 20160 39976 40165 57009 60006 82282 91200=
07255,1997-07-13 15:00:00,28,1015.8,-0.6,48,16,500,3.704,,,320,,,,,,,,,,,wg-a,,,,AAXX 13154 07255 12700 73202 10280 20160 39970 40158 56006 60006 85282 91500=
07255,1997-07-13 18:00:00,26,1016.1,0.2,61,18,15000,11.112,,,10,16.8,28.5,,,,,,,,80,wg-a,,,,AAXX 13184 07255 02665 70106 10260 20180 39972 40161 53002 61000 78098 85982 91800 333 10285 20168 6100=
07255,1997-07-13 21:00:00,22,1017.3,0.9,78,18,20000,7.408,,,10,,,,,,,,,,1,wg-a,,,,AAXX 13214 07255 02770 60104 10220 20180 39981 40173 53009 61000 70198 81232 92100 333 ////=
07255,1997-07-14 00:00:00,20,1017.8,0.4,83,17,15000,7.408,,,20,,,,,,,,,,29,wg-a,,,,AAXX 14004 07255 02665 70204 10200 20170 39985 40178 50004 61000 72998 8597/ 90000 333 ////=
07255,1997-07-14 03:00:00,18,1018.5,0.5,94,17,12000,0,,,0,,,,9,,,,,,1,wg-a,,,,AAXX 14034 07255 12762 80000 10180 20170 39990 40185 51005 60097 70198 8357/ 90300=
07255,1997-07-14 06:00:00,17,1019,0.5,94,16,25000,0,,,0,16.9,25.7,,,,,9,,,17,wg-a,,,,AAXX 14064 07255 02775 70000 10170 20160 39995 40190 53005 60006 71798 81982 90600 333 10257 20169 60094=
07255,1997-07-14 09:00:00,18,1021,2,94,17,10000,11.112,,,270,,,,2,,,,,,61,wg-a,,,,AAXX 14094 07255 12660 72706 10180 20170 30015 40210 51020 60027 76198 8257/ 90900=
07255,1997-07-14 12:00:00,24,1020.3,-0.3,69,18,20000,11.112,,,270,,,,0,,,,,,3,wg-a,,,,AAXX 14124 07255 02570 72706 10240 20180 30012 40203 56003 60036 70398 86281 91200 333 60007=
07255,1997-07-14 15:00:00,25,1019.5,-0.7,65,18,25000,14.816,,,270,,,,,,,,,,17,wg-a,,,,AAXX 14154 07255 02575 72708 10250 20180 30005 40195 56007 61000 71798 84902 91500 333 ////=
07255,1997-07-14 18:00:00,24,1019.6,-0,65,17,20000,11.112,,,320,17.3,25.8,,,,,,,,1,wg-a,,,,AAXX 14184 07255 02670 73206 10240 20170 30005 40196 55000 60006 70198 83282 91800 333 10258 20173 61000=
07255,1997-07-14 21:00:00,21,1021.7,1.9,73,16,18000,7.408,,,340,,,,,,,,,,,wg-a,,,,AAXX 14214 07255 12/68 73404 10210 20160 30024 40217 53019 60006 85032 92100=
07255,1997-07-15 00:00:00,18,1022.8,0.8,83,15,20000,7.408,,,330,,,,,,,,,,,wg-a,,,,AAXX 15004 07255 12/70 03304 10180 20150 30032 40228 51008 60006 80000 90000=
07255,1997-07-15 03:00:00,14,1023.3,0.3,94,13,15000,7.408,,,320,,,,,,,,,,,wg-a,,,,AAXX 15034 07255 12/65 03204 10140 20130 30035 40233 52003 60006 80000 90300=
07255,1997-07-15 06:00:00,15,1023.8,0.5,94,14,12000,3.704,,,10,13.4,24.3,,,,,3,,,,wg-a,,,,AAXX 15064 07255 02/62 00102 10150 20140 30040 40238 52005 60006 80000 90600 333 10243 20134 60034=
07255,1997-07-15 12:00:00,24,1023.5,-0.8,50,13,35000,11.112,,,360,,,,,,,,,,,wg-a,,,,AAXX 15124 07255 12681 /3606 10240 20130 30043 40235 58008 60006 81100 91200=
07255,1997-07-15 18:00:00,25,1021.2,-1,41,11,40000,7.408,,,340,15.1,26,,,,,,,,,wg-a,,,,AAXX 15184 07255 12/82 13404 10250 20110 30021 40212 58010 60006 80001 91800 333 10260 20151=
07255,1997-07-15 21:00:00,22,1021.7,0.3,57,13,500,11.112,,,70,,,,,,,,,,,wg-a,,,,AAXX 15214 07255 12/00 10706 10220 20130 30024 40217 53003 60006 80001 92100=
07255,1997-07-16 00:00:00,17,1020.9,-1.1,77,13,25000,11.112,,,110,,,,,,,,,,,wg-a,,,,AAXX 16004 07255 12/75 41106 10170 20130 30013 40209 58011 60006 80002 90000=
07255,1997-07-16 03:00:00,15,1020.2,-0.8,88,13,20000,11.112,,,110,,,,,,,,,,,wg-a,,,,AAXX 16034 07255 12/70 51106 10150 20130 30005 40202 56008 60006 80002 90300=
07255,1997-07-16 06:00:00,17,1020,-0.1,77,13,25000,7.408,,,80,14.2,25.3,,,,,,,,,wg-a,,,,AAXX 16064 07255 02/75 40804 10170 20130 30004 40200 55001 60006 80001 90600 333 10253 20142 60004=
07255,1997-07-16 12:00:00,27,1016.8,-1.7,42,13,35000,11.112,,,90,,,,,,,,,,,wg-a,,,,AAXX 16124 07255 12/81 50906 10270 20130 39979 40168 58017 60006 80001 91200=
07255,1997-07-16 15:00:00,29,1014.8,-1.8,37,13,35000,11.112,,,100,,,,,,,,,,,wg-a,,,,AAXX 16154 07255 12/81 61006 10290 20130 39961 40148 56018 60006 80002 91500=
07255,1997-07-16 18:00:00,28,1013.4,-1.4,45,15,35000,14.816,,,40,17.3,29.3,,,,,,,,,wg-a,,,,AAXX 16184 07255 12/81 60408 10280 20150 39947 40134 56014 60006 80002 91800 333 10293 20173=
07255,1997-07-16 21:00:00,23,1014.7,0.9,69,17,500,7.408,,,20,,,,,,,,,,,wg-a,,,,AAXX 16214 07255 12/00 60204 10230 20170 39956 40147 53009 60006 80002 92100=
07255,1997-07-17 00:00:00,20,1014.9,0,78,16,22000,14.816,,,40,,,,,,,,,,,wg-a,,,,AAXX 17004 07255 12/72 70408 10200 20160 39956 40149 50000 60006 83082 90000=
07255,1997-07-17 03:00:00,17,1013.6,-1.5,82,14,20000,18.52,,,40,,,,,,,,,,,wg-a,,,,AAXX 17034 07255 12/70 70410 10170 20140 39941 40136 58015 60006 85082 90300=
07255,1997-07-17 06:00:00,16,1014.3,0.7,82,13,28000,14.816,,,40,15.9,28,,,,,,,,,wg-a,,,,AAXX 17064 07255 02778 70408 10160 20130 39948 40143 52007 60006 84582 90600 333 10280 20159 60004=
07255,1997-07-17 09:00:00,18,1013.9,-0.3,83,15,25000,11.112,,,20,,,,,,,,,,1,wg-a,,,,AAXX 17094 07255 02775 40206 10180 20150 39945 40139 58003 61000 70161 82581 90900 333 ////=
07255,1997-07-17 12:00:00,24,1013,-0.5,54,14,25000,14.816,,,330,,,,,,,,,,3,wg-a,,,,AAXX 17124 07255 02675 /3308 10240 20140 39940 40130 58005 61000 70361 81182 91200 333 ////=
07255,1997-07-17 15:00:00,24,1012.4,-0.6,50,13,25000,14.816,,,350,,,,,,,,,,,wg-a,,,,AAXX 17154 07255 12675 /3508 10240 20130 39934 40124 58006 60006 81102 91500=
07255,1997-07-17 18:00:00,23,1012.7,0.3,57,14,25000,11.112,,,340,16.1,24.8,,,,,,,,,wg-a,,,,AAXX 17184 07255 12675 73406 10230 20140 39937 40127 53003 60006 878// 91800 333 10248 20161=
07255,1997-07-18 00:00:00,17,1014.6,-0.1,82,14,25000,14.816,,,300,,,,,,,,,,,wg-a,,,,AAXX 18004 07255 12675 /3008 10170 20140 39951 40146 58001 60006 81800 90000=
07255,1997-07-18 06:00:00,16,1016.2,1.4,88,14,12000,18.52,,,310,15.2,23.2,,,,,,,,,wg-a,,,,AAXX 18064 07255 02462 73110 10160 20140 39966 40162 53014 60006 878// 90600 333 10232 20152 61000=
07255,1997-07-18 09:00:00,18,1016.9,0.8,73,13,20000,18.52,,,10,,,,,,,,,,,wg-a,,,,AAXX 18094 07255 12570 /0110 10180 20130 39974 40169 51008 60006 86800 90900=
07255,1997-07-18 12:00:00,20,1017.3,0.6,56,11,25000,14.816,,,340,,,,,,,,,,,wg-a,,,,AAXX 18124 07255 12675 43408 10200 20110 39980 40173 53006 60006 84800 91200=
07255,1997-07-18 15:00:00,22,1017.6,0.3,43,9,500,18.52,,,350,,,,,,,,,,,wg-a,,,,AAXX 18154 07255 12600 23510 10220 20090 39983 40176 52003 60006 82800 91500=
07255,1997-07-18 18:00:00,20,1018.4,0.7,53,10,500,11.112,,,340,15.8,22.2,,,,,,,,,wg-a,,,,AAXX 18184 07255 12600 63406 10200 20100 39990 40184 53007 60006 85830 91800 333 10222 20158=
07255,1997-07-19 00:00:00,14,1021.2,0.2,82,11,15000,7.408,,,290,,,,,,,,,,,wg-a,,,,AAXX 19004 07255 12765 62904 10140 20110 30014 40212 50002 60006 86500 90000=
07255,1997-07-19 03:00:00,15,1021.4,0.2,82,12,15000,7.408,,,300,,,,,,,,,,,wg-a,,,,AAXX 19034 07255 12565 73004 10150 20120 30016 40214 53002 60006 875// 90300=
07255,1997-07-19 06:00:00,15,1022.2,0.8,88,13,12000,11.112,,,300,14.1,20.3,,,,,,,,21,wg-a,,,,AAXX 19064 07255 02562 63006 10150 20130 30024 40222 52008 61000 72162 84530 90600 333 10203 20141 6000=
07255,1997-07-19 09:00:00,16,1023.2,1.1,88,14,7000,11.112,,,330,,,,,,,,,,60,wg-a,,,,AAXX 19094 07255 02457 83306 10160 20140 30035 40232 52011 61000 76062 871// 90900 333 ////=
07255,1997-07-19 12:00:00,19,1023.5,0.5,78,15,9000,11.112,,,350,,,,,,,,,,1,wg-a,,,,AAXX 19124 07255 02459 73506 10190 20150 30040 40235 52005 61000 70162 878// 91200 333 6100=
07255,1997-07-19 15:00:00,23,1022.2,-1,57,14,20000,11.112,,,350,,,,,,,,,,,wg-a,,,,AAXX 19154 07255 12670 43506 10230 20140 30030 40222 58010 60006 84100 91500=
07255,1997-07-19 18:00:00,23,1022.4,0.2,53,13,25000,11.112,,,340,14.7,23.9,,,,,,,,,wg-a,,,,AAXX 19184 07255 12675 33406 10230 20130 30032 40224 53002 60006 82231 91800 333 10239 20147=
07255,1997-07-19 21:00:00,19,1023.6,0.9,73,14,15000,3.704,,,360,,,,,,,,,,,wg-a,,,,AAXX 19214 07255 12765 73602 10190 20140 30041 40236 53009 60006 8653/ 92100=
07255,1997-07-20 00:00:00,17,1023.7,-0.1,77,13,15000,7.408,,,350,,,,,,,,,,,wg-a,,,,AAXX 20004 07255 12765 13504 10170 20130 30040 40237 58001 60006 81500 90000=
07255,1997-07-20 03:00:00,15,1023.3,-0.5,88,13,12000,3.704,,,340,,,,,,,,,,,wg-a,,,,AAXX 20034 07255 12762 13402 10150 20130 30035 40233 56005 60006 81500 90300=
07255,1997-07-20 06:00:00,14,1023.6,0.3,94,13,10000,7.408,,,350,12.7,23.2,,,,,,,,,wg-a,,,,AAXX 20064 07255 02760 23504 10140 20130 30038 40236 53003 60006 81501 90600 333 10232 20127 61000=
07255,1997-07-20 09:00:00,21,1023.2,0,64,14,22000,11.112,,,50,,,,,,,,,,,wg-a,,,,AAXX 20094 07255 12572 50506 10210 20140 30038 40232 50000 60006 84201 90900=
07255,1997-07-20 12:00:00,22,1022.3,-0.8,50,11,500,18.52,,,40,,,,,,,,,,,wg-a,,,,AAXX 20124 07255 12600 40410 10220 20110 30030 40223 58008 60006 83201 91200=
07255,1997-07-20 15:00:00,22,1021.7,-0.6,46,10,20000,18.52,,,20,,,,,,,,,,,wg-a,,,,AAXX 20154 07255 12770 20210 10220 20100 30024 40217 57006 60006 81101 91500=
07255,1997-07-20 18:00:00,22,1021,-0.7,50,11,25000,14.816,,,20,14.2,22.5,,,,,,,,,wg-a,,,,AAXX 20184 07255 12775 20208 10220 20110 30017 40210 56007 60006 81101 91800 333 10225 20142=
07255,1997-07-20 21:00:00,18,1021.5,0.2,59,10,25000,7.408,,,40,,,,,,,,,,,wg-a,,,,AAXX 20214 07255 12/75 10404 10180 20100 30019 40215 52002 60006 80001 92100=
07255,1997-07-21 00:00:00,15,1021.4,-0.2,77,11,20000,7.408,,,80,,,,,,,,,,,wg-a,,,,AAXX 21004 07255 12/70 20804 10150 20110 30017 40214 58002 60006 80001 90000=
07255,1997-07-21 06:00:00,15,1021.2,0.4,77,11,40000,11.112,,,80,11.3,21.8,,,,,,,,,wg-a,,,,AAXX 21064 07255 02/82 50806 10150 20110 30015 40212 51004 60006 80002 90600 333 10218 20113 60004=
07255,1997-07-21 09:00:00,20,1020.9,0,60,12,500,11.112,,,100,,,,,,,,,,,wg-a,,,,AAXX 21094 07255 12500 /1006 10200 20120 30015 40209 50000 60006 81102 90900=
07255,1997-07-21 12:00:00,23,1019.7,-1,47,11,500,18.52,,,80,,,,,,,,,,,wg-a,,,,AAXX 21124 07255 12600 /0810 10230 20110 30005 40197 57010 60006 85102 91200=
07255,1997-07-21 15:00:00,24,1018.6,-1,41,10,500,14.816,,,70,,,,,,,,,,,wg-a,,,,AAXX 21154 07255 12600 /0708 10240 20100 39995 40186 58010 60006 85101 91500=
07255,1997-07-21 18:00:00,24,1017.7,-0.9,41,10,500,14.816,,,60,15.2,24.9,,,,,,,,,wg-a,,,,AAXX 21184 07255 12600 40608 10240 20100 39986 40177 56009 60006 82102 91800 333 10249 20152=
07255,1997-07-21 21:00:00,20,1018.8,0.8,60,12,500,11.112,,,40,,,,,,,,,,,wg-a,,,,AAXX 21214 07255 12/00 50406 10200 20120 39994 40188 53008 60006 80002 92100=
07255,1997-07-22 00:00:00,18,1018.5,-0.4,64,11,25000,14.816,,,70,,,,,,,,,,,wg-a,,,,AAXX 22004 07255 12/75 30708 10180 20110 39990 40185 58004 60006 80001 90000=
07255,1997-07-22 03:00:00,16,1018.3,-0.3,77,12,25000,11.112,,,100,,,,,,,,,,,wg-a,,,,AAXX 22034 07255 12/75 21006 10160 20120 39987 40183 55003 60006 80001 90300=
07255,1997-07-22 06:00:00,17,1018.4,0.2,77,13,28000,14.816,,,90,15.4,23.7,,,,,,,,,wg-a,,,,AAXX 22064 07255 02/78 60908 10170 20130 39989 40184 52002 60006 81032 90600 333 10237 20154 60004=
07255,1997-07-22 09:00:00,23,1018,0,61,15,500,14.816,,,110,,,,,,,,,,,wg-a,,,,AAXX 22094 07255 12500 /1108 10230 20150 39989 40180 50000 60006 81102 90900=
07255,1997-07-22 12:00:00,26,1017.1,-0.8,42,12,500,18.52,,,100,,,,,,,,,,,wg-a,,,,AAXX 22124 07255 12600 /1010 10260 20120 39981 40171 57008 60006 81102 91200=
07255,1997-07-22 15:00:00,27,1016.2,-0.8,39,12,500,14.816,,,130,,,,,,,,,,,wg-a,,,,AAXX 22154 07255 12700 71308 10270 20120 39973 40162 57008 60006 81172 91500=
07255,1997-07-22 18:00:00,25,1016,-0.3,44,12,500,7.408,,,140,17.1,27.5,,,,,,,,,wg-a,,,,AAXX 22184 07255 12/00 71404 10250 20120 39970 40160 56003 60006 85072 91800 333 10275 20171=
07255,1997-07-22 21:00:00,22,1017.2,1,60,14,25000,7.408,,,50,,,,,,,,,,,wg-a,,,,AAXX 22214 07255 12/75 70504 10220 20140 39980 40172 52010 60006 8707/ 92100=
07255,1997-07-23 00:00:00,20,1017.3,0,73,15,20000,7.408,,,100,,,,,,,,,,,wg-a,,,,AAXX 23004 07255 12770 71004 10200 20150 39980 40173 50000 60006 8457/ 90000=
07255,1997-07-23 03:00:00,19,1016.6,-0.7,78,15,20000,14.816,,,90,,,,,,,,,,,wg-a,,,,AAXX 23034 07255 12/70 70908 10190 20150 39973 40166 57007 60006 8708/ 90300=
07255,1997-07-23 06:00:00,19,1017.2,0.5,78,15,25000,14.816,,,100,18.5,25.2,,,,,,,,,wg-a,,,,AAXX 23064 07255 02/75 51008 10190 20150 39978 40172 51005 60006 84082 90600 333 10252 20185 60004=
07255,1997-07-23 09:00:00,23,1017.4,0.5,69,17,28000,18.52,,,110,,,,,,,,,,,wg-a,,,,AAXX 23094 07255 12878 71110 10230 20170 39983 40174 52005 60006 81572 90900=
07255,1997-07-23 12:00:00,25,1017.3,0,65,18,28000,7.408,,,90,,,,,,,,,,,wg-a,,,,AAXX 23124 07255 12678 60904 10250 20180 39983 40173 50000 60006 81282 91200=
07255,1997-07-23 18:00:00,24,1016,-0.1,78,20,22000,7.408,,,190,19.3,29.3,,,,,,,,29,wg-a,,,,AAXX 23184 07255 02672 51904 10240 20200 39970 40160 55001 60006 72998 83963 91800 333 10293 20193 61000=
07255,1997-07-24 00:00:00,18,1016.8,-0.4,94,17,20000,7.408,,,80,,,,,,,,,,,wg-a,,,,AAXX 24004 07255 12/70 20804 10180 20170 39974 40168 58004 60006 82030 90000=
07255,1997-07-24 06:00:00,17,1016.4,0.5,100,17,6000,3.704,,,120,15.7,24.4,,,,,,,,,wg-a,,,,AAXX 24064 07255 02656 71202 10170 20170 39969 40164 53005 60006 875// 90600 333 10244 20157 60004=
07255,1997-07-24 09:00:00,23,1016.1,0.1,83,20,7000,3.704,,,210,,,,,,,,,,,wg-a,,,,AAXX 24094 07255 12557 72102 10230 20200 39970 40161 50001 60006 86832 90900=
07255,1997-07-24 12:00:00,28,1015.1,-0.7,42,14,10000,14.816,,,270,,,,,,,,,,,wg-a,,,,AAXX 24124 07255 12660 72708 10280 20140 39963 40151 58007 60006 85202 91200=
07255,1997-07-24 15:00:00,28,1014.2,-0.9,45,15,20000,22.224,,,280,,,,,,,,,,,wg-a,,,,AAXX 24154 07255 12770 72812 10280 20150 39954 40142 56009 60006 85232 91500=
07255,1997-07-24 18:00:00,26,1014.4,0.1,45,13,25000,22.224,,,310,17.1,29.1,,,,,,,,,wg-a,,,,AAXX 24184 07255 12775 63112 10260 20130 39955 40144 53001 60006 81232 91800 333 10291 20171=
07255,1997-07-25 00:00:00,18,1017.1,0.7,77,14,15000,14.816,,,270,,,,,,,,,,21,wg-a,,,,AAXX 25004 07255 02565 82708 10180 20140 39976 40171 50007 61000 72162 875// 90000 333 6100=
07255,1997-07-25 03:00:00,17,1016.4,-0.7,94,16,12000,18.52,,,260,,,,0,,,,,,3,wg-a,,,,AAXX 25034 07255 12562 82610 10170 20160 39969 40164 58007 60007 70362 875// 90300=
07255,1997-07-25 06:00:00,16,1017.9,1.4,88,14,35000,18.52,,,300,16.3,26.2,,,,,,,,1,wg-a,,,,AAXX 25064 07255 02481 73010 10160 20140 39983 40179 52014 60006 70162 8583/ 90600 333 10262 20163 60004=
07255,1997-07-25 12:00:00,18,1018.8,0.2,68,12,18000,22.224,,,280,,,,,,,,,,21,wg-a,,,,AAXX 25124 07255 02568 82812 10180 20120 39993 40188 53002 61000 72162 8787/ 91200 333 6100=
07255,1997-07-25 15:00:00,16,1017.9,-1,94,15,2500,18.52,,,240,,,,0,,,,,,10,wg-a,,,,AAXX 25154 07255 12325 82410 10160 20150 39983 40179 57010 60007 71065 877// 91500=
07255,1997-07-25 18:00:00,18,1016.4,-1.3,94,17,6000,22.224,,,260,16.1,20.1,,,,,,,,50,wg-a,,,,AAXX 25184 07255 02356 82612 10180 20170 39970 40164 56013 61000 75065 877// 91800 333 10201 20161 6002=
07255,1997-07-25 21:00:00,19,1017.5,1.1,94,18,6000,22.224,,,270,,,,0,,,,,,61,wg-a,,,,AAXX 25214 07255 12356 82712 10190 20180 39981 40175 53011 60007 76165 877// 92100=
07255,1997-07-26 00:00:00,18,1018.5,0.9,94,17,15000,22.224,,,280,,,,,,,,,,2,wg-a,,,,AAXX 26004 07255 02365 72812 10180 20170 39990 40185 53009 60016 70265 875// 90000 333 61000=
07255,1997-07-26 03:00:00,17,1019.4,0.9,100,17,15000,11.112,,,280,,,,,,,,,,,wg-a,,,,AAXX 26034 07255 12465 72806 10170 20170 39999 40194 53009 60006 875// 90300=
07255,1997-07-26 06:00:00,17,1020.3,0.9,100,17,8000,11.112,,,290,16.9,18.9,,,,,,,,20,wg-a,,,,AAXX 26064 07255 02358 72906 10170 20170 30008 40203 53009 61000 72052 877// 90600 333 10189 20169 6003=
07255,1997-07-26 09:00:00,20,1021.6,1.4,83,17,500,11.112,,,300,,,,,,,,,,,wg-a,,,,AAXX 26094 07255 12400 73006 10200 20170 30022 40216 51014 60006 878// 90900=
07255,1997-07-26 12:00:00,22,1021.6,0.1,65,15,35000,18.52,,,280,,,,,,,,,,,wg-a,,,,AAXX 26124 07255 12581 72810 10220 20150 30023 40216 53001 60006 878// 91200=
07255,1997-07-26 18:00:00,23,1020.4,-0.5,65,16,35000,3.704,,,260,17.2,23.1,,,,,,,,,wg-a,,,,AAXX 26184 07255 12681 72602 10230 20160 30012 40204 56005 60006 878// 91800 333 10231 20172=
07255,1997-07-26 21:00:00,20,1020.9,0.3,83,17,500,11.112,,,240,,,,,,,,,,,wg-a,,,,AAXX 26214 07255 12700 72406 10200 20170 30015 40209 53003 60006 875// 92100=
07255,1997-07-27 00:00:00,20,1020.9,-0,83,17,25000,7.408,,,270,,,,,,,,,,,wg-a,,,,AAXX 27004 07255 12775 72704 10200 20170 30015 40209 54000 60006 875// 90000=
07255,1997-07-27 03:00:00,19,1020.9,-0,88,17,25000,11.112,,,270,,,,,,,,,,,wg-a,,,,AAXX 27034 07255 12775 72706 10190 20170 30015 40209 54000 60006 875// 90300=
07255,1997-07-27 06:00:00,18,1021.7,0.7,88,16,500,11.112,,,270,17.2,22.6,,,,,,,,,wg-a,,,,AAXX 27064 07255 02400 72706 10180 20160 30022 40217 53007 60006 878// 90600 333 10226 20172 60004=
07255,1997-07-27 09:00:00,21,1021.6,0.1,83,18,500,14.816,,,290,,,,,,,,,,,wg-a,,,,AAXX 27094 07255 12400 72908 10210 20180 30023 40216 52001 60006 86102 90900=
07255,1997-07-27 12:00:00,24,1021.3,-0.1,61,16,500,14.816,,,310,,,,,,,,,,,wg-a,,,,AAXX 27124 07255 12500 73108 10240 20160 30022 40213 57001 60006 86802 91200=
07255,1997-07-27 15:00:00,25,1021,-0.3,57,16,500,18.52,,,260,,,,,,,,,,,wg-a,,,,AAXX 27154 07255 12500 72610 10250 20160 30019 40210 56003 60006 878// 91500=
07255,1997-07-27 18:00:00,22,1021.4,0.2,78,18,500,7.408,,,10,18.1,26.1,,,,,,,,,wg-a,,,,AAXX 27184 07255 12600 70104 10220 20180 30021 40214 52002 60006 86832 91800 333 10261 20181=
07255,1997-07-27 21:00:00,21,1022.2,0.8,83,18,500,3.704,,,280,,,,,,,,,,,wg-a,,,,AAXX 27214 07255 12700 72802 10210 20180 30029 40222 53008 60006 875// 92100=
07255,1997-07-28 00:00:00,20,1022.3,-0,88,18,25000,3.704,,,340,,,,,,,,,,2,wg-a,,,,AAXX 28004 07255 02775 73402 10200 20180 30029 40223 54000 61000 70262 875// 90000 333 6100=
07255,1997-07-28 03:00:00,17,1022,-0.5,94,16,25000,0,,,0,,,,,,,,,,,wg-a,,,,AAXX 28034 07255 12/75 40000 10170 20160 30024 40220 57005 60006 80001 90300=
07255,1997-07-28 06:00:00,17,1022.5,0.5,100,17,20000,7.408,,,130,16,21.7,,,,,,,,,wg-a,,,,AAXX 28064 07255 02770 51304 10170 20170 30029 40225 52005 60006 835/1 90600 333 10217 20160 61000=
07255,1997-07-28 09:00:00,23,1022.1,0,69,17,40000,3.704,,,90,,,,,,,,,,,wg-a,,,,AAXX 28094 07255 12582 40902 10230 20170 30029 40221 50000 60006 81101 90900=
07255,1997-07-28 12:00:00,26,1021.2,-0.7,51,15,35000,7.408,,,330,,,,,,,,,,,wg-a,,,,AAXX 28124 07255 12681 43304 10260 20150 30022 40212 58007 60006 83101 91200=
07255,1997-07-28 15:00:00,28,1019.8,-1.2,42,14,35000,7.408,,,20,,,,,,,,,,,wg-a,,,,AAXX 28154 07255 12781 40204 10280 20140 30010 40198 56012 60006 82109 91500=
07255,1997-07-28 18:00:00,27,1018.9,-1,45,14,40000,7.408,,,40,16.7,28.5,,,,,,,,,wg-a,,,,AAXX 28184 07255 12782 20404 10270 20140 30000 40189 56010 60006 81102 91800 333 10285 20167=
07255,1997-07-28 21:00:00,22,1020.5,1.3,60,14,500,11.112,,,40,,,,,,,,,,,wg-a,,,,AAXX 28214 07255 12700 50406 10220 20140 30013 40205 52013 60006 815/2 92100=
07255,1997-07-29 00:00:00,20,1020.7,0,68,14,28000,0,,,0,,,,,,,,,,,wg-a,,,,AAXX 29004 07255 12778 60000 10200 20140 30013 40207 50000 60006 83532 90000=
07255,1997-07-29 03:00:00,17,1020.3,-0.6,82,14,28000,3.704,,,60,,,,,,,,,,,wg-a,,,,AAXX 29034 07255 12/78 40602 10170 20140 30007 40203 56006 60006 80002 90300=
07255,1997-07-29 06:00:00,17,1021,0.7,82,14,500,3.704,,,120,15.8,27.5,,,,,,,,,wg-a,,,,AAXX 29064 07255 02700 71202 10170 20140 30014 40210 53007 60006 825/2 90600 333 10275 20158 60004=
07255,1997-07-29 09:00:00,24,1020.8,0.3,57,15,500,11.112,,,90,,,,,,,,,,,wg-a,,,,AAXX 29094 07255 12600 /0906 10240 20150 30017 40208 51003 60006 81801 90900=
07255,1997-07-29 12:00:00,28,1019.7,-0.8,42,14,500,7.408,,,360,,,,,,,,,,,wg-a,,,,AAXX 29124 07255 12600 /3604 10280 20140 30009 40197 58008 60006 82101 91200=
07255,1997-07-29 15:00:00,30,1018.7,-0.9,38,14,500,3.704,,,350,,,,,,,,,,,wg-a,,,,AAXX 29154 07255 12700 43502 10300 20140 30000 40187 56009 60006 82201 91500=
07255,1997-07-29 18:00:00,29,1018,-0.8,37,13,500,7.408,,,30,16.9,30,,,,,,,,,wg-a,,,,AAXX 29184 07255 12700 30304 10290 20130 39992 40180 56008 60006 82401 91800 333 10300 20169=
07255,1997-07-29 21:00:00,24,1019.1,0.8,54,14,500,7.408,,,80,,,,,,,,,,,wg-a,,,,AAXX 29214 07255 12/00 00804 10240 20140 30000 40191 51008 60006 80000 92100=
07255,1997-07-30 00:00:00,20,1019.5,0.1,68,14,25000,3.704,,,90,,,,,,,,,,,wg-a,,,,AAXX 30004 07255 12775 40902 10200 20140 30001 40195 53001 60006 84500 90000=
07255,1997-07-30 03:00:00,17,1018.7,-0.9,82,14,25000,3.704,,,360,,,,,,,,,,,wg-a,,,,AAXX 30034 07255 12775 23602 10170 20140 39992 40187 56009 60006 81501 90300=
07255,1997-07-30 06:00:00,18,1019.2,0.5,83,15,500,3.704,,,120,15.2,29.1,,,,,,,,,wg-a,,,,AAXX 30064 07255 02/00 21202 10180 20150 39997 40192 51005 60006 80001 90600 333 10291 20152 60004=
07255,1997-07-30 09:00:00,26,1019,0.3,54,16,25000,7.408,,,270,,,,,,,,,,,wg-a,,,,AAXX 30094 07255 12/75 42704 10260 20160 30000 40190 52003 60006 81031 90900=
07255,1997-07-30 12:00:00,28,1018.2,-0.6,48,16,25000,14.816,,,290,,,,,,,,,,,wg-a,,,,AAXX 30124 07255 12775 72908 10280 20160 39994 40182 58006 60006 85201 91200=
07255,1997-07-30 15:00:00,29,1017.5,-0.7,40,14,500,22.224,,,300,,,,,,,,,,,wg-a,,,,AAXX 30154 07255 12700 73012 10290 20140 39987 40175 56007 60006 81232 91500=
07255,1997-07-30 18:00:00,27,1017.6,-0,42,13,500,14.816,,,320,17.5,30.2,,,,,,,,,wg-a,,,,AAXX 30184 07255 12700 73208 10270 20130 39987 40176 55000 60006 81232 91800 333 10302 20175=
07255,1997-07-30 21:00:00,22,1019.7,1.8,69,16,500,11.112,,,330,,,,,,,,,,,wg-a,,,,AAXX 30214 07255 12/00 33306 10220 20160 30005 40197 53018 60006 81031 92100=
07255,1997-07-31 00:00:00,19,1020.5,0.5,78,15,25000,7.408,,,330,,,,,,,,,,,wg-a,,,,AAXX 31004 07255 12/75 33304 10190 20150 30010 40205 51005 60006 82031 90000=
07255,1997-07-31 03:00:00,17,1020.5,-0.1,72,12,25000,11.112,,,60,,,,,,,,,,,wg-a,,,,AAXX 31034 07255 12775 50606 10170 20120 30009 40205 58001 60006 81532 90300=
07255,1997-07-31 06:00:00,14,1022,1.3,88,12,25000,3.704,,,340,13.7,26.9,,,,,,,,,wg-a,,,,AAXX 31064 07255 02675 73402 10140 20120 30022 40220 51013 60006 81502 90600 333 10269 20137 60004=
07255,1997-07-31 09:00:00,18,1021.9,0.1,68,12,40000,11.112,,,310,,,,,,,,,,,wg-a,,,,AAXX 31094 07255 12/82 73106 10180 20120 30023 40219 53001 60006 81032 90900=
07255,1997-07-31 12:00:00,21,1020.6,-1,49,10,35000,18.52,,,320,,,,,,,,,,,wg-a,,,,AAXX 31124 07255 12681 73210 10210 20100 30013 40206 58010 60006 81132 91200=
07255,1997-07-31 15:00:00,22,1019.9,-0.7,50,11,35000,14.816,,,340,,,,,,,,,,,wg-a,,,,AAXX 31154 07255 12681 73408 10220 20110 30006 40199 58007 60006 81132 91500=
07255,1997-07-31 18:00:00,21,1019,-0.9,53,11,40000,11.112,,,330,13.8,22.5,,,,,,,,,wg-a,,,,AAXX 31184 07255 12782 73306 10210 20110 39997 40190 56009 60006 81132 91800 333 10225 20138=
07255,1997-07-31 21:00:00,19,1019.7,0.5,60,11,500,3.704,,,340,,,,,,,,,,,wg-a,,,,AAXX 31214 07255 12/00 73402 10190 20110 30002 40197 51005 60006 84032 92100=
07255,1997-08-01 00:00:00,17,1018.8,-0.9,72,12,25000,7.408,,,330,,,,,,,,,,,wg-a,,,,AAXX 01004 07255 12/75 73304 10170 20120 39993 40188 58009 60006 86032 90000=
07255,1997-08-01 03:00:00,15,1018.2,-0.8,77,11,25000,7.408,,,310,,,,,,,,,,,wg-a,,,,AAXX 01034 07255 12/75 43104 10150 20110 39985 40182 56008 60006 81031 90300=
07255,1997-08-01 06:00:00,14,1018.3,-0,82,11,20000,11.112,,,300,13,21,,,,,,,,,wg-a,,,,AAXX 01064 07255 02/70 13006 10140 20110 39985 40183 55000 60006 80001 90600 333 10210 20130 60004=
07255,1997-08-01 09:00:00,19,1018,0.1,64,12,40000,14.816,,,300,,,,,,,,,,,wg-a,,,,AAXX 01094 07255 12582 23008 10190 20120 39986 40180 52001 60006 82130 90900=
07255,1997-08-01 12:00:00,22,1017.1,-0.7,53,12,40000,14.816,,,310,,,,,,,,,,,wg-a,,,,AAXX 01124 07255 12682 23108 10220 20120 39979 40171 58007 60006 81801 91200=
07255,1997-08-01 15:00:00,24,1016.3,-0.6,50,13,35000,14.816,,,330,,,,,,,,,,,wg-a,,,,AAXX 01154 07255 12781 63308 10240 20130 39973 40163 56006 60006 82530 91500=
07255,1997-08-01 18:00:00,24,1016.3,-0,50,13,35000,11.112,,,330,14,25.2,,,,,,,,,wg-a,,,,AAXX 01184 07255 12781 23306 10240 20130 39973 40163 55000 60006 81540 91800 333 10252 20140=
07255,1997-08-01 21:00:00,22,1017.4,0.9,60,14,25000,7.408,,,280,,,,,,,,,,,wg-a,,,,AAXX 01214 07255 12675 /2804 10220 20140 39982 40174 51009 60006 86500 92100=
07255,1997-08-02 00:00:00,20,1017.6,0.1,73,15,20000,7.408,,,350,,,,,,,,,,,wg-a,,,,AAXX 02004 07255 12670 /3504 10200 20150 39983 40176 50001 60006 86500 90000=
07255,1997-08-02 03:00:00,17,1017.7,-0.1,88,15,20000,7.408,,,280,,,,,,,,,,,wg-a,,,,AAXX 02034 07255 12670 /2804 10170 20150 39982 40177 56001 60006 81500 90300=
07255,1997-08-02 06:00:00,18,1018,0.3,88,16,25000,3.704,,,270,16.5,24.4,,,,,,,,,wg-a,,,,AAXX 02064 07255 02675 /2702 10180 20160 39985 40180 51003 60006 86501 90600 333 10244 20165 60004=
07255,1997-08-02 09:00:00,23,1017.8,0.2,69,17,25000,7.408,,,280,,,,,,,,,,,wg-a,,,,AAXX 02094 07255 12575 72804 10230 20170 39987 40178 50002 60006 81831 90900=
07255,1997-08-02 12:00:00,26,1017.3,-0.3,61,18,500,7.408,,,320,,,,,,,,,,,wg-a,,,,AAXX 02124 07255 12600 73204 10260 20180 39984 40173 58003 60006 878// 91200=
07255,1997-08-02 15:00:00,27,1016.4,-0.8,62,19,500,11.112,,,20,,,,,,,,,,,wg-a,,,,AAXX 02154 07255 12600 70206 10270 20190 39976 40164 57008 60006 878// 91500=
07255,1997-08-02 18:00:00,26,1016.1,-0.4,65,19,500,11.112,,,60,17.5,27.3,,,,,,,,,wg-a,,,,AAXX 02184 07255 12600 70606 10260 20190 39972 40161 56004 60006 85801 91800 333 10273 20175=
07255,1997-08-02 21:00:00,24,1016.5,0.3,74,19,40000,11.112,,,60,,,,,,,,,,,wg-a,,,,AAXX 02214 07255 12782 30606 10240 20190 39975 40165 51003 60006 83500 92100=
07255,1997-08-03 00:00:00,21,1016.8,0.1,88,19,25000,11.112,,,90,,,,,,,,,,,wg-a,,,,AAXX 03004 07255 12/75 00906 10210 20190 39976 40168 50001 60006 80000 90000=
07255,1997-08-03 03:00:00,19,1016.4,-0.6,94,18,15000,11.112,,,110,,,,,,,,,,,wg-a,,,,AAXX 03034 07255 12/65 01106 10190 20180 39970 40164 56006 60006 80000 90300=
07255,1997-08-03 06:00:00,20,1016.3,-0,88,18,9000,11.112,,,110,18.2,25.6,,,,,,,,,wg-a,,,,AAXX 03064 07255 02759 31106 10200 20180 39970 40163 55000 60006 81531 90600 333 10256 20182 60004=
07255,1997-08-03 09:00:00,26,1015.9,0,70,20,20000,11.112,,,110,,,,,,,,,,,wg-a,,,,AAXX 03094 07255 12570 /1106 10260 20200 39970 40159 50000 60006 81231 90900=
07255,1997-08-03 12:00:00,30,1014.6,-1,46,17,35000,11.112,,,120,,,,,,,,,,,wg-a,,,,AAXX 03124 07255 12681 51206 10300 20170 39960 40146 56010 60006 84231 91200=
07255,1997-08-03 15:00:00,31,1013.5,-1.1,43,17,35000,7.408,,,90,,,,,,,,,,,wg-a,,,,AAXX 03154 07255 12781 60904 10310 20170 39949 40135 56011 60006 83230 91500=
07255,1997-08-03 18:00:00,31,1012.9,-0.6,40,16,35000,7.408,,,70,19.9,31.5,,,,,,,,,wg-a,,,,AAXX 03184 07255 12781 50704 10310 20160 39943 40129 55006 60006 82431 91800 333 10315 20199=
07255,1997-08-03 21:00:00,25,1013.7,0.5,61,17,500,11.112,,,120,,,,,,,,,,,wg-a,,,,AAXX 03214 07255 12/00 51206 10250 20170 39948 40137 51005 60006 83032 92100=
07255,1997-08-04 00:00:00,23,1013.8,0,78,19,25000,11.112,,,100,,,,,,,,,,,wg-a,,,,AAXX 04004 07255 12775 51006 10230 20190 39948 40138 50000 60006 84530 90000=
07255,1997-08-04 03:00:00,22,1013.8,-0.1,83,19,20000,11.112,,,100,,,,,,,,,,,wg-a,,,,AAXX 04034 07255 12770 51006 10220 20190 39947 40138 58001 60006 84530 90300=
07255,1997-08-04 06:00:00,22,1014.2,0.4,78,18,500,11.112,,,110,20.4,30.7,,,,,,,,,wg-a,,,,AAXX 04064 07255 02/00 21106 10220 20180 39951 40142 53004 60006 82031 90600 333 10307 20204 60004=
07255,1997-08-04 12:00:00,33,1013.6,-0.3,36,16,25000,7.408,,,300,,,,,,,,,,,wg-a,,,,AAXX 04124 07255 12775 33004 10330 20160 39952 40136 58003 60006 81181 91200=
07255,1997-08-04 18:00:00,29,1013.3,0.4,58,20,22000,7.408,,,40,22.1,33.6,,,,,,,,60,wg-a,,,,AAXX 04184 07255 02/72 70404 10290 20200 39947 40133 51004 61000 76061 85082 91800 333 10336 20221 6100=
07255,1997-08-04 21:00:00,23,1015,1.3,83,20,20000,7.408,,,180,,,,0,,,,,,21,wg-a,,,,AAXX 04214 07255 12/70 71804 10230 20200 39960 40150 51013 60007 72162 84082 92100=
07255,1997-08-05 00:00:00,22,1015.1,-0,83,19,20000,7.408,,,170,,,,,,,,,,3,wg-a,,,,AAXX 05004 07255 12670 71704 10220 20190 39960 40151 55000 60006 70362 83502 90000=
07255,1997-08-05 03:00:00,19,1014.2,-1.1,88,17,15000,11.112,,,110,,,,,,,,,,,wg-a,,,,AAXX 05034 07255 12/65 01106 10190 20170 39949 40142 58011 60006 80000 90300=
07255,1997-08-05 06:00:00,18,1014.9,0.6,94,17,18000,7.408,,,200,17.4,29.2,,,,,,,,,wg-a,,,,AAXX 05064 07255 02468 72004 10180 20170 39955 40149 51006 60006 875// 90600 333 10292 20174 60004=
07255,1997-08-05 09:00:00,22,1015.1,0.5,88,20,7000,7.408,,,240,,,,,,,,,,,wg-a,,,,AAXX 05094 07255 12457 82404 10220 20200 39960 40151 53005 60006 886// 90900=
07255,1997-08-05 12:00:00,26,1014.6,-0.2,70,20,6000,14.816,,,270,,,,,,,,,,,wg-a,,,,AAXX 05124 07255 12556 82708 10260 20200 39958 40146 55002 60006 8413/ 91200=
07255,1997-08-05 15:00:00,24,1013.9,-0.8,78,20,10000,14.816,,,290,,,,,,,,,,2,wg-a,,,,AAXX 05154 07255 02760 72908 10240 20200 39950 40139 56008 61000 70262 8453/ 91500 333 ////=
07255,1997-08-05 18:00:00,23,1014,-0,73,18,500,7.408,,,310,18.4,26.5,,,,,,,,3,wg-a,,,,AAXX 05184 07255 12700 73104 10230 20180 39950 40140 55000 60006 70362 875// 91800 333 10265 20184=
07255,1997-08-05 21:00:00,20,1014,-0.2,100,20,12000,0,,,0,,,,3,,,,,,61,wg-a,,,,AAXX 05214 07255 12462 80000 10200 20200 39948 40140 58002 60037 76162 8587/ 92100=
07255,1997-08-06 00:00:00,20,1013.5,-0.5,94,19,500,7.408,,,320,,,,4,,,,,,61,wg-a,,,,AAXX 06004 07255 02200 83204 10200 20190 39943 40135 58005 60076 76196 877// 90000 333 60047=
07255,1997-08-06 03:00:00,19,1013,-0.6,100,19,3000,7.408,,,320,,,,11,,,,,,65,wg-a,,,,AAXX 06034 07255 12230 83204 10190 20190 39937 40130 55006 60117 76562 875// 90300=
07255,1997-08-06 06:00:00,19,1013,-0,94,18,500,11.112,,,310,18.5,22.9,,,,,,,,21,wg-a,,,,AAXX 06064 07255 02200 83106 10190 20180 39937 40130 55000 61000 72165 877// 90600 333 10229 20185 6027=
07255,1997-08-06 09:00:00,20,1013.7,0.8,94,19,8000,14.816,,,290,,,,0,,,,,,1,wg-a,,,,AAXX 06094 07255 12358 72908 10200 20190 39945 40137 51008 60007 70152 878// 90900=
07255,1997-08-06 12:00:00,23,1013.7,0.2,73,18,20000,14.816,,,290,,,,,,,,,,1,wg-a,,,,AAXX 06124 07255 12570 42908 10230 20180 39947 40137 50002 60006 70151 83801 91200=
07255,1997-08-06 15:00:00,25,1012.5,-1.1,61,17,25000,11.112,,,320,,,,,,,,,,,wg-a,,,,AAXX 06154 07255 12575 23206 10250 20170 39936 40125 58011 60006 82101 91500=
07255,1997-08-06 18:00:00,25,1012.2,-0.3,61,17,25000,7.408,,,340,18.6,25.5,,,,,,,,,wg-a,,,,AAXX 06184 07255 12575 23404 10250 20170 39933 40122 55003 60006 81202 91800 333 10255 20186=
07255,1997-08-06 21:00:00,22,1013.4,1,78,18,20000,7.408,,,10,,,,,,,,,,,wg-a,,,,AAXX 06214 07255 12770 60104 10220 20180 39943 40134 51010 60006 835/1 92100=
07255,1997-08-07 00:00:00,19,1013.4,-0.2,94,18,15000,3.704,,,90,,,,,,,,,,,wg-a,,,,AAXX 07004 07255 12/65 00902 10190 20180 39941 40134 56002 60006 80000 90000=
07255,1997-08-07 03:00:00,18,1013,-0.5,94,17,10000,3.704,,,100,,,,,,,,,,,wg-a,,,,AAXX 07034 07255 12/60 51002 10180 20170 39936 40130 57005 60006 80002 90300=
07255,1997-08-07 06:00:00,19,1013,0.1,94,18,12000,3.704,,,50,17.7,24.5,,,,,,,,,wg-a,,,,AAXX 07064 07255 02762 80502 10190 20180 39937 40130 52001 60006 875// 90600 333 10245 20177 60004=
07255,1997-08-07 09:00:00,23,1013.4,0.7,83,20,25000,7.408,,,180,,,,,,,,,,,wg-a,,,,AAXX 07094 07255 12475 71804 10230 20200 39944 40134 53007 60006 8698/ 90900=
07255,1997-08-07 12:00:00,20,1012.5,-1.1,88,18,18000,11.112,,,40,,,,1,,,,,,21,wg-a,,,,AAXX 07124 07255 02468 70406 10200 20180 39933 40125 58011 60016 72162 879// 91200 333 60017=
07255,1997-08-07 15:00:00,24,1012.3,0.1,74,19,22000,3.704,,,60,,,,,,,,,,,wg-a,,,,AAXX 07154 07255 12572 70602 10240 20190 39934 40123 50001 60006 82983 91500=
07255,1997-08-07 18:00:00,23,1012.8,0.4,78,19,500,11.112,,,70,18.8,24.9,,,,,,,,,wg-a,,,,AAXX 07184 07255 12500 /0706 10230 20190 39938 40128 53004 60006 82202 91800 333 10249 20188=
07255,1997-08-07 21:00:00,19,1014.5,1.4,94,18,25000,7.408,,,110,,,,,,,,,,,wg-a,,,,AAXX 07214 07255 12/75 31104 10190 20180 39952 40145 52014 60006 80002 92100=
07255,1997-08-08 00:00:00,18,1014.8,0.2,100,18,12000,7.408,,,60,,,,,,,,,,,wg-a,,,,AAXX 08004 07255 12/62 40604 10180 20180 39954 40148 50002 60006 80002 90000=
07255,1997-08-08 03:00:00,17,1016,1.1,94,16,500,3.704,,,110,,,,0,,,,,,44,wg-a,,,,AAXX 08034 07255 12/05 31102 10170 20160 39965 40160 52011 60007 74440 80002 90300=
07255,1997-08-08 06:00:00,17,1016.5,0.5,100,17,400,7.408,,,100,15.9,23.4,,,,,1,,,42,wg-a,,,,AAXX 08064 07255 02/04 41004 10170 20170 39970 40165 52005 60006 74241 82032 90600 333 10234 20159 60014=
07255,1997-08-08 09:00:00,23,1017.4,1.3,78,19,15000,3.704,,,110,,,,,,,,,,1,wg-a,,,,AAXX 08094 07255 12465 /1102 10230 20190 39983 40174 51013 60006 70140 81130 90900=
07255,1997-08-08 12:00:00,28,1017.1,0,58,19,500,7.408,,,100,,,,,,,,,,3,wg-a,,,,AAXX 08124 07255 12600 21004 10280 20190 39983 40171 50000 60006 70340 82230 91200=
07255,1997-08-08 15:00:00,29,1016,-1,52,18,500,11.112,,,50,,,,,,,,,,,wg-a,,,,AAXX 08154 07255 12600 /0506 10290 20180 39973 40160 56010 60006 81200 91500=
07255,1997-08-08 18:00:00,29,1016,-0,48,17,500,14.816,,,70,17,29.8,,,,,,,,,wg-a,,,,AAXX 08184 07255 12700 10708 10290 20170 39973 40160 55000 60006 81100 91800 333 10298 20170=
07255,1997-08-09 00:00:00,21,1018.2,0.5,83,18,25000,7.408,,,80,,,,,,,,,,,wg-a,,,,AAXX 09004 07255 12/75 30804 10210 20180 39990 40182 53005 60006 80001 90000=
07255,1997-08-09 06:00:00,19,1018.8,0.4,88,17,500,7.408,,,90,18.2,28.5,,,,,,,,,wg-a,,,,AAXX 09064 07255 02/00 30904 10190 20170 39994 40188 52004 60006 80001 90600 333 10285 20182 60004=
07255,1997-08-09 09:00:00,27,1018.8,0.5,62,19,500,14.816,,,100,,,,,,,,,,,wg-a,,,,AAXX 09094 07255 12/00 31008 10270 20190 39999 40188 50005 60006 80001 90900=
07255,1997-08-09 12:00:00,30,1017.7,-0.9,49,18,25000,14.816,,,80,,,,,,,,,,,wg-a,,,,AAXX 09124 07255 12675 /0808 10300 20180 39990 40177 58009 60006 81102 91200=
07255,1997-08-09 15:00:00,31,1016.5,-1.1,38,15,500,11.112,,,90,,,,,,,,,,,wg-a,,,,AAXX 09154 07255 12700 40906 10310 20150 39979 40165 57011 60006 82102 91500=
07255,1997-08-09 18:00:00,29,1016,-0.6,48,17,500,11.112,,,40,19.2,30.9,,,,,,,,,wg-a,,,,AAXX 09184 07255 12700 10406 10290 20170 39973 40160 55006 60006 81102 91800 333 10309 20192=
07255,1997-08-09 21:00:00,25,1016.5,0.2,61,17,25000,11.112,,,60,,,,,,,,,,,wg-a,,,,AAXX 09214 07255 12/75 10606 10250 20170 39975 40165 50002 60006 80002 92100=
07255,1997-08-10 00:00:00,22,1016.5,-0.2,73,17,20000,11.112,,,90,,,,,,,,,,,wg-a,,,,AAXX 10004 07255 12/70 10906 10220 20170 39973 40165 56002 60006 80001 90000=
07255,1997-08-10 03:00:00,19,1015.7,-0.9,88,17,20000,11.112,,,90,,,,,,,,,,,wg-a,,,,AAXX 10034 07255 12/70 00906 10190 20170 39964 40157 58009 60006 80000 90300=
07255,1997-08-10 06:00:00,20,1015.6,-0.1,83,17,15000,7.408,,,120,18.7,29.1,,,,,,,,,wg-a,,,,AAXX 10064 07255 02/65 11204 10200 20170 39963 40156 55001 60006 80001 90600 333 10291 20187 60004=
07255,1997-08-10 09:00:00,26,1014.7,-0.5,54,16,18000,18.52,,,100,,,,,,,,,,,wg-a,,,,AAXX 10094 07255 12/68 31010 10260 20160 39958 40147 58005 60006 80001 90900=
07255,1997-08-10 12:00:00,30,1012.8,-1.6,40,15,22000,25.928,,,100,,,,,,,,,,,wg-a,,,,AAXX 10124 07255 12/72 11014 10300 20150 39942 40128 56016 60006 80001 91200=
07255,1997-08-10 15:00:00,32,1011.2,-1.4,46,19,25000,22.224,,,110,,,,,,,,,,,wg-a,,,,AAXX 10154 07255 12/75 11112 10320 20190 39928 40112 58014 60006 80002 91500=
07255,1997-08-10 18:00:00,30,1010.7,-0.6,52,19,25000,14.816,,,110,19.7,32.7,,,,,,,,,wg-a,,,,AAXX 10184 07255 12/75 71108 10300 20190 39922 40107 56006 60006 81082 91800 333 10327 20197=
07255,1997-08-10 21:00:00,26,1011.7,0.7,65,19,25000,11.112,,,120,,,,,,,,,,13,wg-a,,,,AAXX 10214 07255 12675 71206 10260 20190 39929 40117 53007 60006 71322 81902 92100=
07255,1997-08-11 00:00:00,19,1012.8,0.7,94,18,25000,7.408,,,330,,,,8,,,,,,21,wg-a,,,,AAXX 11004 07255 02/75 73304 10190 20180 39936 40128 50007 60086 72196 8708/ 90000 333 60087=
07255,1997-08-11 03:00:00,19,1012.7,-0.2,94,18,20000,14.816,,,190,,,,,,,,,,,wg-a,,,,AAXX 11034 07255 12/70 21908 10190 20180 39934 40127 55002 60006 82080 90300=
07255,1997-08-11 06:00:00,19,1014,1.3,94,18,500,7.408,,,360,18.7,29.7,,,,,8,,,,wg-a,,,,AAXX 11064 07255 02700 73604 10190 20180 39947 40140 51013 60006 83582 90600 333 10297 20187 60084=
07255,1997-08-11 09:00:00,24,1014,0.4,69,18,500,11.112,,,350,,,,,,,,,,,wg-a,,,,AAXX 11094 07255 12500 /3506 10240 20180 39951 40140 53004 60006 81282 90900=
07255,1997-08-11 12:00:00,28,1013.8,-0,58,19,500,11.112,,,20,,,,,,,,,,,wg-a,,,,AAXX 11124 07255 12/00 70206 10280 20190 39951 40138 55000 60006 84082 91200=
07255,1997-08-11 15:00:00,27,1015.4,1.5,66,20,25000,3.704,,,30,,,,0,,,,,,1,wg-a,,,,AAXX 11154 07255 12/75 70302 10270 20200 39966 40154 50015 60007 70162 84082 91500=
07255,1997-08-11 18:00:00,26,1016.7,1.2,65,19,28000,7.408,,,160,19.2,28,,,,,,,,1,wg-a,,,,AAXX 11184 07255 12/78 61604 10260 20190 39978 40167 53012 60006 70162 82082 91800 333 10280 20192=
07255,1997-08-11 21:00:00,22,1018.7,1.7,78,18,25000,7.408,,,230,,,,,,,,,,,wg-a,,,,AAXX 11214 07255 12/75 52304 10220 20180 39995 40187 53017 60006 81081 92100=
07255,1997-08-12 00:00:00,20,1019.4,0.6,88,18,25000,3.704,,,60,,,,,,,,,,,wg-a,,,,AAXX 12004 07255 12/75 60602 10200 20180 30001 40194 51006 60006 81081 90000=
07255,1997-08-12 03:00:00,18,1020,0.4,94,17,20000,3.704,,,200,,,,,,,,,,,wg-a,,,,AAXX 12034 07255 12/70 42002 10180 20170 30005 40200 51004 60006 80001 90300=
07255,1997-08-12 06:00:00,18,1021.3,1.3,100,18,6000,7.408,,,250,17,25.9,,,,,,,,,wg-a,,,,AAXX 12064 07255 02256 72504 10180 20180 30018 40213 53013 60006 876// 90600 333 10259 20170 60004=
07255,1997-08-12 09:00:00,21,1021.9,0.8,94,20,1000,7.408,,,270,,,,,,,,,,10,wg-a,,,,AAXX 12094 07255 12110 82704 10210 20200 30026 40219 51008 60006 71042 886// 90900=
07255,1997-08-12 12:00:00,24,1021.5,-0.2,83,21,8000,3.704,,,310,,,,,,,,,,1,wg-a,,,,AAXX 12124 07255 12458 53102 10240 20210 30024 40215 58002 60006 70142 85600 91200=
07255,1997-08-12 15:00:00,29,1020,-1.2,52,18,25000,3.704,,,250,,,,,,,,,,,wg-a,,,,AAXX 12154 07255 12675 /2502 10290 20180 30012 40200 58012 60006 81200 91500=
07255,1997-08-12 18:00:00,29,1019.2,-0.8,52,18,25000,7.408,,,10,18.5,29.8,,,,,,,,,wg-a,,,,AAXX 12184 07255 12675 /0104 10290 20180 30004 40192 55008 60006 81201 91800 333 10298 20185=
07255,1997-08-12 21:00:00,25,1020.1,0.7,65,18,500,3.704,,,20,,,,,,,,,,13,wg-a,,,,AAXX 12214 07255 12600 30202 10250 20180 30011 40201 53007 60006 71300 81981 92100=
07255,1997-08-13 00:00:00,22,1020.4,0.1,83,19,500,0,,,0,,,,,,,,,,,wg-a,,,,AAXX 13004 07255 12/00 20000 10220 20190 30012 40204 52001 60006 82030 90000=
07255,1997-08-13 06:00:00,20,1022,1.4,94,19,12000,3.704,,,190,19.7,28.9,,,,,,,,,wg-a,,,,AAXX 13064 07255 02/62 31902 10200 20190 30027 40220 53014 60006 82081 90600 333 10289 20197 60004=
07255,1997-08-13 09:00:00,25,1022.3,0.6,83,22,18000,7.408,,,310,,,,,,,,,,,wg-a,,,,AAXX 13094 07255 12/68 03104 10250 20220 30033 40223 51006 60006 80000 90900=
07255,1997-08-13 12:00:00,28,1021.9,-0.2,66,21,25000,11.112,,,330,,,,,,,,,,,wg-a,,,,AAXX 13124 07255 12575 53306 10280 20210 30031 40219 57002 60006 84202 91200=
07255,1997-08-13 18:00:00,28,1022.1,0.2,62,20,25000,7.408,,,340,20.5,30.1,,,,,,,,,wg-a,,,,AAXX 13184 07255 12675 /3404 10280 20200 30033 40221 51002 60006 81200 91800 333 10301 20205=
07255,1997-08-13 21:00:00,24,1023.8,1.3,69,18,25000,7.408,,,340,,,,,,,,,,,wg-a,,,,AAXX 13214 07255 12/75 13404 10240 20180 30046 40238 51013 60006 80001 92100=
07255,1997-08-14 00:00:00,21,1024.1,0.1,78,17,25000,7.408,,,330,,,,,,,,,,,wg-a,,,,AAXX 14004 07255 12/75 03304 10210 20170 30047 40241 52001 60006 80000 90000=
07255,1997-08-14 03:00:00,20,1023.8,-0.3,83,17,15000,7.408,,,20,,,,,,,,,,,wg-a,,,,AAXX 14034 07255 12465 40204 10200 20170 30044 40238 56003 60006 84500 90300=
07255,1997-08-14 06:00:00,20,1024.1,0.3,88,18,15000,0,,,0,19.5,28.3,,,,,,,,,wg-a,,,,AAXX 14064 07255 02765 40000 10200 20180 30047 40241 53003 60006 84801 90600 333 10283 20195 60004=
07255,1997-08-14 09:00:00,25,1023.7,-0.1,57,16,20000,14.816,,,80,,,,,,,,,,,wg-a,,,,AAXX 14094 07255 12770 10808 10250 20160 30046 40237 58001 60006 81800 90900=
07255,1997-08-14 12:00:00,28,1022,-1.5,55,18,20000,7.408,,,40,,,,,,,,,,,wg-a,,,,AAXX 14124 07255 12670 /0404 10280 20180 30031 40220 58015 60006 81800 91200=
07255,1997-08-14 15:00:00,30,1020.5,-1.4,46,17,25000,11.112,,,30,,,,,,,,,,,wg-a,,,,AAXX 14154 07255 12775 20306 10300 20170 30017 40205 57014 60006 82200 91500=
07255,1997-08-14 18:00:00,28,1019.8,-0.7,51,17,25000,14.816,,,40,20.3,30,,,,,,,,,wg-a,,,,AAXX 14184 07255 12775 10408 10280 20170 30010 40198 55007 60006 81100 91800 333 10300 20203=
07255,1997-08-14 21:00:00,24,1021.2,1.1,65,17,25000,7.408,,,50,,,,,,,,,,,wg-a,,,,AAXX 14214 07255 12/75 10504 10240 20170 30021 40212 52011 60006 80001 92100=
07255,1997-08-15 00:00:00,22,1020.8,-0.6,69,16,20000,14.816,,,100,,,,,,,,,,,wg-a,,,,AAXX 15004 07255 12/70 01008 10220 20160 30015 40208 58006 60006 80000 90000=
07255,1997-08-15 03:00:00,20,1020.6,-0.3,73,15,20000,11.112,,,90,,,,,,,,,,,wg-a,,,,AAXX 15034 07255 12/70 10906 10200 20150 30012 40206 58003 60006 81080 90300=
07255,1997-08-15 06:00:00,18,1020.8,0.1,88,16,25000,11.112,,,130,17.9,28.1,,,,,,,,,wg-a,,,,AAXX 15064 07255 02/75 31306 10180 20160 30013 40208 52001 60006 80001 90600 333 10281 20179 60004=
07255,1997-08-15 12:00:00,27,1020.6,-0.2,54,17,25000,7.408,,,100,,,,,,,,,,,wg-a,,,,AAXX 15124 07255 12675 81004 10270 20170 30017 40206 57002 60006 83886 91200=
07255,1997-08-15 15:00:00,28,1019.4,-1.1,51,17,25000,11.112,,,20,,,,,,,,,,,wg-a,,,,AAXX 15154 07255 12675 70206 10280 20170 30006 40194 56011 60006 82282 91500=
07255,1997-08-15 18:00:00,27,1018.7,-0.8,51,16,25000,14.816,,,80,18.5,28.8,,,,,,,,,wg-a,,,,AAXX 15184 07255 12775 70808 10270 20160 39998 40187 58008 60006 82282 91800 333 10288 20185=
07255,1997-08-15 21:00:00,23,1019.5,0.6,65,16,25000,14.816,,,100,,,,,,,,,,,wg-a,,,,AAXX 15214 07255 12/75 61008 10230 20160 30004 40195 51006 60006 84082 92100=
07255,1997-08-16 00:00:00,20,1019,-0.7,78,16,25000,11.112,,,110,,,,,,,,,,,wg-a,,,,AAXX 16004 07255 12/75 31106 10200 20160 39997 40190 57007 60006 81082 90000=
07255,1997-08-16 03:00:00,20,1018.5,-0.6,73,15,20000,11.112,,,70,,,,,,,,,,,wg-a,,,,AAXX 16034 07255 12770 20706 10200 20150 39991 40185 58006 60006 82201 90300=
07255,1997-08-16 06:00:00,18,1018.5,-0.1,83,15,18000,7.408,,,110,17.3,27.1,,,,,,,,1,wg-a,,,,AAXX 16064 07255 02868 21104 10180 20150 39990 40185 55001 60006 70186 82082 90600 333 10271 20173 61000=
07255,1997-08-16 09:00:00,23,1018.7,0.6,65,16,20000,7.408,,,200,,,,,,,,,,,wg-a,,,,AAXX 16094 07255 12770 52004 10230 20160 39996 40187 51006 60006 83982 90900=
07255,1997-08-16 12:00:00,25,1018.4,-0.2,57,16,25000,7.408,,,250,,,,,,,,,,,wg-a,,,,AAXX 16124 07255 12575 72504 10250 20160 39994 40184 58002 60006 81232 91200=
07255,1997-08-16 15:00:00,27,1017.3,-1,51,16,20000,7.408,,,20,,,,,,,,,,17,wg-a,,,,AAXX 16154 07255 12670 70204 10270 20160 39984 40173 58010 60006 71792 83902 91500=
07255,1997-08-16 18:00:00,25,1017.3,-0.1,69,19,20000,11.112,,,260,18.1,28.5,,,,,,,,29,wg-a,,,,AAXX 16184 07255 12670 72606 10250 20190 39983 40173 55001 60006 72992 81972 91800 333 10285 20181=
07255,1997-08-16 21:00:00,21,1018.6,1,83,18,18000,3.704,,,230,,,,,,,,,,,wg-a,,,,AAXX 16214 07255 12/68 52302 10210 20180 39993 40186 53010 60006 83031 92100=
07255,1997-08-17 00:00:00,19,1018.7,0,94,18,12000,3.704,,,280,,,,,,,,,,,wg-a,,,,AAXX 17004 07255 12/62 22802 10190 20180 39993 40187 50000 60006 80001 90000=
07255,1997-08-17 03:00:00,18,1018.5,-0.3,94,17,10000,3.704,,,290,,,,,,,,,,,wg-a,,,,AAXX 17034 07255 12/60 02902 10180 20170 39990 40185 56003 60006 80000 90300=
07255,1997-08-17 06:00:00,18,1019.1,0.6,94,17,800,7.408,,,250,16.1,24.7,,,,,,,,44,wg-a,,,,AAXX 17064 07255 02108 82504 10180 20170 39996 40191 53006 60006 74441 886// 90600 333 10247 20161 60004=
07255,1997-08-17 09:00:00,21,1019.6,0.8,94,20,8000,3.704,,,270,,,,,,,,,,1,wg-a,,,,AAXX 17094 07255 12358 72702 10210 20200 30004 40196 51008 60006 70142 876// 90900=
07255,1997-08-17 12:00:00,27,1018.2,-1.1,62,19,20000,7.408,,,270,,,,,,,,,,3,wg-a,,,,AAXX 17124 07255 12570 42704 10270 20190 39993 40182 58011 60006 70341 84201 91200=
07255,1997-08-17 15:00:00,29,1016.6,-1.4,48,17,25000,11.112,,,270,,,,,,,,,,,wg-a,,,,AAXX 17154 07255 12675 /2706 10290 20170 39979 40166 58014 60006 81902 91500=
07255,1997-08-17 18:00:00,26,1017,0.2,61,18,20000,11.112,,,340,17.7,28.7,,,,,,,,,wg-a,,,,AAXX 17184 07255 12/70 73406 10260 20180 39981 40170 50002 60006 80003 91800 333 10287 20177=
07255,1997-08-17 21:00:00,22,1018.5,1.2,78,18,20000,7.408,,,20,,,,,,,,,,,wg-a,,,,AAXX 17214 07255 12/70 10204 10220 20180 39993 40185 51012 60006 80002 92100=
07255,1997-08-18 00:00:00,20,1018.3,-0.3,88,18,20000,3.704,,,270,,,,,,,,,,,wg-a,,,,AAXX 18004 07255 12/70 22702 10200 20180 39990 40183 58003 60006 80001 90000=
07255,1997-08-18 03:00:00,17,1018.2,-0.3,94,16,8000,3.704,,,130,,,,,,,,,,,wg-a,,,,AAXX 18034 07255 12/58 41302 10170 20160 39987 40182 57003 60006 81031 90300=
07255,1997-08-18 06:00:00,17,1018.1,-0.1,94,16,7000,3.704,,,130,16.3,26.3,,,,,,,,,wg-a,,,,AAXX 18064 07255 02757 41302 10170 20160 39986 40181 55001 60006 81831 90600 333 10263 20163 60004=
07255,1997-08-18 09:00:00,25,1018.1,0.5,69,19,12000,3.704,,,60,,,,,,,,,,,wg-a,,,,AAXX 18094 07255 12/62 10602 10250 20190 39991 40181 52005 60006 80002 90900=
07255,1997-08-18 12:00:00,30,1017.2,-0.6,40,15,18000,7.408,,,120,,,,,,,,,,,wg-a,,,,AAXX 18124 07255 12668 41204 10300 20150 39985 40172 58006 60006 84900 91200=
07255,1997-08-18 15:00:00,29,1016.3,-0.9,45,16,20000,18.52,,,40,,,,,,,,,,1,wg-a,,,,AAXX 18154 07255 12670 50410 10290 20160 39976 40163 58009 60006 70191 82903 91500=
07255,1997-08-18 18:00:00,26,1016.4,-0.1,61,18,20000,11.112,,,10,17,30.1,,,,,,,,3,wg-a,,,,AAXX 18184 07255 12/70 70106 10260 20180 39975 40164 56001 60006 70391 81063 91800 333 10301 20170=
07255,1997-08-18 21:00:00,22,1017.4,0.7,78,18,20000,7.408,,,30,,,,,,,,,,,wg-a,,,,AAXX 18214 07255 12/70 30304 10220 20180 39982 40174 53007 60006 80001 92100=
07255,1997-08-19 00:00:00,18,1017.6,0,94,17,15000,7.408,,,230,,,,,,,,,,,wg-a,,,,AAXX 19004 07255 12/65 12304 10180 20170 39982 40176 50000 60006 80001 90000=
07255,1997-08-19 06:00:00,17,1017.4,0.6,94,16,15000,3.704,,,130,16.2,26.3,,,,,,,,,wg-a,,,,AAXX 19064 07255 02/65 61302 10170 20160 39979 40174 53006 60006 80002 90600 333 10263 20162 60004=
07255,1997-08-19 09:00:00,24,1017,0.1,69,18,15000,0,,,0,,,,,,,,,,,wg-a,,,,AAXX 19094 07255 12/65 70000 10240 20180 39980 40170 53001 60006 83082 90900=
07255,1997-08-19 12:00:00,30,1016.1,-0.6,38,14,18000,11.112,,,140,,,,,,,,,,,wg-a,,,,AAXX 19124 07255 12668 61406 10300 20140 39974 40161 58006 60006 83282 91200=
07255,1997-08-19 15:00:00,30,1015.2,-0.9,40,15,20000,7.408,,,30,,,,,,,,,,,wg-a,,,,AAXX 19154 07255 12770 70304 10300 20150 39965 40152 56009 60006 84882 91500=
07255,1997-08-19 18:00:00,28,1015.3,-0,48,16,20000,7.408,,,30,16.6,30.1,,,,,,,,,wg-a,,,,AAXX 19184 07255 12770 70304 10280 20160 39965 40153 55000 60006 8128/ 91800 333 10301 20166=
07255,1997-08-19 21:00:00,22,1016.9,1.2,73,17,10000,7.408,,,310,,,,,,,,,,,wg-a,,,,AAXX 19214 07255 12760 33104 10220 20170 39977 40169 51012 60006 81130 92100=
07255,1997-08-20 00:00:00,19,1016.9,-0.1,83,16,10000,11.112,,,320,,,,,,,,,,,wg-a,,,,AAXX 20004 07255 12/60 03206 10190 20160 39976 40169 58001 60006 80000 90000=
07255,1997-08-20 06:00:00,17,1017.7,0.8,94,16,8000,3.704,,,130,15.7,27.5,,,,,,,,,wg-a,,,,AAXX 20064 07255 02/58 /1302 10170 20160 39982 40177 53008 60006 86030 90600 333 10275 20157 60004=
07255,1997-08-20 09:00:00,22,1018,0.6,78,18,12000,0,,,0,,,,,,,,,,,wg-a,,,,AAXX 20094 07255 12/62 70000 10220 20180 39988 40180 52006 60006 8703/ 90900=
07255,1997-08-20 12:00:00,26,1017.8,0.1,58,17,15000,3.704,,,70,,,,,,,,,,,wg-a,,,,AAXX 20124 07255 12865 70702 10260 20170 39989 40178 51001 60006 8153/ 91200=
07255,1997-08-20 15:00:00,28,1016.8,-0.9,45,15,15000,11.112,,,70,,,,0,,,,,,,wg-a,,,,AAXX 20154 07255 12765 60706 10280 20150 39980 40168 56009 60007 81830 91500=
07255,1997-08-20 18:00:00,27,1016.5,-0.3,54,17,20000,7.408,,,50,17,28.7,,,,,,,,,wg-a,,,,AAXX 20184 07255 12/70 20504 10270 20170 39977 40165 55003 60006 81081 91800 333 10287 20170=
07255,1997-08-20 21:00:00,22,1017.9,1,73,17,15000,3.704,,,60,,,,,,,,,,,wg-a,,,,AAXX 20214 07255 12/65 20602 10220 20170 39987 40179 51010 60006 80001 92100=
07255,1997-08-21 00:00:00,18,1018.5,0.3,88,16,15000,7.408,,,120,,,,,,,,,,,wg-a,,,,AAXX 21004 07255 12/65 41204 10180 20160 39990 40185 50003 60006 80001 90000=
07255,1997-08-21 03:00:00,16,1018.7,0.1,94,15,15000,3.704,,,100,,,,,,,,,,,wg-a,,,,AAXX 21034 07255 12/65 21002 10160 20150 39991 40187 53001 60006 81031 90300=
07255,1997-08-21 06:00:00,16,1019.4,0.7,94,15,9000,7.408,,,90,16.1,27.3,,,,,,,,,wg-a,,,,AAXX 21064 07255 02/59 /0904 10160 20150 39998 40194 52007 60006 81032 90600 333 10273 20161 60004=
07255,1997-08-21 07:00:00,16,1019.6,0.7,94,15,9000,7.408,,,90,16.1,27.3,,,,,,,,,wg-a,,,,AAXX 21074 07255 02/59 50904 10160 20150 39998 40196 52007 60006 81032 90700 333 10273 20161 60004=
07255,1997-08-21 09:00:00,24,1019.8,0.9,61,16,15000,3.704,,,140,,,,,,,,,,,wg-a,,,,AAXX 21094 07255 12/65 51402 10240 20160 30007 40198 53009 60006 80001 90900=
07255,1997-08-21 12:00:00,30,1018.3,-1.1,33,12,20000,7.408,,,150,,,,,,,,,,,wg-a,,,,AAXX 21124 07255 12/70 41504 10300 20120 39996 40183 58011 60006 80001 91200=
07255,1997-08-21 18:00:00,29,1018,0.4,40,14,20000,7.408,,,10,16.4,31.5,,,,,,,,,wg-a,,,,AAXX 21184 07255 12/70 20104 10290 20140 39993 40180 53004 60006 80001 91800 333 10315 20164=
07255,1997-08-22 00:00:00,20,1020.1,0.4,68,14,18000,3.704,,,190,,,,,,,,,,,wg-a,,,,AAXX 22004 07255 12/68 31902 10200 20140 30007 40201 50004 60006 80002 90000=
07255,1997-08-22 06:00:00,18,1021.2,0.9,83,15,12000,3.704,,,200,17.9,29.4,,,,,,,,,wg-a,,,,AAXX 22064 07255 02/62 62002 10180 20150 30017 40212 53009 60006 85031 90600 333 10294 20179 60004=
07255,1997-08-22 09:00:00,26,1021.2,0.5,58,17,12000,3.704,,,80,,,,,,,,,,,wg-a,,,,AAXX 22094 07255 12/62 70802 10260 20170 30022 40212 51005 60006 81034 90900=
07255,1997-08-22 12:00:00,31,1019.9,-1,38,15,18000,7.408,,,40,,,,,,,,,,,wg-a,,,,AAXX 22124 07255 12768 60404 10310 20150 30012 40199 58010 60006 81131 91200=
07255,1997-08-22 15:00:00,32,1018.7,-1.1,34,14,25000,7.408,,,50,,,,,,,,,,,wg-a,,,,AAXX 22154 07255 12875 40504 10320 20140 30001 40187 57011 60006 81262 91500=
07255,1997-08-22 18:00:00,30,1018.3,-0.5,46,17,22000,7.408,,,40,18.4,32.3,,,,,,,,,wg-a,,,,AAXX 22184 07255 12772 60404 10300 20170 39996 40183 56005 60006 82470 91800 333 10323 20184=
07255,1997-08-22 21:00:00,26,1018.9,0.3,61,18,10000,7.408,,,80,,,,,,,,,,,wg-a,,,,AAXX 22214 07255 12/60 30804 10260 20180 39999 40189 50003 60006 81032 92100=
07255,1997-08-23 00:00:00,22,1018.4,-0.7,78,18,12000,11.112,,,110,,,,,,,,,,,wg-a,,,,AAXX 23004 07255 12/62 41106 10220 20180 39992 40184 58007 60006 81032 90000=
07255,1997-08-23 03:00:00,20,1018,-0.5,83,17,10000,7.408,,,110,,,,,,,,,,,wg-a,,,,AAXX 23034 07255 12/60 31104 10200 20170 39987 40180 56005 60006 80001 90300=
07255,1997-08-23 06:00:00,19,1018,-0.1,83,16,12000,7.408,,,110,18,29.7,,,,,,,,,wg-a,,,,AAXX 23064 07255 02/62 11104 10190 20160 39986 40180 56001 60006 81031 90600 333 10297 20180 60004=
07255,1997-08-23 09:00:00,27,1017.6,0.1,54,17,20000,3.704,,,130,,,,,,,,,,,wg-a,,,,AAXX 23094 07255 12/70 01302 10270 20170 39987 40176 50001 60006 80000 90900=
07255,1997-08-23 12:00:00,32,1015.9,-1.3,36,15,25000,7.408,,,160,,,,,,,,,,,wg-a,,,,AAXX 23124 07255 12775 11604 10320 20150 39974 40159 58013 60006 81100 91200=
07255,1997-08-23 15:00:00,33,1014.4,-1.4,34,15,25000,18.52,,,250,,,,,,,,,,,wg-a,,,,AAXX 23154 07255 12775 22510 10330 20150 39960 40144 57014 60006 82400 91500=
07255,1997-08-23 18:00:00,31,1013.9,-0.7,36,14,25000,11.112,,,250,18.7,33.9,,,,,,,,,wg-a,,,,AAXX 23184 07255 12775 12506 10310 20140 39953 40139 57007 60006 81400 91800 333 10339 20187=
07255,1997-08-23 21:00:00,25,1014.6,0.3,61,17,25000,3.704,,,230,,,,,,,,,,,wg-a,,,,AAXX 23214 07255 12775 12302 10250 20170 39956 40146 50003 60006 81400 92100=
07255,1997-08-24 00:00:00,21,1015,0.2,73,16,15000,7.408,,,140,,,,,,,,,,,wg-a,,,,AAXX 24004 07255 12/65 01404 10210 20160 39958 40150 53002 60006 80000 90000=
07255,1997-08-24 03:00:00,20,1014.6,-0.5,78,16,12000,11.112,,,170,,,,,,,,,,,wg-a,,,,AAXX 24034 07255 12/62 21706 10200 20160 39953 40146 58005 60006 80001 90300=
07255,1997-08-24 06:00:00,19,1015.4,0.8,88,17,15000,7.408,,,120,18.4,31.2,,,,,,,,,wg-a,,,,AAXX 24064 07255 02/65 01204 10190 20170 39961 40154 52008 60006 80000 90600 333 10312 20184 60004=
07255,1997-08-24 09:00:00,28,1014.9,0.1,58,19,18000,7.408,,,260,,,,,,,,,,,wg-a,,,,AAXX 24094 07255 12/68 02604 10280 20190 39962 40149 52001 60006 80000 90900=
07255,1997-08-24 12:00:00,32,1013.6,-1.1,41,17,20000,11.112,,,220,,,,,,,,,,,wg-a,,,,AAXX 24124 07255 12670 32206 10320 20170 39951 40136 58011 60006 83200 91200=
07255,1997-08-24 15:00:00,33,1012.1,-1.4,34,15,25000,11.112,,,240,,,,,,,,,,,wg-a,,,,AAXX 24154 07255 12675 32406 10330 20150 39937 40121 57014 60006 83200 91500=
07255,1997-08-24 18:00:00,32,1010.5,-1.7,29,12,500,7.408,,,250,19.4,33.9,,,,,,,,,wg-a,,,,AAXX 24184 07255 12600 32504 10320 20120 39920 40105 58017 60006 82903 91800 333 10339 20194=
07255,1997-08-25 00:00:00,22,1010.3,-1,73,17,25000,11.112,,,120,,,,,,,,,,,wg-a,,,,AAXX 25004 07255 12/75 11206 10220 20170 39912 40103 56010 60006 81030 90000=
07255,1997-08-25 03:00:00,21,1009.4,-0.9,73,16,20000,3.704,,,280,,,,,,,,,,,wg-a,,,,AAXX 25034 07255 12/70 12802 10210 20160 39903 40094 58009 60006 81030 90300=
07255,1997-08-25 06:00:00,20,1009.5,-0,83,17,20000,7.408,,,110,19.3,31.6,,,,,,,,,wg-a,,,,AAXX 25064 07255 02870 61104 10200 20170 39903 40095 55000 60006 84081 90600 333 10316 20193 60004=
07255,1997-08-25 09:00:00,28,1008.9,-0.1,32,10,22000,22.224,,,230,,,,,,,,,,,wg-a,,,,AAXX 25094 07255 12/72 12312 10280 20100 39902 40089 55001 60006 80002 90900=
07255,1997-08-25 12:00:00,28,1009.2,0.4,48,16,20000,22.224,,,280,,,,,,,,,,,wg-a,,,,AAXX 25124 07255 12770 52812 10280 20160 39906 40092 53004 60006 81181 91200=
07255,1997-08-25 15:00:00,27,1009.3,0,54,17,20000,18.52,,,290,,,,,,,,,,,wg-a,,,,AAXX 25154 07255 12670 72910 10270 20170 39906 40093 50000 60006 84882 91500=
07255,1997-08-25 18:00:00,24,1009.9,0.4,69,18,20000,14.816,,,300,20,29.4,,,,,,,,,wg-a,,,,AAXX 25184 07255 12670 73008 10240 20180 39910 40099 53004 60006 81882 91800 333 10294 20200=
07255,1997-08-26 00:00:00,19,1012.2,0.4,94,18,10000,3.704,,,330,,,,0,,,,,,60,wg-a,,,,AAXX 26004 07255 02660 83302 10190 20180 39930 40122 51004 60006 76062 8457/ 90000 333 60007=
07255,1997-08-26 03:00:00,19,1011.8,-0.5,94,18,9000,3.704,,,330,,,,0,,,,,,50,wg-a,,,,AAXX 26034 07255 12359 83302 10190 20180 39925 40118 56005 60007 75065 875// 90300=
07255,1997-08-26 06:00:00,18,1012.2,0.4,100,18,4000,7.408,,,340,18.1,23.9,,,,,1,,,10,wg-a,,,,AAXX 26064 07255 02340 83404 10180 20180 39929 40122 53004 60006 71065 875// 90600 333 10239 20181 60014=
07255,1997-08-26 09:00:00,18,1012.7,0.5,94,17,500,7.408,,,30,,,,,,,,,,,wg-a,,,,AAXX 26094 07255 12300 80304 10180 20170 39934 40127 52005 60006 885// 90900=
07255,1997-08-26 12:00:00,22,1011.8,-0.7,73,17,25000,7.408,,,60,,,,,,,,,,,wg-a,,,,AAXX 26124 07255 12475 /0604 10220 20170 39927 40118 58007 60006 86230 91200=
07255,1997-08-26 15:00:00,23,1010.1,-1.6,69,17,35000,14.816,,,70,,,,,,,,,,,wg-a,,,,AAXX 26154 07255 12581 40708 10230 20170 39911 40101 57016 60006 83202 91500=
07255,1997-08-26 18:00:00,23,1009.4,-0.7,69,17,35000,14.816,,,120,17.5,24.8,,,,,,,,14,wg-a,,,,AAXX 26184 07255 12581 61208 10230 20170 39904 40094 57007 60006 71411 81181 91800 333 10248 20175=
07255,1997-08-26 21:00:00,19,1009.5,-0.1,88,17,500,11.112,,,140,,,,,,,,,,,wg-a,,,,AAXX 26214 07255 12/00 51406 10190 20170 39903 40095 58001 60006 83031 92100=
07255,1997-08-27 00:00:00,17,1008.5,-1.1,88,15,25000,3.704,,,160,,,,,,,,,,,wg-a,,,,AAXX 27004 07255 12/75 21602 10170 20150 39892 40085 56011 60006 82030 90000=
07255,1997-08-27 06:00:00,17,1006.1,-1.3,94,16,20000,11.112,,,150,15.5,22.5,,,,,,,,,wg-a,,,,AAXX 27064 07255 02670 71506 10170 20160 39868 40061 56013 60006 83186 90600 333 10225 20155 60004=
07255,1997-08-27 09:00:00,20,1005.9,-0,88,18,18000,14.816,,,180,,,,0,,,,,,61,wg-a,,,,AAXX 27094 07255 12568 81808 10200 20180 39868 40059 55000 60007 76162 83872 90900=
07255,1997-08-27 12:00:00,23,1005.1,-0.6,69,17,500,25.928,,,230,,,,0,,,,,,3,wg-a,,,,AAXX 27124 07255 02500 82314 10230 20170 39862 40051 56006 60016 70362 878// 91200 333 60007=
07255,1997-08-27 15:00:00,22,1005.3,0.1,65,15,12000,25.928,,,250,,,,,,,,,,61,wg-a,,,,AAXX 27154 07255 02562 82514 10220 20150 39863 40053 53001 61000 76162 8387/ 91500 333 ////=
07255,1997-08-27 18:00:00,19,1005.2,-0.3,94,18,8000,7.408,,,210,16.9,24.2,,,,,,,,61,wg-a,,,,AAXX 27184 07255 02558 82104 10190 20180 39860 40052 55003 61000 76162 8582/ 91800 333 10242 20169 6002=
07255,1997-08-27 21:00:00,17,1004.5,-0.7,94,16,7000,18.52,,,210,,,,1,,,,,,61,wg-a,,,,AAXX 27214 07255 12657 82110 10170 20160 39853 40045 56007 60017 76166 8652/ 92100=
07255,1997-08-28 00:00:00,17,1003.5,-1.1,94,16,15000,7.408,,,200,,,,2,,,,,,1,wg-a,,,,AAXX 28004 07255 02665 82004 10170 20160 39842 40035 58011 60036 70162 8452/ 90000 333 60027=
07255,1997-08-28 06:00:00,14,1004.1,0.9,94,13,500,14.816,,,240,14,18.5,,,,,13,,,1,wg-a,,,,AAXX 28064 07255 02500 72408 10140 20130 39847 40041 53009 60006 70162 8682/ 90600 333 10185 20140 60134=
07255,1997-08-28 09:00:00,17,1005.6,1.6,77,13,500,29.632,,,240,,,,,,,,,,,wg-a,,,,AAXX 28094 07255 12500 72416 10170 20130 39863 40056 51016 60006 8623/ 90900=
07255,1997-08-28 12:00:00,19,1006,0.5,64,12,35000,29.632,,,240,,,,,,,,,,15,wg-a,,,,AAXX 28124 07255 12581 52416 10190 20120 39868 40060 51005 60006 71522 85900 91200=
07255,1997-08-28 18:00:00,15,1009.2,1.6,82,12,500,29.632,,,260,14.1,20.7,,,,,,,,25,wg-a,,,,AAXX 28184 07255 02500 /2616 10150 20120 39897 40092 53016 61000 72586 84902 91800 333 10207 20141 6000=
07255,1997-08-28 21:00:00,15,1011.8,2.5,82,12,25000,25.928,,,250,,,,,,,,,,,wg-a,,,,AAXX 28214 07255 12775 12514 10150 20120 39922 40118 51025 60006 81500 92100=
07255,1997-08-29 00:00:00,14,1014.1,2.2,88,12,20000,22.224,,,260,,,,,,,,,,,wg-a,,,,AAXX 29004 07255 12670 /2612 10140 20120 39944 40141 51022 60006 85500 90000=
07255,1997-08-29 03:00:00,14,1015.1,1,88,12,15000,18.52,,,260,,,,,,,,,,,wg-a,,,,AAXX 29034 07255 12765 32610 10140 20120 39954 40151 53010 60006 81530 90300=
07255,1997-08-29 06:00:00,14,1016.9,1.8,88,12,12000,22.224,,,250,13.1,15.4,,,,,3,,,,wg-a,,,,AAXX 29064 07255 02562 72512 10140 20120 39972 40169 52018 60006 8683/ 90600 333 10154 20131 60034=
07255,1997-08-29 09:00:00,17,1018.4,1.6,72,12,500,22.224,,,270,,,,,,,,,,,wg-a,,,,AAXX 29094 07255 12500 72712 10170 20120 39988 40184 52016 60006 8623/ 90900=
07255,1997-08-29 12:00:00,20,1018,-0.2,60,12,20000,22.224,,,260,,,,,,,,,,15,wg-a,,,,AAXX 29124 07255 12670 72612 10200 20120 39986 40180 58002 60006 71522 86801 91200=
07255,1997-08-29 15:00:00,21,1018.1,0.2,64,14,500,14.816,,,250,,,,0,,,,,,3,wg-a,,,,AAXX 29154 07255 12600 62508 10210 20140 39988 40181 50002 60007 70386 85802 91500=
07255,1997-08-29 18:00:00,18,1018.8,0.5,77,14,500,14.816,,,250,13.8,21.1,,0,,,,,,3,wg-a,,,,AAXX 29184 07255 02600 72508 10180 20140 39993 40188 53005 60006 70386 82236 91800 333 10211 20138 60007=
07255,1997-08-30 00:00:00,16,1019,-0.5,88,14,15000,18.52,,,210,,,,,,,,,,61,wg-a,,,,AAXX 30004 07255 02/65 82110 10160 20140 39994 40190 58005 61000 76162 8802/ 90000 333 6100=
07255,1997-08-30 03:00:00,15,1017.2,-1.8,100,15,500,22.224,,,210,,,,3,,,,,,61,wg-a,,,,AAXX 30034 07255 12400 82112 10150 20150 39976 40172 58018 60037 76162 875// 90300=
07255,1997-08-30 06:00:00,16,1017.1,-0.1,88,14,15000,29.632,,48.152,250,14.9,18.4,,,,,,,,20,wg-a,,,,AAXX 30064 07255 02265 82516 10160 20140 39975 40171 55001 61000 72065 877// 90600 333 10184 20149 6004 91026=
07255,1997-08-30 09:00:00,18,1018.3,1.3,88,16,25000,25.928,,,260,,,,,,,,,,,wg-a,,,,AAXX 30094 07255 12475 82614 10180 20160 39988 40183 53013 60006 875// 90900=
07255,1997-08-30 12:00:00,22,1018,-0,73,17,500,25.928,,,260,,,,,,,,,,,wg-a,,,,AAXX 30124 07255 12400 72614 10220 20170 39988 40180 55000 60006 85830 91200=
07255,1997-08-30 15:00:00,22,1018.8,0.8,69,16,35000,22.224,,,260,,,,,,,,,,,wg-a,,,,AAXX 30154 07255 12581 82612 10220 20160 39996 40188 53008 60006 878// 91500=
07255,1997-08-30 18:00:00,22,1018.5,-0.3,73,17,35000,11.112,,,240,16,22.7,,,,,,,,,wg-a,,,,AAXX 30184 07255 12681 72406 10220 20170 39993 40185 58003 60006 875// 91800 333 10227 20160=
07255,1997-08-30 21:00:00,18,1018.8,0,88,16,25000,11.112,,,160,,,,,,,,,,,wg-a,,,,AAXX 30214 07255 12675 31606 10180 20160 39993 40188 50000 60006 83500 92100=
07255,1997-08-31 00:00:00,16,1018,-0.9,94,15,25000,11.112,,,140,,,,,,,,,,,wg-a,,,,AAXX 31004 07255 12/75 31406 10160 20150 39984 40180 58009 60006 80001 90000=
07255,1997-08-31 03:00:00,15,1016.3,-1.7,100,15,20000,18.52,,,120,,,,,,,,,,,wg-a,,,,AAXX 31034 07255 12/70 01210 10150 20150 39967 40163 58017 60006 80000 90300=
07255,1997-08-31 06:00:00,16,1015.5,-0.8,94,15,12000,18.52,,,120,14.9,21.8,,,,,,,,,wg-a,,,,AAXX 31064 07255 02/62 31210 10160 20150 39959 40155 56008 60006 81032 90600 333 10218 20149 60004=
07255,1997-08-31 12:00:00,29,1013.3,-0.9,45,16,35000,11.112,,,200,,,,,,,,,,,wg-a,,,,AAXX 31124 07255 12/81 72006 10290 20160 39946 40133 56009 60006 80001 91200=
07255,1997-08-31 15:00:00,31,1012.5,-0.7,40,16,35000,18.52,,,260,,,,,,,,,,,wg-a,,,,AAXX 31154 07255 12781 72610 10310 20160 39939 40125 56007 60006 81102 91500=
07255,1997-08-31 18:00:00,26,1014.2,1.4,58,17,500,14.816,,,280,15.7,31.3,,,,,,,,,wg-a,,,,AAXX 31184 07255 12/00 72808 10260 20170 39953 40142 53014 60006 80002 91800 333 10313 20157=
07255,1997-08-31 21:00:00,21,1016.9,2.3,73,16,28000,14.816,,,280,,,,,,,,,,,wg-a,,,,AAXX 31214 07255 12/78 52808 10210 20160 39976 40169 53023 60006 80002 92100=
07255,1997-09-01 00:00:00,17,1017.8,0.7,88,15,25000,3.704,,,270,,,,,,,,,,,wg-a,,,,AAXX 01004 07255 12/75 22702 10170 20150 39983 40178 52007 60006 80002 90000=
07255,1997-09-01 03:00:00,15,1018.4,0.4,94,14,20000,3.704,,,200,,,,,,,,,,,wg-a,,,,AAXX 01034 07255 12/70 72002 10150 20140 39987 40184 53004 60006 82032 90300=
07255,1997-09-01 06:00:00,16,1018.6,0.3,94,15,22000,3.704,,,40,14.5,25.8,,,,,,,,,wg-a,,,,AAXX 01064 07255 02572 70402 10160 20150 39990 40186 50003 60006 85502 90600 333 10258 20145 60004=
07255,1997-09-01 09:00:00,16,1020.9,2.2,94,15,8000,14.816,,,280,,,,3,,,,,,80,wg-a,,,,AAXX 01094 07255 12458 82808 10160 20150 30012 40209 53022 60037 78096 8497/ 90900=
07255,1997-09-01 12:00:00,17,1019,-1.7,94,16,15000,11.112,,,330,,,,4,,,,,,61,wg-a,,,,AAXX 01124 07255 02365 83306 10170 20160 39995 40190 55017 60076 76196 877// 91200 333 60047=
07255,1997-09-01 15:00:00,16,1018.5,-0.6,94,15,7000,0,,,0,,,,8,,,,,,61,wg-a,,,,AAXX 01154 07255 12257 80000 10160 20150 39989 40185 55006 60087 76166 8552/ 91500=
07255,1997-09-01 18:00:00,16,1018.4,-0.1,94,15,10000,14.816,,,360,15.6,17.6,,1,,,,,,3,wg-a,,,,AAXX 01184 07255 02260 83608 10160 20150 39988 40184 55001 60006 70362 877// 91800 333 10176 20156 60017=
07255,1997-09-01 21:00:00,16,1019,0.6,94,15,8000,7.408,,,80,,,,,,,,,,,wg-a,,,,AAXX 01214 07255 12458 80804 10160 20150 39994 40190 50006 60006 877// 92100=
07255,1997-09-02 00:00:00,15,1019.4,0.3,100,15,8000,7.408,,,60,,,,,,,,,,,wg-a,,,,AAXX 02004 07255 12258 80604 10150 20150 39997 40194 50003 60006 875// 90000=
07255,1997-09-02 03:00:00,15,1019.8,0.4,100,15,1500,7.408,,,340,,,,1,,,,,,10,wg-a,,,,AAXX 02034 07255 12215 83404 10150 20150 30001 40198 53004 60017 71062 877// 90300=
07255,1997-09-02 06:00:00,15,1020.2,0.4,100,15,4500,7.408,,,350,14.6,16.1,,,,,,,,10,wg-a,,,,AAXX 02064 07255 02245 83504 10150 20150 30005 40202 53004 61000 71065 877// 90600 333 10161 20146 6018=
07255,1997-09-02 09:00:00,16,1021.5,1.3,94,15,10000,11.112,,,30,,,,,,,,,,20,wg-a,,,,AAXX 02094 07255 02460 80306 10160 20150 30018 40215 53013 61000 72052 8457/ 90900 333 ////=
07255,1997-09-02 12:00:00,17,1022.4,1,82,14,18000,11.112,,,30,,,,,,,,,,1,wg-a,,,,AAXX 02124 07255 02468 80306 10170 20140 30028 40224 51010 61000 70152 8387/ 91200 333 ////=
07255,1997-09-02 18:00:00,19,1021.9,0.3,78,15,500,3.704,,,330,14.7,20.1,,,,,,,,,wg-a,,,,AAXX 02184 07255 12700 73302 10190 20150 30024 40219 51003 60006 875// 91800 333 10201 20147=
07255,1997-09-02 21:00:00,16,1023.2,1.1,88,14,25000,7.408,,,250,,,,,,,,,,,wg-a,,,,AAXX 02214 07255 12/75 02504 10160 20140 30035 40232 51011 60006 80000 92100=
07255,1997-09-03 00:00:00,13,1023.2,-0.2,94,12,15000,0,,,0,,,,,,,,,,,wg-a,,,,AAXX 03004 07255 12/65 00000 10130 20120 30033 40232 58002 60006 80000 90000=
07255,1997-09-03 03:00:00,11,1022.4,-0.9,100,11,8000,3.704,,,80,,,,,,,,,,,wg-a,,,,AAXX 03034 07255 12/58 00802 10110 20110 30024 40224 56009 60006 80000 90300=
07255,1997-09-03 06:00:00,9,1023.1,0.5,100,9,300,3.704,,,130,,18.6,,,,,,,,44,wg-a,,,,AAXX 03064 07255 02/03 /1302 10090 20090 30029 40231 53005 60006 74440 80001 90600 333 10186 60004=
07255,1997-09-03 09:00:00,17,1022.3,-0.2,82,14,12000,7.408,,,120,,,,,,,,,,1,wg-a,,,,AAXX 03094 07255 12/62 31204 10170 20140 30027 40223 57002 60006 70140 80001 90900=
07255,1997-09-03 12:00:00,22,1021.1,-0.9,50,11,500,3.704,,,200,,,,,,,,,,1,wg-a,,,,AAXX 03124 07255 12600 42002 10220 20110 30018 40211 58009 60006 70140 81102 91200=
07255,1997-09-03 18:00:00,22,1019.9,-0.2,53,12,500,3.704,,,120,9.4,23.8,,,,,,,,,wg-a,,,,AAXX 03184 07255 12/00 41202 10220 20120 30006 40199 55002 60006 81032 91800 333 10238 20094=
07255,1997-09-03 21:00:00,17,1020.7,0.5,82,14,25000,7.408,,,110,,,,,,,,,,,wg-a,,,,AAXX 03214 07255 12/75 11104 10170 20140 30011 40207 50005 60006 80001 92100=
07255,1997-09-04 00:00:00,15,1020.6,-0.3,88,13,25000,7.408,,,100,,,,,,,,,,,wg-a,,,,AAXX 04004 07255 12/75 01004 10150 20130 30008 40206 56003 60006 80000 90000=
07255,1997-09-04 03:00:00,14,1020,-0.6,88,12,15000,7.408,,,110,,,,,,,,,,,wg-a,,,,AAXX 04034 07255 12/65 71104 10140 20120 30002 40200 58006 60006 82032 90300=
07255,1997-09-04 06:00:00,14,1020.6,0.6,94,13,9000,7.408,,,120,13.3,21.5,,,,,,,,,wg-a,,,,AAXX 04064 07255 02/59 71204 10140 20130 30008 40206 51006 60006 86082 90600 333 10215 20133 60004=
07255,1997-09-04 09:00:00,19,1021,0.7,83,16,11000,3.704,,,170,,,,,,,,,,,wg-a,,,,AAXX 04094 07255 12/61 71702 10190 20160 30015 40210 51007 60006 85082 90900=
07255,1997-09-04 15:00:00,26,1018.8,-0.7,48,14,40000,11.112,,,260,,,,,,,,,,,wg-a,,,,AAXX 04154 07255 12/82 72606 10260 20140 39998 40188 56007 60006 85082 91500=
07255,1997-09-04 18:00:00,23,1019,0.1,61,15,500,7.408,,,310,13.6,26.3,,,,,,,,,wg-a,,,,AAXX 04184 07255 12700 73104 10230 20150 39999 40190 53001 60006 82532 91800 333 10263 20136=
07255,1997-09-04 21:00:00,19,1019.8,0.5,78,15,25000,3.704,,,130,,,,,,,,,,,wg-a,,,,AAXX 04214 07255 12/75 61302 10190 20150 30004 40198 51005 60006 80002 92100=
07255,1997-09-05 00:00:00,17,1020,-0,88,15,20000,3.704,,,190,,,,,,,,,,,wg-a,,,,AAXX 05004 07255 12/70 51902 10170 20150 30004 40200 55000 60006 83031 90000=
07255,1997-09-05 03:00:00,15,1019.7,-0.4,94,14,10000,7.408,,,130,,,,,,,,,,,wg-a,,,,AAXX 05034 07255 12/60 /1304 10150 20140 30000 40197 58004 60006 90300=
07255,1997-09-05 06:00:00,15,1019.5,-0.2,94,14,9000,3.704,,,90,14,23.2,,,,,,,,,wg-a,,,,AAXX 05064 07255 02/59 /0902 10150 20140 39998 40195 56002 60006 90600 333 10232 20140 60004=
07255,1997-09-05 12:00:00,26,1018.3,-1.1,58,17,500,7.408,,,10,,,,,,,,,,,wg-a,,,,AAXX 05124 07255 12500 50104 10260 20170 39993 40183 58011 60006 82281 91200=
07255,1997-09-05 18:00:00,23,1018.8,0.6,69,17,28000,11.112,,,350,14.6,26.3,,,,,,,,,wg-a,,,,AAXX 05184 07255 12778 73506 10230 20170 39996 40188 52006 60006 8419/ 91800 333 10263 20146=
07255,1997-09-05 21:00:00,20,1020.7,1.7,78,16,25000,11.112,,,20,,,,,,,,,,,wg-a,,,,AAXX 05214 07255 12/75 70206 10200 20160 30013 40207 51017 60006 8707/ 92100=
07255,1997-09-06 00:00:00,17,1022,1.1,77,13,15000,14.816,,,20,,,,,,,,,,,wg-a,,,,AAXX 06004 07255 12665 80208 10170 20130 30024 40220 53011 60006 875// 90000=
07255,1997-09-06 03:00:00,16,1022.6,0.5,77,12,15000,7.408,,,340,,,,,,,,,,,wg-a,,,,AAXX 06034 07255 12765 83404 10160 20120 30029 40226 53005 60006 8557/ 90300=
07255,1997-09-06 06:00:00,15,1023.9,1.2,88,13,25000,11.112,,,20,14.9,22.5,,,,,,,,60,wg-a,,,,AAXX 06064 07255 02775 80206 10150 20130 30041 40239 53012 61000 76062 875// 90600 333 10225 20149 6000=
07255,1997-09-06 09:00:00,16,1024.8,1,77,12,25000,14.816,,,40,,,,,,,,,,2,wg-a,,,,AAXX 06094 07255 02675 70408 10160 20120 30051 40248 52010 61000 70262 8353/ 90900 333 ////=
07255,1997-09-06 12:00:00,19,1025.2,0.6,64,12,28000,14.816,,,20,,,,,,,,,,1,wg-a,,,,AAXX 06124 07255 02578 /0208 10190 20120 30057 40252 52006 61000 70162 83830 91200 333 ////=
07255,1997-09-06 15:00:00,20,1024.8,-0.4,49,9,35000,11.112,,,70,,,,,,,,,,,wg-a,,,,AAXX 06154 07255 12681 /0706 10200 20090 30053 40248 56004 60006 81130 91500=
07255,1997-09-06 18:00:00,19,1024.9,-0,56,10,35000,3.704,,,40,14.7,20.5,,,,,,,,,wg-a,,,,AAXX 06184 07255 12/81 20402 10190 20100 30053 40249 55000 60006 82080 91800 333 10205 20147=
07255,1997-09-06 21:00:00,14,1026.2,1,82,11,25000,7.408,,,170,,,,,,,,,,,wg-a,,,,AAXX 06214 07255 12/75 01704 10140 20110 30063 40262 51010 60006 80000 92100=
07255,1997-09-07 00:00:00,12,1026.2,-0.2,94,11,12000,3.704,,,220,,,,,,,,,,,wg-a,,,,AAXX 07004 07255 12/62 02202 10120 20110 30061 40262 58002 60006 80000 90000=
07255,1997-09-07 03:00:00,10,1026.4,0.1,93,9,12000,3.704,,,40,,,,,,,,,,,wg-a,,,,AAXX 07034 07255 32/62 00402 10100 20090 30062 40264 53001 80000 90300=
07255,1997-09-07 06:00:00,9,1027.3,0.8,93,8,25000,0,,,0,8.4,19.1,,,,,,,,11,wg-a,,,,AAXX 07064 07255 02/75 /0000 10090 20080 30070 40273 53008 60006 71111 81032 90600 333 10191 20084 60004=
07255,1997-09-07 09:00:00,17,1028,1.3,68,11,20000,7.408,,,80,,,,,,,,,,,wg-a,,,,AAXX 07094 07255 12570 40804 10170 20110 30083 40280 53013 60006 81132 90900=
07255,1997-09-07 12:00:00,21,1027.4,-0.4,53,11,35000,7.408,,,350,,,,,,,,,,,wg-a,,,,AAXX 07124 07255 12681 33504 10210 20110 30079 40274 56004 60006 83102 91200=
07255,1997-09-07 18:00:00,20,1026.9,0.5,53,10,35000,11.112,,,30,8.8,22.1,,,,,,,,,wg-a,,,,AAXX 07184 07255 12681 /0306 10200 20100 30074 40269 53005 60006 81401 91800 333 10221 20088=
07255,1997-09-07 21:00:00,16,1027.9,0.7,72,11,25000,3.704,,,60,,,,,,,,,,,wg-a,,,,AAXX 07214 07255 12/75 00602 10160 20110 30081 40279 51007 60006 80000 92100=
07255,1997-09-08 00:00:00,14,1028.4,0.3,82,11,25000,7.408,,,60,,,,,,,,,,,wg-a,,,,AAXX 08004 07255 12/75 00604 10140 20110 30084 40284 52003 60006 80000 90000=
07255,1997-09-08 03:00:00,12,1027.8,-0.7,88,10,20000,3.704,,,50,,,,,,,,,,,wg-a,,,,AAXX 08034 07255 12/70 00502 10120 20100 30077 40278 56007 60006 80000 90300=
07255,1997-09-08 06:00:00,11,1028.4,0.6,94,10,10000,3.704,,,80,10.7,19.8,,,,,,,,,wg-a,,,,AAXX 08064 07255 02/60 /0802 10110 20100 30083 40284 53006 60006 90600 333 10198 20107 60004=
07255,1997-09-08 09:00:00,18,1028,-0,73,13,20000,11.112,,,110,,,,,,,,,,,wg-a,,,,AAXX 08094 07255 12570 21106 10180 20130 30083 40280 55000 60006 81201 90900=
07255,1997-09-08 12:00:00,22,1026.8,-0.9,57,13,500,11.112,,,100,,,,,,,,,,,wg-a,,,,AAXX 08124 07255 12600 31006 10220 20130 30074 40268 58009 60006 83201 91200=
07255,1997-09-08 15:00:00,23,1025.5,-1.2,53,13,500,14.816,,,20,,,,,,,,,,,wg-a,,,,AAXX 08154 07255 12700 30208 10230 20130 30062 40255 56012 60006 83100 91500=
07255,1997-09-08 18:00:00,22,1024.8,-0.8,57,13,500,7.408,,,30,11.4,23.6,,,,,,,,,wg-a,,,,AAXX 08184 07255 12/00 00304 10220 20130 30054 40248 56008 60006 80000 91800 333 10236 20114=
07255,1997-09-08 21:00:00,17,1025.4,0.3,82,14,500,7.408,,,40,,,,,,,,,,,wg-a,,,,AAXX 08214 07255 12/00 00404 10170 20140 30057 40254 51003 60006 80000 92100=
07255,1997-09-09 03:00:00,13,1024.5,-0.6,94,12,20000,3.704,,,20,,,,,,,,,,,wg-a,,,,AAXX 09034 07255 12/70 00202 10130 20120 30045 40245 58006 60006 80000 90300=
07255,1997-09-09 06:00:00,11,1024.3,-0.3,100,11,10000,3.704,,,260,10.9,21.5,,,,,,,,,wg-a,,,,AAXX 09064 07255 02/60 12602 10110 20110 30042 40243 56003 60006 80001 90600 333 10215 20109 60004=
07255,1997-09-09 09:00:00,18,1024.3,0.5,77,14,8000,7.408,,,10,,,,,,,,,,,wg-a,,,,AAXX 09094 07255 12/58 /0104 10180 20140 30047 40243 51005 60006 80001 90900=
07255,1997-09-09 12:00:00,21,1023.5,-0.6,69,15,12000,14.816,,,330,,,,,,,,,,,wg-a,,,,AAXX 09124 07255 12662 23308 10210 20150 30041 40235 58006 60006 82201 91200=
07255,1997-09-09 18:00:00,18,1022.6,-0.3,68,12,12000,11.112,,,40,11.3,21.4,,,,,,,,,wg-a,,,,AAXX 09184 07255 12/62 10406 10180 20120 30030 40226 55003 60006 80001 91800 333 10214 20113=
07255,1997-09-10 00:00:00,13,1023.9,0,88,11,10000,3.704,,,30,,,,,,,,,,,wg-a,,,,AAXX 10004 07255 12/60 00302 10130 20110 30040 40239 50000 60006 80000 90000=
07255,1997-09-10 03:00:00,12,1023.5,-0.5,88,10,12000,11.112,,,70,,,,,,,,,,,wg-a,,,,AAXX 10034 07255 12/62 00706 10120 20100 30035 40235 58005 60006 80000 90300=
07255,1997-09-10 06:00:00,11,1023.2,-0.4,87,9,7000,14.816,,,70,10.4,17.9,,,,,,,,,wg-a,,,,AAXX 10064 07255 02/57 00708 10110 20090 30031 40232 55004 60006 80000 90600 333 10179 20104 60004=
07255,1997-09-10 09:00:00,15,1023.1,0.2,72,10,20000,22.224,,,90,,,,,,,,,,,wg-a,,,,AAXX 10094 07255 12/70 10912 10150 20100 30033 40231 52002 60006 80001 90900=
07255,1997-09-10 12:00:00,20,1021.4,-1.4,46,8,20000,22.224,,,80,,,,,,,,,,,wg-a,,,,AAXX 10124 07255 12/70 20812 10200 20080 30019 40214 58014 60006 80001 91200=
07255,1997-09-10 18:00:00,19,1019.1,-0.5,49,8,25000,14.816,,,70,11.1,21.2,,,,,,,,,wg-a,,,,AAXX 10184 07255 12/75 10708 10190 20080 39996 40191 55005 60006 80001 91800 333 10212 20111=
07255,1997-09-11 00:00:00,11,1018.1,-0.9,82,8,25000,14.816,,,120,,,,,,,,,,,wg-a,,,,AAXX 11004 07255 12/75 01208 10110 20080 39981 40181 58009 60006 80000 90000=
07255,1997-09-11 03:00:00,9,1016.1,-2.1,93,8,18000,11.112,,,120,,,,,,,,,,,wg-a,,,,AAXX 11034 07255 12/68 01206 10090 20080 39960 40161 56021 60006 80000 90300=
07255,1997-09-11 06:00:00,9,1015.3,-0.8,87,7,28000,11.112,,,90,8.6,18.9,,,,,,,,,wg-a,,,,AAXX 11064 07255 02/78 30906 10090 20070 39952 40153 56008 60006 80001 90600 333 10189 20086 60004=
07255,1997-09-11 09:00:00,18,1014.5,-0.1,64,11,28000,14.816,,,250,,,,,,,,,,,wg-a,,,,AAXX 11094 07255 12/78 22508 10180 20110 39951 40145 56001 60006 80001 90900=
07255,1997-09-11 12:00:00,25,1012.7,-1.3,41,11,500,18.52,,,250,,,,,,,,,,,wg-a,,,,AAXX 11124 07255 12/00 32510 10250 20110 39938 40127 58013 60006 80001 91200=
07255,1997-09-11 15:00:00,28,1011.2,-1.3,30,9,40000,18.52,,,230,,,,,,,,,,,wg-a,,,,AAXX 11154 07255 12/82 32310 10280 20090 39925 40112 57013 60006 80001 91500=
07255,1997-09-11 18:00:00,24,1010.6,-0.8,50,13,40000,7.408,,,240,8.9,28.3,,,,,,,,,wg-a,,,,AAXX 11184 07255 12/82 32404 10240 20130 39917 40106 56008 60006 80001 91800 333 10283 20089=
07255,1997-09-11 21:00:00,20,1011.4,0.4,60,12,500,14.816,,,210,,,,,,,,,,,wg-a,,,,AAXX 11214 07255 12/00 12108 10200 20120 39921 40114 50004 60006 80001 92100=
07255,1997-09-12 03:00:00,17,1012.2,0.4,88,15,15000,11.112,,,280,,,,,,,,,,,wg-a,,,,AAXX 12034 07255 12/65 52806 10170 20150 39928 40122 50004 60006 81032 90300=
07255,1997-09-12 06:00:00,15,1012.6,0.2,94,14,500,3.704,,,230,15,24.4,,,,,,,,,wg-a,,,,AAXX 12064 07255 02500 /2302 10150 20140 39930 40126 52002 60006 82582 90600 333 10244 20150 60004=
07255,1997-09-12 09:00:00,17,1012.6,0.2,88,15,6000,3.704,,,230,,,,,,,,,,17,wg-a,,,,AAXX 12094 07255 02556 82302 10170 20150 39932 40126 50002 61000 71796 8398/ 90900 333 ////=
07255,1997-09-12 12:00:00,16,1012.1,-0.6,94,15,2000,3.704,,,290,,,,0,,,,,,80,wg-a,,,,AAXX 12124 07255 02420 82902 10160 20150 39926 40121 58006 60016 78096 889// 91200 333 60007=
07255,1997-09-12 15:00:00,16,1012.6,0.5,94,15,500,7.408,,,270,,,,6,,,,,,29,wg-a,,,,AAXX 12154 07255 12200 82704 10160 20150 39931 40126 50005 60067 72998 8377/ 91500=
07255,1997-09-12 18:00:00,16,1012,-0.6,94,15,4000,7.408,,,280,15.2,17.2,,,,,,,,10,wg-a,,,,AAXX 12184 07255 02240 72804 10160 20150 39925 40120 55006 61000 71098 8453/ 91800 333 10172 20152 6000=
07255,1997-09-12 21:00:00,15,1013.3,1.2,94,14,6000,14.816,,,230,,,,,,,,,,,wg-a,,,,AAXX 12214 07255 12/56 42308 10150 20140 39937 40133 51012 60006 84030 92100=
07255,1997-09-13 00:00:00,14,1014.2,0.8,100,14,6000,18.52,,,250,,,,,,,,,,,wg-a,,,,AAXX 13004 07255 12/56 42510 10140 20140 39945 40142 50008 60006 80002 90000=
07255,1997-09-13 03:00:00,15,1014.2,0.1,94,14,6000,11.112,,,270,,,,,,,,,,60,wg-a,,,,AAXX 13034 07255 02456 72706 10150 20140 39946 40142 53001 61000 76061 878// 90300 333 ////=
07255,1997-09-13 06:00:00,13,1016,1.6,94,12,25000,7.408,,,310,12.6,15.9,,,,,9,,,3,wg-a,,,,AAXX 13064 07255 02475 73104 10130 20120 39962 40160 53016 60006 70386 878// 90600 333 10159 20126 60094=
07255,1997-09-13 09:00:00,14,1018.9,2.9,82,11,500,14.816,,,300,,,,,,,,,,,wg-a,,,,AAXX 13094 07255 12400 /3008 10140 20110 39991 40189 51029 60006 82102 90900=
07255,1997-09-13 12:00:00,17,1019.9,1.2,55,8,40000,14.816,,,310,,,,,,,,,,,wg-a,,,,AAXX 13124 07255 12582 /3108 10170 20080 30003 40199 51012 60006 85202 91200=
07255,1997-09-13 15:00:00,18,1020.5,0.6,45,6,40000,14.816,,,340,,,,,,,,,,,wg-a,,,,AAXX 13154 07255 12682 53408 10180 20060 30009 40205 52006 60006 84201 91500=
07255,1997-09-13 18:00:00,15,1021.6,0.9,59,7,40000,7.408,,,10,11.9,18.4,,,,,,,,,wg-a,,,,AAXX 13184 07255 12782 20104 10150 20070 30018 40216 53009 60006 81101 91800 333 10184 20119=
07255,1997-09-14 00:00:00,9,1024.9,0.6,87,7,20000,3.704,,,60,,,,,,,,,,,wg-a,,,,AAXX 14004 07255 12/70 00602 10090 20070 30047 40249 51006 60006 80000 90000=
07255,1997-09-14 03:00:00,7,1025.3,0.2,93,6,15000,3.704,,,40,,,,,,,,,,,wg-a,,,,AAXX 14034 07255 12/65 00402 10070 20060 30049 40253 53002 60006 80000 90300=
07255,1997-09-14 06:00:00,6,1026.2,0.8,93,5,18000,0,,,0,5.8,15.4,,,,,,,,,wg-a,,,,AAXX 14064 07255 02/68 50000 10060 20050 30057 40262 53008 60006 81031 90600 333 10154 20058 60004=
07255,1997-09-14 12:00:00,16,1027,0.1,48,5,500,14.816,,,70,,,,,,,,,,,wg-a,,,,AAXX 14124 07255 12600 70708 10160 20050 30071 40270 50001 60006 83232 91200=
07255,1997-09-14 18:00:00,15,1026,0.1,55,6,500,11.112,,,60,5.8,17.1,,,,,,,,,wg-a,,,,AAXX 14184 07255 12/00 40606 10150 20060 30061 40260 53001 60006 80001 91800 333 10171 20058=
07255,1997-09-14 21:00:00,12,1026.9,0.7,71,7,25000,11.112,,,70,,,,,,,,,,,wg-a,,,,AAXX 14214 07255 12/75 00706 10120 20070 30068 40269 51007 60006 80000 92100=
07255,1997-09-15 00:00:00,10,1026.8,-0.3,76,6,25000,14.816,,,70,,,,,,,,,,,wg-a,,,,AAXX 15004 07255 12/75 00708 10100 20060 30065 40268 58003 60006 80000 90000=
07255,1997-09-15 03:00:00,8,1025.5,-1.4,81,5,20000,11.112,,,90,,,,,,,,,,,wg-a,,,,AAXX 15034 07255 12/70 00906 10080 20050 30051 40255 56014 60006 80000 90300=
07255,1997-09-15 06:00:00,6,1025.4,-0.2,87,4,25000,11.112,,,110,5.5,15.1,,,,,,,,,wg-a,,,,AAXX 15064 07255 02/75 01106 10060 20040 30049 40254 56002 60006 80000 90600 333 10151 20055 60004=
07255,1997-09-15 09:00:00,14,1025.5,0.7,67,8,35000,11.112,,,130,,,,,,,,,,,wg-a,,,,AAXX 15094 07255 12/81 11306 10140 20080 30056 40255 52007 60006 80001 90900=
07255,1997-09-15 12:00:00,19,1024.2,-1,49,8,40000,11.112,,,90,,,,,,,,,,,wg-a,,,,AAXX 15124 07255 12/82 20906 10190 20080 30046 40242 58010 60006 80002 91200=
07255,1997-09-15 18:00:00,18,1022.6,-0.1,56,9,35000,7.408,,,120,6,21.4,,,,,,,,,wg-a,,,,AAXX 15184 07255 12/81 61204 10180 20090 30030 40226 58001 60006 80002 91800 333 10214 20060=
07255,1997-09-15 21:00:00,14,1023.9,1,77,10,20000,7.408,,,40,,,,,,,,,,,wg-a,,,,AAXX 15214 07255 12/70 60404 10140 20100 30040 40239 51010 60006 82032 92100=
07255,1997-09-16 03:00:00,9,1023.3,-0.5,93,8,15000,7.408,,,120,,,,,,,,,,,wg-a,,,,AAXX 16034 07255 12/65 31204 10090 20080 30031 40233 58005 60006 81032 90300=
07255,1997-09-16 06:00:00,9,1023.1,-0.2,93,8,18000,11.112,,,100,8.8,17.9,,,,,,,,,wg-a,,,,AAXX 16064 07255 02/68 71006 10090 20080 30029 40231 55002 60006 81032 90600 333 10179 20088 60004=
07255,1997-09-16 09:00:00,16,1023.2,0.6,77,12,18000,7.408,,,130,,,,,,,,,,,wg-a,,,,AAXX 16094 07255 12/68 71304 10160 20120 30035 40232 51006 60006 80002 90900=
07255,1997-09-16 15:00:00,24,1019.5,-1.4,54,14,22000,3.704,,,240,,,,,,,,,,,wg-a,,,,AAXX 16154 07255 12672 /2402 10240 20140 30004 40195 58014 60006 81102 91500=
07255,1997-09-16 18:00:00,22,1019.6,-0.1,57,13,25000,7.408,,,180,9,24.9,,,,,,,,,wg-a,,,,AAXX 16184 07255 12/75 61804 10220 20130 30003 40196 55001 60006 80001 91800 333 10249 20090=
07255,1997-09-16 21:00:00,17,1020.8,0.9,77,13,22000,7.408,,,170,,,,,,,,,,,wg-a,,,,AAXX 16214 07255 12/72 61704 10170 20130 30012 40208 51009 60006 80002 92100=
07255,1997-09-17 00:00:00,14,1021.4,0.4,94,13,20000,7.408,,,110,,,,,,,,,,,wg-a,,,,AAXX 17004 07255 12/70 31104 10140 20130 30016 40214 51004 60006 80001 90000=
07255,1997-09-17 06:00:00,12,1022.6,0.8,100,12,18000,11.112,,,100,11.6,21.4,,,,,,,,,wg-a,,,,AAXX 17064 07255 02/68 41006 10120 20120 30026 40226 53008 60006 80001 90600 333 10214 20116 60004=
07255,1997-09-17 12:00:00,25,1022.6,-0.2,50,14,25000,14.816,,,120,,,,,,,,,,,wg-a,,,,AAXX 17124 07255 12/75 71208 10250 20140 30035 40226 57002 60006 80001 91200=
07255,1997-09-17 15:00:00,27,1021.6,-0.9,42,13,500,7.408,,,180,,,,,,,,,,,wg-a,,,,AAXX 17154 07255 12/00 71804 10270 20130 30026 40216 56009 60006 80001 91500=
07255,1997-09-17 18:00:00,22,1022.1,0.2,57,13,25000,11.112,,,140,12.1,27,,,,,,,,,wg-a,,,,AAXX 17184 07255 12/75 61406 10220 20130 30028 40221 53002 60006 80001 91800 333 10270 20121=
07255,1997-09-18 00:00:00,14,1023.7,0.1,94,13,20000,7.408,,,100,,,,,,,,,,,wg-a,,,,AAXX 18004 07255 12/70 01004 10140 20130 30038 40237 52001 60006 80000 90000=
07255,1997-09-18 03:00:00,12,1023.5,-0.3,94,11,12000,7.408,,,120,,,,,,,,,,,wg-a,,,,AAXX 18034 07255 12/62 01204 10120 20110 30035 40235 58003 60006 80000 90300=
07255,1997-09-18 06:00:00,11,1024.4,0.8,100,11,500,7.408,,,110,11.3,22,,,,,,,,11,wg-a,,,,AAXX 18064 07255 02/00 01104 10110 20110 30043 40244 53008 60006 71100 80000 90600 333 10220 20113 60004=
07255,1997-09-18 09:00:00,19,1024.4,0.6,78,15,9000,7.408,,,140,,,,,,,,,,,wg-a,,,,AAXX 18094 07255 12/59 01404 10190 20150 30049 40244 52006 60006 80000 90900=
07255,1997-09-18 12:00:00,25,1023.2,-0.8,44,12,20000,11.112,,,50,,,,,,,,,,,wg-a,,,,AAXX 18124 07255 12670 /0506 10250 20120 30041 40232 58008 60006 81200 91200=
07255,1997-09-18 15:00:00,27,1021.6,-1.5,39,12,25000,3.704,,,70,,,,,,,,,,,wg-a,,,,AAXX 18154 07255 12/75 00702 10270 20120 30026 40216 56015 60006 80000 91500=
07255,1997-09-18 18:00:00,24,1021.8,-0,50,13,25000,7.408,,,40,11.5,27.5,,,,,,,,,wg-a,,,,AAXX 18184 07255 12/75 00404 10240 20130 30026 40218 55000 60006 80000 91800 333 10275 20115=
07255,1997-09-19 00:00:00,14,1023.1,-0.1,88,12,20000,11.112,,,120,,,,,,,,,,,wg-a,,,,AAXX 19004 07255 12/70 01206 10140 20120 30033 40231 58001 60006 80000 90000=
07255,1997-09-19 03:00:00,12,1023.1,-0.2,94,11,20000,7.408,,,110,,,,,,,,,,,wg-a,,,,AAXX 19034 07255 12/70 01104 10120 20110 30031 40231 57002 60006 80000 90300=
07255,1997-09-19 06:00:00,12,1023.4,0.3,94,11,10000,11.112,,,100,11.5,23.6,,,,,,,,,wg-a,,,,AAXX 19064 07255 02/60 01006 10120 20110 30034 40234 53003 60006 80000 90600 333 10236 20115 60004=
07255,1997-09-19 09:00:00,19,1023.7,0.8,78,15,12000,7.408,,,90,,,,,,,,,,,wg-a,,,,AAXX 19094 07255 12/62 00904 10190 20150 30042 40237 51008 60006 80000 90900=
07255,1997-09-19 12:00:00,26,1022.3,-0.9,48,14,20000,11.112,,,130,,,,,,,,,,,wg-a,,,,AAXX 19124 07255 12/70 21306 10260 20140 30033 40223 58009 60006 80001 91200=
07255,1997-09-19 15:00:00,27,1021,-1.2,45,14,20000,18.52,,,100,,,,,,,,,,,wg-a,,,,AAXX 19154 07255 12670 /1010 10270 20140 30021 40210 56012 60006 81100 91500=
07255,1997-09-19 18:00:00,24,1021,-0.2,57,15,20000,7.408,,,100,12.2,27.7,,,,,,,,,wg-a,,,,AAXX 19184 07255 12/70 01004 10240 20150 30019 40210 55002 60006 80000 91800 333 10277 20122=
07255,1997-09-20 00:00:00,19,1022,-0.1,78,15,15000,14.816,,,70,,,,,,,,,,,wg-a,,,,AAXX 20004 07255 12/65 00708 10190 20150 30025 40220 58001 60006 80000 90000=
07255,1997-09-20 03:00:00,17,1021.6,-0.5,88,15,12000,14.816,,,60,,,,,,,,,,,wg-a,,,,AAXX 20034 07255 12/62 00608 10170 20150 30020 40216 57005 60006 80000 90300=
07255,1997-09-20 06:00:00,15,1021.9,0.2,94,14,4000,7.408,,,80,15.2,24,,,,,,,,10,wg-a,,,,AAXX 20064 07255 02/40 20804 10150 20140 30022 40219 53002 60006 71000 82030 90600 333 10240 20152 60004=
07255,1997-09-20 09:00:00,19,1022.6,0.9,83,16,500,11.112,,,70,,,,,,,,,,,wg-a,,,,AAXX 20094 07255 12/00 00706 10190 20160 30031 40226 51009 60006 80000 90900=
07255,1997-09-20 12:00:00,23,1021.7,-0.6,57,14,10000,18.52,,,80,,,,,,,,,,,wg-a,,,,AAXX 20124 07255 12/60 00810 10230 20140 30025 40217 58006 60006 80000 91200=
07255,1997-09-20 18:00:00,20,1021.5,0.3,60,12,25000,14.816,,,40,15.2,24.2,,,,,,,,,wg-a,,,,AAXX 20184 07255 12/75 10408 10200 20120 30021 40215 53003 60006 80001 91800 333 10242 20152=
07255,1997-09-20 21:00:00,16,1022.4,0.6,68,10,15000,3.704,,,30,,,,,,,,,,,wg-a,,,,AAXX 20214 07255 12/65 20302 10160 20100 30027 40224 51006 60006 80001 92100=
07255,1997-09-21 00:00:00,13,1022.2,-0.4,82,10,15000,3.704,,,350,,,,,,,,,,,wg-a,,,,AAXX 21004 07255 12/65 13502 10130 20100 30023 40222 56004 60006 80001 90000=
07255,1997-09-21 03:00:00,12,1021.8,-0.5,82,9,12000,7.408,,,90,,,,,,,,,,,wg-a,,,,AAXX 21034 07255 12/62 10904 10120 20090 30018 40218 58005 60006 80001 90300=
07255,1997-09-21 06:00:00,10,1022,-0,87,8,8000,0,,,0,9.4,19.9,,,,,,,,,wg-a,,,,AAXX 21064 07255 02/58 20000 10100 20080 30018 40220 55000 60006 80002 90600 333 10199 20094 60004=
07255,1997-09-21 09:00:00,17,1021.7,0.3,68,11,9000,3.704,,,130,,,,,,,,,,,wg-a,,,,AAXX 21094 07255 12/59 31302 10170 20110 30027 40217 53003 60006 80001 90900=
07255,1997-09-21 12:00:00,22,1020.7,-0.7,65,15,10000,7.408,,,90,,,,,,,,,,,wg-a,,,,AAXX 21124 07255 12560 /0904 10220 20150 30014 40207 58007 60006 81102 91200=
07255,1997-09-21 15:00:00,24,1019.6,-0.9,47,12,20000,7.408,,,340,,,,,,,,,,,wg-a,,,,AAXX 21154 07255 12670 /3404 10240 20120 30005 40196 56009 60006 81902 91500=
07255,1997-09-21 18:00:00,21,1020.3,0.4,64,14,15000,7.408,,,20,9.5,24.7,,,,,,,,,wg-a,,,,AAXX 21184 07255 12665 40204 10210 20140 30009 40203 53004 60006 82901 91800 333 10247 20095=
07255,1997-09-21 21:00:00,17,1021.5,1,77,13,12000,11.112,,,90,,,,,,,,,,,wg-a,,,,AAXX 21214 07255 12/62 00906 10170 20130 30019 40215 51010 60006 80000 92100=
07255,1997-09-22 00:00:00,14,1021.5,-0.2,88,12,10000,7.408,,,110,,,,,,,,,,,wg-a,,,,AAXX 22004 07255 12/60 01104 10140 20120 30017 40215 57002 60006 80000 90000=
07255,1997-09-22 03:00:00,12,1021.7,0,94,11,8000,3.704,,,130,,,,,,,,,,,wg-a,,,,AAXX 22034 07255 12/58 /1302 10120 20110 30017 40217 50000 60006 80001 90300=
07255,1997-09-22 09:00:00,18,1022.1,0.6,77,14,10000,7.408,,,110,,,,,,,,,,,wg-a,,,,AAXX 22094 07255 12/60 11104 10180 20140 30025 40221 51006 60006 81081 90900=
07255,1997-09-22 12:00:00,24,1021.1,-0.6,41,10,18000,3.704,,,160,,,,,,,,,,,wg-a,,,,AAXX 22124 07255 12/68 11602 10240 20100 30019 40211 57006 60006 81080 91200=
07255,1997-09-22 15:00:00,24,1019.9,-1.1,47,12,22000,11.112,,,40,,,,,,,,,,,wg-a,,,,AAXX 22154 07255 12/72 10406 10240 20120 30008 40199 57011 60006 81080 91500=
07255,1997-09-22 18:00:00,21,1020.6,0.4,53,11,25000,7.408,,,40,11.1,24.9,,,,,,,,,wg-a,,,,AAXX 22184 07255 12/75 10404 10210 20110 30012 40206 53004 60006 81030 91800 333 10249 20111=
07255,1997-09-22 21:00:00,17,1021.9,1.1,68,11,22000,7.408,,,320,,,,,,,,,,,wg-a,,,,AAXX 22214 07255 12/72 43204 10170 20110 30023 40219 51011 60006 81032 92100=
07255,1997-09-23 00:00:00,15,1021.7,-0.4,72,10,20000,7.408,,,50,,,,,,,,,,,wg-a,,,,AAXX 23004 07255 12/70 20504 10150 20100 30019 40217 58004 60006 80001 90000=
07255,1997-09-23 03:00:00,12,1021.4,-0.5,88,10,18000,3.704,,,90,,,,,,,,,,,wg-a,,,,AAXX 23034 07255 12/68 20902 10120 20100 30014 40214 56005 60006 80001 90300=
07255,1997-09-23 06:00:00,11,1021.6,0.2,94,10,18000,7.408,,,100,10.8,20.7,,,,,,,,,wg-a,,,,AAXX 23064 07255 02/68 11004 10110 20100 30016 40216 53002 60006 80001 90600 333 10207 20108 60004=
07255,1997-09-23 09:00:00,17,1021.4,0.2,68,11,25000,7.408,,,90,,,,,,,,,,,wg-a,,,,AAXX 23094 07255 12/75 00904 10170 20110 30018 40214 50002 60006 80000 90900=
07255,1997-09-23 12:00:00,23,1020.2,-0.8,50,12,500,7.408,,,70,,,,,,,,,,,wg-a,,,,AAXX 23124 07255 12/00 00704 10230 20120 30010 40202 58008 60006 80000 91200=
07255,1997-09-23 15:00:00,24,1019.1,-1,50,13,500,11.112,,,80,,,,,,,,,,,wg-a,,,,AAXX 23154 07255 12600 /0806 10240 20130 30000 40191 56010 60006 81100 91500=
07255,1997-09-23 18:00:00,22,1019.9,0.6,57,13,25000,14.816,,,50,10.5,25.1,,,,,,,,,wg-a,,,,AAXX 23184 07255 12775 10508 10220 20130 30006 40199 53006 60006 81100 91800 333 10251 20105=
07255,1997-09-23 21:00:00,18,1021.2,1,64,11,25000,14.816,,,70,,,,,,,,,,,wg-a,,,,AAXX 23214 07255 12/75 00708 10180 20110 30016 40212 51010 60006 80000 92100=
07255,1997-09-24 00:00:00,16,1021.1,-0.2,68,10,20000,14.816,,,90,,,,,,,,,,,wg-a,,,,AAXX 24004 07255 12/70 00908 10160 20100 30014 40211 57002 60006 80000 90000=
07255,1997-09-24 06:00:00,11,1021.6,0.5,87,9,12000,3.704,,,110,10.8,21.5,,,,,,,,,wg-a,,,,AAXX 24064 07255 02/62 11102 10110 20090 30016 40216 53005 60006 80001 90600 333 10215 20108 60004=
07255,1997-09-24 09:00:00,18,1021.9,0.7,64,11,18000,11.112,,,90,,,,,,,,,,,wg-a,,,,AAXX 24094 07255 12/68 10906 10180 20110 30023 40219 51007 60006 80001 90900=
07255,1997-09-24 12:00:00,24,1020.7,-0.8,44,11,25000,14.816,,,120,,,,,,,,,,,wg-a,,,,AAXX 24124 07255 12/75 41208 10240 20110 30015 40207 57008 60006 80001 91200=
07255,1997-09-24 15:00:00,25,1019.3,-1.3,41,11,28000,18.52,,,80,,,,,,,,,,,wg-a,,,,AAXX 24154 07255 12/78 50810 10250 20110 30002 40193 56013 60006 80001 91500=
07255,1997-09-24 18:00:00,21,1019.9,0.3,49,10,25000,14.816,,,60,10.9,25.2,,,,,,,,,wg-a,,,,AAXX 24184 07255 12/75 50608 10210 20100 30005 40199 53003 60006 80001 91800 333 10252 20109=
07255,1997-09-24 21:00:00,17,1020.6,0.5,63,10,25000,14.816,,,80,,,,,,,,,,,wg-a,,,,AAXX 24214 07255 12/75 20808 10170 20100 30010 40206 50005 60006 80001 92100=
07255,1997-09-25 00:00:00,13,1021.1,0.2,82,10,25000,7.408,,,100,,,,,,,,,,,wg-a,,,,AAXX 25004 07255 12/75 11004 10130 20100 30012 40211 50002 60006 80001 90000=
07255,1997-09-25 03:00:00,10,1021.3,0,93,9,20000,11.112,,,110,,,,,,,,,,,wg-a,,,,AAXX 25034 07255 12/70 01106 10100 20090 30012 40213 50000 60006 80000 90300=
07255,1997-09-25 06:00:00,9,1022.2,0.8,100,9,15000,7.408,,,130,8.8,20.4,,,,,,,,,wg-a,,,,AAXX 25064 07255 02/65 11304 10090 20090 30020 40222 53008 60006 80001 90600 333 10204 20088 60004=
07255,1997-09-25 09:00:00,17,1022.6,0.9,68,11,15000,14.816,,,110,,,,,,,,,,,wg-a,,,,AAXX 25094 07255 12/65 01108 10170 20110 30029 40226 53009 60006 80000 90900=
07255,1997-09-25 12:00:00,23,1021.8,-0.4,50,12,20000,14.816,,,80,,,,,,,,,,,wg-a,,,,AAXX 25124 07255 12/70 00808 10230 20120 30025 40218 58004 60006 80000 91200=
07255,1997-09-25 15:00:00,25,1021.1,-0.5,34,8,500,18.52,,,70,,,,,,,,,,,wg-a,,,,AAXX 25154 07255 12/00 00710 10250 20080 30020 40211 56005 60006 80000 91500=
07255,1997-09-26 00:00:00,13,1022.9,-0.4,82,10,20000,7.408,,,100,,,,,,,,,,,wg-a,,,,AAXX 26004 07255 12/70 01004 10130 20100 30030 40229 57004 60006 80000 90000=
07255,1997-09-26 03:00:00,11,1022.7,-0.4,94,10,15000,11.112,,,100,,,,,,,,,,,wg-a,,,,AAXX 26034 07255 12/65 01006 10110 20100 30026 40227 58004 60006 80000 90300=
07255,1997-09-26 06:00:00,10,1023,0.2,93,9,8000,7.408,,,90,9.5,20.8,,,,,,,,,wg-a,,,,AAXX 26064 07255 02/58 00904 10100 20090 30028 40230 52002 60006 80000 90600 333 10208 20095 60004=
07255,1997-09-26 09:00:00,18,1022.8,,73,13,12000,11.112,,,110,,,,,,,,,,,wg-a,,,,AAXX 26094 07255 32/62 01106 10180 20130 30031 40228 80000 90900=
07255,1997-09-26 12:00:00,24,1020.9,,50,13,20000,7.408,,,130,,,,,,,,,,,wg-a,,,,AAXX 26124 07255 12/70 01304 10240 20130 30018 40209 60006 80000 91200=
07255,1997-09-26 15:00:00,26,1019,-1.8,39,11,20000,3.704,,,280,,,,,,,,,,,wg-a,,,,AAXX 26154 07255 12/70 02802 10260 20110 30000 40190 56018 60006 80000 91500=
07255,1997-09-26 18:00:00,21,1018.9,-0.4,53,11,20000,7.408,,,20,,,,,,,,,,,wg-a,,,,AAXX 26184 07255 12/70 20204 10210 20110 39996 40189 56004 60006 80001 91800=
07255,1997-09-26 21:00:00,17,1018.8,-0.4,72,12,20000,7.408,,,80,,,,,,,,,,,wg-a,,,,AAXX 26214 07255 12/70 00804 10170 20120 39992 40188 58004 60006 80000 92100=
07255,1997-09-27 00:00:00,13,1018.8,-0.3,82,10,15000,7.408,,,120,,,,,,,,,,,wg-a,,,,AAXX 27004 07255 12/65 01204 10130 20100 39989 40188 56003 60006 80000 90000=
07255,1997-09-27 06:00:00,10,1017.5,-0.6,93,9,6000,11.112,,,90,,,,,,,,,,11,wg-a,,,,AAXX 27064 07255 12/56 20906 10100 20090 39974 40175 56006 60006 71100 80001 90600=
07255,1997-09-27 09:00:00,18,1016.9,0,73,13,12000,3.704,,,100,,,,,,,,,,,wg-a,,,,AAXX 27094 07255 12/62 21002 10180 20130 39974 40169 50000 60006 80001 90900=
07255,1997-09-27 12:00:00,24,1015.1,-1.3,41,10,500,7.408,,,340,,,,0,,,,,,,wg-a,,,,AAXX 27124 07255 02/00 23404 10240 20100 39961 40151 56013 60006 80001 91200 333 60007=
07255,1997-09-27 15:00:00,26,1013.6,-1.4,39,11,500,7.408,,,340,,,,,,,,,,,wg-a,,,,AAXX 27154 07255 12/00 23404 10260 20110 39947 40136 56014 60006 80001 91500=
07255,1997-09-27 18:00:00,22,1014.1,0.2,50,11,28000,7.408,,,60,,,,,,,,,,,wg-a,,,,AAXX 27184 07255 12/78 20604 10220 20110 39949 40141 53002 60006 80001 91800=
07255,1997-09-27 21:00:00,17,1014.6,0.2,68,11,20000,7.408,,,100,,,,,,,,,,,wg-a,,,,AAXX 27214 07255 12/70 21004 10170 20110 39951 40146 50002 60006 80001 92100=
07255,1997-09-28 00:00:00,13,1014.5,-0.3,88,11,15000,7.408,,,100,,,,,,,,,,,wg-a,,,,AAXX 28004 07255 12/65 01004 10130 20110 39948 40145 58003 60006 80000 90000=
07255,1997-09-28 03:00:00,12,1014.3,-0.3,88,10,12000,11.112,,,100,,,,,,,,,,,wg-a,,,,AAXX 28034 07255 12/62 01006 10120 20100 39945 40143 57003 60006 80000 90300=
07255,1997-09-28 06:00:00,11,1015.1,0.7,87,9,12000,11.112,,,100,,,,,,,,,,,wg-a,,,,AAXX 28064 07255 02/62 31006 10110 20090 39952 40151 52007 60006 81032 90600 333 60004=
07255,1997-09-28 12:00:00,25,1014.3,-0.6,41,11,20000,3.704,,,350,,,,,,,,,,,wg-a,,,,AAXX 28124 07255 12/70 13502 10250 20110 39953 40143 58006 60006 81081 91200=
07255,1997-09-28 15:00:00,26,1013.7,-0.5,37,10,20000,7.408,,,360,,,,,,,,,,,wg-a,,,,AAXX 28154 07255 12/70 13604 10260 20100 39948 40137 56005 60006 81080 91500=
07255,1997-09-28 18:00:00,22,1015.2,1.2,46,10,20000,7.408,,,10,,,,,,,,,,,wg-a,,,,AAXX 28184 07255 12/70 10104 10220 20100 39960 40152 53012 60006 81030 91800=
07255,1997-09-28 21:00:00,17,1016.4,0.8,59,9,18000,3.704,,,120,,,,,,,,,,,wg-a,,,,AAXX 28214 07255 12/68 01202 10170 20090 39968 40164 51008 60006 80000 92100=
07255,1997-09-29 00:00:00,13,1017.5,0.9,77,9,18000,3.704,,,220,,,,,,,,,,,wg-a,,,,AAXX 29004 07255 12/68 02202 10130 20090 39977 40175 51009 60006 80000 90000=
07255,1997-09-29 03:00:00,11,1018.5,0.8,87,9,15000,3.704,,,20,,,,,,,,,,,wg-a,,,,AAXX 29034 07255 12/65 30202 10110 20090 39985 40185 51008 60006 80002 90300=
07255,1997-09-29 06:00:00,9,1019.9,1.3,93,8,12000,7.408,,,120,,,,,,,,,,,wg-a,,,,AAXX 29064 07255 02/62 71204 10090 20080 39998 40199 53013 60006 80002 90600 333 60004=
07255,1997-09-29 09:00:00,16,1021.2,1.7,63,9,15000,0,,,0,,,,,,,,,,,wg-a,,,,AAXX 29094 07255 12/65 70000 10160 20090 30015 40212 51017 60006 82032 90900=
07255,1997-09-29 12:00:00,24,1020.8,0.1,44,11,18000,7.408,,,10,,,,,,,,,,,wg-a,,,,AAXX 29124 07255 12/68 70104 10240 20110 30016 40208 51001 60006 80002 91200=
07255,1997-09-29 15:00:00,25,1020.6,-0.1,41,11,20000,3.704,,,20,,,,,,,,,,,wg-a,,,,AAXX 29154 07255 12/70 60202 10250 20110 30015 40206 58001 60006 80002 91500=
07255,1997-09-29 18:00:00,20,1021.8,0.9,64,13,25000,7.408,,,10,,,,,,,,,,,wg-a,,,,AAXX 29184 07255 12/75 40104 10200 20130 30024 40218 52009 60006 80002 91800=
07255,1997-09-29 21:00:00,16,1023.4,1.3,82,13,20000,7.408,,,70,,,,,,,,,,,wg-a,,,,AAXX 29214 07255 12/70 50704 10160 20130 30037 40234 53013 60006 80002 92100=
07255,1997-09-30 00:00:00,14,1023.9,0.3,82,11,18000,7.408,,,100,,,,,,,,,,,wg-a,,,,AAXX 30004 07255 12/68 51004 10140 20110 30040 40239 53003 60006 80002 90000=
07255,1997-09-30 03:00:00,11,1024.6,0.5,94,10,15000,0,,,0,,,,,,,,,,,wg-a,,,,AAXX 30034 07255 12/65 30000 10110 20100 30045 40246 53005 60006 80001 90300=
07255,1997-09-30 06:00:00,9,1025.2,0.4,93,8,10000,3.704,,,140,,,,,,,,,,,wg-a,,,,AAXX 30064 07255 02/60 11402 10090 20080 30049 40252 53004 60006 81031 90600 333 60004=
07255,1997-09-30 09:00:00,17,1025.4,0.8,72,12,12000,7.408,,,100,,,,,,,,,,,wg-a,,,,AAXX 30094 07255 12/62 21004 10170 20120 30057 40254 53008 60006 80001 90900=
07255,1997-09-30 12:00:00,25,1024.1,-0.8,44,12,25000,7.408,,,110,,,,,,,,,,,wg-a,,,,AAXX 30124 07255 12/75 11104 10250 20120 30049 40241 56008 60006 80001 91200=
07255,1997-09-30 15:00:00,27,1023.1,-0.9,30,8,25000,11.112,,,90,,,,,,,,,,,wg-a,,,,AAXX 30154 07255 12/75 10906 10270 20080 30040 40231 56009 60006 80001 91500=
07255,1997-09-30 18:00:00,22,1023.3,-0,53,12,22000,7.408,,,40,,,,,,,,,,,wg-a,,,,AAXX 30184 07255 12/72 10404 10220 20120 30040 40233 55000 60006 80001 91800=
07255,1997-10-01 00:00:00,14,1023.4,-0.6,82,11,20000,3.704,,,100,,,,,,,,,,,wg-a,,,,AAXX 01004 07255 12/70 11002 10140 20110 30035 40234 56006 60006 80001 90000=
07255,1997-10-01 03:00:00,12,1022.9,-0.6,88,10,15000,0,,,0,,,,,,,,,,,wg-a,,,,AAXX 01034 07255 12/65 10000 10120 20100 30029 40229 58006 60006 80001 90300=
07255,1997-10-01 06:00:00,11,1023,-0,87,9,12000,3.704,,,210,10.6,21.9,,,,,,,,,wg-a,,,,AAXX 01064 07255 02/62 42102 10110 20090 30029 40230 55000 60006 80001 90600 333 10219 20106 60004=
07255,1997-10-01 12:00:00,25,1021.2,-0.9,44,12,18000,7.408,,,110,,,,,,,,,,,wg-a,,,,AAXX 01124 07255 12/68 51104 10250 20120 30021 40212 58009 60006 80001 91200=
07255,1997-10-01 15:00:00,26,1019.3,-1.8,34,9,500,11.112,,,40,,,,,,,,,,,wg-a,,,,AAXX 01154 07255 12/00 30406 10260 20090 30003 40193 56018 60006 80001 91500=
07255,1997-10-01 18:00:00,23,1018.7,-0.8,44,10,22000,3.704,,,310,,26.6,,,,,,,,,wg-a,,,,AAXX 01184 07255 12672 23102 10230 20100 39995 40187 56008 60006 81501 91800 333 10266=
07255,1997-10-01 21:00:00,17,1019.3,0.2,68,11,20000,3.704,,,30,,,,,,,,,,,wg-a,,,,AAXX 01214 07255 12/70 20302 10170 20110 39997 40193 50002 60006 80001 92100=
07255,1997-10-02 00:00:00,14,1018.9,-0.6,82,11,18000,0,,,0,,,,,,,,,,,wg-a,,,,AAXX 02004 07255 12/68 00000 10140 20110 39991 40189 58006 60006 80000 90000=
07255,1997-10-02 03:00:00,12,1018.5,-0.5,88,10,18000,0,,,0,,,,,,,,,,,wg-a,,,,AAXX 02034 07255 12/68 00000 10120 20100 39986 40185 58005 60006 80000 90300=
07255,1997-10-02 06:00:00,11,1019,0.4,100,11,12000,3.704,,,310,10.7,22.5,,,,,,,,,wg-a,,,,AAXX 02064 07255 02/62 03102 10110 20110 39990 40190 53004 60006 80000 90600 333 10225 20107 60004=
07255,1997-10-02 12:00:00,22,1018.3,-0.7,65,15,28000,3.704,,,360,,,,,,,,,,,wg-a,,,,AAXX 02124 07255 12578 /3602 10220 20150 39991 40183 58007 60006 85200 91200=
07255,1997-10-02 15:00:00,23,1017.2,-1,57,14,500,7.408,,,350,,,,,,,,,,,wg-a,,,,AAXX 02154 07255 12600 /3504 10230 20140 39981 40172 58010 60006 81100 91500=
07255,1997-10-02 18:00:00,20,1018.1,0.6,68,14,25000,7.408,,,340,11.1,23.6,,,,,,,,,wg-a,,,,AAXX 02184 07255 12/75 13404 10200 20140 39987 40181 53006 60006 80001 91800 333 10236 20111=
07255,1997-10-02 21:00:00,16,1019,0.7,88,14,20000,0,,,0,,,,,,,,,,,wg-a,,,,AAXX 02214 07255 12/70 00000 10160 20140 39994 40190 51007 60006 80000 92100=
07255,1997-10-03 00:00:00,14,1019.1,-0.1,88,12,10000,3.704,,,60,,,,,,,,,,,wg-a,,,,AAXX 03004 07255 12/60 00602 10140 20120 39993 40191 58001 60006 80000 90000=
07255,1997-10-03 03:00:00,14,1018.9,-0.2,82,11,10000,18.52,,,70,,,,,,,,,,,wg-a,,,,AAXX 03034 07255 12/60 20710 10140 20110 39991 40189 58002 60006 80001 90300=
07255,1997-10-03 06:00:00,11,1019.7,0.6,94,10,8000,7.408,,,100,11.1,19.6,,,,,,,,,wg-a,,,,AAXX 03064 07255 02/58 21004 10110 20100 39997 40197 53006 60006 80001 90600 333 10196 20111 60004=
07255,1997-10-03 09:00:00,17,1020.2,0.9,72,12,12000,7.408,,,110,,,,,,,,,,,wg-a,,,,AAXX 03094 07255 12/62 01104 10170 20120 30006 40202 51009 60006 80000 90900=
07255,1997-10-03 12:00:00,21,1019.5,-0.4,53,11,20000,11.112,,,100,,,,,,,,,,,wg-a,,,,AAXX 03124 07255 12670 /1006 10210 20110 30002 40195 58004 60006 81100 91200=
07255,1997-10-03 15:00:00,22,1018.8,-0.7,43,9,22000,11.112,,,50,,,,,,,,,,,wg-a,,,,AAXX 03154 07255 12/72 00506 10220 20090 39995 40188 56007 60006 80000 91500=
07255,1997-10-03 18:00:00,18,1020.4,1.3,52,8,20000,11.112,,,60,11.1,22.5,,,,,,,,,wg-a,,,,AAXX 03184 07255 12/70 00606 10180 20080 30008 40204 53013 60006 80000 91800 333 10225 20111=
07255,1997-10-03 21:00:00,14,1021.8,1.2,67,8,20000,14.816,,,70,,,,,,,,,,,wg-a,,,,AAXX 03214 07255 12/70 00708 10140 20080 30020 40218 53012 60006 80000 92100=
07255,1997-10-04 00:00:00,10,1022.1,0,82,7,15000,7.408,,,110,,,,,,,,,,,wg-a,,,,AAXX 04004 07255 12/65 01104 10100 20070 30020 40221 50000 60006 80000 90000=
07255,1997-10-04 03:00:00,8,1022.6,0.3,87,6,15000,3.704,,,110,,,,,,,,,,,wg-a,,,,AAXX 04034 07255 12/65 01102 10080 20060 30023 40226 50003 60006 80000 90300=
07255,1997-10-04 06:00:00,7,1023.5,0.8,93,6,500,7.408,,,10,6.7,17.7,,,,,,,,,wg-a,,,,AAXX 04064 07255 02/00 00104 10070 20060 30031 40235 53008 60006 80000 90600 333 10177 20067 60004=
07255,1997-10-04 09:00:00,15,1023.6,0.6,63,8,500,7.408,,,150,,,,,,,,,,,wg-a,,,,AAXX 04094 07255 12/00 01504 10150 20080 30037 40236 53006 60006 80000 90900=
07255,1997-10-04 12:00:00,19,1022.5,-0.7,49,8,500,14.816,,,80,,,,,,,,,,,wg-a,,,,AAXX 04124 07255 12/00 00808 10190 20080 30030 40225 58007 60006 80000 91200=
07255,1997-10-04 18:00:00,16,1020.9,-0.5,59,8,25000,7.408,,,30,6.6,20.3,,,,,,,,,wg-a,,,,AAXX 04184 07255 12/75 00304 10160 20080 30012 40209 56005 60006 80000 91800 333 10203 20066=
07255,1997-10-04 21:00:00,13,1021.3,0.2,72,8,18000,11.112,,,80,,,,,,,,,,,wg-a,,,,AAXX 04214 07255 12/68 00806 10130 20080 30014 40213 51002 60006 80000 92100=
07255,1997-10-05 00:00:00,10,1020.3,-1.2,82,7,12000,7.408,,,100,,,,,,,,,,,wg-a,,,,AAXX 05004 07255 12/62 01004 10100 20070 30002 40203 58012 60006 80000 90000=
07255,1997-10-05 03:00:00,7,1019.1,-1.4,93,6,10000,7.408,,,100,,,,,,,,,,,wg-a,,,,AAXX 05034 07255 12/60 01004 10070 20060 39988 40191 58014 60006 80000 90300=
07255,1997-10-05 06:00:00,7,1018.3,-0.8,93,6,12000,11.112,,,90,6.4,16.3,,,,,,,,,wg-a,,,,AAXX 05064 07255 02/62 00906 10070 20060 39980 40183 56008 60006 80000 90600 333 10163 20064 60004=
07255,1997-10-05 09:00:00,12,1017.8,-0.1,82,9,15000,7.408,,,70,,,,,,,,,,,wg-a,,,,AAXX 05094 07255 12/65 00704 10120 20090 39979 40178 56001 60006 80000 90900=
07255,1997-10-05 12:00:00,20,1015.8,-1.5,53,10,25000,7.408,,,100,,,,,,,,,,,wg-a,,,,AAXX 05124 07255 12/75 01004 10200 20100 39964 40158 58015 60006 80000 91200=
07255,1997-10-05 15:00:00,23,1012.8,-2.7,44,10,500,3.704,,,120,,,,,,,,,,,wg-a,,,,AAXX 05154 07255 12/00 01202 10230 20100 39937 40128 56027 60006 80000 91500=
07255,1997-10-05 18:00:00,20,1011.8,-1.2,53,10,25000,7.408,,,90,6.6,23.7,,,,,,,,,wg-a,,,,AAXX 05184 07255 12/75 20904 10200 20100 39925 40118 56012 60006 81032 91800 333 10237 20066=
07255,1997-10-05 21:00:00,15,1011.6,-0.5,72,10,25000,11.112,,,100,,,,,,,,,,,wg-a,,,,AAXX 05214 07255 12/75 21006 10150 20100 39920 40116 58005 60006 80001 92100=
07255,1997-10-06 00:00:00,13,1010.8,-0.9,82,10,20000,7.408,,,110,,,,,,,,,,,wg-a,,,,AAXX 06004 07255 12/70 21104 10130 20100 39911 40108 57009 60006 80001 90000=
07255,1997-10-06 03:00:00,11,1009.6,-1.3,94,10,18000,11.112,,,110,,,,,,,,,,,wg-a,,,,AAXX 06034 07255 12/68 41106 10110 20100 39898 40096 58013 60006 80002 90300=
07255,1997-10-06 06:00:00,11,1008.7,-0.9,94,10,10000,7.408,,,120,10.2,19.5,,,,,,,,,wg-a,,,,AAXX 06064 07255 02/60 51204 10110 20100 39889 40087 56009 60006 82032 90600 333 10195 20102 60004=
07255,1997-10-06 09:00:00,19,1007.7,-0.4,68,13,15000,11.112,,,140,,,,,,,,,,,wg-a,,,,AAXX 06094 07255 12/65 61406 10190 20130 39885 40077 55004 60006 83032 90900=
07255,1997-10-06 12:00:00,25,1006,-1.3,54,15,20000,22.224,,42.596,220,,,,,,,,,,,wg-a,,,,AAXX 06124 07255 12670 72212 10250 20150 39872 40060 58013 60006 83232 91200 333 91023=
07255,1997-10-06 15:00:00,23,1005.3,-0.8,61,15,20000,29.632,,,230,,,,,,,,,,,wg-a,,,,AAXX 06154 07255 12670 82316 10230 20150 39864 40053 57008 60006 8481/ 91500=
07255,1997-10-06 18:00:00,19,1004.9,-0.6,68,13,20000,14.816,,,170,10.6,25.9,,,,,,,,,wg-a,,,,AAXX 06184 07255 12770 81708 10190 20130 39858 40049 56006 60006 8357/ 91800 333 10259 20106=
07255,1997-10-06 21:00:00,18,1005,-0,77,14,18000,11.112,,,210,,,,,,,,,,,wg-a,,,,AAXX 06214 07255 12768 82106 10180 20140 39858 40050 55000 60006 8557/ 92100=
07255,1997-10-07 00:00:00,16,1004.8,-0.3,94,15,15000,11.112,,,190,,,,,,,,,,1,wg-a,,,,AAXX 07004 07255 02765 81906 10160 20150 39855 40048 58003 61000 70162 8557/ 90000 333 6100=
07255,1997-10-07 06:00:00,16,1004.9,0.1,94,15,10000,22.224,,,200,15,19.3,,,,,10,,,3,wg-a,,,,AAXX 07064 07255 02460 82012 10160 20150 39855 40049 53001 60006 70362 878// 90600 333 10193 20150 60104=
07255,1997-10-07 12:00:00,21,1007.3,1,69,15,28000,31.484,,,260,,,,,,,,,,,wg-a,,,,AAXX 07124 07255 12578 72617 10210 20150 39882 40073 53010 60006 8683/ 91200=
07255,1997-10-07 15:00:00,18,1008.5,1,83,15,8000,25.928,,46.3,270,,,,0,,,,,,81,wg-a,,,,AAXX 07154 07255 12558 72714 10180 20150 39892 40085 53010 60007 78186 86832 91500 333 91025=
07255,1997-10-07 18:00:00,16,1010.7,2,82,13,500,11.112,,,260,15.7,20.8,,0,,,,,,1,wg-a,,,,AAXX 07184 07255 02500 42606 10160 20130 39912 40107 53020 60006 70186 82802 91800 333 10208 20157 60007=
07255,1997-10-07 21:00:00,14,1012.5,1.6,88,12,25000,14.816,,,220,,,,,,,,,,,wg-a,,,,AAXX 07214 07255 12775 62208 10140 20120 39928 40125 51016 60006 835/2 92100=
07255,1997-10-08 00:00:00,14,1013.7,1.2,94,13,25000,14.816,,,220,,,,,,,,,,,wg-a,,,,AAXX 08004 07255 12/75 72208 10140 20130 39940 40137 52012 60006 85032 90000=
07255,1997-10-08 03:00:00,15,1013.7,0.1,88,13,20000,14.816,,,210,,,,,,,,,,60,wg-a,,,,AAXX 08034 07255 02770 82108 10150 20130 39941 40137 50001 61000 76062 8557/ 90300 333 ////=
07255,1997-10-08 06:00:00,14,1013.6,-0.1,94,13,20000,14.816,,,200,13.1,15.6,,,,,1,,,3,wg-a,,,,AAXX 08064 07255 02770 82008 10140 20130 39940 40136 57001 60006 70362 8457/ 90600 333 10156 20131 60014=
07255,1997-10-08 12:00:00,21,1012.9,-0.9,64,14,28000,22.224,,,230,,,,,,,,,,,wg-a,,,,AAXX 08124 07255 12478 72312 10210 20140 39937 40129 58009 60006 8383/ 91200=
07255,1997-10-08 18:00:00,20,1012.9,0.8,73,15,18000,14.816,,,250,14,21.9,,,,,,,,,wg-a,,,,AAXX 08184 07255 12768 72508 10200 20150 39937 40129 53008 60006 8553/ 91800 333 10219 20140=
07255,1997-10-08 21:00:00,18,1013.7,0.6,73,13,18000,11.112,,,240,,,,,,,,,,,wg-a,,,,AAXX 08214 07255 12768 72406 10180 20130 39943 40137 53006 60006 83532 92100=
07255,1997-10-09 00:00:00,15,1013.9,0,88,13,18000,18.52,,,230,,,,,,,,,,,wg-a,,,,AAXX 09004 07255 12/68 42310 10150 20130 39943 40139 50000 60006 80002 90000=
07255,1997-10-09 03:00:00,16,1013.5,-0.3,82,13,18000,14.816,,,210,,,,,,,,,,,wg-a,,,,AAXX 09034 07255 12/68 72108 10160 20130 39940 40135 55003 60006 82032 90300=
07255,1997-10-09 06:00:00,16,1014.1,0.6,82,13,25000,18.52,,,230,14.9,19.8,,,,,,,,21,wg-a,,,,AAXX 09064 07255 02675 72310 10160 20130 39946 40141 52006 61000 72161 8257/ 90600 333 10198 20149 6100=
07255,1997-10-09 12:00:00,20,1016.3,0.5,83,17,25000,29.632,,,250,,,,,,,,,,21,wg-a,,,,AAXX 09124 07255 02375 72516 10200 20170 39970 40163 51005 61000 72165 878// 91200 333 6100=
07255,1997-10-09 15:00:00,23,1015.8,-0.3,65,16,25000,29.632,,,250,,,,,,,,,,,wg-a,,,,AAXX 09154 07255 12575 72516 10230 20160 39967 40158 56003 60006 872// 91500=
07255,1997-10-09 18:00:00,19,1016.2,0.2,78,15,15000,14.816,,,240,15.7,22.6,,,,,,,,,wg-a,,,,AAXX 09184 07255 12565 62408 10190 20150 39969 40162 53002 60006 82532 91800 333 10226 20157=
07255,1997-10-09 21:00:00,18,1017.2,0.9,88,16,20000,22.224,,,250,,,,,,,,,,,wg-a,,,,AAXX 09214 07255 12670 72512 10180 20160 39978 40172 51009 60006 82102 92100=
07255,1997-10-10 00:00:00,18,1015.4,-1.8,88,16,15000,22.224,,,230,,,,,,,,,,,wg-a,,,,AAXX 10004 07255 12/65 82312 10180 20160 39960 40154 58018 60006 83032 90000=
07255,1997-10-10 03:00:00,19,1013.7,-1.6,88,17,20000,29.632,,,240,,,,,,,,,,,wg-a,,,,AAXX 10034 07255 12470 82416 10190 20170 39944 40137 58016 60006 8487/ 90300=
07255,1997-10-10 06:00:00,17,1011.6,-2.2,94,16,8000,14.816,,,230,17.4,19.5,,,,,,,,63,wg-a,,,,AAXX 10064 07255 02358 82308 10170 20160 39922 40116 58022 61000 76362 8557/ 90600 333 10195 20174 6002=
07255,1997-10-10 09:00:00,18,1009.6,-1.9,94,17,4500,31.484,,50.004,250,,,,10,,,,,,51,wg-a,,,,AAXX 10094 07255 12245 82517 10180 20170 39903 40096 56019 60107 75166 875// 90900 333 91027=
07255,1997-10-10 12:00:00,19,1009.3,-0.2,94,18,12000,25.928,,46.3,260,,,,0,,,,,,50,wg-a,,,,AAXX 10124 07255 02362 82614 10190 20180 39901 40093 58002 60106 75065 875// 91200 333 60007 91025=
07255,1997-10-10 15:00:00,20,1009.5,0.3,88,18,15000,22.224,,,280,,,,,,,,,,3,wg-a,,,,AAXX 10154 07255 02465 72812 10200 20180 39904 40095 53003 61000 70365 878// 91500 333 ////=
07255,1997-10-10 18:00:00,17,1012.2,2.4,94,16,500,11.112,,,310,17,20.5,,5,,,,,,1,wg-a,,,,AAXX 10184 07255 02400 43106 10170 20160 39928 40122 53024 60006 70186 84800 91800 333 10205 20170 60057=
07255,1997-10-10 21:00:00,13,1015.5,3,94,12,25000,11.112,,,300,,,,,,,,,,,wg-a,,,,AAXX 10214 07255 12/75 03006 10130 20120 39958 40155 53030 60006 80000 92100=
07255,1997-10-11 00:00:00,10,1016.6,0.8,93,9,22000,7.408,,,260,,,,0,,,,,,,wg-a,,,,AAXX 11004 07255 02/72 12604 10100 20090 39966 40166 52008 60006 80001 90000 333 60007=
07255,1997-10-11 03:00:00,9,1015.8,-0.9,93,8,20000,7.408,,,230,,,,,,,,,,,wg-a,,,,AAXX 11034 07255 12/70 02304 10090 20080 39957 40158 58009 60006 80000 90300=
07255,1997-10-11 06:00:00,9,1015,-0.8,93,8,20000,7.408,,,240,8.8,17.2,,,,,15,,,,wg-a,,,,AAXX 11064 07255 02570 52404 10090 20080 39949 40150 58008 60006 83531 90600 333 10172 20088 60154=
07255,1997-10-11 12:00:00,15,1011.2,-3,88,13,18000,14.816,,,250,,,,,,,,,,60,wg-a,,,,AAXX 11124 07255 02468 82508 10150 20130 39917 40112 58030 61000 76062 875// 91200 333 6100=
07255,1997-10-11 15:00:00,13,1007.6,-3.7,100,13,3000,22.224,,,210,,,,4,,,,,,51,wg-a,,,,AAXX 11154 07255 12130 82112 10130 20130 39880 40076 56037 60047 75165 887// 91500=
07255,1997-10-11 18:00:00,16,1004,-3.3,100,16,6000,18.52,,,260,8.4,16.4,,,,,,,,51,wg-a,,,,AAXX 11184 07255 02156 82610 10160 20160 39847 40040 56033 61000 75165 877// 91800 333 10164 20084 6005=
07255,1997-10-11 21:00:00,17,1003.6,-0.4,88,15,18000,31.484,,51.856,270,,,,0,,,,,,1,wg-a,,,,AAXX 11214 07255 12268 /2717 10170 20150 39843 40036 55004 60007 70165 84530 92100 333 91028=
07255,1997-10-12 00:00:00,16,1003.1,-0.5,88,14,12000,31.484,,50.004,280,,,,0,,,,,,21,wg-a,,,,AAXX 12004 07255 02462 72817 10160 20140 39838 40031 55005 60016 72165 875// 90000 333 60007 91027=
07255,1997-10-12 03:00:00,13,1003.4,0.1,88,11,8000,31.484,,55.56,270,,,,,,,,,,51,wg-a,,,,AAXX 12034 07255 02258 82717 10130 20110 39839 40034 50001 61000 75165 877// 90300 333 //// 91030=
07255,1997-10-12 06:00:00,13,1003.1,-0.4,88,11,10000,29.632,,48.152,260,12.6,17.9,,,,,,,,51,wg-a,,,,AAXX 12064 07255 02360 82616 10130 20110 39835 40031 55004 61000 75165 875// 90600 333 10179 20126 6010 91026=
07255,1997-10-12 09:00:00,12,1004.7,1.6,94,11,4000,29.632,,,280,,,,2,,,,,,10,wg-a,,,,AAXX 12094 07255 12240 82816 10120 20110 39851 40047 53016 60027 71086 875// 90900=
07255,1997-10-12 12:00:00,14,1009.3,4.6,82,11,40000,22.224,,,10,,,,0,,,,,,1,wg-a,,,,AAXX 12124 07255 02582 /0112 10140 20110 39897 40093 53046 60026 70186 86800 91200 333 60007=
07255,1997-10-12 18:00:00,12,1015.7,2.5,76,8,15000,14.816,,,350,11.7,15.5,,,,,,,,15,wg-a,,,,AAXX 12184 07255 12665 73508 10120 20080 39958 40157 53025 60006 71511 878// 91800 333 10155 20117=
07255,1997-10-12 21:00:00,11,1017.7,1.9,87,9,20000,11.112,,,360,,,,,,,,,,,wg-a,,,,AAXX 12214 07255 12770 73606 10110 20090 39977 40177 52019 60006 875// 92100=
07255,1997-10-13 00:00:00,8,1018.5,0.6,93,7,20000,7.408,,,350,,,,,,,,,,,wg-a,,,,AAXX 13004 07255 12770 33504 10080 20070 39983 40185 51006 60006 83500 90000=
07255,1997-10-13 03:00:00,7,1018.6,0,93,6,20000,7.408,,,310,,,,,,,,,,,wg-a,,,,AAXX 13034 07255 12770 53104 10070 20060 39983 40186 50000 60006 85500 90300=
07255,1997-10-13 06:00:00,6,1019.2,0.5,100,6,4500,7.408,,,280,5.4,12,,,,,2,,,10,wg-a,,,,AAXX 13064 07255 02645 72804 10060 20060 39988 40192 51005 60006 71011 875// 90600 333 10120 20054 60024=
07255,1997-10-13 09:00:00,8,1019.8,0.8,93,7,500,7.408,,,290,,,,,,,,,,,wg-a,,,,AAXX 13094 07255 12200 82904 10080 20070 39996 40198 51008 60006 875// 90900=
07255,1997-10-13 12:00:00,11,1018.8,-0.8,76,7,18000,14.816,,,290,,,,,,,,,,,wg-a,,,,AAXX 13124 07255 12468 82908 10110 20070 39988 40188 58008 60006 8683/ 91200=
07255,1997-10-13 15:00:00,11,1018.4,-0.4,82,8,500,14.816,,,310,,,,2,,,,,,3,wg-a,,,,AAXX 13154 07255 12500 83108 10110 20080 39984 40184 58004 60027 70386 83872 91500=
07255,1997-10-13 18:00:00,9,1019.3,0.7,93,8,15000,11.112,,,290,5.9,11.8,,,,,,,,60,wg-a,,,,AAXX 13184 07255 02565 82906 10090 20080 39991 40193 52007 61000 76086 878// 91800 333 10118 20059 6000=
07255,1997-10-13 21:00:00,8,1020.4,1.1,93,7,15000,11.112,,,340,,,,0,,,,,,1,wg-a,,,,AAXX 13214 07255 12465 43406 10080 20070 30002 40204 53011 60007 70161 83830 92100=
07255,1997-10-14 00:00:00,7,1022.3,1.7,93,6,12000,7.408,,,340,,,,,,,,,,1,wg-a,,,,AAXX 14004 07255 12562 /3404 10070 20060 30019 40223 51017 60016 70161 81100 90000=
07255,1997-10-14 03:00:00,4,1023.6,1.1,100,4,8000,7.408,,,330,,,,,,,,,,,wg-a,,,,AAXX 14034 07255 12/58 03304 10040 20040 30030 40236 51011 60006 80000 90300=
07255,1997-10-14 06:00:00,4,1024.7,1,93,3,700,7.408,,,330,3.7,9,,,,,2,,,44,wg-a,,,,AAXX 14064 07255 02107 43304 10040 20030 30040 40247 53010 60006 74441 84600 90600 333 10090 20037 60024=
07255,1997-10-14 09:00:00,6,1026.2,1.6,93,5,4000,11.112,,,320,,,,,,,,,,10,wg-a,,,,AAXX 14094 07255 12340 83206 10060 20050 30056 40262 51016 60006 71041 886// 90900=
07255,1997-10-14 12:00:00,11,1026,0.2,76,7,25000,11.112,,,330,,,,,,,,,,3,wg-a,,,,AAXX 14124 07255 12475 73306 10110 20070 30058 40260 50002 60006 70341 86801 91200=
07255,1997-10-14 15:00:00,12,1024.7,-1.2,62,5,500,11.112,,,340,,,,,,,,,,,wg-a,,,,AAXX 14154 07255 12500 43406 10120 20050 30046 40247 56012 60006 82801 91500=
07255,1997-10-14 18:00:00,9,1025.1,0.2,76,5,500,7.408,,,320,3.7,12.3,,,,,,,,,wg-a,,,,AAXX 14184 07255 12500 /3204 10090 20050 30048 40251 53002 60006 85801 91800 333 10123 20037=
07255,1997-10-14 21:00:00,8,1024.9,-0.2,81,5,25000,7.408,,,280,,,,,,,,,,,wg-a,,,,AAXX 14214 07255 12775 72804 10080 20050 30046 40249 57002 60006 83532 92100=
07255,1997-10-15 00:00:00,8,1023.9,-1,87,6,20000,3.704,,,300,,,,,,,,,,,wg-a,,,,AAXX 15004 07255 12770 83002 10080 20060 30036 40239 58010 60006 875// 90000=
07255,1997-10-15 03:00:00,7,1022,-1.9,93,6,8000,7.408,,,220,,,,1,,,,,,21,wg-a,,,,AAXX 15034 07255 12658 82204 10070 20060 30017 40220 57019 60017 72162 875// 90300=
07255,1997-10-15 06:00:00,7,1019.6,-2.4,93,6,8000,18.52,,,260,7,9.2,,,,,,,,60,wg-a,,,,AAXX 15064 07255 02358 82610 10070 20060 39993 40196 56024 61000 76062 8357/ 90600 333 10092 20070 6001=
07255,1997-10-15 09:00:00,8,1017.5,-2,100,8,2500,25.928,,,250,,,,1,,,,,,10,wg-a,,,,AAXX 15094 07255 12325 82514 10080 20080 39973 40175 58020 60017 71066 875// 90900=
07255,1997-10-15 12:00:00,10,1014.1,-3.2,93,9,3500,29.632,,,260,,,,1,,,,,,10,wg-a,,,,AAXX 15124 07255 02235 82616 10100 20090 39941 40141 57032 60026 71066 877// 91200 333 60017=
07255,1997-10-15 15:00:00,12,1012.6,-1.3,94,11,2500,22.224,,,260,,,,2,,,,,,50,wg-a,,,,AAXX 15154 07255 12225 82612 10120 20110 39928 40126 56013 60027 75065 877// 91500=
07255,1997-10-15 18:00:00,13,1012.3,-0.2,100,13,2500,11.112,,,260,7.3,13,,,,,,,,50,wg-a,,,,AAXX 15184 07255 02225 82606 10130 20130 39926 40123 55002 61000 75065 877// 91800 333 10130 20073 6000=
07255,1997-10-15 21:00:00,13,1013,0.7,100,13,12000,11.112,,,280,,,,,,,,,,1,wg-a,,,,AAXX 15214 07255 02262 82806 10130 20130 39933 40130 52007 61000 70152 877// 92100 333 ////=
07255,1997-10-16 00:00:00,12,1013.8,0.7,100,12,7000,7.408,,,300,,,,,,,,,,3,wg-a,,,,AAXX 16004 07255 02157 83004 10120 20120 39940 40138 51007 61000 70352 877// 90000 333 ////=
07255,1997-10-16 03:00:00,12,1013.7,-0.1,94,11,6000,7.408,,,300,,,,,,,,,,,wg-a,,,,AAXX 16034 07255 12156 83004 10120 20110 39939 40137 57001 60006 877// 90300=
07255,1997-10-16 06:00:00,12,1015,1.2,94,11,4000,11.112,,,300,11.6,13.1,,,,,4,,,10,wg-a,,,,AAXX 16064 07255 02140 83006 10120 20110 39951 40150 53012 60006 71022 877// 90600 333 10131 20116 60044=
07255,1997-10-16 09:00:00,12,1016.5,1.5,100,12,2000,7.408,,,330,,,,,,,,,,10,wg-a,,,,AAXX 16094 07255 02120 83304 10120 20120 39966 40165 51015 61000 71062 886// 90900 333 ////=
07255,1997-10-16 12:00:00,14,1016.7,0.4,88,12,12000,7.408,,,280,,,,,,,,,,3,wg-a,,,,AAXX 16124 07255 02462 72804 10140 20120 39970 40167 50004 61000 70362 878// 91200 333 ////=
07255,1997-10-16 15:00:00,16,1015.9,-0.7,77,12,18000,7.408,,,250,,,,,,,,,,,wg-a,,,,AAXX 16154 07255 12468 72504 10160 20120 39963 40159 56007 60006 82801 91500=
07255,1997-10-16 18:00:00,13,1017.1,1,88,11,15000,0,,,0,11.6,16.1,,,,,,,,,wg-a,,,,AAXX 16184 07255 12665 /0000 10130 20110 39973 40171 53010 60006 81501 91800 333 10161 20116=
07255,1997-10-17 00:00:00,9,1016.9,-0.9,93,8,6000,7.408,,,150,,,,,,,,,,,wg-a,,,,AAXX 17004 07255 12656 /1504 10090 20080 39968 40169 56009 60006 81501 90000=
07255,1997-10-17 03:00:00,7,1016.3,-0.7,100,7,6000,11.112,,,110,,,,,,,,,,,wg-a,,,,AAXX 17034 07255 32/56 /1106 10070 20070 39961 40163 58007 90300=
07255,1997-10-17 06:00:00,7,1015.9,-0.4,100,7,3000,11.112,,,110,6.8,12.7,,,,,,,,10,wg-a,,,,AAXX 17064 07255 02230 /1106 10070 20070 39957 40159 56004 60006 71022 81502 90600 333 10127 20068 60004=
07255,1997-10-17 09:00:00,11,1016.1,0.4,100,11,8000,22.224,,,120,,,,,,,,,,1,wg-a,,,,AAXX 17094 07255 12258 51212 10110 20110 39961 40161 50004 60006 70142 82101 90900=
07255,1997-10-17 12:00:00,17,1014.7,-0.9,72,12,20000,22.224,,,140,,,,,,,,,,1,wg-a,,,,AAXX 17124 07255 12/70 71412 10170 20120 39952 40147 58009 60006 70142 80001 91200=
07255,1997-10-17 15:00:00,19,1013.4,-1.1,68,13,25000,22.224,,,130,,,,,,,,,,,wg-a,,,,AAXX 17154 07255 12/75 61312 10190 20130 39941 40134 56011 60006 80001 91500=
07255,1997-10-17 18:00:00,15,1014.4,0.7,88,13,15000,18.52,,,110,6.8,19.5,,,,,,,,,wg-a,,,,AAXX 17184 07255 12/65 61110 10150 20130 39948 40144 53007 60006 80001 91800 333 10195 20068=
07255,1997-10-17 21:00:00,12,1015.6,1,94,11,15000,14.816,,,130,,,,,,,,,,,wg-a,,,,AAXX 17214 07255 12/65 61308 10120 20110 39958 40156 53010 60006 80001 92100=
07255,1997-10-18 00:00:00,11,1017,1.2,94,10,15000,11.112,,,90,,,,0,,,,,,,wg-a,,,,AAXX 18004 07255 02/65 30906 10110 20100 39970 40170 51012 60006 80001 90000 333 60007=
07255,1997-10-18 03:00:00,10,1017.6,0.5,93,9,15000,14.816,,,100,,,,,,,,,,,wg-a,,,,AAXX 18034 07255 12/65 11008 10100 20090 39975 40176 50005 60006 80001 90300=
07255,1997-10-18 06:00:00,9,1018.6,1,93,8,12000,14.816,,,90,8.9,14.5,,,,,,,,,wg-a,,,,AAXX 18064 07255 02/62 10908 10090 20080 39985 40186 51010 60006 80001 90600 333 10145 20089 60004=
07255,1997-10-18 09:00:00,15,1019.7,1.5,82,12,18000,14.816,,,120,,,,,,,,,,,wg-a,,,,AAXX 18094 07255 12/68 11208 10150 20120 30000 40197 51015 60006 80001 90900=
07255,1997-10-18 12:00:00,21,1018.6,-0.7,60,13,500,18.52,,,130,,,,,,,,,,,wg-a,,,,AAXX 18124 07255 12/00 11310 10210 20130 39993 40186 58007 60006 80002 91200=
07255,1997-10-18 15:00:00,23,1017.5,-0.9,57,14,500,14.816,,,120,,,,,,,,,,,wg-a,,,,AAXX 18154 07255 12/00 21208 10230 20140 39984 40175 58009 60006 80002 91500=
07255,1997-10-18 18:00:00,17,1018.3,0.4,82,14,25000,11.112,,,110,8.8,23.2,,,,,,,,,wg-a,,,,AAXX 18184 07255 12/75 21106 10170 20140 39988 40183 53004 60006 80001 91800 333 10232 20088=
07255,1997-10-18 21:00:00,14,1019,0.4,88,12,22000,11.112,,,130,,,,,,,,,,,wg-a,,,,AAXX 18214 07255 12/72 11306 10140 20120 39992 40190 53004 60006 80001 92100=
07255,1997-10-19 00:00:00,11,1018.7,-0.5,94,10,25000,14.816,,,120,,,,,,,,,,,wg-a,,,,AAXX 19004 07255 12/75 21208 10110 20100 39987 40187 58005 60006 80001 90000=
07255,1997-10-19 03:00:00,11,1017.5,-1.2,94,10,25000,14.816,,,110,,,,,,,,,,,wg-a,,,,AAXX 19034 07255 12/75 01108 10110 20100 39975 40175 56012 60006 80000 90300=
07255,1997-10-19 06:00:00,9,1017.7,0.1,93,8,20000,14.816,,,90,9.1,17.2,,,,,,,,,wg-a,,,,AAXX 19064 07255 02/70 10908 10090 20080 39976 40177 52001 60006 80001 90600 333 10172 20091 60004=
07255,1997-10-19 09:00:00,15,1017.5,0.2,77,11,500,11.112,,,120,,,,0,,,,,,,wg-a,,,,AAXX 19094 07255 12/00 41206 10150 20110 39978 40175 51002 60007 80002 90900=
07255,1997-10-19 12:00:00,21,1015.8,-1.3,56,12,500,7.408,,,130,,,,,,,,,,,wg-a,,,,AAXX 19124 07255 12/00 51304 10210 20120 39965 40158 58013 60006 80002 91200=
07255,1997-10-19 15:00:00,21,1015,-0.7,60,13,500,11.112,,,120,,,,,,,,,,,wg-a,,,,AAXX 19154 07255 12/00 61206 10210 20130 39958 40150 58007 60006 80005 91500=
07255,1997-10-19 18:00:00,17,1015.3,0,82,14,500,7.408,,,140,9,22.5,,,,,,,,,wg-a,,,,AAXX 19184 07255 12/00 81404 10170 20140 39958 40153 50000 60006 83036 91800 333 10225 20090=
07255,1997-10-20 00:00:00,14,1014.5,-0.5,94,13,15000,3.704,,,60,,,,,,,,,,,wg-a,,,,AAXX 20004 07255 12/65 80602 10140 20130 39948 40145 56005 60006 86072 90000=
07255,1997-10-20 03:00:00,13,1013.6,-0.9,94,12,15000,7.408,,,110,,,,,,,,,,,wg-a,,,,AAXX 20034 07255 12/65 71104 10130 20120 39939 40136 58009 60006 86072 90300=
07255,1997-10-20 06:00:00,13,1012.9,-0.7,94,12,9000,3.704,,,150,12.5,16.9,,,,,,,,,wg-a,,,,AAXX 20064 07255 02/59 71502 10130 20120 39932 40129 56007 60006 86072 90600 333 10169 20125 60004=
07255,1997-10-20 09:00:00,15,1012.1,-0.7,88,13,12000,11.112,,,90,,,,,,,,,,,wg-a,,,,AAXX 20094 07255 12762 70906 10150 20130 39925 40121 58007 60006 86572 90900=
07255,1997-10-20 12:00:00,19,1010.1,-1.7,73,14,18000,14.816,,,80,,,,,,,,,,,wg-a,,,,AAXX 20124 07255 12768 70808 10190 20140 39908 40101 58017 60006 86532 91200=
07255,1997-10-20 15:00:00,20,1009.2,-0.8,68,14,22000,14.816,,,80,,,,,,,,,,,wg-a,,,,AAXX 20154 07255 12772 70808 10200 20140 39900 40092 56008 60006 81572 91500=
07255,1997-10-20 18:00:00,17,1009.6,0.3,88,15,20000,18.52,,,80,12.5,20.6,,,,,,,,,wg-a,,,,AAXX 20184 07255 12/70 70810 10170 20150 39903 40096 53003 60006 86072 91800 333 10206 20125=
07255,1997-10-20 21:00:00,16,1009.6,-0.2,88,14,20000,14.816,,,80,,,,,,,,,,,wg-a,,,,AAXX 20214 07255 12/70 70808 10160 20140 39901 40096 57002 60006 8707/ 92100=
07255,1997-10-21 00:00:00,15,1009.2,-0.4,94,14,15000,14.816,,,80,,,,,,,,,,,wg-a,,,,AAXX 21004 07255 12665 70808 10150 20140 39897 40092 56004 60006 8457/ 90000=
07255,1997-10-21 03:00:00,14,1008.7,-0.5,94,13,10000,11.112,,,80,,,,,,,,,,,wg-a,,,,AAXX 21034 07255 12660 70806 10140 20130 39892 40087 56005 60006 8453/ 90300=
07255,1997-10-21 06:00:00,14,1009,0.2,88,12,9000,14.816,,,70,13.5,17.4,,,,,,,,,wg-a,,,,AAXX 21064 07255 02759 70708 10140 20120 39894 40090 53002 60006 8253/ 90600 333 10174 20135 60004=
07255,1997-10-21 09:00:00,14,1010.2,1.2,88,12,500,22.224,,,90,,,,,,,,,,,wg-a,,,,AAXX 21094 07255 12200 70912 10140 20120 39906 40102 51012 60006 83631 90900=
07255,1997-10-21 12:00:00,16,1010.5,0.4,77,12,12000,14.816,,,60,,,,,,,,,,,wg-a,,,,AAXX 21124 07255 12462 70608 10160 20120 39910 40105 53004 60006 82632 91200=
07255,1997-10-21 15:00:00,16,1010.6,0.1,77,12,12000,18.52,,,70,,,,,,,,,,,wg-a,,,,AAXX 21154 07255 12462 70710 10160 20120 39911 40106 53001 60006 84532 91500=
07255,1997-10-21 18:00:00,14,1012.1,1.3,82,11,12000,18.52,,,60,13.4,16.6,,,,,,,,,wg-a,,,,AAXX 21184 07255 12562 80610 10140 20110 39924 40121 51013 60006 875// 91800 333 10166 20134=
07255,1997-10-22 00:00:00,12,1012,-0.1,94,11,10000,11.112,,,90,,,,,,,,,,,wg-a,,,,AAXX 22004 07255 12460 70906 10120 20110 39922 40120 57001 60006 875// 90000=
07255,1997-10-22 06:00:00,11,1010.9,-0.3,94,10,6000,11.112,,,100,11.1,13.6,,,,,,,,,wg-a,,,,AAXX 22064 07255 02456 71006 10110 20100 39911 40109 58003 60006 875// 90600 333 10136 20111 60004=
07255,1997-10-22 09:00:00,12,1011.5,0.6,88,10,7000,11.112,,,120,,,,,,,,,,,wg-a,,,,AAXX 22094 07255 12457 81206 10120 20100 39917 40115 51006 60006 885// 90900=
07255,1997-10-22 12:00:00,14,1010.3,-1,88,12,8000,7.408,,,90,,,,,,,,,,,wg-a,,,,AAXX 22124 07255 12458 80904 10140 20120 39907 40103 58010 60006 885// 91200=
07255,1997-10-22 15:00:00,15,1009.8,-0.4,82,12,7000,7.408,,,110,,,,,,,,,,,wg-a,,,,AAXX 22154 07255 12457 81104 10150 20120 39903 40098 56004 60006 885// 91500=
07255,1997-10-22 18:00:00,14,1010.7,0.8,88,12,4500,11.112,,,60,11.3,15,,,,,,,,10,wg-a,,,,AAXX 22184 07255 12445 80606 10140 20120 39911 40107 53008 60006 71022 885// 91800 333 10150 20113=
07255,1997-10-22 21:00:00,13,1011.2,0.4,94,12,4500,7.408,,,20,,,,,,,,,,10,wg-a,,,,AAXX 22214 07255 12445 80204 10130 20120 39915 40112 53004 60006 71022 886// 92100=
07255,1997-10-23 00:00:00,13,1011,-0.2,88,11,500,7.408,,,60,,,,,,,,,,,wg-a,,,,AAXX 23004 07255 12400 80604 10130 20110 39913 40110 58002 60006 885// 90000=
07255,1997-10-23 03:00:00,12,1010.9,-0.1,94,11,500,7.408,,,80,,,,,,,,,,,wg-a,,,,AAXX 23034 07255 12400 80804 10120 20110 39912 40109 58001 60006 885// 90300=
07255,1997-10-23 06:00:00,12,1010.7,-0.3,94,11,4500,7.408,,,80,11.9,14.5,,,,,,,,10,wg-a,,,,AAXX 23064 07255 02545 80804 10120 20110 39909 40107 58003 61000 71062 8657/ 90600 333 10145 20119 6100=
07255,1997-10-23 09:00:00,12,1011.9,1.2,94,11,4000,3.704,,,70,,,,0,,,,,,10,wg-a,,,,AAXX 23094 07255 12540 80702 10120 20110 39921 40119 52012 60007 71062 875// 90900=
07255,1997-10-23 12:00:00,14,1011.7,0,94,13,4500,7.408,,,20,,,,1,,,,,,60,wg-a,,,,AAXX 23124 07255 02445 70204 10140 20130 39921 40117 50000 60026 76062 878// 91200 333 60017=
07255,1997-10-23 18:00:00,10,1013.8,1.6,93,9,3500,11.112,,,20,9.9,14.2,,,,,,,,10,wg-a,,,,AAXX 23184 07255 12235 80206 10100 20090 39938 40138 53016 60006 71062 886// 91800 333 10142 20099=
07255,1997-10-23 21:00:00,8,1015.7,1.7,87,6,3000,11.112,,,30,,,,,,,,,,10,wg-a,,,,AAXX 23214 07255 12230 70306 10080 20060 39955 40157 53017 60006 71022 876// 92100=
07255,1997-10-24 00:00:00,5,1016.9,1,93,4,3000,7.408,,,340,,,,,,,,,,10,wg-a,,,,AAXX 24004 07255 12/30 03404 10050 20040 39965 40169 53010 60006 71011 80000 90000=
07255,1997-10-24 03:00:00,4,1018,1,87,2,10000,11.112,,,60,,,,,,,,,,,wg-a,,,,AAXX 24034 07255 12/60 00606 10040 20020 39975 40180 53010 60006 80000 90300=
07255,1997-10-24 06:00:00,4,1020.1,2.1,87,2,8000,11.112,,,70,2.6,10,,,,,2,,,,wg-a,,,,AAXX 24064 07255 02/58 00706 10040 20020 39996 40201 52021 60006 80000 90600 333 10100 20026 60024=
07255,1997-10-24 09:00:00,7,1022.3,2.3,70,2,14000,22.224,,,80,,,,,,,,,,,wg-a,,,,AAXX 24094 07255 12/64 00812 10070 20020 30019 40223 51023 60006 80000 90900=
07255,1997-10-24 12:00:00,10,1022.6,0.5,62,3,20000,25.928,,,80,,,,,,,,,,,wg-a,,,,AAXX 24124 07255 12670 30814 10100 20030 30024 40226 51005 60006 83400 91200=
07255,1997-10-24 15:00:00,11,1022.7,0.2,54,2,25000,22.224,,,60,,,,,,,,,,,wg-a,,,,AAXX 24154 07255 12675 /0612 10110 20020 30026 40227 53002 60006 81500 91500=
07255,1997-10-24 18:00:00,8,1024.6,1.7,71,3,25000,14.816,,,40,3.9,11.6,,,,,,,,,wg-a,,,,AAXX 24184 07255 12675 /0408 10080 20030 30043 40246 53017 60006 81500 91800 333 10116 20039=
07255,1997-10-24 21:00:00,7,1026,1.2,70,2,20000,14.816,,,60,,,,,,,,,,,wg-a,,,,AAXX 24214 07255 12/70 00608 10070 20020 30055 40260 53012 60006 80000 92100=
07255,1997-10-25 00:00:00,5,1026,-0.1,75,1,20000,14.816,,,70,,,,,,,,,,,wg-a,,,,AAXX 25004 07255 12/70 00708 10050 20010 30054 40260 55001 60006 80000 90000=
07255,1997-10-25 03:00:00,4,1026.5,0.4,75,0,20000,18.52,,,70,,,,,,,,,,,wg-a,,,,AAXX 25034 07255 12/70 00710 10040 20000 30058 40265 50004 60006 80000 90300=
07255,1997-10-25 06:00:00,3,1027.4,0.8,75,-1,20000,18.52,,,70,3,8.3,,,,,,,,,wg-a,,,,AAXX 25064 07255 02/70 00710 10030 21010 30066 40274 52008 60006 80000 90600 333 10083 20030 60004=
07255,1997-10-25 09:00:00,7,1028,0.9,61,0,35000,22.224,,,90,,,,,,,,,,,wg-a,,,,AAXX 25094 07255 12/81 00912 10070 20000 30075 40280 51009 60006 80000 90900=
07255,1997-10-25 12:00:00,11,1026.7,-1,47,0,35000,22.224,,,80,,,,,,,,,,,wg-a,,,,AAXX 25124 07255 12/81 10812 10110 20000 30065 40267 58010 60006 80001 91200=
07255,1997-10-25 15:00:00,11,1025.8,-0.8,50,1,35000,18.52,,,80,,,,,,,,,,,wg-a,,,,AAXX 25154 07255 12/81 10810 10110 20010 30057 40258 56008 60006 80001 91500=
07255,1997-10-25 18:00:00,9,1026.5,0.4,57,1,500,14.816,,,70,2.8,11.8,,,,,,,,,wg-a,,,,AAXX 25184 07255 12/00 00708 10090 20010 30061 40265 53004 60006 80000 91800 333 10118 20028=
07255,1997-10-25 21:00:00,7,1026.7,0.1,70,2,20000,22.224,,,80,,,,,,,,,,,wg-a,,,,AAXX 25214 07255 12/70 00812 10070 20020 30062 40267 53001 60006 80000 92100=
07255,1997-10-26 00:00:00,4,1026.2,-0.7,87,2,20000,14.816,,,100,,,,,,,,,,,wg-a,,,,AAXX 26004 07255 12/70 01008 10040 20020 30055 40262 58007 60006 80000 90000=
07255,1997-10-26 03:00:00,1,1025.6,-0.8,93,0,20000,7.408,,,130,,,,,,,,,,,wg-a,,,,AAXX 26034 07255 12/70 01304 10010 20000 30047 40256 58008 60006 80000 90300=
07255,1997-10-26 06:00:00,1,1024.9,-0.7,93,0,12000,11.112,,,110,0.4,8.5,,,,,,,,,wg-a,,,,AAXX 26064 07255 02/62 21106 10010 20000 30040 40249 58007 60006 80001 90600 333 10085 20004 60004=
07255,1997-10-26 09:00:00,6,1025,0.5,75,2,18000,18.52,,,110,,,,,,,,,,,wg-a,,,,AAXX 26094 07255 12/68 11110 10060 20020 30045 40250 50005 60006 80001 90900=
07255,1997-10-26 12:00:00,11,1023.7,-0.9,62,4,25000,14.816,,,90,,,,,,,,,,,wg-a,,,,AAXX 26124 07255 12/75 00908 10110 20040 30036 40237 58009 60006 80000 91200=
07255,1997-10-26 15:00:00,14,1021.5,-1.9,51,4,25000,22.224,,,100,,,,,,,,,,,wg-a,,,,AAXX 26154 07255 12/75 11012 10140 20040 30017 40215 56019 60006 80001 91500=
07255,1997-10-26 18:00:00,11,1022.2,0.4,58,3,20000,18.52,,,80,0.3,14.4,,,,,,,,,wg-a,,,,AAXX 26184 07255 12/70 10810 10110 20030 30021 40222 53004 60006 80001 91800 333 10144 20003=
07255,1997-10-26 21:00:00,8,1022,-0.4,81,5,20000,18.52,,,80,,,,,,,,,,,wg-a,,,,AAXX 26214 07255 12/70 10810 10080 20050 30017 40220 58004 60006 80001 92100=
07255,1997-10-27 00:00:00,5,1021.8,-0.4,93,4,18000,14.816,,,100,,,,,,,,,,,wg-a,,,,AAXX 27004 07255 12/68 01008 10050 20040 30013 40218 57004 60006 80000 90000=
07255,1997-10-27 03:00:00,4,1021.2,-0.7,87,2,15000,11.112,,,110,,,,,,,,,,,wg-a,,,,AAXX 27034 07255 12/65 01106 10040 20020 30006 40212 58007 60006 80000 90300=
07255,1997-10-27 06:00:00,3,1021.4,0.1,93,2,10000,11.112,,,90,2.5,10.9,,,,,,,,,wg-a,,,,AAXX 27064 07255 02/60 40906 10030 20020 30007 40214 53001 60006 80002 90600 333 10109 20025 60004=
07255,1997-10-27 09:00:00,7,1021.6,0.5,81,4,8000,14.816,,,90,,,,,,,,,,,wg-a,,,,AAXX 27094 07255 12/58 /0908 10070 20040 30012 40216 50005 60006 81030 90900=
07255,1997-10-27 12:00:00,13,1020.1,-1,,,25000,22.224,,,100,,,,,,,,,,,wg-a,,,,AAXX 27124 07255 12/75 01012 10130 2//// 30002 40201 58010 60006 80000 91200=
07255,1997-10-27 18:00:00,11,1020.4,0.7,62,4,500,22.224,,,60,2.3,14,,,,,,,,,wg-a,,,,AAXX 27184 07255 12/00 00612 10110 20040 30003 40204 53007 60006 80000 91800 333 10140 20023=
07255,1997-10-27 21:00:00,7,1021.3,0.6,76,3,25000,25.928,,,70,,,,,,,,,,,wg-a,,,,AAXX 27214 07255 12/75 00714 10070 20030 30009 40213 53006 60006 80000 92100=
07255,1997-10-28 00:00:00,4,1021.9,0.4,81,1,20000,18.52,,,80,,,,,,,,,,,wg-a,,,,AAXX 28004 07255 12/70 00810 10040 20010 30013 40219 53004 60006 80000 90000=
07255,1997-10-28 03:00:00,2,1022.1,-0,80,-1,20000,22.224,,,70,,,,,,,,,,,wg-a,,,,AAXX 28034 07255 12/70 00712 10020 21010 30013 40221 55000 60006 80000 90300=
07255,1997-10-28 06:00:00,0,1022.5,0.3,74,-4,18000,22.224,,,80,0,10.5,,,,,,,,,wg-a,,,,AAXX 28064 07255 02/68 00812 10000 21040 30016 40225 52003 60006 80000 90600 333 10105 20000 60004=
07255,1997-10-28 09:00:00,2,1024.1,1.7,60,-5,500,31.484,,,70,,,,,,,,,,,wg-a,,,,AAXX 28094 07255 12/00 00717 10020 21050 30033 40241 51017 60006 80000 90900=
07255,1997-10-28 12:00:00,6,1024.5,0.6,45,-5,500,29.632,,,80,,,,,,,,,,,wg-a,,,,AAXX 28124 07255 12/00 00816 10060 21050 30039 40245 50006 60006 80000 91200=
07255,1997-10-28 15:00:00,8,1025.3,1,36,-6,500,25.928,,,80,,,,,,,,,,,wg-a,,,,AAXX 28154 07255 12/00 00814 10080 21060 30049 40253 53010 60006 80000 91500=
07255,1997-10-28 18:00:00,5,1027.8,2.2,41,-7,500,18.52,,,70,-0.5,7.6,,,,,,,,,wg-a,,,,AAXX 28184 07255 12/00 00710 10050 21070 30071 40278 51022 60006 80000 91800 333 10076 21005=
07255,1997-10-28 21:00:00,3,1029.4,1.4,48,-7,25000,22.224,,,80,,,,,,,,,,,wg-a,,,,AAXX 28214 07255 12/75 00812 10030 21070 30085 40294 53014 60006 80000 92100=
07255,1997-10-29 00:00:00,2,1029.9,0.4,51,-7,25000,22.224,,,60,,,,,,,,,,,wg-a,,,,AAXX 29004 07255 12/75 00612 10020 21070 30089 40299 51004 60006 80000 90000=
07255,1997-10-29 03:00:00,0,1030.3,0.3,59,-7,20000,18.52,,,70,,,,,,,,,,,wg-a,,,,AAXX 29034 07255 12/70 00710 10000 21070 30092 40303 51003 60006 80000 90300=
07255,1997-10-29 06:00:00,-1,1031,0.6,64,-7,20000,14.816,,,70,-0.9,4.5,,,,,,,,,wg-a,,,,AAXX 29064 07255 02/70 00708 11010 21070 30098 40310 51006 60006 80000 90600 333 10045 21009 60004=
07255,1997-10-29 09:00:00,2,1031.8,1.1,51,-7,40000,18.52,,,80,,,,,,,,,,,wg-a,,,,AAXX 29094 07255 12/82 00810 10020 21070 30109 40318 51011 60006 80000 90900=
07255,1997-10-29 12:00:00,7,1030.5,-1,36,-7,40000,18.52,,,70,,,,,,,,,,,wg-a,,,,AAXX 29124 07255 12/82 00710 10070 21070 30099 40305 58010 60006 80000 91200=
07255,1997-10-29 15:00:00,9,1029.8,-0.5,34,-6,35000,18.52,,,80,,,,,,,,,,,wg-a,,,,AAXX 29154 07255 12/81 10810 10090 21060 30094 40298 56005 60006 80001 91500=
07255,1997-10-29 18:00:00,4,1030.9,0.7,56,-4,25000,7.408,,,30,-1,9.2,,,,,,,,,wg-a,,,,AAXX 29184 07255 12/75 10304 10040 21040 30101 40309 53007 60006 80002 91800 333 10092 21010=
07255,1997-10-29 21:00:00,2,1031,-0,55,-6,20000,7.408,,,30,,,,,,,,,,,wg-a,,,,AAXX 29214 07255 12/70 20304 10020 21060 30101 40310 55000 60006 80001 92100=
07255,1997-10-30 00:00:00,1,1030.6,-0.5,55,-7,20000,11.112,,,80,,,,,,,,,,,wg-a,,,,AAXX 30004 07255 12/70 20806 10010 21070 30096 40306 56005 60006 80001 90000=
07255,1997-10-30 03:00:00,-3,1030,-0.9,80,-6,20000,3.704,,,360,,,,,,,,,,,wg-a,,,,AAXX 30034 07255 12/70 23602 11030 21060 30087 40300 56009 60006 80001 90300=
07255,1997-10-30 06:00:00,-4,1029.9,-0.2,86,-6,15000,7.408,,,340,-5,4.2,,,,,,,,,wg-a,,,,AAXX 30064 07255 02/65 13404 11040 21060 30085 40299 55002 60006 80001 90600 333 10042 21050 60004=
07255,1997-10-30 09:00:00,0,1029.7,-0.3,74,-4,12000,3.704,,,40,,,,,,,,,,,wg-a,,,,AAXX 30094 07255 12/62 00402 10000 21040 30087 40297 58003 60006 80000 90900=
07255,1997-10-30 12:00:00,7,1027.5,-1.2,42,-5,20000,7.408,,,10,,,,,,,,,,,wg-a,,,,AAXX 30124 07255 12/70 10104 10070 21050 30070 40275 58012 60006 80001 91200=
07255,1997-10-30 18:00:00,5,1027.9,1.3,48,-5,20000,7.408,,,40,-4.6,9.2,,,,,,,,,wg-a,,,,AAXX 30184 07255 12/70 10404 10050 21050 30072 40279 53013 60006 80001 91800 333 10092 21046=
07255,1997-10-30 21:00:00,1,1027.9,-0.2,64,-5,18000,11.112,,,350,,,,,,,,,,,wg-a,,,,AAXX 30214 07255 12/68 03506 10010 21050 30070 40279 58002 60006 80000 92100=
07255,1997-10-31 00:00:00,0,1027.7,-0.3,74,-4,18000,11.112,,,20,,,,,,,,,,,wg-a,,,,AAXX 31004 07255 12/68 00206 10000 21040 30067 40277 58003 60006 80000 90000=
07255,1997-10-31 03:00:00,0,1027.2,-0.5,80,-3,15000,3.704,,,40,,,,,,,,,,,wg-a,,,,AAXX 31034 07255 12/65 00402 10000 21030 30062 40272 58005 60006 80000 90300=
07255,1997-10-31 06:00:00,-4,1028.1,0.6,93,-5,12000,7.408,,,230,-3.7,4.9,,,,,,,,,wg-a,,,,AAXX 31064 07255 02/62 02304 11040 21050 30068 40281 52006 60006 80000 90600 333 10049 21037 60004=
07255,1997-10-31 09:00:00,1,1028.2,0.5,86,-1,8000,3.704,,,320,,,,,,,,,,,wg-a,,,,AAXX 31094 07255 12/58 03202 10010 21010 30073 40282 50005 60006 80000 90900=
07255,1997-10-31 12:00:00,9,1026.2,-1.4,61,2,15000,3.704,,,360,,,,,,,,,,,wg-a,,,,AAXX 31124 07255 12565 /3602 10090 20020 30059 40262 58014 60006 81100 91200=
07255,1997-10-31 15:00:00,9,1025.6,-0.6,57,1,20000,11.112,,,40,,,,,,,,,,,wg-a,,,,AAXX 31154 07255 12670 20406 10090 20010 30053 40256 55006 60006 82100 91500=
07255,1997-10-31 18:00:00,5,1026.5,0.6,70,0,9000,7.408,,,40,-3.8,9.7,,,,,,,,,wg-a,,,,AAXX 31184 07255 12/59 00404 10050 20000 30059 40265 53006 60006 80000 91800 333 10097 21038=
07255,1997-10-31 21:00:00,3,1026.2,-0.5,81,0,8000,11.112,,,60,,,,,,,,,,,wg-a,,,,AAXX 31214 07255 12/58 00606 10030 20000 30054 40262 58005 60006 80000 92100=
07255,1997-11-01 00:00:00,1,1025.4,-0.9,86,-1,8000,11.112,,,60,,,,,,,,,,,wg-a,,,,AAXX 01004 07255 12/58 00606 10010 21010 30045 40254 56009 60006 80000 90000=
07255,1997-11-01 03:00:00,-2,1024.7,-0.9,86,-4,6000,7.408,,,100,,,,,,,,,,,wg-a,,,,AAXX 01034 07255 12/56 01004 11020 21040 30036 40247 58009 60006 80000 90300=
07255,1997-11-01 06:00:00,-2,1024.5,-0.2,86,-4,500,7.408,,,90,-2.1,4.6,,,,,,,,,wg-a,,,,AAXX 01064 07255 02/00 00904 11020 21040 30034 40245 56002 60006 80000 90600 333 10046 21021 60004=
07255,1997-11-01 09:00:00,1,1024.7,0.4,86,-1,3500,7.408,,,120,,,,,,,,,,10,wg-a,,,,AAXX 01094 07255 12/35 01204 10010 21010 30038 40247 50004 60006 71000 80000 90900=
07255,1997-11-01 12:00:00,7,1023.1,-1.1,61,0,9000,18.52,,,100,,,,,,,,,,,wg-a,,,,AAXX 01124 07255 12/59 21010 10070 20000 30027 40231 58011 60006 80001 91200=
07255,1997-11-01 15:00:00,9,1021.8,-1.1,49,-1,15000,11.112,,,100,,,,,,,,,,,wg-a,,,,AAXX 01154 07255 12/65 11006 10090 21010 30016 40218 56011 60006 80001 91500=
07255,1997-11-01 18:00:00,4,1022.1,-0.1,70,-1,9000,7.408,,,100,-2.5,9.4,,,,,,,,,wg-a,,,,AAXX 01184 07255 12/59 21004 10040 21010 30015 40221 56001 60006 80001 91800 333 10094 21025=
07255,1997-11-01 21:00:00,2,1022.3,-0,80,-1,8000,11.112,,,80,,,,,,,,,,,wg-a,,,,AAXX 01214 07255 12/58 00806 10020 21010 30015 40223 55000 60006 80000 92100=
07255,1997-11-02 00:00:00,-1,1022.2,-0.3,86,-3,6000,7.408,,,140,,,,,,,,,,,wg-a,,,,AAXX 02004 07255 12/56 01404 11010 21030 30012 40222 58003 60006 80000 90000=
07255,1997-11-02 03:00:00,-1,1021,-1.2,86,-3,500,11.112,,,90,,,,,,,,,,,wg-a,,,,AAXX 02034 07255 12/00 00906 11010 21030 30000 40210 56012 60006 80000 90300=
07255,1997-11-02 06:00:00,-2,1020.8,-0.2,93,-3,4000,11.112,,,100,-2.4,4.1,,,,,,,,10,wg-a,,,,AAXX 02064 07255 02/40 01006 11020 21030 39998 40208 56002 60006 71000 80000 90600 333 10041 21024 60004=
07255,1997-11-02 12:00:00,10,1018.4,-1.3,53,1,7000,11.112,,,80,,,,,,,,,,,wg-a,,,,AAXX 02124 07255 12/57 00806 10100 20010 39983 40184 58013 60006 80000 91200=
07255,1997-11-02 15:00:00,12,1016.2,-2,50,2,7000,14.816,,,80,,,,,,,,,,,wg-a,,,,AAXX 02154 07255 12/57 00808 10120 20020 39963 40162 56020 60006 80000 91500=
07255,1997-11-02 18:00:00,8,1016.1,-0.4,61,1,6000,14.816,,,70,-2.1,12.1,,,,,,,,,wg-a,,,,AAXX 02184 07255 12/56 00708 10080 20010 39959 40161 56004 60006 80000 91800 333 10121 21021=
07255,1997-11-02 21:00:00,5,1015.8,-0.5,75,1,6000,14.816,,,90,,,,,,,,,,,wg-a,,,,AAXX 02214 07255 12/56 00908 10050 20010 39954 40158 57005 60006 80000 92100=
07255,1997-11-03 00:00:00,3,1015.1,-0.8,87,1,6000,22.224,,,90,,,,,,,,,,,wg-a,,,,AAXX 03004 07255 12/56 00912 10030 20010 39946 40151 58008 60006 80000 90000=
07255,1997-11-03 06:00:00,1,1013.2,-0.8,93,0,3500,11.112,,,100,1.2,8.3,,,,,,,,10,wg-a,,,,AAXX 03064 07255 02/35 01006 10010 20000 39926 40132 57008 60006 71000 80000 90600 333 10083 20012 60004=
07255,1997-11-03 09:00:00,7,1012.1,-0.7,81,4,4500,22.224,,,110,,,,,,,,,,10,wg-a,,,,AAXX 03094 07255 12/45 01112 10070 20040 39919 40121 58007 60006 71000 80000 90900=
07255,1997-11-03 12:00:00,15,1009.7,-1.8,59,7,9000,22.224,,,120,,,,,,,,,,,wg-a,,,,AAXX 03124 07255 12/59 01212 10150 20070 39901 40097 58018 60006 80000 91200=
07255,1997-11-03 15:00:00,17,1007.4,-2.1,55,8,12000,18.52,,,130,,,,,,,,,,,wg-a,,,,AAXX 03154 07255 12/62 11310 10170 20080 39880 40074 56021 60006 80001 91500=
07255,1997-11-03 18:00:00,12,1007.4,-0.3,71,7,7000,22.224,,,120,0.6,17.8,,,,,,,,,wg-a,,,,AAXX 03184 07255 12/57 21212 10120 20070 39877 40074 56003 60006 80002 91800 333 10178 20006=
07255,1997-11-03 21:00:00,10,1007.4,-0.2,82,7,7000,25.928,,,130,,,,,,,,,,,wg-a,,,,AAXX 03214 07255 12/57 21314 10100 20070 39875 40074 55002 60006 80002 92100=
07255,1997-11-04 00:00:00,11,1006.3,-1,82,8,7000,18.52,,,120,,,,,,,,,,,wg-a,,,,AAXX 04004 07255 12/57 71210 10110 20080 39865 40063 57010 60006 8703/ 90000=
07255,1997-11-04 03:00:00,11,1005.2,-1,82,8,6000,14.816,,,120,,,,,,,,,,,wg-a,,,,AAXX 04034 07255 12/56 71208 10110 20080 39855 40052 58010 60006 85032 90300=
07255,1997-11-04 06:00:00,11,1005.4,0.2,94,10,500,14.816,,,130,9.8,11.9,,,,,,,,61,wg-a,,,,AAXX 04064 07255 02500 71308 10110 20100 39857 40054 53002 61000 76162 875// 90600 333 10119 20098 6001=
07255,1997-11-04 12:00:00,13,1005.8,0.1,94,12,6000,11.112,,,120,,,,2,,,,,,61,wg-a,,,,AAXX 04124 07255 02556 81206 10130 20120 39862 40058 50001 60026 76162 875// 91200 333 60027=
07255,1997-11-04 18:00:00,12,1007.7,1.8,100,12,3500,11.112,,,230,10.8,14.2,,,,,,,,10,wg-a,,,,AAXX 04184 07255 02335 82306 10120 20120 39880 40077 53018 61000 71062 875// 91800 333 10142 20108 6005=
07255,1997-11-04 21:00:00,12,1008.1,0.4,94,11,10000,14.816,,,190,,,,3,,,,,,60,wg-a,,,,AAXX 04214 07255 12360 81908 10120 20110 39884 40081 53004 60037 76066 875// 92100=
07255,1997-11-05 00:00:00,12,1007.7,-0.4,94,11,8000,14.816,,,180,,,,2,,,,,,60,wg-a,,,,AAXX 05004 07255 02458 81808 10120 20110 39880 40077 58004 60046 76066 875// 90000 333 60027=
07255,1997-11-05 03:00:00,11,1007.2,-0.6,100,11,12000,11.112,,,160,,,,,,,,,,1,wg-a,,,,AAXX 05034 07255 02762 71606 10110 20110 39874 40072 57006 61000 70162 875// 90300 333 ////=
07255,1997-11-05 06:00:00,10,1006.2,-1,100,10,12000,11.112,,,160,9.8,12.3,,,,,14,,,1,wg-a,,,,AAXX 05064 07255 02562 71606 10100 20100 39864 40062 56010 60006 70162 875// 90600 333 10123 20098 60144=
07255,1997-11-05 12:00:00,15,1002.1,-2.5,82,12,500,14.816,,,170,,,,,,,,,,,wg-a,,,,AAXX 05124 07255 12400 71708 10150 20120 39827 40021 58025 60006 81106 91200=
07255,1997-11-05 15:00:00,15,999,-3,82,12,40000,11.112,,,170,,,,,,,,,,,wg-a,,,,AAXX 05154 07255 12/82 81706 10150 20120 39797 49990 56030 60006 8702/ 91500=
07255,1997-11-05 18:00:00,13,996.4,-2.7,94,12,20000,14.816,,,130,9.7,15.9,,,,,,,,,wg-a,,,,AAXX 05184 07255 12670 81308 10130 20120 39770 49964 56027 60006 8557/ 91800 333 10159 20097=
07255,1997-11-05 21:00:00,12,995.6,-0.9,94,11,10000,7.408,,,200,,,,1,,,,,,61,wg-a,,,,AAXX 05214 07255 12560 82004 10120 20110 39761 49956 56009 60017 76162 8552/ 92100=
07255,1997-11-06 00:00:00,12,994.5,-1.1,94,11,18000,14.816,,,210,,,,3,,,,,,21,wg-a,,,,AAXX 06004 07255 02668 82108 10120 20110 39750 49945 58011 60046 72162 8552/ 90000 333 60037=
07255,1997-11-06 03:00:00,11,991.4,-3,100,11,10000,3.704,,,260,,,,1,,,,,,61,wg-a,,,,AAXX 06034 07255 12660 82602 10110 20110 39720 49914 58030 60017 76162 875// 90300=
07255,1997-11-06 06:00:00,11,990.1,-1.3,100,11,3500,3.704,,,290,11.1,13,,,,,,,,10,wg-a,,,,AAXX 06064 07255 02235 82902 10110 20110 39707 49901 55013 61000 71062 877// 90600 333 10130 20111 6010=
07255,1997-11-06 12:00:00,11,989.6,-2.4,94,10,6000,11.112,,,70,,,,4,,,,,,61,wg-a,,,,AAXX 06124 07255 02256 80706 10110 20100 39702 49896 56024 60096 76166 8657/ 91200 333 60047=
07255,1997-11-06 15:00:00,11,984.6,-4.9,94,10,6000,18.52,,,70,,,,3,,,,,,63,wg-a,,,,AAXX 06154 07255 12256 80710 10110 20100 39653 49846 58049 60037 76362 8657/ 91500=
07255,1997-11-06 18:00:00,11,982.6,-2,94,10,20000,11.112,,,20,10.1,11.2,,,,,,,,60,wg-a,,,,AAXX 06184 07255 02270 80206 10110 20100 39633 49826 56020 61000 76062 8657/ 91800 333 10112 20101 6001=
07255,1997-11-06 21:00:00,9,990.3,7.4,93,8,6000,18.52,,,280,,,,2,,,,,,50,wg-a,,,,AAXX 06214 07255 12256 82810 10090 20080 39707 49903 52074 60027 75065 887// 92100=
07255,1997-11-07 00:00:00,8,992.6,2.2,100,8,15000,18.52,,,260,,,,0,,,,,,1,wg-a,,,,AAXX 07004 07255 02365 82610 10080 20080 39729 49926 53022 60026 70165 81101 90000 333 60007=
07255,1997-11-07 03:00:00,8,994.3,1.7,93,7,15000,18.52,,,230,,,,,,,,,,,wg-a,,,,AAXX 07034 07255 12665 22310 10080 20070 39746 49943 51017 60006 82500 90300=
07255,1997-11-07 06:00:00,7,996.7,2.3,93,6,20000,14.816,,,220,7.3,10.7,,,,,15,,,,wg-a,,,,AAXX 07064 07255 02670 22208 10070 20060 39769 49967 51023 60006 81570 90600 333 10107 20073 60154=
07255,1997-11-07 09:00:00,11,998.7,2.2,87,9,35000,25.928,,,220,,,,,,,,,,,wg-a,,,,AAXX 07094 07255 12581 72214 10110 20090 39791 49987 51022 60006 83831 90900=
07255,1997-11-07 12:00:00,14,998.2,-0.3,72,9,35000,29.632,,,230,,,,,,,,,,,wg-a,,,,AAXX 07124 07255 12581 /2316 10140 20090 39788 49982 58003 60006 85201 91200=
07255,1997-11-07 18:00:00,10,997.7,0,82,7,35000,14.816,,,160,6.8,14.9,,,,,,,,,wg-a,,,,AAXX 07184 07255 12681 /1608 10100 20070 39780 49977 50000 60006 84531 91800 333 10149 20068=
07255,1997-11-08 00:00:00,9,994.8,-1.7,93,8,10000,22.224,,,170,,,,1,,,,,,61,wg-a,,,,AAXX 08004 07255 02560 81712 10090 20080 39752 49948 58017 60016 76162 8357/ 90000 333 60017=
07255,1997-11-08 06:00:00,10,1000,2.6,93,9,20000,18.52,,,240,8.2,11.4,,,,,1,,,1,wg-a,,,,AAXX 08064 07255 02570 62410 10100 20090 39803 40000 51026 60006 70162 83231 90600 333 10114 20082 60014=
07255,1997-11-08 09:00:00,10,1002.9,2.8,82,7,35000,22.224,,,250,,,,0,,,,,,1,wg-a,,,,AAXX 08094 07255 12581 42512 10100 20070 39831 40029 51028 60007 70186 82832 90900=
07255,1997-11-08 12:00:00,14,1003,0.4,63,7,35000,29.632,,,250,,,,,,,,,,3,wg-a,,,,AAXX 08124 07255 12581 32516 10140 20070 39835 40030 50004 60006 70386 83100 91200=
07255,1997-11-08 15:00:00,13,1001.8,-1.2,67,7,35000,22.224,,,220,,,,,,,,,,,wg-a,,,,AAXX 08154 07255 12581 /2212 10130 20070 39823 40018 56012 60006 82136 91500=
07255,1997-11-08 18:00:00,12,999.2,-2.7,71,7,500,29.632,,,180,9.4,14.5,,,,,,,,,wg-a,,,,AAXX 08184 07255 12700 81816 10120 20070 39796 49992 58027 60006 81572 91800 333 10145 20094=
07255,1997-11-08 21:00:00,11,998.6,-0.6,87,9,18000,22.224,,,190,,,,1,,,,,,60,wg-a,,,,AAXX 08214 07255 12668 81912 10110 20090 39790 49986 58006 60017 76062 8457/ 92100=
07255,1997-11-09 00:00:00,11,997.6,-1,87,9,12000,29.632,,,230,,,,2,,,,,,21,wg-a,,,,AAXX 09004 07255 02662 82316 10110 20090 39780 49976 56010 60036 72162 8557/ 90000 333 60027=
07255,1997-11-09 03:00:00,9,998.9,1.1,87,7,9000,25.928,,,250,,,,3,,,,,,61,wg-a,,,,AAXX 09034 07255 12359 82514 10090 20070 39791 49989 51011 60037 76162 875// 90300=
07255,1997-11-09 06:00:00,8,999.3,0.4,93,7,12000,22.224,,,230,8,12,,,,,,,,61,wg-a,,,,AAXX 09064 07255 02262 82312 10080 20070 39795 49993 52004 61000 76162 875// 90600 333 10120 20080 6009=
07255,1997-11-09 09:00:00,8,1001.8,2.4,87,6,18000,35.188,,51.856,260,,,,1,,,,,,61,wg-a,,,,AAXX 09094 07255 12468 72619 10080 20060 39819 40018 53024 60017 76162 878// 90900 333 91028=
07255,1997-11-09 12:00:00,11,1001.2,-0.4,71,6,35000,35.188,,,230,,,,0,,,,,,1,wg-a,,,,AAXX 09124 07255 02581 72319 10110 20060 39815 40012 58004 60016 70162 84872 91200 333 60007=
07255,1997-11-09 15:00:00,7,1000.8,-0.7,81,4,1000,14.816,,53.708,270,,,,7,,,,,,80,wg-a,,,,AAXX 09154 07255 12410 82708 10070 20040 39808 40008 56007 60077 78098 879// 91500 333 91029=
07255,1997-11-09 18:00:00,10,1000.8,0.3,87,8,15000,31.484,,,220,6.2,10.8,,,,,,,,21,wg-a,,,,AAXX 09184 07255 02465 72217 10100 20080 39811 40008 53003 61000 72198 8657/ 91800 333 10108 20062 6006=
07255,1997-11-09 21:00:00,8,1003.2,2.2,87,6,12000,25.928,,,230,,,,1,,,,,,25,wg-a,,,,AAXX 09214 07255 12562 72314 10080 20060 39833 40032 51022 60017 72586 8587/ 92100=
07255,1997-11-10 00:00:00,8,1003.4,0.2,87,6,12000,18.52,,,230,,,,0,,,,,,21,wg-a,,,,AAXX 10004 07255 02662 42310 10080 20060 39835 40034 52002 60016 72186 82532 90000 333 60007=
07255,1997-11-10 03:00:00,7,1003,-0.5,87,5,12000,18.52,,,210,,,,,,,,,,15,wg-a,,,,AAXX 10034 07255 12662 /2110 10070 20050 39830 40030 58005 60006 71511 86500 90300=
07255,1997-11-10 06:00:00,8,1002.2,-0.7,87,6,25000,18.52,,,190,6.5,9.8,,,,,16,,,3,wg-a,,,,AAXX 10064 07255 02775 71910 10080 20060 39823 40022 58007 60164 70386 81532 90600 333 10098 20065 61000=
07255,1997-11-10 09:00:00,8,1002.2,-0,93,7,12000,31.484,,,230,,,,2,,,,,,61,wg-a,,,,AAXX 10094 07255 12362 82317 10080 20070 39823 40022 55000 60027 76162 8372/ 90900=
07255,1997-11-10 12:00:00,11,1001.2,-0.8,76,7,40000,29.632,,,230,,,,1,,,,,,1,wg-a,,,,AAXX 10124 07255 02582 82316 10110 20070 39815 40012 58008 60026 70162 83172 91200 333 60017=
07255,1997-11-10 15:00:00,9,1001.6,0.3,87,7,40000,25.928,,,250,,,,0,,,,,,25,wg-a,,,,AAXX 10154 07255 12582 72514 10090 20070 39818 40016 51003 60007 72586 84231 91500=
07255,1997-11-10 18:00:00,8,1002.6,0.9,81,5,25000,25.928,,,230,7.1,11.1,,,,,,,,1,wg-a,,,,AAXX 10184 07255 12/75 42314 10080 20050 39827 40026 53009 60006 70186 80001 91800 333 10111 20071=
07255,1997-11-11 00:00:00,7,1001.4,-1.1,87,5,25000,22.224,,,190,,,,,,,,,,,wg-a,,,,AAXX 11004 07255 12775 71912 10070 20050 39815 40014 55011 60006 8357/ 90000=
07255,1997-11-11 03:00:00,7,999.3,-2.1,87,5,15000,18.52,,,190,,,,1,,,,,,60,wg-a,,,,AAXX 11034 07255 12665 81910 10070 20050 39794 49993 58021 60017 76062 8657/ 90300=
07255,1997-11-11 06:00:00,7,998.7,-0.6,87,5,25000,14.816,,,210,6.1,7.8,,,,,4,,,3,wg-a,,,,AAXX 11064 07255 02575 72108 10070 20050 39788 49987 56006 60006 70362 83872 90600 333 10078 20061 60044=
07255,1997-11-11 12:00:00,11,998.4,-0.8,76,7,500,22.224,,,220,,,,,,,,,,,wg-a,,,,AAXX 11124 07255 12500 82212 10110 20070 39788 49984 58008 60006 879// 91200=
07255,1997-11-11 15:00:00,10,997.7,-0.8,82,7,25000,11.112,,,230,,,,0,,,,,,21,wg-a,,,,AAXX 11154 07255 12675 82306 10100 20070 39780 49977 58008 60007 72162 8557/ 91500=
07255,1997-11-11 18:00:00,8,997.9,0.1,93,7,25000,14.816,,,190,6.3,11.7,,,,,,,,21,wg-a,,,,AAXX 11184 07255 02675 71908 10080 20070 39781 49979 53001 61000 72162 8457/ 91800 333 10117 20063 6000=
07255,1997-11-11 21:00:00,8,998.3,0.4,93,7,25000,11.112,,,230,,,,0,,,,,,2,wg-a,,,,AAXX 11214 07255 12475 82306 10080 20070 39785 49983 51004 60007 70262 875// 92100=
07255,1997-11-12 00:00:00,7,998.1,-0.3,93,6,20000,7.408,,,280,,,,,,,,,,1,wg-a,,,,AAXX 12004 07255 12470 52804 10070 20060 39782 49981 58003 60006 70162 85500 90000=
07255,1997-11-12 03:00:00,7,998.8,0.7,100,7,15000,7.408,,,280,,,,0,,,,,,60,wg-a,,,,AAXX 12034 07255 12465 82804 10070 20070 39789 49988 50007 60007 76062 875// 90300=
07255,1997-11-12 06:00:00,7,999.9,1.1,93,6,12000,7.408,,,270,6.3,8.4,,,,,,,,21,wg-a,,,,AAXX 12064 07255 02362 /2704 10070 20060 39800 49999 51011 61000 72162 86500 90600 333 10084 20063 6001=
07255,1997-11-12 09:00:00,7,1001.6,1.7,100,7,9000,7.408,,,290,,,,,,,,,,,wg-a,,,,AAXX 12094 07255 12359 82904 10070 20070 39817 40016 51017 60006 878// 90900=
07255,1997-11-12 12:00:00,9,1003,1.5,87,7,15000,11.112,,,280,,,,,,,,,,,wg-a,,,,AAXX 12124 07255 12465 72806 10090 20070 39832 40030 51015 60006 878// 91200=
07255,1997-11-12 18:00:00,7,1006.2,2,93,6,25000,3.704,,,240,6,10.5,,,,,,,,,wg-a,,,,AAXX 12184 07255 12575 72402 10070 20060 39862 40062 51020 60006 878// 91800 333 10105 20060=
07255,1997-11-12 21:00:00,7,1007.8,1.5,93,6,18000,11.112,,,250,,,,,,,,,,,wg-a,,,,AAXX 12214 07255 12768 72506 10070 20060 39877 40078 52015 60006 875// 92100=
07255,1997-11-13 00:00:00,6,1008.4,0.5,100,6,10000,11.112,,,220,,,,,,,,,,,wg-a,,,,AAXX 13004 07255 12460 72206 10060 20060 39882 40084 51005 60006 876// 90000=
07255,1997-11-13 03:00:00,6,1008.2,-0.1,100,6,500,7.408,,,240,,,,,,,,,,,wg-a,,,,AAXX 13034 07255 12300 72404 10060 20060 39881 40082 58001 60006 876// 90300=
07255,1997-11-13 06:00:00,6,1007.9,-0.3,93,5,6000,7.408,,,210,5.7,7.4,,,,,,,,,wg-a,,,,AAXX 13064 07255 02456 72104 10060 20050 39878 40079 56003 60006 875// 90600 333 10074 20057 60004=
07255,1997-11-13 09:00:00,8,1008.2,0.4,87,6,10000,7.408,,,180,,,,,,,,,,,wg-a,,,,AAXX 13094 07255 12460 71804 10080 20060 39882 40082 53004 60006 8553/ 90900=
07255,1997-11-13 12:00:00,10,1007.6,-0.5,82,7,500,3.704,,,250,,,,,,,,,,,wg-a,,,,AAXX 13124 07255 12400 72502 10100 20070 39877 40076 58005 60006 878// 91200=
07255,1997-11-13 15:00:00,10,1007.2,-0.3,82,7,40000,3.704,,,290,,,,,,,,,,,wg-a,,,,AAXX 13154 07255 12482 72902 10100 20070 39874 40072 56003 60006 86801 91500=
07255,1997-11-13 18:00:00,8,1008.8,1.3,87,6,20000,0,,,0,5.8,10.8,,,,,,,,,wg-a,,,,AAXX 13184 07255 12470 /0000 10080 20060 39887 40088 53013 60006 86400 91800 333 10108 20058=
07255,1997-11-13 21:00:00,5,1010.3,1.3,100,5,18000,7.408,,,260,,,,,,,,,,,wg-a,,,,AAXX 13214 07255 12568 22604 10050 20050 39900 40103 51013 60006 81530 92100=
07255,1997-11-14 00:00:00,5,1011.5,1.2,93,4,2000,3.704,,,290,,,,,,,,,,10,wg-a,,,,AAXX 14004 07255 12120 52902 10050 20040 39912 40115 52012 60006 71011 85500 90000=
07255,1997-11-14 03:00:00,2,1012.3,0.5,100,2,600,3.704,,,90,,,,,,,,,,44,wg-a,,,,AAXX 14034 07255 12106 50902 10020 20020 39917 40123 53005 60006 74441 85500 90300=
07255,1997-11-14 06:00:00,3,1013.7,1.5,100,3,500,3.704,,,210,1.7,7.5,,,,,,,,42,wg-a,,,,AAXX 14064 07255 02005 /2102 10030 20030 39932 40137 51015 60006 74241 85600 90600 333 10075 20017 60004=
07255,1997-11-14 09:00:00,5,1015.7,2.1,100,5,500,3.704,,,140,,,,,,,,,,45,wg-a,,,,AAXX 14094 07255 12/05 91402 10050 20050 39953 40157 51021 60006 74542 89/// 90900=
07255,1997-11-14 12:00:00,7,1016.5,0.9,100,7,500,11.112,,,190,,,,0,,,,,,1,wg-a,,,,AAXX 14124 07255 02100 81906 10070 20070 39962 40165 50009 60006 70142 886// 91200 333 60007=
07255,1997-11-14 15:00:00,7,1017.1,0.6,93,6,10000,3.704,,,180,,,,,,,,,,,wg-a,,,,AAXX 14154 07255 12360 81802 10070 20060 39968 40171 53006 60006 886// 91500=
07255,1997-11-14 18:00:00,5,1018.8,1.5,93,4,4500,7.408,,,110,2.8,7.2,,,,,,,,10,wg-a,,,,AAXX 14184 07255 12245 /1104 10050 20040 39983 40188 51015 60006 71022 81601 91800 333 10072 20028=
07255,1997-11-14 21:00:00,3,1019.5,0.6,100,3,400,14.816,,,140,,,,,,,,,,44,wg-a,,,,AAXX 14214 07255 12/04 01408 10030 20030 39989 40195 53006 60006 74441 80000 92100=
07255,1997-11-15 00:00:00,2,1020.5,0.9,100,2,3500,11.112,,,120,,,,,,,,,,10,wg-a,,,,AAXX 15004 07255 12/35 01206 10020 20020 39998 40205 51009 60006 71041 80000 90000=
07255,1997-11-15 03:00:00,1,1020.8,0.2,100,1,3500,11.112,,,130,,,,,,,,,,10,wg-a,,,,AAXX 15034 07255 12/35 31306 10010 20010 30000 40208 53002 60006 71000 80001 90300=
07255,1997-11-15 06:00:00,2,1021.1,0.3,93,1,6000,11.112,,,130,0.9,5,,,,,,,,,wg-a,,,,AAXX 15064 07255 02656 /1306 10020 20010 30003 40211 51003 60006 83530 90600 333 10050 20009 60004=
07255,1997-11-15 09:00:00,5,1021.2,0.4,93,4,12000,11.112,,,140,,,,,,,,,,,wg-a,,,,AAXX 15094 07255 12662 71406 10050 20040 30007 40212 50004 60006 86501 90900=
07255,1997-11-15 12:00:00,11,1020.5,-0.2,87,9,20000,11.112,,,120,,,,,,,,,,,wg-a,,,,AAXX 15124 07255 12670 71206 10110 20090 30005 40205 58002 60006 84532 91200=
07255,1997-11-15 15:00:00,13,1019.7,-0.7,82,10,25000,7.408,,,200,,,,,,,,,,,wg-a,,,,AAXX 15154 07255 12675 72004 10130 20100 39998 40197 56007 60006 8357/ 91500=
07255,1997-11-15 18:00:00,12,1020.1,0.3,88,10,15000,7.408,,,180,1.2,12.9,,0,,,,,,,wg-a,,,,AAXX 15184 07255 02465 81804 10120 20100 30001 40201 52003 60006 875// 91800 333 10129 20012 60007=
07255,1997-11-15 21:00:00,11,1019.4,-0.7,94,10,15000,7.408,,,180,,,,,,,,,,,wg-a,,,,AAXX 15214 07255 12465 81804 10110 20100 39994 40194 56007 60006 875// 92100=
07255,1997-11-16 00:00:00,11,1019.1,-0.3,94,10,12000,3.704,,,180,,,,,,,,,,,wg-a,,,,AAXX 16004 07255 12462 81802 10110 20100 39991 40191 57003 60006 875// 90000=
07255,1997-11-16 03:00:00,11,1018.5,-0.6,94,10,12000,0,,,0,,,,,,,,,,,wg-a,,,,AAXX 16034 07255 12362 80000 10110 20100 39985 40185 58006 60006 886// 90300=
07255,1997-11-16 06:00:00,11,1018.3,-0.2,94,10,12000,3.704,,,120,10.4,11.8,,,,,,,,,wg-a,,,,AAXX 16064 07255 02462 81202 10110 20100 39983 40183 55002 60006 886// 90600 333 10118 20104 60004=
07255,1997-11-16 09:00:00,12,1018.4,0.2,94,11,12000,3.704,,,170,,,,,,,,,,,wg-a,,,,AAXX 16094 07255 12462 71702 10120 20110 39985 40184 53002 60006 875// 90900=
07255,1997-11-16 12:00:00,14,1017.1,-1.1,88,12,15000,3.704,,,190,,,,,,,,,,,wg-a,,,,AAXX 16124 07255 12565 71902 10140 20120 39974 40171 58011 60006 875// 91200=
07255,1997-11-16 15:00:00,15,1016.5,-0.6,88,13,18000,0,,,0,,,,,,,,,,,wg-a,,,,AAXX 16154 07255 12568 70000 10150 20130 39968 40165 56006 60006 875// 91500=
07255,1997-11-16 18:00:00,13,1017.1,0.5,94,12,10000,7.408,,,100,10.8,14.8,,,,,,,,,wg-a,,,,AAXX 16184 07255 12560 71004 10130 20120 39973 40171 53005 60006 8453/ 91800 333 10148 20108=
07255,1997-11-16 21:00:00,11,1017.1,-0.2,94,10,6000,7.408,,,120,,,,,,,,,,,wg-a,,,,AAXX 16214 07255 12456 61204 10110 20100 39971 40171 55002 60006 82532 92100=
07255,1997-11-17 00:00:00,10,1017.1,0,100,10,400,3.704,,,180,,,,,,,,,,45,wg-a,,,,AAXX 17004 07255 12/04 91802 10100 20100 39971 40171 50000 60006 74542 89/// 90000=
07255,1997-11-17 03:00:00,10,1016.6,-0.5,100,10,800,7.408,,,110,,,,,,,,,,42,wg-a,,,,AAXX 17034 07255 12/08 /1104 10100 20100 39966 40166 58005 60006 74242 86030 90300=
07255,1997-11-17 06:00:00,11,1016.9,0.3,100,11,500,3.704,,,160,9.4,13,,,,,,,,44,wg-a,,,,AAXX 17064 07255 02205 /1602 10110 20110 39969 40169 53003 60006 74441 84601 90600 333 10130 20094 60004=
07255,1997-11-17 09:00:00,11,1016.5,-0.3,100,11,6000,11.112,,,120,,,,,,,,,,2,wg-a,,,,AAXX 17094 07255 12256 81206 10110 20110 39966 40165 58003 60006 70242 885// 90900=
07255,1997-11-17 12:00:00,15,1014.3,-1.9,82,12,20000,18.52,,,130,,,,,,,,,,3,wg-a,,,,AAXX 17124 07255 12470 71310 10150 20120 39947 40143 58019 60006 70342 84801 91200=
07255,1997-11-17 15:00:00,14,1012.9,-1.4,82,11,40000,11.112,,,130,,,,,,,,,,,wg-a,,,,AAXX 17154 07255 12/82 71306 10140 20110 39933 40129 56014 60006 85078 91500=
07255,1997-11-17 18:00:00,10,1012.9,-0.3,93,9,20000,18.52,,,110,10.1,15.2,,,,,,,,,wg-a,,,,AAXX 17184 07255 12/70 71110 10100 20090 39930 40129 58003 60006 8707/ 91800 333 10152 20101=
07255,1997-11-17 21:00:00,8,1011.2,-1.9,100,8,3000,29.632,,,120,,,,,,,,,,10,wg-a,,,,AAXX 17214 07255 12130 81216 10080 20080 39911 40112 57019 60006 71022 876// 92100=
07255,1997-11-18 00:00:00,7,1009.4,-1.8,100,7,2500,29.632,,,120,,,,,,,,,,10,wg-a,,,,AAXX 18004 07255 12125 81216 10070 20070 39893 40094 58018 60006 71022 876// 90000=
07255,1997-11-18 06:00:00,6,1007.7,-0.5,93,5,8000,22.224,,,110,5.9,10.1,,,,,,,,,wg-a,,,,AAXX 18064 07255 02/58 /1112 10060 20050 39876 40077 56005 60006 82032 90600 333 10101 20059 60004=
07255,1997-11-18 09:00:00,9,1008,0.5,87,7,10000,22.224,,,120,,,,,,,,,,,wg-a,,,,AAXX 18094 07255 12760 41212 10090 20070 39881 40080 50005 60006 81539 90900=
07255,1997-11-18 12:00:00,12,1007.5,-0.3,82,9,12000,14.816,,,130,,,,,,,,,,,wg-a,,,,AAXX 18124 07255 12762 71308 10120 20090 39878 40075 58003 60006 8157/ 91200=
07255,1997-11-18 15:00:00,12,1008.1,0.6,94,11,3500,3.704,,,190,,,,0,,,,,,10,wg-a,,,,AAXX 18154 07255 12635 81902 10120 20110 39884 40081 53006 60007 71062 8457/ 91500=
07255,1997-11-18 18:00:00,12,1007.8,-0.3,94,11,4000,11.112,,,150,6,12.6,,,,,,,,10,wg-a,,,,AAXX 18184 07255 02440 81506 10120 20110 39881 40078 56003 61000 71062 875// 91800 333 10126 20060 6001=
07255,1997-11-19 00:00:00,11,1005.6,-1.2,100,11,2000,7.408,,,220,,,,4,,,,,,10,wg-a,,,,AAXX 19004 07255 02420 82204 10110 20110 39859 40056 58012 60056 71066 877// 90000 333 60047=
07255,1997-11-19 06:00:00,11,1002.7,-1.2,100,11,6000,3.704,,,240,10.9,11.7,,,,,10,,,1,wg-a,,,,AAXX 19064 07255 02356 72402 10110 20110 39830 40027 58012 60006 70162 8473/ 90600 333 10117 20109 60104=
07255,1997-11-19 09:00:00,11,1002.9,0.2,94,10,7000,7.408,,,240,,,,,,,,,,,wg-a,,,,AAXX 19094 07255 12257 72404 10110 20100 39832 40029 51002 60006 876// 90900=
07255,1997-11-19 12:00:00,13,1002.2,-0.5,82,10,25000,14.816,,,270,,,,,,,,,,,wg-a,,,,AAXX 19124 07255 12475 72708 10130 20100 39827 40022 58005 60006 86802 91200=
07255,1997-11-19 15:00:00,11,1001.8,-0.5,94,10,18000,11.112,,,200,,,,0,,,,,,61,wg-a,,,,AAXX 19154 07255 12568 82006 10110 20100 39822 40018 58005 60007 76162 8482/ 91500=
07255,1997-11-19 18:00:00,11,1001.8,-0.1,94,10,25000,18.52,,,210,10.5,13.7,,,,,,,,25,wg-a,,,,AAXX 19184 07255 02475 /2110 10110 20100 39821 40018 56001 61000 72586 85800 91800 333 10137 20105 6001=
07255,1997-11-19 21:00:00,10,1002.1,0.2,93,9,20000,14.816,,,220,,,,,,,,,,,wg-a,,,,AAXX 19214 07255 12470 32208 10100 20090 39823 40021 53002 60006 83200 92100=
07255,1997-11-20 06:00:00,10,998.7,-1.2,87,8,25000,22.224,,,190,7.9,10.9,,,,,1,,,1,wg-a,,,,AAXX 20064 07255 02675 71912 10100 20080 39790 49987 58012 60006 70161 8357/ 90600 333 10109 20079 60014=
07255,1997-11-20 09:00:00,11,999.4,0.8,87,9,25000,29.632,,,230,,,,,,,,,,1,wg-a,,,,AAXX 20094 07255 02575 72316 10110 20090 39798 49994 52008 61000 70162 8587/ 90900 333 ////=
07255,1997-11-20 12:00:00,9,1001,1.4,87,7,12000,25.928,,50.004,280,,,,1,,,,,,61,wg-a,,,,AAXX 20124 07255 02562 72814 10090 20070 39812 40010 53014 60016 76186 878// 91200 333 60017 91027=
07255,1997-11-20 15:00:00,10,1001.4,0.5,87,8,25000,22.224,,,240,,,,2,,,,,,2,wg-a,,,,AAXX 20154 07255 12575 72412 10100 20080 39817 40014 53005 60027 70262 8699/ 91500=
07255,1997-11-20 18:00:00,9,1003.9,2.4,87,7,25000,18.52,,,240,8.3,12.3,,,,,,,,2,wg-a,,,,AAXX 20184 07255 12575 72410 10090 20070 39841 40039 53024 60006 70262 878// 91800 333 10123 20083=
07255,1997-11-20 21:00:00,9,1005.7,1.7,87,7,25000,18.52,,,240,,,,,,,,,,,wg-a,,,,AAXX 20214 07255 12775 22410 10090 20070 39858 40057 51017 60006 82500 92100=
07255,1997-11-21 00:00:00,6,1007.2,1.3,93,5,25000,14.816,,,230,,,,,,,,,,,wg-a,,,,AAXX 21004 07255 12775 22308 10060 20050 39871 40072 51013 60006 82500 90000=
07255,1997-11-21 03:00:00,5,1008.3,1,100,5,25000,14.816,,,220,,,,,,,,,,,wg-a,,,,AAXX 21034 07255 12775 22208 10050 20050 39881 40083 52010 60006 82500 90300=
07255,1997-11-21 06:00:00,4,1009,0.6,100,4,25000,11.112,,,180,4,9.2,,,,,3,,,,wg-a,,,,AAXX 21064 07255 02775 51806 10040 20040 39887 40090 51006 60006 815/1 90600 333 10092 20040 60034=
07255,1997-11-21 09:00:00,8,1009.5,0.7,93,7,25000,11.112,,,180,,,,0,,,,,,,wg-a,,,,AAXX 21094 07255 12775 71806 10080 20070 39894 40095 51007 60007 82202 90900=
07255,1997-11-21 12:00:00,12,1008.9,-0.2,82,9,35000,14.816,,,230,,,,,,,,,,,wg-a,,,,AAXX 21124 07255 12581 62308 10120 20090 39892 40089 58002 60006 83232 91200=
07255,1997-11-21 15:00:00,11,1009.2,0.2,82,8,20000,7.408,,,240,,,,,,,,,,,wg-a,,,,AAXX 21154 07255 12570 72404 10110 20080 39894 40092 53002 60006 85232 91500=
07255,1997-11-21 18:00:00,8,1010.6,1.2,93,7,12000,3.704,,,360,3.4,12.7,,,,,,,,60,wg-a,,,,AAXX 21184 07255 02562 83602 10080 20070 39906 40106 52012 61000 76062 879// 91800 333 10127 20034 6100=
07255,1997-11-21 21:00:00,8,1011.1,0.4,93,7,15000,7.408,,,200,,,,0,,,,,,1,wg-a,,,,AAXX 21214 07255 12665 72004 10080 20070 39910 40111 52004 60007 70162 875// 92100=
07255,1997-11-22 00:00:00,7,1011.5,0.4,93,6,12000,3.704,,,150,,,,0,,,,,,1,wg-a,,,,AAXX 22004 07255 02662 71502 10070 20060 39914 40115 51004 60016 70162 8457/ 90000 333 60007=
07255,1997-11-22 03:00:00,7,1011.6,-0,93,6,9000,0,,,0,,,,,,,,,,,wg-a,,,,AAXX 22034 07255 12659 70000 10070 20060 39914 40116 54000 60006 83572 90300=
07255,1997-11-22 06:00:00,7,1012.2,0.6,93,6,9000,7.408,,,120,6.4,8.3,,,,,1,,,,wg-a,,,,AAXX 22064 07255 02659 71204 10070 20060 39920 40122 51006 60006 85501 90600 333 10083 20064 60014=
07255,1997-11-22 09:00:00,7,1013.6,1.4,100,7,6000,3.704,,,20,,,,,,,,,,,wg-a,,,,AAXX 22094 07255 12256 70202 10070 20070 39934 40136 51014 60006 8657/ 90900=
07255,1997-11-22 12:00:00,9,1013.9,0.5,93,8,7000,3.704,,,310,,,,,,,,,,,wg-a,,,,AAXX 22124 07255 12357 73102 10090 20080 39939 40139 50005 60006 878// 91200=
07255,1997-11-22 15:00:00,10,1014.2,0.3,87,8,22000,3.704,,,340,,,,,,,,,,,wg-a,,,,AAXX 22154 07255 12472 73402 10100 20080 39942 40142 51003 60006 83834 91500=
07255,1997-11-22 18:00:00,7,1015.6,1.2,100,7,20000,7.408,,,350,6.1,10.6,,,,,,,,,wg-a,,,,AAXX 22184 07255 12470 73504 10070 20070 39954 40156 53012 60006 81531 91800 333 10106 20061=
07255,1997-11-22 21:00:00,7,1017.4,1.7,93,6,12000,3.704,,,10,,,,,,,,,,,wg-a,,,,AAXX 22214 07255 12/62 70102 10070 20060 39971 40174 51017 60006 8703/ 92100=
07255,1997-11-23 00:00:00,5,1018.5,0.9,93,4,300,3.704,,,290,,,,,,,,,,42,wg-a,,,,AAXX 23004 07255 12/03 02902 10050 20040 39980 40185 51009 60006 74241 80000 90000=
07255,1997-11-23 06:00:00,3,1020,1,100,3,200,7.408,,,220,2.1,7.3,,,,,1,,,45,wg-a,,,,AAXX 23064 07255 02/02 92204 10030 20030 39993 40200 53010 60006 74541 89/// 90600 333 10073 20021 60014=
07255,1997-11-23 12:00:00,5,1021,-0.2,100,5,200,0,,,0,,,,,,,,,,43,wg-a,,,,AAXX 23124 07255 12/02 90000 10050 20050 30005 40210 58002 60006 74344 89/// 91200=
07255,1997-11-23 15:00:00,6,1020.2,-0.7,100,6,1300,11.112,,,110,,,,,,,,,,10,wg-a,,,,AAXX 23154 07255 12113 81106 10060 20060 39998 40202 56007 60006 71042 886// 91500=
07255,1997-11-23 18:00:00,5,1019.6,-0.6,100,5,1300,11.112,,,100,2.1,6.5,,,,,,,,10,wg-a,,,,AAXX 23184 07255 12113 81006 10050 20050 39992 40196 58006 60006 71042 886// 91800 333 10065 20021=
07255,1997-11-23 21:00:00,5,1019.4,-0.3,100,5,800,14.816,,,110,,,,,,,,,,45,wg-a,,,,AAXX 23214 07255 12/08 91108 10050 20050 39989 40194 57003 60006 74541 89/// 92100=
07255,1997-11-24 00:00:00,5,1018,-1.3,100,5,1200,18.52,,,120,,,,,,,,,,10,wg-a,,,,AAXX 24004 07255 12012 81210 10050 20050 39976 40180 58013 60006 71041 886// 90000=
07255,1997-11-24 03:00:00,4,1016.7,-1.4,100,4,1500,18.52,,,140,,,,,,,,,,10,wg-a,,,,AAXX 24034 07255 12015 81410 10040 20040 39962 40167 57014 60006 71022 886// 90300=
07255,1997-11-24 06:00:00,3,1014.6,-2.1,100,3,4000,25.928,,,120,3.4,5.2,,,,,,,,10,wg-a,,,,AAXX 24064 07255 02240 81214 10030 20030 39941 40146 56021 60006 71022 886// 90600 333 10052 20034 60004=
07255,1997-11-24 12:00:00,7,1009.5,-2.6,81,4,9000,25.928,,,120,,,,,,,,,,,wg-a,,,,AAXX 24124 07255 12459 71214 10070 20040 39894 40095 58026 60006 81632 91200=
07255,1997-11-24 15:00:00,6,1006.5,-3,81,3,12000,22.224,,,110,,,,,,,,,,14,wg-a,,,,AAXX 24154 07255 12762 71112 10060 20030 39864 40065 56030 60006 71422 8153/ 91500=
07255,1997-11-24 18:00:00,5,1005.1,-1.5,87,3,8000,22.224,,,100,3.1,7.5,,,,,,,,,wg-a,,,,AAXX 24184 07255 12758 81012 10050 20030 39849 40051 57015 60006 8457/ 91800 333 10075 20031=
07255,1997-11-24 21:00:00,4,1006,0.8,93,3,8000,11.112,,,110,,,,,,,,,,,wg-a,,,,AAXX 24214 07255 12758 81106 10040 20030 39857 40060 52008 60006 8557/ 92100=
07255,1997-11-25 00:00:00,3,1006.6,0.5,93,2,7000,11.112,,,120,,,,,,,,,,,wg-a,,,,AAXX 25004 07255 12/57 71206 10030 20020 39862 40066 51005 60006 85031 90000=
07255,1997-11-25 03:00:00,5,1006.3,-0.1,87,3,15000,11.112,,,130,,,,,,,,,,,wg-a,,,,AAXX 25034 07255 12/65 71306 10050 20030 39861 40063 56001 60006 85031 90300=
07255,1997-11-25 06:00:00,8,1005.8,-0.3,81,5,12000,14.816,,,160,2.9,7.7,,,,,,,,61,wg-a,,,,AAXX 25064 07255 02662 81608 10080 20050 39858 40058 57003 61000 76162 8657/ 90600 333 10077 20029 6100=
07255,1997-11-25 09:00:00,8,1006.2,0.4,87,6,20000,14.816,,,140,,,,,,,,,,60,wg-a,,,,AAXX 25094 07255 02670 71408 10080 20060 39862 40062 53004 61000 76062 8353/ 90900 333 ////=
07255,1997-11-25 12:00:00,13,1004.6,-1.2,77,9,25000,18.52,,,140,,,,,,,,,,1,wg-a,,,,AAXX 25124 07255 02775 41410 10130 20090 39850 40046 58012 61000 70161 8353/ 91200 333 6100=
07255,1997-11-25 18:00:00,9,1003,-0.4,81,6,20000,14.816,,,120,6.5,15.2,,,,,,,,,wg-a,,,,AAXX 25184 07255 12/70 41208 10090 20060 39831 40030 56004 60006 81032 91800 333 10152 20065=
07255,1997-11-25 21:00:00,8,1003,-0,87,6,15000,14.816,,,120,,,,,,,,,,,wg-a,,,,AAXX 25214 07255 12/65 61208 10080 20060 39831 40030 55000 60006 80002 92100=
07255,1997-11-26 00:00:00,8,1002.7,-0.3,87,6,15000,14.816,,,130,,,,,,,,,,,wg-a,,,,AAXX 26004 07255 12/65 51308 10080 20060 39828 40027 56003 60006 80002 90000=
07255,1997-11-26 03:00:00,7,1002.6,-0.1,93,6,15000,18.52,,,120,,,,,,,,,,,wg-a,,,,AAXX 26034 07255 12/65 71210 10070 20060 39827 40026 58001 60006 8703/ 90300=
07255,1997-11-26 06:00:00,8,1002.9,0.3,87,6,15000,18.52,,,120,6.8,8.4,,,,,,,,,wg-a,,,,AAXX 26064 07255 02/65 71210 10080 20060 39830 40029 53003 60006 83032 90600 333 10084 20068 60004=
07255,1997-11-26 09:00:00,10,1004.6,1.8,82,7,10000,18.52,,,130,,,,,,,,,,,wg-a,,,,AAXX 26094 07255 12/60 /1310 10100 20070 39848 40046 53018 60006 90900=
07255,1997-11-26 12:00:00,12,1005.5,1,82,9,20000,14.816,,,140,,,,,,,,,,,wg-a,,,,AAXX 26124 07255 12770 81408 10120 20090 39858 40055 51010 60006 8557/ 91200=
07255,1997-11-26 15:00:00,12,1006.6,1.1,88,10,15000,11.112,,,120,,,,,,,,,,60,wg-a,,,,AAXX 26154 07255 02765 71206 10120 20100 39869 40066 53011 61000 76062 8557/ 91500 333 ////=
07255,1997-11-26 18:00:00,11,1007.9,1.2,87,9,15000,14.816,,,130,7.7,13,,,,,,,,60,wg-a,,,,AAXX 26184 07255 02665 71308 10110 20090 39881 40079 51012 61000 76062 8557/ 91800 333 10130 20077 6100=
07255,1997-11-26 21:00:00,10,1009.2,1.2,93,9,15000,14.816,,,140,,,,0,,,,,,2,wg-a,,,,AAXX 26214 07255 12765 71408 10100 20090 39893 40092 53012 60007 70262 8557/ 92100=
07255,1997-11-27 00:00:00,10,1010,0.8,93,9,12000,11.112,,,140,,,,0,,,,,,1,wg-a,,,,AAXX 27004 07255 02/62 81406 10100 20090 39901 40100 51008 60016 70162 8707/ 90000 333 60007=
07255,1997-11-27 03:00:00,10,1010.6,0.6,93,9,10000,14.816,,,150,,,,,,,,,,,wg-a,,,,AAXX 27034 07255 12/60 81508 10100 20090 39907 40106 51006 60006 8707/ 90300=
07255,1997-11-27 06:00:00,10,1011.3,0.7,93,9,10000,14.816,,,160,9.7,10.9,,,,,,,,60,wg-a,,,,AAXX 27064 07255 02660 81608 10100 20090 39914 40113 53007 61000 76065 875// 90600 333 10109 20097 6000=
07255,1997-11-27 09:00:00,10,1011.3,0.7,93,9,10000,14.816,,,160,9.7,10.9,,,,,,,,60,wg-a,,,,AAXX 27094 07255 02660 81608 10100 20090 39914 40113 53007 60004 76065 90900 333 10109 20097 61000=
07255,1997-11-27 12:00:00,12,1013.8,1.3,82,9,18000,18.52,,,270,,,,,,,,,,1,wg-a,,,,AAXX 27124 07255 02468 72710 10120 20090 39940 40138 51013 60006 70162 878// 91200 333 61000=
07255,1997-11-27 15:00:00,12,1014.2,0.4,82,9,25000,11.112,,,270,,,,,,,,,,,wg-a,,,,AAXX 27154 07255 12575 72706 10120 20090 39944 40142 53004 60006 81232 91500=
07255,1997-11-27 18:00:00,10,1014.9,0.5,93,9,20000,7.408,,,210,9.9,12.9,,,,,,,,,wg-a,,,,AAXX 27184 07255 12670 72104 10100 20090 39949 40149 53005 60006 8553/ 91800 333 10129 20099=
07255,1997-11-27 21:00:00,7,1015,-0.1,93,6,18000,11.112,,,190,,,,,,,,,,,wg-a,,,,AAXX 27214 07255 12/68 41906 10070 20060 39948 40150 58001 60006 83031 92100=
07255,1997-11-28 00:00:00,6,1014,-1,100,6,18000,11.112,,,160,,,,,,,,,,,wg-a,,,,AAXX 28004 07255 12/68 41606 10060 20060 39938 40140 58010 60006 80001 90000=
07255,1997-11-28 03:00:00,7,1013,-1,93,6,18000,7.408,,,160,,,,,,,,,,,wg-a,,,,AAXX 28034 07255 12668 71604 10070 20060 39928 40130 56010 60006 85501 90300=
07255,1997-11-28 06:00:00,7,1011.8,-1.1,93,6,15000,7.408,,,160,6.1,10,,,,,,,,60,wg-a,,,,AAXX 28064 07255 02665 81604 10070 20060 39917 40118 56011 61000 76061 8557/ 90600 333 10100 20061 6000=
07255,1997-11-28 09:00:00,8,1011.6,-0.2,100,8,6000,14.816,,,170,,,,3,,,,,,61,wg-a,,,,AAXX 28094 07255 12656 81708 10080 20080 39915 40116 58002 60037 76166 8657/ 90900=
07255,1997-11-28 12:00:00,10,1010.8,-0.6,93,9,7000,14.816,,,220,,,,2,,,,,,50,wg-a,,,,AAXX 28124 07255 02257 82208 10100 20090 39909 40108 57006 60056 75065 875// 91200 333 60027=
07255,1997-11-28 15:00:00,12,1010.2,-0.5,88,10,20000,18.52,,,240,,,,,,,,,,3,wg-a,,,,AAXX 28154 07255 02370 72410 10120 20100 39904 40102 56005 61000 70352 878// 91500 333 ////=
07255,1997-11-28 18:00:00,11,1010.5,0.3,94,10,15000,18.52,,,210,7,11.7,,,,,,,,1,wg-a,,,,AAXX 28184 07255 12465 82110 10110 20100 39907 40105 51003 60006 70152 8783/ 91800 333 10117 20070=
07255,1997-11-28 21:00:00,10,1010.5,-0.1,87,8,25000,18.52,,,230,,,,,,,,,,1,wg-a,,,,AAXX 28214 07255 02775 12310 10100 20080 39906 40105 58001 61000 70186 81500 92100 333 ////=
07255,1997-11-29 00:00:00,11,1009.6,-0.8,87,9,25000,25.928,,,230,,,,,,,,,,3,wg-a,,,,AAXX 29004 07255 02675 /2314 10110 20090 39898 40096 58008 61000 70386 85500 90000 333 ////=
07255,1997-11-29 03:00:00,11,1009.6,-0,87,9,25000,29.632,,,260,,,,,,,,,,,wg-a,,,,AAXX 29034 07255 12575 72616 10110 20090 39898 40096 55000 60006 875// 90300=
07255,1997-11-29 06:00:00,10,1010.3,0.6,93,9,25000,18.52,,,240,9.4,11.2,,,,,,,,21,wg-a,,,,AAXX 29064 07255 02575 72410 10100 20090 39904 40103 51006 61000 72162 875// 90600 333 10112 20094 6005=
07255,1997-11-29 09:00:00,10,1010.3,-0,93,9,15000,14.816,,,230,,,,,,,,,,,wg-a,,,,AAXX 29094 07255 12465 72308 10100 20090 39904 40103 55000 60006 85802 90900=
07255,1997-11-29 15:00:00,11,1008,-1.4,87,9,40000,14.816,,,250,,,,,,,,,,,wg-a,,,,AAXX 29154 07255 12482 /2508 10110 20090 39882 40080 56014 60006 83201 91500=
07255,1997-11-29 18:00:00,8,1009.2,0.9,93,7,20000,14.816,,,260,7.4,11.8,,,,,,,,25,wg-a,,,,AAXX 29184 07255 02570 72608 10080 20070 39891 40092 50009 61000 72586 871// 91800 333 10118 20074 6003=
07255,1997-11-29 21:00:00,6,1009.9,0.6,100,6,25000,14.816,,,270,,,,,,,,,,,wg-a,,,,AAXX 29214 07255 12675 22708 10060 20060 39897 40099 53006 60006 82500 92100=
07255,1997-11-30 00:00:00,7,1010.8,1,100,7,12000,14.816,,,270,,,,,,,,,,,wg-a,,,,AAXX 30004 07255 12362 82708 10070 20070 39907 40108 52010 60006 878// 90000=
07255,1997-11-30 03:00:00,7,1011.2,0.4,100,7,8000,18.52,,,280,,,,,,,,,,61,wg-a,,,,AAXX 30034 07255 02258 82810 10070 20070 39911 40112 51004 61000 76162 877// 90300 333 ////=
07255,1997-11-30 06:00:00,7,1011.5,0.3,100,7,10000,18.52,,,270,5.9,7.6,,,,,3,,,2,wg-a,,,,AAXX 30064 07255 02260 82710 10070 20070 39914 40115 53003 60006 70262 877// 90600 333 10076 20059 60034=
07255,1997-11-30 09:00:00,8,1012.6,1.1,93,7,9000,22.224,,,280,,,,,,,,,,21,wg-a,,,,AAXX 30094 07255 02159 82812 10080 20070 39925 40126 53011 61000 72162 875// 90900 333 ////=
07255,1997-11-30 12:00:00,9,1012.8,0.3,87,7,12000,18.52,,,280,,,,,,,,,,1,wg-a,,,,AAXX 30124 07255 02262 82810 10090 20070 39928 40128 51003 61000 70162 875// 91200 333 ////=
07255,1997-11-30 15:00:00,9,1013.1,0.3,93,8,11000,14.816,,,280,,,,0,,,,,,3,wg-a,,,,AAXX 30154 07255 12261 82808 10090 20080 39931 40131 52003 60007 70362 875// 91500=
07255,1997-11-30 18:00:00,9,1013.9,0.8,93,8,9000,14.816,,,300,7.2,9.4,,,,,,,,3,wg-a,,,,AAXX 30184 07255 12459 83008 10090 20080 39939 40139 51008 60006 70362 875// 91800 333 10094 20072=
07255,1997-11-30 21:00:00,8,1015.4,1.4,93,7,12000,11.112,,,320,,,,0,,,,,,60,wg-a,,,,AAXX 30214 07255 12462 83206 10080 20070 39953 40154 51014 60007 76062 875// 92100=
07255,1997-12-01 00:00:00,8,1016.9,1.4,93,7,10000,14.816,,,330,,,,0,,,,,,3,wg-a,,,,AAXX 01004 07255 02360 83308 10080 20070 39967 40169 51014 60016 70362 875// 90000 333 60007=
07255,1997-12-01 03:00:00,5,1018,0.9,100,5,8000,7.408,,,320,,,,,,,,,,,wg-a,,,,AAXX 01034 07255 12558 /3204 10050 20050 39976 40180 51009 60006 86500 90300=
07255,1997-12-01 06:00:00,4,1018.5,0.4,100,4,500,7.408,,,300,3.6,9,,,,,1,,,,wg-a,,,,AAXX 01064 07255 02700 73004 10040 20040 39980 40185 53004 60006 875// 90600 333 10090 20036 60014=
07255,1997-12-01 09:00:00,5,1018.8,0.4,100,5,6000,3.704,,,300,,,,,,,,,,,wg-a,,,,AAXX 01094 07255 12456 73002 10050 20050 39984 40188 50004 60006 875// 90900=
07255,1997-12-01 12:00:00,7,1017.1,-1.6,87,5,7000,0,,,0,,,,,,,,,,,wg-a,,,,AAXX 01124 07255 12257 70000 10070 20050 39968 40171 58016 60006 875// 91200=
07255,1997-12-01 15:00:00,7,1014.9,-2.1,87,5,15000,7.408,,,170,,,,,,,,,,,wg-a,,,,AAXX 01154 07255 12465 71704 10070 20050 39947 40149 58021 60006 83831 91500=
07255,1997-12-01 18:00:00,5,1012.8,-2.2,93,4,10000,11.112,,,140,3.9,8.2,,,,,,,,,wg-a,,,,AAXX 01184 07255 12660 81406 10050 20040 39925 40128 58022 60006 8453/ 91800 333 10082 20039=
07255,1997-12-01 21:00:00,5,1008.5,-4.2,93,4,10000,18.52,,,150,,,,,,,,,,60,wg-a,,,,AAXX 01214 07255 02660 81510 10050 20040 39883 40085 58042 61000 76062 8657/ 92100 333 ////=
07255,1997-12-02 00:00:00,5,1002.9,-5.5,93,4,8000,18.52,,,160,,,,3,,,,,,60,wg-a,,,,AAXX 02004 07255 02458 81610 10050 20040 39828 40029 58055 60036 76062 875// 90000 333 60037=
07255,1997-12-02 03:00:00,8,996.8,-5.8,100,8,500,22.224,,,220,,,,1,,,,,,51,wg-a,,,,AAXX 02034 07255 12200 82212 10080 20080 39770 49968 56058 60017 75165 877// 90300=
07255,1997-12-02 06:00:00,7,995.7,-1.1,87,5,15000,31.484,,51.856,280,4.8,9.6,,,,,4,,,1,wg-a,,,,AAXX 02064 07255 02365 82817 10070 20050 39759 49957 55011 60006 70165 875// 90600 333 10096 20048 60044 91028=
07255,1997-12-02 09:00:00,2,1000,3.8,93,1,15000,29.632,,,310,,,,0,,,,,,21,wg-a,,,,AAXX 02094 07255 12265 83116 10020 20010 39797 40000 53038 60007 72162 877// 90900=
07255,1997-12-02 12:00:00,2,1003.1,3,93,1,12000,25.928,,,310,,,,0,,,,,,50,wg-a,,,,AAXX 02124 07255 02262 83114 10020 20010 39827 40031 51030 60016 75065 877// 91200 333 60007=
07255,1997-12-02 15:00:00,2,1005.1,2,93,1,8000,22.224,,,320,,,,,,,,,,61,wg-a,,,,AAXX 02154 07255 02258 83212 10020 20010 39847 40051 53020 61000 76176 877// 91500 333 ////=
07255,1997-12-02 18:00:00,3,1006.7,1.6,87,1,10000,18.52,,,320,1.7,7.4,,,,,,,,61,wg-a,,,,AAXX 02184 07255 02260 83210 10030 20010 39863 40067 51016 61000 76176 877// 91800 333 10074 20017 6100=
07255,1997-12-02 21:00:00,3,1008.1,1.4,93,2,10000,22.224,,,310,,,,1,,,,,,61,wg-a,,,,AAXX 02214 07255 12360 83112 10030 20020 39877 40081 53014 60017 76166 877// 92100=
07255,1997-12-03 00:00:00,2,1009.1,0.9,93,1,10000,22.224,,,310,,,,,,,,,,3,wg-a,,,,AAXX 03004 07255 02360 73112 10020 20010 39886 40091 52009 60016 70362 877// 90000 333 61000=
07255,1997-12-03 03:00:00,0,1009.7,0.5,93,-1,12000,14.816,,,320,,,,,,,,,,,wg-a,,,,AAXX 03034 07255 12/62 03208 10000 21010 39891 40097 53005 60006 80000 90300=
07255,1997-12-03 06:00:00,0,1011,1.2,86,-2,12000,14.816,,,330,-0.4,2.9,,,,,1,,,,wg-a,,,,AAXX 03064 07255 02662 73308 10000 21020 39903 40110 53012 60006 8353/ 90600 333 10029 21004 60014=
07255,1997-12-03 12:00:00,2,1014.4,1.6,80,-1,12000,18.52,,,10,,,,,,,,,,3,wg-a,,,,AAXX 03124 07255 02262 70110 10020 21010 39938 40144 51016 61000 70372 868// 91200 333 6100=
07255,1997-12-03 15:00:00,3,1015.3,1,70,-2,20000,18.52,,,10,,,,,,,,,,,wg-a,,,,AAXX 03154 07255 12470 70110 10030 21020 39948 40153 53010 60006 85832 91500=
07255,1997-12-03 18:00:00,1,1016.7,1.2,80,-2,18000,7.408,,,350,-0.3,3.4,,,,,,,,,wg-a,,,,AAXX 03184 07255 12/68 73504 10010 21020 39960 40167 51012 60006 82032 91800 333 10034 21003=
07255,1997-12-03 21:00:00,0,1017.5,0.7,93,-1,12000,7.408,,,20,,,,,,,,,,,wg-a,,,,AAXX 03214 07255 12/62 70204 10000 21010 39967 40175 51007 60006 85032 92100=
07255,1997-12-04 00:00:00,-1,1017.7,0.1,93,-2,8000,7.408,,,330,,,,,,,,,,,wg-a,,,,AAXX 04004 07255 12/58 /3304 11010 21020 39968 40177 50001 60006 81032 90000=
07255,1997-12-04 03:00:00,-1,1017.6,-0.1,100,-1,8000,7.408,,,310,,,,,,,,,,,wg-a,,,,AAXX 04034 07255 12458 83104 11010 21010 39967 40176 58001 60006 8687/ 90300=
07255,1997-12-04 06:00:00,0,1016.4,-1.1,93,-1,6000,7.408,,,330,-1.2,1.2,,,,,,,,,wg-a,,,,AAXX 04064 07255 02456 83304 10000 21010 39956 40164 56011 60006 878// 90600 333 10012 21012 61000=
07255,1997-12-04 09:00:00,1,1016.4,0.1,93,0,7000,3.704,,,350,,,,,,,,,,,wg-a,,,,AAXX 04094 07255 12457 73502 10010 20000 39957 40164 53001 60006 875// 90900=
07255,1997-12-04 12:00:00,1,1016.7,0.3,86,-1,2000,14.816,,,60,,,,,,,,,,10,wg-a,,,,AAXX 04124 07255 02220 80608 10010 21010 39960 40167 50003 61000 71076 875// 91200 333 6100=
07255,1997-12-04 15:00:00,1,1017.3,0.6,93,0,6000,11.112,,,40,,,,1,,,,,,22,wg-a,,,,AAXX 04154 07255 12356 70406 10010 20000 39966 40173 53006 60017 72272 87802 91500=
07255,1997-12-04 18:00:00,1,1018.4,1,86,-1,6000,14.816,,,40,-0.3,1.5,,,,,,,,1,wg-a,,,,AAXX 04184 07255 12456 80408 10010 21010 39976 40184 53010 60006 70172 875// 91800 333 10015 21003=
07255,1997-12-04 21:00:00,1,1019.9,1.5,86,-1,7000,14.816,,,70,,,,,,,,,,,wg-a,,,,AAXX 04214 07255 12457 80708 10010 21010 39991 40199 53015 60006 875// 92100=
07255,1997-12-05 00:00:00,1,1020.6,0.7,86,-1,6000,14.816,,,60,,,,,,,,,,,wg-a,,,,AAXX 05004 07255 12456 80608 10010 21010 39998 40206 51007 60006 875// 90000=
07255,1997-12-05 03:00:00,1,1021.2,0.6,86,-1,6000,14.816,,,70,,,,,,,,,,,wg-a,,,,AAXX 05034 07255 12656 80708 10010 21010 30004 40212 50006 60006 875// 90300=
07255,1997-12-05 06:00:00,0,1022.2,0.9,86,-2,6000,11.112,,,70,-0.4,1.3,,,,,1,,,,wg-a,,,,AAXX 05064 07255 02/56 00706 10000 21020 30013 40222 51009 60006 80000 90600 333 10013 21004 60014=
07255,1997-12-05 09:00:00,-1,1024.6,2.3,93,-2,6000,18.52,,,90,,,,,,,,,,,wg-a,,,,AAXX 05094 07255 12256 70910 11010 21020 30036 40246 51023 60006 876// 90900=
07255,1997-12-05 12:00:00,1,1025.1,0.6,86,-1,10000,11.112,,,40,,,,,,,,,,,wg-a,,,,AAXX 05124 07255 12360 70406 10010 21010 30042 40251 50006 60006 876// 91200=
07255,1997-12-05 15:00:00,3,1025.2,0.2,81,0,10000,11.112,,,70,,,,,,,,,,,wg-a,,,,AAXX 05154 07255 12460 70706 10030 20000 30044 40252 53002 60006 876// 91500=
07255,1997-12-05 18:00:00,2,1026.5,1.3,87,0,10000,11.112,,,40,-0.8,2.6,,,,,,,,,wg-a,,,,AAXX 05184 07255 12360 80406 10020 20000 30057 40265 53013 60006 886// 91800 333 10026 21008=
07255,1997-12-05 21:00:00,2,1027.2,0.6,80,-1,10000,7.408,,,80,,,,,,,,,,,wg-a,,,,AAXX 05214 07255 12460 80804 10020 21010 30063 40272 51006 60006 886// 92100=
07255,1997-12-06 00:00:00,1,1027.5,0.2,86,-1,10000,3.704,,,120,,,,,,,,,,,wg-a,,,,AAXX 06004 07255 12460 81202 10010 21010 30065 40275 50002 60006 886// 90000=
07255,1997-12-06 03:00:00,0,1027.5,-0,86,-2,10000,3.704,,,60,,,,,,,,,,,wg-a,,,,AAXX 06034 07255 12460 80602 10000 21020 30065 40275 54000 60006 886// 90300=
07255,1997-12-06 06:00:00,0,1027.4,-0.1,86,-2,0,3.704,,,150,0.3,2.1,,,,,,,,,wg-a,,,,AAXX 06064 07255 02/// /1502 10000 21020 30064 40274 55001 60006 90600 333 10021 20003 60004=
07255,1997-12-06 12:00:00,2,1027.1,-0.5,75,-2,12000,7.408,,,180,,,,,,,,,,,wg-a,,,,AAXX 06124 07255 12462 71804 10020 21020 30062 40271 58005 60006 86501 91200=
07255,1997-12-06 15:00:00,3,1026.2,-0.8,70,-2,12000,7.408,,,140,,,,,,,,,,,wg-a,,,,AAXX 06154 07255 12462 21404 10030 21020 30054 40262 55008 60006 81501 91500=
07255,1997-12-06 18:00:00,-1,1026.1,-0.3,93,-2,10000,7.408,,,150,-0.6,3.3,,,,,,,,,wg-a,,,,AAXX 06184 07255 12/60 01504 11010 21020 30051 40261 58003 60006 80000 91800 333 10033 21006=
07255,1997-12-06 21:00:00,-2,1026.2,0,93,-3,10000,11.112,,,140,,,,,,,,,,,wg-a,,,,AAXX 06214 07255 12/60 01406 11020 21030 30051 40262 50000 60006 80000 92100=
07255,1997-12-07 00:00:00,-3,1025.3,-1,93,-4,8000,11.112,,,120,,,,,,,,,,,wg-a,,,,AAXX 07004 07255 12/58 01206 11030 21040 30041 40253 58010 60006 80000 90000=
07255,1997-12-07 06:00:00,-2,1021.6,-1.7,86,-4,500,22.224,,,110,-3.3,-0.5,,,,,,,,,wg-a,,,,AAXX 07064 07255 02/00 01112 11020 21040 30005 40216 58017 60006 80000 90600 333 11005 21033 60004=
07255,1997-12-07 09:00:00,-1,1020.9,-0.5,86,-3,6000,14.816,,,110,,,,,,,,,,,wg-a,,,,AAXX 07094 07255 12/56 /1108 11010 21030 30000 40209 55005 60006 80001 90900=
07255,1997-12-07 12:00:00,4,1018.4,-2.1,70,-1,9000,18.52,,,130,,,,,,,,,,,wg-a,,,,AAXX 07124 07255 12/59 21310 10040 21010 39979 40184 56021 60006 80001 91200=
07255,1997-12-07 15:00:00,6,1016.1,-2.2,65,0,10000,7.408,,,130,,,,,,,,,,,wg-a,,,,AAXX 07154 07255 12/60 51304 10060 20000 39957 40161 56022 60006 80002 91500=
07255,1997-12-07 18:00:00,1,1015.5,-0.9,86,-1,8000,14.816,,,120,-2.7,6.5,,,,,,,,,wg-a,,,,AAXX 07184 07255 12/58 71208 10010 21010 39948 40155 58009 60006 8703/ 91800 333 10065 21027=
07255,1997-12-07 21:00:00,-1,1014.9,-0.8,93,-2,10000,11.112,,,120,,,,,,,,,,,wg-a,,,,AAXX 07214 07255 12/60 31206 11010 21020 39940 40149 56008 60006 83030 92100=
07255,1997-12-08 00:00:00,0,1014.1,-0.6,93,-1,12000,11.112,,,120,,,,,,,,,,,wg-a,,,,AAXX 08004 07255 12662 71206 10000 21010 39934 40141 57006 60006 8353/ 90000=
07255,1997-12-08 03:00:00,2,1013,-1,80,-1,15000,11.112,,,120,,,,,,,,,,3,wg-a,,,,AAXX 08034 07255 02665 81206 10020 21010 39924 40130 57010 61000 70362 875// 90300 333 ////=
07255,1997-12-08 06:00:00,3,1013,0.1,75,-1,15000,7.408,,,150,-2,2.9,,,,,,,,1,wg-a,,,,AAXX 08064 07255 02/65 31504 10030 21010 39925 40130 50001 60006 70161 83030 90600 333 10029 21020 61000=
07255,1997-12-08 09:00:00,5,1013.5,0.7,65,-1,25000,18.52,,,210,,,,,,,,,,,wg-a,,,,AAXX 08094 07255 12575 /2110 10050 21010 39932 40135 51007 60006 85230 90900=
07255,1997-12-08 12:00:00,11,1011.9,-1.2,76,7,25000,14.816,,,240,,,,,,,,,,,wg-a,,,,AAXX 08124 07255 12575 /2408 10110 20070 39920 40119 58012 60006 86500 91200=
07255,1997-12-08 15:00:00,11,1010.1,-1.7,82,8,20000,18.52,,,220,,,,,,,,,,,wg-a,,,,AAXX 08154 07255 12570 72210 10110 20080 39903 40101 56017 60006 84832 91500=
07255,1997-12-08 17:00:00,9,1011,0.2,81,6,18000,18.52,,,200,,,,,,,,,,,wg-a,,,,AAXX 08174 07255 12668 72010 10090 20060 39910 40110 53002 60006 91700=
07255,1997-12-08 18:00:00,9,1010.5,0.2,81,6,18000,18.52,,,200,2.1,12.4,,,,,,,,,wg-a,,,,AAXX 08184 07255 12668 72010 10090 20060 39905 40105 53002 60006 8353/ 91800 333 10124 20021=
07255,1997-12-08 21:00:00,8,1010.7,0.2,93,7,15000,14.816,,,220,,,,,,,,,,,wg-a,,,,AAXX 08214 07255 12665 72208 10080 20070 39907 40107 53002 60006 875// 92100=
07255,1997-12-09 00:00:00,9,1011.8,1.1,93,8,15000,18.52,,,250,,,,,,,,,,20,wg-a,,,,AAXX 09004 07255 02465 72510 10090 20080 39918 40118 51011 61000 72051 875// 90000 333 6100=
07255,1997-12-09 03:00:00,8,1013.1,1.2,93,7,12000,11.112,,,250,,,,,,,,,,,wg-a,,,,AAXX 09034 07255 12562 /2506 10080 20070 39930 40131 53012 60006 86500 90300=
07255,1997-12-09 06:00:00,8,1014.8,1.6,93,7,12000,14.816,,,260,7.6,9.2,,,,,,,,,wg-a,,,,AAXX 09064 07255 02562 72608 10080 20070 39946 40148 53016 60006 875// 90600 333 10092 20076 61000=
07255,1997-12-09 09:00:00,9,1016.6,1.9,87,7,10000,11.112,,,270,,,,,,,,,,21,wg-a,,,,AAXX 09094 07255 02260 72706 10090 20070 39965 40166 53019 61000 72162 86730 90900 333 ////=
07255,1997-12-09 12:00:00,10,1017.1,0.6,87,8,18000,18.52,,,260,,,,,,,,,,3,wg-a,,,,AAXX 09124 07255 02368 72610 10100 20080 39971 40171 51006 61000 70362 877// 91200 333 ////=
07255,1997-12-09 18:00:00,7,1018,0.3,93,6,20000,11.112,,,220,7.4,11.5,,,,,,,,,wg-a,,,,AAXX 09184 07255 12770 72206 10070 20060 39978 40180 53003 60006 81531 91800 333 10115 20074=
07255,1997-12-09 21:00:00,7,1018.5,0.4,93,6,20000,14.816,,,210,,,,,,,,,,,wg-a,,,,AAXX 09214 07255 12470 /2108 10070 20060 39982 40185 53004 60006 85501 92100=
07255,1997-12-10 00:00:00,7,1018.1,-0.4,93,6,18000,18.52,,,220,,,,,,,,,,,wg-a,,,,AAXX 10004 07255 12/68 72210 10070 20060 39978 40181 56004 60006 83031 90000=
07255,1997-12-10 03:00:00,8,1016.9,-1.1,93,7,15000,18.52,,,200,,,,,,,,,,,wg-a,,,,AAXX 10034 07255 12565 72010 10080 20070 39967 40169 56011 60006 8653/ 90300=
07255,1997-12-10 06:00:00,9,1015.5,-1.2,93,8,12000,14.816,,,220,6.5,9.5,,,,,,,,,wg-a,,,,AAXX 10064 07255 02462 82208 10090 20080 39955 40155 56012 60006 8557/ 90600 333 10095 20065 61000=
07255,1997-12-10 09:00:00,10,1015,-0.5,93,9,6000,22.224,,,220,,,,1,,,,,,61,wg-a,,,,AAXX 10094 07255 12356 82212 10100 20090 39950 40150 56005 60017 76165 875// 90900=
07255,1997-12-10 12:00:00,11,1013.4,-1.5,87,9,8000,31.484,,,240,,,,1,,,,,,60,wg-a,,,,AAXX 10124 07255 02358 82417 10110 20090 39935 40134 58015 60026 76065 877// 91200 333 60017=
07255,1997-12-10 18:00:00,11,1014.9,1.4,94,10,8000,29.632,,,250,9.3,11.3,,,,,,,,20,wg-a,,,,AAXX 10184 07255 02358 82516 10110 20100 39950 40149 51014 61000 72065 875// 91800 333 10113 20093 ////=
07255,1997-12-10 21:00:00,11,1016.3,1.4,100,11,15000,25.928,,,250,,,,,,,,,,2,wg-a,,,,AAXX 10214 07255 02465 82514 10110 20110 39964 40163 53014 61000 70252 877// 92100 333 ////=
07255,1997-12-11 00:00:00,12,1015.1,-1.2,94,11,6000,25.928,,,230,,,,,,,,,,50,wg-a,,,,AAXX 11004 07255 02356 82314 10120 20110 39952 40151 58012 61000 75065 877// 90000 333 6100=
07255,1997-12-11 03:00:00,12,1013.7,-1.3,100,12,12000,29.632,,,230,,,,1,,,,,,60,wg-a,,,,AAXX 11034 07255 12362 82316 10120 20120 39939 40137 58013 60017 76065 877// 90300=
07255,1997-12-11 06:00:00,14,1012.6,-1,94,13,7000,31.484,,,260,10.9,13.8,,,,,,,,61,wg-a,,,,AAXX 11064 07255 02357 82617 10140 20130 39929 40126 56010 61000 76165 877// 90600 333 10138 20109 6006=
07255,1997-12-11 09:00:00,14,1012.8,0.2,94,13,6000,29.632,,,250,,,,0,,,,,,51,wg-a,,,,AAXX 11094 07255 12256 82516 10140 20130 39931 40128 52002 60007 75165 875// 90900=
07255,1997-12-11 12:00:00,14,1011.7,-1,94,13,12000,31.484,,,250,,,,2,,,,,,61,wg-a,,,,AAXX 11124 07255 02362 82517 10140 20130 39921 40117 58010 60026 76165 875// 91200 333 60027=
07255,1997-12-11 15:00:00,14,1010.8,-0.9,94,13,18000,25.928,,,260,,,,1,,,,,,21,wg-a,,,,AAXX 11154 07255 12368 82614 10140 20130 39912 40108 56009 60017 72162 877// 91500=
07255,1997-12-11 18:00:00,13,1011,0.1,88,11,12000,25.928,,,280,13,14.2,,1,,,,,,1,wg-a,,,,AAXX 11184 07255 02462 72814 10130 20110 39913 40110 53001 60006 70162 8217/ 91800 333 10142 20130 60017=
07255,1997-12-12 00:00:00,10,1014.1,1.9,93,9,15000,18.52,,,270,,,,,,,,,,60,wg-a,,,,AAXX 12004 07255 02565 72710 10100 20090 39941 40141 51019 61000 76062 855// 90000 333 6100=
07255,1997-12-12 03:00:00,9,1015.7,1.5,87,7,15000,22.224,,,280,,,,,,,,,,3,wg-a,,,,AAXX 12034 07255 32465 72812 10090 20070 39956 40157 53015 70362 87800 90300=
07255,1997-12-12 06:00:00,7,1017.3,1.5,93,6,12000,18.52,,,280,7.2,13,,,,,5,,,3,wg-a,,,,AAXX 12064 07255 02462 32810 10070 20060 39971 40173 52015 60006 70361 83200 90600 333 10130 20072 60054=
07255,1997-12-12 12:00:00,8,1021.7,1.6,87,6,500,14.816,,,310,,,,,,,,,,,wg-a,,,,AAXX 12124 07255 12400 73108 10080 20060 30014 40217 51016 60006 878// 91200=
07255,1997-12-12 18:00:00,7,1026.5,2.7,81,4,25000,11.112,,,320,6.4,8.6,,,,,,,,,wg-a,,,,AAXX 12184 07255 12675 73206 10070 20040 30061 40265 53027 60006 875// 91800 333 10086 20064=
07255,1997-12-12 21:00:00,6,1028.5,1.8,87,4,20000,11.112,,,330,,,,,,,,,,,wg-a,,,,AAXX 12214 07255 12670 /3306 10060 20040 30079 40285 51018 60006 86500 92100=
07255,1997-12-13 00:00:00,4,1029.9,1.3,93,3,15000,7.408,,,310,,,,,,,,,,,wg-a,,,,AAXX 13004 07255 12665 83104 10040 20030 30092 40299 53013 60006 81532 90000=
07255,1997-12-13 06:00:00,1,1031.6,0.8,93,0,200,7.408,,,360,0.7,7.5,,,,,,,,45,wg-a,,,,AAXX 13064 07255 02/02 93604 10010 20000 30106 40316 53008 60006 74541 89/// 90600 333 10075 20007 60004=
07255,1997-12-13 09:00:00,1,1033.4,1.7,100,1,100,3.704,,,210,,,,,,,,,,45,wg-a,,,,AAXX 13094 07255 12/01 92102 10010 20010 30123 40334 53017 60006 74544 89/// 90900=
07255,1997-12-13 12:00:00,2,1033.7,0.4,100,2,200,3.704,,,190,,,,,,,,,,43,wg-a,,,,AAXX 13124 07255 12/02 91902 10020 20020 30127 40337 50004 60006 74344 89/// 91200=
07255,1997-12-13 15:00:00,3,1033.9,0.3,100,3,3500,3.704,,,180,,,,,,,,,,10,wg-a,,,,AAXX 13154 07255 12235 71802 10030 20030 30130 40339 53003 60006 71042 876// 91500=
07255,1997-12-13 18:00:00,2,1034.5,0.5,100,2,3000,3.704,,,30,0.2,3.7,,,,,,,,10,wg-a,,,,AAXX 13184 07255 12330 40302 10020 20020 30135 40345 51005 60006 71041 83501 91800 333 10037 20002=
07255,1997-12-14 00:00:00,-2,1034.9,-0.2,100,-2,300,3.704,,,220,,,,,,,,,,49,wg-a,,,,AAXX 14004 07255 12/03 92202 11020 21020 30135 40349 58002 60006 74941 89/// 90000=
07255,1997-12-14 06:00:00,-2,1033.4,-1,100,-2,300,0,,,0,-2.8,1.8,,,,,,,,49,wg-a,,,,AAXX 14064 07255 02/03 90000 11020 21020 30121 40334 56010 60006 74942 89/// 90600 333 10018 21028 60004=
07255,1997-12-14 09:00:00,-2,1032.9,-0.5,100,-2,100,7.408,,,140,,,,,,,,,,49,wg-a,,,,AAXX 14094 07255 12/01 91404 11020 21020 30116 40329 56005 60006 74944 89/// 90900=
07255,1997-12-14 12:00:00,-1,1031.5,-1.3,100,-1,100,3.704,,,130,,,,,,,,,,45,wg-a,,,,AAXX 14124 07255 12/01 91302 11010 21010 30103 40315 58013 60006 74544 89/// 91200=
07255,1997-12-14 15:00:00,1,1029.1,-2.2,100,1,800,3.704,,,110,,,,0,,,,,,42,wg-a,,,,AAXX 14154 07255 12108 81102 10010 20010 30081 40291 56022 60007 74244 876// 91500=
07255,1997-12-14 18:00:00,1,1028,-1.1,100,1,600,3.704,,,360,-2.3,0.8,,,,,,,,44,wg-a,,,,AAXX 14184 07255 12006 83602 10010 20010 30070 40280 58011 60006 74442 886// 91800 333 10008 21023=
07255,1997-12-14 21:00:00,0,1026.3,-1.7,100,0,200,7.408,,,300,,,,,,,,,,45,wg-a,,,,AAXX 14214 07255 12/02 93004 10000 20000 30053 40263 58017 60006 74544 89/// 92100=
07255,1997-12-15 00:00:00,0,1024.5,-1.7,100,0,1200,3.704,,,330,,,,,,,,,,10,wg-a,,,,AAXX 15004 07255 02012 73302 10000 20000 30036 40245 56017 61000 71064 876// 90000 333 6100=
07255,1997-12-15 03:00:00,1,1023.6,-0.9,100,1,2500,3.704,,,40,,,,,,,,,,10,wg-a,,,,AAXX 15034 07255 12125 70402 10010 20010 30027 40236 58009 60006 71042 876// 90300=
07255,1997-12-15 06:00:00,2,1022.5,-1,100,2,6000,18.52,,,60,-0.5,1.9,,,,,,,,3,wg-a,,,,AAXX 15064 07255 02256 80610 10020 20020 30017 40225 56010 60006 70342 875// 90600 333 10019 21005 60004=
07255,1997-12-15 09:00:00,2,1022.6,0.1,80,-1,20000,18.52,,,60,,,,,,,,,,,wg-a,,,,AAXX 15094 07255 12470 /0610 10020 21010 30018 40226 52001 60006 81800 90900=
07255,1997-12-15 12:00:00,3,1021.3,-1.1,81,0,12000,25.928,,44.448,70,,,,,,,,,,15,wg-a,,,,AAXX 15124 07255 12462 /0714 10030 20000 30007 40213 58011 60006 71511 86800 91200 333 91024=
07255,1997-12-15 15:00:00,3,1020.6,-0.7,75,-1,25000,22.224,,,60,,,,,,,,,,,wg-a,,,,AAXX 15154 07255 12475 80612 10030 21010 30000 40206 56007 60006 888// 91500=
07255,1997-12-15 18:00:00,3,1020.7,-0,70,-2,20000,22.224,,,60,1.6,3.6,,,,,,,,,wg-a,,,,AAXX 15184 07255 12670 80612 10030 21020 30000 40207 54000 60006 875// 91800 333 10036 20016=
07255,1997-12-16 00:00:00,1,1019.4,-1,80,-2,20000,22.224,,,70,,,,,,,,,,,wg-a,,,,AAXX 16004 07255 12670 /0712 10010 21020 39986 40194 58010 60006 86502 90000=
07255,1997-12-16 03:00:00,0,1017.9,-1.5,80,-3,18000,22.224,,,80,,,,,,,,,,,wg-a,,,,AAXX 16034 07255 12/68 20812 10000 21030 39971 40179 58015 60006 80001 90300=
07255,1997-12-16 06:00:00,-1,1016,-1.9,80,-4,15000,25.928,,,70,-0.7,2.9,,,,,,,,,wg-a,,,,AAXX 16064 07255 02/65 20714 11010 21040 39952 40160 56019 60006 80001 90600 333 10029 21007 60004=
07255,1997-12-16 15:00:00,1,1008.9,,80,-2,12000,31.484,,,100,,,,,,,,,,22,wg-a,,,,AAXX 16154 07255 02562 71017 10010 21020 39883 40089 61000 72272 875// 91500 333 ////=
07255,1997-12-16 18:00:00,1,1007.3,-1.5,80,-2,12000,22.224,,,100,-1.2,1.4,,,,,,,,2,wg-a,,1,,AAXX 16184 07255 12662 81012 10010 21020 39868 40073 57015 60006 70272 875// 91800 333 10014 21012 4/001=
07255,1997-12-16 21:00:00,5,1004.3,-2.7,60,-2,15000,38.892,,68.524,110,,,,,,,,,,61,wg-a,,,,AAXX 16214 07255 02665 81121 10050 21020 39841 40043 56027 61000 76176 875// 92100 333 //// 91037=
07255,1997-12-17 00:00:00,3,1003.3,-1.1,87,1,12000,42.596,,,120,,,,0,,,,,,21,wg-a,,,,AAXX 17004 07255 02462 81223 10030 20010 39830 40033 58011 60006 72176 875// 90000 333 60007=
07255,1997-12-17 03:00:00,3,1000.7,-2.5,87,1,15000,31.484,,,120,,,,,,,,,,,wg-a,,,,AAXX 17034 07255 12465 81217 10030 20010 39805 40007 56025 60006 875// 90300=
07255,1997-12-17 06:00:00,4,1000.8,0.1,87,2,12000,18.52,,,130,,,,,,,,,,61,wg-a,,,,AAXX 17064 07255 02562 71310 10040 20020 39806 40008 53001 61000 76162 8557/ 90600 333 6001=
07255,1997-12-17 09:00:00,4,1000.7,-0.1,93,3,7000,14.816,,,100,,,,1,,,,,,50,wg-a,,,,AAXX 17094 07255 12457 81008 10040 20030 39805 40007 58001 60017 75065 875// 90900=
07255,1997-12-17 12:00:00,6,999.4,-1.1,93,5,7000,18.52,,,110,,,,2,,,,,,61,wg-a,,,,AAXX 17124 07255 02657 81110 10060 20050 39794 49994 58011 60036 76165 875// 91200 333 60027=
07255,1997-12-17 15:00:00,9,998.6,-0.6,87,7,35000,18.52,,,120,,,,0,,,,,,21,wg-a,,,,AAXX 17154 07255 12781 71210 10090 20070 39788 49986 55006 60007 72162 8651/ 91500=
07255,1997-12-17 18:00:00,10,998.3,-0.2,82,7,25000,22.224,,,140,,,,,,,,,,1,wg-a,,,,AAXX 17184 07255 12/75 81412 10100 20070 39786 49983 55002 60006 70162 8702/ 91800=
07255,1997-12-17 21:00:00,10,998.5,0.2,82,7,25000,22.224,,,140,,,,,,,,,,,wg-a,,,,AAXX 17214 07255 12775 71412 10100 20070 39788 49985 52002 60006 875// 92100=
07255,1997-12-18 00:00:00,11,997.8,-0.6,76,7,20000,25.928,,,140,,,,,,,,,,,wg-a,,,,AAXX 18004 07255 12670 81414 10110 20070 39782 49978 58006 60006 8447/ 90000=
07255,1997-12-18 03:00:00,11,998.1,0.3,82,8,11000,22.224,,,130,,,,,,,,,,,wg-a,,,,AAXX 18034 07255 32/61 /1312 10110 20080 39785 49981 53003 90300=
07255,1997-12-18 06:00:00,10,997.4,-0.7,93,9,10000,29.632,,,140,9.5,11.5,,,,,,,,61,wg-a,,,,AAXX 18064 07255 02660 81416 10100 20090 39778 49974 58007 61000 76162 8552/ 90600 333 10115 20095 6006=
07255,1997-12-18 09:00:00,11,998.3,0.9,87,9,20000,14.816,,,130,,,,1,,,,,,60,wg-a,,,,AAXX 18094 07255 12670 81308 10110 20090 39787 49983 53009 60017 76062 855// 90900=
07255,1997-12-18 12:00:00,11,999.3,1,94,10,7000,7.408,,,120,,,,5,,,,,,61,wg-a,,,,AAXX 18124 07255 02257 81204 10110 20100 39797 49993 51010 60066 76162 875// 91200 333 60057=
07255,1997-12-18 15:00:00,10,997.8,-1.5,93,9,12000,18.52,,,110,,,,,,,,,,21,wg-a,,,,AAXX 18154 07255 32262 81110 10100 20090 39782 49978 58015 72162 8557/ 91500=
07255,1997-12-18 18:00:00,11,997.1,-0.7,87,9,10000,18.52,,,150,,,,,,,,,,61,wg-a,,,,AAXX 18184 07255 02660 81510 10110 20090 39775 49971 55007 61000 76162 8557/ 91800 333 ////=
07255,1997-12-18 21:00:00,10,997.7,0.5,93,9,15000,14.816,,,170,,,,1,,,,,,61,wg-a,,,,AAXX 18214 07255 12765 81708 10100 20090 39780 49977 51005 60017 76166 8557/ 92100=
07255,1997-12-19 00:00:00,9,998,0.3,93,8,10000,18.52,,,220,,,,1,,,,,,61,wg-a,,,,AAXX 19004 07255 02660 82210 10090 20080 39783 49980 53003 60026 76162 8657/ 90000 333 60017=
07255,1997-12-19 03:00:00,8,999.3,1.1,93,7,15000,11.112,,,190,,,,1,,,,,,1,wg-a,,,,AAXX 19034 07255 12565 71906 10080 20070 39794 49993 53011 60017 70162 875// 90300=
07255,1997-12-19 06:00:00,5,999.5,0.1,100,5,12000,11.112,,,120,5.2,10.9,,,,,16,,,1,wg-a,,,,AAXX 19064 07255 02/62 61206 10050 20050 39795 49995 52001 60006 70162 80001 90600 333 10109 20052 60164=
07255,1997-12-19 09:00:00,6,1000.6,1.1,93,5,40000,11.112,,,150,,,,,,,,,,,wg-a,,,,AAXX 19094 07255 12782 61506 10060 20050 39806 40006 53011 60006 81532 90900=
07255,1997-12-19 12:00:00,10,1000.3,0,82,7,35000,11.112,,,120,,,,,,,,,,1,wg-a,,,,AAXX 19124 07255 02681 61206 10100 20070 39806 40003 50000 61000 70186 83832 91200 333 6100=
07255,1997-12-19 15:00:00,11,999.8,-0.4,87,9,20000,7.408,,,140,,,,,,,,,,80,wg-a,,,,AAXX 19154 07255 02670 71404 10110 20090 39802 49998 55004 61000 78086 85872 91500 333 ////=
07255,1997-12-19 18:00:00,7,999.9,-0.2,93,6,20000,14.816,,,130,5,11.4,,0,,,,,,1,wg-a,,,,AAXX 19184 07255 02670 61308 10070 20060 39800 49999 55002 60006 70186 83802 91800 333 10114 20050 60007=
07255,1997-12-19 21:00:00,6,1000.5,0.5,93,5,18000,11.112,,,160,,,,,,,,,,,wg-a,,,,AAXX 19214 07255 12/68 31606 10060 20050 39805 40005 51005 60006 80001 92100=
07255,1997-12-20 00:00:00,6,1000.2,-0.3,93,5,18000,7.408,,,160,,,,,,,,,,,wg-a,,,,AAXX 20004 07255 12/68 61604 10060 20050 39802 40002 58003 60006 83032 90000=
07255,1997-12-20 03:00:00,7,1000.5,0.4,93,6,15000,11.112,,,220,,,,,,,,,,,wg-a,,,,AAXX 20034 07255 12765 72206 10070 20060 39806 40005 53004 60006 84532 90300=
07255,1997-12-20 06:00:00,6,1001.2,0.6,93,5,12000,11.112,,,230,5.2,7.4,,,,,,,,,wg-a,,,,AAXX 20064 07255 02/62 82306 10060 20050 39812 40012 53006 60006 82038 90600 333 10074 20052 60004=
07255,1997-12-20 09:00:00,6,1003.1,1.8,93,5,15000,7.408,,,210,,,,,,,,,,,wg-a,,,,AAXX 20094 07255 12/65 62104 10060 20050 39830 40031 51018 60006 80002 90900=
07255,1997-12-20 15:00:00,11,1003.8,0.6,76,7,20000,11.112,,,230,,,,,,,,,,,wg-a,,,,AAXX 20154 07255 12570 /2306 10110 20070 39841 40038 53006 60006 82201 91500=
07255,1997-12-20 18:00:00,8,1005.3,1.2,87,6,20000,11.112,,,150,5.4,11.9,,,,,,,,,wg-a,,,,AAXX 20184 07255 12670 71506 10080 20060 39853 40053 53012 60006 875// 91800 333 10119 20054=
07255,1997-12-20 21:00:00,7,1005.8,0.4,87,5,20000,11.112,,,160,,,,,,,,,,,wg-a,,,,AAXX 20214 07255 12670 /1606 10070 20050 39857 40058 52004 60006 85502 92100=
07255,1997-12-21 00:00:00,7,1006.3,0.5,87,5,15000,11.112,,,100,,,,,,,,,,,wg-a,,,,AAXX 21004 07255 12665 71006 10070 20050 39862 40063 53005 60006 875// 90000=
07255,1997-12-21 03:00:00,6,1007.3,0.9,87,4,15000,11.112,,,90,,,,,,,,,,,wg-a,,,,AAXX 21034 07255 12665 70906 10060 20040 39871 40073 53009 60006 875// 90300=
07255,1997-12-21 06:00:00,4,1009.1,1.7,93,3,10000,11.112,,,50,4.1,8.2,,,,,,,,,wg-a,,,,AAXX 21064 07255 02660 40506 10040 20030 39888 40091 53017 60006 82502 90600 333 10082 20041 60004=
07255,1997-12-21 09:00:00,3,1011.8,2.6,100,3,800,11.112,,,330,,,,,,,,,,44,wg-a,,,,AAXX 21094 07255 12108 73306 10030 20030 39914 40118 53026 60006 74441 876// 90900=
07255,1997-12-21 12:00:00,4,1012.9,1.1,100,4,300,7.408,,,310,,,,,,,,,,43,wg-a,,,,AAXX 21124 07255 12/03 93104 10040 20040 39925 40129 50011 60006 74341 89/// 91200=
07255,1997-12-21 15:00:00,5,1013.4,0.6,100,5,1000,7.408,,,330,,,,,,,,,,10,wg-a,,,,AAXX 21154 07255 12110 83304 10050 20050 39931 40134 53006 60006 71042 886// 91500=
07255,1997-12-21 18:00:00,4,1014.5,1,100,4,2200,7.408,,,290,2.9,5,,,,,,,,10,wg-a,,,,AAXX 21184 07255 12122 82904 10040 20040 39941 40145 52010 60006 71042 886// 91800 333 10050 20029=
07255,1997-12-21 21:00:00,5,1015.2,0.7,100,5,1800,3.704,,,280,,,,,,,,,,10,wg-a,,,,AAXX 21214 07255 02118 82802 10050 20050 39948 40152 51007 61000 71052 886// 92100 333 ////=
07255,1997-12-22 00:00:00,5,1015,-0.2,100,5,7000,0,,,0,,,,,,,,,,1,wg-a,,,,AAXX 22004 07255 02257 80000 10050 20050 39946 40150 58002 61000 70152 886// 90000 333 6100=
07255,1997-12-22 03:00:00,5,1015.1,0.1,93,4,10000,3.704,,,150,,,,,,,,,,,wg-a,,,,AAXX 22034 07255 12360 81502 10050 20040 39947 40151 50001 60006 886// 90300=
07255,1997-12-22 06:00:00,4,1014.6,-0.5,93,3,10000,11.112,,,140,4,4.9,,,,,,,,,wg-a,,,,AAXX 22064 07255 02360 81406 10040 20030 39942 40146 55005 60006 886// 90600 333 10049 20040 61000=
07255,1997-12-22 09:00:00,4,1014.9,0.3,93,3,15000,14.816,,,120,,,,,,,,,,,wg-a,,,,AAXX 22094 07255 12365 81208 10040 20030 39945 40149 53003 60006 885// 90900=
07255,1997-12-22 12:00:00,6,1013.6,-1.2,87,4,20000,18.52,,,130,,,,,,,,,,,wg-a,,,,AAXX 22124 07255 12470 81310 10060 20040 39933 40136 58012 60006 885// 91200=
07255,1997-12-22 15:00:00,6,1012.7,-0.9,81,3,25000,25.928,,,110,,,,,,,,,,,wg-a,,,,AAXX 22154 07255 12475 71114 10060 20030 39924 40127 55009 60006 83534 91500=
07255,1997-12-22 18:00:00,4,1013.2,0.4,93,3,15000,18.52,,,120,3.9,6.8,,,,,,,,,wg-a,,,,AAXX 22184 07255 12465 71210 10040 20030 39928 40132 52004 60006 8557/ 91800 333 10068 20039=
07255,1997-12-22 21:00:00,4,1014,0.8,93,3,12000,14.816,,,140,,,,,,,,,,,wg-a,,,,AAXX 22214 07255 12462 81408 10040 20030 39936 40140 51008 60006 875// 92100=
07255,1997-12-23 00:00:00,4,1014.8,0.8,93,3,10000,7.408,,,120,,,,,,,,,,,wg-a,,,,AAXX 23004 07255 12460 81204 10040 20030 39944 40148 52008 60006 8557/ 90000=
07255,1997-12-23 06:00:00,5,1018.5,1.8,93,4,500,7.408,,,290,3.8,4.6,,,,,,,,1,wg-a,,,,AAXX 23064 07255 02600 72904 10050 20040 39980 40185 53018 60006 70162 875// 90600 333 10046 20038 61000=
07255,1997-12-23 12:00:00,7,1023.7,1.8,93,6,4000,11.112,,,270,,,,,,,,,,,wg-a,,,,AAXX 23124 07255 12240 82706 10070 20060 30033 40237 51018 60006 886// 91200=
07255,1997-12-23 15:00:00,9,1024.6,1,87,7,18000,7.408,,,230,,,,,,,,,,,wg-a,,,,AAXX 23154 07255 12668 72304 10090 20070 30043 40246 53010 60006 875// 91500=
07255,1997-12-23 18:00:00,9,1025.7,1.1,87,7,20000,14.816,,,210,4.4,9.3,,,,,,,,,wg-a,,,,AAXX 23184 07255 12670 72108 10090 20070 30054 40257 51011 60006 875// 91800 333 10093 20044=
07255,1997-12-23 21:00:00,9,1026.4,0.7,93,8,15000,18.52,,,230,,,,,,,,,,21,wg-a,,,,AAXX 23214 07255 02665 82310 10090 20080 30061 40264 53007 61000 72162 875// 92100 333 ////=
07255,1997-12-24 00:00:00,10,1026.7,0.4,100,10,12000,22.224,,,250,,,,0,,,,,,50,wg-a,,,,AAXX 24004 07255 02462 82512 10100 20100 30065 40267 50004 60006 75065 875// 90000 333 60007=
07255,1997-12-24 03:00:00,10,1026.8,0.1,100,10,12000,18.52,,,240,,,,,,,,,,20,wg-a,,,,AAXX 24034 07255 02462 72410 10100 20100 30066 40268 51001 61000 72052 86501 90300 333 ////=
07255,1997-12-24 06:00:00,10,1026.2,-0.6,93,9,8000,18.52,,,210,8.5,10.8,,,,,,,,3,wg-a,,,,AAXX 24064 07255 02458 82110 10100 20090 30060 40262 57006 60006 70352 875// 90600 333 10108 20085 60004=
07255,1997-12-24 09:00:00,10,1027.2,1,93,9,18000,14.816,,,220,,,,,,,,,,,wg-a,,,,AAXX 24094 07255 12568 82208 10100 20090 30070 40272 51010 60006 8657/ 90900=
07255,1997-12-24 12:00:00,13,1024.8,-2.2,82,10,500,22.224,,,210,,,,,,,,,,,wg-a,,,,AAXX 24124 07255 12600 72112 10130 20100 30048 40248 58022 60006 81582 91200=
07255,1997-12-24 15:00:00,13,1023.1,-1.7,82,10,35000,11.112,,,180,,,,,,,,,,,wg-a,,,,AAXX 24154 07255 12781 71806 10130 20100 30031 40231 56017 60006 81572 91500=
07255,1997-12-24 18:00:00,11,1023.7,0.5,94,10,9000,14.816,,,220,9.8,13.5,,,,,,,,61,wg-a,,,,AAXX 24184 07255 02659 82208 10110 20100 30036 40237 50005 61000 76162 8757/ 91800 333 10135 20098 6002=
07255,1997-12-24 21:00:00,11,1023.9,0.2,87,9,12000,22.224,,,240,,,,2,,,,,,21,wg-a,,,,AAXX 24214 07255 12462 82412 10110 20090 30038 40239 53002 60027 72162 885// 92100=
07255,1997-12-25 00:00:00,12,1023.8,-0,88,10,15000,22.224,,,240,,,,,,,,,,2,wg-a,,,,AAXX 25004 07255 12565 82412 10120 20100 30038 40238 55000 60026 70262 885// 90000=
07255,1997-12-25 06:00:00,11,1021.4,-1.5,94,10,12000,18.52,,,220,10.2,11.7,,,,,3,,,,wg-a,,,,AAXX 25064 07255 02562 82210 10110 20100 30014 40214 56015 60006 885// 90600 333 10117 20102 60034=
07255,1997-12-25 09:00:00,13,1020.1,-1.2,82,10,500,25.928,,,210,,,,,,,,,,25,wg-a,,,,AAXX 25094 07255 02500 72114 10130 20100 30002 40201 56012 61000 72586 875// 90900 333 ////=
07255,1997-12-25 12:00:00,16,1016.8,-3,68,10,50000,31.484,,,230,,,,,,,,,,1,wg-a,,,,AAXX 25124 07255 02684 /2317 10160 20100 39972 40168 58030 61000 70186 81531 91200 333 6100=
07255,1997-12-25 15:00:00,15,1015.5,-1.4,72,10,40000,25.928,,,240,,,,,,,,,,21,wg-a,,,,AAXX 25154 07255 02482 82414 10150 20100 39958 40155 56014 61000 72162 86572 91500 333 ////=
07255,1997-12-25 18:00:00,14,1015.2,-0.3,77,10,35000,38.892,,62.968,260,11.3,16.5,,,,,,,,1,wg-a,,,,AAXX 25184 07255 12581 82621 10140 20100 39955 40152 55003 60006 70162 8757/ 91800 333 10165 20113 91034=
07255,1997-12-25 21:00:00,12,1016,0.6,76,8,20000,29.632,,,260,,,,,,,,,,1,wg-a,,,,AAXX 25214 07255 02770 82616 10120 20080 39961 40160 51006 61000 70162 875// 92100 333 ////=
07255,1997-12-26 00:00:00,11,1015.9,-0.1,82,8,15000,25.928,,,250,,,,,,,,,,3,wg-a,,,,AAXX 26004 07255 02565 82514 10110 20080 39960 40159 58001 61000 70362 875// 90000 333 ////=
07255,1997-12-26 03:00:00,10,1015.4,-0.6,87,8,15000,25.928,,,250,,,,,,,,,,,wg-a,,,,AAXX 26034 07255 12565 82514 10100 20080 39954 40154 56006 60006 875// 90300=
07255,1997-12-26 06:00:00,9,1014.1,-1.3,81,6,10000,22.224,,,260,9.1,13.9,,,,,,,,,wg-a,,,,AAXX 26064 07255 02560 72612 10090 20060 39941 40141 56013 60006 83101 90600 333 10139 20091 61000=
07255,1997-12-26 09:00:00,8,1013.9,-0.3,87,6,25000,22.224,,,240,,,,,,,,,,,wg-a,,,,AAXX 26094 07255 12575 /2412 10080 20060 39938 40139 56003 60006 81131 90900=
07255,1997-12-26 12:00:00,11,1012.1,-1.6,71,6,500,35.188,,55.56,260,,,,,,,,,,,wg-a,,,,AAXX 26124 07255 12500 62619 10110 20060 39922 40121 58016 60006 84802 91200 333 91030=
07255,1997-12-26 18:00:00,8,1011.9,1.1,87,6,8000,18.52,,,290,7.3,11.6,,,,,,,,27,wg-a,,,,AAXX 26184 07255 02558 72910 10080 20060 39918 40119 53011 61000 72787 879// 91800 333 10116 20073 6006=
07255,1997-12-26 21:00:00,7,1013,1,93,6,15000,14.816,,,260,,,,,,,,,,,wg-a,,,,AAXX 26214 07255 12465 /2608 10070 20060 39928 40130 51010 60006 86800 92100=
07255,1997-12-27 00:00:00,6,1013.4,0.4,100,6,15000,14.816,,,260,,,,,,,,,,,wg-a,,,,AAXX 27004 07255 12465 42608 10060 20060 39932 40134 51004 60006 84800 90000=
07255,1997-12-27 03:00:00,6,1012.7,-0.7,93,5,15000,18.52,,,270,,,,,,,,,,25,wg-a,,,,AAXX 27034 07255 02465 /2710 10060 20050 39925 40127 58007 61000 72586 85800 90300 333 ////=
07255,1997-12-27 06:00:00,6,1013.4,0.6,93,5,15000,18.52,,,270,5.8,7.7,,,,,,,,25,wg-a,,,,AAXX 27064 07255 02465 72710 10060 20050 39931 40134 53006 61000 72586 878// 90600 333 10077 20058 6006=
07255,1997-12-27 09:00:00,6,1014.8,1.4,93,5,18000,14.816,,,270,,,,,,,,,,3,wg-a,,,,AAXX 27094 07255 02468 72708 10060 20050 39945 40148 53014 61000 70386 872// 90900 333 ////=
07255,1997-12-27 12:00:00,7,1014.7,0,93,6,20000,18.52,,,290,,,,1,,,,,,25,wg-a,,,,AAXX 27124 07255 02470 72910 10070 20060 39945 40147 50000 60016 72586 872// 91200 333 60017=
07255,1997-12-27 15:00:00,8,1014.9,0.2,81,5,20000,18.52,,,280,,,,,,,,,,25,wg-a,,,,AAXX 27154 07255 02470 72810 10080 20050 39947 40149 53002 61000 72586 872// 91500 333 ////=
07255,1997-12-27 18:00:00,6,1016.3,1.3,93,5,15000,11.112,,,290,5.6,7.6,,0,,,,,,2,wg-a,,,,AAXX 27184 07255 02465 72906 10060 20050 39960 40163 53013 60006 70286 872// 91800 333 10076 20056 60007=
07255,1997-12-27 21:00:00,4,1017.2,0.7,93,3,15000,11.112,,,280,,,,0,,,,,,1,wg-a,,,,AAXX 27214 07255 12765 42806 10040 20030 39967 40172 51007 60007 70186 84500 92100=
07255,1997-12-28 00:00:00,4,1017.5,0.3,93,3,15000,11.112,,,270,,,,,,,,,,3,wg-a,,,,AAXX 28004 07255 12765 62706 10040 20030 39970 40175 52003 60006 70386 86500 90000=
07255,1997-12-28 03:00:00,2,1018,0.4,100,2,10000,7.408,,,270,,,,,,,,,,,wg-a,,,,AAXX 28034 07255 12560 32704 10020 20020 39974 40180 53004 60006 83500 90300=
07255,1997-12-28 06:00:00,2,1018,-0.1,93,1,6000,7.408,,,290,1.3,6.2,,,,,1,,,,wg-a,,,,AAXX 28064 07255 02356 42904 10020 20010 39973 40180 55001 60006 84500 90600 333 10062 20013 60014=
07255,1997-12-28 09:00:00,2,1018.5,0.5,100,2,3000,3.704,,,140,,,,,,,,,,10,wg-a,,,,AAXX 28094 07255 12330 81402 10020 20020 39978 40185 53005 60006 71041 886// 90900=
07255,1997-12-28 12:00:00,5,1016.8,-1.4,93,4,7000,11.112,,,240,,,,,,,,,,1,wg-a,,,,AAXX 28124 07255 12357 82406 10050 20040 39964 40168 58014 60006 70141 886// 91200=
07255,1997-12-28 15:00:00,6,1015.8,-0.9,87,4,12000,7.408,,,290,,,,,,,,,,,wg-a,,,,AAXX 28154 07255 12362 82904 10060 20040 39955 40158 55009 60006 885// 91500=
07255,1997-12-28 18:00:00,4,1015.8,-0.2,93,3,10000,3.704,,,130,0.5,5.8,,,,,,,,,wg-a,,,,AAXX 28184 07255 12460 /1302 10040 20030 39953 40158 56002 60006 86500 91800 333 10058 20005=
07255,1997-12-28 21:00:00,3,1014.9,-0.9,100,3,12000,3.704,,,100,,,,,,,,,,,wg-a,,,,AAXX 28214 07255 12462 /1002 10030 20030 39944 40149 58009 60006 85500 92100=
07255,1997-12-29 00:00:00,1,1014.1,-1,100,1,300,3.704,,,120,,,,,,,,,,44,wg-a,,,,AAXX 29004 07255 12103 31202 10010 20010 39934 40141 58010 60006 74441 83600 90000=
07255,1997-12-29 03:00:00,-1,1013.9,-0.3,100,-1,3000,7.408,,,110,,,,,,,,,,10,wg-a,,,,AAXX 29034 07255 12/30 01104 11010 21010 39931 40139 58003 60006 71040 80000 90300=
07255,1997-12-29 06:00:00,-2,1013.8,-0.1,100,-2,600,7.408,,,110,-1.5,4.3,,,,,,,,48,wg-a,,,,AAXX 29064 07255 02/06 01104 11020 21020 39930 40138 55001 60006 74840 80000 90600 333 10043 21015 60004=
07255,1997-12-29 09:00:00,-1,1014.6,0.8,100,-1,4500,11.112,,,110,,,,,,,,,,10,wg-a,,,,AAXX 29094 07255 12545 21106 11010 21010 39938 40146 51008 60006 71041 81501 90900=
07255,1997-12-29 12:00:00,0,1013.7,-0.8,100,0,200,11.112,,,90,,,,,,,,,,44,wg-a,,,,AAXX 29124 07255 12002 70906 10000 20000 39930 40137 58008 60006 74441 876// 91200=
07255,1997-12-29 15:00:00,2,1012.1,-1.4,100,2,300,11.112,,,100,,,,,,,,,,44,wg-a,,,,AAXX 29154 07255 12003 71006 10020 20020 39916 40121 56014 60006 74444 876// 91500=
07255,1997-12-29 18:00:00,1,1012.1,-0.2,100,1,600,11.112,,,100,-1.6,2.2,,,,,,,,42,wg-a,,,,AAXX 29184 07255 12/06 /1006 10010 20010 39914 40121 57002 60006 74244 80001 91800 333 10022 21016=
07255,1997-12-30 00:00:00,2,1011.3,-0.1,93,1,12000,11.112,,,90,,,,,,,,,,3,wg-a,,,,AAXX 30004 07255 12/62 70906 10020 20010 39907 40113 58001 60006 70341 84032 90000=
07255,1997-12-30 03:00:00,2,1011.7,0.5,93,1,15000,11.112,,,120,,,,,,,,,,,wg-a,,,,AAXX 30034 07255 12765 71206 10020 20010 39912 40117 50005 60006 83572 90300=
07255,1997-12-30 06:00:00,2,1011.8,0.1,93,1,15000,11.112,,,110,0.2,2.3,,,,,,,,,wg-a,,,,AAXX 30064 07255 02665 71106 10020 20010 39913 40118 53001 60006 8557/ 90600 333 10023 20002 60004=
07255,1997-12-30 09:00:00,4,1012.4,0.7,87,2,18000,14.816,,,120,,,,,,,,,,,wg-a,,,,AAXX 30094 07255 12768 71208 10040 20020 39920 40124 53007 60006 8657/ 90900=
07255,1997-12-30 12:00:00,8,1011.3,-0.8,81,5,500,7.408,,,130,,,,,,,,,,,wg-a,,,,AAXX 30124 07255 12600 71304 10080 20050 39912 40113 58008 60006 875// 91200=
07255,1997-12-30 15:00:00,10,1010,-1.1,87,8,25000,11.112,,,170,,,,,,,,,,21,wg-a,,,,AAXX 30154 07255 02675 71706 10100 20080 39901 40100 56011 61000 72162 875// 91500 333 ////=
07255,1997-12-30 18:00:00,10,1010.4,0.4,82,7,20000,14.816,,,220,2.2,10.3,,,,,,,,3,wg-a,,,,AAXX 30184 07255 12570 82208 10100 20070 39905 40104 53004 60006 70362 875// 91800 333 10103 20022=
07255,1997-12-30 21:00:00,9,1010.1,-0.4,87,7,12000,22.224,,,210,,,,0,,,,,,60,wg-a,,,,AAXX 30214 07255 12562 82112 10090 20070 39901 40101 58004 60007 76062 875// 92100=
07255,1997-12-31 00:00:00,7,1008.9,-1.3,93,6,15000,14.816,,,190,,,,,,,,,,2,wg-a,,,,AAXX 31004 07255 02665 21908 10070 20060 39888 40089 56013 60006 70261 82500 90000 333 61000=
07255,1997-12-31 06:00:00,8,1007.5,-0.2,87,6,15000,14.816,,,190,6.3,9.6,,,,,,,,60,wg-a,,,,AAXX 31064 07255 02665 81908 10080 20060 39875 40075 55002 61000 76061 875// 90600 333 10096 20063 6000=
07255,1997-12-31 09:00:00,8,1009,1.5,93,7,15000,14.816,,,180,,,,0,,,,,,61,wg-a,,,,AAXX 31094 07255 12465 81808 10080 20070 39890 40090 53015 60007 76166 8582/ 90900=
07255,1997-12-31 12:00:00,9,1009,0.1,93,8,15000,22.224,,,220,,,,3,,,,,,61,wg-a,,,,AAXX 31124 07255 02665 82212 10090 20080 39891 40090 50001 60036 76166 875// 91200 333 60037=
07255,1997-12-31 15:00:00,9,1010.7,1.6,93,8,18000,7.408,,,280,,,,2,,,,,,61,wg-a,,,,AAXX 31154 07255 12368 82804 10090 20080 39907 40107 53016 60027 76166 8652/ 91500=
07255,1997-12-31 18:00:00,8,1012.9,2.1,93,7,18000,7.408,,,230,7.3,9.5,,,,,,,,21,wg-a,,,,AAXX 31184 07255 02768 82304 10080 20070 39928 40129 51021 61000 72162 8652/ 91800 333 10095 20073 6000=
07255,1997-12-31 21:00:00,7,1014.2,1.2,100,7,500,3.704,,,240,,,,,,,,,,,wg-a,,,,AAXX 31214 07255 12400 82402 10070 20070 39940 40142 53012 60006 865// 92100=
