station_id,dh_utc,temperature,pression,pression_variation_3h,humidite,point_de_rosee,visibilite,vent_moyen,vent_rafales,vent_rafales_10min,vent_direction,temperature_min,temperature_max,pluie_1h,pluie_3h,pluie_6h,pluie_12h,pluie_24h,ensoleillement,temperature_sol,temps_omm,source,radiations,neige_au_sol,nebulosite,raw_msg
07255,1998-01-01 00:00:00,7,1015,0.8,93,6,500,7.408,,,200,,,,,,,,,,,wg-a,,,,AAXX 01004 07255 12300 82004 10070 20060 39948 40150 51008 60006 875// 90000=
07255,1998-01-01 03:00:00,6,1016.1,1,100,6,15000,11.112,,,200,,,,0,,,,,,,wg-a,,,,AAXX 01034 07255 12465 82006 10060 20060 39958 40161 51010 60007 875// 90300=
07255,1998-01-01 06:00:00,5,1016.8,0.6,100,5,15000,7.408,,,200,5,7.7,,,,,6,,,,wg-a,,,,AAXX 01064 07255 02765 72004 10050 20050 39964 40168 53006 60006 82532 90600 333 10077 20050 60064=
07255,1998-01-01 09:00:00,6,1018.2,1.5,100,6,18000,14.816,,,200,,,,,,,,,,1,wg-a,,,,AAXX 01094 07255 02668 82008 10060 20060 39979 40182 53015 61000 70162 83572 90900 333 ////=
07255,1998-01-01 12:00:00,8,1017.2,-0.9,87,6,500,14.816,,,250,,,,,,,,,,3,wg-a,,,,AAXX 01124 07255 02500 72508 10080 20060 39970 40172 58009 61000 70362 85831 91200 333 ////=
07255,1998-01-01 18:00:00,6,1013.5,-1.9,87,4,500,18.52,,,210,5.2,8.7,,,,,,,,,wg-a,,,,AAXX 01184 07255 12/00 62110 10060 20040 39932 40135 58019 60006 80002 91800 333 10087 20052=
07255,1998-01-01 21:00:00,6,1011.4,-2,87,4,25000,25.928,,,210,,,,,,,,,,,wg-a,,,,AAXX 01214 07255 12775 82114 10060 20040 39912 40114 58020 60006 875// 92100=
07255,1998-01-02 00:00:00,8,1007.4,-3.8,81,5,20000,38.892,,,230,,,,1,,,,,,60,wg-a,,,,AAXX 02004 07255 02570 82321 10080 20050 39874 40074 56038 60016 76062 8657/ 90000 333 60017=
07255,1998-01-02 06:00:00,9,1002.7,-2.5,81,6,20000,35.188,,,220,5.5,8.8,,,,,1,,,1,wg-a,,,,AAXX 02064 07255 02670 82219 10090 20060 39828 40027 58025 60006 70162 8557/ 90600 333 10088 20055 60014=
07255,1998-01-02 12:00:00,8,998.2,0.6,81,5,11000,35.188,,,250,,,,8,,,,,,,wg-a,,,,AAXX 02124 07255 02/61 /2519 10080 20050 39784 49982 53006 60086 91200 333 60087=
07255,1998-01-02 15:00:00,8,1001.8,3.5,87,6,20000,29.632,,,260,,,,1,,,,,,25,wg-a,,,,AAXX 02154 07255 12270 72616 10080 20060 39819 40018 53035 60017 72586 878// 91500=
07255,1998-01-02 18:00:00,8,1006.3,4.5,81,5,500,25.928,,,270,6.4,9.6,,,,,,,,1,wg-a,,,,AAXX 02184 07255 02500 42714 10080 20050 39864 40063 53045 60006 70186 84500 91800 333 10096 20064 61000=
07255,1998-01-02 21:00:00,7,1009.9,3.4,87,5,20000,25.928,,,260,,,,,,,,,,,wg-a,,,,AAXX 02214 07255 12/70 02614 10070 20050 39898 40099 51034 60006 80000 92100=
07255,1998-01-03 00:00:00,7,1011.7,1.7,87,5,20000,18.52,,,260,,,,,,,,,,,wg-a,,,,AAXX 03004 07255 12/70 52610 10070 20050 39915 40117 50017 60006 82032 90000=
07255,1998-01-03 03:00:00,7,1011.3,-0.3,93,6,12000,18.52,,,220,,,,1,,,,,,61,wg-a,,,,AAXX 03034 07255 12462 82210 10070 20060 39912 40113 58003 60017 76162 8557/ 90300=
07255,1998-01-03 06:00:00,8,1009.3,-2,93,7,7000,29.632,,,210,6.4,8.5,,,,,,,,61,wg-a,,,,AAXX 03064 07255 02357 82116 10080 20070 39892 40093 58020 61000 76162 875// 90600 333 10085 20064 6013=
07255,1998-01-03 09:00:00,10,1008,-1.1,93,9,9000,29.632,,,230,,,,1,,,,,,61,wg-a,,,,AAXX 03094 07255 12359 82316 10100 20090 39881 40080 55011 60017 76165 877// 90900=
07255,1998-01-03 12:00:00,13,1005.3,-2.4,88,11,3500,42.596,,62.968,250,,,,0,,,,,,10,wg-a,,,,AAXX 03124 07255 02335 82523 10130 20110 39857 40053 58024 60016 71065 877// 91200 333 60007 91034=
07255,1998-01-03 15:00:00,13,1005.1,-0.2,94,12,15000,31.484,,,260,,,,1,,,,,,61,wg-a,,,,AAXX 03154 07255 12465 82617 10130 20120 39855 40051 55002 60017 76165 877// 91500=
07255,1998-01-03 21:00:00,8,1015.7,4.5,76,4,28000,29.632,,,260,,,,,,,,,,,wg-a,,,,AAXX 03214 07255 12678 /2616 10080 20040 39955 40157 51045 60006 81500 92100=
07255,1998-01-04 00:00:00,7,1017.6,1.8,87,5,15000,14.816,,,250,,,,1,,,,,,21,wg-a,,,,AAXX 04004 07255 02665 42508 10070 20050 39973 40176 51018 60016 72161 84500 90000 333 60017=
07255,1998-01-04 09:00:00,5,1012.5,-2.9,93,4,12000,18.52,,,170,,,,,,,,,,,wg-a,,,,AAXX 04094 07255 12662 71710 10050 20040 39922 40125 56029 60006 81532 90900=
07255,1998-01-04 12:00:00,12,1006.8,-5.1,71,7,20000,35.188,,,210,,,,,,,,,,,wg-a,,,,AAXX 04124 07255 12570 /2119 10120 20070 39871 40068 58051 60006 86802 91200=
07255,1998-01-04 15:00:00,9,1007.3,0.3,87,7,20000,35.188,,57.412,260,,,,4,,,,,,21,wg-a,,,,AAXX 04154 07255 12470 /2619 10090 20070 39874 40073 53003 60047 72187 85200 91500 333 91031=
07255,1998-01-05 00:00:00,6,1014.4,2.3,87,4,25000,31.484,,59.264,260,,,,2,,,,,,25,wg-a,,,,AAXX 05004 07255 02775 12617 10060 20040 39941 40144 53023 60026 72587 815/0 90000 333 60027 91032=
07255,1998-01-05 03:00:00,6,1015.8,1.4,81,3,20000,22.224,,,240,,,,,,,,,,,wg-a,,,,AAXX 05034 07255 12/70 32412 10060 20030 39955 40158 51014 60006 80001 90300=
07255,1998-01-05 06:00:00,6,1014.9,-0.9,81,3,20000,22.224,,,230,4.3,8.7,,,,,6,,,,wg-a,,,,AAXX 05064 07255 02770 12312 10060 20030 39946 40149 56009 60006 815/1 90600 333 10087 20043 60064=
07255,1998-01-05 09:00:00,7,1013.9,-0.9,81,4,18000,25.928,,,220,,,,,,,,,,,wg-a,,,,AAXX 05094 07255 12/68 62214 10070 20040 39937 40139 58009 60006 80002 90900=
07255,1998-01-05 12:00:00,11,1011.2,-2.4,76,7,18000,38.892,,59.264,240,,,,,,,,,,,wg-a,,,,AAXX 05124 07255 12568 72421 10110 20070 39913 40112 58024 60006 878// 91200 333 91032=
07255,1998-01-05 15:00:00,10,1007.4,-3.7,82,7,15000,50.004,,74.08,230,,,,,,,,,,25,wg-a,,,,AAXX 05154 07255 02565 82327 10100 20070 39876 40074 56037 61000 72586 878// 91500 333 //// 91040=
07255,1998-01-05 21:00:00,9,1010.4,2.3,81,6,20000,31.484,,50.004,280,,,,3,,,,,,3,wg-a,,,,AAXX 05214 07255 12470 /2817 10090 20060 39904 40104 53023 60037 70386 86200 92100 333 91027=
07255,1998-01-06 00:00:00,8,1014.6,4.1,81,5,20000,29.632,,,280,,,,,,,,,,3,wg-a,,,,AAXX 06004 07255 12570 /2816 10080 20050 39945 40146 51041 60036 70386 85202 90000=
07255,1998-01-06 06:00:00,7,1017.8,0.4,93,6,500,11.112,,,220,6.8,9.4,,,,,,,,61,wg-a,,,,AAXX 06064 07255 02600 82206 10070 20060 39975 40178 53004 61000 76162 875// 90600 333 10094 20068 6017=
07255,1998-01-06 09:00:00,7,1017.8,0,100,7,8000,11.112,,,180,,,,2,,,,,,50,wg-a,,,,AAXX 06094 07255 12458 81806 10070 20070 39975 40178 50000 60027 75065 877// 90900=
07255,1998-01-06 12:00:00,12,1017.7,0.3,88,10,15000,25.928,,,250,,,,0,,,,,,21,wg-a,,,,AAXX 06124 07255 02465 72514 10120 20100 39978 40177 51003 60036 72165 875// 91200 333 60007=
07255,1998-01-06 18:00:00,11,1018.8,1.1,94,10,10000,18.52,,,250,6.5,11.9,,,,,,,,1,wg-a,,,,AAXX 06184 07255 02460 72510 10110 20100 39988 40188 51011 61000 70165 875// 91800 333 10119 20065 ////=
07255,1998-01-06 21:00:00,11,1019.2,0.4,87,9,12000,18.52,,,240,,,,,,,,,,,wg-a,,,,AAXX 06214 07255 12462 72410 10110 20090 39992 40192 51004 60006 875// 92100=
07255,1998-01-07 00:00:00,9,1018.8,-0.5,93,8,15000,14.816,,,210,,,,,,,,,,,wg-a,,,,AAXX 07004 07255 12665 72108 10090 20080 39987 40188 58005 60006 8553/ 90000=
07255,1998-01-07 03:00:00,9,1018.3,-0.6,81,6,15000,18.52,,,220,,,,,,,,,,,wg-a,,,,AAXX 07034 07255 12/65 62210 10090 20060 39981 40183 57006 60006 83031 90300=
07255,1998-01-07 06:00:00,8,1017.7,-0.6,81,5,18000,22.224,,,230,7.9,10.9,,,,,3,,,,wg-a,,,,AAXX 07064 07255 02/68 42312 10080 20050 39975 40177 56006 60006 82031 90600 333 10109 20079 60034=
07255,1998-01-07 09:00:00,10,1019.3,1.7,82,7,25000,29.632,,,230,,,,0,,,,,,21,wg-a,,,,AAXX 07094 07255 12575 72316 10100 20070 39992 40193 51017 60007 72161 8657/ 90900=
07255,1998-01-07 12:00:00,12,1020,0.8,76,8,35000,29.632,,,250,,,,1,,,,,,3,wg-a,,,,AAXX 07124 07255 02581 52516 10120 20080 30000 40200 51008 60016 70361 84830 91200 333 60017=
07255,1998-01-07 15:00:00,12,1020.5,0.5,76,8,500,25.928,,,250,,,,,,,,,,1,wg-a,,,,AAXX 07154 07255 02500 72514 10120 20080 30005 40205 53005 61000 70186 84402 91500 333 ////=
07255,1998-01-07 18:00:00,9,1023.1,2.3,87,7,22000,18.52,,,230,7.7,12.8,,,,,,,,1,wg-a,,,,AAXX 07184 07255 12672 42310 10090 20070 30028 40231 51023 60006 70186 81202 91800 333 10128 20077=
07255,1998-01-07 21:00:00,7,1024.6,1.4,93,6,20000,14.816,,,220,,,,,,,,,,,wg-a,,,,AAXX 07214 07255 12670 72208 10070 20060 30042 40246 53014 60006 84502 92100=
07255,1998-01-08 00:00:00,8,1025.9,1.3,93,7,20000,18.52,,,220,,,,,,,,,,,wg-a,,,,AAXX 08004 07255 12770 42210 10080 20070 30055 40259 53013 60006 84500 90000=
07255,1998-01-08 03:00:00,7,1026.8,0.8,93,6,18000,22.224,,,220,,,,,,,,,,,wg-a,,,,AAXX 08034 07255 12/68 02212 10070 20060 30063 40268 50008 60006 80000 90300=
07255,1998-01-08 06:00:00,5,1027.4,0.5,100,5,15000,14.816,,,210,4.8,8.5,,,,,1,,,,wg-a,,,,AAXX 08064 07255 02/65 02108 10050 20050 30068 40274 53005 60006 80000 90600 333 10085 20048 60014=
07255,1998-01-08 09:00:00,7,1028.6,1.3,87,5,20000,22.224,,,220,,,,,,,,,,,wg-a,,,,AAXX 08094 07255 12/70 72212 10070 20050 30081 40286 53013 60006 81036 90900=
07255,1998-01-08 15:00:00,13,1027.5,-0.6,72,8,22000,14.816,,,220,,,,,,,,,,,wg-a,,,,AAXX 08154 07255 12772 32208 10130 20080 30075 40275 55006 60006 81531 91500=
07255,1998-01-08 18:00:00,9,1028.6,0.8,87,7,20000,14.816,,,190,4.5,14.3,,,,,,,,,wg-a,,,,AAXX 08184 07255 12770 71908 10090 20070 30083 40286 53008 60006 8353/ 91800 333 10143 20045=
07255,1998-01-09 00:00:00,6,1030.9,0.9,87,4,18000,11.112,,,180,,,,,,,,,,,wg-a,,,,AAXX 09004 07255 12/68 11806 10060 20040 30103 40309 50009 60006 81030 90000=
07255,1998-01-09 03:00:00,4,1030.9,-0.2,93,3,15000,11.112,,,120,,,,,,,,,,,wg-a,,,,AAXX 09034 07255 12/65 21206 10040 20030 30101 40309 56002 60006 81031 90300=
07255,1998-01-09 06:00:00,4,1031.1,0.2,93,3,15000,14.816,,,80,3.2,9.4,,,,,,,,,wg-a,,,,AAXX 09064 07255 02/65 20808 10040 20030 30103 40311 53002 60006 81031 90600 333 10094 20032 60004=
07255,1998-01-09 09:00:00,5,1031.2,0.2,87,3,15000,14.816,,,100,,,,0,,,,,,,wg-a,,,,AAXX 09094 07255 12/65 21008 10050 20030 30105 40312 52002 60007 80001 90900=
07255,1998-01-09 12:00:00,12,1030.2,-0.5,67,6,500,14.816,,,120,,,,,,,,,,,wg-a,,,,AAXX 09124 07255 12/00 31208 10120 20060 30100 40302 58005 60006 80001 91200=
07255,1998-01-09 18:00:00,8,1028.3,-0.4,81,5,500,18.52,,,110,2.9,13.5,,,,,,,,,wg-a,,,,AAXX 09184 07255 12/00 31110 10080 20050 30079 40283 55004 60006 80001 91800 333 10135 20029=
07255,1998-01-10 00:00:00,4,1027.9,-0.2,93,3,12000,14.816,,,100,,,,,,,,,,,wg-a,,,,AAXX 10004 07255 12/62 11008 10040 20030 30072 40279 56002 60006 80002 90000=
07255,1998-01-10 03:00:00,3,1027.8,-0.2,93,2,12000,14.816,,,100,,,,,,,,,,,wg-a,,,,AAXX 10034 07255 12/62 11008 10030 20020 30070 40278 58002 60006 80002 90300=
07255,1998-01-10 06:00:00,1,1027.3,-0.6,100,1,10000,11.112,,,100,0.9,7.9,,,,,,,,,wg-a,,,,AAXX 10064 07255 02/60 01006 10010 20010 30064 40273 56006 60006 80000 90600 333 10079 20009 60004=
07255,1998-01-10 09:00:00,3,1027.8,0.6,93,2,10000,11.112,,,100,,,,0,,,,,,,wg-a,,,,AAXX 10094 07255 12/60 61006 10030 20020 30070 40278 50006 60007 83042 90900=
07255,1998-01-10 12:00:00,8,1026.5,-0.9,76,4,15000,11.112,,,80,,,,,,,,,,,wg-a,,,,AAXX 10124 07255 12/65 30806 10080 20040 30061 40265 58009 60006 81041 91200=
07255,1998-01-10 15:00:00,9,1024.6,-1.8,76,5,25000,14.816,,,100,,,,,,,,,,,wg-a,,,,AAXX 10154 07255 12/75 61008 10090 20050 30043 40246 56018 60006 81042 91500=
07255,1998-01-10 18:00:00,7,1023.3,-1.4,81,4,15000,14.816,,,90,1.3,10,,,,,,,,,wg-a,,,,AAXX 10184 07255 12/65 40908 10070 20040 30029 40233 56014 60006 82021 91800 333 10100 20013=
07255,1998-01-10 21:00:00,4,1022.3,-1.2,87,2,15000,14.816,,,110,,,,,,,,,,,wg-a,,,,AAXX 10214 07255 12/65 11108 10040 20020 30017 40223 56012 60006 80001 92100=
07255,1998-01-11 00:00:00,4,1021.4,-0.9,93,3,15000,18.52,,,90,,,,,,,,,,,wg-a,,,,AAXX 11004 07255 12/65 00910 10040 20030 30008 40214 58009 60006 80000 90000=
07255,1998-01-11 06:00:00,2,1021.3,-0.1,93,1,15000,11.112,,,90,2.2,7.2,,,,,,,,,wg-a,,,,AAXX 11064 07255 02/65 20906 10020 20010 30006 40213 55001 60006 80001 90600 333 10072 20022 60004=
07255,1998-01-11 09:00:00,4,1022,0.8,93,3,500,11.112,,,120,,,,,,,,,,,wg-a,,,,AAXX 11094 07255 12/00 71206 10040 20030 30014 40220 51008 60006 83032 90900=
07255,1998-01-11 12:00:00,11,1021,-0.4,66,5,500,11.112,,,130,,,,,,,,,,,wg-a,,,,AAXX 11124 07255 12/00 71306 10110 20050 30010 40210 58004 60006 83032 91200=
07255,1998-01-11 15:00:00,11,1020.1,-0.9,76,7,500,14.816,,,140,,,,,,,,,,,wg-a,,,,AAXX 11154 07255 12/00 71408 10110 20070 30001 40201 58009 60006 82032 91500=
07255,1998-01-11 18:00:00,7,1020.1,-0.3,93,6,20000,11.112,,,130,1.5,12.6,,,,,,,,,wg-a,,,,AAXX 11184 07255 12/70 71306 10070 20060 39998 40201 55003 60006 82032 91800 333 10126 20015=
07255,1998-01-12 00:00:00,4,1020.9,0,93,3,15000,11.112,,,130,,,,,,,,,,,wg-a,,,,AAXX 12004 07255 12/65 61306 10040 20030 30004 40209 50000 60006 84031 90000=
07255,1998-01-12 03:00:00,4,1020.5,-0.4,93,3,15000,14.816,,,110,,,,,,,,,,,wg-a,,,,AAXX 12034 07255 12/65 81108 10040 20030 30000 40205 57004 60006 82031 90300=
07255,1998-01-12 06:00:00,5,1019.5,-0.9,93,4,12000,11.112,,,80,3.6,7.5,,,,,,,,,wg-a,,,,AAXX 12064 07255 02/62 80806 10050 20040 39991 40195 57009 60006 8807/ 90600 333 10075 20036 60004=
07255,1998-01-12 09:00:00,5,1019.5,-0,93,4,20000,7.408,,,100,,,,,,,,,,,wg-a,,,,AAXX 12094 07255 12/70 71004 10050 20040 39991 40195 54000 60006 81032 90900=
07255,1998-01-12 12:00:00,10,1018.2,-1,82,7,20000,14.816,,,130,,,,,,,,,,,wg-a,,,,AAXX 12124 07255 12/70 61308 10100 20070 39981 40182 58010 60006 81032 91200=
07255,1998-01-12 15:00:00,11,1016.5,-1.6,82,8,20000,14.816,,,140,,,,,,,,,,,wg-a,,,,AAXX 12154 07255 12/70 71408 10110 20080 39965 40165 56016 60006 81032 91500=
07255,1998-01-12 17:00:00,9,1015.7,-0.9,87,7,18000,14.816,,,140,5,11.2,,,,,,,,,wg-a,,,,AAXX 12174 07255 12/68 51408 10090 20070 39957 40157 57009 60006 83032 91700 333 10112 20050=
07255,1998-01-12 18:00:00,8,1015.7,-0.9,87,6,18000,14.816,,,140,5,11.2,,,,,,,,,wg-a,,,,AAXX 12184 07255 12/68 51408 10080 20060 39956 40157 57009 60006 83032 91800 333 10112 20050=
07255,1998-01-12 21:00:00,6,1013.5,-2.3,87,4,18000,14.816,,,130,,,,,,,,,,,wg-a,,,,AAXX 12214 07255 12/68 31308 10060 20040 39933 40135 57023 60006 81032 92100=
07255,1998-01-13 00:00:00,6,1010.9,-2.6,93,5,15000,18.52,,,120,,,,,,,,,,,wg-a,,,,AAXX 13004 07255 12/65 71210 10060 20050 39907 40109 58026 60006 81032 90000=
07255,1998-01-13 12:00:00,16,1005.9,-0.6,63,9,25000,22.224,,,190,,,,,,,,,,,wg-a,,,,AAXX 13124 07255 12775 31912 10160 20090 39865 40059 58006 60006 81531 91200=
07255,1998-01-13 15:00:00,13,1007.1,0.9,77,9,9000,22.224,,40.744,230,,,,3,,,,,,25,wg-a,,,,AAXX 13154 07255 12659 72312 10130 20090 39874 40071 53009 60037 72586 879// 91500 333 91022=
07255,1998-01-13 21:00:00,9,1008.4,0.7,71,4,20000,22.224,,,190,,,,,,,,,,,wg-a,,,,AAXX 13214 07255 12670 /1912 10090 20040 39884 40084 53007 60006 85500 92100=
07255,1998-01-14 00:00:00,9,1008.2,-0.2,76,5,20000,29.632,,,210,,,,,,,,,,,wg-a,,,,AAXX 14004 07255 12670 72116 10090 20050 39882 40082 58002 60006 8657/ 90000=
07255,1998-01-14 06:00:00,8,1010.3,0.8,81,5,18000,29.632,,,270,7.6,10.1,,,,,6,,,3,wg-a,,,,AAXX 14064 07255 02468 72716 10080 20050 39903 40103 51008 60006 70362 875// 90600 333 10101 20076 60064=
07255,1998-01-14 09:00:00,8,1015,4.5,81,5,40000,25.928,,,260,,,,,,,,,,,wg-a,,,,AAXX 14094 07255 12482 72614 10080 20050 39948 40150 51045 60006 878// 90900=
07255,1998-01-14 12:00:00,9,1017.7,2.8,76,5,500,25.928,,,270,,,,,,,,,,,wg-a,,,,AAXX 14124 07255 12500 /2714 10090 20050 39976 40177 51028 60006 85100 91200=
07255,1998-01-14 15:00:00,10,1019.6,1.9,62,3,500,18.52,,,280,,,,,,,,,,,wg-a,,,,AAXX 14154 07255 12500 22810 10100 20030 39995 40196 53019 60006 82200 91500=
07255,1998-01-14 18:00:00,6,1022.1,2.2,81,3,25000,11.112,,,270,5.9,10.5,,,,,,,,,wg-a,,,,AAXX 14184 07255 12/75 42706 10060 20030 30017 40221 53022 60006 80001 91800 333 10105 20059=
07255,1998-01-14 21:00:00,4,1024.1,1.8,87,2,25000,11.112,,,250,,,,,,,,,,,wg-a,,,,AAXX 14214 07255 12/75 52506 10040 20020 30035 40241 51018 60006 80001 92100=
07255,1998-01-15 00:00:00,3,1024.8,0.6,93,2,20000,14.816,,,230,,,,,,,,,,,wg-a,,,,AAXX 15004 07255 12/70 62308 10030 20020 30041 40248 50006 60006 80001 90000=
07255,1998-01-15 06:00:00,4,1023.4,-1.3,93,3,15000,22.224,,,210,1.9,6.3,,,,,,,,,wg-a,,,,AAXX 15064 07255 02/65 82112 10040 20030 30028 40234 56013 60006 83076 90600 333 10063 20019 60004=
07255,1998-01-15 09:00:00,6,1022.8,-0.4,93,5,9000,25.928,,,210,,,,1,,,,,,61,wg-a,,,,AAXX 15094 07255 12459 82114 10060 20050 30024 40228 57004 60017 76162 8667/ 90900=
07255,1998-01-15 12:00:00,8,1021.8,-0.9,93,7,7000,25.928,,,230,,,,1,,,,,,61,wg-a,,,,AAXX 15124 07255 02457 82314 10080 20070 30015 40218 58009 60036 76162 8652/ 91200 333 60017=
07255,1998-01-15 15:00:00,9,1020.1,-1.6,93,8,9000,25.928,,,230,,,,,,,,,,,wg-a,,,,AAXX 15154 07255 32/59 /2314 10090 20080 39999 40201 56016 91500=
07255,1998-01-15 18:00:00,9,1018.7,-1.4,87,7,8000,31.484,,,230,4.2,9.2,,,,,,,,61,wg-a,,,,AAXX 15184 07255 02458 82317 10090 20070 39985 40187 58014 61000 76162 875// 91800 333 10092 20042 6001=
07255,1998-01-16 00:00:00,9,1016.2,-1.4,93,8,15000,29.632,,,250,,,,1,,,,,,60,wg-a,,,,AAXX 16004 07255 02465 82516 10090 20080 39961 40162 56014 60056 76066 875// 90000 333 60017=
07255,1998-01-16 03:00:00,9,1014.8,-1.4,93,8,3000,18.52,,,240,,,,1,,,,,,60,wg-a,,,,AAXX 16034 07255 12330 82410 10090 20080 39947 40148 58014 60017 76062 877// 90300=
07255,1998-01-16 06:00:00,9,1011.9,-2.8,93,8,6000,18.52,,,240,8.3,9.2,,,,,,,,51,wg-a,,,,AAXX 16064 07255 02356 82410 10090 20080 39919 40119 56028 61000 75165 875// 90600 333 10092 20083 6012=
07255,1998-01-16 09:00:00,9,1011.2,-0.7,93,8,10000,29.632,,,240,,,,,,,,,,61,wg-a,,,,AAXX 16094 07255 02360 72416 10090 20080 39912 40112 56007 61000 76165 878// 90900 333 ////=
07255,1998-01-16 12:00:00,8,1012.3,1,100,8,9000,25.928,,,280,,,,3,,,,,,61,wg-a,,,,AAXX 16124 07255 02359 82814 10080 20080 39922 40123 53010 60036 76165 877// 91200 333 60037=
07255,1998-01-16 15:00:00,8,1015.3,2.9,87,6,12000,14.816,,,310,,,,0,,,,,,25,wg-a,,,,AAXX 16154 07255 12462 73108 10080 20060 39951 40153 53029 60007 72586 879// 91500=
07255,1998-01-16 21:00:00,6,1023.7,3.7,93,5,20000,18.52,,,300,,,,,,,,,,,wg-a,,,,AAXX 16214 07255 12570 43010 10060 20050 30032 40237 51037 60006 84800 92100=
07255,1998-01-17 00:00:00,5,1026.6,2.8,87,3,15000,11.112,,,300,,,,,,,,,,,wg-a,,,,AAXX 17004 07255 12765 23006 10050 20030 30060 40266 51028 60006 82500 90000=
07255,1998-01-17 03:00:00,3,1028.7,1.9,100,3,10000,7.408,,,300,,,,,,,,,,,wg-a,,,,AAXX 17034 07255 12660 /3004 10030 20030 30079 40287 51019 60006 86500 90300=
07255,1998-01-17 06:00:00,2,1030.2,1.4,93,1,3000,7.408,,,300,1.7,7.1,,,,,4,,,10,wg-a,,,,AAXX 17064 07255 02/30 03004 10020 20010 30093 40302 52014 60006 71011 80000 90600 333 10071 20017 60044=
07255,1998-01-17 09:00:00,1,1032,1.7,100,1,100,7.408,,,220,,,,,,,,,,45,wg-a,,,,AAXX 17094 07255 12/01 92204 10010 20010 30110 40320 52017 60006 74541 89/// 90900=
07255,1998-01-17 12:00:00,3,1031.2,-0.6,100,3,800,7.408,,,250,,,,,,,,,,43,wg-a,,,,AAXX 17124 07255 12/08 92504 10030 20030 30104 40312 58006 60006 74341 89/// 91200=
07255,1998-01-17 21:00:00,1,1024.7,-3,100,1,15000,18.52,,,140,,,,,,,,,,,wg-a,,,,AAXX 17214 07255 12/65 61410 10010 20010 30038 40247 58030 60006 80002 92100=
07255,1998-01-18 00:00:00,1,1022.7,-1.9,93,0,10000,11.112,,,130,,,,0,,,,,,,wg-a,,,,AAXX 18004 07255 02/60 71306 10010 20000 30019 40227 58019 60006 8703/ 90000 333 60007=
07255,1998-01-18 06:00:00,1,1014.7,-3.8,86,-1,20000,14.816,,,120,0.5,1.9,,,,,,,,,wg-a,,,,AAXX 18064 07255 02770 71208 10010 21010 39940 40147 56038 60006 8753/ 90600 333 10019 20005 60004=
07255,1998-01-18 09:00:00,6,1011.4,-2.8,70,1,20000,29.632,,,230,,,,,,,,,,,wg-a,,,,AAXX 18094 07255 12670 82316 10060 20010 39912 40114 55028 60006 8657/ 90900=
07255,1998-01-18 12:00:00,7,1007.9,-3.4,93,6,15000,42.596,,,230,,,,1,,,,,,60,wg-a,,,,AAXX 18124 07255 02465 82323 10070 20060 39878 40079 56034 60016 76062 8457/ 91200 333 60017=
07255,1998-01-18 15:00:00,9,1008.7,0.9,87,7,18000,22.224,,,260,,,,2,,,,,,21,wg-a,,,,AAXX 18154 07255 12468 /2612 10090 20070 39887 40087 52009 60027 72162 84772 91500=
07255,1998-01-18 18:00:00,8,1008.4,-0.3,87,6,18000,25.928,,,250,0.9,8.7,,,,,,,,25,wg-a,,,,AAXX 18184 07255 02468 72514 10080 20060 39884 40084 58003 61000 72586 8427/ 91800 333 10087 20009 6100=
07255,1998-01-18 21:00:00,7,1004.4,-4,93,6,12000,29.632,,,220,,,,1,,,,,,61,wg-a,,,,AAXX 18214 07255 12562 82216 10070 20060 39844 40044 58040 60017 76162 875// 92100=
07255,1998-01-19 00:00:00,10,997.1,-7,93,9,3500,42.596,,81.488,270,,,,9,,,,,,10,wg-a,,,,AAXX 19004 07255 02335 82723 10100 20090 39774 49971 56070 60106 71062 877// 90000 333 60097 91044=
07255,1998-01-19 03:00:00,7,1002.5,5.1,81,4,15000,25.928,,,290,,,,3,,,,,,3,wg-a,,,,AAXX 19034 07255 12365 82914 10070 20040 39825 40025 52051 60037 70362 877// 90300=
07255,1998-01-19 06:00:00,6,1003.8,1.2,87,4,15000,25.928,,,260,5.7,9.8,,,,,16,,,1,wg-a,,,,AAXX 19064 07255 02/65 72614 10060 20040 39837 40038 51012 60006 70162 86031 90600 333 10098 20057 60164=
07255,1998-01-19 09:00:00,6,1005.7,1.9,87,4,40000,22.224,,,270,,,,,,,,,,,wg-a,,,,AAXX 19094 07255 12682 72712 10060 20040 39856 40057 52019 60006 875// 90900=
07255,1998-01-19 15:00:00,9,1008.7,1.6,76,5,25000,22.224,,,290,,,,,,,,,,21,wg-a,,,,AAXX 19154 07255 02575 72912 10090 20050 39887 40087 53016 61000 72161 875// 91500 333 ////=
07255,1998-01-19 18:00:00,7,1011.4,2.5,93,6,18000,11.112,,,300,5.2,9.8,,,,,,,,25,wg-a,,,,AAXX 19184 07255 02668 73006 10070 20060 39912 40114 51025 61000 72586 875// 91800 333 10098 20052 6002=
07255,1998-01-20 00:00:00,4,1014.7,2.7,87,2,15000,25.928,,44.448,20,,,,2,,,,,,21,wg-a,,,,AAXX 20004 07255 02465 80214 10040 20020 39942 40147 53027 60046 72162 878// 90000 333 60027 91024=
07255,1998-01-20 03:00:00,2,1019,4.1,80,-1,15000,11.112,,,340,,,,,,,,,,,wg-a,,,,AAXX 20034 07255 12465 53406 10020 21010 39983 40190 51041 60006 85800 90300=
07255,1998-01-20 06:00:00,0,1022.4,3.2,86,-2,18000,14.816,,,320,0.1,7,,,,,6,,,,wg-a,,,,AAXX 20064 07255 02/68 03208 10000 21020 30015 40224 51032 60006 80000 90600 333 10070 20001 60064=
07255,1998-01-20 09:00:00,1,1025.8,3.4,86,-1,20000,14.816,,,310,,,,,,,,,,,wg-a,,,,AAXX 20094 07255 12570 73108 10010 21010 30049 40258 51034 60006 875// 90900=
07255,1998-01-20 12:00:00,4,1027.2,1.6,75,0,28000,22.224,,,310,,,,,,,,,,,wg-a,,,,AAXX 20124 07255 12478 /3112 10040 20000 30065 40272 51016 60006 86800 91200=
07255,1998-01-20 21:00:00,2,1031.3,1,87,0,12000,14.816,,,320,,,,,,,,,,,wg-a,,,,AAXX 20214 07255 12/62 03208 10020 20000 30104 40313 51010 60006 80000 92100=
07255,1998-01-21 00:00:00,1,1032.9,1.4,86,-1,10000,11.112,,,320,,,,,,,,,,,wg-a,,,,AAXX 21004 07255 12660 43206 10010 21010 30118 40329 51014 60006 84500 90000=
07255,1998-01-21 03:00:00,0,1033.4,0.5,93,-1,10000,7.408,,,340,,,,,,,,,,,wg-a,,,,AAXX 21034 07255 12660 23404 10000 21010 30123 40334 50005 60006 82500 90300=
07255,1998-01-21 06:00:00,-1,1034.3,0.8,93,-2,4000,11.112,,,350,-1.3,3.6,,,,,,,,10,wg-a,,,,AAXX 21064 07255 02340 23506 11010 21020 30131 40343 53008 60006 71011 82600 90600 333 10036 21013 60004=
07255,1998-01-21 09:00:00,0,1035.3,1,93,-1,4000,7.408,,,350,,,,,,,,,,10,wg-a,,,,AAXX 21094 07255 12440 73504 10000 21010 30141 40353 51010 60006 71041 875// 90900=
07255,1998-01-21 12:00:00,2,1034.8,-0.3,93,1,500,7.408,,,10,,,,,,,,,,3,wg-a,,,,AAXX 21124 07255 12200 80104 10020 20010 30138 40348 58003 60006 70341 885// 91200=
07255,1998-01-21 15:00:00,2,1034.6,-0.2,87,0,9000,7.408,,,350,,,,,,,,,,,wg-a,,,,AAXX 21154 07255 12359 83504 10020 20000 30136 40346 57002 60006 885// 91500=
07255,1998-01-21 21:00:00,1,1034.2,-0.6,75,-3,12000,14.816,,,80,,,,,,,,,,,wg-a,,,,AAXX 21214 07255 12562 80808 10010 21030 30131 40342 57006 60006 885// 92100=
07255,1998-01-22 00:00:00,0,1033.3,-0.9,80,-3,12000,11.112,,,20,,,,,,,,,,,wg-a,,,,AAXX 22004 07255 12662 70206 10000 21030 30122 40333 57009 60006 875// 90000=
07255,1998-01-22 03:00:00,-2,1032.4,-1.1,86,-4,10000,7.408,,,30,,,,,,,,,,,wg-a,,,,AAXX 22034 07255 12660 /0304 11020 21040 30111 40324 58011 60006 81500 90300=
07255,1998-01-22 06:00:00,-3,1031.6,-0.8,93,-4,10000,7.408,,,40,-2.7,1.6,,,,,,,,,wg-a,,,,AAXX 22064 07255 02660 /0404 11030 21040 30103 40316 56008 60006 81500 90600 333 10016 21027 60004=
07255,1998-01-22 09:00:00,-1,1030.8,-0.7,86,-3,9000,14.816,,,50,,,,,,,,,,,wg-a,,,,AAXX 22094 07255 12659 /0508 11010 21030 30096 40308 57007 60006 81500 90900=
07255,1998-01-22 12:00:00,1,1029.3,-1.3,69,-4,18000,22.224,,,70,,,,,,,,,,,wg-a,,,,AAXX 22124 07255 12568 /0712 10010 21040 30083 40293 58013 60006 85100 91200=
07255,1998-01-22 15:00:00,1,1027.4,-1.9,64,-5,20000,18.52,,,80,,,,,,,,,,,wg-a,,,,AAXX 22154 07255 12570 70810 10010 21050 30064 40274 58019 60006 875// 91500=
07255,1998-01-22 18:00:00,0,1027.4,-0,69,-5,18000,25.928,,,80,-2.6,1.5,,,,,,,,,wg-a,,,,AAXX 22184 07255 12568 70814 10000 21050 30064 40274 55000 60006 875// 91800 333 10015 21026=
07255,1998-01-22 21:00:00,0,1026.1,-1.3,74,-4,15000,14.816,,,60,,,,,,,,,,,wg-a,,,,AAXX 22214 07255 12665 /0608 10000 21040 30051 40261 58013 60006 81500 92100=
07255,1998-01-23 03:00:00,-1,1024,-1,86,-3,12000,22.224,,,80,,,,,,,,,,,wg-a,,,,AAXX 23034 07255 12562 70812 11010 21030 30030 40240 58010 60006 875// 90300=
07255,1998-01-23 06:00:00,-1,1023.7,-0.3,86,-3,12000,22.224,,,90,-1.3,0.5,,,,,,,,,wg-a,,,,AAXX 23064 07255 02662 70912 11010 21030 30027 40237 56003 60006 875// 90600 333 10005 21013 60004=
07255,1998-01-23 09:00:00,0,1024.4,0.8,86,-2,12000,22.224,,,100,,,,,,,,,,,wg-a,,,,AAXX 23094 07255 12562 41012 10000 21020 30035 40244 53008 60006 84500 90900=
07255,1998-01-23 12:00:00,2,1023.9,-0.4,75,-2,15000,25.928,,,100,,,,,,,,,,,wg-a,,,,AAXX 23124 07255 12565 71014 10020 21020 30031 40239 58004 60006 875// 91200=
07255,1998-01-23 15:00:00,4,1023.3,-0.5,70,-1,15000,18.52,,,90,,,,,,,,,,,wg-a,,,,AAXX 23154 07255 12565 /0910 10040 21010 30026 40233 55005 60006 81500 91500=
07255,1998-01-23 18:00:00,1,1024,0.5,80,-2,12000,18.52,,,70,-0.5,3.7,,,,,,,,,wg-a,,,,AAXX 23184 07255 12/62 00710 10010 21020 30031 40240 52005 60006 80000 91800 333 10037 21005=
07255,1998-01-23 21:00:00,1,1024.5,0.5,80,-2,12000,18.52,,,80,,,,,,,,,,,wg-a,,,,AAXX 23214 07255 12/62 00810 10010 21020 30036 40245 51005 60006 80000 92100=
07255,1998-01-24 00:00:00,0,1024.9,0.3,80,-3,12000,14.816,,,70,,,,,,,,,,,wg-a,,,,AAXX 24004 07255 12/62 00708 10000 21030 30039 40249 50003 60006 80000 90000=
07255,1998-01-24 03:00:00,0,1024.5,-0.3,86,-2,10000,11.112,,,70,,,,,,,,,,,wg-a,,,,AAXX 24034 07255 12560 70706 10000 21020 30036 40245 58003 60006 875// 90300=
07255,1998-01-24 06:00:00,1,1024.9,0.4,86,-1,8000,7.408,,,50,-0.3,1.5,,,,,,,,,wg-a,,,,AAXX 24064 07255 02558 80504 10010 21010 30040 40249 53004 60006 885// 90600 333 10015 21003 60004=
07255,1998-01-24 09:00:00,1,1025.5,0.6,86,-1,9000,14.816,,,60,,,,,,,,,,,wg-a,,,,AAXX 24094 07255 12459 80608 10010 21010 30046 40255 50006 60006 885// 90900=
07255,1998-01-24 12:00:00,1,1024.9,-0.6,86,-1,8000,18.52,,,60,,,,,,,,,,50,wg-a,,,,AAXX 24124 07255 02458 80610 10010 21010 30040 40249 58006 61000 75052 885// 91200 333 6100=
07255,1998-01-24 15:00:00,1,1023.9,-0.9,80,-2,10000,14.816,,,60,,,,,,,,,,1,wg-a,,,,AAXX 24154 07255 02460 80608 10010 21020 30031 40239 56009 61000 70152 885// 91500 333 ////=
07255,1998-01-24 18:00:00,2,1023.9,-0,80,-1,6000,11.112,,,40,0.5,1.7,,,,,,,,2,wg-a,,,,AAXX 24184 07255 12556 80406 10020 21010 30031 40239 54000 60006 70252 885// 91800 333 10017 20005=
07255,1998-01-24 21:00:00,2,1023.5,-0.4,75,-2,8000,18.52,,,40,,,,,,,,,,,wg-a,,,,AAXX 24214 07255 12558 80410 10020 21020 30027 40235 58004 60006 875// 92100=
07255,1998-01-25 00:00:00,2,1022.4,-1.1,75,-2,10000,14.816,,,40,,,,,,,,,,,wg-a,,,,AAXX 25004 07255 12560 80408 10020 21020 30016 40224 56011 60006 885// 90000=
07255,1998-01-25 03:00:00,1,1021.3,-1.1,80,-2,12000,14.816,,,50,,,,,,,,,,1,wg-a,,,,AAXX 25034 07255 02562 80508 10010 21020 30005 40213 56011 61000 70172 885// 90300 333 ////=
07255,1998-01-25 06:00:00,1,1020.4,-0.9,80,-2,12000,14.816,,,40,0.2,2.1,,,,,,,,1,wg-a,,,,AAXX 25064 07255 02462 80408 10010 21020 39996 40204 56009 60006 70172 875// 90600 333 10021 20002 61000=
07255,1998-01-25 09:00:00,1,1021,0.6,80,-2,20000,18.52,,,60,,,,,,,,,,22,wg-a,,,,AAXX 25094 07255 02470 70610 10010 21020 30002 40210 52006 61000 72272 875// 90900 333 ////=
07255,1998-01-25 12:00:00,1,1021.6,0.6,80,-2,12000,22.224,,,60,,,,,,,,,,3,wg-a,,,,AAXX 25124 07255 02362 80612 10010 21020 30008 40216 51006 61000 70372 885// 91200 333 6100=
07255,1998-01-25 15:00:00,2,1022.2,0.6,75,-2,14000,18.52,,,80,,,,,,,,,,22,wg-a,,,,AAXX 25154 07255 02464 80810 10020 21020 30014 40222 53006 61000 72272 888// 91500 333 ////=
07255,1998-01-25 18:00:00,2,1023.7,1.5,69,-3,9000,18.52,,,80,0.4,1.8,,,,,,,,3,wg-a,,,,AAXX 25184 07255 12559 80810 10020 21030 30029 40237 53015 60006 70372 875// 91800 333 10018 20004=
07255,1998-01-25 21:00:00,0,1025.5,1.6,80,-3,10000,18.52,,,80,,,,,,,,,,,wg-a,,,,AAXX 25214 07255 12660 80810 10000 21030 30045 40255 52016 60006 875// 92100=
07255,1998-01-26 00:00:00,0,1026.3,0.8,80,-3,10000,14.816,,,80,,,,,,,,,,,wg-a,,,,AAXX 26004 07255 12/60 00808 10000 21030 30053 40263 52008 60006 80000 90000=
07255,1998-01-26 03:00:00,-1,1026.7,0.3,86,-3,7000,11.112,,,70,,,,,,,,,,,wg-a,,,,AAXX 26034 07255 12/57 00706 11010 21030 30056 40267 51003 60006 80000 90300=
07255,1998-01-26 06:00:00,-2,1026.9,0.2,86,-4,6000,11.112,,,70,-1.7,1.8,,,,,,,,,wg-a,,,,AAXX 26064 07255 02/56 00706 11020 21040 30058 40269 53002 60006 80000 90600 333 10018 21017 61000=
07255,1998-01-26 09:00:00,-1,1027.5,0.6,80,-4,10000,18.52,,,80,,,,,,,,,,,wg-a,,,,AAXX 26094 07255 12/60 00810 11010 21040 30064 40275 51006 60006 80000 90900=
07255,1998-01-26 12:00:00,2,1026.7,-0.5,69,-3,14000,22.224,,,90,,,,,,,,,,,wg-a,,,,AAXX 26124 07255 12564 30912 10020 21030 30059 40267 58005 60006 83500 91200=
07255,1998-01-26 15:00:00,1,1026,-0.8,69,-4,12000,18.52,,,70,,,,,,,,,,,wg-a,,,,AAXX 26154 07255 12562 80710 10010 21040 30051 40260 55008 60006 885// 91500=
07255,1998-01-26 18:00:00,0,1025.9,-0.2,74,-4,10000,18.52,,,100,-1.8,2.3,,,,,,,,,wg-a,,,,AAXX 26184 07255 12560 81010 10000 21040 30049 40259 56002 60006 885// 91800 333 10023 21018=
07255,1998-01-26 21:00:00,0,1025.4,-0.5,74,-4,10000,14.816,,,90,,,,,,,,,,,wg-a,,,,AAXX 26214 07255 12560 80908 10000 21040 30044 40254 58005 60006 885// 92100=
07255,1998-01-27 00:00:00,0,1024.7,-0.7,74,-4,9000,14.816,,,80,,,,,,,,,,,wg-a,,,,AAXX 27004 07255 12559 80808 10000 21040 30037 40247 56007 60006 885// 90000=
07255,1998-01-27 03:00:00,-1,1022.9,-1.8,80,-4,8000,18.52,,,110,,,,,,,,,,,wg-a,,,,AAXX 27034 07255 12458 81110 11010 21040 30019 40229 58018 60006 875// 90300=
07255,1998-01-27 06:00:00,-1,1021.6,-1.3,74,-5,8000,18.52,,,110,-1.1,0.4,,,,,,,,,wg-a,,,,AAXX 27064 07255 02458 81110 11010 21050 30006 40216 57013 60006 875// 90600 333 10004 21011 60004=
07255,1998-01-27 09:00:00,-1,1021.6,0,80,-4,8000,18.52,,,90,,,,,,,,,,,wg-a,,,,AAXX 27094 07255 12458 80910 11010 21040 30006 40216 50000 60006 885// 90900=
07255,1998-01-27 12:00:00,0,1020.7,-0.8,74,-4,9000,18.52,,,110,,,,,,,,,,,wg-a,,,,AAXX 27124 07255 12459 81110 10000 21040 39998 40207 58008 60006 885// 91200=
07255,1998-01-27 18:00:00,0,1019,-0.3,80,-3,9000,14.816,,,80,-1.2,0.8,,,,,,,,,wg-a,,,,AAXX 27184 07255 12459 80808 10000 21030 39982 40190 56003 60006 885// 91800 333 10008 21012=
07255,1998-01-28 00:00:00,0,1019.3,-0.1,86,-2,500,14.816,,,100,,,,,,,,,,,wg-a,,,,AAXX 28004 07255 12400 81008 10000 21020 39984 40193 58001 60006 885// 90000=
07255,1998-01-28 03:00:00,-1,1018.7,-0.6,93,-2,3000,11.112,,,110,,,,,,,,,,10,wg-a,,,,AAXX 28034 07255 12330 81106 11010 21020 39978 40187 56006 60006 71022 886// 90300=
07255,1998-01-28 06:00:00,-1,1018.5,-0.2,93,-2,2500,11.112,,,100,-1,0.1,,,,,,,,10,wg-a,,,,AAXX 28064 07255 02225 81006 11010 21020 39976 40185 58002 60006 71022 886// 90600 333 10001 21010 60004=
07255,1998-01-28 12:00:00,0,1019,-0.4,93,-1,900,11.112,,,120,,,,,,,,,,46,wg-a,,,,AAXX 28124 07255 12109 81206 10000 21010 39981 40190 58004 60006 74642 886// 91200=
07255,1998-01-28 15:00:00,0,1018.3,-0.6,93,-1,2500,14.816,,,70,,,,,,,,,,10,wg-a,,,,AAXX 28154 07255 12125 80708 10000 21010 39975 40183 56006 60006 71042 886// 91500=
07255,1998-01-28 18:00:00,-1,1019,0.6,100,-1,1800,18.52,,,100,-1,0.2,,,,,,,,10,wg-a,,,,AAXX 28184 07255 12118 81010 11010 21010 39981 40190 53006 60006 71042 886// 91800 333 10002 21010=
07255,1998-01-28 21:00:00,-1,1019,-0,93,-2,2000,18.52,,,90,,,,,,,,,,10,wg-a,,,,AAXX 28214 07255 12120 80910 11010 21020 39981 40190 55000 60006 71022 886// 92100=
07255,1998-01-29 00:00:00,-1,1019.6,0.5,93,-2,800,14.816,,,110,,,,,,,,,,45,wg-a,,,,AAXX 29004 07255 12/08 91108 11010 21020 39986 40196 51005 60006 74542 89/// 90000=
07255,1998-01-29 06:00:00,-1,1019.7,0.2,100,-1,2200,14.816,,,120,-2,-0.7,,,,,,,,10,wg-a,,,,AAXX 29064 07255 02122 81208 11010 21010 39988 40197 53002 60006 71042 886// 90600 333 11007 21020 60004=
07255,1998-01-29 12:00:00,-1,1021.7,0.3,93,-2,3000,18.52,,,90,,,,,,,,,,10,wg-a,,,,AAXX 29124 07255 12230 80910 11010 21020 30007 40217 50003 60006 71022 886// 91200=
07255,1998-01-29 15:00:00,-1,1021.1,-0.5,93,-2,4800,18.52,,,110,,,,,,,,,,10,wg-a,,,,AAXX 29154 07255 12348 81110 11010 21020 30002 40211 55005 60006 71022 876// 91500=
07255,1998-01-29 18:00:00,-2,1021.7,0.4,93,-3,4000,11.112,,,130,-2.2,-0.6,,,,,,,,10,wg-a,,,,AAXX 29184 07255 12340 /1306 11020 21030 30006 40217 53004 60006 71011 81600 91800 333 11006 21022=
07255,1998-01-29 21:00:00,-2,1021.2,-0.5,93,-3,3500,11.112,,,100,,,,,,,,,,10,wg-a,,,,AAXX 29214 07255 12335 /1006 11020 21030 30001 40212 56005 60006 71011 85600 92100=
07255,1998-01-30 00:00:00,-2,1021.1,0,93,-3,1800,14.816,,,130,,,,,,,,,,10,wg-a,,,,AAXX 30004 07255 12318 81308 11020 21030 30001 40211 50000 60006 71011 886// 90000=
07255,1998-01-30 03:00:00,-1,1020.3,-0.8,93,-2,1800,22.224,,,110,,,,,,,,,,10,wg-a,,,,AAXX 30034 07255 12218 81112 11010 21020 39993 40203 58008 60006 71022 886// 90300=
07255,1998-01-30 06:00:00,-2,1019.9,-0.4,93,-3,3000,18.52,,,120,-3.1,-1.1,,,,,,,,,wg-a,,,,AAXX 30064 07255 02/30 /1210 11020 21030 39989 40199 57004 60006 90600 333 11011 21031 60004=
07255,1998-01-30 09:00:00,-1,1020.5,0.6,93,-2,3000,18.52,,,110,,,,,,,,,,10,wg-a,,,,AAXX 30094 07255 12230 81110 11010 21020 39995 40205 53006 60006 71022 886// 90900=
07255,1998-01-30 21:00:00,-2,1017.4,-0,93,-3,3000,18.52,,,80,,,,,,,,,,10,wg-a,,,,AAXX 30214 07255 12230 80810 11020 21030 39965 40174 54000 60006 71022 886// 92100=
07255,1998-01-31 03:00:00,-2,1015.8,-0.9,93,-3,3500,14.816,,,80,,,,,,,,,,10,wg-a,,,,AAXX 31034 07255 12235 80808 11020 21030 39948 40158 58009 60006 71022 886// 90300=
07255,1998-01-31 06:00:00,-3,1015.4,-0.4,93,-4,3000,14.816,,,80,-3,-0.8,,,,,,,,10,wg-a,,,,AAXX 31064 07255 02130 80808 11030 21040 39944 40154 56004 60006 71022 886// 90600 333 11008 21030 60004=
07255,1998-01-31 12:00:00,-2,1015.6,-0.4,100,-2,3500,14.816,,,100,,,,,,,,,,10,wg-a,,,,AAXX 31124 07255 02135 81008 11020 21020 39947 40156 58004 61000 71054 886// 91200 333 ////=
07255,1998-01-31 15:00:00,0,1014.5,-1,86,-2,3500,14.816,,,80,,,,,,,,,,10,wg-a,,,,AAXX 31154 07255 12235 80808 10000 21020 39937 40145 56010 60006 71022 886// 91500=
07255,1998-01-31 18:00:00,-2,1014.6,-0,93,-3,4000,3.704,,,350,-3.1,0.5,,,,,,,,10,wg-a,,,,AAXX 31184 07255 12/40 03502 11020 21030 39937 40146 54000 60006 71011 80000 91800 333 10005 21031=
07255,1998-02-01 00:00:00,0,1014.2,-0.3,86,-2,6000,18.52,,,80,,,,,,,,,,,wg-a,,,,AAXX 01004 07255 12/56 00810 10000 21020 39935 40142 56003 60006 80000 90000=
07255,1998-02-01 03:00:00,-1,1014,-0.3,86,-3,500,18.52,,,80,,,,,,,,,,,wg-a,,,,AAXX 01034 07255 12/00 00810 11010 21030 39932 40140 58003 60006 80000 90300=
07255,1998-02-01 06:00:00,-3,1014.3,0.1,93,-4,4000,11.112,,,90,-3.3,0.5,,,,,,,,10,wg-a,,,,AAXX 01064 07255 02/40 00906 11030 21040 39933 40143 53001 60006 71000 80000 90600 333 10005 21033 61000=
07255,1998-02-01 09:00:00,-2,1014.8,0.6,86,-4,3500,14.816,,,80,,,,,,,,,,,wg-a,,,,AAXX 01094 07255 12/35 /0808 11020 21040 39939 40148 53006 60006 90900=
07255,1998-02-01 12:00:00,1,1014.6,0,80,-2,4500,11.112,,,120,,,,,,,,,,10,wg-a,,,,AAXX 01124 07255 12345 /1206 10010 21020 39939 40146 50000 60006 71011 85100 91200=
07255,1998-02-01 15:00:00,1,1014.1,-0.5,80,-2,6000,11.112,,,130,,,,,,,,,,,wg-a,,,,AAXX 01154 07255 12456 41306 10010 21020 39934 40141 56005 60006 84100 91500=
07255,1998-02-01 18:00:00,-2,1014.6,0.3,93,-3,4500,11.112,,,190,-4.3,1.9,,,,,,,,10,wg-a,,,,AAXX 01184 07255 12445 31906 11020 21030 39937 40146 53003 60006 71011 83600 91800 333 10019 21043=
07255,1998-02-01 21:00:00,-3,1014.8,0.1,93,-4,2500,7.408,,,90,,,,,,,,,,10,wg-a,,,,AAXX 01214 07255 12225 80904 11030 21040 39938 40148 50001 60006 71011 886// 92100=
07255,1998-02-02 00:00:00,-2,1014.4,-0.3,93,-3,4000,14.816,,,110,,,,,,,,,,10,wg-a,,,,AAXX 02004 07255 12240 81108 11020 21030 39935 40144 58003 60006 71011 886// 90000=
07255,1998-02-02 03:00:00,-3,1013.8,-0.6,100,-3,3000,11.112,,,80,,,,,,,,,,10,wg-a,,,,AAXX 02034 07255 12230 80806 11030 21030 39929 40138 57006 60006 71022 886// 90300=
07255,1998-02-02 06:00:00,-3,1012.8,-1,100,-3,2000,14.816,,,90,-3.5,-1.8,,,,,,,,10,wg-a,,,,AAXX 02064 07255 02120 80908 11030 21030 39919 40128 56010 60006 71022 886// 90600 333 11018 21035 60004=
07255,1998-02-02 09:00:00,-3,1012.7,-0.1,93,-4,2000,14.816,,,120,,,,,,,,,,10,wg-a,,,,AAXX 02094 07255 12120 81208 11030 21040 39918 40127 58001 60006 71022 886// 90900=
07255,1998-02-02 12:00:00,-3,1013.1,0.4,100,-3,2000,11.112,,,80,,,,,,,,,,10,wg-a,,,,AAXX 02124 07255 12120 80806 11030 21030 39922 40131 51004 60006 71022 886// 91200=
07255,1998-02-02 15:00:00,-3,1012.2,-0.9,93,-4,3500,14.816,,,60,,,,,,,,,,10,wg-a,,,,AAXX 02154 07255 12235 80608 11030 21040 39913 40122 56009 60006 71022 876// 91500=
07255,1998-02-02 18:00:00,-3,1013.1,0.8,86,-5,3500,18.52,,,90,-3.4,-1.8,,,,,,,,10,wg-a,,,,AAXX 02184 07255 12235 80910 11030 21050 39921 40131 53008 60006 71022 886// 91800 333 11018 21034=
07255,1998-02-02 21:00:00,-4,1013.4,0.3,86,-6,3000,14.816,,,90,,,,,,,,,,10,wg-a,,,,AAXX 02214 07255 12230 80908 11040 21060 39924 40134 50003 60006 71022 886// 92100=
07255,1998-02-03 00:00:00,-5,1013.1,-0.4,93,-6,2500,14.816,,,100,,,,,,,,,,10,wg-a,,,,AAXX 03004 07255 12225 81008 11050 21060 39920 40131 58004 60006 71022 886// 90000=
07255,1998-02-03 03:00:00,-5,1013.4,0.3,86,-7,2500,11.112,,,120,,,,,,,,,,10,wg-a,,,,AAXX 03034 07255 12225 81206 11050 21070 39923 40134 50003 60006 71022 886// 90300=
07255,1998-02-03 06:00:00,-6,1013.1,-0.4,93,-7,2500,14.816,,,120,-6.5,-3.3,,,,,,,,10,wg-a,,,,AAXX 03064 07255 02225 81208 11060 21070 39919 40131 55004 60006 71022 886// 90600 333 11033 21065 60004=
07255,1998-02-03 12:00:00,1,1012.5,-0.6,69,-4,9000,22.224,,,110,,,,,,,,,,,wg-a,,,,AAXX 03124 07255 12/59 /1112 10010 21040 39919 40125 58006 60006 80001 91200=
07255,1998-02-03 15:00:00,4,1011.3,-1,60,-3,15000,22.224,,,80,,,,,,,,,,,wg-a,,,,AAXX 03154 07255 12/65 10812 10040 21030 39909 40113 55010 60006 80001 91500=
07255,1998-02-03 18:00:00,2,1012,0.5,75,-2,7000,18.52,,,60,-7,3.8,,,,,,,,,wg-a,,,,AAXX 03184 07255 12/57 00610 10020 21020 39914 40120 53005 60006 80000 91800 333 10038 21070=
07255,1998-02-03 21:00:00,0,1012.2,0.1,80,-3,6000,22.224,,,70,,,,,,,,,,,wg-a,,,,AAXX 03214 07255 12/56 00712 10000 21030 39915 40122 50001 60006 80000 92100=
07255,1998-02-04 00:00:00,-1,1012.1,-0.2,80,-4,6000,18.52,,,70,,,,,,,,,,,wg-a,,,,AAXX 04004 07255 12/56 00710 11010 21040 39913 40121 56002 60006 80000 90000=
07255,1998-02-04 03:00:00,-3,1011.8,-0.4,86,-5,6000,5.556,,,60,,,,,,,,,,,wg-a,,,,AAXX 04034 07255 12/56 00603 11030 21050 39909 40118 57004 60006 80000 90300=
07255,1998-02-04 06:00:00,-5,1012.5,0.5,93,-6,500,3.704,,,40,-5.2,1.5,,,,,,,,,wg-a,,,,AAXX 04064 07255 02/00 00402 11050 21060 39914 40125 53005 60006 80000 90600 333 10015 21052 60004=
07255,1998-02-04 09:00:00,-3,1013.7,1.4,86,-5,500,7.408,,,50,,,,,,,,,,,wg-a,,,,AAXX 04094 07255 12200 /0504 11030 21050 39928 40137 51014 60006 81600 90900=
07255,1998-02-04 12:00:00,2,1013.8,0.4,60,-5,10000,11.112,,,50,,,,,,,,,,,wg-a,,,,AAXX 04124 07255 12/60 00506 10020 21050 39932 40138 50004 60006 80000 91200=
07255,1998-02-04 18:00:00,0,1017,2.2,69,-5,10000,7.408,,,40,-5.3,4.2,,,,,,,,,wg-a,,,,AAXX 04184 07255 12/60 00404 10000 21050 39962 40170 53022 60006 80000 91800 333 10042 21053=
07255,1998-02-05 00:00:00,-4,1020,0.7,86,-6,6000,7.408,,,20,,,,,,,,,,,wg-a,,,,AAXX 05004 07255 12/56 00204 11040 21060 39988 40200 51007 60006 80000 90000=
07255,1998-02-05 03:00:00,-5,1020.8,0.7,93,-6,500,0,,,0,,,,,,,,,,,wg-a,,,,AAXX 05034 07255 12/00 00000 11050 21060 39995 40208 51007 60006 80000 90300=
07255,1998-02-05 06:00:00,-6,1021.9,1,93,-7,4000,3.704,,,290,-6.6,0.1,,,,,,,,10,wg-a,,,,AAXX 05064 07255 02/40 02902 11060 21070 30005 40219 53010 60006 71000 80000 90600 333 10001 21066 60004=
07255,1998-02-05 09:00:00,-4,1023.8,2,86,-6,3500,3.704,,,300,,,,,,,,,,10,wg-a,,,,AAXX 05094 07255 12/35 03002 11040 21060 30025 40238 53020 60006 71000 80000 90900=
07255,1998-02-05 12:00:00,3,1023.1,-0.1,75,-1,4000,3.704,,,10,,,,,,,,,,10,wg-a,,,,AAXX 05124 07255 12/40 00102 10030 21010 30024 40231 58001 60006 71000 80000 91200=
07255,1998-02-05 15:00:00,5,1022.4,-0.5,65,-1,9000,11.112,,,30,,,,,,,,,,,wg-a,,,,AAXX 05154 07255 12/59 00306 10050 21010 30019 40224 55005 60006 80000 91500=
07255,1998-02-05 18:00:00,2,1023.4,0.7,87,0,8000,3.704,,,360,-6.7,5.1,,,,,,,,,wg-a,,,,AAXX 05184 07255 12/58 03602 10020 20000 30026 40234 53007 60006 80000 91800 333 10051 21067=
07255,1998-02-06 00:00:00,-3,1024.8,0.5,93,-4,4500,7.408,,,110,,,,,,,,,,10,wg-a,,,,AAXX 06004 07255 12/45 01104 11030 21040 30036 40248 51005 60006 71000 80000 90000=
07255,1998-02-06 03:00:00,-4,1024.9,0,93,-5,3500,7.408,,,110,,,,,,,,,,10,wg-a,,,,AAXX 06034 07255 12/35 01104 11040 21050 30036 40249 50000 60006 71000 80000 90300=
07255,1998-02-06 06:00:00,-5,1025,-0,93,-6,3500,11.112,,,130,-5.2,1.7,,,,,,,,10,wg-a,,,,AAXX 06064 07255 02/35 01306 11050 21060 30036 40250 54000 60006 71000 80000 90600 333 10017 21052 60004=
07255,1998-02-06 12:00:00,6,1025,-0.5,65,0,6000,11.112,,,120,,,,,,,,,,,wg-a,,,,AAXX 06124 07255 12/56 01206 10060 20000 30045 40250 58005 60006 80000 91200=
07255,1998-02-06 15:00:00,7,1023.6,-1.3,61,0,7000,11.112,,,140,,,,,,,,,,,wg-a,,,,AAXX 06154 07255 12/57 01406 10070 20000 30032 40236 56013 60006 80000 91500=
07255,1998-02-06 18:00:00,1,1023.7,-0.3,80,-2,500,7.408,,,130,-5.1,7.2,,,,,,,,,wg-a,,,,AAXX 06184 07255 12/00 01304 10010 21020 30029 40237 57003 60006 80000 91800 333 10072 21051=
07255,1998-02-06 21:00:00,-2,1024.1,0.1,93,-3,500,11.112,,,120,,,,,,,,,,,wg-a,,,,AAXX 06214 07255 12/00 01206 11020 21030 30030 40241 52001 60006 80000 92100=
07255,1998-02-07 00:00:00,-2,1024,-0.1,86,-4,500,11.112,,,110,,,,,,,,,,,wg-a,,,,AAXX 07004 07255 12/00 /1106 11020 21040 30029 40240 56001 60006 80001 90000=
07255,1998-02-07 03:00:00,-4,1024.5,0.3,93,-5,500,3.704,,,140,,,,,,,,,,,wg-a,,,,AAXX 07034 07255 12/00 31402 11040 21050 30032 40245 51003 60006 80001 90300=
07255,1998-02-07 06:00:00,-4,1024.3,-0.2,93,-5,3000,7.408,,,170,-4.6,1.4,,,,,,,,10,wg-a,,,,AAXX 07064 07255 02/30 /1704 11040 21050 30030 40243 57002 60006 71011 80002 90600 333 10014 21046 60004=
07255,1998-02-07 09:00:00,1,1025.2,1.3,80,-2,4500,18.52,,,230,,,,,,,,,,10,wg-a,,,,AAXX 07094 07255 12745 72310 10010 21020 30043 40252 51013 60006 71022 875// 90900=
07255,1998-02-07 12:00:00,7,1025,0.3,76,3,7000,22.224,,,250,,,,,,,,,,60,wg-a,,,,AAXX 07124 07255 02457 72512 10070 20030 30046 40250 51003 61000 76062 8352/ 91200 333 6100=
07255,1998-02-07 15:00:00,6,1025.8,0.7,93,5,1200,14.816,,,290,,,,2,,,,,,53,wg-a,,,,AAXX 07154 07255 12312 82908 10060 20050 30053 40258 53007 60027 75366 877// 91500=
07255,1998-02-07 18:00:00,5,1028.6,2.6,100,5,800,7.408,,,280,-4.3,7.2,,0,,,,,,44,wg-a,,,,AAXX 07184 07255 02208 82804 10050 20050 30079 40286 51026 60006 74465 886// 91800 333 10072 21043 60007=
07255,1998-02-07 21:00:00,4,1030.7,2,100,4,4000,3.704,,,350,,,,,,,,,,10,wg-a,,,,AAXX 07214 07255 12240 83502 10040 20040 30099 40307 51020 60006 71042 886// 92100=
07255,1998-02-08 00:00:00,3,1031.3,0.6,100,3,7000,7.408,,,140,,,,,,,,,,2,wg-a,,,,AAXX 08004 07255 12357 71404 10030 20030 30105 40313 51006 60006 70242 876// 90000=
07255,1998-02-08 03:00:00,2,1031.5,0.1,100,2,500,7.408,,,150,,,,,,,,,,,wg-a,,,,AAXX 08034 07255 12300 81504 10020 20020 30106 40315 50001 60006 876// 90300=
07255,1998-02-08 06:00:00,1,1031.3,-0.3,93,0,200,7.408,,,110,0.2,4.9,,,,,3,,,44,wg-a,,,,AAXX 08064 07255 02202 41104 10010 20000 30103 40313 56003 60006 74441 84600 90600 333 10049 20002 60034=
07255,1998-02-08 12:00:00,8,1030.6,-0.8,81,5,12000,11.112,,,120,,,,,,,,,,1,wg-a,,,,AAXX 08124 07255 12/62 71206 10080 20050 30101 40306 58008 60006 70141 80001 91200=
07255,1998-02-08 15:00:00,9,1029.3,-1.1,71,4,20000,18.52,,,120,,,,,,,,,,,wg-a,,,,AAXX 08154 07255 12/70 51210 10090 20040 30090 40293 56011 60006 80001 91500=
07255,1998-02-08 18:00:00,4,1029.9,0.1,87,2,20000,14.816,,,100,-0.2,10.1,,,,,,,,,wg-a,,,,AAXX 08184 07255 12/70 21008 10040 20020 30091 40299 53001 60006 80001 91800 333 10101 21002=
07255,1998-02-08 21:00:00,1,1030,-0.1,93,0,15000,18.52,,,100,,,,,,,,,,,wg-a,,,,AAXX 08214 07255 12/65 01010 10010 20000 30090 40300 58001 60006 80000 92100=
07255,1998-02-09 00:00:00,1,1029,-0.9,86,-1,12000,18.52,,,120,,,,,,,,,,,wg-a,,,,AAXX 09004 07255 12/62 01210 10010 21010 30081 40290 58009 60006 80000 90000=
07255,1998-02-09 03:00:00,1,1028,-1.1,86,-1,8000,22.224,,,110,,,,,,,,,,,wg-a,,,,AAXX 09034 07255 12/58 31112 10010 21010 30070 40280 58011 60006 80001 90300=
07255,1998-02-09 06:00:00,0,1027.8,-0.2,86,-2,6000,18.52,,,100,-0.3,3.7,,,,,,,,,wg-a,,,,AAXX 09064 07255 02/56 21010 10000 21020 30068 40278 55002 60006 80001 90600 333 10037 21003 60004=
07255,1998-02-09 09:00:00,3,1028.7,1.1,75,-1,10000,14.816,,,110,,,,,,,,,,,wg-a,,,,AAXX 09094 07255 12/60 51108 10030 21010 30079 40287 51011 60006 80001 90900=
07255,1998-02-09 12:00:00,9,1028,-0.2,61,2,12000,7.408,,,130,,,,,,,,,,,wg-a,,,,AAXX 09124 07255 12/62 51304 10090 20020 30077 40280 58002 60006 80001 91200=
07255,1998-02-09 15:00:00,13,1027.2,-0.5,51,3,25000,11.112,,,140,,,,,,,,,,,wg-a,,,,AAXX 09154 07255 12/75 51406 10130 20030 30072 40272 55005 60006 80001 91500=
07255,1998-02-09 18:00:00,8,1028.2,0.6,66,2,22000,7.408,,,140,-0.5,13.6,,,,,,,,,wg-a,,,,AAXX 09184 07255 12/72 41404 10080 20020 30078 40282 53006 60006 80001 91800 333 10136 21005=
07255,1998-02-09 21:00:00,3,1029.1,0.5,87,1,18000,11.112,,,130,,,,,,,,,,,wg-a,,,,AAXX 09214 07255 12/68 31306 10030 20010 30083 40291 52005 60006 80001 92100=
07255,1998-02-10 00:00:00,2,1030.1,0.9,87,0,12000,7.408,,,110,,,,,,,,,,,wg-a,,,,AAXX 10004 07255 12/62 11104 10020 20000 30092 40301 53009 60006 80001 90000=
07255,1998-02-10 03:00:00,1,1030.4,0.2,86,-1,8000,11.112,,,100,,,,,,,,,,,wg-a,,,,AAXX 10034 07255 12/58 01006 10010 21010 30094 40304 53002 60006 80000 90300=
07255,1998-02-10 06:00:00,0,1031,0.5,93,-1,8000,11.112,,,90,-0.5,7.7,,,,,,,,,wg-a,,,,AAXX 10064 07255 02/58 /0906 10000 21010 30099 40310 53005 60006 80001 90600 333 10077 21005 60004=
07255,1998-02-10 12:00:00,11,1031.6,-0.4,58,3,12000,7.408,,,120,,,,,,,,,,,wg-a,,,,AAXX 10124 07255 12/62 11204 10110 20030 30113 40316 58004 60006 80001 91200=
07255,1998-02-10 15:00:00,15,1029.5,-1.8,48,4,15000,7.408,,,160,,,,,,,,,,,wg-a,,,,AAXX 10154 07255 12/65 21604 10150 20040 30095 40295 56018 60006 80002 91500=
07255,1998-02-10 18:00:00,9,1030.5,0.6,61,2,15000,7.408,,,120,-0.6,15,,,,,,,,,wg-a,,,,AAXX 10184 07255 12/65 21204 10090 20020 30101 40305 53006 60006 80002 91800 333 10150 21006=
07255,1998-02-10 21:00:00,5,1032,1.2,75,1,10000,11.112,,,110,,,,,,,,,,,wg-a,,,,AAXX 10214 07255 12/60 01106 10050 20010 30113 40320 51012 60006 80000 92100=
07255,1998-02-11 00:00:00,2,1032.7,0.4,87,0,10000,11.112,,,110,,,,,,,,,,,wg-a,,,,AAXX 11004 07255 12/60 01106 10020 20000 30117 40327 53004 60006 80000 90000=
07255,1998-02-11 03:00:00,1,1032.4,-0.4,86,-1,10000,7.408,,,110,,,,,,,,,,,wg-a,,,,AAXX 11034 07255 12/60 11104 10010 21010 30113 40324 56004 60006 80001 90300=
07255,1998-02-11 06:00:00,0,1033.1,0.7,93,-1,10000,11.112,,,80,-0.2,8.9,,,,,,,,,wg-a,,,,AAXX 11064 07255 02/60 10806 10000 21010 30120 40331 53007 60006 80001 90600 333 10089 21002 60004=
07255,1998-02-11 09:00:00,4,1033.6,0.7,81,1,8000,7.408,,,140,,,,,,,,,,,wg-a,,,,AAXX 11094 07255 12/58 41404 10040 20010 30127 40336 51007 60006 80001 90900=
07255,1998-02-11 12:00:00,12,1032.5,-0.4,50,2,10000,0,,,0,,,,,,,,,,,wg-a,,,,AAXX 11124 07255 12/60 10000 10120 20020 30123 40325 58004 60006 80001 91200=
07255,1998-02-11 15:00:00,15,1031,-1.3,41,2,15000,3.704,,,120,,,,,,,,,,,wg-a,,,,AAXX 11154 07255 12/65 31202 10150 20020 30110 40310 56013 60006 80001 91500=
07255,1998-02-11 18:00:00,10,1031.8,0.4,62,3,15000,3.704,,,120,0.2,15.3,,,,,,,,,wg-a,,,,AAXX 11184 07255 12/65 41202 10100 20030 30114 40318 53004 60006 80001 91800 333 10153 20002=
07255,1998-02-11 21:00:00,4,1032.7,0.5,87,2,12000,7.408,,,150,,,,,,,,,,,wg-a,,,,AAXX 11214 07255 12/62 11504 10040 20020 30119 40327 51005 60006 80001 92100=
07255,1998-02-12 00:00:00,2,1033.5,0.6,93,1,10000,3.704,,,110,,,,,,,,,,,wg-a,,,,AAXX 12004 07255 12/60 31102 10020 20010 30125 40335 53006 60006 80002 90000=
07255,1998-02-12 03:00:00,0,1033.8,0.2,93,-1,9000,11.112,,,120,,,,,,,,,,,wg-a,,,,AAXX 12034 07255 12/59 /1206 10000 21010 30127 40338 53002 60006 80001 90300=
07255,1998-02-12 06:00:00,0,1034.5,0.6,93,-1,8000,7.408,,,110,-0.4,9.6,,,,,,,,,wg-a,,,,AAXX 12064 07255 02/58 /1104 10000 21010 30133 40345 52006 60006 80001 90600 333 10096 21004 60004=
07255,1998-02-12 09:00:00,4,1035.2,1,81,1,8000,7.408,,,110,,,,,,,,,,,wg-a,,,,AAXX 12094 07255 12/58 21104 10040 20010 30143 40352 51010 60006 80002 90900=
07255,1998-02-12 12:00:00,13,1034.3,-0.2,54,4,10000,3.704,,,30,,,,,,,,,,,wg-a,,,,AAXX 12124 07255 12/60 20302 10130 20040 30141 40343 58002 60006 80001 91200=
07255,1998-02-12 15:00:00,17,1032.8,-1.2,45,5,12000,3.704,,,120,,,,,,,,,,,wg-a,,,,AAXX 12154 07255 12/62 11202 10170 20050 30129 40328 56012 60006 80001 91500=
07255,1998-02-12 18:00:00,12,1033.5,0.4,62,5,12000,11.112,,,80,-0.6,16.9,,,,,,,,,wg-a,,,,AAXX 12184 07255 12/62 10806 10120 20050 30133 40335 53004 60006 80001 91800 333 10169 21006=
07255,1998-02-12 21:00:00,7,1034.1,0.2,87,5,12000,11.112,,,100,,,,,,,,,,,wg-a,,,,AAXX 12214 07255 12/62 01006 10070 20050 30135 40341 53002 60006 80000 92100=
07255,1998-02-13 00:00:00,4,1034.7,0.3,93,3,10000,7.408,,,120,,,,,,,,,,,wg-a,,,,AAXX 13004 07255 12/60 01204 10040 20030 30138 40347 53003 60006 80000 90000=
07255,1998-02-13 03:00:00,3,1034.1,-0.6,93,2,10000,18.52,,,90,,,,,,,,,,,wg-a,,,,AAXX 13034 07255 12/60 00910 10030 20020 30132 40341 58006 60006 80000 90300=
07255,1998-02-13 09:00:00,6,1035.2,0.8,75,2,8000,14.816,,,110,,,,,,,,,,,wg-a,,,,AAXX 13094 07255 12/58 /1108 10060 20020 30145 40352 52008 60006 80001 90900=
07255,1998-02-13 12:00:00,13,1034.3,-0.4,58,5,10000,7.408,,,100,,,,,,,,,,,wg-a,,,,AAXX 13124 07255 12/60 11004 10130 20050 30141 40343 58004 60006 80001 91200=
07255,1998-02-13 15:00:00,17,1032.9,-1.1,42,4,12000,11.112,,,100,,,,,,,,,,,wg-a,,,,AAXX 13154 07255 12/62 11006 10170 20040 30130 40329 56011 60006 80001 91500=
07255,1998-02-13 18:00:00,11,1033.4,0.1,62,4,12000,3.704,,,120,1.8,17,,,,,,,,,wg-a,,,,AAXX 13184 07255 12/62 11202 10110 20040 30131 40334 53001 60006 80001 91800 333 10170 20018=
07255,1998-02-13 21:00:00,8,1034.2,0.6,71,3,10000,11.112,,,90,,,,,,,,,,,wg-a,,,,AAXX 13214 07255 12/60 00906 10080 20030 30137 40342 51006 60006 80000 92100=
07255,1998-02-14 00:00:00,5,1034.5,-0,81,2,10000,7.408,,,110,,,,,,,,,,,wg-a,,,,AAXX 14004 07255 12/60 01104 10050 20020 30137 40345 55000 60006 80000 90000=
07255,1998-02-14 03:00:00,4,1034,-0.6,87,2,8000,11.112,,,110,,,,,,,,,,,wg-a,,,,AAXX 14034 07255 12/58 01106 10040 20020 30131 40340 57006 60006 80000 90300=
07255,1998-02-14 06:00:00,3,1034.3,0.3,87,1,8000,14.816,,,100,2.9,11.1,,,,,,,,,wg-a,,,,AAXX 14064 07255 02/58 01008 10030 20010 30134 40343 51003 60006 80000 90600 333 10111 20029 60004=
07255,1998-02-14 09:00:00,6,1034.8,0.7,81,3,8000,14.816,,,100,,,,,,,,,,,wg-a,,,,AAXX 14094 07255 12/58 01008 10060 20030 30141 40348 53007 60006 80000 90900=
07255,1998-02-14 12:00:00,17,1033.4,-0.6,52,7,9000,11.112,,,120,,,,,,,,,,,wg-a,,,,AAXX 14124 07255 12/59 01206 10170 20070 30135 40334 58006 60006 80000 91200=
07255,1998-02-14 15:00:00,17,1032.8,-0.6,52,7,12000,7.408,,,90,,,,,,,,,,,wg-a,,,,AAXX 14154 07255 12/62 00904 10170 20070 30129 40328 55006 60006 80000 91500=
07255,1998-02-14 18:00:00,13,1033.7,0.6,67,7,12000,3.704,,,110,2.6,17.4,,,,,,,,,wg-a,,,,AAXX 14184 07255 12/62 11102 10130 20070 30135 40337 53006 60006 81030 91800 333 10174 20026=
07255,1998-02-14 21:00:00,7,1034.6,0.5,87,5,12000,11.112,,,110,,,,,,,,,,,wg-a,,,,AAXX 14214 07255 12/62 01106 10070 20050 30140 40346 51005 60006 80000 92100=
07255,1998-02-15 00:00:00,5,1035.1,0.3,93,4,7000,3.704,,,80,,,,,,,,,,,wg-a,,,,AAXX 15004 07255 12/57 00802 10050 20040 30143 40351 53003 60006 80000 90000=
07255,1998-02-15 03:00:00,3,1033.8,-1.4,100,3,4000,7.408,,,120,,,,,,,,,,10,wg-a,,,,AAXX 15034 07255 12/40 01204 10030 20030 30129 40338 57014 60006 71000 80000 90300=
07255,1998-02-15 06:00:00,1,1034.5,0.6,100,1,2800,14.816,,,110,1,13,,,,,,,,10,wg-a,,,,AAXX 15064 07255 02/28 01108 10010 20010 30135 40345 51006 60006 71000 80000 90600 333 10130 20010 60004=
07255,1998-02-15 09:00:00,5,1034.5,0.3,100,5,4500,11.112,,,100,,,,0,,,,,,10,wg-a,,,,AAXX 15094 07255 12/45 21006 10050 20050 30138 40345 50003 60007 71000 80001 90900=
07255,1998-02-15 12:00:00,15,1033.1,-0.7,63,8,6000,11.112,,,120,,,,,,,,,,,wg-a,,,,AAXX 15124 07255 12/56 71206 10150 20080 30131 40331 58007 60006 80001 91200=
07255,1998-02-15 15:00:00,18,1030.9,-2,56,9,10000,14.816,,,130,,,,,,,,,,,wg-a,,,,AAXX 15154 07255 12/60 41308 10180 20090 30111 40309 56020 60006 80001 91500=
07255,1998-02-15 18:00:00,12,1030.7,-0.6,71,7,10000,11.112,,,130,1.1,18.2,,,,,,,,,wg-a,,,,AAXX 15184 07255 12/60 51306 10120 20070 30105 40307 57006 60006 80001 91800 333 10182 20011=
07255,1998-02-15 21:00:00,8,1030,-0.9,87,6,10000,7.408,,,140,,,,,,,,,,,wg-a,,,,AAXX 15214 07255 12/60 61404 10080 20060 30096 40300 56009 60006 80001 92100=
07255,1998-02-16 00:00:00,4,1029.2,-1.1,100,4,8000,11.112,,,120,,,,,,,,,,,wg-a,,,,AAXX 16004 07255 12/58 /1206 10040 20040 30085 40292 58011 60006 80001 90000=
07255,1998-02-16 03:00:00,4,1028.1,-1.1,100,4,7000,7.408,,,110,,,,,,,,,,,wg-a,,,,AAXX 16034 07255 12/57 /1104 10040 20040 30074 40281 58011 60006 80001 90300=
07255,1998-02-16 06:00:00,4,1027.9,-0.2,100,4,6000,7.408,,,200,3.4,11.7,,,,,,,,,wg-a,,,,AAXX 16064 07255 02/56 72004 10040 20040 30072 40279 58002 60006 82036 90600 333 10117 20034 60004=
07255,1998-02-16 09:00:00,10,1028.5,1,76,6,10000,11.112,,,270,,,,,,,,,,,wg-a,,,,AAXX 16094 07255 12660 82706 10100 20060 30082 40285 51010 60006 875// 90900=
07255,1998-02-16 12:00:00,11,1028.7,0.3,94,10,8000,14.816,,,290,,,,,,,,,,50,wg-a,,,,AAXX 16124 07255 02258 82908 10110 20100 30085 40287 50003 61000 75052 877// 91200 333 6100=
07255,1998-02-16 15:00:00,12,1028.2,-0.4,88,10,10000,18.52,,,300,,,,,,,,,,1,wg-a,,,,AAXX 16154 07255 02460 73010 10120 20100 30081 40282 58004 61000 70152 8583/ 91500 333 ////=
07255,1998-02-16 18:00:00,10,1030.1,1.7,82,7,12000,14.816,,,300,3.9,12.5,,,,,,,,1,wg-a,,,,AAXX 16184 07255 12562 73008 10100 20070 30098 40301 53017 60006 70152 85502 91800 333 10125 20039=
07255,1998-02-16 21:00:00,8,1031.8,1.5,81,5,12000,7.408,,,290,,,,,,,,,,,wg-a,,,,AAXX 16214 07255 12662 42904 10080 20050 30113 40318 51015 60006 84500 92100=
07255,1998-02-17 00:00:00,8,1033,1.2,81,5,12000,7.408,,,320,,,,,,,,,,,wg-a,,,,AAXX 17004 07255 12662 73204 10080 20050 30125 40330 51012 60006 875// 90000=
07255,1998-02-17 03:00:00,7,1033.4,0.3,87,5,10000,7.408,,,310,,,,,,,,,,,wg-a,,,,AAXX 17034 07255 12660 73104 10070 20050 30128 40334 50003 60006 875// 90300=
07255,1998-02-17 06:00:00,6,1034.4,0.9,93,5,8000,7.408,,,340,5.8,10.5,,,,,,,,,wg-a,,,,AAXX 17064 07255 02658 73404 10060 20050 30137 40344 53009 60006 875// 90600 333 10105 20058 61000=
07255,1998-02-17 09:00:00,7,1035.7,1.4,93,6,12000,7.408,,,360,,,,,,,,,,,wg-a,,,,AAXX 17094 07255 12562 73604 10070 20060 30151 40357 52014 60006 875// 90900=
07255,1998-02-17 12:00:00,10,1036.4,0.9,66,4,12000,14.816,,,60,,,,,,,,,,,wg-a,,,,AAXX 17124 07255 12562 70608 10100 20040 30160 40364 50009 60006 878// 91200=
07255,1998-02-17 15:00:00,11,1035.6,-0.7,58,3,15000,11.112,,,50,,,,,,,,,,,wg-a,,,,AAXX 17154 07255 12565 /0506 10110 20030 30153 40356 56007 60006 81500 91500=
07255,1998-02-17 18:00:00,8,1036.1,0.2,71,3,15000,11.112,,,80,6,11.7,,,,,,,,,wg-a,,,,AAXX 17184 07255 12/65 00806 10080 20030 30155 40361 53002 60006 80000 91800 333 10117 20060=
07255,1998-02-17 21:00:00,5,1037.2,0.9,75,1,12000,14.816,,,70,,,,,,,,,,,wg-a,,,,AAXX 17214 07255 12/62 00708 10050 20010 30164 40372 51009 60006 80000 92100=
07255,1998-02-18 00:00:00,3,1036.7,-0.7,81,0,10000,11.112,,,100,,,,,,,,,,,wg-a,,,,AAXX 18004 07255 12/60 01006 10030 20000 30157 40367 58007 60006 80000 90000=
07255,1998-02-18 03:00:00,1,1035.1,-1.7,86,-1,10000,14.816,,,120,,,,,,,,,,,wg-a,,,,AAXX 18034 07255 12/60 01208 10010 21010 30140 40351 56017 60006 80000 90300=
07255,1998-02-18 06:00:00,0,1034.2,-0.9,93,-1,9000,18.52,,,110,-0.2,8.1,,,,,,,,,wg-a,,,,AAXX 18064 07255 02/59 01110 10000 21010 30131 40342 56009 60006 80000 90600 333 10081 21002 60004=
07255,1998-02-18 09:00:00,3,1033.6,-0.4,93,2,4000,25.928,,,100,,,,,,,,,,10,wg-a,,,,AAXX 18094 07255 12140 21014 10030 20020 30127 40336 58004 60006 71000 82600 90900=
07255,1998-02-18 12:00:00,12,1031.6,-1.3,62,5,10000,18.52,,,140,,,,,,,,,,,wg-a,,,,AAXX 18124 07255 12/60 11410 10120 20050 30114 40316 58013 60006 80002 91200=
07255,1998-02-18 15:00:00,15,1029.8,-1.6,48,4,15000,7.408,,,140,,,,,,,,,,,wg-a,,,,AAXX 18154 07255 12/65 21404 10150 20040 30098 40298 56016 60006 80002 91500=
07255,1998-02-18 18:00:00,10,1030.3,0.2,71,5,15000,11.112,,,150,0.2,14.8,,,,,,,,,wg-a,,,,AAXX 18184 07255 12/65 51506 10100 20050 30100 40303 53002 60006 80001 91800 333 10148 20002=
07255,1998-02-18 21:00:00,5,1030.8,0.1,93,4,12000,11.112,,,150,,,,,,,,,,,wg-a,,,,AAXX 18214 07255 12/62 11506 10050 20040 30101 40308 53001 60006 80001 92100=
07255,1998-02-19 00:00:00,5,1031.5,0.7,87,3,10000,7.408,,,220,,,,,,,,,,,wg-a,,,,AAXX 19004 07255 12/60 12204 10050 20030 30108 40315 52007 60006 80001 90000=
07255,1998-02-19 03:00:00,5,1032.8,1.2,87,3,10000,7.408,,,270,,,,,,,,,,,wg-a,,,,AAXX 19034 07255 12/60 02704 10050 20030 30120 40328 51012 60006 80000 90300=
07255,1998-02-19 06:00:00,3,1033.4,0.5,93,2,6000,7.408,,,260,2.6,9.6,,,,,,,,,wg-a,,,,AAXX 19064 07255 02/56 32604 10030 20020 30125 40334 53005 60006 80001 90600 333 10096 20026 60004=
07255,1998-02-19 09:00:00,4,1034.7,1.4,100,4,1500,3.704,,,20,,,,,,,,,,10,wg-a,,,,AAXX 19094 07255 12215 80202 10040 20040 30139 40347 51014 60006 71011 886// 90900=
07255,1998-02-19 12:00:00,8,1033.7,-0.7,93,7,4000,3.704,,,180,,,,,,,,,,10,wg-a,,,,AAXX 19124 07255 12340 81802 10080 20070 30132 40337 58007 60006 71011 886// 91200=
07255,1998-02-19 15:00:00,11,1031.2,-2.2,76,7,8000,7.408,,,100,,,,0,,,,,,,wg-a,,,,AAXX 19154 07255 12/58 31004 10110 20070 30110 40312 56022 60007 80001 91500=
07255,1998-02-19 18:00:00,9,1030.1,-1.2,87,7,7000,7.408,,,90,2.9,12.2,,,,,,,,,wg-a,,,,AAXX 19184 07255 12/57 40904 10090 20070 30098 40301 56012 60006 80002 91800 333 10122 20029=
07255,1998-02-19 21:00:00,5,1029.4,-1.1,93,4,500,11.112,,,100,,,,,,,,,,,wg-a,,,,AAXX 19214 07255 12/00 /1006 10050 20040 30087 40294 56011 60006 80002 92100=
07255,1998-02-20 00:00:00,4,1027.5,-1.9,93,3,3500,14.816,,,110,,,,,,,,,,10,wg-a,,,,AAXX 20004 07255 12/35 21108 10040 20030 30068 40275 58019 60006 71011 80002 90000=
07255,1998-02-20 03:00:00,4,1025.4,-2,100,4,3500,14.816,,,90,,,,,,,,,,10,wg-a,,,,AAXX 20034 07255 12/35 30908 10040 20040 30048 40254 56020 60006 71000 80001 90300=
07255,1998-02-20 06:00:00,4,1023.7,-1.7,93,3,4000,18.52,,,90,3.7,9.3,,,,,,,,10,wg-a,,,,AAXX 20064 07255 02/40 30910 10040 20030 30031 40237 56017 60006 71000 80001 90600 333 10093 20037 60004=
07255,1998-02-20 09:00:00,7,1022.8,-0.7,87,5,3000,18.52,,,110,,,,,,,,,,10,wg-a,,,,AAXX 20094 07255 12/30 /1110 10070 20050 30024 40228 58007 60006 71011 80001 90900=
07255,1998-02-20 12:00:00,16,1020.1,-2,55,7,8000,14.816,,,130,,,,,,,,,,,wg-a,,,,AAXX 20124 07255 12/58 /1308 10160 20070 30004 40201 58020 60006 80001 91200=
07255,1998-02-20 15:00:00,18,1017.6,-2.3,56,9,12000,11.112,,,140,,,,,,,,,,,wg-a,,,,AAXX 20154 07255 12/62 71406 10180 20090 39981 40176 56023 60006 80002 91500=
07255,1998-02-20 18:00:00,13,1017.7,-0.3,72,8,12000,11.112,,,140,3.6,19,,,,,,,,,wg-a,,,,AAXX 20184 07255 12/62 71406 10130 20080 39978 40177 55003 60006 80002 91800 333 10190 20036=
07255,1998-02-20 21:00:00,10,1018.9,1,82,7,10000,7.408,,,220,,,,,,,,,,,wg-a,,,,AAXX 20214 07255 12/60 42204 10100 20070 39988 40189 52010 60006 80001 92100=
07255,1998-02-21 00:00:00,7,1020,0.9,76,3,8000,11.112,,,230,,,,,,,,,,,wg-a,,,,AAXX 21004 07255 12/58 02306 10070 20030 39997 40200 51009 60006 80000 90000=
07255,1998-02-21 03:00:00,5,1019.5,-0.6,87,3,6000,11.112,,,180,,,,,,,,,,,wg-a,,,,AAXX 21034 07255 12/56 41806 10050 20030 39991 40195 58006 60006 80001 90300=
07255,1998-02-21 06:00:00,3,1018.7,-1,93,2,9000,14.816,,,120,3,12.8,,,,,,,,,wg-a,,,,AAXX 21064 07255 02/59 /1208 10030 20020 39981 40187 58010 60006 80002 90600 333 10128 20030 60004=
07255,1998-02-21 09:00:00,8,1017.5,-0.8,76,4,11000,14.816,,,130,,,,,,,,,,,wg-a,,,,AAXX 21094 07255 12/61 81308 10080 20040 39973 40175 56008 60006 84032 90900=
07255,1998-02-21 12:00:00,14,1017.2,0.1,58,6,15000,14.816,,,210,,,,,,,,,,,wg-a,,,,AAXX 21124 07255 12765 82108 10140 20060 39974 40172 50001 60006 8352/ 91200=
07255,1998-02-21 15:00:00,11,1018.9,1.5,82,8,15000,25.928,,,260,,,,,,,,,,60,wg-a,,,,AAXX 21154 07255 02565 82614 10110 20080 39989 40189 53015 61000 76062 875// 91500 333 ////=
07255,1998-02-21 18:00:00,9,1020.3,1.2,93,8,8000,7.408,,,280,2.4,14.9,,,,,,,,61,wg-a,,,,AAXX 21184 07255 02558 82804 10090 20080 30001 40203 51012 61000 76162 8652/ 91800 333 10149 20024 6004=
07255,1998-02-21 21:00:00,8,1020.9,0.5,100,8,12000,14.816,,,210,,,,0,,,,,,1,wg-a,,,,AAXX 21214 07255 12662 82108 10080 20080 30006 40209 51005 60007 70162 8557/ 92100=
07255,1998-02-22 00:00:00,8,1020.6,-0.3,93,7,20000,11.112,,,260,,,,,,,,,,1,wg-a,,,,AAXX 22004 07255 12670 82606 10080 20070 30003 40206 58003 60016 70162 8357/ 90000=
07255,1998-02-22 03:00:00,8,1019.9,-0.7,93,7,15000,11.112,,,220,,,,0,,,,,,61,wg-a,,,,AAXX 22034 07255 12665 82206 10080 20070 39996 40199 58007 60007 76162 8557/ 90300=
07255,1998-02-22 06:00:00,7,1019.8,-0.1,93,6,18000,18.52,,,250,7,8.6,,,,,,,,21,wg-a,,,,AAXX 22064 07255 02468 82510 10070 20060 39995 40198 55001 61000 72162 878// 90600 333 10086 20070 6005=
07255,1998-02-22 09:00:00,7,1022.8,2.9,87,5,500,18.52,,,270,,,,,,,,,,,wg-a,,,,AAXX 22094 07255 12300 72710 10070 20050 30024 40228 51029 60006 8683/ 90900=
07255,1998-02-22 12:00:00,8,1023.6,0.9,76,4,25000,18.52,,,280,,,,,,,,,,,wg-a,,,,AAXX 22124 07255 12475 /2810 10080 20040 30033 40236 50009 60006 86800 91200=
07255,1998-02-22 15:00:00,6,1025,1.2,87,4,20000,11.112,,,280,,,,0,,,,,,15,wg-a,,,,AAXX 22154 07255 12470 72806 10060 20040 30045 40250 51012 60007 71587 879// 91500=
07255,1998-02-22 18:00:00,5,1028.2,3.1,87,3,15000,11.112,,,20,4.7,9.4,,,,,,,,25,wg-a,,,,AAXX 22184 07255 02465 70206 10050 20030 30076 40282 53031 61000 72587 85903 91800 333 10094 20047 6000=
07255,1998-02-22 21:00:00,4,1031.2,2.8,87,2,25000,7.408,,,310,,,,,,,,,,,wg-a,,,,AAXX 22214 07255 12775 73104 10040 20020 30104 40312 53028 60006 875// 92100=
07255,1998-02-23 00:00:00,2,1033.1,1.7,93,1,22000,7.408,,,340,,,,,,,,,,,wg-a,,,,AAXX 23004 07255 12/72 13404 10020 20010 30121 40331 51017 60006 80002 90000=
07255,1998-02-23 03:00:00,1,1034.2,1,93,0,7000,7.408,,,330,,,,,,,,,,,wg-a,,,,AAXX 23034 07255 12/57 03304 10010 20000 30131 40342 51010 60006 80000 90300=
07255,1998-02-23 06:00:00,1,1035.8,1.6,100,1,1200,7.408,,,330,0.5,5.1,,,,,1,,,10,wg-a,,,,AAXX 23064 07255 02112 83304 10010 20010 30147 40358 51016 60006 71041 886// 90600 333 10051 20005 60014=
07255,1998-02-23 09:00:00,2,1037,1.3,100,2,300,11.112,,,10,,,,,,,,,,45,wg-a,,,,AAXX 23094 07255 12/03 90106 10020 20020 30160 40370 53013 60006 74542 89/// 90900=
07255,1998-02-23 12:00:00,5,1037,0.2,93,4,3500,14.816,,,320,,,,,,,,,,10,wg-a,,,,AAXX 23124 07255 12235 /3208 10050 20040 30162 40370 50002 60006 71042 86600 91200=
07255,1998-02-23 15:00:00,10,1035.9,-0.8,62,3,25000,14.816,,,340,,,,,,,,,,,wg-a,,,,AAXX 23154 07255 12575 43408 10100 20030 30154 40359 56008 60006 84200 91500=
07255,1998-02-23 18:00:00,7,1037,0.9,70,2,25000,7.408,,,10,0.8,9.6,,,,,,,,,wg-a,,,,AAXX 23184 07255 12/75 20104 10070 20020 30163 40370 53009 60006 80001 91800 333 10096 20008=
07255,1998-02-23 21:00:00,4,1037.8,0.6,81,1,20000,11.112,,,360,,,,,,,,,,,wg-a,,,,AAXX 23214 07255 12/70 23606 10040 20010 30169 40378 53006 60006 80001 92100=
07255,1998-02-24 00:00:00,3,1037.7,-0.2,87,1,20000,7.408,,,300,,,,,,,,,,,wg-a,,,,AAXX 24004 07255 12/70 53004 10030 20010 30167 40377 58002 60006 81031 90000=
07255,1998-02-24 03:00:00,3,1037,-0.7,93,2,15000,7.408,,,300,,,,,,,,,,,wg-a,,,,AAXX 24034 07255 12665 73004 10030 20020 30160 40370 58007 60006 875// 90300=
07255,1998-02-24 06:00:00,3,1037.1,0.2,93,2,10000,3.704,,,270,1.9,6.6,,,,,,,,,wg-a,,,,AAXX 24064 07255 02560 82702 10030 20020 30162 40371 50002 60006 875// 90600 333 10066 20019 60004=
07255,1998-02-24 09:00:00,5,1038.4,1.3,93,4,3000,3.704,,,280,,,,,,,,,,50,wg-a,,,,AAXX 24094 07255 02230 82802 10050 20040 30175 40384 52013 61000 75052 877// 90900 333 ////=
07255,1998-02-24 12:00:00,8,1038,-0.1,100,8,1800,3.704,,,340,,,,,,,,,,10,wg-a,,,,AAXX 24124 07255 02218 83402 10080 20080 30174 40380 58001 61000 71054 887// 91200 333 6100=
07255,1998-02-24 15:00:00,10,1036.7,-1.2,87,8,4500,7.408,,,330,,,,,,,,,,10,wg-a,,,,AAXX 24154 07255 02345 83304 10100 20080 30162 40367 56012 61000 71052 875// 91500 333 ////=
07255,1998-02-24 18:00:00,9,1037.4,0.7,93,8,6000,11.112,,,40,3.3,9.8,,,,,,,,1,wg-a,,,,AAXX 24184 07255 12456 80406 10090 20080 30169 40374 53007 60006 70152 875// 91800 333 10098 20033=
07255,1998-02-24 21:00:00,9,1038.1,0.6,87,7,6000,7.408,,,50,,,,,,,,,,,wg-a,,,,AAXX 24214 07255 12556 80504 10090 20070 30175 40381 52006 60006 875// 92100=
07255,1998-02-25 00:00:00,7,1038.1,-0.1,93,6,4000,3.704,,,340,,,,,,,,,,10,wg-a,,,,AAXX 25004 07255 12540 83402 10070 20060 30174 40381 58001 60006 71022 875// 90000=
07255,1998-02-25 03:00:00,7,1036.8,-1.2,100,7,3500,7.408,,,350,,,,,,,,,,10,wg-a,,,,AAXX 25034 07255 12235 83504 10070 20070 30162 40368 58012 60006 71022 875// 90300=
07255,1998-02-25 06:00:00,8,1036.6,-0.2,93,7,4000,7.408,,,40,6.5,9.4,,,,,,,,10,wg-a,,,,AAXX 25064 07255 02540 80404 10080 20070 30160 40366 58002 60006 71022 885// 90600 333 10094 20065 61000=
07255,1998-02-25 09:00:00,9,1037.2,0.7,87,7,3000,7.408,,,30,,,,,,,,,,10,wg-a,,,,AAXX 25094 07255 12530 80304 10090 20070 30167 40372 52007 60006 71022 885// 90900=
07255,1998-02-25 12:00:00,11,1036.4,-0.7,82,8,4800,14.816,,,60,,,,,,,,,,10,wg-a,,,,AAXX 25124 07255 12448 80608 10110 20080 30160 40364 58007 60006 71022 885// 91200=
07255,1998-02-25 18:00:00,10,1034.7,-0.3,87,8,500,7.408,,,20,7.6,11,,,,,,,,,wg-a,,,,AAXX 25184 07255 12400 80204 10100 20080 30143 40347 55003 60006 886// 91800 333 10110 20076=
07255,1998-02-25 21:00:00,10,1034.9,0.2,87,8,6000,7.408,,,40,,,,,,,,,,,wg-a,,,,AAXX 25214 07255 12456 80404 10100 20080 30145 40349 51002 60006 885// 92100=
07255,1998-02-26 00:00:00,9,1034.2,-0.8,87,7,500,14.816,,,60,,,,,,,,,,,wg-a,,,,AAXX 26004 07255 12400 20608 10090 20070 30137 40342 58008 60006 82500 90000=
07255,1998-02-26 03:00:00,7,1033.9,-0.4,93,6,500,7.408,,,70,,,,,,,,,,,wg-a,,,,AAXX 26034 07255 12/00 00704 10070 20060 30133 40339 58004 60006 80000 90300=
07255,1998-02-26 06:00:00,4,1034.4,0.2,93,3,500,7.408,,,160,3.1,10.2,,,,,,,,44,wg-a,,,,AAXX 26064 07255 02/05 01604 10040 20030 30135 40344 53002 60006 74440 80000 90600 333 10102 20031 60004=
07255,1998-02-26 09:00:00,4,1034.7,0.4,100,4,500,0,,,0,,,,,,,,,,45,wg-a,,,,AAXX 26094 07255 12/00 90000 10040 20040 30139 40347 50004 60006 74544 89/// 90900=
07255,1998-02-26 12:00:00,7,1034.1,-0.4,100,7,800,3.704,,,300,,,,,,,,,,42,wg-a,,,,AAXX 26124 07255 12008 83002 10070 20070 30135 40341 58004 60006 74244 886// 91200=
07255,1998-02-26 15:00:00,13,1031.9,-1.8,72,8,500,7.408,,,190,,,,,,,,,,3,wg-a,,,,AAXX 26154 07255 12400 31904 10130 20080 30117 40319 56018 60006 70341 83500 91500=
07255,1998-02-27 00:00:00,7,1031.9,-0.7,93,6,3000,3.704,,,330,,,,,,,,,,10,wg-a,,,,AAXX 27004 07255 12430 73302 10070 20060 30113 40319 58007 60006 71011 875// 90000=
07255,1998-02-27 03:00:00,7,1031,-0.8,93,6,3000,0,,,0,,,,,,,,,,10,wg-a,,,,AAXX 27034 07255 12330 80000 10070 20060 30105 40310 58008 60006 71022 886// 90300=
07255,1998-02-27 06:00:00,7,1029.9,-1.1,93,6,3500,0,,,0,6.1,11.3,,,,,,,,10,wg-a,,,,AAXX 27064 07255 02535 80000 10070 20060 30094 40299 57011 60006 71022 885// 90600 333 10113 20061 60004=
07255,1998-02-27 09:00:00,8,1029.9,0,93,7,2000,7.408,,,190,,,,,,,,,,10,wg-a,,,,AAXX 27094 07255 12320 81904 10080 20070 30094 40299 50000 60006 71022 885// 90900=
07255,1998-02-27 12:00:00,10,1028.7,-0.9,87,8,4500,14.816,,,270,,,,,,,,,,10,wg-a,,,,AAXX 27124 07255 12445 82708 10100 20080 30085 40287 58009 60006 71022 875// 91200=
07255,1998-02-27 15:00:00,10,1026.9,-1.9,82,7,6000,14.816,,,270,,,,,,,,,,,wg-a,,,,AAXX 27154 07255 12456 82708 10100 20070 30066 40269 57019 60006 875// 91500=
07255,1998-02-27 18:00:00,8,1026.3,-0.7,87,6,7000,18.52,,,260,6.7,10.4,,,,,,,,,wg-a,,,,AAXX 27184 07255 12457 82610 10080 20060 30059 40263 56007 60006 875// 91800 333 10104 20067=
07255,1998-02-27 21:00:00,8,1025.5,-0.8,87,6,500,14.816,,,250,,,,,,,,,,3,wg-a,,,,AAXX 27214 07255 02400 82508 10080 20060 30051 40255 58008 61000 70352 876// 92100 333 ////=
07255,1998-02-28 00:00:00,8,1023.9,-1.5,87,6,500,22.224,,,250,,,,,,,,,,1,wg-a,,,,AAXX 28004 07255 02400 82512 10080 20060 30036 40239 58015 61000 70152 885// 90000 333 ////=
07255,1998-02-28 03:00:00,7,1021.7,-2.2,100,7,500,22.224,,,250,,,,,,,,,,,wg-a,,,,AAXX 28034 07255 12400 82512 10070 20070 30014 40217 58022 60006 885// 90300=
07255,1998-02-28 06:00:00,7,1020.3,-1.4,93,6,6000,22.224,,,260,7,8.2,,,,,,,,,wg-a,,,,AAXX 28064 07255 02356 82612 10070 20060 30000 40203 56014 60006 885// 90600 333 10082 20070 61000=
07255,1998-02-28 09:00:00,8,1020.3,0,87,6,12000,22.224,,,260,,,,2,,,,,,60,wg-a,,,,AAXX 28094 07255 12262 72612 10080 20060 30000 40203 50000 60027 76065 878// 90900=
07255,1998-02-28 12:00:00,10,1019.9,-0.2,76,6,25000,25.928,,,280,,,,,,,,,,1,wg-a,,,,AAXX 28124 07255 02575 72814 10100 20060 39998 40199 58002 60026 70165 878// 91200 333 61000=
07255,1998-02-28 15:00:00,10,1018.1,-1.7,76,6,20000,25.928,,42.596,270,,,,,,,,,,1,wg-a,,,,AAXX 28154 07255 02570 72714 10100 20060 39981 40181 56017 61000 70162 878// 91500 333 //// 91023=
07255,1998-02-28 18:00:00,7,1019.2,0.8,93,6,4500,11.112,,,330,6.8,10.8,,,,,,,,61,wg-a,,,,AAXX 28184 07255 02445 83306 10070 20060 39989 40192 53008 61000 76162 888// 91800 333 10108 20068 6002=
07255,1998-02-28 21:00:00,7,1019.5,0.3,93,6,15000,11.112,,,270,,,,0,,,,,,2,wg-a,,,,AAXX 28214 07255 12765 82706 10070 20060 39992 40195 53003 60007 70262 875// 92100=
07255,1998-03-01 00:00:00,6,1019.8,0.2,100,6,12000,7.408,,,290,,,,,,,,,,3,wg-a,,,,AAXX 01004 07255 12462 82904 10060 20060 39994 40198 52002 60016 70362 878// 90000=
07255,1998-03-01 03:00:00,5,1020.3,0.4,87,3,15000,7.408,,,320,,,,,,,,,,,wg-a,,,,AAXX 01034 07255 12765 83204 10050 20030 39998 40203 51004 60006 875// 90300=
07255,1998-03-01 06:00:00,3,1021.6,1.1,93,2,15000,7.408,,,260,2.8,7.2,,,,,4,,,,wg-a,,,,AAXX 01064 07255 02765 52604 10030 20020 30009 40216 51011 60006 84532 90600 333 10072 20028 60044=
07255,1998-03-01 09:00:00,6,1023,1.6,75,2,25000,7.408,,,270,,,,,,,,,,,wg-a,,,,AAXX 01094 07255 12775 62704 10060 20020 30025 40230 53016 60006 81532 90900=
07255,1998-03-01 12:00:00,9,1022.7,-0.1,57,1,25000,11.112,,,300,,,,,,,,,,,wg-a,,,,AAXX 01124 07255 12575 73006 10090 20010 30024 40227 58001 60006 86532 91200=
07255,1998-03-01 15:00:00,10,1021.6,-1,62,3,25000,14.816,,,280,,,,,,,,,,,wg-a,,,,AAXX 01154 07255 12675 72808 10100 20030 30014 40216 56010 60006 86802 91500=
07255,1998-03-01 18:00:00,9,1022.2,0.5,76,5,25000,7.408,,,260,2.1,9.9,,,,,,,,,wg-a,,,,AAXX 01184 07255 12675 72604 10090 20050 30019 40222 53005 60006 8/800 91800 333 10099 20021=
07255,1998-03-01 21:00:00,8,1023.1,0.9,81,5,20000,11.112,,,240,,,,,,,,,,,wg-a,,,,AAXX 01214 07255 12770 72406 10080 20050 30028 40231 53009 60006 875// 92100=
07255,1998-03-02 00:00:00,6,1024.4,1.1,87,4,20000,14.816,,,260,,,,,,,,,,,wg-a,,,,AAXX 02004 07255 12770 12608 10060 20040 30039 40244 53011 60006 81500 90000=
07255,1998-03-02 03:00:00,5,1024.1,-0.4,93,4,20000,7.408,,,250,,,,,,,,,,,wg-a,,,,AAXX 02034 07255 12770 72504 10050 20040 30035 40241 58004 60006 875// 90300=
07255,1998-03-02 06:00:00,6,1024.1,0.1,93,5,20000,14.816,,,250,4.3,8.7,,,,,,,,,wg-a,,,,AAXX 02064 07255 02770 72508 10060 20050 30036 40241 53001 60006 875// 90600 333 10087 20043 60004=
07255,1998-03-02 09:00:00,8,1025.3,1.3,87,6,20000,14.816,,,260,,,,,,,,,,,wg-a,,,,AAXX 02094 07255 12570 72608 10080 20060 30049 40253 51013 60006 878// 90900=
07255,1998-03-02 15:00:00,12,1023.6,-1.2,62,5,40000,22.224,,,250,,,,,,,,,,,wg-a,,,,AAXX 02154 07255 12582 72512 10120 20050 30035 40236 56012 60006 86830 91500=
07255,1998-03-02 18:00:00,8,1023.6,-0.2,81,5,35000,7.408,,,220,6.1,12.9,,,,,,,,,wg-a,,,,AAXX 02184 07255 12681 /2204 10080 20050 30033 40236 55002 60006 81401 91800 333 10129 20061=
07255,1998-03-02 21:00:00,7,1023.7,0,81,4,10000,14.816,,,200,,,,,,,,,,,wg-a,,,,AAXX 02214 07255 12/60 /2008 10070 20040 30033 40237 50000 60006 92100=
07255,1998-03-03 00:00:00,6,1022.5,-1.3,87,4,25000,14.816,,,190,,,,,,,,,,,wg-a,,,,AAXX 03004 07255 12/75 71908 10060 20040 30020 40225 58013 60006 8703/ 90000=
07255,1998-03-03 03:00:00,5,1020.6,-1.9,87,3,25000,11.112,,,140,,,,,,,,,,,wg-a,,,,AAXX 03034 07255 12775 71406 10050 20030 30001 40206 57019 60006 8557/ 90300=
07255,1998-03-03 06:00:00,5,1019.7,-0.9,87,3,25000,7.408,,,160,4.8,8.3,,,,,,,,,wg-a,,,,AAXX 03064 07255 02775 61604 10050 20030 39992 40197 55009 60006 8253/ 90600 333 10083 20048 61000=
07255,1998-03-03 09:00:00,9,1019.7,0.3,76,5,28000,18.52,,,210,,,,,,,,,,,wg-a,,,,AAXX 03094 07255 12778 72110 10090 20050 39995 40197 51003 60006 8353/ 90900=
07255,1998-03-03 12:00:00,15,1018.4,-0.9,51,5,28000,29.632,,,230,,,,,,,,,,,wg-a,,,,AAXX 03124 07255 12778 72316 10150 20050 39986 40184 56009 60006 8253/ 91200=
07255,1998-03-03 15:00:00,17,1017,-1.1,42,4,28000,25.928,,,250,,,,,,,,,,,wg-a,,,,AAXX 03154 07255 12778 62514 10170 20040 39975 40170 56011 60006 81532 91500=
07255,1998-03-03 18:00:00,16,1017.4,0.2,45,4,28000,18.52,,,250,4.9,17.9,,,,,,,,,wg-a,,,,AAXX 03184 07255 12778 72510 10160 20040 39977 40174 53002 60006 81532 91800 333 10179 20049=
07255,1998-03-03 21:00:00,13,1017.1,-0.4,58,5,25000,22.224,,,220,,,,,,,,,,,wg-a,,,,AAXX 03214 07255 12775 72212 10130 20050 39973 40171 58004 60006 81532 92100=
07255,1998-03-04 00:00:00,14,1015.2,-1.8,47,3,25000,29.632,,,200,,,,,,,,,,,wg-a,,,,AAXX 04004 07255 12775 72016 10140 20030 39955 40152 58018 60006 81532 90000=
07255,1998-03-04 03:00:00,14,1012.8,-2.4,44,2,25000,22.224,,,210,,,,,,,,,,,wg-a,,,,AAXX 04034 07255 12/75 72112 10140 20020 39931 40128 58024 60006 83032 90300=
07255,1998-03-04 06:00:00,14,1011.4,-1.4,47,3,22000,25.928,,,230,12.4,15.7,,,,,,,,,wg-a,,,,AAXX 04064 07255 02/72 62314 10140 20030 39917 40114 56014 60006 82032 90600 333 10157 20124 60004=
07255,1998-03-04 09:00:00,16,1011,-0.2,48,5,22000,25.928,,,230,,,,,,,,,,,wg-a,,,,AAXX 04094 07255 12772 72314 10160 20050 39915 40110 58002 60006 82552 90900=
07255,1998-03-04 12:00:00,19,1010.3,-0.5,43,6,20000,35.188,,61.116,250,,,,,,,,,,,wg-a,,,,AAXX 04124 07255 12/70 52519 10190 20060 39910 40103 58005 60006 81032 91200 333 91033=
07255,1998-03-04 15:00:00,18,1009.7,-0.7,49,7,12000,42.596,,,260,,,,,,,,,,,wg-a,,,,AAXX 04154 07255 12662 82623 10180 20070 39903 40097 55007 60006 8687/ 91500=
07255,1998-03-04 18:00:00,14,1010.4,0.5,77,10,18000,35.188,,,250,13,19.9,,,,,,,,21,wg-a,,,,AAXX 04184 07255 02668 72519 10140 20100 39908 40104 53005 61000 72162 878// 91800 333 10199 20130 6100=
07255,1998-03-04 21:00:00,13,1012,1.5,88,11,12000,35.188,,,250,,,,,,,,,,61,wg-a,,,,AAXX 04214 07255 02562 82519 10130 20110 39923 40120 51015 61000 76162 878// 92100 333 ////=
07255,1998-03-05 00:00:00,9,1016,3.6,81,6,20000,25.928,,,280,,,,1,,,,,,3,wg-a,,,,AAXX 05004 07255 02470 82814 10090 20060 39959 40160 52036 60016 70362 875// 90000 333 60017=
07255,1998-03-05 03:00:00,7,1019.4,3.2,87,5,20000,25.928,,,280,,,,,,,,,,,wg-a,,,,AAXX 05034 07255 12/70 02814 10070 20050 39991 40194 51032 60006 80000 90300=
07255,1998-03-05 06:00:00,6,1023.1,3.5,87,4,18000,25.928,,,270,5.9,14.4,,,,,1,,,,wg-a,,,,AAXX 05064 07255 02/68 12714 10060 20040 30026 40231 53035 60006 80001 90600 333 10144 20059 60014=
07255,1998-03-05 09:00:00,8,1026.7,3.7,76,4,28000,22.224,,,290,,,,,,,,,,,wg-a,,,,AAXX 05094 07255 12578 /2912 10080 20040 30063 40267 51037 60006 81100 90900=
07255,1998-03-05 12:00:00,11,1028.1,1.6,50,1,500,14.816,,,270,,,,,,,,,,,wg-a,,,,AAXX 05124 07255 12500 22708 10110 20010 30079 40281 53016 60006 82201 91200=
07255,1998-03-05 15:00:00,12,1027.4,-0.6,47,1,500,14.816,,,280,,,,,,,,,,,wg-a,,,,AAXX 05154 07255 12600 /2808 10120 20010 30073 40274 56006 60006 81101 91500=
07255,1998-03-05 18:00:00,9,1028.1,0.4,53,0,500,7.408,,,260,5.5,12.4,,,,,,,,,wg-a,,,,AAXX 05184 07255 12/00 72604 10090 20000 30077 40281 51004 60006 80004 91800 333 10124 20055=
07255,1998-03-05 21:00:00,7,1028.7,0.5,66,1,20000,7.408,,,240,,,,,,,,,,,wg-a,,,,AAXX 05214 07255 12/70 72404 10070 20010 30082 40287 51005 60006 80002 92100=
07255,1998-03-06 00:00:00,6,1028.2,-0.5,75,2,20000,11.112,,,210,,,,,,,,,,,wg-a,,,,AAXX 06004 07255 12/70 72106 10060 20020 30077 40282 58005 60006 82032 90000=
07255,1998-03-06 03:00:00,6,1027.3,-1,75,2,18000,11.112,,,230,,,,,,,,,,,wg-a,,,,AAXX 06034 07255 12768 72306 10060 20020 30067 40273 58010 60006 875// 90300=
07255,1998-03-06 06:00:00,3,1026.7,-0.8,87,1,20000,11.112,,,220,2.6,8.7,,,,,,,,,wg-a,,,,AAXX 06064 07255 02/70 32206 10030 20010 30059 40267 56008 60006 81032 90600 333 10087 20026 60004=
07255,1998-03-06 09:00:00,8,1026.7,0.4,76,4,22000,18.52,,,240,,,,,,,,,,,wg-a,,,,AAXX 06094 07255 12872 72410 10080 20040 30063 40267 50004 60006 82532 90900=
07255,1998-03-06 12:00:00,13,1025.2,-1.1,58,5,500,25.928,,,260,,,,,,,,,,,wg-a,,,,AAXX 06124 07255 12600 72614 10130 20050 30052 40252 58011 60006 81832 91200=
07255,1998-03-06 15:00:00,15,1023.4,-1.6,51,5,35000,25.928,,,270,,,,,,,,,,,wg-a,,,,AAXX 06154 07255 12781 62714 10150 20050 30036 40234 56016 60006 81532 91500=
07255,1998-03-06 18:00:00,12,1023,-0.6,58,4,500,11.112,,,260,2.5,15.3,,,,,,,,,wg-a,,,,AAXX 06184 07255 12/00 62606 10120 20040 30030 40230 56006 60006 81032 91800 333 10153 20025=
07255,1998-03-06 21:00:00,8,1022.9,-0.4,76,4,25000,14.816,,,230,,,,,,,,,,,wg-a,,,,AAXX 06214 07255 12/75 22308 10080 20040 30026 40229 58004 60006 80001 92100=
07255,1998-03-07 00:00:00,7,1021.6,-1.4,87,5,20000,11.112,,,230,,,,,,,,,,,wg-a,,,,AAXX 07004 07255 12/70 72306 10070 20050 30012 40216 58014 60006 80002 90000=
07255,1998-03-07 03:00:00,9,1020.6,-0.8,81,6,15000,25.928,,,260,,,,,,,,,,,wg-a,,,,AAXX 07034 07255 12565 82614 10090 20060 30004 40206 58008 60006 875// 90300=
07255,1998-03-07 06:00:00,10,1019.8,-0.7,82,7,10000,22.224,,,250,5.9,12.4,,,,,,,,,wg-a,,,,AAXX 07064 07255 02460 82512 10100 20070 39997 40198 58007 60006 875// 90600 333 10124 20059 60004=
07255,1998-03-07 12:00:00,12,1018.3,-1.4,94,11,4500,29.632,,,250,,,,1,,,,,,61,wg-a,,,,AAXX 07124 07255 02345 82516 10120 20110 39984 40183 56014 60016 76165 877// 91200 333 60017=
07255,1998-03-07 15:00:00,11,1016.7,-1.6,87,9,6000,35.188,,57.412,300,,,,2,,,,,,80,wg-a,,,,AAXX 07154 07255 12356 73019 10110 20090 39968 40167 56016 60027 78086 872// 91500 333 91031=
07255,1998-03-07 18:00:00,12,1016.6,-0.1,71,7,20000,31.484,,,270,9.5,13.7,,0,,,,,,1,wg-a,,,,AAXX 07184 07255 02570 72717 10120 20070 39967 40166 55001 60006 70186 83832 91800 333 10137 20095 60007=
07255,1998-03-07 21:00:00,11,1017.6,0.9,76,7,18000,29.632,,48.152,260,,,,,,,,,,,wg-a,,,,AAXX 07214 07255 12568 72616 10110 20070 39976 40176 51009 60006 878// 92100 333 91026=
07255,1998-03-08 00:00:00,10,1016.6,-1,87,8,12000,31.484,,,270,,,,,,,,,,21,wg-a,,,,AAXX 08004 07255 02562 72717 10100 20080 39966 40166 56010 61000 72162 878// 90000 333 6100=
07255,1998-03-08 03:00:00,10,1015.3,-1.3,87,8,12000,29.632,,,270,,,,1,,,,,,60,wg-a,,,,AAXX 08034 07255 12562 82716 10100 20080 39953 40153 58013 60017 76062 8657/ 90300=
07255,1998-03-08 06:00:00,9,1014.5,-0.9,87,7,12000,18.52,,,280,8.8,11.6,,,,,4,,,1,wg-a,,,,AAXX 08064 07255 02462 82810 10090 20070 39944 40145 58009 60006 70162 8657/ 90600 333 10116 20088 60044=
07255,1998-03-08 09:00:00,8,1013.4,-1.1,93,7,7000,22.224,,,270,,,,2,,,,,,61,wg-a,,,,AAXX 08094 07255 12457 82712 10080 20070 39933 40134 57011 60027 76162 877// 90900=
07255,1998-03-08 12:00:00,8,1010.8,-2.6,93,7,9000,7.408,,,30,,,,4,,,,,,60,wg-a,,,,AAXX 08124 07255 02359 80304 10080 20070 39907 40108 56026 60066 76062 875// 91200 333 60047=
07255,1998-03-08 15:00:00,8,1009.3,-1.4,93,7,12000,11.112,,,360,,,,6,,,,,,60,wg-a,,,,AAXX 08154 07255 12362 83606 10080 20070 39893 40093 55014 60067 76066 875// 91500=
07255,1998-03-08 18:00:00,8,1011.2,1.9,93,7,500,7.408,,,300,7.5,9.1,,,,,,,,3,wg-a,,,,AAXX 08184 07255 02400 83004 10080 20070 39912 40112 53019 60006 70362 8687/ 91800 333 10091 20075 61000=
07255,1998-03-08 21:00:00,8,1013.5,2.2,93,7,18000,11.112,,,290,,,,,,,,,,,wg-a,,,,AAXX 08214 07255 12668 72906 10080 20070 39934 40135 53022 60006 875// 92100=
07255,1998-03-09 03:00:00,6,1017.7,2,93,5,15000,14.816,,,360,,,,,,,,,,,wg-a,,,,AAXX 09034 07255 12465 73608 10060 20050 39973 40177 53020 60006 877// 90300=
07255,1998-03-09 06:00:00,2,1019.8,1.8,100,2,3500,7.408,,,330,2.4,8.3,,,,,11,,,10,wg-a,,,,AAXX 09064 07255 02/35 53304 10020 20020 39991 40198 51018 60006 71011 82031 90600 333 10083 20024 60114=
07255,1998-03-09 09:00:00,4,1023.3,3.6,81,1,12000,18.52,,,30,,,,,,,,,,,wg-a,,,,AAXX 09094 07255 12462 70310 10040 20010 30027 40233 53036 60006 878// 90900=
07255,1998-03-09 12:00:00,5,1025.9,2.6,60,-2,28000,18.52,,,30,,,,,,,,,,,wg-a,,,,AAXX 09124 07255 12578 /0310 10050 21020 30053 40259 51026 60006 85100 91200=
07255,1998-03-09 18:00:00,6,1029.3,2.4,39,-7,40000,14.816,,,50,2.3,7.4,,,,,,,,,wg-a,,,,AAXX 09184 07255 12/82 10508 10060 21070 30086 40293 53024 60006 80001 91800 333 10074 20023=
07255,1998-03-09 21:00:00,3,1032,2.5,52,-6,500,18.52,,,60,,,,,,,,,,,wg-a,,,,AAXX 09214 07255 12/00 20610 10030 21060 30111 40320 51025 60006 80001 92100=
07255,1998-03-10 00:00:00,1,1032.6,0.5,69,-4,25000,11.112,,,90,,,,,,,,,,,wg-a,,,,AAXX 10004 07255 12/75 30906 10010 21040 30116 40326 50005 60006 80001 90000=
07255,1998-03-10 03:00:00,-1,1033.7,0.9,80,-4,20000,3.704,,,70,,,,,,,,,,,wg-a,,,,AAXX 10034 07255 12/70 00702 11010 21040 30125 40337 51009 60006 80000 90300=
07255,1998-03-10 06:00:00,-3,1034.1,0.2,86,-5,20000,7.408,,,150,-2.7,5.4,,,,,,,,,wg-a,,,,AAXX 10064 07255 02/70 11504 11030 21050 30127 40341 53002 60006 80001 90600 333 10054 21027 60004=
07255,1998-03-10 09:00:00,2,1033.8,0.1,75,-2,18000,11.112,,,140,,,,,,,,,,,wg-a,,,,AAXX 10094 07255 12/68 51406 10020 21020 30128 40338 53001 60006 80004 90900=
07255,1998-03-10 12:00:00,8,1031.9,-1.4,39,-5,40000,14.816,,,150,,,,,,,,,,,wg-a,,,,AAXX 10124 07255 12/82 71508 10080 21050 30114 40319 57014 60006 80002 91200=
07255,1998-03-10 15:00:00,9,1028.3,-3.5,40,-4,40000,22.224,,,150,,,,,,,,,,,wg-a,,,,AAXX 10154 07255 12/82 71512 10090 21040 30079 40283 56035 60006 80002 91500=
07255,1998-03-10 18:00:00,6,1025.7,-2.7,52,-3,35000,11.112,,,140,-3.3,9.6,,,,,,,,,wg-a,,,,AAXX 10184 07255 12/81 81406 10060 21030 30052 40257 57027 60006 83012 91800 333 10096 21033=
07255,1998-03-10 21:00:00,5,1022.7,-3,56,-3,500,14.816,,,170,,,,,,,,,,,wg-a,,,,AAXX 10214 07255 12/00 81708 10050 21030 30022 40227 58030 60006 8702/ 92100=
07255,1998-03-11 00:00:00,6,1019.6,-3,65,0,25000,29.632,,,260,,,,,,,,,,61,wg-a,,,,AAXX 11004 07255 02/75 82616 10060 20000 39992 40196 56030 61000 76162 8807/ 90000 333 6100=
07255,1998-03-11 03:00:00,3,1014.7,-5,93,2,8000,18.52,,,160,,,,5,,,,,,63,wg-a,,,,AAXX 11034 07255 12358 81610 10030 20020 39942 40147 58050 60057 76362 885// 90300=
07255,1998-03-11 06:00:00,3,1011.6,-3.1,100,3,3500,11.112,,,160,2.2,6.8,,,,,,,,60,wg-a,,,,AAXX 11064 07255 02335 81606 10030 20030 39911 40116 56031 61000 76062 877// 90600 333 10068 20022 6008=
07255,1998-03-11 09:00:00,5,1010.8,-0.6,100,5,3000,3.704,,,190,,,,1,,,,,,50,wg-a,,,,AAXX 11094 07255 12230 81902 10050 20050 39905 40108 56006 60017 75065 877// 90900=
07255,1998-03-11 12:00:00,9,1011.1,0.6,93,8,9000,11.112,,,350,,,,0,,,,,,3,wg-a,,,,AAXX 11124 07255 02359 73506 10090 20080 39911 40111 51006 60016 70365 878// 91200 333 60007=
07255,1998-03-11 15:00:00,9,1012.2,1.1,81,6,15000,25.928,,42.596,360,,,,0,,,,,,25,wg-a,,,,AAXX 11154 07255 12465 73614 10090 20060 39922 40122 53011 60007 72586 878// 91500 333 91023=
07255,1998-03-11 18:00:00,7,1014.8,2.4,93,6,10000,14.816,,,340,2.9,9.6,,,,,,,,51,wg-a,,,,AAXX 11184 07255 02460 83408 10070 20060 39946 40148 53024 61000 75186 878// 91800 333 10096 20029 6100=
07255,1998-03-11 21:00:00,6,1018.1,3.1,93,5,9000,18.52,,,360,,,,1,,,,,,61,wg-a,,,,AAXX 11214 07255 12459 83610 10060 20050 39977 40181 51031 60017 76166 875// 92100=
07255,1998-03-12 00:00:00,5,1019.6,1.4,81,2,15000,18.52,,,360,,,,,,,,,,1,wg-a,,,,AAXX 12004 07255 02465 83610 10050 20020 39991 40196 51014 60016 70165 878// 90000 333 61000=
07255,1998-03-12 03:00:00,4,1020.5,0.8,75,0,18000,18.52,,,340,,,,,,,,,,,wg-a,,,,AAXX 12034 07255 12768 73410 10040 20000 39999 40205 50008 60006 8253/ 90300=
07255,1998-03-12 06:00:00,1,1022.4,1.7,86,-1,15000,14.816,,,330,1,7.2,,,,,2,,,,wg-a,,,,AAXX 12064 07255 02765 23308 10010 21010 30016 40224 52017 60006 82500 90600 333 10072 20010 60024=
07255,1998-03-12 09:00:00,4,1024.4,2.2,81,1,25000,18.52,,,360,,,,,,,,,,,wg-a,,,,AAXX 12094 07255 12475 43610 10040 20010 30038 40244 51022 60006 84800 90900=
07255,1998-03-12 12:00:00,7,1025.6,1.3,61,0,25000,18.52,,,30,,,,,,,,,,,wg-a,,,,AAXX 12124 07255 12575 70310 10070 20000 30051 40256 51013 60006 878// 91200=
07255,1998-03-12 15:00:00,7,1025.4,-0.2,57,-1,20000,18.52,,,30,,,,,,,,,,1,wg-a,,,,AAXX 12154 07255 02670 70310 10070 21010 30049 40254 58002 61000 70186 86802 91500 333 ////=
07255,1998-03-12 18:00:00,5,1026.9,1.4,65,-1,20000,11.112,,,350,0.7,7.4,,,,,,,,1,wg-a,,,,AAXX 12184 07255 12770 63506 10050 21010 30063 40269 53014 60006 70186 855/2 91800 333 10074 20007=
07255,1998-03-12 21:00:00,4,1028.6,1.6,75,0,18000,7.408,,,360,,,,,,,,,,,wg-a,,,,AAXX 12214 07255 12768 73604 10040 20000 30079 40286 51016 60006 8553/ 92100=
07255,1998-03-13 00:00:00,2,1029.4,0.6,87,0,18000,11.112,,,360,,,,,,,,,,,wg-a,,,,AAXX 13004 07255 12768 73606 10020 20000 30085 40294 51006 60006 875// 90000=
07255,1998-03-13 03:00:00,0,1029.5,-0.1,86,-2,18000,11.112,,,330,,,,,,,,,,,wg-a,,,,AAXX 13034 07255 12/68 03306 10000 21020 30084 40295 58001 60006 80000 90300=
07255,1998-03-13 06:00:00,-1,1029.9,0.3,86,-3,15000,7.408,,,320,-1.6,5.2,,,,,,,,,wg-a,,,,AAXX 13064 07255 02/65 63204 11010 21030 30087 40299 53003 60006 80002 90600 333 10052 21016 61000=
07255,1998-03-13 09:00:00,3,1030.5,1,81,0,15000,3.704,,,10,,,,,,,,,,,wg-a,,,,AAXX 13094 07255 12/65 00102 10030 20000 30097 40305 50010 60006 80000 90900=
07255,1998-03-13 12:00:00,8,1030,-0.2,53,-1,25000,7.408,,,300,,,,,,,,,,,wg-a,,,,AAXX 13124 07255 12575 23004 10080 21010 30095 40300 58002 60006 81131 91200=
07255,1998-03-13 15:00:00,10,1028.4,-1.4,50,0,25000,3.704,,,260,,,,,,,,,,,wg-a,,,,AAXX 13154 07255 12675 /2602 10100 20000 30081 40284 56014 60006 81130 91500=
07255,1998-03-13 18:00:00,7,1028.8,0.2,61,0,10000,7.408,,,270,-1.4,10.2,,,,,,,,,wg-a,,,,AAXX 13184 07255 12/60 /2704 10070 20000 30083 40288 53002 60006 91800 333 10102 21014=
07255,1998-03-13 21:00:00,7,1030,1.1,70,2,15000,7.408,,,10,,,,,,,,,,,wg-a,,,,AAXX 13214 07255 12665 80104 10070 20020 30094 40300 52011 60006 875// 92100=
07255,1998-03-14 00:00:00,6,1030.2,0.2,81,3,15000,3.704,,,250,,,,,,,,,,,wg-a,,,,AAXX 14004 07255 12665 82502 10060 20030 30096 40302 52002 60006 875// 90000=
07255,1998-03-14 03:00:00,5,1029.7,-0.5,93,4,12000,3.704,,,330,,,,,,,,,,,wg-a,,,,AAXX 14034 07255 12662 73302 10050 20040 30091 40297 58005 60006 875// 90300=
07255,1998-03-14 06:00:00,5,1030.6,0.8,93,4,4000,3.704,,,320,5.1,7.1,,,,,,,,10,wg-a,,,,AAXX 14064 07255 02440 83202 10050 20040 30099 40306 53008 60006 71022 886// 90600 333 10071 20051 60004=
07255,1998-03-14 09:00:00,6,1031.7,1.2,93,5,3000,3.704,,,320,,,,,,,,,,10,wg-a,,,,AAXX 14094 07255 02330 83202 10060 20050 30111 40317 51012 61000 71052 886// 90900 333 ////=
07255,1998-03-14 12:00:00,9,1031.7,0.2,81,6,500,11.112,,,30,,,,0,,,,,,2,wg-a,,,,AAXX 14124 07255 02300 80306 10090 20060 30113 40317 51002 60006 70252 888// 91200 333 60007=
07255,1998-03-14 15:00:00,11,1031,-0.6,66,5,10000,11.112,,,40,,,,,,,,,,,wg-a,,,,AAXX 14154 07255 12560 80406 10110 20050 30107 40310 56006 60006 888// 91500=
07255,1998-03-14 18:00:00,10,1031.8,0.7,76,6,6000,7.408,,,30,5.1,11,,,,,,,,,wg-a,,,,AAXX 14184 07255 12756 80304 10100 20060 30114 40318 53007 60006 885// 91800 333 10110 20051=
07255,1998-03-14 21:00:00,9,1032.8,0.9,76,5,6000,11.112,,,40,,,,,,,,,,,wg-a,,,,AAXX 14214 07255 12656 80406 10090 20050 30123 40328 53009 60006 885// 92100=
07255,1998-03-15 00:00:00,8,1033.2,0.4,81,5,7000,7.408,,,20,,,,,,,,,,,wg-a,,,,AAXX 15004 07255 12657 80204 10080 20050 30127 40332 51004 60006 885// 90000=
07255,1998-03-15 03:00:00,8,1032.6,-0.6,81,5,8000,7.408,,,40,,,,,,,,,,,wg-a,,,,AAXX 15034 07255 12658 80404 10080 20050 30121 40326 56006 60006 885// 90300=
07255,1998-03-15 06:00:00,7,1033,0.3,81,4,9000,3.704,,,340,7.1,9.6,,,,,,,,,wg-a,,,,AAXX 15064 07255 02659 83402 10070 20040 30124 40330 52003 60006 885// 90600 333 10096 20071 60004=
07255,1998-03-15 09:00:00,9,1033.7,0.8,76,5,12000,3.704,,,360,,,,,,,,,,,wg-a,,,,AAXX 15094 07255 12662 73602 10090 20050 30132 40337 50008 60006 875// 90900=
07255,1998-03-15 12:00:00,12,1033,-0.4,58,4,14000,3.704,,,10,,,,,,,,,,,wg-a,,,,AAXX 15124 07255 12564 70102 10120 20040 30128 40330 58004 60006 86801 91200=
07255,1998-03-15 15:00:00,14,1031.8,-1.1,55,5,12000,3.704,,,250,,,,,,,,,,,wg-a,,,,AAXX 15154 07255 12662 72502 10140 20050 30117 40318 56011 60006 878// 91500=
07255,1998-03-15 18:00:00,11,1031.6,-0.4,62,4,10000,14.816,,,30,6.9,13.5,,,,,,,,,wg-a,,,,AAXX 15184 07255 12660 20308 10110 20040 30113 40316 55004 60006 82500 91800 333 10135 20069=
07255,1998-03-15 21:00:00,6,1032.9,0.9,81,3,7000,7.408,,,340,,,,,,,,,,,wg-a,,,,AAXX 15214 07255 12557 43404 10060 20030 30122 40329 51009 60006 84500 92100=
07255,1998-03-16 00:00:00,7,1032.3,-0.4,87,5,6000,7.408,,,30,,,,,,,,,,,wg-a,,,,AAXX 16004 07255 12556 70304 10070 20050 30118 40323 58004 60006 875// 90000=
07255,1998-03-16 06:00:00,7,1032.6,0.7,87,5,4500,7.408,,,30,5.3,10.5,,,,,,,,10,wg-a,,,,AAXX 16064 07255 02545 80304 10070 20050 30120 40326 53007 60006 71022 885// 90600 333 10105 20053 60004=
07255,1998-03-16 09:00:00,8,1032.8,0.3,81,5,6000,7.408,,,40,,,,,,,,,,,wg-a,,,,AAXX 16094 07255 12556 80404 10080 20050 30123 40328 50003 60006 875// 90900=
07255,1998-03-16 12:00:00,10,1032.6,-0.1,71,5,9000,7.408,,,40,,,,,,,,,,,wg-a,,,,AAXX 16124 07255 12559 80404 10100 20050 30122 40326 58001 60006 875// 91200=
07255,1998-03-16 15:00:00,10,1031.5,-1,71,5,8000,7.408,,,30,,,,,,,,,,,wg-a,,,,AAXX 16154 07255 12558 80304 10100 20050 30112 40315 56010 60006 875// 91500=
07255,1998-03-16 18:00:00,10,1031.7,0.1,71,5,6000,11.112,,,60,6.9,10.5,,,,,,,,,wg-a,,,,AAXX 16184 07255 12556 80606 10100 20050 30113 40317 53001 60006 875// 91800 333 10105 20069=
07255,1998-03-17 00:00:00,8,1031.8,-0.4,81,5,6000,3.704,,,50,,,,,,,,,,,wg-a,,,,AAXX 17004 07255 12556 80502 10080 20050 30113 40318 58004 60006 885// 90000=
07255,1998-03-17 06:00:00,7,1031.9,0.4,81,4,500,7.408,,,20,7,9.5,,,,,,,,,wg-a,,,,AAXX 17064 07255 02500 70204 10070 20040 30113 40319 53004 60006 875// 90600 333 10095 20070 60004=
07255,1998-03-17 09:00:00,9,1032.7,1,66,3,8000,11.112,,,40,,,,,,,,,,,wg-a,,,,AAXX 17094 07255 12658 70406 10090 20030 30123 40327 51010 60006 875// 90900=
07255,1998-03-17 12:00:00,11,1032.4,-0.2,58,3,9000,7.408,,,60,,,,,,,,,,,wg-a,,,,AAXX 17124 07255 12659 40604 10110 20030 30121 40324 58002 60006 84500 91200=
07255,1998-03-17 15:00:00,13,1031.2,-1,54,4,10000,7.408,,,330,,,,,,,,,,,wg-a,,,,AAXX 17154 07255 12/60 03304 10130 20040 30111 40312 58010 60006 80000 91500=
07255,1998-03-17 18:00:00,10,1032.5,1,66,4,7000,14.816,,,40,7,13.8,,,,,,,,,wg-a,,,,AAXX 17184 07255 12/57 /0408 10100 20040 30121 40325 53010 60006 81030 91800 333 10138 20070=
07255,1998-03-17 21:00:00,7,1033.5,0.8,76,3,500,7.408,,,30,,,,,,,,,,,wg-a,,,,AAXX 17214 07255 12500 70304 10070 20030 30129 40335 52008 60006 875// 92100=
07255,1998-03-18 00:00:00,8,1034.2,0.7,71,3,6000,11.112,,,80,,,,,,,,,,,wg-a,,,,AAXX 18004 07255 12556 80806 10080 20030 30136 40342 51007 60006 875// 90000=
07255,1998-03-18 03:00:00,8,1033.8,-0.4,66,2,6000,11.112,,,80,,,,,,,,,,,wg-a,,,,AAXX 18034 07255 12556 80806 10080 20020 30132 40338 58004 60006 875// 90300=
07255,1998-03-18 06:00:00,8,1034.5,0.7,71,3,6000,18.52,,,80,6.5,9.5,,,,,,,,,wg-a,,,,AAXX 18064 07255 02556 80810 10080 20030 30139 40345 53007 60006 875// 90600 333 10095 20065 60004=
07255,1998-03-18 09:00:00,8,1035.9,1.4,71,3,4500,14.816,,,80,,,,,,,,,,10,wg-a,,,,AAXX 18094 07255 12545 80808 10080 20030 30153 40359 51014 60006 71022 885// 90900=
07255,1998-03-18 12:00:00,10,1035.9,0.2,62,3,500,18.52,,,80,,,,,,,,,,,wg-a,,,,AAXX 18124 07255 12500 70810 10100 20030 30155 40359 50002 60006 875// 91200=
07255,1998-03-18 15:00:00,13,1034.9,-0.8,54,4,10000,18.52,,,60,,,,,,,,,,,wg-a,,,,AAXX 18154 07255 12660 20610 10130 20040 30147 40349 56008 60006 81501 91500=
07255,1998-03-18 18:00:00,10,1035.8,0.7,71,5,7000,14.816,,,40,7.4,13.3,,,,,,,,,wg-a,,,,AAXX 18184 07255 12/57 00408 10100 20050 30154 40358 53007 60006 80000 91800 333 10133 20074=
07255,1998-03-18 21:00:00,8,1036.7,0.7,76,4,500,14.816,,,60,,,,,,,,,,,wg-a,,,,AAXX 18214 07255 12/00 00608 10080 20040 30161 40367 51007 60006 80000 92100=
07255,1998-03-19 00:00:00,6,1037.7,0.9,81,3,500,11.112,,,70,,,,,,,,,,,wg-a,,,,AAXX 19004 07255 12/00 00706 10060 20030 30170 40377 51009 60006 80000 90000=
07255,1998-03-19 03:00:00,6,1037.8,-0,81,3,500,14.816,,,80,,,,,,,,,,,wg-a,,,,AAXX 19034 07255 12/00 00808 10060 20030 30170 40378 55000 60006 80000 90300=
07255,1998-03-19 06:00:00,4,1038.4,0.5,87,2,500,7.408,,,70,3.9,10.1,,,,,,,,,wg-a,,,,AAXX 19064 07255 02/00 20704 10040 20020 30175 40384 52005 60006 81032 90600 333 10101 20039 60004=
07255,1998-03-19 09:00:00,10,1039.5,1.5,66,4,8000,18.52,,,80,,,,,,,,,,,wg-a,,,,AAXX 19094 07255 12558 /0810 10100 20040 30190 40395 52015 60006 81101 90900=
07255,1998-03-19 12:00:00,12,1038.8,-0.5,47,1,22000,22.224,,,90,,,,,,,,,,,wg-a,,,,AAXX 19124 07255 12672 40912 10120 20010 30185 40388 58005 60006 84100 91200=
07255,1998-03-19 15:00:00,13,1037.6,-1.2,38,-1,25000,18.52,,,70,,,,,,,,,,,wg-a,,,,AAXX 19154 07255 12/75 10710 10130 21010 30173 40376 57012 60006 80001 91500=
07255,1998-03-19 18:00:00,11,1037.8,0.1,47,0,500,14.816,,,70,4,13.4,,,,,,,,,wg-a,,,,AAXX 19184 07255 12/00 30708 10110 20000 30174 40378 53001 60006 80001 91800 333 10134 20040=
07255,1998-03-19 21:00:00,8,1038.4,0.3,49,-2,20000,18.52,,,60,,,,,,,,,,,wg-a,,,,AAXX 19214 07255 12/70 00610 10080 21020 30177 40384 50003 60006 80000 92100=
07255,1998-03-20 00:00:00,6,1038.3,-0.2,56,-2,15000,7.408,,,70,,,,,,,,,,,wg-a,,,,AAXX 20004 07255 12/65 20704 10060 21020 30175 40383 58002 60006 80001 90000=
07255,1998-03-20 03:00:00,4,1038,-0.4,65,-2,15000,7.408,,,70,,,,,,,,,,,wg-a,,,,AAXX 20034 07255 12/65 00704 10040 21020 30171 40380 58004 60006 80000 90300=
07255,1998-03-20 06:00:00,3,1038.3,0.2,65,-3,18000,11.112,,,60,2.8,10.7,,,,,,,,,wg-a,,,,AAXX 20064 07255 02/68 10606 10030 21030 30173 40383 51002 60006 80001 90600 333 10107 20028 60004=
07255,1998-03-20 09:00:00,8,1037.8,-0.1,53,-1,18000,18.52,,,70,,,,,,,,,,,wg-a,,,,AAXX 20094 07255 12/68 00710 10080 21010 30172 40378 55001 60006 80000 90900=
07255,1998-03-20 12:00:00,11,1036.8,-0.8,40,-2,25000,18.52,,,40,,,,,,,,,,,wg-a,,,,AAXX 20124 07255 12675 /0410 10110 21020 30164 40368 58008 60006 81100 91200=
07255,1998-03-20 15:00:00,12,1034.7,-2,38,-2,500,22.224,,,60,,,,,,,,,,,wg-a,,,,AAXX 20154 07255 12/00 00612 10120 21020 30144 40347 58020 60006 80000 91500=
07255,1998-03-20 18:00:00,10,1034.5,-0.3,46,-1,28000,14.816,,,40,2.5,12.3,,,,,,,,,wg-a,,,,AAXX 20184 07255 12/78 10408 10100 21010 30141 40345 55003 60006 80001 91800 333 10123 20025=
07255,1998-03-20 21:00:00,8,1035.1,0.4,57,0,20000,3.704,,,60,,,,,,,,,,,wg-a,,,,AAXX 20214 07255 12/70 00602 10080 20000 30145 40351 50004 60006 80000 92100=
07255,1998-03-21 00:00:00,5,1034.7,-0.6,70,0,20000,7.408,,,20,,,,,,,,,,,wg-a,,,,AAXX 21004 07255 12/70 00204 10050 20000 30139 40347 56006 60006 80000 90000=
07255,1998-03-21 03:00:00,3,1033.4,-1.4,87,1,15000,3.704,,,50,,,,,,,,,,,wg-a,,,,AAXX 21034 07255 12/65 00502 10030 20010 30125 40334 58014 60006 80000 90300=
07255,1998-03-21 06:00:00,6,1032.7,-0.4,87,4,6000,7.408,,,30,2.6,10.3,,,,,,,,,wg-a,,,,AAXX 21064 07255 02456 70304 10060 20040 30121 40327 56004 60006 875// 90600 333 10103 20026 60004=
07255,1998-03-21 09:00:00,8,1032.4,-0.2,81,5,11000,18.52,,,50,,,,,,,,,,,wg-a,,,,AAXX 21094 07255 12461 80510 10080 20050 30119 40324 58002 60006 875// 90900=
07255,1998-03-21 12:00:00,9,1031.7,-0.6,76,5,25000,14.816,,,60,,,,,,,,,,,wg-a,,,,AAXX 21124 07255 12475 80608 10090 20050 30113 40317 58006 60006 878// 91200=
07255,1998-03-21 15:00:00,11,1030,-1.5,66,5,28000,18.52,,,30,,,,,,,,,,,wg-a,,,,AAXX 21154 07255 12478 70310 10110 20050 30098 40300 56015 60006 86801 91500=
07255,1998-03-21 18:00:00,10,1029.7,-0.4,57,2,25000,11.112,,,30,6,11.5,,,,,,,,,wg-a,,,,AAXX 21184 07255 12675 20306 10100 20020 30094 40297 55004 60006 82400 91800 333 10115 20060=
07255,1998-03-21 21:00:00,7,1030.9,0.9,70,2,22000,11.112,,,40,,,,,,,,,,,wg-a,,,,AAXX 21214 07255 12/72 00406 10070 20020 30103 40309 53009 60006 80000 92100=
07255,1998-03-22 00:00:00,5,1031.1,0.1,65,-1,20000,11.112,,,60,,,,,,,,,,,wg-a,,,,AAXX 22004 07255 12/70 00606 10050 21010 30104 40311 52001 60006 80000 90000=
07255,1998-03-22 03:00:00,3,1030.9,-0.4,65,-3,20000,14.816,,,80,,,,,,,,,,,wg-a,,,,AAXX 22034 07255 12/70 00808 10030 21030 30100 40309 58004 60006 80000 90300=
07255,1998-03-22 06:00:00,0,1031.6,0.5,80,-3,20000,11.112,,,40,0.3,9.7,,,,,,,,,wg-a,,,,AAXX 22064 07255 02/70 00406 10000 21030 30105 40316 53005 60006 80000 90600 333 10097 20003 60004=
07255,1998-03-22 12:00:00,10,1031.1,-0.6,32,-6,500,22.224,,,70,,,,,,,,,,,wg-a,,,,AAXX 22124 07255 12/00 10712 10100 21060 30107 40311 58006 60006 81030 91200=
07255,1998-03-22 15:00:00,12,1029.4,-1.5,28,-6,500,25.928,,,70,,,,,,,,,,,wg-a,,,,AAXX 22154 07255 12/00 00714 10120 21060 30092 40294 56015 60006 80000 91500=
07255,1998-03-22 18:00:00,10,1029.6,0.1,37,-4,25000,18.52,,,60,0.4,11.8,,,,,,,,,wg-a,,,,AAXX 22184 07255 12/75 00610 10100 21040 30093 40296 53001 60006 80000 91800 333 10118 20004=
07255,1998-03-22 21:00:00,7,1030.3,0.4,45,-4,20000,22.224,,,60,,,,,,,,,,,wg-a,,,,AAXX 22214 07255 12/70 00612 10070 21040 30097 40303 52004 60006 80000 92100=
07255,1998-03-23 00:00:00,6,1030.3,-0.1,61,-1,18000,18.52,,,60,,,,,,,,,,,wg-a,,,,AAXX 23004 07255 12/68 00610 10060 21010 30096 40303 58001 60006 80000 90000=
07255,1998-03-23 03:00:00,3,1029.6,-0.8,87,1,18000,7.408,,,50,,,,,,,,,,,wg-a,,,,AAXX 23034 07255 12/68 00504 10030 20010 30088 40296 58008 60006 80000 90300=
07255,1998-03-23 06:00:00,2,1029.9,0.2,93,1,7000,7.408,,,30,1.9,9.8,,,,,,,,,wg-a,,,,AAXX 23064 07255 02657 40304 10020 20010 30090 40299 52002 60006 82501 90600 333 10098 20019 60004=
07255,1998-03-23 09:00:00,7,1029.5,-0,76,3,6000,14.816,,,50,,,,,,,,,,,wg-a,,,,AAXX 23094 07255 12656 80508 10070 20030 30090 40295 54000 60006 885// 90900=
07255,1998-03-23 12:00:00,9,1028,-1.3,57,1,15000,14.816,,,30,,,,,,,,,,,wg-a,,,,AAXX 23124 07255 12665 80308 10090 20010 30077 40280 58013 60006 888// 91200=
07255,1998-03-23 15:00:00,9,1026.4,-1.6,57,1,10000,11.112,,,20,,,,,,,,,,,wg-a,,,,AAXX 23154 07255 12660 80206 10090 20010 30061 40264 56016 60006 888// 91500=
07255,1998-03-23 18:00:00,7,1026.6,0.1,70,2,9000,3.704,,,350,2,9.2,,,,,,,,,wg-a,,,,AAXX 23184 07255 12659 83502 10070 20020 30062 40266 53001 60006 888// 91800 333 10092 20020=
07255,1998-03-23 21:00:00,6,1026.5,-0.2,70,1,12000,11.112,,,350,,,,,,,,,,,wg-a,,,,AAXX 23214 07255 12762 53506 10060 20010 30060 40265 55002 60006 85500 92100=
07255,1998-03-24 00:00:00,5,1026.6,-0,75,1,8000,11.112,,,30,,,,,,,,,,21,wg-a,,,,AAXX 24004 07255 02558 70306 10050 20010 30060 40266 55000 61000 72162 875// 90000 333 6100=
07255,1998-03-24 03:00:00,2,1027.5,0.6,87,0,500,11.112,,,30,,,,,,,,,,,wg-a,,,,AAXX 24034 07255 12600 20306 10020 20000 30066 40275 51006 60006 82500 90300=
07255,1998-03-24 06:00:00,-1,1029.2,1.5,86,-3,9000,14.816,,,30,-0.7,7.4,,,,,,,,,wg-a,,,,AAXX 24064 07255 02/59 /0308 11010 21030 30081 40292 51015 60006 80001 90600 333 10074 21007 61000=
07255,1998-03-24 09:00:00,3,1030.6,1.7,60,-4,12000,7.408,,,50,,,,,,,,,,,wg-a,,,,AAXX 24094 07255 12/62 10504 10030 21040 30098 40306 51017 60006 80001 90900=
07255,1998-03-24 12:00:00,7,1030.6,0.2,42,-5,12000,18.52,,,50,,,,,,,,,,,wg-a,,,,AAXX 24124 07255 12662 /0510 10070 21050 30100 40306 51002 60006 81101 91200=
07255,1998-03-24 15:00:00,8,1030.5,0,42,-4,15000,11.112,,,60,,,,,,,,,,,wg-a,,,,AAXX 24154 07255 12/65 10606 10080 21040 30100 40305 50000 60006 80001 91500=
07255,1998-03-24 18:00:00,7,1031.3,0.7,49,-3,12000,11.112,,,30,-0.8,9,,,,,,,,,wg-a,,,,AAXX 24184 07255 12/62 30306 10070 21030 30107 40313 53007 60006 80001 91800 333 10090 21008=
07255,1998-03-24 21:00:00,4,1032.4,0.9,60,-3,10000,7.408,,,60,,,,,,,,,,,wg-a,,,,AAXX 24214 07255 12/60 00604 10040 21030 30116 40324 50009 60006 80000 92100=
07255,1998-03-25 00:00:00,2,1032.3,-0.3,69,-3,9000,7.408,,,90,,,,,,,,,,,wg-a,,,,AAXX 25004 07255 12/59 00904 10020 21030 30113 40323 58003 60006 80000 90000=
07255,1998-03-25 03:00:00,-1,1031.9,-0.5,86,-3,7000,3.704,,,70,,,,,,,,,,,wg-a,,,,AAXX 25034 07255 12/57 00702 11010 21030 30108 40319 58005 60006 80000 90300=
07255,1998-03-25 06:00:00,-3,1032.3,0.2,93,-4,500,7.408,,,110,-3.4,7.2,,,,,,,,,wg-a,,,,AAXX 25064 07255 02/00 21104 11030 21040 30110 40323 53002 60006 80001 90600 333 10072 21034 60004=
07255,1998-03-25 09:00:00,5,1031.7,-0,70,0,4500,3.704,,,110,,,,,,,,,,10,wg-a,,,,AAXX 25094 07255 12/45 /1102 10050 20000 30110 40317 55000 60006 71011 80001 90900=
07255,1998-03-25 12:00:00,9,1029.9,-1.5,27,-9,12000,11.112,,,100,,,,,,,,,,,wg-a,,,,AAXX 25124 07255 12/62 71006 10090 21090 30095 40299 58015 60006 80002 91200=
07255,1998-03-25 15:00:00,11,1027.4,-2.3,24,-9,18000,11.112,,,80,,,,,,,,,,,wg-a,,,,AAXX 25154 07255 12/68 70806 10110 21090 30072 40274 56023 60006 80002 91500=
07255,1998-03-25 18:00:00,10,1026.7,-0.8,29,-7,18000,7.408,,,50,-2.5,11,,,,,,,,,wg-a,,,,AAXX 25184 07255 12/68 70504 10100 21070 30064 40267 55008 60006 81036 91800 333 10110 21025=
07255,1998-03-25 21:00:00,7,1025.9,-1,39,-6,18000,3.704,,,60,,,,,,,,,,,wg-a,,,,AAXX 25214 07255 12/68 70602 10070 21060 30054 40259 58010 60006 85032 92100=
07255,1998-03-26 00:00:00,6,1025.1,-0.9,49,-4,18000,3.704,,,20,,,,,,,,,,,wg-a,,,,AAXX 26004 07255 12768 80202 10060 21040 30045 40251 57009 60006 875// 90000=
07255,1998-03-26 03:00:00,2,1024.1,-1.2,69,-3,15000,7.408,,,120,,,,,,,,,,,wg-a,,,,AAXX 26034 07255 12765 71204 10020 21030 30033 40241 56012 60006 875// 90300=
07255,1998-03-26 06:00:00,1,1024.4,0.2,75,-3,10000,7.408,,,110,0.9,9.5,,,,,,,,,wg-a,,,,AAXX 26064 07255 02/60 61104 10010 21030 30035 40244 51002 60006 81031 90600 333 10095 20009 60004=
07255,1998-03-26 09:00:00,9,1023.9,0.1,43,-3,15000,7.408,,,130,,,,,,,,,,,wg-a,,,,AAXX 26094 07255 12/65 61304 10090 21030 30036 40239 50001 60006 84071 90900=
07255,1998-03-26 12:00:00,13,1022.1,-1.4,26,-6,28000,7.408,,,210,,,,,,,,,,,wg-a,,,,AAXX 26124 07255 12/78 72104 10130 21060 30022 40221 58014 60006 82032 91200=
07255,1998-03-26 15:00:00,14,1020.1,-2,24,-6,28000,3.704,,,240,,,,,,,,,,,wg-a,,,,AAXX 26154 07255 12/78 72402 10140 21060 30002 40201 58020 60006 82036 91500=
07255,1998-03-26 18:00:00,12,1020.8,0.6,32,-4,20000,3.704,,,300,0.8,14.2,,,,,,,,,wg-a,,,,AAXX 26184 07255 12870 83002 10120 21040 30008 40208 51006 60006 8257/ 91800 333 10142 20008=
07255,1998-03-26 21:00:00,10,1021.5,0.5,50,0,15000,3.704,,,30,,,,,,,,,,60,wg-a,,,,AAXX 26214 07255 02/65 80302 10100 20000 30013 40215 53005 61000 76062 8807/ 92100 333 ////=
07255,1998-03-27 00:00:00,7,1021.5,-0.1,87,5,12000,7.408,,,190,,,,1,,,,,,60,wg-a,,,,AAXX 27004 07255 02762 81904 10070 20050 30012 40215 58001 60016 76062 8357/ 90000 333 60017=
07255,1998-03-27 03:00:00,7,1020.8,-0.7,81,4,12000,3.704,,,210,,,,0,,,,,,2,wg-a,,,,AAXX 27034 07255 12762 82102 10070 20040 30005 40208 58007 60007 70262 8357/ 90300=
07255,1998-03-27 06:00:00,8,1021.3,0.5,81,5,6000,3.704,,,260,6.9,11.7,,,,,1,,,1,wg-a,,,,AAXX 27064 07255 02656 82602 10080 20050 30010 40213 53005 60006 70162 8357/ 90600 333 10117 20069 60014=
07255,1998-03-27 09:00:00,10,1021.8,0.7,76,6,8000,7.408,,,240,,,,,,,,,,,wg-a,,,,AAXX 27094 07255 12/58 82404 10100 20060 30017 40218 51007 60006 8801/ 90900=
07255,1998-03-27 12:00:00,12,1021.8,0.1,71,7,12000,3.704,,,350,,,,,,,,,,,wg-a,,,,AAXX 27124 07255 12562 83502 10120 20070 30018 40218 50001 60006 875// 91200=
07255,1998-03-27 18:00:00,14,1018.9,-1,67,8,15000,11.112,,,80,7.5,15.4,,,,,,,,,wg-a,,,,AAXX 27184 07255 12/65 60806 10140 20080 39991 40189 58010 60006 80001 91800 333 10154 20075=
07255,1998-03-27 21:00:00,10,1019.1,-0.1,82,7,12000,14.816,,,90,,,,,,,,,,,wg-a,,,,AAXX 27214 07255 12/62 30908 10100 20070 39990 40191 58001 60006 80001 92100=
07255,1998-03-28 00:00:00,7,1018.7,-0.6,93,6,10000,7.408,,,110,,,,,,,,,,,wg-a,,,,AAXX 28004 07255 12/60 01104 10070 20060 39984 40187 55006 60006 80000 90000=
07255,1998-03-28 03:00:00,6,1016.9,-1.8,93,5,10000,14.816,,,110,,,,,,,,,,,wg-a,,,,AAXX 28034 07255 12/60 31108 10060 20050 39966 40169 56018 60006 80001 90300=
07255,1998-03-28 06:00:00,6,1016.1,-0.8,93,5,9000,18.52,,,110,5.8,13.6,,,,,,,,,wg-a,,,,AAXX 28064 07255 02/59 /1110 10060 20050 39958 40161 56008 60006 80002 90600 333 10136 20058 60004=
07255,1998-03-28 09:00:00,11,1016.1,0.4,76,7,8000,18.52,,,120,,,,,,,,,,,wg-a,,,,AAXX 28094 07255 12/58 81210 10110 20070 39962 40161 50004 60006 80002 90900=
07255,1998-03-28 12:00:00,18,1014.5,-1.2,56,9,12000,11.112,,,130,,,,,,,,,,,wg-a,,,,AAXX 28124 07255 12/62 81306 10180 20090 39950 40145 58012 60006 80002 91200=
07255,1998-03-28 15:00:00,19,1012.6,-1.7,52,9,18000,18.52,,,130,,,,,,,,,,,wg-a,,,,AAXX 28154 07255 12/68 71310 10190 20090 39933 40126 56017 60006 80002 91500=
07255,1998-03-28 18:00:00,17,1012,-0.8,63,10,15000,11.112,,,130,6,20,,,,,,,,,wg-a,,,,AAXX 28184 07255 12/65 71306 10170 20100 39925 40120 56008 60006 85032 91800 333 10200 20060=
07255,1998-03-28 21:00:00,14,1012,-0.2,72,9,15000,11.112,,,110,,,,,,,,,,,wg-a,,,,AAXX 28214 07255 12/65 71106 10140 20090 39923 40120 58002 60006 8703/ 92100=
07255,1998-03-29 00:00:00,13,1011.7,-0.3,77,9,12000,7.408,,,90,,,,,,,,,,,wg-a,,,,AAXX 29004 07255 12/62 70904 10130 20090 39920 40117 58003 60006 8703/ 90000=
07255,1998-03-29 03:00:00,10,1010.5,-1.4,87,8,10000,11.112,,,90,,,,,,,,,,,wg-a,,,,AAXX 29034 07255 12/60 20906 10100 20080 39906 40105 58014 60006 80001 90300=
07255,1998-03-29 06:00:00,8,1010.3,-0.4,81,5,12000,14.816,,,100,7.9,16.8,,,,,,,,,wg-a,,,,AAXX 29064 07255 02/62 51008 10080 20050 39902 40103 56004 60006 81031 90600 333 10168 20079 60004=
07255,1998-03-29 09:00:00,15,1009.3,-0.5,51,5,20000,18.52,,,150,,,,,,,,,,,wg-a,,,,AAXX 29094 07255 12/70 71510 10150 20050 39897 40093 55005 60006 81032 90900=
07255,1998-03-29 12:00:00,20,1007.5,-1.4,46,8,25000,18.52,,,130,,,,,,,,,,,wg-a,,,,AAXX 29124 07255 12/75 71310 10200 20080 39883 40075 57014 60006 80005 91200=
07255,1998-03-29 15:00:00,22,1006,-1.3,43,9,40000,14.816,,,130,,,,,,,,,,,wg-a,,,,AAXX 29154 07255 12/82 71308 10220 20090 39870 40060 57013 60006 80005 91500=
07255,1998-03-29 18:00:00,19,1006.8,0.6,52,9,40000,7.408,,,130,7.9,22.1,,,,,,,,,wg-a,,,,AAXX 29184 07255 12/82 71304 10190 20090 39876 40068 53006 60006 81035 91800 333 10221 20079=
07255,1998-03-29 21:00:00,14,1009,1.8,63,7,25000,7.408,,,290,,,,,,,,,,,wg-a,,,,AAXX 29214 07255 12/75 42904 10140 20070 39894 40090 53018 60006 80002 92100=
07255,1998-03-30 00:00:00,10,1011.4,2,76,6,20000,7.408,,,180,,,,,,,,,,,wg-a,,,,AAXX 30004 07255 12/70 51804 10100 20060 39914 40114 53020 60006 81032 90000=
07255,1998-03-30 12:00:00,15,1016.7,0.9,,,25000,14.816,,,270,,,,,,,,,,,wg-a,,,,AAXX 30124 07255 12575 82708 10150 2//// 39970 40167 51009 60006 875// 91200=
07255,1998-03-30 15:00:00,15,1017,0.3,77,11,25000,14.816,,,310,,,,,,,,,,,wg-a,,,,AAXX 30154 07255 12575 83108 10150 20110 39973 40170 53003 60006 83202 91500=
07255,1998-03-30 18:00:00,13,1018.2,1,88,11,15000,7.408,,,310,8.4,16,,,,,,,,,wg-a,,,,AAXX 30184 07255 12565 83104 10130 20110 39983 40182 53010 60006 8653/ 91800 333 10160 20084=
07255,1998-03-30 21:00:00,10,1019,0.7,100,10,9000,7.408,,,270,,,,,,,,,,,wg-a,,,,AAXX 30214 07255 12/59 72704 10100 20100 39990 40190 50007 60006 80001 92100=
07255,1998-03-31 00:00:00,7,1019.6,0.3,93,6,300,3.704,,,150,,,,,,,,,,45,wg-a,,,,AAXX 31004 07255 12/03 91502 10070 20060 39993 40196 52003 60006 74541 89/// 90000=
07255,1998-03-31 03:00:00,7,1018.6,-1,100,7,200,3.704,,,110,,,,,,,,,,45,wg-a,,,,AAXX 31034 07255 32/02 91102 10070 20070 39983 40186 58010 74542 89/// 90300=
07255,1998-03-31 06:00:00,8,1017.9,-0.6,100,8,200,14.816,,,110,6.1,12.6,,,,,,,,45,wg-a,,,,AAXX 31064 07255 02/02 91108 10080 20080 39977 40179 58006 60006 74542 89/// 90600 333 10126 20061 60004=
07255,1998-03-31 09:00:00,10,1017.3,-0.4,100,10,1500,11.112,,,130,,,,,,,,,,10,wg-a,,,,AAXX 31094 07255 12215 81306 10100 20100 39973 40173 58004 60006 71042 887// 90900=
07255,1998-03-31 12:00:00,19,1014.5,-2.2,56,10,12000,14.816,,,130,,,,,,,,,,3,wg-a,,,,AAXX 31124 07255 12/62 31308 10190 20100 39951 40145 58022 60006 70341 83080 91200=
07255,1998-03-31 15:00:00,22,1012.4,-1.9,38,7,20000,7.408,,,160,,,,,,,,,,,wg-a,,,,AAXX 31154 07255 12770 21604 10220 20070 39932 40124 58019 60006 81181 91500=
07255,1998-03-31 18:00:00,16,1013,0.2,51,6,20000,11.112,,,140,8.3,21.9,,,,,,,,60,wg-a,,,,AAXX 31184 07255 02770 81406 10160 20060 39934 40130 53002 61000 76061 8357/ 91800 333 10219 20083 6100=
07255,1998-03-31 21:00:00,13,1013.7,0.5,88,11,12000,11.112,,,130,,,,0,,,,,,2,wg-a,,,,AAXX 31214 07255 12662 81306 10130 20110 39939 40137 51005 60007 70262 8557/ 92100=
07255,1998-04-01 00:00:00,11,1013.8,0,82,8,15000,11.112,,,170,,,,,,,,,,1,wg-a,,,,AAXX 01004 07255 12/65 51706 10110 20080 39939 40138 50000 60006 70162 82032 90000=
07255,1998-04-01 03:00:00,10,1013.7,-0.2,82,7,15000,11.112,,,160,,,,,,,,,,,wg-a,,,,AAXX 01034 07255 12665 71606 10100 20070 39937 40137 58002 60006 8353/ 90300=
07255,1998-04-01 06:00:00,11,1014.6,1,94,10,10000,14.816,,,230,8.3,16.4,,,,,,,,61,wg-a,,,,AAXX 01064 07255 02560 82308 10110 20100 39947 40146 53010 61000 76162 875// 90600 333 10164 20083 6001=
07255,1998-04-01 09:00:00,13,1015.6,1.1,88,11,10000,14.816,,,270,,,,1,,,,,,3,wg-a,,,,AAXX 01094 07255 12460 82708 10130 20110 39958 40156 51011 60017 70362 878// 90900=
07255,1998-04-01 12:00:00,15,1015,-0.4,67,9,18000,14.816,,,280,,,,,,,,,,3,wg-a,,,,AAXX 01124 07255 12568 72808 10150 20090 39954 40150 57004 60016 70362 85802 91200=
07255,1998-04-01 15:00:00,16,1013.4,-1.5,63,9,20000,11.112,,,320,,,,,,,,,,15,wg-a,,,,AAXX 01154 07255 12570 /3206 10160 20090 39939 40134 56015 60006 71522 86800 91500=
07255,1998-04-01 18:00:00,14,1013.8,0.2,77,10,20000,14.816,,,240,10.7,17,,0,,,,,,1,wg-a,,,,AAXX 01184 07255 02570 72408 10140 20100 39941 40138 51002 60006 70186 873// 91800 333 10170 20107 60007=
07255,1998-04-01 21:00:00,11,1014.3,0.3,87,9,20000,14.816,,,220,,,,,,,,,,,wg-a,,,,AAXX 01214 07255 12770 62208 10110 20090 39944 40143 51003 60006 81530 92100=
07255,1998-04-02 00:00:00,10,1013.2,-1.1,93,9,15000,14.816,,,210,,,,,,,,,,,wg-a,,,,AAXX 02004 07255 12765 72108 10100 20090 39933 40132 58011 60006 875// 90000=
07255,1998-04-02 03:00:00,8,1010.7,-2.6,100,8,20000,11.112,,,170,,,,,,,,,,,wg-a,,,,AAXX 02034 07255 12/70 71706 10080 20080 39907 40107 58026 60006 80002 90300=
07255,1998-04-02 06:00:00,8,1008.6,-2.1,93,7,20000,11.112,,,140,7.5,13.9,,,,,1,,,15,wg-a,,,,AAXX 02064 07255 02670 71406 10080 20070 39886 40086 56021 60006 71522 8453/ 90600 333 10139 20075 60014=
07255,1998-04-02 09:00:00,10,1007.9,-0.5,93,9,7000,18.52,,,210,,,,7,,,,,,61,wg-a,,,,AAXX 02094 07255 12457 82110 10100 20090 39881 40079 58005 60077 76162 878// 90900=
07255,1998-04-02 12:00:00,13,1007,-0.7,82,10,12000,22.224,,,270,,,,1,,,,,,80,wg-a,,,,AAXX 02124 07255 02462 72712 10130 20100 39874 40070 57007 60086 78086 872// 91200 333 60017=
07255,1998-04-02 15:00:00,16,1004.8,-2,55,7,35000,29.632,,,260,,,,1,,,,,,1,wg-a,,,,AAXX 02154 07255 12581 72616 10160 20070 39854 40048 56020 60017 70186 83202 91500=
07255,1998-04-02 18:00:00,14,1004.7,-0.2,63,7,35000,25.928,,,250,8.4,16.7,,,,,,,,1,wg-a,,,,AAXX 02184 07255 12581 82514 10140 20070 39852 40047 55002 60006 70186 8587/ 91800 333 10167 20084=
07255,1998-04-02 21:00:00,11,1003.9,-1,87,9,18000,22.224,,,210,,,,,,,,,,60,wg-a,,,,AAXX 02214 07255 02468 82112 10110 20090 39842 40039 58010 61000 76062 875// 92100 333 ////=
07255,1998-04-03 00:00:00,12,1002.1,-1.7,94,11,9000,22.224,,,220,,,,1,,,,,,61,wg-a,,,,AAXX 03004 07255 02459 82212 10120 20110 39825 40021 56017 60016 76162 875// 90000 333 60017=
07255,1998-04-03 03:00:00,12,1000.3,-1.7,94,11,15000,18.52,,,210,,,,3,,,,,,61,wg-a,,,,AAXX 03034 07255 12365 82110 10120 20110 39808 40003 57017 60037 76162 877// 90300=
07255,1998-04-03 06:00:00,12,1000.5,0.1,88,10,20000,22.224,,,260,11,13.9,,,,,,,,60,wg-a,,,,AAXX 03064 07255 02370 82612 10120 20100 39809 40005 53001 61000 76066 885// 90600 333 10139 20110 6013=
07255,1998-04-03 12:00:00,12,999.2,-1.8,82,9,35000,7.408,,,300,,,,,,,,,,1,wg-a,,,,AAXX 03124 07255 02581 83004 10120 20090 39797 49992 58018 61000 70162 875// 91200 333 6100=
07255,1998-04-03 15:00:00,10,998.9,-0.4,100,10,6000,14.816,,,250,,,,5,,,,,,61,wg-a,,,,AAXX 03154 07255 12656 82508 10100 20100 39793 49989 56004 60057 76162 875// 91500=
07255,1998-04-03 18:00:00,8,999.5,0.4,93,7,9000,29.632,,48.152,310,8.2,13,,,,,,,,61,wg-a,,,,AAXX 03184 07255 02459 83116 10080 20070 39797 49995 53004 61000 76162 875// 91800 333 10130 20082 6004 91026=
07255,1998-04-03 21:00:00,7,1001.1,1.4,93,6,8000,22.224,,,240,,,,4,,,,,,61,wg-a,,,,AAXX 03214 07255 12258 82412 10070 20060 39811 40011 51014 60047 76166 875// 92100=
07255,1998-04-04 00:00:00,7,1000.4,-0.7,87,5,15000,31.484,,,210,,,,3,,,,,,3,wg-a,,,,AAXX 04004 07255 02465 82117 10070 20050 39804 40004 55007 60076 70362 875// 90000 333 60037=
07255,1998-04-04 03:00:00,6,1000.6,0.2,87,4,35000,29.632,,,220,,,,,,,,,,,wg-a,,,,AAXX 04034 07255 12781 82216 10060 20040 39806 40006 51002 60006 8557/ 90300=
07255,1998-04-04 06:00:00,7,1001.5,0.9,87,5,35000,25.928,,,220,5.9,8.1,,,,,15,,,,wg-a,,,,AAXX 04064 07255 02481 32214 10070 20050 39815 40015 53009 60006 83800 90600 333 10081 20059 60154=
07255,1998-04-04 09:00:00,12,1002.1,1,71,7,35000,38.892,,57.412,250,,,,,,,,,,,wg-a,,,,AAXX 04094 07255 12581 /2521 10120 20070 39825 40021 53010 60006 85200 90900 333 91031=
07255,1998-04-04 12:00:00,13,1002.5,0.4,62,6,500,31.484,,53.708,240,,,,,,,,,,,wg-a,,,,AAXX 04124 07255 12600 72417 10130 20060 39829 40025 50004 60006 872// 91200 333 91029=
07255,1998-04-04 15:00:00,13,1003.3,0.8,67,7,25000,35.188,,57.412,240,,,,1,,,,,,25,wg-a,,,,AAXX 04154 07255 12675 52419 10130 20070 39837 40033 53008 60017 72586 85900 91500 333 91031=
07255,1998-04-04 18:00:00,10,1004.3,0.8,71,5,500,25.928,,,250,7,13.7,,,,,,,,25,wg-a,,,,AAXX 04184 07255 02600 62514 10100 20050 39845 40043 53008 61000 72586 84903 91800 333 10137 20070 6100=
07255,1998-04-04 21:00:00,7,1005.8,1.3,87,5,25000,18.52,,,220,,,,0,,,,,,1,wg-a,,,,AAXX 04214 07255 12/75 02210 10070 20050 39858 40058 51013 60007 70186 80000 92100=
07255,1998-04-05 00:00:00,5,1005.3,-0.7,93,4,25000,14.816,,,170,,,,,,,,,,3,wg-a,,,,AAXX 05004 07255 12575 71708 10050 20040 39851 40053 58007 60006 70386 875// 90000=
07255,1998-04-05 03:00:00,6,1003.4,-1.7,93,5,20000,7.408,,,170,,,,,,,,,,,wg-a,,,,AAXX 05034 07255 12570 71704 10060 20050 39834 40034 56017 60006 8113/ 90300=
07255,1998-04-05 06:00:00,6,1004,0.5,100,6,7000,14.816,,,230,4.9,10,,,,,,,,61,wg-a,,,,AAXX 05064 07255 02357 82308 10060 20060 39839 40040 53005 61000 76162 875// 90600 333 10100 20049 6003=
07255,1998-04-05 09:00:00,10,1005.5,1.8,76,6,35000,25.928,,,240,,,,1,,,,,,1,wg-a,,,,AAXX 05094 07255 12481 62414 10100 20060 39857 40055 52018 60017 70162 85832 90900=
07255,1998-04-05 12:00:00,12,1006.5,1.1,67,6,40000,31.484,,48.152,260,,,,,,,,,,25,wg-a,,,,AAXX 05124 07255 02582 /2617 10120 20060 39868 40065 52011 60016 72586 85202 91200 333 61000 91026=
07255,1998-04-05 15:00:00,13,1007.5,1,62,6,40000,25.928,,,250,,,,0,,,,,,1,wg-a,,,,AAXX 05154 07255 12582 42514 10130 20060 39878 40075 51010 60007 70186 83933 91500=
07255,1998-04-05 18:00:00,10,1008.8,1.1,82,7,15000,25.928,,44.448,250,6.2,13.6,,,,,,,,25,wg-a,,,,AAXX 05184 07255 02565 /2514 10100 20070 39889 40088 53011 61000 72586 86800 91800 333 10136 20062 6100 91024=
07255,1998-04-05 21:00:00,8,1010.4,1.5,87,6,25000,22.224,,,230,,,,,,,,,,,wg-a,,,,AAXX 05214 07255 12775 32312 10080 20060 39904 40104 51015 60006 83500 92100=
07255,1998-04-06 00:00:00,9,1010.3,-0.1,87,7,18000,18.52,,,230,,,,,,,,,,15,wg-a,,,,AAXX 06004 07255 12568 72310 10090 20070 39903 40103 56001 60006 71511 878// 90000=
07255,1998-04-06 03:00:00,8,1010.1,-0.3,93,7,15000,25.928,,,240,,,,0,,,,,,80,wg-a,,,,AAXX 06034 07255 12565 82414 10080 20070 39900 40101 56003 60007 78086 888// 90300=
07255,1998-04-06 06:00:00,7,1010.3,0.2,93,6,15000,22.224,,,220,6.2,10.3,,,,,2,,,15,wg-a,,,,AAXX 06064 07255 02465 62212 10070 20060 39902 40103 50002 60006 71586 85903 90600 333 10103 20062 60024=
07255,1998-04-06 09:00:00,9,1010.7,0.5,87,7,18000,18.52,,,230,,,,2,,,,,,25,wg-a,,,,AAXX 06094 07255 12468 82310 10090 20070 39907 40107 51005 60027 72586 8591/ 90900=
07255,1998-04-06 12:00:00,10,1009,-1.6,82,7,15000,25.928,,,220,,,,0,,,,,,61,wg-a,,,,AAXX 06124 07255 02465 82214 10100 20070 39891 40090 58016 60036 76186 888// 91200 333 60007=
07255,1998-04-06 15:00:00,8,1007.7,-1.4,93,7,12000,14.816,,,280,,,,5,,,,,,61,wg-a,,,,AAXX 06154 07255 12462 82808 10080 20070 39877 40077 56014 60057 76166 878// 91500=
07255,1998-04-06 17:00:00,8,1007.4,-0.3,93,7,15000,14.816,,,220,,,,,,,,,,61,wg-a,,,,AAXX 06174 07255 32465 82208 10080 20070 39874 40074 58003 76166 8482/ 91700=
07255,1998-04-06 18:00:00,8,1007.4,-0.3,93,7,15000,14.816,,,220,7.1,10.2,,,,,,,,61,wg-a,,,,AAXX 06184 07255 02465 82208 10080 20070 39874 40074 58003 61000 76166 8482/ 91800 333 10102 20071 6002=
07255,1998-04-06 21:00:00,8,1006,-1.4,93,7,8000,11.112,,,160,,,,1,,,,,,61,wg-a,,,,AAXX 06214 07255 12458 81606 10080 20070 39860 40060 58014 60017 76166 8582/ 92100=
07255,1998-04-07 00:00:00,8,1002.2,-3.7,100,8,7000,22.224,,,140,,,,5,,,,,,63,wg-a,,,,AAXX 07004 07255 02357 81412 10080 20080 39823 40022 56037 60066 76366 8682/ 90000 333 60057=
07255,1998-04-07 03:00:00,9,997.8,-4.3,93,8,8000,22.224,,,160,,,,5,,,,,,61,wg-a,,,,AAXX 07034 07255 12658 81612 10090 20080 39780 49978 57043 60057 76162 8552/ 90300=
07255,1998-04-07 06:00:00,9,996.9,-0.8,93,8,20000,18.52,,,230,7.5,8.6,,,,,,,,60,wg-a,,,,AAXX 07064 07255 02470 82310 10090 20080 39772 49969 55008 61000 76062 878// 90600 333 10086 20075 6024=
07255,1998-04-07 12:00:00,10,1003.2,1.9,76,6,40000,29.632,,,260,,,,,,,,,,25,wg-a,,,,AAXX 07124 07255 02482 72616 10100 20060 39835 40032 51019 60006 72586 87900 91200 333 61000=
07255,1998-04-07 15:00:00,11,1004.5,1.3,71,6,45000,18.52,,,270,,,,0,,,,,,25,wg-a,,,,AAXX 07154 07255 12583 62710 10110 20060 39848 40045 50013 60007 72586 86900 91500=
07255,1998-04-07 18:00:00,8,1006.1,1.3,87,6,500,11.112,,,220,6.1,11.8,,,,,,,,29,wg-a,,,,AAXX 07184 07255 02400 72206 10080 20060 39861 40061 51013 60006 72998 879// 91800 333 10118 20061 61000=
07255,1998-04-07 21:00:00,7,1007.7,1.5,93,6,25000,11.112,,,260,,,,1,,,,,,25,wg-a,,,,AAXX 07214 07255 12475 72606 10070 20060 39876 40077 51015 60017 72586 879// 92100=
07255,1998-04-08 00:00:00,7,1008.3,0.6,93,6,20000,18.52,,,260,,,,,,,,,,1,wg-a,,,,AAXX 08004 07255 12670 /2610 10070 20060 39882 40083 52006 60016 70186 86500 90000=
07255,1998-04-08 03:00:00,7,1008.2,-0.1,93,6,20000,22.224,,,250,,,,,,,,,,,wg-a,,,,AAXX 08034 07255 12470 72512 10070 20060 39881 40082 56001 60006 8683/ 90300=
07255,1998-04-08 06:00:00,5,1008.4,0.1,100,5,20000,11.112,,,240,4.5,7.9,,,,,1,,,,wg-a,,,,AAXX 08064 07255 02570 72406 10050 20050 39882 40084 53001 60006 879// 90600 333 10079 20045 60014=
07255,1998-04-08 09:00:00,9,1007.8,-0.3,87,7,40000,18.52,,,240,,,,2,,,,,,25,wg-a,,,,AAXX 08094 07255 12482 72410 10090 20070 39879 40078 58003 60027 72586 84130 90900=
07255,1998-04-08 12:00:00,9,1006.2,-1.6,81,6,40000,18.52,,,220,,,,0,,,,,,16,wg-a,,,,AAXX 08124 07255 02582 72210 10090 20060 39863 40062 58016 60026 71686 879// 91200 333 60007=
07255,1998-04-08 15:00:00,10,1004.1,-2,82,7,35000,25.928,,,230,,,,0,,,,,,80,wg-a,,,,AAXX 08154 07255 12681 72314 10100 20070 39843 40041 57020 60007 78086 879// 91500=
07255,1998-04-08 18:00:00,8,1003.3,-0.9,93,7,500,11.112,,,230,5.1,11.9,,,,,,,,80,wg-a,,,,AAXX 08184 07255 02500 72306 10080 20070 39834 40033 56009 61000 78086 879// 91800 333 10119 20051 6003=
07255,1998-04-08 21:00:00,7,1003.1,-0.3,93,6,20000,7.408,,,200,,,,1,,,,,,1,wg-a,,,,AAXX 08214 07255 12570 72004 10070 20060 39831 40031 56003 60017 70186 878// 92100=
07255,1998-04-09 00:00:00,5,1002,-1.2,93,4,20000,14.816,,,210,,,,,,,,,,1,wg-a,,,,AAXX 09004 07255 12770 22108 10050 20040 39819 40020 57012 60016 70186 82500 90000=
07255,1998-04-09 03:00:00,4,999.3,-2.7,93,3,20000,11.112,,,170,,,,,,,,,,,wg-a,,,,AAXX 09034 07255 12770 71706 10040 20030 39792 49993 58027 60006 82552 90300=
07255,1998-04-09 06:00:00,5,997.8,-1.4,100,5,18000,14.816,,,170,3.9,7.8,,,,,7,,,3,wg-a,,,,AAXX 09064 07255 02468 71708 10050 20050 39778 49978 55014 60006 70361 878// 90600 333 10078 20039 60074=
07255,1998-04-09 09:00:00,7,997.1,-0.5,93,6,15000,11.112,,,280,,,,0,,,,,,15,wg-a,,,,AAXX 09094 07255 12465 72806 10070 20060 39773 49971 56005 60007 71562 878// 90900=
07255,1998-04-09 12:00:00,10,996.4,-0.5,66,4,500,18.52,,,260,,,,0,,,,,,1,wg-a,,,,AAXX 09124 07255 02500 72610 10100 20040 39768 49964 58005 60016 70186 84232 91200 333 60007=
07255,1998-04-09 15:00:00,10,995.7,-0.7,66,4,35000,22.224,,,260,,,,,,,,,,15,wg-a,,,,AAXX 09154 07255 12581 82612 10100 20040 39761 49957 55007 60006 71522 85202 91500=
07255,1998-04-09 18:00:00,8,995.7,-0.2,76,4,35000,11.112,,,210,5.2,12.5,,1,,,,,,15,wg-a,,,,AAXX 09184 07255 02581 72106 10080 20040 39759 49957 56002 60006 71586 84903 91800 333 10125 20052 60017=
07255,1998-04-09 21:00:00,6,996,0.2,87,4,500,11.112,,,200,,,,,,,,,,,wg-a,,,,AAXX 09214 07255 12/00 72006 10060 20040 39761 49960 50002 60006 8701/ 92100=
07255,1998-04-10 00:00:00,6,995.9,-0.1,87,4,25000,11.112,,,230,,,,,,,,,,,wg-a,,,,AAXX 10004 07255 12675 72306 10060 20040 39760 49959 58001 60006 875// 90000=
07255,1998-04-10 03:00:00,3,994.8,-1.3,93,2,20000,11.112,,,160,,,,,,,,,,,wg-a,,,,AAXX 10034 07255 12570 21606 10030 20020 39747 49948 58013 60006 81501 90300=
07255,1998-04-10 06:00:00,2,994,-0.9,93,1,40000,11.112,,,180,1.9,8,,,,,1,,,,wg-a,,,,AAXX 10064 07255 02682 /1806 10020 20010 39738 49940 56009 60006 81511 90600 333 10080 20019 60014=
07255,1998-04-10 09:00:00,9,993.5,-0,66,3,40000,14.816,,,200,,,,,,,,,,,wg-a,,,,AAXX 10094 07255 12582 /2008 10090 20030 39738 49935 54000 60006 85802 90900=
07255,1998-04-10 12:00:00,5,993.5,-0.2,93,4,3500,25.928,,46.3,220,,,,1,,,,,,10,wg-a,,,,AAXX 10124 07255 02535 72214 10050 20040 39736 49935 55002 60016 71086 879// 91200 333 60017 91025=
07255,1998-04-10 15:00:00,6,993,-0.4,87,4,18000,18.52,,,210,,,,1,,,,,,29,wg-a,,,,AAXX 10154 07255 12468 72110 10060 20040 39732 49930 55004 60017 72998 85903 91500=
07255,1998-04-10 18:00:00,7,993.8,0.8,81,4,18000,22.224,,,240,1.8,10.9,,,,,,,,25,wg-a,,,,AAXX 10184 07255 02468 62412 10070 20040 39740 49938 53008 61000 72598 85903 91800 333 10109 20018 6002=
07255,1998-04-10 21:00:00,5,996,2,93,4,18000,14.816,,,230,,,,,,,,,,,wg-a,,,,AAXX 10214 07255 12568 /2308 10050 20040 39760 49960 53020 60006 86800 92100=
07255,1998-04-11 00:00:00,5,997.7,1.7,93,4,18000,14.816,,,240,,,,,,,,,,,wg-a,,,,AAXX 11004 07255 12668 72408 10050 20040 39777 49977 51017 60006 875// 90000=
07255,1998-04-11 03:00:00,5,999.1,1.3,87,3,18000,18.52,,,230,,,,,,,,,,,wg-a,,,,AAXX 11034 07255 12668 /2310 10050 20030 39790 49991 53013 60006 85502 90300=
07255,1998-04-11 06:00:00,2,1000.2,0.9,93,1,20000,14.816,,,220,1.8,6.7,,,,,4,,,,wg-a,,,,AAXX 11064 07255 02570 62208 10020 20010 39799 40002 53009 60006 82832 90600 333 10067 20018 60044=
07255,1998-04-11 09:00:00,6,1000.3,0.4,70,1,40000,18.52,,,240,,,,,,,,,,,wg-a,,,,AAXX 11094 07255 12582 72410 10060 20010 39803 40003 51004 60006 871// 90900=
07255,1998-04-11 12:00:00,6,1000.5,0.2,87,4,40000,22.224,,40.744,260,,,,,,,,,,80,wg-a,,,,AAXX 11124 07255 02582 72612 10060 20040 39805 40005 50002 61000 78086 872// 91200 333 6100 91022=
07255,1998-04-11 18:00:00,5,1001.1,0.9,93,4,25000,14.816,,,220,1.9,9.2,,,,,,,,27,wg-a,,,,AAXX 11184 07255 02475 72208 10050 20040 39810 40011 53009 61000 72787 879// 91800 333 10092 20019 6001=
07255,1998-04-12 00:00:00,3,1003,0.5,93,2,25000,11.112,,,260,,,,,,,,,,1,wg-a,,,,AAXX 12004 07255 12475 22606 10030 20020 39827 40030 51005 60016 70161 82800 90000=
07255,1998-04-12 03:00:00,4,1003,0.1,100,4,20000,11.112,,,280,,,,,,,,,,,wg-a,,,,AAXX 12034 07255 12270 72806 10040 20040 39828 40030 50001 60006 875// 90300=
07255,1998-04-12 06:00:00,5,1004,1,93,4,6000,14.816,,,280,2.3,5,,,,,,,,60,wg-a,,,,AAXX 12064 07255 02356 82808 10050 20040 39838 40040 53010 61000 76061 877// 90600 333 10050 20023 6002=
07255,1998-04-12 09:00:00,5,1005.8,1.8,93,4,15000,11.112,,,330,,,,1,,,,,,21,wg-a,,,,AAXX 12094 07255 12465 83306 10050 20040 39856 40058 53018 60017 72162 875// 90900=
07255,1998-04-12 12:00:00,4,1007.4,1.5,93,3,12000,14.816,,,340,,,,0,,,,,,60,wg-a,,,,AAXX 12124 07255 02462 83408 10040 20030 39871 40074 51015 60016 76062 878// 91200 333 60007=
07255,1998-04-12 15:00:00,3,1008.8,1.3,93,2,18000,11.112,,,350,,,,1,,,,,,21,wg-a,,,,AAXX 12154 07255 12468 83506 10030 20020 39884 40088 51013 60017 72162 8587/ 91500=
07255,1998-04-12 18:00:00,5,1009.2,0.5,75,1,25000,14.816,,,280,2.7,5.2,,,,,,,,1,wg-a,,,,AAXX 12184 07255 12475 72808 10050 20010 39889 40092 53005 60006 70162 84872 91800 333 10052 20027=
07255,1998-04-12 21:00:00,1,1010.7,1.2,100,1,12000,11.112,,,240,,,,0,,,,,,21,wg-a,,,,AAXX 12214 07255 12662 82406 10010 20010 39901 40107 50012 60007 72162 8351/ 92100=
07255,1998-04-13 00:00:00,2,1010.6,-0,93,1,12000,7.408,,,250,,,,,,,,,,61,wg-a,,,,AAXX 13004 07255 02562 82504 10020 20010 39901 40106 54000 60016 76162 875// 90000 333 61000=
07255,1998-04-13 03:00:00,2,1009.8,-0.8,93,1,6000,3.704,,,280,,,,0,,,,,,51,wg-a,,,,AAXX 13034 07255 12256 82802 10020 20010 39893 40098 57008 60007 75165 875// 90300=
07255,1998-04-13 06:00:00,2,1010.1,0.3,93,1,10000,11.112,,,310,0.5,4.9,,,,,,,,60,wg-a,,,,AAXX 13064 07255 02360 83106 10020 20010 39896 40101 53003 61000 76065 877// 90600 333 10049 20005 6004=
07255,1998-04-13 09:00:00,2,1011.7,1.6,93,1,3000,14.816,,,20,,,,0,,,,,,71,wg-a,,,,AAXX 13094 07255 12230 80208 10020 20010 39912 40117 53016 60007 77176 877// 90900=
07255,1998-04-13 12:00:00,7,1011.1,-0.3,57,-1,25000,3.704,,,160,,,,0,,,,,,15,wg-a,,,,AAXX 13124 07255 02475 /1602 10070 21010 39909 40111 58003 60016 71576 85802 91200 333 60007=
07255,1998-04-13 15:00:00,8,1010.4,-0.6,53,-1,25000,14.816,,,260,,,,,,,,,,15,wg-a,,,,AAXX 13154 07255 12575 52608 10080 21010 39903 40104 58006 60006 71522 84933 91500=
07255,1998-04-13 18:00:00,5,1010.1,-0.5,65,-1,10000,18.52,,,250,1.6,7.9,,,,,,,,26,wg-a,,,,AAXX 13184 07255 02560 52510 10050 21010 39898 40101 55005 61000 72687 85900 91800 333 10079 20016 6100=
07255,1998-04-13 21:00:00,2,1011.3,0.9,80,-1,20000,11.112,,,240,,,,,,,,,,,wg-a,,,,AAXX 13214 07255 12570 42406 10020 21010 39907 40113 51009 60006 84800 92100=
07255,1998-04-14 00:00:00,0,1011,-0.4,93,-1,18000,7.408,,,240,,,,,,,,,,,wg-a,,,,AAXX 14004 07255 12668 32404 10000 21010 39903 40110 58004 60006 82502 90000=
07255,1998-04-14 03:00:00,-1,1009.5,-1.5,93,-2,15000,11.112,,,220,,,,,,,,,,,wg-a,,,,AAXX 14034 07255 12/65 32206 11010 21020 39888 40095 56015 60006 80001 90300=
07255,1998-04-14 06:00:00,0,1009.4,-0.1,86,-2,18000,14.816,,,200,-1.2,4.7,,,,,1,,,,wg-a,,,,AAXX 14064 07255 02/68 42008 10000 21020 39887 40094 55001 60006 81032 90600 333 10047 21012 60014=
07255,1998-04-14 09:00:00,5,1008.7,-0.2,70,0,40000,18.52,,,220,,,,0,,,,,,,wg-a,,,,AAXX 14094 07255 12582 72210 10050 20000 39885 40087 58002 60007 82831 90900=
07255,1998-04-14 12:00:00,9,1006.5,-2,46,-2,40000,18.52,,,210,,,,,,,,,,,wg-a,,,,AAXX 14124 07255 12682 42110 10090 21020 39865 40065 57020 60006 84100 91200=
07255,1998-04-14 15:00:00,11,1004,-2.2,50,1,40000,14.816,,,200,,,,,,,,,,,wg-a,,,,AAXX 14154 07255 12682 72008 10110 20010 39843 40040 58022 60006 86101 91500=
07255,1998-04-14 18:00:00,9,1002,-2.1,57,1,0,7.408,,,150,-0.3,11.7,,,,,,,,,wg-a,,,,AAXX 14184 07255 32/// /1504 10090 20010 39822 40020 56021 91800 333 10117 21003=
07255,1998-04-15 00:00:00,7,999.9,-1.2,76,3,0,18.52,,,160,,,,,,,,,,,wg-a,,,,AAXX 15004 07255 12/// /1610 10070 20030 39800 49999 58012 60006 90000=
07255,1998-04-15 06:00:00,7,996.7,-0.2,93,6,12000,14.816,,,240,6.7,9.2,,,,,,,,61,wg-a,,,,AAXX 15064 07255 02562 82408 10070 20060 39769 49967 56002 61000 76162 8452/ 90600 333 10092 20067 6001=
07255,1998-04-15 09:00:00,8,995.8,-0.8,93,7,12000,25.928,,,230,,,,2,,,,,,61,wg-a,,,,AAXX 15094 07255 12462 82314 10080 20070 39761 49958 58008 60027 76166 875// 90900=
07255,1998-04-15 12:00:00,10,995.3,-0.4,82,7,25000,25.928,,,240,,,,1,,,,,,21,wg-a,,,,AAXX 15124 07255 02475 82414 10100 20070 39757 49953 58004 60036 72162 872// 91200 333 60017=
07255,1998-04-15 18:00:00,7,999.4,2.1,66,1,0,18.52,,,270,4.8,10.2,,,,,,,,,wg-a,,,,AAXX 15184 07255 32/// /2710 10070 20010 39794 49994 53021 91800 333 10102 20048=
07255,1998-04-16 00:00:00,3,1004.1,1.7,87,1,0,14.816,,,250,,,,,,,,,,,wg-a,,,,AAXX 16004 07255 12/// /2508 10030 20010 39838 40041 51017 60006 90000=
07255,1998-04-16 06:00:00,1,1003.2,-0.8,93,0,20000,14.816,,,220,0.6,6.6,,,,,5,,,,wg-a,,,,AAXX 16064 07255 02570 /2208 10010 20000 39828 40032 57008 60006 83805 90600 333 10066 20006 60054=
07255,1998-04-16 09:00:00,7,1000.3,-2.4,76,3,25000,22.224,,,200,,,,,,,,,,,wg-a,,,,AAXX 16094 07255 12675 82012 10070 20030 39804 40003 57024 60006 81137 90900=
07255,1998-04-16 12:00:00,9,996.3,-3.8,57,1,500,29.632,,,210,,,,,,,,,,,wg-a,,,,AAXX 16124 07255 12500 82116 10090 20010 39766 49963 58038 60006 84277 91200=
07255,1998-04-16 15:00:00,8,992.8,-3.5,81,5,8000,18.52,,,210,,,,1,,,,,,61,wg-a,,,,AAXX 16154 07255 12658 82110 10080 20050 39731 49928 56035 60017 76162 8657/ 91500=
07255,1998-04-16 18:00:00,9,989.7,-3,76,5,0,29.632,,,210,1.1,10.8,,,,,,,,,wg-a,,,,AAXX 16184 07255 32/// /2116 10090 20050 39701 49897 56030 91800 333 10108 20011=
07255,1998-04-17 00:00:00,7,983.3,-3.8,93,6,0,22.224,,,160,,,,,,,,,,,wg-a,,,,AAXX 17004 07255 12/// /1612 10070 20060 39637 49833 58038 60026 90000=
07255,1998-04-17 06:00:00,6,988.1,4,87,4,15000,31.484,,,260,5.6,8.5,,,,,,,,61,wg-a,,,,AAXX 17064 07255 02465 82617 10060 20040 39683 49881 53040 61000 76162 878// 90600 333 10085 20056 6009=
07255,1998-04-17 09:00:00,5,990.9,2.7,87,3,12000,38.892,,62.968,260,,,,,,,,,,60,wg-a,,,,AAXX 17094 07255 02462 82621 10050 20030 39710 49909 53027 61000 76066 877// 90900 333 //// 91034=
07255,1998-04-17 12:00:00,5,992.5,1.5,87,3,8000,35.188,,,260,,,,2,,,,,,61,wg-a,,,,AAXX 17124 07255 02358 82619 10050 20030 39725 49925 51015 60026 76166 877// 91200 333 60027=
07255,1998-04-17 15:00:00,4,993.5,1,93,3,500,35.188,,53.708,270,,,,5,,,,,,63,wg-a,,,,AAXX 17154 07255 12300 82719 10040 20030 39735 49935 51010 60057 76366 877// 91500 333 91029=
07255,1998-04-17 18:00:00,5,996,2.5,93,4,0,14.816,,,290,3.3,6,,4,,,,,,,wg-a,,,,AAXX 17184 07255 12/// /2908 10050 20040 39760 49960 53025 60047 91800 333 10060 20033=
07255,1998-04-18 00:00:00,5,1002.1,2.3,93,4,0,22.224,,,300,,,,,,,,,,,wg-a,,,,AAXX 18004 07255 02/// /3012 10050 20040 39820 40021 51023 60016 90000 333 61000=
07255,1998-04-18 09:00:00,6,1006.9,1.7,87,4,20000,18.52,,,290,,,,,,,,,,,wg-a,,,,AAXX 18094 07255 12470 82910 10060 20040 39868 40069 53017 60006 888// 90900=
07255,1998-04-18 12:00:00,8,1007.5,0.6,61,1,500,14.816,,,290,,,,0,,,,,,27,wg-a,,,,AAXX 18124 07255 02500 72908 10080 20010 39874 40075 51006 60006 72787 8693/ 91200 333 60007=
07255,1998-04-18 15:00:00,9,1007.7,0.4,53,0,35000,22.224,,,300,,,,,,,,,,15,wg-a,,,,AAXX 18154 07255 12481 73012 10090 20000 39878 40077 53004 60006 71522 8493/ 91500=
07255,1998-04-18 18:00:00,7,1008.6,0.7,76,3,0,11.112,,,270,4.6,10.5,,,,,,,,,wg-a,,,,AAXX 18184 07255 32/// /2706 10070 20030 39885 40086 53007 91800 333 10105 20046=
07255,1998-04-19 00:00:00,5,1010.9,0.7,93,4,0,11.112,,,260,,,,,,,,,,,wg-a,,,,AAXX 19004 07255 12/// /2606 10050 20040 39906 40109 51007 60006 90000=
07255,1998-04-19 06:00:00,5,1011.6,0.9,100,5,12000,3.704,,,260,5.1,7.4,,,,,2,,,15,wg-a,,,,AAXX 19064 07255 02562 72602 10050 20050 39913 40116 53009 60006 71562 878// 90600 333 10074 20051 60024=
07255,1998-04-19 09:00:00,9,1012.4,1,76,5,18000,7.408,,,290,,,,,,,,,,,wg-a,,,,AAXX 19094 07255 12468 /2904 10090 20050 39923 40124 51010 60006 86200 90900=
07255,1998-04-19 12:00:00,12,1011.9,-0.2,54,3,500,14.816,,,250,,,,,,,,,,,wg-a,,,,AAXX 19124 07255 12500 72508 10120 20030 39921 40119 58002 60006 86801 91200=
07255,1998-04-19 15:00:00,13,1011.6,-0.3,54,4,500,11.112,,,210,,,,,,,,,,60,wg-a,,,,AAXX 19154 07255 02600 72106 10130 20040 39918 40116 56003 61000 76062 8582/ 91500 333 ////=
07255,1998-04-19 18:00:00,11,1012,0.3,82,8,0,7.408,,,210,5.3,13.3,,,,,,,,,wg-a,,,,AAXX 19184 07255 32/// /2104 10110 20080 39921 40120 51003 91800 333 10133 20053=
07255,1998-04-20 00:00:00,9,1012.5,-0.1,87,7,0,11.112,,,180,,,,,,,,,,,wg-a,,,,AAXX 20004 07255 12/// /1806 10090 20070 39925 40125 58001 60016 90000=
07255,1998-04-20 06:00:00,9,1012.7,0.7,87,7,40000,7.408,,,160,8,10.8,,,,,,,,60,wg-a,,,,AAXX 20064 07255 02682 81604 10090 20070 39927 40127 53007 61000 76062 8552/ 90600 333 10108 20080 6001=
07255,1998-04-20 09:00:00,10,1013.6,1,93,9,8000,18.52,,,240,,,,1,,,,,,61,wg-a,,,,AAXX 20094 07255 12658 82410 10100 20090 39937 40136 53010 60017 76162 875// 90900=
07255,1998-04-20 12:00:00,14,1014.4,1,82,11,15000,22.224,,,250,,,,1,,,,,,21,wg-a,,,,AAXX 20124 07255 02565 82512 10140 20110 39947 40144 51010 60026 72162 875// 91200 333 60017=
07255,1998-04-20 15:00:00,14,1014.6,0.2,72,9,35000,14.816,,,270,,,,,,,,,,,wg-a,,,,AAXX 20154 07255 12581 72708 10140 20090 39949 40146 52002 60006 878// 91500=
07255,1998-04-20 18:00:00,12,1016.2,1.4,82,9,0,7.408,,,300,8.7,14.2,,,,,,,,,wg-a,,,,AAXX 20184 07255 32/// /3004 10120 20090 39963 40162 53014 91800 333 10142 20087=
07255,1998-04-21 00:00:00,8,1018.6,0.2,93,7,0,7.408,,,220,,,,,,,,,,,wg-a,,,,AAXX 21004 07255 12/// /2204 10080 20070 39984 40186 53002 60006 90000=
07255,1998-04-21 06:00:00,8,1019,0.8,100,8,12000,3.704,,,260,6.9,11.6,,,,,2,,,,wg-a,,,,AAXX 21064 07255 02562 /2602 10080 20080 39988 40190 53008 60006 84801 90600 333 10116 20069 60024=
07255,1998-04-21 09:00:00,13,1018.6,0,77,9,20000,7.408,,,180,,,,,,,,,,,wg-a,,,,AAXX 21094 07255 12470 41804 10130 20090 39988 40186 50000 60006 82132 90900=
07255,1998-04-21 12:00:00,17,1017,-1.4,59,9,28000,7.408,,,160,,,,,,,,,,,wg-a,,,,AAXX 21124 07255 12578 31604 10170 20090 39974 40170 58014 60006 82101 91200=
07255,1998-04-21 15:00:00,19,1015,-1.8,52,9,500,11.112,,,110,,,,,,,,,,,wg-a,,,,AAXX 21154 07255 12600 21106 10190 20090 39956 40150 58018 60006 81201 91500=
07255,1998-04-21 18:00:00,18,1014.1,-0.9,64,11,0,14.816,,,120,8.1,19.7,,,,,,,,,wg-a,,,,AAXX 21184 07255 12/// /1208 10180 20110 39947 40141 57009 60006 91800 333 10197 20081=
07255,1998-04-22 00:00:00,10,1014.1,-0.6,87,8,0,14.816,,,120,,,,,,,,,,,wg-a,,,,AAXX 22004 07255 12/// /1208 10100 20080 39941 40141 56006 60006 90000=
07255,1998-04-22 06:00:00,9,1013,-0,87,7,20000,14.816,,,110,7.7,19.3,,,,,,,,,wg-a,,,,AAXX 22064 07255 12870 11108 10090 20070 39930 40130 55000 60006 81530 90600 333 10193 20077=
07255,1998-04-22 09:00:00,17,1011.7,-0.8,63,10,28000,18.52,,,120,,,,,,,,,,,wg-a,,,,AAXX 22094 07255 12/78 01210 10170 20100 39922 40117 56008 60006 80000 90900=
07255,1998-04-22 12:00:00,21,1009.7,-1.6,49,10,40000,22.224,,,140,,,,,,,,,,,wg-a,,,,AAXX 22124 07255 12682 /1412 10210 20100 39906 40097 58016 60006 81100 91200=
07255,1998-04-22 15:00:00,23,1008.4,-1.2,44,10,40000,18.52,,,140,,,,,,,,,,,wg-a,,,,AAXX 22154 07255 12782 11410 10230 20100 39894 40084 56012 60006 81101 91500=
07255,1998-04-22 18:00:00,22,1008.7,0.2,46,10,0,7.408,,,140,9.3,23.2,,,,,,,,,wg-a,,,,AAXX 22184 07255 12/// /1404 10220 20100 39896 40087 53002 60006 91800 333 10232 20093=
07255,1998-04-23 00:00:00,14,1012.5,1.7,82,11,0,14.816,,,290,,,,,,,,,,,wg-a,,,,AAXX 23004 07255 12/// /2908 10140 20110 39929 40125 51017 60006 90000=
07255,1998-04-23 06:00:00,10,1016.5,1.9,100,10,2000,11.112,,,260,9.4,21.5,,,,,,,,10,wg-a,,,,AAXX 23064 07255 02320 72606 10100 20100 39965 40165 53019 60006 71011 876// 90600 333 10215 20094 60004=
07255,1998-04-23 09:00:00,13,1017.8,1.4,77,9,18000,14.816,,,270,,,,,,,,,,,wg-a,,,,AAXX 23094 07255 12468 82708 10130 20090 39979 40178 51014 60006 878// 90900=
07255,1998-04-23 12:00:00,16,1016.9,-0.6,59,8,500,25.928,,,240,,,,,,,,,,,wg-a,,,,AAXX 23124 07255 12500 32414 10160 20080 39973 40169 58006 60006 83100 91200=
07255,1998-04-23 15:00:00,17,1015.7,-1.1,52,7,35000,22.224,,,250,,,,,,,,,,,wg-a,,,,AAXX 23154 07255 12681 /2512 10170 20070 39962 40157 57011 60006 82882 91500=
07255,1998-04-23 18:00:00,15,1017.2,1.3,63,8,0,29.632,,,270,10.2,18.2,,,,,,,,,wg-a,,,,AAXX 23184 07255 12/// /2716 10150 20080 39975 40172 53013 60006 91800 333 10182 20102=
07255,1998-04-24 00:00:00,10,1020.1,1,93,9,0,11.112,,,270,,,,,,,,,,,wg-a,,,,AAXX 24004 07255 12/// /2706 10100 20090 30000 40201 53010 60006 90000=
07255,1998-04-24 06:00:00,9,1022.6,1.4,93,8,10000,11.112,,,270,7.9,14.6,,,,,,,,,wg-a,,,,AAXX 24064 07255 02460 72706 10090 20080 30024 40226 53014 60006 86632 90600 333 10146 20079 60004=
07255,1998-04-24 09:00:00,12,1023.5,1.1,82,9,15000,14.816,,,290,,,,,,,,,,,wg-a,,,,AAXX 24094 07255 12365 72908 10120 20090 30035 40235 51011 60006 86232 90900=
07255,1998-04-24 12:00:00,14,1022.9,-0.4,72,9,18000,18.52,,,270,,,,,,,,,,,wg-a,,,,AAXX 24124 07255 12568 72710 10140 20090 30031 40229 58004 60006 878// 91200=
07255,1998-04-24 18:00:00,15,1022.4,-0.2,77,11,0,14.816,,,240,9.1,15.9,,,,,,,,,wg-a,,,,AAXX 24184 07255 12/// /2408 10150 20110 30026 40224 56002 60006 91800 333 10159 20091=
07255,1998-04-25 00:00:00,12,1022.4,-0.7,94,11,0,14.816,,,250,,,,,,,,,,,wg-a,,,,AAXX 25004 07255 12/// /2508 10120 20110 30024 40224 57007 60006 90000=
07255,1998-04-25 06:00:00,11,1020.8,-0.2,94,10,25000,11.112,,,220,8.6,14.8,,,,,,,,,wg-a,,,,AAXX 25064 07255 02475 72206 10110 20100 30007 40208 57002 60006 875// 90600 333 10148 20086 60004=
07255,1998-04-25 12:00:00,14,1018.4,-1.7,88,12,9000,11.112,,,190,,,,1,,,,,,61,wg-a,,,,AAXX 25124 07255 02459 81906 10140 20120 39986 40184 58017 60026 76162 8457/ 91200 333 60017=
07255,1998-04-25 18:00:00,13,1014,-3.5,94,12,15000,22.224,,,150,10.5,14.7,,,,,,,,60,wg-a,,,,AAXX 25184 07255 02565 81512 10130 20120 39943 40140 58035 61000 76062 8587/ 91800 333 10147 20105 6002=
07255,1998-04-26 00:00:00,12,1012.4,-0.5,100,12,500,3.704,,,270,,,,8,,,,,,61,wg-a,,,,AAXX 26004 07255 02300 82702 10120 20120 39926 40124 56005 60086 76162 875// 90000 333 60087=
07255,1998-04-26 06:00:00,12,1009.1,-0.3,100,12,500,7.408,,,270,11.8,13.2,,,,,,,,51,wg-a,,,,AAXX 26064 07255 02300 82704 10120 20120 39894 40091 55003 61000 75165 875// 90600 333 10132 20118 6018=
07255,1998-04-26 12:00:00,11,1008.6,-1.2,82,8,500,11.112,,,310,,,,1,,,,,,60,wg-a,,,,AAXX 26124 07255 02300 83106 10110 20080 39888 40086 56012 60046 76065 885// 91200 333 60017=
07255,1998-04-26 18:00:00,10,1007.1,-0.8,93,9,12000,7.408,,,240,9.8,12.3,,,,,,,,60,wg-a,,,,AAXX 26184 07255 02462 82404 10100 20090 39873 40071 58008 61000 76062 888// 91800 333 10123 20098 6001=
07255,1998-04-27 00:00:00,8,1005.6,-1.7,100,8,8000,11.112,,,220,,,,2,,,,,,61,wg-a,,,,AAXX 27004 07255 02258 82206 10080 20080 39857 40056 57017 60026 76162 875// 90000 333 60027=
07255,1998-04-27 06:00:00,8,1004.1,-0.5,100,8,8000,11.112,,,290,7.6,9.9,,,,,,,,21,wg-a,,,,AAXX 27064 07255 02258 82906 10080 20080 39842 40041 56005 61000 72162 875// 90600 333 10099 20076 6013=
07255,1998-04-27 09:00:00,9,1005.4,1.3,93,8,15000,14.816,,,290,,,,,,,,,,,wg-a,,,,AAXX 27094 07255 12365 82908 10090 20080 39855 40054 53013 60006 872// 90900=
07255,1998-04-27 12:00:00,12,1005.3,0.1,71,7,25000,14.816,,,310,,,,,,,,,,,wg-a,,,,AAXX 27124 07255 12575 83108 10120 20070 39856 40053 50001 60006 85232 91200=
07255,1998-04-27 15:00:00,11,1005.4,0.1,76,7,15000,14.816,,,230,,,,0,,,,,,25,wg-a,,,,AAXX 27154 07255 12565 72308 10110 20070 39857 40054 51001 60007 72586 85902 91500=
07255,1998-04-27 18:00:00,10,1007.1,1.5,76,6,12000,7.408,,,330,7.9,13.4,,,,,,,,25,wg-a,,,,AAXX 27184 07255 02662 73304 10100 20060 39872 40071 53015 61000 72586 85903 91800 333 10134 20079 6100=
07255,1998-04-27 21:00:00,7,1008.2,0.9,93,6,25000,11.112,,,250,,,,,,,,,,,wg-a,,,,AAXX 27214 07255 12/75 02506 10070 20060 39881 40082 53009 60006 80000 92100=
07255,1998-04-28 00:00:00,6,1008.7,0.4,93,5,20000,7.408,,,240,,,,,,,,,,,wg-a,,,,AAXX 28004 07255 12670 /2404 10060 20050 39885 40087 51004 60006 83101 90000=
07255,1998-04-28 03:00:00,7,1008.3,-0.3,93,6,15000,11.112,,,250,,,,0,,,,,,,wg-a,,,,AAXX 28034 07255 12665 72506 10070 20060 39882 40083 56003 60007 875// 90300=
07255,1998-04-28 06:00:00,6,1009.4,1,100,6,8000,7.408,,,260,5.1,9.5,,,,,1,,,,wg-a,,,,AAXX 28064 07255 02258 72604 10060 20060 39892 40094 53010 60006 86101 90600 333 10095 20051 60014=
07255,1998-04-28 09:00:00,10,1009.3,0.2,82,7,20000,14.816,,,270,,,,,,,,,,,wg-a,,,,AAXX 28094 07255 12470 /2708 10100 20070 39894 40093 51002 60006 85200 90900=
07255,1998-04-28 12:00:00,13,1008.2,-0.9,62,6,25000,14.816,,,290,,,,,,,,,,25,wg-a,,,,AAXX 28124 07255 02575 52908 10130 20060 39885 40082 58009 61000 72586 84933 91200 333 6100=
07255,1998-04-28 15:00:00,14,1007.4,-0.7,63,7,25000,14.816,,,280,,,,,,,,,,25,wg-a,,,,AAXX 28154 07255 02575 32808 10140 20070 39878 40074 58007 61000 72586 83900 91500 333 ////=
07255,1998-04-28 18:00:00,12,1006.8,-0.7,71,7,500,11.112,,,150,5.8,14.9,,,,,,,,15,wg-a,,,,AAXX 28184 07255 12500 31506 10120 20070 39871 40068 58007 60006 71586 83901 91800 333 10149 20058=
07255,1998-04-28 21:00:00,8,1006.9,-0.2,87,6,500,11.112,,,130,,,,,,,,,,,wg-a,,,,AAXX 28214 07255 12600 31306 10080 20060 39869 40069 58002 60006 82501 92100=
07255,1998-04-29 00:00:00,6,1005.2,-1.8,93,5,25000,14.816,,,140,,,,,,,,,,,wg-a,,,,AAXX 29004 07255 12/75 51408 10060 20050 39851 40052 58018 60006 82034 90000=
07255,1998-04-29 03:00:00,6,1003.1,-2.1,93,5,20000,14.816,,,130,,,,0,,,,,,,wg-a,,,,AAXX 29034 07255 12/70 61308 10060 20050 39830 40031 56021 60007 83035 90300=
07255,1998-04-29 06:00:00,7,1001.7,-1.2,93,6,20000,18.52,,,120,5.3,12,,,,,,,,,wg-a,,,,AAXX 29064 07255 02770 71210 10070 20060 39818 40017 56012 60006 83576 90600 333 10120 20053 60004=
07255,1998-04-29 09:00:00,10,1001.8,0.2,87,8,20000,14.816,,,140,,,,0,,,,,,61,wg-a,,,,AAXX 29094 07255 12670 81408 10100 20080 39820 40018 53002 60007 76162 8552/ 90900=
07255,1998-04-29 12:00:00,12,1001,-0.6,88,10,18000,25.928,,,120,,,,0,,,,,,21,wg-a,,,,AAXX 29124 07255 02668 71214 10120 20100 39814 40010 58006 60016 72162 8457/ 91200 333 60007=
07255,1998-04-29 18:00:00,12,1001.2,0.7,94,11,12000,0,,,0,7.3,15.6,,,,,,,,61,wg-a,,,,AAXX 29184 07255 02462 70000 10120 20110 39816 40012 50007 61000 76186 879// 91800 333 10156 20073 6006=
07255,1998-04-29 21:00:00,11,1001.3,0.1,94,10,12000,7.408,,,350,,,,3,,,,,,21,wg-a,,,,AAXX 29214 07255 12562 83504 10110 20100 39817 40013 50001 60037 72162 8557/ 92100=
07255,1998-04-30 00:00:00,11,1001.8,0.4,94,10,10000,3.704,,,320,,,,0,,,,,,61,wg-a,,,,AAXX 30004 07255 02660 83202 10110 20100 39821 40018 53004 60036 76162 875// 90000 333 60007=
07255,1998-04-30 03:00:00,10,1002,0.2,93,9,20000,14.816,,,130,,,,1,,,,,,60,wg-a,,,,AAXX 30034 07255 12470 71308 10100 20090 39823 40020 51002 60017 76062 877// 90300=
07255,1998-04-30 06:00:00,10,1003,0.9,93,9,20000,18.52,,,130,8.7,12,,,,,11,,,3,wg-a,,,,AAXX 30064 07255 02470 71310 10100 20090 39832 40030 53009 60006 70362 82832 90600 333 10120 20087 60114=
07255,1998-04-30 09:00:00,11,1004.4,1.5,94,10,35000,7.408,,,160,,,,,,,,,,3,wg-a,,,,AAXX 30094 07255 02381 71604 10110 20100 39847 40044 52015 61000 70362 877// 90900 333 ////=
07255,1998-04-30 12:00:00,14,1005.2,1,72,9,35000,3.704,,,160,,,,,,,,,,3,wg-a,,,,AAXX 30124 07255 02581 81602 10140 20090 39857 40052 51010 61000 70362 871// 91200 333 ////=
07255,1998-04-30 15:00:00,16,1005.2,0.1,63,9,40000,14.816,,,90,,,,,,,,,,,wg-a,,,,AAXX 30154 07255 12582 70908 10160 20090 39858 40052 52001 60006 878// 91500=
07255,1998-04-30 18:00:00,15,1006.1,0.8,82,12,40000,7.408,,,270,9.7,16.2,,,,,,,,15,wg-a,,,,AAXX 30184 07255 02582 82704 10150 20120 39866 40061 51008 60006 71562 85990 91800 333 10162 20097 61000=
07255,1998-04-30 21:00:00,11,1009.3,2.9,94,10,500,14.816,,,180,,,,19,,,,,,81,wg-a,,,,AAXX 30214 07255 12400 81808 10110 20100 39895 40093 52029 60197 78198 879// 92100=
07255,1998-05-01 00:00:00,11,1010.3,0.9,94,10,7000,11.112,,,360,,,,10,,,,,,61,wg-a,,,,AAXX 01004 07255 02257 83606 10110 20100 39904 40103 51009 60296 76198 875// 90000 333 60107=
07255,1998-05-01 03:00:00,10,1010.3,-0,100,10,8000,3.704,,,30,,,,1,,,,,,60,wg-a,,,,AAXX 01034 07255 12258 80302 10100 20100 39904 40103 55000 60017 76062 875// 90300=
07255,1998-05-01 06:00:00,10,1011.6,1.3,100,10,2500,7.408,,,30,10,14.7,,,,,30,,,10,wg-a,,,,AAXX 01064 07255 02225 80304 10100 20100 39917 40116 53013 60006 71062 876// 90600 333 10147 20100 60304=
07255,1998-05-01 09:00:00,10,1012.7,1,93,9,2000,11.112,,,40,,,,0,,,,,,10,wg-a,,,,AAXX 01094 07255 12220 80406 10100 20090 39927 40127 51010 60007 71062 877// 90900=
07255,1998-05-01 12:00:00,10,1012.7,0.1,100,10,1400,7.408,,,360,,,,,,,,,,10,wg-a,,,,AAXX 01124 07255 02214 83604 10100 20100 39928 40127 52001 60006 71065 877// 91200 333 61000=
07255,1998-05-01 15:00:00,10,1012.1,-0.6,100,10,1000,7.408,,,340,,,,1,,,,,,10,wg-a,,,,AAXX 01154 07255 12210 83404 10100 20100 39922 40121 58006 60017 71055 877// 91500=
07255,1998-05-01 18:00:00,11,1011.7,-0.4,94,10,1000,7.408,,,360,9.7,10.5,,,,,,,,10,wg-a,,,,AAXX 01184 07255 02110 83604 10110 20100 39918 40117 56004 61000 71055 877// 91800 333 10105 20097 6001=
07255,1998-05-01 21:00:00,10,1012.5,0.8,93,9,3500,7.408,,,30,,,,0,,,,,,10,wg-a,,,,AAXX 01214 07255 12335 80304 10100 20090 39926 40125 51008 60007 71052 877// 92100=
07255,1998-05-02 00:00:00,9,1012.6,-0,100,9,2000,7.408,,,320,,,,,,,,,,10,wg-a,,,,AAXX 02004 07255 12420 83204 10090 20090 39926 40126 54000 60006 71052 875// 90000=
07255,1998-05-02 03:00:00,9,1012.2,-0.4,100,9,3000,7.408,,,30,,,,,,,,,,10,wg-a,,,,AAXX 02034 07255 12430 80304 10090 20090 39922 40122 56004 60006 71022 875// 90300=
07255,1998-05-02 06:00:00,9,1013.2,1,100,9,3000,7.408,,,330,8.5,10.5,,,,,2,,,10,wg-a,,,,AAXX 02064 07255 02330 83304 10090 20090 39932 40132 53010 60006 71022 885// 90600 333 10105 20085 60024=
07255,1998-05-02 09:00:00,11,1014.1,1,82,8,6000,3.704,,,40,,,,,,,,,,,wg-a,,,,AAXX 02094 07255 12456 /0402 10110 20080 39942 40141 51010 60006 86200 90900=
07255,1998-05-02 12:00:00,13,1013.8,-0.1,72,8,15000,7.408,,,250,,,,,,,,,,,wg-a,,,,AAXX 02124 07255 12565 52504 10130 20080 39941 40138 58001 60006 85800 91200=
07255,1998-05-02 15:00:00,15,1012.9,-0.8,63,8,25000,11.112,,,330,,,,,,,,,,,wg-a,,,,AAXX 02154 07255 12575 73306 10150 20080 39933 40129 58008 60006 878// 91500=
07255,1998-05-02 18:00:00,14,1012.7,-0.3,67,8,25000,11.112,,,330,8.7,15.3,,,,,,,,,wg-a,,,,AAXX 02184 07255 12675 43306 10140 20080 39930 40127 56003 60006 81802 91800 333 10153 20087=
07255,1998-05-02 21:00:00,11,1013.9,1,87,9,15000,7.408,,,10,,,,,,,,,,21,wg-a,,,,AAXX 02214 07255 02565 70104 10110 20090 39940 40139 51010 61000 72161 878// 92100 333 ////=
07255,1998-05-03 03:00:00,10,1012,-1.3,93,9,3500,3.704,,,340,,,,2,,,,,,10,wg-a,,,,AAXX 03034 07255 12135 83402 10100 20090 39920 40120 58013 60027 71062 877// 90300=
07255,1998-05-03 06:00:00,8,1011.7,-0.3,100,8,500,14.816,,,20,8.3,13.6,,,,,,,,51,wg-a,,,,AAXX 03064 07255 02200 80208 10080 20080 39917 40117 55003 61000 75165 887// 90600 333 10136 20083 6003=
07255,1998-05-03 09:00:00,8,1012.5,0.7,93,7,8000,14.816,,,40,,,,,,,,,,50,wg-a,,,,AAXX 03094 07255 02258 80408 10080 20070 39924 40125 51007 61000 75055 885// 90900 333 ////=
07255,1998-05-03 12:00:00,9,1012.5,0,87,7,9000,18.52,,,40,,,,0,,,,,,21,wg-a,,,,AAXX 03124 07255 02259 80410 10090 20070 39924 40125 50000 60016 72165 877// 91200 333 60007=
07255,1998-05-03 15:00:00,9,1012.2,-0.2,93,8,9000,18.52,,,30,,,,,,,,,,1,wg-a,,,,AAXX 03154 07255 02359 80310 10090 20080 39922 40122 58002 61000 70152 877// 91500 333 ////=
07255,1998-05-03 18:00:00,10,1012.1,-0,87,8,10000,18.52,,,20,7.9,10,,,,,,,,1,wg-a,,,,AAXX 03184 07255 12360 70210 10100 20080 39922 40121 55000 60006 70152 875// 91800 333 10100 20079=
07255,1998-05-03 21:00:00,10,1013.2,1,82,7,9000,14.816,,,20,,,,,,,,,,,wg-a,,,,AAXX 03214 07255 12459 80208 10100 20070 39932 40132 53010 60006 875// 92100=
07255,1998-05-04 00:00:00,9,1013.1,-0.1,87,7,10000,18.52,,,10,,,,,,,,,,,wg-a,,,,AAXX 04004 07255 12560 80110 10090 20070 39931 40131 58001 60006 875// 90000=
07255,1998-05-04 03:00:00,9,1012.7,-0.5,76,5,12000,22.224,,,30,,,,,,,,,,,wg-a,,,,AAXX 04034 07255 12562 80312 10090 20050 39926 40127 56005 60006 875// 90300=
07255,1998-05-04 06:00:00,8,1013.4,0.7,87,6,4000,18.52,,,20,7.9,10.1,,,,,,,,10,wg-a,,,,AAXX 04064 07255 02440 80210 10080 20060 39933 40134 53007 60006 71022 875// 90600 333 10101 20079 60004=
07255,1998-05-04 09:00:00,8,1014.6,1.1,81,5,8000,22.224,,,30,,,,,,,,,,,wg-a,,,,AAXX 04094 07255 12458 80312 10080 20050 39944 40146 53011 60006 885// 90900=
07255,1998-05-04 12:00:00,8,1015.2,0.6,76,4,10000,18.52,,,30,,,,,,,,,,,wg-a,,,,AAXX 04124 07255 12460 80310 10080 20040 39950 40152 51006 60006 885// 91200=
07255,1998-05-04 15:00:00,13,1013.5,-1.3,54,4,20000,18.52,,,40,,,,,,,,,,,wg-a,,,,AAXX 04154 07255 12670 /0410 10130 20040 39937 40135 56013 60006 81100 91500=
07255,1998-05-04 18:00:00,13,1013.8,0.3,54,4,18000,14.816,,,30,7.2,14.1,,,,,,,,,wg-a,,,,AAXX 04184 07255 12668 10308 10130 20040 39940 40138 53003 60006 81401 91800 333 10141 20072=
07255,1998-05-04 21:00:00,9,1015.7,1.6,71,4,10000,7.408,,,40,,,,,,,,,,,wg-a,,,,AAXX 04214 07255 12/60 20404 10090 20040 39956 40157 51016 60006 80001 92100=
07255,1998-05-05 00:00:00,6,1016.3,0.4,87,4,12000,7.408,,,350,,,,,,,,,,,wg-a,,,,AAXX 05004 07255 12/62 53504 10060 20040 39960 40163 50004 60006 80001 90000=
07255,1998-05-05 03:00:00,4,1016.1,-0.3,93,3,12000,7.408,,,330,,,,,,,,,,,wg-a,,,,AAXX 05034 07255 12/62 43304 10040 20030 39957 40161 55003 60006 80001 90300=
07255,1998-05-05 06:00:00,4,1016.6,0.4,100,4,3000,7.408,,,320,3.4,12.9,,,,,,,,10,wg-a,,,,AAXX 05064 07255 02/30 33204 10040 20040 39961 40166 53004 60006 71011 80001 90600 333 10129 20034 60004=
07255,1998-05-05 09:00:00,10,1016.6,0.4,76,6,12000,11.112,,,320,,,,,,,,,,,wg-a,,,,AAXX 05094 07255 12462 83206 10100 20060 39965 40166 51004 60006 888// 90900=
07255,1998-05-05 12:00:00,13,1016,-0.3,58,5,28000,11.112,,,310,,,,,,,,,,,wg-a,,,,AAXX 05124 07255 12578 73106 10130 20050 39962 40160 58003 60006 878// 91200=
07255,1998-05-05 15:00:00,14,1014.8,-1.1,63,7,22000,22.224,,,320,,,,,,,,,,,wg-a,,,,AAXX 05154 07255 12672 83212 10140 20070 39951 40148 57011 60006 888// 91500=
07255,1998-05-05 18:00:00,14,1014.5,-0.3,67,8,20000,7.408,,,280,4.3,15.4,,,,,,,,,wg-a,,,,AAXX 05184 07255 12670 /2804 10140 20080 39948 40145 56003 60006 85800 91800 333 10154 20043=
07255,1998-05-05 21:00:00,11,1015,0.2,82,8,15000,11.112,,,260,,,,,,,,,,,wg-a,,,,AAXX 05214 07255 12765 32606 10110 20080 39950 40150 53002 60006 83500 92100=
07255,1998-05-06 00:00:00,10,1014.8,-0.2,87,8,12000,18.52,,,270,,,,,,,,,,,wg-a,,,,AAXX 06004 07255 12662 72710 10100 20080 39948 40148 57002 60006 875// 90000=
07255,1998-05-06 03:00:00,9,1014.6,-0.3,87,7,12000,22.224,,,260,,,,,,,,,,,wg-a,,,,AAXX 06034 07255 12662 72612 10090 20070 39945 40146 55003 60006 875// 90300=
07255,1998-05-06 06:00:00,9,1015.6,1,87,7,9000,18.52,,,260,8.6,13.7,,,,,,,,,wg-a,,,,AAXX 06064 07255 02359 82610 10090 20070 39955 40156 53010 60006 875// 90600 333 10137 20086 60004=
07255,1998-05-06 09:00:00,11,1016.3,0.8,82,8,15000,22.224,,,250,,,,,,,,,,1,wg-a,,,,AAXX 06094 07255 02465 82512 10110 20080 39963 40163 51008 61000 70162 885// 90900 333 ////=
07255,1998-05-06 12:00:00,12,1016.7,0.5,71,7,22000,25.928,,,270,,,,,,,,,,1,wg-a,,,,AAXX 06124 07255 02572 82714 10120 20070 39968 40167 51005 61000 70162 888// 91200 333 ////=
07255,1998-05-06 15:00:00,14,1016.2,-0.3,67,8,25000,22.224,,,260,,,,,,,,,,,wg-a,,,,AAXX 06154 07255 12575 72612 10140 20080 39965 40162 58003 60006 878// 91500=
07255,1998-05-06 18:00:00,14,1016.7,0.4,72,9,22000,18.52,,,260,8.8,15,,,,,,,,,wg-a,,,,AAXX 06184 07255 12672 72610 10140 20090 39969 40167 53004 60006 878// 91800 333 10150 20088=
07255,1998-05-07 00:00:00,8,1019.1,0.5,93,7,10000,7.408,,,240,,,,,,,,,,,wg-a,,,,AAXX 07004 07255 12760 12404 10080 20070 39989 40191 51005 60006 81500 90000=
07255,1998-05-07 03:00:00,9,1019,-0.1,93,8,10000,11.112,,,240,,,,,,,,,,,wg-a,,,,AAXX 07034 07255 12760 32406 10090 20080 39988 40190 58001 60006 83500 90300=
07255,1998-05-07 06:00:00,8,1020.1,1,93,7,7000,7.408,,,210,6.1,13.7,,,,,,,,,wg-a,,,,AAXX 07064 07255 02657 /2104 10080 20070 39998 40201 53010 60006 85500 90600 333 10137 20061 60004=
07255,1998-05-07 09:00:00,13,1020.4,0.7,67,7,20000,11.112,,,240,,,,,,,,,,,wg-a,,,,AAXX 07094 07255 12570 /2406 10130 20070 30005 40204 51007 60006 86500 90900=
07255,1998-05-07 12:00:00,17,1019.6,-0.5,52,7,23000,7.408,,,220,,,,,,,,,,,wg-a,,,,AAXX 07124 07255 12673 /2204 10170 20070 30000 40196 58005 60006 81100 91200=
07255,1998-05-07 15:00:00,20,1018.7,-0.7,46,8,500,7.408,,,230,,,,,,,,,,,wg-a,,,,AAXX 07154 07255 12700 12304 10200 20080 39993 40187 58007 60006 81100 91500=
07255,1998-05-07 18:00:00,20,1018.5,-0.2,46,8,500,3.704,,,90,7.8,20.8,,,,,,,,,wg-a,,,,AAXX 07184 07255 12/00 00902 10200 20080 39991 40185 56002 60006 80000 91800 333 10208 20078=
07255,1998-05-07 21:00:00,13,1020.4,1.4,72,8,25000,11.112,,,110,,,,,,,,,,,wg-a,,,,AAXX 07214 07255 12/75 01106 10130 20080 30005 40204 53014 60006 80000 92100=
07255,1998-05-08 00:00:00,10,1020.5,-0.1,82,7,22000,11.112,,,110,,,,,,,,,,,wg-a,,,,AAXX 08004 07255 12/72 01106 10100 20070 30004 40205 58001 60006 80000 90000=
07255,1998-05-08 03:00:00,9,1020.5,-0.1,87,7,20000,11.112,,,100,,,,,,,,,,,wg-a,,,,AAXX 08034 07255 12/70 21006 10090 20070 30003 40205 56001 60006 80001 90300=
07255,1998-05-08 06:00:00,11,1021.1,0.7,82,8,25000,14.816,,,110,7.5,19.8,,,,,,,,,wg-a,,,,AAXX 08064 07255 02/75 71108 10110 20080 30010 40211 53007 60006 80002 90600 333 10198 20075 60004=
07255,1998-05-08 09:00:00,18,1021,0.4,64,11,25000,14.816,,,120,,,,,,,,,,,wg-a,,,,AAXX 08094 07255 12/75 61208 10180 20110 30014 40210 51004 60006 80002 90900=
07255,1998-05-08 12:00:00,24,1019.2,-1.3,44,11,500,22.224,,,130,,,,,,,,,,,wg-a,,,,AAXX 08124 07255 12/00 31312 10240 20110 30001 40192 58013 60006 80002 91200=
07255,1998-05-08 15:00:00,26,1018.1,-1,34,9,500,18.52,,,130,,,,,,,,,,,wg-a,,,,AAXX 08154 07255 12/00 71310 10260 20090 39991 40181 57010 60006 80001 91500=
07255,1998-05-08 18:00:00,22,1018.3,-0,50,11,25000,14.816,,,200,10.5,26,,,,,,,,,wg-a,,,,AAXX 08184 07255 12/75 72008 10220 20110 39991 40183 55000 60006 81032 91800 333 10260 20105=
07255,1998-05-08 21:00:00,16,1020.7,1.9,63,9,20000,14.816,,,170,,,,,,,,,,,wg-a,,,,AAXX 08214 07255 12/70 61708 10160 20090 30010 40207 51019 60006 80002 92100=
07255,1998-05-09 00:00:00,13,1021.4,0.5,72,8,20000,11.112,,,150,,,,,,,,,,,wg-a,,,,AAXX 09004 07255 12/70 51506 10130 20080 30015 40214 51005 60006 80002 90000=
07255,1998-05-09 03:00:00,10,1021.5,-0.1,82,7,18000,14.816,,,120,,,,,,,,,,,wg-a,,,,AAXX 09034 07255 12/68 51208 10100 20070 30014 40215 55001 60006 80002 90300=
07255,1998-05-09 06:00:00,11,1022.6,1.1,76,7,20000,7.408,,,90,9.2,21.8,,,,,,,,,wg-a,,,,AAXX 09064 07255 02/70 50904 10110 20070 30025 40226 53011 60006 83031 90600 333 10218 20092 60004=
07255,1998-05-09 09:00:00,20,1022.4,0.4,53,10,40000,11.112,,,140,,,,,,,,,,,wg-a,,,,AAXX 09094 07255 12/82 11406 10200 20100 30029 40224 51004 60006 81030 90900=
07255,1998-05-09 12:00:00,25,1021.3,-0.7,36,9,40000,7.408,,,100,,,,,,,,,,,wg-a,,,,AAXX 09124 07255 12/82 11004 10250 20090 30022 40213 58007 60006 81030 91200=
07255,1998-05-09 15:00:00,26,1020,-1.2,34,9,35000,14.816,,,140,,,,,,,,,,,wg-a,,,,AAXX 09154 07255 12/81 61408 10260 20090 30010 40200 58012 60006 86030 91500=
07255,1998-05-09 18:00:00,23,1018.7,-1.5,50,12,35000,11.112,,,130,10.8,26.6,,,,,,,,,wg-a,,,,AAXX 09184 07255 12/81 51306 10230 20120 39995 40187 56015 60006 83031 91800 333 10266 20108=
07255,1998-05-10 00:00:00,16,1018.9,-0.6,72,11,500,11.112,,,100,,,,,,,,,,,wg-a,,,,AAXX 10004 07255 12/00 21006 10160 20110 39992 40189 57006 60006 82030 90000=
07255,1998-05-10 03:00:00,13,1018.7,-0.4,82,10,500,11.112,,,110,,,,,,,,,,,wg-a,,,,AAXX 10034 07255 12/00 01106 10130 20100 39988 40187 55004 60006 80000 90300=
07255,1998-05-10 06:00:00,13,1018.6,-0,82,10,20000,11.112,,,90,11.2,22.9,,,,,,,,,wg-a,,,,AAXX 10064 07255 02/70 10906 10130 20100 39988 40186 54000 60006 80001 90600 333 10229 20112 60004=
07255,1998-05-10 09:00:00,21,1016.9,-1.2,53,11,23000,11.112,,,100,,,,,,,,,,,wg-a,,,,AAXX 10094 07255 12/73 11006 10210 20110 39976 40169 58012 60006 80001 90900=
07255,1998-05-10 12:00:00,25,1015.7,-0.9,44,12,25000,11.112,,,120,,,,,,,,,,,wg-a,,,,AAXX 10124 07255 12/75 31206 10250 20120 39967 40157 56009 60006 80001 91200=
07255,1998-05-10 15:00:00,27,1013.7,-1.8,37,11,500,14.816,,,130,,,,,,,,,,,wg-a,,,,AAXX 10154 07255 12/00 51308 10270 20110 39949 40137 58018 60006 80002 91500=
07255,1998-05-10 18:00:00,25,1012.7,-1.1,47,13,500,7.408,,,120,13.4,27.5,,,,,,,,,wg-a,,,,AAXX 10184 07255 12/00 21204 10250 20130 39938 40127 56011 60006 80001 91800 333 10275 20134=
07255,1998-05-10 21:00:00,21,1012.9,-0.1,56,12,500,14.816,,,90,,,,,,,,,,,wg-a,,,,AAXX 10214 07255 12/00 30908 10210 20120 39937 40129 58001 60006 80001 92100=
07255,1998-05-11 00:00:00,16,1012.9,-0.3,77,12,25000,11.112,,,100,,,,,,,,,,,wg-a,,,,AAXX 11004 07255 12/75 01006 10160 20120 39934 40129 57003 60006 80000 90000=
07255,1998-05-11 03:00:00,13,1013.1,-0,88,11,25000,11.112,,,100,,,,,,,,,,,wg-a,,,,AAXX 11034 07255 12/75 31006 10130 20110 39934 40131 55000 60006 80001 90300=
07255,1998-05-11 06:00:00,14,1014.1,1,82,11,40000,11.112,,,110,12.2,24.8,,,,,,,,,wg-a,,,,AAXX 11064 07255 02582 /1106 10140 20110 39944 40141 53010 60006 81100 90600 333 10248 20122 60004=
07255,1998-05-11 09:00:00,22,1014,0.5,57,13,28000,7.408,,,120,,,,,,,,,,,wg-a,,,,AAXX 11094 07255 12/78 21204 10220 20130 39949 40140 53005 60006 80001 90900=
07255,1998-05-11 12:00:00,26,1013.1,-0.7,42,12,500,11.112,,,220,,,,,,,,,,,wg-a,,,,AAXX 11124 07255 12/00 42206 10260 20120 39942 40131 58007 60006 80002 91200=
07255,1998-05-11 15:00:00,28,1012.4,-0.6,35,11,500,11.112,,,140,,,,,,,,,,,wg-a,,,,AAXX 11154 07255 12/00 71406 10280 20110 39936 40124 58006 60006 81082 91500=
07255,1998-05-11 18:00:00,26,1012.1,-0.4,48,14,500,11.112,,,120,14.4,28.3,,,,,,,,,wg-a,,,,AAXX 11184 07255 12/00 51206 10260 20140 39932 40121 56004 60006 80001 91800 333 10283 20144=
07255,1998-05-11 21:00:00,21,1013,0.6,60,13,20000,14.816,,,90,,,,,,,,,,,wg-a,,,,AAXX 11214 07255 12/70 60908 10210 20130 39938 40130 53006 60006 81032 92100=
07255,1998-05-12 00:00:00,15,1014.6,1.2,88,13,15000,11.112,,,190,,,,,,,,,,,wg-a,,,,AAXX 12004 07255 12/65 41906 10150 20130 39950 40146 51012 60006 81031 90000=
07255,1998-05-12 06:00:00,14,1016.7,1.2,88,12,18000,7.408,,,170,12,25.7,,,,,,,,,wg-a,,,,AAXX 12064 07255 02/68 61704 10140 20120 39970 40167 53012 60006 81082 90600 333 10257 20120 60004=
07255,1998-05-12 09:00:00,20,1017,0.7,60,12,25000,7.408,,,140,,,,,,,,,,,wg-a,,,,AAXX 12094 07255 12/75 51404 10200 20120 39977 40170 51007 60006 81032 90900=
07255,1998-05-12 12:00:00,25,1016.5,-0.2,36,9,500,11.112,,,140,,,,,,,,,,,wg-a,,,,AAXX 12124 07255 12/00 61406 10250 20090 39975 40165 57002 60006 81032 91200=
07255,1998-05-12 15:00:00,27,1016,-0.4,32,9,35000,11.112,,,120,,,,,,,,,,,wg-a,,,,AAXX 12154 07255 12/81 71206 10270 20090 39971 40160 57004 60006 83082 91500=
07255,1998-05-12 18:00:00,26,1015.6,-0.5,37,10,40000,7.408,,,90,13.9,26.7,,,,,,,,,wg-a,,,,AAXX 12184 07255 12/82 70904 10260 20100 39966 40156 56005 60006 82082 91800 333 10267 20139=
07255,1998-05-12 21:00:00,22,1017,1.2,53,12,500,7.408,,,70,,,,,,,,,,,wg-a,,,,AAXX 12214 07255 12/00 70704 10220 20120 39978 40170 53012 60006 83082 92100=
07255,1998-05-13 00:00:00,19,1017.3,0.1,68,13,25000,14.816,,,110,,,,,,,,,,,wg-a,,,,AAXX 13004 07255 12/75 71108 10190 20130 39979 40173 50001 60006 82032 90000=
07255,1998-05-13 03:00:00,14,1017.9,0.2,88,12,20000,11.112,,,180,,,,,,,,,,,wg-a,,,,AAXX 13034 07255 12/70 51806 10140 20120 39981 40179 51002 60006 82031 90300=
07255,1998-05-13 06:00:00,15,1018.8,1,82,12,15000,7.408,,,130,12.6,25.5,,,,,,,,,wg-a,,,,AAXX 13064 07255 02/65 41304 10150 20120 39991 40188 53010 60006 81081 90600 333 10255 20126 60004=
07255,1998-05-13 09:00:00,22,1018.7,0.4,57,13,18000,3.704,,,290,,,,,,,,,,,wg-a,,,,AAXX 13094 07255 12/68 42902 10220 20130 39995 40187 51004 60006 81031 90900=
07255,1998-05-13 12:00:00,27,1018.1,-0.3,39,12,20000,3.704,,,160,,,,,,,,,,,wg-a,,,,AAXX 13124 07255 12/70 71602 10270 20120 39992 40181 57003 60006 82032 91200=
07255,1998-05-13 15:00:00,26,1017.1,-1.1,42,12,20000,7.408,,,140,,,,,,,,,,,wg-a,,,,AAXX 13154 07255 12/70 81404 10260 20120 39981 40171 57011 60006 85032 91500=
07255,1998-05-13 18:00:00,26,1017.1,-0,37,10,25000,7.408,,,120,15.1,27,,,,,,,,,wg-a,,,,AAXX 13184 07255 12/75 71204 10260 20100 39981 40171 55000 60006 85032 91800 333 10270 20151=
07255,1998-05-13 21:00:00,20,1018.1,0.7,73,15,25000,7.408,,,180,,,,,,,,,,,wg-a,,,,AAXX 13214 07255 12775 71804 10200 20150 39988 40181 53007 60006 81932 92100=
07255,1998-05-14 00:00:00,19,1018,-0.2,73,14,22000,3.704,,,110,,,,,,,,,,,wg-a,,,,AAXX 14004 07255 12/72 71102 10190 20140 39986 40180 56002 60006 85032 90000=
07255,1998-05-14 03:00:00,17,1017.5,-0.7,82,14,20000,3.704,,,160,,,,,,,,,,,wg-a,,,,AAXX 14034 07255 12770 71602 10170 20140 39979 40175 56007 60006 83532 90300=
07255,1998-05-14 06:00:00,16,1017.6,0.1,88,14,18000,3.704,,,170,15.5,25.7,,,,,,,,,wg-a,,,,AAXX 14064 07255 02/68 71702 10160 20140 39980 40176 53001 60006 85082 90600 333 10257 20155 60004=
07255,1998-05-14 09:00:00,23,1017.1,0,65,16,20000,3.704,,,350,,,,,,,,,,,wg-a,,,,AAXX 14094 07255 12/70 63502 10230 20160 39980 40171 50000 60006 81031 90900=
07255,1998-05-14 12:00:00,27,1015.9,-0.9,48,15,20000,14.816,,,30,,,,,,,,,,,wg-a,,,,AAXX 14124 07255 12670 30308 10270 20150 39971 40159 58009 60006 81101 91200=
07255,1998-05-14 15:00:00,27,1014.8,-1.1,54,17,15000,18.52,,,40,,,,,,,,,,,wg-a,,,,AAXX 14154 07255 12665 /0410 10270 20170 39960 40148 56011 60006 81100 91500=
07255,1998-05-14 18:00:00,26,1014.3,-0.5,58,17,8000,18.52,,,50,16.4,27.8,,,,,,,,,wg-a,,,,AAXX 14184 07255 12658 50510 10260 20170 39955 40143 55005 60006 82980 91800 333 10278 20164=
07255,1998-05-14 21:00:00,18,1016.8,1.8,68,12,20000,7.408,,,170,,,,,,,,,,,wg-a,,,,AAXX 14214 07255 12670 21704 10180 20120 39973 40168 51018 60006 81903 92100=
07255,1998-05-15 00:00:00,16,1016.7,-0.2,82,13,20000,3.704,,,90,,,,,,,,,,,wg-a,,,,AAXX 15004 07255 12/70 30902 10160 20130 39971 40167 56002 60006 81031 90000=
07255,1998-05-15 03:00:00,15,1016.3,-0.5,82,12,20000,3.704,,,70,,,,,,,,,,,wg-a,,,,AAXX 15034 07255 12/70 70702 10150 20120 39966 40163 58005 60006 81031 90300=
07255,1998-05-15 06:00:00,18,1015.5,-0.5,64,11,20000,7.408,,,40,14.8,26.3,,,,,,,,,wg-a,,,,AAXX 15064 07255 02/70 10404 10180 20110 39961 40155 56005 60006 80002 90600 333 10263 20148 60004=
07255,1998-05-15 09:00:00,23,1015.7,0.5,57,14,20000,7.408,,,90,,,,,,,,,,,wg-a,,,,AAXX 15094 07255 12/70 00904 10230 20140 39966 40157 51005 60006 80000 90900=
07255,1998-05-15 12:00:00,25,1014.9,-0.7,39,10,25000,14.816,,,100,,,,,,,,,,,wg-a,,,,AAXX 15124 07255 12675 /1008 10250 20100 39959 40149 56007 60006 81100 91200=
07255,1998-05-15 15:00:00,26,1013.7,-1.1,26,5,500,22.224,,,50,,,,,,,,,,,wg-a,,,,AAXX 15154 07255 12600 /0512 10260 20050 39948 40137 56011 60006 81100 91500=
07255,1998-05-15 18:00:00,23,1014,0.1,38,8,35000,14.816,,,40,18.5,26.2,,,,,,,,,wg-a,,,,AAXX 15184 07255 12/81 10408 10230 20080 39949 40140 53001 60006 80002 91800 333 10262 20185=
07255,1998-05-15 21:00:00,18,1015.6,1.2,52,8,20000,11.112,,,20,,,,,,,,,,,wg-a,,,,AAXX 15214 07255 12/70 00206 10180 20080 39961 40156 51012 60006 80000 92100=
07255,1998-05-16 03:00:00,14,1015.1,-0.6,63,7,10000,7.408,,,30,,,,,,,,,,,wg-a,,,,AAXX 16034 07255 12/60 10304 10140 20070 39954 40151 56006 60006 80001 90300=
07255,1998-05-16 06:00:00,13,1016.3,1.1,72,8,20000,3.704,,,300,10.9,23.3,,,,,,,,,wg-a,,,,AAXX 16064 07255 02/70 13002 10130 20080 39965 40163 52011 60006 90600 333 10233 20109 60004=
07255,1998-05-16 09:00:00,20,1016.6,0.8,49,9,40000,14.816,,,90,,,,,,,,,,,wg-a,,,,AAXX 16094 07255 12/82 00908 10200 20090 39973 40166 51008 60006 80000 90900=
07255,1998-05-16 12:00:00,23,1016.5,0,33,6,40000,18.52,,,50,,,,,,,,,,,wg-a,,,,AAXX 16124 07255 12/82 00510 10230 20060 39973 40165 50000 60006 80000 91200=
07255,1998-05-16 15:00:00,23,1016.1,-0.3,36,7,35000,18.52,,38.892,40,,,,,,,,,,,wg-a,,,,AAXX 16154 07255 12/81 00410 10230 20070 39970 40161 58003 60006 80000 91500 333 91021=
07255,1998-05-16 18:00:00,21,1016.7,0.4,40,7,35000,18.52,,,40,13,23.4,,,,,,,,,wg-a,,,,AAXX 16184 07255 12/81 20410 10210 20070 39974 40167 53004 60006 80001 91800 333 10234 20130=
07255,1998-05-16 21:00:00,17,1018,1,55,8,500,7.408,,,40,,,,,,,,,,,wg-a,,,,AAXX 16214 07255 12/00 20404 10170 20080 39984 40180 51010 60006 80001 92100=
07255,1998-05-17 00:00:00,14,1017.9,-0.3,67,8,28000,7.408,,,40,,,,,,,,,,,wg-a,,,,AAXX 17004 07255 12/78 00404 10140 20080 39981 40179 58003 60006 80000 90000=
07255,1998-05-17 03:00:00,12,1018.2,0.2,71,7,25000,11.112,,,40,,,,,,,,,,,wg-a,,,,AAXX 17034 07255 12/75 00406 10120 20070 39983 40182 51002 60006 80000 90300=
07255,1998-05-17 06:00:00,14,1018.9,0.8,58,6,25000,14.816,,,60,11.2,21.1,,,,,,,,,wg-a,,,,AAXX 17064 07255 02/75 00608 10140 20060 39991 40189 53008 60006 80000 90600 333 10211 20112 60004=
07255,1998-05-17 09:00:00,19,1019.4,0.9,49,8,28000,14.816,,,80,,,,,,,,,,,wg-a,,,,AAXX 17094 07255 12/78 00808 10190 20080 30000 40194 51009 60006 80000 90900=
07255,1998-05-17 12:00:00,22,1019.3,0,35,6,28000,18.52,,,80,,,,,,,,,,,wg-a,,,,AAXX 17124 07255 12/78 00810 10220 20060 30000 40193 50000 60006 80000 91200=
07255,1998-05-17 15:00:00,23,1018.7,-0.5,33,6,500,22.224,,,40,,,,,,,,,,,wg-a,,,,AAXX 17154 07255 12800 10412 10230 20060 39995 40187 58005 60006 81100 91500=
07255,1998-05-17 18:00:00,22,1019.3,0.5,41,8,500,18.52,,,60,13.5,23.4,,,,,,,,,wg-a,,,,AAXX 17184 07255 12700 10610 10220 20080 30000 40193 53005 60006 81100 91800 333 10234 20135=
07255,1998-05-17 21:00:00,18,1021.1,1.5,52,8,500,18.52,,,60,,,,,,,,,,,wg-a,,,,AAXX 17214 07255 12/00 00610 10180 20080 30015 40211 53015 60006 80000 92100=
07255,1998-05-18 00:00:00,15,1022,0.7,59,7,28000,11.112,,,80,,,,,,,,,,,wg-a,,,,AAXX 18004 07255 12/78 00806 10150 20070 30022 40220 51007 60006 80000 90000=
07255,1998-05-18 03:00:00,13,1022.3,0.2,67,7,25000,11.112,,,70,,,,,,,,,,,wg-a,,,,AAXX 18034 07255 12/75 00706 10130 20070 30024 40223 53002 60006 80000 90300=
07255,1998-05-18 06:00:00,14,1023.7,1.4,63,7,35000,14.816,,,80,11.3,22.1,,,,,,,,,wg-a,,,,AAXX 18064 07255 02/81 10808 10140 20070 30038 40237 53014 60006 80001 90600 333 10221 20113 60004=
07255,1998-05-18 09:00:00,19,1023.8,0.4,37,4,500,22.224,,,70,,,,,,,,,,,wg-a,,,,AAXX 18094 07255 12/00 10712 10190 20040 30042 40238 50004 60006 80001 90900=
07255,1998-05-18 12:00:00,22,1023,-0.6,33,5,500,22.224,,,80,,,,,,,,,,,wg-a,,,,AAXX 18124 07255 12/00 10812 10220 20050 30036 40230 58006 60006 80001 91200=
07255,1998-05-18 15:00:00,23,1022.3,-0.6,31,5,500,22.224,,,70,,,,,,,,,,,wg-a,,,,AAXX 18154 07255 12800 10712 10230 20050 30030 40223 58006 60006 81101 91500=
07255,1998-05-18 18:00:00,22,1022.3,-0.1,33,5,500,18.52,,,90,13.5,23,,,,,,,,,wg-a,,,,AAXX 18184 07255 12/00 30910 10220 20050 30029 40223 56001 60006 80001 91800 333 10230 20135=
07255,1998-05-18 21:00:00,18,1023.4,0.9,49,7,25000,22.224,,,60,,,,,,,,,,,wg-a,,,,AAXX 18214 07255 12/75 00612 10180 20070 30038 40234 53009 60006 80000 92100=
07255,1998-05-19 00:00:00,15,1023.6,0,59,7,25000,14.816,,,70,,,,,,,,,,,wg-a,,,,AAXX 19004 07255 12/75 00708 10150 20070 30038 40236 50000 60006 80000 90000=
07255,1998-05-19 03:00:00,14,1023.6,-0.1,58,6,25000,14.816,,,80,,,,,,,,,,,wg-a,,,,AAXX 19034 07255 12/75 00808 10140 20060 30037 40236 55001 60006 80000 90300=
07255,1998-05-19 06:00:00,14,1024.2,0.6,58,6,22000,11.112,,,90,12.4,21.8,,,,,,,,,wg-a,,,,AAXX 19064 07255 02/72 00906 10140 20060 30043 40242 51006 60006 80000 90600 333 10218 20124 60004=
07255,1998-05-19 09:00:00,21,1023.7,-0.1,38,6,35000,25.928,,,90,,,,,,,,,,,wg-a,,,,AAXX 19094 07255 12/81 00914 10210 20060 30042 40237 58001 60006 80000 90900=
07255,1998-05-19 12:00:00,23,1022.4,-1.1,31,5,35000,29.632,,,70,,,,,,,,,,,wg-a,,,,AAXX 19124 07255 12781 10716 10230 20050 30031 40224 58011 60006 81100 91200=
07255,1998-05-19 15:00:00,24,1020.9,-1.4,27,4,35000,22.224,,,90,,,,,,,,,,,wg-a,,,,AAXX 19154 07255 12781 10912 10240 20040 30017 40209 56014 60006 81100 91500=
07255,1998-05-19 18:00:00,23,1020.2,-0.7,31,5,35000,22.224,,,80,14.4,24.3,,,,,,,,,wg-a,,,,AAXX 19184 07255 12781 20812 10230 20050 30010 40202 56007 60006 81401 91800 333 10243 20144=
07255,1998-05-19 21:00:00,18,1021.1,0.5,49,7,500,11.112,,,40,,,,,,,,,,,wg-a,,,,AAXX 19214 07255 12/00 10406 10180 20070 30015 40211 53005 60006 80001 92100=
07255,1998-05-20 00:00:00,16,1020.9,-0.3,55,7,500,11.112,,,60,,,,,,,,,,,wg-a,,,,AAXX 20004 07255 12/00 00606 10160 20070 30012 40209 58003 60006 80000 90000=
07255,1998-05-20 03:00:00,14,1020,-1,63,7,500,14.816,,,60,,,,,,,,,,,wg-a,,,,AAXX 20034 07255 12/00 10608 10140 20070 30002 40200 57010 60006 80001 90300=
07255,1998-05-20 06:00:00,16,1020.3,0.4,59,8,25000,7.408,,,70,12.9,23,,,,,,,,,wg-a,,,,AAXX 20064 07255 02/75 10704 10160 20080 30006 40203 52004 60006 80001 90600 333 10230 20129 60004=
07255,1998-05-20 09:00:00,22,1019.8,-0.1,41,8,23000,11.112,,,90,,,,,,,,,,,wg-a,,,,AAXX 20094 07255 12/73 00906 10220 20080 30005 40198 58001 60006 80000 90900=
07255,1998-05-20 12:00:00,25,1018.8,-0.8,28,5,25000,14.816,,,100,,,,,,,,,,,wg-a,,,,AAXX 20124 07255 12875 11008 10250 20050 39997 40188 56008 60006 81100 91200=
07255,1998-05-20 15:00:00,25,1018.2,-0.6,34,8,25000,14.816,,,50,,,,,,,,,,,wg-a,,,,AAXX 20154 07255 12875 20508 10250 20080 39991 40182 56006 60006 82100 91500=
07255,1998-05-20 18:00:00,23,1017.7,-0.6,41,9,20000,14.816,,,40,15.7,25.2,,,,,,,,,wg-a,,,,AAXX 20184 07255 12770 10408 10230 20090 39985 40177 55006 60006 81101 91800 333 10252 20157=
07255,1998-05-20 21:00:00,19,1018.9,0.9,52,9,18000,14.816,,,50,,,,,,,,,,,wg-a,,,,AAXX 20214 07255 12/68 10508 10190 20090 39994 40189 53009 60006 80001 92100=
07255,1998-05-21 00:00:00,16,1019.3,0.2,63,9,18000,11.112,,,20,,,,,,,,,,,wg-a,,,,AAXX 21004 07255 12/68 10206 10160 20090 39996 40193 51002 60006 80001 90000=
07255,1998-05-21 03:00:00,13,1019,-0.4,82,10,15000,7.408,,,10,,,,,,,,,,,wg-a,,,,AAXX 21034 07255 12/65 00104 10130 20100 39992 40190 55004 60006 80000 90300=
07255,1998-05-21 06:00:00,13,1019.8,0.7,82,10,6000,7.408,,,10,9.8,23.2,,,,,,,,,wg-a,,,,AAXX 21064 07255 02/56 00104 10130 20100 39999 40198 51007 60006 80000 90600 333 10232 20098 60004=
07255,1998-05-21 09:00:00,20,1019.6,0.3,60,12,9000,7.408,,,330,,,,,,,,,,,wg-a,,,,AAXX 21094 07255 12559 /3304 10200 20120 30002 40196 52003 60006 81101 90900=
07255,1998-05-21 12:00:00,23,1019,-0.4,44,10,12000,14.816,,,50,,,,,,,,,,,wg-a,,,,AAXX 21124 07255 12662 /0508 10230 20100 39998 40190 58004 60006 81100 91200=
07255,1998-05-21 15:00:00,23,1018.3,-0.7,41,9,18000,11.112,,,350,,,,,,,,,,,wg-a,,,,AAXX 21154 07255 12668 43506 10230 20090 39991 40183 58007 60006 84800 91500=
07255,1998-05-21 18:00:00,20,1018.7,0.2,56,11,18000,14.816,,,10,12.8,24.1,,,,,,,,1,wg-a,,,,AAXX 21184 07255 02668 50108 10200 20110 39993 40187 53002 60006 70186 83830 91800 333 10241 20128 61000=
07255,1998-05-21 21:00:00,16,1020.1,1.2,77,12,10000,7.408,,,350,,,,,,,,,,,wg-a,,,,AAXX 21214 07255 12/60 13504 10160 20120 30005 40201 53012 60006 80001 92100=
07255,1998-05-22 00:00:00,14,1021.2,0.9,82,11,8000,18.52,,,60,,,,,,,,,,,wg-a,,,,AAXX 22004 07255 12/58 10610 10140 20110 30014 40212 51009 60006 90000=
07255,1998-05-22 03:00:00,12,1022.1,0.7,82,9,8000,11.112,,,30,,,,,,,,,,,wg-a,,,,AAXX 22034 07255 12758 20306 10120 20090 30021 40221 53007 60006 82501 90300=
07255,1998-05-22 06:00:00,10,1023.1,0.8,82,7,12000,11.112,,,40,9.5,20.2,,,,,,,,,wg-a,,,,AAXX 22064 07255 02/62 70406 10100 20070 30029 40231 53008 60006 80001 90600 333 10202 20095 61000=
07255,1998-05-22 09:00:00,14,1023.2,0.4,55,5,500,14.816,,,40,,,,,,,,,,,wg-a,,,,AAXX 22094 07255 12500 70408 10140 20050 30033 40232 51004 60006 82101 90900=
07255,1998-05-22 12:00:00,16,1023.1,0,45,4,11000,22.224,,,60,,,,,,,,,,,wg-a,,,,AAXX 22124 07255 12/61 /0612 10160 20040 30033 40231 50000 60006 91200=
07255,1998-05-22 15:00:00,17,1022.3,-0.7,45,5,40000,18.52,,,40,,,,,,,,,,,wg-a,,,,AAXX 22154 07255 12782 20410 10170 20050 30026 40223 56007 60006 82100 91500=
07255,1998-05-22 18:00:00,15,1022.4,-0,48,4,500,22.224,,,40,9.9,17.4,,,,,,,,,wg-a,,,,AAXX 22184 07255 12700 10412 10150 20040 30026 40224 55000 60006 81100 91800 333 10174 20099=
07255,1998-05-22 21:00:00,12,1023.6,0.9,58,4,15000,14.816,,,60,,,,,,,,,,,wg-a,,,,AAXX 22214 07255 12665 20608 10120 20040 30035 40236 51009 60006 82500 92100=
07255,1998-05-23 00:00:00,9,1023.5,-0.3,71,4,12000,7.408,,,40,,,,,,,,,,,wg-a,,,,AAXX 23004 07255 12/62 00404 10090 20040 30032 40235 58003 60006 80000 90000=
07255,1998-05-23 06:00:00,8,1022.6,-0.1,76,4,10000,7.408,,,50,5.9,15.2,,,,,,,,,wg-a,,,,AAXX 23064 07255 02/60 00504 10080 20040 30023 40226 55001 60006 80000 90600 333 10152 20059 60004=
07255,1998-05-23 09:00:00,14,1021.7,-0.5,55,5,18000,14.816,,,50,,,,,,,,,,,wg-a,,,,AAXX 23094 07255 12668 /0508 10140 20050 30018 40217 58005 60006 85200 90900=
07255,1998-05-23 12:00:00,16,1020.5,-1,45,4,20000,18.52,,,40,,,,,,,,,,,wg-a,,,,AAXX 23124 07255 12670 20410 10160 20040 30008 40205 58010 60006 82200 91200=
07255,1998-05-23 15:00:00,17,1019.1,-1.3,42,4,25000,14.816,,,60,,,,,,,,,,,wg-a,,,,AAXX 23154 07255 12775 10608 10170 20040 39995 40191 56013 60006 81100 91500=
07255,1998-05-23 18:00:00,16,1018.2,-0.9,45,4,25000,14.816,,,30,8.4,17.5,,,,,,,,,wg-a,,,,AAXX 23184 07255 12775 10308 10160 20040 39986 40182 56009 60006 81400 91800 333 10175 20084=
07255,1998-05-23 21:00:00,13,1018.8,0.3,58,5,25000,7.408,,,40,,,,,,,,,,,wg-a,,,,AAXX 23214 07255 12675 /0404 10130 20050 39989 40188 53003 60006 86500 92100=
07255,1998-05-24 00:00:00,12,1018,-0.8,62,5,25000,11.112,,,90,,,,,,,,,,,wg-a,,,,AAXX 24004 07255 12/75 00906 10120 20050 39981 40180 58008 60006 80000 90000=
07255,1998-05-24 03:00:00,7,1017.3,-1.1,87,5,20000,7.408,,,350,,,,,,,,,,,wg-a,,,,AAXX 24034 07255 12770 13504 10070 20050 39970 40173 56011 60006 81500 90300=
07255,1998-05-24 06:00:00,9,1016.6,-0.5,81,6,15000,0,,,0,6.2,16.4,,,,,,,,,wg-a,,,,AAXX 24064 07255 02/65 10000 10090 20060 39965 40166 56005 60006 81030 90600 333 10164 20062 60004=
07255,1998-05-24 09:00:00,17,1015.9,-0.2,45,5,500,11.112,,,90,,,,,,,,,,,wg-a,,,,AAXX 24094 07255 12500 70906 10170 20050 39963 40159 58002 60006 86830 90900=
07255,1998-05-24 12:00:00,17,1015.3,-0.5,52,7,500,7.408,,,50,,,,,,,,,,,wg-a,,,,AAXX 24124 07255 12600 70504 10170 20070 39958 40153 56005 60006 87800 91200=
07255,1998-05-24 15:00:00,18,1014.3,-1,52,8,500,11.112,,,10,,,,,,,,,,,wg-a,,,,AAXX 24154 07255 12600 70106 10180 20080 39948 40143 58010 60006 878// 91500=
07255,1998-05-24 18:00:00,17,1013.7,-0.6,52,7,28000,7.408,,,40,9.2,18,,,,,,,,,wg-a,,,,AAXX 24184 07255 12778 60404 10170 20070 39942 40137 58006 60006 83530 91800 333 10180 20092=
07255,1998-05-24 21:00:00,15,1014.6,0.7,63,8,18000,7.408,,,10,,,,,,,,,,,wg-a,,,,AAXX 24214 07255 12768 70104 10150 20080 39949 40146 53007 60006 875// 92100=
07255,1998-05-25 00:00:00,13,1014.2,-0.5,77,9,18000,3.704,,,330,,,,,,,,,,,wg-a,,,,AAXX 25004 07255 12768 13302 10130 20090 39944 40142 58005 60006 81500 90000=
07255,1998-05-25 03:00:00,9,1013.8,-0.7,87,7,15000,3.704,,,130,,,,,,,,,,,wg-a,,,,AAXX 25034 07255 12765 11302 10090 20070 39937 40138 57007 60006 81500 90300=
07255,1998-05-25 06:00:00,10,1014,0.3,93,9,4500,0,,,0,7.7,16.8,,,,,,,,10,wg-a,,,,AAXX 25064 07255 02/45 /0000 10100 20090 39940 40140 51003 60006 71000 81030 90600 333 10168 20077 60004=
07255,1998-05-25 09:00:00,17,1013.3,-0.2,63,10,9000,7.408,,,280,,,,,,,,,,,wg-a,,,,AAXX 25094 07255 12559 32804 10170 20100 39938 40133 58002 60006 83200 90900=
07255,1998-05-25 12:00:00,19,1012.1,-1,52,9,22000,11.112,,,320,,,,,,,,,,,wg-a,,,,AAXX 25124 07255 12672 63206 10190 20090 39928 40121 58010 60006 86800 91200=
07255,1998-05-25 15:00:00,21,1010.5,-1.4,46,9,25000,18.52,,,300,,,,,,,,,,,wg-a,,,,AAXX 25154 07255 12675 63010 10210 20090 39914 40105 56014 60006 86800 91500=
07255,1998-05-25 18:00:00,19,1009.7,-1,56,10,25000,14.816,,,310,10.1,21.3,,,,,,,,,wg-a,,,,AAXX 25184 07255 12775 53108 10190 20100 39904 40097 56010 60006 85800 91800 333 10213 20101=
07255,1998-05-25 21:00:00,15,1011.1,1.1,77,11,18000,7.408,,,330,,,,,,,,,,,wg-a,,,,AAXX 25214 07255 12768 73304 10150 20110 39915 40111 53011 60006 855/2 92100=
07255,1998-05-26 00:00:00,12,1010.9,-0.4,82,9,15000,7.408,,,260,,,,,,,,,,,wg-a,,,,AAXX 26004 07255 12765 52604 10120 20090 39911 40109 56004 60006 835/2 90000=
07255,1998-05-26 03:00:00,9,1010.1,-1,93,8,9000,7.408,,,250,,,,,,,,,,,wg-a,,,,AAXX 26034 07255 12/59 42504 10090 20080 39901 40101 58010 60006 80002 90300=
07255,1998-05-26 06:00:00,12,1010.1,0.2,88,10,9000,14.816,,,250,8.9,19.3,,,,,,,,,wg-a,,,,AAXX 26064 07255 02659 72508 10120 20100 39903 40101 52002 60006 875// 90600 333 10193 20089 60004=
07255,1998-05-26 09:00:00,16,1009.6,-0.2,68,10,15000,14.816,,,250,,,,,,,,,,,wg-a,,,,AAXX 26094 07255 12565 72508 10160 20100 39901 40096 58002 60006 878// 90900=
07255,1998-05-26 12:00:00,17,1009.1,-0.4,63,10,25000,18.52,,,250,,,,,,,,,,80,wg-a,,,,AAXX 26124 07255 02575 72510 10170 20100 39897 40091 58004 61000 78086 858// 91200 333 6100=
07255,1998-05-26 15:00:00,14,1008.8,-0.4,88,12,2000,11.112,,,270,,,,2,,,,,,61,wg-a,,,,AAXX 26154 07255 12420 72706 10140 20120 39893 40088 57004 60027 76186 878// 91500=
07255,1998-05-26 18:00:00,13,1008.6,-0.4,94,12,10000,3.704,,,200,11.6,18,,,,,,,,25,wg-a,,,,AAXX 26184 07255 02460 72002 10130 20120 39889 40086 58004 61000 72586 86901 91800 333 10180 20116 6003=
07255,1998-05-26 21:00:00,13,1009.2,0.6,88,11,15000,14.816,,,230,,,,,,,,,,,wg-a,,,,AAXX 26214 07255 12665 /2308 10130 20110 39895 40092 53006 60006 83502 92100=
07255,1998-05-27 00:00:00,12,1009.1,-0.1,94,11,18000,14.816,,,240,,,,,,,,,,1,wg-a,,,,AAXX 27004 07255 02768 52408 10120 20110 39894 40091 58001 61000 70186 85500 90000 333 6100=
07255,1998-05-27 03:00:00,11,1008.6,-0.6,94,10,15000,11.112,,,230,,,,,,,,,,,wg-a,,,,AAXX 27034 07255 12665 72306 10110 20100 39888 40086 57006 60006 875// 90300=
07255,1998-05-27 06:00:00,12,1008.5,-0,94,11,11000,14.816,,,210,11.1,13,,,,,5,,,,wg-a,,,,AAXX 27064 07255 02/61 /2108 10120 20110 39888 40085 55000 60006 90600 333 10130 20111 60054=
07255,1998-05-27 09:00:00,14,1008.5,0.1,88,12,15000,18.52,,,230,,,,1,,,,,,80,wg-a,,,,AAXX 27094 07255 12465 72310 10140 20120 39889 40085 50001 60017 78086 878// 90900=
07255,1998-05-27 12:00:00,19,1006.8,-1.3,56,10,35000,22.224,,,220,,,,,,,,,,1,wg-a,,,,AAXX 27124 07255 02581 72212 10190 20100 39876 40068 58013 60016 70186 85202 91200 333 61000=
07255,1998-05-27 15:00:00,20,1005.5,-1.3,49,9,35000,22.224,,,240,,,,,,,,,,,wg-a,,,,AAXX 27154 07255 12581 72412 10200 20090 39863 40055 56013 60006 878// 91500=
07255,1998-05-27 18:00:00,15,1006.4,0.6,77,11,35000,11.112,,,300,12,20.2,,,,,,,,1,wg-a,,,,AAXX 27184 07255 02581 73006 10150 20110 39869 40064 52006 60006 70186 85832 91800 333 10202 20120 61000=
07255,1998-05-27 21:00:00,13,1007.4,0.9,88,11,15000,7.408,,,190,,,,0,,,,,,1,wg-a,,,,AAXX 27214 07255 12665 71904 10130 20110 39878 40074 53009 60007 70186 82631 92100=
07255,1998-05-28 00:00:00,12,1006.9,-0.6,94,11,10000,7.408,,,140,,,,,,,,,,25,wg-a,,,,AAXX 28004 07255 12760 61404 10120 20110 39872 40069 58006 60006 72586 86500 90000=
07255,1998-05-28 03:00:00,12,1005.9,-1,94,11,10000,0,,,0,,,,,,,,,,,wg-a,,,,AAXX 28034 07255 12760 70000 10120 20110 39862 40059 58010 60006 81531 90300=
07255,1998-05-28 06:00:00,12,1006.5,0.6,94,11,500,3.704,,,270,11.3,14.7,,,,,,,,61,wg-a,,,,AAXX 28064 07255 02700 82702 10120 20110 39868 40065 53006 61000 76162 8753/ 90600 333 10147 20113 6002=
07255,1998-05-28 09:00:00,13,1007,0.6,94,12,15000,11.112,,,290,,,,3,,,,,,60,wg-a,,,,AAXX 28094 07255 12265 82906 10130 20120 39874 40070 52006 60037 76066 872// 90900=
07255,1998-05-28 12:00:00,15,1007,0.1,82,12,25000,7.408,,,230,,,,,,,,,,60,wg-a,,,,AAXX 28124 07255 02475 82304 10150 20120 39875 40070 52001 60036 76086 878// 91200 333 61000=
07255,1998-05-28 15:00:00,17,1006.9,-0,59,9,25000,11.112,,,220,,,,,,,,,,1,wg-a,,,,AAXX 28154 07255 02575 82206 10170 20090 39875 40069 55000 61000 70162 85832 91500 333 ////=
07255,1998-05-28 18:00:00,17,1007.4,0.5,59,9,500,11.112,,,250,11.9,17.4,,,,,,,,1,wg-a,,,,AAXX 28184 07255 02500 72506 10170 20090 39880 40074 52005 60006 70186 84832 91800 333 10174 20119 61000=
07255,1998-05-28 21:00:00,13,1009.7,2,82,10,28000,14.816,,,240,,,,,,,,,,,wg-a,,,,AAXX 28214 07255 12778 62408 10130 20100 39900 40097 53020 60006 825/2 92100=
07255,1998-05-29 00:00:00,10,1011,1.1,87,8,25000,11.112,,,260,,,,,,,,,,,wg-a,,,,AAXX 29004 07255 12775 52606 10100 20080 39911 40110 52011 60006 81532 90000=
07255,1998-05-29 03:00:00,8,1012.5,1.3,93,7,18000,7.408,,,230,,,,,,,,,,,wg-a,,,,AAXX 29034 07255 12/68 22304 10080 20070 39924 40125 53013 60006 81032 90300=
07255,1998-05-29 06:00:00,10,1013.4,1,93,9,15000,11.112,,,240,7,16.9,,,,,3,,,,wg-a,,,,AAXX 29064 07255 02/65 42406 10100 20090 39934 40134 53010 60006 81032 90600 333 10169 20070 60034=
07255,1998-05-29 09:00:00,15,1013.7,0.7,67,9,500,7.408,,,140,,,,,,,,,,,wg-a,,,,AAXX 29094 07255 12500 71404 10150 20090 39941 40137 51007 60006 85131 90900=
07255,1998-05-29 12:00:00,18,1013.3,-0.2,49,7,35000,11.112,,,240,,,,,,,,,,,wg-a,,,,AAXX 29124 07255 12681 62406 10180 20070 39939 40133 56002 60006 84101 91200=
07255,1998-05-29 15:00:00,21,1011.7,-1.4,40,7,35000,11.112,,,130,,,,,,,,,,,wg-a,,,,AAXX 29154 07255 12781 61306 10210 20070 39925 40117 57014 60006 84231 91500=
07255,1998-05-29 18:00:00,20,1011.5,-0.3,46,8,35000,11.112,,,120,9.8,20.5,,,,,,,,,wg-a,,,,AAXX 29184 07255 12681 71206 10200 20080 39922 40115 56003 60006 81131 91800 333 10205 20098=
07255,1998-05-29 21:00:00,15,1012.4,0.6,67,9,500,14.816,,,110,,,,,,,,,,,wg-a,,,,AAXX 29214 07255 12/00 61108 10150 20090 39928 40124 53006 60006 81031 92100=
07255,1998-05-30 00:00:00,13,1012,-0.5,77,9,500,18.52,,,100,,,,,,,,,,,wg-a,,,,AAXX 30004 07255 12/00 41010 10130 20090 39923 40120 58005 60006 80001 90000=
07255,1998-05-30 03:00:00,12,1010.7,-1.4,88,10,25000,18.52,,,110,,,,,,,,,,,wg-a,,,,AAXX 30034 07255 12/75 11110 10120 20100 39909 40107 56014 60006 80001 90300=
07255,1998-05-30 06:00:00,13,1010.1,-0.5,88,11,20000,18.52,,,110,10.7,19.5,,,,,,,,,wg-a,,,,AAXX 30064 07255 02770 21110 10130 20110 39904 40101 55005 60006 81501 90600 333 10195 20107 60004=
07255,1998-05-30 12:00:00,23,1007.8,-0.6,44,10,25000,18.52,,,130,,,,,,,,,,,wg-a,,,,AAXX 30124 07255 12675 /1310 10230 20100 39888 40078 58006 60006 82882 91200=
07255,1998-05-30 15:00:00,15,1008.7,0.4,100,15,4000,14.816,,,280,,,,7,,,,,,81,wg-a,,,,AAXX 30154 07255 12440 82808 10150 20150 39892 40087 53004 60077 78198 879// 91500=
07255,1998-05-30 18:00:00,15,1010.2,1.5,94,14,12000,14.816,,,260,13.2,24.1,,4,,,,,,1,wg-a,,,,AAXX 30184 07255 02362 82608 10150 20140 39907 40102 53015 60006 70198 878// 91800 333 10241 20132 60047=
07255,1998-05-30 21:00:00,13,1012.1,1.7,94,12,500,14.816,,,230,,,,0,,,,,,60,wg-a,,,,AAXX 30214 07255 12600 82308 10130 20120 39924 40121 52017 60007 76062 885// 92100=
07255,1998-05-31 00:00:00,12,1013.1,0.9,94,11,25000,7.408,,,200,,,,0,,,,,,1,wg-a,,,,AAXX 31004 07255 02675 72004 10120 20110 39933 40131 53009 60016 70162 8153/ 90000 333 60007=
07255,1998-05-31 03:00:00,11,1013.3,0.1,94,10,20000,3.704,,,200,,,,,,,,,,,wg-a,,,,AAXX 31034 07255 12670 72002 10110 20100 39934 40133 53001 60006 8453/ 90300=
07255,1998-05-31 06:00:00,12,1013.5,0.3,94,11,12000,3.704,,,320,10.6,15.3,,,,,12,,,,wg-a,,,,AAXX 31064 07255 02/62 83202 10120 20110 39937 40135 52003 60006 8207/ 90600 333 10153 20106 60124=
07255,1998-05-31 09:00:00,14,1013.2,-0.2,82,11,25000,3.704,,,230,,,,,,,,,,,wg-a,,,,AAXX 31094 07255 12475 82302 10140 20110 39935 40132 55002 60006 8312/ 90900=
07255,1998-05-31 12:00:00,16,1013.5,0.4,72,11,25000,11.112,,,240,,,,,,,,,,,wg-a,,,,AAXX 31124 07255 12575 72406 10160 20110 39939 40135 51004 60006 85221 91200=
07255,1998-05-31 15:00:00,16,1013.1,-0.3,82,13,25000,11.112,,,180,,,,,,,,,,3,wg-a,,,,AAXX 31154 07255 02475 71806 10160 20130 39936 40131 56003 61000 70386 84902 91500 333 ////=
07255,1998-05-31 18:00:00,17,1013.4,0.3,63,10,25000,11.112,,,220,11.8,17.6,,,,,,,,1,wg-a,,,,AAXX 31184 07255 02575 /2206 10170 20100 39939 40134 53003 60006 70186 84801 91800 333 10176 20118 61000=
07255,1998-05-31 21:00:00,12,1014.9,1.2,88,10,22000,7.408,,,190,,,,,,,,,,,wg-a,,,,AAXX 31214 07255 12/72 01904 10120 20100 39951 40149 53012 60006 80000 92100=
07255,1998-06-01 00:00:00,9,1015,-0.1,100,9,20000,7.408,,,130,,,,,,,,,,,wg-a,,,,AAXX 01004 07255 12/70 01304 10090 20090 39950 40150 58001 60006 80000 90000=
07255,1998-06-01 03:00:00,8,1014.4,-0.7,100,8,18000,11.112,,,100,,,,0,,,,,,,wg-a,,,,AAXX 01034 07255 12/68 31006 10080 20080 39943 40144 56007 60007 80001 90300=
07255,1998-06-01 06:00:00,10,1013.8,-0.5,93,9,10000,14.816,,,100,7.6,16.5,,,,,,,,14,wg-a,,,,AAXX 01064 07255 02860 51008 10100 20090 39938 40138 56005 60006 71411 85081 90600 333 10165 20076 60004=
07255,1998-06-01 09:00:00,16,1012.3,-1,77,12,25000,14.816,,,100,,,,,,,,,,,wg-a,,,,AAXX 01094 07255 12/75 71008 10160 20120 39928 40123 58010 60006 8703/ 90900=
07255,1998-06-01 12:00:00,21,1010.7,-1.2,64,14,35000,22.224,,,110,,,,,,,,,,,wg-a,,,,AAXX 01124 07255 12681 71112 10210 20140 39916 40107 56012 60006 81132 91200=
07255,1998-06-01 15:00:00,22,1009.8,-0.9,57,13,35000,11.112,,,190,,,,,,,,,,16,wg-a,,,,AAXX 01154 07255 12681 81906 10220 20130 39907 40098 58009 60006 71622 878// 91500=
07255,1998-06-01 18:00:00,20,1008.8,-1,73,15,35000,11.112,,,150,10.1,22.9,,,,,,,,25,wg-a,,,,AAXX 01184 07255 02681 81506 10200 20150 39897 40088 56010 61000 72586 8354/ 91800 333 10229 20101 6000=
07255,1998-06-01 21:00:00,18,1008.9,-0.1,77,14,20000,14.816,,,150,,,,,,,,,,,wg-a,,,,AAXX 01214 07255 12770 81508 10180 20140 39896 40089 55001 60006 8453/ 92100=
07255,1998-06-02 00:00:00,16,1009.7,0.7,100,16,6000,11.112,,,250,,,,5,,,,,,63,wg-a,,,,AAXX 02004 07255 02556 82506 10160 20160 39903 40097 53007 60056 76362 885// 90000 333 60057=
07255,1998-06-02 03:00:00,15,1008.8,-1,100,15,10000,11.112,,,160,,,,2,,,,,,1,wg-a,,,,AAXX 02034 07255 12660 /1606 10150 20150 39893 40088 56010 60027 70162 82531 90300=
07255,1998-06-02 06:00:00,16,1010.1,1.4,88,14,35000,18.52,,,220,14.5,20.4,,,,,8,,,1,wg-a,,,,AAXX 02064 07255 02681 72210 10160 20140 39907 40101 53014 60006 70162 8653/ 90600 333 10204 20145 60084=
07255,1998-06-02 09:00:00,19,1011.5,1.5,83,16,500,25.928,,,230,,,,,,,,,,,wg-a,,,,AAXX 02094 07255 12500 72314 10190 20160 39922 40115 51015 60006 878// 90900=
07255,1998-06-02 12:00:00,20,1011.7,0.3,73,15,35000,25.928,,,250,,,,1,,,,,,1,wg-a,,,,AAXX 02124 07255 02581 72514 10200 20150 39925 40117 51003 60016 70186 85202 91200 333 60017=
07255,1998-06-02 15:00:00,17,1012.4,0.5,94,16,11000,14.816,,,230,,,,,,,,,,,wg-a,,,,AAXX 02154 07255 32/61 /2308 10170 20160 39930 40124 53005 91500=
07255,1998-06-02 18:00:00,16,1012.4,-0.1,94,15,0,18.52,,,220,15.8,21.4,,,,,,,,,wg-a,,,,AAXX 02184 07255 32/// /2210 10160 20150 39929 40124 55001 91800 333 10214 20158=
07255,1998-06-03 00:00:00,12,1016.5,1.3,94,11,0,11.112,,,220,,,,,,,,,,,wg-a,,,,AAXX 03004 07255 12/// /2206 10120 20110 39966 40165 51013 60006 90000=
07255,1998-06-03 06:00:00,12,1018,1.1,100,12,12000,3.704,,,210,9.2,16.2,,,,,3,,,,wg-a,,,,AAXX 03064 07255 02/62 12102 10120 20120 39981 40180 51011 60006 80001 90600 333 10162 20092 60034=
07255,1998-06-03 09:00:00,17,1018.1,0.5,68,11,500,11.112,,,260,,,,,,,,,,,wg-a,,,,AAXX 03094 07255 12500 22606 10170 20110 39986 40181 51005 60006 81101 90900=
07255,1998-06-03 12:00:00,20,1017.3,-0.6,56,11,35000,11.112,,,250,,,,,,,,,,,wg-a,,,,AAXX 03124 07255 12681 /2506 10200 20110 39980 40173 58006 60006 82101 91200=
07255,1998-06-03 15:00:00,23,1016.6,-0.6,47,11,35000,14.816,,,280,,,,,,,,,,,wg-a,,,,AAXX 03154 07255 12681 42808 10230 20110 39974 40166 58006 60006 83201 91500=
07255,1998-06-03 18:00:00,22,1016.5,-0.1,46,10,0,3.704,,,280,11.8,22.9,,,,,,,,,wg-a,,,,AAXX 03184 07255 12/// /2802 10220 20100 39973 40165 55001 60006 91800 333 10229 20118=
07255,1998-06-04 00:00:00,14,1019.1,0.8,82,11,0,7.408,,,350,,,,,,,,,,,wg-a,,,,AAXX 04004 07255 12/// /3504 10140 20110 39993 40191 52008 60006 90000=
07255,1998-06-04 06:00:00,14,1019.3,-0,82,11,28000,3.704,,,120,11.3,21.9,,,,,,,,,wg-a,,,,AAXX 04064 07255 02/78 71202 10140 20110 39995 40193 55000 60006 80001 90600 333 10219 20113 60004=
07255,1998-06-04 09:00:00,20,1018.7,-0.2,56,11,500,14.816,,,70,,,,,,,,,,,wg-a,,,,AAXX 04094 07255 12/00 40708 10200 20110 39993 40187 58002 60006 83081 90900=
07255,1998-06-04 12:00:00,24,1017.3,-1.1,50,13,40000,14.816,,,90,,,,,,,,,,,wg-a,,,,AAXX 04124 07255 12682 70908 10240 20130 39982 40173 58011 60006 81282 91200=
07255,1998-06-04 15:00:00,25,1015.6,-1.6,50,14,35000,14.816,,,80,,,,,,,,,,,wg-a,,,,AAXX 04154 07255 12681 /0808 10250 20140 39966 40156 56016 60006 82181 91500=
07255,1998-06-04 18:00:00,24,1014.7,-0.9,57,15,0,18.52,,,110,14.1,25.6,,,,,,,,,wg-a,,,,AAXX 04184 07255 12/// /1110 10240 20150 39957 40147 55009 60006 91800 333 10256 20141=
07255,1998-06-05 00:00:00,18,1012.1,-2.2,83,15,0,22.224,,,90,,,,,,,,,,,wg-a,,,,AAXX 05004 07255 12/// /0912 10180 20150 39928 40121 58022 60006 90000=
07255,1998-06-05 06:00:00,18,1011.2,-0.8,88,16,12000,14.816,,,120,16.7,24.4,,,,,,,,,wg-a,,,,AAXX 05064 07255 02/62 71208 10180 20160 39918 40112 58008 60006 84032 90600 333 10244 20167 60004=
07255,1998-06-05 09:00:00,24,1011.4,0.7,74,19,18000,11.112,,,180,,,,,,,,,,,wg-a,,,,AAXX 05094 07255 12/68 71806 10240 20190 39925 40114 52007 60006 80001 90900=
07255,1998-06-05 12:00:00,27,1011.2,-0,54,17,20000,11.112,,,260,,,,,,,,,,,wg-a,,,,AAXX 05124 07255 12670 72606 10270 20170 39925 40112 54000 60006 83102 91200=
07255,1998-06-05 15:00:00,28,1010.7,-0.5,51,17,15000,7.408,,,280,,,,,,,,,,,wg-a,,,,AAXX 05154 07255 12/65 82804 10280 20170 39920 40107 57005 60006 80002 91500=
07255,1998-06-05 18:00:00,28,1010.1,-0.5,48,16,0,3.704,,,350,17.5,28.6,,,,,,,,,wg-a,,,,AAXX 05184 07255 12/// /3502 10280 20160 39915 40101 55005 60006 91800 333 10286 20175=
07255,1998-06-06 00:00:00,22,1010.6,-0.2,83,19,0,3.704,,,140,,,,,,,,,,,wg-a,,,,AAXX 06004 07255 12/// /1402 10220 20190 39916 40106 57002 60006 90000=
07255,1998-06-06 06:00:00,19,1010.7,0.1,94,18,9000,3.704,,,120,18.4,28.3,,,,,,,,,wg-a,,,,AAXX 06064 07255 02559 71202 10190 20180 39915 40107 53001 60006 81532 90600 333 10283 20184 60004=
07255,1998-06-06 09:00:00,25,1011.2,0.9,57,16,15000,18.52,,,260,,,,,,,,,,,wg-a,,,,AAXX 06094 07255 12/65 72610 10250 20160 39924 40112 53009 60006 80001 90900=
07255,1998-06-06 12:00:00,25,1011.7,0.4,57,16,15000,18.52,,,230,,,,,,,,,,3,wg-a,,,,AAXX 06124 07255 02665 72310 10250 20160 39928 40117 50004 61000 70362 818// 91200 333 6100=
07255,1998-06-06 15:00:00,24,1010.6,-1.1,69,18,10000,14.816,,,280,,,,,,,,,,80,wg-a,,,,AAXX 06154 07255 02560 72808 10240 20180 39917 40106 58011 61000 78086 8623/ 91500 333 ////=
07255,1998-06-06 18:00:00,17,1012.7,1.6,100,17,0,11.112,,,170,17,25.5,,,,,,,,,wg-a,,,,AAXX 06184 07255 32/// /1706 10170 20170 39933 40127 51016 91800 333 10255 20170=
07255,1998-06-07 00:00:00,17,1012.4,-0.5,100,17,0,7.408,,,240,,,,,,,,,,,wg-a,,,,AAXX 07004 07255 12/// /2404 10170 20170 39930 40124 57005 60026 90000=
07255,1998-06-07 06:00:00,15,1013.7,0.6,100,15,500,18.52,,,260,14.5,17.3,,,,,13,,,,wg-a,,,,AAXX 07064 07255 02300 82610 10150 20150 39941 40137 51006 60006 877// 90600 333 10173 20145 60134=
07255,1998-06-07 09:00:00,15,1015.4,1.7,82,12,18000,22.224,,,280,,,,2,,,,,,21,wg-a,,,,AAXX 07094 07255 12468 72812 10150 20120 39958 40154 53017 60027 72162 85802 90900=
07255,1998-06-07 12:00:00,18,1016.7,1.4,56,9,35000,25.928,,,280,,,,,,,,,,1,wg-a,,,,AAXX 07124 07255 12681 62814 10180 20090 39972 40167 51014 60026 70162 84802 91200=
07255,1998-06-07 15:00:00,19,1017,0.4,52,9,35000,22.224,,,280,,,,,,,,,,,wg-a,,,,AAXX 07154 07255 12681 /2812 10190 20090 39976 40170 52004 60006 86800 91500=
07255,1998-06-07 18:00:00,18,1017.8,0.7,64,11,0,14.816,,,270,14.6,19.9,,,,,,,,,wg-a,,,,AAXX 07184 07255 32/// /2708 10180 20110 39983 40178 53007 91800 333 10199 20146=
07255,1998-06-08 00:00:00,13,1021.1,0.8,88,11,0,14.816,,,250,,,,,,,,,,,wg-a,,,,AAXX 08004 07255 12/// /2508 10130 20110 30012 40211 51008 60006 90000=
07255,1998-06-08 06:00:00,13,1022,0.6,94,12,15000,14.816,,,260,11.6,17.5,,,,,2,,,,wg-a,,,,AAXX 08064 07255 02465 72608 10130 20120 30021 40220 53006 60006 878// 90600 333 10175 20116 60024=
07255,1998-06-08 09:00:00,16,1022.7,0.9,72,11,28000,14.816,,,250,,,,,,,,,,,wg-a,,,,AAXX 08094 07255 12578 72508 10160 20110 30030 40227 53009 60006 878// 90900=
07255,1998-06-08 12:00:00,18,1021.9,-0.7,59,10,40000,7.408,,,260,,,,,,,,,,,wg-a,,,,AAXX 08124 07255 12682 72604 10180 20100 30023 40219 58007 60006 87800 91200=
07255,1998-06-08 15:00:00,20,1020.5,-1.2,56,11,35000,11.112,,,230,,,,,,,,,,,wg-a,,,,AAXX 08154 07255 12681 72306 10200 20110 30011 40205 58012 60006 85234 91500=
07255,1998-06-08 18:00:00,20,1020.1,-0.4,53,10,0,14.816,,,260,12.9,20.4,,,,,,,,,wg-a,,,,AAXX 08184 07255 12/// /2608 10200 20100 30007 40201 55004 60006 91800 333 10204 20129=
07255,1998-06-09 06:00:00,15,1018.5,-0.6,88,13,25000,11.112,,,230,13.7,19.7,,,,,,,,,wg-a,,,,AAXX 09064 07255 02775 82306 10150 20130 39988 40185 58006 60006 83532 90600 333 10197 20137 60004=
07255,1998-06-09 09:00:00,19,1017.6,-0.6,60,11,25000,18.52,,,250,,,,,,,,,,,wg-a,,,,AAXX 09094 07255 12775 72510 10190 20110 39982 40176 57006 60006 81582 90900=
07255,1998-06-09 12:00:00,23,1014.9,-2.4,57,14,25000,14.816,,,210,,,,,,,,,,,wg-a,,,,AAXX 09124 07255 12675 72108 10230 20140 39958 40149 58024 60006 81132 91200=
07255,1998-06-09 15:00:00,26,1012,-2.6,54,16,25000,18.52,,,240,,,,,,,,,,,wg-a,,,,AAXX 09154 07255 12675 32410 10260 20160 39932 40120 56026 60006 82232 91500=
07255,1998-06-09 18:00:00,25,1010.3,-1.7,57,16,0,14.816,,,260,15.1,26.9,,,,,,,,,wg-a,,,,AAXX 09184 07255 12/// /2608 10250 20160 39915 40103 56017 60006 91800 333 10269 20151=
07255,1998-06-10 00:00:00,19,1010,-0.3,78,15,0,18.52,,,270,,,,,,,,,,,wg-a,,,,AAXX 10004 07255 12/// /2710 10190 20150 39908 40100 55003 60006 90000=
07255,1998-06-10 06:00:00,16,1010.1,0.6,82,13,1000,29.632,,,290,15.9,25.1,,,,,,,,21,wg-a,,,,AAXX 10064 07255 02310 72916 10160 20130 39906 40101 53006 61000 72162 86801 90600 333 10251 20159 6000=
07255,1998-06-10 09:00:00,18,1010.7,0.7,56,9,28000,25.928,,,280,,,,,,,,,,,wg-a,,,,AAXX 10094 07255 12578 42814 10180 20090 39913 40107 50007 60006 84100 90900=
07255,1998-06-10 12:00:00,20,1009.9,-0.6,49,9,35000,25.928,,,260,,,,,,,,,,,wg-a,,,,AAXX 10124 07255 12681 52614 10200 20090 39907 40099 58006 60006 85800 91200=
07255,1998-06-10 15:00:00,21,1008.3,-1.5,46,9,35000,25.928,,44.448,260,,,,,,,,,,,wg-a,,,,AAXX 10154 07255 12681 /2614 10210 20090 39892 40083 57015 60006 86800 91500 333 91024=
07255,1998-06-10 18:00:00,18,1008.4,-0.1,56,9,0,22.224,,,250,15.3,21.7,,,,,,,,,wg-a,,,,AAXX 10184 07255 12/// /2512 10180 20090 39891 40084 58001 60006 91800 333 10217 20153=
07255,1998-06-11 00:00:00,13,1008.8,-0.9,88,11,0,18.52,,,260,,,,,,,,,,,wg-a,,,,AAXX 11004 07255 12/// /2610 10130 20110 39891 40088 56009 60006 90000=
07255,1998-06-11 06:00:00,11,1009.1,0.8,94,10,12000,22.224,,,270,11,18.2,,,,,,,,60,wg-a,,,,AAXX 11064 07255 02462 72712 10110 20100 39893 40091 53008 61000 76062 878// 90600 333 10182 20110 6100=
07255,1998-06-11 09:00:00,13,1009.7,0.7,67,7,20000,29.632,,51.856,280,,,,0,,,,,,3,wg-a,,,,AAXX 11094 07255 12570 /2816 10130 20070 39900 40097 51007 60007 70362 85802 90900 333 91028=
07255,1998-06-11 12:00:00,15,1010.2,0.6,59,7,25000,22.224,,,300,,,,,,,,,,1,wg-a,,,,AAXX 11124 07255 02675 /3012 10150 20070 39906 40102 53006 60006 70186 83202 91200 333 61000=
07255,1998-06-11 15:00:00,16,1010.5,0.4,48,5,25000,22.224,,,310,,,,,,,,,,15,wg-a,,,,AAXX 11154 07255 02675 63112 10160 20050 39910 40105 51004 61000 71586 85903 91500 333 ////=
07255,1998-06-11 18:00:00,15,1011.8,1.2,51,5,0,25.928,,,300,11.2,16.9,,,,,,,,,wg-a,,,,AAXX 11184 07255 32/// /3014 10150 20050 39922 40118 53012 91800 333 10169 20112=
07255,1998-06-12 00:00:00,9,1015.9,1,100,9,0,22.224,,,310,,,,0,,,,,,,wg-a,,,,AAXX 12004 07255 02/// /3112 10090 20090 39958 40159 51010 60006 90000 333 60007=
07255,1998-06-12 06:00:00,9,1020.7,2.7,87,7,10000,14.816,,,310,8,14.9,,,,,,,,20,wg-a,,,,AAXX 12064 07255 02360 73108 10090 20070 30005 40207 52027 61000 72065 875// 90600 333 10149 20080 6001=
07255,1998-06-12 09:00:00,12,1022.8,2.3,62,5,22000,22.224,,,340,,,,,,,,,,,wg-a,,,,AAXX 12094 07255 12572 /3412 10120 20050 30028 40228 52023 60006 86100 90900=
07255,1998-06-12 12:00:00,15,1022.8,0.2,48,4,500,22.224,,,330,,,,,,,,,,,wg-a,,,,AAXX 12124 07255 12600 73312 10150 20040 30030 40228 53002 60006 878// 91200=
07255,1998-06-12 15:00:00,16,1022.6,-0.1,51,6,500,18.52,,37.04,340,,,,,,,,,,15,wg-a,,,,AAXX 12154 07255 12600 /3410 10160 20060 30029 40226 55001 60006 71522 86800 91500 333 91020=
07255,1998-06-12 18:00:00,13,1022.8,0,67,7,0,18.52,,,350,8.4,17.1,,,,,,,,,wg-a,,,,AAXX 12184 07255 12/// /3510 10130 20070 30029 40228 50000 60006 91800 333 10171 20084=
07255,1998-06-13 00:00:00,10,1022.9,-0.6,93,9,0,7.408,,,260,,,,,,,,,,,wg-a,,,,AAXX 13004 07255 12/// /2604 10100 20090 30028 40229 58006 60006 90000=
07255,1998-06-13 06:00:00,10,1020.5,-1,93,9,18000,7.408,,,260,7.9,13.3,,,,,,,,,wg-a,,,,AAXX 13064 07255 02/68 32604 10100 20090 30004 40205 56010 60006 82031 90600 333 10133 20079 61000=
07255,1998-06-13 12:00:00,16,1017.5,-1.6,55,7,25000,22.224,,,230,,,,,,,,,,21,wg-a,,,,AAXX 13124 07255 02675 82312 10160 20070 39979 40175 56016 61000 72161 8687/ 91200 333 6100=
07255,1998-06-13 15:00:00,14,1016,-1.6,82,11,20000,25.928,,,240,,,,1,,,,,,60,wg-a,,,,AAXX 13154 07255 12670 82414 10140 20110 39963 40160 56016 60017 76062 8327/ 91500=
07255,1998-06-13 18:00:00,13,1014.3,-1.8,88,11,0,18.52,,,210,10.2,16.7,,,,,,,,,wg-a,,,,AAXX 13184 07255 32/// /2110 10130 20110 39945 40143 56018 91800 333 10167 20102=
07255,1998-06-14 00:00:00,12,1014,0.2,94,11,0,18.52,,,270,,,,,,,,,,,wg-a,,,,AAXX 14004 07255 12/// /2710 10120 20110 39942 40140 53002 60016 90000=
07255,1998-06-14 06:00:00,12,1014.2,0.3,94,11,18000,14.816,,,260,11.7,13.1,,,,,2,,,,wg-a,,,,AAXX 14064 07255 02368 72608 10120 20110 39944 40142 53003 60006 87800 90600 333 10131 20117 60024=
07255,1998-06-14 09:00:00,15,1013.9,-0.1,77,11,40000,18.52,,,270,,,,,,,,,,,wg-a,,,,AAXX 14094 07255 12482 72710 10150 20110 39943 40139 58001 60006 878// 90900=
07255,1998-06-14 12:00:00,17,1013.4,-0.4,72,12,500,18.52,,,260,,,,0,,,,,,25,wg-a,,,,AAXX 14124 07255 02400 62610 10170 20120 39939 40134 58004 60016 72586 86802 91200 333 60007=
07255,1998-06-14 15:00:00,17,1012.7,-0.7,77,13,500,22.224,,,270,,,,1,,,,,,1,wg-a,,,,AAXX 14154 07255 12500 72712 10170 20130 39932 40127 56007 60017 70186 87800 91500=
07255,1998-06-14 18:00:00,15,1013,0.2,88,13,0,14.816,,,260,12.4,17.8,,,,,,,,,wg-a,,,,AAXX 14184 07255 32/// /2608 10150 20130 39934 40130 51002 91800 333 10178 20124=
07255,1998-06-15 00:00:00,11,1014.9,0.4,94,10,0,11.112,,,220,,,,,,,,,,,wg-a,,,,AAXX 15004 07255 12/// /2206 10110 20100 39950 40149 53004 60016 90000=
07255,1998-06-15 06:00:00,12,1014.5,0.2,94,11,15000,14.816,,,230,10.5,15.2,,,,,,,,21,wg-a,,,,AAXX 15064 07255 02465 72308 10120 20110 39947 40145 51002 61000 72186 871// 90600 333 10152 20105 6007=
07255,1998-06-15 09:00:00,14,1014.4,0,94,13,25000,18.52,,,260,,,,5,,,,,,21,wg-a,,,,AAXX 15094 07255 12475 52610 10140 20130 39947 40144 50000 60057 72186 85800 90900=
07255,1998-06-15 12:00:00,14,1015.2,0.8,77,10,25000,22.224,,,280,,,,1,,,,,,80,wg-a,,,,AAXX 15124 07255 02475 /2812 10140 20100 39955 40152 53008 60066 78087 86900 91200 333 60017=
07255,1998-06-15 15:00:00,19,1015.2,0.3,52,9,20000,22.224,,,300,,,,,,,,,,15,wg-a,,,,AAXX 15154 07255 02570 53012 10190 20090 39958 40152 53003 61000 71586 85900 91500 333 ////=
07255,1998-06-15 18:00:00,16,1016.1,0.7,77,12,0,11.112,,,240,12.1,19,,,,,,,,,wg-a,,,,AAXX 15184 07255 32/// /2406 10160 20120 39965 40161 53007 91800 333 10190 20121=
07255,1998-06-16 00:00:00,11,1020.2,1.4,87,9,0,11.112,,,290,,,,,,,,,,,wg-a,,,,AAXX 16004 07255 02/// /2906 10110 20090 30002 40202 51014 61000 90000 333 ////=
07255,1998-06-16 06:00:00,10,1022.7,1.8,87,8,15000,11.112,,,280,7.1,15.5,,,,,6,,,,wg-a,,,,AAXX 16064 07255 02/65 22806 10100 20080 30026 40227 51018 60006 80001 90600 333 10155 20071 60064=
07255,1998-06-16 09:00:00,15,1023.4,1,63,8,40000,25.928,,,300,,,,,,,,,,,wg-a,,,,AAXX 16094 07255 12582 73014 10150 20080 30036 40234 51010 60006 85202 90900=
07255,1998-06-16 12:00:00,18,1023.5,0.3,45,6,35000,25.928,,,290,,,,,,,,,,,wg-a,,,,AAXX 16124 07255 12681 62914 10180 20060 30039 40235 51003 60006 85201 91200=
07255,1998-06-16 15:00:00,19,1023.5,0.1,40,5,35000,22.224,,,300,,,,,,,,,,,wg-a,,,,AAXX 16154 07255 12781 53012 10190 20050 30040 40235 53001 60006 85202 91500=
07255,1998-06-16 18:00:00,19,1024.1,0.5,40,5,0,14.816,,,310,10.1,19.9,,,,,,,,,wg-a,,,,AAXX 16184 07255 12/// /3108 10190 20050 30045 40241 53005 60006 91800 333 10199 20101=
07255,1998-06-17 00:00:00,11,1027.1,0.8,82,8,0,7.408,,,270,,,,,,,,,,,wg-a,,,,AAXX 17004 07255 12/// /2704 10110 20080 30069 40271 51008 60006 90000=
07255,1998-06-17 06:00:00,10,1028.3,0.6,93,9,7000,3.704,,,220,7.5,18.9,,,,,,,,,wg-a,,,,AAXX 17064 07255 02/57 32202 10100 20090 30080 40283 53006 60006 80001 90600 333 10189 20075 60004=
07255,1998-06-17 09:00:00,17,1028.3,0.5,55,8,25000,3.704,,,40,,,,,,,,,,,wg-a,,,,AAXX 17094 07255 12675 70402 10170 20080 30085 40283 51005 60006 81104 90900=
07255,1998-06-17 12:00:00,20,1027.9,-0.2,40,6,500,3.704,,,330,,,,,,,,,,,wg-a,,,,AAXX 17124 07255 12700 83302 10200 20060 30083 40279 56002 60006 84102 91200=
07255,1998-06-17 15:00:00,20,1026.9,-0.9,43,7,40000,3.704,,,350,,,,,,,,,,,wg-a,,,,AAXX 17154 07255 12782 83502 10200 20070 30074 40269 57009 60006 82102 91500=
07255,1998-06-17 18:00:00,21,1026.2,-0.7,38,6,0,3.704,,,20,10,21.2,,,,,,,,,wg-a,,,,AAXX 17184 07255 12/// /0202 10210 20060 30067 40262 56007 60006 91800 333 10212 20100=
07255,1998-06-18 00:00:00,12,1027.1,-0.4,88,10,0,7.408,,,110,,,,,,,,,,,wg-a,,,,AAXX 18004 07255 12/// /1104 10120 20100 30070 40271 57004 60006 90000=
07255,1998-06-18 06:00:00,12,1027.1,0.5,88,10,15000,7.408,,,150,9.3,20.5,,,,,,,,,wg-a,,,,AAXX 18064 07255 02/65 71504 10120 20100 30070 40271 51005 60006 8703/ 90600 333 10205 20093 60004=
07255,1998-06-18 09:00:00,19,1026.6,0,60,11,20000,7.408,,,230,,,,,,,,,,,wg-a,,,,AAXX 18094 07255 12/70 62304 10190 20110 30070 40266 50000 60006 84082 90900=
07255,1998-06-18 12:00:00,23,1025.6,-0.7,47,11,500,11.112,,,210,,,,,,,,,,,wg-a,,,,AAXX 18124 07255 12700 52106 10230 20110 30063 40256 58007 60006 81181 91200=
07255,1998-06-18 15:00:00,25,1024.5,-1,41,11,40000,7.408,,,210,,,,,,,,,,,wg-a,,,,AAXX 18154 07255 12782 32104 10250 20110 30053 40245 56010 60006 81182 91500=
07255,1998-06-18 18:00:00,25,1023.6,-0.8,41,11,0,3.704,,,280,12.4,25.9,,,,,,,,,wg-a,,,,AAXX 18184 07255 12/// /2802 10250 20110 30045 40236 55008 60006 91800 333 10259 20124=
07255,1998-06-19 00:00:00,15,1024.5,-0.3,88,13,0,11.112,,,140,,,,,,,,,,,wg-a,,,,AAXX 19004 07255 12/// /1406 10150 20130 30047 40245 57003 60006 90000=
07255,1998-06-19 06:00:00,15,1024.4,0.6,82,12,22000,11.112,,,110,13.1,25.4,,,,,,,,,wg-a,,,,AAXX 19064 07255 02/72 61106 10150 20120 30046 40244 52006 60006 80002 90600 333 10254 20131 60004=
07255,1998-06-19 09:00:00,23,1023.6,-0.2,57,14,25000,11.112,,,110,,,,,,,,,,,wg-a,,,,AAXX 19094 07255 12/75 51106 10230 20140 30044 40236 58002 60006 80002 90900=
07255,1998-06-19 12:00:00,27,1022.9,-0.5,42,13,500,11.112,,,130,,,,,,,,,,,wg-a,,,,AAXX 19124 07255 12/00 51306 10270 20130 30039 40229 58005 60006 80002 91200=
07255,1998-06-19 15:00:00,28,1021.8,-1,37,12,500,14.816,,,140,,,,,,,,,,,wg-a,,,,AAXX 19154 07255 12/00 51408 10280 20120 30029 40218 57010 60006 80002 91500=
07255,1998-06-19 18:00:00,27,1021.1,-0.8,45,14,0,14.816,,,130,14.9,28.2,,,,,,,,,wg-a,,,,AAXX 19184 07255 12/// /1308 10270 20140 30021 40211 57008 60006 91800 333 10282 20149=
07255,1998-06-20 00:00:00,17,1021.5,-0.3,82,14,0,11.112,,,120,,,,,,,,,,,wg-a,,,,AAXX 20004 07255 12/// /1206 10170 20140 30019 40215 56003 60006 90000=
07255,1998-06-20 06:00:00,18,1021,0.5,77,14,500,18.52,,,110,15.6,26.6,,,,,,,,,wg-a,,,,AAXX 20064 07255 02/00 51110 10180 20140 30015 40210 51005 60006 80001 90600 333 10266 20156 60004=
07255,1998-06-20 09:00:00,26,1020.1,-0.4,54,16,500,14.816,,,130,,,,,,,,,,,wg-a,,,,AAXX 20094 07255 12/00 41308 10260 20160 30011 40201 58004 60006 80001 90900=
07255,1998-06-20 12:00:00,32,1018.5,-1.2,32,13,40000,18.52,,,170,,,,,,,,,,,wg-a,,,,AAXX 20124 07255 12/82 71710 10320 20130 39999 40185 58012 60006 80001 91200=
07255,1998-06-20 15:00:00,33,1017.3,-1.1,39,17,40000,18.52,,,140,,,,,,,,,,,wg-a,,,,AAXX 20154 07255 12/82 41410 10330 20170 39988 40173 58011 60006 80001 91500=
07255,1998-06-20 18:00:00,31,1017.3,-0.1,43,17,0,14.816,,,130,18,33.6,,,,,,,,,wg-a,,,,AAXX 20184 07255 12/// /1308 10310 20170 39987 40173 55001 60006 91800 333 10336 20180=
07255,1998-06-21 00:00:00,20,1019.1,0.5,83,17,0,3.704,,,200,,,,,,,,,,,wg-a,,,,AAXX 21004 07255 12/// /2002 10200 20170 39998 40191 52005 60006 90000=
07255,1998-06-21 06:00:00,19,1020.3,0.9,68,13,25000,11.112,,,140,16.9,31.3,,,,,,,,,wg-a,,,,AAXX 21064 07255 02/75 51406 10190 20130 30008 40203 52009 60006 80001 90600 333 10313 20169 60004=
07255,1998-06-21 09:00:00,26,1020.2,0.4,45,13,25000,7.408,,,220,,,,,,,,,,,wg-a,,,,AAXX 21094 07255 12/75 72204 10260 20130 30012 40202 51004 60006 80001 90900=
07255,1998-06-21 12:00:00,30,1019.4,-0.5,43,16,25000,14.816,,,240,,,,,,,,,,,wg-a,,,,AAXX 21124 07255 12775 72408 10300 20160 30007 40194 58005 60006 81232 91200=
07255,1998-06-21 15:00:00,31,1018.7,-0.7,36,14,25000,22.224,,,280,,,,,,,,,,,wg-a,,,,AAXX 21154 07255 12/75 62812 10310 20140 30000 40187 55007 60006 83032 91500=
07255,1998-06-21 18:00:00,26,1020.5,1.5,58,17,0,22.224,,,290,18.8,31.2,,,,,,,,,wg-a,,,,AAXX 21184 07255 12/// /2912 10260 20170 30015 40205 53015 60006 91800 333 10312 20188=
07255,1998-06-22 00:00:00,17,1025.4,1.9,88,15,0,14.816,,,270,,,,,,,,,,,wg-a,,,,AAXX 22004 07255 12/// /2708 10170 20150 30057 40254 51019 60006 90000=
07255,1998-06-22 06:00:00,15,1026.6,1.1,94,14,9000,7.408,,,280,14.2,25.8,,,,,,,,,wg-a,,,,AAXX 22064 07255 02659 72804 10150 20140 30068 40266 52011 60006 871// 90600 333 10258 20142 60004=
07255,1998-06-22 09:00:00,20,1026.3,0,64,13,25000,3.704,,,120,,,,,,,,,,,wg-a,,,,AAXX 22094 07255 12675 71202 10200 20130 30068 40263 50000 60006 871// 90900=
07255,1998-06-22 12:00:00,23,1025.1,-1,50,12,40000,7.408,,,340,,,,,,,,,,,wg-a,,,,AAXX 22124 07255 12682 43404 10230 20120 30058 40251 58010 60006 84100 91200=
07255,1998-06-22 15:00:00,24,1023.9,-1.1,41,10,40000,14.816,,,360,,,,,,,,,,,wg-a,,,,AAXX 22154 07255 12782 33608 10240 20100 30047 40239 56011 60006 83100 91500=
07255,1998-06-22 18:00:00,24,1023.2,-0.7,38,9,0,11.112,,,350,14.9,24.6,,,,,,,,,wg-a,,,,AAXX 22184 07255 12/// /3506 10240 20090 30040 40232 56007 60006 91800 333 10246 20149=
07255,1998-06-23 00:00:00,16,1024.6,-0.2,72,11,0,3.704,,,70,,,,,,,,,,,wg-a,,,,AAXX 23004 07255 12/// /0702 10160 20110 30048 40246 58002 60006 90000=
07255,1998-06-23 06:00:00,15,1024.2,0.2,77,11,500,0,,,0,11.3,23.6,,,,,,,,,wg-a,,,,AAXX 23064 07255 02600 20000 10150 20110 30044 40242 52002 60006 82101 90600 333 10236 20113 60004=
07255,1998-06-23 09:00:00,22,1023.2,-0.6,43,9,500,7.408,,,180,,,,,,,,,,,wg-a,,,,AAXX 23094 07255 12600 21804 10220 20090 30038 40232 58006 60006 81101 90900=
07255,1998-06-23 12:00:00,24,1022,-1,41,10,40000,7.408,,,50,,,,,,,,,,,wg-a,,,,AAXX 23124 07255 12782 40504 10240 20100 30028 40220 56010 60006 84101 91200=
07255,1998-06-23 15:00:00,26,1020,-1.8,37,10,35000,7.408,,,260,,,,,,,,,,,wg-a,,,,AAXX 23154 07255 12781 52604 10260 20100 30010 40200 57018 60006 81102 91500=
07255,1998-06-23 18:00:00,25,1019.2,-0.9,41,11,0,11.112,,,20,14.8,26,,,,,,,,,wg-a,,,,AAXX 23184 07255 12/// /0206 10250 20110 30001 40192 56009 60006 91800 333 10260 20148=
07255,1998-06-24 00:00:00,17,1018.7,-1.2,72,12,0,3.704,,,130,,,,,,,,,,,wg-a,,,,AAXX 24004 07255 12/// /1302 10170 20120 39991 40187 56012 60006 90000=
07255,1998-06-24 06:00:00,17,1017.3,-0.3,77,13,22000,7.408,,,120,13.2,24.9,,,,,,,,,wg-a,,,,AAXX 24064 07255 02/72 61204 10170 20130 39977 40173 55003 60006 80001 90600 333 10249 20132 60004=
07255,1998-06-24 09:00:00,24,1016.2,-0.6,47,12,25000,7.408,,,190,,,,,,,,,,,wg-a,,,,AAXX 24094 07255 12/75 51904 10240 20120 39971 40162 58006 60006 80001 90900=
07255,1998-06-24 12:00:00,27,1014.1,-1.8,37,11,500,11.112,,,160,,,,,,,,,,,wg-a,,,,AAXX 24124 07255 12/00 31606 10270 20110 39953 40141 58018 60006 80001 91200=
07255,1998-06-24 15:00:00,28,1012.4,-1.6,37,12,500,7.408,,,190,,,,,,,,,,,wg-a,,,,AAXX 24154 07255 12700 21904 10280 20120 39937 40124 57016 60006 82101 91500=
07255,1998-06-24 18:00:00,28,1011,-1.4,40,13,0,11.112,,,160,16.7,28.8,,,,,,,,,wg-a,,,,AAXX 24184 07255 12/// /1606 10280 20130 39923 40110 56014 60006 91800 333 10288 20167=
07255,1998-06-25 00:00:00,18,1013,0.5,73,13,0,11.112,,,270,,,,,,,,,,,wg-a,,,,AAXX 25004 07255 12/// /2706 10180 20130 39936 40130 51005 60006 90000=
07255,1998-06-25 06:00:00,16,1014.9,1.4,88,14,25000,14.816,,,270,15.4,27.8,,,,,,,,,wg-a,,,,AAXX 25064 07255 02575 82708 10160 20140 39954 40149 53014 60006 875// 90600 333 10278 20154 60004=
07255,1998-06-25 09:00:00,18,1016.1,1.2,64,11,500,18.52,,,290,,,,,,,,,,,wg-a,,,,AAXX 25094 07255 12400 82910 10180 20110 39966 40161 51012 60006 878// 90900=
07255,1998-06-25 12:00:00,19,1016.6,0.6,52,9,500,18.52,,,280,,,,,,,,,,,wg-a,,,,AAXX 25124 07255 12500 72810 10190 20090 39972 40166 51006 60006 8587/ 91200=
07255,1998-06-25 15:00:00,19,1016.2,-0.4,56,10,11000,11.112,,,230,,,,,,,,,,,wg-a,,,,AAXX 25154 07255 32/61 /2306 10190 20100 39968 40162 58004 91500=
07255,1998-06-25 18:00:00,20,1015.6,-0.5,53,10,0,14.816,,,220,16,20.5,,,,,,,,,wg-a,,,,AAXX 25184 07255 32/// /2208 10200 20100 39963 40156 55005 91800 333 10205 20160=
07255,1998-06-26 00:00:00,17,1016.6,0.1,68,11,0,14.816,,,260,,,,,,,,,,,wg-a,,,,AAXX 26004 07255 12/// /2608 10170 20110 39971 40166 52001 60006 90000=
07255,1998-06-26 06:00:00,15,1017.3,0.7,72,10,500,3.704,,,280,14.7,19.8,,,,,,,,,wg-a,,,,AAXX 26064 07255 02700 72802 10150 20100 39976 40173 53007 60006 875// 90600 333 10198 20147 61000=
07255,1998-06-26 09:00:00,18,1017,-0.1,56,9,500,7.408,,,280,,,,,,,,,,,wg-a,,,,AAXX 26094 07255 12500 72804 10180 20090 39975 40170 58001 60006 81801 90900=
07255,1998-06-26 12:00:00,22,1016,-0.7,41,8,500,14.816,,,270,,,,,,,,,,,wg-a,,,,AAXX 26124 07255 12600 52708 10220 20080 39968 40160 58007 60006 83101 91200=
07255,1998-06-26 15:00:00,23,1014.9,-1,38,8,500,14.816,,,270,,,,,,,,,,,wg-a,,,,AAXX 26154 07255 12700 72708 10230 20080 39958 40149 56010 60006 85501 91500=
07255,1998-06-26 18:00:00,22,1014.8,-0.2,43,9,0,11.112,,,300,15.2,24.1,,,,,,,,,wg-a,,,,AAXX 26184 07255 12/// /3006 10220 20090 39956 40148 55002 60006 91800 333 10241 20152=
07255,1998-06-27 00:00:00,15,1015.8,-0.2,72,10,0,7.408,,,250,,,,,,,,,,,wg-a,,,,AAXX 27004 07255 12/// /2504 10150 20100 39961 40158 57002 60006 90000=
07255,1998-06-27 06:00:00,16,1015.4,-0,77,12,40000,7.408,,,270,14.3,22.4,,,,,,,,,wg-a,,,,AAXX 27064 07255 02482 72704 10160 20120 39958 40154 55000 60006 875// 90600 333 10224 20143 60004=
07255,1998-06-27 09:00:00,19,1014.9,-0.2,60,11,40000,7.408,,,280,,,,,,,,,,,wg-a,,,,AAXX 27094 07255 12582 72804 10190 20110 39956 40149 58002 60006 878// 90900=
07255,1998-06-27 12:00:00,23,1013.8,-0.9,53,13,40000,18.52,,,240,,,,,,,,,,,wg-a,,,,AAXX 27124 07255 12682 72410 10230 20130 39947 40138 56009 60006 8513/ 91200=
07255,1998-06-27 15:00:00,25,1012.5,-1.1,44,12,40000,25.928,,,270,,,,,,,,,,,wg-a,,,,AAXX 27154 07255 12782 72714 10250 20120 39936 40125 58011 60006 82139 91500=
07255,1998-06-27 18:00:00,23,1013,0.4,47,11,0,25.928,,,280,15.7,25.8,,,,,,,,,wg-a,,,,AAXX 27184 07255 12/// /2814 10230 20110 39940 40130 53004 60006 91800 333 10258 20157=
07255,1998-06-28 00:00:00,16,1017.7,1.5,88,14,0,11.112,,,290,,,,,,,,,,,wg-a,,,,AAXX 28004 07255 12/// /2906 10160 20140 39981 40177 51015 60016 90000=
07255,1998-06-28 06:00:00,12,1020.9,1.7,94,11,12000,11.112,,,270,10.9,23.4,,,,,,,,,wg-a,,,,AAXX 28064 07255 02362 22706 10120 20110 30010 40209 52017 60006 81130 90600 333 10234 20109 60004=
07255,1998-06-28 09:00:00,17,1021.6,0.9,63,10,20000,14.816,,38.892,300,,,,,,,,,,,wg-a,,,,AAXX 28094 07255 12570 /3008 10170 20100 30019 40216 51009 60006 85100 90900 333 91021=
07255,1998-06-28 12:00:00,21,1020.7,-0.6,43,8,500,14.816,,,250,,,,,,,,,,,wg-a,,,,AAXX 28124 07255 12600 32508 10210 20080 30013 40207 58006 60006 83100 91200=
07255,1998-06-28 18:00:00,21,1020.5,-0,43,8,0,11.112,,,310,12.4,22.6,,,,,,,,,wg-a,,,,AAXX 28184 07255 12/// /3106 10210 20080 30012 40205 55000 60006 91800 333 10226 20124=
07255,1998-06-29 00:00:00,13,1022.1,0.1,82,10,0,7.408,,,120,,,,,,,,,,,wg-a,,,,AAXX 29004 07255 12/// /1204 10130 20100 30022 40221 52001 60006 90000=
07255,1998-06-29 06:00:00,13,1022.1,0.3,82,10,20000,3.704,,,240,10.3,21.4,,,,,,,,,wg-a,,,,AAXX 29064 07255 02770 52402 10130 20100 30022 40221 51003 60006 83530 90600 333 10214 20103 60004=
07255,1998-06-29 09:00:00,21,1021.4,-0.2,46,9,22000,3.704,,,210,,,,,,,,,,,wg-a,,,,AAXX 29094 07255 12672 22102 10210 20090 30020 40214 58002 60006 81101 90900=
07255,1998-06-29 12:00:00,23,1020,-1.2,44,10,25000,11.112,,,330,,,,,,,,,,,wg-a,,,,AAXX 29124 07255 12675 23306 10230 20100 30008 40200 56012 60006 82101 91200=
07255,1998-06-29 15:00:00,26,1018.1,-1.7,37,10,500,7.408,,,340,,,,,,,,,,,wg-a,,,,AAXX 29154 07255 12700 43404 10260 20100 39991 40181 56017 60006 81101 91500=
07255,1998-06-29 18:00:00,25,1017.4,-0.8,41,11,0,14.816,,,360,12.7,26.4,,,,,,,,,wg-a,,,,AAXX 29184 07255 12/// /3608 10250 20110 39983 40174 56008 60006 91800 333 10264 20127=
07255,1998-06-30 00:00:00,15,1019.3,0.3,77,11,0,11.112,,,320,,,,,,,,,,,wg-a,,,,AAXX 30004 07255 12/// /3206 10150 20110 39996 40193 51003 60006 90000=
07255,1998-06-30 06:00:00,13,1017.8,-0.4,88,11,28000,3.704,,,300,11.6,24.4,,,,,,,,,wg-a,,,,AAXX 30064 07255 02/78 53002 10130 20110 39980 40178 56004 60006 81032 90600 333 10244 20116 60004=
07255,1998-06-30 09:00:00,20,1017.4,-0,56,11,500,14.816,,,290,,,,,,,,,,,wg-a,,,,AAXX 30094 07255 12500 72908 10200 20110 39980 40174 55000 60006 84832 90900=
07255,1998-06-30 12:00:00,21,1017,-0.3,53,11,28000,22.224,,,300,,,,,,,,,,,wg-a,,,,AAXX 30124 07255 12678 83012 10210 20110 39977 40170 55003 60006 82437 91200=
07255,1998-06-30 15:00:00,22,1016.1,-0.8,50,11,35000,14.816,,,280,,,,,,,,,,,wg-a,,,,AAXX 30154 07255 12781 72808 10220 20110 39969 40161 57008 60006 81432 91500=
07255,1998-06-30 18:00:00,22,1014.8,-1.2,50,11,0,18.52,,,300,13.5,23.3,,,,,,,,,wg-a,,,,AAXX 30184 07255 12/// /3010 10220 20110 39957 40148 56012 60006 91800 333 10233 20135=
07255,1998-07-01 00:00:00,16,1014.9,-0.1,82,13,0,7.408,,,270,,,,,,,,,,,wg-a,,,,AAXX 01004 07255 12/// /2704 10160 20130 39954 40149 58001 60006 90000=
07255,1998-07-01 06:00:00,14,1013.4,-0.3,94,13,28000,7.408,,,200,13,22.5,,,,,,,,,wg-a,,,,AAXX 01064 07255 02/78 72004 10140 20130 39938 40134 55003 60006 8207/ 90600 333 10225 20130 60004=
07255,1998-07-01 09:00:00,19,1011.3,-1.8,78,15,35000,14.816,,,90,,,,,,,,,,,wg-a,,,,AAXX 01094 07255 12581 70908 10190 20150 39920 40113 56018 60006 8187/ 90900=
07255,1998-07-01 12:00:00,21,1009.4,-1.7,64,14,35000,25.928,,,80,,,,,,,,,,,wg-a,,,,AAXX 01124 07255 12581 70814 10210 20140 39903 40094 58017 60006 86131 91200=
07255,1998-07-01 15:00:00,25,1006.9,-2.2,47,13,35000,22.224,,,80,,,,,,,,,,,wg-a,,,,AAXX 01154 07255 12681 50812 10250 20130 39881 40069 56022 60006 81130 91500=
07255,1998-07-01 18:00:00,21,1007.8,0.6,73,16,0,14.816,,,70,14.4,25,,,,,,,,,wg-a,,,,AAXX 01184 07255 32/// /0708 10210 20160 39887 40078 53006 91800 333 10250 20144=
07255,1998-07-02 00:00:00,17,1009.1,0.9,77,13,0,14.816,,,70,,,,,,,,,,,wg-a,,,,AAXX 02004 07255 12/// /0708 10170 20130 39897 40091 50009 60006 90000=
07255,1998-07-02 06:00:00,16,1010.3,0.8,82,13,12000,14.816,,,90,16,20.6,,,,,1,,,,wg-a,,,,AAXX 02064 07255 02562 80908 10160 20130 39909 40103 53008 60006 885// 90600 333 10206 20160 60014=
07255,1998-07-02 09:00:00,18,1010.6,0.4,83,15,12000,14.816,,,110,,,,,,,,,,21,wg-a,,,,AAXX 02094 07255 02562 81108 10180 20150 39913 40106 51004 61000 72162 878// 90900 333 ////=
07255,1998-07-02 12:00:00,19,1011.7,1.2,88,17,9000,11.112,,,90,,,,1,,,,,,3,wg-a,,,,AAXX 02124 07255 02559 70906 10190 20170 39925 40117 51012 60016 70362 878// 91200 333 60017=
07255,1998-07-02 15:00:00,17,1012.2,0.3,94,16,8000,22.224,,,60,,,,0,,,,,,61,wg-a,,,,AAXX 02154 07255 12458 70612 10170 20160 39928 40122 53003 60007 76161 878// 91500=
07255,1998-07-02 18:00:00,18,1011.9,-0.2,83,15,0,14.816,,,90,16.2,20.9,,,,,,,,,wg-a,,,,AAXX 02184 07255 32/// /0908 10180 20150 39926 40119 56002 91800 333 10209 20162=
07255,1998-07-03 00:00:00,14,1014.2,0.2,94,13,0,7.408,,,330,,,,,,,,,,,wg-a,,,,AAXX 03004 07255 12/// /3304 10140 20130 39945 40142 53002 60006 90000=
07255,1998-07-03 06:00:00,15,1015.7,1.8,94,14,3000,3.704,,,270,13.2,18.3,,,,,,,,10,wg-a,,,,AAXX 03064 07255 02430 82702 10150 20140 39960 40157 53018 61000 71062 878// 90600 333 10183 20132 6002=
07255,1998-07-03 09:00:00,15,1016.7,1,94,14,3500,7.408,,,330,,,,2,,,,,,10,wg-a,,,,AAXX 03094 07255 12335 83304 10150 20140 39970 40167 53010 60027 71062 885// 90900=
07255,1998-07-03 12:00:00,18,1018.4,1.9,77,14,9000,11.112,,,20,,,,,,,,,,1,wg-a,,,,AAXX 03124 07255 02559 70206 10180 20140 39989 40184 51019 60026 70162 8587/ 91200 333 61000=
07255,1998-07-03 15:00:00,22,1018.6,0.5,57,13,18000,11.112,,,350,,,,,,,,,,,wg-a,,,,AAXX 03154 07255 12568 /3506 10220 20130 39994 40186 52005 60006 85200 91500=
07255,1998-07-03 18:00:00,22,1019.9,1.2,53,12,0,18.52,,,350,14.4,22.7,,,,,,,,,wg-a,,,,AAXX 03184 07255 32/// /3510 10220 20120 30006 40199 53012 91800 333 10227 20144=
07255,1998-07-04 00:00:00,13,1024.1,1.4,88,11,0,7.408,,,330,,,,,,,,,,,wg-a,,,,AAXX 04004 07255 12/// /3304 10130 20110 30042 40241 51014 60006 90000=
07255,1998-07-04 06:00:00,13,1025.3,0.9,88,11,8000,3.704,,,30,9.7,21.6,,,,,2,,,,wg-a,,,,AAXX 04064 07255 02/58 30302 10130 20110 30053 40253 52009 60006 82032 90600 333 10216 20097 60024=
07255,1998-07-04 09:00:00,18,1025.7,0.7,59,10,15000,3.704,,,260,,,,,,,,,,,wg-a,,,,AAXX 04094 07255 12565 /2602 10180 20100 30060 40257 51007 60006 86200 90900=
07255,1998-07-04 12:00:00,21,1024.8,-0.6,43,8,500,7.408,,,10,,,,,,,,,,,wg-a,,,,AAXX 04124 07255 12600 /0104 10210 20080 30054 40248 58006 60006 81100 91200=
07255,1998-07-04 15:00:00,23,1023.7,-1,41,9,40000,11.112,,,340,,,,,,,,,,,wg-a,,,,AAXX 04154 07255 12782 23406 10230 20090 30044 40237 58010 60006 81102 91500=
07255,1998-07-04 18:00:00,23,1022.9,-0.8,44,10,0,14.816,,,350,12.6,24,,,,,,,,,wg-a,,,,AAXX 04184 07255 12/// /3508 10230 20100 30036 40229 55008 60006 91800 333 10240 20126=
07255,1998-07-05 00:00:00,15,1023.6,-0.2,77,11,0,11.112,,,310,,,,,,,,,,,wg-a,,,,AAXX 05004 07255 12/// /3106 10150 20110 30038 40236 58002 60006 90000=
07255,1998-07-05 06:00:00,13,1023.5,0.2,94,12,3800,7.408,,,300,11.6,23.1,,,,,,,,10,wg-a,,,,AAXX 05064 07255 02538 23004 10130 20120 30036 40235 50002 60006 71000 82500 90600 333 10231 20116 60004=
07255,1998-07-05 09:00:00,19,1022.9,-0.2,68,13,10000,14.816,,,290,,,,,,,,,,,wg-a,,,,AAXX 05094 07255 12560 /2908 10190 20130 30034 40229 58002 60006 86500 90900=
07255,1998-07-05 12:00:00,23,1021.7,-1,41,9,25000,18.52,,,300,,,,,,,,,,,wg-a,,,,AAXX 05124 07255 12675 /3010 10230 20090 30024 40217 58010 60006 81500 91200=
07255,1998-07-05 15:00:00,24,1020.2,-1.3,41,10,25000,14.816,,,300,,,,,,,,,,,wg-a,,,,AAXX 05154 07255 12/75 03008 10240 20100 30011 40202 57013 60006 80000 91500=
07255,1998-07-05 18:00:00,23,1019.2,-1.1,50,12,0,14.816,,,290,12.8,24.6,,,,,,,,,wg-a,,,,AAXX 05184 07255 12/// /2908 10230 20120 30000 40192 56011 60006 91800 333 10246 20128=
07255,1998-07-06 00:00:00,14,1019.4,-0.5,88,12,0,3.704,,,330,,,,,,,,,,,wg-a,,,,AAXX 06004 07255 12/// /3302 10140 20120 39996 40194 58005 60006 90000=
07255,1998-07-06 06:00:00,13,1017.3,-0.9,94,12,6000,0,,,0,11.5,23.4,,,,,,,,,wg-a,,,,AAXX 06064 07255 02556 70000 10130 20120 39975 40173 58009 60006 875// 90600 333 10234 20115 60004=
07255,1998-07-06 09:00:00,18,1016.5,-0.5,68,12,15000,3.704,,,230,,,,,,,,,,,wg-a,,,,AAXX 06094 07255 12565 /2302 10180 20120 39970 40165 58005 60006 86100 90900=
07255,1998-07-06 12:00:00,23,1014.1,-2,50,12,28000,11.112,,,290,,,,,,,,,,,wg-a,,,,AAXX 06124 07255 12678 /2906 10230 20120 39950 40141 58020 60006 81100 91200=
07255,1998-07-06 15:00:00,25,1012,-1.9,41,11,40000,11.112,,,330,,,,,,,,,,,wg-a,,,,AAXX 06154 07255 12/82 03306 10250 20110 39931 40120 56019 60006 80000 91500=
07255,1998-07-06 18:00:00,24,1010.2,-1.8,47,12,0,14.816,,,350,13.2,25.6,,,,,,,,,wg-a,,,,AAXX 06184 07255 12/// /3508 10240 20120 39913 40102 56018 60006 91800 333 10256 20132=
07255,1998-07-07 00:00:00,16,1010.7,-0.6,77,12,0,7.408,,,350,,,,,,,,,,,wg-a,,,,AAXX 07004 07255 12/// /3504 10160 20120 39912 40107 58006 60006 90000=
07255,1998-07-07 06:00:00,14,1010.2,0.2,88,12,12000,7.408,,,330,12.1,24,,,,,,,,,wg-a,,,,AAXX 07064 07255 02/62 53304 10140 20120 39906 40102 53002 60006 81032 90600 333 10240 20121 60004=
07255,1998-07-07 09:00:00,18,1011.5,1.6,68,12,15000,11.112,,,10,,,,,,,,,,,wg-a,,,,AAXX 07094 07255 12565 80106 10180 20120 39922 40115 53016 60006 878// 90900=
07255,1998-07-07 12:00:00,18,1012.5,0.9,68,12,20000,14.816,,,330,,,,,,,,,,,wg-a,,,,AAXX 07124 07255 12570 83308 10180 20120 39931 40125 53009 60006 878// 91200=
07255,1998-07-07 15:00:00,19,1013.1,0.6,64,12,25000,25.928,,,350,,,,,,,,,,,wg-a,,,,AAXX 07154 07255 12675 73514 10190 20120 39937 40131 53006 60006 878// 91500=
07255,1998-07-07 18:00:00,18,1013.9,0.8,68,12,0,14.816,,,340,13.5,21.2,,,,,,,,,wg-a,,,,AAXX 07184 07255 12/// /3408 10180 20120 39945 40139 53008 60006 91800 333 10212 20135=
07255,1998-07-08 00:00:00,15,1017,0.6,82,12,0,7.408,,,310,,,,,,,,,,,wg-a,,,,AAXX 08004 07255 12/// /3104 10150 20120 39973 40170 50006 60006 90000=
07255,1998-07-08 06:00:00,15,1017.5,1,82,12,18000,3.704,,,240,13.3,18.7,,,,,,,,,wg-a,,,,AAXX 08064 07255 02768 72402 10150 20120 39978 40175 52010 60006 84532 90600 333 10187 20133 60004=
07255,1998-07-08 09:00:00,18,1017.7,0.4,56,9,25000,7.408,,,340,,,,,,,,,,,wg-a,,,,AAXX 08094 07255 12675 73404 10180 20090 39982 40177 50004 60006 85802 90900=
07255,1998-07-08 12:00:00,22,1017.3,-0.1,46,10,28000,14.816,,,310,,,,,,,,,,,wg-a,,,,AAXX 08124 07255 12578 73108 10220 20100 39981 40173 58001 60006 872// 91200=
07255,1998-07-08 15:00:00,23,1017,-0.3,38,8,25000,14.816,,,330,,,,,,,,,,,wg-a,,,,AAXX 08154 07255 12775 63308 10230 20080 39978 40170 57003 60006 86800 91500=
07255,1998-07-08 18:00:00,22,1016.5,-0.5,43,9,0,14.816,,,320,15,23.2,,,,,,,,,wg-a,,,,AAXX 08184 07255 12/// /3208 10220 20090 39973 40165 57005 60006 91800 333 10232 20150=
07255,1998-07-09 00:00:00,14,1018.6,0.1,72,9,0,7.408,,,300,,,,,,,,,,,wg-a,,,,AAXX 09004 07255 12/// /3004 10140 20090 39988 40186 51001 60006 90000=
07255,1998-07-09 06:00:00,12,1019.4,1.1,88,10,12000,7.408,,,280,10.6,22.1,,,,,,,,,wg-a,,,,AAXX 09064 07255 02/62 22804 10120 20100 39995 40194 53011 60006 81031 90600 333 10221 20106 60004=
07255,1998-07-09 09:00:00,17,1019.3,0.2,68,11,15000,14.816,,,300,,,,,,,,,,,wg-a,,,,AAXX 09094 07255 12465 83008 10170 20110 39997 40193 50002 60006 888// 90900=
07255,1998-07-09 12:00:00,19,1018.8,-0.4,60,11,18000,18.52,,,280,,,,,,,,,,,wg-a,,,,AAXX 09124 07255 12568 82810 10190 20110 39993 40188 58004 60006 885// 91200=
07255,1998-07-09 15:00:00,22,1017.3,-1.2,50,11,20000,22.224,,,280,,,,,,,,,,,wg-a,,,,AAXX 09154 07255 12670 /2812 10220 20110 39981 40173 57012 60006 85500 91500=
07255,1998-07-09 18:00:00,20,1018,0.5,53,10,0,18.52,,,280,12.4,22.7,,,,,,,,,wg-a,,,,AAXX 09184 07255 12/// /2810 10200 20100 39986 40180 53005 60006 91800 333 10227 20124=
07255,1998-07-10 00:00:00,17,1018.7,-0.3,68,11,0,22.224,,,260,,,,,,,,,,,wg-a,,,,AAXX 10004 07255 12/// /2612 10170 20110 39991 40187 56003 60006 90000=
07255,1998-07-10 06:00:00,14,1018.2,-0.1,100,14,4500,14.816,,,240,13.9,20.2,,,,,,,,50,wg-a,,,,AAXX 10064 07255 02345 82408 10140 20140 39985 40182 55001 61000 75052 887// 90600 333 10202 20139 6000=
07255,1998-07-10 09:00:00,16,1018.4,0.3,94,15,500,18.52,,,260,,,,1,,,,,,20,wg-a,,,,AAXX 10094 07255 12200 82610 10160 20150 39988 40184 53003 60017 72052 887// 90900=
07255,1998-07-10 12:00:00,17,1018.3,-0,94,16,4500,22.224,,,260,,,,0,,,,,,10,wg-a,,,,AAXX 10124 07255 02245 82612 10170 20160 39988 40183 55000 60016 71052 887// 91200 333 60007=
07255,1998-07-10 15:00:00,21,1016.9,-1.1,69,15,500,25.928,,,260,,,,1,,,,,,1,wg-a,,,,AAXX 10154 07255 12600 /2614 10210 20150 39977 40169 58011 60017 70186 851// 91500=
07255,1998-07-10 18:00:00,22,1016.5,-0.4,53,12,0,14.816,,,280,14.1,22.9,,,,,,,,,wg-a,,,,AAXX 10184 07255 32/// /2808 10220 20120 39973 40165 55004 91800 333 10229 20141=
07255,1998-07-11 00:00:00,17,1017.5,-0.3,82,14,0,18.52,,,260,,,,,,,,,,,wg-a,,,,AAXX 11004 07255 12/// /2610 10170 20140 39980 40175 58003 60006 90000=
07255,1998-07-11 06:00:00,16,1018.2,0.5,94,15,8000,14.816,,,270,15,21.8,,,,,,,,20,wg-a,,,,AAXX 11064 07255 02258 82708 10160 20150 39986 40182 53005 61000 72052 877// 90600 333 10218 20150 6003=
07255,1998-07-11 09:00:00,19,1018.2,0.2,68,13,35000,18.52,,,290,,,,,,,,,,,wg-a,,,,AAXX 11094 07255 12581 72910 10190 20130 39988 40182 50002 60006 878// 90900=
07255,1998-07-11 12:00:00,22,1018.2,0.2,46,10,35000,22.224,,,260,,,,,,,,,,,wg-a,,,,AAXX 11124 07255 12681 62612 10220 20100 39990 40182 50002 60006 84202 91200=
07255,1998-07-11 15:00:00,24,1017.5,-0.6,38,9,35000,25.928,,,290,,,,,,,,,,,wg-a,,,,AAXX 11154 07255 12681 72914 10240 20090 39984 40175 56006 60006 82102 91500=
07255,1998-07-11 18:00:00,22,1016.9,-0.7,46,10,0,22.224,,,270,15.9,23.8,,,,,,,,,wg-a,,,,AAXX 11184 07255 12/// /2712 10220 20100 39977 40169 56007 60006 91800 333 10238 20159=
07255,1998-07-12 00:00:00,17,1017,-0.5,72,12,0,22.224,,,260,,,,,,,,,,,wg-a,,,,AAXX 12004 07255 12/// /2612 10170 20120 39975 40170 56005 60006 90000=
07255,1998-07-12 06:00:00,15,1017.6,0,94,14,11000,22.224,,,240,14.5,22.9,,,,,,,,,wg-a,,,,AAXX 12064 07255 02261 72412 10150 20140 39979 40176 50000 60006 875// 90600 333 10229 20145 60004=
07255,1998-07-12 09:00:00,18,1017,-0.3,83,15,500,22.224,,,260,,,,,,,,,,,wg-a,,,,AAXX 12094 07255 12400 72612 10180 20150 39976 40170 56003 60006 878// 90900=
07255,1998-07-12 12:00:00,23,1015.7,-1,61,15,500,25.928,,,250,,,,,,,,,,,wg-a,,,,AAXX 12124 07255 12500 72514 10230 20150 39966 40157 58010 60006 87500 91200=
07255,1998-07-12 15:00:00,25,1014.2,-1.3,54,15,40000,29.632,,46.3,260,,,,,,,,,,,wg-a,,,,AAXX 12154 07255 12682 /2616 10250 20150 39953 40142 58013 60006 81500 91500 333 91025=
07255,1998-07-12 18:00:00,24,1012.8,-1.5,54,14,0,29.632,,,250,15.1,25.5,,,,,,,,,wg-a,,,,AAXX 12184 07255 12/// /2516 10240 20140 39938 40128 56015 60006 91800 333 10255 20151=
07255,1998-07-13 00:00:00,16,1013.1,-0.8,88,14,0,7.408,,,270,,,,,,,,,,,wg-a,,,,AAXX 13004 07255 12/// /2704 10160 20140 39936 40131 57008 60006 90000=
07255,1998-07-13 06:00:00,16,1012.2,0.4,88,14,15000,14.816,,,240,13.5,24.4,,,,,,,,,wg-a,,,,AAXX 13064 07255 02365 72408 10160 20140 39927 40122 50004 60006 875// 90600 333 10244 20135 60004=
07255,1998-07-13 12:00:00,19,1011.5,-0,83,16,500,25.928,,,250,,,,,,,,,,60,wg-a,,,,AAXX 13124 07255 02300 82514 10190 20160 39922 40115 55000 61000 76062 877// 91200 333 6100=
07255,1998-07-13 15:00:00,16,1013.4,1.7,88,14,25000,18.52,,,330,,,,3,,,,,,1,wg-a,,,,AAXX 13154 07255 12475 83310 10160 20140 39939 40134 53017 60037 70162 878// 91500=
07255,1998-07-13 18:00:00,19,1013.7,0.5,68,13,0,11.112,,,310,15.7,21.2,,,,,,,,,wg-a,,,,AAXX 13184 07255 32/// /3106 10190 20130 39944 40137 51005 91800 333 10212 20157=
07255,1998-07-14 00:00:00,12,1017.3,1.1,76,8,0,7.408,,,320,,,,,,,,,,,wg-a,,,,AAXX 14004 07255 12/// /3204 10120 20080 39974 40173 51011 60006 90000=
07255,1998-07-14 06:00:00,11,1018.3,1,87,9,35000,7.408,,,300,8.3,19.3,,,,,6,,,,wg-a,,,,AAXX 14064 07255 02681 33004 10110 20090 39983 40183 51010 60006 81501 90600 333 10193 20083 60064=
07255,1998-07-14 09:00:00,16,1018.7,0.7,59,8,35000,11.112,,,290,,,,,,,,,,,wg-a,,,,AAXX 14094 07255 12581 /2906 10160 20080 39990 40187 51007 60006 85201 90900=
07255,1998-07-14 12:00:00,20,1018,-0.4,40,6,35000,14.816,,,300,,,,,,,,,,,wg-a,,,,AAXX 14124 07255 12681 /3008 10200 20060 39986 40180 58004 60006 85200 91200=
07255,1998-07-14 15:00:00,21,1017.1,-0.8,38,6,35000,14.816,,,310,,,,,,,,,,,wg-a,,,,AAXX 14154 07255 12781 53108 10210 20060 39978 40171 57008 60006 85800 91500=
07255,1998-07-14 18:00:00,19,1017,-0.2,43,6,0,7.408,,,310,10.6,21.3,,,,,,,,,wg-a,,,,AAXX 14184 07255 12/// /3104 10190 20060 39976 40170 58002 60006 91800 333 10213 20106=
07255,1998-07-15 00:00:00,12,1018.9,0.6,76,8,0,7.408,,,280,,,,,,,,,,,wg-a,,,,AAXX 15004 07255 12/// /2804 10120 20080 39990 40189 51006 60006 90000=
07255,1998-07-15 06:00:00,11,1020,0.9,87,9,25000,7.408,,,260,9.6,19.6,,,,,,,,,wg-a,,,,AAXX 15064 07255 02675 /2604 10110 20090 30000 40200 53009 60006 83501 90600 333 10196 20096 60004=
07255,1998-07-15 09:00:00,16,1020,0.3,59,8,500,11.112,,,280,,,,,,,,,,,wg-a,,,,AAXX 15094 07255 12500 72806 10160 20080 30003 40200 50003 60006 86801 90900=
07255,1998-07-15 12:00:00,20,1019.6,-0.1,46,8,35000,14.816,,,280,,,,,,,,,,,wg-a,,,,AAXX 15124 07255 12681 72808 10200 20080 30002 40196 55001 60006 86501 91200=
07255,1998-07-15 15:00:00,21,1018.7,-0.8,43,8,35000,18.52,,,280,,,,,,,,,,,wg-a,,,,AAXX 15154 07255 12681 72810 10210 20080 39994 40187 56008 60006 86101 91500=
07255,1998-07-15 18:00:00,20,1017.9,-0.9,49,9,0,11.112,,,290,11,21.2,,,,,,,,,wg-a,,,,AAXX 15184 07255 12/// /2906 10200 20090 39985 40179 58009 60006 91800 333 10212 20110=
07255,1998-07-16 00:00:00,15,1017.1,-1.1,77,11,0,11.112,,,220,,,,,,,,,,,wg-a,,,,AAXX 16004 07255 12/// /2206 10150 20110 39974 40171 57011 60006 90000=
07255,1998-07-16 06:00:00,15,1016.5,0.2,77,11,22000,14.816,,,250,13.9,20.3,,,,,,,,,wg-a,,,,AAXX 16064 07255 02772 82508 10150 20110 39968 40165 53002 60006 8357/ 90600 333 10203 20139 60004=
07255,1998-07-16 09:00:00,17,1015.8,-0.5,68,11,25000,22.224,,,260,,,,,,,,,,21,wg-a,,,,AAXX 16094 07255 02575 82612 10170 20110 39963 40158 58005 61000 72162 8687/ 90900 333 ////=
07255,1998-07-16 12:00:00,19,1015.7,0.1,68,13,20000,29.632,,,250,,,,,,,,,,21,wg-a,,,,AAXX 16124 07255 02570 82516 10190 20130 39964 40157 51001 61000 72162 878// 91200 333 6100=
07255,1998-07-16 18:00:00,21,1015.2,-0.2,78,17,0,29.632,,,250,14.8,22.1,,,,,,,,,wg-a,,,,AAXX 16184 07255 32/// /2516 10210 20170 39960 40152 58002 91800 333 10221 20148=
07255,1998-07-17 00:00:00,17,1017.3,0.7,88,15,0,22.224,,,260,,,,,,,,,,,wg-a,,,,AAXX 17004 07255 12/// /2612 10170 20150 39978 40173 51007 60006 90000=
07255,1998-07-17 06:00:00,16,1017.9,0.7,77,12,35000,18.52,,,260,15.6,20.5,,,,,,,,,wg-a,,,,AAXX 17064 07255 02681 72610 10160 20120 39983 40179 51007 60006 875// 90600 333 10205 20156 61000=
07255,1998-07-17 09:00:00,18,1018.3,0.5,73,13,35000,22.224,,,260,,,,,,,,,,,wg-a,,,,AAXX 17094 07255 12481 72612 10180 20130 39988 40183 50005 60006 878// 90900=
07255,1998-07-17 12:00:00,20,1018,-0.2,68,14,35000,22.224,,,260,,,,,,,,,,,wg-a,,,,AAXX 17124 07255 12581 72612 10200 20140 39986 40180 58002 60006 875// 91200=
07255,1998-07-17 15:00:00,22,1017.4,-0.4,60,14,35000,29.632,,,250,,,,,,,,,,,wg-a,,,,AAXX 17154 07255 12581 72516 10220 20140 39982 40174 58004 60006 878// 91500=
07255,1998-07-17 18:00:00,20,1017.3,-0.2,83,17,0,11.112,,,270,16,23.7,,,,,,,,,wg-a,,,,AAXX 17184 07255 12/// /2706 10200 20170 39980 40173 55002 60006 91800 333 10237 20160=
07255,1998-07-18 00:00:00,18,1017.5,-0.1,88,16,0,11.112,,,250,,,,,,,,,,,wg-a,,,,AAXX 18004 07255 12/// /2506 10180 20160 39980 40175 58001 60006 90000=
07255,1998-07-18 06:00:00,15,1017.5,0.7,94,14,500,11.112,,,300,15,20.3,,,,,,,,21,wg-a,,,,AAXX 18064 07255 02300 73006 10150 20140 39979 40175 53007 61000 72165 875// 90600 333 10203 20150 6001=
07255,1998-07-18 09:00:00,17,1017.8,0.4,88,15,28000,14.816,,,270,,,,0,,,,,,1,wg-a,,,,AAXX 18094 07255 12378 72708 10170 20150 39983 40178 51004 60007 70152 87800 90900=
07255,1998-07-18 12:00:00,22,1016.8,-0.7,57,13,40000,18.52,,,280,,,,,,,,,,1,wg-a,,,,AAXX 18124 07255 12582 72810 10220 20130 39976 40168 58007 60006 70152 87202 91200=
07255,1998-07-18 15:00:00,25,1015.5,-1.1,47,13,35000,18.52,,,290,,,,,,,,,,,wg-a,,,,AAXX 18154 07255 12681 72910 10250 20130 39965 40155 56011 60006 84202 91500=
07255,1998-07-18 18:00:00,24,1015,-0.5,50,13,0,11.112,,,320,14.4,25.7,,,,,,,,,wg-a,,,,AAXX 18184 07255 32/// /3206 10240 20130 39960 40150 55005 91800 333 10257 20144=
07255,1998-07-19 00:00:00,15,1016.7,0,88,13,0,3.704,,,120,,,,,,,,,,,wg-a,,,,AAXX 19004 07255 12/// /1202 10150 20130 39971 40167 50000 60006 90000=
07255,1998-07-19 06:00:00,16,1015.3,-0.6,82,13,500,11.112,,,100,11.8,24.3,,,,,,,,,wg-a,,,,AAXX 19064 07255 02/00 11006 10160 20130 39957 40153 57006 60006 81031 90600 333 10243 20118 60004=
07255,1998-07-19 09:00:00,25,1013.7,-0.9,54,15,35000,14.816,,,120,,,,,,,,,,,wg-a,,,,AAXX 19094 07255 12/81 21208 10250 20150 39948 40137 58009 60006 80002 90900=
07255,1998-07-19 12:00:00,31,1012.1,-1.2,38,15,35000,14.816,,,200,,,,,,,,,,,wg-a,,,,AAXX 19124 07255 12/81 32008 10310 20150 39936 40121 58012 60006 80001 91200=
07255,1998-07-19 15:00:00,34,1010.2,-1.7,34,16,35000,14.816,,,200,,,,,,,,,,,wg-a,,,,AAXX 19154 07255 12881 42008 10340 20160 39919 40102 58017 60006 81181 91500=
07255,1998-07-19 18:00:00,34,1009.5,-0.7,34,16,0,11.112,,,280,15.8,34.3,,,,,,,,,wg-a,,,,AAXX 19184 07255 12/// /2806 10340 20160 39912 40095 55007 60006 91800 333 10343 20158=
07255,1998-07-20 00:00:00,23,1011.2,0.7,69,17,0,11.112,,,180,,,,,,,,,,,wg-a,,,,AAXX 20004 07255 12/// /1806 10230 20170 39922 40112 51007 60006 90000=
07255,1998-07-20 06:00:00,21,1012.1,0.5,88,19,12000,14.816,,,190,19.8,33.8,,,,,,,,80,wg-a,,,,AAXX 20064 07255 02662 81908 10210 20190 39930 40121 53005 61000 78096 8598/ 90600 333 10338 20198 6000=
07255,1998-07-20 09:00:00,25,1010.8,-1.1,65,18,18000,11.112,,,180,,,,0,,,,,,1,wg-a,,,,AAXX 20094 07255 12768 71806 10250 20180 39919 40108 55011 60007 70196 8428/ 90900=
07255,1998-07-20 12:00:00,33,1008,-2.2,32,14,20000,22.224,,,140,,,,,,,,,,2,wg-a,,,,AAXX 20124 07255 12/70 31412 10330 20140 39897 40080 58022 60006 70298 83080 91200=
07255,1998-07-20 15:00:00,37,1005.3,-2.5,16,7,25000,25.928,,,200,,,,,,,,,,,wg-a,,,,AAXX 20154 07255 12/75 12014 10370 20070 39872 40053 58025 60006 81080 91500=
07255,1998-07-20 18:00:00,35,1003.9,-1.5,20,9,0,29.632,,,210,20.2,36.8,,,,,,,,,wg-a,,,,AAXX 20184 07255 32/// /2116 10350 20090 39857 40039 56015 91800 333 10368 20202=
07255,1998-07-21 00:00:00,21,1010.7,4.7,69,15,0,11.112,,,270,,,,,,,,,,,wg-a,,,,AAXX 21004 07255 12/// /2706 10210 20150 39916 40107 51047 60006 90000=
07255,1998-07-21 06:00:00,17,1013,1.4,94,16,1800,14.816,,,200,16.8,35.2,,,,,,,,21,wg-a,,,,AAXX 21064 07255 02718 82008 10170 20160 39936 40130 53014 61000 72162 8197/ 90600 333 10352 20168 6005=
07255,1998-07-21 09:00:00,18,1014.4,1.4,94,17,25000,14.816,,,250,,,,,,,,,,21,wg-a,,,,AAXX 21094 07255 02475 82508 10180 20170 39950 40144 51014 61000 72162 8587/ 90900 333 ////=
07255,1998-07-21 12:00:00,21,1015.6,1.4,73,16,35000,25.928,,,230,,,,,,,,,,25,wg-a,,,,AAXX 21124 07255 02581 62314 10210 20160 39964 40156 51014 61000 72586 85330 91200 333 6100=
07255,1998-07-21 15:00:00,24,1015.5,0.1,47,12,40000,22.224,,,280,,,,,,,,,,,wg-a,,,,AAXX 21154 07255 12682 42812 10240 20120 39965 40155 53001 60006 83230 91500=
07255,1998-07-21 18:00:00,24,1016.2,0.6,44,11,0,18.52,,,290,16.9,25.6,,,,,,,,,wg-a,,,,AAXX 21184 07255 32/// /2910 10240 20110 39971 40162 53006 91800 333 10256 20169=
07255,1998-07-22 00:00:00,15,1019.9,1.2,77,11,0,7.408,,,270,,,,,,,,,,,wg-a,,,,AAXX 22004 07255 12/// /2704 10150 20110 30002 40199 51012 60006 90000=
07255,1998-07-22 06:00:00,13,1020.1,0,94,12,500,0,,,0,11.7,23.8,,,,,,,,,wg-a,,,,AAXX 22064 07255 02700 30000 10130 20120 30003 40201 50000 60006 815/2 90600 333 10238 20117 61000=
07255,1998-07-22 09:00:00,21,1019.6,0,56,12,35000,3.704,,,250,,,,,,,,,,,wg-a,,,,AAXX 22094 07255 12681 22502 10210 20120 30003 40196 50000 60006 81101 90900=
07255,1998-07-22 12:00:00,25,1018.1,-1.2,44,12,35000,11.112,,,200,,,,0,,,,,,,wg-a,,,,AAXX 22124 07255 02681 /2006 10250 20120 39991 40181 58012 60006 81102 91200 333 60007=
07255,1998-07-22 15:00:00,27,1016.6,-1.4,32,9,35000,18.52,,,210,,,,,,,,,,,wg-a,,,,AAXX 22154 07255 12/81 72110 10270 20090 39977 40166 56014 60006 81032 91500=
07255,1998-07-22 18:00:00,27,1016.4,-0.2,34,10,0,14.816,,,260,13.5,28,,,,,,,,,wg-a,,,,AAXX 22184 07255 32/// /2608 10270 20100 39975 40164 55002 91800 333 10280 20135=
07255,1998-07-23 00:00:00,19,1016.7,-0.5,64,12,0,7.408,,,170,,,,,,,,,,,wg-a,,,,AAXX 23004 07255 12/// /1704 10190 20120 39973 40167 58005 60006 90000=
07255,1998-07-23 06:00:00,18,1017.8,1,88,16,10000,11.112,,,260,16.8,26.5,,,,,,,,,wg-a,,,,AAXX 23064 07255 02/60 /2606 10180 20160 39983 40178 53010 60006 90600 333 10265 20168 60004=
07255,1998-07-23 09:00:00,21,1018.3,0.7,64,14,20000,11.112,,,270,,,,,,,,,,21,wg-a,,,,AAXX 23094 07255 02570 /2706 10210 20140 39990 40183 53007 61000 72162 81830 90900 333 ////=
07255,1998-07-23 12:00:00,24,1017.7,-0.4,47,12,500,11.112,,,250,,,,,,,,,,3,wg-a,,,,AAXX 23124 07255 02700 72506 10240 20120 39986 40177 56004 61000 70362 8254/ 91200 333 ////=
07255,1998-07-23 15:00:00,27,1017.2,-0.3,32,9,500,18.52,,,260,,,,,,,,,,,wg-a,,,,AAXX 23154 07255 12/00 42610 10270 20090 39983 40172 58003 60006 84040 91500=
07255,1998-07-23 18:00:00,26,1017.8,0.5,42,12,0,11.112,,,280,17.8,27.4,,,,,,,,,wg-a,,,,AAXX 23184 07255 32/// /2806 10260 20120 39988 40178 53005 91800 333 10274 20178=
07255,1998-07-24 00:00:00,18,1019.8,0.4,77,14,0,0,,,0,,,,,,,,,,,wg-a,,,,AAXX 24004 07255 12/// /0000 10180 20140 30003 40198 53004 60006 90000=
07255,1998-07-24 06:00:00,18,1020.2,0.6,83,15,15000,3.704,,,320,16,25.6,,,,,,,,,wg-a,,,,AAXX 24064 07255 02665 /3202 10180 20150 30007 40202 52006 60006 85500 90600 333 10256 20160 61000=
07255,1998-07-24 09:00:00,23,1019.8,-0.1,57,14,25000,7.408,,,80,,,,,,,,,,,wg-a,,,,AAXX 24094 07255 12575 20804 10230 20140 30006 40198 58001 60006 82200 90900=
07255,1998-07-24 12:00:00,25,1019.1,-0.5,50,14,25000,7.408,,,360,,,,,,,,,,,wg-a,,,,AAXX 24124 07255 12675 /3604 10250 20140 30001 40191 58005 60006 85200 91200=
07255,1998-07-24 15:00:00,25,1018.8,-0.3,50,14,25000,14.816,,,40,,,,,,,,,,,wg-a,,,,AAXX 24154 07255 12675 70408 10250 20140 39998 40188 56003 60006 878// 91500=
07255,1998-07-24 18:00:00,25,1018.9,-0,47,13,0,11.112,,,40,18,26.6,,,,,,,,,wg-a,,,,AAXX 24184 07255 12/// /0406 10250 20130 39998 40189 55000 60006 91800 333 10266 20180=
07255,1998-07-25 00:00:00,20,1020.8,0.5,60,12,0,18.52,,,50,,,,,,,,,,,wg-a,,,,AAXX 25004 07255 12/// /0510 10200 20120 30014 40208 52005 60006 90000=
07255,1998-07-25 06:00:00,16,1021.9,0.8,72,11,28000,7.408,,,20,15.6,24.6,,,,,,,,,wg-a,,,,AAXX 25064 07255 02678 70204 10160 20110 30022 40219 53008 60006 86802 90600 333 10246 20156 60004=
07255,1998-07-25 09:00:00,21,1021.7,0.1,53,11,28000,14.816,,,100,,,,,,,,,,,wg-a,,,,AAXX 25094 07255 12778 51008 10210 20110 30023 40217 50001 60006 855/0 90900=
07255,1998-07-25 12:00:00,25,1020.4,-1,39,10,500,14.816,,,40,,,,,,,,,,,wg-a,,,,AAXX 25124 07255 12600 30408 10250 20100 30013 40204 57010 60006 83200 91200=
07255,1998-07-25 15:00:00,26,1019.1,-1.2,34,9,500,11.112,,,20,,,,,,,,,,,wg-a,,,,AAXX 25154 07255 12700 50206 10260 20090 30001 40191 58012 60006 83102 91500=
07255,1998-07-25 18:00:00,26,1017.8,-1.3,32,8,0,14.816,,,20,16.2,26.6,,,,,,,,,wg-a,,,,AAXX 25184 07255 12/// /0208 10260 20080 39988 40178 56013 60006 91800 333 10266 20162=
07255,1998-07-26 00:00:00,18,1018,-0.5,49,7,0,18.52,,,80,,,,,,,,,,,wg-a,,,,AAXX 26004 07255 12/// /0810 10180 20070 39985 40180 58005 60006 90000=
07255,1998-07-26 06:00:00,16,1016.7,-0.7,63,9,500,3.704,,,110,14.3,25.9,,,,,,,,,wg-a,,,,AAXX 26064 07255 02/00 61102 10160 20090 39971 40167 58007 60006 80001 90600 333 10259 20143 60004=
07255,1998-07-26 09:00:00,23,1015.5,-0.8,44,10,500,7.408,,,90,,,,,,,,,,,wg-a,,,,AAXX 26094 07255 12/00 70904 10230 20100 39963 40155 58008 60006 80002 90900=
07255,1998-07-26 12:00:00,27,1014.2,-1,32,9,500,7.408,,,80,,,,,,,,,,,wg-a,,,,AAXX 26124 07255 12/00 70804 10270 20090 39953 40142 56010 60006 82082 91200=
07255,1998-07-26 15:00:00,27,1013,-1.2,32,9,500,18.52,,,360,,,,,,,,,,,wg-a,,,,AAXX 26154 07255 12700 73610 10270 20090 39941 40130 56012 60006 81182 91500=
07255,1998-07-26 18:00:00,24,1012.8,-0.3,38,9,0,11.112,,,10,16.4,28,,,,,,,,,wg-a,,,,AAXX 26184 07255 12/// /0106 10240 20090 39938 40128 55003 60006 91800 333 10280 20164=
07255,1998-07-27 00:00:00,20,1013,-0.4,49,9,0,3.704,,,140,,,,,,,,,,,wg-a,,,,AAXX 27004 07255 12/// /1402 10200 20090 39937 40130 58004 60006 90000=
07255,1998-07-27 06:00:00,17,1012,-0,82,14,20000,7.408,,,110,16.2,23.9,,,,,1,,,2,wg-a,,,,AAXX 27064 07255 02670 71104 10170 20140 39925 40120 55000 60006 70262 8357/ 90600 333 10239 20162 60014=
07255,1998-07-27 09:00:00,19,1012.5,0.7,88,17,25000,7.408,,,260,,,,0,,,,,,3,wg-a,,,,AAXX 27094 07255 12475 72604 10190 20170 39932 40125 51007 60007 70362 8384/ 90900=
07255,1998-07-27 12:00:00,23,1013,0.7,50,12,25000,22.224,,,290,,,,,,,,,,1,wg-a,,,,AAXX 27124 07255 12575 /2912 10230 20120 39939 40130 52007 60016 70162 86800 91200=
07255,1998-07-27 15:00:00,25,1013.3,0.4,41,11,35000,25.928,,,290,,,,,,,,,,,wg-a,,,,AAXX 27154 07255 12581 52914 10250 20110 39943 40133 53004 60006 85800 91500=
07255,1998-07-27 18:00:00,23,1014.2,0.8,50,12,0,18.52,,,320,16.5,25.5,,,,,,,,,wg-a,,,,AAXX 27184 07255 32/// /3210 10230 20120 39951 40142 53008 91800 333 10255 20165=
07255,1998-07-28 00:00:00,17,1017.3,0.8,68,11,0,7.408,,,260,,,,,,,,,,,wg-a,,,,AAXX 28004 07255 12/// /2604 10170 20110 39978 40173 51008 60006 90000=
07255,1998-07-28 06:00:00,16,1017,-0.1,77,12,25000,11.112,,,280,15.9,22.8,,,,,,,,,wg-a,,,,AAXX 28064 07255 02675 72806 10160 20120 39974 40170 58001 60006 8553/ 90600 333 10228 20159 60004=
07255,1998-07-28 09:00:00,18,1017.4,0.5,68,12,500,18.52,,,260,,,,,,,,,,,wg-a,,,,AAXX 28094 07255 12500 82610 10180 20120 39979 40174 50005 60006 848// 90900=
07255,1998-07-28 12:00:00,19,1016.7,-0.6,64,12,25000,22.224,,,270,,,,,,,,,,,wg-a,,,,AAXX 28124 07255 12575 82712 10190 20120 39973 40167 57006 60006 878// 91200=
07255,1998-07-28 15:00:00,19,1015.4,-1.3,68,13,500,14.816,,,250,,,,,,,,,,60,wg-a,,,,AAXX 28154 07255 02600 82508 10190 20130 39960 40154 57013 61000 76062 878// 91500 333 ////=
07255,1998-07-28 18:00:00,16,1015,-0.5,94,15,0,22.224,,,240,16.3,20.3,,,,,,,,,wg-a,,,,AAXX 28184 07255 32/// /2412 10160 20150 39955 40150 58005 91800 333 10203 20163=
07255,1998-07-29 00:00:00,17,1014.2,-0.3,94,16,0,18.52,,,260,,,,,,,,,,,wg-a,,,,AAXX 29004 07255 12/// /2610 10170 20160 39948 40142 58003 60006 90000=
07255,1998-07-29 06:00:00,16,1014.9,0.7,100,16,2500,18.52,,,260,16,17.5,,,,,,,,51,wg-a,,,,AAXX 29064 07255 02225 82610 10160 20160 39954 40149 52007 61000 75152 887// 90600 333 10175 20160 6000=
07255,1998-07-29 09:00:00,18,1015.5,0.7,88,16,20000,18.52,,,260,,,,,,,,,,1,wg-a,,,,AAXX 29094 07255 02470 72610 10180 20160 39961 40155 51007 61000 70152 878// 90900 333 ////=
07255,1998-07-29 12:00:00,20,1015.1,-0.3,60,12,500,25.928,,44.448,260,,,,,,,,,,1,wg-a,,,,AAXX 29124 07255 02500 /2614 10200 20120 39958 40151 58003 61000 70152 86800 91200 333 6100 91024=
07255,1998-07-29 15:00:00,24,1013.4,-1.4,47,12,35000,29.632,,48.152,260,,,,,,,,,,,wg-a,,,,AAXX 29154 07255 12681 32616 10240 20120 39944 40134 58014 60006 81102 91500 333 91026=
07255,1998-07-29 18:00:00,23,1012.5,-1,53,13,0,29.632,,,260,16.1,24.3,,,,,,,,,wg-a,,,,AAXX 29184 07255 32/// /2616 10230 20130 39934 40125 56010 91800 333 10243 20161=
07255,1998-07-30 00:00:00,18,1014,0.2,83,15,0,22.224,,,270,,,,,,,,,,,wg-a,,,,AAXX 30004 07255 12/// /2712 10180 20150 39946 40140 50002 60006 90000=
07255,1998-07-30 06:00:00,17,1012.8,-0.1,94,16,1800,18.52,,,250,16.3,22.7,,,,,,,,10,wg-a,,,,AAXX 30064 07255 02218 82510 10170 20160 39934 40128 55001 61000 71052 887// 90600 333 10227 20163 6001=
07255,1998-07-30 09:00:00,16,1013.9,1,94,15,4000,14.816,,,270,,,,3,,,,,,10,wg-a,,,,AAXX 30094 07255 12240 82708 10160 20150 39944 40139 51010 60037 71065 887// 90900=
07255,1998-07-30 12:00:00,17,1014.4,0.6,88,15,22000,14.816,,,270,,,,3,,,,,,21,wg-a,,,,AAXX 30124 07255 02472 72708 10170 20150 39950 40144 50006 60066 72165 878// 91200 333 60037=
07255,1998-07-30 18:00:00,21,1013.7,0.1,46,9,0,18.52,,,290,15,22.4,,,,,,,,,wg-a,,,,AAXX 30184 07255 32/// /2910 10210 20090 39945 40137 53001 91800 333 10224 20150=
07255,1998-07-31 00:00:00,15,1016.3,0.6,94,14,0,14.816,,,260,,,,,,,,,,,wg-a,,,,AAXX 31004 07255 12/// /2608 10150 20140 39966 40163 53006 60006 90000=
07255,1998-07-31 06:00:00,12,1017.9,1,94,11,18000,7.408,,,260,11.1,21.3,,,,,6,,,,wg-a,,,,AAXX 31064 07255 02668 32604 10120 20110 39980 40179 53010 60006 82502 90600 333 10213 20111 60064=
07255,1998-07-31 09:00:00,17,1018,0.5,68,11,25000,7.408,,,280,,,,,,,,,,,wg-a,,,,AAXX 31094 07255 12575 62804 10170 20110 39985 40180 51005 60006 85802 90900=
07255,1998-07-31 12:00:00,19,1018,0.1,60,11,20000,3.704,,,230,,,,,,,,,,,wg-a,,,,AAXX 31124 07255 12570 52302 10190 20110 39986 40180 50001 60006 84802 91200=
07255,1998-07-31 15:00:00,22,1017.4,-0.5,46,10,20000,11.112,,,270,,,,,,,,,,,wg-a,,,,AAXX 31154 07255 12570 52706 10220 20100 39981 40174 58005 60006 84802 91500=
07255,1998-07-31 18:00:00,22,1017,-0.3,43,9,0,11.112,,,300,11.6,22.6,,,,,,,,,wg-a,,,,AAXX 31184 07255 12/// /3006 10220 20090 39978 40170 57003 60006 91800 333 10226 20116=
07255,1998-08-01 00:00:00,14,1017.7,-0.5,82,11,0,7.408,,,60,,,,,,,,,,,wg-a,,,,AAXX 01004 07255 12/// /0604 10140 20110 39980 40177 58005 60006 90000=
07255,1998-08-01 06:00:00,13,1016.3,-0.3,88,11,35000,3.704,,,230,12.2,21.7,,,,,,,,,wg-a,,,,AAXX 01064 07255 02781 82302 10130 20110 39965 40163 55003 60006 8157/ 90600 333 10217 20122 60004=
07255,1998-08-01 09:00:00,17,1016.1,0.1,72,12,28000,7.408,,,180,,,,,,,,,,,wg-a,,,,AAXX 01094 07255 12778 81804 10170 20120 39966 40161 53001 60006 8157/ 90900=
07255,1998-08-01 12:00:00,18,1016.3,0.2,68,12,500,11.112,,,190,,,,,,,,,,,wg-a,,,,AAXX 01124 07255 12500 71906 10180 20120 39968 40163 50002 60006 8287/ 91200=
07255,1998-08-01 15:00:00,22,1015.8,-0.2,53,12,500,18.52,,,150,,,,,,,,,,,wg-a,,,,AAXX 01154 07255 12600 31510 10220 20120 39966 40158 58002 60006 81282 91500=
07255,1998-08-01 18:00:00,19,1016,-0,64,12,0,14.816,,,150,12.7,21.8,,,,,,,,,wg-a,,,,AAXX 01184 07255 12/// /1508 10190 20120 39966 40160 55000 60006 91800 333 10218 20127=
07255,1998-08-02 00:00:00,15,1017.9,-0.1,88,13,0,7.408,,,130,,,,,,,,,,,wg-a,,,,AAXX 02004 07255 12/// /1304 10150 20130 39982 40179 56001 60006 90000=
07255,1998-08-02 06:00:00,13,1018.9,0.7,94,12,7000,7.408,,,110,12,19.1,,,,,,,,,wg-a,,,,AAXX 02064 07255 02757 71104 10130 20120 39990 40189 51007 60006 81532 90600 333 10191 20120 60004=
07255,1998-08-02 09:00:00,18,1019.4,0.9,77,14,18000,7.408,,,90,,,,,,,,,,,wg-a,,,,AAXX 02094 07255 12468 70904 10180 20140 39999 40194 53009 60006 8317/ 90900=
07255,1998-08-02 12:00:00,22,1019.3,0.1,57,13,25000,14.816,,,120,,,,,,,,,,,wg-a,,,,AAXX 02124 07255 12575 51208 10220 20130 30000 40193 51001 60006 83332 91200=
07255,1998-08-02 15:00:00,17,1020.4,0.8,82,14,8000,7.408,,,340,,,,0,,,,,,61,wg-a,,,,AAXX 02154 07255 12658 73404 10170 20140 30008 40204 53008 60007 76196 8396/ 91500=
07255,1998-08-02 18:00:00,18,1020.4,0.1,77,14,0,3.704,,,70,12.7,22.7,,,,,,,,,wg-a,,,,AAXX 02184 07255 32/// /0702 10180 20140 30009 40204 53001 91800 333 10227 20127=
07255,1998-08-03 00:00:00,13,1023.2,0.5,94,12,0,7.408,,,350,,,,,,,,,,,wg-a,,,,AAXX 03004 07255 12/// /3504 10130 20120 30033 40232 53005 60006 90000=
07255,1998-08-03 06:00:00,11,1025.1,0.8,100,11,100,3.704,,,310,10.4,18.2,,,,,1,,,45,wg-a,,,,AAXX 03064 07255 02/01 93102 10110 20110 30050 40251 53008 60006 74541 89/// 90600 333 10182 20104 60014=
07255,1998-08-03 09:00:00,15,1025.8,1,100,15,11000,7.408,,,320,,,,,,,,,,,wg-a,,,,AAXX 03094 07255 12/61 /3204 10150 20150 30060 40258 53010 60006 90900=
07255,1998-08-03 12:00:00,22,1024.6,-0.7,53,12,25000,14.816,,,360,,,,,,,,,,1,wg-a,,,,AAXX 03124 07255 12575 33608 10220 20120 30053 40246 58007 60006 70141 83230 91200=
07255,1998-08-03 15:00:00,25,1023.7,-0.8,39,10,500,11.112,,,330,,,,,,,,,,,wg-a,,,,AAXX 03154 07255 12500 23306 10250 20100 30045 40237 57008 60006 82101 91500=
07255,1998-08-03 18:00:00,24,1023.4,-0.3,44,11,0,7.408,,,360,11.2,25.2,,,,,,,,,wg-a,,,,AAXX 03184 07255 12/// /3604 10240 20110 30042 40234 55003 60006 91800 333 10252 20112=
07255,1998-08-04 00:00:00,14,1025.2,0.2,82,11,0,11.112,,,240,,,,,,,,,,,wg-a,,,,AAXX 04004 07255 12/// /2406 10140 20110 30053 40252 50002 60006 90000=
07255,1998-08-04 06:00:00,16,1025.8,0.3,82,13,20000,14.816,,,260,12.4,23.7,,,,,,,,,wg-a,,,,AAXX 04064 07255 02670 72608 10160 20130 30060 40258 53003 60006 875// 90600 333 10237 20124 60004=
07255,1998-08-04 09:00:00,16,1026.6,0.8,94,15,3200,14.816,,,270,,,,2,,,,,,10,wg-a,,,,AAXX 04094 07255 12232 82708 10160 20150 30068 40266 53008 60027 71065 877// 90900=
07255,1998-08-04 12:00:00,17,1027.4,0.9,100,17,4000,7.408,,,290,,,,1,,,,,,10,wg-a,,,,AAXX 04124 07255 02240 82904 10170 20170 30077 40274 51009 60036 71065 877// 91200 333 60017=
07255,1998-08-04 15:00:00,19,1026.7,-0.5,88,17,13000,14.816,,,300,,,,,,,,,,1,wg-a,,,,AAXX 04154 07255 02363 83008 10190 20170 30072 40267 58005 61000 70152 877// 91500 333 ////=
07255,1998-08-04 18:00:00,22,1026.8,0.2,78,18,0,7.408,,,300,14.9,22,,,,,,,,,wg-a,,,,AAXX 04184 07255 32/// /3004 10220 20180 30074 40268 53002 91800 333 10220 20149=
07255,1998-08-05 00:00:00,17,1028.7,0.2,82,14,0,11.112,,,360,,,,,,,,,,,wg-a,,,,AAXX 05004 07255 12/// /3606 10170 20140 30089 40287 52002 60006 90000=
07255,1998-08-05 06:00:00,13,1030.1,1.2,88,11,20000,0,,,0,11.8,21.8,,,,,3,,,,wg-a,,,,AAXX 05064 07255 02/70 00000 10130 20110 30101 40301 53012 60006 80000 90600 333 10218 20118 60034=
07255,1998-08-05 09:00:00,20,1030.5,0.8,49,9,25000,18.52,,,70,,,,,,,,,,,wg-a,,,,AAXX 05094 07255 12/75 00710 10200 20090 30109 40305 51008 60006 80000 90900=
07255,1998-08-05 12:00:00,24,1029.5,-0.8,36,8,25000,18.52,,,40,,,,,,,,,,,wg-a,,,,AAXX 05124 07255 12/75 00410 10240 20080 30101 40295 58008 60006 80000 91200=
07255,1998-08-05 15:00:00,26,1028.1,-1.2,34,9,25000,18.52,,,20,,,,,,,,,,,wg-a,,,,AAXX 05154 07255 12/75 00210 10260 20090 30089 40281 58012 60006 80000 91500=
07255,1998-08-05 18:00:00,25,1027.6,-0.6,36,9,0,14.816,,,40,13.5,25.9,,,,,,,,,wg-a,,,,AAXX 05184 07255 12/// /0408 10250 20090 30083 40276 56006 60006 91800 333 10259 20135=
07255,1998-08-06 00:00:00,17,1027.9,-0.6,68,11,0,7.408,,,50,,,,,,,,,,,wg-a,,,,AAXX 06004 07255 12/// /0504 10170 20110 30081 40279 57006 60006 90000=
07255,1998-08-06 06:00:00,14,1027.4,-0,82,11,15000,0,,,0,11.9,24.6,,,,,,,,,wg-a,,,,AAXX 06064 07255 02/65 00000 10140 20110 30074 40274 55000 60006 80000 90600 333 10246 20119 60004=
07255,1998-08-06 09:00:00,23,1026.5,-0.2,50,12,20000,14.816,,,90,,,,,,,,,,,wg-a,,,,AAXX 06094 07255 12/70 10908 10230 20120 30072 40265 58002 60006 80001 90900=
07255,1998-08-06 12:00:00,27,1025.1,-1.2,34,10,500,11.112,,,60,,,,,,,,,,,wg-a,,,,AAXX 06124 07255 12/00 10606 10270 20100 30060 40251 58012 60006 80001 91200=
07255,1998-08-06 15:00:00,29,1023.3,-1.6,27,8,35000,14.816,,,50,,,,,,,,,,,wg-a,,,,AAXX 06154 07255 12/81 10508 10290 20080 30044 40233 56016 60006 80001 91500=
07255,1998-08-06 18:00:00,28,1022.8,-0.6,30,9,0,14.816,,,50,13.5,28.9,,,,,,,,,wg-a,,,,AAXX 06184 07255 12/// /0508 10280 20090 30038 40228 56006 60006 91800 333 10289 20135=
07255,1998-08-07 00:00:00,19,1023,-0.9,52,9,0,11.112,,,60,,,,,,,,,,,wg-a,,,,AAXX 07004 07255 12/// /0606 10190 20090 30035 40230 56009 60006 90000=
07255,1998-08-07 06:00:00,14,1023.3,0.4,82,11,18000,3.704,,,210,13.3,27.8,,,,,,,,,wg-a,,,,AAXX 07064 07255 02/68 02102 10140 20110 30035 40233 53004 60006 80000 90600 333 10278 20133 60004=
07255,1998-08-07 09:00:00,25,1022.6,0,44,12,25000,11.112,,,90,,,,,,,,,,,wg-a,,,,AAXX 07094 07255 12/75 10906 10250 20120 30035 40226 50000 60006 80001 90900=
07255,1998-08-07 12:00:00,29,1021.3,-1.1,29,9,25000,18.52,,,60,,,,,,,,,,,wg-a,,,,AAXX 07124 07255 12/75 10610 10290 20090 30024 40213 58011 60006 80001 91200=
07255,1998-08-07 15:00:00,32,1019.3,-1.7,23,8,25000,18.52,,,100,,,,,,,,,,,wg-a,,,,AAXX 07154 07255 12/75 11010 10320 20080 30007 40193 56017 60006 80001 91500=
07255,1998-08-07 18:00:00,31,1018.6,-0.8,27,10,0,14.816,,,100,14.5,32.2,,,,,,,,,wg-a,,,,AAXX 07184 07255 12/// /1008 10310 20100 39999 40186 56008 60006 91800 333 10322 20145=
07255,1998-08-08 00:00:00,21,1019.1,-0.5,49,10,0,11.112,,,100,,,,,,,,,,,wg-a,,,,AAXX 08004 07255 12/// /1006 10210 20100 39998 40191 58005 60006 90000=
07255,1998-08-08 09:00:00,27,1016.9,-0.4,42,13,20000,11.112,,,120,,,,,,,,,,,wg-a,,,,AAXX 08094 07255 12/70 01206 10270 20130 39980 40169 58004 60006 80000 90900=
07255,1998-08-08 12:00:00,33,1015.6,-0.9,28,12,20000,7.408,,,220,,,,,,,,,,,wg-a,,,,AAXX 08124 07255 12/70 02204 10330 20120 39971 40156 58009 60006 80000 91200=
07255,1998-08-08 15:00:00,36,1013.8,-1.6,19,9,25000,7.408,,,180,,,,,,,,,,,wg-a,,,,AAXX 08154 07255 12/75 01804 10360 20090 39955 40138 58016 60006 80000 91500=
07255,1998-08-08 18:00:00,35,1013.3,-0.6,19,8,0,11.112,,,270,17.8,36.1,,,,,,,,,wg-a,,,,AAXX 08184 07255 32/// /2706 10350 20080 39949 40133 56006 91800 333 10361 20178=
07255,1998-08-09 00:00:00,22,1015.2,-0.1,53,12,0,3.704,,,210,,,,,,,,,,,wg-a,,,,AAXX 09004 07255 12/// /2102 10220 20120 39960 40152 58001 60006 90000=
07255,1998-08-09 06:00:00,18,1015.8,0.4,73,13,20000,7.408,,,110,15.9,34.7,,,,,,,,,wg-a,,,,AAXX 09064 07255 02/70 01104 10180 20130 39964 40158 53004 60006 80000 90600 333 10347 20159 60004=
07255,1998-08-09 09:00:00,29,1015.4,0.2,35,12,25000,3.704,,,240,,,,,,,,,,,wg-a,,,,AAXX 09094 07255 12/75 02402 10290 20120 39966 40154 51002 60006 80000 90900=
07255,1998-08-09 12:00:00,35,1014.3,-0.7,22,10,25000,7.408,,,280,,,,,,,,,,,wg-a,,,,AAXX 09124 07255 12/75 02804 10350 20100 39959 40143 58007 60006 80000 91200=
07255,1998-08-09 15:00:00,36,1012.9,-1.3,18,8,25000,11.112,,,10,,,,,,,,,,,wg-a,,,,AAXX 09154 07255 12/75 00106 10360 20080 39946 40129 58013 60006 80000 91500=
07255,1998-08-09 18:00:00,36,1012,-0.9,18,8,0,3.704,,,10,18.1,36.9,,,,,,,,,wg-a,,,,AAXX 09184 07255 12/// /0102 10360 20080 39937 40120 56009 60006 91800 333 10369 20181=
07255,1998-08-10 00:00:00,23,1014.3,0.2,50,12,0,7.408,,,120,,,,,,,,,,,wg-a,,,,AAXX 10004 07255 12/// /1204 10230 20120 39952 40143 50002 60006 90000=
07255,1998-08-10 06:00:00,18,1015.9,1,73,13,25000,3.704,,,120,17.3,35.6,,,,,,,,,wg-a,,,,AAXX 10064 07255 02/75 11202 10180 20130 39965 40159 53010 60006 80001 90600 333 10356 20173 60004=
07255,1998-08-10 09:00:00,30,1015.9,0.7,38,14,25000,3.704,,,270,,,,,,,,,,,wg-a,,,,AAXX 10094 07255 12/75 12702 10300 20140 39972 40159 51007 60006 80001 90900=
07255,1998-08-10 12:00:00,35,1015.3,-0.2,27,13,20000,11.112,,,320,,,,,,,,,,,wg-a,,,,AAXX 10124 07255 12/70 03206 10350 20130 39970 40153 58002 60006 80000 91200=
07255,1998-08-10 15:00:00,37,1014.6,-0.6,18,9,20000,7.408,,,290,,,,,,,,,,,wg-a,,,,AAXX 10154 07255 12/70 02904 10370 20090 39964 40146 56006 60006 80000 91500=
07255,1998-08-10 18:00:00,35,1014.8,-0,22,10,0,3.704,,,350,18.3,37.6,,,,,,,,,wg-a,,,,AAXX 10184 07255 12/// /3502 10350 20100 39964 40148 55000 60006 91800 333 10376 20183=
07255,1998-08-11 00:00:00,23,1017.2,0.3,53,13,0,7.408,,,150,,,,,,,,,,,wg-a,,,,AAXX 11004 07255 12/// /1504 10230 20130 39981 40172 52003 60006 90000=
07255,1998-08-11 06:00:00,20,1017.8,0.7,73,15,18000,7.408,,,130,19.6,35.2,,,,,,,,,wg-a,,,,AAXX 11064 07255 02/68 01304 10200 20150 39985 40178 53007 60006 80000 90600 333 10352 20196 60004=
07255,1998-08-11 09:00:00,30,1017.7,0.5,43,16,15000,11.112,,,230,,,,,,,,,,,wg-a,,,,AAXX 11094 07255 12/65 02306 10300 20160 39990 40177 51005 60006 80000 90900=
07255,1998-08-11 12:00:00,36,1016.6,-0.7,31,16,10000,14.816,,,260,,,,,,,,,,,wg-a,,,,AAXX 11124 07255 12/60 02608 10360 20160 39983 40166 58007 60006 80000 91200=
07255,1998-08-11 15:00:00,37,1015.3,-1.2,25,14,18000,18.52,,,260,,,,,,,,,,,wg-a,,,,AAXX 11154 07255 12/68 02610 10370 20140 39971 40153 57012 60006 80000 91500=
07255,1998-08-11 18:00:00,35,1015.6,0.1,32,16,0,11.112,,,310,20.2,37.8,,,,,,,,,wg-a,,,,AAXX 11184 07255 12/// /3106 10350 20160 39972 40156 53001 60006 91800 333 10378 20202=
07255,1998-08-12 00:00:00,22,1017,-0.2,60,14,0,7.408,,,240,,,,,,,,,,,wg-a,,,,AAXX 12004 07255 12/// /2404 10220 20140 39978 40170 58002 60006 90000=
07255,1998-08-12 06:00:00,20,1016.8,-0,73,15,10000,3.704,,,340,19.4,34.6,,,,,,,,,wg-a,,,,AAXX 12064 07255 02760 73402 10200 20150 39975 40168 55000 60006 8558/ 90600 333 10346 20194 60004=
07255,1998-08-12 09:00:00,25,1017,0.5,61,17,10000,7.408,,,310,,,,,,,,,,,wg-a,,,,AAXX 12094 07255 12860 63104 10250 20170 39980 40170 53005 60006 85081 90900=
07255,1998-08-12 12:00:00,30,1016.1,-0.5,43,16,12000,14.816,,,350,,,,,,,,,,,wg-a,,,,AAXX 12124 07255 12/62 43508 10300 20160 39975 40161 57005 60006 80001 91200=
07255,1998-08-12 18:00:00,28,1015.8,0.9,45,15,0,11.112,,,340,19.7,31.7,,,,,,,,,wg-a,,,,AAXX 12184 07255 12/// /3406 10280 20150 39970 40158 53009 60006 91800 333 10317 20197=
07255,1998-08-13 00:00:00,22,1018.1,1,57,13,0,14.816,,,30,,,,,,,,,,,wg-a,,,,AAXX 13004 07255 12/// /0308 10220 20130 39989 40181 50010 60006 90000=
07255,1998-08-13 06:00:00,15,1019.6,1,72,10,25000,3.704,,,340,14.2,28.3,,,,,,,,,wg-a,,,,AAXX 13064 07255 02/75 53402 10150 20100 39998 40196 53010 60006 84031 90600 333 10283 20142 60004=
07255,1998-08-13 09:00:00,19,1019.6,0.4,60,11,500,7.408,,,30,,,,,,,,,,,wg-a,,,,AAXX 13094 07255 12/00 30304 10190 20110 30002 40196 53004 60006 83031 90900=
07255,1998-08-13 12:00:00,24,1018.8,-0.6,34,7,500,11.112,,,330,,,,,,,,,,,wg-a,,,,AAXX 13124 07255 12/00 23306 10240 20070 39996 40188 58006 60006 80001 91200=
07255,1998-08-13 15:00:00,26,1017.5,-1.1,28,6,500,11.112,,,40,,,,,,,,,,,wg-a,,,,AAXX 13154 07255 12/00 50406 10260 20060 39985 40175 58011 60006 80001 91500=
07255,1998-08-13 18:00:00,25,1016.7,-0.9,28,5,0,14.816,,,360,14.6,26.2,,,,,,,,,wg-a,,,,AAXX 13184 07255 12/// /3608 10250 20050 39976 40167 56009 60006 91800 333 10262 20146=
07255,1998-08-14 00:00:00,16,1018.3,-0.2,55,7,0,7.408,,,20,,,,,,,,,,,wg-a,,,,AAXX 14004 07255 12/// /0204 10160 20070 39986 40183 58002 60006 90000=
07255,1998-08-14 06:00:00,13,1017.6,-0.1,72,8,20000,3.704,,,190,13,24.7,,,,,,,,,wg-a,,,,AAXX 14064 07255 02/70 61902 10130 20080 39978 40176 56001 60006 80004 90600 333 10247 20130 60004=
07255,1998-08-14 09:00:00,22,1016.5,-0.5,41,8,500,7.408,,,150,,,,,,,,,,,wg-a,,,,AAXX 14094 07255 12/00 61504 10220 20080 39973 40165 58005 60006 80001 90900=
07255,1998-08-14 12:00:00,26,1015.4,-0.9,30,7,35000,7.408,,,30,,,,,,,,,,,wg-a,,,,AAXX 14124 07255 12/81 60304 10260 20070 39964 40154 58009 60006 80001 91200=
07255,1998-08-14 15:00:00,28,1013.2,-2,27,7,35000,11.112,,,80,,,,,,,,,,,wg-a,,,,AAXX 14154 07255 12/81 60806 10280 20070 39944 40132 57020 60006 80001 91500=
07255,1998-08-15 06:00:00,15,1014.6,0.7,72,10,25000,7.408,,,100,13.7,26.8,,,,,,,,,wg-a,,,,AAXX 15064 07255 02/75 21004 10150 20100 39950 40146 53007 60006 80001 90600 333 10268 20137 60004=
07255,1998-08-15 09:00:00,25,1015,1,39,10,25000,3.704,,,80,,,,,,,,,,,wg-a,,,,AAXX 15094 07255 12/75 40802 10250 20100 39960 40150 51010 60006 80001 90900=
07255,1998-08-15 12:00:00,30,1014.8,0.1,24,7,500,3.704,,,330,,,,,,,,,,,wg-a,,,,AAXX 15124 07255 12/00 63302 10300 20070 39961 40148 51001 60006 80001 91200=
07255,1998-08-15 15:00:00,31,1014.7,-0.1,22,7,500,11.112,,,360,,,,,,,,,,,wg-a,,,,AAXX 15154 07255 12/00 73606 10310 20070 39960 40147 57001 60006 80001 91500=
07255,1998-08-15 18:00:00,28,1015.3,0.5,28,8,0,3.704,,,360,15,31.7,,,,,,,,,wg-a,,,,AAXX 15184 07255 12/// /3602 10280 20080 39965 40153 53005 60006 91800 333 10317 20150=
07255,1998-08-16 15:00:00,31,1018.4,-1.2,31,12,25000,11.112,,,330,,,,,,,,,,,wg-a,,,,AAXX 16154 07255 12/75 43306 10310 20120 39997 40184 58012 60006 80001 91500=
07255,1998-08-17 00:00:00,21,1018.8,-0.5,60,13,0,3.704,,,90,,,,,,,,,,,wg-a,,,,AAXX 17004 07255 12/// /0902 10210 20130 39995 40188 58005 60006 90000=
07255,1998-08-17 06:00:00,17,1019,0.5,82,14,20000,0,,,0,16.8,30,,,,,,,,,wg-a,,,,AAXX 17064 07255 02/70 00000 10170 20140 39995 40190 53005 60006 80000 90600 333 10300 20168 60004=
07255,1998-08-17 09:00:00,25,1018.8,0.3,54,15,22000,7.408,,,270,,,,,,,,,,,wg-a,,,,AAXX 17094 07255 12/72 02704 10250 20150 39998 40188 51003 60006 80000 90900=
07255,1998-08-17 12:00:00,30,1017.5,-1,40,15,25000,11.112,,,300,,,,,,,,,,,wg-a,,,,AAXX 17124 07255 12675 /3006 10300 20150 39988 40175 58010 60006 81100 91200=
07255,1998-08-17 15:00:00,32,1015.4,-2,34,14,25000,14.816,,,310,,,,,,,,,,,wg-a,,,,AAXX 17154 07255 12775 53108 10320 20140 39968 40154 58020 60006 84282 91500=
07255,1998-08-17 18:00:00,22,1016.6,0.6,69,16,0,25.928,,,200,17.3,31.6,,,,,,,,,wg-a,,,,AAXX 17184 07255 12/// /2014 10220 20160 39974 40166 53006 60006 91800 333 10316 20173=
07255,1998-08-18 00:00:00,19,1017.5,-0,88,17,0,11.112,,,140,,,,,,,,,,,wg-a,,,,AAXX 18004 07255 12/// /1406 10190 20170 39981 40175 55000 60006 90000=
07255,1998-08-18 06:00:00,16,1017.8,0.7,77,12,20000,3.704,,,340,15.6,22,,,,,,,,,wg-a,,,,AAXX 18064 07255 02/70 33402 10160 20120 39982 40178 53007 60006 80001 90600 333 10220 20156 60004=
07255,1998-08-18 09:00:00,21,1017.9,0.4,60,13,500,7.408,,,20,,,,,,,,,,,wg-a,,,,AAXX 18094 07255 12/00 70204 10210 20130 39986 40179 50004 60006 80004 90900=
07255,1998-08-18 12:00:00,26,1017.1,-0.4,42,12,45000,7.408,,,40,,,,,,,,,,,wg-a,,,,AAXX 18124 07255 12/83 20404 10260 20120 39982 40171 58004 60006 80001 91200=
07255,1998-08-18 15:00:00,28,1016.2,-0.8,35,11,35000,11.112,,,340,,,,,,,,,,,wg-a,,,,AAXX 18154 07255 12881 33406 10280 20110 39974 40162 58008 60006 81101 91500=
07255,1998-08-18 18:00:00,26,1016.5,0.2,37,10,0,11.112,,,340,15.7,28.5,,,,,,,,,wg-a,,,,AAXX 18184 07255 12/// /3406 10260 20100 39976 40165 53002 60006 91800 333 10285 20157=
07255,1998-08-19 00:00:00,18,1019.5,0.8,68,12,0,7.408,,,10,,,,,,,,,,,wg-a,,,,AAXX 19004 07255 12/// /0104 10180 20120 30000 40195 51008 60006 90000=
07255,1998-08-19 06:00:00,15,1020.2,0.6,94,14,20000,3.704,,,350,13.6,26.3,,,,,,,,,wg-a,,,,AAXX 19064 07255 02/70 13502 10150 20140 30005 40202 53006 60006 81031 90600 333 10263 20136 60004=
07255,1998-08-19 09:00:00,23,1020.1,0.4,61,15,20000,3.704,,,210,,,,,,,,,,,wg-a,,,,AAXX 19094 07255 12670 42102 10230 20150 30009 40201 51004 60006 84800 90900=
07255,1998-08-19 12:00:00,26,1019.2,-0.7,45,13,25000,14.816,,,10,,,,,,,,,,,wg-a,,,,AAXX 19124 07255 12675 40108 10260 20130 30002 40192 58007 60006 84800 91200=
07255,1998-08-19 15:00:00,27,1017.9,-1.2,39,12,25000,11.112,,,340,,,,,,,,,,,wg-a,,,,AAXX 19154 07255 12775 33406 10270 20120 39990 40179 57012 60006 83800 91500=
07255,1998-08-19 18:00:00,26,1017.3,-0.6,45,13,0,11.112,,,340,14.7,28.7,,,,,,,,,wg-a,,,,AAXX 19184 07255 12/// /3406 10260 20130 39984 40173 56006 60006 91800 333 10287 20147=
07255,1998-08-20 00:00:00,18,1019.1,-0.1,64,11,0,7.408,,,310,,,,,,,,,,,wg-a,,,,AAXX 20004 07255 12/// /3104 10180 20110 39996 40191 58001 60006 90000=
07255,1998-08-20 06:00:00,15,1019.3,0.5,77,11,20000,7.408,,,250,14.2,26.3,,,,,,,,,wg-a,,,,AAXX 20064 07255 02770 12504 10150 20110 39996 40193 53005 60006 81501 90600 333 10263 20142 60004=
07255,1998-08-20 09:00:00,23,1019.5,0.7,50,12,20000,14.816,,,300,,,,,,,,,,,wg-a,,,,AAXX 20094 07255 12/70 03008 10230 20120 30003 40195 51007 60006 80000 90900=
07255,1998-08-20 12:00:00,25,1018.6,-0.7,39,10,22000,25.928,,,280,,,,,,,,,,,wg-a,,,,AAXX 20124 07255 12772 12814 10250 20100 39996 40186 58007 60006 81100 91200=
07255,1998-08-20 15:00:00,27,1017.5,-1,34,10,25000,22.224,,40.744,300,,,,,,,,,,,wg-a,,,,AAXX 20154 07255 12775 23012 10270 20100 39986 40175 58010 60006 81101 91500 333 91022=
07255,1998-08-20 18:00:00,24,1017.2,-0.5,44,11,0,14.816,,,300,14.9,27.1,,,,,,,,,wg-a,,,,AAXX 20184 07255 12/// /3008 10240 20110 39981 40172 56005 60006 91800 333 10271 20149=
07255,1998-08-21 00:00:00,18,1018,-0.1,64,11,0,7.408,,,260,,,,,,,,,,,wg-a,,,,AAXX 21004 07255 12/// /2604 10180 20110 39985 40180 57001 60006 90000=
07255,1998-08-21 06:00:00,15,1016.9,-0.1,82,12,15000,25.928,,,260,15.1,24.3,,,,,,,,21,wg-a,,,,AAXX 21064 07255 02465 72614 10150 20120 39973 40169 55001 61000 72122 8683/ 90600 333 10243 20151 6100=
07255,1998-08-21 09:00:00,18,1016.1,-0.7,68,12,25000,31.484,,,250,,,,,,,,,,61,wg-a,,,,AAXX 21094 07255 02675 82517 10180 20120 39966 40161 58007 61000 76162 8653/ 90900 333 ////=
07255,1998-08-21 12:00:00,18,1015.7,-0.3,83,15,3000,38.892,,,260,,,,,,,,,,10,wg-a,,,,AAXX 21124 07255 02430 82621 10180 20150 39963 40157 56003 61000 71065 887// 91200 333 6100=
07255,1998-08-21 15:00:00,19,1014.4,-1.2,83,16,23000,42.596,,61.116,260,,,,0,,,,,,3,wg-a,,,,AAXX 21154 07255 12473 82623 10190 20160 39951 40144 56012 60007 70365 885// 91500 333 91033=
07255,1998-08-21 18:00:00,18,1013.9,-0.5,100,18,0,22.224,,,260,15.3,19.8,,1,,,,,,,wg-a,,,,AAXX 21184 07255 12/// /2612 10180 20180 39946 40139 56005 60017 91800 333 10198 20153=
07255,1998-08-22 00:00:00,18,1015.7,0.5,94,17,0,22.224,,,260,,,,,,,,,,,wg-a,,,,AAXX 22004 07255 12/// /2612 10180 20170 39963 40157 50005 60006 90000=
07255,1998-08-22 06:00:00,16,1016.7,0.1,94,15,25000,7.408,,,260,15.9,18.9,,,,,,,,60,wg-a,,,,AAXX 22064 07255 02675 82604 10160 20150 39971 40167 52001 61000 76062 875// 90600 333 10189 20159 6003=
07255,1998-08-22 09:00:00,16,1017.1,0.4,100,16,2000,7.408,,,260,,,,1,,,,,,10,wg-a,,,,AAXX 22094 07255 12220 82604 10160 20160 39975 40171 53004 60017 71065 887// 90900=
07255,1998-08-22 12:00:00,18,1015.2,-1.7,100,18,3500,18.52,,,260,,,,1,,,,,,10,wg-a,,,,AAXX 22124 07255 02235 82610 10180 20180 39958 40152 56017 60026 71065 877// 91200 333 60017=
07255,1998-08-22 15:00:00,19,1014,-1.1,94,18,12000,22.224,,,280,,,,1,,,,,,51,wg-a,,,,AAXX 22154 07255 12362 82812 10190 20180 39947 40140 57011 60017 75165 885// 91500=
07255,1998-08-22 18:00:00,20,1013.8,-0.2,88,18,0,25.928,,,270,15.9,19.7,,,,,,,,,wg-a,,,,AAXX 22184 07255 32/// /2714 10200 20180 39945 40138 55002 91800 333 10197 20159=
07255,1998-08-23 00:00:00,15,1018.1,2.4,94,14,0,11.112,,,40,,,,,,,,,,,wg-a,,,,AAXX 23004 07255 12/// /0406 10150 20140 39984 40181 52024 60056 90000=
07255,1998-08-23 06:00:00,14,1019.1,0.8,100,14,500,3.704,,,240,14.1,19.5,,,,,8,,,,wg-a,,,,AAXX 23064 07255 02200 62402 10140 20140 39994 40191 53008 60006 84801 90600 333 10195 20141 60084=
07255,1998-08-23 09:00:00,17,1020,1,82,14,25000,7.408,,,240,,,,,,,,,,,wg-a,,,,AAXX 23094 07255 12475 72404 10170 20140 30004 40200 52010 60006 8653/ 90900=
07255,1998-08-23 12:00:00,22,1018.9,-0.8,53,12,35000,11.112,,,290,,,,,,,,,,,wg-a,,,,AAXX 23124 07255 12681 42906 10220 20120 39996 40189 58008 60006 83101 91200=
07255,1998-08-23 15:00:00,24,1017.6,-1.1,44,11,35000,18.52,,,280,,,,,,,,,,,wg-a,,,,AAXX 23154 07255 12781 12810 10240 20110 39985 40176 58011 60006 81131 91500=
07255,1998-08-23 18:00:00,23,1016.5,-1.1,47,11,0,14.816,,,280,14.2,24.4,,,,,,,,,wg-a,,,,AAXX 23184 07255 12/// /2808 10230 20110 39974 40165 56011 60006 91800 333 10244 20142=
07255,1998-08-24 00:00:00,18,1016.1,-0.4,77,14,0,22.224,,,260,,,,,,,,,,,wg-a,,,,AAXX 24004 07255 12/// /2612 10180 20140 39966 40161 58004 60006 90000=
07255,1998-08-24 06:00:00,17,1014.4,-0.6,94,16,10000,31.484,,,250,16,23.1,,,,,,,,50,wg-a,,,,AAXX 24064 07255 02260 82517 10170 20160 39949 40144 55006 61000 75065 877// 90600 333 10231 20160 6001=
07255,1998-08-24 09:00:00,14,1016.9,2.3,100,14,3500,18.52,,,320,,,,4,,,,,,10,wg-a,,,,AAXX 24094 07255 12235 83210 10140 20140 39972 40169 53023 60047 71065 877// 90900=
07255,1998-08-24 12:00:00,18,1017.6,0.9,77,14,25000,14.816,,,300,,,,1,,,,,,21,wg-a,,,,AAXX 24124 07255 02475 73008 10180 20140 39981 40176 51009 60056 72165 84831 91200 333 60017=
07255,1998-08-24 15:00:00,21,1017.9,0.5,56,12,500,14.816,,,290,,,,,,,,,,,wg-a,,,,AAXX 24154 07255 12600 72908 10210 20120 39986 40179 50005 60006 878// 91500=
07255,1998-08-24 18:00:00,20,1018.6,0.6,60,12,0,11.112,,,300,14.3,21.6,,,,,,,,,wg-a,,,,AAXX 24184 07255 32/// /3006 10200 20120 39992 40186 52006 91800 333 10216 20143=
07255,1998-08-25 00:00:00,15,1021.1,0.7,88,13,0,7.408,,,60,,,,,,,,,,,wg-a,,,,AAXX 25004 07255 12/// /0604 10150 20130 30014 40211 50007 60006 90000=
07255,1998-08-25 06:00:00,14,1022,0.7,94,13,25000,3.704,,,320,13.5,19.9,,,,,5,,,,wg-a,,,,AAXX 25064 07255 02775 73202 10140 20130 30022 40220 53007 60006 875// 90600 333 10199 20135 60054=
07255,1998-08-25 09:00:00,19,1022,0.3,64,12,11000,3.704,,,300,,,,,,,,,,,wg-a,,,,AAXX 25094 07255 12/61 /3002 10190 20120 30025 40220 53003 60006 90900=
07255,1998-08-25 12:00:00,21,1021.4,-0.5,46,9,500,11.112,,,350,,,,,,,,,,,wg-a,,,,AAXX 25124 07255 12600 /3506 10210 20090 30020 40214 58005 60006 85200 91200=
07255,1998-08-25 15:00:00,23,1020,-1.2,41,9,500,11.112,,,310,,,,,,,,,,,wg-a,,,,AAXX 25154 07255 12700 33106 10230 20090 30008 40200 58012 60006 83100 91500=
07255,1998-08-25 18:00:00,22,1019,-1,46,10,0,7.408,,,350,14,23.9,,,,,,,,,wg-a,,,,AAXX 25184 07255 12/// /3504 10220 20100 39998 40190 56010 60006 91800 333 10239 20140=
07255,1998-08-26 00:00:00,14,1019.6,-0.6,88,12,0,3.704,,,160,,,,,,,,,,,wg-a,,,,AAXX 26004 07255 12/// /1602 10140 20120 39998 40196 58006 60006 90000=
07255,1998-08-26 06:00:00,12,1018.5,-0.2,94,11,10000,0,,,0,11.1,22.2,,,,,,,,,wg-a,,,,AAXX 26064 07255 02/60 /0000 10120 20110 39986 40185 55002 60006 90600 333 10222 20111 60004=
07255,1998-08-26 09:00:00,20,1017.8,-0.1,56,11,20000,3.704,,,310,,,,,,,,,,,wg-a,,,,AAXX 26094 07255 12/70 03102 10200 20110 39985 40178 58001 60006 80000 90900=
07255,1998-08-26 12:00:00,24,1016.7,-0.9,38,9,25000,11.112,,31.484,300,,,,,,,,,,,wg-a,,,,AAXX 26124 07255 12/75 03006 10240 20090 39976 40167 58009 60006 80000 91200 333 91017=
07255,1998-08-26 15:00:00,26,1015.1,-1.4,34,9,25000,14.816,,,310,,,,,,,,,,,wg-a,,,,AAXX 26154 07255 12675 23108 10260 20090 39962 40151 57014 60006 82101 91500=
07255,1998-08-26 18:00:00,24,1014.9,-0.4,41,10,0,11.112,,,340,11.7,26.3,,,,,,,,,wg-a,,,,AAXX 26184 07255 12/// /3406 10240 20100 39958 40149 56004 60006 91800 333 10263 20117=
07255,1998-08-27 00:00:00,15,1017.8,0.9,82,12,0,3.704,,,360,,,,,,,,,,,wg-a,,,,AAXX 27004 07255 12/// /3602 10150 20120 39981 40178 51009 60006 90000=
07255,1998-08-27 06:00:00,15,1018.7,1,72,10,25000,14.816,,,50,11.8,23.7,,,,,,,,,wg-a,,,,AAXX 27064 07255 02575 70508 10150 20100 39990 40187 53010 60006 878// 90600 333 10237 20118 60004=
07255,1998-08-27 09:00:00,17,1020.1,1.5,52,7,35000,25.928,,,60,,,,,,,,,,,wg-a,,,,AAXX 27094 07255 12581 30614 10170 20070 30005 40201 53015 60006 83802 90900=
07255,1998-08-27 12:00:00,18,1020.1,0,45,6,40000,18.52,,37.04,30,,,,,,,,,,,wg-a,,,,AAXX 27124 07255 12682 70310 10180 20060 30005 40201 50000 60006 878// 91200 333 91020=
07255,1998-08-27 15:00:00,18,1020.3,0.2,45,6,500,18.52,,,20,,,,,,,,,,,wg-a,,,,AAXX 27154 07255 12700 70210 10180 20060 30007 40203 50002 60006 878// 91500=
07255,1998-08-27 18:00:00,17,1020.3,-0.1,42,4,0,14.816,,,40,14.4,18.6,,,,,,,,,wg-a,,,,AAXX 27184 07255 12/// /0408 10170 20040 30006 40203 58001 60006 91800 333 10186 20144=
07255,1998-08-28 00:00:00,11,1022.7,0.6,76,7,0,11.112,,,50,,,,,,,,,,,wg-a,,,,AAXX 28004 07255 12/// /0506 10110 20070 30026 40227 50006 60006 90000=
07255,1998-08-28 06:00:00,9,1023.4,0.7,87,7,15000,11.112,,,30,8,16.6,,,,,,,,,wg-a,,,,AAXX 28064 07255 02/65 10306 10090 20070 30031 40234 53007 60006 80001 90600 333 10166 20080 60004=
07255,1998-08-28 09:00:00,15,1023.7,0.8,55,6,35000,22.224,,,60,,,,,,,,,,,wg-a,,,,AAXX 28094 07255 12681 30612 10150 20060 30039 40237 51008 60006 83131 90900=
07255,1998-08-28 12:00:00,17,1022.7,-0.9,52,7,35000,18.52,,,20,,,,,,,,,,,wg-a,,,,AAXX 28124 07255 12681 70210 10170 20070 30030 40227 58009 60006 875// 91200=
07255,1998-08-28 15:00:00,19,1021.6,-0.9,43,6,500,14.816,,,20,,,,,,,,,,,wg-a,,,,AAXX 28154 07255 12700 60208 10190 20060 30021 40216 57009 60006 86800 91500=
07255,1998-08-28 18:00:00,18,1021.4,-0.3,42,5,0,14.816,,,40,8.8,19.2,,,,,,,,,wg-a,,,,AAXX 28184 07255 12/// /0408 10180 20050 30018 40214 56003 60006 91800 333 10192 20088=
07255,1998-08-29 00:00:00,12,1022.4,-0.4,62,5,0,11.112,,,70,,,,,,,,,,,wg-a,,,,AAXX 29004 07255 12/// /0706 10120 20050 30024 40224 58004 60006 90000=
07255,1998-08-29 06:00:00,9,1022.6,0.5,81,6,20000,7.408,,,40,8,17.5,,,,,,,,,wg-a,,,,AAXX 29064 07255 02/70 10404 10090 20060 30024 40226 53005 60006 80001 90600 333 10175 20080 60004=
07255,1998-08-29 09:00:00,16,1022.7,0.5,45,4,500,18.52,,,80,,,,,,,,,,,wg-a,,,,AAXX 29094 07255 12600 /0810 10160 20040 30029 40227 51005 60006 81101 90900=
07255,1998-08-29 12:00:00,18,1021.4,-1.1,37,3,500,22.224,,,70,,,,,,,,,,,wg-a,,,,AAXX 29124 07255 12700 40712 10180 20030 30018 40214 58011 60006 815/1 91200=
07255,1998-08-29 15:00:00,19,1020.2,-1.1,40,5,500,18.52,,,70,,,,,,,,,,,wg-a,,,,AAXX 29154 07255 12700 20710 10190 20050 30007 40202 58011 60006 81501 91500=
07255,1998-08-29 18:00:00,18,1020.3,-0,42,5,0,18.52,,,70,9,19.1,,,,,,,,,wg-a,,,,AAXX 29184 07255 12/// /0710 10180 20050 30007 40203 54000 60006 91800 333 10191 20090=
07255,1998-08-30 00:00:00,12,1020.5,-0.6,62,5,0,11.112,,,80,,,,,,,,,,,wg-a,,,,AAXX 30004 07255 12/// /0806 10120 20050 30005 40205 56006 60006 90000=
07255,1998-08-30 06:00:00,8,1020.9,0.5,81,5,22000,7.408,,,90,7.4,17.5,,,,,,,,,wg-a,,,,AAXX 30064 07255 02/72 50904 10080 20050 30007 40209 53005 60006 80002 90600 333 10175 20074 60004=
07255,1998-08-30 09:00:00,17,1020.3,0,48,6,25000,22.224,,,110,,,,,,,,,,,wg-a,,,,AAXX 30094 07255 12/75 41112 10170 20060 30007 40203 50000 60006 80001 90900=
07255,1998-08-30 12:00:00,21,1019,-1.1,38,6,28000,18.52,,,100,,,,,,,,,,,wg-a,,,,AAXX 30124 07255 12/78 21010 10210 20060 39996 40190 58011 60006 80001 91200=
07255,1998-08-30 15:00:00,23,1017.4,-1.4,31,5,500,18.52,,,110,,,,,,,,,,,wg-a,,,,AAXX 30154 07255 12/00 11110 10230 20050 39982 40174 56014 60006 80001 91500=
07255,1998-08-30 18:00:00,22,1016.4,-1,38,7,0,14.816,,,90,8.4,23.5,,,,,,,,,wg-a,,,,AAXX 30184 07255 12/// /0908 10220 20070 39972 40164 58010 60006 91800 333 10235 20084=
07255,1998-08-31 00:00:00,14,1017.1,-0.5,67,8,0,11.112,,,90,,,,,,,,,,,wg-a,,,,AAXX 31004 07255 12/// /0906 10140 20080 39973 40171 58005 60006 90000=
07255,1998-08-31 06:00:00,12,1015.5,-0.4,76,8,12000,18.52,,,100,10.6,21.9,,,,,,,,,wg-a,,,,AAXX 31064 07255 02/62 11010 10120 20080 39956 40155 55004 60006 80002 90600 333 10219 20106 60004=
07255,1998-08-31 09:00:00,20,1014.6,-0.3,49,9,20000,22.224,,,120,,,,,,,,,,,wg-a,,,,AAXX 31094 07255 12/70 21212 10200 20090 39953 40146 56003 60006 80002 90900=
07255,1998-08-31 12:00:00,26,1013,-1.2,32,8,25000,14.816,,,120,,,,,,,,,,,wg-a,,,,AAXX 31124 07255 12/75 51208 10260 20080 39941 40130 57012 60006 81032 91200=
07255,1998-08-31 15:00:00,28,1011.5,-1.4,27,7,25000,7.408,,,120,,,,,,,,,,,wg-a,,,,AAXX 31154 07255 12/75 61204 10280 20070 39927 40115 57014 60006 84032 91500=
07255,1998-08-31 18:00:00,26,1011,-0.6,34,9,0,11.112,,,90,11.6,28.2,,,,,,,,,wg-a,,,,AAXX 31184 07255 12/// /0906 10260 20090 39921 40110 57006 60006 91800 333 10282 20116=
07255,1998-09-01 00:00:00,18,1011.7,-0.2,59,10,0,14.816,,,100,,,,,,,,,,,wg-a,,,,AAXX 01004 07255 12/// /1008 10180 20100 39923 40117 58002 60006 90000=
07255,1998-09-01 06:00:00,16,1012.8,1.5,72,11,18000,7.408,,,110,15.5,25.8,,,,,,,,,wg-a,,,,AAXX 01064 07255 02/68 81104 10160 20110 39933 40128 53015 60006 83082 90600 333 10258 20155 60004=
07255,1998-09-01 09:00:00,19,1012.9,0.3,83,16,12000,18.52,,,140,,,,0,,,,,,61,wg-a,,,,AAXX 01094 07255 12762 81410 10190 20160 39936 40129 50003 60007 76186 8357/ 90900=
07255,1998-09-01 12:00:00,23,1013.4,0.8,73,18,12000,29.632,,,190,,,,0,,,,,,21,wg-a,,,,AAXX 01124 07255 02/62 71916 10230 20180 39944 40134 50008 60016 72186 85032 91200 333 60007=
07255,1998-09-01 15:00:00,27,1012.1,-1.1,51,16,18000,22.224,,,160,,,,,,,,,,,wg-a,,,,AAXX 01154 07255 12/68 51612 10270 20160 39933 40121 58011 60006 82039 91500=
07255,1998-09-01 18:00:00,24,1012.9,0.6,65,17,0,14.816,,,180,15.8,27.6,,,,,,,,,wg-a,,,,AAXX 01184 07255 32/// /1808 10240 20170 39939 40129 51006 91800 333 10276 20158=
07255,1998-09-02 00:00:00,19,1013.7,-0.4,94,18,0,11.112,,,110,,,,,,,,,,,wg-a,,,,AAXX 02004 07255 12/// /1106 10190 20180 39944 40137 58004 60016 90000=
07255,1998-09-02 06:00:00,19,1012.7,-0.1,88,17,7000,14.816,,,190,18.1,24.1,,,,,,,,60,wg-a,,,,AAXX 02064 07255 02557 81908 10190 20170 39934 40127 58001 61000 76098 8387/ 90600 333 10241 20181 6003=
07255,1998-09-02 09:00:00,20,1013.4,0.8,94,19,12000,7.408,,,120,,,,,,,,,,60,wg-a,,,,AAXX 02094 07255 02662 81204 10200 20190 39942 40134 51008 61000 76062 8357/ 90900 333 ////=
07255,1998-09-02 12:00:00,24,1012.1,-1,69,18,18000,14.816,,,160,,,,,,,,,,1,wg-a,,,,AAXX 02124 07255 02/68 81608 10240 20180 39932 40121 58010 61000 70162 84082 91200 333 6100=
07255,1998-09-02 15:00:00,26,1010.5,-1.5,65,19,20000,14.816,,,150,,,,,,,,,,,wg-a,,,,AAXX 02154 07255 12670 71508 10260 20190 39917 40105 58015 60006 8398/ 91500=
07255,1998-09-02 18:00:00,24,1010,-0.6,69,18,0,11.112,,,160,18.8,26.3,,,,,,,,,wg-a,,,,AAXX 02184 07255 32/// /1606 10240 20180 39911 40100 56006 91800 333 10263 20188=
07255,1998-09-03 00:00:00,20,1011.7,0.2,83,17,0,29.632,,,230,,,,,,,,,,,wg-a,,,,AAXX 03004 07255 12/// /2316 10200 20170 39925 40117 50002 60006 90000=
07255,1998-09-03 06:00:00,16,1014.3,1.6,88,14,9000,35.188,,53.708,250,16.2,24,,,,,,,,50,wg-a,,,,AAXX 03064 07255 02359 82519 10160 20140 39948 40143 52016 61000 75052 878// 90600 333 10240 20162 6100 91029=
07255,1998-09-03 09:00:00,17,1016.5,2.2,82,14,18000,25.928,,,260,,,,,,,,,,1,wg-a,,,,AAXX 03094 07255 02468 82614 10170 20140 39970 40165 53022 61000 70152 878// 90900 333 ////=
07255,1998-09-03 12:00:00,19,1017,0.6,68,13,28000,14.816,,,280,,,,,,,,,,1,wg-a,,,,AAXX 03124 07255 02578 72808 10190 20130 39976 40170 51006 61000 70152 87830 91200 333 ////=
07255,1998-09-03 15:00:00,22,1016,-0.8,50,11,40000,14.816,,,300,,,,,,,,,,,wg-a,,,,AAXX 03154 07255 12682 73008 10220 20110 39968 40160 58008 60006 86802 91500=
07255,1998-09-03 18:00:00,21,1015.8,-0.3,49,10,0,7.408,,,290,15.5,22.8,,,,,,,,,wg-a,,,,AAXX 03184 07255 32/// /2904 10210 20100 39965 40158 57003 91800 333 10228 20155=
07255,1998-09-04 00:00:00,12,1015.5,-1.2,88,10,0,7.408,,,110,,,,,,,,,,,wg-a,,,,AAXX 04004 07255 12/// /1104 10120 20100 39957 40155 58012 60006 90000=
07255,1998-09-04 06:00:00,12,1013,-0.7,94,11,18000,7.408,,,90,10.4,21,,,,,,,,61,wg-a,,,,AAXX 04064 07255 02768 80904 10120 20110 39932 40130 56007 61000 76161 8457/ 90600 333 10210 20104 6000=
07255,1998-09-04 09:00:00,15,1011.3,-1.5,94,14,15000,14.816,,,110,,,,0,,,,,,60,wg-a,,,,AAXX 04094 07255 12665 81108 10150 20140 39917 40113 58015 60007 76066 8357/ 90900=
07255,1998-09-04 12:00:00,20,1008.6,-2.2,73,15,25000,22.224,,,140,,,,,,,,,,21,wg-a,,,,AAXX 04124 07255 02/75 71412 10200 20150 39895 40086 56022 60016 72162 86072 91200 333 61000=
07255,1998-09-04 15:00:00,19,1007.2,-1.5,88,17,6000,31.484,,57.412,210,,,,1,,,,,,80,wg-a,,,,AAXX 04154 07255 12556 82117 10190 20170 39880 40072 56015 60017 78098 873// 91500 333 91031=
07255,1998-09-04 18:00:00,16,1006.8,-0.5,100,16,0,22.224,,,240,11.7,22.2,,,,,,,,,wg-a,,,,AAXX 04184 07255 32/// /2412 10160 20160 39875 40068 58005 91800 333 10222 20117=
07255,1998-09-05 00:00:00,16,1008.6,1,94,15,0,18.52,,,250,,,,,,,,,,,wg-a,,,,AAXX 05004 07255 12/// /2510 10160 20150 39892 40086 51010 60006 90000=
07255,1998-09-05 06:00:00,15,1010.4,0.7,100,15,9000,18.52,,,240,14.5,16.5,,,,,,,,25,wg-a,,,,AAXX 05064 07255 02259 72410 10150 20150 39909 40104 53007 61000 72586 875// 90600 333 10165 20145 6010=
07255,1998-09-05 09:00:00,18,1011.1,0.8,83,15,10000,25.928,,,260,,,,0,,,,,,16,wg-a,,,,AAXX 05094 07255 12460 72614 10180 20150 39917 40111 51008 60007 71686 875// 90900=
07255,1998-09-05 12:00:00,20,1010.9,0,64,13,28000,29.632,,48.152,270,,,,,,,,,,1,wg-a,,,,AAXX 05124 07255 12578 52716 10200 20130 39917 40109 50000 60006 70186 82230 91200 333 91026=
07255,1998-09-05 18:00:00,20,1012.6,1.1,53,10,0,22.224,,,270,15.1,22,,,,,,,,,wg-a,,,,AAXX 05184 07255 32/// /2712 10200 20100 39933 40126 53011 91800 333 10220 20151=
07255,1998-09-06 00:00:00,14,1015,0.1,88,12,0,14.816,,,250,,,,,,,,,,,wg-a,,,,AAXX 06004 07255 12/// /2508 10140 20120 39953 40150 50001 60006 90000=
07255,1998-09-06 06:00:00,13,1014.8,-0.1,100,13,1500,3.704,,,180,11.3,19.8,,,,,,,,10,wg-a,,,,AAXX 06064 07255 02/15 /1802 10130 20130 39950 40148 55001 60006 71022 80002 90600 333 10198 20113 60004=
07255,1998-09-06 09:00:00,16,1014.2,-0.4,88,14,8000,7.408,,,230,,,,,,,,,,,wg-a,,,,AAXX 06094 07255 12458 72304 10160 20140 39946 40142 58004 60006 875// 90900=
07255,1998-09-06 12:00:00,22,1012,-1.7,53,12,25000,7.408,,,200,,,,,,,,,,,wg-a,,,,AAXX 06124 07255 12675 /2004 10220 20120 39929 40120 58017 60006 84202 91200=
07255,1998-09-06 15:00:00,24,1009.3,-2.5,44,11,25000,14.816,,,170,,,,,,,,,,,wg-a,,,,AAXX 06154 07255 12675 71708 10240 20110 39904 40093 57025 60006 81402 91500=
07255,1998-09-06 18:00:00,22,1008.2,-1.2,53,12,0,7.408,,,140,12.6,24.5,,,,,,,,,wg-a,,,,AAXX 06184 07255 12/// /1404 10220 20120 39892 40082 58012 60006 91800 333 10245 20126=
07255,1998-09-07 00:00:00,17,1007.1,-1.7,77,13,0,11.112,,,110,,,,,,,,,,,wg-a,,,,AAXX 07004 07255 12/// /1106 10170 20130 39877 40071 58017 60006 90000=
07255,1998-09-07 06:00:00,16,1007.3,1,94,15,15000,11.112,,,230,15.4,22.1,,,,,,,,61,wg-a,,,,AAXX 07064 07255 02565 82306 10160 20150 39879 40073 53010 61000 76162 8657/ 90600 333 10221 20154 6003=
07255,1998-09-07 09:00:00,17,1007.8,0.6,94,16,20000,7.408,,,160,,,,,,,,,,3,wg-a,,,,AAXX 07094 07255 02470 71604 10170 20160 39885 40078 53006 61000 70362 8533/ 90900 333 ////=
07255,1998-09-07 12:00:00,20,1007.2,-0.4,78,16,15000,11.112,,,220,,,,,,,,,,13,wg-a,,,,AAXX 07124 07255 02465 82206 10200 20160 39881 40072 56004 61000 71362 873// 91200 333 ////=
07255,1998-09-07 15:00:00,22,1006.5,-0.6,69,16,500,18.52,,,240,,,,4,,,,,,1,wg-a,,,,AAXX 07154 07255 12500 32410 10220 20160 39875 40065 56006 60047 70196 83201 91500=
07255,1998-09-07 18:00:00,19,1007.6,0.9,73,14,0,14.816,,,260,15.8,22.4,,,,,,,,,wg-a,,,,AAXX 07184 07255 32/// /2608 10190 20140 39884 40076 53009 91800 333 10224 20158=
07255,1998-09-08 00:00:00,15,1011.1,0.9,88,13,0,14.816,,,250,,,,,,,,,,,wg-a,,,,AAXX 08004 07255 12/// /2508 10150 20130 39915 40111 51009 60006 90000=
07255,1998-09-08 06:00:00,14,1012.2,0.9,100,14,15000,11.112,,,240,14,18.6,,,,,4,,,,wg-a,,,,AAXX 08064 07255 02465 52406 10140 20140 39926 40122 52009 60006 83532 90600 333 10186 20140 60044=
07255,1998-09-08 09:00:00,19,1012.9,1,73,14,20000,22.224,,,240,,,,,,,,,,,wg-a,,,,AAXX 08094 07255 12470 /2412 10190 20140 39936 40129 51010 60006 85530 90900=
07255,1998-09-08 12:00:00,19,1012.9,-0,78,15,15000,25.928,,,240,,,,,,,,,,20,wg-a,,,,AAXX 08124 07255 02465 82414 10190 20150 39936 40129 55000 61000 72052 8457/ 91200 333 6100=
07255,1998-09-08 15:00:00,19,1012.3,-0.6,83,16,20000,18.52,,,240,,,,1,,,,,,20,wg-a,,,,AAXX 08154 07255 12570 72410 10190 20160 39930 40123 58006 60017 72052 8357/ 91500=
07255,1998-09-08 18:00:00,19,1012.6,0.3,88,17,0,22.224,,,240,14.3,20,,0,,,,,,,wg-a,,,,AAXX 08184 07255 12/// /2412 10190 20170 39933 40126 53003 60007 91800 333 10200 20143=
07255,1998-09-09 00:00:00,18,1012.6,-0.8,88,16,0,18.52,,,230,,,,,,,,,,,wg-a,,,,AAXX 09004 07255 12/// /2310 10180 20160 39932 40126 58008 60006 90000=
07255,1998-09-09 06:00:00,15,1010.9,-0.8,100,15,10000,11.112,,,170,15.2,18.7,,,,,1,,,,wg-a,,,,AAXX 09064 07255 02760 71706 10150 20150 39914 40109 56008 60006 865/2 90600 333 10187 20152 60014=
07255,1998-09-09 09:00:00,20,1010.1,-0.5,78,16,16000,11.112,,,180,,,,,,,,,,,wg-a,,,,AAXX 09094 07255 12766 71806 10200 20160 39909 40101 57005 60006 86542 90900=
07255,1998-09-09 12:00:00,26,1007.9,-1.8,51,15,28000,25.928,,,220,,,,,,,,,,,wg-a,,,,AAXX 09124 07255 12678 62214 10260 20150 39891 40079 58018 60006 83832 91200=
07255,1998-09-09 15:00:00,27,1007.6,-0.2,48,15,500,31.484,,51.856,250,,,,,,,,,,,wg-a,,,,AAXX 09154 07255 12600 72517 10270 20150 39889 40076 55002 60006 86802 91500 333 91028=
07255,1998-09-09 18:00:00,24,1007.9,0.1,57,15,0,22.224,,,250,15.4,27.9,,,,,,,,,wg-a,,,,AAXX 09184 07255 12/// /2512 10240 20150 39890 40079 53001 60006 91800 333 10279 20154=
07255,1998-09-10 00:00:00,19,1009.9,0.4,78,15,0,11.112,,,250,,,,,,,,,,,wg-a,,,,AAXX 10004 07255 12/// /2506 10190 20150 39907 40099 51004 60006 90000=
07255,1998-09-10 06:00:00,17,1010.4,0.6,94,16,15000,18.52,,,220,16.6,23.7,,,,,,,,60,wg-a,,,,AAXX 10064 07255 02565 72210 10170 20160 39910 40104 53006 61000 76086 878// 90600 333 10237 20166 6003=
07255,1998-09-10 09:00:00,19,1011.1,0.8,88,17,15000,14.816,,,240,,,,0,,,,,,2,wg-a,,,,AAXX 10094 07255 12465 72408 10190 20170 39918 40111 53008 60007 70262 878// 90900=
07255,1998-09-10 12:00:00,21,1010.4,-0.5,64,14,25000,22.224,,,240,,,,,,,,,,1,wg-a,,,,AAXX 10124 07255 12575 72412 10210 20140 39913 40104 57005 60006 70162 86801 91200=
07255,1998-09-10 15:00:00,21,1009.9,-0.5,60,13,25000,31.484,,,250,,,,,,,,,,,wg-a,,,,AAXX 10154 07255 12575 72517 10210 20130 39908 40099 55005 60006 878// 91500=
07255,1998-09-10 18:00:00,20,1010.1,0.1,64,13,0,22.224,,,230,16.7,23,,,,,,,,,wg-a,,,,AAXX 10184 07255 32/// /2312 10200 20130 39909 40101 53001 91800 333 10230 20167=
07255,1998-09-11 00:00:00,15,1012,0.2,88,13,0,14.816,,,230,,,,,,,,,,,wg-a,,,,AAXX 11004 07255 12/// /2308 10150 20130 39924 40120 50002 60006 90000=
07255,1998-09-11 06:00:00,13,1009.4,-1.5,100,13,9000,11.112,,,230,13.1,20,,,,,,,,25,wg-a,,,,AAXX 11064 07255 02159 72306 10130 20130 39898 40094 56015 61000 72511 8653/ 90600 333 10200 20131 6000=
07255,1998-09-11 09:00:00,16,1008.2,-1,82,13,12000,18.52,,,240,,,,,,,,,,1,wg-a,,,,AAXX 11094 07255 02462 82410 10160 20130 39888 40082 57010 61000 70186 8683/ 90900 333 ////=
07255,1998-09-11 12:00:00,17,1005.6,-2.5,68,11,500,22.224,,,250,,,,,,,,,,1,wg-a,,,,AAXX 11124 07255 02500 82512 10170 20110 39863 40056 58025 61000 70186 8782/ 91200 333 6100=
07255,1998-09-11 15:00:00,16,1003.1,-2.5,77,12,35000,18.52,,,250,,,,3,,,,,,21,wg-a,,,,AAXX 11154 07255 12481 72510 10160 20120 39838 40031 58025 60037 72162 84831 91500=
07255,1998-09-11 18:00:00,13,1001.8,-1.5,94,12,0,11.112,,,270,12.8,17.7,,,,,,,,,wg-a,,,,AAXX 11184 07255 32/// /2706 10130 20120 39823 40018 56015 91800 333 10177 20128=
07255,1998-09-12 00:00:00,11,1002.9,1.2,94,10,0,18.52,,,290,,,,,,,,,,,wg-a,,,,AAXX 12004 07255 12/// /2910 10110 20100 39832 40029 53012 60086 90000=
07255,1998-09-12 06:00:00,11,1004.8,1.2,94,10,15000,18.52,,,290,10.8,12.9,,,,,15,,,1,wg-a,,,,AAXX 12064 07255 02365 82910 10110 20100 39851 40048 53012 60006 70162 877// 90600 333 10129 20108 60154=
07255,1998-09-12 09:00:00,13,1005.8,1.1,82,10,22000,18.52,,,290,,,,,,,,,,,wg-a,,,,AAXX 12094 07255 12472 42910 10130 20100 39862 40058 51011 60006 84100 90900=
07255,1998-09-12 12:00:00,14,1005.2,-0.5,67,8,500,25.928,,42.596,280,,,,,,,,,,,wg-a,,,,AAXX 12124 07255 12600 72814 10140 20080 39857 40052 58005 60006 8387/ 91200 333 91023=
07255,1998-09-12 15:00:00,14,1003,-2.2,67,8,20000,22.224,,40.744,270,,,,0,,,,,,61,wg-a,,,,AAXX 12154 07255 12670 72712 10140 20080 39835 40030 56022 60007 76162 8482/ 91500 333 91022=
07255,1998-09-12 18:00:00,12,1000.6,-2.5,94,11,0,18.52,,,230,10.6,16.5,,6,,,,,,,wg-a,,,,AAXX 12184 07255 12/// /2310 10120 20110 39810 40006 58025 60067 91800 333 10165 20106=
07255,1998-09-13 00:00:00,8,1002.3,0.1,93,7,0,11.112,,,280,,,,,,,,,,,wg-a,,,,AAXX 13004 07255 12/// /2806 10080 20070 39824 40023 50001 60016 90000=
07255,1998-09-13 06:00:00,7,1001.3,-0.6,93,6,20000,22.224,,,250,6.3,11.8,,,,,7,,,,wg-a,,,,AAXX 13064 07255 02670 72512 10070 20060 39814 40013 58006 60006 84571 90600 333 10118 20063 60074=
07255,1998-09-13 09:00:00,9,999.8,-1.3,93,8,15000,31.484,,,250,,,,0,,,,,,60,wg-a,,,,AAXX 13094 07255 12465 82517 10090 20080 39801 49998 58013 60007 76062 8687/ 90900=
07255,1998-09-13 12:00:00,12,999,-0.7,82,9,18000,25.928,,,320,,,,2,,,,,,25,wg-a,,,,AAXX 13124 07255 02468 63214 10120 20090 39794 49990 55007 60026 72586 85903 91200 333 60027=
07255,1998-09-13 15:00:00,12,1002.6,3.6,67,6,500,22.224,,,320,,,,,,,,,,1,wg-a,,,,AAXX 13154 07255 02500 /3212 10120 20060 39830 40026 53036 61000 70186 86800 91500 333 ////=
07255,1998-09-13 18:00:00,11,1005.3,2.6,82,8,0,7.408,,,280,7.4,13.4,,0,,,,,,,wg-a,,,,AAXX 13184 07255 12/// /2804 10110 20080 39856 40053 51026 60007 91800 333 10134 20074=
07255,1998-09-14 00:00:00,10,1006.5,-0.1,82,7,0,14.816,,,270,,,,,,,,,,,wg-a,,,,AAXX 14004 07255 12/// /2708 10100 20070 39866 40065 58001 60006 90000=
07255,1998-09-14 06:00:00,7,1007.9,1.1,100,7,10000,14.816,,,270,6.9,11.8,,,,,3,,,,wg-a,,,,AAXX 14064 07255 02260 42708 10070 20070 39878 40079 53011 60006 82602 90600 333 10118 20069 60034=
07255,1998-09-14 09:00:00,12,1008.5,0.9,76,8,12000,22.224,,,270,,,,,,,,,,,wg-a,,,,AAXX 14094 07255 12462 72712 10120 20080 39887 40085 53009 60006 86832 90900=
07255,1998-09-14 12:00:00,16,1008.3,0.1,55,7,25000,29.632,,,270,,,,0,,,,,,,wg-a,,,,AAXX 14124 07255 02575 72716 10160 20070 39888 40083 51001 60006 86802 91200 333 60007=
07255,1998-09-14 15:00:00,16,1008.3,0,59,8,20000,29.632,,,280,,,,,,,,,,80,wg-a,,,,AAXX 14154 07255 02670 72816 10160 20080 39888 40083 50000 61000 78086 868// 91500 333 ////=
07255,1998-09-14 18:00:00,12,1010.5,1.9,94,11,0,11.112,,,300,7,17.2,,7,,,,,,,wg-a,,,,AAXX 14184 07255 12/// /3006 10120 20110 39907 40105 53019 60077 91800 333 10172 20070=
07255,1998-09-15 00:00:00,12,1013.5,0.9,82,9,0,14.816,,,280,,,,,,,,,,,wg-a,,,,AAXX 15004 07255 12/// /2808 10120 20090 39937 40135 51009 60016 90000=
07255,1998-09-15 06:00:00,8,1016.2,1.5,93,7,20000,14.816,,,270,7.8,12.4,,,,,7,,,,wg-a,,,,AAXX 15064 07255 02770 62708 10080 20070 39960 40162 52015 60006 85532 90600 333 10124 20078 60074=
07255,1998-09-15 09:00:00,14,1017.1,1.3,72,9,20000,18.52,,,270,,,,,,,,,,,wg-a,,,,AAXX 15094 07255 12570 52710 10140 20090 39973 40171 53013 60006 83830 90900=
07255,1998-09-15 12:00:00,13,1016.5,-0.6,88,11,12000,18.52,,,230,,,,0,,,,,,61,wg-a,,,,AAXX 15124 07255 02662 82310 10130 20110 39967 40165 58006 60006 76165 8457/ 91200 333 60007=
07255,1998-09-15 15:00:00,14,1014.1,-2.3,94,13,10000,29.632,,,230,,,,3,,,,,,21,wg-a,,,,AAXX 15154 07255 12360 82316 10140 20130 39944 40141 58023 60037 72165 887// 91500=
07255,1998-09-15 18:00:00,15,1012.9,-1.1,100,15,0,29.632,,,250,8.2,15.5,,1,,,,,,,wg-a,,,,AAXX 15184 07255 12/// /2516 10150 20150 39933 40129 56011 60017 91800 333 10155 20082=
07255,1998-09-16 00:00:00,15,1014,0.4,94,14,0,18.52,,,270,,,,,,,,,,,wg-a,,,,AAXX 16004 07255 12/// /2710 10150 20140 39944 40140 53004 60016 90000=
07255,1998-09-16 06:00:00,14,1014.5,0.4,94,13,12000,11.112,,,270,14,16.1,,,,,,,,50,wg-a,,,,AAXX 16064 07255 02362 72706 10140 20130 39948 40145 53004 61000 75052 875// 90600 333 10161 20140 6004=
07255,1998-09-16 12:00:00,17,1015,-0.1,72,12,25000,14.816,,,290,,,,,,,,,,1,wg-a,,,,AAXX 16124 07255 02575 62908 10170 20120 39955 40150 58001 61000 70165 85801 91200 333 6100=
07255,1998-09-16 18:00:00,15,1015.2,0.4,72,10,0,14.816,,,310,13.8,18,,,,,,,,,wg-a,,,,AAXX 16184 07255 32/// /3108 10150 20100 39956 40152 53004 91800 333 10180 20138=
07255,1998-09-17 00:00:00,10,1017.1,0.3,87,8,0,7.408,,,260,,,,,,,,,,,wg-a,,,,AAXX 17004 07255 12/// /2604 10100 20080 39971 40171 53003 60006 90000=
07255,1998-09-17 06:00:00,9,1017.6,0.7,93,8,500,7.408,,,260,8.8,15.4,,,,,,,,,wg-a,,,,AAXX 17064 07255 02700 72604 10090 20080 39975 40176 53007 60006 82502 90600 333 10154 20088 61000=
07255,1998-09-17 09:00:00,13,1018.9,1.5,94,12,9000,7.408,,,260,,,,,,,,,,,wg-a,,,,AAXX 17094 07255 12259 82604 10130 20120 39990 40189 51015 60006 876// 90900=
07255,1998-09-17 12:00:00,18,1018.3,-0.2,59,10,22000,11.112,,,340,,,,,,,,,,,wg-a,,,,AAXX 17124 07255 12572 53406 10180 20100 39988 40183 58002 60006 84801 91200=
07255,1998-09-17 15:00:00,19,1018,-0.3,52,9,25000,11.112,,,360,,,,,,,,,,,wg-a,,,,AAXX 17154 07255 12675 53606 10190 20090 39985 40180 56003 60006 84801 91500=
07255,1998-09-17 18:00:00,16,1019.1,1,68,10,0,7.408,,,360,8.9,19.3,,,,,,,,,wg-a,,,,AAXX 17184 07255 12/// /3604 10160 20100 39995 40191 53010 60006 91800 333 10193 20089=
07255,1998-09-18 00:00:00,10,1022.1,1,93,9,0,3.704,,,100,,,,,,,,,,,wg-a,,,,AAXX 18004 07255 12/// /1002 10100 20090 30019 40221 51010 60006 90000=
07255,1998-09-18 06:00:00,7,1023.4,0.9,100,7,12000,11.112,,,100,6.7,16.1,,,,,,,,,wg-a,,,,AAXX 18064 07255 02/62 31006 10070 20070 30030 40234 53009 60006 81031 90600 333 10161 20067 60004=
07255,1998-09-18 12:00:00,19,1024.6,0.3,49,8,500,11.112,,,40,,,,,,,,,,,wg-a,,,,AAXX 18124 07255 12500 /0406 10190 20080 30050 40246 51003 60006 81101 91200=
07255,1998-09-18 15:00:00,20,1024,-0.5,46,8,500,11.112,,,80,,,,,,,,,,,wg-a,,,,AAXX 18154 07255 12/00 10806 10200 20080 30045 40240 58005 60006 80001 91500=
07255,1998-09-18 18:00:00,19,1024.9,0.8,52,9,0,11.112,,,80,7.1,20.9,,,,,,,,,wg-a,,,,AAXX 18184 07255 12/// /0806 10190 20090 30053 40249 53008 60006 91800 333 10209 20071=
07255,1998-09-19 00:00:00,13,1027.3,0.4,77,9,0,11.112,,,80,,,,,,,,,,,wg-a,,,,AAXX 19004 07255 12/// /0806 10130 20090 30072 40273 51004 60006 90000=
07255,1998-09-19 06:00:00,9,1028.6,0.6,87,7,20000,14.816,,,90,9.1,18.6,,,,,,,,,wg-a,,,,AAXX 19064 07255 02/70 10908 10090 20070 30083 40286 53006 60006 80001 90600 333 10186 20091 60004=
07255,1998-09-19 09:00:00,15,1028.9,0.7,59,7,35000,18.52,,,90,,,,,,,,,,,wg-a,,,,AAXX 19094 07255 12/81 10910 10150 20070 30090 40289 53007 60006 80001 90900=
07255,1998-09-19 12:00:00,19,1028.6,-0,49,8,35000,18.52,,,90,,,,,,,,,,,wg-a,,,,AAXX 19124 07255 12/81 20910 10190 20080 30090 40286 54000 60006 80001 91200=
07255,1998-09-19 15:00:00,21,1027.3,-1.2,40,7,35000,18.52,,,80,,,,,,,,,,,wg-a,,,,AAXX 19154 07255 12/81 10810 10210 20070 30078 40273 56012 60006 80001 91500=
07255,1998-09-19 18:00:00,19,1027.5,0.1,46,7,0,14.816,,,90,9.3,21.5,,,,,,,,,wg-a,,,,AAXX 19184 07255 12/// /0908 10190 20070 30079 40275 53001 60006 91800 333 10215 20093=
07255,1998-09-20 00:00:00,14,1029,0.1,72,9,0,14.816,,,80,,,,,,,,,,,wg-a,,,,AAXX 20004 07255 12/// /0808 10140 20090 30090 40290 51001 60006 90000=
07255,1998-09-20 06:00:00,12,1029.1,0.1,82,9,22000,18.52,,,70,11.2,18.9,,,,,,,,,wg-a,,,,AAXX 20064 07255 02/72 00710 10120 20090 30089 40291 53001 60006 80000 90600 333 10189 20112 60004=
07255,1998-09-20 09:00:00,16,1029.4,0.7,63,9,40000,14.816,,,90,,,,,,,,,,,wg-a,,,,AAXX 20094 07255 12/82 00908 10160 20090 30096 40294 50007 60006 80000 90900=
07255,1998-09-20 12:00:00,21,1027.9,-1.2,46,9,35000,22.224,,,70,,,,,,,,,,,wg-a,,,,AAXX 20124 07255 12681 /0712 10210 20090 30084 40279 58012 60006 81100 91200=
07255,1998-09-20 15:00:00,22,1026.2,-1.6,41,8,35000,25.928,,,80,,,,,,,,,,,wg-a,,,,AAXX 20154 07255 12/81 00814 10220 20080 30068 40262 56016 60006 80000 91500=
07255,1998-09-20 18:00:00,19,1026.8,0.4,49,8,0,14.816,,,80,11.7,22.1,,,,,,,,,wg-a,,,,AAXX 20184 07255 12/// /0808 10190 20080 30072 40268 53004 60006 91800 333 10221 20117=
07255,1998-09-21 00:00:00,14,1027.3,-0.2,72,9,0,14.816,,,70,,,,,,,,,,,wg-a,,,,AAXX 21004 07255 12/// /0708 10140 20090 30074 40273 58002 60006 90000=
07255,1998-09-21 06:00:00,11,1027.2,-0.2,82,8,18000,11.112,,,80,10.2,19.1,,,,,,,,,wg-a,,,,AAXX 21064 07255 02/68 00806 10110 20080 30070 40272 57002 60006 80000 90600 333 10191 20102 60004=
07255,1998-09-21 09:00:00,16,1026.2,-0.6,59,8,25000,22.224,,,80,,,,,,,,,,,wg-a,,,,AAXX 21094 07255 12/75 00812 10160 20080 30064 40262 58006 60006 80000 90900=
07255,1998-09-21 12:00:00,18,1024.7,-1.3,56,9,25000,18.52,,,100,,,,,,,,,,,wg-a,,,,AAXX 21124 07255 12675 /1010 10180 20090 30051 40247 56013 60006 81100 91200=
07255,1998-09-21 15:00:00,20,1022.9,-1.6,53,10,25000,14.816,,,100,,,,,,,,,,,wg-a,,,,AAXX 21154 07255 12675 /1008 10200 20100 30035 40229 57016 60006 81100 91500=
07255,1998-09-21 18:00:00,18,1022.7,-0.4,59,10,0,7.408,,,100,10.5,21.2,,,,,,,,,wg-a,,,,AAXX 21184 07255 12/// /1004 10180 20100 30031 40227 56004 60006 91800 333 10212 20105=
07255,1998-09-22 00:00:00,13,1022.3,-0.7,77,9,0,14.816,,,80,,,,,,,,,,,wg-a,,,,AAXX 22004 07255 12/// /0808 10130 20090 30024 40223 58007 60006 90000=
07255,1998-09-22 06:00:00,10,1020.6,-0.6,87,8,10000,11.112,,,100,9.6,18.1,,,,,,,,,wg-a,,,,AAXX 22064 07255 02760 11006 10100 20080 30005 40206 58006 60006 81500 90600 333 10181 20096 60004=
07255,1998-09-22 09:00:00,16,1020,-0.2,72,11,12000,14.816,,,140,,,,,,,,,,,wg-a,,,,AAXX 22094 07255 12/62 01408 10160 20110 30003 40200 58002 60006 80000 90900=
07255,1998-09-22 12:00:00,20,1017.9,-1.8,60,12,12000,18.52,,,70,,,,,,,,,,,wg-a,,,,AAXX 22124 07255 12/62 00710 10200 20120 39985 40179 57018 60006 80000 91200=
07255,1998-09-22 15:00:00,22,1016.2,-1.5,50,11,15000,11.112,,,70,,,,,,,,,,,wg-a,,,,AAXX 22154 07255 12665 30706 10220 20110 39970 40162 58015 60006 81102 91500=
07255,1998-09-22 18:00:00,20,1016.1,-0.2,56,11,0,14.816,,,90,9.7,22.5,,,,,,,,,wg-a,,,,AAXX 22184 07255 12/// /0908 10200 20110 39968 40161 55002 60006 91800 333 10225 20097=
07255,1998-09-23 00:00:00,14,1017.8,0.7,88,12,0,11.112,,,110,,,,,,,,,,,wg-a,,,,AAXX 23004 07255 12/// /1106 10140 20120 39980 40178 51007 60006 90000=
07255,1998-09-23 06:00:00,11,1019.1,0.7,94,10,9000,11.112,,,100,10.7,20.1,,,,,,,,,wg-a,,,,AAXX 23064 07255 02/59 /1006 10110 20100 39991 40191 53007 60006 81081 90600 333 10201 20107 60004=
07255,1998-09-23 09:00:00,17,1019.3,0.6,63,10,13000,18.52,,,110,,,,,,,,,,,wg-a,,,,AAXX 23094 07255 12/63 11110 10170 20100 39997 40193 51006 60006 81080 90900=
07255,1998-09-23 12:00:00,24,1017.4,-1.4,41,10,18000,14.816,,,120,,,,,,,,,,,wg-a,,,,AAXX 23124 07255 12/68 01208 10240 20100 39983 40174 58014 60006 80000 91200=
07255,1998-09-23 15:00:00,24,1016.2,-1.2,41,10,20000,25.928,,,130,,,,,,,,,,,wg-a,,,,AAXX 23154 07255 12770 11314 10240 20100 39971 40162 56012 60006 81130 91500=
07255,1998-09-23 18:00:00,20,1016.3,-0.1,56,11,0,18.52,,,110,10.8,24.9,,,,,,,,,wg-a,,,,AAXX 23184 07255 12/// /1110 10200 20110 39970 40163 56001 60006 91800 333 10249 20108=
07255,1998-09-24 00:00:00,15,1016.1,-0.6,82,12,0,11.112,,,90,,,,,,,,,,,wg-a,,,,AAXX 24004 07255 12/// /0906 10150 20120 39964 40161 58006 60006 90000=
07255,1998-09-24 06:00:00,14,1015.8,-0,88,12,9000,7.408,,,150,14.2,19.9,,,,,,,,,wg-a,,,,AAXX 24064 07255 02759 71504 10140 20120 39961 40158 55000 60006 85531 90600 333 10199 20142 60004=
07255,1998-09-24 09:00:00,19,1015.9,0.4,60,11,18000,14.816,,,140,,,,,,,,,,,wg-a,,,,AAXX 24094 07255 12768 61408 10190 20110 39965 40159 50004 60006 83531 90900=
07255,1998-09-24 12:00:00,21,1014.9,-0.8,56,12,25000,11.112,,,170,,,,,,,,,,,wg-a,,,,AAXX 24124 07255 12675 71706 10210 20120 39957 40149 57008 60006 878// 91200=
07255,1998-09-24 15:00:00,20,1014,-1,56,11,25000,14.816,,,140,,,,,,,,,,,wg-a,,,,AAXX 24154 07255 12775 71408 10200 20110 39947 40140 57010 60006 8553/ 91500=
07255,1998-09-24 18:00:00,16,1014.3,0.1,94,15,0,0,,,0,13.8,22.2,,,,,,,,,wg-a,,,,AAXX 24184 07255 32/// /0000 10160 20150 39948 40143 53001 91800 333 10222 20138=
07255,1998-09-25 00:00:00,13,1013.4,-0.5,94,12,0,14.816,,,110,,,,,,,,,,,wg-a,,,,AAXX 25004 07255 12/// /1108 10130 20120 39937 40134 58005 60026 90000=
07255,1998-09-25 06:00:00,13,1011.4,-0.8,88,11,7000,14.816,,,100,12.2,15.9,,,,,7,,,,wg-a,,,,AAXX 25064 07255 02/57 /1008 10130 20110 39917 40114 56008 60006 83031 90600 333 10159 20122 60074=
07255,1998-09-25 09:00:00,18,1010.2,-0.8,77,14,10000,14.816,,,130,,,,,,,,,,,wg-a,,,,AAXX 25094 07255 12/60 71308 10180 20140 39909 40102 57008 60006 81034 90900=
07255,1998-09-25 12:00:00,22,1008.8,-1.2,57,13,15000,11.112,,,170,,,,,,,,,,,wg-a,,,,AAXX 25124 07255 12765 71706 10220 20130 39897 40088 58012 60006 875// 91200=
07255,1998-09-25 15:00:00,20,1007.7,-1.2,73,15,12000,14.816,,,140,,,,,,,,,,29,wg-a,,,,AAXX 25154 07255 12662 81408 10200 20150 39885 40077 56012 60006 72992 8683/ 91500=
07255,1998-09-25 18:00:00,17,1007.1,-0.7,88,15,0,14.816,,,90,12.7,23.3,,,,,,,,,wg-a,,,,AAXX 25184 07255 12/// /0908 10170 20150 39878 40071 56007 60006 91800 333 10233 20127=
07255,1998-09-26 00:00:00,15,1005,-1.6,88,13,0,18.52,,,110,,,,,,,,,,,wg-a,,,,AAXX 26004 07255 12/// /1110 10150 20130 39856 40050 58016 60006 90000=
07255,1998-09-26 06:00:00,15,1002.4,-0.5,94,14,6000,14.816,,,160,14.7,17.3,,,,,,,,63,wg-a,,,,AAXX 26064 07255 02356 81608 10150 20140 39830 40024 55005 61000 76362 875// 90600 333 10173 20147 6003=
07255,1998-09-26 09:00:00,15,1002.4,0.1,94,14,9000,14.816,,,210,,,,3,,,,,,61,wg-a,,,,AAXX 26094 07255 12459 82108 10150 20140 39831 40024 53001 60037 76162 8552/ 90900=
07255,1998-09-26 12:00:00,16,1001.9,-0.5,94,15,25000,18.52,,,170,,,,2,,,,,,21,wg-a,,,,AAXX 26124 07255 02475 71710 10160 20150 39826 40019 56005 60056 72162 8587/ 91200 333 60027=
07255,1998-09-26 15:00:00,19,1000.4,-1.3,78,15,11000,14.816,,,170,,,,,,,,,,,wg-a,,,,AAXX 26154 07255 12/61 /1708 10190 20150 39813 40004 58013 60006 91500=
07255,1998-09-26 18:00:00,15,1002.1,1.4,77,11,0,22.224,,,220,14.5,19.5,,,,,,,,,wg-a,,,,AAXX 26184 07255 32/// /2212 10150 20110 39827 40021 53014 91800 333 10195 20145=
07255,1998-09-27 00:00:00,14,1001.1,-0.5,88,12,0,25.928,,,200,,,,,,,,,,,wg-a,,,,AAXX 27004 07255 12/// /2014 10140 20120 39817 40011 56005 60026 90000=
07255,1998-09-27 06:00:00,15,997.6,-1.1,88,13,6000,31.484,,,210,12.1,15.5,,1,,,9,,,61,wg-a,,,,AAXX 27064 07255 02456 82117 10150 20130 39783 49976 55011 60094 76161 877// 90600 333 10155 20121 60017=
07255,1998-09-27 09:00:00,16,999.1,1.6,82,13,25000,38.892,,,230,,,,1,,,,,,25,wg-a,,,,AAXX 27094 07255 12475 62321 10160 20130 39799 49991 51016 60017 72586 86800 90900=
07255,1998-09-27 12:00:00,15,1001.3,2,88,13,18000,46.3,,75.932,260,,,,2,,,,,,61,wg-a,,,,AAXX 27124 07255 02468 72625 10150 20130 39819 40013 53020 60036 76186 8597/ 91200 333 60027 91041=
07255,1998-09-27 15:00:00,14,1003.3,2,94,13,18000,31.484,,,270,,,,1,,,,,,61,wg-a,,,,AAXX 27154 07255 12468 82717 10140 20130 39839 40033 53020 60017 76186 8387/ 91500=
07255,1998-09-27 18:00:00,15,1005.2,1.8,88,13,0,18.52,,,250,13.7,18.3,,0,,,,,,,wg-a,,,,AAXX 27184 07255 12/// /2510 10150 20130 39857 40052 53018 60007 91800 333 10183 20137=
07255,1998-09-28 00:00:00,14,1006.7,-0.1,94,13,0,14.816,,,250,,,,,,,,,,,wg-a,,,,AAXX 28004 07255 12/// /2508 10140 20130 39872 40067 57001 60006 90000=
07255,1998-09-28 06:00:00,14,1006.6,0.5,94,13,8000,14.816,,,280,13.5,14.6,,,,,4,,,,wg-a,,,,AAXX 28064 07255 02358 82808 10140 20130 39871 40066 53005 60006 875// 90600 333 10146 20135 60044=
07255,1998-09-28 09:00:00,15,1007.7,1.1,94,14,8000,14.816,,,270,,,,,,,,,,,wg-a,,,,AAXX 28094 07255 12258 82708 10150 20140 39882 40077 51011 60006 876// 90900=
07255,1998-09-28 12:00:00,16,1008,0.4,88,14,8000,18.52,,,280,,,,,,,,,,,wg-a,,,,AAXX 28124 07255 12358 82810 10160 20140 39886 40080 50004 60006 875// 91200=
07255,1998-09-28 15:00:00,17,1008.2,0.2,82,14,10000,18.52,,,300,,,,,,,,,,,wg-a,,,,AAXX 28154 07255 12560 73010 10170 20140 39888 40082 53002 60006 878// 91500=
07255,1998-09-28 18:00:00,16,1009.2,0.9,88,14,0,7.408,,,280,13.8,17.2,,,,,,,,,wg-a,,,,AAXX 28184 07255 12/// /2804 10160 20140 39897 40092 52009 60006 91800 333 10172 20138=
07255,1998-09-29 00:00:00,14,1011.1,0.5,94,13,0,11.112,,,260,,,,,,,,,,,wg-a,,,,AAXX 29004 07255 12/// /2606 10140 20130 39915 40111 53005 60006 90000=
07255,1998-09-29 06:00:00,13,1010.2,-0.5,100,13,4500,3.704,,,240,13.4,15.7,,,,,,,,10,wg-a,,,,AAXX 29064 07255 02345 52402 10130 20130 39906 40102 56005 60006 71022 84601 90600 333 10157 20134 60004=
07255,1998-09-29 09:00:00,15,1009.7,-0.4,82,12,75000,7.408,,,230,,,,,,,,,,,wg-a,,,,AAXX 29094 07255 12489 72304 10150 20120 39902 40097 58004 60006 875// 90900=
07255,1998-09-29 12:00:00,16,1007.5,-2.1,82,13,10000,11.112,,,170,,,,,,,,,,,wg-a,,,,AAXX 29124 07255 12460 81706 10160 20130 39881 40075 58021 60006 84507 91200=
07255,1998-09-29 15:00:00,17,1004.7,-2.7,77,13,15000,18.52,,,140,,,,,,,,,,,wg-a,,,,AAXX 29154 07255 12565 71410 10170 20130 39854 40047 58027 60006 8327/ 91500=
07255,1998-09-29 18:00:00,16,1003.8,-1,82,13,0,14.816,,,110,13.2,17.8,,,,,,,,,wg-a,,,,AAXX 29184 07255 12/// /1108 10160 20130 39844 40038 56010 60006 91800 333 10178 20132=
07255,1998-09-30 00:00:00,15,1001.6,-0.6,94,14,0,22.224,,,190,,,,,,,,,,,wg-a,,,,AAXX 30004 07255 12/// /1912 10150 20140 39822 40016 56006 60026 90000=
07255,1998-09-30 06:00:00,14,1003.8,1.2,94,13,12000,18.52,,,240,13.7,15.6,,,,,2,,,1,wg-a,,,,AAXX 30064 07255 02462 72410 10140 20130 39843 40038 51012 60006 70162 85231 90600 333 10156 20137 60024=
07255,1998-09-30 09:00:00,16,1004,0.4,77,12,15000,25.928,,,240,,,,,,,,,,,wg-a,,,,AAXX 30094 07255 12565 /2414 10160 20120 39847 40040 51004 60006 85200 90900=
07255,1998-09-30 12:00:00,19,1003.9,0,56,10,25000,25.928,,,240,,,,,,,,,,,wg-a,,,,AAXX 30124 07255 12575 42414 10190 20100 39847 40039 50000 60006 84200 91200=
07255,1998-09-30 15:00:00,18,1003.6,-0.3,59,10,25000,25.928,,,230,,,,,,,,,,25,wg-a,,,,AAXX 30154 07255 02675 /2314 10180 20100 39844 40036 55003 61000 72586 85900 91500 333 ////=
07255,1998-09-30 18:00:00,14,1004.7,0.8,77,10,0,14.816,,,220,13.8,19.5,,0,,,,,,,wg-a,,,,AAXX 30184 07255 12/// /2208 10140 20100 39852 40047 53008 60007 91800 333 10195 20138=
07255,1998-10-01 00:00:00,11,1005.2,-0.2,87,9,0,22.224,,,200,,,,,,,,,,,wg-a,,,,AAXX 01004 07255 12/// /2012 10110 20090 39855 40052 58002 60006 90000=
07255,1998-10-01 06:00:00,9,1004.8,0.1,93,8,20000,14.816,,,150,8.7,13.8,,,,,,,,,wg-a,,,,AAXX 01064 07255 02/70 41508 10090 20080 39850 40048 53001 60006 82031 90600 333 10138 20087 60004=
07255,1998-10-01 09:00:00,14,1004.2,-0.3,77,10,500,25.928,,,170,,,,,,,,,,,wg-a,,,,AAXX 01094 07255 12500 71714 10140 20100 39847 40042 57003 60006 81137 90900=
07255,1998-10-01 12:00:00,15,1003.7,-0.4,77,11,12000,18.52,,,180,,,,,,,,,,61,wg-a,,,,AAXX 01124 07255 02462 81810 10150 20110 39843 40037 56004 61000 76161 888// 91200 333 6100=
07255,1998-10-01 18:00:00,13,1003.3,-0,94,12,0,14.816,,,150,9.1,16.3,,,,,,,,,wg-a,,,,AAXX 01184 07255 32/// /1508 10130 20120 39838 40033 55000 91800 333 10163 20091=
07255,1998-10-02 00:00:00,12,1002.9,-0.1,94,11,0,14.816,,,150,,,,,,,,,,,wg-a,,,,AAXX 02004 07255 12/// /1508 10120 20110 39833 40029 55001 60016 90000=
07255,1998-10-02 06:00:00,12,1003,0.6,94,11,15000,14.816,,,80,11.7,12.9,,,,,4,,,1,wg-a,,,,AAXX 02064 07255 02565 70808 10120 20110 39834 40030 53006 60006 70162 875// 90600 333 10129 20117 60044=
07255,1998-10-02 09:00:00,13,1004.1,1.2,94,12,28000,18.52,,,70,,,,,,,,,,,wg-a,,,,AAXX 02094 07255 12478 70710 10130 20120 39846 40041 51012 60006 878// 90900=
07255,1998-10-02 12:00:00,15,1004.9,0.9,82,12,500,18.52,,,60,,,,,,,,,,25,wg-a,,,,AAXX 02124 07255 02500 70610 10150 20120 39855 40049 53009 61000 72586 878// 91200 333 6100=
07255,1998-10-02 15:00:00,16,1005.5,0.6,72,11,35000,14.816,,,40,,,,,,,,,,1,wg-a,,,,AAXX 02154 07255 02581 70408 10160 20110 39861 40055 53006 61000 70186 878// 91500 333 ////=
07255,1998-10-02 18:00:00,14,1008.2,2.5,82,11,0,14.816,,,20,11.7,16.4,,,,,,,,,wg-a,,,,AAXX 02184 07255 32/// /0208 10140 20110 39886 40082 53025 91800 333 10164 20117=
07255,1998-10-03 00:00:00,11,1011.5,0.8,94,10,0,7.408,,,340,,,,,,,,,,,wg-a,,,,AAXX 03004 07255 12/// /3404 10110 20100 39917 40115 50008 60006 90000=
07255,1998-10-03 06:00:00,10,1013.3,0.4,100,10,2000,11.112,,,290,9.1,13.8,,,,,,,,10,wg-a,,,,AAXX 03064 07255 02220 82906 10100 20100 39933 40133 53004 61000 71052 886// 90600 333 10138 20091 6001=
07255,1998-10-03 09:00:00,11,1014.1,0.9,87,9,500,7.408,,,290,,,,,,,,,,20,wg-a,,,,AAXX 03094 07255 02200 82904 10110 20090 39942 40141 52009 61000 72052 876// 90900 333 ////=
07255,1998-10-03 12:00:00,9,1013.9,-0.3,100,9,3500,7.408,,,360,,,,0,,,,,,10,wg-a,,,,AAXX 03124 07255 02335 83604 10090 20090 39939 40139 56003 60016 71065 877// 91200 333 60007=
07255,1998-10-03 15:00:00,9,1012.8,-1.1,93,8,1600,11.112,,,40,,,,1,,,,,,10,wg-a,,,,AAXX 03154 07255 12216 80406 10090 20080 39928 40128 57011 60017 71065 887// 91500=
07255,1998-10-03 18:00:00,8,1012.3,-0.6,93,7,0,3.704,,,130,8.1,11.1,,,,,,,,,wg-a,,,,AAXX 03184 07255 32/// /1302 10080 20070 39922 40123 56006 91800 333 10111 20081=
07255,1998-10-04 00:00:00,8,1009.9,-1.7,100,8,0,3.704,,,110,,,,,,,,,,,wg-a,,,,AAXX 04004 07255 02/// /1102 10080 20080 39899 40099 58017 61000 90000 333 ////=
07255,1998-10-04 06:00:00,8,1006.7,-1.4,100,8,2000,3.704,,,140,7.8,8.4,,,,,,,,10,wg-a,,,,AAXX 04064 07255 02420 81402 10080 20080 39867 40067 56014 61000 71065 887// 90600 333 10084 20078 6004=
07255,1998-10-04 09:00:00,9,1006.1,-0.5,93,8,2500,0,,,0,,,,0,,,,,,10,wg-a,,,,AAXX 04094 07255 12225 80000 10090 20080 39862 40061 56005 60007 71062 887// 90900=
07255,1998-10-04 12:00:00,11,1005.2,-0.8,87,9,500,3.704,,,340,,,,2,,,,,,61,wg-a,,,,AAXX 04124 07255 02200 83402 10110 20090 39854 40052 57008 60026 76162 8672/ 91200 333 60027=
07255,1998-10-04 15:00:00,11,1004.7,-0.4,87,9,12000,3.704,,,290,,,,1,,,,,,1,wg-a,,,,AAXX 04154 07255 12462 82902 10110 20090 39850 40047 55004 60017 70162 8687/ 91500=
07255,1998-10-04 18:00:00,10,1004.9,0.1,87,8,0,3.704,,,270,8.2,10.9,,,,,,,,,wg-a,,,,AAXX 04184 07255 32/// /2702 10100 20080 39851 40049 53001 91800 333 10109 20082=
07255,1998-10-05 00:00:00,4,1006.3,0,100,4,0,3.704,,,100,,,,,,,,,,,wg-a,,,,AAXX 05004 07255 12/// /1002 10040 20040 39860 40063 50000 60006 90000=
07255,1998-10-05 06:00:00,4,1007,0.6,100,4,200,7.408,,,100,3.9,9.5,,,,,3,,,45,wg-a,,,,AAXX 05064 07255 02/02 91004 10040 20040 39867 40070 53006 60006 74542 89/// 90600 333 10095 20039 60034=
07255,1998-10-05 09:00:00,7,1007.9,1.1,100,7,300,7.408,,,100,,,,,,,,,,43,wg-a,,,,AAXX 05094 07255 12/03 91004 10070 20070 39878 40079 53011 60006 74344 89/// 90900=
07255,1998-10-05 12:00:00,11,1007.5,-0.1,87,9,10000,7.408,,,110,,,,,,,,,,1,wg-a,,,,AAXX 05124 07255 12460 /1104 10110 20090 39877 40075 58001 60006 70142 85100 91200=
07255,1998-10-05 15:00:00,14,1006.8,-0.5,67,8,20000,3.704,,,100,,,,,,,,,,,wg-a,,,,AAXX 05154 07255 12570 41002 10140 20080 39872 40068 55005 60006 84101 91500=
07255,1998-10-05 18:00:00,13,1007.9,1,67,7,0,11.112,,,60,4.2,14.8,,,,,,,,,wg-a,,,,AAXX 05184 07255 12/// /0606 10130 20070 39882 40079 53010 60006 91800 333 10148 20042=
07255,1998-10-06 00:00:00,9,1009,-0,81,6,0,11.112,,,90,,,,,,,,,,,wg-a,,,,AAXX 06004 07255 12/// /0906 10090 20060 39890 40090 55000 60006 90000=
07255,1998-10-06 06:00:00,5,1008.3,-0.4,93,4,7000,7.408,,,330,4.6,12.8,,,,,,,,,wg-a,,,,AAXX 06064 07255 02/57 73304 10050 20040 39881 40083 55004 60006 83034 90600 333 10128 20046 60004=
07255,1998-10-06 09:00:00,8,1009.5,1.4,93,7,4000,7.408,,,340,,,,,,,,,,10,wg-a,,,,AAXX 06094 07255 12240 83404 10080 20070 39895 40095 53014 60006 71022 8553/ 90900=
07255,1998-10-06 12:00:00,10,1010.2,0.8,87,8,4500,7.408,,,360,,,,,,,,,,10,wg-a,,,,AAXX 06124 07255 12245 83604 10100 20080 39903 40102 52008 60006 71022 876// 91200=
07255,1998-10-06 15:00:00,10,1011.4,1.2,93,9,4000,11.112,,,360,,,,,,,,,,10,wg-a,,,,AAXX 06154 07255 12340 83606 10100 20090 39915 40114 53012 60006 71022 876// 91500=
07255,1998-10-06 18:00:00,10,1013.3,1.8,93,9,0,7.408,,,350,5,10.5,,,,,,,,,wg-a,,,,AAXX 06184 07255 32/// /3504 10100 20090 39933 40133 53018 91800 333 10105 20050=
07255,1998-10-07 00:00:00,9,1014.8,0.3,100,9,0,7.408,,,300,,,,,,,,,,,wg-a,,,,AAXX 07004 07255 12/// /3004 10090 20090 39947 40148 52003 60026 90000=
07255,1998-10-07 06:00:00,8,1016.5,1.3,93,7,2500,7.408,,,340,7.8,9.6,,,,,,,,10,wg-a,,,,AAXX 07064 07255 02225 83404 10080 20070 39963 40165 52013 61000 71065 885// 90600 333 10096 20078 6003=
07255,1998-10-07 09:00:00,8,1018,1.5,93,7,4000,7.408,,,320,,,,,,,,,,10,wg-a,,,,AAXX 07094 07255 02340 83204 10080 20070 39978 40180 51015 61000 71052 877// 90900 333 ////=
07255,1998-10-07 12:00:00,9,1017.9,-0,87,7,8000,14.816,,,350,,,,,,,,,,1,wg-a,,,,AAXX 07124 07255 02458 83508 10090 20070 39978 40179 55000 61000 70152 885// 91200 333 6100=
07255,1998-10-07 15:00:00,10,1018.7,0.8,82,7,9000,14.816,,,320,,,,,,,,,,,wg-a,,,,AAXX 07154 07255 12459 83208 10100 20070 39986 40187 51008 60006 875// 91500=
07255,1998-10-07 18:00:00,9,1019.9,1.2,93,8,0,11.112,,,300,7.7,9.8,,,,,,,,,wg-a,,,,AAXX 07184 07255 32/// /3006 10090 20080 39998 40199 53012 91800 333 10098 20077=
07255,1998-10-08 00:00:00,9,1020,0.1,100,9,0,11.112,,,310,,,,,,,,,,,wg-a,,,,AAXX 08004 07255 12/// /3106 10090 20090 39999 40200 51001 60006 90000=
07255,1998-10-08 06:00:00,9,1018.7,-0,100,9,3500,14.816,,,300,9.1,9.5,,,,,,,,10,wg-a,,,,AAXX 08064 07255 02135 83008 10090 20090 39986 40187 54000 61000 71052 877// 90600 333 10095 20091 6000=
07255,1998-10-08 09:00:00,10,1019.7,1,93,9,3000,11.112,,,310,,,,1,,,,,,10,wg-a,,,,AAXX 08094 07255 12130 83106 10100 20090 39996 40197 53010 60017 71065 877// 90900=
07255,1998-10-08 12:00:00,11,1019.8,0.2,94,10,12000,11.112,,,340,,,,0,,,,,,60,wg-a,,,,AAXX 08124 07255 02362 83406 10110 20100 39998 40198 51002 60016 76065 878// 91200 333 60007=
07255,1998-10-08 15:00:00,11,1018.7,-1.1,94,10,9000,11.112,,,280,,,,1,,,,,,61,wg-a,,,,AAXX 08154 07255 12259 82806 10110 20100 39987 40187 58011 60017 76166 875// 91500=
07255,1998-10-08 18:00:00,11,1018.6,-0.1,94,10,0,11.112,,,320,9.2,11.9,,,,,,,,,wg-a,,,,AAXX 08184 07255 32/// /3206 10110 20100 39986 40186 55001 91800 333 10119 20092=
07255,1998-10-09 00:00:00,9,1018.1,0.1,100,9,0,7.408,,,20,,,,,,,,,,,wg-a,,,,AAXX 09004 07255 12/// /0204 10090 20090 39980 40181 53001 60056 90000=
07255,1998-10-09 06:00:00,9,1020.9,1.6,100,9,8000,7.408,,,110,8.6,10.5,,,,,10,,,3,wg-a,,,,AAXX 09064 07255 02258 /1104 10090 20090 30007 40209 51016 60006 70361 85700 90600 333 10105 20086 60104=
07255,1998-10-09 09:00:00,10,1022.4,1.6,93,9,8000,7.408,,,110,,,,,,,,,,,wg-a,,,,AAXX 09094 07255 12258 71104 10100 20090 30023 40224 50016 60006 875// 90900=
07255,1998-10-09 12:00:00,13,1021.8,-0.4,77,9,25000,7.408,,,220,,,,,,,,,,,wg-a,,,,AAXX 09124 07255 12475 /2204 10130 20090 30019 40218 58004 60006 86800 91200=
07255,1998-10-09 15:00:00,13,1020.5,-1.3,77,9,25000,11.112,,,290,,,,,,,,,,,wg-a,,,,AAXX 09154 07255 12575 72906 10130 20090 30006 40205 56013 60006 878// 91500=
07255,1998-10-09 18:00:00,12,1020.7,0.1,88,10,0,3.704,,,270,9.1,13.8,,,,,,,,,wg-a,,,,AAXX 09184 07255 12/// /2702 10120 20100 30007 40207 53001 60006 91800 333 10138 20091=
07255,1998-10-10 00:00:00,11,1019.2,-1.4,87,9,0,14.816,,,250,,,,,,,,,,,wg-a,,,,AAXX 10004 07255 12/// /2508 10110 20090 39992 40192 57014 60006 90000=
07255,1998-10-10 06:00:00,10,1017.2,-0.9,87,8,10000,18.52,,,220,9.5,12,,,,,,,,,wg-a,,,,AAXX 10064 07255 02660 72210 10100 20080 39971 40172 58009 60006 8557/ 90600 333 10120 20095 60004=
07255,1998-10-10 09:00:00,11,1017,-0.1,87,9,4000,22.224,,,220,,,,,,,,,,10,wg-a,,,,AAXX 10094 07255 02440 82212 10110 20090 39970 40170 56001 61000 71065 887// 90900 333 ////=
07255,1998-10-10 12:00:00,13,1015.5,-1.3,94,12,3000,25.928,,,230,,,,1,,,,,,10,wg-a,,,,AAXX 10124 07255 02330 82314 10130 20120 39957 40155 58013 60016 71065 887// 91200 333 60017=
07255,1998-10-10 15:00:00,13,1015,-0.5,94,12,3000,22.224,,38.892,240,,,,0,,,,,,10,wg-a,,,,AAXX 10154 07255 12230 82412 10130 20120 39952 40150 56005 60007 71065 887// 91500 333 91021=
07255,1998-10-10 18:00:00,13,1016.3,1.3,94,12,0,14.816,,,250,9.1,13.6,,,,,,,,,wg-a,,,,AAXX 10184 07255 32/// /2508 10130 20120 39965 40163 53013 91800 333 10136 20091=
07255,1998-10-11 00:00:00,10,1019.4,0.7,100,10,0,11.112,,,270,,,,,,,,,,,wg-a,,,,AAXX 11004 07255 12/// /2706 10100 20100 39993 40194 51007 60006 90000=
07255,1998-10-11 06:00:00,10,1019.9,0.1,93,9,3000,14.816,,,240,9.1,12.9,,,,,3,,,10,wg-a,,,,AAXX 11064 07255 02230 72408 10100 20090 39998 40199 51001 60006 71011 876// 90600 333 10129 20091 60034=
07255,1998-10-11 09:00:00,12,1020.5,0.7,88,10,6000,22.224,,,250,,,,,,,,,,,wg-a,,,,AAXX 11094 07255 12256 72512 10120 20100 30005 40205 50007 60006 87532 90900=
07255,1998-10-11 12:00:00,13,1018.6,-1.7,82,10,12000,29.632,,,260,,,,,,,,,,51,wg-a,,,,AAXX 11124 07255 02462 72616 10130 20100 39988 40186 58017 61000 75165 878// 91200 333 6100=
07255,1998-10-11 15:00:00,13,1016.5,-2.1,94,12,2500,29.632,,,240,,,,4,,,,,,10,wg-a,,,,AAXX 11154 07255 12225 82416 10130 20120 39967 40165 57021 60047 71065 877// 91500=
07255,1998-10-11 18:00:00,13,1015.7,-0.8,100,13,0,25.928,,,250,9.7,13.9,,4,,,,,,,wg-a,,,,AAXX 11184 07255 12/// /2514 10130 20130 39959 40157 55008 60047 91800 333 10139 20097=
07255,1998-10-12 00:00:00,13,1015.9,-0,88,11,0,14.816,,,320,,,,,,,,,,,wg-a,,,,AAXX 12004 07255 02/// /3208 10130 20110 39961 40159 55000 61000 90000 333 ////=
07255,1998-10-12 06:00:00,10,1017.5,0.9,93,9,18000,11.112,,,280,10.3,14.3,,,,,8,,,,wg-a,,,,AAXX 12064 07255 02668 72806 10100 20090 39975 40175 51009 60006 875// 90600 333 10143 20103 60084=
07255,1998-10-12 09:00:00,11,1019.3,1.8,87,9,18000,14.816,,,270,,,,,,,,,,,wg-a,,,,AAXX 12094 07255 12668 72708 10110 20090 39993 40193 51018 60006 875// 90900=
07255,1998-10-12 12:00:00,14,1019.8,0.7,72,9,18000,18.52,,,320,,,,,,,,,,,wg-a,,,,AAXX 12124 07255 12568 73210 10140 20090 30000 40198 51007 60006 878// 91200=
07255,1998-10-12 15:00:00,15,1020.6,0.8,59,7,500,14.816,,,320,,,,,,,,,,1,wg-a,,,,AAXX 12154 07255 02600 53208 10150 20070 30008 40206 53008 61000 70186 84801 91500 333 ////=
07255,1998-10-12 18:00:00,11,1022.3,1.5,87,9,0,7.408,,,290,10.3,15.2,,,,,,,,,wg-a,,,,AAXX 12184 07255 32/// /2904 10110 20090 30023 40223 53015 91800 333 10152 20103=
07255,1998-10-13 00:00:00,8,1024.4,0.3,93,7,0,7.408,,,260,,,,,,,,,,,wg-a,,,,AAXX 13004 07255 12/// /2604 10080 20070 30041 40244 50003 60006 90000=
07255,1998-10-13 06:00:00,7,1025,0.1,93,6,6000,7.408,,,200,6,11.3,,,,,,,,,wg-a,,,,AAXX 13064 07255 02656 82004 10070 20060 30046 40250 50001 60006 875// 90600 333 10113 20060 60004=
07255,1998-10-13 09:00:00,9,1026.2,1.3,93,8,9000,3.704,,,200,,,,,,,,,,,wg-a,,,,AAXX 13094 07255 12259 72002 10090 20080 30059 40262 52013 60006 878// 90900=
07255,1998-10-13 12:00:00,14,1025.3,-0.5,72,9,20000,14.816,,,230,,,,,,,,,,,wg-a,,,,AAXX 13124 07255 12470 72308 10140 20090 30054 40253 58005 60006 8783/ 91200=
07255,1998-10-13 15:00:00,15,1024.2,-1,67,9,500,14.816,,,260,,,,,,,,,,,wg-a,,,,AAXX 13154 07255 12500 72608 10150 20090 30044 40242 56010 60006 84831 91500=
07255,1998-10-13 18:00:00,13,1024.3,-0,88,11,0,7.408,,,230,6.6,15.3,,,,,,,,,wg-a,,,,AAXX 13184 07255 12/// /2304 10130 20110 30044 40243 55000 60006 91800 333 10153 20066=
07255,1998-10-14 00:00:00,12,1024.4,0,94,11,0,18.52,,,260,,,,,,,,,,,wg-a,,,,AAXX 14004 07255 12/// /2610 10120 20110 30044 40244 50000 60006 90000=
07255,1998-10-14 06:00:00,13,1024.2,0.5,94,12,8000,22.224,,,260,11.8,13.3,,,,,1,,,3,wg-a,,,,AAXX 14064 07255 02258 82612 10130 20120 30042 40242 51005 60006 70362 877// 90600 333 10133 20118 60014=
07255,1998-10-14 09:00:00,14,1025.6,1.5,94,13,12000,18.52,,,250,,,,,,,,,,20,wg-a,,,,AAXX 14094 07255 02262 82510 10140 20130 30057 40256 51015 61000 72052 875// 90900 333 ////=
07255,1998-10-14 12:00:00,16,1025.1,-0.4,82,13,28000,22.224,,,250,,,,,,,,,,1,wg-a,,,,AAXX 14124 07255 02378 72512 10160 20130 30053 40251 58004 61000 70152 878// 91200 333 ////=
07255,1998-10-14 15:00:00,16,1024.9,-0.2,82,13,500,22.224,,,240,,,,0,,,,,,1,wg-a,,,,AAXX 14154 07255 12400 72412 10160 20130 30051 40249 56002 60007 70186 878// 91500=
07255,1998-10-14 18:00:00,15,1026.1,1.2,88,13,0,11.112,,,250,12.5,16.5,,,,,,,,,wg-a,,,,AAXX 14184 07255 32/// /2506 10150 20130 30063 40261 53012 91800 333 10165 20125=
07255,1998-10-15 00:00:00,14,1026.1,-0.3,94,13,0,14.816,,,250,,,,,,,,,,,wg-a,,,,AAXX 15004 07255 12/// /2508 10140 20130 30062 40261 58003 60006 90000=
07255,1998-10-15 06:00:00,14,1025.2,-0.2,94,13,18000,11.112,,,250,13.6,14.9,,,,,,,,,wg-a,,,,AAXX 15064 07255 02568 72506 10140 20130 30053 40252 56002 60006 875// 90600 333 10149 20136 60004=
07255,1998-10-15 09:00:00,16,1025.6,0.6,88,14,20000,18.52,,,250,,,,,,,,,,60,wg-a,,,,AAXX 15094 07255 02370 72510 10160 20140 30059 40256 51006 61000 76062 878// 90900 333 ////=
07255,1998-10-15 12:00:00,18,1024.5,-1,73,13,25000,18.52,,,260,,,,,,,,,,1,wg-a,,,,AAXX 15124 07255 02575 72610 10180 20130 30049 40245 58010 61000 70162 8653/ 91200 333 6100=
07255,1998-10-15 15:00:00,17,1023.4,-1.2,82,14,18000,11.112,,,280,,,,,,,,,,,wg-a,,,,AAXX 15154 07255 12468 82806 10170 20140 30037 40234 56012 60006 875// 91500=
07255,1998-10-15 18:00:00,16,1023.5,0.1,88,14,0,7.408,,,230,13.8,18.2,,,,,,,,,wg-a,,,,AAXX 15184 07255 32/// /2304 10160 20140 30038 40235 53001 91800 333 10182 20138=
07255,1998-10-16 00:00:00,15,1022.8,-0.8,94,14,0,7.408,,,200,,,,,,,,,,,wg-a,,,,AAXX 16004 07255 12/// /2004 10150 20140 30030 40228 58008 60006 90000=
07255,1998-10-16 06:00:00,14,1020.8,-0.8,94,13,15000,3.704,,,110,14.3,16.1,,,,,,,,,wg-a,,,,AAXX 16064 07255 02565 81102 10140 20130 30010 40208 58008 60006 875// 90600 333 10161 20143 61000=
07255,1998-10-16 09:00:00,16,1020,-0.7,88,14,18000,11.112,,,120,,,,,,,,,,,wg-a,,,,AAXX 16094 07255 12468 81206 10160 20140 30003 40200 58007 60006 878// 90900=
07255,1998-10-16 12:00:00,19,1017.6,-2.1,68,13,28000,11.112,,,150,,,,,,,,,,,wg-a,,,,AAXX 16124 07255 12578 71506 10190 20130 39982 40176 58021 60006 84502 91200=
07255,1998-10-16 15:00:00,20,1015.1,-2.4,60,12,25000,11.112,,,220,,,,,,,,,,,wg-a,,,,AAXX 16154 07255 12575 /2206 10200 20120 39958 40151 56024 60006 81102 91500=
07255,1998-10-16 18:00:00,16,1014.2,-1.1,82,13,0,11.112,,,180,14.3,20.5,,,,,,,,,wg-a,,,,AAXX 16184 07255 12/// /1806 10160 20130 39947 40142 56011 60006 91800 333 10205 20143=
07255,1998-10-17 00:00:00,11,1012.7,-1,100,11,0,7.408,,,170,,,,,,,,,,,wg-a,,,,AAXX 17004 07255 12/// /1704 10110 20110 39929 40127 58010 60006 90000=
07255,1998-10-17 06:00:00,10,1011.1,-0.5,93,9,12000,3.704,,,160,9.4,16,,,,,,,,,wg-a,,,,AAXX 17064 07255 02762 71602 10100 20090 39912 40111 58005 60006 845/2 90600 333 10160 20094 60004=
07255,1998-10-17 09:00:00,15,1011.2,0.4,88,13,10000,14.816,,,260,,,,,,,,,,,wg-a,,,,AAXX 17094 07255 12760 72608 10150 20130 39916 40112 51004 60006 81532 90900=
07255,1998-10-17 12:00:00,18,1010.8,-0.1,73,13,10000,29.632,,48.152,240,,,,,,,,,,,wg-a,,,,AAXX 17124 07255 12460 82416 10180 20130 39915 40108 58001 60006 8557/ 91200 333 91026=
07255,1998-10-17 15:00:00,15,1011.3,0.3,94,14,6000,22.224,,,240,,,,1,,,,,,61,wg-a,,,,AAXX 17154 07255 12356 82412 10150 20140 39918 40113 53003 60017 76162 875// 91500=
07255,1998-10-17 18:00:00,12,1014.4,2.8,94,11,0,7.408,,,270,9.7,18,,3,,,,,,,wg-a,,,,AAXX 17184 07255 12/// /2704 10120 20110 39946 40144 53028 60037 91800 333 10180 20097=
07255,1998-10-18 00:00:00,8,1019.1,1.4,93,7,0,11.112,,,260,,,,,,,,,,,wg-a,,,,AAXX 18004 07255 02/// /2606 10080 20070 39989 40191 51014 61000 90000 333 ////=
07255,1998-10-18 06:00:00,6,1021.5,0.9,93,5,12000,7.408,,,230,5.4,12.2,,,,,4,,,,wg-a,,,,AAXX 18064 07255 02/62 42304 10060 20050 30010 40215 53009 60006 82081 90600 333 10122 20054 60044=
07255,1998-10-18 09:00:00,10,1021.9,0.8,87,8,15000,7.408,,,240,,,,,,,,,,,wg-a,,,,AAXX 18094 07255 12465 72404 10100 20080 30018 40219 50008 60006 81102 90900=
07255,1998-10-18 12:00:00,14,1020.9,-0.8,63,7,25000,14.816,,,260,,,,,,,,,,,wg-a,,,,AAXX 18124 07255 12575 72608 10140 20070 30010 40209 58008 60006 85201 91200=
07255,1998-10-18 15:00:00,14,1019.3,-1.5,58,6,500,7.408,,,280,,,,,,,,,,,wg-a,,,,AAXX 18154 07255 12600 72804 10140 20060 39995 40193 56015 60006 85802 91500=
07255,1998-10-18 18:00:00,10,1019.6,-0,82,7,0,3.704,,,70,5.3,14.4,,,,,,,,,wg-a,,,,AAXX 18184 07255 12/// /0702 10100 20070 39995 40196 55000 60006 91800 333 10144 20053=
07255,1998-10-19 00:00:00,7,1019,-0.6,93,6,0,7.408,,,110,,,,,,,,,,,wg-a,,,,AAXX 19004 07255 12/// /1104 10070 20060 39987 40190 58006 60006 90000=
07255,1998-10-19 06:00:00,3,1019.1,0.5,93,2,200,0,,,0,2.8,10,,,,,,,,44,wg-a,,,,AAXX 19064 07255 02/02 00000 10030 20020 39985 40191 53005 60006 74440 80000 90600 333 10100 20028 60004=
07255,1998-10-19 09:00:00,6,1021,2.1,93,5,1200,3.704,,,210,,,,,,,,,,10,wg-a,,,,AAXX 19094 07255 12212 72102 10060 20050 30006 40210 52021 60006 71041 875// 90900=
07255,1998-10-19 12:00:00,13,1020.6,0.1,72,8,15000,11.112,,,330,,,,,,,,,,3,wg-a,,,,AAXX 19124 07255 12465 /3306 10130 20080 30007 40206 50001 60006 70341 85200 91200=
07255,1998-10-19 15:00:00,14,1020.4,-0.2,55,5,15000,7.408,,,330,,,,,,,,,,,wg-a,,,,AAXX 19154 07255 12665 73304 10140 20050 30005 40204 55002 60006 874// 91500=
07255,1998-10-19 18:00:00,10,1022.2,1.6,87,8,0,7.408,,,300,2.2,14.3,,,,,,,,,wg-a,,,,AAXX 19184 07255 32/// /3004 10100 20080 30021 40222 53016 91800 333 10143 20022=
07255,1998-10-20 00:00:00,6,1024.5,0.5,93,5,0,7.408,,,270,,,,,,,,,,,wg-a,,,,AAXX 20004 07255 12/// /2704 10060 20050 30040 40245 51005 60006 90000=
07255,1998-10-20 06:00:00,3,1025.6,0.9,100,3,3000,3.704,,,240,3.4,10.3,,,,,1,,,11,wg-a,,,,AAXX 20064 07255 02/30 02402 10030 20030 30049 40256 51009 60006 71100 80000 90600 333 10103 20034 60014=
07255,1998-10-20 09:00:00,7,1026.7,1.4,100,7,500,3.704,,,300,,,,,,,,,,3,wg-a,,,,AAXX 20094 07255 12100 33002 10070 20070 30063 40267 51014 60006 70340 83600 90900=
07255,1998-10-20 12:00:00,13,1026.2,-0.1,67,7,18000,7.408,,,280,,,,,,,,,,3,wg-a,,,,AAXX 20124 07255 12468 42804 10130 20070 30062 40262 58001 60006 70340 84200 91200=
07255,1998-10-20 18:00:00,9,1025.5,-0.3,76,5,0,7.408,,,190,3,14.2,,,,,,,,,wg-a,,,,AAXX 20184 07255 12/// /1904 10090 20050 30052 40255 55003 60006 91800 333 10142 20030=
07255,1998-10-21 00:00:00,5,1024.4,-1.2,87,3,0,7.408,,,140,,,,,,,,,,,wg-a,,,,AAXX 21004 07255 12/// /1404 10050 20030 30038 40244 58012 60006 90000=
07255,1998-10-21 06:00:00,5,1022.7,-0.8,87,3,15000,14.816,,,150,4.1,9.4,,,,,,,,,wg-a,,,,AAXX 21064 07255 02/65 71508 10050 20030 30022 40227 58008 60006 82042 90600 333 10094 20041 60004=
07255,1998-10-21 09:00:00,9,1023.5,1.1,81,6,25000,7.408,,,160,,,,,,,,,,,wg-a,,,,AAXX 21094 07255 12/75 71604 10090 20060 30033 40235 51011 60006 82042 90900=
07255,1998-10-21 12:00:00,15,1023.2,0,55,6,500,14.816,,,250,,,,,,,,,,,wg-a,,,,AAXX 21124 07255 12/00 42508 10150 20060 30033 40232 50000 60006 82042 91200=
07255,1998-10-21 15:00:00,16,1022.1,-0.9,48,5,40000,18.52,,,250,,,,,,,,,,,wg-a,,,,AAXX 21154 07255 12/82 52510 10160 20050 30024 40221 55009 60006 82042 91500=
07255,1998-10-21 18:00:00,13,1023.8,1.4,58,5,0,14.816,,,230,4.8,16.9,,,,,,,,,wg-a,,,,AAXX 21184 07255 12/// /2308 10130 20050 30038 40238 53014 60006 91800 333 10169 20048=
07255,1998-10-22 00:00:00,11,1025.3,0.5,71,6,0,7.408,,,170,,,,,,,,,,,wg-a,,,,AAXX 22004 07255 12/// /1704 10110 20060 30051 40253 50005 60006 90000=
07255,1998-10-22 06:00:00,9,1025.8,0.3,87,7,15000,3.704,,,100,7.9,13,,,,,,,,,wg-a,,,,AAXX 22064 07255 02/65 71002 10090 20070 30055 40258 53003 60006 85032 90600 333 10130 20079 60004=
07255,1998-10-22 09:00:00,13,1026.3,0.8,77,9,15000,7.408,,,160,,,,,,,,,,,wg-a,,,,AAXX 22094 07255 12765 71604 10130 20090 30063 40263 50008 60006 84532 90900=
07255,1998-10-22 12:00:00,19,1025.4,-0.5,56,10,20000,14.816,,,230,,,,,,,,,,,wg-a,,,,AAXX 22124 07255 12770 32308 10190 20100 30058 40254 58005 60006 81532 91200=
07255,1998-10-22 15:00:00,20,1023.9,-1.4,49,9,500,14.816,,,220,,,,,,,,,,,wg-a,,,,AAXX 22154 07255 12/00 22208 10200 20090 30044 40239 57014 60006 81031 91500=
07255,1998-10-22 18:00:00,14,1025.4,1.1,77,10,0,11.112,,,200,9.2,20.3,,,,,,,,,wg-a,,,,AAXX 22184 07255 12/// /2006 10140 20100 30055 40254 52011 60006 91800 333 10203 20092=
07255,1998-10-23 00:00:00,13,1024.6,-0.7,82,10,0,14.816,,,210,,,,,,,,,,,wg-a,,,,AAXX 23004 07255 12/// /2108 10130 20100 30046 40246 58007 60006 90000=
07255,1998-10-23 06:00:00,13,1021.9,-1.3,88,11,12000,22.224,,,220,12.3,14.5,,,,,,,,,wg-a,,,,AAXX 23064 07255 02/62 72212 10130 20110 30020 40219 57013 60006 81032 90600 333 10145 20123 60004=
07255,1998-10-23 09:00:00,16,1021.8,0.1,68,10,18000,25.928,,,220,,,,,,,,,,,wg-a,,,,AAXX 23094 07255 12/68 72214 10160 20100 30021 40218 50001 60006 83032 90900=
07255,1998-10-23 12:00:00,17,1020.9,-0.8,77,13,18000,25.928,,,250,,,,,,,,,,,wg-a,,,,AAXX 23124 07255 12668 82514 10170 20130 30013 40209 57008 60006 875// 91200=
07255,1998-10-23 15:00:00,17,1019.4,-1.5,77,13,15000,25.928,,,240,,,,,,,,,,,wg-a,,,,AAXX 23154 07255 12465 82414 10170 20130 39998 40194 56015 60006 878// 91500=
07255,1998-10-23 18:00:00,15,1018.7,-0.8,88,13,0,29.632,,,220,13,17.8,,7,,,,,,,wg-a,,,,AAXX 23184 07255 12/// /2216 10150 20130 39990 40187 58008 60077 91800 333 10178 20130=
07255,1998-10-24 00:00:00,13,1022,1.6,94,12,0,18.52,,,280,,,,,,,,,,,wg-a,,,,AAXX 24004 07255 12/// /2810 10130 20120 30021 40220 53016 60066 90000=
07255,1998-10-24 06:00:00,9,1022.3,-0.5,100,9,500,7.408,,,210,9.2,14.6,,,,,13,,,,wg-a,,,,AAXX 24064 07255 02300 72104 10090 20090 30021 40223 55005 60006 84532 90600 333 10146 20092 60134=
07255,1998-10-24 09:00:00,12,1020.1,-2,94,11,8000,14.816,,,190,,,,,,,,,,,wg-a,,,,AAXX 24094 07255 12358 81908 10120 20110 30001 40201 58020 60006 8552/ 90900=
07255,1998-10-24 12:00:00,13,1015.5,-4.3,94,12,7000,18.52,,,200,,,,1,,,,,,61,wg-a,,,,AAXX 24124 07255 02357 82010 10130 20120 39958 40155 58043 60016 76162 875// 91200 333 60017=
07255,1998-10-24 15:00:00,15,1009.9,-5.4,82,12,18000,35.188,,,230,,,,1,,,,,,3,wg-a,,,,AAXX 24154 07255 12468 82319 10150 20120 39904 40099 56054 60017 70365 875// 91500=
07255,1998-10-24 18:00:00,16,1004.4,-5.3,88,14,0,46.3,,,230,9.1,16.2,,,,,,,,,wg-a,,,,AAXX 24184 07255 32/// /2325 10160 20140 39851 40044 56053 91800 333 10162 20091=
07255,1998-10-25 00:00:00,14,1001.8,1.5,88,12,0,31.484,,,280,,,,6,,,,,,,wg-a,,,,AAXX 25004 07255 02/// /2817 10140 20120 39824 40018 53015 60126 90000 333 60067=
07255,1998-10-25 06:00:00,13,1005.4,1.9,82,10,20000,22.224,,,270,12,17.3,,,,,14,,,,wg-a,,,,AAXX 25064 07255 02470 82712 10130 20100 39858 40054 53019 60006 8487/ 90600 333 10173 20120 60144=
07255,1998-10-25 09:00:00,13,1008.6,3.1,82,10,13000,18.52,,,280,,,,,,,,,,,wg-a,,,,AAXX 25094 07255 12463 72810 10130 20100 39889 40086 51031 60006 84231 90900=
07255,1998-10-25 12:00:00,15,1008.7,0.2,63,8,25000,29.632,,,270,,,,,,,,,,,wg-a,,,,AAXX 25124 07255 12475 52716 10150 20080 39891 40087 50002 60006 84201 91200=
07255,1998-10-25 15:00:00,15,1008.6,-0,67,9,25000,18.52,,38.892,280,,,,,,,,,,,wg-a,,,,AAXX 25154 07255 12575 22810 10150 20090 39891 40086 55000 60006 82900 91500 333 91021=
07255,1998-10-25 18:00:00,11,1011.2,2.3,82,8,0,11.112,,,280,11.2,15.8,,,,,,,,,wg-a,,,,AAXX 25184 07255 12/// /2806 10110 20080 39914 40112 53023 60006 91800 333 10158 20112=
07255,1998-10-26 00:00:00,9,1014.4,1.2,93,8,0,18.52,,,260,,,,,,,,,,,wg-a,,,,AAXX 26004 07255 12/// /2610 10090 20080 39943 40144 51012 60006 90000=
07255,1998-10-26 06:00:00,6,1016.4,1.2,93,5,9000,11.112,,,240,6.1,11.2,,,,,,,,,wg-a,,,,AAXX 26064 07255 02/59 /2406 10060 20050 39961 40164 51012 60006 81031 90600 333 10112 20061 60004=
07255,1998-10-26 09:00:00,10,1016.6,0.5,87,8,10000,18.52,,,230,,,,0,,,,,,,wg-a,,,,AAXX 26094 07255 12460 72310 10100 20080 39966 40166 50005 60007 8587/ 90900=
07255,1998-10-26 12:00:00,12,1015.5,-1,82,9,500,25.928,,,260,,,,1,,,,,,1,wg-a,,,,AAXX 26124 07255 02400 72614 10120 20090 39956 40155 56010 60016 70186 8687/ 91200 333 60017=
07255,1998-10-26 15:00:00,13,1016.5,1.1,67,7,40000,18.52,,,300,,,,,,,,,,,wg-a,,,,AAXX 26154 07255 12582 43010 10130 20070 39967 40165 53011 60006 84800 91500=
07255,1998-10-26 18:00:00,10,1020.2,3.4,87,8,0,11.112,,,300,5.8,13.9,,,,,,,,,wg-a,,,,AAXX 26184 07255 32/// /3006 10100 20080 30001 40202 53034 91800 333 10139 20058=
07255,1998-10-27 00:00:00,7,1024.5,1.4,93,6,0,11.112,,,270,,,,,,,,,,,wg-a,,,,AAXX 27004 07255 12/// /2706 10070 20060 30041 40245 51014 60006 90000=
07255,1998-10-27 06:00:00,7,1025.1,0.2,93,6,10000,22.224,,,230,6.2,10.2,,,,,2,,,,wg-a,,,,AAXX 27064 07255 02560 72312 10070 20060 30047 40251 52002 60006 875// 90600 333 10102 20062 60024=
07255,1998-10-27 09:00:00,12,1025.4,0.6,82,9,25000,22.224,,,240,,,,,,,,,,,wg-a,,,,AAXX 27094 07255 12475 32412 10120 20090 30053 40254 51006 60006 81801 90900=
07255,1998-10-27 12:00:00,15,1023.5,-1.6,72,10,500,31.484,,,250,,,,,,,,,,,wg-a,,,,AAXX 27124 07255 12500 72517 10150 20100 30037 40235 58016 60006 86101 91200=
07255,1998-10-27 15:00:00,14,1021.9,-1.7,77,10,500,22.224,,,230,,,,,,,,,,,wg-a,,,,AAXX 27154 07255 12500 72312 10140 20100 30020 40219 58017 60006 84537 91500=
07255,1998-10-27 18:00:00,12,1021.4,-0.6,82,9,0,18.52,,,230,7.1,15,,,,,,,,,wg-a,,,,AAXX 27184 07255 12/// /2310 10120 20090 30014 40214 58006 60006 91800 333 10150 20071=
07255,1998-10-28 00:00:00,13,1019.3,-1.5,77,9,0,29.632,,,230,,,,,,,,,,,wg-a,,,,AAXX 28004 07255 12/// /2316 10130 20090 39994 40193 58015 60006 90000=
07255,1998-10-28 06:00:00,14,1016.5,-0.2,94,13,8000,38.892,,,250,11.5,14.2,,,,,,,,50,wg-a,,,,AAXX 28064 07255 02458 82521 10140 20130 39968 40165 55002 61000 75065 8557/ 90600 333 10142 20115 6000=
07255,1998-10-28 09:00:00,15,1017.6,1.1,94,14,8000,31.484,,55.56,240,,,,0,,,,,,20,wg-a,,,,AAXX 28094 07255 12458 82417 10150 20140 39979 40176 53011 60007 72052 875// 90900 333 91030=
07255,1998-10-28 12:00:00,17,1016.6,-0.8,82,14,15000,38.892,,,250,,,,0,,,,,,1,wg-a,,,,AAXX 28124 07255 02365 82521 10170 20140 39971 40166 58008 60016 70152 885// 91200 333 60007=
07255,1998-10-28 18:00:00,16,1017.1,0.8,94,15,0,35.188,,,250,14,17.3,,0,,,,,,,wg-a,,,,AAXX 28184 07255 12/// /2519 10160 20150 39975 40171 52008 60007 91800 333 10173 20140=
07255,1998-10-29 00:00:00,16,1014.6,-1.4,88,14,0,35.188,,,250,,,,,,,,,,,wg-a,,,,AAXX 29004 07255 12/// /2519 10160 20140 39951 40146 56014 60006 90000=
07255,1998-10-29 06:00:00,10,1015.1,2.3,93,9,500,25.928,,,330,9.9,16.5,,,,,,,,61,wg-a,,,,AAXX 29064 07255 02400 83314 10100 20090 39951 40151 53023 61000 76162 877// 90600 333 10165 20099 6008=
07255,1998-10-29 09:00:00,9,1019.5,4.2,87,7,13000,25.928,,,270,,,,7,,,,,,60,wg-a,,,,AAXX 29094 07255 12363 82714 10090 20070 39993 40195 53042 60077 76062 885// 90900=
07255,1998-10-29 12:00:00,13,1022,2.8,72,8,20000,22.224,,,290,,,,0,,,,,,1,wg-a,,,,AAXX 29124 07255 02470 /2912 10130 20080 30021 40220 51028 60076 70162 85200 91200 333 60007=
07255,1998-10-29 18:00:00,9,1026.9,1.8,76,5,0,7.408,,,270,8.5,14.3,,,,,,,,,wg-a,,,,AAXX 29184 07255 32/// /2704 10090 20050 30066 40269 51018 91800 333 10143 20085=
07255,1998-10-30 00:00:00,7,1027.8,0,87,5,0,14.816,,,270,,,,,,,,,,,wg-a,,,,AAXX 30004 07255 12/// /2708 10070 20050 30073 40278 50000 60006 90000=
07255,1998-10-30 06:00:00,7,1025.5,-1.2,87,5,15000,29.632,,,250,5.1,9.4,,,,,7,,,,wg-a,,,,AAXX 30064 07255 02665 72516 10070 20050 30050 40255 57012 60006 8653/ 90600 333 10094 20051 60074=
07255,1998-10-30 12:00:00,12,1023.1,-1.3,76,8,35000,29.632,,50.004,270,,,,,,,,,,,wg-a,,,,AAXX 30124 07255 12481 72716 10120 20080 30031 40231 58013 60006 83137 91200 333 91027=
07255,1998-10-30 15:00:00,12,1022.3,-0.8,76,8,35000,25.928,,42.596,280,,,,,,,,,,21,wg-a,,,,AAXX 30154 07255 02581 82814 10120 20080 30023 40223 56008 61000 72162 875// 91500 333 //// 91023=
07255,1998-10-30 18:00:00,10,1023.2,0.8,93,9,0,11.112,,,280,6.6,12.6,,1,,,,,,,wg-a,,,,AAXX 30184 07255 12/// /2806 10100 20090 30031 40232 53008 60017 91800 333 10126 20066=
07255,1998-10-31 00:00:00,10,1022.9,-0.9,93,9,0,11.112,,,270,,,,,,,,,,,wg-a,,,,AAXX 31004 07255 12/// /2706 10100 20090 30027 40229 58009 60016 90000=
07255,1998-10-31 06:00:00,9,1020.6,-0.8,93,8,4000,7.408,,,260,9,10.5,,,,,3,,,10,wg-a,,,,AAXX 31064 07255 02340 82604 10090 20080 30004 40206 58008 60006 71022 875// 90600 333 10105 20090 60034=
07255,1998-10-31 09:00:00,10,1019.3,-1.2,93,9,9000,14.816,,,240,,,,,,,,,,,wg-a,,,,AAXX 31094 07255 12359 82408 10100 20090 39992 40193 58012 60006 877// 90900=
07255,1998-10-31 12:00:00,12,1016.8,-2.3,82,9,25000,22.224,,,240,,,,,,,,,,1,wg-a,,,,AAXX 31124 07255 02475 72412 10120 20090 39969 40168 58023 61000 70162 8687/ 91200 333 6100=
07255,1998-10-31 15:00:00,12,1013.7,-3,82,9,500,25.928,,,240,,,,,,,,,,,wg-a,,,,AAXX 31154 07255 12400 72414 10120 20090 39939 40137 56030 60006 8627/ 91500=
07255,1998-10-31 18:00:00,12,1011.2,-2.5,88,10,0,25.928,,,240,9.1,12.4,,,,,,,,,wg-a,,,,AAXX 31184 07255 32/// /2414 10120 20100 39914 40112 58025 91800 333 10124 20091=
07255,1998-11-01 00:00:00,12,1004.2,-3.9,82,9,0,42.596,,,250,,,,0,,,,,,,wg-a,,,,AAXX 01004 07255 02/// /2523 10120 20090 39846 40042 57039 60026 90000 333 60007=
07255,1998-11-01 06:00:00,13,1003,0.8,100,13,500,22.224,,,270,11,13.5,,,,,,,,61,wg-a,,,,AAXX 01064 07255 02200 82712 10130 20130 39835 40030 53008 61000 76165 877// 90600 333 10135 20110 6005=
07255,1998-11-01 09:00:00,12,1007.4,4.2,88,10,20000,18.52,,,340,,,,3,,,,,,3,wg-a,,,,AAXX 01094 07255 12470 73410 10120 20100 39877 40074 53042 60037 70362 87800 90900=
07255,1998-11-01 12:00:00,11,1010.1,2.6,82,8,20000,11.112,,,320,,,,,,,,,,3,wg-a,,,,AAXX 01124 07255 12470 83206 10110 20080 39903 40101 51026 60036 70362 888// 91200=
07255,1998-11-01 15:00:00,13,1011.2,1.2,72,8,25000,11.112,,,300,,,,,,,,,,,wg-a,,,,AAXX 01154 07255 12575 /3006 10130 20080 39915 40112 53012 60006 85800 91500=
07255,1998-11-02 00:00:00,6,1014.5,-0.2,100,6,0,3.704,,,310,,,,,,,,,,,wg-a,,,,AAXX 02004 07255 12/// /3102 10060 20060 39942 40145 58002 60006 90000=
07255,1998-11-02 06:00:00,2,1012.6,-1.3,93,1,300,3.704,,,110,1.7,8.9,,,,,3,,,44,wg-a,,,,AAXX 02064 07255 02/03 41102 10020 20010 39920 40126 58013 60006 74440 80002 90600 333 10089 20017 60034=
07255,1998-11-02 09:00:00,6,1010.8,-1.4,100,6,4000,14.816,,,110,,,,0,,,,,,10,wg-a,,,,AAXX 02094 07255 12040 /1108 10060 20060 39906 40108 58014 60007 71040 81631 90900=
07255,1998-11-02 12:00:00,12,1007.2,-3.1,71,7,20000,14.816,,,200,,,,,,,,,,3,wg-a,,,,AAXX 02124 07255 12570 72008 10120 20070 39875 40072 58031 60006 70341 878// 91200=
07255,1998-11-02 15:00:00,12,1003.3,-3.8,88,10,10000,11.112,,,190,,,,,,,,,,51,wg-a,,,,AAXX 02154 07255 02460 81906 10120 20100 39837 40033 56038 61000 75165 875// 91500 333 ////=
07255,1998-11-02 18:00:00,13,1001.2,-2,88,11,0,22.224,,,230,1.2,14,,,,,,,,,wg-a,,,,AAXX 02184 07255 32/// /2312 10130 20110 39817 40012 56020 91800 333 10140 20012=
07255,1998-11-03 00:00:00,11,1001.3,0.3,87,9,0,22.224,,,270,,,,0,,,,,,,wg-a,,,,AAXX 03004 07255 02/// /2712 10110 20090 39817 40013 53003 60016 90000 333 60007=
07255,1998-11-03 06:00:00,10,1002.4,0.1,87,8,15000,18.52,,,250,10.3,13.7,,,,,1,,,,wg-a,,,,AAXX 03064 07255 02665 82510 10100 20080 39827 40024 50001 60006 8557/ 90600 333 10137 20103 60014=
07255,1998-11-03 09:00:00,11,1003.4,1,87,9,20000,25.928,,,250,,,,,,,,,,,wg-a,,,,AAXX 03094 07255 12770 82514 10110 20090 39837 40034 51010 60006 8257/ 90900=
07255,1998-11-03 12:00:00,11,1002.7,-0.7,82,8,15000,18.52,,,260,,,,0,,,,,,1,wg-a,,,,AAXX 03124 07255 02565 72610 10110 20080 39830 40027 58007 60016 70186 8487/ 91200 333 60007=
07255,1998-11-03 15:00:00,11,1001.5,-1.1,87,9,25000,18.52,,,240,,,,,,,,,,,wg-a,,,,AAXX 03154 07255 12575 72410 10110 20090 39819 40015 56011 60006 8387/ 91500=
07255,1998-11-03 18:00:00,10,1002.2,0.5,82,7,0,25.928,,,230,9.1,11.6,,,,,,,,,wg-a,,,,AAXX 03184 07255 32/// /2314 10100 20070 39824 40022 53005 91800 333 10116 20091=
07255,1998-11-04 00:00:00,9,1002.9,0.2,87,7,0,18.52,,,230,,,,,,,,,,,wg-a,,,,AAXX 04004 07255 12/// /2310 10090 20070 39830 40029 51002 60006 90000=
07255,1998-11-04 06:00:00,7,1003.9,1.1,93,6,18000,18.52,,,250,7.1,9.9,,,,,1,,,,wg-a,,,,AAXX 04064 07255 02468 62510 10070 20060 39839 40039 53011 60006 86800 90600 333 10099 20071 60014=
07255,1998-11-04 12:00:00,11,1006.3,0.9,76,7,20000,18.52,,,270,,,,,,,,,,,wg-a,,,,AAXX 04124 07255 12470 72710 10110 20070 39865 40063 51009 60006 878// 91200=
07255,1998-11-04 15:00:00,10,1007.7,1.3,76,6,35000,11.112,,,310,,,,0,,,,,,1,wg-a,,,,AAXX 04154 07255 12581 63106 10100 20060 39878 40077 53013 60007 70187 86801 91500=
07255,1998-11-04 18:00:00,7,1010.4,2.5,87,5,0,3.704,,,280,6.8,11.2,,,,,,,,,wg-a,,,,AAXX 04184 07255 32/// /2802 10070 20050 39903 40104 53025 91800 333 10112 20068=
07255,1998-11-05 00:00:00,4,1015.6,2.3,93,3,0,7.408,,,290,,,,,,,,,,,wg-a,,,,AAXX 05004 07255 12/// /2904 10040 20030 39951 40156 53023 60006 90000=
07255,1998-11-05 06:00:00,1,1020.3,2.4,93,0,1000,3.704,,,240,0.6,6.7,,,,,1,,,10,wg-a,,,,AAXX 05064 07255 02/10 02402 10010 20000 39995 40203 51024 60006 71000 80000 90600 333 10067 20006 60014=
07255,1998-11-05 09:00:00,1,1023.7,3.4,100,1,100,7.408,,,310,,,,,,,,,,45,wg-a,,,,AAXX 05094 07255 32/01 93104 10010 20010 30029 40237 51034 74541 89/// 90900=
07255,1998-11-05 12:00:00,5,1024.9,1.4,93,4,3500,7.408,,,230,,,,,,,,,,10,wg-a,,,,AAXX 05124 07255 12135 82304 10050 20040 30043 40249 51014 60006 71041 887// 91200=
07255,1998-11-05 15:00:00,6,1024.9,0.1,87,4,12000,3.704,,,320,,,,,,,,,,,wg-a,,,,AAXX 05154 07255 12462 /3202 10060 20040 30044 40249 52001 60006 86500 91500=
07255,1998-11-05 18:00:00,4,1025.7,0.7,93,3,0,3.704,,,200,0.1,7,,,,,,,,,wg-a,,,,AAXX 05184 07255 32/// /2002 10040 20030 30051 40257 53007 91800 333 10070 20001=
07255,1998-11-06 00:00:00,-1,1028,0.8,93,-2,0,3.704,,,200,,,,,,,,,,,wg-a,,,,AAXX 06004 07255 12/// /2002 11010 21020 30069 40280 53008 60006 90000=
07255,1998-11-06 06:00:00,2,1028.8,0.6,93,1,9000,11.112,,,220,-1.2,4.2,,,,,,,,21,wg-a,,,,AAXX 06064 07255 02759 /2206 10020 20010 30079 40288 52006 61000 72162 86500 90600 333 10042 21012 6000=
07255,1998-11-06 09:00:00,5,1030.1,1.5,87,3,12000,7.408,,,230,,,,,,,,,,,wg-a,,,,AAXX 06094 07255 12662 /2304 10050 20030 30094 40301 51015 60006 86800 90900=
07255,1998-11-06 12:00:00,10,1029.4,-0.3,82,7,15000,11.112,,,280,,,,0,,,,,,61,wg-a,,,,AAXX 06124 07255 02665 72806 10100 20070 30091 40294 58003 60006 76162 878// 91200 333 60007=
07255,1998-11-06 15:00:00,11,1029.1,-0.2,76,7,25000,11.112,,,270,,,,,,,,,,3,wg-a,,,,AAXX 06154 07255 02675 /2706 10110 20070 30089 40291 55002 61000 70362 86800 91500 333 ////=
07255,1998-11-06 18:00:00,10,1030.1,0.9,82,7,0,7.408,,,270,1.6,12,,,,,,,,,wg-a,,,,AAXX 06184 07255 32/// /2704 10100 20070 30098 40301 53009 91800 333 10120 20016=
07255,1998-11-07 00:00:00,5,1030.8,-0.4,100,5,0,11.112,,,180,,,,,,,,,,,wg-a,,,,AAXX 07004 07255 12/// /1806 10050 20050 30101 40308 58004 60006 90000=
07255,1998-11-07 06:00:00,1,1030.8,0.2,100,1,300,7.408,,,80,1.2,9.5,,,,,1,,,44,wg-a,,,,AAXX 07064 07255 02/03 00804 10010 20010 30098 40308 53002 60006 74440 80000 90600 333 10095 20012 60014=
07255,1998-11-07 09:00:00,3,1030.2,-0.4,100,3,300,11.112,,,80,,,,,,,,,,44,wg-a,,,,AAXX 07094 07255 12/03 00806 10030 20030 30094 40302 57004 60006 74440 80000 90900=
07255,1998-11-07 12:00:00,7,1028.7,-1.2,100,7,4200,18.52,,,120,,,,,,,,,,10,wg-a,,,,AAXX 07124 07255 12142 81210 10070 20070 30082 40287 58012 60006 71041 886// 91200=
07255,1998-11-07 15:00:00,8,1027,-1.6,87,6,12000,25.928,,,100,,,,,,,,,,,wg-a,,,,AAXX 07154 07255 12362 31014 10080 20060 30066 40270 57016 60006 83600 91500=
07255,1998-11-07 18:00:00,6,1027,-0.2,93,5,0,14.816,,,110,0.7,8.3,,,,,,,,,wg-a,,,,AAXX 07184 07255 12/// /1108 10060 20050 30064 40270 55002 60006 91800 333 10083 20007=
07255,1998-11-08 00:00:00,2,1025.9,-0,100,2,0,11.112,,,100,,,,,,,,,,,wg-a,,,,AAXX 08004 07255 12/// /1006 10020 20020 30051 40259 55000 60006 90000=
07255,1998-11-08 06:00:00,0,1026.1,0.1,100,0,4500,11.112,,,110,0.2,5.6,,,,,,,,10,wg-a,,,,AAXX 08064 07255 02/45 /1106 10000 20000 30051 40261 53001 60006 71011 81032 90600 333 10056 20002 60004=
07255,1998-11-08 09:00:00,4,1026.9,1.1,87,2,10000,7.408,,,30,,,,,,,,,,,wg-a,,,,AAXX 08094 07255 12/60 /0304 10040 20020 30062 40269 53011 60006 90900=
07255,1998-11-08 12:00:00,13,1025.6,-0.6,62,6,20000,11.112,,,200,,,,,,,,,,,wg-a,,,,AAXX 08124 07255 12/70 72006 10130 20060 30056 40256 56006 60006 84032 91200=
07255,1998-11-08 15:00:00,14,1024.8,-0.7,67,8,20000,11.112,,,200,,,,,,,,,,,wg-a,,,,AAXX 08154 07255 12770 72006 10140 20080 30049 40248 56007 60006 85532 91500=
07255,1998-11-08 18:00:00,13,1025,0.1,72,8,0,7.408,,,190,-0.1,14.4,,,,,,,,,wg-a,,,,AAXX 08184 07255 12/// /1904 10130 20080 30050 40250 53001 60006 91800 333 10144 21001=
07255,1998-11-09 00:00:00,10,1024.7,-0.6,82,7,0,7.408,,,160,,,,,,,,,,,wg-a,,,,AAXX 09004 07255 12/// /1604 10100 20070 30045 40247 58006 60006 90000=
07255,1998-11-09 06:00:00,7,1023.7,-0.3,87,5,15000,11.112,,,120,6.4,12.8,,,,,,,,,wg-a,,,,AAXX 09064 07255 02/65 51206 10070 20050 30033 40237 57003 60006 82042 90600 333 10128 20064 60004=
07255,1998-11-09 09:00:00,10,1024.1,0.6,87,8,20000,3.704,,,130,,,,,,,,,,,wg-a,,,,AAXX 09094 07255 12/70 71302 10100 20080 30039 40241 50006 60006 86072 90900=
07255,1998-11-09 11:00:00,15,1021.7,-0,88,13,10000,29.632,,,250,,,,,,,,,,,wg-a,,,,AAXX 09114 07255 12/60 /2516 10150 20130 30020 40217 55000 60006 91100=
07255,1998-11-09 12:00:00,14,1023.3,-0.5,77,10,25000,3.704,,,180,,,,,,,,,,,wg-a,,,,AAXX 09124 07255 12/75 71802 10140 20100 30034 40233 58005 60006 86042 91200=
07255,1998-11-09 15:00:00,17,1021.6,-1.4,72,12,20000,14.816,,,240,,,,,,,,,,,wg-a,,,,AAXX 09154 07255 12/70 72408 10170 20120 30020 40216 56014 60006 8707/ 91500=
07255,1998-11-09 18:00:00,15,1021.7,-0,88,13,0,29.632,,,250,6.5,17.7,,,,,,,,,wg-a,,,,AAXX 09184 07255 12/// /2516 10150 20130 30020 40217 55000 60006 91800 333 10177 20065=
07255,1998-11-10 00:00:00,13,1020.1,-1.2,100,13,0,18.52,,,260,,,,,,,,,,,wg-a,,,,AAXX 10004 07255 12/// /2610 10130 20130 30003 40201 58012 60016 90000=
07255,1998-11-10 06:00:00,11,1018.9,-0,100,11,9000,7.408,,,270,11.1,15.3,,,,,,,,21,wg-a,,,,AAXX 10064 07255 02259 82704 10110 20110 39989 40189 55000 61000 72165 875// 90600 333 10153 20111 6009=
07255,1998-11-10 09:00:00,12,1020.5,1.6,94,11,8000,22.224,,,270,,,,,,,,,,,wg-a,,,,AAXX 10094 07255 12358 72712 10120 20110 30005 40205 53016 60006 872// 90900=
07255,1998-11-10 12:00:00,13,1019.4,-0.9,94,12,6000,22.224,,,260,,,,,,,,,,60,wg-a,,,,AAXX 10124 07255 02256 82612 10130 20120 39996 40194 58009 61000 76062 875// 91200 333 6100=
07255,1998-11-10 15:00:00,13,1021.3,1.8,67,7,35000,14.816,,,320,,,,3,,,,,,1,wg-a,,,,AAXX 10154 07255 12581 43208 10130 20070 30014 40213 51018 60037 70161 84802 91500=
07255,1998-11-10 18:00:00,10,1024.4,2.8,71,5,0,7.408,,,340,9.6,13.4,,,,,,,,,wg-a,,,,AAXX 10184 07255 32/// /3404 10100 20050 30042 40244 53028 91800 333 10134 20096=
07255,1998-11-11 00:00:00,4,1028.3,1.5,93,3,0,7.408,,,290,,,,,,,,,,,wg-a,,,,AAXX 11004 07255 12/// /2904 10040 20030 30076 40283 51015 60006 90000=
07255,1998-11-11 06:00:00,1,1029.2,0.2,100,1,400,3.704,,,280,1.4,9.7,,,,,3,,,44,wg-a,,,,AAXX 11064 07255 02/04 02802 10010 20010 30083 40292 51002 60006 74440 80000 90600 333 10097 20014 60034=
07255,1998-11-11 09:00:00,2,1029.9,0.7,100,2,200,3.704,,,150,,,,,,,,,,44,wg-a,,,,AAXX 11094 07255 12/02 01502 10020 20020 30090 40299 51007 60006 74444 80000 90900=
07255,1998-11-11 12:00:00,5,1028.6,-1,100,5,3500,7.408,,,200,,,,,,,,,,10,wg-a,,,,AAXX 11124 07255 12135 82004 10050 20050 30080 40286 58010 60006 71041 886// 91200=
07255,1998-11-11 15:00:00,8,1025.4,-3,81,5,12000,7.408,,,150,,,,,,,,,,,wg-a,,,,AAXX 11154 07255 12462 21504 10080 20050 30050 40254 58030 60006 82101 91500=
07255,1998-11-11 18:00:00,4,1023.9,-1.7,93,3,0,11.112,,,100,0.5,8,,,,,,,,,wg-a,,,,AAXX 11184 07255 12/// /1006 10040 20030 30033 40239 58017 60006 91800 333 10080 20005=
07255,1998-11-12 00:00:00,4,1023.9,-1.7,93,3,0,0,,,0,0,8,,,,,,,,,wg-a,,,,AAXX 12004 07255 12/// ///// 10040 20030 30033 40239 58017 60006 90000 333 10080 20000=
07255,1998-11-12 12:00:00,6,1013.8,-0.2,100,6,6000,14.816,,,270,,,,0,,,,,,20,wg-a,,,,AAXX 12124 07255 02256 82708 10060 20060 39935 40138 55002 60026 72065 875// 91200 333 60007=
07255,1998-11-12 15:00:00,9,1013.9,0.4,87,7,15000,14.816,,,300,,,,,,,,,,,wg-a,,,,AAXX 12154 07255 12465 53008 10090 20070 39939 40139 53004 60006 85900 91500=
07255,1998-11-12 18:00:00,6,1016.3,2.1,93,5,0,11.112,,,260,1.8,9.9,,,,,,,,,wg-a,,,,AAXX 12184 07255 32/// /2606 10060 20050 39960 40163 51021 91800 333 10099 20018=
07255,1998-11-13 00:00:00,5,1017.2,-0,87,3,0,14.816,,,260,,,,,,,,,,,wg-a,,,,AAXX 13004 07255 02/// /2608 10050 20030 39968 40172 55000 61000 90000 333 ////=
07255,1998-11-13 06:00:00,3,1014.3,-1.5,93,2,15000,7.408,,,170,2.1,6.9,,,,,3,,,,wg-a,,,,AAXX 13064 07255 02/65 71704 10030 20020 39938 40143 56015 60006 8/052 90600 333 10069 20021 60034=
07255,1998-11-13 09:00:00,4,1012.7,-1.5,93,3,10000,7.408,,,120,,,,0,,,,,,61,wg-a,,,,AAXX 13094 07255 12660 81204 10040 20030 39923 40127 58015 60007 76162 8352/ 90900=
07255,1998-11-13 12:00:00,8,1009.2,-3.1,93,7,14000,14.816,,,150,,,,0,,,,,,21,wg-a,,,,AAXX 13124 07255 02664 71508 10080 20070 39892 40092 58031 60016 72162 81512 91200 333 60007=
07255,1998-11-13 15:00:00,2,1007.4,-1.5,100,2,15000,7.408,,,170,2.1,6.9,,,,,3,,,,wg-a,,,,AAXX 13154 07255 02/65 71704 10020 20020 39870 40074 56015 60006 85052 91500 333 10069 20021 60034=
07255,1998-11-13 18:00:00,7,1006.4,-0.7,93,6,0,14.816,,,120,2.4,9.2,,,,,,,,,wg-a,,,,AAXX 13184 07255 32/// /1208 10070 20060 39864 40064 56007 91800 333 10092 20024=
07255,1998-11-14 00:00:00,6,1002.1,-2.1,93,5,0,14.816,,,140,,,,,,,,,,,wg-a,,,,AAXX 14004 07255 12/// /1408 10060 20050 39821 40021 58021 60026 90000=
07255,1998-11-14 06:00:00,8,1004.2,4.1,93,7,15000,25.928,,,290,5.9,9.1,,,,,4,,,2,wg-a,,,,AAXX 14064 07255 02365 82914 10080 20070 39843 40042 53041 60006 70262 875// 90600 333 10091 20059 60044=
07255,1998-11-14 09:00:00,6,1007.6,3.2,87,4,40000,18.52,,,290,,,,0,,,,,,21,wg-a,,,,AAXX 14094 07255 12382 72910 10060 20040 39875 40076 51032 60007 72162 87802 90900=
07255,1998-11-14 12:00:00,9,1007.9,0.5,71,4,40000,29.632,,48.152,280,,,,,,,,,,1,wg-a,,,,AAXX 14124 07255 12582 /2816 10090 20040 39880 40079 51005 60016 70162 85202 91200 333 91026=
07255,1998-11-14 15:00:00,9,1008,0.1,71,4,28000,25.928,,,270,,,,,,,,,,,wg-a,,,,AAXX 14154 07255 12578 72714 10090 20040 39881 40080 53001 60006 874// 91500=
07255,1998-11-14 18:00:00,9,1007.9,0.5,71,4,40000,29.632,,,280,,,,,,,,,,1,wg-a,,,,AAXX 14184 07255 12582 62816 10090 20040 39880 40079 51005 60016 70112 85202 91800=
07255,1998-11-15 00:00:00,5,1014.5,1.3,93,4,0,14.816,,,270,,,,,,,,,,,wg-a,,,,AAXX 15004 07255 12/// /2708 10050 20040 39941 40145 51013 60006 90000=
07255,1998-11-15 06:00:00,5,1015.2,0.7,87,3,10000,18.52,,,270,4.5,7.1,,,,,1,,,,wg-a,,,,AAXX 15064 07255 02660 72710 10050 20030 39948 40152 53007 60006 875// 90600 333 10071 20045 60014=
07255,1998-11-15 09:00:00,6,1017.3,2.1,87,4,15000,18.52,,,280,,,,,,,,,,1,wg-a,,,,AAXX 15094 07255 02465 22810 10060 20040 39969 40173 52021 61000 70186 82800 90900 333 ////=
07255,1998-11-15 12:00:00,8,1018.3,1.2,81,5,25000,18.52,,,290,,,,,,,,,,1,wg-a,,,,AAXX 15124 07255 02475 /2910 10080 20050 39981 40183 51012 61000 70186 86800 91200 333 ////=
07255,1998-11-15 15:00:00,9,1019.7,1.4,61,2,25000,14.816,,,320,,,,,,,,,,,wg-a,,,,AAXX 15154 07255 12575 43208 10090 20020 39995 40197 53014 60006 84800 91500=
07255,1998-11-16 00:00:00,4,1023.8,0.3,93,3,0,7.408,,,260,,,,,,,,,,,wg-a,,,,AAXX 16004 07255 12/// /2604 10040 20030 30031 40238 52003 60016 90000=
07255,1998-11-16 06:00:00,2,1024.5,0.4,93,1,10000,7.408,,,270,1.6,6.4,,,,,1,,,,wg-a,,,,AAXX 16064 07255 02660 52704 10020 20010 30037 40245 52004 60006 84530 90600 333 10064 20016 60014=
07255,1998-11-16 09:00:00,3,1026.3,1.9,93,2,9000,11.112,,,310,,,,,,,,,,21,wg-a,,,,AAXX 16094 07255 02259 63106 10030 20020 30056 40263 52019 61000 72162 84830 90900 333 ////=
07255,1998-11-16 12:00:00,7,1026.9,0.8,66,1,35000,14.816,,,330,,,,,,,,,,1,wg-a,,,,AAXX 16124 07255 02581 /3308 10070 20010 30064 40269 51008 61000 70162 85100 91200 333 ////=
07255,1998-11-16 15:00:00,7,1027.4,0.5,57,-1,35000,14.816,,,340,,,,,,,,,,,wg-a,,,,AAXX 16154 07255 12681 33408 10070 21010 30069 40274 53005 60006 83400 91500=
07255,1998-11-16 18:00:00,4,1029.1,1.4,75,0,0,3.704,,,320,1.5,7.6,,,,,,,,,wg-a,,,,AAXX 16184 07255 32/// /3202 10040 20000 30083 40291 51014 91800 333 10076 20015=
07255,1998-11-17 00:00:00,0,1030.9,0.7,93,-1,0,7.408,,,290,,,,,,,,,,,wg-a,,,,AAXX 17004 07255 12/// /2904 10000 21010 30098 40309 51007 60006 90000=
07255,1998-11-17 06:00:00,1,1029.9,-0.1,93,0,4500,11.112,,,110,-0.6,3.7,,,,,1,,,10,wg-a,,,,AAXX 17064 07255 02245 71106 10010 20000 30089 40299 58001 60006 71011 876// 90600 333 10037 21006 60014=
07255,1998-11-17 09:00:00,1,1030.9,1,93,0,6000,18.52,,,80,,,,,,,,,,,wg-a,,,,AAXX 17094 07255 12256 70810 10010 20000 30099 40309 52010 60006 876// 90900=
07255,1998-11-17 12:00:00,5,1029.4,-1.2,75,1,15000,11.112,,,110,,,,,,,,,,,wg-a,,,,AAXX 17124 07255 12465 /1106 10050 20010 30087 40294 58012 60006 81101 91200=
07255,1998-11-17 15:00:00,6,1027.8,-1.5,56,-2,20000,18.52,,,70,,,,,,,,,,,wg-a,,,,AAXX 17154 07255 12/70 60710 10060 21020 30072 40278 56015 60006 80001 91500=
07255,1998-11-17 18:00:00,2,1027.8,-0.2,64,-4,0,22.224,,,70,0.6,6.2,,,,,,,,,wg-a,,,,AAXX 17184 07255 12/// /0712 10020 21040 30070 40278 55002 60006 91800 333 10062 20006=
07255,1998-11-18 00:00:00,0,1027.5,-0.4,74,-4,0,18.52,,,80,,,,,,,,,,,wg-a,,,,AAXX 18004 07255 12/// /0810 10000 21040 30065 40275 57004 60006 90000=
07255,1998-11-18 06:00:00,-1,1026.4,-0.4,74,-5,10000,18.52,,,80,-1.4,2.4,,,,,1,,,,wg-a,,,,AAXX 18064 07255 02/60 70810 11010 21050 30053 40264 58004 60006 80002 90600 333 10024 21014 60014=
07255,1998-11-18 09:00:00,0,1026.7,0.4,64,-6,500,18.52,,,70,,,,,,,,,,,wg-a,,,,AAXX 18094 07255 12/00 70710 10000 21060 30057 40267 53004 60006 81032 90900=
07255,1998-11-18 12:00:00,2,1026.2,-0.4,55,-6,35000,22.224,,,70,,,,,,,,,,,wg-a,,,,AAXX 18124 07255 12/81 70712 10020 21060 30053 40262 58004 60006 81042 91200=
07255,1998-11-18 15:00:00,2,1025.7,-0.4,60,-5,40000,14.816,,,70,,,,,,,,,,,wg-a,,,,AAXX 18154 07255 12/82 60708 10020 21050 30049 40257 56004 60006 80002 91500=
07255,1998-11-18 18:00:00,0,1026.7,0.8,74,-4,0,14.816,,,70,-0.8,2.4,,,,,,,,,wg-a,,,,AAXX 18184 07255 12/// /0708 10000 21040 30057 40267 53008 60006 91800 333 10024 21008=
07255,1998-11-19 00:00:00,-2,1027.7,-0.2,86,-4,0,3.704,,,90,,,,,,,,,,,wg-a,,,,AAXX 19004 07255 12/// /0902 11020 21040 30065 40277 58002 60006 90000=
07255,1998-11-19 06:00:00,-6,1028.3,0.6,100,-6,8000,3.704,,,10,-5.5,0.2,,,,,,,,,wg-a,,,,AAXX 19064 07255 02/58 /0102 11060 21060 30068 40283 53006 60006 80001 90600 333 10002 21055 60004=
07255,1998-11-19 09:00:00,-2,1028.8,0.8,86,-4,500,3.704,,,50,,,,,,,,,,,wg-a,,,,AAXX 19094 07255 12700 /0502 11020 21040 30076 40288 53008 60006 81501 90900=
07255,1998-11-19 12:00:00,4,1028.1,-0.2,65,-2,10000,3.704,,,160,,,,,,,,,,,wg-a,,,,AAXX 19124 07255 12760 21602 10040 21020 30074 40281 58002 60006 82500 91200=
07255,1998-11-19 15:00:00,6,1027.4,-0.6,49,-4,10000,3.704,,,230,,,,,,,,,,,wg-a,,,,AAXX 19154 07255 12760 62302 10060 21040 30068 40274 56006 60006 86532 91500=
07255,1998-11-19 18:00:00,1,1028.2,0.5,75,-3,0,0,,,0,-5.6,6.7,,,,,,,,,wg-a,,,,AAXX 19184 07255 12/// /0000 10010 21030 30073 40282 53005 60006 91800 333 10067 21056=
07255,1998-11-20 00:00:00,2,1029.2,-0.1,75,-2,0,7.408,,,80,,,,,,,,,,,wg-a,,,,AAXX 20004 07255 12/// /0804 10020 21020 30083 40292 55001 60006 90000=
07255,1998-11-20 06:00:00,0,1031.2,0.8,80,-3,7000,14.816,,,90,0.3,1.8,,,,,,,,,wg-a,,,,AAXX 20064 07255 02457 70908 10000 21030 30101 40312 51008 60006 875// 90600 333 10018 20003 60004=
07255,1998-11-20 09:00:00,0,1033.1,1.9,86,-2,8000,14.816,,,70,,,,,,,,,,,wg-a,,,,AAXX 20094 07255 12258 30708 10000 21020 30120 40331 51019 60006 83600 90900=
07255,1998-11-20 12:00:00,1,1033.6,0.5,80,-2,9000,18.52,,,90,,,,,,,,,,,wg-a,,,,AAXX 20124 07255 12459 40910 10010 21020 30125 40336 50005 60006 84500 91200=
07255,1998-11-20 15:00:00,1,1033.8,0.2,69,-4,10000,14.816,,,70,,,,,,,,,,,wg-a,,,,AAXX 20154 07255 12560 40708 10010 21040 30127 40338 53002 60006 83501 91500=
07255,1998-11-20 18:00:00,-1,1034.9,0.9,80,-4,0,18.52,,,70,-1.6,1.6,,,,,,,,,wg-a,,,,AAXX 20184 07255 12/// /0710 11010 21040 30136 40349 52009 60006 91800 333 10016 21016=
07255,1998-11-21 00:00:00,-3,1035.9,0.1,80,-6,0,14.816,,,70,,,,,,,,,,,wg-a,,,,AAXX 21004 07255 12/// /0708 11030 21060 30145 40359 52001 60006 90000=
07255,1998-11-21 06:00:00,-4,1035.8,-0.3,80,-7,15000,18.52,,,80,-4.6,-1.5,,,,,,,,,wg-a,,,,AAXX 21064 07255 02/65 00810 11040 21070 30143 40358 55003 60006 80000 90600 333 11015 21046 60004=
07255,1998-11-21 09:00:00,-3,1036.1,0.4,74,-7,18000,18.52,,,80,,,,,,,,,,,wg-a,,,,AAXX 21094 07255 12/68 00810 11030 21070 30147 40361 51004 60006 80000 90900=
07255,1998-11-21 12:00:00,1,1034.6,-1.2,51,-8,10000,25.928,,,70,,,,,,,,,,,wg-a,,,,AAXX 21124 07255 12/60 /0714 10010 21080 30135 40346 58012 60006 91200=
07255,1998-11-21 15:00:00,2,1032.9,-1.6,44,-9,25000,18.52,,,70,,,,,,,,,,,wg-a,,,,AAXX 21154 07255 12/75 10710 10020 21090 30119 40329 56016 60006 80001 91500=
07255,1998-11-21 18:00:00,0,1032.4,-0.7,55,-8,0,18.52,,,60,-4.4,2.8,,,,,,,,,wg-a,,,,AAXX 21184 07255 12/// /0610 10000 21080 30112 40324 57007 60006 91800 333 10028 21044=
07255,1998-11-22 00:00:00,,1032.4,-0.7,,,0,18.52,,,60,,2.8,,,,,,,,,wg-a,,,,AAXX 22004 07255 12/// /0610 1//// 2//// 40324 57007 60006 90000 333 10028=
07255,1998-11-22 06:00:00,-6,1028.2,-0.3,86,-8,10000,14.816,,,70,-6.2,-0.3,,,,,,,,,wg-a,,,,AAXX 22064 07255 02/60 00708 11060 21080 30067 40282 55003 60006 80000 90600 333 11003 21062 60004=
07255,1998-11-22 09:00:00,-5,1027.5,-0.6,79,-8,9000,14.816,,,90,,,,,,,,,,,wg-a,,,,AAXX 22094 07255 12/59 00908 11050 21080 30061 40275 56006 60006 80000 90900=
07255,1998-11-22 12:00:00,-2,1025.8,-1.5,63,-8,12000,14.816,,,80,,,,,,,,,,,wg-a,,,,AAXX 22124 07255 12/62 00808 11020 21080 30046 40258 58015 60006 80000 91200=
07255,1998-11-22 15:00:00,-1,1024.1,-1.5,59,-8,12000,14.816,,,110,,,,,,,,,,,wg-a,,,,AAXX 22154 07255 12/62 01108 11010 21080 30031 40241 56015 60006 80000 91500=
07255,1998-11-22 18:00:00,-4,1023.9,-0.5,74,-8,0,7.408,,,100,-6.8,-0.3,,,,,,,,,wg-a,,,,AAXX 22184 07255 12/// /1004 11040 21080 30026 40239 56005 60006 91800 333 11003 21068=
07255,1998-11-23 00:00:00,-7,1023.1,-1,86,-9,0,11.112,,,110,,,,,,,,,,,wg-a,,,,AAXX 23004 07255 12/// /1106 11070 21090 30016 40231 56010 60006 90000=
07255,1998-11-23 06:00:00,-7,1022.8,0.4,93,-8,3500,14.816,,,90,-6.9,-3.9,,,,,,,,10,wg-a,,,,AAXX 23064 07255 02/35 20908 11070 21080 30014 40228 52004 60006 71000 80002 90600 333 11039 21069 60004=
07255,1998-11-23 09:00:00,-4,1023.7,1,80,-7,6000,11.112,,,100,,,,,,,,,,,wg-a,,,,AAXX 23094 07255 12/56 /1006 11040 21070 30024 40237 53010 60006 80002 90900=
07255,1998-11-23 12:00:00,1,1023.4,0.1,64,-5,8000,3.704,,,20,,,,,,,,,,,wg-a,,,,AAXX 23124 07255 12/58 /0202 10010 21050 30025 40234 50001 60006 80001 91200=
07255,1998-11-23 15:00:00,4,1022.9,-0.3,52,-5,10000,3.704,,,100,,,,,,,,,,,wg-a,,,,AAXX 23154 07255 12/60 11002 10040 21050 30022 40229 55003 60006 80001 91500=
07255,1998-11-23 18:00:00,-1,1024.1,0.9,80,-4,0,0,,,0,-6.6,4,,,,,,,,,wg-a,,,,AAXX 23184 07255 12/// /0000 11010 21040 30031 40241 53009 60006 91800 333 10040 21066=
07255,1998-11-24 00:00:00,-6,1025.5,0.4,93,-7,0,3.704,,,140,,,,,,,,,,,wg-a,,,,AAXX 24004 07255 12/// /1402 11060 21070 30040 40255 52004 60006 90000=
07255,1998-11-24 06:00:00,-8,1026.2,1,85,-10,3000,7.408,,,110,-8.4,-0.3,,,,,,,,10,wg-a,,,,AAXX 24064 07255 02/30 01104 11080 21100 30045 40262 53010 60006 71000 80000 90600 333 11003 21084 60004=
07255,1998-11-24 09:00:00,-6,1025.6,-0.3,93,-7,2000,3.704,,,110,,,,,,,,,,,wg-a,,,,AAXX 24094 07255 12/20 /1102 11060 21070 30042 40256 56003 60006 90900=
07255,1998-11-24 12:00:00,1,1025.3,0.2,80,-2,2500,3.704,,,230,,,,,,,,,,10,wg-a,,,,AAXX 24124 07255 12/25 52302 10010 21020 30044 40253 51002 60006 71011 84031 91200=
07255,1998-11-24 18:00:00,1,1024,0,80,-2,0,3.704,,,150,-9.1,2.4,,,,,,,,,wg-a,,,,AAXX 24184 07255 12/// /1502 10010 21020 30031 40240 50000 60006 91800 333 10024 21091=
07255,1998-11-25 00:00:00,1,1021,-1.7,75,-3,0,11.112,,,120,,,,,,,,,,,wg-a,,,,AAXX 25004 07255 12/// /1206 10010 21030 30002 40210 58017 60006 90000=
07255,1998-11-25 06:00:00,1,1016,-2.3,93,0,4000,18.52,,,130,-1.1,1.8,,,,,,,,10,wg-a,,,,AAXX 25064 07255 02540 81310 10010 20000 39953 40160 57023 61000 71065 885// 90600 333 10018 21011 6004=
07255,1998-11-25 09:00:00,3,1015.3,-0.6,93,2,900,11.112,,,160,,,,5,,,,,,44,wg-a,,,,AAXX 25094 07255 12109 81606 10030 20020 39947 40153 55006 60057 74466 887// 90900=
07255,1998-11-25 12:00:00,4,1014.6,-0.5,100,4,400,11.112,,,280,,,,0,,,,,,51,wg-a,,,,AAXX 25124 07255 02104 82806 10040 20040 39942 40146 56005 60066 75165 887// 91200 333 60007=
07255,1998-11-25 15:00:00,4,1015.6,1,100,4,300,11.112,,,300,,,,0,,,,,,51,wg-a,,,,AAXX 25154 07255 12103 83006 10040 20040 39952 40156 53010 60007 75155 887// 91500=
07255,1998-11-25 18:00:00,4,1018.3,2.6,100,4,0,14.816,,,310,0.9,4.3,,,,,,,,,wg-a,,,,AAXX 25184 07255 32/// /3108 10040 20040 39978 40183 53026 91800 333 10043 20009=
07255,1998-11-26 00:00:00,5,1021.3,1.1,93,4,0,7.408,,,300,,,,,,,,,,,wg-a,,,,AAXX 26004 07255 02/// /3004 10050 20040 30008 40213 51011 61000 90000 333 ////=
07255,1998-11-26 06:00:00,3,1023.5,1.1,100,3,200,3.704,,,310,2.5,4.9,,,,,6,,,44,wg-a,,,,AAXX 26064 07255 02202 83102 10030 20030 30028 40235 53011 60006 74442 887// 90600 333 10049 20025 60064=
07255,1998-11-26 09:00:00,3,1025.6,2.1,100,3,500,0,,,0,,,,,,,,,,42,wg-a,,,,AAXX 26094 07255 12205 80000 10030 20030 30049 40256 51021 60006 74244 887// 90900=
07255,1998-11-26 12:00:00,4,1025.7,0.2,100,4,1100,7.408,,,260,,,,,,,,,,10,wg-a,,,,AAXX 26124 07255 12211 82604 10040 20040 30051 40257 50002 60006 71042 887// 91200=
07255,1998-11-26 15:00:00,5,1025.7,-0,100,5,900,7.408,,,260,,,,,,,,,,42,wg-a,,,,AAXX 26154 07255 12109 82604 10050 20050 30051 40257 55000 60006 74242 887// 91500=
07255,1998-11-26 18:00:00,5,1025.7,0,100,5,0,11.112,,,240,2.6,5.4,,,,,,,,,wg-a,,,,AAXX 26184 07255 12/// /2406 10050 20050 30051 40257 50000 60006 91800 333 10054 20026=
07255,1998-11-27 00:00:00,7,1023.1,-1.5,93,6,0,18.52,,,270,,,,,,,,,,,wg-a,,,,AAXX 27004 07255 12/// /2710 10070 20060 30027 40231 56015 60016 90000=
07255,1998-11-27 06:00:00,7,1021.8,-0.3,100,7,500,14.816,,,280,5.3,7.4,,,,,3,,,3,wg-a,,,,AAXX 27064 07255 02200 82808 10070 20070 30015 40218 55003 60006 70365 887// 90600 333 10074 20053 60034=
07255,1998-11-27 09:00:00,8,1022,0.2,93,7,4000,14.816,,,300,,,,,,,,,,10,wg-a,,,,AAXX 27094 07255 02240 83008 10080 20070 30017 40220 53002 61000 71052 887// 90900 333 ////=
07255,1998-11-27 12:00:00,9,1022.1,0.2,93,8,4000,11.112,,,300,,,,,,,,,,10,wg-a,,,,AAXX 27124 07255 02240 83006 10090 20080 30019 40221 50002 61000 71052 877// 91200 333 ////=
07255,1998-11-27 15:00:00,8,1021.6,-0.5,100,8,3000,7.408,,,310,,,,,,,,,,10,wg-a,,,,AAXX 27154 07255 02230 83104 10080 20080 30014 40216 55005 61000 71065 877// 91500 333 ////=
07255,1998-11-27 18:00:00,8,1021.9,0.2,93,7,0,7.408,,,290,7.4,8.6,,,,,,,,,wg-a,,,,AAXX 27184 07255 32/// /2904 10080 20070 30016 40219 50002 91800 333 10086 20074=
07255,1998-11-28 00:00:00,6,1021.9,-0.3,100,6,0,7.408,,,80,,,,,,,,,,,wg-a,,,,AAXX 28004 07255 02/// /0804 10060 20060 30015 40219 57003 61000 90000 333 ////=
07255,1998-11-28 06:00:00,4,1021.5,-0.1,100,4,200,11.112,,,110,3.8,7.5,,,,,,,,44,wg-a,,,,AAXX 28064 07255 02002 81106 10040 20040 30010 40215 58001 60006 74442 886// 90600 333 10075 20038 60004=
07255,1998-11-28 12:00:00,6,1019.5,-1.7,100,6,500,14.816,,,140,,,,,,,,,,1,wg-a,,,,AAXX 28124 07255 12100 81408 10060 20060 39991 40195 58017 60006 70142 886// 91200=
07255,1998-11-28 15:00:00,6,1017.8,-1.6,100,6,2200,11.112,,,140,,,,1,,,,,,50,wg-a,,,,AAXX 28154 07255 12122 81406 10060 20060 39975 40178 56016 60017 75052 886// 91500=
07255,1998-11-28 18:00:00,7,1015.8,-1.9,100,7,0,11.112,,,170,4.4,7.5,,,,,,,,,wg-a,,,,AAXX 28184 07255 32/// /1706 10070 20070 39956 40158 56019 91800 333 10075 20044=
07255,1998-11-29 00:00:00,7,1014.6,0.8,93,6,0,18.52,,,290,,,,,,,,,,,wg-a,,,,AAXX 29004 07255 12/// /2910 10070 20060 39944 40146 50008 60066 90000=
07255,1998-11-29 06:00:00,5,1016.2,0.8,93,4,10000,14.816,,,310,4.5,8.7,,,,,6,,,,wg-a,,,,AAXX 29064 07255 02360 83108 10050 20040 39958 40162 52008 60006 877// 90600 333 10087 20045 60064=
07255,1998-11-29 09:00:00,4,1017.5,1.2,93,3,12000,14.816,,,320,,,,,,,,,,,wg-a,,,,AAXX 29094 07255 12362 83208 10040 20030 39970 40175 53012 60006 875// 90900=
07255,1998-11-29 12:00:00,6,1017.5,0.1,87,4,18000,14.816,,,320,,,,,,,,,,,wg-a,,,,AAXX 29124 07255 12468 73208 10060 20040 39971 40175 50001 60006 8787/ 91200=
07255,1998-11-29 15:00:00,6,1017.6,0.2,87,4,25000,14.816,,,320,,,,,,,,,,,wg-a,,,,AAXX 29154 07255 12375 73208 10060 20040 39973 40176 53002 60006 8487/ 91500=
07255,1998-11-29 18:00:00,5,1019,1.3,87,3,0,7.408,,,310,3.8,6,,,,,,,,,wg-a,,,,AAXX 29184 07255 12/// /3104 10050 20030 39986 40190 51013 60006 91800 333 10060 20038=
07255,1998-11-30 00:00:00,4,1020.4,0.2,93,3,0,11.112,,,330,,,,,,,,,,,wg-a,,,,AAXX 30004 07255 12/// /3306 10040 20030 39999 40204 52002 60006 90000=
07255,1998-11-30 06:00:00,4,1020.3,-0,93,3,10000,11.112,,,320,3.6,5.2,,,,,,,,51,wg-a,,,,AAXX 30064 07255 02460 83206 10040 20030 39998 40203 55000 61000 75152 887// 90600 333 10052 20036 6100=
07255,1998-11-30 09:00:00,4,1021.5,1.2,100,4,3500,11.112,,,350,,,,0,,,,,,10,wg-a,,,,AAXX 30094 07255 12235 83506 10040 20040 30010 40215 53012 60007 71065 887// 90900=
07255,1998-11-30 12:00:00,3,1022.9,1.2,81,0,15000,18.52,,,70,,,,0,,,,,,20,wg-a,,,,AAXX 30124 07255 02465 80710 10030 20000 30022 40229 51012 60016 72065 888// 91200 333 60007=
07255,1998-11-30 15:00:00,2,1023.8,0.8,69,-3,15000,22.224,,,50,,,,,,,,,,,wg-a,,,,AAXX 30154 07255 12565 80512 10020 21030 30030 40238 52008 60006 885// 91500=
07255,1998-11-30 18:00:00,2,1025.5,1.6,64,-4,0,18.52,,,50,1.5,4.4,,,,,,,,,wg-a,,,,AAXX 30184 07255 32/// /0510 10020 21040 30046 40255 51016 91800 333 10044 20015=
07255,1998-12-01 00:00:00,2,1026.2,0.3,80,-1,0,18.52,,,60,,,,,,,,,,,wg-a,,,,AAXX 01004 07255 12/// /0610 10020 21010 30053 40262 52003 60006 90000=
07255,1998-12-01 06:00:00,1,1027.6,0.9,80,-2,10000,18.52,,,60,0.8,1.8,,,,,,,,,wg-a,,,,AAXX 01064 07255 02460 80610 10010 21020 30067 40276 53009 60006 885// 90600 333 10018 20008 60004=
07255,1998-12-01 12:00:00,3,1028.6,-0.1,75,-1,12000,14.816,,,60,,,,,,,,,,,wg-a,,,,AAXX 01124 07255 12462 80608 10030 21010 30078 40286 58001 60006 885// 91200=
07255,1998-12-01 15:00:00,3,1028,-0.6,75,-1,10000,18.52,,,50,,,,,,,,,,,wg-a,,,,AAXX 01154 07255 12460 80510 10030 21010 30072 40280 56006 60006 885// 91500=
07255,1998-12-01 18:00:00,2,1027.7,-0.4,80,-1,0,22.224,,,60,1,3,,,,,,,,,wg-a,,,,AAXX 01184 07255 12/// /0612 10020 21010 30068 40277 56004 60006 91800 333 10030 20010=
07255,1998-12-02 00:00:00,1,1026.6,-1,80,-2,0,14.816,,,50,,,,,,,,,,,wg-a,,,,AAXX 02004 07255 12/// /0508 10010 21020 30057 40266 58010 60006 90000=
07255,1998-12-02 06:00:00,0,1025.5,-0.4,80,-3,10000,18.52,,,60,0,1.7,,,,,,,,,wg-a,,,,AAXX 02064 07255 02560 80610 10000 21030 30045 40255 57004 60006 885// 90600 333 10017 20000 60004=
07255,1998-12-02 09:00:00,0,1025.7,0.2,80,-3,7000,22.224,,,60,,,,,,,,,,,wg-a,,,,AAXX 02094 07255 12557 80612 10000 21030 30047 40257 53002 60006 885// 90900=
07255,1998-12-02 12:00:00,0,1025,-0.7,80,-3,6000,18.52,,,70,,,,,,,,,,,wg-a,,,,AAXX 02124 07255 12556 80710 10000 21030 30040 40250 58007 60006 885// 91200=
07255,1998-12-02 15:00:00,0,1023.9,-1.1,80,-3,6000,14.816,,,70,,,,,,,,,,,wg-a,,,,AAXX 02154 07255 12456 80708 10000 21030 30029 40239 57011 60006 885// 91500=
07255,1998-12-02 18:00:00,0,1023.9,0,80,-3,0,14.816,,,80,-0.4,0.1,,,,,,,,,wg-a,,,,AAXX 02184 07255 12/// /0808 10000 21030 30029 40239 50000 60006 91800 333 10001 21004=
07255,1998-12-03 00:00:00,0,1023.2,-0.7,86,-2,0,11.112,,,90,,,,,,,,,,,wg-a,,,,AAXX 03004 07255 12/// /0906 10000 21020 30022 40232 58007 60006 90000=
07255,1998-12-03 06:00:00,0,1020.5,-1.2,86,-2,7000,14.816,,,90,-0.5,0.2,,,,,,,,,wg-a,,,,AAXX 03064 07255 02657 70908 10000 21020 39996 40205 56012 60006 875// 90600 333 10002 21005 60004=
07255,1998-12-03 09:00:00,0,1020.1,-0.3,93,-1,500,14.816,,,90,,,,,,,,,,,wg-a,,,,AAXX 03094 07255 12700 50908 10000 21010 39993 40201 55003 60006 84502 90900=
07255,1998-12-03 12:00:00,3,1018.7,-1.2,81,0,6000,18.52,,,130,,,,,,,,,,,wg-a,,,,AAXX 03124 07255 12656 71310 10030 20000 39981 40187 58012 60006 875// 91200=
07255,1998-12-03 15:00:00,5,1016.2,-2.3,75,1,9000,14.816,,,110,,,,,,,,,,,wg-a,,,,AAXX 03154 07255 12759 /1108 10050 20010 39958 40162 56023 60006 81501 91500=
07255,1998-12-04 00:00:00,-2,1014.3,-1.4,93,-3,0,3.704,,,330,,,,,,,,,,,wg-a,,,,AAXX 04004 07255 12/// /3302 11020 21030 39934 40143 57014 60006 90000=
07255,1998-12-04 06:00:00,-1,1012.9,-0.7,93,-2,1800,3.704,,,340,-2.6,1.7,,,,,,,,10,wg-a,,,,AAXX 04064 07255 02218 83402 11010 21020 39921 40129 56007 60006 71022 886// 90600 333 10017 21026 60004=
07255,1998-12-04 12:00:00,0,1013.5,0.1,86,-2,500,11.112,,,300,,,,,,,,,,,wg-a,,,,AAXX 04124 07255 12300 83006 10000 21020 39928 40135 51001 60006 875// 91200=
07255,1998-12-04 15:00:00,0,1013.5,-0,93,-1,3500,11.112,,,310,,,,,,,,,,20,wg-a,,,,AAXX 04154 07255 02335 73106 10000 21010 39928 40135 55000 61000 72072 875// 91500 333 ////=
07255,1998-12-04 18:00:00,1,1015.1,1.6,86,-1,0,11.112,,,280,-1.2,0.7,,,,,,,,,wg-a,,,,AAXX 04184 07255 32/// /2806 10010 21010 39944 40151 53016 91800 333 10007 21012=
07255,1998-12-05 00:00:00,1,1017.3,1,93,0,0,7.408,,,350,,,,,,,,,,,wg-a,,,,AAXX 05004 07255 12/// /3504 10010 20000 39966 40173 52010 60006 90000=
07255,1998-12-05 06:00:00,1,1017.4,0.2,100,1,1500,11.112,,,280,0.3,1.3,,,,,,,,10,wg-a,,,,AAXX 05064 07255 02115 82806 10010 20010 39967 40174 52002 61000 71052 887// 90600 333 10013 20003 6100=
07255,1998-12-05 09:00:00,1,1019.2,1.7,93,0,4000,11.112,,,300,,,,0,,,,,,10,wg-a,,,,AAXX 05094 07255 12240 73006 10010 20000 39984 40192 53017 60007 71076 877// 90900=
07255,1998-12-05 12:00:00,4,1019.8,0.8,65,-2,500,14.816,,,320,,,,,,,,,,1,wg-a,,,,AAXX 05124 07255 12500 43208 10040 21020 39992 40198 50008 60006 70176 84101 91200=
07255,1998-12-05 15:00:00,3,1020,0.2,70,-2,35000,14.816,,,290,,,,,,,,,,,wg-a,,,,AAXX 05154 07255 12581 62908 10030 21020 39994 40200 53002 60006 83431 91500=
07255,1998-12-05 18:00:00,2,1020.4,0.2,80,-1,0,14.816,,,260,0.7,4.5,,,,,,,,,wg-a,,,,AAXX 05184 07255 32/// /2608 10020 21010 39996 40204 53002 91800 333 10045 20007=
07255,1998-12-06 00:00:00,3,1020.1,0.3,87,1,0,18.52,,,280,,,,,,,,,,,wg-a,,,,AAXX 06004 07255 12/// /2810 10030 20010 39995 40201 52003 60006 90000=
07255,1998-12-06 06:00:00,3,1022.2,1.7,93,2,500,7.408,,,340,1.4,3.3,,,,,,,,51,wg-a,,,,AAXX 06064 07255 02300 83404 10030 20020 30015 40222 53017 61000 75165 887// 90600 333 10033 20014 6001=
07255,1998-12-06 09:00:00,2,1025,2.7,93,1,12000,3.704,,,350,,,,,,,,,,2,wg-a,,,,AAXX 06094 07255 02262 /3502 10020 20010 30042 40250 52027 61000 70251 81801 90900 333 ////=
07255,1998-12-06 12:00:00,4,1025.7,0.8,75,0,20000,11.112,,,10,,,,,,,,,,3,wg-a,,,,AAXX 06124 07255 02470 40106 10040 20000 30050 40257 50008 61000 70351 84100 91200 333 ////=
07255,1998-12-06 15:00:00,4,1026.8,1.1,65,-2,500,3.704,,,310,,,,,,,,,,,wg-a,,,,AAXX 06154 07255 12500 23102 10040 21020 30061 40268 53011 60006 82101 91500=
07255,1998-12-06 18:00:00,1,1028.5,1.5,75,-3,0,7.408,,,340,1.1,5.1,,,,,,,,,wg-a,,,,AAXX 06184 07255 32/// /3404 10010 21030 30076 40285 53015 91800 333 10051 20011=
07255,1998-12-07 00:00:00,-2,1030.6,0.7,93,-3,0,7.408,,,270,,,,,,,,,,,wg-a,,,,AAXX 07004 07255 12/// /2704 11020 21030 30094 40306 51007 60006 90000=
07255,1998-12-07 06:00:00,-4,1032.1,0.7,100,-4,6000,7.408,,,270,-4,1.3,,,,,,,,,wg-a,,,,AAXX 07064 07255 02/56 02704 11040 21040 30107 40321 53007 60006 80000 90600 333 10013 21040 61000=
07255,1998-12-07 09:00:00,-2,1032.9,0.9,93,-3,500,3.704,,,220,,,,,,,,,,,wg-a,,,,AAXX 07094 07255 12/00 /2202 11020 21030 30116 40329 51009 60006 81030 90900=
07255,1998-12-07 12:00:00,2,1032.8,0.2,80,-1,6000,7.408,,,290,,,,,,,,,,,wg-a,,,,AAXX 07124 07255 12756 72904 10020 21010 30118 40328 50002 60006 8653/ 91200=
07255,1998-12-07 15:00:00,3,1032.8,0.1,81,0,10000,7.408,,,300,,,,,,,,,,,wg-a,,,,AAXX 07154 07255 12560 73004 10030 20000 30119 40328 53001 60006 8113/ 91500=
07255,1998-12-07 18:00:00,2,1033.3,0.4,87,0,0,3.704,,,260,-4.3,3,,,,,,,,,wg-a,,,,AAXX 07184 07255 12/// /2602 10020 20000 30123 40333 52004 60006 91800 333 10030 21043=
07255,1998-12-08 00:00:00,1,1033.6,-0.2,93,0,0,3.704,,,180,,,,,,,,,,,wg-a,,,,AAXX 08004 07255 12/// /1802 10010 20000 30126 40336 56002 60006 90000=
07255,1998-12-08 06:00:00,1,1032.9,-0.2,93,0,4000,3.704,,,170,0.8,1.7,,,,,,,,10,wg-a,,,,AAXX 08064 07255 02540 71702 10010 20000 30119 40329 58002 61000 71062 875// 90600 333 10017 20008 6100=
07255,1998-12-08 09:00:00,2,1033,0.1,87,0,6000,7.408,,,160,,,,,,,,,,60,wg-a,,,,AAXX 08094 07255 02556 71604 10020 20000 30120 40330 52001 61000 76066 8353/ 90900 333 ////=
07255,1998-12-08 12:00:00,4,1031.7,-1.1,75,0,10000,7.408,,,170,,,,,,,,,,1,wg-a,,,,AAXX 08124 07255 02660 71704 10040 20000 30109 40317 58011 61000 70162 8353/ 91200 333 6100=
07255,1998-12-08 18:00:00,4,1030.5,-0.3,87,2,0,11.112,,,130,0.9,5.1,,,,,,,,,wg-a,,,,AAXX 08184 07255 32/// /1306 10040 20020 30097 40305 58003 91800 333 10051 20009=
07255,1998-12-09 00:00:00,3,1028.4,-1.3,87,1,0,14.816,,,130,,,,,,,,,,,wg-a,,,,AAXX 09004 07255 02/// /1308 10030 20010 30076 40284 58013 61000 90000 333 ////=
07255,1998-12-09 06:00:00,3,1026.5,-0.7,87,1,18000,7.408,,,110,2.2,4,,,,,,,,,wg-a,,,,AAXX 09064 07255 02768 81104 10030 20010 30057 40265 56007 60006 8352/ 90600 333 10040 20022 61000=
07255,1998-12-09 09:00:00,3,1026.5,-0,87,1,10000,7.408,,,100,,,,,,,,,,,wg-a,,,,AAXX 09094 07255 12560 81004 10030 20010 30057 40265 55000 60006 8652/ 90900=
07255,1998-12-09 12:00:00,5,1025.6,-0.7,81,2,12000,11.112,,,120,,,,,,,,,,,wg-a,,,,AAXX 09124 07255 12562 81206 10050 20020 30050 40256 58007 60006 8552/ 91200=
07255,1998-12-09 18:00:00,6,1025.5,0.3,93,5,0,14.816,,,230,2.4,6.9,,,,,,,,,wg-a,,,,AAXX 09184 07255 12/// /2308 10060 20050 30050 40255 53003 60006 91800 333 10069 20024=
07255,1998-12-10 00:00:00,5,1025,-0.5,100,5,0,7.408,,,120,,,,,,,,,,,wg-a,,,,AAXX 10004 07255 12/// /1204 10050 20050 30045 40250 56005 60016 90000=
07255,1998-12-10 06:00:00,7,1023.7,-0.4,93,6,1800,7.408,,,250,4.9,6.8,,,,,1,,,28,wg-a,,,,AAXX 10064 07255 02218 82504 10070 20060 30033 40237 56004 60006 72864 887// 90600 333 10068 20049 60014=
07255,1998-12-10 09:00:00,7,1024.3,0.6,100,7,500,7.408,,,230,,,,,,,,,,1,wg-a,,,,AAXX 10094 07255 12400 72304 10070 20070 30039 40243 53006 60006 70142 875// 90900=
07255,1998-12-10 12:00:00,9,1022.4,-1.7,87,7,15000,7.408,,,200,,,,,,,,,,3,wg-a,,,,AAXX 10124 07255 12465 72004 10090 20070 30022 40224 58017 60006 70342 877// 91200=
07255,1998-12-10 15:00:00,10,1019.9,-2.4,87,8,8000,7.408,,,170,,,,,,,,,,,wg-a,,,,AAXX 10154 07255 12258 81704 10100 20080 39998 40199 56024 60006 875// 91500=
07255,1998-12-10 18:00:00,9,1018,-1.9,93,8,0,14.816,,,190,6.3,9.6,,,,,,,,,wg-a,,,,AAXX 10184 07255 32/// /1908 10090 20080 39979 40180 58019 91800 333 10096 20063=
07255,1998-12-11 00:00:00,11,1016.7,0.1,94,10,0,22.224,,,290,,,,,,,,,,,wg-a,,,,AAXX 11004 07255 12/// /2912 10110 20100 39967 40167 53001 60076 90000=
07255,1998-12-11 06:00:00,7,1021.2,2.4,93,6,10000,11.112,,,280,7,10.9,,,,,8,,,,wg-a,,,,AAXX 11064 07255 02260 72806 10070 20060 30009 40212 53024 60006 877// 90600 333 10109 20070 60084=
07255,1998-12-11 09:00:00,8,1023.2,2,93,7,6000,11.112,,,270,,,,,,,,,,,wg-a,,,,AAXX 11094 07255 12256 82706 10080 20070 30029 40232 52020 60006 877// 90900=
07255,1998-12-11 12:00:00,9,1023.3,0.2,87,7,15000,11.112,,,280,,,,,,,,,,3,wg-a,,,,AAXX 11124 07255 02365 82806 10090 20070 30031 40233 51002 61000 70352 877// 91200 333 6100=
07255,1998-12-11 15:00:00,9,1023.5,0.2,87,7,15000,14.816,,,260,,,,,,,,,,,wg-a,,,,AAXX 11154 07255 12465 72608 10090 20070 30033 40235 53002 60006 86504 91500=
07255,1998-12-11 18:00:00,7,1024.7,1,93,6,0,3.704,,,200,7,9.3,,,,,,,,,wg-a,,,,AAXX 11184 07255 32/// /2002 10070 20060 30043 40247 53010 91800 333 10093 20070=
07255,1998-12-12 00:00:00,8,1025.1,0,93,7,0,11.112,,,250,,,,,,,,,,,wg-a,,,,AAXX 12004 07255 12/// /2506 10080 20070 30048 40251 50000 60006 90000=
07255,1998-12-12 06:00:00,8,1024.1,-0.7,93,7,11000,11.112,,,180,6.6,8.5,,,,,1,,,,wg-a,,,,AAXX 12064 07255 02/61 /1806 10080 20070 30038 40241 56007 60006 90600 333 10085 20066 60014=
07255,1998-12-12 09:00:00,10,1024.6,0.7,100,10,3500,22.224,,,250,,,,2,,,,,,50,wg-a,,,,AAXX 12094 07255 12235 82512 10100 20100 30045 40246 53007 60027 75065 887// 90900=
07255,1998-12-12 12:00:00,12,1024.6,0.1,100,12,500,22.224,,,260,,,,,,,,,,2,wg-a,,,,AAXX 12124 07255 02200 82612 10120 20120 30046 40246 50001 60026 70265 887// 91200 333 61000=
07255,1998-12-12 15:00:00,13,1025.2,0.6,94,12,7000,18.52,,,240,,,,,,,,,,,wg-a,,,,AAXX 12154 07255 12257 82410 10130 20120 30052 40252 53006 60006 885// 91500=
07255,1998-12-12 18:00:00,13,1026.2,1,100,13,0,18.52,,,250,7.8,13.4,,,,,,,,,wg-a,,,,AAXX 12184 07255 32/// /2510 10130 20130 30062 40262 51010 91800 333 10134 20078=
07255,1998-12-13 00:00:00,13,1027,0.6,94,12,0,25.928,,,250,,,,,,,,,,,wg-a,,,,AAXX 13004 07255 12/// /2514 10130 20120 30070 40270 50006 60006 90000=
07255,1998-12-13 06:00:00,10,1032.7,2.7,93,9,15000,14.816,,,280,9.8,13.7,,,,,2,,,,wg-a,,,,AAXX 13064 07255 02/65 12808 10100 20090 30124 40327 53027 60006 80001 90600 333 10137 20098 60024=
07255,1998-12-13 09:00:00,10,1035.5,2.7,93,9,15000,11.112,,,290,,,,,,,,,,,wg-a,,,,AAXX 13094 07255 12465 72906 10100 20090 30151 40355 51027 60006 875// 90900=
07255,1998-12-13 12:00:00,11,1036.5,1,82,8,25000,11.112,,,300,,,,,,,,,,,wg-a,,,,AAXX 13124 07255 12575 73006 10110 20080 30161 40365 51010 60006 87501 91200=
07255,1998-12-13 15:00:00,10,1036.2,-0.3,87,8,25000,7.408,,,290,,,,,,,,,,,wg-a,,,,AAXX 13154 07255 12575 72904 10100 20080 30158 40362 55003 60006 81502 91500=
07255,1998-12-13 18:00:00,7,1036.2,-0.2,93,6,0,3.704,,,150,6.5,11.9,,,,,,,,,wg-a,,,,AAXX 13184 07255 12/// /1502 10070 20060 30156 40362 56002 60006 91800 333 10119 20065=
07255,1998-12-14 00:00:00,2,1035.7,-1.1,100,2,0,3.704,,,140,,,,,,,,,,,wg-a,,,,AAXX 14004 07255 12/// /1402 10020 20020 30147 40357 56011 60006 90000=
07255,1998-12-14 06:00:00,6,1035.2,-0,93,5,8000,7.408,,,110,1.4,6.8,,,,,,,,,wg-a,,,,AAXX 14064 07255 02458 71104 10060 20050 30145 40352 55000 60006 875// 90600 333 10068 20014 60004=
07255,1998-12-14 09:00:00,7,1035.3,0.2,100,7,10000,7.408,,,220,,,,,,,,,,,wg-a,,,,AAXX 14094 07255 12460 72204 10070 20070 30147 40353 50002 60006 875// 90900=
07255,1998-12-14 12:00:00,11,1034.3,-0.7,87,9,18000,7.408,,,170,,,,,,,,,,,wg-a,,,,AAXX 14124 07255 12468 31704 10110 20090 30140 40343 58007 60006 81101 91200=
07255,1998-12-14 15:00:00,12,1033.1,-1.1,82,9,18000,11.112,,,140,,,,,,,,,,,wg-a,,,,AAXX 14154 07255 12468 31406 10120 20090 30129 40331 56011 60006 81101 91500=
07255,1998-12-14 18:00:00,6,1033.5,-0,100,6,0,7.408,,,150,5.6,12.9,,,,,,,,,wg-a,,,,AAXX 14184 07255 12/// /1504 10060 20060 30129 40335 55000 60006 91800 333 10129 20056=
07255,1998-12-15 00:00:00,3,1033.2,-0.6,93,2,0,11.112,,,110,,,,,,,,,,,wg-a,,,,AAXX 15004 07255 12/// /1106 10030 20020 30123 40332 58006 60006 90000=
07255,1998-12-15 06:00:00,1,1032.3,-0.2,93,0,4000,11.112,,,120,0.5,6.4,,,,,,,,10,wg-a,,,,AAXX 15064 07255 02/40 21206 10010 20000 30112 40323 56002 60006 71000 80001 90600 333 10064 20005 60004=
07255,1998-12-15 09:00:00,2,1032.5,0.4,100,2,8000,7.408,,,90,,,,,,,,,,,wg-a,,,,AAXX 15094 07255 12/58 20904 10020 20020 30116 40325 51004 60006 80002 90900=
07255,1998-12-15 12:00:00,10,1030.7,-1.2,76,6,15000,7.408,,,130,,,,,,,,,,,wg-a,,,,AAXX 15124 07255 12/65 21304 10100 20060 30104 40307 58012 60006 80002 91200=
07255,1998-12-15 15:00:00,12,1029.4,-1.2,71,7,20000,0,,,0,,,,,,,,,,,wg-a,,,,AAXX 15154 07255 12/70 20000 10120 20070 30092 40294 56012 60006 80002 91500=
07255,1998-12-15 18:00:00,7,1030.5,0.8,93,6,0,0,,,0,0.4,12.4,,,,,,,,,wg-a,,,,AAXX 15184 07255 12/// /0000 10070 20060 30100 40305 52008 60006 91800 333 10124 20004=
07255,1998-12-16 00:00:00,2,1033,0.4,100,2,0,0,,,0,,,,,,,,,,,wg-a,,,,AAXX 16004 07255 12/// /0000 10020 20020 30121 40330 50004 60006 90000=
07255,1998-12-16 06:00:00,4,1035.8,1.3,100,4,300,3.704,,,150,2.1,7.4,,,,,,,,45,wg-a,,,,AAXX 16064 07255 02/03 91502 10040 20040 30149 40358 51013 60006 74542 89/// 90600 333 10074 20021 60004=
07255,1998-12-16 09:00:00,6,1035.9,0.3,100,6,200,11.112,,,110,,,,,,,,,,43,wg-a,,,,AAXX 16094 07255 32/02 91106 10060 20060 30152 40359 53003 74344 89/// 90900=
07255,1998-12-16 12:00:00,7,1033.9,-1.9,100,7,2500,11.112,,,120,,,,,,,,,,10,wg-a,,,,AAXX 16124 07255 12225 81206 10070 20070 30133 40339 58019 60006 71042 886// 91200=
07255,1998-12-16 15:00:00,8,1032.8,-1,93,7,10000,14.816,,,50,,,,,,,,,,,wg-a,,,,AAXX 16154 07255 12460 70508 10080 20070 30123 40328 55010 60006 86501 91500=
07255,1998-12-16 18:00:00,5,1033,-0,100,5,0,7.408,,,90,3.7,8.7,,,,,,,,,wg-a,,,,AAXX 16184 07255 32/// /0904 10050 20050 30123 40330 55000 91800 333 10087 20037=
07255,1998-12-17 00:00:00,3,1031,-2,93,2,0,14.816,,,110,,,,,,,,,,,wg-a,,,,AAXX 17004 07255 12/// /1108 10030 20020 30101 40310 58020 60006 90000=
07255,1998-12-17 06:00:00,3,1028.1,-1.5,100,3,2500,14.816,,,110,2.4,5.2,,,,,,,,10,wg-a,,,,AAXX 17064 07255 02125 81108 10030 20030 30073 40281 56015 60006 71022 886// 90600 333 10052 20024 60004=
07255,1998-12-17 12:00:00,7,1026.7,-1.3,87,5,7000,11.112,,,120,,,,,,,,,,,wg-a,,,,AAXX 17124 07255 12257 51206 10070 20050 30062 40267 58013 60006 84601 91200=
07255,1998-12-17 18:00:00,4,1025.8,0.2,93,3,0,11.112,,,110,3,10.1,,,,,,,,,wg-a,,,,AAXX 17184 07255 12/// /1106 10040 20030 30051 40258 51002 60006 91800 333 10101 20030=
07255,1998-12-18 00:00:00,5,1027.2,1.3,93,4,0,14.816,,,260,,,,,,,,,,,wg-a,,,,AAXX 18004 07255 12/// /2608 10050 20040 30066 40272 51013 60006 90000=
07255,1998-12-18 06:00:00,5,1026.7,-0.5,93,4,3500,11.112,,,210,1.7,5.1,,,,,,,,10,wg-a,,,,AAXX 18064 07255 02435 82106 10050 20040 30061 40267 58005 60006 71022 875// 90600 333 10051 20017 60004=
07255,1998-12-18 09:00:00,4,1027.1,0.3,93,3,4000,14.816,,,180,,,,,,,,,,10,wg-a,,,,AAXX 18094 07255 12440 71808 10040 20030 30064 40271 51003 60006 71022 875// 90900=
07255,1998-12-18 12:00:00,7,1025.3,-1.5,87,5,4500,18.52,,,200,,,,,,,,,,10,wg-a,,,,AAXX 18124 07255 12545 72010 10070 20050 30049 40253 58015 60006 71022 875// 91200=
07255,1998-12-18 15:00:00,7,1023.5,-1.8,93,6,4500,11.112,,,180,,,,,,,,,,10,wg-a,,,,AAXX 18154 07255 02445 71806 10070 20060 30031 40235 56018 61000 71062 875// 91500 333 ////=
07255,1998-12-18 18:00:00,7,1022.5,-1,93,6,0,0,,,0,3,8.8,,,,,,,,,wg-a,,,,AAXX 18184 07255 32/// /0000 10070 20060 30021 40225 56010 91800 333 10088 20030=
07255,1998-12-19 00:00:00,10,1020.1,-0.7,82,7,0,31.484,,,250,,,,,,,,,,,wg-a,,,,AAXX 19004 07255 12/// /2517 10100 20070 30000 40201 56007 60006 90000=
07255,1998-12-19 06:00:00,8,1020.5,0.7,87,6,25000,25.928,,,270,7.1,10.3,,,,,1,,,1,wg-a,,,,AAXX 19064 07255 02575 /2714 10080 20060 30003 40205 53007 60006 70162 85500 90600 333 10103 20071 60014=
07255,1998-12-19 09:00:00,7,1023.2,2.5,93,6,25000,18.52,,,270,,,,,,,,,,21,wg-a,,,,AAXX 19094 07255 02475 32710 10070 20060 30028 40232 51025 61000 72161 81831 90900 333 ////=
07255,1998-12-19 12:00:00,10,1023.3,0.3,66,4,25000,22.224,,,280,,,,,,,,,,3,wg-a,,,,AAXX 19124 07255 02575 /2812 10100 20040 30031 40233 50003 61000 70361 85201 91200 333 ////=
07255,1998-12-19 15:00:00,8,1022.2,-1.2,71,3,25000,18.52,,,290,,,,,,,,,,,wg-a,,,,AAXX 19154 07255 12575 72910 10080 20030 30019 40222 56012 60006 81801 91500=
07255,1998-12-19 18:00:00,4,1020.8,-1.6,93,3,0,11.112,,,240,4.4,10.1,,,,,,,,,wg-a,,,,AAXX 19184 07255 32/// /2406 10040 20030 30003 40208 58016 91800 333 10101 20044=
07255,1998-12-20 00:00:00,4,1015.1,-3.8,93,3,0,11.112,,,200,,,,,,,,,,,wg-a,,,,AAXX 20004 07255 12/// /2006 10040 20030 39947 40151 58038 60006 90000=
07255,1998-12-20 06:00:00,4,1001.9,-7.5,93,3,8000,31.484,,,140,3.4,4.8,,,,,,,,61,wg-a,,,,AAXX 20064 07255 02658 81417 10040 20030 39817 40019 57075 61000 76162 885// 90600 333 10048 20034 6006=
07255,1998-12-20 09:00:00,3,999.3,-2.6,93,2,12000,31.484,,,120,,,,6,,,,,,61,wg-a,,,,AAXX 20094 07255 12362 81217 10030 20020 39791 49993 56026 60067 76166 875// 90900=
07255,1998-12-20 12:00:00,0,1001.2,1.7,100,0,700,31.484,,50.004,70,,,,5,,,,,,,wg-a,,,,AAXX 20124 07255 02/07 /0717 10000 20000 39808 40012 53017 60116 91200 333 60057 91027=
07255,1998-12-20 15:00:00,4,1005.2,4.2,87,2,500,29.632,,,50,,,,5,,,,,,51,wg-a,,,,AAXX 20154 07255 12300 80516 10040 20020 39850 40052 53042 60057 75176 887// 91500=
07255,1998-12-20 18:00:00,5,1010.4,5.1,81,2,0,25.928,,,40,0.3,5,,,,,,,,,wg-a,,,,AAXX 20184 07255 02/// /0414 10050 20020 39901 40104 53051 61000 91800 333 10050 20003 ////=
07255,1998-12-21 00:00:00,1,1018.1,2.6,86,-1,0,11.112,,,10,,,,,,,,,,,wg-a,,,,AAXX 21004 07255 12/// /0106 10010 21010 39973 40181 51026 60006 90000=
07255,1998-12-21 06:00:00,0,1022.7,1.7,93,-1,8000,11.112,,,10,-0.8,5,,,,,16,,,,wg-a,,,,AAXX 21064 07255 02358 70106 10000 21010 30018 40227 53017 60006 87600 90600 333 10050 21008 60164=
07255,1998-12-21 09:00:00,0,1025.1,2.4,93,-1,9000,7.408,,,340,,,,,,,,,,,wg-a,,,,AAXX 21094 07255 12459 73404 10000 21010 30042 40251 51024 60006 875// 90900=
07255,1998-12-21 12:00:00,3,1025.9,0.9,75,-1,20000,7.408,,,30,,,,,,,,,,,wg-a,,,,AAXX 21124 07255 12470 40304 10030 21010 30051 40259 51009 60006 84201 91200=
07255,1998-12-21 15:00:00,4,1026.6,0.8,65,-2,35000,3.704,,,360,,,,,,,,,,,wg-a,,,,AAXX 21154 07255 12581 /3602 10040 21020 30059 40266 51008 60006 81101 91500=
07255,1998-12-21 18:00:00,1,1028.7,1.8,75,-3,0,7.408,,,320,-0.3,4.5,,,,,,,,,wg-a,,,,AAXX 21184 07255 12/// /3204 10010 21030 30077 40287 51018 60006 91800 333 10045 21003=
07255,1998-12-22 00:00:00,-3,1029.7,-0.1,93,-4,0,3.704,,,220,,,,,,,,,,,wg-a,,,,AAXX 22004 07255 12/// /2202 11030 21040 30084 40297 58001 60006 90000=
07255,1998-12-22 06:00:00,-2,1030.1,0.2,93,-3,300,3.704,,,210,-2.8,0.8,,,,,,,,49,wg-a,,,,AAXX 22064 07255 02/03 92102 11020 21030 30089 40301 53002 60006 74942 89/// 90600 333 10008 21028 60004=
07255,1998-12-22 09:00:00,-1,1031,0.9,93,-2,300,3.704,,,190,,,,,,,,,,49,wg-a,,,,AAXX 22094 07255 12/03 91902 11010 21020 30098 40310 53009 60006 74944 89/// 90900=
07255,1998-12-22 12:00:00,-1,1030.6,-0.4,93,-2,100,3.704,,,190,,,,,,,,,,45,wg-a,,,,AAXX 22124 07255 12/01 91902 11010 21020 30094 40306 58004 60006 74544 89/// 91200=
07255,1998-12-22 15:00:00,-2,1029.9,-0.7,100,-2,100,7.408,,,130,,,,,,,,,,45,wg-a,,,,AAXX 22154 07255 12/01 91304 11020 21020 30087 40299 56007 60006 74544 89/// 91500=
07255,1998-12-22 18:00:00,-3,1029.4,-0.6,100,-3,0,14.816,,,110,-2.8,-1,,,,,,,,,wg-a,,,,AAXX 22184 07255 12/// /1108 11030 21030 30081 40294 57006 60006 91800 333 11010 21028=
07255,1998-12-23 00:00:00,-4,1027.7,-1.1,93,-5,0,7.408,,,110,,,,,,,,,,,wg-a,,,,AAXX 23004 07255 12/// /1104 11040 21050 30064 40277 56011 60006 90000=
07255,1998-12-23 06:00:00,-3,1025.2,-1.1,86,-5,8000,14.816,,,80,-4.3,-2.7,,,,,,,,,wg-a,,,,AAXX 23064 07255 02/58 20808 11030 21050 30040 40252 55011 60006 80002 90600 333 11027 21043 60004=
07255,1998-12-23 09:00:00,-3,1023.9,-1.2,93,-4,8000,25.928,,,110,,,,,,,,,,,wg-a,,,,AAXX 23094 07255 12/58 71114 11030 21040 30028 40239 58012 60006 81032 90900=
07255,1998-12-23 12:00:00,1,1022.3,-1.4,75,-3,10000,11.112,,,150,,,,,,,,,,,wg-a,,,,AAXX 23124 07255 12/60 71506 10010 21030 30014 40223 58014 60006 80002 91200=
07255,1998-12-23 15:00:00,1,1020.7,-1.5,86,-1,10000,7.408,,,120,,,,,,,,,,,wg-a,,,,AAXX 23154 07255 12/60 71204 10010 21010 39999 40207 56015 60006 81032 91500=
07255,1998-12-23 18:00:00,0,1021.3,0.5,86,-2,0,11.112,,,150,-3.8,2.4,,,,,,,,,wg-a,,,,AAXX 23184 07255 12/// /1506 10000 21020 30004 40213 50005 60006 91800 333 10024 21038=
07255,1998-12-24 00:00:00,-1,1021.6,-0.1,93,-2,0,3.704,,,150,,,,,,,,,,,wg-a,,,,AAXX 24004 07255 32/// /1502 11010 21020 30007 40216 58001 90000=
07255,1998-12-24 06:00:00,1,1022.9,1.5,93,0,1500,0,,,0,-0.8,1,,3,,,3,,,51,wg-a,,,,AAXX 24064 07255 02315 80000 10010 20000 30021 40229 53015 60034 75165 887// 90600 333 10010 21008 60037=
07255,1998-12-24 12:00:00,2,1027.1,1.8,100,2,200,14.816,,,290,,,,,,,,,,44,wg-a,,,,AAXX 24124 07255 32102 82908 10020 20020 30063 40271 51018 74465 886// 91200=
07255,1998-12-24 15:00:00,3,1028.5,1.4,93,2,500,11.112,,,300,,,,,,,,,,1,wg-a,,,,AAXX 24154 07255 32300 73006 10030 20020 30077 40285 53014 70142 876// 91500=
07255,1998-12-24 18:00:00,3,1030.1,1.5,93,2,0,3.704,,,240,0.8,2.9,,,,,,,,,wg-a,,,,AAXX 24184 07255 32/// /2402 10030 20020 30092 40301 51015 91800 333 10029 20008=
07255,1998-12-25 00:00:00,1,1030.8,-0.1,100,1,0,7.408,,,170,,,,,,,,,,,wg-a,,,,AAXX 25004 07255 32/// /1704 10010 20010 30098 40308 58001 90000=
07255,1998-12-25 06:00:00,3,1030.1,-0.2,93,2,8000,18.52,,,210,0.9,3.2,,,,,1,,,51,wg-a,,,,AAXX 25064 07255 02558 82110 10030 20020 30093 40301 56002 60014 75152 875// 90600 333 10032 20009 61000=
07255,1998-12-25 09:00:00,4,1030.7,0.6,100,4,1700,22.224,,,200,,,,1,,,,,,51,wg-a,,,,AAXX 25094 07255 12217 82012 10040 20040 30099 40307 53006 60017 75165 877// 90900=
07255,1998-12-25 12:00:00,6,1029.6,-0.9,100,6,10000,14.816,,,250,,,,2,,,,,,21,wg-a,,,,AAXX 25124 07255 12260 82508 10060 20060 30090 40296 58009 60027 72165 887// 91200=
07255,1998-12-25 15:00:00,8,1028.5,-0.9,87,6,15000,18.52,,,240,,,,,,,,,,0,wg-a,,,,AAXX 25154 07255 32465 72410 10080 20060 30081 40285 56009 700// 875// 91500=
07255,1998-12-25 18:00:00,6,1028,-0.6,93,5,0,14.816,,,210,2.9,8,,,,,,,,,wg-a,,,,AAXX 25184 07255 32/// /2108 10060 20050 30075 40280 58006 91800 333 10080 20029=
07255,1998-12-26 00:00:00,5,1027.5,-0.1,93,4,0,18.52,,,210,,,,,,,,,,,wg-a,,,,AAXX 26004 07255 12/// /2110 10050 20040 30069 40275 58001 60006 90000=
07255,1998-12-26 06:00:00,6,1026.5,-0.5,70,1,18000,22.224,,,240,4.9,6.6,,,,,,,,60,wg-a,,,,AAXX 26064 07255 02568 82412 10060 20010 30060 40265 56005 61000 76062 875// 90600 333 10066 20049 6003=
07255,1998-12-26 09:00:00,6,1025.7,-0.8,70,1,25000,18.52,,,210,,,,,,,,,,2,wg-a,,,,AAXX 26094 07255 02475 82110 10060 20010 30052 40257 58008 61000 70262 875// 90900 333 ////=
07255,1998-12-26 12:00:00,8,1023.9,-1.6,66,2,25000,22.224,,,220,,,,,,,,,,3,wg-a,,,,AAXX 26124 07255 02575 72212 10080 20020 30036 40239 58016 61000 70362 8557/ 91200 333 ////=
07255,1998-12-26 15:00:00,10,1020.4,-3.3,62,3,25000,22.224,,,230,,,,,,,,,,,wg-a,,,,AAXX 26154 07255 12675 72312 10100 20030 30003 40204 56033 60006 83532 91500=
07255,1998-12-26 18:00:00,8,1019.2,-1.3,61,1,0,22.224,,,220,5.2,10,,,,,,,,,wg-a,,,,AAXX 26184 07255 32/// /2212 10080 20010 39990 40192 58013 91800 333 10100 20052=
07255,1998-12-27 00:00:00,10,1016.9,-1.4,57,2,0,29.632,,,230,,,,,,,,,,,wg-a,,,,AAXX 27004 07255 12/// /2316 10100 20020 39968 40169 56014 60006 90000=
07255,1998-12-27 06:00:00,9,1014.4,-1.6,66,3,20000,14.816,,,220,8.2,10.8,,,,,,,,,wg-a,,,,AAXX 27064 07255 02670 82208 10090 20030 39943 40144 56016 60006 8357/ 90600 333 10108 20082 61000=
07255,1998-12-27 09:00:00,11,1013.3,-0.9,50,1,500,25.928,,,220,,,,,,,,,,,wg-a,,,,AAXX 27094 07255 12/00 82214 10110 20010 39934 40133 55009 60006 8807/ 90900=
07255,1998-12-27 12:00:00,12,1012,-1.2,54,3,500,29.632,,,220,,,,,,,,,,,wg-a,,,,AAXX 27124 07255 12700 72216 10120 20030 39922 40120 58012 60006 8257/ 91200=
07255,1998-12-27 18:00:00,10,1011.3,0.5,53,1,0,22.224,,,220,8.9,14.3,,,,,,,,,wg-a,,,,AAXX 27184 07255 32/// /2212 10100 20010 39913 40113 51005 91800 333 10143 20089=
07255,1998-12-28 00:00:00,8,1012.2,0.8,71,3,0,18.52,,,220,,,,,,,,,,,wg-a,,,,AAXX 28004 07255 12/// /2210 10080 20030 39921 40122 51008 60006 90000=
07255,1998-12-28 06:00:00,4,1012.7,0.4,81,1,20000,14.816,,,200,3.6,9.8,,,,,,,,,wg-a,,,,AAXX 28064 07255 02/70 12008 10040 20010 39923 40127 53004 60006 80001 90600 333 10098 20036 61000=
07255,1998-12-28 09:00:00,7,1013.9,1.4,76,3,20000,11.112,,,220,,,,,,,,,,,wg-a,,,,AAXX 28094 07255 12670 72206 10070 20030 39937 40139 53014 60006 8357/ 90900=
07255,1998-12-28 12:00:00,7,1015.2,1.3,93,6,18000,14.816,,,290,,,,,,,,,,,wg-a,,,,AAXX 28124 07255 12368 82908 10070 20060 39950 40152 51013 60006 875// 91200=
07255,1998-12-28 18:00:00,5,1018.8,2.3,93,4,0,7.408,,,200,4.1,8.8,,,,,,,,,wg-a,,,,AAXX 28184 07255 32/// /2004 10050 20040 39983 40188 51023 91800 333 10088 20041=
07255,1998-12-29 00:00:00,1,1018.7,-0.3,100,1,0,11.112,,,130,,,,,,,,,,,wg-a,,,,AAXX 29004 07255 02/// /1306 10010 20010 39980 40187 58003 61000 90000 333 ////=
07255,1998-12-29 06:00:00,2,1013.9,-2.5,93,1,9000,18.52,,,110,0.7,4.6,,,,,2,,,,wg-a,,,,AAXX 29064 07255 02659 /1110 10020 20010 39933 40139 56025 60006 85500 90600 333 10046 20007 60024=
07255,1998-12-29 09:00:00,4,1012.9,-0.8,100,4,6000,18.52,,,120,,,,,,,,,,,wg-a,,,,AAXX 29094 07255 12656 /1210 10040 20040 39925 40129 57008 60006 83501 90900=
07255,1998-12-29 12:00:00,10,1010.1,-2.3,82,7,18000,18.52,,,130,,,,,,,,,,,wg-a,,,,AAXX 29124 07255 12/68 51310 10100 20070 39902 40101 58023 60006 80001 91200=
07255,1998-12-29 15:00:00,12,1007.9,-2,71,7,25000,14.816,,,120,,,,,,,,,,,wg-a,,,,AAXX 29154 07255 12/75 61208 10120 20070 39882 40079 56020 60006 80001 91500=
07255,1998-12-29 18:00:00,9,1008.7,0.5,71,4,0,14.816,,,150,1.8,12.2,,,,,,,,,wg-a,,,,AAXX 29184 07255 12/// /1508 10090 20040 39887 40087 53005 60006 91800 333 10122 20018=
07255,1998-12-30 00:00:00,5,1009.3,0.3,87,3,0,18.52,,,140,,,,,,,,,,,wg-a,,,,AAXX 30004 07255 32/// /1410 10050 20030 39890 40093 50003 90000=
07255,1998-12-30 06:00:00,4,1010.3,0.8,87,2,25000,18.52,,,110,4,8.5,,,,,,,,0,wg-a,,,,AAXX 30064 07255 12/75 71110 10040 20020 39900 40103 53008 60004 700// 85051 90600 333 10085 20040=
07255,1998-12-30 09:00:00,6,1011.4,1.2,81,3,25000,14.816,,,100,,,,,,,,,,0,wg-a,,,,AAXX 30094 07255 32/75 71008 10060 20030 39912 40114 53012 700// 81032 90900=
07255,1998-12-30 12:00:00,10,1010.6,-0.5,76,6,25000,14.816,,,80,,,,,,,,,,0,wg-a,,,,AAXX 30124 07255 32/75 70808 10100 20060 39907 40106 58005 700// 83032 91200=
07255,1998-12-30 15:00:00,11,1009.9,-0.6,76,7,25000,11.112,,,120,,,,,,,,,,0,wg-a,,,,AAXX 30154 07255 32/75 81206 10110 20070 39901 40099 58006 700// 86032 91500=
07255,1998-12-30 18:00:00,10,1010.1,0.1,82,7,0,14.816,,,160,4.4,11.2,,,,,,,,,wg-a,,,,AAXX 30184 07255 32/// /1608 10100 20070 39902 40101 50001 91800 333 10112 20044=
07255,1998-12-31 00:00:00,8,1009.6,-0.8,87,6,0,18.52,,,110,,,,,,,,,,,wg-a,,,,AAXX 31004 07255 32/// /1110 10080 20060 39895 40096 58008 90000=
07255,1998-12-31 06:00:00,7,1006.8,-1.5,93,6,8000,14.816,,,120,6.8,9.4,,3,,,10,,,51,wg-a,,,,AAXX 31064 07255 02658 81208 10070 20060 39867 40068 56015 60104 75165 875// 90600 333 10094 20068 60037=
07255,1998-12-31 12:00:00,11,1004.3,-1.4,71,6,35000,18.52,,,140,,,,,,,,,,1,wg-a,,,,AAXX 31124 07255 32681 71410 10110 20060 39846 40043 58014 70165 85511 91200=
07255,1998-12-31 18:00:00,10,1003.5,0.1,62,3,0,25.928,,,140,6.9,11.6,,,,,,,,,wg-a,,,,AAXX 31184 07255 32/// /1414 10100 20030 39837 40035 53001 91800 333 10116 20069=
