station_id,dh_utc,temperature,pression,pression_variation_3h,humidite,point_de_rosee,visibilite,vent_moyen,vent_rafales,vent_rafales_10min,vent_direction,temperature_min,temperature_max,pluie_1h,pluie_3h,pluie_6h,pluie_12h,pluie_24h,ensoleillement,temperature_sol,temps_omm,source,radiations,neige_au_sol,nebulosite,raw_msg
07020,1996-01-01 00:00:00,9,997.4,-0.5,93,8,0,29.632,,,180,,,,,,,,,,,wg-a,,,,AAXX 01004 07020 12/// /1816 10090 20080 39957 49974 58005 60006 90000=
07020,1996-01-01 06:00:00,8,997,-0,100,8,8000,11.112,,,150,8.1,9.6,,,,,,,,,wg-a,,,,AAXX 01064 07020 12558 81506 10080 20080 39953 49970 55000 60006 8472/ 90600 333 10096 20081=
07020,1996-01-01 12:00:00,9,996.4,-0.7,100,9,14000,18.52,,,100,,,,,,,,,,,wg-a,,,,AAXX 01124 07020 12464 71010 10090 20090 39947 49964 58007 60006 8277/ 91200=
07020,1996-01-01 18:00:00,9,997.2,0.6,100,9,12000,29.632,,,90,7.8,10.1,,,,,,,,,wg-a,,,,AAXX 01184 07020 12562 80916 10090 20090 39955 49972 52006 60006 885// 91800 333 10101 20078=
07020,1996-01-02 00:00:00,9,1001.1,2.1,87,7,0,29.632,,,80,,,,,,,,,,,wg-a,,,,AAXX 02004 07020 12/// /0816 10090 20070 39994 40011 53021 60006 90000=
07020,1996-01-02 06:00:00,9,1007.2,3.5,100,9,12000,22.224,,,30,8.4,9.6,,,,,,,,,wg-a,,,,AAXX 02064 07020 12462 80312 10090 20090 30055 40072 53035 60006 885// 90600 333 10096 20084=
07020,1996-01-02 12:00:00,10,1013.5,2.5,87,8,500,7.408,,,70,,,,,,,,,,,wg-a,,,,AAXX 02124 07020 12800 70704 10100 20080 30118 40135 51025 60006 8707/ 91200=
07020,1996-01-02 18:00:00,8,1016.8,1.3,93,7,500,14.816,,,100,6.9,11.3,,,,,,,,,wg-a,,,,AAXX 02184 07020 12500 41008 10080 20070 30151 40168 51013 60006 81130 91800 333 10113 20069=
07020,1996-01-03 00:00:00,8,1019.2,0.9,93,7,0,25.928,,,170,,,,,,,,,,,wg-a,,,,AAXX 03004 07020 12/// /1714 10080 20070 30175 40192 51009 60006 90000=
07020,1996-01-03 06:00:00,8,1018.9,0.2,93,7,10000,18.52,,,150,0.7,,,,,,1,,,,wg-a,,,,AAXX 03064 07020 02560 /1510 10080 20070 30172 40189 53002 60006 8217/ 90600 333 20007 60014=
07020,1996-01-03 12:00:00,9,1019.1,-0.3,87,7,16000,18.52,,,170,,,,,,,,,,,wg-a,,,,AAXX 03124 07020 12/66 61710 10090 20070 30174 40191 58003 60006 80005 91200=
07020,1996-01-03 18:00:00,6,1017.3,-0.2,93,5,6000,18.52,,,140,5.7,9.5,,,,,,,,,wg-a,,,,AAXX 03184 07020 32456 81410 10060 20050 30156 40173 58002 886// 91800 333 10095 20057=
07020,1996-01-04 00:00:00,5,1014.7,-1.2,93,4,0,18.52,,,130,,,,,,,,,,,wg-a,,,,AAXX 04004 07020 12/// /1310 10050 20040 30130 40147 58012 60006 90000=
07020,1996-01-04 06:00:00,8,1007.8,-3.4,66,2,25000,46.3,,68.524,170,4.4,7.7,,,,,,,,,wg-a,,,,AAXX 04064 07020 12675 61725 10080 20020 30061 40078 56034 60006 86400 90600 333 10077 20044 91037=
07020,1996-01-04 12:00:00,10,1003.1,-1.6,62,3,25000,38.892,,83.34,170,,,,,,,,,,,wg-a,,,,AAXX 04124 07020 12775 81721 10100 20030 30014 40031 58016 60006 885// 91200 333 91045=
07020,1996-01-04 18:00:00,8,1001.8,0.6,87,6,18000,38.892,,75.932,180,7.6,12,,0,,,,,,1,wg-a,,,,AAXX 04184 07020 12768 71821 10080 20060 30001 40018 52006 60007 70162 872// 91800 333 10120 20076 91041=
07020,1996-01-05 00:00:00,8,1000.7,-0.8,93,7,0,25.928,,,170,,,,,,,,,,,wg-a,,,,AAXX 05004 07020 12/// /1714 10080 20070 39990 40007 56008 60006 90000=
07020,1996-01-05 06:00:00,8,996.2,-1.9,100,8,12000,18.52,,61.116,80,7.8,8.9,,,,,,,,,wg-a,,,,AAXX 05064 07020 12/62 30810 10080 20080 39945 49962 58019 60006 82031 90600 333 10089 20078 91033=
07020,1996-01-05 12:00:00,9,994.5,0,93,8,8000,31.484,,61.116,200,,,,0,,,,,,60,wg-a,,,,AAXX 05124 07020 02658 82017 10090 20080 39928 49945 50000 60016 76062 8802/ 91200 333 60007 91033=
07020,1996-01-05 18:00:00,9,995.9,0.7,100,9,18000,22.224,,,200,7.7,10,,,,,,,,0,wg-a,,,,AAXX 05184 07020 32568 42012 10090 20090 39942 49959 51007 70062 82120 91800 333 10100 20077=
07020,1996-01-06 00:00:00,8,996.2,-0.3,93,7,0,14.816,,,180,,,,,,,,,,,wg-a,,,,AAXX 06004 07020 12/// /1808 10080 20070 39945 49962 58003 60006 90000=
07020,1996-01-06 06:00:00,7,992.4,-2.5,100,7,16000,29.632,,,170,6.4,9.8,,,,,,,,,wg-a,,,,AAXX 06064 07020 12666 81716 10070 20070 39907 49924 56025 60006 8242/ 90600 333 10098 20064=
07020,1996-01-06 12:00:00,9,987.2,-2.2,76,5,18000,31.484,,64.82,150,,,,,,,,,,,wg-a,,,,AAXX 06124 07020 12868 81517 10090 20050 39855 49872 58022 60006 8807/ 91200 333 91035=
07020,1996-01-06 18:00:00,8,982.2,-0.8,93,7,18000,35.188,,72.228,160,7.1,8.9,,0,,,,,,2,wg-a,,,,AAXX 06184 07020 12568 81619 10080 20070 39805 49822 56008 60007 70262 885// 91800 333 10089 20071 91039=
07020,1996-01-07 00:00:00,10,979.8,-0.8,87,8,0,50.004,,,180,,,,,,,,,,,wg-a,,,,AAXX 07004 07020 12/// /1827 10100 20080 39782 49798 56008 60006 90000=
07020,1996-01-07 06:00:00,11,985.1,3,87,9,20000,46.3,,72.228,210,7.9,11.2,,,,,,,,,wg-a,,,,AAXX 07064 07020 12/70 22125 10110 20090 39834 49851 51030 60006 80001 90600 333 10112 20079 91039=
07020,1996-01-07 12:00:00,11,992.1,3.1,87,9,16000,42.596,,87.044,220,,,,2,,,,,,,wg-a,,,,AAXX 07124 07020 02566 72223 10110 20090 39904 49921 51031 60036 83820 91200 333 60027 91047=
07020,1996-01-07 18:00:00,10,997.6,2.5,93,9,0,22.224,,,190,8,11.5,,,,,,,,,wg-a,,,,AAXX 07184 07020 32/// /1912 10100 20090 39959 49976 52025 91800 333 10115 20080=
07020,1996-01-08 00:00:00,9,1001.4,1.4,100,9,0,35.188,,,210,,,,,,,,,,,wg-a,,,,AAXX 08004 07020 12/// /2119 10090 20090 39997 40014 53014 60006 90000=
07020,1996-01-08 06:00:00,10,1000.4,-1,93,9,12000,42.596,,68.524,170,8.8,10.5,,2,,,,,,61,wg-a,,,,AAXX 08064 07020 12562 81723 10100 20090 39987 40004 58010 60027 76166 8582/ 90600 333 10105 20088 91037=
07020,1996-01-08 12:00:00,12,997.5,-1.6,76,8,16000,50.004,,83.34,160,,,,,,,,,,2,wg-a,,,,AAXX 08124 07020 12566 81627 10120 20080 39958 49975 58016 60036 70262 8652/ 91200 333 91045=
07020,1996-01-08 18:00:00,11,994.3,-0.7,82,8,16000,57.412,,94.452,170,9.7,12,,0,,,,,,25,wg-a,,,,AAXX 08184 07020 12566 81731 10110 20080 39926 49943 58007 60007 72582 8472/ 91800 333 10120 20097 91051=
07020,1996-01-09 00:00:00,10,993.3,-1.1,93,9,0,50.004,,,170,,,,3,,,,,,,wg-a,,,,AAXX 09004 07020 02/// /1727 10100 20090 39916 49933 56011 60046 90000 333 60037=
07020,1996-01-09 06:00:00,10,992.2,-0.2,93,9,20000,35.188,,72.228,180,9.1,11.4,,1,,,,,,,wg-a,,,,AAXX 09064 07020 12670 71819 10100 20090 39905 49922 55002 60017 8372/ 90600 333 10114 20091 91039=
07020,1996-01-09 12:00:00,11,995.8,1.7,94,10,14000,46.3,,72.228,180,,,,,,,,,,,wg-a,,,,AAXX 09124 07020 12664 41825 10110 20100 39941 49958 51017 60006 82770 91200 333 91039=
07020,1996-01-09 18:00:00,10,998.7,2.7,93,9,18000,38.892,,79.636,190,9.6,11.6,,,,,,,,1,wg-a,,,,AAXX 09184 07020 02868 41921 10100 20090 39970 49987 53027 61000 70182 84040 91800 333 10116 20096 //// 91043=
07020,1996-01-10 00:00:00,10,1001.4,0.8,93,9,0,31.484,,,180,,,,,,,,,,,wg-a,,,,AAXX 10004 07020 12/// /1817 10100 20090 39997 40014 51008 60006 90000=
07020,1996-01-10 06:00:00,9,1002.8,0.8,100,9,18000,22.224,,,190,9,10.6,,,,,,,,,wg-a,,,,AAXX 10064 07020 12868 41912 10090 20090 30011 40028 53008 60006 84040 90600 333 10106 20090=
07020,1996-01-10 12:00:00,9,1005,0.1,100,9,4000,22.224,,,180,,,,,,,,,,2,wg-a,,,,AAXX 10124 07020 12440 71812 10090 20090 30033 40050 50001 60006 70242 85625 91200=
07020,1996-01-10 18:00:00,8,1005.4,0.1,93,7,14000,25.928,,,200,7.2,9.7,,,,,,,,,wg-a,,,,AAXX 10184 07020 32464 72014 10080 20070 30037 40054 52001 85621 91800 333 10097 20072=
07020,1996-01-11 00:00:00,7,1002.4,-2.2,100,7,0,22.224,,,180,,,,,,,,,,,wg-a,,,,AAXX 11004 07020 12/// /1812 10070 20070 30007 40024 58022 60006 90000=
07020,1996-01-11 06:00:00,8,994.7,-3.4,93,7,14000,38.892,,57.412,170,6.3,8.2,,,,,,,,,wg-a,,,,AAXX 11064 07020 12464 81721 10080 20070 39930 49947 56034 60006 885// 90600 333 10082 20063 91031=
07020,1996-01-11 12:00:00,9,986.7,-3.3,93,8,10000,61.116,,96.304,170,,,,2,,,,,,62,wg-a,,,,AAXX 11124 07020 02460 81733 10090 20080 39850 49867 58033 60036 76266 8672/ 91200 333 60027 91052=
07020,1996-01-11 18:00:00,11,987,0.8,87,9,18000,50.004,,94.452,180,7.9,10.8,,,,,,,,1,wg-a,,,,AAXX 11184 07020 32568 41827 10110 20090 39853 49870 51008 70166 8342/ 91800 333 10108 20079 91051=
07020,1996-01-12 00:00:00,10,987.9,-0.2,87,8,0,42.596,,,170,,,,,,,,,,,wg-a,,,,AAXX 12004 07020 12/// /1723 10100 20080 39862 49879 56002 60006 90000=
07020,1996-01-12 06:00:00,10,989,0.7,93,9,15000,46.3,,79.636,180,9.4,10.6,,,,,,,,,wg-a,,,,AAXX 12064 07020 32565 51825 10100 20090 39873 49890 53007 8342/ 90600 333 10106 20094 91043=
07020,1996-01-12 12:00:00,11,992.6,1.5,87,9,14000,50.004,,75.932,180,,,,,,,,,,,wg-a,,,,AAXX 12124 07020 12564 31827 10110 20090 39909 49926 51015 60006 82421 91200 333 91041=
07020,1996-01-12 18:00:00,11,995.8,1.8,87,9,14000,46.3,,68.524,180,9.4,11.6,,,,,,,,,wg-a,,,,AAXX 12184 07020 12664 71825 10110 20090 39941 49958 51018 60006 85420 91800 333 10116 20094 91037=
07020,1996-01-13 00:00:00,10,1001.1,2.8,100,10,0,42.596,,,200,,,,0,,,,,,,wg-a,,,,AAXX 13004 07020 02/// /2023 10100 20100 39994 40011 51028 60016 90000 333 60007=
07020,1996-01-13 06:00:00,10,1005.8,2.4,93,9,14000,31.484,,,220,10,11,,,,,,,,,wg-a,,,,AAXX 13064 07020 32864 22217 10100 20090 30041 40058 53024 82020 90600 333 10110 20100=
07020,1996-01-13 12:00:00,11,1008.6,0.6,87,9,22000,38.892,,,190,,,,,,,,,,,wg-a,,,,AAXX 13124 07020 12572 51921 10110 20090 30069 40086 50006 60006 81155 91200=
07020,1996-01-13 18:00:00,11,1009.4,0.8,82,8,20000,38.892,,64.82,170,9.5,11.1,,,,,,,,,wg-a,,,,AAXX 13184 07020 12870 71721 10110 20080 30077 40094 52008 60006 8707/ 91800 333 10111 20095 91035=
07020,1996-01-14 00:00:00,10,1010,0.8,87,8,0,31.484,,,170,,,,,,,,,,,wg-a,,,,AAXX 14004 07020 12/// /1717 10100 20080 30083 40100 51008 60006 90000=
07020,1996-01-14 06:00:00,10,1009.2,-0.2,76,6,500,29.632,,57.412,140,8.6,11,,,,,,,,,wg-a,,,,AAXX 14064 07020 12800 71416 10100 20060 30075 40092 56002 60006 8707/ 90600 333 10110 20086 91031=
07020,1996-01-14 12:00:00,11,1009.9,0.6,87,9,22000,25.928,,57.412,150,,,,,,,,,,,wg-a,,,,AAXX 14124 07020 12872 71514 10110 20090 30082 40099 51006 60006 8707/ 91200 333 91031=
07020,1996-01-14 18:00:00,11,1012.5,1.7,87,9,22000,22.224,,,130,8.9,12.3,,1,,,,,,21,wg-a,,,,AAXX 14184 07020 12872 71312 10110 20090 30108 40125 53017 60017 72162 87070 91800 333 10123 20089=
07020,1996-01-15 00:00:00,11,1015.3,1.3,87,9,0,22.224,,,110,,,,,,,,,,,wg-a,,,,AAXX 15004 07020 12/// /1112 10110 20090 30136 40153 51013 60006 90000=
07020,1996-01-15 06:00:00,12,1018.5,1.6,82,9,18000,25.928,,,160,10.2,12.4,,,,,,,,,wg-a,,,,AAXX 15064 07020 12868 81614 10120 20090 30168 40185 51016 60006 8807/ 90600 333 10124 20102=
07020,1996-01-15 12:00:00,13,1022.1,1.5,82,10,20000,14.816,,,170,,,,,,,,,,,wg-a,,,,AAXX 15124 07020 12870 71708 10130 20100 30204 40221 51015 60006 8707/ 91200=
07020,1996-01-15 18:00:00,9,1023.6,1.2,93,8,18000,11.112,,,130,8.8,13.6,,,,,,,,,wg-a,,,,AAXX 15184 07020 12868 31306 10090 20080 30219 40236 51012 60006 8307/ 91800 333 10136 20088=
07020,1996-01-16 00:00:00,11,1025.8,1,87,9,0,0,,,0,,,,,,,,,,,wg-a,,,,AAXX 16004 07020 12/// /0000 10110 20090 30241 40258 53010 60006 90000=
07020,1996-01-16 06:00:00,8,1026,0.4,93,7,18000,3.704,,,120,8,11.7,,,,,,,,,wg-a,,,,AAXX 16064 07020 12/68 01202 10080 20070 30243 40260 53004 60006 80000 90600 333 10117 20080=
07020,1996-01-16 12:00:00,12,1026.9,-0.4,88,10,12000,3.704,,,350,,,,,,,,,,,wg-a,,,,AAXX 16124 07020 12/62 23502 10120 20100 30252 40269 58004 60006 81081 91200=
07020,1996-01-16 18:00:00,9,1026.5,0.6,87,7,10000,7.408,,,70,7.8,13.6,,,,,,,,,wg-a,,,,AAXX 16184 07020 12/60 20704 10090 20070 30248 40265 51006 60006 80001 91800 333 10136 20078=
07020,1996-01-17 00:00:00,10,1025.5,-0.6,87,8,0,22.224,,,180,,,,,,,,,,,wg-a,,,,AAXX 17004 07020 12/// /1812 10100 20080 30238 40255 58006 60006 90000=
07020,1996-01-17 06:00:00,7,1024.6,-0.5,93,6,4000,7.408,,,130,7.1,9.8,,0,,,,,,,wg-a,,,,AAXX 17064 07020 12/40 01304 10070 20060 30229 40246 56005 60007 80000 90600 333 10098 20071=
07020,1996-01-17 12:00:00,10,1023.8,-1,82,7,8000,3.704,,,290,,,,,,,,,,,wg-a,,,,AAXX 17124 07020 12458 12902 10100 20070 30221 40238 58010 60006 81600 91200=
07020,1996-01-17 18:00:00,8,1021.8,-0.5,93,7,10000,11.112,,,190,5.2,11.8,,,,,,,,,wg-a,,,,AAXX 17184 07020 12560 21906 10080 20070 30201 40218 55005 60006 81620 91800 333 10118 20052=
07020,1996-01-18 00:00:00,6,1020.8,-0.9,100,6,0,11.112,,,230,,,,,,,,,,,wg-a,,,,AAXX 18004 07020 12/// /2306 10060 20060 30191 40208 58009 60006 90000=
07020,1996-01-18 06:00:00,7,1018.5,-1,87,5,12000,25.928,,,190,4.8,7.9,,,,,,,,,wg-a,,,,AAXX 18064 07020 12562 81914 10070 20050 30168 40185 56010 60006 886// 90600 333 10079 20048=
07020,1996-01-18 12:00:00,9,1017.5,-0.6,76,5,14000,18.52,,,180,,,,,,,,,,,wg-a,,,,AAXX 18124 07020 12764 81810 10090 20050 30158 40175 58006 60006 885// 91200=
07020,1996-01-18 18:00:00,9,1016.6,-0.1,81,6,0,7.408,,,100,6.6,9.9,,,,,,,,,wg-a,,,,AAXX 18184 07020 12/// /1004 10090 20060 30149 40166 56001 60006 91800 333 10099 20066=
07020,1996-01-19 06:00:00,9,1014,-0.9,93,8,4000,22.224,,,180,,,,,,,,,,,wg-a,,,,AAXX 19064 07020 32440 81812 10090 20080 30123 40140 57009 886// 90600=
07020,1996-01-19 12:00:00,11,1012,-1.6,82,8,4000,18.52,,,170,,,,,,,,,,,wg-a,,,,AAXX 19124 07020 12/40 71710 10110 20080 30103 40120 58016 60006 8702/ 91200=
07020,1996-01-19 18:00:00,9,1008.5,-1.3,71,4,15000,31.484,,,160,8.5,11.5,,,,,,,,,wg-a,,,,AAXX 19184 07020 12/65 41617 10090 20040 30068 40085 56013 60006 8407/ 91800 333 10115 20085=
07020,1996-01-20 00:00:00,9,1005.8,-1.5,61,2,0,35.188,,,170,,,,,,,,,,,wg-a,,,,AAXX 20004 07020 12/// /1719 10090 20020 30041 40058 58015 60006 90000=
07020,1996-01-20 06:00:00,5,1003.3,-1.4,81,2,20000,22.224,,,110,5.4,9.5,,,,,,,,,wg-a,,,,AAXX 20064 07020 12/70 01112 10050 20020 30016 40033 57014 60006 80000 90600 333 10095 20054=
07020,1996-01-20 12:00:00,9,1003.5,-0.1,71,4,16000,18.52,,,120,,,,,,,,,,,wg-a,,,,AAXX 20124 07020 12866 61210 10090 20040 30018 40035 58001 60006 86070 91200=
07020,1996-01-20 18:00:00,7,1004.1,1.2,87,5,18000,25.928,,,110,5.2,8.7,,,,,,,,2,wg-a,,,,AAXX 20184 07020 02868 71114 10070 20050 30024 40041 53012 61000 70262 8707/ 91800 333 10087 20052 ////=
07020,1996-01-21 00:00:00,5,1007.3,1.2,87,3,0,25.928,,,110,,,,,,,,,,,wg-a,,,,AAXX 21004 07020 12/// /1114 10050 20030 30056 40073 52012 60006 90000=
07020,1996-01-21 06:00:00,6,1008.8,0.9,87,4,14000,46.3,,,90,5.1,7.7,,,,,,,,,wg-a,,,,AAXX 21064 07020 12464 30925 10060 20040 30071 40088 53009 60006 83600 90600 333 10077 20051=
07020,1996-01-21 12:00:00,7,1009.5,-0.6,81,4,6000,57.412,,,90,,,,,,,,,,,wg-a,,,,AAXX 21124 07020 12456 60931 10070 20040 30078 40095 58006 60006 86600 91200=
07020,1996-01-21 18:00:00,6,1009.4,0.5,87,4,6000,68.524,,87.044,80,5.8,7,,,,,,,,,wg-a,,,,AAXX 21184 07020 12456 80837 10060 20040 30077 40094 51005 60006 886// 91800 333 10070 20058 91047=
07020,1996-01-22 00:00:00,7,1007.8,-1.2,87,5,0,57.412,,,80,,,,,,,,,,,wg-a,,,,AAXX 22004 07020 12/// /0831 10070 20050 30061 40078 58012 60006 90000=
07020,1996-01-22 06:00:00,7,1005.3,-0.9,81,4,1500,46.3,,75.932,90,6.3,7.2,,,,,,,,10,wg-a,,,,AAXX 22064 07020 12415 80925 10070 20040 30036 40053 57009 60006 710// 886// 90600 333 10072 20063 91041=
07020,1996-01-22 12:00:00,8,1002.5,-2.5,76,4,4000,46.3,,,90,,,,,,,,,,,wg-a,,,,AAXX 22124 07020 12540 70925 10080 20040 30008 40025 58025 60006 876// 91200=
07020,1996-01-22 18:00:00,8,1001.2,0.6,87,6,8000,31.484,,,110,6.4,8.6,,3,,,,,,60,wg-a,,,,AAXX 22184 07020 12558 71117 10080 20060 39995 40012 53006 60037 76062 8572/ 91800 333 10086 20064=
07020,1996-01-23 00:00:00,7,1003,-0.2,93,6,0,22.224,,,100,,,,,,,,,,,wg-a,,,,AAXX 23004 07020 12/// /1012 10070 20060 30013 40030 58002 60006 90000=
07020,1996-01-23 06:00:00,8,1000.5,-1.7,87,6,4000,42.596,,,70,6.7,7.8,,,,,,,,,wg-a,,,,AAXX 23064 07020 02440 80723 10080 20060 39988 40005 58017 61000 8472/ 90600 333 10078 20067 ////=
07020,1996-01-23 12:00:00,8,998.6,-1.7,87,6,4000,42.596,,,90,,,,0,,,,,,21,wg-a,,,,AAXX 23124 07020 02440 80923 10080 20060 39969 49986 58017 60016 72162 8672/ 91200 333 60007=
07020,1996-01-23 18:00:00,7,996.9,0.3,93,6,2000,42.596,,,100,6.7,7.9,,5,,,,,,61,wg-a,,,,AAXX 23184 07020 12420 81023 10070 20060 39952 49969 51003 60057 76166 8672/ 91800 333 10079 20067=
07020,1996-01-24 00:00:00,9,997.3,-0.3,87,7,0,42.596,,,70,,,,,,,,,,,wg-a,,,,AAXX 24004 07020 12/// /0723 10090 20070 39956 49973 58003 60016 90000=
07020,1996-01-24 06:00:00,8,996.7,1.1,87,6,12000,22.224,,,140,7.3,8.7,,0,,,,,,,wg-a,,,,AAXX 24064 07020 12562 81412 10080 20060 39950 49967 53011 60007 885// 90600 333 10087 20073=
07020,1996-01-24 12:00:00,10,1001.3,1.7,87,8,18000,25.928,,,110,,,,,,,,,,,wg-a,,,,AAXX 24124 07020 12568 81114 10100 20080 39996 40013 51017 60006 885// 91200=
07020,1996-01-24 18:00:00,9,1003.6,1.6,87,7,14000,29.632,,,100,7.4,11.6,,,,,,,,,wg-a,,,,AAXX 24184 07020 12564 41016 10090 20070 30019 40036 53016 60006 84400 91800 333 10116 20074=
07020,1996-01-25 00:00:00,7,1004.6,0,87,5,0,50.004,,,80,,,,,,,,,,,wg-a,,,,AAXX 25004 07020 12/// /0827 10070 20050 30029 40046 50000 60006 90000=
07020,1996-01-25 06:00:00,6,1005,0.7,81,3,4000,50.004,,,70,5.6,8.7,,,,,,,,,wg-a,,,,AAXX 25064 07020 12440 80727 10060 20030 30033 40050 53007 60006 886// 90600 333 10087 20056=
07020,1996-01-25 12:00:00,4,1005.6,0.4,87,2,3000,64.82,,,70,,,,0,,,,,,10,wg-a,,,,AAXX 25124 07020 02430 80735 10040 20020 30039 40056 50004 60006 71022 886// 91200 333 60007=
07020,1996-01-25 18:00:00,3,1007.3,1,75,-1,10000,57.412,,87.044,80,2.8,5.7,,,,,,,,,wg-a,,,,AAXX 25184 07020 32460 80831 10030 21010 30056 40073 53010 886// 91800 333 10057 20028 91047=
07020,1996-01-26 00:00:00,3,1009.8,0.7,75,-1,0,53.708,,,60,,,,,,,,,,,wg-a,,,,AAXX 26004 07020 12/// /0629 10030 21010 30081 40098 51007 60006 90000=
07020,1996-01-26 06:00:00,2,1010.9,0.6,80,-1,20000,50.004,,,60,1.9,3.2,,,,,,,,,wg-a,,,,AAXX 26064 07020 12570 80627 10020 21010 30092 40109 53006 60006 8462/ 90600 333 10032 20019=
07020,1996-01-26 12:00:00,2,1012.5,0,87,0,2000,53.708,,75.932,50,,,,,,,,,,87,wg-a,,,,AAXX 26124 07020 02520 80529 10020 20000 30107 40125 50000 61000 78782 8772/ 91200 333 6100 91041=
07020,1996-01-26 18:00:00,1,1014.1,1.1,69,-4,6000,50.004,,75.932,50,0.6,2.1,,,,,,,,23,wg-a,,,,AAXX 26184 07020 02456 80527 10010 21040 30123 40141 53011 61000 72372 887// 91800 333 10021 20006 //// 91041=
07020,1996-01-27 00:00:00,1,1014.1,-0.1,69,-4,0,38.892,,,40,,,,,,,,,,,wg-a,,,,AAXX 27004 07020 12/// /0421 10010 21040 30123 40141 58001 60006 90000=
07020,1996-01-27 06:00:00,0,1012.8,-0.3,74,-4,12000,25.928,,53.708,40,0,1.1,,,,,,,,70,wg-a,,,,AAXX 27064 07020 02462 80414 10000 21040 30110 40128 58003 61000 770// 885// 90600 333 10011 20000 //// 91029=
07020,1996-01-27 12:00:00,0,1013.5,0.2,80,-3,4000,18.52,,,150,,,,,,,,,,22,wg-a,,,,AAXX 27124 07020 02440 81510 10000 21030 30117 40135 50002 61000 72272 8472/ 91200 333 6100=
07020,1996-01-27 18:00:00,2,1014,1.1,75,-2,4000,35.188,,,110,-1.7,2.2,,,,,,,,,wg-a,,,,AAXX 27184 07020 32440 71119 10020 21020 30122 40140 53011 8472/ 91800 333 10022 21017=
07020,1996-01-28 00:00:00,4,1013.8,-0.4,93,3,0,46.3,,,100,,,,,,,,,,,wg-a,,,,AAXX 28004 07020 12/// /1025 10040 20030 30121 40138 58004 60006 90000=
07020,1996-01-28 06:00:00,6,1013.6,-0.9,87,4,4000,46.3,,,90,1.7,5.8,,,,,,,,,wg-a,,,,AAXX 28064 07020 12440 80925 10060 20040 30119 40136 58009 60006 8472/ 90600 333 10058 20017=
07020,1996-01-28 12:00:00,6,1013.3,-0.1,87,4,3000,53.708,,,80,,,,,,,,,,,wg-a,,,,AAXX 28124 07020 12430 80829 10060 20040 30116 40133 58001 60006 8772/ 91200=
07020,1996-01-28 18:00:00,7,1012.2,-0.2,81,4,6000,61.116,,,80,5.5,6.9,,,,,,,,,wg-a,,,,AAXX 28184 07020 12456 80833 10070 20040 30105 40122 55002 60006 887// 91800 333 10069 20055=
07020,1996-01-29 00:00:00,5,1012.1,-0.2,81,2,0,61.116,,,70,,,,,,,,,,,wg-a,,,,AAXX 29004 07020 12/// /0733 10050 20020 30104 40121 58002 60006 90000=
07020,1996-01-29 06:00:00,4,1012.3,-0.3,87,2,4000,53.708,,,80,3.5,6.6,,,,,,,,,wg-a,,,,AAXX 29064 07020 12440 80829 10040 20020 30106 40123 55003 60006 887// 90600 333 10066 20035=
07020,1996-01-29 12:00:00,4,1014.1,0.1,87,2,500,50.004,,75.932,70,,,,,,,,,,,wg-a,,,,AAXX 29124 07020 12400 80727 10040 20020 30124 40141 50001 60006 886// 91200 333 91041=
07020,1996-01-29 18:00:00,5,1014.5,0.9,81,2,10000,46.3,,,70,3.6,5.1,,,,,,,,,wg-a,,,,AAXX 29184 07020 12460 80725 10050 20020 30128 40145 51009 60006 886// 91800 333 10051 20036=
07020,1996-01-30 06:00:00,5,1017.9,0.6,87,3,2500,31.484,,,100,4.5,5.4,,,,,,,,10,wg-a,,,,AAXX 30064 07020 12425 81017 10050 20030 30162 40179 52006 60006 710// 876// 90600 333 10054 20045=
07020,1996-01-30 12:00:00,7,1020.4,0.7,76,3,3000,38.892,,,90,,,,,,,,,,10,wg-a,,,,AAXX 30124 07020 12430 50921 10070 20030 30187 40204 51007 60006 71022 84650 91200=
07020,1996-01-30 18:00:00,6,1021.5,1.2,81,3,4000,42.596,,90.748,90,4.9,7.4,,,,,,,,,wg-a,,,,AAXX 30184 07020 12440 30923 10060 20030 30198 40215 53012 60006 82650 91800 333 10074 20049 91049=
07020,1996-01-31 00:00:00,6,1021.7,-0.2,81,3,0,50.004,,,80,,,,,,,,,,,wg-a,,,,AAXX 31004 07020 12/// /0827 10060 20030 30200 40217 58002 60006 90000=
07020,1996-01-31 06:00:00,5,1021.3,-0.4,75,1,6000,38.892,,,70,5.1,6.5,,,,,,,,,wg-a,,,,AAXX 31064 07020 12456 80721 10050 20010 30196 40213 58004 60006 886// 90600 333 10065 20051=
07020,1996-01-31 12:00:00,5,1020.3,-1,70,0,8000,46.3,,64.82,80,,,,,,,,,,,wg-a,,,,AAXX 31124 07020 12658 70825 10050 20000 30186 40203 58010 60006 874// 91200 333 91035=
07020,1996-01-31 18:00:00,6,1017,-0.7,70,1,15000,50.004,,,50,4.4,6.2,,,,,,,,,wg-a,,,,AAXX 31184 07020 12865 20527 10060 20010 30153 40170 55007 60006 82020 91800 333 10062 20044=
07020,1996-02-01 00:00:00,5,1015.9,-1.5,60,-2,0,31.484,,,80,,,,,,,,,,,wg-a,,,,AAXX 01004 07020 12/// /0817 10050 21020 30142 40159 56015 60006 90000=
07020,1996-02-01 06:00:00,1,1013.9,-0.9,75,-3,15000,22.224,,,100,1,6.1,,,,,,,,,wg-a,,,,AAXX 01064 07020 12/65 01012 10010 21030 30121 40139 56009 60006 80000 90600 333 10061 20010=
07020,1996-02-01 12:00:00,7,1013.5,-0.3,70,2,12000,22.224,,,80,,,,,,,,,,,wg-a,,,,AAXX 01124 07020 12862 30812 10070 20020 30118 40135 58003 60006 8308/ 91200=
07020,1996-02-01 18:00:00,6,1012.6,0.1,81,3,12000,29.632,,,90,0.8,8.2,,,,,,,,,wg-a,,,,AAXX 01184 07020 12/62 00916 10060 20030 30109 40126 53001 60006 80000 91800 333 10082 20008=
07020,1996-02-02 00:00:00,2,1012.8,-0.1,80,-1,0,14.816,,,100,,,,,,,,,,,wg-a,,,,AAXX 02004 07020 12/// /1008 10020 21010 30110 40128 58001 60006 90000=
07020,1996-02-02 06:00:00,6,1011.7,-0.1,87,4,15000,31.484,,,20,1,6.7,,,,,,,,,wg-a,,,,AAXX 02064 07020 12865 60217 10060 20040 30100 40117 56001 60006 86020 90600 333 10067 20010=
07020,1996-02-02 12:00:00,7,1012.9,0.1,76,3,8000,14.816,,,40,,,,,,,,,,,wg-a,,,,AAXX 02124 07020 12458 80408 10070 20030 30112 40129 50001 60006 886// 91200=
07020,1996-02-02 18:00:00,5,1014,1,75,1,10000,25.928,,,10,4.8,7.3,,,,,,,,,wg-a,,,,AAXX 02184 07020 12460 40114 10050 20010 30123 40140 53010 60006 8368/ 91800 333 10073 20048=
07020,1996-02-03 00:00:00,4,1015.8,0.5,70,-1,0,25.928,,,360,,,,,,,,,,,wg-a,,,,AAXX 03004 07020 12/// /3614 10040 21010 30141 40158 51005 60006 90000=
07020,1996-02-03 06:00:00,3,1016.6,0.5,70,-2,6000,25.928,,,20,2.9,5,,,,,,,,,wg-a,,,,AAXX 03064 07020 12556 80214 10030 21020 30148 40166 53005 60006 88600 90600 333 10050 20029=
07020,1996-02-03 12:00:00,5,1018.1,0.4,65,-1,18000,31.484,,,40,,,,,,,,,,2,wg-a,,,,AAXX 03124 07020 02568 80417 10050 21010 30164 40181 50004 61000 70262 885// 91200 333 6100=
07020,1996-02-03 18:00:00,5,1018.5,0.9,60,-2,22000,46.3,,,30,3.3,5.4,,,,,,,,,wg-a,,,,AAXX 03184 07020 32572 70325 10050 21020 30168 40185 53009 85101 91800 333 10054 20033=
07020,1996-02-04 00:00:00,5,1019.7,0.8,60,-2,0,35.188,,,30,,,,,,,,,,,wg-a,,,,AAXX 04004 07020 12/// /0319 10050 21020 30180 40197 51008 60006 90000=
07020,1996-02-04 06:00:00,4,1019.9,0.4,56,-4,24000,38.892,,,30,4,5.8,,,,,,,,,wg-a,,,,AAXX 04064 07020 12574 80321 10040 21040 30181 40199 53004 60006 885// 90600 333 10058 20040=
07020,1996-02-04 12:00:00,4,1020.5,0.2,65,-2,24000,29.632,,,30,,,,,,,,,,2,wg-a,,,,AAXX 04124 07020 02574 70316 10040 21020 30187 40205 50002 61000 70282 858// 91200 333 6100=
07020,1996-02-04 18:00:00,2,1020,0.5,80,-1,14000,7.408,,,140,1.8,4.8,,,,,,,,2,wg-a,,,,AAXX 04184 07020 32564 81404 10020 21010 30182 40200 52005 70282 858// 91800 333 10048 20018=
07020,1996-02-05 00:00:00,2,1018.7,-0.4,69,-3,0,22.224,,,160,,,,,,,,,,,wg-a,,,,AAXX 05004 07020 12/// /1612 10020 21030 30169 40187 56004 60006 90000=
07020,1996-02-05 06:00:00,-1,1014,-2.5,69,-6,20000,29.632,,,150,-1.1,1.9,,,,,,,,,wg-a,,,,AAXX 05064 07020 12/70 01516 11010 21060 30122 40140 58025 60006 80000 90600 333 10019 21011=
07020,1996-02-05 12:00:00,2,1008.3,-3.8,75,-2,10000,35.188,,61.116,150,,,,,,,,,,,wg-a,,,,AAXX 05124 07020 12560 81519 10020 21020 30066 40083 56038 60006 8462/ 91200 333 91033=
07020,1996-02-05 18:00:00,1,999.1,-4.2,69,-4,12000,29.632,,,130,-1.6,2.3,,,,,,,,,wg-a,,,,AAXX 05184 07020 12562 81316 10010 21040 39974 49991 56042 60006 8267/ 91800 333 10023 21016=
07020,1996-02-06 00:00:00,-1,990.1,-3.7,100,-1,0,38.892,,,140,,,,,,,,,,,wg-a,,,,AAXX 06004 07020 12/// /1421 11010 21010 39884 49901 58037 60006 90000=
07020,1996-02-06 06:00:00,0,987.9,0.3,93,-1,8000,11.112,,72.228,100,-1.3,1.1,,,,,,,,70,wg-a,,9,,AAXX 06064 07020 02558 81006 10000 21010 39862 49879 53003 61000 770// 8462/ 90600 333 10011 21013 4/009 //// 91039=
07020,1996-02-06 12:00:00,1,992.7,2.9,100,1,6000,11.112,,,130,,,,1,,,,,,2,wg-a,,,,AAXX 06124 07020 02556 81306 10010 20010 39910 49927 53029 60036 70276 8472/ 91200 333 60017=
07020,1996-02-06 18:00:00,5,1000,4.2,81,2,20000,42.596,,,330,-0.4,5.4,,,,,,,,,wg-a,,,,AAXX 06184 07020 32670 83323 10050 20020 39983 40000 53042 8752/ 91800 333 10054 21004=
07020,1996-02-07 00:00:00,6,1001.7,0.3,70,1,0,35.188,,,300,,,,,,,,,,,wg-a,,,,AAXX 07004 07020 12/// /3019 10060 20010 30000 40017 53003 60016 90000=
07020,1996-02-07 06:00:00,4,993.9,-5.3,70,-1,16000,22.224,,,120,2.8,6.7,,,,,,,,,wg-a,,,,AAXX 07064 07020 32866 81212 10040 21010 39922 49939 58053 8802/ 90600 333 10067 20028=
07020,1996-02-07 12:00:00,2,983.6,-5.4,93,1,4000,38.892,,53.708,90,,,,7,,,,,,69,wg-a,,,,AAXX 07124 07020 02440 80921 10020 20010 39819 49836 58054 60086 76976 8672/ 91200 333 60077 91029=
07020,1996-02-07 18:00:00,4,993,0.4,93,3,3000,61.116,,90.748,10,1,4.8,,1,,,,,,61,wg-a,,,,AAXX 07184 07020 12430 80133 10040 20030 39913 49930 53104 60017 76176 8627/ 91800 333 10048 20010 91049=
07020,1996-02-08 00:00:00,4,1005,4.4,75,0,0,35.188,,,320,,,,,,,,,,,wg-a,,,,AAXX 08004 07020 02/// /3219 10040 20000 30033 40050 51044 61000 90000 333 ////=
07020,1996-02-08 06:00:00,6,1011.6,3.2,75,2,18000,50.004,,,310,3.6,6.3,,,,,,,,,wg-a,,,,AAXX 08064 07020 02668 73127 10060 20020 30099 40116 52032 61000 874// 90600 333 10063 20036 ////=
07020,1996-02-08 12:00:00,8,1016.8,1.8,61,1,500,38.892,,,280,,,,,,,,,,,wg-a,,,,AAXX 08124 07020 12600 52821 10080 20010 30151 40168 51018 60006 85200 91200=
07020,1996-02-08 18:00:00,7,1018.2,0.9,81,4,24000,22.224,,,210,6.2,8.3,,,,,,,,,wg-a,,,,AAXX 08184 07020 02674 62112 10070 20040 30165 40182 53009 61000 86300 91800 333 10083 20062 ////=
07020,1996-02-09 00:00:00,7,1016.2,-1,93,6,0,25.928,,,170,,,,,,,,,,,wg-a,,,,AAXX 09004 07020 12/// /1714 10070 20060 30145 40162 56010 60006 90000=
07020,1996-02-09 06:00:00,7,1009.8,-3.7,81,4,14000,42.596,,61.116,150,5.2,7.4,,,,,,,,,wg-a,,,,AAXX 09064 07020 12864 81523 10070 20040 30081 40098 56037 60006 8802/ 90600 333 10074 20052 91033=
07020,1996-02-09 12:00:00,7,1004.3,-2.8,87,5,6000,57.412,,90.748,160,,,,2,,,,,,60,wg-a,,,,AAXX 09124 07020 02456 81631 10070 20050 30026 40043 58028 60046 76066 8272/ 91200 333 60027 91049=
07020,1996-02-09 18:00:00,7,1003.4,-0.8,93,6,16000,35.188,,87.044,150,5.8,7,,2,,,,,,60,wg-a,,,,AAXX 09184 07020 12466 81519 10070 20060 30017 40034 55008 60027 76066 8472/ 91800 333 10070 20058 91047=
07020,1996-02-10 00:00:00,8,1003.8,0.2,81,5,0,42.596,,,220,,,,,,,,,,,wg-a,,,,AAXX 10004 07020 02/// /2223 10080 20050 30021 40038 53002 61000 90000 333 ////=
07020,1996-02-10 06:00:00,7,1003.8,-0,87,5,18000,46.3,,,200,6.7,7.9,,0,,,,,,61,wg-a,,,,AAXX 10064 07020 12568 52025 10070 20050 30021 40038 55000 60007 761// 8372/ 90600 333 10079 20067=
07020,1996-02-10 12:00:00,8,1005.2,0.6,81,5,12000,50.004,,79.636,220,,,,1,,,,,,81,wg-a,,,,AAXX 10124 07020 02462 72227 10080 20050 30035 40052 51006 60026 78186 8592/ 91200 333 60017 91043=
07020,1996-02-10 18:00:00,8,1007.3,1.7,76,4,20000,25.928,,75.932,230,6.3,9.6,,0,,,,,,15,wg-a,,,,AAXX 10184 07020 12470 62314 10080 20040 30056 40073 53017 60007 71586 8492/ 91800 333 10096 20063 91041=
07020,1996-02-11 00:00:00,9,1008.4,0.5,71,4,0,31.484,,,240,,,,,,,,,,,wg-a,,,,AAXX 11004 07020 12/// /2417 10090 20040 30067 40084 52005 60016 90000=
07020,1996-02-11 06:00:00,8,1009.3,0.7,76,4,24000,25.928,,61.116,260,7.2,8.8,,0,,,,,,,wg-a,,,,AAXX 11064 07020 12674 12614 10080 20040 30076 40093 53007 60007 81200 90600 333 10088 20072 91033=
07020,1996-02-11 12:00:00,9,1011.4,0.9,71,4,20000,31.484,,64.82,260,,,,0,,,,,,2,wg-a,,,,AAXX 11124 07020 02570 52617 10090 20040 30097 40114 50009 60006 70281 82320 91200 333 60007 91035=
07020,1996-02-11 18:00:00,9,1011.2,0.1,87,7,20000,29.632,,,240,7.2,10.1,,,,,,,,,wg-a,,,,AAXX 11184 07020 32570 82416 10090 20070 30095 40112 51001 8527/ 91800 333 10101 20072=
07020,1996-02-12 00:00:00,8,1005.1,-4.5,93,7,0,46.3,,,190,,,,,,,,,,,wg-a,,,,AAXX 12004 07020 12/// /1925 10080 20070 30034 40051 58045 60026 90000=
07020,1996-02-12 06:00:00,7,993.9,-3.8,87,5,4000,75.932,,100.008,280,6.5,9.7,,4,,,,,,63,wg-a,,,,AAXX 12064 07020 12540 82841 10070 20050 39922 49939 55038 60047 763// 8802/ 90600 333 10097 20065 91054=
07020,1996-02-12 12:00:00,9,987.5,-5.7,76,5,8000,64.82,,107.416,250,,,,1,,,,,,64,wg-a,,,,AAXX 12124 07020 02658 72535 10090 20050 39858 49875 58057 60016 76486 873// 91200 333 60017 91058=
07020,1996-02-12 18:00:00,9,993.9,5.4,76,5,12000,75.932,,122.232,290,6.4,9.5,,,,,,,,2,wg-a,,,,AAXX 12184 07020 02662 72941 10090 20050 39922 49939 53054 61000 70286 873// 91800 333 10095 20064 //// 91066=
07020,1996-02-13 00:00:00,8,1003.8,3.8,71,3,0,53.708,,,310,,,,,,,,,,,wg-a,,,,AAXX 13004 07020 12/// /3129 10080 20030 30021 40038 51038 60006 90000=
07020,1996-02-13 06:00:00,7,1008.6,2.3,76,3,22000,42.596,,,340,7,8.9,,,,,,,,,wg-a,,,,AAXX 13064 07020 12572 63423 10070 20030 30069 40086 53023 60006 86500 90600 333 10089 20070=
07020,1996-02-13 12:00:00,7,1014.1,2.7,76,3,20000,50.004,,,350,,,,,,,,,,,wg-a,,,,AAXX 13124 07020 12570 83527 10070 20030 30124 40141 51027 60006 888// 91200=
07020,1996-02-13 18:00:00,6,1019.8,3.4,75,2,20000,57.412,,,10,6.4,7.4,,,,,,,,,wg-a,,,,AAXX 13184 07020 12570 80131 10060 20020 30181 40198 53034 60006 888// 91800 333 10074 20064=
07020,1996-02-14 00:00:00,6,1025.6,2.7,70,1,0,53.708,,,30,,,,,,,,,,,wg-a,,,,AAXX 14004 07020 12/// /0329 10060 20010 30238 40256 51027 60006 90000=
07020,1996-02-14 06:00:00,5,1029.4,2.1,70,0,18000,57.412,,,30,5.3,6.5,,,,,,,,,wg-a,,,,AAXX 14064 07020 12668 60331 10050 20000 30276 40294 53021 60006 86500 90600 333 10065 20053=
07020,1996-02-14 12:00:00,6,1033.7,2.2,65,0,500,46.3,,,30,,,,,,,,,,,wg-a,,,,AAXX 14124 07020 12600 70325 10060 20000 30319 40337 53022 60006 875// 91200=
07020,1996-02-14 18:00:00,6,1036.1,1.8,56,-2,40000,35.188,,,10,5.1,6.7,,,,,,,,,wg-a,,,,AAXX 14184 07020 12682 80119 10060 21020 30343 40361 53018 60006 885// 91800 333 10067 20051=
07020,1996-02-15 00:00:00,6,1037.9,1.3,61,-1,0,35.188,,,30,,,,,,,,,,,wg-a,,,,AAXX 15004 07020 12/// /0319 10060 21010 30361 40379 51013 60006 90000=
07020,1996-02-15 06:00:00,5,1038.3,-0.1,70,0,24000,25.928,,,30,4.7,6,,,,,,,,,wg-a,,,,AAXX 15064 07020 12774 70314 10050 20000 30365 40383 56001 60006 875// 90600 333 10060 20047=
07020,1996-02-15 12:00:00,6,1038.5,-0.6,56,-2,25000,14.816,,,320,,,,,,,,,,,wg-a,,,,AAXX 15124 07020 12675 43208 10060 21020 30367 40385 58006 60006 81141 91200=
07020,1996-02-15 18:00:00,7,1036,-1.1,76,3,50000,22.224,,,270,4.8,7.2,,,,,,,,,wg-a,,,,AAXX 15184 07020 12/84 72712 10070 20030 30342 40360 56011 60006 8705/ 91800 333 10072 20048=
07020,1996-02-16 00:00:00,8,1033.8,-1.2,81,5,0,29.632,,,270,,,,,,,,,,,wg-a,,,,AAXX 16004 07020 12/// /2716 10080 20050 30321 40338 57012 60006 90000=
07020,1996-02-16 06:00:00,9,1030.8,-1.2,81,6,24000,35.188,,,280,6.7,8.7,,,,,,,,,wg-a,,,,AAXX 16064 07020 12874 82819 10090 20060 30291 40308 56012 60006 8802/ 90600 333 10087 20067=
07020,1996-02-16 12:00:00,10,1029.4,-1.4,82,7,20000,29.632,,,260,,,,,,,,,,,wg-a,,,,AAXX 16124 07020 12670 52616 10100 20070 30277 40294 58014 60006 83545 91200=
07020,1996-02-16 18:00:00,10,1027.7,-0.8,87,8,10000,25.928,,,250,8.5,10,,,,,,,,,wg-a,,,,AAXX 16184 07020 12860 32514 10100 20080 30260 40277 56008 60006 83040 91800 333 10100 20085=
07020,1996-02-17 00:00:00,8,1027.8,0.2,76,4,0,50.004,,,290,,,,,,,,,,,wg-a,,,,AAXX 17004 07020 12/// /2927 10080 20040 30261 40278 51002 60006 90000=
07020,1996-02-17 06:00:00,9,1026.6,-0.9,76,5,15000,42.596,,,270,8.3,9.5,,,,,,,,,wg-a,,,,AAXX 17064 07020 12765 42723 10090 20050 30249 40266 56009 60006 84400 90600 333 10095 20083=
07020,1996-02-17 12:00:00,9,1027.7,0.2,76,5,20000,31.484,,64.82,270,,,,,,,,,,,wg-a,,,,AAXX 17124 07020 12770 82717 10090 20050 30260 40277 50002 60006 885// 91200 333 91035=
07020,1996-02-17 18:00:00,9,1024.9,-1.1,76,5,18000,25.928,,53.708,260,8.9,9.4,,,,,,,,,wg-a,,,,AAXX 17184 07020 12668 82614 10090 20050 30232 40249 58011 60006 885// 91800 333 10094 20089 91029=
07020,1996-02-18 00:00:00,9,1016.7,-5.1,87,7,0,50.004,,,230,,,,1,,,,,,,wg-a,,,,AAXX 18004 07020 02/// /2327 10090 20070 30150 40167 58051 60016 90000 333 60017=
07020,1996-02-18 06:00:00,10,1005.8,-5.9,93,9,12000,57.412,,94.452,240,8.6,9.7,,1,,,,,,63,wg-a,,,,AAXX 18064 07020 12562 82431 10100 20090 30041 40058 56059 60017 76362 8802/ 90600 333 10097 20086 91051=
07020,1996-02-18 12:00:00,9,1003,-1.8,66,3,18000,53.708,,107.416,260,,,,0,,,,,,25,wg-a,,,,AAXX 18124 07020 02568 42629 10090 20030 30013 40030 58018 60006 72511 8226/ 91200 333 60007 91058=
07020,1996-02-18 18:00:00,8,997.1,-2.1,71,3,16000,53.708,,100.008,260,6.4,9.8,,,,,,,,,wg-a,,,,AAXX 18184 07020 32566 82629 10080 20030 39954 49971 56021 858// 91800 333 10098 20064 91054=
07020,1996-02-19 00:00:00,7,995.5,-0.9,81,4,0,31.484,,,300,,,,,,,,,,,wg-a,,,,AAXX 19004 07020 12/// /3017 10070 20040 39938 49955 55009 60006 90000=
07020,1996-02-19 06:00:00,4,1002.4,5,75,0,18000,68.524,,90.748,360,4.2,7.8,,,,,,,,60,wg-a,,,,AAXX 19064 07020 02568 83637 10040 20000 30007 40024 52050 61000 760// 888// 90600 333 10078 20042 //// 91049=
07020,1996-02-19 12:00:00,4,1009.3,2.8,56,-4,22000,61.116,,96.304,10,,,,,,,,,,2,wg-a,,,,AAXX 19124 07020 02672 60133 10040 21040 30076 40093 51028 61000 70262 86500 91200 333 //// 91052=
07020,1996-02-19 18:00:00,4,1011.7,1.4,65,-2,20000,57.412,,87.044,340,2.7,5.2,,0,,,,,,2,wg-a,,,,AAXX 19184 07020 12570 63431 10040 21020 30100 40117 53014 60007 70282 86900 91800 333 10052 20027 91047=
07020,1996-02-20 00:00:00,2,1013.3,0.1,75,-2,0,72.228,,,350,,,,,,,,,,,wg-a,,,,AAXX 20004 07020 12/// /3539 10020 21020 30115 40133 50001 60006 90000=
07020,1996-02-20 06:00:00,2,1017,2.9,69,-3,6000,90.748,,114.824,20,1,4.1,,,,,,,,,wg-a,,,,AAXX 20064 07020 12556 80249 10020 21030 30152 40170 53029 60006 88020 90600 333 10041 20010 91062=
07020,1996-02-20 12:00:00,2,1021.8,1.5,64,-4,18000,72.228,,111.12,30,,,,,,,,,,2,wg-a,,,,AAXX 20124 07020 02668 80339 10020 21040 30200 40218 50015 61000 70287 885// 91200 333 6100 91060=
07020,1996-02-20 18:00:00,2,1024.4,2.1,64,-4,14000,68.524,,100.008,30,1.4,2.6,,,,,,,,2,wg-a,,,,AAXX 20184 07020 02564 80337 10020 21040 30226 40244 53021 61000 70276 885// 91800 333 10026 20014 //// 91054=
07020,1996-02-21 00:00:00,2,1026.1,0.3,64,-4,0,68.524,,,30,,,,,,,,,,,wg-a,,,,AAXX 21004 07020 12/// /0337 10020 21040 30243 40261 50003 60006 90000=
07020,1996-02-21 06:00:00,2,1026.2,0.8,64,-4,14000,57.412,,,20,1.3,2.7,,,,,,,,,wg-a,,,,AAXX 21064 07020 12564 80231 10020 21040 30244 40262 51008 60006 885// 90600 333 10027 20013=
07020,1996-02-21 12:00:00,3,1026.3,0,60,-4,25000,50.004,,,20,,,,,,,,,,,wg-a,,,,AAXX 21124 07020 12575 70227 10030 21040 30245 40263 50000 60006 874// 91200=
07020,1996-02-21 18:00:00,3,1026.6,0.5,60,-4,500,35.188,,72.228,20,1.5,3.5,,,,,,,,2,wg-a,,,,AAXX 21184 07020 02500 70219 10030 21040 30248 40266 53005 61000 70287 878// 91800 333 10035 20015 //// 91039=
07020,1996-02-22 00:00:00,3,1026.3,-0.6,60,-4,0,18.52,,,350,,,,,,,,,,,wg-a,,,,AAXX 22004 07020 12/// /3510 10030 21040 30245 40263 57006 60006 90000=
07020,1996-02-22 06:00:00,3,1023.1,-1.5,93,2,14000,22.224,,,230,2.9,3.7,,1,,,,,,61,wg-a,,,,AAXX 22064 07020 12564 82312 10030 20020 30213 40231 56015 60017 761// 8802/ 90600 333 10037 20029=
07020,1996-02-22 12:00:00,6,1019.4,-2,93,5,500,22.224,,,200,,,,2,,,,,,61,wg-a,,,,AAXX 22124 07020 02400 82012 10060 20050 30177 40194 58020 60046 76166 8572/ 91200 333 60027=
07020,1996-02-22 18:00:00,6,1017.9,0.3,87,4,25000,18.52,,,360,3.3,7.4,,0,,,,,,2,wg-a,,,,AAXX 22184 07020 12475 83610 10060 20040 30162 40179 53003 60007 70286 8682/ 91800 333 10074 20033=
07020,1996-02-23 00:00:00,6,1017.6,-0.3,75,2,0,31.484,,,300,,,,,,,,,,,wg-a,,,,AAXX 23004 07020 12/// /3017 10060 20020 30159 40176 58003 60006 90000=
07020,1996-02-23 06:00:00,6,1016.3,-0.1,61,-1,20000,25.928,,,340,5.6,6.8,,,,,,,,,wg-a,,,,AAXX 23064 07020 12570 43414 10060 21010 30146 40163 55001 60006 84400 90600 333 10068 20056=
07020,1996-02-23 12:00:00,8,1015,-1,61,1,50000,29.632,,,190,,,,,,,,,,,wg-a,,,,AAXX 23124 07020 12/84 61916 10080 20010 30133 40150 57010 60006 86050 91200=
07020,1996-02-23 18:00:00,7,1011.2,-1.8,93,6,6000,38.892,,,170,5.6,8.7,,1,,,,,,63,wg-a,,,,AAXX 23184 07020 12456 81721 10070 20060 30095 40112 56018 60017 76322 8762/ 91800 333 10087 20056=
07020,1996-02-24 00:00:00,8,1008.1,-1.7,93,7,0,38.892,,,180,,,,,,,,,,,wg-a,,,,AAXX 24004 07020 12/// /1821 10080 20070 30064 40081 58017 60016 90000=
07020,1996-02-24 06:00:00,8,1002.7,-2.7,93,7,10000,42.596,,,180,6.8,8.1,,,,,,,,60,wg-a,,,,AAXX 24064 07020 02460 81823 10080 20070 30010 40027 56027 61000 760// 8662/ 90600 333 10081 20068 ////=
07020,1996-02-24 12:00:00,9,999.6,-1.6,87,7,16000,42.596,,,190,,,,0,,,,,,60,wg-a,,,,AAXX 24124 07020 02466 81923 10090 20070 39979 49996 58016 60026 76062 8472/ 91200 333 60007=
07020,1996-02-24 18:00:00,8,997.6,-0.7,93,7,12000,29.632,,72.228,210,7.3,9.5,,3,,,,,,62,wg-a,,,,AAXX 24184 07020 12462 82116 10080 20070 39959 49976 55007 60037 76262 8472/ 91800 333 10095 20073 91039=
07020,1996-02-25 00:00:00,8,997.3,-0.4,87,6,0,46.3,,,190,,,,,,,,,,,wg-a,,,,AAXX 25004 07020 12/// /1925 10080 20060 39956 49973 56004 60016 90000=
07020,1996-02-25 06:00:00,8,994.7,-2.1,87,6,12000,35.188,,,160,6.8,8.2,,1,,,,,,63,wg-a,,,,AAXX 25064 07020 12462 81619 10080 20060 39930 49947 56021 60017 76362 8472/ 90600 333 10082 20068=
07020,1996-02-25 12:00:00,8,995.3,1.3,87,6,500,31.484,,68.524,220,,,,,,,,,,2,wg-a,,,,AAXX 25124 07020 12400 82217 10080 20060 39936 49953 53013 60026 70262 8552/ 91200 333 91037=
07020,1996-02-25 18:00:00,8,998.4,1.9,76,4,40000,35.188,,64.82,220,6.9,8.7,,2,,,,,,1,wg-a,,,,AAXX 25184 07020 12582 72219 10080 20040 39967 49984 53019 60027 70182 8332/ 91800 333 10087 20069 91035=
07020,1996-02-26 00:00:00,7,1002.1,1.6,70,2,0,35.188,,,230,,,,,,,,,,,wg-a,,,,AAXX 26004 07020 12/// /2319 10070 20020 30004 40021 52016 60006 90000=
07020,1996-02-26 06:00:00,3,1005.7,1.7,87,1,20000,0,,,0,3.4,7.5,,,,,,,,,wg-a,,,,AAXX 26064 07020 12870 30000 10030 20010 30040 40057 53017 60006 83080 90600 333 10075 20034=
07020,1996-02-26 12:00:00,10,1010.1,1.9,71,5,50000,25.928,,,210,,,,,,,,,,2,wg-a,,,,AAXX 26124 07020 12684 42114 10100 20050 30084 40101 52019 60016 70280 84901 91200=
07020,1996-02-26 18:00:00,6,1012.6,1.6,75,2,40000,14.816,,,220,3.2,9.6,,,,,,,,2,wg-a,,,,AAXX 26184 07020 02682 32208 10060 20020 30109 40126 53016 61000 70281 82301 91800 333 10096 20032 ////=
07020,1996-02-27 00:00:00,5,1015.6,1.1,87,3,0,14.816,,,150,,,,,,,,,,,wg-a,,,,AAXX 27004 07020 12/// /1508 10050 20030 30139 40156 51011 60016 90000=
07020,1996-02-27 06:00:00,4,1017,0.8,93,3,40000,14.816,,,150,3.4,6.2,,,,,,,,,wg-a,,,,AAXX 27064 07020 32/82 01508 10040 20030 30153 40170 53008 80000 90600 333 10062 20034=
07020,1996-02-27 12:00:00,10,1019.2,0.8,71,5,24000,14.816,,,190,,,,,,,,,,,wg-a,,,,AAXX 27124 07020 12674 11908 10100 20050 30175 40192 51008 60006 81100 91200=
07020,1996-02-27 18:00:00,6,1020.1,0.8,87,4,500,22.224,,,90,3.7,10.3,,,,,,,,,wg-a,,,,AAXX 27184 07020 12/00 20912 10060 20040 30184 40201 53008 60006 80005 91800 333 10103 20037=
07020,1996-02-28 00:00:00,5,1022.6,0.9,81,2,0,22.224,,,100,,,,,,,,,,,wg-a,,,,AAXX 28004 07020 12/// /1012 10050 20020 30208 40226 52009 60006 90000=
07020,1996-02-28 06:00:00,4,1024.2,1.3,93,3,8000,14.816,,,100,3.4,6.3,,,,,,,,,wg-a,,,,AAXX 28064 07020 12458 21008 10040 20030 30224 40242 53013 60006 82600 90600 333 10063 20034=
07020,1996-02-28 12:00:00,7,1027.2,1.2,81,4,20000,31.484,,,60,,,,,,,,,,,wg-a,,,,AAXX 28124 07020 12570 70617 10070 20040 30255 40272 51012 60006 875// 91200=
07020,1996-02-28 18:00:00,7,1028.4,1.2,76,3,20000,35.188,,,30,3.2,7.4,,,,,,,,,wg-a,,,,AAXX 28184 07020 12570 10319 10070 20030 30267 40284 53012 60006 81100 91800 333 10074 20032=
07020,1996-02-29 06:00:00,6,1030.8,0.5,75,2,20000,42.596,,,30,5.7,7.7,,,,,,,,,wg-a,,,,AAXX 29064 07020 12670 50323 10060 20020 30290 40308 53005 60006 85200 90600 333 10077 20057=
07020,1996-02-29 12:00:00,7,1033.3,0.8,66,1,500,38.892,,,40,,,,,,,,,,,wg-a,,,,AAXX 29124 07020 12/00 10421 10070 20010 30315 40333 51008 60006 81070 91200=
07020,1996-02-29 18:00:00,8,1034.1,2,71,3,14000,18.52,,,40,5.7,8.1,,,,,,,,,wg-a,,,,AAXX 29184 07020 12/64 10410 10080 20030 30323 40341 51020 60006 80001 91800 333 10081 20057=
07020,1996-03-01 00:00:00,3,1035.3,0.3,87,1,0,11.112,,,80,,,,,,,,,,,wg-a,,,,AAXX 01004 07020 12/// /0806 10030 20010 30335 40353 51003 60006 90000=
07020,1996-03-01 06:00:00,7,1035.2,0.4,87,5,20000,18.52,,,350,2.4,7.6,,,,,,,,,wg-a,,,,AAXX 01064 07020 12870 23510 10070 20050 30334 40352 53004 60006 82060 90600 333 10076 20024=
07020,1996-03-01 12:00:00,8,1035,-0.3,81,5,0,18.52,,,10,,,,,,,,,,,wg-a,,,,AAXX 01124 07020 12/// /0110 10080 20050 30332 40350 58003 60006 91200=
07020,1996-03-01 18:00:00,7,1032.1,-1,81,4,18000,29.632,,,20,6.7,8.9,,,,,,,,,wg-a,,,,AAXX 01184 07020 12568 80216 10070 20040 30303 40321 56010 60006 885// 91800 333 10089 20067=
07020,1996-03-02 00:00:00,8,1031.3,-0.3,81,5,0,35.188,,,10,,,,,,,,,,,wg-a,,,,AAXX 02004 07020 12/// /0119 10080 20050 30296 40313 58003 60006 90000=
07020,1996-03-02 06:00:00,7,1029.6,-0.6,81,4,10000,42.596,,,10,6.9,7.5,,,,,,,,,wg-a,,,,AAXX 02064 07020 12560 80123 10070 20040 30279 40296 56006 60006 885// 90600 333 10075 20069=
07020,1996-03-02 12:00:00,7,1030,-0.3,76,3,40000,29.632,,,30,,,,,,,,,,2,wg-a,,,,AAXX 02124 07020 02482 70316 10070 20030 30283 40300 58003 61000 70262 8587/ 91200 333 6100=
07020,1996-03-02 18:00:00,6,1027.7,-1.1,81,3,50000,7.408,,,340,6.1,8.1,,,,,,,,,wg-a,,,,AAXX 02184 07020 32884 83404 10060 20030 30259 40277 56011 8805/ 91800 333 10081 20061=
07020,1996-03-03 00:00:00,8,1024,-2,87,6,0,31.484,,,330,,,,,,,,,,,wg-a,,,,AAXX 03004 07020 12/// /3317 10080 20060 30223 40240 56020 60006 90000=
07020,1996-03-03 06:00:00,7,1022.1,-0.2,87,5,500,25.928,,,10,6.2,8.1,,,,,,,,,wg-a,,,,AAXX 03064 07020 32500 80114 10070 20050 30204 40221 55002 885// 90600 333 10081 20062=
07020,1996-03-03 12:00:00,9,1022.6,0.2,76,5,12000,38.892,,,20,,,,,,,,,,2,wg-a,,,,AAXX 03124 07020 02462 70221 10090 20050 30209 40226 53002 61000 70282 8472/ 91200 333 6100=
07020,1996-03-03 18:00:00,8,1022.8,0.3,87,6,12000,29.632,,,10,7,8.7,,,,,,,,21,wg-a,,,,AAXX 03184 07020 02562 80116 10080 20060 30211 40228 53003 61000 72162 8657/ 91800 333 10087 20070 ////=
07020,1996-03-04 00:00:00,6,1023.9,0.6,81,3,0,31.484,,,50,,,,,,,,,,,wg-a,,,,AAXX 04004 07020 12/// /0517 10060 20030 30222 40239 51006 60006 90000=
07020,1996-03-04 06:00:00,6,1024.2,0.2,87,4,12000,14.816,,,20,5.6,8,,,,,,,,60,wg-a,,,,AAXX 04064 07020 02462 80208 10060 20040 30225 40242 52002 61000 760// 885// 90600 333 10080 20056 ////=
07020,1996-03-04 12:00:00,8,1024.7,0.2,76,4,18000,31.484,,,20,,,,,,,,,,0,wg-a,,,,AAXX 04124 07020 02568 80217 10080 20040 30230 40247 52002 61000 70062 885// 91200 333 6100=
07020,1996-03-04 18:00:00,7,1025.2,0.2,76,3,15000,31.484,,,360,5.7,8.2,,,,,,,,,wg-a,,,,AAXX 04184 07020 32565 83617 10070 20030 30235 40252 53002 885// 91800 333 10082 20057=
07020,1996-03-05 00:00:00,8,1026.3,0.1,71,3,0,18.52,,,10,,,,,,,,,,,wg-a,,,,AAXX 05004 07020 12/// /0110 10080 20030 30246 40263 50001 60006 90000=
07020,1996-03-05 06:00:00,7,1027.3,1,76,3,18000,25.928,,,10,7.1,7.6,,,,,,,,,wg-a,,,,AAXX 05064 07020 12568 80114 10070 20030 30256 40273 51010 60006 885// 90600 333 10076 20071=
07020,1996-03-05 12:00:00,8,1028.8,0.2,71,3,16000,29.632,,,10,,,,,,,,,,,wg-a,,,,AAXX 05124 07020 12566 80116 10080 20030 30271 40288 51002 60006 885// 91200=
07020,1996-03-05 18:00:00,7,1029,0.3,76,3,10000,25.928,,,30,7.1,8,,,,,,,,,wg-a,,,,AAXX 05184 07020 12460 80314 10070 20030 30273 40290 53003 60006 8162/ 91800 333 10080 20071=
07020,1996-03-06 00:00:00,7,1029.8,-0.2,61,0,0,14.816,,,40,,,,,,,,,,,wg-a,,,,AAXX 06004 07020 12/// /0408 10070 20000 30280 40298 55002 60006 90000=
07020,1996-03-06 06:00:00,6,1029,-0.3,75,2,20000,29.632,,,40,6.2,7.2,,,,,,,,,wg-a,,,,AAXX 06064 07020 12570 80416 10060 20020 30272 40290 58003 60006 888// 90600 333 10072 20062=
07020,1996-03-06 12:00:00,7,1028.5,-0.6,70,2,500,29.632,,,40,,,,,,,,,,,wg-a,,,,AAXX 06124 07020 12500 80416 10070 20020 30268 40285 58006 60006 888// 91200=
07020,1996-03-06 18:00:00,7,1026.1,-0.3,66,1,20000,29.632,,,40,6,6.8,,,,,,,,,wg-a,,,,AAXX 06184 07020 12570 80416 10070 20010 30244 40261 55003 60006 885// 91800 333 10068 20060=
07020,1996-03-07 00:00:00,7,1024.1,-1.6,76,3,0,29.632,,,40,,,,,,,,,,,wg-a,,,,AAXX 07004 07020 12/// /0416 10070 20030 30224 40241 58016 60006 90000=
07020,1996-03-07 06:00:00,5,1021.4,-0.6,87,3,20000,29.632,,,40,5.3,7.1,,,,,,,,,wg-a,,,,AAXX 07064 07020 12570 60416 10050 20030 30197 40214 55006 60006 82550 90600 333 10071 20053=
07020,1996-03-07 12:00:00,6,1017.5,-1.9,70,1,24000,0,,,0,,,,,,,,,,,wg-a,,,,AAXX 07124 07020 12574 8//// 10060 20010 30158 40175 58019 60006 885// 91200=
07020,1996-03-07 18:00:00,4,1015.5,-0.6,87,2,6000,57.412,,90.748,40,2.2,5.7,,2,,,,,,87,wg-a,,,,AAXX 07184 07020 12456 80431 10040 20020 30138 40155 56006 60027 78782 8472/ 91800 333 10057 20022 91049=
07020,1996-03-08 00:00:00,4,1015,-0.1,81,1,0,25.928,,,100,,,,,,,,,,,wg-a,,,,AAXX 08004 07020 12/// /1014 10040 20010 30133 40150 56001 60016 90000=
07020,1996-03-08 06:00:00,4,1013.7,-0.9,81,1,8000,22.224,,,100,2.1,,,,,,,,,,wg-a,,,,AAXX 08064 07020 02458 81012 10040 20010 30120 40137 56009 61000 8462/ 90600 333 20021 ////=
07020,1996-03-08 12:00:00,7,1013.7,,66,1,3000,14.816,,,140,,,,,,,,,,10,wg-a,,,,AAXX 08124 07020 12430 51408 10070 20010 30120 40137 60006 71062 8363/ 91200=
07020,1996-03-08 18:00:00,4,1013.9,0.4,81,1,8000,14.816,,,130,2.9,8,,,,,,,,21,wg-a,,,,AAXX 08184 07020 02458 61308 10040 20010 30122 40139 53004 61000 72162 85770 91800 333 10080 20029 ////=
07020,1996-03-09 00:00:00,4,1015.2,0.5,93,3,0,22.224,,,150,,,,,,,,,,,wg-a,,,,AAXX 09004 07020 12/// /1512 10040 20030 30135 40152 53005 60006 90000=
07020,1996-03-09 06:00:00,3,1016.1,0.1,87,1,12000,14.816,,,140,2,4.6,,,,,,,,,wg-a,,,,AAXX 09064 07020 12862 21408 10030 20010 30143 40161 53001 60006 82020 90600 333 10046 20020=
07020,1996-03-09 12:00:00,6,1016.4,-0.5,87,4,14000,22.224,,,80,,,,,,,,,,,wg-a,,,,AAXX 09124 07020 12564 60812 10060 20040 30147 40164 57005 60006 83620 91200=
07020,1996-03-09 18:00:00,7,1017.8,1.2,93,6,3000,18.52,,,90,2.4,8.5,,,,,,,,10,wg-a,,,,AAXX 09184 07020 12530 80910 10070 20060 30161 40178 53012 60006 71022 8362/ 91800 333 10085 20024=
07020,1996-03-10 00:00:00,6,1020.7,1.5,93,5,0,18.52,,,80,,,,,,,,,,,wg-a,,,,AAXX 10004 07020 12/// /0810 10060 20050 30190 40207 53015 60006 90000=
07020,1996-03-10 06:00:00,6,1023.4,1.5,87,4,12000,18.52,,,80,5.4,7.9,,,,,,,,,wg-a,,,,AAXX 10064 07020 12862 60810 10060 20040 30217 40234 51015 60006 86010 90600 333 10079 20054=
07020,1996-03-10 12:00:00,9,1026.1,1,81,6,2000,22.224,,,50,,,,,,,,,,10,wg-a,,,,AAXX 10124 07020 12320 40512 10090 20060 30244 40261 51010 60006 71011 84600 91200=
07020,1996-03-10 18:00:00,7,1025.5,-0.1,76,3,2000,25.928,,,70,5.1,9.8,,,,,,,,10,wg-a,,,,AAXX 10184 07020 12320 40714 10070 20030 30238 40255 55001 60006 71011 84600 91800 333 10098 20051=
07020,1996-03-11 06:00:00,4,1022.9,-1.1,81,1,2000,14.816,,,50,4.1,6.6,,,,,,,,10,wg-a,,,,AAXX 11064 07020 12320 40508 10040 20010 30211 40229 58011 60006 710// 84600 90600 333 10066 20041=
07020,1996-03-11 12:00:00,7,1021.1,-1.4,70,2,3000,7.408,,,50,,,,,,,,,,10,wg-a,,,,AAXX 11124 07020 12330 40504 10070 20020 30194 40211 56014 60006 71011 84600 91200=
07020,1996-03-12 00:00:00,5,1014.4,-1.8,81,2,0,18.52,,,100,,,,,,,,,,,wg-a,,,,AAXX 12004 07020 12/// /1010 10050 20020 30127 40144 58018 60006 90000=
07020,1996-03-12 06:00:00,4,1010.4,-2.1,75,0,3000,25.928,,,100,4.2,6.1,,,,,,,,10,wg-a,,,,AAXX 12064 07020 12430 81014 10040 20000 30087 40104 56021 60006 710// 8462/ 90600 333 10061 20042=
07020,1996-03-12 12:00:00,4,1009.1,-1.3,75,0,3000,22.224,,,100,,,,,,,,,,10,wg-a,,,,AAXX 12124 07020 12430 81012 10040 20000 30074 40091 56013 60006 71022 8462/ 91200=
07020,1996-03-12 18:00:00,4,1006.1,-1,60,-3,10000,38.892,,,90,3.8,4.5,,,,,,,,,wg-a,,,,AAXX 12184 07020 12560 80921 10040 21030 30044 40061 56010 60006 8262/ 91800 333 10045 20038=
07020,1996-03-13 00:00:00,3,1005.5,-0.7,48,-7,0,38.892,,,100,,,,,,,,,,,wg-a,,,,AAXX 13004 07020 12/// /1021 10030 21070 30038 40055 58007 60006 90000=
07020,1996-03-13 06:00:00,2,1004.5,-0.2,55,-6,10000,38.892,,,90,2,3.8,,,,,,,,,wg-a,,,,AAXX 13064 07020 12860 80921 10020 21060 30028 40045 56002 60006 8802/ 90600 333 10038 20020=
07020,1996-03-13 12:00:00,4,1003.5,-0.9,56,-4,8000,53.708,,79.636,80,,,,,,,,,,,wg-a,,,,AAXX 13124 07020 12458 60829 10040 21040 30018 40035 55009 60006 84670 91200 333 91043=
07020,1996-03-13 18:00:00,4,1001.6,-0.1,52,-5,7000,53.708,,83.34,80,1.6,4.3,,,,,,,,,wg-a,,,,AAXX 13184 07020 12457 70829 10040 21050 39999 40016 55001 60006 8467/ 91800 333 10043 20016 91045=
07020,1996-03-14 00:00:00,4,1001.7,-1.1,56,-4,0,46.3,,,80,,,,,,,,,,,wg-a,,,,AAXX 14004 07020 12/// /0825 10040 21040 30000 40017 56011 60006 90000=
07020,1996-03-14 06:00:00,3,1000.5,-0.5,70,-2,8000,42.596,,,80,2.7,4.3,,,,,,,,,wg-a,,,,AAXX 14064 07020 12458 80823 10030 21020 39988 40005 56005 60006 8467/ 90600 333 10043 20027=
07020,1996-03-14 12:00:00,5,1001.7,0.6,70,0,3000,31.484,,,80,,,,,,,,,,10,wg-a,,,,AAXX 14124 07020 12430 80817 10050 20000 30000 40017 51006 60006 71022 8467/ 91200=
07020,1996-03-14 18:00:00,6,1002.4,0.4,81,3,3000,29.632,,,80,2.7,6.2,,,,,,,,10,wg-a,,,,AAXX 14184 07020 12430 80816 10060 20030 30007 40024 53004 60006 71022 8467/ 91800 333 10062 20027=
07020,1996-03-15 00:00:00,7,1003.4,-0,87,5,0,0,,,0,,,,,,,,,,,wg-a,,,,AAXX 15004 07020 12/// /0000 10070 20050 30017 40034 55000 60006 90000=
07020,1996-03-15 06:00:00,6,1004.1,0.4,93,5,2000,3.704,,,170,5.7,6.9,,,,,,,,10,wg-a,,,,AAXX 15064 07020 32320 81702 10060 20050 30024 40041 53004 710// 8462/ 90600 333 10069 20057=
07020,1996-03-15 12:00:00,9,1005.5,0.5,81,6,2000,14.816,,,190,,,,,,,,,,10,wg-a,,,,AAXX 15124 07020 12320 71908 10090 20060 30038 40055 51005 60006 71022 8568/ 91200=
07020,1996-03-15 18:00:00,9,1006.2,0.9,76,5,4000,0,,,0,5.6,11.1,,,,,,,,,wg-a,,,,AAXX 15184 07020 12440 70000 10090 20050 30045 40062 53009 60006 8568/ 91800 333 10111 20056=
07020,1996-03-16 00:00:00,6,1006.5,0.1,87,4,100,0,,,0,,,,,,,,,,,wg-a,,,,AAXX 16004 07020 12/01 0//// 10060 20040 30048 40065 52001 60006 80000 90000=
07020,1996-03-16 06:00:00,7,1007,0.6,87,5,4000,22.224,,,180,5.7,8.7,,,,,,,,,wg-a,,,,AAXX 16064 07020 12440 81812 10070 20050 30053 40070 53006 60006 8362/ 90600 333 10087 20057=
07020,1996-03-16 12:00:00,9,1009.5,1.2,87,7,14000,18.52,,,200,,,,,,,,,,,wg-a,,,,AAXX 16124 07020 12664 62010 10090 20070 30078 40095 51012 60006 84571 91200=
07020,1996-03-16 18:00:00,8,1012.7,2,76,4,500,25.928,,,250,6.8,9.9,,,,,,,,,wg-a,,,,AAXX 16184 07020 12800 32514 10080 20040 30110 40127 53020 60006 83070 91800 333 10099 20068=
07020,1996-03-17 00:00:00,5,1014.9,1,87,3,0,11.112,,,210,,,,,,,,,,,wg-a,,,,AAXX 17004 07020 12/// /2106 10050 20030 30132 40149 51010 60006 90000=
07020,1996-03-17 06:00:00,5,1015.1,0.2,93,4,24000,22.224,,,150,3.8,8.3,,,,,,,,,wg-a,,,,AAXX 17064 07020 12/74 01512 10050 20040 30134 40151 52002 60006 80000 90600 333 10083 20038=
07020,1996-03-17 12:00:00,11,1015.4,-0.3,71,6,24000,29.632,,,160,,,,,,,,,,,wg-a,,,,AAXX 17124 07020 12574 21616 10110 20060 30137 40154 58003 60006 81170 91200=
07020,1996-03-17 18:00:00,10,1014.4,0.2,71,5,24000,29.632,,,160,4.7,12.9,,,,,,,,,wg-a,,,,AAXX 17184 07020 12774 71616 10100 20050 30127 40144 53002 60006 83270 91800 333 10129 20047=
07020,1996-03-18 00:00:00,8,1015.1,0.3,87,6,0,22.224,,,150,,,,,,,,,,,wg-a,,,,AAXX 18004 07020 12/// /1512 10080 20060 30134 40151 52003 60006 90000=
07020,1996-03-18 06:00:00,7,1014.8,0.2,87,5,12000,22.224,,,140,6.1,10.2,,,,,,,,,wg-a,,,,AAXX 18064 07020 12462 41412 10070 20050 30131 40148 53002 60006 82670 90600 333 10102 20061=
07020,1996-03-18 12:00:00,12,1016.1,0.5,76,8,18000,25.928,,,160,,,,,,,,,,,wg-a,,,,AAXX 18124 07020 12668 31614 10120 20080 30144 40161 51005 60006 82270 91200=
07020,1996-03-18 18:00:00,10,1016.3,0.2,71,5,16000,11.112,,,90,6.4,12.9,,,,,,,,,wg-a,,,,AAXX 18184 07020 12666 20906 10100 20050 30146 40163 53002 60006 81270 91800 333 10129 20064=
07020,1996-03-19 00:00:00,7,1016.7,-0.2,81,4,0,18.52,,,100,,,,,,,,,,,wg-a,,,,AAXX 19004 07020 12/// /1010 10070 20040 30150 40167 58002 60006 90000=
07020,1996-03-19 06:00:00,6,1015.5,-0.3,81,3,18000,18.52,,,90,5,9.5,,,,,,,,,wg-a,,,,AAXX 19064 07020 12868 30910 10060 20030 30138 40155 55003 60006 8307/ 90600 333 10095 20050=
07020,1996-03-19 12:00:00,10,1014.5,-1.3,76,6,3000,31.484,,,70,,,,,,,,,,10,wg-a,,,,AAXX 19124 07020 12530 80717 10100 20060 30128 40145 58013 60006 71011 886// 91200=
07020,1996-03-19 18:00:00,8,1011.7,-1,81,5,2000,29.632,,,80,5.5,10.1,,,,,,,,10,wg-a,,,,AAXX 19184 07020 12320 80816 10080 20050 30100 40117 56010 60006 71022 886// 91800 333 10101 20055=
07020,1996-03-20 00:00:00,7,1009.6,-1.1,93,6,0,31.484,,,80,,,,,,,,,,,wg-a,,,,AAXX 20004 07020 12/// /0817 10070 20060 30079 40096 58011 60006 90000=
07020,1996-03-20 06:00:00,7,1006.3,-1.5,87,5,2000,38.892,,,80,6.5,7.5,,,,,,,,10,wg-a,,,,AAXX 20064 07020 12320 80821 10070 20050 30046 40063 56015 60006 710// 886// 90600 333 10075 20065=
07020,1996-03-20 12:00:00,8,1004.5,-1.2,87,6,800,22.224,,,90,,,,1,,,,,,43,wg-a,,,,AAXX 20124 07020 02/08 90912 10080 20060 30028 40045 56012 60026 74364 89/// 91200 333 60017=
07020,1996-03-20 18:00:00,8,1002.7,-0.4,93,7,8000,22.224,,57.412,140,6,10.5,,2,,,,,,60,wg-a,,,,AAXX 20184 07020 12558 71412 10080 20070 30010 40027 58004 60027 76064 878// 91800 333 10105 20060 91031=
07020,1996-03-21 00:00:00,9,1002.2,-0.3,87,7,0,38.892,,,150,,,,,,,,,,,wg-a,,,,AAXX 21004 07020 02/// /1521 10090 20070 30005 40022 58003 61000 90000 333 6100=
07020,1996-03-21 06:00:00,8,1001,-0.2,87,6,10000,35.188,,68.524,160,7.5,10,,0,,,,,,,wg-a,,,,AAXX 21064 07020 12560 71619 10080 20060 39993 40010 55002 60007 8552/ 90600 333 10100 20075 91037=
07020,1996-03-21 12:00:00,9,1004.2,1.7,87,7,4000,46.3,,68.524,220,,,,0,,,,,,21,wg-a,,,,AAXX 21124 07020 02440 82225 10090 20070 30025 40042 53017 60016 72186 8672/ 91200 333 60007 91037=
07020,1996-03-21 18:00:00,9,1008,2.3,81,6,6000,46.3,,68.524,230,8,9.1,,,,,,,,2,wg-a,,,,AAXX 21184 07020 32456 82325 10090 20060 30063 40080 53023 70262 8672/ 91800 333 10091 20080 91037=
07020,1996-03-22 00:00:00,8,1011.3,1.3,87,6,0,25.928,,,230,,,,,,,,,,,wg-a,,,,AAXX 22004 07020 12/// /2314 10080 20060 30096 40113 51013 60006 90000=
07020,1996-03-22 06:00:00,8,1012.3,0.3,93,7,3000,11.112,,,170,7.4,8.6,,,,,,,,10,wg-a,,,,AAXX 22064 07020 12430 81706 10080 20070 30106 40123 52003 60006 710// 8462/ 90600 333 10086 20074=
07020,1996-03-22 12:00:00,10,1011.8,-0.7,93,9,4000,11.112,,,120,,,,3,,,,,,63,wg-a,,,,AAXX 22124 07020 02440 81206 10100 20090 30101 40118 58007 60056 76362 8662/ 91200 333 60037=
07020,1996-03-22 18:00:00,10,1013.2,1.3,93,9,12000,29.632,,,210,7.7,10.9,,,,,,,,2,wg-a,,,,AAXX 22184 07020 32462 82116 10100 20090 30115 40132 53013 70262 8462/ 91800 333 10109 20077=
07020,1996-03-23 00:00:00,10,1015.2,0.9,93,9,0,25.928,,,200,,,,,,,,,,,wg-a,,,,AAXX 23004 07020 12/// /2014 10100 20090 30135 40152 53009 60006 90000=
07020,1996-03-23 06:00:00,10,1015.3,0.6,100,10,10000,14.816,,,180,9,10.3,,,,,,,,,wg-a,,,,AAXX 23064 07020 12460 81808 10100 20100 30136 40153 53006 60006 8462/ 90600 333 10103 20090=
07020,1996-03-23 12:00:00,12,1016.1,-0.4,88,10,8000,7.408,,,50,,,,,,,,,,,wg-a,,,,AAXX 23124 07020 12458 80504 10120 20100 30144 40161 56004 60006 885// 91200=
07020,1996-03-23 18:00:00,10,1015.2,-0.1,87,8,12000,29.632,,,80,9.6,12.7,,,,,,,,,wg-a,,,,AAXX 23184 07020 12/62 60816 10100 20080 30135 40152 55001 60006 80006 91800 333 10127 20096=
07020,1996-03-24 00:00:00,8,1015.3,-0.3,100,8,0,29.632,,,80,,,,,,,,,,,wg-a,,,,AAXX 24004 07020 12/// /0816 10080 20080 30136 40153 58003 60006 90000=
07020,1996-03-24 06:00:00,8,1015.6,0.5,100,8,3000,35.188,,,70,7.9,9.6,,0,,,,,,10,wg-a,,,,AAXX 24064 07020 12430 80719 10080 20080 30139 40156 51005 60007 710// 8462/ 90600 333 10096 20079=
07020,1996-03-24 12:00:00,10,1015.8,-0.6,87,8,2000,50.004,,,60,,,,,,,,,,10,wg-a,,,,AAXX 24124 07020 12820 70627 10100 20080 30141 40158 58006 60006 71022 8703/ 91200=
07020,1996-03-25 00:00:00,8,1018,-1.5,93,7,50000,42.596,,,80,,,,,,,,,,,wg-a,,,,AAXX 25004 07020 12/84 /0823 10080 20070 30130 40180 56015 60016 90000=
07020,1996-03-25 06:00:00,8,1013.6,-0.4,93,7,500,38.892,,,70,7.6,8.7,,1,,,,,,61,wg-a,,,,AAXX 25064 07020 12/05 90721 10080 20070 30119 40136 58004 60017 761// 89/// 90600 333 10087 20076=
07020,1996-03-25 12:00:00,8,1013.5,0.1,100,8,600,25.928,,,80,,,,2,,,,,,61,wg-a,,,,AAXX 25124 07020 02/06 90814 10080 20080 30118 40135 53001 60066 76164 89/// 91200 333 60027=
07020,1996-03-25 18:00:00,9,1013.5,0.5,100,9,500,18.52,,,210,7.6,9.8,,0,,,,,,51,wg-a,,,,AAXX 25184 07020 12/00 92110 10090 20090 30118 40135 53005 60007 75165 89/// 91800 333 10098 20076=
07020,1996-03-26 00:00:00,9,1013.9,-0.4,100,9,0,14.816,,,220,,,,,,,,,,,wg-a,,,,AAXX 26004 07020 02/// /2208 10090 20090 30122 40139 56004 61000 90000 333 ////=
07020,1996-03-26 06:00:00,8,1013.2,0.1,100,8,100,11.112,,,50,8,9.5,,,,,,,,45,wg-a,,,,AAXX 26064 07020 02/01 90506 10080 20080 30115 40132 53001 61000 745// 89/// 90600 333 10095 20080 ////=
07020,1996-03-26 12:00:00,7,1014.6,0.4,100,7,1000,42.596,,,50,,,,,,,,,,20,wg-a,,,,AAXX 26124 07020 02210 80523 10070 20070 30129 40146 53004 61000 72054 886// 91200 333 6100=
07020,1996-03-26 18:00:00,6,1016.8,1.5,87,4,0,57.412,,,50,6.2,8.1,,,,,,,,,wg-a,,,,AAXX 26184 07020 32/// /0531 10060 20040 30151 40168 53015 91800 333 10081 20062=
07020,1996-03-27 00:00:00,6,1019.4,1,81,3,0,57.412,,,50,,,,,,,,,,,wg-a,,,,AAXX 27004 07020 12/// /0531 10060 20030 30177 40194 51010 60006 90000=
07020,1996-03-27 06:00:00,5,1020.9,0.9,65,-1,20000,61.116,,,50,4.7,6.4,,,,,,,,,wg-a,,,,AAXX 27064 07020 12570 80533 10050 21010 30192 40209 53009 60006 885// 90600 333 10064 20047=
07020,1996-03-27 12:00:00,5,1023.2,0.6,60,-2,26000,57.412,,,60,,,,,,,,,,,wg-a,,,,AAXX 27124 07020 12576 40631 10050 21020 30214 40232 53006 60006 84501 91200=
07020,1996-03-27 18:00:00,5,1023.1,0.3,56,-3,40000,35.188,,,60,4.1,5.5,,,,,,,,,wg-a,,,,AAXX 27184 07020 12/82 00619 10050 21030 30213 40231 53003 60006 80000 91800 333 10055 20041=
07020,1996-03-28 00:00:00,1,1022.5,-0.7,80,-2,0,14.816,,,120,,,,,,,,,,,wg-a,,,,AAXX 28004 07020 12/// /1208 10010 21020 30207 40225 58007 60006 90000=
07020,1996-03-28 06:00:00,5,1020.4,-0.6,65,-1,20000,14.816,,,330,0.7,4.8,,,,,,,,,wg-a,,,,AAXX 28064 07020 12670 73308 10050 21010 30186 40204 55006 60006 865// 90600 333 10048 20007=
07020,1996-03-28 12:00:00,6,1019.1,-0.1,70,1,28000,31.484,,,290,,,,,,,,,,,wg-a,,,,AAXX 28124 07020 12778 82917 10060 20010 30174 40191 56001 60006 885// 91200=
07020,1996-03-28 18:00:00,7,1017.7,-0.5,66,1,24000,31.484,,,270,4.4,7.5,,,,,,,,,wg-a,,,,AAXX 28184 07020 12/74 02717 10070 20010 30160 40177 56005 60006 80000 91800 333 10075 20044=
07020,1996-03-29 06:00:00,7,1017.5,-0,81,4,16000,25.928,,,330,6.9,7.4,,,,,,,,,wg-a,,,,AAXX 29064 07020 12666 63314 10070 20040 30158 40175 55000 60006 83260 90600 333 10074 20069=
07020,1996-03-29 12:00:00,8,1018.1,0.1,66,2,28000,14.816,,,320,,,,,,,,,,,wg-a,,,,AAXX 29124 07020 12678 23208 10080 20020 30164 40181 50001 60006 81260 91200=
07020,1996-03-29 18:00:00,8,1016.5,-0.7,71,3,20000,14.816,,,300,6.9,10.1,,,,,,,,,wg-a,,,,AAXX 29184 07020 12670 53008 10080 20030 30148 40165 56007 60006 85560 91800 333 10101 20069=
07020,1996-03-30 00:00:00,7,1017,-0,76,3,0,35.188,,,40,,,,,,,,,,,wg-a,,,,AAXX 30004 07020 12/// /0419 10070 20030 30153 40170 55000 60006 90000=
07020,1996-03-30 06:00:00,5,1017.7,0.6,75,1,15000,31.484,,,40,5.1,7.9,,,,,,,,,wg-a,,,,AAXX 30064 07020 12765 50417 10050 20010 30160 40177 52006 60006 85500 90600 333 10079 20051=
07020,1996-03-30 12:00:00,7,1020.3,1.3,61,0,40000,25.928,,,50,,,,,,,,,,,wg-a,,,,AAXX 30124 07020 12682 40514 10070 20000 30186 40203 51013 60006 84100 91200=
07020,1996-03-30 18:00:00,7,1020.4,0.2,57,-1,50000,14.816,,,80,5.1,7.7,,,,,,,,,wg-a,,,,AAXX 30184 07020 12/84 00808 10070 21010 30187 40204 51002 60006 80000 91800 333 10077 20051=
07020,1996-03-31 00:00:00,2,1020.9,-0.1,69,-3,0,11.112,,,130,,,,,,,,,,,wg-a,,,,AAXX 31004 07020 12/// /1306 10020 21030 30191 40209 55001 60006 90000=
07020,1996-03-31 06:00:00,1,1018.8,-0.9,80,-2,500,11.112,,,110,0.6,6.6,,,,,,,,,wg-a,,,,AAXX 31064 07020 12/00 41106 10010 21020 30170 40188 58009 60006 80005 90600 333 10066 20006=
07020,1996-03-31 12:00:00,7,1017.2,-1.2,53,-2,40000,11.112,,,210,,,,,,,,,,,wg-a,,,,AAXX 31124 07020 12682 42106 10070 21020 30155 40172 56012 60006 83406 91200=
07020,1996-04-01 06:00:00,5,1010.8,-0.1,70,0,25000,31.484,,,70,4.4,6.1,,,,,,,,,wg-a,,,,AAXX 01064 07020 12575 30717 10050 20000 30091 40108 55001 60006 83400 90600 333 10061 20044=
07020,1996-04-01 12:00:00,6,1011.8,0.6,70,1,25000,46.3,,,50,,,,,,,,,,25,wg-a,,,,AAXX 01124 07020 02675 60525 10060 20010 30101 40118 51006 61000 72585 86200 91200 333 6100=
07020,1996-04-01 18:00:00,6,1013.6,1.7,65,0,25000,46.3,,,40,4.6,7.1,,,,,,,,,wg-a,,,,AAXX 01184 07020 32675 40425 10060 20000 30119 40136 53017 84200 91800 333 10071 20046=
07020,1996-04-02 00:00:00,5,1017.9,2.1,60,-2,0,38.892,,,40,,,,,,,,,,,wg-a,,,,AAXX 02004 07020 12/// /0421 10050 21020 30162 40179 52021 60006 90000=
07020,1996-04-02 06:00:00,4,1020.6,1.6,70,-1,22000,35.188,,,30,4.1,6,,,,,,,,,wg-a,,,,AAXX 02064 07020 12672 40319 10040 21010 30188 40206 53016 60006 84200 90600 333 10060 20041=
07020,1996-04-02 12:00:00,7,1023.8,1.2,49,-3,500,22.224,,,30,,,,,,,,,,,wg-a,,,,AAXX 02124 07020 12600 10312 10070 21030 30221 40238 51012 60006 81100 91200=
07020,1996-04-02 18:00:00,6,1024.9,0.9,61,-1,25000,7.408,,,270,4.2,8.7,,,,,,,,,wg-a,,,,AAXX 02184 07020 12675 52704 10060 21010 30232 40249 53009 60006 8353/ 91800 333 10087 20042=
07020,1996-04-03 00:00:00,7,1026,0.1,70,2,0,18.52,,,340,,,,,,,,,,,wg-a,,,,AAXX 03004 07020 12/// /3410 10070 20020 30243 40260 52001 60006 90000=
07020,1996-04-03 06:00:00,6,1027.4,0.9,70,1,24000,25.928,,,30,5.6,6.9,,,,,,,,,wg-a,,,,AAXX 03064 07020 12574 30314 10060 20010 30256 40274 53009 60006 83100 90600 333 10069 20056=
07020,1996-04-03 12:00:00,7,1029.6,0.4,57,-1,500,25.928,,,50,,,,,,,,,,,wg-a,,,,AAXX 03124 07020 12700 50514 10070 21010 30279 40296 51004 60006 85200 91200=
07020,1996-04-03 18:00:00,6,1029.9,0.1,61,-1,0,31.484,,,70,5.6,7.7,,,,,,,,,wg-a,,,,AAXX 03184 07020 12/// /0717 10060 21010 30281 40299 53001 60006 91800 333 10077 20056=
07020,1996-04-04 00:00:00,5,1031.5,0.5,65,-1,0,29.632,,,70,,,,,,,,,,,wg-a,,,,AAXX 04004 07020 12/// /0716 10050 21010 30297 40315 52005 60006 90000=
07020,1996-04-04 06:00:00,1,1030.2,-0.4,80,-2,8000,11.112,,,130,1,5.9,,,,,,,,,wg-a,,,,AAXX 04064 07020 12458 31306 10010 21020 30284 40302 55004 60006 83600 90600 333 10059 20010=
07020,1996-04-04 12:00:00,8,1028.7,-1.2,61,1,10000,29.632,,,60,,,,,,,,,,,wg-a,,,,AAXX 04124 07020 12460 20616 10080 20010 30270 40287 58012 60006 81620 91200=
07020,1996-04-04 18:00:00,7,1025.4,-1.3,70,2,10000,29.632,,,50,1.1,8.9,,,,,,,,,wg-a,,,,AAXX 04184 07020 12460 20516 10070 20020 30237 40254 58013 60006 82600 91800 333 10089 20011=
07020,1996-04-05 00:00:00,7,1023.6,-0.9,81,4,0,25.928,,,80,,,,,,,,,,,wg-a,,,,AAXX 05004 07020 12/// /0814 10070 20040 30219 40236 58009 60006 90000=
07020,1996-04-05 06:00:00,3,1021.5,-0.4,87,1,4000,11.112,,,120,3.2,7.1,,,,,,,,,wg-a,,,,AAXX 05064 07020 12440 81206 10030 20010 30197 40215 56004 60006 8662/ 90600 333 10071 20032=
07020,1996-04-05 12:00:00,8,1019.3,-1.4,71,3,6000,38.892,,,60,,,,,,,,,,,wg-a,,,,AAXX 05124 07020 12456 70621 10080 20030 30176 40193 58014 60006 85620 91200=
07020,1996-04-05 18:00:00,8,1017.6,-0.3,76,4,3000,25.928,,,70,3.1,9,,,,,,,,10,wg-a,,,,AAXX 05184 07020 12430 70714 10080 20040 30159 40176 57003 60006 71022 85620 91800 333 10090 20031=
07020,1996-04-06 00:00:00,8,1017.3,-0.4,81,5,0,22.224,,,60,,,,,,,,,,,wg-a,,,,AAXX 06004 07020 12/// /0612 10080 20050 30156 40173 56004 60006 90000=
07020,1996-04-06 06:00:00,7,1016.4,0.1,93,6,2000,18.52,,,40,7.4,7.7,,,,,,,,10,wg-a,,,,AAXX 06064 07020 12320 80410 10070 20060 30147 40164 53001 60006 710// 8662/ 90600 333 10077 20074=
07020,1996-04-06 12:00:00,9,1017.3,0.2,81,6,2000,14.816,,,30,,,,,,,,,,10,wg-a,,,,AAXX 06124 07020 12320 80308 10090 20060 30156 40173 53002 60006 71022 8462/ 91200=
07020,1996-04-06 18:00:00,8,1018.5,0.8,87,6,2000,7.408,,,30,7.4,8.8,,,,,,,,10,wg-a,,,,AAXX 06184 07020 12320 80304 10080 20060 30168 40185 53008 60006 71022 8462/ 91800 333 10088 20074=
07020,1996-04-07 00:00:00,8,1019.8,0.4,87,6,0,11.112,,,260,,,,,,,,,,,wg-a,,,,AAXX 07004 07020 12/// /2606 10080 20060 30181 40198 53004 60006 90000=
07020,1996-04-07 06:00:00,7,1020.7,0.8,93,6,2000,3.704,,,180,6.1,8,,,,,,,,10,wg-a,,,,AAXX 07064 07020 12320 81802 10070 20060 30190 40207 53008 60006 710// 886// 90600 333 10080 20061=
07020,1996-04-07 12:00:00,10,1023.3,0.9,82,7,2000,3.704,,,250,,,,,,,,,,10,wg-a,,,,AAXX 07124 07020 12320 72502 10100 20070 30216 40233 51009 60006 71022 8461/ 91200=
07020,1996-04-07 18:00:00,9,1024.4,0.9,87,7,2000,14.816,,,190,7.2,11.9,,,,,,,,10,wg-a,,,,AAXX 07184 07020 12320 71908 10090 20070 30227 40244 53009 60006 71022 8461/ 91800 333 10119 20072=
07020,1996-04-08 00:00:00,7,1026.4,0.9,93,6,0,18.52,,,190,,,,,,,,,,,wg-a,,,,AAXX 08004 07020 12/// /1910 10070 20060 30247 40264 51009 60006 90000=
07020,1996-04-08 06:00:00,8,1027.2,0.8,93,7,1000,18.52,,,220,6.6,8.8,,0,,,,,,10,wg-a,,,,AAXX 08064 07020 12310 72210 10080 20070 30255 40272 53008 60007 710// 8562/ 90600 333 10088 20066=
07020,1996-04-08 12:00:00,12,1028.8,0.2,76,8,1200,22.224,,,180,,,,,,,,,,28,wg-a,,,,AAXX 08124 07020 12312 81812 10120 20080 30271 40288 51002 60006 72842 886// 91200=
07020,1996-04-08 18:00:00,10,1028.6,-0.1,76,6,2500,18.52,,,190,7.8,11.8,,,,,,,,10,wg-a,,,,AAXX 08184 07020 12425 81910 10100 20060 30269 40286 55001 60006 71022 8462/ 91800 333 10118 20078=
07020,1996-04-09 06:00:00,9,1026.9,-0.8,71,4,6000,11.112,,,180,8.3,10,,,,,,,,,wg-a,,,,AAXX 09064 07020 12456 81806 10090 20040 30252 40269 56008 60006 8462/ 90600 333 10100 20083=
07020,1996-04-09 12:00:00,12,1026.3,-0.8,71,7,4000,22.224,,,180,,,,,,,,,,,wg-a,,,,AAXX 09124 07020 12440 81812 10120 20070 30246 40263 56008 60006 8462/ 91200=
07020,1996-04-09 18:00:00,11,1023.2,-1.2,71,6,4000,14.816,,,90,8.7,14.2,,,,,,,,,wg-a,,,,AAXX 09184 07020 12440 40908 10110 20060 30215 40232 56012 60006 82621 91800 333 10142 20087=
07020,1996-04-10 00:00:00,11,1020.6,-1.2,71,6,0,25.928,,,150,,,,,,,,,,,wg-a,,,,AAXX 10004 07020 12/// /1514 10110 20060 30189 40206 56012 60006 90000=
07020,1996-04-10 06:00:00,9,1017.7,-1.2,87,7,2000,22.224,,,150,9,12.6,,,,,,,,60,wg-a,,,,AAXX 10064 07020 02420 81512 10090 20070 30160 40177 58012 61000 760// 8462/ 90600 333 10126 20090 ////=
07020,1996-04-10 12:00:00,11,1017.8,-0.1,87,9,2000,22.224,,,190,,,,,,,,,,61,wg-a,,,,AAXX 10124 07020 02420 81912 10110 20090 30161 40178 55001 61000 76162 8462/ 91200 333 6100=
07020,1996-04-10 18:00:00,9,1017.7,0.4,100,9,100,7.408,,,220,9.2,12.5,,,,,,,,47,wg-a,,,,AAXX 10184 07020 32/01 92204 10090 20090 30160 40177 53004 74762 89/// 91800 333 10125 20092=
07020,1996-04-11 00:00:00,8,1018,-0.3,100,8,0,18.52,,,190,,,,,,,,,,,wg-a,,,,AAXX 11004 07020 12/// /1910 10080 20080 30163 40180 58003 60006 90000=
07020,1996-04-11 06:00:00,7,1018.1,0.4,100,7,200,3.704,,,330,6.7,9.4,,0,,,,,,47,wg-a,,,,AAXX 11064 07020 12/02 93302 10070 20070 30164 40181 53004 60007 747// 89/// 90600 333 10094 20067=
07020,1996-04-11 12:00:00,8,1018.2,-0.6,100,8,2000,3.704,,,340,,,,,,,,,,10,wg-a,,,,AAXX 11124 07020 02220 83402 10080 20080 30165 40182 58006 61000 71044 8/62/ 91200 333 6100=
07020,1996-04-11 18:00:00,8,1017.1,-0.4,93,7,400,7.408,,,70,6.7,8.6,,,,,,,,43,wg-a,,,,AAXX 11184 07020 32/04 90704 10080 20070 30154 40171 58004 74344 89/// 91800 333 10086 20067=
07020,1996-04-12 00:00:00,7,1016.6,-0.2,93,6,0,7.408,,,100,,,,,,,,,,,wg-a,,,,AAXX 12004 07020 12/// /1004 10070 20060 30149 40166 58002 60006 90000=
07020,1996-04-12 06:00:00,7,1015.1,-0.4,93,6,12000,14.816,,,90,6.4,8.1,,,,,,,,,wg-a,,,,AAXX 12064 07020 12462 80908 10070 20060 30134 40151 55004 60006 8262/ 90600 333 10081 20064=
07020,1996-04-12 12:00:00,9,1014.2,-1,93,8,8000,22.224,,,80,,,,,,,,,,60,wg-a,,,,AAXX 12124 07020 02358 80812 10090 20080 30125 40142 56010 61000 76062 8362/ 91200 333 6100=
07020,1996-04-12 18:00:00,8,1012.8,-0.4,100,8,2000,14.816,,,90,6.8,9.5,,1,,,,,,63,wg-a,,,,AAXX 12184 07020 12320 80908 10080 20080 30111 40128 56004 60017 76362 8462/ 91800 333 10095 20068=
07020,1996-04-13 06:00:00,7,1014.7,1.3,100,7,2000,38.892,,,60,7.2,9.7,,,,,,,,10,wg-a,,,,AAXX 13064 07020 02320 80621 10070 20070 30130 40147 53013 61000 710// 8462/ 90600 333 10097 20072 ////=
07020,1996-04-13 12:00:00,8,1017.6,1.5,87,6,3000,35.188,,,60,,,,,,,,,,10,wg-a,,,,AAXX 13124 07020 12330 80619 10080 20060 30159 40176 51015 60006 71022 8462/ 91200=
07020,1996-04-13 18:00:00,8,1018.5,0.4,87,6,6000,31.484,,,60,,8.8,,,,,,,,,wg-a,,,,AAXX 13184 07020 12556 70617 10080 20060 30168 40185 53004 60006 8462/ 91800 333 10088=
07020,1996-04-14 00:00:00,8,1020.2,0.1,87,6,0,22.224,,,70,,,,,,,,,,,wg-a,,,,AAXX 14004 07020 12/// /0712 10080 20060 30185 40202 50001 60006 90000=
07020,1996-04-14 06:00:00,7,1020.7,-0.2,100,7,2000,11.112,,,90,6.4,8,,,,,,,,10,wg-a,,,,AAXX 14064 07020 32320 80906 10070 20070 30190 40207 58002 710// 8462/ 90600 333 10080 20064=
07020,1996-04-14 12:00:00,11,1022.4,0.7,82,8,2000,11.112,,,70,,,,,,,,,,10,wg-a,,,,AAXX 14124 07020 12320 80706 10110 20080 30207 40224 51007 60006 71022 8462/ 91200=
07020,1996-04-14 18:00:00,9,1023.2,0.7,93,8,2000,7.408,,,70,7.3,11.4,,1,,,,,,61,wg-a,,,,AAXX 14184 07020 12320 80704 10090 20080 30215 40232 53007 60017 76162 8462/ 91800 333 10114 20073=
07020,1996-04-15 00:00:00,9,1024.5,0.5,93,8,0,3.704,,,130,,,,,,,,,,,wg-a,,,,AAXX 15004 07020 12/// /1302 10090 20080 30228 40245 51005 60006 90000=
07020,1996-04-15 06:00:00,10,1024.3,0.1,87,8,3000,11.112,,,110,8.3,10.2,,,,,,,,10,wg-a,,,,AAXX 15064 07020 02430 81106 10100 20080 30226 40243 53001 61000 710// 885// 90600 333 10102 20083 ////=
07020,1996-04-15 12:00:00,14,1024.6,-0.5,77,10,500,31.484,,,170,,,,,,,,,,,wg-a,,,,AAXX 15124 07020 12400 71717 10140 20100 30229 40246 58005 60006 8457/ 91200=
07020,1996-04-15 18:00:00,14,1022.7,-1.3,82,11,6000,11.112,,,180,9.5,16.7,,,,,,,,,wg-a,,,,AAXX 15184 07020 12556 81806 10140 20110 30210 40227 56013 60006 885// 91800 333 10167 20095=
07020,1996-04-16 00:00:00,11,1020.7,-1.8,100,11,0,7.408,,,100,,,,,,,,,,,wg-a,,,,AAXX 16004 07020 12/// /1004 10110 20110 30190 40207 56018 60016 90000=
07020,1996-04-16 06:00:00,11,1016.2,-2,94,10,6000,14.816,,,150,9,14.3,,,,,,,,,wg-a,,,,AAXX 16064 07020 32556 71508 10110 20100 30145 40162 56020 8267/ 90600 333 10143 20090=
07020,1996-04-16 12:00:00,15,1012.2,-2.3,41,2,10000,25.928,,,150,,,,,,,,,,,wg-a,,,,AAXX 16124 07020 12860 71514 10150 20020 30105 40122 58023 60006 8702/ 91200=
07020,1996-04-16 18:00:00,11,1008.4,-0.8,82,8,12000,25.928,,50.004,180,,16.8,,,,,,,,60,wg-a,,,,AAXX 16184 07020 32462 81814 10110 20080 30067 40084 55008 76062 8372/ 91800 333 10168 91027=
07020,1996-04-17 06:00:00,9,1008.5,1.4,93,8,12000,29.632,,,230,8.9,,,,,,,,,,wg-a,,,,AAXX 17064 07020 02462 32316 10090 20080 30068 40085 53014 61000 83730 90600 333 20089 ////=
07020,1996-04-17 12:00:00,12,1012.5,1.8,82,9,0,25.928,,,240,,,,,,,,,,,wg-a,,,,AAXX 17124 07020 12/// /2414 10120 20090 30108 40125 51018 60006 91200=
07020,1996-04-17 18:00:00,11,1014.9,1.1,87,9,16000,31.484,,,230,8.9,13.4,,1,,,,,,,wg-a,,,,AAXX 17184 07020 12566 22317 10110 20090 30132 40149 51011 60017 81101 91800 333 10134 20089=
07020,1996-04-18 06:00:00,9,1015.7,-0.5,93,8,18000,38.892,,,190,8.5,10.4,,,,,,,,,wg-a,,,,AAXX 18064 07020 12/68 61921 10090 20080 30140 40157 55005 60006 84015 90600 333 10104 20085=
07020,1996-04-18 12:00:00,13,1015.3,-0.2,77,9,16000,46.3,,64.82,170,,,,,,,,,,,wg-a,,,,AAXX 18124 07020 12666 81725 10130 20090 30136 40153 58002 60006 8452/ 91200 333 91035=
07020,1996-04-18 18:00:00,11,1014.8,0,82,8,20000,25.928,,,180,8.9,13.3,,,,,,,,,wg-a,,,,AAXX 18184 07020 12670 81814 10110 20080 30131 40148 50000 60006 885// 91800 333 10133 20089=
07020,1996-04-19 00:00:00,10,1015.5,0.2,93,9,0,31.484,,,170,,,,,,,,,,,wg-a,,,,AAXX 19004 07020 12/// /1717 10100 20090 30138 40155 53002 60006 90000=
07020,1996-04-19 06:00:00,10,1015.1,-0,93,9,10000,31.484,,,160,9.6,11.9,,,,,,,,,wg-a,,,,AAXX 19064 07020 12560 71617 10100 20090 30134 40151 55000 60006 84510 90600 333 10119 20096=
07020,1996-04-19 12:00:00,14,1015.8,0.1,82,11,8000,29.632,,,160,,,,,,,,,,,wg-a,,,,AAXX 19124 07020 12558 81616 10140 20110 30141 40158 52001 60006 8112/ 91200=
07020,1996-04-19 18:00:00,15,1013.4,-1.1,63,8,20000,11.112,,,130,9.9,16.4,,,,,,,,,wg-a,,,,AAXX 19184 07020 12/70 81306 10150 20080 30117 40134 57011 60006 8802/ 91800 333 10164 20099=
07020,1996-04-20 00:00:00,10,1011,-1.8,82,7,0,22.224,,,80,,,,,,,,,,,wg-a,,,,AAXX 20004 07020 12/// /0812 10100 20070 30093 40110 58018 60006 90000=
07020,1996-04-20 06:00:00,14,1008.1,-1,67,8,24000,25.928,,,150,8.5,14.8,,,,,,,,,wg-a,,,,AAXX 20064 07020 12/74 81514 10140 20080 30064 40081 56010 60006 8802/ 90600 333 10148 20085=
07020,1996-04-20 12:00:00,16,1008.1,0.9,63,9,16000,38.892,,68.524,170,,,,,,,,,,2,wg-a,,,,AAXX 20124 07020 02866 71721 10160 20090 30064 40081 50009 61000 70282 8707/ 91200 333 //// 91037=
07020,1996-04-20 18:00:00,16,1006.6,-0.7,68,10,18000,25.928,,,180,13.4,16.4,,,,,,,,1,wg-a,,,,AAXX 20184 07020 32868 51814 10160 20100 30049 40066 56007 70182 8507/ 91800 333 10164 20134=
07020,1996-04-21 00:00:00,11,1006,-1,94,10,0,7.408,,,80,,,,,,,,,,,wg-a,,,,AAXX 21004 07020 12/// /0804 10110 20100 30043 40060 58010 60006 90000=
07020,1996-04-21 06:00:00,15,1001.8,-2.2,51,5,20000,38.892,,,150,10.7,15.7,,,,,,,,,wg-a,,,,AAXX 21064 07020 12870 61521 10150 20050 30001 40018 58022 60006 86070 90600 333 10157 20107=
07020,1996-04-21 12:00:00,19,1000.8,-0.4,52,9,18000,46.3,,72.228,150,,,,,,,,,,,wg-a,,,,AAXX 21124 07020 12868 21525 10190 20090 39992 40008 56004 60006 82030 91200 333 91039=
07020,1996-04-21 18:00:00,12,1003.7,1.4,82,9,500,25.928,,64.82,180,11.7,20.6,,,,,,,,25,wg-a,,,,AAXX 21184 07020 02600 71814 10120 20090 30020 40037 53014 61000 72581 85260 91800 333 10206 20117 //// 91035=
07020,1996-04-22 00:00:00,10,1007.5,1,87,8,0,22.224,,,180,,,,,,,,,,,wg-a,,,,AAXX 22004 07020 12/// /1812 10100 20080 30058 40075 51010 60006 90000=
07020,1996-04-22 06:00:00,10,1007.3,-0.4,93,9,16000,14.816,,,180,9.2,12.5,,0,,,,,,,wg-a,,,,AAXX 22064 07020 12666 81808 10100 20090 30056 40073 55004 60007 885// 90600 333 10125 20092=
07020,1996-04-22 12:00:00,10,1006.2,-0.9,93,9,14000,18.52,,,50,,,,1,,,,,,21,wg-a,,,,AAXX 22124 07020 02464 80510 10100 20090 30045 40062 58009 60016 72162 8472/ 91200 333 60017=
07020,1996-04-22 18:00:00,9,1001.8,-2.3,100,9,8000,29.632,,,70,9.3,10.1,,0,,,,,,60,wg-a,,,,AAXX 22184 07020 12558 80716 10090 20090 30001 40018 56023 60007 76062 8492/ 91800 333 10101 20093=
07020,1996-04-23 00:00:00,12,999,-1,100,12,0,14.816,,,130,,,,,,,,,,,wg-a,,,,AAXX 23004 07020 12/// /1308 10120 20120 39973 49990 57010 60066 90000=
07020,1996-04-23 06:00:00,9,1002,2.3,93,8,22000,31.484,,,280,8.4,12.2,,,,,,,,,wg-a,,,,AAXX 23064 07020 02572 72817 10090 20080 30003 40020 53023 61000 875// 90600 333 10122 20084 ////=
07020,1996-04-23 12:00:00,9,1008.3,2.5,93,8,16000,35.188,,,230,,,,0,,,,,,60,wg-a,,,,AAXX 23124 07020 02466 82319 10090 20080 30066 40083 51025 60006 76062 837// 91200 333 60007=
07020,1996-04-23 18:00:00,10,1010.8,0.9,87,8,500,22.224,,,190,8.6,11.8,,,,,,,,,wg-a,,,,AAXX 23184 07020 32500 31912 10100 20080 30091 40108 51009 82902 91800 333 10118 20086=
07020,1996-04-24 00:00:00,9,1014.1,1.2,81,6,0,25.928,,,170,,,,,,,,,,,wg-a,,,,AAXX 24004 07020 12/// /1714 10090 20060 30124 40141 52012 60006 90000=
07020,1996-04-24 06:00:00,9,1015.7,1.1,93,8,20000,22.224,,,220,8.4,10.2,,,,,,,,25,wg-a,,,,AAXX 24064 07020 02470 72212 10090 20080 30140 40157 53011 61000 725// 878// 90600 333 10102 20084 ////=
07020,1996-04-24 12:00:00,13,1019.6,1.8,72,8,40000,29.632,,,220,,,,,,,,,,,wg-a,,,,AAXX 24124 07020 12682 22216 10130 20080 30179 40196 51018 60006 81280 91200=
07020,1996-04-24 18:00:00,11,1021.9,1,82,8,40000,22.224,,,240,9.2,13.6,,,,,,,,,wg-a,,,,AAXX 24184 07020 12682 12412 10110 20080 30202 40219 52010 60006 81201 91800 333 10136 20092=
07020,1996-04-25 00:00:00,9,1024.8,0.9,93,8,0,18.52,,,240,,,,,,,,,,,wg-a,,,,AAXX 25004 07020 12/// /2410 10090 20080 30231 40248 51009 60006 90000=
07020,1996-04-25 06:00:00,9,1026.3,1,93,8,500,14.816,,,260,8.8,10.8,,,,,,,,,wg-a,,,,AAXX 25064 07020 12600 12608 10090 20080 30246 40263 53010 60006 81400 90600 333 10108 20088=
07020,1996-04-25 12:00:00,12,1028,0.5,76,8,500,11.112,,,250,,,,,,,,,,,wg-a,,,,AAXX 25124 07020 12600 12506 10120 20080 30263 40280 50005 60006 81200 91200=
07020,1996-04-25 18:00:00,11,1027.5,-0.4,87,9,500,18.52,,,200,9,13.6,,,,,,,,,wg-a,,,,AAXX 25184 07020 12600 22010 10110 20090 30258 40275 57004 60006 81201 91800 333 10136 20090=
07020,1996-04-26 00:00:00,9,1026.7,-0.9,93,8,0,14.816,,,230,,,,,,,,,,,wg-a,,,,AAXX 26004 07020 12/// /2308 10090 20080 30250 40267 57009 60006 90000=
07020,1996-04-26 06:00:00,8,1025.2,-0.3,93,7,18000,7.408,,,200,6.6,10.8,,,,,,,,,wg-a,,,,AAXX 26064 07020 32/68 02004 10080 20070 30235 40252 55003 80000 90600 333 10108 20066=
07020,1996-04-26 12:00:00,11,1024.6,-0.5,82,8,20000,7.408,,,260,,,,,,,,,,,wg-a,,,,AAXX 26124 07020 12770 22604 10110 20080 30229 40246 58005 60006 81401 91200=
07020,1996-04-26 18:00:00,12,1021.4,-1.5,82,9,20000,3.704,,,290,7.8,13.8,,,,,,,,,wg-a,,,,AAXX 26184 07020 12/70 12902 10120 20090 30197 40214 56015 60006 80001 91800 333 10138 20078=
07020,1996-04-27 00:00:00,9,1020.9,-0.6,93,8,0,7.408,,,60,,,,,,,,,,,wg-a,,,,AAXX 27004 07020 12/// /0604 10090 20080 30192 40209 57006 60006 90000=
07020,1996-04-27 06:00:00,9,1018.9,-0.7,93,8,14000,11.112,,,70,7.9,12.2,,,,,,,,,wg-a,,,,AAXX 27064 07020 32/64 00706 10090 20080 30172 40189 56007 80000 90600 333 10122 20079=
07020,1996-04-27 12:00:00,14,1017.8,-0.8,72,9,10000,11.112,,,40,,,,,,,,,,,wg-a,,,,AAXX 27124 07020 12/60 00406 10140 20090 30161 40178 58008 60006 80000 91200=
07020,1996-04-27 18:00:00,13,1015.8,-0.7,77,9,8000,3.704,,,20,8.7,14.7,,,,,,,,,wg-a,,,,AAXX 27184 07020 12/58 00202 10130 20090 30141 40158 56007 60006 80000 91800 333 10147 20087=
07020,1996-04-28 00:00:00,10,1015.5,-0.7,93,9,0,7.408,,,50,,,,,,,,,,,wg-a,,,,AAXX 28004 07020 12/// /0504 10100 20090 30138 40155 57007 60006 90000=
07020,1996-04-28 06:00:00,10,1014.6,0.2,87,8,16000,18.52,,,40,9.5,13.4,,,,,,,,,wg-a,,,,AAXX 28064 07020 12/66 20410 10100 20080 30129 40146 53002 60006 80001 90600 333 10134 20095=
07020,1996-04-28 12:00:00,13,1014.7,0.1,72,8,24000,25.928,,,30,,,,,,,,,,,wg-a,,,,AAXX 28124 07020 12774 30314 10130 20080 30130 40147 50001 60006 83400 91200=
07020,1996-04-28 18:00:00,11,1013.6,-0.4,82,8,500,22.224,,,340,9.6,14.1,,,,,,,,,wg-a,,,,AAXX 28184 07020 12/00 03412 10110 20080 30119 40136 57004 60006 80000 91800 333 10141 20096=
07020,1996-04-29 00:00:00,10,1013.8,-0.3,82,7,0,22.224,,,70,,,,,,,,,,,wg-a,,,,AAXX 29004 07020 12/// /0712 10100 20070 30121 40138 56003 60006 90000=
07020,1996-04-29 06:00:00,8,1013.1,-0.3,87,6,24000,22.224,,,80,7.3,11.6,,,,,,,,,wg-a,,,,AAXX 29064 07020 12474 30812 10080 20060 30114 40131 55003 60006 83570 90600 333 10116 20073=
07020,1996-04-29 12:00:00,12,1011.6,-1.1,67,6,500,7.408,,,30,,,,,,,,,,,wg-a,,,,AAXX 29124 07020 12/00 70304 10120 20060 30099 40116 58011 60006 8702/ 91200=
07020,1996-04-29 18:00:00,11,1008.6,-1.3,71,6,500,7.408,,,240,7.8,12.3,,,,,,,,,wg-a,,,,AAXX 29184 07020 12/00 22404 10110 20060 30069 40086 58013 60006 80008 91800 333 10123 20078=
07020,1996-04-30 00:00:00,9,1007.7,-0.6,76,5,0,22.224,,,260,,,,,,,,,,,wg-a,,,,AAXX 30004 07020 12/// /2612 10090 20050 30060 40077 58006 60006 90000=
07020,1996-04-30 06:00:00,8,1005.5,-0.5,76,4,500,11.112,,,240,6.3,11,,,,,,,,,wg-a,,,,AAXX 30064 07020 12600 32406 10080 20040 30038 40055 55005 60006 81138 90600 333 10110 20063=
07020,1996-04-30 12:00:00,11,1003.8,-1.3,76,7,500,25.928,,,190,,,,1,,,,,,21,wg-a,,,,AAXX 30124 07020 02500 71914 10110 20070 30021 40038 58013 60016 72186 8/800 91200 333 60017=
07020,1996-04-30 18:00:00,10,1000.6,-1.5,82,7,500,25.928,,,180,8.3,12.1,,,,,,,,2,wg-a,,,,AAXX 30184 07020 32600 61814 10100 20070 39989 40006 56015 70266 83850 91800 333 10121 20083=
07020,1996-05-01 00:00:00,8,998.7,-1.2,93,7,0,18.52,,,180,,,,,,,,,,,wg-a,,,,AAXX 01004 07020 12/// /1810 10080 20070 39970 49987 58012 60016 90000=
07020,1996-05-01 06:00:00,9,996.1,-0.8,87,7,24000,29.632,,,160,8.2,9.9,,,,,,,,61,wg-a,,,,AAXX 01064 07020 02574 71616 10090 20070 39944 49961 56008 61000 761// 83820 90600 333 10099 20082 ////=
07020,1996-05-01 12:00:00,13,995.5,-0.7,72,8,500,29.632,,,160,,,,,,,,,,2,wg-a,,,,AAXX 01124 07020 02600 81616 10130 20080 39938 49955 58007 61000 70262 83820 91200 333 6100=
07020,1996-05-01 18:00:00,11,994.4,-0.5,87,9,0,18.52,,,100,9.1,14.6,,,,,,,,,wg-a,,,,AAXX 01184 07020 32/// /1010 10110 20090 39927 49944 56005 91800 333 10146 20091=
07020,1996-05-02 00:00:00,10,994.6,-0.5,87,8,0,14.816,,,100,,,,,,,,,,,wg-a,,,,AAXX 02004 07020 12/// /1008 10100 20080 39929 49946 58005 60006 90000=
07020,1996-05-02 06:00:00,9,994.6,0.4,93,8,12000,14.816,,,80,9.1,11.3,,2,,,,,,61,wg-a,,,,AAXX 02064 07020 12562 80808 10090 20080 39929 49946 53004 60027 761// 8452/ 90600 333 10113 20091=
07020,1996-05-02 12:00:00,10,996,0.7,93,9,20000,25.928,,,50,,,,0,,,,,,21,wg-a,,,,AAXX 02124 07020 02570 70514 10100 20090 39943 49960 50007 60056 72162 8386/ 91200 333 60007=
07020,1996-05-02 18:00:00,10,997.7,1.2,87,8,500,38.892,,,40,8.8,11.7,,,,,,,,21,wg-a,,,,AAXX 02184 07020 02400 70421 10100 20080 39960 49977 53012 61000 72162 876// 91800 333 10117 20088 ////=
07020,1996-05-03 00:00:00,8,1000.5,0.9,87,6,0,57.412,,,30,,,,,,,,,,,wg-a,,,,AAXX 03004 07020 12/// /0331 10080 20060 39988 40005 51009 60006 90000=
07020,1996-05-03 06:00:00,7,1003.4,1.5,87,5,8000,46.3,,,10,7.1,9.9,,2,,,,,,63,wg-a,,,,AAXX 03064 07020 12458 80125 10070 20050 30017 40034 53015 60027 76366 8572/ 90600 333 10099 20071=
07020,1996-05-03 12:00:00,8,1007.1,2.2,81,5,16000,31.484,,,20,,,,,,,,,,2,wg-a,,,,AAXX 03124 07020 02566 80217 10080 20050 30054 40071 51022 61000 70262 8/52/ 91200 333 ////=
07020,1996-05-03 18:00:00,9,1010,1.6,66,3,20000,3.704,,,280,7.1,10.9,,,,,,,,,wg-a,,,,AAXX 03184 07020 32770 72802 10090 20030 30083 40100 51016 875// 91800 333 10109 20071=
07020,1996-05-04 00:00:00,8,1012.3,0.8,87,6,0,7.408,,,340,,,,,,,,,,,wg-a,,,,AAXX 04004 07020 12/// /3404 10080 20060 30106 40123 53008 60006 90000=
07020,1996-05-04 06:00:00,8,1015.2,2,71,3,24000,29.632,,,70,7.6,8.8,,,,,,,,,wg-a,,,,AAXX 04064 07020 12774 70716 10080 20030 30135 40152 53020 60006 875// 90600 333 10088 20076=
07020,1996-05-04 12:00:00,9,1018,1,61,2,40000,22.224,,,50,,,,,,,,,,,wg-a,,,,AAXX 04124 07020 12582 60512 10090 20020 30163 40180 51010 60006 81106 91200=
07020,1996-05-04 18:00:00,9,1018.9,0.3,57,1,50000,18.52,,,60,7.8,10.5,,,,,,,,,wg-a,,,,AAXX 04184 07020 12/84 40610 10090 20010 30172 40189 53003 60006 80008 91800 333 10105 20078=
07020,1996-05-05 00:00:00,4,1019.7,-0,75,0,0,7.408,,,70,,,,,,,,,,,wg-a,,,,AAXX 05004 07020 12/// /0704 10040 20000 30179 40197 55000 60006 90000=
07020,1996-05-05 06:00:00,5,1019.6,0.2,81,2,40000,11.112,,,110,3.7,9.4,,,,,,,,,wg-a,,,,AAXX 05064 07020 12782 31106 10050 20020 30179 40196 53002 60006 81108 90600 333 10094 20037=
07020,1996-05-05 12:00:00,10,1018.8,-0.9,53,1,40000,25.928,,,50,,,,,,,,,,,wg-a,,,,AAXX 05124 07020 12682 10514 10100 20010 30171 40188 56009 60006 81200 91200=
07020,1996-05-05 18:00:00,9,1017,-0.9,66,3,500,29.632,,,60,5.5,11.4,,,,,,,,,wg-a,,,,AAXX 05184 07020 12/00 70616 10090 20030 30153 40170 56009 60006 8707/ 91800 333 10114 20055=
07020,1996-05-06 00:00:00,9,1016.2,-0.5,71,4,0,35.188,,,60,,,,,,,,,,,wg-a,,,,AAXX 06004 07020 12/// /0619 10090 20040 30145 40162 58005 60006 90000=
07020,1996-05-06 06:00:00,9,1015.3,-0.1,71,4,14000,35.188,,,60,8.6,,,,,,,,,,wg-a,,,,AAXX 06064 07020 12864 80619 10090 20040 30136 40153 55001 60006 8802/ 90600 333 20086=
07020,1996-05-06 12:00:00,10,1014.6,-0.7,66,4,14000,46.3,,,50,,,,,,,,,,,wg-a,,,,AAXX 06124 07020 12864 40525 10100 20040 30129 40146 57007 60006 8403/ 91200=
07020,1996-05-06 18:00:00,11,1013.7,-0.4,62,4,14000,42.596,,,60,8.9,11.2,,,,,,,,,wg-a,,,,AAXX 06184 07020 12864 20623 10110 20040 30120 40137 55004 60006 82030 91800 333 10112 20089=
07020,1996-05-07 00:00:00,9,1013.6,-0.6,76,5,0,50.004,,,50,,,,,,,,,,,wg-a,,,,AAXX 07004 07020 12/// /0527 10090 20050 30119 40136 58006 60006 90000=
07020,1996-05-07 06:00:00,9,1012.8,-0.4,81,6,14000,57.412,,,40,8.6,10.6,,,,,,,,,wg-a,,,,AAXX 07064 07020 12864 70431 10090 20060 30111 40128 56004 60006 8707/ 90600 333 10106 20086=
07020,1996-05-07 12:00:00,11,1013.3,-0,71,6,7000,61.116,,,40,,,,,,,,,,,wg-a,,,,AAXX 07124 07020 12857 70433 10110 20060 30116 40133 55000 60006 8707/ 91200=
07020,1996-05-07 18:00:00,11,1014,0.7,71,6,18000,57.412,,,40,8.8,11.4,,,,,,,,,wg-a,,,,AAXX 07184 07020 12868 80431 10110 20060 30123 40140 53007 60006 8807/ 91800 333 10114 20088=
07020,1996-05-08 00:00:00,9,1016.2,0.6,71,4,0,64.82,,,30,,,,,,,,,,,wg-a,,,,AAXX 08004 07020 12/// /0335 10090 20040 30145 40162 53006 60006 90000=
07020,1996-05-08 06:00:00,8,1018.8,1.6,76,4,16000,61.116,,83.34,30,7.4,11,,,,,,,,,wg-a,,,,AAXX 08064 07020 12566 30333 10080 20040 30171 40188 53016 60006 8253/ 90600 333 10110 20074 91045=
07020,1996-05-08 12:00:00,10,1021.4,0.7,66,4,20000,53.708,,,30,,,,,,,,,,,wg-a,,,,AAXX 08124 07020 12/70 00329 10100 20040 30197 40214 51007 60006 80000 91200=
07020,1996-05-08 18:00:00,11,1021.7,0.1,76,7,500,31.484,,,40,7.4,12.4,,,,,,,,,wg-a,,,,AAXX 08184 07020 12/00 00417 10110 20070 30200 40217 53001 60006 80000 91800 333 10124 20074=
07020,1996-05-09 00:00:00,9,1024.1,0.2,66,3,0,53.708,,,40,,,,,,,,,,,wg-a,,,,AAXX 09004 07020 12/// /0429 10090 20030 30224 40241 51002 60006 90000=
07020,1996-05-09 06:00:00,7,1023.8,0.2,76,3,500,53.708,,,40,6.6,11.2,,,,,,,,,wg-a,,,,AAXX 09064 07020 12400 60429 10070 20030 30221 40238 53002 60006 86500 90600 333 10112 20066=
07020,1996-05-09 12:00:00,10,1023,-0.9,66,4,24000,42.596,,,30,,,,,,,,,,,wg-a,,,,AAXX 09124 07020 12674 60323 10100 20040 30213 40230 58009 60006 83801 91200=
07020,1996-05-09 18:00:00,11,1021,-1.4,66,5,24000,29.632,,,40,6.8,12.6,,,,,,,,,wg-a,,,,AAXX 09184 07020 12674 40416 10110 20050 30193 40210 56014 60006 81131 91800 333 10126 20068=
07020,1996-05-10 00:00:00,8,1020.5,-0.3,71,3,0,46.3,,,20,,,,,,,,,,,wg-a,,,,AAXX 10004 07020 12/// /0225 10080 20030 30188 40205 58003 60006 90000=
07020,1996-05-10 06:00:00,7,1018,-1.3,76,3,24000,35.188,,,30,6.7,10.6,,,,,,,,,wg-a,,,,AAXX 10064 07020 12674 70319 10070 20030 30163 40180 56013 60006 878// 90600 333 10106 20067=
07020,1996-05-10 12:00:00,10,1016.8,-1.1,66,4,24000,35.188,,,40,,,,,,,,,,,wg-a,,,,AAXX 10124 07020 12574 30419 10100 20040 30151 40168 58011 60006 83400 91200=
07020,1996-05-10 18:00:00,10,1014.8,-0.7,71,5,500,29.632,,,40,6.9,12.5,,,,,,,,,wg-a,,,,AAXX 10184 07020 12600 30416 10100 20050 30131 40148 56007 60006 82450 91800 333 10125 20069=
07020,1996-05-11 00:00:00,8,1015.8,0,81,5,0,29.632,,,50,,,,,,,,,,,wg-a,,,,AAXX 11004 07020 12/// /0516 10080 20050 30141 40158 50000 60006 90000=
07020,1996-05-11 06:00:00,8,1015.8,0.5,81,5,24000,29.632,,,30,7.7,10,,,,,,,,,wg-a,,,,AAXX 11064 07020 12574 50316 10080 20050 30141 40158 53005 60006 84490 90600 333 10100 20077=
07020,1996-05-11 12:00:00,10,1017.2,0.3,62,3,24000,22.224,,,30,,,,,,,,,,,wg-a,,,,AAXX 11124 07020 12674 50312 10100 20030 30155 40172 53003 60006 84102 91200=
07020,1996-05-11 18:00:00,11,1017.2,0.2,62,4,24000,18.52,,,20,7.9,11.4,,,,,,,,,wg-a,,,,AAXX 11184 07020 12/74 40210 10110 20040 30155 40172 53002 60006 80002 91800 333 10114 20079=
07020,1996-05-12 00:00:00,9,1018.6,0,81,6,0,18.52,,,330,,,,,,,,,,,wg-a,,,,AAXX 12004 07020 12/// /3310 10090 20060 30169 40186 50000 60006 90000=
07020,1996-05-12 06:00:00,9,1020.4,1.4,87,7,8000,11.112,,,360,8.8,10.9,,,,,,,,,wg-a,,,,AAXX 12064 07020 12858 73606 10090 20070 30187 40204 53014 60006 8707/ 90600 333 10109 20088=
07020,1996-05-12 12:00:00,13,1022.7,0.8,72,8,8000,25.928,,,280,,,,,,,,,,,wg-a,,,,AAXX 12124 07020 12858 32814 10130 20080 30210 40227 52008 60006 8307/ 91200=
07020,1996-05-12 18:00:00,12,1024.7,0.7,76,8,10000,18.52,,,270,9.2,13.6,,,,,,,,,wg-a,,,,AAXX 12184 07020 12/60 02710 10120 20080 30230 40247 51007 60006 80000 91800 333 10136 20092=
07020,1996-05-13 00:00:00,9,1026.3,0.4,87,7,0,7.408,,,260,,,,,,,,,,,wg-a,,,,AAXX 13004 07020 12/// /2604 10090 20070 30246 40263 51004 60006 90000=
07020,1996-05-13 06:00:00,8,1026.6,0.2,93,7,15000,7.408,,,200,5.9,11.7,,,,,,,,,wg-a,,,,AAXX 13064 07020 12/65 02004 10080 20070 30249 40266 53002 60006 80000 90600 333 10117 20059=
07020,1996-05-13 12:00:00,13,1027,-0.1,72,8,20000,11.112,,,10,,,,,,,,,,,wg-a,,,,AAXX 13124 07020 12/70 30106 10130 20080 30253 40270 56001 60006 80008 91200=
07020,1996-05-13 18:00:00,12,1025.5,-0.4,82,9,14000,11.112,,,320,7.8,13.8,,,,,,,,,wg-a,,,,AAXX 13184 07020 32/64 33206 10120 20090 30238 40255 56004 81028 91800 333 10138 20078=
07020,1996-05-14 00:00:00,9,1024.4,-1.1,76,5,0,3.704,,,130,,,,,,,,,,,wg-a,,,,AAXX 14004 07020 12/// /1302 10090 20050 30227 40244 58011 60006 90000=
07020,1996-05-14 06:00:00,9,1022.7,-0.7,93,8,12000,11.112,,,60,7.5,12.1,,,,,,,,,wg-a,,,,AAXX 14064 07020 12/62 50606 10090 20080 30210 40227 56007 60006 82028 90600 333 10121 20075=
07020,1996-05-14 12:00:00,12,1022,-0.8,71,7,10000,29.632,,,40,,,,,,,,,,,wg-a,,,,AAXX 14124 07020 12560 30416 10120 20070 30203 40220 56008 60006 82204 91200=
07020,1996-05-14 18:00:00,11,1020.4,-0.3,76,7,500,31.484,,,60,9.1,12.8,,,,,,,,,wg-a,,,,AAXX 14184 07020 12800 30617 10110 20070 30187 40204 55003 60006 83031 91800 333 10128 20091=
07020,1996-05-15 00:00:00,10,1018.8,-1.1,93,9,0,42.596,,,50,,,,,,,,,,,wg-a,,,,AAXX 15004 07020 12/// /0523 10100 20090 30171 40188 57011 60006 90000=
07020,1996-05-15 06:00:00,10,1017.8,0.3,76,6,20000,50.004,,,50,9.3,10.9,,,,,,,,,wg-a,,,,AAXX 15064 07020 12670 70527 10100 20060 30161 40178 53003 60006 8553/ 90600 333 10109 20093=
07020,1996-05-15 12:00:00,12,1017.9,-0.4,71,7,24000,46.3,,,50,,,,,,,,,,,wg-a,,,,AAXX 15124 07020 12/74 10525 10120 20070 30162 40179 57004 60006 81030 91200=
07020,1996-05-15 18:00:00,12,1016.8,-0.4,67,6,24000,42.596,,,60,9.4,12.3,,,,,,,,,wg-a,,,,AAXX 15184 07020 12/74 10623 10120 20060 30151 40168 56004 60006 81030 91800 333 10123 20094=
07020,1996-05-16 00:00:00,9,1017.2,-0.1,76,5,0,50.004,,,50,,,,,,,,,,,wg-a,,,,AAXX 16004 07020 12/// /0527 10090 20050 30155 40172 58001 60006 90000=
07020,1996-05-16 06:00:00,9,1014.6,-0.9,76,5,16000,53.708,,,50,8,11.7,,,,,,,,,wg-a,,,,AAXX 16064 07020 12566 80529 10090 20050 30129 40146 58009 60006 8657/ 90600 333 10117 20080=
07020,1996-05-16 12:00:00,8,1010.9,-1.8,81,5,16000,57.412,,,50,,,,0,,,,,,63,wg-a,,,,AAXX 16124 07020 02566 80531 10080 20050 30092 40109 56018 60006 76366 8482/ 91200 333 60007=
07020,1996-05-16 18:00:00,7,1007.5,-0.9,87,5,6000,61.116,,,40,6.7,8.9,,3,,,,,,65,wg-a,,,,AAXX 16184 07020 12556 80433 10070 20050 30058 40075 58009 60037 76566 8482/ 91800 333 10089 20067=
07020,1996-05-17 00:00:00,6,1007.3,-0.6,93,5,0,42.596,,,30,,,,,,,,,,,wg-a,,,,AAXX 17004 07020 12/// /0323 10060 20050 30056 40073 56006 60026 90000=
07020,1996-05-17 06:00:00,7,1006.3,-0.2,87,5,12000,38.892,,,40,5.8,7.1,,,,,,,,60,wg-a,,,,AAXX 17064 07020 02562 80421 10070 20050 30046 40063 58002 61000 76066 885// 90600 333 10071 20058 ////=
07020,1996-05-17 12:00:00,7,1006.4,0.2,93,6,6000,35.188,,,40,,,,,,,,,,61,wg-a,,,,AAXX 17124 07020 02456 80419 10070 20060 30047 40064 51002 61000 76166 8772/ 91200 333 6100=
07020,1996-05-17 18:00:00,8,1005.8,-0.3,93,7,8000,35.188,,,40,6.5,8.3,,0,,,,,,60,wg-a,,,,AAXX 17184 07020 12458 80419 10080 20070 30041 40058 58003 60007 76066 8772/ 91800 333 10083 20065=
07020,1996-05-18 00:00:00,8,1004.4,-1.3,93,7,0,46.3,,,50,,,,2,,,,,,,wg-a,,,,AAXX 18004 07020 02/// /0525 10080 20070 30027 40044 58013 60026 90000 333 60027=
07020,1996-05-18 06:00:00,8,1001.3,-1.2,93,7,4000,53.708,,,40,7.4,8.3,,1,,,,,,61,wg-a,,,,AAXX 18064 07020 12440 80429 10080 20070 39996 40013 56012 60017 761// 8772/ 90600 333 10083 20074=
07020,1996-05-18 12:00:00,9,999.9,-0.8,93,8,6000,42.596,,,30,,,,0,,,,,,61,wg-a,,,,AAXX 18124 07020 02556 80323 10090 20080 39982 49999 57008 60016 76166 8472/ 91200 333 60007=
07020,1996-05-18 18:00:00,9,995.5,-2.6,93,8,4000,46.3,,,50,7.5,8.9,,5,,,,,,65,wg-a,,,,AAXX 18184 07020 12540 80525 10090 20080 39938 49955 56026 60057 76566 8472/ 91800 333 10089 20075=
07020,1996-05-19 00:00:00,9,988.3,-3.7,93,8,0,61.116,,,150,,,,,,,,,,,wg-a,,,,AAXX 19004 07020 02/// /1533 10090 20080 39866 49883 58037 60176 90000 333 61000=
07020,1996-05-19 06:00:00,8,996,2.2,81,5,20000,72.228,,111.12,220,6.2,11.1,,,,,,,,,wg-a,,,,AAXX 19064 07020 02570 72239 10080 20050 39943 49960 53022 61000 8652/ 90600 333 10111 20062 //// 91060=
07020,1996-05-19 12:00:00,11,1002.4,2.7,71,6,24000,53.708,,94.452,210,,,,,,,,,,,wg-a,,,,AAXX 19124 07020 12574 72129 10110 20060 30007 40024 53027 60006 8582/ 91200 333 91051=
07020,1996-05-19 18:00:00,11,1006.2,2.2,71,6,500,35.188,,68.524,230,7.6,12.2,,,,,,,,,wg-a,,,,AAXX 19184 07020 12600 72319 10110 20060 30045 40062 53022 60006 8221/ 91800 333 10122 20076 91037=
07020,1996-05-20 00:00:00,9,1009.6,1.1,81,6,0,25.928,,,220,,,,,,,,,,,wg-a,,,,AAXX 20004 07020 12/// /2214 10090 20060 30079 40096 53011 60006 90000=
07020,1996-05-20 06:00:00,10,1012.7,1.7,82,7,24000,25.928,,,200,8.3,10.5,,,,,,,,,wg-a,,,,AAXX 20064 07020 12674 22014 10100 20070 30110 40127 53017 60006 82200 90600 333 10105 20083=
07020,1996-05-20 12:00:00,13,1015.2,0.7,77,9,24000,22.224,,,220,,,,,,,,,,,wg-a,,,,AAXX 20124 07020 12674 32212 10130 20090 30135 40152 51007 60006 82201 91200=
07020,1996-05-20 18:00:00,12,1015.5,-0.1,67,6,500,22.224,,,180,9.5,13.7,,,,,,,,,wg-a,,,,AAXX 20184 07020 12/00 21812 10120 20060 30138 40155 58001 60006 80001 91800 333 10137 20095=
07020,1996-05-21 00:00:00,10,1015.9,0.1,87,8,0,29.632,,,220,,,,0,,,,,,,wg-a,,,,AAXX 21004 07020 02/// /2216 10100 20080 30142 40159 53001 60016 90000 333 60007=
07020,1996-05-21 06:00:00,10,1017.6,1.5,82,7,500,18.52,,,240,8.7,,,,,,,,,,wg-a,,,,AAXX 21064 07020 32600 12410 10100 20070 30159 40176 53015 81200 90600 333 20087=
07020,1996-05-21 12:00:00,12,1021.2,1.7,76,8,500,29.632,,,230,,,,0,,,,,,2,wg-a,,,,AAXX 21124 07020 02600 22316 10120 20080 30195 40212 51017 60006 70280 82200 91200 333 60007=
07020,1996-05-21 18:00:00,12,1023,0.9,82,9,500,25.928,,,230,9.8,14.2,,,,,,,,,wg-a,,,,AAXX 21184 07020 32800 72314 10120 20090 30213 40230 53009 8707/ 91800 333 10142 20098=
07020,1996-05-22 00:00:00,11,1023.3,-0.2,87,9,0,25.928,,,180,,,,,,,,,,,wg-a,,,,AAXX 22004 07020 12/// /1814 10110 20090 30216 40233 58002 60006 90000=
07020,1996-05-22 06:00:00,11,1020.3,-1.5,87,9,16000,38.892,,,170,10.4,11.6,,,,,,,,,wg-a,,,,AAXX 22064 07020 12466 81721 10110 20090 30186 40203 56015 60006 8172/ 90600 333 10116 20104=
07020,1996-05-22 12:00:00,11,1016.6,-2.3,94,10,0,53.708,,,170,,,,,,,,,,,wg-a,,,,AAXX 22124 07020 12/// /1729 10110 20100 30149 40166 58023 60036 91200=
07020,1996-05-22 18:00:00,12,1013.4,-0.6,94,11,3000,42.596,,83.34,210,10.9,12,,1,,,,,,60,wg-a,,,,AAXX 22184 07020 12430 82123 10120 20110 30117 40134 55006 60017 76062 886// 91800 333 10120 20109 91045=
07020,1996-05-23 00:00:00,11,1015.1,0.7,94,10,0,46.3,,,220,,,,,,,,,,,wg-a,,,,AAXX 23004 07020 02/// /2225 10110 20100 30134 40151 51007 60006 90000 333 61000=
07020,1996-05-23 06:00:00,11,1017.1,1.1,94,10,3000,31.484,,,230,10.6,11.6,,,,,,,,10,wg-a,,,,AAXX 23064 07020 02430 82317 10110 20100 30154 40171 53011 61000 710// 886// 90600 333 10116 20106 ////=
07020,1996-05-23 12:00:00,12,1017.9,-0.2,94,11,1000,25.928,,,190,,,,,,,,,,10,wg-a,,,,AAXX 23124 07020 12210 81914 10120 20110 30162 40179 58002 60006 71022 8462/ 91200=
07020,1996-05-23 18:00:00,12,1016.1,-1.1,94,11,14000,29.632,,,210,11,14.2,,,,,,,,2,wg-a,,,,AAXX 23184 07020 32864 82116 10120 20110 30144 40161 58011 70262 8807/ 91800 333 10142 20110=
07020,1996-05-24 00:00:00,11,1014.3,-1.1,94,10,0,35.188,,,180,,,,,,,,,,,wg-a,,,,AAXX 24004 07020 12/// /1819 10110 20100 30126 40143 58011 60006 90000=
07020,1996-05-24 06:00:00,12,1010.8,-1.5,88,10,14000,38.892,,,180,11.2,12.6,,,,,,,,,wg-a,,,,AAXX 24064 07020 12864 81821 10120 20100 30091 40108 56015 60006 8807/ 90600 333 10126 20112=
07020,1996-05-24 12:00:00,12,1009.3,-0.2,100,12,4000,35.188,,,180,,,,2,,,,,,61,wg-a,,,,AAXX 24124 07020 02440 81819 10120 20120 30076 40093 58002 60026 76162 8802/ 91200 333 60027=
07020,1996-05-24 18:00:00,12,1007.9,-0.5,100,12,10000,38.892,,,210,11.6,12.4,,2,,,,,,21,wg-a,,,,AAXX 24184 07020 12460 82121 10120 20120 30062 40079 56005 60027 72162 8462/ 91800 333 10124 20116=
07020,1996-05-25 00:00:00,11,1007.9,-0.2,94,10,0,25.928,,,250,,,,,,,,,,,wg-a,,,,AAXX 25004 07020 12/// /2514 10110 20100 30062 40079 57002 60036 90000=
07020,1996-05-25 06:00:00,10,1009.6,1,93,9,20000,18.52,,,260,9.7,12,,,,,,,,,wg-a,,,,AAXX 25064 07020 32570 82610 10100 20090 30079 40096 51010 8247/ 90600 333 10120 20097=
07020,1996-05-25 12:00:00,14,1011.5,1.1,88,12,20000,22.224,,,210,,,,,,,,,,,wg-a,,,,AAXX 25124 07020 12570 32112 10140 20120 30098 40115 53011 60006 82170 91200=
07020,1996-05-25 18:00:00,13,1013.5,1.3,82,10,20000,11.112,,,230,10.2,14.6,,,,,,,,,wg-a,,,,AAXX 25184 07020 12/70 32306 10130 20100 30118 40135 51013 60006 80004 91800 333 10146 20102=
07020,1996-05-26 00:00:00,10,1015.8,0.5,93,9,0,22.224,,,210,,,,,,,,,,,wg-a,,,,AAXX 26004 07020 12/// /2112 10100 20090 30141 40158 53005 60006 90000=
07020,1996-05-26 06:00:00,11,1015,-0.5,94,10,2000,25.928,,,180,9.5,12.8,,0,,,,,,,wg-a,,,,AAXX 26064 07020 12420 71814 10110 20100 30133 40150 58005 60007 8267/ 90600 333 10128 20095=
07020,1996-05-26 12:00:00,12,1012.7,-1.3,94,11,4000,42.596,,,190,,,,0,,,,,,63,wg-a,,,,AAXX 26124 07020 02440 81923 10120 20110 30110 40127 56013 60016 76366 8472/ 91200 333 60007=
07020,1996-05-26 18:00:00,12,1011.4,-0.8,94,11,4000,50.004,,,220,10.8,12.2,,,,,,,,21,wg-a,,,,AAXX 26184 07020 02340 82227 10120 20110 30097 40114 58008 61000 72166 8472/ 91800 333 10122 20108 ////=
07020,1996-05-27 00:00:00,11,1010.3,-0.8,100,11,0,46.3,,,230,,,,1,,,,,,,wg-a,,,,AAXX 27004 07020 02/// /2325 10110 20110 30086 40103 56008 60016 90000 333 60017=
07020,1996-05-27 06:00:00,12,1011,1.4,88,10,10000,38.892,,,250,11.1,11.9,,,,,,,,60,wg-a,,,,AAXX 27064 07020 02460 82521 10120 20100 30093 40110 53014 61000 76066 8662/ 90600 333 10119 20111 ////=
07020,1996-05-27 12:00:00,13,1016.1,2.8,82,10,18000,29.632,,57.412,250,,,,,,,,,,1,wg-a,,,,AAXX 27124 07020 02768 42516 10130 20100 30144 40161 51028 61000 70161 84500 91200 333 //// 91031=
07020,1996-05-27 18:00:00,13,1021,2.8,88,11,18000,25.928,,,290,11.6,13.5,,,,,,,,,wg-a,,,,AAXX 27184 07020 32668 42914 10130 20110 30193 40210 52028 84500 91800 333 10135 20116=
07020,1996-05-28 00:00:00,10,1025.1,1.4,87,8,0,3.704,,,90,,,,,,,,,,,wg-a,,,,AAXX 28004 07020 12/// /0902 10100 20080 30234 40251 51014 60006 90000=
07020,1996-05-28 06:00:00,12,1025.8,0.6,88,10,16000,29.632,,,170,8.4,13.4,,,,,,,,,wg-a,,,,AAXX 28064 07020 12866 61716 10120 20100 30241 40258 51006 60006 86070 90600 333 10134 20084=
07020,1996-05-28 12:00:00,12,1026.5,-0,94,11,1200,18.52,,,190,,,,,,,,,,10,wg-a,,,,AAXX 28124 07020 12212 81910 10120 20110 30248 40265 55000 60006 71042 8/62/ 91200=
07020,1996-05-28 18:00:00,13,1023.7,-1.4,88,11,10000,18.52,,,190,10.7,14.1,,,,,,,,,wg-a,,,,AAXX 28184 07020 12860 61910 10130 20110 30220 40237 58014 60006 8607/ 91800 333 10141 20107=
07020,1996-05-29 00:00:00,12,1023.5,-0.1,94,11,0,22.224,,,200,,,,,,,,,,,wg-a,,,,AAXX 29004 07020 12/// /2012 10120 20110 30218 40235 58001 60006 90000=
07020,1996-05-29 06:00:00,12,1022.3,-0,100,12,200,29.632,,,180,11.5,13.2,,0,,,,,,51,wg-a,,,,AAXX 29064 07020 12/02 91816 10120 20120 30206 40223 55000 60007 751// 89/// 90600 333 10132 20115=
07020,1996-05-29 12:00:00,15,1023.1,0.2,88,13,2000,25.928,,,190,,,,,,,,,,10,wg-a,,,,AAXX 29124 07020 02320 81914 10150 20130 30214 40231 52002 61000 71022 8662/ 91200 333 ////=
07020,1996-05-29 18:00:00,15,1021.7,-0.1,82,12,2000,3.704,,,250,12,17.6,,,,,,,,10,wg-a,,,,AAXX 29184 07020 32820 52502 10150 20120 30200 40217 58001 71022 82071 91800 333 10176 20120=
07020,1996-05-30 00:00:00,11,1019.4,-1.6,100,11,0,7.408,,,70,,,,,,,,,,,wg-a,,,,AAXX 30004 07020 12/// /0704 10110 20110 30177 40194 58016 60006 90000=
07020,1996-05-30 06:00:00,12,1015.9,-1.3,100,12,3000,0,,,0,10.3,14.6,,0,,,,,,,wg-a,,,,AAXX 30064 07020 12830 40000 10120 20120 30142 40159 56013 60007 82071 90600 333 10146 20103=
07020,1996-05-30 12:00:00,24,1012.7,-1.7,57,15,12000,35.188,,57.412,160,,,,,,,,,,,wg-a,,,,AAXX 30124 07020 12/62 41619 10240 20150 30111 40127 57017 60006 80008 91200 333 91031=
07020,1996-05-30 18:00:00,20,1010.4,-0.1,60,12,50000,35.188,,90.748,200,11.8,25.3,,,,,,,,,wg-a,,,,AAXX 30184 07020 12884 32019 10200 20120 30088 40104 55001 60006 82085 91800 333 10253 20118 91049=
07020,1996-05-31 00:00:00,12,1014.7,1.8,94,11,0,29.632,,,220,,,,,,,,,,,wg-a,,,,AAXX 31004 07020 12/// /2216 10120 20110 30130 40147 53018 60006 90000=
07020,1996-05-31 06:00:00,12,1018.8,2.6,94,11,8000,31.484,,,210,11.4,18.8,,,,,,,,,wg-a,,,,AAXX 31064 07020 12458 62117 10120 20110 30171 40188 53026 60006 8267/ 90600 333 10188 20114=
07020,1996-05-31 12:00:00,15,1022.3,1.1,82,12,12000,31.484,,,200,,,,,,,,,,,wg-a,,,,AAXX 31124 07020 12462 52017 10150 20120 30206 40223 51011 60006 82405 91200=
07020,1996-05-31 18:00:00,13,1021.8,-0.2,82,10,14000,25.928,,,210,11.7,15.3,,,,,,,,,wg-a,,,,AAXX 31184 07020 12/64 62114 10130 20100 30201 40218 55002 60006 80006 91800 333 10153 20117=
07020,1996-06-01 00:00:00,11,1021.9,-0.3,94,10,0,25.928,,,220,,,,,,,,,,,wg-a,,,,AAXX 01004 07020 12/// /2214 10110 20100 30202 40219 58003 60006 90000=
07020,1996-06-01 06:00:00,11,1021.2,0.3,94,10,12000,31.484,,,210,10.5,13.1,,,,,,,,,wg-a,,,,AAXX 01064 07020 12462 62117 10110 20100 30195 40212 52003 60006 8267/ 90600 333 10131 20105=
07020,1996-06-01 12:00:00,15,1022.5,0.5,77,11,16000,29.632,,,220,,,,,,,,,,,wg-a,,,,AAXX 01124 07020 12566 22216 10150 20110 30208 40225 53005 60006 82200 91200=
07020,1996-06-01 18:00:00,13,1021.8,-0.3,82,10,16000,25.928,,,220,11.2,15.4,,,,,,,,,wg-a,,,,AAXX 01184 07020 12666 12214 10130 20100 30201 40218 58003 60006 81100 91800 333 10154 20112=
07020,1996-06-02 00:00:00,10,1020.5,-1.1,93,9,0,11.112,,,220,,,,,,,,,,,wg-a,,,,AAXX 02004 07020 12/// /2206 10100 20090 30188 40205 56011 60006 90000=
07020,1996-06-02 06:00:00,11,1019.5,0.2,94,10,16000,7.408,,,230,9.2,12.7,,,,,,,,,wg-a,,,,AAXX 02064 07020 32/66 82304 10110 20100 30178 40195 52002 88070 90600 333 10127 20092=
07020,1996-06-02 12:00:00,13,1019.9,0.1,88,11,12000,11.112,,,330,,,,,,,,,,,wg-a,,,,AAXX 02124 07020 12562 63306 10130 20110 30182 40199 50001 60006 82371 91200=
07020,1996-06-02 18:00:00,15,1020.3,0.5,72,10,24000,11.112,,,290,10.8,15.5,,,,,,,,,wg-a,,,,AAXX 02184 07020 12/74 02906 10150 20100 30186 40203 53005 60006 80000 91800 333 10155 20108=
07020,1996-06-03 00:00:00,8,1021,-0.6,93,7,0,14.816,,,190,,,,,,,,,,,wg-a,,,,AAXX 03004 07020 12/// /1908 10080 20070 30193 40210 58006 60006 90000=
07020,1996-06-03 06:00:00,11,1022.2,1.1,94,10,16000,14.816,,,190,7.8,14.5,,0,,,,,,,wg-a,,,,AAXX 03064 07020 12366 21908 10110 20100 30205 40222 53011 60007 81670 90600 333 10145 20078=
07020,1996-06-03 12:00:00,15,1023.1,0.1,82,12,40000,22.224,,,200,,,,,,,,,,,wg-a,,,,AAXX 03124 07020 12/82 32012 10150 20120 30214 40231 51001 60006 81038 91200=
07020,1996-06-03 18:00:00,13,1023.1,0.3,82,10,20000,14.816,,,200,10.9,16.1,,0,,,,,,,wg-a,,,,AAXX 03184 07020 12/70 82008 10130 20100 30214 40231 53003 60007 88070 91800 333 10161 20109=
07020,1996-06-04 00:00:00,12,1024.6,0.9,94,11,0,18.52,,,210,,,,,,,,,,,wg-a,,,,AAXX 04004 07020 12/// /2110 10120 20110 30229 40246 53009 60006 90000=
07020,1996-06-04 06:00:00,12,1026.2,1.3,100,12,2000,22.224,,,200,12.1,13.3,,,,,,,,51,wg-a,,,,AAXX 04064 07020 02420 82012 10120 20120 30245 40262 52013 61000 751// 8472/ 90600 333 10133 20121 ////=
07020,1996-06-04 12:00:00,15,1028,0.5,88,13,2000,11.112,,,220,,,,,,,,,,28,wg-a,,,,AAXX 04124 07020 02320 82206 10150 20130 30263 40280 51005 61000 72822 886// 91200 333 6100=
07020,1996-06-04 18:00:00,15,1027.2,-0.3,82,12,12000,14.816,,,70,12.2,16.9,,,,,,,,,wg-a,,,,AAXX 04184 07020 32362 10708 10150 20120 30255 40272 58003 81600 91800 333 10169 20122=
07020,1996-06-05 00:00:00,12,1025.9,-1.2,94,11,0,18.52,,,80,,,,,,,,,,,wg-a,,,,AAXX 05004 07020 12/// /0810 10120 20110 30242 40259 58012 60006 90000=
07020,1996-06-05 06:00:00,14,1024.2,-0.2,94,13,14000,11.112,,,90,11.4,15.3,,,,,,,,,wg-a,,,,AAXX 05064 07020 12864 10906 10140 20130 30225 40242 57002 60006 81070 90600 333 10153 20114=
07020,1996-06-05 12:00:00,24,1023,-0.8,50,13,20000,18.52,,,170,,,,,,,,,,,wg-a,,,,AAXX 05124 07020 12/70 21710 10240 20130 30214 40230 58008 60006 80001 91200=
07020,1996-06-06 06:00:00,21,1017.5,-0.1,64,14,12000,22.224,,,160,13,20.7,,,,,,,,,wg-a,,,,AAXX 06064 07020 12/62 41612 10210 20140 30159 40175 56001 60006 80001 90600 333 10207 20130=
07020,1996-06-06 12:00:00,20,1017.4,-0.2,64,13,14000,7.408,,,220,,,,,,,,,,,wg-a,,,,AAXX 06124 07020 12/64 32204 10200 20130 30158 40174 56002 60006 80004 91200=
07020,1996-06-06 18:00:00,18,1015.6,-1.1,73,13,6000,14.816,,,60,17.1,25.8,,,,,,,,,wg-a,,,,AAXX 06184 07020 12/56 00608 10180 20130 30139 40156 56011 60006 80000 91800 333 10258 20171=
07020,1996-06-07 00:00:00,13,1015.5,0,88,11,0,14.816,,,220,,,,,,,,,,,wg-a,,,,AAXX 07004 07020 12/// /2208 10130 20110 30138 40155 50000 60006 90000=
07020,1996-06-07 06:00:00,14,1015.3,0.5,88,12,6000,14.816,,,210,11.9,19.7,,,,,,,,,wg-a,,,,AAXX 07064 07020 12/56 02108 10140 20120 30136 40153 53005 60006 80000 90600 333 10197 20119=
07020,1996-06-07 12:00:00,19,1015.6,-0.4,73,14,6000,25.928,,,70,,,,,,,,,,,wg-a,,,,AAXX 07124 07020 12856 10714 10190 20140 30140 40156 58004 60006 81040 91200=
07020,1996-06-07 18:00:00,20,1011.3,-2.1,68,14,10000,22.224,,,80,13.4,22.4,,,,,,,,,wg-a,,,,AAXX 07184 07020 12760 30812 10200 20140 30097 40113 56021 60006 81280 91800 333 10224 20134=
07020,1996-06-08 00:00:00,13,1013.5,1.4,88,11,0,31.484,,,330,,,,,,,,,,,wg-a,,,,AAXX 08004 07020 12/// /3317 10130 20110 30118 40135 50014 60006 90000=
07020,1996-06-08 06:00:00,13,1019.3,3.7,82,10,22000,18.52,,,270,12.3,19.5,,,,,,,,,wg-a,,,,AAXX 08064 07020 12/72 82710 10130 20100 30176 40193 53037 60006 8802/ 90600 333 10195 20123=
07020,1996-06-08 12:00:00,13,1021.9,2.4,82,10,20000,18.52,,,270,,,,,,,,,,2,wg-a,,,,AAXX 08124 07020 02870 82710 10130 20100 30202 40219 51024 61000 70262 8802/ 91200 333 6100=
07020,1996-06-08 18:00:00,15,1022.6,0.5,77,11,20000,11.112,,,230,12,14.6,,,,,,,,,wg-a,,,,AAXX 08184 07020 32870 32306 10150 20110 30209 40226 53005 83080 91800 333 10146 20120=
07020,1996-06-09 00:00:00,10,1023.1,-0.1,100,10,0,18.52,,,200,,,,,,,,,,,wg-a,,,,AAXX 09004 07020 12/// /2010 10100 20100 30214 40231 57001 60006 90000=
07020,1996-06-09 06:00:00,12,1022,-0.4,94,11,22000,14.816,,,190,9.8,14.8,,,,,,,,,wg-a,,,,AAXX 09064 07020 32472 31908 10120 20110 30203 40220 58004 81601 90600 333 10148 20098=
07020,1996-06-09 12:00:00,17,1022.1,-0.1,68,11,18000,25.928,,,190,,,,,,,,,,,wg-a,,,,AAXX 09124 07020 12/68 51914 10170 20110 30204 40221 57001 60006 83075 91200=
07020,1996-06-09 18:00:00,16,1020.7,-0.9,63,9,26000,3.704,,,50,11.6,18,,,,,,,,,wg-a,,,,AAXX 09184 07020 12/76 20502 10160 20090 30190 40207 56009 60006 81031 91800 333 10180 20116=
07020,1996-06-10 00:00:00,12,1020.1,-0.6,94,11,0,11.112,,,40,,,,,,,,,,,wg-a,,,,AAXX 10004 07020 12/// /0406 10120 20110 30184 40201 56006 60006 90000=
07020,1996-06-10 06:00:00,14,1020.3,0.9,88,12,16000,18.52,,,190,10,16.2,,,,,,,,,wg-a,,,,AAXX 10064 07020 12/66 51910 10140 20120 30186 40203 53009 60006 82075 90600 333 10162 20100=
07020,1996-06-10 12:00:00,16,1021.8,0.8,77,12,14000,29.632,,,190,,,,,,,,,,,wg-a,,,,AAXX 10124 07020 12/64 81916 10160 20120 30201 40218 53008 60006 8807/ 91200=
07020,1996-06-10 18:00:00,16,1022,0.5,82,13,10000,22.224,,,220,13.8,17.6,,,,,,,,,wg-a,,,,AAXX 10184 07020 12560 72212 10160 20130 30203 40220 53005 60006 82578 91800 333 10176 20138=
07020,1996-06-11 00:00:00,11,1023,0.1,100,11,0,7.408,,,190,,,,,,,,,,,wg-a,,,,AAXX 11004 07020 12/// /1904 10110 20110 30213 40230 50001 60006 90000=
07020,1996-06-11 06:00:00,15,1022.5,-0.5,94,14,6000,25.928,,,170,10.3,16.3,,,,,,,,,wg-a,,,,AAXX 11064 07020 32556 41714 10150 20140 30208 40225 58005 82630 90600 333 10163 20103=
07020,1996-06-11 12:00:00,21,1022.6,-0,69,15,10000,35.188,,,180,,,,,,,,,,,wg-a,,,,AAXX 11124 07020 12/60 21819 10210 20150 30210 40226 55000 60006 82030 91200=
07020,1996-06-11 18:00:00,15,1022.7,-0.2,88,13,28000,25.928,,,210,15,21.8,,,,,,,,,wg-a,,,,AAXX 11184 07020 12778 72114 10150 20130 30210 40227 56002 60006 86830 91800 333 10218 20150=
07020,1996-06-12 00:00:00,13,1025.8,1.5,100,13,0,29.632,,,220,,,,,,,,,,,wg-a,,,,AAXX 12004 07020 12/// /2216 10130 20130 30241 40258 51015 60006 90000=
07020,1996-06-12 06:00:00,13,1028.9,2.1,88,11,18000,22.224,,,260,12.3,15.8,,,,,,,,,wg-a,,,,AAXX 12064 07020 12668 62612 10130 20110 30272 40289 53021 60006 86500 90600 333 10158 20123=
07020,1996-06-12 12:00:00,15,1032.4,1.4,82,12,16000,11.112,,,320,,,,,,,,,,,wg-a,,,,AAXX 12124 07020 12/66 13206 10150 20120 30307 40324 51014 60006 80001 91200=
07020,1996-06-12 18:00:00,15,1032.9,-0.1,77,11,40000,18.52,,,270,12.4,17.8,,,,,,,,,wg-a,,,,AAXX 12184 07020 12/82 02710 10150 20110 30312 40329 56001 60006 80000 91800 333 10178 20124=
07020,1996-06-13 06:00:00,12,1035,0.6,94,11,24000,14.816,,,70,10.8,15.5,,,,,,,,,wg-a,,,,AAXX 13064 07020 12/74 20708 10120 20110 30333 40350 53006 60006 80001 90600 333 10155 20108=
07020,1996-06-13 12:00:00,15,1036,0.4,77,11,22000,22.224,,,50,,,,,,,,,,,wg-a,,,,AAXX 13124 07020 12/72 00512 10150 20110 30343 40360 51004 60006 80000 91200=
07020,1996-06-13 18:00:00,15,1033.6,-0.8,77,11,500,14.816,,,60,12.4,16.4,,,,,,,,,wg-a,,,,AAXX 13184 07020 12/00 00608 10150 20110 30319 40336 56008 60006 80000 91800 333 10164 20124=
07020,1996-06-14 00:00:00,13,1033.4,-0.4,82,10,0,31.484,,,50,,,,,,,,,,,wg-a,,,,AAXX 14004 07020 12/// /0517 10130 20100 30317 40334 58004 60006 90000=
07020,1996-06-14 06:00:00,12,1033.3,0.4,88,10,500,25.928,,,50,12.1,15,,,,,,,,,wg-a,,,,AAXX 14064 07020 12/00 10514 10120 20100 30316 40333 53004 60006 80005 90600 333 10150 20121=
07020,1996-06-14 12:00:00,14,1032.4,-0.9,82,11,24000,42.596,,,50,,,,,,,,,,,wg-a,,,,AAXX 14124 07020 12574 30523 10140 20110 30307 40324 58009 60006 82404 91200=
07020,1996-06-14 18:00:00,14,1030.2,-1.4,77,10,24000,31.484,,,50,12.4,15.2,,,,,,,,,wg-a,,,,AAXX 14184 07020 12/74 30517 10140 20100 30285 40302 56014 60006 80005 91800 333 10152 20124=
07020,1996-06-15 00:00:00,12,1030.3,0.1,82,9,0,29.632,,,80,,,,,,,,,,,wg-a,,,,AAXX 15004 07020 12/// /0816 10120 20090 30286 40303 53001 60006 90000=
07020,1996-06-15 06:00:00,12,1028.9,-0.2,94,11,14000,29.632,,,60,11.7,14.1,,,,,,,,15,wg-a,,,,AAXX 15064 07020 12464 70616 10120 20110 30272 40289 55002 60006 715// 875// 90600 333 10141 20117=
07020,1996-06-15 12:00:00,15,1027.2,-1.5,77,11,8000,46.3,,,60,,,,,,,,,,,wg-a,,,,AAXX 15124 07020 12558 60625 10150 20110 30255 40272 56015 60006 83605 91200=
07020,1996-06-15 18:00:00,15,1026.2,-0.9,77,11,14000,29.632,,,70,12.3,15.8,,,,,,,,,wg-a,,,,AAXX 15184 07020 12/64 30716 10150 20110 30245 40262 55009 60006 80008 91800 333 10158 20123=
07020,1996-06-16 00:00:00,13,1026,-0.2,77,9,0,29.632,,,70,,,,,,,,,,,wg-a,,,,AAXX 16004 07020 12/// /0716 10130 20090 30243 40260 56002 60006 90000=
07020,1996-06-16 06:00:00,13,1025.6,-0.2,94,12,8000,22.224,,,70,12.2,14.9,,,,,,,,,wg-a,,,,AAXX 16064 07020 12/58 50712 10130 20120 30239 40256 57002 60006 85010 90600 333 10149 20122=
07020,1996-06-16 12:00:00,15,1025.5,0.1,82,12,6000,31.484,,,60,,,,,,,,,,,wg-a,,,,AAXX 16124 07020 12/56 30617 10150 20120 30238 40255 53001 60006 83010 91200=
07020,1996-06-16 18:00:00,16,1023.1,-1.3,72,11,16000,22.224,,,70,12.9,17.2,,,,,,,,,wg-a,,,,AAXX 16184 07020 12/66 20712 10160 20110 30214 40231 56013 60006 80005 91800 333 10172 20129=
07020,1996-06-17 00:00:00,13,1022.1,-0.5,88,11,0,22.224,,,80,,,,,,,,,,,wg-a,,,,AAXX 17004 07020 12/// /0812 10130 20110 30204 40221 56005 60006 90000=
07020,1996-06-17 06:00:00,14,1020.6,-0.5,94,13,8000,11.112,,,70,11.4,16.2,,,,,,,,,wg-a,,,,AAXX 17064 07020 12/58 20706 10140 20130 30189 40206 56005 60006 80005 90600 333 10162 20114=
07020,1996-06-17 12:00:00,18,1020.3,-0.5,73,13,8000,11.112,,,50,,,,,,,,,,,wg-a,,,,AAXX 17124 07020 12558 60506 10180 20130 30186 40203 58005 60006 83606 91200=
07020,1996-06-17 18:00:00,21,1018.3,-0.8,53,11,6000,11.112,,,80,13.9,22.1,,,,,,,,,wg-a,,,,AAXX 17184 07020 12/56 50806 10210 20110 30167 40183 56008 60006 80005 91800 333 10221 20139=
07020,1996-06-18 00:00:00,13,1017.4,-0.3,94,12,0,11.112,,,240,,,,,,,,,,,wg-a,,,,AAXX 18004 07020 12/// /2406 10130 20120 30157 40174 58003 60006 90000=
07020,1996-06-18 06:00:00,14,1016.7,-0,88,12,4000,3.704,,,260,11.7,21.4,,,,,,,,,wg-a,,,,AAXX 18064 07020 12440 22602 10140 20120 30150 40167 55000 60006 82600 90600 333 10214 20117=
07020,1996-06-18 12:00:00,17,1017.6,0.3,77,13,6000,14.816,,,40,,,,,,,,,,,wg-a,,,,AAXX 18124 07020 12856 30408 10170 20130 30159 40176 51003 60006 82011 91200=
07020,1996-06-18 18:00:00,21,1016.1,-1.1,46,9,24000,14.816,,,80,13.4,21.2,,,,,,,,,wg-a,,,,AAXX 18184 07020 12874 20808 10210 20090 30145 40161 57011 60006 81081 91800 333 10212 20134=
07020,1996-06-19 00:00:00,12,1015.6,-0.4,82,9,0,7.408,,,70,,,,,,,,,,,wg-a,,,,AAXX 19004 07020 12/// /0704 10120 20090 30139 40156 57004 60006 90000=
07020,1996-06-19 12:00:00,19,1013.4,-0.6,64,12,16000,11.112,,,30,,,,,,,,,,,wg-a,,,,AAXX 19124 07020 12/66 40306 10190 20120 30118 40134 57006 60006 80005 91200=
07020,1996-06-19 18:00:00,14,1011.1,-1.1,88,12,0,7.408,,,250,13.8,19.9,,,,,,,,,wg-a,,,,AAXX 19184 07020 12/// /2504 10140 20120 30094 40111 58011 60006 91800 333 10199 20138=
07020,1996-06-20 00:00:00,14,1010.4,-0.7,94,13,0,18.52,,,210,,,,,,,,,,,wg-a,,,,AAXX 20004 07020 12/// /2110 10140 20130 30087 40104 56007 60046 90000=
07020,1996-06-20 06:00:00,13,1008.3,-0.5,100,13,500,22.224,,,210,13.1,14.2,,0,,,,,,51,wg-a,,,,AAXX 20064 07020 12/00 92112 10130 20130 30066 40083 55005 60007 75154 89/// 90600 333 10142 20131=
07020,1996-06-20 12:00:00,17,1009.4,0.5,82,14,12000,25.928,,,220,,,,,,,,,,1,wg-a,,,,AAXX 20124 07020 02362 42214 10170 20140 30077 40094 53005 61000 70154 81670 91200 333 ////=
07020,1996-06-20 18:00:00,15,1009.3,-0.3,88,13,12000,7.408,,,280,13.3,17.6,,,,,,,,,wg-a,,,,AAXX 20184 07020 32362 62804 10150 20130 30076 40093 58003 82630 91800 333 10176 20133=
07020,1996-06-21 00:00:00,13,1010,-0.3,94,12,0,18.52,,,50,,,,,,,,,,,wg-a,,,,AAXX 21004 07020 12/// /0510 10130 20120 30083 40100 57003 60006 90000=
07020,1996-06-21 06:00:00,12,1009.9,0.7,94,11,14000,25.928,,,50,11.5,15.3,,,,,,,,,wg-a,,,,AAXX 21064 07020 12464 70514 10120 20110 30082 40099 53007 60006 85630 90600 333 10153 20115=
07020,1996-06-21 12:00:00,15,1012,1.1,77,11,18000,22.224,,,40,,,,,,,,,,,wg-a,,,,AAXX 21124 07020 12568 20412 10150 20110 30103 40120 52011 60006 81220 91200=
07020,1996-06-21 18:00:00,14,1013,0.5,82,11,20000,7.408,,,10,12.1,17.7,,,,,,,,,wg-a,,,,AAXX 21184 07020 12870 60104 10140 20110 30113 40130 53005 60006 8/070 91800 333 10177 20121=
07020,1996-06-22 00:00:00,13,1015.7,1.1,88,11,0,7.408,,,250,,,,,,,,,,,wg-a,,,,AAXX 22004 07020 12/// /2504 10130 20110 30140 40157 51011 60006 90000=
07020,1996-06-22 06:00:00,13,1017.9,1.5,88,11,16000,18.52,,,50,12.3,14.6,,,,,,,,,wg-a,,,,AAXX 22064 07020 12566 50510 10130 20110 30162 40179 53015 60006 83260 90600 333 10146 20123=
07020,1996-06-22 12:00:00,18,1021.8,1.5,52,8,500,11.112,,,30,,,,,,,,,,,wg-a,,,,AAXX 22124 07020 12600 30306 10180 20080 30201 40218 53015 60006 81240 91200=
07020,1996-06-22 18:00:00,16,1022.6,0.4,63,9,500,18.52,,,270,12.9,18.2,,,,,,,,,wg-a,,,,AAXX 22184 07020 12800 52710 10160 20090 30209 40226 53004 60006 82034 91800 333 10182 20129=
07020,1996-06-23 00:00:00,13,1023.9,0.2,82,10,0,18.52,,,330,,,,,,,,,,,wg-a,,,,AAXX 23004 07020 12/// /3310 10130 20100 30222 40239 52002 60006 90000=
07020,1996-06-23 06:00:00,13,1025.3,1.3,82,10,24000,25.928,,,20,12.2,16.1,,,,,,,,,wg-a,,,,AAXX 23064 07020 12/74 00214 10130 20100 30236 40253 52013 60006 80000 90600 333 10161 20122=
07020,1996-06-23 12:00:00,17,1027.5,0.1,68,11,14000,14.816,,,20,,,,,,,,,,,wg-a,,,,AAXX 23124 07020 12564 30208 10170 20110 30258 40275 50001 60006 82201 91200=
07020,1996-06-23 18:00:00,15,1028.2,-0.2,82,12,14000,11.112,,,330,12.4,18.6,,,,,,,,,wg-a,,,,AAXX 23184 07020 12/64 13306 10150 20120 30265 40282 55002 60006 80001 91800 333 10186 20124=
07020,1996-06-24 00:00:00,13,1028.5,-0.1,94,12,0,22.224,,,270,,,,,,,,,,,wg-a,,,,AAXX 24004 07020 12/// /2712 10130 20120 30268 40285 58001 60006 90000=
07020,1996-06-24 06:00:00,13,1028.7,0.2,94,12,20000,11.112,,,10,12.9,16.2,,,,,,,,,wg-a,,,,AAXX 24064 07020 12/70 30106 10130 20120 30270 40287 51002 60006 80005 90600 333 10162 20129=
07020,1996-06-24 12:00:00,17,1029.5,0.2,77,13,14000,14.816,,,50,,,,,,,,,,,wg-a,,,,AAXX 24124 07020 12/64 70508 10170 20130 30278 40295 50002 60006 82026 91200=
07020,1996-06-24 18:00:00,16,1028.8,-0.4,77,12,14000,7.408,,,290,13.3,19.3,,,,,,,,,wg-a,,,,AAXX 24184 07020 12/64 72904 10160 20120 30271 40288 56004 60006 80006 91800 333 10193 20133=
07020,1996-06-25 00:00:00,13,1028.6,-0.6,88,11,0,18.52,,,200,,,,,,,,,,,wg-a,,,,AAXX 25004 07020 12/// /2010 10130 20110 30269 40286 58006 60006 90000=
07020,1996-06-25 06:00:00,13,1028,-0,100,13,6000,11.112,,,300,11.1,16.3,,,,,,,,,wg-a,,,,AAXX 25064 07020 12/56 53006 10130 20130 30263 40280 54000 60006 82015 90600 333 10163 20111=
07020,1996-06-25 12:00:00,17,1027.2,-0.7,77,13,12000,11.112,,,240,,,,,,,,,,,wg-a,,,,AAXX 25124 07020 12/62 32406 10170 20130 30255 40272 57007 60006 82015 91200=
07020,1996-06-25 18:00:00,16,1025.1,-1.3,77,12,24000,22.224,,,250,13.3,17.4,,,,,,,,,wg-a,,,,AAXX 25184 07020 12/74 22512 10160 20120 30234 40251 58013 60006 80001 91800 333 10174 20133=
07020,1996-06-26 00:00:00,14,1024.3,-0.3,88,12,0,29.632,,,300,,,,,,,,,,,wg-a,,,,AAXX 26004 07020 12/// /3016 10140 20120 30226 40243 57003 60006 90000=
07020,1996-06-26 06:00:00,14,1023.2,-0.4,82,11,18000,14.816,,,250,13.7,15.6,,,,,,,,,wg-a,,,,AAXX 26064 07020 12568 52508 10140 20110 30215 40232 55004 60006 83544 90600 333 10156 20137=
07020,1996-06-26 12:00:00,16,1024.1,0.4,88,14,2000,22.224,,,230,,,,,,,,,,10,wg-a,,,,AAXX 26124 07020 12320 82312 10160 20140 30224 40241 51004 60006 71022 8662/ 91200=
07020,1996-06-26 18:00:00,15,1023.5,-0.5,94,14,500,18.52,,,220,14.1,16.4,,,,,,,,43,wg-a,,,,AAXX 26184 07020 02/05 92210 10150 20140 30218 40235 55005 61000 74364 89/// 91800 333 10164 20141 ////=
07020,1996-06-27 00:00:00,15,1024,-0.3,94,14,0,22.224,,,190,,,,,,,,,,,wg-a,,,,AAXX 27004 07020 12/// /1912 10150 20140 30223 40240 58003 60006 90000=
07020,1996-06-27 06:00:00,14,1024.1,0.5,94,13,16000,14.816,,,220,13.7,14.7,,,,,,,,,wg-a,,,,AAXX 27064 07020 12666 82208 10140 20130 30224 40241 53005 60006 8552/ 90600 333 10147 20137=
07020,1996-06-27 12:00:00,17,1025.6,0.5,72,12,24000,14.816,,,240,,,,,,,,,,,wg-a,,,,AAXX 27124 07020 12874 42408 10170 20120 30239 40256 51005 60006 82075 91200=
07020,1996-06-27 18:00:00,15,1023.9,-0.9,82,12,20000,25.928,,,200,14.1,18.4,,,,,,,,,wg-a,,,,AAXX 27184 07020 12870 62014 10150 20120 30222 40239 56009 60006 8607/ 91800 333 10184 20141=
07020,1996-06-28 00:00:00,13,1023.1,-0.7,94,12,0,22.224,,,210,,,,,,,,,,,wg-a,,,,AAXX 28004 07020 12/// /2112 10130 20120 30214 40231 57007 60006 90000=
07020,1996-06-28 06:00:00,14,1020.2,-1,94,13,18000,22.224,,,190,13.3,15.5,,,,,,,,,wg-a,,,,AAXX 28064 07020 32668 71912 10140 20130 30185 40202 58010 8452/ 90600 333 10155 20133=
07020,1996-06-28 12:00:00,16,1019,-1.3,88,14,18000,29.632,,,190,,,,,,,,,,2,wg-a,,,,AAXX 28124 07020 12568 81916 10160 20140 30173 40190 56013 60006 70262 81170 91200=
07020,1996-06-28 18:00:00,15,1016.1,-1.6,100,15,12000,38.892,,,220,14.1,16.9,,1,,,,,,21,wg-a,,,,AAXX 28184 07020 12462 82221 10150 20150 30144 40161 56016 60017 72162 8462/ 91800 333 10169 20141=
07020,1996-06-29 00:00:00,15,1015.9,-0.2,88,13,0,35.188,,,270,,,,,,,,,,,wg-a,,,,AAXX 29004 07020 12/// /2719 10150 20130 30142 40159 55002 60006 90000=
07020,1996-06-29 06:00:00,14,1018.4,1.4,77,10,20000,35.188,,,280,13.4,15,,,,,,,,,wg-a,,,,AAXX 29064 07020 12870 22819 10140 20100 30167 40184 51014 60006 82070 90600 333 10150 20134=
07020,1996-06-29 12:00:00,16,1019.9,0.1,68,10,500,22.224,,,250,,,,,,,,,,,wg-a,,,,AAXX 29124 07020 12800 62512 10160 20100 30182 40199 50001 60006 86050 91200=
07020,1996-06-29 18:00:00,15,1020.7,0.4,82,12,14000,22.224,,,250,13.5,16.2,,,,,,,,,wg-a,,,,AAXX 29184 07020 12864 22512 10150 20120 30190 40207 50004 60006 81031 91800 333 10162 20135=
07020,1996-06-30 00:00:00,14,1020.9,-0.7,88,12,0,22.224,,,250,,,,,,,,,,,wg-a,,,,AAXX 30004 07020 12/// /2512 10140 20120 30192 40209 58007 60006 90000=
07020,1996-06-30 06:00:00,14,1018.5,-1.3,94,13,16000,31.484,,,220,13.4,15.5,,0,,,,,,60,wg-a,,,,AAXX 30064 07020 12566 72217 10140 20130 30168 40185 56013 60007 7606/ 8277/ 90600 333 10155 20134=
07020,1996-06-30 12:00:00,14,1015.9,-1.6,100,14,2000,42.596,,,220,,,,,,,,,,51,wg-a,,,,AAXX 30124 07020 02520 82223 10140 20140 30142 40159 56016 60016 75165 8472/ 91200 333 61000=
07020,1996-06-30 18:00:00,15,1013.7,-1.3,88,13,18000,35.188,,,230,13.2,16.6,,,,,,,,2,wg-a,,,,AAXX 30184 07020 32868 72319 10150 20130 30120 40137 56013 70252 8707/ 91800 333 10166 20132=
07020,1996-07-01 00:00:00,14,1012.3,-1.1,88,12,0,22.224,,,250,,,,,,,,,,,wg-a,,,,AAXX 01004 07020 12/// /2512 10140 20120 30106 40123 58011 60006 90000=
07020,1996-07-01 06:00:00,13,1010.1,-0.8,88,11,20000,29.632,,,240,13.2,14.5,,,,,,,,,wg-a,,,,AAXX 01064 07020 12570 62416 10130 20110 30084 40101 58008 60006 81270 90600 333 10145 20132=
07020,1996-07-01 12:00:00,16,1009.5,-0.6,77,12,28000,42.596,,,230,,,,,,,,,,,wg-a,,,,AAXX 01124 07020 12578 42323 10160 20120 30078 40095 56006 60006 82260 91200=
07020,1996-07-01 18:00:00,15,1008.6,-0.5,82,12,20000,46.3,,68.524,240,13.3,16.9,,,,,,,,,wg-a,,,,AAXX 01184 07020 12570 32425 10150 20120 30069 40086 58005 60006 81250 91800 333 10169 20133 91037=
07020,1996-07-02 00:00:00,14,1010,0.2,88,12,0,29.632,,,250,,,,,,,,,,,wg-a,,,,AAXX 02004 07020 12/// /2516 10140 20120 30083 40100 51002 60006 90000=
07020,1996-07-02 06:00:00,14,1010.5,0.8,88,12,20000,22.224,,50.004,250,13.2,15,,,,,,,,,wg-a,,,,AAXX 02064 07020 12870 62512 10140 20120 30088 40105 53008 60006 86050 90600 333 10150 20132 91027=
07020,1996-07-02 12:00:00,16,1011.8,0.3,77,12,24000,25.928,,,220,,,,,,,,,,,wg-a,,,,AAXX 02124 07020 12574 82214 10160 20120 30101 40118 51003 60006 888// 91200=
07020,1996-07-02 18:00:00,16,1011.8,-0.3,82,13,22000,22.224,,,230,13.6,17.8,,,,,,,,,wg-a,,,,AAXX 02184 07020 12572 22312 10160 20130 30101 40118 58003 60006 81270 91800 333 10178 20136=
07020,1996-07-03 00:00:00,13,1010.1,-1.5,88,11,0,14.816,,,170,,,,,,,,,,,wg-a,,,,AAXX 03004 07020 12/// /1708 10130 20110 30084 40101 58015 60006 90000=
07020,1996-07-03 06:00:00,14,1004.9,-2.5,94,13,18000,35.188,,61.116,160,12.2,16.3,,1,,,,,,60,wg-a,,,,AAXX 03064 07020 12468 81619 10140 20130 30032 40049 57025 60017 76062 8372/ 90600 333 10163 20122 91033=
07020,1996-07-03 12:00:00,15,1003.9,0,94,14,9000,35.188,,,200,,,,0,,,,,,63,wg-a,,,,AAXX 03124 07020 02559 82019 10150 20140 30022 40039 50000 60006 76362 8452/ 91200 333 60007=
07020,1996-07-03 18:00:00,15,1004.5,-0.1,94,14,8000,35.188,,,220,14.1,17.1,,,,,,,,61,wg-a,,,,AAXX 03184 07020 02558 82219 10150 20140 30028 40045 57001 61000 76162 8672/ 91800 333 10171 20141 ////=
07020,1996-07-04 00:00:00,13,1004.9,0.3,100,13,0,31.484,,,260,,,,5,,,,,,,wg-a,,,,AAXX 04004 07020 02/// /2617 10130 20130 30032 40049 53003 60056 90000 333 60057=
07020,1996-07-04 06:00:00,14,1006.6,0.7,88,12,15000,46.3,,,220,12.7,14.9,,,,,,,,63,wg-a,,,,AAXX 04064 07020 02465 72225 10140 20120 30049 40066 52007 61000 763// 8472/ 90600 333 10149 20127 ////=
07020,1996-07-04 12:00:00,16,1009,0.9,77,12,16000,53.708,,,220,,,,,,,,,,2,wg-a,,,,AAXX 04124 07020 02566 62229 10160 20120 30073 40090 53009 61000 70282 8127/ 91200 333 ////=
07020,1996-07-04 18:00:00,16,1010.4,0.2,82,13,14000,35.188,,,230,13.5,17.5,,,,,,,,,wg-a,,,,AAXX 04184 07020 32/64 42319 10160 20130 30087 40104 52002 83031 91800 333 10175 20135=
07020,1996-07-05 00:00:00,13,1010.5,-0.4,94,12,0,22.224,,,230,,,,,,,,,,,wg-a,,,,AAXX 05004 07020 12/// /2312 10130 20120 30088 40105 58004 60006 90000=
07020,1996-07-05 06:00:00,13,1008.8,-0.4,94,12,18000,14.816,,,250,12.5,16.2,,,,,,,,,wg-a,,,,AAXX 05064 07020 12868 72508 10130 20120 30071 40088 57004 60006 8707/ 90600 333 10162 20125=
07020,1996-07-05 12:00:00,15,1009.1,0.1,82,12,22000,18.52,,,250,,,,,,,,,,,wg-a,,,,AAXX 05124 07020 12572 42510 10150 20120 30074 40091 53001 60006 82285 91200=
07020,1996-07-05 18:00:00,14,1009.1,-0.1,82,11,500,22.224,,,240,13.3,16.2,,,,,,,,,wg-a,,,,AAXX 05184 07020 12500 32412 10140 20110 30074 40091 55001 60006 81208 91800 333 10162 20133=
07020,1996-07-06 00:00:00,13,1009.8,0.2,88,11,0,31.484,,,270,,,,,,,,,,,wg-a,,,,AAXX 06004 07020 12/// /2717 10130 20110 30081 40098 51002 60006 90000=
07020,1996-07-06 06:00:00,13,1010.1,0.7,82,10,500,29.632,,,260,12.5,14.4,,,,,,,,,wg-a,,,,AAXX 06064 07020 12500 32616 10130 20100 30084 40101 52007 60006 8126/ 90600 333 10144 20125=
07020,1996-07-06 12:00:00,17,1011,0.2,72,12,500,25.928,,,230,,,,,,,,,,,wg-a,,,,AAXX 06124 07020 12500 22314 10170 20120 30093 40110 51002 60006 82200 91200=
07020,1996-07-06 18:00:00,16,1010.1,-0.8,68,10,500,14.816,,,230,12.8,17,,,,,,,,,wg-a,,,,AAXX 06184 07020 12500 22308 10160 20100 30084 40101 58008 60006 82200 91800 333 10170 20128=
07020,1996-07-07 00:00:00,13,1009.7,-0.7,88,11,0,14.816,,,230,,,,,,,,,,,wg-a,,,,AAXX 07004 07020 12/// /2308 10130 20110 30080 40097 56007 60006 90000=
07020,1996-07-07 06:00:00,13,1008.7,0.1,88,11,500,11.112,,,320,11,15.9,,,,,,,,,wg-a,,,,AAXX 07064 07020 12600 33206 10130 20110 30070 40087 53001 60006 82250 90600 333 10159 20110=
07020,1996-07-07 12:00:00,16,1010.4,0.9,72,11,40000,22.224,,,310,,,,,,,,,,,wg-a,,,,AAXX 07124 07020 12582 33112 10160 20110 30087 40104 53009 60006 83200 91200=
07020,1996-07-07 18:00:00,16,1012.5,0.9,72,11,40000,25.928,,,280,12.6,17.7,,,,,,,,,wg-a,,,,AAXX 07184 07020 12/82 22814 10160 20110 30108 40125 52009 60006 82060 91800 333 10177 20126=
07020,1996-07-08 00:00:00,14,1016.3,1.6,88,12,0,31.484,,,300,,,,,,,,,,,wg-a,,,,AAXX 08004 07020 12/// /3017 10140 20120 30146 40163 51016 60006 90000=
07020,1996-07-08 06:00:00,14,1019.6,2.2,88,12,500,25.928,,,280,13.1,16.2,,,,,,,,,wg-a,,,,AAXX 08064 07020 12800 32814 10140 20120 30179 40196 53022 60006 82041 90600 333 10162 20131=
07020,1996-07-08 12:00:00,16,1023.4,1.8,77,12,24000,14.816,,,260,,,,,,,,,,,wg-a,,,,AAXX 08124 07020 12874 72608 10160 20120 30217 40234 52018 60006 8705/ 91200=
07020,1996-07-08 18:00:00,16,1024.8,0.4,77,12,24000,18.52,,,250,13.5,17.2,,,,,,,,,wg-a,,,,AAXX 08184 07020 12/74 52510 10160 20120 30231 40248 52004 60006 80001 91800 333 10172 20135=
07020,1996-07-09 00:00:00,14,1026.1,0.2,88,12,0,25.928,,,260,,,,,,,,,,,wg-a,,,,AAXX 09004 07020 12/// /2614 10140 20120 30244 40261 51002 60006 90000=
07020,1996-07-09 06:00:00,14,1026,-0.1,94,13,20000,18.52,,,220,13.4,16.1,,,,,,,,,wg-a,,,,AAXX 09064 07020 12870 72210 10140 20130 30243 40260 57001 60006 87070 90600 333 10161 20134=
07020,1996-07-09 12:00:00,16,1025.9,-0.4,88,14,10000,29.632,,,210,,,,,,,,,,61,wg-a,,,,AAXX 09124 07020 02460 82116 10160 20140 30242 40259 58004 61000 76162 8462/ 91200 333 6100=
07020,1996-07-09 18:00:00,15,1025.2,-0.5,94,14,12000,22.224,,,240,13.9,17.4,,,,,,,,1,wg-a,,,,AAXX 09184 07020 32662 72412 10150 20140 30235 40252 56005 70182 87500 91800 333 10174 20139=
07020,1996-07-10 00:00:00,15,1025.8,0.1,94,14,0,25.928,,,290,,,,,,,,,,,wg-a,,,,AAXX 10004 07020 12/// /2914 10150 20140 30241 40258 52001 60006 90000=
07020,1996-07-10 06:00:00,15,1026.4,0.6,94,14,20000,22.224,,,290,14.3,15.5,,,,,,,,,wg-a,,,,AAXX 10064 07020 12870 52912 10150 20140 30247 40264 51006 60006 85050 90600 333 10155 20143=
07020,1996-07-10 12:00:00,17,1027.4,0.1,82,14,26000,11.112,,,260,,,,,,,,,,,wg-a,,,,AAXX 10124 07020 12876 82606 10170 20140 30257 40274 52001 60006 8805/ 91200=
07020,1996-07-10 18:00:00,17,1026.2,-1.1,88,15,12000,22.224,,,210,14.6,19.2,,,,,,,,,wg-a,,,,AAXX 10184 07020 12/62 02112 10170 20150 30245 40262 57011 60006 80000 91800 333 10192 20146=
07020,1996-07-11 00:00:00,14,1025.7,-0.5,100,14,0,22.224,,,220,,,,,,,,,,,wg-a,,,,AAXX 11004 07020 12/// /2212 10140 20140 30240 40257 57005 60006 90000=
07020,1996-07-11 06:00:00,14,1025.1,-0,82,11,20000,14.816,,,250,13.3,17,,,,,,,,,wg-a,,,,AAXX 11064 07020 12770 82508 10140 20110 30234 40251 55000 60006 885// 90600 333 10170 20133=
07020,1996-07-11 12:00:00,16,1024.7,-0.5,88,14,1500,22.224,,,210,,,,,,,,,,10,wg-a,,,,AAXX 11124 07020 12315 82112 10160 20140 30230 40247 57005 60006 71022 8662/ 91200=
07020,1996-07-11 18:00:00,16,1023,-0.7,88,14,24000,25.928,,,220,13.6,17.8,,,,,,,,,wg-a,,,,AAXX 11184 07020 12/74 02214 10160 20140 30213 40230 56007 60006 80000 91800 333 10178 20136=
07020,1996-07-12 00:00:00,14,1022.1,-1,94,13,0,22.224,,,260,,,,,,,,,,,wg-a,,,,AAXX 12004 07020 12/// /2612 10140 20130 30204 40221 56010 60006 90000=
07020,1996-07-12 06:00:00,14,1021.1,-0.1,94,13,12000,11.112,,,240,13.4,16.3,,,,,,,,,wg-a,,,,AAXX 12064 07020 12662 82406 10140 20130 30194 40211 56001 60006 885// 90600 333 10163 20134=
07020,1996-07-12 12:00:00,17,1021.1,-0.3,88,15,12000,22.224,,,230,,,,,,,,,,2,wg-a,,,,AAXX 12124 07020 12462 82312 10170 20150 30194 40211 58003 60016 70262 8762/ 91200=
07020,1996-07-12 18:00:00,15,1020.7,-0.4,100,15,10000,22.224,,,200,14.4,17.8,,,,,,,,20,wg-a,,,,AAXX 12184 07020 02460 82012 10150 20150 30190 40207 58004 61000 72052 8/62/ 91800 333 10178 20144 ////=
07020,1996-07-13 00:00:00,15,1020.6,-0.4,100,15,0,18.52,,,230,,,,,,,,,,,wg-a,,,,AAXX 13004 07020 12/// /2310 10150 20150 30189 40206 56004 60016 90000=
07020,1996-07-13 06:00:00,15,1020.8,0.6,100,15,1000,22.224,,,210,14.6,15.2,,0,,,,,,51,wg-a,,,,AAXX 13064 07020 12210 82112 10150 20150 30191 40208 52006 60007 751// 8762/ 90600 333 10152 20146=
07020,1996-07-13 12:00:00,17,1022.8,0.8,100,17,1200,22.224,,,230,,,,,,,,,,20,wg-a,,,,AAXX 13124 07020 02312 82312 10170 20170 30211 40228 51008 61000 72054 887// 91200 333 6100=
07020,1996-07-13 18:00:00,16,1023.6,-0,94,15,4000,31.484,,,220,14.9,17.8,,,,,,,,,wg-a,,,,AAXX 13184 07020 32340 82217 10160 20150 30219 40236 55000 887// 91800 333 10178 20149=
07020,1996-07-14 00:00:00,15,1025.5,1,100,15,0,18.52,,,230,,,,,,,,,,,wg-a,,,,AAXX 14004 07020 12/// /2310 10150 20150 30238 40255 52010 60006 90000=
07020,1996-07-14 06:00:00,15,1026.5,0.9,100,15,900,18.52,,,210,14.8,15.7,,0,,,,,,51,wg-a,,,,AAXX 14064 07020 12309 82110 10150 20150 30248 40265 53009 60007 751// 887// 90600 333 10157 20148=
07020,1996-07-14 12:00:00,17,1028,0.4,100,17,900,22.224,,,200,,,,0,,,,,,50,wg-a,,,,AAXX 14124 07020 02/09 92012 10170 20170 30263 40280 53004 60016 75054 89/// 91200 333 60007=
07020,1996-07-14 18:00:00,16,1027.8,-0.2,94,15,100,18.52,,,210,15.1,17.6,,,,,,,,47,wg-a,,,,AAXX 14184 07020 32/01 92110 10160 20150 30261 40278 55002 74754 89/// 91800 333 10176 20151=
07020,1996-07-15 00:00:00,15,1027.8,-0.3,100,15,0,14.816,,,200,,,,,,,,,,,wg-a,,,,AAXX 15004 07020 12/// /2008 10150 20150 30261 40278 58003 60006 90000=
07020,1996-07-15 06:00:00,15,1028.8,1.2,72,10,12000,18.52,,,50,14.6,15.9,,,,,,,,,wg-a,,,,AAXX 15064 07020 12562 80510 10150 20100 30271 40288 53012 60006 885// 90600 333 10159 20146=
07020,1996-07-15 12:00:00,17,1029,-0.1,82,14,10000,25.928,,,60,,,,,,,,,,,wg-a,,,,AAXX 15124 07020 12460 80614 10170 20140 30273 40290 57001 60006 8461/ 91200=
07020,1996-07-15 18:00:00,17,1028.4,-0.4,88,15,3000,11.112,,,60,15,18.1,,,,,,,,10,wg-a,,,,AAXX 15184 07020 12330 40606 10170 20150 30267 40284 56004 60006 71042 84600 91800 333 10181 20150=
07020,1996-07-16 00:00:00,15,1030.1,1,82,12,0,42.596,,,60,,,,,,,,,,,wg-a,,,,AAXX 16004 07020 12/// /0623 10150 20120 30284 40301 52010 60006 90000=
07020,1996-07-16 06:00:00,14,1030.7,0.8,88,12,20000,46.3,,,60,13.8,17.5,,,,,,,,,wg-a,,,,AAXX 16064 07020 12570 50625 10140 20120 30290 40307 52008 60006 85500 90600 333 10175 20138=
07020,1996-07-16 12:00:00,16,1030.1,-0.2,77,12,18000,46.3,,,50,,,,,,,,,,,wg-a,,,,AAXX 16124 07020 12568 30525 10160 20120 30284 40301 58002 60006 83800 91200=
07020,1996-07-16 18:00:00,16,1027.6,-1,77,12,20000,50.004,,,60,14.1,17.1,,,,,,,,,wg-a,,,,AAXX 16184 07020 12/70 20627 10160 20120 30259 40276 56010 60006 80001 91800 333 10171 20141=
07020,1996-07-17 00:00:00,14,1028.8,0.5,88,12,0,35.188,,,60,,,,,,,,,,,wg-a,,,,AAXX 17004 07020 12/// /0619 10140 20120 30271 40288 52005 60006 90000=
07020,1996-07-17 06:00:00,15,1027.9,-0.1,88,13,16000,35.188,,,70,14,15.8,,,,,,,,,wg-a,,,,AAXX 17064 07020 12566 70719 10150 20130 30262 40279 55001 60006 875// 90600 333 10158 20140=
07020,1996-07-17 12:00:00,16,1027.4,-0.3,77,12,16000,46.3,,,50,,,,,,,,,,,wg-a,,,,AAXX 17124 07020 12/66 00525 10160 20120 30257 40274 57003 60006 80000 91200=
07020,1996-07-17 18:00:00,16,1024.8,-1.7,82,13,16000,46.3,,,60,14.6,17.3,,,,,,,,,wg-a,,,,AAXX 17184 07020 12/66 00625 10160 20130 30231 40248 57017 60006 80000 91800 333 10173 20146=
07020,1996-07-18 00:00:00,14,1026.2,1.4,88,12,0,18.52,,,80,,,,,,,,,,,wg-a,,,,AAXX 18004 07020 12/// /0810 10140 20120 30245 40262 51014 60006 90000=
07020,1996-07-18 06:00:00,15,1026.1,0.2,94,14,12000,25.928,,,70,14.3,16.5,,,,,,,,,wg-a,,,,AAXX 18064 07020 12562 70714 10150 20140 30244 40261 53002 60006 875// 90600 333 10165 20143=
07020,1996-07-18 12:00:00,17,1026.7,0.5,82,14,12000,25.928,,,60,,,,,,,,,,,wg-a,,,,AAXX 18124 07020 12/62 00614 10170 20140 30250 40267 53005 60006 80000 91200=
07020,1996-07-18 18:00:00,19,1025.5,-0.2,64,12,40000,22.224,,,70,14.8,18.7,,,,,,,,,wg-a,,,,AAXX 18184 07020 12/82 10712 10190 20120 30238 40255 55002 60006 80001 91800 333 10187 20148=
07020,1996-07-19 00:00:00,14,1025.6,0.1,88,12,0,22.224,,,80,,,,,,,,,,,wg-a,,,,AAXX 19004 07020 12/// /0812 10140 20120 30239 40256 50001 60006 90000=
07020,1996-07-19 06:00:00,15,1025.7,0.4,94,14,14000,29.632,,,70,13.7,18.5,,,,,,,,,wg-a,,,,AAXX 19064 07020 12/64 50716 10150 20140 30240 40257 53004 60006 82085 90600 333 10185 20137=
07020,1996-07-19 12:00:00,18,1026,-0.1,77,14,12000,25.928,,,70,,,,,,,,,,,wg-a,,,,AAXX 19124 07020 12562 30714 10180 20140 30243 40260 57001 60006 81285 91200=
07020,1996-07-19 18:00:00,17,1024.7,-0.5,82,14,12000,22.224,,,70,14.9,18.7,,,,,,,,,wg-a,,,,AAXX 19184 07020 12/62 50712 10170 20140 30230 40247 55005 60006 82081 91800 333 10187 20149=
07020,1996-07-20 00:00:00,14,1023.9,-0.5,94,13,0,18.52,,,80,,,,,,,,,,,wg-a,,,,AAXX 20004 07020 12/// /0810 10140 20130 30222 40239 56005 60006 90000=
07020,1996-07-20 06:00:00,15,1023.2,0.1,100,15,3000,14.816,,,80,13.6,17,,,,,,,,10,wg-a,,,,AAXX 20064 07020 12230 40808 10150 20150 30215 40232 52001 60006 710// 83601 90600 333 10170 20136=
07020,1996-07-20 12:00:00,20,1023.8,0.3,73,15,3500,14.816,,,50,,,,,,,,,,,wg-a,,,,AAXX 20124 07020 12/35 00508 10200 20150 30221 40238 52003 60006 80000 91200=
07020,1996-07-20 18:00:00,21,1022.9,-0.8,60,13,12000,18.52,,,70,14.8,20.8,,,,,,,,,wg-a,,,,AAXX 20184 07020 32/62 00710 10210 20130 30212 40229 57008 80000 91800 333 10208 20148=
07020,1996-07-21 00:00:00,15,1022.8,-0.4,77,11,0,11.112,,,70,,,,,,,,,,,wg-a,,,,AAXX 21004 07020 12/// /0706 10150 20110 30211 40228 58004 60006 90000=
07020,1996-07-21 06:00:00,15,1022.1,0.2,94,14,3000,14.816,,,90,12.5,20.6,,,,,,,,10,wg-a,,,,AAXX 21064 07020 12/30 40908 10150 20140 30204 40221 53002 60006 710// 80005 90600 333 10206 20125=
07020,1996-07-21 12:00:00,22,1021.5,-0.4,60,14,12000,18.52,,,210,,,,,,,,,,,wg-a,,,,AAXX 21124 07020 12/62 32110 10220 20140 30199 40215 58004 60006 80005 91200=
07020,1996-07-21 18:00:00,19,1019.4,-1.3,73,14,14000,14.816,,,60,15,23.3,,,,,,,,,wg-a,,,,AAXX 21184 07020 12/64 10608 10190 20140 30177 40194 56013 60006 80001 91800 333 10233 20150=
07020,1996-07-22 00:00:00,16,1018.2,-0.8,94,15,0,11.112,,,70,,,,,,,,,,,wg-a,,,,AAXX 22004 07020 12/// /0706 10160 20150 30165 40182 58008 60006 90000=
07020,1996-07-22 06:00:00,23,1016.1,-0.7,41,9,500,38.892,,,150,15.2,22.8,,,,,,,,,wg-a,,,,AAXX 22064 07020 12/00 01521 10230 20090 30145 40161 56007 60006 80000 90600 333 10228 20152=
07020,1996-07-22 12:00:00,24,1014.9,-0.7,50,13,500,18.52,,,20,,,,,,,,,,,wg-a,,,,AAXX 22124 07020 12/00 00210 10240 20130 30133 40149 57007 60006 80000 91200=
07020,1996-07-22 18:00:00,21,1012.1,-1.4,64,14,24000,18.52,,,70,21.1,27.9,,,,,,,,,wg-a,,,,AAXX 22184 07020 12874 30710 10210 20140 30105 40121 58014 60006 83050 91800 333 10279 20211=
07020,1996-07-23 00:00:00,18,1009,-1.9,77,14,0,18.52,,,50,,,,,,,,,,,wg-a,,,,AAXX 23004 07020 12/// /0510 10180 20140 30074 40090 56019 60006 90000=
07020,1996-07-23 06:00:00,16,1010.2,2.1,88,14,14000,14.816,,,240,15.5,20.9,,,,,,,,,wg-a,,,,AAXX 23064 07020 12664 42408 10160 20140 30085 40102 51021 60006 83108 90600 333 10209 20155=
07020,1996-07-23 12:00:00,20,1012.6,0.6,78,16,16000,35.188,,,230,,,,,,,,,,,wg-a,,,,AAXX 23124 07020 12666 32319 10200 20160 30110 40126 51006 60006 81280 91200=
07020,1996-07-23 18:00:00,18,1013.5,0.1,83,15,20000,31.484,,,240,15.8,20,,,,,,,,,wg-a,,,,AAXX 23184 07020 12/70 32417 10180 20150 30118 40135 53001 60006 83030 91800 333 10200 20158=
07020,1996-07-24 00:00:00,16,1015.1,0.8,94,15,0,25.928,,,250,,,,,,,,,,,wg-a,,,,AAXX 24004 07020 12/// /2514 10160 20150 30134 40151 53008 60006 90000=
07020,1996-07-24 06:00:00,16,1016.4,1.1,88,14,500,25.928,,,280,15.3,17.8,,,,,,,,,wg-a,,,,AAXX 24064 07020 12/00 22814 10160 20140 30147 40164 53011 60006 82040 90600 333 10178 20153=
07020,1996-07-24 12:00:00,18,1019,0.8,77,14,500,31.484,,,270,,,,,,,,,,,wg-a,,,,AAXX 24124 07020 12/00 32717 10180 20140 30173 40190 51008 60006 83060 91200=
07020,1996-07-24 18:00:00,18,1019.9,0.2,73,13,500,25.928,,,260,15.5,18.9,,,,,,,,,wg-a,,,,AAXX 24184 07020 12/00 02614 10180 20130 30182 40199 52002 60006 80000 91800 333 10189 20155=
07020,1996-07-25 00:00:00,16,1022.2,0.9,82,13,0,22.224,,,290,,,,,,,,,,,wg-a,,,,AAXX 25004 07020 12/// /2912 10160 20130 30205 40222 51009 60006 90000=
07020,1996-07-25 06:00:00,15,1023.7,1.4,88,13,20000,11.112,,,50,14.6,18.3,,,,,,,,,wg-a,,,,AAXX 25064 07020 12670 20506 10150 20130 30220 40237 51014 60006 82500 90600 333 10183 20146=
07020,1996-07-25 12:00:00,19,1024.9,0.2,73,14,20000,18.52,,,40,,,,,,,,,,,wg-a,,,,AAXX 25124 07020 12/70 00410 10190 20140 30232 40249 52002 60006 80000 91200=
07020,1996-07-25 18:00:00,19,1023.1,-1.5,73,14,16000,14.816,,,30,15.2,21.2,,,,,,,,,wg-a,,,,AAXX 25184 07020 12/66 10308 10190 20140 30214 40231 58015 60006 80001 91800 333 10212 20152=
07020,1996-07-26 00:00:00,14,1024.2,0.4,77,10,0,7.408,,,80,,,,,,,,,,,wg-a,,,,AAXX 26004 07020 12/// /0804 10140 20100 30225 40242 50004 60006 90000=
07020,1996-07-26 06:00:00,15,1023.4,0.3,82,12,25000,11.112,,,80,12.4,19.3,,,,,,,,,wg-a,,,,AAXX 26064 07020 12/75 00806 10150 20120 30217 40234 51003 60006 80000 90600 333 10193 20124=
07020,1996-07-26 12:00:00,20,1023.2,-0.2,64,13,20000,7.408,,,30,,,,,,,,,,,wg-a,,,,AAXX 26124 07020 12/70 00304 10200 20130 30215 40232 58002 60006 80000 91200=
07020,1996-07-26 18:00:00,19,1022,-0.9,78,15,20000,7.408,,,240,15.2,21.8,,,,,,,,,wg-a,,,,AAXX 26184 07020 12/70 22404 10190 20150 30203 40220 57009 60006 80005 91800 333 10218 20152=
07020,1996-07-27 00:00:00,15,1021,-0.9,94,14,0,14.816,,,190,,,,,,,,,,,wg-a,,,,AAXX 27004 07020 12/// /1908 10150 20140 30193 40210 58009 60006 90000=
07020,1996-07-27 06:00:00,16,1020.1,-0.4,94,15,14000,18.52,,,260,15.3,19.4,,,,,,,,,wg-a,,,,AAXX 27064 07020 12464 52610 10160 20150 30184 40201 58004 60006 81670 90600 333 10194 20153=
07020,1996-07-27 12:00:00,17,1020.9,0.1,100,17,600,14.816,,,210,,,,,,,,,,50,wg-a,,,,AAXX 27124 07020 02/06 92108 10170 20170 30192 40209 52001 61000 75022 89/// 91200 333 6100=
07020,1996-07-27 18:00:00,18,1019.6,-0.9,88,16,12000,11.112,,,190,15.9,19.7,,,,,,,,2,wg-a,,,,AAXX 27184 07020 32462 61906 10180 20160 30179 40196 56009 70254 82675 91800 333 10197 20159=
07020,1996-07-28 00:00:00,15,1020,-0.6,94,14,0,7.408,,,220,,,,,,,,,,,wg-a,,,,AAXX 28004 07020 12/// /2204 10150 20140 30183 40200 58006 60006 90000=
07020,1996-07-28 06:00:00,15,1019.4,0.1,94,14,16000,14.816,,,220,14.1,17.6,,,,,,,,,wg-a,,,,AAXX 28064 07020 12866 62208 10150 20140 30177 40194 53001 60006 84075 90600 333 10176 20141=
07020,1996-07-28 12:00:00,19,1019.5,-0.1,83,16,20000,22.224,,,200,,,,,,,,,,,wg-a,,,,AAXX 28124 07020 12470 72012 10190 20160 30178 40195 57001 60006 8457/ 91200=
07020,1996-07-28 18:00:00,18,1017.6,-1.2,83,15,20000,22.224,,,190,15.3,20.2,,,,,,,,,wg-a,,,,AAXX 28184 07020 12770 61912 10180 20150 30159 40176 56012 60006 8557/ 91800 333 10202 20153=
07020,1996-07-29 00:00:00,17,1016.1,-1.2,82,14,0,22.224,,,160,,,,,,,,,,,wg-a,,,,AAXX 29004 07020 12/// /1612 10170 20140 30144 40161 58012 60006 90000=
07020,1996-07-29 06:00:00,17,1014.4,-0.1,94,16,16000,29.632,,,180,16.8,18.3,,0,,,,,,,wg-a,,,,AAXX 29064 07020 12466 71816 10170 20160 30127 40144 55001 60007 8467/ 90600 333 10183 20168=
07020,1996-07-29 12:00:00,18,1015.1,0.3,88,16,18000,22.224,,,200,,,,0,,,,,,2,wg-a,,,,AAXX 29124 07020 02568 82012 10180 20160 30134 40151 51003 60006 70285 888// 91200 333 60007=
07020,1996-07-29 18:00:00,18,1014.9,0.1,88,16,18000,31.484,,,220,16.6,20.6,,,,,,,,,wg-a,,,,AAXX 29184 07020 32668 22217 10180 20160 30132 40149 50001 81920 91800 333 10206 20166=
07020,1996-07-30 00:00:00,16,1016.1,0.5,94,15,0,11.112,,,240,,,,,,,,,,,wg-a,,,,AAXX 30004 07020 12/// /2406 10160 20150 30144 40161 51005 60006 90000=
07020,1996-07-30 06:00:00,16,1017.1,0.6,94,15,16000,18.52,,,240,14.6,17.9,,0,,,,,,,wg-a,,,,AAXX 30064 07020 12/66 42410 10160 20150 30154 40171 51006 60007 82078 90600 333 10179 20146=
07020,1996-07-30 12:00:00,19,1019.1,0.8,78,15,500,25.928,,,230,,,,,,,,,,,wg-a,,,,AAXX 30124 07020 12/00 72314 10190 20150 30174 40191 51008 60006 87050 91200=
07020,1996-07-30 18:00:00,17,1018.9,-0.2,82,14,500,35.188,,,220,15.5,19.3,,,,,,,,,wg-a,,,,AAXX 30184 07020 12700 82219 10170 20140 30172 40189 57002 60006 8655/ 91800 333 10193 20155=
07020,1996-07-31 00:00:00,16,1018.3,-0.7,88,14,0,29.632,,,220,,,,,,,,,,,wg-a,,,,AAXX 31004 07020 12/// /2216 10160 20140 30166 40183 56007 60006 90000=
07020,1996-07-31 06:00:00,16,1016.8,-0.4,100,16,2000,25.928,,,210,15.5,16.5,,1,,,,,,51,wg-a,,,,AAXX 31064 07020 12420 82114 10160 20160 30151 40168 56004 60017 7515/ 8472/ 90600 333 10165 20155=
07020,1996-07-31 12:00:00,18,1017.6,0.5,88,16,16000,22.224,,,220,,,,,,,,,,2,wg-a,,,,AAXX 31124 07020 02466 72212 10180 20160 30159 40176 53005 60016 70255 8472/ 91200 333 61000=
07020,1996-07-31 18:00:00,17,1016.9,-0.4,88,15,500,25.928,,,220,15.8,19.5,,,,,,,,,wg-a,,,,AAXX 31184 07020 32600 32214 10170 20150 30152 40169 58004 83500 91800 333 10195 20158=
07020,1996-08-01 00:00:00,16,1017.4,-0.2,72,11,0,18.52,,,250,,,,,,,,,,,wg-a,,,,AAXX 01004 07020 12/// /2510 10160 20110 30157 40174 56002 60006 90000=
07020,1996-08-01 06:00:00,16,1017,0.3,88,14,500,22.224,,,240,15.6,17.1,,,,,,,,,wg-a,,,,AAXX 01064 07020 12700 82412 10160 20140 30153 40170 53003 60006 888// 90600 333 10171 20156=
07020,1996-08-01 12:00:00,19,1018.4,0.6,73,14,500,25.928,,,230,,,,,,,,,,,wg-a,,,,AAXX 01124 07020 12500 72314 10190 20140 30167 40184 53006 60006 8527/ 91200=
07020,1996-08-01 18:00:00,18,1019.1,0.3,83,15,500,29.632,,,240,15.6,20.2,,,,,,,,,wg-a,,,,AAXX 01184 07020 12500 12416 10180 20150 30174 40191 52003 60006 81200 91800 333 10202 20156=
07020,1996-08-02 00:00:00,16,1021.2,0.6,88,14,0,29.632,,,260,,,,,,,,,,,wg-a,,,,AAXX 02004 07020 12/// /2616 10160 20140 30195 40212 53006 60006 90000=
07020,1996-08-02 06:00:00,15,1023,1.3,88,13,24000,14.816,,,290,14.7,17.6,,,,,,,,,wg-a,,,,AAXX 02064 07020 12874 22908 10150 20130 30213 40230 52013 60006 81062 90600 333 10176 20147=
07020,1996-08-02 12:00:00,18,1025.1,0.8,77,14,500,14.816,,,270,,,,,,,,,,,wg-a,,,,AAXX 02124 07020 12800 62708 10180 20140 30234 40251 51008 60006 86050 91200=
07020,1996-08-02 18:00:00,18,1025.7,0.1,73,13,50000,18.52,,,270,14.9,19.5,,,,,,,,,wg-a,,,,AAXX 02184 07020 12884 12710 10180 20130 30240 40257 53001 60006 81030 91800 333 10195 20149=
07020,1996-08-03 00:00:00,16,1027.2,0.6,88,14,0,14.816,,,310,,,,,,,,,,,wg-a,,,,AAXX 03004 07020 12/// /3108 10160 20140 30255 40272 53006 60006 90000=
07020,1996-08-03 06:00:00,15,1027.8,0.8,94,14,40000,7.408,,,40,12.9,18.2,,,,,,,,,wg-a,,,,AAXX 03064 07020 12/82 00404 10150 20140 30261 40278 53008 60006 80000 90600 333 10182 20129=
07020,1996-08-03 12:00:00,20,1028.7,0.2,68,14,25000,22.224,,,30,,,,,,,,,,,wg-a,,,,AAXX 03124 07020 12/75 00312 10200 20140 30270 40287 51002 60006 80000 91200=
07020,1996-08-03 18:00:00,18,1027.2,-1,73,13,20000,18.52,,,70,14.5,19.9,,,,,,,,,wg-a,,,,AAXX 03184 07020 12/70 20710 10180 20130 30255 40272 56010 60006 80004 91800 333 10199 20145=
07020,1996-08-04 00:00:00,16,1026.3,-0.8,88,14,0,18.52,,,70,,,,,,,,,,,wg-a,,,,AAXX 04004 07020 12/// /0710 10160 20140 30246 40263 58008 60006 90000=
07020,1996-08-04 06:00:00,16,1023.9,-0.4,94,15,16000,22.224,,,80,14.4,18.1,,,,,,,,,wg-a,,,,AAXX 04064 07020 12866 10812 10160 20150 30222 40239 55004 60006 81030 90600 333 10181 20144=
07020,1996-08-04 12:00:00,19,1021.3,-1.6,78,15,12000,25.928,,,70,,,,,,,,,,,wg-a,,,,AAXX 04124 07020 12/62 00714 10190 20150 30196 40213 58016 60006 80000 91200=
07020,1996-08-04 18:00:00,19,1017.4,-2,73,14,12000,29.632,,,80,15.7,19.7,,,,,,,,,wg-a,,,,AAXX 04184 07020 12/62 00816 10190 20140 30157 40174 56020 60006 80000 91800 333 10197 20157=
07020,1996-08-05 00:00:00,16,1014.7,-1.6,82,13,0,22.224,,,90,,,,,,,,,,,wg-a,,,,AAXX 05004 07020 12/// /0912 10160 20130 30130 40147 56016 60006 90000=
07020,1996-08-05 06:00:00,19,1012,-0.8,60,11,24000,22.224,,,90,15.2,19,,,,,,,,,wg-a,,,,AAXX 05064 07020 12674 50912 10190 20110 30104 40120 55008 60006 83550 90600 333 10190 20152=
07020,1996-08-05 12:00:00,20,1010.2,-1.1,73,15,14000,29.632,,,70,,,,,,,,,,,wg-a,,,,AAXX 05124 07020 12/64 70716 10200 20150 30086 40102 57011 60006 80006 91200=
07020,1996-08-05 18:00:00,20,1008.8,-0.5,64,13,16000,7.408,,,180,18.6,22.1,,,,,,,,,wg-a,,,,AAXX 05184 07020 12866 81804 10200 20130 30072 40088 58005 60006 8807/ 91800 333 10221 20186=
07020,1996-08-06 00:00:00,17,1008.6,-0.7,88,15,0,29.632,,,220,,,,,,,,,,,wg-a,,,,AAXX 06004 07020 12/// /2216 10170 20150 30069 40086 56007 60006 90000=
07020,1996-08-06 06:00:00,15,1008,0.1,88,13,20000,29.632,,,220,15.3,20.1,,0,,,,,,,wg-a,,,,AAXX 06064 07020 12670 72216 10150 20130 30063 40080 53001 60007 875// 90600 333 10201 20153=
07020,1996-08-06 12:00:00,17,1010.6,1.4,77,13,20000,46.3,,,230,,,,0,,,,,,3,wg-a,,,,AAXX 06124 07020 02670 72325 10170 20130 30089 40106 53014 60006 70362 84720 91200 333 60007=
07020,1996-08-06 18:00:00,16,1014,1.8,72,11,18000,31.484,,64.82,250,15.4,18.5,,,,,,,,,wg-a,,,,AAXX 06184 07020 32568 22517 10160 20110 30123 40140 51018 81130 91800 333 10185 20154 91035=
07020,1996-08-07 00:00:00,15,1016.7,0.7,88,13,0,35.188,,,240,,,,,,,,,,,wg-a,,,,AAXX 07004 07020 12/// /2419 10150 20130 30150 40167 53007 60006 90000=
07020,1996-08-07 06:00:00,15,1017.9,1,82,12,500,31.484,,53.708,260,14.8,16.2,,,,,,,,,wg-a,,,,AAXX 07064 07020 12700 12617 10150 20120 30162 40179 52010 60006 81130 90600 333 10162 20148 91029=
07020,1996-08-07 12:00:00,17,1019.7,0.6,72,12,40000,25.928,,,250,,,,,,,,,,,wg-a,,,,AAXX 07124 07020 12582 22514 10170 20120 30180 40197 52006 60006 82201 91200=
07020,1996-08-07 18:00:00,17,1019.1,-0.2,72,12,40000,22.224,,,240,14.8,18.4,,,,,,,,,wg-a,,,,AAXX 07184 07020 12582 22412 10170 20120 30174 40191 55002 60006 81205 91800 333 10184 20148=
07020,1996-08-08 00:00:00,15,1018.3,-0.5,88,13,0,14.816,,,230,,,,,,,,,,,wg-a,,,,AAXX 08004 07020 12/// /2308 10150 20130 30166 40183 58005 60006 90000=
07020,1996-08-08 06:00:00,14,1016.2,-0.8,100,14,40000,18.52,,,170,11.9,16.6,,,,,,,,,wg-a,,,,AAXX 08064 07020 32582 41710 10140 20140 30145 40162 56008 81155 90600 333 10166 20119=
07020,1996-08-08 12:00:00,19,1015.5,-0.2,73,14,500,22.224,,,190,,,,0,,,,,,,wg-a,,,,AAXX 08124 07020 02500 61912 10190 20140 30139 40155 58002 60006 8117/ 91200 333 60007=
07020,1996-08-08 18:00:00,20,1013.4,-1,64,13,65000,3.704,,,90,14.2,21.3,,,,,,,,,wg-a,,,,AAXX 08184 07020 12/87 70902 10200 20130 30118 40134 56010 60006 80006 91800 333 10213 20142=
07020,1996-08-09 00:00:00,17,1013.1,-0.6,72,12,0,18.52,,,160,,,,,,,,,,,wg-a,,,,AAXX 09004 07020 12/// /1610 10170 20120 30114 40131 57006 60006 90000=
07020,1996-08-09 06:00:00,17,1011.2,-0.7,94,16,18000,29.632,,,160,15.6,19.9,,0,,,,,,,wg-a,,,,AAXX 09064 07020 12568 81616 10170 20160 30095 40112 58007 60007 8372/ 90600 333 10199 20156=
07020,1996-08-09 12:00:00,19,1010.4,-0.7,94,18,10000,38.892,,,160,,,,5,,,,,,2,wg-a,,,,AAXX 09124 07020 02560 71621 10190 20180 30088 40104 57007 60076 70286 8472/ 91200 333 60057=
07020,1996-08-09 18:00:00,19,1008,-1.2,88,17,14000,22.224,,,150,16.7,19.3,,,,,,,,2,wg-a,,,,AAXX 09184 07020 02564 71512 10190 20170 30064 40080 56012 61000 70286 8392/ 91800 333 10193 20167 ////=
07020,1996-08-10 00:00:00,16,1006.6,-0.9,100,16,0,31.484,,,180,,,,3,,,,,,,wg-a,,,,AAXX 10004 07020 02/// /1817 10160 20160 30050 40066 58009 60036 90000 333 60037=
07020,1996-08-10 06:00:00,16,1005.3,0.6,94,15,20000,31.484,,64.82,220,15.7,19.1,,3,,,,,,,wg-a,,,,AAXX 10064 07020 12670 52217 10160 20150 30037 40053 53006 60037 83550 90600 333 10191 20157 91035=
07020,1996-08-10 12:00:00,20,1006.5,0.2,68,14,24000,31.484,,,210,,,,,,,,,,,wg-a,,,,AAXX 10124 07020 12674 32117 10200 20140 30049 40065 50002 60006 82108 91200=
07020,1996-08-10 18:00:00,17,1005,-0.8,82,14,12000,25.928,,,240,15.6,20.1,,,,,,,,,wg-a,,,,AAXX 10184 07020 12562 72414 10170 20140 30034 40050 56008 60006 8572/ 91800 333 10201 20156=
07020,1996-08-11 00:00:00,15,1003.7,-0.1,94,14,0,25.928,,,220,,,,,,,,,,,wg-a,,,,AAXX 11004 07020 12/// /2214 10150 20140 30021 40037 57001 60026 90000=
07020,1996-08-11 06:00:00,15,1001.6,-0.8,94,14,8000,35.188,,,200,14.3,16.9,,4,,,,,,61,wg-a,,,,AAXX 11064 07020 12458 82019 10150 20140 39999 40016 56008 60047 761// 84720 90600 333 10169 20143=
07020,1996-08-11 12:00:00,16,1002.1,1,88,14,20000,38.892,,,260,,,,,,,,,,60,wg-a,,,,AAXX 11124 07020 02570 82621 10160 20140 30005 40021 51010 60016 76062 8472/ 91200 333 61000=
07020,1996-08-11 18:00:00,16,1006,2,94,15,20000,35.188,,,280,14.6,17.2,,0,,,,,,3,wg-a,,,,AAXX 11184 07020 12570 72819 10160 20150 30044 40060 53020 60007 70386 8399/ 91800 333 10172 20146=
07020,1996-08-12 00:00:00,16,1009,0.7,94,15,0,31.484,,,290,,,,,,,,,,,wg-a,,,,AAXX 12004 07020 12/// /2917 10160 20150 30073 40090 52007 60006 90000=
07020,1996-08-12 06:00:00,16,1011.1,1.6,94,15,16000,25.928,,,310,15.3,16.3,,,,,,,,,wg-a,,,,AAXX 12064 07020 12866 63114 10160 20150 30094 40111 53016 60006 86050 90600 333 10163 20153=
07020,1996-08-12 12:00:00,18,1013.8,1.1,83,15,12000,14.816,,,330,,,,,,,,,,,wg-a,,,,AAXX 12124 07020 12862 33308 10180 20150 30121 40138 51011 60006 83070 91200=
07020,1996-08-12 18:00:00,17,1014.4,0.3,88,15,18000,14.816,,,240,15.6,20.6,,,,,,,,,wg-a,,,,AAXX 12184 07020 12/68 02408 10170 20150 30127 40144 52003 60006 80000 91800 333 10206 20156=
07020,1996-08-13 00:00:00,16,1015.4,-0.3,94,15,0,18.52,,,300,,,,,,,,,,,wg-a,,,,AAXX 13004 07020 12/// /3010 10160 20150 30137 40154 58003 60006 90000=
07020,1996-08-13 06:00:00,16,1016,1,94,15,12000,14.816,,,20,15.6,17.5,,,,,,,,,wg-a,,,,AAXX 13064 07020 12/62 20208 10160 20150 30143 40160 53010 60006 80009 90600 333 10175 20156=
07020,1996-08-13 12:00:00,19,1017.6,0.4,78,15,12000,11.112,,,260,,,,,,,,,,,wg-a,,,,AAXX 13124 07020 12/62 22606 10190 20150 30159 40176 52004 60006 80009 91200=
07020,1996-08-13 18:00:00,18,1017.4,-0.3,77,14,16000,18.52,,,250,16.3,19.7,,,,,,,,,wg-a,,,,AAXX 13184 07020 12/66 02510 10180 20140 30157 40174 55003 60006 80000 91800 333 10197 20163=
07020,1996-08-14 00:00:00,17,1018.6,0.1,88,15,0,22.224,,,340,,,,,,,,,,,wg-a,,,,AAXX 14004 07020 12/// /3412 10170 20150 30169 40186 51001 60006 90000=
07020,1996-08-14 06:00:00,15,1018.9,0.3,94,14,12000,11.112,,,80,14.3,17.9,,,,,,,,,wg-a,,,,AAXX 14064 07020 12862 20806 10150 20140 30172 40189 53003 60006 82010 90600 333 10179 20143=
07020,1996-08-14 12:00:00,20,1020.4,0.2,73,15,10000,14.816,,,20,,,,,,,,,,,wg-a,,,,AAXX 14124 07020 12/60 00208 10200 20150 30187 40204 50002 60006 80000 91200=
07020,1996-08-14 18:00:00,19,1019.7,-0.4,78,15,6000,3.704,,,20,15,21.2,,,,,,,,,wg-a,,,,AAXX 14184 07020 12/56 00202 10190 20150 30180 40197 58004 60006 80000 91800 333 10212 20150=
07020,1996-08-15 00:00:00,14,1021,0.2,94,13,0,3.704,,,100,,,,,,,,,,,wg-a,,,,AAXX 15004 07020 12/// /1002 10140 20130 30193 40210 50002 60006 90000=
07020,1996-08-15 06:00:00,15,1020.9,0.1,88,13,10000,3.704,,,220,13.6,18.5,,,,,,,,,wg-a,,,,AAXX 15064 07020 12/60 02202 10150 20130 30192 40209 53001 60006 80000 90600 333 10185 20136=
07020,1996-08-15 12:00:00,20,1022.3,-0,78,16,6000,11.112,,,20,,,,,,,,,,,wg-a,,,,AAXX 15124 07020 12456 60206 10200 20160 30206 40223 54000 60006 86600 91200=
07020,1996-08-15 18:00:00,19,1021.3,-0.6,83,16,8000,22.224,,,80,15.1,21.6,,,,,,,,,wg-a,,,,AAXX 15184 07020 12458 60812 10190 20160 30196 40213 58006 60006 86600 91800 333 10216 20151=
07020,1996-08-16 00:00:00,15,1021.6,-0.3,94,14,0,18.52,,,90,,,,,,,,,,,wg-a,,,,AAXX 16004 07020 12/// /0910 10150 20140 30199 40216 56003 60006 90000=
07020,1996-08-16 06:00:00,16,1021.5,0.3,94,15,3000,14.816,,,90,13.8,18.5,,,,,,,,10,wg-a,,,,AAXX 16064 07020 32330 80908 10160 20150 30198 40215 53003 710// 8462/ 90600 333 10185 20138=
07020,1996-08-16 12:00:00,18,1021.7,-0.2,88,16,500,7.408,,,50,,,,,,,,,,28,wg-a,,,,AAXX 16124 07020 12000 80504 10180 20160 30200 40217 58002 60006 72842 8561/ 91200=
07020,1996-08-16 18:00:00,16,1021.3,-0,94,15,100,11.112,,,40,15.5,19.3,,,,,,,,45,wg-a,,,,AAXX 16184 07020 12/01 90406 10160 20150 30196 40213 55000 60006 74544 89/// 91800 333 10193 20155=
07020,1996-08-17 00:00:00,15,1021.9,-0.1,100,15,0,0,,,0,,,,,,,,,,,wg-a,,,,AAXX 17004 07020 12/// /0000 10150 20150 30202 40219 58001 60006 90000=
07020,1996-08-17 06:00:00,14,1021.8,0.1,100,14,500,18.52,,,80,14.3,16.2,,,,,,,,45,wg-a,,,,AAXX 17064 07020 32/00 90810 10140 20140 30201 40218 53001 7454/ 89/// 90600 333 10162 20143=
07020,1996-08-17 12:00:00,17,1021.9,-0.5,88,15,100,18.52,,,70,,,,,,,,,,45,wg-a,,,,AAXX 17124 07020 12/01 90710 10170 20150 30202 40219 58005 60006 74544 89/// 91200=
07020,1996-08-17 18:00:00,20,1019.9,-1,78,16,10000,22.224,,,80,14.4,20.6,,,,,,,,28,wg-a,,,,AAXX 17184 07020 12/60 00812 10200 20160 30182 40199 58010 60006 72844 80000 91800 333 10206 20144=
07020,1996-08-18 00:00:00,20,1019.2,-0.3,56,11,0,18.52,,,100,,,,,,,,,,,wg-a,,,,AAXX 18004 07020 12/// /1010 10200 20110 30176 40192 58003 60006 90000=
07020,1996-08-18 06:00:00,21,1018.7,0.4,53,11,20000,31.484,,,160,18,23.2,,,,,,,,,wg-a,,,,AAXX 18064 07020 12/70 01617 10210 20110 30171 40187 53004 60006 80000 90600 333 10232 20180=
07020,1996-08-18 12:00:00,27,1018.3,-0.4,37,11,24000,31.484,,,160,,,,,,,,,,,wg-a,,,,AAXX 18124 07020 12/74 01617 10270 20110 30167 40183 58004 60006 80000 91200=
07020,1996-08-18 18:00:00,23,1016.3,-1.4,61,15,16000,22.224,,,90,21.3,28.4,,,,,,,,,wg-a,,,,AAXX 18184 07020 12/66 00912 10230 20150 30147 40163 56014 60006 80000 91800 333 10284 20213=
07020,1996-08-19 00:00:00,17,1015,-1,82,14,0,18.52,,,80,,,,,,,,,,,wg-a,,,,AAXX 19004 07020 12/// /0810 10170 20140 30133 40150 56010 60006 90000=
07020,1996-08-19 06:00:00,23,1013.2,-0.3,50,12,15000,29.632,,,150,17,23,,,,,,,,,wg-a,,,,AAXX 19064 07020 12665 31516 10230 20120 30116 40132 55003 60006 83200 90600 333 10230 20170=
07020,1996-08-19 12:00:00,23,1013.1,-0.1,65,16,20000,11.112,,,40,,,,,,,,,,,wg-a,,,,AAXX 19124 07020 12570 10406 10230 20160 30115 40131 57001 60006 81130 91200=
07020,1996-08-19 18:00:00,20,1011.9,-0.7,73,15,16000,18.52,,,80,20.1,27.7,,,,,,,,,wg-a,,,,AAXX 19184 07020 12866 50810 10200 20150 30103 40119 56007 60006 85050 91800 333 10277 20201=
07020,1996-08-20 00:00:00,17,1011.7,-0.6,88,15,0,7.408,,,80,,,,,,,,,,,wg-a,,,,AAXX 20004 07020 12/// /0804 10170 20150 30100 40117 56006 60006 90000=
07020,1996-08-20 06:00:00,17,1010.9,-0.9,94,16,3000,7.408,,,60,16.5,20.2,,1,,,,,,10,wg-a,,,,AAXX 20064 07020 12430 80604 10170 20160 30092 40109 56009 60017 710// 8362/ 90600 333 10202 20165=
07020,1996-08-20 12:00:00,19,1012.2,0.8,88,17,18000,22.224,,,210,,,,,,,,,,,wg-a,,,,AAXX 20124 07020 12/68 72112 10190 20170 30106 40122 51008 60006 8707/ 91200=
07020,1996-08-20 18:00:00,18,1012.5,0.1,88,16,50000,11.112,,,210,16.6,21.2,,,,,,,,,wg-a,,,,AAXX 20184 07020 12784 32106 10180 20160 30109 40125 53001 60006 81208 91800 333 10212 20166=
07020,1996-08-21 00:00:00,16,1013.4,0.1,94,15,0,22.224,,,220,,,,,,,,,,,wg-a,,,,AAXX 21004 07020 12/// /2212 10160 20150 30117 40134 50001 60006 90000=
07020,1996-08-21 06:00:00,16,1012.7,-0,94,15,40000,18.52,,,210,15.3,18.2,,,,,,,,,wg-a,,,,AAXX 21064 07020 32582 52110 10160 20150 30110 40127 55000 83321 90600 333 10182 20153=
07020,1996-08-21 12:00:00,20,1013.8,0.5,78,16,40000,22.224,,,210,,,,,,,,,,,wg-a,,,,AAXX 21124 07020 12582 32112 10200 20160 30122 40138 51005 60006 82201 91200=
07020,1996-08-21 18:00:00,18,1013.6,0.1,77,14,40000,18.52,,,240,15.7,20.6,,,,,,,,,wg-a,,,,AAXX 21184 07020 12/82 12410 10180 20140 30119 40136 53001 60006 80001 91800 333 10206 20157=
07020,1996-08-22 00:00:00,16,1014.7,0,82,13,0,22.224,,,240,,,,,,,,,,,wg-a,,,,AAXX 22004 07020 12/// /2412 10160 20130 30130 40147 50000 60006 90000=
07020,1996-08-22 06:00:00,15,1013.6,-0.5,82,12,40000,14.816,,,180,14.5,18,,,,,,,,,wg-a,,,,AAXX 22064 07020 12582 31808 10150 20120 30119 40136 58005 60006 81261 90600 333 10180 20145=
07020,1996-08-22 12:00:00,20,1012.1,-1.2,64,13,40000,31.484,,,160,,,,,,,,,,,wg-a,,,,AAXX 22124 07020 12/82 21617 10200 20130 30105 40121 58012 60006 80008 91200=
07020,1996-08-22 18:00:00,17,1008.9,-0.2,94,16,6000,35.188,,72.228,180,14.8,23.4,,3,,,,,,63,wg-a,,,,AAXX 22184 07020 12556 81819 10170 20160 30072 40089 56002 60037 76381 8472/ 91800 333 10234 20148 91039=
07020,1996-08-23 00:00:00,16,1006.8,-2.2,94,15,0,7.408,,,100,,,,,,,,,,,wg-a,,,,AAXX 23004 07020 12/// /1004 10160 20150 30051 40068 57022 60186 90000=
07020,1996-08-23 06:00:00,15,1004.2,-0.7,94,14,18000,11.112,,,110,14.5,17.4,,3,,,,,,61,wg-a,,,,AAXX 23064 07020 12668 81106 10150 20140 30025 40042 55007 60037 7616/ 8472/ 90600 333 10174 20145=
07020,1996-08-23 12:00:00,19,1006.2,1.1,78,15,24000,35.188,,,200,,,,,,,,,,2,wg-a,,,,AAXX 23124 07020 12574 42019 10190 20150 30046 40062 51011 60016 70261 84208 91200=
07020,1996-08-23 18:00:00,16,1005.7,-0.1,94,15,20000,42.596,,75.932,210,14.5,20.2,,1,,,,,,21,wg-a,,,,AAXX 23184 07020 12570 52123 10160 20150 30041 40057 55001 60017 72186 82820 91800 333 10202 20145 91041=
07020,1996-08-24 00:00:00,16,1006.1,-0.3,94,15,0,46.3,,,220,,,,,,,,,,,wg-a,,,,AAXX 24004 07020 12/// /2225 10160 20150 30045 40061 58003 60006 90000=
07020,1996-08-24 06:00:00,16,1005.2,-0,88,14,20000,38.892,,,230,15.7,16.8,,,,,,,,,wg-a,,,,AAXX 24064 07020 12570 62321 10160 20140 30036 40052 55000 60006 8/800 90600 333 10168 20157=
07020,1996-08-24 12:00:00,18,1006.9,0.2,77,14,24000,46.3,,,220,,,,,,,,,,3,wg-a,,,,AAXX 24124 07020 12574 72225 10180 20140 30053 40069 50002 60016 70382 8535/ 91200=
07020,1996-08-24 18:00:00,17,1008,0.9,82,14,20000,42.596,,,240,15.6,19.2,,,,,,,,1,wg-a,,,,AAXX 24184 07020 32670 62423 10170 20140 30064 40080 53009 70182 83236 91800 333 10192 20156=
07020,1996-08-25 00:00:00,16,1009.4,0.4,88,14,0,38.892,,,240,,,,1,,,,,,,wg-a,,,,AAXX 25004 07020 02/// /2421 10160 20140 30077 40094 51004 60026 90000 333 60017=
07020,1996-08-25 06:00:00,16,1009.9,0.5,88,14,20000,31.484,,,240,15.4,16.9,,2,,,,,,,wg-a,,,,AAXX 25064 07020 12470 72417 10160 20140 30082 40099 53005 60027 8/800 90600 333 10169 20154=
07020,1996-08-25 12:00:00,18,1011.7,0.4,73,13,500,31.484,,,240,,,,,,,,,,2,wg-a,,,,AAXX 25124 07020 12500 72417 10180 20130 30100 40117 52004 60016 70286 8539/ 91200=
07020,1996-08-25 18:00:00,17,1012.3,0.4,77,13,40000,31.484,,,240,15.1,19.2,,,,,,,,,wg-a,,,,AAXX 25184 07020 32682 42417 10170 20130 30106 40123 53004 83208 91800 333 10192 20151=
07020,1996-08-26 00:00:00,16,1013.4,0.1,82,13,0,22.224,,,240,,,,,,,,,,,wg-a,,,,AAXX 26004 07020 12/// /2412 10160 20130 30117 40134 50001 60006 90000=
07020,1996-08-26 06:00:00,15,1013.6,0.4,82,12,500,22.224,,,240,14.8,17,,,,,,,,,wg-a,,,,AAXX 26064 07020 12500 62412 10150 20120 30119 40136 53004 60006 85320 90600 333 10170 20148=
07020,1996-08-26 12:00:00,18,1015.4,0.4,68,12,500,22.224,,,260,,,,,,,,,,1,wg-a,,,,AAXX 26124 07020 02500 22612 10180 20120 30137 40154 51004 61000 70181 82230 91200 333 ////=
07020,1996-08-26 18:00:00,17,1015.5,0.4,72,12,500,22.224,,,240,15,18.8,,,,,,,,,wg-a,,,,AAXX 26184 07020 32500 32412 10170 20120 30138 40155 51004 83105 91800 333 10188 20150=
07020,1996-08-27 00:00:00,15,1016.3,-0.2,88,13,0,14.816,,,260,,,,,,,,,,,wg-a,,,,AAXX 27004 07020 12/// /2608 10150 20130 30146 40163 58002 60006 90000=
07020,1996-08-27 06:00:00,15,1016.1,0.1,82,12,500,7.408,,,250,14.9,17.1,,,,,,,,,wg-a,,,,AAXX 27064 07020 12500 62504 10150 20120 30144 40161 53001 60006 8225/ 90600 333 10171 20149=
07020,1996-08-27 12:00:00,18,1017.3,0.3,68,12,40000,14.816,,,260,,,,,,,,,,,wg-a,,,,AAXX 27124 07020 12582 42608 10180 20120 30156 40173 51003 60006 83201 91200=
07020,1996-08-28 00:00:00,16,1018.2,-0.1,88,14,0,22.224,,,300,,,,,,,,,,,wg-a,,,,AAXX 28004 07020 12/// /3012 10160 20140 30165 40182 55001 60006 90000=
07020,1996-08-28 06:00:00,15,1018.2,0.5,94,14,14000,22.224,,,330,15.1,16.6,,,,,,,,,wg-a,,,,AAXX 28064 07020 12664 33312 10150 20140 30165 40182 53005 60006 83400 90600 333 10166 20151=
07020,1996-08-28 12:00:00,17,1019.5,0.4,82,14,6000,18.52,,,340,,,,,,,,,,,wg-a,,,,AAXX 28124 07020 12556 63410 10170 20140 30178 40195 51004 60006 8332/ 91200=
07020,1996-08-28 18:00:00,17,1018.5,-0.7,82,14,14000,29.632,,,270,15.3,19.9,,,,,,,,,wg-a,,,,AAXX 28184 07020 12/64 62716 10170 20140 30168 40185 57007 60006 80006 91800 333 10199 20153=
07020,1996-08-29 00:00:00,16,1018,-0.7,88,14,0,25.928,,,330,,,,,,,,,,,wg-a,,,,AAXX 29004 07020 12/// /3314 10160 20140 30163 40180 56007 60006 90000=
07020,1996-08-29 06:00:00,15,1017.1,-0.4,88,13,18000,35.188,,,320,15,16.9,,,,,,,,,wg-a,,,,AAXX 29064 07020 12668 73219 10150 20130 30154 40171 55004 60006 875// 90600 333 10169 20150=
07020,1996-08-29 12:00:00,18,1017.4,-0.1,73,13,20000,38.892,,,280,,,,,,,,,,,wg-a,,,,AAXX 29124 07020 12670 32821 10180 20130 30157 40174 58001 60006 82405 91200=
07020,1996-08-29 18:00:00,17,1017.3,0.2,77,13,20000,42.596,,,270,15.4,18.3,,,,,,,,,wg-a,,,,AAXX 29184 07020 12/70 42723 10170 20130 30156 40173 53002 60006 84055 91800 333 10183 20154=
07020,1996-08-30 00:00:00,15,1019.1,0.5,77,11,0,38.892,,,300,,,,,,,,,,,wg-a,,,,AAXX 30004 07020 12/// /3021 10150 20110 30174 40191 53005 60006 90000=
07020,1996-08-30 06:00:00,15,1020.7,1.3,77,11,24000,25.928,,,330,14.4,16.9,,,,,,,,,wg-a,,,,AAXX 30064 07020 12674 73314 10150 20110 30190 40207 53013 60006 87500 90600 333 10169 20144=
07020,1996-08-30 12:00:00,17,1022.9,0.7,72,12,50000,25.928,,,270,,,,,,,,,,,wg-a,,,,AAXX 30124 07020 12784 82714 10170 20120 30212 40229 52007 60006 885// 91200=
07020,1996-08-30 18:00:00,18,1024,0.4,77,14,500,22.224,,,260,14.8,18,,,,,,,,,wg-a,,,,AAXX 30184 07020 12/00 32612 10180 20140 30223 40240 53004 60006 82038 91800 333 10180 20148=
07020,1996-08-31 00:00:00,16,1025.7,0.6,82,13,0,29.632,,,340,,,,,,,,,,,wg-a,,,,AAXX 31004 07020 12/// /3416 10160 20130 30240 40257 52006 60006 90000=
07020,1996-08-31 06:00:00,15,1027.3,1.1,72,10,50000,22.224,,,10,14.4,17.5,,,,,,,,,wg-a,,,,AAXX 31064 07020 12/84 70112 10150 20100 30256 40273 53011 60006 85078 90600 333 10175 20144=
07020,1996-08-31 12:00:00,15,1028.8,0.1,67,9,50000,22.224,,,340,,,,,,,,,,,wg-a,,,,AAXX 31124 07020 12584 63412 10150 20090 30271 40288 50001 60006 82106 91200=
07020,1996-08-31 18:00:00,17,1028.6,-0.1,72,12,40000,22.224,,,290,14.6,17.7,,,,,,,,,wg-a,,,,AAXX 31184 07020 12882 62912 10170 20120 30269 40286 58001 60006 83076 91800 333 10177 20146=
07020,1996-09-01 00:00:00,16,1028.9,-0.3,77,12,0,22.224,,,10,,,,,,,,,,,wg-a,,,,AAXX 01004 07020 12/// /0112 10160 20120 30272 40289 56003 60006 90000=
07020,1996-09-01 06:00:00,13,1029.2,0.5,94,12,20000,7.408,,,110,12.9,16.9,,,,,,,,,wg-a,,,,AAXX 01064 07020 12570 71104 10130 20120 30275 40292 53005 60006 8462/ 90600 333 10169 20129=
07020,1996-09-01 12:00:00,19,1029.4,-0.6,68,13,22000,11.112,,,40,,,,,,,,,,,wg-a,,,,AAXX 01124 07020 12672 60406 10190 20130 30277 40294 58006 60006 81275 91200=
07020,1996-09-01 18:00:00,18,1028.5,-0.6,73,13,24000,11.112,,,30,13.4,20.8,,,,,,,,,wg-a,,,,AAXX 01184 07020 12/74 20306 10180 20130 30268 40285 56006 60006 80004 91800 333 10208 20134=
07020,1996-09-02 00:00:00,13,1028.7,-0.3,88,11,0,0,,,0,,,,,,,,,,,wg-a,,,,AAXX 02004 07020 12/// /0000 10130 20110 30270 40287 56003 60006 90000=
07020,1996-09-02 06:00:00,14,1027.7,-0.4,88,12,20000,0,,,0,12.2,17.8,,,,,,,,,wg-a,,,,AAXX 02064 07020 12870 60000 10140 20120 30260 40277 55004 60006 86060 90600 333 10178 20122=
07020,1996-09-02 12:00:00,19,1027.7,-0.5,68,13,500,14.816,,,310,8.4,20,,,,,,,,,wg-a,,0,,AAXX 02124 07020 12/00 53108 10190 20130 30260 40277 58005 60006 85/70 91200 333 10200 20084 4/9999=
07020,1996-09-02 18:00:00,18,1025.9,-1.1,77,14,15000,7.408,,,360,14.3,19.8,,,,,,,,,wg-a,,,,AAXX 02184 07020 12/65 23604 10180 20140 30242 40259 57011 60006 82030 91800 333 10198 20143=
07020,1996-09-03 00:00:00,17,1025.6,-0.6,88,15,0,7.408,,,330,,,,,,,,,,,wg-a,,,,AAXX 03004 07020 12/// /3304 10170 20150 30239 40256 58006 60006 90000=
07020,1996-09-03 06:00:00,17,1023.6,-0.7,88,15,10000,7.408,,,20,14.8,17.6,,,,,,,,,wg-a,,,,AAXX 03064 07020 12660 80204 10170 20150 30219 40236 56007 60006 88500 90600 333 10176 20148=
07020,1996-09-03 12:00:00,18,1023.8,0.1,83,15,10000,29.632,,,40,,,,,,,,,,,wg-a,,,,AAXX 03124 07020 12860 80416 10180 20150 30221 40238 50001 60006 8802/ 91200=
07020,1996-09-03 18:00:00,17,1021.9,-0.8,77,13,18000,38.892,,,50,16.4,18.9,,,,,,,,,wg-a,,,,AAXX 03184 07020 12/68 00521 10170 20130 30202 40219 58008 60006 80000 91800 333 10189 20164=
07020,1996-09-04 00:00:00,17,1022.6,-0.3,82,14,0,38.892,,,50,,,,,,,,,,,wg-a,,,,AAXX 04004 07020 12/// /0521 10170 20140 30209 40226 56003 60006 90000=
07020,1996-09-04 06:00:00,16,1021.3,-1,94,15,12000,46.3,,,50,16,17.3,,,,,,,,,wg-a,,,,AAXX 04064 07020 12562 80525 10160 20150 30196 40213 58010 60006 8462/ 90600 333 10173 20160=
07020,1996-09-04 12:00:00,18,1021.3,-0.1,83,15,12000,46.3,,,50,,,,,,,,,,,wg-a,,,,AAXX 04124 07020 12562 40525 10180 20150 30196 40213 58001 60006 8362/ 91200=
07020,1996-09-04 18:00:00,17,1020.9,-0.1,88,15,16000,38.892,,,50,16.1,18.5,,,,,,,,,wg-a,,,,AAXX 04184 07020 12666 60521 10170 20150 30192 40209 55001 60006 86500 91800 333 10185 20161=
07020,1996-09-05 00:00:00,16,1021.3,0.5,82,13,0,42.596,,,70,,,,,,,,,,,wg-a,,,,AAXX 05004 07020 12/// /0723 10160 20130 30196 40213 51005 60006 90000=
07020,1996-09-05 06:00:00,16,1020.5,-0.2,77,12,16000,38.892,,,50,15.7,17.2,,,,,,,,,wg-a,,,,AAXX 05064 07020 12666 60521 10160 20120 30188 40205 55002 60006 86500 90600 333 10172 20157=
07020,1996-09-05 12:00:00,18,1020.9,0.6,73,13,16000,35.188,,,50,,,,,,,,,,,wg-a,,,,AAXX 05124 07020 12566 50519 10180 20130 30192 40209 50006 60006 85800 91200=
07020,1996-09-05 18:00:00,17,1019.5,-0.7,82,14,18000,35.188,,,50,15.7,18,,,,,,,,,wg-a,,,,AAXX 05184 07020 12/68 00519 10170 20140 30178 40195 56007 60006 80000 91800 333 10180 20157=
07020,1996-09-06 00:00:00,17,1020.5,0.6,88,15,0,29.632,,,80,,,,,,,,,,,wg-a,,,,AAXX 06004 07020 12/// /0816 10170 20150 30188 40205 51006 60006 90000=
07020,1996-09-06 06:00:00,16,1021.3,0.9,88,14,18000,25.928,,,70,16.4,17.4,,,,,,,,,wg-a,,,,AAXX 06064 07020 12568 60714 10160 20140 30196 40213 53009 60006 84820 90600 333 10174 20164=
07020,1996-09-06 12:00:00,18,1022.1,-0.1,77,14,11000,25.928,,,60,,,,,,,,,,,wg-a,,,,AAXX 06124 07020 12/61 30614 10180 20140 30204 40221 57001 60006 83030 91200=
07020,1996-09-06 18:00:00,17,1021.1,-0.5,72,12,11000,25.928,,,60,16.4,18.9,,,,,,,,,wg-a,,,,AAXX 06184 07020 12861 30614 10170 20120 30194 40211 58005 60006 83030 91800 333 10189 20164=
07020,1996-09-07 00:00:00,14,1022.4,0.6,88,12,0,14.816,,,90,,,,,,,,,,,wg-a,,,,AAXX 07004 07020 12/// /0908 10140 20120 30207 40224 51006 60006 90000=
07020,1996-09-07 06:00:00,15,1023.4,0.7,82,12,22000,25.928,,,80,11.9,16.7,,,,,,,,,wg-a,,,,AAXX 07064 07020 12672 30814 10150 20120 30217 40234 53007 60006 83100 90600 333 10167 20119=
07020,1996-09-07 12:00:00,17,1025.1,0.3,68,11,22000,25.928,,,60,,,,,,,,,,,wg-a,,,,AAXX 07124 07020 12672 70614 10170 20110 30234 40251 50003 60006 87500 91200=
07020,1996-09-07 18:00:00,17,1025.1,0.1,72,12,20000,29.632,,,40,15.4,18.6,,,,,,,,,wg-a,,,,AAXX 07184 07020 12/70 10416 10170 20120 30234 40251 52001 60006 80001 91800 333 10186 20154=
07020,1996-09-08 00:00:00,16,1025.2,-0,82,13,0,29.632,,,60,,,,,,,,,,,wg-a,,,,AAXX 08004 07020 12/// /0616 10160 20130 30235 40252 55000 60006 90000=
07020,1996-09-08 06:00:00,16,1025.5,0.3,77,12,12000,31.484,,,50,15.9,16.5,,,,,,,,,wg-a,,,,AAXX 08064 07020 12862 40517 10160 20120 30238 40255 53003 60006 84070 90600 333 10165 20159=
07020,1996-09-08 12:00:00,17,1026.4,0.4,63,10,20000,31.484,,,40,,,,,,,,,,,wg-a,,,,AAXX 08124 07020 12670 70417 10170 20100 30247 40264 51004 60006 8452/ 91200=
07020,1996-09-08 18:00:00,17,1025.6,-0.2,68,11,20000,31.484,,,30,15.9,18.3,,,,,,,,,wg-a,,,,AAXX 08184 07020 12/70 40317 10170 20110 30239 40256 57002 60006 83071 91800 333 10183 20159=
07020,1996-09-09 00:00:00,16,1025.6,-0.4,77,12,0,46.3,,,40,,,,,,,,,,,wg-a,,,,AAXX 09004 07020 12/// /0425 10160 20120 30239 40256 56004 60006 90000=
07020,1996-09-09 06:00:00,15,1025.8,0.3,82,12,18000,42.596,,,20,14.8,16.4,,,,,,,,,wg-a,,,,AAXX 09064 07020 12568 70223 10150 20120 30241 40258 53003 60006 87100 90600 333 10164 20148=
07020,1996-09-09 12:00:00,17,1026.7,0.6,72,12,18000,38.892,,,30,,,,,,,,,,80,wg-a,,,,AAXX 09124 07020 02568 70321 10170 20120 30250 40267 51006 61000 78082 878// 91200 333 6100=
07020,1996-09-09 18:00:00,17,1025.3,-0,72,12,20000,35.188,,,30,14.9,18.7,,,,,,,,2,wg-a,,,,AAXX 09184 07020 32570 70319 10170 20120 30236 40253 55000 70282 8125/ 91800 333 10187 20149=
07020,1996-09-10 00:00:00,16,1025.4,-0.2,68,10,0,42.596,,,30,,,,,,,,,,,wg-a,,,,AAXX 10004 07020 12/// /0323 10160 20100 30237 40254 57002 60006 90000=
07020,1996-09-10 06:00:00,14,1024.7,0.3,82,11,24000,35.188,,,30,14.4,16.9,,,,,,,,,wg-a,,,,AAXX 10064 07020 12574 70319 10140 20110 30230 40247 53003 60006 8575/ 90600 333 10169 20144=
07020,1996-09-10 12:00:00,17,1024.1,-0.6,68,11,35000,25.928,,,30,,,,,,,,,,,wg-a,,,,AAXX 10124 07020 12681 50314 10170 20110 30224 40241 58006 60006 83175 91200=
07020,1996-09-10 18:00:00,16,1022.6,-0.5,72,11,25000,11.112,,,20,14.4,18,,,,,,,,,wg-a,,,,AAXX 10184 07020 12675 60206 10160 20110 30209 40226 57005 60006 84505 91800 333 10180 20144=
07020,1996-09-11 00:00:00,16,1021.9,-0.7,77,12,0,25.928,,,30,,,,,,,,,,,wg-a,,,,AAXX 11004 07020 12/// /0314 10160 20120 30202 40219 58007 60006 90000=
07020,1996-09-11 06:00:00,15,1020.5,-0.6,77,11,17000,22.224,,,50,15,16.3,,,,,,,,,wg-a,,,,AAXX 11064 07020 12667 80512 10150 20110 30188 40205 55006 60006 885// 90600 333 10163 20150=
07020,1996-09-11 12:00:00,17,1019.7,-0.7,63,10,40000,18.52,,,40,,,,,,,,,,,wg-a,,,,AAXX 11124 07020 12682 50410 10170 20100 30180 40197 58007 60006 83208 91200=
07020,1996-09-11 18:00:00,17,1017.2,-1.2,63,10,40000,3.704,,,10,15,19.1,,,,,,,,,wg-a,,,,AAXX 11184 07020 12/82 10102 10170 20100 30155 40172 56012 60006 80008 91800 333 10191 20150=
07020,1996-09-12 00:00:00,15,1015.4,-1.7,88,13,0,22.224,,,280,,,,,,,,,,,wg-a,,,,AAXX 12004 07020 12/// /2812 10150 20130 30137 40154 58017 60006 90000=
07020,1996-09-12 06:00:00,16,1013.1,-1,82,13,18000,35.188,,,310,14.7,16.4,,,,,,,,,wg-a,,,,AAXX 12064 07020 12568 83119 10160 20130 30114 40131 56010 60006 888// 90600 333 10164 20147=
07020,1996-09-12 12:00:00,17,1013.4,0.2,77,13,20000,25.928,,,340,,,,,,,,,,2,wg-a,,,,AAXX 12124 07020 02670 53414 10170 20130 30117 40134 52002 61000 70252 83260 91200 333 6100=
07020,1996-09-12 18:00:00,17,1013.6,0.5,77,13,20000,18.52,,,330,15.2,18.8,,,,,,,,,wg-a,,,,AAXX 12184 07020 32670 63310 10170 20130 30119 40136 53005 84505 91800 333 10188 20152=
07020,1996-09-13 00:00:00,15,1016,1,63,8,0,29.632,,,30,,,,,,,,,,,wg-a,,,,AAXX 13004 07020 12/// /0316 10150 20080 30143 40160 52010 60006 90000=
07020,1996-09-13 06:00:00,13,1017.7,0.7,67,7,20000,35.188,,,360,13.2,17,,,,,,,,,wg-a,,,,AAXX 13064 07020 12670 33619 10130 20070 30160 40177 52007 60006 83400 90600 333 10170 20132=
07020,1996-09-13 12:00:00,15,1020,0.5,63,8,50000,22.224,,,350,,,,,,,,,,,wg-a,,,,AAXX 13124 07020 12684 13512 10150 20080 30183 40200 51005 60006 81100 91200=
07020,1996-09-13 18:00:00,16,1021.1,0.8,63,9,50000,18.52,,,300,13.1,16.7,,,,,,,,,wg-a,,,,AAXX 13184 07020 12/84 03010 10160 20090 30194 40211 53008 60006 80000 91800 333 10167 20131=
07020,1996-09-14 00:00:00,15,1022.4,0.4,63,8,0,7.408,,,350,,,,,,,,,,,wg-a,,,,AAXX 14004 07020 12/// /3504 10150 20080 30207 40224 51004 60006 90000=
07020,1996-09-14 06:00:00,11,1024,0.9,82,8,500,11.112,,,90,10.5,15.5,,,,,,,,,wg-a,,,,AAXX 14064 07020 12600 30906 10110 20080 30223 40240 53009 60006 81108 90600 333 10155 20105=
07020,1996-09-14 12:00:00,18,1025.7,0.4,52,8,500,14.816,,,30,,,,,,,,,,,wg-a,,,,AAXX 14124 07020 12600 30308 10180 20080 30240 40257 51004 60006 82408 91200=
07020,1996-09-14 18:00:00,15,1024.7,-0.5,63,8,25000,11.112,,,40,10.8,18.3,,,,,,,,,wg-a,,,,AAXX 14184 07020 12/75 40406 10150 20080 30230 40247 56005 60006 80008 91800 333 10183 20108=
07020,1996-09-15 00:00:00,14,1025.2,0.1,77,10,0,14.816,,,50,,,,,,,,,,,wg-a,,,,AAXX 15004 07020 12/// /0508 10140 20100 30235 40252 50001 60006 90000=
07020,1996-09-15 06:00:00,11,1024.8,-0,82,8,20000,14.816,,,160,9.6,14.7,,,,,,,,,wg-a,,,,AAXX 15064 07020 12/70 21608 10110 20080 30231 40248 55000 60006 80001 90600 333 10147 20096=
07020,1996-09-15 12:00:00,19,1025.1,-0.1,56,10,40000,11.112,,,40,,,,,,,,,,,wg-a,,,,AAXX 15124 07020 12/82 00406 10190 20100 30234 40251 58001 60006 80000 91200=
07020,1996-09-15 18:00:00,17,1024.2,-0.2,72,12,50000,29.632,,,70,10.7,19.5,,,,,,,,,wg-a,,,,AAXX 15184 07020 12/84 10716 10170 20120 30225 40242 55002 60006 80001 91800 333 10195 20107=
07020,1996-09-16 00:00:00,14,1023.3,-0.4,88,12,0,22.224,,,90,,,,,,,,,,,wg-a,,,,AAXX 16004 07020 12/// /0912 10140 20120 30216 40233 56004 60006 90000=
07020,1996-09-16 06:00:00,13,1022.3,-0.3,72,8,500,14.816,,,120,13.1,16.5,,,,,,,,,wg-a,,,,AAXX 16064 07020 12/00 31208 10130 20080 30206 40223 56003 60006 80008 90600 333 10165 20131=
07020,1996-09-16 12:00:00,19,1020.8,-1.4,56,10,25000,31.484,,,80,,,,,,,,,,,wg-a,,,,AAXX 16124 07020 12/75 00817 10190 20100 30191 40208 58014 60006 80000 91200=
07020,1996-09-16 18:00:00,17,1017.4,-0.9,72,12,20000,46.3,,,70,12.7,18.7,,,,,,,,,wg-a,,,,AAXX 16184 07020 12/70 00725 10170 20120 30157 40174 55009 60006 80000 91800 333 10187 20127=
07020,1996-09-17 00:00:00,14,1015.7,-0.4,77,10,0,18.52,,,100,,,,,,,,,,,wg-a,,,,AAXX 17004 07020 12/// /1010 10140 20100 30140 40157 58004 60006 90000=
07020,1996-09-17 06:00:00,14,1013.8,-0.8,77,10,20000,31.484,,,90,11.8,16.9,,,,,,,,,wg-a,,,,AAXX 17064 07020 12/70 00917 10140 20100 30121 40138 55008 60006 80000 90600 333 10169 20118=
07020,1996-09-17 12:00:00,17,1014,-0.1,59,9,500,46.3,,,70,,,,,,,,,,,wg-a,,,,AAXX 17124 07020 12/00 20725 10170 20090 30123 40140 58001 60006 80005 91200=
07020,1996-09-17 18:00:00,17,1012.5,0.4,63,10,26000,50.004,,,70,13.9,17.6,,,,,,,,,wg-a,,,,AAXX 17184 07020 12/76 10727 10170 20100 30108 40125 53004 60006 80005 91800 333 10176 20139=
07020,1996-09-18 00:00:00,16,1011.2,-0.9,72,11,0,42.596,,,90,,,,,,,,,,,wg-a,,,,AAXX 18004 07020 12/// /0923 10160 20110 30095 40112 58009 60006 90000=
07020,1996-09-18 06:00:00,13,1010.3,-0.5,67,7,20000,46.3,,,80,12.3,16.7,,,,,,,,,wg-a,,,,AAXX 18064 07020 12/70 30825 10130 20070 30086 40103 58005 60006 82075 90600 333 10167 20123=
07020,1996-09-18 12:00:00,15,1009,-0.6,67,9,15000,64.82,,,60,,,,,,,,,,,wg-a,,,,AAXX 18124 07020 12665 30635 10150 20090 30073 40090 58006 60006 8/100 91200=
07020,1996-09-18 18:00:00,15,1008.5,0.9,63,8,15000,57.412,,90.748,50,12.8,15.6,,,,,,,,,wg-a,,,,AAXX 18184 07020 12665 50531 10150 20080 30068 40085 52009 60006 8/100 91800 333 10156 20128 91049=
07020,1996-09-19 00:00:00,15,1008.9,-0.5,67,9,0,61.116,,,50,,,,,,,,,,,wg-a,,,,AAXX 19004 07020 12/// /0533 10150 20090 30072 40089 58005 60006 90000=
07020,1996-09-19 06:00:00,14,1007.1,-1,67,8,13000,61.116,,83.34,40,14.1,15.3,,,,,,,,,wg-a,,,,AAXX 19064 07020 12663 50433 10140 20080 30054 40071 56010 60006 85400 90600 333 10153 20141 91045=
07020,1996-09-19 12:00:00,14,1006.5,-0.7,77,10,10000,57.412,,,40,,,,3,,,,,,61,wg-a,,,,AAXX 19124 07020 02560 80431 10140 20100 30048 40065 58007 60036 76186 8/820 91200 333 60037=
07020,1996-09-19 18:00:00,13,1004.3,-0.9,94,12,12000,53.708,,,20,12.7,14.9,,1,,,,,,61,wg-a,,,,AAXX 19184 07020 12662 80229 10130 20120 30026 40043 56009 60017 76186 86420 91800 333 10149 20127=
07020,1996-09-20 00:00:00,14,1002.1,-1.3,100,14,0,11.112,,,100,,,,,,,,,,,wg-a,,,,AAXX 20004 07020 12/// /1006 10140 20140 30004 40021 58013 60136 90000=
07020,1996-09-20 06:00:00,13,1001.9,-0,94,12,14000,11.112,,,100,11.6,14.7,,,,,,,,,wg-a,,,,AAXX 20064 07020 02664 61006 10130 20120 30002 40019 55000 61000 82260 90600 333 10147 20116 ////=
07020,1996-09-20 12:00:00,16,1003.6,0.6,68,10,25000,25.928,,,70,,,,,,,,,,,wg-a,,,,AAXX 20124 07020 12575 50714 10160 20100 30020 40036 50006 60006 83270 91200=
07020,1996-09-20 18:00:00,14,1004.2,-0,72,9,25000,25.928,,,80,12.6,16.6,,,,,,,,,wg-a,,,,AAXX 20184 07020 12675 40814 10140 20090 30025 40042 55000 60006 81228 91800 333 10166 20126=
07020,1996-09-21 00:00:00,15,1004.4,-0.4,72,10,0,14.816,,,90,,,,,,,,,,,wg-a,,,,AAXX 21004 07020 12/// /0908 10150 20100 30027 40044 56004 60006 90000=
07020,1996-09-21 06:00:00,15,1004.8,0.5,72,10,12000,29.632,,,60,12.3,15.1,,,,,,,,,wg-a,,,,AAXX 21064 07020 12562 70616 10150 20100 30031 40048 53005 60006 8472/ 90600 333 10151 20123=
07020,1996-09-21 12:00:00,16,1007.1,0.6,77,12,8000,46.3,,,40,,,,,,,,,,20,wg-a,,,,AAXX 21124 07020 02458 80425 10160 20120 30054 40071 53006 61000 72055 8477/ 91200 333 6100=
07020,1996-09-21 18:00:00,15,1008.7,1.2,72,10,16000,42.596,,,40,14.7,16.5,,,,,,,,1,wg-a,,,,AAXX 21184 07020 32666 40423 10150 20100 30070 40087 50012 70155 82221 91800 333 10165 20147=
07020,1996-09-22 00:00:00,14,1010.3,-0.1,67,8,0,38.892,,,30,,,,,,,,,,,wg-a,,,,AAXX 22004 07020 12/// /0321 10140 20080 30086 40103 58001 60006 90000=
07020,1996-09-22 06:00:00,14,1011.3,0.7,77,10,14000,42.596,,,30,13.3,15,,,,,,,,,wg-a,,,,AAXX 22064 07020 12564 40323 10140 20100 30096 40113 53007 60006 84800 90600 333 10150 20133=
07020,1996-09-22 12:00:00,15,1012.7,0.3,72,10,16000,38.892,,,30,,,,,,,,,,,wg-a,,,,AAXX 22124 07020 12566 80321 10150 20100 30110 40127 52003 60006 8522/ 91200=
07020,1996-09-22 18:00:00,15,1012.5,-0,63,8,20000,25.928,,,30,13.2,15.6,,,,,,,,,wg-a,,,,AAXX 22184 07020 12570 70314 10150 20080 30108 40125 55000 60006 8117/ 91800 333 10156 20132=
07020,1996-09-23 00:00:00,14,1012,-0.8,67,8,0,14.816,,,20,,,,,,,,,,,wg-a,,,,AAXX 23004 07020 12/// /0208 10140 20080 30103 40120 58008 60006 90000=
07020,1996-09-23 06:00:00,14,1010.8,-0.1,72,9,22000,14.816,,,350,13.8,14.7,,,,,,,,,wg-a,,,,AAXX 23064 07020 12672 73508 10140 20090 30091 40108 55001 60006 8227/ 90600 333 10147 20138=
07020,1996-09-23 12:00:00,17,1011.1,-0.4,55,8,18000,11.112,,,20,,,,,,,,,,,wg-a,,,,AAXX 23124 07020 12/68 40206 10170 20080 30094 40111 58004 60006 80005 91200=
07020,1996-09-23 18:00:00,14,1011.7,0.9,67,8,18000,7.408,,,280,13.8,17.6,,,,,,,,,wg-a,,,,AAXX 23184 07020 12868 62804 10140 20080 30100 40117 53009 60006 83035 91800 333 10176 20138=
07020,1996-09-24 00:00:00,12,1012.3,-0.1,71,7,0,0,,,0,,,,,,,,,,,wg-a,,,,AAXX 24004 07020 12/// /0000 10120 20070 30106 40123 58001 60006 90000=
07020,1996-09-24 06:00:00,11,1012.2,0.2,87,9,16000,14.816,,,170,9.9,14,,,,,,,,,wg-a,,,,AAXX 24064 07020 12866 61708 10110 20090 30105 40122 53002 60006 84032 90600 333 10140 20099=
07020,1996-09-24 12:00:00,17,1011.6,-0.9,72,12,16000,25.928,,,190,,,,,,,,,,,wg-a,,,,AAXX 24124 07020 12566 61914 10170 20120 30099 40116 58009 60006 84275 91200=
07020,1996-09-24 18:00:00,15,1009.6,-0.9,77,11,14000,25.928,,,200,11.2,18,,,,,,,,,wg-a,,,,AAXX 24184 07020 12664 82014 10150 20110 30079 40096 56009 60006 8452/ 91800 333 10180 20112=
07020,1996-09-25 00:00:00,14,1006.6,-1.6,94,13,0,18.52,,,160,,,,,,,,,,,wg-a,,,,AAXX 25004 07020 12/// /1610 10140 20130 30049 40066 57016 60006 90000=
07020,1996-09-25 06:00:00,14,1005.4,-0.2,88,12,20000,31.484,,,240,13.2,15.4,,1,,,,,,,wg-a,,,,AAXX 25064 07020 12570 82417 10140 20120 30037 40054 55002 60017 8682/ 90600 333 10154 20132=
07020,1996-09-25 12:00:00,16,1009,1.8,82,13,20000,18.52,,,260,,,,0,,,,,,2,wg-a,,,,AAXX 25124 07020 02670 62610 10160 20130 30073 40090 52018 60016 70286 86800 91200 333 60007=
07020,1996-09-25 18:00:00,16,1012.6,2.1,88,14,18000,18.52,,,250,14.4,17.1,,,,,,,,,wg-a,,,,AAXX 25184 07020 32668 42510 10160 20140 30109 40126 53021 82435 91800 333 10171 20144=
07020,1996-09-26 00:00:00,16,1015,0.9,82,13,0,18.52,,,240,,,,,,,,,,,wg-a,,,,AAXX 26004 07020 12/// /2410 10160 20130 30133 40150 53009 60006 90000=
07020,1996-09-26 06:00:00,15,1014.7,-0.6,88,13,18000,35.188,,,220,14.8,15.7,,,,,,,,,wg-a,,,,AAXX 26064 07020 12668 62219 10150 20130 30130 40147 56006 60006 83230 90600 333 10157 20148=
07020,1996-09-26 12:00:00,15,1013.1,-1.6,94,14,8000,42.596,,,180,,,,5,,,,,,61,wg-a,,,,AAXX 26124 07020 02558 81823 10150 20140 30114 40131 58016 60056 76162 8572/ 91200 333 60057=
07020,1996-09-26 18:00:00,15,1009,-1.9,94,14,16000,53.708,,75.932,170,14.4,15.7,,,,,,,,2,wg-a,,,,AAXX 26184 07020 02566 81729 10150 20140 30073 40090 56019 61000 70262 8652/ 91800 333 10157 20144 //// 91041=
07020,1996-09-27 00:00:00,16,1009.4,0.6,94,15,0,31.484,,,250,,,,,,,,,,,wg-a,,,,AAXX 27004 07020 12/// /2517 10160 20150 30077 40094 51006 60016 90000=
07020,1996-09-27 06:00:00,16,1010.4,0.3,94,15,10000,42.596,,61.116,230,15.3,16.2,,,,,,,,,wg-a,,,,AAXX 27064 07020 32560 72323 10160 20150 30087 40104 52003 8577/ 90600 333 10162 20153 91033=
07020,1996-09-27 12:00:00,17,1013.7,1.8,82,14,16000,31.484,,75.932,240,,,,,,,,,,2,wg-a,,,,AAXX 27124 07020 12566 52417 10170 20140 30120 40137 53018 60046 70286 85200 91200 333 91041=
07020,1996-09-27 18:00:00,16,1018.6,2.6,77,12,20000,31.484,,,250,14.4,17.1,,,,,,,,2,wg-a,,,,AAXX 27184 07020 02570 12517 10160 20120 30169 40186 53026 61000 70288 81200 91800 333 10171 20144 ////=
07020,1996-09-28 00:00:00,15,1021.9,1.5,82,12,0,25.928,,,250,,,,,,,,,,,wg-a,,,,AAXX 28004 07020 12/// /2514 10150 20120 30202 40219 52015 60006 90000=
07020,1996-09-28 06:00:00,15,1022.9,0.7,88,13,14000,35.188,,,230,15,15.6,,,,,,,,,wg-a,,,,AAXX 28064 07020 12664 82319 10150 20130 30212 40229 51007 60006 8651/ 90600 333 10156 20150=
07020,1996-09-28 12:00:00,17,1024.6,0.4,82,14,15000,31.484,,,220,,,,,,,,,,2,wg-a,,,,AAXX 28124 07020 02665 72217 10170 20140 30229 40246 50004 61000 70282 8427/ 91200 333 6100=
07020,1996-09-28 18:00:00,16,1023,-0.5,82,13,15000,29.632,,,210,15.3,17.5,,,,,,,,,wg-a,,,,AAXX 28184 07020 32665 62116 10160 20130 30213 40230 56005 84470 91800 333 10175 20153=
07020,1996-09-29 00:00:00,15,1020,-1.5,88,13,0,53.708,,,200,,,,0,,,,,,,wg-a,,,,AAXX 29004 07020 02/// /2029 10150 20130 30183 40200 58015 60016 90000 333 60007=
07020,1996-09-29 06:00:00,16,1017.9,-0.4,94,15,14000,57.412,,79.636,210,14.9,16.2,,0,,,,,,,wg-a,,,,AAXX 29064 07020 12564 82131 10160 20150 30162 40179 55004 60007 885// 90600 333 10162 20149 91043=
07020,1996-09-29 12:00:00,17,1018,-0.3,94,16,11000,53.708,,,210,,,,,,,,,,50,wg-a,,,,AAXX 29124 07020 02461 82129 10170 20160 30163 40180 58003 61000 75052 887// 91200 333 6100=
07020,1996-09-29 18:00:00,17,1015.8,-1.1,94,16,10000,61.116,,,210,16,17.7,,,,,,,,50,wg-a,,,,AAXX 29184 07020 02460 82133 10170 20160 30141 40158 57011 61000 75052 887// 91800 333 10177 20160 ////=
07020,1996-09-30 00:00:00,16,1015.2,-0.2,100,16,0,38.892,,,240,,,,1,,,,,,,wg-a,,,,AAXX 30004 07020 02/// /2421 10160 20160 30135 40152 55002 60016 90000 333 60017=
07020,1996-09-30 06:00:00,16,1013.4,-1.2,88,14,15000,22.224,,,240,15.5,17.2,,,,,,,,,wg-a,,,,AAXX 30064 07020 02665 82412 10160 20140 30117 40134 56012 61000 885// 90600 333 10172 20155 ////=
07020,1996-09-30 12:00:00,15,1010.8,-2,94,14,500,14.816,,,340,,,,1,,,,,,21,wg-a,,,,AAXX 30124 07020 02500 83408 10150 20140 30091 40108 58020 60016 72186 8472/ 91200 333 60017=
07020,1996-09-30 18:00:00,13,1008,-1.1,94,12,6000,25.928,,,350,12.4,16,,5,,,,,,61,wg-a,,,,AAXX 30184 07020 12556 83514 10130 20120 30063 40080 57011 60057 76166 8472/ 91800 333 10160 20124=
07020,1996-10-01 00:00:00,13,1008.3,-0.4,77,9,0,11.112,,,360,,,,,,,,,,,wg-a,,,,AAXX 01004 07020 12/// /3606 10130 20090 30066 40083 58004 60056 90000=
07020,1996-10-01 06:00:00,14,1008.3,0.4,77,10,500,31.484,,,320,12.4,13.9,,0,,,,,,,wg-a,,,,AAXX 01064 07020 12500 63217 10140 20100 30066 40083 53004 60007 85208 90600 333 10139 20124=
07020,1996-10-01 12:00:00,15,1011.2,1.3,72,10,500,35.188,,,280,,,,,,,,,,,wg-a,,,,AAXX 01124 07020 12500 62819 10150 20100 30095 40112 51013 60006 85208 91200=
07020,1996-10-01 18:00:00,14,1011.6,0,72,9,40000,31.484,,,260,13.7,15.7,,,,,,,,80,wg-a,,,,AAXX 01184 07020 02582 72617 10140 20090 30099 40116 50000 61000 78082 85208 91800 333 10157 20137 ////=
07020,1996-10-02 00:00:00,13,1010.2,-1.4,94,12,0,35.188,,,230,,,,5,,,,,,,wg-a,,,,AAXX 02004 07020 02/// /2319 10130 20120 30085 40102 58014 60056 90000 333 60057=
07020,1996-10-02 06:00:00,11,1013.1,2.4,100,11,35000,14.816,,,100,10.4,14.5,,,,,,,,,wg-a,,,,AAXX 02064 07020 02681 51008 10110 20110 30114 40131 52024 61000 85400 90600 333 10145 20104 ////=
07020,1996-10-02 12:00:00,16,1020.6,3.2,,,40000,18.52,,,20,,,,,,,,,,,wg-a,,,,AAXX 02124 07020 12682 30210 10160 2//// 30189 40206 53032 60006 83400 91200=
07020,1996-10-03 00:00:00,14,1025.7,0,88,12,0,22.224,,,230,,,,,,,,,,,wg-a,,,,AAXX 03004 07020 12/// /2312 10140 20120 30240 40257 50000 60006 90000=
07020,1996-10-03 06:00:00,14,1024.9,-0.4,82,11,25000,31.484,,,220,11.4,14.6,,,,,,,,,wg-a,,,,AAXX 03064 07020 12575 62217 10140 20110 30232 40249 55004 60006 85870 90600 333 10146 20114=
07020,1996-10-03 12:00:00,15,1023.8,-1.7,82,12,45000,46.3,,,210,,,,,,,,,,,wg-a,,,,AAXX 03124 07020 12583 82125 10150 20120 30221 40238 57017 60006 884// 91200=
07020,1996-10-03 18:00:00,15,1020.6,-1.7,94,14,20000,50.004,,75.932,210,14,16,,,,,,,,,wg-a,,,,AAXX 03184 07020 12570 82127 10150 20140 30189 40206 57017 60006 88700 91800 333 10160 20140 91041=
07020,1996-10-04 00:00:00,15,1020.4,0.5,72,10,0,25.928,,,260,,,,1,,,,,,,wg-a,,,,AAXX 04004 07020 02/// /2614 10150 20100 30187 40204 50005 60016 90000 333 60017=
07020,1996-10-04 06:00:00,14,1020.2,0,63,7,500,29.632,,,250,12.9,15.2,,,,,,,,,wg-a,,,,AAXX 04064 07020 32600 72516 10140 20070 30185 40202 50000 874// 90600 333 10152 20129=
07020,1996-10-04 12:00:00,15,1018.7,-1.9,67,9,18000,50.004,,90.748,240,,,,,,,,,,25,wg-a,,,,AAXX 04124 07020 02568 52427 10150 20090 30170 40187 58019 60016 72582 84770 91200 333 61000 91049=
07020,1996-10-04 18:00:00,14,1015.6,-1.5,77,10,20000,38.892,,72.228,250,12,15.3,,,,,,,,81,wg-a,,,,AAXX 04184 07020 02570 62521 10140 20100 30139 40156 56015 61000 78183 84920 91800 333 10153 20120 //// 91039=
07020,1996-10-05 00:00:00,13,1015.1,0.4,77,9,0,50.004,,,300,,,,0,,,,,,,wg-a,,,,AAXX 05004 07020 02/// /3027 10130 20090 30134 40151 53004 60026 90000 333 60007=
07020,1996-10-05 06:00:00,13,1016.8,1.2,77,9,20000,42.596,,,310,11.7,14.1,,,,,,,,,wg-a,,,,AAXX 05064 07020 02570 63123 10130 20090 30151 40168 53012 61000 84828 90600 333 10141 20117 ////=
07020,1996-10-05 12:00:00,14,1020.7,1.9,67,8,45000,31.484,,,340,,,,,,,,,,,wg-a,,,,AAXX 05124 07020 12583 73417 10140 20080 30190 40207 51019 60006 87200 91200=
07020,1996-10-05 18:00:00,14,1022.9,1.6,67,8,500,31.484,,,350,13,14.8,,,,,,,,,wg-a,,,,AAXX 05184 07020 12500 63517 10140 20080 30212 40229 53016 60006 84241 91800 333 10148 20130=
07020,1996-10-06 00:00:00,13,1024.6,0.4,72,8,0,25.928,,,10,,,,,,,,,,,wg-a,,,,AAXX 06004 07020 12/// /0114 10130 20080 30229 40246 50004 60006 90000=
07020,1996-10-06 06:00:00,13,1025.3,0.3,67,7,22000,22.224,,,350,12.5,14.4,,,,,,,,,wg-a,,,,AAXX 06064 07020 12572 83512 10130 20070 30236 40253 53003 60006 8317/ 90600 333 10144 20125=
07020,1996-10-06 12:00:00,14,1025.8,0.1,77,10,35000,7.408,,,230,,,,,,,,,,2,wg-a,,,,AAXX 06124 07020 02881 82304 10140 20100 30241 40258 50001 61000 70262 8807/ 91200 333 ////=
07020,1996-10-06 18:00:00,14,1024.1,-0.4,88,12,25000,18.52,,,240,12,14.5,,0,,,,,,,wg-a,,,,AAXX 06184 07020 12675 82410 10140 20120 30224 40241 55004 60007 8417/ 91800 333 10145 20120=
07020,1996-10-07 00:00:00,15,1023.1,-0.6,88,13,0,14.816,,,250,,,,,,,,,,,wg-a,,,,AAXX 07004 07020 12/// /2508 10150 20130 30214 40231 58006 60006 90000=
07020,1996-10-07 06:00:00,15,1021.9,-0.2,82,12,18000,14.816,,,280,14.1,14.9,,,,,,,,,wg-a,,,,AAXX 07064 07020 12568 82808 10150 20120 30202 40219 56002 60006 8472/ 90600 333 10149 20141=
07020,1996-10-07 12:00:00,16,1022.3,-0.3,72,11,25000,7.408,,,250,,,,,,,,,,,wg-a,,,,AAXX 07124 07020 12675 72504 10160 20110 30206 40223 58003 60006 8457/ 91200=
07020,1996-10-07 18:00:00,15,1021.9,0.4,88,13,500,18.52,,,270,14.5,15.9,,,,,,,,,wg-a,,,,AAXX 07184 07020 12500 82710 10150 20130 30202 40219 53004 60006 888// 91800 333 10159 20145=
07020,1996-10-08 00:00:00,15,1022,-0.3,82,12,0,11.112,,,280,,,,,,,,,,,wg-a,,,,AAXX 08004 07020 12/// /2806 10150 20120 30203 40220 57003 60006 90000=
07020,1996-10-08 06:00:00,15,1021.7,0.3,82,12,20000,18.52,,,300,14.7,15.2,,,,,,,,,wg-a,,,,AAXX 08064 07020 12570 73010 10150 20120 30200 40217 52003 60006 878// 90600 333 10152 20147=
07020,1996-10-08 12:00:00,16,1022.4,-0.3,82,13,40000,7.408,,,320,,,,,,,,,,,wg-a,,,,AAXX 08124 07020 12582 73204 10160 20130 30207 40224 58003 60006 878// 91200=
07020,1996-10-08 18:00:00,15,1022,0.1,88,13,35000,14.816,,,260,14.8,16.9,,,,,,,,,wg-a,,,,AAXX 08184 07020 12581 82608 10150 20130 30203 40220 53001 60006 888// 91800 333 10169 20148=
07020,1996-10-09 00:00:00,14,1021.6,-0.4,94,13,0,22.224,,,280,,,,,,,,,,,wg-a,,,,AAXX 09004 07020 12/// /2812 10140 20130 30199 40216 57004 60006 90000=
07020,1996-10-09 06:00:00,13,1020.8,0.2,94,12,20000,29.632,,,10,13.1,15.5,,,,,,,,,wg-a,,,,AAXX 09064 07020 12670 80116 10130 20120 30191 40208 53002 60006 886// 90600 333 10155 20131=
07020,1996-10-09 12:00:00,14,1023.4,0.4,67,8,50000,29.632,,,340,,,,,,,,,,1,wg-a,,,,AAXX 09124 07020 12784 23416 10140 20080 30217 40234 50004 60016 70161 81108 91200=
07020,1996-10-09 18:00:00,15,1023.8,0.8,72,10,50000,29.632,,,320,12.1,15.1,,,,,,,,,wg-a,,,,AAXX 09184 07020 32684 83216 10150 20100 30221 40238 53008 8227/ 91800 333 10151 20121=
07020,1996-10-10 00:00:00,15,1024.5,-0.3,82,12,0,18.52,,,350,,,,,,,,,,,wg-a,,,,AAXX 10004 07020 12/// /3510 10150 20120 30228 40245 57003 60006 90000=
07020,1996-10-10 06:00:00,14,1024.9,0.5,88,12,20000,18.52,,,20,14,14.8,,,,,,,,,wg-a,,,,AAXX 10064 07020 12570 80210 10140 20120 30232 40249 53005 60006 8472/ 90600 333 10148 20140=
07020,1996-10-10 12:00:00,15,1026,-0.3,67,9,20000,25.928,,,50,,,,,,,,,,,wg-a,,,,AAXX 10124 07020 02670 70514 10150 20090 30243 40260 58003 61000 875// 91200 333 ////=
07020,1996-10-10 18:00:00,14,1025.4,0.1,67,8,20000,22.224,,,60,13.8,15,,,,,,,,,wg-a,,,,AAXX 10184 07020 32/70 60612 10140 20080 30237 40254 53001 86070 91800 333 10150 20138=
07020,1996-10-11 00:00:00,13,1023.9,-1.3,72,8,0,14.816,,,110,,,,,,,,,,,wg-a,,,,AAXX 11004 07020 12/// /1108 10130 20080 30222 40239 58013 60006 90000=
07020,1996-10-11 06:00:00,13,1021.2,-1,88,11,20000,14.816,,,140,12.1,14.2,,,,,,,,,wg-a,,,,AAXX 11064 07020 12/70 71408 10130 20110 30195 40212 57010 60006 8707/ 90600 333 10142 20121=
07020,1996-10-11 12:00:00,16,1019.3,-1.2,77,12,6000,25.928,,,180,,,,,,,,,,,wg-a,,,,AAXX 11124 07020 12556 71814 10160 20120 30176 40193 58012 60006 8367/ 91200=
07020,1996-10-11 18:00:00,13,1016.4,-1.3,88,11,10000,14.816,,,160,12.6,16.3,,,,,,,,,wg-a,,,,AAXX 11184 07020 12860 81608 10130 20110 30147 40164 56013 60006 8807/ 91800 333 10163 20126=
07020,1996-10-12 00:00:00,14,1013.3,-2,82,11,0,31.484,,,170,,,,,,,,,,,wg-a,,,,AAXX 12004 07020 12/// /1717 10140 20110 30116 40133 57020 60006 90000=
07020,1996-10-12 06:00:00,13,1010.3,-1.3,88,11,10000,25.928,,,170,12.5,14.4,,,,,,,,,wg-a,,,,AAXX 12064 07020 12560 71714 10130 20110 30086 40103 58013 60006 8372/ 90600 333 10144 20125=
07020,1996-10-12 12:00:00,15,1008.8,-1.3,82,12,16000,31.484,,,170,,,,,,,,,,,wg-a,,,,AAXX 12124 07020 12666 41717 10150 20120 30071 40088 58013 60006 84500 91200=
07020,1996-10-12 18:00:00,15,1006.2,-0.8,77,11,15000,25.928,,,140,12.2,16,,,,,,,,,wg-a,,,,AAXX 12184 07020 12/65 01414 10150 20110 30045 40062 56008 60006 80000 91800 333 10160 20122=
07020,1996-10-13 00:00:00,15,1003.8,-1,82,12,0,35.188,,,160,,,,,,,,,,,wg-a,,,,AAXX 13004 07020 12/// /1619 10150 20120 30021 40038 56010 60006 90000=
07020,1996-10-13 06:00:00,14,1000.4,-1.6,77,10,14000,38.892,,,150,13.6,15.2,,,,,,,,,wg-a,,,,AAXX 13064 07020 12/64 11521 10140 20100 39987 40004 57016 60006 81030 90600 333 10152 20136=
07020,1996-10-13 12:00:00,19,999.5,-0.8,64,12,16000,46.3,,68.524,160,,,,,,,,,,,wg-a,,,,AAXX 13124 07020 12/66 21625 10190 20120 39979 49995 55008 60006 80008 91200 333 91037=
07020,1996-10-13 18:00:00,18,1000.1,1,64,11,20000,18.52,,,140,13.5,20.6,,,,,,,,,wg-a,,,,AAXX 13184 07020 12870 81410 10180 20110 39985 40001 53010 60006 84076 91800 333 10206 20135=
07020,1996-10-14 00:00:00,18,1000.4,-0,64,11,0,38.892,,,140,,,,,,,,,,,wg-a,,,,AAXX 14004 07020 12/// /1421 10180 20110 39988 40004 55000 60006 90000=
07020,1996-10-14 06:00:00,16,999.9,-0,72,11,18000,31.484,,,150,15.5,18.2,,,,,,,,,wg-a,,,,AAXX 14064 07020 12868 71517 10160 20110 39983 49999 55000 60006 8707/ 90600 333 10182 20155=
07020,1996-10-14 12:00:00,17,1000.5,0,72,12,500,29.632,,57.412,160,,,,,,,,,,,wg-a,,,,AAXX 14124 07020 12800 81616 10170 20120 39989 40005 50000 60006 8807/ 91200 333 91031=
07020,1996-10-14 18:00:00,15,1001.3,1.2,88,13,25000,29.632,,,210,14.5,16.9,,,,,,,,1,wg-a,,,,AAXX 14184 07020 02575 82116 10150 20130 39996 40013 53012 61000 70182 8624/ 91800 333 10169 20145 ////=
07020,1996-10-15 00:00:00,14,1003.3,1.1,82,11,0,29.632,,,250,,,,,,,,,,,wg-a,,,,AAXX 15004 07020 12/// /2516 10140 20110 30016 40033 51011 60006 90000=
07020,1996-10-15 06:00:00,14,1005.5,1.2,77,10,25000,38.892,,,220,13.4,14.8,,,,,,,,,wg-a,,,,AAXX 15064 07020 32575 42221 10140 20100 30038 40055 53012 83241 90600 333 10148 20134=
07020,1996-10-15 12:00:00,14,1008.4,2,58,6,25000,35.188,,,250,,,,,,,,,,,wg-a,,,,AAXX 15124 07020 02575 42519 10140 20060 30067 40084 52020 60016 84100 91200 333 61000=
07020,1996-10-15 18:00:00,12,1010.1,0.6,71,7,25000,31.484,,68.524,240,11,14.7,,1,,,,,,25,wg-a,,,,AAXX 15184 07020 12575 52417 10120 20070 30084 40101 53006 60017 72582 85260 91800 333 10147 20110 91037=
07020,1996-10-16 00:00:00,12,1009.4,-0.8,82,9,0,46.3,,,210,,,,1,,,,,,,wg-a,,,,AAXX 16004 07020 02/// /2125 10120 20090 30077 40094 58008 60016 90000 333 60017=
07020,1996-10-16 06:00:00,11,1008.4,-0.1,82,8,20000,11.112,,,250,9.9,12.8,,5,,,,,,,wg-a,,,,AAXX 16064 07020 12470 52506 10110 20080 30067 40084 56001 60057 83360 90600 333 10128 20099=
07020,1996-10-16 12:00:00,14,1008.3,0.1,67,8,50000,31.484,,64.82,240,,,,,,,,,,2,wg-a,,,,AAXX 16124 07020 12584 52417 10140 20080 30066 40083 51001 60026 70292 85300 91200 333 91035=
07020,1996-10-16 18:00:00,11,1006.8,-0.4,76,7,500,42.596,,64.82,210,8.9,15,,1,,,,,,80,wg-a,,,,AAXX 16184 07020 12500 72123 10110 20070 30051 40068 55004 60017 78082 85908 91800 333 10150 20089 91035=
07020,1996-10-17 00:00:00,11,1006.5,-0.2,76,7,0,11.112,,,250,,,,1,,,,,,,wg-a,,,,AAXX 17004 07020 02/// /2506 10110 20070 30048 40065 55002 60016 90000 333 60017=
07020,1996-10-17 06:00:00,12,1007,0.4,71,7,40000,14.816,,,290,9.5,12.1,,,,,,,,,wg-a,,,,AAXX 17064 07020 02582 62908 10120 20070 30053 40070 53004 61000 86800 90600 333 10121 20095 ////=
07020,1996-10-17 12:00:00,14,1009.4,1,63,7,50000,14.816,,,280,,,,,,,,,,2,wg-a,,,,AAXX 17124 07020 12684 42808 10140 20070 30077 40094 51010 60006 70282 83201 91200=
07020,1996-10-17 18:00:00,12,1010,0.5,76,8,40000,14.816,,,180,11.2,15.5,,,,,,,,,wg-a,,,,AAXX 17184 07020 32682 71808 10120 20080 30083 40100 53005 86240 91800 333 10155 20112=
07020,1996-10-18 00:00:00,12,1008.9,-0.7,76,8,0,35.188,,,180,,,,,,,,,,,wg-a,,,,AAXX 18004 07020 12/// /1819 10120 20080 30072 40089 58007 60006 90000=
07020,1996-10-18 06:00:00,12,1004.9,-1.8,94,11,0,42.596,,,170,10,13.3,,1,,,,,,,wg-a,,,,AAXX 18064 07020 12/// /1723 10120 20110 30032 40049 56018 60017 90600 333 10133 20100=
07020,1996-10-18 12:00:00,16,1007,1.6,77,12,14000,38.892,,83.34,240,,,,,,,,,,1,wg-a,,,,AAXX 18124 07020 02564 62421 10160 20120 30053 40070 51016 60026 70182 8472/ 91200 333 61000 91045=
07020,1996-10-18 18:00:00,15,1007.1,0.8,88,13,12000,50.004,,83.34,240,12.1,16.4,,3,,,,,,15,wg-a,,,,AAXX 18184 07020 12562 62427 10150 20130 30054 40071 53008 60037 71586 8397/ 91800 333 10164 20121 91045=
07020,1996-10-19 00:00:00,15,1011.7,2.2,77,11,0,42.596,,,260,,,,,,,,,,,wg-a,,,,AAXX 19004 07020 12/// /2623 10150 20110 30100 40117 52022 60016 90000=
07020,1996-10-19 06:00:00,14,1017.5,3,77,10,16000,38.892,,75.932,260,14.1,15.1,,,,,,,,,wg-a,,,,AAXX 19064 07020 32566 62621 10140 20100 30158 40175 52030 84220 90600 333 10151 20141 91041=
07020,1996-10-19 12:00:00,16,1022.4,2,77,12,18000,35.188,,,230,,,,,,,,,,,wg-a,,,,AAXX 19124 07020 12568 72319 10160 20120 30207 40224 51020 60006 8213/ 91200=
07020,1996-10-19 18:00:00,15,1024.2,1.5,88,13,12000,42.596,,,220,13.8,15.9,,,,,,,,,wg-a,,,,AAXX 19184 07020 12562 82223 10150 20130 30225 40242 53015 60006 82130 91800 333 10159 20138=
07020,1996-10-20 00:00:00,15,1023.8,-0.7,88,13,0,31.484,,,220,,,,,,,,,,,wg-a,,,,AAXX 20004 07020 12/// /2217 10150 20130 30221 40238 58007 60006 90000=
07020,1996-10-20 06:00:00,14,1021.9,-0.9,94,13,16000,31.484,,,180,14.2,15.5,,,,,,,,,wg-a,,,,AAXX 20064 07020 12566 61817 10140 20130 30202 40219 58009 60006 83220 90600 333 10155 20142=
07020,1996-10-20 12:00:00,15,1019.7,-1.5,88,13,18000,38.892,,,160,,,,,,,,,,,wg-a,,,,AAXX 20124 07020 12668 81621 10150 20130 30180 40197 58015 60006 8127/ 91200=
07020,1996-10-20 18:00:00,16,1017.1,-0.8,94,15,13000,42.596,,64.82,190,14.3,16.3,,,,,,,,2,wg-a,,,,AAXX 20184 07020 32563 81923 10160 20150 30154 40171 56008 70282 8227/ 91800 333 10163 20143 91035=
07020,1996-10-21 00:00:00,16,1018.2,0.6,94,15,0,35.188,,,230,,,,,,,,,,,wg-a,,,,AAXX 21004 07020 12/// /2319 10160 20150 30165 40182 51006 60016 90000=
07020,1996-10-21 06:00:00,15,1020.9,2,88,13,20000,31.484,,61.116,270,14.6,16.1,,,,,,,,,wg-a,,,,AAXX 21064 07020 32/70 02717 10150 20130 30192 40209 51020 80000 90600 333 10161 20146 91033=
07020,1996-10-21 12:00:00,16,1024.3,0.9,72,11,40000,14.816,,,310,,,,,,,,,,,wg-a,,,,AAXX 21124 07020 12882 63108 10160 20110 30226 40243 50009 60006 83051 91200=
07020,1996-10-21 18:00:00,12,1024.8,0.8,88,10,40000,3.704,,,100,12.3,17,,,,,,,,,wg-a,,,,AAXX 21184 07020 12882 71002 10120 20100 30231 40248 53008 60006 86051 91800 333 10170 20123=
07020,1996-10-22 00:00:00,12,1024.3,-0.6,94,11,0,3.704,,,40,,,,,,,,,,,wg-a,,,,AAXX 22004 07020 12/// /0402 10120 20110 30226 40243 56006 60006 90000=
07020,1996-10-22 06:00:00,14,1023.6,0.4,82,11,45000,22.224,,,150,11.3,14.1,,,,,,,,,wg-a,,,,AAXX 22064 07020 12/83 71512 10140 20110 30219 40236 52004 60006 86051 90600 333 10141 20113=
07020,1996-10-22 12:00:00,17,1023,-0.7,77,13,20000,18.52,,,140,,,,,,,,,,,wg-a,,,,AAXX 22124 07020 12/70 31410 10170 20130 30213 40230 58007 60006 80008 91200=
07020,1996-10-22 18:00:00,14,1021.6,-0.1,88,12,16000,0,,,0,13.4,19.1,,,,,,,,,wg-a,,,,AAXX 22184 07020 12/66 30000 10140 20120 30199 40216 56001 60006 80008 91800 333 10191 20134=
07020,1996-10-23 00:00:00,15,1019.4,-1.2,72,10,0,31.484,,,150,,,,,,,,,,,wg-a,,,,AAXX 23004 07020 12/// /1517 10150 20100 30177 40194 56012 60006 90000=
07020,1996-10-23 06:00:00,14,1018.7,0.6,72,9,16000,14.816,,,70,12.7,25.8,,,,,,,,,wg-a,,,,AAXX 23064 07020 12/66 00708 10140 20090 30170 40187 50006 60006 80000 90600 333 10258 20127=
07020,1996-10-23 12:00:00,21,1017.6,-1.3,40,7,40000,11.112,,,80,,,,,,,,,,,wg-a,,,,AAXX 23124 07020 12882 30806 10210 20070 30160 40176 56013 60006 82038 91200=
07020,1996-10-23 18:00:00,14,1016.5,-0,77,10,35000,11.112,,,110,12.8,21.9,,,,,,,,,wg-a,,,,AAXX 23184 07020 12881 71106 10140 20100 30148 40165 55000 60006 85038 91800 333 10219 20128=
07020,1996-10-24 00:00:00,16,1016.5,0,68,10,0,25.928,,,160,,,,,,,,,,,wg-a,,,,AAXX 24004 07020 12/// /1614 10160 20100 30148 40165 50000 60006 90000=
07020,1996-10-24 06:00:00,15,1016.5,0.1,77,11,500,18.52,,,160,13.7,17.4,,,,,,,,,wg-a,,,,AAXX 24064 07020 12/00 71610 10150 20110 30148 40165 50001 60006 87050 90600 333 10174 20137=
07020,1996-10-24 12:00:00,20,1015.4,-1.5,64,13,16000,11.112,,,130,,,,,,,,,,,wg-a,,,,AAXX 24124 07020 12866 81306 10200 20130 30138 40154 56015 60006 8807/ 91200=
07020,1996-10-24 18:00:00,17,1013.7,-0.4,82,14,12000,25.928,,,130,15.1,21.1,,0,,,,,,21,wg-a,,,,AAXX 24184 07020 12562 71314 10170 20140 30120 40137 58004 60007 72162 8372/ 91800 333 10211 20151=
07020,1996-10-25 00:00:00,16,1013.6,-0.2,88,14,0,31.484,,,170,,,,,,,,,,,wg-a,,,,AAXX 25004 07020 12/// /1717 10160 20140 30119 40136 58002 60006 90000=
07020,1996-10-25 06:00:00,15,1014.8,0.8,88,13,16000,31.484,,,200,14.7,18.1,,,,,,,,,wg-a,,,,AAXX 25064 07020 32866 62017 10150 20130 30131 40148 51008 86070 90600 333 10181 20147=
07020,1996-10-25 12:00:00,16,1017.3,1.2,72,11,500,42.596,,,210,,,,,,,,,,,wg-a,,,,AAXX 25124 07020 12500 42123 10160 20110 30156 40173 53012 60006 84200 91200=
07020,1996-10-25 18:00:00,15,1017.6,0.1,72,10,35000,46.3,,,190,14.6,16.6,,,,,,,,,wg-a,,,,AAXX 25184 07020 12581 61925 10150 20100 30159 40176 53001 60006 85240 91800 333 10166 20146=
07020,1996-10-26 00:00:00,14,1018.3,1.4,77,10,0,35.188,,,240,,,,0,,,,,,,wg-a,,,,AAXX 26004 07020 02/// /2419 10140 20100 30166 40183 53014 60016 90000 333 60007=
07020,1996-10-26 06:00:00,14,1021.9,2.2,67,8,40000,42.596,,64.82,230,12.6,14.9,,,,,,,,,wg-a,,,,AAXX 26064 07020 32582 32323 10140 20080 30202 40219 53022 83200 90600 333 10149 20126 91035=
07020,1996-10-26 12:00:00,15,1023.1,0.7,67,9,25000,31.484,,,230,,,,,,,,,,,wg-a,,,,AAXX 26124 07020 12675 52317 10150 20090 30214 40231 50007 60006 83130 91200=
07020,1996-10-27 00:00:00,14,1019.7,-1.2,94,13,0,38.892,,,180,,,,,,,,,,,wg-a,,,,AAXX 27004 07020 12/// /1821 10140 20130 30180 40197 58012 60006 90000=
07020,1996-10-27 06:00:00,15,1015.3,-1.7,82,12,20000,53.708,,,190,13.7,14.8,,1,,,,,,,wg-a,,,,AAXX 27064 07020 12570 61929 10150 20120 30136 40153 58017 60017 84270 90600 333 10148 20137=
07020,1996-10-27 12:00:00,15,1014.1,-0.3,94,14,0,50.004,,,200,,,,1,,,,,,,wg-a,,,,AAXX 27124 07020 02/// /2027 10150 20140 30124 40141 58003 60016 91200 333 60017=
07020,1996-10-27 18:00:00,16,1013.6,-0.2,88,14,8000,50.004,,,200,14.5,15.9,,,,,,,,21,wg-a,,,,AAXX 27184 07020 02558 82027 10160 20140 30119 40136 58002 61000 72162 88700 91800 333 10159 20145 ////=
07020,1996-10-28 00:00:00,15,1010.4,-2.3,88,13,0,53.708,,,180,,,,,,,,,,,wg-a,,,,AAXX 28004 07020 12/// /1829 10150 20130 30087 40104 58023 60006 90000=
07020,1996-10-28 06:00:00,15,1003.7,-2.8,94,14,14000,72.228,,100.008,200,14,15.7,,0,,,,,,80,wg-a,,,,AAXX 28064 07020 12564 82039 10150 20140 30020 40037 56028 60007 780// 887// 90600 333 10157 20140 91054=
07020,1996-10-28 12:00:00,16,1003.6,-0.7,68,10,10000,68.524,,96.304,220,,,,,,,,,,25,wg-a,,,,AAXX 28124 07020 02560 62237 10160 20100 30019 40036 58007 60006 72582 86700 91200 333 61000 91052=
07020,1996-10-28 18:00:00,14,998.4,-2.9,82,11,10000,90.748,,125.936,210,13.6,16,,1,,,,,,80,wg-a,,,,AAXX 28184 07020 12560 82149 10140 20110 39967 49984 58029 60017 78082 887// 91800 333 10160 20136 91068=
07020,1996-10-29 06:00:00,13,1007.4,6.3,82,10,8000,61.116,,103.712,310,12.2,14.3,,1,,,,,,61,wg-a,,,,AAXX 29064 07020 12558 83133 10130 20100 30057 40074 53063 60017 76122 887// 90600 333 10143 20122 91056=
07020,1996-10-29 12:00:00,13,1017.9,3.9,72,8,20000,0,,,0,,,,,,,,,,80,wg-a,,,,AAXX 29124 07020 02570 6//// 10130 20080 30162 40179 51039 60016 78086 86300 91200 333 61000=
07020,1996-10-29 18:00:00,13,1022.9,2.6,67,7,20000,0,,,0,12.7,13.5,,,,,,,,,wg-a,,,,AAXX 29184 07020 32670 7//// 10130 20070 30212 40229 53026 873// 91800 333 10135 20127=
07020,1996-10-30 00:00:00,12,1027.2,1.6,71,7,0,0,,,0,,,,,,,,,,,wg-a,,,,AAXX 30004 07020 12/// ///// 10120 20070 30255 40272 51016 60006 90000=
07020,1996-10-30 06:00:00,12,1028,0.3,62,5,20000,0,,,0,11.5,13,,,,,,,,,wg-a,,,,AAXX 30064 07020 12570 7//// 10120 20050 30263 40280 53003 60006 878// 90600 333 10130 20115=
07020,1996-10-30 12:00:00,13,1028.9,0.1,62,6,40000,0,,,0,,,,,,,,,,,wg-a,,,,AAXX 30124 07020 12682 7//// 10130 20060 30272 40289 50001 60006 875// 91200=
07020,1996-10-30 18:00:00,13,1027.9,-0.4,58,5,35000,25.928,,,290,12.1,13.6,,,,,,,,,wg-a,,,,AAXX 30184 07020 12681 82914 10130 20050 30262 40279 58004 60006 885// 91800 333 10136 20121=
07020,1996-10-31 00:00:00,12,1025.6,-1.9,67,6,0,38.892,,,250,,,,,,,,,,,wg-a,,,,AAXX 31004 07020 12/// /2521 10120 20060 30239 40256 58019 60006 90000=
07020,1996-10-31 06:00:00,12,1020.1,-3,82,9,35000,50.004,,72.228,230,11.2,12.5,,,,,,,,,wg-a,,,,AAXX 31064 07020 12781 82327 10120 20090 30184 40201 56030 60006 88500 90600 333 10125 20112 91039=
07020,1996-10-31 12:00:00,14,1016.3,-2.4,100,14,8000,53.708,,,260,,,,0,,,,,,61,wg-a,,,,AAXX 31124 07020 02558 82629 10140 20140 30146 40163 56024 60036 76186 887// 91200 333 60007=
07020,1996-10-31 18:00:00,14,1016,0.4,94,13,8000,46.3,,83.34,290,11.1,15.3,,1,,,,,,61,wg-a,,,,AAXX 31184 07020 12558 82925 10140 20130 30143 40160 53004 60017 76162 887// 91800 333 10153 20111 91045=
07020,1996-11-01 00:00:00,14,1020.1,1.8,88,12,0,35.188,,,300,,,,,,,,,,,wg-a,,,,AAXX 01004 07020 02/// /3019 10140 20120 30184 40201 51018 61000 90000 333 6100=
07020,1996-11-01 06:00:00,14,1024.5,2,88,12,20000,38.892,,64.82,310,13.9,14.6,,,,,,,,,wg-a,,,,AAXX 01064 07020 02670 83121 10140 20120 30228 40245 51020 61000 8257/ 90600 333 10146 20139 //// 91035=
07020,1996-11-01 12:00:00,15,1027.7,0.7,88,13,20000,25.928,,,290,,,,,,,,,,,wg-a,,,,AAXX 01124 07020 12670 82914 10150 20130 30260 40277 50007 60006 88700 91200=
07020,1996-11-01 18:00:00,15,1027.8,0.5,82,12,25000,31.484,,57.412,280,13.7,15.1,,,,,,,,,wg-a,,,,AAXX 01184 07020 12675 82817 10150 20120 30261 40278 52005 60006 88700 91800 333 10151 20137 91031=
07020,1996-11-02 00:00:00,14,1027.1,-0.6,94,13,0,42.596,,,250,,,,,,,,,,,wg-a,,,,AAXX 02004 07020 12/// /2523 10140 20130 30254 40271 57006 60006 90000=
07020,1996-11-02 06:00:00,15,1025.7,-0.6,88,13,500,38.892,,,250,13.9,15,,,,,,,,,wg-a,,,,AAXX 02064 07020 12500 82521 10150 20130 30240 40257 56006 60006 8227/ 90600 333 10150 20139=
07020,1996-11-02 12:00:00,16,1025.3,-0.4,88,14,20000,42.596,,96.304,250,,,,,,,,,,,wg-a,,,,AAXX 02124 07020 12570 82523 10160 20140 30236 40253 58004 60006 8372/ 91200 333 91052=
07020,1996-11-02 18:00:00,15,1024.9,0.2,94,14,20000,46.3,,,250,15,15.7,,,,,,,,,wg-a,,,,AAXX 02184 07020 12570 82525 10150 20140 30232 40249 53002 60006 8172/ 91800 333 10157 20150=
07020,1996-11-03 00:00:00,15,1023.4,-1,88,13,0,50.004,,,240,,,,,,,,,,,wg-a,,,,AAXX 03004 07020 12/// /2427 10150 20130 30217 40234 57010 60006 90000=
07020,1996-11-03 06:00:00,15,1019.7,-2.1,88,13,18000,46.3,,68.524,240,14.6,15.4,,,,,,,,,wg-a,,,,AAXX 03064 07020 12568 82425 10150 20130 30180 40197 58021 60006 8472/ 90600 333 10154 20146 91037=
07020,1996-11-03 12:00:00,15,1019.9,-0.8,100,15,10000,50.004,,,270,,,,1,,,,,,80,wg-a,,,,AAXX 03124 07020 02560 82727 10150 20150 30182 40199 58008 60016 78086 88700 91200 333 60017=
07020,1996-11-03 18:00:00,15,1017.5,-1.2,94,14,10000,38.892,,,260,14.2,15.2,,1,,,,,,21,wg-a,,,,AAXX 03184 07020 12560 82621 10150 20140 30158 40175 58012 60017 72162 88700 91800 333 10152 20142=
07020,1996-11-04 00:00:00,15,1011.3,-4.3,94,14,0,46.3,,,220,,,,,,,,,,,wg-a,,,,AAXX 04004 07020 12/// /2225 10150 20140 30096 40113 58043 60006 90000=
07020,1996-11-04 06:00:00,15,1004.4,-3.1,100,15,25000,50.004,,90.748,240,14.6,15.6,,6,,,,,,81,wg-a,,,,AAXX 04064 07020 12575 82427 10150 20150 30027 40044 56031 60067 781// 887// 90600 333 10156 20146 91049=
07020,1996-11-04 12:00:00,15,1001,-2.5,82,12,20000,0,,,0,,,,,,,,,,2,wg-a,,,,AAXX 04124 07020 12570 6//// 10150 20120 39994 40010 58025 60066 70262 84802 91200=
07020,1996-11-04 18:00:00,13,999.4,-0.3,82,10,20000,0,,,0,11.8,15.4,,,,,,,,2,wg-a,,,,AAXX 04184 07020 02570 6//// 10130 20100 39977 49994 55003 61000 70282 86200 91800 333 10154 20118 ////=
07020,1996-11-05 00:00:00,11,1001.9,1.4,87,9,0,0,,,0,,,,3,,,,,,,wg-a,,,,AAXX 05004 07020 02/// ///// 10110 20090 30002 40019 51014 60036 90000 333 60037=
07020,1996-11-05 06:00:00,12,1009.3,4.6,76,8,18000,0,,,0,10.9,13.3,,,,,,,,,wg-a,,,,AAXX 05064 07020 32568 6//// 10120 20080 30076 40093 52046 86700 90600 333 10133 20109=
07020,1996-11-05 12:00:00,13,1016.8,2.9,67,7,25000,0,,,0,,,,,,,,,,2,wg-a,,,,AAXX 05124 07020 12575 5//// 10130 20070 30151 40168 51029 60006 70281 85100 91200=
07020,1996-11-05 18:00:00,13,1017.1,-0.7,67,7,500,0,,,0,11.5,13.3,,,,,,,,,wg-a,,,,AAXX 05184 07020 32500 7//// 10130 20070 30154 40171 56007 87130 91800 333 10133 20115=
07020,1996-11-06 00:00:00,14,1011.8,-3.1,88,12,0,0,,,0,,,,,,,,,,,wg-a,,,,AAXX 06004 07020 12/// ///// 10140 20120 30101 40118 56031 60006 90000=
07020,1996-11-06 06:00:00,15,1007.4,-1.6,94,14,15000,0,,,0,12.7,15.4,,2,,,,,,61,wg-a,,,,AAXX 06064 07020 12565 8//// 10150 20140 30057 40074 56016 60027 761// 88700 90600 333 10154 20127=
07020,1996-11-06 12:00:00,15,1010.3,0.8,63,8,20000,0,,,0,,,,,,,,,,1,wg-a,,,,AAXX 06124 07020 12570 2//// 10150 20080 30086 40103 50008 60016 70162 82200 91200=
07020,1996-11-06 18:00:00,14,1010.7,0.3,77,10,20000,0,,,0,12.9,14.9,,,,,,,,,wg-a,,,,AAXX 06184 07020 32570 4//// 10140 20100 30090 40107 51003 84200 91800 333 10149 20129=
07020,1996-11-07 00:00:00,14,1009.5,-1,77,10,0,0,,,0,,,,,,,,,,,wg-a,,,,AAXX 07004 07020 12/// ///// 10140 20100 30078 40095 58010 60006 90000=
07020,1996-11-07 06:00:00,12,1007.1,-0.2,88,10,22000,0,,,0,11.2,14,,2,,,,,,,wg-a,,,,AAXX 07064 07020 12572 6//// 10120 20100 30054 40071 56002 60027 82250 90600 333 10140 20112=
07020,1996-11-07 12:00:00,13,1011.5,2.5,72,8,18000,0,,,0,,,,,,,,,,2,wg-a,,,,AAXX 07124 07020 02468 5//// 10130 20080 30098 40115 52025 61000 70282 85900 91200 333 6100=
07020,1996-11-07 18:00:00,13,1016.6,3.4,72,8,18000,0,,,0,11.6,13.6,,,,,,,,,wg-a,,,,AAXX 07184 07020 32568 5//// 10130 20080 30149 40166 51034 85200 91800 333 10136 20116=
07020,1996-11-08 00:00:00,12,1021.2,2.1,71,7,0,0,,,0,,,,0,,,,,,,wg-a,,,,AAXX 08004 07020 02/// ///// 10120 20070 30195 40212 51021 60016 90000 333 60007=
07020,1996-11-08 06:00:00,10,1022.9,0.5,82,7,18000,0,,,0,9,12.8,,3,,,,,,,wg-a,,,,AAXX 08064 07020 12568 6//// 10100 20070 30212 40229 51005 60037 86700 90600 333 10128 20090=
07020,1996-11-08 12:00:00,13,1024.6,0.2,67,7,40000,0,,,0,,,,1,,,,,,2,wg-a,,,,AAXX 08124 07020 02582 6//// 10130 20070 30229 40246 50002 60016 70282 83901 91200 333 60017=
07020,1996-11-08 18:00:00,13,1025.4,0.7,67,7,500,0,,,0,9.9,13.5,,,,,,,,2,wg-a,,,,AAXX 08184 07020 32500 5//// 10130 20070 30237 40254 52007 70282 85800 91800 333 10135 20099=
07020,1996-11-09 00:00:00,13,1026.4,0.5,67,7,0,0,,,0,,,,1,,,,,,,wg-a,,,,AAXX 09004 07020 02/// ///// 10130 20070 30247 40264 51005 60036 90000 333 60017=
07020,1996-11-09 06:00:00,11,1026.5,0,82,8,500,0,,,0,10.6,12.8,,1,,,,,,,wg-a,,,,AAXX 09064 07020 12500 8//// 10110 20080 30248 40265 50000 60017 8472/ 90600 333 10128 20106=
07020,1996-11-09 12:00:00,13,1026.8,-0.6,72,8,500,0,,,0,,,,0,,,,,,25,wg-a,,,,AAXX 09124 07020 02500 6//// 10130 20080 30251 40268 58006 60006 72582 84270 91200 333 60007=
07020,1996-11-09 18:00:00,11,1023.6,-1.6,87,9,18000,0,,,0,10,13.3,,3,,,,,,61,wg-a,,,,AAXX 09184 07020 12568 8//// 10110 20090 30219 40236 57016 60037 76186 887// 91800 333 10133 20100=
07020,1996-11-10 00:00:00,10,1017.3,-4.1,93,9,0,0,,,0,,,,,,,,,,,wg-a,,,,AAXX 10004 07020 12/// ///// 10100 20090 30156 40173 58041 60166 90000=
07020,1996-11-10 06:00:00,10,1010.6,-1.8,87,8,20000,0,,,0,9.5,11.1,,1,,,,,,,wg-a,,,,AAXX 10064 07020 12570 8//// 10100 20080 30089 40106 56018 60017 888// 90600 333 10111 20095=
07020,1996-11-10 12:00:00,9,1009.4,-1.3,76,5,50000,0,,,0,,,,,,,,,,,wg-a,,,,AAXX 10124 07020 12584 5//// 10090 20050 30077 40094 58013 60006 85100 91200=
07020,1996-11-10 18:00:00,9,1006.9,-1.2,66,3,50000,0,,,0,8.6,10,,,,,,,,,wg-a,,,,AAXX 10184 07020 12684 5//// 10090 20030 30052 40069 56012 60006 85400 91800 333 10100 20086=
07020,1996-11-11 00:00:00,6,1003,-1.9,75,2,0,0,,,0,,,,,,,,,,,wg-a,,,,AAXX 11004 07020 12/// ///// 10060 20020 30013 40030 58019 60006 90000=
07020,1996-11-11 06:00:00,6,996.7,-3.1,81,3,25000,0,,,0,4.1,9,,,,,,,,,wg-a,,,,AAXX 11064 07020 12675 5//// 10060 20030 39950 49967 56031 60006 83405 90600 333 10090 20041=
07020,1996-11-11 12:00:00,9,994.5,-1.2,81,6,20000,0,,,0,,,,1,,,,,,21,wg-a,,,,AAXX 11124 07020 02570 8//// 10090 20060 39928 49945 58012 60016 72162 887// 91200 333 60017=
07020,1996-11-12 06:00:00,10,996.3,1.8,87,8,25000,0,,,0,8.8,10.3,,,,,,,,,wg-a,,,,AAXX 12064 07020 32675 7//// 10100 20080 39946 49963 52018 877// 90600 333 10103 20088=
07020,1996-11-12 12:00:00,11,1000.3,1.5,82,8,25000,0,,,0,,,,,,,,,,,wg-a,,,,AAXX 12124 07020 12575 8//// 10110 20080 39986 40003 51015 60006 887// 91200=
07020,1996-11-12 18:00:00,10,1006,3.8,82,7,8000,0,,,0,9.7,10.8,,1,,,,,,61,wg-a,,,,AAXX 12184 07020 12658 8//// 10100 20070 30043 40060 53038 60017 76162 887// 91800 333 10108 20097=
07020,1996-11-13 00:00:00,9,1010.6,2.3,71,4,0,0,,,0,,,,,,,,,,,wg-a,,,,AAXX 13004 07020 02/// ///// 10090 20040 30089 40106 53023 60016 90000 333 61000=
07020,1996-11-13 06:00:00,8,1014.6,1.7,81,5,25000,0,,,0,7.9,10,,,,,,,,,wg-a,,,,AAXX 13064 07020 02575 4//// 10080 20050 30129 40146 53017 61000 84100 90600 333 10100 20079 ////=
07020,1996-11-13 12:00:00,10,1018.7,1.3,66,4,50000,0,,,0,,,,,,,,,,,wg-a,,,,AAXX 13124 07020 12584 5//// 10100 20040 30170 40187 51013 60006 85100 91200=
07020,1996-11-13 18:00:00,10,1020,0.8,66,4,40000,0,,,0,8.1,10,,,,,,,,,wg-a,,,,AAXX 13184 07020 12582 4//// 10100 20040 30183 40200 51008 60006 83101 91800 333 10100 20081=
07020,1996-11-14 00:00:00,9,1021.7,0.4,71,4,0,0,,,0,,,,,,,,,,,wg-a,,,,AAXX 14004 07020 12/// ///// 10090 20040 30200 40217 53004 60006 90000=
07020,1996-11-14 06:00:00,9,1022.9,1,71,4,0,0,,,0,8.6,10.3,,,,,,,,,wg-a,,,,AAXX 14064 07020 12/// ///// 10090 20040 30212 40229 53010 60006 90600 333 10103 20086=
07020,1996-11-14 12:00:00,11,1024.2,0.5,54,2,25000,0,,,0,,,,,,,,,,,wg-a,,,,AAXX 14124 07020 12575 4//// 10110 20020 30225 40242 50005 60006 84101 91200=
07020,1996-11-14 18:00:00,9,1024.4,0.4,61,2,25000,0,,,0,8.7,11.5,,,,,,,,,wg-a,,,,AAXX 14184 07020 12575 4//// 10090 20020 30227 40244 53004 60006 84100 91800 333 10115 20087=
07020,1996-11-15 00:00:00,6,1023.7,-0.8,70,1,0,0,,,0,,,,,,,,,,,wg-a,,,,AAXX 15004 07020 12/// ///// 10060 20010 30220 40237 56008 60006 90000=
07020,1996-11-15 06:00:00,10,1022.2,-0.6,71,5,25000,0,,,0,5.3,9.6,,,,,,,,,wg-a,,,,AAXX 15064 07020 12675 3//// 10100 20050 30205 40222 56006 60006 81102 90600 333 10096 20053=
07020,1996-11-15 12:00:00,10,1022.7,-0.3,62,3,40000,31.484,,,90,,,,,,,,,,,wg-a,,,,AAXX 15124 07020 12682 50917 10100 20030 30210 40227 58003 60006 84402 91200=
07020,1996-11-15 18:00:00,9,1023.2,0.8,66,3,40000,38.892,,,90,8.5,10.4,,,,,,,,,wg-a,,,,AAXX 15184 07020 12582 30921 10090 20030 30215 40232 53008 60006 83100 91800 333 10104 20085=
07020,1996-11-16 00:00:00,9,1024.4,0.7,71,4,0,25.928,,,90,,,,,,,,,,,wg-a,,,,AAXX 16004 07020 12/// /0914 10090 20040 30227 40244 51007 60006 90000=
07020,1996-11-16 06:00:00,8,1024.3,0.3,76,4,35000,14.816,,,110,7.5,9.6,,,,,,,,,wg-a,,,,AAXX 16064 07020 12581 31108 10080 20040 30226 40243 53003 60006 83100 90600 333 10096 20075=
07020,1996-11-16 12:00:00,11,1024.4,-0.4,66,5,11000,7.408,,,140,,,,,,,,,,,wg-a,,,,AAXX 16124 07020 12661 61404 10110 20050 30227 40244 58004 60006 86200 91200=
07020,1996-11-16 18:00:00,9,1022.2,-0.7,66,3,11000,3.704,,,320,8.2,11.1,,,,,,,,,wg-a,,,,AAXX 16184 07020 12/61 33202 10090 20030 30205 40222 58007 60006 80008 91800 333 10111 20082=
07020,1996-11-17 00:00:00,7,1019,-2.1,87,5,0,14.816,,,200,,,,,,,,,,,wg-a,,,,AAXX 17004 07020 12/// /2008 10070 20050 30173 40190 58021 60006 90000=
07020,1996-11-17 06:00:00,10,1013.3,-3.3,76,6,11000,29.632,,,260,5.6,9.6,,,,,,,,,wg-a,,,,AAXX 17064 07020 12661 32616 10100 20060 30116 40133 58033 60006 83500 90600 333 10096 20056=
07020,1996-11-17 12:00:00,10,1009.5,-1.9,93,9,15000,38.892,,,340,,,,3,,,,,,61,wg-a,,,,AAXX 17124 07020 02565 83421 10100 20090 30078 40095 56019 60036 76122 887// 91200 333 60037=
07020,1996-11-17 18:00:00,9,1008.9,0.6,71,4,35000,46.3,,,30,8.5,11.4,,0,,,,,,2,wg-a,,,,AAXX 17184 07020 12581 70325 10090 20040 30072 40089 53006 60007 70262 877// 91800 333 10114 20085=
07020,1996-11-18 06:00:00,8,1010.2,0.5,71,3,500,42.596,,,10,7.5,9.6,,,,,,,,,wg-a,,,,AAXX 18064 07020 12600 30123 10080 20030 30085 40102 53005 60006 831// 90600 333 10096 20075=
07020,1996-11-18 12:00:00,8,1011.2,0,66,2,35000,31.484,,,10,,,,,,,,,,,wg-a,,,,AAXX 18124 07020 12681 20117 10080 20020 30095 40112 50000 60006 81101 91200=
07020,1996-11-18 18:00:00,8,1009.2,-1.4,57,0,35000,25.928,,,300,7.2,8.6,,,,,,,,,wg-a,,,,AAXX 18184 07020 12681 23014 10080 20000 30075 40092 56014 60006 82100 91800 333 10086 20072=
07020,1996-11-19 00:00:00,7,1002.2,-4.9,76,3,0,35.188,,,190,,,,0,,,,,,,wg-a,,,,AAXX 19004 07020 02/// /1919 10070 20030 30005 40022 58049 60016 90000 333 60007=
07020,1996-11-19 06:00:00,6,981.1,-13.2,93,5,8000,68.524,,111.12,170,5.2,7.9,,9,,,,,,61,wg-a,,,,AAXX 19064 07020 12558 81737 10060 20050 39794 49811 56132 60097 76162 887// 90600 333 10079 20052 91060=
07020,1996-11-19 12:00:00,10,972.9,-2.9,76,6,18000,57.412,,100.008,210,,,,1,,,,,,21,wg-a,,,,AAXX 19124 07020 02568 72131 10100 20060 39713 49729 58029 60126 72162 877// 91200 333 60017 91054=
07020,1996-11-19 18:00:00,11,963.5,-5,87,9,10000,75.932,,107.416,250,6.2,10.7,,3,,,,,,23,wg-a,,,,AAXX 19184 07020 12560 82541 10110 20090 39619 49635 57050 60037 72376 887// 91800 333 10107 20062 91058=
07020,1996-11-20 00:00:00,9,972,3.8,76,5,0,72.228,,,290,,,,,,,,,,,wg-a,,,,AAXX 20004 07020 12/// /2939 10090 20050 39704 49720 51038 60016 90000=
07020,1996-11-20 06:00:00,9,981.1,5,76,5,0,64.82,,,310,7.8,10.8,,0,,,,,,,wg-a,,,,AAXX 20064 07020 12/// /3135 10090 20050 39794 49811 53050 60007 90600 333 10108 20078=
07020,1996-11-20 12:00:00,8,992.5,6,81,5,15000,61.116,,87.044,330,,,,0,,,,,,60,wg-a,,,,AAXX 20124 07020 02565 83333 10080 20050 39908 49925 51060 60006 76062 887// 91200 333 60007 91047=
07020,1996-11-20 18:00:00,8,1000.4,3.7,76,4,15000,64.82,,83.34,310,7.6,9.5,,0,,,,,,2,wg-a,,,,AAXX 20184 07020 12565 73135 10080 20040 39987 40004 53037 60007 70287 87200 91800 333 10095 20076 91045=
07020,1996-11-21 00:00:00,8,1004.7,1.9,61,1,0,38.892,,,330,,,,,,,,,,,wg-a,,,,AAXX 21004 07020 12/// /3321 10080 20010 30030 40047 53019 60006 90000=
07020,1996-11-21 06:00:00,8,1007.4,1.5,61,1,18000,35.188,,,350,7.2,8.8,,0,,,,,,,wg-a,,,,AAXX 21064 07020 12668 43519 10080 20010 30057 40074 51015 60007 84100 90600 333 10088 20072=
07020,1996-11-21 12:00:00,8,1008.9,0.2,61,1,45000,14.816,,,50,,,,,,,,,,,wg-a,,,,AAXX 21124 07020 12683 70508 10080 20010 30072 40089 50002 60006 84101 91200=
07020,1996-11-21 18:00:00,3,1008.2,0.6,81,0,40000,14.816,,,150,3.2,8.4,,,,,,,,,wg-a,,,,AAXX 21184 07020 12682 51508 10030 20000 30065 40082 53006 60006 83431 91800 333 10084 20032=
07020,1996-11-22 00:00:00,6,1011.5,1.2,65,0,0,7.408,,,290,,,,,,,,,,,wg-a,,,,AAXX 22004 07020 12/// /2904 10060 20000 30098 40115 53012 60006 90000=
07020,1996-11-22 06:00:00,8,1013.1,1,66,2,40000,25.928,,,250,3.2,8,,,,,,,,,wg-a,,,,AAXX 22064 07020 12682 32514 10080 20020 30114 40131 51010 60006 83100 90600 333 10080 20032=
07020,1996-11-22 12:00:00,9,1012.4,-1,66,3,35000,42.596,,,220,,,,0,,,,,,2,wg-a,,,,AAXX 22124 07020 02581 62223 10090 20030 30107 40124 58010 60006 70262 85708 91200 333 60007=
07020,1996-11-22 18:00:00,7,1010.5,-0.6,87,5,15000,35.188,,,270,6.8,9.6,,3,,,,,,61,wg-a,,,,AAXX 22184 07020 12565 82719 10070 20050 30088 40105 55006 60037 76162 887// 91800 333 10096 20068=
07020,1996-11-23 00:00:00,9,1009.1,-0.1,71,4,0,18.52,,,280,,,,,,,,,,,wg-a,,,,AAXX 23004 07020 12/// /2810 10090 20040 30074 40091 55001 60076 90000=
07020,1996-11-23 06:00:00,8,1010.9,1.9,81,5,20000,38.892,,,350,6.2,9.1,,6,,,,,,2,wg-a,,,,AAXX 23064 07020 12670 63521 10080 20050 30092 40109 51019 60067 70262 86400 90600 333 10091 20062=
07020,1996-11-23 12:00:00,8,1016.4,2.2,57,0,45000,29.632,,,350,,,,,,,,,,,wg-a,,,,AAXX 23124 07020 12683 43516 10080 20000 30147 40164 51022 60006 84100 91200=
07020,1996-11-23 18:00:00,8,1019.8,2.2,76,4,25000,42.596,,72.228,330,6.3,8.7,,,,,,,,2,wg-a,,,,AAXX 23184 07020 32575 73323 10080 20040 30181 40198 51022 70287 871// 91800 333 10087 20063 91039=
07020,1996-11-24 00:00:00,8,1023.3,1.6,57,0,0,35.188,,,300,,,,,,,,,,,wg-a,,,,AAXX 24004 07020 12/// /3019 10080 20000 30216 40233 53016 60006 90000=
07020,1996-11-24 06:00:00,9,1023.3,0.2,61,2,25000,25.928,,,290,7.7,8.5,,,,,,,,,wg-a,,,,AAXX 24064 07020 12575 72914 10090 20020 30216 40233 51002 60006 871// 90600 333 10085 20077=
07020,1996-11-24 12:00:00,9,1017.8,-4.1,71,4,25000,46.3,,,210,,,,,,,,,,,wg-a,,,,AAXX 24124 07020 12575 82125 10090 20040 30161 40178 58041 60006 887// 91200=
07020,1996-11-24 18:00:00,10,1008.8,-3.9,93,9,0,61.116,,,210,7.9,9.8,,4,,,,,,,wg-a,,,,AAXX 24184 07020 12/// /2133 10100 20090 30071 40088 56039 60047 91800 333 10098 20079=
07020,1996-11-25 00:00:00,12,1002.3,-2.6,94,11,0,42.596,,,230,,,,,,,,,,,wg-a,,,,AAXX 25004 07020 12/// /2323 10120 20110 30006 40023 56026 60036 90000=
07020,1996-11-25 06:00:00,10,1,-3.9,93,9,25000,61.116,,90.748,210,7.9,9.8,,4,,,,,,2,wg-a,,,,AAXX 25064 07020 12575 82133 10100 20090 56039 60047 70262 887// 90600 333 10098 20079 91049=
07020,1996-11-25 12:00:00,11,998.6,-2,82,8,15000,42.596,,79.636,270,,,,0,,,,,,61,wg-a,,,,AAXX 25124 07020 02665 72723 10110 20080 39969 49986 58020 60016 76162 874// 91200 333 60007 91043=
07020,1996-11-25 18:00:00,11,1001.3,2.3,76,7,20000,42.596,,90.748,320,9.4,11.9,,0,,,,,,2,wg-a,,,,AAXX 25184 07020 12670 73223 10110 20070 39996 40013 52023 60007 70286 874// 91800 333 10119 20094 91049=
07020,1996-11-26 00:00:00,9,1008.2,3.7,76,5,0,42.596,,,360,,,,,,,,,,,wg-a,,,,AAXX 26004 07020 12/// /3623 10090 20050 30065 40082 51037 60006 90000=
07020,1996-11-26 06:00:00,9,1012.3,1.8,76,5,25000,42.596,,,30,8.6,11,,,,,,,,,wg-a,,,,AAXX 26064 07020 12675 70323 10090 20050 30106 40123 51018 60006 871// 90600 333 10110 20086=
07020,1996-11-26 12:00:00,9,1015.6,1.1,71,4,35000,18.52,,,50,,,,,,,,,,,wg-a,,,,AAXX 26124 07020 12681 60510 10090 20040 30139 40156 51011 60006 85110 91200=
07020,1996-11-26 18:00:00,6,1015.1,-0.2,75,2,35000,7.408,,,160,5.3,8.9,,,,,,,,,wg-a,,,,AAXX 26184 07020 12681 61604 10060 20020 30134 40151 55002 60006 84108 91800 333 10089 20053=
07020,1996-11-27 00:00:00,6,1013.2,-1.2,75,2,0,14.816,,,160,,,,,,,,,,,wg-a,,,,AAXX 27004 07020 12/// /1608 10060 20020 30115 40132 58012 60006 90000=
07020,1996-11-27 06:00:00,6,1008.3,-2.3,75,2,25000,18.52,,,130,5.7,6.6,,,,,,,,,wg-a,,,,AAXX 27064 07020 12875 71310 10060 20020 30066 40083 56023 60006 8702/ 90600 333 10066 20057=
07020,1996-11-27 12:00:00,4,1004.8,-1.2,93,3,8000,31.484,,,120,,,,8,,,,,,61,wg-a,,,,AAXX 27124 07020 02558 81217 10040 20030 30031 40048 58012 60096 76162 887// 91200 333 60087=
07020,1996-11-27 18:00:00,7,1009.2,3.9,76,3,25000,25.928,,,70,3.7,6.7,,,,,,,,2,wg-a,,,,AAXX 27184 07020 32575 80714 10070 20030 30075 40092 53039 70262 887// 91800 333 10067 20037=
07020,1996-11-28 06:00:00,7,1019.5,2.1,70,2,40000,25.928,,,10,5.7,8,,,,,,,,,wg-a,,,,AAXX 28064 07020 32582 70114 10070 20020 30178 40195 53021 8613/ 90600 333 10080 20057=
07020,1996-11-28 12:00:00,8,1022.1,0.5,66,2,40000,14.816,,,330,,,,,,,,,,,wg-a,,,,AAXX 28124 07020 12682 53308 10080 20020 30204 40221 50005 60006 85100 91200=
07020,1996-11-28 18:00:00,9,1021.5,0.1,71,4,40000,18.52,,,280,6.9,8.9,,,,,,,,,wg-a,,,,AAXX 28184 07020 12682 72810 10090 20040 30198 40215 51001 60006 871// 91800 333 10089 20069=
07020,1996-11-29 00:00:00,10,1016.2,-3.5,87,8,0,46.3,,,240,,,,,,,,,,,wg-a,,,,AAXX 29004 07020 12/// /2425 10100 20080 30145 40162 58035 60016 90000=
07020,1996-11-29 06:00:00,13,1007.9,-2,94,12,25000,42.596,,90.748,270,8.6,12.5,,5,,,,,,21,wg-a,,,,AAXX 29064 07020 12575 82723 10130 20120 30062 40079 56020 60057 72162 887// 90600 333 10125 20086 91049=
07020,1996-11-29 12:00:00,13,1004.8,-1.9,88,11,8000,53.708,,87.044,270,,,,2,,,,,,61,wg-a,,,,AAXX 29124 07020 02558 82729 10130 20110 30031 40048 58019 60026 76162 887// 91200 333 60027 91047=
07020,1996-11-29 18:00:00,11,1005,1.3,94,10,10000,42.596,,90.748,310,10.9,13,,3,,,,,,61,wg-a,,,,AAXX 29184 07020 12560 83123 10110 20100 30033 40050 53013 60037 76162 887// 91800 333 10130 20109 91049=
07020,1996-11-30 00:00:00,12,1005.3,0.1,76,8,0,50.004,,,290,,,,,,,,,,,wg-a,,,,AAXX 30004 07020 12/// /2927 10120 20080 30036 40053 52001 60016 90000=
07020,1996-11-30 06:00:00,10,1006.8,0.9,87,8,18000,42.596,,,320,9.7,11.8,,,,,,,,,wg-a,,,,AAXX 30064 07020 02568 83223 10100 20080 30051 40068 53009 61000 887// 90600 333 10118 20097 ////=
07020,1996-11-30 12:00:00,11,1009.8,1.3,71,6,18000,57.412,,,310,,,,,,,,,,,wg-a,,,,AAXX 30124 07020 12568 53131 10110 20060 30081 40098 53013 60006 85100 91200=
07020,1996-11-30 18:00:00,11,1014.8,3.1,76,7,20000,42.596,,,330,10.1,11.7,,,,,,,,,wg-a,,,,AAXX 30184 07020 12670 43323 10110 20070 30131 40148 51031 60006 84450 91800 333 10117 20101=
07020,1996-12-01 12:00:00,12,1016.6,-0.9,100,12,15000,31.484,,53.708,280,,,,,,,,,,20,wg-a,,,,AAXX 01124 07020 02465 82817 10120 20120 30149 40166 56009 60026 72065 887// 91200 333 61000 91029=
07020,1996-12-01 18:00:00,12,1015.8,0.3,76,8,12000,53.708,,75.932,290,10.7,12.5,,,,,,,,,wg-a,,,,AAXX 01184 07020 32462 82929 10120 20080 30141 40158 50003 887// 91800 333 10125 20107 91041=
07020,1996-12-02 00:00:00,11,1018.3,1.2,71,6,0,57.412,,,300,,,,,,,,,,,wg-a,,,,AAXX 02004 07020 12/// /3031 10110 20060 30166 40183 53012 60006 90000=
07020,1996-12-02 06:00:00,11,1019.6,0.5,66,5,20000,57.412,,87.044,290,10.6,12.1,,,,,,,,,wg-a,,,,AAXX 02064 07020 12570 82931 10110 20050 30179 40196 52005 60006 887// 90600 333 10121 20106 91047=
07020,1996-12-02 12:00:00,11,1020.7,-0.1,71,6,20000,53.708,,79.636,300,,,,,,,,,,,wg-a,,,,AAXX 02124 07020 12570 63029 10110 20060 30190 40207 58001 60006 84208 91200 333 91043=
07020,1996-12-02 18:00:00,11,1019.9,-0.3,71,6,20000,31.484,,,280,10,11.4,,,,,,,,,wg-a,,,,AAXX 02184 07020 32670 62817 10110 20060 30182 40199 57003 84230 91800 333 10114 20100=
07020,1996-12-03 00:00:00,9,1014.6,-3.6,87,7,0,31.484,,,230,,,,1,,,,,,,wg-a,,,,AAXX 03004 07020 02/// /2317 10090 20070 30129 40146 57036 60016 90000 333 60017=
07020,1996-12-03 06:00:00,11,1001.6,-6.5,94,10,18000,53.708,,83.34,200,8.6,11,,4,,,,,,21,wg-a,,,,AAXX 03064 07020 12568 82029 10110 20100 39999 40016 58065 60047 721// 8472/ 90600 333 10110 20086 91045=
07020,1996-12-03 12:00:00,12,995.5,-1.8,94,11,8000,50.004,,94.452,250,,,,4,,,,,,21,wg-a,,,,AAXX 03124 07020 02558 82527 10120 20110 39938 49955 56018 60126 72162 887// 91200 333 60047 91051=
07020,1996-12-03 18:00:00,10,995.2,0.1,66,4,15000,42.596,,72.228,270,10,12.1,,,,,,,,2,wg-a,,,,AAXX 03184 07020 32565 82723 10100 20040 39935 49952 50001 70262 8572/ 91800 333 10121 20100 91039=
07020,1996-12-04 00:00:00,9,997.7,1.5,66,3,0,42.596,,,270,,,,,,,,,,,wg-a,,,,AAXX 04004 07020 12/// /2723 10090 20030 39960 49977 53015 60006 90000=
07020,1996-12-04 06:00:00,9,1001.2,1.4,66,3,20000,29.632,,83.34,270,6.9,10.6,,,,,,,,,wg-a,,,,AAXX 04064 07020 32670 32716 10090 20030 39995 40012 53014 83400 90600 333 10106 20069 91045=
07020,1996-12-04 12:00:00,10,1004.3,1.1,66,4,40000,38.892,,57.412,250,,,,,,,,,,2,wg-a,,,,AAXX 04124 07020 02582 62521 10100 20040 30026 40043 51011 61000 70281 86900 91200 333 6100 91031=
07020,1996-12-04 18:00:00,9,1006.4,1.4,76,5,35000,31.484,,,240,8.8,11.3,,,,,,,,,wg-a,,,,AAXX 04184 07020 32581 72417 10090 20050 30047 40064 53014 87900 91800 333 10113 20088=
07020,1996-12-05 00:00:00,9,1008.9,0.8,71,4,0,25.928,,,230,,,,,,,,,,,wg-a,,,,AAXX 05004 07020 12/// /2314 10090 20040 30072 40089 51008 60006 90000=
07020,1996-12-05 06:00:00,8,1010.8,0.8,76,4,500,25.928,,,220,8.2,9.8,,,,,,,,,wg-a,,,,AAXX 05064 07020 32600 32214 10080 20040 30091 40108 52008 83200 90600 333 10098 20082=
07020,1996-12-05 12:00:00,9,1013,0.6,87,7,24000,25.928,,,180,,,,,,,,,,,wg-a,,,,AAXX 05124 07020 12574 61814 10090 20070 30113 40130 50006 60006 86300 91200=
07020,1996-12-05 18:00:00,5,1015,1.6,93,4,24000,11.112,,,200,4.9,9.6,,0,,,,,,2,wg-a,,,,AAXX 05184 07020 12574 62006 10050 20040 30133 40150 53016 60007 70262 86300 91800 333 10096 20049=
07020,1996-12-06 00:00:00,5,1016.5,0.6,93,4,0,7.408,,,150,,,,,,,,,,,wg-a,,,,AAXX 06004 07020 12/// /1504 10050 20040 30148 40165 52006 60006 90000=
07020,1996-12-06 06:00:00,9,1016.9,0.2,87,7,500,29.632,,,40,3.1,9.3,,,,,,,,,wg-a,,,,AAXX 06064 07020 32500 60416 10090 20070 30152 40169 53002 82270 90600 333 10093 20031=
07020,1996-12-06 12:00:00,9,1018.1,-0.2,87,7,16000,38.892,,,60,,,,,,,,,,,wg-a,,,,AAXX 06124 07020 12566 80621 10090 20070 30164 40181 58002 60006 887// 91200=
07020,1996-12-06 18:00:00,10,1018.7,1.1,82,7,16000,46.3,,,60,8.5,9.6,,,,,,,,,wg-a,,,,AAXX 06184 07020 12666 70625 10100 20070 30170 40187 53011 60006 874// 91800 333 10096 20085=
07020,1996-12-07 00:00:00,9,1019.5,0,87,7,0,46.3,,,70,,,,,,,,,,,wg-a,,,,AAXX 07004 07020 12/// /0725 10090 20070 30178 40195 50000 60016 90000=
07020,1996-12-07 06:00:00,10,1020.9,0.8,87,8,16000,25.928,,,70,9,10.1,,,,,,,,,wg-a,,,,AAXX 07064 07020 32866 70714 10100 20080 30192 40209 53008 8702/ 90600 333 10101 20090=
07020,1996-12-07 12:00:00,10,1023.6,0.3,87,8,8000,22.224,,,100,,,,,,,,,,,wg-a,,,,AAXX 07124 07020 12858 81012 10100 20080 30219 40236 50003 60006 8802/ 91200=
07020,1996-12-07 18:00:00,10,1024.4,0.6,87,8,12000,29.632,,,80,10,10.5,,,,,,,,,wg-a,,,,AAXX 07184 07020 12862 80816 10100 20080 30227 40244 51006 60006 8802/ 91800 333 10105 20100=
07020,1996-12-08 00:00:00,10,1026.2,0.5,87,8,0,25.928,,,90,,,,,,,,,,,wg-a,,,,AAXX 08004 07020 12/// /0914 10100 20080 30245 40262 51005 60006 90000=
07020,1996-12-08 06:00:00,10,1025.3,-0.4,87,8,12000,25.928,,,80,9.2,10.2,,,,,,,,,wg-a,,,,AAXX 08064 07020 12862 80814 10100 20080 30236 40253 55004 60006 8802/ 90600 333 10102 20092=
07020,1996-12-08 12:00:00,11,1025.1,-0.8,82,8,8000,25.928,,,110,,,,,,,,,,,wg-a,,,,AAXX 08124 07020 12858 61114 10110 20080 30234 40251 58008 60006 86020 91200=
07020,1996-12-08 18:00:00,9,1024.6,0.4,87,7,0,22.224,,,70,8.8,10.9,,,,,,,,,wg-a,,,,AAXX 08184 07020 12/// /0712 10090 20070 30229 40246 52004 60006 91800 333 10109 20088=
07020,1996-12-09 00:00:00,8,1023.7,-0.4,93,7,0,22.224,,,70,,,,,,,,,,,wg-a,,,,AAXX 09004 07020 12/// /0712 10080 20070 30220 40237 56004 60006 90000=
07020,1996-12-09 06:00:00,9,1021.5,-1,87,7,16000,22.224,,,80,7.7,8.9,,,,,,,,,wg-a,,,,AAXX 09064 07020 12866 70812 10090 20070 30198 40215 56010 60006 8702/ 90600 333 10089 20077=
07020,1996-12-09 12:00:00,9,1020.2,-0.8,87,7,16000,22.224,,,70,,,,,,,,,,,wg-a,,,,AAXX 09124 07020 12666 70712 10090 20070 30185 40202 58008 60006 8653/ 91200=
07020,1996-12-09 18:00:00,9,1018.2,-0.6,81,6,16000,14.816,,,90,8.3,9.4,,,,,,,,,wg-a,,,,AAXX 09184 07020 12566 70908 10090 20060 30165 40182 58006 60006 875// 91800 333 10094 20083=
07020,1996-12-10 00:00:00,8,1017.2,-1.2,81,5,0,22.224,,,70,,,,,,,,,,,wg-a,,,,AAXX 10004 07020 12/// /0712 10080 20050 30155 40172 56012 60006 90000=
07020,1996-12-10 06:00:00,9,1015,-0.9,76,5,10000,31.484,,,70,7.6,8.5,,,,,,,,,wg-a,,,,AAXX 10064 07020 12660 80717 10090 20050 30133 40150 58009 60006 885// 90600 333 10085 20076=
07020,1996-12-10 12:00:00,7,1015.4,-0.5,81,4,8000,29.632,,,90,,,,,,,,,,,wg-a,,,,AAXX 10124 07020 12858 80916 10070 20040 30137 40154 58005 60006 8802/ 91200=
07020,1996-12-10 18:00:00,5,1016.3,1.1,81,2,8000,22.224,,,100,4,8.6,,,,,,,,,wg-a,,,,AAXX 10184 07020 12858 81012 10050 20020 30146 40163 53011 60006 8802/ 91800 333 10086 20040=
07020,1996-12-11 00:00:00,5,1016.6,0.3,87,3,0,22.224,,,140,,,,,,,,,,,wg-a,,,,AAXX 11004 07020 12/// /1412 10050 20030 30149 40166 50003 60006 90000=
07020,1996-12-11 06:00:00,7,1015.4,-0.5,87,5,2000,29.632,,,120,4.1,,,,,,,,,10,wg-a,,,,AAXX 11064 07020 12420 81216 10070 20050 30137 40154 57005 60006 710// 8462/ 90600 333 20041=
07020,1996-12-11 12:00:00,7,1014.9,-0.9,87,5,6000,18.52,,,130,,,,,,,,,,,wg-a,,,,AAXX 11124 07020 12556 81310 10070 20050 30132 40149 58009 60006 886// 91200=
07020,1996-12-11 18:00:00,6,1012.2,-1.8,93,5,6000,31.484,,,110,5.1,8.2,,,,,,,,,wg-a,,,,AAXX 11184 07020 12456 81117 10060 20050 30105 40122 56018 60006 886// 91800 333 10082 20051=
07020,1996-12-12 00:00:00,4,1011.6,-0.5,87,2,0,18.52,,,150,,,,,,,,,,,wg-a,,,,AAXX 12004 07020 12/// /1510 10040 20020 30099 40116 55005 60006 90000=
07020,1996-12-12 06:00:00,3,1009.3,-0.9,93,2,12000,29.632,,,130,3,6.4,,,,,,,,,wg-a,,,,AAXX 12064 07020 12662 81316 10030 20020 30076 40093 56009 60006 886// 90600 333 10064 20030=
07020,1996-12-12 12:00:00,5,1008.8,-0.7,93,4,8000,14.816,,,140,,,,,,,,,,,wg-a,,,,AAXX 12124 07020 12558 81408 10050 20040 30071 40088 58007 60006 8462/ 91200=
07020,1996-12-12 18:00:00,7,1006.3,-0.5,87,5,6000,22.224,,,90,3.1,7,,,,,,,,,wg-a,,,,AAXX 12184 07020 12556 80912 10070 20050 30046 40063 56005 60006 8462/ 91800 333 10070 20031=
07020,1996-12-13 00:00:00,8,1004.5,-1,87,6,0,22.224,,,110,,,,,,,,,,,wg-a,,,,AAXX 13004 07020 12/// /1112 10080 20060 30028 40045 57010 60006 90000=
07020,1996-12-13 06:00:00,7,1003.7,-0.6,87,5,20000,31.484,,,80,6.3,8.2,,,,,,,,,wg-a,,,,AAXX 13064 07020 12570 80817 10070 20050 30020 40037 58006 60006 8227/ 90600 333 10082 20063=
07020,1996-12-13 12:00:00,8,1003.7,-0.6,87,6,18000,50.004,,,70,,,,,,,,,,21,wg-a,,,,AAXX 13124 07020 02668 80727 10080 20060 30020 40037 58006 61000 72162 8652/ 91200 333 6100=
07020,1996-12-13 18:00:00,7,1005.2,1.4,81,4,16000,57.412,,79.636,70,6.4,7.9,,0,,,,,,21,wg-a,,,,AAXX 13184 07020 12566 80731 10070 20040 30035 40052 52014 60007 72122 887// 91800 333 10079 20064 91043=
07020,1996-12-14 00:00:00,8,1008,1.5,76,4,0,46.3,,,70,,,,,,,,,,,wg-a,,,,AAXX 14004 07020 12/// /0725 10080 20040 30063 40080 51015 60006 90000=
07020,1996-12-14 06:00:00,7,1010.4,1.5,76,3,20000,31.484,,,60,6.5,7.6,,,,,,,,,wg-a,,,,AAXX 14064 07020 12670 40617 10070 20030 30087 40104 53015 60006 84100 90600 333 10076 20065=
07020,1996-12-14 12:00:00,7,1013.3,1,66,1,40000,11.112,,,20,,,,,,,,,,,wg-a,,,,AAXX 14124 07020 12582 50206 10070 20010 30116 40133 51010 60006 83208 91200=
07020,1996-12-14 18:00:00,7,1014.4,0.4,61,0,40000,18.52,,,300,5.4,8,,,,,,,,,wg-a,,,,AAXX 14184 07020 12582 43010 10070 20000 30127 40144 53004 60006 81105 91800 333 10080 20054=
07020,1996-12-15 00:00:00,9,1015,0.2,66,3,0,29.632,,,290,,,,,,,,,,,wg-a,,,,AAXX 15004 07020 12/// /2916 10090 20030 30133 40150 53002 60006 90000=
07020,1996-12-15 06:00:00,10,1014.8,-0,71,5,500,29.632,,,300,6.7,9.7,,,,,,,,,wg-a,,,,AAXX 15064 07020 12600 83016 10100 20050 30131 40148 55000 60006 8227/ 90600 333 10097 20067=
07020,1996-12-15 12:00:00,10,1016.6,0.4,82,7,500,22.224,,,290,,,,,,,,,,,wg-a,,,,AAXX 15124 07020 12600 82912 10100 20070 30149 40166 50004 60006 8227/ 91200=
07020,1996-12-15 18:00:00,10,1017.1,0.5,76,6,40000,11.112,,,300,9.3,10.3,,,,,,,,,wg-a,,,,AAXX 15184 07020 12682 83006 10100 20060 30154 40171 52005 60006 8427/ 91800 333 10103 20093=
07020,1996-12-16 00:00:00,8,1017,-0.5,81,5,0,14.816,,,220,,,,,,,,,,,wg-a,,,,AAXX 16004 07020 12/// /2208 10080 20050 30153 40170 58005 60006 90000=
07020,1996-12-16 06:00:00,6,1015,-1.2,81,3,0,29.632,,,200,6.4,9.8,,,,,,,,,wg-a,,,,AAXX 16064 07020 12/// /2016 10060 20030 30133 40150 55012 60006 90600 333 10098 20064=
07020,1996-12-16 12:00:00,6,1012.7,-1.9,75,2,500,18.52,,,160,,,,,,,,,,,wg-a,,,,AAXX 16124 07020 12500 61610 10060 20020 30110 40127 58019 60006 8115/ 91200=
07020,1996-12-16 18:00:00,5,1009.9,-0.5,87,3,16000,18.52,,,180,4.3,6.9,,,,,,,,,wg-a,,,,AAXX 16184 07020 12866 71810 10050 20030 30082 40099 56005 60006 8707/ 91800 333 10069 20043=
07020,1996-12-17 00:00:00,6,1008.6,-0.8,93,5,0,29.632,,,200,,,,,,,,,,,wg-a,,,,AAXX 17004 07020 12/// /2016 10060 20050 30069 40086 58008 60016 90000=
07020,1996-12-17 06:00:00,7,1006.3,-0.6,93,6,8000,11.112,,,150,4.6,6.8,,5,,,,,,61,wg-a,,,,AAXX 17064 07020 12558 81506 10070 20060 30046 40063 56006 60057 7616/ 8472/ 90600 333 10068 20046=
07020,1996-12-17 12:00:00,11,1006.7,0.6,94,10,2000,29.632,,,200,,,,,,,,,,20,wg-a,,,,AAXX 17124 07020 02520 82016 10110 20100 30050 40067 50006 60016 72052 8472/ 91200 333 61000=
07020,1996-12-17 18:00:00,12,1007.3,0.2,100,12,3000,25.928,,,190,6.5,12.5,,1,,,,,,2,wg-a,,,,AAXX 17184 07020 12530 81914 10120 20120 30056 40073 51002 60017 70252 8472/ 91800 333 10125 20065=
07020,1996-12-18 00:00:00,11,1006.6,-0.9,82,8,0,38.892,,,200,,,,,,,,,,,wg-a,,,,AAXX 18004 07020 12/// /2021 10110 20080 30049 40066 56009 60006 90000=
07020,1996-12-18 06:00:00,10,1003,-1.7,82,7,7000,35.188,,64.82,200,10.4,12.1,,,,,,,,,wg-a,,,,AAXX 18064 07020 12557 82019 10100 20070 30013 40030 58017 60006 8447/ 90600 333 10121 20104 91035=
07020,1996-12-18 12:00:00,10,1001.9,-0.9,87,8,12000,35.188,,53.708,210,,,,,,,,,,,wg-a,,,,AAXX 18124 07020 12562 72119 10100 20080 30002 40019 57009 60006 8162/ 91200 333 91029=
07020,1996-12-18 18:00:00,10,1000.3,0.3,100,10,6000,22.224,,,230,8.8,10.4,,2,,,,,,60,wg-a,,,,AAXX 18184 07020 12556 82312 10100 20100 39986 40003 52003 60027 76062 8472/ 91800 333 10104 20088=
07020,1996-12-19 00:00:00,11,1000.3,-0.1,100,11,0,14.816,,,250,,,,,,,,,,,wg-a,,,,AAXX 19004 07020 12/// /2508 10110 20110 39986 40003 56001 60006 90000=
07020,1996-12-19 06:00:00,11,999.3,-0.6,94,10,10000,14.816,,,330,10,11.3,,,,,,,,,wg-a,,,,AAXX 19064 07020 02560 83308 10110 20100 39976 49993 58006 61000 8222/ 90600 333 10113 20100 ////=
07020,1996-12-19 12:00:00,11,999.4,-0.5,94,10,18000,0,,,0,,,,,,,,,,2,wg-a,,,,AAXX 19124 07020 12568 80000 10110 20100 39977 49994 58005 60006 70252 8472/ 91200=
07020,1996-12-19 18:00:00,10,998.3,0.2,93,9,0,3.704,,,130,9.7,11.1,,,,,,,,,wg-a,,,,AAXX 19184 07020 32/// /1302 10100 20090 39966 49983 51002 91800 333 10111 20097=
07020,1996-12-20 00:00:00,10,997.6,-0.2,93,9,0,14.816,,,110,,,,,,,,,,,wg-a,,,,AAXX 20004 07020 12/// /1108 10100 20090 39959 49976 58002 60006 90000=
07020,1996-12-20 06:00:00,10,997,-0.1,100,10,7000,25.928,,,100,9.1,10.4,,1,,,,,,,wg-a,,,,AAXX 20064 07020 12557 81014 10100 20100 39953 49970 57001 60017 8472/ 90600 333 10104 20091=
07020,1996-12-20 12:00:00,10,1000.3,1.2,93,9,20000,14.816,,,210,,,,,,,,,,,wg-a,,,,AAXX 20124 07020 12570 82108 10100 20090 39986 40003 51012 60016 8472/ 91200=
07020,1996-12-20 18:00:00,10,1002.5,1.7,93,9,20000,11.112,,,130,9.4,10.3,,,,,,,,,wg-a,,,,AAXX 20184 07020 32570 81306 10100 20090 30008 40025 53017 8485/ 91800 333 10103 20094=
07020,1996-12-21 00:00:00,8,1004.9,1.1,93,7,0,46.3,,,100,,,,,,,,,,,wg-a,,,,AAXX 21004 07020 12/// /1025 10080 20070 30032 40049 51011 60016 90000=
07020,1996-12-21 06:00:00,8,1005.5,0.2,93,7,2000,53.708,,72.228,100,7.6,10.2,,,,,,,,10,wg-a,,,,AAXX 21064 07020 32420 81029 10080 20070 30038 40055 51002 710// 8462/ 90600 333 10102 20076 91039=
07020,1996-12-21 12:00:00,8,1006.7,0.4,87,6,3000,61.116,,,100,,,,0,,,,,,20,wg-a,,,,AAXX 21124 07020 02430 81033 10080 20060 30050 40067 50004 60006 72052 8462/ 91200 333 60007=
07020,1996-12-21 18:00:00,8,1006.4,0.4,87,6,4000,61.116,,,90,7.1,8,,,,,,,,2,wg-a,,,,AAXX 21184 07020 32440 80933 10080 20060 30047 40064 53004 70252 8462/ 91800 333 10080 20071=
07020,1996-12-22 00:00:00,7,1007.1,-0.1,87,5,0,61.116,,,100,,,,,,,,,,,wg-a,,,,AAXX 22004 07020 12/// /1033 10070 20050 30054 40071 58001 60006 90000=
07020,1996-12-22 06:00:00,7,1006.2,-0.9,93,6,4000,53.708,,79.636,110,6.4,8,,1,,,,,,,wg-a,,,,AAXX 22064 07020 12540 81129 10070 20060 30045 40062 56009 60017 8462/ 90600 333 10080 20064 91043=
07020,1996-12-22 12:00:00,7,1006.6,-0.2,93,6,2000,61.116,,,100,,,,,,,,,,50,wg-a,,,,AAXX 22124 07020 02520 81033 10070 20060 30049 40066 58002 61000 75054 8472/ 91200 333 6100=
07020,1996-12-22 18:00:00,8,1004.6,-0.5,87,6,0,61.116,,,100,6.9,7.9,,,,,,,,,wg-a,,,,AAXX 22184 07020 32/// /1033 10080 20060 30029 40046 56005 91800 333 10079 20069=
07020,1996-12-23 00:00:00,7,1002.6,-1.5,87,5,0,53.708,,,90,,,,,,,,,,,wg-a,,,,AAXX 23004 07020 12/// /0929 10070 20050 30009 40026 58015 60006 90000=
07020,1996-12-23 06:00:00,7,1000.8,-0.6,87,5,4000,64.82,,90.748,100,6.4,7.7,,,,,,,,,wg-a,,,,AAXX 23064 07020 32340 81035 10070 20050 39991 40008 56006 8472/ 90600 333 10077 20064 91049=
07020,1996-12-23 12:00:00,7,1001.3,-0.4,70,2,18000,68.524,,,90,,,,,,,,,,,wg-a,,,,AAXX 23124 07020 12868 70937 10070 20020 39996 40013 58004 60006 8707/ 91200=
07020,1996-12-23 18:00:00,6,1003.3,1.4,70,1,17000,68.524,,90.748,90,6.1,7.8,,,,,,,,,wg-a,,,,AAXX 23184 07020 12867 70937 10060 20010 40033 51014 60006 86072 91800 333 10078 20061 91049=
07020,1996-12-24 00:00:00,4,1003.9,0.4,70,-1,0,68.524,,,100,,,,,,,,,,,wg-a,,,,AAXX 24004 07020 12/// /1037 10040 21010 30022 40039 50004 60006 90000=
07020,1996-12-24 06:00:00,3,1002.4,-0.8,75,-1,16000,68.524,,94.452,90,2.7,6.3,,,,,,,,,wg-a,,,,AAXX 24064 07020 12866 80937 10030 21010 30007 40024 56008 60006 8802/ 90600 333 10063 20027 91051=
07020,1996-12-24 12:00:00,4,1002.6,-0.2,81,1,6000,72.228,,100.008,90,,,,,,,,,,2,wg-a,,,,AAXX 24124 07020 02556 80939 10040 20010 30009 40026 55002 61000 70265 8472/ 91200 333 6100 91054=
07020,1996-12-24 18:00:00,4,1004.7,2.2,87,2,0,64.82,,,100,2.8,4.5,,,,,,,,,wg-a,,,,AAXX 24184 07020 02/// /1035 10040 20020 30030 40047 53022 61000 91800 333 10045 20028 ////=
07020,1996-12-25 00:00:00,5,1008.6,2.1,75,1,0,68.524,,,90,,,,,,,,,,,wg-a,,,,AAXX 25004 07020 02/// /0937 10050 20010 30069 40086 53021 61000 90000 333 6100=
07020,1996-12-25 06:00:00,5,1013.1,2,65,-1,18000,68.524,,94.452,90,4.1,5.5,,,,,,,,,wg-a,,,,AAXX 25064 07020 02668 10937 10050 21010 30114 40131 51020 61000 81100 90600 333 10055 20041 //// 91051=
07020,1996-12-25 12:00:00,6,1019.6,2.5,65,0,500,46.3,,,100,,,,,,,,,,,wg-a,,,,AAXX 25124 07020 12600 71025 10060 20000 30179 40196 51025 60006 87700 91200=
07020,1996-12-25 18:00:00,7,1025.6,3.2,70,2,500,31.484,,,60,5.3,6.5,,,,,,,,,wg-a,,,,AAXX 25184 07020 12600 70617 10070 20020 30239 40256 51032 60006 877// 91800 333 10065 20053=
07020,1996-12-26 00:00:00,6,1030.1,2.2,75,2,0,29.632,,,120,,,,,,,,,,,wg-a,,,,AAXX 26004 07020 12/// /1216 10060 20020 30283 40301 53022 60006 90000=
07020,1996-12-26 06:00:00,4,1034.3,2.4,65,-2,0,35.188,,,100,3.8,7.1,,,,,,,,,wg-a,,,,AAXX 26064 07020 32/// /1019 10040 21020 30325 40343 51024 90600 333 10071 20038=
07020,1996-12-26 12:00:00,3,1038.5,0.6,70,-2,20000,22.224,,,130,,,,,,,,,,,wg-a,,,,AAXX 26124 07020 12870 31312 10030 21020 30367 40385 50006 60006 81508 91200=
07020,1996-12-26 18:00:00,0,1038.4,0.5,74,-4,20000,25.928,,,130,0.2,4,,,,,,,,,wg-a,,,,AAXX 26184 07020 12/70 31314 10000 21040 30366 40384 53005 60006 80008 91800 333 10040 20002=
07020,1996-12-27 00:00:00,-2,1036.8,-1.2,69,-7,0,3.704,,,170,,,,,,,,,,,wg-a,,,,AAXX 27004 07020 12/// /1702 11020 21070 30350 40368 58012 60006 90000=
07020,1996-12-27 06:00:00,0,1032.1,-1.6,86,-2,18000,14.816,,,210,-3,0.5,,,,,,,,,wg-a,,,,AAXX 27064 07020 12668 82108 10000 21020 30303 40321 56016 60006 885// 90600 333 10005 21030=
07020,1996-12-27 12:00:00,5,1028.1,-2,75,1,14000,11.112,,,220,,,,,,,,,,,wg-a,,,,AAXX 27124 07020 12864 42206 10050 20010 30263 40281 58020 60006 84020 91200=
07020,1996-12-27 18:00:00,6,1024.1,-1.2,75,2,14000,38.892,,,60,-1.3,6.8,,,,,,,,,wg-a,,,,AAXX 27184 07020 12864 80621 10060 20020 30224 40241 56012 60006 88020 91800 333 10068 21013=
07020,1996-12-28 00:00:00,6,1022.3,-0.9,75,2,0,46.3,,,60,,,,,,,,,,,wg-a,,,,AAXX 28004 07020 12/// /0625 10060 20020 30206 40223 57009 60006 90000=
07020,1996-12-28 06:00:00,5,1021.8,-0,75,1,14000,53.708,,75.932,80,4.4,6.3,,,,,,,,,wg-a,,,,AAXX 28064 07020 12864 80829 10050 20010 30200 40218 55000 60006 8802/ 90600 333 10063 20044 91041=
07020,1996-12-28 12:00:00,4,1022.5,-0.3,65,-2,18000,53.708,,75.932,80,,,,,,,,,,,wg-a,,,,AAXX 28124 07020 12568 60829 10040 21020 30207 40225 58003 60006 86700 91200 333 91041=
07020,1996-12-28 18:00:00,3,1022.7,0.5,65,-3,18000,53.708,,,80,3.1,4.6,,,,,,,,,wg-a,,,,AAXX 28184 07020 12668 40829 10030 21030 30209 40227 52005 60006 84400 91800 333 10046 20031=
07020,1996-12-29 00:00:00,3,1022.5,0.6,60,-4,0,50.004,,,90,,,,,,,,,,,wg-a,,,,AAXX 29004 07020 12/// /0927 10030 21040 30207 40225 52006 60006 90000=
07020,1996-12-29 06:00:00,3,1021.1,-0.9,60,-4,18000,50.004,,,90,2.1,4.5,,,,,,,,,wg-a,,,,AAXX 29064 07020 12/68 30927 10030 21040 30193 40211 57009 60006 83030 90600 333 10045 20021=
07020,1996-12-29 12:00:00,4,1020.8,-0.6,60,-3,18000,42.596,,,90,,,,,,,,,,,wg-a,,,,AAXX 29124 07020 12668 30923 10040 21030 30190 40208 58006 60006 83100 91200=
07020,1996-12-29 18:00:00,5,1018.8,-1.1,75,1,18000,35.188,,,70,2.8,4.7,,,,,,,,,wg-a,,,,AAXX 29184 07020 12668 70719 10050 20010 30171 40188 58011 60006 87170 91800 333 10047 20028=
07020,1996-12-30 00:00:00,6,1015.2,-1.9,87,4,0,38.892,,,60,,,,,,,,,,,wg-a,,,,AAXX 30004 07020 12/// /0621 10060 20040 30135 40152 58019 60006 90000=
07020,1996-12-30 06:00:00,6,1011.2,-2,81,3,0,50.004,,,60,4.5,6.2,,,,,,,,,wg-a,,,,AAXX 30064 07020 12/// /0627 10060 20030 30095 40112 56020 60006 90600 333 10062 20045=
07020,1996-12-30 12:00:00,5,1011.2,-0.2,65,-1,20000,42.596,,72.228,70,,,,,,,,,,2,wg-a,,,,AAXX 30124 07020 12570 70723 10050 21010 30095 40112 57002 60006 70282 878// 91200 333 91039=
07020,1996-12-30 18:00:00,4,1010,-0.1,65,-2,18000,57.412,,,70,2.7,6,,0,,,,,,26,wg-a,,,,AAXX 30184 07020 12568 50731 10040 21020 30083 40100 56001 60007 72687 85100 91800 333 10060 20027=
07020,1996-12-31 00:00:00,4,1010.6,0.4,75,0,0,53.708,,,70,,,,,,,,,,,wg-a,,,,AAXX 31004 07020 12/// /0729 10040 20000 30089 40106 51004 60006 90000=
07020,1996-12-31 06:00:00,2,1010.7,0,87,0,20000,50.004,,72.228,60,1.1,4.3,,0,,,,,,,wg-a,,,,AAXX 31064 07020 12670 80627 10020 20000 30090 40107 50000 60007 884// 90600 333 10043 20011 91039=
07020,1996-12-31 12:00:00,0,1013.7,1.4,93,-1,800,50.004,,,90,,,,1,,,,,,73,wg-a,,,,AAXX 31124 07020 02208 80927 10000 21010 30119 40137 51014 60016 77372 887// 91200 333 60017=
07020,1996-12-31 18:00:00,1,1015.4,0.9,75,-3,15000,61.116,,87.044,80,-0.2,3.3,,,,,,,,2,wg-a,,,,AAXX 31184 07020 02565 80833 10010 21030 30136 40154 51009 61000 70287 887// 91800 333 10033 21002 //// 91047=
