station_id,dh_utc,temperature,pression,pression_variation_3h,humidite,point_de_rosee,visibilite,vent_moyen,vent_rafales,vent_rafales_10min,vent_direction,temperature_min,temperature_max,pluie_1h,pluie_3h,pluie_6h,pluie_12h,pluie_24h,ensoleillement,temperature_sol,temps_omm,source,radiations,neige_au_sol,nebulosite,raw_msg
07020,1998-01-01 00:00:00,8,1010.3,0.9,87,6,0,25.928,,,270,,,,,,,,,,,wg-a,,,,AAXX 01004 07020 12/// /2714 10080 20060 30086 40103 51009 60016 90000=
07020,1998-01-01 06:00:00,6,1011,0.2,81,3,16000,31.484,,72.228,230,6.1,9.2,,1,,,,,,80,wg-a,,,,AAXX 01064 07020 12566 42317 10060 20030 30093 40110 53002 60017 780// 81970 90600 333 10092 20061 91039=
07020,1998-01-01 12:00:00,9,1007.3,-3.4,81,6,25000,57.412,,79.636,220,,,,,,,,,,3,wg-a,,,,AAXX 01124 07020 12675 52231 10090 20060 30056 40073 58034 60016 70386 82850 91200 333 91043=
07020,1998-01-01 18:00:00,9,993.2,-7.3,93,8,10000,79.636,,107.416,190,5.5,9.6,,4,,,,,,63,wg-a,,,,AAXX 01184 07020 12660 81943 10090 20080 39915 49932 58073 60047 76362 88020 91800 333 10096 20055 91058=
07020,1998-01-02 00:00:00,11,991.8,-0.2,87,9,0,53.708,,,260,,,,1,,,,,,,wg-a,,,,AAXX 02004 07020 02/// /2629 10110 20090 39901 49918 58002 60046 90000 333 60017=
07020,1998-01-02 06:00:00,11,981.2,-7.6,87,9,10000,68.524,,114.824,210,9.1,11.8,,7,,,,,,81,wg-a,,,,AAXX 02064 07020 12660 82137 10110 20090 39796 49812 56076 60077 781// 88200 90600 333 10118 20091 91062=
07020,1998-01-02 12:00:00,10,987.6,6.2,82,7,2000,75.932,,114.824,300,,,,1,,,,,,81,wg-a,,,,AAXX 02124 07020 02420 83041 10100 20070 39859 49876 53062 60056 78186 8472/ 91200 333 60017 91062=
07020,1998-01-02 18:00:00,11,999,4.3,76,7,10000,46.3,,107.416,280,8.2,11.5,,,,,,,,2,wg-a,,,,AAXX 02184 07020 32560 62825 10110 20070 39973 49990 51043 70282 86200 91800 333 10115 20082 91058=
07020,1998-01-03 00:00:00,11,1000.6,-1.3,87,9,0,53.708,,,240,,,,,,,,,,,wg-a,,,,AAXX 03004 07020 12/// /2429 10110 20090 39989 40006 57013 60006 90000=
07020,1998-01-03 06:00:00,12,991.8,-4,94,11,12000,61.116,,87.044,220,9.9,11.7,,0,,,,,,63,wg-a,,,,AAXX 03064 07020 12562 82233 10120 20110 39901 49918 56040 60007 7636/ 8472/ 90600 333 10117 20099 91047=
07020,1998-01-03 12:00:00,10,993.8,4.3,82,7,500,61.116,,122.232,270,,,,7,,,,,,63,wg-a,,,,AAXX 03124 07020 02500 72733 10100 20070 39921 49938 53043 60096 76362 87900 91200 333 60077 91066=
07020,1998-01-04 00:00:00,10,1006,1.1,76,6,0,64.82,,,270,,,,2,,,,,,,wg-a,,,,AAXX 04004 07020 02/// /2735 10100 20060 30043 40060 52011 60026 90000 333 60027=
07020,1998-01-04 12:00:00,8,991.7,-3.7,81,5,10000,75.932,,137.048,230,,,,1,,,,,,25,wg-a,,,,AAXX 04124 07020 02460 82341 10080 20050 39900 49917 56037 60066 72586 889// 91200 333 60017 91074=
07020,1998-01-05 06:00:00,9,998.3,-5.2,87,7,8000,72.228,,96.304,220,6.7,,,,,,,,,,wg-a,,,,AAXX 05064 07020 02558 62239 10090 20070 39966 49983 58052 61000 83720 90600 333 20067 //// 91052=
07020,1998-01-05 12:00:00,10,994.5,-0.6,71,5,8000,68.524,,129.64,260,,,,,,,,,,21,wg-a,,,,AAXX 05124 07020 02658 62637 10100 20050 39928 49945 58006 61000 72186 84203 91200 333 6100 91070=
07020,1998-01-06 00:00:00,9,1009.9,4.3,66,3,0,35.188,,,290,,,,,,,,,,,wg-a,,,,AAXX 06004 07020 12/// /2919 10090 20030 30082 40099 51043 60006 90000=
07020,1998-01-06 06:00:00,9,1010.5,-0.7,81,6,10000,31.484,,,210,8.5,9.4,,,,,,,,,wg-a,,,,AAXX 06064 07020 12760 62117 10090 20060 30088 40105 56007 60006 86800 90600 333 10094 20085=
07020,1998-01-06 12:00:00,11,1009,0,94,10,500,31.484,,53.708,230,,,,,,,,,,53,wg-a,,,,AAXX 06124 07020 02600 82317 10110 20100 30073 40090 50000 61000 75352 88700 91200 333 6100 91029=
07020,1998-01-06 18:00:00,11,1007.5,-0.4,100,11,7000,42.596,,61.116,220,6.6,11.7,,1,,,,,,2,wg-a,,,,AAXX 06184 07020 12557 82223 10110 20110 30058 40075 58004 60017 70262 887// 91800 333 10117 20066 91033=
07020,1998-01-07 00:00:00,12,1006.3,-0.6,82,9,0,50.004,,,240,,,,0,,,,,,,wg-a,,,,AAXX 07004 07020 02/// /2427 10120 20090 30046 40063 56006 60016 90000 333 60007=
07020,1998-01-07 06:00:00,10,1005.3,-0.6,82,7,12000,53.708,,90.748,240,10,11.8,,0,,,,,,,wg-a,,,,AAXX 07064 07020 12662 52429 10100 20070 30036 40053 56006 60007 85700 90600 333 10118 20100 91049=
07020,1998-01-07 12:00:00,11,1009,1.9,71,6,20000,64.82,,114.824,260,,,,,,,,,,2,wg-a,,,,AAXX 07124 07020 12570 62635 10110 20060 30073 40090 51019 60016 70262 86900 91200 333 91062=
07020,1998-01-07 18:00:00,9,1011.1,0.7,93,8,8000,57.412,,122.232,260,7.6,11.2,,3,,,,,,81,wg-a,,,,AAXX 07184 07020 12558 82631 10090 20080 30094 40111 53007 60037 78182 88900 91800 333 10112 20076 91066=
07020,1998-01-08 00:00:00,11,1014.1,1.9,82,8,0,57.412,,,250,,,,,,,,,,,wg-a,,,,AAXX 08004 07020 12/// /2531 10110 20080 30124 40141 53019 60006 90000=
07020,1998-01-08 06:00:00,11,1016.2,0.4,87,9,16000,50.004,,,220,8.7,11.2,,,,,,,,,wg-a,,,,AAXX 08064 07020 02666 62227 10110 20090 30145 40162 51004 61000 84220 90600 333 10112 20087 ////=
07020,1998-01-08 18:00:00,11,1019.4,1.3,94,10,14000,42.596,,,220,10.2,12.4,,,,,,,,,wg-a,,,,AAXX 08184 07020 12664 52223 10110 20100 30177 40194 51013 60006 81151 91800 333 10124 20102=
07020,1998-01-09 00:00:00,12,1022.1,1.4,88,10,0,42.596,,,220,,,,,,,,,,,wg-a,,,,AAXX 09004 07020 12/// /2223 10120 20100 30204 40221 50014 60006 90000=
07020,1998-01-09 06:00:00,12,1023.7,0.8,88,10,15000,35.188,,,190,10.9,12.3,,,,,,,,,wg-a,,,,AAXX 09064 07020 12665 81919 10120 20100 30220 40237 53008 60006 882// 90600 333 10123 20109=
07020,1998-01-09 12:00:00,12,1024.8,0.1,82,9,15000,35.188,,57.412,180,,,,,,,,,,,wg-a,,,,AAXX 09124 07020 12/65 11819 10120 20090 30231 40248 50001 60006 80001 91200 333 91031=
07020,1998-01-09 18:00:00,11,1023.1,0.3,76,7,15000,25.928,,,190,10.4,13.5,,,,,,,,,wg-a,,,,AAXX 09184 07020 12865 21914 10110 20070 30214 40231 53003 60006 82050 91800 333 10135 20104=
07020,1998-01-10 00:00:00,10,1022.4,-0.9,82,7,0,35.188,,,200,,,,,,,,,,,wg-a,,,,AAXX 10004 07020 12/// /2019 10100 20070 30207 40224 56009 60006 90000=
07020,1998-01-10 06:00:00,9,1021,-0.7,93,8,12000,31.484,,,200,9,11.6,,,,,,,,,wg-a,,,,AAXX 10064 07020 12862 32017 10090 20080 30193 40210 58007 60006 83050 90600 333 10116 20090=
07020,1998-01-10 12:00:00,11,1020.8,-1,82,8,6000,25.928,,,180,,,,,,,,,,,wg-a,,,,AAXX 10124 07020 12556 51814 10110 20080 30191 40208 58010 60006 82628 91200=
07020,1998-01-10 18:00:00,11,1018.7,-0.4,82,8,8000,3.704,,,140,8.7,12.4,,,,,,,,,wg-a,,,,AAXX 10184 07020 12/58 01402 10110 20080 30170 40187 58004 60006 80000 91800 333 10124 20087=
07020,1998-01-11 00:00:00,11,1015.8,-1.5,76,7,0,42.596,,,180,,,,,,,,,,,wg-a,,,,AAXX 11004 07020 12/// /1823 10110 20070 30141 40158 58015 60006 90000=
07020,1998-01-11 06:00:00,10,1013.5,-1,82,7,20000,42.596,,64.82,190,9.6,11.6,,,,,,,,,wg-a,,,,AAXX 11064 07020 12/70 01923 10100 20070 30118 40135 56010 60006 80000 90600 333 10116 20096 91035=
07020,1998-01-11 12:00:00,10,1013.3,0.5,93,9,12000,38.892,,72.228,190,,,,,,,,,,,wg-a,,,,AAXX 11124 07020 12862 71921 10100 20090 30116 40133 50005 60006 8705/ 91200 333 91039=
07020,1998-01-11 18:00:00,11,1013,0.8,87,9,12000,38.892,,72.228,180,9,11.6,,,,,,,,,wg-a,,,,AAXX 11184 07020 12862 71821 10110 20090 30113 40130 53008 60006 87050 91800 333 10116 20090 91039=
07020,1998-01-12 00:00:00,10,1014,0.8,93,9,0,35.188,,,190,,,,,,,,,,,wg-a,,,,AAXX 12004 07020 12/// /1919 10100 20090 30123 40140 52008 60006 90000=
07020,1998-01-12 06:00:00,11,1012.8,-1.1,87,9,14000,35.188,,,190,10.1,11.4,,,,,,,,,wg-a,,,,AAXX 12064 07020 12864 61919 10110 20090 30111 40128 57011 60006 86050 90600 333 10114 20101=
07020,1998-01-12 12:00:00,11,1011.6,-1.3,87,9,10000,38.892,,,180,,,,,,,,,,1,wg-a,,,,AAXX 12124 07020 12660 71821 10110 20090 30099 40116 58013 60016 70152 8555/ 91200=
07020,1998-01-12 18:00:00,12,1009.1,-0.7,82,9,10000,14.816,,,140,10.4,12.2,,,,,,,,,wg-a,,,,AAXX 12184 07020 32660 71408 10120 20090 30074 40091 58007 8555/ 91800 333 10122 20104=
07020,1998-01-13 00:00:00,12,1003.9,-3,76,8,0,35.188,,,160,,,,,,,,,,,wg-a,,,,AAXX 13004 07020 12/// /1619 10120 20080 30022 40039 58030 60006 90000=
07020,1998-01-13 12:00:00,14,994.1,-2.1,72,9,15000,46.3,,68.524,180,,,,,,,,,,1,wg-a,,,,AAXX 13124 07020 02665 11825 10140 20090 39925 49941 58021 60016 70165 81100 91200 333 61000 91037=
07020,1998-01-14 00:00:00,11,992,6.7,94,10,0,38.892,,,280,,,,2,,,,,,,wg-a,,,,AAXX 14004 07020 02/// /2821 10110 20100 39903 49920 53067 60046 90000 333 60027=
07020,1998-01-14 06:00:00,10,1004.8,6.3,76,6,18000,61.116,,96.304,290,9.4,11,,,,,,,,,wg-a,,,,AAXX 14064 07020 32568 32933 10100 20060 30031 40048 51063 81101 90600 333 10110 20094 91052=
07020,1998-01-14 12:00:00,10,1013.2,3.9,66,4,500,46.3,,87.044,290,,,,,,,,,,,wg-a,,,,AAXX 14124 07020 12600 52925 10100 20040 30115 40132 51039 60006 85200 91200 333 91047=
07020,1998-01-14 18:00:00,9,1016.3,1.5,76,5,500,35.188,,68.524,260,8,10.4,,0,,,,,,2,wg-a,,,,AAXX 14184 07020 12500 52619 10090 20050 30146 40163 51015 60007 70282 83208 91800 333 10104 20080 91037=
07020,1998-01-15 00:00:00,9,1014,-1.9,87,7,0,50.004,,,210,,,,,,,,,,,wg-a,,,,AAXX 15004 07020 12/// /2127 10090 20070 30123 40140 58019 60006 90000=
07020,1998-01-15 06:00:00,11,1009.9,-0,94,10,20000,31.484,,90.748,260,7.7,11,,3,,,,,,,wg-a,,,,AAXX 15064 07020 12670 62617 10110 20100 30082 40099 55000 60037 86800 90600 333 10110 20077 91049=
07020,1998-01-15 12:00:00,11,1011,0,94,10,10000,35.188,,,240,,,,,,,,,,,wg-a,,,,AAXX 15124 07020 12660 82419 10110 20100 30093 40110 50000 60006 885// 91200=
07020,1998-01-15 18:00:00,10,1010.6,0.2,87,8,15000,25.928,,,270,10.1,12.2,,,,,,,,1,wg-a,,,,AAXX 15184 07020 32565 52714 10100 20080 30089 40106 53002 70162 85500 91800 333 10122 20101=
07020,1998-01-16 00:00:00,10,1008.5,-1.4,93,9,0,42.596,,,240,,,,,,,,,,,wg-a,,,,AAXX 16004 07020 12/// /2423 10100 20090 30068 40085 58014 60016 90000=
07020,1998-01-16 06:00:00,9,1006.3,0.1,93,8,15000,25.928,,,260,8.7,10.6,,5,,,,,,,wg-a,,,,AAXX 16064 07020 12665 52614 10090 20080 30046 40063 53001 60057 85200 90600 333 10106 20087=
07020,1998-01-16 12:00:00,10,1013.2,4,76,6,22000,53.708,,68.524,320,,,,,,,,,,2,wg-a,,,,AAXX 16124 07020 12672 53229 10100 20060 30115 40132 51040 60006 70262 85100 91200 333 91037=
07020,1998-01-17 00:00:00,9,1026.5,1.6,76,5,0,25.928,,,320,,,,,,,,,,,wg-a,,,,AAXX 17004 07020 12/// /3214 10090 20050 30248 40265 51016 60006 90000=
07020,1998-01-17 06:00:00,9,1026.2,-0.7,81,6,18000,29.632,,,250,8.7,9.9,,,,,,,,,wg-a,,,,AAXX 17064 07020 32768 62516 10090 20060 30245 40262 58007 86100 90600 333 10099 20087=
07020,1998-01-17 12:00:00,10,1024.7,-1.5,87,8,18000,42.596,,,230,,,,,,,,,,,wg-a,,,,AAXX 17124 07020 12568 62323 10100 20080 30230 40247 58015 60006 84831 91200=
07020,1998-01-18 00:00:00,8,1011.4,-5.4,93,7,0,46.3,,,190,,,,,,,,,,,wg-a,,,,AAXX 18004 07020 12/// /1925 10080 20070 30097 40114 58054 60006 90000=
07020,1998-01-18 06:00:00,10,998.5,-5.5,93,9,15000,50.004,,94.452,190,8,10,,,,,,,,,wg-a,,,,AAXX 18064 07020 12565 81927 10100 20090 39968 49985 58055 60006 887// 90600 333 10100 20080 91051=
07020,1998-01-18 12:00:00,9,997,0.5,81,6,10000,50.004,,103.712,270,,,,0,,,,,,25,wg-a,,,,AAXX 18124 07020 02560 72727 10090 20060 39953 49970 53005 60026 72586 87700 91200 333 60007 91056=
07020,1998-01-18 18:00:00,8,995.2,-0.4,87,6,8000,42.596,,133.344,260,7.5,10.4,,1,,,,,,21,wg-a,,,,AAXX 18184 07020 12558 62623 10080 20060 39935 49952 58004 60017 72186 86700 91800 333 10104 20075 91072=
07020,1998-01-19 00:00:00,10,994.5,1,76,6,0,61.116,,,290,,,,,,,,,,,wg-a,,,,AAXX 19004 07020 12/// /2933 10100 20060 39928 49945 52010 60036 90000=
07020,1998-01-19 06:00:00,11,999.2,2.3,76,7,10000,61.116,,94.452,300,7.1,10.6,,,,,,,,,wg-a,,,,AAXX 19064 07020 32560 83033 10110 20070 39975 49992 53023 887// 90600 333 10106 20071 91051=
07020,1998-01-19 18:00:00,6,1013.7,5,81,3,20000,46.3,,,40,6.2,10.5,,3,,,,,,2,wg-a,,,,AAXX 19184 07020 12570 80425 10060 20030 30120 40137 51050 60037 70262 88700 91800 333 10105 20062=
07020,1998-01-20 00:00:00,6,1021.5,3.4,75,2,0,38.892,,,30,,,,,,,,,,,wg-a,,,,AAXX 20004 07020 12/// /0321 10060 20020 30198 40215 52034 60006 90000=
07020,1998-01-20 06:00:00,5,1026.5,2.4,75,1,25000,42.596,,,20,4.9,6.6,,,,,,,,,wg-a,,,,AAXX 20064 07020 12675 30223 10050 20010 30247 40265 53024 60006 83200 90600 333 10066 20049=
07020,1998-01-20 12:00:00,7,1031.2,1.8,70,2,25000,29.632,,,30,,,,,,,,,,,wg-a,,,,AAXX 20124 07020 12/75 30316 10070 20020 30294 40312 51018 60006 83070 91200=
07020,1998-01-21 00:00:00,4,1035.3,1,75,0,0,14.816,,,180,,,,,,,,,,,wg-a,,,,AAXX 21004 07020 12/// /1808 10040 20000 30335 40353 53010 60006 90000=
07020,1998-01-21 06:00:00,5,1034.8,-0,75,1,16000,14.816,,,170,2.8,6,,,,,,,,,wg-a,,,,AAXX 21064 07020 12866 41708 10050 20010 30330 40348 55000 60006 84050 90600 333 10060 20028=
07020,1998-01-21 12:00:00,5,1036,0.3,87,3,16000,18.52,,,220,,,,1,,,,,,61,wg-a,,,,AAXX 21124 07020 02566 82210 10050 20030 30342 40360 50003 60016 76162 8572/ 91200 333 60017=
07020,1998-01-22 00:00:00,5,1033.6,-0.6,81,2,0,11.112,,,170,,,,,,,,,,,wg-a,,,,AAXX 22004 07020 12/// /1706 10050 20020 30318 40336 56006 60006 90000=
07020,1998-01-22 06:00:00,5,1031.9,-1,81,2,16000,11.112,,,120,4.6,5.7,,,,,,,,,wg-a,,,,AAXX 22064 07020 12/66 71206 10050 20020 30301 40319 56010 60006 8702/ 90600 333 10057 20046=
07020,1998-01-22 12:00:00,7,1030.6,-0.8,66,1,18000,18.52,,,120,,,,,,,,,,,wg-a,,,,AAXX 22124 07020 12/68 61210 10070 20010 30288 40306 58008 60006 86050 91200=
07020,1998-01-22 18:00:00,5,1028.2,-0.8,75,1,10000,42.596,,,90,4.2,6.7,,,,,,,,,wg-a,,,,AAXX 22184 07020 12/60 60923 10050 20010 30264 40282 56008 60006 86050 91800 333 10067 20042=
07020,1998-01-23 06:00:00,3,1027.4,-0.8,87,1,16000,29.632,,,100,-0.2,4.6,,,,,,,,,wg-a,,,,AAXX 23064 07020 12/66 51016 10030 20010 30256 40274 56008 60006 85050 90600 333 10046 21002=
07020,1998-01-23 12:00:00,7,1027.1,-0.4,76,3,20000,46.3,,,90,,,,,,,,,,,wg-a,,,,AAXX 23124 07020 12670 70925 10070 20030 30254 40271 58004 60006 87500 91200=
07020,1998-01-23 18:00:00,6,1027.3,1.2,81,3,12000,50.004,,,90,3.4,6.7,,,,,,,,,wg-a,,,,AAXX 23184 07020 12662 80927 10060 20030 30255 40273 51012 60006 88500 91800 333 10067 20034=
07020,1998-01-24 00:00:00,6,1028.8,0.6,75,2,0,53.708,,,100,,,,,,,,,,,wg-a,,,,AAXX 24004 07020 12/// /1029 10060 20020 30270 40288 53006 60006 90000=
07020,1998-01-24 06:00:00,7,1029.3,0.3,76,3,15000,53.708,,,80,5.5,7.3,,,,,,,,,wg-a,,,,AAXX 24064 07020 12665 60829 10070 20030 30276 40293 53003 60006 86500 90600 333 10073 20055=
07020,1998-01-24 12:00:00,7,1030.2,0.1,76,3,500,50.004,,,70,,,,,,,,,,1,wg-a,,,,AAXX 24124 07020 02600 30727 10070 20030 30285 40302 50001 60006 70151 82108 91200 333 61000=
07020,1998-01-24 18:00:00,7,1030.4,0.3,70,2,24000,57.412,,,60,6.2,7.7,,,,,,,,,wg-a,,,,AAXX 24184 07020 32674 70631 10070 20020 30287 40304 53003 878// 91800 333 10077 20062=
07020,1998-01-25 00:00:00,6,1029.9,-1.1,70,1,0,61.116,,,60,,,,,,,,,,,wg-a,,,,AAXX 25004 07020 12/// /0633 10060 20010 30281 40299 58011 60006 90000=
07020,1998-01-25 06:00:00,6,1028,-0.6,75,2,16000,68.524,,87.044,60,5.8,7.5,,,,,,,,,wg-a,,,,AAXX 25064 07020 12666 70637 10060 20020 30262 40280 58006 60006 878// 90600 333 10075 20058 91047=
07020,1998-01-25 12:00:00,6,1028.1,-0.4,81,3,20000,68.524,,90.748,60,,,,,,,,,,21,wg-a,,,,AAXX 25124 07020 02670 80637 10060 20030 30263 40281 58004 61000 72182 88800 91200 333 6100 91049=
07020,1998-01-25 18:00:00,6,1027.7,0.2,75,2,20000,64.82,,94.452,90,5.6,6.6,,,,,,,,,wg-a,,,,AAXX 25184 07020 32670 80935 10060 20020 30259 40277 53002 88800 91800 333 10066 20056 91051=
07020,1998-01-26 00:00:00,4,1029.7,1,75,0,0,50.004,,,90,,,,,,,,,,,wg-a,,,,AAXX 26004 07020 12/// /0927 10040 20000 30279 40297 51010 60006 90000=
07020,1998-01-26 06:00:00,4,1029.5,-0.1,75,0,12000,42.596,,,90,3.4,6,,,,,,,,,wg-a,,,,AAXX 26064 07020 12662 80923 10040 20000 30277 40295 55001 60006 88800 90600 333 10060 20034=
07020,1998-01-26 12:00:00,5,1029.6,-0.7,70,0,8000,50.004,,,90,,,,,,,,,,,wg-a,,,,AAXX 26124 07020 12658 60927 10050 20000 30278 40296 58007 60006 86800 91200=
07020,1998-01-26 18:00:00,6,1027.7,-0.8,70,1,8000,53.708,,,80,3.3,5.7,,,,,,,,,wg-a,,,,AAXX 26184 07020 12658 60829 10060 20010 30259 40277 58008 60006 86800 91800 333 10057 20033=
07020,1998-01-27 00:00:00,5,1026.4,-0.9,70,0,0,42.596,,,90,,,,,,,,,,,wg-a,,,,AAXX 27004 07020 12/// /0923 10050 20000 30246 40264 56009 60006 90000=
07020,1998-01-27 06:00:00,4,1023.5,-1.6,81,1,12000,38.892,,,90,3.8,6.2,,,,,,,,,wg-a,,,,AAXX 27064 07020 12862 30921 10040 20010 30217 40235 57016 60006 83100 90600 333 10062 20038=
07020,1998-01-27 12:00:00,4,1021.9,-1,70,-1,15000,50.004,,68.524,100,,,,,,,,,,,wg-a,,,,AAXX 27124 07020 12/65 31027 10040 21010 30201 40219 58010 60006 83010 91200 333 91037=
07020,1998-01-27 18:00:00,5,1020,-0,60,-2,20000,42.596,,,90,3.9,5.1,,,,,,,,,wg-a,,,,AAXX 27184 07020 12/70 10923 10050 21020 30183 40200 55000 60006 81080 91800 333 10051 20039=
07020,1998-01-28 00:00:00,3,1020.4,0.2,70,-2,0,29.632,,,120,,,,,,,,,,,wg-a,,,,AAXX 28004 07020 12/// /1216 10030 21020 30186 40204 53002 60006 90000=
07020,1998-01-28 06:00:00,4,1019.5,-0.5,75,0,15000,38.892,,,90,0.8,5.4,,,,,,,,,wg-a,,,,AAXX 28064 07020 12/65 00921 10040 20000 30177 40195 58005 60006 80000 90600 333 10054 20008=
07020,1998-01-28 12:00:00,5,1019.5,0.3,70,0,12000,50.004,,,100,,,,,,,,,,,wg-a,,,,AAXX 28124 07020 12/62 11027 10050 20000 30178 40195 50003 60006 81080 91200=
07020,1998-01-28 18:00:00,5,1019.8,1.1,70,0,14000,42.596,,,90,3.2,5.1,,,,,,,,,wg-a,,,,AAXX 28184 07020 12664 30923 10050 20000 30181 40198 52011 60006 82480 91800 333 10051 20032=
07020,1998-01-29 00:00:00,5,1020.1,0.2,75,1,0,46.3,,,100,,,,,,,,,,,wg-a,,,,AAXX 29004 07020 12/// /1025 10050 20010 30184 40201 52002 60006 90000=
07020,1998-01-29 06:00:00,3,1020.3,0.1,75,-1,16000,42.596,,,110,3.1,5.1,,,,,,,,,wg-a,,,,AAXX 29064 07020 12/66 11123 10030 21010 30185 40203 50001 60006 81080 90600 333 10051 20031=
07020,1998-01-29 12:00:00,7,1021.6,0.3,76,3,16000,38.892,,72.228,120,,,,,,,,,,,wg-a,,,,AAXX 29124 07020 12866 41221 10070 20030 30199 40216 53003 60006 84500 91200 333 91039=
07020,1998-01-29 18:00:00,6,1021.4,0.4,87,4,16000,31.484,,,110,3.1,7.4,,,,,,,,,wg-a,,,,AAXX 29184 07020 12666 21117 10060 20040 30197 40214 53004 60006 81101 91800 333 10074 20031=
07020,1998-01-30 00:00:00,4,1021.3,-0.2,93,3,0,14.816,,,120,,,,,,,,,,,wg-a,,,,AAXX 30004 07020 12/// /1208 10040 20030 30195 40213 58002 60006 90000=
07020,1998-01-30 06:00:00,1,1019.9,-0.7,93,0,16000,11.112,,,170,0.7,6.1,,,,,,,,,wg-a,,,,AAXX 30064 07020 12/66 11706 10010 20000 30181 40199 58007 60006 81040 90600 333 10061 20007=
07020,1998-01-31 06:00:00,1,1017.4,-0.1,86,-1,16000,11.112,,,130,0.6,5.2,,,,,,,,,wg-a,,,,AAXX 31064 07020 12/66 01306 10010 21010 30156 40174 56001 60006 80000 90600 333 10052 20006=
07020,1998-01-31 12:00:00,8,1018,-0.1,71,3,16000,29.632,,,110,,,,,,,,,,,wg-a,,,,AAXX 31124 07020 12866 31116 10080 20030 30163 40180 58001 60006 83400 91200=
07020,1998-01-31 18:00:00,6,1017.4,0.2,81,3,12000,29.632,,,110,-1.4,8,,,,,,,,,wg-a,,,,AAXX 31184 07020 12/62 41116 10060 20030 30157 40174 52002 60006 84800 91800 333 10080 21014=
07020,1998-02-01 00:00:00,5,1018.1,-0.1,75,1,0,29.632,,,110,,,,,,,,,,,wg-a,,,,AAXX 01004 07020 12/// /1116 10050 20010 30164 40181 58001 60006 90000=
07020,1998-02-01 06:00:00,5,1016.3,-0.7,75,1,16000,25.928,,,90,3.8,6.5,,,,,,,,,wg-a,,,,AAXX 01064 07020 12/66 00914 10050 20010 30146 40163 58007 60006 80000 90600 333 10065 20038=
07020,1998-02-01 12:00:00,6,1016.9,0.1,75,2,14000,22.224,,,100,,,,,,,,,,,wg-a,,,,AAXX 01124 07020 12664 61012 10060 20020 30152 40169 50001 60006 83105 91200=
07020,1998-02-01 18:00:00,4,1016.2,0.2,81,1,18000,18.52,,,90,4.1,6,,,,,,,,,wg-a,,,,AAXX 01184 07020 12668 80910 10040 20010 30145 40162 53002 60006 8512/ 91800 333 10060 20041=
07020,1998-02-02 00:00:00,4,1016.7,-0,70,-1,0,25.928,,,60,,,,,,,,,,,wg-a,,,,AAXX 02004 07020 12/// /0614 10040 21010 30150 40167 54000 60006 90000=
07020,1998-02-02 06:00:00,4,1014.5,-0.9,75,0,15000,22.224,,,60,3.5,4.7,,,,,,,,,wg-a,,,,AAXX 02064 07020 12/65 00612 10040 20000 30128 40145 56009 60006 80000 90600 333 10047 20035=
07020,1998-02-02 12:00:00,8,1014.5,-0.4,76,4,18000,14.816,,,50,,,,,,,,,,,wg-a,,,,AAXX 02124 07020 12668 60508 10080 20040 30128 40145 57004 60006 86200 91200=
07020,1998-02-02 18:00:00,7,1013.4,-0,70,2,18000,25.928,,,40,3.8,8.3,,,,,,,,,wg-a,,,,AAXX 02184 07020 12668 30414 10070 20020 30117 40134 55000 60006 83100 91800 333 10083 20038=
07020,1998-02-03 00:00:00,7,1013.9,0.1,70,2,0,29.632,,,50,,,,,,,,,,,wg-a,,,,AAXX 03004 07020 12/// /0516 10070 20020 30122 40139 52001 60006 90000=
07020,1998-02-03 06:00:00,6,1013.8,-0.2,75,2,18000,25.928,,,50,5.7,7.2,,,,,,,,,wg-a,,,,AAXX 03064 07020 12668 10514 10060 20020 30121 40138 56002 60006 81100 90600 333 10072 20057=
07020,1998-02-03 12:00:00,8,1014.4,0,66,2,25000,18.52,,,90,,,,,,,,,,,wg-a,,,,AAXX 03124 07020 12675 50910 10080 20020 30127 40144 50000 60006 85800 91200=
07020,1998-02-03 18:00:00,6,1014.7,0.6,65,0,22000,7.408,,,110,5.6,8.8,,,,,,,,,wg-a,,,,AAXX 03184 07020 12772 61104 10060 20000 30130 40147 53006 60006 86800 91800 333 10088 20056=
07020,1998-02-04 00:00:00,2,1015.3,-0,75,-2,0,14.816,,,190,,,,,,,,,,,wg-a,,,,AAXX 04004 07020 12/// /1908 10020 21020 30135 40153 54000 60006 90000=
07020,1998-02-04 06:00:00,3,1015,-0.1,87,1,16000,14.816,,,200,1.7,6.1,,,,,,,,,wg-a,,,,AAXX 04064 07020 12866 42008 10030 20010 30133 40150 58001 60006 84050 90600 333 10061 20017=
07020,1998-02-04 12:00:00,8,1016.9,0.8,66,2,35000,11.112,,,290,,,,,,,,,,,wg-a,,,,AAXX 04124 07020 12681 42906 10080 20020 30152 40169 51008 60006 84100 91200=
07020,1998-02-04 18:00:00,8,1018.2,1.5,81,5,35000,14.816,,,330,2.6,8.9,,,,,,,,,wg-a,,,,AAXX 04184 07020 12681 73308 10080 20050 30165 40182 53015 60006 875// 91800 333 10089 20026=
07020,1998-02-05 00:00:00,9,1020,0.7,87,7,0,14.816,,,300,,,,,,,,,,,wg-a,,,,AAXX 05004 07020 12/// /3008 10090 20070 30183 40200 51007 60006 90000=
07020,1998-02-05 06:00:00,9,1020.8,0.3,87,7,20000,14.816,,,340,8.1,8.9,,,,,,,,,wg-a,,,,AAXX 05064 07020 12770 63408 10090 20070 30191 40208 53003 60006 86800 90600 333 10089 20081=
07020,1998-02-05 12:00:00,10,1022.5,0.3,76,6,40000,11.112,,,240,,,,,,,,,,,wg-a,,,,AAXX 05124 07020 12882 82406 10100 20060 30208 40225 50003 60006 88050 91200=
07020,1998-02-05 18:00:00,9,1022.7,0.6,87,7,40000,11.112,,,230,7.9,9.9,,,,,,,,,wg-a,,,,AAXX 05184 07020 12882 82306 10090 20070 30210 40227 53006 60006 88050 91800 333 10099 20079=
07020,1998-02-06 00:00:00,8,1022.9,0,93,7,0,11.112,,,210,,,,,,,,,,,wg-a,,,,AAXX 06004 07020 12/// /2106 10080 20070 30212 40229 50000 60006 90000=
07020,1998-02-06 06:00:00,8,1022.2,-0.2,87,6,25000,14.816,,,190,7.6,8.6,,,,,,,,,wg-a,,,,AAXX 06064 07020 12675 61908 10080 20060 30205 40222 56002 60006 86500 90600 333 10086 20076=
07020,1998-02-06 12:00:00,9,1022.4,-0.5,71,4,20000,31.484,,,200,,,,,,,,,,,wg-a,,,,AAXX 06124 07020 12670 82017 10090 20040 30207 40224 58005 60006 885// 91200=
07020,1998-02-06 18:00:00,7,1019.9,-1.4,70,2,16000,31.484,,,200,6.7,8.9,,,,,,,,,wg-a,,,,AAXX 06184 07020 12566 82017 10070 20020 30182 40199 56014 60006 8275/ 91800 333 10089 20067=
07020,1998-02-07 00:00:00,7,1017.4,-1.4,81,4,0,46.3,,,210,,,,,,,,,,,wg-a,,,,AAXX 07004 07020 12/// /2125 10070 20040 30157 40174 58014 60006 90000=
07020,1998-02-07 06:00:00,8,1016.2,0.8,93,7,8000,35.188,,,300,6.8,8.3,,3,,,,,,61,wg-a,,,,AAXX 07064 07020 12558 83019 10080 20070 30145 40162 53008 60037 761// 8472/ 90600 333 10083 20068=
07020,1998-02-07 12:00:00,10,1023,2.6,66,4,50000,11.112,,,270,,,,,,,,,,3,wg-a,,,,AAXX 07124 07020 02/84 32706 10100 20040 30213 40230 51026 61000 70361 83070 91200 333 ////=
07020,1998-02-07 18:00:00,9,1025.6,1.6,87,7,25000,25.928,,,250,8,11.2,,,,,,,,,wg-a,,,,AAXX 07184 07020 32875 62514 10090 20070 30239 40256 53016 86050 91800 333 10112 20080=
07020,1998-02-08 00:00:00,7,1028,0.7,93,6,0,0,,,0,,,,,,,,,,,wg-a,,,,AAXX 08004 07020 12/// /0000 10070 20060 30263 40280 52007 60006 90000=
07020,1998-02-08 06:00:00,8,1026.7,-0.5,100,8,16000,22.224,,,220,6.4,9,,,,,,,,,wg-a,,,,AAXX 08064 07020 12666 62212 10080 20080 30250 40267 55005 60006 86800 90600 333 10090 20064=
07020,1998-02-08 12:00:00,8,1027.4,-0.1,93,7,10000,25.928,,,190,,,,,,,,,,,wg-a,,,,AAXX 08124 07020 12560 81914 10080 20070 30257 40274 55001 60006 86620 91200=
07020,1998-02-08 18:00:00,7,1026.3,0,93,6,10000,22.224,,,190,7.1,8.5,,,,,,,,,wg-a,,,,AAXX 08184 07020 12560 61912 10070 20060 30246 40263 50000 60006 84870 91800 333 10085 20071=
07020,1998-02-09 00:00:00,6,1026,0,93,5,0,25.928,,,200,,,,,,,,,,,wg-a,,,,AAXX 09004 07020 12/// /2014 10060 20050 30242 40260 50000 60006 90000=
07020,1998-02-09 06:00:00,3,1024.5,-0.5,100,3,10000,31.484,,,210,2.6,7.5,,,,,,,,,wg-a,,,,AAXX 09064 07020 12560 22117 10030 20030 30227 40245 57005 60006 82600 90600 333 10075 20026=
07020,1998-02-09 12:00:00,7,1024.7,-0.2,93,6,500,25.928,,,210,,,,,,,,,,,wg-a,,,,AAXX 09124 07020 12500 62114 10070 20060 30230 40247 58002 60006 83608 91200=
07020,1998-02-09 18:00:00,6,1024.9,0.9,87,4,500,18.52,,,220,3.1,8.4,,,,,,,,,wg-a,,,,AAXX 09184 07020 12400 62210 10060 20040 30231 40249 53009 60006 83608 91800 333 10084 20031=
07020,1998-02-10 00:00:00,6,1025.8,0.8,93,5,0,22.224,,,220,,,,,,,,,,,wg-a,,,,AAXX 10004 07020 12/// /2212 10060 20050 30241 40258 53008 60006 90000=
07020,1998-02-10 06:00:00,4,1026.2,0.4,100,4,12000,14.816,,,200,4.4,6,,0,,,,,,,wg-a,,,,AAXX 10064 07020 12562 22008 10040 20040 30244 40262 53004 60007 82600 90600 333 10060 20044=
07020,1998-02-10 12:00:00,9,1028.5,0.3,93,8,6000,14.816,,,220,,,,,,,,,,,wg-a,,,,AAXX 10124 07020 12656 82208 10090 20080 30268 40285 53003 60006 885// 91200=
07020,1998-02-10 18:00:00,8,1028.4,1,87,6,18000,22.224,,,230,4.3,9.8,,,,,,,,,wg-a,,,,AAXX 10184 07020 12668 82312 10080 20060 30267 40284 51010 60006 885// 91800 333 10098 20043=
07020,1998-02-11 00:00:00,7,1028.9,0,93,6,0,22.224,,,210,,,,,,,,,,,wg-a,,,,AAXX 11004 07020 12/// /2112 10070 20060 30272 40289 50000 60006 90000=
07020,1998-02-11 06:00:00,6,1026.9,-1.2,100,6,12000,38.892,,,200,6.3,8.3,,,,,,,,,wg-a,,,,AAXX 11064 07020 12/62 42021 10060 20060 30252 40269 58012 60006 80005 90600 333 10083 20063=
07020,1998-02-11 12:00:00,10,1028,0.2,82,7,6000,38.892,,,210,,,,,,,,,,,wg-a,,,,AAXX 11124 07020 12456 62121 10100 20070 30263 40280 50002 60006 83605 91200=
07020,1998-02-11 18:00:00,11,1027.7,0.7,82,8,8000,29.632,,,200,5.8,11.6,,,,,,,,,wg-a,,,,AAXX 11184 07020 12558 62016 10110 20080 30260 40277 52007 60006 83605 91800 333 10116 20058=
07020,1998-02-12 00:00:00,9,1028.5,-0.2,93,8,0,31.484,,,200,,,,,,,,,,,wg-a,,,,AAXX 12004 07020 12/// /2017 10090 20080 30268 40285 57002 60006 90000=
07020,1998-02-12 06:00:00,8,1029.1,0.2,100,8,10000,31.484,,,200,8.3,10.8,,,,,,,,,wg-a,,,,AAXX 12064 07020 12/60 02017 10080 20080 30274 40291 53002 60006 80000 90600 333 10108 20083=
07020,1998-02-12 12:00:00,12,1031.3,1.1,82,9,500,25.928,,,210,,,,,,,,,,,wg-a,,,,AAXX 12124 07020 12500 72114 10120 20090 30296 40313 50011 60006 85650 91200=
07020,1998-02-12 18:00:00,10,1031.4,0.9,87,8,6000,25.928,,,220,8.2,12.3,,,,,,,,,wg-a,,,,AAXX 12184 07020 12556 32214 10100 20080 30297 40314 53009 60006 82601 91800 333 10123 20082=
07020,1998-02-13 00:00:00,11,1032.3,0.2,87,9,0,29.632,,,200,,,,,,,,,,,wg-a,,,,AAXX 13004 07020 12/// /2016 10110 20090 30306 40323 53002 60006 90000=
07020,1998-02-13 12:00:00,14,1033.8,0.2,67,8,4500,18.52,,,190,,,,,,,,,,10,wg-a,,,,AAXX 13124 07020 12/45 01910 10140 20080 30321 40338 50002 60006 71000 80000 91200=
07020,1998-02-13 18:00:00,10,1033,0.2,82,7,7000,11.112,,,140,9.4,15.4,,,,,,,,,wg-a,,,,AAXX 13184 07020 12/57 01406 10100 20070 30313 40330 53002 60006 80000 91800 333 10154 20094=
07020,1998-02-14 00:00:00,9,1032.6,-1,81,6,0,7.408,,,140,,,,,,,,,,,wg-a,,,,AAXX 14004 07020 12/// /1404 10090 20060 30309 40326 58010 60006 90000=
07020,1998-02-14 06:00:00,10,1032.4,0.4,76,6,12000,25.928,,,210,8.1,11.5,,,,,,,,,wg-a,,,,AAXX 14064 07020 12/62 02114 10100 20060 30307 40324 53004 60006 80000 90600 333 10115 20081=
07020,1998-02-14 12:00:00,13,1033,-0.1,72,8,7000,7.408,,,30,,,,,,,,,,,wg-a,,,,AAXX 14124 07020 12/57 00304 10130 20080 30313 40330 58001 60006 80000 91200=
07020,1998-02-14 18:00:00,10,1032.6,-0.3,76,6,7000,3.704,,,150,9.1,16.3,,,,,,,,,wg-a,,,,AAXX 14184 07020 12/57 41502 10100 20060 30309 40326 55003 60006 80005 91800 333 10163 20091=
07020,1998-02-15 06:00:00,9,1030.8,-0.4,87,7,500,7.408,,,190,6.4,11.1,,,,,,,,,wg-a,,,,AAXX 15064 07020 12/00 31904 10090 20070 30291 40308 58004 60006 80005 90600 333 10111 20064=
07020,1998-02-15 12:00:00,14,1029.5,-1.2,67,8,6000,35.188,,,190,,,,,,,,,,,wg-a,,,,AAXX 15124 07020 12/56 31919 10140 20080 30278 40295 58012 60006 80005 91200=
07020,1998-02-15 18:00:00,14,1025.8,-1.5,67,8,6000,42.596,,,190,8.9,14.9,,,,,,,,,wg-a,,,,AAXX 15184 07020 12/56 81923 10140 20080 30241 40258 56015 60006 88010 91800 333 10149 20089=
07020,1998-02-16 00:00:00,11,1024.8,-0.7,94,10,0,35.188,,,240,,,,,,,,,,,wg-a,,,,AAXX 16004 07020 12/// /2419 10110 20100 30231 40248 56007 60006 90000=
07020,1998-02-16 06:00:00,10,1025.4,0.7,87,8,16000,29.632,,,290,9.6,13.9,,,,,,,,,wg-a,,,,AAXX 16064 07020 12866 82916 10100 20080 30237 40254 53007 60006 888// 90600 333 10139 20096=
07020,1998-02-16 12:00:00,10,1027.8,1.1,82,7,20000,31.484,,57.412,280,,,,,,,,,,,wg-a,,,,AAXX 16124 07020 12770 22817 10100 20070 30261 40278 52011 60006 82500 91200 333 91031=
07020,1998-02-16 18:00:00,10,1030.2,1.8,87,8,16000,31.484,,57.412,300,9.8,10.9,,,,,,,,,wg-a,,,,AAXX 16184 07020 12766 83017 10100 20080 30285 40302 53018 60006 88500 91800 333 10109 20098 91031=
07020,1998-02-17 00:00:00,9,1033.4,1.5,93,8,0,31.484,,,320,,,,,,,,,,,wg-a,,,,AAXX 17004 07020 12/// /3217 10090 20080 30317 40334 51015 60006 90000=
07020,1998-02-17 06:00:00,9,1036.2,1.8,93,8,18000,18.52,,,40,8.5,10.1,,,,,,,,,wg-a,,,,AAXX 17064 07020 12768 80410 10090 20080 30345 40362 53018 60006 88500 90600 333 10101 20085=
07020,1998-02-17 12:00:00,10,1038.1,0.4,87,8,12000,7.408,,,260,,,,,,,,,,,wg-a,,,,AAXX 17124 07020 12562 32604 10100 20080 30364 40381 53004 60006 81608 91200=
07020,1998-02-17 18:00:00,8,1036.9,0.2,87,6,0,11.112,,,130,6.5,12.1,,,,,,,,,wg-a,,,,AAXX 17184 07020 32/// /1306 10080 20060 30351 40369 53002 91800 333 10121 20065=
07020,1998-02-18 00:00:00,5,1035.9,-0.7,87,3,0,18.52,,,130,,,,,,,,,,,wg-a,,,,AAXX 18004 07020 12/// /1310 10050 20030 30341 40359 58007 60006 90000=
07020,1998-02-18 06:00:00,5,1032.9,-1.6,81,2,18000,11.112,,,140,4.1,7.7,,,,,,,,,wg-a,,,,AAXX 18064 07020 12/68 21406 10050 20020 30311 40329 56016 60006 80008 90600 333 10077 20041=
07020,1998-02-18 12:00:00,8,1030.2,-1.7,76,4,12000,11.112,,,220,,,,,,,,,,,wg-a,,,,AAXX 18124 07020 12/62 52206 10080 20040 30285 40302 58017 60006 80005 91200=
07020,1998-02-18 18:00:00,8,1027.7,-0.4,81,5,15000,25.928,,,240,3.8,10.3,,,,,,,,,wg-a,,,,AAXX 18184 07020 12665 32414 10080 20050 30260 40277 55004 60006 83500 91800 333 10103 20038=
07020,1998-02-19 00:00:00,9,1027.7,-0.3,93,8,0,29.632,,,210,,,,,,,,,,,wg-a,,,,AAXX 19004 07020 12/// /2116 10090 20080 30260 40277 56003 60006 90000=
07020,1998-02-19 06:00:00,10,1028,0.4,100,10,15000,25.928,,,240,7.5,10.3,,,,,,,,,wg-a,,,,AAXX 19064 07020 12665 62414 10100 20100 30263 40280 53004 60006 86400 90600 333 10103 20075=
07020,1998-02-19 12:00:00,11,1029.8,0.4,94,10,6000,22.224,,,220,,,,,,,,,,,wg-a,,,,AAXX 19124 07020 12856 82212 10110 20100 30281 40298 50004 60006 8802/ 91200=
07020,1998-02-19 18:00:00,11,1027.2,-1.1,87,9,6000,14.816,,,170,,11.1,,,,,,,,,wg-a,,,,AAXX 19184 07020 12856 81708 10110 20090 30255 40272 56011 60006 8802/ 91800 333 10111 21098=
07020,1998-02-20 00:00:00,11,1024.1,-1.9,87,9,0,25.928,,,180,,,,,,,,,,,wg-a,,,,AAXX 20004 07020 12/// /1814 10110 20090 30224 40241 58019 60006 90000=
07020,1998-02-20 06:00:00,9,1018.5,-2.6,81,6,16000,31.484,,53.708,180,9.1,11.2,,,,,,,,,wg-a,,,,AAXX 20064 07020 12/66 01817 10090 20060 30168 40185 56026 60006 80000 90600 333 10112 20091 91029=
07020,1998-02-20 12:00:00,15,1014.2,-2.3,63,8,10000,42.596,,61.116,180,,,,,,,,,,,wg-a,,,,AAXX 20124 07020 12860 51823 10150 20080 30125 40142 58023 60006 8502/ 91200 333 91033=
07020,1998-02-20 18:00:00,13,1012.2,0.4,77,9,10000,35.188,,96.304,200,8.8,16.2,,,,,,,,,wg-a,,,,AAXX 20184 07020 12660 82019 10130 20090 30105 40122 53004 60006 88500 91800 333 10162 20088 91052=
07020,1998-02-21 00:00:00,11,1012.6,0.6,94,10,0,31.484,,,220,,,,,,,,,,,wg-a,,,,AAXX 21004 07020 12/// /2217 10110 20100 30109 40126 51006 60006 90000=
07020,1998-02-21 06:00:00,10,1010.5,-1.3,93,9,16000,35.188,,,200,10.2,13.1,,,,,,,,,wg-a,,,,AAXX 21064 07020 12666 82019 10100 20090 30088 40105 58013 60006 88500 90600 333 10131 20102=
07020,1998-02-21 12:00:00,10,1010.5,0.1,87,8,18000,42.596,,,200,,,,2,,,,,,21,wg-a,,,,AAXX 21124 07020 02568 82023 10100 20080 30088 40105 50001 60036 72162 887// 91200 333 60027=
07020,1998-02-21 18:00:00,9,1012.5,0.9,87,7,20000,38.892,,,250,9.1,11.3,,,,,,,,3,wg-a,,,,AAXX 21184 07020 32570 52521 10090 20070 30108 40125 53009 70361 84760 91800 333 10113 20091=
07020,1998-02-22 00:00:00,8,1014.2,0.6,87,6,0,18.52,,,280,,,,0,,,,,,,wg-a,,,,AAXX 22004 07020 02/// /2810 10080 20060 30125 40142 53006 60016 90000 333 60007=
07020,1998-02-22 06:00:00,8,1017.5,2,76,4,20000,38.892,,72.228,300,6,9.4,,2,,,,,,,wg-a,,,,AAXX 22064 07020 12570 53021 10080 20040 30158 40175 53020 60027 85200 90600 333 10094 20060 91039=
07020,1998-02-22 18:00:00,9,1030.7,2.8,76,5,25000,25.928,,,340,6.8,9.8,,,,,,,,,wg-a,,,,AAXX 22184 07020 32675 23414 10090 20050 30290 40307 53028 81105 91800 333 10098 20068=
07020,1998-02-23 00:00:00,9,1034.5,1.4,76,5,0,29.632,,,320,,,,,,,,,,,wg-a,,,,AAXX 23004 07020 12/// /3216 10090 20050 30328 40345 51014 60006 90000=
07020,1998-02-23 06:00:00,9,1035.6,0.5,87,7,25000,14.816,,,280,8.3,9.1,,,,,,,,,wg-a,,,,AAXX 23064 07020 12875 62808 10090 20070 30339 40356 53005 60006 86050 90600 333 10091 20083=
07020,1998-02-23 12:00:00,11,1037.2,0.6,87,9,25000,18.52,,,270,,,,,,,,,,,wg-a,,,,AAXX 23124 07020 12675 82710 10110 20090 30355 40372 51006 60006 885// 91200=
07020,1998-02-23 18:00:00,10,1037,0.4,93,9,16000,18.52,,,270,9,10.8,,,,,,,,,wg-a,,,,AAXX 23184 07020 32666 72710 10100 20090 30353 40370 53004 86550 91800 333 10108 20090=
07020,1998-02-24 00:00:00,9,1038.3,0.4,93,8,0,22.224,,,330,,,,,,,,,,,wg-a,,,,AAXX 24004 07020 12/// /3312 10090 20080 30366 40383 52004 60006 90000=
07020,1998-02-24 06:00:00,9,1038.5,0.5,93,8,14000,25.928,,,310,8.9,10.2,,,,,,,,,wg-a,,,,AAXX 24064 07020 12/64 03114 10090 20080 30368 40385 53005 60006 80000 90600 333 10102 20089=
07020,1998-02-24 12:00:00,11,1039.9,0.3,87,9,18000,18.52,,,320,,,,,,,,,,,wg-a,,,,AAXX 24124 07020 12/68 63210 10110 20090 30382 40399 50003 60006 80005 91200=
07020,1998-02-24 18:00:00,10,1039.6,0.5,87,8,18000,18.52,,,320,9.1,11,,,,,,,,,wg-a,,,,AAXX 24184 07020 32868 53210 10100 20080 30379 40396 53005 83035 91800 333 10110 20091=
07020,1998-02-25 06:00:00,10,1039.3,-0.2,71,5,18000,11.112,,,70,9.3,10.4,,,,,,,,,wg-a,,,,AAXX 25064 07020 12568 30706 10100 20050 30376 40393 56002 60006 81605 90600 333 10104 20093=
07020,1998-02-25 12:00:00,12,1039.6,-0.3,67,6,18000,7.408,,,40,,,,,,,,,,,wg-a,,,,AAXX 25124 07020 12868 80404 10120 20060 30379 40396 56003 60006 8802/ 91200=
07020,1998-02-25 18:00:00,8,1036.5,-1,93,7,8000,3.704,,,90,8.4,12.1,,,,,,,,,wg-a,,,,AAXX 25184 07020 12/58 00902 10080 20070 30347 40365 56010 60006 80000 91800 333 10121 20084=
07020,1998-02-26 00:00:00,5,1035.4,-0.6,93,4,0,7.408,,,210,,,,,,,,,,,wg-a,,,,AAXX 26004 07020 12/// /2104 10050 20040 30336 40354 58006 60006 90000=
07020,1998-02-26 06:00:00,8,1034.6,-0.5,93,7,20000,0,,,0,5,8.3,,,,,,,,,wg-a,,,,AAXX 26064 07020 12/70 00000 10080 20070 30328 40346 56005 60006 80000 90600 333 10083 20050=
07020,1998-02-26 12:00:00,10,1034,-0.1,87,8,8000,14.816,,,220,,,,,,,,,,,wg-a,,,,AAXX 26124 07020 12858 82208 10100 20080 30323 40340 58001 60006 88010 91200=
07020,1998-02-27 00:00:00,10,1029.9,-1.6,82,7,0,25.928,,,270,,,,,,,,,,,wg-a,,,,AAXX 27004 07020 12/// /2714 10100 20070 30282 40299 57016 60006 90000=
07020,1998-02-27 06:00:00,9,1025.8,-2.2,93,8,16000,42.596,,,250,9.1,9.7,,,,,,,,,wg-a,,,,AAXX 27064 07020 12666 82523 10090 20080 30241 40258 56022 60006 885// 90600 333 10097 20091=
07020,1998-02-27 12:00:00,10,1024.1,-1.2,93,9,500,31.484,,,260,,,,,,,,,,2,wg-a,,,,AAXX 27124 07020 02700 62617 10100 20090 30224 40241 58012 60016 70262 86500 91200 333 61000=
07020,1998-02-27 18:00:00,10,1020,-1.6,82,7,20000,42.596,,75.932,270,9.1,10.6,,,,,,,,25,wg-a,,,,AAXX 27184 07020 02770 82723 10100 20070 30183 40200 56016 61000 72582 885// 91800 333 10106 20091 //// 91041=
07020,1998-02-28 00:00:00,9,1016.4,-1.9,87,7,0,50.004,,,260,,,,0,,,,,,,wg-a,,,,AAXX 28004 07020 02/// /2627 10090 20070 30147 40164 58019 60006 90000 333 60007=
07020,1998-02-28 06:00:00,8,1014.9,0.2,87,6,20000,46.3,,79.636,300,7.8,9.8,,0,,,,,,60,wg-a,,,,AAXX 28064 07020 12570 83025 10080 20060 30132 40149 53002 60007 76062 8472/ 90600 333 10098 20078 91043=
07020,1998-02-28 12:00:00,8,1018.5,1.4,66,2,24000,38.892,,,310,,,,,,,,,,2,wg-a,,,,AAXX 28124 07020 02674 73121 10080 20020 30168 40185 51014 61000 70262 84230 91200 333 ////=
07020,1998-02-28 18:00:00,7,1018.3,0.6,61,0,24000,42.596,,,300,7.3,8.4,,,,,,,,,wg-a,,,,AAXX 28184 07020 32674 63023 10070 20000 30166 40183 53006 83450 91800 333 10084 20073=
07020,1998-03-01 00:00:00,6,1018.6,0.1,61,-1,0,29.632,,,300,,,,,,,,,,,wg-a,,,,AAXX 01004 07020 12/// /3016 10060 21010 30169 40186 53001 60006 90000=
07020,1998-03-01 06:00:00,7,1016.3,-1,81,4,16000,35.188,,,250,5.6,7.3,,,,,,,,,wg-a,,,,AAXX 01064 07020 12666 42519 10070 20040 30146 40163 56010 60006 84400 90600 333 10073 20056=
07020,1998-03-01 12:00:00,10,1017.5,0.8,76,6,40000,29.632,,72.228,270,,,,,,,,,,2,wg-a,,,,AAXX 01124 07020 12682 52716 10100 20060 30158 40175 53008 60006 70261 83230 91200 333 91039=
07020,1998-03-01 18:00:00,9,1017.1,0.2,87,7,18000,35.188,,,260,6.9,11.1,,,,,,,,2,wg-a,,,,AAXX 01184 07020 02668 52619 10090 20070 30154 40171 53002 61000 70282 83208 91800 333 10111 20069 ////=
07020,1998-03-02 00:00:00,9,1018.4,0.6,87,7,0,38.892,,,260,,,,,,,,,,,wg-a,,,,AAXX 02004 07020 12/// /2621 10090 20070 30167 40184 51006 60006 90000=
07020,1998-03-02 06:00:00,9,1018.1,0.2,87,7,500,25.928,,57.412,260,8.6,9.5,,,,,,,,,wg-a,,,,AAXX 02064 07020 32600 32614 10090 20070 30164 40181 51002 82230 90600 333 10095 20086 91031=
07020,1998-03-02 18:00:00,10,1015,-1.7,87,8,20000,31.484,,,210,8.8,10.7,,,,,,,,,wg-a,,,,AAXX 02184 07020 12870 82117 10100 20080 30133 40150 58017 60006 88020 91800 333 10107 20088=
07020,1998-03-03 00:00:00,10,1009.9,-2.1,93,9,0,57.412,,,210,,,,1,,,,,,,wg-a,,,,AAXX 03004 07020 02/// /2131 10100 20090 30082 40099 57021 60016 90000 333 60017=
07020,1998-03-03 06:00:00,11,1005.7,-1.7,100,11,15000,53.708,,83.34,220,9.7,11.2,,0,,,,,,,wg-a,,,,AAXX 03064 07020 12665 82229 10110 20110 30040 40057 56017 60007 887// 90600 333 10112 20097 91045=
07020,1998-03-03 12:00:00,12,1005.6,0.7,94,11,6000,53.708,,,230,,,,1,,,,,,60,wg-a,,,,AAXX 03124 07020 02556 82329 10120 20110 30039 40056 51007 60016 76062 8472/ 91200 333 60017=
07020,1998-03-03 18:00:00,11,1004.7,-0.7,100,11,6000,42.596,,,220,11.1,12.6,,8,,,,,,61,wg-a,,,,AAXX 03184 07020 12556 82223 10110 20110 30030 40047 57007 60087 76166 8472/ 91800 333 10126 20111=
07020,1998-03-04 00:00:00,12,1000.4,-3.3,82,9,0,50.004,,,220,,,,,,,,,,,wg-a,,,,AAXX 04004 07020 12/// /2227 10120 20090 39987 40004 58033 60016 90000=
07020,1998-03-04 06:00:00,11,997,-1,94,10,14000,38.892,,94.452,220,11,12.4,,0,,,,,,,wg-a,,,,AAXX 04064 07020 12564 52221 10110 20100 39953 49970 58010 60007 8277/ 90600 333 10124 20110 91051=
07020,1998-03-04 12:00:00,9,1003.1,3.7,87,7,22000,38.892,,72.228,300,,,,,,,,,,2,wg-a,,,,AAXX 04124 07020 02672 63021 10090 20070 30014 40031 51037 60036 70262 86500 91200 333 61000 91039=
07020,1998-03-04 18:00:00,8,1005.6,0.9,81,5,15000,50.004,,,260,8.1,11.4,,0,,,,,,63,wg-a,,,,AAXX 04184 07020 12565 82627 10080 20050 30039 40056 51009 60007 763// 887// 91800 333 10114 20081=
07020,1998-03-05 00:00:00,9,1008.9,3.3,71,4,0,53.708,,,280,,,,0,,,,,,,wg-a,,,,AAXX 05004 07020 02/// /2829 10090 20040 30072 40089 51033 60016 90000 333 60007=
07020,1998-03-05 06:00:00,8,1018.8,5,66,2,16000,61.116,,96.304,300,7.7,9.5,,,,,,,,,wg-a,,,,AAXX 05064 07020 02666 43033 10080 20020 30171 40188 53050 61000 84800 90600 333 10095 20077 //// 91052=
07020,1998-03-05 12:00:00,11,1024,1.8,66,5,20000,35.188,,79.636,260,,,,,,,,,,,wg-a,,,,AAXX 05124 07020 12670 32619 10110 20050 30223 40240 51018 60006 83200 91200 333 91043=
07020,1998-03-05 18:00:00,10,1022.2,-0.2,76,6,18000,50.004,,,260,8.3,11.8,,,,,,,,,wg-a,,,,AAXX 05184 07020 12668 82627 10100 20060 30205 40222 55002 60006 88700 91800 333 10118 20083=
07020,1998-03-06 00:00:00,9,1021.4,-1.3,87,7,0,42.596,,,240,,,,0,,,,,,,wg-a,,,,AAXX 06004 07020 02/// /2423 10090 20070 30197 40214 56013 60016 90000 333 60007=
07020,1998-03-06 06:00:00,9,1016.8,-1.9,100,9,6000,57.412,,75.932,240,8,10.1,,1,,,,,,62,wg-a,,,,AAXX 06064 07020 12456 82431 10090 20090 30151 40168 56019 60017 7626/ 8472/ 90600 333 10101 20080 91041=
07020,1998-03-06 12:00:00,11,1016.8,0.2,94,10,500,64.82,,87.044,250,,,,,,,,,,21,wg-a,,,,AAXX 06124 07020 02500 82535 10110 20100 30151 40168 51002 60016 72162 8472/ 91200 333 61000 91047=
07020,1998-03-06 18:00:00,11,1015.7,-0.3,87,9,500,53.708,,87.044,250,9.4,11,,,,,,,,,wg-a,,,,AAXX 06184 07020 32500 82529 10110 20090 30140 40157 58003 8472/ 91800 333 10110 20094 91047=
07020,1998-03-07 00:00:00,10,1011.7,-2.3,93,9,0,53.708,,,240,,,,,,,,,,,wg-a,,,,AAXX 07004 07020 12/// /2429 10100 20090 30100 40117 57023 60006 90000=
07020,1998-03-07 06:00:00,10,1009.1,-0.2,100,10,15000,46.3,,87.044,260,9.9,10.7,,2,,,,,,,wg-a,,,,AAXX 07064 07020 12565 42625 10100 20100 30074 40091 55002 60027 84700 90600 333 10107 20099 91047=
07020,1998-03-07 12:00:00,12,1009.9,0.5,88,10,12000,46.3,,83.34,260,,,,1,,,,,,,wg-a,,,,AAXX 07124 07020 02862 42625 10120 20100 30082 40099 50005 60016 84020 91200 333 60017 91045=
07020,1998-03-07 18:00:00,11,1009.5,-0,87,9,12000,50.004,,87.044,260,9.1,12.1,,,,,,,,2,wg-a,,,,AAXX 07184 07020 32562 52627 10110 20090 30078 40095 55000 70282 8272/ 91800 333 10121 20091 91047=
07020,1998-03-08 00:00:00,10,1010.4,0.8,87,8,0,38.892,,,280,,,,,,,,,,,wg-a,,,,AAXX 08004 07020 12/// /2821 10100 20080 30087 40104 51008 60006 90000=
07020,1998-03-08 06:00:00,10,1009.5,-0.9,87,8,20000,25.928,,64.82,270,9.5,10.5,,,,,,,,,wg-a,,,,AAXX 08064 07020 32570 62714 10100 20080 30078 40095 57009 83250 90600 333 10105 20095 91035=
07020,1998-03-08 12:00:00,11,1010.4,1.2,87,9,20000,18.52,,,320,,,,,,,,,,,wg-a,,,,AAXX 08124 07020 12870 63210 10110 20090 30087 40104 53012 60006 86050 91200=
07020,1998-03-08 18:00:00,10,1013.3,2.1,87,8,22000,22.224,,,350,8.8,11.8,,,,,,,,,wg-a,,,,AAXX 08184 07020 32872 73512 10100 20080 30116 40133 52021 87050 91800 333 10118 20088=
07020,1998-03-09 06:00:00,5,1022.6,1.8,48,-5,25000,46.3,,61.116,120,5.1,9.8,,,,,,,,,wg-a,,,,AAXX 09064 07020 32875 61225 10050 21050 30208 40226 51018 86050 90600 333 10098 20051 91033=
07020,1998-03-09 12:00:00,8,1029,2.4,42,-4,50000,25.928,,,110,,,,,,,,,,,wg-a,,,,AAXX 09124 07020 12884 31114 10080 21040 30273 40290 51024 60006 8305/ 91200=
07020,1998-03-09 18:00:00,6,1030.4,0.7,61,-1,45000,22.224,,,120,4.8,8.6,,,,,,,,,wg-a,,,,AAXX 09184 07020 12883 61212 10060 21010 30286 40304 53007 60006 86050 91800 333 10086 20048=
07020,1998-03-10 00:00:00,4,1031.1,0,60,-3,0,14.816,,,170,,,,,,,,,,,wg-a,,,,AAXX 10004 07020 12/// /1708 10040 21030 30293 40311 50000 60006 90000=
07020,1998-03-10 06:00:00,6,1028.6,-1.3,56,-2,24000,46.3,,,200,2.9,6.2,,,,,,,,,wg-a,,,,AAXX 10064 07020 12/74 32025 10060 21020 30268 40286 56013 60006 83040 90600 333 10062 20029=
07020,1998-03-10 12:00:00,7,1024.3,-3,66,1,18000,50.004,,72.228,200,,,,,,,,,,25,wg-a,,,,AAXX 10124 07020 02668 82027 10070 20010 30226 40243 58030 61000 72511 8457/ 91200 333 6100 91039=
07020,1998-03-10 18:00:00,7,1015.7,-3.8,93,6,6000,53.708,,83.34,200,5.4,7.8,,,,,,,,50,wg-a,,,,AAXX 10184 07020 02556 82029 10070 20060 30140 40157 57038 61000 75086 887// 91800 333 10078 20054 //// 91045=
07020,1998-03-11 00:00:00,10,1010.1,-2.1,93,9,0,29.632,,,270,,,,1,,,,,,,wg-a,,,,AAXX 11004 07020 02/// /2716 10100 20090 30084 40101 56021 60026 90000 333 60017=
07020,1998-03-11 06:00:00,9,1011,2,81,6,18000,64.82,,79.636,330,6.7,9.8,,,,,,,,,wg-a,,,,AAXX 11064 07020 02468 63335 10090 20060 30093 40110 53020 61000 86500 90600 333 10098 20067 //// 91043=
07020,1998-03-11 12:00:00,9,1017.4,2.7,76,5,20000,57.412,,,10,,,,,,,,,,,wg-a,,,,AAXX 11124 07020 02670 80131 10090 20050 30157 40174 53027 61000 885// 91200 333 6100=
07020,1998-03-11 18:00:00,9,1022,2.4,66,3,500,38.892,,,10,8.4,9.8,,,,,,,,,wg-a,,,,AAXX 11184 07020 32600 20121 10090 20030 30203 40220 53024 81108 91800 333 10098 20084=
07020,1998-03-12 00:00:00,8,1024.9,1.2,76,4,0,46.3,,,20,,,,,,,,,,,wg-a,,,,AAXX 12004 07020 12/// /0225 10080 20040 30232 40249 51012 60006 90000=
07020,1998-03-12 06:00:00,7,1027.4,1.8,81,4,16000,35.188,,90.748,40,6.6,9.3,,,,,,,,,wg-a,,,,AAXX 12064 07020 12666 60419 10070 20040 30257 40274 53018 60006 86200 90600 333 10093 20066 91049=
07020,1998-03-12 12:00:00,8,1029.9,0.3,71,3,20000,11.112,,,30,,,,,,,,,,,wg-a,,,,AAXX 12124 07020 12670 60306 10080 20030 30282 40299 51003 60006 85201 91200=
07020,1998-03-12 18:00:00,8,1029.6,-0,71,3,20000,11.112,,,280,6.5,8.6,,0,,,,,,,wg-a,,,,AAXX 12184 07020 12870 82806 10080 20030 30279 40296 55000 60007 8805/ 91800 333 10086 20065=
07020,1998-03-13 00:00:00,9,1028.3,-1,93,8,0,14.816,,,290,,,,,,,,,,,wg-a,,,,AAXX 13004 07020 12/// /2908 10090 20080 30266 40283 56010 60006 90000=
07020,1998-03-13 06:00:00,9,1027.7,0.4,100,9,20000,18.52,,,350,7.6,9.6,,0,,,,,,,wg-a,,,,AAXX 13064 07020 12570 83510 10090 20090 30260 40277 53004 60007 887// 90600 333 10096 20076=
07020,1998-03-13 12:00:00,10,1029.4,0.7,87,8,20000,18.52,,,360,,,,,,,,,,,wg-a,,,,AAXX 13124 07020 12670 83610 10100 20080 30277 40294 53007 60006 885// 91200=
07020,1998-03-13 18:00:00,10,1029.5,0.7,87,8,35000,18.52,,,330,9,10.5,,,,,,,,,wg-a,,,,AAXX 13184 07020 32681 83310 10100 20080 30278 40295 53007 885// 91800 333 10105 20090=
07020,1998-03-14 00:00:00,9,1031.2,0.6,87,7,0,22.224,,,40,,,,,,,,,,,wg-a,,,,AAXX 14004 07020 12/// /0412 10090 20070 30295 40312 51006 60006 90000=
07020,1998-03-14 06:00:00,9,1032.1,1,87,7,18000,22.224,,,30,9,9.6,,,,,,,,,wg-a,,,,AAXX 14064 07020 12768 80312 10090 20070 30304 40321 53010 60006 885// 90600 333 10096 20090=
07020,1998-03-14 12:00:00,11,1034.3,0.9,76,7,18000,11.112,,,30,,,,,,,,,,,wg-a,,,,AAXX 14124 07020 12668 40306 10110 20070 30326 40343 51009 60006 81105 91200=
07020,1998-03-14 18:00:00,10,1034.2,0.3,82,7,25000,11.112,,,320,8.9,11.9,,,,,,,,,wg-a,,,,AAXX 14184 07020 12/75 23206 10100 20070 30325 40342 53003 60006 80001 91800 333 10119 20089=
07020,1998-03-15 00:00:00,10,1035.1,0,82,7,0,7.408,,,300,,,,,,,,,,,wg-a,,,,AAXX 15004 07020 12/// /3004 10100 20070 30334 40351 50000 60006 90000=
07020,1998-03-15 06:00:00,9,1034.7,-0.4,87,7,18000,11.112,,,300,8.5,9.8,,,,,,,,,wg-a,,,,AAXX 15064 07020 12/68 63006 10090 20070 30330 40347 58004 60006 86030 90600 333 10098 20085=
07020,1998-03-15 12:00:00,10,1035.9,-0.2,87,8,16000,14.816,,,320,,,,,,,,,,,wg-a,,,,AAXX 15124 07020 12766 83208 10100 20080 30342 40359 58002 60006 885// 91200=
07020,1998-03-15 18:00:00,9,1034.9,-0.2,81,6,14000,11.112,,,340,8.7,10.9,,,,,,,,,wg-a,,,,AAXX 15184 07020 12864 83406 10090 20060 30332 40349 55002 60006 8801/ 91800 333 10109 20087=
07020,1998-03-16 00:00:00,10,1034.3,-0.9,87,8,0,14.816,,,310,,,,,,,,,,,wg-a,,,,AAXX 16004 07020 12/// /3108 10100 20080 30326 40343 56009 60006 90000=
07020,1998-03-16 06:00:00,9,1033.5,-0.2,76,5,14000,7.408,,,290,8.7,9.6,,,,,,,,,wg-a,,,,AAXX 16064 07020 12864 82904 10090 20050 30318 40335 55002 60006 8802/ 90600 333 10096 20087=
07020,1998-03-16 12:00:00,9,1033.6,-0.4,81,6,14000,18.52,,,300,,,,,,,,,,,wg-a,,,,AAXX 16124 07020 12864 83010 10090 20060 30319 40336 58004 60006 8802/ 91200=
07020,1998-03-16 18:00:00,9,1032.9,-0.2,81,6,12000,14.816,,,290,8.5,9.8,,,,,,,,,wg-a,,,,AAXX 16184 07020 12/62 02908 10090 20060 30312 40329 55002 60006 80000 91800 333 10098 20085=
07020,1998-03-17 00:00:00,9,1032.9,-0.2,87,7,0,18.52,,,310,,,,,,,,,,,wg-a,,,,AAXX 17004 07020 12/// /3110 10090 20070 30312 40329 58002 60006 90000=
07020,1998-03-17 06:00:00,9,1033.6,0.5,81,6,15000,14.816,,,310,8.2,9.1,,,,,,,,,wg-a,,,,AAXX 17064 07020 12865 83108 10090 20060 30319 40336 53005 60006 8802/ 90600 333 10091 20082=
07020,1998-03-17 12:00:00,11,1034.5,0.4,76,7,20000,14.816,,,280,,,,,,,,,,,wg-a,,,,AAXX 17124 07020 12870 82808 10110 20070 30328 40345 52004 60006 8802/ 91200=
07020,1998-03-17 18:00:00,10,1034.6,0.5,87,8,20000,18.52,,,300,8.7,11.5,,,,,,,,,wg-a,,,,AAXX 17184 07020 12870 83010 10100 20080 30329 40346 52005 60006 8802/ 91800 333 10115 20087=
07020,1998-03-18 00:00:00,10,1035.7,0.6,93,9,0,22.224,,,330,,,,,,,,,,,wg-a,,,,AAXX 18004 07020 12/// /3312 10100 20090 30340 40357 51006 60006 90000=
07020,1998-03-18 06:00:00,10,1036.9,1,82,7,20000,18.52,,,30,9.4,9.9,,,,,,,,,wg-a,,,,AAXX 18064 07020 12870 80310 10100 20070 30352 40369 53010 60006 8802/ 90600 333 10099 20094=
07020,1998-03-18 12:00:00,11,1039,0.8,82,8,18000,7.408,,,10,,,,,,,,,,,wg-a,,,,AAXX 18124 07020 12868 80104 10110 20080 30373 40390 51008 60006 8802/ 91200=
07020,1998-03-18 18:00:00,10,1038.9,0.2,82,7,25000,11.112,,,340,9.5,12.1,,,,,,,,,wg-a,,,,AAXX 18184 07020 12/75 33406 10100 20070 30372 40389 53002 60006 80005 91800 333 10121 20095=
07020,1998-03-19 00:00:00,8,1040.6,0.5,93,7,0,3.704,,,290,,,,,,,,,,,wg-a,,,,AAXX 19004 07020 12/// /2902 10080 20070 30388 40406 51005 60006 90000=
07020,1998-03-19 06:00:00,9,1041.6,1,81,6,18000,29.632,,,60,6.5,10.2,,,,,,,,,wg-a,,,,AAXX 19064 07020 12/68 40616 10090 20060 30398 40416 53010 60006 82035 90600 333 10102 20065=
07020,1998-03-19 12:00:00,11,1043,0.3,76,7,20000,22.224,,,60,,,,,,,,,,,wg-a,,,,AAXX 19124 07020 12/70 50612 10110 20070 30413 40430 51003 60006 83035 91200=
07020,1998-03-19 18:00:00,10,1041.9,-0.3,76,6,20000,18.52,,,50,8.7,11.5,,,,,,,,,wg-a,,,,AAXX 19184 07020 12/70 20510 10100 20060 30401 40419 56003 60006 80005 91800 333 10115 20087=
07020,1998-03-20 00:00:00,9,1041.7,-0.4,87,7,0,18.52,,,20,,,,,,,,,,,wg-a,,,,AAXX 20004 07020 12/// /0210 10090 20070 30399 40417 58004 60006 90000=
07020,1998-03-20 06:00:00,8,1040.6,-0.4,87,6,16000,22.224,,,50,8.3,9.8,,,,,,,,,wg-a,,,,AAXX 20064 07020 12/66 30512 10080 20060 30388 40406 58004 60006 83030 90600 333 10098 20083=
07020,1998-03-20 12:00:00,12,1040.7,-0.2,67,6,16000,11.112,,,60,,,,,,,,,,,wg-a,,,,AAXX 20124 07020 12/66 00606 10120 20060 30390 40407 58002 60006 80000 91200=
07020,1998-03-20 18:00:00,10,1038.2,-0.8,82,7,20000,14.816,,,40,8.3,12.8,,,,,,,,,wg-a,,,,AAXX 20184 07020 12870 70408 10100 20070 30365 40382 55008 60006 8707/ 91800 333 10128 20083=
07020,1998-03-21 00:00:00,8,1037.8,-0.4,93,7,0,3.704,,,30,,,,,,,,,,,wg-a,,,,AAXX 21004 07020 12/// /0302 10080 20070 30360 40378 58004 60006 90000=
07020,1998-03-21 06:00:00,9,1036.3,-0.1,93,8,10000,7.408,,,120,8.4,10.1,,,,,,,,,wg-a,,,,AAXX 21064 07020 12860 81204 10090 20080 30346 40363 55001 60006 8802/ 90600 333 10101 20084=
07020,1998-03-21 12:00:00,11,1036.8,-0.1,82,8,16000,18.52,,,70,,,,,,,,,,,wg-a,,,,AAXX 21124 07020 12866 80710 10110 20080 30351 40368 58001 60006 8802/ 91200=
07020,1998-03-21 18:00:00,10,1035.4,-0.4,76,6,20000,25.928,,,70,9.2,11.9,,,,,,,,,wg-a,,,,AAXX 21184 07020 12870 80714 10100 20060 30337 40354 55004 60006 8802/ 91800 333 10119 20092=
07020,1998-03-22 00:00:00,9,1035.6,0,87,7,0,25.928,,,80,,,,,,,,,,,wg-a,,,,AAXX 22004 07020 12/// /0814 10090 20070 30339 40356 50000 60006 90000=
07020,1998-03-22 06:00:00,9,1034.6,-0.3,81,6,16000,29.632,,,70,8.8,10,,,,,,,,,wg-a,,,,AAXX 22064 07020 12666 80716 10090 20060 30329 40346 55003 60006 888// 90600 333 10100 20088=
07020,1998-03-22 12:00:00,9,1035.6,0,76,5,20000,35.188,,,90,,,,,,,,,,,wg-a,,,,AAXX 22124 07020 12870 80919 10090 20050 30339 40356 50000 60006 8802/ 91200=
07020,1998-03-22 18:00:00,9,1034.3,-0.5,81,6,20000,31.484,,,100,8.5,10.5,,,,,,,,,wg-a,,,,AAXX 22184 07020 12670 21017 10090 20060 30326 40343 56005 60006 82200 91800 333 10105 20085=
07020,1998-03-23 00:00:00,8,1034.6,-0,87,6,0,18.52,,,100,,,,,,,,,,,wg-a,,,,AAXX 23004 07020 12/// /1010 10080 20060 30328 40346 54000 60006 90000=
07020,1998-03-23 06:00:00,8,1033.1,-0.6,87,6,20000,14.816,,,60,4.8,8.9,,,,,,,,,wg-a,,,,AAXX 23064 07020 12670 50608 10080 20060 30313 40331 56006 60006 85200 90600 333 10089 20048=
07020,1998-03-23 12:00:00,11,1032.7,-1.3,76,7,12000,11.112,,,50,,,,,,,,,,,wg-a,,,,AAXX 23124 07020 12662 /0506 10110 20070 30305 40327 58013 60006 888// 91200=
07020,1998-03-23 18:00:00,10,1030.5,-0.4,76,6,16000,22.224,,,310,7.5,11.8,,,,,,,,,wg-a,,,,AAXX 23184 07020 12766 33112 10100 20060 30288 40305 55004 60006 83200 91800 333 10118 20075=
07020,1998-03-24 00:00:00,9,1030.1,0,81,6,0,14.816,,,20,,,,,,,,,,,wg-a,,,,AAXX 24004 07020 12/// /0208 10090 20060 30284 40301 50000 60006 90000=
07020,1998-03-24 06:00:00,7,1030.5,0.6,81,4,16000,14.816,,,140,6.7,9.6,,,,,,,,,wg-a,,,,AAXX 24064 07020 12766 81408 10070 20040 30287 40305 53006 60006 885// 90600 333 10096 20067=
07020,1998-03-24 12:00:00,9,1032,-0.2,57,1,18000,14.816,,,190,,,,,,,,,,,wg-a,,,,AAXX 24124 07020 12868 61908 10090 20010 30303 40320 58002 60006 86020 91200=
07020,1998-03-24 18:00:00,8,1032.1,-0,76,4,8000,7.408,,,140,6.2,10.1,,,,,,,,,wg-a,,,,AAXX 24184 07020 12858 81404 10080 20040 30304 40321 55000 60006 8802/ 91800 333 10101 20062=
07020,1998-03-25 00:00:00,7,1031.5,-0.9,81,4,0,14.816,,,190,,,,,,,,,,,wg-a,,,,AAXX 25004 07020 12/// /1908 10070 20040 30297 40315 57009 60006 90000=
07020,1998-03-25 06:00:00,8,1029.5,-0.2,93,7,500,25.928,,,220,6,8.3,,,,,,,,51,wg-a,,,,AAXX 25064 07020 02400 82214 10080 20070 30278 40295 55002 61000 751// 886// 90600 333 10083 20060 ////=
07020,1998-03-25 12:00:00,8,1027.6,-1.2,93,7,4000,29.632,,,190,,,,0,,,,,,60,wg-a,,,,AAXX 25124 07020 02440 81916 10080 20070 30259 40276 58012 60036 76066 887// 91200 333 60007=
07020,1998-03-25 18:00:00,9,1023.9,-1.7,93,8,4000,31.484,,,210,7.7,8.9,,1,,,,,,60,wg-a,,,,AAXX 25184 07020 12440 82117 10090 20080 30222 40239 56017 60017 76062 887// 91800 333 10089 20077=
07020,1998-03-26 00:00:00,9,1021.3,-1.5,100,9,0,35.188,,,230,,,,,,,,,,,wg-a,,,,AAXX 26004 07020 12/// /2319 10090 20090 30196 40213 56015 60046 90000=
07020,1998-03-26 06:00:00,9,1019.1,-0.6,100,9,0,38.892,,,240,8.5,9.3,,,,,,,,,wg-a,,,,AAXX 26064 07020 32/// /2421 10090 20090 30174 40191 56006 90600 333 10093 20085=
07020,1998-03-26 12:00:00,10,1017.3,-1.1,93,9,6000,38.892,,,220,,,,1,,,,,,61,wg-a,,,,AAXX 26124 07020 02556 82221 10100 20090 30156 40173 58011 60026 76166 888// 91200 333 60017=
07020,1998-03-26 18:00:00,10,1015.7,-0.6,100,10,2000,42.596,,,240,9.2,9.9,,1,,,,,,61,wg-a,,,,AAXX 26184 07020 12520 82423 10100 20100 30140 40157 55006 60017 76166 888// 91800 333 10099 20092=
07020,1998-03-27 00:00:00,10,1016.2,0.2,100,10,0,29.632,,,250,,,,,,,,,,,wg-a,,,,AAXX 27004 07020 12/// /2516 10100 20100 30145 40162 50002 60016 90000=
07020,1998-03-27 06:00:00,10,1016.6,-0,100,10,500,31.484,,,240,9.9,10.2,,0,,,,,,50,wg-a,,,,AAXX 27064 07020 12405 82417 10100 20100 30149 40166 55000 60007 750// 888// 90600 333 10102 20099=
07020,1998-03-27 12:00:00,11,1018.5,-0.3,100,11,8000,22.224,,,230,,,,,,,,,,,wg-a,,,,AAXX 27124 07020 12658 62312 10110 20110 30168 40185 57003 60006 86800 91200=
07020,1998-03-27 18:00:00,11,1017,-0.8,87,9,8000,3.704,,,210,10,13,,,,,,,,,wg-a,,,,AAXX 27184 07020 32758 62102 10110 20090 30153 40170 56008 83805 91800 333 10130 20100=
07020,1998-03-28 00:00:00,12,1015.5,-0.5,88,10,0,29.632,,,200,,,,,,,,,,,wg-a,,,,AAXX 28004 07020 12/// /2016 10120 20100 30138 40155 58005 60006 90000=
07020,1998-03-28 06:00:00,12,1012.7,-2.5,88,10,500,42.596,,,180,9.9,11.8,,,,,,,,51,wg-a,,,,AAXX 28064 07020 02600 81823 10120 20100 30110 40127 56025 61000 751// 887// 90600 333 10118 20099 ////=
07020,1998-03-28 12:00:00,16,1011.6,-0.1,72,11,18000,22.224,,72.228,100,,,,,,,,,,1,wg-a,,,,AAXX 28124 07020 02/68 61012 10160 20110 30099 40116 58001 60016 70165 86070 91200 333 61000 91039=
07020,1998-03-28 18:00:00,12,1010.9,-1.2,88,10,15000,14.816,,,120,11.6,17.5,,,,,,,,2,wg-a,,,,AAXX 28184 07020 32/65 71208 10120 20100 30092 40109 56012 70262 8707/ 91800 333 10175 20116=
07020,1998-03-29 00:00:00,10,1009.2,-1.3,100,10,0,18.52,,,110,,,,,,,,,,,wg-a,,,,AAXX 29004 07020 12/// /1110 10100 20100 30075 40092 57013 60006 90000=
07020,1998-03-29 06:00:00,13,1005.9,-1.1,88,11,10000,7.408,,,150,10.2,13.7,,,,,,,,,wg-a,,,,AAXX 29064 07020 32660 81504 10130 20110 30042 40059 57011 885// 90600 333 10137 20102=
07020,1998-03-29 12:00:00,12,1004.6,-0.8,88,10,8000,18.52,,,80,,,,,,,,,,,wg-a,,,,AAXX 29124 07020 12658 80810 10120 20100 30029 40046 58008 60006 885// 91200=
07020,1998-03-29 18:00:00,15,1004.2,0.6,82,12,8000,31.484,,,180,11.3,16.8,,0,,,,,,20,wg-a,,,,AAXX 29184 07020 12658 81817 10150 20120 30025 40042 53006 60007 72065 885// 91800 333 10168 20113=
07020,1998-03-30 00:00:00,13,1006.4,1.2,94,12,0,42.596,,,190,,,,,,,,,,,wg-a,,,,AAXX 30004 07020 12/// /1923 10130 20120 30047 40064 51012 60016 90000=
07020,1998-03-30 18:00:00,10,1017.3,1.5,93,9,25000,18.52,,,240,10.3,12.2,,,,,,,,,wg-a,,,,AAXX 30184 07020 32875 52410 10100 20090 30156 40173 52015 85050 91800 333 10122 20103=
07020,1998-03-31 00:00:00,8,1018.7,0.5,100,8,0,11.112,,,250,,,,,,,,,,,wg-a,,,,AAXX 31004 07020 12/// /2506 10080 20080 30170 40187 52005 60006 90000=
07020,1998-03-31 06:00:00,7,1017.3,-0.8,93,6,16000,14.816,,,180,5,10.3,,,,,,,,,wg-a,,,,AAXX 31064 07020 12866 81808 10070 20060 30156 40173 56008 60006 8802/ 90600 333 10103 20050=
07020,1998-03-31 12:00:00,11,1015.3,-1.5,87,9,40000,18.52,,,90,,,,,,,,,,,wg-a,,,,AAXX 31124 07020 12882 50910 10110 20090 30136 40153 58015 60006 85030 91200=
07020,1998-03-31 18:00:00,10,1012.5,-0.8,93,9,40000,25.928,,,110,6.9,12.5,,,,,,,,,wg-a,,,,AAXX 31184 07020 12882 81114 10100 20090 30108 40125 58008 60006 88050 91800 333 10125 20069=
07020,1998-04-01 00:00:00,10,1011.1,-0.7,93,9,0,22.224,,,110,,,,,,,,,,,wg-a,,,,AAXX 01004 07020 12/// /1112 10100 20090 30094 40111 58007 60006 90000=
07020,1998-04-01 06:00:00,10,1010.3,0.6,100,10,500,22.224,,,220,9.7,12.3,,,,,,,,,wg-a,,,,AAXX 01064 07020 12500 82212 10100 20100 30086 40103 53006 60006 8472/ 90600 333 10123 20097=
07020,1998-04-01 12:00:00,15,1010.6,-0.4,82,12,8000,22.224,,,190,,,,,,,,,,,wg-a,,,,AAXX 01124 07020 12658 61912 10150 20120 30089 40106 58004 60006 86500 91200=
07020,1998-04-01 18:00:00,11,1008.7,-0.5,94,10,8000,14.816,,,200,10.3,15,,3,,,,,,25,wg-a,,,,AAXX 01184 07020 12558 72008 10110 20100 30070 40087 55005 60037 72582 8436/ 91800 333 10150 20103=
07020,1998-04-02 00:00:00,10,1008.1,-1.1,93,9,0,25.928,,,250,,,,,,,,,,,wg-a,,,,AAXX 02004 07020 12/// /2514 10100 20090 30064 40081 57011 60006 90000=
07020,1998-04-02 06:00:00,10,1003.8,-1.7,93,9,8000,11.112,,,110,8.9,11.2,,1,,,,,,61,wg-a,,,,AAXX 02064 07020 12558 81106 10100 20090 30021 40038 57017 60017 761// 887// 90600 333 10112 20089=
07020,1998-04-02 12:00:00,12,1000.4,-1.3,94,11,18000,25.928,,,210,,,,,,,,,,,wg-a,,,,AAXX 02124 07020 12/68 82114 10120 20110 39987 40004 57013 60026 885// 91200=
07020,1998-04-02 18:00:00,11,993.9,-3.9,87,9,8000,35.188,,61.116,190,9.5,12.8,,0,,,,,,61,wg-a,,,,AAXX 02184 07020 12758 81919 10110 20090 39922 49939 57039 60007 76162 887// 91800 333 10128 20095 91033=
07020,1998-04-03 00:00:00,10,989.4,-0.9,93,9,0,31.484,,,220,,,,2,,,,,,,wg-a,,,,AAXX 03004 07020 02/// /2217 10100 20090 39877 49894 56009 60036 90000 333 60027=
07020,1998-04-03 06:00:00,9,988,-0.3,87,7,18000,38.892,,79.636,220,8.8,11.7,,,,,,,,,wg-a,,,,AAXX 03064 07020 02668 42221 10090 20070 39863 49880 55003 61000 84800 90600 333 10117 20088 //// 91043=
07020,1998-04-03 12:00:00,13,987,-1.2,72,8,20000,57.412,,83.34,220,,,,,,,,,,,wg-a,,,,AAXX 03124 07020 12670 52231 10130 20080 39854 49870 57012 60006 83820 91200 333 91045=
07020,1998-04-03 18:00:00,11,984.9,-0.9,76,7,18000,53.708,,96.304,210,9.1,13.2,,,,,,,,,wg-a,,,,AAXX 03184 07020 32668 62129 10110 20070 39832 49849 58009 86800 91800 333 10132 20091 91052=
07020,1998-04-04 00:00:00,9,982.6,-1.2,93,8,0,53.708,,,200,,,,2,,,,,,,wg-a,,,,AAXX 04004 07020 02/// /2029 10090 20080 39809 49826 56012 60026 90000 333 60027=
07020,1998-04-04 06:00:00,10,983.8,2.3,87,8,14000,50.004,,83.34,240,9.3,10.7,,0,,,,,,,wg-a,,,,AAXX 04064 07020 12664 82427 10100 20080 39822 49838 53023 60007 887// 90600 333 10107 20093 91045=
07020,1998-04-04 12:00:00,12,989.6,2,82,9,6000,61.116,,83.34,240,,,,,,,,,,1,wg-a,,,,AAXX 04124 07020 12656 32433 10120 20090 39880 49896 51020 60006 70161 83200 91200 333 91045=
07020,1998-04-04 18:00:00,11,993,1.6,82,8,20000,46.3,,83.34,240,9.9,12.5,,,,,,,,,wg-a,,,,AAXX 04184 07020 32670 32425 10110 20080 39913 49930 53016 81230 91800 333 10125 20099 91045=
07020,1998-04-05 00:00:00,10,994.2,0.3,82,7,0,57.412,,,230,,,,,,,,,,,wg-a,,,,AAXX 05004 07020 12/// /2331 10100 20070 39925 49942 51003 60006 90000=
07020,1998-04-05 06:00:00,9,994.5,0.4,87,7,500,42.596,,,230,7.9,,,,,,,,,,wg-a,,,,AAXX 05064 07020 32600 32323 10090 20070 39928 49945 53004 81230 90600 333 20079=
07020,1998-04-05 12:00:00,12,997.7,1.7,82,9,25000,38.892,,68.524,240,,,,1,,,,,,3,wg-a,,,,AAXX 05124 07020 02675 62421 10120 20090 39960 49977 53017 60016 70361 86200 91200 333 60017 91037=
07020,1998-04-05 18:00:00,11,999.3,0.9,82,8,20000,42.596,,64.82,250,8.8,12.7,,,,,,,,,wg-a,,,,AAXX 05184 07020 32670 42523 10110 20080 39976 49993 53009 82201 91800 333 10127 20088 91035=
07020,1998-04-06 00:00:00,9,1000.5,0.2,93,8,0,50.004,,,250,,,,,,,,,,,wg-a,,,,AAXX 06004 07020 12/// /2527 10090 20080 39988 40005 53002 60006 90000=
07020,1998-04-06 06:00:00,9,1001.1,0.2,87,7,16000,31.484,,,250,7.8,10.6,,2,,,,,,,wg-a,,,,AAXX 06064 07020 12666 82517 10090 20070 39994 40011 52002 60027 88700 90600 333 10106 20078=
07020,1998-04-06 12:00:00,12,1002.5,0.4,76,8,500,35.188,,68.524,240,,,,0,,,,,,,wg-a,,,,AAXX 06124 07020 02600 52419 10120 20080 30008 40025 50004 60026 82250 91200 333 60007 91037=
07020,1998-04-06 18:00:00,10,1001.3,-0.3,87,8,500,22.224,,57.412,230,8.3,12.2,,,,,,,,,wg-a,,,,AAXX 06184 07020 32700 22312 10100 20080 39996 40013 56003 81450 91800 333 10122 20083 91031=
07020,1998-04-07 00:00:00,8,1000.4,-0.8,93,7,0,11.112,,,250,,,,,,,,,,,wg-a,,,,AAXX 07004 07020 12/// /2506 10080 20070 39987 40004 58008 60006 90000=
07020,1998-04-07 06:00:00,9,999.4,-0,87,7,25000,14.816,,,300,7.5,10.4,,,,,,,,,wg-a,,,,AAXX 07064 07020 32675 53008 10090 20070 39977 49994 55000 83240 90600 333 10104 20075=
07020,1998-04-07 12:00:00,12,1001.5,1,76,8,40000,18.52,,,300,,,,,,,,,,2,wg-a,,,,AAXX 07124 07020 02482 33010 10120 20080 39998 40015 51010 61000 70261 82302 91200 333 6100=
07020,1998-04-07 18:00:00,11,1003.6,1.2,76,7,40000,18.52,,,290,8.6,12,,,,,,,,,wg-a,,,,AAXX 07184 07020 32582 22910 10110 20070 30019 40036 53012 81202 91800 333 10120 20086=
07020,1998-04-08 00:00:00,9,1005.4,0.4,93,8,0,11.112,,,280,,,,,,,,,,,wg-a,,,,AAXX 08004 07020 12/// /2806 10090 20080 30037 40054 51004 60006 90000=
07020,1998-04-08 06:00:00,9,1005,-0.3,87,7,16000,11.112,,,300,8.7,10.8,,,,,,,,,wg-a,,,,AAXX 08064 07020 12666 73006 10090 20070 30033 40050 55003 60006 8557/ 90600 333 10108 20087=
07020,1998-04-08 12:00:00,13,1003.4,-1.3,77,9,20000,22.224,,,260,,,,,,,,,,,wg-a,,,,AAXX 08124 07020 12670 42612 10130 20090 30017 40034 58013 60006 82110 91200=
07020,1998-04-08 18:00:00,9,998,-2.8,87,7,500,25.928,,,220,8.9,13.2,,,,,,,,21,wg-a,,,,AAXX 08184 07020 02700 42214 10090 20070 39963 49980 57028 61000 72161 82850 91800 333 10132 20089 ////=
07020,1998-04-09 00:00:00,6,993.9,-2.1,93,5,0,11.112,,,190,,,,6,,,,,,,wg-a,,,,AAXX 09004 07020 02/// /1906 10060 20050 39922 49939 56021 60076 90000 333 60067=
07020,1998-04-09 06:00:00,5,990.7,-1,93,4,500,14.816,,,150,4.8,9.2,,1,,,,,,80,wg-a,,,,AAXX 09064 07020 12500 61508 10050 20040 39890 49907 56010 60017 780// 82950 90600 333 10092 20048=
07020,1998-04-09 12:00:00,9,991.7,0.8,76,5,40000,14.816,,,220,,,,,,,,,,,wg-a,,,,AAXX 09124 07020 12682 62208 10090 20050 39900 49917 52008 60036 83752 91200=
07020,1998-04-09 18:00:00,9,992.4,0.3,76,5,50000,22.224,,,80,4.4,11.3,,,,,,,,,wg-a,,,,AAXX 09184 07020 32684 60812 10090 20050 39907 49924 50003 84850 91800 333 10113 20044=
07020,1998-04-10 00:00:00,8,992.4,-0.8,81,5,0,29.632,,,30,,,,,,,,,,,wg-a,,,,AAXX 10004 07020 12/// /0316 10080 20050 39907 49924 57008 60016 90000=
07020,1998-04-10 06:00:00,7,991,-0.3,87,5,15000,42.596,,,30,5.7,8.7,,,,,,,,61,wg-a,,,,AAXX 10064 07020 02665 80323 10070 20050 39893 49910 56003 61000 761// 887// 90600 333 10087 20057 ////=
07020,1998-04-10 12:00:00,8,991.7,0.5,87,6,8000,38.892,,79.636,50,,,,6,,,,,,61,wg-a,,,,AAXX 10124 07020 02558 80521 10080 20060 39900 49917 53005 60086 76186 887// 91200 333 60067 91043=
07020,1998-04-10 18:00:00,7,993.6,1.1,93,6,8000,25.928,,,40,5.3,7.6,,15,,,,,,21,wg-a,,,,AAXX 10184 07020 12558 80414 10070 20060 39919 49936 51011 60157 72186 887// 91800 333 10076 20053=
07020,1998-04-11 00:00:00,8,995.5,0.8,87,6,0,42.596,,,40,,,,,,,,,,,wg-a,,,,AAXX 11004 07020 12/// /0423 10080 20060 39938 49955 51008 60066 90000=
07020,1998-04-11 06:00:00,7,997.6,1.4,87,5,12000,31.484,,,30,6.2,8.1,,,,,,,,,wg-a,,,,AAXX 11064 07020 32562 80317 10070 20050 39959 49976 53014 887// 90600 333 10081 20062=
07020,1998-04-11 12:00:00,7,1000.8,1.7,87,5,22000,35.188,,,30,,,,,,,,,,,wg-a,,,,AAXX 11124 07020 12672 80319 10070 20050 39991 40008 51017 60006 887// 91200=
07020,1998-04-11 18:00:00,7,1003.3,1.7,87,5,8000,57.412,,,40,6.6,7.9,,0,,,,,,25,wg-a,,,,AAXX 11184 07020 12558 80431 10070 20050 30016 40033 53017 60007 72585 887// 91800 333 10079 20066=
07020,1998-04-12 00:00:00,7,1007.1,1.5,76,3,0,42.596,,,40,,,,,,,,,,,wg-a,,,,AAXX 12004 07020 12/// /0423 10070 20030 30054 40071 51015 60016 90000=
07020,1998-04-12 06:00:00,6,1008.2,0.4,70,1,20000,29.632,,,10,5.5,7.9,,,,,,,,,wg-a,,,,AAXX 12064 07020 32670 50116 10060 20010 30065 40082 53004 85200 90600 333 10079 20055=
07020,1998-04-12 12:00:00,8,1010.1,0.6,53,-1,25000,14.816,,,40,,,,,,,,,,,wg-a,,,,AAXX 12124 07020 12575 40408 10080 21010 30084 40101 51006 60006 84202 91200=
07020,1998-04-12 18:00:00,8,1010,-0,61,1,25000,22.224,,,320,5.6,9.1,,,,,,,,,wg-a,,,,AAXX 12184 07020 12575 43212 10080 20010 30083 40100 55000 60006 83202 91800 333 10091 20056=
07020,1998-04-13 00:00:00,6,1010.9,0.3,65,0,0,25.928,,,20,,,,0,,,,,,,wg-a,,,,AAXX 13004 07020 02/// /0214 10060 20000 30092 40109 50003 60006 90000 333 60007=
07020,1998-04-13 06:00:00,5,1010.8,0.2,70,0,25000,14.816,,,310,4.5,7.7,,,,,,,,,wg-a,,,,AAXX 13064 07020 32575 63108 10050 20000 30091 40108 53002 86200 90600 333 10077 20045=
07020,1998-04-13 12:00:00,8,1011.6,0,61,1,45000,18.52,,,330,,,,,,,,,,,wg-a,,,,AAXX 13124 07020 12683 53310 10080 20010 30099 40116 50000 60006 85200 91200=
07020,1998-04-13 18:00:00,7,1008.6,-1.5,66,1,45000,25.928,,,280,5.1,8.9,,,,,,,,,wg-a,,,,AAXX 13184 07020 12683 62814 10070 20010 30069 40086 57015 60006 83250 91800 333 10089 20051=
07020,1998-04-14 00:00:00,3,1006.1,-1.7,87,1,0,14.816,,,200,,,,1,,,,,,,wg-a,,,,AAXX 14004 07020 02/// /2008 10030 20010 30044 40061 57017 60016 90000 333 60017=
07020,1998-04-14 06:00:00,6,1003.5,-1,70,1,40000,31.484,,,280,2.3,6.7,,0,,,,,,,wg-a,,,,AAXX 14064 07020 12682 72817 10060 20010 30018 40035 55010 60007 85230 90600 333 10067 20023=
07020,1998-04-14 12:00:00,9,1002.6,-0.6,61,2,55000,25.928,,,220,,,,,,,,,,,wg-a,,,,AAXX 14124 07020 12685 82214 10090 20020 30009 40026 57006 60016 858// 91200=
07020,1998-04-14 18:00:00,7,999.3,-2,70,2,25000,14.816,,,220,3.2,9.2,,,,,,,,21,wg-a,,,,AAXX 14184 07020 02/75 82208 10070 20020 39976 49993 56020 61000 72162 8802/ 91800 333 10092 20032 ////=
07020,1998-04-15 00:00:00,5,996,-2.3,93,4,0,18.52,,,30,,,,,,,,,,,wg-a,,,,AAXX 15004 07020 12/// /0310 10050 20040 39943 49960 56023 60096 90000=
07020,1998-04-15 06:00:00,6,993.3,-0.2,75,2,45000,35.188,,64.82,310,3.1,7,,,,,,,,,wg-a,,,,AAXX 15064 07020 32683 63119 10060 20020 39916 49933 55002 86500 90600 333 10070 20031 91035=
07020,1998-04-15 12:00:00,6,993.7,0.7,75,2,22000,50.004,,,320,,,,0,,,,,,26,wg-a,,,,AAXX 15124 07020 02572 73227 10060 20020 39920 49937 53007 60016 72687 877// 91200 333 60007=
07020,1998-04-15 18:00:00,9,995.6,1.5,61,2,35000,53.708,,,310,4.2,9.1,,,,,,,,2,wg-a,,,,AAXX 15184 07020 32581 53129 10090 20020 39939 49956 52015 70287 85200 91800 333 10091 20042=
07020,1998-04-16 06:00:00,7,993.7,-2.5,70,2,25000,35.188,,57.412,220,6.3,9.1,,,,,,,,,wg-a,,,,AAXX 16064 07020 32575 82219 10070 20020 39920 49937 56025 887// 90600 333 10091 20063 91031=
07020,1998-04-16 12:00:00,7,986.5,-4.7,87,5,12000,29.632,,,130,,,,1,,,,,,61,wg-a,,,,AAXX 16124 07020 02562 81316 10070 20050 39848 49865 58047 60016 76162 887// 91200 333 60017=
07020,1998-04-16 18:00:00,8,980.8,-1.2,93,7,8000,22.224,,,110,5.3,7.8,,0,,,,,,21,wg-a,,,,AAXX 16184 07020 12558 81112 10080 20070 39791 49808 56012 60007 72162 887// 91800 333 10078 20053=
07020,1998-04-17 00:00:00,7,984.7,2.5,87,5,0,68.524,,,30,,,,5,,,,,,,wg-a,,,,AAXX 17004 07020 02/// /0337 10070 20050 39830 49847 53025 60156 90000 333 60057=
07020,1998-04-17 06:00:00,7,990.7,3.1,81,4,8000,57.412,,94.452,20,5.9,8.3,,0,,,,,,,wg-a,,,,AAXX 17064 07020 12558 80231 10070 20040 39890 49907 51031 60007 887// 90600 333 10083 20059 91051=
07020,1998-04-17 12:00:00,8,997.1,3.5,81,5,10000,53.708,,,10,,,,,,,,,,21,wg-a,,,,AAXX 17124 07020 02660 80129 10080 20050 39954 49971 51035 61000 72182 887// 91200 333 6100=
07020,1998-04-17 18:00:00,10,1001.6,2,57,2,500,42.596,,,350,6.8,10.8,,,,,,,,,wg-a,,,,AAXX 17184 07020 32700 33523 10100 20020 39999 40016 53020 83200 91800 333 10108 20068=
07020,1998-04-18 06:00:00,8,1005.9,0.7,76,4,25000,31.484,,,330,7.6,10.3,,,,,,,,,wg-a,,,,AAXX 18064 07020 12675 23317 10080 20040 30042 40059 53007 60006 82200 90600 333 10103 20076=
07020,1998-04-18 12:00:00,10,1007.2,0.3,71,5,500,29.632,,,300,,,,,,,,,,,wg-a,,,,AAXX 18124 07020 12/00 43016 10100 20050 30055 40072 52003 60006 80005 91200=
07020,1998-04-18 18:00:00,10,1007.3,-0,76,6,35000,22.224,,,290,7.7,11.3,,,,,,,,,wg-a,,,,AAXX 18184 07020 12/81 42912 10100 20060 30056 40073 54000 60006 80005 91800 333 10113 20077=
07020,1998-04-19 00:00:00,9,1008.2,0.2,81,6,0,18.52,,,270,,,,,,,,,,,wg-a,,,,AAXX 19004 07020 12/// /2710 10090 20060 30065 40082 51002 60006 90000=
07020,1998-04-19 06:00:00,8,1006.8,-0.6,87,6,20000,18.52,,,190,7.8,10.2,,,,,,,,,wg-a,,,,AAXX 19064 07020 12870 81910 10080 20060 30051 40068 55006 60006 8807/ 90600 333 10102 20078=
07020,1998-04-19 12:00:00,10,1005.6,-0.9,93,9,10000,46.3,,,190,,,,,,,,,,60,wg-a,,,,AAXX 19124 07020 02560 81925 10100 20090 30039 40056 58009 61000 76062 887// 91200 333 6100=
07020,1998-04-19 18:00:00,11,1004.6,-0.2,94,10,10000,29.632,,64.82,200,8.1,11.8,,4,,,,,,2,wg-a,,,,AAXX 19184 07020 12560 82016 10110 20100 30029 40046 55002 60047 70262 8472/ 91800 333 10118 20081 91035=
07020,1998-04-20 00:00:00,10,1006.8,1,93,9,0,25.928,,,260,,,,,,,,,,,wg-a,,,,AAXX 20004 07020 12/// /2614 10100 20090 30051 40068 52010 60016 90000=
07020,1998-04-20 06:00:00,10,1008.4,1.3,93,9,25000,25.928,,,270,9.5,11.1,,,,,,,,,wg-a,,,,AAXX 20064 07020 32/75 72714 10100 20090 30067 40084 53013 8/05/ 90600 333 10111 20095=
07020,1998-04-20 12:00:00,11,1011.7,1.5,82,8,500,31.484,,,260,,,,,,,,,,2,wg-a,,,,AAXX 20124 07020 12800 72617 10110 20080 30100 40117 51015 60016 70262 87020 91200=
07020,1998-04-20 18:00:00,11,1013.4,0.9,87,9,500,22.224,,,260,8.5,13.3,,,,,,,,,wg-a,,,,AAXX 20184 07020 32600 62612 10110 20090 30117 40134 51009 82105 91800 333 10133 20085=
07020,1998-04-21 00:00:00,9,1014.6,-0.2,93,8,0,18.52,,,210,,,,,,,,,,,wg-a,,,,AAXX 21004 07020 12/// /2110 10090 20080 30129 40146 58002 60006 90000=
07020,1998-04-21 06:00:00,9,1014.6,0.1,93,8,40000,18.52,,,180,8.8,10.7,,,,,,,,,wg-a,,,,AAXX 21064 07020 12/82 81810 10090 20080 30129 40146 53001 60006 8802/ 90600 333 10107 20088=
07020,1998-04-21 12:00:00,13,1014.3,-0.3,82,10,18000,31.484,,,190,,,,,,,,,,,wg-a,,,,AAXX 21124 07020 12668 81917 10130 20100 30126 40143 58003 60006 81207 91200=
07020,1998-04-21 18:00:00,14,1012.1,-1,67,8,20000,18.52,,,160,9.2,14.5,,,,,,,,,wg-a,,,,AAXX 21184 07020 12670 81610 10140 20080 30104 40121 56010 60006 81207 91800 333 10145 20092=
07020,1998-04-22 00:00:00,13,1011.2,0.1,77,9,0,25.928,,,190,,,,,,,,,,,wg-a,,,,AAXX 22004 07020 12/// /1914 10130 20090 30095 40112 53001 60006 90000=
07020,1998-04-22 06:00:00,12,1010.1,-0.3,76,8,16000,14.816,,,200,11.3,14.8,,,,,,,,,wg-a,,,,AAXX 22064 07020 12866 82008 10120 20080 30084 40101 55003 60006 8807/ 90600 333 10148 20113=
07020,1998-04-22 12:00:00,12,1008.4,-1,88,10,16000,11.112,,,70,,,,0,,,,,,2,wg-a,,,,AAXX 22124 07020 02866 80706 10120 20100 30067 40084 58010 60006 70262 8702/ 91200 333 60007=
07020,1998-04-22 18:00:00,11,1008.9,1,94,10,10000,11.112,,,250,11.2,15.2,,,,,,,,2,wg-a,,,,AAXX 22184 07020 32/60 82506 10110 20100 30072 40089 53010 70262 8/020 91800 333 10152 20112=
07020,1998-04-23 00:00:00,11,1011,0.4,94,10,0,18.52,,,210,,,,,,,,,,,wg-a,,,,AAXX 23004 07020 12/// /2110 10110 20100 30093 40110 52004 60016 90000=
07020,1998-04-23 06:00:00,10,1010.2,-0.5,93,9,15000,25.928,,,200,9.8,11.3,,,,,,,,,wg-a,,,,AAXX 23064 07020 32/65 32014 10100 20090 30085 40102 58005 80005 90600 333 10113 20098=
07020,1998-04-23 12:00:00,11,1006.3,-2.4,94,10,6000,57.412,,90.748,200,,,,5,,,,,,61,wg-a,,,,AAXX 23124 07020 02556 82031 10110 20100 30046 40063 56024 60056 76162 887// 91200 333 60057 91049=
07020,1998-04-23 18:00:00,11,1010.3,2.4,87,9,15000,50.004,,,260,10,12.8,,,,,,,,2,wg-a,,,,AAXX 23184 07020 02565 82627 10110 20090 30086 40103 53024 61000 70265 887// 91800 333 10128 20100 ////=
07020,1998-04-24 00:00:00,10,1015.4,1.9,93,9,0,35.188,,,270,,,,,,,,,,,wg-a,,,,AAXX 24004 07020 12/// /2719 10100 20090 30137 40154 51019 60006 90000=
07020,1998-04-24 06:00:00,10,1016.5,0.5,93,9,16000,35.188,,,220,9.9,11,,,,,,,,,wg-a,,,,AAXX 24064 07020 12666 82219 10100 20090 30148 40165 52005 60006 8557/ 90600 333 10110 20099=
07020,1998-04-24 12:00:00,12,1016.9,0.2,94,11,500,31.484,,64.82,230,,,,1,,,,,,61,wg-a,,,,AAXX 24124 07020 02500 82317 10120 20110 30152 40169 53002 60016 76162 887// 91200 333 60017 91035=
07020,1998-04-24 18:00:00,11,1016.8,0.1,94,10,8000,35.188,,,250,10.1,12.5,,,,,,,,1,wg-a,,,,AAXX 24184 07020 32/58 52519 10110 20100 30151 40168 50001 70162 80005 91800 333 10125 20101=
07020,1998-04-25 00:00:00,11,1014.8,-1.9,94,10,0,29.632,,,210,,,,,,,,,,,wg-a,,,,AAXX 25004 07020 12/// /2116 10110 20100 30131 40148 58019 60016 90000=
07020,1998-04-25 06:00:00,12,1010.2,-2.7,94,11,6000,46.3,,,200,10.4,11.8,,0,,,,,,,wg-a,,,,AAXX 25064 07020 12556 82025 10120 20110 30085 40102 56027 60007 887// 90600 333 10118 20104=
07020,1998-04-25 12:00:00,13,1011.4,-0.2,88,11,18000,22.224,,,260,,,,,,,,,,1,wg-a,,,,AAXX 25124 07020 12668 42612 10130 20110 30097 40114 58002 60016 70161 83105 91200=
07020,1998-04-25 18:00:00,11,1010.4,-0.7,87,9,18000,25.928,,,240,10.2,13.9,,,,,,,,,wg-a,,,,AAXX 25184 07020 32668 22414 10110 20090 30087 40104 58007 82100 91800 333 10139 20102=
07020,1998-04-26 00:00:00,10,1009.4,-0.9,93,9,0,22.224,,,220,,,,,,,,,,,wg-a,,,,AAXX 26004 07020 12/// /2212 10100 20090 30077 40094 56009 60006 90000=
07020,1998-04-26 06:00:00,10,1006.2,-1.3,93,9,18000,31.484,,,210,9.1,11.1,,,,,,,,,wg-a,,,,AAXX 26064 07020 12668 52117 10100 20090 30045 40062 56013 60006 82535 90600 333 10111 20091=
07020,1998-04-26 12:00:00,13,1005.5,-0.2,82,10,20000,31.484,,,240,,,,,,,,,,,wg-a,,,,AAXX 26124 07020 12670 42417 10130 20100 30038 40055 58002 60006 82105 91200=
07020,1998-04-26 18:00:00,12,1004.7,-0.4,82,9,20000,22.224,,,250,9.6,14.1,,,,,,,,,wg-a,,,,AAXX 26184 07020 12670 32512 10120 20090 30030 40047 58004 60006 81105 91800 333 10141 20096=
07020,1998-04-27 00:00:00,9,1004.3,-0.5,93,8,0,22.224,,,230,,,,,,,,,,,wg-a,,,,AAXX 27004 07020 12/// /2312 10090 20080 30026 40043 58005 60006 90000=
07020,1998-04-27 06:00:00,10,1003.4,-0.3,87,8,22000,22.224,,,240,8.9,11.6,,,,,,,,,wg-a,,,,AAXX 27064 07020 32672 62412 10100 20080 30017 40034 55003 86800 90600 333 10116 20089=
07020,1998-04-27 12:00:00,13,1004.6,0.6,77,9,45000,18.52,,,260,,,,,,,,,,,wg-a,,,,AAXX 27124 07020 12683 42610 10130 20090 30029 40046 50006 60006 83201 91200=
07020,1998-04-27 18:00:00,12,1005.1,0.5,76,8,45000,22.224,,,250,9.5,14,,,,,,,,,wg-a,,,,AAXX 27184 07020 12683 32512 10120 20080 30034 40051 53005 60006 83200 91800 333 10140 20095=
07020,1998-04-28 00:00:00,10,1005.3,-0.5,87,8,0,22.224,,,260,,,,,,,,,,,wg-a,,,,AAXX 28004 07020 12/// /2612 10100 20080 30036 40053 56005 60006 90000=
07020,1998-04-28 06:00:00,9,1005.3,0.3,93,8,40000,18.52,,,230,8.4,11.7,,0,,,,,,,wg-a,,,,AAXX 28064 07020 12682 32310 10090 20080 30036 40053 53003 60007 83200 90600 333 10117 20084=
07020,1998-04-28 12:00:00,13,1005.3,-0.2,77,9,40000,25.928,,,220,,,,,,,,,,,wg-a,,,,AAXX 28124 07020 12782 32214 10130 20090 30036 40053 58002 60006 83200 91200=
07020,1998-04-28 18:00:00,11,1003.1,-1,82,8,40000,22.224,,,120,9.1,14.1,,,,,,,,,wg-a,,,,AAXX 28184 07020 12682 51212 10110 20080 30014 40031 56010 60006 83201 91800 333 10141 20091=
07020,1998-04-29 00:00:00,9,1000,-2,81,6,0,14.816,,,150,,,,,,,,,,,wg-a,,,,AAXX 29004 07020 12/// /1508 10090 20060 39983 40000 57020 60006 90000=
07020,1998-04-29 06:00:00,9,996.9,-1.1,93,8,12000,31.484,,,120,8.9,11.4,,1,,,,,,61,wg-a,,,,AAXX 29064 07020 12562 81217 10090 20080 39952 49969 56011 60017 761// 887// 90600 333 10114 20089=
07020,1998-04-29 12:00:00,11,998.6,0.8,87,9,22000,38.892,,,100,,,,,,,,,,2,wg-a,,,,AAXX 29124 07020 12572 81021 10110 20090 39969 49986 53008 60006 70262 887// 91200=
07020,1998-04-29 18:00:00,11,1001.6,1.4,94,10,15000,29.632,,,100,9.4,11.2,,1,,,,,,21,wg-a,,,,AAXX 29184 07020 12665 81016 10110 20100 39999 40016 52014 60017 72166 887// 91800 333 10112 20094=
07020,1998-04-30 00:00:00,11,1004.8,1.2,87,9,0,29.632,,,70,,,,,,,,,,,wg-a,,,,AAXX 30004 07020 12/// /0716 10110 20090 30031 40048 51012 60006 90000=
07020,1998-04-30 06:00:00,11,1006.1,0.5,94,10,4000,35.188,,,70,10.2,10.9,,,,,,,,10,wg-a,,,,AAXX 30064 07020 12540 80719 10110 20100 30044 40061 51005 60006 710// 8472/ 90600 333 10109 20102=
07020,1998-04-30 12:00:00,11,1010.9,2.6,87,9,12000,42.596,,,70,,,,,,,,,,2,wg-a,,,,AAXX 30124 07020 12662 80723 10110 20090 30092 40109 53026 60006 70266 887// 91200=
07020,1998-04-30 18:00:00,11,1013.8,1.5,82,8,12000,38.892,,,80,10.8,12.1,,,,,,,,,wg-a,,,,AAXX 30184 07020 12862 70821 10110 20080 30121 40138 53015 60006 8702/ 91800 333 10121 20108=
07020,1998-05-01 00:00:00,10,1017.4,1.1,87,8,0,42.596,,,60,,,,,,,,,,,wg-a,,,,AAXX 01004 07020 12/// /0623 10100 20080 30157 40174 51011 60006 90000=
07020,1998-05-01 06:00:00,10,1017.8,0.4,82,7,18000,46.3,,,50,9.4,11.1,,,,,,,,,wg-a,,,,AAXX 01064 07020 12868 80525 10100 20070 30161 40178 52004 60006 8807/ 90600 333 10111 20094=
07020,1998-05-01 12:00:00,10,1017.9,-0.3,82,7,12000,35.188,,,30,,,,,,,,,,,wg-a,,,,AAXX 01124 07020 12862 80319 10100 20070 30162 40179 58003 60006 8807/ 91200=
07020,1998-05-01 18:00:00,10,1016.7,-0.7,87,8,12000,22.224,,,40,9.2,10.3,,,,,,,,,wg-a,,,,AAXX 01184 07020 12862 80412 10100 20080 30150 40167 56007 60006 8802/ 91800 333 10103 20092=
07020,1998-05-02 00:00:00,10,1016.3,-0.4,87,8,0,22.224,,,40,,,,,,,,,,,wg-a,,,,AAXX 02004 07020 12/// /0412 10100 20080 30146 40163 55004 60006 90000=
07020,1998-05-02 06:00:00,9,1016.1,0.7,93,8,10000,29.632,,,50,8.9,10.8,,,,,,,,,wg-a,,,,AAXX 02064 07020 32560 80516 10090 20080 30144 40161 53007 886// 90600 333 10108 20089=
07020,1998-05-02 12:00:00,10,1017.8,0.6,87,8,8000,29.632,,,50,,,,0,,,,,,20,wg-a,,,,AAXX 02124 07020 02558 80516 10100 20080 30161 40178 52006 60016 72052 8472/ 91200 333 60007=
07020,1998-05-02 18:00:00,12,1017.4,-0.3,76,8,8000,11.112,,,110,8.9,12.3,,,,,,,,,wg-a,,,,AAXX 02184 07020 32858 61106 10120 20080 30157 40174 57003 8607/ 91800 333 10123 20089=
07020,1998-05-03 06:00:00,10,1018.7,-0,82,7,20000,42.596,,,50,9.5,12.3,,,,,,,,,wg-a,,,,AAXX 03064 07020 12670 80523 10100 20070 30170 40187 55000 60006 8357/ 90600 333 10123 20095=
07020,1998-05-03 12:00:00,11,1019.9,1.2,76,7,20000,42.596,,,60,,,,,,,,,,21,wg-a,,,,AAXX 03124 07020 02670 70623 10110 20070 30182 40199 51012 61000 72166 872// 91200 333 6100=
07020,1998-05-03 18:00:00,11,1020.1,0.5,76,7,20000,25.928,,90.748,60,9.5,11.6,,,,,,,,,wg-a,,,,AAXX 03184 07020 32670 80614 10110 20070 30184 40201 53005 882// 91800 333 10116 20095 91049=
07020,1998-05-04 00:00:00,10,1020.7,-0.1,76,6,0,31.484,,,70,,,,,,,,,,,wg-a,,,,AAXX 04004 07020 12/// /0717 10100 20060 30190 40207 58001 60006 90000=
07020,1998-05-04 06:00:00,8,1020.4,-0.1,87,6,18000,22.224,,,50,8,10.7,,,,,,,,,wg-a,,,,AAXX 04064 07020 12668 10512 10080 20060 30187 40204 56001 60006 81100 90600 333 10107 20080=
07020,1998-05-04 12:00:00,13,1020,-0.5,67,7,18000,14.816,,,310,,,,,,,,,,,wg-a,,,,AAXX 04124 07020 12/68 33108 10130 20070 30183 40200 58005 60006 80005 91200=
07020,1998-05-04 18:00:00,12,1018.6,-0.6,76,8,15000,14.816,,,270,8,13.2,,,,,,,,,wg-a,,,,AAXX 04184 07020 12/65 12708 10120 20080 30169 40186 56006 60006 80001 91800 333 10132 20080=
07020,1998-05-05 00:00:00,11,1018.2,-0.4,94,10,0,18.52,,,300,,,,,,,,,,,wg-a,,,,AAXX 05004 07020 12/// /3010 10110 20100 30165 40182 56004 60006 90000=
07020,1998-05-05 06:00:00,10,1016.3,-0.7,93,9,12000,29.632,,,300,10,11.9,,,,,,,,,wg-a,,,,AAXX 05064 07020 12/62 33016 10100 20090 30146 40163 55007 60006 82035 90600 333 10119 20100=
07020,1998-05-05 12:00:00,12,1015.4,-1.1,82,9,18000,38.892,,,260,,,,,,,,,,,wg-a,,,,AAXX 05124 07020 12668 72621 10120 20090 30137 40154 58011 60006 8257/ 91200=
07020,1998-05-05 18:00:00,11,1012.2,-1.9,87,9,14000,38.892,,61.116,260,10.3,13.6,,,,,,,,,wg-a,,,,AAXX 05184 07020 12564 82621 10110 20090 30105 40122 58019 60006 887// 91800 333 10136 20103 91033=
07020,1998-05-06 00:00:00,11,1010.4,-1.2,87,9,0,42.596,,,260,,,,,,,,,,,wg-a,,,,AAXX 06004 07020 12/// /2623 10110 20090 30087 40104 57012 60006 90000=
07020,1998-05-06 06:00:00,11,1008.8,-0.3,94,10,14000,42.596,,,260,10.7,11.1,,0,,,,,,,wg-a,,,,AAXX 06064 07020 12664 82623 10110 20100 30071 40088 56003 60007 887// 90600 333 10111 20107=
07020,1998-05-06 12:00:00,12,1010.3,0.9,94,11,10000,42.596,,,260,,,,,,,,,,50,wg-a,,,,AAXX 06124 07020 02560 82623 10120 20110 30086 40103 52009 61000 75052 8472/ 91200 333 6100=
07020,1998-05-06 18:00:00,11,1011.5,0.3,94,10,6000,46.3,,,250,11,13,,,,,,,,50,wg-a,,,,AAXX 06184 07020 02556 82525 10110 20100 30098 40115 53003 61000 75052 8472/ 91800 333 10130 20110 ////=
07020,1998-05-07 00:00:00,11,1013.1,0.3,87,9,0,35.188,,,230,,,,,,,,,,,wg-a,,,,AAXX 07004 07020 02/// /2319 10110 20090 30114 40131 50003 61000 90000 333 ////=
07020,1998-05-07 06:00:00,11,1013.5,0.5,94,10,20000,31.484,,,210,10.9,11.4,,,,,,,,,wg-a,,,,AAXX 07064 07020 02770 72117 10110 20100 30118 40135 53005 61000 875// 90600 333 10114 20109 ////=
07020,1998-05-07 12:00:00,13,1016,1.3,88,11,18000,29.632,,,220,,,,,,,,,,2,wg-a,,,,AAXX 07124 07020 02768 82216 10130 20110 30143 40160 53013 61000 70252 885// 91200 333 6100=
07020,1998-05-07 18:00:00,14,1016.4,0.3,72,9,20000,14.816,,,220,11.3,15.2,,,,,,,,,wg-a,,,,AAXX 07184 07020 32/70 32208 10140 20090 30147 40164 51003 83040 91800 333 10152 20113=
07020,1998-05-08 00:00:00,10,1017.8,0.2,87,8,0,11.112,,,110,,,,,,,,,,,wg-a,,,,AAXX 08004 07020 12/// /1106 10100 20080 30161 40178 50002 60006 90000=
07020,1998-05-08 06:00:00,12,1016.1,-0.4,82,9,18000,3.704,,,130,8.6,13.7,,,,,,,,,wg-a,,,,AAXX 08064 07020 12668 61302 10120 20090 30144 40161 55004 60006 83550 90600 333 10137 20086=
07020,1998-05-08 12:00:00,21,1016.4,0.4,53,11,15000,22.224,,,160,,,,,,,,,,,wg-a,,,,AAXX 08124 07020 12665 61612 10210 20110 30148 40164 53004 60006 81155 91200=
07020,1998-05-08 18:00:00,20,1015.1,-0.8,64,13,15000,29.632,,,190,11.7,21.3,,,,,,,,,wg-a,,,,AAXX 08184 07020 12/65 71916 10200 20130 30135 40151 56008 60006 84058 91800 333 10213 20117=
07020,1998-05-09 00:00:00,14,1015.4,-0.5,82,11,0,14.816,,,220,,,,,,,,,,,wg-a,,,,AAXX 09004 07020 12/// /2208 10140 20110 30137 40154 56005 60006 90000=
07020,1998-05-09 06:00:00,12,1018.2,2.6,94,11,8000,29.632,,,230,11.7,19.8,,,,,,,,,wg-a,,,,AAXX 09064 07020 12658 82316 10120 20110 30165 40182 53026 60006 885// 90600 333 10198 20117=
07020,1998-05-09 12:00:00,15,1021.5,1.3,77,11,16000,18.52,,,260,,,,,,,,,,,wg-a,,,,AAXX 09124 07020 12866 42610 10150 20110 30198 40215 51013 60006 84040 91200=
07020,1998-05-09 18:00:00,13,1021.2,-0.8,82,10,0,11.112,,,230,11.8,15.3,,,,,,,,,wg-a,,,,AAXX 09184 07020 12/// /2306 10130 20100 30195 40212 56008 60006 91800 333 10153 20118=
07020,1998-05-10 00:00:00,11,1021.1,-0.7,87,9,0,11.112,,,100,,,,,,,,,,,wg-a,,,,AAXX 10004 07020 12/// /1006 10110 20090 30194 40211 57007 60006 90000=
07020,1998-05-10 06:00:00,11,1018.7,-1,94,10,10000,29.632,,,90,10.7,12.9,,,,,,,,,wg-a,,,,AAXX 10064 07020 12660 60916 10110 20100 30170 40187 56010 60006 81102 90600 333 10129 20107=
07020,1998-05-10 12:00:00,14,1017.3,-0.8,82,11,8000,25.928,,,100,,,,,,,,,,,wg-a,,,,AAXX 10124 07020 12/58 61014 10140 20110 30156 40173 58008 60006 84085 91200=
07020,1998-05-10 18:00:00,13,1013.4,-1.5,88,11,8000,29.632,,,100,10.9,15.9,,,,,,,,,wg-a,,,,AAXX 10184 07020 12658 61016 10130 20110 30117 40134 56015 60006 83575 91800 333 10159 20109=
07020,1998-05-11 00:00:00,13,1013.1,-0.7,88,11,0,22.224,,,100,,,,,,,,,,,wg-a,,,,AAXX 11004 07020 12/// /1012 10130 20110 30114 40131 58007 60006 90000=
07020,1998-05-11 06:00:00,12,1013.6,0.4,94,11,4500,29.632,,,100,11.9,13.2,,,,,,,,10,wg-a,,,,AAXX 11064 07020 12/45 81016 10120 20110 30119 40136 50004 60006 710// 8803/ 90600 333 10132 20119=
07020,1998-05-11 12:00:00,14,1012.8,-1,82,11,6000,38.892,,,110,,,,,,,,,,,wg-a,,,,AAXX 11124 07020 12/56 61121 10140 20110 30111 40128 58010 60006 80005 91200=
07020,1998-05-11 18:00:00,14,1013.1,0.5,88,12,10000,22.224,,,100,12.1,16.9,,,,,,,,,wg-a,,,,AAXX 11184 07020 12/60 21012 10140 20120 30114 40131 53005 60006 80005 91800 333 10169 20121=
07020,1998-05-12 00:00:00,12,1014.8,1,94,11,0,11.112,,,120,,,,,,,,,,,wg-a,,,,AAXX 12004 07020 12/// /1206 10120 20110 30131 40148 51010 60006 90000=
07020,1998-05-12 06:00:00,13,1015.7,0.7,94,12,2000,25.928,,,120,11.5,13.7,,,,,,,,10,wg-a,,,,AAXX 12064 07020 12420 51214 10130 20120 30140 40157 53007 60006 710// 81605 90600 333 10137 20115=
07020,1998-05-12 12:00:00,14,1018.2,0.9,88,12,2000,18.52,,,80,,,,,,,,,,10,wg-a,,,,AAXX 12124 07020 12420 70810 10140 20120 30165 40182 53009 60006 71022 876// 91200=
07020,1998-05-12 18:00:00,15,1018.4,0.1,82,12,4000,14.816,,,90,12.8,15.6,,,,,,,,10,wg-a,,,,AAXX 12184 07020 12/40 40908 10150 20120 30167 40184 53001 60006 71011 84080 91800 333 10156 20128=
07020,1998-05-13 00:00:00,13,1018.5,-0.6,94,12,0,22.224,,,90,,,,,,,,,,,wg-a,,,,AAXX 13004 07020 12/// /0912 10130 20120 30168 40185 58006 60006 90000=
07020,1998-05-13 06:00:00,12,1018.6,0.5,94,11,2000,14.816,,,100,11.5,14.9,,,,,,,,10,wg-a,,,,AAXX 13064 07020 12420 61008 10120 20110 30169 40186 53005 60006 710// 84680 90600 333 10149 20115=
07020,1998-05-13 12:00:00,15,1019.7,0.1,82,12,3000,18.52,,,90,,,,,,,,,,10,wg-a,,,,AAXX 13124 07020 12430 60910 10150 20120 30180 40197 50001 60006 71022 84680 91200=
07020,1998-05-14 06:00:00,13,1019.6,0.6,94,12,1000,7.408,,,50,12.4,15.2,,,,,,,,10,wg-a,,,,AAXX 14064 07020 32410 50504 10130 20120 30179 40196 53006 710// 84680 90600 333 10152 20124=
07020,1998-05-14 12:00:00,19,1020.8,0.6,73,14,2000,18.52,,,110,,,,,,,,,,10,wg-a,,,,AAXX 14124 07020 12420 51110 10190 20140 30191 40208 50006 60006 71022 84680 91200=
07020,1998-05-14 18:00:00,17,1019.9,-0.2,77,13,2000,11.112,,,100,12.5,24.1,,,,,,,,10,wg-a,,,,AAXX 14184 07020 12420 41006 10170 20130 30182 40199 55002 60006 71022 84600 91800 333 10241 20125=
07020,1998-05-15 00:00:00,14,1020.5,-0.4,88,12,0,11.112,,,110,,,,,,,,,,,wg-a,,,,AAXX 15004 07020 12/// /1106 10140 20120 30188 40205 56004 60006 90000=
07020,1998-05-15 06:00:00,13,1020.3,-0.2,100,13,500,18.52,,,100,12.7,17.1,,,,,,,,47,wg-a,,,,AAXX 15064 07020 12/00 91010 10130 20130 30186 40203 55002 60006 747// 89/// 90600 333 10171 20127=
07020,1998-05-15 12:00:00,15,1020.6,0.3,82,12,4000,22.224,,,70,,,,,,,,,,10,wg-a,,,,AAXX 15124 07020 12440 40712 10150 20120 30189 40206 50003 60006 71042 84600 91200=
07020,1998-05-15 18:00:00,15,1019.6,-0.4,82,12,4000,18.52,,,90,12.1,17.4,,,,,,,,10,wg-a,,,,AAXX 15184 07020 12440 30910 10150 20120 30179 40196 55004 60006 71011 83600 91800 333 10174 20121=
07020,1998-05-16 06:00:00,13,1021.1,0.5,82,10,10000,14.816,,,100,11.4,15.7,,,,,,,,,wg-a,,,,AAXX 16064 07020 12/60 21008 10130 20100 30194 40211 53005 60006 80005 90600 333 10157 20114=
07020,1998-05-16 12:00:00,14,1022.2,0.3,88,12,8000,11.112,,,80,,,,,,,,,,,wg-a,,,,AAXX 16124 07020 12/58 00806 10140 20120 30205 40222 50003 60006 80000 91200=
07020,1998-05-16 18:00:00,17,1021.6,-0.5,68,11,8000,18.52,,,90,12.6,17.1,,,,,,,,,wg-a,,,,AAXX 16184 07020 12/58 00910 10170 20110 30199 40216 56005 60006 80000 91800 333 10171 20126=
07020,1998-05-17 00:00:00,12,1023.2,0.2,88,10,0,18.52,,,50,,,,,,,,,,,wg-a,,,,AAXX 17004 07020 12/// /0510 10120 20100 30215 40232 50002 60006 90000=
07020,1998-05-17 06:00:00,12,1023.1,0.3,88,10,20000,22.224,,,70,10.8,17,,,,,,,,,wg-a,,,,AAXX 17064 07020 12/70 00712 10120 20100 30214 40231 53003 60006 80000 90600 333 10170 20108=
07020,1998-05-17 12:00:00,14,1024.9,1,82,11,15000,22.224,,,90,,,,,,,,,,,wg-a,,,,AAXX 17124 07020 12/65 00912 10140 20110 30232 40249 51010 60006 80000 91200=
07020,1998-05-17 18:00:00,15,1024.4,-0.1,72,10,15000,18.52,,,90,11.8,15.9,,,,,,,,,wg-a,,,,AAXX 17184 07020 12/65 00910 10150 20100 30227 40244 55001 60006 80000 91800 333 10159 20118=
07020,1998-05-18 00:00:00,12,1025.9,0.5,82,9,0,22.224,,,120,,,,,,,,,,,wg-a,,,,AAXX 18004 07020 12/// /1212 10120 20090 30242 40259 51005 60006 90000=
07020,1998-05-18 06:00:00,12,1026.5,0.7,88,10,22000,29.632,,,80,11.5,14.7,,,,,,,,,wg-a,,,,AAXX 18064 07020 12/72 00816 10120 20100 30248 40265 53007 60006 80000 90600 333 10147 20115=
07020,1998-05-18 12:00:00,14,1027.2,-0.1,82,11,14000,29.632,,,80,,,,,,,,,,,wg-a,,,,AAXX 18124 07020 12/64 00816 10140 20110 30255 40272 55001 60006 80000 91200=
07020,1998-05-18 18:00:00,16,1026.5,-0.6,77,12,14000,22.224,,,110,11.9,16,,,,,,,,,wg-a,,,,AAXX 18184 07020 12/64 01112 10160 20120 30248 40265 56006 60006 80000 91800 333 10160 20119=
07020,1998-05-19 00:00:00,12,1027.3,-0.1,94,11,0,25.928,,,70,,,,,,,,,,,wg-a,,,,AAXX 19004 07020 12/// /0714 10120 20110 30256 40273 58001 60006 90000=
07020,1998-05-19 06:00:00,12,1027.9,0.8,94,11,18000,22.224,,,110,11.2,15.6,,0,,,,,,,wg-a,,,,AAXX 19064 07020 12/68 01112 10120 20110 30262 40279 51008 60007 80000 90600 333 10156 20112=
07020,1998-05-19 12:00:00,15,1028.1,-0.1,77,11,18000,22.224,,,90,,,,,,,,,,,wg-a,,,,AAXX 19124 07020 12/68 00912 10150 20110 30264 40281 56001 60006 80000 91200=
07020,1998-05-19 18:00:00,16,1025.6,-1.2,68,10,20000,22.224,,,100,11.9,17.8,,,,,,,,,wg-a,,,,AAXX 19184 07020 12/70 11012 10160 20100 30239 40256 56012 60006 80001 91800 333 10178 20119=
07020,1998-05-20 00:00:00,12,1025.7,-0.1,88,10,0,25.928,,,70,,,,,,,,,,,wg-a,,,,AAXX 20004 07020 12/// /0714 10120 20100 30240 40257 58001 60006 90000=
07020,1998-05-20 06:00:00,12,1024.6,-0.4,94,11,18000,14.816,,,100,10.6,16,,,,,,,,,wg-a,,,,AAXX 20064 07020 12/68 21008 10120 20110 30229 40246 58004 60006 80001 90600 333 10160 20106=
07020,1998-05-20 12:00:00,15,1025.3,-0.2,77,11,18000,22.224,,,90,,,,,,,,,,,wg-a,,,,AAXX 20124 07020 12/68 00912 10150 20110 30236 40253 57002 60006 80000 91200=
07020,1998-05-20 18:00:00,16,1023.2,-1.3,72,11,12000,7.408,,,90,12,16.5,,,,,,,,,wg-a,,,,AAXX 20184 07020 12/62 00904 10160 20110 30215 40232 56013 60006 80000 91800 333 10165 20120=
07020,1998-05-21 00:00:00,14,1022.7,-0.6,77,10,0,18.52,,,250,,,,,,,,,,,wg-a,,,,AAXX 21004 07020 12/// /2510 10140 20100 30210 40227 58006 60006 90000=
07020,1998-05-21 06:00:00,13,1022.4,0.4,94,12,4000,3.704,,,270,11,17.1,,,,,,,,10,wg-a,,,,AAXX 21064 07020 12440 42702 10130 20120 30207 40224 52004 60006 710// 82602 90600 333 10171 20110=
07020,1998-05-21 12:00:00,18,1023.5,0.4,68,12,3000,11.112,,,40,,,,,,,,,,10,wg-a,,,,AAXX 21124 07020 12/30 40406 10180 20120 30218 40235 52004 60006 71011 80005 91200=
07020,1998-05-21 18:00:00,15,1023.5,-0.3,82,12,16000,18.52,,,20,13,17.9,,,,,,,,,wg-a,,,,AAXX 21184 07020 12/66 60210 10150 20120 30218 40235 56003 60006 80005 91800 333 10179 20130=
07020,1998-05-22 00:00:00,11,1026.1,1,87,9,0,14.816,,,120,,,,,,,,,,,wg-a,,,,AAXX 22004 07020 12/// /1208 10110 20090 30244 40261 51010 60006 90000=
07020,1998-05-22 06:00:00,11,1027.4,0.6,94,10,40000,7.408,,,90,9.5,14.9,,,,,,,,,wg-a,,,,AAXX 22064 07020 12682 70904 10110 20100 30257 40274 53006 60006 8157/ 90600 333 10149 20095=
07020,1998-05-22 12:00:00,14,1028.2,0.1,67,8,500,22.224,,,80,,,,,,,,,,,wg-a,,,,AAXX 22124 07020 12600 60812 10140 20080 30265 40282 51001 60006 82170 91200=
07020,1998-05-22 18:00:00,15,1027.1,-0.6,63,8,40000,7.408,,,60,11.5,16.4,,,,,,,,,wg-a,,,,AAXX 22184 07020 12/82 00604 10150 20080 30254 40271 56006 60006 80000 91800 333 10164 20115=
07020,1998-05-23 00:00:00,11,1026.8,-0.4,87,9,0,7.408,,,260,,,,,,,,,,,wg-a,,,,AAXX 23004 07020 12/// /2604 10110 20090 30251 40268 58004 60006 90000=
07020,1998-05-23 06:00:00,12,1025.5,-0.1,94,11,12000,7.408,,,320,9,15,,,,,,,,,wg-a,,,,AAXX 23064 07020 12/62 63204 10120 20110 30238 40255 56001 60006 86080 90600 333 10150 20090=
07020,1998-05-23 12:00:00,16,1024.5,-0.9,59,8,18000,7.408,,,60,,,,,,,,,,,wg-a,,,,AAXX 23124 07020 12/68 30604 10160 20080 30228 40245 58009 60006 80002 91200=
07020,1998-05-23 18:00:00,14,1021.8,-1.4,88,12,16000,18.52,,,280,12,16.7,,,,,,,,,wg-a,,,,AAXX 23184 07020 12/66 22810 10140 20120 30201 40218 58014 60006 80002 91800 333 10167 20120=
07020,1998-05-24 00:00:00,13,1020.6,-0.7,88,11,0,11.112,,,10,,,,,,,,,,,wg-a,,,,AAXX 24004 07020 12/// /0106 10130 20110 30189 40206 56007 60006 90000=
07020,1998-05-24 06:00:00,13,1018.7,-0.8,88,11,10000,22.224,,,340,12.3,14.4,,,,,,,,,wg-a,,,,AAXX 24064 07020 12660 83412 10130 20110 30170 40187 56008 60006 8352/ 90600 333 10144 20123=
07020,1998-05-24 12:00:00,15,1019,-0,82,12,16000,7.408,,,340,,,,,,,,,,,wg-a,,,,AAXX 24124 07020 12666 53404 10150 20120 30173 40190 55000 60006 81205 91200=
07020,1998-05-24 18:00:00,15,1016.7,-1.2,82,12,16000,18.52,,,260,12.6,16.9,,,,,,,,,wg-a,,,,AAXX 24184 07020 12/66 02610 10150 20120 30150 40167 56012 60006 80000 91800 333 10169 20126=
07020,1998-05-25 00:00:00,13,1015.6,-0.9,88,11,0,14.816,,,310,,,,,,,,,,,wg-a,,,,AAXX 25004 07020 12/// /3108 10130 20110 30139 40156 58009 60006 90000=
07020,1998-05-25 06:00:00,12,1014,-0.5,94,11,16000,18.52,,,300,12,14.9,,,,,,,,,wg-a,,,,AAXX 25064 07020 12666 73010 10120 20110 30123 40140 56005 60006 875// 90600 333 10149 20120=
07020,1998-05-25 12:00:00,15,1013.2,-0.7,82,12,18000,14.816,,,260,,,,,,,,,,,wg-a,,,,AAXX 25124 07020 12668 82608 10150 20120 30115 40132 58007 60006 885// 91200=
07020,1998-05-25 18:00:00,13,1010.5,-1.9,94,12,12000,18.52,,,230,12.1,15.6,,,,,,,,,wg-a,,,,AAXX 25184 07020 12/62 82310 10130 20120 30088 40105 57019 60006 8805/ 91800 333 10156 20121=
07020,1998-05-26 00:00:00,13,1009,-1.2,88,11,0,18.52,,,300,,,,,,,,,,,wg-a,,,,AAXX 26004 07020 12/// /3010 10130 20110 30073 40090 57012 60006 90000=
07020,1998-05-26 06:00:00,12,1007,-0.8,100,12,18000,18.52,,,240,11.5,13.4,,,,,,,,,wg-a,,,,AAXX 26064 07020 12568 82410 10120 20120 30053 40070 56008 60006 885// 90600 333 10134 20115=
07020,1998-05-26 12:00:00,15,1006.5,-0.1,82,12,22000,18.52,,,270,,,,,,,,,,,wg-a,,,,AAXX 26124 07020 12672 62710 10150 20120 30048 40065 55001 60006 82150 91200=
07020,1998-05-26 18:00:00,14,1005.7,-0.5,82,11,20000,25.928,,,270,12.4,15.9,,,,,,,,2,wg-a,,,,AAXX 26184 07020 32670 62714 10140 20110 30040 40057 58005 70282 82270 91800 333 10159 20124=
07020,1998-05-27 00:00:00,12,1005.9,-0.2,82,9,0,11.112,,,260,,,,,,,,,,,wg-a,,,,AAXX 27004 07020 12/// /2606 10120 20090 30042 40059 58002 60006 90000=
07020,1998-05-27 06:00:00,12,1005,-0,88,10,20000,14.816,,,250,10.9,13.7,,,,,,,,,wg-a,,,,AAXX 27064 07020 12570 42508 10120 20100 30033 40050 55000 60006 82940 90600 333 10137 20109=
07020,1998-05-27 12:00:00,15,1006,0.5,72,10,24000,18.52,,,70,,,,,,,,,,,wg-a,,,,AAXX 27124 07020 12674 50710 10150 20100 30043 40060 50005 60006 84260 91200=
07020,1998-05-27 18:00:00,13,1006.1,-0,82,10,20000,29.632,,,70,11.7,16.2,,,,,,,,,wg-a,,,,AAXX 27184 07020 12670 30716 10130 20100 30044 40061 55000 60006 83200 91800 333 10162 20117=
07020,1998-05-28 00:00:00,11,1006.8,-0.1,87,9,0,22.224,,,50,,,,,,,,,,,wg-a,,,,AAXX 28004 07020 12/// /0512 10110 20090 30051 40068 58001 60006 90000=
07020,1998-05-28 06:00:00,12,1006.3,0.2,88,10,14000,18.52,,,60,11.2,13.4,,,,,,,,,wg-a,,,,AAXX 28064 07020 12664 70610 10120 20100 30046 40063 53002 60006 8327/ 90600 333 10134 20112=
07020,1998-05-28 12:00:00,11,1007.2,0.4,94,10,20000,14.816,,,80,,,,6,,,,,,80,wg-a,,,,AAXX 28124 07020 02670 80808 10110 20100 30055 40072 52004 60066 78082 8327/ 91200 333 60067=
07020,1998-05-28 18:00:00,11,1006.6,0.7,87,9,0,14.816,,,290,,15.4,,0,,,,,,,wg-a,,,,AAXX 28184 07020 126// 72908 10110 20090 39986 40066 53007 60007 879// 91800 333 10154=
07020,1998-05-29 00:00:00,10,1006.9,-0.1,93,9,0,11.112,,,140,,,,,,,,,,,wg-a,,,,AAXX 29004 07020 12/// /1406 10100 20090 30052 40069 58001 60006 90000=
07020,1998-05-29 06:00:00,11,1008.7,1.7,82,8,50000,25.928,,,220,9.6,13,,,,,,,,,wg-a,,,,AAXX 29064 07020 12684 12214 10110 20080 30070 40087 53017 60006 81100 90600 333 10130 20096=
07020,1998-05-29 12:00:00,15,1011.7,1.2,72,10,500,25.928,,,200,,,,,,,,,,,wg-a,,,,AAXX 29124 07020 12600 32014 10150 20100 30100 40117 51012 60006 83200 91200=
07020,1998-05-29 18:00:00,15,1012.6,0.6,77,11,35000,25.928,,,90,10.9,17.8,,,,,,,,,wg-a,,,,AAXX 29184 07020 12/81 10914 10150 20110 30109 40126 53006 60006 80008 91800 333 10178 20109=
07020,1998-05-30 00:00:00,13,1012.7,-0.5,88,11,0,22.224,,,110,,,,,,,,,,,wg-a,,,,AAXX 30004 07020 12/// /1112 10130 20110 30110 40127 58005 60006 90000=
07020,1998-05-30 06:00:00,13,1010.6,-0.8,88,11,14000,29.632,,,110,12.4,15,,,,,,,,,wg-a,,,,AAXX 30064 07020 12564 71116 10130 20110 30089 40106 56008 60006 85620 90600 333 10150 20124=
07020,1998-05-30 12:00:00,17,1009.1,-0.1,72,12,10000,29.632,,90.748,110,,,,,,,,,,,wg-a,,,,AAXX 30124 07020 12860 71116 10170 20120 30074 40091 56001 60006 8707/ 91200 333 91049=
07020,1998-05-30 18:00:00,14,1005.9,-0.7,94,13,8000,29.632,,,110,13.3,17,,2,,,,,,25,wg-a,,,,AAXX 30184 07020 12558 81116 10140 20130 30042 40059 56007 60027 72598 8267/ 91800 333 10170 20133=
07020,1998-05-31 00:00:00,13,1007.4,1,88,11,0,31.484,,,200,,,,,,,,,,,wg-a,,,,AAXX 31004 07020 12/// /2017 10130 20110 30057 40074 53010 60006 90000=
07020,1998-05-31 06:00:00,13,1009.1,1,88,11,22000,18.52,,,190,11.9,15.2,,,,,,,,,wg-a,,,,AAXX 31064 07020 12/72 01910 10130 20110 30074 40091 53010 60006 80000 90600 333 10152 20119=
07020,1998-05-31 12:00:00,17,1010.9,0.6,72,12,500,25.928,,,210,,,,,,,,,,,wg-a,,,,AAXX 31124 07020 12600 32114 10170 20120 30092 40109 53006 60006 81101 91200=
07020,1998-05-31 18:00:00,17,1010.4,-0.2,59,9,500,22.224,,,180,12.8,17.8,,,,,,,,,wg-a,,,,AAXX 31184 07020 12/00 31812 10170 20090 30087 40104 55002 60006 8/050 91800 333 10178 20128=
07020,1998-06-01 00:00:00,13,1011.6,0.5,82,10,0,18.52,,,180,,,,,,,,,,,wg-a,,,,AAXX 01004 07020 12/// /1810 10130 20100 30099 40116 51005 60006 90000=
07020,1998-06-01 06:00:00,13,1011.1,-0,88,11,20000,14.816,,,170,11.7,16.4,,,,,,,,,wg-a,,,,AAXX 01064 07020 12/70 11708 10130 20110 30094 40111 55000 60006 80005 90600 333 10164 20117=
07020,1998-06-01 12:00:00,15,1010.7,-0.5,82,12,18000,22.224,,,100,,,,,,,,,,,wg-a,,,,AAXX 01124 07020 12868 81012 10150 20120 30090 40107 58005 60006 8807/ 91200=
07020,1998-06-01 18:00:00,14,1007.1,-2.2,88,12,16000,29.632,,,90,13,15.9,,0,,,,,,2,wg-a,,,,AAXX 01184 07020 12866 80916 10140 20120 30054 40071 56022 60007 70252 8802/ 91800 333 10159 20130=
07020,1998-06-02 00:00:00,16,1004.6,-0.8,88,14,0,18.52,,,180,,,,,,,,,,,wg-a,,,,AAXX 02004 07020 12/// /1810 10160 20140 30029 40046 58008 60056 90000=
07020,1998-06-02 06:00:00,13,1003.9,0.7,100,13,10000,35.188,,,240,13.2,15.6,,0,,,,,,61,wg-a,,,,AAXX 02064 07020 12560 82419 10130 20130 30022 40039 53007 60007 761// 8472/ 90600 333 10156 20132=
07020,1998-06-02 12:00:00,16,1008,2.1,82,13,20000,29.632,,,230,,,,,,,,,,,wg-a,,,,AAXX 02124 07020 12670 22316 10160 20130 30063 40080 51021 60006 82100 91200=
07020,1998-06-02 18:00:00,13,1008.1,0,88,11,500,29.632,,64.82,240,12.5,16.3,,1,,,,,,25,wg-a,,,,AAXX 02184 07020 12500 72416 10130 20110 30064 40081 50000 60017 72586 8195/ 91800 333 10163 20125 91035=
07020,1998-06-03 00:00:00,13,1009.5,0.5,94,12,0,35.188,,,220,,,,,,,,,,,wg-a,,,,AAXX 03004 07020 12/// /2219 10130 20120 30078 40095 51005 60006 90000=
07020,1998-06-03 06:00:00,14,1009.9,0.6,94,13,18000,35.188,,61.116,220,13.1,13.9,,5,,,,,,,wg-a,,,,AAXX 03064 07020 12568 72219 10140 20130 30082 40099 53006 60057 87500 90600 333 10139 20131 91033=
07020,1998-06-03 12:00:00,16,1011.9,0.5,82,13,18000,35.188,,,230,,,,,,,,,,,wg-a,,,,AAXX 03124 07020 12868 52319 10160 20130 30102 40119 53005 60006 85050 91200=
07020,1998-06-03 18:00:00,15,1014.9,1.9,88,13,15000,29.632,,,260,13.8,16.5,,,,,,,,,wg-a,,,,AAXX 03184 07020 12665 62616 10150 20130 30132 40149 53019 60006 82280 91800 333 10165 20138=
07020,1998-06-04 00:00:00,12,1018.5,1.4,88,10,0,22.224,,,290,,,,,,,,,,,wg-a,,,,AAXX 04004 07020 12/// /2912 10120 20100 30168 40185 51014 60006 90000=
07020,1998-06-04 06:00:00,12,1020.1,1,82,9,50000,11.112,,,10,11.6,14.7,,,,,,,,,wg-a,,,,AAXX 04064 07020 12684 40106 10120 20090 30184 40201 53010 60006 82208 90600 333 10147 20116=
07020,1998-06-04 12:00:00,17,1021,0.4,63,10,50000,14.816,,,60,,,,,,,,,,,wg-a,,,,AAXX 04124 07020 12/84 40608 10170 20100 30193 40210 50004 60006 80008 91200=
07020,1998-06-04 18:00:00,14,1019.1,-0.4,72,9,40000,25.928,,,80,12.2,16.8,,,,,,,,,wg-a,,,,AAXX 04184 07020 12/82 40814 10140 20090 30174 40191 56004 60006 80008 91800 333 10168 20122=
07020,1998-06-05 00:00:00,13,1016.9,-1.8,88,11,0,29.632,,,100,,,,,,,,,,,wg-a,,,,AAXX 05004 07020 12/// /1016 10130 20110 30152 40169 56018 60006 90000=
07020,1998-06-05 06:00:00,13,1013.5,-1.4,100,13,1500,31.484,,,100,12.6,14.5,,,,,,,,10,wg-a,,,,AAXX 05064 07020 12415 81017 10130 20130 30118 40135 56014 60006 710// 886// 90600 333 10145 20126=
07020,1998-06-05 12:00:00,15,1013.1,-0.2,88,13,2000,31.484,,,90,,,,,,,,,,10,wg-a,,,,AAXX 05124 07020 12420 80917 10150 20130 30114 40131 56002 60006 71022 886// 91200=
07020,1998-06-05 18:00:00,14,1011.7,-0.4,94,13,1200,22.224,,,120,13.3,16.1,,0,,,,,,21,wg-a,,,,AAXX 05184 07020 12412 81212 10140 20130 30100 40117 58004 60007 72162 886// 91800 333 10161 20133=
07020,1998-06-06 00:00:00,14,1010.6,-1,100,14,0,22.224,,,110,,,,,,,,,,,wg-a,,,,AAXX 06004 07020 12/// /1112 10140 20140 30089 40106 56010 60006 90000=
07020,1998-06-06 06:00:00,15,1009.8,0.2,100,15,1100,18.52,,,210,13.6,15.4,,,,,,,,10,wg-a,,,,AAXX 06064 07020 32411 82110 10150 20150 30081 40098 53002 710// 886// 90600 333 10154 20136=
07020,1998-06-06 12:00:00,16,1010.9,0.6,88,14,10000,29.632,,,230,,,,,,,,,,,wg-a,,,,AAXX 06124 07020 12760 82316 10160 20140 30092 40109 51006 60006 887// 91200=
07020,1998-06-06 18:00:00,15,1010.2,0.2,94,14,8000,18.52,,,230,14.1,18.6,,0,,,,,,80,wg-a,,,,AAXX 06184 07020 12658 82310 10150 20140 30085 40102 53002 60007 78082 884// 91800 333 10186 20141=
07020,1998-06-07 00:00:00,13,1010.5,-0.2,94,12,0,22.224,,,270,,,,,,,,,,,wg-a,,,,AAXX 07004 07020 12/// /2712 10130 20120 30088 40105 56002 60016 90000=
07020,1998-06-07 06:00:00,14,1010.3,-0.1,94,13,1600,35.188,,,240,12.7,14.5,,0,,,,,,,wg-a,,,,AAXX 07064 07020 12616 62419 10140 20130 30086 40103 55001 60007 86700 90600 333 10145 20127=
07020,1998-06-07 12:00:00,17,1012.6,0.8,82,14,18000,35.188,,,250,,,,,,,,,,,wg-a,,,,AAXX 07124 07020 12568 52519 10170 20140 30109 40126 52008 60006 84250 91200=
07020,1998-06-07 18:00:00,15,1014.9,1.4,88,13,18000,38.892,,,260,13.6,17,,,,,,,,,wg-a,,,,AAXX 07184 07020 12668 42621 10150 20130 30132 40149 53014 60006 82230 91800 333 10170 20136=
07020,1998-06-08 00:00:00,14,1017.3,0.8,88,12,0,31.484,,,260,,,,,,,,,,,wg-a,,,,AAXX 08004 07020 12/// /2617 10140 20120 30156 40173 53008 60006 90000=
07020,1998-06-08 06:00:00,14,1017,0.2,88,12,18000,31.484,,,240,12.8,15,,,,,,,,,wg-a,,,,AAXX 08064 07020 12568 42417 10140 20120 30153 40170 52002 60006 82202 90600 333 10150 20128=
07020,1998-06-08 12:00:00,16,1015.8,-1.8,82,13,16000,38.892,,,200,,,,,,,,,,,wg-a,,,,AAXX 08124 07020 12866 82021 10160 20130 30141 40158 58018 60006 8802/ 91200=
07020,1998-06-08 18:00:00,15,1013,-1.3,94,14,10000,46.3,,68.524,210,13.5,16.8,,2,,,,,,61,wg-a,,,,AAXX 08184 07020 12460 82125 10150 20140 30113 40130 56013 60027 76162 887// 91800 333 10168 20135 91037=
07020,1998-06-09 06:00:00,15,1009.9,-0.3,94,14,7000,42.596,,,220,14.5,15.3,,0,,,,,,,wg-a,,,,AAXX 09064 07020 12557 82223 10150 20140 30082 40099 56003 60007 887// 90600 333 10153 20145=
07020,1998-06-09 12:00:00,16,1008.1,-1.6,94,15,16000,42.596,,,220,,,,1,,,,,,2,wg-a,,,,AAXX 09124 07020 02666 72223 10160 20150 30064 40081 56016 60066 70262 877// 91200 333 60017=
07020,1998-06-09 18:00:00,16,1006.1,-1.2,88,14,18000,38.892,,61.116,250,14.1,16.5,,1,,,,,,2,wg-a,,,,AAXX 09184 07020 12668 62521 10160 20140 30044 40061 56012 60017 70262 86700 91800 333 10165 20141 91033=
07020,1998-06-10 00:00:00,13,1004.9,-0.7,94,12,0,35.188,,,250,,,,,,,,,,,wg-a,,,,AAXX 10004 07020 12/// /2519 10130 20120 30032 40049 58007 60006 90000=
07020,1998-06-10 06:00:00,13,1004,0.8,94,12,16000,50.004,,,250,13,15.6,,1,,,,,,,wg-a,,,,AAXX 10064 07020 12666 62527 10130 20120 30023 40040 53008 60017 86700 90600 333 10156 20130=
07020,1998-06-10 12:00:00,16,1005.1,0.4,88,14,18000,38.892,,,250,,,,1,,,,,,25,wg-a,,,,AAXX 10124 07020 02668 42521 10160 20140 30035 40051 51004 60016 72581 84200 91200 333 60017=
07020,1998-06-10 18:00:00,15,1003.6,-0.8,82,12,16000,25.928,,,260,13.3,17,,,,,,,,,wg-a,,,,AAXX 10184 07020 32666 72614 10150 20120 30019 40036 56008 82230 91800 333 10170 20133=
07020,1998-06-11 00:00:00,13,1004.5,0.5,88,11,0,38.892,,,290,,,,,,,,,,,wg-a,,,,AAXX 11004 07020 12/// /2921 10130 20110 30028 40045 52005 60006 90000=
07020,1998-06-11 06:00:00,12,1007.5,1.7,71,7,20000,57.412,,,310,11.5,14.9,,,,,,,,,wg-a,,,,AAXX 11064 07020 32670 53131 10120 20070 30058 40075 53017 85102 90600 333 10149 20115=
07020,1998-06-11 12:00:00,10,1011.5,2.4,87,8,8000,61.116,,,340,,,,0,,,,,,61,wg-a,,,,AAXX 11124 07020 02658 83433 10100 20080 30098 40115 53024 60006 76186 8472/ 91200 333 60007=
07020,1998-06-11 18:00:00,13,1016.8,2.4,72,8,25000,29.632,,,10,9.7,12.9,,,,,,,,1,wg-a,,,,AAXX 11184 07020 02675 70116 10130 20080 30151 40168 53024 61000 70162 87800 91800 333 10129 20097 ////=
07020,1998-06-12 00:00:00,12,1020.4,1.3,82,9,0,38.892,,,330,,,,,,,,,,,wg-a,,,,AAXX 12004 07020 12/// /3321 10120 20090 30187 40204 51013 60006 90000=
07020,1998-06-12 06:00:00,12,1021.7,1,88,10,40000,31.484,,,320,11.7,13.8,,,,,,,,,wg-a,,,,AAXX 12064 07020 12682 43217 10120 20100 30200 40217 53010 60006 841// 90600 333 10138 20117=
07020,1998-06-12 12:00:00,15,1023.2,0.6,72,10,50000,18.52,,,280,,,,,,,,,,,wg-a,,,,AAXX 12124 07020 12884 62810 10150 20100 30215 40232 50006 60006 86070 91200=
07020,1998-06-12 18:00:00,14,1021.5,-1.1,77,10,40000,22.224,,,260,12.1,15.4,,,,,,,,,wg-a,,,,AAXX 12184 07020 12882 72612 10140 20100 30198 40215 58011 60006 86078 91800 333 10154 20121=
07020,1998-06-13 00:00:00,12,1019,-1.8,88,10,0,22.224,,,200,,,,,,,,,,,wg-a,,,,AAXX 13004 07020 12/// /2012 10120 20100 30173 40190 58018 60006 90000=
07020,1998-06-13 06:00:00,12,1012,-3.4,94,11,15000,42.596,,68.524,180,11.3,13.8,,1,,,,,,,wg-a,,,,AAXX 13064 07020 12565 81823 10120 20110 30103 40120 57034 60017 887// 90600 333 10138 20113 91037=
07020,1998-06-13 12:00:00,14,1008.4,-1.7,100,14,4000,31.484,,68.524,210,,,,4,,,,,,51,wg-a,,,,AAXX 13124 07020 02440 82117 10140 20140 30067 40084 57017 60066 75165 8572/ 91200 333 60047 91037=
07020,1998-06-13 18:00:00,14,1008.4,0.3,88,12,16000,38.892,,61.116,260,11.9,15.8,,,,,,,,1,wg-a,,,,AAXX 13184 07020 32566 62621 10140 20120 30067 40084 53003 70152 8177/ 91800 333 10158 20119 91033=
07020,1998-06-14 00:00:00,13,1008.4,-0.2,94,12,0,46.3,,,270,,,,,,,,,,,wg-a,,,,AAXX 14004 07020 12/// /2725 10130 20120 30067 40084 56002 60006 90000=
07020,1998-06-14 06:00:00,13,1008.4,0.1,88,11,20000,35.188,,64.82,270,12.9,14.1,,,,,,,,,wg-a,,,,AAXX 14064 07020 12870 62719 10130 20110 30067 40084 53001 60006 8607/ 90600 333 10141 20129 91035=
07020,1998-06-14 12:00:00,16,1009.2,0.4,82,13,22000,29.632,,53.708,260,,,,,,,,,,,wg-a,,,,AAXX 14124 07020 12872 72616 10160 20130 30075 40092 53004 60006 8707/ 91200 333 91029=
07020,1998-06-14 18:00:00,15,1009.4,0.1,88,13,35000,18.52,,,260,13.1,16.6,,,,,,,,,wg-a,,,,AAXX 14184 07020 12881 62610 10150 20130 30077 40094 51001 60006 86054 91800 333 10166 20131=
07020,1998-06-15 00:00:00,14,1010.7,0.5,88,12,0,29.632,,,300,,,,,,,,,,,wg-a,,,,AAXX 15004 07020 12/// /3016 10140 20120 30090 40107 51005 60006 90000=
07020,1998-06-15 06:00:00,13,1012.5,1.3,94,12,25000,25.928,,,330,13,14.6,,,,,,,,,wg-a,,,,AAXX 15064 07020 12675 73314 10130 20120 30108 40125 52013 60006 878// 90600 333 10146 20130=
07020,1998-06-15 12:00:00,14,1015.2,1.5,82,11,25000,31.484,,,300,,,,,,,,,,,wg-a,,,,AAXX 15124 07020 12675 83017 10140 20110 30135 40152 51015 60006 88800 91200=
07020,1998-06-15 18:00:00,16,1016.8,0.7,72,11,500,25.928,,,290,13.1,16.5,,,,,,,,,wg-a,,,,AAXX 15184 07020 12600 12914 10160 20110 30151 40168 53007 60006 81100 91800 333 10165 20131=
07020,1998-06-16 06:00:00,13,1020.6,1.3,88,11,24000,29.632,,,300,12.6,15.8,,,,,,,,,wg-a,,,,AAXX 16064 07020 12674 23016 10130 20110 30189 40206 51013 60006 81101 90600 333 10158 20126=
07020,1998-06-16 12:00:00,15,1023.3,1.1,82,12,25000,25.928,,,270,,,,,,,,,,,wg-a,,,,AAXX 16124 07020 12675 22714 10150 20120 30216 40233 51011 60006 82100 91200=
07020,1998-06-16 18:00:00,15,1024.8,0.5,82,12,40000,25.928,,,270,12.9,15.9,,,,,,,,,wg-a,,,,AAXX 16184 07020 12682 72714 10150 20120 30231 40248 53005 60006 81105 91800 333 10159 20129=
07020,1998-06-17 00:00:00,14,1026.4,0.6,88,12,0,22.224,,,290,,,,,,,,,,,wg-a,,,,AAXX 17004 07020 12/// /2912 10140 20120 30247 40264 50006 60006 90000=
07020,1998-06-17 06:00:00,13,1027.2,0.6,88,11,45000,14.816,,,280,12.5,14.6,,,,,,,,,wg-a,,,,AAXX 17064 07020 12683 52808 10130 20110 30255 40272 53006 60006 82105 90600 333 10146 20125=
07020,1998-06-17 12:00:00,16,1028.1,0.4,82,13,45000,25.928,,,250,,,,,,,,,,,wg-a,,,,AAXX 17124 07020 12683 82514 10160 20130 30264 40281 51004 60006 8423/ 91200=
07020,1998-06-17 18:00:00,15,1026.5,-1.1,77,11,40000,14.816,,,230,12.9,17,,,,,,,,,wg-a,,,,AAXX 17184 07020 12882 72308 10150 20110 30248 40265 58011 60006 87050 91800 333 10170 20129=
07020,1998-06-18 00:00:00,13,1025.9,-0.5,94,12,0,14.816,,,220,,,,,,,,,,,wg-a,,,,AAXX 18004 07020 12/// /2208 10130 20120 30242 40259 58005 60006 90000=
07020,1998-06-18 06:00:00,14,1024.6,-0.2,88,12,500,22.224,,,220,12.9,14.8,,,,,,,,,wg-a,,,,AAXX 18064 07020 12800 82212 10140 20120 30229 40246 58002 60006 8809/ 90600 333 10148 20129=
07020,1998-06-18 12:00:00,17,1025.5,0.4,82,14,22000,25.928,,,220,,,,,,,,,,,wg-a,,,,AAXX 18124 07020 12672 52214 10170 20140 30238 40255 51004 60006 82445 91200=
07020,1998-06-18 18:00:00,16,1024.6,-0.8,82,13,22000,18.52,,,230,13.9,17.9,,,,,,,,,wg-a,,,,AAXX 18184 07020 12/72 62310 10160 20130 30229 40246 58008 60006 83035 91800 333 10179 20139=
07020,1998-06-19 00:00:00,13,1024.6,-0.6,88,11,0,7.408,,,210,,,,,,,,,,,wg-a,,,,AAXX 19004 07020 12/// /2104 10130 20110 30229 40246 56006 60006 90000=
07020,1998-06-19 06:00:00,14,1023.3,-0.2,94,13,20000,11.112,,,100,11.9,16.4,,,,,,,,,wg-a,,,,AAXX 19064 07020 12/70 61006 10140 20130 30216 40233 58002 60006 80005 90600 333 10164 20119=
07020,1998-06-19 12:00:00,23,1022.5,-0.6,53,13,500,14.816,,,200,,,,,,,,,,,wg-a,,,,AAXX 19124 07020 12/00 52008 10230 20130 30209 40225 56006 60006 80005 91200=
07020,1998-06-19 18:00:00,20,1020.4,-0.9,73,15,500,14.816,,,100,14.1,23.6,,,,,,,,,wg-a,,,,AAXX 19184 07020 12/00 61008 10200 20150 30187 40204 58009 60006 80005 91800 333 10236 20141=
07020,1998-06-20 00:00:00,22,1019,-0.7,60,14,0,25.928,,,160,,,,,,,,,,,wg-a,,,,AAXX 20004 07020 12/// /1614 10220 20140 30174 40190 55007 60006 90000=
07020,1998-06-20 06:00:00,23,1017.1,-0.5,61,15,24000,29.632,,,180,16.5,23.3,,,,,,,,,wg-a,,,,AAXX 20064 07020 12/74 61816 10230 20150 30155 40171 55005 60006 86090 90600 333 10233 20165=
07020,1998-06-20 12:00:00,25,1016.4,-1.3,61,17,35000,22.224,,53.708,110,,,,,,,,,,,wg-a,,,,AAXX 20124 07020 12/81 41112 10250 20170 30148 40164 58013 60006 80005 91200 333 91029=
07020,1998-06-20 18:00:00,22,1013.2,-1.5,69,16,22000,11.112,,,120,19.7,25.6,,,,,,,,,wg-a,,,,AAXX 20184 07020 12/72 21206 10220 20160 30116 40132 56015 60006 80005 91800 333 10256 20197=
07020,1998-06-21 00:00:00,16,1015.9,1.7,94,15,0,29.632,,,230,,,,,,,,,,,wg-a,,,,AAXX 21004 07020 12/// /2316 10160 20150 30142 40159 53017 60006 90000=
07020,1998-06-21 06:00:00,14,1018,1.4,100,14,1100,25.928,,,270,13.7,29.2,,,,,,,,10,wg-a,,,,AAXX 21064 07020 12411 82714 10140 20140 30163 40180 51014 60006 710// 886// 90600 333 10292 20137=
07020,1998-06-21 12:00:00,17,1021.2,1.4,82,14,24000,18.52,,,270,,,,,,,,,,,wg-a,,,,AAXX 21124 07020 12674 32710 10170 20140 30195 40212 51014 60006 82140 91200=
07020,1998-06-21 18:00:00,15,1022.1,0.5,94,14,25000,29.632,,,250,13.3,18.1,,,,,,,,,wg-a,,,,AAXX 21184 07020 12675 32516 10150 20140 30204 40221 51005 60006 81185 91800 333 10181 20133=
07020,1998-06-22 00:00:00,14,1024.5,1,100,14,0,22.224,,,260,,,,,,,,,,,wg-a,,,,AAXX 22004 07020 12/// /2612 10140 20140 30228 40245 51010 60006 90000=
07020,1998-06-22 06:00:00,15,1024.8,0.6,94,14,20000,25.928,,,260,13.7,16.2,,,,,,,,,wg-a,,,,AAXX 22064 07020 12670 52614 10150 20140 30231 40248 53006 60006 82205 90600 333 10162 20137=
07020,1998-06-22 12:00:00,17,1026,0.2,88,15,20000,25.928,,,260,,,,,,,,,,,wg-a,,,,AAXX 22124 07020 12670 62614 10170 20150 30243 40260 51002 60006 82205 91200=
07020,1998-06-22 18:00:00,16,1025.2,-1,88,14,20000,22.224,,,230,14.4,18.6,,,,,,,,,wg-a,,,,AAXX 22184 07020 12670 52312 10160 20140 30235 40252 58010 60006 81105 91800 333 10186 20144=
07020,1998-06-23 00:00:00,14,1024.8,-0.5,94,13,0,22.224,,,230,,,,,,,,,,,wg-a,,,,AAXX 23004 07020 12/// /2312 10140 20130 30231 40248 58005 60006 90000=
07020,1998-06-23 06:00:00,14,1023,-0.2,94,13,16000,35.188,,,240,13.5,15.8,,,,,,,,,wg-a,,,,AAXX 23064 07020 32666 82419 10140 20130 30213 40230 55002 885// 90600 333 10158 20135=
07020,1998-06-23 12:00:00,16,1022.3,-0.5,88,14,16000,29.632,,,230,,,,,,,,,,2,wg-a,,,,AAXX 23124 07020 12666 82316 10160 20140 30206 40223 56005 60016 70262 885// 91200=
07020,1998-06-23 18:00:00,16,1020.2,-1.4,88,14,20000,18.52,,,230,14.1,17,,,,,,,,,wg-a,,,,AAXX 23184 07020 32870 82310 10160 20140 30185 40202 58014 8807/ 91800 333 10170 20141=
07020,1998-06-24 00:00:00,14,1018,-1.5,100,14,0,14.816,,,210,,,,,,,,,,,wg-a,,,,AAXX 24004 07020 12/// /2108 10140 20140 30163 40180 58015 60006 90000=
07020,1998-06-24 06:00:00,16,1015.2,-1.1,94,15,18000,18.52,,,200,13.5,15.8,,,,,,,,,wg-a,,,,AAXX 24064 07020 12668 62010 10160 20150 30135 40152 56011 60006 86800 90600 333 10158 20135=
07020,1998-06-24 12:00:00,19,1013.5,-0.9,78,15,20000,31.484,,,200,,,,,,,,,,,wg-a,,,,AAXX 24124 07020 12/70 62017 10190 20150 30119 40135 56009 60006 85075 91200=
07020,1998-06-24 18:00:00,14,1012.6,-0.5,94,13,10000,14.816,,,270,14.1,19.6,,2,,,,,,61,wg-a,,,,AAXX 24184 07020 12560 82708 10140 20130 30109 40126 56005 60027 76165 8472/ 91800 333 10196 20141=
07020,1998-06-25 00:00:00,14,1012.2,-0.7,94,13,0,18.52,,,260,,,,,,,,,,,wg-a,,,,AAXX 25004 07020 12/// /2610 10140 20130 30105 40122 56007 60036 90000=
07020,1998-06-25 06:00:00,14,1012.5,0.8,94,13,20000,18.52,,,270,12.6,14.3,,,,,,,,,wg-a,,,,AAXX 25064 07020 02570 62710 10140 20130 30108 40125 53008 61000 84770 90600 333 10143 20126 ////=
07020,1998-06-25 12:00:00,18,1014.3,0.5,77,14,500,25.928,,,260,,,,,,,,,,,wg-a,,,,AAXX 25124 07020 12600 32614 10180 20140 30126 40143 51005 60006 81130 91200=
07020,1998-06-25 18:00:00,16,1014.2,-0.3,82,13,500,29.632,,,250,13.8,17.9,,,,,,,,,wg-a,,,,AAXX 25184 07020 12800 62516 10160 20130 30125 40142 58003 60006 81035 91800 333 10179 20138=
07020,1998-06-26 00:00:00,14,1014.3,-0.6,88,12,0,31.484,,,250,,,,,,,,,,,wg-a,,,,AAXX 26004 07020 12/// /2517 10140 20120 30126 40143 57006 60006 90000=
07020,1998-06-26 06:00:00,14,1012.9,-0.4,88,12,20000,31.484,,,220,13.6,15.8,,,,,,,,,wg-a,,,,AAXX 26064 07020 12870 72217 10140 20120 30112 40129 57004 60006 8707/ 90600 333 10158 20136=
07020,1998-06-26 12:00:00,17,1013.1,0.3,82,14,500,31.484,,,220,,,,,,,,,,2,wg-a,,,,AAXX 26124 07020 12800 82217 10170 20140 30114 40131 51003 60006 70282 8807/ 91200=
07020,1998-06-26 18:00:00,15,1012.3,-0.1,88,13,20000,29.632,,,230,13.5,17.5,,0,,,,,,2,wg-a,,,,AAXX 26184 07020 12870 82316 10150 20130 30106 40123 58001 60007 70282 8807/ 91800 333 10175 20135=
07020,1998-06-27 00:00:00,15,1009.9,-1.6,88,13,0,35.188,,,220,,,,,,,,,,,wg-a,,,,AAXX 27004 07020 12/// /2219 10150 20130 30082 40099 58016 60016 90000=
07020,1998-06-27 06:00:00,13,1008.7,0.4,100,13,8000,35.188,,,250,13.1,15,,5,,,,,,61,wg-a,,,,AAXX 27064 07020 12558 82519 10130 20130 30070 40087 53004 60057 761// 887// 90600 333 10150 20131=
07020,1998-06-27 12:00:00,17,1010.1,1,82,14,24000,31.484,,94.452,260,,,,,,,,,,1,wg-a,,,,AAXX 27124 07020 12674 42617 10170 20140 30084 40101 53010 60016 70162 8223/ 91200 333 91051=
07020,1998-06-27 18:00:00,16,1011.4,0.5,82,13,20000,38.892,,,260,13.2,17.1,,,,,,,,,wg-a,,,,AAXX 27184 07020 32670 42621 10160 20130 30097 40114 53005 82208 91800 333 10171 20132=
07020,1998-06-28 00:00:00,14,1014.6,1.3,88,12,0,35.188,,,270,,,,,,,,,,,wg-a,,,,AAXX 28004 07020 12/// /2719 10140 20120 30129 40146 51013 60006 90000=
07020,1998-06-28 06:00:00,14,1016.6,1,88,12,20000,29.632,,,270,13.8,16,,,,,,,,,wg-a,,,,AAXX 28064 07020 12/70 02716 10140 20120 30149 40166 53010 60006 80000 90600 333 10160 20138=
07020,1998-06-28 12:00:00,17,1019.2,0.9,82,14,22000,31.484,,,260,,,,,,,,,,,wg-a,,,,AAXX 28124 07020 12672 72617 10170 20140 30175 40192 53009 60006 87230 91200=
07020,1998-06-28 18:00:00,15,1019.8,-0,88,13,500,31.484,,,270,14.2,18,,,,,,,,,wg-a,,,,AAXX 28184 07020 12800 72717 10150 20130 30181 40198 54000 60006 8707/ 91800 333 10180 20142=
07020,1998-06-29 00:00:00,14,1020.8,0.3,94,13,0,29.632,,,270,,,,,,,,,,,wg-a,,,,AAXX 29004 07020 12/// /2716 10140 20130 30191 40208 50003 60006 90000=
07020,1998-06-29 06:00:00,14,1020.6,0.1,88,12,24000,18.52,,,270,13.7,15,,,,,,,,,wg-a,,,,AAXX 29064 07020 12674 82710 10140 20120 30189 40206 53001 60006 8/22/ 90600 333 10150 20137=
07020,1998-06-29 12:00:00,17,1021,-0.2,82,14,500,25.928,,,260,,,,,,,,,,,wg-a,,,,AAXX 29124 07020 12600 72614 10170 20140 30193 40210 56002 60006 8521/ 91200=
07020,1998-06-29 18:00:00,16,1019.4,-1.2,82,13,45000,25.928,,,260,14.2,17.7,,,,,,,,,wg-a,,,,AAXX 29184 07020 12683 32614 10160 20130 30177 40194 56012 60006 83205 91800 333 10177 20142=
07020,1998-06-30 00:00:00,15,1017.1,-1.5,88,13,0,35.188,,,240,,,,,,,,,,,wg-a,,,,AAXX 30004 07020 12/// /2419 10150 20130 30154 40171 58015 60006 90000=
07020,1998-06-30 06:00:00,15,1013.5,-1.2,100,15,4000,35.188,,,260,14.2,16.4,,7,,,,,,61,wg-a,,,,AAXX 30064 07020 12540 82619 10150 20150 30118 40135 56012 60077 7616/ 8472/ 90600 333 10164 20142=
07020,1998-06-30 12:00:00,17,1014.6,0.9,88,15,20000,11.112,,,290,,,,,,,,,,2,wg-a,,,,AAXX 30124 07020 02670 62906 10170 20150 30129 40146 53009 61000 70262 86500 91200 333 6100=
07020,1998-06-30 18:00:00,16,1014.5,-0.5,88,14,500,11.112,,,280,14.7,18.1,,,,,,,,,wg-a,,,,AAXX 30184 07020 32/00 62806 10160 20140 30128 40145 56005 80002 91800 333 10181 20147=
07020,1998-07-01 00:00:00,15,1014.9,0.3,88,13,0,3.704,,,10,,,,,,,,,,,wg-a,,,,AAXX 01004 07020 12/// /0102 10150 20130 30132 40149 53003 60006 90000=
07020,1998-07-01 06:00:00,15,1013.9,0.7,94,14,18000,18.52,,,110,13.6,16.4,,,,,,,,,wg-a,,,,AAXX 01064 07020 12868 71110 10150 20140 30122 40139 53007 60006 8701/ 90600 333 10164 20136=
07020,1998-07-01 12:00:00,16,1014.5,0.4,82,13,18000,35.188,,,70,,,,,,,,,,,wg-a,,,,AAXX 01124 07020 12568 80719 10160 20130 30128 40145 52004 60006 8377/ 91200=
07020,1998-07-01 18:00:00,16,1013.8,-0.3,82,13,20000,31.484,,,80,14.9,16.4,,,,,,,,,wg-a,,,,AAXX 01184 07020 12870 80817 10160 20130 30121 40138 55003 60006 8807/ 91800 333 10164 20149=
07020,1998-07-02 00:00:00,15,1015.5,0.4,88,13,0,42.596,,,80,,,,,,,,,,,wg-a,,,,AAXX 02004 07020 12/// /0823 10150 20130 30138 40155 51004 60006 90000=
07020,1998-07-02 06:00:00,14,1015.1,-0,88,12,20000,50.004,,94.452,70,14,15.6,,,,,,,,,wg-a,,,,AAXX 02064 07020 12870 70727 10140 20120 30134 40151 55000 60006 8707/ 90600 333 10156 20140 91051=
07020,1998-07-02 12:00:00,16,1017.4,0.5,82,13,20000,42.596,,,70,,,,,,,,,,,wg-a,,,,AAXX 02124 07020 12670 70723 10160 20130 30157 40174 50005 60006 83770 91200=
07020,1998-07-02 18:00:00,16,1018.1,0.9,82,13,20000,35.188,,,70,14,16.9,,,,,,,,,wg-a,,,,AAXX 02184 07020 12870 50719 10160 20130 30164 40181 50009 60006 85050 91800 333 10169 20140=
07020,1998-07-03 00:00:00,15,1020,1.1,88,13,0,35.188,,,70,,,,,,,,,,,wg-a,,,,AAXX 03004 07020 12/// /0719 10150 20130 30183 40200 51011 60006 90000=
07020,1998-07-03 06:00:00,14,1021.4,1.3,82,11,20000,35.188,,,60,13.4,16.2,,,,,,,,,wg-a,,,,AAXX 03064 07020 12870 40619 10140 20110 30197 40214 51013 60006 84060 90600 333 10162 20134=
07020,1998-07-03 12:00:00,16,1024.4,1.5,72,11,20000,22.224,,,40,,,,,,,,,,,wg-a,,,,AAXX 03124 07020 12870 60412 10160 20110 30227 40244 52015 60006 86020 91200=
07020,1998-07-03 18:00:00,16,1024.8,0.3,77,12,20000,18.52,,,250,13.5,18.6,,,,,,,,,wg-a,,,,AAXX 03184 07020 12870 82510 10160 20120 30231 40248 51003 60006 88020 91800 333 10186 20135=
07020,1998-07-04 06:00:00,14,1025.3,0.5,88,12,20000,14.816,,,290,13.4,15.6,,,,,,,,,wg-a,,,,AAXX 04064 07020 12770 42908 10140 20120 30236 40253 50005 60006 81105 90600 333 10156 20134=
07020,1998-07-04 12:00:00,17,1026.6,0.4,72,12,20000,14.816,,,290,,,,,,,,,,,wg-a,,,,AAXX 04124 07020 12870 42908 10170 20120 30249 40266 50004 60006 81208 91200=
07020,1998-07-04 18:00:00,17,1025.8,-0.7,82,14,20000,22.224,,,290,14,17.9,,,,,,,,,wg-a,,,,AAXX 04184 07020 12/70 62912 10170 20140 30241 40258 56007 60006 80008 91800 333 10179 20140=
07020,1998-07-05 00:00:00,15,1024.8,-0.9,94,14,0,18.52,,,300,,,,,,,,,,,wg-a,,,,AAXX 05004 07020 12/// /3010 10150 20140 30231 40248 56009 60006 90000=
07020,1998-07-05 06:00:00,15,1022.9,-0.9,88,13,24000,22.224,,,270,14.8,16.9,,,,,,,,,wg-a,,,,AAXX 05064 07020 12874 82712 10150 20130 30212 40229 56009 60006 8807/ 90600 333 10169 20148=
07020,1998-07-05 12:00:00,17,1022.4,-0.4,82,14,20000,22.224,,,270,,,,,,,,,,,wg-a,,,,AAXX 05124 07020 12770 22712 10170 20140 30207 40224 58004 60006 82200 91200=
07020,1998-07-05 18:00:00,16,1020.3,-1.4,88,14,20000,29.632,,,260,14.9,18.5,,,,,,,,,wg-a,,,,AAXX 05184 07020 12/70 72616 10160 20140 30186 40203 56014 60006 8705/ 91800 333 10185 20149=
07020,1998-07-06 00:00:00,15,1018.5,-1.1,94,14,0,18.52,,,280,,,,,,,,,,,wg-a,,,,AAXX 06004 07020 12/// /2810 10150 20140 30168 40185 58011 60006 90000=
07020,1998-07-06 06:00:00,15,1015.9,-1.1,94,14,40000,25.928,,,270,14.7,15.9,,,,,,,,,wg-a,,,,AAXX 06064 07020 12882 82714 10150 20140 30142 40159 56011 60006 8807/ 90600 333 10159 20147=
07020,1998-07-06 12:00:00,17,1015.3,-0.4,82,14,50000,18.52,,,240,,,,,,,,,,,wg-a,,,,AAXX 06124 07020 12684 72410 10170 20140 30136 40153 58004 60006 875// 91200=
07020,1998-07-06 18:00:00,16,1013.2,-1.3,88,14,50000,11.112,,,280,14.5,18.1,,,,,,,,,wg-a,,,,AAXX 06184 07020 12684 72806 10160 20140 30115 40132 56013 60006 875// 91800 333 10181 20145=
07020,1998-07-07 00:00:00,15,1012.9,-0.4,100,15,0,7.408,,,250,,,,,,,,,,,wg-a,,,,AAXX 07004 07020 12/// /2504 10150 20150 30112 40129 58004 60016 90000=
07020,1998-07-07 06:00:00,15,1012.8,0.4,94,14,12000,25.928,,,80,14.7,15.8,,0,,,,,,,wg-a,,,,AAXX 07064 07020 12562 80814 10150 20140 30111 40128 53004 60007 886// 90600 333 10158 20147=
07020,1998-07-07 12:00:00,16,1016.1,1.3,82,13,8000,22.224,,,90,,,,0,,,,,,2,wg-a,,,,AAXX 07124 07020 02558 80912 10160 20130 30144 40161 53013 60006 70265 8472/ 91200 333 60007=
07020,1998-07-07 18:00:00,18,1016.8,-0,77,14,18000,11.112,,,290,14.7,19.1,,,,,,,,,wg-a,,,,AAXX 07184 07020 32/68 52906 10180 20140 30151 40168 55000 80002 91800 333 10191 20147=
07020,1998-07-08 00:00:00,14,1018.2,-0.1,82,11,0,22.224,,,340,,,,,,,,,,,wg-a,,,,AAXX 08004 07020 12/// /3412 10140 20110 30165 40182 56001 60006 90000=
07020,1998-07-08 06:00:00,14,1019.1,1.1,82,11,50000,29.632,,,340,13.9,17.6,,,,,,,,,wg-a,,,,AAXX 08064 07020 12/84 33416 10140 20110 30174 40191 53011 60006 83030 90600 333 10176 20139=
07020,1998-07-08 12:00:00,17,1019.8,0.1,72,12,50000,14.816,,,280,,,,,,,,,,,wg-a,,,,AAXX 08124 07020 12784 42808 10170 20120 30181 40198 52001 60006 81205 91200=
07020,1998-07-08 18:00:00,16,1018.9,-0.7,82,13,10000,25.928,,,280,14,18.2,,,,,,,,,wg-a,,,,AAXX 08184 07020 12660 82814 10160 20130 30172 40189 55007 60006 8453/ 91800 333 10182 20140=
07020,1998-07-09 00:00:00,15,1017.7,-1,88,13,0,31.484,,,270,,,,,,,,,,,wg-a,,,,AAXX 09004 07020 12/// /2717 10150 20130 30160 40177 58010 60006 90000=
07020,1998-07-09 06:00:00,14,1015.8,-0.1,94,13,4000,31.484,,,270,14.4,15.7,,1,,,,,,61,wg-a,,,,AAXX 09064 07020 12540 82717 10140 20130 30141 40158 56001 60017 761// 887// 90600 333 10157 20144=
07020,1998-07-09 12:00:00,16,1015.9,0.4,100,16,2000,25.928,,,260,,,,,,,,,,50,wg-a,,,,AAXX 09124 07020 02320 82614 10160 20160 30142 40159 53004 60016 75065 8572/ 91200 333 61000=
07020,1998-07-09 18:00:00,16,1015,-0.7,94,15,1200,31.484,,,260,14.3,16.5,,,,,,,,2,wg-a,,,,AAXX 09184 07020 32512 82617 10160 20150 30133 40150 58007 70252 887// 91800 333 10165 20143=
07020,1998-07-10 00:00:00,15,1015.6,-0.3,94,14,0,25.928,,,270,,,,,,,,,,,wg-a,,,,AAXX 10004 07020 12/// /2714 10150 20140 30139 40156 58003 60006 90000=
07020,1998-07-10 06:00:00,15,1015.2,0.4,100,15,12000,22.224,,,280,14.9,15.6,,,,,,,,,wg-a,,,,AAXX 10064 07020 12562 82812 10150 20150 30135 40152 53004 60006 8472/ 90600 333 10156 20149=
07020,1998-07-10 12:00:00,16,1015.7,0.2,88,14,18000,31.484,,,260,,,,,,,,,,,wg-a,,,,AAXX 10124 07020 12568 82617 10160 20140 30140 40157 50002 60006 887// 91200=
07020,1998-07-10 18:00:00,16,1014,-1.3,94,15,10000,35.188,,,240,15,17.4,,,,,,,,2,wg-a,,,,AAXX 10184 07020 32560 82419 10160 20150 30123 40140 58013 70252 887// 91800 333 10174 20150=
07020,1998-07-11 00:00:00,16,1014.4,0.1,88,14,0,35.188,,,270,,,,,,,,,,,wg-a,,,,AAXX 11004 07020 12/// /2719 10160 20140 30127 40144 52001 60006 90000=
07020,1998-07-11 06:00:00,15,1015.9,1.2,94,14,15000,29.632,,,280,14.8,15.6,,,,,,,,,wg-a,,,,AAXX 11064 07020 12565 62816 10150 20140 30142 40159 53012 60006 82570 90600 333 10156 20148=
07020,1998-07-11 12:00:00,17,1015.9,-0.8,82,14,12000,38.892,,,260,,,,,,,,,,,wg-a,,,,AAXX 11124 07020 12662 82621 10170 20140 30142 40159 58008 60006 885// 91200=
07020,1998-07-11 18:00:00,16,1011.6,-2.2,94,15,15000,61.116,,90.748,240,14.7,17.5,,2,,,,,,21,wg-a,,,,AAXX 11184 07020 12565 82433 10160 20150 30099 40116 56022 60027 72162 8/72/ 91800 333 10175 20147 91049=
07020,1998-07-12 00:00:00,16,1010.4,-0.4,94,15,0,57.412,,,260,,,,,,,,,,,wg-a,,,,AAXX 12004 07020 12/// /2631 10160 20150 30087 40104 56004 60006 90000=
07020,1998-07-12 06:00:00,15,1010.2,-0.1,100,15,2000,53.708,,,260,15.3,16,,,,,,,,,wg-a,,,,AAXX 12064 07020 32420 82629 10150 20150 30085 40102 58001 887// 90600 333 10160 20153=
07020,1998-07-12 12:00:00,17,1008.2,-0.9,88,15,15000,57.412,,83.34,240,,,,,,,,,,2,wg-a,,,,AAXX 12124 07020 02565 82431 10170 20150 30066 40082 58009 61000 70265 887// 91200 333 6100 91045=
07020,1998-07-12 18:00:00,16,1006.4,-0.7,100,16,10000,50.004,,87.044,240,15.2,17.2,,1,,,,,,21,wg-a,,,,AAXX 12184 07020 12560 82427 10160 20160 30048 40064 56007 60017 72162 887// 91800 333 10172 20152 91047=
07020,1998-07-13 00:00:00,15,1008,0.6,94,14,0,25.928,,,280,,,,,,,,,,,wg-a,,,,AAXX 13004 07020 12/// /2814 10150 20140 30063 40080 51006 60006 90000=
07020,1998-07-13 06:00:00,14,1009.6,1.2,88,12,22000,29.632,,,290,14.1,16,,,,,,,,,wg-a,,,,AAXX 13064 07020 32572 52916 10140 20120 30079 40096 53012 82162 90600 333 10160 20141=
07020,1998-07-13 12:00:00,16,1011.7,0.6,77,12,22000,31.484,,,280,,,,,,,,,,,wg-a,,,,AAXX 13124 07020 12672 42817 10160 20120 30100 40117 51006 60006 83150 91200=
07020,1998-07-13 18:00:00,16,1014.2,1,77,12,25000,31.484,,,280,14.3,17.3,,,,,,,,,wg-a,,,,AAXX 13184 07020 12675 12817 10160 20120 30125 40142 53010 60006 81100 91800 333 10173 20143=
07020,1998-07-14 00:00:00,15,1015.9,0.2,88,13,0,29.632,,,280,,,,,,,,,,,wg-a,,,,AAXX 14004 07020 12/// /2816 10150 20130 30142 40159 50002 60006 90000=
07020,1998-07-14 06:00:00,15,1016.2,0.7,88,13,20000,25.928,,,290,14.3,16.5,,,,,,,,,wg-a,,,,AAXX 14064 07020 12670 12914 10150 20130 30145 40162 53007 60006 81100 90600 333 10165 20143=
07020,1998-07-14 12:00:00,16,1018.1,0.7,82,13,20000,29.632,,,280,,,,,,,,,,,wg-a,,,,AAXX 14124 07020 12670 42816 10160 20130 30164 40181 51007 60006 83102 91200=
07020,1998-07-14 18:00:00,15,1017.3,-0.9,88,13,20000,31.484,,,270,14.5,17.2,,,,,,,,,wg-a,,,,AAXX 14184 07020 12670 62717 10150 20130 30156 40173 58009 60006 82230 91800 333 10172 20145=
07020,1998-07-15 00:00:00,15,1017.4,-0.3,88,13,0,31.484,,,270,,,,,,,,,,,wg-a,,,,AAXX 15004 07020 12/// /2717 10150 20130 30157 40174 58003 60006 90000=
07020,1998-07-15 06:00:00,15,1016.4,-0.3,88,13,18000,25.928,,,270,14.7,15.8,,,,,,,,,wg-a,,,,AAXX 15064 07020 12568 72714 10150 20130 30147 40164 56003 60006 8677/ 90600 333 10158 20147=
07020,1998-07-15 12:00:00,17,1017.5,0.5,82,14,20000,38.892,,,260,,,,,,,,,,2,wg-a,,,,AAXX 15124 07020 02670 82621 10170 20140 30158 40175 51005 61000 70282 8423/ 91200 333 ////=
07020,1998-07-15 18:00:00,16,1016.3,-0.8,82,13,20000,29.632,,,260,14.8,17.9,,,,,,,,,wg-a,,,,AAXX 15184 07020 32670 82616 10160 20130 30146 40163 57008 8327/ 91800 333 10179 20148=
07020,1998-07-16 00:00:00,13,1014.1,-1.3,94,12,0,22.224,,,230,,,,,,,,,,,wg-a,,,,AAXX 16004 07020 12/// /2312 10130 20120 30124 40141 58013 60086 90000=
07020,1998-07-16 06:00:00,16,1008.5,-1.6,94,15,1500,31.484,,,270,12.8,15.8,,4,,,,,,51,wg-a,,,,AAXX 16064 07020 12415 82717 10160 20150 30068 40085 55016 60047 751// 887// 90600 333 10158 20128=
07020,1998-07-16 12:00:00,16,1011.6,1.7,94,15,12000,14.816,,,280,,,,,,,,,,2,wg-a,,,,AAXX 16124 07020 12562 82808 10160 20150 30099 40116 51017 60006 70265 887// 91200=
07020,1998-07-16 18:00:00,17,1013.3,0.7,82,14,40000,7.408,,,20,15.3,17.8,,,,,,,,,wg-a,,,,AAXX 16184 07020 32682 60204 10170 20140 30116 40133 50007 82105 91800 333 10178 20153=
07020,1998-07-17 00:00:00,15,1014.2,-0.7,94,14,0,35.188,,,260,,,,,,,,,,,wg-a,,,,AAXX 17004 07020 12/// /2619 10150 20140 30125 40142 58007 60006 90000=
07020,1998-07-17 06:00:00,15,1010.8,-1.7,100,15,1500,42.596,,,220,14.5,17,,1,,,,,,51,wg-a,,,,AAXX 17064 07020 12415 82223 10150 20150 30091 40108 56017 60017 751// 887// 90600 333 10170 20145=
07020,1998-07-17 12:00:00,18,1012.8,1.1,83,15,18000,42.596,,,260,,,,,,,,,,1,wg-a,,,,AAXX 17124 07020 12668 62623 10180 20150 30112 40128 51011 60006 70165 83230 91200=
07020,1998-07-17 18:00:00,17,1014.4,0.4,82,14,18000,35.188,,,260,15.1,18.2,,,,,,,,,wg-a,,,,AAXX 17184 07020 32668 22619 10170 20140 30127 40144 52004 82100 91800 333 10182 20151=
07020,1998-07-18 00:00:00,15,1014.9,-0.3,94,14,0,35.188,,,260,,,,,,,,,,,wg-a,,,,AAXX 18004 07020 12/// /2619 10150 20140 30132 40149 58003 60006 90000=
07020,1998-07-18 06:00:00,15,1014.2,0.3,100,15,16000,29.632,,,260,14.7,16.8,,,,,,,,,wg-a,,,,AAXX 18064 07020 12666 82616 10150 20150 30125 40142 53003 60006 887// 90600 333 10168 20147=
07020,1998-07-18 12:00:00,16,1015.4,0.5,94,15,18000,29.632,,,250,,,,0,,,,,,21,wg-a,,,,AAXX 18124 07020 02568 82516 10160 20150 30137 40154 52005 60016 72162 8477/ 91200 333 60007=
07020,1998-07-18 18:00:00,17,1016,0.1,82,14,40000,22.224,,,260,14.5,19.1,,,,,,,,2,wg-a,,,,AAXX 18184 07020 32/82 42612 10170 20140 30143 40160 53001 70261 80002 91800 333 10191 20145=
07020,1998-07-19 00:00:00,14,1016.3,-0.2,100,14,0,14.816,,,230,,,,,,,,,,,wg-a,,,,AAXX 19004 07020 12/// /2308 10140 20140 30146 40163 58002 60006 90000=
07020,1998-07-19 06:00:00,15,1014.5,-0.6,88,13,20000,18.52,,,180,12.6,17.4,,,,,,,,,wg-a,,,,AAXX 19064 07020 12/70 31810 10150 20130 30128 40145 55006 60006 80005 90600 333 10174 20126=
07020,1998-07-19 12:00:00,23,1012.6,-1.3,57,14,35000,18.52,,,210,,,,,,,,,,,wg-a,,,,AAXX 19124 07020 12681 52110 10230 20140 30110 40126 58013 60006 81102 91200=
07020,1998-07-19 18:00:00,19,1011.2,-0.5,78,15,500,7.408,,,300,15.3,23.8,,,,,,,,,wg-a,,,,AAXX 19184 07020 12/00 53004 10190 20150 30096 40112 55005 60006 80005 91800 333 10238 20153=
07020,1998-07-20 00:00:00,17,1010.8,-0.6,77,13,0,0,,,0,,,,,,,,,,,wg-a,,,,AAXX 20004 07020 12/// /0000 10170 20130 30091 40108 57006 60006 90000=
07020,1998-07-20 06:00:00,17,1009,-0.8,88,15,20000,22.224,,,200,14.5,19.6,,,,,,,,,wg-a,,,,AAXX 20064 07020 12/70 32012 10170 20150 30073 40090 56008 60006 80002 90600 333 10196 20145=
07020,1998-07-20 12:00:00,21,1007.7,-0.8,73,16,16000,22.224,,,210,,,,,,,,,,,wg-a,,,,AAXX 20124 07020 12666 32112 10210 20160 30061 40077 58008 60006 81105 91200=
07020,1998-07-20 18:00:00,19,1005,-1,83,16,18000,7.408,,,120,16.6,21.9,,,,,,,,3,wg-a,,,,AAXX 20184 07020 32/68 71204 10190 20160 30034 40050 58010 70382 8707/ 91800 333 10219 20166=
07020,1998-07-21 00:00:00,16,1005.1,1.1,94,15,0,35.188,,,230,,,,,,,,,,,wg-a,,,,AAXX 21004 07020 12/// /2319 10160 20150 30035 40051 51011 60006 90000=
07020,1998-07-21 06:00:00,16,1008,1.4,88,14,16000,35.188,,,260,15,20.1,,,,,,,,,wg-a,,,,AAXX 21064 07020 12666 32619 10160 20140 30063 40080 52014 60006 83200 90600 333 10201 20150=
07020,1998-07-21 12:00:00,19,1012.1,1.9,78,15,18000,29.632,,,240,,,,,,,,,,2,wg-a,,,,AAXX 21124 07020 02668 52416 10190 20150 30105 40121 51019 61000 70281 82290 91200 333 ////=
07020,1998-07-21 18:00:00,17,1014,0.7,82,14,18000,38.892,,,260,15.5,19.6,,,,,,,,,wg-a,,,,AAXX 21184 07020 32668 32621 10170 20140 30123 40140 53007 81105 91800 333 10196 20155=
07020,1998-07-22 00:00:00,15,1016.7,0.7,94,14,0,29.632,,,250,,,,,,,,,,,wg-a,,,,AAXX 22004 07020 12/// /2516 10150 20140 30150 40167 53007 60006 90000=
07020,1998-07-22 06:00:00,16,1016.6,0.2,88,14,18000,22.224,,,210,14.4,17.1,,0,,,,,,,wg-a,,,,AAXX 22064 07020 12668 62112 10160 20140 30149 40166 53002 60007 8223/ 90600 333 10171 20144=
07020,1998-07-22 12:00:00,19,1015,-1,78,15,18000,38.892,,64.82,190,,,,,,,,,,,wg-a,,,,AAXX 22124 07020 12668 71921 10190 20150 30133 40150 56010 60006 8317/ 91200 333 91035=
07020,1998-07-22 18:00:00,16,1013.5,-0,94,15,1500,22.224,,,270,15.7,20.5,,3,,,,,,21,wg-a,,,,AAXX 22184 07020 12415 82712 10160 20150 30118 40135 55000 60037 72186 887// 91800 333 10205 20157=
07020,1998-07-23 00:00:00,16,1013.2,-0,94,15,0,18.52,,,220,,,,,,,,,,,wg-a,,,,AAXX 23004 07020 12/// /2210 10160 20150 30115 40132 54000 60016 90000=
07020,1998-07-23 06:00:00,16,1012.6,0.6,100,16,10000,42.596,,,250,15.2,16.3,,0,,,,,,,wg-a,,,,AAXX 23064 07020 12560 72523 10160 20160 30109 40126 53006 60007 877// 90600 333 10163 20152=
07020,1998-07-23 12:00:00,19,1016,1.8,78,15,22000,29.632,,,260,,,,,,,,,,,wg-a,,,,AAXX 23124 07020 12672 62616 10190 20150 30143 40160 51018 60006 86500 91200=
07020,1998-07-23 18:00:00,17,1019,1.5,82,14,500,18.52,,,280,16.3,19.3,,,,,,,,,wg-a,,,,AAXX 23184 07020 12/00 12810 10170 20140 30173 40190 51015 60006 80008 91800 333 10193 20163=
07020,1998-07-24 00:00:00,15,1021.5,0.6,88,13,0,25.928,,,350,,,,,,,,,,,wg-a,,,,AAXX 24004 07020 12/// /3514 10150 20130 30198 40215 51006 60006 90000=
07020,1998-07-24 06:00:00,15,1022.9,0.9,94,14,20000,7.408,,,340,13.9,17.4,,,,,,,,,wg-a,,,,AAXX 24064 07020 12/70 63404 10150 20140 30212 40229 53009 60006 80005 90600 333 10174 20139=
07020,1998-07-24 12:00:00,20,1024.4,0.4,73,15,18000,11.112,,,60,,,,,,,,,,,wg-a,,,,AAXX 24124 07020 12668 70606 10200 20150 30227 40244 53004 60006 83205 91200=
07020,1998-07-24 18:00:00,19,1024.4,-0.1,78,15,40000,7.408,,,320,14.9,20.2,,,,,,,,,wg-a,,,,AAXX 24184 07020 12/82 03204 10190 20150 30227 40244 55001 60006 80000 91800 333 10202 20149=
07020,1998-07-25 00:00:00,16,1025,-0.2,88,14,0,18.52,,,20,,,,,,,,,,,wg-a,,,,AAXX 25004 07020 12/// /0210 10160 20140 30233 40250 58002 60006 90000=
07020,1998-07-25 06:00:00,14,1024.4,-0.1,88,12,40000,0,,,0,12.4,19.1,,,,,,,,,wg-a,,,,AAXX 25064 07020 32/82 20000 10140 20120 30227 40244 55001 80008 90600 333 10191 20124=
07020,1998-07-25 12:00:00,18,1024.3,-0.7,73,13,35000,11.112,,,290,,,,,,,,,,,wg-a,,,,AAXX 25124 07020 12681 52906 10180 20130 30226 40243 57007 60006 81102 91200=
07020,1998-07-25 18:00:00,17,1022,-1.4,82,14,25000,7.408,,,30,13.5,20.4,,,,,,,,,wg-a,,,,AAXX 25184 07020 12/75 60304 10170 20140 30203 40220 58014 60006 80005 91800 333 10204 20135=
07020,1998-07-26 00:00:00,14,1020.4,-1,100,14,0,11.112,,,310,,,,,,,,,,,wg-a,,,,AAXX 26004 07020 12/// /3106 10140 20140 30187 40204 58010 60006 90000=
07020,1998-07-26 06:00:00,13,1017.5,-1.3,100,13,15000,7.408,,,130,11.4,16.6,,,,,,,,,wg-a,,,,AAXX 26064 07020 12/65 61304 10130 20130 30158 40175 56013 60006 83035 90600 333 10166 20114=
07020,1998-07-26 12:00:00,17,1015.9,-1.1,82,14,18000,18.52,,,90,,,,0,,,,,,1,wg-a,,,,AAXX 26124 07020 02568 60910 10170 20140 30142 40159 58011 60006 70182 8172/ 91200 333 60007=
07020,1998-07-26 18:00:00,18,1013.1,-1.3,77,14,24000,3.704,,,270,13.3,20.6,,,,,,,,,wg-a,,,,AAXX 26184 07020 32674 72702 10180 20140 30115 40131 58013 81150 91800 333 10206 20133=
07020,1998-07-27 00:00:00,16,1012.6,-0.8,82,13,0,14.816,,,240,,,,,,,,,,,wg-a,,,,AAXX 27004 07020 12/// /2408 10160 20130 30109 40126 58008 60006 90000=
07020,1998-07-27 06:00:00,16,1011.7,0.1,94,15,18000,22.224,,,260,15,18.3,,,,,,,,,wg-a,,,,AAXX 27064 07020 32568 62612 10160 20150 30100 40117 53001 8272/ 90600 333 10183 20150=
07020,1998-07-27 12:00:00,18,1014.3,1.3,83,15,16000,22.224,,,290,,,,,,,,,,2,wg-a,,,,AAXX 27124 07020 02666 22912 10180 20150 30126 40143 51013 61000 70251 81405 91200 333 ////=
07020,1998-07-27 18:00:00,18,1015.1,-0,83,15,20000,29.632,,,270,15.5,19.2,,,,,,,,,wg-a,,,,AAXX 27184 07020 32/70 22716 10180 20150 30134 40151 54000 80005 91800 333 10192 20155=
07020,1998-07-28 00:00:00,16,1015.9,-0.2,88,14,0,29.632,,,270,,,,,,,,,,,wg-a,,,,AAXX 28004 07020 12/// /2716 10160 20140 30142 40159 56002 60006 90000=
07020,1998-07-28 06:00:00,16,1013.4,-1.1,88,14,15000,31.484,,,250,15.5,17.9,,,,,,,,60,wg-a,,,,AAXX 28064 07020 02565 82517 10160 20140 30117 40134 55011 61000 760// 8672/ 90600 333 10179 20155 ////=
07020,1998-07-28 12:00:00,17,1010.4,-2,94,16,8000,31.484,,53.708,190,,,,,,,,,,2,wg-a,,,,AAXX 28124 07020 12558 81917 10170 20160 30087 40104 58020 60006 70262 8472/ 91200 333 91029=
07020,1998-07-28 18:00:00,17,1011.2,0.7,94,16,10000,25.928,,53.708,280,15.2,17.7,,,,,,,,,wg-a,,,,AAXX 28184 07020 32560 82814 10170 20160 30095 40112 53007 8472/ 91800 333 10177 20152 91029=
07020,1998-07-29 00:00:00,16,1012.6,0.5,94,15,0,31.484,,,280,,,,,,,,,,,wg-a,,,,AAXX 29004 07020 12/// /2817 10160 20150 30109 40126 51005 60006 90000=
07020,1998-07-29 06:00:00,16,1011.4,-0.4,82,13,500,31.484,,,270,15.6,16.8,,,,,,,,,wg-a,,,,AAXX 29064 07020 12800 82717 10160 20130 30097 40114 56004 60006 8807/ 90600 333 10168 20156=
07020,1998-07-29 12:00:00,16,1008.8,-2.2,100,16,2000,46.3,,,230,,,,2,,,,,,61,wg-a,,,,AAXX 29124 07020 02420 82325 10160 20160 30071 40088 58022 60026 76185 887// 91200 333 60027=
07020,1998-07-29 18:00:00,17,1009.7,1.4,88,15,20000,31.484,,,270,15.2,17.8,,,,,,,,1,wg-a,,,,AAXX 29184 07020 32670 52717 10170 20150 30081 40097 51014 70162 82105 91800 333 10178 20152=
07020,1998-07-30 00:00:00,16,1010.9,-0.2,88,14,0,31.484,,,280,,,,,,,,,,,wg-a,,,,AAXX 30004 07020 12/// /2817 10160 20140 30092 40109 58002 60006 90000=
07020,1998-07-30 06:00:00,15,1010.4,0.2,88,13,18000,31.484,,50.004,280,14.9,17.2,,,,,,,,,wg-a,,,,AAXX 30064 07020 12568 62817 10150 20130 30087 40104 53002 60006 86700 90600 333 10172 20149 91027=
07020,1998-07-30 12:00:00,18,1011.5,0.3,73,13,24000,42.596,,64.82,270,,,,,,,,,,0,wg-a,,,,AAXX 30124 07020 02574 52723 10180 20130 30098 40115 51003 61000 70082 83270 91200 333 //// 91035=
07020,1998-07-30 18:00:00,17,1012.4,0.3,82,14,24000,38.892,,68.524,270,15.4,18.1,,,,,,,,,wg-a,,,,AAXX 30184 07020 32674 42721 10170 20140 30107 40124 53003 84200 91800 333 10181 20154 91037=
07020,1998-07-31 00:00:00,16,1013.9,0.2,88,14,0,25.928,,,280,,,,,,,,,,,wg-a,,,,AAXX 31004 07020 12/// /2814 10160 20140 30122 40139 53002 60006 90000=
07020,1998-07-31 06:00:00,16,1015,0.9,94,15,18000,18.52,,,270,15.2,17.2,,0,,,,,,,wg-a,,,,AAXX 31064 07020 12668 32710 10160 20150 30133 40150 53009 60007 81238 90600 333 10172 20152=
07020,1998-07-31 12:00:00,18,1017.1,0.8,83,15,18000,22.224,,,280,,,,,,,,,,,wg-a,,,,AAXX 31124 07020 12668 32812 10180 20150 30154 40171 51008 60006 81245 91200=
07020,1998-07-31 18:00:00,18,1017.9,0.1,83,15,20000,22.224,,,280,15.4,19.7,,,,,,,,,wg-a,,,,AAXX 31184 07020 12670 32812 10180 20150 30162 40179 53001 60006 81130 91800 333 10197 20154=
07020,1998-08-01 00:00:00,16,1018.2,-0.5,82,13,0,14.816,,,310,,,,,,,,,,,wg-a,,,,AAXX 01004 07020 12/// /3108 10160 20130 30165 40182 56005 60006 90000=
07020,1998-08-01 06:00:00,15,1017.8,0.2,88,13,22000,7.408,,,310,14.8,17.8,,,,,,,,,wg-a,,,,AAXX 01064 07020 12572 43104 10150 20130 30161 40178 51002 60006 82230 90600 333 10178 20148=
07020,1998-08-01 12:00:00,20,1018.5,0.7,68,14,40000,11.112,,,330,,,,,,,,,,,wg-a,,,,AAXX 01124 07020 12682 63306 10200 20140 30168 40185 51007 60006 85230 91200=
07020,1998-08-01 18:00:00,18,1018.7,0.5,77,14,500,11.112,,,330,14.8,21,,,,,,,,,wg-a,,,,AAXX 01184 07020 12600 23306 10180 20140 30170 40187 51005 60006 82201 91800 333 10210 20148=
07020,1998-08-02 00:00:00,13,1019.9,0.2,100,13,0,3.704,,,160,,,,,,,,,,,wg-a,,,,AAXX 02004 07020 12/// /1602 10130 20130 30182 40199 53002 60006 90000=
07020,1998-08-02 06:00:00,15,1021.4,0.9,100,15,16000,31.484,,,70,11.5,18.6,,0,,,,,,,wg-a,,,,AAXX 02064 07020 12566 60717 10150 20150 30197 40214 53009 60007 86700 90600 333 10186 20115=
07020,1998-08-02 12:00:00,18,1023.4,0.6,77,14,20000,22.224,,,70,,,,,,,,,,,wg-a,,,,AAXX 02124 07020 02670 50712 10180 20140 30217 40234 51006 61000 85500 91200 333 ////=
07020,1998-08-02 18:00:00,19,1024,0.2,73,14,35000,7.408,,,70,15.2,20.1,,,,,,,,,wg-a,,,,AAXX 02184 07020 32/81 10704 10190 20140 30223 40240 53002 80005 91800 333 10201 20152=
07020,1998-08-03 00:00:00,15,1025,-0.2,94,14,0,7.408,,,310,,,,,,,,,,,wg-a,,,,AAXX 03004 07020 12/// /3104 10150 20140 30233 40250 58002 60006 90000=
07020,1998-08-03 06:00:00,16,1024.4,0,94,15,0,22.224,,,230,12.3,18.6,,,,,,,,,wg-a,,,,AAXX 03064 07020 12/// /2312 10160 20150 30227 40244 50000 60006 90600 333 10186 20123=
07020,1998-08-03 12:00:00,17,1023.8,-0.6,88,15,15000,35.188,,,240,,,,,,,,,,2,wg-a,,,,AAXX 03124 07020 02665 82419 10170 20150 30221 40238 58006 60016 70262 8272/ 91200 333 61000=
07020,1998-08-03 18:00:00,17,1021.9,-0.4,94,16,6000,42.596,,,230,15.5,18.4,,,,,,,,51,wg-a,,,,AAXX 03184 07020 02456 82323 10170 20160 30202 40219 58004 61000 75165 887// 91800 333 10184 20155 ////=
07020,1998-08-04 00:00:00,17,1022.2,0.2,100,17,0,29.632,,,270,,,,,,,,,,,wg-a,,,,AAXX 04004 07020 12/// /2716 10170 20170 30205 40222 53002 60026 90000=
07020,1998-08-04 06:00:00,16,1024.9,1.6,94,15,20000,29.632,,,320,15.8,16.8,,,,,,,,,wg-a,,,,AAXX 04064 07020 02670 43216 10160 20150 30232 40249 52016 61000 82190 90600 333 10168 20158 ////=
07020,1998-08-04 12:00:00,19,1029.5,1.8,73,14,25000,22.224,,,330,,,,,,,,,,,wg-a,,,,AAXX 04124 07020 12675 13312 10190 20140 30278 40295 51018 60006 81100 91200=
07020,1998-08-04 18:00:00,18,1030.7,0.5,77,14,22000,18.52,,,280,15.9,19.4,,,,,,,,,wg-a,,,,AAXX 04184 07020 12/72 02810 10180 20140 30290 40307 51005 60006 80000 91800 333 10194 20159=
07020,1998-08-05 00:00:00,15,1032.1,0.4,88,13,0,3.704,,,220,,,,,,,,,,,wg-a,,,,AAXX 05004 07020 12/// /2202 10150 20130 30304 40321 50004 60006 90000=
07020,1998-08-05 06:00:00,15,1032.1,0.6,94,14,18000,7.408,,,270,14.2,18.3,,,,,,,,,wg-a,,,,AAXX 05064 07020 32/68 12704 10150 20140 30304 40321 53006 81030 90600 333 10183 20142=
07020,1998-08-05 12:00:00,19,1032.7,-0.4,73,14,500,11.112,,,280,,,,,,,,,,,wg-a,,,,AAXX 05124 07020 12/00 02806 10190 20140 30310 40327 58004 60006 80000 91200=
07020,1998-08-05 18:00:00,18,1031.3,-0.9,83,15,500,18.52,,,280,15.3,20,,,,,,,,,wg-a,,,,AAXX 05184 07020 12/00 12810 10180 20150 30296 40313 57009 60006 80001 91800 333 10200 20153=
07020,1998-08-06 00:00:00,16,1030.3,-0.5,88,14,0,18.52,,,330,,,,,,,,,,,wg-a,,,,AAXX 06004 07020 12/// /3310 10160 20140 30286 40303 58005 60006 90000=
07020,1998-08-06 06:00:00,15,1028.9,-0.3,82,12,500,7.408,,,280,14.3,18.2,,,,,,,,,wg-a,,,,AAXX 06064 07020 12600 42804 10150 20120 30272 40289 56003 60006 82102 90600 333 10182 20143=
07020,1998-08-06 12:00:00,18,1028.5,-0.4,77,14,22000,18.52,,,280,,,,,,,,,,,wg-a,,,,AAXX 06124 07020 12672 52810 10180 20140 30268 40285 58004 60006 83505 91200=
07020,1998-08-06 18:00:00,18,1026.5,-0.9,83,15,25000,22.224,,,260,14.5,19,,,,,,,,,wg-a,,,,AAXX 06184 07020 12/75 22612 10180 20150 30248 40265 58009 60006 80005 91800 333 10190 20145=
07020,1998-08-07 00:00:00,15,1025.5,-0.8,100,15,0,11.112,,,260,,,,,,,,,,,wg-a,,,,AAXX 07004 07020 12/// /2606 10150 20150 30238 40255 58008 60006 90000=
07020,1998-08-07 06:00:00,15,1024.9,0.2,100,15,18000,7.408,,,50,13.1,17.9,,,,,,,,,wg-a,,,,AAXX 07064 07020 32668 20504 10150 20150 30232 40249 50002 82401 90600 333 10179 20131=
07020,1998-08-07 12:00:00,18,1025,0,83,15,20000,11.112,,,10,,,,,,,,,,,wg-a,,,,AAXX 07124 07020 12670 10106 10180 20150 30233 40250 50000 60006 81400 91200=
07020,1998-08-07 18:00:00,18,1022.5,-1.5,83,15,18000,11.112,,,80,15.4,20.3,,,,,,,,,wg-a,,,,AAXX 07184 07020 12/68 20806 10180 20150 30208 40225 56015 60006 80005 91800 333 10203 20154=
07020,1998-08-08 00:00:00,14,1021.4,-1,94,13,0,3.704,,,70,,,,,,,,,,,wg-a,,,,AAXX 08004 07020 12/// /0702 10140 20130 30197 40214 58010 60006 90000=
07020,1998-08-08 12:00:00,19,1019.4,-0.3,83,16,16000,22.224,,,70,,,,,,,,,,,wg-a,,,,AAXX 08124 07020 12/66 30712 10190 20160 30177 40194 58003 60006 83010 91200=
07020,1998-08-08 18:00:00,19,1017.6,-0.8,78,15,18000,14.816,,,90,15.5,20.5,,,,,,,,,wg-a,,,,AAXX 08184 07020 12/68 00908 10190 20150 30159 40176 57008 60006 80000 91800 333 10205 20155=
07020,1998-08-09 00:00:00,16,1018,-0.2,88,14,0,7.408,,,100,,,,,,,,,,,wg-a,,,,AAXX 09004 07020 12/// /1004 10160 20140 30163 40180 56002 60006 90000=
07020,1998-08-09 06:00:00,17,1017.2,0.2,94,16,18000,29.632,,,90,15.6,19.3,,,,,,,,,wg-a,,,,AAXX 09064 07020 12/68 00916 10170 20160 30155 40172 53002 60006 80000 90600 333 10193 20156=
07020,1998-08-09 12:00:00,19,1017.3,-0.1,88,17,14000,31.484,,,80,,,,,,,,,,,wg-a,,,,AAXX 09124 07020 12664 20817 10190 20170 30157 40173 58001 60006 82200 91200=
07020,1998-08-09 18:00:00,19,1015.3,-0.7,88,17,8000,31.484,,,90,17,20.6,,,,,,,,,wg-a,,,,AAXX 09184 07020 12/58 00917 10190 20170 30137 40153 58007 60006 80000 91800 333 10206 20170=
07020,1998-08-10 00:00:00,16,1015.2,-0.4,100,16,0,14.816,,,110,,,,,,,,,,,wg-a,,,,AAXX 10004 07020 12/// /1108 10160 20160 30135 40152 58004 60006 90000=
07020,1998-08-10 06:00:00,16,1015,0.2,100,16,4500,11.112,,,240,14.6,19.5,,,,,,,,10,wg-a,,,,AAXX 10064 07020 32/45 22406 10160 20160 30133 40150 53002 71000 80005 90600 333 10195 20146=
07020,1998-08-10 12:00:00,23,1016.1,0.4,78,19,4500,14.816,,,240,,,,,,,,,,10,wg-a,,,,AAXX 10124 07020 12/45 52408 10230 20190 30145 40161 51004 60006 71011 80005 91200=
07020,1998-08-10 18:00:00,21,1016.5,0.3,83,18,4500,7.408,,,90,16.2,23.8,,,,,,,,10,wg-a,,,,AAXX 10184 07020 32/45 50904 10210 20180 30149 40165 51003 71011 80005 91800 333 10238 20162=
07020,1998-08-11 00:00:00,17,1018.1,0.2,94,16,0,14.816,,,240,,,,,,,,,,,wg-a,,,,AAXX 11004 07020 12/// /2408 10170 20160 30164 40181 50002 60006 90000=
07020,1998-08-11 06:00:00,16,1018.6,0.9,100,16,500,14.816,,,230,15.3,21.3,,0,,,,,,47,wg-a,,,,AAXX 11064 07020 12/00 92308 10160 20160 30169 40186 53009 60007 747// 89/// 90600 333 10213 20153=
07020,1998-08-11 12:00:00,18,1019.5,0.4,94,17,2000,3.704,,,10,,,,,,,,,,28,wg-a,,,,AAXX 11124 07020 12/20 50102 10180 20170 30178 40195 50004 60006 72844 80005 91200=
07020,1998-08-11 18:00:00,20,1019.2,-0,78,16,10000,14.816,,,260,15.8,21.3,,,,,,,,,wg-a,,,,AAXX 11184 07020 12/60 32608 10200 20160 30175 40192 54000 60006 80005 91800 333 10213 20158=
07020,1998-08-12 00:00:00,17,1019.1,-0.5,94,16,0,14.816,,,290,,,,,,,,,,,wg-a,,,,AAXX 12004 07020 12/// /2908 10170 20160 30174 40191 58005 60006 90000=
07020,1998-08-12 06:00:00,17,1019.1,-0,94,16,18000,14.816,,,250,14.6,19.6,,,,,,,,,wg-a,,,,AAXX 12064 07020 12668 62508 10170 20160 30174 40191 55000 60006 86500 90600 333 10196 20146=
07020,1998-08-12 12:00:00,18,1020.1,0.2,83,15,22000,25.928,,,290,,,,,,,,,,1,wg-a,,,,AAXX 12124 07020 12672 32914 10180 20150 30184 40201 50002 60006 70161 81105 91200=
07020,1998-08-12 18:00:00,18,1020.2,-0.2,77,14,24000,25.928,,,290,16.7,20.1,,,,,,,,,wg-a,,,,AAXX 12184 07020 32/74 52914 10180 20140 30185 40202 58002 80005 91800 333 10201 20167=
07020,1998-08-13 00:00:00,16,1021.7,0.5,88,14,0,35.188,,,330,,,,,,,,,,,wg-a,,,,AAXX 13004 07020 12/// /3319 10160 20140 30200 40217 50005 60006 90000=
07020,1998-08-13 06:00:00,16,1021.5,0.1,88,14,20000,22.224,,,310,15.3,18.3,,,,,,,,,wg-a,,,,AAXX 13064 07020 12/70 63112 10160 20140 30198 40215 53001 60006 80005 90600 333 10183 20153=
07020,1998-08-13 12:00:00,18,1021.9,0.2,83,15,25000,18.52,,,280,,,,,,,,,,,wg-a,,,,AAXX 13124 07020 12675 52810 10180 20150 30202 40219 50002 60006 82105 91200=
07020,1998-08-13 18:00:00,18,1019.9,-1.3,77,14,25000,18.52,,,290,15.6,19.7,,,,,,,,,wg-a,,,,AAXX 13184 07020 12675 62910 10180 20140 30182 40199 56013 60006 82105 91800 333 10197 20156=
07020,1998-08-14 00:00:00,17,1019,-0.9,88,15,0,25.928,,,290,,,,,,,,,,,wg-a,,,,AAXX 14004 07020 12/// /2914 10170 20150 30173 40190 56009 60006 90000=
07020,1998-08-14 06:00:00,16,1017.3,-0.8,94,15,20000,18.52,,,260,15.7,17.6,,,,,,,,,wg-a,,,,AAXX 14064 07020 12670 22610 10160 20150 30156 40173 56008 60006 81405 90600 333 10176 20157=
07020,1998-08-14 12:00:00,20,1016.3,-0.6,78,16,22000,25.928,,,240,,,,,,,,,,,wg-a,,,,AAXX 14124 07020 12672 52414 10200 20160 30147 40163 58006 60006 85100 91200=
07020,1998-08-15 06:00:00,17,1014.7,0.6,94,16,12000,22.224,,,240,15.7,18.5,,,,,,,,,wg-a,,,,AAXX 15064 07020 12562 62412 10170 20160 30130 40147 53006 60006 86700 90600 333 10185 20157=
07020,1998-08-15 12:00:00,18,1018.8,2,77,14,40000,25.928,,,20,,,,,,,,,,1,wg-a,,,,AAXX 15124 07020 12682 30214 10180 20140 30171 40188 51020 60016 70165 82208 91200=
07020,1998-08-15 18:00:00,19,1020.6,0.7,73,14,500,22.224,,,320,16.3,21.2,,,,,,,,,wg-a,,,,AAXX 15184 07020 32/00 33212 10190 20140 30189 40206 53007 80008 91800 333 10212 20163=
07020,1998-08-17 00:00:00,16,1021.4,-0.7,94,15,0,18.52,,,280,,,,,,,,,,,wg-a,,,,AAXX 17004 07020 12/// /2810 10160 20150 30197 40214 58007 60006 90000=
07020,1998-08-17 06:00:00,16,1019.9,-0.2,88,14,24000,22.224,,,260,15.9,17.8,,,,,,,,,wg-a,,,,AAXX 17064 07020 12674 62612 10160 20140 30182 40199 55002 60006 83550 90600 333 10178 20159=
07020,1998-08-17 12:00:00,20,1020.1,-0.1,78,16,500,29.632,,,260,,,,,,,,,,,wg-a,,,,AAXX 17124 07020 12600 62616 10200 20160 30184 40201 57001 60006 81238 91200=
07020,1998-08-17 18:00:00,18,1018.8,-0.8,88,16,14000,25.928,,,260,16.2,21,,,,,,,,,wg-a,,,,AAXX 17184 07020 12664 62614 10180 20160 30171 40188 56008 60006 86500 91800 333 10210 20162=
07020,1998-08-18 00:00:00,17,1019.3,0.1,94,16,0,25.928,,,330,,,,,,,,,,,wg-a,,,,AAXX 18004 07020 12/// /3314 10170 20160 30176 40193 52001 60016 90000=
07020,1998-08-18 06:00:00,16,1019.7,0.6,88,14,500,22.224,,,20,15,17.9,,,,,,,,,wg-a,,,,AAXX 18064 07020 32/00 20212 10160 20140 30180 40197 53006 80008 90600 333 10179 20150=
07020,1998-08-18 12:00:00,20,1021.2,0.4,73,15,500,18.52,,,50,,,,,,,,,,,wg-a,,,,AAXX 18124 07020 12600 20510 10200 20150 30195 40212 51004 60006 82200 91200=
07020,1998-08-18 18:00:00,20,1021.4,-0.3,73,15,40000,11.112,,,320,16.2,21.3,,,,,,,,,wg-a,,,,AAXX 18184 07020 12/82 03206 10200 20150 30197 40214 55003 60006 80000 91800 333 10213 20162=
07020,1998-08-19 00:00:00,16,1022.2,0,88,14,0,3.704,,,30,,,,,,,,,,,wg-a,,,,AAXX 19004 07020 12/// /0302 10160 20140 30205 40222 50000 60006 90000=
07020,1998-08-19 06:00:00,13,1022.2,-0,100,13,12000,7.408,,,110,12.6,20.2,,0,,,,,,,wg-a,,,,AAXX 19064 07020 12862 41104 10130 20130 30205 40222 55000 60007 81032 90600 333 10202 20126=
07020,1998-08-19 12:00:00,21,1022.5,-0,73,16,12000,7.408,,,330,,,,,,,,,,,wg-a,,,,AAXX 19124 07020 12662 43304 10210 20160 30209 40225 54000 60006 81105 91200=
07020,1998-08-19 18:00:00,19,1021.3,-0.3,83,16,12000,11.112,,,290,13.5,22.1,,,,,,,,,wg-a,,,,AAXX 19184 07020 12/62 22906 10190 20160 30196 40213 56003 60006 80005 91800 333 10221 20135=
07020,1998-08-20 00:00:00,16,1020.6,-0.7,94,15,0,18.52,,,320,,,,,,,,,,,wg-a,,,,AAXX 20004 07020 12/// /3210 10160 20150 30189 40206 58007 60006 90000=
07020,1998-08-20 06:00:00,16,1019.6,-0.5,88,14,500,14.816,,,270,15.7,19,,,,,,,,,wg-a,,,,AAXX 20064 07020 12600 72708 10160 20140 30179 40196 58005 60006 875// 90600 333 10190 20157=
07020,1998-08-20 12:00:00,19,1019.3,-0.6,78,15,20000,18.52,,,280,,,,,,,,,,2,wg-a,,,,AAXX 20124 07020 02670 72810 10190 20150 30176 40193 57006 60006 70252 83705 91200 333 61000=
07020,1998-08-20 18:00:00,17,1017.4,-1,88,15,20000,42.596,,,260,16,19.7,,,,,,,,,wg-a,,,,AAXX 20184 07020 32670 82623 10170 20150 30157 40174 56010 8272/ 91800 333 10197 20160=
07020,1998-08-21 00:00:00,16,1012,-3.5,94,15,0,57.412,,,250,,,,,,,,,,,wg-a,,,,AAXX 21004 07020 12/// /2531 10160 20150 30103 40120 58035 60016 90000=
07020,1998-08-21 06:00:00,18,1008.2,-0.7,94,17,10000,46.3,,83.34,270,16.1,17.7,,1,,,,,,,wg-a,,,,AAXX 21064 07020 12660 82725 10180 20170 30066 40082 55007 60017 827// 90600 333 10177 20161 91045=
07020,1998-08-21 12:00:00,19,1010.5,1.2,83,16,18000,31.484,,,280,,,,,,,,,,,wg-a,,,,AAXX 21124 07020 12668 72817 10190 20160 30089 40105 53012 60006 82720 91200=
07020,1998-08-21 18:00:00,18,1012.2,0.6,83,15,20000,35.188,,57.412,280,17.4,19.1,,,,,,,,,wg-a,,,,AAXX 21184 07020 12/70 52819 10180 20150 30105 40122 53006 60006 82042 91800 333 10191 20174 91031=
07020,1998-08-22 00:00:00,17,1014.6,0.5,88,15,0,29.632,,,290,,,,,,,,,,,wg-a,,,,AAXX 22004 07020 12/// /2916 10170 20150 30129 40146 50005 60006 90000=
07020,1998-08-22 06:00:00,17,1013.1,-0.9,88,15,20000,25.928,,,280,16.3,17.6,,,,,,,,,wg-a,,,,AAXX 22064 07020 12570 82814 10170 20150 30114 40131 58009 60006 8472/ 90600 333 10176 20163=
07020,1998-08-22 12:00:00,16,1012.6,-0.6,100,16,1500,18.52,,,280,,,,1,,,,,,51,wg-a,,,,AAXX 22124 07020 02515 82810 10160 20160 30109 40126 56006 60016 75122 887// 91200 333 60017=
07020,1998-08-22 18:00:00,18,1014.7,1.1,77,14,20000,25.928,,,300,15.7,18.4,,,,,,,,1,wg-a,,,,AAXX 22184 07020 32/70 13014 10180 20140 30130 40147 53011 70165 80008 91800 333 10184 20157=
07020,1998-08-23 00:00:00,16,1018.1,1.3,77,12,0,22.224,,,330,,,,,,,,,,,wg-a,,,,AAXX 23004 07020 12/// /3312 10160 20120 30164 40181 51013 60006 90000=
07020,1998-08-23 06:00:00,15,1017.8,-0.2,82,12,40000,22.224,,,270,15,17.8,,,,,,,,,wg-a,,,,AAXX 23064 07020 12682 52712 10150 20120 30161 40178 55002 60006 81258 90600 333 10178 20150=
07020,1998-08-23 12:00:00,18,1016,-1.1,94,17,16000,38.892,,61.116,230,,,,,,,,,,,wg-a,,,,AAXX 23124 07020 12566 82321 10180 20170 30143 40160 57011 60006 887// 91200 333 91033=
07020,1998-08-23 18:00:00,18,1011.6,-2.6,94,17,8000,53.708,,72.228,260,15.2,19.1,,,,,,,,50,wg-a,,,,AAXX 23184 07020 02558 82629 10180 20170 30100 40116 58026 61000 75052 8472/ 91800 333 10191 20152 //// 91039=
07020,1998-08-24 00:00:00,17,1011.4,0.4,88,15,0,38.892,,,280,,,,0,,,,,,,wg-a,,,,AAXX 24004 07020 02/// /2821 10170 20150 30097 40114 53004 60056 90000 333 60007=
07020,1998-08-24 06:00:00,17,1013.7,1.1,88,15,14000,31.484,,64.82,280,15.8,17.8,,,,,,,,,wg-a,,,,AAXX 24064 07020 02664 82817 10170 20150 30120 40137 51011 61000 887// 90600 333 10178 20158 //// 91035=
07020,1998-08-24 12:00:00,18,1017.5,1.8,77,14,40000,35.188,,,310,,,,,,,,,,,wg-a,,,,AAXX 24124 07020 12682 23119 10180 20140 30158 40175 53018 60006 82200 91200=
07020,1998-08-24 18:00:00,19,1019.9,0.9,73,14,40000,22.224,,,300,16.4,19.7,,,,,,,,,wg-a,,,,AAXX 24184 07020 12682 13012 10190 20140 30182 40199 51009 60006 81100 91800 333 10197 20164=
07020,1998-08-25 00:00:00,16,1021.6,0.4,94,15,0,7.408,,,20,,,,,,,,,,,wg-a,,,,AAXX 25004 07020 12/// /0204 10160 20150 30199 40216 51004 60006 90000=
07020,1998-08-25 06:00:00,16,1021.4,-0,82,13,500,18.52,,,290,15.3,18.7,,,,,,,,,wg-a,,,,AAXX 25064 07020 12800 52910 10160 20130 30197 40214 55000 60006 85050 90600 333 10187 20153=
07020,1998-08-25 12:00:00,18,1022,-0.1,68,12,500,14.816,,,270,,,,,,,,,,,wg-a,,,,AAXX 25124 07020 12600 22708 10180 20120 30203 40220 58001 60006 82100 91200=
07020,1998-08-25 18:00:00,17,1019.4,-1.6,82,14,500,25.928,,,230,15.4,19.8,,,,,,,,,wg-a,,,,AAXX 25184 07020 12800 62314 10170 20140 30177 40194 56016 60006 86050 91800 333 10198 20154=
07020,1998-08-26 00:00:00,17,1018.1,-0.9,94,16,0,25.928,,,270,,,,,,,,,,,wg-a,,,,AAXX 26004 07020 12/// /2714 10170 20160 30164 40181 56009 60006 90000=
07020,1998-08-26 06:00:00,16,1017,-0,94,15,8000,31.484,,,290,15.6,17.1,,0,,,,,,61,wg-a,,,,AAXX 26064 07020 12558 82917 10160 20150 30153 40170 55000 60007 761// 887// 90600 333 10171 20156=
07020,1998-08-26 12:00:00,18,1018.3,0.8,88,16,20000,29.632,,,300,,,,,,,,,,2,wg-a,,,,AAXX 26124 07020 12670 63016 10180 20160 30166 40183 51008 60016 70262 86700 91200=
07020,1998-08-26 18:00:00,18,1019.4,0.8,83,15,16000,29.632,,,70,15.4,19.4,,,,,,,,,wg-a,,,,AAXX 26184 07020 32666 80716 10180 20150 30177 40194 53008 885// 91800 333 10194 20154=
07020,1998-08-27 00:00:00,16,1022.1,1.1,82,13,0,35.188,,,70,,,,,,,,,,,wg-a,,,,AAXX 27004 07020 12/// /0719 10160 20130 30204 40221 53011 60006 90000=
07020,1998-08-27 06:00:00,15,1023.9,1.2,67,9,40000,29.632,,,70,14.5,17.5,,,,,,,,,wg-a,,,,AAXX 27064 07020 12682 10716 10150 20090 30222 40239 53012 60006 81100 90600 333 10175 20145=
07020,1998-08-27 12:00:00,17,1025.4,0.3,55,8,50000,22.224,,,70,,,,,,,,,,,wg-a,,,,AAXX 27124 07020 12684 50712 10170 20080 30237 40254 52003 60006 82108 91200=
07020,1998-08-27 18:00:00,17,1024.7,-0.7,63,10,50000,18.52,,,320,14.6,18.9,,,,,,,,,wg-a,,,,AAXX 27184 07020 12/84 03210 10170 20100 30230 40247 56007 60006 80000 91800 333 10189 20146=
07020,1998-08-28 00:00:00,16,1025.4,-0.1,88,14,0,22.224,,,330,,,,,,,,,,,wg-a,,,,AAXX 28004 07020 12/// /3312 10160 20140 30237 40254 56001 60006 90000=
07020,1998-08-28 06:00:00,14,1025,0.3,88,12,16000,7.408,,,60,13.4,17.4,,,,,,,,,wg-a,,,,AAXX 28064 07020 12666 40604 10140 20120 30233 40250 51003 60006 81105 90600 333 10174 20134=
07020,1998-08-28 12:00:00,18,1025.6,-0.1,73,13,500,14.816,,,20,,,,,,,,,,,wg-a,,,,AAXX 28124 07020 12600 30208 10180 20130 30239 40256 58001 60006 81108 91200=
07020,1998-08-28 18:00:00,17,1024.6,-0.7,68,11,500,7.408,,,10,14.1,18.4,,,,,,,,,wg-a,,,,AAXX 28184 07020 12600 30104 10170 20110 30229 40246 56007 60006 81138 91800 333 10184 20141=
07020,1998-08-29 00:00:00,16,1024.2,-0.7,88,14,0,14.816,,,360,,,,,,,,,,,wg-a,,,,AAXX 29004 07020 12/// /3608 10160 20140 30225 40242 58007 60006 90000=
07020,1998-08-29 06:00:00,13,1023.5,-0.1,94,12,18000,3.704,,,130,13.2,17.1,,,,,,,,,wg-a,,,,AAXX 29064 07020 12668 51302 10130 20120 30218 40235 55001 60006 82205 90600 333 10171 20132=
07020,1998-08-29 12:00:00,19,1023.7,-0.3,68,13,18000,11.112,,,260,,,,,,,,,,,wg-a,,,,AAXX 29124 07020 12668 32606 10190 20130 30220 40237 58003 60006 81108 91200=
07020,1998-08-29 18:00:00,18,1022.2,-0.4,77,14,18000,11.112,,,30,12.7,21.5,,,,,,,,,wg-a,,,,AAXX 29184 07020 12/68 00306 10180 20140 30205 40222 56004 60006 80000 91800 333 10215 20127=
07020,1998-08-30 00:00:00,13,1020.8,-1,82,10,0,18.52,,,140,,,,,,,,,,,wg-a,,,,AAXX 30004 07020 12/// /1410 10130 20100 30191 40208 58010 60006 90000=
07020,1998-08-30 06:00:00,13,1020.5,-0.4,88,11,10000,14.816,,,150,12,18.1,,,,,,,,,wg-a,,,,AAXX 30064 07020 12560 31508 10130 20110 30188 40205 55004 60006 81630 90600 333 10181 20120=
07020,1998-08-30 12:00:00,21,1020.2,-0.3,69,15,16000,14.816,,,60,,,,,,,,,,,wg-a,,,,AAXX 30124 07020 12/66 30608 10210 20150 30186 40202 58003 60006 80008 91200=
07020,1998-08-30 18:00:00,19,1018,-1.2,73,14,12000,29.632,,,100,13,21.7,,,,,,,,,wg-a,,,,AAXX 30184 07020 12/62 61016 10190 20140 30163 40180 56012 60006 80006 91800 333 10217 20130=
07020,1998-08-31 00:00:00,16,1016.6,-0.8,88,14,0,22.224,,,120,,,,,,,,,,,wg-a,,,,AAXX 31004 07020 12/// /1212 10160 20140 30149 40166 58008 60006 90000=
07020,1998-08-31 06:00:00,18,1014.1,-0.9,64,11,18000,29.632,,,160,15.1,18.4,,,,,,,,,wg-a,,,,AAXX 31064 07020 12868 61616 10180 20110 30124 40141 57009 60006 86050 90600 333 10184 20151=
07020,1998-08-31 12:00:00,21,1012.6,-1.6,69,15,18000,25.928,,,100,,,,,,,,,,,wg-a,,,,AAXX 31124 07020 12868 71014 10210 20150 30110 40126 58016 60006 87070 91200=
07020,1998-08-31 18:00:00,18,1010.5,-1.1,94,17,12000,22.224,,,110,18.3,21.4,,,,,,,,21,wg-a,,,,AAXX 31184 07020 02662 81112 10180 20170 30089 40105 58011 61000 72162 8357/ 91800 333 10214 20183 ////=
07020,1998-09-01 00:00:00,20,1009.6,-1,60,12,0,18.52,,,160,,,,,,,,,,,wg-a,,,,AAXX 01004 07020 12/// /1610 10200 20120 30080 40096 56010 60006 90000=
07020,1998-09-01 06:00:00,18,1008.8,0.9,88,16,15000,14.816,,,260,17.3,22.4,,,,,,,,,wg-a,,,,AAXX 01064 07020 12665 52608 10180 20160 30072 40088 51009 60006 83530 90600 333 10224 20173=
07020,1998-09-01 12:00:00,18,1011.1,0.6,94,17,900,18.52,,,270,,,,0,,,,,,42,wg-a,,,,AAXX 01124 07020 02409 82710 10180 20170 30095 40111 51006 60006 74284 886// 91200 333 60007=
07020,1998-09-01 18:00:00,17,1013.2,0.6,,,18000,14.816,,,270,17.3,20,,,,,,,,2,wg-a,,,,AAXX 01184 07020 32868 82708 10170 2//// 30115 40132 53006 70242 8807/ 91800 333 10200 20173=
07020,1998-09-02 00:00:00,16,1014.3,0.2,94,15,0,7.408,,,230,,,,,,,,,,,wg-a,,,,AAXX 02004 07020 12/// /2304 10160 20150 30126 40143 50002 60006 90000=
07020,1998-09-02 06:00:00,16,1013.3,-0.3,100,16,16000,7.408,,,200,15,17.3,,,,,,,,,wg-a,,,,AAXX 02064 07020 12866 82004 10160 20160 30116 40133 56003 60006 8805/ 90600 333 10173 20150=
07020,1998-09-02 12:00:00,17,1012.8,-0.7,100,17,8000,14.816,,,50,,,,2,,,,,,61,wg-a,,,,AAXX 02124 07020 02558 80508 10170 20170 30111 40128 58007 60026 76162 887// 91200 333 60027=
07020,1998-09-02 18:00:00,16,1010.9,-0.6,94,15,16000,31.484,,,50,15.4,17.8,,6,,,,,,61,wg-a,,,,AAXX 02184 07020 12566 80517 10160 20150 30092 40109 55006 60067 76166 8577/ 91800 333 10178 20154=
07020,1998-09-03 00:00:00,16,1011.4,0.4,94,15,0,42.596,,,350,,,,,,,,,,,wg-a,,,,AAXX 03004 07020 12/// /3523 10160 20150 30097 40114 53004 60096 90000=
07020,1998-09-03 06:00:00,17,1013.2,1.2,94,16,15000,35.188,,,310,15.4,16.8,,0,,,,,,,wg-a,,,,AAXX 03064 07020 12665 83119 10170 20160 30115 40132 53012 60007 885// 90600 333 10168 20154=
07020,1998-09-03 12:00:00,18,1015.6,0.5,83,15,18000,18.52,,,290,,,,,,,,,,,wg-a,,,,AAXX 03124 07020 12668 72910 10180 20150 30139 40156 52005 60006 8/800 91200=
07020,1998-09-03 18:00:00,18,1014.9,-0.5,83,15,20000,22.224,,,260,16.7,19.5,,,,,,,,,wg-a,,,,AAXX 03184 07020 12670 42612 10180 20150 30132 40149 58005 60006 84100 91800 333 10195 20167=
07020,1998-09-04 00:00:00,14,1013.2,-1.7,94,13,0,11.112,,,200,,,,,,,,,,,wg-a,,,,AAXX 04004 07020 12/// /2006 10140 20130 30115 40132 58017 60006 90000=
07020,1998-09-04 06:00:00,15,1008.8,-2.3,88,13,18000,22.224,,,180,13.4,17.4,,,,,,,,,wg-a,,,,AAXX 04064 07020 12668 71812 10150 20130 30071 40088 56023 60006 84150 90600 333 10174 20134=
07020,1998-09-04 12:00:00,16,1005,-2.6,94,15,18000,31.484,,,170,,,,0,,,,,,21,wg-a,,,,AAXX 04124 07020 02568 81717 10160 20150 30034 40050 58026 60016 72162 8677/ 91200 333 60007=
07020,1998-09-04 18:00:00,17,1002.1,-0.8,100,17,15000,25.928,,,250,15,17.2,,2,,,,,,2,wg-a,,,,AAXX 04184 07020 12665 82514 10170 20170 30005 40021 56008 60027 70262 885// 91800 333 10172 20150=
07020,1998-09-05 00:00:00,17,1003.1,0.2,94,16,0,35.188,,,260,,,,,,,,,,,wg-a,,,,AAXX 05004 07020 12/// /2619 10170 20160 30015 40031 50002 60006 90000=
07020,1998-09-05 06:00:00,17,1004.1,1.2,94,16,18000,35.188,,,270,16.5,17.2,,,,,,,,,wg-a,,,,AAXX 05064 07020 12668 52719 10170 20160 30025 40041 53012 60006 84150 90600 333 10172 20165=
07020,1998-09-05 12:00:00,18,1007.1,1.6,83,15,18000,38.892,,64.82,280,,,,0,,,,,,,wg-a,,,,AAXX 05124 07020 02568 62821 10180 20150 30055 40071 52016 60006 86241 91200 333 60007 91035=
07020,1998-09-05 18:00:00,18,1009.9,1.1,83,15,12000,35.188,,68.524,280,16.8,19.1,,,,,,,,,wg-a,,,,AAXX 05184 07020 32662 62819 10180 20150 30083 40099 53011 86850 91800 333 10191 20168 91037=
07020,1998-09-06 00:00:00,17,1011.2,-0.3,88,15,0,29.632,,,260,,,,,,,,,,,wg-a,,,,AAXX 06004 07020 12/// /2616 10170 20150 30095 40112 55003 60006 90000=
07020,1998-09-06 06:00:00,16,1009.4,-1.3,94,15,12000,18.52,,,190,16.4,17.5,,,,,,,,,wg-a,,,,AAXX 06064 07020 12662 71910 10160 20150 30077 40094 57013 60006 86850 90600 333 10175 20164=
07020,1998-09-06 12:00:00,21,1006.6,-2.5,69,15,18000,42.596,,,190,,,,,,,,,,,wg-a,,,,AAXX 06124 07020 12668 61923 10210 20150 30050 40066 57025 60006 81170 91200=
07020,1998-09-06 18:00:00,18,1004.2,-0.8,88,16,15000,31.484,,64.82,220,16.3,21.6,,,,,,,,50,wg-a,,,,AAXX 06184 07020 02565 82217 10180 20160 30026 40042 56008 61000 75052 887// 91800 333 10216 20163 //// 91035=
07020,1998-09-07 00:00:00,17,1002.2,-1.7,94,16,0,31.484,,,200,,,,,,,,,,,wg-a,,,,AAXX 07004 07020 12/// /2017 10170 20160 30006 40022 56017 60016 90000=
07020,1998-09-07 06:00:00,17,1001.4,-0.1,94,16,15000,25.928,,,200,16.6,18.4,,,,,,,,,wg-a,,,,AAXX 07064 07020 02665 22014 10170 20160 39998 40014 55001 61000 82400 90600 333 10184 20166 ////=
07020,1998-09-07 12:00:00,20,1002.5,0.2,78,16,18000,31.484,,,200,,,,,,,,,,,wg-a,,,,AAXX 07124 07020 12668 52017 10200 20160 30009 40025 51002 60006 85100 91200=
07020,1998-09-07 18:00:00,17,1003.1,0.7,94,16,16000,46.3,,64.82,250,16.7,21,,,,,,,,25,wg-a,,,,AAXX 07184 07020 02566 72525 10170 20160 30015 40031 52007 61000 72582 8127/ 91800 333 10210 20167 //// 91035=
07020,1998-09-08 00:00:00,16,1004.8,0.5,94,15,0,42.596,,,250,,,,,,,,,,,wg-a,,,,AAXX 08004 07020 12/// /2523 10160 20150 30032 40048 50005 60006 90000=
07020,1998-09-08 06:00:00,16,1002,-1.8,100,16,4000,42.596,,64.82,210,15.8,17.2,,4,,,,,,62,wg-a,,,,AAXX 08064 07020 12340 82123 10160 20160 30004 40020 58018 60047 7626/ 8472/ 90600 333 10172 20158 91035=
07020,1998-09-08 12:00:00,19,1004.4,1.6,83,16,14000,50.004,,,260,,,,,,,,,,,wg-a,,,,AAXX 08124 07020 12664 72627 10190 20160 30028 40044 53016 60026 838// 91200=
07020,1998-09-08 18:00:00,18,1004.7,-0.7,88,16,12000,29.632,,,250,16.4,20,,,,,,,,,wg-a,,,,AAXX 08184 07020 32/62 02516 10180 20160 30031 40047 58007 80000 91800 333 10200 20164=
07020,1998-09-09 00:00:00,18,1001.1,-2.3,100,18,0,53.708,,,230,,,,10,,,,,,,wg-a,,,,AAXX 09004 07020 02/// /2329 10180 20180 39995 40011 56023 60106 90000 333 60107=
07020,1998-09-09 06:00:00,18,998.8,-1.3,88,16,12000,46.3,,,220,16.5,18.2,,,,,,,,,wg-a,,,,AAXX 09064 07020 32562 62225 10180 20160 39972 49988 56013 861// 90600 333 10182 20165=
07020,1998-09-09 12:00:00,19,999.6,0.4,88,17,14000,53.708,,83.34,250,,,,,,,,,,,wg-a,,,,AAXX 09124 07020 12564 62529 10190 20170 39980 49996 53004 60006 86200 91200 333 91045=
07020,1998-09-09 18:00:00,18,1000.2,-0.1,88,16,12000,46.3,,83.34,250,17.4,19.9,,,,,,,,25,wg-a,,,,AAXX 09184 07020 02562 62525 10180 20160 39986 40002 57001 61000 72582 81970 91800 333 10199 20174 //// 91045=
07020,1998-09-10 00:00:00,17,1001.7,-0,88,15,0,53.708,,,240,,,,,,,,,,,wg-a,,,,AAXX 10004 07020 12/// /2429 10170 20150 30001 40017 54000 60016 90000=
07020,1998-09-10 06:00:00,16,1000.9,-0.3,94,15,8000,46.3,,75.932,230,16.1,17.9,,1,,,,,,80,wg-a,,,,AAXX 10064 07020 12558 72325 10160 20150 39993 40009 58003 60017 780// 877// 90600 333 10179 20161 91041=
07020,1998-09-10 12:00:00,18,1004.5,1.7,77,14,15000,42.596,,72.228,270,,,,,,,,,,2,wg-a,,,,AAXX 10124 07020 12565 52723 10180 20140 30029 40045 53017 60056 70282 84960 91200 333 91039=
07020,1998-09-10 18:00:00,17,1006.5,0.8,77,13,20000,38.892,,61.116,270,15.8,18.3,,,,,,,,2,wg-a,,,,AAXX 10184 07020 32570 52721 10170 20130 30049 40065 51008 70282 85100 91800 333 10183 20158 91033=
07020,1998-09-11 00:00:00,15,1006.6,-0.8,82,12,0,38.892,,,260,,,,,,,,,,,wg-a,,,,AAXX 11004 07020 12/// /2621 10150 20120 30049 40066 58008 60006 90000=
07020,1998-09-11 06:00:00,13,1003.7,-1.1,88,11,10000,29.632,,,240,13.2,16.5,,1,,,,,,95,wg-a,,,,AAXX 11064 07020 12560 82416 10130 20110 30020 40037 56011 60017 795// 8497/ 90600 333 10165 20132=
07020,1998-09-11 12:00:00,16,1002.5,-0.7,82,13,500,14.816,,,310,,,,1,,,,,,2,wg-a,,,,AAXX 11124 07020 02500 73108 10160 20130 30009 40025 58007 60066 70298 873// 91200 333 60017=
07020,1998-09-11 18:00:00,15,1002.8,0.5,77,11,35000,35.188,,,330,12.3,16.9,,,,,,,,,wg-a,,,,AAXX 11184 07020 32581 63319 10150 20110 30011 40028 53005 86800 91800 333 10169 20123=
07020,1998-09-12 00:00:00,15,1005.1,1.2,72,10,0,42.596,,,330,,,,,,,,,,,wg-a,,,,AAXX 12004 07020 12/// /3323 10150 20100 30034 40051 51012 60006 90000=
07020,1998-09-12 06:00:00,14,1003.5,-1.1,77,10,500,29.632,,,280,13.6,15.2,,,,,,,,,wg-a,,,,AAXX 12064 07020 32500 52816 10140 20100 30018 40035 58011 84262 90600 333 10152 20136=
07020,1998-09-12 12:00:00,15,1000,-0.5,72,10,500,46.3,,87.044,310,,,,8,,,,,,1,wg-a,,,,AAXX 12124 07020 02600 53125 10150 20100 39984 40000 56005 60086 70198 85200 91200 333 60087 91047=
07020,1998-09-12 18:00:00,15,1000.7,0.1,59,7,40000,46.3,,68.524,310,11.4,15.8,,,,,,,,,wg-a,,,,AAXX 12184 07020 32682 53125 10150 20070 39990 40007 52001 85200 91800 333 10158 20114 91037=
07020,1998-09-13 00:00:00,14,997.9,-2.6,72,9,0,61.116,,,290,,,,0,,,,,,,wg-a,,,,AAXX 13004 07020 02/// /2933 10140 20090 39963 49979 58026 60006 90000 333 60007=
07020,1998-09-13 06:00:00,12,997.5,1.5,76,8,500,53.708,,96.304,10,11.7,14.6,,0,,,,,,,wg-a,,,,AAXX 13064 07020 12500 50129 10120 20080 39958 49975 53015 60007 85500 90600 333 10146 20117 91052=
07020,1998-09-13 12:00:00,15,1004.1,2.5,72,10,500,46.3,,,330,,,,,,,,,,,wg-a,,,,AAXX 13124 07020 12500 63325 10150 20100 30024 40041 51025 60006 86100 91200=
07020,1998-09-13 18:00:00,15,1005.3,0.3,67,9,35000,57.412,,,310,11.7,16.8,,,,,,,,,wg-a,,,,AAXX 13184 07020 12581 53131 10150 20090 30036 40053 53003 60006 85200 91800 333 10168 20117=
07020,1998-09-14 00:00:00,15,1005.6,-0.4,77,11,0,42.596,,,300,,,,,,,,,,,wg-a,,,,AAXX 14004 07020 12/// /3023 10150 20110 30039 40056 58004 60006 90000=
07020,1998-09-14 06:00:00,14,1004.9,0.1,82,11,25000,50.004,,,310,14.2,15.4,,,,,,,,,wg-a,,,,AAXX 14064 07020 12575 63127 10140 20110 30032 40049 53001 60006 86200 90600 333 10154 20142=
07020,1998-09-14 12:00:00,16,1007.5,1.3,72,11,500,50.004,,,300,,,,,,,,,,,wg-a,,,,AAXX 14124 07020 12500 63027 10160 20110 30058 40075 51013 60016 86200 91200=
07020,1998-09-14 18:00:00,15,1010.1,1.4,72,10,500,50.004,,,300,14.3,16.5,,,,,,,,2,wg-a,,,,AAXX 14184 07020 32500 73027 10150 20100 30084 40101 53014 70282 8482/ 91800 333 10165 20143=
07020,1998-09-15 00:00:00,15,1011.7,0.1,67,9,0,42.596,,,300,,,,,,,,,,,wg-a,,,,AAXX 15004 07020 12/// /3023 10150 20090 30100 40117 50001 60006 90000=
07020,1998-09-15 06:00:00,15,1009.5,-1.5,94,14,4000,38.892,,,240,14.6,15.4,,1,,,,,,60,wg-a,,,,AAXX 15064 07020 12540 82421 10150 20140 30078 40095 58015 60017 7606/ 8472/ 90600 333 10154 20146=
07020,1998-09-15 12:00:00,18,1008.7,0.8,88,16,18000,35.188,,,280,,,,,,,,,,1,wg-a,,,,AAXX 15124 07020 02568 52819 10180 20160 30071 40087 51008 60036 70162 85100 91200 333 61000=
07020,1998-09-15 18:00:00,16,1009.9,0.7,77,12,18000,50.004,,68.524,290,14.5,17.9,,,,,,,,,wg-a,,,,AAXX 15184 07020 32668 72927 10160 20120 30082 40099 53007 875// 91800 333 10179 20145 91037=
07020,1998-09-16 00:00:00,16,1011.1,0.3,88,14,0,31.484,,,280,,,,,,,,,,,wg-a,,,,AAXX 16004 07020 12/// /2817 10160 20140 30094 40111 51003 60006 90000=
07020,1998-09-16 06:00:00,15,1013.6,1.8,77,11,500,38.892,,,320,14.5,16.3,,,,,,,,,wg-a,,,,AAXX 16064 07020 12600 63221 10150 20110 30119 40136 51018 60006 83105 90600 333 10163 20145=
07020,1998-09-16 12:00:00,16,1015,0.3,77,12,500,38.892,,,280,,,,,,,,,,,wg-a,,,,AAXX 16124 07020 12600 62821 10160 20120 30133 40150 50003 60006 83105 91200=
07020,1998-09-16 18:00:00,16,1014.3,-0.1,82,13,500,38.892,,64.82,280,14.5,16.7,,,,,,,,,wg-a,,,,AAXX 16184 07020 12/00 62821 10160 20130 30126 40143 56001 60006 80008 91800 333 10167 20145 91035=
07020,1998-09-17 00:00:00,16,1015.8,0.7,88,14,0,42.596,,,300,,,,,,,,,,,wg-a,,,,AAXX 17004 07020 12/// /3023 10160 20140 30141 40158 53007 60006 90000=
07020,1998-09-17 06:00:00,15,1016.7,0.9,88,13,22000,25.928,,,330,15.3,16.3,,,,,,,,,wg-a,,,,AAXX 17064 07020 12672 63314 10150 20130 30150 40167 53009 60006 84230 90600 333 10163 20153=
07020,1998-09-17 12:00:00,18,1019.3,1.1,73,13,22000,14.816,,,330,,,,,,,,,,,wg-a,,,,AAXX 17124 07020 12672 63308 10180 20130 30176 40193 51011 60006 85230 91200=
07020,1998-09-17 18:00:00,16,1019.6,0.1,88,14,20000,18.52,,,270,15.3,18.5,,,,,,,,,wg-a,,,,AAXX 17184 07020 12570 62710 10160 20140 30179 40196 53001 60006 83271 91800 333 10185 20153=
07020,1998-09-18 00:00:00,14,1021.4,0.7,88,12,0,7.408,,,240,,,,,,,,,,,wg-a,,,,AAXX 18004 07020 12/// /2404 10140 20120 30197 40214 53007 60006 90000=
07020,1998-09-18 06:00:00,16,1022.1,0.9,94,15,12000,22.224,,,240,13.5,16.4,,,,,,,,,wg-a,,,,AAXX 18064 07020 12662 72412 10160 20150 30204 40221 53009 60006 825// 90600 333 10164 20135=
07020,1998-09-18 12:00:00,19,1024.9,1.1,83,16,500,18.52,,,220,,,,,,,,,,,wg-a,,,,AAXX 18124 07020 12600 62210 10190 20160 30232 40249 53011 60006 83158 91200=
07020,1998-09-18 18:00:00,17,1025.7,0.7,82,14,24000,7.408,,,240,16,19.5,,,,,,,,,wg-a,,,,AAXX 18184 07020 12/74 22404 10170 20140 30240 40257 53007 60006 80008 91800 333 10195 20160=
07020,1998-09-19 00:00:00,14,1027.9,0.9,94,13,0,7.408,,,130,,,,,,,,,,,wg-a,,,,AAXX 19004 07020 12/// /1304 10140 20130 30262 40279 51009 60006 90000=
07020,1998-09-19 06:00:00,14,1028.7,0.9,88,12,18000,11.112,,,120,13.2,16.9,,,,,,,,,wg-a,,,,AAXX 19064 07020 12/68 31206 10140 20120 30270 40287 53009 60006 80008 90600 333 10169 20132=
07020,1998-09-19 12:00:00,20,1030.4,0.4,68,14,18000,18.52,,,230,,,,,,,,,,,wg-a,,,,AAXX 19124 07020 12/68 42310 10200 20140 30287 40304 51004 60006 80008 91200=
07020,1998-09-19 18:00:00,18,1030,-0.3,83,15,18000,22.224,,,90,13.8,21.3,,,,,,,,,wg-a,,,,AAXX 19184 07020 12/68 40912 10180 20150 30283 40300 56003 60006 80008 91800 333 10213 20138=
07020,1998-09-20 00:00:00,15,1031.3,0.5,88,13,0,7.408,,,120,,,,,,,,,,,wg-a,,,,AAXX 20004 07020 12/// /1204 10150 20130 30296 40313 53005 60006 90000=
07020,1998-09-20 06:00:00,15,1031.8,0.4,94,14,10000,11.112,,,130,13.4,17.9,,,,,,,,,wg-a,,,,AAXX 20064 07020 12/60 11306 10150 20140 30301 40318 53004 60006 80008 90600 333 10179 20134=
07020,1998-09-20 12:00:00,19,1032.9,0,88,17,6000,25.928,,,100,,,,,,,,,,,wg-a,,,,AAXX 20124 07020 12556 71014 10190 20170 30312 40329 50000 60006 876// 91200=
07020,1998-09-20 18:00:00,16,1031.2,-0.4,94,15,12000,35.188,,,90,14.5,19.3,,,,,,,,,wg-a,,,,AAXX 20184 07020 32662 30919 10160 20150 30295 40312 56004 82620 91800 333 10193 20145=
07020,1998-09-21 00:00:00,17,1031.6,-0.3,88,15,0,31.484,,,100,,,,,,,,,,,wg-a,,,,AAXX 21004 07020 12/// /1017 10170 20150 30299 40316 58003 60006 90000=
07020,1998-09-21 06:00:00,17,1031.1,-0.1,88,15,6000,29.632,,,90,16.1,17,,,,,,,,,wg-a,,,,AAXX 21064 07020 12556 80916 10170 20150 30294 40311 55001 60006 8462/ 90600 333 10170 20161=
07020,1998-09-21 12:00:00,18,1029,-1.4,83,15,6000,42.596,,,80,,,,,,,,,,,wg-a,,,,AAXX 21124 07020 12556 50823 10180 20150 30273 40290 58014 60006 81620 91200=
07020,1998-09-21 18:00:00,17,1026.5,-0.6,82,14,10000,53.708,,,80,16.5,17.9,,,,,,,,,wg-a,,,,AAXX 21184 07020 12560 60829 10170 20140 30248 40265 56006 60006 81605 91800 333 10179 20165=
07020,1998-09-22 00:00:00,17,1026,0.3,88,15,0,29.632,,,90,,,,,,,,,,,wg-a,,,,AAXX 22004 07020 12/// /0916 10170 20150 30243 40260 50003 60006 90000=
07020,1998-09-22 06:00:00,16,1023.7,-1.2,88,14,15000,42.596,,,90,16.1,17.3,,,,,,,,,wg-a,,,,AAXX 22064 07020 12865 70923 10160 20140 30220 40237 56012 60006 83035 90600 333 10173 20161=
07020,1998-09-22 12:00:00,18,1021.7,-1.4,77,14,15000,46.3,,,90,,,,,,,,,,,wg-a,,,,AAXX 22124 07020 12665 20925 10180 20140 30200 40217 58014 60006 81101 91200=
07020,1998-09-22 18:00:00,17,1019.8,-0.5,82,14,15000,42.596,,,80,16.4,18.2,,,,,,,,,wg-a,,,,AAXX 22184 07020 12/65 00823 10170 20140 30181 40198 56005 60006 80000 91800 333 10182 20164=
07020,1998-09-23 00:00:00,17,1018.2,-1.3,88,15,0,31.484,,,100,,,,,,,,,,,wg-a,,,,AAXX 23004 07020 12/// /1017 10170 20150 30165 40182 56013 60006 90000=
07020,1998-09-23 06:00:00,15,1017.6,-0.4,82,12,10000,29.632,,,110,13.2,16.9,,,,,,,,,wg-a,,,,AAXX 23064 07020 12660 11116 10150 20120 30159 40176 55004 60006 81100 90600 333 10169 20132=
07020,1998-09-23 12:00:00,19,1017.6,-0.3,78,15,10000,29.632,,,100,,,,,,,,,,,wg-a,,,,AAXX 23124 07020 12/60 01016 10190 20150 30159 40176 58003 60006 80000 91200=
07020,1998-09-23 18:00:00,17,1016.4,-0.3,94,16,6000,22.224,,,110,14.6,18.7,,,,,,,,,wg-a,,,,AAXX 23184 07020 12/56 01112 10170 20160 30147 40164 57003 60006 80000 91800 333 10187 20146=
07020,1998-09-24 00:00:00,16,1014.9,-1.3,94,15,0,18.52,,,120,,,,,,,,,,,wg-a,,,,AAXX 24004 07020 12/// /1210 10160 20150 30132 40149 56013 60006 90000=
07020,1998-09-24 06:00:00,16,1013.5,-0.5,88,14,8000,7.408,,,120,14.8,17.1,,,,,,,,,wg-a,,,,AAXX 24064 07020 12558 81204 10160 20140 30118 40135 56005 60006 8267/ 90600 333 10171 20148=
07020,1998-09-24 12:00:00,19,1013.2,-0.3,78,15,9000,7.408,,,20,,,,,,,,,,,wg-a,,,,AAXX 24124 07020 12859 60204 10190 20150 30116 40132 58003 60006 86010 91200=
07020,1998-09-24 18:00:00,16,1011.4,0.1,94,15,8000,18.52,,,160,15.5,20.4,,6,,,,,,95,wg-a,,,,AAXX 24184 07020 12558 81610 10160 20150 30097 40114 53001 60067 79586 883// 91800 333 10204 20155=
07020,1998-09-25 00:00:00,15,1009.9,-0.7,94,14,0,14.816,,,120,,,,,,,,,,,wg-a,,,,AAXX 25004 07020 12/// /1208 10150 20140 30082 40099 57007 60096 90000=
07020,1998-09-25 06:00:00,14,1008.4,-0.8,94,13,12000,14.816,,,140,14.2,16.4,,,,,,,,,wg-a,,,,AAXX 25064 07020 32/62 41408 10140 20130 30067 40084 56008 81045 90600 333 10164 20142=
07020,1998-09-25 12:00:00,18,1007.2,-0.5,83,15,10000,7.408,,,160,,,,,,,,,,,wg-a,,,,AAXX 25124 07020 12560 81604 10180 20150 30056 40072 56005 60006 81130 91200=
07020,1998-09-25 18:00:00,17,1004.7,-0.8,94,16,10000,11.112,,,150,14,18.5,,1,,,,,,21,wg-a,,,,AAXX 25184 07020 12560 81506 10170 20160 30031 40047 56008 60017 72162 8/800 91800 333 10185 20140=
07020,1998-09-26 00:00:00,16,1002.3,-1.4,88,14,0,14.816,,,120,,,,,,,,,,,wg-a,,,,AAXX 26004 07020 12/// /1208 10160 20140 30007 40023 58014 60006 90000=
07020,1998-09-26 06:00:00,16,998.2,-1.4,94,15,12000,18.52,,,120,15.3,17.4,,,,,,,,,wg-a,,,,AAXX 26064 07020 12562 81210 10160 20150 39966 49982 55014 60006 858// 90600 333 10174 20153=
07020,1998-09-26 12:00:00,17,997.7,-0,88,15,18000,31.484,,,190,,,,,,,,,,2,wg-a,,,,AAXX 26124 07020 02668 61917 10170 20150 39961 49977 55000 60016 70286 85770 91200 333 61000=
07020,1998-09-26 18:00:00,17,997.6,-0,88,15,500,14.816,,,120,16.1,18.8,,,,,,,,,wg-a,,,,AAXX 26184 07020 32/00 61208 10170 20150 39960 49976 55000 86030 91800 333 10188 20161=
07020,1998-09-27 00:00:00,14,996.8,-0.8,88,12,0,14.816,,,130,,,,,,,,,,,wg-a,,,,AAXX 27004 07020 12/// /1308 10140 20120 39952 49968 56008 60006 90000=
07020,1998-09-27 06:00:00,16,996.6,0.6,94,15,18000,31.484,,,30,13.6,16.5,,,,,,,,,wg-a,,,,AAXX 27064 07020 12668 60317 10160 20150 39950 49966 53006 60006 82535 90600 333 10165 20136=
07020,1998-09-27 12:00:00,18,1000.1,1.2,83,15,11000,22.224,,,300,,,,,,,,,,,wg-a,,,,AAXX 27124 07020 12561 63012 10180 20150 39985 40001 51012 60006 83555 91200=
07020,1998-09-27 18:00:00,16,1001.3,0.3,88,14,7000,31.484,,,270,15.6,19.5,,0,,,,,,61,wg-a,,,,AAXX 27184 07020 12557 82717 10160 20140 39997 40013 53003 60007 76162 848// 91800 333 10195 20156=
07020,1998-09-28 00:00:00,17,1003.4,0.4,94,16,0,22.224,,,310,,,,,,,,,,,wg-a,,,,AAXX 28004 07020 12/// /3112 10170 20160 30018 40034 53004 60036 90000=
07020,1998-09-28 06:00:00,16,1004.9,1.1,94,15,3000,18.52,,,300,15.6,16.7,,,,,,,,,wg-a,,,,AAXX 28064 07020 02530 83010 10160 20150 30033 40049 53011 61000 836// 90600 333 10167 20156 ////=
07020,1998-09-28 12:00:00,18,1007.2,0.9,88,16,500,22.224,,,290,,,,,,,,,,,wg-a,,,,AAXX 28124 07020 12500 82912 10180 20160 30056 40072 51009 60006 886// 91200=
07020,1998-09-28 18:00:00,17,1008.1,0.7,88,15,9000,25.928,,,290,16.3,18.1,,,,,,,,,wg-a,,,,AAXX 28184 07020 12859 72914 10170 20150 30064 40081 53007 60006 8702/ 91800 333 10181 20163=
07020,1998-09-29 00:00:00,16,1008.8,-0.3,88,14,0,22.224,,,300,,,,,,,,,,,wg-a,,,,AAXX 29004 07020 12/// /3012 10160 20140 30071 40088 58003 60006 90000=
07020,1998-09-29 06:00:00,15,1007.1,-1,88,13,9000,3.704,,,10,14.8,16.6,,,,,,,,,wg-a,,,,AAXX 29064 07020 32559 60102 10150 20130 30054 40071 56010 86800 90600 333 10166 20148=
07020,1998-09-29 12:00:00,15,1004.4,-1.6,88,13,12000,18.52,,,170,,,,,,,,,,,wg-a,,,,AAXX 29124 07020 12662 81710 10150 20130 30027 40044 58016 60006 8472/ 91200=
07020,1998-09-29 18:00:00,15,999.5,-2.4,82,12,14000,18.52,,,130,13.4,16.4,,,,,,,,2,wg-a,,,,AAXX 29184 07020 32664 81310 10150 20120 39979 49995 58024 70282 8127/ 91800 333 10164 20134=
07020,1998-09-30 00:00:00,15,993.2,-3,94,14,0,31.484,,,170,,,,,,,,,,,wg-a,,,,AAXX 30004 07020 12/// /1717 10150 20140 39916 49932 56030 60036 90000=
07020,1998-09-30 06:00:00,15,992.2,-0.1,82,12,18000,50.004,,72.228,220,13.4,16.1,,5,,,,,,,wg-a,,,,AAXX 30064 07020 12568 82227 10150 20120 39906 49922 57001 60057 8472/ 90600 333 10161 20134 91039=
07020,1998-09-30 12:00:00,17,990.9,-1.8,72,12,20000,42.596,,75.932,170,,,,,,,,,,,wg-a,,,,AAXX 30124 07020 12570 71723 10170 20120 39893 49909 58018 60006 845// 91200 333 91041=
07020,1998-09-30 18:00:00,15,991.4,1,88,13,6000,38.892,,72.228,200,14.3,17.4,,6,,,,,,25,wg-a,,,,AAXX 30184 07020 12556 52021 10150 20130 39898 49914 53010 60067 72586 85230 91800 333 10174 20143 91039=
07020,1998-10-01 00:00:00,15,992.5,0.4,88,13,0,35.188,,,180,,,,,,,,,,,wg-a,,,,AAXX 01004 07020 12/// /1819 10150 20130 39909 49925 51004 60006 90000=
07020,1998-10-01 06:00:00,13,994.5,1.2,94,12,10000,25.928,,61.116,140,13.4,15.5,,1,,,,,,,wg-a,,,,AAXX 01064 07020 12560 51414 10130 20120 39929 49945 52012 60017 83850 90600 333 10155 20134 91033=
07020,1998-10-01 12:00:00,17,998.9,2,82,14,500,22.224,,,110,,,,,,,,,,,wg-a,,,,AAXX 01124 07020 12500 71112 10170 20140 39973 49989 51020 60006 8427/ 91200=
07020,1998-10-01 18:00:00,16,1002.4,2.1,82,13,20000,31.484,,,90,13.3,17,,,,,,,,25,wg-a,,,,AAXX 01184 07020 02570 70917 10160 20130 30008 40024 53021 61000 72582 8677/ 91800 333 10170 20133 ////=
07020,1998-10-02 00:00:00,15,1005.7,1.2,88,13,0,50.004,,,60,,,,,,,,,,,wg-a,,,,AAXX 02004 07020 12/// /0627 10150 20130 30040 40057 53012 60026 90000=
07020,1998-10-02 06:00:00,16,1009,2.2,88,14,10000,42.596,,,60,14.4,16.4,,1,,,,,,,wg-a,,,,AAXX 02064 07020 12560 70623 10160 20140 30073 40090 53022 60017 8536/ 90600 333 10164 20144=
07020,1998-10-02 12:00:00,16,1012.3,1.1,82,13,14000,31.484,,,60,,,,,,,,,,,wg-a,,,,AAXX 02124 07020 12564 70617 10160 20130 30106 40123 51011 60006 872// 91200=
07020,1998-10-02 18:00:00,15,1013.6,0.5,82,12,12000,14.816,,,70,15.2,17.1,,,,,,,,2,wg-a,,,,AAXX 02184 07020 32762 70708 10150 20120 30119 40136 53005 70282 872// 91800 333 10171 20152=
07020,1998-10-03 00:00:00,12,1014.7,-0.2,82,9,0,31.484,,,70,,,,,,,,,,,wg-a,,,,AAXX 03004 07020 12/// /0717 10120 20090 30130 40147 58002 60056 90000=
07020,1998-10-03 06:00:00,12,1014.7,-0.2,76,8,500,18.52,,,20,12,15.3,,,,,,,,,wg-a,,,,AAXX 03064 07020 32600 70210 10120 20080 30130 40147 55002 878// 90600 333 10153 20120=
07020,1998-10-03 12:00:00,13,1014.3,-0.4,62,6,500,25.928,,,50,,,,,,,,,,,wg-a,,,,AAXX 03124 07020 12500 60514 10130 20060 30126 40143 57004 60006 86800 91200=
07020,1998-10-03 18:00:00,12,1012.4,-0.8,58,4,500,11.112,,,60,11.8,13.8,,,,,,,,,wg-a,,,,AAXX 03184 07020 12600 60606 10120 20040 30107 40124 56008 60006 84105 91800 333 10138 20118=
07020,1998-10-04 00:00:00,13,1010,-1.9,62,6,0,14.816,,,10,,,,,,,,,,,wg-a,,,,AAXX 04004 07020 12/// /0108 10130 20060 30083 40100 56019 60006 90000=
07020,1998-10-04 06:00:00,13,1006.5,-1.2,77,9,20000,18.52,,,70,9.2,12.9,,,,,,,,,wg-a,,,,AAXX 04064 07020 12570 70710 10130 20090 30048 40065 56012 60006 871// 90600 333 10129 20092=
07020,1998-10-04 12:00:00,13,1006.1,-0.3,77,9,500,35.188,,,60,,,,,,,,,,2,wg-a,,,,AAXX 04124 07020 02500 70619 10130 20090 30044 40061 58003 61000 70282 877// 91200 333 ////=
07020,1998-10-04 18:00:00,13,1005.9,0.4,72,8,500,22.224,,,60,12.6,13.6,,,,,,,,,wg-a,,,,AAXX 04184 07020 32600 70612 10130 20080 30042 40059 53004 877// 91800 333 10136 20126=
07020,1998-10-05 00:00:00,12,1006.7,-0,88,10,0,31.484,,,50,,,,0,,,,,,,wg-a,,,,AAXX 05004 07020 02/// /0517 10120 20100 30050 40067 54000 60026 90000 333 60007=
07020,1998-10-05 06:00:00,13,1006.9,0.2,82,10,500,31.484,,,50,11.3,13.4,,,,,,,,,wg-a,,,,AAXX 05064 07020 32600 80517 10130 20100 30052 40069 53002 888// 90600 333 10134 20113=
07020,1998-10-05 12:00:00,12,1010,1,82,9,14000,11.112,,,100,,,,0,,,,,,2,wg-a,,,,AAXX 05124 07020 02564 81006 10120 20090 30083 40100 52010 60026 70262 8272/ 91200 333 60007=
07020,1998-10-05 18:00:00,13,1010.6,0.7,72,8,16000,25.928,,,70,10.7,14.4,,0,,,,,,2,wg-a,,,,AAXX 05184 07020 12566 80714 10130 20080 30089 40106 53007 60007 70262 825// 91800 333 10144 20107=
07020,1998-10-06 00:00:00,12,1011.6,0,88,10,0,29.632,,,80,,,,,,,,,,,wg-a,,,,AAXX 06004 07020 12/// /0816 10120 20100 30099 40116 50000 60016 90000=
07020,1998-10-06 06:00:00,11,1012.7,0.6,82,8,12000,14.816,,,80,9.8,13.3,,1,,,,,,,wg-a,,,,AAXX 06064 07020 12562 80808 10110 20080 30110 40127 52006 60017 848// 90600 333 10133 20098=
07020,1998-10-06 12:00:00,14,1014.7,0.9,72,9,18000,25.928,,,80,,,,,,,,,,2,wg-a,,,,AAXX 06124 07020 12568 70814 10140 20090 30130 40147 50009 60036 70262 8627/ 91200=
07020,1998-10-06 18:00:00,14,1016.1,1,88,12,15000,42.596,,,60,10.8,14.7,,,,,,,,,wg-a,,,,AAXX 06184 07020 32565 70623 10140 20120 30144 40161 52010 877// 91800 333 10147 20108=
07020,1998-10-07 00:00:00,13,1017.8,0.6,82,10,0,31.484,,,60,,,,,,,,,,,wg-a,,,,AAXX 07004 07020 12/// /0617 10130 20100 30161 40178 51006 60006 90000=
07020,1998-10-07 06:00:00,13,1018.7,0.7,82,10,15000,31.484,,,50,12.4,14.3,,,,,,,,,wg-a,,,,AAXX 07064 07020 12565 70517 10130 20100 30170 40187 53007 60006 877// 90600 333 10143 20124=
07020,1998-10-07 12:00:00,14,1021.4,1.3,77,10,16000,35.188,,,20,,,,,,,,,,,wg-a,,,,AAXX 07124 07020 12566 70219 10140 20100 30197 40214 52013 60006 858// 91200=
07020,1998-10-07 18:00:00,14,1023.3,1.5,72,9,14000,42.596,,,20,12.8,14.4,,,,,,,,,wg-a,,,,AAXX 07184 07020 12564 80223 10140 20090 30216 40233 53015 60006 848// 91800 333 10144 20128=
07020,1998-10-08 00:00:00,13,1024.5,-0,77,9,0,50.004,,,30,,,,,,,,,,,wg-a,,,,AAXX 08004 07020 12/// /0327 10130 20090 30228 40245 55000 60006 90000=
07020,1998-10-08 06:00:00,12,1025,0.9,82,9,10000,53.708,,,30,12.3,14.4,,,,,,,,,wg-a,,,,AAXX 08064 07020 12560 80329 10120 20090 30233 40250 53009 60006 887// 90600 333 10144 20123=
07020,1998-10-08 18:00:00,13,1026.2,-0.2,72,8,16000,61.116,,,30,12.3,13.5,,,,,,,,,wg-a,,,,AAXX 08184 07020 12566 80333 10130 20080 30245 40262 55002 60006 887// 91800 333 10135 20123=
07020,1998-10-09 00:00:00,13,1025.3,-1.1,82,10,0,53.708,,,40,,,,,,,,,,,wg-a,,,,AAXX 09004 07020 12/// /0429 10130 20100 30236 40253 58011 60006 90000=
07020,1998-10-09 06:00:00,13,1024.9,0,82,10,16000,29.632,,,50,12.6,13.6,,,,,,,,,wg-a,,,,AAXX 09064 07020 12666 80516 10130 20100 30232 40249 50000 60006 885// 90600 333 10136 20126=
07020,1998-10-09 12:00:00,13,1022.3,-2,82,10,18000,25.928,,,300,,,,,,,,,,,wg-a,,,,AAXX 09124 07020 12568 83014 10130 20100 30206 40223 58020 60006 887// 91200=
07020,1998-10-09 18:00:00,14,1017.2,-2.4,88,12,16000,31.484,,,250,12.8,14,,,,,,,,,wg-a,,,,AAXX 09184 07020 12566 82517 10140 20120 30155 40172 58024 60006 887// 91800 333 10140 20128=
07020,1998-10-10 00:00:00,15,1012,-2.9,100,15,0,38.892,,,260,,,,,,,,,,,wg-a,,,,AAXX 10004 07020 12/// /2621 10150 20150 30103 40120 56029 60056 90000=
07020,1998-10-10 06:00:00,14,1011.2,-0.2,88,12,16000,35.188,,,320,13.3,15.4,,,,,,,,,wg-a,,,,AAXX 10064 07020 32566 73219 10140 20120 30095 40112 56002 8455/ 90600 333 10154 20133=
07020,1998-10-10 12:00:00,14,1011.2,-0.2,88,12,16000,35.188,,,320,13.3,15.4,,,,,,,,,wg-a,,,,AAXX 10124 07020 32566 73219 10140 20120 30095 40112 56002 8455/ 91200 333 10154 20133=
07020,1998-10-10 18:00:00,15,1015.9,1.9,77,11,35000,31.484,,,310,14.3,16.3,,,,,,,,,wg-a,,,,AAXX 10184 07020 12681 53117 10150 20110 30142 40159 53019 60006 85800 91800 333 10163 20143=
07020,1998-10-11 00:00:00,14,1016.3,-0.7,72,9,0,29.632,,,280,,,,,,,,,,,wg-a,,,,AAXX 11004 07020 12/// /2816 10140 20090 30146 40163 58007 60006 90000=
07020,1998-10-11 06:00:00,15,1012.2,-2.1,94,14,6000,53.708,,72.228,260,14,15.1,,0,,,,,,61,wg-a,,,,AAXX 11064 07020 12556 82629 10150 20140 30105 40122 58021 60007 761// 887// 90600 333 10151 20140 91039=
07020,1998-10-11 12:00:00,16,1013.4,1,82,13,16000,42.596,,75.932,300,,,,,,,,,,2,wg-a,,,,AAXX 11124 07020 02566 63023 10160 20130 30117 40134 53010 60046 70262 83235 91200 333 61000 91041=
07020,1998-10-11 18:00:00,15,1015.1,1,72,10,18000,38.892,,,320,14.6,17,,,,,,,,,wg-a,,,,AAXX 11184 07020 32668 63221 10150 20100 30134 40151 53010 85201 91800 333 10170 20146=
07020,1998-10-12 00:00:00,15,1015.9,-0.5,72,10,0,50.004,,,300,,,,,,,,,,,wg-a,,,,AAXX 12004 07020 12/// /3027 10150 20100 30142 40159 58005 60006 90000=
07020,1998-10-12 06:00:00,14,1016.9,1.2,77,10,14000,42.596,,,320,13.9,14.9,,,,,,,,,wg-a,,,,AAXX 12064 07020 12564 73223 10140 20100 30152 40169 53012 60006 858// 90600 333 10149 20139=
07020,1998-10-12 12:00:00,14,1020.8,1.6,67,8,20000,35.188,,,330,,,,,,,,,,,wg-a,,,,AAXX 12124 07020 12670 43319 10140 20080 30191 40208 51016 60006 84105 91200=
07020,1998-10-12 18:00:00,14,1022.1,0.9,63,7,20000,29.632,,,310,14.1,15.4,,,,,,,,,wg-a,,,,AAXX 12184 07020 12670 63116 10140 20070 30204 40221 53009 60006 86500 91800 333 10154 20141=
07020,1998-10-13 00:00:00,14,1022.3,-0.2,67,8,0,22.224,,,300,,,,,,,,,,,wg-a,,,,AAXX 13004 07020 12/// /3012 10140 20080 30206 40223 58002 60006 90000=
07020,1998-10-13 06:00:00,13,1019.8,-1.4,88,11,18000,42.596,,,250,13,14.4,,,,,,,,,wg-a,,,,AAXX 13064 07020 12668 82523 10130 20110 30181 40198 58014 60006 8577/ 90600 333 10144 20130=
07020,1998-10-13 12:00:00,16,1018.4,-0.8,94,15,2000,42.596,,64.82,240,,,,1,,,,,,60,wg-a,,,,AAXX 13124 07020 02520 82423 10160 20150 30167 40184 57008 60016 76065 887// 91200 333 60017 91035=
07020,1998-10-13 18:00:00,16,1017.9,0.6,100,16,10000,31.484,,,270,12.8,16,,,,,,,,60,wg-a,,,,AAXX 13184 07020 02560 82717 10160 20160 30162 40179 53006 61000 76062 887// 91800 333 10160 20128 ////=
07020,1998-10-14 00:00:00,16,1018.5,-0.2,94,15,0,42.596,,,250,,,,,,,,,,,wg-a,,,,AAXX 14004 07020 02/// /2523 10160 20150 30168 40185 58002 61000 90000 333 ////=
07020,1998-10-14 06:00:00,16,1017.5,0.1,94,15,6000,53.708,,,260,15.8,16.1,,,,,,,,,wg-a,,,,AAXX 14064 07020 02556 82629 10160 20150 30158 40175 51001 61000 887// 90600 333 10161 20158 ////=
07020,1998-10-14 12:00:00,16,1018.6,0.2,100,16,8000,46.3,,,260,,,,,,,,,,60,wg-a,,,,AAXX 14124 07020 02558 82625 10160 20160 30169 40186 50002 60006 76062 8472/ 91200 333 61000=
07020,1998-10-14 18:00:00,16,1021.8,2.1,88,14,20000,18.52,,,290,15.5,16.5,,,,,,,,1,wg-a,,,,AAXX 14184 07020 32670 62910 10160 20140 30201 40218 53021 70162 81150 91800 333 10165 20155=
07020,1998-10-15 00:00:00,14,1023.6,0.2,77,10,0,18.52,,,340,,,,,,,,,,,wg-a,,,,AAXX 15004 07020 12/// /3410 10140 20100 30219 40236 50002 60006 90000=
07020,1998-10-15 06:00:00,13,1023.6,0.4,77,9,20000,14.816,,,320,12.8,15.8,,,,,,,,,wg-a,,,,AAXX 15064 07020 12670 63208 10130 20090 30219 40236 51004 60006 84130 90600 333 10158 20128=
07020,1998-10-15 12:00:00,15,1024.2,-0.3,63,8,500,7.408,,,270,,,,,,,,,,,wg-a,,,,AAXX 15124 07020 12600 62704 10150 20080 30225 40242 58003 60006 82538 91200=
07020,1998-10-15 18:00:00,14,1023.2,-0.2,63,7,25000,3.704,,,360,12.9,16.4,,,,,,,,,wg-a,,,,AAXX 15184 07020 12675 83602 10140 20070 30215 40232 55002 60006 81258 91800 333 10164 20129=
07020,1998-10-16 00:00:00,11,1021.2,-1.4,82,8,0,18.52,,,170,,,,,,,,,,,wg-a,,,,AAXX 16004 07020 12/// /1710 10110 20080 30195 40212 58014 60006 90000=
07020,1998-10-16 06:00:00,13,1016.3,-2.6,94,12,4000,25.928,,,180,9.9,13.7,,,,,,,,,wg-a,,,,AAXX 16064 07020 12540 81814 10130 20120 30146 40163 57026 60006 887// 90600 333 10137 20099=
07020,1998-10-16 12:00:00,17,1013,-2.1,88,15,8000,42.596,,,220,,,,,,,,,,2,wg-a,,,,AAXX 16124 07020 02558 82223 10170 20150 30113 40130 56021 61000 70265 8472/ 91200 333 6100=
07020,1998-10-16 18:00:00,16,1008.1,-2.3,82,13,20000,50.004,,68.524,220,12.9,16.9,,,,,,,,,wg-a,,,,AAXX 16184 07020 32570 82227 10160 20130 30064 40081 56023 8472/ 91800 333 10169 20129 91037=
07020,1998-10-17 00:00:00,15,1003,-2.6,94,14,0,57.412,,,210,,,,,,,,,,,wg-a,,,,AAXX 17004 07020 12/// /2131 10150 20140 30014 40030 58026 60006 90000=
07020,1998-10-17 06:00:00,13,1000.6,0.8,100,13,0,38.892,,,320,13.3,15.9,,8,,,,,,,wg-a,,,,AAXX 17064 07020 12/// /3221 10130 20130 39989 40006 53008 60087 90600 333 10159 20133=
07020,1998-10-17 12:00:00,15,1006.7,2.2,59,7,26000,46.3,,75.932,280,,,,,,,,,,1,wg-a,,,,AAXX 17124 07020 12676 42825 10150 20070 30050 40067 51022 60016 70160 84200 91200 333 91041=
07020,1998-10-17 18:00:00,14,1011.5,2.8,72,9,14000,53.708,,75.932,300,12.8,14.9,,,,,,,,2,wg-a,,,,AAXX 17184 07020 32664 63029 10140 20090 30098 40115 53028 70286 86200 91800 333 10149 20128 91041=
07020,1998-10-18 00:00:00,12,1017.2,2.3,71,7,0,22.224,,,20,,,,,,,,,,,wg-a,,,,AAXX 18004 07020 12/// /0212 10120 20070 30155 40172 51023 60006 90000=
07020,1998-10-18 06:00:00,8,1019.3,0.9,87,6,18000,7.408,,,140,8.1,14.3,,,,,,,,,wg-a,,,,AAXX 18064 07020 12668 41404 10080 20060 30176 40193 51009 60006 84200 90600 333 10143 20081=
07020,1998-10-18 12:00:00,14,1020.1,-0.4,63,7,40000,11.112,,,220,,,,,,,,,,,wg-a,,,,AAXX 18124 07020 12882 62206 10140 20070 30184 40201 58004 60006 82138 91200=
07020,1998-10-18 18:00:00,10,1018,-0.7,82,7,40000,14.816,,,150,8,15.4,,0,,,,,,,wg-a,,,,AAXX 18184 07020 12882 61508 10100 20070 30163 40180 56007 60007 82138 91800 333 10154 20080=
07020,1998-10-19 00:00:00,13,1017.6,-0.2,77,9,0,22.224,,,300,,,,,,,,,,,wg-a,,,,AAXX 19004 07020 12/// /3012 10130 20090 30159 40176 56002 60016 90000=
07020,1998-10-19 06:00:00,13,1018.3,0.9,72,8,500,31.484,,,310,9.4,13.6,,,,,,,,,wg-a,,,,AAXX 19064 07020 32600 33117 10130 20080 30166 40183 53009 83200 90600 333 10136 20094=
07020,1998-10-19 12:00:00,14,1020.9,0.6,67,8,500,29.632,,,320,,,,,,,,,,,wg-a,,,,AAXX 19124 07020 12600 53216 10140 20080 30192 40209 53006 60006 85100 91200=
07020,1998-10-19 18:00:00,12,1021.8,0.6,76,8,500,18.52,,,270,12.1,14.6,,,,,,,,2,wg-a,,,,AAXX 19184 07020 02500 52710 10120 20080 30201 40218 53006 61000 70282 84105 91800 333 10146 20121 ////=
07020,1998-10-20 00:00:00,13,1022.3,-0.3,67,7,0,25.928,,,300,,,,,,,,,,,wg-a,,,,AAXX 20004 07020 12/// /3014 10130 20070 30206 40223 58003 60006 90000=
07020,1998-10-20 06:00:00,14,1021.9,-0.2,72,9,18000,25.928,,,280,12.1,13.6,,,,,,,,,wg-a,,,,AAXX 20064 07020 12568 82814 10140 20090 30202 40219 57002 60006 8455/ 90600 333 10136 20121=
07020,1998-10-20 12:00:00,14,1021.8,-0.6,72,9,35000,38.892,,,240,,,,,,,,,,,wg-a,,,,AAXX 20124 07020 12581 72421 10140 20090 30201 40218 58006 60006 8577/ 91200=
07020,1998-10-20 18:00:00,14,1018.1,-2,72,9,12000,42.596,,,210,13.3,15.3,,,,,,,,,wg-a,,,,AAXX 20184 07020 12562 82123 10140 20090 30164 40181 56020 60006 82620 91800 333 10153 20133=
07020,1998-10-21 00:00:00,14,1014.1,-2.4,82,11,0,53.708,,,210,,,,,,,,,,,wg-a,,,,AAXX 21004 07020 12/// /2129 10140 20110 30124 40141 58024 60006 90000=
07020,1998-10-21 06:00:00,15,1010.7,-0.9,94,14,18000,61.116,,90.748,230,13.7,15.3,,,,,,,,,wg-a,,,,AAXX 21064 07020 12668 72333 10150 20140 30090 40107 56009 60006 875// 90600 333 10153 20137 91049=
07020,1998-10-21 12:00:00,16,1013.2,0.5,100,16,6000,38.892,,,240,,,,,,,,,,60,wg-a,,,,AAXX 21124 07020 32456 82421 10160 20160 30115 40132 51005 76062 8472/ 91200=
07020,1998-10-21 18:00:00,16,1014.5,1.3,100,16,6000,38.892,,,240,15.1,16.7,,1,,,,,,60,wg-a,,,,AAXX 21184 07020 12456 82421 10160 20160 30128 40145 53013 60017 76062 8472/ 91800 333 10167 20151=
07020,1998-10-22 00:00:00,16,1016.1,0.5,100,16,0,35.188,,,220,,,,,,,,,,,wg-a,,,,AAXX 22004 07020 12/// /2219 10160 20160 30144 40161 50005 60016 90000=
07020,1998-10-22 06:00:00,16,1016,0,94,15,12000,42.596,,,220,15.8,16.3,,,,,,,,,wg-a,,,,AAXX 22064 07020 02562 82223 10160 20150 30143 40160 50000 61000 845// 90600 333 10163 20158 ////=
07020,1998-10-22 12:00:00,17,1016.8,-0.8,88,15,8000,46.3,,,200,,,,,,,,,,,wg-a,,,,AAXX 22124 07020 12558 82025 10170 20150 30151 40168 58008 60006 8272/ 91200=
07020,1998-10-22 18:00:00,16,1015.7,-0.6,94,15,10000,42.596,,,210,16,16.8,,,,,,,,2,wg-a,,,,AAXX 22184 07020 02560 82123 10160 20150 30140 40157 58006 61000 70282 8272/ 91800 333 10168 20160 ////=
07020,1998-10-23 00:00:00,17,1011.9,-2.7,88,15,0,57.412,,,210,,,,,,,,,,,wg-a,,,,AAXX 23004 07020 12/// /2131 10170 20150 30102 40119 57027 60006 90000=
07020,1998-10-23 06:00:00,16,1010.3,-0.1,100,16,4000,50.004,,,250,15.7,16.7,,8,,,,,,65,wg-a,,,,AAXX 23064 07020 12540 82527 10160 20160 30086 40103 58001 60087 7656/ 8472/ 90600 333 10167 20157=
07020,1998-10-23 12:00:00,16,1012.2,0.6,94,15,10000,46.3,,,250,,,,0,,,,,,21,wg-a,,,,AAXX 23124 07020 02560 82525 10160 20150 30105 40122 51006 60026 72166 8272/ 91200 333 60007=
07020,1998-10-23 18:00:00,14,1014.4,2.6,72,9,12000,53.708,,87.044,290,14,16.3,,,,,,,,2,wg-a,,,,AAXX 23184 07020 32562 52929 10140 20090 30127 40144 53026 70266 8/600 91800 333 10163 20140 91047=
07020,1998-10-24 00:00:00,14,1018.9,1.4,72,9,0,35.188,,,290,,,,,,,,,,,wg-a,,,,AAXX 24004 07020 12/// /2919 10140 20090 30172 40189 51014 60006 90000=
07020,1998-10-24 06:00:00,13,1012.8,-3.5,88,11,12000,42.596,,61.116,200,12.6,14.1,,0,,,,,,,wg-a,,,,AAXX 24064 07020 12562 82023 10130 20110 30111 40128 58035 60007 887// 90600 333 10141 20126 91033=
07020,1998-10-24 12:00:00,15,997.1,-6.7,100,15,2500,68.524,,103.712,210,,,,9,,,,,,61,wg-a,,,,AAXX 24124 07020 02425 82137 10150 20150 39955 49971 58067 60156 76162 887// 91200 333 60097 91056=
07020,1998-10-24 18:00:00,15,990.7,-2.2,77,11,8000,68.524,,111.12,270,12.7,16.2,,5,,,,,,21,wg-a,,,,AAXX 24184 07020 12558 72737 10150 20110 39891 49907 56022 60057 72162 877// 91800 333 10162 20127 91060=
07020,1998-10-25 00:00:00,15,993.9,2.9,72,10,0,75.932,,,290,,,,,,,,,,,wg-a,,,,AAXX 25004 07020 12/// /2941 10150 20100 39923 49939 51029 60006 90000=
07020,1998-10-25 06:00:00,14,1001.3,3.2,77,10,18000,57.412,,111.12,290,13.7,15,,,,,,,,,wg-a,,,,AAXX 25064 07020 12668 52931 10140 20100 39996 40013 51032 60006 85200 90600 333 10150 20137 91060=
07020,1998-10-25 12:00:00,14,1005.2,2.7,72,9,15000,64.82,,96.304,300,,,,,,,,,,2,wg-a,,,,AAXX 25124 07020 12565 53035 10140 20090 30035 40052 53027 60016 70282 8/300 91200 333 91052=
07020,1998-10-25 18:00:00,13,1008.1,1.7,72,8,15000,42.596,,,290,11.6,14.4,,0,,,,,,21,wg-a,,,,AAXX 25184 07020 12565 62923 10130 20080 30064 40081 53017 60007 72122 86700 91800 333 10144 20116=
07020,1998-10-26 00:00:00,13,1010.6,0.8,77,9,0,38.892,,,300,,,,0,,,,,,,wg-a,,,,AAXX 26004 07020 02/// /3021 10130 20090 30089 40106 51008 60006 90000 333 60007=
07020,1998-10-26 06:00:00,13,1009.6,-0,82,10,14000,50.004,,100.008,300,10.5,13.5,,2,,,,,,,wg-a,,,,AAXX 26064 07020 12564 63027 10130 20100 30079 40096 55000 60027 8/300 90600 333 10135 20105 91054=
07020,1998-10-26 12:00:00,13,1013.2,0.9,77,9,18000,46.3,,79.636,290,,,,0,,,,,,2,wg-a,,,,AAXX 26124 07020 02568 52925 10130 20090 30115 40132 53009 60006 70286 85200 91200 333 60007 91043=
07020,1998-10-26 18:00:00,13,1018.1,2.9,67,7,500,46.3,,79.636,290,11.7,14.1,,,,,,,,2,wg-a,,,,AAXX 26184 07020 32500 42925 10130 20070 30164 40181 51029 70281 84100 91800 333 10141 20117 91043=
07020,1998-10-27 00:00:00,15,1016.9,-1.8,82,12,0,57.412,,,260,,,,,,,,,,,wg-a,,,,AAXX 27004 07020 12/// /2631 10150 20120 30152 40169 56018 60006 90000=
07020,1998-10-27 06:00:00,15,1014.3,-1.3,82,12,15000,68.524,,94.452,260,13.2,14.8,,,,,,,,,wg-a,,,,AAXX 27064 07020 12665 62637 10150 20120 30126 40143 56013 60006 86500 90600 333 10148 20132 91051=
07020,1998-10-27 12:00:00,16,1012.1,-1.6,88,14,10000,68.524,,100.008,240,,,,,,,,,,2,wg-a,,,,AAXX 27124 07020 02560 82437 10160 20140 30104 40121 56016 61000 70262 887// 91200 333 6100 91054=
07020,1998-10-27 18:00:00,15,1009.4,-0.7,94,14,4000,68.524,,103.712,250,14.5,15.7,,5,,,,,,63,wg-a,,,,AAXX 27184 07020 12540 82537 10150 20140 30077 40094 58007 60057 76362 887// 91800 333 10157 20145 91056=
07020,1998-10-28 00:00:00,15,1005.4,-2.5,100,15,0,68.524,,,260,,,,1,,,,,,,wg-a,,,,AAXX 28004 07020 02/// /2637 10150 20150 30037 40054 56025 60026 90000 333 60017=
07020,1998-10-28 06:00:00,16,1004.3,-0.5,94,15,4000,68.524,,94.452,260,14.6,15.7,,0,,,,,,,wg-a,,,,AAXX 28064 07020 12540 82637 10160 20150 30027 40043 58005 60007 887// 90600 333 10157 20146 91051=
07020,1998-10-28 12:00:00,14,1008.7,2.2,94,13,10000,46.3,,96.304,280,,,,,,,,,,61,wg-a,,,,AAXX 28124 07020 02560 82825 10140 20130 30070 40087 51022 60006 76162 887// 91200 333 61000 91052=
07020,1998-10-28 18:00:00,14,1009.3,0.9,82,11,500,50.004,,79.636,270,13.2,16.1,,1,,,,,,61,wg-a,,,,AAXX 28184 07020 12500 82727 10140 20110 30076 40093 51009 60017 76162 887// 91800 333 10161 20132 91043=
07020,1998-10-29 00:00:00,14,1008.5,0.1,72,9,0,57.412,,,280,,,,1,,,,,,,wg-a,,,,AAXX 29004 07020 02/// /2831 10140 20090 30068 40085 53001 60026 90000 333 60017=
07020,1998-10-29 06:00:00,12,1013.1,3,71,7,12000,61.116,,90.748,310,11.2,14,,,,,,,,,wg-a,,,,AAXX 29064 07020 02662 63133 10120 20070 30114 40131 53030 61000 86700 90600 333 10140 20112 //// 91049=
07020,1998-10-29 12:00:00,13,1021.3,3.3,67,7,500,53.708,,87.044,300,,,,,,,,,,,wg-a,,,,AAXX 29124 07020 12600 53029 10130 20070 30196 40213 51033 60006 85100 91200 333 91047=
07020,1998-10-29 18:00:00,11,1023.1,0.1,76,7,10000,38.892,,94.452,290,10.8,13.7,,0,,,,,,61,wg-a,,,,AAXX 29184 07020 12560 82921 10110 20070 30214 40231 51001 60007 76162 887// 91800 333 10137 20108 91051=
07020,1998-10-30 00:00:00,13,1021.1,-1,77,9,0,50.004,,,280,,,,,,,,,,,wg-a,,,,AAXX 30004 07020 02/// /2827 10130 20090 30194 40211 58010 60006 90000 333 61000=
07020,1998-10-30 06:00:00,13,1018.5,-0.8,82,10,10000,61.116,,90.748,290,10.8,13.5,,0,,,,,,61,wg-a,,,,AAXX 30064 07020 12560 82933 10130 20100 30168 40185 56008 60007 76100 887// 90600 333 10135 20108 91049=
07020,1998-10-30 12:00:00,14,1020.1,0.6,77,10,20000,61.116,,83.34,300,,,,3,,,,,,1,wg-a,,,,AAXX 30124 07020 02670 53033 10140 20100 30184 40201 50006 60036 70186 85200 91200 333 60037 91045=
07020,1998-10-30 18:00:00,13,1021.5,0.6,77,9,20000,35.188,,,310,12.1,14.3,,,,,,,,,wg-a,,,,AAXX 30184 07020 32670 53119 10130 20090 30198 40215 52006 85200 91800 333 10143 20121=
07020,1998-10-31 00:00:00,13,1019.6,-1.7,77,9,0,29.632,,,270,,,,,,,,,,,wg-a,,,,AAXX 31004 07020 12/// /2716 10130 20090 30179 40196 58017 60006 90000=
07020,1998-10-31 06:00:00,13,1014.5,-2.5,82,10,20000,38.892,,61.116,270,11.6,13.4,,1,,,,,,,wg-a,,,,AAXX 31064 07020 12670 62721 10130 20100 30128 40145 58025 60017 85270 90600 333 10134 20116 91033=
07020,1998-10-31 12:00:00,13,1005.6,-5.5,100,13,6000,61.116,,79.636,230,,,,7,,,,,,63,wg-a,,,,AAXX 31124 07020 02556 82333 10130 20130 30039 40056 58055 60116 76366 888// 91200 333 60077 91043=
07020,1998-10-31 18:00:00,15,997.6,-2.8,100,15,500,72.228,,100.008,250,11.6,14.8,,8,,,,,,63,wg-a,,,,AAXX 31184 07020 12500 82539 10150 20150 39960 49976 58028 60087 76366 888// 91800 333 10148 20116 91054=
07020,1998-11-01 00:00:00,12,997.9,2.7,94,11,0,50.004,,,350,,,,1,,,,,,,wg-a,,,,AAXX 01004 07020 02/// /3527 10120 20110 39962 49979 53027 60036 90000 333 60017=
07020,1998-11-01 12:00:00,12,1011.4,1.6,67,6,50000,29.632,,,320,,,,,,,,,,,wg-a,,,,AAXX 01124 07020 12684 63216 10120 20060 30097 40114 51016 60006 86200 91200=
07020,1998-11-02 00:00:00,11,1011.3,-1.2,71,6,0,14.816,,,290,,,,,,,,,,,wg-a,,,,AAXX 02004 07020 12/// /2908 10110 20060 30096 40113 58012 60006 90000=
07020,1998-11-02 06:00:00,10,1006.2,-2.6,71,5,20000,31.484,,,220,10.3,12,,,,,,,,,wg-a,,,,AAXX 02064 07020 12670 62217 10100 20050 30045 40062 56026 60006 83230 90600 333 10120 20103=
07020,1998-11-02 12:00:00,12,998.7,-4.4,88,10,15000,46.3,,,210,,,,0,,,,,,25,wg-a,,,,AAXX 02124 07020 02565 82125 10120 20100 39970 49987 58044 60006 72582 887// 91200 333 60007=
07020,1998-11-02 18:00:00,13,992.6,0,72,8,10000,57.412,,90.748,270,9.7,13.1,,4,,,,,,2,wg-a,,,,AAXX 02184 07020 12560 72731 10130 20080 39910 49926 50000 60047 70286 877// 91800 333 10131 20097 91049=
07020,1998-11-03 00:00:00,12,991.5,-0.7,76,8,0,64.82,,,270,,,,0,,,,,,,wg-a,,,,AAXX 03004 07020 02/// /2735 10120 20080 39898 49915 58007 60006 90000 333 60007=
07020,1998-11-03 06:00:00,11,993,0.8,66,5,15000,53.708,,107.416,270,9.9,12.9,,0,,,,,,,wg-a,,,,AAXX 03064 07020 12565 82729 10110 20050 39913 49930 53008 60007 887// 90600 333 10129 20099 91058=
07020,1998-11-03 12:00:00,11,994.8,0.4,66,5,22000,46.3,,96.304,280,,,,,,,,,,,wg-a,,,,AAXX 03124 07020 12672 62825 10110 20050 39931 49948 52004 60006 86200 91200 333 91052=
07020,1998-11-03 18:00:00,11,994.6,0.3,71,6,20000,46.3,,79.636,270,9.5,12,,,,,,,,2,wg-a,,,,AAXX 03184 07020 02670 62725 10110 20060 39929 49946 53003 61000 70282 86200 91800 333 10120 20095 //// 91043=
07020,1998-11-04 00:00:00,11,997.8,2.2,76,7,0,38.892,,,30,,,,,,,,,,,wg-a,,,,AAXX 04004 07020 12/// /0321 10110 20070 39961 49978 51022 60016 90000=
07020,1998-11-04 06:00:00,9,1003.4,3.2,81,6,20000,31.484,,,10,9.2,11.3,,,,,,,,,wg-a,,,,AAXX 04064 07020 32670 70117 10090 20060 30017 40034 53032 8327/ 90600 333 10113 20092=
07020,1998-11-04 12:00:00,10,1007.7,1.6,62,3,50000,25.928,,,330,,,,,,,,,,,wg-a,,,,AAXX 04124 07020 12684 63314 10100 20030 30060 40077 51016 60006 83150 91200=
07020,1998-11-04 18:00:00,10,1010.7,2.1,66,4,500,38.892,,,340,8,10.9,,,,,,,,2,wg-a,,,,AAXX 04184 07020 32500 63421 10100 20040 30090 40107 53021 70262 83250 91800 333 10109 20080=
07020,1998-11-05 00:00:00,9,1015.6,2,61,2,0,31.484,,,360,,,,,,,,,,,wg-a,,,,AAXX 05004 07020 12/// /3617 10090 20020 30139 40156 51020 60006 90000=
07020,1998-11-05 06:00:00,10,1017.9,1.1,71,5,20000,31.484,,68.524,280,8.9,10.6,,,,,,,,,wg-a,,,,AAXX 05064 07020 12570 72817 10100 20050 30162 40179 53011 60006 87200 90600 333 10106 20089 91037=
07020,1998-11-05 12:00:00,12,1018.9,0.2,76,8,15000,46.3,,68.524,270,,,,0,,,,,,2,wg-a,,,,AAXX 05124 07020 02565 72725 10120 20080 30172 40189 50002 60016 70262 877// 91200 333 60007 91037=
07020,1998-11-05 18:00:00,13,1019.4,0.9,77,9,15000,46.3,,75.932,270,8.9,13,,,,,,,,3,wg-a,,,,AAXX 05184 07020 32565 82725 10130 20090 30177 40194 52009 70382 887// 91800 333 10130 20089 91041=
07020,1998-11-06 00:00:00,13,1021.5,1.2,77,9,0,50.004,,,300,,,,0,,,,,,,wg-a,,,,AAXX 06004 07020 02/// /3027 10130 20090 30198 40215 53012 60016 90000 333 60007=
07020,1998-11-06 06:00:00,12,1024.1,1.8,82,9,15000,42.596,,,290,11.4,13,,,,,,,,,wg-a,,,,AAXX 06064 07020 32665 62923 10120 20090 30224 40241 53018 86400 90600 333 10130 20114=
07020,1998-11-06 12:00:00,13,1026.5,0.5,77,9,50000,31.484,,,290,,,,,,,,,,,wg-a,,,,AAXX 06124 07020 12684 62917 10130 20090 30248 40265 51005 60006 86401 91200=
07020,1998-11-06 18:00:00,13,1028.2,1,82,10,0,22.224,,,280,12.2,13.6,,,,,,,,,wg-a,,,,AAXX 06184 07020 32/// /2812 10130 20100 30265 40282 53010 91800 333 10136 20122=
07020,1998-11-07 00:00:00,13,1028.4,0,62,6,0,14.816,,,280,,,,,,,,,,,wg-a,,,,AAXX 07004 07020 12/// /2808 10130 20060 30267 40284 50000 60006 90000=
07020,1998-11-07 06:00:00,11,1027.2,-0.1,87,9,12000,14.816,,,160,10.6,13.2,,,,,,,,,wg-a,,,,AAXX 07064 07020 12562 61608 10110 20090 30255 40272 55001 60006 82230 90600 333 10132 20106=
07020,1998-11-07 12:00:00,13,1024.7,-1.8,77,9,22000,25.928,,,190,,,,,,,,,,,wg-a,,,,AAXX 07124 07020 12672 51914 10130 20090 30230 40247 58018 60006 82105 91200=
07020,1998-11-07 18:00:00,10,1019.9,-2.4,82,7,20000,35.188,,53.708,180,9.7,13.3,,,,,,,,,wg-a,,,,AAXX 07184 07020 12670 61819 10100 20070 30182 40199 58024 60006 81105 91800 333 10133 20097 91029=
07020,1998-11-08 00:00:00,11,1016.8,-1.9,82,8,0,57.412,,,200,,,,,,,,,,,wg-a,,,,AAXX 08004 07020 12/// /2031 10110 20080 30151 40168 58019 60006 90000=
07020,1998-11-08 06:00:00,13,1013.4,-1.4,88,11,14000,53.708,,83.34,200,9.2,13.3,,,,,,,,,wg-a,,,,AAXX 08064 07020 12564 72029 10130 20110 30117 40134 58014 60006 872// 90600 333 10133 20092 91045=
07020,1998-11-08 12:00:00,14,1015.7,2.5,94,13,18000,35.188,,83.34,260,,,,2,,,,,,60,wg-a,,,,AAXX 08124 07020 02568 82619 10140 20130 30140 40157 52025 60026 76062 8472/ 91200 333 60027 91045=
07020,1998-11-08 18:00:00,15,1015.5,-0.4,100,15,0,42.596,,,200,13.1,15.3,,1,,,,,,,wg-a,,,,AAXX 08184 07020 12/// /2023 10150 20150 30138 40155 55004 60017 91800 333 10153 20131=
07020,1998-11-09 00:00:00,16,1013.8,-1.2,94,15,0,50.004,,,200,,,,,,,,,,,wg-a,,,,AAXX 09004 07020 12/// /2027 10160 20150 30121 40138 56012 60016 90000=
07020,1998-11-09 06:00:00,15,1013.5,1.8,100,15,8000,50.004,,79.636,250,14.9,16.3,,3,,,,,,60,wg-a,,,,AAXX 09064 07020 12558 82527 10150 20150 30118 40135 53018 60037 760// 8472/ 90600 333 10163 20149 91043=
07020,1998-11-09 12:00:00,16,1016.9,1,82,13,8000,31.484,,,260,,,,,,,,,,2,wg-a,,,,AAXX 09124 07020 02558 42617 10160 20130 30152 40169 51010 61000 70262 82701 91200 333 ////=
07020,1998-11-09 18:00:00,14,1017.8,0.6,82,11,8000,29.632,,,270,13.7,15.7,,,,,,,,,wg-a,,,,AAXX 09184 07020 32558 62716 10140 20110 30161 40178 51006 81730 91800 333 10157 20137=
07020,1998-11-10 00:00:00,14,1016,-1.3,88,12,0,35.188,,,230,,,,,,,,,,,wg-a,,,,AAXX 10004 07020 12/// /2319 10140 20120 30143 40160 58013 60006 90000=
07020,1998-11-10 06:00:00,13,1016.7,2.8,77,9,14000,46.3,,75.932,300,12.6,14.1,,0,,,,,,,wg-a,,,,AAXX 10064 07020 12564 53025 10130 20090 30150 40167 52028 60007 8/700 90600 333 10141 20126 91041=
07020,1998-11-10 12:00:00,13,1022.3,2.3,72,8,15000,46.3,,,310,,,,,,,,,,,wg-a,,,,AAXX 10124 07020 12565 53125 10130 20080 30206 40223 51023 60006 85200 91200=
07020,1998-11-10 18:00:00,12,1025.6,2,67,6,0,42.596,,,330,11.8,13,,,,,,,,,wg-a,,,,AAXX 10184 07020 12/// /3323 10120 20060 30239 40256 53020 60006 91800 333 10130 20118=
07020,1998-11-11 00:00:00,11,1028.4,0.9,71,6,0,31.484,,,330,,,,,,,,,,,wg-a,,,,AAXX 11004 07020 12/// /3317 10110 20060 30267 40284 53009 60006 90000=
07020,1998-11-11 06:00:00,9,1028.3,-0.5,66,3,15000,7.408,,,60,9,11.9,,,,,,,,,wg-a,,,,AAXX 11064 07020 12665 50604 10090 20030 30266 40283 57005 60006 85200 90600 333 10119 20090=
07020,1998-11-11 12:00:00,12,1025.3,-2.6,67,6,40000,18.52,,,200,,,,,,,,,,,wg-a,,,,AAXX 11124 07020 12682 52010 10120 20060 30236 40253 58026 60006 85201 91200=
07020,1998-11-11 18:00:00,10,1017.8,-4,71,5,0,31.484,,,190,7,12.1,,,,,,,,,wg-a,,,,AAXX 11184 07020 12/// /1917 10100 20050 30161 40178 56040 60006 91800 333 10121 20070=
07020,1998-11-12 00:00:00,7,1009.9,-4.3,93,6,0,46.3,,,180,,,,3,,,,,,,wg-a,,,,AAXX 12004 07020 02/// /1825 10070 20060 30082 40099 56043 60036 90000 333 60037=
07020,1998-11-12 12:00:00,12,1010.1,0.7,71,7,8000,53.708,,79.636,290,,,,,,,,,,21,wg-a,,,,AAXX 12124 07020 02558 82929 10120 20070 30084 40101 51007 60006 72186 887// 91200 333 61000 91043=
07020,1998-11-12 18:00:00,12,1012.1,1.5,67,6,12000,57.412,,87.044,290,11.1,12.3,,,,,,,,2,wg-a,,,,AAXX 12184 07020 32562 62931 10120 20060 30104 40121 53015 70286 86100 91800 333 10123 20111 91047=
07020,1998-11-13 00:00:00,12,1011.3,-0.4,62,5,0,35.188,,,280,,,,,,,,,,,wg-a,,,,AAXX 13004 07020 12/// /2819 10120 20050 30096 40113 58004 60006 90000=
07020,1998-11-13 06:00:00,10,1007.6,-1.8,82,7,12000,11.112,,,250,9.1,11.9,,1,,,,,,,wg-a,,,,AAXX 13064 07020 12562 72506 10100 20070 30059 40076 58018 60017 877// 90600 333 10119 20091=
07020,1998-11-13 12:00:00,10,1005.2,-1.3,87,8,10000,11.112,,,180,,,,2,,,,,,21,wg-a,,,,AAXX 13124 07020 02560 81806 10100 20080 30035 40052 58013 60066 72162 887// 91200 333 60027=
07020,1998-11-13 18:00:00,9,1002.9,-0.5,87,7,10000,14.816,,,110,8.1,10.3,,,,,,,,21,wg-a,,,,AAXX 13184 07020 02560 81108 10090 20070 30012 40029 55005 61000 72162 887// 91800 333 10103 20081 ////=
07020,1998-11-14 00:00:00,11,1001.7,-1.2,87,9,0,29.632,,,280,,,,,,,,,,,wg-a,,,,AAXX 14004 07020 12/// /2816 10110 20090 30000 40017 58012 60016 90000=
07020,1998-11-14 06:00:00,10,1002.6,0.1,76,6,10000,64.82,,83.34,300,8.2,11.3,,,,,,,,,wg-a,,,,AAXX 14064 07020 32560 83035 10100 20060 30009 40026 53001 887// 90600 333 10113 20082 91045=
07020,1998-11-14 12:00:00,11,1006.2,2.7,71,6,35000,46.3,,,330,,,,,,,,,,2,wg-a,,,,AAXX 14124 07020 02581 63325 10110 20060 30045 40062 53027 60006 70282 86100 91200 333 61000=
07020,1998-11-14 18:00:00,11,1009,1,76,7,22000,42.596,,,300,9.1,11.4,,,,,,,,,wg-a,,,,AAXX 14184 07020 32572 63023 10110 20070 30073 40090 51010 86100 91800 333 10114 20091=
07020,1998-11-15 00:00:00,11,1011.4,1.2,71,6,0,46.3,,,320,,,,,,,,,,,wg-a,,,,AAXX 15004 07020 12/// /3225 10110 20060 30097 40114 53012 60016 90000=
07020,1998-11-15 06:00:00,11,1015.6,2.3,76,7,20000,29.632,,,10,9.9,11.4,,,,,,,,,wg-a,,,,AAXX 15064 07020 32670 50116 10110 20070 30139 40156 51023 85100 90600 333 10114 20099=
07020,1998-11-15 12:00:00,10,1020,1.7,71,5,500,31.484,,,350,,,,,,,,,,,wg-a,,,,AAXX 15124 07020 12600 63517 10100 20050 30183 40200 51017 60006 86200 91200=
07020,1998-11-16 00:00:00,9,1024.8,1.2,66,3,0,35.188,,,10,,,,,,,,,,,wg-a,,,,AAXX 16004 07020 12/// /0119 10090 20030 30231 40248 52012 60006 90000=
07020,1998-11-16 06:00:00,7,1027,1.2,70,2,15000,25.928,,,40,7.3,11,,,,,,,,,wg-a,,,,AAXX 16064 07020 12565 80414 10070 20020 30253 40270 53012 60006 887// 90600 333 10110 20073=
07020,1998-11-16 12:00:00,8,1029.8,0.7,66,2,40000,18.52,,,30,,,,,,,,,,,wg-a,,,,AAXX 16124 07020 12682 40310 10080 20020 30281 40298 51007 60006 84101 91200=
07020,1998-11-16 18:00:00,8,1030.2,0.5,71,3,35000,7.408,,,60,7.2,9,,,,,,,,,wg-a,,,,AAXX 16184 07020 12681 40604 10080 20030 30285 40302 53005 60006 81151 91800 333 10090 20072=
07020,1998-11-17 00:00:00,7,1030.6,-0.2,76,3,0,7.408,,,110,,,,,,,,,,,wg-a,,,,AAXX 17004 07020 12/// /1104 10070 20030 30288 40306 58002 60006 90000=
07020,1998-11-17 06:00:00,5,1029.5,-0.3,81,2,22000,14.816,,,160,4.6,8,,,,,,,,,wg-a,,,,AAXX 17064 07020 12572 71608 10050 20020 30277 40295 55003 60006 872// 90600 333 10080 20046=
07020,1998-11-17 12:00:00,10,1028.8,-0.9,62,3,50000,14.816,,,180,,,,,,,,,,,wg-a,,,,AAXX 17124 07020 12684 41808 10100 20030 30271 40288 58009 60006 81205 91200=
07020,1998-11-17 18:00:00,4,1028.4,0.5,81,1,50000,14.816,,,160,4.2,10.1,,,,,,,,,wg-a,,,,AAXX 17184 07020 12684 51608 10040 20010 30266 40284 53005 60006 83205 91800 333 10101 20042=
07020,1998-11-18 00:00:00,5,1028.2,-0.1,56,-3,0,29.632,,,170,,,,,,,,,,,wg-a,,,,AAXX 18004 07020 12/// /1716 10050 21030 30264 40282 58001 60006 90000=
07020,1998-11-18 06:00:00,4,1027.7,-0.1,56,-4,500,25.928,,,180,3.6,5.5,,,,,,,,,wg-a,,,,AAXX 18064 07020 12700 51814 10040 21040 30259 40277 56001 60006 83270 90600 333 10055 20036=
07020,1998-11-18 12:00:00,6,1028.9,0.2,56,-2,500,22.224,,,200,,,,,,,,,,,wg-a,,,,AAXX 18124 07020 12/00 32012 10060 21020 30271 40289 50002 60006 80002 91200=
07020,1998-11-18 18:00:00,2,1028.7,0.3,75,-2,25000,14.816,,,160,1.9,7.2,,,,,,,,,wg-a,,,,AAXX 18184 07020 12/75 11608 10020 21020 30269 40287 53003 60006 80001 91800 333 10072 20019=
07020,1998-11-19 00:00:00,3,1028.1,-0.4,81,0,0,25.928,,,190,,,,,,,,,,,wg-a,,,,AAXX 19004 07020 12/// /1914 10030 20000 30263 40281 58004 60006 90000=
07020,1998-11-19 06:00:00,5,1026.7,-0.5,75,1,20000,25.928,,,210,1.7,5.6,,,,,,,,,wg-a,,,,AAXX 19064 07020 12/70 22114 10050 20010 30249 40267 58005 60006 80005 90600 333 10056 20017=
07020,1998-11-19 12:00:00,8,1027.1,0,61,1,20000,29.632,,,220,,,,,,,,,,,wg-a,,,,AAXX 19124 07020 12/70 62216 10080 20010 30254 40271 50000 60006 80006 91200=
07020,1998-11-19 18:00:00,5,1027.3,0.6,75,1,20000,22.224,,,170,4.4,9.1,,,,,,,,,wg-a,,,,AAXX 19184 07020 12/70 81712 10050 20010 30255 40273 53006 60006 80006 91800 333 10091 20044=
07020,1998-11-20 00:00:00,6,1028.6,0.3,70,1,0,7.408,,,150,,,,,,,,,,,wg-a,,,,AAXX 20004 07020 12/// /1504 10060 20010 30268 40286 53003 60006 90000=
07020,1998-11-20 06:00:00,5,1030.3,1.1,52,-4,20000,14.816,,,150,4.9,6.3,,,,,,,,,wg-a,,,,AAXX 20064 07020 12/70 81508 10050 21040 30285 40303 52011 60006 80007 90600 333 10063 20049=
07020,1998-11-20 12:00:00,9,1032.3,0.6,57,1,25000,18.52,,,180,,,,,,,,,,,wg-a,,,,AAXX 20124 07020 12875 51810 10090 20010 30306 40323 50006 60006 84055 91200=
07020,1998-11-20 18:00:00,5,1033.7,0.8,81,2,14000,14.816,,,160,4.5,9.4,,,,,,,,,wg-a,,,,AAXX 20184 07020 12864 51608 10050 20020 30319 40337 51008 60006 82075 91800 333 10094 20045=
07020,1998-11-21 00:00:00,4,1034.8,0.1,87,2,0,31.484,,,190,,,,,,,,,,,wg-a,,,,AAXX 21004 07020 12/// /1917 10040 20020 30330 40348 50001 60006 90000=
07020,1998-11-21 06:00:00,2,1034.4,-0,87,0,14000,35.188,,,190,1.5,5.5,,,,,,,,,wg-a,,,,AAXX 21064 07020 12564 81919 10020 20000 30326 40344 55000 60006 882// 90600 333 10055 20015=
07020,1998-11-21 12:00:00,5,1034,-1,75,1,15000,38.892,,,200,,,,,,,,,,,wg-a,,,,AAXX 21124 07020 12865 62021 10050 20010 30322 40340 58010 60006 86070 91200=
07020,1998-11-21 18:00:00,3,1032.4,-0.6,52,-6,16000,18.52,,,140,1.3,6,,,,,,,,,wg-a,,,,AAXX 21184 07020 12866 31410 10030 21060 30306 40324 58006 60006 83030 91800 333 10060 20013=
07020,1998-11-22 00:00:00,1,1029.4,-1.5,55,-7,0,22.224,,,180,,,,,,,,,,,wg-a,,,,AAXX 22004 07020 12/// /1812 10010 21070 30276 40294 58015 60006 90000=
07020,1998-11-22 06:00:00,1,1026,-1.4,75,-3,16000,31.484,,,190,0,2.5,,,,,,,,,wg-a,,,,AAXX 22064 07020 12/66 11917 10010 21030 30242 40260 58014 60006 81030 90600 333 10025 20000=
07020,1998-11-22 12:00:00,4,1023.9,-2.2,56,-4,15000,11.112,,,190,,,,,,,,,,,wg-a,,,,AAXX 22124 07020 12/65 61906 10040 21040 30221 40239 58022 60006 83035 91200=
07020,1998-11-22 18:00:00,3,1022.2,-0.4,65,-3,15000,7.408,,,140,0.9,3.9,,,,,,,,,wg-a,,,,AAXX 22184 07020 12/65 81404 10030 21030 30204 40222 55004 60006 8803/ 91800 333 10039 20009=
07020,1998-11-23 00:00:00,3,1021.4,-0.1,75,-1,0,29.632,,,180,,,,,,,,,,,wg-a,,,,AAXX 23004 07020 12/// /1816 10030 21010 30196 40214 58001 60006 90000=
07020,1998-11-23 06:00:00,1,1022.1,0.6,86,-1,15000,11.112,,,210,1.2,3.3,,,,,,,,,wg-a,,,,AAXX 23064 07020 12865 72106 10010 21010 30203 40221 52006 60006 8703/ 90600 333 10033 20012=
07020,1998-11-23 12:00:00,7,1023.9,0.2,57,-1,14000,7.408,,,130,,,,,,,,,,,wg-a,,,,AAXX 23124 07020 12864 61304 10070 21010 30222 40239 50002 60006 82058 91200=
07020,1998-11-23 18:00:00,2,1023.8,0,75,-2,12000,11.112,,,160,0.2,7.3,,,,,,,,,wg-a,,,,AAXX 23184 07020 12862 31606 10020 21020 30220 40238 50000 60006 83030 91800 333 10073 20002=
07020,1998-11-24 00:00:00,3,1022.9,-0.9,81,0,0,18.52,,,180,,,,,,,,,,,wg-a,,,,AAXX 24004 07020 12/// /1810 10030 20000 30211 40229 56009 60006 90000=
07020,1998-11-24 06:00:00,5,1019.9,-2.1,93,4,8000,31.484,,,180,1.4,5.2,,,,,,,,,wg-a,,,,AAXX 24064 07020 12558 61817 10050 20040 30182 40199 58021 60006 82670 90600 333 10052 20014=
07020,1998-11-24 12:00:00,8,1017,-2.4,100,8,4000,38.892,,,200,,,,3,,,,,,52,wg-a,,,,AAXX 24124 07020 02440 82021 10080 20080 30153 40170 58024 60036 75252 887// 91200 333 60037=
07020,1998-11-24 18:00:00,11,1015.6,0.6,87,9,6000,31.484,,,310,5,11.3,,0,,,,,,,wg-a,,,,AAXX 24184 07020 12556 73117 10110 20090 30139 40156 53006 60007 877// 91800 333 10113 20050=
07020,1998-11-25 00:00:00,11,1015.8,0.6,87,9,0,35.188,,,330,,,,,,,,,,,wg-a,,,,AAXX 25004 07020 12/// /3319 10110 20090 30141 40158 51006 60006 90000=
07020,1998-11-25 06:00:00,10,1015.4,0.5,93,9,14000,38.892,,,360,10,11.6,,,,,,,,,wg-a,,,,AAXX 25064 07020 12564 83621 10100 20090 30137 40154 52005 60006 887// 90600 333 10116 20100=
07020,1998-11-25 12:00:00,11,1017.6,0.7,76,7,18000,29.632,,,330,,,,,,,,,,,wg-a,,,,AAXX 25124 07020 12668 43316 10110 20070 30159 40176 51007 60006 81105 91200=
07020,1998-11-25 18:00:00,10,1018.5,1,87,8,10000,29.632,,,300,9.7,11.6,,1,,,,,,61,wg-a,,,,AAXX 25184 07020 12560 73016 10100 20080 30168 40185 53010 60017 76161 8472/ 91800 333 10116 20097=
07020,1998-11-26 00:00:00,11,1021.6,1.3,82,8,0,35.188,,,310,,,,,,,,,,,wg-a,,,,AAXX 26004 07020 12/// /3119 10110 20080 30199 40216 52013 60016 90000=
07020,1998-11-26 06:00:00,11,1023.5,0.7,76,7,15000,29.632,,,310,10.1,11.2,,,,,,,,,wg-a,,,,AAXX 26064 07020 02/65 23116 10110 20070 30218 40235 52007 61000 82200 90600 333 10112 20101 ////=
07020,1998-11-26 12:00:00,12,1023,-1.4,88,10,16000,31.484,,,270,,,,,,,,,,,wg-a,,,,AAXX 26124 07020 12866 82717 10120 20100 30213 40230 58014 60006 8807/ 91200=
07020,1998-11-26 18:00:00,12,1022.7,1.3,82,9,0,57.412,,,300,10.7,12.5,,,,,,,,,wg-a,,,,AAXX 26184 07020 12/// /3031 10120 20090 30210 40227 51013 60006 91800 333 10125 20107=
07020,1998-11-27 00:00:00,12,1021.8,0.3,88,10,0,42.596,,,300,,,,,,,,,,,wg-a,,,,AAXX 27004 07020 12/// /3023 10120 20100 30201 40218 51003 60006 90000=
07020,1998-11-27 06:00:00,12,1022.1,-0,88,10,18000,29.632,,,300,12,12.4,,,,,,,,,wg-a,,,,AAXX 27064 07020 12668 53016 10120 20100 30204 40221 55000 60006 81250 90600 333 10124 20120=
07020,1998-11-27 12:00:00,12,1021.8,-0.5,100,12,6000,18.52,,,280,,,,2,,,,,,60,wg-a,,,,AAXX 27124 07020 02456 82810 10120 20120 30201 40218 58005 60026 76062 887// 91200 333 60027=
07020,1998-11-27 18:00:00,12,1020.8,-0,100,12,12000,18.52,,,300,12.2,12.6,,0,,,,,,2,wg-a,,,,AAXX 27184 07020 12562 83010 10120 20120 30191 40208 55000 60007 70262 887// 91800 333 10126 20122=
07020,1998-11-28 00:00:00,12,1019.5,-1.4,88,10,0,22.224,,,270,,,,,,,,,,,wg-a,,,,AAXX 28004 07020 12/// /2712 10120 20100 30178 40195 57014 60006 90000=
07020,1998-11-28 06:00:00,12,1015.8,-2.1,100,12,15000,29.632,,,230,11.5,12.4,,1,,,,,,,wg-a,,,,AAXX 28064 07020 12/65 32316 10120 20120 30141 40158 57021 60017 83200 90600 333 10124 20115=
07020,1998-11-28 12:00:00,12,1014.1,0,88,10,8000,29.632,,61.116,280,,,,1,,,,,,61,wg-a,,,,AAXX 28124 07020 02558 82816 10120 20100 30124 40141 50000 60026 76162 8472/ 91200 333 60017 91033=
07020,1998-11-28 18:00:00,11,1014.8,0.8,71,6,22000,35.188,,,320,10.8,12.3,,,,,,,,1,wg-a,,,,AAXX 28184 07020 32672 43219 10110 20060 30131 40148 51008 70162 83208 91800 333 10123 20108=
07020,1998-11-29 00:00:00,10,1016.8,0.9,76,6,0,31.484,,,330,,,,,,,,,,,wg-a,,,,AAXX 29004 07020 12/// /3317 10100 20060 30151 40168 51009 60006 90000=
07020,1998-11-29 06:00:00,10,1018.7,0.9,76,6,24000,31.484,,53.708,350,9.4,10.9,,,,,,,,,wg-a,,,,AAXX 29064 07020 32674 23517 10100 20060 30170 40187 51009 81108 90600 333 10109 20094 91029=
07020,1998-11-29 12:00:00,10,1021.9,1.2,76,6,24000,31.484,,,20,,,,,,,,,,,wg-a,,,,AAXX 29124 07020 12674 60217 10100 20060 30202 40219 51012 60006 86200 91200=
07020,1998-11-29 18:00:00,10,1024.6,1.6,76,6,20000,38.892,,,30,9.2,10.1,,,,,,,,,wg-a,,,,AAXX 29184 07020 12670 70321 10100 20060 30229 40246 51016 60006 872// 91800 333 10101 20092=
07020,1998-11-30 00:00:00,9,1026.5,0.7,76,5,0,42.596,,,30,,,,,,,,,,,wg-a,,,,AAXX 30004 07020 12/// /0323 10090 20050 30248 40265 51007 60006 90000=
07020,1998-11-30 06:00:00,9,1027.3,0.6,81,6,20000,46.3,,,40,8.3,10,,,,,,,,,wg-a,,,,AAXX 30064 07020 12670 40425 10090 20060 30256 40273 53006 60006 84200 90600 333 10100 20083=
07020,1998-11-30 12:00:00,9,1029.2,0.4,71,4,20000,46.3,,,60,,,,,,,,,,,wg-a,,,,AAXX 30124 07020 12670 60625 10090 20040 30275 40292 50004 60006 86200 91200=
07020,1998-11-30 18:00:00,9,1031,1.6,71,4,20000,46.3,,,60,8.1,8.9,,,,,,,,,wg-a,,,,AAXX 30184 07020 12670 60625 10090 20040 30293 40310 51016 60006 86200 91800 333 10089 20081=
07020,1998-12-01 00:00:00,8,1031.8,0.3,71,3,0,46.3,,,70,,,,,,,,,,,wg-a,,,,AAXX 01004 07020 12/// /0725 10080 20030 30301 40318 50003 60006 90000=
07020,1998-12-01 06:00:00,7,1032.9,0.9,76,3,20000,46.3,,,80,6.5,8.8,,,,,,,,,wg-a,,,,AAXX 01064 07020 12570 70825 10070 20030 30311 40329 51009 60006 872// 90600 333 10088 20065=
07020,1998-12-01 12:00:00,8,1033.9,-0.6,71,3,16000,38.892,,,90,,,,,,,,,,,wg-a,,,,AAXX 01124 07020 12566 70921 10080 20030 30321 40339 58006 60006 872// 91200=
07020,1998-12-01 18:00:00,9,1032,-0.6,76,5,12000,46.3,,,60,6.5,8.7,,,,,,,,,wg-a,,,,AAXX 01184 07020 12562 80625 10090 20050 30303 40320 58006 60006 887// 91800 333 10087 20065=
07020,1998-12-02 00:00:00,8,1030.1,-1.3,81,5,0,50.004,,,70,,,,,,,,,,,wg-a,,,,AAXX 02004 07020 12/// /0727 10080 20050 30284 40301 58013 60006 90000=
07020,1998-12-02 06:00:00,8,1028.5,-0.6,81,5,15000,50.004,,,80,7.5,8.8,,,,,,,,,wg-a,,,,AAXX 02064 07020 12565 80827 10080 20050 30268 40285 55006 60006 887// 90600 333 10088 20075=
07020,1998-12-02 12:00:00,7,1027.6,-0.6,70,2,10000,42.596,,,70,,,,,,,,,,,wg-a,,,,AAXX 02124 07020 12560 70723 10070 20020 30259 40276 58006 60006 877// 91200=
07020,1998-12-02 18:00:00,6,1025.4,-0.6,75,2,8000,46.3,,94.452,60,5.7,8.2,,,,,,,,,wg-a,,,,AAXX 02184 07020 12558 70625 10060 20020 30236 40254 57006 60006 877// 91800 333 10082 20057 91051=
07020,1998-12-03 00:00:00,5,1023.9,-0.8,81,2,0,31.484,,,80,,,,,,,,,,,wg-a,,,,AAXX 03004 07020 12/// /0817 10050 20020 30221 40239 58008 60006 90000=
07020,1998-12-03 06:00:00,1,1022.1,-0.9,86,-1,20000,18.52,,,160,1.1,5.9,,,,,,,,,wg-a,,,,AAXX 03064 07020 12670 51610 10010 21010 30203 40221 56009 60006 81270 90600 333 10059 20011=
07020,1998-12-03 12:00:00,0,1020.7,-1.2,93,-1,8000,18.52,,,200,,,,,,,,,,,wg-a,,,,AAXX 03124 07020 12558 82010 10000 21010 30189 40207 58012 60006 887// 91200=
07020,1998-12-04 00:00:00,5,1016.2,-1.5,75,1,0,18.52,,,20,,,,,,,,,,,wg-a,,,,AAXX 04004 07020 12/// /0210 10050 20010 30145 40162 58015 60006 90000=
07020,1998-12-04 06:00:00,8,1013.6,-1,81,5,16000,14.816,,,330,3,7.8,,,,,,,,,wg-a,,,,AAXX 04064 07020 12566 63308 10080 20050 30119 40136 56010 60006 86200 90600 333 10078 20030=
07020,1998-12-04 12:00:00,7,1014.7,0.8,81,4,20000,42.596,,,40,,,,1,,,,,,2,wg-a,,,,AAXX 04124 07020 02570 80423 10070 20040 30130 40147 50008 60016 70262 887// 91200 333 60017=
07020,1998-12-04 18:00:00,7,1017.3,1.8,76,3,24000,35.188,,,20,6.5,8.4,,,,,,,,,wg-a,,,,AAXX 04184 07020 32674 20219 10070 20030 30156 40173 53018 81108 91800 333 10084 20065=
07020,1998-12-05 00:00:00,7,1019,0.6,66,1,0,29.632,,,20,,,,,,,,,,,wg-a,,,,AAXX 05004 07020 12/// /0216 10070 20010 30173 40190 51006 60006 90000=
07020,1998-12-05 06:00:00,7,1018.7,0.3,66,1,40000,25.928,,,340,6.4,7.3,,0,,,,,,,wg-a,,,,AAXX 05064 07020 12782 53414 10070 20010 30170 40187 53003 60007 85200 90600 333 10073 20064=
07020,1998-12-05 12:00:00,8,1019,-0.4,71,3,40000,42.596,,57.412,300,,,,,,,,,,2,wg-a,,,,AAXX 05124 07020 02782 73023 10080 20030 30173 40190 58004 61000 70282 87200 91200 333 6100 91031=
07020,1998-12-05 18:00:00,8,1018.4,0.2,76,4,35000,42.596,,61.116,320,6.7,8.7,,,,,,,,2,wg-a,,,,AAXX 05184 07020 02581 73223 10080 20040 30167 40184 53002 61000 70262 87200 91800 333 10087 20067 //// 91033=
07020,1998-12-06 00:00:00,6,1021.6,2.2,70,1,0,31.484,,,30,,,,,,,,,,,wg-a,,,,AAXX 06004 07020 12/// /0317 10060 20010 30199 40216 51022 60016 90000=
07020,1998-12-06 06:00:00,5,1024.6,1.8,70,0,500,18.52,,,50,4.7,9.2,,,,,,,,,wg-a,,,,AAXX 06064 07020 32700 50510 10050 20000 30228 40246 52018 85200 90600 333 10092 20047=
07020,1998-12-06 12:00:00,7,1027.2,0.9,45,-4,50000,7.408,,,340,,,,,,,,,,,wg-a,,,,AAXX 06124 07020 12784 53404 10070 21040 30254 40272 51009 60006 81108 91200=
07020,1998-12-06 18:00:00,6,1028.4,0.6,56,-2,50000,7.408,,,320,4.8,7.4,,,,,,,,,wg-a,,,,AAXX 06184 07020 12784 53204 10060 21020 30266 40284 51006 60006 81148 91800 333 10074 20048=
07020,1998-12-07 00:00:00,7,1029.2,0.6,70,2,0,14.816,,,310,,,,,,,,,,,wg-a,,,,AAXX 07004 07020 12/// /3108 10070 20020 30274 40292 51006 60006 90000=
07020,1998-12-07 06:00:00,7,1028.9,-0.4,81,4,24000,14.816,,,180,2.6,8.2,,,,,,,,,wg-a,,,,AAXX 07064 07020 12874 61808 10070 20040 30272 40289 55004 60006 86050 90600 333 10082 20026=
07020,1998-12-07 12:00:00,8,1029.6,-0.6,81,5,15000,22.224,,,180,,,,,,,,,,,wg-a,,,,AAXX 07124 07020 12665 71812 10080 20050 30279 40296 58006 60006 875// 91200=
07020,1998-12-07 18:00:00,7,1028.5,-0.4,93,6,10000,31.484,,,200,6.4,8.3,,,,,,,,2,wg-a,,,,AAXX 07184 07020 12/60 52017 10070 20060 30268 40285 57004 60006 70252 80005 91800 333 10083 20064=
07020,1998-12-08 00:00:00,11,1028.5,-0.2,100,11,0,18.52,,,240,,,,,,,,,,,wg-a,,,,AAXX 08004 07020 12/// /2410 10110 20110 30268 40285 58002 60006 90000=
07020,1998-12-08 06:00:00,9,1025.8,-1.6,100,9,12000,29.632,,,200,7,11.1,,0,,,,,,,wg-a,,,,AAXX 08064 07020 12562 82016 10090 20090 30241 40258 58016 60007 887// 90600 333 10111 20070=
07020,1998-12-08 12:00:00,10,1023.7,-1.5,93,9,10000,42.596,,,200,,,,2,,,,,,61,wg-a,,,,AAXX 08124 07020 02560 82023 10100 20090 30220 40237 58015 60026 76162 887// 91200 333 60027=
07020,1998-12-08 18:00:00,10,1022.3,-0.2,93,9,6000,38.892,,72.228,210,9.3,10,,4,,,,,,61,wg-a,,,,AAXX 08184 07020 12556 82121 10100 20090 30206 40223 58002 60047 76162 887// 91800 333 10100 20093 91039=
07020,1998-12-09 00:00:00,10,1020.3,-1,93,9,0,38.892,,,200,,,,,,,,,,,wg-a,,,,AAXX 09004 07020 12/// /2021 10100 20090 30186 40203 58010 60096 90000=
07020,1998-12-09 06:00:00,10,1019,-0.3,100,10,14000,31.484,,,200,9.4,10.2,,1,,,,,,,wg-a,,,,AAXX 09064 07020 12564 82017 10100 20100 30173 40190 55003 60017 882// 90600 333 10102 20094=
07020,1998-12-09 12:00:00,12,1020.5,0.2,100,12,8000,14.816,,,220,,,,,,,,,,,wg-a,,,,AAXX 09124 07020 12558 52208 10120 20120 30188 40205 50002 60006 85200 91200=
07020,1998-12-09 18:00:00,11,1021.6,1,100,11,20000,14.816,,,280,10.1,12.9,,,,,,,,,wg-a,,,,AAXX 09184 07020 12570 52808 10110 20110 30199 40216 53010 60006 85200 91800 333 10129 20101=
07020,1998-12-10 00:00:00,10,1021.3,-0.4,100,10,0,22.224,,,200,,,,,,,,,,,wg-a,,,,AAXX 10004 07020 12/// /2012 10100 20100 30196 40213 58004 60006 90000=
07020,1998-12-10 06:00:00,8,1018,-1.8,100,8,8000,35.188,,,190,7.8,11,,,,,,,,,wg-a,,,,AAXX 10064 07020 32558 81919 10080 20080 30163 40180 58018 8472/ 90600 333 10110 20078=
07020,1998-12-10 12:00:00,10,1013.9,-3.2,100,10,6000,35.188,,,180,,,,,,,,,,2,wg-a,,,,AAXX 10124 07020 02556 81819 10100 20100 30122 40139 58032 61000 70262 887// 91200 333 ////=
07020,1998-12-10 18:00:00,12,1013.5,1.7,94,11,15000,29.632,,68.524,290,8.1,12,,,,,,,,2,wg-a,,,,AAXX 10184 07020 32665 62916 10120 20110 30118 40135 52017 70262 86500 91800 333 10120 20081 91037=
07020,1998-12-11 00:00:00,11,1016.6,1,94,10,0,29.632,,,290,,,,,,,,,,,wg-a,,,,AAXX 11004 07020 12/// /2916 10110 20100 30149 40166 53010 60006 90000=
07020,1998-12-11 06:00:00,11,1018.6,1.2,94,10,16000,18.52,,,290,11,11.7,,,,,,,,,wg-a,,,,AAXX 11064 07020 12666 52910 10110 20100 30169 40186 53012 60006 85100 90600 333 10117 20110=
07020,1998-12-11 12:00:00,11,1019.2,-0.5,100,11,16000,25.928,,,230,,,,,,,,,,,wg-a,,,,AAXX 11124 07020 12666 72314 10110 20110 30175 40192 58005 60006 8357/ 91200=
07020,1998-12-11 18:00:00,10,1016.5,-1.7,100,10,12000,46.3,,,190,9.9,11.6,,0,,,,,,21,wg-a,,,,AAXX 11184 07020 12562 81925 10100 20100 30148 40165 58017 60007 72162 887// 91800 333 10116 20099=
07020,1998-12-12 00:00:00,12,1016,-0.6,100,12,0,38.892,,,200,,,,,,,,,,,wg-a,,,,AAXX 12004 07020 12/// /2021 10120 20120 30143 40160 56006 60006 90000=
07020,1998-12-12 06:00:00,13,1015.9,0,100,13,10000,42.596,,,250,10.1,13,,,,,,,,,wg-a,,,,AAXX 12064 07020 32560 82523 10130 20130 30142 40159 50000 887// 90600 333 10130 20101=
07020,1998-12-12 12:00:00,13,1016.6,-0.3,100,13,10000,38.892,,,220,,,,0,,,,,,21,wg-a,,,,AAXX 12124 07020 02460 82221 10130 20130 30149 40166 58003 60016 72162 887// 91200 333 60007=
07020,1998-12-12 18:00:00,13,1015.5,0.4,100,13,6000,46.3,,,240,12.7,14.2,,1,,,,,,61,wg-a,,,,AAXX 12184 07020 12456 82425 10130 20130 30138 40155 53004 60017 76162 887// 91800 333 10142 20127=
07020,1998-12-13 00:00:00,12,1022.8,3.5,88,10,0,42.596,,,270,,,,,,,,,,,wg-a,,,,AAXX 13004 07020 02/// /2723 10120 20100 30211 40228 51035 60016 90000 333 61000=
07020,1998-12-13 06:00:00,12,1029.1,2.8,76,8,18000,35.188,,75.932,280,11.4,13.2,,,,,,,,,wg-a,,,,AAXX 13064 07020 02668 22819 10120 20080 30274 40291 51028 61000 82100 90600 333 10132 20114 //// 91041=
07020,1998-12-13 12:00:00,12,1031.8,0.1,88,10,10000,29.632,,,220,,,,,,,,,,,wg-a,,,,AAXX 13124 07020 12660 82216 10120 20100 30301 40318 53001 60006 8452/ 91200=
07020,1998-12-13 18:00:00,10,1030.3,-0,100,10,10000,38.892,,,190,9.7,12,,,,,,,,,wg-a,,,,AAXX 13184 07020 12660 81921 10100 20100 30286 40303 55000 60006 8452/ 91800 333 10120 20097=
07020,1998-12-14 00:00:00,12,1028.3,-0.9,100,12,0,35.188,,,200,,,,,,,,,,,wg-a,,,,AAXX 14004 07020 12/// /2019 10120 20120 30266 40283 56009 60006 90000=
07020,1998-12-14 06:00:00,13,1028,-0.9,94,12,15000,38.892,,,220,10.1,12.6,,,,,,,,,wg-a,,,,AAXX 14064 07020 12565 82221 10130 20120 30263 40280 57009 60006 8452/ 90600 333 10126 20101=
07020,1998-12-14 12:00:00,12,1027.9,0.3,94,11,6000,42.596,,72.228,210,,,,,,,,,,,wg-a,,,,AAXX 14124 07020 12556 82123 10120 20110 30262 40279 51003 60006 837// 91200 333 91039=
07020,1998-12-14 18:00:00,11,1027.7,0.7,100,11,6000,31.484,,,210,11.4,13.3,,,,,,,,,wg-a,,,,AAXX 14184 07020 12556 72117 10110 20110 30260 40277 51007 60006 817// 91800 333 10133 20114=
07020,1998-12-15 00:00:00,12,1027.4,0.1,94,11,0,31.484,,,220,,,,,,,,,,,wg-a,,,,AAXX 15004 07020 12/// /2217 10120 20110 30257 40274 52001 60006 90000=
07020,1998-12-15 06:00:00,12,1026.3,-0.5,100,12,500,31.484,,,210,11.4,12.2,,0,,,,,,,wg-a,,,,AAXX 15064 07020 12500 82117 10120 20120 30246 40263 56005 60007 877// 90600 333 10122 20114=
07020,1998-12-15 12:00:00,12,1026.6,-0.2,100,12,4000,29.632,,,220,,,,1,,,,,,60,wg-a,,,,AAXX 15124 07020 02540 82216 10120 20120 30249 40266 58002 60026 76062 8472/ 91200 333 60017=
07020,1998-12-15 18:00:00,12,1028.7,2.3,94,11,16000,25.928,,,270,11.8,12.3,,,,,,,,2,wg-a,,,,AAXX 15184 07020 32566 82714 10120 20110 30270 40287 53023 70262 8472/ 91800 333 10123 20118=
07020,1998-12-16 00:00:00,11,1032.1,1.5,94,10,0,14.816,,,300,,,,,,,,,,,wg-a,,,,AAXX 16004 07020 12/// /3008 10110 20100 30304 40321 51015 60006 90000=
07020,1998-12-16 06:00:00,9,1032.7,-1,100,9,20000,18.52,,,190,7.7,12.2,,,,,,,,,wg-a,,,,AAXX 16064 07020 32570 61910 10090 20090 30310 40327 56010 83730 90600 333 10122 20077=
07020,1998-12-16 12:00:00,9,1033,-0.5,100,9,8000,22.224,,,200,,,,,,,,,,28,wg-a,,,,AAXX 16124 07020 12/58 82012 10090 20090 30313 40330 58005 60006 72842 886// 91200=
07020,1998-12-16 18:00:00,8,1031.7,0.2,93,7,10000,22.224,,,210,8,9.3,,,,,,,,2,wg-a,,,,AAXX 16184 07020 32660 62112 10080 20070 30300 40317 53002 70242 86500 91800 333 10093 20080=
07020,1998-12-17 00:00:00,6,1028.7,-1.5,100,6,0,11.112,,,170,,,,,,,,,,,wg-a,,,,AAXX 17004 07020 12/// /1706 10060 20060 30269 40287 56015 60006 90000=
07020,1998-12-17 06:00:00,7,1025.4,-1,93,6,15000,29.632,,,210,5.1,8.4,,,,,,,,,wg-a,,,,AAXX 17064 07020 12865 32116 10070 20060 30237 40254 58010 60006 83010 90600 333 10084 20051=
07020,1998-12-17 12:00:00,8,1023.5,-0.5,87,6,10000,29.632,,,230,,,,,,,,,,,wg-a,,,,AAXX 17124 07020 12560 82316 10080 20060 30218 40235 58005 60006 887// 91200=
07020,1998-12-17 18:00:00,8,1021.4,-0.4,93,7,10000,35.188,,,210,6,8.7,,,,,,,,,wg-a,,,,AAXX 17184 07020 12560 82119 10080 20070 30197 40214 56004 60006 887// 91800 333 10087 20060=
07020,1998-12-18 00:00:00,10,1019.5,-0.4,93,9,0,29.632,,,210,,,,,,,,,,,wg-a,,,,AAXX 18004 07020 12/// /2116 10100 20090 30178 40195 58004 60016 90000=
07020,1998-12-18 06:00:00,11,1019.6,-0.2,94,10,15000,31.484,,,250,8.3,11.1,,0,,,,,,,wg-a,,,,AAXX 18064 07020 12665 42517 10110 20100 30179 40196 57002 60007 84400 90600 333 10111 20083=
07020,1998-12-18 12:00:00,11,1018.1,-1.9,94,10,18000,31.484,,,230,,,,,,,,,,,wg-a,,,,AAXX 18124 07020 12668 62317 10110 20100 30164 40181 58019 60006 83204 91200=
07020,1998-12-18 18:00:00,8,1013.8,-1.6,87,6,15000,61.116,,83.34,250,8.1,12,,2,,,,,,63,wg-a,,,,AAXX 18184 07020 12565 72533 10080 20060 30121 40138 55016 60027 76362 872// 91800 333 10120 20081 91045=
07020,1998-12-19 00:00:00,10,1011.1,-1.2,87,8,0,50.004,,,300,,,,4,,,,,,,wg-a,,,,AAXX 19004 07020 02/// /3027 10100 20080 30094 40111 55012 60066 90000 333 60047=
07020,1998-12-19 06:00:00,10,1018.4,2.2,71,5,14000,61.116,,,300,6.5,10.9,,,,,,,,,wg-a,,,,AAXX 19064 07020 02564 53033 10100 20050 30167 40184 51022 61000 85200 90600 333 10109 20065 ////=
07020,1998-12-19 12:00:00,10,1019.8,-0.2,71,5,24000,46.3,,,300,,,,,,,,,,,wg-a,,,,AAXX 19124 07020 12674 73025 10100 20050 30181 40198 58002 60006 85208 91200=
07020,1998-12-19 18:00:00,8,1016,-2,81,5,16000,22.224,,,270,7.1,10.2,,3,,,,,,61,wg-a,,,,AAXX 19184 07020 12566 82712 10080 20050 30143 40160 58020 60037 76162 8472/ 91800 333 10102 20071=
07020,1998-12-20 00:00:00,6,1007,-5.5,93,5,0,25.928,,,130,,,,,,,,,,,wg-a,,,,AAXX 20004 07020 12/// /1314 10060 20050 30053 40070 56055 60056 90000=
07020,1998-12-20 06:00:00,7,1006.6,1.8,87,5,12000,64.82,,94.452,60,4.9,8.8,,1,,,,,,61,wg-a,,,,AAXX 20064 07020 12562 80635 10070 20050 30049 40066 53018 60017 7616/ 8472/ 90600 333 10088 20049 91051=
07020,1998-12-20 12:00:00,7,1015.2,4.2,76,3,17000,57.412,,,60,,,,,,,,,,,wg-a,,,,AAXX 20124 07020 12567 60631 10070 20030 30135 40152 51042 60016 86200 91200=
07020,1998-12-20 18:00:00,6,1020.7,2.5,75,2,17000,42.596,,,30,6.3,7.6,,,,,,,,,wg-a,,,,AAXX 20184 07020 32567 60323 10060 20020 30190 40207 51025 86200 91800 333 10076 20063=
07020,1998-12-21 00:00:00,6,1023.8,1.2,75,2,0,22.224,,,20,,,,,,,,,,,wg-a,,,,AAXX 21004 07020 12/// /0212 10060 20020 30221 40238 51012 60006 90000=
07020,1998-12-21 06:00:00,5,1024.8,-0,70,0,18000,14.816,,,320,5.1,6.3,,,,,,,,,wg-a,,,,AAXX 21064 07020 12668 43208 10050 20000 30230 40248 55000 60006 84200 90600 333 10063 20051=
07020,1998-12-21 12:00:00,7,1026.2,0,61,0,50000,18.52,,,300,,,,,,,,,,,wg-a,,,,AAXX 21124 07020 12884 63010 10070 20000 30245 40262 50000 60006 86050 91200=
07020,1998-12-21 18:00:00,8,1025.4,-0.5,81,5,40000,29.632,,,250,5.3,7.9,,,,,,,,,wg-a,,,,AAXX 21184 07020 12682 52516 10080 20050 30237 40254 58005 60006 82150 91800 333 10079 20053=
07020,1998-12-22 00:00:00,8,1024.7,-0.2,93,7,0,38.892,,,230,,,,,,,,,,,wg-a,,,,AAXX 22004 07020 12/// /2321 10080 20070 30230 40247 58002 60006 90000=
07020,1998-12-22 06:00:00,9,1023.7,-0.5,93,8,22000,35.188,,,230,7.6,9.4,,,,,,,,,wg-a,,,,AAXX 22064 07020 32672 32319 10090 20080 30220 40237 55005 81230 90600 333 10094 20076=
07020,1998-12-22 12:00:00,10,1023.5,-0.3,93,9,18000,35.188,,,220,,,,,,,,,,,wg-a,,,,AAXX 22124 07020 12568 82219 10100 20090 30218 40235 58003 60006 887// 91200=
07020,1998-12-22 18:00:00,10,1022.5,0.1,93,9,10000,42.596,,94.452,240,9,10.5,,0,,,,,,2,wg-a,,,,AAXX 22184 07020 12560 82423 10100 20090 30208 40225 53001 60007 70262 887// 91800 333 10105 20090 91051=
07020,1998-12-23 00:00:00,9,1021.7,-0.5,93,8,0,42.596,,,220,,,,,,,,,,,wg-a,,,,AAXX 23004 07020 12/// /2223 10090 20080 30200 40217 58005 60016 90000=
07020,1998-12-23 06:00:00,8,1019.6,-1.4,87,6,14000,38.892,,,200,7.4,10.3,,,,,,,,,wg-a,,,,AAXX 23064 07020 32564 82021 10080 20060 30179 40196 56014 882// 90600 333 10103 20074=
07020,1998-12-23 12:00:00,7,1017.6,-1.7,87,5,16000,35.188,,,190,,,,,,,,,,,wg-a,,,,AAXX 23124 07020 12566 81919 10070 20050 30159 40176 58017 60006 8472/ 91200=
07020,1998-12-23 18:00:00,8,1016.6,1.1,87,6,0,22.224,,,360,6.5,8.3,,5,,,,,,,wg-a,,,,AAXX 23184 07020 12/// /3612 10080 20060 30149 40166 51011 60057 91800 333 10083 20065=
07020,1998-12-24 00:00:00,9,1019.1,1.4,66,3,0,35.188,,,320,,,,,,,,,,,wg-a,,,,AAXX 24004 07020 32/// /3219 10090 20030 30174 40191 51014 90000=
07020,1998-12-24 06:00:00,8,1021.7,1.2,71,3,20000,31.484,,,310,7.5,8.7,,,,,,,,,wg-a,,,,AAXX 24064 07020 02670 33117 10080 20030 30200 40217 53012 61000 83200 90600 333 10087 20075 ////=
07020,1998-12-24 12:00:00,10,1023.5,0,71,5,50000,29.632,,,250,,,,,,,,,,,wg-a,,,,AAXX 24124 07020 32584 62516 10100 20050 30218 40235 50000 81270 91200=
07020,1998-12-24 18:00:00,10,1021.1,-1.1,87,8,10000,50.004,,72.228,230,7.8,10.4,,0,,,,,,61,wg-a,,,,AAXX 24184 07020 12560 82327 10100 20080 30194 40211 58011 60007 76162 8472/ 91800 333 10104 20078 91039=
07020,1998-12-25 00:00:00,11,1021.1,0.3,100,11,0,38.892,,,250,,,,,,,,,,,wg-a,,,,AAXX 25004 07020 32/// /2521 10110 20110 30194 40211 53003 90000=
07020,1998-12-25 06:00:00,11,1021.1,-0.2,100,11,12000,42.596,,,250,9.4,11.6,,,,,,,,,wg-a,,,,AAXX 25064 07020 02562 62523 10110 20110 30194 40211 55002 61000 82720 90600 333 10116 20094 ////=
07020,1998-12-25 12:00:00,11,1019,-2,94,10,14000,46.3,,,210,,,,,,,,,,,wg-a,,,,AAXX 25124 07020 32564 82125 10110 20100 30173 40190 58020 8172/ 91200=
07020,1998-12-25 18:00:00,11,1013.9,-2.7,94,10,500,64.82,,100.008,240,10.6,11.8,,3,,,,,,60,wg-a,,,,AAXX 25184 07020 12500 82435 10110 20100 30122 40139 56027 60037 76062 887// 91800 333 10118 20106 91054=
07020,1998-12-26 00:00:00,11,1018,2.4,71,6,0,38.892,,,270,,,,,,,,,,,wg-a,,,,AAXX 26004 07020 02/// /2721 10110 20060 30163 40180 50024 60026 90000 333 61000=
07020,1998-12-26 06:00:00,11,1016.7,-1.6,87,9,24000,42.596,,75.932,230,9.6,11.4,,,,,,,,,wg-a,,,,AAXX 26064 07020 02574 42323 10110 20090 30150 40167 58016 61000 84230 90600 333 10114 20096 //// 91041=
07020,1998-12-26 12:00:00,11,1008.4,-5.6,94,10,8000,53.708,,72.228,200,,,,1,,,,,,60,wg-a,,,,AAXX 26124 07020 02558 82029 10110 20100 30067 40084 58056 60016 76062 88700 91200 333 60017 91039=
07020,1998-12-26 18:00:00,12,1001.5,-0.6,100,12,2500,68.524,,103.712,240,10.2,12.8,,2,,,,,,61,wg-a,,,,AAXX 26184 07020 12525 82437 10120 20120 39998 40015 58006 60027 76162 88700 91800 333 10128 20102 91056=
07020,1998-12-27 00:00:00,11,1006.2,1.9,87,9,0,38.892,,,260,,,,,,,,,,,wg-a,,,,AAXX 27004 07020 02/// /2621 10110 20090 30045 40062 51019 60026 90000 333 61000=
07020,1998-12-27 06:00:00,8,1003,-2.8,87,6,10000,22.224,,72.228,180,7.6,12.4,,2,,,,,,,wg-a,,,,AAXX 27064 07020 12560 81812 10080 20060 30013 40030 58028 60027 887// 90600 333 10124 20076 91039=
07020,1998-12-27 12:00:00,10,998.3,-0.8,93,9,50000,22.224,,,210,,,,,,,,,,2,wg-a,,,,AAXX 27124 07020 02884 82112 10100 20090 39966 49983 56008 60026 70262 8807/ 91200 333 61000=
07020,1998-12-27 18:00:00,11,1001.2,2.5,87,9,20000,42.596,,72.228,260,6.8,11.6,,,,,,,,0,wg-a,,,,AAXX 27184 07020 02570 82623 10110 20090 39995 40012 53025 61000 70086 8472/ 91800 333 10116 20068 //// 91039=
07020,1998-12-28 00:00:00,10,1003.7,1.2,87,8,0,42.596,,,240,,,,1,,,,,,,wg-a,,,,AAXX 28004 07020 02/// /2423 10100 20080 30020 40037 51012 60016 90000 333 60017=
07020,1998-12-28 06:00:00,9,1005.2,1.3,71,4,20000,46.3,,79.636,270,7.9,10.8,,,,,,,,,wg-a,,,,AAXX 28064 07020 32670 52725 10090 20040 30035 40052 53013 82270 90600 333 10108 20079 91043=
07020,1998-12-28 12:00:00,8,1008.7,1.4,76,4,25000,29.632,,83.34,260,,,,2,,,,,,25,wg-a,,,,AAXX 28124 07020 02575 62616 10080 20040 30070 40087 51014 60026 72587 86300 91200 333 60027 91045=
07020,1998-12-28 18:00:00,7,1011.3,1.2,81,4,25000,25.928,,72.228,240,5.7,9.4,,3,,,,,,2,wg-a,,,,AAXX 28184 07020 12575 22414 10070 20040 30096 40113 51012 60037 70282 82800 91800 333 10094 20057 91039=
07020,1998-12-29 00:00:00,7,1011.6,-0.2,93,6,0,25.928,,,180,,,,,,,,,,,wg-a,,,,AAXX 29004 07020 12/// /1814 10070 20060 30099 40116 58002 60016 90000=
07020,1998-12-29 06:00:00,6,1007.9,-1.8,87,4,16000,35.188,,,170,5.7,7.7,,,,,,,,,wg-a,,,,AAXX 29064 07020 32666 71719 10060 20040 30062 40079 56018 875// 90600 333 10077 20057=
07020,1998-12-29 12:00:00,9,1003,-3,71,4,20000,46.3,,75.932,160,,,,0,,,,,,,wg-a,,,,AAXX 29124 07020 02670 81625 10090 20040 30013 40030 58030 60006 8377/ 91200 333 60007 91041=
07020,1998-12-29 18:00:00,11,998.3,-1.2,71,6,15000,50.004,,79.636,180,6.3,10.6,,,,,,,,,wg-a,,,,AAXX 29184 07020 32565 81827 10110 20060 39966 49983 58012 8347/ 91800 333 10106 20063 91043=
07020,1998-12-30 00:00:00,11,997.4,-0.5,76,7,0,53.708,,,180,,,,,,,,,,,wg-a,,,,AAXX 30004 07020 32/// /1829 10110 20070 39957 49974 56005 90000=
07020,1998-12-30 06:00:00,11,1000.1,2.4,87,9,15000,46.3,,90.748,190,10.3,11.5,,,,,,,,,wg-a,,,,AAXX 30064 07020 32565 81925 10110 20090 39984 40001 53024 8442/ 90600 333 10115 20103 91049=
07020,1998-12-30 12:00:00,11,1005,1.3,87,9,15000,25.928,,68.524,180,,,,,,,,,,,wg-a,,,,AAXX 30124 07020 32565 61814 10110 20090 30033 40050 51013 83420 91200 333 91037=
07020,1998-12-30 18:00:00,10,1004.8,0.1,93,9,10000,22.224,,,180,9.5,11.4,,,,,,,,,wg-a,,,,AAXX 30184 07020 32560 81812 10100 20090 30031 40048 50001 886// 91800 333 10114 20095=
07020,1998-12-31 00:00:00,9,1002.4,-1.2,93,8,0,22.224,,,180,,,,,,,,,,,wg-a,,,,AAXX 31004 07020 32/// /1812 10090 20080 30007 40024 58012 90000=
07020,1998-12-31 06:00:00,8,999.4,-1.3,93,7,12000,25.928,,,170,7.9,9.5,,,,,,,,,wg-a,,,,AAXX 31064 07020 32662 41714 10080 20070 39977 49994 58013 84500 90600 333 10095 20079=
07020,1998-12-31 12:00:00,11,997.9,-0.9,82,8,16000,31.484,,53.708,180,,,,,,,,,,,wg-a,,,,AAXX 31124 07020 32566 51817 10110 20080 39962 49979 58009 83111 91200 333 91029=
07020,1998-12-31 18:00:00,9,997.3,0.3,87,7,16000,29.632,,,170,7.6,11.1,,1,,,,,,,wg-a,,,,AAXX 31184 07020 12566 71716 10090 20070 39956 49973 53003 60017 8511/ 91800 333 10111 20076=
