station_id,dh_utc,temperature,pression,pression_variation_3h,humidite,point_de_rosee,visibilite,vent_moyen,vent_rafales,vent_rafales_10min,vent_direction,temperature_min,temperature_max,pluie_1h,pluie_3h,pluie_6h,pluie_12h,pluie_24h,ensoleillement,temperature_sol,temps_omm,source,radiations,neige_au_sol,nebulosite,raw_msg
07020,1999-01-01 00:00:00,9,1000.3,2,87,7,0,31.484,,,180,,,,,,,,,,,wg-a,,,,AAXX 01004 07020 32/// /1817 10090 20070 39986 40003 52020 90000=
07020,1999-01-01 06:00:00,9,1003.6,1.8,93,8,15000,29.632,,,210,8.5,9.5,,,,,,,,,wg-a,,,,AAXX 01064 07020 32565 82116 10090 20080 30019 40036 53018 8442/ 90600 333 10095 20085=
07020,1999-01-01 12:00:00,10,1006.4,0.5,82,7,20000,35.188,,,210,,,,,,,,,,,wg-a,,,,AAXX 01124 07020 32670 22119 10100 20070 30047 40064 50005 81205 91200=
07020,1999-01-01 18:00:00,10,1005.4,-0.4,76,6,22000,42.596,,,200,8.4,10.5,,,,,,,,,wg-a,,,,AAXX 01184 07020 32/72 62023 10100 20060 30037 40054 56004 80005 91800 333 10105 20084=
07020,1999-01-02 00:00:00,9,999.7,-3.7,87,7,0,50.004,,,190,,,,0,,,,,,,wg-a,,,,AAXX 02004 07020 12/// /1927 10090 20070 39980 49997 58037 60007 90000=
07020,1999-01-02 06:00:00,10,996.7,0.2,87,8,20000,57.412,,100.008,260,8.3,10.6,,1,,,,,,,wg-a,,,,AAXX 02064 07020 12570 62631 10100 20080 39950 49967 53002 60017 86800 90600 333 10106 20083 91054=
07020,1999-01-02 12:00:00,10,999.7,1.1,76,6,20000,46.3,,79.636,240,,,,,,,,,,,wg-a,,,,AAXX 02124 07020 32570 52425 10100 20060 39980 49997 51011 84205 91200 333 91043=
07020,1999-01-02 18:00:00,8,1001.4,1.5,81,5,10000,50.004,,96.304,270,5.4,10.8,,4,,,,,,29,wg-a,,,,AAXX 02184 07020 12560 82727 10080 20050 39997 40014 53015 60047 72922 884// 91800 333 10108 20054 91052=
07020,1999-01-03 00:00:00,9,1006.1,1.9,76,5,0,35.188,,,270,,,,,,,,,,,wg-a,,,,AAXX 03004 07020 32/// /2719 10090 20050 30044 40061 53019 90000=
07020,1999-01-03 06:00:00,10,1,-6.9,93,9,15000,61.116,,94.452,210,6.2,9.7,,2,,,,,,,wg-a,,,,AAXX 03064 07020 12565 82133 10100 20090 56069 60027 884// 90600 333 10097 20062 91051=
07020,1999-01-03 12:00:00,10,1005.9,9.4,71,5,6000,72.228,,125.936,300,,,,,,,,,,,wg-a,,,,AAXX 03124 07020 32556 63039 10100 20050 30042 40059 51094 86200 91200 333 91068=
07020,1999-01-03 18:00:00,10,1009.5,-0.4,87,8,15000,38.892,,90.748,220,9.7,11.5,,,,,,,,80,wg-a,,,,AAXX 03184 07020 02565 62221 10100 20080 30078 40095 56004 61000 78022 86700 91800 333 10115 20097 //// 91049=
07020,1999-01-04 00:00:00,12,1005.6,-1.5,94,11,0,46.3,,,220,,,,1,,,,,,,wg-a,,,,AAXX 04004 07020 12/// /2225 10120 20110 30039 40056 56015 60017 90000=
07020,1999-01-04 06:00:00,12,1005.8,-0,100,12,6000,57.412,,94.452,240,8.9,12.8,,2,,,,,,,wg-a,,,,AAXX 04064 07020 12556 82431 10120 20120 30041 40058 55000 60027 887// 90600 333 10128 20089 91051=
07020,1999-01-04 12:00:00,12,1009.7,2.2,94,11,10000,38.892,,,250,,,,0,,,,,,21,wg-a,,,,AAXX 04124 07020 12560 72521 10120 20110 30080 40097 51022 60007 72162 877// 91200=
07020,1999-01-04 18:00:00,11,1011.7,0.8,100,11,4000,29.632,,,200,10.5,12.6,,1,,,,,,2,wg-a,,,,AAXX 04184 07020 12540 82016 10110 20110 30100 40117 51008 60017 70265 887// 91800 333 10126 20105=
07020,1999-01-05 00:00:00,13,1012.4,0.6,88,11,0,50.004,,,200,,,,,,,,,,,wg-a,,,,AAXX 05004 07020 32/// /2027 10130 20110 30107 40124 53006 90000=
07020,1999-01-05 06:00:00,11,1012.1,-0.1,94,10,14000,38.892,,72.228,200,10.6,12.5,,,,,,,,,wg-a,,,,AAXX 05064 07020 32664 32021 10110 20100 30104 40121 55001 83200 90600 333 10125 20106 91039=
07020,1999-01-05 12:00:00,12,1012.9,0.2,88,10,18000,38.892,,64.82,200,,,,,,,,,,,wg-a,,,,AAXX 05124 07020 32/68 42021 10120 20100 30112 40129 50002 80008 91200 333 91035=
07020,1999-01-05 18:00:00,12,1012.1,-0,82,9,16000,42.596,,61.116,190,10.3,12.2,,,,,,,,,wg-a,,,,AAXX 05184 07020 32/66 31923 10120 20090 30104 40121 55000 80008 91800 333 10122 20103 91033=
07020,1999-01-06 00:00:00,12,1012.7,-0.2,76,8,0,46.3,,,200,,,,,,,,,,,wg-a,,,,AAXX 06004 07020 32/// /2025 10120 20080 30110 40127 58002 90000=
07020,1999-01-06 06:00:00,11,1011.9,0.2,76,7,20000,38.892,,68.524,200,10.1,12.7,,,,,,,,,wg-a,,,,AAXX 06064 07020 32/70 02021 10110 20070 30102 40119 53002 80000 90600 333 10127 20101 91037=
07020,1999-01-06 12:00:00,11,1011.2,-0.7,87,9,12000,38.892,,64.82,190,,,,,,,,,,,wg-a,,,,AAXX 06124 07020 32/62 31921 10110 20090 30095 40112 58007 80008 91200 333 91035=
07020,1999-01-06 18:00:00,11,1009.3,-0.9,87,9,10000,46.3,,68.524,200,9.5,11.8,,,,,,,,,wg-a,,,,AAXX 06184 07020 32/60 22025 10110 20090 30076 40093 58009 80008 91800 333 10118 20095 91037=
07020,1999-01-07 00:00:00,9,1010.8,1.7,93,8,0,31.484,,,310,,,,,,,,,,,wg-a,,,,AAXX 07004 07020 32/// /3117 10090 20080 30091 40108 53017 90000=
07020,1999-01-07 06:00:00,9,1011.7,-0,87,7,0,18.52,,,250,7.3,12,,,,,,,,,wg-a,,,,AAXX 07064 07020 32/// /2510 10090 20070 30100 40117 55000 90600 333 10120 20073=
07020,1999-01-07 12:00:00,11,1011.6,-0.2,76,7,0,42.596,,,260,,,,,,,,,,,wg-a,,,,AAXX 07124 07020 32/// /2623 10110 20070 30099 40116 58002 91200=
07020,1999-01-07 18:00:00,10,1006.2,-3.3,93,9,500,57.412,,75.932,230,8.3,10.7,,2,,,,,,61,wg-a,,,,AAXX 07184 07020 12500 82331 10100 20090 30045 40062 56033 60027 76122 887// 91800 333 10107 20083 91041=
07020,1999-01-08 00:00:00,10,1006.8,0.2,71,5,0,42.596,,,290,,,,,,,,,,,wg-a,,,,AAXX 08004 07020 32/// /2923 10100 20050 30051 40068 51002 90000=
07020,1999-01-08 06:00:00,9,1007.2,-0.2,76,5,14000,42.596,,94.452,290,8.5,10.5,,,,,,,,,wg-a,,,,AAXX 08064 07020 02664 52923 10090 20050 30055 40072 58002 61000 85200 90600 333 10105 20085 //// 91051=
07020,1999-01-08 12:00:00,10,1005.5,-1.5,71,5,500,42.596,,83.34,270,,,,,,,,,,3,wg-a,,,,AAXX 08124 07020 02600 72723 10100 20050 30038 40055 58015 61000 70382 8472/ 91200 333 //// 91045=
07020,1999-01-08 18:00:00,8,1003.1,-0.8,87,6,8000,50.004,,83.34,290,7.2,9.9,,2,,,,,,63,wg-a,,,,AAXX 08184 07020 12558 72927 10080 20060 30014 40031 58008 60027 76386 8272/ 91800 333 10099 20072 91045=
07020,1999-01-09 00:00:00,7,1008.6,2.7,87,5,0,31.484,,,20,,,,,,,,,,,wg-a,,,,AAXX 09004 07020 02/// /0217 10070 20050 30069 40086 51027 61000 90000 333 ////=
07020,1999-01-09 06:00:00,7,1011.2,1.4,87,5,500,35.188,,,30,6.9,9.3,,,,,,,,,wg-a,,,,AAXX 09064 07020 02600 60319 10070 20050 30095 40112 53014 61000 84270 90600 333 10093 20069 ////=
07020,1999-01-09 12:00:00,7,1014.5,1.1,81,4,500,29.632,,,40,,,,,,,,,,,wg-a,,,,AAXX 09124 07020 32600 60416 10070 20040 30128 40145 51011 86200 91200=
07020,1999-01-09 18:00:00,6,1015.1,0.6,75,2,500,38.892,,,50,6.1,7.4,,,,,,,,,wg-a,,,,AAXX 09184 07020 32600 60521 10060 20020 30134 40151 51006 86200 91800 333 10074 20061=
07020,1999-01-11 00:00:00,5,1014.6,0.4,75,1,0,57.412,,,50,,,,,,,,,,,wg-a,,,,AAXX 11004 07020 32/// /0531 10050 20010 30129 40146 53004 90000=
07020,1999-01-11 06:00:00,6,1015.3,0.5,75,2,26000,57.412,,,50,5.3,5.9,,,,,,,,,wg-a,,,,AAXX 11064 07020 32676 70531 10060 20020 30136 40153 53005 8527/ 90600 333 10059 20053=
07020,1999-01-11 12:00:00,5,1017.9,0.7,81,2,20000,38.892,,,40,,,,,,,,,,,wg-a,,,,AAXX 11124 07020 32570 60421 10050 20020 30162 40179 51007 86200 91200=
07020,1999-01-11 18:00:00,5,1018.8,0.5,75,1,20000,18.52,,,30,4.9,6,,,,,,,,,wg-a,,,,AAXX 11184 07020 32570 60310 10050 20010 30171 40188 50005 86200 91800 333 10060 20049=
07020,1999-01-12 00:00:00,3,1019.1,-0.9,75,-1,0,11.112,,,260,,,,,,,,,,,wg-a,,,,AAXX 12004 07020 32/// /2606 10030 21010 30173 40191 56009 90000=
07020,1999-01-12 06:00:00,7,1014.1,-3.3,70,2,18000,46.3,,61.116,240,2.1,6.6,,,,,,,,,wg-a,,,,AAXX 12064 07020 32668 62425 10070 20020 30124 40141 56033 86500 90600 333 10066 20021 91033=
07020,1999-01-12 12:00:00,7,1005.6,-5.1,93,6,500,68.524,,94.452,220,,,,2,,,,,,62,wg-a,,,,AAXX 12124 07020 12500 82237 10070 20060 30039 40056 58051 60027 76262 887// 91200 333 91051=
07020,1999-01-12 18:00:00,9,1004,2,81,6,15000,53.708,,103.712,300,6,9.8,,,,,,,,21,wg-a,,,,AAXX 12184 07020 02565 83029 10090 20060 30023 40040 53020 61000 72162 887// 91800 333 10098 20060 //// 91056=
07020,1999-01-13 00:00:00,8,1009.3,3.1,76,4,0,57.412,,,310,,,,,,,,,,,wg-a,,,,AAXX 13004 07020 32/// /3131 10080 20040 30076 40093 52031 90000=
07020,1999-01-13 06:00:00,8,1013,1.5,76,4,12000,50.004,,,310,8.1,9.4,,,,,,,,,wg-a,,,,AAXX 13064 07020 32662 53127 10080 20040 30113 40130 53015 85200 90600 333 10094 20081=
07020,1999-01-13 12:00:00,10,1012.8,-0.8,71,5,22000,35.188,,,270,,,,,,,,,,,wg-a,,,,AAXX 13124 07020 32572 82719 10100 20050 30111 40128 58008 84210 91200=
07020,1999-01-13 18:00:00,10,1007.4,-2.1,100,10,500,53.708,,,260,8.1,10.2,,2,,,,,,61,wg-a,,,,AAXX 13184 07020 12500 82629 10100 20100 30057 40074 56021 60027 76122 88700 91800 333 10102 20081=
07020,1999-01-14 00:00:00,10,1009,1,76,6,0,42.596,,,290,,,,,,,,,,,wg-a,,,,AAXX 14004 07020 02/// /2923 10100 20060 30073 40090 53010 61000 90000 333 ////=
07020,1999-01-14 06:00:00,9,1011.3,1.4,76,5,20000,57.412,,75.932,300,8.7,10.9,,,,,,,,,wg-a,,,,AAXX 14064 07020 02670 13031 10090 20050 30096 40113 53014 61000 81200 90600 333 10109 20087 //// 91041=
07020,1999-01-14 12:00:00,9,1014.3,0.9,71,4,20000,25.928,,,280,,,,,,,,,,,wg-a,,,,AAXX 14124 07020 32570 52814 10090 20040 30126 40143 50009 85130 91200=
07020,1999-01-14 18:00:00,10,1013.8,0.1,76,6,20000,46.3,,68.524,260,8.2,10.4,,0,,,,,,2,wg-a,,,,AAXX 14184 07020 12670 62625 10100 20060 30121 40138 52001 60007 70282 86500 91800 333 10104 20082 91037=
07020,1999-01-15 00:00:00,10,1013.7,-0.2,93,9,0,42.596,,,260,,,,,,,,,,,wg-a,,,,AAXX 15004 07020 32/// /2623 10100 20090 30120 40137 55002 90000=
07020,1999-01-15 06:00:00,10,1010.7,-1.9,93,9,18000,50.004,,72.228,230,9.4,10.4,,0,,,,,,,wg-a,,,,AAXX 15064 07020 12568 62327 10100 20090 30090 40107 58019 60007 86700 90600 333 10104 20094 91039=
07020,1999-01-15 18:00:00,10,1001.2,-3,87,8,500,68.524,,90.748,210,9.5,10.4,,3,,,,,,61,wg-a,,,,AAXX 15184 07020 12500 82137 10100 20080 39995 40012 58030 60037 76162 884// 91800 333 10104 20095 91049=
07020,1999-01-16 00:00:00,11,996.9,-2.3,94,10,0,61.116,,,210,,,,5,,,,,,,wg-a,,,,AAXX 16004 07020 12/// /2133 10110 20100 39952 49969 56023 60057 90000=
07020,1999-01-16 06:00:00,10,995.6,1.2,93,9,10000,38.892,,90.748,260,9,11.1,,9,,,,,,61,wg-a,,,,AAXX 16064 07020 12660 82621 10100 20090 39939 49956 53012 60097 76100 884// 90600 333 10111 20090 91049=
07020,1999-01-16 12:00:00,9,1001,1.4,81,6,35000,29.632,,,250,,,,,,,,,,2,wg-a,,,,AAXX 16124 07020 32581 82516 10090 20060 39993 40010 50014 70262 8677/ 91200=
07020,1999-01-16 18:00:00,9,1001.7,0.5,81,6,0,38.892,,,230,6.7,9.6,,,,,,,,,wg-a,,,,AAXX 16184 07020 32/// /2321 10090 20060 30000 40017 51005 91800 333 10096 20067=
07020,1999-01-17 00:00:00,7,1003.4,1.3,87,5,0,38.892,,,260,,,,1,,,,,,,wg-a,,,,AAXX 17004 07020 12/// /2621 10070 20050 30017 40034 53013 60017 90000=
07020,1999-01-17 06:00:00,7,1004.1,1.2,81,4,25000,35.188,,,250,6.5,,,,,,,,,,wg-a,,,,AAXX 17064 07020 32675 32519 10070 20040 30024 40041 53012 83400 90600 333 20065=
07020,1999-01-17 12:00:00,9,1008.6,2.3,81,6,15000,35.188,,53.708,230,,,,,,,,,,,wg-a,,,,AAXX 17124 07020 32665 62319 10090 20060 30069 40086 51023 86901 91200 333 91029=
07020,1999-01-17 18:00:00,8,1013.1,2.6,81,5,1000,35.188,,64.82,240,6.2,9.7,,,,,,,,2,wg-a,,,,AAXX 17184 07020 32610 72419 10080 20050 30114 40131 52026 70282 874// 91800 333 10097 20062 91035=
07020,1999-01-18 00:00:00,8,1016.6,1.4,87,6,0,35.188,,,220,,,,,,,,,,,wg-a,,,,AAXX 18004 07020 32/// /2219 10080 20060 30149 40166 51014 90000=
07020,1999-01-18 06:00:00,8,1017.9,0.1,93,7,12000,29.632,,,210,7.5,8.5,,0,,,,,,,wg-a,,,,AAXX 18064 07020 12562 82116 10080 20070 30162 40179 53001 60007 887// 90600 333 10085 20075=
07020,1999-01-18 12:00:00,9,1016.5,-1.8,87,7,20000,42.596,,68.524,200,,,,,,,,,,,wg-a,,,,AAXX 18124 07020 32870 72023 10090 20070 30148 40165 58018 8707/ 91200 333 91037=
07020,1999-01-18 18:00:00,10,1013.3,-1,87,8,0,57.412,,,210,7.6,10.2,,,,,,,,,wg-a,,,,AAXX 18184 07020 02/// /2131 10100 20080 30116 40133 56010 61000 91800 333 10102 20076 ////=
07020,1999-01-19 00:00:00,10,1012.4,-0.8,93,9,0,57.412,,,200,,,,,,,,,,,wg-a,,,,AAXX 19004 07020 32/// /2031 10100 20090 30107 40124 56008 90000=
07020,1999-01-19 06:00:00,11,1010,-1.3,94,10,18000,57.412,,83.34,200,9.9,11.1,,0,,,,,,60,wg-a,,,,AAXX 19064 07020 12568 82031 10110 20100 30083 40100 58013 60007 760// 8472/ 90600 333 10111 20099 91045=
07020,1999-01-19 12:00:00,11,1009.9,-0.1,100,11,10000,50.004,,90.748,200,,,,2,,,,,,21,wg-a,,,,AAXX 19124 07020 12560 82027 10110 20110 30082 40099 56001 60027 72166 8472/ 91200 333 91049=
07020,1999-01-19 18:00:00,12,1009.6,0.1,94,11,11000,46.3,,,210,10.7,12,,,,,,,,2,wg-a,,,,AAXX 19184 07020 02561 82125 10120 20110 30079 40096 53001 61000 70265 84720 91800 333 10120 20107 ////=
07020,1999-01-20 00:00:00,12,1009.2,-0.3,94,11,0,50.004,,,200,,,,0,,,,,,,wg-a,,,,AAXX 20004 07020 12/// /2027 10120 20110 30075 40092 58003 60007 90000=
07020,1999-01-20 06:00:00,11,1009.1,-0.2,94,10,10000,61.116,,90.748,200,11,12,,,,,,,,,wg-a,,,,AAXX 20064 07020 32560 82033 10110 20100 30074 40091 56002 88700 90600 333 10120 20110 91049=
07020,1999-01-20 12:00:00,10,1012.3,2.2,100,10,8000,29.632,,87.044,200,,,,2,,,,,,61,wg-a,,,,AAXX 20124 07020 12558 82016 10100 20100 30106 40123 51022 60027 76165 887// 91200 333 91047=
07020,1999-01-20 18:00:00,10,1014.8,2,93,9,15000,22.224,,,190,9.9,11.3,,,,,,,,,wg-a,,,,AAXX 20184 07020 32665 81912 10100 20090 30131 40148 51020 885// 91800 333 10113 20099=
07020,1999-01-21 00:00:00,10,1017.6,1.1,93,9,0,14.816,,,190,,,,,,,,,,,wg-a,,,,AAXX 21004 07020 32/// /1908 10100 20090 30159 40176 53011 90000=
07020,1999-01-21 06:00:00,8,1019.6,1.3,93,7,15000,3.704,,,180,7.7,10.1,,,,,,,,,wg-a,,,,AAXX 21064 07020 32665 81802 10080 20070 30179 40196 53013 884// 90600 333 10101 20077=
07020,1999-01-21 12:00:00,8,1022.5,1.1,100,8,500,18.52,,,70,,,,,,,,,,45,wg-a,,,,AAXX 21124 07020 32/00 90710 10080 20080 30208 40225 53011 74542 89/// 91200=
07020,1999-01-21 18:00:00,8,1024.1,1.6,93,7,16000,25.928,,,70,7.2,9.8,,,,,,,,2,wg-a,,,,AAXX 21184 07020 32866 80714 10080 20070 30224 40241 53016 70242 8807/ 91800 333 10098 20072=
07020,1999-01-22 00:00:00,9,1025.7,0.7,87,7,0,29.632,,,60,,,,,,,,,,,wg-a,,,,AAXX 22004 07020 32/// /0616 10090 20070 30240 40257 52007 90000=
07020,1999-01-22 06:00:00,8,1025.6,-0.3,87,6,16000,29.632,,,80,8.1,9.1,,,,,,,,,wg-a,,,,AAXX 22064 07020 32666 70816 10080 20060 30239 40256 56003 8217/ 90600 333 10091 20081=
07020,1999-01-22 12:00:00,10,1026.4,0,87,8,24000,14.816,,,70,,,,,,,,,,,wg-a,,,,AAXX 22124 07020 32574 80708 10100 20080 30247 40264 50000 885// 91200=
07020,1999-01-22 18:00:00,9,1025.1,-0,87,7,18000,11.112,,,100,8.2,10.1,,,,,,,,,wg-a,,,,AAXX 22184 07020 32568 81006 10090 20070 30234 40251 55000 88500 91800 333 10101 20082=
07020,1999-01-23 00:00:00,8,1023.3,-1.1,93,7,0,14.816,,,170,,,,,,,,,,,wg-a,,,,AAXX 23004 07020 32/// /1708 10080 20070 30216 40233 58011 90000=
07020,1999-01-23 06:00:00,8,1020.3,-1.3,93,7,16000,22.224,,,200,6.3,8.9,,,,,,,,,wg-a,,,,AAXX 23064 07020 32566 62012 10080 20070 30186 40203 56013 86200 90600 333 10089 20063=
07020,1999-01-23 12:00:00,8,1019.1,-0.8,87,6,16000,31.484,,,200,,,,,,,,,,,wg-a,,,,AAXX 23124 07020 32666 82017 10080 20060 30174 40191 58008 8267/ 91200=
07020,1999-01-23 18:00:00,8,1016.8,-0.5,93,7,6000,42.596,,64.82,190,6.8,8.3,,,,,,,,,wg-a,,,,AAXX 23184 07020 32556 81923 10080 20070 30151 40168 56005 8467/ 91800 333 10083 20068 91035=
07020,1999-01-24 00:00:00,9,1016.6,0.1,100,9,0,38.892,,,210,,,,,,,,,,,wg-a,,,,AAXX 24004 07020 32/// /2121 10090 20090 30149 40166 53001 90000=
07020,1999-01-24 06:00:00,9,1018.5,1.3,100,9,18000,11.112,,,300,8.1,10,,,,,,,,,wg-a,,,,AAXX 24064 07020 32568 83006 10090 20090 30168 40185 53013 8272/ 90600 333 10100 20081=
07020,1999-01-24 12:00:00,11,1020.5,0.4,94,10,10000,25.928,,,210,,,,,,,,,,,wg-a,,,,AAXX 24124 07020 32560 52114 10110 20100 30188 40205 50004 82751 91200=
07020,1999-01-24 18:00:00,10,1017.4,-1.7,100,10,14000,38.892,,,190,6.8,11,,,,,,,,,wg-a,,,,AAXX 24184 07020 32664 61921 10100 20100 30157 40174 58017 81251 91800 333 10110 20068=
07020,1999-01-25 00:00:00,11,1017.3,-0.3,100,11,0,46.3,,,220,,,,,,,,,,,wg-a,,,,AAXX 25004 07020 32/// /2225 10110 20110 30156 40173 58003 90000=
07020,1999-01-25 06:00:00,11,1014.9,-1.5,94,10,16000,53.708,,75.932,220,10.4,11.6,,,,,,,,,wg-a,,,,AAXX 25064 07020 32566 82229 10110 20100 30132 40149 56015 882// 90600 333 10116 20104 91041=
07020,1999-01-25 12:00:00,12,1016.2,0.7,94,11,500,50.004,,87.044,250,,,,1,,,,,,21,wg-a,,,,AAXX 25124 07020 12500 82527 10120 20110 30145 40162 53007 60017 72165 887// 91200 333 91047=
07020,1999-01-25 18:00:00,10,1018.3,1.9,82,7,10000,29.632,,,280,10,11.7,,1,,,,,,,wg-a,,,,AAXX 25184 07020 12660 82816 10100 20070 30166 40183 52019 60017 887// 91800 333 10117 20100=
07020,1999-01-26 00:00:00,9,1019.1,-0.4,71,4,0,25.928,,,280,,,,,,,,,,,wg-a,,,,AAXX 26004 07020 32/// /2814 10090 20040 30174 40191 56004 90000=
07020,1999-01-26 06:00:00,9,1016,-1.9,76,5,10000,31.484,,,260,8.5,10,,,,,,,,,wg-a,,,,AAXX 26064 07020 32660 82617 10090 20050 30143 40160 56019 887// 90600 333 10100 20085=
07020,1999-01-26 12:00:00,8,1013.6,-1.7,93,7,15000,31.484,,72.228,270,,,,2,,,,,,61,wg-a,,,,AAXX 26124 07020 12565 62717 10080 20070 30119 40136 58017 60027 76186 86300 91200 333 91039=
07020,1999-01-26 18:00:00,10,1007.5,-2.4,93,9,6000,53.708,,107.416,270,7.4,10.3,,2,,,,,,63,wg-a,,,,AAXX 26184 07020 12556 82729 10100 20090 30058 40075 56024 60027 76386 887// 91800 333 10103 20074 91058=
07020,1999-01-27 00:00:00,8,1012.1,2.1,71,3,0,50.004,,,320,,,,,,,,,,,wg-a,,,,AAXX 27004 07020 02/// /3227 10080 20030 30104 40121 52021 61000 90000 333 ////=
07020,1999-01-27 06:00:00,8,1015.3,1.4,76,4,18000,50.004,,,330,7.6,10.2,,,,,,,,,wg-a,,,,AAXX 27064 07020 02568 73327 10080 20040 30136 40153 52014 61000 8777/ 90600 333 10102 20076 ////=
07020,1999-01-27 12:00:00,9,1018.5,0.6,71,4,22000,14.816,,,290,,,,,,,,,,,wg-a,,,,AAXX 27124 07020 32672 32908 10090 20040 30168 40185 50006 83100 91200=
07020,1999-01-27 18:00:00,9,1018.1,-0,93,8,500,35.188,,,250,7.8,9.7,,,,,,,,,wg-a,,,,AAXX 27184 07020 32600 72519 10090 20080 30164 40181 55000 875// 91800 333 10097 20078=
07020,1999-01-28 00:00:00,11,1017.5,-0.5,87,9,0,38.892,,,280,,,,,,,,,,,wg-a,,,,AAXX 28004 07020 32/// /2821 10110 20090 30158 40175 58005 90000=
07020,1999-01-28 06:00:00,11,1015.7,-1,94,10,14000,42.596,,68.524,280,8.9,11,,,,,,,,,wg-a,,,,AAXX 28064 07020 32564 72823 10110 20100 30140 40157 56010 872// 90600 333 10110 20089 91037=
07020,1999-01-28 12:00:00,11,1017,0.4,87,9,10000,42.596,,90.748,300,,,,,,,,,,,wg-a,,,,AAXX 28124 07020 32660 83023 10110 20090 30153 40170 53004 884// 91200 333 91049=
07020,1999-01-28 18:00:00,10,1020.5,2.4,93,9,10000,35.188,,,310,10.3,11.6,,,,,,,,,wg-a,,,,AAXX 28184 07020 32660 83119 10100 20090 30188 40205 53024 884// 91800 333 10116 20103=
07020,1999-01-29 00:00:00,10,1023.2,1.2,87,8,0,25.928,,,360,,,,,,,,,,,wg-a,,,,AAXX 29004 07020 32/// /3614 10100 20080 30215 40232 53012 90000=
07020,1999-01-29 06:00:00,9,1026.4,1.6,76,5,20000,25.928,,,40,8.8,10.4,,,,,,,,,wg-a,,,,AAXX 29064 07020 32670 60414 10090 20050 30247 40264 53016 85420 90600 333 10104 20088=
07020,1999-01-29 12:00:00,10,1030.9,1.6,76,6,22000,18.52,,,60,,,,,,,,,,,wg-a,,,,AAXX 29124 07020 32672 60610 10100 20060 30292 40309 53016 82435 91200=
07020,1999-01-29 18:00:00,9,1032.8,1.4,76,5,20000,14.816,,,90,8.4,10.8,,,,,,,,,wg-a,,,,AAXX 29184 07020 32670 70908 10090 20050 30311 40328 52014 8117/ 91800 333 10108 20084=
07020,1999-01-30 00:00:00,7,1035.3,1.2,87,5,0,7.408,,,140,,,,,,,,,,,wg-a,,,,AAXX 30004 07020 32/// /1404 10070 20050 30335 40353 52012 90000=
07020,1999-01-30 06:00:00,6,1036.1,0.8,70,1,18000,3.704,,,110,5.7,8.6,,,,,,,,,wg-a,,,,AAXX 30064 07020 32/68 61102 10060 20010 30343 40361 53008 86020 90600 333 10086 20057=
07020,1999-01-30 12:00:00,6,1037.4,0.5,87,4,10000,22.224,,,200,,,,,,,,,,,wg-a,,,,AAXX 30124 07020 32660 82012 10060 20040 30356 40374 50005 884// 91200=
07020,1999-01-30 18:00:00,5,1038.6,1,81,2,10000,11.112,,,170,5,6.5,,,,,,,,,wg-a,,,,AAXX 30184 07020 32660 81706 10050 20020 30368 40386 53010 884// 91800 333 10065 20050=
07020,1999-01-31 00:00:00,4,1040.6,1,75,0,0,14.816,,,140,,,,,,,,,,,wg-a,,,,AAXX 31004 07020 32/// /1408 10040 20000 30388 40406 53010 90000=
07020,1999-01-31 06:00:00,1,1040.6,-0.1,55,-7,15000,14.816,,,170,1,5.1,,,,,,,,,wg-a,,,,AAXX 31064 07020 32/65 11708 10010 21070 30388 40406 55001 80001 90600 333 10051 20010=
07020,1999-01-31 12:00:00,5,1043.1,0.9,56,-3,40000,14.816,,,190,,,,,,,,,,,wg-a,,,,AAXX 31124 07020 32/82 51908 10050 21030 30413 40431 51009 84031 91200=
07020,1999-01-31 18:00:00,3,1042.1,-0,65,-3,35000,3.704,,,150,0.3,7.1,,,,,,,,,wg-a,,,,AAXX 31184 07020 32/81 21502 10030 21030 30403 40421 55000 81041 91800 333 10071 20003=
07020,1999-02-01 00:00:00,3,1041.5,-0.6,81,0,0,7.408,,,220,,,,,,,,,,,wg-a,,,,AAXX 01004 07020 32/// /2204 10030 20000 30397 40415 56006 90000=
07020,1999-02-01 06:00:00,8,1040.8,-0.2,87,6,18000,18.52,,,350,0.8,8.3,,,,,,,,,wg-a,,,,AAXX 01064 07020 32868 63510 10080 20060 30390 40408 57002 86020 90600 333 10083 20008=
07020,1999-02-01 12:00:00,10,1041.2,-0.1,87,8,12000,29.632,,,40,,,,,,,,,,,wg-a,,,,AAXX 01124 07020 32862 80416 10100 20080 30394 40412 58001 8802/ 91200=
07020,1999-02-01 18:00:00,10,1040.8,0.6,82,7,10000,31.484,,,40,8.2,9.7,,,,,,,,,wg-a,,,,AAXX 01184 07020 32860 80417 10100 20070 30391 40408 53006 8802/ 91800 333 10097 20082=
07020,1999-02-02 00:00:00,9,1041.2,0.4,76,5,0,25.928,,,60,,,,,,,,,,,wg-a,,,,AAXX 02004 07020 32/// /0614 10090 20050 30394 40412 53004 90000=
07020,1999-02-02 06:00:00,9,1040.9,0.2,76,5,16000,22.224,,,40,9.2,9.6,,,,,,,,,wg-a,,,,AAXX 02064 07020 32866 80412 10090 20050 30391 40409 53002 8302/ 90600 333 10096 20092=
07020,1999-02-02 12:00:00,10,1042.1,0.3,71,5,18000,14.816,,,10,,,,,,,,,,,wg-a,,,,AAXX 02124 07020 32668 70108 10100 20050 30403 40421 51003 878// 91200=
07020,1999-02-03 00:00:00,9,1042.1,0.1,87,7,0,14.816,,,270,,,,,,,,,,,wg-a,,,,AAXX 03004 07020 32/// /2708 10090 20070 30403 40421 52001 90000=
07020,1999-02-03 06:00:00,9,1040.5,-0.9,87,7,24000,22.224,,,270,8.4,9.4,,,,,,,,,wg-a,,,,AAXX 03064 07020 32874 62712 10090 20070 30387 40405 58009 86050 90600 333 10094 20084=
07020,1999-02-03 12:00:00,10,1040,-0.8,93,9,15000,25.928,,,290,,,,,,,,,,,wg-a,,,,AAXX 03124 07020 32665 82914 10100 20090 30383 40400 56008 884// 91200=
07020,1999-02-03 18:00:00,10,1038.2,-0.7,87,8,15000,25.928,,,270,9.3,10.3,,,,,,,,20,wg-a,,,,AAXX 03184 07020 02565 82714 10100 20080 30365 40382 58007 61000 72052 887// 91800 333 10103 20093 ////=
07020,1999-02-04 00:00:00,10,1037.3,-0.7,87,8,0,25.928,,,280,,,,,,,,,,,wg-a,,,,AAXX 04004 07020 32/// /2814 10100 20080 30356 40373 57007 90000=
07020,1999-02-04 06:00:00,10,1035.3,-0.8,87,8,15000,29.632,,61.116,280,10,10.4,,,,,,,,,wg-a,,,,AAXX 04064 07020 32665 82816 10100 20080 30336 40353 56008 887// 90600 333 10104 20100 91033=
07020,1999-02-04 12:00:00,11,1033.4,-1.6,82,8,12000,35.188,,,280,,,,,,,,,,,wg-a,,,,AAXX 04124 07020 32662 82819 10110 20080 30317 40334 58016 884// 91200=
07020,1999-02-04 18:00:00,11,1029.4,-2.4,87,9,6000,42.596,,64.82,270,10.2,10.9,,,,,,,,,wg-a,,,,AAXX 04184 07020 32656 82723 10110 20090 30277 40294 58024 8372/ 91800 333 10109 20102 91035=
07020,1999-02-05 00:00:00,10,1027.9,-1.2,93,9,0,50.004,,,290,,,,,,,,,,,wg-a,,,,AAXX 05004 07020 32/// /2927 10100 20090 30262 40279 58012 90000=
07020,1999-02-05 06:00:00,9,1026.6,-0.6,76,5,16000,50.004,,,310,8.7,11,,,,,,,,,wg-a,,,,AAXX 05064 07020 32566 73127 10090 20050 30249 40266 56006 872// 90600 333 10110 20087=
07020,1999-02-05 12:00:00,10,1026.8,-0.4,76,6,16000,46.3,,,300,,,,,,,,,,,wg-a,,,,AAXX 05124 07020 32666 73025 10100 20060 30251 40268 58004 874// 91200=
07020,1999-02-05 18:00:00,10,1024.8,-0.7,71,5,16000,50.004,,,320,9.1,10,,,,,,,,,wg-a,,,,AAXX 05184 07020 32666 73227 10100 20050 30231 40248 58007 874// 91800 333 10100 20091=
07020,1999-02-06 00:00:00,10,1024.3,-0.8,76,6,0,42.596,,,310,,,,,,,,,,,wg-a,,,,AAXX 06004 07020 32/// /3123 10100 20060 30226 40243 56008 90000=
07020,1999-02-06 06:00:00,9,1022,-0.9,71,4,16000,46.3,,68.524,310,9,9.6,,,,,,,,,wg-a,,,,AAXX 06064 07020 32666 83125 10090 20040 30203 40220 58009 8272/ 90600 333 10096 20090 91037=
07020,1999-02-06 12:00:00,9,1020.5,-0.7,81,6,15000,42.596,,,310,,,,,,,,,,60,wg-a,,,,AAXX 06124 07020 02665 83123 10090 20060 30188 40205 58007 61000 76062 884// 91200 333 ////=
07020,1999-02-06 18:00:00,9,1015.8,-2.1,87,7,15000,35.188,,64.82,290,8.7,9.6,,,,,,,,,wg-a,,,,AAXX 06184 07020 32665 82919 10090 20070 30141 40158 56021 884// 91800 333 10096 20087 91035=
07020,1999-02-07 00:00:00,10,1010.1,-2.8,87,8,0,46.3,,,290,,,,,,,,,,,wg-a,,,,AAXX 07004 07020 32/// /2925 10100 20080 30084 40101 56028 90000=
07020,1999-02-07 06:00:00,8,1009.9,0.4,71,3,15000,46.3,,103.712,10,7.6,10.1,,,,,,,,,wg-a,,,,AAXX 07064 07020 32665 80125 10080 20030 30082 40099 53004 884// 90600 333 10101 20076 91056=
07020,1999-02-07 12:00:00,7,1013.2,1.5,66,1,20000,35.188,,,350,,,,,,,,,,2,wg-a,,,,AAXX 07124 07020 32670 53519 10070 20010 30115 40132 51015 70262 85200 91200=
07020,1999-02-07 18:00:00,6,1014.2,0.7,70,1,40000,46.3,,,320,6.1,7.6,,,,,,,,,wg-a,,,,AAXX 07184 07020 32682 63225 10060 20010 30125 40142 53007 86200 91800 333 10076 20061=
07020,1999-02-08 00:00:00,6,1015.2,0.1,61,-1,0,31.484,,,340,,,,,,,,,,,wg-a,,,,AAXX 08004 07020 32/// /3417 10060 21010 30135 40152 50001 90000=
07020,1999-02-08 06:00:00,5,1011.1,-2.4,81,2,12000,22.224,,,290,4.6,6.5,,0,,,,,,,wg-a,,,,AAXX 08064 07020 12562 82912 10050 20020 30094 40111 56024 60007 8472/ 90600 333 10065 20046=
07020,1999-02-08 12:00:00,4,1002.5,-5.3,93,3,8000,14.816,,,180,,,,5,,,,,,21,wg-a,,,,AAXX 08124 07020 12558 81808 10040 20030 30008 40025 56053 60057 72162 887// 91200=
07020,1999-02-08 18:00:00,5,997.1,-0.2,93,4,12000,25.928,,,90,3.5,4.7,,0,,,,,,,wg-a,,,,AAXX 08184 07020 12662 80914 10050 20040 39954 49971 55002 60007 887// 91800 333 10047 20035=
07020,1999-02-09 00:00:00,5,999.9,1.7,87,3,0,42.596,,,50,,,,,,,,,,,wg-a,,,,AAXX 09004 07020 32/// /0523 10050 20030 39982 49999 52017 90000=
07020,1999-02-09 06:00:00,3,1003.4,2.1,75,-1,12000,50.004,,,40,2.6,5.9,,,,,,,,,wg-a,,,,AAXX 09064 07020 32662 40427 10030 21010 30017 40034 52021 84100 90600 333 10059 20026=
07020,1999-02-09 12:00:00,4,1008.9,2.6,70,-1,24000,38.892,,,30,,,,,,,,,,,wg-a,,,,AAXX 09124 07020 32674 60321 10040 21010 30072 40089 51026 86200 91200=
07020,1999-02-09 18:00:00,5,1011.1,1,60,-2,500,35.188,,,350,2.4,4.9,,,,,,,,,wg-a,,,,AAXX 09184 07020 32600 53519 10050 21020 30094 40111 53010 85100 91800 333 10049 20024=
07020,1999-02-10 00:00:00,5,1011.9,0,70,0,0,35.188,,,350,,,,,,,,,,,wg-a,,,,AAXX 10004 07020 32/// /3519 10050 20000 30102 40119 50000 90000=
07020,1999-02-10 06:00:00,4,1012.6,0.8,65,-2,18000,35.188,,,10,3.8,5.1,,,,,,,,,wg-a,,,,AAXX 10064 07020 32568 70119 10040 21020 30109 40126 52008 872// 90600 333 10051 20038=
07020,1999-02-10 12:00:00,5,1015.2,1,65,-1,500,35.188,,,360,,,,,,,,,,,wg-a,,,,AAXX 10124 07020 32600 63619 10050 21010 30135 40152 51010 86200 91200=
07020,1999-02-10 18:00:00,6,1017.7,1.6,61,-1,500,35.188,,,20,3.9,5.9,,,,,,,,,wg-a,,,,AAXX 10184 07020 32600 60219 10060 21010 30160 40177 53016 86200 91800 333 10059 20039=
07020,1999-02-11 00:00:00,5,1020.2,1,60,-2,0,29.632,,,20,,,,,,,,,,,wg-a,,,,AAXX 11004 07020 32/// /0216 10050 21020 30185 40202 51010 90000=
07020,1999-02-11 06:00:00,5,1021.7,1,56,-3,500,25.928,,,20,4.5,5.6,,,,,,,,,wg-a,,,,AAXX 11064 07020 32600 10214 10050 21030 30199 40217 53010 81200 90600 333 10056 20045=
07020,1999-02-11 12:00:00,6,1023.9,1.1,56,-2,50000,14.816,,,40,,,,,,,,,,,wg-a,,,,AAXX 11124 07020 32684 30408 10060 21020 30222 40239 51011 83101 91200=
07020,1999-02-11 18:00:00,6,1024.7,0.9,61,-1,40000,14.816,,,30,4.4,6.9,,,,,,,,,wg-a,,,,AAXX 11184 07020 32682 60308 10060 21010 30229 40247 53009 84401 91800 333 10069 20044=
07020,1999-02-12 00:00:00,3,1025.6,0.2,70,-2,0,14.816,,,180,,,,,,,,,,,wg-a,,,,AAXX 12004 07020 32/// /1808 10030 21020 30238 40256 53002 90000=
07020,1999-02-12 06:00:00,4,1025.7,0.1,81,1,25000,18.52,,,200,2.2,5.5,,,,,,,,,wg-a,,,,AAXX 12064 07020 32675 72010 10040 20010 30239 40257 52001 877// 90600 333 10055 20022=
07020,1999-02-12 12:00:00,7,1028,0.7,76,3,25000,18.52,,,230,,,,,,,,,,,wg-a,,,,AAXX 12124 07020 32675 82310 10070 20030 30263 40280 50007 887// 91200=
07020,1999-02-12 18:00:00,8,1028.9,1.4,76,4,500,11.112,,,20,4,7.6,,,,,,,,,wg-a,,,,AAXX 12184 07020 32600 70206 10080 20040 30272 40289 53014 8472/ 91800 333 10076 20040=
07020,1999-02-13 00:00:00,6,1030.1,0.3,87,4,0,7.408,,,190,,,,,,,,,,,wg-a,,,,AAXX 13004 07020 32/// /1904 10060 20040 30283 40301 51003 90000=
07020,1999-02-13 06:00:00,5,1031.5,1.1,87,3,24000,14.816,,,130,5.1,7.7,,,,,,,,,wg-a,,,,AAXX 13064 07020 32574 81308 10050 20030 30297 40315 53011 887// 90600 333 10077 20051=
07020,1999-02-13 12:00:00,5,1034.7,1,60,-2,16000,14.816,,,140,,,,,,,,,,,wg-a,,,,AAXX 13124 07020 32766 81408 10050 21020 30329 40347 52010 885// 91200=
07020,1999-02-13 18:00:00,2,1036,1.3,60,-5,20000,18.52,,,140,2.1,7.6,,,,,,,,,wg-a,,,,AAXX 13184 07020 32/70 21410 10020 21050 30342 40360 53013 82050 91800 333 10076 20021=
07020,1999-02-14 00:00:00,1,1036.3,-0.6,69,-4,0,18.52,,,150,,,,,,,,,,,wg-a,,,,AAXX 14004 07020 32/// /1510 10010 21040 30345 40363 58006 90000=
07020,1999-02-14 06:00:00,1,1034.5,-1,80,-2,20000,18.52,,,190,-0.7,2,,,,,,,,,wg-a,,,,AAXX 14064 07020 32/70 01910 10010 21020 30327 40345 58010 80000 90600 333 10020 21007=
07020,1999-02-14 12:00:00,7,1033.3,-0.8,70,2,18000,29.632,,,240,,,,,,,,,,,wg-a,,,,AAXX 14124 07020 32668 72416 10070 20020 30315 40333 58008 87200 91200=
07020,1999-02-14 18:00:00,9,1028.7,-2,93,8,4000,38.892,,,250,0.9,8.6,,0,,,,,,50,wg-a,,,,AAXX 14184 07020 12540 82521 10090 20080 30270 40287 56020 60007 75052 887// 91800 333 10086 20009=
07020,1999-02-15 00:00:00,9,1026.2,-1.4,100,9,0,25.928,,,290,,,,,,,,,,,wg-a,,,,AAXX 15004 07020 32/// /2914 10090 20090 30245 40262 58014 90000=
07020,1999-02-15 06:00:00,8,1024.6,-0.7,100,8,22000,14.816,,,60,8.1,9.2,,,,,,,,,wg-a,,,,AAXX 15064 07020 02572 80608 10080 20080 30229 40246 56007 61000 887// 90600 333 10092 20081 ////=
07020,1999-02-15 12:00:00,9,1025.7,0,76,5,24000,18.52,,,20,,,,,,,,,,,wg-a,,,,AAXX 15124 07020 32674 50210 10090 20050 30240 40257 50000 82101 91200=
07020,1999-02-15 18:00:00,9,1022.5,-1,81,6,20000,22.224,,,270,7.6,9.9,,,,,,,,,wg-a,,,,AAXX 15184 07020 32670 82712 10090 20060 30208 40225 58010 888// 91800 333 10099 20076=
07020,1999-02-16 00:00:00,9,1020.5,-1.1,81,6,0,35.188,,,290,,,,,,,,,,,wg-a,,,,AAXX 16004 07020 32/// /2919 10090 20060 30188 40205 56011 90000=
07020,1999-02-16 06:00:00,10,1017.6,-0.7,87,8,15000,29.632,,61.116,280,8.3,9.6,,,,,,,,,wg-a,,,,AAXX 16064 07020 32665 82816 10100 20080 30159 40176 56007 884// 90600 333 10096 20083 91033=
07020,1999-02-16 12:00:00,9,1020.7,1.3,66,3,18000,31.484,,64.82,10,,,,,,,,,,,wg-a,,,,AAXX 16124 07020 32668 80117 10090 20030 30190 40207 50013 8512/ 91200 333 91035=
07020,1999-02-16 18:00:00,8,1020.7,0.1,71,3,18000,46.3,,,320,8.1,9.6,,,,,,,,,wg-a,,,,AAXX 16184 07020 32668 63225 10080 20030 30190 40207 53001 86500 91800 333 10096 20081=
07020,1999-02-17 00:00:00,8,1019.9,-0.8,81,5,0,42.596,,,300,,,,,,,,,,,wg-a,,,,AAXX 17004 07020 32/// /3023 10080 20050 30182 40199 56008 90000=
07020,1999-02-17 06:00:00,8,1020.5,1.1,76,4,18000,42.596,,,330,7.5,8.6,,,,,,,,,wg-a,,,,AAXX 17064 07020 32/68 33323 10080 20040 30188 40205 53011 83030 90600 333 10086 20075=
07020,1999-02-17 12:00:00,9,1022,0.4,76,5,20000,38.892,,,300,,,,,,,,,,,wg-a,,,,AAXX 17124 07020 32670 43021 10090 20050 30203 40220 50004 83135 91200=
07020,1999-02-17 18:00:00,10,1019.7,-1,87,8,20000,29.632,,,270,7.7,10,,,,,,,,,wg-a,,,,AAXX 17184 07020 32670 72716 10100 20080 30180 40197 58010 874// 91800 333 10100 20077=
07020,1999-02-18 00:00:00,10,1018.4,-0,93,9,0,31.484,,,290,,,,,,,,,,,wg-a,,,,AAXX 18004 07020 32/// /2917 10100 20090 30167 40184 55000 90000=
07020,1999-02-18 06:00:00,10,1020.8,1.4,87,8,18000,35.188,,,300,9.4,9.9,,,,,,,,,wg-a,,,,AAXX 18064 07020 32/68 53019 10100 20080 30191 40208 53014 85030 90600 333 10099 20094=
07020,1999-02-18 12:00:00,10,1023.1,0.8,93,9,18000,22.224,,,280,,,,,,,,,,,wg-a,,,,AAXX 18124 07020 32668 62812 10100 20090 30214 40231 50008 82570 91200=
07020,1999-02-18 18:00:00,10,1023.1,0.3,93,9,18000,25.928,,,280,9.5,10.6,,,,,,,,50,wg-a,,,,AAXX 18184 07020 02568 82814 10100 20090 30214 40231 53003 61000 75022 887// 91800 333 10106 20095 ////=
07020,1999-02-19 00:00:00,10,1021.2,-0.9,93,9,0,38.892,,,260,,,,,,,,,,,wg-a,,,,AAXX 19004 07020 32/// /2621 10100 20090 30195 40212 56009 90000=
07020,1999-02-19 06:00:00,10,1018.4,-1,100,10,10000,38.892,,64.82,260,9.5,10,,0,,,,,,,wg-a,,,,AAXX 19064 07020 12660 82621 10100 20100 30167 40184 56010 60007 887// 90600 333 10100 20095 91035=
07020,1999-02-19 12:00:00,11,1018.4,-0.4,94,10,500,46.3,,64.82,260,,,,0,,,,,,61,wg-a,,,,AAXX 19124 07020 12400 82625 10110 20100 30167 40184 58004 60007 76165 887// 91200 333 91035=
07020,1999-02-19 18:00:00,10,1018.4,0.3,100,10,500,38.892,,,260,9.9,10.7,,1,,,,,,61,wg-a,,,,AAXX 19184 07020 12400 82621 10100 20100 30167 40184 53003 60017 76162 887// 91800 333 10107 20099=
07020,1999-02-20 00:00:00,10,1017.5,-0.6,100,10,0,31.484,,,260,,,,,,,,,,,wg-a,,,,AAXX 20004 07020 32/// /2617 10100 20100 30158 40175 58006 90000=
07020,1999-02-20 06:00:00,9,1017.1,1.1,100,9,1100,18.52,,,340,9.3,10.3,,1,,,,,,50,wg-a,,,,AAXX 20064 07020 12411 83410 10090 20090 30154 40171 53011 60017 750// 887// 90600 333 10103 20093=
07020,1999-02-20 12:00:00,9,1020.9,1.2,71,4,18000,25.928,,,330,,,,,,,,,,,wg-a,,,,AAXX 20124 07020 32668 63314 10090 20040 30192 40209 52012 82101 91200=
07020,1999-02-20 18:00:00,9,1020.5,0.1,76,5,12000,22.224,,,280,8.3,9.4,,,,,,,,,wg-a,,,,AAXX 20184 07020 32662 82812 10090 20050 30188 40205 53001 884// 91800 333 10094 20083=
07020,1999-02-21 00:00:00,9,1019,-1,87,7,0,29.632,,,270,,,,,,,,,,,wg-a,,,,AAXX 21004 07020 32/// /2716 10090 20070 30173 40190 58010 90000=
07020,1999-02-21 06:00:00,10,1014.5,-2.2,93,9,12000,38.892,,,260,8.1,9.6,,,,,,,,,wg-a,,,,AAXX 21064 07020 32662 82621 10100 20090 30128 40145 58022 884// 90600 333 10096 20081=
07020,1999-02-21 12:00:00,10,1011.7,-1.4,93,9,10000,46.3,,,270,,,,,,,,,,21,wg-a,,,,AAXX 21124 07020 02560 82725 10100 20090 30100 40117 58014 61000 72162 887// 91200 333 ////=
07020,1999-02-21 18:00:00,9,1008.9,-0.4,87,7,8000,57.412,,83.34,290,8.7,10.5,,1,,,,,,63,wg-a,,,,AAXX 21184 07020 12558 82931 10090 20070 30072 40089 55004 60017 76362 887// 91800 333 10105 20087 91045=
07020,1999-02-22 00:00:00,9,1009.1,0.1,71,4,0,72.228,,,300,,,,,,,,,,,wg-a,,,,AAXX 22004 07020 02/// /3039 10090 20040 30074 40091 53001 61000 90000 333 ////=
07020,1999-02-22 06:00:00,7,1009.6,0.3,70,2,18000,64.82,,103.712,310,6.1,9.8,,,,,,,,,wg-a,,,,AAXX 22064 07020 02568 63135 10070 20020 30079 40096 50003 61000 86100 90600 333 10098 20061 //// 91056=
07020,1999-02-22 12:00:00,8,1013.8,2,71,3,18000,68.524,,100.008,320,,,,,,,,,,,wg-a,,,,AAXX 22124 07020 32568 63237 10080 20030 30121 40138 51020 86100 91200 333 91054=
07020,1999-02-22 18:00:00,8,1016.6,1.7,66,2,18000,53.708,,87.044,320,7.3,8.7,,,,,,,,,wg-a,,,,AAXX 22184 07020 32568 63229 10080 20020 30149 40166 51017 86200 91800 333 10087 20073 91047=
07020,1999-02-23 00:00:00,7,1018.2,0.5,76,3,0,53.708,,,330,,,,,,,,,,,wg-a,,,,AAXX 23004 07020 32/// /3329 10070 20030 30165 40182 53005 90000=
07020,1999-02-23 06:00:00,7,1019.1,0.9,70,2,16000,42.596,,,340,6.4,8,,,,,,,,,wg-a,,,,AAXX 23064 07020 32566 53423 10070 20020 30174 40191 51009 85200 90600 333 10080 20064=
07020,1999-02-23 12:00:00,8,1020.6,0.2,71,3,20000,29.632,,,300,,,,,,,,,,,wg-a,,,,AAXX 23124 07020 32670 83016 10080 20030 30189 40206 50002 884// 91200=
07020,1999-02-23 18:00:00,5,1016.9,-1.9,87,3,15000,11.112,,,230,5.4,8.2,,0,,,,,,2,wg-a,,,,AAXX 23184 07020 12665 82306 10050 20030 30152 40169 58019 60007 70262 8672/ 91800 333 10082 20054=
07020,1999-02-24 00:00:00,8,1008.4,-4.6,100,8,0,29.632,,,200,,,,,,,,,,,wg-a,,,,AAXX 24004 07020 32/// /2016 10080 20080 30067 40084 57046 90000=
07020,1999-02-24 06:00:00,10,1001,-2,93,9,8000,22.224,,,240,5.3,9.7,,2,,,,,,,wg-a,,,,AAXX 24064 07020 12558 82412 10100 20090 39993 40010 56020 60027 887// 90600 333 10097 20053=
07020,1999-02-24 12:00:00,11,1004.6,2.7,100,11,12000,0,,,0,,,,,,,,,,,wg-a,,,,AAXX 24124 07020 32562 60000 10110 20110 30029 40046 51027 85250 91200=
07020,1999-02-24 18:00:00,7,1012.9,3.9,87,5,15000,53.708,,,80,7.4,11.7,,,,,,,,,wg-a,,,,AAXX 24184 07020 32665 80829 10070 20050 30112 40129 51039 885// 91800 333 10117 20074=
07020,1999-02-25 00:00:00,7,1018.6,2,81,4,0,38.892,,,80,,,,,,,,,,,wg-a,,,,AAXX 25004 07020 32/// /0821 10070 20040 30169 40186 51020 90000=
07020,1999-02-25 06:00:00,7,1020.8,0.5,70,2,16000,14.816,,,110,6.5,7.4,,,,,,,,,wg-a,,,,AAXX 25064 07020 32566 81108 10070 20020 30191 40208 52005 882// 90600 333 10074 20065=
07020,1999-02-25 12:00:00,8,1022.2,0,76,4,14000,11.112,,,270,,,,,,,,,,,wg-a,,,,AAXX 25124 07020 32864 82706 10080 20040 30205 40222 50000 8802/ 91200=
07020,1999-02-25 18:00:00,8,1021.2,-0.1,87,6,18000,22.224,,,240,6,8.1,,,,,,,,,wg-a,,,,AAXX 25184 07020 32868 82412 10080 20060 30195 40212 55001 8802/ 91800 333 10081 20060=
07020,1999-02-26 00:00:00,9,1019.6,-1.1,87,7,0,35.188,,,240,,,,,,,,,,,wg-a,,,,AAXX 26004 07020 32/// /2419 10090 20070 30179 40196 56011 90000=
07020,1999-02-26 06:00:00,8,1017.3,-0.8,93,7,14000,38.892,,,220,7.9,8.8,,,,,,,,,wg-a,,,,AAXX 26064 07020 32564 82221 10080 20070 30156 40173 56008 882// 90600 333 10088 20079=
07020,1999-02-26 12:00:00,8,1015.5,-1.2,93,7,10000,38.892,,,220,,,,,,,,,,,wg-a,,,,AAXX 26124 07020 32560 82221 10080 20070 30138 40155 56012 887// 91200=
07020,1999-02-26 18:00:00,9,1010.9,-1.6,93,8,6000,35.188,,,210,8.2,9.3,,,,,,,,,wg-a,,,,AAXX 26184 07020 32456 82119 10090 20080 30092 40109 56016 887// 91800 333 10093 20082=
07020,1999-02-27 00:00:00,9,1008.2,-1.1,93,8,0,38.892,,,220,,,,,,,,,,,wg-a,,,,AAXX 27004 07020 32/// /2221 10090 20080 30065 40082 56011 90000=
07020,1999-02-27 06:00:00,8,1008.5,1,100,8,20000,18.52,,,290,7.8,9.5,,5,,,,,,,wg-a,,,,AAXX 27064 07020 12670 72910 10080 20080 30068 40085 53010 60057 874// 90600 333 10095 20078=
07020,1999-02-27 12:00:00,9,1013.1,2.4,71,4,0,38.892,,,290,,,,0,,,,,,,wg-a,,,,AAXX 27124 07020 12/// /2921 10090 20040 30114 40131 53024 60007 91200=
07020,1999-02-27 18:00:00,9,1014.9,1.4,81,6,500,42.596,,64.82,260,8.1,10.7,,,,,,,,,wg-a,,,,AAXX 27184 07020 32600 42623 10090 20060 30132 40149 53014 84200 91800 333 10107 20081 91035=
07020,1999-02-28 00:00:00,9,1018.7,1.6,81,6,0,29.632,,,270,,,,,,,,,,,wg-a,,,,AAXX 28004 07020 32/// /2716 10090 20060 30170 40187 52016 90000=
07020,1999-02-28 06:00:00,9,1021.2,1.4,81,6,18000,25.928,,53.708,280,8.1,9.3,,,,,,,,,wg-a,,,,AAXX 28064 07020 32668 32814 10090 20060 30195 40212 52014 82205 90600 333 10093 20081 91029=
07020,1999-02-28 12:00:00,10,1022.1,-0.1,93,9,0,35.188,,,220,,,,,,,,,,,wg-a,,,,AAXX 28124 07020 32/// /2219 10100 20090 30204 40221 58001 91200=
07020,1999-02-28 18:00:00,10,1019.5,-0.5,87,8,0,53.708,,,240,8.5,11,,,,,,,,,wg-a,,,,AAXX 28184 07020 32/// /2429 10100 20080 30178 40195 56005 91800 333 10110 20085=
07020,1999-03-01 00:00:00,10,1017.5,-1.2,93,9,0,61.116,,,240,,,,0,,,,,,,wg-a,,,,AAXX 01004 07020 12/// /2433 10100 20090 30158 40175 57012 60007 90000=
07020,1999-03-01 06:00:00,11,1014.7,-0.7,94,10,15000,64.82,,87.044,250,9.2,10.6,,1,,,,,,,wg-a,,,,AAXX 01064 07020 12665 82535 10110 20100 30130 40147 55007 60017 884// 90600 333 10106 20092 91047=
07020,1999-03-01 12:00:00,11,1016.8,1.1,94,10,6000,50.004,,,260,,,,,,,,,,2,wg-a,,,,AAXX 01124 07020 02556 82627 10110 20100 30151 40168 53011 61000 70262 887// 91200 333 ////=
07020,1999-03-01 18:00:00,10,1017.1,0.8,100,10,1500,50.004,,79.636,260,10.2,11.4,,,,,,,,51,wg-a,,,,AAXX 01184 07020 02415 82627 10100 20100 30154 40171 53008 61000 75152 887// 91800 333 10114 20102 //// 91043=
07020,1999-03-02 00:00:00,10,1016.7,-0.9,100,10,0,42.596,,,260,,,,,,,,,,,wg-a,,,,AAXX 02004 07020 32/// /2623 10100 20100 30150 40167 58009 90000=
07020,1999-03-02 06:00:00,10,1014.2,-1.2,100,10,500,50.004,,,250,10.2,10.5,,0,,,,,,,wg-a,,,,AAXX 02064 07020 12400 82527 10100 20100 30125 40142 56012 60007 887// 90600 333 10105 20102=
07020,1999-03-02 12:00:00,11,1010.6,-2,100,11,6000,46.3,,,230,,,,,,,,,,2,wg-a,,,,AAXX 02124 07020 02556 82325 10110 20110 30089 40106 58020 61000 70252 887// 91200 333 ////=
07020,1999-03-02 18:00:00,10,1001.4,-4.4,100,10,500,57.412,,79.636,220,10.4,12.9,,2,,,,,,61,wg-a,,,,AAXX 02184 07020 12400 82231 10100 20100 39997 40014 56044 60027 76122 887// 91800 333 10129 20104 91043=
07020,1999-03-03 00:00:00,10,998.9,-2.6,76,6,0,53.708,,,250,,,,,,,,,,,wg-a,,,,AAXX 03004 07020 02/// /2529 10100 20060 39972 49989 58026 61000 90000 333 ////=
07020,1999-03-03 06:00:00,9,993.9,-2.3,76,5,14000,61.116,,83.34,260,7.9,10.4,,0,,,,,,,wg-a,,,,AAXX 03064 07020 12564 52633 10090 20050 39922 49939 57023 60007 85200 90600 333 10104 20079 91045=
07020,1999-03-03 12:00:00,9,990.9,-1.8,76,5,10000,53.708,,100.008,230,,,,0,,,,,,25,wg-a,,,,AAXX 03124 07020 12660 72329 10090 20050 39892 49909 58018 60007 72522 872// 91200 333 91054=
07020,1999-03-03 18:00:00,9,985.4,-2.3,71,4,15000,46.3,,83.34,230,7.1,10.1,,,,,,,,25,wg-a,,,,AAXX 03184 07020 02665 82325 10090 20040 39837 49854 56023 61000 72582 882// 91800 333 10101 20071 //// 91045=
07020,1999-03-04 00:00:00,8,984.3,-0.9,87,6,0,35.188,,,260,,,,1,,,,,,,wg-a,,,,AAXX 04004 07020 12/// /2619 10080 20060 39826 49843 58009 60017 90000=
07020,1999-03-04 06:00:00,8,984.9,0.6,76,4,20000,35.188,,57.412,290,6.5,8.8,,,,,,,,,wg-a,,,,AAXX 04064 07020 32670 52919 10080 20040 39832 49849 53006 85201 90600 333 10088 20065 91031=
07020,1999-03-04 12:00:00,7,987.1,1.4,87,5,25000,25.928,,,350,,,,1,,,,,,25,wg-a,,,,AAXX 04124 07020 12575 83514 10070 20050 39854 49871 52014 60017 72582 887// 91200=
07020,1999-03-04 18:00:00,8,990.7,2.1,71,3,35000,38.892,,61.116,330,5.8,7.9,,,,,,,,2,wg-a,,,,AAXX 04184 07020 32581 63321 10080 20030 39890 49907 51021 70286 85105 91800 333 10079 20058 91033=
07020,1999-03-05 00:00:00,7,992.6,0.8,76,3,0,38.892,,,350,,,,,,,,,,,wg-a,,,,AAXX 05004 07020 32/// /3521 10070 20030 39909 49926 52008 90000=
07020,1999-03-05 06:00:00,5,995.3,1.8,87,3,18000,46.3,,,360,5.2,7.7,,1,,,,,,80,wg-a,,,,AAXX 05064 07020 12568 83625 10050 20030 39936 49953 53018 60017 780// 887// 90600 333 10077 20052=
07020,1999-03-05 12:00:00,7,998.6,1.3,66,1,500,31.484,,,340,,,,,,,,,,2,wg-a,,,,AAXX 05124 07020 32500 73417 10070 20010 39969 49986 51013 70286 85205 91200=
07020,1999-03-05 18:00:00,7,999.7,0.6,57,-1,500,31.484,,,340,5,7.5,,,,,,,,,wg-a,,,,AAXX 05184 07020 32500 73417 10070 21010 39980 49997 53006 872// 91800 333 10075 20050=
07020,1999-03-06 00:00:00,6,1001.3,0.7,70,1,0,29.632,,,360,,,,,,,,,,,wg-a,,,,AAXX 06004 07020 32/// /3616 10060 20010 39996 40013 51007 90000=
07020,1999-03-06 06:00:00,5,1002.1,0.7,65,-1,500,46.3,,75.932,340,5.1,7,,,,,,,,,wg-a,,,,AAXX 06064 07020 32500 63425 10050 21010 30004 40021 53007 86200 90600 333 10070 20051 91041=
07020,1999-03-06 12:00:00,7,1003.4,0.6,70,2,25000,46.3,,,300,,,,,,,,,,2,wg-a,,,,AAXX 06124 07020 32575 63025 10070 20020 30017 40034 53006 70287 86200 91200=
07020,1999-03-06 18:00:00,7,1002.7,-0.1,61,0,500,35.188,,,320,4.4,7.5,,,,,,,,2,wg-a,,,,AAXX 06184 07020 32600 53219 10070 20000 30010 40027 55001 70287 84105 91800 333 10075 20044=
07020,1999-03-07 00:00:00,6,1003.4,-0.2,87,4,0,35.188,,,320,,,,1,,,,,,,wg-a,,,,AAXX 07004 07020 12/// /3219 10060 20040 30017 40034 58002 60017 90000=
07020,1999-03-07 06:00:00,6,1003.7,0.3,81,3,25000,35.188,,,300,5.8,7.3,,,,,,,,,wg-a,,,,AAXX 07064 07020 32575 63019 10060 20030 30020 40037 53003 86200 90600 333 10073 20058=
07020,1999-03-07 12:00:00,8,1004.9,0.7,71,3,500,31.484,,,290,,,,,,,,,,,wg-a,,,,AAXX 07124 07020 32500 62917 10080 20030 30032 40049 51007 81905 91200=
07020,1999-03-07 18:00:00,8,1004.6,-0.1,61,1,500,29.632,,50.004,270,5.8,8.8,,,,,,,,,wg-a,,,,AAXX 07184 07020 32600 22716 10080 20010 30029 40046 56001 82200 91800 333 10088 20058 91027=
07020,1999-03-08 00:00:00,4,1003.7,-1,75,0,0,14.816,,,200,,,,,,,,,,,wg-a,,,,AAXX 08004 07020 32/// /2008 10040 20000 30020 40037 58010 90000=
07020,1999-03-08 06:00:00,6,998.8,-3.1,87,4,18000,29.632,,,120,3.6,7.5,,,,,,,,,wg-a,,,,AAXX 08064 07020 32568 61216 10060 20040 39971 49988 58031 86200 90600 333 10075 20036=
07020,1999-03-08 12:00:00,6,995.7,-1.4,87,4,18000,38.892,,53.708,110,,,,1,,,,,,60,wg-a,,,,AAXX 08124 07020 12568 81121 10060 20040 39940 49957 56014 60017 76066 8372/ 91200 333 91029=
07020,1999-03-08 18:00:00,7,996.5,1.6,81,4,24000,38.892,,,60,4.5,7.1,,,,,,,,2,wg-a,,,,AAXX 08184 07020 32674 80621 10070 20040 39948 49965 53016 70262 882// 91800 333 10071 20045=
07020,1999-03-09 00:00:00,7,1000.5,1.5,81,4,0,31.484,,,50,,,,,,,,,,,wg-a,,,,AAXX 09004 07020 32/// /0517 10070 20040 39988 40005 51015 90000=
07020,1999-03-09 06:00:00,6,1002.2,0.6,81,3,18000,22.224,,,70,6.2,7.3,,,,,,,,,wg-a,,,,AAXX 09064 07020 32668 30712 10060 20030 30005 40022 51006 81220 90600 333 10073 20062=
07020,1999-03-09 12:00:00,9,1005.6,1.5,61,2,500,11.112,,,90,,,,,,,,,,,wg-a,,,,AAXX 09124 07020 32600 70906 10090 20020 30039 40056 51015 83218 91200=
07020,1999-03-09 18:00:00,7,1007.8,1.4,81,4,18000,14.816,,,60,5.9,10.7,,,,,,,,,wg-a,,,,AAXX 09184 07020 32568 70608 10070 20040 30061 40078 53014 82230 91800 333 10107 20059=
07020,1999-03-10 00:00:00,7,1010.3,1.2,76,3,0,14.816,,,40,,,,,,,,,,,wg-a,,,,AAXX 10004 07020 32/// /0408 10070 20030 30086 40103 51012 90000=
07020,1999-03-10 12:00:00,8,1013.1,0.6,71,3,20000,25.928,,,80,,,,,,,,,,,wg-a,,,,AAXX 10124 07020 32670 30814 10080 20030 30114 40131 53006 82130 91200=
07020,1999-03-10 18:00:00,7,1013,0.3,76,3,16000,35.188,,,100,5.9,8.5,,,,,,,,,wg-a,,,,AAXX 10184 07020 32666 61019 10070 20030 30113 40130 53003 83205 91800 333 10085 20059=
07020,1999-03-11 00:00:00,7,1013.1,-0.1,81,4,0,35.188,,,110,,,,,,,,,,,wg-a,,,,AAXX 11004 07020 32/// /1119 10070 20040 30114 40131 58001 90000=
07020,1999-03-11 06:00:00,7,1010.6,-1.3,81,4,10000,35.188,,,120,6.8,7.2,,,,,,,,,wg-a,,,,AAXX 11064 07020 32560 71219 10070 20040 30089 40106 56013 8267/ 90600 333 10072 20068=
07020,1999-03-11 12:00:00,10,1009.7,-0.9,76,6,8000,25.928,,,100,,,,,,,,,,,wg-a,,,,AAXX 11124 07020 32558 71014 10100 20060 30080 40097 58009 8267/ 91200=
07020,1999-03-11 18:00:00,9,1007.6,-0.8,93,8,8000,18.52,,,90,7,10.8,,,,,,,,,wg-a,,,,AAXX 11184 07020 32558 60910 10090 20080 30059 40076 56008 82675 91800 333 10108 20070=
07020,1999-03-12 00:00:00,11,1007.1,-0.1,82,8,0,0,,,0,,,,,,,,,,,wg-a,,,,AAXX 12004 07020 32/// /0000 10110 20080 30054 40071 58001 90000=
07020,1999-03-12 06:00:00,9,1006.3,-0.2,93,8,8000,3.704,,,170,7.9,12.1,,,,,,,,,wg-a,,,,AAXX 12064 07020 32558 41702 10090 20080 30046 40063 55002 82630 90600 333 10121 20079=
07020,1999-03-12 12:00:00,11,1007.7,-0.1,94,10,4000,11.112,,,110,,,,0,,,,,,10,wg-a,,,,AAXX 12124 07020 12440 81106 10110 20100 30060 40077 58001 60007 71062 8472/ 91200=
07020,1999-03-12 18:00:00,13,1006.2,-0.6,82,10,14000,25.928,,,170,7.9,13.5,,0,,,,,,,wg-a,,,,AAXX 12184 07020 12664 71714 10130 20100 30045 40062 56006 60007 8455/ 91800 333 10135 20079=
07020,1999-03-13 00:00:00,11,1007.9,0.8,87,9,0,38.892,,,200,,,,,,,,,,,wg-a,,,,AAXX 13004 07020 32/// /2021 10110 20090 30062 40079 53008 90000=
07020,1999-03-13 06:00:00,9,1012.6,2.9,87,7,16000,22.224,,,290,8.9,13.3,,,,,,,,,wg-a,,,,AAXX 13064 07020 32/66 22912 10090 20070 30109 40126 53029 82030 90600 333 10133 20089=
07020,1999-03-13 12:00:00,11,1017.3,1.9,82,8,16000,14.816,,,220,,,,,,,,,,,wg-a,,,,AAXX 13124 07020 32666 62208 10110 20080 30156 40173 51019 82170 91200=
07020,1999-03-13 18:00:00,10,1019.3,1.5,87,8,22000,14.816,,,210,8.9,13,,,,,,,,,wg-a,,,,AAXX 13184 07020 32672 32108 10100 20080 30176 40193 53015 81155 91800 333 10130 20089=
07020,1999-03-14 00:00:00,7,1022.2,1.4,87,5,0,11.112,,,210,,,,,,,,,,,wg-a,,,,AAXX 14004 07020 32/// /2106 10070 20050 30205 40222 53014 90000=
07020,1999-03-14 06:00:00,7,1023.8,1,100,7,20000,3.704,,,200,6.2,9.5,,0,,,,,,,wg-a,,,,AAXX 14064 07020 12/70 12002 10070 20070 30221 40238 53010 60007 80001 90600 333 10095 20062=
07020,1999-03-14 12:00:00,12,1027.2,1.4,71,7,40000,11.112,,,40,,,,,,,,,,,wg-a,,,,AAXX 14124 07020 32682 40406 10120 20070 30255 40272 51014 81105 91200=
07020,1999-03-14 18:00:00,9,1027.5,0.5,81,6,35000,11.112,,,70,6.7,13.1,,,,,,,,,wg-a,,,,AAXX 14184 07020 32/81 30706 10090 20060 30258 40275 53005 80005 91800 333 10131 20067=
07020,1999-03-15 00:00:00,5,1029.7,1,87,3,0,7.408,,,130,,,,,,,,,,,wg-a,,,,AAXX 15004 07020 32/// /1304 10050 20030 30279 40297 51010 90000=
07020,1999-03-15 06:00:00,4,1029.3,0.1,100,4,20000,11.112,,,120,4.1,9.3,,0,,,,,,,wg-a,,,,AAXX 15064 07020 12/70 21206 10040 20040 30275 40293 53001 60007 80005 90600 333 10093 20041=
07020,1999-03-15 12:00:00,10,1030.3,0.3,71,5,50000,14.816,,,70,,,,,,,,,,,wg-a,,,,AAXX 15124 07020 32/84 30708 10100 20050 30286 40303 50003 80005 91200=
07020,1999-03-15 18:00:00,9,1029.8,-0,81,6,500,14.816,,,100,4.1,12.1,,,,,,,,,wg-a,,,,AAXX 15184 07020 32/00 51008 10090 20060 30281 40298 54000 80005 91800 333 10121 20041=
07020,1999-03-16 00:00:00,6,1031,0.5,93,5,0,3.704,,,130,,,,,,,,,,,wg-a,,,,AAXX 16004 07020 32/// /1302 10060 20050 30292 40310 51005 90000=
07020,1999-03-16 06:00:00,5,1030.8,0.4,93,4,20000,3.704,,,80,4.7,8.8,,,,,,,,,wg-a,,,,AAXX 16064 07020 32/70 30802 10050 20040 30290 40308 53004 80008 90600 333 10088 20047=
07020,1999-03-16 12:00:00,12,1031.5,0.2,71,7,500,11.112,,,60,,,,,,,,,,,wg-a,,,,AAXX 16124 07020 32/00 30606 10120 20070 30298 40315 50002 81048 91200=
07020,1999-03-16 18:00:00,10,1030.4,0.1,76,6,500,7.408,,,50,4.6,12.5,,,,,,,,,wg-a,,,,AAXX 16184 07020 32/00 20504 10100 20060 30287 40304 53001 80008 91800 333 10125 20046=
07020,1999-03-17 00:00:00,7,1030.7,0.3,87,5,0,0,,,0,,,,,,,,,,,wg-a,,,,AAXX 17004 07020 32/// /0000 10070 20050 30289 40307 50003 90000=
07020,1999-03-17 06:00:00,7,1029.3,-0.2,87,5,16000,3.704,,,90,6.1,10.1,,,,,,,,,wg-a,,,,AAXX 17064 07020 32/66 10902 10070 20050 30275 40293 55002 81030 90600 333 10101 20061=
07020,1999-03-17 12:00:00,9,1029.5,-0.2,93,8,800,7.408,,,30,,,,,,,,,,44,wg-a,,,,AAXX 17124 07020 32/08 00304 10090 20080 30278 40295 58002 74440 80000 91200=
07020,1999-03-17 18:00:00,8,1027.7,-0.7,93,7,600,3.704,,,60,6.2,9.8,,,,,,,,45,wg-a,,,,AAXX 17184 07020 32/06 90602 10080 20070 30260 40277 56007 74544 89/// 91800 333 10098 20062=
07020,1999-03-18 00:00:00,7,1026.9,-0.9,100,7,0,7.408,,,230,,,,,,,,,,,wg-a,,,,AAXX 18004 07020 32/// /2304 10070 20070 30252 40269 58009 90000=
07020,1999-03-18 06:00:00,8,1024.7,-0.7,100,8,4000,22.224,,,210,6.2,8.6,,0,,,,,,,wg-a,,,,AAXX 18064 07020 12440 32112 10080 20080 30230 40247 56007 60007 83600 90600 333 10086 20062=
07020,1999-03-18 09:00:00,10.1,1025.2,0.5,98,9.8,8000,11.112,,,260,,,,,,,,,,28,og-post,,,,AAXX 18094 07020 31458 42606 10101 20098 30235 40252 52005 72844 82608 333 92426=
07020,1999-03-18 12:00:00,11,1025.6,0.4,82,8,18000,29.632,,,340,,,,,,,,,,2,wg-a,,,,AAXX 18124 07020 32568 43416 10110 20080 30239 40256 51004 70242 82608 91200=
07020,1999-03-18 18:00:00,10,1025.5,0.9,82,7,22000,25.928,,,360,8,11.8,,,,,,,,,wg-a,,,,AAXX 18184 07020 32/72 53614 10100 20070 30238 40255 53009 80008 91800 333 10118 20080=
07020,1999-03-19 00:00:00,9,1027.9,1.3,66,3,0,38.892,,,30,,,,,,,,,,,wg-a,,,,AAXX 19004 07020 32/// /0321 10090 20030 30262 40279 51013 90000=
07020,1999-03-19 06:00:00,8,1028.6,0.7,81,5,18000,29.632,,,10,7.9,10.5,,,,,,,,,wg-a,,,,AAXX 19064 07020 32668 40116 10080 20050 30269 40286 53007 81105 90600 333 10105 20079=
07020,1999-03-19 12:00:00,10,1029.5,0.2,66,4,500,22.224,,,10,,,,,,,,,,,wg-a,,,,AAXX 19124 07020 32600 40112 10100 20040 30278 40295 53002 81105 91200=
07020,1999-03-19 18:00:00,10,1029.4,0.3,76,6,24000,18.52,,,320,7.9,10.9,,,,,,,,,wg-a,,,,AAXX 19184 07020 32774 73210 10100 20060 30277 40294 53003 87500 91800 333 10109 20079=
07020,1999-03-20 00:00:00,9,1029.5,-0.1,87,7,0,11.112,,,60,,,,,,,,,,,wg-a,,,,AAXX 20004 07020 32/// /0606 10090 20070 30278 40295 58001 90000=
07020,1999-03-20 06:00:00,8,1029.4,0.1,81,5,16000,11.112,,,20,8,9.6,,,,,,,,,wg-a,,,,AAXX 20064 07020 32866 70206 10080 20050 30277 40294 53001 87050 90600 333 10096 20080=
07020,1999-03-20 12:00:00,11,1029.1,-0.5,66,5,18000,14.816,,,310,,,,,,,,,,,wg-a,,,,AAXX 20124 07020 32/68 03108 10110 20050 30274 40291 58005 80000 91200=
07020,1999-03-20 18:00:00,9,1025.9,-1.2,81,6,18000,18.52,,,280,8.2,11.1,,,,,,,,,wg-a,,,,AAXX 20184 07020 32668 52810 10090 20060 30242 40259 56012 82250 91800 333 10111 20082=
07020,1999-03-21 00:00:00,9,1023.4,-1.6,66,3,0,31.484,,,290,,,,,,,,,,,wg-a,,,,AAXX 21004 07020 32/// /2917 10090 20030 30217 40234 58016 90000=
07020,1999-03-21 06:00:00,9,1015.9,-4.1,81,6,18000,46.3,,64.82,260,8.2,9.4,,,,,,,,,wg-a,,,,AAXX 21064 07020 32568 82625 10090 20060 30142 40159 58041 8657/ 90600 333 10094 20082 91035=
07020,1999-03-21 12:00:00,11,1008.9,-3.2,82,8,10000,42.596,,83.34,280,,,,2,,,,,,21,wg-a,,,,AAXX 21124 07020 12560 62823 10110 20080 30072 40089 56032 60027 72162 81730 91200 333 91045=
07020,1999-03-21 18:00:00,10,1008.7,0.2,71,5,22000,46.3,,75.932,300,8.7,11.4,,,,,,,,,wg-a,,,,AAXX 21184 07020 32772 63025 10100 20050 30070 40087 53002 86500 91800 333 10114 20087 91041=
07020,1999-03-22 00:00:00,9,1012.7,2,71,4,0,42.596,,,330,,,,,,,,,,,wg-a,,,,AAXX 22004 07020 32/// /3323 10090 20040 30110 40127 51020 90000=
07020,1999-03-22 06:00:00,9,1015,1.6,76,5,20000,42.596,,,350,8.5,10.2,,,,,,,,,wg-a,,,,AAXX 22064 07020 32670 53523 10090 20050 30133 40150 51016 8/500 90600 333 10102 20085=
07020,1999-03-22 12:00:00,9,1018.7,1,76,5,22000,31.484,,,350,,,,,,,,,,,wg-a,,,,AAXX 22124 07020 32672 63517 10090 20050 30170 40187 51010 84231 91200=
07020,1999-03-22 18:00:00,9,1018.5,0.1,71,4,20000,25.928,,,300,8.6,10.5,,,,,,,,,wg-a,,,,AAXX 22184 07020 32670 83014 10090 20040 30168 40185 50001 82131 91800 333 10105 20086=
07020,1999-03-23 00:00:00,10,1017.2,-1,82,7,0,29.632,,,270,,,,,,,,,,,wg-a,,,,AAXX 23004 07020 32/// /2716 10100 20070 30155 40172 58010 90000=
07020,1999-03-23 06:00:00,10,1015.5,-0.6,87,8,10000,29.632,,53.708,280,8.9,9.7,,,,,,,,,wg-a,,,,AAXX 23064 07020 32660 82816 10100 20080 30138 40155 56006 887// 90600 333 10097 20089 91029=
07020,1999-03-23 12:00:00,11,1016.7,0.3,82,8,12000,25.928,,,270,,,,,,,,,,,wg-a,,,,AAXX 23124 07020 32662 82714 10110 20080 30150 40167 51003 83730 91200=
07020,1999-03-23 18:00:00,10,1015.7,-0.2,82,7,18000,29.632,,,260,9.6,10.9,,,,,,,,,wg-a,,,,AAXX 23184 07020 32668 82616 10100 20070 30140 40157 55002 88500 91800 333 10109 20096=
07020,1999-03-24 00:00:00,9,1014.8,-0.8,87,7,0,25.928,,,240,,,,,,,,,,,wg-a,,,,AAXX 24004 07020 32/// /2414 10090 20070 30131 40148 58008 90000=
07020,1999-03-24 06:00:00,9,1013,-0.4,81,6,16000,22.224,,,220,9.1,9.8,,,,,,,,,wg-a,,,,AAXX 24064 07020 32666 82212 10090 20060 30113 40130 56004 88500 90600 333 10098 20091=
07020,1999-03-24 12:00:00,11,1010.5,-1.3,71,6,22000,29.632,,,210,,,,,,,,,,,wg-a,,,,AAXX 24124 07020 32672 82116 10110 20060 30088 40105 58013 81230 91200=
07020,1999-03-24 18:00:00,9,1005.7,-2.1,76,5,12000,0,,,0,8.6,11.5,,,,,,,,,wg-a,,,,AAXX 24184 07020 32562 70000 10090 20050 30040 40057 56021 82720 91800 333 10115 20086=
07020,1999-03-25 00:00:00,6,1002,-2.3,87,4,0,18.52,,,120,,,,,,,,,,,wg-a,,,,AAXX 25004 07020 32/// /1210 10060 20040 30003 40020 58023 90000=
07020,1999-03-25 06:00:00,8,995.8,-2.5,93,7,2000,18.52,,,100,6,8.7,,,,,,,,,wg-a,,,,AAXX 25064 07020 32420 71010 10080 20070 39941 49958 56025 83620 90600 333 10087 20060=
07020,1999-03-25 12:00:00,11,994.8,0.3,82,8,10000,35.188,,,210,,,,,,,,,,,wg-a,,,,AAXX 25124 07020 32560 72119 10110 20080 39931 49948 53003 83620 91200=
07020,1999-03-25 18:00:00,10,996.8,1.3,82,7,8000,22.224,,,280,7.6,11.3,,,,,,,,,wg-a,,,,AAXX 25184 07020 32558 82812 10100 20070 39951 49968 53013 84620 91800 333 10113 20076=
07020,1999-03-26 00:00:00,9,998,0.1,93,8,0,11.112,,,230,,,,,,,,,,,wg-a,,,,AAXX 26004 07020 32/// /2306 10090 20080 39963 49980 50001 90000=
07020,1999-03-26 06:00:00,7,999.3,1.1,81,4,500,35.188,,64.82,350,6.6,9.5,,1,,,,,,,wg-a,,,,AAXX 26064 07020 12500 73519 10070 20040 39976 49993 53011 60017 8227/ 90600 333 10095 20066 91035=
07020,1999-03-26 12:00:00,10,1002.6,1.5,71,5,500,29.632,,,310,,,,1,,,,,,2,wg-a,,,,AAXX 26124 07020 12500 63116 10100 20050 30009 40026 53015 60017 70282 86270 91200=
07020,1999-03-26 18:00:00,9,1003.5,0.3,57,1,500,14.816,,,270,6.6,10.2,,,,,,,,,wg-a,,,,AAXX 26184 07020 32/00 52708 10090 20010 30018 40035 53003 80001 91800 333 10102 20066=
07020,1999-03-27 00:00:00,5,1002.9,-0.9,81,2,0,14.816,,,170,,,,,,,,,,,wg-a,,,,AAXX 27004 07020 32/// /1708 10050 20020 30012 40029 58009 90000=
07020,1999-03-27 06:00:00,5,1002.6,0.4,81,2,500,18.52,,,150,4.5,8.8,,,,,,,,,wg-a,,,,AAXX 27064 07020 32/00 21510 10050 20020 30009 40026 53004 80001 90600 333 10088 20045=
07020,1999-03-27 12:00:00,11,1004.7,1.1,71,6,25000,29.632,,,90,,,,,,,,,,,wg-a,,,,AAXX 27124 07020 32675 40916 10110 20060 30030 40047 53011 82101 91200=
07020,1999-03-27 18:00:00,10,1008.1,2.2,71,5,12000,25.928,,,90,4.7,10.7,,,,,,,,,wg-a,,,,AAXX 27184 07020 32/62 00914 10100 20050 30064 40081 53022 80000 91800 333 10107 20047=
07020,1999-03-28 00:00:00,5,1012.5,1.7,87,3,0,7.408,,,120,,,,,,,,,,,wg-a,,,,AAXX 28004 07020 32/// /1204 10050 20030 30108 40125 51017 90000=
07020,1999-03-28 06:00:00,5,1014.8,1.6,81,2,15000,7.408,,,190,3.8,9.5,,,,,,,,,wg-a,,,,AAXX 28064 07020 32665 41904 10050 20020 30131 40148 53016 81110 90600 333 10095 20038=
07020,1999-03-28 12:00:00,13,1016.2,0.3,72,8,6000,25.928,,,200,,,,,,,,,,,wg-a,,,,AAXX 28124 07020 32656 42014 10130 20080 30145 40162 51003 81111 91200=
07020,1999-03-28 18:00:00,11,1015.3,-0.2,76,7,10000,18.52,,,200,4.6,13.1,,,,,,,,,wg-a,,,,AAXX 28184 07020 32660 72010 10110 20070 30136 40153 56002 81141 91800 333 10131 20046=
07020,1999-03-29 00:00:00,10,1015.2,-0.6,87,8,0,35.188,,,200,,,,,,,,,,,wg-a,,,,AAXX 29004 07020 32/// /2019 10100 20080 30135 40152 58006 90000=
07020,1999-03-29 06:00:00,11,1013.7,-0.3,87,9,500,42.596,,,190,9.9,11.1,,,,,,,,,wg-a,,,,AAXX 29064 07020 32600 81923 10110 20090 30120 40137 55003 887// 90600 333 10111 20099=
07020,1999-03-29 12:00:00,14,1013.4,-0.6,77,10,18000,46.3,,90.748,200,,,,,,,,,,,wg-a,,,,AAXX 29124 07020 32668 62025 10140 20100 30117 40134 57006 81258 91200 333 91049=
07020,1999-03-29 18:00:00,11,1013.4,-0,94,10,4000,25.928,,,210,10.4,14.6,,0,,,,,,50,wg-a,,,,AAXX 29184 07020 12540 82114 10110 20100 30117 40134 55000 60007 75022 88700 91800 333 10146 20104=
07020,1999-03-30 00:00:00,11,1014.6,0.4,94,10,0,22.224,,,230,,,,,,,,,,,wg-a,,,,AAXX 30004 07020 32/// /2312 10110 20100 30129 40146 52004 90000=
07020,1999-03-30 06:00:00,11,1014.2,-0.1,94,10,4000,14.816,,,180,10.2,11.5,,1,,,,,,,wg-a,,,,AAXX 30064 07020 12540 81808 10110 20100 30125 40142 55001 60017 887// 90600 333 10115 20102=
07020,1999-03-30 12:00:00,13,1015.4,0.1,88,11,8000,25.928,,,210,,,,,,,,,,2,wg-a,,,,AAXX 30124 07020 02658 82114 10130 20110 30137 40154 50001 61000 70252 885// 91200 333 ////=
07020,1999-03-30 18:00:00,14,1014,-0.5,72,9,15000,35.188,,90.748,190,10.4,14.2,,0,,,,,,2,wg-a,,,,AAXX 30184 07020 12665 71919 10140 20090 30123 40140 56005 60007 70262 875// 91800 333 10142 20104 91049=
07020,1999-03-31 00:00:00,12,1015.6,0.9,82,9,0,25.928,,,190,,,,,,,,,,,wg-a,,,,AAXX 31004 07020 32/// /1914 10120 20090 30139 40156 51009 90000=
07020,1999-03-31 06:00:00,10,1015.4,-0,93,9,12000,22.224,,,180,10.2,14.2,,,,,,,,,wg-a,,,,AAXX 31064 07020 32662 51812 10100 20090 30137 40154 55000 84505 90600 333 10142 20102=
07020,1999-03-31 12:00:00,14,1015.1,-1.2,77,10,18000,11.112,,,80,,,,,,,,,,,wg-a,,,,AAXX 31124 07020 32/68 30806 10140 20100 30134 40151 58012 81031 91200=
07020,1999-03-31 18:00:00,13,1012.1,-1.1,82,10,18000,11.112,,,110,10.2,16.4,,,,,,,,,wg-a,,,,AAXX 31184 07020 32868 61106 10130 20100 30104 40121 56011 81036 91800 333 10164 20102=
07020,1999-04-01 00:00:00,11,1010.1,-1.2,82,8,0,18.52,,,100,,,,,,,,,,,wg-a,,,,AAXX 01004 07020 32/// /1010 10110 20080 30084 40101 56012 90000=
07020,1999-04-01 06:00:00,10,1007.8,-0.6,82,7,8000,14.816,,,120,9.8,13.4,,,,,,,,,wg-a,,,,AAXX 01064 07020 32/58 31208 10100 20070 30061 40078 56006 80008 90600 333 10134 20098=
07020,1999-04-01 12:00:00,14,1006.4,-0.7,72,9,4000,29.632,,,110,,,,,,,,,,,wg-a,,,,AAXX 01124 07020 32540 61116 10140 20090 30047 40064 56007 82785 91200=
07020,1999-04-01 18:00:00,14,1007.3,0.5,72,9,500,7.408,,,230,9.8,17,,,,,,,,,wg-a,,,,AAXX 01184 07020 32500 82304 10140 20090 30056 40073 53005 887// 91800 333 10170 20098=
07020,1999-04-02 00:00:00,10,1010.8,1.2,93,9,0,14.816,,,220,,,,,,,,,,,wg-a,,,,AAXX 02004 07020 32/// /2208 10100 20090 30091 40108 51012 90000=
07020,1999-04-02 06:00:00,10,1012,0.8,87,8,12000,29.632,,,180,9.5,14,,,,,,,,,wg-a,,,,AAXX 02064 07020 32562 51816 10100 20080 30103 40120 53008 84146 90600 333 10140 20095=
07020,1999-04-02 12:00:00,13,1014.7,0.7,82,10,12000,31.484,,,190,,,,0,,,,,,2,wg-a,,,,AAXX 02124 07020 12662 61917 10130 20100 30130 40147 51007 60007 70262 81530 91200=
07020,1999-04-02 18:00:00,11,1016.6,1.1,87,9,24000,7.408,,,200,9.6,13.7,,,,,,,,,wg-a,,,,AAXX 02184 07020 32674 72004 10110 20090 30149 40166 53011 85450 91800 333 10137 20096=
07020,1999-04-03 00:00:00,11,1016.1,-1.2,87,9,0,18.52,,,140,,,,,,,,,,,wg-a,,,,AAXX 03004 07020 32/// /1410 10110 20090 30144 40161 58012 90000=
07020,1999-04-03 06:00:00,11,1014.1,0.2,100,11,2000,25.928,,,210,10.2,11.4,,1,,,,,,61,wg-a,,,,AAXX 03064 07020 12520 82114 10110 20110 30124 40141 53002 60017 761// 887// 90600 333 10114 20102=
07020,1999-04-03 12:00:00,12,1018.7,2.1,94,11,4000,31.484,,,260,,,,,,,,,,10,wg-a,,,,AAXX 03124 07020 32440 82617 10120 20110 30170 40187 51021 71065 886// 91200=
07020,1999-04-03 18:00:00,11,1021.9,1.6,94,10,6000,29.632,,,260,10.7,13.7,,,,,,,,,wg-a,,,,AAXX 03184 07020 32456 82616 10110 20100 30202 40219 53016 886// 91800 333 10137 20107=
07020,1999-04-04 00:00:00,11,1024.8,1.2,94,10,0,14.816,,,240,,,,,,,,,,,wg-a,,,,AAXX 04004 07020 32/// /2408 10110 20100 30231 40248 51012 90000=
07020,1999-04-04 06:00:00,11,1025.6,0.8,94,10,500,18.52,,,230,10,10.9,,,,,,,,47,wg-a,,,,AAXX 04064 07020 32/05 92310 10110 20100 30239 40256 53008 747// 89/// 90600 333 10109 20100=
07020,1999-04-04 12:00:00,15,1026.9,0.1,82,12,12000,29.632,,,210,,,,,,,,,,2,wg-a,,,,AAXX 04124 07020 32762 72116 10150 20120 30252 40269 50001 70242 8555/ 91200=
07020,1999-04-04 18:00:00,14,1026.2,0.3,88,12,18000,25.928,,,210,10.7,16.5,,,,,,,,25,wg-a,,,,AAXX 04184 07020 02668 72114 10140 20120 30245 40262 53003 61000 72582 875// 91800 333 10165 20107 ////=
07020,1999-04-05 00:00:00,13,1026.5,-0.2,88,11,0,25.928,,,210,,,,,,,,,,,wg-a,,,,AAXX 05004 07020 32/// /2114 10130 20110 30248 40265 58002 90000=
07020,1999-04-05 06:00:00,12,1026.1,-0,94,11,12000,31.484,,,190,11.7,13.9,,,,,,,,,wg-a,,,,AAXX 05064 07020 32662 81917 10120 20110 30244 40261 55000 885// 90600 333 10139 20117=
07020,1999-04-05 12:00:00,12,1026.7,0.2,88,10,16000,29.632,,,220,,,,0,,,,,,,wg-a,,,,AAXX 05124 07020 12866 82216 10120 20100 30250 40267 50002 60007 8802/ 91200=
07020,1999-04-05 18:00:00,12,1025.3,-0.6,88,10,16000,22.224,,,230,11.7,14,,,,,,,,,wg-a,,,,AAXX 05184 07020 32/66 42312 10120 20100 30236 40253 57006 81045 91800 333 10140 20117=
07020,1999-04-06 00:00:00,11,1024.4,-0.9,94,10,0,25.928,,,230,,,,,,,,,,,wg-a,,,,AAXX 06004 07020 32/// /2314 10110 20100 30227 40244 56009 90000=
07020,1999-04-06 06:00:00,11,1022.3,-0.9,94,10,6000,35.188,,,220,10.4,11.8,,,,,,,,,wg-a,,,,AAXX 06064 07020 32556 82219 10110 20100 30206 40223 55009 8472/ 90600 333 10118 20104=
07020,1999-04-06 12:00:00,13,1022.8,0,88,11,15000,31.484,,,260,,,,,,,,,,1,wg-a,,,,AAXX 06124 07020 02665 42617 10130 20110 30211 40228 50000 61000 70161 84800 91200 333 ////=
07020,1999-04-06 18:00:00,11,1021,-1.1,94,10,10000,35.188,,,260,10.4,13.9,,,,,,,,,wg-a,,,,AAXX 06184 07020 32660 82619 10110 20100 30193 40210 58011 8652/ 91800 333 10139 20104=
07020,1999-04-07 00:00:00,10,1019.6,-1.2,87,8,0,31.484,,,270,,,,,,,,,,,wg-a,,,,AAXX 07004 07020 32/// /2717 10100 20080 30179 40196 57012 90000=
07020,1999-04-07 06:00:00,10,1021.5,2,82,7,17000,35.188,,,330,9.3,11.1,,,,,,,,,wg-a,,,,AAXX 07064 07020 32667 23319 10100 20070 30198 40215 53020 82400 90600 333 10111 20093=
07020,1999-04-07 12:00:00,12,1024.2,0,76,8,15000,29.632,,,290,,,,,,,,,,,wg-a,,,,AAXX 07124 07020 32665 52916 10120 20080 30225 40242 50000 83441 91200=
07020,1999-04-07 18:00:00,11,1023.4,-0,76,7,15000,25.928,,,300,9.5,12.1,,,,,,,,,wg-a,,,,AAXX 07184 07020 32/65 73014 10110 20070 30217 40234 55000 8704/ 91800 333 10121 20095=
07020,1999-04-08 00:00:00,10,1025,0.8,87,8,0,31.484,,,320,,,,,,,,,,,wg-a,,,,AAXX 08004 07020 32/// /3217 10100 20080 30233 40250 53008 90000=
07020,1999-04-08 06:00:00,10,1026.1,0.9,87,8,12000,18.52,,,360,9.5,11,,,,,,,,,wg-a,,,,AAXX 08064 07020 32/62 63610 10100 20080 30244 40261 53009 80008 90600 333 10110 20095=
07020,1999-04-08 18:00:00,11,1027.1,-0.1,94,10,600,11.112,,,270,9.5,14,,,,,,,,43,wg-a,,,,AAXX 08184 07020 32/06 92706 10110 20100 30254 40271 55001 74342 89/// 91800 333 10140 20095=
07020,1999-04-09 00:00:00,11,1027,-0.3,94,10,0,14.816,,,240,,,,,,,,,,,wg-a,,,,AAXX 09004 07020 32/// /2408 10110 20100 30253 40270 58003 90000=
07020,1999-04-09 06:00:00,10,1026.3,0.4,100,10,6000,0,,,0,10.2,10.9,,,,,,,,,wg-a,,,,AAXX 09064 07020 32556 80000 10100 20100 30246 40263 53004 8472/ 90600 333 10109 20102=
07020,1999-04-09 12:00:00,11,1026.3,-0.2,100,11,6000,14.816,,,270,,,,,,,,,,,wg-a,,,,AAXX 09124 07020 32556 82708 10110 20110 30246 40263 58002 886// 91200=
07020,1999-04-09 18:00:00,11,1024.6,-1.1,82,8,12000,25.928,,,260,10.4,11.7,,,,,,,,,wg-a,,,,AAXX 09184 07020 32662 32614 10110 20080 30229 40246 57011 83100 91800 333 10117 20104=
07020,1999-04-10 00:00:00,10,1023.5,-0.9,93,9,0,31.484,,,260,,,,,,,,,,,wg-a,,,,AAXX 10004 07020 32/// /2617 10100 20090 30218 40235 58009 90000=
07020,1999-04-10 06:00:00,10,1021.3,-0.8,93,9,4000,31.484,,,260,9.2,10.7,,,,,,,,,wg-a,,,,AAXX 10064 07020 32540 82617 10100 20090 30196 40213 57008 887// 90600 333 10107 20092=
07020,1999-04-10 12:00:00,11,1020.1,-0.6,94,10,20000,22.224,,,270,,,,0,,,,,,20,wg-a,,,,AAXX 10124 07020 12570 82712 10110 20100 30184 40201 56006 60007 72085 8172/ 91200=
07020,1999-04-10 18:00:00,11,1020.3,0.3,76,7,500,38.892,,57.412,290,9.5,12.2,,,,,,,,,wg-a,,,,AAXX 10184 07020 32800 32921 10110 20070 30186 40203 53003 83030 91800 333 10122 20095 91031=
07020,1999-04-11 00:00:00,10,1022.1,0.6,76,6,0,42.596,,,300,,,,,,,,,,,wg-a,,,,AAXX 11004 07020 32/// /3023 10100 20060 30204 40221 51006 90000=
07020,1999-04-11 06:00:00,9,1022.9,1.1,76,5,28000,35.188,,,310,8.9,10.9,,,,,,,,,wg-a,,,,AAXX 11064 07020 32678 63119 10090 20050 30212 40229 53011 81150 90600 333 10109 20089=
07020,1999-04-11 12:00:00,11,1024.6,0.3,66,5,40000,31.484,,,300,,,,,,,,,,,wg-a,,,,AAXX 11124 07020 32682 43017 10110 20050 30229 40246 52003 84401 91200=
07020,1999-04-11 18:00:00,10,1019.9,-2.4,82,7,20000,38.892,,,260,9,12,,,,,,,,,wg-a,,,,AAXX 11184 07020 32670 72621 10100 20070 30182 40199 58024 8641/ 91800 333 10120 20090=
07020,1999-04-12 00:00:00,10,1009.1,-6.3,93,9,0,64.82,,,250,,,,,,,,,,,wg-a,,,,AAXX 12004 07020 32/// /2535 10100 20090 30074 40091 58063 90000=
07020,1999-04-12 06:00:00,10,1001.7,-0.8,82,7,15000,46.3,,94.452,290,10,10.9,,,,,,,,,wg-a,,,,AAXX 12064 07020 32665 62925 10100 20070 30000 40017 56008 86141 90600 333 10109 20100 91051=
07020,1999-04-12 12:00:00,10,999.3,-1.6,82,7,15000,42.596,,75.932,280,,,,1,,,,,,25,wg-a,,,,AAXX 12124 07020 12565 62823 10100 20070 39976 49993 58016 60017 72582 85760 91200 333 91041=
07020,1999-04-12 18:00:00,10,998.5,0.6,82,7,15000,53.708,,87.044,290,9,11.4,,0,,,,,,2,wg-a,,,,AAXX 12184 07020 12565 62929 10100 20070 39968 49985 53006 60007 70282 86800 91800 333 10114 20090 91047=
07020,1999-04-13 00:00:00,10,1004.5,2.7,82,7,0,57.412,,,330,,,,,,,,,,,wg-a,,,,AAXX 13004 07020 32/// /3331 10100 20070 30028 40045 53027 90000=
07020,1999-04-13 06:00:00,9,1009.7,2.1,71,4,18000,50.004,,,320,8.4,10.7,,,,,,,,,wg-a,,,,AAXX 13064 07020 32668 53227 10090 20040 30080 40097 51021 85100 90600 333 10107 20084=
07020,1999-04-13 11:00:00,9.5,1009.6,-1,71,4.5,,50.004,79.636,,300,,,,,,,,,,,og-post,,,,AAXX 13114 07020 26/// /3027 10095 20045 30079 40096 58010 333 69905 91143=
07020,1999-04-13 12:00:00,9,1009.3,-1,61,2,20000,57.412,,87.044,300,,,,0,,,,,,25,wg-a,,,,AAXX 13124 07020 12570 73031 10090 20020 30076 40093 57010 60007 72582 872// 91200 333 91047=
07020,1999-04-13 18:00:00,9,1007,-1.3,71,4,15000,61.116,,90.748,290,7.7,10.4,,,,,,,,,wg-a,,,,AAXX 13184 07020 32665 82933 10090 20040 30053 40070 56013 884// 91800 333 10104 20077 91049=
07020,1999-04-14 00:00:00,7,1003.5,-3.1,81,4,0,14.816,,,270,,,,,,,,,,,wg-a,,,,AAXX 14004 07020 32/// /2708 10070 20040 30018 40035 58031 90000=
07020,1999-04-14 06:00:00,6,996.9,-3.2,75,2,15000,7.408,,,330,3.2,8.8,,0,,,,,,,wg-a,,,,AAXX 14064 07020 12565 73304 10060 20020 39952 49969 56032 60007 874// 90600 333 10088 20032=
07020,1999-04-14 12:00:00,6,993.7,-1.4,81,3,500,22.224,,,30,,,,1,,,,,,2,wg-a,,,,AAXX 14124 07020 12500 70312 10060 20030 39920 49937 58014 60017 70262 84520 91200=
07020,1999-04-14 18:00:00,5,995.3,1.8,87,3,12000,46.3,,,40,2.4,7.2,,7,,,,,,61,wg-a,,,,AAXX 14184 07020 12562 80425 10050 20030 39936 49953 53018 60077 76186 88700 91800 333 10072 20024=
07020,1999-04-15 00:00:00,6,999.3,0.5,65,0,0,22.224,,,310,,,,,,,,,,,wg-a,,,,AAXX 15004 07020 02/// /3112 10060 20000 39976 49993 50005 61000 90000 333 ////=
07020,1999-04-15 06:00:00,6,996.5,-0.8,81,3,22000,29.632,,64.82,340,2.6,6.6,,2,,,,,,,wg-a,,,,AAXX 15064 07020 12572 53416 10060 20030 39948 49965 55008 60027 85200 90600 333 10066 20026 91035=
07020,1999-04-15 12:00:00,7,1002.2,3.1,70,2,35000,31.484,,,360,,,,,,,,,,,wg-a,,,,AAXX 15124 07020 32681 63617 10070 20020 30005 40022 51031 86100 91200=
07020,1999-04-15 18:00:00,8,1003.2,0.3,66,2,500,25.928,,,280,5.6,9.1,,,,,,,,2,wg-a,,,,AAXX 15184 07020 02600 52814 10080 20020 30015 40032 50003 61000 70282 83130 91800 333 10091 20056 ////=
07020,1999-04-16 00:00:00,7,1003.7,-0.4,66,1,0,22.224,,,290,,,,,,,,,,,wg-a,,,,AAXX 16004 07020 32/// /2912 10070 20010 30020 40037 58004 90000=
07020,1999-04-16 06:00:00,7,1002.9,-0,76,3,500,14.816,,,270,4.1,8.6,,,,,,,,,wg-a,,,,AAXX 16064 07020 32500 52708 10070 20030 30012 40029 55000 83365 90600 333 10086 20041=
07020,1999-04-16 12:00:00,9,1002.8,-0.3,66,3,35000,25.928,,,190,,,,,,,,,,,wg-a,,,,AAXX 16124 07020 32581 51914 10090 20030 30011 40028 56003 81305 91200=
07020,1999-04-16 18:00:00,9,1002.1,-0,66,3,500,31.484,,,100,6.8,11.2,,,,,,,,,wg-a,,,,AAXX 16184 07020 32500 71017 10090 20030 30004 40021 55000 85205 91800 333 10112 20068=
07020,1999-04-17 00:00:00,8,1003.4,0.2,81,5,0,29.632,,,80,,,,,,,,,,,wg-a,,,,AAXX 17004 07020 32/// /0816 10080 20050 30017 40034 53002 90000=
07020,1999-04-17 06:00:00,7,1006.3,2.3,81,4,22000,14.816,,,140,6.5,9.1,,0,,,,,,,wg-a,,,,AAXX 17064 07020 12672 81408 10070 20040 30046 40063 53023 60007 88500 90600 333 10091 20065=
07020,1999-04-17 12:00:00,10,1010.4,1.9,76,6,14000,22.224,,,40,,,,,,,,,,2,wg-a,,,,AAXX 17124 07020 32564 60412 10100 20060 30087 40104 51019 70298 84205 91200=
07020,1999-04-17 18:00:00,10,1012.3,0.6,62,3,16000,31.484,,,300,6.5,11.2,,,,,,,,,wg-a,,,,AAXX 17184 07020 32566 33017 10100 20030 30106 40123 51006 83100 91800 333 10112 20065=
07020,1999-04-18 00:00:00,8,1014.5,0.8,76,4,0,35.188,,,330,,,,,,,,,,,wg-a,,,,AAXX 18004 07020 32/// /3319 10080 20040 30128 40145 53008 90000=
07020,1999-04-18 06:00:00,8,1014.6,0.2,71,3,500,14.816,,,280,7.5,9.8,,,,,,,,,wg-a,,,,AAXX 18064 07020 32600 62808 10080 20030 30129 40146 52002 84270 90600 333 10098 20075=
07020,1999-04-18 12:00:00,8,1016.6,0.8,76,4,500,22.224,,,300,,,,,,,,,,2,wg-a,,,,AAXX 18124 07020 32600 83012 10080 20040 30149 40166 52008 70282 8577/ 91200=
07020,1999-04-18 18:00:00,9,1017.5,0.3,66,3,500,31.484,,,290,6.8,10.4,,,,,,,,,wg-a,,,,AAXX 18184 07020 32600 62917 10090 20030 30158 40175 53003 86100 91800 333 10104 20068=
07020,1999-04-19 00:00:00,8,1018.6,0.2,71,3,0,25.928,,,310,,,,,,,,,,,wg-a,,,,AAXX 19004 07020 32/// /3114 10080 20030 30169 40186 52002 90000=
07020,1999-04-19 06:00:00,7,1018.5,0.1,66,1,500,11.112,,,360,7.1,9.4,,,,,,,,,wg-a,,,,AAXX 19064 07020 32600 43606 10070 20010 30168 40185 53001 84100 90600 333 10094 20071=
07020,1999-04-19 12:00:00,10,1017.1,-1.4,66,4,500,7.408,,,150,,,,,,,,,,,wg-a,,,,AAXX 19124 07020 32600 81504 10100 20040 30154 40171 58014 884// 91200=
07020,1999-04-19 18:00:00,8,1013.5,-1.7,87,6,8000,18.52,,,160,7.1,10.3,,0,,,,,,61,wg-a,,,,AAXX 19184 07020 12558 81610 10080 20060 30118 40135 57017 60007 76122 887// 91800 333 10103 20071=
07020,1999-04-20 00:00:00,9,1007.3,-3.1,93,8,0,38.892,,,180,,,,,,,,,,,wg-a,,,,AAXX 20004 07020 32/// /1821 10090 20080 30056 40073 56031 90000=
07020,1999-04-20 06:00:00,11,1002,-2.5,94,10,8000,38.892,,64.82,190,7.5,10.7,,0,,,,,,,wg-a,,,,AAXX 20064 07020 12658 81921 10110 20100 30003 40020 57025 60007 874// 90600 333 10107 20075 91035=
07020,1999-04-20 12:00:00,12,996.2,-3.2,94,11,0,53.708,,,180,,,,5,,,,,,,wg-a,,,,AAXX 20124 07020 12/// /1829 10120 20110 39945 49962 56032 60057 91200=
07020,1999-04-20 18:00:00,11,994.8,1.2,100,11,18000,31.484,,83.34,230,10.6,12.7,,1,,,,,,21,wg-a,,,,AAXX 20184 07020 12568 82317 10110 20110 39931 49948 53012 60017 72162 8572/ 91800 333 10127 20106 91045=
07020,1999-04-21 00:00:00,11,996.5,0.3,87,9,0,38.892,,,200,,,,,,,,,,,wg-a,,,,AAXX 21004 07020 32/// /2021 10110 20090 39948 49965 50003 90000=
07020,1999-04-21 06:00:00,11,995.6,-0,87,9,15000,42.596,,72.228,210,10.5,11.4,,,,,,,,,wg-a,,,,AAXX 21064 07020 32665 72123 10110 20090 39939 49956 55000 85505 90600 333 10114 20105 91039=
07020,1999-04-21 12:00:00,12,996,0.3,82,9,6000,42.596,,72.228,220,,,,,,,,,,60,wg-a,,,,AAXX 21124 07020 02556 72223 10120 20090 39943 49960 51003 61000 76022 85720 91200 333 //// 91039=
07020,1999-04-21 18:00:00,11,997.9,1.3,94,10,12000,46.3,,75.932,250,10.6,13.6,,1,,,,,,50,wg-a,,,,AAXX 21184 07020 12562 72525 10110 20100 39962 49979 53013 60017 75086 877// 91800 333 10136 20106 91041=
07020,1999-04-22 00:00:00,10,1001.5,1.7,93,9,0,46.3,,,250,,,,,,,,,,,wg-a,,,,AAXX 22004 07020 32/// /2525 10100 20090 39998 40015 52017 90000=
07020,1999-04-22 06:00:00,11,1004.1,1.9,87,9,12000,42.596,,,240,9.5,10.9,,,,,,,,,wg-a,,,,AAXX 22064 07020 32562 72423 10110 20090 30024 40041 53019 872// 90600 333 10109 20095=
07020,1999-04-22 12:00:00,13,1007.7,1.5,82,10,15000,35.188,,,260,,,,,,,,,,21,wg-a,,,,AAXX 22124 07020 02565 52619 10130 20100 30060 40077 53015 61000 72162 85201 91200 333 ////=
07020,1999-04-22 18:00:00,11,1008.7,-0.1,76,7,15000,29.632,,,250,9.6,13.6,,,,,,,,,wg-a,,,,AAXX 22184 07020 32/65 32516 10110 20070 30070 40087 58001 80008 91800 333 10136 20096=
07020,1999-04-23 00:00:00,11,1006.3,-2.1,87,9,0,31.484,,,190,,,,,,,,,,,wg-a,,,,AAXX 23004 07020 32/// /1917 10110 20090 30046 40063 58021 90000=
07020,1999-04-23 06:00:00,10,1002.5,-1.1,93,9,10000,35.188,,57.412,170,9.4,11,,4,,,,,,,wg-a,,,,AAXX 23064 07020 12560 81719 10100 20090 30008 40025 56011 60047 8412/ 90600 333 10110 20094 91031=
07020,1999-04-23 12:00:00,11,1004.5,1.7,87,9,12000,7.408,,,80,,,,1,,,,,,60,wg-a,,,,AAXX 23124 07020 12562 80804 10110 20090 30028 40045 51017 60017 76062 8472/ 91200=
07020,1999-04-23 18:00:00,10,1009.4,3,76,6,16000,35.188,,,320,9.6,11.9,,0,,,,,,60,wg-a,,,,AAXX 23184 07020 12566 83219 10100 20060 30077 40094 53030 60007 76062 8472/ 91800 333 10119 20096=
07020,1999-04-24 00:00:00,10,1012.9,1.6,87,8,0,35.188,,,290,,,,,,,,,,,wg-a,,,,AAXX 24004 07020 32/// /2919 10100 20080 30112 40129 51016 90000=
07020,1999-04-24 06:00:00,10,1014.4,1.2,87,8,16000,35.188,,,290,9.8,10.5,,,,,,,,,wg-a,,,,AAXX 24064 07020 02666 62919 10100 20080 40144 53012 61000 85230 90600 333 10105 20098 ////=
07020,1999-04-24 12:00:00,12.1,1016.5,0.9,77,8.2,20000,18.52,,,280,,,,,,,,,,,og-post,,,,AAXX 24124 07020 32570 42810 10121 20082 30148 40165 51009 83108 333 92438=
07020,1999-04-24 18:00:00,11,1015.9,-0.7,71,6,20000,7.408,,,230,10,13.3,,,,,,,,,wg-a,,,,AAXX 24184 07020 32/70 32304 10110 20060 30142 40159 58007 80001 91800 333 10133 20100=
07020,1999-04-25 00:00:00,10,1014.5,-1.4,71,5,0,25.928,,,160,,,,,,,,,,,wg-a,,,,AAXX 25004 07020 32/// /1614 10100 20050 30128 40145 56014 90000=
07020,1999-04-25 06:00:00,10,1012,-0.3,82,7,15000,22.224,,,160,8.4,11.2,,,,,,,,,wg-a,,,,AAXX 25064 07020 32565 81612 10100 20070 30103 40120 55003 8212/ 90600 333 10112 20084=
07020,1999-04-25 12:00:00,13,1010.9,-0.4,72,8,15000,31.484,,53.708,200,,,,,,,,,,,wg-a,,,,AAXX 25124 07020 32/65 82017 10130 20080 30092 40109 57004 8804/ 91200 333 91029=
07020,1999-04-25 18:00:00,11,1009.9,-0,87,9,12000,25.928,,,150,10.1,13.1,,2,,,,,,60,wg-a,,,,AAXX 25184 07020 12562 81514 10110 20090 30082 40099 55000 60027 76062 8472/ 91800 333 10131 20101=
07020,1999-04-26 00:00:00,10,1010.1,-0.1,93,9,0,14.816,,,140,,,,,,,,,,,wg-a,,,,AAXX 26004 07020 32/// /1408 10100 20090 30084 40101 56001 90000=
07020,1999-04-26 06:00:00,10,1010.3,0.7,93,9,18000,14.816,,,120,9.6,10.9,,0,,,,,,,wg-a,,,,AAXX 26064 07020 12668 71208 10100 20090 30086 40103 53007 60007 8555/ 90600 333 10109 20096=
07020,1999-04-26 12:00:00,13,1012.2,0.8,82,10,22000,25.928,,,80,,,,,,,,,,,wg-a,,,,AAXX 26124 07020 32672 40814 10130 20100 30105 40122 51008 81235 91200=
07020,1999-04-26 18:00:00,13,1013.8,1,82,10,16000,3.704,,,50,9.9,14.4,,,,,,,,,wg-a,,,,AAXX 26184 07020 32666 60502 10130 20100 30121 40138 52010 81255 91800 333 10144 20099=
07020,1999-04-27 00:00:00,12,1016,0.4,88,10,0,22.224,,,90,,,,,,,,,,,wg-a,,,,AAXX 27004 07020 32/// /0912 10120 20100 30143 40160 51004 90000=
07020,1999-04-27 12:00:00,15,1020.6,1,77,11,2000,22.224,,,110,,,,,,,,,,10,wg-a,,,,AAXX 27124 07020 32520 81112 10150 20110 30189 40206 51010 71022 886// 91200=
07020,1999-04-27 18:00:00,13,1021.3,0.3,77,9,12000,35.188,,,60,11.1,15.4,,,,,,,,,wg-a,,,,AAXX 27184 07020 32562 20619 10130 20090 30196 40213 53003 82600 91800 333 10154 20111=
07020,1999-04-28 00:00:00,11,1023,0.1,76,7,0,53.708,,,70,,,,,,,,,,,wg-a,,,,AAXX 28004 07020 32/// /0729 10110 20070 30213 40230 50001 90000=
07020,1999-04-28 06:00:00,11,1022.7,-0.1,76,7,16000,50.004,,75.932,70,10.8,12.8,,,,,,,,,wg-a,,,,AAXX 28064 07020 32/66 00727 10110 20070 30210 40227 55001 80000 90600 333 10128 20108 91041=
07020,1999-04-28 12:00:00,13,1022.3,-0.9,77,9,12000,42.596,,90.748,70,,,,,,,,,,,wg-a,,,,AAXX 28124 07020 32/62 00723 10130 20090 30206 40223 58009 80000 91200 333 91049=
07020,1999-04-28 18:00:00,12.8,1018.8,-1.3,71,7.7,10000,50.004,94.452,,70,10.9,13.9,,,,,,,,,og-post,,,,AAXX 28184 07020 32960 10727 10128 20077 30171 40188 56013 80001 333 10139 20109 91151 92457=
07020,1999-04-29 00:00:00,10,1016.8,-1.5,87,8,0,53.708,,,80,,,,,,,,,,,wg-a,,,,AAXX 29004 07020 32/// /0829 10100 20080 30151 40168 58015 90000=
07020,1999-04-29 06:00:00,9.8,1014.9,-1.4,86,7.6,8000,61.116,,,70,9.7,12.9,,,,,,,,,og-post,,,,AAXX 29064 07020 32558 70733 10098 20076 30132 40149 58014 872// 333 10129 20097 92456=
07020,1999-04-29 12:00:00,11,1014.6,-0.7,82,8,12000,57.412,,87.044,80,,,,,,,,,,,wg-a,,,,AAXX 29124 07020 32562 80831 10110 20080 30129 40146 58007 882// 91200 333 91047=
07020,1999-04-29 18:00:00,12,1012.3,-0.2,76,8,10000,53.708,,,80,9.8,11.9,,,,,,,,,wg-a,,,,AAXX 29184 07020 32560 50829 10120 20080 30106 40123 58002 8/600 91800 333 10119 20098=
07020,1999-04-30 00:00:00,10,1014.2,0.1,87,8,0,42.596,,,100,,,,,,,,,,,wg-a,,,,AAXX 30004 07020 32/// /1023 10100 20080 30125 40142 50001 90000=
07020,1999-04-30 06:00:00,10,1014.9,1.3,93,9,8000,18.52,,,110,10.1,11.7,,,,,,,,,wg-a,,,,AAXX 30064 07020 32558 81110 10100 20090 30132 40149 53013 85720 90600 333 10117 20101=
07020,1999-04-30 12:00:00,15,1016.6,0.5,72,10,8000,11.112,,,70,,,,,,,,,,,wg-a,,,,AAXX 30124 07020 32558 20706 10150 20100 30149 40166 51005 81608 91200=
07020,1999-04-30 18:00:00,13,1016.4,-0.1,82,10,10000,11.112,,,90,10.4,15.4,,,,,,,,,wg-a,,,,AAXX 30184 07020 32560 60906 10130 20100 30147 40164 58001 81638 91800 333 10154 20104=
07020,1999-05-01 00:00:00,11,1017.1,-0.2,87,9,0,7.408,,,230,,,,,,,,,,,wg-a,,,,AAXX 01004 07020 32/// /2304 10110 20090 30154 40171 57002 90000=
07020,1999-05-01 06:00:00,10,1017.4,0.6,93,9,6000,11.112,,,120,9.2,13.2,,,,,,,,,wg-a,,,,AAXX 01064 07020 32/56 21206 10100 20090 30157 40174 53006 80008 90600 333 10132 20092=
07020,1999-05-01 12:00:00,12,1018.6,0.2,88,10,100,14.816,,,80,,,,,,,,,,45,wg-a,,,,AAXX 01124 07020 32/01 90808 10120 20100 30169 40186 50002 74542 89/// 91200=
07020,1999-05-01 18:00:00,11,1018.4,0,87,9,100,18.52,,,100,10.1,12.9,,,,,,,,44,wg-a,,,,AAXX 01184 07020 32401 61010 10110 20090 30167 40184 50000 74442 86600 91800 333 10129 20101=
07020,1999-05-02 00:00:00,8,1019.6,0.3,100,8,0,14.816,,,90,,,,,,,,,,,wg-a,,,,AAXX 02004 07020 32/// /0908 10080 20080 30179 40196 53003 90000=
07020,1999-05-02 06:00:00,8,1019.8,0.4,100,8,100,22.224,,,110,7.3,10.6,,,,,,,,45,wg-a,,,,AAXX 02064 07020 32/01 91112 10080 20080 30181 40198 53004 745// 89/// 90600 333 10106 20073=
07020,1999-05-02 12:00:00,13,1020.4,0.3,88,11,8000,18.52,,,80,,,,,,,,,,,wg-a,,,,AAXX 02124 07020 32/58 00810 10130 20110 30187 40204 50003 80000 91200=
07020,1999-05-02 18:00:00,13,1018.8,-0.6,82,10,6000,11.112,,,90,8,14.5,,,,,,,,,wg-a,,,,AAXX 02184 07020 32/56 00906 10130 20100 30171 40188 56006 80000 91800 333 10145 20080=
07020,1999-05-03 00:00:00,10,1019.2,-0.1,93,9,0,14.816,,,100,,,,,,,,,,,wg-a,,,,AAXX 03004 07020 32/// /1008 10100 20090 30175 40192 55001 90000=
07020,1999-05-03 06:00:00,11,1018.3,0.3,94,10,6000,22.224,,,90,9.5,12.7,,,,,,,,,wg-a,,,,AAXX 03064 07020 32/56 00912 10110 20100 30166 40183 53003 80000 90600 333 10127 20095=
07020,1999-05-03 12:00:00,14,1019,0.3,77,10,500,18.52,,,80,,,,,,,,,,,wg-a,,,,AAXX 03124 07020 32/00 30810 10140 20100 30173 40190 53003 80008 91200=
07020,1999-05-03 18:00:00,14,1015.9,-1.9,72,9,500,25.928,,,110,10.8,16.1,,,,,,,,,wg-a,,,,AAXX 03184 07020 32600 81114 10140 20090 30142 40159 56019 85418 91800 333 10161 20108=
07020,1999-05-04 00:00:00,12,1016,-0.5,88,10,0,18.52,,,100,,,,,,,,,,,wg-a,,,,AAXX 04004 07020 32/// /1010 10120 20100 30143 40160 58005 90000=
07020,1999-05-04 06:00:00,12,1013.7,-0.9,82,9,500,38.892,,,80,11,13.9,,,,,,,,,wg-a,,,,AAXX 04064 07020 32600 80821 10120 20090 30120 40137 56009 886// 90600 333 10139 20110=
07020,1999-05-04 12:00:00,13,1012.5,-0.6,77,9,12000,18.52,,,70,,,,,,,,,,,wg-a,,,,AAXX 04124 07020 32862 80710 10130 20090 30108 40125 58006 8/030 91200=
07020,1999-05-04 18:00:00,13,1010.3,-0.7,82,10,14000,22.224,,,70,11.7,16.1,,,,,,,,,wg-a,,,,AAXX 04184 07020 32/64 30712 10130 20100 30086 40103 55007 80005 91800 333 10161 20117=
07020,1999-05-05 00:00:00,12,1009.1,-1,82,9,0,18.52,,,90,,,,,,,,,,,wg-a,,,,AAXX 05004 07020 32/// /0910 10120 20090 30074 40091 56010 90000=
07020,1999-05-05 06:00:00,11,1007.6,-0.1,94,10,10000,18.52,,,100,10.7,13,,,,,,,,,wg-a,,,,AAXX 05064 07020 32860 61010 10110 20100 30059 40076 55001 86010 90600 333 10130 20107=
07020,1999-05-05 12:00:00,13,1008.2,0.2,94,12,800,22.224,,,200,,,,,,,,,,46,wg-a,,,,AAXX 05124 07020 32408 82012 10130 20120 30065 40082 51002 74642 886// 91200=
07020,1999-05-05 18:00:00,14,1008.9,0.2,88,12,6000,11.112,,,230,11.4,16.1,,,,,,,,2,wg-a,,,,AAXX 05184 07020 32856 52306 10140 20120 30072 40089 53002 70242 85050 91800 333 10161 20114=
07020,1999-05-06 00:00:00,12,1011.1,1,100,12,0,22.224,,,210,,,,,,,,,,,wg-a,,,,AAXX 06004 07020 32/// /2112 10120 20120 30094 40111 53010 90000=
07020,1999-05-06 06:00:00,12,1012.6,0.9,94,11,18000,29.632,,,240,11.7,14.6,,,,,,,,,wg-a,,,,AAXX 06064 07020 32668 82416 10120 20110 30109 40126 53009 885// 90600 333 10146 20117=
07020,1999-05-06 12:00:00,15,1014.9,0.6,72,10,18000,25.928,,,220,,,,,,,,,,,wg-a,,,,AAXX 06124 07020 32668 22214 10150 20100 30132 40149 51006 82200 91200=
07020,1999-05-06 18:00:00,14,1013.1,-1.3,77,10,18000,29.632,,,120,11.9,17.3,,,,,,,,,wg-a,,,,AAXX 06184 07020 32/68 31216 10140 20100 30114 40131 57013 81085 91800 333 10173 20119=
07020,1999-05-07 00:00:00,12,1011,-1.8,88,10,0,22.224,,,110,,,,,,,,,,,wg-a,,,,AAXX 07004 07020 32/// /1112 10120 20100 30093 40110 58018 90000=
07020,1999-05-07 06:00:00,13,1007.7,-0.8,94,12,20000,18.52,,,120,11.5,14.2,,2,,,,,,15,wg-a,,,,AAXX 07064 07020 12570 81210 10130 20120 30060 40077 55008 60027 71500 8397/ 90600 333 10142 20115=
07020,1999-05-07 12:00:00,14,1007.6,-0.1,88,12,18000,14.816,,,260,,,,2,,,,,,2,wg-a,,,,AAXX 07124 07020 12668 62608 10140 20120 30059 40076 55001 60027 70286 84860 91200=
07020,1999-05-07 18:00:00,12,1007.5,0.1,94,11,18000,11.112,,,230,12.2,15.6,,,,,,,,,wg-a,,,,AAXX 07184 07020 32/68 72306 10120 20110 30058 40075 53001 8707/ 91800 333 10156 20122=
07020,1999-05-08 00:00:00,11,1009.4,0.4,94,10,0,18.52,,,200,,,,,,,,,,,wg-a,,,,AAXX 08004 07020 32/// /2010 10110 20100 30077 40094 52004 90000=
07020,1999-05-08 06:00:00,12,1009.8,0.8,88,10,18000,31.484,,,210,10.7,12.1,,,,,,,,,wg-a,,,,AAXX 08064 07020 32/68 32117 10120 20100 30081 40098 53008 82035 90600 333 10121 20107=
07020,1999-05-08 12:00:00,15,1011.7,0.4,72,10,20000,35.188,,,210,,,,,,,,,,,wg-a,,,,AAXX 08124 07020 32670 72119 10150 20100 30100 40117 51004 8/400 91200=
07020,1999-05-08 18:00:00,14,1012.4,0.4,77,10,20000,31.484,,,210,11.7,16.1,,,,,,,,,wg-a,,,,AAXX 08184 07020 32670 62117 10140 20100 30107 40124 51004 82205 91800 333 10161 20117=
07020,1999-05-09 00:00:00,13,1014.2,0.4,82,10,0,38.892,,,200,,,,,,,,,,,wg-a,,,,AAXX 09004 07020 32/// /2021 10130 20100 30125 40142 51004 90000=
07020,1999-05-09 06:00:00,13,1013.8,0.3,82,10,18000,29.632,,,180,11.9,14.4,,,,,,,,,wg-a,,,,AAXX 09064 07020 32/68 51816 10130 20100 30121 40138 53003 80005 90600 333 10144 20119=
07020,1999-05-09 12:00:00,19,1011,-2.4,56,10,22000,38.892,,,180,,,,,,,,,,,wg-a,,,,AAXX 09124 07020 32672 61821 10190 20100 30094 40110 58024 81105 91200=
07020,1999-05-09 18:00:00,18,1009,-0.5,59,10,35000,25.928,,,190,12.5,21.4,,,,,,,,,wg-a,,,,AAXX 09184 07020 32681 81914 10180 20100 30074 40090 56005 8412/ 91800 333 10214 20125=
07020,1999-05-10 00:00:00,14,1009.5,-0.6,82,11,0,31.484,,,200,,,,,,,,,,,wg-a,,,,AAXX 10004 07020 32/// /2017 10140 20110 30078 40095 58006 90000=
07020,1999-05-10 06:00:00,13,1009.8,0.5,88,11,16000,29.632,,,200,12.2,17.9,,,,,,,,,wg-a,,,,AAXX 10064 07020 32666 52016 10130 20110 30081 40098 53005 81550 90600 333 10179 20122=
07020,1999-05-10 12:00:00,16,1011,0.6,77,12,16000,35.188,,,210,,,,,,,,,,,wg-a,,,,AAXX 10124 07020 32666 52119 10160 20120 30093 40110 51006 83250 91200=
07020,1999-05-10 18:00:00,15,1011.3,-0,77,11,14000,29.632,,,220,13,16.9,,,,,,,,,wg-a,,,,AAXX 10184 07020 32664 52216 10150 20110 30096 40113 55000 85251 91800 333 10169 20130=
07020,1999-05-11 00:00:00,13,1011.8,-0.1,88,11,0,35.188,,,220,,,,,,,,,,,wg-a,,,,AAXX 11004 07020 32/// /2219 10130 20110 30101 40118 58001 90000=
07020,1999-05-11 06:00:00,13,1011,-0.3,88,11,14000,29.632,,,210,12,14.7,,,,,,,,,wg-a,,,,AAXX 11064 07020 32664 72116 10130 20110 30093 40110 56003 8744/ 90600 333 10147 20120=
07020,1999-05-11 12:00:00,14,1010.9,-0.1,88,12,22000,25.928,,,220,,,,,,,,,,,wg-a,,,,AAXX 11124 07020 32872 62214 10140 20120 30092 40109 58001 86070 91200=
07020,1999-05-11 18:00:00,13,1010.9,-0,88,11,18000,25.928,,,240,12.6,15.2,,,,,,,,,wg-a,,,,AAXX 11184 07020 32668 32414 10130 20110 30092 40109 55000 81405 91800 333 10152 20126=
07020,1999-05-12 00:00:00,12,1011.8,0,94,11,0,29.632,,,250,,,,,,,,,,,wg-a,,,,AAXX 12004 07020 32/// /2516 10120 20110 30101 40118 50000 90000=
07020,1999-05-12 06:00:00,12,1011.9,0.7,94,11,20000,31.484,,,240,11.4,13.5,,,,,,,,,wg-a,,,,AAXX 12064 07020 32670 62417 10120 20110 30102 40119 53007 82256 90600 333 10135 20114=
07020,1999-05-12 12:00:00,15,1012.5,0.4,82,12,18000,29.632,,,240,,,,,,,,,,,wg-a,,,,AAXX 12124 07020 32668 62416 10150 20120 30108 40125 50004 81158 91200=
07020,1999-05-12 18:00:00,13,1012.2,-0.1,88,11,16000,31.484,,,270,12,15.2,,,,,,,,,wg-a,,,,AAXX 12184 07020 32/66 22717 10130 20110 30105 40122 58001 81035 91800 333 10152 20120=
07020,1999-05-13 00:00:00,12,1013.3,0.3,88,10,0,31.484,,,250,,,,,,,,,,,wg-a,,,,AAXX 13004 07020 32/// /2517 10120 20100 30116 40133 50003 90000=
07020,1999-05-13 06:00:00,12,1012.5,-0.2,94,11,16000,29.632,,,230,11.4,13.4,,,,,,,,,wg-a,,,,AAXX 13064 07020 32566 82316 10120 20110 30108 40125 57002 8412/ 90600 333 10134 20114=
07020,1999-05-13 12:00:00,13,1012.3,-0.1,88,11,16000,31.484,,,240,,,,,,,,,,,wg-a,,,,AAXX 13124 07020 02566 82417 10130 20110 30106 40123 58001 61000 8775/ 91200 333 ////=
07020,1999-05-13 18:00:00,13,1010.8,-0.7,88,11,18000,25.928,,,250,11.7,14.7,,,,,,,,,wg-a,,,,AAXX 13184 07020 32568 32514 10130 20110 30091 40108 56007 83308 91800 333 10147 20117=
07020,1999-05-14 06:00:00,12,1011.6,0.5,88,10,16000,31.484,,,260,11.1,13.2,,,,,,,,,wg-a,,,,AAXX 14064 07020 32666 62617 10120 20100 30099 40116 52005 84161 90600 333 10132 20111=
07020,1999-05-14 12:00:00,15,1012.9,0.4,77,11,20000,25.928,,,250,,,,,,,,,,,wg-a,,,,AAXX 14124 07020 32670 32514 10150 20110 30112 40129 51004 82150 91200=
07020,1999-05-14 18:00:00,14,1012.9,-0.5,82,11,20000,29.632,,,260,11.7,16,,,,,,,,,wg-a,,,,AAXX 14184 07020 32670 22616 10140 20110 30112 40129 58005 81440 91800 333 10160 20117=
07020,1999-05-15 00:00:00,10,1014.1,0.2,100,10,0,11.112,,,220,,,,,,,,,,,wg-a,,,,AAXX 15004 07020 32/// /2206 10100 20100 30124 40141 51002 90000=
07020,1999-05-15 06:00:00,11,1015.3,1.1,100,11,8000,3.704,,,340,8.3,13.7,,,,,,,,,wg-a,,,,AAXX 15064 07020 32858 13402 10110 20110 30136 40153 53011 81010 90600 333 10137 20083=
07020,1999-05-15 12:00:00,13,1018.2,1.1,88,11,3000,25.928,,,80,,,,,,,,,,10,wg-a,,,,AAXX 15124 07020 32430 80814 10130 20110 30165 40182 52011 71042 886// 91200=
07020,1999-05-15 18:00:00,13,1019.2,0.4,82,10,12000,22.224,,,80,11.2,15,,,,,,,,,wg-a,,,,AAXX 15184 07020 32662 10812 10130 20100 30175 40192 52004 81100 91800 333 10150 20112=
07020,1999-05-16 00:00:00,11,1021.3,0.7,82,8,0,25.928,,,90,,,,,,,,,,,wg-a,,,,AAXX 16004 07020 32/// /0914 10110 20080 30196 40213 51007 90000=
07020,1999-05-16 06:00:00,11,1021.6,0.6,82,8,20000,31.484,,,70,10.2,13,,,,,,,,,wg-a,,,,AAXX 16064 07020 32670 50717 10110 20080 30199 40216 53006 85100 90600 333 10130 20102=
07020,1999-05-16 12:00:00,14,1021.4,-0.4,67,8,40000,29.632,,,70,,,,,,,,,,,wg-a,,,,AAXX 16124 07020 32682 30716 10140 20080 30197 40214 58004 81101 91200=
07020,1999-05-16 18:00:00,13,1019.6,-0.8,67,7,40000,31.484,,,80,11,14.1,,,,,,,,,wg-a,,,,AAXX 16184 07020 32/82 40817 10130 20070 30179 40196 57008 82031 91800 333 10141 20110=
07020,1999-05-17 00:00:00,11,1018.7,-0.6,82,8,0,46.3,,,70,,,,,,,,,,,wg-a,,,,AAXX 17004 07020 32/// /0725 10110 20080 30170 40187 58006 90000=
07020,1999-05-17 06:00:00,11,1016.4,-0.8,76,7,18000,53.708,,90.748,70,10.1,12.7,,,,,,,,,wg-a,,,,AAXX 17064 07020 32668 70729 10110 20070 30147 40164 56008 874// 90600 333 10127 20101 91049=
07020,1999-05-17 12:00:00,13,1013.7,-2.5,72,8,16000,61.116,,,60,,,,,,,,,,,wg-a,,,,AAXX 17124 07020 32666 40633 10130 20080 30120 40137 56025 83205 91200=
07020,1999-05-17 18:00:00,13,1010.2,-2.1,77,9,16000,68.524,,,60,10.5,14.3,,,,,,,,,wg-a,,,,AAXX 17184 07020 32/66 80637 10130 20090 30085 40102 57021 80007 91800 333 10143 20105=
07020,1999-05-18 00:00:00,12,1007.6,-1.3,82,9,0,64.82,,,70,,,,,,,,,,,wg-a,,,,AAXX 18004 07020 32/// /0735 10120 20090 30059 40076 58013 90000=
07020,1999-05-18 06:00:00,12,1006.8,0.9,94,11,6000,38.892,,94.452,100,10.8,13.4,,0,,,,,,,wg-a,,,,AAXX 18064 07020 12556 81021 10120 20110 30051 40068 53009 60007 887// 90600 333 10134 20108 91051=
07020,1999-05-18 12:00:00,15,1010.4,1.2,82,12,18000,18.52,,,100,,,,,,,,,,,wg-a,,,,AAXX 18124 07020 32/68 61010 10150 20120 30087 40104 51012 80008 91200=
07020,1999-05-18 18:00:00,14,1010.1,-0.3,82,11,12000,25.928,,,110,11.6,16,,,,,,,,,wg-a,,,,AAXX 18184 07020 32/62 61114 10140 20110 30084 40101 56003 80008 91800 333 10160 20116=
07020,1999-05-19 00:00:00,12,1010.6,-0.9,94,11,0,22.224,,,100,,,,,,,,,,,wg-a,,,,AAXX 19004 07020 32/// /1012 10120 20110 30089 40106 58009 90000=
07020,1999-05-19 06:00:00,12,1010.1,0.1,94,11,2000,25.928,,,70,11.8,13.9,,,,,,,,10,wg-a,,,,AAXX 19064 07020 32520 80714 10120 20110 30084 40101 53001 710// 8472/ 90600 333 10139 20118=
07020,1999-05-19 12:00:00,16,1010.8,0.2,77,12,2000,18.52,,,50,,,,,,,,,,10,wg-a,,,,AAXX 19124 07020 32520 80510 10160 20120 30091 40108 53002 71042 887// 91200=
07020,1999-05-19 18:00:00,14,1011,-0,82,11,3000,29.632,,,300,12,17.2,,,,,,,,10,wg-a,,,,AAXX 19184 07020 32530 63016 10140 20110 30093 40110 54000 71042 86721 91800 333 10172 20120=
07020,1999-05-20 00:00:00,12,1011.8,-0.7,94,11,0,14.816,,,290,,,,,,,,,,,wg-a,,,,AAXX 20004 07020 32/// /2908 10120 20110 30101 40118 56007 90000=
07020,1999-05-20 06:00:00,12,1012.9,1.2,94,11,2000,18.52,,,310,11.6,13.9,,,,,,,,,wg-a,,,,AAXX 20064 07020 32520 83110 10120 20110 30112 40129 53012 886// 90600 333 10139 20116=
07020,1999-05-20 12:00:00,14,1014.1,0.4,82,11,4000,25.928,,,290,,,,,,,,,,10,wg-a,,,,AAXX 20124 07020 32540 52914 10140 20110 30124 40141 50004 71042 85600 91200=
07020,1999-05-20 18:00:00,15,1014.7,0,82,12,6000,22.224,,,260,11.8,16.3,,,,,,,,1,wg-a,,,,AAXX 20184 07020 32/56 02612 10150 20120 30130 40147 50000 70142 80000 91800 333 10163 20118=
07020,1999-05-21 00:00:00,13,1017.2,1.1,82,10,0,18.52,,,280,,,,,,,,,,,wg-a,,,,AAXX 21004 07020 32/// /2810 10130 20100 30155 40172 51011 90000=
07020,1999-05-21 06:00:00,12,1018.3,0.8,88,10,20000,22.224,,,280,11.9,15,,,,,,,,,wg-a,,,,AAXX 21064 07020 32/70 32812 10120 20100 30166 40183 53008 80008 90600 333 10150 20119=
07020,1999-05-21 12:00:00,13,1019,0,94,12,8000,38.892,,,260,,,,,,,,,,,wg-a,,,,AAXX 21124 07020 02858 82621 10130 20120 30173 40190 50000 61000 8807/ 91200 333 ////=
07020,1999-05-21 18:00:00,14,1017.7,-0.8,88,12,10000,42.596,,64.82,260,12.2,14.3,,,,,,,,,wg-a,,,,AAXX 21184 07020 32560 72623 10140 20120 30160 40177 58008 8297/ 91800 333 10143 20122 91035=
07020,1999-05-22 00:00:00,12,1019.2,0.7,88,10,0,29.632,,,280,,,,,,,,,,,wg-a,,,,AAXX 22004 07020 32/// /2816 10120 20100 30175 40192 53007 90000=
07020,1999-05-22 06:00:00,12,1020.4,0.8,76,8,10000,35.188,,,290,11.6,13.6,,,,,,,,,wg-a,,,,AAXX 22064 07020 32560 72919 10120 20080 30187 40204 53008 84220 90600 333 10136 20116=
07020,1999-05-22 12:00:00,14,1022.2,0.6,72,9,12000,29.632,,,270,,,,,,,,,,,wg-a,,,,AAXX 22124 07020 32562 72716 10140 20090 30205 40222 53006 8227/ 91200=
07020,1999-05-22 18:00:00,13,1022.2,-0,77,9,18000,29.632,,,270,11.8,14.6,,,,,,,,,wg-a,,,,AAXX 22184 07020 32/68 02716 10130 20090 30205 40222 55000 80000 91800 333 10146 20118=
07020,1999-05-23 06:00:00,12,1022.8,0.4,94,11,12000,25.928,,,240,11.7,13.4,,,,,,,,,wg-a,,,,AAXX 23064 07020 32662 82414 10120 20110 30211 40228 53004 8272/ 90600 333 10134 20117=
07020,1999-05-23 12:00:00,14,1023.1,0.2,94,13,8000,29.632,,,260,,,,,,,,,,2,wg-a,,,,AAXX 23124 07020 02558 82616 10140 20130 30214 40231 53002 61000 70265 8472/ 91200 333 ////=
07020,1999-05-23 18:00:00,13,1022.8,-0.2,94,12,12000,22.224,,,250,12.2,13.9,,,,,,,,2,wg-a,,,,AAXX 23184 07020 32562 82512 10130 20120 30211 40228 55002 70252 8472/ 91800 333 10139 20122=
07020,1999-05-24 00:00:00,12,1022.4,-0.5,88,10,0,25.928,,,260,,,,,,,,,,,wg-a,,,,AAXX 24004 07020 32/// /2614 10120 20100 30207 40224 58005 90000=
07020,1999-05-24 06:00:00,12,1021.8,0.3,88,10,18000,22.224,,,270,12.1,12.5,,,,,,,,,wg-a,,,,AAXX 24064 07020 32868 82712 10120 20100 30201 40218 53003 8/070 90600 333 10125 20121=
07020,1999-05-24 12:00:00,15,1022.2,,82,12,0,22.224,,,240,,,,,,,,,,,wg-a,,,,AAXX 24124 07020 32/// /2412 10150 20120 30205 40222 91200=
07020,1999-05-24 18:00:00,13,1021.4,-0.1,88,11,500,25.928,,,270,12.3,15.1,,,,,,,,,wg-a,,,,AAXX 24184 07020 32/00 72714 10130 20110 30197 40214 55001 87050 91800 333 10151 20123=
07020,1999-05-25 00:00:00,13,1021.6,-0.2,88,11,0,22.224,,,280,,,,,,,,,,,wg-a,,,,AAXX 25004 07020 32/// /2812 10130 20110 30199 40216 57002 90000=
07020,1999-05-25 06:00:00,12,1022.3,0.6,82,9,500,29.632,,,310,11.2,13.3,,,,,,,,,wg-a,,,,AAXX 25064 07020 32600 63116 10120 20090 30206 40223 53006 81170 90600 333 10133 20112=
07020,1999-05-25 12:00:00,15,1022.9,-0.2,67,9,20000,14.816,,,290,,,,,,,,,,,wg-a,,,,AAXX 25124 07020 32670 42908 10150 20090 30212 40229 58002 82301 91200=
07020,1999-05-25 18:00:00,14,1021.7,-0.9,72,9,20000,14.816,,,250,11.7,15.5,,,,,,,,,wg-a,,,,AAXX 25184 07020 32/70 22508 10140 20090 30200 40217 58009 80001 91800 333 10155 20117=
07020,1999-05-26 00:00:00,9,1021.1,-0.6,87,7,0,7.408,,,240,,,,,,,,,,,wg-a,,,,AAXX 26004 07020 32/// /2404 10090 20070 30194 40211 58006 90000=
07020,1999-05-26 06:00:00,11,1019.8,-0.1,87,9,20000,7.408,,,200,8.3,14.3,,,,,,,,,wg-a,,,,AAXX 26064 07020 32/70 32004 10110 20090 30181 40198 55001 80001 90600 333 10143 20083=
07020,1999-05-26 12:00:00,15,1019.7,-0.5,67,9,20000,7.408,,,30,,,,,,,,,,,wg-a,,,,AAXX 26124 07020 32/70 00304 10150 20090 30180 40197 58005 80000 91200=
07020,1999-05-26 18:00:00,14,1017.6,-0.9,77,10,20000,22.224,,,100,10.9,16.8,,,,,,,,,wg-a,,,,AAXX 26184 07020 32/70 01012 10140 20100 30159 40176 58009 80000 91800 333 10168 20109=
07020,1999-05-27 00:00:00,12,1016.6,-0.7,94,11,0,25.928,,,110,,,,,,,,,,,wg-a,,,,AAXX 27004 07020 32/// /1114 10120 20110 30149 40166 58007 90000=
07020,1999-05-27 06:00:00,13,1013.7,-1.2,94,12,8000,25.928,,,100,11.6,14.5,,,,,,,,,wg-a,,,,AAXX 27064 07020 32/58 51014 10130 20120 30120 40137 56012 80005 90600 333 10145 20116=
07020,1999-05-27 12:00:00,15,1011.3,-0.3,82,12,10000,29.632,,,110,,,,,,,,,,,wg-a,,,,AAXX 27124 07020 32560 71116 10150 20120 30096 40113 56003 8517/ 91200=
07020,1999-05-27 18:00:00,16,1008.1,-1.3,82,13,10000,22.224,,,110,12.8,17.9,,,,,,,,2,wg-a,,,,AAXX 27184 07020 32560 61112 10160 20130 30064 40081 56013 70262 86300 91800 333 10179 20128=
07020,1999-05-28 00:00:00,14,1015.1,2.4,88,12,0,29.632,,,220,,,,,,,,,,,wg-a,,,,AAXX 28004 07020 32/// /2216 10140 20120 30134 40151 51024 90000=
07020,1999-05-28 06:00:00,14,1017.9,1.7,88,12,15000,31.484,,,210,13.7,20.5,,,,,,,,,wg-a,,,,AAXX 28064 07020 32665 82117 10140 20120 30162 40179 53017 883// 90600 333 10205 20137=
07020,1999-05-28 12:00:00,14,1,1.7,88,12,15000,31.484,,,210,13.7,20.5,,,,,,,,,wg-a,,,,AAXX 28124 07020 32665 82117 10140 20120 30162 53017 883// 91200 333 10205 20137=
07020,1999-05-28 18:00:00,17,1019.4,-0.8,72,12,500,22.224,,,110,14.2,19.9,,,,,,,,,wg-a,,,,AAXX 28184 07020 32/00 21112 10170 20120 30177 40194 56008 82080 91800 333 10199 20142=
07020,1999-05-29 00:00:00,13,1018.4,-1,88,11,0,25.928,,,120,,,,,,,,,,,wg-a,,,,AAXX 29004 07020 32/// /1214 10130 20110 30167 40184 58010 90000=
07020,1999-05-29 06:00:00,14,1014.9,-1.9,82,11,20000,31.484,,,100,12.7,16.9,,,,,,,,,wg-a,,,,AAXX 29064 07020 32570 41017 10140 20110 30132 40149 58019 84303 90600 333 10169 20127=
07020,1999-05-29 12:00:00,19,1012.9,-0,68,13,12000,22.224,,,100,,,,,,,,,,,wg-a,,,,AAXX 29124 07020 32662 61012 10190 20130 30113 40129 55000 82225 91200=
07020,1999-05-29 18:00:00,17,1012.2,0,77,13,500,11.112,,,100,13.8,20,,,,,,,,,wg-a,,,,AAXX 29184 07020 32500 31006 10170 20130 30105 40122 50000 83600 91800 333 10200 20138=
07020,1999-05-30 00:00:00,14,1014.4,0.1,88,12,0,18.52,,,240,,,,,,,,,,,wg-a,,,,AAXX 30004 07020 32/// /2410 10140 20120 30127 40144 53001 90000=
07020,1999-05-30 06:00:00,13,1013.9,0.4,100,13,2000,11.112,,,250,12.1,18.4,,,,,,,,10,wg-a,,,,AAXX 30064 07020 32420 82506 10130 20130 30122 40139 52004 710// 886// 90600 333 10184 20121=
07020,1999-05-30 12:00:00,14,1016.6,1.2,94,13,500,7.408,,,260,,,,,,,,,,45,wg-a,,,,AAXX 30124 07020 32/05 92604 10140 20130 30149 40166 53012 74542 89/// 91200=
07020,1999-05-30 18:00:00,14,1018.1,1,94,13,1500,11.112,,,80,12.7,15.8,,,,,,,,10,wg-a,,,,AAXX 30184 07020 32415 80806 10140 20130 30164 40181 53010 71042 886// 91800 333 10158 20127=
07020,1999-05-31 00:00:00,13,1020.6,1.1,94,12,0,14.816,,,140,,,,,,,,,,,wg-a,,,,AAXX 31004 07020 32/// /1408 10130 20120 30189 40206 51011 90000=
07020,1999-05-31 06:00:00,13,1022.1,1.1,94,12,8000,11.112,,,110,12.7,14.3,,,,,,,,,wg-a,,,,AAXX 31064 07020 32458 81106 10130 20120 30204 40221 53011 8462/ 90600 333 10143 20127=
07020,1999-05-31 12:00:00,15,1023,-0,82,12,8000,25.928,,,80,,,,,,,,,,,wg-a,,,,AAXX 31124 07020 32858 70814 10150 20120 30213 40230 54000 8702/ 91200=
07020,1999-05-31 18:00:00,13,1021.2,-0.6,88,11,16000,31.484,,,80,12.9,16.1,,,,,,,,,wg-a,,,,AAXX 31184 07020 32/66 60817 10130 20110 30195 40212 58006 80005 91800 333 10161 20129=
07020,1999-06-01 00:00:00,13,1021.1,-0.4,88,11,0,31.484,,,90,,,,,,,,,,,wg-a,,,,AAXX 01004 07020 32/// /0917 10130 20110 30194 40211 58004 90000=
07020,1999-06-01 06:00:00,13,1019.3,-0.4,94,12,10000,31.484,,,90,12.2,13.4,,,,,,,,,wg-a,,,,AAXX 01064 07020 32/60 40917 10130 20120 30176 40193 56004 84050 90600 333 10134 20122=
07020,1999-06-01 12:00:00,15,1018.2,-0.4,82,12,12000,35.188,,,90,,,,,,,,,,,wg-a,,,,AAXX 01124 07020 32/62 20919 10150 20120 30165 40182 55004 80008 91200=
07020,1999-06-01 18:00:00,15,1013,-2.3,82,12,8000,31.484,,,100,13,16.8,,,,,,,,,wg-a,,,,AAXX 01184 07020 32658 81017 10150 20120 30113 40130 58023 86220 91800 333 10168 20130=
07020,1999-06-02 00:00:00,15,1008.3,-1.7,88,13,0,25.928,,,110,,,,,,,,,,,wg-a,,,,AAXX 02004 07020 32/// /1114 10150 20130 30066 40083 58017 90000=
07020,1999-06-02 06:00:00,17,1004.2,-1.4,94,16,8000,25.928,,,190,14.1,17.9,,,,,,,,,wg-a,,,,AAXX 02064 07020 32/58 41914 10170 20160 30026 40042 56014 82038 90600 333 10179 20141=
07020,1999-06-02 12:00:00,14,1003.5,-0.7,94,13,6000,50.004,,68.524,240,,,,,,,,,,61,wg-a,,,,AAXX 02124 07020 02556 82427 10140 20130 30018 40035 55007 61000 76182 887// 91200 333 //// 91037=
07020,1999-06-02 18:00:00,14,1009.3,2.3,82,11,12000,61.116,,87.044,250,13.7,18.6,,,,,,,,1,wg-a,,,,AAXX 02184 07020 32662 42533 10140 20110 30076 40093 51023 70161 81105 91800 333 10186 20137 91047=
07020,1999-06-03 00:00:00,13,1010.7,-0.4,88,11,0,29.632,,,220,,,,,,,,,,,wg-a,,,,AAXX 03004 07020 32/// /2216 10130 20110 30090 40107 58004 90000=
07020,1999-06-03 06:00:00,13,1007.4,-1.5,94,12,6000,35.188,,64.82,190,13,14.1,,0,,,,,,,wg-a,,,,AAXX 03064 07020 12556 81919 10130 20120 30057 40074 57015 60007 887// 90600 333 10141 20130 91035=
07020,1999-06-03 12:00:00,13,1005.9,-0.3,94,12,22000,22.224,,72.228,200,,,,,,,,,,21,wg-a,,,,AAXX 03124 07020 02572 62012 10130 20120 30042 40059 58003 61000 72162 86700 91200 333 //// 91039=
07020,1999-06-03 18:00:00,14,1005.4,-0.4,88,12,22000,31.484,,,230,12.4,16.7,,,,,,,,,wg-a,,,,AAXX 03184 07020 32672 72317 10140 20120 30037 40054 58004 85520 91800 333 10167 20124=
07020,1999-06-04 00:00:00,13,1009.1,1.5,94,12,0,35.188,,,260,,,,,,,,,,,wg-a,,,,AAXX 04004 07020 32/// /2619 10130 20120 30074 40091 51015 90000=
07020,1999-06-04 06:00:00,13,1007.4,-1.2,94,12,4000,42.596,,,230,12.6,14,,,,,,,,,wg-a,,,,AAXX 04064 07020 32540 82323 10130 20120 30057 40074 56012 887// 90600 333 10140 20126=
07020,1999-06-04 12:00:00,15,1009.3,0.3,82,12,10000,38.892,,,250,,,,,,,,,,2,wg-a,,,,AAXX 04124 07020 32660 72521 10150 20120 30076 40093 53003 70262 8127/ 91200=
07020,1999-06-04 18:00:00,14,1007.7,-1,72,9,22000,42.596,,,260,13,16.1,,,,,,,,,wg-a,,,,AAXX 04184 07020 32672 72623 10140 20090 30060 40077 57010 8127/ 91800 333 10161 20130=
07020,1999-06-05 00:00:00,10,1005.2,-1.4,87,8,0,18.52,,,280,,,,,,,,,,,wg-a,,,,AAXX 05004 07020 32/// /2810 10100 20080 30035 40052 56014 90000=
07020,1999-06-05 06:00:00,12,1002.3,-0.6,82,9,500,35.188,,,240,9.4,13.5,,,,,,,,,wg-a,,,,AAXX 05064 07020 32500 52419 10120 20090 30006 40023 57006 83930 90600 333 10135 20094=
07020,1999-06-05 12:00:00,14,999.7,-1.8,72,9,15000,38.892,,64.82,190,,,,,,,,,,3,wg-a,,,,AAXX 05124 07020 32565 81921 10140 20090 39980 49997 58018 70382 883// 91200 333 91035=
07020,1999-06-05 18:00:00,12,997.4,-1.2,88,10,15000,31.484,,90.748,200,10.5,15.7,,,,,,,,2,wg-a,,,,AAXX 05184 07020 02565 82017 10120 20100 39957 49974 58012 61000 70282 8/96/ 91800 333 10157 20105 //// 91049=
07020,1999-06-06 00:00:00,11,997.4,-0,94,10,0,18.52,,,270,,,,,,,,,,,wg-a,,,,AAXX 06004 07020 32/// /2710 10110 20100 39957 49974 55000 90000=
07020,1999-06-06 06:00:00,12,1003.3,3.8,76,8,20000,46.3,,,300,10.1,12.5,,,,,,,,,wg-a,,,,AAXX 06064 07020 32670 63025 10120 20080 30016 40033 52038 86271 90600 333 10125 20101=
07020,1999-06-06 12:00:00,16,1008,1.7,77,12,22000,29.632,,,260,,,,,,,,,,,wg-a,,,,AAXX 06124 07020 32672 22616 10160 20120 30063 40080 51017 82200 91200=
07020,1999-06-06 18:00:00,14,1009,0.3,77,10,500,18.52,,,220,11.7,16.7,,,,,,,,,wg-a,,,,AAXX 06184 07020 32800 72210 10140 20100 30073 40090 53003 8705/ 91800 333 10167 20117=
07020,1999-06-07 00:00:00,12,1009.7,0,94,11,0,25.928,,,240,,,,,,,,,,,wg-a,,,,AAXX 07004 07020 32/// /2414 10120 20110 30080 40097 50000 90000=
07020,1999-06-07 06:00:00,13,1009.6,0.3,88,11,500,22.224,,,260,11.7,14,,,,,,,,,wg-a,,,,AAXX 07064 07020 32600 72612 10130 20110 30079 40096 53003 8327/ 90600 333 10140 20117=
07020,1999-06-07 12:00:00,15,1011.7,0.9,67,9,500,18.52,,,290,,,,,,,,,,,wg-a,,,,AAXX 07124 07020 32600 62910 10150 20090 30100 40117 51009 82250 91200=
07020,1999-06-07 18:00:00,14,1013.9,1.1,67,8,500,25.928,,,280,12.6,15.2,,,,,,,,,wg-a,,,,AAXX 07184 07020 32600 52814 10140 20080 30122 40139 53011 82251 91800 333 10152 20126=
07020,1999-06-08 00:00:00,12,1017.6,1.5,67,6,0,38.892,,,300,,,,,,,,,,,wg-a,,,,AAXX 08004 07020 32/// /3021 10120 20060 30159 40176 53015 90000=
07020,1999-06-08 06:00:00,12,1020.5,1.7,71,7,500,25.928,,68.524,290,10.5,14.5,,,,,,,,,wg-a,,,,AAXX 08064 07020 32600 42914 10120 20070 30188 40205 53017 84100 90600 333 10145 20105 91037=
07020,1999-06-08 12:00:00,15,1023.5,1.3,67,9,500,29.632,,,260,,,,,,,,,,,wg-a,,,,AAXX 08124 07020 32500 72616 10150 20090 30218 40235 51013 8525/ 91200=
07020,1999-06-08 18:00:00,13,1024.5,0.1,72,8,500,22.224,,,270,12.2,15.7,,,,,,,,,wg-a,,,,AAXX 08184 07020 32600 72712 10130 20080 30228 40245 53001 8457/ 91800 333 10157 20122=
07020,1999-06-09 00:00:00,12,1025.4,-0.2,88,10,0,11.112,,,260,,,,,,,,,,,wg-a,,,,AAXX 09004 07020 32/// /2606 10120 20100 30237 40254 58002 90000=
07020,1999-06-09 06:00:00,12,1024.7,0.1,94,11,25000,22.224,,,240,11.6,13.2,,,,,,,,,wg-a,,,,AAXX 09064 07020 32575 82412 10120 20110 30230 40247 53001 887// 90600 333 10132 20116=
07020,1999-06-09 12:00:00,14,1025.4,0.2,88,12,20000,14.816,,,240,,,,,,,,,,,wg-a,,,,AAXX 09124 07020 32570 82408 10140 20120 30237 40254 53002 887// 91200=
07020,1999-06-09 18:00:00,13,1025,-0.5,94,12,20000,11.112,,,90,12.2,14.6,,,,,,,,,wg-a,,,,AAXX 09184 07020 32570 80906 10130 20120 30233 40250 56005 887// 91800 333 10146 20122=
07020,1999-06-10 00:00:00,12,1026.8,0.6,94,11,0,7.408,,,10,,,,,,,,,,,wg-a,,,,AAXX 10004 07020 32/// /0104 10120 20110 30251 40268 51006 90000=
07020,1999-06-10 06:00:00,13,1026.3,-0,88,11,26000,7.408,,,50,10.1,14.3,,0,,,,,,,wg-a,,,,AAXX 10064 07020 12676 20504 10130 20110 30246 40263 55000 60007 81130 90600 333 10143 20101=
07020,1999-06-10 12:00:00,18,1027.7,-0.2,59,10,25000,14.816,,,60,,,,,,,,,,,wg-a,,,,AAXX 10124 07020 32675 30608 10180 20100 30260 40277 58002 81102 91200=
07020,1999-06-10 18:00:00,16,1027,-0.5,77,12,22000,18.52,,,330,12.5,18,,,,,,,,,wg-a,,,,AAXX 10184 07020 32/72 43310 10160 20120 30253 40270 56005 83055 91800 333 10180 20125=
07020,1999-06-11 00:00:00,13,1027.1,-0.3,88,11,0,11.112,,,350,,,,,,,,,,,wg-a,,,,AAXX 11004 07020 32/// /3506 10130 20110 30254 40271 58003 90000=
07020,1999-06-11 06:00:00,13,1026.2,-0,88,11,18000,22.224,,,50,12.7,16.4,,,,,,,,,wg-a,,,,AAXX 11064 07020 32/68 00512 10130 20110 30245 40262 55000 80000 90600 333 10164 20127=
07020,1999-06-11 12:00:00,18,1026.4,-0.3,68,12,14000,14.816,,,50,,,,,,,,,,,wg-a,,,,AAXX 11124 07020 32664 10508 10180 20120 30247 40264 58003 81100 91200=
07020,1999-06-11 18:00:00,15,1024.6,-1.4,82,12,16000,11.112,,,20,13.2,18.6,,,,,,,,,wg-a,,,,AAXX 11184 07020 32/66 30206 10150 20120 30229 40246 56014 83050 91800 333 10186 20132=
07020,1999-06-12 00:00:00,11,1024.2,-0.7,82,8,0,3.704,,,130,,,,,,,,,,,wg-a,,,,AAXX 12004 07020 32/// /1302 10110 20080 30225 40242 58007 90000=
07020,1999-06-12 12:00:00,15,1022.3,-0.3,63,8,40000,11.112,,,20,,,,,,,,,,,wg-a,,,,AAXX 12124 07020 32882 70206 10150 20080 30206 40223 56003 8702/ 91200=
07020,1999-06-12 18:00:00,14,1021.9,-0.6,77,10,40000,29.632,,,300,11.9,16.2,,,,,,,,,wg-a,,,,AAXX 12184 07020 32/82 63016 10140 20100 30202 40219 56006 86070 91800 333 10162 20119=
07020,1999-06-13 00:00:00,13,1022.5,0.3,88,11,0,22.224,,,330,,,,,,,,,,,wg-a,,,,AAXX 13004 07020 32/// /3312 10130 20110 30208 40225 51003 90000=
07020,1999-06-13 06:00:00,13,1022.6,0.5,88,11,18000,25.928,,,350,12.5,14.4,,,,,,,,,wg-a,,,,AAXX 13064 07020 32668 23514 10130 20110 30209 40226 53005 81105 90600 333 10144 20125=
07020,1999-06-13 12:00:00,16,1025,1.2,77,12,16000,14.816,,,350,,,,,,,,,,,wg-a,,,,AAXX 13124 07020 32666 33508 10160 20120 30233 40250 52012 81101 91200=
07020,1999-06-13 18:00:00,15,1024.8,-0.2,77,11,18000,14.816,,,270,13,17.9,,,,,,,,,wg-a,,,,AAXX 13184 07020 32/68 72708 10150 20110 30231 40248 57002 87070 91800 333 10179 20130=
07020,1999-06-14 00:00:00,14,1025.7,0.2,82,11,0,3.704,,,70,,,,,,,,,,,wg-a,,,,AAXX 14004 07020 32/// /0702 10140 20110 30240 40257 53002 90000=
07020,1999-06-14 06:00:00,14,1025.5,0.1,88,12,14000,3.704,,,310,11.1,15,,,,,,,,,wg-a,,,,AAXX 14064 07020 32/64 33102 10140 20120 30238 40255 53001 80005 90600 333 10150 20111=
07020,1999-06-14 12:00:00,17,1026.7,0.1,77,13,15000,7.408,,,330,,,,,,,,,,,wg-a,,,,AAXX 14124 07020 32/65 53304 10170 20130 30250 40267 50001 80005 91200=
07020,1999-06-14 18:00:00,15,1026.2,-0.3,82,12,10000,18.52,,,300,13.5,18.5,,,,,,,,,wg-a,,,,AAXX 14184 07020 32/60 73010 10150 20120 30245 40262 55003 85555 91800 333 10185 20135=
07020,1999-06-15 00:00:00,13,1027,0.3,88,11,0,0,,,0,,,,,,,,,,,wg-a,,,,AAXX 15004 07020 32/// /0000 10130 20110 30253 40270 50003 90000=
07020,1999-06-15 06:00:00,14,1027.4,0.4,82,11,20000,11.112,,,80,12.4,16,,,,,,,,,wg-a,,,,AAXX 15064 07020 32/70 20806 10140 20110 30257 40274 53004 80008 90600 333 10160 20124=
07020,1999-06-15 12:00:00,17,1028.1,0.1,77,13,500,11.112,,,30,,,,,,,,,,,wg-a,,,,AAXX 15124 07020 32/00 20306 10170 20130 30264 40281 53001 80001 91200=
07020,1999-06-15 18:00:00,17,1026.1,-0.9,68,11,22000,11.112,,,80,14.1,19.6,,,,,,,,,wg-a,,,,AAXX 15184 07020 32/72 10806 10170 20110 30244 40261 56009 80001 91800 333 10196 20141=
07020,1999-06-16 00:00:00,13,1025.5,-0.8,72,8,0,14.816,,,120,,,,,,,,,,,wg-a,,,,AAXX 16004 07020 32/// /1208 10130 20080 30238 40255 56008 90000=
07020,1999-06-16 06:00:00,14,1024.5,-0.2,82,11,20000,7.408,,,90,11.6,17.2,,,,,,,,,wg-a,,,,AAXX 16064 07020 32/70 20904 10140 20110 30228 40245 56002 80001 90600 333 10172 20116=
07020,1999-06-16 12:00:00,17,1024.1,-0.4,77,13,24000,18.52,,,90,,,,,,,,,,,wg-a,,,,AAXX 16124 07020 32674 50910 10170 20130 30224 40241 56004 81105 91200=
07020,1999-06-16 18:00:00,18,1022.8,-0.6,73,13,18000,18.52,,,100,13.6,19,,,,,,,,,wg-a,,,,AAXX 16184 07020 32/68 61010 10180 20130 30211 40228 55006 80005 91800 333 10190 20136=
07020,1999-06-17 00:00:00,14,1023.7,0.6,82,11,0,7.408,,,340,,,,,,,,,,,wg-a,,,,AAXX 17004 07020 32/// /3404 10140 20110 30220 40237 50006 90000=
07020,1999-06-17 06:00:00,14,1023.5,0.5,88,12,20000,3.704,,,60,12.9,18.4,,,,,,,,,wg-a,,,,AAXX 17064 07020 32/70 50602 10140 20120 30218 40235 52005 80005 90600 333 10184 20129=
07020,1999-06-17 12:00:00,17,1025.5,0.6,72,12,500,14.816,,,280,,,,,,,,,,,wg-a,,,,AAXX 17124 07020 32800 62808 10170 20120 30238 40255 52006 83055 91200=
07020,1999-06-17 18:00:00,16,1024.9,-0.4,82,13,500,14.816,,,250,14,17.8,,,,,,,,,wg-a,,,,AAXX 17184 07020 32/00 62508 10160 20130 30232 40249 55004 80006 91800 333 10178 20140=
07020,1999-06-18 00:00:00,15,1025.3,0,88,13,0,11.112,,,330,,,,,,,,,,,wg-a,,,,AAXX 18004 07020 32/// /3306 10150 20130 30236 40253 50000 90000=
07020,1999-06-18 06:00:00,14,1025.6,0.5,94,13,22000,7.408,,,90,11.8,16.2,,,,,,,,,wg-a,,,,AAXX 18064 07020 32872 30904 10140 20130 30239 40256 53005 82038 90600 333 10162 20118=
07020,1999-06-18 12:00:00,17,1026.3,-0.1,77,13,20000,14.816,,,90,,,,,,,,,,,wg-a,,,,AAXX 18124 07020 32670 50908 10170 20130 30246 40263 58001 84218 91200=
07020,1999-06-18 18:00:00,19,1025.2,-0.5,60,11,20000,14.816,,,110,13.9,18.5,,,,,,,,,wg-a,,,,AAXX 18184 07020 32/70 01108 10190 20110 30235 40252 58005 80000 91800 333 10185 20139=
07020,1999-06-19 00:00:00,13,1025.6,0.4,88,11,0,7.408,,,260,,,,,,,,,,,wg-a,,,,AAXX 19004 07020 32/// /2604 10130 20110 30239 40256 52004 90000=
07020,1999-06-19 06:00:00,14,1024.8,0.2,94,13,20000,14.816,,,250,10.9,18.7,,,,,,,,,wg-a,,,,AAXX 19064 07020 32/70 02508 10140 20130 30231 40248 53002 80000 90600 333 10187 20109=
07020,1999-06-19 12:00:00,18,1024.4,-0.6,77,14,20000,18.52,,,260,,,,,,,,,,,wg-a,,,,AAXX 19124 07020 32/70 32610 10180 20140 30227 40244 56006 80008 91200=
07020,1999-06-19 18:00:00,16,1021.5,-1.7,88,14,24000,25.928,,,260,14,18.8,,,,,,,,,wg-a,,,,AAXX 19184 07020 32874 72614 10160 20140 30198 40215 56017 8705/ 91800 333 10188 20140=
07020,1999-06-20 00:00:00,15,1019.3,-1.9,94,14,0,38.892,,,250,,,,,,,,,,,wg-a,,,,AAXX 20004 07020 32/// /2521 10150 20140 30176 40193 58019 90000=
07020,1999-06-20 06:00:00,15,1016.4,-1.3,94,14,6000,35.188,,,260,14.4,15.7,,1,,,,,,61,wg-a,,,,AAXX 20064 07020 12556 82619 10150 20140 30147 40164 57013 60017 761// 8472/ 90600 333 10157 20144=
07020,1999-06-20 12:00:00,16,1016.6,0.8,77,12,20000,25.928,,,290,,,,,,,,,,1,wg-a,,,,AAXX 20124 07020 02670 32914 10160 20120 30149 40166 53008 61000 70161 82220 91200 333 ////=
07020,1999-06-20 18:00:00,15,1017.2,0.1,67,9,20000,25.928,,,300,14.4,16.8,,,,,,,,,wg-a,,,,AAXX 20184 07020 32670 73014 10150 20090 30155 40172 53001 85431 91800 333 10168 20144=
07020,1999-06-21 00:00:00,14,1018.2,0.2,72,9,0,46.3,,,320,,,,,,,,,,,wg-a,,,,AAXX 21004 07020 32/// /3225 10140 20090 30165 40182 51002 90000=
07020,1999-06-21 06:00:00,13,1019.7,1.5,77,9,20000,35.188,,,340,13,15.4,,,,,,,,,wg-a,,,,AAXX 21064 07020 32670 53419 10130 20090 30180 40197 52015 85400 90600 333 10154 20130=
07020,1999-06-21 12:00:00,16,1022.4,1.1,63,9,500,29.632,,,310,,,,,,,,,,,wg-a,,,,AAXX 21124 07020 32600 43116 10160 20090 30207 40224 51011 84200 91200=
07020,1999-06-21 18:00:00,16,1023,0.2,63,9,500,25.928,,,310,13.1,17,,,,,,,,,wg-a,,,,AAXX 21184 07020 32/00 03114 10160 20090 30213 40230 53002 80000 91800 333 10170 20131=
07020,1999-06-22 00:00:00,14,1024.2,0.3,72,9,0,29.632,,,350,,,,,,,,,,,wg-a,,,,AAXX 22004 07020 32/// /3516 10140 20090 30225 40242 52003 90000=
07020,1999-06-22 06:00:00,13,1024.5,0.6,72,8,500,14.816,,,30,12.8,16.4,,,,,,,,,wg-a,,,,AAXX 22064 07020 32/00 00308 10130 20080 30228 40245 53006 80000 90600 333 10164 20128=
07020,1999-06-22 12:00:00,16,1024.6,0,59,8,40000,14.816,,,290,,,,,,,,,,,wg-a,,,,AAXX 22124 07020 32782 12908 10160 20080 30229 40246 50000 81200 91200=
07020,1999-06-22 18:00:00,17,1023,-1.1,63,10,40000,14.816,,,300,13.1,17.4,,,,,,,,,wg-a,,,,AAXX 22184 07020 32/82 03008 10170 20100 30213 40230 58011 80000 91800 333 10174 20131=
07020,1999-06-23 00:00:00,11,1022.9,-0.2,87,9,0,7.408,,,200,,,,,,,,,,,wg-a,,,,AAXX 23004 07020 32/// /2004 10110 20090 30212 40229 58002 90000=
07020,1999-06-23 06:00:00,13,1022.4,0.3,88,11,35000,3.704,,,210,10.5,17.2,,,,,,,,,wg-a,,,,AAXX 23064 07020 32/81 22102 10130 20110 30207 40224 53003 80008 90600 333 10172 20105=
07020,1999-06-23 12:00:00,17,1023.5,0.4,63,10,25000,7.408,,,20,,,,,,,,,,,wg-a,,,,AAXX 23124 07020 32675 20204 10170 20100 30218 40235 53004 82100 91200=
07020,1999-06-23 18:00:00,17,1023.8,0.4,68,11,500,18.52,,,70,12.9,20,,,,,,,,,wg-a,,,,AAXX 23184 07020 32/00 00710 10170 20110 30221 40238 53004 80000 91800 333 10200 20129=
07020,1999-06-24 00:00:00,13,1025,0.6,82,10,0,11.112,,,90,,,,,,,,,,,wg-a,,,,AAXX 24004 07020 32/// /0906 10130 20100 30233 40250 53006 90000=
07020,1999-06-24 06:00:00,14,1024.7,0.2,82,11,500,18.52,,,90,10.7,16.6,,,,,,,,,wg-a,,,,AAXX 24064 07020 32/00 00910 10140 20110 30230 40247 53002 80000 90600 333 10166 20107=
07020,1999-06-24 12:00:00,18,1024.5,-0.5,73,13,500,25.928,,,80,,,,,,,,,,,wg-a,,,,AAXX 24124 07020 32/00 30814 10180 20130 30228 40245 58005 80001 91200=
07020,1999-06-24 18:00:00,18,1023,-0.8,68,12,10000,22.224,,,110,13.8,19.4,,,,,,,,,wg-a,,,,AAXX 24184 07020 32/60 01112 10180 20120 30213 40230 56008 80000 91800 333 10194 20138=
07020,1999-06-25 00:00:00,15,1022.3,-0.4,88,13,0,22.224,,,110,,,,,,,,,,,wg-a,,,,AAXX 25004 07020 32/// /1112 10150 20130 30206 40223 58004 90000=
07020,1999-06-25 06:00:00,15,1020.9,-0.2,88,13,8000,29.632,,,100,14.7,17.9,,,,,,,,,wg-a,,,,AAXX 25064 07020 32/58 01016 10150 20130 30192 40209 55002 80000 90600 333 10179 20147=
07020,1999-06-25 12:00:00,18,1019.9,-0.5,68,12,20000,31.484,,,90,,,,,,,,,,,wg-a,,,,AAXX 25124 07020 32/70 00917 10180 20120 30182 40199 58005 80000 91200=
07020,1999-06-25 18:00:00,17,1015.6,-3.4,77,13,16000,31.484,,,100,15.1,17.9,,,,,,,,,wg-a,,,,AAXX 25184 07020 32/66 41017 10170 20130 30139 40156 58034 80005 91800 333 10179 20151=
07020,1999-06-26 00:00:00,15,1013.2,-1.7,94,14,0,25.928,,,100,,,,,,,,,,,wg-a,,,,AAXX 26004 07020 32/// /1014 10150 20140 30115 40132 57017 90000=
07020,1999-06-26 06:00:00,16,1007.7,-2.2,82,13,12000,18.52,,,110,14.5,16.7,,,,,,,,,wg-a,,,,AAXX 26064 07020 32/62 21110 10160 20130 30060 40077 56022 80008 90600 333 10167 20145=
07020,1999-06-26 18:00:00,17,1004.9,-1.1,82,14,6000,14.816,,,220,16,22.4,,,,,,,,,wg-a,,,,AAXX 26184 07020 32856 82208 10170 20140 30033 40049 56011 88070 91800 333 10224 20160=
07020,1999-06-27 00:00:00,16,1003.3,-1.1,88,14,0,22.224,,,210,,,,,,,,,,,wg-a,,,,AAXX 27004 07020 32/// /2112 10160 20140 30017 40033 57011 90000=
07020,1999-06-27 06:00:00,15,1000.4,-0.7,94,14,8000,22.224,,,210,14.8,16.9,,1,,,,,,,wg-a,,,,AAXX 27064 07020 12558 82112 10150 20140 39988 40004 58007 60017 85220 90600 333 10169 20148=
07020,1999-06-27 12:00:00,16,1003,1.7,68,10,40000,31.484,,,270,,,,,,,,,,1,wg-a,,,,AAXX 27124 07020 32682 32717 10160 20100 30014 40030 52017 70162 81230 91200=
07020,1999-06-27 18:00:00,16,1005.3,0.8,72,11,500,38.892,,,260,13.7,17.3,,,,,,,,,wg-a,,,,AAXX 27184 07020 32600 32621 10160 20110 30036 40053 51008 81240 91800 333 10173 20137=
07020,1999-06-28 00:00:00,13,1007.6,0.7,77,9,0,31.484,,,250,,,,0,,,,,,,wg-a,,,,AAXX 28004 07020 12/// /2517 10130 20090 30059 40076 51007 60007 90000=
07020,1999-06-28 06:00:00,14,1009.4,1.5,72,9,500,38.892,,75.932,260,12.2,15.9,,,,,,,,,wg-a,,,,AAXX 28064 07020 32600 62621 10140 20090 30077 40094 53015 82270 90600 333 10159 20122 91041=
07020,1999-06-28 12:00:00,16,1011.6,0.6,77,12,20000,35.188,,,230,,,,,,,,,,,wg-a,,,,AAXX 28124 07020 32670 82319 10160 20120 30099 40116 51006 8/42/ 91200=
07020,1999-06-28 18:00:00,15,1011.4,-0.1,94,14,10000,25.928,,61.116,220,13.6,16.2,,0,,,,,,60,wg-a,,,,AAXX 28184 07020 12660 82214 10150 20140 30097 40114 57001 60007 76062 884// 91800 333 10162 20136 91033=
07020,1999-06-29 00:00:00,15,1009.7,-0.8,100,15,0,46.3,,,220,,,,4,,,,,,,wg-a,,,,AAXX 29004 07020 12/// /2225 10150 20150 30080 40097 56008 60047 90000=
07020,1999-06-29 06:00:00,16,1009.9,0.6,94,15,500,38.892,,,220,14.5,15.9,,,,,,,,,wg-a,,,,AAXX 29064 07020 02500 82221 10160 20150 30082 40099 53006 61000 884// 90600 333 10159 20145 ////=
07020,1999-06-29 12:00:00,16,1013,1.6,94,15,6000,35.188,,,240,,,,0,,,,,,2,wg-a,,,,AAXX 29124 07020 12556 82419 10160 20150 30113 40130 51016 60007 70252 887// 91200=
07020,1999-06-29 18:00:00,16,1014,0.6,94,15,12000,25.928,,,260,15.5,18.3,,,,,,,,,wg-a,,,,AAXX 29184 07020 32562 72614 10160 20150 30123 40140 53006 876// 91800 333 10183 20155=
07020,1999-06-30 00:00:00,15,1017.2,1.7,88,13,0,25.928,,,310,,,,,,,,,,,wg-a,,,,AAXX 30004 07020 32/// /3114 10150 20130 30155 40172 51017 90000=
07020,1999-06-30 06:00:00,14,1019.7,1.4,88,12,25000,25.928,,,280,13.8,16.4,,,,,,,,,wg-a,,,,AAXX 30064 07020 32675 32814 10140 20120 30180 40197 52014 81105 90600 333 10164 20138=
07020,1999-06-30 12:00:00,17,1022,0.7,77,13,500,29.632,,,270,,,,,,,,,,,wg-a,,,,AAXX 30124 07020 32600 52716 10170 20130 30203 40220 51007 82105 91200=
07020,1999-06-30 18:00:00,16,1021.7,-0.7,72,11,500,25.928,,,260,14.2,18.3,,,,,,,,,wg-a,,,,AAXX 30184 07020 32600 72614 10160 20110 30200 40217 58007 81145 91800 333 10183 20142=
07020,1999-07-01 00:00:00,14,1019.8,-1.6,88,12,0,18.52,,,200,,,,,,,,,,,wg-a,,,,AAXX 01004 07020 32/// /2010 10140 20120 30181 40198 58016 90000=
07020,1999-07-01 06:00:00,15,1017.6,-0.1,100,15,6000,31.484,,53.708,250,13.7,16.5,,1,,,,,,61,wg-a,,,,AAXX 01064 07020 12556 82517 10150 20150 30159 40176 55001 60017 761// 8472/ 90600 333 10165 20137 91029=
07020,1999-07-01 12:00:00,19,1018.7,0.4,78,15,24000,35.188,,,250,,,,,,,,,,1,wg-a,,,,AAXX 01124 07020 32874 42519 10190 20150 30170 40187 51004 70162 81075 91200=
07020,1999-07-01 18:00:00,17,1018,-0.6,82,14,20000,22.224,,,240,15.1,19.3,,,,,,,,,wg-a,,,,AAXX 01184 07020 32870 62412 10170 20140 30163 40180 56006 81045 91800 333 10193 20151=
07020,1999-07-02 00:00:00,15,1017.7,-0.5,94,14,0,18.52,,,240,,,,,,,,,,,wg-a,,,,AAXX 02004 07020 32/// /2410 10150 20140 30160 40177 57005 90000=
07020,1999-07-02 06:00:00,16,1016.1,-0.4,94,15,16000,11.112,,,120,14.5,16.6,,,,,,,,,wg-a,,,,AAXX 02064 07020 32666 81206 10160 20150 30144 40161 56004 885// 90600 333 10166 20145=
07020,1999-07-02 12:00:00,19,1013.2,-2.1,78,15,16000,29.632,,,100,,,,,,,,,,,wg-a,,,,AAXX 02124 07020 32666 11016 10190 20150 30116 40132 56021 81100 91200=
07020,1999-07-02 18:00:00,18,1008.9,-2.1,88,16,12000,25.928,,,110,16,19.2,,0,,,,,,29,wg-a,,,,AAXX 02184 07020 12562 71114 10180 20160 30073 40089 58021 60007 72981 8537/ 91800 333 10192 20160=
07020,1999-07-03 00:00:00,16,1008.2,0.9,94,15,0,31.484,,,270,,,,,,,,,,,wg-a,,,,AAXX 03004 07020 32/// /2717 10160 20150 30065 40082 50009 90000=
07020,1999-07-03 06:00:00,15,1009.4,1.3,94,14,15000,35.188,,,260,15.1,19.8,,,,,,,,,wg-a,,,,AAXX 03064 07020 32665 82619 10150 20140 30077 40094 53013 885// 90600 333 10198 20151=
07020,1999-07-03 12:00:00,18,1011.5,0.7,83,15,20000,25.928,,,240,,,,,,,,,,,wg-a,,,,AAXX 03124 07020 32670 82414 10180 20150 30099 40115 53007 885// 91200=
07020,1999-07-03 18:00:00,18,1010.5,-0.5,77,14,20000,7.408,,,260,15.3,20.4,,,,,,,,,wg-a,,,,AAXX 03184 07020 32/70 72604 10180 20140 30089 40105 58005 86038 91800 333 10204 20153=
07020,1999-07-04 00:00:00,16,1011,-0.3,82,13,0,7.408,,,190,,,,,,,,,,,wg-a,,,,AAXX 04004 07020 32/// /1904 10160 20130 30093 40110 58003 90000=
07020,1999-07-04 06:00:00,16,1010,0,88,14,15000,22.224,,,200,15.7,18.4,,,,,,,,,wg-a,,,,AAXX 04064 07020 32665 82012 10160 20140 30083 40100 50000 884// 90600 333 10184 20157=
07020,1999-07-04 12:00:00,20,1009.4,-0.2,73,15,15000,22.224,,,210,,,,,,,,,,,wg-a,,,,AAXX 04124 07020 32665 62112 10200 20150 30078 40094 58002 83270 91200=
07020,1999-07-04 18:00:00,18,1008.4,-0.4,83,15,20000,7.408,,,160,16.3,20.7,,,,,,,,25,wg-a,,,,AAXX 04184 07020 02670 71604 10180 20150 30068 40084 58004 61000 72582 8377/ 91800 333 10207 20163 ////=
07020,1999-07-05 00:00:00,16,1008.1,-0.7,94,15,0,11.112,,,220,,,,,,,,,,,wg-a,,,,AAXX 05004 07020 32/// /2206 10160 20150 30064 40081 55007 90000=
07020,1999-07-05 06:00:00,17,1008.1,0.2,88,15,15000,14.816,,,190,14.5,18,,,,,,,,,wg-a,,,,AAXX 05064 07020 32665 71908 10170 20150 30065 40081 53002 875// 90600 333 10180 20145=
07020,1999-07-05 12:00:00,20,1009.5,0.6,78,16,10000,22.224,,,210,,,,,,,,,,,wg-a,,,,AAXX 05124 07020 02660 82112 10200 20160 30079 40095 51006 61000 884// 91200 333 ////=
07020,1999-07-05 18:00:00,17,1010.6,0.6,88,15,10000,14.816,,,80,16.9,20.3,,,,,,,,,wg-a,,,,AAXX 05184 07020 32660 70808 10170 20150 30090 40106 53006 86268 91800 333 10203 20169=
07020,1999-07-06 00:00:00,15,1012.8,0.9,100,15,0,11.112,,,350,,,,,,,,,,,wg-a,,,,AAXX 06004 07020 32/// /3506 10150 20150 30111 40128 52009 90000=
07020,1999-07-06 06:00:00,15,1015,1.5,94,14,500,7.408,,,270,14.1,18.2,,,,,,,,,wg-a,,,,AAXX 06064 07020 32500 82704 10150 20140 30133 40150 53015 887// 90600 333 10182 20141=
07020,1999-07-06 12:00:00,17,1018.4,1.5,82,14,10000,14.816,,,280,,,,,,,,,,,wg-a,,,,AAXX 06124 07020 32560 82808 10170 20140 30167 40184 53015 887// 91200=
07020,1999-07-06 18:00:00,18,1020.4,0.9,83,15,18000,22.224,,,270,15.1,19.8,,,,,,,,,wg-a,,,,AAXX 06184 07020 32668 42712 10180 20150 30187 40204 51009 81105 91800 333 10198 20151=
07020,1999-07-07 00:00:00,16,1023.1,1.1,88,14,0,22.224,,,280,,,,,,,,,,,wg-a,,,,AAXX 07004 07020 32/// /2812 10160 20140 30214 40231 51011 90000=
07020,1999-07-07 06:00:00,16,1024.3,0.8,82,13,35000,18.52,,,290,15.5,18.1,,,,,,,,,wg-a,,,,AAXX 07064 07020 32681 72910 10160 20130 30226 40243 52008 875// 90600 333 10181 20155=
07020,1999-07-07 12:00:00,18,1026.9,0.8,77,14,35000,18.52,,,280,,,,,,,,,,,wg-a,,,,AAXX 07124 07020 32681 62810 10180 20140 30252 40269 53008 84570 91200=
07020,1999-07-07 18:00:00,18,1027.7,0.4,83,15,20000,14.816,,,260,15.8,19.5,,,,,,,,,wg-a,,,,AAXX 07184 07020 32670 62608 10180 20150 30260 40277 53004 82208 91800 333 10195 20158=
07020,1999-07-08 00:00:00,15,1028.9,0.3,100,15,0,11.112,,,250,,,,,,,,,,,wg-a,,,,AAXX 08004 07020 32/// /2506 10150 20150 30272 40289 50003 90000=
07020,1999-07-08 06:00:00,16,1029.7,0.5,94,15,20000,7.408,,,80,13.7,18.2,,,,,,,,,wg-a,,,,AAXX 08064 07020 32/70 60804 10160 20150 30280 40297 53005 80008 90600 333 10182 20137=
07020,1999-07-08 12:00:00,21,1030.5,0.1,69,15,12000,14.816,,,50,,,,,,,,,,,wg-a,,,,AAXX 08124 07020 32/62 40508 10210 20150 30288 40305 50001 80005 91200=
07020,1999-07-08 18:00:00,19,1029.2,-0.8,83,16,8000,11.112,,,70,15.6,21.1,,,,,,,,,wg-a,,,,AAXX 08184 07020 32/58 00706 10190 20160 30275 40292 57008 80000 91800 333 10211 20156=
07020,1999-07-09 00:00:00,16,1028.8,-0.2,88,14,0,11.112,,,100,,,,,,,,,,,wg-a,,,,AAXX 09004 07020 32/// /1006 10160 20140 30271 40288 58002 90000=
07020,1999-07-09 06:00:00,16,1028.1,-0.1,94,15,16000,14.816,,,90,14.6,19.2,,,,,,,,,wg-a,,,,AAXX 09064 07020 32/66 30908 10160 20150 30264 40281 56001 83030 90600 333 10192 20146=
07020,1999-07-09 12:00:00,17,1027,-0.8,88,15,900,29.632,,,90,,,,,,,,,,45,wg-a,,,,AAXX 09124 07020 32/09 90916 10170 20150 30253 40270 58008 74511 89/// 91200=
07020,1999-07-09 18:00:00,20,1024.6,-1.5,64,13,20000,22.224,,,110,16.1,20,,,,,,,,2,wg-a,,,,AAXX 09184 07020 32/70 01112 10200 20130 30229 40246 56015 70251 80000 91800 333 10200 20161=
07020,1999-07-10 00:00:00,16,1024.5,-0.4,82,13,0,22.224,,,120,,,,,,,,,,,wg-a,,,,AAXX 10004 07020 32/// /1212 10160 20130 30228 40245 58004 90000=
07020,1999-07-10 06:00:00,16,1023.6,0.4,88,14,20000,14.816,,,60,15.3,19.8,,,,,,,,,wg-a,,,,AAXX 10064 07020 32670 40608 10160 20140 30219 40236 53004 84500 90600 333 10198 20153=
07020,1999-07-10 12:00:00,20,1022.4,-0.7,73,15,8000,22.224,,,50,,,,,,,,,,,wg-a,,,,AAXX 10124 07020 32/58 30512 10200 20150 30207 40224 57007 83030 91200=
07020,1999-07-10 18:00:00,20,1021.3,-0.3,73,15,15000,18.52,,,40,15.9,21.6,,,,,,,,,wg-a,,,,AAXX 10184 07020 32/65 30410 10200 20150 30196 40213 56003 80005 91800 333 10216 20159=
07020,1999-07-11 00:00:00,17,1021.6,-0.4,77,13,0,14.816,,,90,,,,,,,,,,,wg-a,,,,AAXX 11004 07020 32/// /0908 10170 20130 30199 40216 58004 90000=
07020,1999-07-11 06:00:00,16,1020.4,-0.3,88,14,20000,29.632,,,50,15.3,20.2,,,,,,,,,wg-a,,,,AAXX 11064 07020 32/70 40516 10160 20140 30187 40204 57003 80008 90600 333 10202 20153=
07020,1999-07-11 12:00:00,20,1020.1,-0.4,73,15,20000,14.816,,,80,,,,,,,,,,,wg-a,,,,AAXX 11124 07020 32/70 20808 10200 20150 30184 40201 58004 8/030 91200=
07020,1999-07-11 18:00:00,21,1017.9,-1,73,16,15000,22.224,,,60,16.2,23,,,,,,,,,wg-a,,,,AAXX 11184 07020 32/65 00612 10210 20160 30163 40179 57010 80000 91800 333 10230 20162=
07020,1999-07-12 00:00:00,18,1018.3,-0.1,83,15,0,18.52,,,80,,,,,,,,,,,wg-a,,,,AAXX 12004 07020 32/// /0810 10180 20150 30166 40183 58001 90000=
07020,1999-07-12 06:00:00,16,1017,-0.1,94,15,15000,14.816,,,70,16,20.9,,,,,,,,,wg-a,,,,AAXX 12064 07020 32/65 30708 10160 20150 30153 40170 55001 83050 90600 333 10209 20160=
07020,1999-07-12 12:00:00,19,1016.5,-0.2,78,15,8000,14.816,,,70,,,,,,,,,,,wg-a,,,,AAXX 12124 07020 32/58 40708 10190 20150 30149 40165 58002 80008 91200=
07020,1999-07-12 18:00:00,20,1014,-1.1,73,15,6000,3.704,,,260,16.4,22.4,,,,,,,,,wg-a,,,,AAXX 12184 07020 32/56 02602 10200 20150 30124 40140 56011 80000 91800 333 10224 20164=
07020,1999-07-13 00:00:00,18,1013.7,-0.6,83,15,0,7.408,,,110,,,,,,,,,,,wg-a,,,,AAXX 13004 07020 32/// /1104 10180 20150 30120 40137 58006 90000=
07020,1999-07-13 06:00:00,16,1011.9,-0.3,94,15,6000,0,,,0,15.1,19.9,,,,,,,,,wg-a,,,,AAXX 13064 07020 32/56 00000 10160 20150 30102 40119 55003 80000 90600 333 10199 20151=
07020,1999-07-13 12:00:00,19,1011.2,-0.2,83,16,1500,25.928,,,220,,,,,,,,,,5,wg-a,,,,AAXX 13124 07020 32415 82214 10190 20160 30096 40112 55002 70542 886// 91200=
07020,1999-07-13 18:00:00,17,1010.5,-0.3,82,14,500,29.632,,,280,16.1,21.1,,0,,,,,,2,wg-a,,,,AAXX 13184 07020 12/00 82816 10170 20140 30088 40105 55003 60007 70282 8807/ 91800 333 10211 20161=
07020,1999-07-14 00:00:00,16,1010.8,0.2,88,14,0,25.928,,,280,,,,,,,,,,,wg-a,,,,AAXX 14004 07020 32/// /2814 10160 20140 30091 40108 51002 90000=
07020,1999-07-14 06:00:00,16,1012.4,1,77,12,20000,31.484,,,300,15.5,16.8,,,,,,,,,wg-a,,,,AAXX 14064 07020 32670 83017 10160 20120 30107 40124 53010 8/22/ 90600 333 10168 20155=
07020,1999-07-14 12:00:00,18,1013.6,0.4,68,12,22000,29.632,,,270,,,,,,,,,,,wg-a,,,,AAXX 14124 07020 32572 72716 10180 20120 30119 40136 51004 8577/ 91200=
07020,1999-07-14 18:00:00,15,1013.8,0,94,14,15000,25.928,,,260,14.9,18.4,,,,,,,,20,wg-a,,,,AAXX 14184 07020 02565 72614 10150 20140 30121 40138 50000 61000 72065 8317/ 91800 333 10184 20149 ////=
07020,1999-07-15 00:00:00,16,1014,-0.2,94,15,0,22.224,,,270,,,,,,,,,,,wg-a,,,,AAXX 15004 07020 32/// /2712 10160 20150 30123 40140 58002 90000=
07020,1999-07-15 06:00:00,16,1014.6,0.8,88,14,22000,18.52,,,280,15.3,15.9,,,,,,,,,wg-a,,,,AAXX 15064 07020 32672 32810 10160 20140 30129 40146 51008 81130 90600 333 10159 20153=
07020,1999-07-15 12:00:00,18,1016.8,1,77,14,20000,18.52,,,290,,,,,,,,,,,wg-a,,,,AAXX 15124 07020 32670 22910 10180 20140 30151 40168 53010 81130 91200=
07020,1999-07-15 18:00:00,17,1018,0.5,68,11,20000,22.224,,,280,15.6,19.4,,,,,,,,,wg-a,,,,AAXX 15184 07020 32/70 62812 10170 20110 30163 40180 50005 80008 91800 333 10194 20156=
07020,1999-07-16 00:00:00,16,1019.3,0.5,82,13,0,31.484,,,290,,,,,,,,,,,wg-a,,,,AAXX 16004 07020 32/// /2917 10160 20130 30176 40193 51005 90000=
07020,1999-07-16 06:00:00,16,1019.9,0.6,82,13,20000,14.816,,,280,15.4,17.6,,,,,,,,,wg-a,,,,AAXX 16064 07020 32/70 82808 10160 20130 30182 40199 52006 8807/ 90600 333 10176 20154=
07020,1999-07-16 12:00:00,18,1021.7,0.6,83,15,20000,22.224,,,240,,,,,,,,,,,wg-a,,,,AAXX 16124 07020 32/70 82412 10180 20150 30200 40217 51006 8807/ 91200=
07020,1999-07-16 18:00:00,17,1021.1,-0.5,82,14,20000,14.816,,,250,16,18.1,,,,,,,,,wg-a,,,,AAXX 16184 07020 32/70 82508 10170 20140 30194 40211 58005 8807/ 91800 333 10181 20160=
07020,1999-07-17 00:00:00,16,1020.9,-0.4,77,12,0,11.112,,,230,,,,,,,,,,,wg-a,,,,AAXX 17004 07020 32/// /2306 10160 20120 30192 40209 58004 90000=
07020,1999-07-17 06:00:00,16,1019.4,-0.6,82,13,500,7.408,,,190,15.6,16.6,,,,,,,,,wg-a,,,,AAXX 17064 07020 32800 81904 10160 20130 30177 40194 56006 886// 90600 333 10166 20156=
07020,1999-07-17 12:00:00,19,1019.6,0,68,13,20000,11.112,,,250,,,,,,,,,,,wg-a,,,,AAXX 17124 07020 32870 82506 10190 20130 30179 40196 50000 880// 91200=
07020,1999-07-17 18:00:00,19,1018.4,-0.9,73,14,20000,7.408,,,300,16,21.3,,,,,,,,,wg-a,,,,AAXX 17184 07020 32/70 73004 10190 20140 30167 40184 58009 80008 91800 333 10213 20160=
07020,1999-07-18 00:00:00,13,1018,-0.4,88,11,0,7.408,,,220,,,,,,,,,,,wg-a,,,,AAXX 18004 07020 32/// /2204 10130 20110 30163 40180 57004 90000=
07020,1999-07-18 06:00:00,15,1016.7,-0,94,14,20000,7.408,,,220,11.8,18.5,,,,,,,,,wg-a,,,,AAXX 18064 07020 32/70 02204 10150 20140 30150 40167 55000 80000 90600 333 10185 20118=
07020,1999-07-18 12:00:00,19,1015.1,-0.8,78,15,20000,7.408,,,30,,,,,,,,,,,wg-a,,,,AAXX 18124 07020 32/70 10304 10190 20150 30135 40151 58008 81030 91200=
07020,1999-07-18 18:00:00,20,1012.8,-1.3,73,15,20000,14.816,,,60,15.1,22.6,,,,,,,,,wg-a,,,,AAXX 18184 07020 32/70 30608 10200 20150 30112 40128 58013 80008 91800 333 10226 20151=
07020,1999-07-19 00:00:00,16,1012.8,-0.5,88,14,0,7.408,,,270,,,,,,,,,,,wg-a,,,,AAXX 19004 07020 32/// /2704 10160 20140 30111 40128 58005 90000=
07020,1999-07-19 06:00:00,16,1012.3,-0.2,94,15,500,25.928,,,250,14.9,19.6,,,,,,,,,wg-a,,,,AAXX 19064 07020 32800 62514 10160 20150 30106 40123 55002 86050 90600 333 10196 20149=
07020,1999-07-19 12:00:00,19,1012.6,0.1,78,15,500,31.484,,,210,,,,,,,,,,,wg-a,,,,AAXX 19124 07020 32800 82117 10190 20150 30110 40126 52001 88070 91200=
07020,1999-07-19 18:00:00,19,1010.9,-1.6,73,14,500,18.52,,,220,16,21.1,,,,,,,,,wg-a,,,,AAXX 19184 07020 32800 52210 10190 20140 30093 40109 56016 85030 91800 333 10211 20160=
07020,1999-07-20 00:00:00,18,1009.9,-1.3,83,15,0,35.188,,,210,,,,,,,,,,,wg-a,,,,AAXX 20004 07020 32/// /2119 10180 20150 30083 40099 56013 90000=
07020,1999-07-20 06:00:00,17,1009.3,0.6,94,16,12000,31.484,,,240,16.6,18.9,,0,,,,,,60,wg-a,,,,AAXX 20064 07020 12562 82417 10170 20160 30077 40093 53006 60007 760// 8272/ 90600 333 10189 20166=
07020,1999-07-20 12:00:00,18,1010.6,0.8,88,16,6000,38.892,,,250,,,,,,,,,,2,wg-a,,,,AAXX 20124 07020 02656 82521 10180 20160 30090 40106 50008 61000 70262 8312/ 91200 333 ////=
07020,1999-07-20 18:00:00,18,1012.8,0.9,83,15,10000,31.484,,,270,16.9,19.9,,,,,,,,,wg-a,,,,AAXX 20184 07020 32/60 52717 10180 20150 30112 40128 52009 85071 91800 333 10199 20169=
07020,1999-07-21 00:00:00,16,1015.1,0.6,77,12,0,29.632,,,280,,,,,,,,,,,wg-a,,,,AAXX 21004 07020 32/// /2816 10160 20120 30134 40151 51006 90000=
07020,1999-07-21 06:00:00,16,1016.7,1.1,72,11,15000,29.632,,,290,15.8,18.1,,,,,,,,,wg-a,,,,AAXX 21064 07020 32665 82916 10160 20110 30150 40167 53011 885// 90600 333 10181 20158=
07020,1999-07-21 12:00:00,18,1019.2,0.8,64,11,20000,31.484,,,270,,,,,,,,,,,wg-a,,,,AAXX 21124 07020 32670 52717 10180 20110 30175 40192 51008 82404 91200=
07020,1999-07-21 18:00:00,17,1019.4,-0,72,12,20000,31.484,,,280,15.9,18.6,,,,,,,,,wg-a,,,,AAXX 21184 07020 32670 62817 10170 20120 30177 40194 55000 86131 91800 333 10186 20159=
07020,1999-07-22 00:00:00,16,1019.7,0.3,82,13,0,38.892,,,290,,,,,,,,,,,wg-a,,,,AAXX 22004 07020 32/// /2921 10160 20130 30180 40197 52003 90000=
07020,1999-07-22 06:00:00,15,1020.3,1.1,77,11,20000,38.892,,,320,14.8,17.2,,,,,,,,,wg-a,,,,AAXX 22064 07020 32570 73221 10150 20110 30186 40203 53011 874// 90600 333 10172 20148=
07020,1999-07-22 12:00:00,17,1023.4,1.7,68,11,500,35.188,,,310,,,,,,,,,,,wg-a,,,,AAXX 22124 07020 32800 63119 10170 20110 30217 40234 53017 86070 91200=
07020,1999-07-22 18:00:00,16,1024.4,0.6,77,12,500,25.928,,,310,15.1,17.9,,,,,,,,,wg-a,,,,AAXX 22184 07020 32800 73114 10160 20120 30227 40244 53006 87070 91800 333 10179 20151=
07020,1999-07-23 00:00:00,16,1026.1,0.7,88,14,0,11.112,,,10,,,,,,,,,,,wg-a,,,,AAXX 23004 07020 32/// /0106 10160 20140 30244 40261 51007 90000=
07020,1999-07-23 06:00:00,15,1026.2,0.3,88,13,500,7.408,,,40,12.8,16.4,,,,,,,,,wg-a,,,,AAXX 23064 07020 32/00 00404 10150 20130 30245 40262 51003 80000 90600 333 10164 20128=
07020,1999-07-23 12:00:00,20,1027.3,0.3,64,13,500,7.408,,,50,,,,,,,,,,,wg-a,,,,AAXX 23124 07020 32600 10504 10200 20130 30256 40273 51003 81101 91200=
07020,1999-07-23 18:00:00,19,1025.8,-1,68,13,500,11.112,,,260,14.9,21.8,,,,,,,,,wg-a,,,,AAXX 23184 07020 32/00 02606 10190 20130 30241 40258 57010 80000 91800 333 10218 20149=
07020,1999-07-24 00:00:00,13,1025.7,-0.4,88,11,0,3.704,,,120,,,,,,,,,,,wg-a,,,,AAXX 24004 07020 32/// /1202 10130 20110 30240 40257 56004 90000=
07020,1999-07-24 06:00:00,15,1024.8,0.1,77,11,500,7.408,,,190,12.5,19.1,,,,,,,,,wg-a,,,,AAXX 24064 07020 32/00 01904 10150 20110 30231 40248 53001 80000 90600 333 10191 20125=
07020,1999-07-24 12:00:00,22,1023.9,-0.9,65,15,500,11.112,,,70,,,,,,,,,,,wg-a,,,,AAXX 24124 07020 32/00 00706 10220 20150 30223 40239 58009 80000 91200=
07020,1999-07-24 18:00:00,20,1021.6,-1.5,68,14,500,18.52,,,100,15,21.6,,,,,,,,,wg-a,,,,AAXX 24184 07020 32/00 01010 10200 20140 30199 40216 56015 80000 91800 333 10216 20150=
07020,1999-07-25 00:00:00,16,1020.8,-0.7,88,14,0,18.52,,,110,,,,,,,,,,,wg-a,,,,AAXX 25004 07020 32/// /1110 10160 20140 30191 40208 58007 90000=
07020,1999-07-25 06:00:00,17,1020,0.1,88,15,18000,14.816,,,110,15.1,20,,,,,,,,,wg-a,,,,AAXX 25064 07020 32/68 01108 10170 20150 30183 40200 53001 80000 90600 333 10200 20151=
07020,1999-07-25 12:00:00,22,1019.5,-0.8,65,15,18000,18.52,,,100,,,,,,,,,,,wg-a,,,,AAXX 25124 07020 32/68 01010 10220 20150 30179 40195 58008 80000 91200=
07020,1999-07-25 18:00:00,21,1017.8,-0.7,73,16,10000,11.112,,,90,16.5,22.4,,,,,,,,,wg-a,,,,AAXX 25184 07020 32/60 00906 10210 20160 30162 40178 56007 80000 91800 333 10224 20165=
07020,1999-07-26 00:00:00,17,1018.8,0.6,94,16,0,35.188,,,100,,,,,,,,,,,wg-a,,,,AAXX 26004 07020 32/// /1019 10170 20160 30171 40188 51006 90000=
07020,1999-07-26 06:00:00,17,1019.5,0.5,82,14,6000,50.004,,,90,16.7,20.9,,,,,,,,,wg-a,,,,AAXX 26064 07020 32656 80927 10170 20140 30178 40195 51005 885// 90600 333 10209 20167=
07020,1999-07-26 12:00:00,19,1021.4,1.2,73,14,16000,53.708,,75.932,90,,,,,,,,,,,wg-a,,,,AAXX 26124 07020 32866 60929 10190 20140 30197 40214 53012 86070 91200 333 91041=
07020,1999-07-26 18:00:00,18,1020.7,-0.4,77,14,16000,46.3,,,90,16.8,19.4,,,,,,,,,wg-a,,,,AAXX 26184 07020 32866 30925 10180 20140 30190 40207 58004 83070 91800 333 10194 20168=
07020,1999-07-27 00:00:00,16,1021,0.1,82,13,0,53.708,,,80,,,,,,,,,,,wg-a,,,,AAXX 27004 07020 32/// /0829 10160 20130 30193 40210 53001 90000=
07020,1999-07-27 06:00:00,17,1019.2,-0.6,82,14,12000,57.412,,,90,16,18.1,,,,,,,,,wg-a,,,,AAXX 27064 07020 32662 30931 10170 20140 30175 40192 58006 83200 90600 333 10181 20160=
07020,1999-07-27 12:00:00,18,1020,-1,68,12,12000,53.708,,,80,,,,,,,,,,,wg-a,,,,AAXX 27124 07020 32/62 40829 10180 20120 30183 40200 55010 80001 91200=
07020,1999-07-27 18:00:00,18,1018.3,-0.9,73,13,12000,53.708,,,80,16.7,19.1,,,,,,,,,wg-a,,,,AAXX 27184 07020 32/62 60829 10180 20130 30166 40183 58009 80008 91800 333 10191 20167=
07020,1999-07-28 00:00:00,16,1019.2,-0.2,82,13,0,50.004,,,90,,,,,,,,,,,wg-a,,,,AAXX 28004 07020 32/// /0927 10160 20130 30175 40192 57002 90000=
07020,1999-07-28 06:00:00,17,1018.6,-0.2,82,14,8000,50.004,,,80,16.1,17.9,,,,,,,,,wg-a,,,,AAXX 28064 07020 32658 80827 10170 20140 30169 40186 56002 884// 90600 333 10179 20161=
07020,1999-07-28 12:00:00,19,1019.4,0.3,78,15,8000,42.596,,90.748,90,,,,,,,,,,,wg-a,,,,AAXX 28124 07020 32858 70923 10190 20150 30177 40194 50003 8707/ 91200 333 91049=
07020,1999-07-28 17:00:00,20,1019.2,-0.1,71,14.6,,35.188,,,100,,,,,,,,,,,og-post,,,,AAXX 28174 07020 36/// /1019 10200 20146 30176 40192 58001=
07020,1999-07-28 18:00:00,20,1019.4,-0.2,68,14,16000,35.188,,90.748,100,16.6,20.8,,,,,,,,,wg-a,,,,AAXX 28184 07020 32866 21019 10200 20140 30177 40194 55002 82030 91800 333 10208 20166 91049=
07020,1999-07-29 00:00:00,17,1020.1,0.3,82,14,0,18.52,,,80,,,,,,,,,,,wg-a,,,,AAXX 29004 07020 32/// /0810 10170 20140 30184 40201 50003 90000=
07020,1999-07-29 06:00:00,17,1019.5,0.5,88,15,16000,35.188,,,80,16.6,19.6,,,,,,,,,wg-a,,,,AAXX 29064 07020 32866 80819 10170 20150 30178 40195 53005 8807/ 90600 333 10196 20166=
07020,1999-07-29 12:00:00,20,1018.7,-0.6,78,16,10000,25.928,,,70,,,,,,,,,,,wg-a,,,,AAXX 29124 07020 32/60 60714 10200 20160 30171 40187 58006 80008 91200=
07020,1999-07-30 00:00:00,16,1016.4,-0.7,88,14,0,7.408,,,80,,,,,,,,,,,wg-a,,,,AAXX 30004 07020 32/// /0804 10160 20140 30147 40164 58007 90000=
07020,1999-07-30 06:00:00,15,1014.9,-0.2,94,14,6000,7.408,,,220,14.4,20,,,,,,,,,wg-a,,,,AAXX 30064 07020 32/56 62204 10150 20140 30132 40149 55002 84011 90600 333 10200 20144=
07020,1999-07-30 12:00:00,22,1015.1,-0.2,69,16,8000,22.224,,,230,,,,,,,,,,,wg-a,,,,AAXX 30124 07020 32/58 52312 10220 20160 30135 40151 58002 80005 91200=
07020,1999-07-30 18:00:00,18,1014.7,-0.5,83,15,2000,14.816,,,230,15.1,22,,,,,,,,10,wg-a,,,,AAXX 30184 07020 32420 52308 10180 20150 30130 40147 56005 71011 81605 91800 333 10220 20151=
07020,1999-07-31 00:00:00,16,1015,-0.4,94,15,0,18.52,,,230,,,,,,,,,,,wg-a,,,,AAXX 31004 07020 32/// /2310 10160 20150 30133 40150 58004 90000=
07020,1999-07-31 06:00:00,14,1014.5,0.1,100,14,500,0,,,0,14.2,17.9,,0,,,,,,45,wg-a,,,,AAXX 31064 07020 12/05 90000 10140 20140 30128 40145 53001 60007 745// 89/// 90600 333 10179 20142=
07020,1999-07-31 12:00:00,19,1014.6,0.1,78,15,4000,14.816,,,100,,,,,,,,,,10,wg-a,,,,AAXX 31124 07020 32440 71008 10190 20150 30130 40146 53001 71042 81620 91200=
07020,1999-07-31 18:00:00,18,1013.9,-0.2,83,15,4000,7.408,,,330,14.4,21.1,,,,,,,,10,wg-a,,,,AAXX 31184 07020 32440 73304 10180 20150 30122 40139 55002 71022 81620 91800 333 10211 20144=
07020,1999-08-01 00:00:00,16,1014.9,0.1,94,15,0,3.704,,,50,,,,,,,,,,,wg-a,,,,AAXX 01004 07020 32/// /0502 10160 20150 30132 40149 50001 90000=
07020,1999-08-01 06:00:00,15,1014.8,0.8,94,14,6000,0,,,0,13.7,17.7,,,,,,,,,wg-a,,,,AAXX 01064 07020 32556 50000 10150 20140 30131 40148 53008 82620 90600 333 10177 20137=
07020,1999-08-01 12:00:00,18,1014.6,-0.2,83,15,1000,11.112,,,260,,,,,,,,,,28,wg-a,,,,AAXX 01124 07020 32410 82606 10180 20150 30129 40146 55002 72811 8662/ 91200=
07020,1999-08-01 18:00:00,20,1013.5,-0.5,78,16,10000,14.816,,,90,15,21.5,,,,,,,,1,wg-a,,,,AAXX 01184 07020 32660 30908 10200 20160 30119 40135 57005 70141 83200 91800 333 10215 20150=
07020,1999-08-02 00:00:00,17,1014,-0.4,94,16,0,7.408,,,20,,,,,,,,,,,wg-a,,,,AAXX 02004 07020 32/// /0204 10170 20160 30123 40140 58004 90000=
07020,1999-08-02 06:00:00,17,1012.7,-0.4,94,16,2000,7.408,,,130,15.3,19.8,,,,,,,,10,wg-a,,,,AAXX 02064 07020 32520 81304 10170 20160 30110 40127 55004 710// 83620 90600 333 10198 20153=
07020,1999-08-02 12:00:00,22,1012,-0.6,69,16,4000,14.816,,,230,,,,,,,,,,,wg-a,,,,AAXX 02124 07020 32540 72308 10220 20160 30104 40120 57006 8362/ 91200=
07020,1999-08-02 18:00:00,19,1011.5,0.4,83,16,4000,14.816,,,70,16.9,22.4,,,,,,,,,wg-a,,,,AAXX 02184 07020 32540 70708 10190 20160 30099 40115 50004 8362/ 91800 333 10224 20169=
07020,1999-08-03 00:00:00,17,1010.5,-0.6,88,15,0,22.224,,,290,,,,,,,,,,,wg-a,,,,AAXX 03004 07020 32/// /2912 10170 20150 30088 40105 56006 90000=
07020,1999-08-03 06:00:00,17,1011.1,0.5,94,16,500,7.408,,,280,16.2,18.8,,0,,,,,,,wg-a,,,,AAXX 03064 07020 12600 72804 10170 20160 30094 40111 53005 60007 8327/ 90600 333 10188 20162=
07020,1999-08-03 12:00:00,21,1012.1,0.4,73,16,500,22.224,,,240,,,,,,,,,,,wg-a,,,,AAXX 03124 07020 32600 42412 10210 20160 30105 40121 53004 82105 91200=
07020,1999-08-03 18:00:00,21,1011.8,-0.5,69,15,500,7.408,,,260,17,21.7,,,,,,,,,wg-a,,,,AAXX 03184 07020 32600 42604 10210 20150 30102 40118 57005 81105 91800 333 10217 20170=
07020,1999-08-04 00:00:00,17,1011,-0.9,82,14,0,14.816,,,120,,,,,,,,,,,wg-a,,,,AAXX 04004 07020 32/// /1208 10170 20140 30093 40110 58009 90000=
07020,1999-08-04 06:00:00,18,1008.9,-1.2,88,16,20000,18.52,,,110,16.2,21.3,,,,,,,,,wg-a,,,,AAXX 04064 07020 32/70 61110 10180 20160 30073 40089 56012 86050 90600 333 10213 20162=
07020,1999-08-04 18:00:00,18,1006.1,-0,100,18,10000,3.704,,,80,17.9,20.2,,6,,,,,,21,wg-a,,,,AAXX 04184 07020 12560 70802 10180 20180 30045 40061 55000 60067 72196 8372/ 91800 333 10202 20179=
07020,1999-08-05 00:00:00,17,1007.7,0.9,94,16,0,18.52,,,260,,,,,,,,,,,wg-a,,,,AAXX 05004 07020 32/// /2610 10170 20160 30061 40077 53009 90000=
07020,1999-08-05 06:00:00,17,1009.7,1.5,94,16,24000,25.928,,,240,16.3,18.7,,,,,,,,,wg-a,,,,AAXX 05064 07020 32674 32414 10170 20160 30080 40097 53015 8/200 90600 333 10187 20163=
07020,1999-08-05 12:00:00,22,1011.3,0.5,73,17,500,29.632,,,210,,,,,,,,,,,wg-a,,,,AAXX 05124 07020 32600 52116 10220 20170 30097 40113 51005 82205 91200=
07020,1999-08-05 18:00:00,20,1011,-0.3,73,15,500,18.52,,,120,16.5,23.8,,,,,,,,,wg-a,,,,AAXX 05184 07020 32600 61210 10200 20150 30094 40110 55003 81250 91800 333 10238 20165=
07020,1999-08-06 00:00:00,18,1011.4,-0.2,83,15,0,14.816,,,190,,,,,,,,,,,wg-a,,,,AAXX 06004 07020 32/// /1908 10180 20150 30098 40114 55002 90000=
07020,1999-08-06 06:00:00,18,1009.6,-0.8,88,16,18000,7.408,,,180,17.4,20,,,,,,,,,wg-a,,,,AAXX 06064 07020 32/68 71804 10180 20160 30080 40096 58008 87070 90600 333 10200 20174=
07020,1999-08-06 12:00:00,20,1006.8,-2.1,88,18,10000,18.52,,,100,,,,,,,,,,2,wg-a,,,,AAXX 06124 07020 32660 81010 10200 20180 30052 40068 58021 70262 88500 91200=
07020,1999-08-06 18:00:00,18,1004.7,-0.1,94,17,0,14.816,,,310,17.5,20,,,,,,,,,wg-a,,,,AAXX 06184 07020 32/// /3108 10180 20170 30031 40047 55001 91800 333 10200 20175=
07020,1999-08-07 00:00:00,16,1005.4,0.1,100,16,0,29.632,,,240,,,,,,,,,,,wg-a,,,,AAXX 07004 07020 32/// /2416 10160 20160 30038 40054 51001 90000=
07020,1999-08-07 06:00:00,17,1005.5,-0,94,16,500,22.224,,,240,16.3,17.5,,,,,,,,,wg-a,,,,AAXX 07064 07020 32600 32412 10170 20160 30039 40055 55000 81280 90600 333 10175 20163=
07020,1999-08-07 12:00:00,21,1005.2,-1,78,17,24000,18.52,,,230,,,,,,,,,,,wg-a,,,,AAXX 07124 07020 32674 32310 10210 20170 30036 40052 58010 82201 91200=
07020,1999-08-07 18:00:00,20,1002.4,-1.4,78,16,24000,25.928,,,100,16.8,22.1,,,,,,,,,wg-a,,,,AAXX 07184 07020 32/74 21014 10200 20160 30008 40024 58014 80005 91800 333 10221 20168=
07020,1999-08-08 00:00:00,18,996.2,-3.9,88,16,0,35.188,,,100,,,,,,,,,,,wg-a,,,,AAXX 08004 07020 32/// /1019 10180 20160 39946 49962 58039 90000=
07020,1999-08-08 06:00:00,18,994.9,-0,94,17,26000,14.816,,,180,16.9,19.6,,,,,,,,,wg-a,,,,AAXX 08064 07020 32576 71808 10180 20170 39933 49949 55000 87200 90600 333 10196 20169=
07020,1999-08-08 12:00:00,22,996.5,0.3,73,17,0,31.484,,,200,,,,,,,,,,,wg-a,,,,AAXX 08124 07020 32/// /2017 10220 20170 39949 49965 53003 91200=
07020,1999-08-08 18:00:00,19,997.9,0.5,78,15,25000,29.632,,,210,17.6,22.6,,,,,,,,,wg-a,,,,AAXX 08184 07020 32/75 62116 10190 20150 39963 49979 52005 86050 91800 333 10226 20176=
07020,1999-08-09 00:00:00,18,999.3,0,88,16,0,22.224,,,190,,,,,,,,,,,wg-a,,,,AAXX 09004 07020 32/// /1912 10180 20160 39977 49993 50000 90000=
07020,1999-08-09 06:00:00,18,999.6,0.6,83,15,20000,25.928,,,190,16.8,18.7,,,,,,,,,wg-a,,,,AAXX 09064 07020 32/70 81914 10180 20150 39980 49996 53006 88020 90600 333 10187 20168=
07020,1999-08-09 12:00:00,20,1000,-0.4,78,16,25000,38.892,,64.82,190,,,,,,,,,,,wg-a,,,,AAXX 09124 07020 32575 61921 10200 20160 39984 40000 58004 86250 91200 333 91035=
07020,1999-08-09 18:00:00,20,1001.1,0.6,78,16,25000,11.112,,57.412,230,17.7,22.1,,,,,,,,,wg-a,,,,AAXX 09184 07020 32575 62306 10200 20160 39995 40011 52006 86200 91800 333 10221 20177 91031=
07020,1999-08-10 00:00:00,17,1004.7,1.2,94,16,0,7.408,,,250,,,,,,,,,,,wg-a,,,,AAXX 10004 07020 32/// /2504 10170 20160 30031 40047 52012 90000=
07020,1999-08-10 06:00:00,17,1008.4,2.4,94,16,0,25.928,,,360,16,20.2,,,,,,,,,wg-a,,,,AAXX 10064 07020 32/// /3614 10170 20160 30068 40084 53024 90600 333 10202 20160=
07020,1999-08-10 12:00:00,17,1013.6,2.2,82,14,20000,22.224,,,350,,,,,,,,,,,wg-a,,,,AAXX 10124 07020 32570 83512 10170 20140 30119 40136 51022 88500 91200=
07020,1999-08-10 18:00:00,17,1017.4,1.6,82,14,20000,18.52,,,10,16.7,17.9,,,,,,,,,wg-a,,,,AAXX 10184 07020 32270 80110 10170 20140 30157 40174 51016 88500 91800 333 10179 20167=
07020,1999-08-11 00:00:00,16,1020.3,1.1,88,14,0,14.816,,,320,,,,,,,,,,,wg-a,,,,AAXX 11004 07020 32/// /3208 10160 20140 30186 40203 51011 90000=
07020,1999-08-11 06:00:00,16,1020.7,0.6,88,14,15000,7.408,,,60,15.1,17.2,,,,,,,,,wg-a,,,,AAXX 11064 07020 32265 80604 10160 20140 30190 40207 51006 88500 90600 333 10172 20151=
07020,1999-08-11 12:00:00,20,1021,-0.2,73,15,20000,14.816,,,220,,,,,,,,,,,wg-a,,,,AAXX 11124 07020 32570 72208 10200 20150 30193 40210 58002 83230 91200=
07020,1999-08-11 18:00:00,18,1019.9,-0.5,77,14,24000,11.112,,,120,16.3,20.3,,,,,,,,,wg-a,,,,AAXX 11184 07020 32574 61206 10180 20140 30182 40199 58005 82230 91800 333 10203 20163=
07020,1999-08-12 00:00:00,16,1019.8,0.1,82,13,0,14.816,,,130,,,,,,,,,,,wg-a,,,,AAXX 12004 07020 32/// /1308 10160 20130 30181 40198 50001 90000=
07020,1999-08-12 06:00:00,15,1019.5,-0.1,94,14,22000,7.408,,,130,15,18.3,,,,,,,,,wg-a,,,,AAXX 12064 07020 32872 81304 10150 20140 30178 40195 55001 88070 90600 333 10183 20150=
07020,1999-08-12 12:00:00,21,1019.8,-0.3,64,14,20000,25.928,,,110,,,,,,,,,,,wg-a,,,,AAXX 12124 07020 32870 71114 10210 20140 30182 40198 58003 87070 91200=
07020,1999-08-12 18:00:00,19,1019.3,-0.2,64,12,0,25.928,,,110,15.3,20.7,,,,,,,,,wg-a,,,,AAXX 12184 07020 32/// /1114 10190 20120 30176 40193 58002 91800 333 10207 20153=
07020,1999-08-13 00:00:00,15,1018.1,-1.1,77,11,0,18.52,,,160,,,,,,,,,,,wg-a,,,,AAXX 13004 07020 32/// /1610 10150 20110 30164 40181 56011 90000=
07020,1999-08-13 06:00:00,17,1016,-0.6,88,15,12000,14.816,,,210,13.6,18.9,,,,,,,,,wg-a,,,,AAXX 13064 07020 32262 82108 10170 20150 30143 40160 56006 88500 90600 333 10189 20136=
07020,1999-08-13 12:00:00,19,1014.9,-0.5,83,16,20000,29.632,,,240,,,,,,,,,,,wg-a,,,,AAXX 13124 07020 32670 82416 10190 20160 30133 40149 58005 82150 91200=
07020,1999-08-13 18:00:00,18,1011.7,-1.8,83,15,500,29.632,,,240,17.2,20.4,,,,,,,,,wg-a,,,,AAXX 13184 07020 32/00 82416 10180 20150 30101 40117 58018 88050 91800 333 10204 20172=
07020,1999-08-14 00:00:00,17,1008.4,-2.1,94,16,0,35.188,,,260,,,,,,,,,,,wg-a,,,,AAXX 14004 07020 32/// /2619 10170 20160 30068 40084 58021 90000=
07020,1999-08-14 06:00:00,16,1006,-1,94,15,16000,29.632,,,270,15.3,18,,0,,,,,,,wg-a,,,,AAXX 14064 07020 12566 82716 10160 20150 30043 40060 56010 60007 88700 90600 333 10180 20153=
07020,1999-08-14 12:00:00,18,1002.7,-2.2,94,17,10000,42.596,,,260,,,,1,,,,,,20,wg-a,,,,AAXX 14124 07020 12260 72623 10180 20170 30011 40027 58022 60017 72065 87800 91200=
07020,1999-08-14 18:00:00,18,1005.3,0.9,77,14,500,35.188,,61.116,280,15.4,18.9,,,,,,,,2,wg-a,,,,AAXX 14184 07020 32200 32819 10180 20140 30037 40053 53009 70251 83100 91800 333 10189 20154 91033=
07020,1999-08-15 00:00:00,17,1008.1,0.8,77,13,0,29.632,,,280,,,,,,,,,,,wg-a,,,,AAXX 15004 07020 32/// /2816 10170 20130 30064 40081 51008 90000=
07020,1999-08-15 06:00:00,17,1009.1,0.7,82,14,20000,29.632,,,290,16.3,18.1,,,,,,,,,wg-a,,,,AAXX 15064 07020 32270 62916 10170 20140 30074 40091 53007 86400 90600 333 10181 20163=
07020,1999-08-15 12:00:00,18,1010.5,0.4,73,13,26000,22.224,,,270,,,,,,,,,,,wg-a,,,,AAXX 15124 07020 32576 82712 10180 20130 30089 40105 50004 83120 91200=
07020,1999-08-15 18:00:00,17,1009.7,-0.7,77,13,26000,25.928,,,260,16.5,18.6,,,,,,,,,wg-a,,,,AAXX 15184 07020 32576 82614 10170 20130 30080 40097 58007 84230 91800 333 10186 20165=
07020,1999-08-16 00:00:00,16,1009.8,-0.6,88,14,0,22.224,,,270,,,,,,,,,,,wg-a,,,,AAXX 16004 07020 32/// /2712 10160 20140 30081 40098 56006 90000=
07020,1999-08-16 06:00:00,16,1009.2,0.1,82,13,500,14.816,,,290,15.8,17,,,,,,,,,wg-a,,,,AAXX 16064 07020 32500 72908 10160 20130 30075 40092 53001 83250 90600 333 10170 20158=
07020,1999-08-16 12:00:00,19,1008.6,-0.3,68,13,500,25.928,,,260,,,,,,,,,,,wg-a,,,,AAXX 16124 07020 32600 32614 10190 20130 30070 40086 58003 83200 91200=
07020,1999-08-16 18:00:00,17,1007.9,-0.1,77,13,500,29.632,,,280,16.1,19.6,,,,,,,,,wg-a,,,,AAXX 16184 07020 32500 42816 10170 20130 30063 40079 55001 83240 91800 333 10196 20161=
07020,1999-08-17 00:00:00,16,1008.7,-0.1,72,11,0,25.928,,,290,,,,,,,,,,,wg-a,,,,AAXX 17004 07020 32/// /2914 10160 20110 30070 40087 58001 90000=
07020,1999-08-17 06:00:00,16,1006.8,-1,77,12,20000,25.928,,,240,15.1,17.4,,,,,,,,,wg-a,,,,AAXX 17064 07020 32570 72414 10160 20120 30051 40068 56010 878// 90600 333 10174 20151=
07020,1999-08-17 12:00:00,15,1004.4,-1.6,94,14,6000,46.3,,,210,,,,3,,,,,,61,wg-a,,,,AAXX 17124 07020 12556 82125 10150 20140 30027 40044 58016 60037 76122 88700 91200=
07020,1999-08-17 18:00:00,17,1000.5,-1.9,94,16,8000,46.3,,,230,14.9,17.9,,5,,,,,,60,wg-a,,,,AAXX 17184 07020 12558 82325 10170 20160 39989 40005 56019 60057 76066 88700 91800 333 10179 20149=
07020,1999-08-18 00:00:00,16,998.1,-0.8,88,14,0,42.596,,,250,,,,0,,,,,,,wg-a,,,,AAXX 18004 07020 12/// /2523 10160 20140 39965 49981 56008 60007 90000=
07020,1999-08-18 06:00:00,16,996.6,-0.4,88,14,18000,42.596,,,250,15.7,16.9,,0,,,,,,,wg-a,,,,AAXX 18064 07020 12568 72523 10160 20140 39950 49966 55004 60007 87200 90600 333 10169 20157=
07020,1999-08-18 12:00:00,16,998,0.4,82,13,8000,61.116,,96.304,250,,,,1,,,,,,60,wg-a,,,,AAXX 18124 07020 12558 82533 10160 20130 39964 49980 51004 60017 76082 88700 91200 333 91052=
07020,1999-08-18 18:00:00,18,1002.7,3.3,77,14,18000,42.596,,96.304,270,14.6,18.3,,,,,,,,,wg-a,,,,AAXX 18184 07020 32/68 32723 10180 20140 30011 40027 51033 83080 91800 333 10183 20146 91052=
07020,1999-08-19 00:00:00,17,1007,1.1,77,13,0,42.596,,,270,,,,,,,,,,,wg-a,,,,AAXX 19004 07020 32/// /2723 10170 20130 30054 40070 51011 90000=
07020,1999-08-19 06:00:00,16,1009.8,1.6,82,13,18000,31.484,,68.524,280,14.7,17.6,,,,,,,,,wg-a,,,,AAXX 19064 07020 32568 52817 10160 20130 30081 40098 53016 85200 90600 333 10176 20147 91037=
07020,1999-08-19 12:00:00,18,1013,1.3,77,14,20000,35.188,,68.524,270,,,,0,,,,,,0,wg-a,,,,AAXX 19124 07020 12570 52719 10180 20140 30114 40130 51013 60007 70082 85200 91200 333 91037=
07020,1999-08-19 18:00:00,18,1015.2,0.8,73,13,500,25.928,,,280,14.9,18.9,,,,,,,,,wg-a,,,,AAXX 19184 07020 32600 12814 10180 20130 30135 40152 52008 81200 91800 333 10189 20149=
07020,1999-08-20 00:00:00,16,1018.2,1.2,88,14,0,18.52,,,270,,,,,,,,,,,wg-a,,,,AAXX 20004 07020 32/// /2710 10160 20140 30165 40182 51012 90000=
07020,1999-08-20 06:00:00,15,1019.4,0.9,88,13,500,3.704,,,250,14.3,17.7,,,,,,,,,wg-a,,,,AAXX 20064 07020 32600 22502 10150 20130 30177 40194 53009 82100 90600 333 10177 20143=
07020,1999-08-20 12:00:00,18,1021.4,0.9,77,14,500,3.704,,,20,,,,,,,,,,,wg-a,,,,AAXX 20124 07020 32600 40202 10180 20140 30197 40214 50009 81150 91200=
07020,1999-08-20 18:00:00,19,1021.4,-0.4,68,13,500,18.52,,,90,14.6,21.8,,,,,,,,,wg-a,,,,AAXX 20184 07020 32600 30910 10190 20130 30197 40214 57004 81290 91800 333 10218 20146=
07020,1999-08-21 00:00:00,14,1022.5,0.2,94,13,0,14.816,,,130,,,,,,,,,,,wg-a,,,,AAXX 21004 07020 32/// /1308 10140 20130 30208 40225 50002 90000=
07020,1999-08-21 06:00:00,16,1022.6,0.2,88,14,20000,22.224,,,120,14.2,18.6,,,,,,,,,wg-a,,,,AAXX 21064 07020 32/70 61212 10160 20140 30209 40226 53002 86060 90600 333 10186 20142=
07020,1999-08-21 12:00:00,19,1023.5,0.1,73,14,500,35.188,,,90,,,,,,,,,,,wg-a,,,,AAXX 21124 07020 32600 40919 10190 20140 30218 40235 51001 82205 91200=
07020,1999-08-21 18:00:00,18,1022.3,-0.7,73,13,500,38.892,,,100,15.5,19.1,,,,,,,,,wg-a,,,,AAXX 21184 07020 32/00 51021 10180 20130 30206 40223 57007 80005 91800 333 10191 20155=
07020,1999-08-22 00:00:00,16,1021.9,-0.6,77,12,0,42.596,,,100,,,,,,,,,,,wg-a,,,,AAXX 22004 07020 32/// /1023 10160 20120 30202 40219 58006 90000=
07020,1999-08-22 06:00:00,16,1020.4,-0.3,82,13,16000,35.188,,,110,15.6,17.4,,,,,,,,,wg-a,,,,AAXX 22064 07020 32/66 71119 10160 20130 30187 40204 56003 87050 90600 333 10174 20156=
07020,1999-08-22 12:00:00,19,1019.4,-1.1,64,12,18000,42.596,,,100,,,,,,,,,,,wg-a,,,,AAXX 22124 07020 32/68 61023 10190 20120 30177 40194 58011 86050 91200=
07020,1999-08-22 18:00:00,18,1017.3,-1.5,73,13,16000,35.188,,,110,15.7,19.3,,,,,,,,,wg-a,,,,AAXX 22184 07020 32/66 71119 10180 20130 30156 40173 56015 87050 91800 333 10193 20157=
07020,1999-08-23 00:00:00,17,1016,-1,82,14,0,22.224,,,110,,,,,,,,,,,wg-a,,,,AAXX 23004 07020 32/// /1112 10170 20140 30143 40160 56010 90000=
07020,1999-08-23 06:00:00,17,1015.1,-0,72,12,18000,18.52,,,120,16.6,18.3,,,,,,,,,wg-a,,,,AAXX 23064 07020 32/68 71210 10170 20120 30134 40151 55000 875// 90600 333 10183 20166=
07020,1999-08-23 12:00:00,20,1016,0.5,73,15,20000,25.928,,,100,,,,,,,,,,,wg-a,,,,AAXX 23124 07020 32870 81014 10200 20150 30144 40160 53005 88010 91200=
07020,1999-08-23 18:00:00,18,1015.5,-0.5,83,15,16000,18.52,,,120,16.8,20.5,,,,,,,,,wg-a,,,,AAXX 23184 07020 32866 81210 10180 20150 30138 40155 57005 88020 91800 333 10205 20168=
07020,1999-08-24 00:00:00,17,1015,-0.8,94,16,0,14.816,,,140,,,,,,,,,,,wg-a,,,,AAXX 24004 07020 32/// /1408 10170 20160 30133 40150 58008 90000=
07020,1999-08-24 06:00:00,17,1014.6,0.1,94,16,500,11.112,,,180,16.5,17.9,,3,,,,,,21,wg-a,,,,AAXX 24064 07020 12500 81806 10170 20160 30129 40146 53001 60037 721// 88700 90600 333 10179 20165=
07020,1999-08-24 12:00:00,18,1014.5,-0.2,94,17,8000,22.224,,,120,,,,1,,,,,,61,wg-a,,,,AAXX 24124 07020 12558 81212 10180 20170 30128 40145 55002 60017 76166 88700 91200=
07020,1999-08-24 18:00:00,18,1013.4,-0.8,88,16,500,25.928,,,110,16.4,18.8,,,,,,,,2,wg-a,,,,AAXX 24184 07020 32500 81114 10180 20160 30118 40134 56008 70262 88700 91800 333 10188 20164=
07020,1999-08-25 00:00:00,18,1012.6,-0.9,83,15,0,18.52,,,120,,,,,,,,,,,wg-a,,,,AAXX 25004 07020 32/// /1210 10180 20150 30110 40126 58009 90000=
07020,1999-08-25 06:00:00,18,1010.5,-1,94,17,2000,11.112,,,140,17,18.1,,,,,,,,10,wg-a,,,,AAXX 25064 07020 32820 71406 10180 20170 30089 40105 56010 71000 87050 90600 333 10181 20170=
07020,1999-08-25 12:00:00,20,1009.2,-1.7,83,17,500,11.112,,,320,,,,,,,,,,2,wg-a,,,,AAXX 25124 07020 32600 83206 10200 20170 30076 40092 55017 70262 83220 91200=
07020,1999-08-25 18:00:00,19,1009.8,0.9,88,17,9000,11.112,,,230,17.8,21.5,,,,,,,,,wg-a,,,,AAXX 25184 07020 32559 72306 10190 20170 30082 40098 51009 86205 91800 333 10215 20178=
07020,1999-08-26 00:00:00,18,1010.6,0.2,100,18,0,18.52,,,200,,,,,,,,,,,wg-a,,,,AAXX 26004 07020 32/// /2010 10180 20180 30090 40106 50002 90000=
07020,1999-08-26 06:00:00,17,1012.1,1.4,94,16,24000,29.632,,,260,17.2,19.3,,,,,,,,,wg-a,,,,AAXX 26064 07020 32574 82616 10170 20160 30104 40121 51014 82230 90600 333 10193 20172=
07020,1999-08-26 12:00:00,20,1014.8,1.1,78,16,20000,31.484,,,260,,,,,,,,,,,wg-a,,,,AAXX 26124 07020 32570 62617 10200 20160 30132 40148 52011 84201 91200=
07020,1999-08-26 18:00:00,18,1016.2,0.7,88,16,6000,25.928,,,270,17.2,20.5,,,,,,,,,wg-a,,,,AAXX 26184 07020 32556 72714 10180 20160 30145 40162 53007 81270 91800 333 10205 20172=
07020,1999-08-27 00:00:00,17,1018.2,0.7,88,15,0,14.816,,,270,,,,,,,,,,,wg-a,,,,AAXX 27004 07020 32/// /2708 10170 20150 30165 40182 53007 90000=
07020,1999-08-27 06:00:00,17,1019.2,0.9,82,14,15000,22.224,,,300,16.5,18,,,,,,,,,wg-a,,,,AAXX 27064 07020 32565 63012 10170 20140 30175 40192 53009 82250 90600 333 10180 20165=
07020,1999-08-27 12:00:00,19,1021,0.4,78,15,24000,11.112,,,280,,,,,,,,,,,wg-a,,,,AAXX 27124 07020 32674 62806 10190 20150 30193 40210 51004 83205 91200=
07020,1999-08-27 18:00:00,18,1021.6,-0,83,15,500,14.816,,,260,16.5,19.7,,,,,,,,,wg-a,,,,AAXX 27184 07020 32600 62608 10180 20150 30199 40216 55000 83105 91800 333 10197 20165=
07020,1999-08-28 00:00:00,17,1023.2,0.4,88,15,0,11.112,,,290,,,,,,,,,,,wg-a,,,,AAXX 28004 07020 32/// /2906 10170 20150 30215 40232 50004 90000=
07020,1999-08-28 06:00:00,15,1024.2,0.6,94,14,12000,7.408,,,190,14.7,17.7,,,,,,,,,wg-a,,,,AAXX 28064 07020 32562 21904 10150 20140 30225 40242 53006 82200 90600 333 10177 20147=
07020,1999-08-28 12:00:00,21,1025,0.1,73,16,10000,14.816,,,60,,,,,,,,,,,wg-a,,,,AAXX 28124 07020 32660 30608 10210 20160 30233 40250 51001 81250 91200=
07020,1999-08-28 18:00:00,19,1023.9,-0.7,78,15,0,11.112,,,90,14.7,22,,,,,,,,,wg-a,,,,AAXX 28184 07020 32/// /0906 10190 20150 30222 40239 57007 91800 333 10220 20147=
07020,1999-08-29 00:00:00,14,1023.9,0,94,13,0,3.704,,,130,,,,,,,,,,,wg-a,,,,AAXX 29004 07020 32/// /1302 10140 20130 30222 40239 50000 90000=
07020,1999-08-29 06:00:00,14,1021.9,-0.2,94,13,6000,7.408,,,160,12.3,19,,,,,,,,,wg-a,,,,AAXX 29064 07020 32/56 31604 10140 20130 30202 40219 55002 80001 90600 333 10190 20123=
07020,1999-08-29 12:00:00,19,1021.5,-0.6,83,16,12000,11.112,,,270,,,,,,,,,,,wg-a,,,,AAXX 29124 07020 32/62 62706 10190 20160 30198 40215 56006 80002 91200=
07020,1999-08-29 18:00:00,19,1020.3,-0.8,78,15,16000,3.704,,,60,13.8,20.4,,,,,,,,,wg-a,,,,AAXX 29184 07020 32/66 70602 10190 20150 30186 40203 56008 87050 91800 333 10204 20138=
07020,1999-08-30 00:00:00,15,1020.6,0,77,11,0,7.408,,,240,,,,,,,,,,,wg-a,,,,AAXX 30004 07020 32/// /2404 10150 20110 30189 40206 50000 90000=
07020,1999-08-30 06:00:00,17,1020.1,-0,94,16,10000,7.408,,,250,14.2,18.9,,,,,,,,,wg-a,,,,AAXX 30064 07020 32/60 72504 10170 20160 30184 40201 55000 87050 90600 333 10189 20142=
07020,1999-08-30 12:00:00,20,1021.3,0.3,83,17,10000,14.816,,,340,,,,,,,,,,,wg-a,,,,AAXX 30124 07020 32660 63408 10200 20170 30196 40213 50003 86410 91200=
07020,1999-08-30 18:00:00,19,1020.2,-0.5,73,14,20000,7.408,,,270,17,21.4,,,,,,,,,wg-a,,,,AAXX 30184 07020 32/70 32704 10190 20140 30185 40202 56005 80001 91800 333 10214 20170=
07020,1999-08-31 00:00:00,17,1020.5,-0.4,88,15,0,18.52,,,340,,,,,,,,,,,wg-a,,,,AAXX 31004 07020 32/// /3410 10170 20150 30188 40205 58004 90000=
07020,1999-08-31 06:00:00,16,1020.1,0.2,88,14,20000,18.52,,,340,16,19.1,,,,,,,,,wg-a,,,,AAXX 31064 07020 32570 73410 10160 20140 30184 40201 53002 86161 90600 333 10191 20160=
07020,1999-08-31 12:00:00,19,1021.5,0.4,73,14,20000,18.52,,,300,,,,,,,,,,,wg-a,,,,AAXX 31124 07020 32570 73010 10190 20140 30198 40215 51004 84250 91200=
07020,1999-08-31 18:00:00,19,1020.5,-0.4,73,14,0,18.52,,,300,16.2,19.7,,,,,,,,,wg-a,,,,AAXX 31184 07020 32/// /3010 10190 20140 30188 40205 56004 91800 333 10197 20162=
07020,1999-09-01 00:00:00,15.8,1005.5,0.4,78,12,,25,83.34,68.524,280,,,,,,,,,,,,,,,
07020,1999-09-01 01:00:00,15.8,1006,1,77,11.8,,25,75.932,64.82,280,,,,,,,,,,,,,,,
07020,1999-09-01 02:00:00,15.7,1006.2,1.1,73,10.9,,23,72.228,68.524,280,,,,,,,,,,,,,,,
07020,1999-09-01 03:00:00,15.5,1006.2,0.7,74,10.9,,25,75.932,,290,,,,,,,,,,,,,,,
07020,1999-09-01 04:00:00,15.4,1006.5,0.5,70,10,,21,68.524,,280,,,,,,,,,,,,,,,
07020,1999-09-01 05:00:00,15.5,1006.8,0.6,75,11.1,,19,61.116,,270,,,,,,,,,,,,,,,
07020,1999-09-01 06:00:00,15.3,1006.9,0.7,69,9.7,,19,75.932,57.412,270,14.3,16,,,,,,,,,,,,6,
07020,1999-09-01 07:00:00,15.6,1007.4,0.9,74,11,,19,,,270,,,,,,,,,,,,,,,
07020,1999-09-01 08:00:00,15.9,1007.9,1.1,75,11.5,,23,,64.82,270,,,,,,,,,,,,,,,
07020,1999-09-01 09:00:00,16.3,1008.2,1.3,72,11.2,,29,72.228,,270,,,,,,,,,,,,,,7,
07020,1999-09-01 10:00:00,16.4,1008.3,0.9,75,12,,25,,,270,,,,,,,,,,,,,,,
07020,1999-09-01 11:00:00,16.7,1008,0.1,71,11.4,,29,,,260,,,,,,,,,,,,,,,
07020,1999-09-01 12:00:00,17.1,1007.7,-0.4,75,12.6,,29,75.932,,260,,,,,,,,,,,,,,7,
07020,1999-09-01 13:00:00,16.9,1007.3,-0.9,77,12.8,,29,75.932,75.932,260,,,,,,,,,,,,,,,
07020,1999-09-01 14:00:00,16.4,1006.9,-1.1,78,12.6,,31,75.932,,250,,,,,,,,,,,,,,,
07020,1999-09-01 15:00:00,16.9,1006.4,-1.3,74,12.2,9260,29,75.932,,260,,,,,,,,,,,,,,7,
07020,1999-09-01 16:00:00,16.2,1005.7,-1.7,75,11.8,,29,75.932,75.932,260,,,,,,,,,,,,,,,
07020,1999-09-01 17:00:00,16.1,1005.2,-1.6,80,12.6,,29,,,250,,,,,,,,,,,,,,,
07020,1999-09-01 18:00:00,16,1005,-1.5,78,12.2,9260,31,75.932,,250,15.3,17.5,,,,,,,,,,,,8,
07020,1999-09-01 20:00:00,16.2,1004.6,-0.6,79,12.6,,31,,,250,,,,,,,,,,,,,,,
07020,1999-09-02 00:00:00,14,1023.1,-0.1,94,13,0,7.408,,,150,,,,,,,,,,,wg-a,,,,AAXX 02004 07020 32/// /1504 10140 20130 30214 40231 55001 90000=
07020,1999-09-02 06:00:00,14,1022.2,-0.2,100,14,6000,11.112,,,110,12.6,19,,0,,,,,,,wg-a,,,,AAXX 02064 07020 12/56 51106 10140 20140 30205 40222 55002 60007 84011 90600 333 10190 20126=
07020,1999-09-02 12:00:00,20,1022,-0.6,78,16,500,22.224,,,90,,,,,,,,,,,wg-a,,,,AAXX 02124 07020 32/00 30912 10200 20160 30203 40220 58006 80008 91200=
07020,1999-09-02 18:00:00,18,1019.6,-1.1,94,17,4000,18.52,,,90,14.1,20.8,,,,,,,,10,wg-a,,,,AAXX 02184 07020 32/40 00910 10180 20170 30179 40196 56011 71000 80000 91800 333 10208 20141=
07020,1999-09-03 00:00:00,17,1018.2,-0.8,100,17,0,11.112,,,60,,,,,,,,,,,wg-a,,,,AAXX 03004 07020 32/// /0606 10170 20170 30165 40182 58008 90000=
07020,1999-09-03 06:00:00,17,1017,0.1,94,16,2000,14.816,,,120,16.1,18.4,,0,,,,,,10,wg-a,,,,AAXX 03064 07020 12820 31208 10170 20160 30153 40170 53001 60007 71000 83050 90600 333 10184 20161=
07020,1999-09-03 12:00:00,22,1017.3,-0.3,73,17,6000,14.816,,,100,,,,,,,,,,,wg-a,,,,AAXX 03124 07020 32/56 61008 10220 20170 30157 40173 58003 84021 91200=
07020,1999-09-03 18:00:00,19,1017.4,0.4,78,15,20000,22.224,,,80,16.5,22,,,,,,,,,wg-a,,,,AAXX 03184 07020 32/70 20812 10190 20150 30157 40174 52004 80001 91800 333 10220 20165=
07020,1999-09-04 00:00:00,18,1018.6,-0.1,88,16,0,14.816,,,60,,,,,,,,,,,wg-a,,,,AAXX 04004 07020 32/// /0608 10180 20160 30169 40186 58001 90000=
07020,1999-09-04 06:00:00,17,1018.7,0.5,94,16,8000,18.52,,,60,15.8,18.8,,,,,,,,,wg-a,,,,AAXX 04064 07020 32/58 80610 10170 20160 30170 40187 53005 8801/ 90600 333 10188 20158=
07020,1999-09-04 12:00:00,21,1018.7,-0.8,78,17,6000,14.816,,,70,,,,,,,,,,,wg-a,,,,AAXX 04124 07020 32/56 60708 10210 20170 30171 40187 58008 86010 91200=
07020,1999-09-04 18:00:00,19,1017.2,-0.4,88,17,6000,11.112,,,80,17.1,22.4,,,,,,,,,wg-a,,,,AAXX 04184 07020 32/56 50806 10190 20170 30156 40172 57004 85050 91800 333 10224 20171=
07020,1999-09-05 00:00:00,18,1016.2,-0.9,88,16,0,22.224,,,70,,,,,,,,,,,wg-a,,,,AAXX 05004 07020 32/// /0712 10180 20160 30145 40162 56009 90000=
07020,1999-09-05 06:00:00,17,1013.8,-0.9,94,16,4000,18.52,,,110,16.7,19.2,,,,,,,,10,wg-a,,,,AAXX 05064 07020 32/40 01110 10170 20160 30121 40138 55009 710// 80000 90600 333 10192 20167=
07020,1999-09-05 12:00:00,20,1013.4,-0.4,88,18,0,18.52,,,80,,,,,,,,,,,wg-a,,,,AAXX 05124 07020 32/// /0810 10200 20180 30118 40134 58004 91200=
07020,1999-09-05 18:00:00,20,1011,-0.8,78,16,3000,14.816,,,120,16.8,23.1,,,,,,,,10,wg-a,,,,AAXX 05184 07020 32/30 31208 10200 20160 30094 40110 56008 71011 80001 91800 333 10231 20168=
07020,1999-09-06 00:00:00,16,1010.6,-0.7,88,14,0,7.408,,,240,,,,,,,,,,,wg-a,,,,AAXX 06004 07020 32/// /2404 10160 20140 30089 40106 58007 90000=
07020,1999-09-06 06:00:00,16,1010,-0.4,94,15,4000,7.408,,,240,14.9,20,,,,,,,,,wg-a,,,,AAXX 06064 07020 32540 42404 10160 20150 30083 40100 56004 84600 90600 333 10200 20149=
07020,1999-09-06 12:00:00,18,1011.6,0.4,94,17,500,11.112,,,250,,,,,,,,,,45,wg-a,,,,AAXX 06124 07020 32/05 92506 10180 20170 30100 40116 51004 74542 89/// 91200=
07020,1999-09-06 18:00:00,17,1011.3,-0.3,94,16,800,22.224,,,250,15.3,18.9,,,,,,,,45,wg-a,,,,AAXX 06184 07020 32/08 92512 10170 20160 30096 40113 56003 74544 89/// 91800 333 10189 20153=
07020,1999-09-07 00:00:00,17,1012.5,0.1,88,15,0,22.224,,,260,,,,,,,,,,,wg-a,,,,AAXX 07004 07020 32/// /2612 10170 20150 30108 40125 50001 90000=
07020,1999-09-07 06:00:00,18,1012.3,-0,88,16,6000,31.484,,,250,16.5,17.5,,,,,,,,,wg-a,,,,AAXX 07064 07020 32556 82517 10180 20160 30106 40123 55000 88500 90600 333 10175 20165=
07020,1999-09-07 12:00:00,18,1014.6,1.1,94,17,8000,38.892,,,240,,,,,,,,,,,wg-a,,,,AAXX 07124 07020 32458 82421 10180 20170 30129 40146 51011 886// 91200=
07020,1999-09-07 18:00:00,18,1017,1.2,94,17,15000,25.928,,,260,17.4,20.2,,,,,,,,2,wg-a,,,,AAXX 07184 07020 32565 72614 10180 20170 30153 40170 51012 70252 87461 91800 333 10202 20174=
07020,1999-09-08 00:00:00,17,1018.5,-0.1,88,15,0,11.112,,,250,,,,,,,,,,,wg-a,,,,AAXX 08004 07020 32/// /2506 10170 20150 30168 40185 58001 90000=
07020,1999-09-08 06:00:00,18,1017.2,-0.3,94,17,12000,29.632,,,200,17.2,18.8,,,,,,,,,wg-a,,,,AAXX 08064 07020 32662 62016 10180 20170 30155 40172 55003 85401 90600 333 10188 20172=
07020,1999-09-08 12:00:00,21,1016.4,-0.9,73,16,0,35.188,,,200,,,,,,,,,,,wg-a,,,,AAXX 08124 07020 32/// /2019 10210 20160 30148 40164 58009 91200=
07020,1999-09-08 18:00:00,21,1015.3,-0.4,73,16,10000,29.632,,,200,18,22.8,,,,,,,,,wg-a,,,,AAXX 08184 07020 32860 32016 10210 20160 30137 40153 56004 82031 91800 333 10228 20180=
07020,1999-09-09 00:00:00,19,1017.2,0.8,88,17,0,25.928,,,220,,,,,,,,,,,wg-a,,,,AAXX 09004 07020 32/// /2214 10190 20170 30156 40172 51008 90000=
07020,1999-09-09 12:00:00,20,1026.2,1.2,49,9,0,22.224,,,50,,,,,,,,,,,wg-a,,,,AAXX 09124 07020 32/// /0512 10200 20090 30245 40262 51012 91200=
07020,1999-09-09 18:00:00,18,1026.5,-0,64,11,20000,14.816,,,50,16.8,21,,,,,,,,,wg-a,,,,AAXX 09184 07020 32/70 60508 10180 20110 30248 40265 55000 86050 91800 333 10210 20168=
07020,1999-09-10 00:00:00,17,1026.6,-0.6,72,12,0,25.928,,,80,,,,,,,,,,,wg-a,,,,AAXX 10004 07020 32/// /0814 10170 20120 30249 40266 58006 90000=
07020,1999-09-10 06:00:00,16,1024.9,-0.5,94,15,15000,14.816,,,120,14.2,18.3,,,,,,,,,wg-a,,,,AAXX 10064 07020 32665 71208 10160 20150 30232 40249 56005 87500 90600 333 10183 20142=
07020,1999-09-10 12:00:00,22,1023.7,-0.9,78,18,10000,11.112,,,80,,,,,,,,,,,wg-a,,,,AAXX 10124 07020 32560 20806 10220 20180 30221 40237 58009 81101 91200=
07020,1999-09-10 18:00:00,20,1020.4,-1.5,88,18,6000,22.224,,,110,16,23,,,,,,,,,wg-a,,,,AAXX 10184 07020 32/56 71112 10200 20180 30188 40204 56015 8704/ 91800 333 10230 20160=
07020,1999-09-11 00:00:00,19,1018.2,-1.5,83,16,0,18.52,,,120,,,,,,,,,,,wg-a,,,,AAXX 11004 07020 32/// /1210 10190 20160 30166 40182 57015 90000=
07020,1999-09-11 06:00:00,21,1015.4,-1.3,64,14,8000,29.632,,,170,18.3,23.1,,,,,,,,,wg-a,,,,AAXX 11064 07020 32/58 71716 10210 20140 30138 40154 56013 86041 90600 333 10231 20183=
07020,1999-09-11 12:00:00,25,1014.6,0.2,54,15,6000,31.484,,,200,,,,,,,,,,,wg-a,,,,AAXX 11124 07020 32656 62017 10250 20150 30130 40146 53002 84405 91200=
07020,1999-09-11 18:00:00,18,1013.6,-0.2,94,17,4000,14.816,,,240,18.1,26.1,,,,,,,,,wg-a,,,,AAXX 11184 07020 32/40 62408 10180 20170 30120 40136 55002 85055 91800 333 10261 20181=
07020,1999-09-12 00:00:00,18,1014.2,0,94,17,0,22.224,,,250,,,,,,,,,,,wg-a,,,,AAXX 12004 07020 32/// /2512 10180 20170 30126 40142 50000 90000=
07020,1999-09-12 06:00:00,16,1015.5,0.8,82,13,18000,25.928,,,310,16,18.4,,,,,,,,,wg-a,,,,AAXX 12064 07020 32768 63114 10160 20130 30138 40155 51008 85801 90600 333 10184 20160=
07020,1999-09-12 12:00:00,19,1015.6,-0.3,56,10,18000,18.52,,,260,,,,,,,,,,,wg-a,,,,AAXX 12124 07020 32668 52610 10190 20100 30139 40156 58003 84201 91200=
07020,1999-09-12 18:00:00,16,1014.3,-0.7,63,9,20000,14.816,,,240,16,19.3,,,,,,,,,wg-a,,,,AAXX 12184 07020 32570 62408 10160 20090 30126 40143 56007 82108 91800 333 10193 20160=
07020,1999-09-13 00:00:00,13,1013.3,-1.2,72,8,0,18.52,,,170,,,,,,,,,,,wg-a,,,,AAXX 13004 07020 32/// /1710 10130 20080 30116 40133 56012 90000=
07020,1999-09-13 06:00:00,16,1012.8,-0.1,72,11,15000,18.52,,,290,13,16,,,,,,,,,wg-a,,,,AAXX 13064 07020 32565 82910 10160 20110 30111 40128 55001 8713/ 90600 333 10160 20130=
07020,1999-09-14 00:00:00,17,1013.3,-0.5,72,12,0,14.816,,,40,,,,,,,,,,,wg-a,,,,AAXX 14004 07020 32/// /0408 10170 20120 30116 40133 56005 90000=
07020,1999-09-14 06:00:00,15,1013.1,0.3,82,12,15000,29.632,,,60,14.8,16.8,,1,,,,,,61,wg-a,,,,AAXX 14064 07020 12565 80616 10150 20120 30114 40131 53003 60017 761// 88500 90600 333 10168 20148=
07020,1999-09-14 12:00:00,16,1014.4,0.5,72,11,15000,14.816,,,360,,,,,,,,,,2,wg-a,,,,AAXX 14124 07020 32565 83608 10160 20110 30127 40144 52005 70262 88800 91200=
07020,1999-09-14 15:00:00,15.9,1014.6,0.2,69,10.2,15000,18.52,,,360,,,,,,,,,,,og-post,,,,AAXX 14154 07020 32565 73610 10159 20102 30129 40146 50002 87840 333 92427=
07020,1999-09-14 16:00:00,17,1014.7,0.2,65,10.4,,18.52,,,350,,,,,,,,,,,og-post,,,,AAXX 14164 07020 36/// /3510 10170 20104 30130 40147 51002=
07020,1999-09-14 17:00:00,16.7,1015.1,0.4,68,10.8,,18.52,,,350,,,,,,,,,,,og-post,,,,AAXX 14174 07020 36/// /3510 10167 20108 30134 40151 53004=
07020,1999-09-14 18:00:00,16.1,1015.5,0.9,67,10,,14.816,,,350,14.3,17.2,,,,1,,,,,og-post,,,,AAXX 14184 07020 16/// /3508 10161 20100 30138 40155 53009 60012 333 10172 20143=
07020,1999-09-14 19:00:00,15.4,1015.8,1.1,71,10.2,,14.816,,,320,,,,,,,,,,,og-post,,,,AAXX 14194 07020 36/// /3208 10154 20102 30141 40158 51011=
07020,1999-09-14 20:00:00,15.4,1016.1,1,70,10,,18.52,,,300,,,,,,,,,,,og-post,,,,AAXX 14204 07020 36/// /3010 10154 20100 30144 40161 51010=
07020,1999-09-14 21:00:00,15.6,1016,0.5,71,10.4,,25.928,,,300,,,,,,,,,,,og-post,,,,AAXX 14214 07020 36/// /3014 10156 20104 30143 40160 50005=
07020,1999-09-14 22:00:00,15.8,1016.1,0.3,72,10.8,,25.928,,,300,,,,,,,,,,,og-post,,,,AAXX 14224 07020 36/// /3014 10158 20108 30144 40161 51003=
07020,1999-09-14 23:00:00,16,1015.9,-0.2,73,11.2,,25.928,,,300,,,,,,,,,,,og-post,,,,AAXX 14234 07020 36/// /3014 10160 20112 30142 40159 58002=
07020,1999-09-15 00:00:00,16,1015.7,-0.3,70,10.5,,25.928,,,300,,,,,,,,,,,og-post,,,,AAXX 15004 07020 36/// /3014 10160 20105 30140 40157 58003=
07020,1999-09-15 01:00:00,15.7,1015.4,-0.7,68,9.8,,14.816,,,310,,,,,,,,,,,og-post,,,,AAXX 15014 07020 36/// /3108 10157 20098 30137 40154 58007=
07020,1999-09-15 02:00:00,15.5,1015.2,-0.7,67,9.4,,14.816,,,320,,,,,,,,,,,og-post,,,,AAXX 15024 07020 36/// /3208 10155 20094 30135 40152 57007=
07020,1999-09-15 03:00:00,15.6,1015.1,-0.6,75,11.2,,14.816,,,20,,,,,,,,,,,og-post,,,,AAXX 15034 07020 36/// /0208 10156 20112 30134 40151 56006=
07020,1999-09-15 06:00:00,15,1014.8,-0.3,72,10,12000,18.52,,,320,14.9,16.1,,,,,,,,,wg-a,,,,AAXX 15064 07020 32562 53210 10150 20100 30131 40148 55003 85800 90600 333 10161 20149=
07020,1999-09-15 12:00:00,18,1015.2,-0.2,52,8,500,22.224,,,270,,,,,,,,,,,wg-a,,,,AAXX 15124 07020 32600 32712 10180 20080 30135 40152 58002 83100 91200=
07020,1999-09-15 18:00:00,16,1013.8,-0.4,55,7,20000,14.816,,,260,14.9,18.7,,,,,,,,,wg-a,,,,AAXX 15184 07020 32/70 62608 10160 20070 30121 40138 56004 86050 91800 333 10187 20149=
07020,1999-09-16 00:00:00,16,1011.6,-1.9,72,11,0,22.224,,,220,,,,,,,,,,,wg-a,,,,AAXX 16004 07020 32/// /2212 10160 20110 30099 40116 58019 90000=
07020,1999-09-16 06:00:00,16,1008,-1.7,72,11,12000,46.3,,68.524,200,13.5,16.9,,0,,,,,,,wg-a,,,,AAXX 16064 07020 12862 72025 10160 20110 30063 40080 56017 60007 87060 90600 333 10169 20135 91037=
07020,1999-09-16 12:00:00,19,1006.3,-0.1,83,16,10000,38.892,,79.636,260,,,,0,,,,,,2,wg-a,,,,AAXX 16124 07020 12660 72621 10190 20160 30047 40063 55001 60007 70262 8726/ 91200 333 91043=
07020,1999-09-16 18:00:00,16.7,1008.8,0.5,74,12,20000,29.632,,,270,15.7,19,,,,0.4,,,,,og-post,,,,AAXX 16184 07020 12570 72716 10167 20120 30071 40088 53005 69942 85128 333 10190 20157 92435=
07020,1999-09-16 19:00:00,16.6,1008.9,0.6,75,12.2,,29.632,,,270,,,,,,,,,,,og-post,,,,AAXX 16194 07020 36/// /2716 10166 20122 30072 40089 53006=
07020,1999-09-16 20:00:00,16.2,1009.2,0.9,73,11.4,,31.484,,,260,,,,,,,,,,,og-post,,,,AAXX 16204 07020 36/// /2617 10162 20114 30075 40092 51009=
07020,1999-09-16 21:00:00,16.2,1008.9,0.1,72,11.2,,31.484,,,260,,,,,,,,,,,og-post,,,,AAXX 16214 07020 36/// /2617 10162 20112 30072 40089 50001=
07020,1999-09-16 22:00:00,16.1,1008.6,-0.3,75,11.7,,31.484,,,260,,,,,,,,,,,og-post,,,,AAXX 16224 07020 36/// /2617 10161 20117 30069 40086 58003=
07020,1999-09-16 23:00:00,16,1008.5,-0.7,75,11.6,,35.188,,,260,,,,,,,,,,,og-post,,,,AAXX 16234 07020 36/// /2619 10160 20116 30068 40085 56007=
07020,1999-09-17 00:00:00,16.2,1008.1,-0.8,77,12.2,,35.188,,,250,,,,,,,,,,,og-post,,,,AAXX 17004 07020 36/// /2519 10162 20122 30064 40081 58008=
07020,1999-09-17 01:00:00,16,1007.9,-0.7,77,12,,38.892,,,240,,,,,,,,,,,og-post,,,,AAXX 17014 07020 36/// /2421 10160 20120 30062 40079 58007=
07020,1999-09-17 02:00:00,15.8,1007.6,-0.9,78,12,,35.188,,,240,,,,,,,,,,,og-post,,,,AAXX 17024 07020 36/// /2419 10158 20120 30059 40076 56009=
07020,1999-09-17 03:00:00,15.8,1007.5,-0.6,76,11.6,,35.188,,,240,,,,,,,,,,,og-post,,,,AAXX 17034 07020 36/// /2419 10158 20116 30058 40075 56006=
07020,1999-09-17 04:00:00,15.6,1007.2,-0.7,76,11.4,,35.188,,,250,,,,,,,,,,,og-post,,,,AAXX 17044 07020 36/// /2519 10156 20114 30055 40072 57007=
07020,1999-09-17 05:00:00,15.6,1007.2,-0.4,78,11.8,,31.484,,,240,,,,,,,,,,,og-post,,,,AAXX 17054 07020 36/// /2417 10156 20118 30055 40072 56004=
07020,1999-09-17 06:00:00,15.8,1007.4,-0.1,78,12,15000,35.188,,,240,15.5,16.7,,,,,,,,,og-post,,,,AAXX 17064 07020 32665 62419 10158 20120 30057 40074 55001 86200 333 10167 20155 92437=
07020,1999-09-17 07:00:00,16.2,1007.3,0.1,79,12.6,,35.188,,,240,,,,,,,,,,,og-post,,,,AAXX 17074 07020 36/// /2419 10162 20126 30056 40073 50001=
07020,1999-09-17 08:00:00,16.6,1007.2,0.1,76,12.4,,35.188,,,240,,,,,,,,,,,og-post,,,,AAXX 17084 07020 36/// /2419 10166 20124 30056 40072 51001=
07020,1999-09-17 09:00:00,16.9,1007.3,-0,80,13.4,15000,35.188,,,250,,,,0.2,,,,,,25,og-post,,,,AAXX 17094 07020 21565 62519 10169 20134 30057 40073 55000 72582 86200 333 69927 92437=
07020,1999-09-17 11:00:00,19,1007.2,0,68,13,,35.188,,,240,,,,,,,,,,,og-post,,,,AAXX 17114 07020 36/// /2419 10190 20130 30056 40072 50000=
07020,1999-09-17 12:00:00,17.1,1007.4,0.1,82,14,15000,31.484,,,250,,,,0.2,0.4,,,,,81,og-post,,,,AAXX 17124 07020 /1465 62517 10171 20140 30058 40074 52001 69941 78182 86200 333 69927 92447=
07020,1999-09-17 13:00:00,17.8,1007.3,-0.2,79,14.1,,35.188,,,250,,,0.4,,,,,,,,og-post,,,,AAXX 17134 07020 26/// /2519 10178 20141 30057 40073 56002 333 69945=
07020,1999-09-17 14:00:00,18,1007.1,-0.1,72,12.9,,35.188,,,240,,,,,,,,,,,og-post,,,,AAXX 17144 07020 36/// /2419 10180 20129 30055 40071 58001=
07020,1999-09-17 15:00:00,18.8,1006.8,-0.6,68,12.8,15000,31.484,,,240,,,,0.4,,,,,,2,og-post,,,,AAXX 17154 07020 21665 62417 10188 20128 30052 40068 58006 70282 86230 333 69947 92437=
07020,1999-09-17 16:00:00,17.7,1006.6,-0.7,73,12.8,,25.928,,,240,,,,,,,,,,,og-post,,,,AAXX 17164 07020 36/// /2414 10177 20128 30050 40066 57007=
07020,1999-09-17 17:00:00,17.4,1006.6,-0.5,74,12.7,,25.928,,,250,,,,,,,,,,,og-post,,,,AAXX 17174 07020 36/// /2514 10174 20127 30050 40066 56005=
07020,1999-09-17 18:00:00,16.5,1006.6,-0.2,76,12.3,15000,22.224,,,230,15.8,19.6,,,,0.8,,,,2,og-post,,,,AAXX 17184 07020 11565 52312 10165 20123 30050 40066 56002 69982 70282 84251 333 10196 20158 92437=
07020,1999-09-17 19:00:00,16,1006.7,-0,74,11.4,,22.224,,,240,,,,,,,,,,,og-post,,,,AAXX 17194 07020 36/// /2412 10160 20114 30050 40067 54000=
07020,1999-09-18 00:00:00,16,1005.2,-1.6,82,13,0,31.484,,,210,,,,,,,,,,,wg-a,,,,AAXX 18004 07020 32/// /2117 10160 20130 30036 40052 56016 90000=
07020,1999-09-18 06:00:00,14,1002.2,-1.6,88,12,10000,31.484,,,170,14,16.6,,,,,,,,,wg-a,,,,AAXX 18064 07020 32460 61717 10140 20120 30005 40022 56016 86700 90600 333 10166 20140=
07020,1999-09-18 12:00:00,17,999.1,-2.1,88,15,4000,46.3,,68.524,180,,,,0,,,,,,62,wg-a,,,,AAXX 18124 07020 12540 81825 10170 20150 39975 49991 56021 60007 76266 88020 91200 333 91037=
07020,1999-09-18 18:00:00,17,996.8,-1,82,14,6000,38.892,,68.524,170,14.2,17,,1,,,,,,21,wg-a,,,,AAXX 18184 07020 12556 81721 10170 20140 39952 49968 56010 60017 72162 88020 91800 333 10170 20142 91037=
07020,1999-09-19 00:00:00,15,993.8,-2.3,88,13,0,29.632,,,150,,,,,,,,,,,wg-a,,,,AAXX 19004 07020 32/// /1516 10150 20130 39922 49938 56023 90000=
07020,1999-09-19 06:00:00,15,991.5,-0.1,88,13,10000,25.928,,57.412,170,14.6,16.6,,3,,,,,,62,wg-a,,,,AAXX 19064 07020 12560 81714 10150 20130 39899 49915 58001 60037 762// 88700 90600 333 10166 20146 91031=
07020,1999-09-19 12:00:00,18,991.6,0.2,77,14,15000,25.928,,,210,,,,2,,,,,,1,wg-a,,,,AAXX 19124 07020 12665 52114 10180 20140 39900 49916 53002 60027 70162 84261 91200=
07020,1999-09-19 18:00:00,17,990.1,-0.9,82,14,16000,11.112,,,120,14.7,20,,0,,,,,,,wg-a,,,,AAXX 19184 07020 12666 61206 10170 20140 39885 49901 58009 60007 86230 91800 333 10200 20147=
07020,1999-09-20 00:00:00,16,988.1,-1.4,88,14,0,7.408,,,120,,,,,,,,,,,wg-a,,,,AAXX 20004 07020 32/// /1204 10160 20140 39865 49881 56014 90000=
07020,1999-09-20 06:00:00,14,986.7,-0.3,94,13,8000,7.408,,,160,14.4,17.1,,1,,,,,,,wg-a,,,,AAXX 20064 07020 12558 81604 10140 20130 39851 49867 56003 60017 88500 90600 333 10171 20144=
07020,1999-09-20 18:00:00,16,990.6,0.4,88,14,10000,11.112,,,290,14.3,19.7,,1,,,,,,81,wg-a,,,,AAXX 20184 07020 12560 62906 10160 20140 39890 49906 53004 60017 78182 85971 91800 333 10197 20143=
07020,1999-09-21 00:00:00,14,992.2,0.2,88,12,0,14.816,,,220,,,,,,,,,,,wg-a,,,,AAXX 21004 07020 32/// /2208 10140 20120 39906 49922 53002 90000=
07020,1999-09-21 06:00:00,15,994.5,1,82,12,15000,22.224,,,250,12.8,16.3,,5,,,,,,,wg-a,,,,AAXX 21064 07020 12665 42512 10150 20120 49945 53010 60057 84100 90600 333 10163 20128=
07020,1999-09-21 12:00:00,18,995.8,0.7,83,15,15000,31.484,,,200,,,,0,,,,,,,wg-a,,,,AAXX 21124 07020 12665 72017 10180 20150 39942 49958 50007 60007 87200 91200=
07020,1999-09-21 18:00:00,16,995.8,0.2,94,15,6000,11.112,,,220,14.9,19.3,,3,,,,,,61,wg-a,,,,AAXX 21184 07020 12556 82206 10160 20150 39942 49958 53002 60037 76161 88020 91800 333 10193 20149=
07020,1999-09-22 00:00:00,16,998,1,94,15,0,14.816,,,210,,,,,,,,,,,wg-a,,,,AAXX 22004 07020 32/// /2108 10160 20150 39964 49980 51010 90000=
07020,1999-09-22 06:00:00,17,998.7,-0,94,16,10000,25.928,,,180,14.4,17.3,,,,,,,,,wg-a,,,,AAXX 22064 07020 02560 71814 10170 20160 39971 49987 55000 61000 87020 90600 333 10173 20144 ////=
07020,1999-09-22 12:00:00,19,998.6,-0.5,83,16,8000,29.632,,,170,,,,0,,,,,,95,wg-a,,,,AAXX 22124 07020 12558 81716 10190 20160 39970 49986 58005 60007 79592 8/96/ 91200=
07020,1999-09-22 18:00:00,19,999.4,0.2,78,15,15000,35.188,,68.524,200,16.6,20,,,,,,,,3,wg-a,,,,AAXX 22184 07020 32665 72019 10190 20150 39978 49994 52002 70398 8746/ 91800 333 10200 20166 91037=
07020,1999-09-23 00:00:00,18,1000.4,-0.2,83,15,0,42.596,,,200,,,,,,,,,,,wg-a,,,,AAXX 23004 07020 32/// /2023 10180 20150 39988 40004 58002 90000=
07020,1999-09-23 06:00:00,17,1002,0.7,88,15,8000,42.596,,75.932,210,17,19.3,,,,,,,,,wg-a,,,,AAXX 23064 07020 32558 62123 10170 20150 30004 40020 53007 86460 90600 333 10193 20170 91041=
07020,1999-09-23 12:00:00,19,1004.1,0.6,83,16,8000,42.596,,64.82,200,,,,1,,,,,,25,wg-a,,,,AAXX 23124 07020 12658 72023 10190 20160 30025 40041 51006 60017 72582 87500 91200 333 91035=
07020,1999-09-23 18:00:00,18,1007.2,1.7,83,15,12000,29.632,,87.044,220,17.1,19.8,,,,,,,,2,wg-a,,,,AAXX 23184 07020 32562 62216 10180 20150 30056 40072 53017 70281 86300 91800 333 10198 20171 91047=
07020,1999-09-24 00:00:00,17,1009.6,0.6,88,15,0,38.892,,,220,,,,,,,,,,,wg-a,,,,AAXX 24004 07020 32/// /2221 10170 20150 30080 40096 51006 90000=
07020,1999-09-24 06:00:00,17,1009.4,0.2,88,15,6000,46.3,,64.82,200,16.8,18,,2,,,,,,81,wg-a,,,,AAXX 24064 07020 12556 82025 10170 20150 30078 40094 52002 60027 781// 88700 90600 333 10180 20168 91035=
07020,1999-09-24 12:00:00,20,1010.4,0,83,17,8000,35.188,,,230,,,,,,,,,,2,wg-a,,,,AAXX 24124 07020 32558 52319 10200 20170 30088 40104 50000 70282 83250 91200=
07020,1999-09-24 18:00:00,18,1010.1,0.3,83,15,12000,38.892,,53.708,240,16.7,20.4,,1,,,,,,1,wg-a,,,,AAXX 24184 07020 12562 32421 10180 20150 30085 40101 53003 60017 70181 81250 91800 333 10204 20167 91029=
07020,1999-09-25 00:00:00,17,1010.3,-0.4,88,15,0,38.892,,,240,,,,,,,,,,,wg-a,,,,AAXX 25004 07020 32/// /2421 10170 20150 30086 40103 58004 90000=
07020,1999-09-25 06:00:00,17,1007.9,-0.9,88,15,10000,38.892,,,210,16.5,17.7,,0,,,,,,,wg-a,,,,AAXX 25064 07020 12560 82121 10170 20150 30063 40079 56009 60007 887// 90600 333 10177 20165=
07020,1999-09-25 12:00:00,19,1007.1,-1.1,83,16,12000,35.188,,,230,,,,,,,,,,,wg-a,,,,AAXX 25124 07020 32562 62319 10190 20160 30055 40071 58011 86200 91200=
07020,1999-09-25 18:00:00,16,1005.3,-0.5,88,14,15000,31.484,,,260,16.2,19.6,,,,,,,,2,wg-a,,,,AAXX 25184 07020 32665 62617 10160 20140 30037 40053 56005 70282 85281 91800 333 10196 20162=
07020,1999-09-26 00:00:00,16,1005.5,-0.4,82,13,0,35.188,,,270,,,,,,,,,,,wg-a,,,,AAXX 26004 07020 32/// /2719 10160 20130 30039 40055 56004 90000=
07020,1999-09-26 06:00:00,16,1004.9,0.3,77,12,12000,31.484,,,270,15.2,16.3,,0,,,,,,,wg-a,,,,AAXX 26064 07020 12662 62717 10160 20120 30032 40049 53003 60007 85180 90600 333 10163 20152=
07020,1999-09-26 12:00:00,18,1006.5,0.3,68,12,20000,29.632,,53.708,260,,,,,,,,,,2,wg-a,,,,AAXX 26124 07020 32670 52616 10180 20120 30049 40065 52003 70281 85200 91200 333 91029=
07020,1999-09-26 18:00:00,16,1004.4,-1.1,77,12,15000,18.52,,,200,15.2,18.7,,,,,,,,,wg-a,,,,AAXX 26184 07020 32865 72010 10160 20120 30028 40044 58011 87060 91800 333 10187 20152=
07020,1999-09-27 00:00:00,17,1000.6,-2.2,88,15,0,53.708,,,210,,,,,,,,,,,wg-a,,,,AAXX 27004 07020 32/// /2129 10170 20150 39990 40006 56022 90000=
07020,1999-09-27 06:00:00,16,999.2,-0.4,82,13,10000,35.188,,75.932,260,14.6,16.9,,,,,,,,,wg-a,,,,AAXX 27064 07020 32560 82619 10160 20130 39976 49992 55004 88500 90600 333 10169 20146 91041=
07020,1999-09-27 12:00:00,18,1000.1,0,77,14,8000,50.004,,,240,,,,1,,,,,,2,wg-a,,,,AAXX 27124 07020 12658 72427 10180 20140 39985 40001 50000 60017 70262 87500 91200=
07020,1999-09-27 18:00:00,16,998.8,-0.2,88,14,8000,53.708,,83.34,260,15.3,18.2,,0,,,,,,,wg-a,,,,AAXX 27184 07020 12658 72629 10160 20140 39972 49988 55002 60007 87700 91800 333 10182 20153 91045=
07020,1999-09-27 20:00:00,15.9,999.1,0.5,80,12.5,,50.004,75.932,,260,,,,,,,,,,,og-post,,,,AAXX 27204 07020 36/// /2627 10159 20125 39975 49991 53005 333 91141=
07020,1999-09-27 21:00:00,15.6,999.3,0.5,83,12.7,,50.004,79.636,,260,,,,,,,,,,,og-post,,,,AAXX 27214 07020 36/// /2627 10156 20127 39977 49993 53005 333 91143=
07020,1999-09-27 22:00:00,15.6,999.6,0.9,82,12.5,,50.004,,,260,,,,,,,,,,,og-post,,,,AAXX 27224 07020 36/// /2627 10156 20125 39980 49996 51009=
07020,1999-09-27 23:00:00,15.6,999.8,0.7,82,12.5,,50.004,,,270,,,,,,,,,,,og-post,,,,AAXX 27234 07020 36/// /2727 10156 20125 39982 49998 52007=
07020,1999-09-28 00:00:00,15.6,1000.2,0.9,81,12.4,,38.892,79.636,,270,,,,,,,,,,,og-post,,,,AAXX 28004 07020 36/// /2721 10156 20124 39986 40002 53009 333 91143=
07020,1999-09-28 01:00:00,15.3,1000.5,0.9,83,12.4,,31.484,61.116,,280,,,0.4,,,,,,,,og-post,,,,AAXX 28014 07020 26/// /2817 10153 20124 39989 40005 53009 333 69945 91133=
07020,1999-09-28 02:00:00,15.6,1000.9,1.1,83,12.7,,31.484,,,270,,,,,,,,,,,og-post,,,,AAXX 28024 07020 36/// /2717 10156 20127 39993 40009 52011=
07020,1999-09-28 03:00:00,15.6,1001,0.8,81,12.4,,35.188,61.116,,280,,,,0.4,,,,,,,og-post,,,,AAXX 28034 07020 26/// /2819 10156 20124 39994 40010 51008 333 69947 91133=
07020,1999-09-28 04:00:00,15.6,1001.5,1,82,12.5,,31.484,57.412,,280,,,,,,,,,,,og-post,,,,AAXX 28044 07020 36/// /2817 10156 20125 39999 40015 53010 333 91131=
07020,1999-09-28 05:00:00,14.9,1002.2,1.2,89,13.1,,31.484,,,270,,,1,,,,,,,,og-post,,,,AAXX 28054 07020 26/// /2717 10149 20131 30005 40022 53012 333 60015=
07020,1999-09-28 06:00:00,15.7,1003.3,2.3,85,13.2,12000,42.596,61.116,,300,14.8,16.4,,1,,1,,,,,og-post,,,,AAXX 28064 07020 /2662 83023 10157 20132 40033 53023 60012 88500 333 10164 20148 60017 91133 92447=
07020,1999-09-28 12:00:00,16.4,1007.3,1,78,12.6,16000,38.892,90.748,90.748,260,,,,,,,,,,,og-post,,,,AAXX 28124 07020 32566 82621 10164 20126 30056 40073 51010 88200 333 91049 91149 92457=
07020,1999-09-28 15:00:00,16.8,1006.2,-1,88,14.8,8000,35.188,,,220,,,,0.4,,,,,,25,og-post,,,,AAXX 28154 07020 21558 82219 10168 20148 30046 40062 58010 725// 88800 333 69947=
07020,1999-09-28 16:00:00,16.9,1005.7,-1.2,84,14.2,,31.484,,,220,,,,,,,,,,,og-post,,,,AAXX 28164 07020 36/// /2217 10169 20142 30041 40057 58012=
07020,1999-09-29 07:00:00,17,1001.3,-0.6,86,14.6,,46.3,,,240,,,,,,,,,,,og-post,,,,AAXX 29074 07020 36/// /2425 10170 20146 39997 40013 56006=
07020,1999-09-29 09:00:00,17.3,1000.9,-0.4,85,14.8,8000,53.708,,,240,,,,,,,,,,,og-post,,,,AAXX 29094 07020 32558 82429 10173 20148 39993 40009 57004 88800 333 92456=
07020,1999-09-29 10:00:00,17.3,1000.9,-0.4,83,14.4,,50.004,,68.524,240,,,,,,,,,,,og-post,,,,AAXX 29104 07020 36/// /2427 10173 20144 39993 40009 56004 333 91037=
07020,1999-09-29 11:00:00,17.2,1000.6,-0.3,88,15.2,,50.004,,68.524,240,,,0.2,,,,,,,,og-post,,,,AAXX 29114 07020 26/// /2427 10172 20152 39990 40006 58003 333 69925 91037=
07020,1999-09-29 12:00:00,17.8,1000.2,-0.7,85,15.2,10000,53.708,,,240,,,,0.2,0.2,,,,,25,og-post,,,,AAXX 29124 07020 /1560 82429 10178 20152 39986 40002 58007 69921 72582 88800 333 69927 92447=
07020,1999-09-29 14:00:00,18.3,998.8,-1.8,81,15,,53.708,,,240,,,,,,,,,,,og-post,,,,AAXX 29144 07020 36/// /2429 10183 20150 39972 49988 58018=
07020,1999-09-29 15:00:00,18,998.2,-2,80,14.5,10000,50.004,,,240,,,,,,,,,,,og-post,,,,AAXX 29154 07020 32560 72427 10180 20145 39966 49982 58020 87800 333 92447=
07020,1999-09-29 16:00:00,17.2,997.9,-1.8,80,13.7,,50.004,72.228,,260,,,,,,,,,,,og-post,,,,AAXX 29164 07020 36/// /2627 10172 20137 39963 49979 56018 333 91139=
07020,1999-09-29 17:00:00,16.9,997.3,-1.5,83,14,,50.004,72.228,,250,,,,,,,,,,,og-post,,,,AAXX 29174 07020 36/// /2527 10169 20140 39957 49973 57015 333 91139=
07020,1999-09-29 18:00:00,17,997,-1.2,82,13.9,10000,53.708,,75.932,260,,,,,,,,,,,og-post,,,,AAXX 29184 07020 42560 72629 10170 20139 39954 49970 57012 87500 333 91041 92447=
07020,1999-09-29 19:00:00,16.7,996.6,-1.3,82,13.6,,46.3,,,250,,,,,,,,,,,og-post,,,,AAXX 29194 07020 36/// /2525 10167 20136 39950 49966 56013=
07020,1999-09-29 20:00:00,16.5,996.2,-1.1,84,13.8,,50.004,72.228,,240,,,,,,,,,,,og-post,,,,AAXX 29204 07020 36/// /2427 10165 20138 39946 49962 58011 333 91139=
07020,1999-09-29 21:00:00,16.5,995.5,-1.5,80,13,,57.412,79.636,79.636,250,,,,,,,,,,,og-post,,,,AAXX 29214 07020 36/// /2531 10165 20130 39939 49955 58015 333 91043 91143=
07020,1999-09-29 22:00:00,16.3,995.1,-1.5,85,13.8,,46.3,,,250,,,,,,,,,,,og-post,,,,AAXX 29224 07020 36/// /2525 10163 20138 39935 49951 57015=
07020,1999-09-29 23:00:00,16,994.6,-1.6,85,13.5,,42.596,,,250,,,,,,,,,,,og-post,,,,AAXX 29234 07020 36/// /2523 10160 20135 39930 49946 56016=
07020,1999-09-30 00:00:00,16,993.9,-1.6,84,13.3,,42.596,79.636,,250,,,,,,,,,,,og-post,,,,AAXX 30004 07020 36/// /2523 10160 20133 39923 49939 58016 333 91143=
07020,1999-09-30 01:00:00,16.1,993,-2.1,85,13.6,,46.3,,,250,,,,,,,,,,,og-post,,,,AAXX 30014 07020 36/// /2525 10161 20136 39914 49930 58021=
07020,1999-09-30 02:00:00,14.8,992.6,-2,89,13,,22.224,,,280,,,1,,,,,,,,og-post,,,,AAXX 30024 07020 26/// /2812 10148 20130 39910 49926 56020 333 60015=
07020,1999-09-30 03:00:00,15.2,992.6,-1.3,90,13.6,,31.484,,,280,,,,9,,,,,,,og-post,,,,AAXX 30034 07020 26/// /2817 10152 20136 39910 49926 56013 333 60097=
07020,1999-09-30 04:00:00,15.6,992.4,-0.6,85,13.1,,31.484,,,290,,,0.2,,,,,,,,og-post,,,,AAXX 30044 07020 26/// /2917 10156 20131 39908 49924 56006 333 69925=
07020,1999-09-30 05:00:00,15.6,992.5,-0.1,84,12.9,,29.632,,,290,,,,,,,,,,,og-post,,,,AAXX 30054 07020 36/// /2916 10156 20129 39909 49925 55001=
07020,1999-09-30 06:00:00,15.4,993.6,1,84,12.7,8000,29.632,,,290,13.9,17,,0.4,,9,,,,,og-post,,,,AAXX 30064 07020 /2558 82916 10154 20127 39920 49936 53010 60092 88700 333 10170 20139 69947 92436=
07020,1999-09-30 07:00:00,15.6,994.4,2,85,13.1,,38.892,,,290,,,,,,,,,,,og-post,,,,AAXX 30074 07020 36/// /2921 10156 20131 39928 49944 53020=
07020,1999-09-30 08:00:00,16,995.7,3.2,84,13.3,,31.484,,,290,,,,,,,,,,,og-post,,,,AAXX 30084 07020 36/// /2917 10160 20133 39941 49957 53032=
07020,1999-09-30 09:00:00,16.5,996.8,3.2,84,13.8,12000,31.484,,,300,,,,,,,,,,,og-post,,,,AAXX 30094 07020 32662 43017 10165 20138 39952 49968 53032 84200 333 92457=
07020,1999-09-30 10:00:00,16.7,998.1,3.7,83,13.8,,38.892,,,300,,,,,,,,,,,og-post,,,,AAXX 30104 07020 36/// /3021 10167 20138 39965 49981 52037=
07020,1999-09-30 11:00:00,16.7,999.3,3.6,83,13.8,,42.596,,,300,,,,,,,,,,,og-post,,,,AAXX 30114 07020 36/// /3023 10167 20138 39977 49993 53036=
07020,1999-09-30 12:00:00,17.4,1000.2,3.4,79,13.7,10000,42.596,,,300,,,,,,,,,,,og-post,,,,AAXX 30124 07020 32660 63023 10174 20137 39986 40002 51034 84250 333 92457=
07020,1999-09-30 13:00:00,17.2,1001.2,3.1,82,14.1,,42.596,,,290,,,,,,,,,,,og-post,,,,AAXX 30134 07020 36/// /2923 10172 20141 39996 40012 51031=
07020,1999-09-30 14:00:00,16.9,1001.9,2.6,81,13.6,,46.3,,,290,,,,,,,,,,,og-post,,,,AAXX 30144 07020 36/// /2925 10169 20136 30003 40019 51026=
07020,1999-09-30 15:00:00,16.5,1002.3,2.1,80,13,10000,42.596,,,280,,,,,,,,,,,og-post,,,,AAXX 30154 07020 32060 82823 10165 20130 30007 40023 51021 88500 333 92457=
07020,1999-09-30 16:00:00,16.2,1002.8,1.6,79,12.6,,42.596,,,290,,,,,,,,,,,og-post,,,,AAXX 30164 07020 36/// /2923 10162 20126 30012 40028 51016=
07020,1999-09-30 17:00:00,15.8,1003.3,1.4,76,11.6,,38.892,64.82,64.82,280,,,,,,,,,,,og-post,,,,AAXX 30174 07020 36/// /2821 10158 20116 30017 40033 53014 333 91035 91135=
07020,1999-09-30 18:00:00,15.8,1003.9,1.5,71,10.6,,42.596,72.228,64.82,280,15.2,17.5,,,,,,,,,og-post,,,,AAXX 30184 07020 32/// /2823 10158 20106 30022 40039 52015 333 10175 20152 91035 91139=
07020,1999-09-30 19:00:00,15.1,1004.5,1.6,82,12.1,,46.3,75.932,75.932,280,,,,,,,,,,,og-post,,,,AAXX 30194 07020 36/// /2825 10151 20121 30028 40045 53016 333 91041 91141=
07020,1999-09-30 20:00:00,15.2,1005.1,1.7,80,11.8,,42.596,72.228,64.82,280,,,,,,,,,,,og-post,,,,AAXX 30204 07020 36/// /2823 10152 20118 30034 40051 53017 333 91035 91139=
07020,1999-09-30 21:00:00,15.5,1005.1,1.2,80,12.1,,46.3,75.932,,270,,,,,,,,,,,og-post,,,,AAXX 30214 07020 36/// /2725 10155 20121 30034 40051 51012 333 91141=
07020,1999-09-30 22:00:00,15.7,1005,0.5,82,12.6,,46.3,83.34,,270,,,,,,,,,,,og-post,,,,AAXX 30224 07020 36/// /2725 10157 20126 30033 40050 50005 333 91145=
07020,1999-09-30 23:00:00,15.6,1005.1,-0,78,11.8,,50.004,75.932,75.932,280,,,,,,,,,,,og-post,,,,AAXX 30234 07020 36/// /2827 10156 20118 30034 40051 55000 333 91041 91141=
07020,1999-10-01 00:00:00,15.8,1005.5,0.4,78,12,,46.3,83.34,68.524,280,,,,,,,,,,,og-post,,,,AAXX 01004 07020 36/// /2825 10158 20120 30038 40055 53004 333 91037 91145=
07020,1999-10-01 01:00:00,15.8,1006,1,77,11.8,,46.3,75.932,64.82,280,,,,,,,,,,,og-post,,,,AAXX 01014 07020 36/// /2825 10158 20118 30043 40060 53010 333 91035 91141=
07020,1999-10-01 02:00:00,15.7,1006.2,1.1,73,10.9,,42.596,72.228,68.524,280,,,,,,,,,,,og-post,,,,AAXX 01024 07020 36/// /2823 10157 20109 30045 40062 51011 333 91037 91139=
07020,1999-10-01 03:00:00,15.5,1006.2,0.7,74,10.9,,46.3,75.932,,290,,,,,,,,,,,og-post,,,,AAXX 01034 07020 36/// /2925 10155 20109 30045 40062 51007 333 91141=
07020,1999-10-01 04:00:00,15.4,1006.5,0.5,70,10,,38.892,68.524,,280,,,,,,,,,,,og-post,,,,AAXX 01044 07020 36/// /2821 10154 20100 30048 40065 53005 333 91137=
07020,1999-10-01 05:00:00,15.5,1006.8,0.6,75,11.1,,35.188,61.116,,270,,,,,,,,,,,og-post,,,,AAXX 01054 07020 36/// /2719 10155 20111 30051 40068 53006 333 91133=
07020,1999-10-01 06:00:00,15.3,1006.9,0.7,69,9.7,10000,35.188,75.932,57.412,270,14.3,16,,,,,,,,,og-post,,,,AAXX 01064 07020 32560 62719 10153 20097 30052 40069 51007 86500 333 10160 20143 91031 91141 92457=
07020,1999-10-01 07:00:00,15.6,1007.4,0.9,74,11,,35.188,,,270,,,,,,,,,,,og-post,,,,AAXX 01074 07020 36/// /2719 10156 20110 30057 40074 53009=
07020,1999-10-01 08:00:00,15.9,1007.9,1.1,75,11.5,,42.596,,64.82,270,,,,,,,,,,,og-post,,,,AAXX 01084 07020 36/// /2723 10159 20115 30062 40079 53011 333 91035=
07020,1999-10-01 09:00:00,16.3,1008.2,1.3,72,11.2,10000,53.708,72.228,,270,,,,,,,,,,,og-post,,,,AAXX 01094 07020 32560 72729 10163 20112 30065 40082 51013 87200 333 91139 92457=
07020,1999-10-01 10:00:00,16.4,1008.3,0.9,75,12,,46.3,,,270,,,,,,,,,,,og-post,,,,AAXX 01104 07020 36/// /2725 10164 20120 30066 40083 51009=
07020,1999-10-01 11:00:00,16.7,1008,0.1,71,11.4,,53.708,,,260,,,,,,,,,,,og-post,,,,AAXX 01114 07020 36/// /2629 10167 20114 30063 40080 50001=
07020,1999-10-01 12:00:00,17.1,1007.7,-0.4,75,12.6,10000,53.708,75.932,,260,,,,,,,,,,,og-post,,,,AAXX 01124 07020 32560 72629 10171 20126 30061 40077 58004 87200 333 91141 92457=
07020,1999-10-01 13:00:00,16.9,1007.3,-0.9,77,12.8,,53.708,75.932,75.932,260,,,,,,,,,,,og-post,,,,AAXX 01134 07020 36/// /2629 10169 20128 30057 40073 58009 333 91041 91141=
07020,1999-10-01 14:00:00,16.4,1006.9,-1.1,78,12.6,,57.412,75.932,,250,,,,,,,,,,,og-post,,,,AAXX 01144 07020 36/// /2531 10164 20126 30052 40069 58011 333 91141=
07020,1999-10-01 15:00:00,16.9,1006.4,-1.3,74,12.2,8000,53.708,75.932,,260,,,,,,,,,,,og-post,,,,AAXX 01154 07020 32558 72629 10169 20122 30048 40064 57013 87200 333 91141 92456=
07020,1999-10-01 16:00:00,16.2,1005.7,-1.7,75,11.8,,53.708,75.932,75.932,260,,,,,,,,,,,og-post,,,,AAXX 01164 07020 36/// /2629 10162 20118 30040 40057 58017 333 91041 91141=
07020,1999-10-01 17:00:00,16.1,1005.2,-1.6,80,12.6,,53.708,,,250,,,,,,,,,,,og-post,,,,AAXX 01174 07020 36/// /2529 10161 20126 30036 40052 57016=
07020,1999-10-01 18:00:00,16,1005,-1.5,78,12.2,8000,57.412,75.932,,250,15.3,17.5,,,,,,,,,og-post,,,,AAXX 01184 07020 32558 82531 10160 20122 30033 40050 56015 88500 333 10175 20153 91141 92446=
07020,1999-10-01 20:00:00,16.2,1004.6,-0.6,79,12.6,,57.412,,,250,,,,,,,,,,,og-post,,,,AAXX 01204 07020 36/// /2531 10162 20126 30030 40046 58006=
07020,1999-10-02 00:00:00,15.5,1000.4,-3.3,88,13.5,,64.82,90.748,,250,,,,0.2,0.2,,,,,,og-post,,,,AAXX 02004 07020 /6/// /2535 10155 20135 39988 40004 58033 69921 333 69927 91149=
07020,1999-10-02 01:00:00,16,999.6,-3.2,83,13.1,,68.524,96.304,,240,,,,,,,,,,,og-post,,,,AAXX 02014 07020 36/// /2437 10160 20131 39980 49996 56032 333 91152=
07020,1999-10-02 02:00:00,16.1,999.1,-2.4,77,12.1,,68.524,94.452,90.748,250,,,,,,,,,,,og-post,,,,AAXX 02024 07020 36/// /2537 10161 20121 39975 49991 56024 333 91049 91151=
07020,1999-10-02 03:00:00,15.4,997.9,-2.5,84,12.7,,68.524,100.008,90.748,250,,,,,,,,,,,og-post,,,,AAXX 02034 07020 36/// /2537 10154 20127 39963 49979 58025 333 91049 91154=
07020,1999-10-02 04:00:00,15.4,996.9,-2.7,86,13.1,,64.82,87.044,,250,,,,,,,,,,,og-post,,,,AAXX 02044 07020 36/// /2535 10154 20131 39953 49969 58027 333 91147=
07020,1999-10-02 05:00:00,15.9,996.2,-2.9,79,12.3,,72.228,94.452,94.452,250,,,,,,,,,,,og-post,,,,AAXX 02054 07020 36/// /2539 10159 20123 39946 49962 56029 333 91051 91151=
07020,1999-10-02 06:00:00,16,995.9,-2,78,12.2,5000,64.82,100.008,90.748,260,15.1,16.4,,,,0.2,,,,,og-post,,,,AAXX 02064 07020 12550 82635 10160 20122 39943 49959 56020 69922 88500 333 10164 20151 91049 91154 92456=
07020,1999-10-02 07:00:00,12.2,997.7,0.7,91,10.8,,53.708,94.452,,300,,,2,,,,,,,,og-post,,,,AAXX 02074 07020 26/// /3029 10122 20108 39960 49977 53007 333 60025 91151=
07020,1999-10-02 08:00:00,12.4,998.6,2.3,88,10.5,,38.892,,,290,,,0.6,,,,,,,,og-post,,,,AAXX 02084 07020 26/// /2921 10124 20105 39969 49986 53023 333 69965=
07020,1999-10-02 09:00:00,12.7,999.3,3.3,84,10.1,8000,35.188,94.452,,270,,,,5,,,,,,61,og-post,,,,AAXX 02094 07020 21558 82719 10127 20101 39976 49993 51033 76162 88700 333 60057 91151 92446=
07020,1999-10-02 10:00:00,13.5,999.3,1.6,81,10.3,,38.892,,,260,,,,,,,,,,,og-post,,,,AAXX 02104 07020 26/// /2621 10135 20103 39976 49993 51016 333 69905=
07020,1999-10-02 11:00:00,14.2,999.4,0.8,68,8.4,,38.892,72.228,,270,,,0.6,,,,,,,,og-post,,,,AAXX 02114 07020 26/// /2721 10142 20084 39977 49994 51008 333 69965 91139=
07020,1999-10-02 12:00:00,14.9,999.5,0.3,67,8.8,12000,35.188,94.452,57.412,290,,,,0.6,5,,,,,21,og-post,,,,AAXX 02124 07020 /1662 42919 10149 20088 39979 49995 53003 60051 72162 84200 333 69967 91031 91151 92457=
07020,1999-10-02 13:00:00,14.9,999.5,0.3,65,8.4,,35.188,61.116,,280,,,,,,,,,,,og-post,,,,AAXX 02134 07020 36/// /2819 10149 20084 39979 49995 51003 333 91133=
07020,1999-10-02 14:00:00,14.9,999.4,0.1,60,7.2,,42.596,61.116,,280,,,,,,,,,,,og-post,,,,AAXX 02144 07020 36/// /2823 10149 20072 39978 49994 50001 333 91133=
07020,1999-10-02 15:00:00,15.1,999.4,-0.1,61,7.6,12000,42.596,64.82,64.82,270,,,,,,,,,,,og-post,,,,AAXX 02154 07020 32662 42723 10151 20076 39978 49994 57001 84200 333 91035 91135 92457=
07020,1999-10-02 16:00:00,14.7,999.4,-0.1,66,8.4,,42.596,72.228,64.82,270,,,,,,,,,,,og-post,,,,AAXX 02164 07020 36/// /2723 10147 20084 39978 49994 56001 333 91035 91139=
07020,1999-10-02 17:00:00,14.5,999.6,0.1,66,8.2,,46.3,72.228,,270,,,,,,,,,,,og-post,,,,AAXX 02174 07020 36/// /2725 10145 20082 39979 49996 53001 333 91139=
07020,1999-10-02 18:00:00,14.4,999.8,0.3,66,8.1,10000,42.596,72.228,64.82,270,12,16.1,,,,5,,,,,og-post,,,,AAXX 02184 07020 12660 62723 10144 20081 39981 49998 53003 60052 86260 333 10161 20120 91035 91139 92457=
07020,1999-10-02 19:00:00,14.1,1000.1,0.6,69,8.5,,46.3,75.932,,270,,,0.2,,,,,,,,og-post,,,,AAXX 02194 07020 26/// /2725 10141 20085 39984 40001 53006 333 69925 91141=
07020,1999-10-02 20:00:00,12.7,1000.2,0.6,73,8,,46.3,87.044,83.34,280,,,0.6,,,,,,,,og-post,,,,AAXX 02204 07020 26/// /2825 10127 20080 39985 40002 51006 333 69965 91045 91147=
07020,1999-10-02 21:00:00,13.8,1000.5,0.7,74,9.3,,46.3,87.044,72.228,270,,,,0.8,,,,,,,og-post,,,,AAXX 02214 07020 26/// /2725 10138 20093 39988 40005 52007 333 69987 91039 91147=
07020,1999-10-02 22:00:00,13.9,1000.4,0.3,72,8.9,,46.3,75.932,,270,,,,,,,,,,,og-post,,,,AAXX 02224 07020 36/// /2725 10139 20089 39987 40004 50003 333 91141=
07020,1999-10-02 23:00:00,14,1000.4,0.2,75,9.6,,53.708,75.932,75.932,270,,,,,,,,,,,og-post,,,,AAXX 02234 07020 36/// /2729 10140 20096 39987 40004 51002 333 91041 91141=
07020,1999-10-03 00:00:00,13.5,1000.6,0.1,74,9,,46.3,87.044,68.524,280,,,,0.2,1,,,,,,og-post,,,,AAXX 03004 07020 /6/// /2825 10135 20090 39989 40006 53001 60011 333 69927 91037 91147=
07020,1999-10-03 01:00:00,14,1000.4,0,63,7.1,,42.596,64.82,,270,,,,,,,,,,,og-post,,,,AAXX 03014 07020 36/// /2723 10140 20071 39987 40004 50000 333 91135=
07020,1999-10-03 02:00:00,11,1000.7,0.3,83,8.2,,57.412,90.748,90.748,290,,,1,,,,,,,,og-post,,,,AAXX 03024 07020 26/// /2931 10110 20082 39990 40007 53003 333 60015 91049 91149=
07020,1999-10-03 03:00:00,13,1000.5,-0.1,78,9.3,,38.892,90.748,,270,,,,2,,,,,,,og-post,,,,AAXX 03034 07020 26/// /2721 10130 20093 39988 40005 57001 333 60027 91149=
07020,1999-10-03 04:00:00,12.7,1001,0.6,79,9.2,,31.484,68.524,,280,,,1,,,,,,,,og-post,,,,AAXX 03044 07020 26/// /2817 10127 20092 39993 40010 53006 333 60015 91137=
07020,1999-10-03 05:00:00,13.4,1001.6,0.9,68,7.6,,46.3,,,310,,,,,,,,,,,og-post,,,,AAXX 03054 07020 36/// /3125 10134 20076 39999 40016 53009=
07020,1999-10-03 06:00:00,12.9,1002.3,1.8,64,6.3,10000,50.004,90.748,72.228,300,11,14.6,,1,,4,,,,,og-post,,,,AAXX 03064 07020 /2560 83027 10129 20063 30006 40023 53018 60042 884// 333 10146 20110 60017 91039 91149 92457=
07020,1999-10-03 07:00:00,13.4,1003.3,2.3,69,7.8,,46.3,,,300,,,,,,,,,,,og-post,,,,AAXX 03074 07020 36/// /3025 10134 20078 30016 40033 53023=
07020,1999-10-03 08:00:00,13.6,1004.3,2.7,70,8.2,,46.3,,,300,,,,,,,,,,,og-post,,,,AAXX 03084 07020 36/// /3025 10136 20082 30026 40043 53027=
07020,1999-10-03 09:00:00,13.9,1005.2,2.9,69,8.3,10000,50.004,,,300,,,,,,,,,,25,og-post,,,,AAXX 03094 07020 21660 63027 10139 20083 30035 40052 51029 72582 86200 333 69907 92447=
07020,1999-10-03 10:00:00,14.6,1006,2.7,66,8.3,,50.004,,,300,,,,,,,,,,,og-post,,,,AAXX 03104 07020 36/// /3027 10146 20083 30043 40060 51027=
07020,1999-10-03 11:00:00,15,1006.8,2.5,65,8.5,,42.596,,,290,,,,,,,,,,,og-post,,,,AAXX 03114 07020 36/// /2923 10150 20085 30051 40068 51025=
07020,1999-10-03 12:00:00,14.9,1007,1.8,71,9.7,10000,42.596,,61.116,280,,,,,,,,,,2,og-post,,,,AAXX 03124 07020 11660 72823 10149 20097 3053 40070 51018 69901 70282 87200 333 91033 92457=
07020,1999-10-03 13:00:00,14.9,1007.2,1.2,72,9.9,,42.596,64.82,,290,,,,,,,,,,,og-post,,,,AAXX 03134 07020 36/// /2923 10149 20099 30055 40072 51012 333 91135=
07020,1999-10-03 14:00:00,15.5,1007.7,0.9,72,10.5,,35.188,64.82,,280,,,,,,,,,,,og-post,,,,AAXX 03144 07020 36/// /2819 10155 20105 30060 40077 53009 333 91135=
07020,1999-10-03 15:00:00,15.5,1008.2,1.2,74,10.9,10000,46.3,64.82,,290,,,,,,,,,,,og-post,,,,AAXX 03154 07020 32660 62925 10155 20109 30065 40082 53012 86200 333 91135 92457=
07020,1999-10-03 16:00:00,15.5,1008.5,1.3,70,10.1,,50.004,,,290,,,,,,,,,,,og-post,,,,AAXX 03164 07020 36/// /2927 10155 20101 30068 40085 51013=
07020,1999-10-03 17:00:00,15,1009.1,1.4,72,10,,50.004,,,300,,,,,,,,,,,og-post,,,,AAXX 03174 07020 36/// /3027 10150 20100 30074 40091 53014=
07020,1999-10-03 18:00:00,14,1010,1.8,78,10.2,10000,42.596,,,330,12.8,15.6,,,,,,,,,og-post,,,,AAXX 03184 07020 12560 83323 10140 20102 30083 40100 53018 69902 88220 333 10156 20128 92447=
07020,1999-10-03 19:00:00,13.9,1010.6,2.1,77,9.9,,42.596,,,320,,,,,,,,,,,og-post,,,,AAXX 03194 07020 36/// /3223 10139 20099 30089 40106 52021=
07020,1999-10-03 20:00:00,13.9,1011.3,2.2,71,8.7,,50.004,,,320,,,0.2,,,,,,,,og-post,,,,AAXX 03204 07020 26/// /3227 10139 20087 30096 40113 51022 333 69925=
07020,1999-10-03 21:00:00,14,1011.9,1.9,70,8.6,,50.004,,,320,,,,0.2,,,,,,,og-post,,,,AAXX 03214 07020 26/// /3227 10140 20086 30102 40119 52019 333 69927=
07020,1999-10-03 22:00:00,13.9,1012.6,2,68,8.1,,46.3,,,330,,,,,,,,,,,og-post,,,,AAXX 03224 07020 36/// /3325 10139 20081 30109 40126 52020=
07020,1999-10-03 23:00:00,13.8,1013,1.7,71,8.6,,42.596,,,320,,,,,,,,,,,og-post,,,,AAXX 03234 07020 36/// /3223 10138 20086 30113 40130 51017=
07020,1999-10-04 00:00:00,13.6,1013.3,1.4,69,8,,38.892,,,310,,,,,0.2,,,,,,og-post,,,,AAXX 04004 07020 16/// /3121 10136 20080 30116 40133 51014 69921=
07020,1999-10-04 01:00:00,13.3,1013.7,1.1,66,7.1,,46.3,,,310,,,,,,,,,,,og-post,,,,AAXX 04014 07020 36/// /3125 10133 20071 30120 40137 52011=
07020,1999-10-04 02:00:00,13.1,1013.9,0.9,68,7.3,,46.3,,,320,,,,,,,,,,,og-post,,,,AAXX 04024 07020 36/// /3225 10131 20073 30122 40139 51009=
07020,1999-10-04 03:00:00,12.7,1013.8,0.5,64,6.1,,53.708,,,310,,,,,,,,,,,og-post,,,,AAXX 04034 07020 36/// /3129 10127 20061 30121 40138 50005=
07020,1999-10-04 04:00:00,12.7,1014,0.3,66,6.5,,46.3,,,330,,,,,,,,,,,og-post,,,,AAXX 04044 07020 36/// /3325 10127 20065 30123 40140 52003=
07020,1999-10-04 05:00:00,12.5,1014.7,0.8,67,6.5,,46.3,,,320,,,,,,,,,,,og-post,,,,AAXX 04054 07020 36/// /3225 10125 20065 30130 40147 53008=
07020,1999-10-04 06:00:00,11.5,1015.4,1.6,69,6,8000,35.188,72.228,,340,10.8,14.4,,,,0.2,,,,62,og-post,,,,AAXX 04064 07020 /1558 83419 10115 20060 30137 40154 53016 69922 762// 88220 333 10144 20108 69907 91139 92446=
07020,1999-10-04 07:00:00,12.4,1015.9,1.9,72,7.5,,42.596,,,330,,,,,,,,,,,og-post,,,,AAXX 04074 07020 26/// /3323 10124 20075 30142 40159 51019 333 69905=
07020,1999-10-04 08:00:00,12.4,1016.6,1.9,74,7.9,,38.892,72.228,,340,,,0.8,,,,,,,,og-post,,,,AAXX 04084 07020 26/// /3421 10124 20079 30149 40166 52019 333 69985 91139=
07020,1999-10-04 09:00:00,12.5,1017.4,2,71,7.4,10000,42.596,72.228,,350,,,,2,,,,,,2,og-post,,,,AAXX 04094 07020 21560 73523 10125 20074 30157 40174 53020 70262 87200 333 60027 91139 92447=
07020,1999-10-04 10:00:00,12.8,1018.1,2.2,68,7,,38.892,,,350,,,,,,,,,,,og-post,,,,AAXX 04104 07020 36/// /3521 10128 20070 30164 40181 52022=
07020,1999-10-04 12:00:00,14.2,1019.1,1.7,63,7.3,10000,31.484,72.228,,340,,,,,2,,,,,2,og-post,,,,AAXX 04124 07020 11560 63417 10142 20073 30174 40191 51017 60021 70262 86200 333 91139 92447=
07020,1999-10-04 13:00:00,14.5,1019.1,1,62,7.3,,31.484,,,330,,,,,,,,,,,og-post,,,,AAXX 04134 07020 36/// /3317 10145 20073 30174 40191 51010=
07020,1999-10-04 15:00:00,14.8,1019.7,0.6,60,7.1,12000,29.632,,,330,,,,,,,,,,2,og-post,,,,AAXX 04154 07020 31562 63316 10148 20071 30180 40197 53006 70262 86200 333 92447=
07020,1999-10-04 17:00:00,14.2,1020.5,1,62,7,,29.632,,,340,,,,,,,,,,,og-post,,,,AAXX 04174 07020 36/// /3416 10142 20070 30188 40205 53010=
07020,1999-10-04 18:00:00,13.9,1021.1,1.4,64,7.2,,29.632,,,340,10.1,15.2,,,,2,,,,,og-post,,,,AAXX 04184 07020 12/// /3416 10139 20072 30194 40211 53014 60022 333 10152 20101=
07020,1999-10-04 19:00:00,13.8,1021.5,1.5,62,6.7,,22.224,,,350,,,,,,,,,,,og-post,,,,AAXX 04194 07020 36/// /3512 10138 20067 30198 40215 51015=
07020,1999-10-04 21:00:00,13.8,1022.1,1,66,7.6,,29.632,,,20,,,,,,,,,,,og-post,,,,AAXX 04214 07020 36/// /0216 10138 20076 30204 40221 52010=
07020,1999-10-04 22:00:00,12.2,1022.4,0.9,66,6,,7.408,,,90,,,,,,,,,,,og-post,,,,AAXX 04224 07020 36/// /0904 10122 20060 30207 40224 53009=
07020,1999-10-04 23:00:00,12.1,1022.7,1,67,6.2,,7.408,,,60,,,,,,,,,,,og-post,,,,AAXX 04234 07020 36/// /0604 10121 20062 30210 40227 51010=
07020,1999-10-05 00:00:00,13.3,1022.8,0.7,61,5.9,,14.816,,,40,,,,,,,,,,,og-post,,,,AAXX 05004 07020 36/// /0408 10133 20059 30211 40228 51007=
07020,1999-10-05 01:00:00,13,1022.9,0.5,58,4.9,,11.112,,,70,,,,,,,,,,,og-post,,,,AAXX 05014 07020 36/// /0706 10130 20049 30212 40229 51005=
07020,1999-10-05 02:00:00,12.8,1023,0.3,61,5.5,,11.112,,,70,,,,,,,,,,,og-post,,,,AAXX 05024 07020 36/// /0706 10128 20055 30213 40230 52003=
07020,1999-10-05 03:00:00,12.2,1023.1,0.3,74,7.7,,29.632,,,60,,,,,,,,,,,og-post,,,,AAXX 05034 07020 36/// /0616 10122 20077 30214 40231 52003=
07020,1999-10-05 04:00:00,12.6,1023.3,0.4,64,6,,22.224,,,60,,,,,,,,,,,og-post,,,,AAXX 05044 07020 36/// /0612 10126 20060 30216 40233 53004=
07020,1999-10-05 05:00:00,12.4,1023.9,0.9,64,5.8,,25.928,,,60,,,,,,,,,,,og-post,,,,AAXX 05054 07020 36/// /0614 10124 20058 30222 40239 53009=
07020,1999-10-05 06:00:00,12.3,1024.3,1.2,61,5,20000,22.224,,,60,11.3,14,,,,,,,,,og-post,,,,AAXX 05064 07020 32670 60612 10123 20050 30226 40243 53012 86200 333 10140 20113 92438=
07020,1999-10-05 07:00:00,12.1,1024.9,1.6,60,4.6,,22.224,,,60,,,,,,,,,,,og-post,,,,AAXX 05074 07020 36/// /0612 10121 20046 30232 40249 52016=
07020,1999-10-05 08:00:00,12.6,1025.4,1.5,56,4.1,,18.52,,,50,,,,,,,,,,,og-post,,,,AAXX 05084 07020 36/// /0510 10126 20041 30237 40254 53015=
07020,1999-10-05 09:00:00,13.3,1025.8,1.5,50,3.1,20000,14.816,,,80,,,,,,,,,,,og-post,,,,AAXX 05094 07020 32670 50808 10133 20031 30241 40258 51015 85200 333 92438=
07020,1999-10-05 10:00:00,14.1,1026.2,1.3,49,3.6,,18.52,,,80,,,,,,,,,,,og-post,,,,AAXX 05104 07020 36/// /0810 10141 20036 30245 40262 51013=
07020,1999-10-05 11:00:00,14.5,1026.3,0.9,48,3.6,,22.224,,,90,,,,,,,,,,,og-post,,,,AAXX 05114 07020 36/// /0912 10145 20036 30246 40263 51009=
07020,1999-10-05 12:00:00,14.9,1026.2,0.4,51,4.9,20000,22.224,,,90,,,,,,,,,,,og-post,,,,AAXX 05124 07020 32670 50912 10149 20049 30245 40262 50004 85200 333 92438=
07020,1999-10-05 13:00:00,14.7,1026.1,-0.1,49,4.1,,25.928,,,90,,,,,,,,,,,og-post,,,,AAXX 05134 07020 36/// /0914 10147 20041 30244 40261 58001=
07020,1999-10-05 14:00:00,14.5,1026.3,-0,54,5.3,,22.224,,,80,,,,,,,,,,,og-post,,,,AAXX 05144 07020 36/// /0812 10145 20053 30246 40263 55000=
07020,1999-10-05 15:00:00,14.9,1026.3,0.1,50,4.6,20000,22.224,,,100,,,,,,,,,,,og-post,,,,AAXX 05154 07020 32670 41012 10149 20046 30246 40263 53001 84200 333 92438=
07020,1999-10-05 16:00:00,13.6,1026.4,0.3,57,5.3,,25.928,,,90,,,,,,,,,,,og-post,,,,AAXX 05164 07020 36/// /0914 10136 20053 30247 40264 51003=
07020,1999-10-05 17:00:00,13.1,1026.4,0.1,60,5.5,,22.224,,,90,,,,,,,,,,,og-post,,,,AAXX 05174 07020 36/// /0912 10131 20055 30247 40264 52001=
07020,1999-10-05 18:00:00,10.6,1027,0.7,66,4.5,20000,14.816,,,150,10.6,15.2,,,,,,,,,og-post,,,,AAXX 05184 07020 32670 51508 10106 20045 30253 40270 53007 85200 333 10152 20106 92428=
07020,1999-10-05 19:00:00,9.6,1027.5,1.1,68,4,,14.816,,,140,,,,,,,,,,,og-post,,,,AAXX 05194 07020 36/// /1408 10096 20040 30258 40275 53011=
07020,1999-10-05 20:00:00,9.4,1027.9,1.5,67,3.6,,14.816,,,140,,,,,,,,,,,og-post,,,,AAXX 05204 07020 36/// /1408 10094 20036 30262 40279 51015=
07020,1999-10-05 21:00:00,8.6,1028.2,1.2,69,3.2,,14.816,,,150,,,,,,,,,,,og-post,,,,AAXX 05214 07020 36/// /1508 10086 20032 30265 40282 51012=
07020,1999-10-05 22:00:00,8.1,1028.5,1,69,2.8,,14.816,,,140,,,,,,,,,,,og-post,,,,AAXX 05224 07020 36/// /1408 10081 20028 30268 40285 51010=
07020,1999-10-05 23:00:00,7.3,1028.6,0.7,69,2,,14.816,,,150,,,,,,,,,,,og-post,,,,AAXX 05234 07020 36/// /1508 10073 20020 30269 40286 51007=
07020,1999-10-06 00:00:00,7.5,1028.5,0.3,63,0.9,,18.52,,,160,,,,,,,,,,,og-post,,,,AAXX 06004 07020 36/// /1610 10075 20009 30268 40285 50003=
07020,1999-10-06 01:00:00,7.2,1028.4,-0.1,67,1.5,,18.52,,,150,,,,,,,,,,,og-post,,,,AAXX 06014 07020 36/// /1510 10072 20015 30267 40284 58001=
07020,1999-10-06 02:00:00,7.2,1028.3,-0.3,67,1.5,,14.816,,,150,,,,,,,,,,,og-post,,,,AAXX 06024 07020 36/// /1508 10072 20015 30266 40283 57003=
07020,1999-10-06 03:00:00,7.8,1028.2,-0.3,64,1.4,,14.816,,,160,,,,,,,,,,,og-post,,,,AAXX 06034 07020 36/// /1608 10078 20014 30265 40282 57003=
07020,1999-10-06 04:00:00,7.3,1028.2,-0.2,67,1.6,,11.112,,,170,,,,,,,,,,,og-post,,,,AAXX 06044 07020 36/// /1706 10073 20016 30265 40282 56002=
07020,1999-10-06 05:00:00,8,1028.2,-0.1,71,3.1,,14.816,,,190,,,,,,,,,,,og-post,,,,AAXX 06054 07020 36/// /1908 10080 20031 30265 40282 56001=
07020,1999-10-06 06:00:00,8.2,1028.7,0.5,66,2.2,15000,18.52,,,180,6.9,10.6,,,,,,,,,og-post,,,,AAXX 06064 07020 32665 41810 10082 20022 30270 40287 53005 84401 333 10106 20069 92427=
07020,1999-10-06 07:00:00,8.9,1029.1,0.9,68,3.3,,18.52,,,190,,,,,,,,,,,og-post,,,,AAXX 06074 07020 36/// /1910 10089 20033 30274 40291 53009=
07020,1999-10-06 08:00:00,10.6,1029.7,1.5,63,3.9,,14.816,,,190,,,,,,,,,,,og-post,,,,AAXX 06084 07020 36/// /1908 10106 20039 30280 40297 53015=
07020,1999-10-06 09:00:00,13.1,1029.9,1.2,53,3.7,20000,11.112,,,200,,,,,,,,,,,og-post,,,,AAXX 06094 07020 32670 52006 10131 20037 30282 40299 51012 85401 333 92428=
07020,1999-10-06 10:00:00,14.1,1030.1,1,51,4.1,,14.816,,,220,,,,,,,,,,,og-post,,,,AAXX 06104 07020 36/// /2208 10141 20041 30284 40301 51010=
07020,1999-10-06 11:00:00,14.9,1029.9,0.2,50,4.6,,14.816,,,240,,,,,,,,,,,og-post,,,,AAXX 06114 07020 36/// /2408 10149 20046 30282 40299 50002=
07020,1999-10-06 12:00:00,15.1,1029.8,-0.1,47,3.9,20000,7.408,,,100,,,,,,,,,,,og-post,,,,AAXX 06124 07020 32670 51004 10151 20039 30281 40298 58001 85401 333 92428=
07020,1999-10-06 13:00:00,14.2,1029.3,-0.8,51,4.2,,11.112,,,90,,,,,,,,,,,og-post,,,,AAXX 06134 07020 36/// /0906 10142 20042 30276 40293 58008=
07020,1999-10-06 14:00:00,14.2,1028.9,-1,50,3.9,,11.112,,,100,,,,,,,,,,,og-post,,,,AAXX 06144 07020 36/// /1006 10142 20039 30272 40289 58010=
07020,1999-10-06 15:00:00,14,1028.8,-1,53,4.6,20000,11.112,,,80,,,,,,,,,,,og-post,,,,AAXX 06154 07020 32670 60806 10140 20046 30271 40288 56010 86401 333 92428=
07020,1999-10-06 16:00:00,14.1,1028.6,-0.7,56,5.5,,14.816,,,70,,,,,,,,,,,og-post,,,,AAXX 06164 07020 36/// /0708 10141 20055 30269 40286 56007=
07020,1999-10-06 17:00:00,13.2,1028.8,-0.1,58,5.1,,11.112,,,100,,,,,,,,,,,og-post,,,,AAXX 06174 07020 36/// /1006 10132 20051 30271 40288 55001=
07020,1999-10-06 18:00:00,11.3,1029.2,0.4,67,5.4,20000,7.408,,,110,8.2,16,,,,,,,,,og-post,,,,AAXX 06184 07020 32670 71104 10113 20054 30275 40292 53004 87400 333 10160 20082 92428=
07020,1999-10-06 19:00:00,9,1029.4,0.8,76,5,,14.816,,,150,,,,,,,,,,,og-post,,,,AAXX 06194 07020 36/// /1508 10090 20050 30277 40294 52008=
07020,1999-10-06 20:00:00,9,1029.1,0.3,77,5.2,,18.52,,,150,,,,,,,,,,,og-post,,,,AAXX 06204 07020 36/// /1510 10090 20052 30274 40291 50003=
07020,1999-10-06 21:00:00,9.1,1029.1,-0.1,76,5.1,,18.52,,,160,,,,,,,,,,,og-post,,,,AAXX 06214 07020 36/// /1610 10091 20051 30274 40291 58001=
07020,1999-10-06 22:00:00,9,1029,-0.4,77,5.2,,18.52,,,170,,,,,,,,,,,og-post,,,,AAXX 06224 07020 36/// /1710 10090 20052 30273 40290 56004=
07020,1999-10-06 23:00:00,8.8,1029.2,0.1,77,5,,14.816,,,170,,,,,,,,,,,og-post,,,,AAXX 06234 07020 36/// /1708 10088 20050 30275 40292 53001=
07020,1999-10-07 00:00:00,9.3,1029.3,0.2,73,4.7,,14.816,,,180,,,,,,,,,,,og-post,,,,AAXX 07004 07020 36/// /1808 10093 20047 30276 40293 53002=
07020,1999-10-07 01:00:00,9.1,1029,0,76,5.1,,18.52,,,180,,,,,,,,,,,og-post,,,,AAXX 07014 07020 36/// /1810 10091 20051 30273 40290 50000=
07020,1999-10-07 02:00:00,9.6,1028.8,-0.4,77,5.8,,18.52,,,180,,,,,,,,,,,og-post,,,,AAXX 07024 07020 36/// /1810 10096 20058 30271 40288 58004=
07020,1999-10-07 03:00:00,9.8,1028.4,-0.9,79,6.3,,18.52,,,180,,,,,,,,,,,og-post,,,,AAXX 07034 07020 36/// /1810 10098 20063 30267 40284 58009=
07020,1999-10-07 04:00:00,10.4,1028.3,-0.7,78,6.7,,18.52,,,180,,,,,,,,,,,og-post,,,,AAXX 07044 07020 36/// /1810 10104 20067 30266 40283 56007=
07020,1999-10-07 06:00:00,10.3,1028.4,-0,81,7.2,15000,18.52,,,190,8.5,11.3,,,,,,,,,og-post,,,,AAXX 07064 07020 32665 71910 10103 20072 30267 40284 55000 87200 333 10113 20085 92437=
07020,1999-10-07 09:00:00,14.7,1029.1,0.7,63,7.7,15000,22.224,,,240,,,,,,,,,,,og-post,,,,AAXX 07094 07020 32665 62412 10147 20077 30274 40291 53007 86200 333 92427=
07020,1999-10-07 12:00:00,15.8,1028.6,-0.5,65,9.2,15000,29.632,,,250,,,,,,,,,,,og-post,,,,AAXX 07124 07020 32965 62516 10158 20092 30269 40286 56005 85055 333 92427=
07020,1999-10-07 13:00:00,15.8,1028.5,-0.3,63,8.8,,31.484,,,260,,,,,,,,,,,og-post,,,,AAXX 07134 07020 36/// /2617 10158 20088 30268 40285 58003=
07020,1999-10-07 14:00:00,15.2,1027.9,-0.9,70,9.8,,35.188,,,260,,,,,,,,,,,og-post,,,,AAXX 07144 07020 36/// /2619 10152 20098 30262 40279 58009=
07020,1999-10-07 15:00:00,15,1027.5,-1.1,78,11.2,10000,35.188,,,250,,,,,,,,,,21,og-post,,,,AAXX 07154 07020 21560 82519 10150 20112 30258 40275 58011 72162 886// 333 69907 92437=
07020,1999-10-07 16:00:00,14.8,1027.5,-1,79,11.2,,38.892,,,260,,,,,,,,,,,og-post,,,,AAXX 07164 07020 36/// /2621 10148 20112 30258 40275 56010=
07020,1999-10-07 17:00:00,15.2,1027.3,-0.6,84,12.5,,38.892,,,260,,,,,,,,,,,og-post,,,,AAXX 07174 07020 36/// /2621 10152 20125 30256 40273 56006=
07020,1999-10-07 18:00:00,15.1,1027.4,-0.1,88,13.1,10000,31.484,,,260,10.2,16.3,,,,,,,,2,og-post,,,,AAXX 07184 07020 11660 82617 10151 20131 30257 40274 55001 69902 70262 884// 333 10163 20102 92447=
07020,1999-10-07 19:00:00,15.1,1027.8,0.3,84,12.4,,29.632,,,290,,,,,,,,,,,og-post,,,,AAXX 07194 07020 36/// /2916 10151 20124 30261 40278 53003=
07020,1999-10-07 20:00:00,15.1,1027.7,0.4,84,12.4,,25.928,,,270,,,,,,,,,,,og-post,,,,AAXX 07204 07020 36/// /2714 10151 20124 30260 40277 50004=
07020,1999-10-07 21:00:00,15.1,1027.8,0.4,84,12.4,,29.632,,,280,,,,,,,,,,,og-post,,,,AAXX 07214 07020 36/// /2816 10151 20124 30261 40278 51004=
07020,1999-10-07 22:00:00,15,1027.8,-0,83,12.1,,29.632,,,270,,,,,,,,,,,og-post,,,,AAXX 07224 07020 36/// /2716 10150 20121 30261 40278 55000=
07020,1999-10-07 23:00:00,15.1,1027.4,-0.3,84,12.4,,29.632,,,270,,,,,,,,,,,og-post,,,,AAXX 07234 07020 36/// /2716 10151 20124 30257 40274 58003=
07020,1999-10-08 00:00:00,15,1027,-0.8,82,12,,29.632,,,280,,,,,,,,,,,og-post,,,,AAXX 08004 07020 36/// /2816 10150 20120 30253 40270 58008=
07020,1999-10-08 01:00:00,15.3,1026.8,-1,85,12.8,,29.632,,,270,,,,,,,,,,,og-post,,,,AAXX 08014 07020 36/// /2716 10153 20128 30251 40268 56010=
07020,1999-10-08 02:00:00,15.3,1026.6,-0.8,85,12.8,,31.484,,,270,,,,,,,,,,,og-post,,,,AAXX 08024 07020 36/// /2717 10153 20128 30249 40266 56008=
07020,1999-10-08 03:00:00,15.3,1026.2,-0.8,86,13,,35.188,,,270,,,,,,,,,,,og-post,,,,AAXX 08034 07020 36/// /2719 10153 20130 30245 40262 58008=
07020,1999-10-08 04:00:00,15.5,1025.9,-0.9,84,12.8,,31.484,,,270,,,,,,,,,,,og-post,,,,AAXX 08044 07020 36/// /2717 10155 20128 30242 40259 58009=
07020,1999-10-08 05:00:00,15.4,1025.7,-0.9,83,12.5,,35.188,53.708,,280,,,,,,,,,,,og-post,,,,AAXX 08054 07020 36/// /2819 10154 20125 30240 40257 56009 333 91129=
07020,1999-10-08 06:00:00,15.5,1025.6,-0.6,85,13,10000,31.484,53.708,,270,14.9,15.6,,,,,,,,,og-post,,,,AAXX 08064 07020 32660 82717 10155 20130 30239 40256 56006 884// 333 10156 20149 91129 92447=
07020,1999-10-08 07:00:00,15.3,1025.5,-0.4,83,12.4,,31.484,,,270,,,,,,,,,,,og-post,,,,AAXX 08074 07020 36/// /2717 10153 20124 30238 40255 56004=
07020,1999-10-08 08:00:00,15.4,1025.8,0.1,83,12.5,,38.892,,,270,,,,,,,,,,,og-post,,,,AAXX 08084 07020 36/// /2721 10154 20125 30241 40258 53001=
07020,1999-10-08 09:00:00,15.7,1026.2,0.6,83,12.8,8000,31.484,,,270,,,,,,,,,,,og-post,,,,AAXX 08094 07020 32658 82717 10157 20128 30245 40262 53006 885// 333 92436=
07020,1999-10-08 10:00:00,15.7,1026.3,0.8,81,12.4,,35.188,,,270,,,,,,,,,,,og-post,,,,AAXX 08104 07020 36/// /2719 10157 20124 30246 40263 51008=
07020,1999-10-08 11:00:00,15.7,1026.5,0.7,78,11.9,,31.484,,,280,,,,,,,,,,,og-post,,,,AAXX 08114 07020 36/// /2817 10157 20119 30248 40265 51007=
07020,1999-10-08 12:00:00,15.8,1025.9,-0.3,80,12.4,8000,31.484,61.116,,280,,,,,,,,,,,og-post,,,,AAXX 08124 07020 32658 82817 10158 20124 30242 40259 58003 885// 333 91133 92436=
07020,1999-10-08 13:00:00,16.2,1025.7,-0.6,77,12.2,,31.484,,,270,,,,,,,,,,,og-post,,,,AAXX 08134 07020 36/// /2717 10162 20122 30240 40257 58006=
07020,1999-10-08 14:00:00,16.1,1025.4,-1.1,74,11.5,,35.188,,,280,,,,,,,,,,,og-post,,,,AAXX 08144 07020 36/// /2819 10161 20115 30237 40254 56011=
07020,1999-10-08 15:00:00,15.9,1025.3,-0.6,72,10.9,10000,35.188,,,270,,,,,,,,,,,og-post,,,,AAXX 08154 07020 32660 72719 10159 20109 30236 40253 56006 87500 333 92447=
07020,1999-10-08 16:00:00,15.7,1025.3,-0.4,78,11.9,,38.892,,,270,,,,,,,,,,,og-post,,,,AAXX 08164 07020 36/// /2721 10157 20119 30236 40253 56004=
07020,1999-10-08 17:00:00,15.5,1025.5,0.1,80,12.1,,35.188,,,270,,,,,,,,,,,og-post,,,,AAXX 08174 07020 36/// /2719 10155 20121 30238 40255 53001=
07020,1999-10-08 18:00:00,15.4,1025.4,0.1,83,12.5,10000,31.484,57.412,,270,15.3,16.4,,,,,,,,,og-post,,,,AAXX 08184 07020 32660 72717 10154 20125 30237 40254 50001 87500 333 10164 20153 91131 92447=
07020,1999-10-08 19:00:00,15.3,1025.7,0.4,83,12.4,,35.188,,,270,,,,,,,,,,,og-post,,,,AAXX 08194 07020 36/// /2719 10153 20124 30240 40257 53004=
07020,1999-10-08 20:00:00,15.3,1026,0.5,85,12.8,,35.188,,,270,,,,,,,,,,,og-post,,,,AAXX 08204 07020 36/// /2719 10153 20128 30243 40260 53005=
07020,1999-10-08 21:00:00,15.4,1026,0.6,84,12.7,,31.484,,,280,,,,,,,,,,,og-post,,,,AAXX 08214 07020 36/// /2817 10154 20127 30243 40260 51006=
07020,1999-10-08 22:00:00,15.2,1025.6,-0.1,85,12.7,,29.632,,,280,,,,,,,,,,,og-post,,,,AAXX 08224 07020 36/// /2816 10152 20127 30239 40256 58001=
07020,1999-10-08 23:00:00,15.1,1025.6,-0.4,84,12.4,,31.484,,,290,,,,,,,,,,,og-post,,,,AAXX 08234 07020 36/// /2917 10151 20124 30239 40256 57004=
07020,1999-10-09 00:00:00,15.1,1025.7,-0.3,84,12.4,,35.188,,,290,,,,,,,,,,,og-post,,,,AAXX 09004 07020 36/// /2919 10151 20124 30240 40257 55003=
07020,1999-10-09 01:00:00,15.2,1025.5,-0.1,83,12.3,,31.484,,,290,,,,,,,,,,,og-post,,,,AAXX 09014 07020 36/// /2917 10152 20123 30238 40255 58001=
07020,1999-10-09 02:00:00,15.2,1024.9,-0.7,82,12.1,,31.484,,,290,,,,,,,,,,,og-post,,,,AAXX 09024 07020 36/// /2917 10152 20121 30232 40249 58007=
07020,1999-10-09 03:00:00,15.2,1024.7,-1,83,12.3,,31.484,,,290,,,,,,,,,,,og-post,,,,AAXX 09034 07020 36/// /2917 10152 20123 30230 40247 57010=
07020,1999-10-09 04:00:00,15.3,1024.8,-0.7,83,12.4,,25.928,,,280,,,,,,,,,,,og-post,,,,AAXX 09044 07020 36/// /2814 10153 20124 30231 40248 55007=
07020,1999-10-09 05:00:00,15.3,1024.9,-0,82,12.2,,29.632,,,280,,,,,,,,,,,og-post,,,,AAXX 09054 07020 36/// /2816 10153 20122 30232 40249 55000=
07020,1999-10-09 06:00:00,15.4,1025,0.3,84,12.7,10000,25.928,,,280,15.1,15.5,,,,,,,,,og-post,,,,AAXX 09064 07020 32660 82814 10154 20127 30233 40250 52003 88500 333 10155 20151 92437=
07020,1999-10-09 07:00:00,15.2,1025.4,0.6,84,12.5,,29.632,,,270,,,,,,,,,,,og-post,,,,AAXX 09074 07020 36/// /2716 10152 20125 30237 40254 53006=
07020,1999-10-09 08:00:00,15.2,1025.5,0.6,85,12.7,,29.632,,,270,,,,,,,,,,,og-post,,,,AAXX 09084 07020 36/// /2716 10152 20127 30238 40255 52006=
07020,1999-10-09 09:00:00,15.6,1025.7,0.7,85,13.1,10000,29.632,,,270,,,,,,,,,,,og-post,,,,AAXX 09094 07020 32660 82716 10156 20131 30240 40257 51007 88500 222// 336// 333 92437=
07020,1999-10-09 10:00:00,15.6,1025.8,0.4,84,12.9,,25.928,,,270,,,,,,,,,,,og-post,,,,AAXX 09104 07020 36/// /2714 10156 20129 30241 40258 52004=
07020,1999-10-09 11:00:00,15.7,1025.9,0.4,82,12.6,,25.928,,,270,,,,,,,,,,,og-post,,,,AAXX 09114 07020 36/// /2714 10157 20126 30242 40259 51004=
07020,1999-10-09 12:00:00,16.5,1025.8,0.1,76,12.3,10000,22.224,,,270,,,,,,,,,,,og-post,,,,AAXX 09124 07020 32660 62712 10165 20123 30241 40258 50001 86401 222// 336// 333 92437=
07020,1999-10-09 13:00:00,16.6,1025.6,-0.2,80,13.1,,25.928,,,260,,,,,,,,,,,og-post,,,,AAXX 09134 07020 36/// /2614 10166 20131 30239 40256 58002=
07020,1999-10-09 14:00:00,16.2,1025.4,-0.5,84,13.5,,25.928,,,260,,,,,,,,,,,og-post,,,,AAXX 09144 07020 36/// /2614 10162 20135 30237 40254 58005=
07020,1999-10-09 15:00:00,16.2,1025.7,-0.1,86,13.9,8000,29.632,,,260,,,,,,,,,,,og-post,,,,AAXX 09154 07020 32658 82616 10162 20139 30240 40257 55001 88500 333 92426=
07020,1999-10-09 16:00:00,15.5,1025.3,-0.3,90,13.9,,29.632,,,260,,,,,,,,,,,og-post,,,,AAXX 09164 07020 26/// /2616 10155 20139 30236 40253 58003 333 69905=
07020,1999-10-09 17:00:00,15.3,1025,-0.4,91,13.8,,31.484,,,260,,,,,,,,,,,og-post,,,,AAXX 09174 07020 26/// /2617 10153 20138 30233 40250 58004 333 69905=
07020,1999-10-09 18:00:00,15.1,1025.3,-0.4,94,14.1,5000,35.188,,,260,15,17.6,,,,,,,,,og-post,,,,AAXX 09184 07020 /2650 82619 10151 20141 30236 40253 55004 69902 88500 333 10176 20150 69907 92426=
07020,1999-10-09 19:00:00,15.2,1025.3,-0,95,14.4,,38.892,,,260,,,0.2,,,,,,,,og-post,,,,AAXX 09194 07020 26/// /2621 10152 20144 30236 40253 55000 333 69925=
07020,1999-10-09 20:00:00,15.4,1025.4,0.4,96,14.8,,35.188,,,260,,,,,,,,,,,og-post,,,,AAXX 09204 07020 36/// /2619 10154 20148 30237 40254 51004=
07020,1999-10-09 21:00:00,15.5,1025.4,0.1,97,15,,35.188,,,260,,,,0.4,,,,,,,og-post,,,,AAXX 09214 07020 26/// /2619 10155 20150 30237 40254 52001 333 69947=
07020,1999-10-09 22:00:00,15.5,1025.2,-0.1,97,15,,29.632,,,260,,,,,,,,,,,og-post,,,,AAXX 09224 07020 36/// /2616 10155 20150 30235 40252 58001=
07020,1999-10-09 23:00:00,15.5,1025,-0.4,96,14.9,,25.928,,,270,,,,,,,,,,,og-post,,,,AAXX 09234 07020 36/// /2714 10155 20149 30233 40250 58004=
07020,1999-10-10 00:00:00,15.5,1024.9,-0.5,95,14.7,,18.52,,,270,,,,,0.4,,,,,,og-post,,,,AAXX 10004 07020 16/// /2710 10155 20147 30232 40249 56005 69941=
07020,1999-10-10 01:00:00,15.6,1024.7,-0.5,95,14.8,,18.52,,,270,,,,,,,,,,,og-post,,,,AAXX 10014 07020 36/// /2710 10156 20148 30230 40247 57005=
07020,1999-10-10 02:00:00,15.5,1024.6,-0.4,96,14.9,,18.52,,,260,,,,,,,,,,,og-post,,,,AAXX 10024 07020 36/// /2610 10155 20149 30229 40246 57004=
07020,1999-10-10 03:00:00,15.4,1024.2,-0.7,96,14.8,,14.816,,,280,,,,0.2,,,,,,,og-post,,,,AAXX 10034 07020 26/// /2808 10154 20148 30225 40242 58007 333 69927=
07020,1999-10-10 04:00:00,15.1,1024.3,-0.4,96,14.5,,18.52,,,280,,,,,,,,,,,og-post,,,,AAXX 10044 07020 36/// /2810 10151 20145 30226 40243 55004=
07020,1999-10-10 05:00:00,15.1,1024.3,-0.3,96,14.5,,22.224,,,270,,,,,,,,,,,og-post,,,,AAXX 10054 07020 36/// /2712 10151 20145 30226 40243 56003=
07020,1999-10-10 06:00:00,15.1,1024.5,0.3,94,14.1,10000,18.52,,,280,14.9,15.6,,0.2,,0.8,,,,,og-post,,,,AAXX 10064 07020 /2660 82810 10151 20141 30228 40245 53003 69982 88500 333 10156 20149 69927 92437=
07020,1999-10-10 07:00:00,15.4,1024.6,0.3,94,14.4,,14.816,,,260,,,,,,,,,,,og-post,,,,AAXX 10074 07020 36/// /2608 10154 20144 30229 40246 53003=
07020,1999-10-10 08:00:00,15.6,1025.1,0.8,94,14.6,,25.928,,,260,,,,,,,,,,,og-post,,,,AAXX 10084 07020 36/// /2614 10156 20146 30234 40251 53008=
07020,1999-10-10 09:00:00,15.8,1025.2,0.7,94,14.8,6000,25.928,,,260,,,,,,,,,,,og-post,,,,AAXX 10094 07020 32656 82614 10158 20148 30235 40252 52007 88500 333 92436=
07020,1999-10-10 10:00:00,16.5,1024.8,0.2,95,15.7,,25.928,,,230,,,,,,,,,,,og-post,,,,AAXX 10104 07020 36/// /2314 10165 20157 30231 40248 50002=
07020,1999-10-10 11:00:00,16.4,1024.8,-0.3,95,15.6,,29.632,,,250,,,,,,,,,,,og-post,,,,AAXX 10114 07020 36/// /2516 10164 20156 30231 40248 58003=
07020,1999-10-10 12:00:00,16.4,1024.6,-0.6,94,15.4,8000,25.928,,,250,,,,,,,,,,,og-post,,,,AAXX 10124 07020 32658 82514 10164 20154 30229 40246 56006 88500 333 92436=
07020,1999-10-10 13:00:00,16.7,1024.7,-0.1,94,15.7,,22.224,,,270,,,,,,,,,,,og-post,,,,AAXX 10134 07020 36/// /2712 10167 20157 30230 40247 55001=
07020,1999-10-10 14:00:00,16.8,1024.8,-0,92,15.5,,25.928,,,260,,,,,,,,,,,og-post,,,,AAXX 10144 07020 36/// /2614 10168 20155 30231 40248 55000=
07020,1999-10-10 15:00:00,16.9,1024.5,-0.1,91,15.4,10000,25.928,,,260,,,,,,,,,,,og-post,,,,AAXX 10154 07020 32660 72614 10169 20154 30228 40245 58001 87500 333 92437=
07020,1999-10-10 16:00:00,16.6,1024.1,-0.6,91,15.1,,25.928,,,250,,,,,,,,,,,og-post,,,,AAXX 10164 07020 36/// /2514 10166 20151 30224 40241 58006=
07020,1999-10-10 17:00:00,16.3,1024.3,-0.5,94,15.3,,31.484,,,250,,,,,,,,,,,og-post,,,,AAXX 10174 07020 36/// /2517 10163 20153 30226 40243 55005=
07020,1999-10-10 18:00:00,15.8,1024.5,-0,96,15.2,,31.484,,,270,15,17,,,,,,,,51,og-post,,,,AAXX 10184 07020 /1/// /2717 10158 20152 30228 40245 55000 69902 751// 333 10170 20150 69907=
07020,1999-10-10 19:00:00,15.8,1024.9,0.8,92,14.5,,29.632,,,280,,,,,,,,,,,og-post,,,,AAXX 10194 07020 26/// /2816 10158 20145 30232 40249 53008 333 69905=
07020,1999-10-10 20:00:00,15.7,1024.9,0.6,89,13.9,,25.928,,,270,,,,,,,,,,,og-post,,,,AAXX 10204 07020 26/// /2714 10157 20139 30232 40249 51006 333 69905=
07020,1999-10-10 21:00:00,15.6,1025.1,0.6,90,14,,25.928,,,270,,,,,,,,,,,og-post,,,,AAXX 10214 07020 26/// /2714 10156 20140 30234 40251 51006 333 69907=
07020,1999-10-10 22:00:00,15.4,1025.3,0.4,89,13.6,,31.484,,,290,,,,,,,,,,,og-post,,,,AAXX 10224 07020 26/// /2917 10154 20136 30236 40253 53004 333 69905=
07020,1999-10-10 23:00:00,15.5,1025.6,0.7,85,13,,29.632,,,290,,,,,,,,,,,og-post,,,,AAXX 10234 07020 26/// /2916 10155 20130 30239 40256 53007 333 69905=
07020,1999-10-11 00:00:00,15.4,1025.7,0.6,82,12.3,,25.928,,,280,,,,,,,,,,,og-post,,,,AAXX 11004 07020 /6/// /2814 10154 20123 30240 40257 51006 69901 333 69907=
07020,1999-10-11 01:00:00,15.3,1025.8,0.5,81,12.1,,29.632,,,300,,,,,,,,,,,og-post,,,,AAXX 11014 07020 26/// /3016 10153 20121 30241 40258 51005 333 69905=
07020,1999-10-11 02:00:00,15.2,1025.8,0.2,80,11.8,,18.52,,,280,,,,,,,,,,,og-post,,,,AAXX 11024 07020 26/// /2810 10152 20118 30241 40258 51002 333 69905=
07020,1999-10-11 03:00:00,15.3,1025.6,-0.1,85,12.8,,22.224,,,280,,,,,,,,,,,og-post,,,,AAXX 11034 07020 26/// /2812 10153 20128 30239 40256 58001 333 69907=
07020,1999-10-11 04:00:00,15.3,1025.3,-0.5,87,13.1,,22.224,,,290,,,,,,,,,,,og-post,,,,AAXX 11044 07020 26/// /2912 10153 20131 30236 40253 58005 333 69905=
07020,1999-10-11 05:00:00,14.9,1025.9,0.1,90,13.3,,22.224,,,310,,,,,,,,,,,og-post,,,,AAXX 11054 07020 26/// /3112 10149 20133 30242 40259 53001 333 69905=
07020,1999-10-11 06:00:00,15.3,1026.1,0.5,82,12.2,12000,25.928,,,10,14.9,15.9,,,,,,,,,og-post,,,,AAXX 11064 07020 /2762 80114 10153 20122 30244 40261 53005 69902 88020 333 10159 20149 69907 92437=
07020,1999-10-11 07:00:00,15.2,1026.5,1.2,83,12.3,,14.816,,,20,,,,,,,,,,,og-post,,,,AAXX 11074 07020 36/// /0208 10152 20123 30248 40265 51012=
07020,1999-10-11 08:00:00,15.2,1027.2,1.3,85,12.7,,14.816,,,40,,,,,,,,,,,og-post,,,,AAXX 11084 07020 36/// /0408 10152 20127 30255 40272 53013=
07020,1999-10-11 09:00:00,15.4,1027.8,1.7,84,12.7,,22.224,,,350,,,,,,,,,,,og-post,,,,AAXX 11094 07020 36/// /3512 10154 20127 30261 40278 53017=
07020,1999-10-11 10:00:00,15.2,1028.2,1.7,82,12.1,,22.224,,,360,,,,,,,,,,,og-post,,,,AAXX 11104 07020 36/// /3612 10152 20121 30265 40282 51017=
07020,1999-10-11 11:00:00,15,1028.6,1.4,81,11.8,,18.52,,,10,,,,,,,,,,,og-post,,,,AAXX 11114 07020 36/// /0110 10150 20118 30269 40286 51014=
07020,1999-10-11 12:00:00,15.1,1028.5,0.7,79,11.5,12000,22.224,,,10,,,,,,,,,,,og-post,,,,AAXX 11124 07020 32262 70112 10151 20115 30268 40285 50007 87500 333 92437=
07020,1999-10-11 14:00:00,15.6,1028.3,-0.3,70,10.2,,11.112,,,20,,,,,,,,,,,og-post,,,,AAXX 11144 07020 36/// /0206 10156 20102 30266 40283 55003=
07020,1999-10-11 15:00:00,15.6,1028,-0.5,68,9.7,18000,14.816,,,20,,,,,,,,,,,og-post,,,,AAXX 11154 07020 32568 30208 10156 20097 30263 40280 57005 83101 333 92427=
07020,1999-10-11 16:00:00,15.2,1027.8,-0.4,64,8.4,,14.816,,,20,,,,,,,,,,,og-post,,,,AAXX 11164 07020 36/// /0208 10152 20084 30261 40278 58004=
07020,1999-10-11 17:00:00,14.6,1028.2,-0.1,64,7.9,,14.816,,,10,,,,,,,,,,,og-post,,,,AAXX 11174 07020 36/// /0108 10146 20079 30265 40282 55001=
07020,1999-10-11 18:00:00,14.2,1028.7,0.7,63,7.3,18000,14.816,,,20,14,15.9,,,,,,,,,og-post,,,,AAXX 11184 07020 32568 60208 10142 20073 30270 40287 53007 82108 333 10159 20140 92427=
07020,1999-10-11 19:00:00,14.3,1028.8,1,64,7.6,,22.224,,,20,,,,,,,,,,,og-post,,,,AAXX 11194 07020 36/// /0212 10143 20076 30271 40288 51010=
07020,1999-10-11 20:00:00,14.2,1029.1,0.9,66,7.9,,22.224,,,30,,,,,,,,,,,og-post,,,,AAXX 11204 07020 36/// /0312 10142 20079 30274 40291 51009=
07020,1999-10-11 21:00:00,14.1,1029.4,0.7,66,7.9,,25.928,,,40,,,,,,,,,,,og-post,,,,AAXX 11214 07020 36/// /0414 10141 20079 30277 40294 53007=
07020,1999-10-11 22:00:00,13.8,1029.6,0.8,62,6.7,,22.224,,,60,,,,,,,,,,,og-post,,,,AAXX 11224 07020 36/// /0612 10138 20067 30279 40296 51008=
07020,1999-10-11 23:00:00,13.7,1029.3,0.2,63,6.8,,22.224,,,50,,,,,,,,,,,og-post,,,,AAXX 11234 07020 36/// /0512 10137 20068 30276 40293 50002=
07020,1999-10-12 00:00:00,13.4,1029.2,-0.2,60,5.8,,18.52,,,70,,,,,,,,,,,og-post,,,,AAXX 12004 07020 36/// /0710 10134 20058 30275 40292 58002=
07020,1999-10-12 01:00:00,13.3,1029.2,-0.4,59,5.5,,22.224,,,60,,,,,,,,,,,og-post,,,,AAXX 12014 07020 36/// /0612 10133 20055 30275 40292 56004=
07020,1999-10-12 02:00:00,12.9,1028.7,-0.6,60,5.3,,22.224,,,60,,,,,,,,,,,og-post,,,,AAXX 12024 07020 36/// /0612 10129 20053 30270 40287 58006=
07020,1999-10-12 03:00:00,12.5,1028.7,-0.5,61,5.2,,14.816,,,70,,,,,,,,,,,og-post,,,,AAXX 12034 07020 36/// /0708 10125 20052 30270 40287 57005=
07020,1999-10-12 04:00:00,12.7,1028.8,-0.4,63,5.8,,18.52,,,70,,,,,,,,,,,og-post,,,,AAXX 12044 07020 36/// /0710 10127 20058 30271 40288 55004=
07020,1999-10-12 05:00:00,12.9,1028.9,0.2,61,5.6,,18.52,,,70,,,,,,,,,,,og-post,,,,AAXX 12054 07020 36/// /0710 10129 20056 30272 40289 53002=
07020,1999-10-12 06:00:00,13,1028.9,0.2,61,5.7,15000,22.224,,,70,12.5,14.4,,,,,,,,,og-post,,,,AAXX 12064 07020 32565 60712 10130 20057 30272 40289 51002 86600 333 10144 20125 92427=
07020,1999-10-12 07:00:00,13.3,1029.3,0.5,57,5,,18.52,,,80,,,,,,,,,,,og-post,,,,AAXX 12074 07020 36/// /0810 10133 20050 30276 40293 53005=
07020,1999-10-12 08:00:00,13.7,1029.7,0.8,55,4.8,,22.224,,,70,,,,,,,,,,,og-post,,,,AAXX 12084 07020 36/// /0712 10137 20048 30280 40297 53008=
07020,1999-10-12 09:00:00,14.3,1030.1,1.2,56,5.7,18000,22.224,,,80,,,,,,,,,,,og-post,,,,AAXX 12094 07020 32668 60812 10143 20057 30284 40301 52012 86600 333 92427=
07020,1999-10-12 10:00:00,14.9,1030.1,0.8,53,5.4,,18.52,,,70,,,,,,,,,,,og-post,,,,AAXX 12104 07020 36/// /0710 10149 20054 30284 40301 51008=
07020,1999-10-12 11:00:00,15.5,1030,0.3,57,7,,18.52,,,70,,,,,,,,,,,og-post,,,,AAXX 12114 07020 36/// /0710 10155 20070 30283 40300 50003=
07020,1999-10-12 12:00:00,14.9,1029.3,-0.8,67,8.8,18000,29.632,,,80,,,,,,,,,,,og-post,,,,AAXX 12124 07020 32668 60816 10149 20088 30276 40293 58008 86400 333 92427=
07020,1999-10-12 13:00:00,15.7,1028.7,-1.4,69,10,,31.484,,,70,,,,,,,,,,,og-post,,,,AAXX 12134 07020 36/// /0717 10157 20100 30270 40287 58014=
07020,1999-10-12 14:00:00,16.4,1028.7,-1.3,59,8.4,,25.928,,,110,,,,,,,,,,,og-post,,,,AAXX 12144 07020 36/// /1114 10164 20084 30270 40287 56013=
07020,1999-10-12 15:00:00,15.4,1028.6,-0.7,59,7.4,,22.224,,,120,,,,,,,,,,,og-post,,,,AAXX 12154 07020 36/// /1212 10154 20074 30269 40286 56007=
07020,1999-10-12 17:00:00,14.5,1027.9,-0.8,56,5.8,,29.632,,,90,,,,,,,,,,,og-post,,,,AAXX 12174 07020 36/// /0916 10145 20058 30262 40279 58008=
07020,1999-10-12 18:00:00,14,1028.4,-0.2,61,6.6,10000,31.484,,,100,13,16.8,,,,,,,,,og-post,,,,AAXX 12184 07020 32660 61017 10140 20066 30267 40284 55002 86500 333 10168 20130 92427=
07020,1999-10-12 19:00:00,14.1,1028.7,0.5,66,7.9,,35.188,,,90,,,,,,,,,,,og-post,,,,AAXX 12194 07020 36/// /0919 10141 20079 30270 40287 53005=
07020,1999-10-12 20:00:00,14,1029,1.1,65,7.5,,35.188,,,80,,,,,,,,,,,og-post,,,,AAXX 12204 07020 36/// /0819 10140 20075 30273 40290 51011=
07020,1999-10-12 21:00:00,14,1028.9,0.5,58,5.9,,35.188,,,80,,,,,,,,,,,og-post,,,,AAXX 12214 07020 36/// /0819 10140 20059 30272 40289 50005=
07020,1999-10-12 22:00:00,14.1,1028.9,0.2,66,7.9,,31.484,,,90,,,,,,,,,,,og-post,,,,AAXX 12224 07020 36/// /0917 10141 20079 30272 40289 51002=
07020,1999-10-12 23:00:00,14.3,1028.5,-0.5,65,7.8,,35.188,,,80,,,,,,,,,,,og-post,,,,AAXX 12234 07020 36/// /0819 10143 20078 30268 40285 58005=
07020,1999-10-13 00:00:00,14.3,1028.5,-0.4,62,7.1,,29.632,,,90,,,,,,,,,,,og-post,,,,AAXX 13004 07020 36/// /0916 10143 20071 30268 40285 57004=
07020,1999-10-13 01:00:00,14.5,1028.3,-0.6,65,8,,31.484,,,80,,,,,,,,,,,og-post,,,,AAXX 13014 07020 36/// /0817 10145 20080 30266 40283 56006=
07020,1999-10-13 02:00:00,14,1027.8,-0.7,67,8,,25.928,,,120,,,,,,,,,,,og-post,,,,AAXX 13024 07020 36/// /1214 10140 20080 30261 40278 58007=
07020,1999-10-13 03:00:00,14.1,1027.7,-0.8,69,8.5,,31.484,,,100,,,,,,,,,,,og-post,,,,AAXX 13034 07020 36/// /1017 10141 20085 30260 40277 56008=
07020,1999-10-13 04:00:00,13.7,1027.6,-0.7,68,7.9,,25.928,,,120,,,,,,,,,,,og-post,,,,AAXX 13044 07020 36/// /1214 10137 20079 30259 40276 56007=
07020,1999-10-13 05:00:00,13.7,1027.5,-0.3,70,8.3,,29.632,,,110,,,,,,,,,,,og-post,,,,AAXX 13054 07020 36/// /1116 10137 20083 30258 40275 57003=
07020,1999-10-13 06:00:00,13.8,1027.3,-0.4,65,7.3,10000,31.484,,,100,13.5,14.6,,,,,,,,,og-post,,,,AAXX 13064 07020 32560 81017 10138 20073 30256 40273 58004 88500 333 10146 20135 92437=
07020,1999-10-13 07:00:00,13.9,1027.5,-0.1,64,7.2,,38.892,,,100,,,,,,,,,,,og-post,,,,AAXX 13074 07020 36/// /1021 10139 20072 30258 40275 55001=
07020,1999-10-13 08:00:00,14.4,1028,0.5,63,7.5,,38.892,,,80,,,,,,,,,,,og-post,,,,AAXX 13084 07020 36/// /0821 10144 20075 30263 40280 53005=
07020,1999-10-13 09:00:00,15,1028.1,0.8,64,8.3,10000,42.596,,,100,,,,,,,,,,,og-post,,,,AAXX 13094 07020 32560 71023 10150 20083 30264 40281 51008 87500 333 92447=
07020,1999-10-13 10:00:00,14.8,1028.1,0.6,68,9,,46.3,,,90,,,,,,,,,,,og-post,,,,AAXX 13104 07020 36/// /0925 10148 20090 30264 40281 51006=
07020,1999-10-13 11:00:00,15.3,1028,0,65,8.8,,46.3,,,90,,,,,,,,,,,og-post,,,,AAXX 13114 07020 36/// /0925 10153 20088 30263 40280 50000=
07020,1999-10-13 12:00:00,15.1,1027.7,-0.4,66,8.8,10000,42.596,,,100,,,,,,,,,,,og-post,,,,AAXX 13124 07020 32560 71023 10151 20088 30260 40277 58004 87500 333 92437=
07020,1999-10-13 13:00:00,15.1,1027.5,-0.6,68,9.2,,38.892,,,90,,,,,,,,,,,og-post,,,,AAXX 13134 07020 36/// /0921 10151 20092 30258 40275 58006=
07020,1999-10-13 14:00:00,15.4,1027.1,-0.9,64,8.6,,35.188,,,90,,,,,,,,,,,og-post,,,,AAXX 13144 07020 36/// /0919 10154 20086 30254 40271 58009=
07020,1999-10-13 15:00:00,14.8,1026.9,-0.8,64,8.1,10000,42.596,,,90,,,,,,,,,,,og-post,,,,AAXX 13154 07020 32560 60923 10148 20081 30252 40269 57008 86300 333 92437=
07020,1999-10-13 16:00:00,14.7,1026.5,-1,69,9.1,,46.3,,,90,,,,,,,,,,,og-post,,,,AAXX 13164 07020 36/// /0925 10147 20091 30248 40265 57010=
07020,1999-10-13 17:00:00,14.2,1026.3,-0.8,69,8.6,,46.3,,,90,,,,,,,,,,,og-post,,,,AAXX 13174 07020 36/// /0925 10142 20086 30246 40263 57008=
07020,1999-10-13 18:00:00,14.3,1026.3,-0.6,72,9.3,10000,46.3,,,90,13.8,15.6,,,,,,,,,og-post,,,,AAXX 13184 07020 32560 60925 10143 20093 30246 40263 56006 86200 333 10156 20138 92437=
07020,1999-10-13 19:00:00,14.5,1026.8,0.3,72,9.5,,50.004,,,90,,,,,,,,,,,og-post,,,,AAXX 13194 07020 36/// /0927 10145 20095 30251 40268 53003=
07020,1999-10-13 20:00:00,14.7,1027,0.7,73,9.9,,46.3,,,90,,,,,,,,,,,og-post,,,,AAXX 13204 07020 36/// /0925 10147 20099 30253 40270 53007=
07020,1999-10-13 21:00:00,14.6,1027.1,0.8,73,9.8,,42.596,,,100,,,,,,,,,,,og-post,,,,AAXX 13214 07020 36/// /1023 10146 20098 30254 40271 51008=
07020,1999-10-13 22:00:00,14.6,1027.1,0.3,74,10,,42.596,,,90,,,,,,,,,,,og-post,,,,AAXX 13224 07020 36/// /0923 10146 20100 30254 40271 51003=
07020,1999-10-13 23:00:00,14.7,1027,0,72,9.7,,35.188,,,90,,,,,,,,,,,og-post,,,,AAXX 13234 07020 36/// /0919 10147 20097 30253 40270 50000=
07020,1999-10-14 00:00:00,14.6,1026.9,-0.2,72,9.6,,35.188,,,90,,,,,,,,,,,og-post,,,,AAXX 14004 07020 36/// /0919 10146 20096 30252 40269 58002=
07020,1999-10-14 01:00:00,14.5,1026.8,-0.3,72,9.5,,31.484,,,100,,,,,,,,,,,og-post,,,,AAXX 14014 07020 36/// /1017 10145 20095 30251 40268 57003=
07020,1999-10-14 02:00:00,14.1,1026.4,-0.6,71,8.9,,35.188,,,90,,,,,,,,,,,og-post,,,,AAXX 14024 07020 36/// /0919 10141 20089 30247 40264 58006=
07020,1999-10-14 03:00:00,13.9,1025.7,-1.2,72,8.9,,38.892,,,90,,,,,,,,,,,og-post,,,,AAXX 14034 07020 36/// /0921 10139 20089 30240 40257 58012=
07020,1999-10-14 04:00:00,13.2,1025.8,-1,78,9.5,,25.928,,,120,,,,,,,,,,,og-post,,,,AAXX 14044 07020 36/// /1214 10132 20095 30241 40258 55010=
07020,1999-10-14 05:00:00,13.5,1025.1,-1.3,76,9.4,,35.188,,,100,,,,,,,,,,,og-post,,,,AAXX 14054 07020 36/// /1019 10135 20094 30234 40251 57013=
07020,1999-10-14 06:00:00,13.5,1024.8,-0.9,75,9.2,15000,46.3,,,100,13.2,14.8,,,,,,,,,og-post,,,,AAXX 14064 07020 32665 31025 10135 20092 30231 40248 58009 83200 333 10148 20132 92437=
07020,1999-10-14 07:00:00,13.6,1025.2,-0.6,74,9.1,,38.892,,,100,,,,,,,,,,,og-post,,,,AAXX 14074 07020 36/// /1021 10136 20091 30235 40252 55006=
07020,1999-10-14 08:00:00,14.1,1025.3,0.2,75,9.7,,42.596,,,100,,,,,,,,,,,og-post,,,,AAXX 14084 07020 36/// /1023 10141 20097 30236 40253 53002=
07020,1999-10-14 09:00:00,14.6,1025.4,0.6,73,9.8,15000,42.596,,,100,,,,,,,,,,,og-post,,,,AAXX 14094 07020 32665 41023 10146 20098 30237 40254 51006 84200 333 92447=
07020,1999-10-14 10:00:00,15.2,1025.1,-0.1,72,10.2,,42.596,,,100,,,,,,,,,,,og-post,,,,AAXX 14104 07020 36/// /1023 10152 20102 30234 40251 58001=
07020,1999-10-14 11:00:00,15.7,1025,-0.3,69,10,,42.596,,,100,,,,,,,,,,,og-post,,,,AAXX 14114 07020 36/// /1023 10157 20100 30233 40250 58003=
07020,1999-10-14 12:00:00,15.8,1024.3,-1.1,70,10.3,10000,42.596,,,100,,,,,,,,,,,og-post,,,,AAXX 14124 07020 32660 41023 10158 20103 30226 40243 58011 82101 333 92447=
07020,1999-10-14 13:00:00,15.9,1023.5,-1.6,69,10.2,,42.596,,,100,,,,,,,,,,,og-post,,,,AAXX 14134 07020 36/// /1023 10159 20102 30218 40235 58016=
07020,1999-10-14 14:00:00,16.3,1023.1,-1.9,68,10.4,,42.596,,,100,,,,,,,,,,,og-post,,,,AAXX 14144 07020 36/// /1023 10163 20104 30214 40231 56019=
07020,1999-10-14 15:00:00,15.9,1022.8,-1.5,69,10.2,8000,42.596,,,100,,,,,,,,,,,og-post,,,,AAXX 14154 07020 32958 41023 10159 20102 30211 40228 56015 80001 333 92436=
07020,1999-10-14 16:00:00,15.7,1022.5,-1,73,10.9,,38.892,,,100,,,,,,,,,,,og-post,,,,AAXX 14164 07020 36/// /1021 10157 20109 30208 40225 56010=
07020,1999-10-14 17:00:00,15.1,1022.4,-0.7,77,11.1,,38.892,,,110,,,,,,,,,,,og-post,,,,AAXX 14174 07020 36/// /1121 10151 20111 30207 40224 56007=
07020,1999-10-14 18:00:00,15.3,1022.3,-0.5,79,11.7,8000,38.892,,,110,13.4,16.4,,,,,,,,,og-post,,,,AAXX 14184 07020 32958 71121 10153 20117 30206 40223 56005 87060 333 10164 20134 92436=
07020,1999-10-14 19:00:00,15.4,1022.2,-0.3,79,11.8,,35.188,,,110,,,,,,,,,,,og-post,,,,AAXX 14194 07020 36/// /1119 10154 20118 30205 40222 57003=
07020,1999-10-14 20:00:00,15.3,1021.8,-0.6,79,11.7,,29.632,,,110,,,,,,,,,,,og-post,,,,AAXX 14204 07020 36/// /1116 10153 20117 30201 40218 58006=
07020,1999-10-14 21:00:00,15.5,1021.6,-0.7,77,11.5,,35.188,,,110,,,,,,,,,,,og-post,,,,AAXX 14214 07020 36/// /1119 10155 20115 30199 40216 58007=
07020,1999-10-14 22:00:00,15.2,1021.5,-0.7,77,11.2,,31.484,,,120,,,,,,,,,,,og-post,,,,AAXX 14224 07020 36/// /1217 10152 20112 30198 40215 56007=
07020,1999-10-14 23:00:00,15,1021.1,-0.7,77,11,,29.632,,,120,,,,,,,,,,,og-post,,,,AAXX 14234 07020 36/// /1216 10150 20110 30194 40211 58007=
07020,1999-10-15 00:00:00,14.9,1020.6,-1,77,10.9,,35.188,,,120,,,,,,,,,,,og-post,,,,AAXX 15004 07020 36/// /1219 10149 20109 30189 40206 58010=
07020,1999-10-15 01:00:00,14.6,1020.4,-1.1,76,10.4,,29.632,,,120,,,,,,,,,,,og-post,,,,AAXX 15014 07020 36/// /1216 10146 20104 30187 40204 56011=
07020,1999-10-15 02:00:00,14.4,1019.8,-1.3,79,10.8,,31.484,,,120,,,,,,,,,,,og-post,,,,AAXX 15024 07020 36/// /1217 10144 20108 30181 40198 58013=
07020,1999-10-15 03:00:00,14.2,1019.3,-1.3,78,10.4,,25.928,,,120,,,,,,,,,,,og-post,,,,AAXX 15034 07020 36/// /1214 10142 20104 30176 40193 58013=
07020,1999-10-15 04:00:00,14.2,1019,-1.4,77,10.2,,25.928,,,120,,,,,,,,,,,og-post,,,,AAXX 15044 07020 36/// /1214 10142 20102 30173 40190 56014=
07020,1999-10-15 05:00:00,14,1018.8,-1,79,10.4,,22.224,,,120,,,,,,,,,,,og-post,,,,AAXX 15054 07020 36/// /1212 10140 20104 30171 40188 56010=
07020,1999-10-15 06:00:00,13.8,1018.6,-0.7,80,10.4,12000,18.52,,,120,13.8,15.5,,,,,,,,,og-post,,,,AAXX 15064 07020 32662 61210 10138 20104 30169 40186 56007 86500 333 10155 20138 92437=
07020,1999-10-15 07:00:00,14,1018.8,-0.2,79,10.4,,18.52,,,120,,,,,,,,,,,og-post,,,,AAXX 15074 07020 36/// /1210 10140 20104 30171 40188 55002=
07020,1999-10-15 08:00:00,14,1018.9,0.1,81,10.8,,22.224,,,110,,,,,,,,,,,og-post,,,,AAXX 15084 07020 36/// /1112 10140 20108 30172 40189 53001=
07020,1999-10-15 09:00:00,13.4,1018.8,0.2,91,12,4000,22.224,,,110,,,,2,,,,,,60,og-post,,,,AAXX 15094 07020 21640 81112 10134 20120 30171 40188 50002 76061 88020 333 60027 92436=
07020,1999-10-15 10:00:00,13.7,1019.2,0.4,90,12.1,,14.816,,,130,,,,,,,,,,,og-post,,,,AAXX 15104 07020 26/// /1308 10137 20121 30175 40192 53004 333 69905=
07020,1999-10-15 11:00:00,15.4,1018.9,0,86,13.1,,14.816,,,90,,,,,,,,,,,og-post,,,,AAXX 15114 07020 26/// /0908 10154 20131 30172 40189 50000 333 69905=
07020,1999-10-15 12:00:00,15.7,1018.8,0,84,13,4000,18.52,,,120,,,,,2,,,,,21,og-post,,,,AAXX 15124 07020 /1540 71210 10157 20130 30171 40188 50000 60021 72162 875// 333 69907 92436=
07020,1999-10-15 13:00:00,15.6,1018.6,-0.6,85,13.1,,14.816,,,110,,,,,,,,,,,og-post,,,,AAXX 15134 07020 36/// /1108 10156 20131 30169 40186 56006=
07020,1999-10-15 14:00:00,15.8,1018.2,-0.7,84,13.1,,14.816,,,100,,,,,,,,,,,og-post,,,,AAXX 15144 07020 36/// /1008 10158 20131 30165 40182 58007=
07020,1999-10-15 15:00:00,15.8,1018.2,-0.6,85,13.3,4000,25.928,,,100,,,,,,,,,,,og-post,,,,AAXX 15154 07020 32540 71014 10158 20133 30165 40182 56006 8756/ 333 92436=
07020,1999-10-15 16:00:00,15.4,1018.1,-0.5,87,13.2,,25.928,,,110,,,,,,,,,,,og-post,,,,AAXX 15164 07020 36/// /1114 10154 20132 30164 40181 56005=
07020,1999-10-15 17:00:00,15.4,1018.3,0.1,88,13.4,,18.52,,,120,,,,,,,,,,,og-post,,,,AAXX 15174 07020 36/// /1210 10154 20134 30166 40183 53001=
07020,1999-10-15 18:00:00,15.3,1018.7,0.5,89,13.5,,14.816,,,120,13.2,16.1,,,,2,,,,,og-post,,,,AAXX 15184 07020 16/// /1208 10153 20135 30170 40187 53005 60022 333 10161 20132=
07020,1999-10-15 19:00:00,15,1019,0.9,88,13,,14.816,,,120,,,,,,,,,,,og-post,,,,AAXX 15194 07020 36/// /1208 10150 20130 30173 40190 53009=
07020,1999-10-15 20:00:00,14.8,1019.1,0.8,89,13,,11.112,,,130,,,,,,,,,,,og-post,,,,AAXX 15204 07020 36/// /1306 10148 20130 30174 40191 51008=
07020,1999-10-15 21:00:00,14.9,1019.4,0.7,90,13.3,,11.112,,,140,,,,,,,,,,,og-post,,,,AAXX 15214 07020 36/// /1406 10149 20133 30177 40194 52007=
07020,1999-10-15 22:00:00,14.7,1019.1,0.1,91,13.2,,7.408,,,110,,,,,,,,,,,og-post,,,,AAXX 15224 07020 36/// /1104 10147 20132 30174 40191 50001=
07020,1999-10-15 23:00:00,14.6,1019.3,0.2,92,13.3,,7.408,,,130,,,,,,,,,,,og-post,,,,AAXX 15234 07020 36/// /1304 10146 20133 30176 40193 51002=
07020,1999-10-16 00:00:00,15.1,1019.4,-0,93,14,,3.704,,,190,,,,,,,,,,,og-post,,,,AAXX 16004 07020 36/// /1902 10151 20140 30177 40194 55000=
07020,1999-10-16 01:00:00,14.9,1019.5,0.4,94,13.9,,7.408,,,180,,,,,,,,,,,og-post,,,,AAXX 16014 07020 36/// /1804 10149 20139 30178 40195 51004=
07020,1999-10-16 02:00:00,14.8,1019.3,0,95,14,,7.408,,,220,,,,,,,,,,,og-post,,,,AAXX 16024 07020 36/// /2204 10148 20140 30176 40193 50000=
07020,1999-10-16 03:00:00,14.8,1019.3,-0.1,95,14,,11.112,,,220,,,,,,,,,,,og-post,,,,AAXX 16034 07020 36/// /2206 10148 20140 30176 40193 58001=
07020,1999-10-16 04:00:00,14.5,1019.4,-0.1,95,13.7,,7.408,,,140,,,,,,,,,,,og-post,,,,AAXX 16044 07020 36/// /1404 10145 20137 30177 40194 55001=
07020,1999-10-16 05:00:00,14.5,1019.5,0.2,95,13.7,,7.408,,,170,,,,,,,,,,,og-post,,,,AAXX 16054 07020 36/// /1704 10145 20137 30178 40195 53002=
07020,1999-10-16 06:00:00,14.6,1019.2,-0.1,95,13.8,4000,7.408,,,110,14.4,15.3,,,,,,,,,og-post,,,,AAXX 16064 07020 32540 81104 10146 20138 30175 40192 58001 886// 333 10153 20144 92428=
07020,1999-10-16 07:00:00,14.6,1019.5,0.1,95,13.8,,11.112,,,110,,,,,,,,,,,og-post,,,,AAXX 16074 07020 36/// /1106 10146 20138 30178 40195 53001=
07020,1999-10-16 08:00:00,15.3,1019.8,0.3,95,14.5,,11.112,,,120,,,,,,,,,,,og-post,,,,AAXX 16084 07020 36/// /1206 10153 20145 30181 40198 53003=
07020,1999-10-16 09:00:00,15.6,1019.6,0.4,95,14.8,3000,18.52,,,110,,,,,,,,,,,og-post,,,,AAXX 16094 07020 32530 81110 10156 20148 30179 40196 50004 886// 333 92425=
07020,1999-10-16 10:00:00,16.7,1019.6,0.1,84,14,,22.224,,,110,,,,,,,,,,,og-post,,,,AAXX 16104 07020 36/// /1112 10167 20140 30179 40196 51001=
07020,1999-10-16 11:00:00,16.3,1019.9,0.1,84,13.6,,22.224,,,90,,,,,,,,,,,og-post,,,,AAXX 16114 07020 36/// /0912 10163 20136 30182 40199 53001=
07020,1999-10-16 12:00:00,16.2,1019.2,-0.4,85,13.7,3000,25.928,,,100,,,,,,,,,,,og-post,,,,AAXX 16124 07020 32530 81014 10162 20137 30175 40192 58004 886// 333 92435=
07020,1999-10-16 13:00:00,16.3,1018.7,-0.9,85,13.8,,25.928,,,100,,,,,,,,,,,og-post,,,,AAXX 16134 07020 36/// /1014 10163 20138 30170 40187 58009=
07020,1999-10-16 14:00:00,16.5,1017.8,-2.1,82,13.4,,29.632,,,90,,,,,,,,,,,og-post,,,,AAXX 16144 07020 36/// /0916 10165 20134 30161 40178 58021=
07020,1999-10-16 15:00:00,15.9,1018.1,-1.1,82,12.8,4000,29.632,,,90,,,,,,,,,,,og-post,,,,AAXX 16154 07020 32840 40916 10159 20128 30164 40181 55011 84050 333 92436=
07020,1999-10-16 16:00:00,15.4,1017.5,-1.2,84,12.7,,29.632,,,90,,,,,,,,,,,og-post,,,,AAXX 16164 07020 36/// /0916 10154 20127 30158 40175 56012=
07020,1999-10-16 18:00:00,14.6,1017.3,-0.8,79,11,4000,31.484,,,90,14.4,17.1,,,,,,,,,og-post,,,,AAXX 16184 07020 32640 50917 10146 20110 30156 40173 55008 85500 333 10171 20144 92436=
07020,1999-10-16 19:00:00,14.6,1017.4,-0.1,82,11.6,,29.632,,,90,,,,,,,,,,,og-post,,,,AAXX 16194 07020 36/// /0916 10146 20116 30157 40174 55001=
07020,1999-10-16 20:00:00,14.5,1017.5,0.4,82,11.5,,25.928,,,100,,,,,,,,,,,og-post,,,,AAXX 16204 07020 36/// /1014 10145 20115 30158 40175 51004=
07020,1999-10-16 21:00:00,14,1017,-0.3,87,11.9,,18.52,,,130,,,,,,,,,,,og-post,,,,AAXX 16214 07020 36/// /1310 10140 20119 30153 40170 58003=
07020,1999-10-16 22:00:00,13.9,1016.5,-0.9,88,11.9,,18.52,,,120,,,,,,,,,,,og-post,,,,AAXX 16224 07020 36/// /1210 10139 20119 30148 40165 58009=
07020,1999-10-16 23:00:00,13.4,1016.3,-1.2,87,11.3,,14.816,,,150,,,,,,,,,,,og-post,,,,AAXX 16234 07020 36/// /1508 10134 20113 30146 40163 56012=
07020,1999-10-17 00:00:00,12.5,1016.2,-0.8,88,10.6,,14.816,,,140,,,,,,,,,,,og-post,,,,AAXX 17004 07020 36/// /1408 10125 20106 30145 40162 56008=
07020,1999-10-17 01:00:00,11.7,1015.9,-0.6,88,9.8,,14.816,,,120,,,,,,,,,,,og-post,,,,AAXX 17014 07020 36/// /1208 10117 20098 30142 40159 58006=
07020,1999-10-17 02:00:00,11,1015.8,-0.5,89,9.3,,14.816,,,140,,,,,,,,,,,og-post,,,,AAXX 17024 07020 36/// /1408 10110 20093 30141 40158 57005=
07020,1999-10-17 03:00:00,11,1015.4,-0.8,89,9.3,,14.816,,,130,,,,,,,,,,,og-post,,,,AAXX 17034 07020 36/// /1308 10110 20093 30137 40154 58008=
07020,1999-10-17 04:00:00,10.7,1015.4,-0.5,86,8.5,,18.52,,,130,,,,,,,,,,,og-post,,,,AAXX 17044 07020 36/// /1310 10107 20085 30137 40154 56005=
07020,1999-10-17 05:00:00,9.9,1015.1,-0.7,85,7.5,,14.816,,,130,,,,,,,,,,,og-post,,,,AAXX 17054 07020 36/// /1308 10099 20075 30134 40151 56007=
07020,1999-10-17 06:00:00,12.1,1014.7,-0.7,89,10.3,,25.928,,,110,9.9,14.7,,,,,,,,,og-post,,,,AAXX 17064 07020 36/// /1114 10121 20103 30130 40147 58007 333 10147 20099=
07020,1999-10-17 07:00:00,12.9,1015.2,-0.2,83,10.1,,29.632,,,110,,,,,,,,,,,og-post,,,,AAXX 17074 07020 36/// /1116 10129 20101 30135 40152 55002=
07020,1999-10-17 08:00:00,12.7,1015.6,0.5,84,10.1,,29.632,,,120,,,,,,,,,,,og-post,,,,AAXX 17084 07020 36/// /1216 10127 20101 30139 40156 53005=
07020,1999-10-17 09:00:00,13.8,1015.6,0.9,80,10.4,10000,29.632,,,110,,,,,,,,,,,og-post,,,,AAXX 17094 07020 32660 61116 10138 20104 30139 40156 51009 82250 222// 336// 333 92437=
07020,1999-10-17 10:00:00,14,1015.5,0.3,78,10.2,,29.632,,,110,,,,,,,,,,,og-post,,,,AAXX 17104 07020 36/// /1116 10140 20102 30138 40155 50003=
07020,1999-10-17 11:00:00,14.8,1015.5,-0.1,71,9.6,,31.484,,,110,,,,,,,,,,,og-post,,,,AAXX 17114 07020 36/// /1117 10148 20096 30138 40155 57001=
07020,1999-10-17 12:00:00,14.6,1014.9,-0.7,68,8.8,10000,35.188,,,100,,,,,,,,,,,og-post,,,,AAXX 17124 07020 32660 61019 10146 20088 30132 40149 58007 82158 333 92437=
07020,1999-10-17 13:00:00,14.6,1014.3,-1.2,72,9.6,,46.3,,,100,,,,,,,,,,,og-post,,,,AAXX 17134 07020 36/// /1025 10146 20096 30126 40143 58012=
07020,1999-10-17 14:00:00,14.2,1013.5,-2,71,9,,53.708,,,100,,,,,,,,,,,og-post,,,,AAXX 17144 07020 36/// /1029 10142 20090 30118 40135 58020=
07020,1999-10-17 15:00:00,14.3,1013.8,-1.1,73,9.5,8000,46.3,,,100,,,,,,,,,,,og-post,,,,AAXX 17154 07020 32658 71025 10143 20095 30121 40138 55011 8545/ 333 92456=
07020,1999-10-17 18:00:00,13.7,1014.1,0.3,71,8.5,8000,50.004,,,100,12.2,15,,,,,,,,,og-post,,,,AAXX 17184 07020 32658 71027 10137 20085 30124 40141 53003 8545/ 333 10150 20122 92456=
07020,1999-10-17 22:00:00,12.2,1014.7,0.4,72,7.3,,29.632,,,120,,,,,,,,,,,og-post,,,,AAXX 17224 07020 36/// /1216 10122 20073 30130 40147 50004=
07020,1999-10-17 23:00:00,12.4,1014.5,0,71,7.3,,31.484,,,110,,,,,,,,,,,og-post,,,,AAXX 17234 07020 36/// /1117 10124 20073 30128 40145 50000=
07020,1999-10-18 01:00:00,12.4,1013.8,-0.9,68,6.7,,38.892,,,110,,,,,,,,,,,og-post,,,,AAXX 18014 07020 36/// /1121 10124 20067 30121 40138 58009=
07020,1999-10-18 02:00:00,12.4,1013.3,-1.2,70,7.1,,38.892,,,100,,,,,,,,,,,og-post,,,,AAXX 18024 07020 36/// /1021 10124 20071 30116 40133 58012=
07020,1999-10-18 04:00:00,12,1012.9,-0.9,75,7.7,,46.3,,,90,,,,,,,,,,,og-post,,,,AAXX 18044 07020 36/// /0925 10120 20077 30112 40129 56009=
07020,1999-10-18 05:00:00,11.6,1013.1,-0.2,76,7.5,,46.3,,,100,,,,,,,,,,,og-post,,,,AAXX 18054 07020 36/// /1025 10116 20075 30114 40131 55002=
07020,1999-10-18 06:00:00,11.3,1012.9,-0.2,78,7.6,8000,46.3,,,100,11.3,13.8,,,,,,,,,og-post,,,,AAXX 18064 07020 32558 51025 10113 20076 30112 40129 57002 85600 333 10138 20113 92446=
07020,1999-10-18 07:00:00,11.1,1012.9,0,77,7.2,,46.3,,,100,,,,,,,,,,,og-post,,,,AAXX 18074 07020 36/// /1025 10111 20072 30112 40129 50000=
07020,1999-10-18 08:00:00,11.4,1013,-0.1,77,7.5,,53.708,,,90,,,,,,,,,,,og-post,,,,AAXX 18084 07020 36/// /0929 10114 20075 30113 40130 55001=
07020,1999-10-18 09:00:00,12,1012.8,-0.1,78,8.3,10000,57.412,,,90,,,,,,,,,,,og-post,,,,AAXX 18094 07020 32560 60931 10120 20083 30111 40128 58001 86111 333 92457=
07020,1999-10-18 10:00:00,11.9,1013.1,0.2,78,8.2,,53.708,,,90,,,,,,,,,,,og-post,,,,AAXX 18104 07020 36/// /0929 10119 20082 30114 40131 53002=
07020,1999-10-18 11:00:00,11.6,1013.3,0.3,75,7.3,,53.708,,,90,,,,,,,,,,,og-post,,,,AAXX 18114 07020 36/// /0929 10116 20073 30116 40133 53003=
07020,1999-10-18 14:00:00,12.5,1012,-1.3,71,7.4,,57.412,,,90,,,,,,,,,,,og-post,,,,AAXX 18144 07020 36/// /0931 10125 20074 30103 40120 56013=
07020,1999-10-18 15:00:00,12.7,1011.6,-0.9,67,6.7,10000,57.412,,,90,,,,,,,,,,,og-post,,,,AAXX 18154 07020 32560 60931 10127 20067 30099 40116 57009 86101 333 92457=
07020,1999-10-18 16:00:00,12.7,1011.7,-0.4,70,7.4,,61.116,,,90,,,,,,,,,,,og-post,,,,AAXX 18164 07020 36/// /0933 10127 20074 30100 40117 55004=
07020,1999-10-18 17:00:00,12.5,1012,-0,68,6.8,,64.82,,,90,,,,,,,,,,,og-post,,,,AAXX 18174 07020 36/// /0935 10125 20068 30103 40120 55000=
07020,1999-10-18 18:00:00,12.4,1012.6,1,67,6.5,12000,57.412,,,90,11.1,12.9,,,,,,,,,og-post,,,,AAXX 18184 07020 32562 50931 10124 20065 30109 40126 53010 85100 333 10129 20111 92447=
07020,1999-10-18 19:00:00,12.4,1012.4,0.7,66,6.2,,57.412,,,90,,,,,,,,,,,og-post,,,,AAXX 18194 07020 36/// /0931 10124 20062 30107 40124 50007=
07020,1999-10-18 20:00:00,12.2,1012.2,0.2,60,4.7,,61.116,,,100,,,,,,,,,,,og-post,,,,AAXX 18204 07020 36/// /1033 10122 20047 30105 40122 50002=
07020,1999-10-18 21:00:00,12.1,1012.2,-0.4,60,4.6,,57.412,,,100,,,,,,,,,,,og-post,,,,AAXX 18214 07020 36/// /1031 10121 20046 30105 40122 56004=
07020,1999-10-18 22:00:00,11.8,1012.3,-0.1,56,3.3,,50.004,79.636,,110,,,,,,,,,,,og-post,,,,AAXX 18224 07020 36/// /1127 10118 20033 30106 40123 55001 333 91143=
07020,1999-10-18 23:00:00,11.3,1012.4,0.2,57,3.1,,42.596,72.228,,110,,,,,,,,,,,og-post,,,,AAXX 18234 07020 36/// /1123 10113 20031 30107 40124 53002 333 91139=
07020,1999-10-19 00:00:00,10.6,1012.4,0.2,57,2.4,,35.188,,,120,,,,,,,,,,,og-post,,,,AAXX 19004 07020 36/// /1219 10106 20024 30107 40124 51002=
07020,1999-10-19 02:00:00,10.7,1011.8,-0.6,60,3.3,,38.892,,,100,,,,,,,,,,,og-post,,,,AAXX 19024 07020 36/// /1021 10107 20033 30101 40118 58006=
07020,1999-10-19 04:00:00,10.1,1011,-1.3,67,4.3,,29.632,,,110,,,,,,,,,,,og-post,,,,AAXX 19044 07020 36/// /1116 10101 20043 30093 40110 56013=
07020,1999-10-19 05:00:00,10.7,1010.5,-1.3,64,4.2,,38.892,,,90,,,,,,,,,,,og-post,,,,AAXX 19054 07020 36/// /0921 10107 20042 30088 40105 58013=
07020,1999-10-19 06:00:00,10.7,1009.8,-1.6,64,4.2,15000,46.3,,,90,8.9,12.5,,,,,,,,,og-post,,,,AAXX 19064 07020 32565 70925 10107 20042 30081 40098 58016 87500 333 10125 20089 92447=
07020,1999-10-19 07:00:00,10.4,1009.3,-1.7,63,3.7,,50.004,,,90,,,,,,,,,,,og-post,,,,AAXX 19074 07020 36/// /0927 10104 20037 30076 40093 57017=
07020,1999-10-19 08:00:00,10.3,1009.4,-1.1,64,3.8,,50.004,,,100,,,,,,,,,,,og-post,,,,AAXX 19084 07020 36/// /1027 10103 20038 30077 40094 55011=
07020,1999-10-19 09:00:00,10.6,1008.8,-1,65,4.3,10000,50.004,,,90,,,,,,,,,,,og-post,,,,AAXX 19094 07020 32660 70927 10106 20043 30071 40088 58010 87500 333 92447=
07020,1999-10-19 10:00:00,10.6,1008.6,-0.7,68,4.9,,50.004,,68.524,90,,,,,,,,,,,og-post,,,,AAXX 19104 07020 36/// /0927 10106 20049 30069 40086 58007 333 91037=
07020,1999-10-19 11:00:00,10.4,1008.5,-0.9,64,3.9,,46.3,,,100,,,,,,,,,,,og-post,,,,AAXX 19114 07020 36/// /1025 10104 20039 30068 40085 56009=
07020,1999-10-19 12:00:00,10.9,1007.8,-1,63,4.1,10000,46.3,,,100,,,,,,,,,,,og-post,,,,AAXX 19124 07020 32660 71025 10109 20041 30061 40078 58010 87500 333 92447=
07020,1999-10-19 13:00:00,11,1007.4,-1.2,69,5.5,,46.3,,,100,,,,,,,,,,,og-post,,,,AAXX 19134 07020 36/// /1025 10110 20055 30057 40074 58012=
07020,1999-10-19 14:00:00,11.3,1006.8,-1.7,67,5.4,,42.596,,,90,,,,,,,,,,,og-post,,,,AAXX 19144 07020 36/// /0923 10113 20054 30051 40068 56017=
07020,1999-10-19 15:00:00,11.5,1006.6,-1.2,66,5.4,8000,42.596,,,100,,,,,,,,,,,og-post,,,,AAXX 19154 07020 32658 61023 10115 20054 30049 40066 56012 86800 333 92446=
07020,1999-10-19 16:00:00,11.4,1006.4,-1,66,5.3,,38.892,,,100,,,,,,,,,,,og-post,,,,AAXX 19164 07020 36/// /1021 10114 20053 30047 40064 56010=
07020,1999-10-19 17:00:00,11.1,1006.1,-0.7,73,6.4,,38.892,,,110,,,,,,,,,,,og-post,,,,AAXX 19174 07020 36/// /1121 10111 20064 30044 40061 58007=
07020,1999-10-19 18:00:00,11.1,1005.9,-0.7,74,6.6,8000,38.892,,,100,10.1,11.9,,,,,,,,,og-post,,,,AAXX 19184 07020 33658 71021 10111 20066 30042 40059 57007 87500 333 10119 20101 92446=
07020,1999-10-19 19:00:00,11,1005.7,-0.7,72,6.2,,38.892,,,110,,,,,,,,,,,og-post,,,,AAXX 19194 07020 36/// /1121 10110 20062 30040 40057 56007=
07020,1999-10-19 20:00:00,10.7,1005.5,-0.6,70,5.5,,38.892,,,110,,,,,,,,,,,og-post,,,,AAXX 19204 07020 36/// /1121 10107 20055 30038 40055 57006=
07020,1999-10-19 21:00:00,10.5,1005.6,-0.3,73,5.9,,38.892,,,120,,,,,,,,,,,og-post,,,,AAXX 19214 07020 36/// /1221 10105 20059 30039 40056 55003=
07020,1999-10-19 22:00:00,9.6,1005.3,-0.4,77,5.8,,35.188,,,130,,,,,,,,,,,og-post,,,,AAXX 19224 07020 36/// /1319 10096 20058 30036 40053 58004=
07020,1999-10-19 23:00:00,9.5,1004.7,-0.8,82,6.6,,38.892,,,120,,,,,,,,,,,og-post,,,,AAXX 19234 07020 36/// /1221 10095 20066 30030 40047 58008=
07020,1999-10-20 00:00:00,9.6,1004.2,-1.4,81,6.5,,38.892,,,110,,,,,,,,,,,og-post,,,,AAXX 20004 07020 36/// /1121 10096 20065 30025 40042 58014=
07020,1999-10-20 01:00:00,9.2,1004,-1.3,82,6.3,,29.632,,,120,,,,,,,,,,,og-post,,,,AAXX 20014 07020 36/// /1216 10092 20063 30023 40040 56013=
07020,1999-10-20 02:00:00,9.1,1003.4,-1.3,86,6.9,,31.484,,,120,,,,,,,,,,,og-post,,,,AAXX 20024 07020 36/// /1217 10091 20069 30017 40034 58013=
07020,1999-10-20 03:00:00,8.8,1003.1,-1.1,88,6.9,,25.928,,,130,,,,,,,,,,,og-post,,,,AAXX 20034 07020 36/// /1314 10088 20069 30014 40031 58011=
07020,1999-10-20 04:00:00,7.9,1002.8,-1.2,88,6,,25.928,,,120,,,,,,,,,,,og-post,,,,AAXX 20044 07020 36/// /1214 10079 20060 30011 40028 56012=
07020,1999-10-20 05:00:00,8,1002.4,-1,88,6.1,,31.484,,,130,,,,,,,,,,,og-post,,,,AAXX 20054 07020 36/// /1317 10080 20061 30007 40024 58010=
07020,1999-10-20 06:00:00,8.3,1002,-1.1,86,6.1,8000,31.484,,,130,7.8,11,,,,,,,,,og-post,,,,AAXX 20064 07020 32658 81317 10083 20061 30003 40020 58011 88020 333 10110 20078 92446=
07020,1999-10-20 07:00:00,9.1,1001.5,-1.3,90,7.5,,29.632,,,120,,,,,,,,,,,og-post,,,,AAXX 20074 07020 36/// /1216 10091 20075 39998 40015 58013=
07020,1999-10-20 08:00:00,10.3,1001.6,-0.8,87,8.2,,35.188,,,120,,,,,,,,,,,og-post,,,,AAXX 20084 07020 36/// /1219 10103 20082 39999 40016 55008=
07020,1999-10-20 09:00:00,10.9,1000.9,-1.1,87,8.8,8000,35.188,,,120,,,,,,,,,,,og-post,,,,AAXX 20094 07020 32558 81219 10109 20088 39992 40009 58011 884// 333 92436=
07020,1999-10-20 10:00:00,11.2,1000.7,-0.8,86,8.9,,42.596,,,110,,,,,,,,,,,og-post,,,,AAXX 20104 07020 36/// /1123 10112 20089 39990 40007 58008=
07020,1999-10-20 11:00:00,12.1,1000.2,-1.4,82,9.1,,38.892,,,120,,,,,,,,,,,og-post,,,,AAXX 20114 07020 36/// /1221 10121 20091 39985 40002 56014=
07020,1999-10-20 12:00:00,12.1,999.9,-1,83,9.3,8000,38.892,,,110,,,,,,,,,,,og-post,,,,AAXX 20124 07020 32558 81121 10121 20093 39982 49999 58010 884// 333 92436=
07020,1999-10-20 13:00:00,12.2,999.1,-1.6,85,9.8,,38.892,,,110,,,,,,,,,,,og-post,,,,AAXX 20134 07020 36/// /1121 10122 20098 39974 49991 58016=
07020,1999-10-20 14:00:00,12.6,998.5,-1.7,82,9.6,,46.3,,,110,,,,,,,,,,,og-post,,,,AAXX 20144 07020 36/// /1125 10126 20096 39968 49985 58017=
07020,1999-10-20 15:00:00,13,997.9,-2,85,10.5,5000,50.004,,,100,,,,,,,,,,,og-post,,,,AAXX 20154 07020 32550 81027 10130 20105 39962 49979 56020 884// 333 92446=
07020,1999-10-20 16:00:00,13.4,997.6,-1.5,85,10.9,,53.708,,,100,,,,,,,,,,,og-post,,,,AAXX 20164 07020 36/// /1029 10134 20109 39959 49976 56015=
07020,1999-10-20 17:00:00,13.3,997.9,-0.6,85,10.8,,42.596,,,110,,,,,,,,,,,og-post,,,,AAXX 20174 07020 36/// /1123 10133 20108 39962 49979 55006=
07020,1999-10-20 18:00:00,13.5,997.7,-0.2,84,10.9,,46.3,,,100,8.2,13.6,,,,,,,,,og-post,,,,AAXX 20184 07020 36/// /1025 10135 20109 39960 49977 56002 333 10136 20082=
07020,1999-10-20 19:00:00,13.4,997.7,0.1,86,11.1,,50.004,,,100,,,,,,,,,,,og-post,,,,AAXX 20194 07020 36/// /1027 10134 20111 39960 49977 51001=
07020,1999-10-20 20:00:00,13.2,997.4,-0.5,87,11.1,,46.3,,,100,,,,,,,,,,,og-post,,,,AAXX 20204 07020 36/// /1025 10132 20111 39957 49974 58005=
07020,1999-10-20 21:00:00,12.9,997.1,-0.6,90,11.3,,46.3,,,100,,,,,,,,,,,og-post,,,,AAXX 20214 07020 36/// /1025 10129 20113 39954 49971 58006=
07020,1999-10-20 22:00:00,12.7,996.5,-1.2,89,10.9,,38.892,,,100,,,0.2,,,,,,,,og-post,,,,AAXX 20224 07020 26/// /1021 10127 20109 39948 49965 58012 333 69925=
07020,1999-10-20 23:00:00,12.8,996,-1.4,88,10.9,,35.188,,,110,,,,,,,,,,,og-post,,,,AAXX 20234 07020 36/// /1119 10128 20109 39943 49960 58014=
07020,1999-10-21 00:00:00,12.6,995.5,-1.6,89,10.8,,31.484,,,110,,,,0.2,0.2,,,,,,og-post,,,,AAXX 21004 07020 /6/// /1117 10126 20108 39938 49955 56016 69921 333 69927=
07020,1999-10-21 01:00:00,12.7,994.9,-1.6,91,11.3,,31.484,,,110,,,0.2,,,,,,,,og-post,,,,AAXX 21014 07020 26/// /1117 10127 20113 39932 49949 58016 333 69925=
07020,1999-10-21 02:00:00,12.7,994.8,-1.2,91,11.3,,25.928,,,110,,,,,,,,,,,og-post,,,,AAXX 21024 07020 36/// /1114 10127 20113 39931 49948 56012=
07020,1999-10-21 03:00:00,12.9,994.3,-1.2,91,11.5,,22.224,,,110,,,,0.2,,,,,,,og-post,,,,AAXX 21034 07020 26/// /1112 10129 20115 39926 49943 56012 333 69927=
07020,1999-10-21 04:00:00,12.9,994.1,-0.8,90,11.3,,18.52,,,120,,,,,,,,,,,og-post,,,,AAXX 21044 07020 36/// /1210 10129 20113 39924 49941 58008=
07020,1999-10-21 05:00:00,12.6,993.7,-1.1,91,11.2,,14.816,,,130,,,,,,,,,,,og-post,,,,AAXX 21054 07020 36/// /1308 10126 20112 39920 49937 56011=
07020,1999-10-21 06:00:00,12.3,993.4,-0.9,92,11,8000,14.816,,,140,12.3,13.5,,,,0.4,,,,,og-post,,,,AAXX 21064 07020 12558 81408 10123 20110 39917 49934 58009 69942 884// 333 10135 20123 92436=
07020,1999-10-21 08:00:00,12.5,993.6,-0.1,93,11.4,,18.52,,,190,,,,,,,,,,,og-post,,,,AAXX 21084 07020 36/// /1910 10125 20114 39919 49936 55001=
07020,1999-10-21 09:00:00,12.9,993.5,0.2,93,11.8,5000,14.816,,,190,,,,,,,,,,,og-post,,,,AAXX 21094 07020 32450 81908 10129 20118 39919 49935 52002 886// 333 92436=
07020,1999-10-21 10:00:00,14.5,993.5,0.2,90,12.9,,18.52,,,200,,,,,,,,,,,og-post,,,,AAXX 21104 07020 36/// /2010 10145 20129 39919 49935 51002=
07020,1999-10-21 11:00:00,15.2,993,-0.5,84,12.5,,22.224,,,180,,,,,,,,,,,og-post,,,,AAXX 21114 07020 36/// /1812 10152 20125 39914 49930 58005=
07020,1999-10-21 12:00:00,14.8,992.7,-0.8,86,12.5,10000,31.484,,,210,,,,,,,,,,,og-post,,,,AAXX 21124 07020 32560 82117 10148 20125 39911 49927 58008 886// 333 92437=
07020,1999-10-21 14:00:00,14.5,992.5,-0.5,82,11.5,,31.484,,,200,,,,,,,,,,,og-post,,,,AAXX 21144 07020 36/// /2017 10145 20115 39909 49925 56005=
07020,1999-10-21 15:00:00,14.6,992.1,-0.6,85,12.1,10000,29.632,,,190,,,,,,,,,,,og-post,,,,AAXX 21154 07020 32560 81916 10146 20121 39905 49921 58006 886// 333 92437=
07020,1999-10-21 16:00:00,13.8,992,-0.7,92,12.5,,29.632,,,180,,,1,,,,,,,,og-post,,,,AAXX 21164 07020 26/// /1816 10138 20125 39904 49920 56007 333 60015=
07020,1999-10-21 17:00:00,13.5,991.6,-0.9,92,12.2,,31.484,57.412,,170,,,1,,,,,,,,og-post,,,,AAXX 21174 07020 26/// /1717 10135 20122 39900 49916 57009 333 60015 91131=
07020,1999-10-21 18:00:00,14,991.5,-0.6,92,12.7,4000,42.596,61.116,,170,12.1,15.5,,4,,4,,,,61,og-post,,,,AAXX 21184 07020 /1440 81723 10140 20127 39899 49915 57006 60042 76162 886// 333 10155 20121 60047 91133 92436=
07020,1999-10-21 19:00:00,14.9,991.8,-0.2,87,12.8,,46.3,68.524,68.524,190,,,0.4,,,,,,,,og-post,,,,AAXX 21194 07020 26/// /1925 10149 20128 39902 49918 55002 333 69945 91037 91137=
07020,1999-10-21 20:00:00,15.2,992.5,0.9,88,13.2,,42.596,72.228,,210,,,,,,,,,,,og-post,,,,AAXX 21204 07020 26/// /2123 10152 20132 39909 49925 53009 333 69905 91139=
07020,1999-10-21 21:00:00,15,993.1,1.6,88,13,,31.484,72.228,,210,,,,0.4,,,,,,,og-post,,,,AAXX 21214 07020 26/// /2117 10150 20130 39915 49931 53016 333 69947 91139=
07020,1999-10-21 22:00:00,14.8,993.3,1.5,89,13,,35.188,,,200,,,,,,,,,,,og-post,,,,AAXX 21224 07020 26/// /2019 10148 20130 39917 49933 51015 333 69905=
07020,1999-10-21 23:00:00,14.9,993.3,0.8,88,12.9,,42.596,,,200,,,,,,,,,,,og-post,,,,AAXX 21234 07020 26/// /2023 10149 20129 39917 49933 51008 333 69905=
07020,1999-10-22 00:00:00,14.8,993.2,0.1,90,13.2,,42.596,72.228,61.116,200,,,,,0.4,,,,,,og-post,,,,AAXX 22004 07020 /6/// /2023 10148 20132 39916 49932 50001 69941 333 69907 91033 91139=
07020,1999-10-22 01:00:00,14.8,993.5,0.2,90,13.2,,38.892,,,200,,,,,,,,,,,og-post,,,,AAXX 22014 07020 26/// /2021 10148 20132 39919 49935 53002 333 69905=
07020,1999-10-22 02:00:00,14.9,993.3,0,90,13.3,,38.892,,,200,,,,,,,,,,,og-post,,,,AAXX 22024 07020 26/// /2021 10149 20133 39917 49933 50000 333 69905=
07020,1999-10-22 03:00:00,14.6,993,-0.2,91,13.1,,35.188,,,200,,,,,,,,,,,og-post,,,,AAXX 22034 07020 26/// /2019 10146 20131 39914 49930 58002 333 69907=
07020,1999-10-22 04:00:00,14.7,993,-0.5,90,13.1,,38.892,,,190,,,,,,,,,,,og-post,,,,AAXX 22044 07020 26/// /1921 10147 20131 39914 49930 56005 333 69905=
07020,1999-10-22 05:00:00,14.6,992.8,-0.5,88,12.6,,35.188,,,190,,,,,,,,,,,og-post,,,,AAXX 22054 07020 26/// /1919 10146 20126 39912 49928 56005 333 69905=
07020,1999-10-22 06:00:00,14.3,992.8,-0.2,91,12.9,10000,31.484,,,180,13.9,15.4,,,,0.4,,,,,og-post,,,,AAXX 22064 07020 /3660 51817 10143 20129 39912 49928 57002 69942 85020 333 10154 20139 69907 92437=
07020,1999-10-22 07:00:00,13.9,993.3,0.3,90,12.3,,35.188,53.708,,180,,,,,,,,,,,og-post,,,,AAXX 22074 07020 36/// /1819 10139 20123 39917 49933 53003 333 91129=
07020,1999-10-22 08:00:00,14,992.8,0,90,12.4,,31.484,,,180,,,,,,,,,,,og-post,,,,AAXX 22084 07020 36/// /1817 10140 20124 39912 49928 50000=
07020,1999-10-22 09:00:00,14.1,992.9,0.1,85,11.6,10000,25.928,53.708,,170,,,,,,,,,,,og-post,,,,AAXX 22094 07020 32660 81714 10141 20116 39913 49929 51001 88500 333 91129 92437=
07020,1999-10-22 10:00:00,14,992.7,-0.6,87,11.9,,31.484,,,180,,,,,,,,,,,og-post,,,,AAXX 22104 07020 36/// /1817 10140 20119 39911 49927 56006=
07020,1999-10-22 11:00:00,13.5,992.6,-0.2,92,12.2,,31.484,,,190,,,1,,,,,,,,og-post,,,,AAXX 22114 07020 26/// /1917 10135 20122 39910 49926 58002 333 60015=
07020,1999-10-22 12:00:00,13.5,992.6,-0.3,94,12.6,6000,25.928,53.708,,210,,,,4,4,,,,,62,og-post,,,,AAXX 22124 07020 /1656 82114 10135 20126 39910 49926 56003 60041 76222 88500 333 60047 91129 92436=
07020,1999-10-22 13:00:00,13.2,991.5,-1.2,91,11.8,,18.52,,,170,,,2,,,,,,,,og-post,,,,AAXX 22134 07020 26/// /1710 10132 20118 39899 49915 58012 333 60025=
07020,1999-10-22 14:00:00,13.3,991.1,-1.5,93,12.2,,22.224,,,190,,,0.2,,,,,,,,og-post,,,,AAXX 22144 07020 26/// /1912 10133 20122 39895 49911 58015 333 69925=
07020,1999-10-22 15:00:00,14.1,991.1,-1.5,88,12.1,15000,29.632,,,190,,,,2,,,,,,,og-post,,,,AAXX 22154 07020 22665 71916 10141 20121 39895 49911 56015 87550 333 60027 92447=
07020,1999-10-22 16:00:00,14.1,990.8,-0.7,87,12,,38.892,,,180,,,,,,,,,,,og-post,,,,AAXX 22164 07020 36/// /1821 10141 20120 39892 49908 56007=
07020,1999-10-22 17:00:00,13.9,990.9,-0.2,89,12.1,,35.188,,,190,,,,,,,,,,,og-post,,,,AAXX 22174 07020 36/// /1919 10139 20121 39893 49909 55002=
07020,1999-10-22 18:00:00,13.9,991,-0.1,90,12.3,12000,35.188,,,190,12.9,14.5,,,,6,,,,3,og-post,,,,AAXX 22184 07020 11662 71919 10139 20123 39894 49910 55001 60062 70362 87950 333 10145 20129 92447=
07020,1999-10-22 19:00:00,14.2,991.1,0.3,87,12.1,,35.188,53.708,,200,,,,,,,,,,,og-post,,,,AAXX 22194 07020 36/// /2019 10142 20121 39895 49911 52003 333 91129=
07020,1999-10-22 20:00:00,13.9,990.8,-0.1,86,11.6,,38.892,64.82,,200,,,,,,,,,,,og-post,,,,AAXX 22204 07020 36/// /2021 10139 20116 39892 49908 58001 333 91135=
07020,1999-10-22 21:00:00,13.8,990.9,-0.1,85,11.3,,42.596,64.82,,200,,,,,,,,,,,og-post,,,,AAXX 22214 07020 36/// /2023 10138 20113 39893 49909 57001 333 91135=
07020,1999-10-22 22:00:00,14,991.1,-0,85,11.5,,38.892,64.82,64.82,200,,,,,,,,,,,og-post,,,,AAXX 22224 07020 36/// /2021 10140 20115 39895 49911 55000 333 91035 91135=
07020,1999-10-22 23:00:00,13.7,990.6,-0.2,88,11.7,,38.892,61.116,,190,,,,,,,,,,,og-post,,,,AAXX 22234 07020 36/// /1921 10137 20117 39890 49906 58002 333 91133=
07020,1999-10-23 00:00:00,13.6,990.2,-0.7,85,11.1,,42.596,64.82,,190,,,,,,,,,,,og-post,,,,AAXX 23004 07020 36/// /1923 10136 20111 39886 49902 58007 333 91135=
07020,1999-10-23 01:00:00,13.7,989.9,-1.2,86,11.4,,38.892,,,190,,,,,,,,,,,og-post,,,,AAXX 23014 07020 36/// /1921 10137 20114 39883 49899 56012=
07020,1999-10-23 02:00:00,13.9,989.3,-1.3,85,11.4,,38.892,61.116,,190,,,,,,,,,,,og-post,,,,AAXX 23024 07020 36/// /1921 10139 20114 39877 49893 58013 333 91133=
07020,1999-10-23 03:00:00,13.9,988.6,-1.6,84,11.2,,38.892,61.116,,190,,,,,,,,,,,og-post,,,,AAXX 23034 07020 36/// /1921 10139 20112 39870 49886 58016 333 91133=
07020,1999-10-23 04:00:00,13.6,988.3,-1.6,84,10.9,,42.596,,,190,,,,,,,,,,,og-post,,,,AAXX 23044 07020 36/// /1923 10136 20109 39867 49883 56016=
07020,1999-10-23 05:00:00,13.6,988.4,-0.9,90,12,,42.596,,,200,,,0.2,,,,,,,,og-post,,,,AAXX 23054 07020 26/// /2023 10136 20120 39868 49884 55009 333 69925=
07020,1999-10-23 06:00:00,13.8,988.6,-0,90,12.2,10000,46.3,,68.524,200,13.2,14.2,,0.8,,0.8,,,,,og-post,,,,AAXX 23064 07020 /2660 72025 10138 20122 39870 49886 55000 69982 878// 333 10142 20132 69987 91037 92457=
07020,1999-10-23 09:00:00,15,989.7,1.1,86,12.7,10000,42.596,,,210,,,,0.2,,,,,,,og-post,,,,AAXX 23094 07020 22660 32123 10150 20127 39881 49897 53011 83800 333 69927 92457=
07020,1999-10-23 10:00:00,15,990.2,1.5,86,12.7,,38.892,,,210,,,,,,,,,,,og-post,,,,AAXX 23104 07020 36/// /2121 10150 20127 39886 49902 51015=
07020,1999-10-23 11:00:00,15.6,990.6,1.2,83,12.7,,42.596,,,210,,,,,,,,,,,og-post,,,,AAXX 23114 07020 36/// /2123 10156 20127 39890 49906 53012=
07020,1999-10-23 12:00:00,16.1,990.5,0.8,80,12.6,8000,46.3,,,210,,,,,0.2,,,,,,og-post,,,,AAXX 23124 07020 12658 62125 10161 20126 39889 49905 50008 69921 85261 333 92456=
07020,1999-10-23 14:00:00,14.1,990.9,0.3,85,11.6,,42.596,79.636,,230,,,1,,,,,,,,og-post,,,,AAXX 23144 07020 26/// /2323 10141 20116 39893 49909 53003 333 60015 91143=
07020,1999-10-23 15:00:00,15.1,990.4,-0.1,82,12.1,5000,35.188,79.636,,210,,,,1,,,,,,25,og-post,,,,AAXX 23154 07020 21650 72119 10151 20121 39888 49904 58001 72582 8726/ 333 60017 91143 92446=
07020,1999-10-23 16:00:00,15,990.2,-0.2,82,12,,35.188,,,210,,,0.2,,,,,,,,og-post,,,,AAXX 23164 07020 26/// /2119 10150 20120 39886 49902 58002 333 69925=
07020,1999-10-23 17:00:00,13.9,990.4,-0.5,80,10.5,,38.892,,,200,,,,,,,,,,,og-post,,,,AAXX 23174 07020 36/// /2021 10139 20105 39888 49904 55005=
07020,1999-10-23 18:00:00,14.2,990.2,-0.2,84,11.5,,35.188,79.636,,200,12.1,16.4,,0.2,,2,,,,,og-post,,,,AAXX 23184 07020 /6/// /2019 10142 20115 39886 49902 57002 60022 333 10164 20121 69927 91143=
07020,1999-10-23 19:00:00,14.4,989.5,-0.7,82,11.4,,42.596,61.116,,200,,,,,,,,,,,og-post,,,,AAXX 23194 07020 36/// /2023 10144 20114 39879 49895 58007 333 91133=
07020,1999-10-23 20:00:00,14.2,989.3,-1.1,83,11.4,,42.596,,,200,,,,,,,,,,,og-post,,,,AAXX 23204 07020 36/// /2023 10142 20114 39877 49893 57011=
07020,1999-10-23 21:00:00,14.4,988.9,-1.3,85,11.9,,46.3,90.748,,200,,,,,,,,,,,og-post,,,,AAXX 23214 07020 36/// /2025 10144 20119 39873 49889 56013 333 91149=
07020,1999-10-23 22:00:00,13.5,988.8,-0.7,89,11.7,,46.3,75.932,,190,,,0.2,,,,,,,,og-post,,,,AAXX 23224 07020 26/// /1925 10135 20117 39872 49888 56007 333 69925 91141=
07020,1999-10-23 23:00:00,13.1,987.7,-1.6,91,11.7,,22.224,,,180,,,0.4,,,,,,,,og-post,,,,AAXX 23234 07020 26/// /1812 10131 20117 39861 49877 58016 333 69945=
07020,1999-10-24 00:00:00,12.6,985.7,-3.2,91,11.2,,22.224,90.748,,150,,,,1,1,,,,,,og-post,,,,AAXX 24004 07020 /6/// /1512 10126 20112 39841 49857 58032 60011 333 60017 91149=
07020,1999-10-24 01:00:00,12.6,982.5,-6.3,93,11.5,,31.484,,,120,,,0.6,,,,,,,,og-post,,,,AAXX 24014 07020 26/// /1217 10126 20115 39809 49825 58063 333 69965=
07020,1999-10-24 02:00:00,12.4,980.1,-7.6,94,11.5,,31.484,,,120,,,2,,,,,,,,og-post,,,,AAXX 24024 07020 26/// /1217 10124 20115 39785 49801 58076 333 60025=
07020,1999-10-24 08:00:00,12.8,978.9,6.6,88,10.9,,64.82,100.008,90.748,260,,,0.6,,,,,,,,og-post,,,,AAXX 24084 07020 26/// /2635 10128 20109 39773 49789 53066 333 69965 91049 91154=
07020,1999-10-24 09:00:00,13.4,980.4,7.8,79,9.8,1000,53.708,129.64,75.932,260,,,,0.6,,,,,,2,og-post,,,,AAXX 24094 07020 21610 72629 10134 20098 39788 49804 51078 70282 8726/ 333 69967 91041 91170 92454=
07020,1999-10-24 10:00:00,12.3,981.5,5.8,88,10.4,,50.004,,,250,,,0.6,,,,,,,,og-post,,,,AAXX 24104 07020 26/// /2527 10123 20104 39799 49815 51058 333 69965=
07020,1999-10-24 11:00:00,13.3,982,3.1,91,11.9,,42.596,68.524,68.524,250,,,3,,,,,,,,og-post,,,,AAXX 24114 07020 26/// /2523 10133 20119 39804 49820 51031 333 60035 91037 91137=
07020,1999-10-24 12:00:00,13.8,982.7,2.3,80,10.4,10000,57.412,129.64,,250,,,,3,4,,,,,2,og-post,,,,AAXX 24124 07020 /1660 72531 10138 20104 39811 49827 51023 60041 70262 8726/ 333 60037 91170 92457=
07020,1999-10-24 13:00:00,14.4,983,1.5,82,11.4,,50.004,,,240,,,0.4,,,,,,,,og-post,,,,AAXX 24134 07020 26/// /2427 10144 20114 39814 49830 51015 333 69945=
07020,1999-10-24 14:00:00,14.8,983.1,1.1,73,10,,53.708,,,240,,,,,,,,,,,og-post,,,,AAXX 24144 07020 36/// /2429 10148 20100 39815 49831 51011=
07020,1999-10-24 15:00:00,14.9,983.6,0.9,72,9.9,10000,46.3,,,230,,,,0.4,,,,,,,og-post,,,,AAXX 24154 07020 22660 62325 10149 20099 39820 49836 53009 86260 333 69947 92457=
07020,1999-10-24 16:00:00,13.3,983.7,0.7,76,9.2,,46.3,,,220,,,0.4,,,,,,,,og-post,,,,AAXX 24164 07020 26/// /2225 10133 20092 39821 49837 52007 333 69945=
07020,1999-10-24 17:00:00,13.5,984.2,1.1,78,9.7,,46.3,,,220,,,,,,,,,,,og-post,,,,AAXX 24174 07020 36/// /2225 10135 20097 39826 49842 52011=
07020,1999-10-24 18:00:00,12.3,984.7,1.1,82,9.3,10000,42.596,,,210,11.7,15.1,,0.4,,5,,,,2,og-post,,,,AAXX 24184 07020 /1660 82123 10123 20093 39831 49847 53011 60052 70282 88500 333 10151 20117 69947 92457=
07020,1999-10-24 19:00:00,12,985.1,1.4,91,10.6,,35.188,90.748,90.748,220,,,1,,,,,,,,og-post,,,,AAXX 24194 07020 26/// /2219 10120 20106 39835 49851 51014 333 60015 91049 91149=
07020,1999-10-24 20:00:00,11.4,985.3,1.1,92,10.1,,25.928,,,210,,,4,,,,,,,,og-post,,,,AAXX 24204 07020 26/// /2114 10114 20101 39837 49853 51011 333 60045=
07020,1999-10-24 21:00:00,12,985.5,0.8,88,10.1,,22.224,90.748,,260,,,,5,,,,,,,og-post,,,,AAXX 24214 07020 26/// /2612 10120 20101 39839 49855 51008 333 60057 91149=
07020,1999-10-24 22:00:00,12.3,985.9,0.8,82,9.3,,22.224,,,260,,,,,,,,,,,og-post,,,,AAXX 24224 07020 36/// /2612 10123 20093 39843 49859 53008=
07020,1999-10-24 23:00:00,12.3,986.4,1.1,82,9.3,,25.928,,,250,,,,,,,,,,,og-post,,,,AAXX 24234 07020 36/// /2514 10123 20093 39848 49864 53011=
07020,1999-10-25 00:00:00,12.1,986.9,1.4,83,9.3,,18.52,90.748,,250,,,,,5,,,,,,og-post,,,,AAXX 25004 07020 16/// /2510 10121 20093 39853 49869 53014 60051 333 91149=
07020,1999-10-25 01:00:00,12.5,987.3,1.4,80,9.1,,25.928,,,250,,,,,,,,,,,og-post,,,,AAXX 25014 07020 36/// /2514 10125 20091 39857 49873 51014=
07020,1999-10-25 02:00:00,12.4,987.8,1.4,80,9,,22.224,,,230,,,,,,,,,,,og-post,,,,AAXX 25024 07020 36/// /2312 10124 20090 39862 49878 52014=
07020,1999-10-25 03:00:00,12.2,988.1,1.2,80,8.9,,18.52,,,230,,,,,,,,,,,og-post,,,,AAXX 25034 07020 36/// /2310 10122 20089 39865 49881 51012=
07020,1999-10-25 04:00:00,11.7,988.5,1.2,79,8.2,,14.816,,,240,,,,,,,,,,,og-post,,,,AAXX 25044 07020 36/// /2408 10117 20082 39869 49885 51012=
07020,1999-10-25 05:00:00,11.2,989.2,1.3,80,7.9,,7.408,,,250,,,,,,,,,,,og-post,,,,AAXX 25054 07020 36/// /2504 10112 20079 39875 49892 53013=
07020,1999-10-25 06:00:00,10.9,989.7,1.5,85,8.5,15000,7.408,,,220,10.5,12.7,,,,5,,,,,og-post,,,,AAXX 25064 07020 12665 22204 10109 20085 39880 49897 53015 60052 82800 333 10127 20105 92437=
07020,1999-10-25 07:00:00,10.5,990.6,2,85,8.1,,7.408,,,210,,,,,,,,,,,og-post,,,,AAXX 25074 07020 36/// /2104 10105 20081 39889 49906 53020=
07020,1999-10-25 08:00:00,10.1,991.6,2.4,89,8.4,,7.408,,,180,,,,,,,,,,,og-post,,,,AAXX 25084 07020 36/// /1804 10101 20084 39899 49916 53024=
07020,1999-10-25 09:00:00,11.5,992.6,2.9,87,9.4,15000,7.408,,,180,,,,,,,,,,,og-post,,,,AAXX 25094 07020 32665 41804 10115 20094 39909 49926 53029 84850 333 92437=
07020,1999-10-25 10:00:00,13.4,993.6,3.1,86,11.1,,7.408,,,170,,,,,,,,,,,og-post,,,,AAXX 25104 07020 36/// /1704 10134 20111 39920 49936 53031=
07020,1999-10-25 11:00:00,15,994.4,2.9,76,10.8,,7.408,,,150,,,,,,,,,,,og-post,,,,AAXX 25114 07020 36/// /1504 10150 20108 39928 49944 51029=
07020,1999-10-25 12:00:00,15.5,994.8,2.3,75,11.1,15000,3.704,,,80,,,,,,,,,,,og-post,,,,AAXX 25124 07020 32665 50802 10155 20111 39932 49948 51023 83460 333 92437=
07020,1999-10-25 13:00:00,15.8,995.5,1.9,78,12,,11.112,,,210,,,,,,,,,,,og-post,,,,AAXX 25134 07020 36/// /2106 10158 20120 39939 49955 51019=
07020,1999-10-25 14:00:00,14.7,996,1.6,80,11.3,,11.112,,,100,,,,,,,,,,,og-post,,,,AAXX 25144 07020 36/// /1006 10147 20113 39944 49960 53016=
07020,1999-10-25 17:00:00,14.6,997.6,1.6,84,11.9,,25.928,,,80,,,,,,,,,,,og-post,,,,AAXX 25174 07020 36/// /0814 10146 20119 39960 49976 53016=
07020,1999-10-25 18:00:00,13.9,998.9,2.5,91,12.5,10000,22.224,,,100,9.7,16.6,,0.4,,0.4,,,,,og-post,,,,AAXX 25184 07020 /2560 71012 10139 20125 39972 49989 53025 69942 87700 333 10166 20097 69947 92437=
07020,1999-10-25 21:00:00,14.4,1001.7,2.8,88,12.4,,29.632,,,30,,,,5,,,,,,,og-post,,,,AAXX 25214 07020 26/// /0316 10144 20124 30000 40017 53028 333 60057=
07020,1999-10-25 23:00:00,14.6,1004.2,3.7,83,11.7,,29.632,,,350,,,,,,,,,,,og-post,,,,AAXX 25234 07020 36/// /3516 10146 20117 30025 40042 51037=
07020,1999-10-26 00:00:00,14.4,1005.4,3.7,83,11.6,,29.632,,,340,,,,0.6,6,,,,,,og-post,,,,AAXX 26004 07020 /6/// /3416 10144 20116 30037 40054 51037 60061 333 69967=
07020,1999-10-26 02:00:00,13.8,1007.6,3.4,86,11.5,,18.52,,,300,,,,,,,,,,,og-post,,,,AAXX 26024 07020 36/// /3010 10138 20115 30059 40076 51034=
07020,1999-10-26 03:00:00,13.9,1008.5,3.1,88,11.9,,25.928,,,300,,,,,,,,,,,og-post,,,,AAXX 26034 07020 36/// /3014 10139 20119 30068 40085 51031=
07020,1999-10-26 06:00:00,14.3,1011.6,3.1,86,12,15000,29.632,,,300,13.5,14.8,,,,6,,,,,og-post,,,,AAXX 26064 07020 12665 73016 10143 20120 30099 40116 53031 60062 878// 333 10148 20135 92437=
07020,1999-10-26 07:00:00,14.4,1012.8,3.4,85,11.9,,22.224,,,290,,,,,,,,,,,og-post,,,,AAXX 26074 07020 36/// /2912 10144 20119 30111 40128 53034=
07020,1999-10-26 08:00:00,14.6,1014.2,3.7,86,12.3,,18.52,,,290,,,,,,,,,,,og-post,,,,AAXX 26084 07020 36/// /2910 10146 20123 30125 40142 53037=
07020,1999-10-26 09:00:00,14.6,1015.3,3.7,82,11.6,15000,25.928,,,300,,,,,,,,,,,og-post,,,,AAXX 26094 07020 32665 73014 10146 20116 30136 40153 51037 878// 333 92437=
07020,1999-10-26 10:00:00,14.8,1016.3,3.5,80,11.4,,22.224,,,290,,,,,,,,,,,og-post,,,,AAXX 26104 07020 36/// /2912 10148 20114 30146 40163 51035=
07020,1999-10-26 11:00:00,15.2,1017,2.8,77,11.2,,18.52,,,290,,,,,,,,,,,og-post,,,,AAXX 26114 07020 36/// /2910 10152 20112 30153 40170 51028=
07020,1999-10-26 12:00:00,15.7,1017.6,2.3,78,11.9,15000,14.816,,,300,,,,,,,,,,,og-post,,,,AAXX 26124 07020 32665 33008 10157 20119 30159 40176 51023 83200 333 92437=
07020,1999-10-26 13:00:00,15.9,1018,1.7,75,11.5,,14.816,,,290,,,,,,,,,,,og-post,,,,AAXX 26134 07020 36/// /2908 10159 20115 30163 40180 51017=
07020,1999-10-26 14:00:00,15.6,1018.6,1.6,74,11,,18.52,,,290,,,,,,,,,,,og-post,,,,AAXX 26144 07020 36/// /2910 10156 20110 30169 40186 52016=
07020,1999-10-26 15:00:00,15.9,1019.2,1.6,73,11.1,15000,14.816,,,280,,,,,,,,,,,og-post,,,,AAXX 26154 07020 32665 32808 10159 20111 30175 40192 53016 83201 333 92437=
07020,1999-10-26 16:00:00,15.3,1019.8,1.8,75,10.9,,14.816,,,290,,,,,,,,,,,og-post,,,,AAXX 26164 07020 36/// /2908 10153 20109 30181 40198 52018=
07020,1999-10-26 17:00:00,14.1,1020.4,1.8,78,10.3,,11.112,,,280,,,,,,,,,,,og-post,,,,AAXX 26174 07020 36/// /2806 10141 20103 30187 40204 52018=
07020,1999-10-26 18:00:00,13.9,1021.2,2,79,10.3,,14.816,,,270,13.9,16.2,,,,,,,,,og-post,,,,AAXX 26184 07020 36/// /2708 10139 20103 30195 40212 53020 333 10162 20139=
07020,1999-10-26 19:00:00,13.8,1022,2.2,79,10.2,,14.816,,,270,,,,,,,,,,,og-post,,,,AAXX 26194 07020 36/// /2708 10138 20102 30203 40220 53022=
07020,1999-10-26 20:00:00,13.9,1022.6,2.2,76,9.7,,14.816,,,280,,,,,,,,,,,og-post,,,,AAXX 26204 07020 36/// /2808 10139 20097 30209 40226 51022=
07020,1999-10-26 21:00:00,13.9,1023.4,2.2,75,9.5,,18.52,,,280,,,,,,,,,,,og-post,,,,AAXX 26214 07020 36/// /2810 10139 20095 30217 40234 52022=
07020,1999-10-26 22:00:00,13.8,1023.6,1.6,78,10,,18.52,,,280,,,,,,,,,,,og-post,,,,AAXX 26224 07020 36/// /2810 10138 20100 30219 40236 51016=
07020,1999-10-26 23:00:00,13.7,1023.9,1.3,77,9.7,,18.52,,,280,,,,,,,,,,,og-post,,,,AAXX 26234 07020 36/// /2810 10137 20097 30222 40239 51013=
07020,1999-10-27 00:00:00,13.3,1024,0.6,78,9.5,,14.816,,,270,,,,,,,,,,,og-post,,,,AAXX 27004 07020 36/// /2708 10133 20095 30223 40240 51006=
07020,1999-10-27 01:00:00,13.5,1024.4,0.8,78,9.7,,14.816,,,270,,,,,,,,,,,og-post,,,,AAXX 27014 07020 36/// /2708 10135 20097 30227 40244 53008=
07020,1999-10-27 02:00:00,13.4,1024.9,1,80,10,,14.816,,,270,,,,,,,,,,,og-post,,,,AAXX 27024 07020 36/// /2708 10134 20100 30232 40249 53010=
07020,1999-10-27 03:00:00,12.9,1024.8,0.8,83,10.1,,18.52,,,260,,,,,,,,,,,og-post,,,,AAXX 27034 07020 36/// /2610 10129 20101 30231 40248 50008=
07020,1999-10-27 04:00:00,12.4,1025,0.6,82,9.4,,14.816,,,260,,,,,,,,,,,og-post,,,,AAXX 27044 07020 36/// /2608 10124 20094 30233 40250 51006=
07020,1999-10-27 05:00:00,12.7,1024.8,-0.1,84,10.1,,18.52,,,240,,,,,,,,,,,og-post,,,,AAXX 27054 07020 36/// /2410 10127 20101 30231 40248 58001=
07020,1999-10-27 06:00:00,12.8,1025,0.2,84,10.2,15000,18.52,,,240,12.4,14,,,,,,,,,og-post,,,,AAXX 27064 07020 32665 32410 10128 20102 30233 40250 52002 83101 333 10140 20124 92427=
07020,1999-10-27 07:00:00,12,1025.5,0.5,86,9.7,,11.112,,,190,,,,,,,,,,,og-post,,,,AAXX 27074 07020 36/// /1906 10120 20097 30238 40255 53005=
07020,1999-10-27 08:00:00,12.6,1025.9,1.1,90,11,,22.224,,,200,,,,,,,,,,,og-post,,,,AAXX 27084 07020 36/// /2012 10126 20110 30242 40259 53011=
07020,1999-10-27 09:00:00,13.4,1026.1,1.1,85,10.9,10000,22.224,,,200,,,,,,,,,,,og-post,,,,AAXX 27094 07020 32660 32012 10134 20109 30244 40261 51011 83200 333 92437=
07020,1999-10-27 10:00:00,14,1026.1,0.6,85,11.5,,18.52,,,200,,,,,,,,,,,og-post,,,,AAXX 27104 07020 36/// /2010 10140 20115 30244 40261 51006=
07020,1999-10-27 11:00:00,13.4,1026.1,0.2,86,11.1,,22.224,,,190,,,,,,,,,,,og-post,,,,AAXX 27114 07020 36/// /1912 10134 20111 30244 40261 51002=
07020,1999-10-27 12:00:00,12.8,1025.9,-0.2,89,11,10000,25.928,,,200,,,,,,,,,,,og-post,,,,AAXX 27124 07020 32860 82014 10128 20110 30242 40259 58002 88500 333 92437=
07020,1999-10-27 13:00:00,13.4,1025.4,-0.7,86,11.1,,22.224,,,220,,,,,,,,,,,og-post,,,,AAXX 27134 07020 36/// /2212 10134 20111 30237 40254 58007=
07020,1999-10-27 14:00:00,14.5,1024.6,-1.5,81,11.3,,22.224,,,200,,,,,,,,,,,og-post,,,,AAXX 27144 07020 36/// /2012 10145 20113 30229 40246 58015=
07020,1999-10-27 15:00:00,14.8,1024.1,-1.8,78,11,10000,22.224,,,200,,,,,,,,,,,og-post,,,,AAXX 27154 07020 32860 12012 10148 20110 30224 40241 57018 81050 333 92437=
07020,1999-10-27 16:00:00,14.4,1023.8,-1.6,81,11.2,,14.816,,,200,,,,,,,,,,,og-post,,,,AAXX 27164 07020 36/// /2008 10144 20112 30221 40238 56016=
07020,1999-10-27 17:00:00,13,1023.3,-1.3,88,11.1,,18.52,,,200,,,,,,,,,,,og-post,,,,AAXX 27174 07020 36/// /2010 10130 20111 30216 40233 57013=
07020,1999-10-27 18:00:00,12.8,1023.5,-0.6,91,11.4,10000,14.816,,,210,11.7,15,,,,,,,,,og-post,,,,AAXX 27184 07020 32860 12108 10128 20114 30218 40235 55006 81040 333 10150 20117 92437=
07020,1999-10-27 19:00:00,13.3,1023.4,-0.4,91,11.9,,18.52,,,200,,,,,,,,,,,og-post,,,,AAXX 27194 07020 36/// /2010 10133 20119 30217 40234 56004=
07020,1999-10-27 20:00:00,13.8,1023.2,-0.1,90,12.2,,14.816,,,200,,,,,,,,,,,og-post,,,,AAXX 27204 07020 36/// /2008 10138 20122 30215 40232 58001=
07020,1999-10-27 21:00:00,13.4,1022.8,-0.7,87,11.3,,18.52,,,190,,,,,,,,,,,og-post,,,,AAXX 27214 07020 36/// /1910 10134 20113 30211 40228 58007=
07020,1999-10-27 22:00:00,13.6,1022.5,-0.9,87,11.5,,18.52,,,190,,,,,,,,,,,og-post,,,,AAXX 27224 07020 36/// /1910 10136 20115 30208 40225 58009=
07020,1999-10-27 23:00:00,14.3,1022.4,-0.8,86,12,,22.224,,,210,,,,,,,,,,,og-post,,,,AAXX 27234 07020 36/// /2112 10143 20120 30207 40224 56008=
07020,1999-10-28 00:00:00,14.4,1022.1,-0.7,86,12.1,,22.224,,,210,,,,,,,,,,,og-post,,,,AAXX 28004 07020 36/// /2112 10144 20121 30204 40221 57007=
07020,1999-10-28 01:00:00,14.2,1022.2,-0.3,88,12.2,,18.52,,,210,,,,,,,,,,,og-post,,,,AAXX 28014 07020 36/// /2110 10142 20122 30205 40222 55003=
07020,1999-10-28 02:00:00,14.3,1022.2,-0.2,89,12.5,,14.816,,,210,,,,,,,,,,,og-post,,,,AAXX 28024 07020 36/// /2108 10143 20125 30205 40222 56002=
07020,1999-10-28 03:00:00,14.1,1021.8,-0.3,91,12.7,,14.816,,,210,,,,1,,,,,,,og-post,,,,AAXX 28034 07020 26/// /2108 10141 20127 30201 40218 58003 333 60017=
07020,1999-10-28 04:00:00,13.8,1022,-0.2,93,12.7,,11.112,,,220,,,0.4,,,,,,,,og-post,,,,AAXX 28044 07020 26/// /2206 10138 20127 30203 40220 55002 333 69945=
07020,1999-10-28 05:00:00,13.8,1022.1,-0.1,92,12.5,,7.408,,,220,,,,,,,,,,,og-post,,,,AAXX 28054 07020 36/// /2204 10138 20125 30204 40221 55001=
07020,1999-10-28 06:00:00,12.1,1022.1,0.3,91,10.7,10000,14.816,,,210,12.1,14.5,,0.4,,1,,,,,og-post,,,,AAXX 28064 07020 /2860 32108 10121 20107 30204 40221 51003 60012 83080 333 10145 20121 69947 92437=
07020,1999-10-28 07:00:00,13.6,1021.8,-0.2,94,12.7,,14.816,,,180,,,,,,,,,,,og-post,,,,AAXX 28074 07020 36/// /1808 10136 20127 30201 40218 58002=
07020,1999-10-28 08:00:00,13.7,1022.4,0.3,91,12.3,,,,,,,,,,,,,,,,og-post,,,,AAXX 28084 07020 36/// /0000 10137 20123 30207 40224 53003=
07020,1999-10-28 09:00:00,15,1023.1,1,88,13,8000,3.704,,,170,,,,,,,,,,,og-post,,,,AAXX 28094 07020 32858 61702 10150 20130 30214 40231 53010 86050 333 92426=
07020,1999-10-28 10:00:00,15,1023.7,1.9,86,12.7,,7.408,,,200,,,,,,,,,,,og-post,,,,AAXX 28104 07020 36/// /2004 10150 20127 30220 40237 52019=
07020,1999-10-28 11:00:00,15.9,1023.8,1.4,89,14.1,,14.816,,,200,,,,,,,,,,,og-post,,,,AAXX 28114 07020 36/// /2008 10159 20141 30221 40238 51014=
07020,1999-10-28 12:00:00,16.4,1023.8,0.7,84,13.7,8000,18.52,,,210,,,,,,,,,,,og-post,,,,AAXX 28124 07020 32858 62110 10164 20137 30221 40238 51007 86050 333 92426=
07020,1999-10-28 13:00:00,16.3,1023.5,-0.2,87,14.1,,11.112,,,240,,,,,,,,,,,og-post,,,,AAXX 28134 07020 36/// /2406 10163 20141 30218 40235 58002=
07020,1999-10-28 14:00:00,16.7,1023.3,-0.5,85,14.2,,11.112,,,230,,,,,,,,,,,og-post,,,,AAXX 28144 07020 36/// /2306 10167 20142 30216 40233 58005=
07020,1999-10-28 15:00:00,16.1,1023.6,-0.2,89,14.3,5000,11.112,,,240,,,,,,,,,,,og-post,,,,AAXX 28154 07020 32850 82406 10161 20143 30219 40236 55002 88010 333 92426=
07020,1999-10-28 16:00:00,15.7,1023.8,0.3,91,14.2,,7.408,,,240,,,,,,,,,,,og-post,,,,AAXX 28164 07020 36/// /2404 10157 20142 30221 40238 53003=
07020,1999-10-28 17:00:00,14,1024,0.7,92,12.7,,7.408,,,220,,,,,,,,,,,og-post,,,,AAXX 28174 07020 36/// /2204 10140 20127 30223 40240 51007=
07020,1999-10-28 19:00:00,12.7,1025.2,1.4,95,11.9,,11.112,,,240,,,,,,,,,,,og-post,,,,AAXX 28194 07020 36/// /2406 10127 20119 30235 40252 53014=
07020,1999-10-28 20:00:00,13.4,1025.3,1.3,96,12.8,,3.704,,,260,,,,,,,,,,,og-post,,,,AAXX 28204 07020 36/// /2602 10134 20128 30236 40253 51013=
07020,1999-10-28 21:00:00,12.9,1025.6,0.8,96,12.3,,3.704,,,220,,,,,,,,,,,og-post,,,,AAXX 28214 07020 36/// /2202 10129 20123 30239 40256 51008=
07020,1999-10-28 22:00:00,13.2,1025.5,0.3,96,12.6,,3.704,,,190,,,,,,,,,,,og-post,,,,AAXX 28224 07020 36/// /1902 10132 20126 30238 40255 50003=
07020,1999-10-28 23:00:00,12.9,1025.6,0.3,96,12.3,,,,,,,,,,,,,,,,og-post,,,,AAXX 28234 07020 36/// /0000 10129 20123 30239 40256 51003=
07020,1999-10-29 00:00:00,13,1025.3,-0.3,97,12.5,,,,,,,,,0.2,0.2,,,,,,og-post,,,,AAXX 29004 07020 /6/// /0000 10130 20125 30236 40253 58003 69921 333 69927=
07020,1999-10-29 01:00:00,11.5,1024.8,-0.7,97,11,,7.408,,,130,,,,,,,,,,,og-post,,,,AAXX 29014 07020 36/// /1304 10115 20110 30231 40248 58007=
07020,1999-10-29 02:00:00,11.9,1025,-0.6,97,11.4,,11.112,,,200,,,,,,,,,,,og-post,,,,AAXX 29024 07020 36/// /2006 10119 20114 30233 40250 55006=
07020,1999-10-29 03:00:00,12.1,1024.8,-0.5,98,11.8,,7.408,,,200,,,,,,,,,,,og-post,,,,AAXX 29034 07020 36/// /2004 10121 20118 30231 40248 56005=
07020,1999-10-29 04:00:00,11.9,1024.6,-0.2,97,11.4,,3.704,,,150,,,,,,,,,,,og-post,,,,AAXX 29044 07020 36/// /1502 10119 20114 30229 40246 58002=
07020,1999-10-29 05:00:00,10.7,1024.4,-0.6,97,10.2,,3.704,,,160,,,,,,,,,,,og-post,,,,AAXX 29054 07020 36/// /1602 10107 20102 30227 40244 57006=
07020,1999-10-29 07:00:00,11.6,1024.1,-0.5,98,11.3,,14.816,,,120,,,0.2,,,,,,,,og-post,,,,AAXX 29074 07020 26/// /1208 10116 20113 30224 40241 56005 333 69925=
07020,1999-10-29 08:00:00,11.8,1024.4,-0,98,11.5,,14.816,,,130,,,,,,,,,,,og-post,,,,AAXX 29084 07020 36/// /1308 10118 20115 30227 40244 55000=
07020,1999-10-29 09:00:00,12.6,1024.1,0,98,12.3,800,11.112,,,120,,,,0.2,,,,,,44,og-post,,,,AAXX 29094 07020 21808 81206 10126 20123 30224 40241 50000 74444 8801/ 333 69927=
07020,1999-10-29 10:00:00,13.2,1023.6,-0.5,98,12.9,,14.816,,,120,,,,,,,,,,,og-post,,,,AAXX 29104 07020 36/// /1208 10132 20129 30219 40236 58005=
07020,1999-10-29 11:00:00,14,1022.9,-1.5,97,13.5,,18.52,,,110,,,,,,,,,,,og-post,,,,AAXX 29114 07020 36/// /1110 10140 20135 30212 40229 58015=
07020,1999-10-29 12:00:00,14.7,1021.5,-2.6,91,13.2,1500,22.224,,,110,,,,,0.2,,,,,28,og-post,,,,AAXX 29124 07020 11815 71112 10147 20132 30198 40215 58026 69921 72842 82078 333 92424=
07020,1999-10-29 13:00:00,14.9,1020.2,-3.4,89,13.1,,22.224,,,110,,,,,,,,,,,og-post,,,,AAXX 29134 07020 36/// /1112 10149 20131 30185 40202 58034=
07020,1999-10-29 14:00:00,14.8,1019.1,-3.8,90,13.2,,22.224,,,110,,,,,,,,,,,og-post,,,,AAXX 29144 07020 36/// /1112 10148 20132 30174 40191 56038=
07020,1999-10-29 15:00:00,14.9,1018.5,-3,91,13.4,1500,22.224,,,100,,,,,,,,,,,og-post,,,,AAXX 29154 07020 32615 81012 10149 20134 30168 40185 56030 886// 333 92424=
07020,1999-10-29 16:00:00,14.6,1017.4,-2.8,92,13.3,,29.632,,,110,,,,,,,,,,,og-post,,,,AAXX 29164 07020 36/// /1116 10146 20133 30157 40174 57028=
07020,1999-10-29 17:00:00,14.2,1016.4,-2.7,94,13.2,,25.928,,,110,,,,,,,,,,,og-post,,,,AAXX 29174 07020 36/// /1114 10142 20132 30147 40164 58027=
07020,1999-10-29 18:00:00,14.5,1016,-2.5,94,13.5,1500,22.224,,,120,10.1,15,,,,0.2,,,,,og-post,,,,AAXX 29184 07020 12615 71212 10145 20135 30143 40160 56025 69922 876// 333 10150 20101 92424=
07020,1999-10-29 19:00:00,14.9,1015.1,-2.3,92,13.6,,22.224,,,110,,,,,,,,,,,og-post,,,,AAXX 29194 07020 36/// /1112 10149 20136 30134 40151 56023=
07020,1999-10-29 20:00:00,15.4,1013.7,-2.7,90,13.8,,22.224,,,100,,,,,,,,,,,og-post,,,,AAXX 29204 07020 36/// /1012 10154 20138 30120 40137 58027=
07020,1999-10-29 21:00:00,18.6,1013.1,-2.8,70,13,,31.484,,,170,,,,,,,,,,,og-post,,,,AAXX 29214 07020 36/// /1717 10186 20130 30115 40131 56028=
07020,1999-10-29 22:00:00,17.6,1012.4,-2.7,75,13.1,,31.484,,,170,,,,,,,,,,,og-post,,,,AAXX 29224 07020 36/// /1717 10176 20131 30107 40124 56027=
07020,1999-10-29 23:00:00,16.8,1011.7,-2,81,13.5,,11.112,,,100,,,,,,,,,,,og-post,,,,AAXX 29234 07020 36/// /1006 10168 20135 30100 40117 58020=
07020,1999-10-30 00:00:00,16.2,1010.6,-2.6,84,13.5,,14.816,,,130,,,,,,,,,,,og-post,,,,AAXX 30004 07020 36/// /1308 10162 20135 30089 40106 58026=
07020,1999-10-30 01:00:00,16.8,1008.9,-3.5,82,13.7,,31.484,,,180,,,,,,,,,,,og-post,,,,AAXX 30014 07020 36/// /1817 10168 20137 30072 40089 58035=
07020,1999-10-30 02:00:00,16.2,1008.2,-3.5,85,13.7,,42.596,,,190,,,,,,,,,,,og-post,,,,AAXX 30024 07020 36/// /1923 10162 20137 30065 40082 56035=
07020,1999-10-30 03:00:00,15.9,1007,-3.6,89,14.1,,42.596,,,200,,,,,,,,,,,og-post,,,,AAXX 30034 07020 36/// /2023 10159 20141 30053 40070 56036=
07020,1999-10-30 04:00:00,15.5,1007.1,-1.8,91,14,,42.596,,,200,,,,,,,,,,,og-post,,,,AAXX 30044 07020 36/// /2023 10155 20140 30054 40071 55018=
07020,1999-10-30 05:00:00,15.1,1007.1,-1.1,93,14,,38.892,,,190,,,,,,,,,,,og-post,,,,AAXX 30054 07020 36/// /1921 10151 20140 30054 40071 56011=
07020,1999-10-30 06:00:00,15.3,1006.9,-0.1,93,14.2,10000,38.892,,,190,14.5,18.8,,,,,,,,,og-post,,,,AAXX 30064 07020 32860 61921 10153 20142 30052 40069 58001 86030 333 10188 20145 92437=
07020,1999-10-30 07:00:00,15,1006.8,-0.3,93,13.9,,35.188,,,190,,,,,,,,,,,og-post,,,,AAXX 30074 07020 36/// /1919 10150 20139 30051 40068 58003=
07020,1999-10-30 10:00:00,15.4,1005.2,-1.6,91,13.9,,46.3,68.524,,180,,,,,,,,,,,og-post,,,,AAXX 30104 07020 36/// /1825 10154 20139 30035 40052 58016 333 91137=
07020,1999-10-30 11:00:00,15.9,1004.4,-2,89,14.1,,50.004,72.228,72.228,190,,,,,,,,,,,og-post,,,,AAXX 30114 07020 36/// /1927 10159 20141 30028 40044 57020 333 91039 91139=
07020,1999-10-30 12:00:00,16.4,1002.7,-3,86,14.1,6000,50.004,75.932,72.228,190,,,,,,,,,,,og-post,,,,AAXX 30124 07020 32856 71927 10164 20141 30011 40027 58030 87050 333 91039 91141 92446=
07020,1999-10-30 13:00:00,16,1002.3,-2.8,88,14,,50.004,83.34,75.932,190,,,,,,,,,,,og-post,,,,AAXX 30134 07020 36/// /1927 10160 20140 30007 40023 56028 333 91041 91145=
07020,1999-10-30 14:00:00,15.3,1001.7,-2.7,90,13.7,,50.004,75.932,72.228,200,,,1,,,,,,,,og-post,,,,AAXX 30144 07020 26/// /2027 10153 20137 30001 40017 56027 333 60015 91039 91141=
07020,1999-10-30 15:00:00,13.3,1003.8,1,89,11.5,10000,46.3,87.044,,260,,,,5,,,,,,21,og-post,,,,AAXX 30154 07020 21560 82625 10133 20115 30021 40038 53010 72162 88700 333 60057 91147 92447=
07020,1999-10-30 16:00:00,14,1005,2.6,80,10.6,,50.004,75.932,,260,,,,,,,,,,,og-post,,,,AAXX 30164 07020 36/// /2627 10140 20106 30033 40050 53026 333 91141=
07020,1999-10-30 17:00:00,13.8,1005.9,4.1,79,10.2,,50.004,72.228,,260,,,,,,,,,,,og-post,,,,AAXX 30174 07020 36/// /2627 10138 20102 30042 40059 51041 333 91139=
07020,1999-10-30 18:00:00,14.1,1007,3.2,79,10.5,10000,46.3,87.044,,260,12.9,16.5,,,,5,,,,1,og-post,,,,AAXX 30184 07020 11560 52625 10141 20105 30053 40070 51032 60052 70161 85800 333 10165 20129 91147 92447=
07020,1999-10-30 19:00:00,13.3,1008,3,82,10.3,,53.708,90.748,,260,,,0.2,,,,,,,,og-post,,,,AAXX 30194 07020 26/// /2629 10133 20103 30063 40080 53030 333 69925 91149=
07020,1999-10-30 20:00:00,13.6,1008.9,3,74,9.1,,61.116,94.452,79.636,260,,,,,,,,,,,og-post,,,,AAXX 30204 07020 36/// /2633 10136 20091 30072 40089 51030 333 91043 91151=
07020,1999-10-30 21:00:00,14,1009.7,2.7,75,9.6,,57.412,94.452,,270,,,,0.2,,,,,,,og-post,,,,AAXX 30214 07020 26/// /2731 10140 20096 30080 40097 51027 333 69927 91151=
07020,1999-10-30 22:00:00,13.7,1011,3,71,8.5,,57.412,96.304,,260,,,0.2,,,,,,,,og-post,,,,AAXX 30224 07020 26/// /2631 10137 20085 30093 40110 53030 333 69925 91152=
07020,1999-10-30 23:00:00,13.8,1011.8,2.9,75,9.4,,57.412,83.34,,260,,,,,,,,,,,og-post,,,,AAXX 30234 07020 36/// /2631 10138 20094 30101 40118 52029 333 91145=
07020,1999-10-31 00:00:00,14,1012.5,2.8,71,8.8,,53.708,96.304,,270,,,,0.2,0.4,,,,,,og-post,,,,AAXX 31004 07020 /6/// /2729 10140 20088 30108 40125 51028 69941 333 69927 91152=
07020,1999-10-31 01:00:00,13.8,1013.3,2.3,71,8.6,,50.004,75.932,,260,,,,,,,,,,,og-post,,,,AAXX 31014 07020 36/// /2627 10138 20086 30116 40133 52023 333 91141=
07020,1999-10-31 02:00:00,14.1,1014,2.2,76,9.9,,53.708,79.636,,260,,,,,,,,,,,og-post,,,,AAXX 31024 07020 36/// /2629 10141 20099 30123 40140 52022 333 91143=
07020,1999-10-31 03:00:00,14.3,1014.6,2.1,75,9.9,,57.412,79.636,,260,,,,,,,,,,,og-post,,,,AAXX 31034 07020 36/// /2631 10143 20099 30129 40146 51021 333 91143=
07020,1999-10-31 04:00:00,14.1,1015.3,2,75,9.7,,53.708,83.34,79.636,260,,,,,,,,,,,og-post,,,,AAXX 31044 07020 36/// /2629 10141 20097 30136 40153 52020 333 91043 91145=
07020,1999-10-31 05:00:00,14.1,1016.8,2.8,72,9.1,,46.3,83.34,72.228,270,,,,,,,,,,,og-post,,,,AAXX 31054 07020 36/// /2725 10141 20091 30151 40168 53028 333 91039 91145=
07020,1999-10-31 06:00:00,13.6,1017.6,3,80,10.2,15000,38.892,83.34,,270,12.3,14.4,,,,0.4,,,,,og-post,,,,AAXX 31064 07020 13665 52721 10136 20102 30159 40176 53030 69942 85800 333 10144 20123 91145 92447=
07020,1999-10-31 07:00:00,13.9,1018.4,3.1,75,9.5,,42.596,,,270,,,,,,,,,,,og-post,,,,AAXX 31074 07020 36/// /2723 10139 20095 30167 40184 51031=
07020,1999-10-31 08:00:00,14.1,1019.2,2.4,71,8.9,,38.892,,,270,,,,,,,,,,,og-post,,,,AAXX 31084 07020 36/// /2721 10141 20089 30175 40192 52024=
07020,1999-10-31 09:00:00,14.6,1020,2.4,73,9.8,15000,38.892,,,240,,,,,,,,,,,og-post,,,,AAXX 31094 07020 32665 52421 10146 20098 30183 40200 52024 85400 333 92447=
07020,1999-10-31 10:00:00,15,1020.8,2.4,71,9.8,,38.892,,,260,,,,,,,,,,,og-post,,,,AAXX 31104 07020 36/// /2621 10150 20098 30191 40208 52024=
07020,1999-10-31 11:00:00,15.4,1020.8,1.6,75,11,,35.188,,,230,,,,,,,,,,,og-post,,,,AAXX 31114 07020 36/// /2319 10154 20110 30191 40208 51016=
07020,1999-10-31 12:00:00,15.4,1020.5,0.5,75,11,15000,38.892,,,230,,,,,,,,,,,og-post,,,,AAXX 31124 07020 32665 32321 10154 20110 30188 40205 50005 83100 333 92447=
07020,1999-10-31 13:00:00,15.6,1020.6,-0.2,72,10.6,,31.484,,,220,,,,,,,,,,,og-post,,,,AAXX 31134 07020 36/// /2217 10156 20106 30189 40206 55002=
07020,1999-10-31 14:00:00,15.3,1020.3,-0.5,74,10.7,,38.892,,,210,,,,,,,,,,,og-post,,,,AAXX 31144 07020 36/// /2121 10153 20107 30186 40203 57005=
07020,1999-10-31 15:00:00,14.9,1019.6,-0.9,71,9.7,10000,31.484,,,220,,,,,,,,,,,og-post,,,,AAXX 31154 07020 32860 52217 10149 20097 30179 40196 58009 85030 333 92447=
07020,1999-10-31 16:00:00,14.8,1019.2,-1.4,74,10.2,,31.484,,,200,,,,,,,,,,,og-post,,,,AAXX 31164 07020 36/// /2017 10148 20102 30175 40192 58014=
07020,1999-10-31 17:00:00,14.7,1018.9,-1.4,77,10.7,,29.632,,,210,,,,,,,,,,,og-post,,,,AAXX 31174 07020 36/// /2116 10147 20107 30172 40189 56014=
07020,1999-10-31 18:00:00,14.8,1019,-0.6,76,10.6,10000,29.632,,,210,13.6,15.7,,,,,,,,,og-post,,,,AAXX 31184 07020 32860 72116 10148 20106 30173 40190 55006 87030 333 10157 20136 92447=
07020,1999-10-31 19:00:00,14.8,1018.7,-0.5,75,10.4,,31.484,,,210,,,,,,,,,,,og-post,,,,AAXX 31194 07020 36/// /2117 10148 20104 30170 40187 57005=
07020,1999-10-31 20:00:00,14.9,1018.5,-0.4,76,10.7,,38.892,,,210,,,,,,,,,,,og-post,,,,AAXX 31204 07020 36/// /2121 10149 20107 30168 40185 58004=
07020,1999-10-31 21:00:00,14.5,1017.6,-1.4,75,10.1,,31.484,,,210,,,,,,,,,,,og-post,,,,AAXX 31214 07020 36/// /2117 10145 20101 30159 40176 58014=
07020,1999-10-31 22:00:00,14.6,1016.7,-2,76,10.4,,38.892,,,200,,,,,,,,,,,og-post,,,,AAXX 31224 07020 36/// /2021 10146 20104 30150 40167 58020=
07020,1999-10-31 23:00:00,14.4,1015.7,-2.8,80,11,,42.596,,,200,,,,,,,,,,,og-post,,,,AAXX 31234 07020 36/// /2023 10144 20110 30140 40157 58028=
07020,1999-11-01 00:00:00,14.4,1014.8,-2.8,79,10.8,,35.188,,,190,,,,,,,,,,,og-post,,,,AAXX 01004 07020 36/// /1919 10144 20108 30131 40148 57028=
07020,1999-11-01 01:00:00,14.5,1013.7,-3,79,10.9,,38.892,,,190,,,,,,,,,,,og-post,,,,AAXX 01014 07020 36/// /1921 10145 20109 30120 40137 58030=
07020,1999-11-01 02:00:00,14.5,1012.2,-3.5,80,11.1,,42.596,68.524,,190,,,,,,,,,,,og-post,,,,AAXX 01024 07020 36/// /1923 10145 20111 30105 40122 58035 333 91137=
07020,1999-11-01 03:00:00,14.5,1011.1,-3.7,81,11.3,,42.596,68.524,68.524,190,,,,,,,,,,,og-post,,,,AAXX 01034 07020 36/// /1923 10145 20113 30094 40111 57037 333 91037 91137=
07020,1999-11-01 04:00:00,14.2,1010.2,-3.5,87,12.1,,46.3,79.636,68.524,190,,,0.2,,,,,,,,og-post,,,,AAXX 01044 07020 26/// /1925 10142 20121 30085 40102 56035 333 69925 91037 91143=
07020,1999-11-01 05:00:00,14.4,1010.2,-2,91,12.9,,42.596,68.524,,220,,,0.2,,,,,,,,og-post,,,,AAXX 01054 07020 26/// /2223 10144 20129 30085 40102 56020 333 69925 91137=
07020,1999-11-01 06:00:00,14.4,1009.2,-1.9,80,11,15000,35.188,79.636,,230,14.2,14.9,,0.4,,0.4,,,,,og-post,,,,AAXX 01064 07020 /2765 82319 10144 20110 30075 40092 58019 69942 88800 333 10149 20142 69947 91143 92447=
07020,1999-11-01 07:00:00,14.5,1009.1,-1.1,80,11.1,,35.188,,,220,,,,,,,,,,,og-post,,,,AAXX 01074 07020 36/// /2219 10145 20111 30074 40091 58011=
07020,1999-11-01 08:00:00,14.5,1008.8,-1.4,89,12.7,,29.632,,,210,,,0.2,,,,,,,,og-post,,,,AAXX 01084 07020 26/// /2116 10145 20127 30071 40088 56014 333 69925=
07020,1999-11-01 09:00:00,14.6,1007.7,-1.5,95,13.8,2000,31.484,,,210,,,,2,,,,,,62,og-post,,,,AAXX 01094 07020 21520 82117 10146 20138 30060 40077 58015 76262 88700 333 60027 92445=
07020,1999-11-01 10:00:00,15.3,1006.6,-2.5,94,14.3,,46.3,72.228,72.228,190,,,0.2,,,,,,,,og-post,,,,AAXX 01104 07020 26/// /1925 10153 20143 30049 40066 58025 333 69925 91039 91139=
07020,1999-11-01 11:00:00,16.1,1005.8,-2.9,93,15,,50.004,83.34,83.34,190,,,,,,,,,,,og-post,,,,AAXX 01114 07020 36/// /1927 10161 20150 30042 40058 56029 333 91045 91145=
07020,1999-11-01 12:00:00,16.6,1005.2,-2.4,94,15.6,2000,57.412,83.34,,190,,,,0.2,2,,,,,21,og-post,,,,AAXX 01124 07020 /1520 81931 10166 20156 30036 40052 56024 60021 72162 88700 333 69927 91145 92455=
07020,1999-11-01 13:00:00,16.9,1004.9,-1.6,94,15.9,,50.004,79.636,68.524,200,,,,,,,,,,,og-post,,,,AAXX 01134 07020 36/// /2027 10169 20159 30033 40049 56016 333 91037 91143=
07020,1999-11-01 14:00:00,17,1004.9,-0.9,94,16,,50.004,72.228,,210,,,0.2,,,,,,,,og-post,,,,AAXX 01144 07020 26/// /2127 10170 20160 30033 40049 56009 333 69925 91139=
07020,1999-11-01 15:00:00,16.3,1006,0.8,94,15.3,2000,61.116,83.34,83.34,240,,,,0.4,,,,,,62,og-post,,,,AAXX 01154 07020 21520 82433 10163 20153 30044 40060 53008 76262 88700 333 69947 91045 91145 92455=
07020,1999-11-01 16:00:00,15.2,1007.5,2.5,90,13.6,,50.004,90.748,,260,,,0.2,,,,,,,,og-post,,,,AAXX 01164 07020 26/// /2627 10152 20136 30058 40075 53025 333 69925 91149=
07020,1999-11-01 17:00:00,15.1,1008.9,3.9,91,13.6,,46.3,,,260,,,,,,,,,,,og-post,,,,AAXX 01174 07020 36/// /2625 10151 20136 30072 40089 53039=
07020,1999-11-01 18:00:00,14.7,1011,4.9,82,11.7,10000,38.892,90.748,64.82,270,14.4,17.1,,0.2,,2,,,,2,og-post,,,,AAXX 01184 07020 /1860 82721 10147 20117 30093 40110 53049 60022 70262 88060 333 10171 20144 69927 91035 91149 92447=
07020,1999-11-01 19:00:00,14.5,1011.7,4.2,79,10.9,,38.892,,,260,,,,,,,,,,,og-post,,,,AAXX 01194 07020 36/// /2621 10145 20109 30100 40117 51042=
07020,1999-11-01 20:00:00,14.6,1012.4,3.5,83,11.7,,35.188,,,260,,,,,,,,,,,og-post,,,,AAXX 01204 07020 36/// /2619 10146 20117 30107 40124 51035=
07020,1999-11-01 21:00:00,14.4,1013,2,83,11.6,,38.892,,,250,,,,,,,,,,,og-post,,,,AAXX 01214 07020 36/// /2521 10144 20116 30113 40130 51020=
07020,1999-11-01 22:00:00,14.4,1013.1,1.4,82,11.4,,38.892,,,250,,,,,,,,,,,og-post,,,,AAXX 01224 07020 36/// /2521 10144 20114 30114 40131 51014=
07020,1999-11-01 23:00:00,14.2,1013.6,1.2,79,10.6,,38.892,,,260,,,,,,,,,,,og-post,,,,AAXX 01234 07020 36/// /2621 10142 20106 30119 40136 51012=
07020,1999-11-02 00:00:00,14.5,1013.8,0.8,75,10.1,,35.188,,,270,,,,,,,,,,,og-post,,,,AAXX 02004 07020 36/// /2719 10145 20101 30121 40138 53008=
07020,1999-11-02 01:00:00,14.3,1013.9,0.8,83,11.5,,38.892,,,260,,,,,,,,,,,og-post,,,,AAXX 02014 07020 36/// /2621 10143 20115 30122 40139 51008=
07020,1999-11-02 02:00:00,14.2,1014,0.4,78,10.4,,31.484,,,270,,,,,,,,,,,og-post,,,,AAXX 02024 07020 36/// /2717 10142 20104 30123 40140 51004=
07020,1999-11-02 03:00:00,14.2,1014.7,0.9,73,9.4,,31.484,,,270,,,,,,,,,,,og-post,,,,AAXX 02034 07020 36/// /2717 10142 20094 30130 40147 53009=
07020,1999-11-02 04:00:00,14.1,1015.4,1.5,70,8.7,,31.484,,,270,,,,,,,,,,,og-post,,,,AAXX 02044 07020 36/// /2717 10141 20087 30137 40154 53015=
07020,1999-11-02 05:00:00,14,1015.7,1.7,71,8.8,,31.484,53.708,,280,,,,,,,,,,,og-post,,,,AAXX 02054 07020 36/// /2817 10140 20088 30140 40157 51017 333 91129=
07020,1999-11-02 06:00:00,13.7,1016.3,1.6,72,8.7,15000,46.3,,,290,13.6,14.7,,,,,,,,,og-post,,,,AAXX 02064 07020 32865 82925 10137 20087 30146 40163 51016 8802/ 333 10147 20136 92447=
07020,1999-11-02 07:00:00,13.3,1017.6,2.2,67,7.3,,46.3,,,300,,,,,,,,,,,og-post,,,,AAXX 02074 07020 36/// /3025 10133 20073 30159 40176 53022=
07020,1999-11-02 08:00:00,13.3,1018.8,3.1,70,8,,35.188,,,300,,,,,,,,,,,og-post,,,,AAXX 02084 07020 36/// /3019 10133 20080 30171 40188 53031=
07020,1999-11-02 09:00:00,13.5,1020,3.7,69,7.9,15000,38.892,,,300,,,,,,,,,,,og-post,,,,AAXX 02094 07020 32565 63021 10135 20079 30183 40200 51037 86400 333 92447=
07020,1999-11-02 10:00:00,13.5,1021.1,3.5,68,7.7,,31.484,,,300,,,,,,,,,,,og-post,,,,AAXX 02104 07020 36/// /3017 10135 20077 30194 40211 51035=
07020,1999-11-02 11:00:00,13.5,1022,3.2,63,6.6,,35.188,,,300,,,,,,,,,,,og-post,,,,AAXX 02114 07020 36/// /3019 10135 20066 30203 40220 51032=
07020,1999-11-02 12:00:00,13.9,1022.5,2.5,65,7.4,20000,35.188,,,300,,,,,,,,,,,og-post,,,,AAXX 02124 07020 32670 53019 10139 20074 30208 40225 51025 85800 333 92448=
07020,1999-11-02 13:00:00,13.8,1023.1,2,62,6.7,,31.484,,,290,,,,,,,,,,,og-post,,,,AAXX 02134 07020 36/// /2917 10138 20067 30214 40231 51020=
07020,1999-11-02 14:00:00,13.7,1023.7,1.7,65,7.2,,35.188,,,290,,,,,,,,,,,og-post,,,,AAXX 02144 07020 36/// /2919 10137 20072 30220 40237 53017=
07020,1999-11-02 15:00:00,13.9,1024.3,1.8,64,7.2,20000,31.484,,,280,,,,,,,,,,,og-post,,,,AAXX 02154 07020 32670 32817 10139 20072 30226 40243 52018 83800 333 92448=
07020,1999-11-02 16:00:00,13.3,1025.1,2,65,6.9,,31.484,,,280,,,,,,,,,,,og-post,,,,AAXX 02164 07020 36/// /2817 10133 20069 30234 40251 53020=
07020,1999-11-02 17:00:00,13,1025.9,2.2,70,7.7,,35.188,,,290,,,,,,,,,,,og-post,,,,AAXX 02174 07020 36/// /2919 10130 20077 30242 40259 53022=
07020,1999-11-02 18:00:00,12.9,1026.9,2.6,70,7.6,,35.188,,,290,12.9,14.2,,,,,,,,,og-post,,,,AAXX 02184 07020 32/// /2919 10129 20076 30252 40269 53026 333 10142 20129=
07020,1999-11-02 19:00:00,13,1027.6,2.5,70,7.7,,31.484,,,300,,,,,,,,,,,og-post,,,,AAXX 02194 07020 36/// /3017 10130 20077 30259 40276 51025=
07020,1999-11-02 20:00:00,13.1,1028.3,2.4,66,6.9,,35.188,,,300,,,,,,,,,,,og-post,,,,AAXX 02204 07020 36/// /3019 10131 20069 30266 40283 51024=
07020,1999-11-02 21:00:00,13,1029,2.1,70,7.7,,29.632,,,310,,,,,,,,,,,og-post,,,,AAXX 02214 07020 36/// /3116 10130 20077 30273 40290 52021=
07020,1999-11-02 22:00:00,13,1029.3,1.7,70,7.7,,25.928,,,300,,,,,,,,,,,og-post,,,,AAXX 02224 07020 36/// /3014 10130 20077 30276 40293 51017=
07020,1999-11-02 23:00:00,13,1029.6,1.3,68,7.2,,29.632,,,300,,,,,,,,,,,og-post,,,,AAXX 02234 07020 36/// /3016 10130 20072 30279 40296 51013=
07020,1999-11-03 00:00:00,12.9,1029.8,0.8,70,7.6,,31.484,,,300,,,,,,,,,,,og-post,,,,AAXX 03004 07020 36/// /3017 10129 20076 30281 40298 51008=
07020,1999-11-03 01:00:00,12.9,1029.7,0.4,71,7.8,,22.224,,,280,,,,,,,,,,,og-post,,,,AAXX 03014 07020 36/// /2812 10129 20078 30280 40297 50004=
07020,1999-11-03 02:00:00,13,1029.8,0.2,72,8.1,,22.224,,,290,,,,,,,,,,,og-post,,,,AAXX 03024 07020 36/// /2912 10130 20081 30281 40298 51002=
07020,1999-11-03 03:00:00,13,1030.2,0.4,70,7.7,,22.224,,,290,,,,,,,,,,,og-post,,,,AAXX 03034 07020 36/// /2912 10130 20077 30285 40302 53004=
07020,1999-11-03 04:00:00,13,1030.3,0.6,72,8.1,,22.224,,,280,,,,,,,,,,,og-post,,,,AAXX 03044 07020 36/// /2812 10130 20081 30286 40303 52006=
07020,1999-11-03 05:00:00,13,1030.8,1,72,8.1,,18.52,,,280,,,,,,,,,,,og-post,,,,AAXX 03054 07020 36/// /2810 10130 20081 30291 40308 53010=
07020,1999-11-03 06:00:00,13.3,1031.1,0.9,76,9.2,15000,22.224,,,290,12.7,13.4,,,,,,,,,og-post,,,,AAXX 03064 07020 32665 72912 10133 20092 30294 40311 53009 8784/ 333 10134 20127 92437=
07020,1999-11-03 07:00:00,13.5,1031.4,1.1,78,9.7,,18.52,,,270,,,,,,,,,,,og-post,,,,AAXX 03074 07020 36/// /2710 10135 20097 30297 40314 51011=
07020,1999-11-03 08:00:00,13.6,1031.9,1.1,80,10.2,,22.224,,,270,,,,,,,,,,,og-post,,,,AAXX 03084 07020 36/// /2712 10136 20102 30302 40319 53011=
07020,1999-11-03 09:00:00,13.8,1032.1,1,79,10.2,15000,18.52,,,270,,,,,,,,,,,og-post,,,,AAXX 03094 07020 32665 72710 10138 20102 30304 40321 51010 878// 333 92437=
07020,1999-11-03 10:00:00,14.2,1032,0.6,77,10.2,,18.52,,,270,,,,,,,,,,,og-post,,,,AAXX 03104 07020 36/// /2710 10142 20102 30303 40320 50006=
07020,1999-11-03 11:00:00,14.9,1031.8,-0.1,75,10.5,,22.224,,,260,,,,,,,,,,,og-post,,,,AAXX 03114 07020 36/// /2612 10149 20105 30301 40318 58001=
07020,1999-11-03 12:00:00,14.7,1031.4,-0.7,75,10.3,20000,22.224,,,250,,,,,,,,,,,og-post,,,,AAXX 03124 07020 32670 52512 10147 20103 30297 40314 58007 85800 333 92438=
07020,1999-11-03 13:00:00,14.5,1031.1,-0.9,75,10.1,,18.52,,,240,,,,,,,,,,,og-post,,,,AAXX 03134 07020 36/// /2410 10145 20101 30294 40311 58009=
07020,1999-11-03 14:00:00,14.3,1030.6,-1.2,75,9.9,,18.52,,,230,,,,,,,,,,,og-post,,,,AAXX 03144 07020 36/// /2310 10143 20099 30289 40306 58012=
07020,1999-11-03 15:00:00,14.2,1030,-1.4,75,9.8,20000,18.52,,,220,,,,,,,,,,,og-post,,,,AAXX 03154 07020 32670 52210 10142 20098 30283 40300 58014 85801 333 92438=
07020,1999-11-03 16:00:00,12.7,1029.8,-1.3,73,8,,18.52,,,220,,,,,,,,,,,og-post,,,,AAXX 03164 07020 36/// /2210 10127 20080 30281 40298 56013=
07020,1999-11-03 17:00:00,12.6,1029.6,-1,78,8.9,,22.224,,,230,,,,,,,,,,,og-post,,,,AAXX 03174 07020 36/// /2312 10126 20089 30279 40296 56010=
07020,1999-11-03 18:00:00,12.2,1029.5,-0.5,79,8.7,20000,22.224,,,220,12.2,15.5,,,,,,,,,og-post,,,,AAXX 03184 07020 32670 52212 10122 20087 30278 40295 56005 85801 333 10155 20122 92438=
07020,1999-11-03 19:00:00,12.1,1029.2,-0.6,76,8,,25.928,,,220,,,,,,,,,,,og-post,,,,AAXX 03194 07020 36/// /2214 10121 20080 30275 40292 58006=
07020,1999-11-03 20:00:00,10.5,1029.1,-0.5,83,7.7,,18.52,,,170,,,,,,,,,,,og-post,,,,AAXX 03204 07020 36/// /1710 10105 20077 30274 40291 57005=
07020,1999-11-03 21:00:00,9.2,1028.9,-0.6,87,7.2,,18.52,,,160,,,,,,,,,,,og-post,,,,AAXX 03214 07020 36/// /1610 10092 20072 30272 40289 56006=
07020,1999-11-03 22:00:00,9.7,1028.8,-0.4,84,7.1,,18.52,,,170,,,,,,,,,,,og-post,,,,AAXX 03224 07020 36/// /1710 10097 20071 30271 40288 57004=
07020,1999-11-03 23:00:00,9.1,1028.2,-0.9,83,6.4,,18.52,,,160,,,,,,,,,,,og-post,,,,AAXX 03234 07020 36/// /1610 10091 20064 30265 40282 58009=
07020,1999-11-04 00:00:00,9.2,1027.7,-1.2,87,7.2,,18.52,,,160,,,,,,,,,,,og-post,,,,AAXX 04004 07020 36/// /1610 10092 20072 30260 40277 58012=
07020,1999-11-04 01:00:00,9.6,1027.4,-1.4,87,7.5,,18.52,,,180,,,,,,,,,,,og-post,,,,AAXX 04014 07020 36/// /1810 10096 20075 30257 40274 56014=
07020,1999-11-04 02:00:00,9.8,1027,-1.2,89,8.1,,18.52,,,170,,,,,,,,,,,og-post,,,,AAXX 04024 07020 36/// /1710 10098 20081 30253 40270 56012=
07020,1999-11-04 03:00:00,8.9,1026.2,-1.5,92,7.7,,18.52,,,170,,,,,,,,,,,og-post,,,,AAXX 04034 07020 36/// /1710 10089 20077 30245 40262 58015=
07020,1999-11-04 04:00:00,8.9,1025.5,-1.9,92,7.7,,18.52,,,160,,,,,,,,,,,og-post,,,,AAXX 04044 07020 36/// /1610 10089 20077 30238 40255 58019=
07020,1999-11-04 05:00:00,9.6,1025.3,-1.7,92,8.4,,18.52,,,170,,,,,,,,,,,og-post,,,,AAXX 04054 07020 36/// /1710 10096 20084 30236 40253 56017=
07020,1999-11-04 06:00:00,9,1025.4,-0.8,91,7.6,10000,18.52,,,180,8.8,12.5,,,,,,,,,og-post,,,,AAXX 04064 07020 32960 01810 10090 20076 30237 40254 55008 333 10125 20088 92424=
07020,1999-11-04 07:00:00,8.3,1025.2,-0.3,91,6.9,,18.52,,,170,,,,,,,,,,,og-post,,,,AAXX 04074 07020 36/// /1710 10083 20069 30235 40252 57003=
07020,1999-11-04 08:00:00,9.3,1024.8,-0.5,92,8.1,,18.52,,,160,,,,,,,,,,,og-post,,,,AAXX 04084 07020 36/// /1610 10093 20081 30231 40248 58005=
07020,1999-11-04 09:00:00,11.2,1024,-1.4,84,8.6,15000,18.52,,,180,,,,,,,,,,,og-post,,,,AAXX 04094 07020 32565 61810 10112 20086 30223 40240 58014 82105 333 92427=
07020,1999-11-04 10:00:00,12.4,1024,-1.2,82,9.4,,22.224,,,200,,,,,,,,,,,og-post,,,,AAXX 04104 07020 36/// /2012 10124 20094 30223 40240 56012=
07020,1999-11-04 11:00:00,12.6,1023.8,-1,76,8.5,,25.928,,,210,,,,,,,,,,,og-post,,,,AAXX 04114 07020 36/// /2114 10126 20085 30221 40238 56010=
07020,1999-11-04 12:00:00,12.7,1022.7,-1.3,75,8.4,15000,22.224,,,200,,,,,,,,,,,og-post,,,,AAXX 04124 07020 32565 62012 10127 20084 30210 40227 58013 82108 333 92427=
07020,1999-11-04 13:00:00,12.5,1022.2,-1.8,74,8,,25.928,,,210,,,,,,,,,,,og-post,,,,AAXX 04134 07020 36/// /2114 10125 20080 30205 40222 58018=
07020,1999-11-04 14:00:00,12.3,1021.2,-2.6,76,8.2,,25.928,,,200,,,,,,,,,,,og-post,,,,AAXX 04144 07020 36/// /2014 10123 20082 30195 40212 56026=
07020,1999-11-04 15:00:00,11.8,1020.1,-2.6,75,7.5,15000,25.928,,,200,,,,,,,,,,,og-post,,,,AAXX 04154 07020 32665 72014 10118 20075 30184 40201 58026 87290 333 92447=
07020,1999-11-04 16:00:00,11.3,1019.6,-2.6,75,7,,25.928,,,200,,,,,,,,,,,og-post,,,,AAXX 04164 07020 36/// /2014 10113 20070 30179 40196 56026=
07020,1999-11-04 17:00:00,10.9,1019,-2.2,79,7.4,,22.224,,,190,,,,,,,,,,,og-post,,,,AAXX 04174 07020 36/// /1912 10109 20074 30173 40190 56022=
07020,1999-11-04 18:00:00,10.8,1018.2,-1.9,79,7.3,15000,18.52,,,180,8.2,13,,,,,,,,,og-post,,,,AAXX 04184 07020 32665 81810 10108 20073 30165 40182 58019 88260 333 10130 20082 92447=
07020,1999-11-04 19:00:00,11.1,1017.4,-2.2,78,7.4,,22.224,,,170,,,,,,,,,,,og-post,,,,AAXX 04194 07020 36/// /1712 10111 20074 30157 40174 58022=
07020,1999-11-04 20:00:00,11.7,1016.9,-2.1,68,6,,31.484,,,200,,,,,,,,,,,og-post,,,,AAXX 04204 07020 36/// /2017 10117 20060 30152 40169 56021=
07020,1999-11-04 21:00:00,11.9,1016.3,-1.9,73,7.2,,35.188,,,200,,,,,,,,,,,og-post,,,,AAXX 04214 07020 36/// /2019 10119 20072 30146 40163 56019=
07020,1999-11-04 22:00:00,11.9,1015.9,-1.5,75,7.6,,42.596,,,210,,,,,,,,,,,og-post,,,,AAXX 04224 07020 36/// /2123 10119 20076 30142 40159 56015=
07020,1999-11-04 23:00:00,11.6,1014.9,-2,78,7.9,,35.188,,,210,,,,,,,,,,,og-post,,,,AAXX 04234 07020 36/// /2119 10116 20079 30132 40149 58020=
07020,1999-11-05 00:00:00,11.6,1013.7,-2.6,73,6.9,,42.596,,,210,,,,,,,,,,,og-post,,,,AAXX 05004 07020 36/// /2123 10116 20069 30120 40137 58026=
07020,1999-11-05 01:00:00,11.7,1012.5,-3.4,75,7.4,,46.3,,,210,,,,,,,,,,,og-post,,,,AAXX 05014 07020 36/// /2125 10117 20074 30108 40125 58034=
07020,1999-11-05 02:00:00,11.4,1011.2,-3.7,78,7.7,,46.3,,,200,,,,,,,,,,,og-post,,,,AAXX 05024 07020 36/// /2025 10114 20077 30095 40112 58037=
07020,1999-11-05 03:00:00,11.2,1009.7,-4,81,8.1,,46.3,,,200,,,,,,,,,,,og-post,,,,AAXX 05034 07020 36/// /2025 10112 20081 30080 40097 58040=
07020,1999-11-05 04:00:00,11.6,1008.4,-4.1,80,8.3,,46.3,,,200,,,,,,,,,,,og-post,,,,AAXX 05044 07020 36/// /2025 10116 20083 30067 40084 57041=
07020,1999-11-05 05:00:00,11.6,1007.1,-4.1,80,8.3,,53.708,72.228,,200,,,,,,,,,,,og-post,,,,AAXX 05054 07020 36/// /2029 10116 20083 30054 40071 56041 333 91139=
07020,1999-11-05 06:00:00,11.4,1006.3,-3.4,82,8.4,15000,53.708,75.932,,200,10.5,12,,,,,,,,,og-post,,,,AAXX 05064 07020 33665 82029 10114 20084 30046 40063 56034 88500 333 10120 20105 91141 92457=
07020,1999-11-05 07:00:00,11.4,1005.2,-3.2,85,9,,50.004,,,200,,,,,,,,,,,og-post,,,,AAXX 05074 07020 36/// /2027 10114 20090 30035 40052 56032=
07020,1999-11-05 08:00:00,12,1004.3,-2.8,88,10.1,,53.708,,,200,,,,,,,,,,,og-post,,,,AAXX 05084 07020 26/// /2029 10120 20101 30026 40043 58028 333 69905=
07020,1999-11-05 09:00:00,12.3,1002.6,-3.7,88,10.4,6000,50.004,,72.228,200,,,,0.4,,,,,,,og-post,,,,AAXX 05094 07020 23656 82027 10123 20104 30009 40026 58037 887// 333 69947 91039 92456=
07020,1999-11-05 10:00:00,12.7,1000.9,-4.3,88,10.8,,61.116,83.34,83.34,200,,,,,,,,,,,og-post,,,,AAXX 05104 07020 36/// /2033 10127 20108 39992 40009 58043 333 91045 91145=
07020,1999-11-05 11:00:00,13.5,999.2,-5.1,87,11.4,,57.412,87.044,79.636,200,,,,,,,,,,,og-post,,,,AAXX 05114 07020 36/// /2031 10135 20114 39975 49992 57051 333 91043 91147=
07020,1999-11-05 12:00:00,14.1,996.9,-5.6,87,12,8000,61.116,87.044,83.34,190,,,,,0.4,,,,,,og-post,,,,AAXX 05124 07020 13658 81933 10141 20120 39953 49969 58056 69941 88700 333 91045 91147 92456=
07020,1999-11-05 13:00:00,14.3,996,-4.8,91,12.9,,53.708,83.34,79.636,200,,,0.8,,,,,,,,og-post,,,,AAXX 05134 07020 26/// /2029 10143 20129 39944 49960 56048 333 69985 91043 91145=
07020,1999-11-05 14:00:00,11.8,996.5,-2.7,88,9.9,,53.708,83.34,72.228,270,,,8,,,,,,,,og-post,,,,AAXX 05144 07020 26/// /2729 10118 20099 39948 49965 55027 333 60085 91039 91145=
07020,1999-11-05 15:00:00,11.8,997,-0,81,8.6,8000,50.004,83.34,72.228,280,,,,9,,,,,,81,og-post,,,,AAXX 05154 07020 21558 72827 10118 20086 39953 49970 55000 78182 877// 333 60097 91039 91145 92456=
07020,1999-11-05 16:00:00,12.8,997.1,1,69,7.3,,61.116,90.748,90.748,270,,,,,,,,,,,og-post,,,,AAXX 05164 07020 26/// /2733 10128 20073 39954 49971 51010 333 69905 91049 91149=
07020,1999-11-05 17:00:00,12.5,998.2,1.7,69,7,,53.708,94.452,75.932,270,,,,,,,,,,,og-post,,,,AAXX 05174 07020 26/// /2729 10125 20070 39965 49982 53017 333 69905 91041 91151=
07020,1999-11-05 18:00:00,11.6,999.1,2.1,79,8.1,8000,50.004,94.452,79.636,280,10.6,14.5,,1,,10,,,,25,og-post,,,,AAXX 05184 07020 /1658 52827 10116 20081 39974 49991 53021 60102 72522 85800 333 10145 20106 60017 91043 91151 92456=
07020,1999-11-05 19:00:00,12.5,1000.2,3.1,79,9,,57.412,90.748,83.34,290,,,0.2,,,,,,,,og-post,,,,AAXX 05194 07020 26/// /2931 10125 20090 39985 40002 52031 333 69925 91045 91149=
07020,1999-11-05 20:00:00,12.7,1001,2.8,72,7.8,,53.708,90.748,79.636,290,,,0.4,,,,,,,,og-post,,,,AAXX 05204 07020 26/// /2929 10127 20078 39993 40010 51028 333 69945 91043 91149=
07020,1999-11-05 21:00:00,12.7,1001.7,2.6,67,6.7,,53.708,90.748,,290,,,,0.6,,,,,,,og-post,,,,AAXX 05214 07020 26/// /2929 10127 20067 30000 40017 51026 333 69967 91149=
07020,1999-11-05 22:00:00,11.5,1002.3,2.1,66,5.4,,50.004,87.044,87.044,290,,,0.2,,,,,,,,og-post,,,,AAXX 05224 07020 26/// /2927 10115 20054 30006 40023 51021 333 69925 91047 91147=
07020,1999-11-05 23:00:00,11.3,1003,2,72,6.4,,38.892,83.34,72.228,280,,,,,,,,,,,og-post,,,,AAXX 05234 07020 36/// /2821 10113 20064 30013 40030 52020 333 91039 91145=
07020,1999-11-06 00:00:00,11.8,1003.4,1.7,68,6.1,,57.412,90.748,,300,,,,0.2,0.8,,,,,,og-post,,,,AAXX 06004 07020 /6/// /3031 10118 20061 30017 40034 51017 69981 333 69927 91149=
07020,1999-11-06 01:00:00,11.7,1004.3,2,72,6.8,,57.412,,,310,,,,,,,,,,,og-post,,,,AAXX 06014 07020 36/// /3131 10117 20068 30026 40043 53020=
07020,1999-11-06 02:00:00,11.3,1005.1,2.1,71,6.2,,57.412,,,300,,,,,,,,,,,og-post,,,,AAXX 06024 07020 36/// /3031 10113 20062 30034 40051 53021=
07020,1999-11-06 03:00:00,11.2,1006.1,2.7,69,5.7,,57.412,,,310,,,,,,,,,,,og-post,,,,AAXX 06034 07020 36/// /3131 10112 20057 30044 40061 53027=
07020,1999-11-06 04:00:00,10.5,1007.4,3.1,82,7.6,,46.3,90.748,,330,,,1,,,,,,,,og-post,,,,AAXX 06044 07020 26/// /3325 10105 20076 30057 40074 53031 333 60015 91149=
07020,1999-11-06 05:00:00,11.5,1008.8,3.7,74,7,,53.708,,,330,,,,,,,,,,,og-post,,,,AAXX 06054 07020 36/// /3329 10115 20070 30071 40088 53037=
07020,1999-11-06 06:00:00,11.4,1010.2,4.1,68,5.7,15000,57.412,90.748,,310,9.9,12.9,,1,,2,,,,,og-post,,,,AAXX 06064 07020 /2765 33131 10114 20057 30085 40102 53041 60022 83800 333 10129 20099 60017 91149 92457=
07020,1999-11-06 07:00:00,11.3,1011.8,4.4,71,6.2,,64.82,,,330,,,,,,,,,,,og-post,,,,AAXX 06074 07020 36/// /3335 10113 20062 30101 40118 53044=
07020,1999-11-06 08:00:00,11.3,1013.6,4.8,70,6,,61.116,,,320,,,,,,,,,,,og-post,,,,AAXX 06084 07020 36/// /3233 10113 20060 30119 40136 53048=
07020,1999-11-06 09:00:00,11.2,1015,4.8,68,5.5,15000,53.708,83.34,,330,,,,,,,,,,,og-post,,,,AAXX 06094 07020 32765 53329 10112 20055 30133 40150 51048 85800 333 91145 92457=
07020,1999-11-06 10:00:00,11.4,1016,4.2,65,5.1,,53.708,,,320,,,,,,,,,,,og-post,,,,AAXX 06104 07020 36/// /3229 10114 20051 30143 40160 51042=
07020,1999-11-06 11:00:00,11.4,1017.1,3.5,65,5.1,,50.004,72.228,,320,,,,,,,,,,,og-post,,,,AAXX 06114 07020 36/// /3227 10114 20051 30154 40171 51035 333 91139=
07020,1999-11-06 12:00:00,12.1,1017.6,2.6,62,5,15000,50.004,83.34,,310,,,,,,,,,,,og-post,,,,AAXX 06124 07020 32665 53127 10121 20050 30159 40176 51026 85800 333 91145 92457=
07020,1999-11-06 13:00:00,12.3,1017.8,1.8,60,4.8,,42.596,,,320,,,,,,,,,,,og-post,,,,AAXX 06134 07020 36/// /3223 10123 20048 30161 40178 51018=
07020,1999-11-06 14:00:00,12.5,1018.4,1.3,58,4.5,,46.3,,,310,,,,,,,,,,,og-post,,,,AAXX 06144 07020 36/// /3125 10125 20045 30167 40184 53013=
07020,1999-11-06 15:00:00,12.3,1019.1,1.5,60,4.8,15000,46.3,,,320,,,,,,,,,,,og-post,,,,AAXX 06154 07020 32665 53225 10123 20048 30174 40191 53015 85400 333 92457=
07020,1999-11-06 16:00:00,11.9,1019.8,2,62,4.9,,46.3,,,320,,,,,,,,,,,og-post,,,,AAXX 06164 07020 36/// /3225 10119 20049 30181 40198 53020=
07020,1999-11-06 17:00:00,11.7,1020.4,2,62,4.7,,42.596,,,330,,,,,,,,,,,og-post,,,,AAXX 06174 07020 36/// /3323 10117 20047 30187 40204 51020=
07020,1999-11-06 18:00:00,11.6,1021.4,2.3,62,4.6,,46.3,,,320,11.1,12.6,,,,,,,,,og-post,,,,AAXX 06184 07020 36/// /3225 10116 20046 30197 40214 53023 333 10126 20111=
07020,1999-11-06 19:00:00,11.5,1022.1,2.3,65,5.2,,42.596,,,330,,,,,,,,,,,og-post,,,,AAXX 06194 07020 36/// /3323 10115 20052 30204 40221 53023=
07020,1999-11-06 20:00:00,11.5,1022.7,2.3,64,4.9,,42.596,,,330,,,,,,,,,,,og-post,,,,AAXX 06204 07020 36/// /3323 10115 20049 30210 40227 51023=
07020,1999-11-06 21:00:00,11.5,1023.3,1.9,61,4.3,,35.188,,,340,,,,,,,,,,,og-post,,,,AAXX 06214 07020 36/// /3419 10115 20043 30216 40233 51019=
07020,1999-11-06 22:00:00,11.2,1024,1.9,56,2.8,,31.484,,,350,,,,,,,,,,,og-post,,,,AAXX 06224 07020 36/// /3517 10112 20028 30223 40240 53019=
07020,1999-11-06 23:00:00,11.1,1024.4,1.7,60,3.6,,31.484,,,340,,,,,,,,,,,og-post,,,,AAXX 06234 07020 36/// /3417 10111 20036 30227 40244 51017=
07020,1999-11-07 00:00:00,11,1024.7,1.4,57,2.8,,25.928,,,350,,,,,,,,,,,og-post,,,,AAXX 07004 07020 36/// /3514 10110 20028 30230 40247 51014=
07020,1999-11-07 01:00:00,10.9,1025.1,1.1,60,3.5,,29.632,,,330,,,,,,,,,,,og-post,,,,AAXX 07014 07020 36/// /3316 10109 20035 30234 40251 52011=
07020,1999-11-07 02:00:00,10.9,1025.4,1,60,3.5,,22.224,,,340,,,,,,,,,,,og-post,,,,AAXX 07024 07020 36/// /3412 10109 20035 30237 40254 52010=
07020,1999-11-07 03:00:00,11,1025.7,1,62,4,,18.52,,,320,,,,,,,,,,,og-post,,,,AAXX 07034 07020 36/// /3210 10110 20040 30240 40257 51010=
07020,1999-11-07 04:00:00,11.2,1026.1,1,61,4,,14.816,,,300,,,,,,,,,,,og-post,,,,AAXX 07044 07020 36/// /3008 10112 20040 30244 40261 53010=
07020,1999-11-07 05:00:00,11.6,1026.5,1.1,66,5.5,,22.224,,,310,,,,,,,,,,,og-post,,,,AAXX 07054 07020 36/// /3112 10116 20055 30248 40265 53011=
07020,1999-11-07 06:00:00,11.7,1027,1.3,68,6,12000,22.224,,,300,10.8,11.7,,,,,,,,,og-post,,,,AAXX 07064 07020 32962 43012 10117 20060 30253 40270 53013 80004 333 10117 20108 92437=
07020,1999-11-07 07:00:00,12.1,1027.5,1.4,68,6.4,,25.928,,,300,,,,,,,,,,,og-post,,,,AAXX 07074 07020 36/// /3014 10121 20064 30258 40275 53014=
07020,1999-11-07 08:00:00,12.4,1028.2,1.7,70,7.1,,18.52,,,300,,,,,,,,,,,og-post,,,,AAXX 07084 07020 36/// /3010 10124 20071 30265 40282 53017=
07020,1999-11-07 09:00:00,12.6,1028.6,1.6,74,8.1,12000,25.928,,,300,,,,,,,,,,,og-post,,,,AAXX 07094 07020 32662 63014 10126 20081 30269 40286 51016 86400 333 92427=
07020,1999-11-07 10:00:00,12.7,1028.9,1.4,73,8,,18.52,,,300,,,,,,,,,,,og-post,,,,AAXX 07104 07020 36/// /3010 10127 20080 30272 40289 51014=
07020,1999-11-07 11:00:00,13.1,1029.1,0.9,73,8.4,,14.816,,,300,,,,,,,,,,,og-post,,,,AAXX 07114 07020 36/// /3008 10131 20084 30274 40291 51009=
07020,1999-11-07 12:00:00,13.4,1029,0.4,71,8.3,15000,14.816,,,280,,,,,,,,,,,og-post,,,,AAXX 07124 07020 32665 82808 10134 20083 30273 40290 50004 88400 333 92427=
07020,1999-11-07 13:00:00,13.6,1028.9,0,71,8.4,,25.928,,,290,,,,,,,,,,,og-post,,,,AAXX 07134 07020 36/// /2914 10136 20084 30272 40289 50000=
07020,1999-11-07 14:00:00,13.7,1029,-0.1,72,8.7,,25.928,,,290,,,,,,,,,,,og-post,,,,AAXX 07144 07020 36/// /2914 10137 20087 30273 40290 55001=
07020,1999-11-07 15:00:00,13.5,1029.3,0.3,76,9.4,15000,11.112,,,280,,,,,,,,,,,og-post,,,,AAXX 07154 07020 32665 82806 10135 20094 30276 40293 53003 88400 333 92427=
07020,1999-11-07 16:00:00,12.5,1029.5,0.6,82,9.5,,29.632,,,290,,,0.4,,,,,,,,og-post,,,,AAXX 07164 07020 26/// /2916 10125 20095 30278 40295 53006 333 69945=
07020,1999-11-07 17:00:00,12,1029.8,0.8,89,10.2,,7.408,,,270,,,,,,,,,,,og-post,,,,AAXX 07174 07020 26/// /2704 10120 20102 30281 40298 52008 333 69905=
07020,1999-11-07 18:00:00,12.8,1030.2,0.9,87,10.7,15000,14.816,,,300,11.7,13.9,,0.8,,0.8,,,,21,og-post,,,,AAXX 07184 07020 /1665 83008 10128 20107 30285 40302 53009 69982 72122 885// 222// 336// 333 10139 20117 69987 92427=
07020,1999-11-07 19:00:00,13.5,1030.3,0.8,75,9.2,,22.224,,,290,,,,,,,,,,,og-post,,,,AAXX 07194 07020 36/// /2912 10135 20092 30286 40303 51008=
07020,1999-11-07 20:00:00,13.6,1030.7,0.9,79,10,,22.224,,,290,,,,,,,,,,,og-post,,,,AAXX 07204 07020 36/// /2912 10136 20100 30290 40307 52009=
07020,1999-11-07 21:00:00,13.6,1031.1,0.9,77,9.6,,22.224,,,280,,,,,,,,,,,og-post,,,,AAXX 07214 07020 36/// /2812 10136 20096 30294 40311 53009=
07020,1999-11-07 22:00:00,13.2,1031.2,0.9,78,9.5,,29.632,,,330,,,,,,,,,,,og-post,,,,AAXX 07224 07020 36/// /3316 10132 20095 30295 40312 51009=
07020,1999-11-07 23:00:00,13.1,1031.4,0.7,75,8.8,,18.52,,,300,,,,,,,,,,,og-post,,,,AAXX 07234 07020 36/// /3010 10131 20088 30297 40314 51007=
07020,1999-11-08 01:00:00,12.6,1031.2,0,83,9.8,,38.892,,,300,,,,,,,,,,,og-post,,,,AAXX 08014 07020 36/// /3021 10126 20098 30295 40312 50000=
07020,1999-11-08 02:00:00,12.3,1031.5,0.1,76,8.2,,22.224,,,320,,,,,,,,,,,og-post,,,,AAXX 08024 07020 36/// /3212 10123 20082 30298 40315 53001=
07020,1999-11-08 03:00:00,12.9,1031.2,-0.1,73,8.2,,25.928,,,300,,,,,,,,,,,og-post,,,,AAXX 08034 07020 36/// /3014 10129 20082 30295 40312 58001=
07020,1999-11-08 04:00:00,13,1031.2,0,75,8.7,,18.52,,,300,,,,,,,,,,,og-post,,,,AAXX 08044 07020 36/// /3010 10130 20087 30295 40312 50000=
07020,1999-11-08 05:00:00,13,1031.4,-0.1,77,9.1,,18.52,,,310,,,,,,,,,,,og-post,,,,AAXX 08054 07020 36/// /3110 10130 20091 30297 40314 55001=
07020,1999-11-08 06:00:00,13,1031.4,0.2,77,9.1,15000,25.928,,,310,12,13.8,,,,,,,,,og-post,,,,AAXX 08064 07020 32665 83114 10130 20091 30297 40314 52002 885// 222// 336// 333 10138 20120 92427=
07020,1999-11-08 07:00:00,13,1031.6,0.4,77,9.1,,25.928,,,300,,,,,,,,,,,og-post,,,,AAXX 08074 07020 36/// /3014 10130 20091 30299 40316 52004=
07020,1999-11-08 08:00:00,13,1032.2,0.8,78,9.3,,18.52,,,300,,,,,,,,,,,og-post,,,,AAXX 08084 07020 36/// /3010 10130 20093 30305 40322 53008=
07020,1999-11-08 09:00:00,13.4,1032.4,1,75,9.1,15000,14.816,,,290,,,,,,,,,,,og-post,,,,AAXX 08094 07020 32665 82908 10134 20091 30307 40324 52010 888// 333 92427=
07020,1999-11-08 10:00:00,13.6,1032.7,1.1,77,9.6,,18.52,,,300,,,,,,,,,,,og-post,,,,AAXX 08104 07020 36/// /3010 10136 20096 30310 40327 51011=
07020,1999-11-08 11:00:00,14.2,1032.9,0.7,72,9.2,,22.224,,,310,,,,,,,,,,,og-post,,,,AAXX 08114 07020 36/// /3112 10142 20092 30312 40329 52007=
07020,1999-11-08 12:00:00,13.9,1032.6,0.2,79,10.3,15000,29.632,,,300,,,,,,,,,,,og-post,,,,AAXX 08124 07020 32665 73016 10139 20103 30309 40326 50002 878// 333 92437=
07020,1999-11-08 13:00:00,13.7,1032.6,-0.1,79,10.1,,25.928,,,300,,,,,,,,,,,og-post,,,,AAXX 08134 07020 36/// /3014 10137 20101 30309 40326 58001=
07020,1999-11-08 14:00:00,13.4,1032.2,-0.7,81,10.2,,18.52,,,280,,,,,,,,,,,og-post,,,,AAXX 08144 07020 36/// /2810 10134 20102 30305 40322 58007=
07020,1999-11-08 15:00:00,12.9,1032.3,-0.3,85,10.4,18000,14.816,,,270,,,,,,,,,,,og-post,,,,AAXX 08154 07020 32668 72708 10129 20104 30306 40323 55003 87800 333 92437=
07020,1999-11-08 16:00:00,12.8,1032.3,-0.3,86,10.5,,11.112,,,270,,,,,,,,,,,og-post,,,,AAXX 08164 07020 36/// /2706 10128 20105 30306 40323 56003=
07020,1999-11-08 17:00:00,12.9,1032.4,0.2,87,10.8,,11.112,,,270,,,,,,,,,,,og-post,,,,AAXX 08174 07020 36/// /2706 10129 20108 30307 40324 52002=
07020,1999-11-08 18:00:00,13.5,1033,0.7,81,10.3,15000,22.224,,,340,12.7,14.5,,,,,,,,,og-post,,,,AAXX 08184 07020 32665 83412 10135 20103 30313 40330 53007 88800 333 10145 20127 92437=
07020,1999-11-08 19:00:00,13.6,1033.4,1.1,84,10.9,,22.224,,,10,,,,,,,,,,,og-post,,,,AAXX 08194 07020 36/// /0112 10136 20109 30317 40334 53011=
07020,1999-11-08 20:00:00,13.3,1033.6,1.2,85,10.8,,22.224,,,50,,,,,,,,,,,og-post,,,,AAXX 08204 07020 36/// /0512 10133 20108 30319 40336 51012=
07020,1999-11-08 21:00:00,13.3,1033.9,0.9,75,9,,25.928,,,60,,,,,,,,,,,og-post,,,,AAXX 08214 07020 36/// /0614 10133 20090 30322 40339 51009=
07020,1999-11-08 22:00:00,13.5,1034.1,0.7,77,9.6,,29.632,,,60,,,,,,,,,,,og-post,,,,AAXX 08224 07020 36/// /0616 10135 20096 30324 40341 52007=
07020,1999-11-08 23:00:00,13.3,1034.3,0.7,76,9.2,,25.928,,,60,,,,,,,,,,,og-post,,,,AAXX 08234 07020 36/// /0614 10133 20092 30326 40343 51007=
07020,1999-11-09 00:00:00,13.3,1034.6,0.7,73,8.6,,25.928,,,60,,,,,,,,,,,og-post,,,,AAXX 09004 07020 36/// /0614 10133 20086 30329 40346 53007=
07020,1999-11-09 01:00:00,13.2,1034.4,0.3,79,9.6,,25.928,,,60,,,,,,,,,,,og-post,,,,AAXX 09014 07020 36/// /0614 10132 20096 30327 40344 50003=
07020,1999-11-09 02:00:00,12.8,1034.7,0.4,82,9.8,,25.928,,,60,,,,,,,,,,,og-post,,,,AAXX 09024 07020 36/// /0614 10128 20098 30330 40347 52004=
07020,1999-11-09 03:00:00,13.1,1034.7,0.1,83,10.3,,22.224,,,60,,,,,,,,,,,og-post,,,,AAXX 09034 07020 36/// /0612 10131 20103 30330 40347 53001=
07020,1999-11-09 04:00:00,13.3,1035.1,0.7,85,10.8,,22.224,,,60,,,,,,,,,,,og-post,,,,AAXX 09044 07020 36/// /0612 10133 20108 30334 40351 53007=
07020,1999-11-09 05:00:00,13.4,1035.5,0.8,86,11.1,,25.928,,,50,,,,,,,,,,,og-post,,,,AAXX 09054 07020 36/// /0514 10134 20111 30338 40355 53008=
07020,1999-11-09 06:00:00,13.3,1035.6,0.9,88,11.4,12000,22.224,,,60,12.8,13.6,,,,,,,,,og-post,,,,AAXX 09064 07020 32662 80612 10133 20114 30339 40356 51009 88800 333 10136 20128 92437=
07020,1999-11-09 07:00:00,13.4,1035.9,0.8,88,11.5,,25.928,,,50,,,,,,,,,,,og-post,,,,AAXX 09074 07020 36/// /0514 10134 20115 30342 40359 51008=
07020,1999-11-09 08:00:00,13,1036.4,0.9,91,11.6,,38.892,,,50,,,0.6,,,,,,,,og-post,,,,AAXX 09084 07020 26/// /0521 10130 20116 30347 40364 53009 333 69965=
07020,1999-11-09 09:00:00,13.1,1036.4,0.8,87,11,15000,31.484,,,60,,,,0.6,,,,,,21,og-post,,,,AAXX 09094 07020 21665 60617 10131 20110 30347 40364 51008 72162 86461 333 69967 92447=
07020,1999-11-09 10:00:00,13.4,1036.9,1,83,10.6,,35.188,,,60,,,,,,,,,,,og-post,,,,AAXX 09104 07020 36/// /0619 10134 20106 30352 40369 52010=
07020,1999-11-09 11:00:00,13.5,1037.4,1,81,10.3,,35.188,,,60,,,,,,,,,,,og-post,,,,AAXX 09114 07020 36/// /0619 10135 20103 30357 40374 53010=
07020,1999-11-09 12:00:00,13.5,1037.3,0.9,80,10.1,15000,31.484,,,60,,,,,0.6,,,,,3,og-post,,,,AAXX 09124 07020 11665 70617 10135 20101 30356 40373 50009 69961 70362 87560 333 92447=
07020,1999-11-09 13:00:00,13.6,1037.4,0.5,72,8.7,,35.188,,,70,,,,,,,,,,,og-post,,,,AAXX 09134 07020 36/// /0719 10136 20087 30357 40374 51005=
07020,1999-11-09 14:00:00,13.7,1037.1,-0.3,68,7.9,,31.484,,,70,,,,,,,,,,,og-post,,,,AAXX 09144 07020 36/// /0717 10137 20079 30354 40371 58003=
07020,1999-11-09 15:00:00,13.8,1037.4,0.1,64,7.1,15000,35.188,,,60,,,,,,,,,,,og-post,,,,AAXX 09154 07020 32565 60619 10138 20071 30357 40374 53001 83101 333 92437=
07020,1999-11-09 16:00:00,13.1,1037.3,-0.1,71,8,,31.484,,,60,,,,,,,,,,,og-post,,,,AAXX 09164 07020 36/// /0617 10131 20080 30356 40373 56001=
07020,1999-11-09 17:00:00,12.9,1037.8,0.7,69,7.4,,38.892,,,60,,,,,,,,,,,og-post,,,,AAXX 09174 07020 36/// /0621 10129 20074 30361 40378 53007=
07020,1999-11-09 18:00:00,12.9,1037.9,0.5,68,7.1,15000,38.892,,,60,12.7,13.9,,,,0.6,,,,,og-post,,,,AAXX 09184 07020 12565 70621 10129 20071 30362 40379 53005 69962 85108 333 10139 20127 92447=
07020,1999-11-09 19:00:00,12.6,1038.1,0.8,70,7.3,,42.596,,,60,,,,,,,,,,,og-post,,,,AAXX 09194 07020 36/// /0623 10126 20073 30364 40381 51008=
07020,1999-11-09 20:00:00,12.4,1038.3,0.5,73,7.7,,42.596,,,60,,,,,,,,,,,og-post,,,,AAXX 09204 07020 36/// /0623 10124 20077 30366 40383 53005=
07020,1999-11-09 21:00:00,12.2,1038.5,0.6,74,7.7,,42.596,,,60,,,,,,,,,,,og-post,,,,AAXX 09214 07020 36/// /0623 10122 20077 30368 40385 52006=
07020,1999-11-09 22:00:00,11.9,1038.6,0.5,77,8,,38.892,,,60,,,,,,,,,,,og-post,,,,AAXX 09224 07020 36/// /0621 10119 20080 30369 40386 51005=
07020,1999-11-09 23:00:00,11.7,1038.8,0.5,77,7.8,,42.596,,,60,,,,,,,,,,,og-post,,,,AAXX 09234 07020 36/// /0623 10117 20078 30371 40388 52005=
07020,1999-11-10 00:00:00,11.6,1038.6,0.1,77,7.7,,35.188,,,60,,,,,,,,,,,og-post,,,,AAXX 10004 07020 36/// /0619 10116 20077 30369 40386 50001=
07020,1999-11-10 03:00:00,11.1,1038.6,0,81,8,,46.3,,,60,,,,,,,,,,,og-post,,,,AAXX 10034 07020 36/// /0625 10111 20080 30369 40386 50000=
07020,1999-11-10 04:00:00,10.8,1038.5,-0.2,81,7.7,,38.892,,,50,,,,,,,,,,,og-post,,,,AAXX 10044 07020 36/// /0521 10108 20077 30368 40385 58002=
07020,1999-11-10 05:00:00,10.8,1038.5,-0.3,78,7.1,,38.892,,,50,,,,,,,,,,,og-post,,,,AAXX 10054 07020 36/// /0521 10108 20071 30368 40385 56003=
07020,1999-11-10 06:00:00,10.9,1038.3,-0.3,81,7.8,12000,42.596,,,50,,,,,,,,,,,og-post,,,,AAXX 10064 07020 32562 60523 10109 20078 30366 40383 58003 86110=
07020,1999-11-10 07:00:00,10.8,1038.3,-0.2,82,7.9,,42.596,90.748,90.748,50,,,,,,,,,,,og-post,,,,AAXX 10074 07020 36/// /0523 10108 20079 30366 40383 57002 333 91049 91149=
07020,1999-11-10 08:00:00,10.7,1038,-0.5,83,7.9,,42.596,,,40,,,,,,,,,,,og-post,,,,AAXX 10084 07020 36/// /0423 10107 20079 30363 40380 58005=
07020,1999-11-10 09:00:00,10.9,1038.2,-0.1,83,8.1,10000,46.3,90.748,,40,,,,,,,,,,,og-post,,,,AAXX 10094 07020 32960 60425 10109 20081 30365 40382 55001 86400 333 91149 92447=
07020,1999-11-10 10:00:00,11.3,1038.1,-0.2,79,7.8,,42.596,,,50,,,,,,,,,,,og-post,,,,AAXX 10104 07020 36/// /0523 10113 20078 30364 40381 56002=
07020,1999-11-10 11:00:00,11.8,1037.5,-0.5,80,8.5,,46.3,,,50,,,,,,,,,,,og-post,,,,AAXX 10114 07020 36/// /0525 10118 20085 30358 40375 58005=
07020,1999-11-10 12:00:00,11.8,1036.8,-1.4,79,8.3,10000,50.004,90.748,,50,,,,,,,,,,,og-post,,,,AAXX 10124 07020 32560 60527 10118 20083 30351 40368 58014 86400 333 91149 92447=
07020,1999-11-10 13:00:00,11.8,1036.6,-1.5,79,8.3,,53.708,,,50,,,,,,,,,,,og-post,,,,AAXX 10134 07020 36/// /0529 10118 20083 30349 40366 56015=
07020,1999-11-10 14:00:00,11.9,1036.2,-1.3,79,8.4,,50.004,,,50,,,,,,,,,,,og-post,,,,AAXX 10144 07020 36/// /0527 10119 20084 30345 40362 56013=
07020,1999-11-10 15:00:00,12,1035.7,-1.1,80,8.7,10000,50.004,,,50,,,,,,,,,,,og-post,,,,AAXX 10154 07020 32560 70527 10120 20087 30340 40357 58011 87400 333 92447=
07020,1999-11-10 16:00:00,12.2,1035.6,-1,79,8.7,,53.708,,,50,,,,,,,,,,,og-post,,,,AAXX 10164 07020 36/// /0529 10122 20087 30339 40356 56010=
07020,1999-11-10 18:00:00,12.3,1035.4,-0.3,79,8.8,10000,61.116,,,50,10.5,12.4,,,,,,,,,og-post,,,,AAXX 10184 07020 32560 70533 10123 20088 30337 40354 55003 87400 333 10124 20105 92447=
07020,1999-11-10 19:00:00,12.2,1035.1,-0.5,77,8.3,,61.116,,,50,,,,,,,,,,,og-post,,,,AAXX 10194 07020 36/// /0533 10122 20083 30334 40351 57005=
07020,1999-11-10 20:00:00,12.2,1034.9,-0.4,77,8.3,,61.116,,,50,,,,,,,,,,,og-post,,,,AAXX 10204 07020 36/// /0533 10122 20083 30332 40349 58004=
07020,1999-11-10 21:00:00,12.1,1035.1,-0.3,78,8.4,,57.412,83.34,,60,,,,,,,,,,,og-post,,,,AAXX 10214 07020 36/// /0631 10121 20084 30334 40351 55003 333 91145=
07020,1999-11-10 22:00:00,12.2,1035,-0.1,70,6.9,,61.116,,,60,,,,,,,,,,,og-post,,,,AAXX 10224 07020 36/// /0633 10122 20069 30333 40350 56001=
07020,1999-11-10 23:00:00,12.1,1035.1,0.2,67,6.2,,61.116,,,60,,,,,,,,,,,og-post,,,,AAXX 10234 07020 36/// /0633 10121 20062 30334 40351 51002=
07020,1999-11-11 00:00:00,12,1035,-0.1,68,6.3,,57.412,83.34,,60,,,,,,,,,,,og-post,,,,AAXX 11004 07020 36/// /0631 10120 20063 30333 40350 57001 333 91145=
07020,1999-11-11 01:00:00,11.7,1034.9,-0.1,61,4.4,,57.412,,,70,,,,,,,,,,,og-post,,,,AAXX 11014 07020 36/// /0731 10117 20044 30332 40349 58001=
07020,1999-11-11 02:00:00,11.6,1034.5,-0.6,67,5.7,,57.412,,,60,,,,,,,,,,,og-post,,,,AAXX 11024 07020 36/// /0631 10116 20057 30328 40345 58006=
07020,1999-11-11 03:00:00,11.5,1034.2,-0.8,74,7,,64.82,,,60,,,,,,,,,,,og-post,,,,AAXX 11034 07020 36/// /0635 10115 20070 30325 40342 58008=
07020,1999-11-11 04:00:00,11.4,1034.3,-0.6,71,6.3,,61.116,79.636,,60,,,,,,,,,,,og-post,,,,AAXX 11044 07020 36/// /0633 10114 20063 30326 40343 55006 333 91143=
07020,1999-11-11 06:00:00,11.4,1034.2,-0,75,7.1,10000,61.116,,,60,11.3,12.4,,,,,,,,,og-post,,,,AAXX 11064 07020 32560 70633 10114 20071 30325 40342 55000 87400 333 10124 20113 92447=
07020,1999-11-11 07:00:00,11.5,1033.9,-0.4,76,7.4,,64.82,,,60,,,,,,,,,,,og-post,,,,AAXX 11074 07020 36/// /0635 10115 20074 30322 40339 56004=
07020,1999-11-11 08:00:00,11.5,1033.9,0,79,8,,61.116,,,60,,,,,,,,,,,og-post,,,,AAXX 11084 07020 36/// /0633 10115 20080 30322 40339 50000=
07020,1999-11-11 09:00:00,11.6,1033.9,-0.3,76,7.5,10000,61.116,,,60,,,,,,,,,,,og-post,,,,AAXX 11094 07020 32660 40633 10116 20075 30322 40339 56003 84400 333 92457=
07020,1999-11-11 10:00:00,11.6,1033.7,-0.2,75,7.3,,61.116,,,60,,,,,,,,,,,og-post,,,,AAXX 11104 07020 36/// /0633 10116 20073 30320 40337 58002=
07020,1999-11-11 11:00:00,11.8,1033.5,-0.4,72,6.9,,61.116,,,60,,,,,,,,,,,og-post,,,,AAXX 11114 07020 36/// /0633 10118 20069 30318 40335 58004=
07020,1999-11-11 12:00:00,12.1,1033,-0.9,69,6.6,10000,61.116,,,60,,,,,,,,,,,og-post,,,,AAXX 11124 07020 32660 70633 10121 20066 30313 40330 58009 87800 333 92457=
07020,1999-11-11 13:00:00,12.1,1032.5,-1.2,65,5.7,,61.116,,,60,,,,,,,,,,,og-post,,,,AAXX 11134 07020 36/// /0633 10121 20057 30308 40325 58012=
07020,1999-11-11 14:00:00,12.3,1032,-1.5,62,5.2,,57.412,,,60,,,,,,,,,,,og-post,,,,AAXX 11144 07020 36/// /0631 10123 20052 30303 40320 57015=
07020,1999-11-11 15:00:00,12,1031.3,-1.7,67,6.1,15000,53.708,,,60,,,,,,,,,,,og-post,,,,AAXX 11154 07020 32665 70629 10120 20061 30296 40313 58017 87200 333 92457=
07020,1999-11-11 16:00:00,11.8,1031,-1.5,59,4.1,,57.412,83.34,,70,,,,,,,,,,,og-post,,,,AAXX 11164 07020 36/// /0731 10118 20041 30293 40310 56015 333 91145=
07020,1999-11-11 17:00:00,11.7,1030.7,-1.3,60,4.2,,61.116,79.636,79.636,70,,,,,,,,,,,og-post,,,,AAXX 11174 07020 36/// /0733 10117 20042 30290 40307 56013 333 91043 91143=
07020,1999-11-11 18:00:00,11.4,1030.7,-0.6,63,4.6,15000,57.412,83.34,,70,11.3,12.4,,,,,,,,,og-post,,,,AAXX 11184 07020 32665 80731 10114 20046 30290 40307 56006 88400 333 10124 20113 91145 92457=
07020,1999-11-11 19:00:00,11.6,1030.4,-0.6,64,5,,64.82,,,60,,,,,,,,,,,og-post,,,,AAXX 11194 07020 36/// /0635 10116 20050 30287 40304 57006=
07020,1999-11-11 20:00:00,11.5,1030.1,-0.6,63,4.7,,57.412,,,70,,,,,,,,,,,og-post,,,,AAXX 11204 07020 36/// /0731 10115 20047 30284 40301 58006=
07020,1999-11-11 21:00:00,11.3,1029.7,-1,66,5.2,,61.116,,,70,,,,,,,,,,,og-post,,,,AAXX 11214 07020 36/// /0733 10113 20052 30280 40297 58010=
07020,1999-11-11 22:00:00,10.6,1029.4,-1,79,7.1,,61.116,,,70,,,0.2,,,,,,,,og-post,,,,AAXX 11224 07020 26/// /0733 10106 20071 30277 40294 57010 333 69925=
07020,1999-11-11 23:00:00,11.2,1029.1,-1,68,5.5,,53.708,,,90,,,,,,,,,,,og-post,,,,AAXX 11234 07020 36/// /0929 10112 20055 30274 40291 56010=
07020,1999-11-12 00:00:00,11,1028.8,-0.9,67,5.1,,53.708,,,90,,,,0.2,0.2,,,,,,og-post,,,,AAXX 12004 07020 /6/// /0929 10110 20051 30271 40288 57009 69921 333 69927=
07020,1999-11-12 01:00:00,11.1,1028.3,-1.1,67,5.2,,50.004,,,80,,,,,,,,,,,og-post,,,,AAXX 12014 07020 36/// /0827 10111 20052 30266 40283 58011=
07020,1999-11-12 02:00:00,10.7,1027.8,-1.3,69,5.3,,50.004,,,90,,,,,,,,,,,og-post,,,,AAXX 12024 07020 36/// /0927 10107 20053 30261 40278 58013=
07020,1999-11-12 03:00:00,10.7,1027.6,-1.2,67,4.8,,50.004,,,80,,,,,,,,,,,og-post,,,,AAXX 12034 07020 36/// /0827 10107 20048 30259 40276 56012=
07020,1999-11-12 04:00:00,10.3,1027.5,-0.8,62,3.3,,50.004,,,90,,,,,,,,,,,og-post,,,,AAXX 12044 07020 36/// /0927 10103 20033 30258 40275 56008=
07020,1999-11-12 05:00:00,10.1,1027.3,-0.5,66,4,,46.3,,,90,,,,,,,,,,,og-post,,,,AAXX 12054 07020 36/// /0925 10101 20040 30256 40273 57005=
07020,1999-11-12 06:00:00,10.2,1026.9,-0.7,67,4.4,15000,50.004,,,90,9.8,11.8,,,,0.2,,,,,og-post,,,,AAXX 12064 07020 12665 80927 10102 20044 30252 40269 58007 69922 88500 333 10118 20098 92457=
07020,1999-11-12 07:00:00,10.3,1027,-0.5,73,5.7,,46.3,,,100,,,,,,,,,,,og-post,,,,AAXX 12074 07020 36/// /1025 10103 20057 30253 40270 55005=
07020,1999-11-12 08:00:00,10.4,1027.1,-0.2,72,5.6,,46.3,,,80,,,,,,,,,,,og-post,,,,AAXX 12084 07020 36/// /0825 10104 20056 30254 40271 55002=
07020,1999-11-12 09:00:00,9.9,1027.5,0.6,70,4.7,10000,46.3,,,100,,,,,,,,,,,og-post,,,,AAXX 12094 07020 32660 71025 10099 20047 30258 40275 53006 87500 333 92457=
07020,1999-11-12 10:00:00,9.9,1027.4,0.4,70,4.7,,46.3,,,100,,,,,,,,,,,og-post,,,,AAXX 12104 07020 36/// /1025 10099 20047 30257 40274 50004=
07020,1999-11-12 11:00:00,10,1027.5,0.4,69,4.6,,46.3,,,90,,,,,,,,,,,og-post,,,,AAXX 12114 07020 36/// /0925 10100 20046 30258 40275 51004=
07020,1999-11-12 12:00:00,10.3,1027.2,-0.3,73,5.7,,46.3,,,90,,,,,,,,,,,og-post,,,,AAXX 12124 07020 36/// /0925 10103 20057 30255 40272 58003=
07020,1999-11-12 13:00:00,10.6,1027,-0.4,66,4.5,,38.892,,,100,,,,,,,,,,,og-post,,,,AAXX 12134 07020 36/// /1021 10106 20045 30253 40270 58004=
07020,1999-11-12 14:00:00,9.9,1026.6,-0.9,71,4.9,,38.892,,,90,,,,,,,,,,,og-post,,,,AAXX 12144 07020 36/// /0921 10099 20049 30249 40266 58009=
07020,1999-11-12 15:00:00,9.9,1026.5,-0.7,73,5.3,12000,42.596,,,90,,,,,,,,,,,og-post,,,,AAXX 12154 07020 32662 70923 10099 20053 30248 40265 56007 87800 333 92437=
07020,1999-11-12 16:00:00,10,1026.3,-0.7,72,5.2,,42.596,,,90,,,,,,,,,,,og-post,,,,AAXX 12164 07020 36/// /0923 10100 20052 30246 40263 56007=
07020,1999-11-12 17:00:00,10.1,1026.4,-0.2,74,5.7,,42.596,,,90,,,,,,,,,,,og-post,,,,AAXX 12174 07020 36/// /0923 10101 20057 30247 40264 55002=
07020,1999-11-12 18:00:00,10.4,1026,-0.5,74,6,12000,42.596,,,90,9.8,10.7,,,,,,,,,og-post,,,,AAXX 12184 07020 32662 70923 10104 20060 30243 40260 58005 87800 333 10107 20098 92447=
07020,1999-11-12 19:00:00,10.3,1025.7,-0.6,,,,50.004,64.82,,80,,,,,,,,,,,og-post,,,,AAXX 12194 07020 36/// /0827 10103 0057 30240 40257 58006 333 91135=
07020,1999-11-12 20:00:00,10.6,1025.5,-0.9,73,6,,53.708,,,90,,,,,,,,,,,og-post,,,,AAXX 12204 07020 36/// /0929 10106 20060 30238 40255 56009=
07020,1999-11-12 21:00:00,10.8,1025.2,-0.8,75,6.6,,57.412,,,80,,,,,,,,,,,og-post,,,,AAXX 12214 07020 36/// /0831 10108 20066 30235 40252 57008=
07020,1999-11-12 22:00:00,10.5,1024.9,-0.8,72,5.7,,53.708,,,90,,,,,,,,,,,og-post,,,,AAXX 12224 07020 36/// /0929 10105 20057 30232 40249 58008=
07020,1999-11-12 23:00:00,10.5,1024.8,-0.7,74,6.1,,53.708,,,80,,,,,,,,,,,og-post,,,,AAXX 12234 07020 36/// /0829 10105 20061 30231 40248 56007=
07020,1999-11-13 00:00:00,10.1,1024.3,-0.9,73,5.5,,50.004,75.932,75.932,80,,,,,,,,,,,og-post,,,,AAXX 13004 07020 36/// /0827 10101 20055 30226 40243 58009 333 91041 91141=
07020,1999-11-13 01:00:00,10,1024.3,-0.6,73,5.4,,50.004,,,80,,,,,,,,,,,og-post,,,,AAXX 13014 07020 36/// /0827 10100 20054 30226 40243 56006=
07020,1999-11-13 02:00:00,9.8,1023.4,-1.4,74,5.4,,50.004,,,80,,,,,,,,,,,og-post,,,,AAXX 13024 07020 36/// /0827 10098 20054 30217 40234 58014=
07020,1999-11-13 03:00:00,9.6,1023,-1.3,71,4.6,,57.412,75.932,,90,,,,,,,,,,,og-post,,,,AAXX 13034 07020 36/// /0931 10096 20046 30213 40230 58013 333 91141=
07020,1999-11-13 04:00:00,9.7,1022.6,-1.7,74,5.3,,53.708,,,90,,,,,,,,,,,og-post,,,,AAXX 13044 07020 36/// /0929 10097 20053 30209 40226 56017=
07020,1999-11-13 05:00:00,9.7,1021.7,-1.7,72,4.9,,61.116,83.34,,80,,,,,,,,,,,og-post,,,,AAXX 13054 07020 36/// /0833 10097 20049 30200 40217 58017 333 91145=
07020,1999-11-13 06:00:00,9.5,1022.1,-0.9,71,4.5,12000,61.116,83.34,,80,9.4,10.9,,,,,,,,,og-post,,,,AAXX 13064 07020 32662 80833 10095 20045 30204 40221 55009 88800 333 10109 20094 91145 92457=
07020,1999-11-13 07:00:00,9.4,1022.6,-0,72,4.6,,53.708,,,90,,,,,,,,,,,og-post,,,,AAXX 13074 07020 36/// /0929 10094 20046 30209 40226 55000=
07020,1999-11-13 08:00:00,9.8,1022.6,0.9,76,5.8,,53.708,,,80,,,,,,,,,,,og-post,,,,AAXX 13084 07020 36/// /0829 10098 20058 30209 40226 51009=
07020,1999-11-13 09:00:00,10.2,1022.7,0.6,77,6.4,6000,57.412,,,80,,,,,,,,,,,og-post,,,,AAXX 13094 07020 32656 70831 10102 20064 30210 40227 51006 87800 333 92456=
07020,1999-11-13 10:00:00,10.5,1022.6,0,75,6.3,,53.708,,,80,,,,,,,,,,,og-post,,,,AAXX 13104 07020 36/// /0829 10105 20063 30209 40226 50000=
07020,1999-11-13 11:00:00,11,1022.3,-0.3,78,7.3,,53.708,,,80,,,,,,,,,,,og-post,,,,AAXX 13114 07020 36/// /0829 10110 20073 30206 40223 58003=
07020,1999-11-13 12:00:00,11.4,1021.9,-0.8,73,6.7,8000,57.412,,,80,,,,,,,,,,,og-post,,,,AAXX 13124 07020 32658 60831 10114 20067 30202 40219 58008 86800 333 92456=
07020,1999-11-13 13:00:00,11.4,1021.4,-1.2,69,5.9,,57.412,94.452,,80,,,,,,,,,,,og-post,,,,AAXX 13134 07020 36/// /0831 10114 20059 30197 40214 58012 333 91151=
07020,1999-11-13 14:00:00,11.6,1020.7,-1.6,71,6.5,,57.412,,,80,,,,,,,,,,,og-post,,,,AAXX 13144 07020 36/// /0831 10116 20065 30190 40207 58016=
07020,1999-11-13 15:00:00,11.2,1020.9,-1,69,5.7,1000,53.708,94.452,94.452,80,,,,,,,,,,,og-post,,,,AAXX 13154 07020 32610 60829 10112 20057 30192 40209 55010 86800 333 91051 91151 92457=
07020,1999-11-13 16:00:00,11.1,1020.9,-0.5,70,5.8,,57.412,79.636,79.636,80,,,,,,,,,,,og-post,,,,AAXX 13164 07020 36/// /0831 10111 20058 30192 40209 56005 333 91043 91143=
07020,1999-11-13 17:00:00,11,1021.3,0.6,70,5.7,,57.412,,,80,,,,,,,,,,,og-post,,,,AAXX 13174 07020 36/// /0831 10110 20057 30196 40213 53006=
07020,1999-11-13 18:00:00,11.4,1021.8,0.9,68,5.7,1000,46.3,94.452,,80,9.4,11.6,,,,,,,,,og-post,,,,AAXX 13184 07020 32610 60825 10114 20057 30201 40218 53009 86800 333 10116 20094 91151 92457=
07020,1999-11-13 19:00:00,11.5,1022,1.1,71,6.4,,46.3,,,70,,,,,,,,,,,og-post,,,,AAXX 13194 07020 36/// /0725 10115 20064 30203 40220 51011=
07020,1999-11-13 20:00:00,11.4,1021.9,0.6,71,6.3,,42.596,,,70,,,,,,,,,,,og-post,,,,AAXX 13204 07020 36/// /0723 10114 20063 30202 40219 50006=
07020,1999-11-13 21:00:00,11.7,1021.9,0.1,75,7.4,,42.596,,,70,,,,,,,,,,,og-post,,,,AAXX 13214 07020 36/// /0723 10117 20074 30202 40219 51001=
07020,1999-11-14 00:00:00,12.5,1021.3,-0.6,84,9.9,,50.004,,,70,,,,,,,,,,,og-post,,,,AAXX 14004 07020 36/// /0727 10125 20099 30196 40213 55006=
07020,1999-11-14 03:00:00,12,1020.1,-1.2,86,9.7,,53.708,,,60,,,,,,,,,,,og-post,,,,AAXX 14034 07020 36/// /0629 10120 20097 30184 40201 56012=
07020,1999-11-14 04:00:00,11.7,1020.3,-0.5,85,9.3,,53.708,,,60,,,,,,,,,,,og-post,,,,AAXX 14044 07020 36/// /0629 10117 20093 30186 40203 55005=
07020,1999-11-14 05:00:00,11.3,1020.3,-0.2,84,8.7,,57.412,,,60,,,,,,,,,,,og-post,,,,AAXX 14054 07020 36/// /0631 10113 20087 30186 40203 56002=
07020,1999-11-14 06:00:00,10.9,1020.5,0.4,85,8.5,10000,46.3,,,60,10.9,12.6,,,,,,,,,og-post,,,,AAXX 14064 07020 32560 70625 10109 20085 30188 40205 52004 874// 333 10126 20109 92447=
07020,1999-11-14 07:00:00,11.1,1020.7,0.4,83,8.3,,42.596,,,60,,,,,,,,,,,og-post,,,,AAXX 14074 07020 36/// /0623 10111 20083 30190 40207 53004=
07020,1999-11-14 08:00:00,11.1,1021,0.7,81,8,,38.892,,,60,,,,,,,,,,,og-post,,,,AAXX 14084 07020 36/// /0621 10111 20080 30193 40210 53007=
07020,1999-11-14 09:00:00,11.5,1021,0.5,77,7.6,6000,38.892,,,60,,,,,,,,,,,og-post,,,,AAXX 14094 07020 32556 80621 10115 20076 30193 40210 51005 884// 333 92446=
07020,1999-11-14 10:00:00,11.5,1020.8,0.1,80,8.2,,46.3,,,60,,,,,,,,,,,og-post,,,,AAXX 14104 07020 36/// /0625 10115 20082 30191 40208 50001=
07020,1999-11-14 11:00:00,11.8,1020.4,-0.6,79,8.3,,46.3,,,50,,,,,,,,,,,og-post,,,,AAXX 14114 07020 36/// /0525 10118 20083 30187 40204 58006=
07020,1999-11-14 12:00:00,12,1020,-1,80,8.7,10000,46.3,,,50,,,,,,,,,,,og-post,,,,AAXX 14124 07020 32560 80525 10120 20087 30183 40200 58010 884// 333 92446=
07020,1999-11-14 13:00:00,12,1019.5,-1.3,80,8.7,,46.3,,,50,,,,,,,,,,,og-post,,,,AAXX 14134 07020 36/// /0525 10120 20087 30178 40195 58013=
07020,1999-11-14 14:00:00,11.9,1019.2,-1.2,79,8.4,,42.596,,,50,,,,,,,,,,,og-post,,,,AAXX 14144 07020 36/// /0523 10119 20084 30175 40192 56012=
07020,1999-11-14 15:00:00,11.9,1018.9,-1.1,82,8.9,15000,50.004,94.452,,50,,,,,,,,,,,og-post,,,,AAXX 14154 07020 32565 80527 10119 20089 30172 40189 56011 884// 333 91151 92447=
07020,1999-11-14 16:00:00,12,1019,-0.5,82,9,,46.3,,,50,,,,,,,,,,,og-post,,,,AAXX 14164 07020 36/// /0525 10120 20090 30173 40190 55005=
07020,1999-11-14 17:00:00,12,1019.1,-0.1,77,8.1,,50.004,,,50,,,,,,,,,,,og-post,,,,AAXX 14174 07020 36/// /0527 10120 20081 30174 40191 55001=
07020,1999-11-14 18:00:00,12,1019.6,0.7,72,7.1,12000,46.3,94.452,,50,10.8,12.1,,,,,,,,,og-post,,,,AAXX 14184 07020 32562 80525 10120 20071 30179 40196 53007 884// 333 10121 20108 91151 92447=
07020,1999-11-14 19:00:00,11.3,1020.1,1.1,74,6.8,,53.708,,,60,,,,,,,,,,,og-post,,,,AAXX 14194 07020 36/// /0629 10113 20068 30184 40201 53011=
07020,1999-11-14 20:00:00,11.1,1020.5,1.4,71,6,,42.596,,,60,,,,,,,,,,,og-post,,,,AAXX 14204 07020 36/// /0623 10111 20060 30188 40205 51014=
07020,1999-11-14 21:00:00,10.9,1020.8,1.2,67,5,,42.596,,,70,,,,,,,,,,,og-post,,,,AAXX 14214 07020 36/// /0723 10109 20050 30191 40208 51012=
07020,1999-11-14 22:00:00,10.8,1020.8,0.7,65,4.5,,38.892,,,70,,,,,,,,,,,og-post,,,,AAXX 14224 07020 36/// /0721 10108 20045 30191 40208 51007=
07020,1999-11-14 23:00:00,10.7,1020.8,0.3,68,5,,38.892,,,60,,,,,,,,,,,og-post,,,,AAXX 14234 07020 36/// /0621 10107 20050 30191 40208 51003=
07020,1999-11-15 00:00:00,10.5,1021,0.2,65,4.2,,38.892,,,60,,,,,,,,,,,og-post,,,,AAXX 15004 07020 36/// /0621 10105 20042 30193 40210 53002=
07020,1999-11-15 01:00:00,10.5,1020.7,-0.1,64,4,,35.188,,,60,,,,,,,,,,,og-post,,,,AAXX 15014 07020 36/// /0619 10105 20040 30190 40207 58001=
07020,1999-11-15 02:00:00,10.5,1020.9,0.1,68,4.9,,31.484,,,50,,,,,,,,,,,og-post,,,,AAXX 15024 07020 36/// /0517 10105 20049 30192 40209 52001=
07020,1999-11-15 03:00:00,10.6,1020.9,-0.1,71,5.6,,31.484,,,60,,,,,,,,,,,og-post,,,,AAXX 15034 07020 36/// /0617 10106 20056 30192 40209 56001=
07020,1999-11-15 04:00:00,10.4,1021,0.3,73,5.8,,35.188,,,50,,,,,,,,,,,og-post,,,,AAXX 15044 07020 36/// /0519 10104 20058 30193 40210 51003=
07020,1999-11-15 05:00:00,10.4,1021.2,0.3,73,5.8,,38.892,,,50,,,,,,,,,,,og-post,,,,AAXX 15054 07020 36/// /0521 10104 20058 30195 40212 53003=
07020,1999-11-15 06:00:00,10.3,1021.5,0.6,75,6.1,15000,35.188,,,50,10.3,12.1,,,,,,,,,og-post,,,,AAXX 15064 07020 32665 80519 10103 20061 30198 40215 53006 88800 333 10121 20103 92437=
07020,1999-11-15 07:00:00,10.4,1021.8,0.8,79,6.9,,35.188,,,60,,,,,,,,,,,og-post,,,,AAXX 15074 07020 36/// /0619 10104 20069 30201 40218 53008=
07020,1999-11-15 08:00:00,10.5,1022,0.8,79,7,,35.188,,,60,,,,,,,,,,,og-post,,,,AAXX 15084 07020 36/// /0619 10105 20070 30203 40220 51008=
07020,1999-11-15 09:00:00,10.9,1022.4,0.9,75,6.6,15000,35.188,,,70,,,,,,,,,,,og-post,,,,AAXX 15094 07020 32565 70719 10109 20066 30207 40224 53009 8800 333 92447=
07020,1999-11-15 10:00:00,11.3,1022.5,0.7,74,6.8,,35.188,,,60,,,,,,,,,,,og-post,,,,AAXX 15104 07020 36/// /0619 10113 20068 30208 40225 51007=
07020,1999-11-15 11:00:00,11.5,1022.6,0.6,68,5.8,,29.632,,,90,,,,,,,,,,,og-post,,,,AAXX 15114 07020 36/// /0916 10115 20058 30209 40226 51006=
07020,1999-11-15 12:00:00,11.7,1022.6,0.2,65,5.3,10000,25.928,,,100,,,,,,,,,,,og-post,,,,AAXX 15124 07020 32660 61014 10117 20053 30209 40226 51002 86800 333 92447=
07020,1999-11-15 13:00:00,11.9,1022.1,-0.4,62,4.9,,22.224,,,110,,,,,,,,,,,og-post,,,,AAXX 15134 07020 36/// /1112 10119 20049 30204 40221 58004=
07020,1999-11-15 14:00:00,11.5,1022.2,-0.4,56,3,,18.52,,,100,,,,,,,,,,,og-post,,,,AAXX 15144 07020 36/// /1010 10115 20030 30205 40222 55004=
07020,1999-11-15 15:00:00,11.2,1022.2,-0.4,51,1.5,10000,18.52,,,90,,,,,,,,,,,og-post,,,,AAXX 15154 07020 32660 30910 10112 20015 30205 40222 56004 83500 333 92437=
07020,1999-11-15 16:00:00,9.6,1022,-0.1,54,0.8,,14.816,,,110,,,,,,,,,,,og-post,,,,AAXX 15164 07020 36/// /1108 10096 20008 30203 40220 58001=
07020,1999-11-15 17:00:00,6.2,1022.3,0.1,67,0.5,,14.816,,,150,,,,,,,,,,,og-post,,,,AAXX 15174 07020 36/// /1508 10062 20005 30206 40223 53001=
07020,1999-11-15 18:00:00,6.9,1022.7,0.5,63,0.4,10000,14.816,,,160,6.2,12,,,,,,,,,og-post,,,,AAXX 15184 07020 32660 61608 10069 20004 30210 40227 53005 86500 333 10120 20062 92437=
07020,1999-11-15 19:00:00,6.3,1023,1,64,0,,14.816,,,160,,,,,,,,,,,og-post,,,,AAXX 15194 07020 36/// /1608 10063 20000 30213 40230 52010=
07020,1999-11-15 20:00:00,6.1,1022.8,0.5,63,-0.4,,18.52,,,160,,,,,,,,,,,og-post,,,,AAXX 15204 07020 36/// /1610 10061 21004 30211 40228 50005=
07020,1999-11-15 21:00:00,5.7,1022.7,0,66,-0.1,,14.816,,,170,,,,,,,,,,,og-post,,,,AAXX 15214 07020 36/// /1708 10057 21001 30210 40227 50000=
07020,1999-11-15 22:00:00,7.2,1022.5,-0.5,63,0.6,,11.112,,,180,,,,,,,,,,,og-post,,,,AAXX 15224 07020 36/// /1806 10072 20006 30208 40225 57005=
07020,1999-11-15 23:00:00,7,1021.6,-1.2,64,0.7,,14.816,,,180,,,,,,,,,,,og-post,,,,AAXX 15234 07020 36/// /1808 10070 20007 30199 40216 58012=
07020,1999-11-16 00:00:00,6.7,1021.5,-1.2,69,1.4,,14.816,,,190,,,,,,,,,,,og-post,,,,AAXX 16004 07020 36/// /1908 10067 20014 30198 40215 56012=
07020,1999-11-16 01:00:00,7.2,1020.9,-1.6,70,2.1,,14.816,,,190,,,,,,,,,,,og-post,,,,AAXX 16014 07020 36/// /1908 10072 20021 30192 40209 56016=
07020,1999-11-16 02:00:00,8.2,1020.4,-1.2,71,3.3,,18.52,,,210,,,,,,,,,,,og-post,,,,AAXX 16024 07020 36/// /2110 10082 20033 30187 40204 58012=
07020,1999-11-16 03:00:00,8.8,1019.6,-1.9,70,3.6,,25.928,,,230,,,,,,,,,,,og-post,,,,AAXX 16034 07020 36/// /2314 10088 20036 30179 40196 58019=
07020,1999-11-16 04:00:00,9.2,1018.9,-2,75,5,,25.928,,,220,,,,,,,,,,,og-post,,,,AAXX 16044 07020 36/// /2214 10092 20050 30172 40189 58020=
07020,1999-11-16 05:00:00,9.5,1018.3,-2.1,84,6.9,,29.632,,,250,,,0.2,,,,,,,,og-post,,,,AAXX 16054 07020 26/// /2516 10095 20069 30166 40183 56021 333 69925=
07020,1999-11-16 06:00:00,9.5,1017.5,-2.1,86,7.3,10000,22.224,,,270,5.5,9.8,,0.2,,0.2,,,,,og-post,,,,AAXX 16064 07020 /2560 82712 10095 20073 30158 40175 58021 69922 88700 333 10098 20055 69927 92437=
07020,1999-11-16 07:00:00,10.4,1017.4,-1.5,78,6.7,,35.188,,,10,,,0.4,,,,,,,,og-post,,,,AAXX 16074 07020 26/// /0119 10104 20067 30157 40174 56015 333 69945=
07020,1999-11-16 08:00:00,10.5,1018.1,-0.2,74,6.1,,38.892,,,10,,,,,,,,,,,og-post,,,,AAXX 16084 07020 36/// /0121 10105 20061 30164 40181 55002=
07020,1999-11-16 09:00:00,10.4,1018.4,0.9,70,5.2,15000,42.596,,,350,,,,0.4,,,,,,,og-post,,,,AAXX 16094 07020 22665 73523 10104 20052 30167 40184 53009 87800 333 69947 92447=
07020,1999-11-16 10:00:00,10.3,1018.5,1.1,67,4.5,,42.596,,,350,,,,,,,,,,,og-post,,,,AAXX 16104 07020 36/// /3523 10103 20045 30168 40185 51011=
07020,1999-11-16 11:00:00,10.4,1018.5,0.4,71,5.4,,42.596,,,350,,,,,,,,,,,og-post,,,,AAXX 16114 07020 36/// /3523 10104 20054 30168 40185 51004=
07020,1999-11-16 12:00:00,10.4,1018.2,-0.2,71,5.4,15000,35.188,,,340,,,,,0.4,,,,,,og-post,,,,AAXX 16124 07020 12665 73419 10104 20054 30165 40182 58002 69941 87400 333 92447=
07020,1999-11-16 13:00:00,10.6,1017.6,-0.9,67,4.7,,35.188,,,330,,,,,,,,,,,og-post,,,,AAXX 16134 07020 36/// /3319 10106 20047 30159 40176 58009=
07020,1999-11-16 14:00:00,10.8,1017.1,-1.4,62,3.8,,38.892,,,320,,,,,,,,,,,og-post,,,,AAXX 16144 07020 36/// /3221 10108 20038 30154 40171 58014=
07020,1999-11-16 15:00:00,,,,,,15000,,,,,,,,,,,,,,,og-post,,,,AAXX 16154 07020 42665 7//// 1//// 2//// 3//// 4//// 87800 333 92447=
07020,1999-11-16 16:00:00,10.4,1016.5,-1.1,66,4.3,,46.3,72.228,,330,,,0.2,,,,,,,,og-post,,,,AAXX 16164 07020 26/// /3325 10104 20043 30148 40165 56011 333 69925 91139=
07020,1999-11-16 17:00:00,10.4,1016.8,-0.3,68,4.8,,42.596,,,340,,,,,,,,,,,og-post,,,,AAXX 16174 07020 36/// /3423 10104 20048 30151 40168 55003=
07020,1999-11-16 18:00:00,9.7,1016.9,0.2,63,3,15000,57.412,,75.932,10,9.3,11.2,,0.2,,,,,,,og-post,,,,AAXX 16184 07020 22665 50131 10097 20030 30152 40169 53002 85800 333 10112 20093 69927 91041 92447=
07020,1999-11-16 19:00:00,9.2,1017.2,0.7,72,4.4,,46.3,79.636,,310,,,0.2,,,,,,,,og-post,,,,AAXX 16194 07020 26/// /3125 10092 20044 30155 40172 52007 333 69925 91143=
07020,1999-11-16 20:00:00,9.6,1017.4,0.6,67,3.8,,53.708,83.34,,360,,,0.2,,,,,,,,og-post,,,,AAXX 16204 07020 26/// /3629 10096 20038 30157 40174 53006 333 69925 91145=
07020,1999-11-16 21:00:00,9.6,1018,1.1,64,3.1,,50.004,83.34,,360,,,,0.4,,,,,,,og-post,,,,AAXX 16214 07020 26/// /3627 10096 20031 30163 40180 53011 333 69947 91145=
07020,1999-11-16 22:00:00,9.7,1018.1,0.9,65,3.4,,50.004,,,340,,,,,,,,,,,og-post,,,,AAXX 16224 07020 36/// /3427 10097 20034 30164 40181 51009=
07020,1999-11-16 23:00:00,9.8,1018,0.6,69,4.4,,46.3,,,340,,,,,,,,,,,og-post,,,,AAXX 16234 07020 36/// /3425 10098 20044 30163 40180 50006=
07020,1999-11-17 00:00:00,9.8,1017.7,-0.3,68,4.2,,46.3,83.34,,330,,,,,0.4,,,,,,og-post,,,,AAXX 17004 07020 16/// /3325 10098 20042 30160 40177 58003 69941 333 91145=
07020,1999-11-17 01:00:00,10,1017.5,-0.6,70,4.8,,46.3,,,330,,,,,,,,,,,og-post,,,,AAXX 17014 07020 36/// /3325 10100 20048 30158 40175 58006=
07020,1999-11-17 02:00:00,10,1017.5,-0.5,71,5,,46.3,,,330,,,,,,,,,,,og-post,,,,AAXX 17024 07020 36/// /3325 10100 20050 30158 40175 56005=
07020,1999-11-17 03:00:00,9.3,1017.1,-0.6,74,4.9,,50.004,72.228,72.228,340,,,,0.2,,,,,,,og-post,,,,AAXX 17034 07020 26/// /3427 10093 20049 30154 40171 58006 333 69927 91039 91139=
07020,1999-11-17 04:00:00,10,1016.7,-0.8,74,5.6,,53.708,72.228,,340,,,0.4,,,,,,,,og-post,,,,AAXX 17044 07020 26/// /3429 10100 20056 30150 40167 58008 333 69945 91139=
07020,1999-11-17 05:00:00,9.7,1016.8,-0.7,72,4.9,,50.004,,,320,,,,,,,,,,,og-post,,,,AAXX 17054 07020 36/// /3227 10097 20049 30151 40168 55007=
07020,1999-11-17 06:00:00,9.8,1017,-0.1,74,5.4,12000,57.412,72.228,,340,7.8,10.1,,0.4,,1,,,,,og-post,,,,AAXX 17064 07020 /2662 73431 10098 20054 30153 40170 55001 60012 87800 333 10101 20078 69947 91139 92457=
07020,1999-11-17 07:00:00,9.4,1017.9,1.2,69,4,,50.004,,,10,,,,,,,,,,,og-post,,,,AAXX 17074 07020 36/// /0127 10094 20040 30162 40179 53012=
07020,1999-11-17 08:00:00,9.2,1018.7,1.9,67,3.4,,46.3,,,360,,,,,,,,,,,og-post,,,,AAXX 17084 07020 36/// /3625 10092 20034 30170 40187 53019=
07020,1999-11-17 09:00:00,9,1019.3,2.3,63,2.3,16000,42.596,,,360,,,,,,,,,,,og-post,,,,AAXX 17094 07020 32666 73623 10090 20023 30176 40193 51023 87500 333 92447=
07020,1999-11-17 10:00:00,9.1,1019.9,2,68,3.5,,42.596,,,10,,,,,,,,,,,og-post,,,,AAXX 17104 07020 36/// /0123 10091 20035 30182 40199 51020=
07020,1999-11-17 11:00:00,9,1020.4,1.7,67,3.2,,38.892,,,10,,,,,,,,,,,og-post,,,,AAXX 17114 07020 36/// /0121 10090 20032 30187 40204 51017=
07020,1999-11-17 12:00:00,9.1,1020.4,1.1,65,2.9,16000,35.188,,,10,,,,,,,,,,,og-post,,,,AAXX 17124 07020 32666 60119 10091 20029 30187 40204 51011 86500 333 92447=
07020,1999-11-17 13:00:00,9,1020.7,0.8,66,3,,38.892,,,360,,,,,,,,,,,og-post,,,,AAXX 17134 07020 36/// /3621 10090 20030 30190 40207 51008=
07020,1999-11-17 14:00:00,9,1020.5,0.1,68,3.4,,31.484,,,10,,,,,,,,,,,og-post,,,,AAXX 17144 07020 36/// /0117 10090 20034 30188 40205 50001=
07020,1999-11-17 15:00:00,8.9,1020.5,0.1,64,2.5,16000,31.484,,,10,,,,,,,,,,,og-post,,,,AAXX 17154 07020 32666 60117 10089 20025 30188 40205 51001 86500 333 92447=
07020,1999-11-17 16:00:00,8.9,1020.7,-0,64,2.5,,35.188,,,10,,,,,,,,,,,og-post,,,,AAXX 17164 07020 36/// /0119 10089 20025 30190 40207 55000=
07020,1999-11-17 17:00:00,8.9,1020.9,0.4,61,1.8,,35.188,,,360,,,,,,,,,,,og-post,,,,AAXX 17174 07020 36/// /3619 10089 20018 30192 40209 53004=
07020,1999-11-17 18:00:00,9,1021.5,1,57,1,16000,31.484,,,360,8.7,9.8,,,,,,,,,og-post,,,,AAXX 17184 07020 32666 63617 10090 20010 30198 40215 53010 86800 333 10098 20087 92447=
07020,1999-11-17 19:00:00,8.8,1021.3,0.6,55,0.3,,25.928,,,20,,,,,,,,,,,og-post,,,,AAXX 17194 07020 36/// /0214 10088 20003 30196 40213 50006=
07020,1999-11-17 20:00:00,9.5,1021.1,0.2,63,2.8,,35.188,,,330,,,,,,,,,,,og-post,,,,AAXX 17204 07020 36/// /3319 10095 20028 30194 40211 50002=
07020,1999-11-17 21:00:00,9.6,1020.9,-0.6,66,3.6,,31.484,,,340,,,,,,,,,,,og-post,,,,AAXX 17214 07020 36/// /3417 10096 20036 30192 40209 57006=
07020,1999-11-17 22:00:00,8.8,1020.5,-0.8,73,4.2,,29.632,,,330,,,0.2,,,,,,,,og-post,,,,AAXX 17224 07020 26/// /3316 10088 20042 30188 40205 58008 333 69925=
07020,1999-11-17 23:00:00,8.5,1019.4,-1.7,76,4.5,,25.928,,,300,,,,,,,,,,,og-post,,,,AAXX 17234 07020 36/// /3014 10085 20045 30177 40194 58017=
07020,1999-11-18 00:00:00,8.8,1018.4,-2.5,81,5.7,,25.928,,,290,,,,0.8,0.8,,,,,,og-post,,,,AAXX 18004 07020 /6/// /2914 10088 20057 30167 40184 58025 69981 333 69987=
07020,1999-11-18 01:00:00,8.6,1017.2,-3.3,86,6.4,,25.928,,,270,,,0.8,,,,,,,,og-post,,,,AAXX 18014 07020 26/// /2714 10086 20064 30155 40172 58033 333 69985=
07020,1999-11-18 02:00:00,8.9,1015.5,-3.9,90,7.4,,31.484,,,260,,,0.8,,,,,,,,og-post,,,,AAXX 18024 07020 26/// /2617 10089 20074 30138 40155 58039 333 69985=
07020,1999-11-18 03:00:00,9.8,1013.8,-4.6,94,8.9,,38.892,,,250,,,,2,,,,,,,og-post,,,,AAXX 18034 07020 26/// /2521 10098 20089 30121 40138 58046 333 60027=
07020,1999-11-18 04:00:00,11.1,1011.9,-5.3,92,9.8,,42.596,,,280,,,1,,,,,,,,og-post,,,,AAXX 18044 07020 26/// /2823 10111 20098 30102 40119 58053 333 60015=
07020,1999-11-18 05:00:00,11.3,1011.3,-4.2,88,9.4,,46.3,,,300,,,,,,,,,,,og-post,,,,AAXX 18054 07020 36/// /3025 10113 20094 30096 40113 56042=
07020,1999-11-18 06:00:00,11.3,1010.2,-3.6,89,9.6,12000,50.004,,,310,8.2,11.7,,1,,5,,,,61,og-post,,,,AAXX 18064 07020 /1662 83127 10113 20096 30085 40102 56036 60052 761// 88700 333 10117 20082 60017 92447=
07020,1999-11-18 07:00:00,11.5,1009.7,-2.2,88,9.6,,53.708,,,320,,,1,,,,,,,,og-post,,,,AAXX 18074 07020 26/// /3229 10115 20096 30080 40097 56022 333 60015=
07020,1999-11-18 08:00:00,11.6,1009.3,-2,85,9.2,,46.3,,,320,,,,,,,,,,,og-post,,,,AAXX 18084 07020 36/// /3225 10116 20092 30076 40093 56020=
07020,1999-11-18 09:00:00,9.9,1009.5,-0.7,90,8.3,5000,38.892,,,50,,,,2,,,,,,60,og-post,,,,AAXX 18094 07020 21550 80521 10099 20083 30078 40095 55007 76062 88700 333 60027 92446=
07020,1999-11-18 10:00:00,8.4,1010.1,0.4,92,7.2,,35.188,,,60,,,0.4,,,,,,,,og-post,,,,AAXX 18104 07020 26/// /0619 10084 20072 30084 40101 53004 333 69945=
07020,1999-11-18 11:00:00,8.2,1010.3,1,86,6,,35.188,,,50,,,,,,,,,,,og-post,,,,AAXX 18114 07020 26/// /0519 10082 20060 30086 40103 52010 333 69905=
07020,1999-11-18 12:00:00,8.4,1010,0.5,78,4.8,15000,38.892,,,50,,,,0.4,2,,,,,21,og-post,,,,AAXX 18124 07020 /1665 80521 10084 20048 30083 40100 50005 60021 72162 88400 333 69947 92447=
07020,1999-11-18 13:00:00,8.3,1010.1,0,74,3.9,,38.892,,,40,,,,,,,,,,,og-post,,,,AAXX 18134 07020 36/// /0421 10083 20039 30084 40101 50000=
07020,1999-11-18 15:00:00,7.8,1011.2,1.2,66,1.9,10000,46.3,,,20,,,,,,,,,,,og-post,,,,AAXX 18154 07020 32660 70225 10078 20019 30095 40112 53012 87400 333 92447=
07020,1999-11-18 16:00:00,7.6,1011.9,1.8,63,1,,50.004,,,20,,,,,,,,,,,og-post,,,,AAXX 18164 07020 36/// /0227 10076 20010 30102 40119 53018=
07020,1999-11-18 19:00:00,7,1014.6,2.7,64,0.7,,53.708,,,30,,,,,,,,,,,og-post,,,,AAXX 18194 07020 36/// /0329 10070 20007 30129 40146 51027=
07020,1999-11-18 20:00:00,7.3,1014.8,1.8,68,1.8,,50.004,,,20,,,,,,,,,,,og-post,,,,AAXX 18204 07020 36/// /0227 10073 20018 30131 40148 51018=
07020,1999-11-18 21:00:00,7.2,1015.4,1.6,70,2.1,,57.412,75.932,,30,,,,,,,,,,,og-post,,,,AAXX 18214 07020 36/// /0331 10072 20021 30137 40154 51016 333 91141=
07020,1999-11-18 22:00:00,7.3,1016.1,1.5,72,2.6,,53.708,,,20,,,,,,,,,,,og-post,,,,AAXX 18224 07020 36/// /0229 10073 20026 30144 40161 53015=
07020,1999-11-18 23:00:00,7.3,1016.9,2.1,72,2.6,,46.3,,,30,,,,,,,,,,,og-post,,,,AAXX 18234 07020 36/// /0325 10073 20026 30152 40169 53021=
07020,1999-11-19 00:00:00,7.3,1017.6,2.2,71,2.4,,46.3,75.932,,20,,,,,,,,,,,og-post,,,,AAXX 19004 07020 36/// /0225 10073 20024 30159 40176 52022 333 91141=
07020,1999-11-19 01:00:00,7.7,1018,1.9,75,3.6,,46.3,,,20,,,,,,,,,,,og-post,,,,AAXX 19014 07020 36/// /0225 10077 20036 30163 40180 51019=
07020,1999-11-19 02:00:00,8.1,1018.3,1.4,76,4.1,,46.3,,,10,,,,,,,,,,,og-post,,,,AAXX 19024 07020 36/// /0125 10081 20041 30166 40183 51014=
07020,1999-11-19 03:00:00,8.1,1018.4,0.8,75,3.9,,46.3,,,20,,,,,,,,,,,og-post,,,,AAXX 19034 07020 36/// /0225 10081 20039 30167 40184 51008=
07020,1999-11-19 04:00:00,8.3,1018.5,0.5,75,4.1,,50.004,,,20,,,,,,,,,,,og-post,,,,AAXX 19044 07020 36/// /0227 10083 20041 30168 40185 51005=
07020,1999-11-19 06:00:00,8,1017.9,-0.5,75,3.8,10000,53.708,,,20,7,8.4,,,,,,,,,og-post,,,,AAXX 19064 07020 32660 70229 10080 20038 30162 40179 58005 874// 333 10084 20070 92447=
07020,1999-11-19 07:00:00,7.8,1018.2,-0.3,76,3.8,,50.004,,,20,,,,,,,,,,,og-post,,,,AAXX 19074 07020 36/// /0227 10078 20038 30165 40182 55003=
07020,1999-11-19 08:00:00,7.7,1018.2,-0.3,75,3.6,,50.004,68.524,,20,,,,,,,,,,,og-post,,,,AAXX 19084 07020 36/// /0227 10077 20036 30165 40182 56003 333 91137=
07020,1999-11-19 09:00:00,7.7,1018.6,0.7,75,3.6,10000,50.004,,,20,,,,,,,,,,,og-post,,,,AAXX 19094 07020 32660 70227 10077 20036 30169 40186 53007 874// 333 92447=
07020,1999-11-19 10:00:00,7.9,1018.4,0.2,76,3.9,,57.412,,,30,,,,,,,,,,,og-post,,,,AAXX 19104 07020 36/// /0331 10079 20039 30167 40184 50002=
07020,1999-11-19 11:00:00,8,1018.3,0.1,73,3.5,,57.412,,,20,,,,,,,,,,,og-post,,,,AAXX 19114 07020 36/// /0231 10080 20035 30166 40183 50001=
07020,1999-11-19 12:00:00,8.3,1018.6,-0,69,3,12000,57.412,,,30,,,,,,,,,,,og-post,,,,AAXX 19124 07020 32662 70331 10083 20030 30169 40186 55000 874// 333 92457=
07020,1999-11-19 13:00:00,8.5,1018.7,0.3,71,3.6,,57.412,,,30,,,,,,,,,,,og-post,,,,AAXX 19134 07020 36/// /0331 10085 20036 30170 40187 53003=
07020,1999-11-19 14:00:00,8.9,1018.6,0.3,71,3.9,,50.004,,,30,,,,,,,,,,,og-post,,,,AAXX 19144 07020 36/// /0327 10089 20039 30169 40186 50003=
07020,1999-11-19 15:00:00,9.1,1018.7,0.1,69,3.7,12000,53.708,,,40,,,,,,,,,,,og-post,,,,AAXX 19154 07020 32662 70429 10091 20037 30170 40187 52001 874// 333 92457=
07020,1999-11-19 16:00:00,9.4,1019.2,0.5,70,4.2,,57.412,75.932,,50,,,,,,,,,,,og-post,,,,AAXX 19164 07020 36/// /0531 10094 20042 30175 40192 53005 333 91141=
07020,1999-11-19 17:00:00,9,1019.5,0.9,71,4,,61.116,,,50,,,,,,,,,,,og-post,,,,AAXX 19174 07020 36/// /0533 10090 20040 30178 40195 53009=
07020,1999-11-19 18:00:00,9,1020.3,1.6,74,4.6,,57.412,,,50,7.5,9.6,,,,,,,,,og-post,,,,AAXX 19184 07020 36/// /0531 10090 20046 30186 40203 53016 333 10096 20075=
07020,1999-11-19 19:00:00,8.9,1020.4,1.2,74,4.5,,57.412,,,50,,,,,,,,,,,og-post,,,,AAXX 19194 07020 36/// /0531 10089 20045 30187 40204 51012=
07020,1999-11-19 20:00:00,8.6,1020.8,1.3,74,4.2,,53.708,,,50,,,,,,,,,,,og-post,,,,AAXX 19204 07020 36/// /0529 10086 20042 30191 40208 51013=
07020,1999-11-19 21:00:00,8.4,1021.1,0.8,73,3.8,,50.004,,,50,,,,,,,,,,,og-post,,,,AAXX 19214 07020 36/// /0527 10084 20038 30194 40211 53008=
07020,1999-11-19 22:00:00,8.7,1021.3,0.9,76,4.7,,50.004,,,50,,,,,,,,,,,og-post,,,,AAXX 19224 07020 36/// /0527 10087 20047 30196 40213 51009=
07020,1999-11-19 23:00:00,8.5,1021.5,0.7,76,4.5,,50.004,,,50,,,,,,,,,,,og-post,,,,AAXX 19234 07020 36/// /0527 10085 20045 30198 40215 51007=
07020,1999-11-20 00:00:00,8.4,1022.1,1,76,4.4,,53.708,,,50,,,,,,,,,,,og-post,,,,AAXX 20004 07020 36/// /0529 10084 20044 30204 40221 53010=
07020,1999-11-20 01:00:00,8.5,1021.8,0.5,79,5.1,,53.708,,,50,,,,,,,,,,,og-post,,,,AAXX 20014 07020 36/// /0529 10085 20051 30201 40218 50005=
07020,1999-11-20 02:00:00,8.6,1021.8,0.3,77,4.8,,53.708,,,50,,,,,,,,,,,og-post,,,,AAXX 20024 07020 36/// /0529 10086 20048 30201 40218 51003=
07020,1999-11-20 03:00:00,8.3,1021.7,-0.4,77,4.5,,53.708,,,50,,,,,,,,,,,og-post,,,,AAXX 20034 07020 36/// /0529 10083 20045 30200 40217 56004=
07020,1999-11-20 04:00:00,8.6,1021.5,-0.3,76,4.6,,57.412,,,50,,,,,,,,,,,og-post,,,,AAXX 20044 07020 36/// /0531 10086 20046 30198 40215 58003=
07020,1999-11-20 05:00:00,8.2,1021.5,-0.3,77,4.4,,57.412,79.636,,50,,,,,,,,,,,og-post,,,,AAXX 20054 07020 36/// /0531 10082 20044 30198 40215 56003 333 91143=
07020,1999-11-20 06:00:00,8,1021.6,-0.1,77,4.2,12000,57.412,79.636,,50,8,9.1,,,,,,,,,og-post,,,,AAXX 20064 07020 32662 60531 10080 20042 30199 40216 55001 86800 333 10091 20080 91143 92457=
07020,1999-11-21 09:00:00,6.1,1019.3,0.7,85,3.8,6000,31.484,64.82,,90,,,,3,,,,,,80,og-post,,,,AAXX 21094 07020 21656 80917 10061 20038 30176 40193 53007 78022 888// 333 60037 91135 92446=
07020,1999-11-21 11:00:00,6.4,1019.2,0.2,69,1.1,,29.632,,,80,,,0.2,,,,,,,,og-post,,,,AAXX 21114 07020 26/// /0816 10064 20011 30175 40192 50002 333 69925=
07020,1999-11-21 12:00:00,6.7,1019,-0.3,67,1,10000,25.928,64.82,,90,,,,0.2,3,,,,,25,og-post,,,,AAXX 21124 07020 /1660 80914 10067 20010 30173 40190 58003 60031 72522 888// 333 69927 91135 92437=
07020,1999-11-21 13:00:00,6.6,1018.8,-0.5,69,1.3,,25.928,,,70,,,,,,,,,,,og-post,,,,AAXX 21134 07020 36/// /0714 10066 20013 30171 40188 58005=
07020,1999-11-21 14:00:00,6.5,1018.4,-0.8,68,1,,18.52,,,90,,,,,,,,,,,og-post,,,,AAXX 21144 07020 36/// /0910 10065 20010 30167 40184 58008=
07020,1999-11-21 15:00:00,5.9,1018.4,-0.6,78,2.4,10000,14.816,,,80,,,,0.2,,,,,,2,og-post,,,,AAXX 21154 07020 21660 80808 10059 20024 30167 40184 56006 70262 888// 333 69927 92437=
07020,1999-11-21 16:00:00,6.2,1018,-0.8,76,2.3,,7.408,,,70,,,,,,,,,,,og-post,,,,AAXX 21164 07020 36/// /0704 10062 20023 30163 40180 57008=
07020,1999-11-21 17:00:00,7.5,1017.8,-0.6,69,2.2,,29.632,,,50,,,,,,,,,,,og-post,,,,AAXX 21174 07020 36/// /0516 10075 20022 30161 40178 58006=
07020,1999-11-21 18:00:00,7.9,1017.8,-0.6,70,2.8,10000,29.632,,,40,5.5,7.9,,,,3,,,,2,og-post,,,,AAXX 21184 07020 11660 80416 10079 20028 30161 40178 56006 60032 70262 888// 222// 336// 333 10079 20055 92437=
07020,1999-11-21 19:00:00,7.7,1018,-0,62,0.9,,25.928,,,50,,,,,,,,,,,og-post,,,,AAXX 21194 07020 36/// /0514 10077 20009 30163 40180 55000=
07020,1999-11-21 20:00:00,7.9,1018.1,0.3,65,1.7,,25.928,,,40,,,,,,,,,,,og-post,,,,AAXX 21204 07020 36/// /0414 10079 20017 30164 40181 53003=
07020,1999-11-21 21:00:00,7.9,1018.1,0.3,67,2.2,,25.928,,,40,,,,,,,,,,,og-post,,,,AAXX 21214 07020 36/// /0414 10079 20022 30164 40181 51003=
07020,1999-11-21 22:00:00,8,1018,0,61,1,,22.224,,,20,,,,,,,,,,,og-post,,,,AAXX 21224 07020 36/// /0212 10080 20010 30163 40180 50000=
07020,1999-11-21 23:00:00,7.9,1018,-0.1,66,2,,25.928,,,20,,,,,,,,,,,og-post,,,,AAXX 21234 07020 36/// /0214 10079 20020 30163 40180 57001=
07020,1999-11-22 00:00:00,7.7,1017.9,-0.2,66,1.8,,25.928,,,40,,,,,,,,,,,og-post,,,,AAXX 22004 07020 36/// /0414 10077 20018 30162 40179 57002=
07020,1999-11-22 01:00:00,7.8,1017.5,-0.5,64,1.4,,18.52,,,10,,,,,,,,,,,og-post,,,,AAXX 22014 07020 36/// /0110 10078 20014 30158 40175 58005=
07020,1999-11-22 02:00:00,7.8,1017.4,-0.6,61,0.8,,18.52,,,360,,,,,,,,,,,og-post,,,,AAXX 22024 07020 36/// /3610 10078 20008 30157 40174 57006=
07020,1999-11-22 03:00:00,7.8,1017.3,-0.6,68,2.3,,14.816,,,330,,,,,,,,,,,og-post,,,,AAXX 22034 07020 36/// /3308 10078 20023 30156 40173 56006=
07020,1999-11-22 04:00:00,8.1,1017,-0.5,66,2.1,,18.52,,,330,,,,,,,,,,,og-post,,,,AAXX 22044 07020 36/// /3310 10081 20021 30153 40170 58005=
07020,1999-11-22 05:00:00,8.5,1017,-0.4,64,2.1,,18.52,,,310,,,,,,,,,,,og-post,,,,AAXX 22054 07020 36/// /3110 10085 20021 30153 40170 56004=
07020,1999-11-22 06:00:00,9.1,1017.1,-0.2,71,4.1,15000,29.632,,,320,7.6,9.1,,,,,,,,,og-post,,,,AAXX 22064 07020 32665 83216 10091 20041 30154 40171 55002 888// 333 10091 20076 92437=
07020,1999-11-22 07:00:00,8.6,1017.4,0.4,70,3.4,,35.188,,,300,,,,,,,,,,,og-post,,,,AAXX 22074 07020 36/// /3019 10086 20034 30157 40174 53004=
07020,1999-11-22 08:00:00,8.6,1017.6,0.6,78,5,,31.484,,,300,,,,,,,,,,,og-post,,,,AAXX 22084 07020 36/// /3017 10086 20050 30159 40176 53006=
07020,1999-11-22 09:00:00,7.8,1017.7,0.6,81,4.7,4000,29.632,,,290,,,,,,,,,,60,og-post,,,,AAXX 22094 07020 21540 82916 10078 20047 30160 40177 51006 76062 888// 333 69907 92426=
07020,1999-11-22 10:00:00,7.8,1017.6,0.2,82,4.9,,22.224,,,270,,,0.4,,,,,,,,og-post,,,,AAXX 22104 07020 26/// /2712 10078 20049 30159 40176 50002 333 69945=
07020,1999-11-22 11:00:00,8.2,1017.5,-0.1,91,6.8,,29.632,,,260,,,0.2,,,,,,,,og-post,,,,AAXX 22114 07020 26/// /2616 10082 20068 30158 40175 58001 333 69925=
07020,1999-11-22 12:00:00,8.6,1017.2,-0.5,92,7.4,4000,31.484,,,250,,,,0.8,0.8,,,,,21,og-post,,,,AAXX 22124 07020 /1540 82517 10086 20074 30155 40172 58005 69981 72162 887// 333 69987 92426=
07020,1999-11-22 13:00:00,9.8,1016.8,-0.8,95,9,,29.632,,,250,,,,,,,,,,,og-post,,,,AAXX 22134 07020 36/// /2516 10098 20090 30151 40168 58008=
07020,1999-11-22 14:00:00,10.5,1016.5,-1,93,9.4,,18.52,,,300,,,,,,,,,,,og-post,,,,AAXX 22144 07020 36/// /3010 10105 20094 30148 40165 57010=
07020,1999-11-22 15:00:00,11.1,1016.7,-0.5,87,9,5000,25.928,,,330,,,,,,,,,,,og-post,,,,AAXX 22154 07020 32650 83314 10111 20090 30150 40167 55005 884// 333 92429=
07020,1999-11-22 16:00:00,11.1,1017.2,0.4,90,9.5,,29.632,,,320,,,,,,,,,,,og-post,,,,AAXX 22164 07020 36/// /3216 10111 20095 30155 40172 53004=
07020,1999-11-22 17:00:00,11.2,1017.7,1.2,85,8.8,,29.632,,,340,,,,,,,,,,,og-post,,,,AAXX 22174 07020 36/// /3416 10112 20088 30160 40177 53012=
07020,1999-11-22 18:00:00,11.1,1018.4,1.7,83,8.3,,31.484,,,330,7.6,11.3,,,,0.8,,,,,og-post,,,,AAXX 22184 07020 16/// /3317 10111 20083 30167 40184 53017 69982 333 10113 20076=
07020,1999-11-22 19:00:00,10.8,1019.1,1.9,77,6.9,,35.188,,,330,,,,,,,,,,,og-post,,,,AAXX 22194 07020 36/// /3319 10108 20069 30174 40191 53019=
07020,1999-11-22 20:00:00,10.5,1019.5,1.8,78,6.8,,31.484,,,320,,,,,,,,,,,og-post,,,,AAXX 22204 07020 36/// /3217 10105 20068 30178 40195 51018=
07020,1999-11-22 21:00:00,10.4,1020.1,1.7,76,6.4,,29.632,,,330,,,,,,,,,,,og-post,,,,AAXX 22214 07020 36/// /3316 10104 20064 30184 40201 51017=
07020,1999-11-22 22:00:00,10.6,1020.5,1.4,77,6.7,,31.484,,,330,,,,,,,,,,,og-post,,,,AAXX 22224 07020 36/// /3317 10106 20067 30188 40205 52014=
07020,1999-11-22 23:00:00,10.6,1021,1.5,79,7.1,,29.632,,,320,,,,,,,,,,,og-post,,,,AAXX 22234 07020 36/// /3216 10106 20071 30193 40210 51015=
07020,1999-11-23 00:00:00,10.8,1021.3,1.2,79,7.3,,29.632,,,310,,,,,,,,,,,og-post,,,,AAXX 23004 07020 36/// /3116 10108 20073 30196 40213 51012=
07020,1999-11-23 01:00:00,11.3,1021.3,0.8,80,8,,25.928,,,300,,,,,,,,,,,og-post,,,,AAXX 23014 07020 36/// /3014 10113 20080 30196 40213 51008=
07020,1999-11-23 02:00:00,11.5,1021.4,0.4,82,8.5,,29.632,,,300,,,1,,,,,,,,og-post,,,,AAXX 23024 07020 26/// /3016 10115 20085 30197 40214 51004 333 60015=
07020,1999-11-23 03:00:00,11.6,1021.4,0.1,83,8.8,,31.484,,,290,,,,1,,,,,,,og-post,,,,AAXX 23034 07020 26/// /2917 10116 20088 30197 40214 52001 333 60017=
07020,1999-11-23 04:00:00,11.7,1021.5,0.2,82,8.7,,29.632,,,290,,,,,,,,,,,og-post,,,,AAXX 23044 07020 36/// /2916 10117 20087 30198 40215 52002=
07020,1999-11-23 05:00:00,11.9,1021.7,0.3,82,8.9,,29.632,,,300,,,,,,,,,,,og-post,,,,AAXX 23054 07020 36/// /3016 10119 20089 30200 40217 53003=
07020,1999-11-23 06:00:00,11.7,1022,0.6,81,8.6,,22.224,,,290,10.3,12.1,,,,1,,,,,og-post,,,,AAXX 23064 07020 16/// /2912 10117 20086 30203 40220 53006 60012 333 10121 20103=
07020,1999-11-23 07:00:00,12.2,1022.2,0.7,84,9.6,,29.632,,,300,,,,,,,,,,,og-post,,,,AAXX 23074 07020 36/// /3016 10122 20096 30205 40222 52007=
07020,1999-11-23 08:00:00,12.2,1022.8,1.1,84,9.6,,29.632,,,300,,,,,,,,,,,og-post,,,,AAXX 23084 07020 36/// /3016 10122 20096 30211 40228 53011=
07020,1999-11-23 09:00:00,12.2,1023.2,1.2,85,9.8,12000,22.224,,,300,,,,,,,,,,,og-post,,,,AAXX 23094 07020 32662 83012 10122 20098 30215 40232 53012 884// 333 92427=
07020,1999-11-23 10:00:00,12.3,1023.6,1.4,85,9.9,,25.928,,,290,,,,,,,,,,,og-post,,,,AAXX 23104 07020 36/// /2914 10123 20099 30219 40236 51014=
07020,1999-11-23 11:00:00,12.5,1023.8,1,85,10,,22.224,,,300,,,,,,,,,,,og-post,,,,AAXX 23114 07020 26/// /3012 10125 20100 30221 40238 51010 333 69905=
07020,1999-11-23 12:00:00,12.7,1023.7,0.5,84,10.1,12000,18.52,,,280,,,,,,,,,,2,og-post,,,,AAXX 23124 07020 /1662 72810 10127 20101 30220 40237 50005 69901 70262 87430 333 69907 92427=
07020,1999-11-23 13:00:00,12.9,1023.5,-0.1,83,10.1,,14.816,,,280,,,,,,,,,,,og-post,,,,AAXX 23134 07020 36/// /2808 10129 20101 30218 40235 58001=
07020,1999-11-23 14:00:00,12.8,1023.5,-0.3,84,10.2,,14.816,,,280,,,,,,,,,,,og-post,,,,AAXX 23144 07020 36/// /2808 10128 20102 30218 40235 56003=
07020,1999-11-23 15:00:00,12.7,1023.5,-0.2,81,9.5,12000,18.52,,,280,,,,,,,,,,2,og-post,,,,AAXX 23154 07020 31662 52810 10127 20095 30218 40235 56002 70262 85420 333 92427=
07020,1999-11-23 16:00:00,12.4,1023.7,0.2,84,9.8,,18.52,,,280,,,,,,,,,,,og-post,,,,AAXX 23164 07020 36/// /2810 10124 20098 30220 40237 53002=
07020,1999-11-23 17:00:00,12.2,1024.1,0.6,85,9.8,,18.52,,,270,,,,,,,,,,,og-post,,,,AAXX 23174 07020 36/// /2710 10122 20098 30224 40241 53006=
07020,1999-11-23 18:00:00,12.1,1024.5,1,85,9.7,12000,18.52,,,270,11.7,13.1,,,,,,,,,og-post,,,,AAXX 23184 07020 12662 52710 10121 20097 30228 40245 53010 69902 85400 333 10131 20117 92427=
07020,1999-11-23 19:00:00,11.8,1024.6,0.9,86,9.5,,22.224,,,270,,,,,,,,,,,og-post,,,,AAXX 23194 07020 36/// /2712 10118 20095 30229 40246 51009=
07020,1999-11-23 20:00:00,11.9,1024.9,0.8,85,9.5,,18.52,,,270,,,,,,,,,,,og-post,,,,AAXX 23204 07020 36/// /2710 10119 20095 30232 40249 51008=
07020,1999-11-23 21:00:00,11.6,1024.9,0.4,85,9.2,,22.224,,,260,,,,,,,,,,,og-post,,,,AAXX 23214 07020 36/// /2612 10116 20092 30232 40249 51004=
07020,1999-11-23 22:00:00,11.8,1025,0.4,85,9.4,,25.928,,,270,,,,,,,,,,,og-post,,,,AAXX 23224 07020 36/// /2714 10118 20094 30233 40250 51004=
07020,1999-11-23 23:00:00,11.8,1025,0.1,86,9.5,,22.224,,,260,,,,,,,,,,,og-post,,,,AAXX 23234 07020 36/// /2612 10118 20095 30233 40250 52001=
07020,1999-11-24 00:00:00,12.1,1025,0.1,86,9.8,,22.224,,,260,,,,,,,,,,,og-post,,,,AAXX 24004 07020 36/// /2612 10121 20098 30233 40250 51001=
07020,1999-11-24 01:00:00,12.1,1024.9,-0.1,88,10.2,,22.224,,,250,,,,,,,,,,,og-post,,,,AAXX 24014 07020 36/// /2512 10121 20102 30232 40249 58001=
07020,1999-11-24 02:00:00,11.8,1024.8,-0.2,88,9.9,,25.928,,,240,,,,,,,,,,,og-post,,,,AAXX 24024 07020 36/// /2414 10118 20099 30231 40248 58002=
07020,1999-11-24 03:00:00,11.7,1024.7,-0.3,90,10.1,,25.928,,,240,,,,,,,,,,,og-post,,,,AAXX 24034 07020 36/// /2414 10117 20101 30230 40247 57003=
07020,1999-11-24 04:00:00,11.4,1024.8,-0.1,90,9.8,,29.632,,,240,,,,,,,,,,,og-post,,,,AAXX 24044 07020 36/// /2416 10114 20098 30231 40248 55001=
07020,1999-11-24 05:00:00,11.4,1024.7,-0.1,89,9.7,,29.632,,,240,,,,,,,,,,,og-post,,,,AAXX 24054 07020 36/// /2416 10114 20097 30230 40247 57001=
07020,1999-11-24 06:00:00,11.4,1024.8,0.1,88,9.5,15000,31.484,,,230,11.3,12.2,,,,,,,,,og-post,,,,AAXX 24064 07020 32765 52317 10114 20095 30231 40248 52001 85800 333 10122 20113 92437=
07020,1999-11-24 08:00:00,11.7,1025.8,1.1,88,9.8,,35.188,,,240,,,,,,,,,,,og-post,,,,AAXX 24084 07020 36/// /2419 10117 20098 30241 40258 53011=
07020,1999-11-24 09:00:00,11.8,1026.1,1.3,87,9.7,15000,31.484,,,230,,,,,,,,,,,og-post,,,,AAXX 24094 07020 32665 62317 10118 20097 30244 40261 51013 83250 333 92437=
07020,1999-11-24 10:00:00,12.1,1026.2,0.8,87,10,,35.188,,,240,,,,,,,,,,,og-post,,,,AAXX 24104 07020 36/// /2419 10121 20100 30245 40262 51008=
07020,1999-11-24 11:00:00,12.2,1026.5,0.7,86,9.9,,35.188,,,230,,,,,,,,,,,og-post,,,,AAXX 24114 07020 36/// /2319 10122 20099 30248 40265 52007=
07020,1999-11-24 12:00:00,12.8,1026.1,0,82,9.8,15000,35.188,,,230,,,,,,,,,,,og-post,,,,AAXX 24124 07020 32265 52319 10128 20098 30244 40261 50000 82205 333 92427=
07020,1999-11-24 13:00:00,13,1026,-0.2,81,9.8,,38.892,,,240,,,,,,,,,,,og-post,,,,AAXX 24134 07020 36/// /2421 10130 20098 30243 40260 58002=
07020,1999-11-24 14:00:00,13,1025.8,-0.7,82,10,,31.484,,,230,,,,,,,,,,,og-post,,,,AAXX 24144 07020 36/// /2317 10130 20100 30241 40258 56007=
07020,1999-11-24 15:00:00,12.3,1026,-0.1,88,10.4,15000,31.484,,,220,,,,,,,,,,,og-post,,,,AAXX 24154 07020 32665 52217 10123 20104 30243 40260 55001 85800 333 92427=
07020,1999-11-24 16:00:00,12,1025.9,-0.1,88,10.1,,31.484,,,220,,,,,,,,,,,og-post,,,,AAXX 24164 07020 36/// /2217 10120 20101 30242 40259 56001=
07020,1999-11-24 17:00:00,12,1026.1,0.3,88,10.1,,29.632,,,220,,,,,,,,,,,og-post,,,,AAXX 24174 07020 36/// /2216 10120 20101 30244 40261 52003=
07020,1999-11-24 18:00:00,12.3,1026.3,0.3,88,10.4,15000,29.632,,,220,11.2,13.1,,,,,,,,,og-post,,,,AAXX 24184 07020 32665 42216 10123 20104 30246 40263 53003 84800 333 10131 20112 92427=
07020,1999-11-24 19:00:00,12.4,1026.4,0.5,88,10.5,,31.484,,,220,,,,,,,,,,,og-post,,,,AAXX 24194 07020 36/// /2217 10124 20105 30247 40264 51005=
07020,1999-11-24 20:00:00,12.1,1026.6,0.5,89,10.3,,29.632,,,210,,,,,,,,,,,og-post,,,,AAXX 24204 07020 36/// /2116 10121 20103 30249 40266 52005=
07020,1999-11-24 21:00:00,12.3,1026.8,0.5,89,10.5,,35.188,,,220,,,,,,,,,,,og-post,,,,AAXX 24214 07020 36/// /2219 10123 20105 30251 40268 53005=
07020,1999-11-24 22:00:00,12.5,1027,0.6,88,10.6,,35.188,,,230,,,,,,,,,,,og-post,,,,AAXX 24224 07020 36/// /2319 10125 20106 30253 40270 52006=
07020,1999-11-24 23:00:00,12.3,1027,0.4,86,10,,35.188,,,230,,,,,,,,,,,og-post,,,,AAXX 24234 07020 36/// /2319 10123 20100 30253 40270 51004=
07020,1999-11-25 00:00:00,12.1,1027.1,0.3,87,10,,38.892,,,240,,,,,,,,,,,og-post,,,,AAXX 25004 07020 36/// /2421 10121 20100 30254 40271 51003=
07020,1999-11-25 01:00:00,12.4,1026.9,-0.1,87,10.3,,38.892,,,240,,,,,,,,,,,og-post,,,,AAXX 25014 07020 36/// /2421 10124 20103 30252 40269 58001=
07020,1999-11-25 02:00:00,12.2,1026.7,-0.3,87,10.1,,38.892,,,240,,,,,,,,,,,og-post,,,,AAXX 25024 07020 36/// /2421 10122 20101 30250 40267 58003=
07020,1999-11-25 03:00:00,12.3,1026.4,-0.7,88,10.4,,38.892,,,240,,,,,,,,,,,og-post,,,,AAXX 25034 07020 36/// /2421 10123 20104 30247 40264 58007=
07020,1999-11-25 04:00:00,12.3,1026.4,-0.5,88,10.4,,38.892,,,240,,,,,,,,,,,og-post,,,,AAXX 25044 07020 36/// /2421 10123 20104 30247 40264 56005=
07020,1999-11-25 05:00:00,12.4,1026.4,-0.3,88,10.5,,42.596,,,240,,,,,,,,,,,og-post,,,,AAXX 25054 07020 36/// /2423 10124 20105 30247 40264 56003=
07020,1999-11-25 06:00:00,12.6,1026.8,0.4,89,10.8,15000,42.596,,,240,12,12.6,,,,,,,,,og-post,,,,AAXX 25064 07020 32765 82423 10126 20108 30251 40268 53004 88500 333 10126 20120 92437=
07020,1999-11-25 08:00:00,12.8,1027.8,1.4,90,11.2,,38.892,,,240,,,,,,,,,,,og-post,,,,AAXX 25084 07020 36/// /2421 10128 20112 30261 40278 53014=
07020,1999-11-25 09:00:00,12.8,1028.5,1.7,89,11,15000,35.188,,,230,,,,,,,,,,,og-post,,,,AAXX 25094 07020 32765 82319 10128 20110 30268 40285 53017 88500 333 92437=
07020,1999-11-25 10:00:00,13,1028.9,1.7,88,11.1,,38.892,,,240,,,,,,,,,,,og-post,,,,AAXX 25104 07020 36/// /2421 10130 20111 30272 40289 51017=
07020,1999-11-25 11:00:00,12.8,1029.3,1.5,89,11,,42.596,,,240,,,,,,,,,,,og-post,,,,AAXX 25114 07020 36/// /2423 10128 20110 30276 40293 51015=
07020,1999-11-25 12:00:00,13,1029.1,0.6,87,10.9,15000,35.188,,,250,,,,,,,,,,,og-post,,,,AAXX 25124 07020 32765 82519 10130 20109 30274 40291 50006 88500 333 92437=
07020,1999-11-25 13:00:00,13.2,1028.9,0,88,11.3,,31.484,,,250,,,,,,,,,,,og-post,,,,AAXX 25134 07020 36/// /2517 10132 20113 30272 40289 50000=
07020,1999-11-25 14:00:00,13.3,1028.7,-0.6,87,11.2,,31.484,,,250,,,,,,,,,,,og-post,,,,AAXX 25144 07020 36/// /2517 10133 20112 30270 40287 57006=
07020,1999-11-25 15:00:00,12.9,1028.7,-0.4,88,11,15000,29.632,,,240,,,,,,,,,,,og-post,,,,AAXX 25154 07020 32965 72416 10129 20110 30270 40287 56004 86055 333 92437=
07020,1999-11-25 16:00:00,12.7,1029,0.1,86,10.4,,31.484,,,240,,,,,,,,,,,og-post,,,,AAXX 25164 07020 36/// /2417 10127 20104 30273 40290 53001=
07020,1999-11-25 17:00:00,12.1,1029,0.3,89,10.3,,25.928,,,240,,,,,,,,,,,og-post,,,,AAXX 25174 07020 36/// /2414 10121 20103 30273 40290 52003=
07020,1999-11-25 18:00:00,11.9,1029.1,0.4,91,10.5,15000,25.928,,,220,11.9,14,,,,,,,,,og-post,,,,AAXX 25184 07020 32965 72214 10119 20105 30274 40291 51004 86055 333 10140 20119 92437=
07020,1999-11-25 19:00:00,11.7,1028.9,-0.1,91,10.3,,22.224,,,210,,,,,,,,,,,og-post,,,,AAXX 25194 07020 36/// /2112 10117 20103 30272 40289 58001=
07020,1999-11-25 20:00:00,12,1029,-0,91,10.6,,29.632,,,220,,,,,,,,,,,og-post,,,,AAXX 25204 07020 36/// /2216 10120 20106 30273 40290 54000=
07020,1999-11-25 21:00:00,12.2,1028.7,-0.4,90,10.6,,29.632,,,220,,,,,,,,,,,og-post,,,,AAXX 25214 07020 36/// /2216 10122 20106 30270 40287 58004=
07020,1999-11-25 22:00:00,12.1,1028.5,-0.4,89,10.3,,31.484,,,220,,,,,,,,,,,og-post,,,,AAXX 25224 07020 36/// /2217 10121 20103 30268 40285 58004=
07020,1999-11-25 23:00:00,11.9,1028.1,-0.9,88,10,,35.188,,,230,,,,,,,,,,,og-post,,,,AAXX 25234 07020 36/// /2319 10119 20100 30264 40281 58009=
07020,1999-11-26 00:00:00,11.8,1027.7,-1,89,10,,35.188,,,230,,,,,,,,,,,og-post,,,,AAXX 26004 07020 36/// /2319 10118 20100 30260 40277 58010=
07020,1999-11-26 01:00:00,11.6,1027.3,-1.2,86,9.3,,38.892,,,240,,,,,,,,,,,og-post,,,,AAXX 26014 07020 36/// /2421 10116 20093 30256 40273 57012=
07020,1999-11-26 02:00:00,11.3,1026.5,-1.6,88,9.4,,42.596,,,220,,,,,,,,,,,og-post,,,,AAXX 26024 07020 36/// /2223 10113 20094 30248 40265 58016=
07020,1999-11-26 03:00:00,10.4,1025.9,-1.8,90,8.8,,38.892,,,210,,,,,,,,,,,og-post,,,,AAXX 26034 07020 36/// /2121 10104 20088 30242 40259 58018=
07020,1999-11-26 04:00:00,10.2,1025.4,-1.9,89,8.5,,38.892,,,200,,,,,,,,,,,og-post,,,,AAXX 26044 07020 36/// /2021 10102 20085 30237 40254 56019=
07020,1999-11-26 05:00:00,9.2,1024.4,-2.1,88,7.3,,42.596,,,200,,,,,,,,,,,og-post,,,,AAXX 26054 07020 36/// /2023 10092 20073 30227 40244 58021=
07020,1999-11-26 06:00:00,8.6,1023.6,-2.3,86,6.4,12000,42.596,,,200,8.5,12.3,,,,,,,,,og-post,,,,AAXX 26064 07020 32962 62023 10086 20064 30219 40236 58023 86050 333 10123 20085 92437=
07020,1999-11-26 07:00:00,8,1022.4,-3,88,6.1,,42.596,61.116,,200,,,,,,,,,,,og-post,,,,AAXX 26074 07020 36/// /2023 10080 20061 30207 40224 58030 333 91133=
07020,1999-11-26 08:00:00,8,1021.9,-2.5,88,6.1,,46.3,68.524,68.524,190,,,,,,,,,,,og-post,,,,AAXX 26084 07020 36/// /1925 10080 20061 30202 40219 56025 333 91037 91137=
07020,1999-11-26 09:00:00,8.3,1021.3,-2.3,87,6.3,12000,46.3,68.524,68.524,200,,,,,,,,,,,og-post,,,,AAXX 26094 07020 32662 62025 10083 20063 30196 40213 56023 86450 333 91037 91137 92447=
07020,1999-11-26 10:00:00,9,1021.3,-1.1,84,6.4,,57.412,75.932,75.932,200,,,,,,,,,,,og-post,,,,AAXX 26104 07020 36/// /2031 10090 20064 30196 40213 56011 333 91041 91141=
07020,1999-11-26 11:00:00,9,1021,-0.9,82,6.1,,53.708,,,210,,,,,,,,,,,og-post,,,,AAXX 26114 07020 36/// /2129 10090 20061 30193 40210 56009=
07020,1999-11-26 12:00:00,9.1,1020.4,-0.9,79,5.7,6000,50.004,75.932,72.228,220,,,,,,,,,,,og-post,,,,AAXX 26124 07020 32556 82227 10091 20057 30187 40204 58009 8812/ 333 91039 91141 92446=
07020,1999-11-26 13:00:00,9,1019,-2.3,82,6.1,,50.004,,,210,,,,,,,,,,,og-post,,,,AAXX 26134 07020 36/// /2127 10090 20061 30173 40190 58023=
07020,1999-11-26 14:00:00,9.1,1017.8,-3.2,84,6.5,,50.004,75.932,,200,,,,,,,,,,,og-post,,,,AAXX 26144 07020 36/// /2027 10091 20065 30161 40178 58032 333 91141=
07020,1999-11-26 15:00:00,9.2,1017.1,-3.3,87,7.2,6000,53.708,75.932,,200,,,,,,,,,,,og-post,,,,AAXX 26154 07020 32556 72029 10092 20072 30154 40171 56033 87500 333 91141 92446=
07020,1999-11-26 16:00:00,9.3,1016.9,-2.1,90,7.7,,42.596,,64.82,190,,,,,,,,,,,og-post,,,,AAXX 26164 07020 36/// /1923 10093 20077 30152 40169 56021 333 91035=
07020,1999-11-26 17:00:00,9.8,1016.6,-1.2,90,8.2,,46.3,68.524,,200,,,,,,,,,,,og-post,,,,AAXX 26174 07020 36/// /2025 10098 20082 30149 40166 56012 333 91137=
07020,1999-11-26 18:00:00,10.2,1016.4,-0.7,88,8.3,6000,50.004,75.932,,190,7.9,10.2,,,,,,,,,og-post,,,,AAXX 26184 07020 32556 81927 10102 20083 30147 40164 57007 88500 333 10102 20079 91141 92446=
07020,1999-11-26 19:00:00,10.6,1016.3,-0.6,88,8.7,,53.708,72.228,72.228,200,,,,,,,,,,,og-post,,,,AAXX 26194 07020 36/// /2029 10106 20087 30146 40163 56006 333 91039 91139=
07020,1999-11-26 20:00:00,11,1016,-0.6,92,9.8,,50.004,79.636,,210,,,0.2,,,,,,,,og-post,,,,AAXX 26204 07020 26/// /2127 10110 20098 30143 40160 58006 333 69925 91143=
07020,1999-11-26 21:00:00,11.1,1016.4,-0,94,10.2,,50.004,79.636,68.524,210,,,,0.8,,,,,,,og-post,,,,AAXX 26214 07020 26/// /2127 10111 20102 30147 40164 55000 333 69987 91037 91143=
07020,1999-11-26 22:00:00,11.4,1016.3,-0,94,10.5,,53.708,72.228,,220,,,0.6,,,,,,,,og-post,,,,AAXX 26224 07020 26/// /2229 10114 20105 30146 40163 55000 333 69965 91139=
07020,1999-11-26 23:00:00,11.6,1016.8,0.8,89,9.8,,35.188,,,270,,,0.2,,,,,,,,og-post,,,,AAXX 26234 07020 26/// /2719 10116 20098 30151 40168 53008 333 69925=
07020,1999-11-27 00:00:00,11.9,1017.2,0.8,85,9.5,,29.632,79.636,,270,,,,0.8,2,,,,,,og-post,,,,AAXX 27004 07020 /6/// /2716 10119 20095 30155 40172 53008 60021 333 69987 91143=
07020,1999-11-27 01:00:00,11.9,1017.5,1.2,83,9.1,,35.188,,,270,,,,,,,,,,,og-post,,,,AAXX 27014 07020 36/// /2719 10119 20091 30158 40175 51012=
07020,1999-11-27 02:00:00,11.8,1017.8,1,85,9.4,,31.484,,,270,,,0.2,,,,,,,,og-post,,,,AAXX 27024 07020 26/// /2717 10118 20094 30161 40178 51010 333 69925=
07020,1999-11-27 03:00:00,12.1,1018.3,1.1,82,9.1,,29.632,,,280,,,,0.2,,,,,,,og-post,,,,AAXX 27034 07020 26/// /2816 10121 20091 30166 40183 53011 333 69927=
07020,1999-11-27 04:00:00,11.8,1018.7,1.2,80,8.5,,25.928,,,290,,,,,,,,,,,og-post,,,,AAXX 27044 07020 36/// /2914 10118 20085 30170 40187 53012=
07020,1999-11-27 05:00:00,10.8,1019.7,1.9,86,8.6,,29.632,53.708,,300,,,0.6,,,,,,,,og-post,,,,AAXX 27054 07020 26/// /3016 10108 20086 30180 40197 53019 333 69965 91129=
07020,1999-11-27 06:00:00,11.1,1020.2,1.9,79,7.6,12000,22.224,53.708,,290,10,12.2,,0.6,,2,,,,,og-post,,,,AAXX 27064 07020 /2562 82912 10111 20076 30185 40202 53019 60022 88500 333 10122 20100 69967 91129 92437=
07020,1999-11-27 07:00:00,11.4,1021.3,2.6,77,7.5,,22.224,,,290,,,,,,,,,,,og-post,,,,AAXX 27074 07020 36/// /2912 10114 20075 30196 40213 53026=
07020,1999-11-27 08:00:00,11.1,1022.3,2.6,75,6.8,,25.928,,,300,,,,,,,,,,,og-post,,,,AAXX 27084 07020 36/// /3014 10111 20068 30206 40223 53026=
07020,1999-11-27 09:00:00,11.2,1022.9,2.7,74,6.7,15000,14.816,,,280,,,,,,,,,,,og-post,,,,AAXX 27094 07020 32565 52808 10112 20067 30212 40229 51027 82205 333 92437=
07020,1999-11-27 10:00:00,10.9,1023.5,2.2,73,6.3,,11.112,,,260,,,,,,,,,,,og-post,,,,AAXX 27104 07020 36/// /2606 10109 20063 30218 40235 51022=
07020,1999-11-27 11:00:00,12.9,1023.9,1.6,67,6.9,,11.112,,,230,,,,,,,,,,,og-post,,,,AAXX 27114 07020 36/// /2306 10129 20069 30222 40239 51016=
07020,1999-11-27 12:00:00,12.8,1023.5,0.6,70,7.5,15000,14.816,,,220,,,,,,,,,,,og-post,,,,AAXX 27124 07020 32665 52208 10128 20075 30218 40235 50006 83255 333 92437=
07020,1999-11-27 13:00:00,12.4,1023.5,0,75,8.1,,18.52,,,210,,,,,,,,,,,og-post,,,,AAXX 27134 07020 36/// /2110 10124 20081 30218 40235 50000=
07020,1999-11-27 15:00:00,11.5,1022.7,-0.8,83,8.7,15000,29.632,,,210,,,,,,,,,,,og-post,,,,AAXX 27154 07020 32665 52116 10115 20087 30210 40227 58008 83255 333 92437=
07020,1999-11-27 18:00:00,11.3,1022.3,-0.4,86,9,12000,31.484,,,200,10.6,13.3,,,,,,,,,og-post,,,,AAXX 27184 07020 32662 62017 10113 20090 30206 40223 58004 85251 333 10133 20106 92437=
07020,1999-11-27 21:00:00,12,1021.1,-1.2,87,9.9,,42.596,,,200,,,,,,,,,,,og-post,,,,AAXX 27214 07020 36/// /2023 10120 20099 30194 40211 56012=
07020,1999-11-28 00:00:00,12.1,1020.5,-0.6,91,10.7,,38.892,,,200,,,,,,,,,,,og-post,,,,AAXX 28004 07020 36/// /2021 10121 20107 30188 40205 55006=
07020,1999-11-28 03:00:00,12.5,1019.1,-1.4,88,10.6,,46.3,,68.524,200,,,,,,,,,,,og-post,,,,AAXX 28034 07020 36/// /2025 10125 20106 30174 40191 56014 333 91037=
07020,1999-11-28 06:00:00,11.2,1017.9,-1.2,86,8.9,12000,42.596,94.452,61.116,190,11.2,12.6,,,,,,,,,og-post,,,,AAXX 28064 07020 32562 81923 10112 20089 30162 40179 56012 8842/ 333 10126 20112 91033 91151 92447=
07020,1999-11-28 09:00:00,10.6,1016.8,-1.1,75,6.4,8000,50.004,72.228,,200,,,,,,,,,,,og-post,,,,AAXX 28094 07020 32858 62027 10106 20064 30151 40168 56011 84032 333 91139 92446=
07020,1999-11-28 12:00:00,11,1015.5,-1.3,83,8.2,6000,53.708,75.932,75.932,200,,,,,,,,,,,og-post,,,,AAXX 28124 07020 32556 82029 10110 20082 30138 40155 58013 886// 333 91041 91141 92456=
07020,1999-11-28 15:00:00,10.9,1013.5,-2,86,8.7,6000,46.3,79.636,72.228,190,,,,,,,,,,,og-post,,,,AAXX 28154 07020 32556 81925 10109 20087 30118 40135 56020 886// 333 91039 91143 92446=
07020,1999-11-28 18:00:00,11.5,1013.8,0.3,86,9.2,,46.3,79.636,68.524,190,10.4,11.5,,,,,,,,,og-post,,,,AAXX 28184 07020 36/// /1925 10115 20092 30121 40138 53003 333 10115 20104 91037 91143=
07020,1999-11-28 21:00:00,11.5,1014.3,0.5,85,9.1,,50.004,75.932,,200,,,,,,,,,,,og-post,,,,AAXX 28214 07020 36/// /2027 10115 20091 30126 40143 51005 333 91141=
07020,1999-11-29 00:00:00,11.2,1014.5,0.2,84,8.6,,46.3,75.932,,190,,,,,,,,,,,og-post,,,,AAXX 29004 07020 36/// /1925 10112 20086 30128 40145 53002 333 91141=
07020,1999-11-29 03:00:00,10.8,1015.4,0.9,89,9.1,,38.892,,,200,,,,,,,,,,,og-post,,,,AAXX 29034 07020 36/// /2021 10108 20091 30137 40154 53009=
07020,1999-11-29 06:00:00,10.8,1017,1.6,90,9.2,6000,29.632,,,200,10.7,12,,,,,,,,,og-post,,,,AAXX 29064 07020 32656 82016 10108 20092 30153 40170 53016 88600 333 10120 20107 92446=
07020,1999-11-29 09:00:00,10.7,1018.9,1.9,89,9,6000,35.188,,,190,,,,,,,,,,,og-post,,,,AAXX 29094 07020 32556 81919 10107 20090 30172 40189 52019 88600 333 92436=
07020,1999-11-29 12:00:00,11.1,1020.6,1.7,93,10,1000,29.632,,,200,,,,0.2,0.2,,,,,,og-post,,,,AAXX 29124 07020 /2210 82016 10111 20100 30189 40206 51017 69921 88600 333 69927 92434=
07020,1999-11-29 14:00:00,10.9,1021.2,0.8,94,10,,29.632,,,190,,,,,,,,,,,og-post,,,,AAXX 29144 07020 26/// /1916 10109 20100 30195 40212 53008 333 69905=
07020,1999-11-29 15:00:00,11.2,1021.5,0.9,94,10.3,,25.928,,,190,,,,0.4,,,,,,,og-post,,,,AAXX 29154 07020 26/// /1914 10112 20103 30198 40215 53009 333 69947=
07020,1999-11-29 16:00:00,11.5,1022.4,1.6,92,10.2,,29.632,,,200,,,,,,,,,,,og-post,,,,AAXX 29164 07020 26/// /2016 10115 20102 30207 40224 53016 333 69905=
07020,1999-11-29 17:00:00,11.2,1023.3,2.1,94,10.3,,22.224,,,190,,,0.4,,,,,,,,og-post,,,,AAXX 29174 07020 26/// /1912 10112 20103 30216 40233 53021 333 69945=
07020,1999-11-29 18:00:00,11.7,1024.2,2.7,94,10.8,10000,18.52,,,220,10.6,11.7,,0.4,,1,,,,50,og-post,,,,AAXX 29184 07020 /1560 82210 10117 20108 30225 40242 52027 60012 750// 88700 333 10117 20106 69947 92437=
07020,1999-11-29 19:00:00,11,1025.3,2.9,95,10.2,,25.928,,,10,,,0.2,,,,,,,,og-post,,,,AAXX 29194 07020 26/// /0114 10110 20102 30236 40253 53029 333 69925=
07020,1999-11-29 20:00:00,10.5,1026.4,3.1,96,9.9,,14.816,,,40,,,0.4,,,,,,,,og-post,,,,AAXX 29204 07020 26/// /0408 10105 20099 30247 40264 53031 333 69945=
07020,1999-11-29 21:00:00,10.6,1027.1,2.9,92,9.4,,29.632,,,30,,,,0.6,,,,,,,og-post,,,,AAXX 29214 07020 26/// /0316 10106 20094 30254 40271 51029 333 69967=
07020,1999-11-29 22:00:00,10.3,1028,2.7,90,8.7,,25.928,,,40,,,,,,,,,,,og-post,,,,AAXX 29224 07020 26/// /0414 10103 20087 30263 40280 51027 333 69905=
07020,1999-11-29 23:00:00,10.2,1028.3,1.9,87,8.1,,18.52,,,40,,,,,,,,,,,og-post,,,,AAXX 29234 07020 26/// /0410 10102 20081 30266 40283 51019 333 69905=
07020,1999-11-30 00:00:00,10.4,,,,8,,,,,190,,,,,,,,,,,meteo24,,,,AAXX 30004 07020 /6/// /0410 10104 20080 30270 40287 51016 69961 333 69907=
07020,1999-11-30 01:00:00,10.1,1028.8,0.8,84,7.5,,14.816,,,30,,,,,,,,,,,og-post,,,,AAXX 30014 07020 26/// /0308 10101 20075 30271 40288 51008 333 69905=
07020,1999-11-30 02:00:00,9.8,1028.9,0.6,85,7.4,,11.112,,,30,,,,,,,,,,,og-post,,,,AAXX 30024 07020 26/// /0306 10098 20074 30272 40289 51006 333 69905=
07020,1999-11-30 03:00:00,9.6,1029.2,0.5,82,6.7,,11.112,,,330,,,,,,,,,,,og-post,,,,AAXX 30034 07020 26/// /3306 10096 20067 30275 40292 53005 333 69907=
07020,1999-11-30 04:00:00,9.6,1029.4,0.6,76,5.6,,18.52,,,340,,,,,,,,,,,og-post,,,,AAXX 30044 07020 26/// /3410 10096 20056 30277 40294 53006 333 69905=
07020,1999-11-30 07:00:00,9,1030,0.6,74,4.6,,14.816,,,300,,,,,,,,,,,og-post,,,,AAXX 30074 07020 36/// /3008 10090 20046 30283 40300 53006=
07020,1999-11-30 08:00:00,9.4,1030.4,1,67,3.6,,18.52,,,300,,,,,,,,,,,og-post,,,,AAXX 30084 07020 36/// /3010 10094 20036 30287 40304 53010=
07020,1999-11-30 09:00:00,9.9,1030.2,0.7,70,4.7,20000,14.816,,,270,,,,,,,,,,,og-post,,,,AAXX 30094 07020 32970 62708 10099 20047 30285 40302 50007 83045 333 92428=
07020,1999-11-30 10:00:00,10.7,1030.4,0.4,67,4.8,,18.52,,,280,,,,,,,,,,,og-post,,,,AAXX 30104 07020 36/// /2810 10107 20048 30287 40304 51004=
07020,1999-11-30 11:00:00,11.1,1030.2,-0.2,68,5.4,,25.928,,,270,,,,,,,,,,,og-post,,,,AAXX 30114 07020 36/// /2714 10111 20054 30285 40302 57002=
07020,1999-11-30 12:00:00,11.5,1029.5,-0.7,66,5.4,20000,31.484,,,270,,,,,,,,,,,og-post,,,,AAXX 30124 07020 32970 72717 10115 20054 30278 40295 58007 82044 333 92428=
07020,1999-11-30 15:00:00,11.5,1027.6,-1.9,73,6.8,15000,38.892,,,260,,,,,,,,,,,og-post,,,,AAXX 30154 07020 32965 72621 10115 20068 30259 40276 56019 85502 333 92437=
07020,1999-11-30 17:00:00,11.8,1027.3,-0.8,76,7.7,,38.892,,,270,,,,,,,,,,,og-post,,,,AAXX 30174 07020 36/// /2721 10118 20077 30256 40273 56008=
07020,1999-11-30 18:00:00,12.1,1027,-0.6,77,8.2,15000,38.892,,,260,8.8,12.1,,,,,,,,,og-post,,,,AAXX 30184 07020 32965 72621 10121 20082 30253 40270 58006 85502 333 10121 20088 92437=
07020,1999-11-30 20:00:00,12.2,1026.7,-0.6,84,9.6,,38.892,64.82,61.116,270,,,,,,,,,,,og-post,,,,AAXX 30204 07020 36/// /2721 10122 20096 30250 40267 56006 333 91033 91135=
07020,1999-11-30 21:00:00,11.9,1026.4,-0.6,86,9.6,,42.596,64.82,,270,,,,,,,,,,,og-post,,,,AAXX 30214 07020 36/// /2723 10119 20096 30247 40264 58006 333 91135=
07020,1999-11-30 22:00:00,12.4,1026.2,-0.6,85,10,,38.892,,57.412,270,,,,,,,,,,,og-post,,,,AAXX 30224 07020 36/// /2721 10124 20100 30245 40262 58006 333 91031=
07020,1999-11-30 23:00:00,12.5,1025.8,-0.9,86,10.2,,42.596,,,270,,,,,,,,,,,og-post,,,,AAXX 30234 07020 36/// /2723 10125 20102 30241 40258 58009=
07020,1999-12-01 00:00:00,12.6,1025.3,-1.1,85,10.1,,38.892,64.82,61.116,270,,,,,,,,,,,og-post,,,,AAXX 01004 07020 36/// /2721 10126 20101 30236 40253 58011 333 91033 91135=
07020,1999-12-01 01:00:00,12.6,1025,-1.2,86,10.3,,42.596,64.82,64.82,270,,,,,,,,,,,og-post,,,,AAXX 01014 07020 36/// /2723 10126 20103 30233 40250 56012 333 91035 91135=
07020,1999-12-01 02:00:00,12.7,1025,-0.8,87,10.6,,38.892,68.524,57.412,270,,,,,,,,,,,og-post,,,,AAXX 01024 07020 36/// /2721 10127 20106 30233 40250 56008 333 91031 91137=
07020,1999-12-01 03:00:00,12.8,1024.8,-0.5,87,10.7,,38.892,68.524,64.82,280,,,,,,,,,,,og-post,,,,AAXX 01034 07020 36/// /2821 10128 20107 30231 40248 56005 333 91035 91137=
07020,1999-12-01 04:00:00,12.6,1024.5,-0.5,90,11,,38.892,61.116,61.116,270,,,,,,,,,,,og-post,,,,AAXX 01044 07020 36/// /2721 10126 20110 30228 40245 58005 333 91033 91133=
07020,1999-12-01 05:00:00,12.7,1024.4,-0.6,90,11.1,,35.188,61.116,,270,,,,,,,,,,,og-post,,,,AAXX 01054 07020 36/// /2719 10127 20111 30227 40244 56006 333 91133=
07020,1999-12-01 06:00:00,12.9,1024.4,-0.4,90,11.3,12000,35.188,68.524,,270,11.8,12.9,,,,,,,,,og-post,,,,AAXX 01064 07020 32562 82719 10129 20113 30227 40244 56004 888// 333 10129 20118 91137 92437=
07020,1999-12-01 07:00:00,12.8,1024.6,0.1,91,11.4,,29.632,,,280,,,,,,,,,,,og-post,,,,AAXX 01074 07020 36/// /2816 10128 20114 30229 40246 53001=
07020,1999-12-01 08:00:00,12.8,1024.6,0.2,92,11.5,,31.484,,,270,,,,,,,,,,,og-post,,,,AAXX 01084 07020 26/// /2717 10128 20115 30229 40246 52002 333 69905=
07020,1999-12-01 09:00:00,12.7,1025,0.6,92,11.4,5000,35.188,,,280,,,,,,,,,,60,og-post,,,,AAXX 01094 07020 21550 82819 10127 20114 30233 40250 53006 76062 887// 333 69907 92436=
07020,1999-12-01 10:00:00,13,1025.1,0.5,90,11.4,,35.188,61.116,,270,,,,,,,,,,,og-post,,,,AAXX 01104 07020 26/// /2719 10130 20114 30234 40251 53005 333 69905 91133=
07020,1999-12-01 11:00:00,13.1,1025.1,0.5,89,11.3,,35.188,,,280,,,,,,,,,,,og-post,,,,AAXX 01114 07020 36/// /2819 10131 20113 30234 40251 51005=
07020,1999-12-01 12:00:00,13.2,1024.7,-0.3,89,11.4,8000,35.188,61.116,,270,,,,,,,,,,2,og-post,,,,AAXX 01124 07020 /1558 82719 10132 20114 30230 40247 58003 69901 70262 887// 333 69907 91133 92436=
07020,1999-12-01 13:00:00,13.3,1024.6,-0.5,88,11.4,,38.892,68.524,68.524,270,,,,,,,,,,,og-post,,,,AAXX 01134 07020 36/// /2721 10133 20114 30229 40246 58005 333 91037 91137=
07020,1999-12-01 14:00:00,13.1,1024.2,-0.9,90,11.5,,35.188,,53.708,280,,,,,,,,,,,og-post,,,,AAXX 01144 07020 26/// /2819 10131 20115 30225 40242 57009 333 69905 91029=
07020,1999-12-01 15:00:00,13,1024.2,-0.5,92,11.7,10000,31.484,68.524,,280,,,,,,,,,,20,og-post,,,,AAXX 01154 07020 21560 82817 10130 20117 30225 40242 56005 72022 886// 333 69907 91137 92447=
07020,1999-12-01 16:00:00,12.1,1024.9,0.3,91,10.7,,29.632,,,310,,,,,,,,,,,og-post,,,,AAXX 01164 07020 26/// /3116 10121 20107 30232 40249 53003 333 69905=
07020,1999-12-01 17:00:00,12.2,1025.2,1,90,10.6,,18.52,,,280,,,,,,,,,,,og-post,,,,AAXX 01174 07020 26/// /2810 10122 20106 30235 40252 53010 333 69905=
07020,1999-12-01 18:00:00,12.5,1025.5,1.3,87,10.4,10000,25.928,68.524,,290,12,13.3,,,,,,,,20,og-post,,,,AAXX 01184 07020 /1560 82914 10125 20104 30238 40255 51013 69902 72022 886// 333 10133 20120 69907 91137 92437=
07020,1999-12-01 19:00:00,12.4,1025.6,0.7,82,9.4,,29.632,,,290,,,,,,,,,,,og-post,,,,AAXX 01194 07020 36/// /2916 10124 20094 30239 40256 51007=
07020,1999-12-01 20:00:00,12.2,1025.8,0.6,80,8.9,,25.928,,,300,,,,,,,,,,,og-post,,,,AAXX 01204 07020 36/// /3014 10122 20089 30241 40258 51006=
07020,1999-12-01 21:00:00,12.1,1025.8,0.3,82,9.1,,29.632,,,300,,,,,,,,,,,og-post,,,,AAXX 01214 07020 36/// /3016 10121 20091 30241 40258 51003=
07020,1999-12-01 22:00:00,11.8,1026,0.4,71,6.7,,31.484,,,300,,,,,,,,,,,og-post,,,,AAXX 01224 07020 36/// /3017 10118 20067 30243 40260 52004=
07020,1999-12-01 23:00:00,12,1026.2,0.4,75,7.7,,35.188,53.708,,300,,,,,,,,,,,og-post,,,,AAXX 01234 07020 36/// /3019 10120 20077 30245 40262 53004 333 91129=
07020,1999-12-02 00:00:00,11.7,1026,0.2,67,5.8,,35.188,57.412,,310,,,,,,,,,,,og-post,,,,AAXX 02004 07020 36/// /3119 10117 20058 30243 40260 50002 333 91131=
07020,1999-12-02 01:00:00,11.6,1025.9,-0.1,73,6.9,,31.484,,,300,,,,,,,,,,,og-post,,,,AAXX 02014 07020 36/// /3017 10116 20069 30242 40259 58001=
07020,1999-12-02 02:00:00,11.7,1026.4,0.2,77,7.8,,38.892,,,300,,,,,,,,,,,og-post,,,,AAXX 02024 07020 36/// /3021 10117 20078 30247 40264 53002=
07020,1999-12-02 03:00:00,11.7,1026.4,0.4,70,6.4,,38.892,,,300,,,,,,,,,,,og-post,,,,AAXX 02034 07020 36/// /3021 10117 20064 30247 40264 53004=
07020,1999-12-02 06:00:00,11.4,1027.3,0.9,66,5.3,12000,35.188,,,310,11.4,12.5,,,,,,,,,og-post,,,,AAXX 02064 07020 33662 53119 10114 20053 30256 40273 51009 85800 333 10125 20114 92437=
07020,1999-12-02 09:00:00,11.4,1028.3,1,65,5.1,12000,29.632,57.412,,290,,,,,,,,,,,og-post,,,,AAXX 02094 07020 32662 62916 10114 20051 30266 40283 51010 86800 333 91131 92437=
07020,1999-12-02 12:00:00,11.9,1028.5,0.2,66,5.8,12000,29.632,57.412,,290,,,,,,,,,,,og-post,,,,AAXX 02124 07020 32662 62916 10119 20058 30268 40285 50002 86800 333 91131 92437=
07020,1999-12-02 13:00:00,11.7,1028.3,-0.4,67,5.8,,31.484,,,290,,,,,,,,,,,og-post,,,,AAXX 02134 07020 36/// /2917 10117 20058 30266 40283 58004=
07020,1999-12-02 14:00:00,12.2,1028,-0.8,67,6.3,,31.484,,,280,,,,,,,,,,,og-post,,,,AAXX 02144 07020 36/// /2817 10122 20063 30263 40280 57008=
07020,1999-12-02 15:00:00,11.8,1027.4,-1.1,70,6.5,12000,31.484,,,280,,,,,,,,,,,og-post,,,,AAXX 02154 07020 32662 62817 10118 20065 30257 40274 58011 86800 333 92437=
07020,1999-12-02 16:00:00,11.7,1026.9,-1.4,69,6.2,,31.484,,,270,,,,,,,,,,,og-post,,,,AAXX 02164 07020 36/// /2717 10117 20062 30252 40269 58014=
07020,1999-12-02 17:00:00,11.6,1026.6,-1.4,69,6.1,,42.596,,,260,,,,,,,,,,,og-post,,,,AAXX 02174 07020 36/// /2623 10116 20061 30249 40266 56014=
07020,1999-12-02 18:00:00,11.4,1026.2,-1.2,67,5.5,12000,38.892,,,270,10.8,12.3,,,,,,,,,og-post,,,,AAXX 02184 07020 32662 52721 10114 20055 30245 40262 56012 85800 333 10123 20108 92447=
07020,1999-12-02 19:00:00,11.6,1026.6,-0.3,70,6.3,,35.188,,,260,,,,,,,,,,,og-post,,,,AAXX 02194 07020 36/// /2619 10116 20063 30249 40266 55003=
07020,1999-12-02 20:00:00,11.8,1026.8,0.2,69,6.3,,31.484,,,290,,,,,,,,,,,og-post,,,,AAXX 02204 07020 36/// /2917 10118 20063 30251 40268 53002=
07020,1999-12-02 21:00:00,11.8,1026.2,0,66,5.7,,29.632,,,270,,,,,,,,,,,og-post,,,,AAXX 02214 07020 36/// /2716 10118 20057 30245 40262 50000=
07020,1999-12-02 22:00:00,11.8,1025.8,-0.8,71,6.7,,29.632,50.004,,280,,,,,,,,,,,og-post,,,,AAXX 02224 07020 36/// /2816 10118 20067 30241 40258 58008 333 91127=
07020,1999-12-02 23:00:00,11.5,1024.8,-2,71,6.4,,31.484,,,260,,,,,,,,,,,og-post,,,,AAXX 02234 07020 36/// /2617 10115 20064 30231 40248 58020=
07020,1999-12-03 00:00:00,11.4,1023.5,-2.7,75,7.1,,42.596,,,240,,,,,,,,,,,og-post,,,,AAXX 03004 07020 36/// /2423 10114 20071 30218 40235 58027=
07020,1999-12-03 01:00:00,11.1,1022.4,-3.4,82,8.1,,46.3,,,240,,,,,,,,,,,og-post,,,,AAXX 03014 07020 36/// /2425 10111 20081 30207 40224 58034=
07020,1999-12-03 02:00:00,10.8,1021.2,-3.6,81,7.7,,50.004,,,230,,,,,,,,,,,og-post,,,,AAXX 03024 07020 36/// /2327 10108 20077 30195 40212 56036=
07020,1999-12-03 03:00:00,10.7,1020,-3.5,76,6.6,,53.708,,,230,,,,,,,,,,,og-post,,,,AAXX 03034 07020 36/// /2329 10107 20066 30183 40200 58035=
07020,1999-12-03 04:00:00,10.7,1018.7,-3.7,79,7.2,,57.412,,,230,,,,,,,,,,,og-post,,,,AAXX 03044 07020 36/// /2331 10107 20072 30170 40187 58037=
07020,1999-12-03 05:00:00,11.3,1017,-4.2,75,7,,68.524,90.748,90.748,240,,,,,,,,,,,og-post,,,,AAXX 03054 07020 36/// /2437 10113 20070 30153 40170 58042 333 91049 91149=
07020,1999-12-03 06:00:00,11.6,1015.6,-4.4,81,8.5,10000,64.82,90.748,,240,10.6,12,,,,,,,,,og-post,,,,AAXX 03064 07020 32660 62435 10116 20085 30139 40156 58044 86500 333 10120 20106 91149 92447=
07020,1999-12-03 07:00:00,12.2,1014.5,-4.2,75,7.9,,72.228,96.304,96.304,250,,,,,,,,,,,og-post,,,,AAXX 03074 07020 36/// /2539 10122 20079 30128 40145 56042 333 91052 91152=
07020,1999-12-03 08:00:00,12.5,1014,-3,77,8.6,,68.524,96.304,96.304,260,,,,,,,,,,,og-post,,,,AAXX 03084 07020 36/// /2637 10125 20086 30123 40140 56030 333 91052 91152=
07020,1999-12-03 09:00:00,12.8,1013,-2.6,79,9.3,10000,72.228,103.712,96.304,260,,,,,,,,,,,og-post,,,,AAXX 03094 07020 32660 72639 10128 20093 30113 40130 56026 87500 333 91052 91156 92457=
07020,1999-12-03 10:00:00,12.8,1012.6,-1.9,82,9.8,,64.82,96.304,96.304,260,,,,,,,,,,,og-post,,,,AAXX 03104 07020 36/// /2635 10128 20098 30109 40126 56019 333 91052 91152=
07020,1999-12-03 11:00:00,12.2,1012.3,-1.7,88,10.3,,64.82,94.452,90.748,260,,,,,,,,,,,og-post,,,,AAXX 03114 07020 26/// /2635 10122 20103 30106 40123 56017 333 69905 91049 91151=
07020,1999-12-03 12:00:00,12.6,1011.5,-1.5,85,10.1,70000,64.82,103.712,90.748,260,,,,0.2,0.2,,,,,21,og-post,,,,AAXX 03124 07020 /1588 82635 10126 20101 30098 40115 58015 69921 72122 88700 333 69927 91049 91156 92459=
07020,1999-12-03 13:00:00,12.1,1011,-1.6,92,10.8,,64.82,96.304,90.748,260,,,,,,,,,,,og-post,,,,AAXX 03134 07020 36/// /2635 10121 20108 30093 40110 58016 333 91049 91152=
07020,1999-12-03 14:00:00,12.4,1010.4,-1.9,91,11,,64.82,94.452,90.748,260,,,0.2,,,,,,,,og-post,,,,AAXX 03144 07020 26/// /2635 10124 20110 30087 40104 56019 333 69925 91049 91151=
07020,1999-12-03 15:00:00,11,1011.9,0.4,93,9.9,4000,53.708,96.304,,300,,,,1,,,,,,62,og-post,,,,AAXX 03154 07020 21540 83029 10110 20099 30102 40119 53004 76262 887// 333 60017 91152 92456=
07020,1999-12-03 16:00:00,11.6,1012.5,1.5,79,8.1,,46.3,79.636,72.228,290,,,0.4,,,,,,,,og-post,,,,AAXX 03164 07020 26/// /2925 10116 20081 30108 40125 53015 333 69945 91039 91143=
07020,1999-12-03 17:00:00,11.3,1013.5,3.1,72,6.4,,53.708,72.228,,310,,,,,,,,,,,og-post,,,,AAXX 03174 07020 26/// /3129 10113 20064 30118 40135 51031 333 69905 91139=
07020,1999-12-03 18:00:00,11,1014.5,2.6,66,4.9,,50.004,96.304,,300,10.6,12.9,,0.4,,2,,,,,og-post,,,,AAXX 03184 07020 /6/// /3027 10110 20049 30128 40145 53026 60022 333 10129 20106 69947 91152=
07020,1999-12-03 20:00:00,10.3,1015.1,1.6,64,3.8,,38.892,,,300,,,,,,,,,,,og-post,,,,AAXX 03204 07020 26/// /3021 10103 20038 30134 40151 51016 333 69905=
07020,1999-12-03 21:00:00,10.4,1015.4,0.9,63,3.7,,35.188,,,300,,,,,,,,,,,og-post,,,,AAXX 03214 07020 26/// /3019 10104 20037 30137 40154 51009 333 69907=
07020,1999-12-03 22:00:00,10.2,1015.4,0.4,67,4.4,,29.632,,,300,,,,,,,,,,,og-post,,,,AAXX 03224 07020 26/// /3016 10102 20044 30137 40154 51004 333 69905=
07020,1999-12-03 23:00:00,10,1015.8,0.7,57,1.9,,35.188,,,300,,,,,,,,,,,og-post,,,,AAXX 03234 07020 26/// /3019 10100 20019 30141 40158 53007 333 69905=
07020,1999-12-04 00:00:00,10,1015.5,0.1,61,2.8,,35.188,,,300,,,,,,,,,,,og-post,,,,AAXX 04004 07020 /6/// /3019 10100 20028 30138 40155 50001 69901 333 69907=
07020,1999-12-04 01:00:00,9.9,1015.2,-0.2,66,3.9,,29.632,,,300,,,,,,,,,,,og-post,,,,AAXX 04014 07020 26/// /3016 10099 20039 30135 40152 58002 333 69905=
07020,1999-12-04 02:00:00,9.9,1014.9,-0.9,64,3.4,,29.632,,,300,,,,,,,,,,,og-post,,,,AAXX 04024 07020 26/// /3016 10099 20034 30132 40149 57009 333 69905=
07020,1999-12-04 03:00:00,10,1014.5,-1,67,4.2,,25.928,,,290,,,,,,,,,,,og-post,,,,AAXX 04034 07020 26/// /2914 10100 20042 30128 40145 58010 333 69907=
07020,1999-12-04 04:00:00,10.1,1013.7,-1.5,66,4,,25.928,,,290,,,,,,,,,,,og-post,,,,AAXX 04044 07020 26/// /2914 10101 20040 30120 40137 58015 333 69905=
07020,1999-12-04 05:00:00,9.9,1013.3,-1.6,69,4.5,,35.188,64.82,,290,,,,,,,,,,,og-post,,,,AAXX 04054 07020 26/// /2919 10099 20045 30116 40133 57016 333 69905 91135=
07020,1999-12-04 06:00:00,9,1013.6,-0.9,76,5,,29.632,64.82,,310,8.8,11,,0.2,,0.2,,,,,og-post,,,,AAXX 04064 07020 /6/// /3116 10090 20050 30119 40136 55009 69922 333 10110 20088 69927 91135=
07020,1999-12-04 07:00:00,9.8,1013.4,-0.3,70,4.6,,38.892,,,300,,,,,,,,,,,og-post,,,,AAXX 04074 07020 26/// /3021 10098 20046 30117 40134 56003 333 69905=
07020,1999-12-04 08:00:00,9.4,1014,0.7,72,4.6,,35.188,68.524,,290,,,0.4,,,,,,,,og-post,,,,AAXX 04084 07020 26/// /2919 10094 20046 30123 40140 53007 333 69945 91137=
07020,1999-12-04 09:00:00,9.2,1014.3,0.7,72,4.4,12000,42.596,72.228,,310,,,,0.6,,,,,,2,og-post,,,,AAXX 04094 07020 21562 83123 10092 20044 30126 40143 53007 70262 888// 333 69967 91139 92437=
07020,1999-12-04 10:00:00,9.2,1015.1,1.7,64,2.8,,50.004,,,310,,,,,,,,,,,og-post,,,,AAXX 04104 07020 36/// /3127 10092 20028 30134 40151 53017=
07020,1999-12-04 11:00:00,9.2,1015.4,1.4,65,3,,42.596,,,310,,,,,,,,,,,og-post,,,,AAXX 04114 07020 36/// /3123 10092 20030 30137 40154 52014=
07020,1999-12-04 13:00:00,9.2,1015.1,0,66,3.2,,50.004,,,310,,,,,,,,,,,og-post,,,,AAXX 04134 07020 36/// /3127 10092 20032 30134 40151 50000=
07020,1999-12-04 14:00:00,9.7,1014.8,-0.6,64,3.2,,53.708,75.932,75.932,300,,,,,,,,,,,og-post,,,,AAXX 04144 07020 36/// /3029 10097 20032 30131 40148 57006 333 91041 91141=
07020,1999-12-04 15:00:00,9.5,1015,-0.1,63,2.8,12000,57.412,75.932,,300,,,,,,,,,,,og-post,,,,AAXX 04154 07020 32562 53031 10095 20028 30133 40150 55001 85800 333 91141 92447=
07020,1999-12-04 16:00:00,8.6,1015.7,0.6,78,5,,42.596,87.044,,300,,,0.2,,,,,,,,og-post,,,,AAXX 04164 07020 26/// /3023 10086 20050 30140 40157 53006 333 69925 91147=
07020,1999-12-04 17:00:00,8.9,1016.4,1.6,69,3.5,,53.708,72.228,,330,,,,,,,,,,,og-post,,,,AAXX 04174 07020 26/// /3329 10089 20035 30147 40164 53016 333 69905 91139=
07020,1999-12-04 18:00:00,9,1016.9,1.9,66,3,15000,61.116,87.044,,310,7.7,9.9,,0.2,,0.8,,,,,og-post,,,,AAXX 04184 07020 /2565 13133 10090 20030 30152 40169 51019 69982 81800 333 10099 20077 69927 91147 92457=
07020,1999-12-04 19:00:00,9.1,1017.8,2.1,65,2.9,,53.708,83.34,,310,,,,,,,,,,,og-post,,,,AAXX 04194 07020 36/// /3129 10091 20029 30161 40178 53021 333 91145=
07020,1999-12-04 20:00:00,9.1,1018.5,2.1,62,2.2,,57.412,,,320,,,,,,,,,,,og-post,,,,AAXX 04204 07020 36/// /3231 10091 20022 30168 40185 53021=
07020,1999-12-04 21:00:00,9,1019.4,2.5,61,1.9,,57.412,83.34,,320,,,,,,,,,,,og-post,,,,AAXX 04214 07020 36/// /3231 10090 20019 30177 40194 52025 333 91145=
07020,1999-12-04 22:00:00,8.8,1020.4,2.6,64,2.4,,50.004,,,330,,,,,,,,,,,og-post,,,,AAXX 04224 07020 36/// /3327 10088 20024 30187 40204 53026=
07020,1999-12-04 23:00:00,8.6,1021.4,2.9,70,3.4,,46.3,72.228,,340,,,,,,,,,,,og-post,,,,AAXX 04234 07020 36/// /3425 10086 20034 30197 40214 53029 333 91139=
07020,1999-12-05 00:00:00,8.7,1022,2.6,68,3.1,,46.3,83.34,,340,,,,,,,,,,,og-post,,,,AAXX 05004 07020 36/// /3425 10087 20031 30203 40220 51026 333 91145=
07020,1999-12-05 01:00:00,8.5,1022.5,2.1,62,1.6,,46.3,,,340,,,,,,,,,,,og-post,,,,AAXX 05014 07020 36/// /3425 10085 20016 30208 40225 51021=
07020,1999-12-05 02:00:00,8.4,1023.5,2.1,64,2,,38.892,,,330,,,,,,,,,,,og-post,,,,AAXX 05024 07020 36/// /3321 10084 20020 30218 40235 53021=
07020,1999-12-05 03:00:00,8.4,1023.9,1.9,63,1.8,,31.484,,,340,,,,,,,,,,,og-post,,,,AAXX 05034 07020 36/// /3417 10084 20018 30222 40239 51019=
07020,1999-12-05 04:00:00,8.4,1024.4,1.9,65,2.2,,35.188,,,330,,,,,,,,,,,og-post,,,,AAXX 05044 07020 36/// /3319 10084 20022 30227 40244 51019=
07020,1999-12-05 05:00:00,8.5,1025.1,1.6,66,2.5,,31.484,,,330,,,,,,,,,,,og-post,,,,AAXX 05054 07020 36/// /3317 10085 20025 30234 40251 53016=
07020,1999-12-05 06:00:00,8.6,1025.6,1.7,62,1.7,15000,31.484,,,330,7.9,9.2,,,,,,,,,og-post,,,,AAXX 05064 07020 32965 13317 10086 20017 30239 40256 52017 81400 333 10092 20079 92447=
07020,1999-12-05 07:00:00,8.7,1026,1.6,65,2.5,,29.632,,,320,,,,,,,,,,,og-post,,,,AAXX 05074 07020 36/// /3216 10087 20025 30243 40260 51016=
07020,1999-12-05 08:00:00,8.6,1026.5,1.4,67,2.8,,31.484,,,320,,,,,,,,,,,og-post,,,,AAXX 05084 07020 36/// /3217 10086 20028 30248 40265 52014=
07020,1999-12-05 09:00:00,8.7,1027.3,1.7,65,2.5,20000,25.928,,,320,,,,,,,,,,,og-post,,,,AAXX 05094 07020 32770 23214 10087 20025 30256 40273 53017 82400 333 92438=
07020,1999-12-05 10:00:00,9.2,1028.1,2.1,62,2.3,,29.632,,,320,,,,,,,,,,,og-post,,,,AAXX 05104 07020 36/// /3216 10092 20023 30264 40281 53021=
07020,1999-12-05 11:00:00,9.2,1028.4,1.9,65,3,,29.632,,,310,,,,,,,,,,,og-post,,,,AAXX 05114 07020 36/// /3116 10092 20030 30267 40284 51019=
07020,1999-12-05 12:00:00,9.6,1028.3,1,58,1.8,20000,25.928,,,310,,,,,,,,,,,og-post,,,,AAXX 05124 07020 32670 23114 10096 20018 30266 40283 50010 82200 333 92438=
07020,1999-12-05 13:00:00,9.7,1028.5,0.4,56,1.4,,29.632,,,300,,,,,,,,,,,og-post,,,,AAXX 05134 07020 36/// /3016 10097 20014 30268 40285 51004=
07020,1999-12-05 14:00:00,9.7,1028.1,-0.3,56,1.4,,25.928,,,300,,,,,,,,,,,og-post,,,,AAXX 05144 07020 36/// /3014 10097 20014 30264 40281 58003=
07020,1999-12-05 15:00:00,9.5,1028.2,-0.1,58,1.7,20000,25.928,,,290,,,,,,,,,,,og-post,,,,AAXX 05154 07020 32670 72914 10095 20017 30265 40282 58001 87200 333 92438=
07020,1999-12-05 16:00:00,9.1,1028.1,-0.4,68,3.5,,25.928,,,270,,,,,,,,,,,og-post,,,,AAXX 05164 07020 36/// /2714 10091 20035 30264 40281 56004=
07020,1999-12-05 17:00:00,9,1028.3,0.2,71,4,,18.52,,,270,,,,,,,,,,,og-post,,,,AAXX 05174 07020 36/// /2710 10090 20040 30266 40283 53002=
07020,1999-12-05 18:00:00,9.4,1028.7,0.5,71,4.4,16000,22.224,,,270,8.5,9.9,,,,,,,,,og-post,,,,AAXX 05184 07020 32666 62712 10094 20044 30270 40287 53005 86200 333 10099 20085 92437=
07020,1999-12-05 19:00:00,9.9,1028.3,0.2,70,4.7,,25.928,,,270,,,,,,,,,,,og-post,,,,AAXX 05194 07020 36/// /2714 10099 20047 30266 40283 50002=
07020,1999-12-05 20:00:00,10.2,1028.2,-0.1,72,5.4,,31.484,,,260,,,,,,,,,,,og-post,,,,AAXX 05204 07020 36/// /2617 10102 20054 30265 40282 58001=
07020,1999-12-05 21:00:00,10.5,1027.8,-0.9,67,4.6,,29.632,,,270,,,,,,,,,,,og-post,,,,AAXX 05214 07020 36/// /2716 10105 20046 30261 40278 57009=
07020,1999-12-05 22:00:00,10.6,1027.5,-0.8,68,4.9,,38.892,,,260,,,,,,,,,,,og-post,,,,AAXX 05224 07020 36/// /2621 10106 20049 30258 40275 58008=
07020,1999-12-05 23:00:00,10.7,1026.9,-1.3,71,5.7,,38.892,,,260,,,,,,,,,,,og-post,,,,AAXX 05234 07020 36/// /2621 10107 20057 30252 40269 58013=
07020,1999-12-06 00:00:00,10.9,1026.7,-1.1,72,6.1,,38.892,,,260,,,,,,,,,,,og-post,,,,AAXX 06004 07020 36/// /2621 10109 20061 30250 40267 56011=
07020,1999-12-06 01:00:00,11,1026,-1.5,74,6.6,,46.3,,,250,,,,,,,,,,,og-post,,,,AAXX 06014 07020 36/// /2525 10110 20066 30243 40260 58015=
07020,1999-12-06 02:00:00,10.9,1025.7,-1.2,81,7.8,,53.708,68.524,,250,,,,,,,,,,,og-post,,,,AAXX 06024 07020 36/// /2529 10109 20078 30240 40257 58012 333 91137=
07020,1999-12-06 03:00:00,10.8,1024.9,-1.8,82,7.9,,50.004,68.524,,240,,,,,,,,,,,og-post,,,,AAXX 06034 07020 36/// /2427 10108 20079 30232 40249 58018 333 91137=
07020,1999-12-06 04:00:00,10.8,1024.2,-1.8,83,8,,53.708,,,240,,,,,,,,,,,og-post,,,,AAXX 06044 07020 36/// /2429 10108 20080 30225 40242 58018=
07020,1999-12-06 05:00:00,11.2,1023.5,-2.2,83,8.4,,53.708,,,260,,,,,,,,,,,og-post,,,,AAXX 06054 07020 36/// /2629 10112 20084 30218 40235 56022=
07020,1999-12-06 06:00:00,11.6,1023.3,-1.6,79,8.1,10000,61.116,83.34,,260,9.4,11.6,,,,,,,,,og-post,,,,AAXX 06064 07020 32660 82633 10116 20081 30216 40233 56016 88500 333 10116 20094 91145 92447=
07020,1999-12-06 07:00:00,11.4,1022.8,-1.4,83,8.6,,57.412,83.34,75.932,260,,,,,,,,,,,og-post,,,,AAXX 06074 07020 36/// /2631 10114 20086 30211 40228 56014 333 91041 91145=
07020,1999-12-06 08:00:00,11.8,1022.3,-1.2,81,8.6,,53.708,,75.932,260,,,,,,,,,,,og-post,,,,AAXX 06084 07020 36/// /2629 10118 20086 30206 40223 58012 333 91041=
07020,1999-12-06 09:00:00,11.9,1022.6,-0.7,79,8.4,10000,53.708,83.34,,260,,,,,,,,,,,og-post,,,,AAXX 06094 07020 32560 82629 10119 20084 30209 40226 55007 88500 333 91145 92457=
07020,1999-12-06 13:00:00,11.9,1021,-1.8,83,9.1,,53.708,75.932,75.932,250,,,,,,,,,,,og-post,,,,AAXX 06134 07020 26/// /2529 10119 20091 30193 40210 58018 333 69905 91041 91141=
07020,1999-12-06 14:00:00,11.9,1020.4,-1.9,85,9.5,,53.708,,,250,,,,,,,,,,,og-post,,,,AAXX 06144 07020 26/// /2529 10119 20095 30187 40204 58019 333 69905=
07020,1999-12-06 15:00:00,11.4,1020.3,-1.5,90,9.8,5000,53.708,75.932,,250,,,,0.4,,,,,,60,og-post,,,,AAXX 06154 07020 21550 82529 10114 20098 30186 40203 56015 760/6 88500 222// 336// 333 69947 91141 92456=
07020,1999-12-06 16:00:00,11.5,1019.8,-1.2,89,9.8,5000,57.412,83.34,,250,,,,,,,,,,60,og-post,,,,AAXX 06164 07020 21550 82531 10115 20098 30181 40198 56012 760/6 88500 222// 336// 333 69905 91145 92456=
07020,1999-12-06 17:00:00,11.5,1019.6,-0.8,90,9.9,,57.412,83.34,,250,,,,,,,,,,,og-post,,,,AAXX 06174 07020 26/// /2531 10115 20099 30179 40196 58008 333 69905 91145=
07020,1999-12-06 18:00:00,11.4,1019.3,-1,90,9.8,5000,57.412,83.34,,250,11.1,12.1,,0.2,,0.6,,,,21,og-post,,,,AAXX 06184 07020 /1550 82531 10114 20098 30176 40193 56010 69962 72162 88500 333 10121 20111 69927 91145 92456=
07020,1999-12-06 19:00:00,11.5,1018.9,-0.9,88,9.6,,57.412,,,250,,,,,,,,,,,og-post,,,,AAXX 06194 07020 36/// /2531 10115 20096 30172 40189 58009=
07020,1999-12-06 20:00:00,11.3,1018.5,-1.1,91,9.9,,57.412,79.636,,240,,,,,,,,,,,og-post,,,,AAXX 06204 07020 36/// /2431 10113 20099 30168 40185 58011 333 91143=
07020,1999-12-06 21:00:00,11.5,1018.2,-1.1,87,9.4,,57.412,,,240,,,,,,,,,,,og-post,,,,AAXX 06214 07020 36/// /2431 10115 20094 30165 40182 56011=
07020,1999-12-06 22:00:00,11.8,1017.8,-1.1,85,9.4,,61.116,87.044,,240,,,,,,,,,,,og-post,,,,AAXX 06224 07020 36/// /2433 10118 20094 30161 40178 57011 333 91147=
07020,1999-12-06 23:00:00,11.1,1017.4,-1.1,91,9.7,,61.116,83.34,83.34,240,,,,,,,,,,,og-post,,,,AAXX 06234 07020 36/// /2433 10111 20097 30157 40174 58011 333 91045 91145=
07020,1999-12-07 00:00:00,11.5,1016.8,-1.4,93,10.4,,57.412,87.044,,240,,,,0.4,0.4,,,,,,og-post,,,,AAXX 07004 07020 /6/// /2431 10115 20104 30151 40168 58014 69941 333 69947 91147=
07020,1999-12-07 01:00:00,11.7,1016.1,-1.7,91,10.3,,53.708,,,250,,,,,,,,,,,og-post,,,,AAXX 07014 07020 36/// /2529 10117 20103 30144 40161 58017=
07020,1999-12-07 02:00:00,11.8,1015.6,-1.8,90,10.2,,57.412,,,250,,,,,,,,,,,og-post,,,,AAXX 07024 07020 36/// /2531 10118 20102 30139 40156 56018=
07020,1999-12-07 03:00:00,11.8,1015,-1.8,91,10.4,,57.412,,,240,,,,,,,,,,,og-post,,,,AAXX 07034 07020 36/// /2431 10118 20104 30133 40150 56018=
07020,1999-12-07 04:00:00,11.6,1014.3,-1.8,95,10.8,,57.412,79.636,,240,,,0.2,,,,,,,,og-post,,,,AAXX 07044 07020 26/// /2431 10116 20108 30126 40143 58018 333 69925 91143=
07020,1999-12-07 05:00:00,11.5,1013.6,-2,96,10.9,,57.412,,,240,,,1,,,,,,,,og-post,,,,AAXX 07054 07020 26/// /2431 10115 20109 30119 40136 58020 333 60015=
07020,1999-12-07 06:00:00,11.5,1013.5,-1.5,97,11,5000,57.412,79.636,,240,11,11.9,,2,,2,,,,60,og-post,,,,AAXX 07064 07020 /1550 82431 10115 20110 30118 40135 56015 60022 760// 887// 333 10119 20110 60027 91143 92456=
07020,1999-12-07 07:00:00,11.8,1013.6,-0.7,97,11.3,,46.3,,,250,,,1,,,,,,,,og-post,,,,AAXX 07074 07020 26/// /2525 10118 20113 30119 40136 55007 333 60015=
07020,1999-12-07 08:00:00,11.9,1013.8,0.2,96,11.3,,31.484,,,260,,,,,,,,,,,og-post,,,,AAXX 07084 07020 26/// /2617 10119 20113 30121 40138 53002 333 69905=
07020,1999-12-07 09:00:00,12,1013.7,0.2,89,10.2,12000,38.892,,,270,,,,1,,,,,,1,og-post,,,,AAXX 07094 07020 21562 62721 10120 20102 30120 40137 50002 70162 86890 333 60017 92447=
07020,1999-12-07 10:00:00,12.2,1014.2,0.6,81,9,,31.484,,,270,,,,,,,,,,,og-post,,,,AAXX 07104 07020 36/// /2717 10122 20090 30125 40142 53006=
07020,1999-12-07 11:00:00,12.3,1013.8,0,83,9.5,,38.892,,,260,,,,,,,,,,,og-post,,,,AAXX 07114 07020 36/// /2621 10123 20095 30121 40138 50000=
07020,1999-12-07 12:00:00,12.2,1013.3,-0.4,82,9.2,6000,38.892,,,280,,,,,1,,,,,3,og-post,,,,AAXX 07124 07020 11556 72821 10122 20092 30116 40133 58004 60011 70362 87800 333 92446=
07020,1999-12-07 13:00:00,12,1013.1,-1.1,77,8.1,,42.596,64.82,64.82,280,,,,,,,,,,,og-post,,,,AAXX 07134 07020 36/// /2823 10120 20081 30114 40131 56011 333 91035 91135=
07020,1999-12-07 14:00:00,12.1,1012.7,-1.1,73,7.4,,42.596,68.524,68.524,270,,,,,,,,,,,og-post,,,,AAXX 07144 07020 36/// /2723 10121 20074 30110 40127 56011 333 91037 91137=
07020,1999-12-07 15:00:00,12.3,1012.9,-0.4,77,8.4,8000,46.3,72.228,72.228,270,,,,,,,,,,,og-post,,,,AAXX 07154 07020 32558 72725 10123 20084 30112 40129 55004 87802 333 91039 91139 92446=
07020,1999-12-07 16:00:00,10.7,1013.2,0.1,81,7.6,,50.004,79.636,,290,,,1,,,,,,,,og-post,,,,AAXX 07164 07020 26/// /2927 10107 20076 30115 40132 53001 333 60015 91143=
07020,1999-12-07 17:00:00,11.2,1013.8,1.1,79,7.7,,35.188,,,280,,,,,,,,,,,og-post,,,,AAXX 07174 07020 26/// /2819 10112 20077 30121 40138 53011 333 69905=
07020,1999-12-07 18:00:00,11.4,1014.2,1.3,73,6.7,8000,35.188,79.636,,280,10.3,13.3,,1,,2,,,,,og-post,,,,AAXX 07184 07020 /3658 62819 10114 20067 30125 40142 53013 60022 86800 333 10133 20103 60017 91143 92446=
07020,1999-12-07 19:00:00,11.3,1014.5,1.3,72,6.4,,42.596,64.82,61.116,290,,,,,,,,,,,og-post,,,,AAXX 07194 07020 36/// /2923 10113 20064 30128 40145 51013 333 91033 91135=
07020,1999-12-07 20:00:00,11.4,1014.9,1.1,72,6.5,,31.484,,,280,,,,,,,,,,,og-post,,,,AAXX 07204 07020 36/// /2817 10114 20065 30132 40149 52011=
07020,1999-12-07 21:00:00,11.2,1015.2,1,73,6.5,,31.484,64.82,,280,,,,,,,,,,,og-post,,,,AAXX 07214 07020 36/// /2817 10112 20065 30135 40152 52010 333 91135=
07020,1999-12-07 22:00:00,11.4,,0.7,70,6.1,,35.188,,,290,,,,,,,,,,,og-post,,,,AAXX 07224 07020 36/// /2919 10114 20061 30135 4152 51007=
07020,1999-12-07 23:00:00,11.3,1015.1,0.2,72,6.4,,31.484,,,270,,,,,,,,,,,og-post,,,,AAXX 07234 07020 36/// /2717 10113 20064 30134 40151 50002=
07020,1999-12-08 00:00:00,11.2,1015,-0.2,74,6.7,,25.928,64.82,,280,,,,,,,,,,,og-post,,,,AAXX 08004 07020 36/// /2814 10112 20067 30133 40150 58002 333 91135=
07020,1999-12-08 01:00:00,10,1014.9,-0.3,85,7.6,,31.484,,,250,,,,,,,,,,,og-post,,,,AAXX 08014 07020 36/// /2517 10100 20076 30132 40149 57003=
07020,1999-12-08 02:00:00,10.2,1014.5,-0.6,79,6.7,,31.484,68.524,,270,,,0.4,,,,,,,,og-post,,,,AAXX 08024 07020 26/// /2717 10102 20067 30128 40145 58006 333 69945 91137=
07020,1999-12-08 03:00:00,10.6,1013.9,-1.1,85,8.2,,31.484,68.524,,260,,,,0.4,,,,,,,og-post,,,,AAXX 08034 07020 26/// /2617 10106 20082 30122 40139 58011 333 69947 91137=
07020,1999-12-08 04:00:00,11,1013.3,-1.6,78,7.3,,38.892,,,260,,,,,,,,,,,og-post,,,,AAXX 08044 07020 36/// /2621 10110 20073 30116 40133 58016=
07020,1999-12-08 05:00:00,11.3,1012.7,-1.8,80,8,,46.3,,,250,,,,,,,,,,,og-post,,,,AAXX 08054 07020 36/// /2525 10113 20080 30110 40127 57018=
07020,1999-12-08 06:00:00,11.1,1011.8,-2.1,86,8.8,8000,50.004,68.524,,240,9.9,11.6,,0.2,,0.6,,,,,og-post,,,,AAXX 08064 07020 /2658 62427 10111 20088 30101 40118 58021 69962 86800 333 10116 20099 69927 91137 92446=
07020,1999-12-08 07:00:00,11,1011,-2.3,87,8.9,,50.004,,,230,,,,,,,,,,,og-post,,,,AAXX 08074 07020 36/// /2327 10110 20089 30093 40110 58023=
07020,1999-12-08 08:00:00,11.1,1010.2,-2.5,87,9,,53.708,,,230,,,,,,,,,,,og-post,,,,AAXX 08084 07020 36/// /2329 10111 20090 30085 40102 56025=
07020,1999-12-08 09:00:00,11.2,1009.4,-2.4,86,8.9,8000,53.708,75.932,,230,,,,,,,,,,,og-post,,,,AAXX 08094 07020 32658 72329 10112 20089 30077 40094 57024 87720 333 91141 92446=
07020,1999-12-08 10:00:00,11.4,1008.7,-2.3,85,9,,57.412,,75.932,230,,,,,,,,,,,og-post,,,,AAXX 08104 07020 36/// /2331 10114 20090 30070 40087 56023 333 91041=
07020,1999-12-08 11:00:00,11.6,1007.4,-2.8,84,9,,57.412,79.636,75.932,220,,,,,,,,,,,og-post,,,,AAXX 08114 07020 36/// /2231 10116 20090 30057 40074 58028 333 91041 91143=
07020,1999-12-08 12:00:00,11.6,1005.7,-3.7,84,9,8000,57.412,79.636,79.636,220,,,,,,,,,,,og-post,,,,AAXX 08124 07020 32558 82231 10116 20090 30040 40057 58037 88700 333 91043 91143 92446=
07020,1999-12-08 13:00:00,12,1004.1,-4.6,83,9.2,,57.412,83.34,,220,,,,,,,,,,,og-post,,,,AAXX 08134 07020 36/// /2231 10120 20092 30024 40041 58046 333 91145=
07020,1999-12-08 14:00:00,12.3,1002.9,-4.5,83,9.5,,61.116,87.044,83.34,230,,,,,,,,,,,og-post,,,,AAXX 08144 07020 36/// /2333 10123 20095 30012 40029 56045 333 91045 91147=
07020,1999-12-08 15:00:00,11.7,1002.1,-3.6,91,10.3,6000,61.116,90.748,87.044,240,,,,,,,,,,60,og-post,,,,AAXX 08154 07020 21556 82433 10117 20103 30004 40021 56036 76022 88700 333 69907 91047 91149 92446=
07020,1999-12-08 16:00:00,11.8,1001.2,-2.9,94,10.9,,57.412,83.34,83.34,240,,,0.8,,,,,,,,og-post,,,,AAXX 08164 07020 26/// /2431 10118 20109 39995 40012 56029 333 69985 91045 91145=
07020,1999-12-08 17:00:00,10.7,1001.4,-1.5,93,9.6,,53.708,94.452,79.636,270,,,3,,,,,,,,og-post,,,,AAXX 08174 07020 26/// /2729 10107 20096 39997 40014 55015 333 60035 91043 91151=
07020,1999-12-08 18:00:00,11,1001.1,-1,92,9.8,5000,53.708,94.452,,250,10.5,12.3,,5,,5,,,,21,og-post,,,,AAXX 08184 07020 /1550 82529 10110 20098 39994 40011 56010 60052 72162 88700 333 10123 20105 60057 91151 92456=
07020,1999-12-08 19:00:00,11.1,1001.5,0.3,72,6.2,,61.116,79.636,79.636,270,,,,,,,,,,,og-post,,,,AAXX 08194 07020 36/// /2733 10111 20062 39998 40015 53003 333 91043 91143=
07020,1999-12-08 22:00:00,10.7,1001.2,-0.3,67,4.8,,50.004,,72.228,270,,,,,,,,,,,og-post,,,,AAXX 08224 07020 36/// /2727 10107 20048 39995 40012 58003 333 91039=
07020,1999-12-08 23:00:00,10.1,1001,-0.5,71,5.1,,53.708,75.932,,270,,,0.2,,,,,,,,og-post,,,,AAXX 08234 07020 26/// /2729 10101 20051 39993 40010 58005 333 69925 91141=
07020,1999-12-09 00:00:00,10.5,1000.6,-0.9,68,4.9,,50.004,79.636,75.932,270,,,,0.2,0.4,,,,,,og-post,,,,AAXX 09004 07020 /6/// /2727 10105 20049 39989 40006 58009 69941 333 69927 91041 91143=
07020,1999-12-09 01:00:00,8.3,1000.4,-0.8,83,5.6,,50.004,90.748,75.932,270,,,0.6,,,,,,,,og-post,,,,AAXX 09014 07020 26/// /2727 10083 20056 39987 40004 57008 333 69965 91041 91149=
07020,1999-12-09 02:00:00,9.2,999.8,-1.2,72,4.4,,57.412,79.636,,260,,,,,,,,,,,og-post,,,,AAXX 09024 07020 36/// /2631 10092 20044 39981 49998 58012 333 91143=
07020,1999-12-09 03:00:00,8.2,999.5,-1.1,82,5.3,,53.708,96.304,90.748,270,,,,2,,,,,,,og-post,,,,AAXX 09034 07020 26/// /2729 10082 20053 39978 49995 58011 333 60027 91049 91152=
07020,1999-12-09 04:00:00,8.4,999,-1.4,82,5.5,,50.004,87.044,72.228,260,,,0.4,,,,,,,,og-post,,,,AAXX 09044 07020 26/// /2627 10084 20055 39973 49990 56014 333 69945 91039 91147=
07020,1999-12-09 05:00:00,8.4,998.8,-1,80,5.2,,50.004,75.932,75.932,280,,,,,,,,,,,og-post,,,,AAXX 09054 07020 36/// /2827 10084 20052 39971 49988 56010 333 91041 91141=
07020,1999-12-09 06:00:00,8.8,998.7,-0.8,79,5.4,12000,50.004,96.304,,290,7.4,11.5,,1,,3,,,,,og-post,,,,AAXX 09064 07020 /2/62 42927 10088 20054 39970 49987 56008 60032 84800 333 10115 20074 60017 91152 92447=
07020,1999-12-09 07:00:00,8.8,998.8,-0.2,71,3.8,,53.708,83.34,83.34,270,,,0.2,,,,,,,,og-post,,,,AAXX 09074 07020 26/// /2729 10088 20038 39971 49988 55002 333 69925 91045 91145=
07020,1999-12-09 08:00:00,9.1,998.4,-0.4,72,4.3,,50.004,83.34,,260,,,0.2,,,,,,,,og-post,,,,AAXX 09084 07020 26/// /2627 10091 20043 39967 49984 58004 333 69925 91145=
07020,1999-12-09 09:00:00,9.1,998.3,-0.4,73,4.5,12000,53.708,87.044,,260,,,,0.6,,,,,,,og-post,,,,AAXX 09094 07020 22562 52629 10091 20045 39966 49983 58004 85400 333 69967 91147 92457=
07020,1999-12-09 10:00:00,9.2,998.2,-0.6,73,4.6,,53.708,75.932,,260,,,,,,,,,,,og-post,,,,AAXX 09104 07020 36/// /2629 10092 20046 39965 49982 56006 333 91141=
07020,1999-12-09 11:00:00,9.7,998,-0.4,71,4.7,,50.004,,72.228,260,,,,,,,,,,,og-post,,,,AAXX 09114 07020 36/// /2627 10097 20047 39963 49980 58004 333 91039=
07020,1999-12-09 12:00:00,9.2,997.4,-0.9,74,4.8,12000,50.004,87.044,68.524,260,,,,0.4,1,,,,,21,og-post,,,,AAXX 09124 07020 /1562 62627 10092 20048 39957 49974 58009 60011 72162 86700 333 69947 91037 91147 92447=
07020,1999-12-09 13:00:00,8.3,996.8,-1.4,77,4.5,,50.004,75.932,75.932,260,,,0.4,,,,,,,,og-post,,,,AAXX 09134 07020 26/// /2627 10083 20045 39951 49968 58014 333 69945 91041 91141=
07020,1999-12-09 14:00:00,9.8,996.4,-1.6,69,4.4,,46.3,72.228,,270,,,,,,,,,,,og-post,,,,AAXX 09144 07020 36/// /2725 10098 20044 39947 49964 56016 333 91139=
07020,1999-12-09 15:00:00,9.6,995.9,-1.5,70,4.4,12000,46.3,75.932,72.228,270,,,,0.8,,,,,,2,og-post,,,,AAXX 09154 07020 21562 72725 10096 20044 39942 49959 56015 70262 87700 333 69987 91039 91141 92457=
07020,1999-12-09 16:00:00,9,996,-0.8,71,4,,46.3,79.636,75.932,270,,,0.2,,,,,,,,og-post,,,,AAXX 09164 07020 26/// /2725 10090 20040 39943 49960 55008 333 69925 91041 91143=
07020,1999-12-09 17:00:00,8.7,996.2,-0.2,79,5.3,,46.3,90.748,68.524,270,,,0.2,,,,,,,,og-post,,,,AAXX 09174 07020 26/// /2725 10087 20053 39945 49962 55002 333 69925 91037 91149=
07020,1999-12-09 18:00:00,9.6,996.3,0.4,76,5.6,5000,38.892,90.748,,270,7.6,10.5,,0.4,,2,,,,2,og-post,,,,AAXX 09184 07020 /1550 82721 10096 20056 39946 49963 52004 60022 70262 88700 333 10105 20076 69947 91149 92446=
07020,1999-12-09 19:00:00,9.7,996.5,0.5,77,5.9,,38.892,72.228,64.82,270,,,,,,,,,,,og-post,,,,AAXX 09194 07020 36/// /2721 10097 20059 39948 49965 52005 333 91035 91139=
07020,1999-12-09 20:00:00,10.4,996.9,0.7,70,5.2,,53.708,79.636,79.636,290,,,,,,,,,,,og-post,,,,AAXX 09204 07020 36/// /2929 10104 20052 39952 49969 53007 333 91043 91143=
07020,1999-12-09 21:00:00,9.9,997.2,0.9,78,6.2,,64.82,87.044,87.044,300,,,,0.2,,,,,,,og-post,,,,AAXX 09214 07020 26/// /3035 10099 20062 39955 49972 53009 333 69927 91047 91147=
07020,1999-12-09 22:00:00,10.1,997.5,1,76,6.1,,57.412,90.748,79.636,290,,,,,,,,,,,og-post,,,,AAXX 09224 07020 36/// /2931 10101 20061 39958 49975 51010 333 91043 91149=
07020,1999-12-09 23:00:00,9.7,998.3,1.4,80,6.4,,61.116,87.044,83.34,290,,,0.2,,,,,,,,og-post,,,,AAXX 09234 07020 26/// /2933 10097 20064 39966 49983 53014 333 69925 91045 91147=
07020,1999-12-10 00:00:00,10,998.5,1.3,78,6.3,,57.412,90.748,,300,,,,0.2,0.4,,,,,,og-post,,,,AAXX 10004 07020 /6/// /3031 10100 20063 39968 49985 51013 69941 333 69927 91149=
07020,1999-12-10 01:00:00,9.8,999.3,1.8,78,6.2,,50.004,,,300,,,,,,,,,,,og-post,,,,AAXX 10014 07020 36/// /3027 10098 20062 39976 49993 52018=
07020,1999-12-10 02:00:00,9.6,999.9,1.6,79,6.1,,46.3,,,310,,,,,,,,,,,og-post,,,,AAXX 10024 07020 36/// /3125 10096 20061 39982 49999 53016=
07020,1999-12-10 03:00:00,9.7,1000.8,2.3,77,5.9,,46.3,,,310,,,,,,,,,,,og-post,,,,AAXX 10034 07020 36/// /3125 10097 20059 39991 40008 53023=
07020,1999-12-10 04:00:00,9.7,1001.4,2.1,75,5.5,,46.3,,,300,,,,,,,,,,,og-post,,,,AAXX 10044 07020 36/// /3025 10097 20055 39997 40014 52021=
07020,1999-12-10 05:00:00,9.5,1002.1,2.2,76,5.5,,57.412,,,300,,,,,,,,,,,og-post,,,,AAXX 10054 07020 36/// /3031 10095 20055 30004 40021 51022=
07020,1999-12-10 06:00:00,9.4,1003,2.2,76,5.4,15000,53.708,,,300,8.9,10.7,,,,0.4,,,,,og-post,,,,AAXX 10064 07020 12665 53029 10094 20054 30013 40030 53022 69942 85800 333 10107 20089 92457=
07020,1999-12-10 07:00:00,9.3,1003.9,2.5,73,4.7,,50.004,,,300,,,,,,,,,,,og-post,,,,AAXX 10074 07020 36/// /3027 10093 20047 30022 40039 53025=
07020,1999-12-10 08:00:00,9.4,1004.9,2.8,67,3.6,,46.3,,,300,,,,,,,,,,,og-post,,,,AAXX 10084 07020 36/// /3025 10094 20036 30032 40049 53028=
07020,1999-12-10 09:00:00,9.4,1005.6,2.6,69,4,15000,50.004,,,300,,,,,,,,,,,og-post,,,,AAXX 10094 07020 32665 53027 10094 20040 30039 40056 51026 85800 333 92457=
07020,1999-12-10 10:00:00,9.4,1006.3,2.4,73,4.8,,46.3,,,300,,,0.2,,,,,,,,og-post,,,,AAXX 10104 07020 26/// /3025 10094 20048 30046 40063 51024 333 69925=
07020,1999-12-10 11:00:00,9.7,1006.7,1.8,68,4.1,,46.3,,,300,,,,,,,,,,,og-post,,,,AAXX 10114 07020 36/// /3025 10097 20041 30050 40067 51018=
07020,1999-12-10 12:00:00,9.6,1006.6,1,65,3.4,15000,42.596,,,300,,,,0.2,0.2,,,,,,og-post,,,,AAXX 10124 07020 /2665 53023 10096 20034 30049 40066 50010 69921 85800 333 69927 92447=
07020,1999-12-10 13:00:00,9.9,1006.4,0.1,58,2,,31.484,,,280,,,,,,,,,,,og-post,,,,AAXX 10134 07020 36/// /2817 10099 20020 30047 40064 50001=
07020,1999-12-10 15:00:00,9.4,1005.6,-1,73,4.8,12000,35.188,,,250,,,,,,,,,,,og-post,,,,AAXX 10154 07020 32562 82519 10094 20048 30039 40056 58010 888// 333 92447=
07020,1999-12-10 16:00:00,8.1,1005.2,-1.2,82,5.2,,29.632,,,260,,,0.4,,,,,,,,og-post,,,,AAXX 10164 07020 26/// /2616 10081 20052 30035 40052 57012 333 69945=
07020,1999-12-10 22:00:00,12,996.3,-4.4,97,11.5,,31.484,75.932,68.524,270,,,11,,,,,,,,og-post,,,,AAXX 10224 07020 26/// /2717 10120 20115 39946 49963 56044 333 60115 91037 91141=
07020,1999-12-10 23:00:00,12.4,996.6,-2.4,91,11,,42.596,75.932,,270,,,,,,,,,,,og-post,,,,AAXX 10234 07020 36/// /2723 10124 20110 39949 49966 55024 333 91141=
07020,1999-12-11 00:00:00,12.4,997.7,0.5,88,10.5,,42.596,75.932,,280,,,,11,17,,,,,,og-post,,,,AAXX 11004 07020 /6/// /2823 10124 20105 39960 49977 53005 60171 333 60117 91141=
07020,1999-12-11 01:00:00,12.4,997.7,1.4,89,10.6,,38.892,61.116,,270,,,,,,,,,,,og-post,,,,AAXX 11014 07020 36/// /2721 10124 20106 39960 49977 51014 333 91133=
07020,1999-12-11 06:00:00,12.3,996.9,-0.3,95,11.5,10000,50.004,75.932,72.228,260,7.7,12.5,,2,,18,,,,,og-post,,,,AAXX 11064 07020 /2560 82627 10123 20115 39952 49969 55003 60182 887// 333 10125 20077 60027 91039 91141 92447=
07020,1999-12-11 08:00:00,12.6,995.9,-0.9,92,11.3,,64.82,87.044,87.044,250,,,0.2,,,,,,,,og-post,,,,AAXX 11084 07020 26/// /2535 10126 20113 39942 49959 58009 333 69925 91047 91147=
07020,1999-12-11 09:00:00,12.8,995.2,-1.7,92,11.5,5000,72.228,96.304,96.304,250,,,,0.4,,,,,,64,og-post,,,,AAXX 11094 07020 21450 82539 10128 20115 39935 49952 58017 76462 887// 333 69947 91052 91152 92456=
07020,1999-12-11 10:00:00,12.8,994.5,-1.9,93,11.7,,72.228,96.304,94.452,250,,,0.2,,,,,,,,og-post,,,,AAXX 11104 07020 26/// /2539 10128 20117 39928 49945 58019 333 69925 91051 91152=
07020,1999-12-11 13:00:00,12.8,992,-2.4,94,11.9,,75.932,107.416,,250,,,0.2,,,,,,,,og-post,,,,AAXX 11134 07020 26/// /2541 10128 20119 39904 49920 56024 333 69925 91158=
07020,1999-12-11 14:00:00,11.1,993.6,0.2,94,10.2,,38.892,107.416,61.116,270,,,1,,,,,,,,og-post,,,,AAXX 11144 07020 26/// /2721 10111 20102 39919 49936 53002 333 60015 91033 91158=
07020,1999-12-11 20:00:00,12.4,994,-0.3,85,10,,53.708,75.932,,250,,,,,,,,,,,og-post,,,,AAXX 11204 07020 36/// /2529 10124 20100 39923 49940 58003 333 91141=
07020,1999-12-11 21:00:00,12.1,993.2,-1,87,10,,50.004,75.932,,260,,,,,,,,,,,og-post,,,,AAXX 11214 07020 36/// /2627 10121 20100 39915 49932 58010 333 91141=
07020,1999-12-11 23:00:00,12.2,991.5,-2.4,89,10.4,,50.004,75.932,,240,,,,,,,,,,,og-post,,,,AAXX 11234 07020 36/// /2427 10122 20104 39899 49915 58024 333 91141=
07020,1999-12-12 01:00:00,10.9,988.5,-4.2,94,10,,50.004,,,220,,,2,,,,,,,,og-post,,,,AAXX 12014 07020 26/// /2227 10109 20100 39868 49885 58042 333 60025=
07020,1999-12-12 02:00:00,10.4,987.1,-4.5,92,9.2,,50.004,,,230,,,1,,,,,,,,og-post,,,,AAXX 12024 07020 26/// /2327 10104 20092 39854 49871 58045 333 60015=
07020,1999-12-12 03:00:00,10.5,986,-4.6,94,9.6,,50.004,,,250,,,,5,,,,,,,og-post,,,,AAXX 12034 07020 26/// /2527 10105 20096 39843 49860 56046 333 60057=
07020,1999-12-12 06:00:00,9.4,985.9,-0.1,88,7.5,12000,50.004,,,310,9,12.5,,8,,13,,,,62,og-post,,,,AAXX 12064 07020 /1562 83127 10094 20075 39842 49859 55001 60132 762// 887// 333 10125 20090 60087 92457=
07020,1999-12-12 08:00:00,10.2,989.6,4.6,76,6.2,,61.116,,,310,,,0.2,,,,,,,,og-post,,,,AAXX 12084 07020 26/// /3133 10102 20062 39879 49896 53046 333 69925=
07020,1999-12-12 11:00:00,10,994.5,4.9,75,5.8,,64.82,87.044,87.044,300,,,,,,,,,,,og-post,,,,AAXX 12114 07020 36/// /3035 10100 20058 39928 49945 51049 333 91047 91147=
07020,1999-12-12 13:00:00,10,997.2,4.2,70,4.8,,75.932,103.712,96.304,300,,,,,,,,,,,og-post,,,,AAXX 12134 07020 36/// /3041 10100 20048 39955 49972 51042 333 91052 91156=
07020,1999-12-12 14:00:00,9.3,998.6,4.1,70,4.1,,75.932,100.008,96.304,290,,,,,,,,,,,og-post,,,,AAXX 12144 07020 36/// /2941 10093 20041 39969 49986 53041 333 91052 91154=
07020,1999-12-12 16:00:00,9.6,1001.3,4.1,69,4.2,,68.524,103.712,90.748,300,,,,,,,,,,,og-post,,,,AAXX 12164 07020 36/// /3037 10096 20042 39996 40013 52041 333 91049 91156=
07020,1999-12-12 18:00:00,9.7,1003.8,3.9,66,3.7,10000,68.524,103.712,,300,9.3,10.5,,,,0.2,,,,,og-post,,,,AAXX 12184 07020 12560 73037 10097 20037 30021 40038 51039 69922 878// 333 10105 20093 91156 92467=
07020,1999-12-12 23:00:00,9.5,1008.1,2.5,71,4.5,,61.116,79.636,,300,,,0.2,,,,,,,,og-post,,,,AAXX 12234 07020 26/// /3033 10095 20045 30064 40081 51025 333 69925 91143=
07020,1999-12-13 00:00:00,9.5,1008.7,2.1,68,3.9,,61.116,94.452,,300,,,,0.2,0.4,,,,,,og-post,,,,AAXX 13004 07020 /6/// /3033 10095 20039 30070 40087 51021 69941 333 69927 91151=
07020,1999-12-13 01:00:00,8.7,1009.4,2.1,73,4.1,,57.412,83.34,83.34,300,,,0.2,,,,,,,,og-post,,,,AAXX 13014 07020 26/// /3031 10087 20041 30077 40094 51021 333 69925 91045 91145=
07020,1999-12-13 02:00:00,9.2,1009.7,1.6,70,4,,38.892,,61.116,280,,,0.8,,,,,,,,og-post,,,,AAXX 13024 07020 26/// /2821 10092 20040 30080 40097 51016 333 69985 91033=
07020,1999-12-13 05:00:00,8.7,1009.6,-0.1,73,4.1,,29.632,79.636,,280,,,0.2,,,,,,,,og-post,,,,AAXX 13054 07020 26/// /2816 10087 20041 30079 40096 56001 333 69925 91143=
07020,1999-12-13 06:00:00,9.1,1009.3,-0.2,75,4.9,8000,42.596,83.34,,270,7.4,9.9,,0.4,,2,,,,,og-post,,,,AAXX 13064 07020 /2558 72723 10091 20049 30076 40093 58002 60022 877// 333 10099 20074 69947 91145 92446=
07020,1999-12-13 08:00:00,9,1007.9,-1.7,85,6.6,,35.188,68.524,,250,,,0.6,,,,,,,,og-post,,,,AAXX 13084 07020 26/// /2519 10090 20066 30062 40079 58017 333 69965 91137=
07020,1999-12-13 09:00:00,10.1,1007.3,-2,76,6.1,10000,46.3,68.524,,260,,,,0.6,,,,,,,og-post,,,,AAXX 13094 07020 22560 72625 10101 20061 30056 40073 57020 87200 333 69967 91137 92447=
07020,1999-12-13 12:00:00,9.9,1003.3,-4,87,7.8,6000,72.228,107.416,94.452,250,,,,2,2,,,,,25,og-post,,,,AAXX 13124 07020 /1556 72539 10099 20078 30016 40033 58040 60021 72582 872// 333 60027 91051 91158 92456=
07020,1999-12-13 13:00:00,10.3,1001.5,-5.1,86,8.1,,75.932,94.452,94.452,250,,,1,,,,,,,,og-post,,,,AAXX 13134 07020 26/// /2541 10103 20081 39998 40015 58051 333 60015 91051 91151=
07020,1999-12-13 15:00:00,9.7,1001.1,-2.2,84,7.1,10000,46.3,96.304,68.524,270,,,,4,,,,,,2,og-post,,,,AAXX 13154 07020 21560 72725 10097 20071 39994 40011 55022 70262 87500 333 60047 91037 91152 92457=
07020,1999-12-13 16:00:00,10.5,1001.1,-0.4,70,5.3,,50.004,72.228,,290,,,,,,,,,,,og-post,,,,AAXX 13164 07020 36/// /2927 10105 20053 39994 40011 56004 333 91139=
07020,1999-12-13 20:00:00,8.1,1000.9,-0.1,81,5,,31.484,,,280,,,0.2,,,,,,,,og-post,,,,AAXX 13204 07020 26/// /2817 10081 20050 39992 40009 58001 333 69925=
07020,1999-12-13 21:00:00,9.1,1000.3,-0.9,71,4.1,,35.188,,57.412,280,,,,0.4,,,,,,,og-post,,,,AAXX 13214 07020 26/// /2819 10091 20041 39986 40003 58009 333 69947 91031=
07020,1999-12-13 22:00:00,9.4,999.8,-1.5,72,4.6,,35.188,61.116,57.412,280,,,,,,,,,,,og-post,,,,AAXX 13224 07020 36/// /2819 10094 20046 39981 49998 58015 333 91031 91133=
07020,1999-12-13 23:00:00,7.7,1000.1,-0.8,78,4.1,,38.892,79.636,68.524,290,,,0.4,,,,,,,,og-post,,,,AAXX 13234 07020 26/// /2921 10077 20041 39984 40001 55008 333 69945 91037 91143=
07020,1999-12-14 00:00:00,8.8,999.7,-0.6,67,3,,46.3,79.636,,290,,,,0.4,0.8,,,,,,og-post,,,,AAXX 14004 07020 /6/// /2925 10088 20030 39980 49997 56006 69981 333 69947 91143=
07020,1999-12-14 01:00:00,8.7,999.3,-0.5,67,2.9,,53.708,,,300,,,,,,,,,,,og-post,,,,AAXX 14014 07020 36/// /3029 10087 20029 39976 49993 58005=
07020,1999-12-14 02:00:00,6.9,999.5,-0.6,72,2.2,,42.596,94.452,75.932,290,,,,,,,,,,,og-post,,,,AAXX 14024 07020 36/// /2923 10069 20022 39978 49995 55006 333 91041 91151=
07020,1999-12-14 03:00:00,7.3,999.4,-0.3,72,2.6,,35.188,94.452,,300,,,,,,,,,,,og-post,,,,AAXX 14034 07020 36/// /3019 10073 20026 39977 49994 56003 333 91151=
07020,1999-12-14 04:00:00,7.9,999.1,-0.2,66,2,,50.004,,,310,,,,,,,,,,,og-post,,,,AAXX 14044 07020 36/// /3127 10079 20020 39974 49991 58002=
07020,1999-12-14 05:00:00,7.8,999.3,-0.2,61,0.8,,50.004,,,310,,,,,,,,,,,og-post,,,,AAXX 14054 07020 36/// /3127 10078 20008 39976 49993 55002=
07020,1999-12-14 09:00:00,7.3,1000.5,0.8,72,2.6,15000,35.188,,,320,,,,,,,,,,,og-post,,,,AAXX 14094 07020 32565 53219 10073 20026 39988 40005 53008 85800 333 92447=
07020,1999-12-14 10:00:00,7.4,1001,1.2,69,2.1,,31.484,,,320,,,,,,,,,,,og-post,,,,AAXX 14104 07020 36/// /3217 10074 20021 39993 40010 53012=
07020,1999-12-14 11:00:00,7.9,1001.2,1.2,69,2.6,,29.632,,,310,,,,,,,,,,,og-post,,,,AAXX 14114 07020 36/// /3116 10079 20026 39995 40012 51012=
07020,1999-12-14 12:00:00,7.8,1000.8,0.3,69,2.5,15000,35.188,,,310,,,,,,,,,,,og-post,,,,AAXX 14124 07020 32565 53119 10078 20025 39991 40008 50003 85400 333 92447=
07020,1999-12-14 14:00:00,8.2,1001.1,-0.1,68,2.7,,31.484,,,310,,,,,,,,,,,og-post,,,,AAXX 14144 07020 36/// /3117 10082 20027 39994 40011 55001=
07020,1999-12-14 15:00:00,7.6,1001.3,0.5,67,1.9,,35.188,,,310,,,,,,,,,,,og-post,,,,AAXX 14154 07020 36/// /3119 10076 20019 39996 40013 52005=
07020,1999-12-14 16:00:00,7.3,1001.7,0.7,68,1.8,,31.484,,,320,,,,,,,,,,,og-post,,,,AAXX 14164 07020 36/// /3217 10073 20018 30000 40017 53007=
07020,1999-12-14 17:00:00,7.3,1002.1,1,65,1.2,,29.632,,,340,,,,,,,,,,,og-post,,,,AAXX 14174 07020 36/// /3416 10073 20012 30004 40021 53010=
07020,1999-12-14 19:00:00,7.3,1003.1,1.4,60,0.1,,29.632,,,330,,,,,,,,,,,og-post,,,,AAXX 14194 07020 36/// /3316 10073 20001 30014 40031 52014=
07020,1999-12-14 21:00:00,6.5,1003.8,1.1,72,1.8,,31.484,,,20,,,,,,,,,,,og-post,,,,AAXX 14214 07020 36/// /0217 10065 20018 30021 40038 52011=
07020,1999-12-14 22:00:00,7.4,1004.1,1,75,3.3,,38.892,,,360,,,0.2,,,,,,,,og-post,,,,AAXX 14224 07020 26/// /3621 10074 20033 30024 40041 52010 333 69925=
07020,1999-12-14 23:00:00,6.8,1004.9,1.5,75,2.7,,38.892,,,20,,,,,,,,,,,og-post,,,,AAXX 14234 07020 36/// /0221 10068 20027 30032 40049 53015=
07020,1999-12-15 19:00:00,6.2,1023,2.4,73,1.7,,53.708,,,20,,,,,,,,,,,og-post,,,,AAXX 15194 07020 36/// /0229 10062 20017 30213 40230 53024=
07020,1999-12-15 20:00:00,6.3,1023.7,2.4,71,1.4,,50.004,,,20,,,,,,,,,,,og-post,,,,AAXX 15204 07020 36/// /0227 10063 20014 30220 40237 51024=
07020,1999-12-15 21:00:00,6.3,1024.4,2.3,69,1,,50.004,,,30,,,,,,,,,,,og-post,,,,AAXX 15214 07020 36/// /0327 10063 20010 30227 40244 51023=
07020,1999-12-16 00:00:00,6.6,1025.7,1.3,66,0.7,,42.596,,,20,,,,,,,,,,,og-post,,,,AAXX 16004 07020 36/// /0223 10066 20007 30240 40257 51013=
07020,1999-12-16 02:00:00,7.3,1025.4,0.1,72,2.6,,38.892,,,20,,,,,,,,,,,og-post,,,,AAXX 16024 07020 36/// /0221 10073 20026 30237 40254 51001=
07020,1999-12-16 03:00:00,7.9,1025.7,-0,76,3.9,,42.596,,,340,,,,,,,,,,,og-post,,,,AAXX 16034 07020 36/// /3423 10079 20039 30240 40257 55000=
07020,1999-12-16 05:00:00,8.4,1025.4,0,76,4.4,,50.004,,,350,,,,,,,,,,,og-post,,,,AAXX 16054 07020 36/// /3527 10084 20044 30237 40254 50000=
07020,1999-12-16 06:00:00,8.4,1025.5,-0.2,73,3.8,10000,50.004,,,10,6,8.6,,,,,,,,,og-post,,,,AAXX 16064 07020 32560 50127 10084 20038 30238 40255 55002 85800 333 10086 20060 92457=
07020,1999-12-16 08:00:00,8.4,1026.6,1.2,75,4.2,,46.3,,,20,,,,,,,,,,,og-post,,,,AAXX 16084 07020 36/// /0225 10084 20042 30249 40266 53012=
07020,1999-12-16 10:00:00,8.5,1028.2,2,72,3.8,,42.596,,,20,,,,,,,,,,,og-post,,,,AAXX 16104 07020 36/// /0223 10085 20038 30265 40282 53020=
07020,1999-12-16 11:00:00,8.7,1028.5,1.9,73,4.1,,35.188,,,20,,,,,,,,,,,og-post,,,,AAXX 16114 07020 36/// /0219 10087 20041 30268 40285 51019=
07020,1999-12-16 12:00:00,8.9,1028.7,1.1,74,4.5,15000,31.484,,,10,,,,,,,,,,,og-post,,,,AAXX 16124 07020 32565 60117 10089 20045 30270 40287 51011 86800 333 92447=
07020,1999-12-16 13:00:00,9,1028.4,0.2,72,4.2,,35.188,,,360,,,,,,,,,,,og-post,,,,AAXX 16134 07020 36/// /3619 10090 20042 30267 40284 50002=
07020,1999-12-16 15:00:00,9.2,1028.4,-0.3,72,4.4,15000,35.188,,,340,,,,,,,,,,,og-post,,,,AAXX 16154 07020 32565 63419 10092 20044 30267 40284 55003 86101 333 92447=
07020,1999-12-16 16:00:00,9.1,1028.5,0.1,73,4.5,,29.632,,,330,,,,,,,,,,,og-post,,,,AAXX 16164 07020 36/// /3316 10091 20045 30268 40285 53001=
07020,1999-12-16 18:00:00,9,1028.5,0.1,68,3.4,15000,29.632,,,330,8.2,9.4,,,,,,,,,og-post,,,,AAXX 16184 07020 32565 63316 10090 20034 30268 40285 51001 86101 333 10094 20082 92447=
07020,1999-12-16 21:00:00,9,1028.3,-0.2,66,3,,31.484,,,300,,,,,,,,,,,og-post,,,,AAXX 16214 07020 36/// /3017 10090 20030 30266 40283 58002=
07020,1999-12-16 23:00:00,9.4,1027,-1.5,63,2.7,,25.928,,,270,,,,,,,,,,,og-post,,,,AAXX 16234 07020 36/// /2714 10094 20027 30253 40270 58015=
07020,1999-12-17 00:00:00,9.5,1026.2,-2.1,66,3.5,,35.188,,,260,,,,,,,,,,,og-post,,,,AAXX 17004 07020 36/// /2619 10095 20035 30245 40262 58021=
07020,1999-12-17 02:00:00,9.7,1024,-3,72,4.9,,50.004,75.932,72.228,260,,,,,,,,,,,og-post,,,,AAXX 17024 07020 36/// /2627 10097 20049 30223 40240 57030 333 91039 91141=
07020,1999-12-17 03:00:00,9.8,1022.9,-3.3,73,5.2,,53.708,75.932,75.932,260,,,,,,,,,,,og-post,,,,AAXX 17034 07020 36/// /2629 10098 20052 30212 40229 56033 333 91041 91141=
07020,1999-12-17 05:00:00,9.7,1019.8,-4.2,82,6.8,,64.82,90.748,90.748,260,,,0.4,,,,,,,,og-post,,,,AAXX 17054 07020 26/// /2635 10097 20068 30181 40198 58042 333 69945 91049 91149=
07020,1999-12-17 09:00:00,10,1016.2,-3,94,9.1,,68.524,96.304,87.044,260,,,,2,,,,,,,og-post,,,,AAXX 17094 07020 26/// /2637 10100 20091 30145 40162 56030 333 60027 91047 91152=
07020,1999-12-17 10:00:00,10.5,1015.8,-2.2,95,9.7,,61.116,90.748,90.748,260,,,0.8,,,,,,,,og-post,,,,AAXX 17104 07020 26/// /2633 10105 20097 30141 40158 56022 333 69985 91049 91149=
07020,1999-12-17 11:00:00,11,1015,-1.9,96,10.4,,61.116,,,260,,,0.2,,,,,,,,og-post,,,,AAXX 17114 07020 26/// /2633 10110 20104 30133 40150 58019 333 69925=
07020,1999-12-17 12:00:00,11.2,1014.5,-1.7,96,10.6,6000,57.412,96.304,79.636,270,,,,1,4,,,,,64,og-post,,,,AAXX 17124 07020 /1556 82731 10112 20106 30128 40145 58017 60041 76462 887// 333 60017 91043 91152 92456=
07020,1999-12-17 13:00:00,11.4,1013.4,-2.4,96,10.8,6000,57.412,79.636,75.932,270,,,0.2,,,,,,,64,og-post,,,,AAXX 17134 07020 21556 82731 10114 20108 30117 40134 58024 76462 887// 333 69925 91041 91143 92456=
07020,1999-12-17 14:00:00,11.6,1012.5,-2.5,96,11,,57.412,79.636,75.932,260,,,0.6,,,,,,,,og-post,,,,AAXX 17144 07020 26/// /2631 10116 20110 30108 40125 58025 333 69965 91041 91143=
07020,1999-12-17 15:00:00,11.7,1012.1,-2.4,96,11.1,2000,53.708,79.636,,260,,,,3,,,,,,63,og-post,,,,AAXX 17154 07020 21220 82629 10117 20111 30104 40121 56024 76362 887// 333 60037 91143 92455=
07020,1999-12-17 17:00:00,12.1,1011.8,-0.7,95,11.3,,42.596,72.228,,270,,,0.2,,,,,,,,og-post,,,,AAXX 17174 07020 26/// /2723 10121 20113 30101 40118 55007 333 69925 91139=
07020,1999-12-17 19:00:00,12.1,1012.5,0.8,94,11.2,,31.484,57.412,,280,,,,,,,,,,,og-post,,,,AAXX 17194 07020 26/// /2817 10121 20112 30108 40125 53008 333 69905 91131=
07020,1999-12-17 20:00:00,12.1,1012.8,1,95,11.3,,29.632,,,280,,,,,,,,,,,og-post,,,,AAXX 17204 07020 26/// /2816 10121 20113 30111 40128 51010 333 69905=
07020,1999-12-17 21:00:00,12.1,1013.1,0.9,95,11.3,,31.484,57.412,,290,,,,,,,,,,,og-post,,,,AAXX 17214 07020 26/// /2917 10121 20113 30114 40131 52009 333 69907 91131=
07020,1999-12-17 22:00:00,12,1013.5,1,95,11.2,,31.484,,,290,,,,,,,,,,,og-post,,,,AAXX 17224 07020 26/// /2917 10120 20112 30118 40135 53010 333 69905=
07020,1999-12-17 23:00:00,11.9,1013.8,1,96,11.3,,31.484,,,290,,,,,,,,,,,og-post,,,,AAXX 17234 07020 26/// /2917 10119 20113 30121 40138 52010 333 69905=
07020,1999-12-18 00:00:00,10.6,1013.9,0.8,96,10,,14.816,57.412,,30,,,,,,,,,,,og-post,,,,AAXX 18004 07020 /6/// /0308 10106 20100 30122 40139 51008 69901 333 69907 91131=
07020,1999-12-18 04:00:00,7.8,1012.4,-1.2,96,7.2,,38.892,,,90,,,2,,,,,,,,og-post,,,,AAXX 18044 07020 26/// /0921 10078 20072 30107 40124 56012 333 60025=
07020,1999-12-18 06:00:00,7.6,1013,0.1,95,6.9,8000,38.892,,,90,7.4,12.3,,4,,8,,,,,og-post,,,,AAXX 18064 07020 /2558 80921 10076 20069 30113 40130 53001 60082 88600 333 10123 20074 60047 92456=
07020,1999-12-18 09:00:00,6.8,1014.3,1.3,93,5.7,5000,38.892,,,100,,,,1,,,,,,,og-post,,,,AAXX 18094 07020 22450 81021 10068 20057 30126 40143 51013 88600 333 60017 92446=
07020,1999-12-18 12:00:00,6.8,1014,-0.3,95,6.1,5000,29.632,,,120,,,,2,3,,,,,62,og-post,,,,AAXX 18124 07020 /1450 81216 10068 20061 30123 40140 58003 60031 76262 886// 333 60027 92446=
07020,1999-12-18 13:00:00,6.8,1013.7,-0.7,95,6.1,,29.632,,,120,,,0.8,,,,,,,,og-post,,,,AAXX 18134 07020 26/// /1216 10068 20061 30120 40137 58007 333 69985=
07020,1999-12-18 15:00:00,6.7,1012.4,-1.6,96,6.1,3000,22.224,,,120,,,,1,,,,,,21,og-post,,,,AAXX 18154 07020 21430 81212 10067 20061 30107 40124 58016 72162 886// 333 60017 92445=
07020,1999-12-18 16:00:00,6.6,1011.8,-1.9,96,6,,22.224,,,120,,,1,,,,,,,,og-post,,,,AAXX 18164 07020 26/// /1212 10066 20060 30101 40118 57019 333 60015=
07020,1999-12-18 17:00:00,7.2,1010.9,-2.2,97,6.8,,18.52,,,120,,,0.2,,,,,,,,og-post,,,,AAXX 18174 07020 26/// /1210 10072 20068 30092 40109 58022 333 69925=
07020,1999-12-18 19:00:00,11.8,1008.9,-2.9,97,11.3,,35.188,,,260,,,3,,,,,,,,og-post,,,,AAXX 18194 07020 26/// /2619 10118 20113 30072 40089 56029 333 60035=
07020,1999-12-18 20:00:00,11.8,1007.4,-3.5,97,11.3,,46.3,,,260,,,5,,,,,,,,og-post,,,,AAXX 18204 07020 26/// /2625 10118 20113 30057 40074 58035 333 60055=
07020,1999-12-18 21:00:00,11.9,1006.5,-3.1,97,11.4,,57.412,75.932,,260,,,,11,,,,,,,og-post,,,,AAXX 18214 07020 26/// /2631 10119 20114 30048 40065 58031 333 60117 91141=
07020,1999-12-18 23:00:00,12.4,1006.2,-1.2,92,11.1,,42.596,79.636,64.82,270,,,,,,,,,,,og-post,,,,AAXX 18234 07020 26/// /2723 10124 20111 30045 40062 56012 333 69905 91035 91143=
07020,1999-12-19 00:00:00,12.2,1006,-0.5,92,10.9,,46.3,79.636,,270,,,,0.4,12,,,,,,og-post,,,,AAXX 19004 07020 /6/// /2725 10122 20109 30043 40060 56005 60121 333 69947 91143=
07020,1999-12-19 01:00:00,8.8,1006.8,0.6,92,7.6,,50.004,72.228,72.228,60,,,1,,,,,,,,og-post,,,,AAXX 19014 07020 26/// /0627 10088 20076 30051 40068 53006 333 60015 91039 91139=
07020,1999-12-19 02:00:00,7.4,1008.7,2.5,95,6.7,,53.708,,,80,,,3,,,,,,,,og-post,,,,AAXX 19024 07020 26/// /0829 10074 20067 30070 40087 53025 333 60035=
07020,1999-12-19 04:00:00,7.6,1011.9,5.1,87,5.6,,57.412,,,70,,,,,,,,,,,og-post,,,,AAXX 19044 07020 26/// /0731 10076 20056 30102 40119 51051 333 69905=
07020,1999-12-19 07:00:00,6.5,1016.9,5,84,4,,53.708,,,60,,,,,,,,,,,og-post,,,,AAXX 19074 07020 36/// /0629 10065 20040 30152 40169 53050=
07020,1999-12-19 08:00:00,6.2,1018.4,5.2,75,2.1,,46.3,,,60,,,,,,,,,,,og-post,,,,AAXX 19084 07020 36/// /0625 10062 20021 30167 40184 51052=
07020,1999-12-19 09:00:00,5.6,1019.9,5,76,1.7,12000,46.3,,,50,,,,,,,,,,,og-post,,,,AAXX 19094 07020 32662 50525 10056 20017 30182 40199 51050 85200 333 92447=
07020,1999-12-19 10:00:00,5.9,1021.2,4.3,62,-0.8,,46.3,,,50,,,,,,,,,,,og-post,,,,AAXX 19104 07020 36/// /0525 10059 21008 30195 40212 51043=
07020,1999-12-19 11:00:00,5.8,1022.1,3.7,66,0,,46.3,,,50,,,,,,,,,,,og-post,,,,AAXX 19114 07020 36/// /0525 10058 20000 30204 40221 51037=
07020,1999-12-19 12:00:00,5.4,1022.3,2.4,69,0.2,12000,46.3,,,50,,,,,,,,,,,og-post,,,,AAXX 19124 07020 32662 30525 10054 20002 30206 40223 51024 83200 333 92447=
07020,1999-12-19 13:00:00,5.3,1023.1,1.8,60,-1.8,,38.892,,,50,,,,,,,,,,,og-post,,,,AAXX 19134 07020 36/// /0521 10053 21018 30213 40231 51018=
07020,1999-12-19 14:00:00,5.2,1023.2,1,52,-3.8,,38.892,,,50,,,,,,,,,,,og-post,,,,AAXX 19144 07020 36/// /0521 10052 21038 30214 40232 51010=
07020,1999-12-19 15:00:00,4.9,1023.8,1.4,53,-3.9,12000,38.892,,,40,,,,,,,,,,,og-post,,,,AAXX 19154 07020 32962 00421 10049 21039 30220 40238 51014 333 92447=
07020,1999-12-19 17:00:00,4.7,1025.1,1.9,59,-2.6,,42.596,,,40,,,,,,,,,,,og-post,,,,AAXX 19174 07020 36/// /0423 10047 21026 30233 40251 51019=
07020,1999-12-19 18:00:00,4.7,1025.7,1.9,60,-2.4,12000,46.3,,,40,4.1,6.8,,,,,,,,,og-post,,,,AAXX 19184 07020 32962 00425 10047 21024 30239 40257 51019 333 10068 20041 92447=
07020,1999-12-19 19:00:00,4.5,1026.3,1.5,60,-2.6,,46.3,,,40,,,,,,,,,,,og-post,,,,AAXX 19194 07020 36/// /0425 10045 21026 30245 40263 53015=
07020,1999-12-19 20:00:00,4.1,1027,1.9,61,-2.7,,42.596,,,50,,,,,,,,,,,og-post,,,,AAXX 19204 07020 36/// /0523 10041 21027 30252 40270 53019=
07020,1999-12-19 21:00:00,3.9,1027.3,1.6,60,-3.1,,38.892,,,60,,,,,,,,,,,og-post,,,,AAXX 19214 07020 36/// /0621 10039 21031 30255 40273 51016=
07020,1999-12-19 23:00:00,3.6,1028,1,62,-3,,31.484,,,70,,,,,,,,,,,og-post,,,,AAXX 19234 07020 36/// /0717 10036 21030 30262 40280 52010=
07020,1999-12-20 03:00:00,3.7,1028.4,-0.1,64,-2.5,,14.816,,,80,,,,,,,,,,,og-post,,,,AAXX 20034 07020 36/// /0808 10037 21025 30266 40284 56001=
07020,1999-12-20 04:00:00,3.9,1028,-0.3,62,-2.7,,14.816,,,80,,,,,,,,,,,og-post,,,,AAXX 20044 07020 36/// /0808 10039 21027 30262 40280 58003=
07020,1999-12-20 05:00:00,1,1028.1,-0.3,75,-2.9,,7.408,,,140,,,,,,,,,,,og-post,,,,AAXX 20054 07020 36/// /1404 10010 21029 30263 40281 55003=
07020,1999-12-20 06:00:00,0.8,1028.4,-0,77,-2.8,15000,7.408,,,160,0.1,4.8,,,,,,,,,og-post,,,,AAXX 20064 07020 32965 01604 10008 21028 30266 40284 55000 333 10048 20001 92437=
07020,1999-12-20 08:00:00,0.3,1029.1,1,79,-2.9,,14.816,,,210,,,,,,,,,,,og-post,,,,AAXX 20084 07020 36/// /2108 10003 21029 30273 40291 53010=
07020,1999-12-20 09:00:00,2,1029.2,0.8,80,-1.1,,18.52,,,180,,,,,,,,,,,og-post,,,,AAXX 20094 07020 36/// /1810 10020 21011 30274 40292 51008=
07020,1999-12-20 11:00:00,5.5,1029.1,0,64,-0.8,,11.112,,,190,,,,,,,,,,,og-post,,,,AAXX 20114 07020 36/// /1906 10055 21008 30273 40291 50000=
07020,1999-12-20 12:00:00,5.5,1028.6,-0.6,62,-1.2,15000,11.112,,,180,,,,,,,,,,,og-post,,,,AAXX 20124 07020 32665 61806 10055 21012 30268 40286 58006 86250 333 92427=
07020,1999-12-20 13:00:00,5.2,1028.2,-1.2,67,-0.4,,7.408,,,170,,,,,,,,,,,og-post,,,,AAXX 20134 07020 36/// /1704 10052 21004 30264 40282 58012=
07020,1999-12-20 14:00:00,4.9,1027.5,-1.6,68,-0.5,,14.816,,,180,,,,,,,,,,,og-post,,,,AAXX 20144 07020 36/// /1808 10049 21005 30257 40275 58016=
07020,1999-12-20 15:00:00,4.4,1026.9,-1.7,68,-1,15000,18.52,,,160,,,,,,,,,,,og-post,,,,AAXX 20154 07020 32665 81610 10044 21010 30251 40269 58017 88110 333 92427=
07020,1999-12-20 16:00:00,3.8,1026.5,-1.7,73,-0.6,,18.52,,,170,,,,,,,,,,,og-post,,,,AAXX 20164 07020 36/// /1710 10038 21006 30247 40265 56017=
07020,1999-12-20 17:00:00,3.5,1026.1,-1.4,70,-1.4,,22.224,,,170,,,,,,,,,,,og-post,,,,AAXX 20174 07020 36/// /1712 10035 21014 30243 40261 56014=
07020,1999-12-20 18:00:00,3.4,1025.7,-1.2,69,-1.7,15000,11.112,,,120,-0.1,6.1,,,,,,,,,og-post,,,,AAXX 20184 07020 32965 81206 10034 21017 30239 40257 57012 88010 333 10061 21001 92427=
07020,1999-12-20 20:00:00,3.3,1025.6,-0.5,77,-0.3,,22.224,,,170,,,,,,,,,,,og-post,,,,AAXX 20204 07020 36/// /1712 10033 21003 30238 40256 55005=
07020,1999-12-20 21:00:00,3.8,1025.3,-0.4,74,-0.4,,25.928,,,180,,,,,,,,,,,og-post,,,,AAXX 20214 07020 36/// /1814 10038 21004 30235 40253 58004=
07020,1999-12-20 22:00:00,4.3,1025,-0.5,69,-0.9,,31.484,57.412,57.412,190,,,,,,,,,,,og-post,,,,AAXX 20224 07020 36/// /1917 10043 21009 30232 40250 58005 333 91031 91131=
07020,1999-12-20 23:00:00,4.5,1024.4,-1.2,68,-0.9,,38.892,,,200,,,,,,,,,,,og-post,,,,AAXX 20234 07020 36/// /2021 10045 21009 30226 40244 58012=
07020,1999-12-01 03:00:00,10.4,1023.6,0.6,96,9.8,,25.928,,,240,,,,0.2,,,,,,,og-post,,,,AAXX 01034 07020 26/// /2414 10104 20098 30219 40236 53006 333 69927=
07020,1999-12-21 00:00:00,4.5,1023.7,-1.6,72,-0.1,,46.3,,,200,,,,,,,,,,,og-post,,,,AAXX 21004 07020 36/// /2025 10045 21001 30219 40237 58016=
07020,1999-12-21 01:00:00,4.7,1023.9,-1.1,63,-1.7,,46.3,,,200,,,,,,,,,,,og-post,,,,AAXX 21014 07020 36/// /2025 10047 21017 30221 40239 55011=
07020,1999-12-21 02:00:00,4.7,1023.8,-0.6,67,-0.9,,38.892,,,200,,,,,,,,,,,og-post,,,,AAXX 21024 07020 36/// /2021 10047 21009 30220 40238 56006=
07020,1999-12-21 03:00:00,4.5,1022.8,-0.9,70,-0.5,,38.892,,,190,,,,,,,,,,,og-post,,,,AAXX 21034 07020 36/// /1921 10045 21005 30210 40228 58009=
07020,1999-12-21 05:00:00,3.8,1020.7,-3.1,77,0.1,,50.004,79.636,72.228,190,,,,,,,,,,,og-post,,,,AAXX 21054 07020 36/// /1927 10038 20001 30189 40207 58031 333 91039 91143=
07020,1999-12-21 06:00:00,3.4,1021.4,-1.4,84,1,10000,42.596,79.636,64.82,190,3.1,4.8,,0.6,,0.6,,,,62,og-post,,,,AAXX 21064 07020 /1660 81923 10034 20010 30196 40214 55014 69962 762// 88700 333 10048 20031 69967 91035 91143 92447=
07020,1999-12-21 08:00:00,3.8,1021.5,0.8,89,2.2,,50.004,72.228,72.228,190,,,,,,,,,,,og-post,,,,AAXX 21084 07020 26/// /1927 10038 20022 30197 40215 51008 333 69905 91039 91139=
07020,1999-12-21 09:00:00,4.1,1021.6,0.2,90,2.6,3000,53.708,75.932,,200,,,,0.6,,,,,,62,og-post,,,,AAXX 21094 07020 21530 82029 10041 20026 30198 40216 52002 76262 88700 333 69967 91141 92445=
07020,1999-12-21 11:00:00,2.9,1021.7,0.2,93,1.9,,50.004,75.932,,200,,,0.4,,,,,,,,og-post,,,,AAXX 21114 07020 26/// /2027 10029 20019 30199 40217 51002 333 69945 91141=
07020,1999-12-21 13:00:00,3.7,1020.9,-0.8,95,3,,53.708,,,190,,,,,,,,,,,og-post,,,,AAXX 21134 07020 26/// /1929 10037 20030 30191 40209 58008 333 69905=
07020,1999-12-21 14:00:00,4.2,1021.2,-0.5,93,3.2,,53.708,,,200,,,,,,,,,,,og-post,,,,AAXX 21144 07020 26/// /2029 10042 20032 30194 40212 55005 333 69905=
07020,1999-12-21 18:00:00,4.3,1022.2,-0,82,1.5,7000,42.596,,,190,2.8,5.3,,,,1,,,,,og-post,,,,AAXX 21184 07020 12557 81923 10043 20015 30204 40222 55000 60012 88700 333 10053 20028 92446=
07020,1999-12-21 20:00:00,4,1022,0.3,84,1.5,,38.892,,,200,,,,,,,,,,,og-post,,,,AAXX 21204 07020 36/// /2021 10040 20015 30202 40220 50003=
07020,1999-12-21 21:00:00,4.6,1022.3,0.1,73,0.2,,38.892,68.524,,190,,,,,,,,,,,og-post,,,,AAXX 21214 07020 36/// /1921 10046 20002 30205 40223 53001 333 91137=
07020,1999-12-22 01:00:00,4.7,1020.3,-1.5,84,2.2,,46.3,72.228,,200,,,,,,,,,,,og-post,,,,AAXX 22014 07020 36/// /2025 10047 20022 30186 40203 58015 333 91139=
07020,1999-12-22 04:00:00,6.5,1019,-1.3,86,4.3,,46.3,,64.82,190,,,,,,,,,,,og-post,,,,AAXX 22044 07020 36/// /1925 10065 20043 30173 40190 58013 333 91035=
07020,1999-12-22 05:00:00,6.6,1018.4,-1.6,90,5.1,,46.3,64.82,,190,,,,,,,,,,,og-post,,,,AAXX 22054 07020 36/// /1925 10066 20051 30167 40184 58016 333 91135=
07020,1999-12-22 06:00:00,6.6,1018.1,-1.6,89,4.9,12000,46.3,72.228,,190,3.8,6.7,,,,,,,,,og-post,,,,AAXX 22064 07020 32562 81925 10066 20049 30164 40181 56016 88700 333 10067 20038 91139 92447=
07020,1999-12-22 07:00:00,6.9,1017.9,-1.1,90,5.4,,46.3,72.228,,190,,,,,,,,,,,og-post,,,,AAXX 22074 07020 36/// /1925 10069 20054 30162 40179 56011 333 91139=
07020,1999-12-22 10:00:00,8.7,1015.6,-2.3,93,7.6,,46.3,72.228,,180,,,,,,,,,,,og-post,,,,AAXX 22104 07020 36/// /1825 10087 20076 30139 40156 56023 333 91139=
07020,1999-12-22 11:00:00,8.9,1014.4,-2.3,91,7.5,,57.412,87.044,87.044,180,,,0.2,,,,,,,,og-post,,,,AAXX 22114 07020 26/// /1831 10089 20075 30127 40144 58023 333 69925 91047 91147=
07020,1999-12-22 12:00:00,9.2,1013.2,-3.1,93,8.1,3000,61.116,90.748,87.044,190,,,,0.2,0.2,,,,,62,og-post,,,,AAXX 22124 07020 /1430 81933 10092 20081 30115 40132 58031 69921 76262 88700 333 69927 91047 91149 92445=
07020,1999-12-22 13:00:00,9.7,1012.3,-3.3,91,8.3,,57.412,90.748,83.34,190,,,,,,,,,,,og-post,,,,AAXX 22134 07020 26/// /1931 10097 20083 30106 40123 56033 333 69905 91045 91149=
07020,1999-12-22 14:00:00,10.2,1011.4,-3,90,8.6,,64.82,96.304,94.452,190,,,,,,,,,,,og-post,,,,AAXX 22144 07020 26/// /1935 10102 20086 30097 40114 56030 333 69905 91051 91152=
07020,1999-12-22 15:00:00,10.5,1011.2,-2,92,9.3,5000,53.708,96.304,83.34,190,,,,,,,,,,62,og-post,,,,AAXX 22154 07020 21550 81929 10105 20093 30095 40112 56020 76262 88700 333 69907 91045 91152 92446=
07020,1999-12-22 17:00:00,11.9,1010.7,-0.7,91,10.5,,61.116,90.748,90.748,190,,,,,,,,,,,og-post,,,,AAXX 22174 07020 26/// /1933 10119 20105 30090 40107 56007 333 69905 91049 91149=
07020,1999-12-22 19:00:00,12.3,1009.9,-0.8,89,10.5,,64.82,90.748,90.748,200,,,,,,,,,,,og-post,,,,AAXX 22194 07020 36/// /2035 10123 20105 30082 40099 58008 333 91049 91149=
07020,1999-12-22 20:00:00,11.9,1009.8,-0.9,92,10.6,,64.82,87.044,87.044,200,,,,,,,,,,,og-post,,,,AAXX 22204 07020 36/// /2035 10119 20106 30081 40098 57009 333 91047 91147=
07020,1999-12-22 21:00:00,10.9,1010.6,-0,93,9.8,,42.596,90.748,75.932,240,,,,1,,,,,,,og-post,,,,AAXX 22214 07020 26/// /2423 10109 20098 30089 40106 55000 333 60017 91041 91149=
07020,1999-12-23 02:00:00,8.8,1016.6,3.1,84,6.2,,31.484,,,260,,,,,,,,,,,og-post,,,,AAXX 23024 07020 36/// /2617 10088 20062 30149 40166 51031=
07020,1999-12-23 05:00:00,9.1,1017.8,1.2,85,6.7,,31.484,,,250,,,,,,,,,,,og-post,,,,AAXX 23054 07020 36/// /2517 10091 20067 30161 40178 52012=
07020,1999-12-23 07:00:00,10.1,1018.9,1.6,79,6.6,,42.596,,,260,,,,,,,,,,,og-post,,,,AAXX 23074 07020 36/// /2623 10101 20066 30172 40189 51016=
07020,1999-12-23 09:00:00,10,1020,1.4,88,8.1,12000,38.892,,,230,,,,,,,,,,,og-post,,,,AAXX 23094 07020 32762 32321 10100 20081 30183 40200 53014 83200 333 92447=
07020,1999-12-23 10:00:00,10.5,1020.3,1.4,84,7.9,,38.892,,,230,,,,,,,,,,,og-post,,,,AAXX 23104 07020 36/// /2321 10105 20079 30186 40203 51014=
07020,1999-12-23 11:00:00,10.8,1020.1,0.7,82,7.9,,38.892,,,220,,,,,,,,,,,og-post,,,,AAXX 23114 07020 36/// /2221 10108 20079 30184 40201 50007=
07020,1999-12-23 12:00:00,10.4,1019.6,-0.4,84,7.8,12000,38.892,,,210,,,,,,,,,,,og-post,,,,AAXX 23124 07020 32762 22121 10104 20078 30179 40196 58004 82200 333 92447=
07020,1999-12-23 13:00:00,10.5,1018.7,-1.6,84,7.9,12000,35.188,,,210,,,,,,,,,,,og-post,,,,AAXX 23134 07020 32762 22119 10105 20079 30170 40187 58016 82200 333 92447=
07020,1999-12-23 14:00:00,10.6,1017.9,-2.2,83,7.8,,38.892,,,210,,,,,,,,,,,og-post,,,,AAXX 23144 07020 36/// /2121 10106 20078 30162 40179 58022=
07020,1999-12-23 15:00:00,10,1017.3,-2.3,86,7.8,12000,38.892,,,200,,,,,,,,,,,og-post,,,,AAXX 23154 07020 32762 42021 10100 20078 30156 40173 56023 84200 333 92437=
07020,1999-12-23 16:00:00,10.1,1016.7,-2,86,7.9,,42.596,,,200,,,,,,,,,,,og-post,,,,AAXX 23164 07020 36/// /2023 10101 20079 30150 40167 56020=
07020,1999-12-23 17:00:00,10.3,1016.1,-1.8,84,7.7,,46.3,,64.82,200,,,,,,,,,,,og-post,,,,AAXX 23174 07020 36/// /2025 10103 20077 30144 40161 57018 333 91035=
07020,1999-12-23 20:00:00,10.1,1012.8,-3.3,80,6.8,,57.412,83.34,,210,,,,,,,,,,,og-post,,,,AAXX 23204 07020 36/// /2131 10101 20068 30111 40128 58033 333 91145=
07020,1999-12-23 21:00:00,10.2,1012.2,-3.2,83,7.4,,57.412,83.34,79.636,210,,,,,,,,,,,og-post,,,,AAXX 23214 07020 36/// /2131 10102 20074 30105 40122 56032 333 91043 91145=
07020,1999-12-23 22:00:00,10.4,1011.2,-3,83,7.6,,57.412,83.34,79.636,210,,,,,,,,,,,og-post,,,,AAXX 23224 07020 36/// /2131 10104 20076 30095 40112 56030 333 91043 91145=
07020,1999-12-23 23:00:00,10.4,1010.5,-2.3,83,7.6,,57.412,83.34,79.636,210,,,,,,,,,,,og-post,,,,AAXX 23234 07020 36/// /2131 10104 20076 30088 40105 58023 333 91043 91145=
07020,1999-12-24 00:00:00,10.4,1008.5,-3.7,84,7.8,,61.116,83.34,,200,,,,,,,,,,,og-post,,,,AAXX 24004 07020 36/// /2033 10104 20078 30068 40085 58037 333 91145=
07020,1999-12-24 01:00:00,10.8,1007.6,-3.6,83,8,,61.116,87.044,83.34,210,,,,,,,,,,,og-post,,,,AAXX 24014 07020 36/// /2133 10108 20080 30059 40076 58036 333 91045 91147=
07020,1999-12-24 02:00:00,10.6,1006.5,-4,87,8.5,,61.116,90.748,87.044,210,,,0.2,,,,,,,,og-post,,,,AAXX 24024 07020 26/// /2133 10106 20085 30048 40065 56040 333 69925 91047 91149=
07020,1999-12-24 03:00:00,10.7,1005.9,-2.6,88,8.8,,61.116,90.748,83.34,210,,,,2,,,,,,,og-post,,,,AAXX 24034 07020 26/// /2133 10107 20088 30042 40059 56026 333 60027 91045 91149=
07020,1999-12-24 04:00:00,10.4,1004.2,-3.4,93,9.3,,61.116,87.044,,210,,,4,,,,,,,,og-post,,,,AAXX 24044 07020 26/// /2133 10104 20093 30025 40042 58034 333 60045 91147=
07020,1999-12-24 05:00:00,10.6,1003.1,-3.4,94,9.7,,68.524,90.748,90.748,220,,,3,,,,,,,,og-post,,,,AAXX 24054 07020 26/// /2237 10106 20097 30014 40031 58034 333 60035 91049 91149=
07020,1999-12-24 06:00:00,10.7,1002.4,-3.5,95,9.9,6000,64.82,90.748,90.748,210,10.1,11,,9,,10,,,,62,og-post,,,,AAXX 24064 07020 /1556 82135 10107 20099 30007 40024 56035 60102 76262 88700 333 10110 20101 60097 91049 91149 92456=
07020,1999-12-24 07:00:00,10.8,1002.8,-1.4,96,10.2,,57.412,96.304,75.932,230,,,3,,,,,,,,og-post,,,,AAXX 24074 07020 26/// /2331 10108 20102 30011 40028 55014 333 60035 91041 91152=
07020,1999-12-24 08:00:00,10.8,1003.1,-0,96,10.2,,38.892,79.636,,250,,,9,,,,,,,,og-post,,,,AAXX 24084 07020 26/// /2521 10108 20102 30014 40031 55000 333 60095 91143=
07020,1999-12-24 09:00:00,11.1,1003.1,0.7,97,10.6,,50.004,96.304,,220,,,,13,,,,,,,og-post,,,,AAXX 24094 07020 26/// /2227 10111 20106 30014 40031 51007 333 60137 91152=
07020,1999-12-24 10:00:00,11.2,1003.2,0.4,97,10.7,,42.596,,,220,,,2,,,,,,,,og-post,,,,AAXX 24104 07020 26/// /2223 10112 20107 30015 40032 51004 333 60025=
07020,1999-12-24 11:00:00,11.2,1002.4,-0.7,97,10.7,,53.708,,,220,,,2,,,,,,,,og-post,,,,AAXX 24114 07020 26/// /2229 10112 20107 30007 40024 58007 333 60025=
07020,1999-12-24 12:00:00,11.2,1001.1,-2,97,10.7,3000,53.708,96.304,,220,,,,5,18,,,,,62,og-post,,,,AAXX 24124 07020 /1330 82229 10112 20107 39994 40011 58020 60181 76262 88700 333 60057 91152 92455=
07020,1999-12-24 13:00:00,11.4,999.4,-3.8,97,10.9,,53.708,75.932,,210,,,0.4,,,,,,,,og-post,,,,AAXX 24134 07020 26/// /2129 10114 20109 39977 49994 58038 333 69945 91141=
07020,1999-12-24 14:00:00,11.4,998,-4.4,95,10.6,,57.412,79.636,79.636,210,,,0.4,,,,,,,,og-post,,,,AAXX 24144 07020 26/// /2131 10114 20106 39963 49980 58044 333 69945 91043 91143=
07020,1999-12-24 15:00:00,11.4,996.7,-4.4,95,10.6,3000,57.412,79.636,75.932,200,,,,0.8,,,,,,62,og-post,,,,AAXX 24154 07020 21330 82031 10114 20106 39950 49967 56044 76262 88700 333 69987 91041 91143 92455=
07020,1999-12-24 16:00:00,11.4,995,-4.4,95,10.6,,57.412,83.34,,210,,,3,,,,,,,,og-post,,,,AAXX 24164 07020 26/// /2131 10114 20106 39933 49950 58044 333 60035 91145=
07020,1999-12-24 17:00:00,11.4,992,-6,96,10.8,,72.228,96.304,94.452,210,,,5,,,,,,,,og-post,,,,AAXX 24174 07020 26/// /2139 10114 20108 39903 49920 58060 333 60055 91051 91152=
07020,1999-12-24 18:00:00,11.7,991.2,-5.5,95,10.9,1500,75.932,100.008,96.304,220,10.7,11.7,,13,,32,,,,62,og-post,,,,AAXX 24184 07020 /1315 82241 10117 20109 39895 49912 56055 60322 76262 88700 333 10117 20107 60137 91052 91154 92454=
07020,1999-12-24 19:00:00,11.5,990.1,-4.9,96,10.9,,64.82,103.712,,220,,,4,,,,,,,,og-post,,,,AAXX 24194 07020 26/// /2235 10115 20109 39884 49901 56049 333 60045 91156=
07020,1999-12-24 20:00:00,11.7,988.2,-3.7,96,11.1,,75.932,96.304,96.304,220,,,2,,,,,,,,og-post,,,,AAXX 24204 07020 26/// /2241 10117 20111 39866 49882 58037 333 60025 91052 91152=
07020,1999-12-24 21:00:00,12,987.9,-3.2,95,11.2,,75.932,103.712,103.712,230,,,,7,,,,,,,og-post,,,,AAXX 24214 07020 26/// /2341 10120 20112 39863 49879 56032 333 60077 91056 91156=
07020,1999-12-24 22:00:00,12.4,986.1,-3.9,78,8.7,,79.636,111.12,111.12,240,,,0.2,,,,,,,,og-post,,,,AAXX 24224 07020 26/// /2443 10124 20087 39845 49861 57039 333 69925 91060 91160=
07020,1999-12-24 23:00:00,8.9,988.1,-0.2,85,6.5,,75.932,118.528,118.528,260,,,1,,,,,,,,og-post,,,,AAXX 24234 07020 26/// /2641 10089 20065 39864 49881 55002 333 60015 91064 91164=
07020,1999-12-25 00:00:00,11,987.7,-0.3,80,7.7,,68.524,118.528,103.712,260,,,,3,10,,,,,,og-post,,,,AAXX 25004 07020 /6/// /2637 10110 20077 39860 49877 56003 60101 333 60037 91056 91164=
07020,1999-12-25 09:00:00,8.3,993.5,0.5,77,4.5,10000,61.116,87.044,,260,,,,,,,,,,21,og-post,,,,AAXX 25094 07020 21660 62633 10083 20045 39918 49935 52005 72162 86430 333 69907 91147 92467=
07020,1999-12-25 10:00:00,9.1,994,0.9,78,5.5,,68.524,96.304,96.304,260,,,,,,,,,,,og-post,,,,AAXX 25104 07020 36/// /2637 10091 20055 39923 49940 53009 333 91052 91152=
07020,1999-12-25 11:00:00,7.5,995.2,1.8,84,5,,46.3,114.824,,280,,,0.6,,,,,,,,og-post,,,,AAXX 25114 07020 26/// /2825 10075 20050 39935 49952 53018 333 69965 91162=
07020,1999-12-25 12:00:00,8.4,995,1.5,73,3.8,10000,57.412,114.824,87.044,280,,,,1,1,,,,,21,og-post,,,,AAXX 25124 07020 /1660 62831 10084 20038 39933 49950 50015 60011 72162 86800 333 60017 91047 91162 92457=
07020,1999-12-25 13:00:00,9.3,996,2,64,2.9,,57.412,83.34,79.636,270,,,,,,,,,,,og-post,,,,AAXX 25134 07020 36/// /2731 10093 20029 39943 49960 51020 333 91043 91145=
07020,1999-12-25 14:00:00,8.2,996.7,1.5,66,2.2,,53.708,94.452,94.452,270,,,,,,,,,,,og-post,,,,AAXX 25144 07020 36/// /2729 10082 20022 39950 49967 53015 333 91051 91151=
07020,1999-12-25 15:00:00,9.4,997.2,2.2,67,3.6,10000,50.004,94.452,75.932,280,,,,,,,,,,,og-post,,,,AAXX 25154 07020 32660 72827 10094 20036 39955 49972 51022 87900 333 91041 91151 92457=
07020,1999-12-25 16:00:00,9.8,997.1,1.1,67,4,,50.004,87.044,79.636,270,,,,,,,,,,,og-post,,,,AAXX 25164 07020 36/// /2727 10098 20040 39954 49971 50011 333 91043 91147=
07020,1999-12-25 17:00:00,9.2,997.2,0.5,69,3.8,,61.116,90.748,87.044,260,,,,,,,,,,,og-post,,,,AAXX 25174 07020 36/// /2633 10092 20038 39955 49972 51005 333 91047 91149=
07020,1999-12-25 18:00:00,9.1,998.4,1.2,74,4.7,10000,50.004,94.452,72.228,270,6.7,9.9,,,,1,,,,,og-post,,,,AAXX 25184 07020 12660 42727 10091 20047 39967 49984 53012 60012 84800 333 10099 20067 91039 91151 92457=
07020,1999-12-25 22:00:00,9.7,995.2,-3.1,84,7.1,,57.412,87.044,87.044,250,,,0.2,,,,,,,,og-post,,,,AAXX 25224 07020 26/// /2531 10097 20071 39935 49952 58031 333 69925 91047 91147=
07020,1999-12-25 23:00:00,10.5,994.5,-3.6,87,8.4,,64.82,87.044,87.044,250,,,2,,,,,,,,og-post,,,,AAXX 25234 07020 26/// /2535 10105 20084 39928 49945 56036 333 60025 91047 91147=
07020,1999-12-26 01:00:00,8.4,990.5,-4.7,89,6.7,,50.004,90.748,68.524,240,,,1,,,,,,,,og-post,,,,AAXX 26014 07020 26/// /2427 10084 20067 39888 49905 58047 333 60015 91037 91149=
07020,1999-12-26 02:00:00,8.3,985.8,-8.7,90,6.8,,50.004,72.228,,220,,,2,,,,,,,,og-post,,,,AAXX 26024 07020 26/// /2227 10083 20068 39841 49858 58087 333 60025 91139=
07020,1999-12-26 03:00:00,6.9,980.2,-12.8,88,5.1,,22.224,90.748,,190,,,,10,,,,,,,og-post,,,,AAXX 26034 07020 26/// /1912 10069 20051 39785 49802 58128 333 60107 91149=
07020,1999-12-26 04:00:00,6.5,976.7,-13.8,90,5,,35.188,,,50,,,7,,,,,,,,og-post,,,,AAXX 26044 07020 26/// /0519 10065 20050 39750 49767 56138 333 60075=
07020,1999-12-26 05:00:00,6.9,981.7,-4.1,91,5.5,,61.116,94.452,79.636,320,,,4,,,,,,,,og-post,,,,AAXX 26054 07020 26/// /3233 10069 20055 39800 49817 55041 333 60045 91043 91151=
07020,1999-12-26 06:00:00,7.3,985.8,5.6,86,5.1,10000,46.3,94.452,,340,5.8,10.5,,11,,25,,,,62,og-post,,,,AAXX 26064 07020 /1560 83425 10073 20051 39841 49858 53056 60252 76262 88700 333 10105 20058 60117 91151 92467=
07020,1999-12-26 07:00:00,8.3,988.9,0.2,80,5.1,,57.412,,,300,,,,,,,,,,,og-post,,,,AAXX 26074 07020 26/// /3031 10083 20051 39872 49889 51122 333 69905=
07020,1999-12-26 08:00:00,9.6,990.7,9,76,5.6,,50.004,83.34,83.34,280,,,,,,,,,,,og-post,,,,AAXX 26084 07020 26/// /2827 10096 20056 39890 49907 51090 333 69905 91045 91145=
07020,1999-12-26 09:00:00,10,992.3,6.5,72,5.2,,50.004,83.34,79.636,280,,,,0.2,,,,,,,og-post,,,,AAXX 26094 07020 26/// /2827 10100 20052 39906 49923 51065 333 69927 91043 91145=
07020,1999-12-26 11:00:00,10.2,993.3,2.6,77,6.4,,57.412,,,260,,,,,,,,,,,og-post,,,,AAXX 26114 07020 36/// /2631 10102 20064 39916 49933 51026=
07020,1999-12-26 12:00:00,10,991.9,-0.4,81,6.9,10000,50.004,83.34,,250,,,,,0.2,,,,,62,og-post,,,,AAXX 26124 07020 /1660 82527 10100 20069 39902 49919 58004 69921 76262 88900 333 69907 91145 92467=
07020,1999-12-26 13:00:00,9.3,989.8,-3.3,85,6.9,,61.116,87.044,87.044,250,,,1,,,,,,,,og-post,,,,AAXX 26134 07020 26/// /2533 10093 20069 39881 49898 58033 333 60015 91047 91147=
07020,1999-12-26 14:00:00,9.1,988,-5.3,82,6.2,,68.524,90.748,90.748,250,,,0.2,,,,,,,,og-post,,,,AAXX 26144 07020 26/// /2537 10091 20062 39863 49880 58053 333 69925 91049 91149=
07020,1999-12-26 15:00:00,,,-4.6,,,,,,,,,,,6,,,,,,,og-post,,,,AAXX 26154 07020 26/// ///// 1//// 2//// 3//// 4//// 56046 333 60067=
07020,1999-12-26 16:00:00,8.8,989.9,0.1,72,4,,90.748,,118.528,290,,,,,,,,,,,og-post,,,,AAXX 26164 07020 26/// /2949 10088 20040 39882 49899 53001 333 69905 91064=
07020,1999-12-26 17:00:00,8.8,991.6,3.6,72,4,,64.82,,,300,,,,,,,,,,,og-post,,,,AAXX 26174 07020 26/// /3035 10088 20040 39899 49916 53036 333 69905=
07020,1999-12-26 18:00:00,9.6,990.8,3.5,70,4.4,10000,50.004,,72.228,290,6.6,10.5,,,,6,,,,25,og-post,,,,AAXX 26184 07020 /1560 82927 10096 20044 39891 49908 50035 60062 72598 88700 333 10105 20066 69907 91039 92457=
07020,1999-12-26 19:00:00,7.3,990.9,1,80,4.1,,53.708,96.304,90.748,270,,,0.6,,,,,,,,og-post,,,,AAXX 26194 07020 26/// /2729 10073 20041 39892 49909 51010 333 69965 91049 91152=
07020,1999-12-26 20:00:00,8,991.2,-0.4,73,3.5,,42.596,114.824,,270,,,0.2,,,,,,,,og-post,,,,AAXX 26204 07020 26/// /2723 10080 20035 39895 49912 55004 333 69925 91162=
07020,1999-12-26 22:00:00,7.6,992.3,1.4,84,5.1,,68.524,111.12,107.416,290,,,0.2,,,,,,,,og-post,,,,AAXX 26224 07020 26/// /2937 10076 20051 39906 49923 53014 333 69925 91058 91160=
07020,1999-12-26 23:00:00,8.8,993,1.8,76,4.8,,68.524,96.304,90.748,290,,,,,,,,,,,og-post,,,,AAXX 26234 07020 36/// /2937 10088 20048 39913 49930 53018 333 91049 91152=
07020,1999-12-27 00:00:00,9.3,994,2.3,76,5.3,,68.524,114.824,87.044,300,,,,0.8,2,,,,,,og-post,,,,AAXX 27004 07020 /6/// /3037 10093 20053 39923 49940 53023 60021 333 69987 91047 91162=
07020,1999-12-27 01:00:00,9.4,994.4,2.1,78,5.8,,75.932,100.008,100.008,300,,,3,,,,,,,,og-post,,,,AAXX 27014 07020 26/// /3041 10094 20058 39927 49944 51021 333 60035 91054 91154=
07020,1999-12-27 03:00:00,9.1,996.9,2.9,73,4.5,,57.412,100.008,,300,,,,3,,,,,,,og-post,,,,AAXX 27034 07020 26/// /3031 10091 20045 39952 49969 53029 333 60037 91154=
07020,1999-12-27 04:00:00,9.1,998.1,3.7,73,4.5,,50.004,,,310,,,,,,,,,,,og-post,,,,AAXX 27044 07020 36/// /3127 10091 20045 39964 49981 53037=
07020,1999-12-27 05:00:00,8.8,999,3.5,74,4.4,,38.892,,,310,,,,,,,,,,,og-post,,,,AAXX 27054 07020 36/// /3121 10088 20044 39973 49990 51035=
07020,1999-12-27 06:00:00,8.5,998.5,1.6,72,3.8,12000,29.632,100.008,,300,6.6,9.8,,,,5,,,,,og-post,,,,AAXX 27064 07020 12662 63016 10085 20038 39968 49985 50016 60052 86400 333 10098 20066 91154 92447=
07020,1999-12-27 07:00:00,8.6,998,-0.1,69,3.2,,18.52,,,290,,,,,,,,,,,og-post,,,,AAXX 27074 07020 36/// /2910 10086 20032 39963 49980 58001=
07020,1999-12-27 08:00:00,8.3,997,-2,72,3.6,,18.52,,,270,,,,,,,,,,,og-post,,,,AAXX 27084 07020 36/// /2710 10083 20036 39953 49970 58020=
07020,1999-12-27 09:00:00,7.9,995.6,-2.9,77,4.1,12000,11.112,,,220,,,,,,,,,,,og-post,,,,AAXX 27094 07020 32662 82206 10079 20041 39939 49956 58029 88500 333 92457=
07020,1999-12-27 10:00:00,8.1,994.7,-3.3,76,4.1,,18.52,,,220,,,,,,,,,,,og-post,,,,AAXX 27104 07020 36/// /2210 10081 20041 39930 49947 56033=
07020,1999-12-27 11:00:00,8,991.9,-5.1,75,3.8,,18.52,,,200,,,,,,,,,,,og-post,,,,AAXX 27114 07020 36/// /2010 10080 20038 39902 49919 58051=
07020,1999-12-27 12:00:00,7.6,990.5,-5.1,83,4.9,12000,22.224,,,180,,,,,,,,,,,og-post,,,,AAXX 27124 07020 32662 81812 10076 20049 39888 49905 58051 88500 333 92457=
07020,1999-12-27 13:00:00,7.2,988,-6.7,89,5.5,,22.224,,,160,,,0.4,,,,,,,,og-post,,,,AAXX 27134 07020 26/// /1612 10072 20055 39863 49880 56067 333 69945=
07020,1999-12-27 14:00:00,5.9,985.3,-6.6,88,4.1,,25.928,,,160,,,1,,,,,,,,og-post,,,,AAXX 27144 07020 26/// /1614 10059 20041 39836 49853 58066 333 60015=
07020,1999-12-27 15:00:00,5.1,982.4,-8.1,88,3.3,10000,18.52,,,140,,,,2,,,,,,,og-post,,,,AAXX 27154 07020 22560 81410 10051 20033 39807 49824 58081 88500 333 60027 92447=
07020,1999-12-27 16:00:00,4.7,980.4,-7.6,89,3,,38.892,,,110,,,1,,,,,,,,og-post,,,,AAXX 27164 07020 26/// /1121 10047 20030 39787 49804 56076 333 60015=
07020,1999-12-27 17:00:00,5.4,979.4,-5.9,88,3.6,,46.3,,,80,,,1,,,,,,,,og-post,,,,AAXX 27174 07020 26/// /0825 10054 20036 39777 49794 56059 333 60015=
07020,1999-12-27 18:00:00,6.4,980.8,-1.6,87,4.4,8000,53.708,72.228,,70,4.7,8.7,,3,,5,,,,62,og-post,,,,AAXX 27184 07020 /1558 80729 10064 20044 39791 49808 55016 60052 76266 88500 333 10087 20047 60037 91139 92456=
07020,1999-12-27 19:00:00,6.2,983.4,3,90,4.7,,53.708,,,20,,,0.6,,,,,,,,og-post,,,,AAXX 27194 07020 26/// /0229 10062 20047 39817 49834 53030 333 69965=
07020,1999-12-27 20:00:00,6.1,986.3,6.9,90,4.6,,50.004,87.044,,40,,,1,,,,,,,,og-post,,,,AAXX 27204 07020 26/// /0427 10061 20046 39846 49863 53069 333 60015 91147=
07020,1999-12-27 21:00:00,6.6,988.4,7.6,87,4.6,,61.116,87.044,83.34,10,,,,3,,,,,,62,og-post,,,,AAXX 27214 07020 21/// /0133 10066 20046 39867 49884 51076 762// 333 60037 91045 91147=
07020,1999-12-27 22:00:00,7.6,990.8,7.4,83,4.9,,46.3,,,10,,,,,,,,,,,og-post,,,,AAXX 27224 07020 26/// /0125 10076 20049 39891 49908 51074 333 69905=
07020,1999-12-27 23:00:00,7.9,993,6.7,82,5,,46.3,,,350,,,0.2,,,,,,,,og-post,,,,AAXX 27234 07020 26/// /3525 10079 20050 39913 49930 53067 333 69925=
07020,1999-12-28 00:00:00,8.2,994.5,6.1,73,3.7,,50.004,87.044,,330,,,,0.2,3,,,,,,og-post,,,,AAXX 28004 07020 /6/// /3327 10082 20037 39928 49945 51061 60031 333 69927 91147=
07020,1999-12-28 01:00:00,8.1,995.7,4.9,72,3.4,,50.004,,,330,,,,,,,,,,,og-post,,,,AAXX 28014 07020 26/// /3327 10081 20034 39940 49957 51049 333 69905=
07020,1999-12-28 02:00:00,7.6,996.6,3.6,78,4,,46.3,,,330,,,0.2,,,,,,,,og-post,,,,AAXX 28024 07020 26/// /3325 10076 20040 39949 49966 51036 333 69925=
07020,1999-12-28 03:00:00,7.8,997.9,3.4,74,3.5,,57.412,,,320,,,,0.2,,,,,,,og-post,,,,AAXX 28034 07020 26/// /3231 10078 20035 39962 49979 53034 333 69927=
07020,1999-12-28 04:00:00,7.6,998.6,2.9,72,2.9,,46.3,,,320,,,,,,,,,,,og-post,,,,AAXX 28044 07020 26/// /3225 10076 20029 39969 49986 51029 333 69905=
07020,1999-12-28 05:00:00,7.5,999,2.4,71,2.6,,46.3,,,330,,,,,,,,,,,og-post,,,,AAXX 28054 07020 26/// /3325 10075 20026 39973 49990 51024 333 69905=
07020,1999-12-28 06:00:00,7.4,999.8,1.9,70,2.3,10000,42.596,,,320,5.3,8.4,,,,4,,,,,og-post,,,,AAXX 28064 07020 /2760 33223 10074 20023 39981 49998 53019 60042 83200 333 10084 20053 69907 92457=
07020,1999-12-28 07:00:00,7.6,996,5,63,1,,42.596,,,330,,,,,,,,,,,og-post,,,,AAXX 28074 07020 36/// /3323 10076 20010 39849 49960 51050 878// 333 83810 87620=
07020,1999-12-28 08:00:00,7.6,1001.8,2.8,69,2.3,,42.596,,,330,,,,,,,,,,,og-post,,,,AAXX 28084 07020 36/// /3323 10076 20023 30001 40018 53028=
07020,1999-12-28 09:00:00,7.5,1002.6,2.8,69,2.2,15000,38.892,,,320,,,,,,,,,,,og-post,,,,AAXX 28094 07020 32665 63221 10075 20022 30009 40026 51028 86200 333 92447=
07020,1999-12-28 10:00:00,7.8,1003.4,2.5,70,2.7,,38.892,,,340,,,,,,,,,,,og-post,,,,AAXX 28104 07020 36/// /3421 10078 20027 30017 40034 51025=
07020,1999-12-28 11:00:00,7.8,1004.1,2.3,69,2.5,,38.892,,,330,,,,,,,,,,,og-post,,,,AAXX 28114 07020 36/// /3321 10078 20025 30024 40041 51023=
07020,1999-12-28 12:00:00,7.8,1004.5,1.9,70,2.7,15000,38.892,,,330,,,,,,,,,,,og-post,,,,AAXX 28124 07020 32665 63321 10078 20027 30028 40045 51019 86200 333 92447=
07020,1999-12-28 13:00:00,7.9,1005.2,1.8,70,2.8,,35.188,,,340,,,,,,,,,,,og-post,,,,AAXX 28134 07020 36/// /3419 10079 20028 30035 40052 52018=
07020,1999-12-28 14:00:00,7.8,1005.7,1.6,69,2.5,,38.892,,,330,,,,,,,,,,,og-post,,,,AAXX 28144 07020 36/// /3321 10078 20025 30040 40057 53016=
07020,1999-12-28 15:00:00,7.7,1006.3,1.8,72,3,15000,38.892,,,340,,,,,,,,,,,og-post,,,,AAXX 28154 07020 32665 63421 10077 20030 30046 40063 51018 86200 333 92447=
07020,1999-12-28 16:00:00,7.6,1007.2,2,70,2.5,,35.188,,,350,,,,,,,,,,,og-post,,,,AAXX 28164 07020 36/// /3519 10076 20025 30055 40072 53020=
07020,1999-12-28 17:00:00,7.6,1008,2.3,67,1.9,,38.892,,,340,,,,,,,,,,,og-post,,,,AAXX 28174 07020 36/// /3421 10076 20019 30063 40080 53023=
07020,1999-12-28 18:00:00,7.5,1009.1,2.8,65,1.4,15000,38.892,,,360,7.3,8,,,,,,,,,og-post,,,,AAXX 28184 07020 32665 63621 10075 20014 30074 40091 53028 86200 333 10080 20073 92437=
07020,1999-12-28 19:00:00,7.5,1010,2.8,72,2.8,,35.188,,,350,,,,,,,,,,,og-post,,,,AAXX 28194 07020 36/// /3519 10075 20028 30083 40100 53028=
07020,1999-12-28 20:00:00,7.2,1010.9,2.9,72,2.5,,35.188,,,350,,,0.2,,,,,,,,og-post,,,,AAXX 28204 07020 26/// /3519 10072 20025 30092 40109 51029 333 69925=
07020,1999-12-28 21:00:00,7.2,1011.5,2.4,69,1.9,,35.188,,,360,,,,0.2,,,,,,,og-post,,,,AAXX 28214 07020 26/// /3619 10072 20019 30098 40115 51024 333 69927=
07020,1999-12-28 22:00:00,7.3,1011.9,1.9,72,2.6,,31.484,,,10,,,,,,,,,,,og-post,,,,AAXX 28224 07020 36/// /0117 10073 20026 30102 40119 51019=
07020,1999-12-28 23:00:00,7.3,1012.6,1.7,71,2.4,,25.928,,,360,,,,,,,,,,,og-post,,,,AAXX 28234 07020 36/// /3614 10073 20024 30109 40126 53017=
07020,1999-12-29 00:00:00,7.4,1013.1,1.6,75,3.3,,22.224,,,340,,,,,0.2,,,,,,og-post,,,,AAXX 29004 07020 16/// /3412 10074 20033 30114 40131 53016 69921=
07020,1999-12-29 01:00:00,7.2,1013.5,1.6,73,2.7,,25.928,,,340,,,,,,,,,,,og-post,,,,AAXX 29014 07020 36/// /3414 10072 20027 30118 40135 51016=
07020,1999-12-29 02:00:00,7.3,1014.1,1.5,72,2.6,,29.632,,,330,,,,,,,,,,,og-post,,,,AAXX 29024 07020 36/// /3316 10073 20026 30124 40141 53015=
07020,1999-12-29 03:00:00,7.4,1014.5,1.4,70,2.3,,31.484,,,340,,,,,,,,,,,og-post,,,,AAXX 29034 07020 36/// /3417 10074 20023 30128 40145 52014=
07020,1999-12-29 04:00:00,7.3,1014.8,1.3,68,1.8,,25.928,,,320,,,,,,,,,,,og-post,,,,AAXX 29044 07020 36/// /3214 10073 20018 30131 40148 51013=
07020,1999-12-29 05:00:00,7.7,1014.9,0.8,68,2.2,,29.632,,,310,,,,,,,,,,,og-post,,,,AAXX 29054 07020 36/// /3116 10077 20022 30132 40149 51008=
07020,1999-12-29 06:00:00,7.1,1015.2,0.7,76,3.2,10000,22.224,57.412,,300,6.6,7.8,,,,0.2,,,,,og-post,,,,AAXX 29064 07020 12660 63012 10071 20032 30135 40152 52007 69922 86200 333 10078 20066 91131 92437=
07020,1999-12-29 07:00:00,7.8,1015.7,0.9,73,3.3,,31.484,,,330,,,,,,,,,,,og-post,,,,AAXX 29074 07020 36/// /3317 10078 20033 30140 40157 53009=
07020,1999-12-29 09:00:00,7.9,1017.3,2.1,73,3.4,,35.188,,,340,,,,,,,,,,,og-post,,,,AAXX 29094 07020 36/// /3419 10079 20034 30156 40173 53021=
07020,1999-12-29 10:00:00,7.9,1018,2.3,74,3.6,,35.188,,,340,,,,,,,,,,,og-post,,,,AAXX 29104 07020 36/// /3419 10079 20036 30163 40180 53023=
07020,1999-12-29 11:00:00,8.3,1018.4,2.2,75,4.1,,31.484,,,330,,,,,,,,,,,og-post,,,,AAXX 29114 07020 36/// /3317 10083 20041 30167 40184 51022=
07020,1999-12-29 12:00:00,8.4,1018.9,1.6,75,4.2,15000,31.484,,,340,,,,,,,,,,,og-post,,,,AAXX 29124 07020 32665 63417 10084 20042 30172 40189 51016 86200 333 92437=
07020,1999-12-29 13:00:00,8.4,1019.2,1.2,75,4.2,,31.484,,,340,,,,,,,,,,,og-post,,,,AAXX 29134 07020 36/// /3417 10084 20042 30175 40192 51012=
07020,1999-12-29 14:00:00,8.6,1019.5,1.1,73,4,,31.484,,,340,,,,,,,,,,,og-post,,,,AAXX 29144 07020 36/// /3417 10086 20040 30178 40195 51011=
07020,1999-12-29 15:00:00,8.4,1020,1.1,72,3.7,15000,22.224,,,10,,,,,,,,,,,og-post,,,,AAXX 29154 07020 32665 40112 10084 20037 30183 40200 53011 84200 333 92437=
07020,1999-12-29 16:00:00,8.1,1020.6,1.4,70,3,,18.52,,,10,,,,,,,,,,,og-post,,,,AAXX 29164 07020 36/// /0110 10081 20030 30189 40206 53014=
07020,1999-12-29 17:00:00,8.2,1021.5,2,71,3.3,,25.928,,,340,,,,,,,,,,,og-post,,,,AAXX 29174 07020 36/// /3414 10082 20033 30198 40215 53020=
07020,1999-12-29 18:00:00,8.2,1022.1,2.1,70,3.1,15000,29.632,,,330,7.2,8.7,,,,,,,,,og-post,,,,AAXX 29184 07020 32665 23316 10082 20031 30204 40221 52021 82200 222// 300// 333 10087 20072 92437=
07020,1999-12-29 19:00:00,8.2,1022.6,2,70,3.1,,22.224,,,340,,,,,,,,,,,og-post,,,,AAXX 29194 07020 36/// /3412 10082 20031 30209 40226 51020=
07020,1999-12-29 20:00:00,8.4,1023.3,1.8,72,3.7,,29.632,,,350,,,,,,,,,,,og-post,,,,AAXX 29204 07020 36/// /3516 10084 20037 30216 40233 53018=
07020,1999-12-29 21:00:00,8.2,1023.8,1.7,69,2.9,,29.632,,,340,,,,,,,,,,,og-post,,,,AAXX 29214 07020 36/// /3416 10082 20029 30221 40238 52017=
07020,1999-12-29 22:00:00,8.2,1024.3,1.7,72,3.5,,31.484,,,330,,,,,,,,,,,og-post,,,,AAXX 29224 07020 36/// /3317 10082 20035 30226 40243 51017=
07020,1999-12-29 23:00:00,8.3,1025,1.7,70,3.2,,31.484,,,330,,,,,,,,,,,og-post,,,,AAXX 29234 07020 36/// /3317 10083 20032 30233 40250 53017=
07020,1999-12-30 00:00:00,10,1023.6,0.6,100,10,0,25.928,,,240,,,,0,,,,,,,wg-a,,,,AAXX 30004 07020 12/// /2414 10100 20100 30219 40236 53006 60007 90000=
07020,1999-12-30 01:00:00,8,1024.3,0,71,3.1,,22.224,,,320,,,,,,,,,,,og-post,,,,AAXX 30014 07020 36/// /3212 10080 20031 30226 40243 50000=
07020,1999-12-30 02:00:00,8,1024.7,-0.3,69,2.7,,22.224,,,310,,,,,,,,,,,og-post,,,,AAXX 30024 07020 36/// /3112 10080 20027 30230 40247 55003=
07020,1999-12-30 03:00:00,8.2,1024.7,-0.1,72,3.5,,25.928,,,300,,,,,,,,,,,og-post,,,,AAXX 30034 07020 36/// /3014 10082 20035 30230 40247 56001=
07020,1999-12-30 04:00:00,8.3,1024.2,-0.1,70,3.2,,25.928,,,290,,,,,,,,,,,og-post,,,,AAXX 30044 07020 36/// /2914 10083 20032 30225 40242 58001=
07020,1999-12-30 05:00:00,8.3,1024.1,-0.6,73,3.8,,22.224,,,270,,,,,,,,,,,og-post,,,,AAXX 30054 07020 36/// /2712 10083 20038 30224 40241 58006=
07020,1999-12-30 06:00:00,7.8,1023.9,-0.8,83,5.1,15000,31.484,,,270,7.8,8.7,,0.4,,0.4,,,,62,og-post,,,,AAXX 30064 07020 /1665 82717 10078 20051 30222 40239 56008 69942 76262 88700 333 10087 20078 69947 92437=
07020,1999-12-30 07:00:00,8.7,1023.5,-0.7,79,5.3,,25.928,,,270,,,0.2,,,,,,,,og-post,,,,AAXX 30074 07020 26/// /2714 10087 20053 30218 40235 58007 333 69925=
07020,1999-12-30 08:00:00,8.5,1023.5,-0.6,79,5.1,,25.928,,,270,,,,,,,,,,,og-post,,,,AAXX 30084 07020 26/// /2714 10085 20051 30218 40235 56006 333 69905=
07020,1999-12-30 09:00:00,8,1023,-0.9,85,5.6,15000,29.632,,,250,,,,0.6,,,,,,62,og-post,,,,AAXX 30094 07020 21665 82516 10080 20056 30213 40230 58009 76262 88700 333 69967 92437=
07020,1999-12-30 10:00:00,8.3,1022.6,-0.9,87,6.3,,31.484,,,250,,,1,,,,,,,,og-post,,,,AAXX 30104 07020 26/// /2517 10083 20063 30209 40226 58009 333 60015=
07020,1999-12-30 11:00:00,8.6,1022.1,-1.4,89,6.9,,38.892,,,260,,,2,,,,,,,,og-post,,,,AAXX 30114 07020 26/// /2621 10086 20069 30204 40221 57014 333 60025=
07020,1999-12-30 12:00:00,8.4,1021.2,-1.8,89,6.7,8000,46.3,64.82,,260,,,,5,6,,,,,62,og-post,,,,AAXX 30124 07020 /1558 82625 10084 20067 30195 40212 58018 60061 76262 88700 333 60057 91135 92436=
07020,1999-12-30 13:00:00,8.7,1020.4,-2.2,89,7,,46.3,68.524,,270,,,3,,,,,,,,og-post,,,,AAXX 30134 07020 26/// /2725 10087 20070 30187 40204 58022 333 60035 91137=
07020,1999-12-30 14:00:00,8.7,1019,-3.1,90,7.2,,50.004,72.228,72.228,260,,,1,,,,,,,,og-post,,,,AAXX 30144 07020 26/// /2627 10087 20072 30173 40190 58031 333 60015 91039 91139=
07020,1999-12-30 15:00:00,9,1017.8,-3.4,92,7.8,3000,42.596,72.228,,260,,,,5,,,,,,64,og-post,,,,AAXX 30154 07020 21430 82623 10090 20078 30161 40178 58034 76462 88700 333 60057 91139 92445=
07020,1999-12-30 16:00:00,9.5,1016.8,-3.6,90,7.9,,46.3,64.82,,260,,,0.4,,,,,,,,og-post,,,,AAXX 30164 07020 26/// /2625 10095 20079 30151 40168 56036 333 69945 91135=
07020,1999-12-30 17:00:00,9.4,1016.1,-2.9,93,8.3,,46.3,79.636,72.228,260,,,2,,,,,,,,og-post,,,,AAXX 30174 07020 26/// /2625 10094 20083 30144 40161 56029 333 60025 91039 91143=
07020,1999-12-30 18:00:00,9.6,1015.2,-2.6,96,9,,46.3,79.636,,260,7.8,9.7,,5,,17,,,,,og-post,,,,AAXX 30184 07020 /6/// /2625 10096 20090 30135 40152 56026 60172 333 10097 20078 60057 91143=
07020,1999-12-30 19:00:00,10.2,1015.1,-1.7,96,9.6,,42.596,72.228,,270,,,,,,,,,,,og-post,,,,AAXX 30194 07020 26/// /2723 10102 20096 30134 40151 56017 333 69905 91139=
07020,1999-12-30 20:00:00,10.4,1014.5,-1.6,96,9.8,,38.892,,,270,,,0.8,,,,,,,,og-post,,,,AAXX 30204 07020 26/// /2721 10104 20098 30128 40145 56016 333 69985=
07020,1999-12-30 21:00:00,10.6,1014.4,-0.8,96,10,,35.188,72.228,,290,,,,2,,,,,,,og-post,,,,AAXX 30214 07020 26/// /2919 10106 20100 30127 40144 57008 333 60027 91139=
07020,1999-12-30 22:00:00,10.8,1014.5,-0.6,96,10.2,,35.188,,,300,,,,,,,,,,,og-post,,,,AAXX 30224 07020 26/// /3019 10108 20102 30128 40145 55006 333 69905=
07020,1999-12-30 23:00:00,10.8,1015.6,1.1,95,10,,31.484,,,300,,,,,,,,,,,og-post,,,,AAXX 30234 07020 26/// /3017 10108 20100 30139 40156 53011 333 69905=
07020,1999-12-31 00:00:00,10.8,1016.1,1.7,93,9.7,,35.188,72.228,,300,,,,,2,,,,,,og-post,,,,AAXX 31004 07020 /6/// /3019 10108 20097 30144 40161 53017 60021 333 69907 91139=
07020,1999-12-31 01:00:00,10.8,1016.6,2.1,93,9.7,,29.632,,,310,,,,,,,,,,,og-post,,,,AAXX 31014 07020 26/// /3116 10108 20097 30149 40166 51021 333 69905=
07020,1999-12-31 02:00:00,10.6,1016.8,1.2,93,9.5,,25.928,,,310,,,,,,,,,,,og-post,,,,AAXX 31024 07020 26/// /3114 10106 20095 30151 40168 51012 333 69905=
07020,1999-12-31 03:00:00,10.6,1017.3,1.2,93,9.5,,22.224,,,310,,,,,,,,,,,og-post,,,,AAXX 31034 07020 26/// /3112 10106 20095 30156 40173 52012 333 69907=
07020,1999-12-31 04:00:00,10.4,1017.4,0.8,93,9.3,,22.224,,,10,,,,,,,,,,,og-post,,,,AAXX 31044 07020 26/// /0112 10104 20093 30157 40174 51008 333 69905=
07020,1999-12-31 05:00:00,10.2,1017.9,1.1,90,8.6,,18.52,,,20,,,,,,,,,,,og-post,,,,AAXX 31054 07020 26/// /0210 10102 20086 30162 40179 52011 333 69905=
07020,1999-12-31 06:00:00,10,1018.5,1.2,89,8.3,5000,14.816,,,30,9.6,10.8,,,,2,,,,,og-post,,,,AAXX 31064 07020 /2550 80308 10100 20083 30168 40185 53012 60022 88700 333 10108 20096 69907 92436=
07020,1999-12-31 07:00:00,9.8,1019.2,1.8,88,7.9,,18.52,,,40,,,,,,,,,,,og-post,,,,AAXX 31074 07020 36/// /0410 10098 20079 30175 40192 53018=
07020,1999-12-31 08:00:00,9.5,1020.1,2.2,88,7.6,,7.408,,,70,,,,,,,,,,,og-post,,,,AAXX 31084 07020 36/// /0704 10095 20076 30184 40201 53022=
07020,1999-12-31 09:00:00,9.2,1020.7,2.2,86,7,15000,11.112,,,70,,,,,,,,,,,og-post,,,,AAXX 31094 07020 32565 80706 10092 20070 30190 40207 51022 88500 333 92437=
07020,1999-12-31 10:00:00,9.2,1021.2,2,83,6.5,,11.112,,,90,,,,,,,,,,,og-post,,,,AAXX 31104 07020 36/// /0906 10092 20065 30195 40212 51020=
07020,1999-12-31 11:00:00,9.6,1021.2,1.1,83,6.9,,11.112,,,140,,,,,,,,,,,og-post,,,,AAXX 31114 07020 36/// /1406 10096 20069 30195 40212 51011=
07020,1999-12-31 12:00:00,10,1021.1,0.4,84,7.4,15000,7.408,,,130,,,,,,,,,,,og-post,,,,AAXX 31124 07020 32565 81304 10100 20074 30194 40211 50004 885// 333 92437=
07020,1999-12-31 13:00:00,10.1,1020.9,-0.3,85,7.7,,11.112,,,210,,,,,,,,,,,og-post,,,,AAXX 31134 07020 36/// /2106 10101 20077 30192 40209 58003=
07020,1999-12-31 14:00:00,10.2,1020.7,-0.5,89,8.5,,18.52,,,220,,,,,,,,,,,og-post,,,,AAXX 31144 07020 36/// /2210 10102 20085 30190 40207 58005=
07020,1999-12-31 15:00:00,10.6,1020.8,-0.3,91,9.2,15000,18.52,,,250,,,,,,,,,,,og-post,,,,AAXX 31154 07020 32565 82510 10106 20092 30191 40208 55003 885// 333 92437=
07020,1999-12-31 16:00:00,10.5,1020.9,-0,88,8.6,,18.52,,,260,,,,,,,,,,,og-post,,,,AAXX 31164 07020 36/// /2610 10105 20086 30192 40209 55000=
07020,1999-12-31 17:00:00,9.9,1021.1,0.4,93,8.8,,22.224,,,250,,,,,,,,,,,og-post,,,,AAXX 31174 07020 36/// /2512 10099 20088 30194 40211 53004=
07020,1999-12-31 18:00:00,10,1021.3,0.5,96,9.4,6000,22.224,,,230,9.1,10.7,,0.2,,0.2,,,,,og-post,,,,AAXX 31184 07020 /2556 82312 10100 20094 30196 40213 53005 69922 885// 333 10107 20091 69927 92436=
07020,1999-12-31 19:00:00,10.4,1021.8,0.9,96,9.8,,18.52,,,270,,,,,,,,,,,og-post,,,,AAXX 31194 07020 36/// /2710 10104 20098 30201 40218 53009=
07020,1999-12-31 20:00:00,10.4,1021.8,0.7,96,9.8,,22.224,,,260,,,,,,,,,,,og-post,,,,AAXX 31204 07020 36/// /2612 10104 20098 30201 40218 51007=
07020,1999-12-31 21:00:00,10.4,1022.2,0.9,96,9.8,,18.52,,,260,,,,,,,,,,,og-post,,,,AAXX 31214 07020 36/// /2610 10104 20098 30205 40222 51009=
07020,1999-12-31 22:00:00,10.6,1022.4,0.6,95,9.8,,18.52,,,260,,,,,,,,,,,og-post,,,,AAXX 31224 07020 36/// /2610 10106 20098 30207 40224 53006=
07020,1999-12-31 23:00:00,10.5,1022.6,0.8,94,9.6,,22.224,,,260,,,,,,,,,,,og-post,,,,AAXX 31234 07020 36/// /2612 10105 20096 30209 40226 51008=
